{"station_id": ["AGGA", "AGGC", "AGGH", "AGGK", "AGGL", "AGGM", "AGGN", "AGGR", "ANYN", "AYPY", "BGBW", "BGGH", "BGKK", "BGSF", "BIGR", "BIHN", "BIHU", "BIIS", "BITN", "BIVM", "BIVO", "BKPR", "CBBC", "CWSA", "CWWU", "CYAH", "CYAM", "CYAT", "CYAY", "CYAZ", "CYBC", "CYBG", "CYBK", "CYBL", "CYBR", "CYBW", "CYBX", "CYCA", "CYCB", "CYCD", "CYCG", "CYCO", "CYCX", "CYCY", "CYDA", "CYDB", "CYDF", "CYDL", "CYDN", "CYDP", "CYDQ", "CYEG", "CYEK", "CYEN", "CYER", "CYEU", "CYEV", "CYFB", "CYFC", "CYFS", "CYGK", "CYGL", "CYGP", "CYGQ", "CYGR", "CYGV", "CYGW", "CYGX", "CYHD", "CYHI", "CYHK", "CYHM", "CYHU", "CYHY", "CYHZ", "CYIO", "CYIV", "CYJT", "CYKA", "CYKF", "CYKG", "CYKJ", "CYKL", "CYLD", "CYLK", "CYLL", "CYLT", "CYLW", "CYMA", "CYMH", "CYMM", "CYMO", "CYMT", "CYMX", "CYNA", "CYND", "CYNE", "CYOC", "CYOD", "CYOJ", "CYOO", "CYOW", "CYPA", "CYPC", "CYPE", "CYPH", "CYPL", "CYPQ", "CYPR", "CYPX", "CYPY", "CYQA", "CYQB", "CYQD", "CYQF", "CYQG", "CYQH", "CYQI", "CYQK", "CYQL", "CYQM", "CYQQ", "CYQR", "CYQT", "CYQU", "CYQV", "CYQW", "CYQX", "CYQY", "CYQZ", "CYRB", "CYRJ", "CYRL", "CYRQ", "CYRT", "CYSB", "CYSC", "CYSF", "CYSJ", "CYSM", "CYSN", "CYTE", "CYTH", "CYTL", "CYTQ", "CYTR", "CYTS", "CYTZ", "CYUB", "CYUL", "CYUT", "CYUX", "CYUY", "CYVC", "CYVM", "CYVO", "CYVP", "CYVQ", "CYVR", "CYVT", "CYVV", "CYWE", "CYWG", "CYWH", "CYWK", "CYWL", "CYXC", "CYXE", "CYXH", "CYXJ", "CYXL", "CYXR", "CYXS", "CYXT", "CYXU", "CYXX", "CYXY", "CYXZ", "CYYB", "CYYC", "CYYD", "CYYE", "CYYF", "CYYG", "CYYH", "CYYJ", "CYYL", "CYYN", "CYYQ", "CYYR", "CYYT", "CYYU", "CYYY", "CYYZ", "CYZE", "CYZF", "CYZH", "CYZP", "CYZR", "CYZS", "CYZT", "CYZU", "CYZV", "CYZX", "CYZY", "CZBF", "CZFA", "CZFM", "CZMD", "CZMT", "CZSJ", "CZUM", "CZVL", "DAAD", "DAAE", "DAAG", "DAAJ", "DAAP", "DAAS", "DAAT", "DAAV", "DAAY", "DABB", "DABC", "DABS", "DABT", "DAFH", "DAOB", "DAOF", "DAOI", "DAON", "DAOO", "DAOR", "DAOV", "DATM", "DAUA", "DAUB", "DAUG", "DAUH", "DAUI", "DAUK", "DAUL", "DAUO", "DAUT", "DAUU", "DAUZ", "DBBB", "DFFD", "DFOO", "DGAA", "DGLE", "DGSI", "DIAP", "DIBK", "DIYO", "DNAA", "DNAK", "DNBE", "DNGO", "DNIB", "DNIL", "DNJO", "DNKA", "DNKN", "DNKT", "DNMA", "DNMM", "DNSO", "DNSU", "DNYO", "DRRN", "DRZA", "DRZR", "DTKA", "DTMB", "DTNH", "DTTA", "DTTB", "DTTF", "DTTG", "DTTJ", "DTTR", "DTTX", "DTTZ", "DXNG", "DXXX", "EBAW", "EBBR", "EBCI", "EBLG", "EBOS", "EDAC", "EDAH", "EDDB", "EDDC", "EDDE", "EDDF", "EDDG", "EDDH", "EDDK", "EDDL", "EDDM", "EDDN", "EDDP", "EDDR", "EDDS", "EDDV", "EDDW", "EDFH", "EDGS", "EDHK", "EDHL", "EDJA", "EDLN", "EDLP", "EDLV", "EDLW", "EDMA", "EDNY", "EDQM", "EDSB", "EDTY", "EDVE", "EDVK", "EDXW", "EEEI", "EEKA", "EEKE", "EETN", "EFHK", "EFJY", "EFKK", "EFKS", "EFKU", "EFMA", "EFOU", "EFRO", "EFSA", "EFSI", "EFTP", "EFTU", "EFVA", "EGAA", "EGAC", "EGAE", "EGBB", "EGBJ", "EGCC", "EGCK", "EGCN", "EGEO", "EGFF", "EGGD", "EGGP", "EGGW", "EGHH", "EGHI", "EGHQ", "EGJA", "EGJB", "EGJJ", "EGKA", "EGKB", "EGKK", "EGLC", "EGLF", "EGLL", "EGMC", "EGMD", "EGNH", "EGNJ", "EGNM", "EGNR", "EGNS", "EGNT", "EGNV", "EGNX", "EGPA", "EGPB", "EGPC", "EGPD", "EGPE", "EGPF", "EGPH", "EGPI", "EGPK", "EGPL", "EGPN", "EGPO", "EGPU", "EGSH", "EGSS", "EGSY", "EGTC", "EGTE", "EGTK", "EGUN", "EGWC", "EGYD", "EHAM", "EHBK", "EHEH", "EHGG", "EHKD", "EHLE", "EHLW", "EHRD", "EHVK", "EICK", "EIDL", "EIDW", "EIKN", "EIKY", "EIME", "EINN", "EISG", "EIWF", "EKAH", "EKBI", "EKCH", "EKEB", "EKGC", "EKHD", "EKKA", "EKRK", "EKRN", "EKSB", "EKSP", "EKVG", "EKYT", "ELLX", "ENAL", "ENAN", "ENAT", "ENBN", "ENBO", "ENBR", "ENBS", "ENCN", "ENDU", "ENEV", "ENFL", "ENGC", "ENGM", "ENHD", "ENHE", "ENHF", "ENHV", "ENKB", "ENKR", "ENLE", "ENML", "ENMS", "ENNA", "ENNE", "ENOA", "ENOL", "ENOV", "ENRA", "ENRM", "ENRO", "ENRY", "ENSB", "ENSD", "ENSK", "ENSR", "ENTC", "ENTO", "ENVA", "ENVD", "ENZV", "EPBY", "EPDA", "EPDE", "EPGD", "EPKK", "EPKS", "EPKT", "EPLB", "EPLL", "EPLY", "EPMB", "EPMI", "EPMM", "EPMO", "EPOK", "EPPO", "EPPW", "EPRZ", "EPSC", "EPSY", "EPWA", "EPWR", "EPZG", "ESDF", "ESGG", "ESGP", "ESGT", "ESKN", "ESMK", "ESMQ", "ESMS", "ESMT", "ESMX", "ESNG", "ESNK", "ESNO", "ESNQ", "ESNS", "ESNU", "ESNX", "ESNZ", "ESOE", "ESPA", "ESSA", "ESSB", "ESSL", "ESSP", "ESSV", "ESTA", "ETAD", "ETAR", "ETNL", "ETNW", "ETOU", "ETSN", "EVGA", "EVLA", "EVRA", "EYKA", "EYPA", "EYSA", "EYVI", "FAEL", "FAHS", "FAKM", "FAKN", "FAMM", "FAPM", "FAPP", "FARB", "FAUT", "FAWB", "FAWK", "FBKE", "FCBB", "FCPP", "FDMS", "FDSK", "FEFF", "FGBT", "FGSL", "FIMP", "FIMR", "FJDG", "FKKD", "FKKL", "FKKR", "FKYS", "FMCH", "FMCZ", "FMEE", "FMEP", "FMMI", "FMMS", "FMMT", "FMNA", "FMNM", "FMNN", "FMSD", "FMST", "FNBG", "FNCA", "FNCT", "FNDU", "FNGI", "FNHU", "FNKU", "FNLU", "FNMA", "FNME", "FNMO", "FNSA", "FNSO", "FNUB", "FNUE", "FOOG", "FOOL", "FSIA", "FTTJ", "FVJN", "FVRG", "FYGF", "FYKM", "FYLZ", "FYOA", "FYRU", "FYWE", "FZAA", "FZIC", "FZNA", "FZQA", "GABS", "GAGO", "GBYD", "GCFV", "GCGM", "GCHI", "GCLA", "GCLP", "GCRR", "GCTS", "GCXO", "GECE", "GEML", "GLRB", "GMAD", "GMAG", "GMFF", "GMFK", "GMFM", "GMFO", "GMME", "GMMH", "GMMI", "GMML", "GMMN", "GMMW", "GMMX", "GMMZ", "GMTA", "GMTT", "GOBD", "GOGS", "GOOY", "GOSS", "GQNO", "GQPP", "GVBA", "HBBA", "HCMM", "HDAM", "HEAL", "HEAR", "HEAT", "HEAX", "HEBA", "HEBL", "HECA", "HEGN", "HELX", "HEMA", "HEMM", "HEOW", "HEPS", "HESC", "HESG", "HESH", "HESN", "HETB", "HETR", "HKEL", "HKJK", "HKKI", "HKNW", "HLGD", "HLGT", "HLKF", "HLLB", "HLLM", "HLLQ", "HLLS", "HLMS", "HLON", "HLTD", "HLTQ", "HLUB", "HRYR", "HTAR", "HTDA", "HTDO", "HTKA", "HTKJ", "HTMW", "HTTB", "HTZA", "HUSO", "KABE", "KABI", "KABQ", "KABR", "KABY", "KACK", "KACT", "KACV", "KACY", "KADF", "KADW", "KAEG", "KAEX", "KAFF", "KAFW", "KAGC", "KAGS", "KAHN", "KAIA", "KALB", "KALI", "KALO", "KALS", "KALW", "KAMA", "KANB", "KAND", "KAOO", "KAPA", "KAPC", "KAPF", "KAPN", "KARA", "KART", "KASD", "KASE", "KASN", "KAST", "KATL", "KATW", "KATY", "KAUG", "KAUS", "KAUW", "KAVL", "KAVP", "KAXN", "KAZO", "KBAD", "KBAF", "KBAM", "KBBD", "KBBG", "KBCB", "KBCE", "KBDL", "KBDN", "KBDR", "KBED", "KBFD", "KBFF", "KBFI", "KBFL", "KBFM", "KBGM", "KBGR", "KBHB", "KBHM", "KBIF", "KBIH", "KBIL", "KBIS", "KBIX", "KBJC", "KBJI", "KBKE", "KBKF", "KBKW", "KBLF", "KBLH", "KBLI", "KBLV", "KBMG", "KBMI", "KBNA", "KBNO", "KBOI", "KBOS", "KBPI", "KBPK", "KBPT", "KBRD", "KBRL", "KBRO", "KBTL", "KBTM", "KBTR", "KBTV", "KBUF", "KBUR", "KBVI", "KBVO", "KBWG", "KBWI", "KBYI", "KBZN", "KCAE", "KCAK", "KCAR", "KCBM", "KCDC", "KCDR", "KCDS", "KCEC", "KCEF", "KCGI", "KCHA", "KCHO", "KCHS", "KCID", "KCIU", "KCKB", "KCKV", "KCLE", "KCLL", "KCLM", "KCLT", "KCMA", "KCMH", "KCMI", "KCMX", "KCNM", "KCNU", "KCNY", "KCOD", "KCOE", "KCOF", "KCON", "KCOS", "KCOT", "KCOU", "KCPR", "KCPS", "KCRE", "KCRG", "KCRP", "KCRQ", "KCRW", "KCSG", "KCSM", "KCSV", "KCTB", "KCUB", "KCVG", "KCVS", "KCWA", "KCXO", "KCXP", "KCYS", "KDAB", "KDAG", "KDAL", "KDAN", "KDAY", "KDBQ", "KDCA", "KDDC", "KDEC", "KDEN", "KDET", "KDFW", "KDHN", "KDHT", "KDIJ", "KDIK", "KDLH", "KDLS", "KDMA", "KDMN", "KDNL", "KDOV", "KDPA", "KDRO", "KDRT", "KDSM", "KDTW", "KDUJ", "KDVL", "KDVT", "KDYS", "KEAR", "KEAT", "KEAU", "KECG", "KECP", "KEDW", "KEED", "KEET", "KEFD", "KEFK", "KEGE", "KEKN", "KEKO", "KEKS", "KELD", "KELM", "KELP", "KELY", "KEND", "KENV", "KENW", "KERI", "KEUG", "KEUL", "KEVV", "KEVW", "KEWN", "KEWR", "KEYW", "KFAR", "KFAT", "KFAY", "KFBG", "KFCS", "KFDY", "KFFO", "KFKL", "KFLG", "KFLL", "KFLO", "KFMH", "KFMN", "KFMY", "KFNT", "KFOD", "KFOE", "KFPR", "KFSD", "KFSM", "KFST", "KFTW", "KFTY", "KFVE", "KFWA", "KFXE", "KFYV", "KGBD", "KGCC", "KGCK", "KGCN", "KGDV", "KGEG", "KGFK", "KGFL", "KGGG", "KGGW", "KGJT", "KGKY", "KGLD", "KGLH", "KGLS", "KGMU", "KGNV", "KGON", "KGPI", "KGPT", "KGRB", "KGRF", "KGRI", "KGRK", "KGRR", "KGSB", "KGSO", "KGSP", "KGTB", "KGTF", "KGTR", "KGUC", "KGUP", "KGUS", "KGUY", "KGWO", "KGYY", "KHBG", "KHCR", "KHDC", "KHDN", "KHIB", "KHIE", "KHIF", "KHIO", "KHKS", "KHKY", "KHLG", "KHLN", "KHNB", "KHND", "KHOB", "KHON", "KHOP", "KHOT", "KHOU", "KHPN", "KHQM", "KHRL", "KHRO", "KHRT", "KHST", "KHSV", "KHTS", "KHUF", "KHUL", "KHUM", "KHUT", "KHVR", "KHYA", "KHYR", "KHYS", "KIAB", "KIAD", "KIAG", "KIAH", "KICT", "KIDA", "KIFP", "KILG", "KILM", "KILN", "KIND", "KINK", "KINL", "KINS", "KINT", "KINW", "KIPL", "KIPT", "KISM", "KISO", "KISP", "KITH", "KIWA", "KIWD", "KIXD", "KJAC", "KJAN", "KJAX", "KJBR", "KJCT", "KJEF", "KJER", "KJFK", "KJHW", "KJKA", "KJKL", "KJLN", "KJMS", "KJST", "KJVL", "KJXN", "KJZI", "KLAF", "KLAL", "KLAN", "KLAR", "KLAS", "KLAW", "KLAX", "KLBB", "KLBE", "KLBF", "KLBL", "KLBT", "KLBX", "KLCH", "KLCK", "KLEB", "KLEE", "KLEX", "KLFI", "KLFK", "KLFT", "KLGA", "KLGB", "KLGU", "KLIT", "KLLQ", "KLMT", "KLND", "KLNK", "KLNS", "KLOZ", "KLRD", "KLRF", "KLRU", "KLSE", "KLSV", "KLUK", "KLVK", "KLVM", "KLVS", "KLWB", "KLWS", "KLWT", "KLYH", "KMAF", "KMBG", "KMBL", "KMBS", "KMCB", "KMCC", "KMCE", "KMCF", "KMCI", "KMCK", "KMCN", "KMCO", "KMCW", "KMDT", "KMDW", "KMEI", "KMEM", "KMER", "KMEV", "KMFD", "KMFE", "KMFR", "KMGE", "KMGM", "KMGW", "KMHK", "KMHR", "KMHT", "KMIA", "KMIV", "KMKC", "KMKE", "KMKG", "KMKL", "KMKT", "KMLB", "KMLC", "KMLI", "KMLS", "KMLU", "KMMH", "KMMT", "KMOB", "KMOD", "KMOT", "KMPV", "KMQY", "KMRB", "KMRY", "KMSL", "KMSN", "KMSO", "KMSP", "KMSS", "KMSY", "KMTC", "KMTH", "KMTJ", "KMTN", "KMTW", "KMUI", "KMUO", "KMVN", "KMWH", "KMXF", "KMYL", "KMYR", "KNBG", "KNCA", "KNEW", "KNFG", "KNFL", "KNFW", "KNGP", "KNGU", "KNHK", "KNIP", "KNJK", "KNKT", "KNKX", "KNLC", "KNQX", "KNSE", "KNTD", "KNTU", "KNUW", "KNXP", "KNYG", "KNYL", "KNZY", "KOAJ", "KOAK", "KOFF", "KOFK", "KOGB", "KOGD", "KOKC", "KOLF", "KOLM", "KOLS", "KOMA", "KONP", "KONT", "KOPF", "KORD", "KORF", "KORH", "KOTH", "KOTM", "KOUN", "KOWB", "KOXR", "KOZR", "KPAE", "KPAH", "KPAM", "KPBF", "KPBG", "KPBI", "KPDK", "KPDT", "KPDX", "KPEQ", "KPGA", "KPGD", "KPGV", "KPHF", "KPHL", "KPHX", "KPIA", "KPIB", "KPIE", "KPIH", "KPIR", "KPIT", "KPKB", "KPLN", "KPMD", "KPNA", "KPNC", "KPNE", "KPNS", "KPOE", "KPOU", "KPQI", "KPRB", "KPRC", "KPSC", "KPSF", "KPSM", "KPSP", "KPTK", "KPUB", "KPUW", "KPVD", "KPVU", "KPVW", "KPWM", "KPWT", "KRAP", "KRBG", "KRBL", "KRDD", "KRDG", "KRDM", "KRDR", "KRDU", "KRFD", "KRHI", "KRIC", "KRIL", "KRIV", "KRIW", "KRKD", "KRKS", "KRME", "KRNH", "KRNO", "KROA", "KROC", "KROG", "KROW", "KRSL", "KRST", "KRSW", "KRUT", "KRVS", "KRWF", "KRWI", "KRWL", "KRYY", "KSAC", "KSAF", "KSAN", "KSAT", "KSAV", "KSAW", "KSBA", "KSBD", "KSBM", "KSBN", "KSBP", "KSBY", "KSCK", "KSDF", "KSDL", "KSDY", "KSEA", "KSEZ", "KSFB", "KSFF", "KSFO", "KSGF", "KSGJ", "KSGR", "KSGU", "KSHR", "KSHV", "KSJC", "KSJS", "KSJT", "KSKA", "KSKF", "KSLC", "KSLE", "KSLI", "KSLK", "KSLN", "KSME", "KSMF", "KSMN", "KSMO", "KSMX", "KSNA", "KSNS", "KSNY", "KSOA", "KSPI", "KSPS", "KSRQ", "KSSC", "KSSF", "KSSI", "KSTC", "KSTJ", "KSTL", "KSTS", "KSUA", "KSUN", "KSUS", "KSUU", "KSUX", "KSWF", "KSWO", "KSYM", "KSYR", "KSZL", "KTCC", "KTCL", "KTCM", "KTCS", "KTEB", "KTEX", "KTIK", "KTIX", "KTLH", "KTMB", "KTOI", "KTOL", "KTOP", "KTPA", "KTPH", "KTRI", "KTRK", "KTRM", "KTTD", "KTTN", "KTUL", "KTUP", "KTUS", "KTVC", "KTVF", "KTVL", "KTWF", "KTXK", "KTYR", "KTYS", "KUAO", "KUES", "KUIN", "KUKI", "KUNV", "KUTS", "KVAD", "KVCT", "KVEL", "KVGT", "KVIS", "KVLD", "KVNY", "KVPS", "KVQQ", "KVRB", "KVTN", "KWJF", "KWMC", "KWRB", "KWRI", "KWRL", "KWWR", "KWYS", "KXNA", "KXWA", "KYIP", "KYKM", "KYNG", "KZZV", "LBBG", "LBGO", "LBPD", "LBSF", "LBWN", "LCEN", "LCLK", "LCPH", "LDDU", "LDLO", "LDOS", "LDPL", "LDRI", "LDSP", "LDZA", "LDZD", "LEAB", "LEAG", "LEAL", "LEAM", "LEAO", "LEAS", "LEBA", "LEBB", "LEBG", "LEBL", "LEBZ", "LECO", "LECV", "LEGE", "LEGR", "LEGT", "LEHC", "LEIB", "LEJR", "LELC", "LELL", "LELN", "LELO", "LEMD", "LEMG", "LEMH", "LEMO", "LEPA", "LEPP", "LERI", "LERL", "LERS", "LERT", "LESA", "LESO", "LEST", "LESU", "LETO", "LEVC", "LEVD", "LEVS", "LEVT", "LEVX", "LEXJ", "LEZG", "LEZL", "LFAQ", "LFAT", "LFBA", "LFBD", "LFBE", "LFBH", "LFBI", "LFBL", "LFBM", "LFBO", "LFBP", "LFBT", "LFBU", "LFBZ", "LFCK", "LFCR", "LFGJ", "LFJL", "LFKB", "LFKC", "LFKF", "LFKJ", "LFKS", "LFLB", "LFLC", "LFLL", "LFLN", "LFLP", "LFLS", "LFLW", "LFLX", "LFLY", "LFMD", "LFMI", "LFMK", "LFML", "LFMN", "LFMO", "LFMP", "LFMT", "LFMU", "LFMV", "LFOA", "LFOB", "LFOE", "LFOH", "LFOJ", "LFOK", "LFOP", "LFOT", "LFPB", "LFPG", "LFPN", "LFPO", "LFPV", "LFQQ", "LFRB", "LFRC", "LFRD", "LFRG", "LFRH", "LFRI", "LFRJ", "LFRK", "LFRM", "LFRN", "LFRQ", "LFRS", "LFRZ", "LFSB", "LFSI", "LFSL", "LFST", "LFTH", "LFTW", "LFVP", "LGAD", "LGAL", "LGAV", "LGBL", "LGEL", "LGHI", "LGIO", "LGIR", "LGKC", "LGKF", "LGKL", "LGKO", "LGKP", "LGKR", "LGKV", "LGLM", "LGLR", "LGMK", "LGMT", "LGPZ", "LGRP", "LGRX", "LGSA", "LGSK", "LGSM", "LGSR", "LGST", "LGSY", "LGTG", "LGTL", "LGTS", "LGZA", "LHBP", "LHDC", "LHKE", "LHPA", "LHPP", "LHPR", "LHSM", "LHSN", "LIBA", "LIBC", "LIBD", "LIBF", "LIBG", "LIBP", "LIBR", "LIBV", "LICA", "LICB", "LICC", "LICD", "LICG", "LICJ", "LICR", "LICT", "LICZ", "LIEA", "LIED", "LIEE", "LIEO", "LIMC", "LIME", "LIMF", "LIMG", "LIMJ", "LIML", "LIMP", "LIMW", "LIMZ", "LIPB", "LIPC", "LIPE", "LIPH", "LIPK", "LIPL", "LIPO", "LIPQ", "LIPR", "LIPS", "LIPX", "LIPY", "LIPZ", "LIRA", "LIRE", "LIRF", "LIRL", "LIRM", "LIRN", "LIRP", "LIRQ", "LIRS", "LIRU", "LIRV", "LIRZ", "LJCE", "LJLJ", "LJMB", "LJPZ", "LKKB", "LKKV", "LKMT", "LKNA", "LKPD", "LKPR", "LKTB", "LLBG", "LLER", "LLHA", "LLHZ", "LLIB", "LMML", "LOAN", "LOAV", "LOWG", "LOWI", "LOWK", "LOWL", "LOWS", "LOWW", "LOXZ", "LPAZ", "LPBJ", "LPCS", "LPFR", "LPHR", "LPLA", "LPMA", "LPMR", "LPMT", "LPOV", "LPPD", "LPPR", "LPPS", "LPPT", "LQBK", "LQMO", "LQSA", "LQTZ", "LRAR", "LRBC", "LRBM", "LRBS", "LRCK", "LRCL", "LRCV", "LRIA", "LROD", "LROP", "LRSB", "LRSV", "LRTC", "LRTM", "LRTR", "LSGC", "LSGG", "LSGS", "LSZA", "LSZB", "LSZG", "LSZH", "LSZL", "LSZR", "LSZS", "LTAB", "LTAC", "LTAD", "LTAE", "LTAF", "LTAG", "LTAH", "LTAI", "LTAJ", "LTAL", "LTAN", "LTAO", "LTAP", "LTAR", "LTAS", "LTAT", "LTAU", "LTAV", "LTAW", "LTAY", "LTAZ", "LTBA", "LTBD", "LTBF", "LTBG", "LTBH", "LTBI", "LTBJ", "LTBK", "LTBL", "LTBN", "LTBO", "LTBP", "LTBQ", "LTBR", "LTBS", "LTBT", "LTBU", "LTBV", "LTBX", "LTBY", "LTBZ", "LTCA", "LTCB", "LTCC", "LTCD", "LTCE", "LTCF", "LTCG", "LTCI", "LTCJ", "LTCK", "LTCL", "LTCM", "LTCN", "LTCO", "LTCP", "LTCR", "LTCS", "LTCT", "LTCU", "LTCV", "LTCW", "LTDA", "LTFA", "LTFB", "LTFC", "LTFD", "LTFE", "LTFG", "LTFH", "LTFJ", "LTFK", "LTFM", "LTFO", "LUKK", "LWOH", "LWSK", "LXGB", "LYBE", "LYBT", "LYKV", "LYNI", "LYPG", "LYTV", "LYVR", "LZIB", "LZKZ", "LZMC", "LZPP", "LZPW", "LZSL", "LZTT", "LZZI", "MGGT", "MGMM", "MGPB", "MGSJ", "MHLC", "MHLM", "MHRO", "MHTG", "MKJP", "MKJS", "MMAN", "MMCE", "MMCM", "MMCP", "MMCS", "MMCU", "MMCV", "MMIO", "MMMA", "MMMT", "MMMV", "MMMY", "MMNL", "MMPA", "MMPG", "MMPQ", "MMRX", "MMTC", "MMVA", "MPDA", "MPMG", "MPPA", "MPSM", "MPTO", "MRLB", "MRLM", "MROC", "MRPV", "MSSS", "MTCH", "MTPP", "MUCC", "MUCF", "MUCL", "MUCM", "MUCU", "MUGM", "MUHA", "MUHG", "MUSC", "MUVR", "MWCB", "MWCR", "NCRG", "NFFN", "NFNA", "NFTF", "NFTV", "NGFU", "NGTA", "NLWF", "NLWW", "NSFA", "NSTU", "NTAA", "NWWD", "NWWE", "NWWK", "NWWL", "NWWM", "NWWR", "NWWU", "NWWW", "NZAA", "NZCH", "NZFX", "NZQN", "NZWN", "OEAB", "OEAH", "OEAO", "OEBA", "OEBH", "OEDF", "OEDM", "OEDR", "OEGN", "OEGS", "OEGT", "OEHL", "OEJN", "OEKJ", "OEKM", "OEMA", "OENG", "OEPA", "OEPS", "OERF", "OERK", "OERR", "OESH", "OESK", "OETB", "OETF", "OETR", "OEWD", "OEWJ", "OEYN", "OIAA", "OIAW", "OIBB", "OIBK", "OIBP", "OICC", "OICI", "OIFM", "OIGG", "OIIE", "OIII", "OIIP", "OIKB", "OIKK", "OIMM", "OING", "OINZ", "OISL", "OISS", "OITL", "OITR", "OITT", "OIYY", "OIZH", "OJAI", "OJAM", "OJAQ", "OKAS", "OKBK", "OMAA", "OMAD", "OMAL", "OMFJ", "OODQ", "OOMS", "OOSA", "OOSH", "ORBI", "ORER", "ORMM", "ORNI", "OTBD", "OTBH", "OTHH", "PAAQ", "PABE", "PABR", "PABT", "PACD", "PACV", "PADL", "PADQ", "PADU", "PAED", "PAEI", "PAEN", "PAFA", "PAGA", "PAGK", "PAGS", "PAGY", "PAHN", "PAHO", "PAIL", "PAJN", "PAKN", "PAKT", "PAKW", "PAMC", "PANC", "PAOM", "PAOR", "PAOT", "PAPG", "PAQT", "PASC", "PASD", "PASI", "PASN", "PASY", "PATA", "PATK", "PAUN", "PAVD", "PAWG", "PAYA", "PGRO", "PGSN", "PGUA", "PGUM", "PGWT", "PHJH", "PHJR", "PHKO", "PHLI", "PHMK", "PHNL", "PHNY", "PHOG", "PHTO", "PKMJ", "PKWA", "PLCH", "PMDY", "PTKK", "PTPN", "PTRO", "PTSA", "PTYA", "PWAK", "RCFN", "RCKH", "RCMQ", "RCNN", "RCSS", "RCTP", "RJAA", "RJAH", "RJBB", "RJCB", "RJCC", "RJCH", "RJCK", "RJCM", "RJEC", "RJFF", "RJFK", "RJFM", "RJFO", "RJFR", "RJFS", "RJFT", "RJFU", "RJGG", "RJNK", "RJNS", "RJNT", "RJOA", "RJOB", "RJOC", "RJOH", "RJOI", "RJOK", "RJOM", "RJOO", "RJOT", "RJSA", "RJSF", "RJSI", "RJSK", "RJSN", "RJSS", "RJTT", "RJTY", "RKJB", "RKNY", "RKPC", "RKPK", "RKSG", "RKSI", "RKSM", "RKSO", "RKSS", "RKTN", "RKTU", "ROAH", "RODN", "ROIG", "ROTM", "RPLB", "RPLC", "RPLI", "RPLL", "RPMD", "RPMR", "RPMZ", "RPVD", "RPVM", "RPVP", "SAAR", "SABE", "SACO", "SADF", "SAEZ", "SAME", "SANR", "SANT", "SARE", "SARF", "SARI", "SARP", "SASA", "SASJ", "SAVC", "SAWE", "SAWG", "SAWH", "SAZM", "SAZN", "SAZS", "SBAF", "SBAN", "SBAT", "SBBI", "SBBU", "SBBW", "SBCO", "SBCZ", "SBDN", "SBGW", "SBIH", "SBIL", "SBIZ", "SBJV", "SBKG", "SBME", "SBNF", "SBNT", "SBSC", "SBSM", "SBTD", "SBUG", "SBUL", "SBUR", "SBVH", "SBYS", "SCCY", "SCJO", "SCNT", "SKSP", "SLAL", "SLCB", "SLCO", "SLET", "SLLP", "SLTJ", "SLTR", "SLVR", "SOCA", "SPCL", "SPEO", "SPGM", "SPHI", "SPHO", "SPHY", "SPJC", "SPJI", "SPJL", "SPJR", "SPLO", "SPME", "SPMS", "SPNC", "SPPY", "SPQT", "SPQU", "SPRU", "SPSO", "SPST", "SPTN", "SPTU", "SPYL", "SPZO", "SUAA", "SUCA", "SUDU", "SULS", "SUMU", "SURV", "SUSO", "SVVA", "SYEB", "SYKA", "SYKM", "SYLT", "SYMB", "TAPA", "TBPB", "TDPD", "TFFF", "TFFR", "TIST", "TISX", "TJBQ", "TJPS", "TJSJ", "TKPK", "TKPN", "TLPC", "TLPL", "TNCA", "TNCB", "TNCC", "TQPF", "TRPG", "TUPJ", "TVSA", "TXKF", "UAAA", "UAAH", "UAAT", "UACC", "UACK", "UACP", "UADD", "UAII", "UAIT", "UAKD", "UAKK", "UAOO", "UARR", "UASK", "UASP", "UASS", "UATE", "UATG", "UATT", "UAUU", "UBBB", "UBBF", "UBBL", "UBBQ", "UBBY", "UBEE", "UCFL", "UCFM", "UCFO", "UDSG", "UDYZ", "UEEE", "UERP", "UERR", "UGAM", "UGKO", "UGMS", "UGSB", "UGTB", "UHBB", "UHHH", "UHMA", "UHMM", "UHPP", "UHSS", "UHWW", "UIAA", "UIBB", "UIII", "UIUU", "ULLI", "ULMM", "ULOO", "ULPB", "ULWC", "UMBB", "UMGG", "UMII", "UMKK", "UMMG", "UMMS", "UMOO", "UNAA", "UNBB", "UNEE", "UNKL", "UNNT", "UNOO", "UNTT", "UNWW", "UOOO", "URKA", "URKK", "URMG", "URML", "URMM", "URMN", "URMO", "URMT", "URRP", "URSS", "URWA", "URWI", "URWW", "USCC", "USCM", "USDA", "USHH", "USNN", "USPP", "USRR", "USSS", "USTR", "UTAA", "UTAK", "UTAM", "UTAT", "UTAV", "UTDD", "UTDK", "UTDL", "UTDT", "UTFF", "UTFN", "UTNN", "UTNU", "UTSA", "UTSB", "UTSK", "UTSS", "UTST", "UTTT", "UUBC", "UUBP", "UUBW", "UUDD", "UUDL", "UUEE", "UUMO", "UUOB", "UUOK", "UUOL", "UUOO", "UUWW", "UUYY", "UWGG", "UWKD", "UWKE", "UWKS", "UWLL", "UWLW", "UWOO", "UWOR", "UWPS", "UWSG", "UWUU", "UWWW", "VAAH", "VAAU", "VABB", "VABO", "VABP", "VABV", "VADU", "VAID", "VAJB", "VAKE", "VAKP", "VANP", "VAOZ", "VAPO", "VAPR", "VARK", "VASD", "VASL", "VASU", "VAUD", "VCBI", "VCRI", "VDPP", "VDSR", "VDSV", "VEAT", "VEBD", "VEBI", "VEBN", "VEBS", "VECC", "VEDG", "VEGT", "VEGY", "VEIM", "VEJH", "VEJS", "VEKO", "VELP", "VELR", "VEMN", "VEMR", "VEPT", "VEPY", "VERC", "VERP", "VGHS", "VHHH", "VIAG", "VIAR", "VIBY", "VICG", "VIDN", "VIDP", "VIJP", "VILK", "VIPT", "VLLB", "VLLN", "VLPS", "VLSK", "VLVT", "VMMC", "VNKT", "VOAR", "VOBG", "VOBL", "VOBM", "VOBZ", "VOCB", "VOCI", "VOCL", "VOCP", "VOGB", "VOGO", "VOHB", "VOHS", "VOHY", "VOJV", "VOKN", "VOKU", "VOLT", "VOMD", "VOML", "VOMM", "VOMY", "VOND", "VORY", "VOSR", "VOTP", "VOTR", "VOTV", "VOVZ", "VRMG", "VRMH", "VRMM", "VTBD", "VTBO", "VTBS", "VTBU", "VTCC", "VTCH", "VTCL", "VTCN", "VTCP", "VTCT", "VTPB", "VTPH", "VTPM", "VTPO", "VTPP", "VTSB", "VTSC", "VTSE", "VTSF", "VTSG", "VTSM", "VTSP", "VTSR", "VTSS", "VTST", "VTUD", "VTUI", "VTUK", "VTUL", "VTUO", "VTUQ", "VTUU", "VTUV", "VTUW", "VVCI", "VVCR", "VVCT", "VVDN", "VVNB", "VVPB", "VVPQ", "VVTS", "VYMD", "VYNT", "VYYY", "WABB", "WADD", "WAMM", "WAPP", "WARR", "WBGG", "WBKK", "WBSB", "WIDD", "WIEE", "WIHH", "WIII", "WIMM", "WIPB", "WIPP", "WMKJ", "WMKK", "WMKP", "WMPA", "WMSA", "WPDL", "WSAP", "WSSL", "WSSS", "YAMB", "YBAS", "YBBN", "YBCG", "YBCS", "YBHM", "YBLN", "YBMA", "YBRK", "YBRM", "YBTL", "YBWW", "YCFS", "YCIN", "YFRT", "YGEL", "YGLA", "YHID", "YLHI", "YMAV", "YMHB", "YMLT", "YMML", "YPAD", "YPCC", "YPDN", "YPEA", "YPGV", "YPJT", "YPKG", "YPKU", "YPLM", "YPPD", "YPPH", "YPTN", "YPWR", "YPXM", "YSCB", "YSDU", "YSNF", "YSRI", "YSSY", "YSTW", "YWLM", "ZKPY", "ZKWS", "ZMUB"], "raw_text": ["TAF AGGA 152310Z 1600/1624 18010KT 9999 SCT018", "TAF AGGC 152310Z 1600/1624 05010KT 9999 SCT018", "TAF AGGH 161110Z 1612/1712 05008KT 9999 -SHRA SCT018 SCT100 PROB40 INTER 1612/1618 8000 SHRA BKN016 T 24 23 23 26 Q 1012 1010 1009 1011", "TAF AGGK 152310Z 1600/1624 05010KT 9999 SCT018", "TAF AGGL 152310Z 1600/1624 09012KT 9999 SCT018 BKN029 PROB40 INTER 1600/1605 5000 SHRA BKNO16", "TAF AGGM 161110Z 1612/1712 05008KT 9999 SCT018 SCT028 PROB40 INTER 1612/1618 8000 SHRA BKN016 Q 1011 1009 1008 1010", "TAF AGGN 161110Z 1612/1712 05008KT 9999 SCT018 SCT028 PROB40 INTER 1612/1618 8000 SHRA BKN016 Q 1011 1009 1008 1010", "TAF AGGR 152310Z 1600/1624 07010KT 9999 SCT018 BKN029 PROB40 INTER 1600/1604 5000 SHRA BKNO16", "TAF ANYN 160234Z 1606/1706 09010KT 9999 FEW020", "TAF AYPY 160230Z 1606/1706 17015KT 9999 -SHRA SCT018 BKN030 FM161000 16012KT 9999 -RADZ SCT030 SCT140 INTER 1606/1609 5000 TSRA BKN010 FEW018CB", "TAF BGBW 161415Z 1615/1619 VRB05KT 9999 FEW200", "TAF BGGH 161415Z 1615/1623 VRB06KT 9999 FEW200 BECMG 1615/1617 18018KT TEMPO 1617/1620 18025G35KT TEMPO 1620/1623 18023G33KT", "TAF BGKK 161415Z 1615/1621 VRB07KT 9999 FEW200 BECMG 1618/1621 25013G23KT", "TAF BGSF 161049Z 1612/1718 06010KT 9999 FEW100 SCT180 TEMPO 1618/1712 BKN080 TEMPO 1715/1718 -RA BKN040", "TAF BIGR 161328Z 1614/1617 02030G40KT 7000 -RASN OVC008 BECMG 1616/1617 02025KT", "TAF BIHN 161326Z 1614/1617 03015G25KT 9999 -RA BKN030", "TAF BIHU 161604Z 1617/1619 35015KT 8000 -RA OVC008", "TAF COR BIIS 161607Z 1617/1619 02020KT 9999 FEW020 BKN030", "TAF BITN 161612Z 1617/1619 03023KT 4000 DZ BR OVC005", "TAF BIVM 161604Z 1617/1619 02020G30KT 9999 BKN025", "TAF BIVO 161611Z 1617/1619 02020KT 2000 DZ BR VV005 BECMG 1618/1619 9999 -RA BKN020", "TAF BKPR 161130Z 1612/1712 VRB03KT CAVOK BECMG 1702/1704 1000 BCFG TEMPO 1704/1706 0200 FG BKN004 BECMG 1706/1708 CAVOK", "TAF CBBC 161240Z 1613/1701 VRB03KT P6SM FEW004 FM161800 08005KT P6SM SKC RMK FCST BASED ON AUTO OBS. NXT FCST BY 161900Z", "TAF AMD CWSA 161641Z 1616/1624 04012KT 1 1/2SM -SHRA BR OVC004 TEMPO 1616/1618 3SM BR OVC010 FM161800 35012KT 1SM -DZ BR OVC004 TEMPO 1618/1624 3SM BR OVC010 RMK FCST BASED ON AUTO OBS. NXT FCST BY 162000Z", "TAF AMD CWWU 161305Z 1613/1712 11006KT P6SM OVC015 FM161900 13010G16KT P6SM BKN008 OVC015 FM170300 13013G22KT 5SM -SHRA BKN006 OVC012 FM170700 15019G33KT 2SM -RA BR OVC005 RMK NXT FCST BY 161800Z", "TAF CYAH 161042Z 1611/1621 15008G18KT P6SM BKN050 OVC160 TEMPO 1611/1613 BKN020 OVC050 FM161300 19015G30KT P6SM -SHRA SCT020 OVC030 TEMPO 1613/1615 5SM -SHRA BR BKN020 OVC030 FM161500 19015G30KT 6SM -SHRA BR OVC025 TEMPO 1615/1618 4SM -SHRA BR OVC020 FM161800 20020G35KT 4SM -SHRA BR OVC020 BECMG 1619/1621 20015G30KT RMK FCST BASED ON AUTO OBS. NXT FCST BY 161800Z", "TAF CYAM 161340Z 1614/1702 28005KT 5SM -SHRA BR BKN015 OVC030 TEMPO 1614/1617 P6SM NSW BKN030 PROB30 1614/1615 BKN005 FM161700 30012KT P6SM -SHRA OVC030 TEMPO 1617/1619 5SM -SHRA BR OVC020 BECMG 1623/1701 33007KT RMK NXT FCST BY 162000Z", "TAF CYAT 161440Z 1615/1619 33005KT P6SM SCT020 BKN040 TEMPO 1615/1619 P6SM -SHRA BKN020 OVC040 BECMG 1615/1617 31010KT RMK FCST BASED ON AUTO OBS. NXT FCST BY 170900Z", "TAF CYAY 161340Z 1614/1702 12007KT 1/4SM FG VV001 BECMG 1614/1616 P6SM NSW FEW004 OVC180 FM161600 13015KT P6SM SCT020 OVC180 TEMPO 1616/1622 BKN020 OVC180 FM162200 12012KT 6SM BR OVC006 RMK FCST BASED ON AUTO OBS. NXT FCST BY 162000Z", "TAF CYAZ 161440Z 1615/1701 VRB03KT P6SM SKC BECMG 1618/1620 OVC004 FM162000 14005KT P6SM OVC004 PROB30 1620/1701 2SM BR RMK NXT FCST BY 161900Z", "TAF AMD CYBC 161604Z 1616/1702 20008KT P6SM BKN004 OVC008 TEMPO 1616/1618 SCT004 BKN010 FM161800 23010KT P6SM FEW040 BECMG 1700/1702 VRB03KT RMK FCST BASED ON AUTO OBS. NXT FCST BY 162000Z", "TAF CYBG 161440Z 1615/1712 27006KT P6SM FEW050 FM161900 27008KT P6SM SCT040 BKN240 FM170300 VRB03KT P6SM BKN040 RMK NXT FCST BY 161800Z", "TAF CYBK 161140Z 1612/1624 32015G25KT P6SM SCT020 BKN040 TEMPO 1612/1624 5SM -SN BKN020 BKN040 BECMG 1622/1624 32012KT RMK NXT FCST BY 161800Z", "TAF CYBL 161440Z 1615/1703 VRB03KT P6SM SKC BECMG 1620/1622 09005KT RMK NXT FCST BY 161900Z", "TAF CYBR 161140Z 1612/1624 34012KT P6SM SCT030 TEMPO 1612/1620 BKN030 RMK NXT FCST BY 161800Z", "TAF CYBW 161149Z 1612/1624 32004KT P6SM SKC BECMG 1617/1619 VRB03KT BECMG 1619/1621 14005KT FM162300 16008KT P6SM SKC RMK FCST BASED ON AUTO OBS. NXT FCST BY 161800Z", "TAF CYBX 161340Z 1614/1702 07008KT P6SM BKN200 BECMG 1614/1616 08015KT FM170000 08015KT P6SM SCT015 OVC100 TEMPO 1700/1702 BKN015 OVC100 RMK NXT FCST BY 162000Z", "TAF CYCA 161340Z 1614/1702 21008KT P6SM BKN220 BECMG 1620/1622 16008KT RMK FCST BASED ON AUTO OBS. NXT FCST BY 162000Z", "TAF CYCB 161240Z 1613/1701 32012KT P6SM SCT015 BKN040 TEMPO 1613/1701 5SM -SN BKN020 BECMG 1621/1623 06006KT RMK NXT FCST BY 161900Z", "TAF CYCD 161440Z 1615/1703 VRB02KT P6SM SKC BECMG 1618/1620 08006KT BECMG 1700/1702 VRB02KT RMK NXT FCST BY 161800Z", "TAF CYCG 161440Z 1615/1703 VRB02KT P6SM VCFG SCT002 TEMPO 1615/1616 1SM BR BKN002 FM161700 VRB03KT P6SM FEW005 FM161900 34006KT P6SM SKC RMK NXT FCST BY 161900Z", "TAF CYCO 161240Z 1613/1701 VRB03KT P6SM SCT008 SCT200 BECMG 1616/1618 20010KT SCT025 BKN150 FM162100 11012KT P6SM BKN120 BECMG 1622/1624 BKN060 RMK NXT FCST BY 161900Z", "TAF CYCX 161441Z 1615/1703 30005KT P6SM OVC005 BECMG 1615/1617 SCT005 SCT020 FM161700 28005KT P6SM FEW020 FM162100 27005KT P6SM FEW240 RMK NXT FCST BY 162100Z", "TAF CYCY 161240Z 1613/1701 21008KT P6SM SCT220 BECMG 1616/1618 32006KT FM161800 33006KT P6SM BKN180 FM162100 33008KT P6SM SCT020 OVC040 TEMPO 1621/1624 3SM -SN BR OVC020 FM170000 34012KT 3/4SM -SN BR VV008 RMK FCST BASED ON AUTO OBS. NXT FCST BY 161900Z", "TAF CYDA 161540Z 1616/1623 08005KT P6SM BKN040 OVC140 FM162100 09010G20KT P6SM SCT040 BKN120 RMK NXT FCST BY 171600Z", "TAF CYDB 161142Z 1612/1624 11010G20KT P6SM SCT080 BECMG 1613/1615 12015G25KT RMK FCST BASED ON AUTO OBS. NXT FCST BY 161800Z", "TAF CYDF 161340Z 1614/1702 VRB03KT P6SM OVC180 FM161800 09008KT P6SM OVC100 TEMPO 1618/1622 P6SM -SHRA FM162200 05008KT P6SM -RA OVC040 TEMPO 1622/1624 4SM -SHRA BR BKN015 OVC040 FM170000 05012KT 6SM -RA BR OVC015 TEMPO 1700/1702 4SM -SHRA BR BKN006 OVC015 RMK NXT FCST BY 162000Z", "TAF CYDL 161240Z 1613/1624 VRB03KT 1/4SM FZFG VV002 TEMPO 1613/1616 4SM BR BKN015 BECMG 1616/1618 P6SM NSW BKN010 FM161800 33010G20KT P6SM BKN010 BECMG 1618/1620 03010G20KT SKC RMK FCST BASED ON AUTO OBS. NXT FCST BY 161800Z", "TAF CYDN 161140Z 1612/1624 32012KT P6SM BKN030 TEMPO 1612/1620 SCT030 FM162000 36010KT P6SM SCT030 RMK FCST BASED ON AUTO OBS. NXT FCST BY 161800Z", "TAF CYDP 161340Z 1614/1623 13008KT P6SM SCT025 BKN100 TEMPO 1614/1616 BKN020 BKN100 FM161600 13010KT P6SM BKN025 OVC050 TEMPO 1616/1618 P6SM -SHRA OVC020 FM161800 13010KT P6SM -RA OVC015 TEMPO 1618/1623 4SM -SHRA BR BKN008 OVC015 RMK NXT FCST BY 162000Z", "TAF CYDQ 161240Z 1613/1701 00000KT P6SM FEW240 PROB30 1614/1616 1 1/2SM BR FM161800 VRB03KT P6SM SKC BECMG 1619/1621 12004KT BECMG 1623/1701 03003KT RMK FCST BASED ON AUTO OBS. NXT FCST BY 161900Z", "TAF CYEG 161440Z 1615/1712 VRB03KT P6SM FEW200 BECMG 1615/1617 16006KT FM162100 14010KT P6SM SKC RMK NXT FCST BY 161800Z", "TAF AMD CYEK 161516Z 1615/1624 32020KT P6SM BKN020 TEMPO 1615/1624 BKN030 BECMG 1616/1617 34025G35KT RMK NXT FCST BY 161800Z", "TAF CYEN 161140Z 1612/1624 30008KT P6SM SKC FM161500 33012KT P6SM BKN100 FM161900 33012KT P6SM BKN060 RMK FCST BASED ON AUTO OBS. NXT FCST BY 161800Z", "TAF CYER 161440Z 1615/1619 31008KT 2SM -SNRA BR BKN007 OVC012 TEMPO 1615/1619 6SM -SNRA BR SCT007 OVC012 BECMG 1615/1617 33015G25KT RMK FCST BASED ON AUTO OBS. NXT FCST BY 170900Z", "TAF AMD CYEU 161520Z 1615/1623 12015KT 5SM -SN SCT015 BKN030 OVC100 TEMPO 1615/1621 1SM -SN BKN015 OVC030 FM162100 14012KT P6SM -SN BKN040 OVC080 TEMPO 1621/1623 2SM -SN BKN020 OVC040 RMK ADVISORY OFFSITE. NXT FCST BY 161800Z", "TAF CYEV 161240Z 1613/1701 07010KT P6SM SCT015 BKN030 TEMPO 1613/1618 2SM -SN BKN012 FM161800 10008KT P6SM SCT015 BKN030 TEMPO 1618/1701 3SM -SN BKN015 RMK NXT FCST BY 161900Z", "TAF AMD CYFB 161607Z 1616/1712 15007KT 6SM -RA OVC008 TEMPO 1616/1618 1/2SM -DZ FG VV004 BECMG 1616/1618 14015G25KT FM161800 14018G28KT 5SM -RA BR OVC010 TEMPO 1618/1703 1SM -DZ BR OVC005 FM170300 14015KT 3/4SM -DZ BR OVC004 TEMPO 1703/1709 3SM BR OVC012 BECMG 1704/1706 14012KT FM170900 16008KT P6SM SCT008 BKN025 TEMPO 1709/1712 3SM BR BKN008 OVC025 BECMG 1710/1712 29006KT RMK NXT FCST BY 161800Z", "TAF AMD CYFC 161503Z 1615/1624 30006KT P6SM BKN012 TEMPO 1615/1617 SCT015 FM161700 31006KT P6SM FEW015 RMK FCST BASED ON AUTO OBS. NXT FCST BY 161800Z", "TAF CYFS 161142Z 1612/1624 14006KT P6SM BKN030 TEMPO 1612/1619 BKN020 FM161900 14010G25KT P6SM SCT030 TEMPO 1619/1620 BKN030 RMK NXT FCST BY 161800Z", "TAF CYGK 161341Z 1614/1702 20010KT P6SM FEW030 BKN100 FM161700 20010G20KT P6SM BKN040 BECMG 1623/1701 14007KT RMK NXT FCST BY 162000Z", "TAF CYGL 161140Z 1612/1712 36005KT P6SM -SHRA SCT015 OVC025 TEMPO 1612/1615 4SM SHRA BR BKN008 OVC015 PROB30 1612/1615 2SM -SHRA BR BKN006 OVC012 FM161500 34008KT 5SM -SHRA BR SCT008 BKN012 OVC025 TEMPO 1615/1618 P6SM NSW SCT012 BKN025 FM161800 30008KT P6SM SCT015 BKN030 OVC040 FM170000 26005KT P6SM -SHRA SCT008 BKN020 OVC030 FM170400 06008KT P6SM -SHRA BKN012 OVC025 PROB30 1704/1706 BKN008 OVC012 FM170600 35005KT 6SM -RA -DZ BR OVC008 FM170900 34008KT 3SM -RA -DZ BR OVC006 RMK NXT FCST BY 161800Z", "TAF AMD CYGP 161441Z 1614/1702 09006KT 3/4SM -SHRA BR OVC003 TEMPO 1614/1616 6SM BR SCT003 OVC008 FM161600 09008KT 2SM -SHRA BR OVC006 TEMPO 1616/1624 P6SM NSW SCT006 OVC012 PROB30 1616/1624 2SM SHRA FM170000 36005KT 4SM -SHRA BR SCT008 OVC020 RMK NXT FCST BY 162000Z", "TAF AMD CYGQ 161514Z 1615/1702 VRB03KT P6SM SCT003 OVC010 TEMPO 1615/1616 4SM BR BKN003 OVC010 FM161600 33007KT P6SM SCT008 OVC020 TEMPO 1616/1618 BKN008 FM161800 33007KT P6SM SCT020 OVC030 TEMPO 1618/1624 5SM -SHRA BR BKN020 FM170000 35012G22KT P6SM -SHRASN FEW009 BKN012 RMK FCST BASED ON AUTO OBS. NXT FCST BY 162000Z", "TAF AMD CYGR 161556Z 1615/1702 10015KT 2SM BR BKN002 TEMPO 1615/1618 P6SM NSW SCT002 FM161800 10015KT P6SM SCT008 BKN030 TEMPO 1618/1624 5SM -SHRA BR BKN008 OVC020 FM170000 10012G22KT P6SM BKN007 BKN030 RMK NXT FCST BY 162000Z", "TAF CYGV 161340Z 1614/1702 09012KT 1SM -RA BR OVC003 TEMPO 1614/1617 6SM BR FM161700 09012KT 1SM SHRA BR OVC009 TEMPO 1617/1702 6SM -RA BR PROB30 1617/1702 OVC002 RMK FCST BASED ON AUTO OBS. NXT FCST BY 162000Z", "TAF CYGW 161140Z 1612/1624 VRB03KT P6SM SCT015 OVC040 TEMPO 1612/1618 3SM -SHRA BR BKN015 OVC040 PROB30 1612/1618 2SM -SHRA BR BKN007 OVC015 FM161800 30012KT P6SM -SHRA BKN020 OVC040 FM162200 29009KT P6SM SCT015 BKN040 RMK FCST BASED ON AUTO OBS. NXT FCST BY 161800Z", "TAF CYGX 161240Z 1613/1701 35018G28KT P6SM BKN015 TEMPO 1613/1619 BKN025 FM161900 34015G25KT P6SM BKN030 TEMPO 1619/1701 BKN020 RMK NXT FCST BY 161900Z", "TAF CYHD 161340Z 1614/1702 32008KT 1SM -SN VV010 TEMPO 1614/1616 6SM -SN OVC012 BECMG 1614/1616 32015G25KT FM161600 32015G25KT 2SM -SN OVC012 TEMPO 1616/1620 6SM -SN SCT012 OVC025 PROB30 1616/1620 1SM -SHSN VV010 FM162000 34015G25KT P6SM -SHSN BKN020 OVC040 PROB30 1620/1624 2SM -SHSN FM170000 34012G22KT P6SM BKN025 OVC050 RMK FCST BASED ON AUTO OBS. NXT FCST BY 162000Z", "TAF CYHI 161546Z 1616/1619 04008KT P6SM FEW008 SCT030 TEMPO 1616/1619 5SM -SN BKN030 RMK NXT FCST BY 171600Z", "TAF CYHK 161140Z 1612/1624 30015KT P6SM SCT015 BKN030 TEMPO 1612/1624 3SM -SN BR OVC015 RMK FCST BASED ON AUTO OBS. NXT FCST BY 161800Z", "TAF CYHM 161140Z 1612/1712 21005KT P6SM FEW030 BKN090 FM161400 23010G20KT P6SM SCT050 FM161700 24010G20KT P6SM BKN040 FM162300 24010G20KT P6SM SCT060 FM170300 VRB03KT P6SM BKN050 PROB30 1704/1709 2SM BR FM170900 24010G20KT P6SM SCT040 RMK NXT FCST BY 161800Z", "TAF CYHU 161140Z 1612/1712 19006KT P6SM SKC FM161600 21008KT P6SM BKN040 FM162300 14005KT P6SM FEW040 FM170900 VRB03KT P6SM SKC PROB30 1709/1712 1 1/2SM BR RMK FCST BASED ON AUTO OBS. NXT FCST BY 161800Z", "TAF CYHY 161142Z 1612/1624 14008KT P6SM BKN040 TEMPO 1612/1617 SCT015 BKN030 BECMG 1613/1615 14010G20KT FM161700 16012G22KT P6SM SCT040 TEMPO 1617/1619 BKN040 RMK NXT FCST BY 161800Z", "TAF CYHZ 161440Z 1615/1712 12005KT P6SM SCT010 BKN060 TEMPO 1615/1618 5SM -SHRA BR BKN008 OVC020 FM161800 09006KT P6SM SCT012 BKN060 TEMPO 1618/1622 5SM -SHRA BR BKN012 BKN060 FM162200 20007KT 3SM -DZ BR BKN004 OVC008 FM170600 26007KT 6SM -DZ BKN007 BKN050 FM170900 30007KT P6SM FEW010 SCT180 RMK NXT FCST BY 161800Z", "TAF CYIO 161240Z 1613/1701 25015G25KT P6SM SCT020 OVC030 TEMPO 1613/1618 3SM -SN BR OVC020 BECMG 1613/1615 26012KT FM161800 24008KT P6SM SCT020 TEMPO 1618/1701 P6SM -SN BKN020 BECMG 1622/1624 21008KT RMK FCST BASED ON AUTO OBS. NXT FCST BY 161900Z", "TAF AMD CYIV 161541Z 1615/1701 34018G28KT P6SM OVC030 TEMPO 1615/1619 2SM -SN OVC015 FM161900 35015G25KT P6SM SCT030 TEMPO 1619/1701 BKN030 RMK FCST BASED ON AUTO OBS. NXT FCST BY 161900Z", "TAF CYJT 161140Z 1612/1712 08012KT P6SM OVC120 FM161500 08012KT P6SM OVC080 BECMG 1618/1620 09012G22KT FM162000 09012G22KT P6SM -RA SCT020 OVC040 FM170000 08015G25KT 5SM -RA BR BKN020 OVC040 RMK NXT FCST BY 161800Z", "TAF CYKA 161240Z 1613/1701 05005KT P6SM SKC PROB30 1613/1617 1SM BR FM161800 09008KT P6SM SKC RMK NXT FCST BY 161900Z", "TAF CYKF 161340Z 1614/1702 20005KT P6SM OVC100 BECMG 1614/1616 23012KT FM161800 23012KT P6SM BKN050 BECMG 1621/1623 28007KT FM162300 28007KT P6SM BKN030 TEMPO 1623/1702 P6SM -SHRA OVC020 RMK FCST BASED ON AUTO OBS. NXT FCST BY 162000Z", "TAF AMD CYKG 161613Z 1616/1621 VRB03KT 1/2SM -DZ FG VV001 TEMPO 1616/1618 3SM -RA BR SCT003 BKN008 OVC012 BECMG 1616/1618 15015KT FM161800 15015KT 3/4SM -DZ BR OVC003 TEMPO 1618/1620 3SM -RA BR OVC010 BECMG 1618/1620 20028G38KT FM162000 20028G38KT P6SM OVC020 TEMPO 1620/1621 3SM -RA BR OVC008 RMK NXT FCST BY 171400Z", "TAF AMD CYKJ 161403Z 1614/1624 VRB03KT 2SM BR BKN002 OVC120 BECMG 1614/1616 P6SM NSW SCT002 BKN120 OVC200 FM161800 16010KT P6SM BKN080 OVC120 TEMPO 1618/1624 6SM -SN OVC060 RMK FCST BASED ON AUTO OBS. NXT FCST BY 161900Z", "TAF CYKL 161340Z 1614/1702 17012KT P6SM SCT010 TEMPO 1614/1616 2SM BR BKN003 BKN010 FM161600 19015G25KT P6SM BKN025 TEMPO 1616/1619 P6SM -SHRA BKN020 FM161900 21012KT P6SM SCT030 BECMG 1622/1624 25008KT RMK FCST BASED ON AUTO OBS. NXT FCST BY 162000Z", "TAF CYLD 161340Z 1614/1701 23005KT P6SM BKN030 TEMPO 1614/1616 3SM BR BKN010 FM161800 29007KT P6SM SCT015 BKN030 FM162300 36012KT P6SM -SHRA BKN040 RMK NXT FCST BY 162000Z", "TAF CYLK 161548Z 1616/1624 12010KT P6SM OVC100 FM162100 14012KT P6SM BKN050 BKN150 RMK NXT FCST BY 161900Z", "TAF CYLL 161144Z 1612/1624 15010KT P6SM OVC070 BECMG 1615/1617 FEW070 SCT250 FM161800 17012KT P6SM FEW250 RMK FCST BASED ON AUTO OBS. NXT FCST BY 161800Z", "TAF CYLT 161140Z 1612/1624 19010KT P6SM FEW015 OVC070 TEMPO 1612/1618 5SM -SHSN BR BKN015 OVC060 FM161800 19008KT P6SM FEW020 BKN060 RMK NXT FCST BY 161800Z", "TAF CYLW 161240Z 1613/1701 VRB03KT P6SM SKC BECMG 1618/1620 36007KT RMK FCST BASED ON AUTO OBS. NXT FCST BY 161900Z", "TAF CYMA 161142Z 1612/1624 07008KT P6SM SCT200 TEMPO 1612/1619 2SM BR VV015 PROB30 1612/1619 2SM -FZDZ BR VV012 FM161900 02008KT P6SM SCT015 SCT040 TEMPO 1619/1624 SCT015 BKN040 RMK NXT FCST BY 161800Z", "TAF CYMH 161340Z 1614/1702 15008KT P6SM BKN200 FM162000 15010KT P6SM SCT010 OVC180 TEMPO 1620/1624 4SM BR BKN008 OVC180 FM170000 15010KT 2SM BR OVC005 RMK FCST BASED ON AUTO OBS. NXT FCST BY 162000Z", "TAF CYMM 161240Z 1613/1701 12006KT P6SM OVC050 FM161800 13008KT P6SM BKN070 BECMG 1619/1621 SCT080 BKN250 FM162200 12006KT P6SM FEW250 RMK FCST BASED ON AUTO OBS. NXT FCST BY 161900Z", "TAF AMD CYMO 161206Z 1612/1624 28007KT 6SM -RA BR FEW005 SCT009 OVC025 TEMPO 1612/1618 3SM -RA BR BKN005 OVC009 FM161800 31012KT P6SM -RA SCT009 OVC030 TEMPO 1618/1623 5SM -RA BR OVC009 FM162300 34008KT 5SM -RA BR OVC012 RMK FCST BASED ON AUTO OBS. NXT FCST BY 161800Z", "TAF CYMT 161140Z 1612/1624 19012G22KT P6SM OVC030 TEMPO 1612/1615 P6SM -SHRA BKN015 OVC030 FM161500 20012G22KT P6SM OVC040 BECMG 1617/1619 19012KT RMK FCST BASED ON AUTO OBS. NXT FCST BY 161800Z", "TAF CYMX 161140Z 1612/1712 VRB03KT P6SM SKC BECMG 1615/1617 20010KT BKN040 OVC060 FM162300 18005KT P6SM BKN060 BECMG 1700/1702 VRB03KT RMK NXT FCST BY 161800Z", "TAF AMD CYNA 161607Z 1616/1702 11012G22KT P6SM SCT008 OVC030 TEMPO 1616/1702 3SM -SHRA BR OVC008 BECMG 1700/1702 08008KT RMK FCST BASED ON AUTO OBS. NXT FCST BY 162000Z", "TAF CYND 161240Z 1613/1701 20010KT P6SM OVC040 FM162200 15010KT P6SM -SHRA BKN025 OVC040 RMK NXT FCST BY 161800Z", "TAF CYNE 161240Z 1613/1701 35012G22KT P6SM SKC BECMG 1616/1618 35010KT RMK FCST BASED ON AUTO OBS. NXT FCST BY 161900Z", "TAF CYOC 161440Z 1615/1701 05010KT P6SM -SN FEW015 OVC040 TEMPO 1615/1619 3SM -SN FEW009 OVC015 BECMG 1616/1618 08010KT FM161900 08010G20KT 5SM -SN SCT015 OVC030 TEMPO 1619/1701 2SM -SN BR OVC010 PROB30 1619/1701 1SM -SNPL BR OVC008 RMK NXT FCST BY 161900Z", "TAF CYOD 161440Z 1615/1712 12006KT P6SM FEW070 SCT240 BECMG 1616/1618 16006KT RMK NXT FCST BY 161800Z", "TAF CYOJ 161240Z 1613/1701 14008KT P6SM BKN070 BKN220 BECMG 1614/1616 FEW070 BKN250 FM161700 12008KT P6SM FEW250 BECMG 1623/1701 12004KT RMK FCST BASED ON AUTO OBS. NXT FCST BY 161900Z", "TAF CYOO 161341Z 1614/1702 VRB03KT P6SM OVC100 BECMG 1615/1617 20012KT FM161900 20012KT P6SM BKN040 FM170000 20008KT P6SM BKN040 TEMPO 1700/1702 P6SM -SHRA BKN020 OVC040 RMK FCST BASED ON AUTO OBS. NXT FCST BY 162000Z", "TAF CYOW 161440Z 1615/1712 20005KT P6SM SCT060 BKN120 FM161900 19010KT P6SM -SHRA BKN040 OVC060 FM170100 19010KT P6SM BKN040 BECMG 1703/1705 VRB03KT FM171100 18010KT P6SM -SHRA OVC020 RMK NXT FCST BY 161800Z", "TAF CYPA 161240Z 1613/1701 VRB03KT P6SM SCT100 TEMPO 1613/1615 BKN100 FM161500 VRB03KT P6SM BKN060 BECMG 1619/1621 16008KT RMK NXT FCST BY 161900Z", "TAF CYPC 161441Z 1615/1618 13015G25KT P6SM BKN150 RMK NXT FCST BY 171500Z", "TAF CYPE 161240Z 1613/1701 35004KT P6SM FEW240 PROB30 1614/1615 1 1/2SM BR FM161700 17004KT P6SM SKC RMK NXT FCST BY 161900Z", "TAF CYPH 161140Z 1612/1624 32010KT 1 1/2SM -RA BR OVC002 TEMPO 1612/1618 3SM -RA BR SCT002 OVC008 FM161800 30012KT 2SM -RA BR OVC005 TEMPO 1618/1621 6SM -RA BR OVC008 FM162100 29015KT 6SM -RA BR SCT008 OVC012 RMK FCST BASED ON AUTO OBS. NXT FCST BY 161800Z", "TAF AMD CYPL 161529Z 1615/1702 33015G25KT 1SM -SN BKN020 OVC040 TEMPO 1615/1620 6SM -SN SCT020 OVC040 PROB30 1615/1620 3/4SM -SHSN FM162000 34015G25KT P6SM -SHSN SCT020 OVC040 PROB30 1620/1624 2SM -SHSN FM170000 35015G25KT P6SM BKN025 RMK FCST BASED ON AUTO OBS. NXT FCST BY 162000Z", "TAF CYPQ 161341Z 1614/1702 20007KT P6SM OVC100 BECMG 1615/1617 21010G20KT FM162100 21010G20KT P6SM BKN050 BECMG 1623/1701 20005KT RMK FCST BASED ON AUTO OBS. NXT FCST BY 162000Z", "TAF CYPR 161240Z 1613/1701 VRB03KT 1/4SM FG VV001 TEMPO 1613/1617 6SM BR SCT002 FM161700 14005KT P6SM FEW005 FM162000 11008KT P6SM SKC RMK FCST BASED ON AUTO OBS. NXT FCST BY 161900Z", "TAF CYPX 161140Z 1612/1624 33008KT P6SM SCT006 OVC030 TEMPO 1612/1618 2SM -RA BR BKN006 OVC012 BECMG 1616/1618 25008KT FM161800 25008KT 1/2SM -RA FG VV002 TEMPO 1618/1624 2SM -RA OVC008 RMK FCST BASED ON AUTO OBS. NXT FCST BY 161800Z", "TAF CYPY 161155Z 1612/1624 15006KT P6SM OVC080 FM161500 14008KT P6SM OVC040 FM162000 14012KT P6SM BKN050 BECMG 1621/1623 FEW050 FM162300 13006KT P6SM SKC RMK FCST BASED ON AUTO OBS. NXT FCST BY 161800Z", "TAF CYQA 161341Z 1614/1702 16010KT P6SM OVC070 BECMG 1615/1617 20010G20KT FM161700 20010G20KT P6SM BKN030 TEMPO 1618/1622 P6SM -SHRA OVC020 FM162200 24010G20KT P6SM OVC030 TEMPO 1622/1624 5SM -SHRA BR SCT007 OVC015 FM170000 26006KT P6SM -SHRA SCT005 OVC025 TEMPO 1700/1702 3SM -SHRA BR BKN005 OVC010 RMK FCST BASED ON AUTO OBS. NXT FCST BY 162000Z", "TAF CYQB 161140Z 1612/1712 25008KT P6SM FEW040 FM161400 22008KT P6SM SKC FM161800 25008KT P6SM FEW030 SCT240 BECMG 1622/1624 VRB03KT FM170800 03005KT P6SM FEW080 PROB30 1708/1712 1 1/2SM BR RMK NXT FCST BY 161800Z", "TAF CYQD 161240Z 1613/1701 34012KT P6SM SKC RMK FCST BASED ON AUTO OBS. NXT FCST BY 161900Z", "TAF CYQF 161145Z 1612/1624 19004KT P6SM SKC PROB30 1613/1615 16004KT 1 1/2SM BR FM161700 19006KT P6SM SKC BECMG 1618/1620 15007KT FM162200 15010KT P6SM SKC RMK NXT FCST BY 161800Z", "TAF CYQG 161140Z 1612/1712 23007KT P6SM BKN100 FM161400 23010G20KT P6SM SCT070 FM162000 27015KT P6SM BKN060 FM162300 29015KT P6SM BKN040 FM170500 25010G20KT P6SM BKN015 FM171100 24012G22KT 4SM -SHRA BR OVC008 RMK FCST BASED ON AUTO OBS. NXT FCST BY 161800Z", "TAF CYQH 161142Z 1612/1624 13008KT P6SM SCT008 OVC015 TEMPO 1612/1622 2SM BR BKN005 OVC012 BECMG 1612/1614 12005KT FM162200 12005KT P6SM SCT012 RMK NXT FCST BY 161800Z", "TAF AMD CYQI 161622Z 1616/1624 31010G20KT 2SM BR BKN003 TEMPO 1616/1621 6SM BR SCT005 FM162100 32008KT P6SM SKC RMK NXT FCST BY 161800Z", "TAF CYQK 161340Z 1614/1702 34015G25KT 6SM -SN SCT006 OVC025 TEMPO 1614/1615 2SM -SN OVC006 FM161500 34015G25KT P6SM SCT020 OVC040 TEMPO 1615/1618 5SM -SHSN BKN020 OVC040 FM161800 34015G25KT P6SM SCT020 OVC050 TEMPO 1618/1620 BKN020 OVC050 RMK NXT FCST BY 162000Z", "TAF CYQL 161150Z 1612/1624 24005KT P6SM SKC BECMG 1616/1618 VRB03KT BECMG 1618/1620 11005KT FM162200 12008KT P6SM SKC RMK FCST BASED ON AUTO OBS. NXT FCST BY 161800Z", "TAF AMD CYQM 161554Z 1615/1712 21005KT 2SM -DZ BR OVC003 TEMPO 1615/1618 6SM BR SCT003 OVC010 FM161800 15008KT 5SM -SHRA BR BKN007 OVC020 TEMPO 1618/1622 P6SM NSW SCT007 BKN020 FM162200 VRB03KT 1SM -SHRA BR OVC004 BECMG 1700/1702 25005KT FM170300 25005KT 6SM BR SCT006 FM170600 27005KT 2SM BR OVC003 RMK NXT FCST BY 161800Z", "TAF CYQQ 161140Z 1612/1712 VRB03KT P6SM FEW250 RMK NXT FCST BY 161800Z", "TAF CYQR 161140Z 1612/1712 33008KT P6SM SCT100 FM161600 33006KT P6SM BKN060 BECMG 1622/1624 12008KT FM170400 12010KT P6SM SCT060 RMK NXT FCST BY 161800Z", "TAF CYQT 161340Z 1614/1702 30005KT P6SM FEW020 SCT060 FM161800 32012G22KT P6SM -SHRA SCT020 OVC040 TEMPO 1618/1624 BKN020 FM170000 32015G25KT 6SM -SHRASN BR BKN020 OVC040 RMK NXT FCST BY 162000Z", "TAF CYQU 161240Z 1613/1701 VRB02KT P6SM SKC TEMPO 1613/1616 1 1/2SM BR PROB30 1614/1615 1/2SM FG VV004 FM161700 VRB03KT P6SM SKC BECMG 1620/1622 10004KT RMK NXT FCST BY 161900Z", "TAF CYQV 161140Z 1612/1624 30008KT P6SM SCT140 FM161700 33010KT P6SM BKN100 FM162100 33010KT P6SM BKN060 RMK FCST BASED ON AUTO OBS. NXT FCST BY 161800Z", "TAF CYQW 161140Z 1612/1624 VRB03KT P6SM OVC060 BECMG 1615/1617 14010KT FM161900 14010KT P6SM SCT060 RMK FCST BASED ON AUTO OBS. NXT FCST BY 161800Z", "TAF AMD CYQX 161240Z 1612/1712 17008KT 3SM BR BKN003 OVC180 BECMG 1613/1615 P6SM NSW BKN180 FM161500 12010KT P6SM BKN180 FM170000 12012G22KT P6SM BKN012 OVC100 FM170500 11015G25KT 6SM -SHRA BR OVC008 FM170800 11020G30KT 2SM -SHRA BR OVC003 RMK NXT FCST BY 161800Z", "TAF CYQY 161140Z 1612/1624 09015G25KT 1SM -SHRA BR OVC002 TEMPO 1612/1618 6SM -RA BR SCT002 OVC007 FM161800 06015G25KT 1SM -DZ BR OVC004 RMK NXT FCST BY 161800Z", "TAF CYQZ 161142Z 1612/1624 VRB03KT 1/2SM FG BKN005 TEMPO 1612/1616 6SM BR SCT005 BECMG 1616/1618 P6SM NSW SCT005 FM162000 18008KT P6SM SKC RMK FCST BASED ON AUTO OBS. NXT FCST BY 161900Z", "TAF AMD CYRB 161425Z 1614/1712 29020G30KT P6SM -SN SCT020 OVC030 TEMPO 1614/1621 1 1/2SM -SN BLSN OVC020 FM162100 31025G35KT P6SM SCT015 OVC030 TEMPO 1621/1709 3SM -SN BLSN BKN015 OVC025 BECMG 1701/1703 31020G30KT FM170900 32020G30KT P6SM SCT020 BKN040 TEMPO 1709/1712 4SM -SN BLSN BKN020 OVC040 BECMG 1710/1712 33015G25KT RMK NXT FCST BY 161800Z", "TAF CYRJ 161340Z 1614/1702 18005KT P6SM FEW050 FM161800 23008G18KT P6SM BKN050 BECMG 1622/1624 25005KT RMK NXT FCST BY 162000Z", "TAF CYRL 161340Z 1614/1702 34012G22KT 2SM -SHSN BKN008 OVC025 TEMPO 1614/1615 6SM -SHSN SCT008 OVC025 FM161500 34015G25KT 4SM -SHSN OVC015 TEMPO 1615/1619 P6SM NSW SCT015 OVC030 FM161900 34015G25KT P6SM BKN025 OVC060 TEMPO 1619/1621 BKN020 OVC060 FM162100 34015G25KT P6SM BKN040 RMK NXT FCST BY 162000Z", "TAF CYRQ 161340Z 1614/1702 21007KT P6SM FEW080 FM161600 19010KT P6SM SCT100 RMK FCST BASED ON AUTO OBS. NXT FCST BY 162000Z", "TAF CYRT 161140Z 1612/1624 34030G40KT P6SM SCT020 BKN040 TEMPO 1612/1624 4SM -SN BLSN OVC020 BECMG 1614/1616 34025G35KT RMK NXT FCST BY 161800Z", "TAF CYSB 161341Z 1614/1702 VRB03KT 6SM -RA BR SCT007 OVC025 TEMPO 1614/1617 2SM -SHRA BR BKN007 OVC015 PROB30 1614/1616 3/4SM -DZ BR OVC004 FM161700 33005KT 6SM -RA BR SCT010 OVC025 TEMPO 1617/1702 5SM -RA -DZ BR OVC010 BECMG 1700/1702 VRB03KT RMK NXT FCST BY 162000Z", "TAF CYSC 161040Z 1611/1623 VRB03KT P6SM FEW060 FM161500 VRB03KT P6SM FEW030 RMK FCST BASED ON AUTO OBS. NXT FCST BY 161800Z", "TAF AMD CYSF 161311Z 1613/1624 11003KT 1/8SM FZFG VV001 BECMG 1613/1615 P6SM NSW BKN130 BKN220 FM162000 11008KT P6SM OVC090 RMK FCST BASED ON AUTO OBS. NXT FCST BY 161800Z", "TAF AMD CYSJ 161400Z 1614/1624 34005KT P6SM BKN006 TEMPO 1614/1615 SCT010 FM161500 32006KT P6SM SCT015 TEMPO 1615/1618 BKN015 FM161800 VRB03KT P6SM FEW005 BKN030 FM162100 VRB03KT P6SM FEW030 RMK NXT FCST BY 161800Z", "TAF CYSM 161157Z 1612/1624 13005KT P6SM OVC060 TEMPO 1612/1614 5SM -SN OVC040 FM161400 14006KT P6SM OVC040 BECMG 1617/1619 14010KT FM162000 15012KT P6SM BKN040 FM162300 15008KT P6SM FEW040 RMK NXT FCST BY 161800Z", "TAF CYSN 161240Z 1613/1701 18007KT P6SM FEW030 BKN100 FM161500 22010KT P6SM BKN030 BKN100 BECMG 1615/1617 22012G22KT FM170000 21010KT P6SM BKN050 TEMPO 1700/1701 P6SM -SHRA BKN020 OVC050 RMK NXT FCST BY 162000Z", "TAF AMD CYTE 161514Z 1615/1701 03005KT 6SM BR OVC008 TEMPO 1615/1617 1SM -DZ BR OVC003 BECMG 1615/1617 02015G25KT FM161700 02015G25KT P6SM -RA SCT006 OVC012 TEMPO 1617/1621 3SM -RA BR OVC006 BECMG 1617/1619 01025G35KT FM162100 36025G35KT 1 1/2SM -SNRA BR OVC005 TEMPO 1621/1624 6SM -RA OVC010 FM170000 36030G40KT 3/4SM -SN BR VV006 RMK FCST BASED ON AUTO OBS. NXT FCST BY 161900Z", "TAF CYTH 161240Z 1613/1701 35010KT P6SM SCT025 TEMPO 1613/1618 BKN025 FM161800 33012KT P6SM SKC RMK NXT FCST BY 161900Z", "TAF CYTL 161340Z 1614/1702 34015G25KT 2SM -SN BKN012 OVC025 TEMPO 1614/1620 6SM -SN SCT012 OVC025 FM162000 33015G25KT P6SM OVC025 TEMPO 1620/1702 5SM -SHSN OVC020 RMK FCST BASED ON AUTO OBS. NXT FCST BY 162000Z", "TAF CYTQ 161340Z 1614/1621 20020G30KT P6SM SCT010 BKN025 TEMPO 1614/1617 BKN010 OVC025 PROB30 1614/1616 BKN008 FM161700 20020G30KT P6SM BKN025 TEMPO 1617/1621 P6SM -SHRA BKN020 BECMG 1619/1621 20015G25KT RMK NXT FCST BY 171400Z", "TAF CYTR 161140Z 1612/1712 VRB03KT P6SM SCT040 BKN100 FM161400 20008KT P6SM BKN040 BKN080 BECMG 1614/1616 21012KT BECMG 1623/1701 16005KT FM170700 18008KT P6SM -RA BKN025 OVC050 RMK NXT FCST BY 161800Z", "TAF AMD CYTS 161510Z 1615/1702 23007KT 6SM -RA -DZ BR BKN010 OVC030 TEMPO 1615/1617 P6SM NSW OVC030 FM161700 27010KT P6SM SCT020 BKN030 TEMPO 1617/1702 BKN020 RMK NXT FCST BY 162000Z", "TAF CYTZ 161341Z 1614/1714 28005KT P6SM OVC100 BECMG 1616/1618 20010G20KT FM161800 20010G20KT P6SM BKN050 BECMG 1622/1624 22010KT FM170200 22007KT P6SM BKN040 TEMPO 1702/1712 P6SM -SHRA BKN020 OVC040 PROB30 1708/1712 2SM BR SCT005 BKN010 FM171200 24010KT P6SM SCT020 BKN040 RMK FCST BASED ON AUTO OBS. NXT FCST BY 162000Z", "TAF CYUB 161441Z 1615/1703 10015G25KT P6SM FEW010 OVC120 FM161800 10020G30KT P6SM -SN SCT010 OVC060 TEMPO 1618/1623 1SM -SN BLSN OVC008 FM162300 10020G35KT 3SM -SN BLSN OVC010 TEMPO 1623/1703 1/2SM SHSN BLSN VV003 RMK NXT FCST BY 161900Z", "TAF CYUL 161440Z 1615/1712 20008KT P6SM SKC BECMG 1615/1617 FEW040 BKN100 FM161800 23012KT P6SM OVC040 BECMG 1619/1621 17007KT FM170100 VRB03KT P6SM SCT040 FM171000 VRB03KT P6SM SKC PROB30 1710/1712 2SM BR RMK NXT FCST BY 161800Z", "TAF CYUT 161540Z 1616/1620 35025G35KT 1SM -SN BLSN OVC030 TEMPO 1616/1620 3SM BLSN RMK NXT FCST BY 171400Z", "TAF CYUX 161240Z 1613/1701 35020G30KT P6SM SCT012 BKN040 TEMPO 1613/1701 3SM -SN BR OVC012 BECMG 1619/1621 34025G35KT RMK FCST BASED ON AUTO OBS. NXT FCST BY 161900Z", "TAF CYUY 161140Z 1612/1624 20008G18KT P6SM BKN020 BKN160 TEMPO 1612/1619 BKN160 FM161900 19008KT P6SM BKN050 TEMPO 1619/1621 P6SM -SHRA BKN030 BECMG 1623/1624 09005KT RMK NXT FCST BY 161800Z", "TAF CYVC 161240Z 1613/1701 35005KT P6SM SCT100 TEMPO 1613/1617 BKN100 BECMG 1615/1617 VRB03KT FM161700 VRB03KT P6SM BKN060 BECMG 1619/1621 15008KT RMK NXT FCST BY 161900Z", "TAF AMD CYVM 161609Z 1616/1701 13005KT 6SM -DZ BR OVC015 TEMPO 1616/1621 3SM -RA OVC004 FM162100 01005KT 6SM BR OVC010 TEMPO 1621/1701 2SM -DZ BR OVC005 RMK FCST BASED ON AUTO OBS. NXT FCST BY 161900Z", "TAF AMD CYVO 161421Z 1614/1624 19010KT P6SM BKN050 TEMPO 1614/1620 P6SM -RA BKN020 FM162000 19010KT P6SM BKN040 TEMPO 1620/1622 5SM -RA BR OVC020 FM162300 09007KT 3SM -SHRA BR OVC012 TEMPO 1623/1624 6SM BR RMK NXT FCST BY 161800Z", "TAF CYVP 161140Z 1612/1624 19015G25KT P6SM BKN020 BKN040 TEMPO 1612/1615 SCT020 BKN040 FM161500 19015G25KT P6SM BKN030 TEMPO 1615/1618 BKN020 FM161800 19015G25KT P6SM BKN040 FM162100 18010KT P6SM SCT040 RMK NXT FCST BY 161800Z", "TAF CYVQ 161142Z 1612/1624 12012G22KT P6SM SCT015 BKN040 TEMPO 1612/1617 BKN015 FM161700 13010G20KT P6SM SCT012 SCT060 TEMPO 1617/1624 BKN080 RMK NXT FCST BY 161800Z", "TAF CYVR 161440Z 1615/1718 VRB03KT P6SM FEW250 FM161900 28007KT P6SM SKC BECMG 1702/1704 VRB03KT FM171000 10010KT P6SM SKC FM171500 12010KT P6SM SCT010 RMK NXT FCST BY 161800Z", "TAF CYVT 161340Z 1614/1702 16008KT P6SM OVC060 FM161800 18012KT P6SM BKN060 RMK FCST BASED ON AUTO OBS. NXT FCST BY 162100Z", "TAF CYVV 161340Z 1614/1623 18012KT P6SM OVC030 TEMPO 1614/1617 P6SM -SHRA OVC020 BECMG 1615/1617 26012KT FM161700 26012KT P6SM BKN030 FM162200 26007KT P6SM BKN030 TEMPO 1622/1623 P6SM -SHRA RMK NXT FCST BY 162000Z", "TAF CYWE 161240Z 1613/1701 15006KT P6SM SCT030 BKN120 TEMPO 1613/1620 2SM -SN BKN020 BKN080 PROB30 1613/1620 1SM -SN BKN012 FM162000 14008KT P6SM SCT030 BKN060 TEMPO 1620/1701 5SM -SN BKN015 RMK FCST BASED ON AUTO OBS. NXT FCST BY 161900Z", "TAF CYWG 161140Z 1612/1712 33018G28KT P6SM SCT020 BKN080 TEMPO 1612/1616 BKN020 OVC080 FM161600 35018G28KT P6SM SCT015 OVC030 TEMPO 1616/1619 5SM -SHSN SCT008 OVC015 FM161900 35018KT P6SM SCT030 TEMPO 1619/1621 BKN030 FM170000 35012KT P6SM SKC BECMG 1706/1708 35006KT RMK NXT FCST BY 161800Z", "TAF CYWH 161410Z 1614/1702 04006KT P6SM FEW250 BECMG 1618/1620 35007KT FM162300 24005KT P6SM SKC RMK NXT FCST BY 162100Z", "TAF CYWK 161340Z 1614/1702 19010KT P6SM BKN008 TEMPO 1614/1615 SCT010 BKN025 FM161500 20012G22KT P6SM BKN020 TEMPO 1615/1621 BKN025 FM162100 22010KT P6SM SCT030 BECMG 1622/1624 26007KT RMK NXT FCST BY 162000Z", "TAF CYWL 161240Z 1613/1701 VRB03KT P6SM SKC BECMG 1616/1618 11010G20KT RMK NXT FCST BY 161900Z", "TAF CYXC 161240Z 1613/1701 VRB03KT P6SM FEW250 BECMG 1618/1620 03005KT RMK NXT FCST BY 161900Z", "TAF CYXE 161140Z 1612/1712 VRB03KT P6SM BKN080 BECMG 1615/1617 16008KT FM162200 14010KT P6SM SCT080 RMK NXT FCST BY 161800Z", "TAF CYXH 161153Z 1612/1624 06005KT P6SM SKC BECMG 1614/1616 11005KT BECMG 1617/1619 19007KT FM162000 19010KT P6SM SKC BECMG 1623/1624 17005KT RMK FCST BASED ON AUTO OBS. NXT FCST BY 161800Z", "TAF CYXJ 161240Z 1613/1701 11007KT P6SM FEW240 RMK NXT FCST BY 161900Z", "TAF CYXL 161340Z 1614/1702 33012G22KT 2SM -SNRA BR BKN006 OVC015 TEMPO 1614/1616 6SM -RA BR SCT006 OVC015 FM161600 34012G22KT 2SM -SN SCT008 OVC015 TEMPO 1616/1620 6SM -SN SCT015 OVC030 FM162000 35015G25KT P6SM -SHSN OVC025 PROB30 1620/1624 2SM -SHSN FM170000 35012G22KT P6SM BKN025 OVC050 RMK NXT FCST BY 162000Z", "TAF AMD CYXR 161145Z 1612/1624 19007KT P6SM OVC050 TEMPO 1612/1620 P6SM -SHRA BKN020 OVC050 FM162000 13007KT P6SM -SHRA OVC025 TEMPO 1620/1623 3SM -SHRA BR OVC015 FM162300 03007KT 3SM -RA -DZ BR OVC010 RMK FCST BASED ON AUTO OBS. NXT FCST BY 161800Z", "TAF CYXS 161240Z 1613/1701 VRB03KT 1/4SM FG VV001 TEMPO 1613/1615 5SM BR SKC BECMG 1615/1617 P6SM NSW SCT005 FM161700 22008KT P6SM SCT005 BECMG 1618/1620 01010KT SKC RMK FCST BASED ON AUTO OBS. NXT FCST BY 161900Z", "TAF CYXT 161240Z 1613/1701 03005KT 1/2SM FG VV002 TEMPO 1613/1617 6SM BR SCT004 BECMG 1615/1617 01010KT FM161700 01010KT P6SM SCT004 TEMPO 1617/1619 3SM BR BKN004 FM161900 01010KT P6SM FEW010 RMK NXT FCST BY 161900Z", "TAF CYXU 161140Z 1612/1712 21007KT P6SM BKN100 FM161500 22010G20KT P6SM BKN050 BECMG 1622/1624 30010KT BECMG 1701/1703 25010KT FM170500 24010G20KT P6SM SCT010 FM170800 24010G20KT 3SM -DZ BR OVC007 PROB30 1708/1711 1SM -DZ BR OVC004 RMK NXT FCST BY 161800Z", "TAF AMD CYXX 161344Z 1613/1712 02005KT P6SM SKC TEMPO 1613/1622 5SM FU HZ BECMG 1615/1617 05010KT FM162200 05005KT P6SM SKC TEMPO 1622/1712 4SM HZ RMK NXT FCST BY 161800Z", "TAF CYXY 161142Z 1612/1624 17012KT P6SM SCT015 SCT080 BECMG 1613/1615 17020G30KT FM162000 16025G40KT P6SM SCT080 TEMPO 1620/1624 BKN060 RMK NXT FCST BY 161800Z", "TAF CYXZ 161240Z 1613/1624 VRB03KT P6SM FEW003 SCT050 TEMPO 1613/1615 1/2SM FZFG BKN003 BECMG 1616/1618 OVC040 FM161800 VRB03KT P6SM OVC040 TEMPO 1618/1624 P6SM -SHRA RMK NXT FCST BY 162000Z", "TAF AMD CYYB 161615Z 1616/1702 16010KT 6SM -RA BR SCT004 OVC015 TEMPO 1616/1619 4SM -RA -DZ BR OVC004 PROB30 1616/1619 2SM -DZ BR OVC005 FM161900 23008KT 6SM -RA BR SCT006 OVC025 TEMPO 1619/1702 4SM -RA -DZ BR FEW006 OVC015 BECMG 1700/1702 VRB03KT RMK NXT FCST BY 162000Z", "TAF CYYC 161440Z 1615/1712 VRB03KT P6SM SKC BECMG 1620/1622 18010KT FM170200 25008KT P6SM SKC BECMG 1706/1708 30008KT RMK NXT FCST BY 161800Z", "TAF AMD CYYD 161531Z 1615/1702 VRB03KT P6SM SKC TEMPO 1615/1617 3SM BR FM161700 VRB03KT P6SM SKC RMK FCST BASED ON AUTO OBS. NXT FCST BY 161900Z", "TAF CYYE 161240Z 1613/1701 13004KT P6SM BKN240 BECMG 1614/1616 VRB03KT SCT240 FM161800 VRB03KT P6SM FEW240 RMK NXT FCST BY 161900Z", "TAF CYYF 161240Z 1613/1701 01005KT P6SM SKC FM162000 36008KT P6SM SKC BECMG 1623/1701 17010KT RMK NXT FCST BY 161900Z", "TAF CYYG 161141Z 1612/1624 13008KT 3SM -DZ BR BKN008 OVC020 TEMPO 1612/1617 P6SM NSW SCT010 OVC040 FM161700 14008KT P6SM BKN015 OVC050 TEMPO 1617/1623 SCT015 BKN050 FM162300 13008KT P6SM SCT004 OVC020 RMK NXT FCST BY 161800Z", "TAF CYYH 161140Z 1612/1624 31006KT P6SM SCT012 BKN030 TEMPO 1612/1618 5SM -SN BKN012 OVC030 BECMG 1614/1616 29012KT FM161800 29012G22KT P6SM SCT030 TEMPO 1618/1624 6SM -SN BKN030 RMK NXT FCST BY 161800Z", "TAF CYYJ 161140Z 1612/1712 25005KT P6SM SKC BECMG 1618/1620 03005KT FM171000 VRB03KT P6SM SKC RMK NXT FCST BY 161800Z", "TAF CYYL 161240Z 1613/1701 34008KT P6SM SCT030 TEMPO 1613/1701 BKN030 BECMG 1622/1624 VRB03KT RMK FCST BASED ON AUTO OBS. NXT FCST BY 161900Z", "TAF CYYN 161140Z 1612/1624 VRB03KT P6SM OVC080 BECMG 1613/1615 17010KT FM162000 18010KT P6SM SCT080 RMK FCST BASED ON AUTO OBS. NXT FCST BY 161800Z", "TAF CYYQ 161140Z 1612/1712 34028G38KT P6SM SCT015 OVC150 TEMPO 1612/1614 1SM -SHSN BLSN BKN015 OVC150 FM161400 34025G35KT P6SM SCT015 BKN150 TEMPO 1614/1702 2SM -SN BLSN BKN015 OVC150 BECMG 1700/1702 34018KT FM170200 34018KT 4SM -SN BKN020 RMK NXT FCST BY 161800Z", "TAF CYYR 161140Z 1612/1712 18008G18KT P6SM BKN025 BKN100 TEMPO 1612/1618 5SM -SHRA BR OVC010 PROB30 1612/1618 OVC005 FM161800 18008G18KT P6SM BKN020 BKN120 BECMG 1619/1621 18005KT FM170100 VRB03KT P6SM BKN040 BKN120 RMK NXT FCST BY 161800Z", "TAF CYYT 161147Z 1612/1712 14006KT 6SM BR OVC012 TEMPO 1612/1614 1 1/2SM BR FM161400 14008KT P6SM OVC012 TEMPO 1614/1617 BKN025 OVC200 FM161700 14012KT P6SM SCT020 OVC180 TEMPO 1617/1621 BKN020 OVC180 FM162100 14012G22KT P6SM BKN012 OVC100 FM170000 14015G25KT P6SM SCT005 OVC012 PROB30 1700/1704 BKN005 OVC012 FM170400 15020G30KT 6SM -SHRA BR OVC005 FM170800 15020G30KT 2SM -SHRA BR OVC003 RMK NXT FCST BY 161800Z", "TAF AMD CYYU 161611Z 1616/1702 27005KT 6SM -RA -DZ BR OVC007 TEMPO 1616/1619 P6SM NSW OVC015 FM161900 27005KT 5SM -SHRA BR SCT009 OVC015 TEMPO 1619/1702 P6SM NSW SCT015 OVC030 BECMG 1619/1620 31008KT RMK NXT FCST BY 162000Z", "TAF CYYY 161340Z 1614/1702 26005KT P6SM FEW040 BECMG 1614/1616 26012KT FM170000 20005KT P6SM SCT250 RMK NXT FCST BY 162000Z", "TAF AMD CYYZ 161634Z 1616/1718 24015G25KT P6SM FEW030 BKN080 BECMG 1620/1622 25012KT BECMG 1700/1702 30008KT FM170500 VRB03KT 6SM BR FEW007 BKN030 TEMPO 1705/1709 5SM -SHRA BR OVC020 PROB30 1705/1709 2SM BR BKN007 FM170900 23010KT P6SM FEW007 PROB30 1709/1713 BKN007 FM171500 22012G22KT P6SM BKN040 FM171700 22010G20KT P6SM -SHRA OVC040 RMK NXT FCST BY 161800Z", "TAF CYZE 161341Z 1614/1622 32012KT P6SM OVC025 TEMPO 1614/1618 FEW008 OVC015 FM161800 28010KT P6SM BKN030 TEMPO 1618/1620 BKN020 RMK FCST BASED ON AUTO OBS. NXT FCST BY 162000Z", "TAF AMD CYZF 161532Z 1615/1712 11012G22KT P6SM SCT012 SCT050 BKN100 TEMPO 1615/1617 2SM -SN BKN008 FM161700 14018G28KT P6SM SCT015 BKN050 TEMPO 1617/1621 5SM -SN BKN012 FM162100 14018G28KT P6SM BKN020 BKN160 TEMPO 1621/1703 SCT020 BKN040 FM170300 13012G22KT P6SM SCT030 TEMPO 1703/1706 BKN020 BECMG 1703/1705 13010KT RMK NXT FCST BY 161800Z", "TAF CYZH 161240Z 1613/1701 08008KT P6SM FEW250 BECMG 1616/1618 10010G20KT FM162000 10010G20KT P6SM SKC RMK FCST BASED ON AUTO OBS. NXT FCST BY 161900Z", "TAF CYZP 161240Z 1613/1701 26006KT 1/2SM -DZ FG VV002 BECMG 1616/1618 14015KT FM161800 14015KT 2SM BR BKN004 TEMPO 1618/1621 6SM BR SCT004 PROB30 1618/1621 1SM BR BKN002 FM162100 14018KT P6SM SCT004 RMK FCST BASED ON AUTO OBS. NXT FCST BY 161900Z", "TAF CYZR 161340Z 1614/1702 22008KT P6SM OVC080 BECMG 1615/1617 25012KT FM162100 29010KT P6SM BKN050 TEMPO 1700/1702 P6SM -SHRA FEW020 BKN040 BECMG 1700/1702 26010G20KT RMK FCST BASED ON AUTO OBS. NXT FCST BY 162000Z", "TAF AMD CYZS 161423Z 1614/1701 06008KT 5SM -RA BR BKN015 OVC030 TEMPO 1614/1618 P6SM NSW SCT015 BKN030 OVC060 BECMG 1615/1617 01025G35KT FM161800 01025G35KT P6SM OVC040 TEMPO 1618/1701 2SM -SN BR OVC020 BECMG 1619/1621 36030G40KT RMK NXT FCST BY 161900Z", "TAF CYZT 161240Z 1613/1701 VRB03KT P6SM FEW200 BECMG 1618/1620 10010KT RMK NXT FCST BY 161900Z", "TAF CYZU 161410Z 1614/1623 10006KT P6SM SKC RMK NXT FCST BY 161900Z", "TAF AMD CYZV 161523Z 1615/1712 07008KT 1/4SM -DZ FG VV001 TEMPO 1615/1620 3SM BR SCT001 OVC006 FM162000 14008KT 2SM BR OVC003 TEMPO 1620/1624 P6SM NSW SCT003 OVC008 FM170000 VRB03KT 1SM BR OVC002 FM170900 VRB03KT 2SM BR BKN002 OVC010 RMK NXT FCST BY 161800Z", "TAF AMD CYZX 161553Z 1615/1712 28008KT P6SM SCT005 OVC020 TEMPO 1615/1618 1SM -DZ -SHRA BR BKN005 OVC012 FM161800 28008KT P6SM SCT015 BKN030 TEMPO 1618/1622 BKN015 OVC030 FM162200 VRB03KT P6SM SCT020 BKN040 TEMPO 1622/1702 BKN020 BKN040 FM170200 VRB03KT P6SM SKC FM170700 VRB03KT P6SM FEW008 BKN120 PROB30 1710/1712 5SM BR BKN008 RMK NXT FCST BY 161800Z", "TAF CYZY 161440Z 1615/1703 VRB03KT P6SM SKC PROB30 1615/1617 1SM BR RMK FCST BASED ON AUTO OBS. NXT FCST BY 161900Z", "TAF CZBF 161340Z 1614/1702 VRB03KT P6SM SCT030 TEMPO 1614/1618 BKN020 FM162000 VRB03KT P6SM BKN040 TEMPO 1620/1702 SCT040 RMK FCST BASED ON AUTO OBS. NXT FCST BY 162000Z", "TAF CZFA 161540Z 1616/1622 14010G20KT P6SM FEW040 BKN240 RMK NXT FCST BY 161800Z", "TAF CZFM 161546Z 1616/1619 30005KT 2SM -SN OVC006 TEMPO 1616/1619 6SM -SN OVC015 RMK NXT FCST BY 171500Z", "TAF CZMD 161540Z 1616/1622 33015G25KT 6SM -SHSN SCT015 OVC025 TEMPO 1616/1618 2SM -SHSN BKN008 OVC015 PROB30 1616/1618 3/4SM -SHSN FM161800 33015G25KT P6SM BKN025 OVC040 TEMPO 1618/1622 5SM -SHSN BECMG 1618/1620 33012G22KT RMK FCST BASED ON AUTO OBS. NXT FCST BY 171000Z", "TAF CZMT 161513Z 1615/1701 VRB03KT 3/4SM BR BKN002 FM161700 15008KT 1SM BR BKN002 TEMPO 1617/1620 6SM BR SCT002 FM162000 15010G20KT P6SM FEW005 RMK NXT FCST BY 161900Z", "TAF CZSJ 161540Z 1616/1622 34015G25KT 4SM -SHSN BKN020 OVC050 TEMPO 1616/1617 P6SM -SHSN BKN025 OVC050 PROB30 1616/1617 2SM -SHSN FM161700 34015G25KT P6SM OVC025 TEMPO 1617/1622 5SM -SHSN RMK FCST BASED ON AUTO OBS. NXT FCST BY 171000Z", "TAF CZUM 161340Z 1614/1702 14008KT 5SM -RA BR BKN005 OVC012 TEMPO 1614/1616 P6SM NSW SCT005 OVC012 FM161600 14008KT P6SM OVC015 TEMPO 1616/1618 5SM -RA BR BKN008 OVC015 FM161800 14008KT P6SM BKN025 TEMPO 1618/1702 BKN020 RMK FCST BASED ON AUTO OBS. NXT FCST BY 162000Z", "TAF CZVL 161143Z 1612/1624 10003KT P6SM FEW250 BECMG 1615/1617 14006KT FM162100 12008KT P6SM SKC RMK FCST BASED ON AUTO OBS. NXT FCST BY 161800Z", "TAF DAAD 161400Z 1615/1624 02006KT 6000 NSC", "TAF DAAE 161100Z 1612/1712 10014KT 6000 NSC BECMG 1618/1621 24008KT", "TAF DAAG 161100Z 1612/1712 34010KT CAVOK BECMG 1615/1618 VRB02KT", "TAF DAAJ 161100Z 1612/1712 VRB02KT CAVOK BECMG 1618/1621 06012KT", "TAF DAAP 161400Z 1615/1624 10008KT CAVOK", "TAF DAAS 161100Z 1612/1712 28008KT 7000 NSC", "TAF DAAT 161100Z 1612/1712 12010KT CAVOK PROB30 TEMPO 1612/1618 10015G25KT BECMG 1618/1621 VRB02KT BECMG 1706/1709 08010KT", "TAF DAAV 161100Z 1612/1712 02008KT 7000 NSC", "TAF DAAY 161400Z 1615/1624 24010KT 7000 FEW030 SCT100 PROB30 TEMPO 1614/1619 -TSRA FEW026CB", "TAF DABB 161100Z 1612/1712 04008KT CAVOK", "TAF DABC 161100Z 1612/1712 28008KT CAVOK PROB30 TEMPO 1614/1619 FEW030TCU", "TAF DABS 161100Z 1612/1712 34008KT CAVOK PROB30 TEMPO 1616/1622 FEW030TCU", "TAF DABT 161100Z 1612/1712 32008KT CAVOK PROB30 TEMPO 1616/1621 FEW030TCU", "TAF DAFH 161400Z 1615/1624 VRB02KT CAVOK", "TAF DAOB 161100Z 1612/1712 22006KT CAVOK PROB30 TEMPO 1615/1621 FEW030TCU", "TAF DAOF 161400Z 1615/1624 08010KT 9999 FEW030CB SCT046", "TAF DAOI 161100Z 1612/1712 06008KT 8000 NSC BECMG 1613/1616 34010KT SCT026 BECMG 1621/1623 VRB02KT", "TAF DAON 160500Z 1606/1706 VRB02KT 9999 FEW030 BKN200 BECMG 1613/1616 18014KT BECMG 1616/1619 VRB02KT", "TAF DAOO 161100Z 1612/1712 05010KT 9999 FEW030 BKN100 BECMG 1616/1618 24012KT BECMG 1702/1704 VRB02KT", "TAF DAOR 161400Z 1615/1624 16008KT 8000 SCT033 SCT100", "TAF DAOV 161400Z 1615/1624 26010KT 9999 FEW026 PROB30 TEMPO 1615/1620 FEW030CB", "TAF DATM 161400Z 1615/1624 08008KT CAVOK", "TAF DAUA 161100Z 1612/1712 10020KT CAVOK BECMG 1616/1619 10010KT", "TAF DAUB 161100Z 1612/1712 12008KT CAVOK", "TAF DAUG 161100Z 1612/1712 VRB02KT CAVOK", "TAF DAUH 161100Z 1612/1712 14006KT CAVOK", "TAF DAUI 161100Z 1612/1712 08020KT 8000 DRSA NSC BECMG 1617/1619 08010KT NSW", "TAF DAUK 161400Z 1615/1624 18006KT CAVOK", "TAF DAUL 161400Z 1615/1624 VRB02KT 8000 FEW033 PROB30 TEMPO 1615/1618 FEW030CB", "TAF DAUO 161400Z 1615/1624 VRB02KT CAVOK", "TAF DAUT 161400Z 1615/1624 12012KT CAVOK", "TAF DAUU 161400Z 1615/1624 14006KT CAVOK", "TAF DAUZ 161100Z 1612/1712 10010KT CAVOK BECMG 1618/1621 VRB02KT", "TAF DBBB 161100Z 1612/1718 22010KT 9999 SCT12 PROB30 TEMPO 1614/1620 TS BKN012 FEW023CB", "TAF DFFD 161100Z 1612/1718 VRB08KT 9999 FEW026 PROB30 TEMPO 1615/1622 06025G45KT 2500 SQ BLSA TSRA SCT026 FEW036CB TEMPO 1706/1710 4000 HZ", "TAF DFOO 161100Z 1612/1712 20008KT 9999 SCT020 TEMPO 1615/1622 4000 TSRA SCT020 FEW033CB", "TAF DGAA 161100Z 1612/1718 18010KT 9999 SCT015 PROB30 TEMPO 1615/1621 8000 -RA BKN010 BECMG 1700/1702 27006KT CAVOK", "TAF DGLE 161100Z 1612/1712 23010KT 9999 FEW014 BECMG 1618/1620 CAVOK", "TAF DGSI 161100Z 1612/1712 23010KT 9999 SCT016 PROB30 TEMPO 1616/1620 8000 -RA BKN010 BECMG 1623/1701 CAVOK", "TAF DIAP 161110Z 1612/1718 22010KT 8000 FEW013 SCT030 PROB40 TEMPO 1703/1708 3500 RA BKN010 BKN030", "TAF DIBK 161121Z 1612/1712 20008KT 8000 BKN013 BECMG 1613/1614 SCT013 PROB40 TEMPO 1617/1622 TS BKN012 FEW022CB", "TAF DIYO 161122Z 1612/1712 23008KT 8000 BKN013 BECMG 1613/1614 SCT012 PROB40 TEMPO 1617/1622 TS BKN012 FEW020CB", "TAF DNAA 161100Z 1612/1718 26004KT 9999 BKN011 TEMPO 1616/1622 TS FEW020CB PROB30 1617/1621 06016G34KT 5000 -TSRA BKN008 FEW018CB BECMG 1622/1624 10010KT CAVOK PROB30 TEMPO 1705/1708 5000 BR SCT007 BECMG 1709/1712 23005KT BKN013", "TAF DNAK 161100Z 1612/1718 28010KT 9999 BKN013 TEMPO 1613/1619 TS SCT013 FEW020CB BECMG 1619/1621 VRB02KT SCT011 BECMG 1708/1710 24010KT BKN013 TEMPO 1713/1718 SCT013 FEW020CB", "TAF DNBE 161100Z 1612/1718 21010KT 9999 BKN012 TEMPO 1612/1618 BKN012 FEW020CB PROB30 1613/1617 5000 -TSRA BKN008 FEW018CB BECMG 1617/1619 VRB02KT SCT008 TEMPO 1705/1708 4000 BR BECMG 1708/1710 20010KT BKN012 TEMPO 1711/1717 BKN012 FEW020CB", "TAF DNGO 161100Z 1612/1718 25007KT 9999 SCT010", "TAF DNIB 161100Z 1612/1718 24010KT 9999 BKN013 TEMPO 1613/1619 TS SCT013 FEW020CB BECMG 1619/1621 VRB02KT SCT011 BECMG 1708/1710 25010KT BKN013 TEMPO 1713/1718 SCT013 FEW020CB", "TAF DNIL 161100Z 1612/1718 00000KT 9999 SCT010 BECMG 1613/1615 23010KT BKN012 TEMPO 1617/1623 TS FEW020CB BECMG 1623/1703 VRB02KT CAVOK PROB30 TEMPO 1705/1709 17005KT 5000 BR SCT007 BECMG 1710/1712 23010KT BKN012", "TAF DNJO 161100Z 1612/1718 07010KT CAVOK BECMG 1613/1615 26005KT BKN010 TEMPO 1615/1620 TS FEW017CB PROB30 1616/1619 07015G35KT 5000 -TSRA BKN004 FEW015CB BECMG 1620/1622 14010KT CAVOK BECMG 1701/1703 11005KT", "TAF DNKA 161100Z 1612/1718 25003KT 9999 SCT010 TEMPO 1616/1621 TS FEW020CB BECMG 1621/1624 12010KT CAVOK TEMPO M1709/1712 22005KT BKN013", "TAF DNKN 161100Z 1612/1718 04008KT 5000 HZ NSC BECMG 1615/1617 7000 NSW", "TAF DNKT 161100Z 1612/1718 05009KT 5000 HZ NSC BECMG 1615/1617 7000 NSW", "TAF DNMA 161100Z 1612/1718 09008KT CAVOK", "TAF DNMM 161100Z 1612/1718 22010KT 9999 BKN013 FEW020CB TEMPO 1613/1619 TS PROB30 1614/1618 5000 -TSRA BKN009 FEW019CB BECMG 1619/1621 SCT011 BECMG 1622/1624 VRB02KT BECMG 1708/1710 21010KT BKN013 TEMPO 1712/1718 SCT013 FEW020CB", "TAF DNSO 161100Z 1612/1718 29010KT CAVOK TEMPO 1616/1618 BECMG 18005KT", "TAF DNSU 161100Z 1612/1718 20010KT 9999 BKN012 TEMPO 1612/1618 BKN012 FEW020CB PROB30 1613/1617 5000 -TSRA BKN008 FEW018CB BECMG 1617/1619 VRB02KT SCT009 TEMPO 1705/1708 3000 BR BECMG 1708/1710 19010KT BKN012 TEMPO 1711/1717 BKN012 FEW020CB", "TAF DNYO 161100Z 1612/1718 28010KT 9999 BKN013 BECMG 1617/1619 21005KT SCT011", "TAF DRRN 161100Z 1612/1718 18008KT 8000 NSC PROB30 TEMPO 1614/1620 TS SCT030 FEW040CB", "TAF DRZA 161100Z 1612/1712 10010KT 8000 NSC TEMPO 1708/1712 12020KT 3500 BLDU", "TAF DRZR 161100Z 1612/1712 06006KT 6000 NSC TEMPO 1704/1710 4000 DU", "TAF DTKA 161500Z 1616/1701 06008KT CAVOK BECMG 1619/1621 14010KT", "TAF DTMB 161100Z 1612/1712 09010KT 6000 SCT023 BECMG 1615/1617 11015KT BECMG 1709/1711 17010KT", "TAF DTNH 161100Z 1612/1712 16006KT 9999 SCT040 BECMG 1620/1622 11015KT PROB30 TEMPO 1705/1707 4000 BR FEW010", "TAF DTTA 161100Z 1612/1712 10003KT 9999 FEW026 BECMG 1620/1622 14015KT PROB30 TEMPO 1705/1707 4000 BR FEW010", "TAF DTTB 161500Z 1616/1701 05015KT 9999 FEW020 BECMG 1619/1621 14010KT", "TAF DTTF 161500Z 1616/1701 24010KT CAVOK BECMG 1616/1618 18006KT BECMG 1622/1624 VRB03KT", "TAF DTTG 161500Z 1616/1701 VRB02KT CAVOK BECMG 1616/1618 10010KT", "TAF DTTJ 161100Z 1612/1712 17004KT 9999 FEW020 BECMG 1614/1616 14010KT", "TAF DTTR 161500Z 1616/1701 15005KT CAVOK BECMG 1616/1618 VRB03KT", "TAF DTTX 161100Z 1612/1712 18008KT CAVOK BECMG 1616/1618 12010KT", "TAF DTTZ 161100Z 1612/1712 10006KT CAVOK", "TAF DXNG 161100Z 1612/1712 VRB05KT 9999 FEW006", "TAF DXXX 161100Z 1612/1718 20010KT 9999 SCT015 BECMG 1700/1702 26006KT BECMG 1708/1710 20010KT", "TAF EBAW 161414Z 1615/1624 14005KT 9999 BKN030 PROB30 TEMPO 1618/1621 BKN014", "TAF EBBR 161106Z 1612/1718 21010KT 9999 SCT030 BECMG 1614/1617 15007KT BECMG 1622/1701 20010KT PROB30 TEMPO 1710/1719 4500 RA SHRA BKN014 SCT030TCU", "TAF EBCI 161106Z 1612/1718 20010KT 9999 SCT030 BECMG 1614/1617 14005KT PROB30 TEMPO 1614/1618 BKN013 BECMG 1621/1624 20010KT PROB30 TEMPO 1711/1718 4500 RA SHRA BKN014 SCT030TCU", "TAF EBLG 161106Z 1612/1718 20010KT 9999 SCT030 BECMG 1614/1617 14005KT PROB30 TEMPO 1614/1617 BKN013 BECMG 1620/1623 20010KT PROB30 TEMPO 1715/1718 4500 RA SHRA BKN014 SCT030TCU", "TAF EBOS 161106Z 1612/1718 20010KT 9999 SCT020 BECMG 1613/1616 13010KT PROB30 TEMPO 1617/1621 4800 RA RADZ BKN012 BECMG 1700/1703 20008KT PROB30 TEMPO 1706/1714 4500 RA SHRA BKN014 SCT030TCU", "TAF EDAC 161400Z 1615/1624 23012KT CAVOK BECMG 1615/1618 VRB03KT", "TAF EDAH 161400Z 1615/1624 23009KT CAVOK BECMG 1616/1618 21004KT", "TAF EDDB 161100Z 1612/1712 24011KT CAVOK BECMG 1614/1617 21005KT BECMG 1619/1622 13004KT BECMG 1707/1710 19010KT", "TAF EDDC 161100Z 1612/1712 23010KT 9999 SCT030 PROB30 TEMPO 1612/1616 SHRA BKN030CB BECMG 1614/1617 18005KT BECMG 1700/1703 15010KT", "TAF EDDE 161100Z 1612/1712 22010KT 9999 BKN030 PROB30 TEMPO 1612/1616 SHRA BKN030CB BECMG 1614/1616 24005KT BECMG 1619/1621 VRB03KT PROB30 TEMPO 1621/1704 4000 BCFG BECMG 1708/1710 20006KT", "TAF EDDF 161100Z 1612/1718 22006KT 9999 BKN025 TEMPO 1612/1614 BKN014 PROB30 TEMPO 1614/1618 3000 SHRA BKN008 BKN015TCU BECMG 1615/1618 09004KT SCT025 PROB40 TEMPO 1622/1707 1500 BCFG PROB30 TEMPO 1703/1707 0800 FG BKN001 BECMG 1706/1709 21006KT PROB40 TEMPO 1715/1718 BKN030", "TAF EDDG 161100Z 1612/1712 23010KT 9999 SCT025 BECMG 1614/1617 VRB03KT BECMG 1702/1705 15005KT BECMG 1708/1711 21007KT PROB30 TEMPO 1710/1712 SHRA SCT015CB", "TAF EDDH 161100Z 1612/1718 21012KT 9999 FEW030 TEMPO 1612/1614 24015G25KT BECMG 1614/1616 23004KT BECMG 1623/1701 13006KT BECMG 1708/1710 20009KT TEMPO 1714/1718 4500 RA BKN012", "TAF EDDK 161100Z 1612/1718 22006KT 9999 SCT035 BECMG 1614/1617 14007KT TEMPO 1616/1620 SHRA BKN030CB TEMPO 1709/1712 SHRA SCT035CB TEMPO 1715/1718 RA", "TAF COR EDDL 161107Z 1612/1718 23010KT 9999 SCT035 BECMG 1613/1617 15006KT TEMPO 1617/1622 SHRA BKN030CB BECMG 1621/1624 15011KT TEMPO 1708/1712 SHRA SCT035CB PROB30 TEMPO 1713/1718 RA", "TAF AMD EDDM 161216Z 1612/1718 26007KT CAVOK BECMG 1614/1616 07003KT TEMPO 1619/1622 2000 BCFG BECMG 1622/1701 0500 FG VV002 BECMG 1707/1709 CAVOK", "TAF EDDN 161100Z 1612/1712 19005KT CAVOK BECMG 1615/1617 12005KT PROB30 TEMPO 1703/1707 1500 BCFG", "TAF EDDP 161100Z 1612/1712 23013KT 9999 BKN025 BECMG 1615/1617 22005KT BECMG 1619/1621 16004KT PROB30 TEMPO 1622/1703 4000 BCFG BECMG 1709/1711 22010KT", "TAF EDDR 161100Z 1612/1712 20006KT CAVOK BECMG 1615/1618 12004KT BECMG 1700/1703 18005KT PROB30 TEMPO 1700/1706 1200 BCFG BECMG 1707/1710 21010KT", "TAF EDDS 161100Z 1612/1712 VRB03KT CAVOK TEMPO 1612/1614 20005KT PROB30 TEMPO 1702/1706 0800 FG BKN001", "TAF EDDV 161100Z 1612/1712 20011KT 9999 FEW040 BECMG 1615/1617 22004KT BECMG 1623/1701 15006KT BECMG 1708/1710 21008KT", "TAF EDDW 161100Z 1612/1712 22012KT 9999 FEW030 TEMPO 1612/1614 24015G25KT BECMG 1614/1616 21004KT BECMG 1623/1701 13007KT BECMG 1707/1709 20008KT", "TAF EDFH 161100Z 1612/1712 24007KT 9999 SCT003 BKN012 TEMPO 1612/1618 3000 -RA BR BKN003 BECMG 1615/1618 16010KT PROB40 TEMPO 1618/1623 2000 BR BKN008 PROB30 TEMPO 1623/1706 0800 FG BKN001 PROB30 TEMPO 1706/1712 BKN008", "TAF EDGS 161400Z 1615/1624 17008KT 9999 BKN030 PROB30 TEMPO 1617/1620 SHRA BKN020TCU", "TAF EDHK 161400Z 1615/1619 25013KT 9999 FEW035 BECMG 1616/1619 22007KT", "TAF EDHL 161400Z 1615/1621 26008KT 9999 FEW040 BECMG 1616/1619 VRB03KT", "TAF EDJA 161400Z 1615/1624 VRB03KT CAVOK", "TAF EDLN 161400Z 1615/1624 VRB03KT 9999 SCT030 PROB30 TEMPO 1617/1621 SHRA BKN020TCU BECMG 1618/1621 14005KT", "TAF EDLP 161100Z 1612/1712 23010KT 9999 SCT035 BECMG 1614/1617 15005KT TEMPO 1619/1623 SHRA BKN030CB BECMG 1622/1702 17010KT", "TAF EDLV 161100Z 1612/1712 24009KT 9999 SCT030 BECMG 1614/1617 VRB03KT BECMG 1619/1622 14007KT BECMG 1705/1708 20007KT PROB40 TEMPO 1708/1711 SHRA SCT035CB", "TAF EDLW 161100Z 1612/1712 23010KT 9999 SCT030 BECMG 1614/1618 15005KT TEMPO 1618/1622 SHRA BKN025CB BECMG 1701/1704 18010KT PROB30 TEMPO 1710/1712 SHRA SCT030CB", "TAF EDMA 161400Z 1615/1624 VRB03KT CAVOK", "TAF EDNY 161100Z 1612/1712 VRB03KT CAVOK PROB30 TEMPO 1612/1615 24005KT PROB30 TEMPO 1623/1704 1500 BCFG PROB40 TEMPO 1704/1708 0500 FG VV001", "TAF EDQM 161400Z 1615/1624 19004KT CAVOK TEMPO 1621/1624 1200 BCFG", "TAF EDSB 161100Z 1612/1712 22005KT CAVOK BECMG 1612/1615 VRB03KT PROB40 TEMPO 1618/1706 0600 FG BKN001", "TAF EDTY 161400Z 1615/1624 VRB03KT CAVOK", "TAF EDVE 161400Z 1615/1621 24008KT CAVOK BECMG 1616/1619 15004KT", "TAF EDVK 161400Z 1615/1624 22009KT 9999 SCT040 BECMG 1617/1619 14005KT PROB30 TEMPO 1622/1624 4500 -RA BR BKN009", "TAF EDXW 161400Z 1615/1621 25020G30KT CAVOK BECMG 1615/1617 25013KT BECMG 1619/1621 22005KT", "TAF EEEI 161130Z 1612/1712 20012KT 9999 SCT010 BKN025 TEMPO 1612/1615 4000 SHRA BKN005 FEW015CB BECMG 1617/1619 26017G27KT TEMPO 1618/1623 3000 SHRA FEW015CB PROB30 TEMPO 1619/1622 TSRA", "TAF EEKA 161200Z 1613/1619 21013G23KT 8000 BKN005 OVC010 TEMPO 1613/1616 1200 RADZ BR OVC002 BECMG 1616/1618 24016G28KT BKN010 SCT015CB", "TAF EEKE 161400Z 1615/1621 20015KT 9999 BKN010 OVC020 TEMPO 1615/1619 2000 SHRA BR BKN006 SCT015CB BECMG 1617/1619 24020G30KT PROB40 TEMPO 1619/1621 24028G39KT 5000 TSRA SCT013CB BKN025", "TAF EETN 161130Z 1612/1712 20015G25KT 9999 BKN015 SCT020CB TEMPO 1612/1617 3000 SHRA BKN006 SCT015CB BECMG 1617/1619 SCT020CB BKN025 TEMPO 1619/1623 3000 SHRA BKN008 SCT020CB BECMG 1619/1621 25022G32KT TEMPO 1620/1623 TSRA", "TAF EFHK 161436Z 1615/1715 18013KT 9000 -RA BKN007 TEMPO 1615/1620 3000 DZRA BKN004 PROB40 TEMPO 1615/1620 BKN004 SCT020CB TEMPO 1620/1623 21016G28KT 3000 SHRA BKN013 SCT020CB FM162300 24015KT 9999 BKN025 TEMPO 1623/1703 25017G29KT", "TAF EFJY 161436Z 1615/1715 17009KT 9999 -RADZ OVC007 TEMPO 1615/1618 6000 SHRA SCT007 BKN015 SCT020CB BECMG 1618/1620 BKN020 TEMPO 1620/1703 4000 +SHRA BKN005 SCT015CB TEMPO 1704/1710 BKN012 BECMG 1707/1709 29010KT", "TAF EFKK 161433Z 1615/1621 22010KT 9999 SCT025 PROB30 TEMPO 1615/1621 BKN014", "TAF EFKS 161433Z 1615/1621 15009KT 9999 BKN003 TEMPO 1615/1619 2500 -DZRA BKN005 PROB30 1615/1619 SHRA FEW015CB BECMG 1619/1621 21010KT BKN015", "TAF EFKU 161436Z 1615/1715 18013KT 8000 -RA OVC005 TEMPO 1615/1622 4000 SHRA BKN012 BKN030CB BECMG 1622/1624 17003KT BKN030 TEMPO 1700/1705 6000 SHRA BKN009 BKN030CB BECMG 1705/1707 31010KT", "TAF EFMA 161436Z 1615/1624 20011KT CAVOK TEMPO 1615/1621 4000 SHRA SCT020CB PROB40 TEMPO 1617/1621 22015G30KT TSRA PROB40 TEMPO 1621/1624 25015G31KT", "TAF EFOU 161433Z 1615/1715 19009KT 9999 BKN018 TEMPO 1615/1616 BKN014 FEW020CB TEMPO 1700/1703 BKN012 BECMG 1701/1703 25010KT TEMPO 1703/1708 BKN009", "TAF EFRO 161433Z 1615/1715 13008KT 9999 -RA FEW001 BKN003 TEMPO 1615/1617 5000 RA SCT003 FEW015CB BECMG 1617/1618 19011KT BKN006 TEMPO 1618/1623 7000 SCT013 BKN015 TEMPO 1623/1705 1200 -DZ BR BKN001 BECMG 1707/1709 30010KT SCT012", "TAF EFSA 161436Z 1615/1621 19011KT 9999 OVC006 TEMPO 1615/1617 2500 DZ BR OVC002 TEMPO 1617/1621 4000 SHRA BKN007 BKN030CB", "TAF EFSI 161436Z 1615/1624 21009KT 9999 SCT014 TEMPO 1622/1624 1200 BCFG", "TAF EFTP 161436Z 1615/1715 18007KT 3000 SHRA BKN003 SCT030CB BECMG 1615/1617 9999 NSW BKN009 SCT030CB PROB30 TEMPO 1617/1619 4000 BR SCT015 TEMPO 1619/1705 4000 SHRA SCT012 BKN020CB BECMG 1705/1707 28010KT SCT013", "TAF EFTU 161436Z 1615/1715 20010KT 9999 OVC005 BECMG 1615/1617 SCT015 TEMPO 1617/1623 23017G29KT 6000 SHRA BKN008 SCT015CB TEMPO 1623/1705 25017G29KT BKN014 FEW015CB BECMG 1705/1707 28010KT TEMPO 1705/1710 BKN013", "TAF EFVA 161433Z 1615/1715 22013KT 9999 SCT017 PROB30 1615/1617 BKN014 BECMG 1621/1623 VRB02KT PROB40 TEMPO 1621/1706 1200 BCFG PROB30 TEMPO 1706/1709 3000 BR BKN007 BECMG 1709/1711 26010KT", "TAF EGAA 161057Z 1612/1712 19008KT 9999 FEW015 SCT030 BECMG 1617/1619 10015G25KT TEMPO 1618/1623 7000 RA TEMPO 1619/1623 10020G35KT PROB40 TEMPO 1619/1623 3000 +RA BKN012 BECMG 1623/1703 19020G35KT TEMPO 1706/1712 7000 SHRA BKN012 BECMG 1710/1712 23020G35KT", "TAF EGAC 161404Z 1615/1621 20008KT 9999 FEW020 BECMG 1615/1618 08010KT BECMG 1618/1621 09020G36KT TEMPO 1619/1621 7000 RA PROB30 TEMPO 1619/1621 4000 +RA BKN014", "TAF EGAE 161404Z 1615/1620 21009KT 9999 FEW030 BECMG 1615/1618 08010KT BECMG 1618/1620 07016G26KT TEMPO 1619/1620 7000 RA", "TAF EGBB 161053Z 1612/1712 21006KT CAVOK BECMG 1615/1618 14012KT BKN040 TEMPO 1619/1624 6000 RA BKN010 PROB30 TEMPO 1620/1624 14015G25KT 3000 +RA RADZ BKN008 BECMG 1623/1702 20012KT PROB40 TEMPO 1700/1703 7000 SHRA PROB30 TEMPO 1700/1712 22015G25KT", "TAF EGBJ 161356Z 1615/1619 15006KT 9999 FEW020 TEMPO 1617/1619 7000 RA BKN010", "TAF EGCC 161056Z 1612/1718 20007KT 9999 FEW035 BECMG 1615/1618 12010KT TEMPO 1618/1701 14018G30KT TEMPO 1621/1702 6000 RA BKN008 PROB30 TEMPO 1621/1702 3000 +RA BECMG 1623/1702 20010KT TEMPO 1704/1710 21015G25KT TEMPO 1710/1714 22018G30KT", "TAF EGCK 161355Z 1615/1624 21009KT 9999 FEW040 BECMG 1615/1618 12013KT TEMPO 1618/1621 13018G30KT TEMPO 1620/1624 6000 RA BKN012 BECMG 1621/1624 21013KT PROB40 TEMPO 1621/1624 22018G30KT 3000 +SHRAGS BKN008 BKN025CB", "TAF EGCN 161055Z 1612/1712 23009KT 9999 FEW025 BECMG 1617/1620 11010KT TEMPO 1620/1701 13015G25KT BECMG 1621/1624 BKN010 TEMPO 1621/1703 6000 RA BKN008 PROB30 TEMPO 1621/1703 3000 +RA RADZ BKN003 BECMG 1703/1706 20010KT SCT024", "TAF EGEO 161356Z 1615/1617 26010KT 9999 FEW040 BECMG 1615/1617 16009KT", "TAF EGFF 161100Z 1612/1712 13010KT 9999 SCT035 BECMG 1617/1620 BKN007 TEMPO 1617/1622 7000 RA PROB40 TEMPO 1617/1621 14017G27KT PROB30 TEMPO 1618/1621 3000 +SHRA RADZ BKN004 BECMG 1620/1622 21012KT SCT040 PROB30 TEMPO 1621/1703 22015G25KT PROB30 TEMPO 1623/1701 3000 +RA +SHRA BKN014", "TAF EGGD 161100Z 1612/1712 15011KT 9999 SCT030 BECMG 1617/1620 BKN004 TEMPO 1617/1622 15015G25KT 6000 RA PROB30 TEMPO 1618/1621 2500 +SHRA RADZ BKN001 BECMG 1620/1622 21012KT FEW004 SCT015 PROB40 TEMPO 1622/1706 22015G25KT PROB30 TEMPO 1623/1702 3000 +RA +SHRA BKN010", "TAF EGGP 161056Z 1612/1712 18006KT 9999 FEW035 BECMG 1616/1619 12012KT TEMPO 1618/1624 13018G28KT TEMPO 1620/1701 6000 RA BKN010 PROB30 TEMPO 1621/1701 3000 +RA BECMG 1700/1703 20010KT PROB40 TEMPO 1709/1712 21015G25KT", "TAF EGGW 161100Z 1612/1712 22010KT 9999 FEW040 BECMG 1614/1617 15009KT BECMG 1618/1621 BKN006 TEMPO 1618/1623 6000 RA PROB40 TEMPO 1619/1623 15015G25KT 3000 +SHRA RADZ BKN003 BECMG 1622/1701 21012KT FEW020 PROB30 TEMPO 1623/1704 21015G25KT PROB30 TEMPO 1703/1705 7000 RA BKN012", "TAF EGHH 161356Z 1615/1624 14010KT 9999 FEW020 TEMPO 1615/1622 7000 RA BKN010 PROB30 TEMPO 1617/1621 16018G28KT 3000 +RA BKN007 PROB30 TEMPO 1621/1624 16018G28KT", "TAF EGHI 161356Z 1615/1622 15008KT 9999 FEW025 TEMPO 1615/1622 7000 RA BKN010 PROB30 TEMPO 1617/1622 16015G25KT 3000 +RA BKN007", "TAF EGHQ 161355Z 1615/1624 14015KT 9999 SCT020 TEMPO 1615/1624 16018G28KT TEMPO 1615/1620 7000 RA BKN012 PROB30 TEMPO 1616/1618 3000 +RA BKN005", "TAF AMD EGJA 161551Z 1615/1700 14014KT 9999 BKN008 TEMPO 1615/1618 5000 RADZ BR BKN005 PROB30 TEMPO 1615/1618 0600 +RADZ FG BKN000 BECMG 1616/1619 18020KT SCT015 BKN020 BECMG 1619/1621 21020G30KT", "TAF EGJB 161400Z 1615/1700 15017KT 9999 FEW009 BKN012 TEMPO 1615/1618 5000 RADZ BR BKN005 PROB30 TEMPO 1615/1618 0600 +RADZ FG BKN000 BECMG 1616/1618 18020KT SCT015 BKN020 BECMG 1619/1621 21018G28KT", "TAF AMD EGJJ 161551Z 1615/1700 16018KT 9999 FEW009 BKN011 TEMPO 1615/1617 5000 RADZ BR BKN005 PROB30 TEMPO 1615/1617 1200 +RADZ SCT001 BKN002 TEMPO 1615/1622 SCT020 BECMG 1622/1700 21018G28KT", "TAF EGKA 161356Z 1615/1619 13013KT 9999 SCT020 BECMG 1615/1619 8000 -RA TEMPO 1616/1619 3000 +SHRA BKN014 BKN020CB", "TAF EGKB 161356Z 1615/1621 15010KT 9999 SCT045 BECMG 1616/1619 8000 -RA TEMPO 1617/1619 14015G25KT BKN014 PROB30 TEMPO 1617/1621 BKN006 TEMPO 1619/1621 4000 +RA", "TAF EGKK 161053Z 1612/1718 16007KT 9999 FEW025 TEMPO 1616/1624 6000 RA BKN014 PROB40 TEMPO 1618/1623 17015G25KT 4000 +SHRA BKN007 BECMG 1622/1701 23010KT PROB30 TEMPO 1700/1707 6000 SHRA BKN010", "TAF EGLC 161356Z 1615/1621 14008KT 9999 SCT035 PROB30 TEMPO 1615/1621 7000 SHRA BKN014 TEMPO 1619/1621 BKN007", "TAF EGLF 161356Z 1615/1619 14009KT 9999 SCT045 BECMG 1616/1619 8000 -RA BKN014 TEMPO 1617/1619 4000 RA BKN007", "TAF EGLL 161058Z 1612/1718 18007KT 9999 SCT030 PROB30 TEMPO 1614/1616 7000 RA BECMG 1616/1619 8000 -RA PROB30 TEMPO 1618/1622 3000 +RA BKN012 BECMG 1621/1624 9999 NSW PROB30 TEMPO 1700/1708 7000 RA", "TAF EGMC 161356Z 1615/1624 14008KT 9999 SCT025 BECMG 1616/1619 8000 -RA TEMPO 1619/1622 BKN007 BECMG 1620/1623 9999 NSW", "TAF EGMD 161356Z 1615/1624 14012KT 9999 SCT045 PROB30 TEMPO 1615/1624 8000 SHRA PROB30 TEMPO 1618/1624 16016G29KT", "TAF EGNH 161355Z 1615/1620 21009KT 9999 FEW035 BECMG 1615/1618 13010KT TEMPO 1618/1620 13015G28KT", "TAF EGNJ 161355Z 1615/1624 23011KT 9999 FEW045 BECMG 1615/1618 11006KT TEMPO 1618/1624 12015G25KT TEMPO 1621/1624 6000 RA BKN014 PROB40 TEMPO 1621/1624 3000 +RA BKN008", "TAF EGNM 161055Z 1612/1712 23009KT 9999 FEW030 BECMG 1617/1620 12010KT BECMG 1621/1624 BKN006 TEMPO 1621/1703 3000 RADZ BKN003 TEMPO 1621/1702 13015G27KT PROB30 TEMPO 1622/1702 0300 +RA FG BKN001 BECMG 1702/1704 20010KT FEW025 TEMPO 1709/1712 21017G30KT", "TAF EGNR 161355Z 1615/1618 17007KT 9999 FEW035", "TAF EGNS 161400Z 1615/1621 15010KT 9999 FEW025 BKN050 BECMG 1615/1618 11020KT BECMG 1618/1621 12025G37KT 6000 RA PROB30 TEMPO 1620/1621 2500 +RA", "TAF EGNT 161055Z 1612/1712 25010KT 9999 FEW030 PROB30 TEMPO 1612/1613 26015G25KT BECMG 1615/1618 18005KT BECMG 1618/1621 12010KT PROB30 TEMPO 1622/1702 12015G25KT TEMPO 1623/1703 6000 RA BKN010 PROB30 TEMPO 1623/1703 3000 +RA RADZ BKN004 BECMG 1701/1704 20010KT PROB40 TEMPO 1706/1710 20015G25KT TEMPO 1710/1712 21020G40KT", "TAF EGNV 161355Z 1615/1624 23010KT 9999 FEW040 BECMG 1615/1618 12005KT TEMPO 1621/1624 12017G27KT TEMPO 1622/1624 6000 RA BKN014", "TAF EGNX 161053Z 1612/1712 23010KT CAVOK BECMG 1615/1618 12012KT BKN040 TEMPO 1619/1624 6000 RA BKN010 PROB30 TEMPO 1620/1624 14015G25KT 3000 +RA RADZ BKN006 BECMG 1623/1702 20012KT PROB40 TEMPO 1700/1703 7000 SHRA PROB30 TEMPO 1700/1712 22015G25KT", "TAF EGPA 161356Z 1615/1624 25015KT 9999 FEW010 SCT025 PROB30 TEMPO 1615/1618 26018G28KT 7000 SHRA BECMG 1621/1624 17009KT", "TAF EGPB 161356Z 1615/1624 26018KT 9999 FEW020 SCT030 PROB40 TEMPO 1615/1618 7000 SHRA PROB30 TEMPO 1616/1619 26020G30KT BECMG 1622/1624 20015KT", "TAF EGPC 161356Z 1615/1624 25014KT 9999 SCT030 BECMG 1617/1620 18010KT", "TAF EGPD 161054Z 1612/1712 26010KT 9999 FEW030 BECMG 1615/1618 19007KT BECMG 1621/1624 12010KT TEMPO 1700/1705 13016G28KT 7000 RA BKN014 PROB30 TEMPO 1702/1705 3500 +RA BKN006 BECMG 1704/1706 20009KT", "TAF EGPE 161356Z 1615/1624 23014KT 9999 FEW030 BECMG 1618/1621 07009KT PROB30 TEMPO 1623/1624 8000 -RA", "TAF EGPF 161054Z 1612/1712 24012KT 9999 FEW040 BECMG 1616/1619 09010KT TEMPO 1621/1702 10017G28KT 7000 RA PROB30 TEMPO 1622/1701 3500 +RA BKN014 BECMG 1701/1704 18012KT TEMPO 1704/1712 19015G25KT PROB30 TEMPO 1706/1712 20020G35KT 6000 SHRA", "TAF EGPH 161054Z 1612/1712 25013KT 9999 FEW030 PROB40 TEMPO 1612/1615 24016G26KT BECMG 1616/1620 09010KT PROB40 TEMPO 1623/1702 11015G27KT TEMPO 1700/1703 7000 RA PROB30 TEMPO 1700/1703 3500 +RA BKN014 BECMG 1703/1706 20012KT TEMPO 1703/1712 20015G25KT PROB30 TEMPO 1705/1712 20025G38KT PROB30 TEMPO 1709/1712 8000 -RA", "TAF EGPI 161356Z 1615/1618 25010KT 9999 FEW035 BECMG 1615/1618 12009KT", "TAF AMD EGPK 161654Z 1617/1712 15009KT 9999 FEW020 BECMG 1617/1620 09015G25KT TEMPO 1620/1701 7000 RA PROB30 TEMPO 1623/1701 11022G35KT 3500 +RA BKN014 BECMG 1701/1704 17015G25KT PROB30 TEMPO 1706/1712 19020G35KT 6000 SHRA BKN014", "TAF EGPL 161356Z 1615/1618 26020KT 9999 FEW015 SCT025 BECMG 1615/1618 20009KT", "TAF EGPN 161356Z 1615/1621 25015KT 9999 FEW035 TEMPO 1615/1616 26018G28KT BECMG 1617/1620 10009KT", "TAF EGPO 161356Z 1615/1624 25012KT 9999 FEW015 SCT025 PROB30 TEMPO 1615/1618 5000 SHRA BECMG 1621/1624 10009KT", "TAF EGPU 161356Z 1615/1618 29014KT 9999 FEW040 BECMG 1615/1618 10009KT", "TAF EGSH 161354Z 1615/1624 20010KT 9999 FEW035 BECMG 1615/1618 14008KT TEMPO 1620/1624 6000 RADZ BKN008 PROB30 TEMPO 1621/1624 15015G25KT 3000 +RA BKN004", "TAF EGSS 161100Z 1612/1718 22010KT 9999 FEW040 BECMG 1614/1617 15009KT BECMG 1619/1622 BKN007 TEMPO 1619/1623 6000 RA SHRA PROB40 TEMPO 1619/1623 15015G25KT 3000 +SHRA RADZ BKN004 BECMG 1622/1701 21012KT FEW020 PROB30 TEMPO 1623/1704 21015G25KT PROB30 TEMPO 1703/1706 7000 RA BKN012", "TAF EGSY 161356Z 1615/1624 13010KT 9999 FEW025 TEMPO 1617/1624 7000 RA BKN010 PROB30 TEMPO 1617/1624 16018G28KT 3000 +RA BKN006", "TAF EGTC 161356Z 1615/1617 15008KT 9999 SCT045", "TAF EGTE 161355Z 1615/1624 14010KT 9999 SCT020 TEMPO 1615/1621 7000 RA BKN012 PROB30 TEMPO 1617/1620 17016G26KT 3000 +RA BKN007 PROB30 TEMPO 1620/1624 17016G26KT", "TAF EGTK 161356Z 1615/1624 15009KT 9999 SCT040 PROB30 TEMPO 1615/1617 9000 -RA BECMG 1617/1620 8000 -RA BKN004 PROB30 TEMPO 1619/1622 3000 +RA TEMPO 1620/1622 BKN012", "TAF EGUN 161200Z 1612/1718 21010KT 9999 SCT180 QNH2988INS BECMG 1615/1617 13012KT 9999 SCT020 BKN030 QNH2981INS BECMG 1619/1621 15010G15KT 9999 VCSH SCT020 BKN030 WS016/19035KT QNH2979INS BECMG 1621/1622 18012G24KT 6000 RA BR SCT008 OVC012 QNH2976INS BECMG 1703/1704 18012G20KT 8000 -RA BR SCT015 BKN026 BKN080 WS016/20040KT QNH2982INS BECMG 1706/1707 23012G20KT 9999 NSW FEW030 QNH2991INS BECMG 1711/1712 23015KT 9999 FEW030 QNH3004INS TX17/1615Z TN14/1706Z", "TAF EGWC 161348Z 1615/1618 18007KT 9999 FEW030", "TAF EGYD 161339Z 1615/1618 18008KT 9999 FEW030", "TAF EHAM 161107Z 1612/1718 24013KT 9999 FEW030 BECMG 1614/1617 14007KT BECMG 1701/1704 18010KT BECMG 1707/1710 21010KT PROB40 TEMPO 1710/1715 6000 RA -SHRA SCT008 BKN012 FEW040CB PROB30 TEMPO 1715/1717 SCT008 BKN012", "TAF EHBK 161123Z 1612/1718 23008KT 9999 FEW025 BECMG 1614/1616 13005KT PROB30 TEMPO 1616/1620 7000 -RA SHRA BKN020 FEW050CB BECMG 1621/1624 18012KT BECMG 1708/1711 22012KT PROB40 TEMPO 1709/1718 6000 RA SHRA FEW050CB PROB40 TEMPO 1715/1718 BKN012", "TAF EHEH 161110Z 1612/1718 22010KT 9999 SCT024 BECMG 1614/1617 11003KT PROB40 TEMPO 1618/1621 4500 SHRA SCT030 SCT050CB BECMG 1621/1624 15008KT TEMPO 1709/1713 4500 RA SHRA SCT030 SCT050CB PROB30 TEMPO 1709/1713 3500 TSRA SCT030 BKN050CB TEMPO 1713/1717 4500 RA SHRA SCT009 BKN012 SCT030CB", "TAF EHGG 161123Z 1612/1718 24017KT 9999 SCT030 BECMG 1614/1617 12002KT PROB30 1620/1623 4500 MIFG BR BECMG 1700/1703 15010KT BECMG 1706/1709 21012KT PROB40 TEMPO 1710/1716 6000 RA SHRA BKN012 FEW050CB PROB30 TEMPO 1710/1718 BKN008", "TAF EHKD 161235Z 1613/1701 23015KT 9999 FEW025 BECMG 1615/1618 13004KT PROB40 TEMPO 1622/1701 4500 RA SHRA SCT025 BKN030 SCT050CB", "TAF EHLE 161107Z 1612/1718 24013KT 9999 FEW025 BECMG 1614/1617 14007KT BECMG 1701/1704 18010KT BECMG 1707/1710 21010KT PROB40 TEMPO 1710/1715 6000 RA -SHRA SCT008 BKN012 FEW040CB PROB30 TEMPO 1715/1718 SCT008 BKN012", "TAF EHLW 161235Z 1613/1701 25016KT 9999 FEW025 BECMG 1615/1618 13004KT PROB40 TEMPO 1623/1701 4500 RA SHRA SCT025 BKN030 SCT050CB", "TAF EHRD 161107Z 1612/1718 24010KT 9999 SCT025 BECMG 1614/1617 14005KT BECMG 1700/1703 18010KT BECMG 1707/1710 21010KT PROB40 TEMPO 1709/1714 6000 RA -SHRA SCT008 BKN012 FEW040CB PROB30 TEMPO 1714/1717 SCT008 BKN012", "TAF EHVK 161235Z 1613/1701 23011KT 9999 SCT020 BECMG 1615/1618 12005KT PROB30 TEMPO 1619/1622 4500 SHRA SCT030 SCT050CB", "TAF EICK 161100Z 1612/1712 11013KT 9999 SCT015 BKN040 BECMG 1612/1614 14020G35KT TEMPO 1612/1617 3000 RA BKN007 PROB30 TEMPO 1612/1617 2000 +RA BKN004 SCT018CB TEMPO 1614/1618 15025G45KT BECMG 1616/1618 20020G32KT NSW FEW018 SCT025 TEMPO 1618/1623 21023G42KT PROB30 TEMPO 1619/1624 -SHRA SCT018CB BECMG 1622/1624 23020G30KT TEMPO 1623/1704 24025G40KT BECMG 1706/1708 25010KT", "TAF EIDL 161400Z 1615/1624 15010KT 9999 SCT030 BECMG 1615/1617 10012KT -RA TEMPO 1617/1621 4000 RA BKN013 SCT018CB BECMG 1618/1620 10020G32KT PROB30 TEMPO 1618/1620 2500 +RA BECMG 1620/1622 13020G32KT", "TAF EIDW 161100Z 1612/1712 15007KT 9999 FEW020 SCT030 BECMG 1612/1614 12010KT BECMG 1614/1616 12015G26KT -RA BECMG 1616/1618 12020G32KT TEMPO 1617/1621 13023G37KT 4000 RA BKN012 BECMG 1619/1621 18015G25KT PROB30 TEMPO 1619/1621 2500 +RA BKN007 SCT018CB BECMG 1622/1624 21020G32KT PROB40 TEMPO 1700/1708 22023G37KT BECMG 1708/1710 24020G32KT", "TAF EIKN 161100Z 1612/1712 11010KT 9999 FEW018 SCT028 TEMPO 1614/1619 3000 RA BKN007 BECMG 1615/1617 08018G30KT TEMPO 1616/1619 07023G40KT PROB30 TEMPO 1617/1619 2000 +RA BECMG 1618/1620 11013KT PROB30 TEMPO 1619/1622 -SHRA SCT017CB BECMG 1620/1622 13017G28KT TEMPO 1622/1709 4000 SHRA BKN010 SCT017CB BECMG 1622/1624 17020G35KT BECMG 1702/1704 22020G35KT BECMG 1706/1708 26020G35KT", "TAF EIKY 161400Z 1615/1624 15018G30KT 9999 -RA FEW018 SCT030 BECMG 1615/1617 20018G30KT TEMPO 1615/1617 4000 RA BKN014 PROB30 TEMPO 1615/1617 15025G40KT 2500 +RA BKN008 SCT018CB PROB30 TEMPO 1615/1617 20022G40KT TEMPO 1618/1624 -SHRA SCT018CB BECMG 1621/1622 23025G42KT", "TAF EIME 161400Z 1615/1624 11012KT 9999 FEW015 SCT030 BECMG 1616/1618 11017G29KT TEMPO 1618/1621 4000 RA BKN013 PROB30 TEMPO 1619/1621 2500 +RA BECMG 1619/1621 22015G27KT", "TAF EINN 161100Z 1612/1712 10012KT 9999 FEW020 SCT030 BECMG 1612/1614 07015G25KT -RA TEMPO 1613/1617 4000 RA BKN010 BECMG 1614/1616 11020G32KT PROB30 TEMPO 1615/1618 11020G42KT 2500 +RA BKN005 SCT018CB BECMG 1617/1619 17015G25KT TEMPO 1618/1709 -SHRA SCT018CB BECMG 1620/1622 17025G35KT BECMG 1622/1624 22025G40KT PROB30 TEMPO 1623/1706 23028G50KT BECMG 1707/1709 25013KT", "TAF EISG 161400Z 1615/1624 12012KT 9999 FEW020 SCT030 BECMG 1615/1617 09020G32KT TEMPO 1615/1620 4000 RA BKN013 PROB30 TEMPO 1617/1620 2500 +RA BKN008 BECMG 1619/1621 14015G27KT TEMPO 1622/1624 -SHRA SCT018CB", "TAF EIWF 161400Z 1615/1624 14020G35KT 9999 FEW018 SCT030 TEMPO 1615/1620 15025G45KT 4000 RA BKN010 PROB40 TEMPO 1617/1620 2500 +RA BKN005 BECMG 1618/1620 22025G40KT", "TAF EKAH 161111Z 1612/1712 21015KT 9999 SCT020 TEMPO 1612/1614 22018G32KT 4000 SHRA BKN014 BKN020CB TEMPO 1614/1619 24015G25KT BECMG 1620/1622 21005KT TEMPO 1702/1706 2500 BR MIFG BECMG 1706/1708 12010KT TEMPO 1708/1710 4000 -RA", "TAF EKBI 161111Z 1612/1712 24015KT 9999 SCT020 TEMPO 1612/1614 24018G35KT 4000 SHRA BKN014 BKN020CB TEMPO 1614/1616 24015G30KT BECMG 1618/1620 22005KT TEMPO 1700/1704 3000 BR MIFG BECMG 1705/1707 12010KT TEMPO 1707/1709 4000 -RA BECMG 1710/1712 2000 BR BKN005", "TAF EKCH 161121Z 1612/1712 22016KT 9999 FEW025 TEMPO 1612/1613 22018G28KT TEMPO 1613/1616 24022G34KT SHRA SCT020CB BECMG 1620/1623 23006KT BECMG 1706/1709 13015KT", "TAF EKEB 161424Z 1615/1619 20020KT 9999 SCT020 TEMPO 1615/1617 24018G30KT BECMG 1617/1619 26008KT", "TAF EKGC 161414Z 1615/1621 24030KT 9999 BKN030 TEMPO 1615/1617 24035G45KT BECMG 1617/1619 25020KT", "TAF EKHD 161414Z 1615/1621 21035KT 9999 BKN030 BECMG 1616/1618 25025KT", "TAF EKKA 161423Z 1615/1715 22018G32KT 9999 SCT030 BECMG 1615/1617 24015G25KT BECMG 1617/1619 24012KT BECMG 1700/1703 13008KT TEMPO 1700/1706 3000 BR TEMPO 1707/1709 7000 -RA BECMG 1709/1712 4000 RA BKN008 BECMG 1712/1715 24010KT 8000 NSW BKN020", "TAF EKRK 161424Z 1615/1624 23018KT 9999 FEW025 BECMG 1616/1619 24008KT", "TAF EKRN 161417Z 1615/1624 22012KT 9999 FEW200 TEMPO 1615/1620 23015G28KT", "TAF COR EKSB 161500Z 1615/1619 23010KT 9999 SCT025 TEMPO 1615/1618 22015G25KT", "TAF EKSP 161423Z 1615/1715 20015G25KT 9999 SCT030 BECMG 1615/1618 21010KT TEMPO 1700/1706 3000 BR BECMG 1700/1703 13008KT TEMPO 1706/1709 6000 -RADZ TEMPO 1709/1715 4000 -DZRA BKN008 BECMG 1710/1713 24012KT", "TAF EKVG 161425Z 1615/1621 14010KT 9999 BKN015 TEMPO 1615/1621 SHRA BKN012CB", "TAF EKYT 161423Z 1615/1715 22015G25KT 9999 FEW030 TEMPO 1615/1619 24022G32KT 7000 -SHRA SCT020TCU BECMG 1620/1622 24012KT BECMG 1701/1704 19010KT BECMG 1709/1712 5000 -RA BKN008 TEMPO 1712/1715 3000 DZRA BKN004", "TAF ELLX 161100Z 1612/1718 22009KT 9999 SCT007 BKN010 TEMPO 1613/1618 4500 SHRA RA BKN008 BECMG 1706/1709 SCT015", "TAF ENAL 161400Z 1615/1622 14008KT 9999 -SHRA FEW020 BKN040 TEMPO 1615/1622 SHRA BKN014CB BECMG 1618/1620 20012KT TEMPO 1620/1622 21015G25KT", "TAF ENAN 1612/1712 19012KT 9999 -SHRA FEW020 BKN040 TEMPO 1700/1710 SHRA BKN014CB BECMG 1702/1706 33018KT", "TAF ENAT 161400Z 1615/1621 VRB05KT 9999 SCT040", "TAF ENBN 161400Z 1615/1624 06005KT 9999 SCT030", "TAF ENBO 1612/1712 10012KT CAVOK BECMG 1615/1618 20008KT TEMPO 1703/1706 24018KT SHRA FEW020TCU BECMG 1706/1709 34012KT TEMPO 1706/1712 SHRA BKN014 SCT025CB", "AMD ENBR 1612/1712 12014KT 9999 SCT015 BKN020 BECMG 1612/1614 24015KT TEMPO 1612/1620 22018G28KT 4000 SHRA BKN010CB PROB40 TEMPO 1620/1702 SHRA BKN014CB BECMG 1623/1702 16008KT", "TAF ENBS 161400Z 1615/1623 22009KT 9999 SCT015", "TAF ENCN 161400Z 1615/1622 24012KT 9999 SCT030 TEMPO 1615/1617 24015G25KT 4000 SHRA BKN014 SCT020CB", "TAF ENDU 1612/1712 VRB03KT 9999 FEW035 PROB30 TEMPO 1622/1706 0800 FG VV001 TEMPO 1708/1712 32010KT SHRA BKN014", "TAF ENEV 1612/1712 16005KT 9999 FEW015 BKN030 TEMPO 1623/1712 BKN012 TEMPO 1707/1712 33010KT SHRA", "TAF ENFL 161400Z 1615/1624 14015KT 9999 -SHRA FEW025 BKN040 TEMPO 1615/1624 4000 SHRA BKN014CB BECMG 1616/1618 24015KT TEMPO 1620/1624 26020G30KT", "TAF ENGC 1615/1715 27009KT 9999 BKN025 BECMG 1615/1617 26025KT TEMPO 1615/1622 4000 SHRA SCT008 BKN014CB BECMG 1703/1705 18018KT BECMG 1710/1712 09015KT TEMPO 1711/1715 10025G35KT 4000 SHRA SCT008 BKN015CB", "TAF AMD ENGM 1612/1712 19008KT 9999 BKN020 TEMPO 1612/1616 20018G28KT 3000 SHRA BKN003 SCT020CB PROB30 TEMPO 1612/1614 TS", "TAF ENHD 161400Z 1615/1622 25025KT 9999 FEW015 BKN035 TEMPO 1615/1617 26030G40KT 4000 SHRA SCT008 BKN020CB BECMG 1619/1621 25015KT", "TAF ENHE 161400Z 1615/1624 07012KT 9999 -SHRA FEW020 BKN040 TEMPO 1622/1624 SHRA SCT020CB BECMG 1617/1619 01012KT", "TAF ENHF 161400Z 1615/1624 21008KT 9999 SCT020", "TAF ENHV 161400Z 1615/1623 21009KT 9999 SCT015", "TAF ENKB 161400Z 1615/1621 13008KT 9999 FEW030 SCT070 BECMG 1615/1617 24010KT TEMPO 1619/1621 SHRA SCT020CB", "TAF ENKR 161400Z 1615/1624 21008KT 9999 SCT015", "TAF ENLE 161400Z 1615/1624 24035KT 9999 FEW020 SCT040 TEMPO 1615/1617 SHRA SCT020CB BECMG 1618/1620 26025KT BECMG 1620/1623 18015KT", "TAF ENML 161400Z 1615/1622 06008KT 9999 FEW030 SCT065 TEMPO 1617/1622 36010KT SHRA SCT020CB", "TAF ENMS 161400Z 1615/1622 VRB05KT 9999 FEW030", "TAF ENNA 1612/1712 19008KT 9999 BKN025 PROB40 TEMPO 1612/1614 27012KT BECMG 1710/1712 33012KT", "TAF ENNE 160800Z 1609/1617 09020KT 9999 SCT025 BKN080 BECMG 1614/1616 02012KT", "ENOA 1615/1715 26035KT 9999 FEW020 BKN040 TEMPO 1615/1620 SHRA BKN020CB BECMG 1621/1623 24020KT BECMG 1702/1705 18018KT BECMG 1710/1712 10025KT TEMPO 1710/1715 14030G40KT 4000 SHRA SCT008 BKN015CB", "TAF ENOL 1612/1712 10008KT CAVOK BECMG 1619/1622 24015KT FEW014CB SCT030 TEMPO 1622/1712 25017G27KT 4000 SHRA BKN014CB", "TAF ENOV 161400Z 1615/1622 VRB05KT 9999 -SHRA FEW020 BKN050 TEMPO 1615/1617 SHRA SCT020CB TEMPO 1617/1622 4000 SHRA SCT008 BKN020CB", "TAF ENRA 161400Z 1615/1621 VRB05KT CAVOK", "TAF ENRM 161400Z 1615/1622 13008KT CAVOK", "TAF AMD ENRO 161514Z 1615/1619 16007KT 9999 BKN025 PROB30 1617/1619 BKN014", "TAF ENRY 1612/1712 18007KT 9999 FEW008 SCT020 TEMPO 1612/1615 19018G28KT 4000 SHRA BKN008 SCT020CB PROB30 1612/1615 TS", "TAF ENSB 1612/1712 13015KT 9999 FEW020 BKN080 BECMG 1700/1703 12005KT", "TAF ENSD 161400Z 1615/1621 VRB05KT 9999 -SHRA FEW020 BKN050 TEMPO 1615/1617 SHRA SCT020CB TEMPO 1617/1621 4000 SHRA SCT008 BKN020CB", "TAF ENSK 161400Z 1615/1621 20005KT 9999 BKN020", "TAF ENSR 161100Z 1612/1620 18006KT 9999 FEW012 SCT040", "TAF ENTC 1612/1712 20008KT 9999 FEW020 SCT035 TEMPO 1702/1708 SHRA BKN018 FEW020TCU TEMPO 1708/1712 SHRA BKN014 SCT020CB BECMG 1709/1711 32010KT", "TAF ENTO 1612/1712 20012KT 9999 FEW008 SCT020 TEMPO 1612/1614 19020G30KT 4000 TSRA BKN008 SCT020CB BECMG 1622/1624 VRB05KT", "TAF ENVA 1612/1712 09008KT CAVOK BECMG 1622/1624 20010KT TEMPO 1702/1712 4000 SHRA BKN012 SCT020CB BECMG 1707/1709 VRB05KT", "TAF ENVD 161400Z 1615/1623 24009KT 9999 SCT015", "TAF ENZV 1612/1712 24018KT 9999 FEW020 BKN040 TEMPO 1612/1618 24018G28KT 4000 SHRA SCT020CB BECMG 1622/1701 17008KT TEMPO 1708/1712 16015G25KT RA BKN014", "TAF AMD EPBY 161334Z 1615/1712 22008KT CAVOK BECMG 1618/1620 5000 BR PROB40 1621/1705 VRB03KT 0600 FG BKN003 BECMG 1705/1707 15010KT CAVOK", "TAF EPDA 161400Z 1615/1624 23008KT CAVOK TEMPO 1618/1624 BKN020 PROB30 TEMPO 1620/1624 5000 BR BKN010", "TAF EPDE 161400Z 1615/1624 17008KT CAVOK", "TAF EPGD 161130Z 1612/1712 22008KT 9999 BKN008 BECMG 1612/1614 SCT018 PROB40 TEMPO 1612/1616 -SHRA SCT015CB BECMG 1620/1623 3000 BR TEMPO 1700/1707 0600 FG BKN003 BECMG 1706/1708 9999", "TAF EPKK 161430Z 1615/1715 23010KT CAVOK BECMG 1615/1617 VRB02KT TEMPO 1701/1705 4000 BR", "TAF EPKS 161400Z 1615/1624 22006KT CAVOK PROB30 1620/1624 5000 BR", "TAF EPKT 161130Z 1612/1712 21010KT CAVOK TEMPO 1612/1615 SCT040TCU", "TAF EPLB 161130Z 1612/1712 20008KT CAVOK", "TAF EPLL 161130Z 1612/1712 21008KT 9999 SCT045 PROB40 1701/1706 4000 BR", "TAF EPLY 161100Z 1612/1621 19010KT 9999 BKN040", "TAF EPMB 161400Z 1615/1624 19010KT 9999 FEW025 BECMG 1615/1618 CAVOK BECMG 1621/1624 19004KT 2000 BR", "TAF EPMI 161100Z 1612/1621 23006KT 9999 SCT040", "TAF EPMM 161400Z 1615/1624 19006KT 9999 SCT045", "TAF EPMO 161130Z 1612/1712 19008KT 9999 SCT045 PROB40 1622/1707 3000 -RA BR BKN005", "TAF EPOK 161400Z 1615/1624 22010KT CAVOK BECMG 1621/1623 BKN040", "TAF EPPO 161130Z 1612/1712 23008KT 9999 SCT025 BECMG 1618/1621 4000 BR BECMG 1621/1623 2000 BR PROB30 1623/1705 0800 FG BKN002 BECMG 1706/1707 CAVOK BECMG 1707/1709 17010KT", "TAF COR EPPW 161400Z 1615/1624 21008KT 9999 BKN040 PROB30 1620/1624 5000 BR", "TAF EPRZ 161130Z 1612/1712 20010KT CAVOK TEMPO 1612/1618 22015G25KT", "TAF EPSC 161130Z 1612/1712 22006KT 9999 SCT045 PROB30 TEMPO 1612/1615 SCT020TCU TEMPO 1621/1706 3000 BR", "TAF EPSY 161430Z 1615/1624 19010KT 9999 SCT040 PROB30 TEMPO 1615/1619 -RA SCT014 BKN023 BECMG 1619/1622 VRB03KT PROB40 TEMPO 1619/1624 4000 MIFG BR SCT004 BKN008", "TAF EPWA 161430Z 1615/1715 20007KT 9999 BKN035 PROB40 TEMPO 1622/1707 -RA BKN007", "TAF EPWR 161430Z 1615/1715 23010KT CAVOK BECMG 1618/1621 17005KT TEMPO 1623/1704 4000 BR", "TAF EPZG 161430Z 1615/1624 24010KT 9999 SCT040 BECMG 1615/1618 18005KT BECMG 1618/1621 4000 BR BECMG 1621/1623 2000 BR", "TAF ESDF 161430Z 1615/1622 21012KT 9999 SCT040 PROB40 1615/1618 23018G28KT SHRA SCT030CB", "TAF ESGG 161430Z 1615/1715 21018G28KT 9999 SCT020 PROB40 1615/1620 SHRA SCT025CB BECMG 1621/1623 26007KT PROB40 1704/1707 2000 BR TEMPO 1714/1715 SHRA BKN010 BKN025CB", "TAF ESGP 161430Z 1615/1621 20016G28KT 9999 SCT035 PROB40 1615/1619 SHRA BKN030CB", "TAF ESGT 161430Z 1615/1617 21012G25KT 9999 SCT040 PROB40 1615/1617 SHRA SCT025CB", "TAF ESKN 161430Z 1615/1715 21015G25KT 9999 BKN035 PROB40 1615/1617 SHRA BKN030CB BECMG 1702/1704 26008KT", "TAF ESMK 161405Z 1615/1618 23015KT 9999 SCT025 TEMPO 1615/1618 24020G32KT SCT020CB", "TAF AMD ESMQ 161548Z 1615/1623 21013KT 9999 SCT035 TEMPO 1616/1618 22018G30KT 3000 SHRA SCT030CB", "TAF ESMS 161410Z 1615/1715 22016KT 9999 FEW020 TEMPO 1615/1617 24020G32KT SCT020CB BECMG 1623/1702 23003KT TEMPO 1702/1707 2500 MIFG BR BECMG 1707/1710 13010KT", "TAF COR ESMT 161456Z 1615/1621 21016KT 9999 SCT025 TEMPO 1615/1619 25020G32KT", "TAF ESMX 161430Z 1615/1620 22015KT 9999 SCT030 TEMPO 1615/1617 23020G35KT SHRA BKN035CB", "TAF AMD ESNG 161617Z 1616/1621 VRB03KT 0500 FG VV002 TEMPO 1616/1621 0100 VV001", "TAF ESNK 161430Z 1615/1617 35005KT 9999 BKN020 PROB40 1615/1617 BKN012", "TAF ESNO 161430Z 1615/1617 25008KT 9999 SCT020 PROB40 1615/1617 BKN012", "TAF AMD ESNQ 161617Z 1616/1619 VRB03KT 0500 FG VV002 TEMPO 1616/1619 0100 VV001", "TAF ESNS 161430Z 1615/1623 24010KT 9999 SCT004 BKN015 PROB40 1615/1621 BKN004 PROB40 1621/1623 2000 BR BKN004", "TAF ESNU 161430Z 1615/1624 21012KT 9999 SCT008 BKN020 TEMPO 1615/1620 BKN008 TEMPO 1620/1624 2000 BR BKN004 BECMG 1619/1621 VRB02KT", "TAF ESNX 161430Z 1615/1620 30004KT 6000 -RA SCT003 BKN020 PROB40 1615/1617 2000 OVC003 PROB40 1617/1620 0300 FG VV002", "TAF ESNZ 161430Z 1615/1622 18005KT CAVOK PROB40 1620/1622 0500 BCFG BKN002", "TAF ESOE 161530Z 1616/1621 23014G24KT 9999 FEW015 PROB40 1616/1617 SHRA SCT020TCU PROB40 1619/1621 SHRA SCT020CB", "TAF ESPA 161430Z 1615/1623 VRB03KT 9999 -RA SCT004 BKN015 TEMPO 1615/1617 4000 SHRA BKN004 BKN030CB BECMG 1615/1617 22013KT PROB40 1617/1623 2000 BR BKN002", "TAF ESSA 161430Z 1615/1715 20014KT 9999 BKN030 TEMPO 1615/1618 2000 TSRA BKN009 BKN030CB BECMG 1616/1618 25018G30KT BECMG 1705/1707 26012KT", "TAF ESSB 161430Z 1615/1621 20014KT 9999 SCT030 PROB40 1615/1618 4000 TSRA BKN012 BKN030CB BECMG 1615/1617 24015G27KT", "TAF ESSL 161430Z 1615/1617 20012KT 9999 SCT035 TEMPO 1615/1617 22015G28KT SHRA BKN035CB PROB40 1615/1617 4000 TSRA", "TAF ESSP 161430Z 1615/1617 20012KT 9999 SCT030 TEMPO 1615/1617 22015G28KT SHRA BKN035CB PROB40 1615/1617 4000 TSRA", "TAF ESSV 161430Z 1615/1620 20017G27KT 9999 SCT015 PROB40 1616/1618 SHRA BKN030CB", "TAF COR ESTA 161456Z 1615/1620 21016KT 9999 SCT025 TEMPO 1615/1619 25020G32KT", "TAF AMD ETAD 161300Z 1613/1718 21009KT 9999 SCT015 BKN020 QNH3000INS TEMPO 1613/1617 BKN015 BECMG 1617/1618 19009KT 9999 SCT020 BKN030 QNH3005INS BECMG 1708/1709 22012KT 9999 SCT015 BKN025 QNH3016INS TX18/1712Z TN13/1705Z", "TAF AMD ETAR 161209Z 1612/1716 20009KT 9999 BKN020 QNH3004INS BECMG 1617/1618 18009KT 9999 SCT030 BKN100 QNH3004INS BECMG 1623/1624 20012KT 9999 SCT020 QNH3009INS BECMG 1709/1710 21010G15KT 9999 FEW030 QNH3014INS BECMG 1713/1714 23009KT 9999 SCT020 BKN030 QNH3024INS TX20/1614Z TN14/1704Z", "TAF ETNL 161602Z 1617/1705 22008KT 9999 NSW SCT060 BECMG 1621/1623 12005KT 9999 NSW SCT080 BKN150 PROB30 1703/1705 11005KT 4000 -RADZ BKN012 BKN050 BY ETGL", "TAF ETNW 161602Z 1617/1711 16005KT 9999 NSW FEW040 SCT280 TEMPO 1620/1702 12005KT 6000 SHRA FEW015 BKN030TCU BY ETGL", "TAF ETOU 161200Z 1612/1718 VRB06KT 9999 SCT012 BKN020 QNH3004INS BECMG 1620/1621 VRB06KT 8000 BR SCT015 QNH3011INS BECMG 1705/1706 19009KT 9999 NSW FEW015 QNH3017INS BECMG 1712/1713 VRB06KT 9999 BKN040 QNH3022INS TX20/1613Z TN14/1705Z", "TAF ETSN 161602Z 1617/1702 VRB03KT 9999 NSW SCT120 BKN320 BECMG 1619/1621 VRB01KT 2000 BCFG FEW001 BECMG 1621/1623 VRB01KT 0500 FG VV001 BY ETGL", "TAF EVGA 161404Z 1615/1715 19010KT 9999 OVC009 TEMPO 1615/1619 4000 -SHRA BKN004 BKN015CB BECMG 1619/1621 BKN020", "TAF EVLA 161405Z 1615/1715 22012KT 7000 BKN005 OVC012 TEMPO 1615/1624 24018G30KT BECMG 1616/1618 OVC015", "TAF EVRA 161401Z 1615/1715 16010KT 9999 OVC010 TEMPO 1615/1618 4000 -SHRA BKN005 BKN015CB BECMG 1618/1620 22010KT BKN020", "TAF EYKA 161100Z 1612/1712 19010KT 9000 SCT015 OVC025 TEMPO 1612/1622 5000 SHRA SCT007 BKN015CB BECMG 1622/1623 26010KT TEMPO 1623/1706 3000 BR BKN005 BECMG 1706/1708 NSC", "TAF EYPA 161100Z 1612/1712 21012G22KT 5000 BR BKN005 TEMPO 1612/1616 BKN010 BECMG 1616/1618 SCT005 BECMG 1618/1619 27012KT 9000 NSW NSC TEMPO 1620/1624 26017G30KT TEMPO 1700/1708 27015G25KT", "TAF AMD EYSA 161528Z 1615/1624 19010KT 5000 BR OVC005 TEMPO 1615/1618 1500 DZ OVC002 BECMG 1618/1619 BKN010 BECMG 1619/1621 9000 NSW SCT015 BKN020", "TAF EYVI 161100Z 1612/1712 19011KT 9000 OVC015 TEMPO 1616/1621 3000 TSRA BKN005 BKN015CB BECMG 1621/1623 BKN010 TEMPO 1701/1706 1500 BR BKN005 BECMG 1706/1709 NSC", "TAF FAEL 161234Z 1610/1619 05015KT 9999 FEW015 TX21/1612Z TN17/1619Z TEMPO 1612/1619 05017G28KT TEMPO 1614/1619 4500 TSRA BKN010 SCT040CB", "TAF AMD FAHS 161135Z 1610/1618 10008KT 9999 BKN040 TX29/1613Z TN24/1618Z BECMG 1611/1613 VRB03KT", "TAF FAKM 160900Z 1610/1618 05010KT CAVOK TX25/1612Z TN17/1618Z PROB30 TEMPO 1612/1615 -SHRA FEW050TCU", "TAF AMD FAKN 161130Z 1610/1618 06009KT 9999 SCT025 TX27/1613Z TN20/1618Z BECMG 1615/1617 VRB03KT", "TAF AMD FAMM 161520Z 1610/1618 04009KT 9999 SCT040 BKN100 TX28/1613Z TN19/1618Z PROB30 TEMPO 1616/1618 -TSRA FEW040CB", "TAF FAPM 160600Z 1607/1618 VRB03KT 9999 SCT030 TX21/1612Z TN14/1618Z BECMG 1608/1610 08013KT BKN030 PROB30 TEMPO 1615/1618 5000 SHRA BKN015 FEW030TCU", "TAF FAPP 160900Z 1610/1618 06012KT 9999 BKN025 TX25/1614Z TN17/1618Z BECMG 1615/1617 CAVOK", "TAF FARB 160600Z 1607/1618 14006KT 9999 SCT024 TX26/1612Z TN20/1618Z BECMG 1608/1610 08015KT", "TAF FAUT 160900Z 1610/1619 08007KT 9999 BKN020 TX20/1611Z TN15/1618Z TEMPO 1612/1618 3500 TSRA SCT040CB", "TAF AMD FAWB 161515Z 1610/1618 30009KT CAVOK TX28/1614Z TN21/1618Z BECMG 1616/1618 03010KT", "TAF FAWK 160900Z 1610/1618 03012KT CAVOK TX27/1614Z TN20/1618Z", "TAF FBKE 161200Z 1615/1624 03009KT CAVOK", "TAF FCBB 161100Z 1612/1718 24006KT 9000 FEW016 BKN023 BECMG 1613/1615 SCT020 FEW030CB PROB30 TEMPO 1617/1620 TS BECMG 1620/1622 SCT016", "TAF FCPP 161100Z 1612/1712 22006KT 9999 SCT013 BKN023 FEW030CB BECMG 1613/1615 FEW013 BKN020", "FDMS 161000Z 1612/1618 08007KT 9999 SCT035", "FDSK 161000Z 1612/1618 12013KT 9999 SCT035", "TAF FEFF 160500Z 1606/1712 VRB03KT 9999 FEW010 BECMG 1608/1609 BKN013 BECMG 1610/1612 SCT023 FEW040CB TEMPO 1612/1617 4000 TSRA BECMG 1619/1620 BKN010 BECMG 1621/1623 CAVOK", "TAF FGBT 161100Z 1612/1712 22006KT 9999 SCT010 PROB30 TEMPO 1615/1620 3000 TSRA BKN010 FEW020 TEMPO 1705/1709 TS BKN008 FEW018CB", "TAF FGSL 161100Z 1612/1718 25008KT 9999 SCT010 PROB40 TEMPO 1616/1621 TS BKN010 FEW020CB TEMPO 1703/1707 4500 TSRADZ BKN008 FEW018 PROB40 TEMPO 1710/1716 3000 TSRA BKN010 FEW020CB", "TAF COR FIMP 161105Z 1612/1718 09010KT 9999 SCT018 TEMPO 1618/1706 7000 -SHRA BKN016", "TAF FIMR 161105Z 1612/1706 11015G25KT 9999 FEW018 PROB30 TEMPO 1700/1706 7000 -SHRA BKN016", "TAF FJDG 160900Z 1609/1715 14009KT 9999 FEW025 SCT050 SCT250 QNH2984INS TX31/1706Z TN25/1623Z FOR MIL USE ONLY", "TAF FKKD 161100Z 1612/1718 VRB04KT 8000 BKN016 FEW020CB TEMPO 1616/1621 TS PROB30 1617/1620 4000 TSRA BECMG 1619/1621 BKN013 FEW020CB TEMPO 1704/1708 3000 TSRA", "TAF FKKL 160500Z 1606/1618 VRB04KT CAVOK", "TAF FKKR 160500Z 1606/1618 24004KT 9999 FEW013", "TAF FKYS 161100Z 1612/1712 22004KT 8000 BKN016 TEMPO 1614/1622 TS BKN013 FEW016CB PROB40 1615/1620 4000 TSRA BECMG 1621/1623 BKN006", "TAF FMCH 161100Z 1612/1718 11015KT 9999 FEW023 SCT030 BECMG 1615/1617 11003KT BECMG 1705/1707 13015KT", "TAF AMD FMCZ 161249Z 1612/1712 25010KT 9999 FEW025 BECMG 1618/1620 VRB03KT", "TAF FMEE 161100Z 1612/1718 10015KT 9999 FEW020 SCT060 TEMPO 1702/1706 4500 SHRA", "TAF FMEP 161100Z 1612/1621 26012KT 9999 FEW020 SCT070 BECMG 1616/1618 06008KT", "TAF FMMI 161100Z 1612/1718 10012KT 9999 SCT020CB BECMG 1618/1620 VRB02KT FEW020 PROB40 1700/1705 0500 FG BKN004 BECMG 1709/1712 11012KT SCT020CB", "TAF FMMS 161100Z 1612/1712 14008KT 9999 SCT017 SCT040 PROB30 TEMPO 1702/1707 4000 SHRA", "TAF FMMT 161100Z 1612/1712 08010KT 9999 FEW017 SCT033 BECMG 1616/1618 28003KT PROB30 TEMPO 1703/1709 4500 SHRA BECMG 1706/1708 12010KT", "TAF FMNA 161100Z 1612/1712 14012KT 9999 SCT020", "TAF FMNM 161100Z 1612/1712 32012KT 9999 FEW023 BECMG 1618/1620 VRB02KT BECMG 1703/1705 10012KT BECMG 1708/1710 34012KT", "TAF FMNN 161100Z 1612/1712 26012KT 9999 SCT020 BECMG 1617/1619 VRB02KT PROB40 TEMPO 1619/1704 4000 SHRA", "TAF FMSD 161100Z 1612/1712 06015G25KT 9999 FEW020", "TAF FMST 161100Z 1612/1712 24013KT 9999 FEW020 SCT040 BECMG 1618/1620 15006KT BECMG 1708/1710 22010KT", "TAF FNBG 161100Z 1612/1624 30009KT 9000 SCT016", "TAF FNCA 161100Z 1612/1624 23006KT 9000 SCT015 BKN020 TEMPO 1613/1617 6000 DZ", "TAF FNCT 161100Z 1612/1624 28009KT 9000 SCT015", "TAF FNDU 161100Z 1612/1624 VRB03KT 9000 SCT024", "TAF FNGI 161100Z 1612/1624 VRB02KT 9000 BKN020 FEW025CB PROB30 TEMPO 1613/1617 6000 -RA", "TAF FNHU 161100Z 1612/1624 VRB02KT 9000 BKN010 PROB30 TEMPO 1604/1609 5000 TS -RA", "TAF FNKU 161100Z 1612/1624 VRB02KT 7000 SCT010 BKN020 BECMG 1617/1622 TS -RA", "TAF FNLU 161100Z 1612/1718 25009KT 8000 FEW018 BKN030 PROB30 TEMPO 1703/1708 16006KT 5000 DZ BKN015", "TAF FNMA 161100Z 1612/1624 VRB03KT 9000 BKN016 PROB40 TEMPO 1618/1624 25004KT 5000 TS DZ FEW024CB", "TAF FNME 161100Z 1612/1624 18004KT 9000 BKN020 BECMG 1613/1617 6000 DZ", "TAF FNMO 161100Z 1612/1624 28010KT 8000 BKN018", "TAF FNSA 161100Z 1612/1624 VRB02KT 9000 BKN020 TEMPO 1616/1620 6000 DZS SCT015 FEW030CB", "TAF FNSO 161100Z 1612/1624 21008KT 9000 SCT012 BKN020 PROB40 TEMPO 1601/1605 5000 DZ", "TAF FNUB 161100Z 1612/1624 29005KT 9000 FE014 BKN020 TEMPO 1619/1624 6000 TS -RA TEMPO 1619/1624 VRB02KT", "TAF FNUE 161100Z 1612/1624 VRB02KT 9999 SCT010", "TAF AMD FOOG 161259Z 1613/1712 21009KT 9999 SCT011 FEW020CB BKN030 PROB30 TEMPO 1622/1704 4000 TSRA BKN008 FEW018CB", "TAF AMD FOOL 161258Z 1613/1718 27008KT 9999 SCT012 FEW020CB BKN030 PROB40 TEMPO 1622/1704 4000 TSRA BKN008 FEW018CB", "TAF FSIA 161103Z 1612/1712 12012KT 9999 FEW024", "TAF FTTJ 161100Z 1612/1718 02010KT 6000 NSC BECMG 1614/1616 VRB04KT TEMPO 1708/1713 04012KT", "TAF FVJN 161000Z 1612/1718 09011KT CAVOK", "TAF FVRG 161000Z 1612/1718 08012KT CAVOK", "TAF FYGF 161400Z 1615/1624 18004KT 9999 -TSRA FEW035CB SCT040", "TAF FYKM 161400Z 1615/1624 09007KT CAVOK", "TAF FYLZ 161400Z 1615/1624 30010KT 9999 SCT020", "TAF FYOA 161400Z 1615/1624 17005KT 9999 -TSRA FEW035CB ", "TAF FYRU 161400Z 1615/1624 23005KT CAVOK", "TAF FYWE 161400Z 1615/1624 36014G36KT 9000 TSRA SCT025 FEW035CB BKN040TCU TEMPO 1622/1624 FEW035CB ", "TAF FZAA 161100Z 1612/1718 30008KT 7000 SCT020 BECMG 1614/1616 SCT022 FEW028CB PROB30 TEMPO 1618/1622 TS BECMG 1701/1703 18004KT SCT016", "TAF FZIC 160500Z 1606/1712 18006KT 7000 RA SCT014 FM160800 12008KT NSW BKN014 BECMG 1615/1617 NSC FM170000 00000KT 0800 FG OVC002 FM170630 12006KT 8000 NSW BKN013", "TAF FZNA 161100Z 1612/1718 22010KT 6000 -TSRA SCT018 FEW028CB BECMG 1614/1616 05004KT NSW PROB30 1619/1622 4000 TSRA BECMG 1623/1701 SCT014 BECMG 1708/1710 21010KT SCT016 FEW022CB TEMPO 1711/1717 TS", "TAF FZQA 160500Z 1606/1712 10012KT CAVOK BECMG 1611/1613 18015G20KT 9999 FEW025 BECMG 1616/1618 10010KT CAVOK", "TAF GABS 161100Z 1612/1718 12004G14KT 9999 FEW020 PROB40 TEMPO 1616/1622 08020G35KT 2000 TSRA BLDU BKN015 FEW033CB PROB40 TEMPO 1715/1718 TS SCT020 FEW030CB", "TAF GAGO 161100Z 1612/1712 VRB08KT 8000 NSC", "TAF GBYD 161100Z 1612/1718 32008KT 9999 SCT012 PROB30 TEMPO 1622/1704 4000 TSRA BKN010 FEW025CB", "TAF AMD GCFV 161628Z 1616/1715 30005KT 9999 FEW020 TX27/1714Z TN20/1706Z TEMPO 1616/1618 06010KT BECMG 1707/1709 05011KT", "TAF GCGM 161400Z 1615/1715 22005KT 9999 FEW025 TX26/1714Z TN22/1706Z", "TAF GCHI 161400Z 1615/1715 35005KT 9999 FEW025 TX25/1714Z TN21/1706Z", "TAF GCLA 161400Z 1615/1715 03005KT 9999 SCT025 TX25/1714Z TN20/1706Z", "TAF AMD GCLP 161630Z 1616/1715 03011KT 9999 FEW025 TX25/1714Z TN19/1706Z BECMG 1621/1623 33009KT BECMG 1709/1711 10010KT", "TAF GCRR 161400Z 1615/1715 33009KT 9999 FEW025 TX28/1714Z TN18/1706Z TEMPO 1615/1617 14010KT", "TAF GCTS 161400Z 1615/1715 23013KT 9999 FEW025 TX28/1714Z TN20/1706Z BECMG 1620/1622 08012KT", "TAF GCXO 161400Z 1615/1715 25006KT 9999 FEW010 TX22/1714Z TN16/1706Z PROB30 TEMPO 1615/1616 4000 BCFG BKN008", "TAF GECE 161400Z 1615/1715 VRB03KT CAVOK TX22/1615Z TN19/1706Z PROB40 TEMPO 1619/1622 20010KT BECMG 1709/1711 05010KT", "TAF GEML 161100Z 1612/1712 09005KT 9999 FEW015 TX25/1615Z TN19/1706Z BECMG 1619/1621 26010KT BECMG 1703/1706 VRB03KT", "TAF GLRB 161100Z 1612/1712 23010KT 9999 BKN017 BECMG 1614/1616 18007KT BKN018 FEW025CB TEMPO 1620/1624 VRB02KT 8000 -RA BKN012 FEW023CB", "TAF GMAD 161100Z 1612/1718 06010KT 8000 SCT033", "TAF GMAG 161100Z 1612/1718 10014KT 5000 BKN033 BECMG 1612/1615 8000 NSC", "TAF GMFF 161100Z 1612/1718 10008KT 9999 FEW040 SCT100 BKN200 TEMPO 1616/1621 TSRA SCT040 FEW043CB BKN200 BECMG 1705/1707 VRB02KT CAVOK", "TAF GMFK 161100Z 1612/1718 20006KT 9999 FEW030 SCT080 PROB40 TEMPO 1616/1620 18018G30KT", "TAF GMFM 161100Z 1612/1718 19016G27KT CAVOK PROB30 TEMPO 1612/1621 6000 -TS SCT020 FEW026CB BKN100 TEMPO 1621/1706 08006KT 8000 NSC", "TAF GMFO 161100Z 1612/1718 30008KT 9999 FEW030 SCT100", "TAF GMME 161100Z 1612/1718 26010KT 6000 OVC023 TEMPO 1618/1623 14006KT SCT016 SCT060", "TAF GMMH 161100Z 1612/1718 08008KT 6000 SCT010 BECMG 1612/1614 BKN030 PROB30 1700/1702 3000 BR BECMG 1702/1706 SCT030", "TAF GMMI 161100Z 1612/1718 25011KT 6000 BKN013 BECMG 1612/1615 8000 NSC", "TAF GMML 161100Z 1612/1718 13011KT CAVOK BECMG 1620/1622 OVC008 PROB30 1700/1708 4000 BR BECMG 1710/1712 SCT030", "TAF GMMN 161100Z 1612/1718 24010KT CAVOK BECMG 1614/1616 32012KT PROB30 TEMPO 1700/1708 04004KT 2000 BR BKN004", "TAF GMMW 161100Z 1612/1718 04006KT 8000 NSC", "TAF GMMX 161100Z 1612/1718 08006KT 8000 SCT030 BKN100 TEMPO 1614/1621 22016G30KT 4000 TSRA SCT016 BKN026 FEW040CB", "TAF GMMZ 161100Z 1612/1718 21014G24KT 6000 BKN030 FEW040TCU BKN100 TEMPO 1614/1622 4000 TSRA BECMG 1702/1706 11004KT FEW030", "TAF GMTA 161100Z 1612/1718 06004KT 8000 FEW010 BKN100 BECMG 1612/1615 NSC", "TAF GMTT 161100Z 1612/1718 09015KT 9999 FEW020 SCT100", "TAF GOBD 161100Z 1612/1718 36012KT 9999 SCT015", "TAF GOGS 161100Z 1612/1712 28008KT 9999 SCT015 PROB40 TEMPO 1613/1617 TS BKN012 FEW030CB PROB40 TEMPO 1620/1702 4000 TSRA BKN010 FEW030CB", "TAF GOOY 161100Z 1612/1718 36012KT 9999 SCT013", "TAF GOSS 161100Z 1612/1712 36010KT CAVOK", "TAF GQNO 161100Z 1612/1718 35012KT 8000 NSC PROB40 TEMPO 1616/1620 4000 BLDU", "TAF GQPP 161100Z 1612/1712 04015KT 8000 NSC BECMG 1613/1615 34015KT", "TAF GVBA 161100Z 1612/1718 03010KT 9999 FEW014", "TAF HBBA 161100Z 1612/1718 18010G30KT 9000 FEW022 BKN100 PROB40 TEMPO1613/1616 FEW030CB 8000 SHRA OR TSRA BECMG1619/1620 VRB03KT 9999 SCT080 BECMG1702/1704 36003KT CAVOK BECMG1707/1709 18010G20KT 8000 FEW022 BKN090", "TAF HCMM 161100Z 1612/1718 18010KT 9999 SCT023 BECMG 1621/1700 17005KT BKN018 BECMG 1709/1712 18010KT SCT024", "TAF HDAM 161100Z 1612/1712 08015G20KT 9999 FEW023 BECMG 1615/1621 VRB06KT SCT020 BECMG 1700/1706 11008KT 9000 HZ BKN020 SCT133", "TAF HEAL 161100Z 1612/1718 30010G20KT 9999 SCT020 SCT100 TEMPO 1612/1614 3000 RA/SA TEMPO 1614/1712 6000 RA PROB40 TEMPO 1614/1618 TSSHRA FEW017CB BKN020", "TAF HEAR 161100Z 1612/1718 25008KT 9999 SCT025", "TAF HEAT 161100Z 1612/1718 36015KT CAVOK", "TAF HEAX 161100Z 1612/1718 25014KT 9999 SCT020 SCT100 TEMPO 1612/1712 29010G20KT 6000 RA PROB40 TEMPO 1613/1618 32015KT TSSHRA FEW017CB BKN020", "TAF HEBA 161100Z 1612/1718 25014KT 9999 SCT020 SCT100 TEMPO 1612/1615 29010G20KT 3000 RA/SA TEMPO 1612/1712 29010G20KT 6000 RA PROB40 TEMPO 1613/1618 32015KT TSSHRA FEW017CB BKN020", "TAF HEBL 161100Z 1612/1718 01010KT CAVOK", "TAF AMD HECA 161200Z 1612/1718 24010KT 7000 SCT025 PROB40 TEMPO 1612/1624 22012G22KT 3000 SA NSC TEMPO 1622/1709 27005KT 4000 HZ NSC", "TAF HEGN 161100Z 1612/1718 08007KT CAVOK", "TAF HELX 161100Z 1612/1718 33008KT CAVOK", "TAF HEMA 160500Z 1606/1712 31010KT CAVOK BECMG 1609/1611 07010KT", "TAF HEMM 161100Z 1612/1718 30010G20KT 9999 SCT020 SCT100 TEMPO 1612/1614 3000 RA/SA TEMPO 1614/1712 6000 RA PROB40 TEMPO 1614/1618 TSSHRA FEW017CB BKN020", "TAF HEOW 161100Z 1612/1718 34016KT CAVOK", "TAF HEPS 161100Z 1612/1718 27010KT 9999 SCT025 SCT200 PROB40 1612/1712 6000 -RA BKN020 FEW018TCU TEMPO 1615/1702 6000 TSRA SCT018CB", "TAF HESC 161100Z 1612/1718 27010KT CAVOK", "TAF HESG 161100Z 1612/1718 36015KT CAVOK", "TAF HESH 161100Z 1612/1718 10007KT CAVOK", "TAF HESN 161100Z 1612/1718 01010KT CAVOK", "TAF HETB 161100Z 1612/1718 13008KT CAVOK", "TAF HETR 161100Z 1612/1718 30013KT CAVOK", "TAF HKEL 161130Z 1612/1718 12010KT 9999 FEW021CB SCT020 BECMG 1620/1623 CAVOK BECMG 1707/1710 9999 FEW020 BECMG 1712/1716 FEW021CB SCT022", "TAF HKJK 161130Z 1612/1718 09010KT 9999 BKN027 BECMG 1620/1623 BKN015 BECMG 1708/1711 BKN028", "TAF HKKI 161130Z 1612/1718 24010KT 9999 FEW025CB SCT026 BECMG 1700/1704 VRB02KT CAVOK BECMG 1709/1712 21010KT 9999 FEW026CB SCT027", "TAF HKNW 161130Z 1612/1712 09010KT 9999 BKN027 BECMG 1620/1623 BKN016 BECMG 1708/1711 BKN026", "TAF HLGD 161100Z 1612/1712 36010KT 8000 SCT025 BECMG 1618/1620 VRB02KT", "TAF HLGT 161100Z 1612/1712 VRB02KT 8000 NSC", "TAF HLKF 161100Z 1612/1712 36010KT CAVOK BECMG 1700/1702 VRB02KT", "TAF HLLB 161100Z 1612/1712 36012KT 8000 SCT025 BECMG 1621/1623 VRB02KT", "TAF HLLM 161100Z 1612/1712 03010KT 8000 SCT025 BECMG 1618/1620 VRB02KT", "TAF HLLQ 161100Z 1612/1712 36014KT 8000 SCT025", "TAF HLLS 161100Z 1612/1712 03010KT CAVOK", "TAF HLMS 161100Z 1612/1712 06012KT 8000 SCT025 BECMG 1618/1620 VRB02KT", "TAF HLON 161100Z 1612/1712 36008KT 8000 FEW040 SCT100", "TAF HLTD 160500Z 1606/1706 03008KT CAVOK", "TAF HLTQ 161100Z 1612/1712 34014KT 8000 SCT025 SCT080 PROB30 TEMPO 1612/1620 6000 SHRA BKN020", "TAF HLUB 161100Z 1612/1712 06008KT 8000 NSC BECMG1700/1702 VRB02KT", "HRYR 161100Z 1612/1718 08010KT 9999 FEW023CB BKN025 BECMG 1617/1622 34006KT TSRA FEW023CB BKN025 BECMG 1707/1710 09008KT BKN025 TEMPO1713/1717 18010G20KT TSRA FEW023CB BKN025", "HTAR 161100Z 1612/1712 12015KT 9999 FEW045", "TAF HTDA 161100Z 1612/1718 08010KT 9999 BKN030 BECMG 1616/1619 SCT015", "HTDO 161100Z 1612/1712 11010KT 050V150 9999 NSC", "HTKA 161100Z 1612/1712 18014KT CAVOK BECMG 1616/1620 00000KT FEW019 BECMG 1707/1711 12008KT TSRA SCT019 FEW020CB BKN090", "TAF HTKJ 161100Z 1612/1712 09015KT 9999 SCT030", "HTMW 161100Z 1612/1712 28010KT 9999 SCT025 FEW026CB TEMPO 1703/1707 12010KT TS BKN018 FEW019CB", "HTTB 161100Z 1612/1712 12010KT 9999 FEW025", "HTZA 161100Z 1612/1712 12015KT 9999 SCT022 BECMG 1620/1622 00000KT BECMG 1703/1705 13010KT", "TAF HUSO 161100Z 1612/1712 36006KT 9999 SCT021 FEW023CB FM 161500 09008KT -TSRA BKN018 FEW020CB BECMG 1702/1706 27005KT FEW020 SCT100 FM 170900 32005KT SCT021 FEW023CB", "KABE 161136Z 1612/1712 VRB03KT P6SM BKN100 FM161500 29005KT P6SM SCT200 FM162000 VRB03KT P6SM BKN150 FM171000 00000KT P6SM BKN060", "KABI 161147Z 1612/1712 18009KT P6SM FEW100 BKN250 FM161400 33008KT P6SM VCSH SCT060 BKN100 FM161900 35013G20KT 6SM -SHRA BR VCTS OVC050CB FM162300 01015G22KT 5SM SHRA BR VCTS OVC035CB FM170300 02011KT 5SM SHRA BR VCTS OVC015CB", "KABQ 161617Z 1616/1712 09030G50KT P6SM VCSH SCT035 BKN070 TEMPO 1616/1618 VRB20G35KT 5SM -SHRA SCT025 BKN035 FM162100 08022G30KT 5SM -RA BR OVC035 FM170100 09012G20KT 5SM RA OVC035 FM170600 09012KT 5SM RA OVC018", "KABR 161437Z 1615/1712 33011KT P6SM BKN045 FM161600 34014G24KT P6SM FEW250 FM170000 35009KT P6SM SCT250", "KABY 161120Z 1612/1712 00000KT P6SM SKC FM161800 26005KT P6SM FEW050 FM170000 00000KT P6SM SKC FM171000 00000KT 3SM BR SCT002", "KACK 161120Z 1612/1712 22006KT 6SM BR SKC FM161900 20009KT P6SM SCT200 FM162100 24008KT P6SM SCT150 FM170200 26006KT P6SM BKN120 FM170900 VRB04KT P6SM BKN100", "KACT 161455Z 1615/1712 03009KT P6SM VCSH SCT015 BKN080 TEMPO 1615/1617 -SHRA BKN015 FM161900 04007KT P6SM VCTS BKN035CB TEMPO 1620/1623 3SM -TSRA FM162300 02009KT P6SM VCSH BKN040 FM170300 36009KT 6SM -RA BKN020", "KACV 161143Z 1612/1712 VRB02KT 5SM BR OVC010 FM161900 28007KT P6SM BKN020 FM170200 33005KT P6SM OVC020 FM170600 13003KT P6SM OVC030", "KACY 161136Z 1612/1712 32005KT P6SM BKN250 FM161700 27005KT P6SM SCT200 FM162000 21007KT P6SM SCT200 FM170000 VRB03KT P6SM BKN200 FM170800 19005KT P6SM OVC050 FM171100 21008KT P6SM -SHRA SCT020 OVC035", "KADF 161139Z 1612/1712 01009KT 5SM TSRA BR SCT015 OVC035CB TEMPO 1612/1615 2SM TSRA BR OVC015CB FM161500 27005KT P6SM -SHRA OVC025 FM162000 25005KT P6SM OVC040 FM170000 32003KT P6SM OVC250", "TAF KADW 160900Z 1609/1715 VRB06KT 9999 SCT080 QNH2989INS BECMG 1617/1618 19008KT 9999 BKN060 QNH2986INS BECMG 1701/1702 20006KT 9000 -RA BR BKN007 OVC015 QNH2973INS BECMG 1706/1707 23006KT 9999 NSW OVC008 QNH2969INS BECMG 1714/1715 26012G18KT 9999 OVC025 QNH2967INS TX21/1620Z TN09/1611Z", "KAEG 161623Z 1616/1712 12011KT P6SM VCSH SCT040 BKN060 TEMPO 1616/1618 VRB10G20KT 5SM -SHRA BR BKN035 FM161800 12012G20KT 5SM RA BR OVC025 FM170000 06012G18KT 6SM -RA BR OVC020 FM170600 02012KT 4SM -RA BR OVC015", "KAEX 161543Z 1616/1712 04004KT 2SM BR OVC004 TEMPO 1616/1617 4SM BR SCT025 FM161700 14005KT P6SM FEW150 FM161900 18006KT P6SM FEW040 SCT150 FM170100 VRB03KT P6SM BKN100", "TAF COR KAFF 152012Z 1519/1701 03012KT 9999 FEW080 SCT200 QNH3011INS WND 330V140 BECMG 1523/1524 01014KT 9999 SCT060 BKN120 520005 QNH3014INS BECMG 1603/1604 35010KT 9999 VCSH OVC040 610404 QNH3025INS BECMG 1609/1610 14009KT 9999 VCSH SCT020 BKN040 610405 QNH3034INS BECMG 1613/1614 15009KT 9999 VCSH BKN010 OVC020 610206 QNH3033INS BECMG 1618/1619 16012KT 9999 NSW BKN035 620353 QNH3028INS TX19/1520Z TN00/1613Z LAST NO AMDS AFT 1520 NEXT 1711", "KAFW 161455Z 1615/1712 11009KT P6SM VCSH FEW010 BKN070 TEMPO 1615/1617 -SHRA BKN010 FM161900 03009KT P6SM VCSH SCT025 BKN040 FM170200 01013KT P6SM BKN060", "KAGC 161126Z 1612/1712 18006KT P6SM BKN100 FM161600 22010G18KT P6SM FEW150 FM162200 VRB04KT P6SM BKN080", "KAGS 161511Z 1615/1712 26005KT P6SM FEW250 FM170000 VRB03KT P6SM BKN250", "KAHN 161139Z 1612/1712 VRB03KT P6SM FEW250 FM161600 24007KT P6SM FEW250 FM162300 22004KT P6SM BKN200 FM170000 VRB03KT P6SM BKN250", "KAIA 161624Z 1616/1712 34012KT P6SM BKN020 FM161800 35012G20KT P6SM SKC FM162200 36012KT P6SM SKC FM170000 03006KT P6SM SKC", "KALB 161124Z 1612/1712 00000KT P6SM FEW250 FM161500 29004KT P6SM BKN150 FM162000 28004KT P6SM SCT150 FM170100 00000KT P6SM SCT250", "KALI 161404Z 1614/1712 15003KT 6SM BR SCT025 FM161500 16010KT P6SM SCT015 BKN035 TEMPO 1615/1618 BKN015 BKN035 FM161800 13012KT P6SM SCT040 SCT250 FM170200 13008KT P6SM FEW025 BKN250 FM170800 10006KT 5SM BR VCTS BKN015CB OVC100 TEMPO 1708/1712 4SM TSRA OVC012CB", "KALO 161138Z 1612/1712 30011KT P6SM FEW060 BKN100 FM161700 32017G27KT P6SM BKN050 FM170000 32013KT P6SM FEW060 SCT110", "KALS 161130Z 1612/1712 10010KT P6SM BKN050 FM161400 VRB06KT P6SM BKN050 FM161800 08008KT P6SM BKN050 FM162300 11006KT P6SM VCSH BKN050 FM170400 VRB04KT P6SM VCSH BKN030 FM170600 VRB04KT P6SM BKN050 FM170900 VRB04KT P6SM FEW050 BKN200", "KALW 161129Z 1612/1712 12007KT P6SM SKC FM161800 VRB06KT P6SM SKC FM170500 12007KT P6SM SKC", "KAMA 161133Z 1612/1712 04014KT P6SM VCSH OVC090 FM161400 03013KT 5SM -SHRA BR OVC030 FM170300 34005KT P6SM OVC070", "KANB 161120Z 1612/1712 VRB04KT P6SM FEW250 FM161600 25009KT P6SM FEW250 FM170000 24007KT P6SM SCT050 BKN110 PROB30 1701/1706 4SM -SHRA BR SCT025 BKN050 FM170700 VRB03KT P6SM BKN250", "KAND 161137Z 1612/1712 22003KT P6SM SCT200 FM161400 24006KT P6SM BKN200 FM161700 24009G17KT P6SM SCT080 BKN120 FM162300 24006KT P6SM BKN070", "KAOO 161501Z 1615/1712 21007KT P6SM SKC FM162200 23004KT P6SM BKN080 OVC150", "KAPA 161535Z 1616/1712 03005KT P6SM BKN030 FM161800 04006KT P6SM BKN035 FM162000 05006KT P6SM SCT040 FM170300 17005KT P6SM SCT250 FM171100 24005KT P6SM SCT250", "KAPC 161131Z 1612/1712 27009KT P6SM OVC020 FM161830 21008KT P6SM SCT025 FM162000 19012KT P6SM FEW200 FM170400 24008KT P6SM SCT050 SCT250 FM171100 VRB04KT P6SM BKN035 BKN200", "KAPF 161445Z 1615/1712 08010KT P6SM SCT035 FM162100 08008KT P6SM VCTS SCT030CB BKN050 FM170000 VRB05KT P6SM FEW030", "KAPN 161120Z 1612/1712 25004KT P6SM BKN027 FM161400 26008KT P6SM BKN035 FM170500 27006KT 6SM -SHRA BR BKN015", "KARA 161136Z 1612/1712 11004KT 3SM BR FEW150 TEMPO 1612/1614 1SM BR VV002 FM161400 13005KT P6SM FEW150 FM161700 18006KT P6SM FEW040 SCT150 FM170100 17003KT P6SM SCT250 FM170500 00000KT 6SM BR SCT250", "KART 161502Z 1615/1712 21011G19KT P6SM BKN100 FM161900 22009KT P6SM SCT100 FM170300 16008KT P6SM BKN060 FM170900 18007KT P6SM VCSH BKN050", "KASD 161603Z 1616/1712 14004KT P6SM SCT020 BKN030 FM170400 VRB03KT P6SM SCT250", "KASE 161120Z 1612/1712 19007KT P6SM FEW250 FM161900 33008KT P6SM BKN200 FM170000 22008KT P6SM SCT250 FM170300 15007KT P6SM FEW250", "KASN 161120Z 1612/1712 VRB04KT P6SM FEW250 FM161600 25009KT P6SM FEW250 FM170000 24007KT P6SM SCT050 BKN110 PROB30 1701/1706 4SM -SHRA BR SCT025 BKN050 FM170700 VRB03KT P6SM BKN250", "KAST 161130Z 1612/1712 22008KT 6SM BR OVC004 FM161600 18008KT P6SM OVC005 FM162100 20010KT P6SM SCT006 FM170200 23006KT 5SM BR OVC006", "KATL 161555Z 1616/1718 25008KT P6SM FEW150 SCT250 FM170000 25004KT P6SM SCT150 BKN250 FM171000 28006KT P6SM FEW050 BKN100", "KATW 161138Z 1612/1712 27009KT P6SM SCT018 BKN050 TEMPO 1613/1616 -RA BKN018 FM161600 29011G19KT P6SM -SHRA OVC025 FM162100 29012G20KT P6SM OVC035 FM170300 30013G24KT P6SM -SHRA BKN025 FM170900 31015G27KT P6SM -SHRASN BKN025", "KATY 161436Z 1615/1712 35010KT P6SM OVC035 FM161600 35016G26KT P6SM FEW040 SCT250 FM170200 35006KT P6SM SCT250", "KAUG 161315Z 1613/1712 01005KT P6SM FEW005 FM161500 VRB03KT P6SM SCT050 FM162200 16003KT P6SM BKN100", "KAUS 161318Z 1613/1718 18007KT P6SM BKN010 TEMPO 1613/1615 OVC008 FM161600 14008KT P6SM SCT060 SCT250 PROB30 1700/1703 -TSRA SCT060CB FM170300 03010KT P6SM VCTS BKN050CB BKN250 FM170900 01012KT 5SM -TSRA OVC010CB", "KAUW 161138Z 1612/1712 29008KT P6SM BKN022 OVC040 TEMPO 1612/1616 -RA BKN018 FM161600 30011G19KT P6SM -SHRA OVC026 FM162100 30012G22KT P6SM OVC040 FM162300 31013G25KT P6SM -SHSN BKN028 FM171000 32015G29KT P6SM -SHSN BKN025 WS020/34040KT AMD NOT SKED", "KAVL 161137Z 1612/1712 33003KT P6SM BKN150 FM161600 32007KT P6SM SCT080 BKN150 FM162300 21004KT P6SM VCSH BKN060 PROB30 1702/1708 6SM -SHRA BR OVC020 FM170800 30005KT 4SM BR VCSH BKN035 FM170900 32005KT 1SM BR SCT008 BKN015", "KAVP 161139Z 1612/1712 12003KT P6SM SCT200 FM161400 25006KT P6SM SCT200 FM170100 12004KT P6SM BKN100", "KAXN 161120Z 1612/1712 32013G21KT P6SM BKN050 FM161300 32013G21KT P6SM OVC025 FM161800 33018G27KT P6SM BKN040 FM170000 33012G22KT P6SM SCT250", "KAZO 161126Z 1612/1712 24006KT P6SM SCT080 FM161900 27008KT P6SM VCSH BKN035 FM170000 28009KT P6SM -SHRA OVC035 FM170400 27009KT P6SM -SHRA OVC025 FM171000 27013G20KT 4SM -SHRA OVC025", "TAF AMD KBAD 161240Z 1612/1718 18005KT 9000 BR BKN003 OVC015 QNH2993INS BECMG 1614/1615 27010KT 9999 -RA OVC020 QNH2993INS BECMG 1617/1618 35010KT 9999 -RA VCTS OVC020CB QNH3006INS BECMG 1700/1701 36005KT 9999 NSW BKN015 QNH3001INS BECMG 1715/1716 03010KT 9999 SCT050 QNH3001INS TX28/1622Z TN16/1712Z", "KBAF 161120Z 1612/1712 35003KT P6SM SKC TEMPO 1612/1614 3SM BR FM161800 27003KT P6SM BKN100 FM170000 00000KT P6SM BKN090", "KBAM 161120Z 1612/1712 VRB05KT P6SM SKC", "KBBD 161147Z 1612/1712 15006KT P6SM SCT025 BKN035 FM161300 16007KT P6SM BKN025 FM161800 22006KT P6SM BKN050 FM162200 02013G20KT P6SM VCTS BKN050CB FM170300 02012KT 5SM SHRA VCTS BKN015CB FM170900 01012KT 5SM -SHRA BR VCTS OVC007CB", "KBBG 161120Z 1612/1712 VRB03KT P6SM OVC250 FM161700 32008KT P6SM BKN250 FM170100 32005KT P6SM SCT250", "KBCB 161120Z 1612/1712 VRB03KT P6SM SCT045 OVC060 FM161500 26006KT P6SM OVC070 FM162100 25007KT P6SM VCSH OVC050 FM162300 25005KT P6SM -SHRA OVC050 FM170900 26003KT 4SM -RA BR OVC035", "KBCE 161120Z 1612/1712 VRB05KT P6SM SCT250 FM161800 10010G20KT P6SM SCT250 FM170000 13005KT P6SM SKC", "KBDL 161508Z 1615/1718 01005KT P6SM BKN150 FM162300 VRB03KT P6SM SCT100 FM171200 VRB03KT P6SM -SHRA OVC080 FM171500 14005KT P6SM -SHRA OVC025", "KBDN 161129Z 1612/1712 VRB06KT P6SM SKC FM162100 35008KT P6SM SKC FM170400 VRB06KT P6SM SKC", "KBDR 161432Z 1615/1712 35008KT P6SM BKN150 FM161700 25008KT P6SM SCT150 FM162300 VRB04KT P6SM SCT070 FM171100 14006KT P6SM BKN050", "KBED 161120Z 1612/1712 VRB03KT P6SM SKC FM161500 28005KT P6SM SCT150 FM162200 00000KT P6SM BKN100 FM171000 00000KT P6SM FEW003", "KBFD 161501Z 1615/1712 VRB06KT P6SM OVC070 FM162200 21004KT P6SM BKN050 OVC150 FM170900 22004KT 6SM -SHRA BR OVC020", "KBFF 161120Z 1612/1712 30007KT P6SM SKC FM161800 31011KT P6SM SKC FM162000 33011KT P6SM SKC FM162300 03006KT P6SM FEW250", "KBFI 161120Z 1612/1712 00000KT 6SM HZ SKC FM161900 31007KT 4SM HZ SKC FM162000 30006KT 5SM HZ SKC FM170300 25005KT P6SM SKC", "KBFL 161120Z 1612/1712 VRB05KT P6SM SKC", "KBFM 161140Z 1612/1712 33003KT P6SM SCT010 SCT250 FM161800 14006KT P6SM FEW040 SCT250 FM171000 00000KT P6SM BKN080", "KBGM 161139Z 1612/1712 16004KT P6SM SCT200 FM161600 22008KT P6SM FEW200 FM170000 17004KT P6SM BKN200", "KBGR 161120Z 1612/1712 34003KT 2SM BR OVC004 FM161300 34003KT P6SM FEW006 FM161500 35004KT P6SM FEW250 FM170000 VRB02KT P6SM SCT100 FM170500 VRB02KT P6SM SCT045", "KBHB 161359Z 1614/1712 36003KT P6SM SCT006 FM161600 VRB03KT P6SM FEW250 FM170000 VRB02KT P6SM SCT100", "KBHM 161120Z 1612/1712 VRB04KT P6SM BKN150 FM161600 24008KT P6SM FEW250 FM161800 26010KT P6SM SCT050 BKN150 FM170100 24006KT P6SM VCSH SCT050 BKN110 FM170700 VRB03KT P6SM BKN250", "TAF KBIF 161400Z 1614/1720 09010KT 9999 SCT100 QNH2999INS BECMG 1620/1621 09010G20KT 8000 TSRA BKN080CB QNH2989INS BECMG 1705/1706 04010G20KT 9000 -SHRA BKN100 QNH2994INS BECMG 1710/1711 05010G20KT 9999 NSW BKN120 QNH3000INS TX21/1618Z TN12/1712Z", "KBIH 161120Z 1612/1712 VRB05KT P6SM SKC FM170400 32006KT P6SM SKC", "KBIL 161401Z 1614/1712 21007KT P6SM FEW140 BKN250", "KBIS 161120Z 1612/1712 33005KT P6SM FEW200 FM161700 33015KT P6SM SCT200 FM170300 VRB03KT P6SM SCT200", "TAF KBIX 161300Z 1613/1719 VRB06KT 3200 BR BKN002 BKN250 QNH3000INS TEMPO 1613/1614 0800 FG BKN001 BECMG 1615/1616 15006KT 9999 NSW SCT250 QNH2998INS TX29/1619Z TN17/1613Z", "KBJC 161504Z 1615/1712 36005KT P6SM OVC030 FM161800 03005KT P6SM SCT030 BKN040 FM162000 10005KT P6SM SCT040 FM170300 27005KT P6SM SCT250 FM170900 33005KT P6SM SCT250", "KBJI 161128Z 1612/1712 31010G20KT P6SM OVC017 FM161500 32013G23KT P6SM OVC015 FM161900 32016G25KT P6SM BKN025 FM162300 33012G20KT P6SM SCT045 FM170500 34008KT P6SM SCT080", "KBKE 161124Z 1612/1712 VRB05KT P6SM FEW250 FM161800 11008KT P6SM SKC FM170100 VRB03KT P6SM SKC", "TAF KBKF 160900Z 1609/1715 VRB06KT 9999 FEW028 BKN045 OVC065 510023 QNH3031INS BECMG 1615/1616 VRB06KT 9999 BKN028 OVC045 510033 QNH3039INS BECMG 1617/1618 VRB06KT 9999 FEW028 BKN045 510033 QNH3028INS TX12/1623Z TN00/1713Z", "KBKW 161625Z 1616/1712 22006KT P6SM -SHRA VCTS OVC045CB TEMPO 1616/1620 3SM -TSRA OVC025CB FM162000 25006KT 5SM -SHRA BR VCTS OVC025CB FM170100 20004KT 4SM SHRA BR OVC017 FM170400 23005KT 6SM BR BKN016 FM170600 25006KT P6SM BKN009", "KBLF 161120Z 1612/1712 24005KT P6SM VCSH SCT035 OVC050 FM161800 24009KT P6SM VCSH OVC040 TEMPO 1621/1623 3SM TSRA OVC040CB FM170000 25007KT 4SM -SHRA BR OVC028 FM170800 26006KT 3SM -RA BR OVC012", "KBLH 161133Z 1612/1712 VRB04KT P6SM VCSH SCT070 BKN150 FM161600 32003KT P6SM FEW250 FM170100 27003KT P6SM FEW250", "KBLI 161254Z 1613/1712 VRB03KT 6SM HZ SKC FM161900 15006KT 6SM HZ SKC FM162200 30006KT 6SM HZ SKC FM170300 19003KT P6SM SKC FM170900 VRB02KT 1/2SM FG SKC", "TAF KBLV 161600Z 1616/1722 34012KT 9999 FEW060 SCT250 QNH2998INS BECMG 1622/1623 35009KT 9999 SCT050 BKN250 QNH2999INS BECMG 1714/1715 32015G25KT 9999 SCT150 QNH3003INS TX20/1620Z TN03/1712Z", "KBMG 161120Z 1612/1712 23004KT P6SM FEW250 FM161800 28010G19KT P6SM SKC FM170200 31006KT P6SM FEW230 AMD LTD TO CLD VIS AND WIND TIL 161300", "KBMI 161621Z 1616/1712 31014G24KT P6SM SCT050 FM170200 32013G21KT P6SM SCT150", "KBNA 161120Z 1612/1712 17004KT P6SM BKN150 OVC250 FM161700 25007KT P6SM VCSH BKN100 FM162300 27006KT P6SM VCTS OVC050CB FM170200 32005KT P6SM FEW070 SCT150", "KBNO 161124Z 1612/1712 01007KT P6SM SKC FM161900 09010KT P6SM SKC FM170600 30006KT P6SM SKC", "KBOI 161124Z 1612/1712 15008KT P6SM SKC FM162000 VRB04KT P6SM SKC FM170200 14006KT P6SM SKC", "KBOS 161506Z 1615/1718 29004KT P6SM SCT250 FM161800 10007KT P6SM SCT150 FM170000 VRB03KT P6SM SCT100 FM171100 20004KT P6SM FEW003 FM171500 14005KT P6SM -SHRA OVC035", "KBPI 161121Z 1612/1712 VRB05KT P6SM SKC FM161800 18007KT P6SM SKC FM170200 VRB05KT P6SM SKC", "KBPK 161139Z 1612/1712 34005KT 5SM BR OVC007 TEMPO 1612/1614 OVC015 FM161400 33005KT P6SM VCSH OVC025 FM161800 32006KT P6SM BKN120 FM170000 33003KT P6SM SCT250", "KBPT 161136Z 1612/1712 14004KT P6SM FEW150 FM161800 16008KT P6SM FEW040 SCT150 FM170500 VRB03KT P6SM BKN090", "KBRD 161127Z 1612/1712 31015G24KT P6SM OVC025 FM162000 33014G25KT P6SM BKN030", "KBRL 161120Z 1612/1712 30007KT P6SM SKC FM161600 30010G18KT P6SM SCT040 FM161800 30013G22KT P6SM BKN050 FM170000 31010KT P6SM SCT050", "KBRO 161120Z 1612/1712 14007KT P6SM FEW035 FEW250 FM161800 15013KT P6SM FEW040 BKN250 FM170100 12007KT P6SM FEW025 SCT250", "KBTL 161126Z 1612/1712 24006KT P6SM SCT080 FM161900 27008KT P6SM VCSH BKN035 FM170000 28009KT P6SM -SHRA OVC035 FM170400 27009KT P6SM -SHRA OVC025 FM171000 27013G20KT 4SM -SHRA OVC025", "KBTM 161120Z 1612/1712 16004KT P6SM SKC", "KBTR 161237Z 1613/1712 04003KT P6SM SCT250 TEMPO 1613/1614 1/4SM FG OVC001 FM161400 00000KT P6SM SCT250 FM170900 00000KT 5SM BR SCT250 FM171100 32003KT P6SM SKC", "KBTV 161135Z 1612/1712 08006KT P6SM FEW150 FM161500 20004KT P6SM SCT220 FM162100 26004KT P6SM FEW180 FM170100 18004KT P6SM SCT160", "KBUF 161502Z 1615/1712 23013G23KT P6SM BKN100 FM161700 23014G24KT P6SM SCT100 FM162200 22010KT P6SM BKN080 FM170300 22006KT P6SM VCSH BKN050 FM170600 22006KT 6SM -SHRA BR OVC025", "KBUR 161510Z 1615/1712 00000KT P6SM BKN019 FM161545 VRB03KT P6SM SCT020 FM162000 17009KT P6SM SCT040 FM170300 VRB03KT P6SM SKC FM170900 VRB03KT 6SM BR OVC010", "KBVI 161126Z 1612/1712 VRB04KT P6SM BKN100 FM161600 22010G18KT P6SM FEW150 FM162200 21004KT P6SM BKN080", "KBVO 161120Z 1612/1712 01007KT P6SM SCT150 BKN250", "KBWG 161120Z 1612/1712 00000KT P6SM BKN140 FM161500 24006KT P6SM VCSH BKN060 FM161800 25010G15KT P6SM VCSH BKN060 FM162300 30005KT P6SM SCT100", "KBWI 161458Z 1615/1718 VRB04KT P6SM BKN120 FM170700 21007KT P6SM OVC008 FM171500 25008KT P6SM BKN020", "KBYI 161311Z 1613/1712 09015KT P6SM SKC FM170200 VRB04KT P6SM SKC", "KBZN 161120Z 1612/1718 VRB06KT P6SM SCT250", "KCAE 161511Z 1615/1712 25006KT P6SM FEW250 FM170000 VRB03KT P6SM BKN250", "KCAK 161125Z 1612/1712 20006KT P6SM BKN080 FM161600 23012KT P6SM SCT080 FM162200 26010KT P6SM SCT150 FM170000 30006KT P6SM BKN150 FM170500 28007KT P6SM BKN040", "KCAR 161259Z 1613/1712 27003KT P6SM SCT003 FM161400 29004KT P6SM FEW250 FM170600 36003KT P6SM SCT100", "TAF KCBM 161500Z 1615/1721 21006KT 9999 FEW150 QNH2991INS TEMPO 1618/1621 21010G15KT BECMG 1701/1702 34006KT 9999 BKN030 QNH2991INS TEMPO 1704/1711 BKN005 BECMG 1711/1712 35006KT 9999 SKC QNH2993INS BECMG 1717/1718 35012G18KT 9999 SKC QNH2992INS TX28/1620Z TN15/1711Z", "KCDC 161120Z 1612/1712 19006KT P6SM SCT250 FM161500 36006KT P6SM SCT250 FM170200 15005KT P6SM SCT250", "KCDR 161622Z 1616/1712 32008KT P6SM OVC020 FM161800 33010KT P6SM SCT120 FM162300 04006KT P6SM FEW250 FM170600 19002KT P6SM SKC", "KCDS 161331Z 1614/1712 04017KT P6SM FEW012 BKN110 FM161500 03020KT P6SM SHRA SCT030 OVC070", "KCEC 161143Z 1612/1712 16005KT P6SM OVC010 FM161800 20010KT P6SM OVC015 FM170300 15005KT 6SM BR OVC010", "TAF KCEF 161100Z 1611/1717 VRB06KT 9999 SCT250 QNH2990INS TEMPO 1611/1613 MIFG BECMG 1617/1618 27007KT 9999 SCT170 BKN220 QNH2987INS BECMG 1622/1623 VRB06KT 9999 BKN100 OVC150 QNH2983INS BECMG 1704/1705 VRB06KT 9999 BKN070 OVC120 QNH2975INS BECMG 1712/1713 VRB06KT 9999 -RA SCT025 OVC050 620803 QNH2971INS BECMG 1715/1716 16009KT 8000 -RA BR BKN012 OVC025 620804 QNH2968INS TX19/1619Z TN03/1611Z", "KCGI 161120Z 1612/1712 VRB03KT P6SM BKN150 FM161500 30009KT P6SM BKN250 FM170000 34006KT P6SM SCT250", "KCHA 161120Z 1612/1712 21004KT P6SM VCSH SCT150 FM161500 24008KT P6SM SCT060 BKN100 PROB30 1623/1704 6SM SHRA BKN050 FM170500 VRB03KT P6SM VCSH BKN050", "KCHO 161125Z 1612/1712 00000KT P6SM OVC110 FM162000 20004KT P6SM -SHRA OVC060 FM170500 22005KT P6SM -SHRA OVC015 FM170900 21005KT 6SM BR OVC008", "KCHS 161120Z 1612/1712 30003KT P6SM SKC FM161400 27004KT P6SM SKC FM161900 21006KT P6SM SCT250", "KCID 161120Z 1612/1712 27006KT P6SM SKC FM161400 33010KT P6SM SCT050 FM161600 32016G27KT P6SM BKN050 FM170000 32010KT P6SM SCT050 FM170400 33015G22KT P6SM SCT030", "KCIU 161120Z 1612/1712 21003KT P6SM BKN035 TEMPO 1612/1616 BKN025 FM161900 28007KT P6SM VCSH OVC027 FM162300 30005KT P6SM -SHRA OVC027 FM170300 30004KT P6SM VCSH OVC018 FM170900 33004KT 6SM -SHRA BR BKN008", "KCKB 161500Z 1615/1712 23006KT P6SM SCT100 FM162200 22004KT P6SM BKN090 FM170600 22005KT P6SM BKN022 FM171000 25005KT P6SM BKN040", "KCKV 161120Z 1612/1712 20004KT P6SM OVC250 FM161700 26009KT P6SM VCSH BKN100 OVC250 FM162000 26010KT P6SM VCTS OVC050CB FM162300 30006KT P6SM OVC100", "KCLE 161515Z 1615/1718 22010KT P6SM SKC FM162100 28010KT P6SM SCT150 FM170900 24012G22KT P6SM BKN045 FM171500 24015G30KT P6SM SCT025 OVC035", "KCLL 161417Z 1614/1712 16005KT P6SM BKN008 BKN013 BKN250 FM161500 17007KT P6SM FEW013 SCT035 SCT250 FM162300 07005KT P6SM VCSH SCT040 BKN250 FM170400 02012KT 6SM SHRA BR VCTS BKN015CB OVC250", "KCLM 161120Z 1612/1712 18003KT 6SM HZ SKC FM161900 09005KT 6SM HZ SKC FM170300 26006KT P6SM SKC FM170800 24003KT P6SM FEW250", "KCLT 161607Z 1616/1718 22007KT P6SM BKN250 FM170000 22004KT P6SM SCT080 BKN120 FM170400 23005KT P6SM VCSH BKN060 PROB30 1704/1710 -SHRA BKN050 FM171500 25007KT P6SM FEW060 SCT150", "KCMA 161139Z 1612/1712 26006KT P6SM BKN015 OVC035 FM161800 24008KT P6SM SKC FM170300 VRB03KT P6SM SKC FM170900 VRB03KT 5SM BR OVC009", "KCMH 161133Z 1612/1712 18005KT P6SM OVC090 FM161500 20009KT P6SM BKN120 FM161900 24011G20KT P6SM BKN250 FM170000 27009KT P6SM SCT250 FM170300 30008KT P6SM BKN120", "KCMI 161120Z 1612/1712 24007KT P6SM SCT070 FM161400 31009KT P6SM SKC FM161800 31013G23KT P6SM SCT050 FM170200 31012G20KT P6SM SCT150", "KCMX 161137Z 1612/1712 31008KT P6SM VCSH BKN035 FM161400 31010KT P6SM VCSH SCT018 BKN026 FM162000 32011KT 5SM -SHRA BR OVC017 FM162200 32015G24KT 3SM -SHRA BR OVC016 FM170100 33016G28KT 2SM -SHRASN BR OVC011 FM170300 34018G33KT 1 1/2SM -SHSN BR OVC012", "KCNM 161502Z 1615/1712 32015KT P6SM VCSH BKN020 FM161800 33013KT P6SM -SHRA VCTS BKN018CB FM170000 36016KT 5SM -SHRA BR VCTS OVC012CB TEMPO 1700/1703 4SM TSRA OVC008CB FM170600 36012KT P6SM VCSH OVC007", "KCNU 161120Z 1612/1712 01007KT P6SM SCT250 FM161800 35010KT P6SM SCT250 FM170100 36007KT P6SM FEW250", "KCNY 161120Z 1612/1712 01007KT P6SM SCT250 FM161400 11006KT P6SM BKN250 FM161600 07010KT P6SM BKN250 FM170100 27005KT P6SM BKN250", "KCOD 161121Z 1612/1712 VRB05KT P6SM SKC FM161700 03006KT P6SM SKC FM170300 21005KT P6SM SKC", "KCOE 161120Z 1612/1712 04011KT P6SM FEW250 FM162000 04007KT P6SM SKC FM171100 04010KT P6SM SKC", "TAF KCOF 161400Z 1614/1719 08008KT 9999 FEW050 QNH2997INS BECMG 1701/1702 VRB06KT 9999 SKC QNH2991INS BECMG 1713/1714 17010KT 9999 SCT040 QNH2986INS TX29/1618Z TN24/1710Z LAST NO AMNDS AFT 1619 NEXT 1710", "KCON 161132Z 1612/1712 29004KT 2SM BR BKN002 TEMPO 1612/1613 1/4SM FG VV002 FM161300 VRB03KT P6SM SKC", "KCOS 161130Z 1612/1712 01006KT P6SM OVC040 FM161400 18006KT P6SM OVC035 FM161800 15008KT P6SM OVC035 FM162100 15008KT P6SM FEW040 BKN200 FM162300 15007KT P6SM BKN200 FM170200 02007KT P6SM BKN200", "KCOT 161501Z 1615/1712 14007KT P6SM SCT012 TEMPO 1615/1616 BKN012 FM161600 15009KT P6SM SCT025 FM161800 14010KT P6SM SCT045 SCT250 FM170200 12012KT P6SM SCT030 BKN250 FM170600 08008KT P6SM VCTS BKN025CB OVC100 TEMPO 1706/1710 VRB15G25KT 4SM TSRA OVC020CB", "KCOU 161120Z 1612/1712 33006KT P6SM SKC FM161900 32011G18KT P6SM SKC FM170000 33010KT P6SM FEW250", "KCPR 161121Z 1612/1712 VRB05KT P6SM SKC FM161800 04006KT P6SM SKC FM170300 VRB05KT P6SM SCT100 FM170800 24005KT P6SM SCT100", "KCPS 161120Z 1612/1712 33004KT P6SM SCT250 FM161800 33008KT P6SM SCT250", "KCRE 161120Z 1612/1712 28006KT P6SM SKC FM161700 21009KT P6SM SKC FM170100 20009G15KT P6SM FEW250 FM170700 23009KT P6SM SCT200", "KCRG 161120Z 1612/1712 VRB03KT P6SM FEW250 FM161800 11007KT P6SM FEW250 FM170200 15004KT P6SM SCT250 FM170800 22006KT P6SM FEW012 BKN250", "KCRP 161501Z 1615/1712 15012KT P6SM SCT022 TEMPO 1615/1616 BKN022 FM161600 15012KT P6SM SCT025 SCT040 FM162000 12012KT P6SM SCT035 SCT250 FM170200 12008KT P6SM FEW025 BKN250 FM170800 09006KT P6SM VCSH BKN020 BKN100 TEMPO 1709/1712 5SM -TSRA BKN015CB OVC050", "KCRQ 161138Z 1612/1712 VRB03KT P6SM VCSH OVC021 FM161600 VRB03KT P6SM OVC021 FM162000 27008KT P6SM SCT040 FM170100 VRB04KT P6SM BKN021", "KCRW 161500Z 1615/1712 23005KT P6SM SCT070 BKN150 FM162000 23005KT P6SM VCSH SCT060 OVC100", "KCSG 161139Z 1612/1712 VRB03KT P6SM SKC FM161900 24006KT P6SM FEW250 FM170100 00000KT P6SM SCT250", "KCSM 161402Z 1614/1712 36012KT P6SM SCT060 BKN100 TEMPO 1614/1616 5SM -SHRA BKN035 FM170000 33007KT P6SM BKN120 FM170700 36008KT P6SM SKC", "KCSV 161120Z 1612/1712 VRB03KT P6SM BKN250 FM161500 25008KT P6SM BKN100 OVC250 FM162300 26007KT P6SM VCTS SCT025CB OVC040 TEMPO 1700/1704 6SM -TSRA BR BKN025CB OVC040 FM170500 28004KT P6SM BKN025 FM170900 29003KT P6SM FEW025 OVC100", "KCTB 161120Z 1612/1712 VRB06KT P6SM SCT250 FM161700 14008KT P6SM SCT250", "KCUB 161511Z 1615/1712 26006KT P6SM FEW250 FM170000 VRB03KT P6SM BKN250", "KCVG 161456Z 1615/1718 21010KT P6SM SCT100 SCT150 SCT250 FM161900 24012G20KT P6SM SCT120 FM162200 27010KT P6SM SCT250 FM170300 30008KT P6SM BKN250 FM171600 28012KT P6SM BKN150", "TAF AMD KCVS 160335Z 1602/1708 VRB06KT 9999 SCT150 QNH2998INS TEMPO 1604/1607 04012G18KT 9000 -TSRA BKN080CB BECMG 1606/1607 04010G15KT 9000 -SHRA BKN100 QNH3006INS BECMG 1615/1616 06015G25KT 9999 NSW BKN100 BKN120 QNH2998INS BECMG 1700/1701 08009KT 9999 BKN120 QNH3018INS TX14/1622Z TN12/1613Z LAST NO AMDS AFT 1602 NEXT 1618", "KCWA 161138Z 1612/1712 29008KT P6SM BKN020 OVC040 TEMPO 1612/1616 -RA BKN016 FM161600 30011G19KT P6SM -SHRA OVC024 FM162100 30012G22KT P6SM OVC040 FM162300 31013G25KT P6SM -SHSN BKN025 FM171000 32015G29KT P6SM -SHSN BKN022 WS020/34040KT", "KCXO 161122Z 1612/1712 VRB04KT 3SM BR BKN003 FM161400 18008KT P6SM SCT025 SCT250 FM162300 VRB05KT P6SM SCT040 BKN250 FM170800 03009KT P6SM VCSH SCT015 BKN025", "KCXP 161120Z 1612/1712 VRB03KT P6SM SKC FM162100 06007KT P6SM SKC FM170300 VRB03KT P6SM SKC", "KCYS 161120Z 1612/1712 33006KT P6SM BKN050 FM161600 33010KT P6SM SCT050 FM162000 02008KT P6SM SKC FM170500 27006KT P6SM SKC", "KDAB 161120Z 1612/1712 00000KT P6SM FEW035 FM161500 07008KT P6SM SCT040 FM170000 VRB02KT P6SM SCT250", "KDAG 161120Z 1612/1712 VRB05KT P6SM FEW120 BKN200 FM162000 12005KT P6SM FEW120 FM170300 25006KT P6SM SKC", "KDAL 161455Z 1615/1712 11007KT P6SM VCSH FEW015 OVC070 TEMPO 1615/1617 -SHRA BKN015 FM161930 03010KT P6SM VCSH SCT025 BKN040 FM170200 01013KT P6SM BKN060", "KDAN 161120Z 1612/1712 VRB03KT P6SM BKN100 FM161500 25007KT P6SM BKN100 FM162300 24003KT P6SM VCSH OVC070 FM170400 24004KT 4SM -RA BR OVC025", "KDAY 161133Z 1612/1712 19006KT P6SM OVC090 FM161500 21008KT P6SM SCT100 FM161800 25012G20KT P6SM SCT250 FM162200 29010KT P6SM BKN250", "KDBQ 161120Z 1612/1712 29007KT P6SM SKC FM161600 31016G25KT P6SM BKN050 FM170000 32010KT P6SM SCT050 FM170400 33016G26KT P6SM SCT030", "KDCA 161458Z 1615/1718 VRB03KT P6SM SCT080 BKN160 FM170200 19006KT P6SM OVC060 FM170600 21007KT P6SM OVC008 FM171500 25008KT P6SM BKN020", "KDDC 161540Z 1616/1712 02012KT P6SM BKN150 FM170000 36007KT P6SM SCT120", "KDEC 161120Z 1612/1712 25008KT P6SM FEW070 FM161400 31009KT P6SM SKC FM161800 31012G22KT P6SM SCT050 FM170100 32012G19KT P6SM SCT250", "KDEN 161503Z 1615/1718 03007KT P6SM SCT035 BKN050 FM161900 06007KT P6SM SCT050 FM170300 19007KT P6SM FEW050 SCT250 FM171200 25006KT P6SM SCT250 FM171700 05005KT P6SM FEW050 SCT250", "KDET 161429Z 1614/1712 25008KT P6SM SCT070 FM161700 28013G20KT P6SM SCT025 BKN040 FM161900 26013KT P6SM BKN050 FM170000 24010KT P6SM SCT025 BKN040 PROB30 1700/1704 6SM -RA OVC025 FM170600 27007KT 6SM -SHRA OVC025", "KDFW 161455Z 1615/1718 12007KT P6SM VCSH FEW015 OVC070 TEMPO 1615/1617 -SHRA BKN015 FM161930 02011KT P6SM VCSH SCT025 BKN040 FM170200 01013KT P6SM BKN060", "KDHN 161120Z 1612/1712 03003KT P6SM SKC FM161800 24005KT P6SM SCT045 FM170000 21003KT P6SM SKC FM170700 25003KT 1SM BR BKN003", "KDHT 161133Z 1612/1712 03010KT P6SM VCSH OVC070 FM161400 04011KT P6SM -SHRA OVC030 FM162100 05011KT P6SM VCSH OVC040 FM170100 34005KT P6SM OVC090", "KDIJ 161120Z 1612/1712 14005KT P6SM FEW200 FM161800 34009KT P6SM SKC FM170200 13005KT P6SM SKC AMD LTD TO CLD VIS AND WIND", "KDIK 161120Z 1612/1712 29005KT P6SM SKC FM161700 32010KT P6SM SCT200 FM170300 VRB03KT P6SM SCT150", "KDLH 161127Z 1612/1712 31010G17KT P6SM VCSH BKN018 OVC035 FM161800 32016G24KT P6SM VCSH SCT015 OVC025 FM162200 32016G27KT P6SM BKN025", "KDLS 161129Z 1612/1712 VRB06KT P6SM SKC", "TAF KDMA 161405Z 1614/1720 VRB06KT 9999 FEW008 SCT080 BKN180 QNH2996INS BECMG 1618/1619 30009KT 9999 SCT090 BKN140 QNH2999INS BECMG 1701/1702 VRB06KT 9999 SCT100 QNH3001INS BECMG 1715/1716 09012G18KT 9999 SKC QNH3003INS TX24/1622Z TN12/1713Z", "KDMN 161143Z 1612/1712 05006KT P6SM VCSH BKN070 FM161800 06010G20KT P6SM VCTS OVC070CB FM170300 06012KT P6SM SHRA OVC050", "KDNL 161511Z 1615/1712 24008KT P6SM FEW250 FM170000 VRB03KT P6SM BKN250", "TAF KDOV 161600Z 1616/1722 33006KT 9999 BKN100 510203 QNH2990INS WND 24006KT AFT 1620 TEMPO 1622/1702 VRB06KT BECMG 1701/1702 18009KT 8000 -SHRA BKN080 510103 QNH2986INS BECMG 1703/1704 19012KT 6000 -RA BKN040 OVC080 510103 QNH2977INS BECMG 1707/1708 18012G20KT 8000 -SHRA BKN020 OVC040 510101 540203 QNH2972INS TEMPO 1709/1712 BKN015 BECMG 1711/1712 21012G20KT 9999 OVC015 550154 QNH2971INS BECMG 1713/1714 21012G20KT 9999 OVC015 540154 QNH2968INS BECMG 1715/1716 23012KT 9999 BKN020 BKN030 510103 QNH2961INS BECMG 1719/1720 28009KT 8000 -SHRA BKN030 OVC060 510103 QNH2960INS TX20/1620Z TN12/1710Z", "KDPA 161500Z 1615/1712 30008KT P6SM BKN040 FM161600 29015G25KT P6SM BKN035", "KDRO 161120Z 1612/1712 08004KT P6SM OVC070 FM161800 13008KT P6SM VCSH OVC090 FM162000 13010KT 6SM -SHRA BR BKN060 FM162200 14010KT P6SM VCSH BKN070 FM170300 04006KT P6SM VCSH BKN050", "KDRT 161120Z 1612/1712 10008KT P6SM OVC015 FM161700 14010KT P6SM SCT050 SCT250 PROB30 1700/1703 -TSRA SCT050CB FM170300 05010KT 5SM TSRA BKN040CB OVC150", "KDSM 161138Z 1612/1712 31010KT P6SM SCT060 FM161700 32015G25KT P6SM BKN050 FM162300 33012KT P6SM FEW060 SCT230", "KDTW 161428Z 1614/1718 25008KT P6SM SCT070 FM161700 28013G20KT P6SM SCT025 BKN040 FM161900 26013KT P6SM BKN050 FM170000 24010KT P6SM SCT025 BKN040 PROB30 1700/1704 6SM -RA OVC025 FM170600 27007KT 6SM -SHRA OVC025", "KDUJ 161126Z 1612/1712 VRB03KT P6SM BKN100 FM161500 23010G18KT P6SM FEW150 FM162200 VRB04KT P6SM BKN080", "KDVL 161223Z 1612/1712 34011KT P6SM SCT024 BKN040 TEMPO 1612/1614 BKN024 FM161400 34016G25KT P6SM SCT050 FM162300 35013G20KT P6SM SCT230 FM170100 36009KT P6SM SCT250", "KDVT 161133Z 1612/1712 07006KT P6SM SKC FM161800 13005KT P6SM VCSH SCT060 BKN120 FM162200 20006KT P6SM FEW250 FM170300 04004KT P6SM SKC", "TAF KDYS 161645Z 1616/1722 05009KT 9999 OVC060 QNH3003INS TEMPO 1616/1618 VRB10G15KT 8000 -TSRA OVC050CB BECMG 1617/1618 03012G18KT 9000 SHRA OVC020 QNH3006INS BECMG 1620/1621 03015G25KT 9000 SHRA OVC010 QNH3007INS BECMG 1623/1624 04012G18KT 9000 RA OVC010 QNH3008INS BECMG 1704/1705 05012G18KT 8000 RA OVC030 QNH3014INS TX22/1617Z TN07/1714Z", "KEAR 161132Z 1612/1712 30008KT P6SM FEW025 BKN040 FM161600 33012KT P6SM SCT040 FM161800 34016G24KT P6SM FEW100 FM170100 36006KT P6SM SKC", "KEAT 161120Z 1612/1712 30008KT 6SM HZ SKC FM162000 14005KT P6SM SKC FM170000 21004KT P6SM SKC FM170400 30007KT P6SM SKC", "KEAU 161120Z 1612/1712 30009KT P6SM OVC035 FM161300 31012G20KT P6SM OVC025 FM161800 31015G23KT P6SM -SHRA OVC025 FM162100 32015G23KT P6SM BKN035 FM170100 33012G20KT P6SM SCT050", "KECG 161120Z 1612/1712 20005KT P6SM SKC FM161500 24007KT P6SM SCT250 FM170300 22007KT P6SM BKN090 FM170900 20004KT 6SM -SHRA BR OVC090", "KECP 161120Z 1612/1712 00000KT P6SM SKC FM161500 16005KT P6SM SCT040 FM170000 19007KT P6SM SKC FM170600 00000KT 1SM BR BKN002", "TAF KEDW 161245Z 1613/1719 VRB06KT 9999 FEW060 FEW200 510009 QNH2995INS BECMG 1623/1624 25010G15KT 9999 FEW060 FEW200 QNH2998INS BECMG 1703/1704 24009KT 9999 FEW060 FEW200 QNH3000INS TX27/1623Z TN09/1614Z", "KEED 161339Z 1614/1712 VRB05KT P6SM SCT090 SCT110 BKN200 FM162000 15007KT P6SM FEW110 SCT250 FM170200 23006KT P6SM SKC", "KEET 161120Z 1612/1712 VRB03KT P6SM SCT250 FM161600 24008KT P6SM FEW250 FM162100 26009KT P6SM SCT080 BKN150 FM170000 23005KT P6SM SCT050 BKN150 FM170700 VRB03KT P6SM BKN250", "TAF KEFD 161200Z 1612/1718 VRB06KT 9999 SCT020 QNH2995INS BECMG 1617/1618 VRB06KT 9000 -SHRA BKN030 QNH2990INS BECMG 1623/1700 VRB06KT 9999 NSW SCT011 QNH2990INS BECMG 1708/1709 VRB06KT 8000 BR SCT010 QNH2990INS BECMG 1714/1715 04010G15KT 9999 NSW BKN019 QNH2996INS TX29/1619Z TN22/1712Z", "KEFK 161135Z 1612/1712 24003KT P6SM SKC FM161800 VRB04KT P6SM SCT180 FM170300 16004KT P6SM SCT170", "KEGE 161120Z 1612/1712 00000KT P6SM FEW250 FM162000 34005KT P6SM SCT250 FM170300 08005KT P6SM FEW250 FM170600 00000KT P6SM FEW250", "KEKN 161500Z 1615/1712 24006KT P6SM SCT100 FM162300 00000KT P6SM BKN070 FM170500 20004KT P6SM BKN035 FM170700 20004KT P6SM BKN017 FM171100 VRB03KT 5SM -SHRA BR OVC011 AMD NOT SKED", "KEKO 161120Z 1612/1712 07007KT P6SM SKC", "KEKS 161120Z 1612/1712 VRB06KT P6SM FEW250", "KELD 161554Z 1616/1712 06003KT P6SM SCT100 BKN120 FM162100 22005KT P6SM BKN100 FM170000 00000KT P6SM OVC100", "KELM 161139Z 1612/1712 00000KT 1/2SM FG VV002 TEMPO 1612/1613 3SM BR FEW002 FM161300 21002KT P6SM FEW200 FM161500 24007KT P6SM FEW200 FM170100 VRB03KT P6SM BKN200", "KELP 161143Z 1612/1712 12008KT P6SM BKN070 BKN250 FM162100 04012G20KT P6SM VCTS OVC070CB FM170300 03012KT P6SM SHRA OVC030", "KELY 161120Z 1612/1712 17010KT P6SM SKC FM161700 02008KT P6SM SKC FM170200 18009KT P6SM SKC", "TAF KEND 161400Z 1614/1720 02011KT 9999 SCT120 OVC250 QNH3013INS BECMG 1616/1617 02010KT 9000 -RA BKN150 OVC200 QNH3016INS BECMG 1618/1619 35012KT 9999 NSW BKN150 OVC250 QNH3015INS TX22/1617Z TN05/1712Z", "KENV 161120Z 1612/1712 36012G20KT P6SM SKC FM161600 33009KT P6SM SKC", "KENW 161612Z 1616/1712 26006KT P6SM OVC050 FM161800 28013G21KT P6SM OVC040 FM170600 30015G26KT P6SM BKN025 FM170900 30017G29KT P6SM BKN035", "KERI 161125Z 1612/1712 17010KT P6SM BKN060 FM161500 22012KT P6SM BKN100 FM162000 25010G18KT P6SM SCT150 FM170900 23015G25KT P6SM OVC045", "KEUG 161130Z 1612/1712 20007KT P6SM FEW040 FM161400 21004KT P6SM SCT040 FM162100 29007KT P6SM FEW040 FM170500 24006KT P6SM SCT250 FM170900 22004KT P6SM BKN011", "KEUL 161124Z 1612/1712 VRB05KT P6SM SKC AMD NOT SKED", "KEVV 161120Z 1612/1712 VRB03KT P6SM SCT150 FM161500 27010G17KT P6SM SCT250 FM170000 32005KT P6SM FEW250", "KEVW 161120Z 1612/1712 08010G23KT P6SM SKC FM162000 08010KT P6SM SKC FM170000 05008KT P6SM SKC", "KEWN 161120Z 1612/1712 26006KT P6SM FEW250 FM170000 20005KT P6SM BKN200", "KEWR 161432Z 1615/1718 03007KT P6SM BKN150 FM161800 26008KT P6SM SCT080 FM170200 VRB04KT P6SM SCT070 FM171000 18005KT P6SM BKN050 FM171400 20008KT 6SM -SHRA BKN025 OVC050", "KEYW 161524Z 1615/1712 09010KT P6SM SCT020", "KFAR 161128Z 1612/1712 33015G25KT P6SM OVC060 FM161700 34018G27KT P6SM BKN040 FM162300 35016G24KT P6SM SCT180 FM170000 35012G20KT P6SM SCT180 FM170400 35009KT P6SM FEW240", "KFAT 161120Z 1612/1712 VRB06KT P6SM SKC", "KFAY 161120Z 1612/1712 25006KT P6SM SCT250 FM170500 21004KT P6SM SCT080 BKN200 WS012/24035KT", "TAF KFBG 160900Z 1609/1715 VRB04KT 9999 SKC QNH3005INS TX27/1618Z TN13/1611Z", "TAF KFCS 161300Z 1613/1719 07006KT 9999 BKN030 OVC045 QNH3033INS BECMG 1618/1619 15010KT 9999 BKN035 OVC060 QNH3029INS BECMG 1622/1623 15010KT 9999 BKN050 BKN100 QNH3030INS BECMG 1704/1705 33005KT 9999 FEW080 QNH3033INS BECMG 0713/0714 09006KT 9999 SKC QNH3033INS TX15/1621Z TN08/1613Z", "KFDY 161125Z 1612/1712 20006KT P6SM SCT080 FM161700 26012KT P6SM SCT150 FM162300 30010KT P6SM BKN150 FM170600 27010KT P6SM BKN040", "TAF AMD KFFO 161630Z 1616/1717 22012KT 9999 SCT080 SCT200 QNH2985INS TEMPO 1617/1622 24015G20KT BECMG 1622/1624 29009KT 9999 SCT030 SCT200 510103 QNH2983INS BECMG 1713/1714 27010G15KT 9999 FEW030 BKN045 BKN060 610454 510013 QNH2981INS TX20/1620Z TN05/1711Z", "KFKL 161416Z 1614/1712 22004KT P6SM BKN100 FM161700 22010G18KT P6SM FEW150 FM162200 23004KT P6SM BKN080", "KFLG 161120Z 1612/1712 22006KT P6SM -SHRA BKN035 OVC060 FM161400 VRB04KT P6SM VCSH BKN050 OVC100 FM161800 04009KT P6SM -SHRA BKN040 OVC060 TEMPO 1619/1623 4SM TSRA BR BKN030CB OVC050 FM170300 07006KT P6SM BKN050", "KFLL 161445Z 1615/1718 07012KT P6SM SCT030 BKN035 FM170000 10008KT P6SM SCT035 SCT250 FM171600 12010KT P6SM SCT025 BKN050", "KFLO 161120Z 1612/1712 26005KT P6SM SKC FM162000 21006KT P6SM FEW250 FM170800 22005KT P6SM BKN150 WS020/25035KT", "KFMH 161120Z 1612/1712 00000KT 6SM BR FEW003 FM161300 23005KT P6SM SKC FM162000 25007KT P6SM SCT150 FM170100 VRB03KT P6SM BKN120", "KFMN 161628Z 1616/1712 10009KT P6SM FEW045 SCT060 BKN090 TEMPO 1618/1622 4SM SHRA BR OVC025 FM170000 12007KT 6SM -SHRA OVC025 FM170600 10007KT 5SM BR OVC025", "KFMY 161120Z 1612/1712 04004KT P6SM SKC FM161500 09008KT P6SM SCT040 FM170100 10004KT P6SM SKC", "KFNT 161432Z 1615/1712 24007KT P6SM OVC070 FM161600 27013G20KT P6SM SCT025 BKN040 FM161900 26013KT P6SM BKN050 FM162300 24010KT P6SM SCT025 BKN040 PROB30 1700/1704 6SM -RA OVC025 FM170400 27007KT 6SM -SHRA OVC025", "KFOD 161138Z 1612/1712 32009KT P6SM OVC050 FM161600 33015G25KT P6SM BKN050 FM170000 33012KT P6SM FEW060 SCT230", "KFOE 161120Z 1612/1712 34006KT P6SM SCT200 FM161800 32013KT P6SM FEW200 FM170000 34006KT P6SM SKC", "KFPR 161120Z 1612/1712 08005KT P6SM SCT030 FM161400 09010KT P6SM SCT035 FM170100 11003KT P6SM FEW030", "KFSD 161120Z 1612/1712 31008KT P6SM SCT050 FM161500 34012G18KT P6SM SCT050 FM161800 33015G23KT P6SM SCT200 FM170200 33007KT P6SM FEW250", "KFSM 161459Z 1615/1712 06006KT P6SM SCT006 OVC012 FM161900 32008KT P6SM BKN070 OVC200", "KFST 161137Z 1612/1712 15006KT P6SM VCSH BKN090 FM161800 06010KT 6SM SHRA BR VCTS BKN025CB FM170000 06013G21KT 6SM SHRA BR VCTS OVC012CB TEMPO 1700/1703 4SM TSRA OVC007CB FM170600 05015KT 5SM -SHRA VCTS OVC007CB", "KFTW 161455Z 1615/1712 10009KT P6SM VCSH FEW010 OVC040 TEMPO 1615/1617 -SHRA BKN010 FM161930 02009KT P6SM VCSH SCT025 BKN040 FM170200 01013KT P6SM BKN060", "KFTY 161139Z 1612/1712 21003KT P6SM FEW250 FM161500 26007KT P6SM FEW250 FM162300 24004KT P6SM SCT200 FM170900 VRB03KT P6SM BKN110", "KFVE 161120Z 1612/1712 25004KT 5SM BR FEW003 FM161300 28007KT P6SM FEW250 FM170700 35004KT P6SM SCT100", "KFWA 161120Z 1612/1712 23007KT P6SM FEW250 FM161700 29010G20KT P6SM SCT200 FM170800 27012G22KT P6SM BKN060", "KFXE 161445Z 1615/1712 07012KT P6SM SCT030 FM162300 08008KT P6SM SCT035 SCT250 FM170300 08005KT P6SM SCT250", "KFYV 161120Z 1612/1712 VRB05KT P6SM BKN100 OVC200 FM161800 35009KT P6SM OVC200", "KGBD 161120Z 1612/1712 35010KT P6SM SCT250", "KGCC 161120Z 1612/1712 28005KT P6SM SCT060 FM161600 36010KT P6SM SKC FM170400 17005KT P6SM SKC", "KGCK 161540Z 1616/1712 02012KT P6SM BKN150 FM170000 35007KT P6SM SCT120", "KGCN 161120Z 1612/1712 06010KT 6SM -SHRA BR BKN040 OVC060 FM161500 07009KT P6SM VCSH BKN050 OVC080 FM161800 05010G18KT P6SM -SHRA BKN040 OVC060 TEMPO 1619/1623 4SM TSRA BR BKN030CB OVC050 FM170100 08009KT P6SM SCT050 BKN080", "KGDV 161120Z 1612/1712 33007KT P6SM SCT170 FM161500 VRB06KT P6SM BKN140", "KGEG 161120Z 1612/1712 04007KT P6SM FEW250", "KGFK 161221Z 1612/1712 33013G21KT P6SM SCT027 BKN070 TEMPO 1612/1616 BKN027 FM161600 34018G27KT P6SM BKN030 FM170000 35013G21KT P6SM BKN200 FM170800 34009KT P6SM SKC", "KGFL 161302Z 1613/1712 00000KT P6SM FEW250 FM161500 16003KT P6SM BKN150 FM162200 20003KT P6SM SCT150 FM170200 00000KT P6SM SCT250", "KGGG 161550Z 1616/1712 06009KT P6SM VCSH FEW008 BKN023 OVC110 TEMPO 1616/1618 VRB10G22KT 2SM -TSRA BKN008 OVC023CB FM161800 34006KT P6SM VCTS BKN100CB FM170000 36007KT P6SM OVC050 FM170800 35005KT P6SM OVC100", "KGGW 161120Z 1612/1712 VRB05KT P6SM BKN090 FM161900 15007KT P6SM SCT140", "KGJT 161120Z 1612/1712 11004KT P6SM FEW250 FM162200 29005KT P6SM SCT250 FM170000 33007KT P6SM SCT250 FM170600 07005KT P6SM FEW250", "KGKY 161455Z 1615/1712 09008KT P6SM VCSH FEW015 OVC070 TEMPO 1615/1617 -SHRA BKN015 FM162000 02009KT P6SM VCSH SCT025 BKN040 FM170200 01013KT P6SM BKN060", "KGLD 161120Z 1612/1712 33007KT P6SM SCT080 SCT280 FM161800 35012G19KT P6SM FEW060 SCT280 FM162200 35010KT P6SM FEW280 FM170100 VRB06KT P6SM SKC", "KGLH 161201Z 1612/1712 12003KT P6SM SKC FM161700 29006KT P6SM SCT050 BKN100", "KGLS 161122Z 1612/1712 15010KT P6SM SCT028 BKN040 FM161700 13008KT P6SM SCT150 FM171000 04013KT P6SM VCSH BKN035", "KGMU 161137Z 1612/1712 23005KT P6SM SCT200 FM161500 23007KT P6SM BKN200 FM161800 24009G17KT P6SM BKN150 FM162300 24007KT P6SM FEW080 BKN120 FM170300 25005KT P6SM SCT060 BKN100 PROB30 1703/1709 -SHRA BKN050", "KGNV 161120Z 1612/1712 VRB03KT P6SM FEW250 FM161500 09005KT P6SM FEW250 FM170200 16003KT P6SM BKN250", "KGON 161432Z 1615/1712 36005KT P6SM BKN200 FM161700 25008KT P6SM BKN150 FM162300 VRB04KT P6SM SCT070 FM171100 10005KT P6SM BKN050", "KGPI 161120Z 1612/1712 00000KT P6SM VCFG SKC FM161500 VRB03KT P6SM SKC", "KGPT 161358Z 1614/1712 00000KT 1/2SM FG VV002 FM161500 14007KT P6SM FEW250 FM170500 VRB05KT P6SM FEW250", "KGRB 161138Z 1612/1712 27009KT P6SM SCT020 BKN060 TEMPO 1614/1616 -RA BKN020 FM161600 29011G19KT P6SM -SHRA OVC030 FM162100 29012G20KT P6SM OVC040 FM170300 30013G24KT P6SM -SHRA BKN028 FM170900 31015G27KT P6SM -SHRASN BKN029", "TAF KGRF 161300Z 1613/1719 05005KT 9999 SKC QNH2993INS BECMG 1702/1703 20005KT 9999 SKC QNH2996INS BECMG 1710/1711 18005KT 4800 BR SKC QNH3012INS TX24/1623Z TN11/1615Z", "KGRI 161132Z 1612/1712 30008KT P6SM FEW025 BKN040 FM161600 33012KT P6SM SCT040 FM161800 34016G24KT P6SM FEW100 FM170100 36006KT P6SM SKC", "TAF KGRK 161600Z 1616/1722 20010KT 9999 BKN020 OVC030 QNH2990INS BECMG 1617/1618 20012G20KT 9999 BKN040 OVC110 QNH3000INS BECMG 1620/1621 21010KT 9999 FEW025 BKN060 QNH2993INS TEMPO 1702/1704 04020G25KT 4800 TSRA OVC016CB BECMG 1708/1709 03010KT 9000 -SHRA OVC008 QNH3001INS BECMG 1715/1716 03010KT 9999 NSW FEW030 OVC050 QNH3011INS TX30/1619Z TN15/1713Z", "KGRR 161126Z 1612/1712 26005KT P6SM BKN080 FM161600 27008KT P6SM VCSH BKN025 FM161900 27010KT P6SM -SHRA BKN035 FM170100 28009KT P6SM -SHRA OVC025 FM170700 28012G18KT 4SM -SHRA BR OVC025", "TAF KGSB 161200Z 1612/1718 VRB05KT 9999 SCT090 QNH3000INS BECMG 1623/1624 22008KT 9999 SCT050 QNH2985INS TX26/1619Z TN15/1612Z LAST NO AMDS AFT 1612 NEXT 1620", "KGSO 161120Z 1612/1712 23008KT P6SM SCT100 BKN250 FM162200 24004KT P6SM VCSH BKN070 OVC200 PROB30 1623/1703 28015G25KT TS BKN070CB OVC100 FM170400 VRB03KT 6SM -SHRA SCT022 BKN070 OVC100", "KGSP 161137Z 1612/1712 23005KT P6SM SCT200 FM161500 23007KT P6SM BKN200 FM161800 23008G17KT P6SM BKN150 FM162300 23006KT P6SM BKN120 FM170300 24005KT P6SM SCT070 BKN100 PROB30 1703/1709 -SHRA BKN050", "TAF KGTB 160900Z 1609/1715 17005KT 9999 BKN040 QNH2996INS BECMG 1615/1616 19010G15KT 9999 SCT040 QNH2994INS BECMG 1621/1622 21010KT 9999 BKN070 QNH2986INS BECMG 1714/1715 18010KT 9000 -SHRA BKN020 OVC030 QNH2961INS TX12/1617Z TN06/1610Z", "KGTF 161120Z 1612/1712 20007KT P6SM BKN250 FM170000 09007KT P6SM SCT250 FM170600 21008KT P6SM SKC", "KGTR 161201Z 1612/1712 16004KT P6SM SKC", "KGUC 161120Z 1612/1712 36003KT P6SM BKN200 FM161800 11007KT P6SM BKN200 FM170600 06006KT P6SM SCT250", "KGUP 161631Z 1617/1712 08008KT P6SM VCSH SCT040 BKN060 TEMPO 1616/1618 VRB10G20KT -SHRA SCT025 BKN035 FM161800 08011KT P6SM VCSH OVC050 TEMPO 1620/1624 5SM SHRA OVC040 FM170000 08010KT P6SM -SHRA OVC050 FM170600 VRB06KT 5SM BR OVC030", "TAF KGUS 161300Z 1613/1719 VRB06KT 9999 FEW050 SCT100 QNH2991INS BECMG 1617/1618 26015G25KT 9999 FEW050 SCT090 BKN200 QNH2989INS BECMG 1623/1624 29015G20KT 9999 FEW030 BKN045 QNH2987INS BECMG 1705/1706 29012KT 9999 BKN030 BKN050 620305 QNH2985INS BECMG 1712/1713 29020G25KT 9999 OVC025 620257 QNH2984INS TX15/1619Z TN02/1711Z", "KGUY 161133Z 1612/1712 03012KT P6SM OVC110 FM162200 02005KT P6SM BKN110", "KGWO 161201Z 1612/1712 00000KT P6SM SKC FM161700 29006KT P6SM SCT050 BKN100", "KGYY 161500Z 1615/1712 29009KT P6SM SCT040 FM161600 28015G25KT P6SM BKN035", "KHBG 161201Z 1612/1712 00000KT P6SM BKN002 FM161400 VRB04KT P6SM SKC", "KHCR 161120Z 1612/1712 VRB06KT P6SM SKC", "KHDC 161604Z 1616/1712 14003KT P6SM BKN020 FM170900 00000KT 5SM BR SCT250 FM171100 32003KT P6SM SKC", "KHDN 161120Z 1612/1712 13003KT P6SM SKC FM161900 08007KT P6SM SKC FM162300 04010KT P6SM FEW250 FM170200 07007KT P6SM FEW250 FM171000 VRB03KT P6SM FEW250", "KHIB 161127Z 1612/1712 30010G20KT 6SM -SHRA BKN009 OVC018 FM161700 31010G20KT 6SM -SHSNRA SCT010 OVC015 FM162000 32015G25KT 6SM -SHSN OVC015 FM170200 34015G25KT P6SM VCSH OVC018", "KHIE 161132Z 1612/1712 VRB03KT P6SM SCT025 BKN035 FM161300 28004KT P6SM SCT110", "TAF KHIF 152100Z 1521/1703 33010KT 9999 SCT200 QNH3003INS BECMG 1602/1603 10020G30KT 9999 SKC 520009 QNH3008INS TEMPO 1604/1618 09030G40KT 530009 BECMG 1618/1619 10012G18KT 9999 SKC QNH3012INS TX21/1523Z TN08/1613Z LAST NO AMDS AFT 1523 NEXT 1613", "KHIO 161130Z 1612/1712 VRB03KT P6SM SKC WS020/10030KT FM161800 13008KT P6SM SKC FM170300 11004KT P6SM SKC", "KHKS 161201Z 1612/1712 00000KT P6SM SKC", "KHKY 161137Z 1612/1712 26004KT P6SM FEW080 BKN200 FM161500 22005KT P6SM SCT060 BKN150 FM162200 24006KT P6SM VCSH SCT050 BKN100 FM170100 25005KT P6SM OVC060 PROB30 1701/1706 -SHRA OVC035", "KHLG 161126Z 1612/1712 21004KT P6SM BKN100 FM161600 22010G18KT P6SM FEW150 FM162200 22004KT P6SM BKN080", "KHLN 161120Z 1612/1712 VRB06KT P6SM SCT250", "KHNB 161120Z 1612/1712 00000KT P6SM SCT250 FM161500 25006KT P6SM BKN250 FM161800 29011G18KT P6SM SCT250 FM162300 32008KT P6SM FEW250", "KHND 161120Z 1612/1712 VRB05KT P6SM FEW120 BKN200 FM161900 03005KT P6SM FEW120 FEW200 FM170300 19008KT P6SM SKC", "KHOB 161457Z 1615/1712 02012KT 5SM -RA BKN030 FM161800 02011G22KT 6SM -SHRA BR VCTS BKN015CB FM170000 02020G30KT 5SM -SHRA BR VCTS OVC011CB TEMPO 1700/1703 4SM TSRA OVC007CB FM170600 04015G25KT 5SM -SHRA OVC008", "KHON 161120Z 1612/1712 32010KT P6SM SKC FM161500 34015G22KT P6SM FEW250 FM170000 34009KT P6SM FEW250 FM170300 34005KT P6SM FEW250", "TAF KHOP 161600Z 1616/1722 25003KT 9999 BKN015 BKN050 QNH3004INS BECMG 1616/1617 25003KT 9000 -SHRA BKN015 BKN050 QNH2998INS BECMG 1621/1622 30005KT 9999 NSW SCT100 QNH3001INS BECMG 1623/1624 33006KT 9999 SKC QNH3000INS TX18/1621Z TN07/1707Z", "KHOT 161139Z 1612/1712 35006KT 4SM TSRA BR SCT015 OVC035CB TEMPO 1612/1615 2SM TSRA BR OVC015CB FM161500 27005KT P6SM -SHRA OVC025 FM162000 25005KT P6SM OVC040 FM170000 32003KT P6SM OVC250", "KHOU 161509Z 1615/1712 14006KT P6SM SCT035 SCT250 FM162000 13009KT P6SM VCSH SCT050 SCT250 FM170200 12005KT P6SM FEW040 BKN250 FM170800 02009KT 6SM BR VCTS SCT015 BKN020CB", "KHPN 161432Z 1615/1712 33005KT P6SM BKN150 FM161800 27006KT P6SM SCT150 FM162300 VRB03KT P6SM BKN070 AMD NOT SKED", "KHQM 161453Z 1615/1712 28005KT 6SM BR BKN004 FM161900 16012G22KT 6SM BR BKN007 FM170000 19013KT 2SM BR SCT010 FM170600 16010KT 1/4SM FG OVC003", "KHRL 161120Z 1612/1712 14006KT P6SM FEW035 FEW190 FM161600 16012KT P6SM FEW040 FEW250 FM170200 12006KT P6SM FEW025 SCT250", "KHRO 161139Z 1612/1712 18005KT P6SM SCT007 OVC110 TEMPO 1612/1614 BKN007 FM161400 33007KT P6SM BKN120 FM162100 32009KT P6SM SCT120 FM170000 32005KT P6SM SCT250", "TAF KHRT 161000Z 1610/1716 03006KT 9999 SKC QNH2990INS WND 12006KT AFT 1617 BECMG 1622/1623 20006KT 9999 BKN020 QNH2991INS TX27/1619Z TN13/1611Z", "TAF KHST 161100Z 1611/1717 06008KT 9999 VCSH BKN025 BKN080 QNH2996INS BECMG 1614/1615 08012G18KT 9999 NSW SCT025 BKN040 BKN080 QNH2994INS BECMG 1617/1618 08012G18KT 9999 SCT025 SCT080 QNH2994INS BECMG 1623/1624 08010KT 9999 FEW030 SCT080 QNH2994INS BECMG 1703/1704 11008KT 9999 FEW030 FEW110 QNH2989INS TX30/1619Z TN26/1611Z", "KHSV 161120Z 1612/1712 16006KT P6SM VCSH BKN100 FM161400 26008KT P6SM FEW060 BKN100 OVC200 FM170000 VRB05KT P6SM VCSH SCT035 BKN250 FM170500 34005KT P6SM BKN250", "KHTS 161500Z 1615/1712 22006KT P6SM SCT100 FM162300 23005KT P6SM VCSH BKN100", "KHUF 161120Z 1612/1712 21005KT P6SM FEW250 FM161800 30010G19KT P6SM FEW250 FM170200 32008KT P6SM FEW230", "KHUL 161120Z 1612/1712 33003KT P6SM OVC004 FM161300 33003KT P6SM SCT005 FM161400 34003KT P6SM FEW250 FM170200 36003KT P6SM FEW100", "KHUM 161604Z 1616/1712 13006KT P6SM SCT020 BKN030 FM170500 VRB05KT 5SM BR SCT250 FM170600 VRB05KT 3SM BR SCT250 FM170900 VRB06KT 3/4SM BR OVC001", "KHUT 161120Z 1612/1712 36007KT P6SM SCT250 FM161800 35012KT P6SM SCT250 FM170100 01007KT P6SM FEW250", "KHVR 161120Z 1612/1712 VRB06KT P6SM SCT150 BKN250 FM161700 11008KT P6SM BKN250", "KHYA 161120Z 1612/1712 00000KT 6SM BR FEW003 FM161300 22007KT P6SM SKC FM162000 25007KT P6SM SCT150 FM170000 VRB04KT P6SM BKN120", "KHYR 161127Z 1612/1712 30008G16KT P6SM VCSH BKN015 OVC025 TEMPO 1612/1614 SCT018 SCT030 OVC070 FM161900 31013G23KT P6SM VCSH OVC020 FM170200 33013G26KT 6SM -SHSN OVC012", "KHYS 161541Z 1616/1712 34010KT P6SM SCT150 FM170000 35008KT P6SM FEW150", "TAF AMD KIAB 160500Z 1605/1621 10009KT 6000 -SHRA VCTS BKN050CB BKN100 QNH2993INS TEMPO 1605/1606 09010G20KT 6000 -TSRA BKN050CB BKN100 BECMG 1604/1605 08009KT 9999 NSW FEW220 QNH2996INS BECMG 1617/1618 01010G15KT 9999 FEW220 QNH3014INS TX21/1621Z TN12/1613Z", "KIAD 161458Z 1615/1718 VRB03KT P6SM SCT080 BKN120 FM170600 20006KT 6SM BR OVC015 FM171200 22006KT P6SM BKN008 FM171500 25008KT P6SM BKN050", "KIAG 161502Z 1615/1712 22013G20KT P6SM BKN100 FM161700 22015G24KT P6SM SCT100 FM162200 22011KT P6SM BKN080 FM170300 27006KT P6SM VCSH BKN050 FM170600 22007KT 6SM -SHRA BR OVC025", "KIAH 161508Z 1615/1718 15007KT P6SM FEW040 SCT250 FM162000 14010KT P6SM VCSH SCT050 SCT100 FM170200 VRB05KT P6SM BKN250 FM170800 01008KT 6SM BR VCSH SCT020 BKN050 TEMPO 1708/1711 TSRA SCT025CB FM171300 02014KT P6SM VCSH FEW010 BKN020", "KICT 161120Z 1612/1712 01007KT P6SM SCT250 FM161800 35010KT P6SM SCT250 FM170100 01007KT P6SM FEW250", "KIDA 161120Z 1612/1712 01007KT P6SM SKC FM162000 03006KT P6SM SKC FM170200 VRB05KT P6SM SKC", "KIFP 161339Z 1614/1712 VRB05KT P6SM SCT080 BKN200 FM162000 20012KT P6SM FEW110 SCT250 FM170100 16006KT P6SM SKC", "KILG 161136Z 1612/1712 33005KT P6SM BKN200 FM161700 27005KT P6SM SCT200 FM162100 24005KT P6SM BKN200 FM170000 16003KT P6SM BKN200 FM170800 18005KT P6SM OVC040 FM171100 22005KT P6SM VCSH SCT025 OVC035", "KILM 161120Z 1612/1712 27006KT P6SM SKC FM162000 22007KT P6SM FEW250", "KILN 161133Z 1612/1712 20005KT P6SM OVC090 FM161500 21008KT P6SM SCT100 FM161800 24012G20KT P6SM SCT250 FM170000 29008KT P6SM BKN250", "KIND 161120Z 1612/1718 21005KT P6SM BKN080 FM161700 28011G19KT P6SM FEW250 FM162300 30012KT P6SM BKN150", "KINK 161137Z 1612/1712 10008KT P6SM VCTS BKN070CB FM161800 08011KT 5SM SHRA BR VCTS BKN018CB FM170000 07015G24KT 6SM SHRA BR VCTS OVC010CB TEMPO 1700/1703 4SM TSRA OVC007CB FM170600 05014KT 5SM -SHRA VCTS OVC007CB", "KINL 161634Z 1617/1712 32014G24KT 6SM -SHSN SCT016 BKN023 OVC035 FM161800 33014G23KT 6SM -SHSN SCT015 OVC022 FM170400 34014G23KT P6SM SCT020 BKN025", "TAF AMD KINS 161543Z 1615/1721 VRB06KT 9999 FEW120 SCT200 QNH3003INS BECMG 1620/1621 08010G15KT 9999 FEW120 FEW200 QNH3000INS BECMG 1703/1704 13008KT 9999 FEW150 QNH3002INS BECMG 1709/1710 VRB06KT 9999 FEW150 SCT180 QNH3008INS BECMG 1720/1721 09010G15KT 9999 FEW150 QNH3008INS TX31/1622Z TN12/1714Z LAST NO AMDS AFT 1615 NEXT 1705", "KINT 161120Z 1612/1712 23008KT P6SM SCT100 BKN250 FM162200 24004KT P6SM VCSH BKN070 OVC200 PROB30 1623/1703 28015G25KT TS BKN070CB OVC100 FM170400 VRB03KT 6SM -SHRA SCT025 BKN070 OVC100", "KINW 161120Z 1612/1712 26006KT P6SM VCSH BKN060 OVC100 FM161500 06009KT P6SM -SHRA VCTS BKN050CB OVC080 TEMPO 1616/1619 4SM TSRA BR BKN040CB OVC070 FM170100 VRB04KT P6SM SCT080", "KIPL 161133Z 1612/1712 27005KT P6SM SCT110 SCT250 FM162100 05008KT P6SM SKC FM170100 29005KT P6SM SKC", "KIPT 161501Z 1615/1712 00000KT P6SM SCT100 FM162200 VRB03KT P6SM BKN080 OVC150", "KISM 161120Z 1612/1712 04003KT P6SM SKC FM161500 09007KT P6SM FEW040 FM170100 13002KT P6SM SCT250", "KISO 161120Z 1612/1712 25006KT P6SM SCT250 FM170500 21005KT P6SM SCT080 BKN200 AMD LTD TO CLD VIS AND WIND", "KISP 161432Z 1615/1712 33008KT P6SM BKN250 FM161800 27008KT P6SM SCT150 FM162300 VRB04KT P6SM SCT070 FM171000 18006KT P6SM BKN050", "KITH 161139Z 1612/1712 11004KT P6SM SCT200 FM161500 20007KT P6SM FEW100 FM162300 15005KT P6SM BKN100", "KIWA 161517Z 1615/1712 28004KT P6SM VCSH SCT050 SCT060 BKN100 TEMPO 1615/1618 VRB05KT FM162000 08010G20KT P6SM VCTS SCT070CB BKN150 FM162300 VRB05KT P6SM SCT070 SCT180 FM170400 10004KT P6SM SKC", "KIWD 161137Z 1612/1712 28012KT P6SM -SHRA OVC015 FM161900 30012G23KT 4SM -SHRASN BR OVC011 FM170000 31015G25KT 4SM -SHSN BR OVC015 FM170300 33015G25KT 1SM -SHSN BR OVC015", "KIXD 161120Z 1612/1712 34006KT P6SM SKC FM161700 32012G20KT P6SM SCT060 FM170000 34008KT P6SM SKC", "KJAC 161121Z 1612/1712 01010KT P6SM SKC FM161500 VRB05KT P6SM SKC FM170300 01006KT P6SM SKC", "KJAN 161201Z 1612/1712 17004KT P6SM FEW040", "KJAX 161120Z 1612/1712 VRB03KT P6SM FEW250 FM162000 11007KT P6SM FEW250 FM170200 18004KT P6SM FEW012 BKN250", "KJBR 161128Z 1612/1712 VRB04KT 6SM -SHRA SCT050 OVC080 FM161600 26007KT P6SM SCT070 OVC100 FM170400 36007KT P6SM SKC AMD NOT SKED", "KJCT 161147Z 1612/1712 19006KT P6SM BKN015 FM161800 13007KT P6SM SCT100 BKN250 FM170000 03014G22KT P6SM VCTS BKN050CB FM170500 03013G18KT 6SM -SHRA VCTS OVC015CB FM170800 03011G17KT 6SM SHRA BR VCTS OVC007CB", "KJEF 161120Z 1612/1712 33006KT P6SM SKC FM161900 32011G18KT P6SM SKC FM170000 33007KT P6SM FEW250", "KJER 161559Z 1616/1712 09015G25KT P6SM SKC FM162000 06010KT P6SM SKC", "KJFK 161432Z 1615/1718 36006KT P6SM SCT150 BKN250 FM161700 27009KT P6SM SCT100 FM162200 23007KT P6SM SCT070 FM170400 VRB04KT P6SM SCT070 FM171000 18007KT P6SM BKN050 FM171400 19010KT 6SM -SHRA BKN025 OVC050", "KJHW 161502Z 1615/1712 22012G18KT P6SM SCT060 FM162100 22009KT P6SM SCT100 FM162300 21007KT P6SM BKN080 FM170100 21005KT P6SM BKN050 FM170500 23004KT P6SM BKN015", "KJKA 161140Z 1612/1712 VRB03KT P6SM FEW250 FM161800 12007KT P6SM FEW250 FM162300 15005KT P6SM FEW250", "KJKL 161136Z 1612/1712 00000KT P6SM SCT060 FM161900 25006KT P6SM -SHRA BKN045 OVC070 FM162300 VRB05KT P6SM VCSH BKN080", "KJLN 161120Z 1612/1712 VRB03KT P6SM BKN250 FM161500 36008KT P6SM BKN250 FM161900 34012KT P6SM SCT250 FM170100 35007KT P6SM SKC", "KJMS 161356Z 1614/1712 35010KT P6SM OVC045 FM161500 34015G25KT P6SM SCT200 FM170200 36010KT P6SM FEW200", "KJST 161501Z 1615/1712 24010KT P6SM SKC FM162200 23007KT P6SM BKN080 OVC150 FM170900 25007KT P6SM OVC035", "KJVL 161610Z 1616/1712 29008KT P6SM SCT035 BKN045 OVC050 FM162100 30016G24KT P6SM OVC040 FM170500 30013G23KT P6SM BKN030 FM171000 31015G27KT P6SM BKN035", "KJXN 161126Z 1612/1712 22007KT P6SM SCT080 FM161800 27009KT P6SM BKN040 FM170300 27006KT P6SM VCSH OVC025 FM171000 26010G16KT P6SM VCSH OVC015", "KJZI 161120Z 1612/1712 30003KT P6SM SKC FM161400 27004KT P6SM SKC FM161900 21006KT P6SM SCT250", "KLAF 161120Z 1612/1712 26005KT P6SM FEW220 FM161600 29013G22KT P6SM FEW240 FM162300 30012KT P6SM BKN160 AMD LTD TO CLD VIS AND WIND TIL 161300", "KLAL 161120Z 1612/1712 VRB04KT P6SM SKC FM161600 10006KT P6SM FEW040 FM170100 VRB03KT P6SM SKC", "KLAN 161126Z 1612/1712 22010KT P6SM SCT080 FM161500 28007KT P6SM BKN035 FM162200 27007KT P6SM VCSH OVC035 FM170100 27007KT P6SM -SHRA OVC025 FM171000 26010G18KT 4SM -SHRA OVC015", "KLAR 161520Z 1615/1712 VRB06KT P6SM BKN040 FM161600 05007KT P6SM SKC FM170300 13004KT P6SM SKC", "KLAS 161524Z 1615/1718 VRB04KT P6SM SCT150 BKN200 FM161900 08006KT P6SM FEW120 FEW200 FM170300 20006KT P6SM SKC", "KLAW 161401Z 1614/1712 02011KT P6SM SCT020 BKN070 TEMPO 1614/1616 6SM -SHRA BKN008 FM170000 36006KT P6SM BKN120", "KLAX 161509Z 1615/1718 13003KT P6SM FEW010 FEW023 SCT030 FM161900 26012KT P6SM SKC FM170400 26007KT P6SM SKC FM170700 VRB03KT P6SM OVC015 FM171700 26006KT P6SM FEW020", "KLBB 161629Z 1616/1712 05015G25KT 6SM -SHRA BR VCTS OVC007CB FM161800 05015KT P6SM -SHRA OVC010 FM170000 07011KT P6SM VCSH OVC030", "KLBE 161416Z 1614/1712 23004KT P6SM BKN100 FM161700 23008G18KT P6SM FEW150 FM162200 22004KT P6SM BKN080", "KLBF 161545Z 1616/1712 34012KT P6SM BKN025 FM161800 34014G20KT P6SM SCT030 FM170100 36006KT P6SM FEW250", "KLBL 161541Z 1616/1712 02013KT P6SM BKN150 FM170100 36005KT P6SM SCT120", "KLBT 161120Z 1612/1712 26006KT P6SM SKC FM162000 21006KT P6SM FEW250 FM170800 22005KT P6SM BKN150 WS020/23035KT AMD NOT SKED", "KLBX 161251Z 1613/1712 13005KT P6SM SCT030 SCT240 TEMPO 1613/1614 2SM BR FM162000 15009KT P6SM SCT040 FM170200 11006KT P6SM FEW020 BKN250 FM171000 05008KT P6SM VCSH FEW020 BKN050", "KLCH 161415Z 1614/1712 11004KT P6SM SCT025 TEMPO 1614/1615 BKN025 FM161500 13006KT P6SM SCT025 SCT150 FM161700 18007KT P6SM FEW040 SCT150 FM170100 17003KT P6SM SCT150 FM170500 VRB03KT 3SM BR BKN090", "KLCK 161133Z 1612/1712 18005KT P6SM OVC090 FM161500 20009KT P6SM BKN120 FM161900 24011G20KT P6SM BKN250 FM170000 27009KT P6SM SCT250 FM170300 30008KT P6SM BKN120", "KLEB 161411Z 1614/1712 00000KT 3SM BR OVC001 FM161430 VRB03KT P6SM FEW250 FM161800 25004KT P6SM SCT150", "KLEE 161120Z 1612/1712 03004KT P6SM SKC FM161500 09007KT P6SM FEW040 FM170100 11004KT P6SM SCT250", "KLEX 161120Z 1612/1712 18004KT P6SM SCT250 FM161500 22007KT P6SM BKN100 FM161800 23009G18KT P6SM SCT100 BKN250 FM162300 27007KT P6SM SCT250", "TAF KLFI 160900Z 1609/1715 27009KT 9999 SCT070 BKN100 QNH2985INS TEMPO 1700/1704 VRB06KT 9000 -SHRA SCT055 OVC080 BECMG 1707/1708 30006KT 8000 -SHRA SCT010 BKN015 OVC025 QNH2983INS BECMG 1712/1713 19018KT 9999 NSW FEW070 SCT095 BKN130 QNH2976INS TX23/1620Z TN15/1612Z", "KLFK 161555Z 1616/1712 16008KT P6SM VCSH SCT015 BKN030 FM161700 17005KT P6SM VCTS SCT030CB OVC250 FM170000 01007KT P6SM OVC060", "KLFT 161136Z 1612/1712 11004KT 3SM BR FEW150 TEMPO 1612/1614 1SM BR VV002 FM161400 13005KT P6SM FEW150 FM161700 18006KT P6SM FEW040 SCT150 FM170100 17003KT P6SM SCT250 FM170500 00000KT 6SM BR SCT250", "KLGA 161432Z 1615/1718 06006KT P6SM SCT150 BKN250 FM161800 29008KT P6SM SCT100 FM162300 25006KT P6SM SCT070 FM170400 VRB04KT P6SM SCT070 FM171000 17006KT P6SM BKN050 FM171400 19009KT 6SM -SHRA BKN025 OVC050", "KLGB 161357Z 1614/1712 00000KT 5SM BR SCT014 FM161700 VRB03KT P6SM SCT015 FM161900 21007KT P6SM SKC FM162300 28008KT P6SM SKC FM170400 VRB03KT P6SM SKC FM170800 VRB03KT P6SM OVC015", "KLGU 161120Z 1612/1712 08010G20KT P6SM SKC FM170000 08010KT P6SM SKC", "KLIT 161139Z 1612/1712 36015G22KT 4SM TSRA BR SCT025 OVC035CB TEMPO 1612/1615 2SM TSRA BR OVC025CB FM161500 27005KT P6SM -SHRA OVC025 FM162000 28006KT P6SM OVC035 FM170000 32005KT P6SM OVC250", "KLLQ 161139Z 1612/1712 18005KT P6SM OVC250 FM161800 28006KT P6SM SHRA OVC035 FM162100 28006KT P6SM OVC035 FM170000 30003KT P6SM OVC120 AMD NOT SKED", "KLMT 161136Z 1612/1712 VRB04KT P6SM SKC", "KLND 161121Z 1612/1712 VRB05KT P6SM SKC FM170200 24006KT P6SM SKC", "KLNK 161120Z 1612/1712 34010KT P6SM OVC045 FM161500 34012G20KT P6SM BKN040 FM161730 34017G26KT P6SM FEW040 FM170000 35011KT P6SM SCT250", "KLNS 161501Z 1615/1712 35006KT P6SM FEW110 FM170000 18004KT P6SM BKN080 BKN150 FM171000 18002KT 6SM BR BKN050 BKN100", "KLOZ 161136Z 1612/1712 VRB05KT P6SM BKN060 FM161700 23008KT P6SM OVC080 FM161900 25010KT P6SM VCSH BKN050 FM162100 26008KT 6SM -SHRA BR OVC060 FM170000 VRB05KT P6SM VCSH OVC070", "KLRD 161406Z 1614/1712 14010KT P6SM SCT015 TEMPO 1614/1615 BKN015 FM161800 13010KT P6SM SCT045 SCT250 FM170200 12014G20KT P6SM SCT030 BKN250 FM170600 13008KT P6SM VCTS BKN025CB OVC100 TEMPO 1706/1710 VRB15G25KT 4SM TSRA OVC020CB", "TAF KLRF 161500Z 1615/1721 VRB06KT 8000 -SHRA SCT005 BKN030 OVC100 QNH3003INS BECMG 1617/1618 VRB06KT 9999 NSW BKN040 OVC120 QNH2997INS BECMG 1701/1702 32009KT 9999 BKN150 QNH2999INS BECMG 1716/1717 35010G15KT 9999 SKC QNH3004INS TX22/1620Z TN09/1711Z", "KLRU 161143Z 1612/1712 05008KT P6SM BKN060 FM162000 07010G20KT P6SM VCTS OVC070CB FM170300 06012KT P6SM SHRA OVC030", "KLSE 161128Z 1612/1712 29008KT P6SM OVC050 FM161600 30010KT P6SM OVC028 FM161800 31013G22KT P6SM VCSH OVC028 FM170000 32012G23KT P6SM BKN035", "TAF KLSV 161500Z 1615/1721 VRB06KT 9999 BKN160 QNH2997INS BECMG 1618/1619 16010G15KT 9999 SCT200 QNH2998INS BECMG 1702/1703 27008KT 9999 FEW200 QNH3000INS BECMG 1717/1718 09012KT 9999 FEW250 QNH3002INS TX30/1623Z TN16/1713Z", "KLUK 161133Z 1612/1712 18005KT P6SM BKN110 FM161500 21007KT P6SM SCT090 FM161900 24012G20KT P6SM SCT120 FM162200 27010KT P6SM SCT250 FM170300 30008KT P6SM BKN250", "KLVK 161131Z 1612/1712 25007KT P6SM OVC022 FM161700 25007KT P6SM SCT020 FM161830 27010KT P6SM FEW250 FM170500 VRB05KT P6SM FEW050 SCT250", "KLVM 161127Z 1612/1712 VRB06KT P6SM FEW200", "KLVS 161639Z 1617/1712 04008KT P6SM VCSH SCT015 BKN035 TEMPO 1616/1618 05010G18KT 5SM RA BR OVC015 FM170000 03009KT 5SM -RA BR OVC008 FM170600 04006KT 4SM -RA BR OVC003", "KLWB 161120Z 1612/1712 VRB03KT P6SM SCT070 BKN120 FM161500 25006KT P6SM BKN080 FM162100 25007KT P6SM VCSH OVC060 FM162300 24005KT 5SM -SHRA BR OVC035 FM170800 24003KT 3SM -SHRA BR OVC012", "KLWS 161120Z 1612/1712 VRB04KT P6SM FEW250", "KLWT 161120Z 1612/1712 13006KT P6SM SCT250", "KLYH 161120Z 1612/1712 VRB03KT P6SM BKN120 FM161500 23006KT P6SM BKN100 FM162100 23009KT P6SM VCSH BKN070 OVC100 FM170200 21003KT 4SM -RA BR OVC050", "KMAF 161540Z 1616/1712 06008KT P6SM VCSH BKN040 TEMPO 1616/1618 4SM -RA BKN030 FM161800 06012G20KT 6SM SHRA BR VCTS OVC015CB FM170000 04020G30KT 5SM -SHRA VCTS OVC015CB TEMPO 1700/1703 3SM TSRA OVC009CB FM170600 04015G25KT 5SM -SHRA OVC008", "KMBG 161120Z 1612/1712 33012KT P6SM FEW250 FM161500 34014G22KT P6SM FEW250 FM170100 36008KT P6SM SCT250", "KMBL 161120Z 1612/1712 30007KT P6SM BKN035 TEMPO 1612/1615 BKN025 FM161500 29009G16KT P6SM OVC027 FM170400 30015G24KT P6SM -SHRA OVC022 FM170500 31015G24KT P6SM -SHRA OVC018", "KMBS 161435Z 1615/1712 27011KT P6SM SCT030 BKN070 FM161700 27012KT P6SM BKN040 BKN070 FM161900 26013KT P6SM BKN050 FM162300 24010KT P6SM SCT025 BKN040 TEMPO 1623/1703 6SM -RA OVC025 FM170300 27007KT 6SM -SHRA OVC025", "KMCB 161447Z 1615/1712 00000KT P6SM SCT250", "KMCC 161120Z 1612/1712 18008KT P6SM BKN025 TEMPO 1612/1616 BKN015 FM161900 18004KT P6SM SCT250 FM171100 17007KT P6SM BKN025", "KMCE 161120Z 1612/1712 VRB06KT P6SM SKC", "TAF KMCF 160900Z 1609/1715 06006KT 9999 FEW050 SCT080 QNH3000INS BECMG 1615/1616 09010G15KT 9999 FEW030 SCT050 QNH3004INS BECMG 1622/1623 09006KT 9999 FEW020 SCT035 QNH2999INS TX31/1620Z TN20/1609Z", "KMCI 161120Z 1612/1712 35006KT P6SM SKC FM161700 32012G20KT P6SM SCT060 FM170000 35008KT P6SM SKC", "KMCK 161202Z 1612/1712 31009KT P6SM SCT060 FM161800 33012G19KT P6SM FEW060 FM162300 36010KT P6SM SKC FM170600 VRB05KT P6SM SKC", "KMCN 161139Z 1612/1712 VRB03KT P6SM FEW250 FM161600 24005KT P6SM FEW250", "KMCO 161458Z 1615/1718 08010KT P6SM FEW040 FM170100 11004KT P6SM SCT250 FM171500 19006KT P6SM SCT035 BKN250", "KMCW 161138Z 1612/1712 30010KT P6SM OVC060 FM161500 32011G21KT P6SM OVC050 FM161900 32017G27KT P6SM BKN050 FM170000 32013KT P6SM FEW060 BKN100", "KMDT 161501Z 1615/1712 00000KT P6SM SCT090 BKN160 FM170000 20004KT P6SM BKN080 BKN150", "KMDW 161500Z 1615/1718 30009KT P6SM BKN040 FM161600 29015G25KT P6SM BKN035", "KMEI 161201Z 1612/1712 00000KT P6SM SKC", "KMEM 161458Z 1615/1718 24005KT P6SM VCSH BKN060 OVC100 FM161900 25006KT P6SM FEW050 OVC080 FM170300 31006KT P6SM BKN100 FM170800 34008KT P6SM SKC FM171500 02012KT P6SM SKC", "KMER 161120Z 1612/1712 VRB05KT P6SM SKC", "KMEV 161120Z 1612/1712 VRB03KT P6SM SKC FM162200 35006KT P6SM SKC FM170200 VRB03KT P6SM SKC", "KMFD 161125Z 1612/1712 20006KT P6SM BKN100 FM161500 24012KT P6SM SCT150 FM170100 29006KT P6SM BKN150 FM170300 30008KT P6SM BKN040 FM171000 26010G18KT P6SM SCT025 BKN035", "KMFE 161120Z 1612/1712 13006KT P6SM FEW035 SCT140 FM161600 15012KT P6SM FEW040 FEW250 FM170300 11006KT P6SM FEW025 BKN250", "KMFR 161136Z 1612/1712 VRB03KT P6SM SKC", "TAF KMGE 161300Z 1613/1719 VRB06KT 9999 BKN250 QNH3009INS BECMG 1614/1615 24012KT 9999 BKN250 QNH2987INS BECMG 1623/1624 VRB06KT 9999 BKN180 BKN250 QNH2988INS BECMG 1709/1710 25009KT 9999 VCSH SCT015 BKN070 BKN250 QNH2986INS BECMG 1713/1714 28012KT 9999 NSW FEW070 BKN250 QNH2983INS TX27/1621Z TN13/1712Z LAST NO AMDS AFT 1620 NEXT 1711", "KMGM 161120Z 1612/1712 VRB03KT P6SM FEW250 FM161700 28007KT P6SM FEW250 FM170100 25005KT P6SM SCT250", "KMGW 161126Z 1612/1712 20004KT P6SM BKN100 FM161600 22010G18KT P6SM FEW150 FM162200 18004KT P6SM BKN080", "KMHK 161120Z 1612/1712 35007KT P6SM SCT200 FM161900 34011KT P6SM FEW200 FM162300 35005KT P6SM SKC", "KMHR 161120Z 1612/1712 18008KT P6SM BKN025 TEMPO 1612/1616 BKN015 FM161900 22008KT P6SM SCT250 FM171100 16007KT P6SM BKN025", "KMHT 161132Z 1612/1712 VRB03KT P6SM SKC FM161800 29005KT P6SM SCT150", "KMIA 161445Z 1615/1718 07012KT P6SM SCT025 FM161800 07012KT P6SM VCTS SCT030CB BKN050 FM162300 08008KT P6SM SCT035 SCT250 FM170300 08005KT P6SM SCT035 SCT250 FM171600 11008KT P6SM SCT025 BKN050", "KMIV 161136Z 1612/1712 VRB03KT P6SM BKN250 FM161500 33005KT P6SM BKN200 FM161800 27005KT P6SM SCT200 FM162300 VRB02KT P6SM SCT100 BKN200 FM170700 VRB02KT P6SM OVC040 FM171000 20005KT P6SM -SHRA SCT020 OVC035", "KMKC 161120Z 1612/1712 35006KT P6SM SKC FM161700 32011G18KT P6SM SCT060 FM170000 35008KT P6SM SKC", "KMKE 161611Z 1616/1718 29008G16KT P6SM VCSH SCT025 OVC040 TEMPO 1616/1617 5SM -RA OVC025 FM162200 29014G25KT P6SM OVC035 FM170500 30015G26KT P6SM OVC030 FM171200 30017G32KT P6SM OVC035", "KMKG 161126Z 1612/1712 30007KT P6SM BKN050 FM161600 28009KT P6SM VCSH OVC025 FM162000 28010KT P6SM -SHRA OVC035 FM170000 29013G20KT P6SM -SHRA OVC035 FM170600 31016G22KT 4SM -SHRA BR OVC025", "KMKL 161128Z 1612/1712 20004KT P6SM VCSH SCT090 OVC120 TEMPO 1614/1618 5SM -SHRA BKN050 OVC090 FM162000 25007KT P6SM BKN060 FM170000 27004KT P6SM BKN100 FM170600 35008KT P6SM SKC", "KMKT 161120Z 1612/1712 31006KT P6SM BKN060 FM161500 32014G24KT P6SM BKN035 FM170000 33012G20KT P6SM SCT250", "KMLB 161120Z 1612/1712 07006KT P6SM SCT030 FM161500 09009KT P6SM FEW035 FM170100 12005KT P6SM FEW030 SCT250", "KMLC 161459Z 1615/1712 00000KT P6SM OVC009 FM161900 01007KT P6SM OVC100", "KMLI 161120Z 1612/1712 27006KT P6SM SKC FM161300 31008KT P6SM SCT050 FM161600 32015G25KT P6SM BKN050 FM170000 31010KT P6SM SCT050 FM170900 33016G26KT P6SM SCT030", "KMLS 161127Z 1612/1712 VRB06KT P6SM SCT090", "KMLU 161553Z 1616/1712 29005KT P6SM BKN010 BKN015 OVC020 FM162100 04005KT P6SM SCT030 BKN250 FM170000 01004KT P6SM OVC250 FM170200 36004KT P6SM OVC100", "KMMH 161120Z 1612/1712 VRB03KT P6SM SKC FM162200 14004KT P6SM FEW090 FM170300 VRB03KT P6SM SKC", "TAF KMMT 161500Z 1615/1721 VRB06KT 9999 FEW250 QNH2994INS BECMG 1707/1708 21006KT 9999 SCT100 SCT210 WS020/25035KT QNH2985INS BECMG 1718/1719 23012G18KT 9999 SCT040 BKN090 QNH2976INS TX25/1620Z TN15/1710Z", "KMOB 161247Z 1613/1712 04003KT P6SM FEW020 SCT250 FM161700 15006KT P6SM FEW040 SCT250 FM170900 00000KT 4SM BR BKN060", "KMOD 161120Z 1612/1712 33008KT P6SM SCT025 TEMPO 1612/1616 BKN015 FM161800 31009KT P6SM SKC FM171100 34006KT P6SM SCT025", "KMOT 161120Z 1612/1712 30010KT P6SM SKC FM161700 33015KT P6SM SCT200 FM170200 05010KT P6SM SCT100 FM170300 VRB06KT P6SM SCT080", "KMPV 161135Z 1612/1712 00000KT P6SM SKC FM161600 25004KT P6SM SCT170 FM162300 00000KT P6SM FEW140 FM170900 17004KT P6SM SCT180", "KMQY 161120Z 1612/1712 18004KT P6SM SCT150 OVC250 FM161700 25007KT P6SM VCSH BKN100 OVC250 FM162300 27006KT P6SM VCTS OVC050CB FM170200 32005KT P6SM FEW070 SCT150", "KMRB 161125Z 1612/1712 00000KT P6SM OVC100 FM162100 VRB04KT P6SM BKN070", "KMRY 161131Z 1612/1712 17005KT P6SM OVC022 FM162100 27010KT P6SM FEW020 FM170400 VRB04KT P6SM BKN022 FM170700 VRB03KT P6SM OVC018", "KMSL 161120Z 1612/1712 17006KT P6SM BKN100 FM161400 26008KT P6SM FEW060 BKN100 OVC200 FM170000 VRB05KT P6SM VCSH SCT035 BKN250 FM170500 30005KT P6SM BKN250", "KMSN 161610Z 1616/1712 32010G18KT P6SM BKN019 OVC050 FM161800 32011G22KT P6SM SCT020 BKN050 FM162300 30012G23KT P6SM BKN040 FM170300 30012G22KT P6SM BKN030 FM170500 31015G27KT P6SM BKN025", "KMSO 161120Z 1612/1712 VRB03KT P6SM SKC FM161700 12006KT P6SM SKC FM170100 VRB03KT P6SM SKC", "KMSP 161455Z 1615/1718 31013G22KT P6SM OVC025 FM161800 32015G26KT P6SM BKN035 FM170200 33012G20KT P6SM SCT100 FM171500 34016G24KT P6SM SCT200", "KMSS 161135Z 1612/1712 00000KT P6SM SKC FM161500 21007KT P6SM BKN080 FM170400 08004KT P6SM BKN100", "KMSY 161603Z 1616/1718 06007KT P6SM BKN020 BKN150 FM171100 VRB04KT 5SM BR BKN010", "TAF KMTC 161100Z 1611/1717 22006KT 9999 OVC090 QNH2984INS BECMG 1617/1618 25010G15KT 9999 BKN030 BKN065 620505 QNH2977INS BECMG 1623/1624 27009KT 9999 SCT017 OVC025 620255 QNH2960INS BECMG 1713/1714 25015G25KT 9999 OVC022 QNH2958INS TX11/1620Z TN04/1711Z", "KMTH 161559Z 1616/1712 07009KT P6SM VCSH SCT020 TEMPO 1616/1617 09013G20KT 2SM +RA BKN020 FM162000 08010KT P6SM SCT020", "KMTJ 161120Z 1612/1712 11010KT P6SM SCT250 FM161700 01005KT P6SM BKN200 FM162000 33007KT P6SM BKN200 FM170400 14007KT P6SM BKN200", "KMTN 161125Z 1612/1712 VRB04KT P6SM BKN110 FM170700 21007KT P6SM OVC015 FM170800 21008KT P6SM OVC008", "KMTW 161138Z 1612/1712 27009KT P6SM BKN070 FM161500 29010G16KT P6SM SCT022 BKN040 TEMPO 1615/1617 -RA BKN022 FM161700 29011G19KT P6SM -SHRA OVC030 FM162200 29012G20KT P6SM OVC040 FM170400 30013G24KT P6SM -SHRA BKN028 FM171000 31015G27KT P6SM -SHRASN BKN029", "TAF KMUI 161100Z 1611/1717 VRB06KT 9999 FEW120 BKN160 QNH2985INS BECMG 1707/1708 13006KT 9000 -SHRA BKN020 OVC030 QNH2970INS BECMG 1713/1714 26009KT 9999 NSW FEW010 SCT040 BKN060 QNH2965INS BECMG 1715/1716 26015G20KT 9999 FEW030 FEW045 BKN065 QNH2963INS TX17/1620Z TN06/1611Z LAST NO AMDS AFT 1611 NEXT 1619", "TAF AMD KMUO 152320Z 1523/1624 11012G18KT 9999 FEW180 QNH3001INS TEMPO 1519/1523 12015G25KT 510009 BECMG 1601/1602 10009KT 9999 SKC QNH3002INS BECMG 1610/1611 13010G15KT 9999 SKC QNH3011INS TX24/1523Z TN03/1613Z LAST NO AMDS AFT 1518 NEXT 1710", "KMVN 161120Z 1612/1712 VRB03KT P6SM SCT150 FM161500 30010G17KT P6SM SCT250 FM170000 32005KT P6SM FEW250", "KMWH 161120Z 1612/1712 01007KT P6SM FEW250 FM162000 08006KT P6SM SKC FM170300 03006KT P6SM SKC", "TAF KMXF 161100Z 1611/1717 VRB06KT 9999 SKC QNH2990INS BECMG 1705/1706 VRB06KT 9999 FEW020 BKN140 QNH2993INS BECMG 1711/1712 VRB06KT 9999 SCT010 BKN120 OVC140 QNH2992INS TX27/1620Z TN10/1612Z", "KMYL 161124Z 1612/1712 VRB03KT P6SM SKC", "KMYR 161120Z 1612/1712 28005KT P6SM SKC FM161700 21009KT P6SM SKC FM170100 20007G13KT P6SM FEW250 FM170600 23007KT P6SM SCT200", "TAF COR KNBG 1615/1715 13008KT 9999 SCT020 BKN170 BKN250 QNH3003INS TEMPO 1615/1617 BKN025 BECMG 1617/1619 13006KT 9999 BKN030 BKN250 QNH2995INS BECMG 1707/1709 14002KT 4800 BR SCT300 QNH2991INS BECMG 1709/1711 00000KT 0800 FG VV002 QNH2991INS TEMPO 1709/1713 3200 BR FEW002 FM171400 35004KT 9999 NSW FEW020 BKN250 QNH2994INS T30/1619Z T16/1710Z COR 1522 FN20072", "TAF KNCA 1615/1715 25010KT 9999 SKC QNH2995INS BECMG 1700/1702 VRB05KT 9999 SKC QNH2987INS FM170800 VRB05KT 9999 SCT050 BKN140 QNH2972INS T27/1620Z T18/1710Z", "KNEW 161604Z 1616/1712 05007KT P6SM BKN020 BKN030 FM170000 12008KT P6SM SCT250 FM171100 15005KT 5SM BR SCT250", "TAF KNFG 1615/1715 VRB05KT 9999 OVC040 QNH3000INS BECMG 1618/1620 24008KT 9999 BKN040 QNH2998INS FM170130 VRB06KT 9999 SCT015 BKN020 QNH3001INS BECMG 1704/1706 VRB05KT 9999 BKN012 QNH2998INS TEMPO 1706/1712 OVC007 T20/1621Z T15/1714Z", "TAF KNFL 1523/1623 VRB06KT 9999 FEW250 QNH2994INS FM162000 06008KT 9999 FEW250 QNH3004INS LAST NO AMDS AFT 1601 NEXT 1714 1601 T04/1614Z T24/1623Z FS30201", "TAF KNFW 1615/1715 VRB06KT 8000 RA BR BKN030 OVC080 661109 662009 QNH2994INS TEMPO 1615/1621 VRB20G30KT 0400 +TSRA BR BKN009CB TEMPO 1621/1623 02020G30KT 0400 +TSRA BR BKN009CB BECMG 1623/1701 02015G20KT 8000 RA BKN030 OVC080 661109 662009 550004 QNH3000INS AUTOMATED SENSOR METWATCH 1622 TIL 1711 T23/1619Z T16/1715Z FN20070", "TAF KNGP 1615/1715 17010G15KT 9999 FEW020 SCT250 QNH2982INS BECMG 1622/1700 12010KT FEW025 SCT150 QNH2983INS BECMG 1707/1709 15008KT 9999 SCT030 BKN120 BKN180 QNH2981INS TEMPO 1712/1715 8000 BR AUTOMATED SENSOR METWATCH 1615 TIL 1618 T29/1620Z T25/1715Z FN00231", "TAF KNGU 1615/1715 28006KT 9999 FEW130 BKN250 QNH2995INS BECMG 0701/0703 VRB06KT 9999 VCSH SCT030 BKN050 BKN250 QNH2984INS TEMPO 0703/0707 6000 SHRA BKN030 OVC050 BECMG 0707/0709 18008KT 8000 BR BKN050 BKN120 OVC150 QNH2978INS T20/1621Z T16/1712Z FN00231", "TAF KNHK 1615/1715 02008KT 9999 FEW055 SCT120 BKN250 QNH2986INS BECMG 1701/1703 20008G16KT 9999 VCTS SCT020 SCT060CB BKN250 QNH2970INS TEMPO 0703/0708 4800 TSRA SCT020 BKN050CB OVC250 BECMG 1710/1712 18012KT 8000 BR SCT010 BKN015 OVC020 QNH2976INS T20/1619Z T16/1704Z FN00231", "TAF KNIP 1615/1715 VRB06KT 9999 FEW020 QNH3000INS TEMPO 1618/1623 8000 BR BECMG 1623/1701 VRB06KT 9999 FEW020 FEW200 QNH2992INS T27/1620Z T17/1712Z FN00231", "TAF KNJK 1523/1623 VRB06KT 9999 VCTS SCT030CB BKN050 OVC090 QNH2970INS TEMPO 1523/1605 VRB28G38KT 1600 +TSRA BKN025CB OVC060 FM160600 26008KT 9999 VCSH SCT020 BKN050 OVC100 QNH2973INS LAST NO AMDS AFT 1601 NEXT 1715 T20/1612Z T30/1700Z FS30199", "TAF KNKT 1615/1715 25010G20KT 9999 SKC QNH2995INS BECMG 1700/1702 VRB05KT 9999 SKC QNH2987INS FM170800 VRB05KT 9999 SCT050 BKN140 QNH2972INS T27/1620Z T18/1710Z", "TAF KNKX 1603/1703 VRB06KT 9999 BKN030 OVC044 QNH2991INS TEMPO 1603/1609 SHRA BKN015 OVC035 FM160930 VRB04KT 9999 BKN015 OVC035 QNH2997INS FM161830 VRB05KT 9999 BKN010 OVC020 QNH2990INS FM162030 30009KT 9999 OVC010 QNH2987INS T17/1615Z T19/1623Z", "TAF KNLC 1615/1715 34009KT 9999 FEW250 QNH2994INS AUTOMATED SENSOR METWATCH 1615 TIL 1622 T27/1623Z T11/1714Z FS30201", "TAF KNQX 1615/1715 08011KT 9999 VCSH FEW020 SCT080 BKN150 QNH2988INS FM162300 10008KT 9999 VCSH SCT020 BKN080 BKN150 QNH2985INS FM171200 12007KT 9999 VCSH FEW020 SCT080 BKN150 QNH2983INS T31/1619Z T25/1711Z FN20056", "TAF KNSE 1615/1715 VRB06KT 9999 FEW030 FEW250 QNH2991INS FM161800 17006KT 9999 FEW010 FEW020 QNH2989INS BECMG 1623/1701 17003KT 6000 BR FEW200 QNH2988INS BECMG 1703/1705 VRB03KT 0800 FG FEW180 QNH2985INS BECMG 1713/1715 VRB06KT 8000 BR FEW050 BKN120 QNH2978INS AUTOMATED SENSOR METWATCH 1615 TIL 1711 T14/1612Z T29/1618Z FN00231", "TAF COR KNTD 1615/1715 VRB06KT 9999 BKN017 QNH2994INS TEMPO 1615/1619 VRB06KT 8000 BR FEW006 BKN012 OVC030 BECMG 1619/1621 23008KT 9999 SCT010 BKN035 QNH2997INS FM170400 VRB06KT 9000 BR SCT006 BKN010 BKN020 QNH3000INS FM170900 VRB06KT 8000 BR BKN012 BKN020 QNH2998INS T22/1623Z T13/1712Z COR 1503 FS30167", "TAF KNTU 1615/1715 30006KT 9999 FEW120 FEW150 BKN250 QNH2995INS BECMG 0701/0703 VRB06KT 9999 VCSH SCT030 BKN050 BKN250 QNH2984INS TEMPO 0703/0707 6000 SHRA BKN030 OVC050 BECMG 0707/0709 18008KT 8000 BR BKN050 BKN120 OVC150 QNH2978INS T20/1621Z T16/1712Z FN00231", "TAF KNUW 1615/1715 VRB06KT 9999 FEW035 FEW050 SCT200 QNH2993INS BECMG 1704/1706 23009KT 9000 BR FEW003 FEW035 FEW050 SCT200 QNH2993INS TEMPO 1712/1715 3200 BCFG SCT003 SCT035 SCT050 BKN200 T21/1623Z T08/1712Z FS30201", "TAF KNXP 1615/1715 VRB05KT 9999 SCT080 QNH3000INS BECMG 1618/1620 VRB06KT 9999 SKC QNH3001INS BECMG 1702/1704 VRB05KT 9999 SKC QNH3005INS T26/1622Z T16/1714Z", "TAF KNYG 1615/1715 VRB06KT 9999 SCT100 QNH2994INS BECMG 1700/1702 18008KT 9999 BKN060 QNH2970INS TEMPO 1702/1708 3200 RA BR BKN008 BKN010 FM170930 22010KT 9999 BKN010 QNH2970INS T20/1620Z T15/1712Z", "TAF KNYL 1615/1715 VRB05KT 9999 SCT050 QNH2992INS BECMG 1618/1620 VRB06KT 9999 FEW050 QNH2991INS BECMG 1702/1704 VRB05KT 9999 SKC QNH2995INS T28/1622Z T19/1714Z", "TAF KNZY 1615/1715 VRB06KT 8000 BR OVC025 QNH2995INS FM162200 30009KT 9999 FEW020 QNH2998INS FM170000 34009KT 9999 FEW005 SCT020 QNH2994INS TEMPO 1706/1712 BKN009 OVC020 T24/1620Z T19/1709Z FS30199", "KOAJ 161120Z 1612/1712 22006KT P6SM FEW250 FM170000 21007KT P6SM BKN200 AMD LTD TO CLD VIS AND WIND", "KOAK 161131Z 1612/1718 24006KT P6SM OVC022 FM161730 24008KT P6SM BKN025 FM162200 29010KT P6SM FEW025 FEW200 FM170400 27008KT P6SM FEW020 SCT200 FM170700 VRB05KT P6SM SCT025 BKN040 FM171000 VRB04KT P6SM BKN025", "TAF KOFF 161000Z 1610/1716 32009KT 9999 SCT060 QNH3009INS TEMPO 1611/1615 BKN060 BECMG 1615/1616 32015G25KT 9999 SKC QNH3013INS BECMG 1623/1700 34009KT 9999 SKC QNH3018INS TX15/1620Z TN02/1710Z", "KOFK 161232Z 1613/1712 34011KT P6SM OVC040 FM161430 33012G21KT P6SM SCT045 FM161600 34016G25KT P6SM FEW050 FM161900 34018G28KT P6SM FEW250 FM170000 34011KT P6SM FEW250", "KOGB 161511Z 1615/1712 24004KT P6SM FEW250 FM170000 VRB03KT P6SM BKN250", "KOGD 161120Z 1612/1712 09010G20KT P6SM SKC FM161800 09010KT P6SM SKC", "KOKC 161120Z 1612/1712 01011G18KT P6SM VCSH BKN120 FM170000 35009KT P6SM BKN150 FM170600 01009KT P6SM SKC", "KOLF 161120Z 1612/1712 VRB04KT P6SM SCT110", "KOLM 161120Z 1612/1712 00000KT 4SM BR SKC FM161900 22006KT 3SM HZ SKC FM170200 00000KT P6SM SKC FM170800 VRB02KT 1/4SM FG FEW250", "KOLS 161133Z 1612/1712 19009KT P6SM SCT010 BKN040 TEMPO 1612/1614 BKN015 FM161600 23006KT P6SM BKN050 FM162000 26007KT P6SM SCT050 FM170200 VRB04KT P6SM FEW050 AMD NOT SKED", "KOMA 161120Z 1612/1712 33010KT P6SM OVC045 FM161530 33012G20KT P6SM SCT040 FM161800 33017G26KT P6SM FEW050 FM170000 34011KT P6SM SCT250", "KONP 161303Z 1613/1712 18004KT P6SM OVC006 FM161700 19008KT P6SM OVC006 FM162000 20011G17KT P6SM OVC006 FM170200 21006KT P6SM OVC007 AMD NOT SKED", "KONT 161138Z 1612/1718 VRB04KT P6SM OVC015 FM161900 26009KT P6SM SCT020 SCT040 FM170500 VRB04KT P6SM FEW035", "KOPF 161445Z 1615/1712 06012KT P6SM SCT030 FM162300 08008KT P6SM SCT035 SCT250 FM170300 08005KT P6SM FEW030 SCT250", "KORD 161500Z 1615/1718 30009KT P6SM BKN040 FM161600 29015G25KT P6SM BKN035", "KORF 161120Z 1612/1712 21007KT P6SM SCT250 FM170200 23005KT P6SM -SHRA BKN090 FM170800 20005KT 6SM RA BR OVC080", "KORH 161120Z 1612/1712 28005KT P6SM SKC FM161700 25004KT P6SM BKN100 FM162300 VRB03KT P6SM BKN080", "KOTH 161431Z 1615/1712 16006KT 6SM BR BKN009 OVC015 FM161900 27009KT P6SM OVC015 FM162200 29009KT P6SM BKN020 FM170200 20005KT 6SM BR OVC005", "KOTM 161138Z 1612/1712 30009KT P6SM FEW100 FM161700 31014G24KT P6SM BKN050 FM170000 32012KT P6SM SCT230", "KOUN 161120Z 1612/1712 01010G16KT P6SM VCSH BKN120 FM170000 36006KT P6SM BKN150 FM170700 01006KT P6SM SKC", "KOWB 161120Z 1612/1712 VRB03KT P6SM SCT150 FM161500 27011G17KT P6SM SCT250 FM170000 32006KT P6SM FEW250", "KOXR 161139Z 1612/1712 26006KT P6SM BKN015 OVC035 FM161900 28008KT P6SM SKC FM170300 VRB03KT P6SM SKC FM170900 VRB03KT 5SM BR OVC009", "TAF COR KOZR 160013Z 1600/1706 VRB05KT 9999 SKC QNH3002INS TX29/1619Z TN12/1611Z LAST NO AMDS AFT 1606 NEXT 1708", "KPAE 161120Z 1612/1712 09004KT 6SM HZ SKC FM161900 15007KT 4SM BR SKC FM170200 26004KT P6SM SKC FM170800 VRB02KT P6SM SKC", "KPAH 161613Z 1616/1712 28008KT P6SM SCT070 BKN250 TEMPO 1616/1618 -RA BKN070 FM170000 34005KT P6SM SCT250", "TAF KPAM 161100Z 1611/1717 08006KT 9999 SKC QNH3005INS BECMG 1615/1616 15009KT 9999 SKC QNH3007INS BECMG 1708/1709 25006KT 9999 SCT025 QNH2991INS BECMG 1714/1715 28006KT 8000 -SHRA BKN025 QNH2994INS TX30/1618Z TN17/1611Z", "KPBF 161139Z 1612/1712 02005KT P6SM -SHRA OVC035 TEMPO 1612/1615 3SM TSRA BR SCT025 OVC035CB FM161500 23005KT 4SM SHRA BR OVC030 FM162100 28006KT P6SM OVC035 FM170000 32005KT P6SM OVC250", "KPBG 161135Z 1612/1712 25003KT P6SM SKC FM161500 VRB04KT P6SM SCT220 FM170600 15006KT P6SM BKN100", "KPBI 161445Z 1615/1712 08012KT P6SM SCT030 FM162300 08008KT P6SM SCT035 SCT250 FM170500 10005KT P6SM SCT250", "KPDK 161139Z 1612/1712 22004KT P6SM FEW250 FM161500 25007KT P6SM FEW250 FM162300 24004KT P6SM BKN200 FM171100 29004KT P6SM BKN090", "KPDT 161129Z 1612/1712 15007KT P6SM SKC FM161800 33007KT P6SM SKC FM170600 15007KT P6SM SKC", "KPDX 161504Z 1615/1712 VRB03KT P6SM SKC WS020/10035KT FM161900 11009KT P6SM SKC FM170300 13004KT P6SM SKC", "KPEQ 161553Z 1616/1712 16008KT P6SM VCSH BKN100 TEMPO 1616/1618 2SM -RA BKN030 FM161800 05014G22KT P6SM VCTS BKN030CB FM162200 05016G23KT 6SM SHRA BR VCTS OVC012CB TEMPO 1700/1703 4SM TSRA OVC007CB FM170600 04013KT 5SM -SHRA VCTS OVC007CB", "KPGA 161120Z 1612/1712 VRB06KT P6SM SCT080 OVC150 FM161900 03010G18KT P6SM -SHRA VCTS BKN050CB OVC080 FM170200 VRB06KT P6SM SCT050 BKN080", "KPGD 161120Z 1612/1712 05005KT P6SM SKC FM161500 08009KT P6SM SCT040 FM170100 10004KT P6SM SKC", "KPGV 161120Z 1612/1712 25004KT P6SM SCT250 FM170500 21004KT P6SM BKN080 AMD LTD TO CLD VIS AND WIND", "KPHF 161120Z 1612/1712 25006KT P6SM SCT250 FM170300 VRB03KT 6SM -SHRA BR OVC070 FM170500 VRB03KT 6SM RA BR OVC040 FM170900 20004KT 6SM SHRA BR OVC060", "KPHL 161458Z 1615/1718 33005KT P6SM SCT100 BKN200 FM161700 25005KT P6SM SCT200 FM162200 20005KT P6SM BKN200 FM170200 VRB03KT P6SM BKN100 FM170800 19005KT P6SM OVC040 FM171200 22005KT P6SM VCSH SCT025 OVC035", "KPHX 161447Z 1615/1718 32005KT P6SM VCSH SCT070 BKN100 TEMPO 1615/1618 VRB05KT FM161800 22004KT P6SM VCSH SCT070 BKN110 FM170000 VRB05KT P6SM SCT080 SCT150 FM170500 09005KT P6SM SKC", "KPIA 161120Z 1612/1712 31005KT P6SM SKC FM161500 31008KT P6SM SKC FM161700 31012G20KT P6SM SCT050 FM170000 32009G16KT P6SM SCT150", "KPIB 161201Z 1612/1712 00000KT P6SM SKC FM161400 VRB04KT P6SM SKC", "KPIE 161120Z 1612/1712 08006KT P6SM SKC FM162000 32007KT P6SM FEW040 FM170100 10006KT P6SM SKC", "KPIH 161120Z 1612/1712 05009KT P6SM SKC FM162000 03005KT P6SM SKC FM170200 VRB05KT P6SM SKC", "KPIR 161120Z 1612/1712 34011KT P6SM FEW250 FM161500 33014G22KT P6SM FEW250 FM170100 36007KT P6SM FEW250", "KPIT 161503Z 1615/1718 20003KT P6SM BKN100 FM161800 22010G18KT P6SM FEW150 FM162200 VRB04KT P6SM BKN080", "KPKB 161500Z 1615/1712 22004KT P6SM SCT100 FM161700 22007G16KT P6SM SCT150 FM162300 21004KT P6SM SCT130", "KPLN 161120Z 1612/1712 00000KT P6SM VCSH BKN027 TEMPO 1612/1616 SCT029 BKN050 FM161800 28008G16KT P6SM -SHRA OVC027 FM170200 31005KT P6SM -SHRA OVC022 FM170300 31005KT 6SM -SHRA BR OVC018 FM170900 33007KT 6SM -SHRA BR BKN009", "KPMD 161139Z 1612/1712 19007KT P6SM SCT050 FM161500 VRB03KT P6SM SCT050 FM162200 26010KT P6SM SKC FM170600 21006KT P6SM SKC AMD LTD TO CLD AND VIS", "KPNA 161121Z 1612/1712 29005KT P6SM SKC FM161800 17006KT P6SM SKC FM170500 30005KT P6SM SKC", "KPNC 161120Z 1612/1712 01010KT P6SM SCT120 BKN250 FM170000 02007KT P6SM SKC", "KPNE 161136Z 1612/1712 33003KT P6SM BKN200 FM161800 27005KT P6SM SCT200 FM162200 VRB03KT P6SM BKN200 FM170800 VRB03KT P6SM BKN050", "KPNS 161140Z 1612/1712 04004KT P6SM FEW250 FM161700 14007KT P6SM FEW250 FM170100 18004KT P6SM FEW250", "TAF KPOE 161500Z 1615/1721 17006KT 9999 BKN030 QNH2999INS BECMG 1615/1616 14009KT 9999 BKN030 QNH3004INS BECMG 1617/1618 14009KT 9999 SCT025 QNH2997INS BECMG 1623/1624 VRB06KT 9999 SCT020 QNH2996INS BECMG 1711/1712 02012KT 8000 -SHRA BKN010 QNH2996INS TX30/1620Z TN17/1712Z", "KPOU 161124Z 1612/1712 00000KT P6SM FEW250 FM161400 34002KT P6SM BKN140 FM161900 26004KT P6SM BKN100 FM170400 00000KT P6SM SCT100 SCT250", "KPQI 161120Z 1612/1712 27003KT 2SM BR OVC003 FM161300 28004KT P6SM FEW006 FM161400 30004KT P6SM FEW250 FM170400 34003KT P6SM SCT100", "KPRB 161139Z 1612/1712 VRB03KT P6SM OVC012 FM161700 VRB03KT P6SM SCT015 FM162100 22010KT P6SM SKC FM170700 VRB03KT P6SM SKC", "KPRC 161120Z 1612/1712 19005KT P6SM BKN080 OVC120 FM161900 05007KT P6SM VCTS BKN070CB TEMPO 1620/1623 4SM TSRA BR BKN050CB OVC080 FM170100 21005KT P6SM SCT070", "KPSC 161129Z 1612/1712 VRB04KT P6SM SKC FM161800 35007KT P6SM SKC", "KPSF 161124Z 1612/1712 VRB03KT P6SM FEW250 FM161600 29004KT P6SM BKN250 FM162100 27003KT P6SM SCT120 FM170300 00000KT P6SM SCT250", "KPSM 161132Z 1612/1712 14005KT P6SM SKC", "KPSP 161139Z 1612/1712 33005KT P6SM VCSH BKN100 FM161600 VRB05KT P6SM SCT100", "KPTK 161430Z 1615/1712 25008KT P6SM SCT070 FM161600 28013G20KT P6SM SCT025 BKN040 FM161900 26013KT P6SM BKN050 FM170000 24010KT P6SM SCT025 BKN040 PROB30 1700/1704 6SM -RA OVC025 FM170500 27007KT 6SM -SHRA OVC025", "KPUB 161130Z 1612/1712 VRB06KT P6SM OVC080 FM161700 13007KT P6SM BKN050 OVC080 FM170200 VRB04KT P6SM FEW070 OVC200 FM170600 VRB04KT P6SM OVC250", "KPUW 161120Z 1612/1712 09012KT P6SM FEW250 FM161900 VRB05KT P6SM SKC", "KPVD 161511Z 1615/1712 VRB03KT P6SM BKN200 FM161800 23007KT P6SM BKN200 FM162100 VRB04KT P6SM BKN100", "KPVU 161120Z 1612/1712 VRB06KT P6SM SKC FM161900 34008KT P6SM SKC FM170600 15006KT P6SM SKC", "KPVW 161632Z 1617/1712 05015KT P6SM -SHRA BKN015 OVC050 FM170000 06009KT P6SM VCSH OVC030", "KPWM 161341Z 1614/1712 03006KT P6SM BKN006 FM161430 VRB04KT P6SM SCT250 FM161500 VRB03KT P6SM SKC", "KPWT 161302Z 1613/1712 00000KT 6SM HZ SKC FM162100 14009KT 5SM BR SKC FM170300 19003KT P6SM SKC FM170800 20002KT P6SM SKC", "KRAP 161120Z 1612/1712 33011KT P6SM BKN035 TEMPO 1612/1615 BKN025 FM161600 35015G25KT P6SM SKC FM170000 03008KT P6SM SKC", "KRBG 161625Z 1616/1712 VRB03KT 6SM HZ BKN006 FM161800 33005KT 6SM HZ FEW006 FM170000 00000KT 6SM HZ SKC", "KRBL 161120Z 1612/1712 VRB05KT P6SM SKC FM162000 18007KT P6SM SKC FM170600 VRB05KT P6SM SKC", "KRDD 161120Z 1612/1712 VRB06KT P6SM SKC", "KRDG 161136Z 1612/1712 VRB03KT P6SM BKN080 FM161500 30005KT P6SM SCT100 FM162100 VRB03KT P6SM BKN200 FM171000 00000KT P6SM BKN060", "KRDM 161129Z 1612/1712 17007KT P6SM SKC FM162100 32010KT P6SM SKC FM170500 17007KT P6SM SKC", "TAF AMD KRDR 161641Z 1616/1716 33020G30KT 9999 OVC028 510003 QNH3024INS TEMPO 1616/1618 36020G30KT 9000 -DZ OVC028 610034 BECMG 1700/1701 34012KT 9999 FEW040 QNH3031INS BECMG 1714/1715 36012G18KT 9999 SKC QNH3045INS TX04/1620Z TNM04/1710Z", "KRDU 161120Z 1612/1712 25007KT P6SM FEW110 BKN250 FM170100 20004KT P6SM VCSH SCT060 BKN080 OVC200 FM170600 VRB03KT 6SM -SHRA SCT025 BKN070 OVC100", "KRFD 161500Z 1615/1712 30015G25KT P6SM BKN040", "KRHI 161616Z 1616/1712 30009G19KT 4SM -SHRA BR OVC014 FM162200 30010G21KT P6SM -SHRASN OVC011 FM170200 31011G22KT 4SM -SHSN OVC014 FM170400 33013G26KT 3SM -SHSN OVC014 WS020/35040KT PROB30 1706/1712 3/4SM -SHSN", "KRIC 161120Z 1612/1712 VRB05KT P6SM BKN120 FM162100 24007KT P6SM OVC080 FM170000 19004KT 6SM RA BR OVC060 FM170500 18004KT 5SM RA BR OVC020 FM170900 20006KT 5SM BR OVC015", "KRIL 161120Z 1612/1712 18003KT P6SM FEW250 FM161600 33005KT P6SM SCT250 FM162200 31007KT P6SM BKN250 FM170300 33006KT P6SM FEW250", "TAF COR KRIV 161625Z 1615/1718 30006KT 9999 BKN010 BKN020 QNH2999INS BECMG 1616/1617 30006KT 9999 BKN015 BKN025 QNH3001INS BECMG 1618/1619 32007KT 9999 SCT018 BKN025 QNH2999INS TEMPO 1622/1702 32010G15KT BECMG 1702/1703 VRB04KT 9999 BKN010 QNH2999INS BECMG 1703/1704 VRB04KT 4800 BR OVC005 QNH3001INS BECMG 1707/1708 VRB04KT 8000 BR FEW005 QNH3001INS BECMG 1712/1713 VRB04KT 9999 NSW SKC QNH3002INS TX23/1622Z TN15/1713Z", "KRIW 161121Z 1612/1712 32008KT P6SM SKC FM161400 VRB05KT P6SM SKC FM161800 07007KT P6SM SKC FM170500 31006KT P6SM SKC", "KRKD 161132Z 1612/1712 00000KT 1/2SM FG VV001 FM161500 VRB03KT 4SM BR OVC003 FM161600 VRB04KT P6SM SCT008 FM162300 00000KT P6SM OVC150 AMD NOT SKED", "KRKS 161121Z 1612/1712 07010KT P6SM SKC FM170500 VRB05KT P6SM SKC", "KRME 161139Z 1612/1712 11003KT P6SM SCT200 FM161500 16006KT P6SM FEW100 FM162200 12004KT P6SM BKN100", "KRNH 161120Z 1612/1712 30010KT P6SM OVC035 FM161400 31012G20KT P6SM OVC025 FM161800 31015G23KT P6SM -SHRA OVC030 FM162100 32013G23KT P6SM BKN035 FM170600 33012G18KT P6SM BKN050", "KRNO 161120Z 1612/1712 VRB03KT P6SM SKC FM162200 09006KT P6SM SKC FM170300 VRB03KT P6SM SKC", "KROA 161120Z 1612/1712 29005KT P6SM BKN080 FM161400 26005KT P6SM SCT040 BKN150 FM161800 25010KT P6SM VCSH BKN070 OVC120 FM162300 24007KT 5SM -SHRA BR OVC060 FM170600 26004KT 3SM -SHRA BR OVC035", "KROC 161502Z 1615/1712 22009KT P6SM BKN100 FM161700 24010KT P6SM SCT100 FM162300 20006KT P6SM SCT080 FM170100 19005KT P6SM BKN070 FM170800 21004KT P6SM VCSH OVC035", "KROG 161120Z 1612/1712 VRB05KT P6SM BKN100 OVC200 FM161800 35009KT P6SM OVC200", "KROW 161641Z 1617/1712 36014G24KT P6SM VCSH SCT020 BKN035 TEMPO 1617/1619 5SM RA BR FEW006 OVC010 FM162000 03018G28KT 6SM -RA BR OVC015 FM170100 02012KT 4SM -RA BR OVC012", "KRSL 161120Z 1612/1712 34010KT P6SM SCT250 FM170000 35009KT P6SM FEW250", "KRST 161128Z 1612/1712 29009KT P6SM OVC060 FM161600 31014G24KT P6SM BKN025 FM161900 31017G27KT P6SM BKN035 FM170300 33015G25KT P6SM SCT050", "KRSW 161120Z 1612/1712 04006KT P6SM SKC FM161500 08009KT P6SM SCT040 FM170100 10005KT P6SM SKC", "KRUT 161135Z 1612/1712 11007KT P6SM SKC FM161500 32004KT P6SM FEW170 FM162300 14005KT P6SM FEW170", "KRVS 161120Z 1612/1712 01007KT P6SM SCT100 BKN150 BKN250", "KRWF 161120Z 1612/1712 31010KT P6SM BKN070 FM161400 32018G26KT P6SM BKN035 FM162300 33012G20KT P6SM SCT250 FM170600 33011KT P6SM FEW250", "KRWI 161120Z 1612/1712 25007KT P6SM FEW120 BKN250 FM170300 21004KT P6SM VCSH SCT070 BKN090 BKN200 WS012/24035KT FM170800 VRB03KT 6SM -SHRA SCT025 BKN070 OVC100", "KRWL 161120Z 1612/1712 04007KT P6SM SKC FM162000 36008KT P6SM SKC", "KRYY 161139Z 1612/1712 23004KT P6SM FEW250 FM161500 26007KT P6SM FEW250 FM162300 24004KT P6SM BKN200", "KSAC 161120Z 1612/1712 18008KT P6SM BKN025 TEMPO 1612/1616 BKN015 FM161900 20009KT P6SM SCT250 FM171100 17007KT P6SM BKN025", "KSAF 161635Z 1617/1712 06010KT P6SM VCSH SCT025 BKN050 TEMPO 1616/1618 VRB10G20KT 5SM -SHRA BR FEW015 BKN025 FM161800 10014G20KT 4SM RA BR OVC030 FM170000 03012KT 5SM -RA BR OVC020 FM170600 02008KT 4SM -RA BR OVC018", "KSAN 161455Z 1615/1718 VRB04KT P6SM BKN025 OVC040 FM161800 VRB04KT P6SM SCT025 BKN035 FM162000 30010KT P6SM SCT040 FM170300 31005KT P6SM BKN025 FM170600 VRB04KT P6SM OVC020", "KSAT 161120Z 1612/1718 16007KT P6SM BKN011 BKN028 BKN250 FM161600 15008KT P6SM SCT060 SCT250 FM170000 11009KT P6SM BKN060 OVC250 FM170600 07010KT P6SM VCTS OVC020CB FM170900 03012KT 5SM -TSRA OVC010CB", "KSAV 161120Z 1612/1712 00000KT P6SM SKC FM161500 24004KT P6SM SKC FM161900 19005KT P6SM SCT250", "KSAW 161137Z 1612/1712 VRB03KT P6SM SCT040 BKN100 FM161400 31006KT P6SM VCSH BKN027 FM161600 32007KT 6SM -SHRA BR OVC023 FM170500 32012KT 2SM -SHSNRA BR OVC010 FM170700 32013G23KT 2SM -SHSNRA BR OVC010 FM170900 34015G26KT 1SM -SHSN BR OVC008", "KSBA 161139Z 1612/1712 VRB03KT P6SM SCT015 OVC035 FM161800 16008KT P6SM SCT035 FM162000 23008KT P6SM SKC FM170300 VRB03KT P6SM SKC FM170900 VRB03KT 5SM BR OVC009", "KSBD 161138Z 1612/1712 VRB04KT P6SM OVC013 FM161800 25004KT P6SM SCT025 BKN040 FM162200 26008KT P6SM SCT040 FM170300 VRB05KT P6SM SCT035", "KSBM 161120Z 1612/1712 28008KT P6SM BKN090 FM161500 29011G18KT P6SM OVC025 FM162000 29015G23KT P6SM VCSH OVC035 FM170200 30014G24KT P6SM VCSH OVC030", "KSBN 161120Z 1612/1712 21008KT P6SM SCT080 FM161400 28009KT P6SM FEW250 FM161600 29010G20KT P6SM BKN060 FM170900 30013G25KT P6SM OVC035", "KSBP 161139Z 1612/1712 VRB03KT P6SM OVC017 FM161900 30010KT P6SM SKC FM170300 VRB03KT P6SM SKC FM170600 VRB03KT 5SM BR OVC008", "KSBY 161120Z 1612/1712 18006KT P6SM SCT250 FM161500 29004KT P6SM BKN250 FM170100 16005KT 6SM -SHRA BKN080 FM170900 20005KT 6SM SHRA BR OVC025", "KSCK 161120Z 1612/1712 33006KT P6SM SCT025 TEMPO 1612/1616 BKN015 FM161800 33009KT P6SM BKN250 FM171100 34006KT P6SM SCT025", "KSDF 161120Z 1612/1718 18004KT P6SM BKN250 FM161500 23006KT P6SM SCT100 BKN250 FM161900 26011G19KT P6SM BKN250 FM170000 30008KT P6SM SCT250", "KSDL 161133Z 1612/1712 VRB04KT P6SM SCT070 BKN100 FM161800 VRB06KT P6SM VCSH SCT070 BKN120 FM162000 22007KT P6SM SCT250 FM170400 VRB04KT P6SM SKC", "KSDY 161120Z 1612/1712 31009KT P6SM FEW150", "KSEA 161451Z 1615/1718 05005KT 6SM HZ SKC FM161900 31007KT 4SM HZ SKC FM162100 29008KT 5SM HZ SKC FM170300 27005KT P6SM SKC FM170600 32005KT P6SM SKC", "KSEZ 161120Z 1612/1712 03009KT P6SM VCSH BKN040 OVC080 FM161800 13006KT P6SM -SHRA BKN040 OVC060 TEMPO 1619/1623 4SM TSRA BR BKN030CB OVC050 FM170200 04012KT P6SM BKN070", "KSFB 161120Z 1612/1712 03003KT P6SM SKC FM161500 09007KT P6SM FEW040 FM170100 13003KT P6SM SCT250", "KSFF 161120Z 1612/1712 VRB05KT P6SM FEW250", "KSFO 161500Z 1615/1718 24006KT P6SM FEW016 OVC030 FM162000 24010KT P6SM SCT025 FM162300 28012KT P6SM FEW250 FM170400 25008KT P6SM FEW020 SCT200 FM170800 23007KT P6SM BKN030 FM171200 VRB04KT P6SM BKN022", "KSGF 161120Z 1612/1712 VRB03KT P6SM BKN250 FM161400 35006KT P6SM BKN250 FM161700 34012KT P6SM SCT250 FM170100 35008KT P6SM SKC", "KSGJ 161120Z 1612/1712 VRB04KT P6SM SKC FM161600 07008KT P6SM SCT250 FM170200 16004KT P6SM SCT025 SCT250 FM170800 23006KT P6SM BKN250", "KSGR 161122Z 1612/1712 15005KT P6SM SCT020 BKN035 FM162000 11008KT P6SM VCSH SCT040 SCT250 FM170300 13006KT P6SM SCT250 FM170800 01009KT 6SM BR VCTS SCT015 BKN020CB", "KSGU 161120Z 1612/1712 14006KT P6SM SCT250 FM161500 VRB05KT P6SM SCT250", "KSHR 161127Z 1612/1712 VRB06KT P6SM FEW250", "KSHV 161502Z 1615/1712 04006KT P6SM FEW018 SCT040 OVC250 TEMPO 1615/1616 BKN022 FM161600 34006KT P6SM VCSH SCT025 BKN035 BKN100 FM162100 35006KT P6SM OVC250 FM170000 36010KT P6SM OVC100 FM170300 35008KT P6SM OVC050", "KSJC 161131Z 1612/1712 17007KT P6SM OVC025 FM161730 25004KT P6SM FEW030 FM162200 32008KT P6SM SKC FM170400 VRB05KT P6SM SCT250", "KSJS 161136Z 1612/1712 00000KT P6SM BKN060 FM161900 24007KT P6SM -SHRA BKN070 FM162200 VRB05KT P6SM VCSH BKN070", "KSJT 161147Z 1612/1712 19006KT P6SM FEW100 BKN250 FM161900 03010KT P6SM VCSH OVC050 FM162100 02016G22KT 6SM -SHRA VCTS BKN050CB FM170300 02012KT 6SM -SHRA BR VCTS OVC015CB FM170800 02008KT 6SM SHRA BR VCTS OVC007CB", "TAF KSKA 161100Z 1611/1717 05007KT 9000 HZ SKC QNH3013INS BECMG 1616/1617 05007KT 9999 NSW SKC QNH3009INS TX22/1623Z TN09/1612Z", "TAF AMD KSKF 161124Z 1611/1716 14009KT 9999 BKN011 OVC017 QNH2989INS TEMPO 1612/1615 OVC009 BECMG 1614/1615 14010KT 9999 SCT012 BKN030 QNH2987INS BECMG 1617/1618 16012KT 9999 SCT040 QNH2975INS BECMG 1705/1706 09010KT 9999 SCT020 OVC060 QNH2972INS BECMG 1710/1711 05012G18KT 9999 VCSH SCT012 OVC025 QNH2974INS BECMG 1712/1713 02018G28KT 9000 -SHRA VCTS SCT007 BKN012CB OVC020 QNH2979INS TX32/1621Z TN22/1613Z", "KSLC 161516Z 1615/1718 23010KT P6SM SKC FM161900 29009KT P6SM SKC FM170300 14007KT P6SM SKC", "KSLE 161130Z 1612/1712 VRB02KT P6SM SKC FM161800 21004KT P6SM SKC FM162300 26006KT P6SM SKC FM170400 20003KT P6SM SKC", "TAF KSLI 161300Z 1613/1719 VRB06KT 8000 BR FEW010 OVC017 QNH2995INS BECMG 1617/1618 VRB06KT 8000 BR BKN004 OVC011 QNH3003INS BECMG 1619/1620 VRB06KT 8000 DZ BR OVC011 QNH2999INS BECMG 1706/1707 VRB06KT 9999 NSW FEW011 SCT018 QNH3003INS BECMG 1707/1708 VRB06KT 9000 BR SCT011 OVC018 QNH3000INS BECMG 1711/1712 VRB06KT 8000 BR SCT011 QNH2998INS TX20/1700Z TN16/1714Z", "KSLK 161135Z 1612/1712 00000KT P6SM SCT170 TEMPO 1612/1613 1/4SM FZFG VV001 FM161400 22004KT P6SM FEW160 FM170200 16004KT P6SM SCT140", "KSLN 161120Z 1612/1712 35008KT P6SM SCT250 FM161800 35012KT P6SM SCT250 FM170100 01007KT P6SM FEW250", "KSME 161136Z 1612/1712 00000KT P6SM BKN060 FM161500 VRB05KT P6SM BKN110 FM161700 24007KT P6SM BKN050 OVC090 FM162100 25007KT 6SM SHRA BR BKN060 FM162300 25006KT P6SM VCSH OVC060", "KSMF 161120Z 1612/1712 15008KT P6SM BKN025 TEMPO 1612/1616 BKN015 FM161900 18006KT P6SM SCT250 FM171100 15007KT P6SM BKN025", "KSMN 161120Z 1612/1712 31005KT P6SM SKC", "KSMO 161139Z 1612/1712 VRB03KT P6SM SCT035 FM161800 24008KT P6SM SKC FM170300 VRB03KT P6SM SKC FM170700 VRB03KT P6SM OVC015", "KSMX 161139Z 1612/1712 VRB03KT P6SM OVC022 FM161900 30010KT P6SM SKC FM170300 VRB03KT 5SM BR OVC007 FM170900 VRB03KT 1/2SM FG VV002", "KSNA 161532Z 1616/1712 VRB04KT P6SM SCT025 FM162000 23008KT P6SM SCT040 FM170200 VRB04KT P6SM SCT040 FM170400 VRB04KT P6SM BKN020", "KSNS 161131Z 1612/1712 VRB04KT P6SM OVC022 FM161730 29004KT P6SM BKN025 FM162000 29012KT P6SM FEW025 FM170400 VRB05KT P6SM FEW020 SCT200 FM170600 VRB04KT P6SM OVC020", "KSNY 161120Z 1612/1712 30010KT P6SM SKC FM161500 34013KT P6SM SKC FM161800 34014G23KT P6SM SKC FM162200 35013KT P6SM SKC FM170000 03006KT P6SM SKC FM170600 24006KT P6SM SKC", "KSOA 161147Z 1612/1712 VRB06KT P6SM BKN015 FM161700 14008KT P6SM BKN050 FM162200 10009KT P6SM -SHRA VCTS BKN050CB FM170100 02012G18KT P6SM -SHRA VCTS BKN035CB FM170400 02011KT 5SM SHRA VCTS OVC015CB", "KSPI 161621Z 1616/1712 31012G21KT P6SM SCT050 FM170000 32010G18KT P6SM SCT250", "KSPS 161400Z 1614/1712 05010KT P6SM SCT015 BKN100 TEMPO 1614/1616 6SM -SHRA BKN007 FM161600 02014G22KT P6SM VCSH BKN015 FM170000 36010KT P6SM SCT060 BKN120", "KSRQ 161120Z 1612/1712 08006KT P6SM SKC FM161800 12008KT P6SM FEW040 FM162200 30008KT P6SM SKC FM170100 10005KT P6SM SKC", "TAF KSSC 161500Z 1615/1721 23006KT 9999 SKC QNH2990INS BECMG 1708/1709 21006KT 9999 SCT250 QNH2984INS BECMG 1717/1718 23010G15KT 9999 SCT100 BKN160 QNH2974INS TX28/1620Z TN16/1710Z", "KSSF 161132Z 1612/1712 14006KT P6SM OVC010 FM161600 14008KT P6SM SCT060 SCT250 FM170000 11008KT P6SM BKN060 OVC250 FM170600 07010KT P6SM VCTS OVC020CB FM170900 03012KT 5SM -TSRA OVC010CB", "KSSI 161120Z 1612/1712 VRB03KT P6SM FEW250 FM161600 13007KT P6SM FEW250 FM170200 18004KT P6SM SCT250 FM170800 23006KT P6SM BKN250", "KSTC 161120Z 1612/1712 31012G20KT P6SM OVC050 FM161300 32012G22KT P6SM BKN025 FM161800 32017G26KT P6SM BKN035 FM170000 33012G20KT P6SM SCT100 FM170600 33011KT P6SM SCT200", "KSTJ 161120Z 1612/1712 35006KT P6SM SKC FM161700 32012G20KT P6SM SCT060 FM170000 35008KT P6SM SKC", "KSTL 161458Z 1615/1718 30007KT P6SM FEW070 FM161800 33012KT P6SM SCT250", "KSTS 161131Z 1612/1712 00000KT P6SM OVC015 FM161630 VRB05KT P6SM BKN020 OVC030 FM162000 19008KT P6SM SCT030 SCT250 FM170400 VRB03KT P6SM BKN200 FM170800 VRB03KT P6SM BKN025 BKN200", "KSUA 161120Z 1612/1712 08007KT P6SM SCT035 FM161500 08010KT P6SM SCT035 FM170100 10004KT P6SM FEW030 AMD NOT SKED", "KSUN 161120Z 1612/1718 32010KT P6SM SKC FM161800 13010KT P6SM SKC FM170100 30004KT P6SM SKC FM170700 32011KT P6SM SKC AMD LTD TO CLD VIS AND WIND TIL 161400", "KSUS 161120Z 1612/1712 30004KT P6SM SCT250 FM161800 33008KT P6SM SCT250", "TAF KSUU 161100Z 1611/1717 23015G25KT 9999 OVC020 QNH2986INS BECMG 1700/1701 23012G18KT 9999 SKC QNH2996INS BECMG 1710/1711 23009KT 9999 SKC QNH2999INS TX22/1623Z TN13/1612Z", "KSUX 161120Z 1612/1712 31007KT P6SM OVC050 FM161400 33012G17KT P6SM SCT050 FM162000 33016G24KT P6SM FEW250 FM170400 33006KT P6SM FEW250", "KSWF 161432Z 1615/1718 33005KT P6SM SCT150 BKN250 FM161900 28007KT P6SM SCT100 FM170000 VRB03KT P6SM SCT070 FM171400 19006KT P6SM VCSH BKN025 AMD NOT SKED", "KSWO 161120Z 1612/1712 02009KT P6SM BKN120 FM170100 01006KT P6SM SKC", "KSYM 161136Z 1612/1712 00000KT P6SM SCT200 FM161800 23007KT P6SM BKN110", "KSYR 161139Z 1612/1712 14003KT P6SM FEW050 FM161500 20007KT P6SM FEW100 FM162200 13006KT P6SM BKN100", "TAF KSZL 161100Z 1611/1717 02006KT 9999 FEW040 QNH3005INS BECMG 1618/1619 32010G15KT 9999 SKC QNH3008INS TEMPO 1620/1700 31015G25KT BECMG 1701/1702 33009KT 9999 SKC QNH3011INS TX20/1620Z TN02/1711Z", "KTCC 161454Z 1615/1712 04011KT 6SM -RA SCT025 BKN080 TEMPO 1615/1618 04012G20KT 3SM -RA BR OVC020 FM162000 07008KT 5SM -RA BR OVC015 FM170000 05007KT 4SM -RA BR OVC010 FM170600 VRB06KT 4SM BR VCSH OVC007", "KTCL 161120Z 1612/1712 VRB03KT P6SM SCT250 FM161600 25009KT P6SM SCT250 FM170000 22006KT P6SM SCT050 BKN250 FM170700 VRB03KT P6SM BKN250", "TAF AMD KTCM 161455Z 1614/1719 VRB06KT 8000 HZ SKC QNH2991INS BECMG 1619/1620 22006KT 6000 HZ SKC QNH2994INS BECMG 1702/1703 25006KT 9999 NSW SKC QNH2998INS BECMG 1709/1710 VRB06KT 4800 BR OVC003 QNH3006INS TEMPO 1711/1715 0800 FG BECMG 1716/1717 21009KT 9999 NSW FEW020 SCT050 QNH3013INS TX23/1622Z TN04/1614Z", "KTCS 161143Z 1612/1712 02011G20KT P6SM VCSH BKN060 FM161900 03010G20KT P6SM VCTS OVC060CB FM170200 06012KT P6SM SHRA OVC030", "KTEB 161432Z 1615/1718 01005KT P6SM BKN150 FM161800 27006KT P6SM SCT150 FM162300 VRB03KT P6SM BKN070 FM171400 19005KT 6SM -SHRA BKN025 OVC050", "KTEX 161120Z 1612/1712 05004KT P6SM BKN080 FM161900 04008KT P6SM OVC150 FM162000 23008KT P6SM BKN110 FM170100 08005KT P6SM OVC080 FM170600 VRB05KT P6SM SCT080", "TAF KTIK 160900Z 1609/1715 VRB06KT 9000 -SHRA SCT045 OVC060 QNH2999INS BECMG 1611/1612 VRB06KT 9999 NSW SCT045 OVC060 QNH3003INS BECMG 1621/1622 36010G15KT 9999 FEW085 BKN130 BKN230 QNH3009INS BECMG 1700/1701 VRB06KT 9999 FEW230 FEW310 QNH3010INS TX20/1622Z TN08/1709Z", "KTIX 161120Z 1612/1712 07007KT P6SM FEW035 FM161500 08010KT P6SM SCT035 FM170100 11003KT P6SM FEW030 SCT250", "KTLH 161120Z 1612/1712 00000KT P6SM SKC FM161800 19005KT P6SM SCT050 FM170000 00000KT P6SM SKC FM170800 00000KT 3SM BR SCT002", "KTMB 161445Z 1615/1712 07012KT P6SM SCT025 FM161800 07012KT P6SM VCTS SCT030CB BKN050 FM162300 08008KT P6SM SCT035 SCT250 FM170200 08005KT P6SM FEW030 SCT250", "KTOI 161120Z 1612/1712 VRB03KT P6SM FEW250 FM161700 28007KT P6SM FEW250 FM170100 25005KT P6SM SCT250", "KTOL 161125Z 1612/1712 23006KT P6SM SCT080 FM162000 28012KT P6SM BKN150 FM170700 26012G22KT P6SM SCT025 BKN035", "KTOP 161120Z 1612/1712 34005KT P6SM SCT200 FM161900 32011KT P6SM FEW200 FM170000 34005KT P6SM SKC", "KTPA 161501Z 1615/1718 11009KT P6SM FEW030 FM162100 30007KT P6SM FEW040 FM170100 10004KT P6SM SKC", "KTPH 161120Z 1612/1712 VRB06KT P6SM SKC", "KTRI 161120Z 1612/1712 VRB03KT P6SM BKN050 BKN150 FM161500 25007KT P6SM SCT040 OVC100 PROB30 1622/1704 4SM TSRA BR BKN040CB FM170400 VRB03KT P6SM VCSH BKN040 FM170600 00000KT P6SM BKN030", "KTRK 161120Z 1612/1712 VRB03KT P6SM SKC FM162200 14005KT P6SM SKC FM170200 VRB03KT P6SM SKC", "KTRM 161140Z 1612/1712 VRB05KT P6SM VCSH BKN100 FM161600 VRB04KT P6SM SCT100 AMD NOT SKED", "KTTD 161130Z 1612/1712 09015G23KT P6SM SKC FM170000 10011KT P6SM SKC FM170700 10005KT P6SM SKC", "KTTN 161136Z 1612/1712 33005KT P6SM BKN200 FM161600 27005KT P6SM SCT100 FM162000 VRB03KT P6SM BKN200 FM171000 VRB03KT P6SM BKN050", "KTUL 161120Z 1612/1712 01007KT P6SM SCT100 BKN150 BKN250", "KTUP 161128Z 1612/1712 00000KT P6SM SCT090 OVC250 FM161600 29006KT P6SM VCSH BKN070 OVC100 FM170000 34005KT P6SM OVC120 FM170900 02009KT P6SM SKC", "KTUS 161334Z 1614/1712 15005KT P6SM SCT005 BKN070 FM161900 30007KT P6SM SCT070 FM170400 15007KT P6SM FEW070", "KTVC 161120Z 1612/1712 25005KT P6SM SCT027 BKN040 OVC050 FM161400 27007KT P6SM OVC027 FM170100 29007KT P6SM -SHRA OVC018 FM170600 30008KT 5SM -SHRA BR OVC011", "KTVF 161224Z 1612/1712 33014G23KT P6SM SCT020 OVC060 TEMPO 1612/1615 BKN020 FM161500 33017G26KT P6SM BKN022 FM162000 34019G27KT P6SM BKN030 FM162300 34016G24KT P6SM SCT070 FM170400 34010KT P6SM SCT150", "KTVL 161120Z 1612/1712 VRB03KT P6SM SKC FM162200 17005KT P6SM SKC FM170100 VRB03KT P6SM SKC", "KTWF 161501Z 1615/1712 VRB06KT P6SM SKC FM161800 06011KT P6SM SKC FM170300 17008KT P6SM SKC", "KTXK 161250Z 1613/1712 00000KT P6SM VCTS FEW023 BKN035CB BKN110 TEMPO 1613/1615 VRB08G17KT 2SM -TSRA BKN020 OVC025CB FM161600 VRB04KT 6SM -RA BR SCT015 BKN070 FM162100 25005KT P6SM OVC050 FM170000 33004KT P6SM OVC100", "KTYR 161604Z 1616/1712 09011KT P6SM VCTS FEW005 SCT011 OVC017CB TEMPO 1616/1618 VRB10G22KT 2SM -TSRA BKN004 OVC015CB FM161800 VRB05KT P6SM BKN025 OVC250 FM162000 03010KT P6SM VCSH OVC035 FM170000 01011KT 6SM -RA OVC100", "KTYS 161120Z 1612/1712 VRB04KT P6SM BKN080 FM161600 24008KT P6SM SCT050 OVC080 PROB30 1623/1705 4SM TSRA BR BKN040CB FM170500 00000KT P6SM BKN030", "KUAO 161130Z 1612/1712 05005KT P6SM SKC FM162100 15006KT P6SM SKC FM170200 22006KT P6SM SKC FM171000 VRB02KT P6SM SCT012", "KUES 161611Z 1616/1712 27007KT P6SM VCSH SCT025 OVC029 TEMPO 1616/1619 -RA FM170200 29013G22KT P6SM BKN035 FM170400 29014G24KT P6SM BKN030 FM170900 30016G28KT P6SM BKN035", "KUIN 161120Z 1612/1712 31006KT P6SM SKC FM161800 30013G22KT P6SM SKC FM170000 33010KT P6SM FEW250", "KUKI 161227Z 1612/1712 15003KT P6SM OVC015 TEMPO 1619/1622 SKC FM162200 18005KT P6SM SKC FM170200 VRB01KT P6SM BKN100", "KUNV 161501Z 1615/1712 00000KT P6SM BKN110 FM162200 22004KT P6SM BKN080 OVC150", "KUTS 161250Z 1613/1712 VRB04KT P6SM OVC005 FM161400 17005KT P6SM FEW020 SCT040 BKN250 FM162000 30007KT P6SM SCT045 BKN250 FM170400 03006KT P6SM VCTS SCT020CB BKN030 FM170700 03009KT 6SM BR VCSH OVC015", "TAF AMD KVAD 161630Z 1616/1716 12006KT 9999 SKC QNH2994INS BECMG 1707/1708 18006KT 9999 SCT030 QNH2993INS TX29/1620Z TN16/1710Z LAST NO AMDS AFT 1616 NEXT 1708", "KVCT 161133Z 1612/1712 VRB02KT 6SM BR SCT012 TEMPO 1612/1614 3SM BR BKN012 FM161400 15007KT P6SM SCT020 SCT035 TEMPO 1614/1618 BKN020 BKN035 FM161800 13009KT P6SM SCT040 FM170200 11006KT P6SM FEW020 SCT250 FM170800 05006KT P6SM VCSH BKN015 BKN250 PROB30 1709/1712 5SM -SHRA OVC012", "KVEL 161120Z 1612/1712 05004KT P6SM SKC FM161500 05009KT P6SM SKC FM170000 04010KT P6SM SKC FM170200 36008KT P6SM FEW250", "KVGT 161120Z 1612/1712 VRB04KT P6SM FEW120 BKN200 FM161800 11006KT P6SM FEW120 FEW200 FM170300 18006KT P6SM SKC", "KVIS 161120Z 1612/1712 VRB04KT P6SM SKC", "KVLD 161120Z 1612/1712 18003KT P6SM SKC FM171000 00000KT 5SM BR SCT003", "KVNY 161400Z 1614/1712 00000KT P6SM OVC011 FM161600 VRB03KT P6SM SCT012 FM162100 14008KT P6SM SCT040 FM170300 VRB03KT P6SM SKC FM170900 VRB03KT 6SM BR OVC010", "TAF KVPS 160900Z 1609/1715 04005KT 9999 FEW025 QNH3002INS WND 09008KT AFT 1615 BECMG 1617/1618 16008KT 9999 FEW035 QNH2998INS BECMG 1712/1713 36008KT 9999 SCT035 QNH3000INS TX30/1619Z TN12/1611Z", "KVQQ 161120Z 1612/1712 VRB03KT P6SM FEW250 FM162000 13005KT P6SM FEW250 FM170200 19004KT 5SM BR FEW012 BKN250", "KVRB 161120Z 1612/1712 06005KT P6SM SCT030 FM161500 08011KT P6SM SCT035 FM170100 11004KT P6SM FEW030", "KVTN 161448Z 1615/1712 34014G20KT P6SM SCT030 FM170100 33006KT P6SM SCT250", "KWJF 161139Z 1612/1712 VRB05KT P6SM SCT050 FM162200 25010KT P6SM SKC FM170800 VRB05KT P6SM SKC", "KWMC 161120Z 1612/1712 04010KT P6SM SKC", "TAF KWRB 161600Z 1616/1722 VRB06KT 9999 SKC QNH3009INS BECMG 1707/1708 VRB06KT 9999 SCT100 BKN250 QNH3003INS TX28/1620Z TN11/1712Z", "TAF KWRI 161000Z 1610/1716 30003KT 9999 BKN250 QNH2996INS BECMG 1611/1612 33006KT 9999 BKN200 QNH2990INS BECMG 1617/1618 25006KT 9999 SCT100 QNH2986INS BECMG 1623/1624 VRB03KT 9999 BKN100 QNH2976INS BECMG 1706/1707 15008KT 6000 -RA OVC035 QNH2972INS BECMG 1709/1710 19008KT 9000 -SHRA OVC020 QNH2967INS TX21/1619Z TN07/1611Z", "KWRL 161121Z 1612/1712 VRB05KT P6SM SKC", "KWWR 161120Z 1612/1712 01010KT P6SM BKN120 FM170200 33005KT P6SM SKC", "KWYS 161120Z 1612/1712 VRB03KT P6SM VCFG FEW250 FM161700 VRB06KT P6SM SKC", "KXNA 161120Z 1612/1712 VRB05KT P6SM BKN100 OVC200 FM161800 35009KT P6SM OVC200", "KXWA 161120Z 1612/1712 34010KT P6SM SCT200 FM170000 35010KT P6SM SCT100 FM170200 VRB05KT P6SM SCT080 FM170500 VRB05KT P6SM FEW150", "KYIP 161429Z 1614/1712 25008KT P6SM SCT070 FM161700 28013G20KT P6SM SCT025 BKN040 FM161900 26013KT P6SM BKN050 FM170000 24010KT P6SM SCT025 BKN040 PROB30 1700/1704 6SM -RA OVC025 FM170600 27007KT 6SM -SHRA OVC025", "KYKM 161129Z 1612/1712 28008KT P6SM SKC FM161800 12007KT P6SM SKC FM170400 25007KT P6SM SKC", "KYNG 161125Z 1612/1712 19004KT P6SM VCSH BKN060 FM161400 21010KT P6SM BKN100 FM162000 24007KT P6SM SCT150 FM170600 27008KT P6SM BKN050", "KZZV 161126Z 1612/1712 11003KT P6SM BKN100 FM161700 23010G18KT P6SM FEW150 FM162200 21004KT P6SM BKN080", "TAF LBBG 161100Z 1612/1712 01012KT 9999 SCT030", "TAF LBGO 161100Z 1612/1712 VRB04KT 9999 SCT060 BECMG 1623/1701 3000 BR BKN010 TEMPO 1701/1705 0600 BCFG SCT002 BKN007 BECMG 1706/1708 9999 SCT060", "TAF LBPD 161100Z 1612/1712 10010KT 9999 SCT070 BECMG 1618/1620 VRB04KT TEMPO 1702/1705 4000 BR", "TAF LBSF 161100Z 1612/1712 06010KT CAVOK BECMG 1616/1618 VRB04KT TEMPO 1700/1706 2000 BR SCT007 PROB40 1703/1706 0500 BCFG BKN002 BECMG 1708/1710 06010KT", "TAF LBWN 161100Z 1612/1712 01010KT 9999 SCT030 BECMG 1617/1619 VRB04KT BECMG 1703/1705 01010KT", "TAF LCEN 161040Z 1612/1712 30012KT 9999 SCT030 BKN100 PROB30 TEMPO 1612/1615 5000 TSRA FEW025CB TEMPO 1703/1706 5000 TSRA FEW025CB BKN030 BKN080", "TAF LCLK 161130Z 1612/1712 35009KT 9999 SCT025 SCT050 PROB30 TEMPO 1612/1712 5000 SHRA SCT020TCU PROB30 TEMPO 1612/1620 VRB25G35KT 3000 TSRA SCT020CB BECMG 1707/1711 18012KT", "TAF LCPH 161130Z 1612/1712 10010KT 9999 SCT025 SCT050 PROB30 TEMPO 1612/1712 5000 SHRA SCT020TCU PROB30 TEMPO 1612/1712 VRB25G35KT 3000 TSRA SCT020CB BECMG 1616/1620 04009KT BECMG 1706/1710 10012KT", "TAF LDDU 161125Z 1612/1712 27008KT CAVOK TX22/1711Z TN15/1705Z BECMG 1617/1619 05005KT", "TAF LDLO 161125Z 1612/1712 30005KT CAVOK TX22/1612Z TN16/1703Z PROB30 TEMPO 1612/1614 20006KT", "TAF LDOS 161125Z 1612/1712 11005KT CAVOK TX22/1613Z TN06/1704Z", "TAF LDPL 161125Z 1612/1712 30005KT 9999 SCT050 TX23/1711Z TN12/1702Z PROB30 TEMPO 1613/1616 27007KT BECMG 1710/1712 29007KT", "TAF LDRI 161125Z 1612/1712 VRB02KT CAVOK TX23/1613Z TN12/1703Z PROB30 TEMPO 1612/1615 32006KT", "TAF LDSP 161125Z 1612/1712 23008KT CAVOK TX23/1612Z TN14/1705Z PROB40 TEMPO 1612/1615 23010KT BECMG 1615/1617 30004KT BECMG 1710/1712 23007KT", "TAF LDZA 161125Z 1612/1712 VRB02KT CAVOK TX20/1614Z TN08/1703Z BECMG 1619/1621 2000 BR BECMG 1621/1623 0200 FG BECMG 1700/1702 VV002 BECMG 1707/1709 3000 BR BKN003 BECMG 1709/1711 8000 NSW FEW010", "TAF LDZD 161125Z 1612/1712 28007KT CAVOK TX23/1612Z TN10/1705Z BECMG 1615/1617 32003KT BECMG 1620/1622 3000 BR MIFG PROB40 TEMPO 1623/1706 0700 FG PROB30 TEMPO 1701/1706 0300 FG BECMG 1707/1709 6000 NSW BECMG 1710/1712 28008KT", "TAF LEAB 161100Z 1612/1712 16008KT CAVOK TX28/1615Z TN13/1706Z PROB30 TEMPO 1700/1709 4000 RA SHRA SCT040TCU PROB30 TEMPO 1702/1706 VRB15G25KT 3000 TSRA SCT040CB", "TAF LEAG 161400Z 1615/1715 VRB03KT CAVOK TX24/1615Z TN18/1706Z PROB30 TEMPO 1700/1704 29010KT BECMG 1708/1710 07010KT", "TAF LEAL 161100Z 1612/1712 11007KT CAVOK TX29/1612Z TN18/1705Z BECMG 1618/1620 VRB04KT TEMPO 1621/1706 02010KT TEMPO 1706/1708 29010KT BECMG 1708/1710 08015KT", "TAF AMD LEAM 161539Z 1615/1712 04010KT CAVOK TX28/1615Z TN21/1706Z BECMG 1621/1623 34009KT", "TAF LEAO 161400Z 1615/1715 18008KT CAVOK TX28/1615Z TN11/1706Z PROB30 TEMPO 1617/1712 FEW040TCU PROB30 TEMPO 1700/1712 4000 RA SHRA SCT040TCU PROB30 TEMPO 1700/1705 VRB15G25KT 3000 TSRA SCT040CB", "TAF LEAS 161400Z 1615/1715 22009KT CAVOK TX24/1714Z TN14/1706Z PROB40 TEMPO 1615/1620 36010KT TEMPO 1619/1709 BKN010 PROB40 TEMPO 1619/1709 3000 BR BKN005 PROB40 TEMPO 1712/1715 06010KT", "TAF LEBA 161400Z 1615/1715 08010KT CAVOK TX31/1615Z TN17/1706Z BECMG 1615/1617 VRB03KT PROB30 TEMPO 1618/1705 13010KT SHRA FEW035TCU SCT050", "TAF LEBB 161100Z 1612/1712 19008KT 9999 FEW025 TX29/1613Z TN17/1705Z TEMPO 1614/1618 VRB04KT", "TAF LEBG 161400Z 1615/1715 21012KT 9999 FEW035 TX25/1615Z TN12/1706Z PROB40 TEMPO 1615/1620 21020G30KT PROB30 1620/1712 4000 RA SHRA SCT030TCU", "TAF LEBL 161100Z 1612/1712 14006KT 9999 FEW015 TX26/1612Z TN20/1706Z BECMG 1616/1619 07006KT PROB40 TEMPO 1620/1710 BKN010 PROB30 TEMPO 1708/1712 FEW100CB", "TAF LEBZ 161400Z 1615/1715 VRB02KT CAVOK TX29/1615Z TN14/1706Z PROB30 1615/1702 4000 SHRA FEW030TCU SCT045", "TAF COR LECO 161449Z 1615/1715 20009KT 9999 SCT010 BKN020 TX22/1713Z TN13/1705Z PROB40 TEMPO 1618/1709 3000 RADZ BR BKN010 TEMPO 1705/1710 3000 RA PROB40 TEMPO 1705/1709 3000 SHRA SCT020TCU", "TAF LECV 161100Z 1612/1712 VRB05KT CAVOK TX23/1615Z TN14/1706Z PROB30 TEMPO 1612/1616 18010KT PROB40 TEMPO 1617/1706 FEW040TCU PROB30 TEMPO 1700/1706 4000 RA SHRA SCT040TCU", "TAF LEGE 161100Z 1612/1712 18012KT 9999 FEW020 TX27/1613Z TN18/1705Z BECMG 1620/1622 VRB04KT TEMPO 1618/1709 BKN010 PROB40 TEMPO 1618/1706 3000 BR BKN010 BECMG 1710/1712 16010KT", "TAF LEGR 161100Z 1612/1712 VRB02KT 9999 FEW050 SCT090 TX30/1615Z TN14/1706Z BECMG 1613/1615 15010KT BECMG 1620/1622 VRB02KT PROB30 TEMPO 1621/1706 SHRA FEW040TCU BKN080", "TAF LEGT 161100Z 1612/1712 VRB05KT CAVOK TX27/1615Z TN16/1706Z PROB30 TEMPO 1612/1616 21010KT PROB40 TEMPO 1617/1706 FEW040TCU PROB30 TEMPO 1700/1706 4000 RA SHRA SCT040TCU", "TAF LEHC 161400Z 1615/1715 12009KT 9999 FEW060 TX24/1713Z TN18/1705Z PROB30 TEMPO 1709/1715 SHRA FEW060TCU", "TAF LEIB 161400Z 1615/1715 VRB04KT 9999 FEW010 TX27/1712Z TN18/1705Z BECMG 1618/1620 09009KT PROB30 TEMPO 1700/1706 3000 BR BKN010 TEMPO 1702/1706 VRB04KT BECMG 1705/1707 06012KT", "TAF LEJR 161400Z 1615/1715 15010KT CAVOK TX30/1615Z TN15/1706Z BECMG 1703/1705 VRB02KT", "TAF LELC 161100Z 1612/1712 12007KT CAVOK TX27/1613Z TN19/1706Z BECMG 1620/1622 02010KT PROB30 TEMPO 1700/1706 BKN010", "TAF LELL 161400Z 1615/1715 12009KT 9999 SCT020 TX26/1713Z TN18/1705Z TEMPO 1621/1709 BKN010 PROB30 TEMPO 1621/1706 3000 BR BKN010 BECMG 1621/1623 07007KT BECMG 1709/1711 12007KT", "TAF LELN 161400Z 1615/1715 19012KT CAVOK TX20/1615Z TN11/1706Z TEMPO 1702/1708 VRB05KT PROB40 TEMPO 1618/1715 3000 RA SHRA SCT040TCU PROB30 TEMPO 1702/1709 3000 BR BKN010", "TAF LELO 161400Z 1615/1715 10010KT CAVOK TX30/1615Z TN13/1706Z PROB40 TEMPO 1615/1619 18010KT PROB30 TEMPO 1620/1706 4000 RA SHRA SCT040TCU", "TAF AMD LEMD 161328Z 1613/1718 VRB05KT CAVOK TX27/1615Z TN13/1706Z PROB30 TEMPO 1613/1617 21010KT PROB30 TEMPO 1615/1617 20015G25KT PROB30 TEMPO 1702/1707 17010KT TEMPO 1711/1716 20010KT PROB40 TEMPO 1617/1706 FEW040TCU PROB30 TEMPO 1700/1706 4000 RA SHRA SCT040TCU PROB30 TEMPO 1713/1716 VRB15G25KT 3000 TSRA SCT040CB", "TAF LEMG 161100Z 1612/1712 13007KT 9999 FEW060 TX27/1613Z TN18/1706Z BECMG 1615/1617 VRB02KT PROB40 TEMPO 1622/1706 29006KT", "TAF LEMH 161400Z 1615/1715 11009KT 9999 SCT010 TX25/1712Z TN19/1705Z TEMPO 1615/1715 BKN010", "TAF LEMO 161400Z 1615/1715 27010KT CAVOK TX29/1615Z TN15/1703Z BECMG 1617/1619 VRB03KT PROB40 TEMPO 1619/1622 15010KT", "TAF AMD LEPA 161631Z 1616/1712 22010KT 9999 FEW020 TX27/1712Z TN18/1706Z BECMG 1616/1619 06005KT PROB30 TEMPO 1622/1707 4000 BR BKN014 BECMG 1706/1708 08009KT PROB30 TEMPO 1708/1712 FEW100CB", "TAF LEPP 161400Z 1615/1715 16014KT CAVOK TX28/1615Z TN15/1706Z PROB40 TEMPO 1615/1617 16018G28KT PROB40 TEMPO 1700/1706 VRB03KT", "TAF LERI 161100Z 1612/1712 VRB02KT CAVOK TX28/1613Z TN14/1706Z PROB30 TEMPO 1615/1618 15010KT", "TAF LERL 161400Z 1615/1715 18008KT CAVOK TX28/1615Z TN11/1706Z PROB30 TEMPO 1617/1712 FEW040TCU PROB30 TEMPO 1700/1712 4000 RA SHRA SCT040TCU PROB30 TEMPO 1700/1705 VRB15G25KT 3000 TSRA SCT040CB", "TAF LERS 161400Z 1615/1715 14009KT 9999 SCT020 TX26/1712Z TN18/1705Z TEMPO 1618/1715 BKN010 TEMPO 1618/1621 VRB04KT BECMG 1621/1623 04009KT PROB30 TEMPO 1621/1706 3000 BR BKN010 BECMG 1709/1711 10009KT PROB30 TEMPO 1709/1715 RA BKN010", "TAF AMD LERT 161540Z 1615/1715 13014KT CAVOK TX29/1615Z TN19/1706Z TEMPO 1615/1617 20009KT BECMG 1701/1703 VRB02KT", "TAF LESA 161400Z 1615/1715 22012KT CAVOK TX25/1715Z TN11/1706Z PROB40 TEMPO 1615/1617 22022G32KT BECMG 1618/1620 VRB05KT BECMG 1708/1710 20012KT PROB30 TEMPO 1615/1706 4000 RA SHRA SCT040TCU PROB30 TEMPO 1618/1621 VRB15G25KT 3000 TSRA SCT040CB", "TAF LESO 161100Z 1612/1712 19009KT 9999 FEW030 TX30/1614Z TN19/1706Z PROB40 TEMPO 1619/1623 19019G29KT", "TAF LEST 161100Z 1612/1712 21009KT 6000 SCT005 BKN016 TX18/1712Z TN13/1624Z PROB30 TEMPO 1612/1618 0800 DZ BCFG BKN002 PROB40 TEMPO 1612/1614 19015G25KT PROB40 TEMPO 1612/1712 3000 RADZ BR BKN005 BKN010 PROB40 TEMPO 1618/1709 1500 SHRA SCT030TCU", "TAF LESU 161400Z 1615/1715 20009KT 9999 FEW080 TX24/1713Z TN11/1705Z BECMG 1616/1618 VRB04KT BECMG 1710/1712 20009KT PROB30 TEMPO 1709/1715 SHRA FEW060TCU", "TAF LETO 161100Z 1612/1712 VRB05KT CAVOK TX27/1615Z TN11/1706Z PROB30 TEMPO 1612/1616 21010KT PROB30 TEMPO 1702/1707 17010KT PROB40 TEMPO 1617/1706 FEW040TCU PROB30 TEMPO 1700/1706 4000 RA SHRA SCT040TCU", "TAF LEVC 161100Z 1612/1712 08005KT CAVOK TX30/1612Z TN18/1705Z BECMG 1612/1614 10009KT BECMG 1616/1618 05005KT BECMG 1622/1624 VRB04KT PROB40 TEMPO 1700/1706 BKN010 PROB30 TEMPO 1700/1706 3000 BR BKN010 BECMG 1708/1710 08010KT", "TAF LEVD 161400Z 1615/1715 22012KT CAVOK TX25/1715Z TN12/1706Z PROB40 TEMPO 1615/1617 22022G32KT BECMG 1618/1620 VRB05KT BECMG 1708/1710 20012KT PROB40 TEMPO 1618/1706 4000 RA SHRA SCT040TCU", "TAF LEVS 161100Z 1612/1712 VRB05KT CAVOK TX25/1615Z TN16/1706Z PROB30 TEMPO 1612/1616 21010KT PROB40 TEMPO 1617/1706 FEW040TCU PROB30 TEMPO 1700/1706 4000 RA SHRA SCT040TCU", "TAF LEVT 161100Z 1612/1712 22009KT 9999 FEW035 TX28/1615Z TN14/1706Z PROB40 TEMPO 1612/1613 22015G25KT TEMPO 1708/1712 16012KT", "TAF LEVX 161100Z 1612/1712 19009KT 6000 SCT005 BKN016 TX19/1712Z TN14/1706Z TEMPO 1612/1712 3000 RA BR BKN005 BKN010 PROB40 TEMPO 1612/1703 0800 DZ BCFG BKN002 PROB40 TEMPO 1614/1623 1500 +SHRA BKN030TCU PROB40 TEMPO 1700/1706 3000 BR BKN010", "TAF LEXJ 161400Z 1615/1715 20009KT CAVOK TX28/1713Z TN15/1706Z", "TAF LEZG 161100Z 1612/1712 12012KT 9999 FEW050 TX30/1613Z TN18/1705Z TEMPO 1618/1706 BKN010 PROB40 TEMPO 1621/1706 1500 BR BKN005 TEMPO 1706/1709 VRB04KT TEMPO 1706/1712 4000 RA SHRA FEW050TCU PROB30 TEMPO 1706/1709 3000 TSRA FEW050CB", "TAF LEZL 161400Z 1615/1715 04010KT CAVOK TX29/1615Z TN19/1706Z PROB40 TEMPO 1616/1702 25006KT", "TAF AMD LFAQ 161538Z 1615/1624 15008KT 9999 BKN030 TEMPO 1615/1618 3000 RA BKN015 SCT030CB", "TAF LFAT 161400Z 1615/1624 15007KT 9999 BKN035 TEMPO 1615/1619 3000 RA BKN007 SCT025CB", "TAF LFBA 161400Z 1615/1624 12013KT CAVOK PROB30 TEMPO 1621/1624 BKN014", "TAF LFBD 161100Z 1612/1718 14010KT CAVOK TX27/1614Z TN18/1706Z BECMG 1612/1614 20010KT BECMG 1618/1620 14010KT PROB30 TEMPO 1703/1708 -SHRA SCT070TCU TEMPO 1711/1714 4000 SHRA BKN070TCU", "TAF LFBE 161100Z 1612/1712 16010KT CAVOK PROB40 TEMPO 1612/1706 16015G25KT PROB30 TEMPO 1703/1708 -SHRA SCT080TCU", "TAF LFBH 161100Z 1612/1712 14010KT 9999 SCT030 BECMG 1613/1615 20012KT BECMG 1618/1620 VRB03KT TEMPO 1700/1712 VRB15G25KT 4500 -SHRA SCT060TCU", "TAF LFBI 161100Z 1612/1712 18010KT 9999 SCT030 PROB30 TEMPO 1618/1624 4500 -SHRA SCT040TCU PROB40 TEMPO 1703/1712 VRB15G25KT 4000 SHRA SCT060TCU", "TAF LFBL 161100Z 1612/1712 18010KT CAVOK TEMPO 1618/1707 16015G25KT PROB30 TEMPO 1705/1709 -SHRA SCT080TCU", "TAF LFBM 161400Z 1615/1715 12005KT CAVOK TEMPO 1708/1715 SHRA BKN080TCU", "TAF LFBO 161100Z 1612/1718 14013KT CAVOK TEMPO 1612/1718 14018G28KT PROB40 TEMPO 1619/1622 BKN015 PROB40 TEMPO 1622/1705 BKN012", "TAF LFBP 161100Z 1612/1712 VRB03KT CAVOK PROB30 TEMPO 1619/1701 14008KT BECMG 1709/1711 13008KT", "TAF LFBT 161100Z 1612/1712 VRB03KT CAVOK BECMG 1619/1621 19010KT TEMPO 1621/1701 20017G27KT BECMG 1710/1712 VRB03KT", "TAF LFBU 161100Z 1612/1712 17010KT CAVOK TEMPO 1612/1616 17015G25KT TEMPO 1622/1708 14015G25KT PROB30 TEMPO 1705/1709 -SHRA SCT060TCU", "TAF LFBZ 161100Z 1612/1712 18010KT CAVOK TEMPO 1620/1624 18015G25KT BECMG 1701/1703 VRB03KT TEMPO 1703/1705 SCT090TCU BECMG 1705/1707 12005KT", "TAF LFCK 161400Z 1615/1624 13025G35KT CAVOK TEMPO 1615/1624 13030G43KT PROB30 TEMPO 1621/1624 BKN012", "TAF LFCR 161100Z 1612/1712 13018G28KT CAVOK PROB30 TEMPO 1621/1709 BKN015", "TAF LFGJ 161400Z 1615/1624 20015G25KT CAVOK", "TAF LFJL 161100Z 1612/1712 16008KT CAVOK", "TAF LFKB 161400Z 1615/1715 10010KT 9999 SCT020 TX25/1712Z TN14/1703Z BECMG 1616/1618 VRB03KT TEMPO 1618/1706 BKN014 BECMG 1708/1710 12010KT", "TAF LFKC 161400Z 1615/1715 35010KT CAVOK TX26/1713Z TN15/1703Z BECMG 1617/1619 16005KT BECMG 1709/1710 35010KT", "TAF LFKF 161400Z 1615/1715 10010KT CAVOK TEMPO 1615/1616 09015G25KT TEMPO 1618/1706 BKN012", "TAF LFKJ 161400Z 1615/1715 21010KT CAVOK BECMG 1617/1619 05005KT BECMG 1710/1712 21010KT", "TAF LFKS 161400Z 1615/1715 12010KT CAVOK BECMG 1618/1620 27005KT PROB30 TEMPO 1700/1706 BKN014 BECMG 1707/1709 12010KT", "TAF LFLB 161400Z 1615/1715 36005KT CAVOK TEMPO 1618/1709 18005KT", "TAF LFLC 161100Z 1612/1712 18015KT CAVOK TEMPO 1612/1712 18020G30KT", "TAF LFLL 161100Z 1612/1718 18015G25KT CAVOK TEMPO 1612/1616 18020G35KT BECMG 1700/1704 18012KT BECMG 1709/1712 18015G25KT", "TAF LFLN 161400Z 1615/1624 16010KT CAVOK", "TAF LFLP 161400Z 1615/1715 24006KT CAVOK", "TAF LFLS 161400Z 1615/1715 21010KT CAVOK PROB30 TEMPO 1619/1701 BKN012", "TAF LFLW 161400Z 1615/1624 13015KT CAVOK TEMPO 1615/1624 13018G30KT", "TAF LFLX 161100Z 1612/1718 15008KT CAVOK PROB40 TEMPO 1709/1715 21010KT PROB40 TEMPO 1715/1718 -SHRA FEW050TCU", "TAF LFLY 161100Z 1612/1712 18015G25KT CAVOK TEMPO 1612/1617 18022G37KT BECMG 1700/1704 18012KT BECMG 1709/1712 18015G25KT", "TAF LFMD 161400Z 1615/1715 14006KT CAVOK", "TAF LFMI 161400Z 1615/1715 15017KT 9999 BKN030 TX26/1712Z TN14/1705Z BECMG 1619/1622 09006KT CAVOK BECMG 1712/1714 18012KT", "TAF LFMK 161400Z 1615/1715 09018G30KT 9999 BKN025 BECMG 1616/1618 OVC012 TEMPO 1620/1707 OVC007 BECMG 1707/1709 BKN018", "TAF LFML 161400Z 1615/1721 15014KT 9999 FEW026 TX26/1713Z TN17/1705Z BECMG 1620/1622 08006KT BECMG 1711/1713 17012KT CAVOK", "TAF LFMN 161400Z 1615/1721 11007KT 9999 FEW018 BECMG 1619/1621 34010KT BECMG 1709/1711 10008KT BECMG 1719/1721 34010KT", "TAF LFMO 161400Z 1615/1715 17010KT 9999 BKN040 TX24/1615Z TN09/1705Z PROB30 TEMPO 1701/1707 1500 MIFG", "TAF LFMP 161400Z 1615/1715 12010KT 9999 FEW030", "TAF LFMT 161400Z 1615/1715 12012KT 9999 BKN010 OVC025 TEMPO 1615/1715 12015G25KT TEMPO 1615/1620 BKN020 PROB40 TEMPO 1620/1703 2000 -DZ BR OVC008", "TAF LFMU 161400Z 1615/1715 13010KT 9999 BKN006 OVC030 TEMPO 1618/1709 12015G25KT BKN005 OVC010 PROB30 TEMPO 1620/1706 3000 BR OVC003", "TAF LFMV 161400Z 1615/1715 18015KT 9999 FEW040 BECMG 1617/1620 15005KT", "TAF LFOA 160800Z 1609/1709 15007KT CAVOK TX23/1615Z TN13/1706Z", "TAF AMD LFOB 161512Z 1615/1712 13007KT 9999 BKN025 TEMPO 1615/1618 3000 RA BKN013 SCT030CB TEMPO 1703/1705 3000 RA BKN007", "TAF LFOE 161400Z 1615/1715 16008KT 9999 SCT030 PROB30 TEMPO 1615/1617 SCT025TCU TEMPO 1703/1710 4000 RA TEMPO 1709/1712 BKN010 TEMPO 1712/1715 SCT020TCU", "TAF AMD LFOH 161358Z 1613/1712 21010KT 9999 BKN022 TEMPO 1613/1618 16015G25KT 3000 RA BKN007 SCT030CB PROB30 1613/1618 1200 TSRA BKN030CB TEMPO 1708/1711 3000 RA BKN007", "TAF LFOJ 161400Z 1615/1715 17008KT CAVOK TX22/1715Z TN16/1705Z PROB30 TEMPO 1705/1715 SCT080TCU", "TAF LFOK 161100Z 1612/1712 17007KT 9999 BKN025 TEMPO 1612/1618 BKN010 ", "TAF AMD LFOP 161356Z 1613/1712 19010KT 9999 BKN040 TEMPO 1613/1618 3000 RA BKN007 SCT030CB PROB30 1613/1618 1200 TSRA BKN030CB PROB30 1703/1706 BKN007", "TAF LFOT 161100Z 1612/1712 17008KT 9999 BKN020 TEMPO 1704/1710 -SHRA SCT060TCU", "TAF LFPB 161100Z 1612/1712 15008KT 9999 SCT030 PROB30 TEMPO 1707/1711 4000 -RA", "TAF LFPG 161100Z 1612/1718 15008KT 9999 SCT030 TX20/1615Z TN15/1706Z PROB30 TEMPO 1707/1711 4000 -RA", "TAF LFPN 161400Z 1615/1624 16008KT 9999 BKN023", "TAF LFPO 161100Z 1612/1718 16006KT 9999 BKN016 BECMG 1613/1616 CAVOK TEMPO 1705/1718 -RA PROB40 TEMPO 1714/1718 4000 RA SCT040TCU PROB30 TEMPO 1715/1718 2500 -TSRA BKN030CB", "TAF LFPV 161400Z 1615/1715 20008KT 9999 BKN018 BKN140 TX20/1715Z TN16/1705Z TEMPO 1706/1711 4000 RA TEMPO 1711/1714 BKN013", "TAF AMD LFQQ 161513Z 1615/1718 17010KT 9999 BKN040 TEMPO 1616/1620 3000 RA BKN007 SCT030CB TEMPO 1706/1712 3000 RA BKN007 PROB30 1706/1712 1200 TSRA BKN030CB TEMPO 1712/1718 BKN010", "TAF AMD LFRB 161612Z 1616/1718 19020G30KT 9999 BKN025 TEMPO 1616/1618 5000 RA BKN007 BKN015TCU TEMPO 1618/1709 BKN012 BECMG 1622/1624 22010KT PROB40 TEMPO 1620/1703 3000 RA BKN005 BKN020TCU PROB40 TEMPO 1703/1709 3000 BR BKN005 BECMG 1714/1716 16010KT PROB30 TEMPO 1715/1718 4000 SHRA BKN010 BKN015TCU", "TAF LFRC 161400Z 1615/1624 15012KT 9999 SCT025 TEMPO 1615/1618 3000 RA BKN013 PROB40 TEMPO 1616/1618 15015G25KT BECMG 1618/1621 20015G25KT", "TAF AMD LFRD 161125Z 1612/1712 15010KT 9999 BKN030 TEMPO 1612/1615 2500 RA BKN005 BKN015TCU BECMG 1618/1620 20010KT TEMPO 1620/1707 BKN013 TEMPO 1700/1707 3000 RA BKN008 PROB40 TEMPO 1707/1712 4000 RA BKN010 BKN015TCU", "TAF LFRG 161400Z 1615/1624 15010KT 9999 SCT025 TEMPO 1615/1617 3000 RA BKN013", "TAF LFRH 161100Z 1612/1712 16010G25KT 9999 BKN006 TEMPO 1612/1616 3000 RA BKN003 OVC010 BECMG 1616/1618 22010G20KT BECMG 1622/1624 BKN008 OVC020 TEMPO 1623/1706 3000 RA BKN003 OVC010 BECMG 1708/1710 16005KT", "TAF LFRI 161100Z 1612/1712 14010KT 9999 NSW SCT015 BECMG 1615/1617 20010KT BECMG 1620/1622 VRB04KT PROB40 TEMPO 1622/1703 3000 BR TEMPO 1703/1712 4500 -SHRA BKN030TCU", "TAF LFRJ 161100Z 1612/1621 12007KT 9999 BKN016 TEMPO 1612/1617 4000 RA BKN009 TEMPO 1613/1618 15015G30KT", "TAF LFRK 161400Z 1615/1624 15010KT 9999 SCT025 TEMPO 1615/1616 3000 RA BKN013 BECMG 1621/1624 21010KT", "TAF LFRM 161100Z 1612/1712 17010KT 9999 SCT040 BECMG 1623/1701 VRB03KT TEMPO 1703/1712 4500 -SHRA SCT040TCU", "TAF AMD LFRN 161125Z 1612/1712 15010KT 9999 BKN030 TEMPO 1612/1613 2500 RA BR BKN005 BKN015TCU TEMPO 1622/1624 3000 BR BKN003 PROB40 TEMPO 1700/1707 3000 RA BKN005 PROB40 TEMPO 1707/1712 4000 RA BKN015TCU", "TAF AMD LFRQ 161525Z 1615/1712 18015G30KT 9999 BKN025 TEMPO 1615/1617 2500 RA BR BKN004 BKN015TCU BECMG 1618/1620 21010KT TEMPO 1618/1706 BKN013 TEMPO 1622/1706 4000 RA BKN005 BKN020TCU BECMG 1703/1706 20006KT PROB40 TEMPO 1706/1709 0500 FG VV/// PROB40 TEMPO 1709/1712 4000 SHRA BKN010 BKN015TCU", "TAF LFRS 161100Z 1612/1718 14010KT 9999 SCT040 BECMG 1614/1616 20012KT BECMG 1620/1622 VRB03KT PROB40 TEMPO 1622/1703 3000 BR TEMPO 1703/1718 4000 -RA", "TAF LFRZ 161100Z 1612/1712 19010KT 9999 SCT015 BKN025 TEMPO 1612/1613 SCT080CB TEMPO 1703/1712 4000 -RA", "TAF LFSB 161100Z 1612/1712 15006KT CAVOK", "TAF LFSI 161400Z 1615/1715 12008KT CAVOK", "TAF LFSL 161400Z 1615/1624 15010KT CAVOK TEMPO 1615/1624 15015G25KT", "TAF LFST 161100Z 1612/1712 VRB04KT CAVOK PROB40 TEMPO 1702/1706 4000 MIFG", "TAF LFTH 161400Z 1615/1715 10012KT 9999 SCT026 PROB40 TEMPO 1619/1622 BKN014 BECMG 1622/1623 04005KT BECMG 1708/1710 10012KT CAVOK", "TAF LFTW 161400Z 1615/1715 15015KT 9999 SCT020 BKN036 BECMG 1620/1622 VRB04KT BKN014 TEMPO 1622/1701 BKN009 BECMG 1709/1712 17010KT CAVOK", "TAF LFVP 161400Z 1615/1624 09020KT 9999 FEW008 SCT023 OVC100 BECMG 1615/1618 10025G35KT 3500 -RA BR OVC003 BECMG 1618/1621 11030G45KT PROB30 TEMPO 1621/1624 1500 RA BR OVC003", "TAF LGAD 161400Z 1615/1624 02012KT 9999 FEW025", "TAF LGAL 161400Z 1615/1624 03015KT 9999 FEW030 TEMPO 1615/1621 03015G25KT", "TAF LGAV 161100Z 1612/1712 01020KT 9999 FEW018 SCT025 TEMPO 1612/1712 01023G33KT", "TAF LGBL 161400Z 1615/1624 32008KT 9999 FEW025", "TAF LGEL 161100Z 1612/1712 35016KT 9999 FEW018 SCT030 TEMPO 1612/1712 35018G28KT", "TAF LGHI 161400Z 1615/1624 01018KT 9999 SCT025 TEMPO 1615/1624 01018G28KT", "TAF LGIO 161400Z 1615/1624 VRB03KT 9999 FEW030", "TAF LGIR 161100Z 1612/1712 36020KT 9999 FEW012 FEW018TCU BKN020 TEMPO 1612/1712 34018G28KT PROB40 TEMPO 1612/1712 5000 RA FEW018TCU BKN020 BKN070 PROB30 TEMPO 1612/1614 3000 TSRA SCT006 FEW018CB BKN020 BKN070 TEMPO 1612/1712 35022G34KT", "TAF LGKC 161400Z 1615/1624 02018KT 9999 FEW020 TEMPO 1615/1624 02022G33KT", "TAF LGKF 161400Z 1615/1624 VRB05KT 9999 FEW018 BECMG 1621/1623 03010KT", "TAF LGKL 161400Z 1615/1624 34010KT 9999 FEW025", "TAF LGKO 161100Z 1612/1712 36018KT 9999 SCT018 TEMPO 1612/1712 35018G30KT", "TAF LGKP 161400Z 1615/1624 35020G30KT 9999 SCT020 PROB30 TEMPO 1615/1616 5000 RA BKN020", "TAF LGKR 161100Z 1612/1712 VRB05KT 9999 FEW018", "TAF LGKV 161100Z 1612/1712 05013KT 9999 FEW030", "TAF LGLM 161400Z 1615/1624 04018G28KT 9999 FEW020", "TAF LGLR 161400Z 1615/1624 VRB03KT 9999 FEW025", "TAF LGMK 161400Z 1615/1624 01025G36KT 9999 SCT012", "TAF LGMT 161400Z 1615/1624 36015KT 9999 FEW020 SCT025 TEMPO 1615/1624 36016G28KT", "TAF LGPZ 161100Z 1612/1712 06010KT 9999 FEW018 TEMPO 1615/1618 33010KT", "TAF LGRP 161100Z 1612/1712 32012KT 9999 SCT018 PROB30 TEMPO 1612/1618 5000 RA SCT008 FEW016TCU BKN020 PROB30 TEMPO 1612/1615 3000 TSRA SCT015 FEW018CB BKN020 TEMPO 1618/1703 32012G22KT", "TAF LGRX 161400Z 1615/1624 04014KT 9999 FEW025", "TAF LGSA 161100Z 1612/1712 35018KT 9999 FEW018TCU SCT020 BKN060 TEMPO 1612/1712 34018G28KT PROB40 TEMPO 1612/1712 5000 RA FEW018TCU BKN020 BKN070 PROB30 TEMPO 1612/1614 4000 TSRA SCT012 FEW018CB BKN020 BKN070 TEMPO 1612/1712 35018G30KT", "TAF LGSK 161400Z 1615/1624 02016KT 9999 FEW018 SCT025", "TAF LGSM 161400Z 1615/1624 36015KT 9999 FEW020 TEMPO 1615/1621 36015G26KT", "TAF LGSR 161100Z 1612/1712 35025KT 9999 SCT025 TEMPO 1612/1712 35025G35KT", "TAF LGST 161400Z 1615/1624 32025G35KT 9999 FEW016TCU BKN020 PROB40 TEMPO 1615/1624 5000 RA SCT016 FEW018TCU BKN020", "TAF LGSY 161400Z 1615/1624 01020G30KT 9999 SCT025", "TAF LGTG 161400Z 1615/1624 35014KT 9999 SCT025", "TAF LGTL 161400Z 1615/1624 36015G25KT 9999 FEW010 BKN020 PROB30 TEMPO 1615/1624 5000 RA SCT008 BKN020", "TAF LGTS 161100Z 1612/1712 VRB03KT 9999 FEW030 PROB30 1702/1706 5000 BR SCT008", "TAF LGZA 161400Z 1615/1624 02015KT 9999 FEW018", "TAF LHBP 161115Z 1612/1712 15007KT CAVOK BECMG 1615/1618 09005KT TEMPO 1621/1706 VRB02KT 7000 MIFG BECMG 1707/1710 15007KT", "TAF LHDC 161415Z 1615/1624 VRB03KT CAVOK", "TAF LHKE 161415Z 1615/1624 16008KT CAVOK TEMPO 1615/1620 12004KT", "TAF LHPA 161115Z 1612/1712 19009KT CAVOK BECMG 1614/1617 15005KT PROB30 TEMPO 1702/1706 VRB02KT 8000 MIFG BCFG NSC BECMG 1707/1710 17010KT", "TAF LHPP 161415Z 1615/1624 VRB03KT CAVOK", "TAF LHPR 161415Z 1615/1624 14010KT CAVOK BECMG 1616/1619 16004KT", "TAF LHSM 161115Z 1612/1621 18008KT CAVOK BECMG 1616/1619 VRB02KT", "TAF LHSN 161415Z 1615/1624 16005KT CAVOK TEMPO 1615/1620 10003KT", "TAF LIBA 161400Z 1615/1624 09008KT CAVOK BECMG 1619/1621 28006KT 6000 NSC", "TAF LIBC 161100Z 1612/1712 05010KT CAVOK BECMG 1616/1618 34006KT BECMG 1707/1709 04010KT", "TAF LIBD 161100Z 1612/1712 VRB06KT CAVOK", "TAF LIBF 161100Z 1612/1712 VRB05KT CAVOK TEMPO 1622/1706 4000 BR", "TAF LIBG 161400Z 1615/1624 03005KT CAVOK", "TAF LIBP 161100Z 1612/1712 09010KT CAVOK BECMG 1613/1615 VRB05KT TEMPO 1622/1706 4000 BR BECMG 1710/1712 04010KT", "TAF LIBR 161100Z 1612/1712 36010KT CAVOK BECMG 1616/1618 28006KT BECMG 1707/1709 34011KT", "TAF LIBV 161400Z 1615/1624 01008KT CAVOK BECMG 1618/1620 5000 BR NSC", "TAF LICA 161100Z 1612/1712 25010KT CAVOK BECMG 1617/1619 VRB05KT BECMG 1709/1711 25010KT", "TAF LICB 161100Z 1612/1712 25010KT 9999 FEW030 BECMG 1616/1618 VRB04KT BECMG 1709/1711 25010KT", "TAF LICC 161100Z 1612/1712 09010KT CAVOK BECMG 1616/1618 VRB05KT BECMG 1709/1711 10010KT", "TAF LICD 161100Z 1612/1712 15008KT 9999 FEW020", "TAF LICG 161400Z 1615/1624 15008KT 9999 SCT020", "TAF LICJ 161100Z 1612/1712 04010KT 9999 FEW030 BECMG 1616/1618 VRB05KT BECMG 1709/1711 04010KT", "TAF LICR 161100Z 1612/1712 VRB05KT 9999 SCT030", "TAF LICT 161400Z 1615/1624 30005KT 9999 SCT025", "TAF LICZ 161100Z 1612/1712 09010KT 9999 FEW025 BECMG 1619/1621 VRB03KT BECMG 1710/1712 09010KT", "TAF LIEA 161100Z 1612/1712 04006KT 9999 FEW025", "TAF LIED 161100Z 1612/1621 15015KT 9999 FEW020 BECMG 1617/1619 15005KT", "TAF LIEE 161100Z 1612/1712 16012KT 9999 FEW035 BECMG 1617/1619 VRB05KT BECMG 1709/1711 15012KT", "TAF LIEO 161100Z 1612/1712 06012KT 9999 FEW015 BECMG 1617/1619 VRB05KT TEMPO 1700/1707 2000 BR BECMG 1709/1711 07010KT", "TAF LIMC 161100Z 1612/1718 VRB05KT 8000 BKN040 TEMPO 1700/1706 4000 BR", "TAF LIME 161100Z 1612/1712 VRB05KT 6000 NSC TEMPO 1700/1706 4000 BR", "TAF LIMF 161100Z 1612/1712 VRB04KT 4000 BR NSC TEMPO 1612/1620 7000", "TAF LIMG 161100Z 1612/1712 VRB05KT 9999 SCT040", "TAF LIMJ 161100Z 1612/1712 VRB05KT 9999 FEW020 BECMG 1622/1624 36010KT", "TAF LIML 161100Z 1612/1712 VRB04KT 6000 BKN060 TEMPO 1700/1706 4000 BR", "TAF LIMP 161100Z 1612/1712 VRB04KT 6000 NSC BECMG 1622/1624 3000 BR TEMPO 1700/1706 1200 BCFG BECMG 1709/1711 6000", "TAF LIMW 161400Z 1615/1624 10008KT 9999 FEW060", "TAF LIMZ 161100Z 1612/1712 VRB04KT 9999 FEW040", "TAF LIPB 161100Z 1612/1712 VRB05KT 9000 FEW040", "TAF LIPC 161400Z 1615/1624 10007KT CAVOK", "TAF LIPE 161100Z 1612/1712 VRB04KT CAVOK TEMPO 1700/1706 3000 BR", "TAF LIPH 161100Z 1612/1712 VRB03KT 7000 FEW050 BECMG 1618/1620 3000 BR TEMPO 1700/1706 1200 BCFG BECMG 1706/1708 7000", "TAF LIPK 161100Z 1612/1712 VRB05KT CAVOK TEMPO 1700/1706 3000 BR", "TAF LIPL 161400Z 1615/1624 VRB03KT 5000 BR FEW040 TEMPO 1615/1624 3000 BR", "TAF LIPO 161100Z 1612/1712 VRB05KT 8000 NSC TEMPO 1700/1706 3000 BR", "TAF LIPQ 161100Z 1612/1712 VRB05KT 9000 FEW040 BECMG 1618/1620 3000 BR BECMG 1706/1708 7000", "TAF LIPR 161100Z 1612/1712 10010KT CAVOK BECMG 1614/1616 VRB05KT TEMPO 1702/1706 4000 BR", "TAF LIPS 161400Z 1615/1624 VRB03KT 7000 SCT030 TEMPO 1618/1624 3000 BR", "TAF LIPX 161100Z 1612/1712 VRB05KT 8000 NSC TEMPO 1700/1706 3000 BR", "TAF LIPY 161100Z 1612/1712 10010KT CAVOK BECMG 1615/1617 VRB05KT TEMPO 1700/1706 4000 BR BECMG 1710/1712 01010KT", "TAF LIPZ 161100Z 1612/1718 16005KT 7000 FEW050 BECMG 1620/1622 4000 BR TEMPO 1702/1706 2000 BCFG BECMG 1706/1708 8000", "TAF LIRA 161100Z 1612/1712 VRB05KT CAVOK", "TAF LIRE 161400Z 1615/1624 29010KT 9999 SCT020", "TAF LIRF 161100Z 1612/1718 28010KT 9999 FEW030 BECMG 1614/1616 VRB04KT TEMPO 1700/1706 3000 BR BECMG 1708/1710 26010KT", "TAF LIRL 161400Z 1615/1624 22007KT 9999 SCT020", "TAF LIRM 161400Z 1615/1624 26006KT CAVOK", "TAF LIRN 161100Z 1612/1712 VRB04KT CAVOK", "TAF LIRP 161100Z 1612/1712 14005KT 9999 SCT030 TEMPO 1702/1706 5000 MIFG BECMG 1709/1711 26008KT", "TAF LIRQ 161100Z 1612/1712 VRB05KT 9999 FEW015 TEMPO 1700/1707 1200 BCFG", "TAF LIRS 161400Z 1615/1624 23010KT 9999 SCT020 TEMPO 1615/1617 FEW025TCU", "TAF LIRU 161400Z 1615/1624 VRB05KT CAVOK", "TAF LIRV 161400Z 1615/1624 26008KT 9999 SCT020", "TAF LIRZ 161100Z 1612/1712 VRB05KT 9999 FEW040", "TAF LJCE 161400Z 1615/1700 VRB02KT CAVOK BECMG 1622/1700 3000 BR", "TAF LJLJ 161100Z 1612/1712 VRB02KT CAVOK TEMPO 1700/1709 3000 BR PROB40 1702/1708 0300 FG VV001", "TAF LJMB 161100Z 1612/1712 18006KT CAVOK TEMPO 1621/1708 3000 BCFG BR PROB40 1703/1707 0300 FG VV001", "TAF LJPZ 161400Z 1615/1700 29004KT 9999 FEW050", "TAF LKKB 161100Z 1612/1712 20010KT CAVOK TEMPO 1612/1615 SCT035 BECMG 1621/1623 18006KT 5000 BR TEMPO 1700/1708 2000 MIFG BR SCT009 PROB40 TEMPO 1702/1707 0600 FG VV001 BECMG 1708/1710 9999 NSW", "TAF LKKV 161100Z 1612/1718 21006KT 9999 SCT020 BECMG 1615/1617 CAVOK BECMG 1618/1620 15004KT 3000 BR NSC TEMPO 1620/1708 1200 BR BKN002 PROB30 TEMPO 1622/1708 0500 FG VV001 BECMG 1708/1711 CAVOK", "TAF LKMT 161100Z 1612/1718 23008KT CAVOK TEMPO 1612/1619 22014G24KT", "TAF LKNA 161100Z 1612/1712 14006KT 3000 BR BKN005 TEMPO 1612/1616 6000 SCT012 TEMPO 1618/1708 0200 FG VV001", "TAF LKPD 161100Z 1612/1712 VRB02KT CAVOK BECMG 1614/1616 20008KT TEMPO 1615/1621 20014KT BECMG 1621/1623 VRB02KT PROB40 TEMPO 1700/1708 1500 BR BKN003", "TAF LKPR 161100Z 1612/1718 19008KT CAVOK BECMG 1622/1700 16006KT 4000 BR SCT005 TEMPO 1700/1708 1200 BR BKN003 PROB40 TEMPO 1700/1708 0500 FG VV001 BECMG 1708/1710 9999 SCT015 BECMG 1710/1712 CAVOK", "TAF LKTB 161100Z 1612/1718 20006KT CAVOK BECMG 1618/1620 10006KT TEMPO 1620/1708 3000 BR SCT003 PROB30 TEMPO 1622/1708 1200 BR BKN002", "TAF LLBG 161105Z 1612/1712 30011KT CAVOK BECMG 1615/1617 VRB03KT TEMPO 1622/1706 16006KT BECMG 1706/1708 27014KT TX30/1612Z TN21/1703Z", "TAF LLER 161103Z 1612/1712 18008KT CAVOK PROB40 TEMPO 1612/1618 VRB04KT 9999 FEW060TCU BKN100 BECMG 1618/1619 36008KT BECMG 1706/1708 02012KT TX35/1613Z TN22/1704Z", "TAF AMD LLHA 161139Z 1612/1712 33018KT 6000 NSC TEMPO 1612/1613 33020G30KT 4000 DU FM161300 33012KT CAVOK PROB40 TEMPO 1613/1616 9999 TS FEW050CB BKN100 BECMG 1616/1618 VRB04KT BECMG 1706/1708 22015KT 9999 FEW045 TX29/1612Z TN21/1703Z", "TAF LLHZ 161106Z 1612/1712 32010KT CAVOK PROB40 TEMPO 1612/1616 9999 FEW050CB BKN100 BECMG 1616/1618 VRB03KT TEMPO 1621/1705 17008KT BECMG 1705/1707 23014KT TX30/1612Z TN21/1703Z", "TAF LLIB 161108Z 1612/1712 VRB04KT CAVOK PROB40 TEMPO 1612/1614 17007KT 9999 TS FEW060CB BKN100 BECMG 1614/1616 35008KT BECMG 1618/1620 VRB03KT BECMG 1706/1708 18006KT TX33/1612Z TN16/1703Z", "TAF LMML 161100Z 1612/1712 11007KT 9999 SCT025", "TAF AMD LOAN 161538Z 1615/1621 VRB03KT 8000 NSC TEMPO 1618/1621 5000 BKN015", "TAF AMD LOAV 161536Z 1615/1621 VRB03KT CAVOK TEMPO 1618/1620 5000 BKN015", "TAF LOWG 161115Z 1612/1712 VRB04KT CAVOK TX21/1614Z TN08/1705Z TEMPO 1619/1621 4000 MIFG NSC TEMPO 1621/1710 0300 FG BKN002", "TAF LOWI 161115Z 1612/1712 27006KT CAVOK TX22/1614Z TN07/1705Z TEMPO 1612/1618 10010KT BECMG 1709/1711 09007KT", "TAF LOWK 161115Z 1612/1712 VRB02KT 9999 FEW050 TX18/1615Z TN08/1703Z TEMPO 1618/1709 4000 MIFG TEMPO 1620/1708 1200 BCFG TEMPO 1621/1708 0300 FG VV002", "TAF LOWL 161115Z 1612/1712 VRB03KT CAVOK TX20/1614Z TN10/1704Z BECMG 1620/1622 1200 BCFG NSC TEMPO 1622/1706 0300 FG VV001 BECMG 1710/1712 CAVOK", "TAF LOWS 161115Z 1612/1712 15005KT CAVOK TX23/1614Z TN11/1705Z TEMPO 1613/1617 34005KT 9999 FEW060 PROB30 TEMPO 1703/1707 VRB02KT 1200 BCFG SCT003 BECMG 1709/1711 34005KT", "TAF LOWW 161415Z 1615/1721 15007KT CAVOK TX22/1714Z TN12/1705Z PROB30 1704/1709 BKN005 TEMPO 1709/1714 15015G25KT", "TAF LOXZ 161115Z 1612/1621 VRB03KT 9999 FEW050", "TAF LPAZ 161100Z 1612/1718 36012KT 9999 SCT020 TEMPO 1612/1624 FEW020 BKN035 BECMG 1617/1620 27013KT BECMG 1702/1704 24020KT SCT015 BKN030 TEMPO 1704/1715 24022G35KT 5000 RADZ SCT006 BKN012 BECMG 1715/1717 28025KT TEMPO 1715/1718 28027G40KT 5000 SHRA BKN015", "TAF LPBJ 161103Z 1612/1712 VRB02KT CAVOK TEMPO 1614/1616 6000 SHRA SCT030 BECMG 1616/1617 16008KT TEMPO 1621/1703 5000 SHRA FEW030TCU", "TAF LPCS 161400Z 1615/1624 18010KT 9999 SCT015 SCT030 BECMG 1615/1617 22007KT PROB30 TEMPO 1615/1624 6000 RA SCT012 BKN030 BECMG 1617/1619 30007KT", "TAF LPFR 161100Z 1612/1712 12012KT 9999 FEW025 BECMG 1616/1618 VRB05KT PROB30 TEMPO 1619/1708 5000 RA SCT012 BKN025 BECMG 1708/1711 09008KT", "TAF LPHR 161400Z 1615/1624 25013KT 9999 FEW018 SCT040 PROB30 TEMPO 1615/1624 25015G25KT 8000 SHRA BKN015", "TAF LPLA 161103Z 1612/1712 31013KT 9999 SCT025 BECMG 1618/1621 25015KT TEMPO 1621/1702 25015G25KT 8000 -SHRA SCT016 BKN020 TEMPO 1702/1712 24020G35KT 4000 SHRA BKN014 BKN025CB PROB40 TEMPO 1703/7110 3000 TSRA BKN008 SCT022CB", "TAF LPMA 161100Z 1612/1712 VRB05KT 9999 SCT015 BECMG 1612/1614 20010KT BECMG 1616/1618 VRB05KT BECMG 1701/1703 22012KT PROB30 TEMPO 1706/1712 21018G28KT 8000 RADZ SCT008 BKN013", "TAF LPMR 161102Z 1612/1712 17010KT 9999 FEW020 SCT030 TEMPO 1619/1712 5000 RA BKN025 PROB40 TEMPO 1700/1706 2000 TSRA BKN008 BKN030CB", "TAF LPMT 161102Z 1612/1712 18010KT 9999 FEW020 SCT030 TEMPO 1616/1712 5000 RA PROB40 TEMPO 1700/1711 2000 TSRA BKN012 BKN030CB", "TAF LPOV 161102Z 1612/1712 18010KT 9999 FEW020 BKN030 TEMPO 1612/1615 18015G25KT TEMPO 1620/1712 6000 RA BKN018 PROB30 TEMPO 1703/1706 2000 TSRA SCT007 BKN014 BKN030CB", "TAF LPPD 161100Z 1612/1712 35010KT 9999 SCT020 TEMPO 1612/1701 FEW018 BKN035 BECMG 1621/1624 24012KT BECMG 1702/1704 26017KT SCT014 BKN030 TEMPO 1704/1712 27020G33KT 5000 RADZ BR SCT005 BKN010", "TAF LPPR 161100Z 1612/1712 19013KT 9999 BKN025 PROB30 TEMPO 1612/1620 5000 RA BKN018 BECMG 1614/1616 19008KT BECMG 1620/1623 SCT005 BKN010 TEMPO 1620/1709 5000 -RADZ BR SCT002 BKN004 BECMG 1702/1705 16012KT BECMG 1709/1712 19012KT SCT018 SCT030 PROB30 TEMPO 1709/1712 5000 RA BKN018", "TAF LPPS 161100Z 1612/1718 27008KT 9999 SCT015 BECMG 1612/1615 23005KT BECMG 1707/1710 20015KT PROB30 TEMPO 1708/1718 21018G28KT 5000 RADZ SCT008 BKN012", "TAF LPPT 161100Z 1612/1718 13005KT 9999 SCT035 BECMG 1614/1616 22005KT PROB30 TEMPO 1615/1624 5000 RA SCT012 BKN025 BECMG 1617/1619 VRB05KT BECMG 1700/1702 SCT005 BKN010 TEMPO 1702/1710 5000 RADZ SCT002 BKN004 PROB30 TEMPO 1705/1710 1500 +TSRA BKN002 FEW020CB BECMG 1710/1712 21012KT SCT025 TEMPO 1712/1718 5000 RADZ BR BKN018", "TAF LQBK 161100Z 1612/1712 06005KT CAVOK TX22/1613Z TN07/1704Z PROB40 1700/1708 3000 BR PROB30 1703/1707 0200 FG VV002", "TAF LQMO 161100Z 1612/1712 16005KT CAVOK TX26/1613Z TN09/1704Z", "TAF LQSA 161100Z 1612/1712 VRB02KT CAVOK TX22/1614Z TN05/1704Z PROB40 TEMPO 1700/1708 3000 BR PROB30 1704/1707 0400 FG BKN001", "TAF LQTZ 161100Z 1612/1712 08005KT CAVOK TX22/1613Z TN07/1704Z PROB40 1700/1708 3000 BR PROB30 1702/1707 0200 FG BKN001", "TAF LRAR 161400Z 1615/1700 VRB04KT CAVOK", "TAF LRBC 161400Z 1615/1700 VRB04KT CAVOK", "TAF LRBM 161400Z 1615/1700 VRB04KT CAVOK", "TAF LRBS 161100Z 1612/1712 VRB04KT CAVOK PROB40 TEMPO 1701/1705 5000 BR", "TAF LRCK 161100Z 1612/1712 04012KT CAVOK BECMG 1615/1617 VRB04KT", "TAF LRCL 161400Z 1615/1700 11005KT CAVOK BECMG 1617/1619 5000 BR PROB40 TEMPO 1620/1700 1500 BR BKN005", "TAF LRCV 161400Z 1615/1700 VRB04KT CAVOK", "TAF LRIA 161400Z 1615/1700 VRB04KT CAVOK", "TAF LROD 161400Z 1615/1700 VRB04KT CAVOK", "TAF LROP 161100Z 1612/1712 VRB04KT CAVOK PROB40 TEMPO 1701/1705 5000 BR", "TAF LRSB 161100Z 1612/1712 VRB04KT CAVOK TEMPO 1620/1705 3000 BR", "TAF LRSV 161400Z 1615/1700 14006KT CAVOK", "TAF LRTC 161400Z 1615/1700 01007KT CAVOK", "TAF LRTM 161400Z 1615/1700 VRB04KT CAVOK BECMG 1616/1618 5000 BR BECMG 1618/1620 1500 BR BECMG 1620/1622 0800 FG BKN002 TEMPO 1622/1700 0350 FG VV002", "TAF LRTR 161100Z 1612/1712 11006KT CAVOK", "TAF LSGC 161425Z 1615/1624 22008KT CAVOK", "TAF LSGG 161425Z 1615/1721 23008KT CAVOK TX24/1615Z TN10/1705Z TX23/1714Z BECMG 1616/1618 VRB02KT PROB30 TEMPO 1703/1706 4500 MIFG", "TAF LSGS 161425Z 1615/1624 VRB02KT CAVOK", "TAF LSZA 161425Z 1615/1624 18004KT 9999 FEW044 SCT070", "TAF LSZB 161425Z 1615/1624 VRB02KT CAVOK", "TAF LSZG 161425Z 1615/1624 VRB02KT CAVOK BECMG 1620/1622 4500 BR NSC PROB40 1622/1624 1200 BCFG SCT002", "TAF LSZH 161425Z 1615/1721 VRB02KT CAVOK TX22/1615Z TN08/1704Z TX21/1714Z BECMG 1621/1623 2000 BCFG NSC BECMG 1623/1701 0600 PRFG BECMG 1701/1703 0400 FG VV002 BECMG 1707/1709 3000 BR BKN003 BECMG 1709/1711 CAVOK", "TAF LSZL 161125Z 1612/1621 VRB02KT 9999 BKN075", "TAF LSZR 161425Z 1615/1624 VRB02KT CAVOK", "TAF LSZS 161425Z 1615/1624 21012KT CAVOK TX15/1615Z BECMG 1616/1618 20004KT PROB40 1618/1624 9999 BKN040", "TAF LTAB 161340Z 1615/1624 VRB02KT 9999 SCT040 BKN100 TEMPO 1615/1619 -SHRA BKN035 BKN090 TEMPO 1619/1623 -SHRA BKN035 BKN090", "TAF LTAC 161040Z 1612/1712 03009KT 9999 BKN035 BKN100 TEMPO 1612/1616 -SHRA TEMPO 1616/1620 -SHRA TEMPO 1620/1624 -SHRA", "TAF LTAD 161340Z 1615/1624 36005KT 9999 -SHRA BKN035 BKN090 BECMG 1621/1624 SCT040 BKN100", "TAF LTAE 161340Z 1615/1624 01006KT 9999 SCT040 BKN100 TEMPO 1615/1619 -SHRA BKN030 BKN090", "TAF LTAF 161040Z 1612/1712 20009KT 9999 SCT040 BKN100 BECMG 1616/1618 03010KT PROB30 TEMPO 1619/1623 -TSRA FEW020CB SCT030", "TAF LTAG 161040Z 1612/1712 VRB02KT 9999 SCT035 BKN100 PROB40 TEMPO 1615/1618 VRB15G25KT -TSRA SCT025CB BKN030", "TAF LTAH 161340Z 1615/1624 VRB02KT 9999 SCT040 BKN100 TEMPO 1615/1619 -SHRA TEMPO 1619/1623 -SHRA", "TAF LTAI 161040Z 1612/1712 VRB02KT 9999 FEW020CB BKN030 TEMPO 1612/1616 -TSRA BECMG 1618/1621 34012KT BKN025 BECMG 1621/1624 SCT030", "TAF AMD LTAJ 161529Z 1615/1712 VRB02KT CAVOK BECMG 1616/1618 SCT040 BKN120 TEMPO 1618/1622 -SHRA FEW025CB BKN035 TEMPO 1622/1702 -SHRA FEW025CB BKN035 BECMG 1623/1701 02012KT BECMG 1702/1704 CAVOK", "TAF LTAL 161340Z 1615/1624 34008KT 4000 -RA BR BKN004 BKN025", "TAF LTAN 161340Z 1615/1624 16008KT 9999 -SHRA SCT035 BKN080", "TAF LTAO 161340Z 1615/1624 03006KT 9999 FEW040 SCT100 BKN200", "TAF LTAP 161040Z 1612/1712 03012KT 9999 SCT035 BKN080 TEMPO 1618/1622 -SHRA BKN033 BKN080", "TAF LTAR 161340Z 1615/1624 12008KT 9999 SCT035 SCT100 TEMPO 1615/1619 16018G32KT -TSRA FEW025CB BKN030 TEMPO 1619/1623 -SHRA FEW025CB BKN030", "TAF LTAS 161340Z 1615/1624 VRB02KT 6000 SCT008 BKN030 BKN080 TEMPO 1615/1619 4000 -SHRA BR TEMPO 1619/1623 4000 -SHRA BR", "TAF LTAT 161040Z 1612/1712 09006KT 9999 FEW040 SCT100 BKN200 PROB30 TEMPO 1700/1704 21012KT -SHRA BKN035 BKN090 PROB30 TEMPO 1706/1710 -SHRA BKN035 BKN090", "TAF LTAU 161040Z 1612/1712 06008KT 9999 SCT040 SCT100 TEMPO 1612/1616 20015G30KT -TSRA FEW030CB BKN035 BKN090 PROB40 TEMPO 1620/1624 -SHRA FEW030CB BKN035 BKN090 PROB40 TEMPO 1623/1703 4000 BR SCT015 BKN035", "TAF LTAV 161340Z 1615/1624 36012KT 9999 SCT040 BKN100 TEMPO 1615/1619 -SHRA TEMPO 1619/1623 -SHRA", "TAF LTAW 161340Z 1615/1624 VRB02KT 9999 SCT040 BKN100 TEMPO 1616/1620 -TSRA FEW030CB BKN035", "TAF AMD LTAY 161509Z 1615/1624 VRB02KT 7000 FEW010 SCT035 BKN100 TEMPO 1615/1617 3200 -SHRA BR FEW010 BKN030 BKN090 TEMPO 1617/1620 04013KT", "TAF LTAZ 161040Z 1612/1712 VRB02KT 9999 SCT040 BKN100 TEMPO 1612/1616 24015G30KT -TSRA FEW030CB BKN035 BKN090 TEMPO 1617/1621 -SHRA FEW030CB BKN035 BKN090 PROB40 TEMPO 1622/1702 -SHRA BKN033 BKN090 PROB40 TEMPO 1703/1707 3000 -RA BR SCT010 BKN030 BKN080", "TAF LTBA 161040Z 1612/1712 02020G30KT 9999 BKN035 TEMPO 1614/1618 -SHRA BECMG 1615/1618 02014KT TEMPO 1705/1709 -SHRA BECMG 1706/1709 03022G32KT", "TAF LTBD 161340Z 1615/1624 07012KT 9999 SCT035 SCT100 TEMPO 1615/1618 03016G26KT", "TAF LTBF 161340Z 1615/1624 01015KT 9999 SCT035 BKN100 TEMPO 1615/1618 01020G30KT", "TAF LTBG 161340Z 1615/1624 04020G32KT 9999 FEW019 SCT035 BKN100", "TAF LTBH 161340Z 1615/1624 07018G28KT 9999 SCT030 BKN100", "TAF LTBI 161340Z 1615/1624 VRB02KT 9999 SCT040 BKN100 TEMPO 1615/1619 -SHRA TEMPO 1619/1623 -SHRA", "TAF LTBJ 161040Z 1612/1712 01022G35KT 9999 SCT030 SCT100 BECMG 1700/1704 36015G25KT BECMG 1707/1710 CAVOK BECMG 1710/1712 01022G35KT", "TAF LTBK 161340Z 1615/1624 36020G35KT 9999 SCT030 SCT100", "TAF LTBL 161340Z 1615/1624 36012KT 9999 SCT035 TEMPO 1615/1616 01015G25KT BECMG 1617/1620 CAVOK", "TAF LTBN 161340Z 1615/1624 VRB02KT 9999 SCT040 BKN100 TEMPO 1615/1619 -SHRA TEMPO 1619/1623 -SHRA", "TAF LTBO 161340Z 1615/1624 06017G27KT 9999 SCT035 BKN100", "TAF LTBP 161340Z 1615/1624 01012KT 9999 SCT010 BKN030 BKN090 TEMPO 1615/1618 4000 SHRA BECMG 1618/1621 VRB02KT", "TAF LTBQ 161340Z 1615/1624 VRB02KT 8000 -SHRA SCT008 BKN020 BKN070 TEMPO 1615/1619 3500 BR PROB30 TEMPO 1619/1623 3500 SHRA BR", "TAF LTBR 161040Z 1612/1712 35014KT 8000 -SHRA BKN030 BKN080 BECMG 1617/1621 VRB02KT SCT035 BKN090 PROB40 1703/1706 3500 BR FEW015 BKN025 BECMG 1708/1711 35012KT", "TAF AMD LTBS 161322Z 1613/1712 21012KT 9999 SCT030 BKN090 TEMPO 1613/1616 -TSRA FEW015CB BKN030 BECMG 1614/1616 VRB02KT", "TAF LTBT 161340Z 1615/1624 36012KT 9999 SCT035 TEMPO 1615/1616 01015G25KT BECMG 1617/1620 CAVOK", "TAF LTBU 161040Z 1612/1712 03023G33KT 9999 BKN035 BECMG 1615/1618 02010KT BECMG 1704/1707 03022G32KT", "TAF LTBV 161340Z 1615/1624 02018KT 9999 FEW035 SCT100 BECMG 1616/1620 05008KT", "TAF LTBX 161340Z 1615/1624 03015KT 9999 SCT015 BKN030 BKN090 TEMPO 1618/1622 -SHRA", "TAF LTBY 161340Z 1615/1624 VRB02KT 9999 SCT040 BKN100 TEMPO 1615/1619 -SHRA TEMPO 1619/1623 -SHRA", "TAF LTBZ 161340Z 1615/1624 36012KT 9999 SCT040 BKN100 TEMPO 1615/1619 -SHRA TEMPO 1619/1623 -SHRA", "TAF LTCA 161340Z 1615/1624 VRB02KT 9999 FEW035 SCT100 BKN200", "TAF LTCB 161340Z 1615/1624 VRB02KT 9999 SCT012 BKN035 TEMPO 1616/1620 24012KT -TSRA SCT009 FEW020CB BKN025 BECMG 1620/1624 -SHRA SCT009 BKN028", "TAF LTCC 161040Z 1612/1712 VRB02KT CAVOK BECMG 1620/1622 FEW040 BKN100 BECMG 1700/1703 CAVOK", "TAF LTCD 161340Z 1615/1624 VRB02KT 9999 SCT080", "TAF LTCE 161040Z 1612/1712 VRB02KT 9999 SCT035 BKN070 BECMG 1705/1707 05012KT", "TAF LTCF 161340Z 1615/1624 22012KT 9999 SCT040 BKN080 BECMG 1615/1617 VRB02KT", "TAF LTCG 161040Z 1612/1712 VRB02KT 9999 SCT035 BECMG 1614/1618 BKN035 BECMG 1618/1620 SCT012 BKN028 TEMPO 1707/1711 -SHRA", "TAF LTCI 161340Z 1615/1624 10008KT 9999 SCT040 SCT180 PROB30 TEMPO 1620/1623 -SHRA FEW020CB BKN030", "TAF LTCJ 161040Z 1612/1712 VRB02KT CAVOK", "TAF LTCK 161340Z 1615/1624 30008KT 9999 SCT040 BKN100", "TAF LTCL 161340Z 1615/1624 VRB02KT CAVOK", "TAF LTCM 161340Z 1615/1624 30009KT 9999 FEW015 BKN028 BKN090 TEMPO 1615/1618 -SHRA", "TAF LTCN 161340Z 1615/1624 VRB02KT CAVOK", "TAF LTCO 161340Z 1615/1624 VRB02KT 9999 SCT040 BKN080", "TAF LTCP 161340Z 1615/1624 09009KT 9999 FEW040 SCT100 BKN200", "TAF LTCR 161340Z 1615/1624 VRB02KT CAVOK BECMG 1617/1620 01012KT BECMG 1621/1623 FEW040 SCT100", "TAF LTCS 161040Z 1612/1712 36008KT CAVOK BECMG 1617/1619 SCT040 BKN100 PROB30 TEMPO 1623/1703 -TSRA FEW025CB BKN035 BECMG 1704/1706 CAVOK PROB40 TEMPO 1705/1708 08015G25KT", "TAF LTCT 161340Z 1615/1624 VRB02KT 9999 SCT040 BKN080", "TAF LTCU 161340Z 1615/1624 VRB02KT 9999 FEW035 SCT100 BKN200", "TAF LTCV 161040Z 1612/1712 VRB02KT CAVOK BECMG 1619/1622 09012KT FEW040 BKN100", "TAF LTCW 161340Z 1615/1624 24012KT 9999 SCT040 BKN100 BECMG 1615/1616 08008KT PROB30 1619/1623 -SHRA FEW020CB BKN030", "TAF LTDA 161340Z 1615/1624 32012KT 9999 FEW040 BKN120 BECMG 1618/1620 VRB02KT TEMPO 1622/1624 TS FEW025CB BKN030", "TAF LTFA 161340Z 1615/1624 36012KT 9999 SCT035 TEMPO 1615/1616 01015G25KT BECMG 1617/1620 CAVOK", "TAF LTFB 161340Z 1615/1624 03017G27KT 9999 SCT035 SCT100 BECMG 1622/1624 04012KT", "TAF AMD LTFC 161500Z 1615/1712 36006KT 9999 FEW025CB BKN035 BECMG 1615/1617 -TSRA BECMG 1619/1622 NSW SCT035 BKN100 BECMG 1706/1709 06014KT", "TAF LTFD 161340Z 1615/1624 06018KT 9999 BKN035 TEMPO 1615/1618 06025G35KT", "TAF LTFE 161040Z 1612/1712 02018KT 9999 FEW035 SCT100 BECMG 1616/1620 05008KT BECMG 1707/1709 02018KT", "TAF LTFG 161340Z 1615/1624 16010KT 9999 FEW030CB BKN030 BECMG 1615/1618 05009KT PROB30 TEMPO 1618/1622 -TSRA", "TAF LTFH 161340Z 1615/1624 30008KT 9999 FEW015 SCT033 BKN100 TEMPO 1618/1621 -SHRA SCT010 BKN030 BKN090", "TAF LTFJ 161040Z 1612/1712 03015KT 9999 SCT015 BKN030 BKN090 TEMPO 1612/1616 03018G28KT TEMPO 1618/1622 -SHRA TEMPO 1622/1702 -SHRA", "TAF LTFK 161340Z 1615/1624 02018G28KT 9999 SCT020 BKN080", "TAF LTFM 161040Z 1612/1718 03020G30KT 9999 BKN022 TEMPO 1614/1618 -SHRA BECMG 1617/1620 03018KT TEMPO 1623/1703 -SHRA BECMG 1703/1706 03020G32KT TEMPO 1704/1708 -SHRA", "TAF LTFO 161340Z 1615/1624 VRB02KT 9999 SCT015 SCT035 TEMPO 1615/1618 SCT012 BKN028 BECMG 1619/1623 SCT009 BKN028", "TAF LUKK 161120Z 1612/1712 05006KT CAVOK BECMG 1621/1623 VRB04KT TEMPO 1701/1706 3000 BR", "TAF LWOH 161430Z 1615/1715 VRB02KT CAVOK", "TAF LWSK 161430Z 1615/1715 VRB02KT CAVOK", "TAF LXGB 161315Z 1615/1622 08010KT CAVOK PROB30 TEMPO 1615/1618 08015G25KT 7000 -TSRA BKN120CB 520002 PROB30 TEMPO 1618/1622 7000 -TSRA BKN120CB", "TAF LYBE 161100Z 1612/1712 12007KT CAVOK TX22/1612Z TN09/1705Z", "TAF LYBT 161100Z 1612/1712 11006KT CAVOK TX22/1613Z TN10/1704Z", "TAF LYKV 161100Z 1612/1712 11005KT CAVOK TX22/1613Z TN05/1704Z TEMPO 1704/1707 0200 FG", "TAF LYNI 161100Z 1612/1712 05005KT CAVOK TX21/1612Z TN06/1705Z", "TAF LYPG 161100Z 1612/1712 16005KT CAVOK TX23/1613Z TN09/1705Z", "TAF LYTV 161100Z 1612/1712 23007KT CAVOK TX23/1613Z TN07/1705Z PROB30 TEMPO 1703/1707 3000 BR", "TAF LYVR 161100Z 1612/1712 15012KT CAVOK TX22/1612Z TN13/1704Z TEMPO 1706/1711 13020G30KT", "TAF LZIB 161115Z 1612/1712 13007KT 9999 SCT040 BECMG 1700/1702 08005KT PROB30 TEMPO 1701/1706 2500 BR BCFG BKN008", "TAF LZKZ 161115Z 1612/1712 21008KT CAVOK TEMPO 1700/1706 2000 BCFG BR SCT005", "TAF LZMC 161330Z 1615/1624 15010KT CAVOK TEMPO 1615/1624 16010G22KT", "TAF LZPP 161415Z 1615/1700 16010KT CAVOK", "TAF LZPW 161330Z 1615/1624 20012G25KT CAVOK", "TAF LZSL 161330Z 1615/1624 VRB03KT CAVOK TEMPO 1515/1617 9999 SCT060 TEMPO 1622/1624 3000 BR BCFG SCT001", "TAF LZTT 161115Z 1612/1712 27010KT CAVOK BECMG 1618/1620 VRB02KT TEMPO 1700/1706 0500 FG BKN003", "TAF LZZI 161415Z 1615/1700 15005KT CAVOK", "MGGT 161100Z 1612/1712 03010KT 9999 SCT014 TX25/1620Z TN15/1612Z BECMG 1614/1616 SCT018 TEMPO 1622/1706 8000 TSRA SCT020TCU FEW025CB BECMG 1702/1704 02006KT BKN016 BECMG 1708/1710 SCT016", "MGMM 152300Z 1600/1624 00000KT 9999 FEW016 BKN090 TX34/1620Z TN23/1612Z BECMG 1602/1604 CAVOK BECMG 1608/1610 SCT012 BECMG 1614/1616 09008KT SCT018 TEMPO 1620/1624 8000 TSRA SCT020TCU FEW025CB", "MGPB 161100Z 1612/1712 30006KT 9999 SCT016 BKN080 TX32/1620Z TN21/1612Z BECMG 1614/1616 05008KT SCT018 TEMPO 1621/1704 8000 TSRA SCT020TCU FEW025CB BECMG 1701/1703 00000KT SCT016 BECMG 1708/1710 FEW016", "MGSJ 161100Z 1612/1712 00000KT 9999 FEW016 SCT080 TX33/1620Z TN21/1612Z BECMG 1614/1616 18008KT FEW018 TEMPO 1621/1706 8000 TSRA SCT020TCU FEW025CB BECMG 1700/1702 00000KT BKN018 BECMG 1708/1710 FEW016", "TAF MHLC 161100Z 1612/1712 VRB03KT 9999 SCT024 TX32/1619Z TN23/1712Z FM161600 03012KT 9999 SCT030TCU TEMPO 1620/1701 5000 TSSHRA SCT032CB BKN080 FM170100 VRB03KT 9999 SCT025", "TAF MHLM 161100Z 1612/1712 VRB05KT 9999 SCT026 TX33/1620Z TN24/1712Z FM161500 04012KT SCT032TCU TEMPO 1621/1701 6000 TSSHRA SCT032CB BKN080 FM170100 VRB03KT 9999 SCT030", "TAF MHRO 161100Z 1612/1712 08018KT 9999 SCT022 TX31/1619Z TN28/1712Z", "TAF MHTG 161100Z 1612/1712 VRB04KT 9999 FEW010 SCT030 TX29/1620Z TN19/1712Z FM161600 08008KT 9999 SCT032TCU TEMPO 1621/1701 5000 SHRA SCT035CB FM170100 VRB04KT 9999 SCT028", "TAF MKJP 161115Z 1612/1712 35008KT 9999 FEW022 FEW024CB BECMG 1614/1616 14018KT TEMPO 1617/1624 TSRA BKN022CB BECMG 1701/1703 35008KT FEW020", "TAF MKJS 161115Z 1612/1712 14005KT 9999 FEW020CB SCT036 PROB30 TEMPO 1612/1614 SHRA BKN020 BECMG 1615/1617 05012KT FEW020 FEW022CB PROB40 TEMPO 1618/1624 TSRA SCT020CB SCT036 BECMG 1701/1703 VRB02KT", "TAF AMD MMAN 161014Z 1610/1706 09005KT P6SM OVC008 TEMPO 1611/1615 3SM BR HZ BKN005 FM161800 13012KT P6SM SCT030 BKN080 FM170500 14005KT P6SM SCT030", "TAF MMCE 160445Z 1606/1706 13010KT 6SM HZ SCT020 TEMPO 1612/1615 BKN015 FM161800 15010KT P6SM SCT020 BKN100 BECMG 1620/1621 03010KT TEMPO 1623/1703 6SM TSRA BKN015CB", "TAF MMCM 160445Z 1606/1706 09005KT 6SM HZ SCT020 FM161800 13010KT 6SM HZ BKN020 TEMPO 1618/1622 5SM TSRA BKN015CB FM170300 13005KT 6SM HZ SCT015", "TAF AMD MMCP 161157Z 1612/1706 00000KT 1/2SM FG VV001 FM161500 00000KT 3SM BR SCT005 BKN010 FM161600 00000KT 5SM HZ SCT015 FM161900 13010KT 6SM HZ SCT030 SCT300 TEMPO 1622/1702 6SM TSRA BKN020CB", "TAF MMCS 160414Z 1606/1706 14005KT P6SM SCT030 FM161800 36012KT P6SM SCT030 SCT120 BKN250 TEMPO 1700/1704 5SM -RA BKN030CB FM170500 03006KT P6SM SCT030 BKN1200", "TAF AMD MMCU 161321Z 1613/1706 00000KT 2 1/2SM BR SKC BECMG 1614/1615 3SM BR FM161500 00000KT 4SM HZ SKC 0 FM161530 00000KT P6SM SKC FM161900 34010KT P6SM SCT030 BKN200 FM170300 13005KT 6SM HZ SCT015", "TAF MMCV 160501Z 1606/1706 16005KT 6SM HZ SKC TEMPO 1611/1614 2SM BR BKN010 FM162000 14015KT P6SM BKN030 FM170300 16005KT 6SM HZ SCT020", "TAF AMD MMIO 161345Z 1614/1706 00000KT P6SM SKC FM161900 36014KT P6SM SCT040 FM170500 00000KT P6SM SKC", "TAF MMMA 160501Z 1606/1706 12008KT P6SM SCT015 FM161800 13015KT P6SM BKN020 TEMPO 1619/1623 6SM -RA BKN020CB FM170300 14005KT 6SM HZ SCT020", "TAF AMD MMMT 161217Z 1612/1706 00000KT 1/2SM FG BKN015 TEMPO 1612/1615 1/4SM FG VV005 FM161500 00000KT 2SM BR BKN015 FM161800 03010KT 6SM HZ BKN030 TEMPO 1623/1703 5SM TSRA BKN020CB", "TAF MMMV 160414Z 1606/1706 04007KT P6SM SKC FM161800 04012KT P6SM SCT040 FM170500 06006KT P6SM SKC", "TAF MMMY 161057Z 1612/1718 10005KT P6SM OVC008 TX30/1621Z TN23/1612Z TEMPO 1612/1616 4SM HZ OVC005 FM161600 10005KT 5SM HZ BKN015 FM161800 13012KT P6SM SCT030 BKN080 FM170600 14005KT P6SM SCT030 FM171000 09005KT 6SM HZ BKN010 TEMPO 1711/1715 5SM HZ BKN008 FM171700 09012KT P6SM SCT030 SCT250", "TAF MMNL 160501Z 1606/1706 13010KT P6SM SKC FM160800 13010KT 5SM HZ BKN020 TEMPO 1611/1615 2SM BR SCT005 OVC010 FM161700 14018KT P6SM BKN030 FM170300 03015KT 6SM HZ BKN020", "TAF MMPA 160501Z 1606/1706 08005KT 6SM HZ SKC FM161000 00000KT 4SM HZ SCT015 TEMPO 1612/1615 2SM BR BKN010 FM161800 03010KT 6SM HZ SCT020 TEMPO 1622/1702 BKN020", "TAF MMPG 160501Z 1606/1706 12008KT P6SM SKC FM161000 13010KT 6SM HZ BKN015 TEMPO 1611/1615 3SM BR OVC010 FM161800 14015KT P6SM BKN030 FM170200 33010G20KT 5SM RA BKN020CB OVC070", "TAF MMPQ 160445Z 1606/1706 00000KT 6SM HZ SCT020 SCT100 BKN200 TEMPO 1612/1615 3SM BR HZ BKN020 FM161800 08010KT 6SM HZ SCT030 BKN100 TEMPO 1623/1703 5SM TSRA BKN020CB", "TAF AMD MMRX 161236Z 1613/1706 14010KT 6SM HZ SKC FM161900 15015KT P6SM BKN030 BECMG 1621/1622 SCT030 FM170300 14005KT 6SM HZ SCT020", "TAF MMTC 160414Z 1606/1706 05005KT P6SM SKC FM161800 15007KT P6SM SCT030 SCT080 FM170500 10005KT P6SM SKC", "TAF AMD MMVA 161317Z 1613/1706 00000KT 2SM BR OVC005 FM161530 00000KT 3SM BR SCT005 BKN010 FM161600 00000KT 4SM HZ SCT010 FM161800 08010KT P6SM SCT020 BKN100 TEMPO 1623/1703 5SM TSRA BKN020CB", "TAF COR MPDA 161115Z 1612/1624 22006KT 9999 SCT018 SCT090 TEMPO 1612/1614 VRB02KT 4000 BR SCT014 BKN090 TEMPO 1614/1618 NSW PROB40 1618/1622 27004KT 6000 TSRA SCT015CB BKN090", "TAF MPMG 161100Z 1612/1624 27005KT 9999 SCT016 SCT090 PROB30 1615/1618 8000 RA PROB40 1618/1622 18006KT 6000 TSRA FEW014CB BKN090", "TAF MPPA 161100Z 1612/1718 02005KT 9999 SCT018 SCT090 PROB30 1615/1618 VRB02KT 8000 RA SCT016 BKN090 PROB40 1618/1622 19008KT 6000 TSRA SCT016CB BKN090", "TAF MPSM 161100Z 1612/1718 02005KT 9999 SCT016 SCT090 PROB40 1618/1622 19008KT 7000 TSRA SCT016CB BKN090 TEMPO 1700/1704 VRB02KT", "TAF MPTO 161100Z 1612/1718 33005KT 9999 SCT018 SCT090 PROB30 1615/1618 06004KT 8000 RA SCT016 BKN090 PROB40 1618/1622 17008KT 6000 TSRA SCT016CB BKN080", "MRLB 161100Z 1612/1712 12004KT 9999 SCT020 TX31/1619Z TN22/1711Z TEMPO 1612/1615 VRB02KT 3000 BR SCT005 TEMPO 1620/1624 27007KT 5000 TSRA SCT020CB ", "MRLM 161100Z 1612/1712 22005KT 9999 FEW030 BKN200 TX30/1620Z TN22/1711Z TEMPO 1612/1615 DZ FEW020TCU BECMG 1615/1618 05006KT BECMG 1700/1703 25004KT ", "MROC 161100Z 1612/1712 VRB02KT 9999 FEW040 SCT120 TX28/1617Z TN18/1710Z BECMG 1614/1617 25008KT TEMPO 1619/1623 3000 TSRA SCT015CB TEMPO 1623/1705 VRB02KT 5000 RA BR BKN015 BECMG 1705/1708 09005KT ", "MRPV 161100Z 1612/1712 12004KT 9999 FEW035 BKN120 TX28/1618Z TN28/1710Z BECMG 1615/1618 29006KT TEMPO 1619/1924 5000 TSRA SCT010CB TEMPO 1700/1705 VRB02KT 5000 RA BR BKN010 BECMG 1705/1707 12005KT ", "TAF MSSS 160925Z 1612/1712 35002KT 2000 BR SCT010 TX29/1518Z TN21/1712Z FM161300 35002KT 9999 SCT027 TEMPO 1621/1624 18008KT 7000 TSRA BKN030 SCT037CB TEMPO 1702/1705 35012G23KT 2000 +TSRA BKN020 BKN030CB FM170500 35004KT 9999 FEW020 FEW037CB SCT050", "TAF MTCH 161100Z 1612/1712 VRB02KT 9000 FEW020 BECMG 1614/1618 04014KT FM170200 36005KT 9000 NSC BECMG 1708/1712 VRB02KT 8000 FEW020 ", "TAF MTPP 161100Z 1612/1712 VRB02KT 8000 FEW0202 BECMG 1614/1618 12012KT FM161900 30010KT 9999 SCT024TCU PROB30 TEMPO 1700/1706 4800 TSRA SCT020CB SCT040 BECMG 1707/1710 VRB02KT 9000 NSW FEW016", "MUCC 161100Z 1612/1712 VRB03KT 9000 SCT020 BECMG 1615/1617 04008KT TEMPO 1618/1624 VRB10KT 5000 TSRA SCT018CB BKN020 BECMG 1703/1705 VRB03KT", "MUCF 161100Z 1612/1624 VRB03KT 9000 SCT020 TEMPO 1618/1624 VRB10KT 5000 TSRA SCT018CB BKN020", "MUCL 161100Z 1612/1624 VRB03KT 9000 SCT020 TEMPO 1618/1624 VRB10KT 5000 TSRA SCT018CB BKN020", "AMD MUCM 161225Z 1613/1712 VRB03KT 9000 SCT020 BECMG 1614/1615 03008KT TEMPO 1618/1624 VRB10KT 5000 TSRA SCT018CB BKN020", "MUCU 161100Z 1612/1712 36005KT 9000 SCT020 BECMG 1615/1617 18008KT TEMPO 1618/1624 VRB10KT 5000 TSRA SCT018CB BKN020 BECMG 1703/1705 36005KT", "TAF MUGM 1615/1715 36010KT 9999 FEW030 SCT250 QNH2990INS BECMG 1615/1616 VRB05KT VCSH BKN030CB OVC250 QNH2985INS TEMPO 1616/1620 09010KT -TSRA 1600 OVC030CB FM170000 36006KT 8000 BR FEW020 QNH2981INS T29/1618Z T26/1706Z FN00231", "AMD MUHA 161557Z 1616/1712 09008KT 9000 BKN025 TEMPO 1619/1623 VRB10KT 3000 TSRA FEW018CB BKN020 BECMG 1701/1703 VRB03KT SCT030", "AMD MUHG 161225Z 1613/1712 VRB03KT 9000 SCT020 TEMPO 1613/1614 5000 BR BECMG 1615/1617 02008KT TEMPO 1618/1624 VRB10KT 5000 TSRA SCT018CB BKN020 BECMG 1703/1705 VRB03KT", "AMD MUSC 161455Z 1615/1712 06008KT 9000 SCT020 TEMPO 1615/1624 VRB10KT 5000 TSRA SCT018CB BKN020 BECMG 1703/1705 VRB03KT", "MUVR 161100Z 1612/1712 VRB03KT 9000 SCT020 BECMG 1615/1617 05010KT TEMPO 1618/1624 VRB10KT 5000 TSRA SCT018CB BKN020 BECMG 1703/1705 VRB03KT", "TAF MWCB 161100Z 1612/1712 09005KT 9999 SHRA SCT016 BECMG 1703/1705 9999 FEW018", "TAF MWCR 161100Z 1612/1712 09005KT 9999 SHRA SCT016 TEMPO 1620/1702 9000 TSRA SCT016CB BECMG 1703/1705 9999 FEW018", "TAF NCRG 161104Z 1612/1712 10008KT 9999 FEW020", "TAF NFFN 161104Z 1612/1712 13005KT 9999 FEW030 SCT050 BECMG 1621/1623 31010KT PROB40 TEMPO 1701/1704 5000 TSRA BKN016 FEW017CB BECMG 1704/1706 12005KT", "TAF NFNA 161105Z 1612/1712 12008KT 9999 -SHRA SCT020 BKN045 PROB40 TEMPO 1612/1706 5000 SHRA BKN015", "TAF NFTF 161104Z 1612/1712 13006KT 9999 FEW015 PROB40 TEMPO 1612/1624 5000 TSRA BKN015 FEW018CB", "TAF NFTV 161106Z 1612/1712 06005KT 9999 FEW020", "TAF NGFU 161106Z 1612/1712 08010KT 9999 SCT018 OVC100 PROB40 TEMPO 1612/1620 5000 TSRA FEW018CB PROB40 TEMPO 1700/1706 5000 SHRA BKN016", "TAF NGTA 161105Z 1612/1712 08006KT 9999 FEW020", "TAF NLWF 161100Z 1612/1712 08012KT 9999 FEW020 SCT035 BKN045 TEMPO 1612/1703 SHRA FEW020TCU PROB30 TEMPO 1612/1624 4500 SHRA BKN014 FEW020CB PROB30 TEMPO 1612/1624 08015G25KT 2000 TSRA BKN010 FEW015CB", "TAF NLWW 161100Z 1612/1712 08010KT 9999 FEW020 SCT030 BKN045 TEMPO 1612/1624 SHRA FEW020TCU PROB30 TEMPO 1612/1621 4500 SHRA BKN014 FEW020CB PROB30 TEMPO 1612/1618 08015G25KT 2000 TSRA BKN010 FEW015CB", "TAF NSFA 161104Z 1612/1712 10006KT 9999 SCT022", "NSTU 161120Z 1612/1712 10015KT P6SM VCSH SCT015 SCT040 SCT100", "TAF NTAA 161100Z 1612/1718 VRB05KT 9999 FEW023", "TAF NWWD 160500Z 1606/1706 20008KT 9999 FEW045 PROB30 TEMPO 1700/1706 SHRA FEW020TCU", "TAF NWWE 151700Z 1518/1618 13008KT 9999 FEW035", "TAF NWWK 160500Z 1606/1706 18005KT 9999 SCT045 PROB30 TEMPO 1700/1706 SHRA FEW020TCU", "TAF NWWL 161100Z 1612/1712 VRB02KT 9999 FEW035 SCT050 FM170000 10010KT 9999 SCT040 BKN060 TEMPO 1700/1706 SHRA FEW025TCU BECMG 1706/1708 VRB02KT", "TAF NWWM 161100Z 1612/1712 06008KT 9999 FEW030 SCT050 BECMG 1700/1702 14010KT BECMG 1706/1709 07010KT", "TAF NWWR 161100Z 1612/1712 VRB02KT 9999 FEW030 SCT050 FM170000 05010KT 9999 SCT040 BKN060 TEMPO 1700/1706 SHRA FEW025TCU BECMG 1706/1708 VRB02KT", "TAF NWWU 151700Z 1518/1618 18006KT 9999 SCT030 BECMG 1520/1522 12012KT PROB30 TEMPO 1612/1618 SHRA", "TAF NWWW 161100Z 1612/1712 VRB02KT 9999 SCT050 BECMG 1700/1702 20010KT BECMG 1703/1706 14010KT", "TAF NZAA 161108Z 1612/1718 25008KT 9999 BKN025 FM162200 31015KT 9999 BKN020 TEMPO 1700/1708 5000 SHRA SCT015TCU BECMG 1709/1711 24008KT", "TAF AMD NZCH 161600Z 1615/1718 27005KT 0500 FG FEW035 BECMG 1618/1620 21010KT 9999 NSW FM170100 06012KT 9999 -SHRA BKN020 FM170700 VRB02KT 9999 FEW025 PROB30 1714/1718 0500 FG", "TAF NZFX 161455Z 1615/1715 07008KT 9999 FEW020 SCT120 BKN200 QNH2883INS GRID24008KT TEMPO 1615/1618 BKN020 BKN120 BKN180 ", "TAF NZQN 161104Z 1612/1706 25010KT 9999 FEW060 BECMG 1612/1614 03005KT BECMG 1622/1700 23010KT", "TAF NZWN 161108Z 1612/1718 36012KT CAVOK", "TAF OEAB 161100Z 1612/1718 09012KT 9999 FEW020 PROB30 TEMPO 1612/1618 FEW025CB BECMG 1620/1622 VRB03KT CAVOK BECMG 1706/1708 06008KT", "TAF OEAH 161010Z 1612/1718 07010KT CAVOK BECMG 1616/1618 VRB03KT 7000 NSC", "TAF OEAO 161100Z 1612/1718 18012KT CAVOK BECMG 1621/1623 VRB03KT BECMG 1708/1710 19012KT", "TAF OEBA 161100Z 1612/1718 12012KT 9999 FEW030 BECMG 1621/1623 16006KT CAVOK BECMG 1706/1708 10014KT", "TAF OEBH 161100Z 1612/1718 09012KT CAVOK BECMG 1621/1623 19006KT BECMG 1708/1710 09012KT", "TAF OEDF 161010Z 1612/1718 07010KT CAVOK BECMG 1616/1618 VRB03KT 7000 NSC PROB30 TEMPO 1700/1704 4000 BR", "TAF OEDM 160400Z 1605/1621 20012KT CAVOK BECMG 1618/1620 13008KT", "TAF OEDR 161010Z 1612/1718 07010KT CAVOK BECMG 1616/1618 VRB03KT 7000 NSC PROB30 TEMPO 1700/1704 4000 BR", "TAF OEGN 161100Z 1612/1718 27014KT 7000 FEW030 PROB30 TEMPO 1612/1620 FEW035CB BECMG 1620/1622 VRB03KT BECMG 1706/1708 27012KT", "TAF OEGS 161100Z 1612/1718 21012KT CAVOK BECMG 1617/1619 VRB03KT BECMG 1706/1708 21010KT", "TAF OEGT 161100Z 1612/1718 21014KT 9999 FEW040 BECMG 1620/1622 30008KT", "TAF OEHL 161100Z 1612/1718 16010KT CAVOK BECMG 1618/1620 26008KT BECMG 1706/1708 18012KT", "TAF OEJN 161100Z 1612/1718 33010KT 7000 FEW040 BECMG 1618/1620 03006KT PROB30 TEMPO 1700/1706 3500 HZ BECMG 1708/1710 28012KT", "TAF OEKJ 161100Z 1612/1718 20010KT CAVOK", "TAF OEKM 161100Z 1612/1718 09012KT 9999 FEW020 PROB30 TEMPO 1612/1618 FEW025CB BECMG 1620/1622 VRB03KT CAVOK BECMG 1706/1708 06008KT", "TAF OEMA 161100Z 1612/1718 16011KT 7000 NSC BECMG 1618/1620 09006KT CAVOK BECMG 1706/1708 16010KT 7000 NSC", "TAF OENG 161100Z 1612/1718 07012KT CAVOK BECMG 1618/1620 VRB03KT BECMG 1708/1710 09006KT", "TAF OEPA 161010Z 1612/1718 12010KT CAVOK", "TAF OEPS 161700Z 1617/1723 VRB06KT 9999 SKC QNH3003INS BECMG 1708/1709 18009KT 9999 SKC QNH3013INS BECMG 1715/1716 VRB06KT 9999 SKC QNH3008INS TX33/1712Z TN17/1703Z", "TAF OERF 161100Z 1612/1718 12014KT 7000 NSC BECMG 1620/1622 18010KT BECMG 1704/1706 18015KT", "TAF OERK 161100Z 1612/1718 12010KT CAVOK BECMG 1618/1620 22010KT BECMG 1706/1708 16010KT", "TAF OERR 161100Z 1612/1718 20014KT 7000 NSC BECMG 1620/1622 26008KT CAVOK BECMG 1706/1708 18010KT", "TAF OESH 161100Z 1612/1718 07012KT CAVOK BECMG 1618/1620 VRB03KT 8000 FEW040 BECMG 1706/1708 06013KT", "TAF OESK 161100Z 1612/1718 19014KT 7000 NSC BECMG 1620/1622 VRB03KT CAVOK BECMG 1706/1708 24010KT", "TAF OETB 161100Z 1612/1718 22012KT 9999 FEW040 BECMG 1620/1622 VRB03KT BECMG 1708/1710 23010KT", "TAF OETF 161100Z 1612/1718 09013KT 9999 FEW030 BECMG 1620/1622 14012KT CAVOK", "TAF OETR 161100Z 1612/1718 20015KT 7000 FEW040 BECMG 1620/1622 VRB03KT CAVOK BECMG 1706/1708 20014KT 7000 NSC", "TAF OEWD 161100Z 1612/1718 10013KT CAVOK BECMG 1620/1622 VRB03KT BECMG 1706/1708 12012KT", "TAF OEWJ 161100Z 1612/1718 30014KT CAVOK BECMG 1618/1620 35006KT BECMG 1708/1710 30015KT", "TAF OEYN 161100Z 1612/1718 27014KT CAVOK BECMG 1620/1622 VRB03KT 7000 NSC PROB30 TEMPO 1700/1705 3000 BR BECMG 1706/1708 26012KT", "TAF AMD OIAA 152355Z 1600/1706 17008KT 0500 FG NSC TEMPO 1600/1603 0150 FG BECMG 1605/1606 3000 BR/HZ BECMG 1607/1609 7000 BECMG 1620/1622 5000 HZ TEMPO 1700/1704 3000 HZ/BR", "TAF OIAW 161100Z 1612/1718 27006KT 5000 HZ NSC BECMG 1706/1708 27006KT 6000 TEMPO 1708/1712 FEW035TCU", "TAF OIBB 161420Z 1615/1624 27008KT 7000 NSC TEMPO 1615/1617 27016KT TEMPO 1618/1624 4000 BR/HZ", "TAF OIBK 161100Z 1612/1718 28008KT 6000 NSC TEMPO 16012/1615 24012KT BECMG 1619/1621 5000 HZ/BR TEMPO 1700/1705 2000 BR FEW030 TEMPO 1709/1715 22014KT", "TAF OIBP 161420Z 1615/1624 30008KT 7000 NSC TEMPO 1615/1617 30014KT TEMPO 1618/1624 4000 BR/HZ", "TAF OICC 161420Z 1615/1624 29008KT 7000 FEW040 SCT100 TEMPO 1615/1616 21014KT FEW035 BKN100 PROB30 4000 DU/HZ", "TAF OICI 161100Z 1612/1718 22006KT 7000 NSC TEMPO 1612/1615 27018KT FEW035CB SCT100 BECMG 1618/1620 08006KT TEMPO 1708/1715 28018KT FEW35CB SCT100", "TAF OIFM 161100Z 1612/1718 28008KT 7000 NSC TEMPO 1612/1615 12014KT FEW040 TEMPO 1703/1705 5000 HZ TEMPO 1709/1715 10014KT FEW040", "TAF OIGG 161420Z 1615/1624 27008KT 7000 FEW015CB SCT015 BKN090 TEMPO 1615/1618 27012KT 4000 TSRA/DZ BR BKN010 FEW015CB OVC080 PROB30 TEMPO 1616/1618 2000 TSRA/DZ BR BKN005 TEMPO 1618/1624 2000 TSRA/DZ BR BKN005 FEW015CB OVC070 PROB30 TEMPO 1622/1624 1000", "TAF OIIE 161100Z 1612/1718 34006KT 7000 NSC TEMPO 1612/1614 14014KT BECMG 1618/1620 06006KT SCT040 BKN100 TEMPO 1703/1714 10016KT FEW035CB SCT100", "TAF OIII 161100Z 1612/1718 16006KT 7000 NSC TEMPO 1612/1614 16016KT BECMG 1618/1620 06006KT SCT040 BKN100 TEMPO 1709/1715 14014KT FEW035CB SCT100", "TAF OIIP 161420Z 1615/1624 13008KT 6000 FEW040 FEW100 TEMPO 1615/1616 13014KT PROB30 FEW035CB SCT040 SCT100 TEMPO 1618/1624 5000 HZ", "TAF OIKB 161100Z 1612/1718 26008KT 6000 NSC TEMPO 1612/1615 24014KT BECMG 1621/1623 5000 HZ TEMPO 1700/1704 12008KT 3000 BR FEW030 BECMG 1705/1707 6000", "TAF OIKK 161100Z 1612/1718 35008KT 7000 NSC TEMPO 1612/1614 06012KT", "TAF OIMM 161100Z 1612/1718 14006KT 7000 NSC TEMPO 1612/1614 09018KT TEMPO 1608/1614 14016KT FEW035CB SCT100", "TAF OING 161420Z 1615/1624 09008KT 7000 FEW040 PROB30 TEMPO 1615/1616 FEW040TCU SCT045 SCT100", "TAF OINZ 161420Z 1615/1624 04008KT 7000 FEW040 TEMPO 1615/1616 04012KT SCT035 SCT100 PROB30 5000 RA/DZ BR SCT030 FEW035CB BKN090 TEMPO 1622/1624 5000 DZ BR BKN025 BKN080", "TAF OISL 161100Z 1612/1718 27006KT 7000 NSC", "TAF OISS 161100Z 1612/1718 27006KT 7000 NSC TEMPO 1612/1614 09016KT TEMPO 1710/1714 09014KT", "TAF AMD OITL 161438Z 1615/1624 06008KT 1500 PRFG OVC003 TEMPO 1615/1618 06018G28KT 0800 DZ FG OVC003 FEW040CB OVC090 TEMPO 1618/1624 06023KT 0800 FG DZ OVC003 FEW035CB OVC080", "TAF OITR 161100Z 1612/1718 28006KT 7000 FEW040 BKN100 TEMPO 1612/1615 24012G24KT FEW035CB SCT040 BKN100 BECMG 1620/1622 28006KT SCT035 BKN100 BECMG 1706/1708 FEW035CB SCT040 BKN100 TEMPO 1710/1716 34018KT FEW035CB SCT040 BKN100 PROB40 TS/SHRA", "TAF OITT 161100Z 1612/1718 08006KT 7000 FEW035 BKN090 TEMPO 1612/1615 26018G28KT FEW035CB SCT040 BKN100 PROB30 TS/SHRA BECMG 1616/1618 09006KT NSC BECMG 1620/1622 09008KT SCT040 BKN090 TEMPO 1704/1716 32018KT FEW030CB SCT035 BKN100 PROB30 TS/SHRA", "TAF OIYY 161420Z 1615/1624 12008KT CAVOK PROB30 TEMPO 1616/1617 12014KT", "TAF OIZH 161100Z 1612/1718 05008KT 8000 NSC TEMPO 1612/1615 03018KT", "TAF OJAI 161020Z 1612/1718 17010KT 5000 HZ NSC BECMG 1612/1614 26010KT", "TAF OJAM 161020Z 1612/1718 15005KT 5000 HZ NSC BECMG 1612/1614 26008KT", "TAF OJAQ 161020Z 1612/1718 18012KT 6000 NSC PROB40 TEMPO 1612/1618 4000 HZ BECMG 1620/1622 34012KT", "TAF COR OKAS 161621Z 1616/1722 13009KT 9999 SKC QNH2994INS BECMG 1617/1618 18009KT 9999 SKC QNH2996INS BECMG 1702/1703 22009KT 3200 BR SKC QNH3001INS TEMPO 1703/1704 0800 FG BECMG 1705/1706 17009KT 5000 BR SKC QNH3004INS BECMG 1707/1708 VRB06KT 9000 HZ SKC QNH2998INS BECMG 1710/1711 09009KT 9000 HZ SKC QNH2996INS BECMG 1715/1716 13009KT 9000 HZ SKC QNH2995INS TX35/1709Z TN20/1702Z", "TAF OKBK 161100Z 1612/1718 15010KT 6000 NSC TEMPO 1618/1704 VRB03KT 2000 BR PROB30 TEMPO 1618/1702 0800 FG", "TAF OMAA 161100Z 1612/1718 33012KT 8000 NSC BECMG 1618/1620 04005KT BECMG 1700/1702 14005KT PROB30 1701/1704 4000 HZ BECMG 1708/1710 33012KT", "TAF OMAD 161100Z 1612/1718 34010KT 8000 NSC BECMG 1618/1620 04005KT BECMG 1700/1702 11005KT BECMG 1708/1710 34010KT", "TAF OMAL 161100Z 1612/1718 34011KT 8000 NSC BECMG 1619/1621 04005KT BECMG 1700/1702 15006KT PROB30 1701/1704 4000 HZ BECMG 1708/1710 36011KT", "TAF OMFJ 161100Z 1612/1718 09005KT CAVOK BECMG 1614/1616 VRB03KT BECMG 1621/1623 29005KT BECMG 1706/1708 11007KT", "TAF OODQ 160500Z 1606/1706 10010KT 8000 NSC PROB30 TEMPO 1615/1621 20005KT 4000 BR BKN010 BECMG 1620/1622 VRB02KT", "TAF OOMS 161100Z 1612/1718 02010KT 8000 NSC BECMG 1614/1616 VRB02KT BECMG 1707/1709 01009KT BECMG 1713/1715 VRB02KT", "TAF OOSA 161140Z 1612/1718 17010KT 9999 FEW025 BECMG 1615/1617 VRB03KT BECMG 1707/1709 17010KT", "TAF OOSH 161100Z 1612/1718 03010KT 8000 NSC BECMG 1615/1617 VRB02KT BECMG 1708/1710 05009KT BECMG 1715/1717 VRB02KT", "TAF ORBI 161100Z 1612/1712 16008KT 8000 NSC", "TAF ORER 161100Z 1612/1712 18014KT 7000 SCT045 TEMPO 1612/1615 18014G25KT BECMG 1618/1620 07006KT", "TAF ORMM 161000Z 1612/1712 14006KT CAVOK ", "TAF ORNI 161100Z 1612/1712 14008KT 7000 NSC", "TAF OTBD 160528Z 1606/1712 06008KT 9000 FEW040 TEMPO 1606/1611 VRB03KT TEMPO 1606/1617 13010KT PROB30 TEMPO 1610/1613 6000 FEW035TCU", "TAF OTBH 161600Z 1616/1722 08009KT 9999 SKC QNH2989INS BECMG 1619/1620 VRB06KT 9000 HZ SKC QNH2996INS BECMG 1706/1707 32009KT 9999 NSW SKC QNH2998INS BECMG 1711/1712 06012KT 9999 SKC QNH2995INS BECMG 1716/1717 03009KT 9999 SKC QNH2993INS TX38/1712Z TN23/1703Z", "TAF OTHH 160527Z 1606/1712 06008KT 9000 FEW040 TEMPO 1606/1611 VRB03KT TEMPO 1607/1617 13010KT PROB30 TEMPO 1610/1613 6000 FEW035TCU", "PAAQ 161339Z 1614/1712 35009KT 6SM -RA BR BKN009 OVC040 FM161600 VRB06KT 4SM -RA BR OVC025 FM162100 10010KT P6SM -RA OVC025 FM170400 VRB06KT P6SM VCSH OVC050", "PABE 161546Z 1616/1712 16006KT P6SM FEW010 OVC035 TEMPO 1616/1617 5SM -RA BR BKN010 FM161700 17008KT 6SM BR FEW008 OVC025", "PABR 161136Z 1612/1712 08015KT P6SM OVC024 FM162100 07025G32KT 1 1/2SM -SN BLSN OVC015", "PABT 161136Z 1612/1712 06007KT P6SM VCSH OVC040 FM161700 02004KT P6SM -SN SCT025 OVC040 FM162100 01007KT 4SM -SN BR OVC020 FM170300 01003KT 6SM -SN BR OVC025 FM170600 01003KT P6SM VCSH OVC025", "PACD 161127Z 1612/1712 31014KT 5SM -RA BR OVC015 FM161500 30010KT 6SM -RA SCT007 OVC015 FM161900 30012KT P6SM -RA OVC025 FM170200 25008KT P6SM -RA SCT020 OVC035", "PACV 161529Z 1615/1712 10005KT P6SM SCT015 OVC025 TEMPO 1616/1618 OVC015 FM161800 10008KT 5SM -SHRA BR OVC025 FM170300 10006KT P6SM -SHRA SCT020 BKN035", "PADL 161121Z 1612/1712 VRB06KT 6SM -RA BKN015 OVC025 TEMPO 1612/1615 FEW015 SCT025 OVC050 FM161800 02007KT 3SM -RA OVC007", "PADQ 161124Z 1612/1712 08011KT 6SM -RA BR OVC006 FM161500 10008KT P6SM -SHRA SCT009 OVC015 FM161800 13007KT P6SM VCSH SCT015 BKN025 FM162200 13007KT P6SM SCT025 BKN050", "PADU 161127Z 1612/1712 31012KT P6SM BKN025 OVC035 FM161400 31010G18KT P6SM -SHRA OVC025 FM162000 28008KT P6SM -SHRA OVC035", "TAF AMD PAED 161453Z 1614/1719 03009KT 9000 -SHRA SCT004 BKN040 OVC060 610509 QNH2932INS TEMPO 1614/1618 BKN004 BECMG 1617/1618 03009KT 9999 VCSH FEW005 SCT050 BKN080 620806 QNH2931INS BECMG 1619/1620 01009KT 9999 -SHRA BKN060 BKN150 620608 QNH2927INS TX07/1700Z TN01/1615Z", "TAF AMD PAEI 161641Z 1616/1720 VRB06KT 9999 -RASN BKN030 BKN050 OVC080 620309 520104 QNH2935INS TEMPO 1616/1619 -FZDZ 660002 BECMG 1621/1622 VRB06KT 9999 NSW SCT060 BKN200 QNH2930INS TX03/1700Z TNM05/1712Z", "PAEN 161127Z 1612/1712 VRB06KT P6SM -RA OVC050 FM162200 04010KT P6SM -RA OVC035 FM170200 04007KT P6SM -RA OVC050", "PAFA 161136Z 1612/1718 02005KT P6SM VCSH BKN050 OVC090 FM161300 03005KT 6SM -SNRA BR OVC040 FM161600 04004KT 4SM -SNRA BR OVC015 FM162100 VRB03KT P6SM VCSH OVC025 FM170000 VRB03KT P6SM BKN050 BKN100", "PAGA 161136Z 1612/1712 08010KT P6SM VCSH OVC040 FM170900 07009KT P6SM VCSH OVC025 AMD LTD TO CLD VIS WX", "PAGK 161436Z 1615/1712 VRB02KT 6SM -FZRA SCT004 OVC010 TEMPO 1615/1618 OVC004 FM161800 16004KT 6SM -RA BR OVC015 FM162100 17010G20KT P6SM -SHRA SCT015 OVC030 FM170600 17007KT P6SM VCSH SCT020 OVC040", "PAGS 161523Z 1615/1712 00000KT P6SM FEW007 BKN050 FM161800 14007KT P6SM OVC050 FM170300 14005KT 6SM -RA BR SCT015 OVC025 AMD LTD TO CLD VIS AND WIND", "PAGY 161129Z 1612/1712 21015G25KT P6SM SCT035 OVC050 FM170500 21010G18KT P6SM -RA SCT015 OVC025 AMD LTD TO CLD VIS AND WIND", "PAHN 161129Z 1612/1712 12012G22KT P6SM BKN050 OVC070 FM170300 10008G18KT 6SM -RA BR BKN015 OVC025 WS020/18030KT AMD LTD TO CLD VIS AND WIND", "PAHO 161127Z 1612/1712 VRB06KT P6SM -RA FEW045 BKN080 FM161400 VRB06KT P6SM VCSH OVC050", "PAIL 161120Z 1612/1712 08011KT P6SM VCSH SCT025 OVC035 FM161600 08009KT 6SM -RA SCT015 OVC025", "PAJN 161129Z 1612/1712 10011KT P6SM FEW005 SCT015 BKN035 FM170400 11010KT 5SM -RA BR BKN020 OVC035", "PAKN 161120Z 1612/1712 09011KT 6SM -RA OVC040 FM161800 VRB06KT 6SM -RA BKN015 OVC025 FM162100 VRB06KT 4SM -RA OVC015", "PAKT 161129Z 1612/1712 14004KT 1SM BR SCT002 TEMPO 1612/1616 00000KT 1/4SM FG VV002 FM161700 14011KT P6SM BKN050 FM170800 15012G20KT P6SM SCT007 OVC012 AMD LTD TO CLD VIS AND WIND TIL 161500", "PAKW 152338Z 1600/1624 VRB03KT P6SM FEW025 BKN200 AMD NOT SKED", "PAMC 161136Z 1612/1712 VRB03KT P6SM OVC060 FM170000 06002KT P6SM VCSH SCT025 OVC050", "PANC 161504Z 1615/1718 36006KT P6SM -RA OVC005 FM161700 VRB06KT 5SM -RA BR OVC025 TEMPO 1617/1619 BKN007 FM162200 VRB06KT P6SM -RA OVC025 FM170200 15006KT P6SM -RA OVC050 FM170800 16004KT P6SM -RA OVC035", "PAOM 161136Z 1612/1712 03013KT P6SM VCSH SCT040 BKN070 FM161600 05010KT 6SM -SN BR BKN025 OVC050 FM161800 05010KT 4SM -SN BR OVC015", "PAOR 161136Z 1612/1712 VRB04KT P6SM VCSH OVC015", "PAOT 161136Z 1612/1712 08010KT P6SM OVC070 FM161800 08015KT P6SM VCSH OVC050", "PAPG 161129Z 1612/1712 00000KT 3SM BR FEW002 TEMPO 1612/1616 1/4SM FG VV001 FM161800 VRB03KT P6SM SCT002 BKN050 AMD LTD TO CLD VIS AND WIND TIL 161500", "PAQT 161136Z 1612/1712 06016G25KT P6SM OVC015 FM161500 07020G30KT 6SM BLSN OVC015 FM162200 06028G38KT 1 1/2SM -SN BLSN OVC007 FM170000 07028G38KT 1/2SM -SN BLSN OVC007 FM170300 07020G28KT 4SM -SN BLSN OVC007", "PASC 161136Z 1612/1712 08020G28KT P6SM OVC015 FM161500 08025G32KT 6SM BLSN OVC015 FM162100 08030G40KT 1 1/2SM -SN BLSN OVC015 FM170000 08030G40KT 1/2SM -SN BLSN OVC007 FM170600 09025G35KT 4SM -SN BLSN OVC007", "PASD 161127Z 1612/1712 VRB06KT P6SM -RA SCT009 BKN015 FM161400 33006KT 6SM -RA BR OVC007 TEMPO 1615/1619 4SM -RA BR FM161900 33008KT 6SM -RA BR SCT007 OVC015 FM170300 31008KT P6SM -RA OVC035", "PASI 161129Z 1612/1712 13005KT P6SM FEW005 SCT010 OVC050 FM170100 13008KT P6SM -RA SCT015 OVC025 FM170700 14007KT 4SM -RA BR OVC015", "PASN 161127Z 1612/1712 32012KT P6SM BKN025 OVC035 FM161500 33013KT P6SM OVC050 FM170300 34015G25KT P6SM OVC030", "TAF PASY 161400Z 1614/1720 VRB06KT 9999 BKN035 BKN050 QNH2979INS BECMG 1619/1620 VRB06KT 9999 FEW035 SCT050 QNH2982INS BECMG 1700/1701 30012KT 9999 SCT050 QNH2988INS BECMG 1705/1706 28015KT 9999 FEW025 SCT040 QNH2994INS BECMG 1715/1716 25018KT 9999 SCT025 BKN040 QNH3003INS TX07/1714Z TN05/1614Z", "PATA 161136Z 1612/1712 08011KT P6SM VCSH OVC050 FM161800 08009KT 6SM -SN BR OVC025 FM170400 07006KT P6SM VCSH SCT025 OVC050 AMD NOT SKED", "PATK 161127Z 1612/1712 VRB06KT P6SM -RA OVC045 FM162000 VRB06KT P6SM -RA OVC030 FM170400 VRB06KT P6SM VCSH OVC050", "PAUN 161318Z 1613/1712 07024G28KT 6SM -SN BR SCT025 OVC040 FM161900 07022KT P6SM VCSH OVC025 FM170000 08015KT P6SM -RASN OVC025", "PAVD 161124Z 1612/1712 VRB03KT 6SM -RA FEW005 SCT020 OVC050 TEMPO 1614/1618 4SM -RA BR SCT010 OVC025 FM170200 VRB03KT 4SM -RA BR SCT010 OVC030 AMD LTD TO CLD VIS AND WIND", "PAWG 161129Z 1612/1712 VRB05KT P6SM FEW002 BKN050 TEMPO 1612/1616 1/2SM FG VV002 FM171000 13005KT P6SM BKN025 OVC035 AMD LTD TO CLD VIS AND WIND TIL 161500", "PAYA 161613Z 1616/1712 15010G20KT 6SM RA BR FEW005 OVC040 WS020/16030KT TEMPO 1616/1619 -RA BR BKN006 OVC015 FM162000 13010G18KT 5SM -RA BR SCT007 OVC012 FM170400 14009KT P6SM -RA SCT015 OVC025 AMD LTD TO CLD VIS AND WIND", "PGRO 160520Z 1606/1706 18009KT P6SM VCSH SCT015 BKN050 OVC110 TEMPO 1606/1610 18010KT 4SM -SHRA SCT015 BKN050", "PGSN 161120Z 1612/1712 15006KT P6SM VCSH SCT015 OVC110", "TAF PGUA 161000Z 1610/1716 15006KT 9999 SCT014 BKN170 QNH2982INS TEMPO 1702/1714 12010KT 8000 -SHRA TX30/1702Z TN25/1618Z", "PGUM 161120Z 1612/1718 13006KT P6SM VCSH SCT015 OVC110", "PGWT 160520Z 1606/1706 19008KT P6SM VCSH FEW015 SCT050 BKN120 TEMPO 1606/1610 VRB11G20KT 3SM SHRA BKN015 OVC050", "PHJH 152327Z 1600/1624 03016G22KT P6SM FEW025 SCT045 FM160600 04010KT P6SM FEW025 SCT045 FM162000 04014G20KT P6SM FEW025 SCT045", "PHJR 161120Z 1612/1712 04004KT P6SM FEW050 FM162000 10008KT P6SM SCT050 FM170500 06005KT P6SM FEW050", "PHKO 161120Z 1612/1712 VRB06KT P6SM SCT050 FM162000 26009KT P6SM SCT050 FM170500 VRB06KT P6SM SCT050", "PHLI 161120Z 1612/1712 03010KT P6SM VCSH SCT030 BKN045 FM162000 05011KT P6SM FEW030 SCT045", "PHMK 161120Z 1612/1712 03011KT P6SM FEW025 SCT040 FM162000 04012G18KT P6SM FEW030 SCT040 FM170500 05009KT P6SM FEW025 SCT040", "PHNL 161456Z 1615/1718 04007KT P6SM FEW025 BKN045 FM162000 06012G18KT P6SM FEW025 SCT050 FM170400 06007KT P6SM FEW025 SCT050", "PHNY 161605Z 1616/1712 05009KT P6SM FEW025 FM161900 16008KT P6SM BKN028 FM170000 05014KT P6SM SCT030", "PHOG 161120Z 1612/1712 04008KT P6SM FEW040 FM162000 05013KT P6SM FEW035 SCT050 FM170500 07008KT P6SM SCT050", "PHTO 161120Z 1612/1712 24005KT P6SM SCT025 SCT045 FM162000 05008KT P6SM SCT030 SCT045 FM170500 24005KT P6SM VCSH SCT025 BKN040", "PKMJ 161120Z 1612/1712 09006KT P6SM VCSH FEW015 SCT050", "PKWA 161120Z 1612/1712 11011KT P6SM VCSH SCT030 BKN050", "TAF PLCH 161105Z 1612/1712 11005KT 9999 SCT020", "PMDY 161120Z 1612/1712 19013KT P6SM SCT025 BKN035 FM162100 24014KT P6SM FEW025 SCT035 FM170300 25015KT P6SM FEW030 AMD NOT SKED", "PTKK 161120Z 1612/1712 12006KT P6SM VCSH SCT014 BKN050 BKN120 TEMPO 1612/1614 3SM SHRA BKN016 OVC050", "PTPN 161120Z 1612/1712 13006KT P6SM VCSH SCT018 BKN130", "PTRO 161120Z 1612/1712 19006KT P6SM VCSH SCT015 BKN110", "PTSA 152330Z 1600/1624 12005KT P6SM VCSH SCT015 BKN130", "PTYA 161120Z 1612/1712 19006KT P6SM VCSH SCT016 BKN120", "TAF PWAK 161400Z 1614/1720 11009KT 8000 -SHRA FEW020 SCT200 QNH2991INS TEMPO 1614/1615 6000 TSRA BKN030CB BKN140 TEMPO 1615/1622 12009KT BKN030 BKN140 TX31/1623Z TN23/1714Z FOR MIL USE ONLY LIMITED METWATCH 1614 TIL 1720", "TAF RCFN 161100Z 1612/1712 02008KT 8000 FEW010 BKN032 TEMPO 1612/1618 5000 SHRA FEW010 BKN020 BKN040 TEMPO 1620/1702 33005KT FEW010 BKN018 BKN040 TEMPO 1706/1712 05013KT 5000 RA FEW010 BKN020 BKN040", "TAF RCKH 161100Z 1612/1718 32005KT 8000 FEW010 BKN032 TEMPO 1612/1618 27005KT 5000 RA FEW010 BKN020 BKN040 TEMPO 1618/1624 05005KT 4000 BR TEMPO 1704/1710 27008KT TEMPO 1710/1716 30010KT", "TAF COR RCMQ 161125Z 1612/1712 01016KT 9999 FEW006 SCT025 BKN060 TX25/1705Z TN22/1621Z TEMPO 1617/1722 7000 -RA SCT006 BKN020 BKN040 BECMG 1623/1702 01022G32KT 7000 -RA SCT006 BKN010 BKN020 TEMPO 1704/1709 9999 SCT006 BKN020 BKN040", "TAF RCNN 161100Z 1612/1712 04004KT 9999 FEW012 SCT040 BKN100 TX30/1705Z TN21/1620Z TEMPO 1620/1701 8000 -RA FEW010 SCT025 BKN050 BECMG 1702/1705 01010KT FEW012 BKN050 BECMG 1708/1711 8000 -RA", "TAF RCSS 161100Z 1612/1712 08008KT 5000 RA FEW008 BKN015 BKN025 TEMPO 1612/1617 07012G22KT 2500 SHRA SCT006 BKN009 BKN025 TEMPO 1617/1623 7000 NSW FEW008 BKN020 BKN030 BECMG 1623/1701 6000 NSW FEW008 BKN022 TEMPO 1701/1707 4000 SHRA SCT008 BKN011 BKN040 TEMPO 1707/1712 VRB05G20KT 2800 SHRA SCT005 BKN008 BKN030", "TAF RCTP 161100Z 1612/1718 04018KT 6000 SCT004 BKN007 BKN015 TEMPO 1612/1618 05023KT 2800 SHRA SCT003 BKN004 BKN015 TEMPO 1618/1624 4000 RA SCT003 BKN005 BKN015 TEMPO 1700/1706 02022G32KT 5000 RA SCT008 BKN011 BKN030 BECMG 1706/1708 03023KT FEW008 BKN020 TEMPO 1708/1714 FEW010 BKN032", "TAF RJAA 161105Z 1612/1718 01004KT 9999 FEW020 BECMG 1700/1703 18005KT TEMPO 1706/1712 4000 -SHRA BR FEW004 BKN008 BECMG 1712/1715 32005KT TEMPO 1712/1718 3000 -SHRA BR FEW003 BKN005", "TAF RJAH 161110Z 1612/1718 01004KT 9999 FEW020 BECMG 1700/1703 20005KT BECMG 1706/1709 33005KT TEMPO 1706/1712 3000 SHRA BR FEW002 BKN004", "TAF RJBB 161108Z 1612/1718 20006KT 9999 FEW020 BKN040 BECMG 1613/1615 07004KT TEMPO 1618/1700 4000 SHRA BR FEW003 BKN008 BKN015 BECMG 1700/1703 24007KT TEMPO 1703/1709 3000 SHRA BR FEW003 BKN008 BKN015 BECMG 1709/1712 01007KT", "TAF RJCB 161110Z 1612/1718 34005KT 7000 FEW003 BKN015 TEMPO 1612/1700 0700 FG VV001 BECMG 1700/1703 18007KT BECMG 1706/1709 33015KT", "TAF RJCC 161109Z 1612/1718 15006KT 9999 FEW004 BKN015 TEMPO 1615/1700 2000 -SHRA BR FEW002 BKN004 BECMG 1703/1706 34013KT TEMPO 1703/1709 3000 SHRA BR FEW003 BKN006", "TAF RJCH 161105Z 1612/1718 03005KT 9999 FEW020 BKN045 BECMG 1620/1622 24010KT BECMG 1706/1709 32010KT", "TAF RJCK 161105Z 1612/1718 34003KT 7000 FEW003 BKN015 TEMPO 1612/1614 3000 BR FEW002 BKN004 TEMPO 1614/1622 0700 FG VV001 BECMG 1622/1700 19010KT TEMPO 1622/1700 3000 BR FEW001 BKN003 BECMG 1709/1712 35006KT", "TAF RJCM 161105Z 1612/1718 19007KT 9999 FEW030 BKN050 BECMG 1706/1709 35009KT TEMPO 1706/1712 4000 -SHRA BR FEW005 BKN008 BECMG 1715/1718 20005KT", "TAF RJEC 161110Z 1612/1718 18011KT 9999 FEW006 BKN015 BECMG 1703/1706 30010KT BECMG 1709/1712 19005KT", "TAF RJFF 161109Z 1612/1718 16004KT 9999 FEW010 SCT015 BKN025 BECMG 1700/1703 33011KT", "TAF RJFK 161110Z 1612/1718 02003KT 8000 -SHRA FEW005 SCT010 BKN015 TEMPO 1612/1621 4000 -SHRA BR FEW005 BKN008 BKN015 TEMPO 1621/1706 3000 SHRA BR FEW005 BKN008 BKN015 TEMPO 1706/1712 4000 -SHRA BR", "TAF RJFM 161108Z 1612/1718 29005KT 8000 -SHRA FEW008 SCT010 BKN015 TEMPO 1612/1616 3000 SHRA BR FEW005 BKN008 BKN015 TEMPO 1616/1700 FEW005 BKN008 BKN015 TEMPO 1700/1709 2000 SHRA BR FEW005 BKN008 BKN015 BECMG 1703/1706 03005KT BECMG 1709/1712 27010KT", "TAF RJFO 161107Z 1612/1718 21004KT 8000 -SHRA FEW005 SCT015 BKN020 TEMPO 1613/1622 4000 SHRA BR BECMG 1617/1619 30005KT", "TAF RJFR 161110Z 1612/1718 29006KT 9999 FEW015 SCT025 BKN035 BECMG 1613/1615 25004KT BECMG 1700/1703 32012KT", "TAF RJFS 161110Z 1612/1718 28005KT 7000 -SHRA FEW005 SCT008 BKN015 TEMPO 1612/1621 3000 SHRA BR TEMPO 1621/1700 4000 SHRA BR", "TAF RJFT 161111Z 1612/1718 24003KT 7000 -SHRA FEW005 SCT010 BKN015 TEMPO 1612/1621 2000 SHRA BR FEW001 SCT003 BKN005 TEMPO 1621/1703 1500 SHRA BR FEW001 BKN003 BKN005 TEMPO 1703/1706 3000 SHRA BR FEW001 SCT003 BKN005", "TAF RJFU 161107Z 1612/1718 36005KT 7000 -SHRA FEW008 SCT010 BKN015 TEMPO 1612/1621 3000 SHRA BR TEMPO 1621/1700 4000 SHRA BR BECMG 1703/1706 34015KT", "TAF RJGG 161105Z 1612/1718 12005KT 9999 FEW010 BKN020 BECMG 1617/1619 02005KT TEMPO 1621/1703 3000 SHRA BR FEW005 BKN008 BECMG 1706/1709 32012KT TEMPO 1706/1709 4000 -SHRA BR FEW005 BKN008", "TAF RJNK 161105Z 1612/1718 20004KT 9999 FEW010 BKN030 BECMG 1712/1715 02014KT", "TAF RJNS 161105Z 1612/1718 35004KT 9999 FEW030 BKN060 TEMPO 1700/1706 3000 SHRA BR FEW003 BKN005 BECMG 1706/1709 25012KT", "TAF RJNT 161115Z 1612/1718 23005KT 9999 FEW020 BKN060 BECMG 1700/1703 30005KT BECMG 1706/1709 20006KT BECMG 1715/1718 35008KT TEMPO 1715/1718 4000 SHRA BR FEW005 BKN008", "TAF RJOA 161105Z 1612/1718 32004KT 7000 -SHRA FEW003 SCT008 BKN015 TEMPO 1615/1621 3000 SHRA BR BCFG FEW000 SCT003 BKN008 TEMPO 1621/1706 4000 -SHRA BR", "TAF RJOB 161106Z 1612/1718 30004KT 9999 FEW015 SCT035 TEMPO 1618/1703 3000 -SHRA BR BCFG FEW000 SCT003 BKN005", "TAF RJOC 161105Z 1612/1718 17005KT 9999 FEW025 SCT050 BECMG 1700/1703 28011KT BECMG 1715/1718 20006KT", "TAF RJOH 161105Z 1612/1718 18004KT 9999 FEW025 SCT060 BECMG 1700/1703 28012KT BECMG 1715/1718 22006KT", "TAF RJOI 1615/1715 30005KT 8000 -SHRA BR SCT010 BKN030 OVC060 QNH2990INS TEMPO 1615/1621 3200 SHRA BR SCT008 BKN025 OVC045 FM162200 33006KT 8000 -SHRA BR FEW015 BKN035 OVC060 QNH2985INS TEMPO 1622/1704 4800 SHRA BR FEW008 BKN025 OVC045 BECMG 1704/1706 25008KT 9999 NSW FEW020 BKN060 OVC140 QNH2983INS FM171100 32009KT 9999 FEW025 SCT250 QNH2986INS T17/1621Z T22/1706Z", "TAF RJOK 161105Z 1612/1718 35006KT 9000 -SHRA FEW015 BKN035 TEMPO 1700/1709 3500 SHRA BR FEW003 BKN008 BKN015", "TAF RJOM 161106Z 1612/1718 12005KT 8000 -SHRA FEW008 SCT015 BKN025 TEMPO 1615/1621 4000 -SHRA BR TEMPO 1621/1703 3000 SHRA BR BECMG 1700/1703 35008KT TEMPO 1703/1706 4000 -SHRA BR", "TAF RJOO 161106Z 1612/1718 32004KT 9999 FEW025 BKN045 TEMPO 1618/1700 4000 SHRA BR TEMPO 1703/1709 3000 SHRA BR FEW003 BKN008 BKN015", "TAF RJOT 161107Z 1612/1718 15004KT 9999 FEW020 BKN045 BECMG 1614/1616 20005KT TEMPO 1621/1706 3000 SHRA BR FEW001 SCT005 BKN008", "TAF RJSA 161105Z 1612/1718 21008KT 8000 FEW010 TEMPO 1612/1615 3000 BR BECMG 1703/1706 27010KT TEMPO 1703/1709 4000 -SHRA BR FEW005 BKN008 BKN015", "TAF RJSF 161109Z 1612/1718 14005KT 9999 FEW010 BKN015 TEMPO 1618/1700 3000 BR FEW002 BKN005 TEMPO 1703/1709 4000 -SHRA BR FEW002 BKN005 BKN008 BECMG 1706/1709 36005KT", "TAF RJSI 161105Z 1612/1718 19005KT 8000 -SHRA FEW008 BKN015 BKN020 BECMG 1613/1615 01004KT TEMPO 1618/1700 4000 -SHRA BR FEW005 BKN008 BKN015 BECMG 1700/1703 19005KT BECMG 1709/1712 29008KT", "TAF RJSK 161105Z 1612/1718 13005KT 9999 FEW020 SCT030 TEMPO 1621/1703 1500 -SHRA BR FEW001 BKN003 BKN005 BECMG 1703/1706 30010KT", "TAF RJSN 161113Z 1612/1718 17004KT 9999 FEW030 BKN080 BECMG 1700/1703 20010KT TEMPO 1703/1706 4000 -SHRA BR BECMG 1709/1712 34018KT", "TAF RJSS 161106Z 1612/1718 22005KT 9999 FEW010 SCT020 BECMG 1712/1715 32010KT", "TAF RJTT 161105Z 1612/1718 02004KT 9999 FEW010 BKN020 BECMG 1700/1703 20010KT TEMPO 1703/1712 4000 -SHRA BR FEW005 BKN008 BECMG 1709/1712 34006KT", "TAF RJTY 161300Z 1613/1719 27006KT 9999 FEW025 BKN050 QNH3002INS BECMG 1615/1616 30006KT 9999 SCT010 BKN020 OVC050 QNH3000INS BECMG 1620/1621 VRB06KT 8000 -SHRA SCT008 BKN010 OVC020 QNH2981INS TEMPO 1621/1624 BKN008 BECMG 1703/1704 VRB06KT 9999 NSW BKN015 BKN080 OVC150 QNH2975INS BECMG 1709/1710 01006KT 9000 -SHRA OVC008 QNH2974INS BECMG 1717/1718 01006KT 8000 -RA SCT008 BKN010 QNH2973INS TX24/1705Z TN15/1621Z", "TAF AMD RKJB 161435Z 1615/1718 34010KT 7000 NSC TN14/1621Z TX16/1704Z TEMPO 1615/1617 4000 BR BECMG 1620/1621 35015G25KT SCT035 BECMG 1703/1704 35018G35KT BECMG 1712/1713 35015G25KT", "TAF RKNY 161100Z 1612/1718 27010KT CAVOK TN12/1621Z TX15/1704Z TEMPO 1617/1621 27015G25KT BECMG 1703/1705 35007KT TEMPO 1707/1712 03006KT 6000 -RA FEW010 BKN025 OVC080 BECMG 1713/1715 23006KT", "TAF AMD RKPC 161202Z 1612/1718 34006KT 9999 BKN030 TN16/1621Z TX18/1703Z BECMG 1616/1617 SCT030 BECMG 1622/1623 35015G25KT", "TAF RKPK 161100Z 1612/1718 33006KT 9999 SCT030 SCT150 TN14/1621Z TX22/1706Z BECMG 1700/1701 33012KT", "TAF RKSG 161100Z 1611/1717 VRB06KT 9000 BR FEW110 QNH3006INS BECMG 1615/1616 VRB06KT 9000 BR SCT011 510043 QNH3006INS BECMG 1700/1701 33015G20KT 9999 NSW SKC 520053 QNH3015INS BECMG 1702/1703 33020G30KT 9999 SKC 520053 QNH3009INS BECMG 1708/1709 30012KT 9999 SCT055 510043 QNH3009INS TX17/1611Z TN07/1622Z", "TAF AMD RKSI 161535Z 1616/1718 33015G25KT 4000 BR NSC TN08/1621Z TX13/1705Z BECMG 1617/1618 33018G35KT BECMG 1709/1710 33015G25KT", "TAF RKSM 161100Z 1612/1718 27006KT 9000 BR BKN200 BECMG 1617/1618 33006G16KT 9999 NSW SCT030 TN08/1621Z TX15/1706Z", "TAF RKSO 151300Z 1513/1619 32006KT 9999 BKN140 QNH3009INS BECMG 1514/1515 VRB06KT 8000 HZ BKN130 QNH3009INS BECMG 1523/1600 12006KT 9999 NSW BKN140 QNH3004INS BECMG 1614/1615 31006KT 9000 BR BKN140 QNH3007INS BECMG 1617/1618 31009KT 9999 NSW SCT210 510043 QNH3008INS TX22/1605Z TN13/1519Z LAST NO AMDS AFT 1513 NEXT 1621", "TAF RKSS 161100Z 1612/1718 27006KT CAVOK TN07/1622Z TX14/1705Z BECMG 1617/1619 33010G20KT BECMG 1703/1705 33015G30KT BECMG 1708/1710 33008KT", "TAF RKTN 161100Z 1612/1718 30006KT 9999 SCT030 BKN150 TX20/1612Z TN08/1718Z", "TAF RKTU 161100Z 1612/1718 33006KT 4800 BR NSC TN09/1621Z TX13/1706Z BECMG 1700/1701 33008G18KT 9999 NSW SCT030 BECMG 1710/1711 33006KT", "TAF ROAH 161112Z 1612/1718 10012KT 9999 FEW015 BKN025 TEMPO 1621/1703 4000 SHRA FEW008 BKN015 FEW020CB BECMG 1706/1709 16014KT TEMPO 1709/1715 4000 SHRA FEW008 BKN015 FEW020CB BECMG 1715/1718 36025KT", "TAF RODN 161600Z 1616/1722 10015KT 9999 SCT018 BKN030 QNH2983INS BECMG 1623/1624 13012KT 9999 FEW015 SCT050 QNH2986INS BECMG 1702/1703 09012KT 9000 -SHRA FEW010 BKN020 OVC050 QNH2979INS TEMPO 1709/1715 4800 SHRA BKN010 TX30/1704Z TN24/1618Z", "TAF ROIG 161114Z 1612/1718 12008KT 9999 FEW008 BKN015 TEMPO 1703/1706 4000 SHRA FEW006 BKN008 BKN015 FEW020CB BECMG 1706/1709 02020KT TEMPO 1709/1718 02022G33KT", "TAF ROTM 1603/1703 11010KT 9999 SCT015 SCT150 QNH2983INS TEMPO 1504/1510 10012G25KT 9999 SCT015 BKN150 BECMG 1612/1614 12010KT 9999 SCT015 SCT060 BKN150 QNH2979INS TEMPO 1615/1621 9999 BKN020 BECMG 1620/1622 13015KT 9999 SCT020 BKN050 BKN150 QNH2975INS T30/1604Z T24/1618Z", "TAF RPLB 161100Z 1612/1712 28008KT 9999 SCT020 BKN300 TX31/1706Z TN26/1621Z TEMPO 1612/1618 30010KT 8000 -SHRA FEW016CB SCT018 BKN080", "TAF RPLC 161100Z 1612/1718 21006KT 9999 SCT020 BKN300 TX33/1706Z TN24/1621Z TEMPO 1612/1618 27006KT SCT020 BKN100", "TAF RPLI 161100Z 1612/1712 21015KT 8000 -RA SCT018 OVC090 TEMPO 1612/1618 18017G27KT 2000 RA BKN018 OVC070 TEMPO 1618/1624 17014G24KT 4000 TSRA FEW016CB BKN018 OVC080", "TAF RPLL 161100Z 1612/1718 26012KT 9999 FEW025 SCT100 BKN300 TX31/1706Z TN27/1621Z TEMPO 1612/1618 24020KT -SHRA FEW022CB SCT023 BKN100 TEMPO 1618/1624 27014KT FEW023 BKN100", "TAF RPMD 161100Z 1612/1712 19007KT 9999 FEW016 SCT090 BKN260 TEMPO 1612/1618 27004KT -TSRA FEW015CB SCT016 BKN090 BECMG 1618/1620 34006KT", "TAF RPMR 161100Z 1612/1712 28007KT 9999 FEW018 SCT080 BKN250 TEMPO 1612/1618 19005KT -TSRA FEW017CB SCT018 BKN080", "TAF RPMZ 161100Z 1612/1712 28007KT 9999 FEW017 SCT090 BKN300 TEMPO 1612/1618 24005KT -SHRA FEW016CB SCT017 BKN090", "TAF RPVD 161100Z 1612/1712 25008KT 9999 FEW015 SCT070 BKN220 TEMPO 1612/1618 22004KT -SHRA FEW014CB SCT015 BKN070", "TAF RPVM 161100Z 1612/1718 23010KT 9999 FEW020 BKN300 TEMPO 1612/1618 24012KT FEW020 BKN100 TEMPO 1618/1624 22009KT FEW018CB BKN300", "TAF RPVP 161100Z 1612/1712 27007KT 9999 FEW019 BKN080 TEMPO 1612/1618 24004KT -TSRA FEW017CB SCT019 OVC080", "TAF SAAR 161100Z 1612/1712 15005KT 6000 OVC003 TX22/1618Z TN10/1710Z BECMG 1613/1614 11010KT 9999 BKN015 BECMG 1618/1620 CAVOK BECMG 1703/1705 14005KT 9999 BKN010 ", "TAF AMD SABE 161350Z 1614/1712 12015KT 9999 BKN015 TX19/1618Z TN14/1710Z BECMG 1616/1618 09015G25KT CAVOK BECMG 1622/1700 12010KT 9999 BKN020 ", "TAF SACO 161100Z 1612/1712 05005KT 8000 FEW004 TX25/1618Z TN06/1710Z BECMG 1612/1615 05010KT CAVOK BECMG 1619/1621 07010KT BECMG 100/1703 36005KT", "TAF SADF 161100Z 1612/1712 14005KT 9999 FEW015 SCT035 TX19/1618Z TN12/1709Z BECMG 1615/1617 09015KT CAVOK BECMG 1702/1704 11010KT 9999 BKN015", "TAF SAEZ 161100Z 1612/1712 15005KT 5000 BR BKN005 TX19/1618Z TN10/1709Z BECMG 1614/1616 09010G20KT 9999 BKN030 TEMPO 1615/1618 7000 -RA BECMG 1620/1622 CAVOK BECMG 1701/1703 12005KT 9999 OVC010 TEMPO 1706/1712 5000 BRDZ OVC006", "TAF SAME 161100Z 1612/1712 VRB03KT CAVOK TX27/1620Z TN11/1710Z BECMG 1617/1619 05007KT BECMG 1701/1703 20005KT BECMG 1708/1710 18010KT 9999 SCT040 ", "TAF SANR 161100Z 1612/1712 23005KT CAVOK TX28/1618Z TN16/1710Z BECMG 1621/1623 05010KT 9999 BKN035 FEW040TCU PROB40 1707/1710 18010KT 6000 TSRA BKN020 FEW030CB", "TAF SANT 161100Z 1612/1712 23005KT 7000 OVC045 TX27/1618Z TN16/1710Z BECMG 1615/1617 02010KT 9999 SCT030 FEW040TCU BECMG 1622/1701 05010KT 70000 SCT040", "TAF SARE 161100Z 1612/1712 18005KT CAVOK TX29/1618Z TN18/1710Z", "TAF SARF 161100Z 1612/1712 18005KT CAVOK TX29/1618Z TN18/1710Z", "TAF SARI 161100Z 1612/1712 09005KT CAVOK TX27/1618Z TN17/1710Z", "TAF SARP 161100Z 1612/1712 VRB03KT 8000 SCT010 BKN100 TX27/1618Z TN17/1710Z BECMG 1613/1615 16005KT CAVOK", "TAF SASA 161100Z 1612/1712 VRB02KT 9999 BKN040 TX24/1618Z TN11/1710Z BECMG 1615/1618 05015KT 9999 BKN045 BECMG 1702/1705 02005KT 9999 BKN040 OVC060", "TAF SASJ 161100Z 1612/1712 32005KT 9999 OVC045 TX25/1618Z TN13/1710Z BECMG 1614/1616 05010KT 9999 BKN045 BECMG 1700/1703 VRB03KT 9999 BKN040 OVC060", "TAF SAVC 161100Z 1612/1712 VRB03KT 9999 SCT015 BKN090 TX16/1712Z TN09/1612Z BECMG 1613/1615 07015KT 9999 SCT025 BECMG 1703/1705 35015KT ", "TAF SAWE 161100Z 1612/1712 29010KT CAVOK TX14/1619Z TN02/1610Z ", "TAF SAWG 161100Z 1612/1712 27005KT CAVOK TX21/1619Z TN04/1612Z BECMG 1613/1615 32015KT TEMPO 1619/1701 36010KT BECMG 1703/1705 27010KT ", "TAF SAWH 161100Z 1612/1712 27010KT CAVOK TX12/1618Z TN00/1710Z BECMG 1701/1703 35015KT SCT020 OVC070 ", "TAF SAZM 161100Z 1612/1712 VRB03KT CAVOK TX16/1618Z TN10/1709Z BECMG 1614/1616 09010KT BECMG 1623/1701 05005KT 8000 NSC BECMG 1601/1603 3000 BR NSC TEMPO 1606/1611 0800 FG SCT010", "TAF SAZN 161100Z 1612/1712 14005KT CAVOK TX25/1618Z TN12/1710Z BECMG 1615/1617 09010G20KT BECMG 1706/1708 14010KT ", "TAF SAZS 161100Z 1612/1712 VRB03KT CAVOK TX20/1618Z TN08/1710Z BECMG 1616/1618 05015KT BECMG 1623/1701 VRB03KT PROB30 TEMPO 1700/1704 8000 -SHRA BKN045 ", "TAF SBAF 160900Z 1612/1624 03005KT CAVOK TX28/1616Z TN22/1623Z BECMG 1620/1622 10008KT RMK PFP", "TAF SBAN 160900Z 1612/1624 08008KT CAVOK TX31/1616Z TN21/1623Z BECMG 1613/1615 8000 BKN030 RMK PFP", "TAF SBAT 160851Z 1612/1624 28005KT 8000 NSC TN27/1612Z TX34/1618Z TEMPO 1619/1622 17007KT 4000 TSRA BKN017 FEW030CB RMK PHI", "TAF SBBI 160900Z 1612/1624 06007KT 5000 RA BKN006 OVC018 FEW025TCU TX19/1617Z TN15/1623Z PROB30 1616/1622 3000 TSRA BKN008 OVC018 FEW030CB RMK PFP", "TAF SBBU 160745Z 1612/1624 13014KT 8000 FEW025 TX30/1618Z TN23/1623Z BECMG 1615/1617 09009KT BECMG 1619/1621 18009KT RMK PGM", "TAF SBBW 160800Z 1612/1624 06006KT 9999 FEW025 TX38/1617Z TN28/1624Z BECMG 1612/1614 07012KT BECMG 1616/1618 10005KT RMK PGE", "TAF SBCO 160900Z 1612/1624 09008KT 9999 SCT020 FEW040TCU TN17/1612Z TX23/1618Z BECMG 1615/1617 23005KT SCT030 BECMG 1621/1623 18005KT RMK PEH", "TAF SBCZ 160851Z 1612/1712 19005KT 7000 BKN006 TX29/1619Z TN23/1706Z BECMG 1612/1614 13005KT SCT015 TEMPO 1619/1622 4000 TSRA BKN020 FEW030CB BECMG 1622/1624 00000KT PROB30 TEMPO 1706/1712 4000 TSRA BKN006 FEW025CB RMK PHI", "TAF SBDN 160745Z 1612/1624 13012KT 8000 FEW025 TX30/1617Z TN22/1623Z BECMG 1615/1617 09010KT RMK PGM", "TAF SBGW 160900Z 1612/1624 04006KT 7000 NSC TX28/1617Z TN19/1623Z BECMG 1614/1616 CAVOK RMK PFP", "TAF SBIH 160851Z 1612/1624 00000KT 8000 SCT012 FEW023TCU TN27/1612Z TX34/1618Z BECMG 1613/1615 07005KT PROB30 1618/1621 TS SCT020 FEW025CB BECMG 1621/1623 00000KT RMK PHI", "TAF SBIL 160800Z 1612/1624 21005KT 8000 RA SCT018 FEW030TCU TX27/1618Z TN23/1624Z BECMG 1612/1614 15010KT 9999 NSW BKN025 BECMG 1616/1618 VCSH SCT020 FEW025TCU RMK PGE", "TAF SBIZ 160851Z 1612/1624 07005KT 9999 SCT020 TN29/1612Z TX37/1618Z BECMG 1618/1620 13005KT RMK PHI", "TAF SBJV 160900Z 1612/1624 03010KT 4000 RA BKN008 OVC020 TX24/1617Z TN20/1623Z BECMG 1614/1616 06010KT 8000 SCT010 BKN020 BECMG 1618/1620 06005KT 4000 RA BKN010 BKN020 RMK PFF", "TAF SBKG 160900Z 1612/1624 16010KT 9999 BKN017 TX31/1618Z TN23/1623Z BECMG 1615/1617 13015KT BKN025 BECMG 1620/1622 10010KT SCT030 RMK PGB", "TAF SBME 160900Z 1612/1624 09010KT 8000 SCT012 BKN020 TX29/1616Z TN23/1623Z BECMG 1614/1616 11015KT 9999 SCT020 BECMG 1619/1621 06015KT SCT025 RMK PGB", "TAF SBNF 160900Z 1612/1712 06015KT 4000 RA BKN010 BKN020 BKN025 TX21/1618Z TN20/1706Z BECMG 1618/1620 06005KT 8000 BKN020 PROB40 TEMPO 1700/1706 09005KT 0400 FG BKN008 BECMG 1706/1708 12005KT 8000 BKN010 RMK PFF", "TAF SBNT 160900Z 1612/1624 13015KT 8000 BKN025 TX30/1616Z TN25/1623Z BECMG 1615/1617 15020KT 9999 SCT025 BECMG 1619/1621 15013KT FEW025 RMK PGB", "TAF SBSC 160900Z 1612/1624 01006KT CAVOK TX27/1616Z TN21/1623Z BECMG 1617/1618 10007KT RMK PFP", "TAF SBSM 160900Z 1612/1624 09008KT 9999 SCT020 TN17/1612Z TX23/1618Z BECMG 1615/1617 18005KT BECMG 1621/1623 14005KT RMK PEH", "TAF SBTD 160745Z 1612/1624 08008KT 8000 FEW025 TX25/1617Z TN18/1623Z RMK PGM", "TAF SBUG 160900Z 1612/1624 12005KT 9999 SCT020 TN20/1612Z TX26/1618Z BECMG 1615/1617 16008KT BECMG 1621/1623 CAVOK RMK PEH", "TAF SBUL 160800Z 1612/1624 06015KT CAVOK TX30/1618Z TN24/1624Z BECMG 1614/1616 08007KT FEW030 BECMG 1620/1622 11005KT CAVOK RMK PGE", "TAF SBUR 160800Z 1612/1624 06015KT 8000 NSC TX32/1619Z TN25/1624Z BECMG 1616/1618 12008KT RMK PGE", "TAF SBVH 160851Z 1612/1624 11007KT CAVOK TN23/1612Z TX31/1618Z BECMG 1618/1620 TS SCT015 FEW035CB BECMG 1620/1622 25007KT BECMG 1622/1624 NSW FEW020 RMK PHI", "TAF SBYS 160900Z 1612/1624 03010KT CAVOK TX31/1618Z TN23/1623Z BECMG 1621/1623 17005KT 9999 SCT020 RMK PFP", "TAF SCCY 161015Z 1612/1624 VRB03KT CAVOK TN04/1613Z TX16/1619Z BECMG 1615/1617 07007KT", "TAF SCJO 161010Z 1612/1624 22005KT 9999 OVC010 TN10/1613Z TX16/1619Z BECMG 1615/1617 16007KT SCT035", "TAF SCNT 161022Z 1612/1700 30005KT CAVOK TN02/1612Z TX17/1618Z TEMPO 1612/1614 VRB03KT", "TAF SKSP 161030Z 1612/1712 08010KT 9999 SCT017 TEMPO 1612/1615 DZRA SCT017CB TX32/1619Z TN25/1709Z", "TAF SLAL 161000Z 1612/1712 00000KT 9999 SCT010 BKN070 TX17/1619Z TN08 /1711Z BECMG 1614/1616 02010KT BECMG 1621/1623 7000 RA BECMG 1702/ 1704 00000KT 9999 NSW", "TAF SLCB 161000Z 1612/1712 00000KT 9999 SCT030 BKN070 TX28/1619Z TN13 /1711Z BECMG 1615/1617 27010KT FEW033 SCT070 PROB30 TEMPO 1622/1700 8000 RA SCT030 BKN070 BECMG 1703/1705 00000KT", "TAF SLCO 161000Z 1612/1712 21011KT 9999 SCT020 SCT080 TX33/1619Z TN21 /1710Z BECMG 1622/1701 17009KT SCT012 BKN070 TEMPO 1707/1711 3000 BR BKN005", "TAF SLET 161000Z 1612/1712 19004KT 9999 BKN070 TX32/1620Z TN22/1709Z TEMPO 1616/1620 18012G25KT FEW020 BKN070 BECMG 1622/1702 12006KT SCT070", "TAF SLLP 161000Z 1612/1712 VRB02KT 9999 SCT015 TX15/1619Z TN01/1710Z BECMG 1613/1615 08010KT TEMPO 1619/1622 02013G23KT 5000 TSRA FEW020CB BECMG 1623/1702 08005KT BECMG 1705/1707 3000E BCFG BKN010", "TAF SLTJ 161000Z 1612/1712 00000KT 9999 BKN023 BKN070 TX20/1619Z TN12 /1711Z BECMG 1615/1617 15010KT BECMG 1623/1701 00000KT", "TAF SLTR 161000Z 1612/1712 20010KT 9999 SCT017 BKN080 TX34/1619Z TN21 /1710Z BECMG 1623/1702 00000KT SCT011 SCT070", "TAF SLVR 161000Z 1612/1712 19004KT 9999 BKN070 TX32/1620Z TN22/1709Z TEMPO 1616/1620 18012G25KT FEW020 BKN070 BECMG 1622/1702 12006KT SCT070", "TAF SOCA 161100Z 1612/1712 VRB02KT CAVOK BECMG 1613/1615 08010KT BECMG 1622/1624 VRB02KT", "TAF SPCL 161100Z 1612/1712 04005KT 9999 SCT020 SCT080 TX32/1619Z TN22/1711Z TEMPO 1620/1623 03015KT 3000 SHRA BKN010 FEW025TCU BKN080 TEMPO 1708/1712 4000 DZRA BKN007 OVC080", "TAF SPEO 151710Z 1518/1618 20018KT 9999 FEW020 TX22/1519Z TN14/1611Z TEMPO 1519/1523 5000 BR SCT005 BKN080 BECMG 1601/1604 25014KT BKN010 BECMG 1608/1612 18010KT SCT030", "TAF SPGM 151700Z 1518/1618 06004KT 9999 SCT030 TX32/1519Z TN22/1611Z TEMPO 1519/1521 4900 RA SCT015 BKN070 BECMG 1612/1614 4900 BR SCT010 BKN130 BECMG 1615/1617 9999 NSW FEW020 SCT100", "TAF SPHI 161115Z 1612/1712 17006KT 9999 SCT010 BKN015 TX21/1619Z TN15/1711Z FM161800 19016KT CAVOK BECMG 1703/1705 18006KT", "TAF SPHO 161115Z 1612/1712 VRB05KT 9999 BKN090 TX25/1619Z TN10/1711Z TEMPO 1618/1620 12010KT", "TAF SPHY 151720Z 1518/1618 36010KT 9999 FEW012 TX16/1519Z TN01/1611Z BECMG 1521/1523 00000KT", "TAF SPJC 161100Z 1612/1712 19007KT 9999 OVC009 TX19/1620Z TN14/1711Z BECMG 1614/1616 BKN015 FM161800 17014KT 9999 SCT017 FM170000 17008KT 7000 BKN014", "TAF SPJI 151700Z 1518/1618 00000KT 9999 SCT020 BKN100 TX24/1521Z TN19/1611Z TEMPO 1518/1520 4000 DZRA BKN010 OVC080 TEMPO 1610/1613 3000 DZ BCFG BKN010 BKN080", "TAF SPJL 161123Z 1612/1712 33005KT 9999 SCT020 TX19/1619Z TN02/1710Z BECMG 1620/1623 12010KT TSRA FEW020CB BKN080 BECMG 1700/1702 25005KT", "TAF SPJR 161100Z 1612/1712 VRB02KT 9999 SCT020 TX21/1619Z TN08/1711Z TEMPO 1620/1623 16008KT 6000 -RA SCT020 BKN045 TEMPO 1700/1704 VRB03KT SCT020 OVC045", "TAF SPLO 151700Z 1518/1618 16007KT CAVOK TX21/1519Z TN14/1610Z", "TAF AMD SPME 161629Z 1616/1712 33007KT 9999 OVC017 TX25/1619Z TN19/1711Z BECMG 1621/1623 BKN013", "TAF SPMS 161100Z 1612/1712 03005KT 9999 SCT015 BKN100 TX31/1620Z TN22/1711Z TEMPO 1612/1614 5000 BCFG BKN008 BKN080 TEMPO 1622/1703 06010KT 4000 DZRA BKN010 FEW025TCU BKN080", "TAF SPNC 161100Z 1612/1712 07003KT 9999 SCT030 BKN100 TX28/1619Z TN14/1711Z TEMPO 1618/1621 06018KT BECMG 1702/1704 VRB02KT", "TAF SPPY 161100Z 1612/1712 10008KT 9999 SCT010 BKN040 TX19/1620Z TN10/1711Z TEMPO 1612/1616 4000 DZ BCFG BKN010 BKN040 TEMPO 1708/1712 3000 DZRA BKN008 FEW025TCU OVC050", "TAF SPQT 161100Z 1612/1712 36004KT 9999 BKN007 BKN100 TX31/1619Z TN22/1711Z BECMG 1613/1616 BKN015 BKN100 TEMPO 1616/1621 06010KT 4000 DZRA BKN010 FEW025TCU BKN080 TEMPO 1702/1706 DZ BKN006 BKN080 TEMPO 1710/1712 1000 BCFG BKN003 BKN080", "TAF SPQU 161123Z 1612/1712 04006KT CAVOK TX21/1618Z TN06/1710Z BECMG 1616/1618 25011KT BECMG 1622/1624 06006KT", "TAF SPRU 161115Z 1612/1712 15008KT 3000 BR OVC006 TX18/1619Z TN15/1711Z BECMG 1613/1615 8000 NSW SCT020 BKN100 BECMG 1705/1708 OVC008", "TAF SPSO 152300Z 1600/1624 21013KT CAVOK TX21/1620Z TN13/1611Z BECMG 1603/1605 21006KT 7000 SCT015 BECMG 1606/1609 08006KT 4500 BR FU BKN011 FM161300 28008KT 7000 NSW SCT015 FM161800 23015KT CAVOK", "TAF SPST 161100Z 1612/1712 13003KT 9999 SCT015 BKN080 TX28/1619Z TN22/1711Z TEMPO 1612/1614 00000KT 5000 BR BKN006 OVC050 TEMPO 1619/1621 28003KT 5000 RA SCT015 OVC080", "TAF SPTN 161123Z 1612/1712 VRB02KT 9999 SCT015 BKN030 TX22/1619Z TN12/1711Z FM161300 27005KT 9999 FEW035 FM161530 21010KT CAVOK FM170100 27005KT 9999 BKN025 FM170500 VRB02KT 9999 SCT015 BKN020", "TAF SPTU 161250Z 1612/1712 15005KT 9999 FEW020 TX32/1620Z TN21/1711Z TEMPO 1619/1621 FEW020TCU BKN040", "TAF SPYL 161115Z 1612/1712 14015KT CAVOK TX24/1619Z TN13/1711Z BECMG 1615/1617 20012KT", "TAF SPZO 161115Z 1612/1712 09005KT 9999 SCT050 TX22/1619Z TN05/1711Z TEMPO 1618/1621 28010KT", "TAF SUAA 161130Z 1612/1712 13012KT 9999 BKN020 TX17/1618Z TN12/1709Z TEMPO 1612/1624 5000 RADZ BKN013 TEMPO 1614/1622 13015G25KT", "TAF SUCA 161130Z 1612/1712 13015KT 9999 BKN020 TX17/1618Z TN13/1709Z PROB30 TEMPO 1612/1618 5000 RADZ BKN015 TEMPO 1615/1624 13015G25KT", "TAF SUDU 161130Z 1612/1712 14010KT 9999 BKN015 BKN070 TX17/1618Z TN11/1709Z TEMPO 1612/1624 5000 RADZ BKN010 BKN070 TEMPO 1618/1624 14015G25KT", "TAF SULS 161130Z 1612/1712 13015KT 9999 BKN015 BKN070 TX16/1618Z TN12/1709Z TEMPO 1612/1624 5000 RADZ BKN010 BKN070 TEMPO 1613/1622 13015G25KT", "TAF SUMU 161130Z 1612/1712 13012KT 9999 BKN020 TX17/1618Z TN12/1709Z TEMPO 1612/1624 5000 RADZ BKN013 TEMPO 1614/1622 13015G25KT", "TAF SURV 161130Z 1612/1712 17010KT 9999 BKN015 BKN070 TX23/1618Z TN11/1709Z TEMPO 1703/1712 3000 BR BKN008", "TAF SUSO 161130Z 1612/1712 15010KT 9999 BKN015 TX23/1618Z TN10/1709Z", "TAF SVVA 161053Z 1612/1712 12003KT 9999 FEW016 TX30/1619 TN23/1709 TEMPO 1614/1618 18004KT 9999 SCT016 TEMPO 1620/1700 09002KT BKN016", "TAF SYEB 161100Z 1612/1623 05008KT 9999 SCT020 BKN090 PROB40 TEMPO 1617/1623 7000 TS SHRA FEW015CB BKN016 OVC080", "TAF SYKA 161100Z 1612/1623 05008KT 9999 SCT020 SCT100 PROB40 TEMPO 1617/1623 7000 TS SHRA FEW015CB BKN016 OVC080", "TAF SYKM 161100Z 1612/1623 04008KT 9999 SCT020 BKN100 PROB40 TEMPO 1617/1623 7000 TS SHRA FEW015CB BKN016 OVC080", "TAF SYLT 161100Z 1612/1623 06008KT 9999 FEW020 SCT100 PROB40 TEMPO 1617/1623 7000 TS SHRA FEW015CB BKN016 OVC080", "TAF SYMB 161100Z 1612/1623 04008KT 9999 SCT020 BKN100", "TAF TAPA 161100Z 1612/1712 12007KT 9999 SCT022 PROB40 TEMPO 1614/1622 SHRA FEW012CB BKN014", "TAF TBPB 161100Z 1612/1712 10008KT 9999 SCT018", "TAF TDPD 161100Z 1612/1712 12006KT 9999 SCT018", "TAF TFFF 161100Z 1612/1712 VRB03KT 9999 SCT025 PROB40 TEMPO 1615/1621 4000 SHRA FEW015CB BKN018TCU PROB30 TEMPO 1616/1620 1000 TSRA SCT012 BKN015CB", "TAF TFFR 161100Z 1612/1712 VRB03KT 9999 FEW025 PROB40 TEMPO 1615/1624 4000 SHRA BKN018TCU PROB30 TEMPO 1615/1621 2000 SHRA SCT012 BKN015CB ", "TIST 161136Z 1612/1712 08003KT P6SM VCSH FEW028 FM161400 12010KT P6SM VCSH SCT030 FM161600 10013KT P6SM VCSH SCT025 SCT030 SCT060 FM162300 08005KT P6SM FEW025 FM170600 06005KT P6SM VCSH SCT025 SCT050", "TISX 161136Z 1612/1712 02005KT P6SM VCSH FEW025 FM161400 10011KT P6SM VCSH SCT028 FM161600 10013KT P6SM VCSH SCT025 BKN050 BKN080 FM162300 VRB05KT P6SM FEW025 FM170600 02005KT P6SM FEW028", "TJBQ 161136Z 1612/1712 12003KT P6SM FEW028 FM161300 07011KT P6SM FEW030 FM161700 05010G25KT P6SM VCTS SCT025CB SCT030 BKN080 FM162300 07005KT P6SM FEW025 SCT060 FM170200 11004KT P6SM SKC", "TJPS 161136Z 1612/1712 07003KT P6SM FEW030 SCT080 FM161400 16015KT P6SM FEW035 FM161700 16016KT P6SM VCTS SCT030CB SCT060 FM162300 10005KT P6SM FEW060 FM170100 08004KT P6SM FEW120 AMD NOT SKED", "TJSJ 161136Z 1612/1712 21004KT P6SM VCSH FEW029 SCT080 SCT120 FM161300 07011KT P6SM FEW030 SCT080 SCT120 FM161700 06015G22KT P6SM -SHRA VCTS FEW025 SCT030CB BKN080 FM162300 08005KT P6SM VCSH FEW025 SCT070 FM170200 11002KT P6SM FEW025 SCT120", "TAF TKPK 161100Z 1612/1712 12007KT 9999 SCT022 PROB40 TEMPO 1614/1622 SHRA FEW012CB BKN014", "TAF TKPN 161100Z 1612/1712 12007KT 9999 SCT022 PROB40 TEMPO 1614/1622 SHRA FEW012CB BKN014", "TAF TLPC 161100Z 1612/1712 11007KT 9999 SCT026 TEMPO 1621/1712 SHRA", "TAF TLPL 161100Z 1612/1712 10012KT 9999 SCT026 TEMPO 1621/1712 SHRA", "TAF TNCA 161115Z 1612/1712 08015KT 9999 SCT020", "TAF TNCB 161100Z 1612/1718 09012KT 9999 SCT020 PROB30 TEMPO 1706/1715 4000 SHRA SCT015CB BKN020", "TAF TNCC 161115Z 1612/1712 09012KT 9999 SCT020", "TAF TQPF 161100Z 1612/1712 10007KT 9999 SCT022 PROB40 TEMPO 1614/1622 SHRA FEW012CB BKN014", "TAF TRPG 161100Z 1612/1712 12007KT 9999 SCT022 PROB40 TEMPO 1614/1622 SHRA FEW012CB BKN014", "TAF TUPJ 161100Z 1612/1712 09007KT 9999 SCT022 PROB40 TEMPO 1614/1622 SHRA FEW012CB BKN014", "TAF TVSA 161100Z 1612/1712 06006KT 9999 SCT018", "TAF TXKF 161135Z 1612/1712 33006KT 9999 VCSH FEW013 SCT070 BKN120 ", "TAF AMD UAAA 161421Z 1614/1712 16003MPS 3100 FU FEW050 SCT100 TX18/1709Z TN07/1701Z TEMPO 1614/1621 21003MPS 1000 BECMG 1621/1622 6000 NSW TEMPO 1621/1705 22003MPS BECMG 1705/1706 35003MPS 9999 SCT050CB BKN100 TEMPO 1705/1712 03003G08MPS", "TAF UAAH 161100Z 1612/1621 24005MPS 9999 SCT050 TEMPO 1612/1618 27005G10MPS -SHRA BKN030CB", "TAF UAAT 161100Z 1612/1621 32003G08MPS 9999 FEW050 BKN100 TEMPO 1612/1615 27003G08MPS", "TAF AMD UACC 161436Z 1615/1712 28004MPS 9999 BKN040CB BKN060 TX12/1709Z TNM01/1701Z TEMPO 1615/1618 30004MPS 3100 -SHRA SCT011 BKN020CB BECMG 1618/1620 SCT011 BKN030CB TEMPO 1618/1704 29005MPS 3100 -SHRA BR BKN004 BKN020CB TEMPO 1704/1712 29007MPS 3100 -SHRA BKN011 BKN020CB", "TAF UACK 161101Z 1612/1621 27007MPS 9999 SCT050 TEMPO 1615/1621 4000 -SHRA BKN020CB", "TAF UACP 160800Z 1609/1618 27005MPS 9999 BKN020CB TEMPO 1609/1612 30005MPS 4000 -SHRA BKN011CB", "TAF UADD 161400Z 1615/1624 26004MPS 9999 NSC", "TAF UAII 161100Z 1612/1712 32003G08MPS 8000 SCT040 TX24/1710Z TN10/1701Z TEMPO 1612/1616 28003G08MPS TEMPO 1616/1703 13003G08MPS 3100 FU SCT050CB", "TAF UAIT 161402Z 1615/1624 26003G08MPS 9999 SCT040 TEMPO 1615/1617 30003G09MPS BECMG 1617/1618 08003G08MPS TEMPO 1618/1620 17003G08MPS", "TAF UAKD 161102Z 1612/1621 35005MPS 9999 SCT030 OVC070 TEMPO 1612/1618 33007MPS 5000 -SHRA FU SCT020CB BKN030 TEMPO 1618/1621 5000 FU SCT020", "TAF UAKK 161100Z 1612/1712 28005MPS 9999 SCT030CB BKN100 TX15/1612Z TN01/1624Z BECMG 1615/1617 SCT020 BKN030CB TEMPO 1620/1706 31008MPS 3100 -SHRA SCT011 BKN020CB TEMPO 1706/1712 5000 -SHRA SCT011 BKN020CB", "TAF UAOO 161400Z 1615/1624 VRB01MPS CAVOK", "TAF UARR 161400Z 1615/1624 VRB02MPS 9999 SCT033 TEMPO 1615/1621 33005MPS 3100 BR SCT011 TEMPO 1621/1624 0400 FG VV002", "TAF UASK 161400Z 1615/1624 12003MPS 9999 OVC100 TEMPO 1615/1621 16004MPS SCT050 TEMPO 1621/1624 21003MPS SCT040CB", "TAF UASP 161401Z 1615/1624 25005G10MPS 9999 OVC020CB TEMPO 1615/1623 27010G15MPS 3100 -SHRA OVC011CB", "TAF UASS 161102Z 1612/1621 15005G10MPS 9999 SCT040 BKN100 TEMPO 1612/1618 27006G11MPS BKN030CB", "TAF UATE 161102Z 1612/1712 05009G15MPS 9999 SCT040CB TX17/1709Z TN09/1702Z", "TAF UATG 161102Z 1612/1712 35010MPS CAVOK TX15/1710Z TN02/1703Z BECMG 1613/1614 03005MPS", "TAF UATT 161102Z 1612/1712 34002MPS 9999 SCT040 TX13/1612Z TN00/1701Z TEMPO 1612/1616 35007MPS BKN033 BECMG 1616/1618 3100 BR BKN011 TEMPO 1619/1705 0500 FG VV002 BECMG 1705/1707 30007MPS 9999 NSW BKN015 SCT040CB", "TAF UAUU 161400Z 1615/1624 28005MPS 9999 BKN020 TEMPO 1615/1624 29003G08MPS 3100 -SHRA BR BKN011CB", "TAF UBBB 161100Z 1612/1712 34014KT 9999 SCT012 BKN020 TX21/1612Z TN17/1702Z TEMPO 1612/1618 02010KT FEW030CB TEMPO 1618/1706 35008KT -SHRA SCT030CB TEMPO 1706/1712 02010KT", "TAF UBBF 161400Z 1615/1624 VRB04KT 6000 -RA SCT010 OVC017 TEMPO 1618/1624 3000 BR BKN004", "TAF UBBL 161104Z 1612/1712 29006KT 9000 -RA OVC020 TX18/1612Z TN15/1702Z TEMPO 1612/1618 5000 -SHRA SCT010 SCT030CB TEMPO 1620/1703 4000 BR BKN008", "TAF AMD UBBQ 161540Z 1615/1712 36012KT 9999 SCT015 SCT050CB TX20/1710Z TN13/1702Z TEMPO 1615/1624 5000 -TSRA BKN030CB", "TAF UBBY 161400Z 1615/1624 VRB04KT 6000 SCT010 OVC040 TEMPO 1616/1620 3000 -DZ BR SCT003 OVC015", "TAF UBEE 161400Z 1615/1624 VRB04KT 9999 SCT040 OVC070", "TAF UCFL 161102Z 1612/1712 14003G08MPS 9999 SCT030CB BKN100 BECMG 1615/1616 34003G08MPS TEMPO 1615/1624 05003G08MPS BECMG 1704/1705 17003G08MPS", "TAF UCFM 161100Z 1612/1712 30003G08MPS 9999 SCT050CB BKN100 TEMPO 1612/1618 26007G12MPS 1500 BR FU FEW004 TEMPO 1618/1622 20003G08MPS 1500 BR FU FEW004 TEMPO 1622/1704 24003G08MPS 1500 -SHRA BR FEW004 BKN020CB", "TAF AMD UCFO 161307Z 1613/1712 18003G08MPS 6000 FEW050 SCT100 TEMPO 1613/1618 27003G08MPS 2000 FU FEW050CB BECMG 1702/1704 33003G08MPS", "TAF UDSG 161100Z 1612/1712 06006KT 9999 BKN030 TEMPO 1612/1621 VRB16KT 5000 -TSRA BR BKN020CB", "TAF UDYZ 161100Z 1612/1712 22006KT 6000 SCT040 TEMPO 1612/1618 VRB16KT -TSRA BKN030CB", "TAF UEEE 161400Z 1615/1721 27003G10MPS 9999 -SHSN BKN020CB OVC070 TEMPO 1615/1703 VRB01MPS 0300 SHSN FZFG VV002", "TAF UERP 161400Z 1615/1715 27005G10MPS 9999 BKN015CB OVC100 TEMPO 1615/1618 2100 -SHSN BKN009 BKN012CB OVC100 TEMPO 1618/1703 2100 -SHSN BR BKN008 BKN013CB OVC100 BECMG 1620/1622 VRB01MPS", "TAF UERR 161400Z 1615/1715 26005G10MPS 9999 SCT007 BKN020CB OVC100 TEMPO 1615/1618 4000 -SHSN BKN005 OVC015CB", "TAF UGAM 161000Z 1611/1617 28006KT 9999 SCT050", "TAF UGKO 161100Z 1612/1712 08006KT CAVOK TX24/1612Z TN13/1703Z TEMPO 1614/1620 08016KT PROB40 TEMPO 1701/1705 0300 FG VV002", "TAF UGMS 161000Z 1611/1617 VRB02KT 9999 OVC080", "TAF UGSB 161100Z 1612/1712 VRB02KT 9999 FEW030 TX22/1612Z TN16/1702Z BECMG 1618/1620 12010KT SCT025 BKN085 PROB40 TEMPO 1700/1704 SHRA SCT020CB BECMG 1706/1707 25007KT TEMPO 1707/1712 SHRA SCT013 BKN025CB", "TAF UGTB 161100Z 1612/1712 12007KT 8000 SCT018 OVC025 TX17/1612Z TN14/1702Z TEMPO 1616/1702 3000 SHRA BR SCT010 BKN020CB PROB40 TEMPO 1702/1706 1000 DZ BR BKN005 OVC015", "TAF UHBB 161350Z 1615/1715 35003G08MPS 9999 BKN020CB TEMPO 1615/1622 3100 -SHRASN SCT011 BKN020CB BECMG 1623/1701 35006G11MPS", "TAF UHHH 161348Z 1615/1721 27003MPS 9999 SCT020CB TEMPO 1622/1706 32008MPS 3100 -SHRA SCT011 BKN020CB", "TAF UHMA 161332Z 1615/1715 36003G08MPS 9999 SCT022 TEMPO 1615/1715 33008G13MPS -SN SCT011 BKN020", "TAF UHMM 161350Z 1615/1721 10003MPS 9999 NSC FM170000 06005MPS 9999 SCT040 TEMPO 1706/1715 6000 -SHSN BKN030CB", "TAF UHPP 161333Z 1615/1721 01003G08MPS 9999 SCT040CB FM170100 14005G15MPS 9999 BKN011 OVC025CB BECMG 1706/1708 3000 -SHRA BKN006 OVC015CB TEMPO 1708/1721 1000 SHRA BR VV003", "TAF UHSS 161400Z 1615/1721 19003MPS 3500 -SHRA BR BKN003 BKN016CB BECMG 1620/1622 29003MPS BECMG 1702/1705 9999 NSW BKN025CB", "TAF UHWW 161350Z 1615/1715 36003G08MPS 9999 BKN020CB TEMPO 1615/1712 35008G13MPS -SHRA FEW010 BKN016CB", "TAF UIAA 161400Z 1615/1715 29005G10MPS 9999 SCT040CB TEMPO 1615/1715 23003G08MPS", "TAF UIBB 161400Z 1615/1715 12003G08MPS 9999 SCT020", "TAF UIII 161400Z 1615/1715 VRB01MPS CAVOK", "TAF UIUU 161400Z 1615/1715 30003MPS 9999 NSC BECMG 1618/1620 0300 FZFG VV001 TEMPO 1620/1701 3100 BR SCT007 BECMG 1701/1702 9999 NSW NSC", "TAF AMD ULLI 161537Z 1615/1715 20005G10MPS 6000 BKN004 TEMPO 1615/1703 2000 SHRA BR BKN003 BKN016CB BECMG 1703/1704 24006G11MPS BKN010 TEMPO 1706/1715 28010G15MPS BKN016", "TAF ULMM 161350Z 1615/1715 17003G08MPS 6000 BKN016CB TEMPO 1621/1703 3100 -SHRA BKN011 BKN016CB", "TAF ULOO 161353Z 1615/1624 19006G11MPS 6000 BKN011 TEMPO 1616/1624 BKN007", "TAF ULPB 161353Z 1615/1624 20005G10MPS 9999 BKN016", "TAF ULWC 161358Z 1615/1624 20003G10MPS 6000 -RA SCT006 BKN017 TEMPO 1615/1624 17008G13MPS 2100 -SHRA BKN003 BKN015CB", "TAF UMBB 161100Z 1612/1621 18004MPS 6000 SCT020 TEMPO 1612/1615 20006G11MPS", "TAF UMGG 161101Z 1612/1712 16006G11MPS 9999 SCT017 TEMPO 1612/1617 18008G13MPS TEMPO 1621/1706 18005G10MPS 2100 -SHRA BKN005 SCT018CB TEMPO 1706/1712 22006G11MPS", "TAF UMII 161407Z 1615/1624 18005G10MPS 9999 BKN020 TEMPO 1615/1624 20007G12MPS 2000 SHRA BR BKN005 BKN015CB", "TAF UMKK 161356Z 1615/1715 22005G10MPS 6000 FEW006 BKN012 TEMPO 1615/1620 3000 -SHRA BR BKN003 BKN010CB BECMG 1618/1620 20003MPS BECMG 1620/1622 4000 BR BKN004 TEMPO 1622/1709 0300 FG VV002 BECMG 1709/1711 9999 NSW SCT007", "TAF UMMG 161100Z 1612/1621 19004G09MPS 9999 BKN030 TEMPO 1612/1615 19006G11MPS 6000 -SHRA BKN016CB", "TAF UMMS 161107Z 1612/1712 18006G11MPS 9999 BKN015 TEMPO 1612/1615 17010G15MPS TEMPO 1615/1703 19010G15MPS 3100 -SHRA BKN007 BKN013CB BECMG 1703/1704 25005G10MPS 5000 BR BKN006", "TAF UMOO 161103Z 1612/1621 18007G12MPS 9999 BKN020 TEMPO 1612/1621 16008G13MPS", "TAF UNAA 161350Z 1615/1715 19003MPS 6000 NSC TEMPO 1615/1621 3300 BR FU TEMPO 1621/1701 0300 FZFG VV002", "TAF UNBB 161400Z 1615/1715 16003G08MPS 8000 SCT040 FM162000 19003G08MPS 8000 -SHRA BKN016CB TEMPO 1703/1712 25008G17MPS", "TAF UNEE 161400Z 1615/1715 15003G08MPS 8000 SCT040 BECMG 1701/1703 -SHRA BKN016CB BECMG 1707/1709 20006G13MPS BECMG 1711/1713 25007G15MPS", "TAF UNKL 161352Z 1615/1715 19003G08MPS CAVOK FM162000 VRB01MPS 6000 NSC TEMPO 1620/1702 0250 FZFG VV002 FM170300 17003G08MPS 9999 SCT017 BECMG 1708/1710 22005G12MPS", "TAF UNNT 161400Z 1615/1715 31003G08MPS 8000 SCT040 BECMG 1620/1623 -SHRA BKN016CB TEMPO 1623/1715 SCT006 BKN016CB BECMG 1710/1714 25003G09MPS", "TAF UNOO 161350Z 1615/1715 VRB01MPS 4000 -SHRA BR BKN011 BKN025CB TEMPO 1617/1703 0200 FG VV003", "TAF UNTT 161400Z 1615/1624 11003G08MPS 8000 SCT040CB", "TAF UNWW 161400Z 1615/1715 17003G08MPS 8000 SCT040CB TEMPO 1618/1704 11003MPS -SHRA BKN020CB BECMG 1704/1706 22009G20MPS BKN016CB TEMPO 1706/1712 -SHRA SCT011CB", "TAF UOOO 161359Z 1615/1715 16003G08MPS 6000 BKN016CB TEMPO 1615/1621 3100 -SHSN BKN011CB TEMPO 1621/1703 2100 -SHSN BR BKN005 BKN011CB BECMG 1703/1706 3100 -SHSN BKN005 BKN013CB TEMPO 1706/1715 0500 SHSN FZFG BKN003 BKN011CB", "TAF URKA 161346Z 1615/1715 08007G12MPS 9999 SCT030CB TEMPO 1615/1709 06012G18MPS 6000 -SHRA SCT016 BKN020CB PROB40 1618/1706 -TSRA", "TAF URKK 161349Z 1615/1715 07003G08MPS CAVOK TEMPO 1615/1715 09008G14MPS", "TAF URMG 161400Z 1615/1624 08006G14MPS 9999 BKN016 TEMPO 1615/1624 6000 -SHRA BKN011 BKN020CB", "TAF URML 161400Z 1615/1624 09005G10MPS 6000 -SHRA OVC020 BKN033CB PROB40 TEMPO 1615/1616 VRB07G14MPS 1000 TSRA BKN003 OVC010 BKN030CB TEMPO 1616/1622 2500 -SHRA BR OVC003 BKN025CB", "TAF URMM 161400Z 1615/1715 10007G14MPS 6000 OVC004 TX12/1712Z TN08/1703Z TEMPO 1615/1709 0300 -DZ FG OVC002", "TAF URMN 161400Z 1615/1624 06003G08MPS 2100 -SHRA BR BKN004 BKN016CB TEMPO 1615/1624 0800 FG BKN002 BKN016CB", "TAF URMO 161400Z 1615/1624 06003G08MPS 9999 BKN016 TEMPO 1615/1621 6000 -SHRA BKN011 BKN020CB", "TAF URMT 161400Z 1615/1624 09007G13MPS 9999 BKN013 OVC030 TEMPO 1615/1621 6000 BKN010 OVC020", "TAF URRP 161355Z 1615/1715 08007G13MPS 9999 SCT016", "TAF URSS 161355Z 1615/1715 05003G08MPS 9999 BKN100 BECMG 1620/1622 04006MPS SCT040CB OVC100 BECMG 1707/1708 27003G08MPS", "TAF URWA 161400Z 1615/1624 03003G08MPS 9999 SCT030 TEMPO 1615/1621 06003MPS", "TAF URWI 161055Z 1612/1621 07006G12MPS 9999 SCT020 TEMPO 1612/1615 10010G17MPS", "TAF URWW 161356Z 1615/1624 05003G10MPS 9999 BKN016 TEMPO 1615/1624 08003G08MPS", "TAF COR USCC 161400Z 1615/1715 28003G10MPS 9999 SCT030CB TEMPO 1615/1618 30008MPS -SHRA BKN020CB TEMPO 1703/1715 26008G13MPS", "TAF USCM 161400Z 1615/1624 28003G10MPS 9999 SCT030CB", "TAF AMD USDA 161324Z 1613/1621 VRB01MPS 0800 FG VV002 TEMPO 1614/1616 1000 BR VV003", "TAF USHH 161353Z 1615/1715 31003MPS 2100 -RA BKN002 OVC016 TEMPO 1615/1707 VRB01MPS 0300 FG VV001 FM170700 28003G10MPS 9999 OVC016 TEMPO 1707/1712 -SHRA FEW004 BKN016CB TEMPO 1712/1715 5000 BR FEW003 BKN016", "TAF USNN 161345Z 1615/1715 14003MPS 6000 -SHRA SCT016CB BKN030 TEMPO 1615/1706 0250 FG VV002 BECMG 1706/1707 02003MPS", "TAF USPP 161355Z 1615/1715 25003G10MPS 9999 BKN020 TEMPO 1615/1706 -RA BKN016 BECMG 1710/1711 21003G13MPS", "TAF USRR 161355Z 1615/1715 31003G08MPS 6000 FEW004 BKN016CB TEMPO 1615/1703 0200 FG VV002", "TAF USSS 161355Z 1615/1715 29003G12MPS 9999 BKN016CB TEMPO 1615/1715 -SHRA", "TAF USTR 161355Z 1615/1715 30006MPS 3100 -SHRA BR FEW007 SCT020CB TEMPO 1615/1618 33003MPS 0300 FG VV002 FM161800 32006G13MPS 9999 SCT020CB TEMPO 1618/1712 -SHRA FEW006 BKN016CB", "TAF UTAA 161045Z 1612/1712 32014KT 6000 SCT040 BKN100 TEMPO 1612/1614 02010G20KT BECMG 1614/1616 25014KT TEMPO 1616/1702 32016KT BECMG 1702/1704 34016KT", "TAF UTAK 161030Z 1612/1712 35014KT 9999 SCT033 BKN100 TEMPO 1616/1622 BKN016 SCT040CB BKN100 TEMPO 1622/1704 06014KT 6000 -SHRA BKN008 SCT040CB OVC100 TEMPO 1704/1712 06014KT", "TAF UTAM 161030Z 1612/1712 VRB04KT 5000 SCT050 TEMPO 1612/1618 36012KT 3000 HZ TEMPO 1700/1706 3000 HZ FU BECMG 1705/ 1706 30014KT", "TAF UTAT 161036Z 1612/1712 08012KT 9999 SCT050 BKN100 TEMPO 1616/1624 01016G26KT 3000 -SHRA SCT050CB BKN100", "TAF UTAV 161030Z 1612/1712 34014KT 6000 SCT070 BKN100 1612/1618 04014G24KT 3000 DRDU SCT050", "TAF UTDD 161500Z 1616/1704 VRB02MPS 8000 FEW066 SCT100", "TAF UTDK 161500Z 1616/1701 03005MPS 9999 FEW066 SCT100", "TAF UTDL 161500Z 1616/1704 24005MPS 7000 FEW060CB SCT080 TEMPO 1616/1701 26010MPS", "TAF UTDT 161500Z 1616/1701 VRB02MPS 8000 FEW066 SCT100", "TAF UTFF 161500Z 1613/1701 14010KT 7000 NSC TEMPO 1617/1624 21008KT 5000 HZ SCT100", "TAF UTFN 161100Z 1612/1712 34010KT 7000 NSC TEMPO 1613/1624 VRB08KT 4500 FU", "TAF AMD UTNN 161350Z 1614/1712 04010G20KT 9999 SCT040 BKN100 TEMPO 1614/1620 -SHRA SCT040CB BKN100", "TAF UTNU 161100Z 1612/1712 07010G20KT CAVOK", "TAF UTSA 161101Z 1612/1712 VRB03KT 7000 NSC TEMPO 1613/1624 35014KT 4000 FU SCT033", "TAF UTSB 161100Z 1612/1712 VRB03KT 7000 NSC TEMPO 1613/1624 36014KT SCT033", "TAF UTSK 161458Z 1616/1701 34010KT CAVOK TEMPO 1616/1701 07010KT", "TAF UTSS 161052Z 1612/1712 15010KT 7000 NSC TEMPO 1619/1705 35014G24KT 3500 DU SCT066CB BKN100", "TAF UTST 161100Z 1612/1712 VRB06KT 6000 NSC TEMPO 1612/1623 26012G22KT SCT066CB SCT100", "TAF UTTT 161100Z 1612/1712 VRB04KT 7000 NSC TEMPO 1700/1712 32015KT FEW060CB PROB40 TEMPO 1702/1712 -SHRA SCT050CB", "TAF UUBC 161345Z 1615/1624 21003G08MPS 9999 SCT040", "TAF UUBP 161357Z 1615/1624 16004MPS 9999 SCT017", "TAF UUBW 161351Z 1615/1715 19005MPS 9999 SCT030 TX10/1712Z TN03/1701Z TEMPO 1706/1712 23008G13MPS -SHRA FEW007 BKN016CB TEMPO 1712/1715 25008G13MPS OVC012", "TAF UUDD 161356Z 1615/1721 20006MPS 9999 SCT030 TX08/1712Z TN04/1703Z TEMPO 1706/1712 23008G14MPS -SHRA FEW006 BKN016CB TEMPO 1712/1718 24009G15MPS FEW005 OVC010 BECMG 1718/1719 26006MPS", "TAF UUDL 161355Z 1615/1715 21005MPS 9999 BKN040 TX10/1615Z TN05/1703Z", "TAF UUEE 161350Z 1615/1715 23008G13MPS 9999 SCT035 TX10/1712Z TN04/1701Z TEMPO 1704/1712 -SHRA FEW006 BKN016CB TEMPO 1712/1715 FEW004 OVC009", "TAF UUMO 161357Z 1615/1624 21004MPS 9999 SCT030", "TAF UUOB 161359Z 1615/1624 12003MPS 9999 SCT030", "TAF UUOK 161346Z 1615/1624 13003MPS 9999 SCT040", "TAF UUOL 161400Z 1615/1624 18003MPS CAVOK", "TAF UUOO 161400Z 1615/1624 15003MPS CAVOK", "TAF UUWW 161400Z 1615/1715 20006MPS 9999 SCT030 TX09/1712Z TN04/1703Z BECMG 1701/1703 BKN011 TEMPO 1705/1713 21010G16MPS -SHRA FEW007 BKN012CB TEMPO 1713/1715 23008G15MPS", "TAF UUYY 161400Z 1615/1715 22003G08MPS 9999 FEW011 BKN017CB TEMPO 1615/1620 6000 -SHRA BKN005 BKN016CB TEMPO 1620/1715 6000 -SHRA FEW004 BKN016CB BECMG 1706/1708 20005G12MPS", "TAF UWGG 161350Z 1615/1715 23003G08MPS 8000 SCT025 TX08/1615Z TN02/1702Z PROB40 TEMPO 1621/1703 0300 FG VV003", "TAF UWKD 161400Z 1615/1715 24003MPS 9999 BKN020 TX10/1712Z TN00/1702Z BECMG 1617/1618 3100 BR BKN011 TEMPO 1621/1703 0700 FG SCT003", "TAF UWKE 161353Z 1615/1715 24003G09MPS 9999 SCT020 TEMPO 1615/1618 28003G12MPS SCT016 TEMPO 1618/1704 0500 FG VV002 TEMPO 1704/1715 24008G14MPS 6000 -SHRA BKN016CB", "TAF UWKS 161335Z 1615/1624 27003G08MPS 9999 SCT040 TX07/1615Z TN04/1623Z", "TAF UWLL 161354Z 1615/1715 30003MPS 9999 BKN016 TX10/1712Z TNM01/1701Z TEMPO 1618/1703 24008MPS 3000 BR BKN010", "TAF UWLW 161356Z 1615/1715 25003MPS 9999 SCT033 TX11/1710Z TNM00/1701Z TEMPO 1619/1704 2100 BR SCT016", "TAF UWOO 161343Z 1615/1715 31003G08MPS 6000 BKN016 TX10/1710Z TN01/1702Z TEMPO 1616/1705 VRB01MPS 0300 FG VV002", "TAF UWOR 161340Z 1615/1624 31003G10MPS 6000 BKN016CB TX03/1615Z TN00/1623Z TEMPO 1615/1624 33005G12MPS 0200 FG VV002", "TAF UWPS 161351Z 1615/1624 25003MPS 9999 SCT040 TX06/1615Z TNM01/1624Z", "TAF UWSG 161356Z 1615/1624 32003MPS 9999 SCT030 TX08/1615Z TN00/1624Z TEMPO 1615/1624 36003G08MPS", "TAF UWUU 161400Z 1615/1715 24003G09MPS 9999 BKN020 TX09/1711Z TN02/1623Z TEMPO 1615/1618 28003G08MPS 6000 -SHRA BKN011CB TEMPO 1618/1707 3500 BR BKN004", "TAF UWWW 161351Z 1615/1715 27003G09MPS 6000 BKN016 TX12/1711Z TN00/1702Z TEMPO 1617/1707 0300 FG VV002 TEMPO 1708/1715 22006G12MPS", "TAF VAAH 161400Z 1615/1624 06007KT 4000 FU NSC BECMG 1619/1621 04005KT 4000 FU NSC BECMG 1621/1624 06006KT 4000 FU NSC", "TAF COR VAAU 161100Z 1612/1621 02006KT 3000 HZ SCT020 SCT025 BECMG 1615/1617 4000 HZ TEMPO 1614/1618 2000 -TSRA SHRA FEW010 SCT018 FEW030CB OVC080 BECMG 1618/1620 08005KT 3000 HZ SCT020 SCT100 ", "TAF VABB 161400Z 1615/1624 35006KT 4000 FU HZ SCT020 SCT100 TEMPO 1615/1620 08005KT 2000 -TSRA SHRA SCT018 FEW030CB BKN090 BECMG 1618/1620 12005KT 3000 -RA HZ SCT018 SCT025 BKN090 ", "TAF VABO 161400Z 1615/1624 04004KT 4000 FU NSC BECMG 1619/1621 07005KT 4000 FU NSC BECMG 1621/1624 09004KT 4000 FU NSC ", "TAF VABP 161400Z 1615/1624 05005KT 5000 HZ NSC BEC 1618/1620 4000 HZ", "TAF VABV 161400Z 1615/1624 03007KT 4000 FU NSC BECMG 1619/1621 07008KT 4000 FU NSC BECMG 1621/1624 06007KT 4000 FU NSC ", "TAF VADU 161400Z 1615/1624 10009KT 4000 FU NSC BECMG 1619/1621 35009KT 4000 FU NSC BECMG 1621/1624 06008KT 4000 FU NSC ", "TAF VAID 161400Z 1615/1624 05005KT 5000 HZ NSC BEC 1618/1620 4000 HZ", "TAF VAJB 161100Z 1612/1621 36005KT 4000 HZ SCT020 SCT100", "TAF VAKE 160800Z 1609/1618 13006KT 6000 NSC BECMG 1610/1612 03008KT BECMG 1613/1615 4000 FU HZ BECMG 1616/1618 09006KT", "TAF VAKP 161100Z 1612/1621 02005KT 3000 -RA -SHRA FEW010 SCT018 BKN090 TEMPO 1612/1618 08008KT 1500 -TSRA SHRA FEW010 SCT018 FEW030CB OVC080 BECMG 1619/1621 11005KT 2500 -RA SHRA", "TAF VANP 161400Z 1615/1624 05003KT 3000 HZ FEW020 SCT090", "TAF VAOZ 161400Z 1615/1703 09010KT 6000 FEW030 BECMG 1700/1703 5000 BR FEW030 SCT100", "TAF VAPO 161100Z 1612/1718 09010KT 6000 SCT020 SCT030 BKN100 TEMPO 1612/1614 09010G20KT 5000 -TSRA SCT020 SCT025 FEW025CB BKN100 BECMG 1701/1702 4000 BR TEMPO 1702/1703 2000 BR BECMG 1705/1706 6000 TEMPO 1710/1714 12015G25KT 5000 -RA SCT020 SCT025 FEW030CB BKN100", "TAF VAPR 161400Z 1615/1624 04011KT 4000 FU NSC BECMG 1619/1621 06007KT 4000 FU NSC BECMG 1621/1624 07008KT 4000 FU NSC ", "TAF VARK 161400Z 1615/1624 08005KT 4000 FU NSC BECMG 1619/1621 10005KT 4000 FU NSC BECMG 1621/1624 08004KT 4000 FU NSC ", "TAF VASD 160800Z 1609/1618 07010KT 5000 HZ SCT020 FEW025TCU BKN100 TEMPO 1609/1613 10007G17KT 2000 -TSRA SHRA SCT015 FEW030CB BKN090 ", "TAF VASL 161100Z 1612/1621 10007KT 3000 -RA -SHRA FEW012 SCT018 BKN090 TEMPO 1615/1618 18008KT 1500 -TSRA SHRA FEW010 SCT018 FEW030CB OVC080 BECMG 1619/1621 11005KT 3000 HZ SCT018 BKN090", "TAF VASU 161400Z 1615/1624 06006KT 4000 FU NSC BECMG 1619/1621 06006KT 4000 FU NSC BECMG 1621/1624 04005KT 4000 FU NSC ", "TAF VAUD 161100Z 1612/1718 VRB03KT 3000 HZ NSC BECMG 1704/1706 07005KT 5000 HZ BECMG 1712/1715 VRB03KT 3000 HZ", "TAF VCBI 161100Z 1612/1718 23010KT 9999 SCT017 TX30/1707Z TN24/1700Z PROB30 TEMPO 1612/1618 7000 -TSRA/SHRA FEW012 BKN016 FEW020CB BECMG 1613/1615 VRB06KT BECMG 1703/1705 23010KT", "TAF VCRI 161100Z 1612/1718 25010G20KT 9999 SCT018 TX32/1707Z TN24/1700Z PROB40 TEMPO 1612/1616 7000 -TSRA/SHRA SCT016 FEW018CB BKN080 BECMG 1614/1616 25010KT BECMG 1703/1705 26012G22KT TEMPO 1706/1714 7000 -TSRA/SHRA SCT016 FEW018CB BKN080", "TAF VDPP 161100Z 1612/1706 32006KT 9999 SCT017 SCT040", "TAF VDSR 161100Z 1612/1706 25006KT 9999 SCT017 SCT040", "TAF VDSV 161100Z 1612/1706 27008KT 9999 SCT017 SCT040", "TAF VEAT 161400Z 1615/1624 00000KT 4000 BR FEW020 BECMG 1620/1622 2500 BR FEW018 SCT100", "TAF VEBD 161100Z 1612/1718 20005KT 6000 FEW025 SCT100 TEMPO 1701/1703 4000 BR BECMG 1704/1705 6000 FEW030", "TAF VEBI 160800Z 1609/1618 09005KT 6000 FEW020 BECMG 1613/1615 00000KT 3000 BR", "TAF VEBN 161400Z 1615/1624 00000KT 3000 BR FEW025 BECMG 1622/1624 2000 BR", "TAF VEBS 161400Z 1615/1624 05005KT 4000 HZ SCT018 BKN100", "TAF VECC 161400Z 1615/1624 35006KT 3500 HZ FEW020 BECMG 1622/1624 2400 BR", "TAF VEDG 161400Z 1615/1624 36006KT 3500 HZ FEW020 BECMG 1620/1622 00000KT 2400 BR", "TAF VEGT 161400Z 1615/1624 00000KT 3000 BR SCT018 BKN100", "TAF VEGY 161400Z 1615/1624 00000KT 3500 BR FEW100 BECMG 1621/1623 2500 BR", "TAF VEIM 161100Z 1612/1621 25005KT 5000 BR FEW018 BECMG 1615/1617 00000KT 3000 BR FEW018 SCT100", "TAF VEJH 161100Z 1612/1621 11008KT 3000 -TSRA BKN015 FEW030CB BKN090 BECMG 1615/1617 00000KT 2500 -RA HZ BKN018 BKN090", "TAF VEJS 161100Z 1612/1621 00000KT 4000 HZ FEW020 BECMG 1618/1620 3000 BR NSC", "TAF VEKO 161100Z 1612/1621 36005KT 4000 HZ SCT020 SCT100", "TAF VELP 160800Z 1609/1618 34003KT 4000 HZ SCT018 BECMG 1611/1613 2500 BR", "TAF VELR 160800Z 1609/1618 09005KT 6000 FEW020 BECMG 1615/1617 00000KT 3000 BR", "TAF VEMN 161100Z 1612/1621 02004KT 4000 HZ FEW025 BECMG 1614/1618 VRB02KT 3000 BR FEW100 BECMG 1619/1621 00000KT 2500 BR FEW100", "TAF VEMR 160800Z 1609/1618 09005KT 5000 HZ SCT020 SCT100 BECMG 1613/1615 00000KT 3000 BR", "TAF VEPT 161400Z 1615/1624 00000KT 4000 BR HZ FEW100 BECMG 1621/1623 2500 BR", "TAF VEPY 160800Z 1609/1618 20005KT 5000 HZ FEW020 BECMG 1612/1614 00000KT 3000 BR", "TAF VERC 161100Z 1612/1621 35004KT 4000 HZ SCT018 SCT100 BECMG 1618/1620 00000KT 2900 HZ SCT100", "TAF VERP 161400Z 1615/1624 VRB03KT 4000 HZ BR NSC", "TAF VGHS 161100Z 1612/1718 32008KT 4000 HZ SCT012 SCT100 BECMG 1620/1622 VRB03KT 3500 HZ BECMG 1704/1706 28008KT 4000 HZ SCT015 SCT100 BECMG 1714/1716 VRB03KT 3500 HZ SCT012 SCT100", "TAF VHHH 161400Z 1615/1721 36015KT 9999 FEW035 TX30/1706Z TN25/1622Z TN24/1721Z TEMPO 1615/1621 33015G25KT TEMPO 1621/1706 36020G30KT TEMPO 1706/1712 36022G32KT TEMPO 1712/1721 01025G35KT 4000 SHRA FEW015 SCT025", "TAF VIAG 161100Z 1612/1718 27005KT 6000 FEW030 BECMG 1619/1620 5000 BR BECMG 1621/1622 3000 BR BECMG 1700/1703 1500 BR BECMG 1704/1705 3000 BR BECMG 1706/1707 5000 HZ", "TAF VIAR 161400Z 1615/1624 VRB02KT 4000 HZ NSC BECMG 1618/1620 3000 HZ BR", "TAF VIBY 160930Z 1612/1624 VRB02KT 6000 FEW025 BECMG 1622/1624 00000KT 4000 BR", "TAF VICG 161100Z 1612/1718 VRB02KT 6000 NSC TEMPO 1622/1700 VRB02KT 4000 BR NSC BECMG 1701/1703 32010KT 6000 NSC TEMPO 1706/1710 34010KT 6000 FEW020 BECMG 1712/1715 VRB02KT 6000 NSC", "TAF VIDN 161100Z 1612/1621 15004KT 4000 HZ SCT030 BECMG 1615/1617 05004KT 3000 BR SCT030", "TAF VIDP 161400Z 1615/1624 27004KT 2500 HZ NSC BECMG 1618/1620 2200 BR", "TAF VIJP 161400Z 1615/1624 VRB03KT 3000 HZ NSC", "TAF VILK 161400Z 1615/1624 00000KT 3000 BR FEW020 SCT100 BECMG 1622/1624 2000 BR", "TAF VIPT 161100Z 1612/1621 33004KT 4000 HZ SCT030 BECMG 1615/1617 VRB02KT 3500 HZ BR", "TAF VLLB 161100Z 1612/1712 09004KT 5000 BR SCT017 SCT060", "TAF VLLN 161100Z 1612/1712 14004KT 4000 BR SCT020 BKN100", "TAF VLPS 161100Z 1612/1712 32004KT 5000 BR SCT013 SCT050 FEW200", "TAF VLSK 161100Z 1612/1712 04004KT 4000 BR FEW016 FEW040 BKN093", "TAF VLVT 161100Z 1612/1712 06004KT 5000 BR FEW050 SCT100", "TAF VMMC 161100Z 1612/1718 33016KT 9999 FEW030 SCT040 TEMPO 1700/1718 36025G35KT", "TAF VNKT 161100Z 1612/1712 28006KT 8000 FEW020 BECMG 1614/1615 12003KT 7000 FEW015 BECMG 1700/1702 VRB02KT 6000 FEW010 SCT030 BECMG 1704/1705 15006KT 7000 FEW015 BECMG 1707/1709 26010KT 8000 FEW025", "TAF VOAR 160500Z 1606/1712 16004KT 6000 SCT018 SCT100 TEMPO 1610/1615 3000 -TSRA/RA SCT016 FEW025CB OVC090 BECMG 1616/1618 VRB02KT 4500 BR TEMPO 1700/1702 3000 BR BECMG 1703/1705 16010KT 6000", "TAF VOBG 161400Z 1615/1624 14005KT 6000 SCT012 SCT080 TEMPO 1615/1621 3000 TSRA RA SCT008 SCT012 FEW025CB BKN080", "TAF VOBL 161400Z 1615/1624 14005KT 6000 SCT012 SCT080 TEMPO 1615/1621 3000 TSRA RA SCT008 SCT012 FEW025CB BKN080", "TAF VOBM 161100Z 1612/1621 11010KT 6000 SCT008 SCT012 TEMPO 1612/1618 3000 TSRA RA SCT008 SCT012 FEW025CB BKN080", "TAF VOBZ 161400Z 1615/1624 10006KT 5000 BR SCT015 SCT100 TEMPO 1615/1621 08010KT 3000 TSRA SCT010 FEW030CB BKN080", "TAF VOCB 161100Z 1612/1718 21010KT 5000 BR SCT015 BKN080 TEMPO 1612/1618 4000 -TSRA/RA SCT012 FEW020TCU/CB OVC080 BECMG 1618/1619 VRB02KT 3000 -RA/BR BECMG 1703/1704 21010KT 5000 BR TEMPO 1709/1715 SCT015 FEW020TCU/CB BKN080", "TAF VOCI 161400Z 1615/1624 VRB03KT 3000 TSRA BR FEW008 SCT012 FEW025CB BKN080 BECMG 1617/1618 3000 -RA BRFEW008 SCT012 BKN080", "TAF VOCL 161400Z 1615/1624 VRB03KT 5000 -TSRA BR FEW008 SCT012 FEW025CB BKN080 BECMG 1617/1618 4000 -RA BR FEW010 SCT012 BKN080", "TAF VOCP 160800Z 1609/1618 07008KT 6000 SCT015 SCT100 TEMPO 1609/1615 3000 .TSRA BKN010 FEW030CB BKN080", "TAF VOGB 160800Z 1609/1618 14005KT 6000 SCT015 SCT020 BKN080 TEMPO 1609/1615 3000 TSRA RA SCT015 SCT020 FEW025CB BKN080", "TAF VOGO 161400Z 1615/1624 06008KT 6000 FEW015 SCT020 BKN080 TEMPO 1616/1620 3000 TSRA RA FEW008 SCT016 FEW025CB BKN080", "TAF VOHB 161400Z 1615/1624 11005KT 6000 SCT012 SCT080 TEMPO 1615/1618 3000 TSRA RA SCT008 SCT015 FEW025CB BKN080", "TAF VOHS 161400Z 1615/1624 11006KT 5000 BR SCT010 SCT015 TEMPO 1615/1621 10010KT 3000 TSRA SCT010 FEW030CB OVC080", "TAF VOHY 161400Z 1615/1624 10006KT 5000 BR SCT010 SCT015 TEMPO 1615/1621 10010KT 3000 TSRA SCT010 FEW030CB OVC080", "TAF VOJV 160800Z 1609/1618 14005KT 6000 SCT015 SCT020 TEMPO 1609/1615 3000 TSRA RA SCT015 SCT020 FEW025CB BKN080", "TAF VOKN 161400Z 1615/1624 VRB03KT 4000 -TSRA BR SCT012 FEW025CB SCT080 BECMG 1617/1618 3000 -RA BR FEW006 SCT012 BKN080", "TAF VOKU 160800Z 1609/1618 09008KT 5000 BR HZ SCT015 SCT100 TEMPO 1610/1616 120010KT 3000 .TSRA SCT010 FEW030CB OVC080", "TAF VOLT 161100Z 1612/1621 10007KT 3000 -RA -SHRA FEW012 SCT018 BKN090 TEMPO 1615/1618 18008KT 1500 -TSRA SHRA FEW010 SCT018 FEW030CB OVC080 BECMG 1619/1621 11005KT 3000 HZ SCT018 BKN090", "TAF VOMD 161100Z 1612/1718 16010KT 6000 SCT020 SCT100 TEMPO 1612/1618 SCT020 FEW025TCU/CB BKN080 BECMG 1618/1619 VRB02KT 5000 BR BECMG 1703/1704 33005KT 6000 BECMG 1706/1707 16010KT TEMPO 1709/1715 SCT020 FEW025TCU/CB BKN100", "TAF VOML 161400Z 1615/1624 VRB02KT 6000 SCT015 SCT080 TEMPO 1615/1618 3000 TSRA RA SCT005 SCT012 FEW025CB BKN080 BECMG 1622/1623 3000 BR SCT005 SCT012", "TAF VOMM 161100Z 1612/1718 14010KT 5000 BR SCT020 BKN100 TEMPO 1612/1618 SCT020 FEW025TCU/CB BKN100 BECMG 1621/1622 27005KT 3000 BR BECMG 1703/1704 07010KT 5000 BR BECMG 1709/1710 14010KT 6000 TEMPO 1709/1715 SCT020 FEW025TCU/CB BKN100 BECMG 1712/1713 5000 BR", "TAF VOMY 160800Z 1609/1618 14010KT 6000 SCT012 SCT018 TEMPO 1609/1615 3000 TSRA RA SCT012 SCT018 FEW025CB BKN080", "TAF VOND 161100Z 1612/1621 02006KT 3000 HZ SCT020 SCT025 BECMG 1615/1617 4000 HZ BECMG 1618/1620 08005KT 3000 HZ SCT020 SCT100 ", "TAF VORY 161400Z 1615/1624 10008KT 5000 BR SCT015 SCT100 TEMPO 1615/1621 3000 TSRA BKN010 FEW030CB BKN080", "TAF VOSR 161100Z 1612/1621 02005KT 3000 -RA -SHRA FEW010 SCT018 BKN090 TEMPO 1612/1618 08008KT 1500 -TSRA SHRA FEW010 SCT018 FEW030CB OVC080 BECMG 1619/1621 11005KT 2500 -RA SHRA", "TAF VOTP 161400Z 1615/1624 05006KT 5000 BR SCT015 SCT100 TEMPO 1615/1621 3000 TSRA BKN010 FEW030CB BKN080", "TAF VOTR 161100Z 1612/1718 12010KT 5000 BR SCT015 BKN080 TEMPO 1612/1618 4000 -TSRA/RA SCT018 FEW025TCU/CB OVC080 BECMG 1618/1619 3000 RA/BR SCT015 OVC080 BECMG 1621/1622 VRB02KT BECMG 1703/1704 25005KT 5000 BR BECMG 1706/1707 12010KT 6000 TEMPO 1709/1715 SCT020 FEW025TCU/CB BKN080", "TAF VOTV 161400Z 1615/1624 VRB03KT 4000 -TSRA BR SCT012 FEW025CB BKN080 BECMG 1617/1618 3000 -RA BR", "TAF VOVZ 161400Z 1615/1624 03003KT 5000 BR FEW018 SCT080 BECMG 1615/1616 VRB02KT 4000 BR", "TAF VRMG 161100Z 1612/1718 23012KT 9999 FEW018 TEMPO 1612/1618 FEW019CB", "TAF VRMH 161100Z 1612/1718 25013KT 9999 FEW017TCU BKN120 TEMPO 1612/1618 5000 SHRA FEW018CB", "TAF VRMM 161100Z 1612/1718 23016KT 9999 SCT017TCU BKN110 1612/1618 27020G37KT 3000 SHRA SCT017CB", "TAF VTBD 161100Z 1612/1718 01008KT 9000 FEW020 SCT060", "TAF VTBO 161100Z 1612/1712 03008KT 8000 FEW020 SCT040", "TAF VTBS 161100Z 1612/1718 01008KT 9000 FEW020 SCT060", "TAF VTBU 161100Z 1612/1712 01008KT 6000 FEW020 SCT100", "TAF VTCC 161100Z 1612/1718 25005KT 9999 SCT035 TEMPO 1612/1616 -TSRA FEW025CB BKN035 BECMG 1615/1617 31005KT BECMG 1619/1621 02005KT BECMG 1704/1706 16005KT BECMG 1709/1711 27005KT", "TAF VTCH 161100Z 1612/1712 30005KT 9999 SCT025 BECMG 1620/1622 00000KT 1000 BR BECMG 1700/1702 36005KT 9999 NSW", "TAF VTCL 161100Z 1612/1712 01005KT 9999 FEW025", "TAF VTCN 161100Z 1612/1712 12005KT 9999 FEW025 BECMG 1616/1618 36005KT", "TAF VTCP 161100Z 1612/1712 03005KT 9999 FEW030", "TAF VTCT 161100Z 1612/1718 05005KT 9999 FEW030", "TAF VTPB 161100Z 1612/1712 36005KT 9999 FEW030", "TAF VTPH 161100Z 1612/1712 35003KT 9000 FEW020 SCT100 BECMG 1704/1706 04012KT", "TAF VTPM 161100Z 1612/1712 09005KT 9999 FEW025", "TAF VTPO 161100Z 1612/1712 01005KT 9999 FEW020", "TAF VTPP 161100Z 1612/1712 03005KT 9999 FEW030", "TAF VTSB 161100Z 1612/1712 00000KT 9999 SCT020 SCT100 BECMG 1703/1705 04008KT TEMPO 1705/1712 VRB15G25KT 3000 TSRA FEW016CB SCT018 BKN100", "TAF VTSC 161100Z 1612/1712 20003KT 9999 FEW020 BKN100 TEMPO 1612/1616 4000 RA TEMPO 1620/1703 4000 RA BECMG 1703/1705 27010KT TEMPO 1706/1712 VRB15G25KT 4000 TSRA FEW016CB SCT018 BKN100", "TAF VTSE 161100Z 1612/1712 00000KT 8000 FEW020 BKN100 TEMPO 1612/1615 4000 RA BECMG 1703/1705 06008KT", "TAF VTSF 161100Z 1612/1712 33003KT 9999 SCT020 BKN100 TEMPO 1612/1618 4000 RA TEMPO 1705/1712 VRB15G25KT 3000 TSRA FEW016CB SCT018 BKN100", "TAF VTSG 161100Z 1612/1712 26006KT 9999 SCT020 TEMPO 1612/1616 26015G25KT 3000 TSRA FEW018CB SCT020 BKN100 BECMG 1616/1618 00000KT BECMG 1700/1702 26006KT", "TAF VTSM 161100Z 1612/1712 03005KT 9999 SCT020 TEMPO 1612/1615 4000 RA TEMPO 1706/1712 VRB15G25KT 4000 TSRA FEW016CB SCT018 BKN100", "TAF VTSP 161100Z 1612/1718 28008KT 9999 SCT020 TEMPO 1612/1620 30015G25KT 3000 TSRA FEW018CB SCT020 BKN100 TEMPO 1620/1704 30015G25KT 3000 TSRA FEW018CB SCT020 BKN100", "TAF VTSR 161100Z 1612/1712 00000KT 9999 SCT020 TEMPO 1612/1618 24015G25KT 3000 TSRA FEW018CB SCT020 BKN100 BECMG 1700/1702 24006KT", "TAF VTSS 161100Z 1612/1712 23005KT 9999 SCT020 BKN100 TEMPO 1612/1618 4000 RA TEMPO 1622/1706 4000 RA TEMPO 1706/1712 VRB15G25KT 4000 TSRA FEW016CB SCT018 BKN100", "TAF VTST 161100Z 1612/1712 00000KT 9999 SCT020 TEMPO 1612/1616 26015G25KT 3000 TSRA FEW018CB SCT020 BKN100 BECMG 1700/1702 26006KT", "TAF VTUD 161100Z 1612/1712 01005KT 9000 FEW030 SCT080", "TAF VTUI 161100Z 1612/1712 05005KT 9000 FEW030 SCT080", "TAF VTUK 161100Z 1612/1712 36005KT 8000 FEW030 SCT080", "TAF VTUL 161100Z 1612/1712 08005KT 8000 FEW030 SCT080 BECMG 1621/1623 00000KT 2500 BR BECMG 1701/1703 08005KT 8000 NSW", "TAF VTUO 161100Z 1612/1712 34005KT 8000 SCT025", "TAF VTUQ 161100Z 1612/1712 34005KT 8000 SCT025", "TAF VTUU 161100Z 1612/1712 03005KT 9000 FEW020", "TAF VTUV 161100Z 1612/1712 03005KT 8000 SCT025", "TAF VTUW 161100Z 1612/1712 04005KT 9000 FEW030 SCT080", "TAF VVCI 161100Z 1612/1712 36006KT 9999 SCT025", "TAF VVCR 161100Z 1612/1712 10010KT 9999 FEW015 BECMG 1613/1614 32005KT TEMPO 1614/1618 4000 SHRA SCT013 FEW015CB BKN060 BECMG 1703/1704 08012KT", "TAF VVCT 161100Z 1612/1712 VRB03KT 9999 SCT015 SCT040 BECMG 1701/1702 35010KT", "TAF VVDN 161100Z 1612/1712 36010KT 8000 SCT015 TEMPO 1704/1710 36015G25KT", "TAF VVNB 161100Z 1612/1712 32006KT 9999 FEW030", "TAF VVPB 161100Z 1612/1712 27008KT 8000 SCT015 BKN050 BECMG 1702/1703 33012KT TEMPO 1703/1709 33015G25KT", "TAF VVPQ 161100Z 1612/1712 VRB03KT 9999 SCT017 SCT040 BECMG 1705/1706 25010KT", "TAF VVTS 161100Z 1612/1718 VRB03KT 9999 SCT017 BECMG 1701/1702 35010KT TEMPO 1707/1712 TS SCT015 FEW017CB", "TAF VYMD 161100Z 1612/1712 14005KT 7000 SCT025 TEMPO 1612/1618 34010KT 5000 -TSRA BKN017 FEW020CB BKN100", "TAF VYNT 161100Z 1612/1712 36007KT 7000 BKN018 FEW023CB BKN110 TEMPO 1612/1618 04005KT 4000 -TSRA BKN016 FEW020CB BKN100", "TAF VYYY 161100Z 1612/1712 04005KT 7000 SCT020 FEW025TCU SCT120 TEMPO 1612/1618 04005KT 7000 SCT018 FEW023TCU BKN110", "TAF WABB 161100Z 1612/1718 05006KT 9999 FEW018 BECMG 1622/1700 10010KT SCT018", "TAF WADD 161100Z 1612/1712 16012KT 9999 SCT016 TEMPO 1618/1622 5000 RA BKN014", "TAF WAMM 161100Z 1612/1718 VRB03KT 9999 SCT020 BECMG 1700/1702 16009KT", "TAF WAPP 161100Z 1612/1712 35006KT 9999 SCT017", "TAF WARR 161100Z 1612/1712 10010KT 9999 SCT020 BECMG 1612/1614 26005KT 8000 FEW020 BECMG 1616/1618 5000 HZ BECMG 1700/1702 08010KT 9999 NSW", "TAF WBGG 161100Z 1612/1712 26005KT 9999 FEW020 BECMG 1620/1622 00000KT 0800 FG SCT000 BECMG 1700/1702 VRB02KT 9999 SCT016 TEMPO 1707/1711 30006KT 3000 TSRA FEW015CB", "TAF WBKK 161100Z 1612/1712 11005KT 9999 FEW014 PROB40 TEMPO 1620/1700 5000 TSRA FEW016CB SCT035 BECMG 1700/1702 22005KT", "TAF WBSB 161050Z 1612/1718 24006KT 9999 SCT015 FEW016CB TEMPO 1616/1619 6000 -TSRA SCT012 FEW015CB TEMPO 1620/1623 8000 -RA BECMG 1701/1703 20010KT FEW014 FEW015CB", "TAF WIDD 161100Z 1612/1712 17004KT 9999 SCT014", "TAF WIEE 161100Z 1612/1712 03004KT 9999 BKN020", "TAF WIHH 161100Z 1612/1712 05006KT 6000 SCT020 BECMG 1614/1616 22003KT 5000 HZ FEW022", "TAF WIII 161100Z 1612/1718 21005KT 8000 SCT020 BECMG 1615/1617 5000 HZ BECMG 1702/1704 36010KT 8000 NSW BECMG 1712/1714 24005KT", "TAF WIMM 161100Z 1612/1712 VRB05KT 5000 HZ SCT018 BECMG 1702/1704 02010KT 9999 NSW", "TAF WIPB 160500Z 1606/1618 10005KT 9999 BKN010 TEMPO 1608/1612 5000 -RA FEW010CB BKN011", "TAF WIPP 161100Z 1612/1712 16006KT 9999 SCT010 TEMPO 1613/1616 5000 -TSRA BKN010 FEW011CB TEMPO 1621/1624 3000 BR", "TAF WMKJ 161100Z 1612/1712 VRB02KT 9999 FEW022 TEMPO 1703/1707 4000 TSRA FEW017CB SCT018", "TAF WMKK 161100Z 1612/1718 VRB02KT 9999 FEW028 TEMPO 1616/1620 28006KT 4000 TSRA FEW010 FEW017CB", "TAF WMKP 161100Z 1612/1712 04006KT 8000 FEW025 PROB30 TEMPO 1618/1700 VRB02KT 5000 TSRA FEW010 FEW017CB", "TAF WMPA 160500Z 1606/1706 VRB02KT 9000 FEW017CB TEMPO 1606/1608 7000 RA", "TAF WMSA 161100Z 1612/1712 VRB02KT 9999 FEW026 PROB30 TEMPO 1615/1619 5000 TSRA FEW017CB SCT024", "TAF WPDL 161129Z 1612/1700 16006KT 9999 FEW025", "TAF WSAP 161100Z 1612/1718 26007KT 9999 FEW015 BKN020 TEMPO 1620/1700 3000 TSRA FEW012CB BKN015", "TAF WSSL 161100Z 1612/1718 26007KT 9999 FEW015 BKN020 TEMPO 1620/1700 3000 TSRA FEW012CB BKN015", "TAF WSSS 161100Z 1612/1718 26007KT 9999 FEW015 BKN020 TEMPO 1620/1700 3000 TSRA FEW012CB BKN015", "TAF YAMB 161029Z 1612/1712 05005KT 9999 -SHRA BKN030 FM161400 VRB03KT 9999 NSW BKN030 FM170100 05012KT 9999 -SHRA SCT035 INTER 1703/1709 4000 SHRA BKN015", "TAF YBAS 161123Z 1612/1712 13008KT CAVOK FM161400 04010KT CAVOK FM162230 36018G28KT CAVOK FM170300 34016KT CAVOK PROB30 TEMPO 1612/1618 VRB25G45KT 3000 TSRA SCT040 SCT090CB PROB30 TEMPO 1705/1712 VRB25G45KT 1000 TSRA SCT020 SCT070CB", "TAF YBBN 161408Z 1615/1718 05008KT 9999 -RA SCT030 FM170000 04010KT 9999 -SHRA BKN035 FM171000 05005KT 9999 NSW SCT030 INTER 1705/1709 5000 SHRA BKN015", "TAF AMD YBCG 161429Z 1615/1712 22005KT 9999 -SHRA SCT030 FM162300 01010KT 9999 NSW BKN040 INTER 1705/1710 4000 SHRA BKN015", "TAF YBCS 161402Z 1615/1712 17005KT 9999 SCT025 FM170200 05012KT 9999 SCT035 FM170900 17005KT 9999 SCT025", "TAF YBHM 161102Z 1612/1700 06008KT 9999 SCT020", "TAF YBLN 161106Z 1612/1712 25010KT 9999 -SHRA SCT045 FM161400 21007KT 9999 -SHRA SCT030 FM161800 19005KT 9999 NSW SCT030 FM170200 20014KT 9999 SCT035 INTER 1612/1618 3000 SHRA SCT015 SCT035TCU", "TAF YBMA 161102Z 1612/1700 15008KT CAVOK FM162300 09014KT CAVOK", "TAF AMD YBRK 161535Z 1615/1712 VRB03KT 9999 SCT020 FM162300 01010KT 9999 SCT030 FM170800 10008KT 9999 SCT030 INTER 1615/1712 3000 SHRA BKN012 PROB30 TEMPO 1704/1710 VRB20G35KT 1000 TSRA BKN010 SCT030CB", "TAF YBRM 161103Z 1612/1712 24008KT CAVOK FM170300 28011KT CAVOK", "TAF YBTL 161104Z 1612/1712 08008KT 9999 SCT020 FM161500 14005KT 9999 SCT020 FM162300 03010KT 9999 SCT030 FM170200 03015KT 9999 FEW040 FM170800 06008KT 9999 SCT020", "TAF AMD YBWW 161559Z 1615/1712 05006KT 9999 BKN012 FM162300 36008KT 9999 SCT015 FM170000 36008KT 9999 SCT030 FM170600 08008KT 9999 SCT030 FM170900 08008KT 9999 SCT010 INTER 1702/1709 3000 SHRA BKN010", "TAF YCFS 161101Z 1612/1712 32005KT 9999 SCT025 BKN035 FM161600 34007KT 9999 BKN020 FM170000 06012KT 9999 -SHRA SCT035 INTER 1700/1712 3000 SHRA BKN014 PROB40 TEMPO 1705/1712 VRB20G35KT 1000 TSRA BKN012 SCT030CB", "TAF YCIN 161202Z 1614/1702 24005KT CAVOK", "TAF AMD YFRT 161336Z 1613/1702 10018KT CAVOK FM161500 07018KT CAVOK FM162300 01014KT CAVOK", "TAF AMD YGEL 161350Z 1613/1706 21012KT 9999 -SHRA SCT030 FM162000 18012KT 9999 -SHRA SCT030 FM170000 18016G26KT 9999 NSW SCT050 INTER 1613/1620 21019G29KT 5000 SHRA SCT018", "TAF AMD YGLA 161137Z 1612/1700 10012KT 9999 BKN020 FM161400 10006KT 9999 SCT010 BKN018 TEMPO 1612/1700 4000 RA BKN010", "TAF AMD YHID 161150Z 1612/1712 12014KT 9999 BKN016 FM170000 11018KT 9999 SCT025 FM170900 12012KT 9999 BKN016 INTER 1612/1700 4000 SHRA BKN012", "TAF YLHI 161123Z 1612/1712 16004KT 9999 SCT030", "TAF YMAV 161102Z 1612/1712 30005KT CAVOK FM162300 14010KT CAVOK FM171000 12005KT CAVOK", "TAF AMD YMHB 161505Z 1615/1712 31014KT CAVOK FM161800 20010KT 9999 -SHRA SCT020 BKN025 BECMG 1622/1623 22005KT 9999 NSW SCT025 BKN040 FM170300 16010KT 9999 BKN035 TEMPO 1618/1622 4000 SHRA BKN010", "TAF YMLT 161125Z 1612/1712 34005KT CAVOK FM162200 VRB03KT 9999 SCT015 SCT035 FM170000 16005KT 9999 SCT040", "TAF YMML 161405Z 1615/1718 36005KT CAVOK FM162200 17010KT CAVOK FM171200 25006KT CAVOK FM171500 30005KT CAVOK", "TAF YPAD 161411Z 1615/1718 12007KT CAVOK FM161600 06006KT CAVOK FM170500 22010KT CAVOK FM171000 03014KT CAVOK", "TAF YPCC 161103Z 1612/1712 12016KT 9999 SCT020", "TAF YPDN 161430Z 1615/1718 31006KT 9999 SCT020 FM161700 VRB05KT 9999 SCT018 FM170200 34010KT 9999 SCT030 FM170900 34005KT 9999 SCT020", "TAF YPEA 161115Z 1612/1706 24012KT 9999 -SHRA SCT045 SCT050 FM161800 VRB05KT 9999 -SHRA SCT030 FM162100 01005KT 9999 NSW FEW030 FM170300 21012KT 9999 SCT050 INTER 1612/1618 3000 SHRA SCT012 SCT035TCU", "TAF AMD YPGV 161452Z 1614/1702 12005KT 9999 SCT018 FM162330 10010KT 9999 -SHRA SCT020 PROB40 1614/1621 3000 BR", "TAF YPJT 161115Z 1612/1706 24012KT 9999 -SHRA SCT045 SCT050 FM161800 VRB03KT 9999 -SHRA SCT030 FM162100 17005KT 9999 NSW FEW030 FM170200 22014KT 9999 SCT050 INTER 1612/1618 3000 SHRA SCT015 SCT035TCU", "TAF AMD YPKG 161509Z 1615/1712 24014G25KT CAVOK FM170000 22015G28KT CAVOK FM171000 19014KT CAVOK", "TAF YPKU 161202Z 1614/1702 35005KT CAVOK", "TAF YPLM 161104Z 1612/1712 21020KT CAVOK FM161300 19018KT CAVOK FM162200 17020KT CAVOK FM171100 17012KT CAVOK", "TAF YPPD 161104Z 1612/1712 26010KT CAVOK FM162200 19010KT CAVOK FM170400 30016KT CAVOK FM171000 28010KT CAVOK", "TAF YPPH 161412Z 1615/1718 21010KT 9999 -SHRA SCT025 BKN045 FM161800 VRB05KT 9999 -SHRA SCT030 FM162100 18005KT 9999 NSW FEW030 FM170200 21014KT 9999 SCT045 INTER 1615/1618 3000 SHRA SCT015 SCT035TCU", "TAF YPTN 161128Z 1612/1712 08010KT CAVOK FM161400 35007KT CAVOK FM170900 01005KT CAVOK", "TAF YPWR 161131Z 1612/1706 14010KT CAVOK FM161800 09010KT CAVOK FM162300 02014KT CAVOK FM170300 02014KT 9999 -SHRA NSC PROB30 TEMPO 1704/1706 VRB20G30KT 5000 TSRA SCT080CB", "TAF AMD YPXM 161238Z 1612/1712 13008KT 9999 -SHRA BKN004 FM161500 13008KT 9999 -SHRA BKN010 FM170300 13012KT 9999 -SHRA BKN015 TEMPO 1612/1615 1000 +SHRA BKN002 TEMPO 1615/1703 3000 SHRA BKN005 INTER 1703/1712 3000 SHRA BKN010", "TAF AMD YSCB 161559Z 1615/1712 11008KT 9999 BKN018 FM162200 05010KT 9999 SCT045 FM171000 10005KT 9999 SCT020", "TAF YSDU 161106Z 1612/1706 19008KT CAVOK FM162200 17006KT 9999 -SHRA SCT020", "TAF AMD YSNF 161628Z 1616/1712 28014KT 9999 -SHRA SCT005 BKN015 FM170000 28010KT 9999 -SHRA SCT020 BKN030 FM170900 25003KT 9999 NSW SCT020 TEMPO 1616/1622 3000 SHRA BKN003", "TAF YSRI 161116Z 1612/1712 20005KT 9999 -SHRA SCT020 BKN030 FM161300 19010KT 9999 -SHRA SCT010 BKN020 FM170000 15010KT 9999 -SHRA SCT015 BKN025 INTER 1612/1712 3000 SHRA BKN010", "TAF YSSY 161409Z 1615/1718 18015G25KT 9999 -SHRA SCT010 BKN020 FM162200 15017KT 9999 -SHRA SCT015 BKN025 FM171000 12010KT 9999 -SHRA FEW015 BKN025 FM171200 08008KT 9999 -SHRA SCT010 BKN020 TEMPO 1615/1619 2000 SHRA BKN008 INTER 1619/1718 3000 SHRA BKN010", "TAF YSTW 161107Z 1612/1706 VRB03KT CAVOK FM170100 19010KT 9999 SCT040", "TAF AMD YWLM 161120Z 1612/1712 05005KT 9999 SCT040 FM161700 17010KT 9999 -SHRA SCT010 BKN020 FM170000 14012KT 9999 -SHRA SCT015 BKN025 FM170800 12005KT 9999 -SHRA SCT010 BKN020 INTER 1617/1712 3000 SHRA BKN010 PROB30 TEMPO 1612/1623 VRB20G35KT 2000 TSRA BKN010 SCT030CB", "TAF ZKPY 160330Z 1606/1706 32004MPS 4000 BR SCT020 TX18/1607Z TN06/1621Z", "TAF ZKWS 160330Z 1606/1706 32004MPS CAVOK TX20/1607Z TN09/1621Z", "TAF ZMUB 161637Z 1612/1724 VRB02MPS CAVOK TNM15/1622Z TX06/1707Z BECMG 1623/1701 6000 BECMG 1703/1705 9999 NSW"]}