station_id,raw_text
AGGA,TAF AGGA 041735Z 0418/0518 36008KT 9999 SCT018 PROB40 INTER 0500/0506 5000 TSSH BKN016 FEW017CB
AGGC,TAF AGGC 041735Z 0418/0518 02008KT 9999 SCT018 BKN030 PROB40 INTER 0418/0506 5000 TSSH BKN016 FEW017CB
AGGH,TAF AGGH 051120Z 0512/0612 VRB03KT 9999 SCT017 PROB40 INTER 0512/0518 5000 TSSH BKN015 FEW016CB T 24 23 24 26 Q 1011 1009 1008 1010
AGGL,TAF AGGL 041735Z 0418/0518 02010KT 9999 SCT018 BKN030 PROB40 INTER 0500/0506 5000 TSSH BKN016 FEW017CB
AGGM,TAF AGGM 051120Z 0512/0612 VRB03KT 9999 SCT017 PROB40 INTER 0512/0518 5000 TSSH BKN015 FEW017CB Q 1011 1009 1008 1010
AGGN,TAF AGGN 051120Z 0512/0612 VRB03KT 9999 SCT017 PROB40 INTER 0512/0518 5000 TSSH BKN015 FEW016CB Q 1011 1009 1008 1010
AGGR,TAF AGGR 041735Z 0418/0518 12010KT 9999 SCT018
ANYN,TAF ANYN 050907Z 0512/0612 09005KT 9999 FEW020 T 27 26 24 25 Q 1012 1010 1011 1013
AYPY,TAF AYPY 050900Z 0512/0612 15010KT 9999 SCT020 SCT130 FM051800 13010KT 9999 SCT030 FM052200 10006KT 9999 SCT018 SCT030 FM060300 19007KT -SHRA BKN030 INTER 0604/0610 5000 TSRA BKN010 FEW018CB PROB03 0519/0521 VRB03KT 0700 FG
BGAA,TAF BGAA 051121Z 0511/0518 VRB05KT 9999 SCT050 BKN120 BECMG 0512/0515 BKN030 TEMPO 0515/0518 32015G25KT 2000 -SN BKN012
BGBW,TAF BGBW 051115Z 0512/0521 VRB04KT 9999 SCT120 BKN200 TEMPO 0512/0521 BKN040
BGGH,TAF BGGH 051115Z 0512/0521 VRB08KT 9999 FEW006 SCT014 BKN040 TEMPO 0512/0518 35012KT 1500 -SN BKN006 OVC015 BECMG 0518/0521 35015KT TEMPO 0518/0521 1500 -SN BKN006 OVC014
BGJN,TAF BGJN 051115Z 0512/0521 VRB08KT 9999 -SN FEW014 SCT020 BKN040 TEMPO 0512/0521 2000 -SN BKN014
BGKK,TAF BGKK 051115Z 0512/0520 09020KT 9999 FEW012 BKN030 TEMPO 0512/0515 3000 -RASN SCT005 BKN012 BECMG 0515/0518 BKN080
BGSF,TAF BGSF 051105Z 0512/0520 24005KT 9999 BKN040 PROB40 0512/0514 2500 -SN BKN008 TEMPO 0514/0520 3000 -SN BKN012
BGSS,TAF BGSS 051124Z 0511/0518 VRB06KT 9999 -SN FEW004 SCT012 BKN025 TEMPO 0511/0514 0800 -SN BKN004 OVC012 BECMG 0512/0514 34010KT TEMPO 0514/0518 35010G20KT 2000 -SHSN BKN008
BGTL,TAF BGTL 041915Z 0419/0601 11020G30KT 9999 BKN030 620802 520003 540307 QNH2910INS BECMG 0420/0421 11012G18KT 9999 BKN030 620302 540304 QNH2912INS TEMPO 0423/0502 5000 -SN 620307 BECMG 0501/0502 14012G18KT 5000 -SN SCT015 BKN030 BKN050 620307 520003 540307 QNH2920INS TEMPO 0503/0511 14025G35KT 3200 -SN BKN020 620208 520001 570104 BECMG 0513/0514 14010G15KT 9999 NSW SCT020 BKN050 530105 QNH2939INS TXM03/0419Z TNM15/0512Z LAST NO AMDS AFT 0419 NEXT 0703
BGUK,TAF BGUK 051127Z 0511/0518 14010KT 9999 FEW007 SCT012 BKN030 TEMPO 0511/0518 2000 -SHSN BKN007 OVC012
BIAR,TAF BIAR 051030Z 0512/0612 09005KT 9999 FEW030 BKN040 TX02/0606Z TNM04/0512Z PROB40 TEMPO 0519/0612 4500 -SHSN BKN014
BIEG,TAF BIEG 051025Z 0512/0612 01008KT 7000 -SHSN FEW008 SCT014 BKN030 TX02/0518Z TNM01/0512Z TEMPO 0512/0612 0400 DZ FG VV002
BIIS,TAF BIIS 051006Z 0511/0515 13008KT 9999 FEW022 SCT035
BIKF,TAF BIKF 051021Z 0512/0612 08012KT 9999 FEW030 SCT045 TX05/0515Z TN02/0521Z
BIRK,TAF BIRK 051023Z 0512/0612 10018G28KT CAVOK TX06/0515Z TN02/0606Z BECMG 0515/0517 09012KT
BIVM,TAF BIVM 050901Z 0510/0518 09036G46KT 9999 SCT015 OVC022 TEMPO 0510/0518 09046G56KT
BKPR,TAF BKPR 051130Z 0512/0612 16008KT 9999 SCT040 BKN080 BECMG 0518/0521 02012KT TEMPO 0600/0609 4000 -RA BR BKN014
CWSA,TAF CWSA 050740Z 0508/0520 23015KT 5SM BR SKC TEMPO 0508/0512 P6SM NSW BECMG 0508/0510 24015G25KT FM051200 25020G30KT P6SM SCT015 TEMPO 0512/0518 BKN015 FM051800 24020G30KT P6SM BKN008 BKN015 RMK FCST BASED ON AUTO OBS. NXT FCST BY 051400Z
CWWU,TAF AMD CWWU 041309Z 0413/0512 25008KT P6SM FEW025 SCT040 BKN080 TEMPO 0413/0415 P6SM -SHRA BKN025 OVC080 FM041500 27010KT P6SM SCT025 BKN080 FM041900 25008KT P6SM FEW030 TEMPO 0423/0503 P6SM BKN180 FM050300 23012KT P6SM SCT250 RMK NXT FCST BY 041800Z
CYAH,TAF CYAH 051040Z 0511/0521 25010KT P6SM -SN SCT012 BKN025 OVC040 TEMPO 0511/0515 4SM -SN BKN009 OVC015 PROB30 0511/0515 2 1/2SM -SN OVC007 FM051500 VRB03KT P6SM SCT020 BKN050 TEMPO 0515/0521 5SM -SN OVC020 RMK FCST BASED ON AUTO OBS. NXT FCST BY 051800Z
CYAM,TAF CYAM 050740Z 0508/0520 VRB03KT 6SM -RA BR SCT007 OVC025 TEMPO 0508/0510 3SM SHRA BR OVC007 FM051000 VRB03KT 3SM SHRA BR OVC005 TEMPO 0510/0516 6SM -RA BR OVC010 FM051600 12010G20KT 6SM -RA BR SCT006 OVC040 TEMPO 0516/0520 3SM -RA BR OVC006 RMK NXT FCST BY 051400Z
CYAT,TAF AMD CYAT 050948Z 0509/0519 VRB03KT P6SM FEW010 TEMPO 0509/0514 3SM BR BKN005 PROB30 0509/0514 1SM BR BKN003 FM051400 11006KT P6SM SCT020 TEMPO 0514/0519 BKN020 BECMG 0515/0517 12010KT RMK FCST BASED ON AUTO OBS. NXT FCST BY 051500Z
CYAY,TAF CYAY 050740Z 0508/0520 20008KT P6SM BKN240 BECMG 0508/0510 22020G35KT FM051800 24020G35KT P6SM -SHRA BKN020 RMK FCST BASED ON AUTO OBS. NXT FCST BY 051400Z
CYBC,TAF CYBC 050740Z 0508/0520 24022G32KT P6SM FEW080 SCT210 TEMPO 0508/0512 SCT060 BKN080 BECMG 0508/0510 24020G30KT FM051200 24015G30KT P6SM BKN060 OVC080 TEMPO 0512/0515 P6SM -SHRA BKN040 OVC060 RMK FCST BASED ON AUTO OBS. NXT FCST BY 051400Z
CYBG,TAF CYBG 051140Z 0512/0612 24015G25KT P6SM BKN070 BKN150 TEMPO 0512/0517 P6SM -SHRA BECMG 0515/0517 24010KT FM051900 09010KT P6SM FEW070 BKN200 FM060200 09008KT P6SM SCT050 BKN200 RMK NXT FCST BY 051500Z
CYBK,TAF CYBK 051140Z 0512/0524 07015KT 2SM -SN BLSN BKN012 OVC030 TEMPO 0512/0514 6SM -SN SCT012 OVC030 FM051400 09018G28KT 1SM -SN BLSN OVC008 TEMPO 0514/0524 4SM -SN BLSN OVC012 RMK NXT FCST BY 051800Z
CYBR,TAF CYBR 051140Z 0512/0524 08008KT P6SM SCT080 BKN200 BECMG 0512/0514 16015G25KT FM051600 16015G25KT P6SM BKN080 OVC200 FM052000 18015G25KT P6SM -RA FEW006 SCT012 OVC030 TEMPO 0520/0524 5SM -SHRA BR SCT006 OVC012 RMK NXT FCST BY 051800Z
CYBW,TAF CYBW 051141Z 0512/0524 33012G22KT 4SM -SN OVC010 TEMPO 0512/0514 3/4SM -SHSN BR BKN004 OVC008 FM051400 33015G25KT 6SM -SN BKN010 OVC060 TEMPO 0514/0518 1 1/2SM -SHSN OVC008 FM051800 34022G32KT 5SM -SN OVC025 TEMPO 0518/0524 1SM -SN VV010 PROB30 0518/0524 3/4SM -SHSN VV008 RMK FCST BASED ON AUTO OBS. NXT FCST BY 051800Z
CYBX,TAF CYBX 050740Z 0508/0520 24008KT 3SM BR OVC008 TEMPO 0508/0509 P6SM NSW SCT006 PROB40 0508/0509 1SM BR OVC006 FM050900 24010KT P6SM SCT015 TEMPO 0509/0510 4SM BR BKN010 PROB30 0509/0510 1SM BR BKN004 FM051000 24010G20KT P6SM SCT010 TEMPO 0510/0520 BKN010 BECMG 0511/0513 24015G25KT RMK NXT FCST BY 051400Z
CYCA,TAF CYCA 050740Z 0508/0520 21018G28KT P6SM BKN050 TEMPO 0508/0512 P6SM -SHRA FM051200 22012KT 5SM -RA BR BKN020 TEMPO 0512/0518 P6SM NSW SCT020 BECMG 0514/0516 28015G25KT FM051800 29015G30KT P6SM BKN030 RMK FCST BASED ON AUTO OBS. NXT FCST BY 051400Z
CYCB,TAF CYCB 050642Z 0507/0519 01005KT P6SM FEW003 BKN010 TEMPO 0507/0509 2SM IC -SG BR BKN003 OVC010 FM051200 34008KT P6SM FEW008 BKN015 TEMPO 0512/0519 3SM -SN BR BKN008 OVC015 PROB30 0512/0519 2SM -SN BR BKN004 RMK NXT FCST BY 051300Z
CYCO,TAF AMD CYCO 050726Z 0507/0519 29010KT P6SM FEW003 SCT008 TEMPO 0507/0519 4SM -SN -SG BKN008 OVC015 RMK NXT FCST BY 051300Z
CYCY,TAF CYCY 050640Z 0507/0519 23015KT P6SM FEW040 SCT110 RMK FCST BASED ON AUTO OBS. NXT FCST BY 051300Z
CYDB,TAF CYDB 051140Z 0512/0524 28008KT P6SM -SN SCT020 OVC090 TEMPO 0512/0524 5SM -SN BKN020 OVC090 BECMG 0513/0515 30012G22KT RMK FCST BASED ON AUTO OBS. NXT FCST BY 051800Z
CYDF,TAF CYDF 050740Z 0508/0520 24010KT P6SM FEW060 SCT200 BECMG 0510/0512 22015G25KT BECMG 0513/0515 23015G30KT FM051800 24015G25KT P6SM BKN050 RMK NXT FCST BY 051400Z
CYDN,TAF CYDN 051140Z 0512/0524 18012KT P6SM SCT080 BKN200 FM051600 16012G22KT P6SM BKN080 OVC200 FM051900 16012G22KT P6SM -SHRA SCT020 OVC060 TEMPO 0519/0524 4SM -SHSNRA BKN020 OVC030 RMK FCST BASED ON AUTO OBS. NXT FCST BY 051800Z
CYDP,TAF AMD CYDP 051138Z 0511/0522 30030G45KT P6SM SCT040 BECMG 0516/0518 33010KT BKN040 RMK NXT FCST BY 051400Z
CYEG,TAF CYEG 051141Z 0512/0612 02010KT P6SM FEW008 OVC030 TEMPO 0512/0515 3SM -SN BKN008 OVC020 FM051500 01012G22KT 3SM -SN BKN010 OVC030 TEMPO 0515/0522 1SM -SN OVC006 BECMG 0516/0518 36020G30KT FM052200 34018G28KT P6SM -SN BKN025 OVC080 TEMPO 0522/0601 3SM -SN OVC015 FM060100 34012KT P6SM BKN020 BKN140 RMK NXT FCST BY 051500Z
CYEK,TAF CYEK 051140Z 0512/0524 13025G35KT 2SM -SN OVC015 TEMPO 0512/0516 6SM -SN SCT015 BKN030 OVC060 BECMG 0512/0513 28010KT FM051600 28008KT P6SM SCT008 BKN025 TEMPO 0516/0520 5SM -SN BKN008 OVC025 FM052000 28008KT P6SM SCT012 BKN030 TEMPO 0520/0524 P6SM -SN BKN012 OVC030 RMK FCST BASED ON AUTO OBS. NXT FCST BY 051800Z
CYEN,TAF CYEN 051144Z 0512/0524 18015KT P6SM SCT080 BKN200 FM051600 18015G25KT P6SM BKN030 OVC060 TEMPO 0516/0519 P6SM -SHRA SCT008 OVC020 FM051900 20015G25KT P6SM BKN040 BECMG 0520/0522 27025G35KT RMK FCST BASED ON AUTO OBS. NXT FCST BY 051800Z
CYER,TAF CYER 050850Z 0509/0519 18005KT 6SM BR FEW003 TEMPO 0509/0512 1SM BR FM051200 16005KT P6SM FEW020 TEMPO 0512/0519 BKN020 BECMG 0513/0515 16012G22KT RMK FCST BASED ON AUTO OBS. NXT FCST BY 051500Z
CYEU,TAF CYEU 051044Z 0511/0523 08008KT P6SM FEW080 SCT200 FM051500 12008KT P6SM SCT030 OVC080 TEMPO 0515/0518 4SM -SN FEW015 BKN030 OVC080 FM051800 12005KT P6SM -SN SCT015 OVC030 TEMPO 0518/0523 4SM -SN BKN015 OVC030 PROB30 0518/0521 2SM -SHSN RMK ADVISORY OFFSITE. NXT FCST BY 051800Z
CYEV,TAF CYEV 050640Z 0507/0519 34010KT P6SM -SN BKN015 OVC050 TEMPO 0507/0519 P6SM NSW SCT015 BKN050 BECMG 0507/0509 36010G20KT RMK NXT FCST BY 051300Z
CYFB,TAF CYFB 051140Z 0512/0612 34008KT P6SM SCT020 BKN050 TEMPO 0512/0602 6SM -SN BKN020 OVC050 FM060200 34005KT P6SM SCT015 OVC040 TEMPO 0602/0610 4SM -SHSN BKN015 OVC040 FM061000 36005KT P6SM SCT020 TEMPO 0610/0612 P6SM -SN BKN020 RMK NXT FCST BY 051800Z
CYFC,TAF CYFC 051141Z 0512/0524 21007KT P6SM FEW240 TEMPO 0512/0513 5SM BR FM051500 23012G22KT P6SM FEW240 BECMG 0520/0522 22010KT FM052300 20008KT P6SM SCT020 BKN040 RMK FCST BASED ON AUTO OBS. NXT FCST BY 051800Z
CYFS,TAF CYFS 051140Z 0512/0524 32015G25KT P6SM -SN SCT020 BKN030 TEMPO 0512/0524 3SM -SN BKN020 OVC030 RMK NXT FCST BY 051800Z
CYGK,TAF CYGK 051146Z 0512/0524 18010G20KT P6SM FEW050 BECMG 0513/0515 18017G27KT FM052000 18020G30KT P6SM SCT050 FM052300 18020G30KT P6SM BKN050 RMK NXT FCST BY 051400Z
CYGL,TAF CYGL 051141Z 0512/0612 VRB03KT 6SM BR SCT001 BKN010 TEMPO 0512/0514 2SM -SN BR OVC001 PROB30 0512/0514 1SM -FZDZ BR FM051400 10005KT 5SM -SN BKN008 OVC015 TEMPO 0514/0517 P6SM NSW SCT015 BKN030 PROB30 0514/0517 BKN005 OVC012 FM051700 10008KT P6SM SCT012 BKN025 BECMG 0521/0523 10012G22KT FM060500 09015G25KT 4SM -SNRA SCT008 OVC020 PROB30 0605/0607 2 1/2SM -RAPL BR OVC005 FM060700 09015G25KT 2 1/2SM -RA BR OVC005 RMK NXT FCST BY 051800Z
CYGP,TAF CYGP 050740Z 0508/0520 29008G18KT P6SM SCT170 BKN220 FM051500 26012KT P6SM SCT050 BECMG 0515/0517 VRB03KT BECMG 0517/0519 09007KT RMK NXT FCST BY 051400Z
CYGQ,TAF CYGQ 050740Z 0508/0520 VRB03KT P6SM OVC020 TEMPO 0508/0514 SCT020 FM051400 07008KT P6SM FEW020 TEMPO 0514/0517 BKN020 FM051700 08012G22KT P6SM BKN180 RMK FCST BASED ON AUTO OBS. NXT FCST BY 051400Z
CYGR,TAF CYGR 051040Z 0511/0523 23015G25KT P6SM SKC BECMG 0516/0518 25015G30KT RMK NXT FCST BY 051400Z
CYGV,TAF CYGV 050740Z 0508/0520 VRB03KT 5SM BR SCT160 BKN190 TEMPO 0508/0512 P6SM NSW SCT050 BKN160 BECMG 0510/0512 25012KT FM051200 25015KT P6SM BKN050 BKN180 FM051500 26012G22KT P6SM BKN040 OVC060 FM051800 27012KT P6SM SCT020 BKN030 BECMG 0518/0520 30006KT RMK FCST BASED ON AUTO OBS. NXT FCST BY 051400Z
CYGW,TAF CYGW 051141Z 0512/0524 36006KT P6SM BKN025 TEMPO 0512/0515 5SM -SN FEW010 OVC020 FM051500 11007KT P6SM BKN025 TEMPO 0515/0524 BKN020 RMK FCST BASED ON AUTO OBS. NXT FCST BY 051800Z
CYGX,TAF CYGX 050640Z 0507/0519 18008KT 4SM -SN OVC006 TEMPO 0507/0512 P6SM NSW OVC010 FM051200 16006KT P6SM OVC025 TEMPO 0512/0519 5SM -SN OVC012 RMK NXT FCST BY 051300Z
CYHD,TAF AMD CYHD 051121Z 0511/0520 VRB03KT 1/2SM FZFG VV002 TEMPO 0511/0513 6SM BR SCT002 FM051300 13008KT 4SM BR BKN005 TEMPO 0513/0517 P6SM NSW SCT012 FM051700 13010KT P6SM SKC RMK FCST BASED ON AUTO OBS. NXT FCST BY 051400Z
CYHK,TAF CYHK 051140Z 0512/0524 30010KT P6SM SCT012 TEMPO 0512/0520 P6SM -SN BKN012 FM052000 30008KT P6SM SCT008 TEMPO 0520/0524 5SM -SN BKN008 RMK FCST BASED ON AUTO OBS. NXT FCST BY 051800Z
CYHM,TAF CYHM 051141Z 0512/0612 19010KT P6SM BKN240 BECMG 0512/0514 18010G20KT BECMG 0514/0516 18020G30KT FM051600 18020G30KT P6SM SCT050 BKN200 BECMG 0518/0520 18020G35KT FM052200 18020G35KT P6SM SCT050 BKN100 TEMPO 0522/0602 P6SM -SHRA BKN050 OVC100 FM060200 19020G30KT 3SM SHRA BR BKN015 OVC050 BECMG 0602/0604 24020G30KT FM060400 24020G30KT 5SM -SHRA BR OVC015 FM060800 24010G20KT P6SM BKN050 FM061100 24010G20KT P6SM SCT030 RMK NXT FCST BY 051800Z
CYHU,TAF CYHU 051140Z 0512/0612 18012KT P6SM SCT240 BECMG 0513/0515 18010G20KT FM051900 18012G22KT P6SM BKN040 BKN240 FM060400 19018G30KT P6SM BKN050 BKN240 FM061000 22012G22KT P6SM -SHRA SCT025 OVC050 RMK FCST BASED ON AUTO OBS. NXT FCST BY 051800Z
CYHY,TAF CYHY 051140Z 0512/0524 32015G25KT 1SM -SN BKN008 OVC015 TEMPO 0512/0521 5SM -SN SCT008 OVC015 FM052100 33015KT 5SM -SN BKN015 TEMPO 0521/0524 2SM -SN PROB30 0521/0524 1SM -SN RMK NXT FCST BY 051800Z
CYHZ,TAF CYHZ 051141Z 0512/0612 22012KT P6SM FEW005 SCT250 TEMPO 0512/0513 BKN005 BKN250 FM051300 24012G25KT P6SM FEW020 SCT250 FM051800 24015G25KT P6SM SCT040 TEMPO 0518/0522 BKN040 FM060000 24015G25KT P6SM SCT020 BKN030 BECMG 0600/0602 24012KT FM060600 23012KT P6SM SCT005 BKN025 FM060900 23012KT 3SM BR SCT005 BKN020 RMK NXT FCST BY 051500Z
CYIO,TAF CYIO 050640Z 0507/0519 20010KT P6SM -SN SCT020 BKN040 OVC110 TEMPO 0507/0514 3SM -SN OVC020 PROB30 0507/0512 2SM -SHSN FM051400 21010KT P6SM SCT040 BKN080 TEMPO 0514/0519 4SM -SN FEW020 BKN040 OVC080 RMK FCST BASED ON AUTO OBS. NXT FCST BY 051300Z
CYIV,TAF CYIV 050640Z 0507/0519 17012G22KT P6SM BKN020 TEMPO 0507/0512 SCT020 FM051200 16012G22KT P6SM FEW020 SCT080 RMK FCST BASED ON AUTO OBS. NXT FCST BY 051300Z
CYJT,TAF CYJT 051140Z 0512/0612 23012KT P6SM FEW240 BECMG 0512/0514 23015G25KT FM051800 24015G25KT P6SM FEW020 SCT200 FM052100 25012KT P6SM BKN040 BECMG 0602/0604 24005KT FM060600 VRB03KT P6SM SCT030 RMK NXT FCST BY 051800Z
CYKA,TAF CYKA 050640Z 0507/0519 VRB03KT P6SM SCT015 BKN040 TEMPO 0507/0510 3SM -SHRASN BR BKN015 BECMG 0507/0509 19008KT FM051000 19008KT P6SM SCT060 TEMPO 0510/0515 BKN060 BECMG 0513/0515 10008KT FM051500 10008KT P6SM BKN080 TEMPO 0515/0519 4SM -SHSN BKN060 RMK NXT FCST BY 051300Z
CYKF,TAF CYKF 050740Z 0508/0520 18010G20KT P6SM BKN200 BECMG 0514/0516 18020G30KT RMK FCST BASED ON AUTO OBS. NXT FCST BY 051400Z
CYKJ,TAF AMD CYKJ 051022Z 0510/0522 VRB03KT P6SM SCT004 OVC015 TEMPO 0510/0517 5SM -SN BR OVC004 FM051700 36008KT P6SM -SN OVC010 TEMPO 0517/0520 3SM -SN OVC006 FM052000 36010G20KT P6SM OVC015 TEMPO 0520/0522 P6SM -SN RMK FCST BASED ON AUTO OBS. NXT FCST BY 051300Z
CYKL,TAF AMD CYKL 051127Z 0511/0520 31007KT P6SM BKN040 TEMPO 0511/0515 2 1/2SM -SHSN BKN020 FM051500 32012KT P6SM BKN030 TEMPO 0515/0519 BKN020 FM051900 36005KT P6SM BKN030 RMK FCST BASED ON AUTO OBS. NXT FCST BY 051400Z
CYLD,TAF CYLD 051140Z 0512/0524 04008KT 2SM SHRA BR OVC007 TEMPO 0512/0522 6SM -RA BR SCT007 OVC010 BECMG 0514/0516 08010G20KT FM052200 15010KT 6SM -RA BR OVC007 FM052300 16012G22KT 6SM -RA BR OVC008 PROB30 0523/0524 2SM SHRA BR RMK NXT FCST BY 051400Z
CYLL,TAF CYLL 051141Z 0512/0524 03010G20KT 3SM -SN OVC010 TEMPO 0512/0516 1SM -SN OVC006 PROB30 0512/0516 3/4SM -SN FM051600 01020G30KT 3SM -SN OVC012 TEMPO 0516/0521 1SM -SN OVC006 PROB30 0516/0521 3/4SM -SN BLSN VV005 FM052100 36025G35KT 6SM -SN OVC020 TEMPO 0521/0524 1 1/2SM -SN BLSN VV010 RMK FCST BASED ON AUTO OBS. NXT FCST BY 051800Z
CYLW,TAF AMD CYLW 051032Z 0510/0519 30015KT P6SM SCT012 SCT025 BKN050 TEMPO 0510/0515 3SM -SHRASN BR BKN012 OVC040 PROB30 0510/0515 1SM -SHRASN BR BKN008 FM051500 18008KT P6SM SCT060 RMK FCST BASED ON AUTO OBS. NXT FCST BY 051300Z
CYMA,TAF CYMA 051140Z 0512/0524 35008KT P6SM BKN050 TEMPO 0512/0524 P6SM -SHSN BECMG 0512/0514 02008KT RMK NXT FCST BY 051800Z
CYMH,TAF CYMH 050840Z 0509/0521 22015G25KT P6SM BKN110 TEMPO 0514/0515 P6SM -SHRA FM051500 26012G22KT P6SM -SHRA SCT020 BKN050 BECMG 0519/0521 31012G22KT RMK FCST BASED ON AUTO OBS. NXT FCST BY 051400Z
CYMJ,TAF CYMJ 042340Z 0500/0512 25008KT P6SM FEW040 BKN220 BECMG 0500/0501 20012KT FM050500 20015KT P6SM BKN050 FM050900 18020KT P6SM -SHRA BKN040 RMK NXT FCST BY 050600Z
CYMM,TAF AMD CYMM 050814Z 0508/0519 35008KT P6SM BKN010 OVC030 TEMPO 0508/0515 5SM -SN OVC007 BECMG 0511/0513 35015KT FM051500 35015KT P6SM BKN020 TEMPO 0515/0519 SCT020 RMK FCST BASED ON AUTO OBS. NXT FCST BY 051300Z
CYMO,TAF CYMO 051140Z 0512/0524 VRB03KT P6SM BKN030 TEMPO 0512/0517 BKN020 FM051700 10008KT P6SM SCT015 BKN120 TEMPO 0517/0521 BKN015 OVC120 FM052100 09012KT 6SM -SHRASN BKN015 OVC050 PROB30 0521/0523 4SM -SHRAPL FM052300 07010G20KT 4SM -SHRA BR BKN007 OVC030 RMK FCST BASED ON AUTO OBS. NXT FCST BY 051800Z
CYMT,TAF CYMT 051140Z 0512/0524 01005KT 2SM -RA BR BKN007 OVC030 TEMPO 0512/0520 6SM -RA BR SCT007 OVC030 BECMG 0514/0516 07010KT FM052000 10010KT 2SM -RA BR OVC009 FM052300 15010KT P6SM FEW007 SCT040 OVC140 RMK FCST BASED ON AUTO OBS. NXT FCST BY 051800Z
CYMX,TAF CYMX 051140Z 0512/0612 VRB03KT P6SM SCT230 BECMG 0514/0516 22008G18KT FM051900 20010G20KT P6SM BKN040 BKN240 BECMG 0522/0524 19008KT FM060400 20010G25KT P6SM BKN050 BKN240 FM060900 21012G28KT P6SM -SHRA OVC050 FM061100 22008G18KT 5SM -SHRA BR BKN008 OVC040 RMK NXT FCST BY 051800Z
CYNA,TAF CYNA 050740Z 0508/0520 22005KT P6SM FEW180 BECMG 0508/0510 24010KT SCT130 BKN180 FM051200 25010G20KT P6SM SCT040 TEMPO 0512/0515 BKN040 FM051500 26015G30KT P6SM BKN030 OVC040 TEMPO 0515/0518 P6SM -SHRA BKN020 OVC030 FM051800 27015G25KT P6SM BKN030 OVC050 RMK FCST BASED ON AUTO OBS. NXT FCST BY 051400Z
CYNE,TAF AMD CYNE 050836Z 0508/0519 18006KT P6SM FEW020 SCT200 TEMPO 0508/0510 BKN020 FM051000 14010KT P6SM SCT012 BKN200 TEMPO 0510/0519 BKN012 OVC200 RMK FCST BASED ON AUTO OBS. NXT FCST BY 051300Z
CYOD,TAF CYOD 051140Z 0512/0612 05007KT 3SM -SN FEW012 OVC040 TEMPO 0512/0516 1 1/2SM -SN BKN012 OVC030 BECMG 0512/0514 04012G22KT FM051600 02015G25KT 3SM -SN BKN012 OVC025 TEMPO 0516/0521 P6SM -SN BKN020 OVC030 FM052100 35018G28KT P6SM -SHSN BKN025 BECMG 0600/0602 34012G22KT BECMG 0604/0606 34010KT RMK NXT FCST BY 051500Z
CYOJ,TAF CYOJ 050640Z 0507/0519 33008KT P6SM SCT015 OVC040 TEMPO 0507/0512 P6SM -SN BKN015 OVC040 FM051200 34010G20KT P6SM SCT015 BKN040 TEMPO 0512/0519 P6SM -SN BKN015 OVC040 RMK FCST BASED ON AUTO OBS. NXT FCST BY 051300Z
CYOO,TAF CYOO 050740Z 0508/0520 VRB03KT P6SM BKN220 TEMPO 0508/0512 4SM BR FM051400 18010G20KT P6SM BKN200 RMK FCST BASED ON AUTO OBS. NXT FCST BY 051400Z
CYOW,TAF CYOW 051140Z 0512/0612 19012KT P6SM SCT240 FM051700 20012G22KT P6SM SCT040 BKN240 FM052300 18012G22KT P6SM BKN040 BKN240 BECMG 0602/0604 18015G30KT FM060700 21012G22KT P6SM -SHRA SCT015 OVC050 FM060900 22010G20KT 5SM -SHRA BR BKN012 OVC040 RMK NXT FCST BY 051500Z
CYPA,TAF CYPA 050640Z 0507/0519 08006KT P6SM SCT120 BKN200 TEMPO 0507/0510 2SM BR PROB30 0507/0510 1/2SM FZFG FM051000 08012G22KT 6SM -SN OVC040 TEMPO 0510/0514 2SM -SN OVC020 FM051400 06012G22KT 1SM -SN OVC006 RMK NXT FCST BY 051300Z
CYPE,TAF CYPE 050640Z 0507/0519 01018G28KT P6SM BKN010 OVC130 TEMPO 0507/0512 5SM -SN OVC010 FM051200 36020G30KT P6SM BKN015 BKN160 TEMPO 0512/0519 P6SM -SN RMK NXT FCST BY 051300Z
CYPH,TAF CYPH 051141Z 0512/0524 07005KT P6SM BKN040 TEMPO 0512/0515 SCT040 FM051500 10012KT P6SM SCT040 RMK FCST BASED ON AUTO OBS. NXT FCST BY 051800Z
CYPL,TAF CYPL 050740Z 0508/0520 17007KT P6SM SKC BECMG 0514/0516 13015KT RMK FCST BASED ON AUTO OBS. NXT FCST BY 051400Z
CYPQ,TAF CYPQ 050940Z 0510/0522 VRB03KT P6SM SCT200 TEMPO 0510/0513 5SM BR FM051400 18015G25KT P6SM SCT050 BKN200 RMK FCST BASED ON AUTO OBS. NXT FCST BY 051400Z
CYPR,TAF AMD CYPR 050943Z 0509/0519 28015G30KT P6SM SCT015 BKN030 TEMPO 0509/0512 2SM SHRA BR BKN015 BECMG 0510/0512 14008KT FM051200 14008KT P6SM SCT008 OVC015 TEMPO 0512/0519 2SM -SHRA BR OVC004 BECMG 0516/0518 VRB03KT RMK FCST BASED ON AUTO OBS. NXT FCST BY 051300Z
CYPY,TAF CYPY 051141Z 0512/0524 30010KT P6SM -SN OVC012 TEMPO 0512/0518 P6SM NSW SCT015 BKN060 FM051800 30015KT P6SM -SN OVC025 TEMPO 0518/0524 5SM -SN OVC015 RMK FCST BASED ON AUTO OBS. NXT FCST BY 051800Z
CYQA,TAF CYQA 051144Z 0512/0524 16010G20KT P6SM SCT070 TEMPO 0512/0516 BKN070 FM051600 17015G25KT P6SM SCT050 BKN180 FM052300 18020G35KT P6SM -RA OVC060 RMK FCST BASED ON AUTO OBS. NXT FCST BY 051400Z
CYQB,TAF CYQB 051140Z 0512/0612 25007KT P6SM SCT240 BECMG 0514/0516 24010G20KT BECMG 0519/0521 21008KT FM052300 VRB03KT P6SM BKN040 BKN240 BECMG 0604/0606 21012KT FM061100 23012G22KT P6SM -SHRA BKN040 OVC100 RMK NXT FCST BY 051800Z
CYQD,TAF CYQD 050640Z 0507/0519 14006KT P6SM FEW080 SCT200 FM050800 12006KT P6SM FEW008 SCT080 BKN200 TEMPO 0508/0518 3SM BR BKN004 OVC080 BECMG 0512/0514 12010G20KT FM051800 10012G22KT P6SM -SN BKN050 OVC100 TEMPO 0518/0519 2SM -SN SCT008 OVC020 RMK FCST BASED ON AUTO OBS. NXT FCST BY 051300Z
CYQF,TAF CYQF 051141Z 0512/0524 36012KT 6SM -SN SCT008 OVC025 TEMPO 0512/0515 2SM -SHSN BKN008 OVC020 FM051500 34015G25KT 2SM -SN OVC008 TEMPO 0515/0524 6SM -SN SCT008 OVC025 PROB30 0515/0522 3/4SM -SHSN VV006 RMK NXT FCST BY 051800Z
CYQG,TAF CYQG 051141Z 0512/0612 19010G20KT P6SM BKN220 BECMG 0514/0516 18020G30KT FM051700 18020G35KT P6SM SCT050 BKN120 TEMPO 0517/0524 P6SM -SHRA BKN050 OVC120 BECMG 0523/0524 24020G35KT FM060000 24020G35KT 4SM -SHRA BR BKN020 OVC050 FM060200 24020G30KT P6SM SCT080 FM060500 24012G22KT P6SM SCT030 RMK FCST BASED ON AUTO OBS. NXT FCST BY 051800Z
CYQH,TAF CYQH 051140Z 0512/0524 08010KT P6SM -SN SCT030 BKN070 RMK NXT FCST BY 051800Z
CYQI,TAF CYQI 051140Z 0512/0524 23010KT P6SM FEW005 SCT250 PROB40 0512/0514 BKN005 FM051500 23015G25KT P6SM SCT015 TEMPO 0515/0521 BKN015 FM052100 23012KT P6SM SCT006 BKN010 RMK NXT FCST BY 051800Z
CYQK,TAF CYQK 050740Z 0508/0520 16008KT P6SM SKC BECMG 0512/0514 15012KT RMK NXT FCST BY 051400Z
CYQL,TAF CYQL 051141Z 0512/0524 26020G30KT P6SM SCT040 BKN080 TEMPO 0512/0515 P6SM -SHRA BKN040 OVC080 FM051500 29020G30KT P6SM FEW008 BKN040 BKN160 TEMPO 0515/0521 4SM -SHRASN BR BKN008 OVC040 PROB30 0515/0518 1SM -SHSN FM052100 30015G25KT 4SM -SN OVC025 TEMPO 0521/0524 1SM -SHSN VV010 PROB30 0521/0524 1/2SM SHSN VV006 RMK FCST BASED ON AUTO OBS. NXT FCST BY 051800Z
CYQM,TAF CYQM 051140Z 0512/0612 20007KT P6SM FEW080 BKN250 FM051500 23015G25KT P6SM BKN250 BECMG 0520/0522 22012KT FM060000 21012KT P6SM SCT015 FM060300 21012KT P6SM BKN015 RMK NXT FCST BY 051800Z
CYQQ,TAF CYQQ 051140Z 0512/0612 27005KT P6SM SCT070 BECMG 0515/0517 VRB03KT BECMG 0522/0524 10006KT FM060300 17010KT P6SM FEW050 BKN100 TEMPO 0603/0606 P6SM -SHRA BKN040 BKN080 BECMG 0604/0606 13015G25KT FM060600 13015G25KT P6SM -SHRA SCT012 OVC030 TEMPO 0606/0611 3SM SHRA BR SCT006 OVC012 BECMG 0607/0608 13022G32KT FM061100 15010G20KT P6SM BKN025 TEMPO 0611/0612 5SM -SHRA BR BKN012 RMK NXT FCST BY 051800Z
CYQR,TAF CYQR 051141Z 0512/0612 16015KT P6SM OVC080 TEMPO 0512/0514 P6SM -SHRA OVC060 FM051400 16015G30KT P6SM -RA SCT015 OVC040 TEMPO 0514/0517 3SM -RA BR SCT006 OVC015 FM051700 16015G25KT P6SM -RA OVC012 TEMPO 0517/0522 3SM -RA BR OVC006 BECMG 0520/0522 26020G30KT FM052200 27030G40KT 3/4SM -SN BLSN VV005 RMK NXT FCST BY 051800Z
CYQT,TAF CYQT 050740Z 0508/0520 VRB03KT P6SM BKN250 BECMG 0509/0511 05008KT FM051600 06012KT P6SM BKN150 RMK NXT FCST BY 051400Z
CYQU,TAF CYQU 050640Z 0507/0519 03020G30KT 3SM -SN OVC015 TEMPO 0507/0515 1SM -SN OVC010 FM051500 36015G25KT 6SM -SN OVC025 TEMPO 0515/0519 2 1/2SM -SN OVC015 RMK NXT FCST BY 051300Z
CYQV,TAF CYQV 051149Z 0512/0524 14012KT P6SM SCT120 BKN200 FM051400 14015G25KT P6SM -SNRA BKN040 OVC080 TEMPO 0514/0518 4SM -SN OVC030 FM051800 15020G30KT P6SM -RA OVC030 TEMPO 0518/0522 3SM -SNRA BR OVC012 FM052200 15015G25KT P6SM -RA OVC020 TEMPO 0522/0524 5SM -RA BR OVC008 RMK FCST BASED ON AUTO OBS. NXT FCST BY 051800Z
CYQW,TAF CYQW 051140Z 0512/0524 10015KT 6SM -SN SCT020 OVC040 TEMPO 0512/0514 2SM -SN BR OVC020 FM051400 08015G25KT 2SM -SN OVC006 TEMPO 0514/0520 4SM -SN OVC012 FM052000 36020G30KT 1SM -SN BLSN OVC005 TEMPO 0520/0524 3SM -SN OVC010 RMK FCST BASED ON AUTO OBS. NXT FCST BY 051800Z
CYQX,TAF CYQX 051140Z 0512/0612 21010G20KT P6SM SCT100 BECMG 0512/0514 24018G28KT FM052300 26015G25KT P6SM BKN030 OVC080 FM060300 31010KT 4SM -DZ BR OVC015 BECMG 0604/0606 04010KT RMK NXT FCST BY 051800Z
CYQY,TAF CYQY 051140Z 0512/0524 23012KT P6SM FEW100 BKN240 BECMG 0512/0514 24015G25KT BECMG 0521/0523 23010KT RMK NXT FCST BY 051800Z
CYQZ,TAF CYQZ 051140Z 0512/0524 VRB03KT P6SM SCT040 BKN060 TEMPO 0512/0523 4SM -SHSN SCT012 BKN030 BECMG 0515/0517 34008KT FM052300 34008KT P6SM SCT040 SCT080 TEMPO 0523/0524 BKN040 BKN080 RMK FCST BASED ON AUTO OBS. NXT FCST BY 051900Z
CYRB,TAF CYRB 051140Z 0512/0612 32020KT 6SM -SN SCT008 OVC040 TEMPO 0512/0516 2 1/2SM -SN BLSN OVC008 PROB30 0512/0516 1SM -SN BLSN FM051600 33015KT P6SM -SN SCT008 OVC050 TEMPO 0516/0604 4SM -SN BKN008 OVC050 FM060400 34012KT P6SM SCT012 BKN050 TEMPO 0604/0610 6SM -SN BKN012 OVC050 FM061000 36010KT P6SM SCT020 BKN040 TEMPO 0610/0612 P6SM -SN BKN020 OVC040 RMK NXT FCST BY 051800Z
CYRJ,TAF CYRJ 051140Z 0512/0524 22012G22KT P6SM SCT060 BKN120 TEMPO 0512/0515 P6SM -SHRA BKN060 BKN120 BECMG 0519/0521 20012KT FM052100 20012KT P6SM SCT040 BKN220 RMK NXT FCST BY 051400Z
CYRL,TAF CYRL 051040Z 0511/0523 15008KT P6SM SKC BECMG 0514/0516 13012KT RMK NXT FCST BY 051400Z
CYRQ,TAF CYRQ 050740Z 0508/0520 22008KT P6SM SCT240 BECMG 0515/0517 21012G22KT FM051900 19010G20KT P6SM SCT050 BKN240 RMK FCST BASED ON AUTO OBS. NXT FCST BY 051400Z
CYRT,TAF CYRT 051140Z 0512/0524 12018G28KT 2SM -SN BLSN OVC008 TEMPO 0512/0514 6SM -SN BLSN SCT008 BKN025 OVC040 PROB40 0512/0514 1SM -SN BLSN FM051400 11022G32KT 3/4SM -SN BLSN OVC008 TEMPO 0514/0522 3SM -SN BLSN OVC012 BECMG 0517/0519 15020G30KT FM052200 15018G28KT 2SM -SN BLSN BKN020 OVC040 TEMPO 0522/0524 6SM -SN SCT020 OVC040 BECMG 0522/0524 25008KT RMK NXT FCST BY 051800Z
CYSB,TAF AMD CYSB 051009Z 0510/0520 20010G20KT 3SM -RA BR BKN005 TEMPO 0510/0513 6SM BR SCT005 OVC025 FM051300 19012G22KT P6SM -RA OVC030 TEMPO 0513/0515 4SM -SHRA BR BKN008 OVC030 FM051500 18020G30KT P6SM BKN050 RMK NXT FCST BY 051400Z
CYSC,TAF CYSC 051040Z 0511/0523 21008KT P6SM SKC BECMG 0513/0515 22012G22KT SCT025 FM051800 21012G22KT P6SM SCT040 FM052100 18010KT P6SM BKN040 RMK FCST BASED ON AUTO OBS. NXT FCST BY 051800Z
CYSF,TAF CYSF 051141Z 0512/0524 25005KT P6SM -SN OVC025 FM051400 27006KT P6SM BKN025 BKN070 TEMPO 0514/0521 P6SM -SN OVC020 FM052100 29010KT P6SM -SN OVC025 TEMPO 0521/0524 5SM -SN OVC020 RMK FCST BASED ON AUTO OBS. NXT FCST BY 051800Z
CYSJ,TAF CYSJ 051141Z 0512/0524 21010KT 3SM BR OVC004 TEMPO 0512/0515 P6SM NSW SCT004 FM051500 22012G22KT P6SM FEW015 SCT250 TEMPO 0515/0517 BKN015 BKN250 FM052100 22015G25KT P6SM FEW005 BKN015 PROB30 0521/0524 BKN005 OVC015 RMK NXT FCST BY 051800Z
CYSM,TAF CYSM 051140Z 0512/0524 28012G22KT P6SM -SN BKN015 TEMPO 0512/0524 3SM -SN RMK NXT FCST BY 051800Z
CYTE,TAF CYTE 050640Z 0507/0519 29010KT P6SM OVC030 TEMPO 0507/0519 6SM -SN OVC020 BECMG 0515/0517 27015KT RMK FCST BASED ON AUTO OBS. NXT FCST BY 051300Z
CYTH,TAF CYTH 050640Z 0507/0519 VRB03KT 4SM -SN OVC005 TEMPO 0507/0516 P6SM NSW OVC010 FM051600 10008KT P6SM OVC012 TEMPO 0516/0519 5SM -SN OVC006 RMK NXT FCST BY 051300Z
CYTL,TAF CYTL 050740Z 0508/0520 20008KT P6SM SCT015 TEMPO 0508/0510 5SM BR BKN009 FM051000 18008KT P6SM BKN080 BECMG 0511/0513 16012G22KT FM051700 15012G22KT P6SM SKC RMK FCST BASED ON AUTO OBS. WIND SENSOR INOP. NXT FCST BY 051400Z
CYTR,TAF CYTR 051140Z 0512/0612 18008KT P6SM BKN270 BECMG 0514/0516 20012KT FM052200 17012G22KT P6SM BKN060 BKN240 FM060500 20015G25KT 5SM -RA BR BKN015 OVC025 BECMG 0607/0609 22012KT RMK NXT FCST BY 051800Z
CYTS,TAF CYTS 050740Z 0508/0520 05006KT 3SM -RA BR OVC005 TEMPO 0508/0515 6SM -RA BR SCT005 OVC030 FM051500 07010KT 2SM SHRA BR OVC005 TEMPO 0515/0520 6SM -RA BR OVC010 BECMG 0516/0518 08010G20KT RMK NXT FCST BY 051400Z
CYTZ,TAF CYTZ 050740Z 0508/0608 VRB03KT P6SM FEW050 BKN220 FM051500 17010G20KT P6SM SCT050 BKN200 BECMG 0519/0521 17015G25KT FM060000 18015G25KT P6SM BKN050 FM060200 23020G30KT 4SM -SHRA BR OVC020 FM060500 22010G20KT P6SM BKN040 RMK FCST BASED ON AUTO OBS. NXT FCST BY 051400Z
CYUL,TAF CYUL 051140Z 0512/0612 18010KT P6SM SCT240 BECMG 0513/0515 21010G20KT FM051900 21010G20KT P6SM BKN050 BKN240 BECMG 0522/0524 18012KT FM060400 19015G25KT P6SM BKN050 BKN240 FM061000 22012G22KT P6SM -SHRA SCT030 OVC050 RMK NXT FCST BY 051500Z
CYUX,TAF AMD CYUX 051122Z 0511/0519 29020G30KT 2SM -SN BLSN OVC040 TEMPO 0511/0515 P6SM NSW FM051500 28015G25KT P6SM SCT020 TEMPO 0515/0519 4SM -SN BLSN BKN020 RMK FCST BASED ON AUTO OBS. NXT FCST BY 051300Z
CYUY,TAF CYUY 051140Z 0512/0524 05008KT 2SM SHRA BR OVC006 TEMPO 0512/0516 6SM -RA BR SCT006 OVC020 FM051600 08007KT 4SM -SHRA BR BKN006 OVC050 TEMPO 0516/0519 6SM BR SCT006 BKN050 OVC120 FM051900 17010KT P6SM FEW006 BKN040 OVC120 FM052200 17010G20KT 6SM -SHRA BR BKN020 OVC040 RMK NXT FCST BY 051800Z
CYVC,TAF AMD CYVC 051119Z 0511/0519 08010KT P6SM OVC008 TEMPO 0511/0517 4SM -SN OVC004 FM051700 02015G25KT 6SM -SN OVC010 TEMPO 0517/0519 2SM -SN OVC005 RMK NXT FCST BY 051300Z
CYVM,TAF AMD CYVM 050849Z 0508/0519 22015KT P6SM FEW050 BECMG 0509/0511 VRB03KT BECMG 0513/0515 19008KT RMK FCST BASED ON AUTO OBS. NXT FCST BY 051300Z
CYVO,TAF CYVO 051140Z 0512/0524 03008KT 2SM SHRA BR OVC006 TEMPO 0512/0515 6SM -RA BR SCT006 OVC012 FM051500 05006KT 4SM -SHRA BR BKN007 OVC040 TEMPO 0515/0518 6SM BR SCT007 BKN040 OVC120 FM051800 17012KT P6SM FEW006 BKN040 OVC120 FM052100 17012G22KT P6SM OVC040 RMK NXT FCST BY 051800Z
CYVP,TAF CYVP 051141Z 0512/0524 34010G20KT 3SM -SHSN BKN012 OVC030 TEMPO 0512/0514 P6SM NSW SCT015 OVC040 PROB30 0512/0514 2 1/2SM -SHSN BKN008 OVC015 FM051400 34008KT P6SM SCT020 BKN040 TEMPO 0514/0524 3SM -SHSN OVC020 BECMG 0522/0524 VRB03KT RMK NXT FCST BY 051800Z
CYVQ,TAF CYVQ 051140Z 0512/0524 29010KT P6SM -SN SCT020 BKN070 TEMPO 0512/0518 2SM -SHSN BKN020 FM051800 29015G25KT P6SM -SN SCT020 BKN070 TEMPO 0518/0524 3SM -SHSN BKN020 RMK NXT FCST BY 051800Z
CYVR,TAF CYVR 051140Z 0512/0618 29015KT P6SM SCT060 TEMPO 0520/0602 P6SM -SHRA BKN050 BECMG 0523/0601 20008KT FM060200 20008KT P6SM BKN060 BECMG 0603/0605 13010G20KT FM060500 13010G20KT P6SM -RA SCT008 SCT015 BKN060 TEMPO 0605/0607 3SM -RA BR SCT008 BKN015 FM060700 13010G20KT P6SM -RA SCT005 BKN020 TEMPO 0607/0617 2SM -RA BR BKN005 BECMG 0607/0609 10015G30KT FM061700 10012KT P6SM SCT005 BKN015 TEMPO 0617/0618 3SM -RA BR BKN005 RMK NXT FCST BY 051500Z
CYVV,TAF CYVV 051040Z 0511/0523 18015G25KT P6SM BKN220 BECMG 0515/0517 18020G35KT FM052000 18025G40KT P6SM -RA OVC050 RMK NXT FCST BY 051400Z
CYWA,TAF CYWA 041740Z 0418/0518 19010G20KT P6SM SCT180 BKN240 BECMG 0500/0502 18010KT FM050500 18010KT P6SM BKN090 OVC250 FM051500 18012G22KT P6SM SCT040 BKN200 RMK NXT FCST BY 050000Z
CYWG,TAF CYWG 051140Z 0512/0612 18015G25KT P6SM SKC FM051500 17020G30KT P6SM FEW120 BKN200 FM052100 16020G30KT P6SM BKN120 OVC200 FM060000 17015G25KT P6SM BKN060 OVC120 FM060300 17015G25KT P6SM -SHRA SCT012 BKN030 OVC060 FM060600 18012G22KT 2SM -SHSN SCT006 BKN012 OVC030 FM061000 22012KT P6SM BKN040 RMK NXT FCST BY 051800Z
CYWK,TAF AMD CYWK 051138Z 0511/0520 29015G25KT P6SM SCT008 OVC100 FM051800 30015KT P6SM BKN030 BECMG 0518/0520 36005KT RMK FCST BASED ON AUTO OBS. NXT FCST BY 051400Z
CYWL,TAF CYWL 050640Z 0507/0519 27012G22KT P6SM SCT040 SCT140 FM050900 27012G22KT P6SM SCT060 BECMG 0513/0515 SCT005 BKN120 RMK NXT FCST BY 051300Z
CYXC,TAF AMD CYXC 051019Z 0510/0519 20006KT P6SM SCT020 BKN030 TEMPO 0510/0513 4SM -SHRASN BR SCT004 BKN015 FM051300 21012KT P6SM SCT080 BECMG 0515/0517 20010G20KT RMK NXT FCST BY 051300Z
CYXE,TAF CYXE 051140Z 0512/0612 10012KT 6SM -SN SCT008 OVC025 TEMPO 0512/0514 2SM -SN BKN008 OVC020 PROB40 0512/0514 1SM FZRA -SN BR BKN003 FM051400 05012G22KT 2SM -SNRA OVC006 TEMPO 0514/0519 6SM -RA BR BKN012 OVC030 FM051900 36022G32KT 3/4SM -SN BLSN VV004 FM061100 32015G25KT P6SM -SN BKN030 RMK NXT FCST BY 051800Z
CYXH,TAF CYXH 051141Z 0512/0524 20015G25KT P6SM BKN080 TEMPO 0512/0514 P6SM -SHRA BKN040 OVC080 FM051400 24020G30KT P6SM FEW020 OVC060 TEMPO 0514/0516 2SM -SHRASN BR BKN020 OVC060 FM051600 30022G32KT 4SM -SN SCT010 OVC030 TEMPO 0516/0524 1SM -SHSN VV010 PROB30 0516/0520 1/2SM SHSN BLSN VV005 RMK FCST BASED ON AUTO OBS. NXT FCST BY 051800Z
CYXJ,TAF CYXJ 050640Z 0507/0519 36022G32KT P6SM -SN BKN030 OVC080 TEMPO 0507/0512 2SM -SHSN BKN015 OVC030 FM051200 35015G25KT P6SM BKN030 BKN100 TEMPO 0512/0515 P6SM -SN OVC020 FM051500 35015KT P6SM BKN030 BKN120 RMK NXT FCST BY 051300Z
CYXL,TAF CYXL 050740Z 0508/0520 14005KT P6SM SKC BECMG 0514/0516 13010KT RMK NXT FCST BY 051400Z
CYXR,TAF CYXR 051140Z 0512/0524 01008KT 2SM -RA BR OVC005 TEMPO 0512/0518 6SM -RA BR SCT005 OVC010 FM051800 15010KT P6SM FEW005 BKN050 OVC120 FM052100 17015G25KT P6SM -SHRA OVC030 FM052300 16010G20KT 3SM SHRA BR OVC008 RMK FCST BASED ON AUTO OBS. NXT FCST BY 051800Z
CYXS,TAF AMD CYXS 051024Z 0510/0519 29010KT P6SM SCT006 BKN025 TEMPO 0510/0519 1SM -SHSN BKN005 OVC015 BECMG 0513/0515 35012KT RMK FCST BASED ON AUTO OBS. NXT FCST BY 051300Z
CYXT,TAF CYXT 050640Z 0507/0519 19008KT P6SM SCT020 BKN040 TEMPO 0507/0510 5SM -SHRASN BR SCT006 BKN015 FM051000 18008KT P6SM SCT005 OVC020 TEMPO 0510/0517 1SM -SHRASN BR BKN005 FM051700 01008KT P6SM SCT015 SCT040 SCT120 TEMPO 0517/0519 SCT003 BKN015 RMK NXT FCST BY 051300Z
CYXU,TAF CYXU 051141Z 0512/0612 17010G20KT P6SM BKN240 BECMG 0513/0515 18020G32KT FM051800 18025G38KT P6SM SCT050 BKN200 FM052000 18025G42KT P6SM BKN050 FM052300 18020G35KT P6SM -SHRA OVC050 BECMG 0601/0602 24020G30KT FM060200 24020G30KT 4SM -SHRA BR BKN015 OVC050 FM060500 24020G30KT P6SM BKN050 FM061000 24012G22KT P6SM SCT100 RMK NXT FCST BY 051800Z
CYXX,TAF CYXX 051140Z 0512/0612 21012KT P6SM SCT015 SCT030 TEMPO 0512/0515 4SM -SHRA BR BKN015 BKN030 FM051500 20008KT P6SM SCT020 SCT060 TEMPO 0515/0524 5SM -SHRA BR SCT015 BKN040 BECMG 0519/0521 21012G22KT FM060000 18010KT P6SM BKN050 TEMPO 0600/0605 5SM -SHRA BR BKN040 BECMG 0603/0605 11006KT FM060500 11006KT P6SM SCT020 BKN120 TEMPO 0605/0610 5SM -SHRA BR BKN020 BKN120 FM061000 06010KT P6SM -RA SCT015 BKN030 TEMPO 0610/0612 2SM -RA OVC015 RMK NXT FCST BY 051800Z
CYXY,TAF CYXY 051140Z 0512/0524 34010G20KT P6SM -SN SCT020 OVC030 TEMPO 0512/0524 3SM -SHSN BKN020 OVC040 RMK NXT FCST BY 051800Z
CYYB,TAF CYYB 050740Z 0508/0520 19010G20KT P6SM OVC025 TEMPO 0508/0514 5SM -RA BR OVC015 FM051400 18015G25KT P6SM SCT050 BKN150 RMK FCST BASED ON AUTO OBS. NXT FCST BY 051400Z
CYYC,TAF CYYC 051141Z 0512/0612 35012G22KT 4SM -SN BR OVC010 TEMPO 0512/0514 3/4SM -SHSN OVC006 FM051400 35015G25KT P6SM BKN010 OVC060 TEMPO 0514/0519 2SM -SHSN OVC008 FM051900 35022G32KT 6SM -SN BKN025 OVC080 TEMPO 0519/0601 1 1/2SM -SHSN BKN010 OVC020 FM060100 36012KT 3SM -SN OVC020 TEMPO 0601/0606 1SM -SN VV008 FM060600 02008KT P6SM FEW008 OVC020 TEMPO 0606/0612 P6SM -SN RMK NXT FCST BY 051500Z
CYYE,TAF CYYE 050640Z 0507/0519 30005KT P6SM -SN SCT020 BKN060 TEMPO 0507/0515 3SM -SHSN BKN020 OVC060 FM051500 32008G18KT P6SM -SN BKN015 TEMPO 0515/0519 3SM -SHSN RMK NXT FCST BY 051300Z
CYYF,TAF AMD CYYF 051110Z 0511/0519 36010G20KT P6SM SCT015 SCT070 TEMPO 0511/0513 3SM -SHRASN BR BKN012 FM051300 29015G25KT P6SM SCT080 BECMG 0514/0516 16008KT RMK NXT FCST BY 051300Z
CYYG,TAF CYYG 051140Z 0512/0524 23012KT P6SM SCT009 BKN250 TEMPO 0512/0514 BKN009 BKN250 FM051400 23015G25KT P6SM FEW015 SCT210 FM051800 23015G30KT P6SM FEW240 BECMG 0522/0524 24015KT SCT015 RMK NXT FCST BY 051800Z
CYYH,TAF CYYH 051140Z 0512/0524 24010KT P6SM SCT015 TEMPO 0512/0524 P6SM -SN BKN015 RMK NXT FCST BY 051800Z
CYYJ,TAF CYYJ 051140Z 0512/0612 27010KT P6SM SCT040 BECMG 0516/0518 27015G30KT BECMG 0600/0602 22012KT FM060500 14012G22KT P6SM -RA SCT012 BKN030 TEMPO 0605/0612 3SM -RA BR SCT008 BKN012 RMK NXT FCST BY 051800Z
CYYL,TAF CYYL 050640Z 0507/0519 VRB03KT P6SM OVC008 TEMPO 0507/0519 4SM -SN BR OVC004 BECMG 0516/0518 06010KT RMK FCST BASED ON AUTO OBS. NXT FCST BY 051300Z
CYYN,TAF CYYN 051140Z 0512/0524 20012G22KT P6SM -RA OVC040 TEMPO 0512/0514 4SM -RA BR OVC020 FM051400 22020G30KT P6SM BKN040 OVC120 TEMPO 0514/0518 P6SM -SHRA SCT012 OVC030 FM051800 26025G35KT P6SM -RA OVC030 TEMPO 0518/0520 2SM -SNRA SCT006 OVC012 FM052000 30030G40KT 3/4SM -SN OVC006 BECMG 0522/0524 30025G35KT RMK FCST BASED ON AUTO OBS. NXT FCST BY 051800Z
CYYQ,TAF CYYQ 051140Z 0512/0612 18010KT P6SM OVC025 TEMPO 0512/0518 4SM -SN OVC008 FM051800 VRB03KT 4SM -SN OVC008 TEMPO 0518/0609 P6SM NSW OVC012 FM060900 04012KT 2SM -SN OVC005 TEMPO 0609/0612 6SM -SN OVC010 RMK NXT FCST BY 051800Z
CYYR,TAF CYYR 051140Z 0512/0612 25015G25KT P6SM FEW020 BKN040 OVC070 TEMPO 0512/0516 6SM -SHRA BR BKN020 OVC040 BECMG 0514/0516 29015G25KT FM051600 29015G25KT P6SM SCT030 BKN180 BECMG 0520/0522 32008KT BECMG 0601/0603 VRB03KT FM060600 VRB03KT P6SM SCT015 BKN120 FM061100 09005KT 5SM -SN SCT020 BKN070 RMK NXT FCST BY 051800Z
CYYT,TAF CYYT 051140Z 0512/0612 27017G27KT P6SM FEW240 BECMG 0514/0516 26020G32KT FM060300 28015KT P6SM SCT008 FM060800 03012KT 6SM BR OVC006 RMK NXT FCST BY 051800Z
CYYU,TAF CYYU 050740Z 0508/0520 VRB03KT P6SM OVC012 TEMPO 0508/0512 BKN008 OVC012 FM051200 05008KT P6SM OVC007 TEMPO 0512/0515 BKN012 OVC100 FM051500 06010KT P6SM -SNRA BKN012 OVC050 TEMPO 0515/0518 4SM -SHSN OVC007 PROB30 0515/0518 4SM -SHSNPL FM051800 05012KT 2SM SHRA BR OVC005 TEMPO 0518/0520 6SM -RA BR OVC010 RMK NXT FCST BY 051400Z
CYYY,TAF CYYY 050740Z 0508/0520 21015G25KT P6SM BKN220 FM051200 22015G25KT P6SM SCT040 BECMG 0512/0514 BKN040 OVC080 FM051800 24012G22KT P6SM BKN040 RMK NXT FCST BY 051400Z
CYYZ,TAF CYYZ 051143Z 0512/0618 16005KT P6SM SCT180 BKN240 BECMG 0513/0515 19010G20KT FM051600 18015G25KT P6SM SCT050 BKN200 BECMG 0516/0518 18015G30KT BECMG 0518/0520 18020G35KT FM052300 18015G30KT P6SM BKN050 OVC100 TEMPO 0523/0602 P6SM -SHRA FM060200 20020G35KT 4SM -SHRA BR BKN015 OVC050 BECMG 0603/0604 23018G30KT FM060400 23018G30KT P6SM BKN050 FM061100 23010G20KT P6SM FEW040 SCT200 RMK NXT FCST BY 051500Z
CYZE,TAF CYZE 050940Z 0510/0522 19007KT 6SM BR OVC040 TEMPO 0510/0514 4SM -RA BR OVC020 FM051400 17015G25KT P6SM BKN070 BECMG 0516/0518 17020G35KT RMK FCST BASED ON AUTO OBS. NXT FCST BY 051400Z
CYZF,TAF CYZF 051140Z 0512/0612 33010KT P6SM -SN BKN020 OVC070 TEMPO 0512/0516 SCT020 BKN070 RMK NXT FCST BY 051800Z
CYZH,TAF CYZH 050640Z 0507/0519 VRB03KT 2SM -SN OVC015 TEMPO 0507/0510 6SM -SN OVC030 PROB30 0507/0510 1SM -SN OVC008 FM051000 01012G22KT 2SM -SN OVC015 TEMPO 0510/0514 6SM -SN OVC030 FM051400 35015G25KT P6SM SCT015 BKN030 BKN140 TEMPO 0514/0519 P6SM -SN BKN015 OVC030 RMK FCST BASED ON AUTO OBS. NXT FCST BY 051300Z
CYZP,TAF CYZP 050650Z 0507/0519 27015G25KT P6SM SCT020 BKN040 TEMPO 0507/0517 5SM -SHRA BR BKN020 BECMG 0510/0512 27025G35KT FM051700 26015G25KT P6SM SCT030 TEMPO 0517/0519 P6SM -SHRA BKN030 RMK FCST BASED ON AUTO OBS. NXT FCST BY 051300Z
CYZR,TAF CYZR 050740Z 0508/0520 19015G25KT P6SM BKN220 BECMG 0514/0516 18025G40KT FM051800 18030G40KT P6SM BKN050 RMK FCST BASED ON AUTO OBS. NXT FCST BY 051400Z
CYZS,TAF CYZS 050640Z 0507/0519 32008KT P6SM -SN BKN020 TEMPO 0507/0515 P6SM NSW SCT020 FM051500 35008KT P6SM FEW020 RMK NXT FCST BY 051300Z
CYZT,TAF CYZT 050700Z 0507/0519 23010KT P6SM SCT030 BKN060 TEMPO 0507/0519 5SM -SHRA BR BKN020 BECMG 0513/0515 24010G20KT RMK NXT FCST BY 051300Z
CYZV,TAF CYZV 051140Z 0512/0612 VRB03KT P6SM SCT030 BKN120 TEMPO 0512/0516 BKN030 OVC120 BECMG 0512/0514 24008KT FM051600 22008KT P6SM BKN030 OVC070 TEMPO 0516/0522 P6SM -SHRA BKN020 OVC030 BECMG 0516/0518 34008KT FM052200 03007KT P6SM -SHRA BKN015 OVC030 BECMG 0601/0603 06008KT FM060900 08015G30KT 6SM -SHRA BR SCT004 BKN012 OVC025 RMK NXT FCST BY 051800Z
CYZX,TAF CYZX 051140Z 0512/0612 27005KT P6SM SCT015 SCT250 TEMPO 0512/0514 P6SM VCFG BKN015 BECMG 0512/0514 24010G20KT FM051400 24015G25KT P6SM SCT025 SCT250 TEMPO 0514/0516 BKN025 FM051600 25020G32KT P6SM BKN030 BKN240 BECMG 0520/0522 24015G25KT FM060000 23010G20KT P6SM BKN020 RMK NXT FCST BY 051800Z
CZBF,TAF CZBF 050840Z 0509/0521 17007KT P6SM FEW230 BECMG 0511/0513 24012KT RMK FCST BASED ON AUTO OBS. NXT FCST BY 051400Z
CZMD,TAF CZMD 050940Z 0510/0522 17006KT P6SM BKN080 FM051300 16010KT P6SM FEW180 BECMG 0513/0515 16010G20KT RMK FCST BASED ON AUTO OBS. NXT FCST BY 051600Z
CZSJ,TAF CZSJ 050940Z 0510/0522 17007KT P6SM FEW180 BECMG 0513/0515 16010G20KT RMK FCST BASED ON AUTO OBS. NXT FCST BY 051600Z
CZUM,TAF AMD CZUM 051011Z 0510/0520 31010G20KT 6SM BR SCT020 BKN040 TEMPO 0510/0513 3SM -RA BR OVC020 FM051300 30010G20KT P6SM SCT020 BKN040 TEMPO 0513/0518 BKN020 OVC040 RMK FCST BASED ON AUTO OBS. NXT FCST BY 051400Z
CZVL,TAF CZVL 051141Z 0512/0524 03010KT P6SM -SN SCT008 OVC030 TEMPO 0512/0514 2SM -SN BKN008 OVC020 FM051400 01010G20KT 4SM -SN BKN010 OVC030 TEMPO 0514/0521 1SM -SN OVC006 BECMG 0516/0518 36020G30KT FM052100 34015G25KT P6SM -SN SCT012 BKN025 OVC080 TEMPO 0521/0524 3SM -SN OVC015 RMK FCST BASED ON AUTO OBS. NXT FCST BY 051800Z
DAAD,TAF DAAD 050800Z 0509/0518 28012KT 9999 FEW026 PROB40 TEMPO 0509/0512 28015G25KT
DAAE,TAF DAAE 051100Z 0512/0612 33016KT 7000 FEW016 BKN040 TEMPO 0512/0524 29020G30KT FEW023TCU PROB40 TEMPO 0512/0518 5000 RA FEW020CB BECMG 0521/0524 03008KT PROB30 TEMPO 0600/0608 FEW026TCU
DAAG,TAF DAAG 051100Z 0512/0612 33010KT 9999 FEW020 BECMG 0518/0521 VRB02KT
DAAJ,TAF DAAJ 051100Z 0512/0612 VRB02KT CAVOK
DAAP,TAF DAAP 051100Z 0512/0521 32006KT CAVOK
DAAS,TAF DAAS 051100Z 0512/0612 33014KT 8000 SCT026 BKN090 TEMPO 0512/0522 31020G30KT FEW023TCU PROB40 TEMPO 0512/0518 5000 RA BECMG 0521/0524 24008KT PROB40 TEMPO 0600/0609 30012KT FEW023TCU
DAAT,TAF DAAT 051100Z 0512/0612 VRB02KT CAVOK
DAAV,TAF DAAV 051100Z 0512/0612 31017KT 8000 FEW016 BKN030 TEMPO 0512/0524 29020G35KT FEW023CB PROB40 TEMPO 0512/0519 5000 RA BECMG 0521/0524 25008KT PROB30 TEMPO 0600/0608 FEW026TCU
DAAY,TAF DAAY 050800Z 0509/0518 30012KT 9999 FEW023
DABB,TAF DABB 051100Z 0512/0612 30018KT 9999 FEW026 BKN030 TEMPO 0512/0524 29025G45KT 5000 RA FEW023TCU PROB40 TEMPO 0512/0518 5000 -TSRA FEW020CB PROB40 TEMPO 0600/0610 27020G30KT FEW023TCU
DABC,TAF DABC 051100Z 0512/0612 30014KT 9999 SCT030 BKN040 TEMPO 0512/0524 31020G35KT FEW023TCU PROB40 TEMPO 0512/0518 5000 RA BECMG 0521/0524 23008KT PROB40 TEMPO 0600/0609 30012KT FEW023TCU
DABS,TAF DABS 051100Z 0512/0612 32019KT 9999 FEW040 BKN030 TEMPO 0512/0524 31020G30KT FEW026TCU PROB40 TEMPO 0512/0518 5000 RA FEW026CB PROB40 TEMPO 0600/0609 5000 RA FEW023TCU BECMG 0602/0605 26009KT
DABT,TAF DABT 051100Z 0512/0612 33018KT 9999 FEW020 SCT040 TEMPO 0512/0522 31020G30KT FEW023TCU PROB30 TEMPO 0512/0518 5000 RA BECMG 0521/0524 27008KT PROB30 TEMPO 0600/0607 FEW023TCU
DAFH,TAF DAFH 050800Z 0509/0518 30012KT CAVOK
DAOB,TAF DAOB 051100Z 0512/0612 30008KT 9999 FEW023
DAOF,TAF DAOF 051100Z 0512/0521 14005KT CAVOK
DAOI,TAF DAOI 051100Z 0512/0612 VRB02KT 8000 FEW026 BECMG 0513/0516 34005KT 9999 FEW026 BECMG 0516/0519 VRB02KT BECMG 0520/0523 06005KT BECMG 0606/0609 VRB02KT BECMG 0610/0612 31005KT CAVOK
DAON,TAF DAON 051100Z 0512/0612 VRB02KT 9999 FEW026 BECMG 0513/0516 36008KT CAVOK BECMG 0518/0521 VRB02KT
DAOO,TAF DAOO 051100Z 0512/0612 19008KT 9999 SCT020TCU FEW023CB BECMG 0516/0519 VRB02KT 9999 FEW020 BECMG 0609/0612 15008KT CAVOK
DAOR,TAF DAOR 051100Z 0512/0521 VRB02KT CAVOK
DAOV,TAF DAOV 050800Z 0509/0518 VRB02KT 9999 FEW026 SCT030 BECMG 0513/0515 34008KT BECMG 0516/0518 VRB02KT
DATM,TAF DATM 050800Z 0509/0518 02008KT CAVOK
DAUA,TAF DAUA 051100Z 0512/0612 04010KT CAVOK
DAUB,TAF DAUB 051100Z 0512/0612 32016KT 9999 FEW040 SCT100 PROB40 TEMPO 0512/0524 33020G30KT FEW040TCU BECMG 0523/0601 02008KT
DAUG,TAF DAUG 051100Z 0512/0612 34010KT CAVOK BECMG 0518/0521 VRB02KT
DAUH,TAF DAUH 051100Z 0512/0612 36015KT 5000 DRSA NSC PROB30 TEMPO 0512/0515 36015G25KT 2000 DRSA BECMG 0515/0517 6000 NSW BECMG 0518/0521 VRB02KT
DAUI,TAF DAUI 051100Z 0512/0612 06008KT CAVOK
DAUK,TAF DAUK 051100Z 0512/0521 30018KT 3000 DRSA NSC PROB30 TEMPO 0512/0515 34018G38KT 1000 BLSA
DAUL,TAF DAUL 051100Z 0512/0521 32016KT CAVOK PROB40 TEMPO 0512/0515 30016G26KT
DAUO,TAF DAUO 051100Z 0512/0521 30022KT 1500 DRSA FEW046 PROB30 TEMPO 0512/0514 32022G32KT 0800 BLSA BECMG 0514/0517 6000 NSW
DAUT,TAF DAUT 051100Z 0512/0521 08014KT CAVOK
DAUU,TAF DAUU 051100Z 0512/0521 01010KT CAVOK PROB30 0512/0515 01015G25KT 4000 DRSA
DAUZ,TAF DAUZ 051100Z 0512/0612 VRB02KT CAVOK BECMG 0513/0515 30010KT BECMG 0519/0521 VRB02KT
DBBB,TAF DBBB 051100Z 0512/0618 22010KT 9999 SCT016 TEMPO 0513/0519 TS BKN013 FEW023CB
DFFD,TAF DFFD 051100Z 0512/0618 09010KT 6000 NSC TEMPO 0516/0520 3500 DU TEMPO 0606/0611 2500 DU
DFOO,TAF DFOO 051100Z 0512/0612 12010KT 6000 NSC TEMPO 0517/0520 4000 DU TEMPO 0606/0611 3500 DU
DGAA,TAF DGAA 051100Z 0512/0618 20010KT 9999 SCT016 TEMPO 0514/0518 FEW028CB BECMG 0600/0602 27006KT CAVOK
DGLE,TAF DGLE 051100Z 0512/0612 09005KT 9999 FEW012
DGSI,TAF DGSI 051100Z 0512/0612 16006KT 9999 SCT016 TEMPO 0517/0523 6000 -TSRA BKN010 FEW028CB BECMG 0604/0606 BKN010
DIAP,TAF DIAP 050521Z 0506/0612 VRB03KT 8000 FEW012 SCT030 BECMG 0509/0510 21010KT PROB40 TEMPO 0513/0519 TS BKN012 FEW020CB BKN040 PROB30 TEMPO 0514/0518 4000 TSRA BKN010 FEW020CB OVC030
DIBK,TAF DIBK 050523Z 0506/0606 21006KT 8000 FEW011 PROB30 0504/0508 4000 BR BKN010 PROB40 0508/0513 BKN012 PROB40 TEMPO 0517/0520 TS BKN012 FEW020CB
DIYO,TAF DIYO 050525Z 0506/0606 20005KT 0500 FG SCT010 BECMG 0506/0507 4000 BR OVC010 BECMG 0507/0508 6000 NSW BKN012 BECMG 0513/0514 SCT012 PROB40 TEMPO 0517/0520 TS BKN012 FEW020CB
DNAA,TAF DNAA 042230Z 0500/0606 13007KT CAVOK TEMPO 0502/0507 06005KT BECMG 0510/0513 25010KT SCT014 BECMG 0517/0520 CAVOK BECMG 0520/0522 07004KT
DNAK,TAF DNAK 041700Z 0418/0524 VRB02KT 8000 SCT010 TEMPO 0419/0422 TS SCT010 FEW020CB TEMPO 0505/0508 4000 BR HZ BECMG 0508/0510 26010KT BKN013 TEMPO 0512/0516 TS SCT013 FEW020CB BECMG 0518/0520 VRB02KT SCT011
DNBE,TAF DNBE 041700Z 0418/0524 VRB02KT 8000 SCT010 TEMPO 0419/0422 TS SCT010 FEW020CB TEMPO 0505/0508 3000 BR BECMG 0508/0510 21010KT BKN012 FEW020CB TEMPO 0511/0516 TS BECMG 0518/0520 VRB02KT SCT010
DNGO,TAF DNGO 051100Z 0512/0618 04010KT CAVOK
DNIB,TAF DNIB 041700Z 0418/0524 VRB02KT 8000 SCT011 TEMPO 0418/0422 TS SCT011 FEW020CB TEMPO 0505/0508 5000 BR HZ BECMG 0508/0510 24010KT BKN013 TEMPO 0512/0516 TS SCT013 FEW020CB BECMG 0518/0520 VRB02KT SCT011
DNIL,TAF DNIL 051100Z 0512/0618 30004KT 9999 FEW012 BECMG 0513/0515 23010KT PROB30 0517/0520 TS FEW021 BECMG 0520/0523 VRB02KT CAVOK
DNJO,TAF DNJO 051100Z 0512/0618 10005KT CAVOK BEMG 0515/0521 05015KT
DNKA,TAF DNKA 042300Z 0500/0606 03007KT CAVOK PROB30 0505/0510 5000 HZ TEMPO 0510/0515 11014KT
DNKN,TAF DNKN 051100Z 0512/0618 06008KT 8000 NSC BECMG 0513/0515 CAVOK
DNKT,TAF DNKT 051100Z 0512/0618 07008KT 5000 HZ NSC BECMG 0513/0525 7000 NSW
DNMA,TAF DNMA 051100Z 0512/0618 08008KT CAVOK
DNMM,TAF DNMM 051100Z 0512/0618 19010KT 8000 BKN013 TEMPO 0512/0518 TS BKN013 FEW020CB BECMG 0518/0520 SCT011 BECMG 0522/0524 VRB02KT TEMPO 0605/0608 5000 HZ PROB30 0606/0607 3000 BR BECMG 0608/0610 22010KT BKN013 TEMPO 0613/0618 SCT013 FEW020CB
DNSO,TAF DNSO 051100Z 0512/0618 06010KT 6000 NSC BECMG 0512/0514 CAVOK
DNSU,TAF DNSU 042300Z 0500/0606 VRB02KT 8000 SCT009 TEMPO 0505/0508 3000 BR BECMG 0508/0510 20010KT BKN012 FEW020CB TEMPO 0511/0516 TS BECMG 0518/0520 VRB02KT SCT010
DNYO,TAF DNYO 051100Z 0512/0618 09005KT CAVOK
DRRN,TAF DRRN 051100Z 0512/0618 08010KT 6000 NSC TEMPO 0517/0520 4000 DU
DRZA,TAF DRZA 051100Z 0512/0612 06008KT 8000 NSC
DRZR,TAF DRZR 051100Z 0512/0612 04008KT 8000 NSC
DTKA,TAF DTKA 050900Z 0510/0519 31029G46KT 6000 RA SQ SCT020 FEW023CB TEMPO 0511/0519 32030G53KT 4000 SQ TSRA FEW026CB
DTMB,TAF DTMB 051100Z 0512/0612 32006KT 7000 SCT026 TEMPO 0514/0518 28028G51KT 4000 SQ FEW033TCU BECMG 0518/0520 34018KT
DTNH,TAF DTNH 051100Z 0512/0612 28029KT CAVOK TEMPO 0514/0518 28029G51KT 4000 SQ FEW033TCU BECMG 0518/0520 32016KT
DTTA,TAF DTTA 051100Z 0512/0612 26017G28KT 8000 -RA SCT023TCU FEW026CB TEMPO 0513/0518 29028G48KT 4000 SQ FEW033 BECMG 0518/0520 33019KT
DTTB,TAF DTTB 050900Z 0510/0519 29027G40KT 8000 TS BKN020 FEW023CB TEMPO 0511/0519 33030G55KT 4000 SQ TSRA FEW026CB
DTTF,TAF DTTF 050900Z 0510/0519 31013G23KT 8000 FEW026
DTTG,TAF DTTG 050900Z 0510/0519 30012KT 6000 FEW030 TEMPO 0516/0519 33017G27KT 4000 SA FEW033
DTTJ,TAF DTTJ 051100Z 0512/0612 24010KT CAVOK TEMPO 0515/0520 33019G34KT
DTTR,TAF DTTR 050900Z 0510/0519 29016KT CAVOK
DTTX,TAF DTTX 051100Z 0512/0612 28017KT 8000 FEW030 TEMPO 0515/0520 28025G41KT SQ SCT033 BECMG 0520/0522 34017KT
DTTZ,TAF DTTZ 051100Z 0512/0612 30014KT 6000 NSC TEMPO 0517/0522 34015G30KT
DXNG,TAF DXNG 051100Z 0512/0612 VRB05KT 7000 FEW007
DXXX,TAF DXXX 051100Z 0512/0618 20010KT 9999 FEW015 BECMG 0522/0524 VRB03KT BECMG 0608/0610 20010KT
EBAW,TAF EBAW 051102Z 0512/0521 20012KT 9999 SCT040 
EBBR,TAF EBBR 051109Z 0512/0618 20011KT 9999 FEW020 SCT040 TEMPO 0610/0618 19017G29KT RA BECMG 0614/0616 SCT008 BKN011 
EBCI,TAF EBCI 051109Z 0512/0618 19012KT 9999 FEW020 SCT040 TEMPO 0611/0618 18018G30KT RA BECMG 0615/0617 BKN007 
EBCV,TAF EBCV 050841Z 0510/0519 22004KT 9999 FEW200 BECMG 0512/0514 19010KT 9999 SCT030 SCT080 BY EBWM
EBFN,TAF EBFN 050841Z 0510/0519 24010KT 9999 FEW030 SCT070 BECMG 0513/0515 22015KT 9999 SCT025 BKN050 TEMPO 0514/0518 22018KT 5000 -RA BKN025 BKN040 BY EBWM
EBLG,TAF EBLG 051109Z 0512/0618 19012KT 9999 SCT040 TEMPO 0611/0618 18018G30KT RA BECMG 0616/0618 SCT008 BKN012
EBOS,TAF EBOS 051109Z 0512/0618 19012KT 9999 SCT020 SCT040 TEMPO 0512/0518 RA TEMPO 0521/0606 BKN013 TEMPO 0604/0618 4000 RA BECMG 0611/0613 20017G30KT BKN009 
EDAH,TAF EDAH 051100Z 0512/0521 25008KT CAVOK
EDDB,TAF EDDB 051100Z 0512/0612 25007KT CAVOK BECMG 0517/0520 19004KT BECMG 0607/0609 18009KT
EDDC,TAF EDDC 051100Z 0512/0612 28005KT 9999 FEW015 SCT030 BECMG 0516/0518 20004KT BECMG 0608/0610 17009KT
EDDE,TAF EDDE 051100Z 0512/0612 27008KT CAVOK BECMG 0514/0516 21004KT BECMG 0607/0610 18010KT
EDDF,TAF EDDF 051100Z 0512/0618 26008KT CAVOK BECMG 0514/0517 20005KT PROB40 TEMPO 0602/0607 1200 BCFG BKN002
EDDG,TAF EDDG 051100Z 0512/0612 19008KT 9999 FEW025
EDDH,TAF EDDH 051100Z 0512/0618 24009KT 9999 FEW035 BECMG 0517/0519 18010KT PROB30 TEMPO 0611/0615 20015G25KT
EDDK,TAF EDDK 051100Z 0512/0618 21006KT 9999 FEW025 BECMG 0516/0519 15007KT TEMPO 0609/0615 15012KT PROB30 TEMPO 0615/0618 RA
EDDL,TAF EDDL 051100Z 0512/0618 22010KT 9999 FEW025 BECMG 0518/0521 16012KT TEMPO 0610/0618 17015G25KT PROB30 TEMPO 0615/0618 RA
EDDM,TAF EDDM 051100Z 0512/0618 27005KT 9999 SCT010 BKN030 PROB30 TEMPO 0512/0518 SHRA BKN012TCU BECMG 0523/0602 VRB02KT 0400 FG BECMG 0602/0604 VV001 BECMG 0607/0609 10006KT 4000 BR BKN003 BECMG 0609/0611 9999 FEW008
EDDN,TAF EDDN 051100Z 0512/0612 29005KT 9999 SCT013 BKN025 PROB30 TEMPO 0512/0513 BKN013 BECMG 0519/0521 13005KT TEMPO 0523/0609 0700 FG TEMPO 0608/0610 BKN006 BECMG 0609/0611 13010KT
EDDP,TAF EDDP 051100Z 0512/0612 27008KT CAVOK BECMG 0514/0516 20004KT BECMG 0607/0609 18012KT
EDDR,TAF EDDR 051100Z 0512/0612 26007KT 9999 BKN005 BECMG 0512/0513 BKN010 BECMG 0513/0515 BKN015 BECMG 0515/0517 20004KT PROB30 TEMPO 0602/0607 1500 BCFG
EDDS,TAF EDDS 051100Z 0512/0612 28008KT 9999 SCT015 BKN030 BECMG 0515/0518 VRB03KT TEMPO 0600/0609 2500 BCFG PROB40 TEMPO 0600/0608 0400 FG BKN001
EDDV,TAF EDDV 051100Z 0512/0612 25008KT 9999 FEW040 BECMG 0518/0520 19009KT
EDDW,TAF EDDW 051100Z 0512/0612 20010KT 9999 FEW035 PROB30 TEMPO 0609/0612 20015G25KT
EDFH,TAF EDFH 051100Z 0512/0612 27008KT 9999 BKN005 BECMG 0512/0513 BKN010 BECMG 0513/0515 BKN015 BECMG 0515/0518 19007KT PROB30 TEMPO 0602/0608 1500 BCFG
EDGS,TAF EDGS 051100Z 0512/0521 26007KT 9999 SCT015 BECMG 0515/0518 20008KT
EDHK,TAF EDHK 051100Z 0512/0519 22008KT 9999 FEW025 PROB30 TEMPO 0512/0518 23013KT BKN020TCU
EDHL,TAF EDHL 051100Z 0512/0521 24007KT 9999 FEW035 BECMG 0517/0519 18005KT
EDJA,TAF EDJA 051100Z 0512/0521 24007KT 9999 SCT010 BKN020 TEMPO 0512/0516 4000 SHRA BKN010TCU
EDLN,TAF EDLN 051100Z 0512/0521 20007KT 9999 FEW025
EDLP,TAF EDLP 051100Z 0512/0612 24008KT 9999 FEW025 BECMG 0516/0519 18010KT
EDLV,TAF EDLV 051100Z 0512/0612 20008KT 9999 FEW025
EDLW,TAF EDLW 051100Z 0512/0612 20010KT 9999 FEW025
EDMA,TAF EDMA 051100Z 0512/0521 27005KT 9999 SCT015 OVC030 PROB40 TEMPO 0512/0516 4000 SHRA BKN012TCU
EDNY,TAF EDNY 051100Z 0512/0612 26005KT 9999 BKN020 PROB30 TEMPO 0512/0517 SHRA BKN012TCU BECMG 0514/0516 VRB02KT PROB40 TEMPO 0521/0608 1200 BCFG BKN003 BECMG 0602/0604 05005KT
EDQM,TAF EDQM 051100Z 0512/0521 29005KT 9999 FEW010 SCT015 BKN030
EDSB,TAF EDSB 051100Z 0512/0612 21005KT 9999 SCT040 BECMG 0515/0518 VRB03KT TEMPO 0600/0609 2000 BCFG PROB40 TEMPO 0600/0608 0300 FG BKN001
EDTL,TAF EDTL 051100Z 0512/0521 VRB03KT 9999 SCT035
EDTY,TAF EDTY 051100Z 0512/0521 30006KT 9999 FEW010 BKN030 PROB30 TEMPO 0512/0514 4000 SHRA BKN014TCU BECMG 0515/0517 VRB03KT
EDVE,TAF EDVE 051100Z 0512/0521 25009KT 9999 FEW040 BECMG 0514/0516 21004KT
EDVK,TAF EDVK 051100Z 0512/0521 26005KT 9999 SCT030
EDXW,TAF EDXW 051100Z 0512/0518 23012KT 9999 SCT025 TEMPO 0512/0518 25015G25KT 4500 SHRA BKN015CB
EEEI,TAF EEEI 051130Z 0512/0612 16012KT 9999 OVC012 TEMPO 0512/0517 BKN015 TEMPO 0517/0521 3000 RADZ BKN008 TEMPO 0521/0602 3000 RADZ BR BKN005 OVC011 TEMPO 0602/0609 2000 DZ BR OVC003 BECMG 0606/0608 22010KT
EEKA,TAF EEKA 050500Z 0506/0512 14012KT 9999 BKN008 BKN015 PROB30 TEMPO 0506/0512 BKN005
EEKE,TAF EEKE 050700Z 0508/0514 14015KT 9999 BKN010 OVC020 TEMPO 0508/0514 15018G32KT PROB40 TEMPO 0508/0510 OVC008 TEMPO 0513/0514 4000 RA
EETN,TAF EETN 051130Z 0512/0612 15012KT 9999 BKN015 TEMPO 0512/0515 OVC010 BECMG 0518/0520 6000 RA BKN008 TEMPO 0522/0603 3000 RADZ BR OVC005 TEMPO 0603/0608 1000 DZ BR OVC002 BECMG 0608/0610 23010KT 8000 BKN005 BKN020
EFHK,TAF EFHK 051137Z 0512/0612 13011KT 9999 BKN015 BECMG 0516/0518 BKN012 BECMG 0518/0520 OVC008 TEMPO 0520/0603 5000 RA BECMG 0603/0605 20010KT 2000 -DZ BR BKN004 PROB30 0605/0608 0500 FG BECMG 0608/0610 9999 NSW SCT012
EFIV,TAF EFIV 051124Z 0512/0521 22010KT 9999 BKN015 PROB40 0512/0521 BKN013
EFJO,TAF EFJO 051135Z 0512/0515 17007KT 9999 OVC008 TEMPO 0513/0515 BKN012
EFJY,TAF EFJY 051135Z 0512/0612 16007KT 9999 BKN005 PROB30 TEMPO 0512/0517 7000 -FZDZ TEMPO 0517/0521 BKN012 BECMG 0523/0524 4000 -SNRA TEMPO 0600/0602 2000 SNRA BKN002 BECMG 0602/0604 5000 -FZDZ BKN003 BECMG 0604/0606 0600 -DZ FG
EFKS,TAF EFKS 051124Z 0512/0521 22009KT 9999 FEW005 BKN013 TEMPO 0512/0518 7000 -DZ BKN005 PROB40 0515/0518 -FZDZ TEMPO 0518/0521 7000 -FZDZ BKN005
EFKT,TAF EFKT 051124Z 0512/0518 21009KT 9999 BKN015 PROB40 0512/0518 BKN012
EFKU,TAF EFKU 051135Z 0512/0612 17007KT 9999 OVC006 BECMG 0513/0515 BKN012 TEMPO 0515/0524 BKN015 BECMG 0602/0604 3000 -SNRA BKN008 TEMPO 0604/0607 1400 SN BKN015 BECMG 0607/0609 6000 -FZDZ BKN004 BECMG 0609/0611 2500 BR
EFLP,TAF EFLP 051135Z 0512/0518 14005KT 9999 OVC005 BECMG 0513/0515 BKN010 TEMPO 0515/0518 BKN015
EFMA,TAF EFMA 051134Z 0512/0521 15012G22KT 9999 BKN013 BECMG 0513/0515 6000 DZRA BKN009 BECMG 0515/0517 9000 -RA BKN020 TEMPO 0517/0520 4500 SHRA BKN007 FEW015CB
EFOU,TAF EFOU 051124Z 0512/0612 16008KT 9999 BKN015 TEMPO 0512/0515 7000 -RA BKN008 TEMPO 0515/0603 BKN010 BECMG 0603/0605 4000 -SNRA BKN012 TEMPO 0605/0610 8000 BECMG 0610/0612 7000 -RADZ BKN005
EFRO,TAF EFRO 051124Z 0512/0612 20010KT 9999 OVC007 TEMPO 0512/0521 7000 -RADZ PROB40 0518/0521 -FZDZ OVC004 TEMPO 0521/0606 5000 -FZDZSN BKN004 BECMG 0606/0608 4000 -SN BECMG 0609/0611 8000 -FZDZSN
EFSI,TAF EFSI 051134Z 0512/0521 13010KT 9999 OVC008 OVC032 TEMPO 0512/0517 BKN010 BKN032 BECMG 0517/0519 BKN015 BECMG 0519/0521 2500 -RASN BKN013
EFTP,TAF EFTP 051135Z 0512/0612 13010KT 9999 OVC008 TEMPO 0513/0520 BKN015 TEMPO 0521/0601 2500 RASN OVC004 BECMG 0601/0603 0700 FG VV002 BECMG 0605/0607 4000 BR BKN005 BECMG 0607/0609 19008KT 9999 NSW BKN010 BECMG 0609/0611 SCT020
EFTU,TAF EFTU 051137Z 0512/0612 13009KT 4000 -DZ OVC008 BECMG 0512/0514 9999 NSW BKN015 BECMG 0516/0518 BKN008 TEMPO 0518/0524 2000 DZRA BKN004 BECMG 0600/0602 19010KT SCT020 TEMPO 0607/0610 FEW020CB
EFVA,TAF EFVA 051134Z 0512/0612 14009KT 9999 FEW008 BKN039 BECMG 0516/0518 BKN014 BECMG 0518/0520 BKN017 BECMG 0520/0522 2000 RASN BKN007 BECMG 0522/0524 9000 -RA BKN014 TEMPO 0600/0612 3000 BR BKN008
EGAA,TAF EGAA 051100Z 0512/0612 24010KT 9999 FEW020 BECMG 0516/0519 18012KT PROB30 TEMPO 0521/0524 7000 SHRA TEMPO 0600/0607 7000 SHRA BKN008 PROB30 TEMPO 0600/0603 4000 +SHRA
EGAC,TAF EGAC 051110Z 0512/0521 25010KT 9999 SCT025
EGAE,TAF EGAE 051110Z 0512/0516 24010KT 9999 FEW018 SCT028
EGBB,TAF EGBB 051102Z 0512/0612 20012KT 9999 SCT010 TEMPO 0512/0517 6000 -RA BKN006 PROB40 TEMPO 0512/0517 20015G25KT 4000 RADZ PROB40 TEMPO 0515/0521 BKN002 TEMPO 0521/0610 6000 BKN005 PROB30 TEMPO 0600/0609 0300 FG VV/// PROB30 TEMPO 0611/0612 4000 +SHRA BKN009CB
EGBJ,TAF EGBJ 051108Z 0512/0519 20012KT 9999 SCT009 TEMPO 0512/0519 6000 -RA BKN007 PROB30 TEMPO 0512/0519 4000 RADZ BKN004 PROB30 TEMPO 0512/0516 20015G25KT
EGCC,TAF EGCC 051054Z 0512/0618 17006KT 9999 SCT030 TEMPO 0512/0517 6000 RA BKN007 PROB30 TEMPO 0512/0517 18015G25KT 4000 RADZ BKN003 BECMG 0514/0517 23004KT TEMPO 0518/0606 4000 BR PROB40 0518/0606 0300 FG VV/// BECMG 0603/0606 16010KT PROB30 TEMPO 0610/0618 17015G25KT 6000 SHRA BKN012
EGCK,TAF EGCK 051056Z 0512/0521 18015KT 9999 SCT025 BECMG 0512/0515 28006KT TEMPO 0512/0514 6000 RA BKN012 PROB30 TEMPO 0512/0514 19020G30KT 4000 RADZ BKN004
EGCN,TAF EGCN 051055Z 0512/0612 18010KT 9999 SCT015 TEMPO 0512/0518 6000 RA BKN010 PROB30 TEMPO 0512/0518 19015G25KT 4000 RADZ BKN006 BECMG 0518/0521 VRB03KT PROB30 TEMPO 0518/0520 4000 FU TEMPO 0520/0609 4000 BR PROB30 0521/0609 0300 FG VV/// BECMG 0606/0609 19010KT
EGEO,TAF EGEO 051055Z 0512/0515 23009KT 9999 FEW018 SCT030 PROB30 TEMPO 0512/0513 BKN012
EGFF,TAF EGFF 051110Z 0512/0612 20008KT 9999 BKN020 TEMPO 0512/0518 4000 RADZ BKN008 PROB40 TEMPO 0512/0516 19015G25KT PROB30 TEMPO 0512/0514 +RA BKN003 PROB30 TEMPO 0514/0519 BKN004 PROB30 0518/0602 6000 PROB30 TEMPO 0602/0608 7000 SHRA TEMPO 0608/0612 7000 SHRA PROB30 TEMPO 0608/0612 3000 +SHRA BKN014CB
EGGD,TAF EGGD 051110Z 0512/0612 19010KT 9999 BKN010 TEMPO 0512/0519 20015G25KT TEMPO 0512/0518 4000 RADZ BKN005 PROB30 TEMPO 0514/0518 0500 FG BKN000 PROB40 0518/0521 SCT030 TEMPO 0521/0601 6000 RA BKN005 BECMG 0601/0604 SCT030 PROB30 TEMPO 0603/0608 7000 SHRA TEMPO 0608/0612 7000 SHRA PROB30 TEMPO 0608/0612 3000 +SHRA BKN014CB
EGGP,TAF EGGP 051054Z 0512/0612 17010KT 9999 SCT020 TEMPO 0512/0516 6000 RA BKN009 PROB30 TEMPO 0512/0516 4000 RADZ BKN006 BECMG 0514/0517 23004KT TEMPO 0517/0606 6000 PROB30 0520/0606 3000 BR MIFG BECMG 0603/0606 14010KT PROB30 TEMPO 0610/0612 16015G25KT 6000 SHRA BKN012
EGGW,TAF EGGW 051108Z 0512/0612 18010KT 9999 SCT032 TEMPO 0512/0516 6000 RA -RADZ BKN006 PROB30 TEMPO 0512/0516 BKN003 BECMG 0516/0519 BKN007 TEMPO 0516/0608 3000 BR RADZ BKN003 PROB30 TEMPO 0516/0523 20015G25KT PROB40 TEMPO 0519/0606 0500 FG +DZ BKN000 BECMG 0608/0611 SCT020
EGHC,TAF EGHC 051106Z 0512/0518 21018KT 0200 -RADZ FG BKN000 BECMG 0512/0515 27010KT 9999 NSW FEW016 BECMG 0515/0518 20005KT
EGHE,TAF EGHE 051106Z 0512/0518 21022KT 9999 SCT005 BECMG 0512/0514 27010KT TEMPO 0512/0514 5000 -RADZ BKN005 PROB40 0512/0513 2000 RADZ BKN002 BECMG 0515/0518 21008KT
EGHH,TAF EGHH 051108Z 0512/0521 21010KT 9999 SCT010 TEMPO 0512/0521 6000 -RA BKN007 PROB40 TEMPO 0512/0521 22015G25KT PROB30 TEMPO 0512/0516 4000 RADZ PROB30 TEMPO 0516/0520 3000 RADZ BR BKN002
EGHI,TAF EGHI 051108Z 0512/0521 21010KT 9999 SCT014 TEMPO 0512/0521 6000 -RA BKN008 PROB40 TEMPO 0512/0521 22015G25KT PROB30 TEMPO 0512/0516 4000 RADZ PROB30 TEMPO 0516/0520 3000 RADZ BR BKN002
EGHQ,TAF EGHQ 051106Z 0512/0521 20012KT 9999 SCT006 BECMG 0512/0515 27010KT TEMPO 0512/0515 5000 -RA BKN006 PROB30 TEMPO 0512/0514 1200 RADZ BR BKN001 BECMG 0517/0520 18005KT
EGJA,TAF EGJA 051058Z 0512/0521 23020KT 9999 SCT015 BKN035 PROB40 TEMPO 0512/0518 5000 RA BKN010
EGJB,TAF EGJB 051058Z 0512/0521 23018KT 9999 SCT015 BKN035 PROB40 TEMPO 0512/0518 5000 RA BKN010
EGJJ,TAF EGJJ 051058Z 0512/0521 23015KT 9999 SCT015 BKN035 PROB40 TEMPO 0512/0521 5000 RA BKN010
EGKA,TAF EGKA 051100Z 0512/0520 22015KT 9999 SCT015 BECMG 0512/0514 21018G28KT TEMPO 0512/0515 7000 -RA BKN007 PROB40 TEMPO 0512/0515 3500 RADZ BECMG 0515/0518 BKN007 TEMPO 0515/0518 3000 RADZ PROB30 TEMPO 0518/0520 BKN004
EGKB,TAF EGKB 051100Z 0512/0521 19009KT 9999 SCT030 TEMPO 0512/0515 7000 -RA BKN007 PROB40 TEMPO 0512/0515 3000 RADZ BKN004 PROB30 TEMPO 0513/0519 21015G27KT BECMG 0515/0518 7000 -DZ BKN006 TEMPO 0515/0521 3000 DZ BKN003
EGKK,TAF EGKK 051057Z 0512/0618 21011KT 9999 SCT015 TEMPO 0512/0515 7000 -RA BKN012 PROB40 TEMPO 0512/0515 4000 RADZ BKN007 BECMG 0515/0517 BKN007 TEMPO 0515/0612 3000 RADZ PROB30 TEMPO 0519/0606 BKN004 PROB40 TEMPO 0606/0609 SCT015 BECMG 0609/0612 SCT020 TEMPO 0612/0618 6000 RA SHRA PROB30 TEMPO 0612/0618 3000 +SHRA BKN014CB
EGLC,TAF EGLC 050802Z 0509/0518 20007KT 9999 SCT030 TEMPO 0509/0516 8000 -RA BKN012 PROB30 TEMPO 0509/0518 4000 RADZ BKN009 BECMG 0516/0518 BKN012 TEMPO 0516/0518 7000 -RADZ
EGLF,TAF EGLF 051100Z 0512/0520 20009KT 9999 SCT020 TEMPO 0512/0515 7000 -RA BKN012 PROB40 TEMPO 0512/0515 4000 RADZ BKN007 PROB30 TEMPO 0514/0518 21015G25KT BECMG 0515/0518 BKN007 TEMPO 0515/0520 3000 RADZ PROB30 TEMPO 0518/0520 BKN004
EGLL,TAF EGLL 051054Z 0512/0618 19006KT 9999 BKN030 TEMPO 0512/0517 7000 -RA BKN012 PROB40 TEMPO 0512/0515 4000 RADZ BKN008 BECMG 0515/0518 8000 -RADZ BKN007 TEMPO 0515/0608 3000 RADZ PROB30 TEMPO 0519/0602 BKN004 PROB30 TEMPO 0602/0606 +RA BKN004 BECMG 0607/0610 9999 NSW SCT020 TEMPO 0613/0616 7000 SHRA PROB40 TEMPO 0613/0616 4000 +SHRA
EGMC,TAF EGMC 051100Z 0512/0521 20009KT 9999 SCT020 TEMPO 0512/0516 7000 -RA BKN013 PROB30 TEMPO 0512/0516 4000 RADZ BKN008 BECMG 0516/0518 BKN010 TEMPO 0516/0521 4000 RADZ BKN007
EGMD,TAF EGMD 051100Z 0512/0521 23014KT 9999 SCT035 BECMG 0512/0515 22022G32KT TEMPO 0512/0517 7000 -RA BKN010 PROB30 TEMPO 0512/0517 4000 RADZ BKN006 BECMG 0517/0519 BKN010 TEMPO 0517/0521 3000 DZ BKN005
EGNH,TAF EGNH 051056Z 0512/0520 16010KT 9999 SCT025 TEMPO 0512/0515 6000 RA BKN012 PROB30 TEMPO 0512/0515 4000 RADZ BKN007 PROB30 TEMPO 0512/0513 18015G25KT BECMG 0513/0516 28008KT
EGNJ,TAF EGNJ 051056Z 0512/0521 20012KT 9999 SCT040 TEMPO 0512/0521 6000 RA BKN010 PROB40 TEMPO 0512/0518 21015G25KT PROB30 TEMPO 0512/0521 4000 RADZ BKN006 BECMG 0518/0521 26006KT
EGNM,TAF EGNM 051055Z 0512/0612 18010KT 9999 SCT015 TEMPO 0512/0518 6000 RA BKN008 PROB30 TEMPO 0512/0518 20015G25KT 4000 RADZ BKN004 BECMG 0515/0518 VRB03KT TEMPO 0518/0609 3000 BR PROB30 0521/0609 0300 FG VV/// BECMG 0609/0612 18010KT
EGNR,TAF EGNR 051056Z 0512/0518 18010KT 9999 SCT025 TEMPO 0512/0518 6000 RA BKN012 PROB30 TEMPO 0512/0518 4000 RADZ BKN007 PROB30 TEMPO 0512/0513 19015G25KT BECMG 0513/0516 28004KT
EGNS,TAF AMD EGNS 051120Z 0512/0521 24017KT 4000 SHRA -DZ BKN006 BECMG 0512/0514 30012KT 9999 NSW FEW010
EGNT,TAF EGNT 051055Z 0512/0612 18006KT 9999 SCT025 PROB30 TEMPO 0512/0515 4000 RADZ BKN007 TEMPO 0522/0609 6000 TEMPO 0602/0609 3000 BR MIFG
EGNV,TAF EGNV 051056Z 0512/0521 19010KT 9999 FEW030 TEMPO 0512/0516 6000 RA BKN012 PROB40 0512/0516 20015G27KT 4000 RADZ BKN006 BECMG 0517/0520 25006KT PROB30 TEMPO 0519/0521 4000 FU
EGNX,TAF EGNX 051102Z 0512/0612 20012KT 9999 SCT010 TEMPO 0512/0519 6000 -RA BKN006 PROB40 TEMPO 0512/0518 21015G25KT 4000 RADZ PROB40 TEMPO 0516/0519 BKN002 TEMPO 0519/0522 4000 FU BKN005 PROB30 0519/0609 0300 FG VV/// TEMPO 0522/0610 6000 BKN005 PROB40 TEMPO 0611/0612 7000 SHRA BKN009
EGPA,TAF EGPA 051057Z 0512/0521 18009KT 9999 FEW010 SCT020 BECMG 0512/0515 BKN012 TEMPO 0513/0521 6000 -RA BKN008 PROB30 TEMPO 0513/0521 2500 DZRA BKN004
EGPB,TAF EGPB 051057Z 0512/0521 25012KT 9999 FEW012 SCT025 PROB30 TEMPO 0512/0519 6000 SHRA BECMG 0515/0518 16009KT TEMPO 0519/0521 7000 -RA BKN012
EGPC,TAF EGPC 051057Z 0512/0521 17008KT 9999 SCT012 BKN025 TEMPO 0512/0518 6000 -RA BKN008 PROB30 TEMPO 0514/0517 3000 DZRA BKN004 BECMG 0516/0519 26010KT CAVOK
EGPD,TAF EGPD 051054Z 0512/0612 16008KT 9999 SCT012 BKN030 TEMPO 0512/0516 6000 -RA BKN008 PROB30 TEMPO 0512/0516 4000 DZRA BKN004 BECMG 0516/0519 26010KT CAVOK PROB30 TEMPO 0518/0603 6000 BECMG 0521/0524 18005KT TEMPO 0603/0607 4000 BR PROB30 0603/0607 0300 FG VV/// TEMPO 0607/0612 7000 -RA BKN012 PROB30 TEMPO 0609/0612 4000 RADZ BKN008
EGPE,TAF EGPE 051057Z 0512/0521 VRB03KT 9999 SCT012 BKN040 BECMG 0512/0515 23010KT TEMPO 0512/0517 8000 -RA PROB30 TEMPO 0514/0516 4000 RADZ BKN004
EGPF,TAF EGPF 051054Z 0512/0612 VRB03KT 9999 SCT015 BKN030 BECMG 0512/0515 24010KT CAVOK PROB30 TEMPO 0512/0513 6000 -RA BKN008 TEMPO 0518/0523 4000 BR BECMG 0520/0523 11005KT PROB30 0520/0522 0300 FG VV/// TEMPO 0523/0610 7000 -RA BKN014 PROB30 TEMPO 0602/0606 2000 +RADZ BKN009 BECMG 0610/0612 17010KT
EGPH,TAF EGPH 051054Z 0512/0612 24012KT 9999 SCT020 BKN035 TEMPO 0512/0514 25015G25KT 7000 -RA BKN012 PROB30 TEMPO 0512/0513 3000 DZRA BKN009 BECMG 0521/0524 VRB03KT PROB30 TEMPO 0521/0601 7000 BECMG 0601/0604 18010KT PROB30 TEMPO 0601/0612 7000 -RA
EGPI,TAF EGPI 051055Z 0512/0518 26015KT 9999 SCT018 PROB30 TEMPO 0512/0516 27018G28KT 6000 SHRA BECMG 0516/0518 20009KT
EGPK,TAF EGPK 051054Z 0512/0612 24012KT 9999 SCT015 BKN030 PROB30 TEMPO 0512/0513 25015G25KT 7000 -RA BKN012 BECMG 0517/0520 15008KT TEMPO 0600/0609 7000 -RA PROB30 TEMPO 0603/0606 16015G25KT 2000 +RADZ BKN014 PROB40 TEMPO 0609/0612 6000 SHRA
EGPL,TAF EGPL 051057Z 0512/0515 25015KT 9999 FEW012 SCT025 PROB30 TEMPO 0512/0515 6000 SHRA
EGPN,TAF EGPN 051055Z 0512/0516 09005KT 9999 FEW015 SCT035 TEMPO 0512/0515 6000 -RA BKN010 PROB30 TEMPO 0512/0514 3000 RADZ BKN004 BECMG 0513/0516 25010KT TEMPO 0515/0516 4000 BR
EGPO,TAF EGPO 051057Z 0512/0521 15012KT 9999 SCT020 BECMG 0512/0515 24009KT TEMPO 0512/0513 6000 -RA BKN012 PROB30 TEMPO 0512/0513 17015G25KT 4000 DZRA BKN007 PROB30 TEMPO 0513/0521 6000 SHRA
EGPU,TAF EGPU 051055Z 0512/0519 24015KT 9999 SCT015 BECMG 0516/0519 18019KT
EGQL,TAF EGQL 051037Z 0512/0521 12005KT 9999 FEW020 BKN035 TEMPO 0512/0515 5000 RA SCT010 BKN020 PROB30 TEMPO 0512/0514 3000 RADZ SCT005 BKN010
EGQS,TAF EGQS 051038Z 0512/0606 12005KT 9999 FEW020 BKN045 PROB30 TEMPO 0512/0515 7000 RA SCT020 PROB30 TEMPO 0515/0519 25015G25KT
EGSH,TAF EGSH 051056Z 0512/0521 21005KT 9999 FEW035 TEMPO 0512/0519 7000 RA BKN009 PROB30 TEMPO 0512/0519 4000 RADZ BKN006 PROB30 TEMPO 0519/0521 4000 FU
EGSS,TAF EGSS 051108Z 0512/0618 18010KT 9999 SCT025 TEMPO 0512/0515 6000 RA -RADZ BKN007 BECMG 0516/0519 BKN010 TEMPO 0516/0609 4000 BR RADZ BKN005 PROB30 TEMPO 0516/0522 20015G25KT PROB30 TEMPO 0516/0608 1200 +RADZ BKN003 BECMG 0608/0611 9999 NSW SCT020 TEMPO 0613/0618 6000 SHRA PROB30 TEMPO 0613/0616 3000 +SHRA BKN014CB
EGSY,TAF EGSY 051108Z 0512/0521 20010KT 9999 SCT010 TEMPO 0512/0515 5000 -RADZ BKN008 PROB30 TEMPO 0512/0515 22015G25KT 3000 RADZ BR TEMPO 0515/0517 3000 RADZ BR BKN004 BECMG 0516/0519 26010KT
EGTC,TAF EGTC 051100Z 0512/0518 20010KT 9999 FEW007 BECMG 0512/0515 BKN007 TEMPO 0512/0515 7000 -RA PROB30 TEMPO 0512/0515 4000 RADZ PROB30 TEMPO 0514/0518 20015G25KT TEMPO 0515/0518 3000 RADZ PROB30 TEMPO 0516/0518 BKN004
EGTE,TAF EGTE 051106Z 0512/0521 20010KT 9999 SCT007 TEMPO 0512/0517 6000 -RA BKN007 PROB30 TEMPO 0512/0515 21015G25KT 4000 RADZ PROB30 TEMPO 0514/0517 BKN004
EGTK,TAF EGTK 051100Z 0512/0521 19013KT 9999 SCT012 BECMG 0512/0515 BKN008 TEMPO 0512/0519 3000 RADZ PROB40 TEMPO 0516/0519 BKN004 BECMG 0519/0521 FEW020
EGUL,TAF AMD EGUL 041615Z 0416/0520 32010G18KT 9999 FEW030 QNH2967INS BECMG 0421/0422 26006KT 8000 BR FEW010 FEW017 SCT024 QNH2996INS BECMG 0506/0507 VRB06KT 5000 BR FEW015 SCT020 QNH2995INS BECMG 0509/0510 19006KT 9999 NSW SCT015 OVC020 QNH2990INS BECMG 0515/0516 19010G20KT 9999 BKN015 OVC020 QNH2990INS TX11/0416Z TN01/0506Z LAST NO AMDS AFT 0416 NEXT 0706
EGUN,TAF EGUN 050400Z 0504/0610 23009KT 9000 BR FEW030 BKN150 QNH2994INS BECMG 0506/0508 20010G15KT 9999 NSW SCT030 BKN120 QNH2992INS BECMG 0510/0511 20012G18KT 9999 VCSH FEW015 BKN030 610604 QNH2978INS TEMPO 0511/0517 19012G22KT 9000 -RA SCT010 OVC015 510003 BECMG 0517/0519 20012G20KT 9999 VCSH OVC020 QNH2977INS BECMG 0521/0522 20010G15KT 6000 -RA BR OVC012 QNH2958INS TEMPO 0600/0606 3200 -RA BR OVC008 TX13/0522Z TN05/0506Z
EGVA,TAF AMD EGVA 041700Z 0417/0519 03012KT 9999 FEW010 SCT030 BKN080 620807 QNH2989INS BECMG 0418/0419 VRB06KT 9999 BKN035 620507 QNH2995INS BECMG 0506/0507 20012KT 8000 -RA BR FEW005 BKN015 620606 510023 QNH2988INS BECMG 0510/0511 20012G18KT 9000 -RA BKN005 OVC015 620606 510005 QNH2970INS TX14/0419Z TN05/0501Z LAST NO AMDS AFT 0417 NEXT 0705
EGVN,TAF EGVN 051053Z 0512/0612 20010KT 9999 BKN012 TEMPO 0512/0519 4500 -RADZ PROB40 TEMPO 0516/0519 2000 RADZ BKN004 BECMG 0519/0521 SCT030 PROB30 TEMPO 0521/0523 SCT010 PROB40 0523/0609 BKN008 PROB30 0600/0608 3000 RADZ BKN005 TEMPO 0610/0612 5000 SHRA BKN014
EGWU,TAF EGWU 051044Z 0512/0606 20008KT 9999 FEW007 BKN040 BECMG 0512/0515 -RA BKN008 PROB40 TEMPO 0512/0517 5000 -RADZ BKN006 PROB30 TEMPO 0515/0517 3000 DZ BKN004 BECMG 0517/0520 7000 -RA BKN006 TEMPO 0517/0603 4000 -RADZ PROB40 TEMPO 0517/0522 2000 DZ BKN003 TEMPO 0522/0602 9999 NSW SCT007 PROB30 TEMPO 0522/0601 FEW007 PROB40 TEMPO 0602/0606 2000 DZ BKN003
EGXC,TAF EGXC 051023Z 0512/0606 19012KT 9999 BKN020 BECMG 0512/0514 BKN008 TEMPO 0512/0514 6000 -RA TEMPO 0514/0606 3000 -RADZ BKN006 PROB30 TEMPO 0514/0606 BKN004 PROB30 0600/0606 0300 FG BKN001
EGXW,TAF EGXW 051036Z 0512/0606 19012KT 9999 BKN040 BECMG 0512/0514 BKN007 TEMPO 0513/0519 3000 RADZ BKN004 PROB30 TEMPO 0513/0516 20015G25KT BECMG 0519/0521 BKN003 PROB40 TEMPO 0521/0606 3000 BR BKN002 PROB30 0523/0606 0500 FG BKN001
EGYD,TAF EGYD 050726Z 0509/0518 20012KT 9999 BKN030 TEMPO 0509/0511 6000 -RA SCT018 PROB30 TEMPO 0509/0511 4000 RA SCT008 BECMG 0511/0513 BKN008 TEMPO 0511/0518 5000 -RADZ SCT005 PROB30 TEMPO 0511/0518 3000 RADZ SCT004 TEMPO 0513/0516 21015G25KT
EGYP,TAF AMD EGYP 051010Z 0509/0603 28015KT CAVOK BECMG 0512/0515 25015KT BECMG 0518/0521 VRB05KT
EHAM,TAF EHAM 051118Z 0512/0618 19015KT 9999 FEW025 TEMPO 0523/0618 7000 -RA BKN014 PROB30 TEMPO 0601/0608 4500 RADZ BKN009 PROB30 TEMPO 0614/0618 18016G26KT 4500 RADZ BKN009
EHBK,TAF EHBK 051118Z 0512/0618 19011KT CAVOK
EHDL,TAF EHDL 050900Z 0510/0522 22008KT CAVOK TEMPO 0511/0515 22010G20KT BECMG 0518/0520 19012G22KT
EHEH,TAF EHEH 051141Z 0512/0618 21010KT 9999 FEW030 SCT050 PROB30 TEMPO 0521/0612 20012G22KT BECMG 0612/0614 17012G22KT TEMPO 0615/0618 4000 RADZ SCT010 BKN030
EHGG,TAF EHGG 051118Z 0512/0618 20012KT CAVOK PROB30 TEMPO 0512/0515 7000 -SHRA FEW020TCU PROB40 TEMPO 0521/0524 20015G25KT 7000 -RA BKN020 TEMPO 0600/0618 18015G25KT 7000 -RA BKN014 PROB30 TEMPO 0603/0613 4500 RADZ BKN008
EHKD,TAF EHKD 050911Z 0510/0522 25015KT 9999 SCT022 BECMG 0515/0517 22016KT PROB40 TEMPO 0516/0519 4500 -SHRA -RA SCT015 SCT020CB BKN030 TEMPO 0519/0522 3500 RADZ SCT008 BKN015 OVC020 BECMG 0520/0522 21022G32KT
EHLE,TAF COR EHLE 051129Z 0512/0618 19015KT 9999 FEW025 TEMPO 0600/0618 7000 -RA BKN014 PROB30 TEMPO 0616/0618 18016G26KT 4500 RADZ BKN009
EHLW,TAF EHLW 050902Z 0510/0522 22010KT 9999 FEW030 PROB40 TEMPO 0510/0511 22010G20KT 4500 -SHRA SCT025CB BKN028 BECMG 0512/0514 19010KT BECMG 0520/0522 19015G25KT
EHRD,TAF EHRD 051120Z 0512/0618 19015KT 9999 FEW025 TEMPO 0523/0618 7000 -RA BKN014 PROB30 TEMPO 0601/0608 4500 RADZ BKN009 PROB30 TEMPO 0614/0618 18016G26KT 4500 RADZ BKN009
EHVK,TAF EHVK 050901Z 0510/0522 22008KT CAVOK
EICK,TAF EICK 051100Z 0512/0612 25011KT 9999 FEW022 BECMG 0514/0516 21012KT PROB40 TEMPO 0517/0522 21015G25KT SHRA FEW018CB TEMPO 0522/0602 22018G30KT SHRA SCT018CB PROB30 TEMPO 0606/0610 23015G25KT SHRA FEW018CB BECMG 0608/0610 24015KT TEMPO 0610/0612 23018G28KT SHRA SCT018CB
EIDL,TAF EIDL 051100Z 0512/0521 24014KT 9999 FEW025 BECMG 0513/0515 21014KT PROB40 TEMPO 0515/0521 -SHRA FEW018CB PROB30 TEMPO 0515/0521 SHRA BECMG 0519/0521 18013KT
EIDW,TAF EIDW 051100Z 0512/0612 27012KT 9999 FEW015 BECMG 0515/0517 20008KT PROB40 TEMPO 0518/0520 16010KT PROB40 TEMPO 0520/0523 21013KT PROB30 TEMPO 0602/0605 4000 SHRA SCT018CB BECMG 0603/0605 21013KT PROB40 TEMPO 0610/0612 22015G25KT -SHRA SCT018CB
EIKN,TAF AMD EIKN 051141Z 0512/0612 22012KT 9999 FEW020 PROB30 TEMPO 0515/0520 20015G25KT -SHRA FEW020CB BECMG 0518/0520 19012KT TEMPO 0520/0612 19015G25KT SHRA SCT018CB PROB40 TEMPO 0522/0602 4000 BKN005 PROB30 TEMPO 0608/0612 4500 BKN010
EIKY,TAF EIKY 051100Z 0512/0521 23012KT 9999 FEW025 PROB40 TEMPO 0514/0521 -SHRA FEW020CB BECMG 0516/0518 20012KT
EIME,TAF EIME 051100Z 0512/0521 25012KT 9999 FEW015 BECMG 0516/0518 20012KT PROB30 TEMPO 0519/0521 20015G25KT -SHRA
EINN,TAF EINN 051100Z 0512/0612 21012KT 9999 FEW020 PROB30 TEMPO 0515/0521 -SHRA FEW018CB BECMG 0518/0520 17010KT TEMPO 0521/0602 20015G25KT SHRA SCT018CB PROB40 TEMPO 0521/0602 4000 TEMPO 0602/0609 -SHRA SCT018CB BECMG 0609/0611 22014KT TEMPO 0609/0612 23016G27KT 4000 SHRA SCT018CB
EISG,TAF EISG 051100Z 0512/0521 20010KT 9999 FEW020 PROB40 TEMPO 0515/0521 -SHRA FEW018CB BECMG 0519/0521 17013KT
EIWF,TAF EIWF 051100Z 0512/0521 28008KT 9999 FEW020 BECMG 0513/0515 24012KT BECMG 0519/0521 21015KT PROB30 TEMPO 0519/0521 22015G25KT
EKAH,TAF EKAH 051124Z 0512/0612 23008KT 9999 SCT025 TEMPO 0512/0518 SCT020CB TEMPO 0518/0522 SCT020TCU BECMG 0522/0524 20015G28KT 4000 RADZ BR BKN006 TEMPO 0600/0604 20014KT 6000 NSW BKN010 TEMPO 0604/0612 20012KT 2500 -RADZ BKN004
EKBI,TAF EKBI 051124Z 0512/0612 23008KT 9999 SCT025 TEMPO 0512/0518 SCT020CB TEMPO 0518/0522 SCT020TCU BECMG 0522/0524 19015G28KT 4000 RADZ BR BKN006 TEMPO 0600/0602 20014KT 6000 NSW BKN010 TEMPO 0602/0612 20012KT 2500 -RADZ BKN004
EKCH,TAF EKCH 051107Z 0512/0612 25012KT 9999 FEW030 TEMPO 0512/0521 FEW020CB BECMG 0602/0604 20015G25KT BECMG 0604/0606 RADZ BKN010 TEMPO 0606/0612 20014KT NSW
EKEB,TAF EKEB 051125Z 0512/0517 21008KT 9999 SCT025 TEMPO 0512/0517 SCT020CB
EKGC,TAF EKGC 051125Z 0512/0521 25020KT 9999 SCT025 BECMG 0513/0515 19022KT BECMG 0515/0517 RA BKN010 TEMPO 0517/0521 -RA SCT010 BKN040
EKHD,TAF EKHD 051125Z 0512/0521 26020KT 9999 SCT025 BECMG 0512/0514 20022KT BECMG 0514/0516 RA BKN010 TEMPO 0516/0521 -RA SCT010 BKN040
EKKA,TAF EKKA 051109Z 0512/0612 22010KT 9999 BKN025 TEMPO 0512/0517 5000 SHRA FEW012 SCT020CB TEMPO 0517/0522 3000 BR -SHRA BKN012 FEW020TCU BECMG 0522/0601 17015KT 4000 RA BKN008 TEMPO 0601/0603 17015G28KT 7000 -RA BKN004 BECMG 0603/0606 24012KT 9999 NSW BKN018 BECMG 0610/0612 18012KT 2500 -RA BR BKN004
EKOD,TAF EKOD 050858Z 0509/0514 21010KT 9999 SCT025 TEMPO 0509/0514 SCT020CB
EKRK,TAF EKRK 051109Z 0512/0521 25012KT 9999 FEW030 TEMPO 0512/0521 FEW020CB
EKRN,TAF EKRN 051109Z 0512/0521 28012KT 9999 FEW020 BKN100 TEMPO 0513/0521 6000 SHRA FEW012 SCT020TCU
EKSP,TAF EKSP 051109Z 0512/0612 20008KT 9999 SCT030 TEMPO 0512/0517 5000 SHRA FEW012 SCT020CB TEMPO 0517/0521 3000 BR -SHRA BKN012 FEW020TCU BECMG 0521/0524 20015KT 7000 -RA BKN012 TEMPO 0600/0604 19015G28KT 3000 RA BKN004 BECMG 0604/0606 2500 -RA BR BKN004 TEMPO 0606/0612 7000 NSW BKN012
EKVD,TAF EKVD 050858Z 0509/0516 23012KT 9999 SCT025 TEMPO 0509/0516 SCT020CB
EKVG,TAF EKVG 051103Z 0512/0521 08008KT 9999 SCT022 BKN035 TEMPO 0512/0521 BKN008
EKYT,TAF EKYT 051109Z 0512/0612 24012KT 9999 SCT025 TEMPO 0512/0524 5000 SHRA FEW012 BKN020CB BECMG 0600/0603 17022KT 4000 RA BKN008 BECMG 0603/0606 9999 NSW BKN020 BECMG 0606/0609 23012KT TEMPO 0606/0610 6000 -SHRA BKN012
ELLX,TAF ELLX 051100Z 0512/0618 25008KT 6000 BKN005 TEMPO 0512/0522 SCT020 BECMG 0522/0524 0500 FG VV002 BECMG 0607/0610 9999 NSW FEW005
ENAL,TAF ENAL 051100Z 0512/0521 16009KT 9999 -SHRA FEW015 BKN040 TEMPO 0512/0516 SCT018CB
ENAN,ENAN 0512/0612 18008KT 9999 FEW025 BKN040 TEMPO 0603/0609 BKN008 BECMG 0608/0610 04018KT
ENAT,TAF ENAT 050500Z 0506/0514 14008KT 9999 SCT040
ENBN,TAF ENBN 051100Z 0512/0521 14012KT 9999 FEW015 BKN040 TEMPO 0512/0516 14015G25KT TEMPO 0519/0521 FEW020TCU BKN040
ENBO,ENBO 0512/0612 10012KT 9999 -RA FEW030 BKN055
ENBR,ENBR 0512/0612 17009KT 9999 -SHRA FEW010 BKN030 TEMPO 0512/0606 4000 SHRA BKN012 SCT018CB
ENCN,TAF ENCN 051100Z 0512/0521 24008KT 9999 SCT020 TEMPO 0512/0517 SCT020TCU PROB40 0517/0521 4000 SHRA BKN014 SCT020TCU
ENDU,ENDU 0512/0612 VRB03KT 9999 FEW030 BKN050 TEMPO 0609/0612 BKN014
ENEV,ENEV 0512/0612 20005KT 9999 FEW025 BKN045
ENFL,TAF ENFL 051100Z 0512/0521 16015KT 9999 -SHRA FEW020TCU BKN030 TEMPO 0512/0518 4000 SHRA BKN012CB
ENGC,ENGC 0512/0612 26015KT 9999 -SHRA FEW015 BKN025 TEMPO 0512/0521 4000 SHRA SCT018CB BECMG 0521/0523 20010KT
ENGM,ENGM 0512/0612 15008KT 9000 -SHRA BKN008 BECMG 0516/0518 FEW008 BKN018 PROB30 0522/0604 3000 BR BKN010 BECMG 0604/0606 OVC008 TEMPO 0605/0612 36010KT 3500 RA BR BKN004
ENHD,TAF ENHD 051100Z 0512/0521 24012KT 9999 -SHRA SCT015TCU BKN035 PROB40 TEMPO 0512/0515 SHRA TEMPO 0512/0515 FEW012CB BECMG 0519/0521 16012KT
ENHE,TAF ENHE 051100Z 0512/0521 18015KT 9999 BKN040 TEMPO 0512/0518 FEW020TCU PROB30 TEMPO 0512/0518 BKN012
ENHF,TAF ENHF 051100Z 0512/0516 22008KT 9999 SCT040
ENKB,TAF ENKB 050800Z 0509/0515 28005KT 9999 FEW008 BKN040 TEMPO 0509/0510 BKN014
ENKR,TAF ENKR 051100Z 0512/0521 22012KT 9999 FEW009 BKN030
ENLE,TAF ENLE 051100Z 0512/0521 22020KT 9999 -RA SCT020 BKN040 BECMG 0518/0520 BKN014 TEMPO 0519/0521 4000 RA BKN008 BECMG 0519/0521 24030KT
ENML,TAF ENML 050800Z 0509/0517 04005KT 9999 FEW005 BKN030 PROB40 0509/0512 BKN006
ENMS,TAF ENMS 050800Z 0509/0516 VRB05KT 9999 -RA FEW020 BKN040
ENNA,ENNA 0512/0612 18009KT 9999 FEW010 BKN025 BECMG 0608/0610 01010KT TEMPO 0608/0612 BKN014
ENNE,TAF ENNE 051100Z 0512/0518 15020KT 9999 FEW020 BKN040 TEMPO 0512/0518 BKN012
ENOA,ENOA 0512/0612 27015KT 9999 -SHRA SCT020 BKN050 TEMPO 0512/0606 4000 SHRA BKN014 SCT018CB BECMG 0518/0520 20012KT
ENOL,ENOL 0512/0612 14012KT 9999 FEW030 BKN070 TEMPO 0512/0524 24012KT SHRA SCT030CB
ENOV,TAF ENOV 050800Z 0509/0515 VRB03KT 9999 -SHRA FEW010 BKN040 TEMPO 0509/0515 FEW030CB
ENRY,ENRY 0512/0612 23008KT 9999 FEW010 BKN018 PROB40 TEMPO 0600/0603 4000 SHRA BKN012 FEW020TCU BECMG 0603/0605 RA SCT003 OVC012 TEMPO 0604/0606 18015G25KT 2500 RA BR OVC003 BECMG 0608/0610 NSW FEW008 BKN018
ENSB,ENSB 0512/0612 12008KT 9999 SCT030 BKN045 TEMPO 0516/0522 13018KT PROB30 0603/0612 4000 -SN VV012
ENSD,TAF ENSD 050800Z 0509/0517 VRB03KT 9999 -SHRA FEW015TCU BKN040
ENTC,ENTC 0512/0612 VRB05KT 9999 -RA BKN040 TEMPO 0603/0606 BKN012 BECMG 0605/0608 04012KT TEMPO 0606/0610 4000 RADZ VV006
ENTO,ENTO 0512/0612 24008KT 9999 SCT010 PROB40 0522/0602 4000 -RADZ BR BKN010 BECMG 0602/0604 RA SCT003 OVC012 TEMPO 0603/0608 18018G28KT 2500 RA BR OVC003 BECMG 0607/0609 NSW FEW008 SCT020
ENVA,ENVA 0512/0612 14008KT 9999 BKN080 PROB30 TEMPO 0518/0521 SHRA BKN025CB
ENZV,ENZV 0512/0612 26008KT 9999 -SHRA FEW010 BKN020 TEMPO 0512/0516 SHRA BKN012TCU BECMG 0518/0521 16012KT TEMPO 0521/0602 4000 RA BKN006 BECMG 0602/0604 23012KT
EPBY,TAF EPBY 051130Z 0512/0612 26008KT 9999 BKN025 TEMPO 0512/0518 SCT013 TEMPO 0518/0606 3000 BR PROB30 0602/0606 0800 FG BKN003
EPCE,TAF EPCE 051100Z 0512/0521 27005KT 9999 BKN012 BKN060 BECMG 0517/0519 20008KT SCT007 OVC010
EPDA,TAF EPDA 051100Z 0512/0521 28012KT CAVOK TEMPO 0512/0521 BKN020 PROB30 TEMPO 0512/0521 28012G22KT 5000 SHRA BKN015TCU BECMG 0516/0518 22012KT
EPGD,TAF EPGD 051130Z 0512/0612 28012KT 9999 SCT030 PROB40 TEMPO 0512/0516 -SHRA SCT008 BKN020TCU PROB30 0520/0606 3000 BR BKN005 BECMG 0604/0607 22010KT PROB40 TEMPO 0609/0612 22015G25KT
EPKK,TAF EPKK 051130Z 0512/0612 24008KT 7000 -RA BKN012 TEMPO 0512/0609 4000 BR BKN007 PROB30 TEMPO 0512/0603 2000 RA DZ BR BKN004 BECMG 0610/0612 BKN030
EPKS,TAF EPKS 051100Z 0512/0521 28012KT 9999 BKN015 BECMG 0516/0518 24002KT 3000 BR NSC
EPKT,TAF EPKT 051130Z 0512/0612 33008KT 7000 BKN007 TEMPO 0512/0520 4000 RA BR BKN004 TEMPO 0520/0606 1200 BR BKN003 PROB40 TEMPO 0603/0606 0700 FG BECMG 0609/0611 BKN025
EPLB,TAF EPLB 051130Z 0512/0612 12010KT 9999 SCT012 BKN025 BECMG 0513/0516 VRB02KT -RA SCT007 BKN012 TEMPO 0515/0524 2000 RADZ BR BKN004 BKN007 BECMG 0521/0524 28010KT TEMPO 0600/0609 4000 BR BKN005
EPLK,TAF EPLK 051100Z 0512/0521 28008KT 9999 SCT012 BKN020 PROB30 0518/0521 5000 BR BKN005
EPLL,TAF EPLL 051130Z 0512/0612 29010KT 9999 BKN012 BKN020 PROB40 TEMPO 0512/0518 4000 DZ BR BKN008 TEMPO 0522/0606 3000 BR BKN007 BECMG 0602/0606 VRB02KT
EPLY,TAF EPLY 050500Z 0506/0512 24008KT 6000 BR SCT007 OVC013 TEMPO 0506/0510 3000 RADZ BR OVC003
EPMB,TAF EPMB 051100Z 0512/0521 24006KT 9999 OVC015 TEMPO 0512/0515 5000 BR SCT006
EPMI,TAF EPMI 051100Z 0512/0521 27010KT 9999 SCT020 TEMPO 0517/0521 BKN014
EPMM,TAF COR EPMM 051108Z 0512/0521 14008KT 6000 RA BR BKN007 BKN012 TEMPO 0512/0515 3000 RADZ BR BKN003 BECMG 0518/0521 28004KT
EPMO,TAF EPMO 051130Z 0512/0612 13005KT 6000 -RA BKN005 OVC012 TEMPO 0512/0521 3000 RADZ BR BKN002 PROB40 TEMPO 0513/0521 1500 RADZ BR BECMG 0514/0516 30010KT BECMG 0517/0521 SCT008 BKN020 TEMPO 0521/0601 4000 BR BKN008 BECMG 0601/0604 BKN007 BKN012 PROB40 0602/0608 BKN004 BECMG 0607/0610 VRB02KT BKN012 BKN020
EPOK,TAF EPOK 051100Z 0512/0521 27012KT 9999 SCT018
EPPO,TAF EPPO 051130Z 0512/0612 31010KT 9999 BKN020 PROB30 TEMPO 0512/0515 BKN014 BECMG 0519/0521 24002KT 2500 BR BECMG 0521/0523 0300 FG BKN003 BECMG 0523/0602 0100 FG OVC001 BECMG 0607/0610 18010KT
EPPW,TAF EPPW 051100Z 0512/0521 29010KT 9999 BKN016 PROB30 0517/0521 4000 BR SCT007
EPRZ,TAF EPRZ 051130Z 0512/0612 30008KT 4000 -RA BR BKN007 TEMPO 0512/0612 1200 RA DZ BR BKN003
EPSC,TAF EPSC 051130Z 0512/0612 27010KT CAVOK BECMG 0515/0518 21005KT TEMPO 0518/0607 3000 BR BKN004 PROB40 TEMPO 0520/0606 0800 FG OVC001 TEMPO 0609/0612 19015G25KT
EPSN,TAF EPSN 051100Z 0512/0521 27012KT 9999 BKN020 BECMG 0514/0517 SCT030 BECMG 0516/0518 21006KT
EPSY,TAF EPSY 051130Z 0512/0521 14008KT 8000 BKN013 TEMPO 0512/0521 4000 -RA BR BKN008 PROB40 TEMPO 0512/0521 2000 RADZ BR BKN003 OVC006 TEMPO 0515/0521 VRB03KT
EPTM,TAF EPTM 051100Z 0512/0521 28006KT 5000 BR BKN010 PROB30 TEMPO 0512/0521 3000 DZ BR BKN004
EPWA,TAF EPWA 051130Z 0512/0612 15005KT 6000 -RA BKN007 OVC012 TEMPO 0512/0522 3000 RADZ BR BKN003 BECMG 0515/0518 30010KT BECMG 0518/0521 SCT008 BKN020 TEMPO 0521/0601 4000 BR BKN008 BECMG 0601/0604 BKN007 BKN012 PROB40 0602/0608 BKN004 BECMG 0607/0610 VRB02KT BKN012 BKN020
EPWR,TAF EPWR 051130Z 0512/0612 30012KT 9999 BKN020 TEMPO 0512/0516 BKN013 BECMG 0519/0522 27002KT 4000 BR BECMG 0522/0524 0600 FG BECMG 0600/0603 0300 FG BKN002 BECMG 0607/0610 16010KT CAVOK
EPZG,TAF EPZG 051130Z 0512/0521 27006KT 9999 SCT020 PROB40 TEMPO 0517/0521 BKN013
ESDF,TAF ESDF 051130Z 0512/0516 26005KT 9999 SCT020 PROB40 0512/0513 BKN012
ESGG,TAF ESGG 051130Z 0512/0612 23012KT 9999 BKN015 PROB40 0521/0524 BKN012 BKN015CB PROB40 0600/0603 BKN010 BECMG 0603/0605 4000 RA BKN008 TEMPO 0605/0612 8000 -RA SCT007 BKN012
ESGP,TAF ESGP 051130Z 0512/0521 22012KT 9999 SCT020 PROB40 0512/0520 BKN020CB
ESKN,TAF ESKN 051130Z 0512/0612 13010KT 9999 -RA BKN006 TEMPO 0512/0513 4000 RA SCT006 BKN015 BECMG 0513/0515 22010KT SCT030 PROB40 0600/0609 2500 BR
ESMS,TAF ESMS 051106Z 0512/0612 26012KT 9999 FEW025 TEMPO 0513/0521 FEW020CB BECMG 0603/0605 20014KT BECMG 0605/0607 RADZ BKN010 TEMPO 0607/0612 4000 -RADZ BR BKN008
ESNU,TAF ESNU 051130Z 0512/0521 17010KT 9999 OVC010 PROB40 0512/0518 4000 -DZ BKN004
ESNZ,TAF ESNZ 050830Z 0509/0512 14014KT 9999 -RA BKN012 PROB40 0509/0512 BKN008
ESPA,TAF ESPA 051130Z 0512/0520 18010KT 9999 SCT008 BKN025 TEMPO 0512/0520 BKN006
ESSA,TAF ESSA 051130Z 0512/0612 13010KT 9999 BKN025 TEMPO 0512/0518 4000 RA BKN008 BECMG 0516/0518 22008KT PROB40 0600/0610 BKN012
ESSB,TAF ESSB 051130Z 0512/0517 13010KT 9999 -RA BKN020 TEMPO 0512/0517 4000 RA BKN008
ESSL,TAF ESSL 050830Z 0509/0512 15004KT 9999 SCT006 BKN015 PROB40 0509/0511 4000 -RADZ BKN006
ESSV,TAF ESSV 051130Z 0512/0517 14011KT 9999 -RA SCT006 OVC015 PROB40 0512/0517 4000 RA BKN006 BECMG 0513/0515 24007KT
ETAD,TAF AMD ETAD 050900Z 0509/0611 24006KT 0800 FG OVC002 QNH3006INS TEMPO 0509/0511 1600 BR BKN005 BECMG 0511/0512 24009KT 6000 BR SCT020 QNH3004INS BECMG 0522/0523 20009KT 8000 BR BKN025 610604 QNH2994INS BECMG 0601/0602 VRB06KT 0400 FG BKN002 610604 QNH2991INS BECMG 0609/0610 18010G15KT 9999 NSW SCT010 BKN050 QNH2989INS TX09/0514Z TN05/0509Z
ETAR,TAF AMD ETAR 051035Z 0510/0616 26009KT 9999 BKN015 QNH3010INS BECMG 0513/0514 26009KT 9999 SCT020 QNH3010INS BECMG 0517/0518 VRB06KT 9999 BKN025 QNH3013INS BECMG 0519/0520 VRB06KT 5000 BR BKN015 QNH3003INS TEMPO 0601/0606 0800 BCFG BECMG 0608/0609 16012KT 9999 NSW SKC QNH2983INS TX11/0513Z TN04/0605Z
ETEB,TAF ETEB 041500Z 0415/0521 25006KT 9999 SCT030 BKN050 QNH2975INS BECMG 0419/0420 26006KT 8000 -SHRA BKN025 QNH2982INS TEMPO 0502/0508 5000 -RA BR OVC008 BECMG 0512/0513 31009KT 9999 NSW BKN020 QNH3005INS BECMG 0518/0519 25006KT 8000 BR BKN020 QNH3014INS TX09/0415Z TN05/0501Z LAST NO AMDS AFT 0422 NEXT 0707
ETHC,TAF ETHC 050822Z 0509/0518 23006KT 9999 NSW FEW008
ETIC,TAF ETIC 041800Z 0418/0524 VRB03KT 9999 SCT020 OVC050 QNH2976INS BECMG 0421/0422 VRB03KT 5000 BR SCT008 OVC015 QNH2984INS BECMG 0500/0501 VRB03KT 3200 BR OVC005 QNH2987INS BECMG 0508/0509 VRB03KT 9999 NSW SCT008 BKN020 QNH2999INS BECMG 0510/0511 31006KT 8000 -SHRA BKN030 QNH3001INS BECMG 0515/0516 28006KT 9999 NSW BKN030 QNH3006INS BECMG 0520/0521 VRB03KT 3200 BR BKN015 OVC025 QNH3012INS TX10/0513Z TN01/0502Z LAST NO AMDS AFT 0418 NEXT 0702
ETIK,TAF ETIK 042200Z 0422/0604 VRB06KT 9999 BKN025 OVC050 QNH2985INS TEMPO 0422/0506 8000 -SHRA BECMG 0511/0512 VRB06KT 9999 SCT020 BKN030 QNH3004INS BECMG 0518/0519 VRB06KT 9999 BKN030 OVC150 QNH3010INS BECMG 0520/0521 VRB06KT 6000 BR SCT030 BKN150 QNH3014INS BECMG 0523/0524 VRB06KT 0800 FG SCT150 QNH3010INS TX09/0512Z TN06/0504Z LAST NO AMDS AFT 0421 NEXT 0706
ETNL,TAF ETNL 051108Z 0512/0524 24008KT 9999 NSW FEW030 BY ETGL
ETNW,TAF ETNW 051131Z 0512/0612 25005KT 9999 NSW SCT250 TEMPO 0600/0612 20010KT 8000 -RA FEW025 BKN070 BY ETGL
ETOU,TAF AMD ETOU 051023Z 0510/0614 VRB06KT 9999 SCT035 BKN060 QNH3006INS BECMG 0517/0518 20006KT 9999 SCT015 BKN040 QNH3011INS BECMG 0600/0601 VRB05KT 8000 BR SCT010 SCT060 QNH3003INS TEMPO 0601/0605 5000 BR BECMG 0608/0609 16007KT 9999 NSW SCT015 QNH2988INS TX12/0512Z TN05/0604Z LAST NO AMDS AFT 0510 NEXT 0612
ETSN,TAF ETSN 051110Z 0512/0521 27005KT 9999 NSW SCT012 BKN035 TEMPO 0512/0514 29005KT 4000 SHRA SCT010 BKN013TCU PROB30 0514/0518 30005KT 4000 SHRA BKN015TCU BY ETGL
EVGA,TAF EVGA 051116Z 0512/0612 13011KT 9999 OVC013 TEMPO 0512/0517 BKN015 BECMG 0517/0519 5000 -RA BR OVC007 TEMPO 0519/0603 3000 RA BKN004 OVC007 BECMG 0521/0523 19007KT TEMPO 0603/0609 0700 DZ FG VV001
EVLA,TAF EVLA 051103Z 0512/0612 13011KT 8000 BKN006 OVC015 TEMPO 0512/0515 4000 -RA BKN010CB TEMPO 0515/0521 1000 DZ BR BKN001 OVC006 BECMG 0521/0522 22007KT BKN015 TEMPO 0522/0609 BKN010CB
EVRA,TAF EVRA 051113Z 0512/0612 12011KT 9999 OVC015 TEMPO 0512/0515 BKN010 TEMPO 0515/0520 4000 -SHRA BKN005 BKN010CB FM052000 18007KT 5000 -RA BR OVC007 TEMPO 0520/0602 2000 BKN002 OVC007 TEMPO 0602/0608 0600 DZ FG VV001 BECMG 0609/0611 9000 NSW BKN015
EYKA,TAF EYKA 051100Z 0512/0612 16010KT 9000 OVC015 BECMG 0513/0515 5000 RA BR TEMPO 0515/0520 3000 BKN005 BECMG 0520/0521 BKN005 OVC010 TEMPO 0521/0604 3000 DZ OVC005 BECMG 0604/0606 8000 NSW TEMPO 0606/0609 1500 BR OVC002
EYPA,TAF EYPA 051100Z 0512/0612 16010KT 6000 OVC010 TEMPO 0512/0515 3000 RA BR OVC005 BECMG 0515/0516 OVC005 TEMPO 0516/0520 1500 BR OVC002 BECMG 0520/0522 27010KT BKN022 TEMPO 0603/0606 SCT015CB BKN022
EYSA,TAF EYSA 051101Z 0512/0521 13016KT 9000 OVC015 BECMG 0513/0515 5000 RA BR BKN005 OVC010 TEMPO 0515/0518 3000 OVC005 TEMPO 0518/0521 1500 OVC005
EYVI,TAF EYVI 051101Z 0512/0612 14012KT 9000 BKN015 TEMPO 0512/0516 15015G25KT BECMG 0521/0523 5000 RA BR BKN005 OVC010 TEMPO 0523/0607 3000 OVC005 BECMG 0607/0609 8000 NSW BKN010
FABL,TAF FABL 051000Z 0512/0612 VRB03KT CAVOK TX27/0512Z TN12/0604Z
FACT,TAF FACT 051000Z 0512/0618 19020KT CAVOK TX29/0612Z TN15/0604Z BECMG 0601/0603 19010KT
FAEL,TAF FAEL 050900Z 0510/0519 25010KT 9999 FEW010 SCT030 TX23/0510Z TN20/0518Z BECMG 0510/0512 19013KT PROB30 TEMPO 0510/0513 6000 SHRA SCT030TCU BECMG 0516/0518 BKN020
FAGG,TAF AMD FAGG 051140Z 0512/0612 14010KT 9999 BKN010 TX22/0612Z TN16/0604Z PROB40 TEMPO 0512/0606 2000 BR BKN005 TEMPO 0512/0604 0800 FG BKN001 FM060700 10010KT 9999 SCT015
FAHS,TAF FAHS 050900Z 0510/0518 35010KT 9999 SCT030 TX35/0512Z TN25/0518Z PROB30 TEMPO 0512/0518 -TSRA FEW035CB BECMG 0516/0518 VRB03KT
FAKM,TAF FAKM 050900Z 0510/0518 VRB03KT CAVOK TX29/0512Z TN20/0518Z
FAKN,TAF FAKN 050900Z 0510/0518 03008KT 9999 SCT025 TX30/0513Z TN16/0518Z PROB30 TEMPO 0511/0518 -TSRA FEW030CB
FALA,TAF FALA 051000Z 0512/0612 33011KT 9999 SCT035 TX28/0612Z TN14/0603Z PROB40 TEMPO 0512/0521 5000 TSRA FEW030CB BECMG 0515/0517 VRB03KT PROB30 TEMPO 0603/0606 4500 BR BKN008 FM060800 05010KT 9999 BKN035
FALE,TAF FALE 051000Z 0512/0618 19015KT 9999 SCT030 TX27/0512Z TN19/0604Z PROB40 TEMPO 0514/0522 5000 TSRA BKN015 FEW035CB BECMG 0518/0520 24005KT BECMG 0609/0611 17012KT PROB30 TEMPO 0615/0618 5000 RA BKN015
FAMM,TAF FAMM 050900Z 0510/0518 35013KT 9999 SCT035 TX29/0513Z TN21/0518Z PROB30 TEMPO 0511/0517 -TSRA FEW035CB BECMG 0512/0514 28008KT
FAOR,TAF FAOR 051000Z 0512/0618 33013KT 9999 SCT030 TX26/0612Z TN13/0603Z PROB40 TEMPO 0512/0520 12013KT -TSRA FEW030CB FM052100 VRB03KT CAVOK BECMG 0602/0604 05010KT PROB30 TEMPO 0603/0606 4500 BR BKN006 FM060800 35012KT 9999 SCT030 PROB30 TEMPO 0613/0618 -TSRA FEW030CB BECMG 0615/0617 VRB03KT
FAPE,TAF FAPE 051000Z 0512/0612 18010KT 9999 SCT015 BKN030 TX24/0612Z TN16/0602Z BECMG 0516/0518 VRB03KT PROB30 TEMPO 0600/0606 3000 BR BKN008 BECMG 0606/0608 CAVOK BECMG 0610/0612 10010KT
FAPM,TAF FAPM 050900Z 0510/0521 14010KT 9999 SCT035 TX31/0512Z TN16/0521Z PROB40 TEMPO 0514/0520 5000 TSRA BKN015 FEW040CB BECMG 0517/0519 VRB03KT
FAPP,TAF AMD FAPP 050925Z 0510/0518 35008KT 9999 SCT035 TX30/0512Z TN23/0518Z PROB40 TEMPO 0512/0518 -TSRA FEW035CB BECMG 0516/0518 VRB03KT
FARB,TAF FARB 050900Z 0510/0518 35008KT CAVOK TX32/0512Z TN23/0518Z FM051300 20015KT 9999 SCT025 PROB30 TEMPO 0515/0518 5000 TSRA BKN015 FEW040CB
FAUP,TAF FAUP 051000Z 0512/0612 20010KT CAVOK TX33/0513Z TN14/0604Z
FAUT,TAF FAUT 050900Z 0510/0518 VRB03KT 9999 FEW035TCU TX24/0511Z TN17/0518Z BECMG 0510/0512 15010KT TEMPO 0512/0516 5000 SHRA SCT035TCU BECMG 0514/0516 BKN015 PROB40 TEMPO 0514/0516 4500 -TSRA BKN012 FEW035CB
FAWB,TAF FAWB 050900Z 0510/0518 33010KT 9999 SCT030 TX29/0512Z TN23/0518Z PROB30 TEMPO 0512/0518 -TSRA FEW035CB
FBKE,FBKE 050900Z 0512/0521 35010KT 9999 FEW035CB PROB30 TEMPO 0512/0516 TSRA BECMG 0517/0520 CAVOK
FBMN,FBMN 051000Z 0512/0612 35010KT 9999 FEW035CB PROB30 TEMPO 0512/0516 TSRA BECMG 0517/0519 CAVOK
FBPM,FBPM 051000Z 0512/0612 32008KT 9999 FEW035CB PROB30 TEMPO 0513/0518 TSRA BECMG 0519/0521 CAVOK
FBSK,FBSK 051000Z 0512/0618 31010KT 9999 FEW035CB BECMG 0520/0522 CAVOK BECMG 0610/0612 FEW035CB
FCBB,TAF FCBB 051100Z 0512/0618 24006KT 9999 SCT018 FEW030CB BECMG 0513/0515 TS PROB30 TEMPO 0514/0518 4000 TSRA BECMG 0518/0520 NSW SCT016
FCPP,TAF FCPP 051100Z 0512/0612 26008KT 9999 SCT016 FEW030CB PROB30 TEMPO 0515/0519 TS BECMG 0519/0521 FEW010 BKN020
FDSK,TAF FDSK 050700Z 0509/0518 03007KT 9999 SCT035 PROB30 TEMPO 0512/0517 -TSRA SCT025 FEW035CB
FEFF,TAF FEFF 051131Z 0512/0618 32007KT 9999 SCT023 FEW040CB PROB30 TEMPO 0514/0518 15015KT 4000 TSRA BECMG 0518/0520 CAVOK TEMPO 0603/0606 3000 BR BKN006
FGBT,FGBT 050500Z 0506/0606 26005KT 9999 SCT010 PROB30 TEMPO 0514/0518 4500 TSRA BKN010 FEW020CB
FGSL,TAF FGSL 050500Z 0506/0612 25005KT 9999 TS SCT010 FEW020CB BECMG 0508/0510 NSW PROB30 TEMPO 0512/0516 4500 TSRA BKN010 FEW020CB PROB40 TEMPO 0604/0608 TS BKN010 FEW020CB
FHAW,TAF FHAW 051030Z 0512/0606 13012KT 9999 FEW008 SCT018 TEMPO 0512/0606 6000 -SHRA SCT012 PROB40 TEMPO 0512/0606 4000 SHRA SCT010 PROB30 TEMPO 0520/0606 3000 SHRA DZ SCT005 BKN012
FIMP,TAF COR FIMP 051115Z 0512/0618 05012KT 9999 SCT017 TEMPO 0512/0516 7000 -SHRA BKN015 BECMG 0520/0522 VRB03KT BECMG 0604/0606 09012KT
FIMR,TAF FIMR 051120Z 0512/0606 09020G30KT 9999 SCT018 TEMPO 0518/0604 7000 -SHRA BKN015
FJDG,TAF FJDG 050900Z 0509/0615 09006KT 9999 SCT020 BKN040 QNH2994INS TEMPO 0509/0515 11010KT 8000 -SHRA BKN025 TX30/0605Z TN25/0516Z FOR MIL USE ONLY
FKKD,TAF FKKD 051100Z 0512/0618 VRB04KT 9999 BKN016 FEW020CB TEMPO 0515/0519 TS BECMG 0520/0522 BKN013 FEW016CB PROB40 0603/0607 3000 TSRA
FKKL,TAF FKKL 050500Z 0506/0518 04008KT CAVOK
FKKR,TAF FKKR 050500Z 0506/0518 07007KT CAVOK
FKYS,TAF FKYS 051100Z 0512/0612 VRB03KT 9999 BKN016 TEMPO 0514/0519 TS BKN013 FEW016CB BECMG 0520/0522 BKN006 BECMG 0608/0610 BKN016
FMCH,TAF COR FMCH 051100Z 0512/0618 12016KT 9999 FEW020 PROB40 TEMPO 0512/0515 12015G30KT BECMG 0515/0517 10005KT BECMG 0605/0607 11015KT
FMCZ,TAF FMCZ 051100Z 0512/0612 06012KT 9999 SCT023
FMEE,TAF FMEE 051100Z 0512/0618 34010KT 9999 FEW080 BECMG 0518/0520 16005KT PROB30 TEMPO 0523/0606 3000 SHRA SCT020TCU BECMG 0606/0608 08010KT
FMEP,TAF FMEP 051100Z 0512/0521 31012KT 9999 BKN055 BECMG 0514/0516 01006KT
FMMI,TAF FMMI 051100Z 0512/0618 08007KT 9999 BKN020CB PROB30 TEMPO 0514/0519 4500 TSRA BECMG 0519/0521 FEW017 SCT020 BECMG 0607/0609 BKN020CB PROB40 TEMPO 0613/0618 3500 TSRA
FMMS,TAF FMMS 051100Z 0512/0612 VRB05KT 9999 BKN017TCU
FMMT,TAF FMMT 051100Z 0512/0612 08012KT 9999 SCT017TCU BECMG 0518/0520 00000KT PROB30 TEMPO 0600/0606 4500 SHRA BECMG 0607/0609 08010KT
FMNA,TAF FMNA 051100Z 0512/0612 14008KT 9999 SCT020
FMNM,TAF FMNM 051100Z 0512/0612 VRB05KT 9999 FEW010 SCT020CB BKN040 PROB40 TEMPO 0512/0514 4500 TSRA PROB40 TEMPO 0600/0607 4000 TSRA
FMNN,TAF FMNN 051100Z 0512/0612 VRB05KT 9999 SCT020 PROB30 TEMPO 0518/0524 4500 SHRA
FMSD,TAF FMSD 051100Z 0512/0612 08024G34KT 9999 FEW023 BECMG 0518/0520 08014KT
FMST,TAF FMST 051100Z 0512/0612 30012KT 9999 SCT023CB BECMG 0516/0518 36006KT SCT020 BECMG 0607/0609 30012KT
FNBG,TAF FNBG 051100Z 0512/0524 28010KT 9999 FEW015 SCT020
FNCA,TAF FNCA 051100Z 0512/0524 25007KT 8000 BKN015 FEW023CB OVC025 BECMG 0512/0515 DZ TEMPO 0518/0523 19005KT
FNCT,TAF FNCT 051100Z 0512/0524 27010KT 9999 FEW012 SCT020
FNDU,TAF FNDU 051100Z 0512/0524 VRB03KT 8000 BKN018 FEW030CB BECMG 0513/0516 -RA
FNGI,TAF FNGI 051100Z 0512/0524 21010KT 9999 SCT020
FNHU,TAF FNHU 051100Z 0512/0524 VRB03KT 8000 SCT018 PROB30 TEMPO 0515/0522 4000 TSRA BKN015 FEW020CB
FNKU,TAF FNKU 051100Z 0512/0524 VRB03KT 8000 BKN020 FEW033CB PROB30 TEMPO 0513/0517 4000 TSRA
FNLU,TAF FNLU 051100Z 0512/0618 27008KT 9000 SCT015 BKN020 PROB40 TEMPO 0513/0517 DZ FEW025CB BECMG 0521/0523 VRB03KT
FNMA,TAF FNMA 051100Z 0512/0524 29004KT 8000 SCT015 FEW018CB OVC033 PROB30 TEMPO 0513/0519 4000 -TS RA
FNME,TAF FNME 051100Z 0512/0524 07005KT 8000 SCT025 TEMPO 0513/0515 VRB03KT -TS DZ FEW025CB
FNMO,TAF FNMO 051100Z 0512/0524 24011KT 9999 FEW020 BECMG 0522/024 SCT030
FNSA,TAF FNSA 051100Z 0512/0524 VRB03KT 7000 SCT020 OVC028 FEW032CB BECMG 0513/0516 TSRA FEW023CB
FNSO,TAF FNSO 051100Z 0512/0524 25007KT 8000 BKN010 FEW016CB OVC030 BECMG 0512/0515 4000 -RA PROB30 TEMPO 0518/0523 19005KT
FNUB,TAF FNUB 051100Z 0512/0524 VRB03KT 9999 SCT018 SCT040
FNUE,TAF FNUE 051100Z 0512/0524 VRB03KT 9000 SCT025 BECMG 0513/0516 -TSRA FEW028CB OVC030
FOOG,TAF FOOG 051100Z 0512/0612 20011KT 9999 SCT010 BKN030 PROB40 TEMPO 0512/0519 4000 TSRA BKN008 FEW020CB OVC026
FOOL,TAF FOOL 051100Z 0512/0618 24008KT 8000 SCT012 BKN030 PROB40 TEMPO 0512/0518 4000 TSRA BKN010 FEW020CB TEMPO 0523/0606 3000 TSRA BKN008 FEW018CB OVC026
FQBR,TAF FQBR 051000Z 0512/0618 13009KT 9999 BKN018 TX32/0513Z TN25/0603Z BECMG 0604/0606 03007KT BECMG 0612/0614 10012KT
FQCH,TAF FQCH 051000Z 0512/0612 06005KT 9999 BKN015 TX33/0513Z TN19/0603Z PROB30 TEMPO 0512/0518 5000 -RADZ SCT010 BECMG 0521/0523 VRB02KT BECMG 0606/0608 12008KT
FQIN,TAF FQIN 051000Z 0512/0612 06012KT 9999 SCT020 TX31/0513Z TN24/0603Z BECMG 0521/0523 35007KT BECMG 0606/0608 VRB03KT
FQLC,TAF FQLC 051000Z 0512/0612 08014KT 9999 BKN020 TX30/0513Z TN15/0603Z BECMG 0519/0521 02007KT
FQMA,TAF FQMA 051000Z 0512/0618 03011KT 9999 SCT025 TX34/0513Z TN22/0603Z PROB30 TEMPO 0512/0518 4000 TSRA BKN020 FEW025CB BECMG 0515/0517 20015G30KT BKN020 BECMG 0522/0524 18010KT BECMG 0603/0605 24007KT BECMG 0612/0614 15010KT
FQNC,TAF FQNC 051000Z 0512/0618 07012KT 9999 SCT020 TX30/0513Z TN25/0603Z BECMG 0521/0523 01010KT BECMG 0612/0614 07014KT
FQNP,TAF FQNP 051000Z 0512/0612 03012KT 9999 FEW020 TX35/0513Z TN21/0603Z BECMG 0600/0602 VRB03KT BECMG 0606/0608 07008KT
FQPB,TAF FQPB 051000Z 0512/0612 05013KT 9999 FEW020 TX30/0513Z TN24/0603Z BECMG 0518/0520 35007KT BECMG 0522/0524 VRB02KT
FQQL,TAF FQQL 051000Z 0512/0612 05009KT 9999 SCT020 TX34/0513Z TN24/0603Z BECMG 0518/0520 11010KT
FQTT,TAF FQTT 051000Z 0512/0612 12005KT 9999 BKN020 TX40/0513Z TN24/0603Z PROB30 TEMPO 0512/0518 5000 -RADZ SCT012 BECMG 0522/0524 18005KT BECMG 0606/0608 10012KT
FQVL,TAF FQVL 051000Z 0512/0612 07008KT 9999 SCT020 TX30/0513Z TN23/0603Z BECMG 0521/0523 01007KT
FQXA,TAF FQXA 051000Z 0512/0612 01006KT 9999 SCT020 TX33/0513Z TN22/0603Z PROB30 TEMPO 0517/0523 5000 -TSRA SCT015 FEW020CB BECMG 0521/0523 17010KT BECMG 0606/0608 19010KT
FSIA,TAF FSIA 051103Z 0512/0612 VRB03KT 9999 FEW022
FTTJ,TAF FTTJ 051100Z 0512/0618 02010KT 8000 NSC TEMPO 0516/0521 32006KT
FWCL,TAF FWCL 050900Z 0512/0618 11007KT 9999 SCT030 BECMG 0512/0514 09004KT 9999 BKN035 BECMG 0515/0517 10008KT 9999 FEW035 SCT080 FM051800 09008KT CAVOK BECMG 0606/0608 07012KT 9999 FEW020 BECMG 0609/0611 06006KT 9999 SCT025 BECMG 0612/0614 06006KT 9999 BKN030 BECMG 0615/0617 16008KT 9999 FEW030 BKN080
FWKI,TAF FWKI 051000Z 0512/0618 08012KT 9999 SCT035 BECMG 0512/0514 SCT038 FM051500 07005KT CAVOK BECMG 0606/0608 07012KT 9999 SCT025 BECMG 0610/0612 SCT030 FM061500 07006KT CAVOK
FYGF,TAF FYGF 051100Z 0512/0521 16005KT 9999 FEW040CB BECMG 0516/0518 00000KT NSC
FYKM,TAF FYKM 051100Z 0512/0521 06008KT 9999 FEW030CB BECMG 0517/0519 00000KT NSC
FYLZ,TAF FYLZ 051100Z 0512/0521 22015KT CAVOK
FYOA,TAF FYOA 050800Z 0509/0518 17005KT CAVOK
FYRU,TAF FYRU 051100Z 0512/0521 05005KT 9999 SCT045 BECMG 0517/0519 00000KT NSC
FYWB,TAF FYWB 051000Z 0512/0612 27004KT CAVOK BECMG 0519/0521 9999 BKN015
FYWE,TAF FYWE 051100Z 0512/0521 32012KT CAVOK
FYWH,TAF FYWH 051000Z 0512/0612 00000KT CAVOK BECMG 0512/0514 29018KT 9999 SCT045 BECMG 0514/0516 FEW040TCU SCT045 BECMG 0517/0518 NSC
FZAA,TAF FZAA 050500Z 0506/0612 18004KT 7000 SCT016 PROB30 TEMPO 0510/0514 4000 TSRA SCT014 FEW028CB BECMG 0515/0517 34010KT SCT020 FEW030CB PROB30 TEMPO 0518/0522 TS BECMG 0602/0604 09004KT FEW016
FZIC,TAF FZIC 041100Z 0412/0518 28008KT 8000 SCT026 FEW034CB TEMPO 0414/0419 TS BECMG 0417/0419 00000KT NSC BECMG 0500/0502 2000 BR FM 050600 22006KT 8000 BKN010 BECMG 0509/0511 SCT024 FEW034CB
FZNA,TAF FZNA 050500Z 0506/0612 18006KT 7000 SCT016 FEW020CB TEMPO 0510/0516 -TSRA BECMG 0517/0519 SCT014 BECMG 0607/0609 SCT016 FEW020CB
FZQA,TAF FZQA 041100Z 0412/0518 34008KT 9999 BKN028 BECMG 0420/0422 17010KT SCT030TCU FEW032CB PROB30 TEMPO 0502/0504 00000KT 8000 -TSRA BECMG 0506/0508 20008KT 7000 SCT016
GABS,TAF GABS 051100Z 0512/0618 06010G20KT 8000 NSC PROB40 TEMPO 0517/0522 4500 HZ PROB40 TEMPO 0606/0610 4000 HZ
GAGO,TAF GAGO 051100Z 0512/0612 10010G20KT 8000 NSC PROB40 TEMPO 0512/0516 09015G25KT 4500 BLDU PROB40 TEMPO 0608/0612 08016G26KT 4000 BLDU
GBYD,TAF GBYD 051100Z 0512/0618 36006KT CAVOK
GCFV,TAF GCFV 050800Z 0509/0609 05012KT 9999 FEW025 TX25/0514Z TN21/0606Z
GCGM,TAF GCGM 050800Z 0509/0609 24005KT 9999 FEW020 TX24/0514Z TN19/0606Z PROB40 TEMPO 0513/0517 13010KT
GCHI,TAF GCHI 050800Z 0509/0609 03012KT 9999 BKN025 TX25/0514Z TN21/0606Z PROB40 TEMPO 0511/0518 12005KT PROB30 TEMPO 0520/0606 DZ
GCLA,TAF GCLA 050800Z 0509/0609 03010KT 9999 BKN025 TX25/0514Z TN21/0606Z PROB40 TEMPO 0509/0511 33009KT PROB30 TEMPO 0511/0520 DZ BECMG 0519/0521 33008KT
GCLP,TAF GCLP 050800Z 0509/0609 03016KT 9999 SCT025 TX25/0514Z TN20/0606Z
GCRR,TAF GCRR 050800Z 0509/0609 07012KT 9999 FEW025 TX25/0514Z TN19/0606Z BECMG 0519/0521 01007KT
GCTS,TAF GCTS 050800Z 0509/0609 09018KT 9999 FEW025 TX26/0514Z TN20/0606Z TEMPO 0509/0511 03010KT BECMG 0520/0522 03012KT
GCXO,TAF COR GCXO 050832Z 0509/0609 35005KT 9999 BKN012 TX23/0514Z TN14/0606Z TEMPO 0509/0512 2500 BCFG BKN006 TEMPO 0511/0516 08010KT PROB40 TEMPO 0518/0524 2500 DZ BCFG BKN007 PROB40 TEMPO 0600/0609 1500 DZ BCFG BKN003
GECE,TAF GECE 050800Z 0509/0609 VRB02KT 9999 SCT025 TX22/0513Z TN18/0606Z PROB30 TEMPO 0509/0515 32010KT PROB40 TEMPO 0519/0609 3000 BR BKN005 PROB30 TEMPO 0521/0607 0800 FG VV002
GEML,TAF GEML 051100Z 0512/0612 30013KT 9999 FEW020 TX24/0514Z TN18/0606Z BECMG 0517/0519 24005KT
GGOV,TAF GGOV 051100Z 0512/0612 VRB05KT 8000 NSC PROB30 TEMPO 0605/0608 1400 BR
GMAD,TAF GMAD 051100Z 0512/0618 00000KT 5000 SCT005 BECMG 0514/0516 27010KT FEW030
GMAG,TAF GMAG 051100Z 0512/0618 04004KT 8000 NSC
GMFF,TAF GMFF 051100Z 0512/0618 02006KT CAVOK
GMFK,TAF GMFK 051100Z 0512/0618 12005KT CAVOK
GMFM,TAF GMFM 051100Z 0512/0618 VRB04KT CAVOK
GMFO,TAF GMFO 051100Z 0512/0618 33016KT 9999 SCT033 SCT230 BECMG 0520/0522 VRB02KT 8000 NSC PROB30 TEMPO 0602/0609 1500 BR BKN006
GMME,TAF GMME 051100Z 0512/0618 03009KT 6000 SCT013 SCT016 TEMPO 0520/0608 VRB02KT 3000 BR BKN008
GMMH,TAF GMMH 051100Z 0512/0618 03016KT CAVOK
GMMI,TAF GMMI 051100Z 0512/0618 02004KT 8000 NSC
GMML,TAF GMML 051100Z 0512/0618 05014KT 8000 NSC PROB30 0522/0606 4000 BR BKN010
GMMN,TAF GMMN 051100Z 0512/0618 04012KT CAVOK BECMG 0518/0522 04006KT 8000 SCT016 PROB30 TEMPO 0600/0608 3000 BR BKN010 BECMG 0609/0612 02010KT CAVOK
GMMW,TAF GMMW 051100Z 0512/0618 29004KT CAVOK
GMMX,TAF GMMX 051100Z 0512/0618 08008KT 8000 NSC
GMMZ,TAF GMMZ 051100Z 0512/0618 VRB02KT CAVOK TEMPO 0516/0522 18015KT
GMTA,TAF GMTA 051100Z 0512/0618 35007KT CAVOK
GMTT,TAF GMTT 051100Z 0512/0618 31007KT 7000 FEW010
GOBD,TAF GOBD 051100Z 0512/0618 06010KT CAVOK
GOGS,TAF GOGS 051100Z 0512/0612 04004KT CAVOK
GOOY,TAF GOOY 051100Z 0512/0618 04012KT CAVOK
GOSS,TAF GOSS 051100Z 0512/0612 04004KT CAVOK
GQNO,TAF GQNO 051100Z 0512/0618 09012KT 8000 NSC BECMG 0516/0519 02008KT BECMG 0606/0609 08012KT
GQPP,TAF GQPP 051100Z 0512/0612 04012KT 8000 NSC BECMG 0515/0518 33010KT BECMG 0607/0610 05012KT
GVAC,TAF GVAC 051100Z 0512/0618 04012KT 9999 FEW013
GVBA,TAF GVBA 051100Z 0512/0618 04011KT 9999 FEW014
GVNP,TAF GVNP 051100Z 0512/0618 03012KT CAVOK
GVSV,TAF GVSV 051100Z 0512/0618 05016KT 9999 FEW020
HAAB,TAF HAAB 050930Z 0512/0618 14009KT 9999 FEW030 FEW090 BECMG 0512/0516 09006KT CA VOK
HABD,TAF HABD 040930Z 0412/0518 32007KT 9999 FEW025 FEW070 
HADC,TAF HADC 040930Z 0412/0518 06005KT 9999 FEW025 SCT090
HADR,TAF HADR 050930Z 0512/0618 32007KT CAVOK
HAGN,TAF HAGN 040930Z 0412/0518 36006KT 9999 FEW025 SCT090
HAJJ,TAF HAJJ 040930Z 0412/0518 06007KT 9999 -HZ SCT025 SCT080
HALA,TAF HALA 040930Z 0412/0518 34008KT 9999 FEW025 SCT090
HBBA,TAF HBBA 041100Z 0412/0518 18012G25KT 9000 FEW30 SCT100 BKN100 PROB40 TEMPO 0414/0420 09010G25KT 7000 TSRA OR SHRA FEW025CB SCT080 B KN100 BECMG 0502/0504 36004KT 9999 FEW025 SCT100 BECMG 0508/0510 18009G20KT 9999 FEW030 SCT100
HCMM,TAF HCMM 050500Z 0506/0612 13010KT 9999 SCT022 BECMG 0522/0601 15005KT BKN018 BECMG 0608/0611 12010KT SCT023
HDAM,TAF HDAM 051100Z 0512/0612 07012KT 9999 SCT023 BECMG 0515/0521 VRB06KT SCT020 BECMG 0600/0606 12005KT 9000 HZ BKN020 SCT030
HEAL,TAF HEAL 051100Z 0512/0618 32010KT 9999 SCT020 BECMG 0517/0519 13011KT BECMG 0604/0606 23013KT
HEAR,TAF HEAR 051100Z 0512/0618 35012KT 9999 SCT025
HEAT,TAF HEAT 051100Z 0512/0618 32010KT CAVOK
HEAX,TAF HEAX 051100Z 0512/0618 30009KT 9999 SCT020 TEMPO 0522/0608 VRB03KT
HEBA,TAF HEBA 051100Z 0512/0618 31010KT 9999 SCT020 TEMPO 0522/0608 VRB03KT
HEBL,TAF HEBL 051100Z 0512/0618 01008KT CAVOK
HECA,TAF HECA 051100Z 0512/0618 36008KT 9999 SCT025
HEGN,TAF HEGN 051100Z 0512/0618 01014KT CAVOK
HELX,TAF HELX 051100Z 0512/0618 34006KT CAVOK
HEMA,TAF HEMA 051100Z 0512/0618 36015KT CAVOK
HEMM,TAF HEMM 051100Z 0512/0618 32010KT 9999 SCT020 BECMG 0517/0519 13011KT BECMG 0604/0606 23013KT
HEOW,TAF HEOW 051100Z 0512/0618 01008KT CAVOK
HEPS,TAF HEPS 051100Z 0512/0618 02010KT 9999 SCT025
HESC,TAF HESC 051100Z 0512/0618 01010KT CAVOK
HESG,TAF HESG 051100Z 0512/0618 32010KT CAVOK
HESH,TAF HESH 051100Z 0512/0618 02012KT CAVOK
HESN,TAF HESN 051100Z 0512/0618 01008KT CAVOK
HETB,TAF HETB 051100Z 0512/0618 34014KT CAVOK
HETR,TAF HETR 051100Z 0512/0618 30015KT CAVOK
HKEL,TAF HKEL 050500Z 0506/0612 12010KT 9999 FEW020CB PROB30 TEMPO 0513/0517 -TSRA FEW022CB SCT023 BKN080 BECMG 0520/0523 VRB02KT CAVOK BECMG 0606/0610 12010KT 9999 FEW018CB SCT019
HKJK,TAF HKJK 050500Z 0506/0612 09010KT 9999 BKN026 BECMG 0520/0523 BKN020 BECMG 0602/0605 VRB02KT FEW008 BKN016 BECMG 0608/0611 09010KT BKN026
HKKI,TAF HKKI 050500Z 0506/0612 24010KT 9999 FEW022CB SCT024 PROB40 TEMPO 0514/0518 -TSRA FEW020CB SCT021 BKN080 BECMG 0520/0523 07005KT CAVOK BECMG 0608/0611 24010KT 9999 FEW024CB SCT026
HKML,TAF HKML 051100Z 0512/0612 15010KT 9999 FEW024 TEMPO 0600/0604 00000KT -SHRA SCT020 BKN080 BECMG 0609/0612 12010KT NSW FEW022
HKMO,TAF HKMO 051100Z 0512/0618 12010KT 9999 FEW027 TEMPO 0600/0604 00000KT -SHRA SCT020 BKN080 BECMG 0609/0612 13010KT NSW FEW026
HLGD,TAF HLGD 050500Z 0506/0605 18012KT 8000 FEW025 BECMG 0512/0514 23014KT
HLGT,TAF HLGT 050500Z 0506/0605 VRB02KT CAVOK
HLKF,TAF HLKF 050500Z 0506/0605 VRB02KT CAVOK
HLLB,TAF HLLB 050500Z 0506/0605 14012KT 8000 SCT025 BECMG 0515/0517 20014KT
HLLM,TAF HLLM 050500Z 0506/0605 24012KT 8000 FEW030 SCT090 BECMG 0512/0514 32014KT 8000 SCT025 SCT070 PROB 30 TEMPO 0506/0518 5000 -SHRA BKN025
HLLQ,TAF HLLQ 050500Z 0506/0605 VRB02KT 8000 SCT020 BECMG 0512/0514 20012KT
HLLS,TAF HLLS 050500Z 0506/0605 VRB02KT CAVOK
HLMS,TAF HLMS 050500Z 0506/0605 24012KT 8000 FEW030 SCT090 BECMG 0513/0515 30014KT 8000 SCT025 SCT080 PROB 30 TEMPO 0506/0518 5000 -SHRA BKN025
HLON,TAF HLON 050500Z 0506/0605 VRB02KT CAVOK
HLTD,TAF HLTD 050500Z 0506/0605 VRB02KT CAVOK
HLTQ,TAF HLTQ 050500Z 0506/0605 VRB02KT 8000 NSC BECMG 0509/0511 18012KT
HLUB,TAF HLUB 050500Z 0506/0605 VRB02KT CAVOK
HRYR,TAF HRYR 051100Z 0512/0618 07010G20KT 8000 TSRA FEW023CB BKN025 BECMG 0518/0521 27006KT 9999 NSW SCT026 BKN100 BECMG 06020605 00000KT 6000 BECMG 0607/0609 008008KT 9999 BKN023 TEMPO 0611/0615 09010G20KT FEW023CB BKN025
HRZA,TAF HRZA 051100Z 0512/0618 10004KT 9999 FEW023CB BKN025 BECMG 0512/0514 18006KT -TSRA BECMG 0518/0520 25004KT BKN025 BECMG 0520/0522 -RA FM 060100 00000KT SCT025 TEMPO 0607/0610 31004KT BECMG 0612/0616 15008KT -TSRA FEW023CB BKN025
HSSJ,TAF HSSJ 051100Z 0512/0618 09006KT 9999 FEW140 SCT030 TEMPO 0515/0521 VRB03KT 9999 FEW140 SCT030
HSSK,TAF HSSK 050500Z 0506/0612 36011G20KT CAVOK
HSSM,TAF HSSM 051100Z 0512/0618 36003KT 9999 FEW040 SCT030 TEMPO 0514/0520 03005KT 9999 FEW140 SCT040
HTAR,TAF HTAR 050500Z 0506/0606 12015KT 9999 SCT036
HTDA,TAF HTDA 050500Z 0506/0612 18005KT 9999 SCT013 BKN080 BECMG 0510/0513 08010KT BKN033
HTDO,TAF HTDO 050500Z 0506/0606 09018KT 9999 FEW019 20/16 Q1018 NOSIG
HTKA,TAF HTKA 050500Z 0507/0606 12008KT 9999 FEW022 FEW023CB BKN080 PROB40 BECMG 0506/0511 33012KT -TSRA
HTKJ,TAF HTKJ 050500Z 0506/0606 09010KT 9999 SCT032
HTMW,TAF HTMW 050500Z 0506/0606 12010KT 9999 TSRA BKN020 FEW021CB BECMG 0511/0513 33010KT NSW SCT024 FEW025CB
HTTB,TAF HTTB 050500Z 0506/0606 12010KT 9999 FEW024 BECMG 0510/0514 BKN027
HTZA,TAF HTZA 050500Z 0506/0606 09010KT 9999 SCT018 BECMG 0518/0520 00000KT
HUEN,TAF HUEN 050500Z 0506/0612 34008KT 9999 FEW027 TEMPO 0509/0511 18006KT -RA FEW025 FEW028CB SCT100 BECMG 0512/0518 18005KT
HUSO,TAF HUSO 051100Z 0512/0612 08007KT 9999 SCT021 FEW023CB FM 051500 VRB06KT FEW020 FEW022CB BECMG 0602/0606 34004KT FEW019 BECMG 0608/0612 09006KT SCT021 FEW023CB
KABE,KABE 051127Z 0512/0612 VRB05KT P6SM FEW020 BKN040 FM051500 18010G20KT P6SM SCT040 FM052200 18011KT P6SM BKN050
KABI,KABI 051120Z 0512/0612 23006KT P6SM SKC FM051800 22014G20KT P6SM SKC FM060000 19010KT P6SM SKC
KABQ,KABQ 051125Z 0512/0612 36006KT P6SM FEW250 FM051700 30012KT P6SM SCT250 FM060100 33006KT P6SM SCT250
KABR,KABR 051124Z 0512/0612 VRB05KT P6SM SKC FM051500 16009KT P6SM SKC FM051800 18012KT P6SM OVC070 FM060600 25018G26KT P6SM SCT250
KABY,KABY 051120Z 0512/0612 00000KT 5SM BR SCT003 FM051300 10004KT 2SM BR BKN003 FM051400 14007KT P6SM SCT250 FM060000 00000KT P6SM SCT250 FM060900 00000KT 3SM BR SCT002
KACK,KACK 051120Z 0512/0612 20012KT P6SM BKN150 FM051500 20013G20KT P6SM SCT250 FM052200 18011KT P6SM SCT070
KACT,KACT 051120Z 0512/0612 32007KT P6SM SKC FM051800 19007KT P6SM SKC FM060200 16010KT P6SM SKC
KACV,KACV 051128Z 0512/0612 18010G18KT 1SM +RA BR OVC005 WS015/25035KT TEMPO 0512/0516 3SM RA BR BKN005 OVC010 FM051600 34007KT 5SM -SHRA BR SCT010 OVC020 FM051900 32005KT P6SM VCSH SCT020 SCT120 FM060300 VRB03KT P6SM FEW030 SCT120
KACY,KACY 051127Z 0512/0612 16005KT P6SM FEW040 FM051400 17011KT P6SM SCT040
KADF,KADF 051120Z 0512/0612 25010KT P6SM SCT020 TEMPO 0512/0514 BKN020 FM051400 27008KT P6SM SCT040 BKN080 FM051800 26009KT P6SM SCT040 FM060000 18006KT P6SM SCT050 FM060600 14005KT P6SM SKC
KADW,TAF AMD KADW 051020Z 0510/0615 19006KT 9999 SKC QNH3022INS BECMG 0514/0515 17010G18KT 9999 SCT020 BKN040 QNH3022INS BECMG 0516/0517 18015G25KT 9999 SCT020 SCT040 BKN250 510033 QNH3014INS BECMG 0521/0522 15009KT 9999 BKN020 BKN040 QNH3012INS BECMG 0608/0609 18006KT 8000 BR VCSH FEW005 BKN010 OVC020 QNH3015INS BECMG 0614/0615 18012G18KT 9999 NSW SCT010 BKN020 510033 QNH3020INS TX24/0520Z TN16/0510Z
KAEG,KAEG 051125Z 0512/0612 30006KT P6SM FEW250 FM051700 28015G22KT P6SM SCT250 FM060100 30007KT P6SM SCT250
KAEX,KAEX 051140Z 0512/0612 VRB05KT P6SM OVC090 FM051700 VRB05KT P6SM FEW250
KAFF,TAF KAFF 051110Z 0511/0617 VRB06KT 9999 SCT150 560109 QNH2964INS ROTOR CONDS EXISTS TEMPO 0511/0515 27015G25KT BECMG 0515/0516 27025G35KT 9999 BKN150 BKN250 530009 QNH2958INS TEMPO 0517/0522 28035G50KT 560009 BECMG 0523/0524 VRB06KT 9999 OVC250 520209 QNH2962INS ROTOR CONDS EXIST BECMG 0608/0609 VRB06KT 9999 FEW060 OVC300 520109 QNH2974INS ROTOR CONDS EXIST BECMG 0611/0612 27012KT 9999 FEW040 BKN070 520003 530309 QNH2979INS WND 090V330 BECMG 0615/0616 14010G20KT 9999 FEW100 QNH2987INS TX15/0522Z TNM07/0610Z
KAFW,KAFW 051120Z 0512/0612 29008KT P6SM SKC FM051800 18009KT P6SM SKC FM060100 15011KT P6SM SKC
KAGC,KAGC 051140Z 0512/0612 16006KT P6SM BKN250 WS020/20035KT FM051400 17009G18KT P6SM SCT130 FM051800 18015G25KT P6SM BKN110 FM060700 21007KT 6SM -SHRA BR BKN050 FM061100 22005KT 5SM -SHRA BR BKN035
KAGS,KAGS 051132Z 0512/0612 VRB03KT 5SM BR SCT007 TEMPO 0512/0514 1SM BR OVC003 FM051400 13006KT P6SM SCT007 BKN030 FM051700 15009KT P6SM -SHRA SCT030 BKN050 FM060000 VRB04KT P6SM SCT015 BKN150
KAHN,KAHN 051129Z 0512/0612 10006KT 5SM BR BKN003 TEMPO 0512/0514 2SM -DZ BR OVC002 FM051500 13008KT P6SM SCT010 BKN015 FM051700 15007KT P6SM VCSH SCT035 BKN250 FM052300 11003KT P6SM BKN150 FM060600 11003KT 5SM BR BKN005 FM061000 10004KT 1SM BR BKN002
KAIA,KAIA 051120Z 0512/0612 26015KT P6SM SKC FM051600 27020G30KT P6SM SCT200 FM051800 27030G40KT P6SM FEW200 FM052100 28030G45KT P6SM BKN150 FM060100 29025G35KT P6SM OVC100 FM060300 31015KT P6SM OVC100
KALB,KALB 051135Z 0512/0612 15010KT P6SM SCT020 BKN050 WS020/22035KT FM051400 17012G18KT P6SM SCT020 OVC035 FM051800 18014G22KT P6SM BKN040 FM060200 18015G27KT P6SM BKN050
KALI,KALI 051134Z 0512/0612 35007KT P6SM BKN050 BKN070 FM051600 02010KT P6SM SCT060 FM052000 05008KT P6SM FEW250 FM060200 12006KT P6SM SKC FM060800 VRB03KT P6SM BKN015
KALO,KALO 051147Z 0512/0612 33014KT 4SM -SHRA BR SCT006 OVC022 TEMPO 0512/0516 3SM -SHRA BR BKN006 FM051700 29018G26KT 3SM -SHRA BR OVC006 FM051900 27019G30KT 5SM SHRA BR OVC008 FM052000 26019G28KT P6SM BKN010 FM052200 24014G24KT P6SM FEW200
KALS,KALS 051120Z 0512/0612 21008KT P6SM SCT200 FM051800 18010KT P6SM SCT200 FM052200 27012G22KT P6SM SCT200 FM060200 20008KT P6SM SCT200
KALW,KALW 051120Z 0512/0612 23021G30KT P6SM BKN060 OVC120 FM052300 23013G21KT P6SM BKN060 FM060700 18011KT P6SM BKN100
KAMA,KAMA 051120Z 0512/0612 25008KT P6SM FEW250 FM051800 22014KT P6SM SKC FM060500 25012KT P6SM FEW250 FM061100 28011KT P6SM SKC
KANB,KANB 051140Z 0512/0612 05007KT P6SM SCT017 BKN240 FM051400 13011G22KT P6SM BKN220 FM051600 16011G22KT P6SM VCSH BKN090 FM051800 20009KT 6SM SHRA BR BKN090 PROB30 0521/0524 4SM -SHRA BR OVC025 FM060200 16005KT P6SM OVC230 FM060400 VRB03KT P6SM BKN240
KAND,KAND 051124Z 0512/0612 10005KT P6SM VCSH OVC005 FM051600 15008KT P6SM VCSH OVC018 TEMPO 0516/0520 4SM -SHRA BR OVC015 FM052000 17006KT P6SM OVC040 PROB30 0521/0603 4SM -SHRA BR OVC025 FM060300 13007KT P6SM OVC020 FM060600 12004KT P6SM OVC006
KAOO,KAOO 051120Z 0512/0612 15005KT P6SM BKN014 BKN020 WS018/20038KT FM051400 18010G18KT P6SM VCSH OVC020 FM060500 20013G20KT P6SM OVC025
KAPA,KAPA 051120Z 0512/0612 21008KT P6SM FEW080 SCT120 BKN200 FM051600 25012G18KT P6SM FEW080 BKN120 FM052000 34012G18KT P6SM FEW080 SCT120 BKN220 FM060200 23012KT P6SM FEW080 SCT150 BKN220 FM060900 05010KT P6SM BKN080 BKN150
KAPC,KAPC 051120Z 0512/0612 VRB03KT P6SM BKN008 FM051600 VRB04KT P6SM BKN015 FM052300 VRB06KT P6SM VCSH OVC020 TEMPO 0601/0605 6SM -RA BR OVC015 FM060800 23008KT P6SM FEW015 OVC100
KAPF,KAPF 051120Z 0512/0612 05005KT P6SM SKC FM051400 06007KT P6SM SCT045 FM060100 07005KT P6SM SKC FM060700 06004KT P6SM BKN250
KAPN,KAPN 051125Z 0512/0612 16007KT 6SM -SHRA BR OVC060 WS020/21040KT FM051700 18016G37KT P6SM VCSH OVC035 WS020/20045KT FM060200 22020G44KT P6SM BKN027 WS020/21050KT FM060500 23017G39KT P6SM BKN027 WS020/23045KT FM061100 21007KT P6SM BKN250
KARA,KARA 051140Z 0512/0612 34015G27KT 3SM RA BR SCT009 BKN025 FM051400 01010KT 4SM -RA BR BKN035 FM051600 01006KT P6SM BKN090 FM051800 VRB05KT P6SM BKN120 FM060500 00000KT 4SM BR BKN007 FM060900 00000KT 3SM BR OVC003
KART,KART 051120Z 0512/0612 19012G21KT P6SM BKN250 FM051800 18015G26KT P6SM BKN250 FM060000 18022G39KT P6SM SCT080 FM060800 19021G37KT P6SM VCSH OVC045 FM060900 20020G33KT 4SM SHRA BR OVC035
KASD,KASD 051122Z 0512/0612 13012KT P6SM VCSH OVC015 TEMPO 0514/0516 VRB20G30KT 1SM TSRA BR OVC010CB FM051600 27008KT 2SM +SHRA BR VCTS OVC010CB FM051800 24006KT P6SM SHRA OVC015 FM052100 VRB04KT P6SM OVC015 FM060300 VRB03KT 2SM BR OVC007
KASE,KASE 051124Z 0512/0612 VRB03KT P6SM BKN045 OVC070 FM051400 23005KT P6SM OVC050 FM051800 31008KT P6SM OVC040 FM060200 19008KT P6SM VCSH BKN045
KASN,KASN 051140Z 0512/0612 13005KT P6SM SCT017 BKN250 FM051400 13009KT P6SM BKN230 FM051600 17011G22KT P6SM VCSH BKN090 FM051800 20008KT 6SM SHRA BR OVC080 PROB30 0521/0524 4SM -SHRA BR OVC025 FM060200 VRB04KT P6SM OVC230 FM060600 00000KT P6SM BKN100
KAST,KAST 051138Z 0512/0612 29012G19KT P6SM VCSH BKN040 BKN070 FM060100 24004KT P6SM -SHRA BKN035 BKN050 FM060600 20015G25KT 6SM -RA BR BKN020 OVC030
KATL,KATL 051129Z 0512/0618 15007KT P6SM SCT004 BKN007 TEMPO 0512/0514 5SM BR OVC004 FM051500 15010KT P6SM SCT012 BKN020 FM051700 16010KT P6SM SCT035 BKN250 FM052000 20008KT P6SM BKN200 FM052300 15004KT P6SM BKN200 FM060900 12004KT 3SM BR BKN003 FM061500 16006KT P6SM SCT010 BKN020
KATW,KATW 051135Z 0512/0612 03012G20KT 3SM SHRA OVC004 FM051700 17014G32KT 3SM SHRA OVC004 FM051900 20021G38KT P6SM SHRA OVC012 FM052300 22023G43KT P6SM OVC009 FM060100 23022G34KT P6SM BKN015 FM060400 22012G22KT P6SM SCT150
KATY,KATY 051124Z 0512/0612 VRB05KT P6SM SKC FM051600 18007KT P6SM SKC FM052100 20012KT P6SM OVC070 FM060800 27016G25KT P6SM SCT220
KAUG,KAUG 051132Z 0512/0612 20003KT P6SM BKN250 FM052100 18006KT P6SM BKN050 FM060000 18006KT P6SM BKN250
KAUS,KAUS 051120Z 0512/0618 VRB02KT P6SM FEW080 FM051500 03004KT P6SM SKC FM051800 17005KT P6SM SKC
KAUW,KAUW 051135Z 0512/0612 03011KT 3SM SHRA OVC007 FM052000 17012G28KT 5SM SHRA OVC006 FM052300 25016G27KT P6SM BKN007 FM060400 23011G18KT P6SM BKN019 FM060700 20007G16KT P6SM BKN030
KAVL,KAVL 051124Z 0512/0612 16006KT 6SM -SHRA BKN008 OVC018 TEMPO 0512/0516 2SM -SHRA BR SCT008 BKN018 FM051700 17009G16KT P6SM -SHRA OVC020 FM052200 17007KT P6SM OVC030 PROB30 0522/0604 4SM -SHRA BR OVC020 FM060400 17008G15KT P6SM VCSH OVC009 FM060800 17005KT 3SM -SHRA BR OVC005
KAVP,KAVP 051126Z 0512/0612 20005KT P6SM OVC018 WS017/20035KT FM051400 19011G20KT P6SM -DZ OVC022 FM051700 19012G22KT P6SM SCT025 BKN035 BKN250 FM060300 19009KT P6SM BKN030 WS014/20040KT FM061000 19010KT P6SM BKN018 OVC030 WS015/19035KT
KAXN,KAXN 051138Z 0512/0612 08006KT P6SM SKC FM052100 16007KT P6SM FEW250 FM060200 18009KT P6SM BKN150 FM060500 20008KT P6SM -RA OVC050 FM060800 23010KT P6SM BKN060 FM061000 25012G21KT P6SM SCT200
KAZO,KAZO 051120Z 0512/0612 17015G23KT P6SM OVC240 WS020/20050KT FM051500 17018G37KT P6SM -SHRA OVC045 WS020/19055KT FM051800 18021G46KT P6SM -SHRA OVC027 WS020/19055KT FM052000 20021G45KT P6SM -SHRA OVC035 WS020/20055KT FM052100 21022G45KT P6SM VCSH OVC050 WS020/21050KT
KBAB,TAF AMD KBAB 042347Z 0423/0601 16009KT 9999 SCT060 BKN200 QNH3028INS BECMG 0501/0502 14009KT 9999 BKN050 QNH3022INS BECMG 0509/0510 14010G20KT 9999 SCT005 OVC015 QNH3007INS TEMPO 0512/0515 8000 BR OVC005 BECMG 0521/0522 16010G20KT 8000 -SHRA SCT005 OVC010 QNH3001INS TX17/0500Z TN09/0515Z LAST NO AMDS AFT 0500 NEXT 0712
KBAD,TAF AMD KBAD 042325Z 0423/0602 15015G25KT 9999 VCSH BKN030 BKN170 QNH2981INS BECMG 0422/0423 16017G27KT 9999 -SHRA VCTS BKN035CB OVC150 QNH2981INS TEMPO 0504/0506 29025G35KT 1200 +TSRA BR OVC010CB BECMG 0506/0508 30008KT 9999 NSW SCT050 BKN120 QNH2973INS BECMG 0520/0521 VRB04KT 9999 SKC QNH2973INS TX27/0423Z TN12/0512Z LAST NO AMDS AFT 0423 NEXT 0512
KBAF,KBAF 051145Z 0512/0612 19004KT 1SM BR BKN045 TEMPO 0512/0514 1/2SM FG BKN030 FM051500 20007KT P6SM BKN045 FM060700 18008KT P6SM OVC030 FM061100 19008KT P6SM BKN025
KBAM,KBAM 051136Z 0512/0612 22009G18KT P6SM OVC090 FM051500 18010G20KT P6SM VCSH BKN050 FM052100 19012G22KT 6SM -SHRA BKN020 OVC040 FM060100 30008KT 6SM -SHRA BKN010 OVC025 FM061000 VRB06KT P6SM VCSH BKN050 OVC080
KBBD,KBBD 051120Z 0512/0612 28007KT P6SM SKC FM051800 22012G18KT P6SM SKC FM060000 19005KT P6SM SKC
KBBG,KBBG 051120Z 0512/0612 24010G20KT P6SM OVC020 FM051600 24009KT P6SM BKN050 FM051800 23008KT P6SM FEW200 FM060000 17006KT P6SM SKC
KBCB,KBCB 051120Z 0512/0612 13004KT 5SM -RA BR SCT015 BKN040 WS020/17035KT FM051500 14007G15KT P6SM -RA OVC012 FM052100 14009G19KT P6SM -RA OVC040 FM060400 13003KT P6SM -RA OVC015
KBCE,KBCE 051129Z 0512/0612 30010KT P6SM FEW070 SCT200 FM051800 31012G24KT P6SM FEW070 SCT200 FM060200 31008KT P6SM FEW050
KBDL,KBDL 051120Z 0512/0618 18004KT P6SM BKN050 FM051500 19007G17KT P6SM BKN050 FM052300 18009KT P6SM BKN070 FM061200 19008KT P6SM BKN015 FM061500 20009KT P6SM BKN040
KBDN,KBDN 051120Z 0512/0612 25020G30KT P6SM OVC035 FM051400 28013G25KT P6SM SCT050 SCT150 FM060200 VRB06KT P6SM SCT050 SCT120
KBDR,KBDR 051131Z 0512/0612 18004KT P6SM OVC060 TEMPO 0512/0514 5SM BR BKN025 FM051400 18010KT P6SM SCT040 FM052300 18008KT P6SM SCT020 BKN040
KBED,KBED 051120Z 0512/0612 21004KT P6SM SCT050 FM051500 22008G21KT P6SM BKN050 FM060000 19008KT P6SM FEW250
KBFD,KBFD 051120Z 0512/0612 15008KT P6SM FEW050 WS020/22042KT FM051300 17010G18KT P6SM SCT025 BKN040 FM052100 17011G20KT P6SM OVC025 FM060700 19011G19KT P6SM OVC025 PROB30 0607/0608 P6SM -RA OVC050
KBFF,KBFF 051120Z 0512/0612 28015G25KT P6SM FEW200 WS020/29050KT FM051700 28030G45KT P6SM FEW200 FM052300 27030G40KT P6SM SCT200 FM060300 30015G25KT P6SM OVC100 FM060500 29015KT P6SM OVC080
KBFI,KBFI 051125Z 0512/0612 15006KT P6SM FEW050 SCT250 FM051500 21012G22KT P6SM SCT050 BKN100 FM060000 15006KT P6SM FEW050 BKN200 FM060900 17012G20KT P6SM -RA SCT030 OVC050
KBFL,KBFL 051120Z 0512/0612 VRB03KT P6SM SCT200 FM060600 05005KT P6SM BKN200 FM061100 05003KT P6SM BKN100
KBFM,KBFM 051139Z 0512/0612 14007KT P6SM BKN025 BKN080 OVC250 TEMPO 0515/0519 SCT030 OVC060 FM051900 17010KT 1SM TSRA SCT020 OVC030CB FM052100 14007KT 3SM SHRA BR OVC013 PROB30 0521/0524 2SM -TSRA BR OVC020CB FM060000 14006KT P6SM OVC011 FM060200 15006KT P6SM BKN070 FM060700 VRB03KT 3SM BR SCT010
KBGM,KBGM 051126Z 0512/0612 18008KT P6SM BKN018 TEMPO 0512/0514 18013G24KT SCT018 FM051400 18014G25KT P6SM BKN028 FM051800 18016G30KT P6SM BKN035 FM060200 18013KT P6SM BKN025 WS018/18038KT
KBGR,KBGR 051136Z 0512/0612 20010KT P6SM SCT250 WS020/24040KT FM051500 23012G20KT P6SM SCT250 FM060000 20010KT P6SM SCT250 WS020/24040KT FM060700 20010KT P6SM BKN010 WS020/24040KT FM060900 20010KT 3SM BR OVC008 WS020/24040KT
KBHB,KBHB 051136Z 0512/0612 22010KT P6SM SCT250 WS020/24040KT FM051500 23012G22KT P6SM SCT250 FM060000 20010KT P6SM SCT250 WS020/24040KT FM060600 22012KT P6SM BKN010 WS020/24040KT FM060800 22012KT 3SM BR OVC006 WS020/24040KT
KBHM,KBHM 051140Z 0512/0612 15009KT P6SM SCT100 BKN250 FM051500 16011G25KT 6SM SHRA BR BKN070 BKN250 FM051700 18008KT 6SM SHRA BR OVC050 PROB30 0521/0603 4SM -SHRA BR OVC025 FM060300 VRB04KT P6SM OVC070 PROB30 0603/0606 4SM -SHRA BR OVC025 FM060600 00000KT P6SM BKN030 PROB30 0609/0612 4SM -SHRA BR OVC015
KBIF,TAF KBIF 050600Z 0506/0612 VRB06KT 9999 SKC QNH2995INS TX18/0523Z TN04/0513Z
KBIH,KBIH 051126Z 0512/0612 34007KT P6SM BKN250 FM051800 18007KT P6SM BKN250 FM060000 34011KT P6SM BKN150
KBIL,KBIL 051125Z 0512/0612 24014G22KT P6SM SCT060 BKN100 FM051500 26024G36KT P6SM VCSH BKN060 FM051800 28032G50KT P6SM VCSH BKN050 FM052100 30032G50KT P6SM SCT060 FM060100 30022G36KT P6SM SCT200 FM060500 31014KT P6SM SCT200
KBIS,KBIS 051123Z 0512/0612 15011KT P6SM SKC FM051400 15012KT P6SM BKN070 FM051900 18015G24KT P6SM OVC050 FM060100 22013KT P6SM BKN070 FM060300 26017G27KT P6SM BKN100 FM060900 27020G30KT P6SM BKN250
KBIX,TAF KBIX 050200Z 0502/0608 13012KT 9999 BKN035 QNH3001INS BECMG 0513/0514 16012G18KT 6000 -SHRA VCTS SCT010 BKN020CB QNH2994INS TEMPO 0517/0522 17015G25KT 3200 -TSRA SCT005 BKN010CB OVC020 BECMG 0522/0523 15006KT 8000 BR SCT004 BKN009 QNH2991INS TX24/0518Z TN20/0511Z LAST NO AMDS AFT 0504 NEXT 0613
KBJC,KBJC 051120Z 0512/0612 27020G30KT P6SM FEW080 SCT120 BKN200 FM051700 27025G38KT P6SM FEW080 BKN120 FM060100 29020G30KT P6SM FEW080 SCT150 BKN220 FM060900 31010KT P6SM BKN080 BKN150
KBJI,KBJI 051127Z 0512/0612 00000KT P6SM SKC FM051800 14008KT P6SM FEW200 FM060200 18007KT P6SM BKN100 FM060500 21007KT P6SM VCSH OVC040 FM061000 24011KT P6SM BKN050
KBKE,KBKE 051120Z 0512/0612 32015G25KT P6SM VCSH OVC035 WS020/27040KT FM052100 32011KT P6SM BKN035 FM060100 32006KT P6SM BKN050 FM060600 13006KT P6SM SKC
KBKF,TAF KBKF 050900Z 0509/0615 VRB06KT 9999 SKC 530054 QNH2966INS BECMG 0515/0516 VRB06KT 9999 FEW160 FEW230 510043 QNH2963INS BECMG 0518/0519 VRB06KT 9999 SKC 530055 QNH2959INS BECMG 0520/0521 27020G25KT 9999 FEW230 BKN310 530103 QNH2956INS BECMG 0523/0524 VRB06KT 9999 FEW230 BKN310 510053 QNH2957INS BECMG 0602/0603 VRB06KT 9999 FEW260 SCT360 530054 QNH2966INS TX13/0521Z TNM02/0510Z
KBKW,KBKW 051128Z 0512/0612 15008KT P6SM BKN025 OVC035 TEMPO 0512/0514 SCT025 BKN035 FM051400 16010G22KT P6SM BKN025 FM051800 17014G27KT P6SM SCT020 FM060300 16012G27KT P6SM BKN017 FM060600 18007KT P6SM OVC050 PROB30 0606/0610 5SM -SHRA BKN015
KBLF,KBLF 051120Z 0512/0612 18007G15KT P6SM OVC025 FM051300 17014G22KT P6SM SCT030 OVC050 FM051800 18015G27KT P6SM VCSH OVC050 FM060300 18006KT P6SM -RA OVC020
KBLH,KBLH 051120Z 0512/0612 VRB04KT P6SM BKN250 FM052000 15005KT P6SM FEW250 FM060200 VRB04KT P6SM FEW250
KBLI,KBLI 051125Z 0512/0612 19005KT P6SM SCT035 OVC050 FM051600 20010KT P6SM SCT050 BKN100 FM060000 18005KT P6SM FEW050 BKN250 FM060500 14005KT P6SM SCT050 BKN100 FM060800 15010KT P6SM -RA BKN040 OVC070 FM061000 15013G22KT P6SM -RA BKN020 OVC040
KBLV,TAF AMD KBLV 051115Z 0511/0614 16022G40KT 9999 VCSH BKN012 OVC030 520003 QNH2952INS BECMG 0514/0515 22018G35KT 9999 NSW BKN022 BKN040 520003 QNH2963INS BECMG 0517/0518 23015G23KT 9999 SCT030 SCT250 510003 QNH2970INS BECMG 0522/0523 22010KT 9999 SKC QNH2974INS BECMG 0606/0607 18006KT 9999 SKC QNH2986INS TX18/0511Z TN07/0608Z
KBMG,KBMG 051120Z 0512/0612 19015G35KT 6SM SHRA BR OVC080 WS020/19050KT FM051700 20021G39KT P6SM VCSH OVC025 WS020/19050KT FM051800 20019G36KT 6SM SHRA BR OVC018 WS020/20050KT FM052000 22016G30KT P6SM OVC045 FM052300 23011G23KT P6SM BKN070 FM060400 22005KT P6SM FEW230
KBMI,KBMI 051120Z 0512/0612 17028G50KT P6SM OVC007 FM051400 22027G48KT P6SM VCSH OVC012 FM052200 23020G34KT P6SM SCT013 FM060100 22016G27KT P6SM SKC
KBNA,KBNA 051134Z 0512/0612 17013G26KT P6SM SCT150 WS015/18050KT FM051300 18016G27KT P6SM VCSH SCT025 OVC050 FM051500 18017G32KT 6SM -SHRA OVC035 TEMPO 0515/0518 4SM -SHRA OVC025 FM051800 18017G31KT 6SM -SHRA OVC025 FM060100 20010G17KT P6SM VCSH OVC015 FM060400 21005KT P6SM BKN015
KBNO,KBNO 051120Z 0512/0612 26018G28KT P6SM -RA OVC025 FM051500 26015G25KT P6SM BKN050 OVC200 FM060100 25006KT P6SM SCT050 BKN200 FM060600 VRB04KT P6SM SCT005
KBOI,KBOI 051120Z 0512/0612 24014G21KT P6SM VCSH OVC040 WS020/26040KT FM051600 30012G22KT P6SM -SHRA OVC025 FM051900 31018G26KT P6SM BKN060 OVC200 FM060000 33006KT P6SM BKN060 FM060300 14006KT P6SM SCT060
KBOS,KBOS 051120Z 0512/0618 22006KT P6SM SCT200 FM051500 21011G21KT P6SM SCT250 FM052200 19010KT P6SM SCT250 FM061200 21009KT P6SM BKN060 FM061400 20012G22KT P6SM BKN090
KBPI,KBPI 051121Z 0512/0612 31011KT P6SM BKN050 OVC070 FM051600 25015G22KT 2SM -SN SCT012 OVC020 FM051800 25025G35KT 2SM -SN OVC015 FM052200 28020G30KT 4SM -SN OVC020 FM060000 27015G25KT P6SM VCSH BKN040
KBPK,KBPK 051120Z 0512/0612 28009G18KT P6SM SCT015 FM051300 27010G20KT P6SM BKN015 BKN030 FM051600 26012G20KT P6SM OVC025 FM051900 22010KT P6SM SCT025 BKN050 FM060000 18007KT P6SM SCT050 FM060600 14005KT P6SM SKC
KBPT,KBPT 051140Z 0512/0612 02005KT P6SM SCT060 BKN120 FM051500 01007KT P6SM SCT120 FM052100 VRB04KT P6SM FEW250
KBRD,KBRD 051140Z 0512/0612 03005KT P6SM SCT013 FM051400 03007KT P6SM SCT025 FM051900 35007KT P6SM FEW023 FM052200 28005KT P6SM FEW070 FM060500 20008KT 5SM -RASN BKN025 OVC050
KBRL,KBRL 051120Z 0512/0612 17015G25KT 4SM -RA OVC006 TEMPO 0512/0514 2SM RA BR FM051600 22022G37KT P6SM OVC009 FM051800 23021G37KT P6SM OVC011 FM052100 23015G31KT P6SM SCT110 FM052300 21012G22KT P6SM FEW250
KBRO,KBRO 051129Z 0512/0612 30009KT P6SM VCSH OVC025 FM051500 36013G21KT P6SM BKN025 FM052000 03011KT P6SM BKN035 FM060100 36004KT P6SM BKN025 TEMPO 0608/0612 3SM BR BKN012
KBTL,KBTL 051120Z 0512/0612 18014G27KT P6SM BKN240 WS020/20050KT FM051700 18020G40KT P6SM -SHRA OVC045 WS020/19055KT FM052000 20022G43KT P6SM -SHRA OVC023 WS020/20055KT FM052100 20023G44KT P6SM VCSH OVC040 WS020/21055KT FM052200 22022G41KT P6SM VCSH BKN070
KBTM,KBTM 051120Z 0512/0612 21012G25KT P6SM VCSH FEW070 BKN100 FM051400 23022G33KT P6SM VCSH OVC060 WS020/24050KT TEMPO 0514/0516 23025G35KT 1SM -SN OVC025 FM051600 31030G45KT 4SM -SHSN SCT030 OVC050 FM052000 28020G30KT 6SM -SHSN OVC050 FM060300 30012KT P6SM VCSH BKN050
KBTR,KBTR 051122Z 0512/0612 31012KT 2SM SHRA BR VCTS OVC008CB FM051400 33008KT 5SM SHRA BR OVC012 FM051900 VRB04KT P6SM BKN015 FM060300 00000KT 4SM BR BKN009 FM060600 07003KT 1 1/2SM BR BKN003
KBTV,KBTV 051124Z 0512/0612 19012G20KT P6SM FEW240 FM051600 18013G23KT P6SM SCT140
KBUF,KBUF 051120Z 0512/0612 19017G25KT P6SM BKN250 FM060000 18024G40KT P6SM BKN100 FM060400 19020G36KT 4SM SHRA BR OVC035 FM060600 20017G32KT 4SM SHRA BR OVC035 FM060800 23014G23KT P6SM VCSH OVC040 FM061000 24012KT P6SM OVC050
KBUR,KBUR 051142Z 0512/0612 VRB03KT P6SM SCT250 FM052200 19008KT P6SM SCT250 FM060400 14004KT P6SM SCT250
KBVI,KBVI 051140Z 0512/0612 17007KT P6SM BKN200 WS020/20040KT FM051400 17010G25KT P6SM BKN200 WS020/19040KT FM060500 20009G18KT 6SM -SHRA BR BKN050 FM061000 22004KT 5SM -SHRA BR BKN030 FM061100 21003KT P6SM VCSH BKN025
KBVO,KBVO 051131Z 0512/0612 25008KT P6SM SKC FM051700 20010KT P6SM SKC FM060000 17008KT P6SM SCT250
KBWG,KBWG 051120Z 0512/0612 18015G30KT P6SM OVC120 FM051300 18020G34KT P6SM -SHRA OVC050 FM051800 20021G29KT P6SM -SHRA OVC025 FM052300 21012G20KT P6SM OVC040 FM060400 23005KT P6SM OVC025
KBWI,KBWI 051137Z 0512/0618 17004KT 2SM BR BKN004 OVC015 WS020/16030KT FM051400 16008KT P6SM BKN015 FM051600 16012G22KT P6SM BKN035 FM052200 16010G18KT P6SM SCT040 BKN250 FM060300 17008G16KT P6SM SCT040 BKN130 FM061000 17008KT P6SM VCSH SCT015 BKN030 BKN130
KBYI,KBYI 051132Z 0512/0612 21012G22KT P6SM -RA SCT025 OVC040 FM051500 26025G40KT P6SM VCSH SCT015 OVC025 FM052300 27015G30KT P6SM VCSH SCT020 BKN050 BKN120 FM060200 24011KT P6SM SCT050 BKN140
KBZN,KBZN 051120Z 0512/0618 22020G34KT P6SM OVC060 WS020/24050KT FM051500 24031G51KT P6SM OVC060 WS020/24050KT TEMPO 0515/0517 6SM -RA BR OVC030 FM051800 28032G48KT P6SM SCT080 FM060100 27020G35KT P6SM SCT080
KCAE,KCAE 051132Z 0512/0612 VRB03KT 1/2SM FG OVC003 TEMPO 0512/0514 1SM BR OVC005 FM051500 13006KT P6SM SCT007 BKN030 FM051700 15009KT P6SM VCSH SCT030 BKN050 FM060000 VRB04KT P6SM SCT015 BKN150
KCAK,KCAK 051127Z 0512/0612 18012G20KT P6SM SCT250 FM051500 18015G30KT P6SM SCT100 FM060200 20015G25KT P6SM -SHRA BKN035 FM060800 23011KT P6SM SCT090
KCAR,KCAR 051136Z 0512/0612 20010KT P6SM SCT250 WS020/24040KT FM051500 23012G22KT P6SM SCT250 FM060000 20010KT P6SM BKN250 WS020/24040KT FM060900 20010KT P6SM BKN015 WS020/24040KT
KCBM,TAF AMD KCBM 042245Z 0422/0523 15012G18KT 9999 FEW050 QNH3003INS BECMG 0423/0424 15009KT 9999 FEW050 WS020/16035KT 510006 QNH2998INS BECMG 0505/0506 15009KT 9999 FEW050 WS020/17050KT 520006 QNH2989INS BECMG 0509/0510 15009KT 8000 -RA BKN010 WS020/18050KT 651409 530006 QNH2989INS BECMG 0513/0514 15009KT 6000 -RA VCTS BKN010CB WS020/18050KT 651409 530006 QNH2993INS BECMG 0514/0515 18010G25KT 1600 +TSRA OVC005CB 651409 520006 521809 QNH2993INS BECMG 0516/0517 18010G25KT 4800 -RA OVC005 510006 521809 QNH2990INS BECMG 0520/0521 20006KT 9000 -DZ OVC005 510006 521809 QNH2990INS TX26/0422Z TN18/0510Z LAST NO AMDS AFT 1422 NEXT 1616
KCDC,KCDC 051129Z 0512/0612 17005KT P6SM FEW060 FEW200 FM051700 22008KT P6SM FEW120 FM052000 22011G22KT P6SM FEW080 SCT120
KCDR,KCDR 051120Z 0512/0612 24015KT P6SM FEW200 WS020/29035KT FM051600 26015G25KT P6SM FEW200 FM051800 27030G40KT P6SM FEW200 FM060000 30020G30KT P6SM BKN120 FM060400 33010KT P6SM OVC080
KCDS,KCDS 051120Z 0512/0612 21006KT P6SM SKC FM051700 22011KT P6SM SKC FM052100 19015KT P6SM SKC FM060100 16009KT P6SM SKC
KCEC,KCEC 051128Z 0512/0612 18017G27KT 1SM +RA BR OVC005 WS015/24036KT FM051400 35010G17KT 3SM -SHRA BKN015 OVC025 TEMPO 0514/0516 1SM SHRA BKN007 OVC015 FM051700 33006KT P6SM VCSH SCT020 BKN150 FM060300 VRB03KT P6SM SCT150
KCEF,TAF KCEF 051100Z 0511/0617 19009KT 9999 MIFG SCT006 SCT010 BKN065 WS015/22035KT QNH3021INS TEMPO 0511/0515 3200 BR BKN006 BKN065 BECMG 0514/0515 20012KT 9999 NSW SCT012 BKN065 520053 QNH3022INS BECMG 0515/0516 20010G15KT 9999 SCT020 BKN050 520053 QNH3018INS TEMPO 0516/0521 21015G25KT 520004 BECMG 0521/0522 20009KT 9999 BKN025 OVC040 520053 QNH3021INS TEMPO 0601/0606 6000 BR BKN005 OVC040 BECMG 0605/0606 20012KT 9999 FEW010 BKN015 OVC025 WS018/20035KT 520203 QNH3016INS TEMPO 0614/0617 21015G25KT 520005 TX24/0519Z TN13/0511Z
KCGI,KCGI 051120Z 0512/0612 18018G32KT 5SM BR VCSH OVC015 FM051600 22015G25KT P6SM BKN025 FM051800 23010G17KT P6SM FEW050 FM052200 23010KT P6SM SKC FM060900 VRB03KT 5SM BR SKC
KCHA,KCHA 051122Z 0512/0612 17012KT P6SM BKN035 FM051600 19015G25KT P6SM VCSH BKN040 FM060000 16008KT P6SM VCSH BKN035 FM060400 VRB05KT P6SM BKN025
KCHO,KCHO 051137Z 0512/0612 18004KT 6SM BR OVC005 FM051500 17008G16KT P6SM VCSH BKN025 OVC050 FM051700 17012G22KT P6SM VCSH BKN040 FM052200 16008KT P6SM BKN040 FM060900 16008KT P6SM BKN025 OVC050
KCHS,KCHS 051135Z 0512/0612 08006KT P6SM VCSH SCT030 SCT060 FM051600 14011G18KT P6SM SCT040 SCT090 FM052300 11007KT P6SM SCT035
KCID,KCID 051120Z 0512/0612 01015KT 4SM -RA OVC006 TEMPO 0512/0514 2SM RA BR FM051600 23014G25KT 4SM SHRA OVC005 FM051800 25020G35KT 4SM -SHRA OVC006 FM052200 24014G25KT P6SM SCT150
KCIU,KCIU 051125Z 0512/0612 09007KT 5SM RA BR OVC005 FM051400 13010G16KT 6SM -RA BR OVC007 FM051600 15012G22KT 5SM -SHRA BR OVC011 WS020/18040KT FM060000 21019G44KT 6SM -SHRA BR BKN027 WS020/20045KT FM060500 23019G42KT P6SM VCSH OVC013 WS020/23050KT
KCKB,KCKB 051128Z 0512/0612 00000KT P6SM BKN250 WS015/17030KT FM051500 18009G19KT P6SM BKN250 FM051700 19013G24KT P6SM SCT035 FM060400 19007G15KT P6SM BKN070 FM060700 21006KT P6SM -SHRA OVC060
KCKV,KCKV 051134Z 0512/0612 20016G28KT P6SM VCSH SCT025 OVC050 FM051300 18017G32KT 6SM -SHRA OVC035 TEMPO 0513/0516 4SM -SHRA OVC025 FM051700 18018G34KT 6SM -SHRA OVC015 FM052000 22010G17KT P6SM VCSH OVC015 FM052200 24010G17KT P6SM BKN025 FM060200 24007KT P6SM SCT100
KCLE,KCLE 051127Z 0512/0618 18014G22KT P6SM BKN200 FM051700 19025G38KT P6SM OVC090 FM060000 21018G32KT P6SM -SHRA BKN035 FM060700 23010KT P6SM SCT100
KCLL,KCLL 051121Z 0512/0612 VRB05KT P6SM FEW250
KCLM,KCLM 051125Z 0512/0612 27015G25KT P6SM VCSH FEW080 SCT250 FM060000 28012KT P6SM SCT050 BKN100 FM060700 23004KT P6SM -RA BKN050 OVC080 FM061000 21005KT P6SM -RA BKN020 OVC040
KCLT,KCLT 051124Z 0512/0618 13007KT P6SM VCSH SCT003 OVC007 TEMPO 0512/0516 4SM -SHRA BR OVC003 FM051600 16010G18KT P6SM BKN025 FM052200 15006KT P6SM OVC050 PROB30 0522/0604 4SM -SHRA BR OVC030 FM060400 16009G16KT P6SM VCSH OVC020 FM060800 16006KT P6SM OVC009 FM061600 17007KT P6SM VCSH OVC016
KCMA,KCMA 051142Z 0512/0612 VRB03KT P6SM SCT250 FM051900 23007KT P6SM SCT250 FM060300 VRB03KT P6SM SCT250
KCMH,KCMH 051138Z 0512/0612 17010G20KT P6SM BKN250 WS020/19045KT FM051500 18016G30KT P6SM BKN200 FM051800 19020G38KT P6SM OVC060 FM052100 20018G32KT P6SM VCSH OVC070 FM052300 21018G30KT 5SM SHRA BR OVC050 FM060600 23010G20KT P6SM OVC050 FM061000 23008KT P6SM SCT090
KCMI,KCMI 051120Z 0512/0612 17030G50KT P6SM VCSH SCT025 OVC070 WS020/18060KT FM051300 18027G52KT P6SM VCSH OVC012 WS020/19065KT FM051700 22025G42KT P6SM VCSH OVC045 FM051900 23025G40KT P6SM BKN027 FM052200 23018G31KT P6SM SCT027 FM060600 20011KT P6SM SKC
KCMX,KCMX 051120Z 0512/0612 06009KT P6SM VCSH BKN013 FM051600 06012G24KT 4SM SHRA BR OVC008 FM052200 03011G20KT 1SM -SHRA BR OVC004 FM060400 28020G36KT 2SM BR VCSH OVC005 FM060700 25018G32KT 5SM BR BKN011 FM061000 22012G23KT P6SM BKN045
KCNM,KCNM 051124Z 0512/0612 26011KT P6SM SKC FM051700 23016G25KT P6SM SKC FM060100 25011KT P6SM SKC
KCNU,KCNU 051138Z 0512/0612 27013G21KT P6SM -RA SCT015 OVC040 FM051400 23013KT P6SM SKC FM051900 19016G23KT P6SM SKC FM060000 17013KT P6SM FEW250
KCNY,KCNY 051124Z 0512/0612 VRB04KT P6SM BKN080 FM052000 02004KT P6SM BKN250 FM060000 31005KT P6SM BKN200 FM060600 29006KT P6SM OVC100
KCOD,KCOD 051121Z 0512/0612 23015G25KT P6SM OVC150 WS020/26050KT FM051400 23035G45KT P6SM BKN110 FM051800 28030G40KT 4SM -SN SCT015 BKN025 FM052100 28025G35KT P6SM SCT030 BKN050 FM060300 26015G25KT P6SM FEW080
KCOE,KCOE 051126Z 0512/0612 26020G35KT P6SM VCSH FEW060 BKN150 FM051500 24019G30KT P6SM SCT150 FM060100 25015G23KT P6SM SCT040 OVC060 FM060300 23009KT P6SM SCT170 FM060900 18006KT P6SM SCT160
KCOF,TAF KCOF 050200Z 0502/0608 06009KT 9999 SCT030 QNH2995INS BECMG 0514/0515 10010G15KT 9999 VCSH SCT040 QNH2993INS TEMPO 0520/0601 9000 -SHRA BECMG 0602/0603 09009KT 9999 VCSH SCT030 QNH2994INS TX28/0517Z TN23/0508Z LAST NO AMDS AFT 0504 NEXT 0611
KCON,KCON 051132Z 0512/0612 15009KT P6SM BKN040 FM052100 17005KT P6SM OVC250 FM060300 17005KT P6SM OVC100 FM060500 17003KT P6SM OVC050
KCOS,KCOS 051120Z 0512/0612 01008KT P6SM FEW150 BKN200 FM051600 33010KT P6SM SCT200 FM052000 30015G25KT P6SM SCT200 FM060200 34008KT P6SM SCT200
KCOT,KCOT 051134Z 0512/0612 34006KT P6SM BKN070 FM051600 04005KT P6SM SCT070 FM052000 14004KT P6SM SKC
KCOU,KCOU 051120Z 0512/0612 23019G31KT P6SM OVC018 FM052000 24016G22KT P6SM SCT030 FM052300 20009KT P6SM SKC
KCPR,KCPR 051122Z 0511/0612 23028G40KT P6SM BKN200 FM052300 27020G30KT P6SM SCT045 BKN100 FM060100 27014G24KT P6SM SCT040 OVC060 FM060600 26010KT P6SM SCT060 BKN100
KCPS,KCPS 051120Z 0512/0612 17019G38KT P6SM -SHRA OVC015 FM051400 23020G40KT P6SM OVC025 FM052100 24013G26KT P6SM FEW035 FM060000 21008KT P6SM SKC
KCRE,KCRE 051120Z 0512/0612 11005KT P6SM OVC035 FM051500 13009KT P6SM SCT150
KCRG,KCRG 051125Z 0512/0612 11008KT P6SM VCSH FEW018 SCT035 BKN200 TEMPO 0512/0514 BKN015 FM051400 12012G20KT P6SM VCSH SCT025 BKN050 TEMPO 0514/0517 6SM SHRA BKN020 FM060000 09008KT P6SM VCSH SCT025 BKN100 PROB30 0600/0606 6SM -SHRA BKN025
KCRP,KCRP 051134Z 0512/0612 02009KT P6SM OVC035 FM051500 02014G20KT P6SM BKN045 FM052000 06010KT P6SM SCT060 FM060100 12005KT P6SM SKC FM060600 12004KT P6SM SCT025 BKN035 FM061000 VRB03KT P6SM BKN015
KCRQ,KCRQ 051120Z 0512/0612 VRB04KT P6SM BKN250 FM052100 25007KT P6SM FEW250 FM060000 VRB04KT P6SM FEW010
KCRW,KCRW 051128Z 0512/0612 00000KT P6SM BKN250 WS015/17030KT FM051500 18010G25KT P6SM BKN250 FM051800 19013G28KT P6SM SCT045 FM060000 17009G24KT P6SM BKN250 FM060300 19005KT P6SM BKN090 FM060800 22003KT P6SM -SHRA OVC060
KCSG,KCSG 051129Z 0512/0612 09005KT P6SM SCT008 BKN250 TEMPO 0512/0514 BKN008 FM051500 17010KT P6SM SCT015 BKN020 FM051700 21010KT P6SM SCT040 BKN250 FM052300 14004KT P6SM BKN200
KCSM,KCSM 051120Z 0512/0612 26006KT P6SM SKC FM051400 20013KT P6SM SKC FM051800 19016G25KT P6SM SKC FM060000 16015G23KT P6SM SCT250
KCSV,KCSV 051134Z 0512/0612 17014G25KT P6SM BKN050 OVC080 WS020/18045KT FM051700 18016G30KT P6SM VCSH OVC035 FM051900 18017G32KT 6SM -SHRA OVC020 FM052300 19011G18KT P6SM VCSH OVC050 FM060500 20006KT 6SM BR VCSH OVC018
KCTB,KCTB 051120Z 0512/0612 25035G47KT P6SM SCT110 WS020/26060KT FM051500 28035G50KT P6SM SCT070 FM060100 31022G36KT P6SM SCT060 PROB30 0602/0605 4SM -SN BR OVC025 FM060500 34012KT P6SM BKN050
KCUB,KCUB 051132Z 0512/0612 VRB03KT 5SM BR OVC005 TEMPO 0512/0514 OVC007 FM051500 13006KT P6SM SCT007 BKN030 FM051700 15009KT P6SM VCSH SCT030 BKN050 FM060000 VRB04KT P6SM SCT015 BKN150
KCVG,KCVG 051138Z 0512/0618 17013G22KT P6SM OVC250 WS020/20045KT FM051500 19015G32KT P6SM OVC100 FM051800 19018G38KT P6SM VCSH OVC060 FM052000 19018G35KT 5SM SHRA BR OVC040 FM060100 22012G18KT P6SM VCSH OVC060 FM060800 21008KT P6SM SCT250
KCVS,TAF KCVS 051000Z 0510/0616 26012KT 9999 FEW120 QNH2987INS BECMG 0515/0516 26015G25KT 9999 SKC QNH2970INS TEMPO 0521/0524 26020G35KT 9000 HZ 520009 BECMG 0600/0601 26015KT 9999 SKC QNH2973INS BECMG 0606/0607 27012KT 9999 SKC QNH2978INS TX20/0521Z TNM01/0512Z
KCWA,KCWA 051135Z 0512/0612 04012KT 3SM SHRA OVC005 FM051600 07011G21KT 3SM SHRA OVC006 FM052000 18013G30KT 5SM SHRA OVC005 FM052300 24017G28KT P6SM BKN007 FM060400 24015G21KT P6SM BKN018 FM060500 21009G17KT P6SM BKN030
KCXO,KCXO 051121Z 0512/0612 VRB05KT P6SM BKN070 FM051800 VRB05KT P6SM FEW250
KCXP,KCXP 051120Z 0512/0612 21010G22KT P6SM SCT150 BKN200 WS020/27045KT FM051800 23010KT P6SM SCT050 BKN080 FM060000 23006KT P6SM VCSH BKN035 FM060300 VRB04KT 6SM -RA BKN020
KCYS,KCYS 051120Z 0512/0612 26040G60KT P6SM SCT200 WS020/29060KT FM051900 27035G55KT P6SM FEW200 WS020/28055KT FM052300 26030G45KT P6SM BKN150 WS020/27055KT FM060500 30017G30KT P6SM OVC100 WS020/29065KT FM060800 31018G30KT P6SM OVC100 WS020/29045KT
KDAA,TAF KDAA 042000Z 0420/0602 VRB06KT 9999 FEW035 BKN200 QNH3025INS BECMG 0502/0503 VRB06KT 8000 BR FEW015 SCT035 OVC090 QNH3018INS BECMG 0510/0511 VRB06KT 8000 BR FEW005 OVC015 QNH3021INS BECMG 0514/0515 18010G15KT 9999 NSW BKN015 OVC020 QNH3014INS BECMG 0520/0521 16009KT 9999 BKN030 QNH3012INS BECMG 0523/0524 15006KT 9999 BKN026 QNH3013INS TX23/0517Z TN16/0502Z LAST NO AMDS AFT 0501 NEXT 0712
KDAB,KDAB 051131Z 0512/0612 09006KT P6SM VCSH SCT030 SCT060 FM051500 10013G19KT P6SM VCSH SCT035 BKN050 FM060100 10011KT P6SM VCSH SCT030 SCT050
KDAG,KDAG 051126Z 0512/0612 27008KT P6SM BKN250 FM052300 27014G20KT P6SM SCT250
KDAL,KDAL 051120Z 0512/0612 30008KT P6SM SKC FM052000 19009KT P6SM SKC FM060100 15011KT P6SM SKC
KDAN,KDAN 051120Z 0512/0612 VRB03KT 1 1/2SM -DZ BR BKN006 BKN015 FM051300 12004KT 5SM -DZ BR OVC007 FM051500 16008KT P6SM -RA OVC015 FM051800 17009G19KT P6SM VCSH BKN040 FM060000 16005KT P6SM SCT060 BKN120 FM060300 VRB04KT P6SM -RA OVC022
KDAY,KDAY 051138Z 0512/0612 18013G24KT P6SM BKN250 WS020/19045KT FM051300 17012G30KT P6SM BKN090 WS020/19045KT FM051500 18020G35KT P6SM OVC080 FM051800 19020G40KT P6SM VCSH OVC060 FM052000 19018G36KT 5SM SHRA BR OVC040 FM060200 22011G20KT P6SM OVC050 FM060700 20007KT P6SM FEW250
KDBQ,KDBQ 051120Z 0512/0612 02015KT 4SM -RA OVC010 TEMPO 0512/0514 2SM RA BR FM051400 19015G25KT 6SM SHRA OVC005 FM051700 20020G35KT 4SM SHRA OVC005 FM052300 23017G29KT P6SM SCT030
KDCA,KDCA 051137Z 0512/0618 18008KT 6SM BR BKN020 BKN050 FM051400 17009G16KT P6SM SCT015 BKN035 FM051600 17012G22KT P6SM BKN035 FM052200 16010G18KT P6SM SCT040 BKN250 FM060300 17008G16KT P6SM SCT040 BKN130 FM060900 17008KT P6SM VCSH SCT015 BKN030 BKN130
KDDC,KDDC 051120Z 0512/0612 25009KT P6SM SKC FM051500 22016G26KT P6SM SKC FM060000 18012KT P6SM SKC FM060900 36012KT P6SM SKC
KDEC,KDEC 051120Z 0512/0612 17027G52KT P6SM OVC016 WS020/18060KT FM051500 22023G41KT P6SM VCSH OVC011 TEMPO 0515/0517 SCT012 BKN050 FM051700 22024G42KT P6SM BKN024 FM052100 23018G31KT P6SM SCT022 FM060400 20010KT P6SM SKC
KDEN,KDEN 051120Z 0512/0618 18008KT P6SM FEW080 SCT120 BKN200 FM051500 25012KT P6SM FEW080 BKN120 FM051800 28017G25KT P6SM FEW080 SCT120 BKN220 FM060200 25012KT P6SM FEW080 SCT150 BKN220 FM060800 02012KT P6SM BKN080 BKN150 FM061400 14010KT P6SM BKN080 OVC150
KDET,KDET 051120Z 0512/0612 18012G18KT P6SM OVC200 WS018/20048KT FM051400 18018G30KT P6SM BKN250 FM051700 19020G38KT P6SM SCT045 BKN090 FM052200 21020G42KT P6SM -SHRA BKN025 BKN045 TEMPO 0522/0524 21023G46KT 2SM SHRA OVC012 FM060100 22018G35KT P6SM BKN025 FM060400 22015G25KT P6SM SCT025 FM060800 21012KT P6SM SKC
KDFW,KDFW 051120Z 0512/0618 30008KT P6SM SKC FM051900 19009KT P6SM SKC FM060100 15011KT P6SM SKC
KDHN,KDHN 051120Z 0512/0612 14008KT P6SM SCT250 FM060000 00000KT P6SM SCT250 FM061000 00000KT 3SM BR SCT002
KDHT,KDHT 051120Z 0512/0612 23007KT P6SM FEW250 FM060000 20010KT P6SM SCT250 FM060400 25009KT P6SM FEW250 FM061100 31008KT P6SM FEW250
KDIJ,KDIJ 051132Z 0512/0612 19012G20KT 5SM -SN BR SCT007 OVC022 FM051400 22020G35KT 1SM -SN BLSN SCT004 OVC006 FM051900 25020G35KT 2SM -SN BLSN SCT006 OVC015 FM052100 25015G30KT 6SM -SN SCT015 OVC035 FM052300 24013G20KT P6SM SCT140 AMD LTD TO CLD VIS AND WIND
KDIK,KDIK 051123Z 0512/0612 18012KT P6SM OVC060 FM051700 23016G24KT P6SM VCSH OVC060 FM052200 27018G28KT P6SM BKN100 FM060100 27025G38KT P6SM SCT100 BKN250 FM060700 27028G40KT P6SM BKN060
KDLF,TAF AMD KDLF 042200Z 0422/0601 33015G25KT 9999 FEW080 QNH2978INS TEMPO 0422/0501 33025G35KT BECMG 0503/0504 35012G18KT 9999 SKC QNH2988INS BECMG 0507/0508 33008KT 9999 SKC QNH2994INS BECMG 0518/0519 VRB06KT 9999 SKC QNH2995INS TX26/0422Z TN10/0511Z LAST NO AMDS AFT 0422 NEXT 0618
KDLH,KDLH 051140Z 0512/0612 08013G21KT P6SM BKN015 FM051800 03013G21KT 6SM -SHRA BKN015 FM052100 01010G17KT 5SM -RASN BR BKN015 FM060100 25008KT P6SM BKN015 FM060600 22006KT P6SM SCT015
KDLS,KDLS 051120Z 0512/0612 30025G35KT P6SM -RA SCT070 BKN090 FM060100 30020G30KT P6SM SCT070 BKN090 FM060500 31009KT P6SM SCT070 BKN090
KDMA,TAF KDMA 050608Z 0506/0612 12009KT 9999 SKC QNH3003INS BECMG 0519/0520 30009KT 9999 SKC QNH2995INS BECMG 0605/0606 12009KT 9999 SKC QNH2994INS TX21/0522Z TN07/0512Z
KDMN,KDMN 051129Z 0512/0612 25005KT P6SM FEW250 FM052000 25011G17KT P6SM SKC FM060200 27007KT P6SM SKC
KDNL,KDNL 051132Z 0512/0612 VRB04KT 5SM BR SCT007 TEMPO 0512/0514 OVC003 FM051400 13006KT P6SM SCT007 BKN030 FM051700 15009KT P6SM -SHRA SCT030 BKN050 FM060000 VRB04KT P6SM SCT015 BKN150
KDOV,TAF AMD KDOV 051143Z 0511/0614 18009KT 9999 BKN040 QNH3015INS BECMG 0512/0514 4800 BR TX25/0518Z TN14/0511Z
KDPA,KDPA 051120Z 0512/0612 17023G40KT P6SM BKN014 OVC018 WS015/19060KT FM051700 21026G45KT P6SM SCT014 OVC020 TEMPO 0517/0518 20030G50KT 3SM SHRA BKN025 FM052300 22020G34KT P6SM SCT035 FM060300 23013G22KT P6SM FEW250
KDRO,KDRO 051124Z 0512/0612 VRB05KT P6SM SCT200 FM051800 24008KT P6SM SCT250 FM060300 31005KT P6SM FEW200
KDRT,KDRT 051120Z 0512/0612 33004KT P6SM SKC FM051800 16007KT P6SM SKC
KDSM,KDSM 051138Z 0512/0612 35013KT 4SM -SHRA BR OVC005 FM051500 30014G25KT 3SM -SHRA BR OVC005 FM051600 28015G24KT P6SM VCSH OVC012 FM051800 27015G24KT P6SM SCT025 FM052000 25015G25KT P6SM FEW240
KDTW,KDTW 051120Z 0512/0618 18012G18KT P6SM OVC200 WS018/20048KT FM051400 18018G30KT P6SM BKN250 FM051700 19020G38KT P6SM SCT045 BKN090 FM052200 21020G42KT P6SM -SHRA BKN025 BKN045 TEMPO 0522/0524 21023G46KT 2SM SHRA OVC012 FM060100 22018G35KT P6SM BKN025 FM060400 22015G25KT P6SM SCT025 FM060800 21012KT P6SM SKC FM061600 21013G22KT P6SM SKC
KDUJ,KDUJ 051140Z 0512/0612 16007KT P6SM BKN250 WS020/21035KT FM051400 17010G22KT P6SM BKN080 FM060000 17015G30KT P6SM BKN050 FM060800 20010G22KT 6SM -SHRA BR OVC035 FM060900 20009G18KT 5SM -SHRA BR OVC015
KDVL,KDVL 051127Z 0512/0612 16015KT P6SM SKC FM051800 17021G32KT P6SM VCSH BKN050 FM052300 19020G28KT P6SM OVC050 FM060100 23018G27KT P6SM BKN090 FM060900 26026G37KT P6SM BKN060
KDVT,KDVT 051120Z 0512/0612 VRB04KT P6SM SCT250 FM051900 23005KT P6SM FEW250 FM060300 04005KT P6SM FEW250
KDYS,TAF AMD KDYS 050440Z 0504/0606 32009KT 9999 SKC QNH2996INS BECMG 0509/0510 VRB06KT 9999 SKC QNH2993INS BECMG 0516/0517 26012KT 9999 SKC QNH2990INS BECMG 0519/0520 25015G25KT 9999 SKC QNH2977INS BECMG 0522/0523 22009KT 9999 SKC QNH2977INS TX22/0522Z TN05/0513Z LAST NO AMDS AFT 0505 NEXT 0512
KEAR,KEAR 051125Z 0512/0612 VRB05KT P6SM SKC FM051600 24013G20KT P6SM SKC FM052000 24019G27KT P6SM FEW250 FM052300 23013G20KT P6SM FEW130 FM060600 31009KT P6SM FEW130
KEAT,KEAT 051126Z 0512/0612 32010KT P6SM FEW080 WS020/27050KT FM060100 30018G25KT P6SM BKN070 FM060300 27007KT P6SM SCT230 PROB30 0606/0609 4SM -SN BR OVC025 FM060900 18008KT P6SM BKN160 PROB30 0609/0612 4SM -SN BR OVC025
KEAU,KEAU 051138Z 0512/0612 03009KT 4SM -RA BR OVC007 FM051600 02011KT 2SM -RA BR OVC006 FM052000 33010KT 3SM RA BR OVC008 FM060000 26008KT P6SM BKN013 FM060300 21006KT P6SM SCT029 FM060800 18007KT P6SM OVC090
KECG,KECG 051120Z 0512/0612 12003KT P6SM SKC FM051300 13005KT P6SM SKC FM051400 14008KT P6SM SKC FM051700 15011G17KT P6SM SCT040
KECP,KECP 051120Z 0512/0612 14008KT P6SM SCT250 FM060000 00000KT P6SM SKC FM060900 00000KT 5SM BR SCT002
KEDW,TAF AMD KEDW 050052Z 0500/0603 VRB06KT 9999 SKC QNH3015INS TX20/0521Z TN02/0514Z LAST NO AMDS AFT 0501 NEXT 0714
KEED,KEED 051126Z 0512/0612 VRB04KT P6SM BKN250 FM051700 11006KT P6SM BKN250 FM060000 17008KT P6SM SCT250
KEET,KEET 051140Z 0512/0612 14007KT P6SM BKN250 FM051800 17007KT 6SM SHRA BR OVC030 PROB30 0521/0522 4SM -SHRA BR OVC015 FM052200 15007KT P6SM OVC035 PROB30 0522/0603 4SM -SHRA BR OVC025 FM060500 00000KT P6SM BKN070 FM060800 00000KT P6SM BKN027 FM061000 00000KT P6SM BKN015
KEFD,TAF AMD KEFD 050753Z 0507/0610 VRB06KT 9999 BKN030 WS020/21035KT QNH2980INS TEMPO 0507/0509 30020G35KT 6000 TSRA BKN010CB OVC020 BECMG 0509/0510 34012KT 9999 BKN045 QNH2980INS BECMG 0514/0515 02009KT 9999 SCT055 QNH2985INS BECMG 0608/0609 VRB06KT 9999 SCT020 QNH2985INS TX26/0604Z TN17/0512Z
KEFK,KEFK 051124Z 0512/0612 16007KT P6SM FEW240 WS020/24035KT FM051400 20010G18KT P6SM FEW230 FM052100 19010G17KT P6SM BKN120 FM060200 18012G21KT P6SM BKN170 WS020/21040KT FM060600 18014G25KT P6SM SCT160 WS020/20050KT
KEGE,KEGE 051124Z 0512/0612 27013KT P6SM BKN040 FM052000 25012KT P6SM OVC050 FM060600 27010KT 4SM -SN BR OVC025
KEGI,TAF AMD KEGI 050500Z 0505/0607 12006KT 9999 FEW040 QNH3002INS BECMG 0506/0507 13009KT 9999 BKN030 BKN250 QNH2997INS BECMG 0508/0509 12009KT 9999 BKN010 BKN025 QNH2999INS TEMPO 0508/0512 6000 BR BKN005 BECMG 0515/0516 13015G20KT 9999 VCSH BKN020 BKN030 QNH2998INS TEMPO 0520/0524 15010G15KT 6000 -SHRA BKN010 BECMG 0600/0601 14008KT 9999 NSW SCT030 SCT140 QNH3000INS TX27/0519Z TN13/0508Z LAST NO AMDS AFT 0505 NEXT 0709
KEKN,KEKN 051128Z 0512/0612 16012G24KT P6SM SCT025 FM051800 18012G26KT P6SM SCT035 FM060000 17009G22KT P6SM SCT035 FM060800 19005KT P6SM -SHRA OVC060
KEKO,KEKO 051136Z 0512/0612 22007KT P6SM OVC070 FM051400 22012G22KT P6SM VCSH BKN030 OVC060 FM051800 24015G25KT 6SM -SHRA BR SCT010 OVC030 FM060200 25006KT P6SM -SHRASN SCT008 OVC020 FM061000 20008KT P6SM -SHSN SCT008 OVC020
KEKS,KEKS 051120Z 0512/0612 17025G40KT P6SM OVC060 WS020/23045KT FM051500 23027G42KT 6SM BR OVC035 WS020/26045KT TEMPO 0515/0517 4SM -RASN BR OVC030 FM051700 24025G40KT P6SM VCSH BKN025 FM051900 27025G40KT P6SM SCT060
KELD,KELD 050520Z 0506/0606 28014G22KT 3SM +TSRA BR VCTS FEW008CB BKN018 OVC045 FM050800 30006KT P6SM OVC100 FM051400 25004KT P6SM SKC FM051800 23006KT 6SM BR BKN250 FM060000 00000KT 6SM BR BKN250
KELM,KELM 051126Z 0512/0612 26005KT P6SM BKN025 WS020/21040KT FM051400 20012G21KT P6SM BKN035 FM052000 18015G25KT P6SM BKN045 WS018/19040KT FM060200 18014G21KT P6SM BKN025 WS017/19047KT
KELP,KELP 051129Z 0512/0612 21005KT P6SM FEW250 FM051900 27007KT P6SM FEW250 FM060300 VRB05KT P6SM SKC
KELY,KELY 051136Z 0512/0612 18010KT P6SM FEW100 FM052000 26010G20KT P6SM SCT040 BKN070 FM060100 27013G23KT P6SM VCSH SCT015 BKN030 FM060300 23010KT 6SM -SHRASN BR SCT010 OVC020 FM060800 17010KT 6SM -SHRASN BR SCT008 OVC020
KEND,TAF KEND 051000Z 0510/0616 22010KT 9999 SCT030 QNH2979INS BECMG 0514/0515 21010G20KT 9999 FEW250 QNH2971INS BECMG 0523/0600 17010KT 9999 SKC QNH2975INS BECMG 0614/0615 VRB06KT 9999 SKC QNH2969INS TX15/0521Z TN01/0512Z
KENV,KENV 051129Z 0512/0612 VRB05KT P6SM SCT060 OVC100 FM051900 29012G22KT P6SM VCSH SCT050 BKN070 FM060200 32010KT P6SM -RASN FEW020 BKN040 OVC050
KENW,KENW 051120Z 0512/0612 18015G28KT P6SM OVC019 FM051500 18023G48KT P6SM VCSH OVC012 FM051700 19024G49KT 6SM -SHRA BR OVC014 FM051900 21026G50KT P6SM BKN040 FM052100 21027G50KT P6SM OVC018 FM060100 23023G39KT P6SM BKN035 FM060300 23016G31KT P6SM FEW200
KERI,KERI 051127Z 0512/0612 18010G18KT P6SM SKC FM051500 18015G25KT P6SM BKN250 FM060000 18020G30KT P6SM VCSH BKN050 FM060200 22015G25KT P6SM -SHRA BKN035 FM061000 23011KT P6SM VCSH BKN050
KEUG,KEUG 051138Z 0512/0612 26005KT P6SM BKN025 OVC040 FM051400 28011KT P6SM VCSH OVC040 FM060600 18011G17KT 6SM -SHRA BR BKN050
KEUL,KEUL 051120Z 0512/0612 24012G21KT P6SM VCSH OVC040 WS020/26040KT FM051600 29015G25KT P6SM -SHRA OVC030 FM051800 30014G24KT P6SM BKN060 OVC200 FM060000 31006KT P6SM BKN060 FM060300 VRB04KT P6SM SCT060 AMD NOT SKED
KEVV,KEVV 051120Z 0512/0612 18018G34KT 6SM -SHRA OVC035 FM051400 21016G30KT P6SM BKN030 FM051700 21013G23KT P6SM BKN020 FM052000 22012G20KT P6SM OVC040 FM052200 23008G16KT P6SM SCT120 FM060900 VRB04KT 5SM BR SKC
KEVW,KEVW 051129Z 0512/0612 23020G35KT 2SM -SN BR BKN003 OVC020 FM060200 30010G20KT 3SM -SN BR BKN006 OVC020 FM060400 24008KT 3SM -SN BR BKN006 OVC020
KEWN,KEWN 051121Z 0512/0612 00000KT 1SM BR OVC015 FM051230 14008KT P6SM FEW025 SCT040 FM060000 14005KT P6SM SCT250
KEWR,KEWR 051131Z 0512/0618 18005KT P6SM FEW025 OVC070 TEMPO 0512/0514 3SM BR OVC025 FM051400 19006KT P6SM SCT040 FM051800 18011KT P6SM SCT040 FM060100 17007KT P6SM SCT025 BKN040
KEYW,KEYW 051131Z 0512/0612 06008KT P6SM FEW025
KFAF,TAF AMD KFAF 050300Z 0503/0608 VRB06KT 9999 SCT050 QNH3022INS BECMG 0512/0513 15006KT 9999 BKN050 QNH3016INS BECMG 0518/0519 16009KT 9999 SCT150 QNH3015INS TX23/0519Z TN16/0512Z LAST NO AMDS AFT 0503 NEXT 0710
KFAR,KFAR 051127Z 0512/0612 15007KT P6SM SKC FM051700 16013KT P6SM SKC FM060100 22012KT P6SM VCSH BKN070 FM060600 24013G21KT P6SM BKN080
KFAT,KFAT 051120Z 0512/0612 VRB03KT P6SM BKN200 FM060600 VRB03KT P6SM OVC050
KFAY,KFAY 051136Z 0512/0612 09003KT 1SM BR SCT003 OVC035 FM051300 13007KT P6SM SCT025 BKN100 FM051800 16009KT P6SM SCT080 BKN250 FM060000 14005KT P6SM BKN250 FM060900 12003KT 4SM BR OVC250
KFBG,TAF AMD KFBG 050947Z 0509/0615 12004KT 8000 BR SCT004 BKN020 QNH3021INS BECMG 0512/0513 13004KT 9999 NSW BKN030 QNH3020INS BECMG 0518/0519 16006KT 9999 SCT030 QNH3011INS BECMG 0606/0607 15004KT 8000 BR SCT030 QNH3011INS TX26/0518Z TN18/0510Z
KFCS,TAF KFCS 050500Z 0505/0611 34010KT 9999 SKC 520406 QNH2976INS BECMG 0514/0515 27010G15KT 9999 SCT200 520403 QNH2972INS BECMG 0516/0517 24015G25KT 9999 SCT200 510002 520203 QNH2968INS BECMG 0520/0521 28010G15KT 9999 SCT200 QNH2956INS BECMG 0605/0606 28006KT 9999 SCT050 BKN200 QNH2959INS TX17/0520Z TNM03/0511Z LAST NO AMDS 0505Z NEXT 0706Z
KFDY,KFDY 051127Z 0512/0612 18015G25KT P6SM BKN250 FM051500 19025G40KT P6SM SCT100 FM052000 19025G43KT P6SM -SHRA OVC035 FM060400 24012G20KT P6SM SCT100 FM061000 23008KT P6SM BKN250
KFFO,TAF KFFO 051100Z 0511/0617 18012G18KT 9999 BKN220 WS020/19045KT QNH2986INS BECMG 0511/0512 18012G22KT 9999 BKN060 BKN200 520103 QNH2984INS TEMPO 0512/0515 19015G25KT BECMG 0514/0515 18015G25KT 9999 BKN025 BKN080 520103 QNH2978INS TEMPO 0515/0519 19025G35KT 520004 BECMG 0518/0519 20025G35KT 9999 VCSH SCT015 BKN020 OVC045 520004 QNH2972INS BECMG 0522/0523 21015G25KT 6000 SHRA BKN018 BKN030 OVC060 520103 QNH2979INS BECMG 0602/0603 21012KT 9999 VCSH BKN020 BKN035 OVC060 520103 QNH2983INS BECMG 0608/0609 21009KT 8000 BR FEW025 SCT040 510103 QNH2992INS BECMG 0614/0615 21010G15KT 9999 NSW FEW030 SCT050 QNH2993INS TX22/0520Z TN13/0511Z
KFHU,TAF KFHU 042200Z 0422/0604 32009KT 9999 SKC QNH2998INS WND 20009KT AFT 0512 TX20/0520Z TN01/0511Z LAST NO AMDS AFT 0506 NEXT 0706
KFKL,KFKL 051140Z 0512/0612 17010KT P6SM BKN200 WS020/21040KT FM060400 18012G28KT 6SM -SHRA BR BKN040 FM060700 21010G20KT 5SM -SHRA BR BKN035 FM060800 24009G18KT 4SM -SHRA BR OVC030 FM061000 22006KT 6SM -SHRA BR BKN015
KFLG,KFLG 051120Z 0512/0612 VRB05KT P6SM SCT250 FM051800 25010G16KT P6SM FEW250 FM060200 VRB04KT P6SM SKC
KFLL,KFLL 051120Z 0512/0618 08010KT P6SM FEW025 SCT050 FM051400 09010G15KT P6SM SCT040 FM060000 08009KT P6SM FEW025 SCT045 BKN120 FM061000 10010KT P6SM BKN250
KFLO,KFLO 051126Z 0512/0612 06004KT 3/4SM BR BKN023 OVC045 TEMPO 0512/0513 2SM BR FM051300 10003KT 5SM BR BKN025 OVC045 FM051400 13007KT P6SM SCT080 FM051800 15010G17KT P6SM SCT080 FM052300 14007KT P6SM SCT200 FM060700 13004KT 4SM BR SCT030
KFMH,KFMH 051120Z 0512/0612 21010KT P6SM SCT200 FM051500 22010G20KT P6SM SCT150 FM052200 20009KT P6SM SCT250
KFMN,KFMN 051125Z 0512/0612 VRB06KT P6SM SCT250 FM051900 29012G18KT P6SM SCT250 FM060200 VRB06KT P6SM SCT250
KFMY,KFMY 051132Z 0512/0612 06006KT P6SM SKC FM051600 10010KT P6SM SCT035 FM060000 06004KT P6SM SCT250
KFNT,KFNT 051120Z 0512/0612 18012G18KT P6SM OVC200 WS018/20048KT FM051400 18018G30KT P6SM BKN250 FM051700 19020G38KT P6SM SCT045 BKN090 FM052100 21020G42KT P6SM -SHRA BKN025 BKN045 TEMPO 0521/0523 21023G46KT 2SM SHRA OVC012 FM060000 23018G35KT P6SM BKN025 FM060400 23015G25KT P6SM SCT025 FM060800 22012KT P6SM SKC
KFOD,KFOD 051138Z 0512/0612 35012KT P6SM VCSH SCT015 OVC070 TEMPO 0512/0516 4SM -SHRA BR BKN015 FM051600 29015KT P6SM BKN035 FM052100 20012KT P6SM SCT040
KFOE,KFOE 051130Z 0512/0612 29014G27KT 5SM -RA BR OVC008 FM051300 26009KT P6SM BKN050 FM051600 23015G24KT P6SM SKC FM060100 20011KT P6SM FEW250 WS012/22040KT FM060900 21006KT P6SM FEW250
KFPR,KFPR 051131Z 0512/0612 09009KT P6SM VCSH SCT030 SCT060 FM051500 10013G19KT P6SM VCSH SCT030 BKN050 FM060100 10009KT P6SM VCSH SCT030 SCT050
KFRI,TAF KFRI 042011Z 0420/0602 35012KT 6000 SHRA OVC009 660906 510502 QNH2980INS BECMG 0421/0422 35012KT 8000 -SHRA OVC010 660906 510502 QNH2974INS BECMG 0502/0503 36012KT 8000 -RA OVC010 650505 QNH2968INS BECMG 0505/0506 32012KT 6000 -RASN OVC008 650505 QNH2968INS BECMG 0507/0508 29012KT 3200 -SN OVC008 650109 QNH2968INS BECMG 0509/0510 27010KT 9999 NSW SCT020 QNH2967INS BECMG 0517/0518 23010G20KT 9999 SKC QNH2960INS BECMG 0521/0522 22012KT 9999 SKC QNH2959INS TX04/0421Z TN00/0512Z LAST NO AMDS AFT 0420 NEXT 0712
KFSD,KFSD 051122Z 0512/0612 VRB03KT P6SM FEW240 FM051700 22008KT P6SM FEW250 FM052000 21010G18KT P6SM FEW250 FM060000 18008KT P6SM BKN100 FM060600 26010G18KT P6SM BKN100
KFSM,KFSM 051131Z 0512/0612 26009KT P6SM OVC015 FM051400 23008KT P6SM SKC FM060100 07004KT P6SM SKC
KFST,KFST 051124Z 0512/0612 23011KT P6SM SKC FM051800 25014G21KT P6SM SKC FM060100 21009KT P6SM SKC
KFTK,TAF KFTK 041900Z 0419/0601 18012G22KT 9999 FEW070 SCT250 510005 QNH2999INS BECMG 0422/0423 17008KT 9999 BKN060 BKN200 QNH2992INS BECMG 0512/0513 20015G25KT 6000 -SHRA BKN030 OVC060 QNH2996INS BECMG 0516/0517 24012G18KT 4800 -SHRA BKN015 OVC030 QNH2992INS TX26/0420Z TN15/0512Z LAST NO AMDS AFT 0503 NEXT 0712
KFTW,KFTW 051120Z 0512/0612 30008KT P6SM SKC FM051800 19009KT P6SM SKC FM060100 15011KT P6SM SKC
KFTY,KFTY 051129Z 0512/0612 15007KT P6SM SCT005 BKN008 TEMPO 0512/0514 6SM BR OVC005 FM051500 14010KT P6SM SCT012 BKN020 FM051700 16010KT P6SM SCT035 BKN250 FM052000 19008KT P6SM BKN200 FM052300 15004KT P6SM BKN200 FM060900 12003KT 3SM BR BKN003
KFVE,KFVE 051136Z 0512/0612 22010KT P6SM SCT250 WS020/24040KT FM051500 23012G22KT P6SM SCT250 FM060000 20010KT P6SM BKN250 WS020/24040KT FM060600 20010G18KT P6SM BKN040 WS020/24040KT
KFWA,KFWA 051120Z 0512/0612 18017G35KT P6SM VCSH SCT050 BKN100 FM051400 19020G41KT 6SM -SHRA BR SCT020 BKN050 TEMPO 0514/0517 19025G45KT 3SM SHRA BR BKN015 FM051900 21025G46KT 6SM BR VCSH BKN020 FM052100 22023G43KT 4SM -SHRA BR BKN015 FM060000 24019G29KT P6SM SCT025 BKN050 FM060400 23013KT P6SM SCT250
KFXE,KFXE 051120Z 0512/0612 07008KT P6SM FEW025 SCT050 FM051400 09010G15KT P6SM SCT040 FM060100 08008KT P6SM FEW025 SCT045 FM060600 09008KT P6SM BKN250
KFYV,KFYV 051131Z 0512/0612 24012G20KT P6SM OVC012 TEMPO 0512/0514 4SM -DZ BR OVC008 FM051500 21011KT P6SM SKC FM060000 18006KT P6SM SKC
KGBD,KGBD 051138Z 0512/0612 25010KT P6SM SKC FM051800 21017G26KT P6SM SKC FM060000 19013KT P6SM FEW250 FM061100 02006KT P6SM FEW250
KGCC,KGCC 051120Z 0512/0612 22020G33KT P6SM BKN130 FM052200 31024G35KT 5SM -RA BKN045 FM060000 31024G35KT P6SM BKN090 FM060700 29019KT P6SM FEW250
KGCK,KGCK 051120Z 0512/0612 24010KT P6SM SKC FM051500 22017G27KT P6SM SKC FM060000 18010KT P6SM SKC FM060900 36012KT P6SM SKC
KGCN,KGCN 051120Z 0512/0612 VRB05KT P6SM SCT250 FM051800 25011KT P6SM FEW250 FM060200 VRB04KT P6SM SKC
KGDV,KGDV 051120Z 0512/0612 20012G20KT P6SM BKN060 WS020/25040KT TEMPO 0513/0517 6SM RA BR OVC025 FM051700 24020G30KT P6SM OVC070 FM052000 27030G45KT P6SM FEW120 FM061100 28020G35KT P6SM FEW110
KGEG,KGEG 051126Z 0512/0612 26030G49KT P6SM FEW035 SCT120 BKN250 FM051500 25020G28KT P6SM SCT250 FM052100 25016G28KT P6SM SCT100 FM060300 24011G19KT P6SM SCT190 FM060900 19007KT P6SM SCT140 FM061100 19007KT 5SM BR SCT050
KGFA,TAF KGFA 042010Z 0420/0602 22020G30KT 9999 FEW070 SCT100 530005 QNH2950INS TEMPO 0420/0423 22025G35KT BECMG 0500/0501 22020KT 9999 BKN030 OVC050 WS020/25055KT QNH2904INS BECMG 0511/0512 24020G30KT 9999 BKN030 WS020/26060KT QNH2906INS BECMG 0517/0518 27035G55KT 9999 SKC 570005 QNH2930INS BECMG 0523/0524 26012G18KT 9999 FEW080 QNH2960INS TX10/0520Z TN04/0506Z LAST NO AMDS AFT 0420 NEXT 0712
KGFK,KGFK 051127Z 0512/0612 16006KT P6SM SKC FM051500 17011KT P6SM SKC FM051800 17017G23KT P6SM FEW250 FM060100 19015G23KT P6SM VCSH OVC060 FM060400 22013G21KT P6SM BKN070 FM060800 25016G28KT P6SM BKN070
KGFL,KGFL 051135Z 0512/0612 VRB03KT P6SM SCT025 OVC050 WS020/22035KT FM051500 20008KT P6SM SCT025 OVC035 FM051800 21011G18KT P6SM BKN040 FM060200 20010KT P6SM BKN050 WS020/20035KT
KGGG,KGGG 050520Z 0506/0606 31008KT P6SM -RA BKN060 OVC070 FM051200 34003KT P6SM SKC FM051800 22007KT P6SM BKN250 FM060000 VRB03KT P6SM OVC250
KGGW,KGGW 051120Z 0512/0612 19015KT 6SM -RA BR OVC070 WS020/26040KT TEMPO 0512/0515 6SM RA BR OVC025 FM051500 22020G30KT P6SM OVC070 FM051800 26030G45KT P6SM BKN080 FM060600 29025G35KT P6SM BKN060
KGJT,KGJT 051124Z 0512/0612 11007KT P6SM BKN060 FM051700 16002KT P6SM OVC100 FM052200 25008KT P6SM OVC100 FM060300 30010KT P6SM OVC050
KGKY,KGKY 051120Z 0512/0612 30008KT P6SM SKC FM052000 19009KT P6SM SKC FM060100 15011KT P6SM SKC
KGLD,KGLD 051136Z 0512/0612 24015KT P6SM SKC FM051500 24015G23KT P6SM SCT250 FM060000 VRB06KT P6SM SCT250
KGLH,KGLH 051133Z 0512/0612 21008KT 6SM BR VCSH OVC045 FM051400 23010KT P6SM OVC060
KGLS,KGLS 051121Z 0512/0612 03012KT P6SM VCSH BKN050 FM051400 03010KT P6SM SCT150 FM052300 10007KT P6SM FEW250 FM060500 11007KT P6SM SCT015
KGMU,KGMU 051124Z 0512/0612 10004KT 6SM -SHRA BR OVC004 TEMPO 0512/0513 2SM BR OVC002 FM051600 18009G16KT 6SM BR VCSH OVC014 FM052100 18007KT P6SM -SHRA BKN035 FM060400 15007KT 6SM BR VCSH OVC009 FM060900 15003KT 4SM -SHRA OVC004 PROB30 0609/0612 2SM -SHRA BR OVC002
KGNV,KGNV 051125Z 0512/0612 04003KT P6SM BKN045 FM051300 12008G12KT P6SM VCSH SCT025 BKN040 TEMPO 0514/0518 BKN025 FM051800 06005KT P6SM VCSH BKN035 FM060000 06003KT P6SM SCT025 BKN070
KGON,KGON 051131Z 0512/0612 18005KT P6SM FEW035 TEMPO 0512/0514 5SM BR BKN025 FM051400 19012KT P6SM SCT040 FM052300 18008KT P6SM SCT020 BKN040
KGPI,KGPI 051120Z 0512/0612 19015G25KT P6SM -SHRA OVC050 FM051300 19022G30KT 6SM -SHRA SCT020 BKN050 WS020/25045KT FM052100 27015G25KT 5SM -SHSN OVC050 FM060100 28012KT P6SM -SHSN BKN050 FM060300 12012KT 4SM -SN OVC050 FM060700 05015KT P6SM -SHSN OVC050
KGPT,KGPT 051122Z 0512/0612 15012KT P6SM VCSH BKN020 OVC040 TEMPO 0515/0518 VRB20G30KT 1SM TSRA BR OVC010CB FM051800 13011KT 5SM SHRA BR OVC010 FM060100 12008KT 5SM BR BKN008 FM060800 11003KT 3SM BR BKN007
KGRB,KGRB 051135Z 0512/0612 04011KT 3SM SHRA OVC004 FM051700 15013G27KT 3SM SHRA OVC004 FM051800 17016G30KT 5SM SHRA OVC006 FM051900 19019G37KT P6SM SHRA OVC016 FM052300 22023G46KT P6SM OVC008 FM060100 22014G26KT P6SM BKN080
KGRF,TAF KGRF 050500Z 0505/0611 19015G25KT 9000 -RA BKN011 BKN025 520005 QNH2949INS TEMPO 0505/0506 20015G30KT SCT011 BKN025 BECMG 0506/0507 23012KT 9999 NSW SCT025 SCT035 QNH2963INS BECMG 0517/0518 25012G18KT 9000 -RA SCT030 SCT040 QNH2986INS BECMG 0523/0524 25012KT 9999 NSW SCT025 SCT060 QNH2979INS BECMG 0607/0608 25012G20KT 8000 -RA SCT012 BKN015 OVC020 620258 QNH2964INS TX13/0505Z TN05/0605Z
KGRI,KGRI 051125Z 0512/0612 VRB05KT P6SM SKC FM051500 23010KT P6SM SKC FM051800 23015G20KT P6SM FEW250 FM060000 20011KT P6SM SKC FM060300 25012KT P6SM FEW130 FM060800 32009KT P6SM FEW130
KGRK,TAF KGRK 050800Z 0508/0614 33005KT 9999 SKC QNH2993INS BECMG 0516/0517 19005KT 9999 SKC QNH2985INS TX22/0521Z TN09/0513Z
KGRR,KGRR 051120Z 0512/0612 18012G24KT P6SM BKN140 WS020/21050KT FM051400 17017G36KT P6SM -SHRA OVC045 WS020/19055KT FM051800 18020G44KT P6SM -SHRA OVC025 WS020/19050KT FM052100 21022G46KT P6SM VCSH OVC035 WS020/21050KT FM060000 22020G37KT P6SM BKN050
KGSB,TAF KGSB 050400Z 0504/0610 VRB06KT 9999 FEW030 QNH3021INS TEMPO 0508/0512 3200 BR BKN005 BECMG 0512/0513 13012G18KT 9999 BKN045 QNH3016INS TX27/0521Z TN17/0511Z LAST NO AMDS AFT 0504 NEXT 0512
KGSO,KGSO 051120Z 0512/0612 14005KT 3SM BR OVC002 TEMPO 0512/0514 1 1/2SM BR BKN012 FM051400 16010KT P6SM BKN015 FM051800 16010G18KT P6SM BKN025 FM052100 17010KT P6SM BKN035 FM060200 15004KT P6SM BKN009
KGSP,KGSP 051124Z 0512/0612 10004KT 6SM -SHRA BR OVC004 TEMPO 0512/0513 2SM BR OVC002 FM051600 16009G16KT 6SM BR VCSH OVC012 FM052100 18007KT P6SM -SHRA BKN035 FM060400 16008KT 6SM BR VCSH OVC009 FM060900 17003KT 4SM -SHRA OVC004 PROB30 0609/0612 2SM -SHRA BR OVC002
KGTB,TAF KGTB 050100Z 0501/0607 18012G20KT 9999 FEW200 530054 QNH3008INS BECMG 0513/0514 19012G25KT 9999 SCT012 BKN020 OVC030 530054 QNH3006INS BECMG 0517/0518 18012G25KT 9999 SCT030 OVC040 530054 QNH2999INS BECMG 0520/0521 18012G25KT 9999 BKN025 OVC040 530054 QNH2999INS BECMG 0521/0522 18015G25KT 9999 SCT025 OVC040 560054 QNH2998INS BECMG 0522/0523 17015G30KT 9999 BKN020 OVC026 560054 QNH2990INS BECMG 0605/0606 17020G35KT 9999 SCT018 BKN025 570054 QNH2988INS TX20/0519Z TN13/0509Z LAST NO AMDS AFT 0503 NEXT 0703
KGTF,KGTF 051120Z 0512/0612 23029G45KT P6SM VCSH BKN100 WS020/25055KT FM051500 27033G51KT P6SM FEW200 FM060000 28024G39KT P6SM FEW200 FM060400 27014G22KT P6SM SCT080
KGTR,KGTR 051133Z 0512/0612 18014G28KT 4SM RA BKN025 WS020/17045KT FM051500 16013KT 6SM BR VCSH OVC010 FM052000 19007KT P6SM OVC010 FM060700 00000KT 5SM BR OVC005
KGUC,KGUC 051124Z 0512/0612 VRB03KT P6SM BKN070 FM051800 27012KT P6SM BKN060 FM052100 29007KT P6SM OVC060 FM060300 01004KT P6SM OVC060 FM060600 VRB03KT P6SM OVC050
KGUP,KGUP 051125Z 0512/0612 VRB06KT P6SM SCT250 FM051800 24012G20KT P6SM SCT250 FM060100 VRB06KT P6SM SCT250
KGUR,TAF KGUR 050500Z 0505/0611 27009KT 9999 FEW070 FEW100 510022 QNH2953INS BECMG 0513/0514 27020KT 9999 FEW060 SCT090 BKN120 520083 QNH2947INS BECMG 0516/0517 27040G50KT 9999 SKC 520074 QNH2939INS BECMG 0523/0524 28030KT 9999 SKC 520074 QNH2940INS BECMG 0601/0602 26020KT 9999 SKC 520053 QNH2948INS BECMG 0606/0607 30009KT 9999 SCT160 510013 QNH2967INS TX13/0519Z TNM03/0609Z LAST NO AMDS AFT 0505Z NEXT 0713Z
KGUS,TAF KGUS 042100Z 0421/0603 18015G25KT 9999 FEW200 QNH2976INS BECMG 0509/0510 16025G35KT 9999 FEW015 SCT050 WS020/18050KT 520009 520901 QNH2966INS BECMG 0513/0514 16040G50KT 8000 -SHRA BKN015 OVC030 530009 530901 QNH2958INS BECMG 0520/0521 23025G35KT 9999 NSW SCT040 520009 520901 QNH2963INS BECMG 0600/0601 24015G25KT 9999 FEW080 QNH2978INS TX23/0421Z TN12/0511Z LAST NO AMDS AFT 0503 NEXT 0513
KGUY,KGUY 051120Z 0512/0612 24010KT P6SM FEW250 FM052300 19014KT P6SM FEW250 FM060800 27009KT P6SM FEW250 FM061100 31009KT P6SM FEW250
KGWO,KGWO 051133Z 0512/0612 22009KT 4SM RA BR OVC010 FM051400 22008KT P6SM VCSH OVC015 FM051600 24008KT P6SM OVC060 FM060900 00000KT P6SM BKN020
KGYY,KGYY 051120Z 0512/0612 17024G40KT P6SM VCSH SCT012 OVC020 WS020/19060KT FM051700 21026G45KT P6SM SCT025 BKN030 TEMPO 0517/0518 20030G50KT 3SM SHRA BKN035 FM052300 22020G34KT P6SM SCT035 FM060300 23013G22KT P6SM FEW250
KHBG,KHBG 051133Z 0512/0612 16009KT P6SM VCSH SCT020 BKN070 FM051400 20011KT 3SM SHRA BR OVC015 FM051800 17009KT 6SM BR VCSH OVC005 FM052200 09003KT P6SM BKN005 FM061000 00000KT 1SM BR BKN002
KHCR,KHCR 051129Z 0512/0612 VRB05KT P6SM VCSH SCT020 BKN030 OVC050 FM051600 23010KT 6SM -SHRASN BR SCT020 BKN030 OVC050 FM051900 23010KT 6SM -RASN BR SCT020 OVC030 FM060400 VRB05KT 6SM -SN BR FEW020 BKN030 OVC040
KHDC,KHDC 051122Z 0512/0612 15015KT P6SM VCSH OVC010 TEMPO 0513/0515 VRB20G30KT 1SM TSRA BR OVC008CB FM051500 29007KT 2SM SHRA BR VCTS OVC010CB FM051900 VRB03KT P6SM OVC010 FM060600 00000KT 4SM BR OVC008
KHDN,KHDN 051124Z 0512/0612 00000KT 5SM -SN BR BKN011 OVC016 TEMPO 0512/0516 2SM -SN BR BKN010 FM051600 14010KT 6SM -SN BR OVC025 FM051800 17018KT P6SM VCSH OVC050 FM060200 28018G25KT 4SM -SN BR OVC025 TEMPO 0602/0606 2SM -SN BR OVC010
KHIB,KHIB 051140Z 0512/0612 33004KT P6SM SCT015 FM051600 02006KT P6SM SCT015 SCT150 FM052000 36008KT P6SM VCSH FEW022 BKN050 BKN150 FM060000 31006KT P6SM SCT020 SCT150 FM060600 22006KT P6SM SCT020
KHIE,KHIE 051132Z 0512/0612 00000KT P6SM BKN250 FM051400 23003KT P6SM SCT250 FM052200 20007G14KT P6SM OVC050
KHIF,TAF KHIF 050500Z 0505/0611 16009KT 9999 VCSH BKN035 610359 QNH3005INS BECMG 0508/0509 19012KT 4800 -RASN BKN010 OVC020 630109 QNH3001INS TEMPO 0509/0515 2400 -SN BKN005 OVC010 630059 BECMG 0517/0518 18015G25KT 6000 -SHRA BKN020 OVC030 QNH2992INS BECMG 0603/0604 09012KT 9999 NSW BKN040 QNH2987INS TX07/0522Z TNM01/0513Z LAST NO AMDS AFT 0506 NEXT 0513
KHIO,KHIO 051138Z 0512/0612 22006KT P6SM VCSH BKN045 FM051700 27008KT P6SM -SHRA BKN025 OVC040 FM060200 VRB03KT P6SM -SHRA OVC040 FM060600 20009KT P6SM -RA OVC030 FM061000 18012G18KT 5SM -SHRA BR OVC020
KHKS,KHKS 051133Z 0512/0612 27011KT 3SM RA BR OVC010 FM051500 25007KT 6SM BR VCSH OVC007 FM052000 20004KT P6SM BKN010 FM052300 15004KT P6SM SCT015 FM060300 15004KT P6SM BKN015 FM060400 15003KT 4SM BR BKN008
KHKY,KHKY 051150Z 0512/0612 14004KT 3SM BR VCSH OVC004 TEMPO 0512/0516 1/2SM -SHRA FG OVC002 FM051600 17008KT P6SM OVC010 FM051900 18008KT P6SM OVC025 FM052100 17006KT P6SM -SHRA OVC035 FM060300 16006KT 6SM -SHRA BR OVC009 FM060600 16007KT 5SM BR OVC005 PROB30 0606/0612 2SM -SHRA BR OVC003 AMD NOT SKED
KHLG,KHLG 051140Z 0512/0612 17009KT P6SM BKN250 WS020/20040KT FM051400 18012G25KT P6SM BKN200 FM060600 21009G20KT 6SM -SHRA BR OVC050 FM061000 22005KT 6SM -SHRA BR BKN035 FM061100 21004KT 5SM -SHRA BR BKN025
KHLN,KHLN 051120Z 0512/0612 23015G30KT P6SM VCSH BKN070 WS020/25055KT FM051400 27030G47KT 6SM -RA BR BKN050 WS020/27045KT FM052100 28022G38KT P6SM SCT070
KHMN,TAF AMD KHMN 042153Z 0421/0523 29010G15KT 9999 FEW090 QNH2993INS TEMPO 0420/0424 29015G25KT BECMG 0423/0424 35009KT 9999 SKC QNH3006INS TX14/0422Z TN00/0515Z LAST NO AMDS AFT 0422 NEXT 0709
KHNB,KHNB 051120Z 0512/0612 20012G28KT 6SM SHRA BKN040 OVC080 FM051700 20022G35KT P6SM -SHRA OVC025 FM052100 22019G25KT P6SM OVC050 FM060100 24008KT P6SM BKN250
KHND,KHND 051126Z 0512/0612 18006KT P6SM BKN250 FM051800 03007KT P6SM BKN250 FM060300 20008KT P6SM SCT250
KHOB,KHOB 051124Z 0512/0612 26010KT P6SM SKC FM051700 22015G23KT P6SM SKC FM060100 22011KT P6SM SKC
KHON,KHON 051122Z 0512/0612 VRB03KT P6SM SKC FM051500 16008KT P6SM FEW250 FM052000 19012G18KT P6SM FEW240 FM052300 19008KT P6SM BKN100 FM060300 23006KT P6SM OVC070 PROB30 0603/0606 -SHRA
KHOP,TAF KHOP 050800Z 0508/0614 17015G35KT 9999 SCT250 WS015/18045KT QNH2984INS BECMG 0511/0512 18015G30KT 8000 -SHRA OVC035 QNH2986INS BECMG 0516/0517 18015G30KT 8000 -SHRA OVC015 QNH2981INS BECMG 0521/0522 24012G18KT 9999 NSW BKN025 QNH2988INS BECMG 0606/0607 21007KT 9999 SCT035 QNH2999INS TX17/0511Z TN10/0608Z
KHOT,KHOT 051120Z 0512/0612 26010KT P6SM SCT015 TEMPO 0512/0514 BKN015 FM051400 27008KT P6SM SCT040 BKN080 FM051800 26009KT P6SM SCT040 FM060000 18006KT P6SM SCT050 FM060600 14005KT P6SM SKC
KHOU,KHOU 051121Z 0512/0612 VRB05KT P6SM BKN060 FM051400 02007KT P6SM SCT080 FM052200 12006KT P6SM FEW250 FM060700 VRB05KT P6SM SCT030
KHPN,KHPN 051131Z 0512/0612 VRB02KT P6SM OVC060 TEMPO 0512/0514 5SM BR BKN025 FM051400 16010KT P6SM BKN040 FM052300 15005KT P6SM SCT025 BKN040 AMD NOT SKED
KHQM,KHQM 051125Z 0512/0612 29012G20KT P6SM VCSH SCT025 BKN050 FM060100 20008KT P6SM FEW035 BKN150 FM060400 18010KT P6SM -RA SCT020 OVC035 FM060700 17015G25KT 5SM -RA BR BKN010 OVC020
KHRL,KHRL 051129Z 0512/0612 30009KT P6SM VCSH OVC025 FM051300 36015G22KT P6SM BKN025 FM051900 03012KT P6SM BKN035 FM060100 03004KT P6SM BKN025 TEMPO 0608/0612 2SM BR BKN008
KHRO,KHRO 051120Z 0512/0612 27010G20KT P6SM BKN015 BKN030 FM051600 26012G20KT P6SM OVC025 FM051900 22010KT P6SM SCT025 BKN050 FM060000 18007KT P6SM SCT050 FM060600 14005KT P6SM SKC
KHRT,TAF KHRT 051200Z 0512/0616 07008KT 9999 BKN008 QNH2999INS WND 13010G18KT AFT 0515 BECMG 0518/0519 21012G20KT 8000 -SHRA BKN012 OVC060 QNH2994INS TEMPO 0521/0524 3200 +SHRA BKN010 OVC050 BECMG 0601/0602 14008KT 9999 NSW SCT020 BKN080 BKN200 QNH2995INS BECMG 0609/0610 10005KT 9999 BKN100 QNH2997INS TX25/0518Z TN21/0512Z LAST NO AMDS AFT 0512 NEXT 0521
KHST,TAF KHST 051100Z 0511/0617 VRB06KT 9999 FEW025 SCT050 QNH2991INS BECMG 0514/0515 07009KT 9999 SCT025 SCT080 QNH2986INS BECMG 0523/0524 09009KT 9999 SCT025 SCT060 QNH2987INS TX29/0518Z TN24/0511Z
KHSV,KHSV 051120Z 0512/0612 14015G21KT P6SM SKC WS020/16040KT FM051400 16015G25KT 6SM SHRA BR SCT025 BKN050 OVC100 TEMPO 0514/0518 4SM SHRA BKN025 FM051800 17015G25KT P6SM VCSH FEW025 OVC035 FM060000 18007KT P6SM OVC030 FM060800 15003KT P6SM OVC009
KHTS,KHTS 051128Z 0512/0612 15005KT P6SM BKN250 WS020/19035KT FM051500 19012G24KT P6SM BKN250 FM060000 19009G18KT P6SM OVC100 FM060200 21005KT P6SM BKN110 FM060600 24004KT P6SM -SHRA BKN045
KHUA,TAF KHUA 042000Z 0420/0602 14010G15KT 9999 SCT080 QNH2996INS BECMG 0501/0502 13010KT 9999 SKC WS010/15040KT QNH2996INS BECMG 0510/0511 14012KT 9999 BKN010 BKN080 BKN230 WS010/17050KT QNH2991INS BECMG 0514/0515 15010G20KT 1600 +RA OVC007 510053 QNH2993INS BECMG 0519/0520 16012KT 8000 -RA OVC012 510032 QNH2989INS TX25/0420Z TN19/0511Z LAST NO AMDS AFT 0500 NEXT 0712
KHUF,KHUF 051120Z 0512/0612 17019G35KT 6SM SHRA BR OVC070 WS020/19050KT FM051500 18024G42KT P6SM VCSH OVC035 WS020/19055KT FM051600 19022G41KT P6SM VCSH OVC016 WS020/19055KT FM051800 21022G37KT P6SM OVC029 FM052000 22017G31KT P6SM BKN120 FM060300 21006KT P6SM SKC
KHUL,KHUL 051136Z 0512/0612 20010KT P6SM SCT250 WS020/24040KT FM051500 23012G20KT P6SM SCT250 FM060000 20010KT P6SM BKN250 WS020/24040KT FM060800 20010KT P6SM BKN015 WS020/24040KT
KHUM,KHUM 051122Z 0512/0612 12012KT P6SM VCSH OVC012 TEMPO 0512/0514 VRB20G30KT 1SM TSRA BR OVC010CB FM051400 27010KT 2SM +SHRA BR VCTS OVC010CB FM051600 30008KT P6SM SHRA OVC010 FM052100 VRB04KT P6SM OVC020 FM060200 00000KT P6SM SCT015 BKN040
KHUT,KHUT 051138Z 0512/0612 26008KT P6SM SKC FM051800 20017G26KT P6SM SKC FM060000 18011KT P6SM FEW250 FM060800 13006KT P6SM FEW250
KHVR,KHVR 051120Z 0512/0612 22030G41KT P6SM OVC150 FM051500 26032G50KT P6SM FEW150 FM060000 30024G39KT P6SM BKN030 FM060500 30017G28KT P6SM OVC040
KHYA,KHYA 051120Z 0512/0612 20009KT P6SM SCT200 FM051600 20011G17KT P6SM SCT250
KHYR,KHYR 051140Z 0512/0612 05008G16KT P6SM OVC100 FM051300 05012G20KT 6SM -SHRASN BKN015 FM052000 34009G15KT 2SM RA OVC006 FM052300 27008KT P6SM BKN006 FM060400 22007KT P6SM SCT040
KHYS,KHYS 051120Z 0512/0612 26007KT P6SM SKC FM051500 22015G25KT P6SM SKC FM060000 18012KT P6SM SKC FM060900 36009KT P6SM SKC
KIAB,TAF KIAB 051000Z 0510/0616 24009KT 9999 SCT120 BKN150 QNH2975INS BECMG 0515/0516 22010G15KT 9999 SKC QNH2975INS BECMG 0518/0519 20015G25KT 9999 SKC QNH2966INS WND 18009KT AFT 0524 TX13/0521Z TN01/0512Z
KIAD,KIAD 051137Z 0512/0618 16007KT P6SM BKN020 BKN050 FM051500 17012G22KT P6SM BKN035 FM052200 16010G18KT P6SM SCT040 BKN250 FM060300 17008G16KT P6SM SCT040 BKN130 FM060900 17008KT P6SM VCSH SCT015 BKN030 BKN130
KIAG,KIAG 051120Z 0512/0612 19012KT P6SM BKN250 WS020/22040KT FM051400 19015G25KT P6SM BKN250 FM052300 17018G33KT P6SM BKN110 FM060100 19021G38KT P6SM OVC060 FM060400 19021G38KT 4SM SHRA BR OVC035 FM060600 22018G30KT 6SM -SHRA BR OVC035 FM060900 24014G20KT P6SM OVC070
KIAH,KIAH 051121Z 0512/0618 VRB05KT P6SM BKN060 FM051400 02008KT P6SM SCT080 FM051900 VRB05KT P6SM FEW250 FM060900 VRB05KT P6SM SCT020
KICT,KICT 051138Z 0512/0612 23008KT P6SM SKC FM051900 19017G26KT P6SM SKC FM060000 19012KT P6SM FEW250 FM060800 14007KT P6SM FEW250
KIDA,KIDA 051132Z 0512/0612 20025G35KT P6SM VCSH SCT008 OVC015 FM051500 23030G45KT P6SM -RA SCT008 OVC015 FM052000 25025G35KT P6SM SCT050 BKN160 FM060000 25015G25KT P6SM FEW060 SCT180 FM060300 23012KT P6SM SCT180
KIFP,KIFP 051126Z 0512/0612 VRB03KT P6SM BKN250 FM051600 19008KT P6SM BKN250 FM060300 16006KT P6SM SCT250
KILG,KILG 051127Z 0512/0612 VRB02KT 6SM BR FEW003 BKN020 TEMPO 0512/0514 1/4SM FG VV003 FM051500 17010KT P6SM SCT040 FM060200 17008KT P6SM BKN040
KILM,KILM 051120Z 0512/0612 11003KT P6SM SKC FM051300 13007KT P6SM FEW150 FM051600 14010KT P6SM FEW150 FM052300 13006KT P6SM SCT200 FM061100 VRB03KT P6SM SCT200
KILN,KILN 051138Z 0512/0612 17012G20KT P6SM BKN250 WS020/19045KT FM051500 19020G36KT P6SM OVC100 FM051900 19020G38KT P6SM VCSH OVC060 FM052200 20020G35KT 5SM SHRA BR OVC060 FM060100 22017G27KT 5SM -SHRA BR OVC050 FM060300 23014G22KT P6SM OVC050 FM060800 22009KT P6SM SCT090
KIND,KIND 051120Z 0512/0618 17017G31KT 6SM -SHRA BR OVC080 WS020/19050KT FM051500 18022G39KT 6SM SHRA BR OVC060 WS020/19055KT FM051800 19022G39KT P6SM VCSH OVC027 WS020/20050KT FM052000 21021G35KT P6SM VCSH OVC040 FM052300 23013G25KT P6SM BKN100 FM060800 20005KT P6SM FEW250
KINK,KINK 051124Z 0512/0612 25008KT P6SM SKC FM051800 24015G23KT P6SM SKC FM060100 23009KT P6SM SKC
KINL,KINL 051140Z 0512/0612 VRB03KT P6SM SKC FM051400 09006KT P6SM FEW200 FM060300 19004KT P6SM BKN070 FM060600 21010KT 4SM -SHSN BR BKN025 OVC040
KINS,TAF KINS 050440Z 0505/0611 VRB06KT 9999 SCT250 QNH2996INS BECMG 0519/0520 28012KT 9999 BKN110 QNH2986INS BECMG 0602/0603 21007KT 9999 SCT110 QNH2983INS TX19/0522Z TN00/0514Z LAST NO AMDS AFT 0505 NEXT 0516
KINT,KINT 051120Z 0512/0612 15005KT P6SM BKN003 TEMPO 0512/0514 4SM BR FM051400 15006KT P6SM BKN010 FM051700 16010G18KT P6SM BKN015 FM052100 16008KT P6SM BKN025 FM060000 13004KT 5SM -SHRA BR OVC009
KINW,KINW 051120Z 0512/0612 13005KT P6SM SCT250 FM052000 25008KT P6SM FEW250 FM060900 13005KT P6SM SKC
KIPL,KIPL 051120Z 0512/0612 23004KT P6SM SCT250 FM051800 16004KT P6SM SCT250 FM060200 VRB04KT P6SM FEW250
KIPT,KIPT 051120Z 0512/0612 13006KT P6SM SCT014 WS020/21038KT FM051400 12010KT P6SM VCSH OVC015 FM060500 12016G23KT P6SM OVC025
KISM,KISM 051131Z 0512/0612 05005KT P6SM FEW035 SCT070 FM051500 10010KT P6SM SCT045 BKN070 FM060200 07006KT P6SM FEW035 SCT050
KISO,KISO 051120Z 0512/0612 00000KT P6SM SKC FM051300 15009KT P6SM SCT050 FM060000 14005KT P6SM SCT250 AMD LTD TO CLD VIS AND WIND
KISP,KISP 051131Z 0512/0612 17005KT P6SM FEW025 BKN060 TEMPO 0512/0514 5SM BR OVC025 FM051400 18010KT P6SM SCT040 FM052300 18008KT P6SM SCT020 BKN040
KITH,KITH 051126Z 0512/0612 17012KT P6SM FEW030 BKN250 WS013/21040KT FM051600 18014G25KT P6SM SCT035 BKN220 FM052000 17015G30KT P6SM SCT035 SCT200 FM060300 17018G33KT P6SM OVC035 WS018/19041KT FM060700 18015G23KT P6SM OVC028 WS015/18042KT
KIWA,KIWA 051120Z 0512/0612 11005KT P6SM SCT250 FM052000 25005KT P6SM FEW250 FM060300 10005KT P6SM FEW250
KIWD,KIWD 051137Z 0512/0612 07007KT P6SM VCSH OVC013 FM051300 07007KT P6SM SHRA OVC010 FM051700 05010G20KT 2SM SHRA BR OVC006 FM052200 01009KT 1 1/2SM -SHRA BR OVC004 FM060400 25012G21KT 2SM BR BKN006 FM060800 20011G23KT 3SM BR BKN022
KIXD,KIXD 051135Z 0512/0612 27016G24KT 3SM -RA BR OVC006 FM051400 24014G22KT P6SM SKC FM052000 19013G19KT P6SM SKC
KJAC,KJAC 051121Z 0512/0612 20016G25KT 2SM -SN BR SCT008 OVC015 WS020/25050KT TEMPO 0516/0519 1/2SM SN FG FM052200 22014KT 3SM -SN OVC030 WS020/28040KT FM060000 23011KT P6SM SCT030 BKN080 FM060400 19010KT P6SM SCT080
KJAN,KJAN 051133Z 0512/0612 27011KT 3SM RA BR OVC010 FM051500 25007KT 6SM BR VCSH OVC007 FM052000 20004KT P6SM BKN010 FM052300 15004KT P6SM SCT015 FM060300 15004KT P6SM BKN015 FM060400 15003KT 4SM BR BKN008
KJAX,KJAX 051125Z 0512/0612 08006KT P6SM VCSH FEW025 BKN200 TEMPO 0512/0514 6SM BR SCT012 BKN020 FM051400 12012G18KT P6SM VCSH SCT025 BKN050 TEMPO 0514/0517 BKN020 FM060000 09008KT P6SM VCSH SCT025 BKN200 PROB30 0600/0606 6SM -SHRA BKN025
KJBR,KJBR 051143Z 0512/0612 21015G24KT P6SM SCT025 BKN035 FM051500 25013G21KT P6SM SCT040 BKN250 FM052300 21006KT P6SM FEW250 FM060900 20003KT P6SM SKC
KJCT,KJCT 051120Z 0512/0612 28006KT P6SM SKC FM051800 23011G18KT P6SM SKC FM060000 22004KT P6SM SKC
KJEF,KJEF 051120Z 0512/0612 23017G33KT P6SM OVC015 FM051900 24014G26KT P6SM SCT035 FM052300 20009KT P6SM SKC
KJER,KJER 051120Z 0512/0612 25022G32KT P6SM -RA OVC050 WS020/26050KT FM051900 25025G35KT P6SM BKN050 FM060300 22007KT P6SM BKN050 FM060900 06008KT P6SM BKN150
KJFK,KJFK 051131Z 0512/0618 18005KT P6SM FEW025 OVC060 TEMPO 0512/0514 5SM BR OVC025 FM051400 18008KT P6SM SCT040 FM051800 17012KT P6SM SCT040 FM060100 19011KT P6SM SCT025 BKN040
KJHW,KJHW 051120Z 0512/0612 18010KT P6SM BKN250 WS020/21040KT FM051500 18014G24KT P6SM BKN250 FM052000 17016G28KT P6SM BKN120 FM060200 18021G36KT P6SM OVC040 FM060400 18019G33KT 6SM BR VCSH OVC035 FM060500 19018G31KT 4SM SHRA BR OVC035 FM060800 22011G20KT 4SM SHRA BR OVC020
KJKA,KJKA 051139Z 0512/0612 13006KT P6SM BKN025 BKN080 OVC250 TEMPO 0515/0519 SCT030 OVC060 FM052100 17010KT 1SM TSRA SCT020 OVC030CB FM060000 14007KT 3SM SHRA BR OVC013 PROB30 0600/0603 2SM -TSRA BR OVC020CB FM060400 15006KT P6SM BKN070 FM060700 VRB03KT 3SM BR SCT010
KJKL,KJKL 051133Z 0512/0612 17005KT P6SM BKN250 WS020/19040KT FM051400 18010G25KT P6SM BKN250 FM051600 19013G35KT P6SM BKN250 FM052200 19011G29KT P6SM OVC110 FM060100 20006KT P6SM VCSH BKN050 OVC090 WS020/22040KT FM060700 VRB04KT P6SM -SHRA OVC015
KJLN,KJLN 051120Z 0512/0612 23016G27KT P6SM OVC020 FM051500 22014G25KT P6SM BKN050 FM051700 22012G21KT P6SM FEW200 FM060000 19010G20KT P6SM SKC
KJMS,KJMS 051123Z 0512/0612 17008KT P6SM SKC FM051800 17016KT P6SM OVC070 FM060100 20014KT P6SM OVC060 FM060700 26020G35KT P6SM BKN070
KJST,KJST 051120Z 0512/0612 17011KT P6SM FEW014 WS015/20040KT FM051300 17012G20KT P6SM BKN030 FM060000 17016G24KT P6SM BKN050 FM060700 18012KT P6SM OVC050
KJVL,KJVL 051120Z 0512/0612 17014G24KT P6SM OVC015 FM051500 17022G40KT 6SM -SHRA BR OVC011 WS020/19050KT FM051700 20024G41KT P6SM OVC035 FM051900 21026G44KT P6SM OVC015 FM060200 23017G27KT P6SM SCT045 FM060600 20010G21KT P6SM SCT250 WS020/23040KT
KJXN,KJXN 051120Z 0512/0612 19013G28KT P6SM BKN240 WS020/21045KT FM051900 19021G45KT P6SM -SHRA OVC040 WS020/19050KT FM052000 20021G45KT P6SM -SHRA OVC025 WS020/21050KT FM052200 21021G43KT P6SM -SHRA OVC050 WS020/21050KT FM060100 23017G33KT P6SM SCT130
KJZI,KJZI 051135Z 0512/0612 08006KT P6SM VCSH SCT030 SCT060 FM051600 14011G18KT P6SM SCT040 SCT080 FM052300 11007KT P6SM SCT030
KLAF,KLAF 051120Z 0512/0612 17019G40KT 6SM SHRA BR OVC070 WS020/19050KT FM051500 18025G46KT P6SM VCSH OVC030 WS020/18055KT FM051700 19025G43KT 6SM -SHRA BR OVC020 WS020/19060KT FM051800 20024G41KT P6SM VCSH OVC017 WS020/21050KT FM052000 22023G38KT P6SM OVC060 FM052300 23013G28KT P6SM SCT070
KLAL,KLAL 051132Z 0512/0612 04006KT P6SM FEW030 FM051600 10008KT P6SM SCT040 FM060000 VRB03KT P6SM FEW025
KLAN,KLAN 051120Z 0512/0612 19016G25KT P6SM BKN060 WS020/21050KT FM051800 18020G44KT P6SM -SHRA OVC050 WS020/19050KT FM051900 18021G45KT P6SM -SHRA OVC030 WS020/19055KT FM052200 21022G44KT P6SM -SHRA OVC060 WS020/21055KT FM060100 23019G35KT P6SM FEW110
KLAR,KLAR 051120Z 0512/0612 25030G45KT P6SM SCT200 WS020/27055KT FM051400 26035G45KT P6SM BKN120 WS020/27060KT FM060000 25030G40KT P6SM VCSH OVC100 WS020/26050KT FM060400 28025G35KT 1/4SM +SN OVC020 FM060500 29020G30KT P6SM -SN OVC040 FM060800 28020G30KT P6SM OVC100
KLAS,KLAS 051126Z 0512/0618 VRB04KT P6SM BKN250 FM051800 07006KT P6SM BKN250 FM060300 24006KT P6SM SCT250
KLAW,KLAW 051120Z 0512/0612 28004KT P6SM SCT150 FM051800 19013G18KT P6SM SKC FM060000 14013G19KT P6SM SCT250
KLAX,KLAX 051142Z 0512/0618 10003KT P6SM SCT250 FM051800 26010KT P6SM SCT250 FM060300 VRB03KT P6SM SCT250 FM061000 11004KT P6SM BKN008
KLBB,KLBB 051120Z 0512/0612 26008KT P6SM SKC FM051500 26015KT P6SM SKC FM051900 25020KT P6SM SKC FM060100 22015KT P6SM SKC
KLBE,KLBE 051140Z 0512/0612 18007KT P6SM BKN250 FM051400 18010G20KT P6SM SCT110 FM060700 18007KT 6SM -SHRA BR OVC050 FM061000 21006KT 5SM -SHRA BR OVC040 FM061100 21006KT P6SM VCSH OVC040
KLBF,KLBF 051122Z 0512/0612 30005KT P6SM SKC FM051400 27008KT P6SM SKC FM051700 27019G29KT P6SM FEW250 FM052300 28012G22KT P6SM SCT200 FM060200 30014KT P6SM OVC120 WS020/29045KT FM060700 33007KT P6SM OVC100
KLBL,KLBL 051120Z 0512/0612 23009KT P6SM SKC FM051500 20017G27KT P6SM SKC FM060000 17009KT P6SM SKC FM060900 36012KT P6SM SKC
KLBT,KLBT 051122Z 0512/0612 00000KT 1/2SM FG SCT002 TEMPO 0512/0513 1 1/2SM BR FM051300 07003KT 3SM BR BKN030 FM051400 11006KT P6SM SCT090 FM051700 15010G17KT P6SM SCT150 FM052300 14007KT P6SM SCT150 FM060800 14004KT 4SM BR SCT030 AMD NOT SKED
KLBX,KLBX 051121Z 0512/0612 02006KT P6SM BKN050 FM051800 05007KT P6SM FEW250 FM060500 VRB05KT P6SM SCT020
KLCH,KLCH 051140Z 0512/0612 06008KT P6SM BKN090 FM051500 03006KT P6SM SCT120 FM051800 VRB03KT P6SM SCT250 FM060600 VRB03KT 2SM BR SCT007 FM060900 VRB03KT 1/2SM FG BKN003
KLCK,KLCK 051138Z 0512/0612 17010G20KT P6SM BKN250 WS020/19045KT FM051500 18016G30KT P6SM BKN200 FM051800 19020G35KT P6SM OVC060 FM052100 20018G32KT P6SM VCSH OVC070 FM052300 21018G32KT 5SM SHRA BR OVC050 FM060500 23010G20KT P6SM BKN050 FM061100 21008KT P6SM SCT090
KLEB,KLEB 051132Z 0512/0612 00000KT 5SM BR SCT009 BKN045 FM051400 19011G18KT P6SM OVC050 FM052000 19011KT P6SM OVC050
KLEE,KLEE 051131Z 0512/0612 05006KT P6SM FEW030 SCT060 FM051700 08010G15KT P6SM VCSH SCT045 BKN070 FM060200 07006KT P6SM FEW035 SCT050
KLEX,KLEX 051120Z 0512/0612 17012G20KT P6SM BKN250 FM051500 18022G35KT P6SM -SHRA OVC090 FM060000 21015G22KT P6SM OVC025 FM060400 22010KT P6SM OVC025
KLFI,TAF KLFI 050900Z 0509/0615 VRB06KT 8000 BR SCT020 QNH3023INS BECMG 0513/0514 14006KT 9999 NSW SCT025 BKN035 QNH3020INS BECMG 0519/0520 15009KT 9999 SCT020 QNH3016INS TX24/0520Z TN16/0510Z
KLFK,KLFK 050520Z 0506/0606 32007KT P6SM OVC035 FM051800 22004KT P6SM OVC250 FM060000 00000KT P6SM BKN250
KLFT,KLFT 051140Z 0512/0612 34014G24KT 3SM RA BR OVC009 FM051400 01010KT 4SM -RA BR BKN035 FM051600 01006KT P6SM BKN090 FM051800 VRB05KT P6SM BKN120 FM060500 00000KT 4SM BR BKN007 FM060900 00000KT 3SM BR OVC004
KLGA,KLGA 051131Z 0512/0618 18005KT P6SM FEW025 OVC060 TEMPO 0512/0514 5SM BR OVC025 FM051400 18008KT P6SM SCT040 FM051800 17011KT P6SM SCT040 FM060100 19011KT P6SM SCT025 BKN040
KLGB,KLGB 051142Z 0512/0612 VRB03KT P6SM SCT250 FM052000 19008KT P6SM SCT250 FM060300 VRB03KT P6SM SCT250 FM060900 13004KT P6SM BKN008
KLGU,KLGU 051129Z 0512/0612 18009KT 6SM -SHRASN FEW020 OVC030 FM051500 18013G26KT 6SM -SHRASN FEW020 BKN030 OVC040 FM051800 23012G24KT 6SM -SHRA FEW020 BKN030 OVC040 FM060000 33012G24KT 6SM -SHRASN FEW030 OVC040 FM060300 VRB05KT 6SM -SHSN FEW020 OVC040
KLIT,KLIT 051120Z 0512/0612 25010KT P6SM SCT020 BKN080 TEMPO 0512/0514 BKN020 FM051400 27008KT P6SM SCT030 BKN060 FM052000 26009KT P6SM SCT040 FM060000 21006KT P6SM SCT050 FM060600 14005KT P6SM SKC
KLLQ,KLLQ 051120Z 0512/0612 20008KT P6SM SCT020 BKN080 TEMPO 0512/0514 BKN020 FM051400 24008KT P6SM SCT030 BKN060 FM052000 23009KT P6SM SCT040 FM060000 21006KT P6SM SCT050 FM060600 14005KT P6SM SKC
KLMT,KLMT 051129Z 0512/0612 20013KT P6SM -RA FEW018 BKN024 OVC030 FM052100 26015G23KT P6SM VCSH SCT035 BKN070 FM060000 28010KT P6SM BKN100 FM060300 VRB02KT P6SM BKN100
KLND,KLND 051121Z 0512/0612 VRB06KT P6SM BKN200 WS020/29040KT FM051800 25025G35KT P6SM VCSH SCT050 BKN150 FM052100 28015G25KT P6SM SCT050 BKN150 FM060200 15010KT P6SM SCT150
KLNK,KLNK 051120Z 0512/0612 34008KT P6SM OVC150 FM051600 23011KT P6SM FEW250 FM060300 21014G25KT P6SM SKC FM060600 25010KT P6SM FEW250 FM061100 32005KT P6SM OVC100
KLNS,KLNS 051120Z 0512/0612 16005KT P6SM VCSH OVC070 WS020/20031KT FM051600 16007KT P6SM OVC015
KLOZ,KLOZ 051133Z 0512/0612 16005KT P6SM BKN250 WS020/19040KT FM051300 17010G27KT P6SM BKN250 FM051500 19017G36KT P6SM SCT200 FM052200 19011G23KT P6SM VCSH OVC100 FM060100 22006KT P6SM -SHRA OVC060 WS020/22045KT FM060600 VRB04KT P6SM -SHRA OVC015
KLRD,KLRD 051134Z 0512/0612 34006KT P6SM BKN060 FM051600 01005KT P6SM SCT070 FM052000 12005KT P6SM SKC
KLRF,TAF AMD KLRF 050737Z 0507/0613 25012G18KT 9999 SCT040 OVC080 QNH2966INS BECMG 0515/0516 26012KT 9999 SCT040 BKN150 QNH2985INS BECMG 0521/0522 24009KT 9999 FEW200 QNH2986INS TX23/0523Z TN12/0511Z
KLRU,KLRU 051129Z 0512/0612 36005KT P6SM FEW250 FM052000 24011G17KT P6SM SKC FM060200 26009KT P6SM BKN250
KLSE,KLSE 051136Z 0512/0612 01010KT 3SM -RA OVC008 FM051900 33013KT 4SM -RA OVC010 FM052100 26015G25KT P6SM OVC015 FM060100 23012KT P6SM FEW020 SCT250 FM060600 18011KT P6SM BKN250
KLSF,TAF KLSF 042110Z 0421/0603 08006KT 9000 HZ BKN250 QNH3005INS TEMPO 0421/0423 12012KT BECMG 0507/0508 12003KT 4800 BR SCT010 BKN250 WSCONDS QNH3000INS TEMPO 0508/0512 0800 FG SCT000 OVC008 BECMG 0514/0515 15010G18KT 9999 NSW FEW015 SCT050 BKN250 QNH2995INS BECMG 0520/0521 21008KT 9999 BKN040 BKN250 QNH3000INS TX27/0520Z TN14/0509Z LAST NO AMDS AFT 0503 NEXT 0713
KLSV,TAF KLSV 050700Z 0507/0613 04006KT 9999 SCT220 QNH3015INS BECMG 0517/0518 10009KT 9999 FEW230 QNH3007INS BECMG 0602/0603 05008KT 9999 SCT250 QNH2988INS TX18/0522Z TN04/0514Z
KLTS,TAF AMD KLTS 050738Z 0507/0607 30010G15KT 9999 BKN020 510052 QNH2985INS BECMG 0507/0508 VRB06KT 9999 SKC QNH2986INS BECMG 0514/0515 18012G18KT 9999 SKC QNH2968INS BECMG 0523/0524 17009KT 9999 SKC 510102 QNH2966INS TX19/0521Z TN02/0512Z LAST NO AMDS AFT 0507 NEXT 0709
KLUF,TAF KLUF 050400Z 0504/0610 VRB06KT 9999 FEW220 QNH2990INS TX21/0523Z TN07/0513Z LAST NO AMDS AFT 0505 NEXT 0712
KLUK,KLUK 051138Z 0512/0612 18012KT P6SM BKN250 WS020/19045KT FM051400 18015G30KT P6SM OVC090 FM051600 19018G35KT P6SM VCSH OVC060 FM052000 19018G35KT 5SM SHRA BR OVC040 FM060200 22012G18KT P6SM VCSH OVC060 FM060900 21008KT P6SM FEW250
KLVK,KLVK 051120Z 0512/0612 VRB03KT P6SM BKN015 FM051800 VRB03KT P6SM SCT020 SCT150 FM052100 23006KT P6SM SCT030 BKN120 FM060400 VRB04KT P6SM VCSH OVC025 TEMPO 0604/0608 6SM -RA BR OVC015 FM061100 VRB05KT P6SM OVC100
KLVM,KLVM 051125Z 0512/0612 22038G52KT P6SM VCSH BKN070 FM051400 23038G62KT P6SM -SHRA BKN040 FM052000 26032G46KT P6SM SCT050 FM060200 26022G34KT P6SM SCT200
KLVS,KLVS 051125Z 0512/0612 28015KT P6SM FEW250 FM051800 28020G30KT P6SM SCT250 FM060100 26010KT P6SM SCT250
KLWB,KLWB 051120Z 0512/0612 15004KT P6SM SCT035 OVC060 WS020/17035KT FM051400 16007G14KT P6SM OVC018 FM051900 17009G19KT P6SM VCSH OVC025 FM060300 18006KT P6SM -RA OVC020
KLWS,KLWS 051126Z 0512/0612 25019G35KT P6SM -RA OVC050 FM060100 26017G25KT P6SM BKN080 FM060300 25008KT P6SM SCT070 PROB30 0603/0606 4SM -RA BR BKN070 BKN130 FM060600 22005KT P6SM BKN130 PROB30 0606/0612 4SM -RA BR OVC025
KLWT,KLWT 051120Z 0512/0612 22024G39KT P6SM BKN120 WS020/25045KT FM051400 25031G50KT P6SM VCSH BKN090 WS020/26050KT FM051600 27037G59KT P6SM SCT100 FM060300 28026G43KT P6SM SCT150
KLYH,KLYH 051120Z 0512/0612 17008KT 5SM BR VCSH OVC002 FM051400 17012G20KT P6SM -RA OVC007 FM051800 18014G23KT P6SM -RA BKN025 FM052100 17009KT P6SM -RA OVC050 FM060600 17007KT P6SM VCSH SCT006 BKN012
KMAF,KMAF 051124Z 0512/0612 25008KT P6SM SKC FM051800 24015G23KT P6SM SKC FM060100 22009KT P6SM SKC
KMBG,KMBG 051124Z 0512/0612 15010KT P6SM SKC FM051400 16010KT P6SM OVC070 FM060000 26013KT P6SM OVC250 FM060500 29017G25KT P6SM SCT250
KMBL,KMBL 051125Z 0512/0612 17009G23KT 6SM -SHRA BR OVC013 WS020/19045KT FM051500 17019G40KT 5SM -SHRA BR OVC011 WS020/18050KT FM052100 20025G48KT P6SM VCSH OVC027 WS020/20055KT FM060400 23022G38KT P6SM BKN018 FM060700 22015G30KT P6SM SCT027
KMBS,KMBS 051120Z 0512/0612 18012G18KT P6SM OVC200 WS018/20048KT FM051400 18018G30KT P6SM BKN250 FM051700 19020G38KT P6SM BKN045 BKN090 FM052100 21020G42KT P6SM BKN025 BKN045 TEMPO 0521/0523 21023G46KT 2SM SHRA OVC012 FM060000 23018G35KT P6SM BKN025 FM060400 23015G25KT P6SM SCT025 FM060800 22012KT P6SM SKC
KMCB,KMCB 051122Z 0512/0612 18010KT 5SM +SHRA BR VCTS OVC010CB TEMPO 0512/0513 VRB20G30KT 1SM TSRA BR OVC008CB FM051300 29007KT 2SM SHRA BR VCTS OVC008CB FM051700 VRB04KT P6SM OVC010 FM060300 00000KT 5SM BR BKN005 FM060700 16003KT 3SM BR BKN005
KMCC,KMCC 051129Z 0512/0612 14011KT P6SM BKN015 OVC025 TEMPO 0512/0516 BKN007 FM051900 16010KT P6SM OVC045 FM052100 17010KT P6SM -SHRA OVC025
KMCE,KMCE 051120Z 0512/0612 VRB04KT P6SM SCT200 FM060600 11004KT P6SM BKN060 OVC100 FM060800 VRB03KT P6SM BKN050 PROB30 0609/0612 5SM -RA OVC050
KMCF,TAF KMCF 050900Z 0509/0615 08006KT 9999 FEW020 QNH2992INS BECMG 0518/0519 03009KT 9999 SCT025 QNH2989INS TX29/0520Z TN20/0609Z
KMCI,KMCI 051120Z 0512/0612 29016G25KT 3SM -RA BR OVC005 FM051500 27015G25KT P6SM SKC FM052100 20015KT P6SM SKC
KMCK,KMCK 051136Z 0512/0612 25011KT P6SM SKC FM051800 25015G25KT P6SM SKC FM052230 25012G20KT P6SM FEW250 FM060000 VRB06KT P6SM FEW250
KMCN,KMCN 051129Z 0512/0612 13006KT 6SM BR SCT005 BKN008 TEMPO 0512/0514 3SM BR OVC005 FM051500 14010KT P6SM SCT012 BKN020 FM051700 16010KT P6SM SCT035 BKN250 FM052000 19008KT P6SM BKN200 FM052300 15004KT P6SM BKN200 FM060700 00000KT 6SM BR BKN006 FM061000 00000KT 1SM BR BKN002
KMCO,KMCO 051131Z 0512/0618 06005KT P6SM FEW035 SCT070 FM051600 10012G17KT P6SM VCSH SCT040 BKN060 FM060200 07005KT P6SM FEW035 SCT050 FM061500 08012KT P6SM SCT035
KMCW,KMCW 051138Z 0512/0612 36013KT 6SM -SHRA OVC007 FM051600 32015G23KT 4SM -SHRA BR OVC006 FM051800 30015G26KT P6SM VCSH BKN025 FM052000 28015G23KT P6SM SCT025 FM052300 23010KT P6SM FEW250
KMDT,KMDT 051120Z 0512/0612 12003KT P6SM VCSH BKN018 OVC024 WS020/20034KT FM051600 16007KT P6SM OVC020 FM060500 17007KT P6SM OVC015
KMDW,KMDW 051120Z 0512/0618 17023G40KT P6SM BKN014 OVC018 WS015/19060KT FM051700 21026G45KT P6SM SCT014 OVC020 TEMPO 0517/0518 20030G50KT 3SM SHRA BKN025 FM052300 22020G34KT P6SM SCT035 FM060300 23013G22KT P6SM FEW250
KMEI,KMEI 051133Z 0512/0612 16011G29KT P6SM VCSH BKN060 WS020/18040KT FM051300 18011G28KT 3SM RA OVC015 FM051700 17008KT 6SM BR VCSH OVC006 FM052100 13004KT P6SM OVC005 FM060300 17003KT 5SM BR BKN005 FM061000 00000KT 2SM BR OVC003
KMEM,KMEM 051120Z 0512/0618 20013G19KT P6SM VCSH BKN025 FM051500 23011G17KT P6SM SCT035 BKN250 FM052300 21006KT P6SM FEW250 FM060800 18004KT P6SM SKC
KMER,KMER 051120Z 0512/0612 VRB04KT P6SM SCT200 FM060600 11004KT P6SM BKN060 OVC100 FM060800 VRB03KT P6SM BKN050 PROB30 0609/0612 5SM -RA OVC050
KMEV,KMEV 051120Z 0512/0612 13008G15KT P6SM SCT150 BKN200 WS020/27045KT FM051800 23010KT P6SM SCT050 BKN080 FM060000 23006KT P6SM VCSH BKN035 FM060300 VRB05KT 6SM -RA BKN020
KMFD,KMFD 051127Z 0512/0612 18012G25KT P6SM BKN250 FM051500 18022G38KT P6SM BKN200 FM052300 20020G35KT P6SM -SHRA BKN035 FM060600 23008KT P6SM SCT100
KMFE,KMFE 051129Z 0512/0612 35013G20KT P6SM OVC025 FM051400 36012G18KT P6SM BKN035 FM051800 01010KT P6SM SCT040 FM060100 32003KT P6SM FEW035 TEMPO 0608/0612 4SM BR SCT008
KMFR,KMFR 051129Z 0512/0612 00000KT P6SM -RA VCSH SCT027 BKN035 OVC045 WS015/28030KT TEMPO 0512/0513 BKN025 FM051400 29005KT P6SM -RA BKN035 BKN050 FM052100 32007KT P6SM SCT050 BKN100
KMGE,TAF AMD KMGE 051115Z 0511/0603 13007KT 9000 BR OVC007 QNH3005INS BECMG 0514/0515 15010G15KT 9999 NSW BKN010 BKN045 QNH3004INS BECMG 0516/0517 15010G15KT 9999 BKN020 BKN045 QNH3002INS BECMG 0520/0521 18010G15KT 9000 -SHRA BKN025 OVC050 QNH3001INS BECMG 0522/0523 18009KT 9999 NSW FEW020 SCT040 BKN200 QNH3000INS TX24/0521Z TN17/0512Z
KMGM,KMGM 051140Z 0512/0612 08005KT P6SM SCT003 BKN250 FM051300 12007KT P6SM BKN250 FM051500 14011G20KT P6SM BKN250 FM051800 18008KT 6SM SHRA BR BKN050 OVC090 PROB30 0521/0524 4SM -SHRA BR OVC025 FM060500 00000KT P6SM BKN080
KMGW,KMGW 051140Z 0512/0612 16006KT P6SM BKN200 FM051400 17009G18KT P6SM BKN130 FM052000 18010G25KT P6SM BKN060 FM060600 19006KT P6SM VCSH OVC070 FM060800 21006KT 5SM -SHRA BR BKN050
KMHK,KMHK 051130Z 0512/0612 25007KT P6SM BKN050 FM051600 22012G22KT P6SM SKC FM060600 22005KT P6SM FEW250
KMHR,KMHR 051129Z 0512/0612 13011KT P6SM OVC015 TEMPO 0512/0516 BKN007 FM051900 16010KT P6SM SCT025 OVC045 FM052100 17010KT P6SM -SHRA OVC025
KMHT,KMHT 051132Z 0512/0612 17009KT P6SM FEW030 FM051400 20006KT P6SM OVC050 FM052000 18007KT P6SM OVC250 FM060300 18005KT P6SM OVC100
KMIA,KMIA 051120Z 0512/0618 08006KT P6SM SCT035 BKN070 FM051500 10010G15KT P6SM SCT040 FM060000 07006KT P6SM FEW035 SCT050 FM061000 09006KT P6SM BKN250
KMIB,TAF KMIB 050900Z 0509/0615 21010G20KT 9999 SKC QNH2920INS BECMG 0514/0515 19015G25KT 9999 BKN050 650709 QNH2911INS BECMG 0517/0518 20025G35KT 8000 -RA OVC040 650909 510003 QNH2900INS BECMG 0523/0524 24020G30KT 9999 NSW BKN030 650709 510002 QNH2902INS BECMG 0601/0602 27025G35KT 9999 BKN030 650309 510003 QNH2907INS BECMG 0606/0607 29030G40KT 9999 BKN025 650259 520003 QNH2917INS TX09/0521Z TNM02/0609Z
KMIV,KMIV 051127Z 0512/0612 VRB02KT 6SM BR SCT030 TEMPO 0512/0514 1/4SM FG FM051400 17009KT P6SM SCT040
KMKC,KMKC 051125Z 0512/0612 26010G20KT 5SM -RA BR OVC005 FM051500 26013G23KT P6SM SKC FM052000 20013KT P6SM SKC
KMKE,KMKE 051120Z 0512/0618 17011G24KT P6SM OVC012 FM051500 17021G45KT P6SM OVC011 FM051700 19022G48KT 5SM -SHRA BR OVC011 WS020/20050KT FM051900 20024G50KT P6SM OVC040 FM052100 21026G50KT P6SM OVC021 FM060200 23020G37KT P6SM SCT035 FM060600 22011G24KT P6SM FEW250
KMKG,KMKG 051120Z 0512/0612 16014G28KT P6SM -RA BKN050 WS020/19050KT FM051400 17019G35KT P6SM -SHRA OVC040 WS020/18050KT FM051800 18024G47KT P6SM -SHRA OVC020 WS020/19060KT FM060100 23026G43KT P6SM BKN040 FM060300 23024G34KT P6SM BKN040 FM060800 22018KT P6SM SCT050
KMKL,KMKL 051120Z 0512/0612 20014G20KT P6SM VCSH BKN015 FM051700 23012G18KT P6SM SCT030 BKN250 FM052300 22005KT P6SM FEW250 FM060900 18003KT P6SM SKC
KMKT,KMKT 051138Z 0512/0612 01008KT P6SM SCT008 BKN120 FM051500 36010KT P6SM SCT009 BKN014 FM051900 32010KT P6SM SCT020 FM060000 20006KT P6SM SKC FM060500 17011KT P6SM OVC070 FM060900 24013KT P6SM BKN110
KMLB,KMLB 051131Z 0512/0612 10011KT P6SM VCSH SCT030 FM051500 11014G20KT P6SM VCSH SCT030 BKN050 FM060100 10011KT P6SM VCSH SCT030 SCT050
KMLC,KMLC 051131Z 0512/0612 26008KT P6SM OVC010 FM051700 20008KT P6SM SKC FM060000 16008KT P6SM SCT250
KMLI,KMLI 051120Z 0512/0612 15010G25KT P6SM OVC015 TEMPO 0512/0514 2SM RA BR FM051400 20020G38KT 5SM SHRA OVC009 FM052000 23020G37KT P6SM OVC010 FM052300 23015G28KT P6SM SCT200
KMLS,KMLS 051125Z 0512/0612 18010KT P6SM SCT080 BKN120 WS020/25035KT FM051600 24018G30KT P6SM VCSH BKN080 WS020/26040KT FM051800 28026G42KT P6SM VCSH BKN080 FM052000 30032G48KT P6SM SCT080 BKN200 FM060200 26024G38KT P6SM SCT200 FM060600 30022G34KT P6SM SCT200
KMLU,KMLU 050901Z 0509/0606 30010G15KT 4SM RA BR VCTS OVC080CB FM051200 28007KT P6SM BKN100 FM051800 26005KT P6SM BKN250 FM060000 00000KT P6SM BKN250
KMMH,KMMH 051120Z 0512/0612 26010G18KT P6SM SCT250 WS020/28040KT FM051800 26015G25KT P6SM SCT200 FM060000 25012G20KT P6SM SCT080 WS020/27035KT FM060900 26008KT P6SM VCSH BKN050
KMMT,TAF KMMT 050700Z 0507/0613 VRB06KT 9999 SKC QNH3010INS BECMG 0514/0515 VRB06KT 4800 BR FEW010 QNH3010INS BECMG 0516/0517 15012G18KT 9999 NSW FEW025 QNH3000INS BECMG 0521/0522 VRB06KT 9999 BKN030 QNH3000INS BECMG 0609/0610 VRB06KT 8000 BR BKN017 QNH3005INS TX25/0519Z TN19/0507Z
KMOB,KMOB 051139Z 0512/0612 14007KT P6SM SCT030 SCT080 OVC250 TEMPO 0515/0519 BKN025 OVC060 FM051900 18010KT 1SM TSRA SCT020 OVC030CB FM052100 14007KT 3SM SHRA BR OVC013 PROB30 0521/0524 2SM -TSRA BR OVC020CB FM060000 14006KT P6SM OVC011 FM060200 VRB03KT P6SM BKN070 FM060700 00000KT 3SM BR SCT010
KMOD,KMOD 051129Z 0512/0612 14008KT P6SM BKN027 OVC040 FM051800 16008KT P6SM SCT035 OVC050 FM060200 30008KT P6SM -SHRA OVC025
KMOT,KMOT 051123Z 0512/0612 16015G23KT P6SM OVC070 WS010/21040KT FM051800 19020G32KT P6SM VCSH OVC070 FM052100 21020G31KT P6SM VCSH OVC050 FM060400 26022G36KT P6SM SCT250
KMPV,KMPV 051124Z 0512/0612 17008KT P6SM SCT150 WS020/24040KT FM051400 20009G16KT P6SM SCT200 FM051700 21011G20KT P6SM BKN120 FM052000 19010G19KT P6SM BKN120 FM060000 17009G16KT P6SM BKN170 WS020/21040KT FM060600 18011G21KT P6SM BKN160 WS020/21045KT
KMQY,KMQY 051134Z 0512/0612 17012G24KT P6SM SCT150 WS015/18050KT FM051300 18016G27KT P6SM VCSH SCT025 OVC050 FM051500 18017G32KT 6SM -SHRA OVC035 TEMPO 0515/0518 4SM -SHRA OVC025 FM051800 18017G31KT 6SM -SHRA OVC025 FM060100 20010G17KT P6SM VCSH OVC015 FM060400 21005KT P6SM BKN015
KMRB,KMRB 051137Z 0512/0612 14004KT P6SM VCSH BKN020 OVC050 FM051500 17008G16KT P6SM VCSH BKN025 OVC050 FM051700 16015G25KT P6SM VCSH BKN040 FM052300 16008G16KT P6SM BKN040 FM060900 16008KT P6SM VCSH SCT025 BKN040
KMRY,KMRY 051120Z 0512/0612 VRB03KT P6SM BKN025 FM051600 VRB03KT P6SM BKN013 FM051800 29005KT P6SM SCT020 SCT200 FM060500 VRB04KT P6SM VCSH OVC015 TEMPO 0605/0609 6SM -RA BR OVC015
KMSL,KMSL 051120Z 0512/0612 16017G24KT 6SM SHRA SCT025 BKN050 OVC100 TEMPO 0513/0517 3SM SHRA BKN020 FM051700 18015G22KT P6SM VCSH BKN018 OVC035 FM060000 19006KT P6SM OVC018 FM060600 VRB03KT P6SM OVC009
KMSN,KMSN 051120Z 0512/0612 15012KT 4SM -SHRA BR OVC006 FM051400 17016G36KT 5SM -SHRA BR OVC006 FM051700 19021G40KT P6SM VCSH OVC012 FM051900 20023G43KT 6SM -SHRA BR OVC010 FM052200 23021G39KT P6SM OVC016 FM060700 20012G24KT P6SM SCT250
KMSO,KMSO 051120Z 0512/0612 14012KT P6SM -RA OVC050 WS020/26045KT TEMPO 0512/0515 21025G35KT 2SM -RASN OVC025 FM051500 29017G30KT 6SM -RASN OVC050 WS020/28040KT FM051700 29025G40KT P6SM -RASN BKN050 FM060000 29015G25KT P6SM -SHSN BKN050 FM060300 30015KT P6SM -SN OVC050 FM060600 32005KT P6SM BKN050
KMSP,KMSP 051138Z 0512/0618 01007KT P6SM BKN150 FM051400 01009KT P6SM OVC013 FM052100 29007KT P6SM BKN025 FM052300 25006KT P6SM SCT025 FM060100 15005KT P6SM SCT200 FM060600 17006KT P6SM OVC060 PROB30 0607/0610 -RA FM061400 24014G26KT P6SM SCT200
KMSS,KMSS 051124Z 0512/0612 21012KT P6SM SCT250 WS020/23040KT FM052000 19009G20KT P6SM BKN200 FM060300 19013G26KT P6SM BKN150 WS020/20050KT FM060900 20015G29KT P6SM VCSH OVC080 WS020/21050KT
KMSY,KMSY 051122Z 0512/0618 13015KT P6SM BKN015 OVC080 TEMPO 0513/0514 VRB20G30KT 1SM TSRA BR OVC010CB FM051500 29010KT 4SM SHRA BR VCTS OVC010CB FM051800 VRB04KT P6SM OVC015 FM060900 00000KT 2SM BR BKN003 FM061500 17005KT P6SM SCT050 BKN100
KMTC,TAF KMTC 051100Z 0511/0617 18010G20KT 9999 SCT030 QNH2980INS BECMG 0514/0515 19020G35KT 9999 BKN025 510005 QNH2983INS BECMG 0518/0519 19030G40KT 9999 BKN035 510005 QNH2965INS BECMG 0520/0521 18020G35KT 9999 OVC045 510005 QNH2962INS BECMG 0601/0602 17010G25KT 9999 BKN035 QNH2972INS BECMG 0603/0604 18010G15KT 9999 BKN035 QNH2975INS BECMG 0609/0610 20009KT 9999 SCT050 QNH2995INS TX19/0520Z TN08/0611Z
KMTH,KMTH 051131Z 0512/0612 04008KT P6SM VCSH FEW025 FM051300 05008KT P6SM FEW025
KMTJ,KMTJ 051124Z 0512/0612 VRB04KT P6SM BKN050 FM051800 36003KT P6SM BKN100 FM060000 19004KT P6SM BKN080 FM060600 21005KT P6SM OVC100
KMTN,KMTN 051137Z 0512/0612 17004KT 5SM BR BKN004 OVC015 WS020/16030KT FM051400 16008KT P6SM BKN015 FM051600 16012G22KT P6SM BKN035 FM052200 16010G18KT P6SM SCT040 BKN250 FM060300 17008G16KT P6SM SCT040 BKN130
KMTW,KMTW 051135Z 0512/0612 04010KT 4SM SHRA OVC004 WS020/18030KT FM051400 17019G34KT 6SM SHRA OVC006 FM051900 19022G46KT P6SM SHRA OVC018 FM052200 21024G48KT P6SM OVC014 FM060300 23021G38KT P6SM BKN022 FM060400 22012G24KT P6SM SCT250
KMUI,TAF KMUI 051100Z 0511/0617 VRB06KT 8000 -DZ OVC009 QNH3015INS BECMG 0516/0517 16009KT 9999 NSW SCT010 OVC015 QNH3010INS BECMG 0522/0523 17012KT 9999 SCT015 OVC020 WS020/20039KT 510013 QNH3010INS BECMG 0606/0607 18009KT 9999 OVC010 WS020/20037KT 510203 QNH3012INS BECMG 0612/0613 17009KT 8000 -SHRA BKN010 OVC015 QNH3013INS TX21/0519Z TN15/0511Z
KMUO,TAF AMD KMUO 042354Z 0423/0524 10010G15KT 8000 -SHRA OVC020 610505 QNH2993INS BECMG 0503/0504 VRB06KT 8000 -SHRA BKN050 OVC070 610505 QNH2978INS BECMG 0511/0512 30012G20KT 8000 -SHRA BKN050 OVC080 610505 QNH2973INS BECMG 0514/0515 31025G35KT 8000 -SHRA BKN040 BKN070 610505 520009 QNH2973INS BECMG 0522/0523 32012G18KT 9999 NSW SCT030 BKN050 620505 QNH2985INS TX05/0500Z TN04/0514Z LAST NO AMDS AFT 0500 NEXT 0710
KMVN,KMVN 051120Z 0512/0612 18019G34KT 6SM -SHRA OVC015 FM051400 21018G31KT P6SM BKN025 FM051700 23012G24KT P6SM FEW050 FM052000 23010G20KT P6SM SCT060 FM060000 23005KT 5SM BR FEW250
KMWH,KMWH 051126Z 0512/0612 25020G30KT P6SM FEW150 FM051400 27029G37KT P6SM SKC FM060200 27017G25KT P6SM FEW040 FM061100 17007KT 5SM BR BKN060
KMXF,TAF AMD KMXF 051109Z 0511/0617 VRB06KT 9999 SKC QNH3000INS BECMG 0512/0513 VRB06KT 9999 FEW010 QNH3000INS BECMG 0516/0517 15012G18KT 9999 FEW010 QNH3001INS BECMG 0519/0520 VRB06KT 9000 -SHRA BKN024 QNH2996INS BECMG 0521/0522 VRB06KT 9999 NSW SCT016 QNH2992INS TX25/0611Z TN12/0511Z
KMYL,KMYL 051120Z 0512/0612 16015G25KT P6SM -RA OVC025 WS020/25045KT FM051500 26015G25KT P6SM VCSH SCT025 BKN035 FM051800 29010KT P6SM VCSH BKN050 FM060300 VRB03KT P6SM VCFG SCT005 OVC025
KMYR,KMYR 051120Z 0512/0612 12007KT P6SM FEW035 FM051400 13008KT P6SM SCT120 FM051800 13010KT P6SM SCT090 FM052200 13008KT P6SM SCT150 FM060600 13003KT P6SM SCT200
KNBC,TAF KNBC 0421/0521 VRB06KT 9999 SCT030 QNH3004INS TEMPO 0506/0510 0400 FG BECMG 0510/0512 14010KT 9999 BKN030 QNH3000INS AUTOMATED SENSOR METWATCH 0421 UNTIL 0619 T19/0501Z T27/0514Z LAST NO AMENDS AFT 0421/NEXT 0615
KNBG,TAF KNBG 0507/0607 15015G20KT VCSH SCT005 BKN015CB OVC050 QNH2983INS FM051000 17010G18KT 6000 BR SHRA VCTS SCT010 BKN020CB OVC045 QNH2980INS TEMPO 0512/0518 VRB25G35KT 1600 +TSRA BR BKN005CB OVC010 BECMG 0516/0518 VRB06KT 6000 SHRA BR BKN020 OVC040 QNH2985INS TEMPO 0518/0522 4800 SHRA BKN012 OVC028 FM060000 VRB06KT 8000 BR SCT015 BKN035 QNH2989INS AUTOMATED SENSOR METWATCH 0507 TIL 0512 T21/0511Z T28/0519Z FN00237
KNCA,TAF KNCA 0421/0521 10010KT 9999 SCT050 QNH3020INS TEMPO 0421/0500 4800 SHRA BR BKN030 OVC040 FM050300 09008KT 9999 FEW080 QNH3014INS AUTOMATED SENSOR METWATCH 0423 UNTIL 0711 T17/0511Z T27/0520Z LAST NO AMENDS AFT 0421/NEXT 0715
KNEW,KNEW 051122Z 0512/0612 16013KT P6SM VCSH OVC015 TEMPO 0514/0516 VRB25G35KT 1SM TSRA BR OVC010CB FM051600 28012KT 4SM SHRA BR VCTS OVC010CB FM051800 25010KT P6SM VCSH OVC010 FM052100 06006KT 6SM BR OVC020 FM060900 14006KT 5SM BR BKN025
KNFG,TAF KNFG 0509/0609 VRB05KT 9999 SKC QNH3009INS FM051830 26008KT 9999 SKC QNH2996INS FM060230 VRB05KT 9999 SKC QNH2991INS T07/0513Z T20/0521Z
KNFL,TAF COR KNFL 0507/0607 19009KT 9999 BKN190 QNH3003INS FM051500 19009KT 9999 BKN070 OVC170 640709 QNH3001INS BECMG 0518/0520 24010G15KT 9999 BKN040 BKN070 OVC160 640509 QNH2990INS AUTOMATED SENSOR METWATCH 0507 TIL 0513 T02/0513Z T17/0523Z COR 0755 FS30178
KNFW,TAF KNFW 0507/0607 28013KT 9999 SKC QNH2989INS FM051800 19011KT 9999 SKC QNH2985INS FM060200 17010KT 9999 SKC QNH2980INS AUTOMATED SENSOR METWATCH 0507 TIL 0511 T07/0512Z T20/0522Z FN00237
KNGP,TAF AMD KNGP 0508/0607 25006KT 9999 VCTS SCT008 BKN030CB OVC180 QNH2980INS TEMPO 0508/0511 VRB25G35KT 1200 +TSRA BKN008 BKN020CB OVC060 FM051200 02012G18KT 9999 VCSH BKN050 BKN250 QNH2994INS FM051500 02012KT 9999 FEW050 SCT080 BKN250 QNH2990INS FM052100 08008KT 9999 FEW035 SCT120 SCT250 QNH2991INS FM060100 VRB06KT 9999 FEW035 FEW120 QNH2988INS AUTOMATED SENSOR METWATCH 0508 TIL 0623 T16/0512Z T28/0523Z AMD 0810 FN00237
KNGU,TAF KNGU 0507/0607 VRB06KT 9999 FEW035 SCT055 SCT200 QNH3019INS TEMPO 0507/0512 8000 BR FEW015 BKN040 BKN200 FM051500 15010KT 9999 FEW035 SCT060 SCT280 QNH3015INS FM060300 VRB06KT 9999 SCT035 SCT120 QNH3015INS T17/0510Z T24/0519Z FN00237
KNHK,TAF KNHK 0507/0607 VRB06KT FEW025 SCT100 BKN260 QNH3016INS TEMPO 0507/0512 6000 BR BKN030 BKN150 FM051300 15010KT 9999 FEW050 SCT260 QNH3012INS FM060200 17008KT 9999 FEW015 SCT035 BKN055 QNH3011INS AUTOMATED SENSOR METWATCH 0507 TIL 0511 T16/0509Z T21/0518Z FN00237
KNID,TAF KNID 0423/0523 VRB05KT 9999 SCT250 BKN280 QNH3010INS WND 24006KT AFT 0503 BECMG 0513/0515 VRB04KT 9999 SCT250 QNH3002INS BECMG 0517/0519 15006KT 9999 FEW250 QNH2985INS LAST NO AMDS AFT 0503 NEXT 0715 T03/0514Z T19/0522Z
KNIP,TAF COR KNIP 0507/0607 09007KT 9999 SCT030 SCT120 QNH2998INS FM051500 12008KT 9999 VCSH FEW020 BKN040 BKN070 QNH2996INS TEMPO 0516/0520 6000 -SHRA BKN020 BKN045 FM052100 VRB06KT 9999 BKN030 BKN060 BKN250 QNH2995INS FM060200 11008KT 9999 BKN025 BKN040 QNH2993INS T20/0511Z T28/0519Z COR 1009 FN00247
KNJK,TAF KNJK 0507/0607 VRB06KT 9999 FEW250 QNH2986INS AUTOMATED SENSOR METWATCH 0507 TIL 0513 T08/0512Z T26/0523Z FS30205
KNKT,TAF KNKT 0509/0609 VRB06KT 4000 BR FEW020 QNH3018INS FM051100 13008KT 9999 SCT040 QNH3016INS BECMG 0516/0518 14006G16KT 9999 VCSH BKN050 QNH3015INS T16/0510Z T25/0518Z
KNKX,TAF KNKX 0509/0609 VRB05KT 9999 SCT200 QNH3006INS FM051430 VRB05KT 9999 FEW200 QNH3005INS FM051830 27008KT 9999 SKC QNH2992INS FM060230 VRB05KT 9999 SKC QNH2988INS T08/0513Z T22/0521Z
KNLC,TAF KNLC 0423/0523 36006KT 9999 FEW150 BKN200 BKN250 541809 522709 523606 QNH3027INS FM050600 VRB04KT 9999 FEW030 BKN140 BKN190 500000 QNH3021INS FM051300 34006KT 9999 SCT035 BKN180 QNH3012INS TEMPO 0513/0518 BKN025 FM052000 35010KT 9999 SCT045 BKN200 QNH3005INS LAST NO AMDS AFT 0501 NEXT 0515 T03/0506Z T16/0523Z FS30184
KNMM,TAF KNMM 0415/0515 15008KT 9999 FEW030 FEW080 QNH2999INS TEMPO 0416/0420 16010G20KT FM050100 15010G20KT 9999 FEW020 SCT060 QNH2987INS FM051300 18015G25KT 1600 +TSRA SCT015CB OVC050 QNH2985INS LAST NO AMDS AFT 0423/ NEXT 0615 AUTOMATED SENSOR METWATCH 0423 TIL 0616 T27/0420Z T18/0507Z FN20080
KNPA,TAF KNPA 0423/0523 13010KT 9999 BKN250 QNH3003INS FM050100 11010KT 9999 FEW150 BKN250 QNH3000INS TEMPO 0507/0512 4800 BR SCT003 FM051200 14010KT 9999 SCT025 BKN050 BKN100 OVC250 QNH2997INS FM051600 15012G20KT 9999 SCT025 BKN050 OVC100 QNH3000INS FM052000 17012KT 9999 VCSH SCT025 BKN045 OVC080 QNH2990INS TEMPO 0521/0523 VRB15G25KT 3200 SHRA BKN020 OVC040 LAST NO AMDS AFT 0423 NEXT 0707 AUTOMATED SENSOR METWATCH 0503 TIL 0514 T19/0512Z T27/0520Z FN20034
KNQI,TAF AMD KNQI 0508/0607 01015G23KT 6000 -SHRA VCTS SCT020 BKN030CB BKN180 QNH2977INS TEMPO 0509/0512 VRB25G35KT 4800 TSRA BKN015CB BKN050 FM051200 36010KT 9999 SCT035 BKN060 QNH2991INS FM051500 VRB06KT 9999 SCT045 SCT070 QNH2990INS FM060000 VRB06KT 9999 FEW050 FEW100 QNH2986INS AUTOMATED SENSOR METWATCH 0508 TIL 0511 T18/0512Z T26/0520Z AMD 0815 FN00237
KNQX,TAF KNQX 0507/0607 05007KT 9999 FEW020 QNH2985INS BECMG 0511/0513 05008KT 9999 VCSH SCT020 SCT250 QNH2987INS FM051800 05010KT 9999 SCT025 SCT055 BKN250 QNH2986INS FM060300 06008KNT 9999 VCSH SCT025 BKN040 BKN120 QNH2985INS AUTOMATED SENSOR METWATCH 0507 TIL 0510 T28/0510Z T32/0519Z FN00237
KNRB,TAF COR KNRB 0418/0515 03018KT 9999 VCSH BKN009 QNH3008INS FM050000 05012KT 9999 SCT010 BKN020 BKN250 QNH3000INS LAST NO AMDS AFT 0422 NEXT 0707 AUTOMATED SENSOR METWATCH 0422 TIL 0710 T25/0419Z T21/0511Z COR 1915 FN20021
KNSE,TAF KNSE 0507/0607 VRB06KT FEW003 BKN015 OVC250 QNH2998INS TEMPO 0508/0513 6000 BR BKN003 OVC015 FM051400 16010G18KT 9999 SCT015 BKN080 BKN120 QNH2994INS FM052200 VRB06KT 9999 VCSH SCT009 SCT020 BKN035 QNH2996INS TEMPO 0522/0603 4800 SHRA BKN009 BKN028 FM060400 VRB06KT 8000 BR SCT025 SCT100 BKN150 QNH2998INS AUTOMATED SENSOR METWATCH 0507 TIL 0711 T18/0508Z T28/0519Z FN00237
KNTD,TAF KNTD 0507/0607 VRB06KT VRB06KT 9999 SCT250 QNH2990INS AUTOMATED SENSOR METWATCH 0507 TIL 0513 T07/0512Z T21/0521Z FS30205
KNTU,TAF KNTU 0507/0607 VRB06KT 9999 SCT035 SCT250 QNH3018INS TEMPO 0507/0512 6000 BR BKN035 BKN080 FM051300 15010KT 9999 BKN040 QNH3020INS FM060300 17006KT 9999 FEW015 SCT045 SCT120 QNH3018INS T16/0510Z T24/0519Z FN00237
KNUC,TAF KNUC 0423/0523 29008KT 9999 SCT250 QNH3019INS FM050700 VRB06KT 9999 FEW250 QNH2997INS LAST NO AMDS AFT 0501 NEXT 0715 T18/0421Z T11/0512Z FS30203
KNUW,TAF KNUW 0507/0607 27030G43KT 9999 VCSH BKN120 530005 QNH2955INS TEMPO 0507/0509 27038G50KT FM050900 27025G35KT 9999 BKN120 530005 QNH2961INS BECMG 0510/0512 27022G28KT 9999 VCSH SCT020 BKN120 500000 QNH2970INS FM060300 24013G18KT 9999 SCT020 BKN060 BKN120 OVC250 640607 QNH2979INS FM060600 13018G25KT 9999 VCSH SCT020 BKN060 OVC150 640607 QNH2970INS T05/0512Z T09/0522Z FS30178
KNXP,TAF KNXP 0509/0609 VRB05KT 9999 SKC QNH3014INS FM051800 VRB05KT 9999 SKC QNH2994INS TEMPO 0518/0521 26010KT BECMG 0600/0602 25007KT 9999 SKC QNH2993INS FM060500 VRB05KT 9999 SKC QNH2994INS T07/0513Z T23/0523Z
KNYG,TAF KNYG 0421/0521 19003KT 9999 FEW045 OVC055 QNH3023INS BECMG 0504/0506 17006KT 9999 SCT005 OVC015 QNH3011INS TEMPO 0515/0521 17010G25KT LAST NO AMDS AFT 0421/ NEXT 0515 AUTOMATED SENSOR METWATCH 0500 TIL 0519 T15/0512Z T23/0518Z
KNYL,TAF KNYL 0509/0609 VRB06KT 9999 SKC QNH3005INS FM052100 VRB06KT 9999 FEW100 QNH2985INS AUTOMATED SENSOR METWATCH 0505 TIL 0714 T08/0514Z T26/0523Z
KNZY,TAF COR KNZY 0507/0607 VRB06KT 9999 BKN250 QNH3000INS FM052100 24008KT 9999 BKN250 QNH2993INS FM060300 VRB06KT 9999 FEW010 SCT030 BKN250 QNH2990INS T07/0512Z T19/0521Z COR 0745 FS30205
KOAJ,KOAJ 051120Z 0512/0612 06003KT P6SM SKC FM051300 14009KT P6SM FEW025 SCT050 FM060000 13005KT P6SM SCT250 AMD LTD TO CLD VIS AND WIND
KOAK,KOAK 051120Z 0512/0618 VRB03KT 2SM BR BKN004 FM051600 VRB03KT P6SM BKN015 FM052300 25007KT P6SM VCSH BKN025 TEMPO 0602/0606 23006KT 6SM -RA BR OVC015 FM061200 26012KT P6SM SCT025 OVC100
KOFF,TAF KOFF 051000Z 0510/0616 33012G18KT 9999 VCSH BKN080 QNH2958INS BECMG 0511/0512 30009KT 9999 NSW SCT100 QNH2957INS BECMG 0517/0518 23012G18KT 9999 SKC QNH2948INS BECMG 0523/0524 19009KT 9999 FEW070 WS020/24045KT QNH2949INS BECMG 0607/0608 24009KT 9999 BKN130 QNH2956INS TX11/0522Z TN01/0514Z
KOFK,KOFK 051120Z 0512/0612 VRB05KT P6SM SKC FM051900 22012G18KT P6SM SKC FM060600 30015G22KT P6SM OVC200 FM060800 30009KT P6SM OVC200
KOGB,KOGB 051132Z 0512/0612 VRB03KT 5SM BR BKN020 BKN250 TEMPO 0512/0513 1SM BR BKN010 FM051300 12006KT P6SM BKN030 FM051700 15009KT P6SM SCT030 BKN050 FM060300 VRB03KT P6SM SCT025 BKN150
KOGD,KOGD 051129Z 0512/0612 18013KT 5SM -SHSN BKN040 OVC050 TEMPO 0512/0514 3SM -SN BR OVC015 FM051600 18012KT 5SM SHRA BKN020 OVC030 FM060200 33012KT P6SM SHRA BKN030 OVC050 FM060600 17007KT P6SM VCSH FEW020 BKN040 OVC050
KOKC,KOKC 051120Z 0512/0612 28007KT P6SM SCT025 SCT120 FM051500 20011KT P6SM SKC FM051900 19014G19KT P6SM SKC FM060000 15014G20KT P6SM SCT250
KOLF,KOLF 051120Z 0512/0612 21015G25KT P6SM OVC070 WS020/24040KT TEMPO 0512/0516 6SM RA BR OVC025 FM051600 23020G30KT P6SM BKN080 FM051900 27030G45KT P6SM SCT060 FM061100 28025G35KT P6SM BKN070
KOLM,KOLM 051125Z 0512/0612 22010G18KT P6SM FEW035 SCT250 FM051500 25010G18KT P6SM BKN040 BKN100 FM060000 21005KT P6SM FEW040 BKN200 FM060800 18010KT P6SM -RA SCT030 OVC050 FM061000 19012G20KT 5SM -RA BR BKN015 OVC030
KOLS,KOLS 051120Z 0512/0612 VRB04KT P6SM FEW250 FM051900 29007KT P6SM SCT250 FM060200 VRB04KT P6SM SCT250
KOMA,KOMA 051120Z 0512/0612 34011KT P6SM BKN150 FM051600 25010KT P6SM FEW250 FM060000 18011G19KT P6SM SKC FM060900 26008KT P6SM BKN200
KONP,KONP 051138Z 0512/0612 31010G20KT P6SM VCSH SCT012 BKN035 OVC050 FM052000 29008KT P6SM -SHRA SCT020 BKN040 OVC060 FM060600 22013G22KT P6SM -SHRA OVC045 FM061100 21019G30KT P6SM -SHRA OVC035 AMD NOT SKED
KONT,KONT 051120Z 0512/0618 VRB04KT P6SM BKN250 FM052200 25008KT P6SM FEW250 FM060300 VRB04KT P6SM SKC
KOPF,KOPF 051120Z 0512/0612 06006KT P6SM FEW030 SCT060 FM051500 09010G15KT P6SM SCT040 FM060000 07007KT P6SM FEW030 SCT050 FM060600 09006KT P6SM SCT100 BKN250
KORD,KORD 051120Z 0512/0618 17023G40KT P6SM BKN014 OVC018 WS015/19060KT FM051700 21026G45KT P6SM SCT014 OVC020 TEMPO 0517/0518 20030G50KT 3SM SHRA SCT018 BKN025 FM052300 22020G34KT P6SM SCT035 FM060300 23013G22KT P6SM FEW250
KORF,KORF 051120Z 0512/0612 14003KT P6SM OVC035 FM051300 15007KT P6SM FEW200 FM051600 16011G18KT P6SM FEW050
KORH,KORH 051120Z 0512/0612 23014KT P6SM BKN050 FM051600 22012G24KT P6SM BKN050 FM060000 20009KT P6SM BKN250 FM060800 21011G22KT P6SM BKN030 FM061100 21011G21KT P6SM BKN025
KOTH,KOTH 051129Z 0512/0612 36009KT P6SM -RA SCT006 SCT023 OVC030 FM051800 32008KT P6SM -SHRA SCT030 BKN050 FM060400 15004KT P6SM VCSH BKN040
KOTM,KOTM 051138Z 0512/0612 33012KT 6SM -SHRA OVC004 TEMPO 0512/0516 3SM -SHRA BR FM051600 28019G32KT P6SM OVC009 FM052000 24017G27KT P6SM SCT020 FM060000 19013KT P6SM SCT100
KOUN,KOUN 051120Z 0512/0612 28007KT P6SM SCT025 SCT120 FM051500 20011KT P6SM SKC FM051900 18013G18KT P6SM SKC FM060000 14014G20KT P6SM SCT250
KOWB,KOWB 051120Z 0512/0612 19016G32KT 6SM -SHRA OVC020 FM051400 21016G30KT P6SM BKN030 FM051700 21013G23KT P6SM BKN020 FM052000 22012G20KT P6SM OVC040 FM052200 23008G16KT P6SM SCT120 FM060900 VRB04KT 5SM BR SKC
KOXR,KOXR 051142Z 0512/0612 05008KT P6SM SCT250 FM051900 25009KT P6SM SCT250 FM060300 VRB03KT P6SM SCT250
KOZR,TAF COR KOZR 050430Z 0500/0606 08006KT 9999 FEW250 QNH3002INS TEMPO 0506/0507 SCT006 BECMG 0509/0510 10004KT 4800 BR SCT002 BKN006 QNH2998INS TEMPO 0510/0514 1600 BR BKN002 BECMG 0514/0515 15008KT 9999 NSW BKN008 BKN060 QNH3002INS BECMG 0516/0517 18010G15KT 9999 BKN030 BKN060 QNH2996INS TEMPO 0521/0604 VRB15G20KT 8000 -SHRA BECMG 0603/0604 VRB06KT 9999 BKN020 BKN100 QNH2995INS TX28/0520Z TN15/0511Z LAST NO AMDS AFT 0506 NEXT 0706
KPAE,KPAE 051125Z 0512/0612 29015G25KT P6SM FEW050 SCT250 FM051500 22006KT P6SM SCT050 BKN090 FM060000 15005KT P6SM FEW040 BKN200 FM060900 16014G22KT P6SM -RA SCT025 OVC040 AMD NOT SKED
KPAH,KPAH 051120Z 0512/0612 18020G32KT 5SM SHRA OVC030 FM051300 19019G34KT 6SM BR VCSH OVC020 FM051600 22012G25KT P6SM BKN025 FM052300 24014G20KT P6SM SCT150 FM060900 23004KT 5SM BR SKC
KPAM,TAF KPAM 051100Z 0511/0617 09009KT 6000 BR SCT004 SCT014 QNH2998INS TEMPO 0512/0515 4800 BR BKN004 BECMG 0514/0515 10012KT 8000 BR SCT004 BKN020 QNH3001INS BECMG 0517/0518 15012KT 9999 NSW SCT020 SCT065 QNH2995INS BECMG 0605/0606 18009KT 9000 -SHRA BKN015 QNH2995INS BECMG 0611/0612 03009KT 8000 BR BKN005 QNH3003INS BECMG 0616/0617 09009KT 9999 NSW SCT010 QNH3006INS TX26/0518Z TN18/0511Z
KPBF,KPBF 051120Z 0512/0612 23010KT P6SM SCT020 BKN080 TEMPO 0512/0514 BKN020 FM051400 27008KT P6SM SCT030 BKN060 FM052000 26009KT P6SM SCT040 FM060000 21006KT P6SM SCT050 FM060600 14005KT P6SM SKC
KPBG,KPBG 051124Z 0512/0612 VRB04KT P6SM FEW240 FM051400 17008G14KT P6SM SCT250 FM051700 17011G17KT P6SM BKN190 FM060500 17017G26KT P6SM BKN140 FM060900 16014G23KT P6SM BKN100 WS020/20040KT
KPBI,KPBI 051120Z 0512/0612 08009KT P6SM FEW025 SCT050 FM051400 10013KT P6SM SCT040 FM060100 08009KT P6SM FEW025 SCT045 BKN120 FM060600 10011KT P6SM BKN100
KPDK,KPDK 051129Z 0512/0612 15007KT P6SM SCT005 BKN008 TEMPO 0512/0514 6SM BR OVC005 FM051500 14010KT P6SM SCT012 BKN020 FM051700 16010KT P6SM SCT035 BKN250 FM052000 19008KT P6SM BKN200 FM052300 15004KT P6SM BKN200 FM060900 12003KT 3SM BR BKN003
KPDT,KPDT 051120Z 0512/0612 25035G48KT P6SM -RA BKN070 BKN090 FM051500 26027G39KT P6SM SCT050 BKN100 FM060000 25020G30KT P6SM SCT120 FM060600 16010KT P6SM BKN250
KPDX,KPDX 051138Z 0512/0612 25007KT P6SM VCSH SCT035 OVC050 FM051700 22011KT P6SM -SHRA SCT025 OVC040 FM060200 VRB04KT P6SM -SHRA SCT020 BKN040 OVC060 FM060900 20013G22KT P6SM -SHRA OVC021
KPEQ,KPEQ 051124Z 0512/0612 25008KT P6SM SKC FM051800 24015G23KT P6SM SKC FM060100 22007KT P6SM SKC
KPGA,KPGA 051120Z 0512/0612 VRB05KT P6SM SCT250 FM051900 01006KT P6SM FEW250 FM060200 VRB05KT P6SM FEW250
KPGD,KPGD 051132Z 0512/0612 06006KT P6SM SKC FM051600 10010KT P6SM SCT035 FM060000 06004KT P6SM SCT250
KPGV,KPGV 051121Z 0512/0612 00000KT 1SM BR OVC015 FM051230 15008KT P6SM FEW025 SCT050 FM060000 14005KT P6SM SCT250 AMD LTD TO CLD VIS AND WIND
KPHF,KPHF 051120Z 0512/0612 08003KT 6SM BR OVC030 FM051400 16009KT P6SM FEW200 FM051800 17010G16KT P6SM FEW050
KPHL,KPHL 051127Z 0512/0618 VRB05KT 6SM BR FEW025 BKN070 FM051500 19010KT P6SM SCT040 FM060300 17007KT P6SM BKN040 FM061400 19010G20KT P6SM BKN060
KPHX,KPHX 051120Z 0512/0618 11005KT P6SM SCT250 FM052100 25005KT P6SM FEW250 FM060400 08005KT P6SM FEW250
KPIA,KPIA 051120Z 0512/0612 17023G46KT P6SM VCSH OVC014 FM051400 22024G42KT P6SM VCSH OVC014 FM052200 23017G32KT P6SM SCT022 FM060500 20012G20KT P6SM SKC WS020/23040KT
KPIB,KPIB 051133Z 0512/0612 16009KT P6SM VCSH BKN010 BKN025 FM051400 20011KT 3SM SHRA BR OVC015 FM051800 17009KT 6SM BR VCSH OVC005 FM052200 09003KT P6SM BKN005 FM061000 00000KT 1SM BR BKN002
KPIE,KPIE 051132Z 0512/0612 04004KT P6SM SCT006 TEMPO 0512/0514 5SM BR BKN006 FM051500 11006KT P6SM FEW030 FM052100 35007KT P6SM SCT040 FM060300 06005KT P6SM SCT250
KPIH,KPIH 051132Z 0512/0612 20022G32KT P6SM -RASN SCT015 OVC025 FM051400 21025G35KT P6SM VCSH BKN015 OVC030 FM052000 24025G40KT P6SM VCSH SCT015 OVC025 FM052200 25020G35KT P6SM VCSH SCT030 SCT060 BKN140 FM060300 25012KT P6SM SCT180
KPIR,KPIR 051124Z 0512/0612 13008KT P6SM SKC FM051600 16008KT P6SM OVC070 FM060200 28010KT P6SM BKN250 FM060600 29018G24KT P6SM SCT250
KPIT,KPIT 051140Z 0512/0618 16006KT P6SM BKN250 WS020/20040KT FM051400 17010G22KT P6SM BKN150 FM060900 25005KT 6SM -SHRA BR BKN040 FM061100 20004KT 5SM -SHRA BR BKN030 FM061500 22006KT P6SM SCT025
KPKB,KPKB 051128Z 0512/0612 17005KT P6SM BKN250 WS020/19035KT FM051500 18012G21KT P6SM BKN250 FM051800 19013G27KT P6SM SCT035 FM052300 18009G21KT P6SM BKN060 FM060500 23005KT P6SM -SHRA BKN060
KPLN,KPLN 051125Z 0512/0612 12005KT 4SM RA BR OVC006 FM051500 16012G30KT 6SM -SHRA BR OVC007 WS020/19040KT FM052300 20020G40KT 6SM SHRA BR BKN022 WS020/20050KT FM060200 22024G50KT P6SM VCSH BKN015 WS020/21055KT FM061000 22011G25KT P6SM BKN027
KPMD,KPMD 051142Z 0512/0612 23008KT P6SM SCT250 FM051800 27015G23KT P6SM SCT250 FM052200 27018G28KT P6SM SCT250 FM060300 25010KT P6SM SCT250
KPNA,KPNA 051121Z 0512/0612 36010KT 3SM -SN SCT015 OVC020 FM051700 24014KT 2SM -SN SCT012 OVC020 FM051900 25025G35KT 2SM -SN OVC015 FM060000 27014G22KT 5SM -SN OVC040 FM060200 28012KT P6SM BKN060
KPNC,KPNC 051120Z 0512/0612 26008KT P6SM SCT025 SCT120 FM051600 22007KT P6SM SKC FM051900 19013G18KT P6SM SKC FM060000 15012KT P6SM SCT250
KPNE,KPNE 051127Z 0512/0612 VRB03KT 6SM BR BKN060 TEMPO 0512/0514 1/2SM FG BKN020 FM051500 19010KT P6SM SCT040 FM060300 19006KT P6SM BKN040
KPNS,KPNS 051139Z 0512/0612 13008KT P6SM BKN025 BKN080 OVC250 TEMPO 0515/0519 SCT030 OVC060 FM052100 17010KT 1SM TSRA SCT020 OVC030CB FM060000 14007KT 3SM SHRA BR OVC013 PROB30 0600/0603 2SM -TSRA BR OVC020CB FM060400 15006KT P6SM BKN070 FM060700 VRB03KT 3SM BR SCT010
KPOB,TAF KPOB 041700Z 0417/0523 06007KT 9999 SCT040 QNH3020INS BECMG 0422/0423 09004KT 9999 VCSH SCT025 BKN035 QNH3016INS BECMG 0507/0508 14004KT 8000 BR BKN006 BKN012 BKN020 QNH3015INS BECMG 0513/0514 16010G15KT 9999 NSW FEW007 BKN012 BKN025 QNH3018INS BECMG 0516/0517 17011G18KT 9999 SCT025 BKN040 QNH3009INS TX26/0420Z TN16/0511Z LAST NO AMDS AFT 0422 NEXT 0717
KPOE,TAF AMD KPOE 050915Z 0509/0613 VRB06KT 3200 -TSRA FEW006CB BKN065 QNH2990INS BECMG 0510/0511 34012KT 9999 NSW BKN065 QNH2990INS BECMG 0514/0515 34012KT 9999 SKC QNH2991INS BECMG 0519/0520 VRB06KT 9999 SKC QNH2988INS TX23/0521Z TN13/0607Z
KPOU,KPOU 051135Z 0512/0612 00000KT P6SM BKN025 BKN035 WS020/22035KT TEMPO 0512/0515 SCT025 BKN040 FM051500 19007KT P6SM SCT025 BKN035 FM051800 19010G16KT P6SM BKN040 FM060200 18006KT P6SM BKN050 WS020/20035KT FM060600 19007KT P6SM BKN025 OVC050 WS020/20040KT
KPQI,KPQI 051136Z 0512/0612 20010KT P6SM SCT250 WS020/24040KT FM051500 23012G22KT P6SM SCT250 FM060000 20010KT P6SM BKN250 WS020/24040KT FM060900 20010KT P6SM BKN015 WS020/24040KT
KPRB,KPRB 051142Z 0512/0612 VRB03KT 6SM BR FEW006 FEW250 FM051600 VRB03KT P6SM SCT250 FM052000 33008KT P6SM SCT250 FM060500 VRB03KT P6SM SCT010 BKN025 BKN050
KPRC,KPRC 051120Z 0512/0612 21005KT P6SM SCT250 FM051900 31007KT P6SM FEW250 FM060200 20006KT P6SM SKC
KPSC,KPSC 051120Z 0512/0612 25025G30KT P6SM BKN080 FM051400 25023G33KT P6SM SCT090 FM060300 26013G22KT P6SM SKC FM060600 22010KT P6SM SKC
KPSF,KPSF 051135Z 0512/0612 21008G15KT P6SM BKN015 OVC025 WS020/23035KT TEMPO 0512/0515 SCT015 BKN035 FM051500 20012G18KT P6SM BKN025 BKN035 FM051800 19012G20KT P6SM SCT025 BKN035 FM060200 18010G18KT P6SM BKN035 FM060600 19010G18KT P6SM BKN025 OVC035
KPSM,KPSM 051132Z 0512/0612 00000KT P6SM BCFG SCT250 FM051500 22009KT P6SM BKN050 FM051900 18008KT P6SM BKN250 FM060500 18006KT P6SM OVC100 FM060600 18006KT P6SM OVC050
KPSP,KPSP 051120Z 0512/0612 VRB05KT P6SM BKN250 FM052100 10006KT P6SM FEW250 FM060200 VRB04KT P6SM SKC
KPTK,KPTK 051120Z 0512/0612 18012G18KT P6SM OVC200 WS018/20048KT FM051400 18018G30KT P6SM BKN250 FM051700 19020G38KT P6SM SCT045 BKN090 FM052200 21020G42KT P6SM -SHRA BKN025 BKN045 TEMPO 0522/0524 21023G46KT 2SM SHRA OVC012 FM060100 23018G35KT P6SM BKN025 FM060400 23015G25KT P6SM SCT025 FM060800 22012KT P6SM SKC
KPUB,KPUB 051120Z 0512/0612 VRB05KT P6SM SCT200 FM051300 27010G20KT P6SM SCT200 FM051700 27020G30KT P6SM SCT200 FM060300 27010G20KT P6SM SCT200 FM060700 29010KT P6SM SCT200 FM061100 35008KT P6SM SCT200
KPUW,KPUW 051126Z 0512/0612 26028G39KT P6SM -RA FEW040 OVC060 FM060000 26018G27KT P6SM OVC040 FM060300 24010G20KT P6SM BKN070 PROB30 0603/0609 4SM -SN BR OVC025 FM060900 18006KT P6SM BKN150 PROB30 0609/0612 4SM -SN BR OVC025
KPVD,KPVD 051120Z 0512/0612 21005KT P6SM SCT050 FM051500 21008G19KT P6SM BKN050 FM052000 20009KT P6SM SCT250
KPVU,KPVU 051129Z 0512/0612 VRB05KT P6SM VCSH BKN050 OVC070 FM051800 17010KT P6SM SHRA SCT030 BKN050 OVC060 FM052300 VRB05KT P6SM SHRA SCT030 OVC050 FM060400 31010KT 5SM -SN FEW020 OVC040
KPVW,KPVW 051120Z 0512/0612 26006KT P6SM SKC FM051500 26015KT P6SM SKC FM052000 24020KT P6SM SKC FM060100 23015KT P6SM SKC
KPWM,KPWM 051132Z 0512/0612 21005KT P6SM FEW200 FM051500 21008KT P6SM BKN050 FM052100 19007KT P6SM BKN250 FM060600 20007KT P6SM BKN100
KPWT,KPWT 051125Z 0512/0612 21006KT P6SM FEW050 SCT250 FM051500 21014G24KT P6SM SCT050 BKN100 FM060000 20008KT P6SM FEW050 BKN200 FM060900 19014G22KT P6SM -RA BKN020 OVC040
KRAP,KRAP 051120Z 0512/0612 21005KT P6SM FEW230 FM051700 26014KT P6SM SCT230 FM052100 29018G28KT P6SM OVC110 FM060000 32025G35KT P6SM OVC060
KRBG,KRBG 051129Z 0512/0612 00000KT P6SM -RA BKN026 OVC030 WS015/32024KT FM051800 32005KT P6SM -SHRA SCT035 BKN050
KRBL,KRBL 051129Z 0512/0612 16006KT P6SM SCT030 OVC040 FM051600 18008KT 6SM -SHRA OVC025 TEMPO 0518/0522 3SM -SHRA OVC015 FM052300 VRB05KT P6SM OVC028
KRCA,TAF AMD KRCA 042345Z 0423/0601 VRB06KT 9999 FEW250 QNH2963INS BECMG 0505/0506 20010KT 9999 SCT100 QNH2942INS BECMG 0516/0517 26025G30KT 9999 BKN030 QNH2930INS TEMPO 0521/0601 31035G43KT TX10/0423Z TNM03/0511Z LAST NO AMDS AFT 0500 NEXT 0711
KRDD,KRDD 051129Z 0512/0612 VRB05KT P6SM VCSH OVC035 FM051500 18008KT 6SM -SHRA OVC025 TEMPO 0517/0521 3SM -SHRA OVC015 FM052200 VRB05KT P6SM OVC027
KRDG,KRDG 051127Z 0512/0612 18008KT P6SM FEW015 BKN040 FM051500 17014G23KT P6SM SCT030 FM052200 18014KT P6SM BKN050 FM060900 18012KT P6SM OVC020
KRDM,KRDM 051120Z 0512/0612 28020G25KT P6SM OVC035 FM051700 26015G23KT P6SM OVC250 FM060300 VRB06KT P6SM SCT050 SCT120
KRDR,TAF KRDR 051000Z 0510/0616 17009KT 9999 SKC QNH2947INS BECMG 0516/0517 17012G20KT 9999 FEW200 QNH2926INS BECMG 0523/0524 17015G25KT 9999 BKN060 620604 QNH2925INS TEMPO 0601/0604 9000 -SHRA BKN018 BECMG 0604/0605 17012KT 9999 BKN050 620503 QNH2921INS BECMG 0612/0613 25012G18KT 9999 SCT035 QNH2931INS BECMG 0614/0615 26030G40KT 9999 BKN030 620306 530035 QNH2941INS TX06/0521Z TNM07/0513Z
KRDU,KRDU 051120Z 0512/0612 11005KT P6SM FEW025 SCT035 FM051500 17011KT P6SM SCT050 FM051800 18010G18KT P6SM SCT050 BKN250 FM060000 17006KT P6SM SCT100 BKN250
KRFD,KRFD 051120Z 0512/0612 17021G35KT P6SM VCSH SCT010 OVC015 WS015/19060KT FM051500 21026G43KT P6SM VCSH SCT012 OVC018 TEMPO 0515/0516 3SM SHRA BKN025 FM052300 22019G33KT P6SM SCT025 FM060300 23013G22KT P6SM FEW250
KRHI,KRHI 051135Z 0512/0612 05010KT 3SM SHRA OVC008 FM051400 05010G18KT 3SM SHRA OVC005 FM052200 03011G21KT 3SM -SHRA OVC006 FM052300 26012G22KT P6SM OVC006 FM060600 21008G18KT P6SM BKN017
KRIC,KRIC 051120Z 0512/0612 00000KT 3SM BR SCT029 FM051300 16005KT P6SM BKN030 FM051500 17009KT P6SM SCT040 FM051800 17011G18KT P6SM FEW050
KRIL,KRIL 051124Z 0512/0612 VRB05KT P6SM OVC050 FM051600 VRB04KT P6SM BKN070 FM052000 26008KT P6SM BKN070 FM060100 16006KT P6SM BKN060 FM060600 17005KT P6SM VCSH OVC040
KRIV,TAF KRIV 050405Z 0504/0610 VRB04KT 9999 BKN300 QNH3010INS BECMG 0515/0516 15006KT 9999 BKN300 QNH3003INS BECMG 0519/0520 32009KT 9999 BKN300 QNH2994INS TEMPO 0522/0601 32010G15KT BECMG 0602/0603 31006KT 9999 SCT300 520709 QNH3001INS BECMG 0604/0605 16009KT 9999 FEW300 520709 QNH2992INS TX22/0522Z TN03/0514Z
KRIW,KRIW 051121Z 0512/0612 VRB06KT P6SM BKN150 FM051800 26025G35KT P6SM SCT120 FM060100 24015KT P6SM SCT100 FM060400 29011KT P6SM SCT150
KRKD,KRKD 051132Z 0512/0612 23012G17KT P6SM BKN250 FM051600 23010G17KT P6SM OVC250
KRKS,KRKS 051121Z 0512/0612 25030G40KT P6SM VCSH SCT020 OVC040 TEMPO 0512/0513 2SM -SN BR FM051500 26025G35KT P6SM SCT040 OVC050 FM052100 26030G40KT 5SM -SN OVC030 FM060500 27018G28KT 6SM -SN OVC030 FM060900 28011KT P6SM VCSH BKN080
KRME,KRME 051126Z 0512/0612 00000KT P6SM BKN250 WS020/21030KT FM051400 17009G16KT P6SM BKN220 FM052000 17012G25KT P6SM SCT035 FM052200 15011G22KT P6SM SCT040 FM060200 14012KT P6SM BKN050 WS017/18040KT FM061000 18009KT P6SM OVC030 WS018/20038KT
KRND,TAF KRND 041600Z 0416/0522 18015G25KT 9999 VCSH BKN010 OVC015 QNH2985INS BECMG 0417/0418 18015G25KT 9999 VCSH SCT010 BKN015 OVC025 QNH2979INS BECMG 0418/0419 19015G25KT 9999 VCSH SCT015 OVC030 QNH2977INS BECMG 0423/0424 19018G28KT 9999 VCTS SCT015 BKN030 OVC040 QNH2975INS TEMPO 0501/0505 33030G37KT BECMG 0505/0506 33010KT 9999 NSW SKC QNH2992INS TX28/0422Z TN13/0513Z LAST NO AMDS AFT 0500 NEXT 0619
KRNH,KRNH 051138Z 0512/0612 01007KT P6SM OVC015 FM052200 31008KT P6SM OVC013 FM060000 27006KT P6SM BKN025 FM060200 16006KT P6SM SCT050 FM060700 18006KT P6SM BKN060
KRNO,KRNO 051120Z 0512/0612 09010KT P6SM SCT150 BKN220 WS020/27045KT FM051800 23010KT P6SM SCT050 BKN080 FM060000 21006KT P6SM VCSH BKN035 FM060300 20004KT 6SM -RA BKN025
KROA,KROA 051120Z 0512/0612 16006KT P6SM -RA BKN015 OVC030 FM051700 16007G18KT P6SM -RA OVC015 FM060000 15006KT P6SM -RA OVC020 FM061000 11002KT 6SM -RA OVC007
KROC,KROC 051120Z 0512/0612 19011KT P6SM BKN250 WS020/22040KT FM051400 19015G27KT P6SM BKN250 FM060000 17021G39KT P6SM BKN080 FM060700 19017G31KT 4SM SHRA BR OVC035 FM060900 22010G20KT 4SM SHRA BR OVC035 FM061100 23007KT 6SM BR VCSH OVC035
KROG,KROG 051131Z 0512/0612 24013G21KT P6SM OVC012 TEMPO 0512/0514 4SM -DZ BR OVC008 FM051500 21011KT P6SM SKC FM060000 16009KT P6SM SKC
KROW,KROW 051125Z 0512/0612 23007KT P6SM SKC FM051800 24018G28KT P6SM SKC FM060100 23008KT P6SM SKC
KRSL,KRSL 051138Z 0512/0612 24010KT P6SM SKC FM051800 22017G26KT P6SM FEW250 FM060400 19013KT P6SM FEW250 FM061100 30008KT P6SM FEW250
KRST,KRST 051136Z 0512/0612 01013KT 4SM -RA OVC004 FM051900 32015G23KT 5SM -RA OVC007 FM052200 27012KT P6SM BKN015 FM060100 23012KT P6SM SCT250 FM060600 18013KT P6SM BKN250
KRSW,KRSW 051132Z 0512/0612 05006KT P6SM SKC FM051600 09010KT P6SM SCT035 FM060000 06004KT P6SM SCT250
KRUT,KRUT 051124Z 0512/0612 18006KT P6SM BKN070 WS020/24040KT FM051300 19007KT P6SM BKN090 WS020/24035KT FM051500 21009G20KT P6SM BKN070 FM052000 19009G19KT P6SM BKN180 FM060000 16007KT P6SM BKN210 WS020/21040KT FM060500 17009G21KT P6SM SCT150 WS020/20045KT
KRVS,KRVS 051131Z 0512/0612 25008KT P6SM SKC FM051700 19010KT P6SM SKC FM060000 17009KT P6SM SCT250
KRWF,KRWF 051138Z 0512/0612 35004KT P6SM SKC FM052200 21008KT P6SM FEW250 FM060300 15007KT P6SM BKN120 FM060600 20005KT P6SM OVC060 FM060800 26012KT P6SM BKN070
KRWI,KRWI 051120Z 0512/0612 00000KT 1/2SM FG SCT004 BKN015 TEMPO 0512/0514 1/4SM FG SCT015 BKN070 FM051400 16007KT P6SM SCT100 FM051800 16008KT P6SM SCT050 FM060000 15003KT P6SM SCT100 SCT250 FM060600 00000KT 1/2SM FG BKN002 FM060900 00000KT 1/4SM FG VV002
KRWL,KRWL 051120Z 0512/0612 24040G60KT 6SM -SN BLSN OVC020 FM051800 23035G55KT P6SM VCSH OVC040 FM060200 24030G50KT 1/4SM +SN OVC020 FM060400 26030G45KT 1 1/2SM -SN OVC020 FM060600 26025G35KT P6SM -SN OVC050 FM061000 26020G30KT P6SM BKN100
KRYY,KRYY 051129Z 0512/0612 13006KT 6SM BR SCT005 BKN008 TEMPO 0512/0514 3SM BR OVC005 FM051500 14010KT P6SM SCT012 BKN020 FM051700 16010KT P6SM SCT035 BKN250 FM052000 19008KT P6SM BKN200 FM052300 15004KT P6SM BKN200 FM060900 12003KT 3SM BR BKN003
KSAC,KSAC 051129Z 0512/0612 14009KT P6SM OVC012 TEMPO 0512/0516 OVC006 FM051800 17006KT P6SM BKN025 OVC040 FM052000 18007KT P6SM OVC045 FM052200 18008KT P6SM -SHRA OVC025
KSAF,KSAF 051125Z 0512/0612 34012KT P6SM FEW250 FM051800 29015G22KT P6SM SCT250 FM060100 34008KT P6SM SCT250
KSAN,KSAN 051120Z 0512/0618 VRB03KT P6SM BKN250 FM052100 26007KT P6SM FEW250 FM060100 VRB04KT P6SM FEW010 FM061000 16007KT P6SM BKN015
KSAT,KSAT 051120Z 0512/0618 33004KT P6SM SCT080 FM051500 03004KT P6SM SKC FM051800 18006KT P6SM SKC
KSAV,KSAV 051135Z 0512/0612 09004KT P6SM VCSH SCT025 SCT060 FM051600 13010KT P6SM VCSH SCT030 BKN070 FM052000 13011G17KT P6SM VCSH SCT030 BKN100 FM052300 11008KT P6SM FEW030 BKN090
KSAW,KSAW 051136Z 0512/0612 03010KT 4SM -SHRA BR OVC004 FM051400 03011KT 2SM -SHRA BR OVC004 FM051800 06013KT 3/4SM SHRA BR OVC002 FM052200 15011G22KT 2SM -SHRA BR OVC004 FM060000 20016G31KT 5SM BR VCSH OVC005 FM060800 23011G20KT 5SM BR VCSH OVC020
KSBA,KSBA 051142Z 0512/0612 VRB03KT P6SM SCT250 FM051800 16006KT P6SM SCT250 FM060200 VRB03KT P6SM SCT250 FM061000 09004KT P6SM FEW005 BKN250
KSBD,KSBD 051120Z 0512/0612 VRB04KT P6SM BKN250 FM052300 25007KT P6SM SKC FM060300 VRB04KT P6SM SKC
KSBM,KSBM 051120Z 0512/0612 15011G22KT 6SM -SHRA BR OVC004 FM051500 17020G42KT P6SM OVC006 TEMPO 0515/0519 SHRA FM051900 19022G48KT P6SM OVC016 FM060300 23018G42KT P6SM BKN040 FM060800 21012G25KT P6SM SCT250
KSBN,KSBN 051120Z 0512/0612 18020G38KT 6SM -SHRA VCTS SCT025CB BKN050 TEMPO 0512/0515 18020G43KT 3SM SHRA BR SCT015 BKN025 FM051500 19026G47KT 6SM BR VCSH SCT015 BKN020 TEMPO 0518/0522 4SM -SHRA BR BKN020 FM052300 22024G38KT P6SM SCT015 BKN025 FM060200 23015G25KT P6SM SCT050 FM060600 22013KT P6SM SCT250
KSBP,KSBP 051142Z 0512/0612 VRB03KT P6SM SCT250 FM052000 32015G22KT P6SM SCT250 FM060600 32006KT P6SM SCT025 BKN050 FM061000 VRB03KT P6SM BKN008 BKN015 AMD NOT SKED
KSBY,KSBY 051120Z 0512/0612 00000KT P6SM OVC035 FM051300 16005KT P6SM BKN025 FM051400 17006KT P6SM SCT250 FM051800 18012G20KT P6SM FEW050
KSCK,KSCK 051129Z 0512/0612 14008KT P6SM BKN025 OVC035 FM051800 16008KT P6SM SCT030 OVC050 FM060000 30008KT P6SM -SHRA OVC025
KSDF,KSDF 051120Z 0512/0618 17012G28KT P6SM OVC150 FM051300 18022G33KT P6SM -SHRA OVC050 FM052000 21015G25KT P6SM -SHRA OVC035 FM060100 23011KT P6SM OVC050
KSDL,KSDL 051120Z 0512/0612 VRB04KT P6SM SCT250 FM052000 25005KT P6SM FEW250 FM060300 VRB05KT P6SM FEW250
KSDY,KSDY 051120Z 0512/0612 20015KT P6SM BKN080 WS020/22045KT TEMPO 0514/0517 6SM RA BR OVC025 FM051700 22020G30KT P6SM BKN060 FM052000 26030G45KT P6SM SCT090 FM060800 28025G35KT P6SM BKN025
KSEA,KSEA 051125Z 0512/0618 19010KT P6SM FEW050 SCT250 FM051500 22014G24KT P6SM SCT050 BKN100 FM060000 19008KT P6SM FEW050 BKN200 FM060900 18014G22KT P6SM -RA SCT030 OVC050 FM061400 17012G20KT P6SM -RA OVC015
KSEZ,KSEZ 051120Z 0512/0612 05007KT P6SM SCT250 FM051500 VRB05KT P6SM FEW250 FM060300 03008KT P6SM SKC
KSFB,KSFB 051131Z 0512/0612 08005KT P6SM VCSH FEW035 SCT060 FM051500 11011G17KT P6SM VCSH SCT040 BKN060 FM060200 07005KT P6SM FEW035 SCT050
KSFF,KSFF 051126Z 0512/0612 25020G35KT P6SM SCT120 BKN250 FM051500 25018G32KT P6SM SCT250 FM052100 25013G27KT P6SM SCT090 FM060000 25010G22KT P6SM SCT120 FM060300 23008KT P6SM SCT200 FM060900 18005KT P6SM SCT140
KSFO,KSFO 051120Z 0512/0618 VRB04KT 5SM BR BKN005 BKN008 FM051600 VRB06KT P6SM BKN020 FM052300 24010KT P6SM VCSH BKN025 TEMPO 0602/0606 6SM -RA BR OVC015 FM060600 25007KT P6SM VCSH OVC020 FM061200 29012KT P6SM FEW020 OVC100
KSGF,KSGF 051120Z 0512/0612 25016G26KT P6SM OVC020 FM051600 24014G25KT P6SM BKN050 FM051800 23012G20KT P6SM FEW200 FM060000 19009KT P6SM SKC
KSGJ,KSGJ 051125Z 0512/0612 12010KT P6SM VCSH FEW025 BKN070 TEMPO 0512/0514 BKN020 FM051400 12012G18KT P6SM VCSH SCT020 BKN060 TEMPO 0514/0518 SHRA BKN020 FM051800 09010KT P6SM VCSH BKN025 FM060000 09010KT P6SM VCSH BKN025 PROB30 0600/0606 5SM SHRA
KSGR,KSGR 051121Z 0512/0612 VRB05KT P6SM BKN060 FM051500 02007KT P6SM SCT100 FM052300 12007KT P6SM FEW250 FM060700 VRB05KT P6SM SCT030
KSGU,KSGU 051129Z 0512/0612 VRB05KT P6SM FEW250 FM051900 22009KT P6SM FEW100 FM060100 VRB05KT P6SM FEW100
KSHR,KSHR 051125Z 0512/0612 20006KT P6SM SCT080 FM051600 23010KT P6SM BKN080 FM051900 29024G38KT P6SM VCSH BKN080 FM060100 32020G32KT P6SM VCSH BKN080 FM060300 31018G30KT P6SM SCT080 FM060900 31012KT P6SM SCT200
KSHV,KSHV 050520Z 0506/0606 30010KT P6SM -RA OVC050 FM051000 30005KT P6SM SCT250 FM051800 25007KT P6SM BKN250 FM060000 VRB03KT 6SM BR SKC
KSJC,KSJC 051120Z 0512/0612 VRB04KT 5SM BR BKN005 BKN015 FM051500 VRB03KT P6SM BKN015 FM051800 VRB03KT P6SM SCT020 BKN150 FM052200 27007KT P6SM SCT030 BKN050 FM060300 VRB04KT P6SM VCSH OVC025 TEMPO 0603/0607 6SM -RA BR OVC015
KSJS,KSJS 051133Z 0512/0612 16006KT P6SM BKN250 WS020/19040KT FM051400 17011G25KT P6SM BKN250 FM051600 18015G32KT P6SM BKN120 BKN250 FM052200 19013G28KT P6SM SCT050 BKN120 FM060200 20006KT P6SM VCSH SCT050 BKN100 WS020/22040KT FM060800 VRB04KT P6SM -SHRA OVC030
KSJT,KSJT 051120Z 0512/0612 24006KT P6SM SKC FM051800 23014G20KT P6SM SKC FM060000 19008KT P6SM SKC
KSKA,TAF KSKA 051100Z 0511/0617 24030G40KT 9999 SKC 510003 QNH2942INS BECMG 0513/0514 25015G25KT 9999 SKC 510003 QNH2957INS BECMG 0518/0519 25025G35KT 9999 FEW050 510003 QNH2965INS BECMG 0601/0603 25012G20KT 9999 SKC QNH2974INS WND 26009KT AFT 0605 BECMG 0612/0613 15010G15KT 9999 SCT005 OVC020 620209 QNH2964INS TX05/0522Z TN01/0513Z
KSKF,TAF AMD KSKF 051000Z 0510/0616 01006KT 9999 SKC QNH2984INS WND 18009KT AFT 0520 BECMG 0610/0611 32005KT 9999 SKC QNH2990INS TX26/0521Z TN12/0512Z
KSLC,KSLC 051129Z 0512/0618 15010KT P6SM VCSH FEW030 OVC050 FM051500 17012KT P6SM SHRA SCT030 OVC050 FM051800 17014G24KT P6SM SHRA SCT020 OVC050 FM060200 34010G20KT P6SM -RASN FEW020 SCT030 OVC050
KSLE,KSLE 051138Z 0512/0612 27005KT P6SM SCT025 BKN050 OVC060 FM051900 23008KT P6SM -SHRA OVC035 FM060600 20014G26KT P6SM -SHRA BKN045 FM060800 19015G27KT P6SM -SHRA BKN028
KSLI,TAF KSLI 050500Z 0505/0611 VRB06KT 9999 SKC QNH2988INS TX20/0523Z TN10/0515Z
KSLK,KSLK 051124Z 0512/0612 22008G16KT P6SM SCT230 WS020/24040KT FM051400 21011G20KT P6SM BKN170 FM052000 19011G24KT P6SM BKN080 FM060500 19015G29KT P6SM SCT120 WS020/21050KT FM060800 20017G30KT P6SM BKN120 WS020/21055KT
KSLN,KSLN 051138Z 0512/0612 24008KT P6SM SKC FM051900 20016G25KT P6SM FEW250 FM060000 19013KT P6SM FEW250
KSME,KSME 051133Z 0512/0612 17006KT P6SM SCT250 WS020/18040KT FM051300 17011G27KT P6SM BKN250 FM051500 19017G36KT P6SM BKN120 FM052200 19012G22KT P6SM VCSH OVC090 FM060200 21006KT P6SM VCSH OVC050 WS020/22045KT FM060500 VRB04KT P6SM -SHRA OVC016
KSMF,KSMF 051129Z 0512/0612 15011KT P6SM OVC012 TEMPO 0512/0516 OVC006 FM051700 16010KT P6SM SCT025 OVC045 FM052100 17010KT P6SM -SHRA OVC025
KSMN,KSMN 051120Z 0512/0612 21010KT P6SM -RA SCT010 OVC035 FM051400 21015G25KT P6SM -RA SCT025 OVC050 FM051600 31020G35KT P6SM -SHSN SCT030 BKN060 TEMPO 0516/0518 31025G40KT 6SM -SHSN SCT020 OVC040 FM052000 31015G25KT P6SM -SN OVC050 FM060300 27010KT P6SM VCSH OVC050
KSMO,KSMO 051142Z 0512/0612 VRB03KT P6SM SCT250 FM051900 24008KT P6SM SCT250 FM060300 VRB03KT P6SM SCT250 FM061000 08004KT P6SM SCT010
KSMX,KSMX 051142Z 0512/0612 33006KT P6SM SCT250 FM052000 32015G22KT P6SM SCT250 FM060300 32006KT P6SM SCT250 FM061000 VRB03KT P6SM BKN008 BKN015
KSNA,KSNA 051120Z 0512/0612 VRB04KT P6SM BKN250 FM052100 22007KT P6SM FEW250 FM060200 VRB05KT P6SM FEW010
KSNS,KSNS 051120Z 0512/0612 VRB05KT 1SM BR VV002 FM051400 12005KT P6SM BKN012 FM051800 12006KT P6SM SCT025 SCT200 FM052100 29008KT P6SM SCT030 BKN150 FM060500 VRB04KT P6SM VCSH OVC015 TEMPO 0606/0610 6SM -RA BR OVC015
KSNY,KSNY 051120Z 0512/0612 25010KT P6SM FEW200 WS020/30045KT FM051500 28020G35KT P6SM FEW200 WS020/30050KT FM051800 28030G40KT P6SM FEW200 FM060000 30020G30KT P6SM BKN120 FM060500 32020G30KT P6SM OVC100 FM061000 30015G25KT P6SM BKN100
KSOA,KSOA 051120Z 0512/0612 26005KT P6SM SKC FM051800 22010G16KT P6SM SKC FM060000 18006KT P6SM SKC
KSPI,KSPI 051120Z 0512/0612 17024G47KT P6SM VCSH OVC014 WS020/18060KT FM051400 22022G39KT P6SM VCSH OVC016 FM052100 24017G30KT P6SM SCT018 FM060100 21010G19KT P6SM SKC
KSPS,KSPS 051120Z 0512/0612 29007KT P6SM SKC FM051800 20014G19KT P6SM SKC FM060000 15014G20KT P6SM SCT250
KSRQ,KSRQ 051132Z 0512/0612 05006KT P6SM SKC FM051400 09008KT P6SM SCT035 FM052000 30008KT P6SM SCT040 FM060200 07005KT P6SM SCT250
KSSC,TAF KSSC 050700Z 0507/0613 11006KT 4800 BR FEW010 BKN017 OVC025 QNH3011INS BECMG 0508/0509 VRB06KT 9999 VCSH SCT010 BKN025 QNH3011INS TEMPO 0509/0511 4800 BR BKN005 BECMG 0512/0513 11006KT 9999 NSW FEW010 BKN045 QNH3012INS BECMG 0514/0515 13010G20KT 9999 BKN015 OVC035 QNH3012INS BECMG 0523/0524 14009KT 9999 SCT040 QNH3008INS TX26/0519Z TN18/0511Z LAST NO AMDS AFT 0507 NEXT 0515
KSSF,KSSF 051120Z 0512/0612 33004KT P6SM SCT080 FM051500 04004KT P6SM SKC FM051800 17005KT P6SM SKC
KSSI,KSSI 051125Z 0512/0612 12010KT 6SM BR VCSH FEW020 BKN035 OVC080 TEMPO 0512/0514 3SM SHRA BKN020 FM051400 12010KT P6SM VCSH SCT025 BKN040 TEMPO 0514/0518 5SM -SHRA BKN025 FM051800 12010KT P6SM VCSH BKN025 FM060000 09008KT P6SM VCSH BKN025 PROB30 0600/0606 5SM SHRA
KSTC,KSTC 051138Z 0512/0612 02004KT P6SM FEW250 FM051600 02006KT P6SM BKN016 FM052100 05005KT P6SM SCT100 FM060600 16005KT P6SM -RA OVC060 FM061000 23010KT P6SM BKN070
KSTJ,KSTJ 051120Z 0512/0612 27014G22KT 3SM -RASN BR OVC007 FM051400 28016KT P6SM BKN015 FM051500 26013G21KT P6SM SKC FM052200 21013KT P6SM SKC
KSTL,KSTL 051120Z 0512/0618 20018G37KT 6SM -SHRA OVC015 FM051300 23020G40KT P6SM OVC025 FM052000 24013G26KT P6SM FEW035 FM060000 21008KT P6SM SKC
KSTS,KSTS 051120Z 0512/0612 VRB04KT P6SM BKN040 TEMPO 0512/0514 2SM BR BKN005 FM051400 VRB04KT P6SM BKN020 FM052300 VRB04KT P6SM VCSH OVC015 TEMPO 0600/0604 6SM -RA BR OVC015 FM060800 VRB06KT P6SM SCT015 OVC100
KSUA,KSUA 051131Z 0512/0612 10008KT P6SM VCSH SCT020 SCT060 FM051500 10013G19KT P6SM VCSH SCT030 BKN050 FM060100 10010KT P6SM VCSH SCT030 SCT050 AMD NOT SKED
KSUN,KSUN 051132Z 0512/0618 17011G20KT P6SM -RASN SCT004 OVC019 FM051600 24015G30KT 4SM -RASN BR SCT015 OVC025 FM051800 29015G30KT P6SM VCSH SCT030 BKN100 FM060100 32010G20KT P6SM SCT050 SCT160 FM060900 31008KT P6SM FEW120 AMD LTD TO CLD VIS AND WIND TIL 051400
KSUS,KSUS 051120Z 0512/0612 20018G37KT 6SM -SHRA OVC015 FM051300 23020G40KT P6SM OVC025 FM052000 24013G26KT P6SM FEW035 FM060000 21008KT P6SM SKC
KSUU,TAF KSUU 051045Z 0511/0617 21010G15KT 9000 BR SCT005 BKN008 OVC020 QNH3019INS TEMPO 0511/0516 3200 BR VCSH BKN005 OVC010 BECMG 0517/0518 23015G25KT 8000 -RA BKN020 OVC050 QNH3000INS BECMG 0602/0603 23010G15KT 9999 VCSH BKN060 OVC100 QNH2995INS TX18/0523Z TN10/0513Z
KSUX,KSUX 051122Z 0512/0612 34005KT P6SM FEW070 BKN250 FM051800 21010G18KT P6SM FEW250 FM052300 18010KT P6SM FEW250 FM060400 24010G18KT P6SM SCT200 WS020/26045KT FM060900 29010KT P6SM BKN180
KSVN,TAF COR KSVN 042127Z 0420/0602 05009KT 9999 FEW040 QNH3011INS BECMG 0504/0505 05006KT 9999 MIFG BKN010 QNH3005INS BECMG 0511/0512 12012KT 9999 NSW BKN020 QNH3004INS BECMG 0517/0518 13010G15KT 9999 SCT030 BKN050 QNH3003INS TX27/0518Z TN20/0506Z LAST NO AMDS AFT 0420 NEXT 0704
KSWF,KSWF 051131Z 0512/0618 VRB03KT P6SM BKN060 TEMPO 0512/0514 5SM BR BKN025 FM051400 21010KT P6SM BKN040 FM060100 22008KT P6SM SCT015 BKN035 AMD NOT SKED
KSWO,KSWO 051120Z 0512/0612 25008KT P6SM SCT120 FM051600 22008KT P6SM SKC FM051900 19013G18KT P6SM SKC FM060000 16012KT P6SM SCT250
KSYM,KSYM 051133Z 0512/0612 17007KT P6SM BKN250 WS020/19045KT FM051300 18012G27KT P6SM BKN250 FM051500 19015G35KT P6SM BKN150 FM052200 20012G25KT P6SM VCSH OVC100 FM060100 21009KT P6SM VCSH OVC050 WS020/21040KT FM060400 VRB05KT P6SM -SHRA OVC025
KSYR,KSYR 051126Z 0512/0612 19018G23KT P6SM SCT250 FM051400 19015G25KT P6SM SCT250 FM051900 18014G30KT P6SM SCT070 BKN250 FM060300 18015G27KT P6SM OVC060 WS015/20047KT FM060900 19012G20KT P6SM OVC035 WS017/19045KT
KSZL,TAF KSZL 051100Z 0511/0617 25012G25KT 9999 -RA BKN010 OVC020 QNH2950INS BECMG 0516/0517 25015G25KT 9999 NSW SKC QNH2971INS BECMG 0523/0524 20012KT 9999 SKC QNH2973INS TX12/0521Z TN05/0513Z
KTBN,TAF COR KTBN 042307Z 0421/0603 18025G35KT 9999 FEW040 SCT060 510052 520253 QNH2977INS BECMG 0423/0424 16015G25KT 8000 -SHRA VCTS BKN010CB OVC019 510042 QNH2963INS BECMG 0502/0503 16020G25KT 8000 -SHRA VCTS OVC002CB 520022 530224 QNH2956INS TEMPO 0503/0508 21025G35KT 8000 -TSRA OVC002CB BECMG 0508/0509 19015G25KT 4800 -RA FEW002 OVC010 510022 510654 QNH2953INS BECMG 0511/0512 23025G35KT 9999 NSW BKN010 OVC018 510034 QNH2967INS BECMG 0517/0518 25020G25KT 9999 FEW011 BKN019 OVC026 510043 QNH2978INS BECMG 0520/0521 23010G15KT 9999 SKC 510053 QNH2981INS LAST NO AMNDS AFT 05/03Z NEXT 07/13Z TX25/0422Z TN05/0514Z
KTCC,KTCC 051125Z 0512/0612 26008KT P6SM SKC FM051600 25015G22KT P6SM FEW250 FM051800 26025G35KT P6SM SCT250 FM060100 26015G25KT P6SM SCT250 FM060900 25012KT P6SM SCT250
KTCL,KTCL 051140Z 0512/0612 13009KT 6SM SHRA BR BKN120 WS020/17040KT FM051700 17007KT 4SM SHRA BR OVC018 PROB30 0521/0601 4SM -SHRA BR OVC008 FM060100 17005KT P6SM OVC011 PROB30 0601/0606 4SM -SHRA BR OVC008 FM060600 00000KT P6SM BKN008 PROB30 0609/0610 4SM -SHRA BR OVC004 FM061000 VRB03KT P6SM BKN006 PROB30 0610/0612 4SM -SHRA BR OVC003
KTCM,TAF AMD KTCM 050955Z 0509/0611 21018G30KT 9999 BKN010 OVC015 650809 520009 QNH2945INS BECMG 0511/0512 24012G20KT 9999 SCT050 SCT080 510009 QNH2968INS BECMG 0515/0516 22012G18KT 9999 -SHRA BKN030 OVC040 610309 QNH2984INS BECMG 0517/0518 24015G25KT 9000 -SHRA BKN030 OVC040 610309 520009 QNH2988INS BECMG 0520/0521 26015G25KT 9000 -SHRA OVC030 610309 520009 QNH2989INS BECMG 0602/0603 26012G18KT 9999 NSW SCT030 BKN050 610509 520009 QNH2993INS TX13/0521Z TN05/0515Z
KTCS,KTCS 051129Z 0512/0612 32010KT P6SM FEW250 FM051900 27007KT P6SM FEW250 FM060300 VRB05KT P6SM SKC
KTEB,KTEB 051131Z 0512/0618 VRB04KT P6SM FEW025 OVC070 TEMPO 0512/0514 3SM BR OVC025 FM051400 19006KT P6SM SCT040 FM051800 18012KT P6SM SCT040 FM060100 17005KT P6SM SCT025 BKN040
KTEX,KTEX 051124Z 0512/0612 14002KT P6SM BKN200 FM051600 28002KT P6SM BKN150 FM052000 27006KT P6SM BKN200 FM060100 15003KT P6SM BKN100
KTIK,TAF KTIK 050900Z 0509/0615 26010KT 9999 SCT030 QNH2981INS BECMG 0516/0517 19012KT 9999 SKC QNH2985INS TX15/0521Z TN04/0512Z
KTIX,KTIX 051131Z 0512/0612 10006KT P6SM VCSH SCT030 FM051500 11013G19KT P6SM VCSH SCT035 BKN050 FM060100 10011KT P6SM VCSH SCT030 SCT050
KTLH,KTLH 051120Z 0512/0612 14006KT P6SM SCT250 TEMPO 0512/0514 2SM BR BKN003 FM060000 00000KT P6SM SCT250 FM061000 00000KT 3SM BR SCT002
KTMB,KTMB 051120Z 0512/0612 VRB05KT P6SM FEW035 SCT060 FM051500 10013KT P6SM SCT040 FM060000 07005KT P6SM FEW025 SCT060 FM060600 VRB04KT P6SM BKN250
KTOI,KTOI 051140Z 0512/0612 13005KT P6SM SCT250 FM051400 14008KT P6SM BKN250 FM051600 16010G19KT P6SM BKN250 FM051900 18008KT P6SM BKN110 FM052100 22005KT P6SM BKN060 FM060600 00000KT P6SM BKN100
KTOL,KTOL 051127Z 0512/0612 18015G25KT P6SM SCT200 FM051500 19025G40KT P6SM SCT100 FM052000 20020G38KT P6SM -SHRA OVC035 FM060300 23012G20KT P6SM SCT100 FM060900 21008KT P6SM BKN250
KTOP,KTOP 051130Z 0512/0612 28012G25KT 5SM -RA BR OVC010 FM051300 26008KT P6SM BKN050 FM051600 23013G22KT P6SM SKC FM060100 20010KT P6SM FEW250 WS014/22040KT FM060900 21005KT P6SM FEW250
KTPA,KTPA 051132Z 0512/0618 04004KT P6SM SCT004 TEMPO 0512/0514 3SM BR BKN004 FM051500 11006KT P6SM FEW030 FM052100 30007KT P6SM SCT040 FM060300 06005KT P6SM SCT250
KTPH,KTPH 051136Z 0512/0612 VRB06KT P6SM SKC FM051900 32012G22KT P6SM SCT070 BKN100
KTRI,KTRI 051122Z 0512/0612 16006KT P6SM OVC050 FM051400 17014G26KT P6SM BKN035 FM060000 21005KT P6SM SCT050 FM060900 VRB03KT P6SM BKN025
KTRK,KTRK 051120Z 0512/0612 21005KT P6SM SCT100 BKN200 WS020/28045KT FM051700 22010G15KT 4SM -RA SCT035 OVC060 FM060200 21006KT 4SM -RA BKN025
KTRM,KTRM 051120Z 0512/0612 VRB03KT P6SM BKN250 FM052000 14007KT P6SM FEW250 FM060100 VRB04KT P6SM SKC
KTTD,KTTD 051138Z 0512/0612 27004KT P6SM VCSH BKN050 OVC060 FM051700 24009KT P6SM -SHRA OVC025 FM060300 21009KT P6SM -SHRA OVC035 FM060900 20013G22KT P6SM -SHRA OVC030 WS020/22035KT
KTTN,KTTN 051127Z 0512/0612 16006KT 6SM BR BKN060 FM051500 19010KT P6SM SCT040 FM060300 19006KT P6SM BKN040
KTUL,KTUL 051131Z 0512/0612 25010KT P6SM SKC FM051700 19011KT P6SM SKC FM060000 16012KT P6SM SCT250
KTUP,KTUP 051120Z 0512/0612 19014G20KT 6SM -SHRA BR SCT025 BKN035 WS020/17045KT TEMPO 0512/0513 3SM TSRA BKN015CB FM051400 20011G16KT 5SM -SHRA BR OVC008 FM051800 22009KT P6SM BKN015 FM060000 24004KT P6SM SCT015
KTUS,KTUS 051120Z 0512/0612 14007KT P6SM FEW250 FM051900 32006KT P6SM SCT250 FM060300 22005KT P6SM SCT250 FM060600 15007KT P6SM SCT250
KTVC,KTVC 051125Z 0512/0612 17007KT 6SM -SHRA BR OVC018 WS020/20040KT FM051600 17018G40KT 5SM -SHRA BR OVC013 WS020/19050KT FM052100 20021G33KT P6SM VCSH OVC022 WS020/20050KT FM060200 22024G51KT P6SM VCSH BKN018 WS020/22060KT FM060800 21012G25KT P6SM SCT035
KTVF,KTVF 051127Z 0512/0612 14008KT P6SM SKC FM051700 16012KT P6SM SKC FM060100 18011G20KT P6SM VCSH OVC050 FM060500 22013G21KT P6SM BKN060 FM060900 25016G26KT P6SM BKN070
KTVL,KTVL 051120Z 0512/0612 20007KT P6SM SCT080 BKN140 WS020/27045KT FM051700 22010G15KT 4SM -RA SCT035 OVC050 FM060300 20006KT 4SM -RA BKN022 WS020/25035KT
KTWF,KTWF 051120Z 0512/0612 23020G30KT P6SM -RA OVC050 WS020/26050KT FM051400 24025G36KT P6SM -RA OVC035 WS020/26050KT FM052000 26025G36KT P6SM BKN050 FM060200 21010KT P6SM SCT050 OVC150
KTXK,KTXK 050859Z 0509/0606 27008KT P6SM SCT025 SCT080 TEMPO 0509/0513 BKN025 FM051300 26007KT P6SM OVC250 FM051800 22007KT P6SM SKC FM060000 VRB03KT P6SM SKC
KTYR,KTYR 050520Z 0506/0606 26003KT P6SM -RA SCT100 BKN120 FM051300 32003KT P6SM SKC FM051800 19006KT P6SM OVC250 FM060000 16005KT P6SM BKN250
KTYS,KTYS 051122Z 0512/0612 21008KT P6SM BKN050 FM051500 21015G26KT P6SM SCT045 FM060000 22007KT P6SM OVC100 FM060800 21005KT P6SM BKN025 PROB30 0608/0612 4SM -SHRA BR BKN021 BKN024
KUAO,KUAO 051138Z 0512/0612 VRB03KT P6SM VCSH SCT035 OVC060 FM051800 21010KT P6SM -SHRA OVC030 FM052200 23011KT P6SM -SHRA BKN040 FM060700 20010G19KT P6SM -SHRA BKN035
KUES,KUES 051120Z 0512/0612 17014G22KT P6SM OVC009 FM051500 18020G44KT 6SM -SHRA BR OVC008 FM051800 20021G45KT P6SM OVC035 FM052000 21025G48KT P6SM OVC015 FM060300 23014G26KT P6SM FEW160
KUIN,KUIN 051120Z 0512/0612 21021G35KT 6SM BR VCSH OVC008 FM051800 24022G34KT P6SM OVC011 FM052000 24019G31KT P6SM BKN022 FM052200 22015G26KT P6SM FEW250
KUKI,KUKI 051128Z 0512/0612 VRB03KT P6SM VCSH BKN025 FM051700 16005KT 2SM -RA BR BKN007 OVC015 WS020/27028KT FM052200 VRB04KT 4SM -SHRA BR SCT005 BKN050
KUNV,KUNV 051120Z 0512/0612 20007KT P6SM VCSH OVC016 WS020/20038KT FM051400 21010KT P6SM VCSH OVC015 FM060500 20013G20KT P6SM OVC025 FM060800 21008KT P6SM OVC015
KUTS,KUTS 051121Z 0512/0612 VRB05KT P6SM FEW250
KVAD,TAF KVAD 051100Z 0511/0617 10003KT 3200 BR OVC001 QNH3003INS BECMG 0512/0513 10006KT 9999 NSW OVC003 QNH3007INS BECMG 0513/0514 10006KT 9999 BKN005 QNH3008INS BECMG 0515/0516 10006KT 9999 SCT020 QNH3009INS BECMG 0522/0523 10006KT 9999 BKN030 QNH3001INS BECMG 0605/0606 12006KT 9999 OVC005 QNH3003INS BECMG 0613/0614 12006KT 9999 BKN010 QNH3002INS BECMG 0616/0617 12006KT 9999 SCT030 QNH3008INS TX21/0517Z TN18/0511Z
KVBG,TAF COR KVBG 042225Z 0422/0604 34012KT 9999 BKN250 QNH3025INS BECMG 0502/0503 35009KT 9999 SCT250 QNH3015INS BECMG 0519/0520 34012G18KT 9999 FEW250 QNH3010INS BECMG 0523/0524 32012KT 9999 FEW250 QNH3003INS TX16/0422Z TN04/0514Z LAST NO AMDS AFT 0500 NEXT 0714
KVCT,KVCT 051134Z 0512/0612 36006KT P6SM BKN050 FM051600 02008KT P6SM SCT060 FM060000 13004KT P6SM SKC FM060800 VRB03KT P6SM BKN015
KVEL,KVEL 051124Z 0512/0612 33003KT P6SM BKN040 FM051800 20005KT P6SM BKN100 FM060300 29006KT P6SM BKN070 FM060600 02005KT P6SM BKN050
KVGT,KVGT 051126Z 0512/0612 33005KT P6SM BKN250 FM051700 08007KT P6SM BKN250 FM060300 32006KT P6SM SCT250
KVIS,KVIS 051120Z 0512/0612 00000KT P6SM SCT200 FM060600 13004KT P6SM OVC100 FM060900 VRB03KT 6SM HZ OVC050
KVLD,KVLD 051120Z 0512/0612 09003KT 1/2SM FG OVC002 FM051400 13007KT P6SM SCT250 FM060000 00000KT P6SM SCT250 FM060800 00000KT 2SM BR BKN003
KVNY,KVNY 051142Z 0512/0612 VRB03KT P6SM SCT250 FM051700 36006KT P6SM SCT250 FM052000 15006KT P6SM SCT250 FM060300 VRB03KT P6SM SCT250
KVOK,TAF KVOK 050900Z 0509/0615 02009KT 8000 -RA OVC005 QNH2920INS BECMG 0517/0518 17012G18KT 9999 NSW BKN016 OVC024 QNH2912INS TEMPO 0519/0521 18025G30KT 510005 BECMG 0602/0603 24009KT 9999 SKC QNH2952INS TX13/0518Z TN03/0604Z
KVPS,TAF KVPS 050900Z 0509/0615 09009KT 8000 BR FEW007 SCT010 BKN300 QNH2991INS TEMPO 0509/0512 BKN010 BECMG 0511/0512 14012G18KT 9999 NSW BKN007 BKN010 OVC300 QNH2993INS TEMPO 0512/0515 BKN005 BECMG 0518/0519 20015G20KT 8000 -SHRA BKN015 BKN070 OVC250 QNH2990INS TEMPO 0519/0523 6000 -TSRA BKN010CB BECMG 0601/0602 13012KT 9999 NSW FEW010 SCT050 BKN100 QNH2992INS BECMG 0605/0606 15009KT 9999 FEW060 SCT100 QNH2995INS BECMG 0612/0613 10009KT 9999 FEW020 SCT050 QNH2997INS TX26/0519Z TN17/0607Z
KVQQ,KVQQ 051125Z 0512/0612 VRB02KT 6SM BR VCSH FEW005 SCT030 BKN200 TEMPO 0512/0513 4SM BR FM051300 12008KT P6SM VCSH SCT025 BKN040 TEMPO 0514/0518 BKN022 FM060000 09008KT P6SM VCSH SCT025 BKN150 PROB30 0600/0606 6SM -SHRA BKN025
KVRB,KVRB 051131Z 0512/0612 09008KT P6SM VCSH SCT030 SCT060 FM051500 10014G20KT P6SM VCSH SCT030 BKN050 FM060100 10011KT P6SM VCSH SCT030 SCT050
KVTN,KVTN 051122Z 0512/0612 24007KT P6SM FEW250 FM051700 26015G26KT P6SM SCT250 FM060000 29012G23KT P6SM BKN200 FM060500 30011KT P6SM BKN100
KWJF,KWJF 051142Z 0512/0612 27006KT P6SM FEW250 FM051500 30012KT P6SM FEW250 FM051800 29015G25KT P6SM FEW250 FM052100 28022G34KT 6SM BLDU FEW002 SCT250 FM060100 26015G20KT P6SM SCT250 FM060400 25010KT P6SM SCT250
KWMC,KWMC 051136Z 0512/0612 20010G20KT P6SM OVC090 FM051500 20012G22KT P6SM VCSH BKN035 OVC060 FM052000 22015G25KT 6SM -SHRA BKN020 OVC040 FM060100 27008KT 6SM -SHRA BKN010 OVC025 FM061000 VRB06KT P6SM VCSH BKN050 OVC080
KWRB,TAF KWRB 050800Z 0508/0614 10003KT 9999 FEW050 FEW250 QNH3005INS BECMG 0510/0511 15003KT 8000 BR OVC025 QNH3006INS BECMG 0514/0515 17006KT 9999 NSW OVC015 QNH3009INS BECMG 0518/0519 18012KT 9999 SCT020 QNH3004INS BECMG 0523/0600 13003KT 8000 -SHRA OVC020 QNH3000INS BECMG 0610/0611 12003KT 9999 NSW OVC015 QNH3001INS TX26/0521Z TN12/0512Z
KWRI,TAF KWRI 051000Z 0510/0616 15003KT 1600 BR SCT025 QNH3024INS TEMPO 0510/0513 1200 BR SCT003 BKN025 BECMG 0513/0514 19010G18KT 8000 BR SCT040 QNH3022INS BECMG 0515/0516 19010G18KT 9999 NSW SCT040 QNH3015INS BECMG 0523/0524 19006KT 9999 SCT250 QNH3016INS BECMG 0605/0606 18006KT 4800 BR BKN250 QNH3016INS BECMG 0613/0614 19010G15KT 9999 NSW BKN250 QNH3016INS TX25/0519Z TN11/0511Z
KWRL,KWRL 051121Z 0512/0612 13008KT P6SM SCT150 FM051800 25018G28KT P6SM SCT030 BKN080 FM052000 29020G30KT P6SM SCT080 FM060300 30010KT P6SM FEW080 FM060900 33010KT P6SM SCT080
KWWR,KWWR 051120Z 0512/0612 27008KT P6SM FEW150 FM051500 21012KT P6SM SKC FM051800 19015G24KT P6SM SKC FM060000 16013KT P6SM SCT250
KXNA,KXNA 051131Z 0512/0612 24012G20KT P6SM OVC012 TEMPO 0512/0514 4SM -DZ BR OVC008 FM051500 21011KT P6SM SKC FM060000 17008KT P6SM SKC
KXWA,KXWA 051123Z 0512/0612 17009KT P6SM OVC070 FM051600 22017G27KT 6SM -RA BR OVC060 FM051900 23024G34KT P6SM BKN060 FM052100 26031G42KT P6SM SCT200 FM060600 27028G44KT P6SM BKN060
KYIP,KYIP 051120Z 0512/0612 18012G18KT P6SM OVC200 WS018/20048KT FM051400 18018G30KT P6SM BKN250 FM051700 19020G38KT P6SM SCT045 BKN090 FM052200 21020G42KT P6SM -SHRA BKN025 BKN045 TEMPO 0522/0524 21023G46KT 2SM SHRA OVC012 FM060100 22018G35KT P6SM BKN025 FM060400 22015G25KT P6SM SCT025 FM060800 21012KT P6SM SKC
KYKM,KYKM 051120Z 0512/0612 27020G30KT P6SM BKN150 FM051500 29020G24KT P6SM SKC FM060700 27006KT P6SM BKN250
KYNG,KYNG 051127Z 0512/0612 15010KT P6SM BKN250 FM051500 18015G28KT P6SM BKN250 FM051900 17015G30KT P6SM BKN090 FM060200 20015G23KT P6SM -SHRA BKN035 FM060900 23010KT P6SM BKN050
KZZV,KZZV 051140Z 0512/0612 17010KT P6SM BKN250 WS020/19040KT FM051700 19014G28KT P6SM BKN120 FM060200 20009G20KT P6SM VCSH OVC060 FM060600 24006KT 5SM -SHRA BR OVC040 FM061100 VRB02KT P6SM VCSH BKN040
LATI,TAF LATI 051100Z 0512/0612 18008KT 7000 -RA FEW002 OVC060 TX18/0612Z TN12/0605Z PROB40 0512/0518 18010G20KT 4000 TSRA SCT020CB BKN040 BECMG 0520/0522 VRB05KT NSW
LBBG,TAF LBBG 051100Z 0512/0612 12010KT CAVOK BECMG 0517/0519 VRB04KT BECMG 0609/0611 06014KT
LBGO,TAF LBGO 051100Z 0512/0612 12010KT 9999 SCT070 BECMG 0523/0601 VRB04KT TEMPO 0601/0606 5000 BR NSC
LBPD,TAF LBPD 051100Z 0512/0612 09010KT 9999 SCT080 BECMG 0516/0518 VRB04KT TEMPO 0518/0606 3000 BR BKN010 OVC020 PROB40 0600/0606 0600 BCFG BKN003
LBSF,TAF LBSF 051100Z 0512/0612 10010KT 9999 SCT070 BECMG 0519/0521 VRB04KT BKN040 TEMPO 0600/0606 3000 BR SCT010 BKN040 BECMG 0606/0608 12012KT SCT020 BKN035 TEMPO 0608/0612 5000 RA SCT015 BKN030 OVC045
LBWN,TAF LBWN 051100Z 0512/0612 12010KT CAVOK BECMG 0517/0519 VRB04KT TEMPO 0601/0606 3000 BR BKN007 BECMG 0607/0609 09014KT
LCEN,TAF LCEN 050440Z 0506/0606 08015KT 9999 SCT025 BECMG 0516/0519 29012KT
LCLK,TAF LCLK 051130Z 0512/0612 12010KT 9999 FEW025 BECMG 0515/0518 29006KT BECMG 0607/0611 19012KT
LCPH,TAF LCPH 051130Z 0512/0612 28010KT 9999 FEW025 PROB30 TEMPO 0512/0515 FEW025TCU FEW030CB BECMG 0515/0518 02007KT BECMG 0605/0608 12010KT BECMG 0609/0612 21010KT
LCRA,TAF LCRA 051109Z 0512/0606 22005KT 9999 FEW020 PROB30 0512/0513 14005KT PROB40 0521/0606 03005KT
LDDU,TAF LDDU 051125Z 0512/0612 11018KT 9999 BKN027 TX20/0611Z TN14/0521Z TEMPO 0512/0520 4000 RA PROB40 TEMPO 0512/0515 11020G30KT 2000 +RA BKN012 BECMG 0522/0600 02018KT PROB40 TEMPO 0600/0609 02018G30KT BECMG 0610/0612 19007KT
LDOS,TAF LDOS 051125Z 0512/0612 30009KT 5000 -RA FEW012 BKN035 TX10/0513Z TN08/0605Z PROB30 TEMPO 0515/0521 BKN010 OVC030 PROB40 TEMPO 0518/0610 2000 -RA BR BECMG 0521/0600 BKN007 OVC025
LDPL,TAF LDPL 051125Z 0512/0612 06015KT CAVOK TX16/0513Z TN10/0605Z PROB30 TEMPO 0512/0517 06008KT PROB30 TEMPO 0517/0604 06018G28KT BECMG 0610/0612 06008KT
LDRI,TAF LDRI 051125Z 0512/0612 VRB18G30KT 9999 SCT045 TX15/0611Z TN10/0604Z TEMPO 0512/0610 VRB10KT PROB30 TEMPO 0512/0514 08025G40KT PROB30 TEMPO 0600/0608 06025G42KT BECMG 0608/0610 07010KT
LDSP,TAF LDSP 051125Z 0512/0612 05018KT 9999 BKN040 TX19/0611Z TN13/0512Z TEMPO 0512/0521 RA PROB40 TEMPO 0512/0603 05020G30KT PROB30 TEMPO 0513/0600 03025G40KT BECMG 0604/0606 05008KT BECMG 0610/0612 34008KT
LDZA,TAF LDZA 051125Z 0512/0612 26005KT 9999 SCT045 TX12/0611Z TN07/0605Z BECMG 0513/0515 05008KT PROB30 TEMPO 0519/0607 VRB02KT
LDZD,TAF LDZD 051125Z 0512/0612 05016KT 9999 BKN050 TX17/0611Z TN10/0512Z PROB40 TEMPO 0512/0518 05020G30KT RA PROB30 TEMPO 0512/0518 05025G35KT BECMG 0606/0608 06008KT
LEAB,TAF LEAB 051100Z 0512/0612 29009KT CAVOK TX20/0514Z TN04/0606Z
LEAG,TAF LEAG 041400Z 0415/0515 27009KT 9999 SCT030 TX22/0415Z TN18/0505Z
LEAL,TAF LEAL 051100Z 0512/0612 10010KT 9999 FEW050 TX21/0512Z TN11/0606Z BECMG 0516/0519 31005KT BECMG 0607/0610 24010KT
LEAM,TAF LEAM 051100Z 0512/0612 19006KT 9999 FEW035 TX23/0513Z TN16/0606Z PROB40 TEMPO 0522/0606 34010KT
LEAO,TAF LEAO 050800Z 0509/0609 VRB04KT CAVOK TX19/0516Z TN01/0606Z
LEAS,TAF LEAS 050800Z 0509/0609 21009KT 9999 FEW030 TX16/0514Z TN11/0509Z PROB30 TEMPO 0512/0516 30010KT TEMPO 0603/0607 3000 RA BKN010 TEMPO 0606/0609 27010KT
LEBA,TAF LEBA 050800Z 0509/0609 08010KT CAVOK TX24/0515Z TN05/0606Z BECMG 0511/0514 VRB02KT
LEBB,TAF LEBB 051100Z 0512/0612 VRB04KT 9999 FEW040 TX19/0514Z TN08/0600Z BECMG 0602/0606 20010KT PROB30 TEMPO 0603/0608 22015G25KT
LEBG,TAF LEBG 050800Z 0509/0609 VRB04KT CAVOK TX14/0515Z TN00/0606Z
LEBL,TAF LEBL 051100Z 0512/0612 34007KT CAVOK TX20/0514Z TN11/0606Z BECMG 0512/0514 08007KT BECMG 0514/0516 22006KT BECMG 0517/0519 32007KT BECMG 0610/0612 22010KT
LEBR,TAF LEBR 042000Z 0421/0521 30009KT CAVOK TX18/0515Z TN05/0507Z PROB40 TEMPO 0502/0509 3000 BR BKN010
LEBZ,TAF LEBZ 050800Z 0509/0609 VRB03KT CAVOK TX21/0515Z TN05/0606Z
LECO,TAF LECO 050800Z 0509/0609 19008KT 9999 FEW020 TX16/0514Z TN10/0509Z PROB30 TEMPO 0522/0606 20015G25KT TEMPO 0600/0606 4000 RA BKN014
LECV,TAF LECV 051100Z 0512/0612 VRB04KT CAVOK TX15/0515Z TN06/0606Z
LEGA,TAF LEGA 041100Z 0412/0512 VRB02KT 9999 FEW025 TX21/0415Z TN07/0506Z PROB40 TEMPO 0415/0419 35010KT
LEGE,TAF LEGE 051100Z 0512/0612 VRB03KT 9999 SCT040 TX20/0513Z TN06/0606Z TEMPO 0515/0517 16010KT
LEGR,TAF LEGR 051100Z 0512/0612 VRB02KT CAVOK TX24/0515Z TN05/0606Z PROB30 TEMPO 0516/0518 26010KT
LEGT,TAF LEGT 051100Z 0512/0612 VRB04KT CAVOK TX18/0515Z TN05/0606Z
LEHC,TAF LEHC 050800Z 0509/0609 27010KT 9999 FEW025 TX19/0514Z TN06/0606Z BECMG 0518/0520 VRB03KT
LEIB,TAF LEIB 050800Z 0509/0609 36010KT 9999 FEW040 TX20/0512Z TN15/0606Z BECMG 0514/0516 VRB03KT BECMG 0519/0521 23010KT
LEJR,TAF LEJR 050800Z 0509/0609 VRB03KT 9999 FEW020 TX25/0514Z TN09/0606Z PROB40 TEMPO 0509/0511 2000 BR BKN005 PROB30 TEMPO 0509/0510 0800 FG VV002 PROB30 TEMPO 0601/0607 3000 BR
LELC,TAF LELC 051100Z 0512/0612 30010KT CAVOK TX24/0512Z TN12/0606Z BECMG 0512/0513 12010KT BECMG 0517/0520 29005KT
LELL,TAF LELL 050800Z 0509/0609 VRB03KT 9999 FEW040 TX21/0513Z TN07/0606Z TEMPO 0514/0517 20010KT
LELN,TAF LELN 050800Z 0509/0609 VRB04KT CAVOK TX14/0515Z TNM01/0606Z PROB30 TEMPO 0607/0609 OVC012
LELO,TAF LELO 050800Z 0509/0609 28007KT CAVOK TX18/0515Z TN05/0606Z
LEMD,TAF LEMD 051100Z 0512/0618 VRB04KT CAVOK TX19/0615Z TN03/0606Z PROB30 TEMPO 0612/0618 22008KT
LEMG,TAF LEMG 051100Z 0512/0612 14007KT CAVOK TX25/0513Z TN14/0606Z BECMG 0518/0520 VRB02KT BECMG 0522/0524 29006KT
LEMH,TAF AMD LEMH 050901Z 0509/0609 35020KT 9999 FEW020 TX19/0512Z TN14/0606Z TEMPO 0509/0515 35025G35KT BECMG 0515/0518 32010KT BECMG 0605/0608 24010KT
LEMO,TAF LEMO 050800Z 0509/0609 VRB03KT CAVOK TX25/0515Z TN08/0606Z PROB40 TEMPO 0509/0510 4000 BR BKN005
LEPA,TAF LEPA 051100Z 0512/0612 32010KT 9999 FEW040 TX22/0513Z TN12/0606Z BECMG 0517/0519 04005KT BECMG 0609/0611 22010KT
LEPP,TAF LEPP 050800Z 0509/0609 VRB02KT 9999 FEW020 TX15/0515Z TN05/0607Z PROB30 TEMPO 0510/0518 34010KT
LERI,TAF LERI 051100Z 0512/0612 27004KT CAVOK TX24/0515Z TN11/0606Z PROB40 TEMPO 0516/0518 08010KT
LERL,TAF LERL 050800Z 0509/0609 VRB04KT CAVOK TX21/0516Z TN01/0606Z
LERS,TAF AMD LERS 050905Z 0509/0609 28010KT 9999 FEW040 TX21/0513Z TN09/0606Z TEMPO 0509/0515 VRB03KT BECMG 0519/0521 36005KT
LERT,TAF LERT 050800Z 0509/0609 VRB03KT 9999 FEW020 TX24/0514Z TN14/0606Z PROB40 TEMPO 0509/0510 2000 BR BKN005 PROB30 TEMPO 0509/0510 0800 FG VV002 PROB40 TEMPO 0600/0608 2000 BR BKN003
LESA,TAF LESA 050800Z 0509/0609 VRB04KT CAVOK TX18/0515Z TN02/0606Z
LESO,TAF LESO 051100Z 0512/0612 23009KT 9999 FEW040 TX17/0513Z TN11/0606Z PROB30 TEMPO 0512/0518 03010KT
LEST,TAF LEST 051100Z 0512/0612 22006KT 9999 FEW025 TX14/0514Z TN09/0605Z PROB30 TEMPO 0513/0517 28010KT TEMPO 0600/0606 18015G25KT 3000 RA BR BKN005 BKN010 FEW025TCU TEMPO 0600/0612 3000 RA BKN010 PROB40 TEMPO 0600/0612 1400 RADZ BKN005 PROB40 TEMPO 0600/0612 0350 RADZ FG VV001
LESU,TAF LESU 050800Z 0509/0609 VRB02KT 9999 FEW030 TX18/0513Z TN03/0606Z
LETO,TAF LETO 051100Z 0512/0612 VRB04KT CAVOK TX17/0515Z TN02/0606Z
LEVC,TAF LEVC 051100Z 0512/0612 21005KT 9999 FEW050 TX23/0513Z TN10/0606Z BECMG 0512/0515 12010KT BECMG 0516/0518 VRB04KT BECMG 0517/0519 VRB04KT
LEVD,TAF LEVD 050800Z 0509/0609 VRB04KT CAVOK TX16/0515Z TN03/0606Z
LEVS,TAF LEVS 051100Z 0512/0612 VRB04KT CAVOK TX17/0515Z TN06/0606Z
LEVT,TAF LEVT 051100Z 0512/0612 22009KT 9999 FEW020 TX15/0515Z TN04/0603Z
LEVX,TAF LEVX 051100Z 0512/0612 18008KT 9999 FEW025 TX16/0514Z TN09/0606Z PROB30 TEMPO 0513/0517 28010KT TEMPO 0600/0606 18015G25KT 3000 RA BR BKN005 BKN010 FEW025TCU TEMPO 0603/0612 3000 RA BKN010 PROB40 TEMPO 0603/0612 1400 RADZ BKN005 PROB30 TEMPO 0603/0612 0350 RADZ FG VV001
LEXJ,TAF LEXJ 050800Z 0509/0609 22008KT 9999 FEW025 SCT040 TX19/0514Z TN12/0509Z PROB30 TEMPO 0513/0516 04010KT
LEZG,TAF LEZG 051100Z 0512/0612 30010KT 9999 FEW050 TX18/0514Z TN06/0606Z BECMG 0519/0522 VRB05KT
LEZL,TAF LEZL 050800Z 0509/0609 VRB03KT CAVOK TX24/0515Z TN09/0606Z PROB30 TEMPO 0509/0511 06010KT
LFAQ,TAF LFAQ 051100Z 0512/0521 21010KT CAVOK
LFAT,TAF LFAT 051100Z 0512/0521 21012KT 9999 SCT015 BKN030 TEMPO 0512/0521 22015G25KT 3000 RA BKN013 OVC020
LFBC,TAF LFBC 041400Z 0415/0515 31015G25KT 9999 SCT030 SCT050 TEMPO 0415/0418 SHRA FEW015 BKN020TCU SCT033 BECMG 0418/0420 30010KT SCT033 BECMG 0423/0501 VRB03KT PROB30 TEMPO 0503/0507 3000 MIFG
LFBD,TAF LFBD 051100Z 0512/0618 20005KT CAVOK TX17/0612Z TN06/0606Z TEMPO 0512/0515 BKN035
LFBE,TAF LFBE 051100Z 0512/0612 19005KT CAVOK
LFBG,TAF LFBG 041400Z 0415/0515 31013KT 9999 BKN035 BECMG 0420/0422 VRB03KT PROB30 TEMPO 0504/0508 3000 BCFG
LFBH,TAF LFBH 041700Z 0418/0518 32015KT 9999 SCT040 BECMG 0421/0423 VRB03KT BECMG 0509/0512 20007KT
LFBI,TAF LFBI 041700Z 0418/0518 30012KT 9999 SCT040 BECMG 0423/0501 VRB03KT TEMPO 0503/0506 2000 BR PROB30 TEMPO 0503/0508 0800 FG VV/// BECMG 0509/0512 20007KT
LFBL,TAF LFBL 051100Z 0512/0612 09005KT CAVOK TEMPO 0602/0608 0800 FG VV///
LFBM,TAF LFBM 050800Z 0509/0609 VRB02KT 9999 BKN040 TEMPO 0603/0608 4000 BR
LFBO,TAF LFBO 041700Z 0418/0524 30015KT 9999 SCT045 PROB40 TEMPO 0418/0421 -SHRA SCT035TCU BECMG 0501/0503 CAVOK BECMG 0503/0505 26005KT PROB30 TEMPO 0504/0507 4000 BR BECMG 0505/0507 VRB02KT
LFBP,TAF LFBP 041700Z 0418/0518 28005KT 9999 BKN045 TEMPO 0418/0421 -SHRA SCT020TCU BECMG 0420/0422 VRB03KT PROB30 TEMPO 0502/0507 3000 BR BECMG 0508/0510 CAVOK
LFBT,TAF LFBT 041700Z 0418/0518 28010KT 9999 BKN030 TEMPO 0418/0422 -SHRA SCT025TCU BECMG 0500/0502 VRB03KT BECMG 0507/0509 CAVOK
LFBU,TAF LFBU 051100Z 0512/0612 15005KT CAVOK TEMPO 0512/0515 BKN040
LFBZ,TAF LFBZ 051100Z 0512/0612 13004KT CAVOK
LFCR,TAF LFCR 041700Z 0418/0518 30018G28KT 9999 OVC009 TEMPO 0418/0421 7000 -RA BECMG 0421/0423 30010KT TEMPO 0500/0502 OVC005 BECMG 0502/0504 CAVOK TEMPO 0505/0509 VRB03KT 3000 BR
LFGJ,TAF LFGJ 051100Z 0512/0521 32004KT 9999 BKN025
LFJL,TAF LFJL 051100Z 0512/0612 23006KT 9999 BKN013 BECMG 0512/0514 SCT020 BECMG 0521/0524 14006KT
LFKB,TAF AMD LFKB 041531Z 0415/0515 26012KT CAVOK TX20/0512Z TN12/0505Z TEMPO 0415/0418 26015G25KT BECMG 0418/0420 24004KT BECMG 0500/0502 BKN035 BKN140 TEMPO 0500/0504 SCT030 FEW033CB BKN040 BECMG 0507/0509 32010KT
LFKC,TAF LFKC 041400Z 0415/0515 22014KT 9999 BKN040 BKN250 TX21/0512Z TN10/0505Z TEMPO 0416/0418 22015G25KT TEMPO 0415/0423 SHRA BKN030 FEW033CB BKN040 PROB30 TEMPO 0415/0423 VRB15G25KT 4000 TSRA BECMG 0423/0501 VRB06KT BECMG 0511/0513 04010KT
LFKF,TAF LFKF 041400Z 0415/0515 28017G30KT 9999 SCT030 BKN200 TEMPO 0415/0505 SHRA BKN025 SCT030CB BKN040 PROB40 TEMPO 0415/0418 4000 TSRA TEMPO 0423/0505 27022G36KT 3000 TS SHRA BECMG 0504/0506 04010KT BECMG 0508/0511 24005KT SCT050
LFKJ,TAF LFKJ 041400Z 0415/0515 31013KT 9999 SCT030 TEMPO 0415/0502 SHRA BKN030 SCT033CB BKN070 PROB30 TEMPO 0415/0420 TS PROB40 TEMPO 0420/0502 VRB15G25KT 4000 TSRA BECMG 0500/0502 05005KT BECMG 0504/0506 CAVOK BECMG 0509/0511 24006KT
LFKS,TAF LFKS 050800Z 0509/0609 36009KT CAVOK TEMPO 0509/0516 36015G30KT
LFLB,TAF AMD LFLB 041510Z 0415/0515 VRB05KT 9999 BKN060 TEMPO 0415/0420 3000 SHRA SCT040TCU PROB40 TEMPO 0415/0420 FEW040CB BKN045TCU TEMPO 0420/0504 4000 RA BKN018 BECMG 0506/0508 36008KT
LFLC,TAF LFLC 041700Z 0418/0518 31010KT 9999 BKN033 TEMPO 0418/0421 33015G25KT SHRA BKN040TCU BECMG 0511/0513 09006KT
LFLL,TAF LFLL 051100Z 0512/0618 34012KT 9999 SCT025 BECMG 0514/0517 CAVOK BECMG 0520/0522 VRB02KT 5000 NSC BECMG 0522/0524 3000 BR BKN012 TEMPO 0600/0609 0400 FG VV/// BECMG 0609/0612 18004KT CAVOK
LFLN,TAF LFLN 051100Z 0512/0521 30004KT 9999 BKN013 BECMG 0512/0514 SCT020 
LFLP,TAF LFLP 041400Z 0415/0515 VRB05KT 9999 BKN030 TEMPO 0415/0420 SHRA SCT043TCU PROB40 TEMPO 0415/0420 FEW045CB BKN050TCU TEMPO 0420/0504 RA BKN021 PROB40 TEMPO 0500/0506 BKN008 BECMG 0508/0511 34007KT
LFLS,TAF LFLS 041400Z 0415/0515 35008KT 9999 BKN030 TEMPO 0415/0420 VRB10KT SHRA SCT040TCU PROB40 TEMPO 0415/0420 FEW043CB BKN045TCU BECMG 0419/0421 BKN013 TEMPO 0420/0501 RA BKN020 PROB40 TEMPO 0501/0507 -RADZ BKN009 BECMG 0508/0510 BKN018
LFLX,TAF LFLX 051100Z 0512/0618 23009KT 9999 FEW040 BKN120 PROB30 TEMPO 0602/0605 VRB03KT 4000 BR TEMPO 0611/0614 -RA BKN015 PROB40 TEMPO 0614/0618 23015G25KT -SHRA BKN013 FEW020TCU
LFLY,TAF LFLY 051100Z 0512/0612 34012KT 9999 SCT025 BECMG 0514/0517 CAVOK BECMG 0520/0522 VRB02KT 5000 NSC TEMPO 0522/0610 3000 BR BKN012 PROB40 TEMPO 0603/0609 0400 FG VV///
LFMD,TAF AMD LFMD 041752Z 0417/0515 27015KT CAVOK BECMG 0417/0419 34006KT PROB40 TEMPO 0418/0422 34015G25KT TSRA SCT025CB BECMG 0510/0512 18010KT
LFMI,TAF LFMI 041400Z 0415/0515 30020G30KT CAVOK TX15/0513Z TN09/0421Z TEMPO 0416/0421 33015KT BECMG 0421/0423 34025G40KT
LFMK,TAF LFMK 041400Z 0415/0515 28017G27KT 9999 SCT030TCU BKN045 TEMPO 0415/0422 30025G38KT 4000 SHRA SCT020CB BKN035 BECMG 0423/0501 CAVOK BECMG 0502/0504 28010KT TEMPO 0504/0507 BKN035 TEMPO 0508/0512 30016G26KT
LFML,TAF LFML 041400Z 0415/0521 30020G30KT CAVOK TX15/0513Z TN11/0502Z TEMPO 0416/0419 33015KT BECMG 0419/0421 34025G40KT BECMG 0509/0511 33015G25KT BECMG 0519/0521 35012KT
LFMN,TAF LFMN 041400Z 0415/0521 24020KT CAVOK PROB40 0415/0417 24020G30KT BECMG 0416/0418 34010KT PROB30 TEMPO 0418/0422 34020G30KT TSRA SCT025CB BECMG 0511/0513 20008KT BECMG 0518/0520 34010KT
LFMO,TAF LFMO 050800Z 0509/0609 35030G40KT CAVOK TX15/0514Z TN03/0605Z BECMG 0520/0522 35015G25KT BECMG 0603/0605 VRB02KT
LFMP,TAF LFMP 041400Z 0415/0515 30025G45KT CAVOK TEMPO 0415/0422 32030G52KT BECMG 0502/0504 31020G30KT
LFMT,TAF LFMT 041400Z 0415/0515 29014KT CAVOK TEMPO 0415/0423 30017G27KT BECMG 0503/0506 32006KT BECMG 0509/0511 34012KT
LFMU,TAF LFMU 041400Z 0415/0515 29017G30KT 9999 BKN045 BECMG 0422/0424 CAVOK
LFMV,TAF LFMV 041400Z 0415/0515 31010KT CAVOK PROB40 TEMPO 0415/0417 SHRA FEW040TCU BECMG 0420/0422 35020G35KT PROB40 TEMPO 0500/0515 35025G45KT
LFOA,TAF AMD LFOA 041510Z 0415/0515 30010KT 9999 BKN035 TX12/0415Z TN02/0504Z TEMPO 0415/0418 33020G30KT 4000 SHRA BKN005 BKN015CB BECMG 0418/0421 SCT030 BECMG 0500/0503 2000 BR BKN002 PROB40 TEMPO 0503/0510 0200 FG VV/// BECMG 0510/0512 9999 NSW SCT015
LFOB,TAF LFOB 051100Z 0512/0612 20010KT 9999 BKN030 PROB30 TEMPO 0600/0603 BKN013 TEMPO 0609/0612 20015G25KT 4000 RA
LFOE,TAF LFOE 050800Z 0509/0609 25005KT 9999 SCT040 PROB40 TEMPO 0510/0513 4500 -RA TEMPO 0515/0521 4000 -RA BECMG 0602/0605 19015G25KT 3000 RA SCT008 BKN020
LFOH,TAF LFOH 051100Z 0512/0612 20015G25KT 9999 BKN030 TEMPO 0519/0612 3000 RA BKN013 OVC025 TEMPO 0608/0612 20020G35KT
LFOJ,TAF LFOJ 050800Z 0509/0609 21005KT CAVOK TX13/0513Z TN06/0509Z
LFOK,TAF LFOK 051100Z 0512/0612 20010KT CAVOK
LFOP,TAF LFOP 051100Z 0512/0612 19010KT 9999 BKN030 PROB40 TEMPO 0523/0612 3000 RA BKN013 OVC020 TEMPO 0609/0612 19015G25KT
LFOT,TAF LFOT 051100Z 0512/0612 19008KT 9999 SCT035 BKN100 TEMPO 0603/0612 -RA PROB40 TEMPO 0609/0612 4000 RA BKN009 OVC020
LFPB,TAF LFPB 051100Z 0512/0612 18010KT CAVOK PROB40 TEMPO 0611/0612 4000 -RA
LFPG,TAF LFPG 051100Z 0512/0618 19010KT 9999 FEW040 TX12/0514Z TN08/0606Z PROB40 TEMPO 0611/0614 4000 -RA TEMPO 0614/0618 19015G25KT BKN012
LFPN,TAF LFPN 051100Z 0512/0521 22009KT 9999 SCT040 BKN090
LFPO,TAF LFPO 051100Z 0512/0618 18008KT CAVOK TEMPO 0605/0612 4000 -RA BKN030 TEMPO 0615/0618 20015G25KT 4000 -SHRA BKN014
LFPV,TAF LFPV 050800Z 0509/0609 22008KT CAVOK TX11/0515Z TN08/0606Z TEMPO 0604/0609 4500 -RA
LFQQ,TAF LFQQ 051100Z 0512/0618 19012KT 9999 BKN030 PROB30 TEMPO 0600/0605 4000 RA BKN013 TEMPO 0604/0618 19017G27KT TEMPO 0614/0617 3000 RA BKN014
LFRB,TAF LFRB 041700Z 0418/0524 30005KT 9999 SCT030 PROB30 TEMPO 0420/0424 4000 BR BECMG 0500/0503 20010KT BECMG 0507/0510 21015G25KT -RA BKN015 TEMPO 0510/0524 4000 RADZ OVC012 PROB40 TEMPO 0514/0524 2000 RADZ OVC004 PROB30 TEMPO 0518/0524 0800 FG OVC002
LFRD,TAF LFRD 041700Z 0418/0518 31010KT 9999 SCT030 BECMG 0419/0422 24008KT BECMG 0505/0507 18010KT TEMPO 0510/0518 4000 -RADZ BKN014 BECMG 0516/0518 20015G25KT
LFRH,TAF LFRH 050500Z 0506/0606 21005KT 9999 BKN025 BKN040 BECMG 0506/0508 21015KT TEMPO 0512/0518 RA BKN020 OVC060 BECMG 0518/0520 4500 RA BKN012 BKN017 TEMPO 0521/0606 BKN008 OVC015 TEMPO 0600/0603 20015G30KT PROB40 TEMPO 0600/0606 1500 RADZ BR BKN003
LFRI,TAF LFRI 041700Z 0418/0518 32015G25KT 9999 SCT030 BECMG 0419/0421 VRB03KT TEMPO 0504/0507 3000 BR BECMG 0509/0512 18010KT
LFRM,TAF LFRM 041100Z 0412/0512 24008KT 9999 BKN040 BECMG 0420/0422 25004KT TEMPO 0502/0506 3000 BR PROB30 TEMPO 0503/0508 0800 FG VV/// BECMG 0509/0512 21007KT
LFRN,TAF LFRN 041700Z 0418/0518 28006KT 9999 SCT030 PROB30 TEMPO 0422/0505 4000 BR BECMG 0508/0510 18010KT TEMPO 0510/0518 4000 -RA BKN014
LFRQ,TAF LFRQ 041700Z 0418/0518 32006KT 9999 SCT030 PROB40 TEMPO 0421/0506 3000 BR BECMG 0506/0508 21010KT BECMG 0508/0511 -RA BKN015 TEMPO 0511/0518 20015G25KT 3000 RADZ OVC012 PROB40 TEMPO 0515/0518 BKN008
LFRS,TAF LFRS 041700Z 0418/0524 28009KT 9999 SCT045 BECMG 0419/0421 VRB04KT TEMPO 0503/0507 3000 BR BECMG 0509/0512 18010KT PROB30 TEMPO 0512/0518 -RA BKN020
LFRZ,TAF LFRZ 041700Z 0418/0518 32012KT 9999 SCT030 BECMG 0420/0422 VRB04KT TEMPO 0504/0507 3000 BR BECMG 0509/0512 18010KT
LFSB,TAF LFSB 051100Z 0512/0612 26010KT 9999 FEW020 BKN050 BECMG 0516/0518 20004KT PROB40 0522/0606 4000 MIFG
LFSI,TAF LFSI 050800Z 0509/0609 18005KT 2000 BR OVC002 BECMG 0510/0512 7000 NSW OVC012 BECMG 0512/0514 BKN017
LFSL,TAF LFSL 051100Z 0512/0521 15005KT CAVOK
LFST,TAF LFST 051100Z 0512/0612 33006KT 9999 SCT030 BECMG 0516/0519 18006KT BECMG 0522/0524 2500 BR BKN002 PROB40 0600/0607 0400 FG VV/// BECMG 0607/0609 8000 NSW BKN005 BECMG 0609/0611 NSC
LFSX,TAF LFSX 041400Z 0415/0515 17007KT 9999 BKN015 TEMPO 0415/0506 3000 SHRA BKN010 BKN020TCU BECMG 0415/0417 BKN007
LFTH,TAF LFTH 041400Z 0415/0515 29015G25KT CAVOK BECMG 0421/0423 35015G25KT TEMPO 0423/0503 35020G35KT BECMG 0512/0515 35010KT
LFTW,TAF LFTW 041400Z 0415/0515 31010KT CAVOK TEMPO 0504/0508 35015G25KT BECMG 0508/0510 35020G30KT
LFVP,TAF LFVP 051100Z 0512/0521 25015KT 9999 NSC BECMG 0515/0518 24020KT
LFYR,TAF LFYR 041400Z 0415/0515 32010KT 9999 SCT020 BKN030 TEMPO 0415/0417 34015G25KT BECMG 0420/0422 26005KT BECMG 0503/0505 0500 FG VV/// BECMG 0508/0510 3000 BR BKN005 BECMG 0510/0512 SCT015 SCT040
LGAD,TAF LGAD 051100Z 0512/0521 16015KT 9999 BKN020 BKN080 TEMPO 0512/0521 5000 RA PROB40 TEMPO 0515/0521 3000 TSRA FEW018CB BKN020 OVC080 TEMPO 0512/0521 16015G25KT
LGAL,TAF LGAL 051100Z 0512/0521 20010KT 9999 FEW015 BECMG 0515/0518 11010KT
LGAV,TAF LGAV 051100Z 0512/0612 19017KT 9999 FEW020 TEMPO 0512/0609 14015G25KT TEMPO 0519/0604 5000 RA FEW018TCU SCT018 BKN070 PROB40 TEMPO 0603/0612 3000 TSRA SCT010 FEW018CB BKN020 BKN070
LGBL,TAF LGBL 051100Z 0512/0521 12012KT 9999 FEW020 SCT080 BECMG 0515/0517 SCT020 BKN080 PROB40 TEMPO 0518/0521 5000 RA BKN020 BKN080
LGEL,TAF LGEL 051100Z 0512/0612 15016KT 9999 FEW020 TEMPO 0515/0609 17014G24KT TEMPO 0518/0606 5000 RA FEW018TCU SCT018 BKN070 PROB40 TEMPO 0603/0612 3000 TSRA SCT010 FEW018CB BKN020 BKN070
LGHI,TAF LGHI 051100Z 0512/0521 17012KT 9999 FEW020
LGIO,TAF LGIO 051100Z 0512/0521 15010KT 4000 SHRA SCT006 FEW018TCU BKN020 OVC070 TEMPO 0512/0521 2000 TSRA SCT004 FEW015CB BKN018 OVC070
LGIR,TAF LGIR 051100Z 0512/0612 18016KT 9999 FEW020 TEMPO 0517/0610 18016G26KT PROB40 TEMPO 0605/0612 5000 RA FEW012 FEW018TCU BKN025
LGKC,TAF LGKC 051100Z 0512/0521 20016KT 9999 FEW016 SCT025 TEMPO 0515/0521 19016G26KT PROB30 TEMPO 0515/0521 5000 RA SCT014 FEW018TCU BKN025
LGKF,TAF LGKF 051100Z 0512/0521 17015G25KT 9999 SCT018 SCT080 TEMPO 0512/0518 17025G35KT TEMPO 0512/0521 5000 RA SCT010 FEW018TCU BKN070 PROB40 TEMPO 0515/0521 4000 TSRA SCT008 FEW018CB BKN025 PROB40 TEMPO 0516/0519 2000 TSRA SCT006 SCT018CB BKN020
LGKL,TAF LGKL 051100Z 0512/0521 16012KT 9999 BKN020 BKN080 TEMPO 0512/0521 5000 RA PROB40 TEMPO 0515/0521 3000 TSRA FEW018CB BKN020 OVC080
LGKO,TAF LGKO 051100Z 0512/0612 15017KT 9999 FEW018 BECMG 0517/0519 15016G26KT PROB40 TEMPO 0602/0612 5000 RA FEW012 FEW018TCU BKN025
LGKP,TAF LGKP 051100Z 0512/0521 19015KT 9999 SCT018 TEMPO 0515/0521 19015G25KT
LGKR,TAF LGKR 051100Z 0512/0612 16015KT 9999 SCT020TCU BKN080 TEMPO 0512/0517 16015G25KT BECMG 0517/0519 15015KT BECMG 0606/0608 15008KT TEMPO 0512/0606 5000 RA SCT018TCU BKN018 BKN070 TEMPO 0512/0602 2000 TSRA SCT016CB BKN018 OVC070
LGKV,TAF LGKV 051100Z 0512/0612 08012KT 9999 FEW010 SCT025 BECMG 0516/0518 FEW008 SCT020 BKN080 TEMPO 0518/0612 4000 RA SCT008 BKN025 OVC070 PROB40 TEMPO 0600/0612 2000 TSRA SCT006 FEW015CB BKN020 OVC070
LGLM,TAF LGLM 051100Z 0512/0521 17015KT 9999 FEW020 TEMPO 0512/0521 18015G25KT
LGLR,TAF LGLR 051100Z 0512/0521 11010KT 9999 FEW020 SCT080 BECMG 0515/0517 SCT020 BKN080 PROB40 TEMPO 0518/0521 5000 RA BKN020 BKN080
LGMK,TAF LGMK 051100Z 0512/0521 15012KT 9999 FEW015
LGMT,TAF LGMT 051100Z 0512/0521 18012KT 9999 FEW020
LGPZ,TAF LGPZ 051100Z 0512/0612 15017KT 9999 SCT020 TEMPO 0512/0518 15018G32KT BECMG 0521/0523 14008KT BECMG 0608/0610 VRB05KT PROB40 TEMPO 0512/0606 5000 RA FEW018TCU SCT020 BKN070 PROB40 TEMPO 0512/0603 2000 TSRA SCT010 SCT018CB BKN020 OVC070
LGRP,TAF LGRP 051100Z 0512/0612 12010KT 9999 FEW012 SCT020 PROB40 TEMPO 0608/0612 5000 RA FEW012 FEW018TCU BKN025
LGRX,TAF LGRX 051100Z 0512/0521 17015KT 9999 BKN020 BKN080 TEMPO 0512/0521 5000 RA PROB40 TEMPO 0515/0521 3000 TSRA FEW018CB BKN020 OVC080 TEMPO 0512/0521 17015G25KT
LGSA,TAF LGSA 051100Z 0512/0612 VRB05KT 9999 FEW020 BECMG 0515/0517 13010KT TEMPO 0521/0523 14016G26KT PROB40 TEMPO 0602/0612 5000 RA FEW012 FEW018TCU BKN025 PROB30 TEMPO 0608/0611 3000 TSRA SCT010 FEW018TCU BKN025
LGSK,TAF LGSK 051100Z 0512/0521 VRB05KT 9999 FEW016 BECMG 0512/0514 15010KT TEMPO 0515/0518 15014G24KT
LGSM,TAF LGSM 051100Z 0512/0521 17010KT 9999 FEW020
LGSR,TAF LGSR 051100Z 0512/0612 15012KT 9999 FEW018 TEMPO 0512/0515 15012G22KT BECMG 0518/0520 27010KT BECMG 0608/0610 02015KT PROB40 TEMPO 0606/0612 5000 RA FEW012 FEW018TCU BKN025
LGST,TAF LGST 051100Z 0512/0521 18017KT 9999 FEW018 TEMPO 0512/0521 19018G28KT
LGSY,TAF LGSY 051100Z 0512/0521 16015KT 9999 FEW020 TEMPO 0512/0521 17015G25KT
LGTG,TAF LGTG 051100Z 0512/0521 19012KT 9999 FEW020 SCT070 TEMPO 0512/0521 19012G22KT BECMG 0515/0517 SCT020 BKN070 PROB40 TEMPO 0519/0521 5000 RA BKN020 BKN070
LGTL,TAF LGTL 051100Z 0512/0521 19012KT 9999 SCT020 TEMPO 0515/0521 19012G22KT
LGTS,TAF LGTS 051100Z 0512/0612 14015KT 9999 FEW025 BECMG 0514/0516 FEW010 SCT025 TEMPO 0516/0612 4000 SHRA SCT008 FEW019TCU BKN020 PROB40 TEMPO 0519/0612 2000 TSRA SCT006 FEW015CB BKN018
LGZA,TAF LGZA 051100Z 0512/0521 18018KT 9999 SCT018 SCT080 TEMPO 0512/0518 17020G32KT TEMPO 0512/0521 5000 RA SCT010 FEW018TCU BKN030 PROB40 TEMPO 0514/0521 4000 TSRA SCT008 FEW018CB BKN020 PROB40 TEMPO 0516/0521 2000 TSRA SCT006 SCT018CB BKN020
LHBP,TAF LHBP 051115Z 0512/0612 32012KT 9999 FEW010 OVC050 TEMPO 0512/0515 -RA TEMPO 0515/0609 4000 RA BKN004 OVC025 BECMG 0516/0519 35007KT
LHDC,TAF LHDC 051115Z 0512/0521 10007KT CAVOK PROB40 TEMPO 0512/0519 6000 -RA SCT010 OVC030 BECMG 0515/0518 01008KT
LHKE,TAF LHKE 051115Z 0512/0521 32010KT 9999 SCT015 OVC040 TEMPO 0513/0521 32010G20KT 5000 RA SHRA BR BKN010 OVC020
LHPA,TAF LHPA 051115Z 0512/0612 34014KT 9999 SCT030 BKN080 TEMPO 0512/0524 34016G27KT 9999 BKN030 OVC080 PROB40 TEMPO 0603/0606 8000 -RA BKN030 BKN080
LHPP,TAF LHPP 051115Z 0512/0521 33014G24KT CAVOK PROB30 TEMPO 0512/0519 6000 -RA SCT012 OVC045 BECMG 0515/0518 34009KT
LHPR,TAF LHPR 051115Z 0512/0521 30015G25KT 9999 BKN025
LHSM,TAF LHSM 051115Z 0512/0521 36017G27KT CAVOK TEMPO 0512/0515 36020G32KT
LHSN,TAF AMD LHSN 051120Z 0511/0518 33005KT 5000 BR BKN005 OVC020 TEMPO 0515/0518 2500 -RA -RADZ BR BKN003 OVC015 BECMG 0516/0518 02007KT
LIBA,TAF LIBA 051100Z 0512/0521 30017KT 9999 SCT040 BKN060 TEMPO 0512/0514 6000 RA SCT030 BKN050 TEMPO 0515/0519 33017G27KT 4000 TSRA FEW025CB BKN040
LIBC,TAF LIBC 051100Z 0512/0612 22012KT 9999 BKN030 PROB40 TEMPO 0512/0518 TSRA BECMG 0518/0520 01015KT
LIBD,TAF LIBD 051100Z 0512/0612 29012KT 9999 SCT030 TEMPO 0512/0606 4000 TSRA
LIBF,TAF LIBF 051100Z 0512/0612 29018G28KT 9999 BKN040 TEMPO 0512/0606 4000 SHRA
LIBG,TAF LIBG 051100Z 0512/0521 VRB05KT 9999 SCT040 PROB40 TEMPO 0512/0521 TSRA
LIBP,TAF LIBP 051100Z 0512/0612 36016KT 9999 BKN015 TEMPO 0512/0606 4000 SHRA
LIBR,TAF LIBR 051100Z 0512/0612 15010KT 9999 SCT015 BKN040 TEMPO 0512/0606 4000 TSRA BECMG 0518/0520 35013KT
LIBV,TAF LIBV 051100Z 0512/0521 21010KT 7000 SCT010 BKN030 TEMPO 0512/0518 5000 RA BR BKN008 FEW015CB BECMG 0513/0515 28010KT
LICA,TAF LICA 051100Z 0512/0612 26013KT 9999 SCT025 TEMPO 0512/0521 4000 TSRA BECMG 0518/0520 07007KT BECMG 0607/0609 26010KT
LICB,TAF LICB 051100Z 0512/0612 24014KT 9999 SCT030 TEMPO 0512/0517 24018G28KT SHRA BECMG 0518/0520 VRB06KT
LICC,TAF LICC 051100Z 0512/0612 26016KT 9999 SCT050 TEMPO 0512/0517 26018G28KT SHRA
LICD,TAF LICD 051100Z 0512/0612 33023G35KT 9999 SCT040 TEMPO 0512/0521 SHRA
LICG,TAF LICG 051100Z 0512/0521 26025G35KT 9999 SCT020 TEMPO 0512/0515 4000 TSRA
LICJ,TAF LICJ 051100Z 0512/0612 24018KT 9999 SCT025 TEMPO 0512/0521 TSRA BECMG 0515/0517 32016G26KT TEMPO 0521/0606 SHRA
LICR,TAF LICR 051100Z 0512/0612 01016KT 9999 SCT040 TEMPO 0512/0521 4000 TSRA TEMPO 0521/0606 SHRA
LICT,TAF LICT 051100Z 0512/0521 30016KT 9999 FEW020 SCT025 TEMPO 0512/0515 5000 TSRA FEW015CB BKN020 TEMPO 0516/0521 30018G33KT TEMPO 0519/0521 5000 TSRA FEW015CB BKN020
LICZ,TAF LICZ 051100Z 0512/0612 27012KT 9999 FEW025 BKN080 PROB30 TEMPO 0512/0518 SHRA FEW025CB SCT040 PROB40 TEMPO 0518/0606 30014KT 5000 SHRA FEW025CB SCT040
LIEA,TAF LIEA 051100Z 0512/0612 01018KT 9999 SCT025 TEMPO 0512/0518 01018G28KT BECMG 0602/0604 VRB06KT
LIED,TAF LIED 051100Z 0512/0521 32015KT 9999 SCT025 TEMPO 0512/0517 32017G27KT
LIEE,TAF LIEE 051100Z 0512/0612 35013KT 9999 SCT025 TEMPO 0512/0516 32016G28KT
LIEO,TAF LIEO 051100Z 0512/0612 02016G28KT 9999 SCT025 BECMG 0600/0602 25010KT
LIMC,TAF LIMC 051100Z 0512/0618 35010KT CAVOK BECMG 0606/0608 VRB05KT
LIME,TAF LIME 051100Z 0512/0612 VRB05KT CAVOK
LIMF,TAF LIMF 051100Z 0512/0612 VRB05KT CAVOK
LIMG,TAF LIMG 051100Z 0512/0612 34007KT CAVOK
LIMJ,TAF LIMJ 051100Z 0512/0612 03012KT CAVOK BECMG 0609/0611 VRB05KT
LIML,TAF LIML 051100Z 0512/0612 23007KT CAVOK
LIMP,TAF LIMP 051100Z 0512/0612 28007KT CAVOK
LIMW,TAF LIMW 051100Z 0512/0521 26015KT CAVOK
LIMZ,TAF LIMZ 051100Z 0512/0612 VRB05KT CAVOK
LIPA,TAF LIPA 050800Z 0509/0518 25004KT 9999 NSC
LIPB,TAF LIPB 051100Z 0512/0612 VRB05KT CAVOK
LIPC,TAF LIPC 050800Z 0509/0518 26008KT 9999 SCT030 BKN050 BECMG 0510/0512 04015G25KT
LIPE,TAF LIPE 051100Z 0512/0612 VRB06KT 9999 SCT060
LIPH,TAF LIPH 051100Z 0512/0612 VRB05KT CAVOK
LIPK,TAF LIPK 051100Z 0512/0612 05010KT 9999 SCT030 BECMG 0516/0518 32005KT
LIPL,TAF LIPL 050800Z 0509/0518 30005KT CAVOK
LIPO,TAF LIPO 051100Z 0512/0612 30007KT CAVOK
LIPQ,TAF LIPQ 051100Z 0512/0612 VRB05KT 9999 SCT060
LIPR,TAF LIPR 051100Z 0512/0612 03015KT 9999 SCT050
LIPS,TAF LIPS 050800Z 0509/0518 VRB03KT 9999 NSC
LIPX,TAF LIPX 051100Z 0512/0612 VRB05KT CAVOK BECMG 0517/0519 35010KT BECMG 0522/0524 VRB05KT
LIPY,TAF LIPY 051100Z 0512/0612 04018G28KT 9999 SCT050 PROB40 TEMPO 0512/0524 SHRA
LIPZ,TAF LIPZ 051100Z 0512/0618 VRB05KT CAVOK
LIRA,TAF LIRA 051100Z 0512/0612 01015KT 9999 SCT030 TEMPO 0513/0515 01015G25KT
LIRE,TAF LIRE 051100Z 0512/0521 01012KT 9999 SCT025 SCT040 BECMG 0513/0515 01015G28KT
LIRF,TAF LIRF 051100Z 0512/0618 01016KT 9999 SCT030 BECMG 0513/0515 01018G28KT BECMG 0615/0617 01013KT
LIRM,TAF LIRM 051100Z 0512/0521 35005KT 9999 SCT020 SCT045 BECMG 0512/0515 RA BKN030
LIRN,TAF LIRN 051100Z 0512/0612 03015KT 9999 SCT020 BKN050 TEMPO 0512/0517 4000 SHRA
LIRP,TAF LIRP 051100Z 0512/0612 10005KT CAVOK
LIRQ,TAF LIRQ 051100Z 0512/0612 02014KT 9999 SCT040 BECMG 0518/0520 VRB06KT BECMG 0608/0610 03012KT
LIRS,TAF LIRS 051100Z 0512/0521 02015KT 9999 SCT030 TEMPO 0513/0515 03015G25KT
LIRU,TAF LIRU 051100Z 0512/0521 02015KT 9999 SCT030 BECMG 0513/0515 02015G25KT
LIRV,TAF LIRV 051100Z 0512/0521 05015KT 9999 SCT020 BKN035 TEMPO 0512/0517 05017G27KT
LIRZ,TAF LIRZ 051100Z 0512/0612 03015KT 9999 SCT040 TEMPO 0512/0516 03016G26KT
LJCE,TAF LJCE 051100Z 0512/0521 08005KT CAVOK
LJLJ,TAF LJLJ 051100Z 0512/0612 11005KT 9999 FEW050
LJMB,TAF LJMB 051100Z 0512/0612 36008KT CAVOK PROB40 TEMPO 0512/0603 36015G25KT
LJPZ,TAF LJPZ 051100Z 0512/0521 06010KT CAVOK TEMPO 0512/0521 05015G25KT
LKCV,TAF LKCV 050500Z 0506/0606 30010KT 9999 SCT025 BKN035 TEMPO 0506/0510 7000 RA SCT015 BKN020 BECMG 0515/0517 32005KT SCT035 TEMPO 0522/0606 4000 BR SCT010 PROB30 TEMPO 0601/0606 0800 FG VV002
LKKB,TAF LKKB 050500Z 0506/0606 26007KT 9999 BKN035 PROB40 TEMPO 0506/0510 8000 RA BKN025 BECMG 0514/0516 VRB02KT CAVOK TEMPO 0522/0606 5000 BR BKN010 PROB30 TEMPO 0600/0606 0800 FG VV002
LKKV,TAF LKKV 051100Z 0512/0618 30004KT 9999 SCT019 TEMPO 0512/0516 6000 SHRA BKN010 SCT015TCU BECMG 0516/0518 VRB02KT 5000 BR SCT005 BECMG 0600/0602 2500 BR OVC003 TEMPO 0602/0607 1200 MIFG VV002 PROB30 TEMPO 0602/0607 0500 FG VV001 BECMG 0612/0614 15004KT CAVOK
LKMT,TAF LKMT 051100Z 0512/0618 01008KT 9999 OVC015 TEMPO 0512/0606 4000 -RA OVC012 PROB30 TEMPO 0512/0518 2500 RA BR OVC006 BECMG 0617/0618 VRB02KT
LKNA,TAF LKNA 050500Z 0506/0606 29010KT 9999 BKN030 TEMPO 0506/0515 31014KT BKN017 PROB40 0506/0512 BKN012 BECMG 0515/0517 33007KT CAVOK TEMPO 0522/0606 3000 MIFG BR SCT005 PROB40 0523/0606 0400 FG VV001
LKPD,TAF LKPD 050500Z 0506/0606 28008KT 9999 SCT035 TEMPO 0506/0514 SCT024 BKN035 PROB30 TEMPO 0506/0510 7000 RA SCT010 BKN020 BECMG 0517/0519 VRB02KT TEMPO 0522/0606 3000 MIFG BR SCT005 PROB40 0602/0606 0800 FG VV002
LKPR,TAF LKPR 051100Z 0512/0618 30007KT 9999 SCT030 TEMPO 0512/0515 -SHRA BKN017 BECMG 0521/0523 3000 MIFG NSC TEMPO 0523/0609 1500 BCFG BKN003 PROB30 TEMPO 0604/0608 0500 FG VV002 BECMG 0609/0611 12006KT 9999 SCT030 BECMG 0611/0613 CAVOK
LKTB,TAF LKTB 051100Z 0512/0618 33012KT 9999 SCT025 BECMG 0518/0520 32006KT CAVOK BECMG 0617/0618 9999 BKN027
LLBG,TAF LLBG 051100Z 0512/0612 33014KT CAVOK BECMG 0515/0517 VRB04KT BECMG 0520/0522 15004KT 9999 SCT020 BECMG 0606/0608 30008KT FEW025 TX28/0512Z TN18/0604Z
LLER,TAF LLER 051101Z 0512/0612 01018KT CAVOK BECMG 0519/0521 36010KT BECMG 0606/0608 35016KT TX28/0513Z TN17/0604Z
LLHA,TAF LLHA 051100Z 0512/0612 34015KT CAVOK BECMG 0515/0517 36006KT BECMG 0520/0522 VRB04KT BECMG 0606/0608 33008KT TX27/0512Z TN16/0604Z
LLHZ,TAF LLHZ 051100Z 0512/0612 33015KT CAVOK BECMG 0515/0517 VRB03KT BECMG 0520/0522 9999 SCT020 BECMG 0606/0608 29008KT FEW020 TX26/0512Z TN17/0604Z
LLIB,TAF LLIB 051100Z 0512/0612 VRB04KT CAVOK BECMG 0513/0515 33012KT BECMG 0516/0518 VRB04KT BECMG 0606/0608 35010KT TX27/0512Z TN13/0604Z
LMML,TAF LMML 051100Z 0512/0612 28022G32KT 9999 SCT020 TEMPO 0512/0606 7000 SHRA BKN018TCU PROB30 0512/0519 3000 TSRAGS BKN014CB BECMG 0516/0519 31023G35KT
LOAN,TAF LOAN 051125Z 0512/0521 30010G20KT 9999 FEW025 SCT030 TEMPO 0512/0516 32018G28KT SCT030 BKN040
LOAV,TAF LOAV 051125Z 0512/0521 30010G20KT 9999 SCT025 TEMPO 0512/0516 32018G28KT SCT025 BKN035
LOWG,TAF LOWG 051115Z 0512/0612 VRB05KT 9999 FEW050 TX13/0612Z TN04/0606Z TEMPO 0512/0517 35015KT
LOWI,TAF LOWI 051115Z 0512/0612 09005KT 9999 FEW010 SCT020 BKN050 TX10/0612Z TN02/0607Z TEMPO 0512/0524 27005KT -SHRA PROB30 TEMPO 0522/0602 FEW005 BKN010 TEMPO 0602/0608 VRB01KT 1000 BCFG SCT002 PROB30 TEMPO 0602/0608 BKN005
LOWK,TAF LOWK 051115Z 0512/0612 VRB04KT 9999 FEW040 TX11/0514Z TN02/0606Z PROB30 TEMPO 0514/0518 01010KT PROB30 TEMPO 0604/0608 BKN007
LOWL,TAF LOWL 051115Z 0512/0612 27010KT 9999 FEW015 SCT020 BKN060 TX09/0514Z TN03/0606Z PROB40 TEMPO 0512/0517 -SHRA BECMG 0600/0603 VRB02KT 1200 BCFG TEMPO 0603/0606 0300 FG VV001 BECMG 0606/0608 09007KT 1500 BCFG OVC002 BECMG 0608/0611 8000 NSW BKN010 BECMG 0611/0612 SCT010
LOWS,TAF LOWS 051115Z 0512/0612 15005KT 9999 SCT030 BKN050 TX09/0612Z TN04/0606Z TEMPO 0512/0524 -RA BKN025 PROB30 TEMPO 0512/0515 32006KT RA PROB30 TEMPO 0603/0607 VRB02KT 1200 BCFG SCT002 BKN040 BECMG 0609/0611 35006KT FEW035
LOWW,TAF LOWW 051115Z 0512/0618 31013KT 9999 SCT040 TX11/0514Z TN05/0606Z TEMPO 0512/0516 32020G30KT BECMG 0612/0614 04005KT BECMG 0614/0616 VRB03KT
LOXZ,TAF LOXZ 051115Z 0512/0521 VRB03KT 9999 SCT050 SCT170 PROB30 TEMPO 0512/0517 34012KT
LPAZ,TAF LPAZ 051100Z 0512/0618 28012KT 9999 SCT008 BKN030 TEMPO 0512/0517 3000 RADZ BR BKN003 BECMG 0512/0515 01012KT BECMG 0600/0603 03008KT BECMG 0606/0608 VRB05KT
LPBJ,TAF LPBJ 051101Z 0512/0612 VRB02KT CAVOK PROB40 0604/0609 0200 FG BKN002
LPCS,TAF LPCS 051100Z 0512/0521 VRB05KT CAVOK BECMG 0514/0516 34008KT
LPFR,TAF LPFR 051100Z 0512/0612 17007KT CAVOK BECMG 0514/0517 21007KT BECMG 0518/0520 30007KT BECMG 0522/0524 VRB02KT BECMG 0610/0612 21007KT
LPHR,TAF LPHR 051100Z 0512/0521 35007KT 9999 SCT015 BKN035 TEMPO 0512/0521 SCT020
LPLA,TAF LPLA 050500Z 0506/0606 31010KT 9999 FEW015 SCT025 PROB40 TEMPO 0506/0510 4000 -RADZ SCT007 BKN014 TEMPO 0603/0606 4000 -RADZ SCT007 BKN014
LPMA,TAF LPMA 051100Z 0512/0612 02010KT 9999 SCT015 SCT030 PROB40 TEMPO 0512/0515 6000 -RA SCT006 BKN013
LPMR,TAF LPMR 051101Z 0512/0612 VRB02KT CAVOK BECMG 0522/0601 7000 SCT007 PROB40 0601/0607 0200 FG BKN002 BECMG 0608/0610 22008KT TEMPO 0610/0612 4000 -RADZ BR SCT006 BKN009
LPMT,TAF LPMT 051101Z 0512/0612 VRB02KT CAVOK TEMPO 0518/0522 34008KT PROB40 0603/0609 0800 FG BKN002 BECMG 0609/0611 SCT020
LPOV,TAF LPOV 051100Z 0512/0612 VRB02KT CAVOK BECMG 0603/0606 18010KT SCT010 SCT020 TEMPO 0605/0610 2000 RADZ BR SCT004 BKN007
LPPD,TAF LPPD 051100Z 0512/0612 02012KT 9999 SCT015 BKN030 PROB40 TEMPO 0512/0515 5000 RADZ BR SCT004 BKN008 BECMG 0602/0605 VRB05KT
LPPR,TAF LPPR 051100Z 0512/0612 10005KT CAVOK BECMG 0512/0514 26007KT BECMG 0516/0519 VRB02KT 9999 SCT030 BECMG 0522/0524 10005KT SCT012 BKN030 BECMG 0602/0604 17008KT SCT008 BKN012 TEMPO 0604/0610 3000 RADZ BR SCT003 BKN005 BECMG 0610/0612 SCT030
LPPS,TAF LPPS 051100Z 0512/0618 02010KT 9999 SCT015 SCT030 PROB40 TEMPO 0512/0515 5000 -RADZ BR SCT006 BKN012
LPPT,TAF LPPT 051100Z 0512/0618 08005KT CAVOK BECMG 0516/0518 33007KT BECMG 0603/0606 VRB02KT 9999 SCT002 BKN005 PROB30 TEMPO 0605/0609 1200 PRFG BKN002 BECMG 0609/0611 BKN018 PROB30 TEMPO 0611/0614 5000 RADZ BR FEW008 BKN012 BECMG 0616/0618 SCT006 BKN012
LQBK,TAF LQBK 051100Z 0512/0612 29006KT 9999 -RA SCT013 BKN035 TX10/0612Z TN05/0606Z TEMPO 0512/0610 35012KT 4000 RA BKN010 OVC025
LQMO,TAF LQMO 051100Z 0512/0612 35008KT 9999 SCT040 TX18/0612Z TN07/0606Z TEMPO 0512/0515 RA TEMPO 0512/0612 02015G25KT PROB40 TEMPO 0514/0605 02020G35KT
LQSA,TAF LQSA 051100Z 0512/0612 27012KT 7000 -RA SCT015 BKN030 TX11/0612Z TN06/0604Z TEMPO 0512/0518 4000 RA BKN008 BKN020 BECMG 0514/0516 33006KT PROB40 0521/0608 2500 BR BKN008 BKN020 BECMG 0608/0610 NSW
LQTZ,TAF COR LQTZ 051100Z 0512/0612 29007KT 6000 -RA SCT010 BKN025 TX09/0612Z TN05/0606Z TEMPO 0512/0608 2000 RA BR BKN005 OVC020
LRAR,TAF LRAR 051100Z 0512/0521 VRB04KT CAVOK BECMG 0518/0520 3000 BR
LRBC,TAF LRBC 051100Z 0512/0521 17009KT 5000 -DZ BR BKN005 BKN010 BECMG 0512/0514 8000 NSW BKN015 PROB40 TEMPO 0514/0518 BKN020 BECMG 0518/0520 5000 -DZ BR BKN010
LRBO,TAF LRBO 051100Z 0512/0612 02010KT 9999 SCT010 OVC030 TEMPO 0513/0516 SCT030 OVC050
LRBS,TAF LRBS 051100Z 0512/0612 05012KT CAVOK BECMG 0520/0522 5000 BR BKN010 TEMPO 0600/0606 3000 BR OVC005 BECMG 0606/0608 CAVOK
LRCK,TAF LRCK 051100Z 0512/0612 11015KT 9999 SCT010 BKN025 TEMPO 0512/0515 BKN010 BKN025 BECMG 0515/0518 3000 BR BKN010 PROB40 TEMPO 0518/0523 10005KT TEMPO 0523/0606 0800 FG BKN002 BECMG 0607/0609 9999 NSW BKN015 PROB40 TEMPO 0609/0612 BKN025
LRCL,TAF LRCL 051100Z 0512/0521 06006KT CAVOK
LRCT,TAF LRCT 051100Z 0512/0612 04006KT 9999 SCT070 OVC120 BECMG 0518/0520 BKN200 PROB30 TEMPO 0602/0606 5000 BR
LRCV,TAF LRCV 051100Z 0512/0521 08008KT CAVOK
LRFT,TAF LRFT 051100Z 0512/0612 13020KT 9999 BKN150 BECMG 0520/0522 12008KT FEW150 PROB30 TEMPO 0600/0606 5000 BR SCT020 BKN050
LRIA,TAF LRIA 051100Z 0512/0521 14014KT 9999 SCT020 SCT040 TEMPO 0518/0521 BKN015 SCT030
LROD,TAF LROD 051100Z 0512/0521 VRB04KT CAVOK BECMG 0519/0521 5000 BR
LROP,TAF LROP 051100Z 0512/0612 05012KT CAVOK BECMG 0520/0522 5000 BR BKN010 TEMPO 0600/0606 3000 BR OVC005 BECMG 0606/0608 CAVOK
LRSB,TAF LRSB 051100Z 0512/0612 12006KT 9999 SCT070 TEMPO 0602/0606 3000 BR
LRSM,TAF LRSM 051100Z 0512/0521 10006KT CAVOK BECMG 0518/0520 3000 BR
LRSV,TAF LRSV 051100Z 0512/0521 14012KT 7000 BKN010 TEMPO 0512/0515 BKN020 BECMG 0515/0517 3000 BR BKN005 PROB40 TEMPO 0519/0521 5000 -RA BKN015 SCT030
LRTC,TAF LRTC 051100Z 0512/0521 11014KT 9999 FEW015 BKN030 PROB40 TEMPO 0512/0514 11015G25KT BECMG 0516/0518 5000 BR BKN015 TEMPO 0519/0521 3000 BR BKN010
LRTM,TAF LRTM 051100Z 0512/0521 08007KT CAVOK
LRTR,TAF LRTR 051100Z 0512/0612 VRB04KT CAVOK BECMG 0518/0520 3000 BR BECMG 0521/0523 1500 BR BKN005 TEMPO 0600/0606 0600 FG VV002 BECMG 0606/0608 3000 BKN010 BECMG 0608/0610 9999 NSW SCT025
LRTZ,TAF LRTZ 051100Z 0512/0612 11014KT 9999 SCT007 BKN200 BECMG 0515/0517 VRB03KT 4000 BR OVC005 PROB30 TEMPO 0602/0606 0300 FG VV001 BECMG 0607/0609 09012KT 9999 BKN010 OVC100
LSGC,TAF LSGC 051125Z 0512/0521 35003KT 9999 BKN014 BECMG 0512/0515 SCT017
LSGG,TAF LSGG 051125Z 0512/0618 VRB02KT 9999 FEW030 SCT050 TX12/0514Z TN00/0606Z TX12/0614Z PROB40 0512/0518 04007KT PROB40 0601/0609 BKN010 TEMPO 0615/0618 23007KT
LSGS,TAF LSGS 051125Z 0512/0521 VRB02KT 9999 FEW030 SCT090 PROB30 TEMPO 0514/0516 26010KT
LSZA,TAF LSZA 051125Z 0512/0521 03006KT CAVOK PROB40 TEMPO 0512/0516 01012KT
LSZB,TAF LSZB 051125Z 0512/0521 14004KT 9999 SCT018 BKN040 BECMG 0515/0518 CAVOK
LSZG,TAF LSZG 051125Z 0512/0521 29005KT 9999 FEW028 BKN040 BECMG 0515/0518 CAVOK BECMG 0519/0521 4000 MIFG
LSZH,TAF LSZH 051125Z 0512/0618 24005KT 9999 FEW015 SCT030 TX10/0514Z TN01/0603Z TX15/0614Z BECMG 0518/0521 CAVOK BECMG 0521/0523 4000 MIFG NSC BECMG 0523/0602 1500 BCFG BKN002 PROB30 TEMPO 0602/0605 0600 PRFG BECMG 0607/0610 3000 BR BKN005 BECMG 0610/0612 8000 FEW010 BECMG 0612/0615 CAVOK
LSZL,TAF LSZL 051125Z 0512/0521 17004KT CAVOK TEMPO 0512/0517 09010G20KT
LSZR,TAF LSZR 051125Z 0512/0521 25005KT 9999 BKN025 PROB30 TEMPO 0512/0515 SHRA
LSZS,TAF LSZS 051125Z 0512/0521 VRB02KT 9999 FEW007 SCT050 BKN055 TX04/0515Z BECMG 0515/0519 CAVOK
LTAB,TAF LTAB 051040Z 0512/0521 VRB02KT CAVOK
LTAC,TAF LTAC 051040Z 0512/0612 VRB02KT CAVOK
LTAD,TAF LTAD 051040Z 0512/0521 VRB02KT CAVOK
LTAE,TAF LTAE 051040Z 0512/0521 VRB02KT CAVOK
LTAF,TAF LTAF 051040Z 0512/0612 VRB02KT CAVOK PROB40 TEMPO 0517/0521 5000 BR
LTAG,TAF LTAG 051040Z 0512/0612 VRB02KT CAVOK
LTAH,TAF LTAH 051040Z 0512/0521 VRB02KT CAVOK
LTAI,TAF LTAI 051040Z 0512/0612 16010KT 9999 FEW030 BECMG 0515/0518 34006KT CAVOK BECMG 0606/0609 16012KT SCT030 BECMG 0610/0612 FEW020CB SCT025
LTAJ,TAF LTAJ 051040Z 0512/0612 VRB02KT 9999 FEW040 BECMG 0514/0516 CAVOK
LTAL,TAF LTAL 051040Z 0512/0521 VRB02KT CAVOK
LTAN,TAF LTAN 051040Z 0512/0521 VRB02KT CAVOK
LTAO,TAF LTAO 051040Z 0512/0521 VRB02KT 9999 SCT040 BECMG 0515/0517 CAVOK
LTAP,TAF LTAP 051040Z 0512/0612 VRB02KT CAVOK
LTAR,TAF LTAR 051040Z 0512/0521 30012KT 9999 FEW040 SCT200 BECMG 0514/0517 VRB02KT CAVOK
LTAS,TAF LTAS 051040Z 0512/0521 VRB02KT 9999 FEW040 SCT200 BECMG 0512/0514 CAVOK
LTAT,TAF LTAT 051040Z 0512/0612 VRB02KT 9999 FEW040 BECMG 0514/0516 CAVOK BECMG 0607/0609 FEW040
LTAU,TAF LTAU 051040Z 0512/0612 VRB02KT 9999 FEW040 BECMG 0513/0515 CAVOK PROB40 0515/0519 4000 BR
LTAV,TAF LTAV 051040Z 0512/0521 VRB02KT CAVOK
LTAW,TAF LTAW 051040Z 0512/0521 VRB02KT CAVOK
LTAY,TAF LTAY 051040Z 0512/0521 VRB02KT CAVOK TEMPO 0512/0516 09012KT FEW040
LTAZ,TAF LTAZ 051040Z 0512/0612 VRB02KT 9999 FEW040 BECMG 0513/0516 CAVOK
LTBA,TAF LTBA 051040Z 0512/0612 VRB02KT CAVOK
LTBD,TAF LTBD 051040Z 0512/0521 VRB02KT CAVOK TEMPO 0512/0513 09012KT FEW030 TEMPO 0513/0517 18015G25KT
LTBF,TAF LTBF 051040Z 0512/0521 VRB02KT CAVOK
LTBG,TAF LTBG 051040Z 0512/0521 VRB02KT CAVOK
LTBH,TAF LTBH 051040Z 0512/0521 VRB02KT CAVOK
LTBI,TAF LTBI 051040Z 0512/0521 VRB02KT CAVOK
LTBJ,TAF LTBJ 051040Z 0512/0612 VRB02KT CAVOK TEMPO 0512/0516 18012KT FEW030 TEMPO 0600/0604 FEW030 BECMG 0606/0610 16012KT SCT030 BKN100 TEMPO 0610/0612 -SHRA
LTBK,TAF LTBK 051040Z 0512/0521 VRB02KT CAVOK TEMPO 0512/0516 18012KT FEW030
LTBL,TAF LTBL 051040Z 0512/0521 13009KT CAVOK BECMG 0515/0517 FEW040
LTBN,TAF LTBN 051040Z 0512/0521 VRB02KT CAVOK
LTBO,TAF LTBO 051040Z 0512/0521 VRB02KT CAVOK TEMPO 0512/0516 FEW040
LTBP,TAF LTBP 051040Z 0512/0521 VRB02KT CAVOK TEMPO 0517/0521 16012KT
LTBQ,TAF LTBQ 051040Z 0512/0521 VRB02KT CAVOK
LTBR,TAF LTBR 051040Z 0512/0612 VRB02KT CAVOK PROB30 0603/0606 2500 BR BECMG 0606/0609 07012KT FEW035 BKN100
LTBS,TAF LTBS 051040Z 0512/0612 21012KT 9999 SCT030 BKN120 BECMG 0516/0518 VRB02KT BECMG 0604/0606 -SHRA BECMG 0607/0609 20014KT
LTBT,TAF LTBT 051040Z 0512/0521 VRB02KT CAVOK
LTBU,TAF LTBU 051040Z 0512/0612 VRB02KT CAVOK BECMG 0606/0609 SCT032 BKN100
LTBV,TAF LTBV 051040Z 0512/0521 18012KT 9999 FEW035 BECMG 0515/0518 VRB02KT CAVOK
LTBX,TAF LTBX 051040Z 0512/0521 VRB02KT CAVOK
LTBY,TAF LTBY 051040Z 0512/0521 VRB02KT CAVOK
LTBZ,TAF LTBZ 051040Z 0512/0521 VRB02KT CAVOK
LTCA,TAF LTCA 051040Z 0512/0521 VRB02KT 9999 FEW035 SCT100 TEMPO 0512/0515 30012KT BECMG 0515/0518 CAVOK
LTCB,TAF LTCB 051040Z 0512/0521 VRB02KT CAVOK TEMPO 0512/0516 06012KT
LTCC,TAF LTCC 051040Z 0512/0612 VRB02KT CAVOK
LTCD,TAF LTCD 051040Z 0512/0521 24013KT CAVOK
LTCE,TAF LTCE 051040Z 0512/0612 27015KT 9999 SCT040 BECMG 0514/0516 VRB02KT BECMG 0520/0522 CAVOK BECMG 0606/0608 27012KT
LTCF,TAF LTCF 051040Z 0512/0521 25015KT 9999 SCT040 BKN080 BECMG 0514/0516 VRB02KT BECMG 0519/0521 CAVOK
LTCG,TAF LTCG 051040Z 0512/0612 VRB02KT CAVOK
LTCI,TAF LTCI 051040Z 0512/0521 24008KT 9999 SCT030 SCT070
LTCJ,TAF LTCJ 051040Z 0512/0612 VRB02KT 9999 FEW040 BECMG 0514/0516 CAVOK
LTCK,TAF LTCK 051040Z 0512/0521 29009KT 9999 SCT035
LTCL,TAF LTCL 051040Z 0512/0521 VRB02KT 9999 FEW040 BECMG 0518/0520 CAVOK
LTCM,TAF LTCM 051040Z 0512/0521 12013KT CAVOK
LTCN,TAF LTCN 051040Z 0512/0521 VRB02KT 9999 FEW040 TEMPO 0515/0518 30012KT BECMG 0516/0518 CAVOK
LTCO,TAF LTCO 051040Z 0512/0521 23015KT 9999 SCT040 BKN080 BECMG 0517/0519 CAVOK BECMG 0519/0521 23005KT
LTCP,TAF LTCP 051040Z 0512/0521 VRB02KT 9999 FEW040 BECMG 0514/0516 CAVOK
LTCR,TAF LTCR 051040Z 0512/0521 VRB02KT 9999 FEW040 BECMG 0514/0517 CAVOK
LTCS,TAF LTCS 051040Z 0512/0612 VRB02KT CAVOK
LTCT,TAF LTCT 051040Z 0512/0521 VRB02KT 9999 SCT080 BKN150
LTCU,TAF LTCU 051040Z 0512/0521 VRB02KT 9999 FEW035 TEMPO 0512/0515 26012KT BECMG 0515/0518 CAVOK
LTCV,TAF LTCV 051040Z 0512/0612 VRB02KT 9999 FEW040 BECMG 0514/0517 CAVOK
LTCW,TAF LTCW 051040Z 0512/0521 20014KT 9999 SCT035 BECMG 0516/0518 05008KT
LTDA,TAF LTDA 051040Z 0512/0521 VRB02KT CAVOK
LTFA,TAF LTFA 051040Z 0512/0521 13009KT CAVOK BECMG 0515/0517 FEW040
LTFB,TAF LTFB 051040Z 0512/0521 VRB02KT CAVOK TEMPO 0512/0514 13012KT FEW030 BECMG 0518/0521 14015KT
LTFC,TAF LTFC 051040Z 0512/0612 VRB02KT CAVOK BECMG 0609/0612 FEW030
LTFD,TAF LTFD 051040Z 0512/0521 VRB02KT CAVOK
LTFE,TAF LTFE 051040Z 0512/0612 18012KT 9999 FEW035 BECMG 0515/0518 VRB02KT CAVOK BECMG 0600/0603 FEW035 SCT100
LTFG,TAF LTFG 051040Z 0512/0521 24010KT 9999 FEW030 BECMG 0515/0518 11005KT CAVOK
LTFH,TAF LTFH 051040Z 0512/0521 09007KT CAVOK
LTFJ,TAF LTFJ 051040Z 0512/0612 VRB02KT CAVOK BECMG 0608/0611 03012KT
LTFK,TAF LTFK 051040Z 0512/0521 VRB02KT CAVOK
LTFM,TAF LTFM 051040Z 0512/0618 19010KT CAVOK BECMG 0607/0610 06010KT BECMG 0611/0614 FEW032 BKN100 PROB30 TEMPO 0613/0617 -SHRA FEW018CB BKN025
LTFO,TAF LTFO 051040Z 0512/0521 03008KT 9999 SCT100 BECMG 0512/0515 CAVOK BECMG 0516/0519 17010KT
LUBM,TAF LUBM 051120Z 0512/0521 12014KT 9999 BKN025
LUKK,TAF LUKK 051120Z 0512/0612 13014KT 9999 BKN030
LWOH,TAF LWOH 050830Z 0509/0609 VRB02KT 9999 SCT020 OVC045 TEMPO 0510/0516 16010KT SCT040 OVC090 BECMG 0517/0519 RA SCT015 OVC030
LWSK,TAF LWSK 050830Z 0509/0609 VRB02KT 9999 SCT030 BKN090 TEMPO 0510/0518 15010KT BECMG 0522/0524 VRB02KT RA BKN020 OVC040
LXGB,TAF AMD LXGB 051103Z 0512/0521 22005KT 9999 FEW026 PROB30 0512/0521 10003KT
LYBE,TAF LYBE 051100Z 0512/0612 27006KT 4000 BR BKN004 BKN030 TX11/0512Z TN09/0605Z TEMPO 0512/0515 1500 -DZ BECMG 0521/0523 2000 BKN002 BKN027 BECMG 0608/0610 5000 BKN005 BKN030
LYBT,TAF LYBT 051100Z 0512/0612 26005KT 5000 BR BKN006 BKN030 TX12/0612Z TN09/0606Z TEMPO 0512/0515 2500 -DZ BKN003 BKN027 BECMG 0521/0523 2000 BKN003 BKN025 BECMG 0609/0611 6000 NSW BKN008 BKN035
LYKV,TAF LYKV 051100Z 0512/0612 28006KT 7000 SCT015 BKN040 TX14/0512Z TN09/0606Z BECMG 0513/0515 BKN012 BKN030 TEMPO 0600/0608 3000 -RA BR BKN006 BKN025
LYNI,TAF LYNI 051100Z 0512/0612 22005KT 9999 SCT040 TX19/0512Z TN09/0605Z BECMG 0516/0518 32010KT BKN008 BKN030 TEMPO 0517/0519 BKN003 BKN027 TEMPO 0600/0608 5000 -RA BR BKN004 BKN027
LYPG,TAF LYPG 051100Z 0512/0612 14009KT 9999 FEW020 SCT030 BKN070 TX18/0513Z TN12/0605Z TEMPO 0512/0521 5000 RA PROB40 TEMPO 0512/0515 3000 SHRA FEW010 SCT030TCU SCT040 BECMG 0602/0604 02015KT
LYTV,TAF LYTV 051100Z 0512/0612 15009KT 9999 FEW013 SCT033 OVC070 TX18/0513Z TN12/0605Z TEMPO 0512/0520 4000 RA PROB30 TEMPO 0514/0518 16015G25KT 3000 TSRA FEW010 SCT025CB BKN030 BECMG 0520/0522 03012KT
LYVR,TAF LYVR 051100Z 0512/0612 30008KT 9999 SCT006 BKN033 TX16/0512Z TN09/0605Z BECMG 0513/0515 5000 BR BKN006 BKN030 TEMPO 0523/0608 2000 BKN003 BKN025
LZIB,TAF LZIB 051115Z 0512/0612 33013KT 9999 BKN025 TEMPO 0512/0515 32015G25KT BECMG 0602/0604 32007KT CAVOK TEMPO 0603/0608 VRB02KT
LZKZ,TAF LZKZ 051115Z 0512/0612 02015KT 9999 -RA FEW011 BKN015 OVC040 TEMPO 0512/0515 02007KT 2500 RA BR BKN008 OVC012 BECMG 0520/0522 CAVOK PROB40 TEMPO 0600/0612 01015G25KT
LZMC,TAF LZMC 051030Z 0512/0521 34008KT 9999 SCT015 BKN030 TEMPO 0512/0521 35016KT
LZPP,TAF LZPP 051115Z 0512/0521 33015KT 9999 FEW021 BKN026 BECMG 0519/0521 CAVOK
LZPW,TAF LZPW 051030Z 0512/0521 02010KT 7000 -RA SCT007 OVC025
LZSL,TAF LZSL 051030Z 0512/0518 35010KT 9999 FEW015 BKN050 TEMPO 0512/0518 7000 -RA SCT025 OVC040
LZTT,TAF LZTT 051115Z 0512/0612 26011KT 9999 -RA SCT007 OVC017 TEMPO 0512/0516 09005KT RA BKN007 OVC015 BECMG 0516/0518 VRB02KT TEMPO 0516/0610 BKN005 OVC015
LZZI,TAF LZZI 051115Z 0512/0521 04007KT 9999 OVC024 PROB40 TEMPO 0512/0521 -RA OVC014
MBGT,MBGT 050915Z 0512/0612 10008KT 9999 VCTS FEW018CB SCT020 PROB30 TEMPO 0513/0517 9000 TSRA SCT015CB BKN018
MBPV,MBPV 050915Z 0512/0612 10008KT 9999 VCTS FEW018CB SCT020 PROB30 TEMPO 0513/0517 9000 TSRA SCT015CB BKN018
MDBH,TAF MDBH 051000Z 0512/0612 00000KT 9999 FEW018CB SCT018 BKN300 TEMPO 0513/0518 7000 -TSRA FEW012CB BKN014 BKN070 BECMG 0514/0516 13012KT
MDCY,TAF MDCY 051000Z 0512/0612 00000KT 9999 BKN014 OVC070 PROB40 0512/0518 6000 TSRA FEW012CB BKN014 OVC070 BECMG 0514/0516 04008KT
MDJB,TAF MDJB 051000Z 0512/0612 00000KT 9999 FEW016CB BKN017 PROB40 0512/0518 6000 TSRA FEW012CB BKN016 BKN070 BECMG 0512/0514 09005KT
MDLR,TAF MDLR 051000Z 0512/0612 00000KT 9999 FEW016CB BKN018 PROB40 0512/0518 5000 TSRA FEW014CB BKN016 BKN070 BECMG 0514/0516 09015KT
MDPC,TAF MDPC 051000Z 0512/0612 15012KT 9999 BKN018 BKN070 PROB30 0513/0518 8000 -TSRA FEW017CB BKN018 SCT070
MDPP,TAF MDPP 051000Z 0512/0612 00000KT 9999 FEW016 PROB30 0512/0518 7000 -TSRA FEW018CB BKN018 BKN070 BECMG 0514/0516 09010KT
MDSD,TAF MDSD 051000Z 0512/0612 05006KT 9999 BKN014 BKN070 PROB40 0512/0518 6000 TSRA FEW012CB BKN014 OVC070 BECMG 0516/0518 12006KT
MDST,TAF MDST 051000Z 0512/0612 11005KT 9999 SCT018 SCT0070 PROB30 0515/0521 7000 -TSRA FEW016CB SCT016 BKN070
MGGT,MGGT 051100Z 0512/0612 18006KT 6000 SCT006 BKN014 TX25/0520Z TN16/0512Z BECMG 0514/0516 18008KT 9999 SCT018 TEMPO 0520/0602 18008KT 7000 TSRA SCT020TCU FEW025CB BECMG 0601/0603 VRB03KT BKN016 PORB30 TEMPO 0606/0612 5000 BR OVC014
MGMM,MGMM 051100Z 0512/0612 00000KT CAVOK TX32/0520Z TN21/0512Z BECMG 0514/0516 09008KT SCT018 TEMPO 0521/0524 8000 TSRA SCT020TCU FEW025CB BECMG 0602/0604 00000KT CAVOK
MGPB,MGPB 051100Z 0512/0612 00000KT 9999 FEW016 TX30/0420Z TN21/0512Z BECMG 0514/0516 05008KT SCT018 PROB30 TEMPO 0520/0524 8000 VCTSRA FEW025CB BECMG 0601/0603 00000KT FEW016
MGSJ,MGSJ 051100Z 0512/0612 00000KT 9999 FEW016 BKN080 TX30/0520Z TN21/0512Z BECMG 0514/0516 18008KT FEW018 TEMPO 0520/0604 8000 TSRA SCT020TCU FEW025CB BECMG 0600/0602 00000KT SCT016 SCT080 BECMG 0608/0610 FEW016
MHLC,TAF MHLC 051010Z 0512/0612 VRB03KT 9999 FEW024 BKN070 TX31/0519Z TN22/0612Z BECMG 0517/0519 03007KT SCT026TCU TEMPO 0522/0601 8000 VCSH SCT026TCU FEW028CB BECMG 0608/0610 FEW024
MHLM,TAF COR MHLM 051010Z 0512/0612 VRB04KT 9999 FEW030 BKN070 TX33/0519Z TN23/0612Z BECMG 0521/0523 05012KT SCT032TCU PROB30 TEMPO 0601/0606 8000 VCSH SCT032TCU SCT080 BECMG 0606/0608 9999 NSW SCT026
MHPR,TAF COR MHPR 051100Z 0512/0612 VRB03KT 9999 SCT048 TX31/0520Z TN21/0610Z BECMG 0518/0520 18012KT SCT048TCU FEW050CB BECMG 0600/0602 VRB05KT SCT046
MHRO,TAF MHRO 051010Z 0512/0612 09014KT 9999 FEW025 TX31/0519Z TN25/0611Z
MHTG,TAF MHTG 051010Z 0512/0612 VRB03KT 9999 SCT028 TX27/0519Z TN18/0612Z BECMG 0517/0519 03005KT SCT032TCU PROB30 TEMPO 0521/0601 8000 VCSH SCT032TCU FEW034CB BECMG 0610/0612 BKN026
MKJP,TAF MKJP 051115Z 0512/0612 36010KT 9999 FEW022 BECMG 0515/0517 18010KT PROB40 TEMPO 0517/0522 SHRA FEW020 FEW022CB SCT034 BECMG 0522/0524 36008KT
MKJS,TAF MKJS 051115Z 0512/0612 15004KT 9999 FEW024 BECMG 0514/0516 04014KT TEMPO 0518/0522 FEW020 FEW022CB SCT030 BECMG 0522/0524 16004KT
MMAA,TAF MMAA 051148Z 0512/0618 03005KT 5SM HZ SCT015 TX30/0518Z TN23/0512Z FM051600 23010KT P6SM SKC FM060300 03005KT 5SM HZ SCT015 FM061600 23010KT P6SM SCT015
MMAN,TAF AMD MMAN 051009Z 0510/0606 36010G20KT P6SM BKN040 FM051300 36010KT P6SM BKN030 FM060100 12005KT P6SM SKC
MMAS,TAF MMAS 050452Z 0506/0606 00000KT 6SM HZ SKC FM052000 24010KT P6SM SCT030 FM060400 24005KT P6SM SKC
MMBT,TAF MMBT 050444Z 0506/0606 00000KT 6SM HZ BKN030 FM051000 00000KT 6SM HZ SCT030 FM052000 25010KT 6SM HZ BKN030 TEMPO 0522/0602 6SM -RA BKN020CB
MMCB,TAF MMCB 050444Z 0506/0606 34005KT 6SM HZ SKC FM051800 16010KT P6SM SCT030 TEMPO 0522/0602 6SM -RA BKN020CB
MMCE,TAF MMCE 050505Z 0506/0606 06005KT 6SM HZ SCT020 TEMPO 0506/0510 6SM TSRA BKN015CB BECMG 0511/0512 13015KT TEMPO 0512/0515 BKN010 FM051800 13010KT 6SM HZ SCT020 TEMPO 0600/0604 6SM TSRA BKN020CB
MMCL,TAF MMCL 050530Z 0506/0606 30005KT P6SM SKC FM052000 30010KT P6SM SKC FM060300 30005KT P6SM SKC
MMCM,TAF MMCM 050505Z 0506/0606 00000KT 5SM HZ SCT015 TEMPO 0512/0515 BKN010 FM051800 13010KT 6SM HZ SCT020 FM060300 13005KT 6SM HZ SCT015
MMCN,TAF MMCN 050455Z 0506/0606 26005KT P6SM SKC FM051800 33010KT P6SM SKC FM060400 33005KT P6SM SKC
MMCP,TAF MMCP 050505Z 0506/0606 12005KT 6SM HZ BKN050 FM051000 00000KT 6SM HZ SCT015 TEMPO 0512/0515 3SM BR BKN010 FM051800 13010KT 6SM HZ SCT030 BKN100 TEMPO 0522/0602 5SM TSRA BKN020CB
MMCS,TAF MMCS 050513Z 0506/0606 28005KT P6SM SCT250 FM051700 24010KT P6SM SCT020 FM060200 24005KT P6SM SCT020
MMCU,TAF MMCU 050513Z 0506/0606 03005KT P6SM SKC FM051800 23008KT P6SM SKC FM060200 23005KT P6SM SCT020
MMCV,TAF MMCV 050520Z 0506/0606 16015KT 6SM HZ SCT020 FM051000 33010G20KT 6SM HZ SCT020 BKN050 TEMPO 0510/0514 BKN010 FM051800 34015KT P6SM SKC FM060300 03010KT 6SM HZ BKN030
MMCZ,TAF MMCZ 051120Z 0512/0618 12005KT P6SM SCT250 FM051600 12010KT P6SM SCT015 TEMPO 0516/0520 BKN015 FM060200 12005KT P6SM SCT015 FM061600 12010KT P6SM SCT015
MMDO,TAF MMDO 050455Z 0506/0606 22005KT 6SM HZ SKC FM051900 30010KT P6SM SKC FM060300 24005KT P6SM SKC
MMEP,TAF COR MMEP 050812Z 0506/0606 00000KT 6SM HZ SCT020 TEMPO 0510/0514 3SM BR BKN010 FM051800 33010KT P6SM SKC FM060300 33005KT 6SM HZ SKC
MMGL,TAF MMGL 051135Z 0512/0618 30005KT P6SM SKC TX28/0521Z TN08/0612Z FM051800 29010KT P6SM SKC FM060500 27005KT P6SM SKC FM061600 12005KT P6SM SCT020
MMGM,TAF MMGM 050455Z 0506/0606 26005KT P6SM SKC FM051800 34010KT P6SM SKC FM060400 33005KT P6SM SKC
MMHO,TAF MMHO 050530Z 0506/0606 35005KT P6SM SCT200 FM052100 30010KT P6SM SKC FM060300 24005KT P6SM SKC
MMIA,TAF MMIA 050452Z 0506/0606 00000KT 4SM HZ SCT020 FM051000 00000KT 3SM BR SCT010 TEMPO 0510/0514 1SM BR BKN005 FM051600 00000KT 5SM HZ SKC FM051800 25010KT 6SM HZ SCT020 FM060300 24005KT 6SM HZ SCT015
MMIO,TAF MMIO 050513Z 0506/0606 36010KT P6SM SKC FM051600 36015KT P6SM SKC FM060200 36005KT P6SM SKC
MMLM,TAF MMLM 050455Z 0506/0606 26005KT P6SM SKC FM051800 33010KT P6SM SKC FM060400 33005KT P6SM SKC
MMLO,TAF MMLO 050452Z 0506/0606 00000KT 6SM HZ SKC FM051800 23010KT P6SM SCT030 FM060200 23005KT P6SM SKC
MMLP,TAF MMLP 050530Z 0506/0606 35005KT P6SM SKC FM051800 36010KT P6SM SKC FM060300 01005KT P6SM SKC
MMLT,TAF MMLT 050455Z 0506/0606 32008KT P6SM SKC FM051800 04015KT P6SM SKC FM060300 03005KT P6SM SKC
MMMA,TAF MMMA 050520Z 0506/0606 15010KT P6SM SCT020 BKN090 FM051200 34010G20KT 6SM HZ BKN015 BKN050 TEMPO 0512/0516 6SM TSRA BKN010CB FM051800 03010G20KT 6SM -RA BKN020 BKN080 TEMPO 0518/0522 5SM RA BKN010CB FM060300 03010KT 6SM HZ SCT015 BKN050
MMMD,TAF MMMD 051120Z 0512/0618 08005KT P6SM SCT020 SCT200 TX31/0521Z TN22/0512Z FM051600 12010KT P6SM BKN020 FM052100 12012KT P6SM SCT020 PROB40 0521/0601 3SM SH RA BKN020 FM060200 13005KT P6SM SCT015 FM061600 12010KT P6SM BKN020
MMML,TAF MMML 050530Z 0506/0606 30005KT P6SM BKN200 FM051800 30010KT P6SM BKN200 FM060300 30005KT P6SM BKN200
MMMM,TAF MMMM 051135Z 0512/0618 00000KT 5SM HZ SKC TX26/0521Z TN08/0612Z TEMPO 0512/0514 3SM BR FM052000 18010KT P6SM SCT030 FM060000 19005KT P6SM BKN030 PROB40 0523/0603 5SM TSRA BKN020CB FM060300 00000KT 5SM HZ SCT020 SCT100 TEMPO 0610/0614 3SM BR SCT015 FM061600 18008KT P6SM SCT030
MMMT,TAF MMMT 050505Z 0506/0606 22005KT 6SM HZ SCT020 TEMPO 0512/0515 2SM BR BKN010 FM051800 23010KT P6SM SCT040 BECMG 0520/0521 03010KT FM060300 03005KT 6SM HZ SCT015
MMMV,TAF MMMV 050513Z 0506/0606 03015KT P6SM SCT020 FM051200 03010KT P6SM SKC FM052100 08010KT P6SM SKC FM060200 12005KT P6SM SKC
MMMX,TAF MMMX 051148Z 0512/0618 30005KT P6SM SKC TX26/0521Z TN12/0512Z FM051600 12005KT P6SM SCT020 FM052200 12010KT P6SM SCT020CB BKN080 PROB40 0522/0602 3SM TSRA BKN020CB FM060300 03005KT P6SM SCT020 BKN200 TEMPO 0610/0614 3SM BR FM061500 12005KT P6SM SKC
MMMY,TAF AMD MMMY 050828Z 0508/0612 03020G30KT P6SM OVC040 TX25/0521Z TN16/0512Z FM051600 36015KT P6SM SCT030 FM052200 12010KT P6SM SKC FM060200 12005KT P6SM SKC
MMMZ,TAF MMMZ 051139Z 0512/0618 03005KT P6SM SKC TX29/0521Z TN15/0512Z FM051800 24010KT P6SM SKC FM060300 35005KT P6SM SKC FM061600 21010KT P6SM SCT020
MMNL,TAF MMNL 050520Z 0506/0606 33010G20KT P6SM BKN050 FM051800 03010KT P6SM SCT050 BECMG 0520/0521 13012KT FM060300 13010KT P6SM SKC
MMOX,TAF MMOX 050444Z 0506/0606 00000KT 6SM HZ BKN030 FM051200 00000KT 6SM HZ SCT020 TEMPO 0512/0515 BKN015 FM051800 14010KT P6SM SCT030 TEMPO 0522/0602 BKN020
MMPA,TAF MMPA 050520Z 0506/0606 10005KT 6SM HZ SKC TEMPO 0512/0515 2SM BR BKN010 FM051800 08010KT 6SM HZ SCT020 TEMPO 0523/0603 6SM TSRA BKN020CB
MMPB,TAF MMPB 050444Z 0506/0606 08005KT 6SM HZ SCT020 FM051800 22010KT P6SM SCT030 TEMPO 0522/0602 BKN030
MMPG,TAF MMPG 050520Z 0506/0606 34010G20KT 6SM HZ SCT050 TEMPO 0506/0510 BKN030 FM051200 33010KT 6SM HZ SKC FM052100 14010KT P6SM SKC FM060300 13012KT P6SM SKC
MMPN,TAF MMPN 050452Z 0506/0606 00000KT 5SM HZ SCT020 FM051000 000000KT 4SM HZ SCT015 TEMPO 0512/0515 3SM BR BKN010 FM051800 23010KT P6SM SCT020 TEMPO 0522/0602 BKN020CB FM060300 24005KT 6SM HZ SKC
MMPQ,TAF MMPQ 050505Z 0506/0606 00000KT 5SM HZ SCT020 TEMPO 0512/0515 3SM BR BKN010 FM051800 06010KT 6SM HZ SCT030 BKN100 TEMPO 0600/0604 6SM TSRA BKN020CB
MMPR,TAF MMPR 051135Z 0512/0618 03005KT P6SM SCT020 TX30/0521Z TN20/0612Z FM051600 21010KT P6SM SCT020 FM060300 36005KT P6SM SCT020 TEMPO 0606/0608 BKN020 FM061600 21010KT P6SM SCT020
MMPS,TAF MMPS 050444Z 0506/0606 30005KT 6SM HZ SKC FM051800 25010KT P6SM SCT030 TEMPO 0522/0602 BKN030 FM060400 24005KT 6SM HZ SKC
MMQT,TAF MMQT 050452Z 0506/0606 00000KT 6SM HZ SCT020 FM051800 25010KT P6SM SCT025 FM060400 24005KT 6SM HZ SKC
MMRX,TAF MMRX 050520Z 0506/0606 16010KT 6SM HZ SKC FM051200 33010G20KT 6SM HZ BKN015 BKN050 TEMPO 0512/0515 4SM RA BKN010CB FM051600 33010G20KT 6SM HZ BKN020 OVC050 TEMPO 0518/0522 5SM RA BKN020CB FM060200 33010KT 6SM HZ SCT015
MMSD,TAF MMSD 050455Z 0506/0606 30005KT 6SM HZ SKC FM051900 35010KT P6SM SKC FM060300 34005KT P6SM SKC
MMSL,TAF MMSL 050455Z 0506/0606 30005KT 6SM HZ SKC FM051800 23010KT P6SM SKC FM060400 24005KT P6SM SKC
MMSM,TAF MMSM 051148Z 0512/0618 06005KT P6SM SCT100 TEMPO 0512/0514 3SM BR SCT010 FM051600 06005KT P6SM SCT020 FM052200 06010KT P6SM SCT020 BKN080 PROB40 0522/0602 5SM RA BKN020 FM060300 03005KT P6SM SCT020 TEMPO 0610/0614 1/2SM FG VV005 FM061500 06005KT P6SM SCT020
MMSP,TAF MMSP 051135Z 0512/0618 00000KT P6SM SKC TX26/0521Z TN08/0512Z FM051500 23005KT P6SM SKC FM052000 06008KT P6SM SKC FM060200 09005KT P6SM BKN020 FM060900 00000KT 3SM BR HZ SCT010 TEMPO 0610/0614 1/4SM FG VV002 FM061500 08005KT P6SM SCT020
MMTC,TAF MMTC 050513Z 0506/0606 06005KT P6SM SKC FM051600 06010KT P6SM SKC FM060200 06005KT P6SM SKC
MMTG,TAF AMD MMTG 051103Z 0511/0606 00000KT 1/4SM FG VV001 FM051300 30005KT 2SM BR BKN010 BKN200 FM051400 33005KT 5SM HZ SCT020 FM051500 30005KT P6SM SCT020 FM051800 33010KT P6SM SCT020 SCT250 FM052200 33010KT P6SM BKN020 BKN080 PROB40 0522/0602 3SM TSRA BKN15CB
MMTJ,TAF MMTJ 051139Z 0512/0618 30005KT 6SM HZ BKN200 TX20/0521Z TN09/0612Z FM051600 30010KT P6SM BKN200 FM060300 30005KT 6SM HZ SCT010 FM061600 30008KT P6SM SKC
MMTM,TAF MMTM 050457Z 0506/0606 11008KT P6SM SCT015 TEMPO 0510/0514 2SM BR BKN010 FM051600 35015KT P6SM SCT010 BKN030 TEMPO 0516/0520 5SM RA FM052000 35010KT P6SM BKN015 OVC080 TEMPO 0521/0601 3SM SHRA FM060100 35005KT 5SM HZ BKN010 OVC030
MMTO,TAF MMTO 051148Z 0512/0618 00000KT 1/2SM FG VV005 TX22/0521Z TN06/0512Z FM051400 00000KT 1SM BR HZ SCT005 FM051500 03005KT 5SM BR HZ SCT010 FM051600 00000KT 5SM HZ SCT020 FM052100 06010KT P6SM SCT015CB BKN080 TEMPO 0521/0601 3SM TSRA FM060200 06005KT 6SM HZ SCT015 FM060900 00000KT 3SM BR HZ SCT010 TEMPO 0610/0614 1/2SM FG VV005 FM061600 06005KT 5SM HZ SCT020
MMTP,TAF MMTP 051120Z 0512/0618 00000KT P6SM SCT020 BKN100 FM051800 24010KT P6SM SCT020 FM052300 23010KT P6SM SCT020CB BKN080 TEMPO 0523/0603 3SM TSRA FM060300 00000KT P6SM SCT020 BKN080 FM061700 24010KT P6SM SCT020
MMUN,TAF MMUN 051120Z 0512/0618 12005KT P6SM SCT015 TX30/0519Z TN21/0512Z TEMPO 0512/0514 BKN015 FM051600 12010KT P6SM SCT015 TEMPO 0516/0520 BKN015 FM060200 13005KT P6SM SCT015 FM061600 12010KT P6SM SCT015
MMVA,TAF MMVA 050505Z 0506/0606 00000KT 6SM HZ SCT015 BKN060 TEMPO 0510/0514 2SM BR SCT005 BKN010 FM051800 34010KT P6SM SCT020 BKN100 TEMPO 0602/0606 6SM TSRA BKN015CB
MMVR,TAF COR MMVR 050459Z 0506/0606 32005KT P6SM BKN012 TX27/0518Z TN21/0512Z TEMPO 0510/0514 2SM BR BKN008 FM051600 34012KT P6SM SCT015 FM060200 06005KT 6SM HZ SCT015
MMZC,TAF MMZC 051135Z 0512/0618 20005KT P6SM SKC TX25/0521Z TN06/0612Z BECMG 0518/0519 23010KT FM060300 20005KT P6SM SKC FM061600 23010KT P6SM SKC
MMZH,TAF MMZH 050444Z 0506/0606 00000KT 6SM HZ SKC FM051800 22010KT P6SM SCT020 FM060400 24005KT 6SM HZ SCT015
MMZO,TAF MMZO 050549Z 0506/0606 03005KT P6SM SCT020 FM052100 22010KT P6SM SKC FM060300 03005KT P6SM SKC
MNBL,MNBL 042120Z 0500/0524 11004KT 7000 VCRA SCT016 FM050200 12006KT 8000 -DZ SCT018 TEMPO 0512/0517 07006KT 5000/8000 DZ/TSRA SCT018CB SCT070 BECMG 0519/0523 07006KT 5000/8000 DZ/TSRA SCT018CB
MNMG,MNMG 051100Z 0512/0612 00000KT 9999 FEW020 SCT300 TEMPO 0513/0518 10008KT BECMG 0519/0523 9000 DZ/-RA SCT022CB SCT070
MNPC,MNPC 042120Z 0500/0524 VRB04KT 7000 VCRA BKN016TCU FM050300 8000 BECMG 0512/0517 05006KT 7000/8000 DZ/HZ SCT014TCU BKN017 FM051000 8000 VCRA SCT018TCU
MPDA,TAF MPDA 051100Z 0512/0524 22006KT 9999 SCT016 SCT080 PROB40 0519/0523 6000 TSRA SCT013CB BKN080
MPMG,TAF MPMG 051100Z 0512/0524 18008KT 9999 SCT016 SCT080 PROB40 0518/0522 6000 TSRA SCT015CB SCT080
MPPA,TAF MPPA 051100Z 0512/0618 18008KT 9999 SCT016 SCT080 TEMPO 0512/0515 VRB02KT PROB40 0516/0520 6000 TSRA SCT015CB BKN080 TEMPO 0600/0604 03004KT
MPSM,TAF MPSM 051100Z 0512/0618 24006KT 9999 SCT018 BKN080 PROB30 0518/0522 18006KT 7000 TSRA SCT015CB SCT080
MPTO,TAF MPTO 051100Z 0512/0618 16008KT 9999 SCT017 SCT080 TEMPO 0512/0516 VRB02KT PROB40 0517/0521 6000 TSRA SCT015CB BKN080 TEMPO 0600/0604 24005KT
MRLB,MRLB 051100Z 0512/0612 12005KT 9999 SCT020 BKN100 TX30/0519Z TN22/0611Z TEMPO 0512/0515 VRB02KT 5000 BR SCT005 BECMG 0516/0519 27005KT TEMPO 0521/0524 RA FEW020TCU 
MRLM,MRLM 051100Z 0512/0612 25004KT 9999 FEW020 BKN150 TX30/0520Z TN22/0611Z TEMPO 0512/0515 DZ FEW020TCU BECMG 0515/0518 01005KT BECMG 0523/0602 25005KT 
MROC,MROC 051100Z 0512/0612 25008KT 9999 SCT010 BKN030 TX26/0517Z TN18/0611Z TEMPO 0512/0515 VRB02KT 3000 BR BKN010 TEMPO 0520/0601 5000 RA SCT020TCU TEMPO 0601/0606 VRB02KT 5000 DZ BR BKN010 TEMPO 0607/0612 09004KT 
MRPV,MRPV 051100Z 0512/0612 29006KT 9999 FEW005 BKN025 TX25/0517Z TN17/0611Z TEMPO 0512/0515 VRB02KT 5000 BR BKN010 TEMPO 0520/0601 5000 RA BR BKN010 TEMPO 0601/0606 VRB02KT 3000 DZ BR BKN005 BECMG 0607/0609 12005KT 
MSLP,TAF MSLP 050925Z 0512/0612 04005KT 9999 FEW020 SCT060 TX32/0518Z TN22/0611Z FM051800 22008KT 9999 SCT020 FEW037CB SCT050 TEMPO 0519/0522 7000 SHRA FM060000 VRB03KT 9999 FEW020 SCT050 PROB40 TEMPO 0604/0606 10009KT 5000 TSRA BKN020 SCT033CB FM060600 04005KT 9999 FEW020 FEW037CB
MSSS,TAF MSSS 050925Z 0512/0612 36003KT 4000 BR SCT013 TX29/0519Z TN19/0611Z FM051400 36004KT 9999 NSW SCT017 SCT050 TEMPO 0519/0523 19007KT 6000 SHRA SCT017 FEW037CB SCT050 FM052300 34005KT 9999 SCT020 FEW037CB
MTCH,TAF MTCH 051100Z 0512/0612 14005KT 9000 SCT024TCU BKN200 BECMG 0517/0521 01014KT PROB40 TEMPO 0523/0605 4000 TSRA SCT022CB BKN040 BECMG 0606/0608 VRB02KT 7000 NSW FEW022 SCT070
MTPP,TAF MTPP 051100Z 0512/0612 11009KT 9000 FEW020 BECMG 0516/0520 29015KT PROB30 TEMPO 0522/0604 4500 -TSRA SCT020CB BKN050 FM060600 VRB02KT 8000 FEW018 SCT200
MUCC,MUCC 051100Z 0512/0612 08009KT 9000 SCT020 TEMPO 0512/0514 BKN018TCU BECMG 0515/0517 08009KT
MUCF,MUCF 051100Z 0512/0524 VRB03KT 9000 SCT020 BECMG 0514/0517 04009KT
MUCL,MUCL 051100Z 0512/0524 06008KT 9000 SCT020 BECMG 0514/0517 06012KT
MUCM,MUCM 051100Z 0512/0612 VRB03KT 9000 FEW030
MUCU,MUCU 051100Z 0512/0612 01008KT 9000 FEW020 BECMG 0514/0517 17008KT TEMPO 0518/0524 5000 SHRA FEW020TCU BKN020
MUGM,TAF MUGM 0507/0607 32007KT 9999 FEW030 FEW070 QNH2979INS FM051500 VRB06KT 9999 FEW030 QNH2981INS FM051700 13009KT 9999 FEW035 QNH2977INS FM052000 14009KT 9999 VCSH FEW035CB SCT060 QNH2977INS FM052200 VRB06KT 9999 FEW035 SCT060 BKN080 QNH2978INS FM060000 VRB06KT 9999 SCT030 BKN060 QNH2980INS T23/0510Z T31/0516Z FN00237
MUHA,MUHA 051100Z 0512/0612 VRB03KT 9000 FEW030 BECMG 0519/0521 04010KT SCT030 BECMG 0600/0602 VRB03KT FEW030
MUHG,MUHG 051100Z 0512/0612 VRB03KT 9000 FEW030 TEMPO 0512/0514 7000 BR
MUPB,MUPB 041700Z 0418/0518 05011KT 9000 SCT020 BECMG 0500/0503 VRB03KT BECMG 0514/0517 04008KT
MUSA,MUSA 041700Z 0418/0518 04011KT 9000 FEW020 BECMG 0500/0502 VRB03KT
MUSC,MUSC 051100Z 0512/0612 VRB03KT 9000 FEW020 BECMG 0514/0517 07008KT BECMG 0600/0603 VRB03KT
MUVR,MUVR 051100Z 0512/0612 VRB03KT 9000 FEW018 BECMG 0514/0517 06008KT TEMPO 0518/0523 BKN020 BECMG 0601/0603 VRB03KT
MWCB,TAF MWCB 051100Z 0512/0612 05007KT 9999 FEW020
MWCR,TAF MWCR 051100Z 0512/0612 05007KT 9999 FEW020
MYGF,MYGF 050915Z 0512/0612 08012KT 9999 VCSH SCT022 PROB30 TEMPO 0513/0517 9000 -SHRA SCT020
MYNN,MYNN 050915Z 0512/0612 09012KT 9999 VCSH SCT022 PROB30 TEMPO 0513/0517 9000 SHRA SCT025
MZBZ,TAF MZBZ 051100Z 0512/0612 09005KT 9999 SCT023
NCRG,TAF NCRG 051107Z 0512/0612 10010KT 9999 SCT027 SCT034 PROB30 TEMPO 0512/0612 13015G25KT
NFFN,TAF NFFN 051103Z 0512/0612 14005KT 9999 FEW028 SCT048 BECMG 0522/0524 31010KT PROB40 TEMPO 0600/0608 5000 TSRA FEW018CB BECMG 0607/0609 16005KT
NFNA,TAF NFNA 051104Z 0512/0612 10005KT 9999 SCT020 PROB40 TEMPO 0512/0520 5000 SHRA BKN015
NFTF,TAF NFTF 051107Z 0512/0612 10005KT 9999 FEW016 SCT100 PROB40 TEMPO 0522/0612 11015G25KT 5000 SHRA BKN016
NFTV,TAF NFTV 051105Z 0512/0612 10008KT 9999 FEW016
NGFU,TAF NGFU 051105Z 0512/0612 VRB03KT 9999 FEW018
NGTA,TAF NGTA 051104Z 0512/0612 12005KT 9999 FEW020
NIUE,TAF NIUE 051105Z 0512/0612 12005KT 9999 FEW017
NLWF,TAF NLWF 051100Z 0512/0612 13008KT 9999 SCT040 TEMPO 0512/0524 3000 SHRA BKN014 FEW020CB
NLWW,TAF NLWW 051100Z 0512/0612 13008KT 9999 SCT020 TEMPO 0512/0606 4000 SHRA BKN014 FEW020CB PROB40 TEMPO 0521/0603 2000 TSRA BKN010 SCT020CB 
NSFA,TAF NSFA 051104Z 0512/0612 14005KT 9999 FEW024 PROB30 TEMPO 0512/0612 5000 SHRA BKN016
NSTU,NSTU 051126Z 0512/0612 13012KT P6SM VCSH FEW018 SCT040 BKN100
NTAA,TAF NTAA 051100Z 0512/0618 04015KT 9999 -RA FEW010 SCT015 FEW016CB BKN040 TEMPO 0514/0618 2500 SHRA BECMG 0518/0521 36020G30KT PROB40 TEMPO 0518/0606 34025G40KT 0800 +SHRA SCT008 BKN015CB OVC030
NVSC,TAF NVSC 050500Z 0506/0606 03005KT 9999 SCT020 INTER 0506/0512 9000 -SHRA BKN018
NVSG,TAF NVSG 050500Z 0506/0606 15005KT 9999 SCT020 INTER 0506/0512 9000 -SHRA BKN018
NVSL,TAF NVSL 050500Z 0506/0606 08010KT 9999 SCT022 INTER 0506/0512 9000 -SHRA BKN018
NVSP,TAF NVSP 050500Z 0506/0606 07006KT 9999 SCT020 INTER 0506/0512 9000 -SHRA BKN018
NVSS,TAF NVSS 050500Z 0506/0606 11006KT 9999 SCT020 INTER 0506/0512 9000 -SHRA BKN018
NVVA,TAF NVVA 050500Z 0506/0606 03005KT 9999 BKN020 INTER 0506/0512 9000 -SHRA BKN018
NVVV,TAF NVVV 050500Z 0506/0606 17011KT 9999 SCT020 INTER 0506/0512 9000 -SHRA BKN015
NVVW,TAF NVVW 050500Z 0506/0606 13005KT 9999 SCT025 INTER 0506/0512 9000 -SHRA BKN018
NWWD,TAF AMD NWWD 050615Z 0506/0606 VRB02KT 9999 BKN025 TEMPO 0506/0509 3000 SHRA BKN008 FEW018CB TEMPO 0600/0606 2000 TSRA BKN010 SCT016CB
NWWE,TAF AMD NWWE 041841Z 0418/0518 15008KT 9999 SCT010 BKN016 TEMPO 0418/0508 2500 SHRA BKN008 SCT018TCU PROB30 TEMPO 0422/0506 2000 SHRA BKN009 SCT015CB PROB40 TEMPO 0508/0518 BKN011
NWWK,TAF AMD NWWK 050714Z 0507/0606 14015KT 9999 BKN025 TEMPO 0507/0510 4000 SHRA BKN014 FEW020CB PROB30 TEMPO 0507/0510 2000 TSRA BKN010 SCT016CB BECMG 0508/0510 VRB02KT BECMG 0522/0524 18010KT TEMPO 0600/0606 2000 TSRA BKN010 SCT016CB
NWWL,TAF NWWL 051100Z 0512/0612 10007KT 9999 SCT020 SCT030 TEMPO 0512/0606 4000 SHRA BKN009 FEW020CB PROB40 TEMPO 0600/0606 2000 +SHRA BKN009 SCT020CB
NWWM,TAF NWWM 051100Z 0512/0612 13017KT 9999 SCT010 SCT020 TEMPO 0512/0612 4000 SHRA BKN009 FEW020TCU PROB40 TEMPO 0600/0606 1000 TSRA BKN009 FEW020CB
NWWR,TAF NWWR 051100Z 0512/0612 VRB02KT 9999 FEW020 TEMPO 0512/0520 4000 BR PROB40 TEMPO 0512/0518 BKN014 TEMPO 0600/0606 3000 SHRA BKN014 FEW020CB
NWWU,TAF NWWU 041700Z 0418/0518 18005KT 9999 SCT020 BECMG 0422/0424 12010KT PROB40 TEMPO 0502/0518 4000 SHRA BKN012 SCT020CB
NWWW,TAF NWWW 051100Z 0512/0612 VRB02KT 9999 SCT020 SCT050 PROB40 TEMPO 0512/0518 BKN014 BECMG 0522/0524 14010KT TEMPO 0600/0608 2000 TSRA BKN010 SCT020CB
NZAA,TAF NZAA 051107Z 0512/0618 22010KT 9999 FEW025 SCT035 BECMG 0512/0514 16008KT FM052100 04015KT 9999 -SHRA BKN025 TEMPO 0521/0523 7000 SHRA FM060900 04005KT 9999 FEW020
NZCH,TAF NZCH 051107Z 0512/0618 06005KT 9999 BKN030 FM052200 06015KT 9999 SCT035 FM061200 06005KT 9999 FEW008
NZFX,TAF NZFX 050901Z 0509/0609 VRB06KT 9999 FEW030 FEW060 QNH2886INS BECMG 0513/0515 VRB06KT 1600 BR SCT000 OVC020 QNH2887INS BR SCT000 BECMG 0517/0519 VRB06KT 0400 FZFG BKN000 OVC010 QNH2887INS FZFG BKN000 
NZQN,TAF NZQN 051107Z 0512/0606 16012KT 9999 SKC BECMG 0512/0514 04005KT BECMG 0522/0600 25010KT BECMG 0603/0605 18015KT
NZSP,TAF NZSP 050858Z 0509/0609 03006KT 9999 IC SCT100 QNH2796INS ALL WINDS GRID 
NZWD,TAF NZWD 050901Z 0509/0609 VRB06KT 9999 FEW030 FEW060 QNH2888INS BECMG 0512/0514 VRB06KT 1600 -SN BR SCT000 OVC020 QNH2888INS BR SCT000 BECMG 0517/0519 VRB06KT 0400 FZFG BKN000 OVC010 QNH2886INS FZFG BKN000 
NZWN,TAF NZWN 051107Z 0512/0618 01010KT 9999 BKN060 BECMG 0521/0523 18008KT BECMG 0605/0607 02012KT
OBBI,TAF OBBI 051100Z 0512/0618 34010KT CAVOK
OEAB,TAF OEAB 051100Z 0512/0618 21013KT 9999 FEW020 BECMG 0518/0520 VRB03KT 7000 NSC BECMG 0606/0608 20010KT 9999 FEW020
OEAH,TAF OEAH 051000Z 0512/0618 04010KT CAVOK BECMG 0518/0520 VRB03KT FEW040
OEAO,TAF OEAO 051100Z 0512/0618 19008KT CAVOK BECMG 0518/0520 VRB03KT BECMG 0608/0610 20010KT
OEBA,TAF OEBA 051100Z 0512/0618 24010KT 9999 FEW030 BECMG 0520/0522 30006KT CAVOK BECMG 0606/0608 26010KT
OEBH,TAF OEBH 051100Z 0512/0618 12010KT CAVOK BECMG 0518/0520 19006KT BECMG 0608/0610 27008KT
OEDF,TAF OEDF 051000Z 0512/0618 02012KT 9999 FEW040 SCT100 BECMG 0518/0520 30006KT PROB30 TEMPO 0604/0612 -TSRA FEW030CB SCT040
OEDM,TAF OEDM 050400Z 0505/0521 18016KT 7000 FEW030 PROB30 TEMPO 0506/0514 3000 BLDU BECMG 0516/0518 12008KT
OEDR,TAF OEDR 051000Z 0512/0618 02012KT 9999 FEW040 SCT100 BECMG 0518/0520 30006KT PROB30 TEMPO 0604/0612 -TSRA FEW030CB SCT040
OEGN,TAF OEGN 051100Z 0512/0618 28012KT 7000 SCT030 SCT100 BECMG 0518/0520 VRB03KT PROB40 TEMPO 0518/0608 09022KT 3000 TSRA FEW035CB BECMG 0608/0610 24010KT
OEGS,TAF OEGS 051100Z 0512/0618 20018KT 6000 SCT040 TEMPO 0512/0518 4000 BLDU BECMG 0518/0520 05010KT 8000 NSC BECMG 0606/0608 30010KT CAVOK
OEGT,TAF OEGT 051100Z 0512/0618 09010KT 9999 FEW030 SCT080 BECMG 0518/0520 VRB03KT CAVOK BECMG 0606/0608 13010KT
OEHL,TAF OEHL 051100Z 0512/0618 20010KT CAVOK BECMG 0518/0520 35005KT BECMG 0606/0608 06008KT
OEJN,TAF OEJN 051100Z 0512/0618 32012KT 9999 FEW040 BECMG 0518/0520 03006KT CAVOK BECMG 0606/0608 32012KT
OEKJ,TAF OEKJ 051100Z 0512/0618 13010KT 9999 SCT040 BECMG 0520/0522 VRB03KT FEW040 BECMG 0606/0608 20012KT
OEKM,TAF OEKM 051100Z 0512/0618 21013KT 9999 FEW020 BECMG 0518/0520 VRB03KT 7000 NSC BECMG 0606/0608 20010KT 9999 FEW020
OEMA,TAF OEMA 051100Z 0512/0618 30010KT CAVOK BECMG 0518/0520 VRB03KT BECMG 0608/0610 14010KT
OENG,TAF OENG 051100Z 0512/0618 07010KT CAVOK BECMG 0520/0522 VRB03KT BECMG 0600/0602 26008KT
OEPA,TAF OEPA 051000Z 0512/0618 14010KT 9999 SCT040 BKN100 PROB30 TEMPO 0512/0602 VRB24KT TSRA FEW030CB BKN040 BECMG 0604/0606 08008KT
OEPS,TAF OEPS 0509/0615 12012KT 9000 HZ SCT030 BKN320 SKC QNH3010INS BECMG 0514/0515 14009KT 9000 HZ SCT050 BKN300 QNH3012INS BECMG 0520/0521 13012G18KT 9000 HZ FEW050 BKN300 QNH3011INS BECMG 0603/0604 16009KT 9000 HZ SCT350 QNH3015INS BECMG 0607/0608 18015G25KT 8000 BLDU SCT350 QNH3007INS BECMG 0614/0615 17012KT 9000 HZ SKC QNH3011INS TX30/0512Z TN20/0603Z
OERF,TAF OERF 051100Z 0512/0618 09012KT 9999 BKN035 BECMG 0518/0520 VRB03KT SCT035 SCT080 BECMG 0606/0608 10012KT
OERK,TAF OERK 051100Z 0512/0618 16010KT 9999 FEW040 SCT080 BECMG 0522/0600 VRB03KT BECMG 0606/0608 22012KT 7000
OERR,TAF OERR 051100Z 0512/0618 09012KT 9999 SCT040 SCT080 BECMG 0518/0520 VRB03KT FEW040 BECMG 0606/0608 12012KT CAVOK
OESH,TAF OESH 051100Z 0512/0618 06010KT CAVOK BECMG 0520/0522 VRB03KT BECMG 0606/0608 05010KT
OESK,TAF OESK 051100Z 0512/0618 11010KT 9999 FEW040 SCT080 BECMG 0520/0522 VRB03KT BECMG 0606/0608 10010KT CAVOK
OETB,TAF OETB 051100Z 0512/0618 27010KT CAVOK BECMG 0518/0520 VRB03KT BECMG 0606/0608 28008KT
OETF,TAF OETF 051100Z 0512/0618 27012KT 9999 FEW030 SCT080 BECMG 0518/0520 18006KT CAVOK BECMG 0606/0608 28014KT 9999 FEW030
OETR,TAF OETR 051100Z 0512/0618 09010KT 9999 FEW040 SCT080 BECMG 0518/0520 VRB03KT BECMG 0606/0608 12014KT 7000 NSC
OEWD,TAF OEWD 051100Z 0512/0618 12013KT CAVOK BECMG 0520/0522 VRB03KT BECMG 0606/0608 15012KT
OEWJ,TAF OEWJ 051100Z 0512/0618 30010KT 9999 FEW040 SCT080 BECMG 0518/0520 03006KT BECMG 0608/0610 30010KT
OEYN,TAF OEYN 051100Z 0512/0618 28014KT CAVOK BECMG 0522/0600 9999 FEW030 BECMG 0606/0608 22012KT CAVOK
OIAA,TAF OIAA 051100Z 0512/0618 28008KT 7000 NSC TEMPO 0512/0515 32018KT 6000 FEW035 BKN100 TEMPO 0603/0606 FEW030CB SCT035 SCT100
OIAW,TAF OIAW 051100Z 0512/0618 32008KT 8000 FEW040 TEMPO 0512/0515 32018KT
OIBB,TAF OIBB 051120Z 0512/0521 32008KT 8000 NSC TEMPO 0512/0516 32014KT FEW030 SCT100 PROB30 TEMPO 0513/0516 FEW030TCU SCT035 BKN100 TEMPO 0520/0521 4000 BR/HZ
OIBK,TAF OIBK 051100Z 0512/0618 30012KT 7000 NSC TEMPO 0521/0603 30020KT 3000 SA TEMPO 0612/0618 30020KT 3000 SA
OIBP,TAF OIBP 051120Z 0512/0521 29008KT 8000 NSC TEMPO 0512/0516 29016KT FEW030 SCT100 PROB30 TEMPO 0513/0516 FEW025CB SCT030 BKN100
OICC,TAF OICC 051120Z 0512/0521 27008KT 8000 NSC TEMPO 0512/0518 27018KT
OICI,TAF OICI 051100Z 0512/0618 26008KT 8000 NSC TEMPO 0518/0606 09008KT
OIFM,TAF OIFM 051100Z 0512/0618 27006KT 7000 NSC TEMPO 0602/0606 4000 HZ/BR
OIGG,TAF OIGG 051120Z 0512/0521 28008KT 7000 FEW010CB SCT025 BKN070 TEMPO 0512/0516 28012KT 4000 RA/DZ BR PROB30 TEMPO 0511/0516 2000 SHRA/DZ BR BKN005 FEW010C OVC060 TEMPO 0516/0521 4000 BR
OIIE,TAF OIIE 051100Z 0512/0618 03010KT 8000 FEW035 SCT100 TEMPO 0612/0618 33018G22KT 4000 SA NSC
OIII,TAF OIII 051100Z 0512/0618 21008KT 8000 FEW035 SCT100 TEMPO 0512/0515 23016KT 6000 FEW035TCU SCT040 SCT100 PROB30 TEMPO 0602/0606 4000 HZ TEMPO 0612/0615 23016KT 6000 FEW035TCU SCT040 BKN100
OIIP,TAF OIIP 051120Z 0512/0521 30008KT 7000 FEW040
OIKB,TAF OIKB 051100Z 0512/0618 22006KT 6000 FEW030 BKN090 TEMPO 0512/0518 24020KT 3000 SA TSRA SCT030CB SCT035 BKN090 BECMG 0518/0520 4000 BR/HZ SCT030 TEMPO 0520/0604 2000 BR BECMG 0606/0608 6000 NSC TEMPO 0608/0616 20020KT 3000 SA
OIKK,TAF OIKK 051100Z 0512/0618 30006KT 7000 FEW035 TEMPO 0612/0616 30014KT FEW035CB SCT100 TEMPO 0708/0712 30014KT FEW035TCU SCT100
OIMM,TAF OIMM 051100Z 0512/0618 06004KT 7000 FEW040 TEMPO 0515/0521 FEW040TCU SCT100 TEMPO 0615/0618 FEW030CB SCT035 BKN100
OING,TAF OING 051120Z 0512/0521 28008KT 7000 FEW045 SCT100 TEMPO 0512/0516 28012KT FEW040TCU SCT090 PROB30 TEMPO 0520/0521 4000 BR SCT020 SCT100
OINZ,TAF OINZ 051120Z 0512/0521 28008KT 8000 FEW027 TEMPO 0512/0516 28012KT BKN027TCU SCT100
OISL,TAF OISL 051100Z 0512/0618 33008KT CAVOK TEMPO 0512/0515 25016KT 6000 FEW030 BKN100 TEMPO 0518/0521 28018KT
OISS,TAF OISS 051100Z 0512/0618 12008KT 7000 FEW035 SCT100 TEMPO 0518/0606 22008KT 6000 SCT035
OITL,TAF OITL 051120Z 0512/0521 31008KT 7000 FEW040 BKN100 TEMPO 0512/0516 07018KT FEW040TCU BKN090 PROB30 TEMPO 0513/0516 4000 BR SCT030 BKN090 TEMPO 0516/0521 4000 BR BKN025 BKN090 PROB30 TEMPO 0520/0521 0800 FG OVC005 BKN080
OITR,TAF OITR 041120Z 0412/0518 27006KT 8000 FEW040 TEMPO 0412/0417 FEW035CB SCT040 SCT100
OITT,TAF OITT 051100Z 0512/0618 22006KT 8000 FEW035 TEMPO 0512/0515 24018KT 6000 SCT030 SCT100 PROB30 TEMPO 0521/0603 27018KT 6000 SCT035
OIYY,TAF OIYY 051120Z 0512/0521 36008KT 7000 FEW040 SCT100 TEMPO 0512/0516 26012KT FEW040TCU SCT100
OIZH,TAF OIZH 051100Z 0512/0618 24006KT 7000 FEW035 TEMPO 0512/0516 26020KT 5000 TS/SHRA FEW035CB SCT040 BKN100 BECMG 0520/0522 FEW035CB SCT100 TEMPO 0608/0614 03016KT 5000 TSRA SCT035CB SCT040 BKN100
OJAI,TAF OJAI 051052Z 0512/0618 10012KT 5000 HZ NSC BECMG 0518/0520 VRB02KT PROB30 0603/0606 4000
OJAM,TAF OJAM 051052Z 0512/0618 11012KT 5000 HZ NSC BECMG 0518/0520 VRB02KT PROB30 0603/0606 4000 FU
OJAQ,TAF OJAQ 051052Z 0512/0618 01012KT CAVOK
OKAS,TAF AMD OKAS 050930Z 0509/0614 VRB06KT 9999 FEW100 QNH3001INS BECMG 0517/0518 VRB06KT 9000 -SHRA FEW060 BKN080 QNH3003INS TEMPO 0606/0608 VRB18KT 8000 -TSRA BKN080CB BECMG 0607/0608 05009KT 9999 NSW SCT080 QNH3000INS TX28/0509Z TN16/0602Z
OKBK,TAF OKBK 051100Z 0512/0618 VRB03KT 7000 FEW040 BKN100 TEMPO 0522/0601 -RA
OLBA,TAF COR OLBA 051000Z 0512/0618 35010KT 9999 FEW030 BECMG 0518/0521 10005KT BECMG 0607/0610 20010KT 8000 SCT050
OMAA,TAF OMAA 051100Z 0512/0618 31010KT 8000 NSC BECMG 0519/0521 VRB02KT BECMG 0606/0608 32010KT
OMAD,TAF OMAD 051100Z 0512/0618 29009KT 8000 NSC BECMG 0519/0521 VRB02KT BECMG 0606/0608 32010KT
OMAL,TAF OMAL 051100Z 0512/0618 28006KT 8000 NSC BECMG 0517/0519 05005KT BECMG 0606/0608 32010KT
OMDB,TAF OMDB 051100Z 0512/0618 28012KT CAVOK PROB40 0516/0605 20005KT PROB30 0608/0612 VRB15G35KT 3000 TSRA BLDU FEW040CB
OMDW,TAF OMDW 051100Z 0512/0618 31012KT CAVOK PROB40 0516/0605 20005KT PROB30 0608/0612 VRB15G35KT 3000 TSRA BLDU FEW040CB
OMFJ,TAF OMFJ 051100Z 0512/0618 12010KT 8000 FEW025 PROB30 0512/0516 -RA FEW035TCU BECMG 0521/0523 24010KT BECMG 0607/0609 30016KT PROB30 0610/0618 29018G28KT 4000 BLDU
OMRK,TAF OMRK 051100Z 0512/0618 30010KT CAVOK BECMG 0514/0516 VRB02KT BECMG 0514/0516 18005KT BECMG 0605/0607 28012KT PROB30 0608/0612 VRB15G35KT 3000 TSRA BLDU FEW040CB
OMSJ,TAF OMSJ 051100Z 0512/0618 28012KT CAVOK PROB40 0516/0605 20005KT PROB30 0608/0612 VRB15G35KT 3000 TSRA BLDU FEW040CB
OODQ,TAF OODQ 050500Z 0506/0606 07012KT 8000 NSC BECMG 0518/0520 VRB02KT PROB30 TEMPO 0522/0602 4000 BR BKN010
OOMS,TAF OOMS 051100Z 0512/0618 05012KT 8000 NSC BECMG 0518/0520 22008KT BECMG 0606/0608 06012KT
OOSA,TAF OOSA 051140Z 0512/0618 16010KT 9999 FEW025 BECMG 0516/0518 VRB03KT BECMG 0606/0608 17010KT
OOSH,TAF OOSH 051100Z 0512/0618 08012KT 8000 NSC BECMG 0516/0518 VRB02KT BECMG 0606/0608 06012KT
OPBW,TAF OPBW 050945Z 0512/0606 36008KT 1500 FU SCT120 TN17/0601Z PROB30 TEMPO 0601/0605 05005KT 0500 FG FEW040 SCT100
OPDG,TAF OPDG 050945Z 0512/0606 36008KT 3500 FU SCT120 TN18/0601Z PROB30 TEMPO 0601/0605 05005KT 1500 BR FEW040 SCT100
OPFA,TAF OPFA 050945Z 0512/0606 09006KT 2000 BR FEW040 SCT100 TN18/0601Z TEMPO 0514/0517 09010G20KT 2000 TSRA FEW030CB SCT040 OVC100 PROB30 TEMPO 0600/0606 05010G20KT 2000 TSRA FEW030CB SCT040 BKN100
OPGD,TAF OPGD 050930Z 0512/0612 23012KT 5000 HZ SCT030 BECMG 0519/0521 23005KT 3000 BR SCT025 TEMPO 0600/0604 00000 0500 FG VV/// BECMG 0604/0606 24010KT 5000 HZ SCT020
OPIS,TAF OPIS 050945Z 0512/0618 27010KT 5000 HZ FEW040 BKN100 BECMG 0514/0516 31015G30KT 3000 TSRA FEW030CB SCT040 OVC100 BECMG 0522/0524 12010KT 3000 BR TEMPO 0603/0609 31010G20KT 4000 -TSRA FEW030CB SCT040 BKN100 BECMG 0614/0616 2710G25KT 3000 TSRA FEW030CB SCT040 BKN100
OPKC,TAF OPKC 050930Z 0512/0618 27012KT 6000 FEW030 SCT100 BECMG 0519/0521 34006KT 4000 FU SCT025 TEMPO 0600/0604 00000KT 1500 BR SCT020 BECMG 0604/0606 27012KT 6000 SCT030 BKN100
OPLA,TAF OPLA 050945Z 0512/0618 12010KT 3000 FU SCT040 SCT100 TX27/0610Z TN15/0601Z PROB40 TEMPO 0516/0520 34015G35KT 1500 TSRA FEW030CB SCT040 BKN100 TEMPO 0600/0605 35015G30KT 1500 TSRA FEW030CB SCT040 BKN100 FM 06/1200 06008KT 4000 FU FEW040 SCT100
OPMT,TAF OPMT 050945Z 0512/0606 36008KT 1000 FU SCT120 TN18/0601Z PROB30 TEMPO 0601/0605 05005KT 0400 FG FEW040 SCT100
OPNH,TAF OPNH 050930Z 0512/0618 21010KT 4000 FU FEW040 SCT100 BECMG 0519/0521 18004KT 3000 BR SCT040 TEMPO 0600/0604 00000KT 1500 BR SCT040 BECMG 0604/0606 23010KT 3000 FU SCT030
OPPS,TAF OPPS 050930Z 0512/0618 05008KT 4000 HZ DZ FEW040TCU SCT060 BKN100 TEMPO 0514/0518 13008G18KT 3000 TSRA FEW035CB SCT040 BKN100 TEMPO 0520/0601 13008G18KT 2500 +TSRA FEW035CB SCT040 BKN100 TEMPO 23008G18KT 2500 +TSRA GR FEW035CB SCT040 BKN100
OPRK,TAF OPRK 050945Z 0512/0606 05008KT 3500 FU SCT120 TN17/0601Z PROB30 TEMPO 0601/0605 05005KT 1500 BR FEW040 SCT100
OPSK,TAF OPSK 050930Z 0512/0612 21008KT 4000 HZ SCT040 BECMG 0518/0520 00000KT 3000 BR NSC TEMPO 0600/0604 00000KT 0500 FG VV/// BECMG 0604/0606 18006KT 3000 HZ SCT040
OPST,TAF OPST 050945Z 0512/0618 05008KT 4000 FU SCT040 SCT100 TX28/0610Z TN16/0601Z TEMPO 0512/0618 05015G30KT 2000 TSRA FEW030CB SCCT040 BKN100
ORBI,TAF ORBI 051100Z 0512/0612 02004KT 7000 NSC
ORER,TAF ORER 050500Z 0506/0606 08004KT 8000 NSC BECMG 0510/0513 27009KT BECMG 0520/0522 VRB02KT
ORMM,TAF ORMM 051100Z 0512/0612 32008KT CAVOK TEMPO 0601/0604 03006KT 6000 NSC 
ORNI,TAF ORNI 051100Z 0512/0612 VRB02KT 6000 NSC
ORSU,TAF ORSU 050500Z 0506/0606 14006KT CAVOK BECMG 0508/0510 25010KT 9999 FEW045 BECMG 0514/0516 31006KT CAVOK
OSAP,TAF COR OSAP 051100Z 0512/0612 26008KT CAVOK BECMG 0516/0518 VRB03KT
OSDI,TAF COR OSDI 051100Z 0512/0618 22008KT CAVOK
OSLK,OSLK 051100Z 0512/0612 30010KT CAVOK TEMPO 0516/0606 07006KT
OTBD,TAF OTBD 051111Z 0512/0618 03009KT CAVOK TEMPO 0516/0602 33007KT
OTBH,TAF AMD OTBH 051103Z 0511/0614 02012KT 9999 FEW080 OVC180 QNH2992INS TEMPO 0510/0516 6000 DU HZ BECMG 0515/0516 07009KT 9999 SCT200 QNH2990INS BECMG 0602/0603 VRB06KT 6000 HZ SCT200 QNH2993INS BECMG 0605/0606 10008KT 9999 NSW SKC QNH2989INS TX33/0610Z TN22/0603Z
OTHH,TAF OTHH 050503Z 0506/0612 35010KT 9000 NSC TEMPO 0508/0517 03010KT
PAAQ,PAAQ 051131Z 0512/0612 04025G38KT P6SM SCT150 FM052200 03035G55KT P6SM SCT200 FM060400 04025G40KT P6SM SKC
PABE,PABE 051128Z 0512/0612 29010KT P6SM SKC FM051800 VRB06KT P6SM SKC
PABI,TAF PABI 050600Z 0506/0612 VRB06KT 8000 -SN BKN020 OVC025 620204 QNH2997INS BECMG 0520/0521 VRB06KT 9999 NSW BKN020 620204 QNH3045INS BECMG 0608/0609 VRB06KT 9999 SCT020 QNH3081INS TXM12/0523Z TNM20/0606Z
PABR,PABR 051130Z 0512/0612 06010KT 5SM -SN BR OVC020 FM051800 VRB06KT P6SM BKN025 BKN050 BKN200 FM060000 VRB06KT P6SM SCT050 BKN200
PABT,PABT 051130Z 0512/0612 VRB04KT P6SM SCT015 OVC045
PACD,PACD 051131Z 0512/0612 29015KT P6SM VCSH SCT025 OVC035 TEMPO 0512/0516 29015G20KT -RA BKN025 FM051800 32010KT P6SM SCT025 OVC050 FM060000 35010KT P6SM SKC
PACV,PACV 051124Z 0512/0612 VRB05KT P6SM SCT250 FM051800 01010G18KT P6SM SCT250 FM060400 01008KT P6SM SKC
PADL,PADL 051128Z 0512/0612 VRB06KT P6SM SKC
PADQ,PADQ 051124Z 0512/0612 28030G45KT P6SM FEW035 FM052100 30025G35KT P6SM SKC FM060600 30017G27KT P6SM SKC
PADU,PADU 051131Z 0512/0612 VRB06KT P6SM FEW035
PAED,TAF PAED 050500Z 0505/0611 36012KT 9999 FEW200 510205 QNH2980INS BECMG 0507/0508 36012G18KT 9999 FEW180 520205 QNH2984INS BECMG 0514/0515 36015G25KT 9999 SKC 520205 QNH2990INS TXM07/0505Z TNM18/0517Z
PAEI,TAF PAEI 050600Z 0506/0612 VRB04KT 9999 SCT030 BKN050 620507 QNH3003INS BECMG 0515/0516 VRB06KT 9999 SCT050 QNH3035INS TXM12/0506Z TNM25/0612Z LAST NO AMDS AFT 0507 NEXT 0514
PAEN,PAEN 051131Z 0512/0612 35008KT P6SM SKC FM051400 36010G18KT P6SM SKC FM051600 36024G36KT P6SM SCT200 FM060400 02015G22KT P6SM SKC
PAFA,PAFA 051130Z 0512/0618 VRB04KT P6SM -SN BKN035 OVC050 FM051800 VRB04KT P6SM SCT035 BKN050 BKN100 FM052100 VRB04KT P6SM FEW050 SCT100 SCT200
PAFB,TAF PAFB 050600Z 0506/0612 VRB06KT 9999 BKN040 OVC055 620402 QNH3007INS BECMG 0508/0509 VRB06KT 9999 SCT035 BKN060 QNH3016INS BECMG 0516/0517 VRB06KT 9999 FEW025 SCT050 QNH3047INS BECMG 0521/0522 VRB06KT 9999 SKC QNH3065INS TXM13/0600Z TNM16/0517Z LAST NO AMDS AFT 0506 NEXT 0714
PAGA,PAGA 051130Z 0512/0612 VRB06KT P6SM VCSH FEW015 BKN035 OVC045 FM051500 VRB04KT P6SM SCT045 BKN100 BKN200 FM052100 VRB04KT P6SM SCT200 AMD LTD TO CLD VIS WX
PAGK,PAGK 051124Z 0512/0612 33012G20KT P6SM SCT100 BKN250 FM052000 35017G30KT P6SM SCT200 FM060500 34011KT P6SM SKC
PAGS,PAGS 051122Z 0512/0612 34006KT P6SM BKN100 WS020/03020KT FM052200 35014G23KT P6SM BKN100 WS020/05035KT AMD LTD TO CLD VIS AND WIND
PAGY,PAGY 051122Z 0512/0612 04012G20KT P6SM BKN100 FM052100 04025G35KT P6SM BKN100 AMD LTD TO CLD VIS AND WIND
PAHN,PAHN 051122Z 0512/0612 31011G18KT P6SM OVC070 FM051800 30015G25KT P6SM BKN100 AMD LTD TO CLD VIS AND WIND
PAHO,PAHO 051131Z 0512/0612 08008KT P6SM FEW080 FM051700 36016G26KT P6SM SCT200 FM060400 03010KT P6SM SKC
PAIL,PAIL 051128Z 0512/0612 30012G22KT P6SM SKC FM060100 32010KT P6SM SKC
PAJN,PAJN 051122Z 0512/0612 VRB04KT P6SM FEW005 BKN100 WS020/05025KT FM051900 10011G21KT P6SM BKN100 WS020/05035KT FM060300 10015G24KT P6SM FEW100 WS020/05045KT
PAKN,PAKN 051128Z 0512/0612 34009KT P6SM FEW060 TEMPO 0512/0516 31013KT P6SM FEW050
PAKT,PAKT 051122Z 0512/0612 17004KT P6SM -SHRASN OVC060 FM051500 32007KT P6SM VCSH BKN060 FM052100 32008KT P6SM SCT100 AMD LTD TO CLD VIS AND WIND TIL 051500
PAKW,PAKW 051122Z 0512/0612 VRB03KT P6SM -SHRA SCT025 OVC045 FM052200 04011KT P6SM BKN060 FM060900 04015G25KT P6SM SKC AMD LTD TO CLD VIS AND WIND
PAMC,PAMC 051130Z 0512/0612 VRB06KT P6SM VCSH SCT025 BKN035 OVC050 FM051500 VRB06KT P6SM VCSH SCT035 BKN050 BKN100 FM051800 VRB06KT P6SM SCT050 BKN100 BKN200 FM052100 VRB06KT P6SM SCT200
PANC,PANC 051131Z 0512/0618 35010KT P6SM SCT200 FM051400 35020G30KT P6SM SCT200 FM052000 35020G30KT P6SM SCT200 FM060700 35012G18KT P6SM SKC FM061200 01006KT P6SM SKC
PAOM,PAOM 051130Z 0512/0612 28005KT P6SM VCSH SCT015 BKN035 OVC050 FM051800 10009KT P6SM SCT100 SCT200 FM060600 11020KT P6SM OVC050
PAOR,PAOR 051130Z 0512/0612 31006KT P6SM VCSH BKN025 BKN035 OVC050
PAOT,PAOT 051130Z 0512/0612 08006KT P6SM SCT025 FM060400 13022KT P6SM FEW250 FM061000 11033KT 3SM BLSN OVC020
PAPG,PAPG 051122Z 0512/0612 00000KT 6SM -SHRA BKN008 OVC025 FM051500 00000KT P6SM SCT008 BKN040 FM052300 10010KT P6SM SCT100 FM060300 19010KT P6SM FEW100 AMD LTD TO CLD VIS AND WIND TIL 051500
PAQT,PAQT 051130Z 0512/0612 VRB06KT 4SM -SN BR OVC020 FM051500 27008KT P6SM BKN025 BKN050 BKN200 FM060000 24012KT P6SM SCT050 BKN200
PASC,PASC 051130Z 0512/0612 VRB06KT P6SM VCSH OVC020 FM051500 27008KT P6SM BKN025 BKN050 BKN200 FM060000 24012KT P6SM SCT050 BKN200
PASD,PASD 051131Z 0512/0612 30020G25KT P6SM FEW025 BKN050 TEMPO 0512/0515 BKN025 FM051500 33012KT P6SM SCT025 BKN050
PASI,PASI 051122Z 0512/0612 08005KT P6SM OVC100 FM052100 07012KT P6SM SCT100 FM060500 08013KT P6SM SKC WS020/04035KT
PASN,PASN 051131Z 0512/0612 25012KT P6SM VCSH SCT025 OVC035 TEMPO 0512/0516 BKN025 FM051800 18010KT P6SM OVC025
PASY,TAF AMD PASY 051000Z 0510/0612 18035G50KT 9999 OVC012 WS020/18060KT 520005 QNH2995INS BECMG 0514/0516 21020G35KT 9000 -RA OVC007 WS020/20065KT 510005 QNH2994INS BECMG 0516/0518 27015G25KT 9000 -RA OVC002 510005 QNH2995INS BECMG 0518/0519 30012KT 9999 NSW SCT015 QNH2992INS BECMG 0601/0602 17009KT 9000 -DZ OVC003 QNH3005INS TX07/0517Z TN05/0606Z
PATA,PATA 051130Z 0512/0612 VRB04KT P6SM SCT015 OVC045 FM051800 VRB04KT P6SM SCT200
PATK,PATK 051131Z 0512/0612 01008KT P6SM SKC FM052000 02018G28KT P6SM SKC FM060400 02010G18KT P6SM SKC
PAUN,PAUN 051130Z 0512/0612 VRB04KT P6SM SCT035 BKN045
PAVD,PAVD 051124Z 0512/0612 05025G45KT P6SM SCT100 SCT250 FM051600 05030G55KT P6SM SCT200 FM052100 05040G64KT P6SM SCT200 FM060300 06025G40KT P6SM SKC AMD LTD TO CLD VIS AND WIND TIL 051800
PAWG,PAWG 051122Z 0512/0612 VRB03KT 6SM BR BKN005 OVC070 FM051600 08010KT P6SM FEW005 BKN100 FM052200 09014G23KT P6SM SCT100 WS020/05025KT FM060600 09016G25KT P6SM SKC WS020/06035KT AMD LTD TO CLD VIS AND WIND TIL 051500
PAYA,PAYA 051122Z 0512/0612 07007KT P6SM BKN090 WS020/03035KT AMD LTD TO CLD VIS AND WIND
PGRO,PGRO 050523Z 0506/0606 04009KT P6SM VCSH SCT015 BKN090 TEMPO 0506/0510 04010G20KT 4SM SHRA BKN010
PGSN,PGSN 051122Z 0512/0612 08010KT P6SM VCSH SCT030
PGUA,TAF PGUA 051000Z 0510/0616 08009KT 9999 SCT016 SCT120 QNH2980INS TEMPO 0510/0520 11010G15KT 6000 -SHRA VCTS SCT008 BKN012CB BECMG 0519/0520 14009KT 9999 SCT016 QNH2981INS TEMPO 0520/0610 14010G15KT 8000 -SHRA BKN012 TX30/0603Z TN24/0518Z
PGUM,PGUM 051146Z 0512/0618 09009KT P6SM VCSH SCT025 BKN060 TEMPO 0512/0514 4SM SHRA BKN025
PGWT,PGWT 050523Z 0506/0606 04009KT P6SM VCSH FEW016 SCT030 BKN140 TEMPO 0506/0510 04010G20KT
PHHI,TAF PHHI 050700Z 0507/0613 10006KT 9999 FEW015 SCT045 SCT120 QNH3013INS TEMPO 0509/0515 12009KT 8000 -DZ BKN015 BKN035 OVC080 BECMG 0517/0518 09009KT 9999 SCT020 BKN040 QNH3008INS TEMPO 0522/0603 11012G18KT 6000 -SHRA FEW015 BKN025 BECMG 0602/0603 06009KT 9999 SCT020 SCT040 QNH3006INS TX28/0523Z TN20/0515Z
PHJH,PHJH 042347Z 0500/0524 07013G22KT P6SM FEW050 FM050500 07013KT P6SM FEW030 SCT060 FM052000 06014G21KT P6SM FEW030 SCT050
PHJR,PHJR 051126Z 0512/0612 VRB04KT P6SM VCSH FEW025 SCT050 BKN150 FM051900 12008KT P6SM FEW025 SCT050 FM060600 07005KT P6SM FEW025 SCT050
PHKO,PHKO 051126Z 0512/0612 12010KT P6SM FEW030 SCT050 FM051500 VRB05KT P6SM FEW030 FEW050 FM052000 23008KT P6SM FEW030 SCT050 FM060500 VRB05KT P6SM FEW030 SCT050
PHLI,PHLI 051126Z 0512/0612 08014KT P6SM VCSH BKN025 BKN040 BKN120 FM051500 07012G20KT P6SM VCSH SCT015 BKN040
PHMK,PHMK 051126Z 0512/0612 04006KT P6SM FEW025 SCT045 FM051900 04012G20KT P6SM FEW025 SCT045 FM060700 03008KT P6SM FEW025 SCT045
PHNL,PHNL 051126Z 0512/0618 07008KT P6SM VCSH SCT025 BKN050 BKN150 FM052100 07012G20KT P6SM FEW025 SCT050 FM060900 06008KT P6SM FEW025 SCT050
PHNY,PHNY 051126Z 0512/0612 VRB06KT P6SM FEW020 SCT040 FM052000 VRB06KT P6SM FEW020 BKN040 FM060200 04016G24KT P6SM FEW020 SCT040 FM060700 04009KT P6SM FEW020 SCT040
PHOG,PHOG 051126Z 0512/0612 09005KT P6SM VCSH SCT030 SCT050 FM052100 06015G23KT P6SM FEW030 SCT050 FM060900 06009KT P6SM FEW030 SCT050
PHTO,PHTO 051126Z 0512/0612 23005KT P6SM VCSH SCT025 BKN045 TEMPO 0512/0514 4SM SHRA BR BKN025 OVC040 FM052100 10008KT P6SM FEW025 SCT045 FM060500 23005KT P6SM VCSH SCT025 BKN045
PKMJ,PKMJ 051122Z 0512/0612 10007KT P6SM VCSH FEW015 SCT050 TEMPO 0512/0516 VRB10G20KT 4SM SHRA BKN015
PKWA,PKWA 051122Z 0512/0612 07007KT P6SM VCSH SCT020
PLCH,TAF PLCH 051105Z 0512/0612 10006KT 9999 FEW019 BKN040
PMDY,PMDY 051126Z 0512/0612 33009KT P6SM VCSH FEW015 SCT035 TEMPO 0512/0514 5SM SHRA SCT015 BKN035
PTKK,PTKK 051147Z 0512/0612 VRB05KT P6SM VCSH SCT014 BKN140 TEMPO 0512/0514 4SM SHRA BKN013
PTPN,PTPN 051122Z 0512/0612 VRB05KT P6SM VCSH SCT015 BKN130
PTRO,PTRO 051122Z 0512/0612 VRB05KT P6SM VCSH SCT015 BKN120
PTSA,PTSA 042320Z 0500/0524 10010KT P6SM VCSH SCT018 SCT120 TEMPO 0500/0504 -SHRA BKN018 BKN120
PTYA,PTYA 051122Z 0512/0612 VRB05KT P6SM VCSH FEW016 BKN300
PWAK,TAF PWAK 050600Z 0506/0612 VRB06KT 9000 -SHRA SCT030 BKN040 QNH2987INS TEMPO 0509/0515 13010KT 8000 -TSRA BKN020CB TX31/0506Z TN25/0520Z FOR MIL USE ONLY
RCFN,TAF RCFN 051100Z 0512/0612 36008KT 9999 FEW015 BKN032 BECMG 0522/0524 36005KT TEMPO 0603/0609 06010KT FEW010 BKN020
RCKH,TAF RCKH 051100Z 0512/0618 36005KT 7000 FEW012 BKN032 TEMPO 0518/0524 05005KT 4000 HZ FEW010 BKN020 TEMPO 0603/0609 27008KT
RCMQ,TAF RCMQ 051100Z 0512/0612 02010KT 9999 FEW012 SCT030 BKN060 TX26/0605Z TN17/0521Z BECMG 0515/0518 FEW012 SCT100 TEMPO 0604/0609 9999 -RA FEW010 BKN080 BECMG 0610/0611 FEW010 BKN100
RCNN,TAF RCNN 051100Z 0512/0612 36008KT 9999 FEW012 SCT025 BKN050 TX28/0605Z TN19/0521Z BECMG 0513/0516 03004KT TEMPO 0518/0523 7000 FEW012 SCT050 BECMG 0601/0604 34008KT FEW012 SCT050 BECMG 0605/0608 FEW012 SCT030 BKN080
RCSS,TAF RCSS 051100Z 0512/0612 09012KT 9999 FEW012 BKN032 TEMPO 0512/0518 6000 -RA FEW010 BKN018 TEMPO 0518/0524 08005KT FEW010 BKN020 TEMPO 0603/0609 08017KT TEMPO 0608/0612 5000 RA FEW008 BKN017
RCTP,TAF RCTP 051100Z 0512/0618 04017KT 9999 FEW012 BKN032 TEMPO 0512/0518 FEW010 BKN020 TEMPO 0518/0524 06012KT FEW010 BKN020 TEMPO 0603/0609 05021G31KT TEMPO 0608/0614 FEW008 BKN017
RJAA,TAF RJAA 051105Z 0512/0618 36008KT 9999 FEW030 BECMG 0606/0609 10006KT BECMG 0612/0615 36008KT
RJAH,TAF RJAH 051105Z 0512/0618 36005KT 9999 FEW020 SCT030 BECMG 0603/0606 12006KT BECMG 0609/0612 36005KT
RJBB,TAF RJBB 051106Z 0512/0618 04012KT 9999 FEW020 BECMG 0603/0606 31004KT BECMG 0606/0609 03009KT
RJCB,TAF RJCB 051106Z 0512/0618 18003KT 9999 FEW040 BECMG 0522/0600 32011KT BECMG 0612/0615 24003KT
RJCC,TAF RJCC 051105Z 0512/0618 20006KT 9999 FEW020 BKN050 BECMG 0521/0523 35012KT BECMG 0612/0615 14006KT
RJCH,TAF RJCH 051108Z 0512/0618 32006KT 9999 FEW008 BKN020 BECMG 0600/0603 29016KT BECMG 0609/0612 35006KT
RJCK,TAF RJCK 051108Z 0512/0618 27005KT 9999 FEW030
RJCM,TAF RJCM 051108Z 0512/0618 19006KT 9999 FEW025 SCT050 BECMG 0600/0603 30005KT BECMG 0609/0612 21005KT
RJEC,TAF RJEC 051108Z 0512/0618 17010KT 9999 FEW008 BKN025 BECMG 0522/0600 29012KT BECMG 0606/0609 17008KT
RJFF,TAF RJFF 051105Z 0512/0618 14004KT 9999 FEW030 SCT040 BECMG 0600/0603 33012KT BECMG 0609/0612 14005KT
RJFK,TAF RJFK 051106Z 0512/0618 35008KT 9999 FEW030 BECMG 0600/0603 12005KT BECMG 0609/0612 36005KT
RJFM,TAF RJFM 051106Z 0512/0618 28007KT 9999 FEW030 BECMG 0600/0603 03010KT BECMG 0612/0615 29007KT
RJFO,TAF RJFO 051106Z 0512/0618 29006KT 9999 FEW030
RJFR,TAF RJFR 051108Z 0512/0618 35007KT 9999 FEW020 SCT045
RJFS,TAF RJFS 051107Z 0512/0618 34006KT 9999 FEW040 BECMG 0522/0600 02006KT
RJFT,TAF RJFT 051105Z 0512/0618 06004KT 9999 FEW040 BECMG 0600/0603 30005KT BECMG 0609/0612 06004KT
RJFU,TAF RJFU 051108Z 0512/0618 36011KT 9999 FEW040 BECMG 0612/0615 14004KT
RJGG,TAF RJGG 051105Z 0512/0618 34014KT 9999 FEW030
RJNK,TAF RJNK 051105Z 0512/0618 16004KT 9999 FEW030
RJNS,TAF RJNS 051105Z 0512/0618 32005KT 9999 FEW030 BECMG 0600/0603 18006KT BECMG 0609/0612 33005KT
RJNT,TAF RJNT 051105Z 0512/0618 18004KT 9999 FEW030 BECMG 0600/0603 29005KT BECMG 0606/0609 19004KT
RJOA,TAF RJOA 051105Z 0512/0618 01005KT 9999 FEW030 BECMG 0609/0612 32005KT
RJOB,TAF RJOB 051114Z 0512/0618 36004KT 9999 FEW020 SCT045 BECMG 0603/0606 27005KT BECMG 0609/0612 36004KT
RJOC,TAF RJOC 051111Z 0512/0618 12004KT 9999 FEW020 BKN040 BECMG 0513/0515 17007KT BECMG 0603/0606 35007KT BECMG 0612/0615 16007KT
RJOH,TAF RJOH 051113Z 0512/0618 18006KT 9999 FEW015 BKN040 BECMG 0606/0609 34008KT BECMG 0612/0615 18006KT
RJOI,TAF RJOI 0509/0609 30010KT 9999 FEW030 SCT045 BKN080 521809 QNH3011INS BECMG 0513/0515 31008KT 9999 FEW030 SCT050 521909 QNH3014INS FM052000 02008KT 9999 FEW030 FEW050 521809 QNH3019INS FM060300 05006KT 9999 FEW030 522009 QNH3018INS T10/0521Z T19/0605Z
RJOK,TAF RJOK 051105Z 0512/0618 35008KT CAVOK
RJOM,TAF RJOM 051105Z 0512/0618 30007KT 9999 FEW030 BECMG 0512/0514 12005KT BECMG 0600/0603 35010KT BECMG 0609/0612 12010KT
RJOO,TAF RJOO 051107Z 0512/0618 32004KT CAVOK
RJOT,TAF RJOT 051106Z 0512/0618 15006KT 9999 FEW020
RJSA,TAF RJSA 051105Z 0512/0618 21010KT 9999 FEW030 BKN050 BECMG 0600/0603 27013KT BECMG 0606/0609 21008KT
RJSF,TAF RJSF 051107Z 0512/0618 02005KT 9999 FEW020 BECMG 0612/0615 14005KT
RJSI,TAF RJSI 051105Z 0512/0618 19004KT 9999 FEW020 BKN050 BECMG 0606/0609 01005KT
RJSK,TAF RJSK 051105Z 0512/0618 28005KT 9999 FEW030 BKN050 BECMG 0518/0520 13004KT TEMPO 0603/0606 3000 -SHRA BR FEW002 BKN005 BKN015
RJSN,TAF RJSN 051105Z 0512/0618 19004KT 9999 FEW040 BECMG 0609/0612 16005KT
RJSS,TAF RJSS 051106Z 0512/0618 24005KT 9999 FEW030 BECMG 0600/0603 14005KT BECMG 0606/0609 28005KT
RJTT,TAF RJTT 051105Z 0512/0618 36010KT 9999 FEW030 BECMG 0603/0606 10006KT BECMG 0615/0618 36006KT
RJTY,TAF RJTY 050500Z 0505/0611 VRB06KT 9999 FEW030 BKN060 QNH3007INS BECMG 0516/0517 VRB06KT 9999 FEW050 QNH3008INS TX18/0606Z TN09/0521Z
RKJB,TAF RKJB 051100Z 0512/0618 06005KT 9999 FEW030 TN03/0521Z TX16/0604Z BECMG 0517/0518 11005KT 4000 BR BECMG 0521/0522 7000 NSW BECMG 0602/0603 33006KT BECMG 0612/0613 09005KT 4000 BR BECMG 0616/0617 2000
RKJK,TAF AMD RKJK 040820Z 0408/0514 34010G15KT 9999 FEW030 FEW250 QNH3020INS BECMG 0411/0412 36009KT 9999 SCT025 QNH3023INS WND VRB06KT AFT 0420 TX12/0508Z TN02/0422Z LAST NO AMDS AFT 0408 NEXT 0616
RKNY,TAF RKNY 051100Z 0512/0618 25015G25KT CAVOK TN06/0521Z TX15/0605Z BECMG 0600/0602 26008KT BECMG 0604/0606 10006KT BECMG 0607/0608 25008KT
RKPC,TAF RKPC 051100Z 0512/0618 36007KT 9999 SCT030 TN09/0520Z TX16/0605Z BECMG 0515/0516 17005KT CAVOK BECMG 0600/0601 02006KT BECMG 0609/0610 17005KT
RKPK,TAF RKPK 051100Z 0512/0618 33006KT 9999 SCT030 TN05/0521Z TX18/0606Z
RKSG,TAF RKSG 051100Z 0511/0617 VRB06KT 9999 SKC QNH3023INS BECMG 0612/0613 VRB06KT 9999 FEW027 QNH3026INS TX14/0605Z TN03/0518Z
RKSI,TAF RKSI 051100Z 0512/0618 20006KT CAVOK TN07/0521Z TX15/0605Z BECMG 0513/0515 27006KT BECMG 0523/0601 07006KT BECMG 0603/0605 27006KT BECMG 0611/0613 17006KT
RKSM,TAF RKSM 051100Z 0512/0618 24006KT 9999 SCT030 TN02/0521Z TX14/0606Z
RKSO,TAF RKSO 050500Z 0505/0611 VRB06KT 9999 SKC QNH3023INS TX14/0605Z TN02/0522Z
RKSS,TAF RKSS 051100Z 0512/0618 24005KT CAVOK TN02/0521Z TX17/0605Z BECMG 0515/0517 16005KT 6000 NSC BECMG 0602/0604 27006KT CAVOK BECMG 0611/0613 16005KT 6000 NSC
RKTN,TAF RKTN 051100Z 0512/0618 30006KT 9999 SCT030 TN01/0521Z TX17/0606Z
RKTU,TAF RKTU 051100Z 0512/0618 30006KT 9999 SCT030 TNM02/0521Z TX16/0606Z
ROAH,TAF ROAH 051111Z 0512/0618 03016KT 9999 FEW030 BKN040
RODN,TAF RODN 050800Z 0508/0614 01012KT 9999 BKN040 QNH3006INS TX25/0603Z TN19/0518Z
ROIG,TAF ROIG 051113Z 0512/0618 04014KT 9999 FEW010 BKN020
ROTM,TAF ROTM 0509/0609 02010G15KT 9999 SCT035 BKN045 BKN120 611509 510503 QNH3007INS BECMG 0510/0512 03010KT 9999 SCT035 BKN045 BKN120 611509 510503 QNH3008INS FM052100 03012KT 9999 SCT030 SCT120 611509 510503 QNH3008INS TEMPO 0521/0603 SCT030 BKN120 T19/0518Z T25/0604Z
RPLB,TAF RPLB 051100Z 0512/0612 06006KT 9999 SCT020 TX32/0606Z TN25/0521Z TEMPO 0512/0518 04012KT 9000 -TSRA FEW016CB SCT018 BKN070
RPLC,TAF RPLC 051100Z 0512/0618 05008KT 9999 SCT020 BKN300 TX34/0606Z TN25/0521Z TEMPO 0512/0518 27008KT SCT020 BKN100
RPLI,TAF RPLI 051100Z 0512/0612 02010KT 9999 FEW018 SCT290 TEMPO 0512/0518 FEW017CB FEW018 BKN290
RPLL,TAF RPLL 051100Z 0512/0618 09010KT 9999 FEW025 BKN100 TX31/0605Z TN25/0521Z TEMPO 0512/0518 -SHRA FEW022CB SCT023 BKN090 TEMPO 0600/0606 05003KT FEW023CB BKN100
RPMD,TAF RPMD 051100Z 0512/0612 01007KT 9999 FEW016 SCT090 BKN260 TEMPO 0512/0518 31005KT -SHRA FEW015CB SCT090 BKN260 BECMG 0606/0608 14005KT
RPMR,TAF RPMR 051100Z 0512/0612 17005KT 9999 FEW018 BKN080 TEMPO 0512/0518 VRB02KT -SHRA FEW018CB BKN080
RPMZ,TAF RPMZ 051100Z 0512/0612 28005KT 9999 FEW017 SCT090 BKN300 TEMPO 0512/0518 VRB01KT -SHRA FEW016CB SCT017 BKN300
RPVD,TAF RPVD 051100Z 0512/0612 33006KT 9999 FEW015 SCT070 TEMPO 0512/0518 -SHRA FEW015 BKN070 BECMG 0603/0605 06006KT
RPVM,TAF RPVM 051100Z 0512/0618 03006KT 9999 FEW020 SCT300 TEMPO 0512/0518 02006KT FEW020 TEMPO 0518/0524 36005KT
RPVP,TAF RPVP 051100Z 0512/0612 08008KT 9999 FEW019 SCT240 BECMG 0515/0517 27006KT TEMPO 0518/0524 -SHRA SCT019 BKN240 BECMG 0600/0602 09008KT
SAAR,TAF SAAR 051100Z 0512/0612 07010KT CAVOK TX29/0518Z TN14/0609Z TEMPO 0518/0522 05015G25KT
SABE,TAF SABE 051100Z 0512/0612 05015KT 9999 FEW015 TX23/0518Z TN16/0609Z BECMG 0516/0518 10015G25KT CAVOK BECMG 0600/0602 04010G20KT
SACO,TAF SACO 051100Z 0512/0612 34010KT CAVOK TX30/0518Z TN15/0510Z BECMG 0513/0516 02015KT 9999 FEW050 BECMG 0602/0605 34005KT CAVOK
SADF,TAF SADF 051100Z 0512/0612 05015KT CAVOK TX24/0518Z TN15/0609Z BECMG 0512/0514 9999 SCT020 BECMG 0515/0517 09015G25KT BECMG 0604/0606 05015KT CAVOK
SAEZ,TAF SAEZ 051100Z 0512/0612 05010KT 9999 SCT020 TX25/0518Z TN15/0609Z TEMPO 0515/0520 05015G25KT BECMG 0602/0604 09005KT CAVOK
SAME,TAF SAME 051100Z 0512/0612 18005KT CAVOK TX33/0520Z TN16/0610Z BECMG 0514/0516 05010KT BECMG 0602/0604 20005KT
SANR,TAF SANR 050500Z 0506/0606 05005KT CAVOK TX33/0518Z TN12/0510Z BECMG 0512/0515 02020KT
SANT,TAF SANT 051100Z 0512/0612 34007KT 9000 NSC TX32/0518Z TN16/0510Z TEMPO 0513/0515 VRB05KT BECMG 0518/0521 05015KT 9000 FU NSC BECMG 0602/0605 36005KT 7000 NSC
SARE,TAF SARE 051100Z 0512/0612 11010KT CAVOK TX31/0518Z TN14/0610Z PROB30 0608/0611 3000 BR NSC
SARF,TAF SARF 051100Z 0512/0612 14010KT CAVOK TX31/0518Z TN15/0610Z PROB30 0608/0611 3000 BR NSC
SARI,TAF SARI 051100Z 0512/0612 11010KT CAVOK TX28/0518Z TN15/0610Z PROB30 0608/0611 3000 BR NSC
SARP,TAF SARP 051100Z 0512/0612 11010KT CAVOK TX30/0518Z TN15/0610Z PROB30 0608/0611 3000 BR NSC
SASA,TAF SASA 051100Z 0512/0612 28005KT 5000 FU NSC TX28/0518Z TN10/0510Z BECMG 0513/0516 05015KT 7000 FU NSC BECMG 0602/0605 24005KT 4000 NSC
SASJ,TAF SASJ 051100Z 0512/0612 33005KT 2000 FU NSC TX29/0518Z TN13/0510Z BECMG 0513/0516 05015KT 6000 FU NSC BECMG 0602/0605 27010KT 3000 NSC
SAVC,TAF SAVC 051100Z 0512/0612 VRB05KT CAVOK TX23/0519Z TN12/0512Z BECMG 0516/0518 05012KT SCT035 BECMG 0523/0601 VRB05KT BECMG 0508/0510 27015KT
SAWE,TAF SAWE 051100Z 0512/0612 30020KT CAVOK TX20/0519Z TN05/0610Z BECMG 0600/0602 VRB05KT
SAWG,TAF SAWG 051100Z 0512/0612 VRB05KT CAVOK TX24/0519Z TN06/0610Z BECMG 0514/0516 02020KT BECMG 0523/0601 VRB05KT PROB30 TEMPO 0606/0612 1000 BCFG
SAWH,TAF SAWH 051100Z 0512/0612 VRB05KT 9999 SCT030 BKN045 TX20/0519Z TN05/0610Z TEMPO 0514/0522 32015KT BECMG 0522/0524 SCT030
SAZM,TAF SAZM 051100Z 0512/0612 02010KT CAVOK TX21/0518Z TN12/0609Z BECMG 0512/0514 05015G25KT TEMPO 0517/0523 05020G35KT BECMG 0605/0607 02010KT 0800 FG BKN008
SAZN,TAF SAZN 051100Z 0512/0612 09005KT CAVOK TX33/0519Z TN18/0609Z BECMG 0518/0520 VRB03KT BECMG 0600/0602 05005KT
SAZS,TAF SAZS 051100Z 0512/0612 29005KT 9999 FEW035 SCT100 BKN200 TX24/0519Z TN07/0609Z BECMG 0514/0516 29010G20KT CAVOK BECMG 0522/0600 29005KT
SBAC,TAF SBAC 050850Z 0512/0524 10010KT 9999 SCT025 TN29/0512Z TX32/0517Z BECMG 0516/0518 04017KT BECMG 0521/0522 06010KT FEW030 RMK PGB
SBAF,TAF SBAF 050300Z 0506/0518 23006KT 9999 SCT020 BKN030 TN16/0507Z TX22/0516Z BECMG 0510/0512 17006KT SCT020 RMK PEG
SBAN,TAF SBAN 050300Z 0506/0518 09006KT 9999 SCT030 TN17/0507Z TX25/0518Z BECMG 0514/0516 26006KT RMK PEG
SBAR,TAF SBAR 050850Z 0512/0612 20010KT 7000 SCT015 OVC040 TX27/0515Z TN24/0608Z BECMG 0516/0518 17015KT 4000 SHRA BKN015 FEW030TCU BECMG 0522/0524 21010KT 7000 NSW BKN017 OVC030 TEMPO 0606/0612 17015KT 3000 RA BR BKN010 OVC020 RMK PGB
SBAT,TAF SBAT 050042Z 0506/0518 19005KT 9999 FEW035 TN23/0509Z TX33/0517Z PROB30 0515/0518 TS BKN015 FEW025CB RMK PGA
SBBE,TAF SBBE 050837Z 0512/0612 05005KT 8000 SCT015 TX29/0518Z TN25/0609Z BECMG 0512/0514 31005KT TEMPO 0515/0521 4000 TSRA BKN010 FEW025CB BECMG 0522/0524 06005KT TEMPO 0600/0606 4000 TSRA BKN010 FEW025CB BECMG 0606/0608 12005KT RMK PHI
SBBG,TAF SBBG 050900Z 0512/0524 09009KT 8000 SCT012 TN10/0512Z TX23/0517Z BECMG 0513/0515 11017KT 9999 SCT030 BECMG 0521/0523 CAVOK RMK PEN
SBBI,TAF SBBI 050300Z 0506/0518 11006KT 2000 BR BKN002 TN09/0506Z TX17/0517Z BECMG 0510/0512 8000 BKN025 BECMG 0514/0516 9999 SCT040 RMK PEG
SBBR,TAF SBBR 050830Z 0512/0612 11008KT CAVOK TX25/0517Z TN16/0609Z BECMG 0513/0515 BKN030 BECMG 0523/0601 CAVOK BECMG 0609/0611 04010KT PROB30 0611/0612 04010G20KT RMK PHH
SBBU,TAF SBBU 050415Z 0506/0518 15012KT CAVOK TN13/0509Z TX25/0517Z BECMG 0513/0515 SCT045 RMK PGG
SBBV,TAF SBBV 050837Z 0512/0612 24008KT 9999 FEW030 TX29/0519Z TN22/0610Z TEMPO 0515/0521 4000 SHRA BKN012 FEW030TCU BECMG 0603/0605 30005KT TEMPO 0606/0612 4000 TSRA BKN010 FEW025CB RMK PHI
SBBW,TAF SBBW 042230Z 0506/0518 15005KT 9999 FEW020 TN19/0509Z TX31/0517Z BECMG 0511/0513 10005KT BECMG 0514/0516 20002KT SCT030 BECMG 0516/0518 18005KT RMK PHG
SBCB,TAF SBCB 050850Z 0512/0524 23015KT 9999 SCT023 TX24/0516Z TN18/0523Z BECMG 0515/0517 20020KT SCT020 BKN030 BECMG 0520/0522 18010KT SCT017 RMK PGB
SBCF,TAF SBCF 050830Z 0512/0612 13008KT CAVOK TX24/0517Z TN13/0609Z BECMG 0513/0515 BKN025 BECMG 0522/0524 13011KT FEW035 RMK PHH
SBCG,TAF SBCG 050830Z 0512/0612 13010KT CAVOK TX28/0517Z TN16/0609Z BECMG 0513/0515 10008KT BECMG 0520/0522 13008KT BECMG 0609/0611 13011KT PROB30 0611/0612 13011G21KT RMK PHH
SBCJ,TAF SBCJ 050837Z 0512/0524 29005KT 4000 BR BKN007 TN24/0512Z TX28/0516Z BECMG 0513/0515 7000 NSW BKN020 RMK PHI
SBCO,TAF SBCO 050300Z 0506/0518 10005KT 8000 SCT010 TN13/0506Z TX24/0517Z PROB40 TEMPO 0507/0511 0800 FG BKN005 BECMG 0512/0514 12015G25KT 9999 SCT030 RMK PEN
SBCP,TAF SBCP 050850Z 0512/0524 23015KT 9999 SCT025 TX26/0516Z TN19/0523Z BECMG 0515/0517 19020KT FEW030 BECMG 0521/0523 24010KT SCT023 RMK PGB
SBCR,TAF SBCR 050830Z 0512/0612 14008KT CAVOK TX31/0517Z TN20/0609Z BECMG 0519/0521 20005KT BECMG 0600/0602 17005KT BECMG 0607/0609 13008KT PROB30 0611/0612 13008G18KT RMK PHH
SBCT,TAF SBCT 050900Z 0512/0612 12006KT 9999 SCT025 TX16/0517Z TN09/0602Z BECMG 0514/0516 SCT040 BECMG 0520/0522 BKN010 BECMG 0522/0524 8000 BKN002 BECMG 0610/0612 9999 BKN020 RMK PEG
SBCY,TAF SBCY 050837Z 0512/0612 17007KT CAVOK TX33/0518Z TN20/0608Z BECMG 0604/0606 26005KT BECMG 0608/0610 17005KT RMK PHI
SBCZ,TAF SBCZ 050837Z 0512/0612 13007KT CAVOK TX33/0519Z TN21/0606Z BECMG 0522/0524 00000KT BECMG 0610/0612 13005KT RMK PHI
SBDN,TAF SBDN 042300Z 0506/0518 13010KT CAVOK TN13/0509Z TX27/0518Z BECMG 0513/0515 FEW030 RMK PGN
SBEG,TAF SBEG 050837Z 0512/0612 24005KT 9999 FEW015 TX30/0519Z TN22/0610Z PROB30 0516/0519 TS SCT020 FEW025CB BECMG 0523/0601 30005KT BECMG 0610/0612 24005KT RMK PHI
SBFI,TAF SBFI 050900Z 0512/0612 02006KT CAVOK TX26/0516Z TN15/0603Z BECMG 0603/0605 09005KT BECMG 0610/0612 36005KT RMK PEG
SBFL,TAF SBFL 051000Z 0512/0612 27006KT 9999 SCT027 TX20/0517Z TN15/0607Z BECMG 0513/0515 15008KT SCT030 FEW035TCU BECMG 0521/0523 16005KT FEW030 RMK PEW
SBFN,TAF SBFN 050850Z 0512/0524 13015KT 9999 FEW025 TX30/0516Z TN25/0523Z BECMG 0517/0519 15015KT SCT020 RMK PGB
SBFZ,TAF SBFZ 050850Z 0512/0612 11015KT 9999 BKN025 TX31/0516Z TN25/0608Z BECMG 0516/0518 09020KT SCT025 BECMG 0600/0602 11010KT SCT020 BECMG 0606/0608 15015KT BKN023 BECMG 0610/0612 11015KT RMK PGB
SBGL,TAF SBGL 050850Z 0512/0618 24007KT 9999 SCT025 TN16/0608Z TX25/0617Z BECMG 0515/0517 18015KT SCT020 BKN035 BECMG 0521/0523 23010KT 8000 BECMG 0604/0606 31007KT SCT017 BECMG 0610/0612 23010KT 9999 SCT030 BECMG 0614/0616 19015KT 8000 SCT020 BKN025 RMK PGB
SBGO,TAF SBGO 050830Z 0512/0612 14010KT CAVOK TX28/0517Z TN18/0609Z BECMG 0513/0515 07007KT BKN030 BECMG 0520/0522 15007KT BECMG 0523/0601 CAVOK BECMG 0603/0605 06007KT BECMG 0609/0611 04010KT RMK PHH
SBGR,TAF SBGR 050815Z 0512/0618 10005KT 9999 FEW020 TN12/0609Z TX21/0618Z BECMG 0513/0515 BKN035 BECMG 0515/0517 16010KT BECMG 0600/0602 10005KT FEW018 PROB30 0606/0612 5000 BR BKN009 BECMG 0615/0617 16010KT BKN035 RMK PGG
SBGW,TAF SBGW 050300Z 0506/0518 08005KT 9999 BKN030 TN13/0507Z TX21/0516Z BECMG 0512/0514 26006KT SCT035 RMK PEG
SBIH,TAF SBIH 050042Z 0506/0518 29005KT 8000 SCT020 TN24/0509Z TX33/0517Z PROB30 0509/0512 5000 BR NSC BECMG 0514/0516 22008KT SCT020 FEW025TCU RMK PGA
SBIL,TAF SBIL 050430Z 0506/0518 21010KT 9999 SCT018 BKN040 TN21/0509Z TX25/0517Z TEMPO 0508/0511 7000 SHRA SCT017 FEW030TCU TEMPO 0515/0518 18008KT RMK PHH
SBIZ,TAF SBIZ 050042Z 0506/0518 03006KT 7000 BKN020 TN24/0509Z TX27/0517Z PROB30 0508/0512 5000 BR BKN015 BECMG 0513/0515 8000 BKN020 FEW025TCU PROB30 TEMPO 0515/0518 4000 TSRA BKN015 FEW025CB RMK PGA
SBJE,TAF SBJE 050850Z 0512/0524 09010KT 9999 BKN025 TN30/0512Z TX35/0517Z BECMG 0516/0518 05017KT 8000 BKN020 BECMG 0521/0523 08012KT 9999 SCT025 RMK PGB
SBJP,TAF SBJP 050850Z 0512/0612 07010KT 8000 BKN020 TX31/0516Z TN24/0608Z BECMG 0517/0519 10010KT 6000 RA SCT012 BKN025 BECMG 0521/0523 14010KT 8000 NSW SCT023 BECMG 0601/0603 18007KT BKN020 BECMG 0608/0610 14010KT 6000 DZ SCT010 BKN015 RMK PGB
SBJV,TAF SBJV 050400Z 0506/0518 20005KT 9999 FEW023 TN13/0508Z TX21/0517Z BECMG 0510/0512 15006KT SCT025 BECMG 0516/0518 SHRA SCT025 FEW030TCU RMK PEW
SBKG,TAF SBKG 050045Z 0506/0518 09015KT 9999 SCT020 TN21/0507Z TX28/0517Z RMK PGX
SBKP,TAF SBKP 050815Z 0512/0612 13010KT CAVOK TX24/0518Z TN14/0609Z BECMG 0513/0515 SCT040 BECMG 0517/0519 15015KT BECMG 0520/0522 CAVOK BECMG 0522/0524 12010KT RMK PGG
SBLO,TAF SBLO 050815Z 0512/0524 12010KT CAVOK TN18/0512Z TX25/0518Z BECMG 0514/0516 SCT040 RMK PGG
SBMA,TAF SBMA 050837Z 0512/0524 34005KT 7000 SCT015 FEW030TCU TX29/0518Z TN25/0524Z RMK PHI
SBME,TAF SBME 050045Z 0506/0518 19008KT 7000 SCT020 BKN040 TN17/0508Z TX25/0517Z BECMG 0510/0512 24013KT 9999 FEW020 RMK PGX
SBMN,TAF SBMN 051000Z 0512/0524 30005KT 9999 FEW033 TX30/0517Z TN25/0523Z BECMG 0517/0519 24008KT BECMG 0521/0523 02005KT CAVOK RMK PEW
SBMO,TAF SBMO 050850Z 0512/0612 29013KT 2500 TSRA BKN012 FEW025CB TX25/0518Z TN22/0608Z BECMG 0517/0519 15010KT 6000 RA BKN015 OVC025 BECMG 0520/0522 24010KT 8000 NSW BKN017 OVC030 BECMG 0600/0602 33007KT BECMG 0608/0610 24007KT 6000 DZ SCT010 BKN020 RMK PGB
SBMQ,TAF SBMQ 050837Z 0512/0612 27005KT 8000 SCT015 TX30/0517Z TN25/0609Z TEMPO 0515/0521 4000 TSRA BKN012 FEW025CB BECMG 0521/0523 36005KT BECMG 0607/0609 27005KT PROB30 0609/0612 BKN007 RMK PHI
SBNF,TAF SBNF 051000Z 0512/0612 28005KT 9999 BKN040 TX21/0517Z TN14/0608Z BECMG 0513/0515 15010KT SCT030 BECMG 0521/0523 16005KT FEW020 PROB30 0608/0611 4000 BR BKN010 RMK PEW
SBNT,TAF SBNT 050850Z 0512/0524 09010KT 8000 SCT025 TX31/0516Z TN25/0523Z BECMG 0516/0518 13017KT BECMG 0521/0523 15010KT 9999 RMK PGB
SBOI,TAF SBOI 050837Z 0512/0524 26005KT 8000 BKN015 TX30/0517Z TN25/0522Z BECMG 0516/0518 05005KT TEMPO 0518/0521 3000 TSRA BKN012 FEW030CB RMK PHI
SBPA,TAF SBPA 050900Z 0512/0612 07008KT 9999 FEW030 TX25/0517Z TN15/0606Z BECMG 0513/0515 12017KT CAVOK BECMG 0516/0518 11015G25KT 9999 SCT030 BECMG 0522/0524 CAVOK RMK PEN
SBPB,TAF SBPB 050850Z 0512/0524 12015KT 9999 SCT025 TN29/0512Z TX33/0516Z BECMG 0515/0517 09020KT BKN020 BECMG 0520/0522 12015KT SCT030 RMK PGB
SBPJ,TAF SBPJ 050850Z 0512/0612 05010KT 8000 BKN030 TX29/0517Z TN22/0608Z BECMG 0517/0518 01007KT 5000 SHRA BKN016 FEW030TCU BECMG 0522/0524 05007KT 8000 NSW TEMPO 0602/0609 14010KT 3500 TSRA BKN012 FEW025CB BECMG 0609/0611 06010KT 6000 RA SCT007 OVC015 RMK PGB
SBPK,TAF SBPK 050900Z 0512/0612 34009KT 8000 SCT015 TX24/0517Z TN10/0606Z BECMG 0514/0516 6000 -RA SCT012 BKN020 BECMG 0520/0522 9999 SCT040 RMK PEN
SBPL,TAF SBPL 050850Z 0512/0612 14010KT 8000 BKN020 TX27/0519Z TN21/0609Z BECMG 0518/0520 11010KT BKN025 FEW035TCU BECMG 0523/0601 16010KT BKN020 TEMPO 0602/0612 6000 RA SCT010 OVC016 RMK PGB
SBPP,TAF SBPP 050815Z 0512/0612 09010KT CAVOK TX27/0518Z TN14/0610Z BECMG 0519/0521 09005KT RMK PGG
SBPS,TAF SBPS 050850Z 0512/0612 19015KT 8000 SCT015 BKN040 TX26/0516Z TN18/0608Z BECMG 0518/0520 17015KT 6000 RA BECMG 0600/0602 20015KT 8000 NSW BKN020 BECMG 0605/0608 23010KT 6000 DZ SCT010 OVC020 RMK PGB
SBPV,TAF SBPV 050837Z 0512/0612 19005KT 7000 FEW005 TX34/0519Z TN22/0610Z PROB30 0512/0514 4000 BR BKN004 BECMG 0518/0521 28002KT BECMG 0610/0612 19005KT RMK PHI
SBRB,TAF SBRB 050837Z 0512/0524 17007KT CAVOK TN21/0512Z TX33/0518Z RMK PHI
SBRF,TAF SBRF 050850Z 0512/0612 01007KT 6000 RA SCT012 BKN020 TX28/0516Z TN25/0608Z BECMG 0514/0516 10010KT 8000 NSW SCT017 BKN030 BECMG 0521/0523 15010KT SCT023 BECMG 0601/0603 18007KT BKN020 BECMG 0608/0610 14010KT 6000 DZ SCT010 BKN015 RMK PGB
SBRJ,TAF SBRJ 050850Z 0512/0524 26007KT 9999 SCT025 TX24/0517Z TN18/0523Z BECMG 0515/0517 19015KT SCT020 BKN035 BECMG 0521/0523 22010KT 8000 RMK PGB
SBRP,TAF SBRP 050830Z 0512/0524 12005KT CAVOK TX26/0518Z TN19/0523Z BECMG 0515/0517 15005KT SCT045 BECMG 0520/0522 14008KT TEMPO 0522/0524 14008G18KT RMK PHH
SBSC,TAF SBSC 050300Z 0506/0518 18006KT 8000 RA BKN015 BKN030 TN16/0508Z TX21/0516Z BECMG 0508/0510 9999 SCT020 RMK PEG
SBSG,TAF SBSG 050850Z 0512/0612 10010KT 8000 SCT025 TX31/0516Z TN23/0608Z BECMG 0516/0518 14017KT BECMG 0521/0523 12010KT 9999 BECMG 0602/0604 21007KT BKN020 BECMG 0608/0610 15010KT 6000 DZ SCT010 BKN017 RMK PGB
SBSJ,TAF SBSJ 050815Z 0512/0524 14005KT 9999 SCT025 TX20/0518Z TN14/0523Z BECMG 0514/0516 BKN035 BECMG 0517/0519 16010KT RMK PGG
SBSL,TAF SBSL 050850Z 0512/0612 06010KT 9999 BKN025 TX34/0518Z TN26/0609Z BECMG 0515/0517 03015KT FEW030 BECMG 0520/0522 05010KT BECMG 0604/0606 07010KT SCT017 BKN030 BECMG 0609/0611 10010KT 8000 DZ SCT012 OVC030 RMK PGB
SBSM,TAF SBSM 050300Z 0506/0518 11007KT 8000 NSC TN12/0506Z TX23/0517Z BECMG 0508/0510 4000 BR SCT006 BECMG 0512/0514 12015G25KT 9999 SCT030 RMK PEN
SBSN,TAF SBSN 050837Z 0512/0612 28007KT 8000 SCT015 TX29/0518Z TN25/0609Z TEMPO 0515/0521 4000 TSRA BKN015 FEW025CB BECMG 0522/0524 05005KT PROB30 TEMPO 0604/0609 4000 TSRA BKN010 FEW020CB RMK PHI
SBSP,TAF SBSP 050815Z 0512/0524 12005KT 9999 BKN030 TX18/0517Z TN13/0523Z BECMG 0514/0516 18010KT RMK PGG
SBSV,TAF SBSV 050830Z 0512/0612 19018KT 7000 SHRA BKN017 FEW023TCU TX26/0517Z TN24/0608Z TEMPO 0512/0513 19013G23KT 6000 TSRA SCT010 BKN015 FEW025CB TEMPO 0518/0521 5000 RA BKN020 FEW023TCU RMK PHH
SBTD,TAF SBTD 050815Z 0512/0524 06010KT CAVOK TN18/0512Z TX24/0518Z BECMG 0516/0518 12010KT SCT035 RMK PGG
SBTE,TAF SBTE 050850Z 0512/0524 36005KT 7000 DZ SCT013 BKN030 TX29/0518Z TN25/0523Z BECMG 0516/0518 9999 NSW SCT025 BECMG 0520/0522 22007KT CAVOK RMK PGB
SBTF,TAF SBTF 050837Z 0512/0524 29005KT 9999 FEW008 TN25/0512Z TX32/0518Z RMK PHI
SBTT,TAF SBTT 050837Z 0512/0612 32005KT 9999 FEW020 TX32/0519Z TN24/0611Z BECMG 0513/0515 18005KT BECMG 0522/0524 08005KT RMK PHI
SBUG,TAF SBUG 050900Z 0512/0524 08015KT CAVOK TN14/0512Z TX26/0517Z BECMG 0520/0522 9999 SCT040 RMK PEN
SBUL,TAF SBUL 050430Z 0506/0518 10007KT 9999 SCT040 TN16/0509Z TX26/0518Z BECMG 0506/0507 CAVOK BECMG 0510/0512 08006KT BECMG 0516/0518 17005KT RMK PHH
SBUR,TAF SBUR 050430Z 0506/0518 09006KT CAVOK TN15/0509Z TX25/0518Z BECMG 0510/0512 07006KT BECMG 0516/0518 17005KT RMK PHH
SBVH,TAF SBVH 050042Z 0506/0518 17005KT 9999 FEW020 TN18/0509Z TX30/0517Z RMK PGA
SBVT,TAF SBVT 050850Z 0512/0612 20017KT 9999 FEW030 TX26/0516Z TN17/0608Z BECMG 0516/0518 18025KT SCT025 BECMG 0521/0523 21015KT FEW025 BECMG 0602/0604 25010KT BECMG 0608/0610 20013KT SCT017 RMK PGB
SBYS,TAF SBYS 050300Z 0506/0518 17007KT 9999 SCT040 TN12/0507Z TX25/0517Z BECMG 0510/0512 CAVOK RMK PEG
SCAR,TAF SCAR 051010Z 0512/0612 21004KT 9999 OVC030 TX20/0518Z TN17/0610Z BECMG 0516/0518 22012KT CAVOK BECMG 0523/0601 21004KT BECMG 0602/0604 OVC025
SCAT,TAF SCAT 051010Z 0512/0612 24004KT 9999 OVC015 TX17/0518Z TN12/0610Z BECMG 0514/0516 27008KT OVC020 BECMG 0517/0519 24012KT CAVOK BECMG 0523/0601 OVC012 BECMG 0603/0605 24004KT OVC008
SCBA,TAF SCBA 051042Z 0512/0612 VRB02KT CAVOK TN13/0512Z TX26/0518Z BECMG 0513/0515 30020KT BECMG 0603/0605 FEW040 BKN200
SCCF,TAF SCCF 051010Z 0512/0612 11015KT CAVOK TX24/0518Z TN04/0610Z BECMG 0513/0514 09004KT BECMG 0516/0518 27020KT BECMG 0600/0601 27010KT BECMG 0603/0605 11015KT
SCCI,TAF SCCI 051019Z 0512/0612 30010KT CAVOK TX21/0518Z TN08/0606Z TEMPO 0518/0603 VRB03KT BECMG 0602/0604 16005KT TEMPO 0603/0612 FEW010
SCCY,TAF SCCY 051039Z 0512/0524 04006KT CAVOK TN13/0512Z TX25/0519Z BECMG 0514/0516 23007KT BECMG 0521/0523 FEW040 BKN100
SCDA,TAF SCDA 051010Z 0512/0612 22004KT 9999 OVC030 TX19/0518Z TN16/0610Z BECMG 0514/0516 23012KT FEW030 BECMG 0522/0600 BKN025 BECMG 0602/0604 21004KT
SCEL,TAF SCEL 051000Z 0512/0612 18003KT CAVOK TX26/0519Z TN09/0610Z BECMG 0514/0516 16008KT BECMG 0519/0521 20013KT BECMG 0602/0604 16005KT
SCFA,TAF SCFA 051010Z 0512/0612 21004KT 9999 BKN025 TX17/0518Z TN15/0610Z BECMG 0514/0516 20012KT FEW020 BECMG 0523/0601 BKN015 BECMG 0603/0605 21004KT
SCIE,TAF SCIE 051000Z 0512/0612 06004KT 9999 BKN025 TX16/0518Z TN11/0610Z BECMG 0514/0516 30006KT SCT025 BECMG 0517/0519 24008KT CAVOK BECMG 0601/0603 23004KT
SCIP,TAF SCIP 051032Z 0512/0612 21004KT 9999 SCT030 TX23/0520Z TN16/0510Z BECMG 0516/0518 24010KT BKN040 BECMG 0603/0605 24004KT TEMPO 0608/0612 7000 -SHRA BKN030
SCJO,TAF SCJO 051027Z 0512/0524 03005KT 9999 OVC015 TN12/0512Z TX19/0519Z BECMG 0517/0519 25006KT BKN025 BECMG 0521/0523 SCT025
SCNT,TAF SCNT 051022Z 0512/0600 36007KT CAVOK TX22/0518Z TN07/0512Z TEMPO 0520/0600 VRB03KT
SCQP,TAF SCQP 051022Z 0512/0612 VRB02KT 7000 -DZ OVC007 TN12/0512Z TX20/0519Z BECMG 0513/0515 9999 NSW BKN025 BECMG 0519/0521 24008KT CAVOK BECMG 0601/0603 VRB02KT BECMG 0603/0605 0500 FG OVC001
SCSE,TAF SCSE 051000Z 0512/0612 27003KT 9999 OVC020 TX18/0519Z TN11/0610Z BECMG 0514/0516 28010KT SCT020 BECMG 0516/0518 CAVOK BECMG 0601/0603 25004KT TEMPO 0606/0612 BKN012
SCTE,TAF SCTE 051032Z 0512/0612 15005KT 3000 -DZ BR OVC003 TN12/0512Z TX16/0518Z BECMG 0514/0516 9999 NSW OVC015 TEMPO 0516/0521 5000 -DZ BKN005 OVC015 BECMG 0603/0605 VRB02KT OVC007
SCVM,TAF SCVM 051000Z 0512/0612 21004KT 9999 BKN020 TX18/0519Z TN11/0610Z BECMG 0512/0514 VRB02KT SCT015 BECMG 0514/0516 32010KT CAVOK BECMG 0601/0603 29004KT
SEGU,SEGU 051020Z 0512/0612 22010KT 9999 SCT026 SCT100 BECMG 0516/0518 15008KT BECMG 0600/0602 22010KT BECMG 0603/0605 FEW013 SCT026 BKN100 TX30/0520Z TN20/0610Z
SELT,SELT 051020Z 0512/0612 36004KT 9999 SCT010 BKN026 BECMG 0513/0515 18006KT SCT030 SCT100 BECMG 0516/0518 18016KT BECMG 0521/0523 19006KT BKN030 BECMG 0601/0603 36004KT SCT010 BKN030 TX18/0519Z TN07/0611Z
SEMT,SEMT 051020Z 0512/0612 20008KT 9999 OVC020 BECMG 0513/0515 SCT023 BECMG 0603/0605 BKN020 TX29/0520Z TN20/0610Z
SEQM,SEQM 051020Z 0512/0612 VRB03KT 9999 SCT030 SCT100 BECMG 0516/0518 36015KT TEMPO 0519/0522 SHRA FEW026TCU BKN030 BECMG 0523/0601 02005KT FEW010 BKN026 BKN100 TX23/0519Z TN11/0611Z
SGAS,TAF SGAS 051010Z 0512/0612 12005KT CAVOK TX30/0519Z TN16/0610Z BECMG 0516/0519 VRB05KT 9999 SCT033 BECMG 0600/0600 07005KT CAVOK
SGCO,TAF SGCO 051010Z 0512/0612 09006KT CAVOK TX32/0519Z TN16/0610Z
SGEN,TAF SGEN 051010Z 0512/0612 07005KT CAVOK TX29/0519Z TN15/0610Z
SGES,TAF SGES 051010Z 0512/0612 15008KT CAVOK TX29/0519Z TN17/0610Z BECMG 0516/0519 04008KT 9999 SCT030 BECMG 0600/0603 CAVOK
SKAR,TAF SKAR 051030Z 0512/0612 VRB02KT 9999 SCT015 TEMPO 0512/0515 4000 BR BKN015 TEMPO 0519/0522 SCT017TCU PROB40 TEMPO 0522/0602 DZRA BKN017 BECMG 0610/0612 4000 BR BKN010 TX27/0520Z TN18/0611Z
SKBG,TAF SKBG 051030Z 0512/0612 17004KT 4000 BCFG SCT010 BKN070 BECMG 0514/0516 32007KT 9999 NSW SCT015 SCT070 TEMPO 0520/0522 DZ SCT010TCU BECMG 0604/0606 16004KT TX26/0519Z TN17/0610Z
SKBO,TAF SKBO 051030Z 0512/0612 VRB02KT 9999 FEW017 SCT090 BECMG 0515/0517 25010KT TEMPO 0521/0523 DZ SCT017TCU BKN080 BECMG 0523/0601 VRB02KT TX20/0519Z TN09/0610Z
SKBQ,TAF SKBQ 051030Z 0512/0612 18008KT 9999 SCT015 TEMPO 0512/0514 5000 RA SCT010CB TEMPO 0514/0518 RA SCT010CB TEMPO 0518/0522 4000 TSRA SCT010CB TEMPO 0523/0602 TSRA SCT010CB TX31/0516Z TN24/0610Z
SKCC,TAF SKCC 051030Z 0512/0612 17016KT 9999 SCT020 SCT090 TX32/0518Z TN23/0610Z
SKCG,TAF SKCG 051030Z 0512/0612 17010KT 9999 FEW017 SCT090 TEMPO 0517/0521 DZ SCT015TCU BKN080 TX30/0518Z TN26/0610Z
SKCL,TAF SKCL 051030Z 0512/0612 VRB02KT 9999 SCT020 TEMPO 0518/0521 SCT020TCU BECMG 0521/0522 32012KT BECMG 0602/0604 03005KT TX30/0520Z TN19/0610Z
SKLT,TAF SKLT 051030Z 0512/0612 00000KT 9999 FEW015 BKN090 BECMG 0514/0516 25007KT FM052300 00000KT CAVOK TX31/0518Z TN19/0610Z
SKPE,TAF SKPE 051030Z 0512/0612 VRB02KT 4000 BR BKN010 BECMG 0514/0516 9999 NSW SCT017 TEMPO 0517/0520 SCT017TCU TEMPO 0521/0601 DZ SCT017 BKN070 BECMG 0610/0612 4000 BR BKN010 TX27/0520Z TN18/0611Z
SKRG,TAF SKRG 051030Z 0512/0612 VRB02KT 9999 SCT010 BKN080 BECMG 0514/0516 14010KT SCT020 TEMPO 0519/0522 5000 TSRA BKN015CB BECMG 0600/0601 VRB02KT SCT010 TEMPO 0602/0605 DZ BKN010 TX21/0519Z TN13/0610Z
SKSM,TAF SKSM 051030Z 0512/0612 18008KT 9999 SCT020 TEMPO 0512/0514 5000 RA SCT016CB TEMPO 0514/0518 TSRA SCT016CB TEMPO 0519/0521 TSRA SCT018CB TEMPO 0522/0602 TSRA SCT016CB TX32/0519Z TN23/0609Z
SKSP,TAF SKSP 051030Z 0512/0612 07008KT 9999 FEW017 BKN090 TEMPO 0515/0519 RA SCT015TCU TEMPO 0519/0524 16005KT TX30/0519Z TN17/0610Z
SLAL,TAF SLAL 051000Z 0512/0612 00000KT 9999 NSC TX22/0519Z TN07/0611Z BECMG 0514/0516 02016KT BECMG 0603/0605 00000KT SCT010
SLCB,TAF COR SLCB 051000Z 0512/0612 00000KT 9999 FEW033 TX33/0519Z TN08/0611Z BECMG 0514/0516 24010KT BECMG 0519/0521 12010KT TEMPO 0521/0600 13012G25KT BECMG 0602/0604 00000KT
SLCO,TAF SLCO 051000Z 0512/0612 16010KT 9999 FEW023 TX33/0519Z TN18/0610Z BECMG 0523/0603 VRB02KT SCT011
SLET,TAF COR SLET 051000Z 0512/0612 20015KT 9999 NSC TX31/0520Z TN16/0610Z TEMPO 0516/0519 09006KT SCT023 BECMG 0522/0524 VRB02KT BECMG 0609/ 0611 18012KT SCT070
SLLP,TAF COR SLLP 051000Z 0512/0612 VRB02KT 9999 FEW013 TX20/0519Z TNM02/ 0610Z BECMG 0514/0516 13010KT TEMPO 0518/0522 26010KT BECMG 0600/0602 06005KT
SLTJ,TAF COR SLTJ 051000Z 0512/0612 00000KT 9999 NSC TX26/0519Z TN05/0611Z BECMG 0515/0517 14010KT BECMG 0523/0601 00000KT
SLTR,TAF COR SLTR 051000Z 0512/0612 15011KT 9999 FEW020 TX32/0519Z TN15/0610Z BECMG 0523/0602 00000KT NSC
SLVR,TAF COR SLVR 051000Z 0512/0612 20015KT 9999 NSC TX31/0520Z TN16/0610Z TEMPO 0516/0519 09006KT SCT023 BECMG 0522/0524 VRB02KT BECMG 0609/ 0611 18012KT SCT070
SMJP,TAF SMJP 051000Z 0512/0612 18004KT 9999 FEW012 SCT020 TX30/0518Z TN23/0607Z TEMPO 0517/0522 3000 TSRA FEW018CB SCT025 PROB30 TEMPO 0608/0612 2000 BR SCT001
SMZO,TAF SMZO 051000Z 0512/0612 16004KT 9999 FEW015 SCT020 TX31/0516Z TN24/0608Z TEMPO 0517/0521 5000 TSRA FEW018CB SCT025
SOCA,TAF SOCA 051000Z 0512/0612 VRB02KT 9999 BKN015 TEMPO 0514/0519 02010G20KT 2000 SHRA SCT012 BKN020CB PROB30 TEMPO 0517/0519 02010G20KT 1000 TSRA SCT008 BKN010CB
SPCL,TAF SPCL 051100Z 0512/0612 09005KT 9999 FEW020 TX33/0519Z TN23/0611Z TEMPO 0608/0612 2000 BR BKN005
SPEO,TAF SPEO 051110Z 0512/0612 18005KT 9999 OVC012 TX21/0519Z TN14/0611Z BECMG 0515/0517 19015KT CAVOK BECMG 0604/0406 19005KT
SPGM,TAF SPGM 051100Z 0512/0612 08005KT 9999 FEW030 SCT100 TX29/0519Z TN17/0610Z
SPHI,TAF SPHI 051110Z 0512/0612 18015KT 9999 BKN010 TX23/0519Z TN16/0611Z BECMG 0514/0516 SCT012 BECMG 0602/0605 BKN014 BECMG 0606/0608 17005KT
SPHO,TAF SPHO 051105Z 0512/0612 00000KT 9999 FEW090 TX27/0519Z TN12/0611Z TEMPO 0518/0520 02012KT FEW045TCU SCT090
SPHY,TAF SPHY 051105Z 0512/0612 00000KT 9999 FEW012 TX18/0519Z TN04/0611Z BECMG 0516/0518 36012KT BECMG 0521/0523 00000KT
SPJC,TAF SPJC 051100Z 0512/0612 16008KT 9999 OVC016 TX20/0519Z TN15/0611Z TEMPO 0512/0513 OVC013 BECMG 0513/0515 23006KT FM051800 16012KT 9999 BKN022 BECMG 0602/0604 16008KT OVC014
SPJI,TAF SPJI 051100Z 0512/0612 12005KT 9999 FEW020 TX33/0519Z TN20/0611Z TEMPO 0509/0612 4000 BR BKN005
SPJL,TAF SPJL 051124Z 0512/0612 20007KT CAVOK TX21/0519Z TN01/0610Z BECMG 0519/0521 12012KT BECMG 0523/0601 20005KT
SPJR,TAF SPJR 051100Z 0512/0612 VRB03KT CAVOK TX25/0519Z TN06/0610Z FM051900 18008KT 9999 SCT025 SCT050 FM060100 VRB03KT 9999 FEW023 SCT080
SPLO,TAF SPLO 051124Z 0512/0612 20008KT 9999 BKN030 TX22/0519Z TN16/0611Z
SPME,TAF SPME 051110Z 0512/0612 35010KT 9999 BKN015 TX25/0519Z TN19/0611Z BECMG 0520/0522 27005KT
SPMS,TAF SPMS 051100Z 0512/0612 09005KT 9999 FEW020 TX33/0512Z TN23/0611Z TEMPO 0608/0612 2000 BR BKN005
SPNC,TAF SPNC 051100Z 0512/0612 VRB03KT 9999 FEW040 SCT110 TX28/0518Z TN14/0610Z BECMG 0514/0517 07014KT BECMG 0600/0602 VRB03KT
SPPY,TAF SPPY 051100Z 0512/0612 10008KT 9999 SCT025 TX23/0519Z TN08/0611Z TEMPO 0512/0514 3000 BCFG SCT010 BKN050 TEMPO 0608/0612 4000 BCFG SCT010 BKN050
SPQT,TAF SPQT 051100Z 0512/0612 00000KT 9999 FEW010 BKN080 TX32/0519Z TN23/0611Z BECMG 0514/0517 09005KT 9999 SCT025 TEMPO 0608/0612 00000KT 0800 FG BKN002
SPQU,TAF SPQU 051124Z 0512/0612 22006KT CAVOK TX22/0518Z TN09/0610Z BECMG 0515/0517 28011KT BECMG 0522/0524 06005KT
SPRU,TAF SPRU 051110Z 0512/0612 14005KT 6000 SCT020 TX19/0519Z TN15/0611Z TEMPO 0512/0514 BKN010 FM051700 18010KT 8000 NSC FM060200 14006KT 6000 SCT010 BECMG 0608/0610 OVC012
SPSO,TAF SPSO 051100Z 0512/0612 10005KT 7000 OVC020 TX21/0520Z TN14/0611Z TEMPO 0512/0513 OVC014 FM051500 26005KT 9999 SCT022 FM051800 22015KT CAVOK BECMG 0602/0604 26009KT BKN017
SPST,TAF SPST 051100Z 0512/0612 12005KT 9999 FEW020 SCT080 TX33/0519Z TN20/0610Z
SPTN,TAF SPTN 051124Z 0512/0612 25004KT 9999 BKN025 TX22/0519Z TN12/0611Z FM051500 19009KT 9999 FEW030 FM052300 25004KT 9999 BKN020
SPTU,TAF SPTU 041705Z 0418/0518 14005KT 9999 FEW020 TX34/0420Z TN22/0511Z
SPYL,TAF SPYL 051110Z 0512/0612 16015KT CAVOK TX24/0519Z TN14/0611Z
SPZO,TAF SPZO 051105Z 0512/0612 08005KT 9999 FEW050 TX25/0519Z TN06/0611Z TEMPO 0518/0521 28010KT FEW040TCU BKN080
SUAA,TAF SUAA 051130Z 0512/0612 07010KT CAVOK TX23/0518Z TN12/0609Z TEMPO 0517/0523 09015G25KT
SUCA,TAF SUCA 051130Z 0512/0612 05010KT CAVOK TX23/0518Z TN13/0609Z BECMG 0515/0517 13018KT TEMPO 0517/0521 13018G28KT BECMG 0523/0601 05015KT
SUDU,TAF SUDU 051130Z 0512/0612 07012KT CAVOK TX25/0518Z TN09/0609Z TEMPO 0517/0521 09015G25KT
SULS,TAF SULS 051130Z 0512/0612 07012KT CAVOK TX21/0518Z TN11/0609Z TEMPO 0517/0523 09015G25KT
SUMU,TAF SUMU 051130Z 0512/0612 07010KT CAVOK TX23/0518Z TN12/0609Z TEMPO 0517/0523 09015G25KT
SURV,TAF SURV 051130Z 0512/0612 10010KT 9999 BKN012 TX23/0518Z TN09/0609Z BECMG 0513/0517 CAVOK TEMPO 0607/0611 5000 BR BKN008
SUSO,TAF SUSO 051130Z 0512/0612 09010KT CAVOK TX25/0518Z TN12/0609Z
SVBC,TAF SVBC 051000Z 0512/0612 15005KT 9999 SCT010 TX33/0518Z TN22/0607Z TEMPO 0515/0521 16005KT 9000 DZ SCT010 SCT060
SVJC,TAF SVJC 051000Z 0512/0612 15002KT 9999 SCT013 TX32/0519Z TN22/0607Z TEMPO 0514/0521 16002KT 9000 DZ SCT060 SCT100
SVMC,TAF SVMC 051000Z 0512/0612 09010KT 9999 BKN013 TX33/0519Z TN22/0608Z TEMPO 0516/0520 08003KT 8000 RA OVC013
SVMG,TAF SVMG 051000Z 0512/0612 07010KT 9999 FEW010 TX33/0518Z TN22/0608Z TEMPO 0516/0522 09010KT 9000 DZ SCT013 SCT080
SVMI,TAF SVMI 051000Z 0512/0612 00000KT 9999 SCT013 BKN080 TX33/0518Z TN21/0607Z TEMPO 0515/0520 09005KT 9000 -DZ SCT016 BKN070
SVPR,TAF SVPR 051000Z 0512/0612 09016KT 9999 SCT013 TX33/0519Z TN22/0607Z TEMPO 0515/0520 09004KT 9000 DZ SCT013 BKN060
SVSA,TAF SVSA 051000Z 0512/0612 11004KT 9999 SCT020 TX32/0519Z TN19/0608Z TEMPO 0515/0520 09002KT 9000 DZ SCT020 SCT090
SYCJ,TAF SYCJ 051100Z 0512/0612 VRB04KT 9999 FEW016 SCT036 BKN090 TEMPO 0518/0600 8000 TSRA FEW014CB SCT015 BKN034 BKN080 BECMG 0602/0604 VRB02KT 9999 SCT014 SCT034 BKN090
SYEB,TAF SYEB 051100Z 0512/0523 VRB06KT 9999 FEW017 BKN100 TEMPO 0517/0523 9000 TS SHRA FEW015CB BKN016 OVC080
SYEC,TAF SYEC 051100Z 0512/0612 VRB06KT 9999 FEW016 SCT036 BKN090 TEMPO 0518/0600 9000 TS -SHRA FEW015CB SCT016 BKN036 BKN080 BECMG 0602/0604 VRB02KT 9999 SCT014 SCT034 BKN090
SYKA,TAF SYKA 051100Z 0512/0523 VRB06KT 9999 FEW017 BKN100 TEMPO 0517/0523 9000 TS SHRA FEW015CB BKN016 OVC080
SYKM,TAF SYKM 051100Z 0512/0523 VRB06KT 9999 FEW017 BKN100 TEMPO 0517/0523 9000 TS SHRA FEW015CB BKN016 OVC080
SYLT,TAF SYLT 051100Z 0512/0523 VRB06KT 9999 FEW017 BKN100 PROB40 TEMPO 0517/0523 9000 TS SHRA FEW015CB BKN016 OVC080
SYMB,TAF SYMB 051100Z 0512/0523 VRB06KT 9999 FEW017 BKN100
TAPA,TAF TAPA 051100Z 0512/0612 12015KT 9999 SCT019 BKN036 TEMPO 0515/0612 SHRA TEMPO 0517/0602 12015G25KT 4000 TSRA SCT014CB BKN018 OVC038
TBPB,TAF TBPB 051100Z 0512/0612 11017KT 9999 FEW018 SCT034 PROB40 TEMPO 0518/0524 SHRA BKN014 FEW016CB TEMPO 0600/0606 12018G28KT BKN012CB
TDPD,TAF TDPD 051100Z 0512/0612 11013KT 9999 BKN016 TEMPO 0518/0524 5000 SHRA BKN014 FEW016CB
TFFF,TAF TFFF 051100Z 0512/0612 10007KT 9999 SCT030 BKN150 TEMPO 0512/0612 13015G25KT 2500 SHRA FEW015CB BKN020TCU PROB30 TEMPO 0512/0517 VRB20G30KT 1200 TSRA SCT008 BKN012CB PROB40 TEMPO 0517/0602 VRB20G30KT 1200 TSRA SCT008 BKN012CB PROB30 TEMPO 0602/0612 VRB20G30KT 1200 TSRA SCT008 BKN012CB
TFFR,TAF TFFR 051100Z 0512/0612 12012KT 9999 SCT030 BKN130 TEMPO 0512/0612 13015G25KT 2500 SHRA SCT012CB BKN018TCU PROB30 TEMPO 0512/0514 VRB20G30KT 1200 TSRA SCT008 BKN012CB PROB40 TEMPO 0514/0602 VRB15G25KT 1200 TSRA SCT008 BKN012CB PROB30 TEMPO 0602/0612 VRB15G25KT 1200 TSRA SCT008 BKN012CB
TGPY,TGPY 051000Z 0512/0612 09012KT 9999 FEW17 PROB40 0515/0520 5000 SHRA FEW014CB BKN016 BKN035 BECMG 0522/0524 FEW019
TIST,TIST 051120Z 0512/0612 09010KT P6SM -RA VCSH SCT025 OVC100 TEMPO 0512/0514 VRB14G22KT 4SM SHRA BKN025 OVC050 FM051400 13015KT P6SM -RA VCTS SCT025CB BKN050 BKN100 FM051700 12015G25KT 5SM TSRA SCT025CB BKN035 OVC060 FM052200 11012KT P6SM VCTS SCT025CB BKN050 OVC100
TISX,TISX 051120Z 0512/0612 07008KT P6SM -RA VCSH SCT025 BKN050 BKN100 TEMPO 0512/0514 VRB14G22KT 4SM SHRA BKN025 OVC050 FM051400 11015G25KT P6SM -RA VCTS SCT025CB BKN040 OVC100 FM052200 11011KT P6SM VCTS SCT025CB BKN050 OVC120
TJBQ,TJBQ 051120Z 0512/0612 VRB05KT P6SM -SHRA SCT025 BKN050 OVC120 FM051400 09009KT P6SM VCSH SCT028 SCT050 BKN120 FM051700 10012KT P6SM VCTS SCT022CB BKN050 OVC090 FM052200 16004KT P6SM VCSH SCT025 BKN070
TJPS,TJPS 051120Z 0512/0612 07005KT P6SM -RA VCTS SCT025CB BKN040 OVC100 TEMPO 0512/0514 VRB10KT 3SM SHRA BKN025 OVC040 FM051400 12012KT P6SM VCSH SCT025 BKN060 BKN100 FM051800 15014G20KT P6SM VCTS SCT022CB BKN050 OVC090 FM052300 08005KT P6SM -RA VCSH SCT025 BKN060 OVC120 AMD NOT SKED
TJSJ,TJSJ 051120Z 0512/0612 VRB05KT P6SM -RA SCT025 BKN060 OVC080 FM051400 11014KT P6SM -RA VCTS BKN030CB BKN060 OVC100 FM052300 12006KT P6SM -RA SCT025 BKN060 BKN100
TKPK,TAF TKPK 051100Z 0512/0612 12015KT 9999 SCT019 BKN036 TEMPO 0515/0612 SHRA TEMPO 0517/0602 12015G25KT 4000 TSRA SCT014CB BKN018 OVC038
TKPN,TAF TKPN 051100Z 0512/0612 12015KT 9999 SCT019 BKN036 TEMPO 0515/0612 SHRA TEMPO 0517/0602 12015G25KT 4000 TSRA SCT014CB BKN018 OVC038
TLPC,TAF TLPC 051100Z 0512/0612 12008KT 9999 SCT022 SCT040 TEMPO 0512/0609 5000 SHRA RA FEW015CB BKN018 BKN038
TLPL,TAF TLPL 051100Z 0512/0612 11017KT 9999 SCT022 SCT040 TEMPO 0512/0609 5000 SHRA RA FEW015CB BKN018 BKN038
TNCA,TAF TNCA 051115Z 0512/0612 22010KT 9999 SCT018 PROB40 TEMPO 0506/0521 26010KT 3000 TSRA SCT012CB BKN014
TNCB,TAF TNCB 051120Z 0512/0618 20010KT 9999 SCT018 PROB30 TEMPO 0512/0618 VRB15G25KT 4000 SHRA TSRA BKN014 SCT018CB
TNCC,TAF TNCC 051115Z 0512/0612 21004KT 9999 SCT018 PROB40 TEMPO 0512/0521 23010KT 3000 TSRA SCT012CB BKN014
TNCM,TNCM 051050Z 0512/0612 11012KT 9999 SCT016 BKN035 TEMPO 0516/0521 5000 SHRA FEW014CB BKN016 TEMPO 0522/0612 11012G26KT 2000 +SHRA FEW012CB BKN014 PROB40 TEMPO 0522/0609 TSRA SCT012CB 
TQPF,TAF TQPF 051100Z 0512/0612 12015KT 9999 SCT019 BKN036 TEMPO 0515/0612 SHRA TEMPO 0517/0602 12015G25KT 4000 TSRA SCT014CB BKN018 OVC038
TRPG,TAF TRPG 051100Z 0512/0612 12015KT 9999 SCT019 BKN036 TEMPO 0515/0612 SHRA TEMPO 0517/0602 12015G25KT 4000 TSRA SCT014CB BKN018 OVC038
TTCP,TAF TTCP 051000Z 0512/0612 14010KT 9999 SCT020 TEMPO 0515/0521 5000 SHRA FEW012CB BKN016 BECMG 0523/0601 06005KT FEW016
TTPP,TAF TTPP 051000Z 0512/0612 14008KT 9999 SCT020 TEMPO 0515/0521 5000 SHRA FEW012CB BKN016 BECMG 0523/0601 00000KT FEW016
TUPJ,TAF TUPJ 051100Z 0512/0612 12015KT 9999 SCT019 BKN036 TEMPO 0515/0612 SHRA TEMPO 0517/0602 12015G25KT 4000 TSRA SCT014CB BKN018 OVC038
TVSA,TAF TVSA 051100Z 0512/0612 07012KT 9999 FEW018 PROB40 TEMPO 0518/0524 SHRA BKN014 FEW016CB
TXKF,TAF TXKF 051136Z 0512/0612 07016KT 9999 VCSH SCT030 BKN055 PROB30 TEMPO 0512/0518 07018G28KT 5000 SHRA BKN025 
UAAA,TAF UAAA 051100Z 0512/0612 22003MPS 3100 BR FU BKN011 OVC020CB TX13/0609Z TN06/0601Z TEMPO 0512/0516 04003G08MPS 1200 BR TEMPO 0516/0603 17003MPS 0400 FG VV002 BECMG 0605/0606 34003MPS 9999 NSW BKN050CB OVC100 TEMPO 0606/0612 03003G09MPS
UAAH,TAF UAAH 051100Z 0512/0521 27007MPS 9999 SCT030
UAAT,TAF UAAT 051100Z 0512/0521 22003G09MPS 3100 BR BKN011 OVC050CB TEMPO 0512/0515 02003G09MPS 1200 BKN004 TEMPO 0515/0521 0300 FG VV002
UACC,TAF UACC 051100Z 0512/0612 24008MPS 9999 BKN011 BKN020 TXM00/0609Z TNM04/0601Z TEMPO 0518/0602 26010MPS -SHSN BKN007 BKN020CB TEMPO 0602/0612 25009G14MPS BKN007
UACK,TAF UACK 051103Z 0512/0521 24010G15MPS 9999 BKN011 OVC020 TEMPO 0512/0518 26015G20MPS 3100 -SN BLSN
UACP,TAF UACP 050801Z 0509/0518 23013MPS 2000 SHSN BLSN BKN008 OVC015CB TEMPO 0509/0512 25015G20MPS 1200 BKN006 OVC011CB
UADD,TAF UADD 051100Z 0512/0521 01003MPS 5000 BR SCT011 BKN100 TEMPO 0515/0521 0500 FG VV002
UAII,TAF UAII 051104Z 0512/0612 03003G08MPS 3100 BR SCT011 BKN033CB TX15/0610Z TN06/0601Z TEMPO 0512/0518 33003G08MPS 0600 FG VV003 TEMPO 0518/0604 10003MPS 0300 FG VV002 BECMG 0604/0606 6000 NSW
UAIT,TAF UAIT 051106Z 0512/0521 35003G08MPS 9999 SCT050 TEMPO 0512/0515 02003MPS 3100 BR BKN033CB TEMPO 0515/0521 04003G08MPS 0800 FG BKN002 OVC020CB
UAKD,TAF UAKD 051102Z 0512/0521 21004MPS 9999 BKN015 OVC030 TEMPO 0512/0515 3100 BR BKN004 BKN015CB TEMPO 0515/0521 VRB02MPS 1000 BR BKN003
UAKK,TAF UAKK 051100Z 0512/0612 24005MPS 9999 SCT020 BKN100 TX02/0609Z TNM04/0524Z TEMPO 0516/0603 3100 BR BKN005 BECMG 0606/0608 27005MPS
UAOO,TAF UAOO 051100Z 0512/0521 VRB02MPS 9999 BKN020CB
UARR,TAF UARR 051100Z 0512/0521 VRB02MPS 9999 BKN011 TEMPO 0512/0515 BKN004 TEMPO 0515/0521 0400 FZFG VV002
UASK,TAF UASK 051102Z 0512/0521 12003MPS 9999 BKN030CB OVC070 TEMPO 0512/0518 30003MPS 3100 -SHRA BR FEW004 BKN021CB
UASP,TAF UASP 051102Z 0512/0521 25005G10MPS 9999 BKN020 TEMPO 0512/0515 25010G15MPS
UASS,TAF UASS 051100Z 0512/0521 30003MPS 9999 BKN030 BKN100 TEMPO 0512/0518 34005MPS BKN020
UATE,TAF UATE 051103Z 0512/0612 VRB03MPS 9999 BKN025CB TX10/0609Z TN06/0602Z TEMPO 0515/0524 1000 -SHRA BR BKN002 BKN015CB BECMG 0600/0602 27006G12MPS TEMPO 0600/0606 1000 -SHRA BR BKN002 BKN015CB
UATG,TAF UATG 051103Z 0512/0612 04005MPS 9999 SCT011 BKN020CB TX05/0610Z TN01/0604Z TEMPO 0512/0518 3100 -SHRA BKN007 OVC020CB BECMG 0606/0608 02010MPS
UATT,TAF UATT 051101Z 0512/0612 34002MPS 9999 BKN011 BKN033 TXM01/0512Z TNM07/0602Z TEMPO 0512/0517 BKN005 TEMPO 0517/0604 VRB01MPS 2000 BR BKN004
UAUU,TAF UAUU 051102Z 0512/0521 23005MPS 9999 BKN015 TEMPO 0512/0517 20006G11MPS 3100 -SHSN BR BKN011CB TEMPO 0517/0521 20005MPS 3100 BR BKN011
UBBB,TAF UBBB 051105Z 0512/0612 36012KT 9999 BKN025 TX16/0512Z TN10/0602Z TEMPO 0512/0518 04010KT SCT012 TEMPO 0518/0522 VRB04KT BECMG 0522/0524 34020G30KT FEW030CB BKN030 TEMPO 0522/0612 33028G38KT -SHRA SCT010 SCT025CB PROB40 TEMPO 0522/0609 TS
UBBF,TAF UBBF 051053Z 0512/0521 09006KT 9999 SCT080 TEMPO 0512/0516 05008KT SCT030 BECMG 0516/0518 32008KT
UBBG,TAF UBBG 051100Z 0512/0612 VRB04KT 9999 FEW040 SCT100 TX17/0512Z TN08/0602Z TEMPO 0516/0524 SCT035CB BKN060 BECMG 0600/0602 28010KT
UBBL,TAF UBBL 051110Z 0512/0612 12006KT 9999 SCT040 SCT100 TX16/0512Z TN09/0602Z TEMPO 0512/0516 18008KT BECMG 0518/0520 34010KT BKN030 BKN080 TEMPO 0520/0612 31016G26KT 6000 -SHRA SCT010 SCT030CB
UBBN,TAF UBBN 051050Z 0512/0612 VRB04KT 9999 FEW050 SCT100 TX20/0512Z TN03/0603Z TEMPO 0514/0524 36012KT
UBBQ,TAF UBBQ 051109Z 0512/0612 24006KT 9999 SCT040 SCT100 TX15/0512Z TN04/0602Z TEMPO 0512/0516 18008KT BECMG 0516/0518 03008KT BKN030 BKN080 TEMPO 0522/0608 VRB12KT 6000 -SHRA SCT020CB OVC020 BECMG 0608/0610 18008KT
UBBY,TAF UBBY 051100Z 0512/0521 VRB04KT 9999 FEW040 BKN080
UBEE,TAF UBEE 051100Z 0512/0521 VRB04KT CAVOK
UCFL,TAF UCFL 051056Z 0512/0612 11003G08MPS 9999 BKN025CB OVC100 TEMPO 0512/0519 27007G12MPS 1500 -SHRA BKN015CB BECMG 0519/0520 35003G08MPS
UCFM,TAF UCFM 051058Z 0512/0612 24003G08MPS 6000 SCT040CB OVC100 TEMPO 0512/0516 31007G12MPS 0900 FG FU FEW002 BKN005 BECMG 0516/0518 14003G08MPS 3000 BR TEMPO 0516/0602 24003G08MPS 0500 FG FU BKN002 TEMPO 0602/0606 20003G08MPS 1500 BR FU BKN005 BECMG 0606/0607 34003G08MPS
UCFO,TAF UCFO 051051Z 0512/0612 18003G08MPS 3000 BR SCT010 BKN030CB TEMPO 0512/0518 27003G08MPS 0500 -SHRA FG BKN002 OVC020CB TEMPO 0518/0524 0500 FG BKN003 BECMG 0603/0605 30003G08MPS
UDSG,TAF UDSG 051100Z 0512/0612 VRB06KT 9999 SCT040
UDYZ,TAF UDYZ 051100Z 0512/0612 22006KT 9999 FEW040
UEEE,TAF UEEE 051100Z 0512/0618 24003MPS 9999 -SN SCT020 OVC070 TEMPO 0512/0603 0300 SN FZFG VV003
UERP,TAF UERP 051100Z 0512/0612 29003G08MPS 8000 SCT023CB BKN100 TEMPO 0515/0518 4000 -SHSN BKN015CB OVC100 BECMG 0600/0602 VRB01MPS
UERR,TAF UERR 051100Z 0512/0612 27003G08MPS 9999 -SHSN DRSN BKN023CB TEMPO 0512/0515 1500 SHSN DRSN SCT007 OVC015CB
UGAM,TAF UGAM 051000Z 0511/0517 28006KT 9999 BKN060
UGKO,TAF UGKO 051100Z 0512/0612 08006KT 9999 SCT040 BKN080 TX17/0512Z TN08/0603Z TEMPO 0514/0518 25010KT SHRA BKN030CB TEMPO 0518/0524 3000 SHRA SCT015 BKN023CB
UGMS,TAF UGMS 051000Z 0511/0517 VRB02KT 9999 BKN070
UGSB,TAF UGSB 051100Z 0512/0612 VRB02KT 9999 SCT080 TX19/0612Z TN12/0603Z BECMG 0516/0519 12012KT PROB40 TEMPO 0522/0602 TSRA BKN025CB BECMG 0608/0609 35007KT
UGTB,TAF UGTB 051100Z 0512/0612 31013KT 9999 SCT060 TX17/0512Z TN08/0603Z TEMPO 0519/0602 32023KT SHRA BKN040CB
UHBB,TAF UHBB 051057Z 0512/0612 27003MPS CAVOK
UHHH,TAF UHHH 051046Z 0512/0618 26006MPS 9999 SCT025CB TEMPO 0512/0524 28007G12MPS TEMPO 0600/0612 24005G12MPS
UHMA,TAF UHMA 051046Z 0512/0612 12020G25MPS 0200 +SN BLSN VV002 TEMPO 0512/0517 10026G31MPS 5000 -RA BKN005 BKN015 BECMG 0517/0518 5000 -RA BR BKN010 BKN015 TEMPO 0518/0524 12025G30MPS FM060000 17008G13MPS 9999 SCT020 TEMPO 0600/0606 13010G15MPS 5000 -SHRA BR BKN005 BKN015CB
UHMM,TAF UHMM 051058Z 0512/0618 12003MPS 9999 -SHSN BKN030CB BECMG 0520/0522 5000 -SHSN SCT011 OVC020CB TEMPO 0522/0618 1000 SHSN VV005
UHPP,TAF UHPP 051045Z 0512/0618 16003G12MPS 2000 SHSN BKN004 OVC012CB TEMPO 0512/0518 0700 +SHSN VV002 BECMG 0522/0524 9999 NSW BKN030CB TEMPO 0609/0615 0900 +SHSN VV003
UHSS,TAF UHSS 051055Z 0512/0618 26003MPS 9999 BKN030CB TEMPO 0512/0518 -SHSN BECMG 0600/0602 27003G08MPS SCT030CB BECMG 0606/0607 25003MPS
UHWW,TAF UHWW 051055Z 0512/0612 03003MPS 9999 NSC BECMG 0600/0602 34003MPS BECMG 0608/0610 20003MPS BKN020
UIAA,TAF UIAA 051100Z 0512/0612 28003G08MPS 9999 BKN040CB TEMPO 0512/0612 22005MPS
UIBB,TAF UIBB 051100Z 0512/0612 08003MPS 9999 FEW003 BKN016CB TEMPO 0512/0604 0300 FZFG VV001 FM060400 18005G10MPS 2900 -SHRASN BKN004 BKN016CB
UIII,TAF UIII 051100Z 0512/0612 VRB01MPS 2900 FU BR NSC TEMPO 0512/0514 0300 FZFG VV001 BECMG 0514/0516 0300 FZFG VV001 TEMPO 0516/0603 3100 BR SCT004 BECMG 0603/0604 9999 NSW NSC
UIUU,TAF UIUU 051100Z 0512/0612 30003G08MPS 9999 BKN030CB TEMPO 0512/0603 1900 SHSN FU OVC011CB
ULAA,TAF AMD ULAA 051101Z 0511/0612 24003MPS 6000 BKN011 TEMPO 0511/0518 0300 -DZ FG OVC002 TEMPO 0518/0606 2100 BR OVC005
ULLI,TAF ULLI 051101Z 0512/0612 17003G08MPS 6000 BKN007 TEMPO 0512/0518 BKN010 TEMPO 0518/0603 1000 BR BKN003 TEMPO 0606/0612 1500 SHSN BR BKN006 BKN016CB
ULMM,TAF ULMM 051051Z 0512/0612 23003G08MPS 6000 BKN016 TEMPO 0512/0612 2500 -SHRA BR BKN006 BKN016CB
ULOO,TAF ULOO 051054Z 0512/0521 14004G09MPS 6000 BKN016
ULPB,TAF ULPB 051055Z 0512/0521 24003MPS 6000 BKN011 TEMPO 0512/0515 BKN005 TEMPO 0515/0519 2100 -SN BR BKN003
ULWC,TAF ULWC 051058Z 0512/0521 24003MPS 6000 -SN BKN005 OVC015 TEMPO 0512/0521 2100 -SN BR OVC003
UMBB,TAF UMBB 051100Z 0512/0521 12004G09MPS 6000 BKN010 TEMPO 0512/0515 14007G12MPS BKN005 TEMPO 0515/0521 4000 -SHRA BR BKN015CB
UMGG,TAF COR UMGG 051059Z 0512/0612 11006MPS 9999 BKN015 TX04/0512Z TNM00/0522Z TEMPO 0517/0603 14007MPS BECMG 0603/0605 15005G10MPS TEMPO 0605/0612 17006G11MPS 2000 -SHRA BR BKN005 SCT018CB
UMII,TAF UMII 051112Z 0512/0521 14003G08MPS 9999 BKN014 TEMPO 0512/0518 15004G09MPS BKN007 TEMPO 0518/0521 16004G09MPS 3000 BR BKN005
UMKK,TAF UMKK 051058Z 0512/0612 16005G10MPS 6000 BKN007 OVC014 TEMPO 0512/0518 2500 -SHRA BR BKN004 BKN013CB BECMG 0516/0518 25003G08MPS BECMG 0518/0520 SCT016 TEMPO 0520/0606 3000 BR BKN014CB BECMG 0604/0606 20005G10MPS
UMMG,TAF UMMG 051105Z 0512/0521 15006G11MPS 6000 BKN010 TEMPO 0515/0518 18004G09MPS 3500 -RA BR SCT003 OVC007
UMMS,TAF UMMS 051104Z 0512/0612 14006G11MPS 9999 BKN010 FM052300 16006G11MPS 3000 -RA BR BKN004 TEMPO 0523/0609 1200 SHRA BKN003 BKN015CB
UMOO,TAF UMOO 051101Z 0512/0521 11006MPS 8000 BKN015 TEMPO 0512/0521 13005G10MPS
UNAA,TAF UNAA 051053Z 0512/0612 15003MPS 6000 SCT016CB TEMPO 0512/0515 3200 BR FU TEMPO 0515/0521 3200 -FZRA TEMPO 0521/0602 0250 FZFG VV002
UNBB,TAF UNBB 051100Z 0512/0612 20003G08MPS 9999 SCT040 TEMPO 0512/0515 24008G13MPS TEMPO 0605/0609 24008G13MPS
UNEE,TAF UNEE 051100Z 0512/0612 18003G08MPS 8000 BKN016CB TEMPO 0512/0515 23007G15MPS -SHSNRA BKN010CB BECMG 0515/0518 BKN040CB TEMPO 0518/0603 SCT003 BKN016CB TEMPO 0603/0612 21008G17MPS -SHRA BKN010CB
UNKL,TAF UNKL 051059Z 0512/0612 VRB01MPS 6000 SCT020 FM051800 21003G08MPS 9999 BKN016CB TEMPO 0518/0523 3000 -SHSN
UNNT,TAF UNNT 051100Z 0512/0612 18003G08MPS 8000 BKN040CB TEMPO 0512/0524 22005G13MPS BECMG 0600/0603 18007G16MPS BKN016CB BECMG 0604/0607 22009G16MPS -SHSN DRSN
UNOO,TAF UNOO 051057Z 0512/0612 21010G17MPS 8000 -SHSN BKN020CB TEMPO 0512/0612 1200 SHSN VV004 BECMG 0523/0601 25010G15MPS
UNTT,TAF UNTT 051100Z 0512/0521 22005G12MPS 8000 -SHRASN BKN016CB BECMG 0515/0519 18003G08MPS
UNWW,TAF UNWW 051100Z 0512/0612 19003G08MPS 8000 BKN040CB TEMPO 0512/0517 24005G10MPS -SHRA BKN011CB BECMG 0517/0518 BKN016CB TEMPO 0518/0604 BKN005 BKN011CB TEMPO 0606/0612 24007G15MPS
UOOO,TAF UOOO 051042Z 0512/0612 20008G16MPS 1300 SHSN BLSN BKN016CB TEMPO 0512/0603 0400 +SHSN BLSN VV003
URKA,TAF URKA 051055Z 0512/0612 07003G08MPS 9999 SCT030 TEMPO 0512/0605 05006G13MPS SCT016 BECMG 0605/0607 07008G16MPS
URKK,TAF URKK 051056Z 0512/0612 06003G08MPS 9999 SCT020 PROB40 TEMPO 0517/0605 0200 FZFG BKN002 BECMG 0604/0606 06008G15MPS
URMG,TAF URMG 051100Z 0512/0521 33003G08MPS 9999 BKN030 TEMPO 0512/0521 35006G13MPS 6000 -SHRA BKN016 BKN030CB
URML,TAF URML 051100Z 0512/0521 06003G08MPS 9999 SCT017 BKN030 TEMPO 0512/0518 11003G08MPS 6000 -SHRA SCT016 SCT050CB
URMM,TAF URMM 051100Z 0512/0612 28003G08MPS 9999 BKN016 TX09/0612Z TN03/0603Z TEMPO 0512/0515 30005G13MPS BECMG 0516/0518 09003G08MPS
URMN,TAF URMN 051100Z 0512/0521 02003G09MPS 9999 BKN020CB TEMPO 0512/0521 2100 -SHRA BR FEW005 BKN016CB
URMO,TAF URMO 051100Z 0512/0521 33003G08MPS 9999 BKN020 TEMPO 0512/0521 35005G13MPS 6000 -SHRA BKN016 BKN020CB
URMT,TAF URMT 051100Z 0512/0521 34003G09MPS 9999 SCT020 TEMPO 0515/0521 03003G08MPS 6000 SCT016 BKN030
URRP,TAF URRP 051056Z 0512/0612 35003G12MPS 6000 -SHRA FEW005 BKN016CB BECMG 0515/0517 02003G12MPS BECMG 0601/0603 06003G12MPS
URSS,TAF URSS 051055Z 0512/0612 18004G09MPS 9999 SCT030 BKN100 BECMG 0514/0515 05003G08MPS BECMG 0520/0521 04006MPS NSC BECMG 0609/0610 27004G09MPS FEW030
URWA,TAF URWA 051057Z 0512/0521 08003G09MPS 3000 BR BKN005 OVC020 TEMPO 0512/0518 0500 RA FG BKN002 OVC017 TEMPO 0518/0521 03003G10MPS
URWI,TAF URWI 051055Z 0512/0521 33003G12MPS 6000 -SHRA FEW005 BKN016CB
URWW,TAF URWW 051058Z 0512/0521 33003G10MPS 6000 BKN011 BKN020CB TEMPO 0512/0518 -SHSNRA TEMPO 0518/0521 01003MPS 0300 FG BKN002 SCT020CB
USCC,TAF USCC 051100Z 0512/0612 30003G13MPS 2700 -SHSN BKN016CB TEMPO 0512/0520 29008G18MPS 0500 +SHSN BLSN VV004 BECMG 0520/0522 6000 NSW
USCM,TAF USCM 051100Z 0512/0521 29003G13MPS 9999 SCT020CB TEMPO 0512/0521 29008G16MPS -SHSN BKN016CB
USDA,TAF USDA 051058Z 0512/0521 26006G12MPS 2000 BR BKN004 TEMPO 0512/0515 0400 FG VV002 TEMPO 0515/0521 1000 RASN BR VV002 BECMG 0518/0520 28004G10MPS
USHH,TAF USHH 051038Z 0512/0612 04005G13MPS 6000 SCT003 OVC010 TEMPO 0512/0522 1000 SHSN FZRA BKN002 OVC010CB TEMPO 0522/0603 5000 -SHSN BR BKN002 OVC016CB
USNN,TAF USNN 051055Z 0512/0612 13005G12MPS 2100 -SHSN BKN004 BKN016CB TEMPO 0512/0518 0800 +SHSN VV002 BECMG 0516/0518 15003G08MPS BECMG 0518/0519 6000 -SHSN FEW010 BKN016CB
USPP,TAF USPP 051055Z 0512/0612 30003G12MPS 9999 BKN013 TEMPO 0512/0516 BKN011 BECMG 0516/0518 27003G09MPS
USRR,TAF USRR 051055Z 0512/0612 08006G12MPS 6000 -SHSN SCT005 BKN020CB TEMPO 0512/0522 0900 +SHSN VV003 BECMG 0516/0518 18003G08MPS TEMPO 0522/0612 2100 -SHSN BR BKN003 BKN016CB
USSS,TAF USSS 051055Z 0512/0612 32006G17MPS 2100 -SHSN BLSN BKN011CB TEMPO 0512/0516 1200 SHSN BKN006CB BECMG 0516/0519 6000 -SHSN BKN016CB BECMG 0519/0521 29003G14MPS
USTR,TAF USTR 051055Z 0512/0612 32007G14MPS 2100 -SHSN DRSN BKN004 BKN016CB TEMPO 0512/0603 33014MPS 0500 +SHSN BLSN VV003 BECMG 0603/0604 6000 -SHSN DRSN FEW005 BKN016CB BECMG 0607/0609 28006G13MPS
UTAA,TAF UTAA 051045Z 0512/0612 32018KT 6000 BKN030 SCT030CB TEMPO 0512/0517 29016G26KT 3000 BLDU -RA BKN020 PROB40 TEMPO 0512/0517 TS TEMPO 0518/0602 21012KT 2000 BR BKN010 BECMG 0606/0608 02016KT BKN020 TEMPO 0608/0612 32018G28KT 3000 BLDU -SHRA BKN010
UTAK,TAF UTAK 051030Z 0512/0612 30014G24KT 9999 BKN008 BKN100 TEMPO 0512/0516 BKN004 SCT040CB BKN100 BECMG 0516/0517 34012KT 3000 BR BKN003 TEMPO 0517/0523 0500 FG VV001 BECMG 0523/0524 36016KT 4000 -SHRA BR BKN005 SCT033CB OVC100 TEMPO 0600/0606 -TSRA BECMG 0606/0607 36018G28KT 9999 BKN016 SCT040CB BKN100 TEMPO 0607/0610 -SHRA BKN006 SCT033CB OVC100
UTAM,TAF UTAM 051035Z 0512/0612 13012KT 5000 SCT020 BKN100 TEMPO 0512/0517 15010G20KT 3000 HZ SCT020CB BECMG 0518/0520 VRB04KT 2000 BR BKN007 SCT020CB TEMPO 0521/0605 0600 FG VV003 BECMG 0606/0607 5000 BKN020
UTAT,TAF UTAT 051031Z 0512/0612 09012KT 9999 SCT050 OVC070 TEMPO 0512/0602 VRB26KT 5000 -SHRA SCT050CB
UTAV,TAF UTAV 051030Z 0512/0612 11012KT CAVOK TEMPO 0512/0516 03014G24KT 3000 DRDU SCT050 BECMG 0517/0518 09010KT 5000 NSC TEMPO 0517/0605 VRB04KT 1200 BR BKN004 PROB30 TEMPO 0520/0603 0300 FG VV001
UTDD,TAF UTDD 050900Z 0510/0522 VRB02MPS 7000 SCT020 BKN030CB TEMPO 0510/0515 3100 BR FU BECMG 0515/0517 3100 BR FU TEMPO 0517/0522 1700 BR FU BKN004 OVC020CB
UTDK,TAF UTDK 050900Z 0510/0519 VRB02MPS 7000 SCT030CB BKN050 TEMPO 0510/0513 20005MPS TEMPO 0513/0519 03005MPS 3100 BR SCT005 BKN020CB
UTDL,TAF UTDL 050900Z 0510/0522 08008MPS 5000 BR FEW011 SCT080 BECMG 0511/0513 06005MPS 3100 BR TEMPO 0519/0522 VRB02MPS
UTDT,TAF UTDT 050901Z 0510/0519 VRB02MPS 7000 SCT025CB BKN040 BECMG 0513/0515 3100 BR BKN011 OVC020CB
UTFA,TAF UTFA 050600Z 0507/0516 24010KT 6000 SCT040CB TEMPO 0507/0516 VRB02KT 1100 BR BKN030CB
UTFF,TAF UTFF 050900Z 0510/0519 34010KT 7000 FEW060CB TEMPO 0510/0519 28012G22KT 2500 BR
UTFN,TAF UTFN 051100Z 0512/0612 34010KT 6000 FEW050CB TEMPO 0512/0520 24010G20KT 3100 BR
UTNN,TAF UTNN 051100Z 0512/0612 10008KT 9999 SCT040 OVC100 TEMPO 0512/0516 -RA TEMPO 0604/0612 15010G20KT
UTNU,TAF UTNU 051100Z 0512/0612 10008G18KT 9999 SCT040CB BKN100 TEMPO 0512/0516 -SHRA
UTSA,TAF UTSA 051101Z 0512/0612 VRB03KT 7000 FEW033 TEMPO 0512/0520 10010KT 3500 BR FU SCT010 TEMPO 0520/0604 12010KT 0500 FG VV002
UTSB,TAF UTSB 051100Z 0512/0612 VRB03KT 7000 FEW033 TEMPO 0512/0520 15010KT 3500 BR SCT010 TEMPO 0520/0604 17010KT 0500 FG VV002
UTSK,TAF UTSK 050900Z 0510/0519 14010KT 7000 NSC TEMPO 0510/0519 VRB04KT 3000 BR SCT008 BKN033
UTSS,TAF UTSS 051100Z 0512/0612 30010G20KT 6000 SCT010 SCT060CB TEMPO 0514/0521 14010KT 0700 FG BKN002 TEMPO 0521/0606 25014G24KT 1500 SHRA BR BKN003 OVC033CB
UTST,TAF UTST 051100Z 0512/0612 VRB06KT 6000 SCT015 SCT040CB BKN100 TEMPO 0512/0523 06010G20KT 2400 -SHRA BR BKN007 BKN040CB OVC100
UTTT,TAF UTTT 051100Z 0512/0612 07010KT 7000 FEW050CB BKN100 TEMPO 0512/0516 30015KT TEMPO 0516/0524 3000 BR FU
UUBC,TAF UUBC 051052Z 0512/0521 VRB01MPS 6000 OVC014 TEMPO 0514/0521 OVC007
UUBP,TAF UUBP 051054Z 0512/0521 04003MPS 9999 BKN016 TEMPO 0512/0521 BKN008
UUBW,TAF UUBW 051052Z 0512/0612 34003MPS 9000 BKN016 TX02/0512Z TNM02/0604Z PROB40 TEMPO 0521/0606 0300 FZFG BKN002 BECMG 0608/0610 20005MPS
UUDD,TAF UUDD 051056Z 0512/0618 34003MPS 6000 FEW006 BKN016 TX01/0512Z TNM02/0604Z PROB40 TEMPO 0518/0609 -FZDZ OVC003 BECMG 0606/0608 20005MPS
UUDL,TAF UUDL 051057Z 0512/0612 VRB01MPS 9999 BKN016 TX00/0512Z TNM02/0604Z TEMPO 0518/0609 OVC010
UUEE,TAF UUEE 051055Z 0512/0612 36003MPS 9000 FEW005 OVC011 TX00/0512Z TNM02/0603Z PROB40 TEMPO 0521/0606 0300 FZFG OVC001 BECMG 0605/0608 20005MPS
UUMO,TAF UUMO 051040Z 0512/0521 04003MPS 9999 BKN016 TEMPO 0512/0521 OVC009
UUOB,TAF UUOB 051059Z 0512/0521 07003MPS 6000 BKN020 TEMPO 0512/0515 BKN008
UUOK,TAF UUOK 051053Z 0512/0521 VRB01MPS 6000 BKN009 TEMPO 0515/0521 2500 BR OVC003
UUOL,TAF UUOL 051100Z 0512/0521 36003MPS 6000 BKN016
UUOO,TAF UUOO 051100Z 0512/0521 01003MPS 6000 BKN016
UUWW,TAF UUWW 051054Z 0512/0612 35003MPS 9000 FEW006 BKN012 TX02/0612Z TNM02/0601Z TEMPO 0518/0606 BKN004 PROB40 TEMPO 0518/0606 0300 FZFG BKN002
UUYY,TAF UUYY 051100Z 0512/0612 27003G08MPS 6000 -SHSN BKN011 BKN017CB TEMPO 0512/0603 1000 SHSN FZDZ BR BKN003 BKN016CB
UWGG,TAF UWGG 051052Z 0512/0612 33003MPS 8000 BKN016 TX02/0512Z TNM00/0518Z TEMPO 0512/0606 OVC010
UWKD,TAF UWKD 051100Z 0512/0612 34003MPS 9999 BKN011 TX02/0512Z TNM01/0602Z TEMPO 0512/0518 3100 -SNRA OVC005 TEMPO 0521/0605 2100 BR BKN005
UWKE,TAF UWKE 051055Z 0512/0612 33003G10MPS 6000 -SN BKN011 TEMPO 0512/0515 01003MPS 2100 BR BKN003 TEMPO 0515/0608 0700 FZFG OVC003
UWKS,TAF UWKS 051053Z 0512/0521 34003G08MPS 8000 -SN OVC013 TX01/0512Z TNM00/0521Z TEMPO 0512/0520 OVC010
UWLL,TAF UWLL 051052Z 0512/0612 32003G09MPS 9999 BKN016 TX03/0512Z TN00/0603Z TEMPO 0512/0518 2100 -SHRASN BKN005 BKN010CB TEMPO 0521/0603 2000 BR BKN005
UWLW,TAF UWLW 051056Z 0512/0612 33003MPS 6000 -SNRA OVC016 TX02/0610Z TN00/0603Z TEMPO 0512/0521 30003G08MPS 2100 -RASN OVC007
UWOO,TAF UWOO 051043Z 0512/0612 23003G08MPS 6000 -SN BKN008 TX00/0609Z TNM04/0603Z TEMPO 0512/0606 0300 FZFG VV002 TEMPO 0606/0612 BKN016
UWOR,TAF UWOR 051048Z 0512/0521 27004G12MPS 6000 BKN016 TX02/0512Z TNM04/0521Z TEMPO 0515/0521 29003G10MPS
UWPS,TAF UWPS 051056Z 0512/0521 36003MPS 8000 BKN012 TX02/0512Z TNM00/0521Z TEMPO 0512/0518 OVC008
UWSG,TAF UWSG 051055Z 0512/0521 01003MPS 9999 OVC011 TX03/0512Z TN01/0521Z TEMPO 0512/0515 04003MPS -RA FEW003 BKN007 TEMPO 0515/0521 2100 -SNRA FEW002 BKN005
UWUU,TAF UWUU 051056Z 0512/0612 27003G08MPS 6000 BKN016 TX01/0610Z TNM04/0603Z TEMPO 0512/0612 31006G13MPS 2100 -SHSN BR SCT004 OVC010CB
UWWW,TAF UWWW 051051Z 0512/0612 32003G09MPS 6000 BKN016 TX01/0610Z TNM02/0603Z TEMPO 0512/0519 2000 SNRA OVC005
VAAH,TAF COR VAAH 051100Z 0512/0521 35003KT 4000 FU BECMG 0513/0515 35003KT 4000 FU NSC BECMG 0516/0518 01004KT 4000 FU NSC BECMG 0519/0521 06004KT 4000 FU NSC
VAAU,VAAU 051100Z 0512/0521 11008KT 5000 HZ NSC BECMG 0518/0520 05005KT 4000 HZ
VABB,TAF VABB 051100Z 0512/0521 26007KT 4000 FU NSC BECMG 0515/0517 32006KT BECMG 0518/0520 02005KT 3000 FU
VABJ,TAF VABJ 051100Z 0512/0521 34003KT 4000 FU BECMG 0513/0515 22003KT 4000 FU NSC BECMG 0516/0518 31004KT 4000 FU NSC BECMG 0519/0521 33004KT 4000 FU NSC 
VABO,TAF VABO 051100Z 0512/0521 02005KT 4000 FU BECMG 0513/0515 01005KT 4000 FU NSC BECMG 0516/0518 04003KT 4000 FU NSC BECMG 0519/0521 08003KT 4000 FU NSC 
VABP,TAF VABP 051100Z 0512/0618 07004KT 6000 FEW030 BECMG 0514/0516 5000 HZ BECMG 0600/0602 3000 HZ BECMG 0604/0606 5000 HZ BECMG 0606/0608 6000 BECMG 0614/0616 5000 HZ
VABV,TAF VABV 051100Z 0512/0521 31004KT 4000 FU BECMG 0513/0515 35006KT 4000 FU NSC BECMG 0516/0518 04006KT 4000 FU NSC BECMG 0519/0521 14003KT 4000 FU NSC 
VADU,TAF VADU 051100Z 0512/0521 14010KT 4000 FU BECMG 0513/0515 14005KT 4000 FU NSC BECMG 0516/0518 00000KT 4000 FU NSC BECMG 0519/0521 36007KT 4000 FU NSC 
VAID,TAF VAID 051100Z 0512/0618 07004KT 6000 FEW030 BECMG 0514/0516 5000 HZ BECMG 0600/0602 3000 HZ BECMG 0604/0606 5000 HZ BECMG 0606/0608 6000 BECMG 0614/0616 5000 HZ
VAJB,TAF VAJB 051100Z 0512/0521 32005KT 4000 HZ NSC BECMG 0514/0516 3000 HZ
VAJL,TAF VAJL 050500Z 0506/0515 11005KT 3000 HZ FU NSC BECMG 0508/0510 4000 FU NSC BECMG 0512/0514 5000 FU
VAJM,TAF VAJM 051100Z 0512/0521 02008KT 4000 FU BECMG 0513/0515 02006KT 4000 FU NSC BECMG 0516/0518 19004KT 4000 FU NSC BECMG 0519/0521 26003KT 4000 FU NSC 
VAKE,TAF VAKE 050800Z 0509/0518 25004KT 5000 FU NSC BECMG 0510/0512 18005KT 4000 BECMG 0513/0515 32005KT
VAKP,VAKP 051100Z 0512/0521 08007KT 4000 HZ NSC BECMG 0515/0517 14008KT 3000 HZ
VANP,TAF VANP 051100Z 0512/0521 27003KT 4000 HZ NSC BECMG 0513/0515 29003KT 3000 HZ NSC
VAOZ,TAF VAOZ 050800Z 0509/0521 12010KT 6000 SKC BECMG 0520/0521 VRB02KT
VAPO,TAF VAPO 050500Z 0506/0612 09008KT 6000 NSC TEMPO 0512/0514 5000 HZ TEMPO 0522/0602 VRB02KT 3000 BR TEMPO 0602/0604 5000 HZ
VAPR,TAF VAPR 051100Z 0512/0521 10011KT 4000 FU BECMG 0513/0515 28007KT 4000 FU NSC BECMG 0516/0518 33005KT 4000 FU NSC BECMG 0519/0521 06005KT 4000 FU NSC 
VARK,TAF VARK 051100Z 0512/0521 04004KT 4000 FU BECMG 0513/0515 09004KT 4000 FU NSC BECMG 0516/0518 17004KT 4000 FU NSC BECMG 0519/0521 19003KT 4000 FU NSC 
VASD,TAF VASD 050800Z 0509/0518 11006KT 4000 FU NSC BECMG 0512/0514 5000 FU
VASL,VASL 051100Z 0512/0521 08007KT 4000 HZ NSC BECMG 0515/0517 14008KT 3000 HZ
VASU,TAF VASU 051100Z 0512/0521 29005KT 4000 FU BECMG 0513/0515 36005KT 4000 FU NSC BECMG 0516/0518 02005KT 4000 FU NSC BECMG 0519/0521 08005KT 4000 FU NSC 
VAUD,TAF VAUD 051100Z 0512/0618 18004KT 6000 FEW030 BECMG 0514/0516 27004KT 3000 HZ FEW030 BECMG 0604/0606 VRB03KT 5000 HZ NSC
VCBI,TAF VCBI 051100Z 0512/0618 VRB05KT 9999 SCT016 TX30/0607Z TN24/0600Z PROB40 TEMPO 0512/0521 7000 -TSRA/SHRA BKN016 FEW020CB
VCRI,TAF VCRI 051100Z 0512/0618 VRB05KT 9999 SCT018 BKN080 TX30/0607Z TN23/0600Z TEMPO 0512/0518 7000 -TSRA/SHRA SCT016 FEW018CB OVC080 
VDPP,TAF VDPP 051100Z 0512/0606 29008KT 9999 SCT017 SCT040 TEMPO 0512/0516 5000 TSRA SCT015 FEW017CB BKN040
VDSR,TAF VDSR 051100Z 0512/0606 07006KT 9999 SCT017 SCT040 TEMPO 0512/0516 5000 SHRA SCT015 FEW017CB BKN040
VDSV,TAF VDSV 051100Z 0512/0606 23008KT 9999 SCT017 SCT040 TEMPO 0512/0516 5000 TSRA SCT015 FEW017CB BKN040
VEAB,TAF VEAB 050930Z 0512/0524 06005KT 2000 HZ NSC BECMG 0505/0523 1500 BR BECMG 0523/0524 VRB02KT 0800 FG
VEAN,TAF VEAN 050200Z 0503/0512 25006KT 3000 BR FEW020 SCT100 BECMG 0505/0507 5000 HZ
VEAT,TAF VEAT 051100Z 0512/0618 00000KT 4000 BR SCT020 BECMG 0517/0521 2000 BR NSC BECMG 0523/0601 0800 FG BECMG 0602/0604 30003KT 4000 HZ FEW020 BECMG 0614/0618 00000KT 2500 BR NSC
VEBD,TAF VEBD 050930Z 0512/0618 23005KT 6000 SCT100 TEMPO 0601/0603 5000 BR
VEBI,TAF VEBI 050800Z 0509/0518 09005KT 6000 FEW020 BECMG 0513/0515 00000KT 3000 BR
VEBN,TAF VEBN 051100Z 0512/0618 VRB02KT 2000 HZ BR NSC BECMG 0518/0520 0000KT 1500 BR BECMG 0600/0602 0800 FG BECMG 0604/0606 1500 BR BECMG 0606/0608 VRB02KT 3000 HZ BECMG 0614/0616 00000KT 2000 BR
VEBS,TAF VEBS 051100Z 0512/0521 34004KT 4000 HZ SCT020 BECMG 0516/0518 00000KT 2500 BR
VEBU,TAF VEBU 050500Z 0506/0515 16004KT 6000 NSC BECMG 0513/0515 12004KT 4000 HZ NSC
VECC,TAF VECC 051100Z 0512/0618 35005KT 3500 HZ FEW020 SCT100 BECMG 0514/0516 00000KT BECMG 0600/0602 29005KT 1800 BR BECMG 0604/0606 35005KT 4000 HZ BECMG 0614/0616 00000KT 2800 HZ
VECO,TAF VECO 050200Z 0503/0512 00000KT 3500 HZ NSC BECMG 0505/0507 07005KT 5000 HZ FEW020
VECX,TAF VECX 050930Z 0512/0524 VRB02KT 1000 BR SKC BECMG 0515/0516 00000KT 0800 -FG SKC
VEDG,TAF VEDG 051100Z 0512/0618 36005KT 4000 HZ FEW020 SCT100 BECMG 0516/0518 00000KT 2200 BR BECMG 0600/0602 1200 BR BECMG 0604/0606 35005KT 3000 HZ BECMG 0607/0609 5000 HZ BECMG 0613/0615 00000KT 3500 HZ
VEDZ,TAF VEDZ 050500Z 0506/0515 03006KT 5000 HZ FEW020 BECMG 0513/0515 00000KT 3000 BR
VEGK,TAF VEGK 050930Z 0512/0524 VRB02KT 5000 BR NSC BECMG 0517/0520 4000 BR BECMG 0522/0524 3000 BR NSC
VEGT,TAF VEGT 051100Z 0512/0521 00000KT 4000 HZ FEW020 BECMG 0513/0515 00000KT 3000 BR
VEGY,TAF VEGY 051100Z 0512/0521 00000KT 3500 HZ NSC BECMG 0518/0520 2500 BR
VEIM,TAF VEIM 051100Z 0512/0521 21005KT 5000 BR FEW018 BECMG 0513/0515 00000KT 3000 BR
VEJH,TAF VEJH 051100Z 0512/0521 36002KT 3000 HZ NSC
VEJR,TAF VEJR 050500Z 0506/0515 18005KT 5000 HZ NSC BECMG 0512/0514 00000KT 3000 HZ NSC
VEJS,TAF VEJS 051100Z 0512/0521 00000KT 2000 HZ SCT020 BECMG 0518/0520 1500 BR NSC
VEJT,TAF VEJT 050930Z 0512/0524 VRB02KT 6000 FEW025 BECMG 0514/0515 5000 BR BECMG 0517/0518 3000 BR BECMG 0522/0523 1500 BR
VEKO,TAF VEKO 051100Z 0512/0521 05003KT 3000 HZ NSC BECMG 0514/0516 2000 BR HZ
VELP,TAF VELP 050800Z 0509/0518 21003KT 5000 HZ FEW018 SCT025 BECMG 0514/0516 00000KT 2800 BR FEW018
VELR,TAF VELR 050800Z 0509/0518 12005KT 6000 FEW025 BECMG 0513/0515 00000KT 5000 BR
VEMN,TAF VEMN 051100Z 0512/0521 00000KT 5000 HZ FEW025 BECMG 0512/0515 3000 BR FEW100
VEMR,TAF VEMR 050500Z 0506/0515 02006KT 5000 HZ FEW020 BECMG 0513/0515 00000KT 3000 BR
VEPT,TAF VEPT 051100Z 0512/0521 00000KT 3500 HZ NSC BECMG 0518/0520 2500 BR
VEPY,TAF VEPY 050800Z 0509/0518 20005KT 4000 HZ FEW020 BECMG 0512/0514 00000KT 2800 BR
VERC,TAF VERC 051100Z 0512/0521 35004KT 4000 HZ NSC BECMG 0518/0520 00000KT 2500 BR HZ
VERP,TAF VERP 051100Z 0512/0618 VRB02KT 5000 HZ NSC BECMG 0600/0602 1500 BR HZ BECMG 0605/0607 29005KT 5000 HZ BECMG 0612/0614 3000 HZ 
VERU,TAF VERU 050500Z 0506/0515 03005KT 5000 HZ FEW018 BECMG 0513/0515 00000KT 3000 BR
VETJ,TAF VETJ 050500Z 0506/0515 06005KT 5000 HZ FEW018 BECMG 0513/0515 00000KT 3000 BR
VETZ,TAF VETZ 050930Z 0512/0524 09005KT 6000 FEW025
VEZO,TAF VEZO 050500Z 0506/0515 05006KT 5000 HZ FEW020 SCT100 BECMG 0513/0515 00000KT 3000 BR
VGEG,TAF VGEG 051100Z 0512/0618 33010KT 4500 HZ SCT016 TEMPO 0520/0602 00000KT 3600 HZ SCT014 BECMG 0602/0604 09010KT 5000 HZ SCT018 BECMG 0610/0612 32008KT 3800 HZ SCT015
VGHS,TAF VGHS 051100Z 0512/0618 34005KT 4000 HZ FEW015 BECMG 0518/0520 VRB03KT 3500 HZ BECMG 0524/0602 00000KT 3000 HZ FEW012 BECMG 0606/0608 33008KT 4000 HZ NSC BECMG 0614/0616 34006KT 3500 HZ NSC
VHHH,TAF VHHH 051100Z 0512/0618 03010KT 9000 FEW015 SCT025 TX22/0606Z TN19/0522Z TEMPO 0516/0524 4000 RA
VIAG,TAF VIAG 051100Z 0512/0618 06005KT 1500 FU NSC BECMG 0514/0517 VRB02KT 0800 FG TEMPO 0601/0603 0600 FG BECMG 0606/0609 1500 FU BECMG 0614/0617 0800 FG
VIAR,TAF VIAR 051100Z 0512/0618 09008KT 1500 FU BR SCT040 BKN100 TEMPO 0521/0602 09010G20KT 0800 -TSRA FEW040CB OVC080 BECMG 0604/0606 07008KT 2000 BR -RA SCT030 BKN090 BECMG 0608/0610 3000 HZ BECMG 0615/0617 34008KT 2000 BR SCT090
VIBR,TAF VIBR 050500Z 0506/0515 VRB02KT 5000 HZ -RA FEW080 BECMG 0512/0514 3000 HZ BR SCT030 SCT080
VIBT,TAF VIBT 050930Z 0512/0524 15005KT 0800 FU SKC BECMG 0521/0522 VRB02KT 0500 FU SKC
VIBY,TAF VIBY 050930Z 0512/0524 06005KT 4000 HZ NSC BECMG 0514/0515 3000 HZ BECMG 0517/0519 2000 BR BECMG 0521/0522 1000 BR BECMG 0524/ 0800 FG FEW250
VICG,TAF VICG 051100Z 0512/0618 14005KT 3000 BR SCT250 BECMG 0515/0518 VRB02KT 3000 BR SCT250 BECMG 0601/0603 14005KT 5000 BR FEW100 SCT250 TEMPO 0605/0607 14005KT 5000 BR SCT020 SCT090 BECMG 0612/0615 VRB02KT 4000 BR SCT100 BKN250
VIDN,TAF VIDN 051100Z 0512/0521 05005KT 1500 BR FEW030 SCT060
VIDP,TAF VIDP 051100Z 0512/0618 11006KT 1500 FU NSC BECMG 0600/0602 00000KT 0800 MIFG FEW100 BECMG 0605/0607 11006KT 1200 FU FEW100 BECMG 0608/0610 16005KT 1800 FU SCT100 BECMG 0615/0617 00000KT 1200 FU BR
VIGG,TAF VIGG 050500Z 0506/0515 27004KT 5000 HZ -RA SCT030 SCT080 BECMG 0511/0513 VRB02KT 4000 -RA BR BKN080
VIGR,TAF VIGR 050930Z 0512/0524 30005KT 4000 HZ NSC BECMG 0516/0518 3000 BR NSC BECMG 0520/0522 2000 BR NSC
VIJO,TAF VIJO 050930Z 0512/0524 25010KT 6000 FEW250
VIJP,TAF VIJP 051100Z 0512/0618 VRB02KT 5000 HZ NSC BECMG 0514/0516 VRB02KT 3000 HZ NSC BECMG 0604/0606 20004KT 5000 HZ NSC
VIKG,TAF VIKG 050500Z 0506/0515 27006KT 5000 HZ FEW100 BECMG 0512/0514 VRB03KT 3000 HZ
VILK,TAF VILK 051100Z 0512/0618 00000KT 2000 HZ NSC BECMG 0518/0520 1500 BR BECMG 0524/0602 00000KT 0800 FG BECMG 0604/0606 1500 BR BECMG 0606/0608 VRB02KT 3000 HZ BECMG 0614/0616 00000KT 1500 BR
VIPT,TAF VIPT 051100Z 0512/0521 09005KT 1200 BR 
VISM,TAF VISM 050500Z 0506/0515 27004KT 5000 HZ -RA FEW030 SCT100 BECMG 0511/0513 VRB02KT 3000 -RA BR SCT030 BKN080
VISR,TAF VISR 050930Z 0512/0524 VRB02KT 1000 RABR SCT025 BKN090 BECMG 0518/0520 0500 SNRAFG SCT015 BKN080 TEMPO 0522/0524 SCT015 FEW020CB BKN080
VLLB,TAF VLLB 051100Z 0512/0612 22004KT 4000 BR FEW010 SCT060
VLLN,TAF VLLN 051100Z 0512/0612 36004KT 3000 BR FEW010 SCT100
VLPS,TAF VLPS 051100Z 0512/0612 36004KT 4000 BR FEW020 SCT200
VLSK,TAF VLSK 051100Z 0512/0612 04004KT 3000 BR FEW020 SCT100
VLVT,TAF VLVT 051100Z 0512/0612 12004KT 4000 BR FEW016 SCT100
VMMC,TAF VMMC 051100Z 0512/0618 02010KT 9999 FEW010 SCT020 TEMPO 0512/0516 09008KT 4500 -RA BR TEMPO 0518/0602 2500 RA BR BECMG 0606/0609 09010KT
VNKT,TAF VNKT 051100Z 0512/0612 26006KT 8000 FEW020 BECMG 0600/0602 VRB02KT 6000 BR FEW015 SCT025 PROB40 0601/0603 5000 BR BECMG 0604/0605 12004KT 6000 FEW020 BECMG 0607/0609 25008KT 9999 FEW020 SCT025
VOAR,TAF VOAR 050500Z 0506/0612 05010KT 6000 SCT018 BKN090 TEMPO 0510/0515 3500 RA/DZ SCT016 BKN080 BECMG 0515/0516 VRB02KT 4500 BR TEMPO 0518/0523 2100 RA/DZ SCT016 BKN080 BECMG 0602/0604 03010KT 6000 TEMPO 0610/0612 3500 RA/DZ SCT016 BKN080
VOAT,TAF VOAT 050200Z 0503/0512 29005KT 4000 -RA BR SCT015 FEW025CB BKN080 BECMG 0506/0507 29010KT 5000 HZ SCT015 SCT080
VOBG,TAF VOBG 051100Z 0512/0521 07010KT 6000 SCT012
VOBL,TAF VOBL 051100Z 0512/0618 07010KT 6000 SCT012 BECMG 0522/0523 3000 BR SCT008 SCT012 TEMPO 0600/0603 1500 BR BECMG 0605/0606 6000 SCT012
VOBM,TAF VOBM 051100Z 0512/0521 09010KT 6000 SCT015
VOBZ,TAF VOBZ 050800Z 0509/0518 08010KT 5000 HZ SCT015 BKN100 TEMPO 0510/0515 13015KT 3000 -TSRA BKN010 FEW030CB BKN080 BECMG 0515/0517 VRB03KT 5000 HZ SCT015 SCT100
VOCB,TAF VOCB 051100Z 0512/0618 05010KT 5000 BR SCT012 BKN080 TEMPO 0512/0518 3000 -TSRA/RA SCT012 FEW020TCU/CB BKN100 BECMG 0515/0516 VRB02KT 3000 BR BECMG 0521/0522 33005KT BECMG 0603/0604 05010KT 5000 HZ TEMPO 0606/0612 SCT012 FEW020TCU/CB BKN080 BECMG 0615/0616 VRB02KT 3000 BR
VOCI,TAF VOCI 051100Z 0512/0618 12004KT 3500 BR SCT012 BKN080 TEMPO 0514/0518 24010KT 2500 TSRA RA SCT012 FEW025CB OVC080 BECMG 0520/0522 VRB02KT 3500 -TSRA RA SCT012 FEW025CB BKN080 BECMG 0603/0605 22005KT 5000 BR DZ SCT012 FEW025CB BKN090 TEMPO 0608/0612 25008KT 2500 TSRA RA FEW008 SCT012 FEW025CB OVC080
VOCL,TAF VOCL 051100Z 0512/0618 31006KT 5000 -TSRA FEW008 SCT015 FEW025CB BKN080 TEMPO 0514/0518 29010KT 3500 TSRA RA FEW008 SCT012 FEW025CB OVC080 BECMG 0520/0522 VRB02KT 4500 -TSRA BR SCT012 FEW025CB BKN080 BECMG 0603/0605 28006KT 5000 HZ DZ SCT012 FEW025CB SCT090 TEMPO 0608/0612 31008KT 3500 TSRA RA SCT012 FEW025CB OVC080
VOCP,TAF VOCP 050800Z 0509/0518 08008KT 6000 SCT015 SCT100 TEMPO 0512/0518 10012KT 3000 -RA SCT010 FEW025TCU BKN080
VOGB,TAF VOGB 050800Z 0509/0518 09010KT 6000 SCT015
VOGO,TAF COR VOGO 051100Z 0512/0618 08008KT 6000 NSC BECMG 0512/0515 32008KT BECMG 0516/0519 07007KT TEMPO 0600/0603 VRB02KT 5000 BR FEW030 FEW090 BECMG 0608/0612 24010KT FEW080
VOHB,TAF VOHB 051100Z 0512/0618 09010KT 6000 SCT015 TEMPO 0600/0603 3000 BR SCT008 SCT012
VOHS,TAF VOHS 051100Z 0512/0521 06010KT 5000 HZ SCT015 BKN100 TEMPO 0514/0518 10012KT 3000 -RA SCT010 FEW025TCU BKN080
VOHY,TAF VOHY 051100Z 0512/0521 06010KT 5000 HZ SCT015 BKN100 TEMPO 0514/0518 10012KT 3000 -RA SCT010 FEW025TCU BKN080
VOJV,TAF VOJV 050800Z 0509/0518 09010KT 6000 SCT015 SCT020
VOKN,TAF VOKN 051100Z 0512/0618 22007KT 6000 TS SCT012 FEW025CB TEMPO 0514/0518 24010KT 1800 TSRA RA FEW008 SCT012 FEW025CB OVC080 BECMG 0520/0522 VRB02KT 4500 -TSRA RA SCT012 FEW025CB BKN080 BECMG 0603/0605 25005KT 4500 BR RA SCT012 FEW025CB BKN090 TEMPO 0608/0612 24008KT 2500 TSRA RA SCT012 FEW025CB OVC080
VOKU,TAF VOKU 050800Z 0509/0518 05012KT 6000 SCT015 SCT100 TEMPO 0512/0518 10012KT 3000 -RA SCT010 FEW025TCU BKN080
VOLT,VOLT 051100Z 0512/0521 08007KT 4000 HZ NSC BECMG 0515/0517 14008KT 3000 HZ
VOMD,TAF VOMD 051100Z 0512/0618 05010KT 6000 SCT018 BKN100 BECMG 0515/0516 VRB02KT 5000 HZ BECMG 0521/0522 3000 BR BECMG 0600/0601 33005KT BECMG 0603/0605 05010KT 6000 TEMPO 0609/0615 SCT018 FEW025TCU/CB BKN100 BECMG 0615/0616 VRB02KT 5000 HZ
VOML,TAF VOML 051100Z 0512/0618 27010KT 6000 SCT015 TEMPO 0512/0515 3000 RA DZ SCT008 SCT012 FEW025CB BECMG 0515/0516 VRB02KT BECMG 0522/0523 3000 BR SCT005 SCT012 TEMPO 0600/0603 1500 BR BECMG 0604/0605 27010KT 6000 FEW015 TEMPO 0609/0615 3000 RA DZ SCT008 SCT012 FEW025CB
VOMM,TAF VOMM 051100Z 0512/0618 05010KT 6000 SCT018 BKN080 TEMPO 0515/0521 4000 -TSRA/RA SCT016 FEW025TCU/CB OVC080 BECMG 0518/0519 VRB02KT 5000 BR TEMPO 0600/0603 3000 BR BECMG 0603/0604 05010KT BECMG 0606/0607 6000 TEMPO 0606/0612 SCT018 FEW025TCU/CB OVC080
VOMY,TAF VOMY 050800Z 0509/0518 07010KT 6000 SCT012 TEMPO 0509/0515 3000 RA DZ SCT012 SCT018
VOND,VOND 051100Z 0512/0521 11008KT 5000 HZ NSC BECMG 0518/0520 05005KT 4000 HZ
VOPB,TAF VOPB 050900Z 0512/0521 VRB02KT 5000 BR SCT014 SCT220
VORY,TAF VORY 050800Z 0509/0518 09010KT 5000 HZ SCT015 TEMPO 0410/0515 13015KT 3000 -TSRA BKN010 FEW030CB BKN080 BECMG 0515/0517 VRB03KT 5000 HZ SCT015 SCT100
VOSR,VOSR 051100Z 0512/0521 27010KT 4000 HZ NSC BECMG 0513/0515 33005KT BECMG 0517/0519 03003KT 2500 HZ
VOTP,TAF VOTP 050800Z 0509/0518 10010KT 6000 SCT015 SCT025 TEMPO 0510/0515 13015KT 3000 -TSRA BKN010 FEW030CB BKN080 BECMG 0515/0517 VRB03KT 5000 HZ SCT015 SCT100
VOTR,TAF VOTR 051100Z 0512/0618 05010KT 5000 HZ SCT015 BKN080 BECMG 0515/0516 VRB02KT 3000 BR BECMG 0521/0522 33005KT BECMG 0603/0604 05010KT 5000 HZ TEMPO 0606/0612 SCT015 FEW025TCU/CB BKN080 BECMG 0615/0616 VRB02KT 3000 BR
VOTV,TAF VOTV 051100Z 0512/0618 25004KT 6000 SCT015 BKN090 TEMPO 0514/0518 26010KT 1800 TSRA RA FEW008 SCT012 FEW025CB OVC080 BECMG 0520/0522 VRB02KT 2500 -TSRA RA SCT012 FEW025CB BKN080 BECMG 0603/0605 22005KT 5000 HZ DZ SCT012 FEW025CB BKN090 TEMPO 0608/0612 25008KT 3500 TSRA RA SCT012 FEW025CB OVC080
VOVZ,TAF VOVZ 051100Z 0512/0618 09008KT 4500 HZ NSC BECMG 0514/0516 VRB02KT 4000 BR FEW018 TEMPO 0522/0602 2000 BR BECMG 0604/0606 09010KT 4500 HZ NSC BECMG 0614/0616 VRB02KT 4000 BR FEW018
VRMG,TAF VRMG 051100Z 0512/0618 24010KT 9999 SCT017TCU TEMPO 0512/0518 FEW017CB
VRMH,TAF VRMH 051100Z 0512/0618 29005KT 9999 FEW018TCU TEMPO 0512/0518 FEW019CB
VRMM,TAF VRMM 051100Z 0512/0618 24010KT 9999 FEW018TCU TEMPO 0512/0518 5000 SHRA FEW018CB
VTBD,TAF VTBD 051100Z 0512/0618 05005KT 9999 FEW020 SCT060
VTBO,TAF VTBO 051100Z 0512/0612 05008KT 7000 FEW020 BKN100
VTBS,TAF VTBS 051100Z 0512/0618 04005KT 9999 FEW020 SCT060
VTBU,TAF VTBU 051100Z 0512/0612 35005KT 7000 FEW020 SCT100 BECMG 0604/0606 15005KT
VTCC,TAF VTCC 051100Z 0512/0618 27005KT 9999 FEW035 BECMG 0518/0520 36005KT BECMG 0601/0603 18005KT BECMG 0609/0611 28005KT
VTCH,TAF VTCH 051100Z 0512/0612 06005KT 9999 FEW025 BECMG 0520/0522 00000KT 1000 BR BECMG 0600/0602 29005KT 9999 NSW
VTCL,TAF VTCL 051100Z 0512/0612 23005KT 9999 FEW025 BECMG 0610/0612 05005KT
VTCN,TAF VTCN 051100Z 0512/0612 03005KT 9999 FEW025
VTCP,TAF VTCP 051100Z 0512/0612 36005KT 9999 FEW035 BECMG 0520/0522 00000KT 1000 BR BECMG 0600/0602 02005KT 9999 NSW
VTCT,TAF VTCT 051100Z 0512/0618 36005KT 9999 FEW030 BECMG 0513/0515 27005KT BECMG 0521/0523 01005KT BECMG 0612/0614 28005KT
VTPB,TAF VTPB 051100Z 0512/0612 36005KT 9999 FEW030
VTPH,TAF VTPH 051100Z 0512/0612 03005KT 9999 FEW020
VTPM,TAF VTPM 051100Z 0512/0612 06005KT 9999 FEW035
VTPO,TAF VTPO 051100Z 0512/0612 25005KT 9999 FEW025
VTPP,TAF VTPP 051100Z 0512/0612 27005KT 9999 FEW030 BECMG 0518/0520 36005KT BECMG 0603/0605 26005KT
VTSB,TAF VTSB 051100Z 0512/0612 06004KT 9999 SCT020 BKN100 TEMPO 0600/0612 VRB15G25KT 3000 TSRA FEW016CB SCT018 BKN100
VTSC,TAF VTSC 051100Z 0512/0612 16005KT 9999 SCT020 BKN100 TEMPO 0512/0518 4000 RA TEMPO 0606/0612 VRB15G25KT 3000 TSRA FEW016CB SCT018 BKN100
VTSE,TAF VTSE 051100Z 0512/0612 04005KT 9999 SCT020 BKN100 TEMPO 0512/0524 4000 RA TEMPO 0600/0612 4000 RA
VTSF,TAF VTSF 051100Z 0512/0612 30003KT 9999 SCT020 BKN100 TEMPO 0512/0524 3000 RA TEMPO 0600/0612 3000 RA
VTSG,TAF VTSG 051100Z 0512/0612 00000KT 9999 FEW020 TEMPO 0512/0518 10015G25KT 3000 TSRA FEW018CB SCT020 BKN100 BECMG 0602/0604 06006KT
VTSM,TAF VTSM 051100Z 0512/0612 13006KT 9999 SCT020 BKN100 TEMPO 0512/0524 VRB15G25KT 3000 TSRA FEW016CB SCT018 OVC100 TEMPO 0600/0612 VRB15G25KT 3000 TSRA FEW016CB SCT018 OVC100
VTSP,TAF VTSP 051100Z 0512/0618 02004KT 9999 SCT020 TEMPO 0512/0518 10015G25KT 3000 TSRA FEW018CB SCT020 BKN100
VTSR,TAF VTSR 051100Z 0512/0612 00000KT 9999 FEW020 TEMPO 0512/0518 10015G25KT 3000 TSRA FEW018CB SCT020 BKN100 BECMG 0602/0604 27006KT
VTSS,TAF VTSS 051100Z 0512/0612 12004KT 8000 -RA SCT018 OVC100 BECMG 0518/0520 NSW TEMPO 0521/0603 4000 RA TEMPO 0605/0612 VRB15G25KT 3000 TSRA FEW016CB SCT018 OVC100
VTST,TAF VTST 051100Z 0512/0612 00000KT 9999 FEW020 TEMPO 0512/0518 10015G25KT 3000 TSRA FEW018CB SCT020 BKN100 BECMG 0602/0604 06006KT
VTUD,TAF VTUD 051100Z 0512/0612 07005KT 8000 NSC
VTUI,TAF VTUI 051100Z 0512/0612 08005KT 8000 NSC
VTUK,TAF VTUK 051100Z 0512/0612 05005KT 8000 NSC
VTUL,TAF VTUL 051100Z 0512/0612 08005KT 8000 NSC
VTUO,TAF VTUO 051100Z 0512/0612 07005KT 9000 FEW040
VTUQ,TAF VTUQ 051100Z 0512/0612 06005KT 9000 FEW030
VTUU,TAF VTUU 051100Z 0512/0612 04005KT 9000 NSC
VTUV,TAF VTUV 051100Z 0512/0612 06005KT 9000 FEW030
VTUW,TAF VTUW 051100Z 0512/0612 07005KT 8000 NSC
VVCI,TAF VVCI 051100Z 0512/0612 13006KT CAVOK BECMG 0520/0521 4000 BR BECMG 0601/0602 6000 NSW
VVCR,TAF VVCR 051100Z 0512/0612 06012KT 9999 SCT015 BECMG 0513/0514 33005KT BECMG 0602/0603 05012KT
VVCT,TAF VVCT 051100Z 0512/0612 09006KT 9999 SCT015 SCT040 BECMG 0521/0522 VBR03KT 5000 BR BECMG 0600/0601 01010KT 9999 NSW TEMPO 0610/0612 5000 TSRA SCT015 FEW017CB BKN040
VVDN,TAF VVDN 051100Z 0512/0612 34010KT 9999 FEW017 SCT060 TEMPO 0513/0518 4500 SHRA SCT015 FEW017CB BKN060
VVNB,TAF VVNB 051100Z 0512/0612 32005KT 8000 NSC BECMG 0519/0520 3500 BR TEMPO 0522/0601 1500 BR BECMG 0602/0603 6000 NSW
VVPB,TAF VVPB 051100Z 0512/0612 32008KT 8000 SCT015 BKN050 TEMPO 0512/0516 4000 SHRA SCT010 FEW015CB BKN050 TEMPO 0521/0601 3500 RA BR SCT008 BKN040
VVPQ,TAF VVPQ 051100Z 0512/0612 09008KT 9999 SCT015 SCT040 TEMPO 0512/0515 5000 SHRA SCT015 FEW017CB BKN040
VVTS,TAF VVTS 051100Z 0512/0618 VRB03KT 9999 SCT015 SCT040 TEMPO 0512/0516 TS SCT015 FEW017CB BKN040 BECMG 0521/0522 5000 BR BECMG 0600/0601 10010KT 9999 NSW TEMPO 0606/0612 TS SCT015 FEW017CB
VYMD,TAF VYMD 051100Z 0512/0612 34003KT 7000 FEW025 TEMPO 0512/0518 32004KT 6000 SCT020
VYNT,TAF VYNT 051100Z 0512/0612 29005KT 7000 SCT020 SCT120 TEMPO 0512/0518 32006KT 6000 FEW020 SCT110
VYYY,TAF VYYY 051100Z 0512/0612 25005KT 8000 NSC TEMPO 0512/0518 8000 FEW020
WAAA,TAF WAAA 051100Z 0512/0618 12004KT 8000 FEW019 BECMG 0601/0603 31010KT
WABB,TAF WABB 051100Z 0512/0618 33005KT 9999 SCT018 TEMPO 0600/0604 5000 RA BKN018 BECMG 0610/0612 00000KT
WADD,TAF WADD 051100Z 0512/0612 VRB05KT 9999 SCT016 TEMPO 0515/0519 5000 TSRA FEW014CB BKN014
WADL,TAF WADL 051100Z 0512/0612 18005KT 7000 BKN016 PROB40 TEMPO 0513/0515 3000 TSRA FEW015CB
WALL,TAF WALL 051100Z 0512/0618 08002KT 9999 FEW020 TEMPO 0517/0520 7000 -RA FEW018CB FEW020
WALS,TAF WALS 051100Z 0512/0524 VRB01KT 8000 SCT017 TEMPO 0521/0524 5000 BR
WAMM,TAF WAMM 051100Z 0512/0618 VRB03KT 9999 SCT021 BECMG 0600/0602 33009KT
WAOO,TAF WAOO 051100Z 0512/0612 18006KT 9999 SCT018
WAPP,TAF COR WAPP 051100Z 0512/0612 31005KT 9999 SCT016 TEMPO 0517/0519 4000 -TSRA FEW015CB
WAQA,TAF WAQA 051100Z 0512/0524 10004KT 8000 FEW012
WAQD,TAF WAQD 051100Z 0512/0524 00000KT 8000 SCT015
WAQJ,TAF WAQJ 051100Z 0512/0524 12004KT 6000 BKN015 TEMPO 0521/0524 3000 BR
WAQQ,TAF WAQQ 051100Z 0512/0524 06003KT 9000 FEW015
WAQT,TAF WAQT 051100Z 0512/0524 12003KT 8000 SCT015 TEMPO 0521/0524 4000 BR
WARR,TAF WARR 051100Z 0512/0612 25005KT 8000 SCT020 PROB30 TEMPO 0514/0518 4000 TSRA SCT018CB BECMG 0518/0520 4000 HZ BECMG 0601/0603 08010KT 9999 NSW
WATT,TAF WATT 051100Z 0512/0612 14008KT 8000 SCT016
WBGB,TAF WBGB 051100Z 0512/0612 VRB03KT 9999 SCT016 TEMPO 0515/0519 30008KT 4000 TSRA FEW005 FEW015CB
WBGG,TAF WBGG 051100Z 0512/0612 VRB03KT 9999 SCT020 TEMPO 0514/0518 4000 RA FEW005 SCT020
WBGR,TAF WBGR 051100Z 0512/0612 17005KT 9999 SCT016 TEMPO 0512/0514 33010KT 4000 TSRA FEW005 FEW015CB TEMPO 0515/0518 4000 RA FEW005 SCT014
WBGS,TAF WBGS 051100Z 0512/0612 VRB03KT 9999 SCT018
WBKK,TAF WBKK 051100Z 0512/0612 10006KT 9999 FEW014 BECMG 0600/0602 22005KT PROB40 TEMPO 0605/0609 3000 +TSRA FEW016CB SCT035
WBKL,TAF WBKL 051100Z 0512/0612 28006KT 9999 FEW014 TEMPO 0512/0516 4000 TSRA FEW016CB SCT030
WBKS,TAF WBKS 051100Z 0512/0612 25007KT 9999 FEW015 PROB40 TEMPO 0522/0602 5000 TSRA FEW015CB SCT040
WBKW,TAF WBKW 051100Z 0512/0612 30004KT 9999 FEW016
WBSB,TAF WBSB 051100Z 0512/0618 20003KT 9999 SCT014 FEW015CB TEMPO 0512/0518 7000 -TSRA BECMG 0518/0520 18005KT FEW004 FEW015CB
WIDD,TAF WIDD 051100Z 0512/0612 16006KT 9999 SCT014
WIEE,TAF WIEE 050500Z 0506/0606 26006KT SCT018
WIHH,TAF WIHH 051100Z 0512/0612 24005KT 5000 HZ SCT020 TEMPO 0514/0517 15008KT 3000 -RA BKN018 BECMG 0519/0521 00000KT 4000 BR FEW020
WIII,TAF WIII 051100Z 0512/0618 22005KT 8000 SCT020 BECMG 0514/0516 5000 HZ BECMG 0601/0603 35010KT 9000 NSW TEMPO 0607/0610 22015KT 4000 -TSRA FEW015CB BECMG 0610/0612 23005KT
WIMM,TAF WIMM 051100Z 0512/0612 VRB05KT 3000 TSRA FEW016CB BKN017 BECMG 0516/0518 5000 HZ SCT017 BECMG 0602/0604 34010KT 9999 NSW
WIPB,TAF WIPB 050500Z 0506/0518 15005KT 9999 SCT010 TEMPO 0510/0512 5000 -RA FEW010CB BKN011
WIPP,TAF WIPP 051100Z 0512/0612 30007KT 9999 SCT010 TEMPO 0512/0516 3000 TSRA FEW010CB BKN011 TEMPO 0521/0524 3000 BR
WIPY,TAF WIPY 050500Z 0506/0518 27007KT 9999 SCT012 TEMPO 0506/0510 3000 TSRA FEW010CB BKN012
WITT,TAF WITT 051100Z 0512/0612 12005KT 7000 BKN017 TEMPO 0513/0517 3000 -TSRA FEW015CB TEMPO 0519/0523 5000 RA FEW015CB BECMG 0602/0604 29007KT
WMAP,TAF WMAP 051100Z 0512/0612 VRB02KT 9999 FEW008 FEW017CB TEMPO 0605/0610 4000 TSRA FEW008 FEW017CB
WMBT,TAF WMBT 051100Z 0512/0612 VRB02KT 9999 FEW025 TEMPO 0512/0516 4000 TSRA FEW017CB
WMKA,TAF WMKA 051100Z 0512/0612 VRB02KT 9000 SCT028 TEMPO 0512/0517 7000 RA FEW010
WMKB,TAF WMKB 051100Z 0512/0612 08005KT 7000 FEW024
WMKC,TAF WMKC 051100Z 0512/0612 VRB03KT 9999 FEW020
WMKE,TAF WMKE 051100Z 0512/0612 VRB03KT 9999 FEW017
WMKI,TAF WMKI 051100Z 0512/0612 VRB02KT 8000 FEW026
WMKJ,TAF WMKJ 051100Z 0512/0612 VRB02KT 9999 FEW008 FEW017CB TEMPO 0605/0610 4000 TSRA FEW008 FEW017CB
WMKK,TAF WMKK 051100Z 0512/0618 VRB03KT 9999 FEW018 TEMPO 0515/0519 VRB02KT 4000 TSRA FEW008 FEW017CB
WMKL,TAF WMKL 051100Z 0512/0612 VRB02KT 9999 FEW010 TEMPO 0512/0518 6000 RA FEW017CB TEMPO 0520/0524 6000 TSRA FEW017CB
WMKM,TAF WMKM 051100Z 0512/0612 16004KT 9999 FEW020
WMKN,TAF WMKN 051100Z 0512/0612 VRB03KT 9999 FEW022 TEMPO 0512/0514 8000 -RA FEW010
WMKP,TAF WMKP 051100Z 0512/0612 07003KT 8000 SCT025 TEMPO 0512/0516 6000 RA FEW001 TEMPO 0519/0600 6000 TSRA FEW017CB BECMG 0604/0606 24010KT FEW020
WMPA,TAF WMPA 050500Z 0506/0606 VRB02KT 9999 FEW021 TEMPO 0510/0514 6000 TSRA FEW017CB TEMPO 0514/0517 7000 RA FEW017CB
WMSA,TAF WMSA 051100Z 0512/0612 VRB03KT 9999 FEW018 TEMPO 0516/0519 4000 TSRA FEW008 FEW017CB
WPDL,TAF WPDL 051106Z 0512/0600 16006KT 9999 FEW025
WSAP,TAF WSAP 051100Z 0512/0618 16006KT 9999 FEW015 BKN020 TEMPO 0607/0610 3000 TSRA FEW012CB BKN015
WSSL,TAF WSSL 051100Z 0512/0618 16006KT 9999 FEW015 BKN020 TEMPO 0607/0610 3000 TSRA FEW012CB BKN015
WSSS,TAF WSSS 051100Z 0512/0618 16006KT 9999 FEW015 BKN020 TEMPO 0607/0610 3000 TSRA FEW012CB BKN015
YAMB,TAF YAMB 051102Z 0512/0612 VRB04KT 9999 SCT030 FM052300 10012KT 9999 SCT035 FM060200 07012KT 9999 FEW040
YBAS,TAF YBAS 051106Z 0512/0612 11007KT CAVOK FM051500 05006KT CAVOK FM060100 14010KT CAVOK FM060900 10007KT CAVOK
YBBN,TAF YBBN 051102Z 0512/0618 14008KT 9999 -SHRA SCT035 FM051300 20007KT 9999 -SHRA SCT030 FM052200 14010KT 9999 -SHRA SCT035 FM060100 11012KT 9999 NSW FEW040 FM060900 13007KT 9999 FEW030 FM061300 20006KT 9999 -SHRA SCT030
YBCG,TAF YBCG 051112Z 0512/0612 20008KT 9999 -SHRA SCT025 FM060000 13014KT 9999 -SHRA SCT035 FM060600 12010KT 9999 NSW SCT030 INTER 0521/0602 4000 SHRA BKN015
YBCS,TAF AMD YBCS 051102Z 0512/0612 18008KT 9999 -SHRA SCT025 SCT040 FM052300 13016KT 9999 NSW SCT035 FM060830 17008KT 9999 -SHRA SCT020 SCT035 INTER 0512/0522 3000 SHRA BKN012
YBHM,TAF YBHM 051053Z 0512/0600 13025KT 9999 SCT035
YBLN,TAF AMD YBLN 051108Z 0512/0612 17014KT CAVOK FM051600 13008KT CAVOK FM060600 20014KT 9999 -SHRA NSC
YBMA,TAF YBMA 051054Z 0512/0600 18005KT CAVOK FM052200 05013KT CAVOK
YBRK,TAF YBRK 051112Z 0512/0612 16005KT 9999 FEW020 FM052200 10014KT 9999 SCT050 FM060000 10010KT CAVOK
YBRM,TAF YBRM 051110Z 0512/0612 30008KT 9999 FEW010 FM060100 27010KT CAVOK
YBTL,TAF YBTL 051105Z 0512/0612 11012KT 9999 SCT030 FM051600 15008KT 9999 SCT025 FM052300 11014KT 9999 SCT035 FM060100 06018KT 9999 FEW045 FM060900 11013KT 9999 SCT025
YBWW,TAF YBWW 051115Z 0512/0612 09010KT 9999 SCT012 FM052200 09012KT 9999 SCT050 TEMPO 0512/0522 9999 BKN010
YCFS,TAF YCFS 051125Z 0512/0612 24006KT 9999 FEW030 BECMG 0522/0600 15008KT 9999 -SHRA SCT030 FM060300 09012KT 9999 NSW SCT040 FM060900 01004KT 9999 SCT025
YCIN,TAF YCIN 050609Z 0508/0520 32012KT 9999 FU NSC
YFRT,TAF AMD YFRT 050701Z 0507/0514 22015G25KT CAVOK FM050900 18018G28KT CAVOK FM051300 18015G25KT 9999 BKN010 PROB30 0509/0514 3000 BLDU
YGEL,TAF YGEL 051109Z 0512/0606 18014KT CAVOK FM060300 21018KT CAVOK
YGLA,TAF YGLA 051115Z 0512/0600 16008KT 9999 FEW020 FM052200 12012KT 9999 FEW045
YHID,TAF AMD YHID 051112Z 0512/0612 12014KT 9999 -SHRA SCT014 BKN020 FM052300 11017G27KT 9999 SCT025 FM060900 13014KT 9999 -SHRA SCT014 BKN020 INTER 0512/0600 12017G27KT 3000 SHRA BKN010 FEW020TCU
YLHI,TAF YLHI 051105Z 0512/0612 09015KT 9999 SCT030 FM051800 11010KT 9999 -SHRA SCT025 FM060900 10014KT 9999 -SHRA SCT020 BKN030 INTER 0518/0603 4000 SHRA BKN020
YMAV,TAF YMAV 051116Z 0512/0612 21008KT CAVOK FM051400 32005KT CAVOK FM051700 01004KT CAVOK FM060200 16008KT CAVOK
YMHB,TAF YMHB 051115Z 0512/0612 21007KT 9999 FEW015 BKN040 BECMG 0515/0517 32005KT 9999 FEW012 FM060300 14008KT CAVOK FM061000 33005KT CAVOK TEMPO 0512/0516 9999 BKN015
YMLT,TAF YMLT 051105Z 0512/0612 33006KT CAVOK FM051800 VRB03KT 9999 FEW010 FM052300 35004KT CAVOK FM060200 33012KT CAVOK FM060900 34005KT CAVOK
YMML,TAF YMML 051114Z 0512/0618 33005KT CAVOK FM051700 36010KT CAVOK FM060700 18006KT CAVOK FM061100 33005KT CAVOK
YPAD,TAF YPAD 051118Z 0512/0618 05005KT CAVOK FM060300 25010KT CAVOK FM060900 10008KT CAVOK FM061600 08010KT CAVOK
YPCC,TAF YPCC 051112Z 0512/0612 11014KT 9999 -SHRA SCT016 BKN035 FM051400 12018KT 9999 NSW SCT018 BKN040 FM060400 13014KT 9999 SCT025
YPDN,TAF YPDN 051132Z 0512/0618 26005KT CAVOK FM051500 VRB04KT 9999 SCT025 FM060200 34008KT 9999 FEW040 FM061200 28005KT 9999 FEW030 PROB30 TEMPO 0512/0514 VRB20G30KT 1000 TSRA SCT035CB PROB30 TEMPO 0603/0610 VRB15G30KT 1000 TSRA SCT035CB
YPEA,TAF AMD YPEA 051023Z 0510/0606 18012KT CAVOK FM051500 10018G30KT 9999 -SHRA NSC BECMG 0522/0600 10012KT 9999 -SHRA NSC PROB30 INTER 0518/0603 6000 TSRA FEW100CB
YPGV,TAF YPGV 050703Z 0508/0520 09014KT 9999 SCT025 FM050900 11005KT 9999 SCT020
YPJT,TAF AMD YPJT 051110Z 0512/0606 18010KT CAVOK FM051600 11014KT 9999 -SHRA NSC FM060500 23014KT CAVOK PROB30 INTER 0519/0603 6000 TSRA FEW100CB
YPKG,TAF AMD YPKG 051109Z 0512/0612 15010KT CAVOK FM051300 12015G25KT CAVOK BECMG 0515/0517 11014KT 9999 SCT015 FM060000 10014KT CAVOK FM060400 09017G28KT CAVOK BECMG 0610/0612 12014KT CAVOK
YPKU,TAF YPKU 050611Z 0508/0520 04008KT CAVOK
YPLM,TAF YPLM 051101Z 0512/0612 22017KT CAVOK FM051400 21010KT 9999 SCT015 FM052300 21010KT CAVOK FM060300 24018KT CAVOK
YPPD,TAF YPPD 051108Z 0512/0612 29010KT CAVOK FM060000 30018KT CAVOK
YPPH,TAF AMD YPPH 051111Z 0512/0618 18012KT CAVOK FM051500 10018G30KT 9999 -SHRA NSC BECMG 0522/0600 10012KT 9999 -SHRA NSC FM060600 23014KT CAVOK FM061200 18010KT CAVOK PROB30 INTER 0518/0603 6000 TSRA FEW100CB
YPTN,TAF YPTN 051106Z 0512/0612 09007KT CAVOK FM052000 05007KT CAVOK FM060400 11008KT CAVOK FM060900 VRB03KT CAVOK
YPWR,TAF YPWR 051119Z 0512/0606 05007KT CAVOK
YPXM,TAF AMD YPXM 051115Z 0512/0612 15007KT 9999 -SHRA BKN012 FM060400 15008KT 9999 NSW SCT015 BKN025 TEMPO 0512/0600 9999 BKN008
YSCB,TAF YSCB 051120Z 0512/0612 VRB03KT CAVOK FM052000 12005KT 9999 SCT020 FM052300 34005KT CAVOK FM060200 24005KT 9999 -SHRA SCT035 INTER 0603/0608 5000 SHRA BKN030 PROB30 0516/0519 2000 BR PROB30 TEMPO 0604/0608 VRB15G25KT 3000 TSRA BKN030 SCT035CB
YSDU,TAF YSDU 051120Z 0512/0606 07007KT CAVOK FM052300 05009KT CAVOK
YSNF,TAF YSNF 051104Z 0512/0612 13012KT 9999 FEW020 FM051400 13014KT 9999 -SHRA SCT015 BKN025 FM060300 13015KT 9999 -SHRA BKN015 FM060900 13015KT 9999 -SHRA SCT006 BKN010 INTER 0518/0609 3000 SHRA BKN012 TEMPO 0609/0612 3000 SHRA BKN005
YSRI,TAF YSRI 051114Z 0512/0612 VRB03KT 9999 FEW035 FM060000 08008KT 9999 FEW050 FM060900 VRB03KT 9999 FEW030 PROB30 0515/0521 2000 BR SCT001
YSSY,TAF YSSY 051113Z 0512/0618 03008KT 9999 FEW030 FM051400 29006KT CAVOK BECMG 0523/0601 06015KT 9999 FEW040 FM061600 29006KT CAVOK
YSTW,TAF YSTW 051120Z 0512/0606 09010KT CAVOK FM051800 VRB03KT CAVOK
YWLM,TAF YWLM 051117Z 0512/0612 06006KT 9999 FEW030 FM051800 VRB03KT 9999 FEW020 FM060000 09012KT 9999 FEW040
ZBAA,TAF ZBAA 050901Z 0512/0612 18004MPS 6000 NSC TX12/0607Z TN00/0521Z
ZBAD,TAF ZBAD 050903Z 0512/0612 22004MPS 3000 BR NSC TX12/0607Z TN01/0521Z TEMPO 0520/0601 1200
ZBHH,TAF ZBHH 050900Z 0512/0612 08004MPS CAVOK TX11/0607Z TNM02/0522Z TEMPO 0518/0524 2000 -RASN
ZBSJ,TAF ZBSJ 050932Z 0512/0612 15004MPS 3500 BR NSC TX13/0607Z TN06/0521Z BECMG 0515/0516 2500 BECMG 0521/0522 1200 BECMG 0602/0603 2000
ZBTJ,TAF ZBTJ 050907Z 0512/0612 21003MPS 5000 HZ NSC TX15/0606Z TN07/0521Z BECMG 0605/0606 3000 -RA BR BECMG 0609/0610 5000 BR
ZBYN,TAF ZBYN 050900Z 0512/0612 33004MPS 3000 HZ NSC TX16/0607Z TN03/0522Z
ZGGG,TAF ZGGG 050904Z 0512/0612 36004MPS 6000 OVC030 TX22/0607Z TN17/0522Z
ZGHA,TAF ZGHA 050902Z 0512/0612 32004MPS 4000 BR SCT040 TX22/0607Z TN13/0522Z
ZGKL,TAF ZGKL 050907Z 0512/0612 05003MPS 5000 BR SCT040 BKN060 TX26/0607Z TN15/0522Z
ZGNN,TAF ZGNN 050908Z 0512/0612 07003MPS 6000 SCT040 TX28/0607Z TN17/0522Z
ZGOW,TAF ZGOW 050903Z 0512/0612 12003MPS 5000 BR FEW020 SCT050 TX25/0606Z TN18/0522Z
ZGSZ,TAF ZGSZ 050902Z 0512/0612 04004MPS 6000 FEW015 BKN033 TX23/0606Z TN19/0522Z
ZHCC,TAF ZHCC 050903Z 0512/0612 18003MPS 5000 HZ NSC TX21/0607Z TN09/0522Z
ZHHH,TAF ZHHH 050902Z 0512/0612 12003MPS 6000 NSC TX22/0607Z TN12/0522Z
ZJHK,TAF ZJHK 050909Z 0512/0612 06004MPS 6000 SCT015 BKN026 TX25/0606Z TN21/0521Z
ZJSY,TAF ZJSY 050901Z 0512/0612 09003MPS 9999 FEW020 SCT050 TX29/0606Z TN21/0521Z
ZKPY,TAF ZKPY 050500Z 0506/0606 18004MPS CAVOK TX14/0506Z TN00/0521Z
ZKWS,TAF ZKWS 050500Z 0506/0606 27004MPS CAVOK TX17/0506Z TN04/0521Z
ZLLL,TAF ZLLL 050904Z 0512/0612 33003MPS 6000 NSC TX11/0608Z TNM03/0523Z
ZLXY,TAF ZLXY 050905Z 0512/0612 06003MPS 3000 HZ NSC TX19/0607Z TN08/0522Z BECMG 0522/0523 2400 BECMG 0601/0602 3000
ZMCK,TAF ZMCK 051039Z 0512/0618 VRB02MPS 9999 SCT100 TNM14/0523Z TXM03/0607Z
ZMUB,TAF ZMUB 051039Z 0512/0618 VRB02MPS 6000 SCT100 TNM19/0523Z TXM02/0607Z
ZPPP,TAF ZPPP 050907Z 0512/0612 22004MPS 9999 SCT023 BKN040 TX18/0608Z TN08/0523Z
ZSAM,TAF ZSAM 050902Z 0512/0612 05004G10MPS 8000 BKN030 TX24/0606Z TN19/0521Z
ZSFZ,TAF ZSFZ 050912Z 0512/0612 03006G12MPS 6000 BKN020 TX20/0606Z TN17/0521Z
ZSHC,TAF ZSHC 050900Z 0512/0612 09003MPS 3000 BR NSC TX20/0606Z TN10/0521Z
ZSJN,TAF ZSJN 050916Z 0512/0612 21003MPS 3500 BR NSC TX16/0606Z TN05/0521Z
ZSNB,TAF ZSNB 050906Z 0512/0612 03004MPS 6000 FEW030 TX20/0606Z TN10/0521Z
ZSNJ,TAF ZSNJ 050902Z 0512/0612 09003MPS 3000 HZ NSC TX20/0606Z TN07/0522Z
ZSOF,TAF ZSOF 050906Z 0512/0612 14003MPS 5000 HZ NSC TX20/0606Z TN08/0522Z
ZSPD,TAF ZSPD 050903Z 0512/0612 04004MPS 6000 BKN020 TX19/0606Z TN12/0521Z
ZSQD,TAF ZSQD 050901Z 0512/0612 19004MPS CAVOK TX17/0606Z TN05/0520Z
ZSSS,TAF ZSSS 050902Z 0512/0612 04004MPS 6000 BKN020 TX20/0606Z TN12/0521Z
ZUCK,TAF ZUCK 050901Z 0512/0612 03003MPS 5000 BR FEW040 TX23/0608Z TN15/0521Z
ZUGY,TAF ZUGY 050902Z 0512/0612 18003MPS 6000 SCT033 TX22/0607Z TN11/0522Z
ZUUU,TAF ZUUU 050909Z 0512/0612 02003MPS 6000 SCT040 TX20/0607Z TN14/0522Z BECMG 0522/0523 2700 BR BECMG 0601/0602 4000
ZWSH,TAF ZWSH 050902Z 0512/0612 32005MPS 9999 SCT040 TX14/0609Z TN06/0600Z BECMG 0604/0605 12004MPS
ZWWW,TAF ZWWW 050905Z 0512/0612 36004MPS CAVOK TX11/0609Z TN03/0523Z BECMG 0513/0514 18004MPS BECMG 0602/0603 36004MPS
ZYCC,TAF ZYCC 050905Z 0512/0612 27003MPS 6000 FEW026 TX09/0606Z TNM05/0521Z BECMG 0523/0524 18005MPS
ZYHB,TAF ZYHB 050904Z 0512/0612 24004MPS 6000 FEW033 TX08/0606Z TNM06/0521Z
ZYTL,TAF ZYTL 050908Z 0512/0612 24004MPS 6000 SCT033 TX16/0606Z TN03/0521Z
ZYTX,TAF ZYTX 050902Z 0512/0612 18004MPS 6000 NSC TX15/0606Z TNM03/0521Z
