No errors
No warnings
356 ms
data source=metars
4734 results
raw_text,station_id,observation_time,latitude,longitude,temp_c,dewpoint_c,wind_dir_degrees,wind_speed_kt,wind_gust_kt,visibility_statute_mi,altim_in_hg,sea_level_pressure_mb,corrected,auto,auto_station,maintenance_indicator_on,no_signal,lightning_sensor_off,freezing_rain_sensor_off,present_weather_sensor_off,wx_string,sky_cover,cloud_base_ft_agl,sky_cover,cloud_base_ft_agl,sky_cover,cloud_base_ft_agl,sky_cover,cloud_base_ft_agl,flight_category,three_hr_pressure_tendency_mb,maxT_c,minT_c,maxT24hr_c,minT24hr_c,precip_in,pcp3hr_in,pcp6hr_in,pcp24hr_in,snow_in,vert_vis_ft,metar_type,elevation_m
CWRX 230828Z AUTO ///// ////SM SCT005 BKN029 OVC037 M03/M03 A2940,CWRX,2022-10-23T08:28:00Z,69.07,-79.07,-3.0,-3.0,,,,,29.40059,,,TRUE,,,,,,,,SCT,500,BKN,2900,OVC,3700,,,,,,,,,,,,,,,SPECI,39.0
UMII 230827Z 27002MPS 3200 BR OVC004 05/05 Q1010 TEMPO 2000 BKN003 RMK QBB120,UMII,2022-10-23T08:27:00Z,55.13,30.35,5.0,5.0,270,4,,1.99,29.822834,,,,,,,,,,BR,OVC,400,,,,,,,LIFR,,,,,,,,,,,,METAR,208.0
PFKW 230827Z AUTO 18003KT 1 3/4SM BR BKN002 M03/M04 A3003 RMK AO2 FZRANO,PFKW,2022-10-23T08:27:00Z,60.8,-161.43,-3.0,-4.0,180,3,,1.75,30.029528,,,TRUE,TRUE,,,,TRUE,,BR,BKN,200,,,,,,,LIFR,,,,,,,,,,,,SPECI,4.0
CYHK 230827Z AUTO 28017G22KT 6SM -SN OVC011 M16/M18 A2975 RMK SLP082,CYHK,2022-10-23T08:27:00Z,68.62,-95.85,-16.0,-18.0,280,17,22,6.0,29.749016,1008.2,,TRUE,,,,,,,-SN,OVC,1100,,,,,,,MVFR,,,,,,,,,,,,SPECI,36.0
YCBA 230826Z AUTO 26020KT 9999 TS SCT017 SCT032 BKN041 18/15 Q1007,YCBA,2022-10-23T08:26:00Z,-31.53,145.8,18.0,15.0,260,20,,6.21,29.734253,,,TRUE,,,,,,,TS,SCT,1700,SCT,3200,BKN,4100,,,VFR,,,,,,,,,,,,SPECI,219.0
PATA 230826Z AUTO 00000KT 10SM OVC015 M02/M03 A2998 RMK AO2 T10171028 TSNO $,PATA,2022-10-23T08:26:00Z,65.17,-152.1,-1.7,-2.8,0,0,,10.0,29.97933,,,TRUE,TRUE,TRUE,,TRUE,,,,OVC,1500,,,,,,,MVFR,,,,,,,,,,,,SPECI,62.0
PAGL 230826Z AUTO 19021G28KT 6SM BR OVC009 03/02 A2986 RMK AO2 PK WND 18028/0820 PWINO $,PAGL,2022-10-23T08:26:00Z,64.55,-163.0,3.0,2.0,190,21,28,6.0,29.861221,,,TRUE,TRUE,TRUE,,,,TRUE,BR,OVC,900,,,,,,,IFR,,,,,,,,,,,,SPECI,20.0
KRKS 230826Z AUTO 24010KT 2SM -SN BR FEW007 BKN011 OVC029 M01/M01 A2952 RMK AO2 SNB12 P0000 T10061006,KRKS,2022-10-23T08:26:00Z,41.6,-109.07,-0.6,-0.6,240,10,,2.0,29.518702,,,TRUE,TRUE,,,,,,-SN BR,FEW,700,BKN,1100,OVC,2900,,,IFR,,,,,,0.005,,,,,,SPECI,2062.0
KOWD 230826Z AUTO 00000KT 6SM BR FEW003 06/06 A3031 RMK AO2 T00610056,KOWD,2022-10-23T08:26:00Z,42.18,-71.17,6.1,5.6,0,0,,6.0,30.31004,,,TRUE,TRUE,,,,,,BR,FEW,300,,,,,,,VFR,,,,,,,,,,,,SPECI,14.0
KCDC 230826Z AUTO 25007KT 1 1/4SM -SN BR OVC009 00/M01 A2963 RMK AO2 RAE0755SNB0755 T00001006 PNO $,KCDC,2022-10-23T08:26:00Z,37.7,-113.1,0.0,-0.6,250,7,,1.25,29.630905,,,TRUE,TRUE,TRUE,,,,,-SN BR,OVC,900,,,,,,,IFR,,,,,,,,,,,,SPECI,1703.0
CYYD 230826Z AUTO 19002KT 7SM CLR M04/M05 A2994 RMK SLP166,CYYD,2022-10-23T08:26:00Z,54.82,-127.18,-4.0,-5.0,190,2,,7.0,29.940945,1016.6,,TRUE,,,,,,,,CLR,,,,,,,,VFR,,,,,,,,,,,,SPECI,527.0
CYXS 230826Z AUTO 00000KT 5/8SM BR BKN001 OVC004 M01/M01 A2991 RMK SLP166,CYXS,2022-10-23T08:26:00Z,53.88,-122.68,-1.0,-1.0,0,0,,0.63,29.911417,1016.6,,TRUE,,,,,,,BR,BKN,100,OVC,400,,,,,LIFR,,,,,,,,,,,,SPECI,685.0
CYQF 230826Z AUTO 36004KT 8SM BKN012 BKN039 OVC050 01/00 A2988 RMK SLP157,CYQF,2022-10-23T08:26:00Z,52.17,-113.9,1.0,0.0,360,4,,8.0,29.878937,1015.7,,TRUE,,,,,,,,BKN,1200,BKN,3900,OVC,5000,,,MVFR,,,,,,,,,,,,SPECI,912.0
YGFN 230825Z AUTO 21004KT 6000 -RA SCT008 BKN013 OVC020 18/17 Q1010 RERA,YGFN,2022-10-23T08:25:00Z,-29.77,153.03,18.0,17.0,210,4,,3.73,29.822834,,,TRUE,,,,,,,-RA,SCT,800,BKN,1300,OVC,2000,,,MVFR,,,,,,,,,,,,SPECI,26.0
PASH 230825Z AUTO 20009KT 10SM BKN014 OVC033 00/00 A2968 RMK AO2 FZRANO PNO $,PASH,2022-10-23T08:25:00Z,66.27,-166.08,0.0,0.0,200,9,,10.0,29.681103,,,TRUE,TRUE,TRUE,,,TRUE,,,BKN,1400,OVC,3300,,,,,MVFR,,,,,,,,,,,,SPECI,3.0
PAQH 230825Z AUTO 00000KT 3/4SM BR BKN002 M02/M03 A3005 RMK AO2 FZRANO,PAQH,2022-10-23T08:25:00Z,59.75,-161.85,-2.0,-3.0,0,0,,0.75,30.050198,,,TRUE,TRUE,,,,TRUE,,BR,BKN,200,,,,,,,LIFR,,,,,,,,,,,,SPECI,8.0
PANA 230825Z AUTO 14004KT 2SM BR BKN003 M02/M03 A3003 RMK AO2 CIG 001V005 FZRANO TSNO $,PANA,2022-10-23T08:25:00Z,60.68,-161.98,-2.0,-3.0,140,4,,2.0,30.029528,,,TRUE,TRUE,TRUE,,TRUE,TRUE,,BR,BKN,300,,,,,,,LIFR,,,,,,,,,,,,SPECI,7.0
PALG 230825Z AUTO 00000KT 8SM BKN001 M05/M07 A3002 RMK AO2 FZRANO,PALG,2022-10-23T08:25:00Z,61.53,-160.33,-5.0,-7.0,0,0,,8.0,30.02067,,,TRUE,TRUE,,,,TRUE,,,BKN,100,,,,,,,LIFR,,,,,,,,,,,,SPECI,13.0
KPIH 230825Z AUTO 23009KT 10SM OVC015 02/M01 A2963 RMK AO2 T00221006 $,KPIH,2022-10-23T08:25:00Z,42.92,-112.57,2.2,-0.6,230,9,,10.0,29.630905,,,TRUE,TRUE,TRUE,,,,,,OVC,1500,,,,,,,MVFR,,,,,,,,,,,,SPECI,1357.0
KNTU 230825Z 36011KT 10SM OVC014 16/14 A3010 RMK AO2 T01610139,KNTU,2022-10-23T08:25:00Z,36.82,-76.02,16.1,13.9,360,11,,10.0,30.100393,,,,TRUE,,,,,,,OVC,1400,,,,,,,MVFR,,,,,,,,,,,,SPECI,6.0
KHDN 230825Z AUTO 23005KT 10SM -RA OVC004 01/01 A2948 RMK AO2 P0000 FZRANO,KHDN,2022-10-23T08:25:00Z,40.48,-107.22,1.0,1.0,230,5,,10.0,29.480314,,,TRUE,TRUE,,,,TRUE,,-RA,OVC,400,,,,,,,LIFR,,,,,,0.005,,,,,,SPECI,2012.0
KBLI 230825Z AUTO 02003KT 1 3/4SM BR FEW001 02/02 A2993 RMK AO2 T00170017,KBLI,2022-10-23T08:25:00Z,48.8,-122.53,1.7,1.7,20,3,,1.75,29.929134,,,TRUE,TRUE,,,,,,BR,FEW,100,,,,,,,IFR,,,,,,,,,,,,SPECI,46.0
EHWO 230825Z AUTO 12004KT 070V140 9999 FEW064 SCT078 BKN084 14/13 Q1008 BLU,EHWO,2022-10-23T08:25:00Z,51.45,4.33,14.0,13.0,120,4,,6.21,29.763779,,,TRUE,,,,,,,,FEW,6400,SCT,7800,BKN,8400,,,VFR,,,,,,,,,,,,METAR,15.0
EHVL 230825Z AUTO 13014KT 9999 FEW048 OVC120 13/12 Q1009 BLU,EHVL,2022-10-23T08:25:00Z,53.28,5.08,13.0,12.0,130,14,,6.21,29.793306,,,TRUE,,,,,,,,FEW,4800,OVC,12000,,,,,VFR,,,,,,,,,,,,METAR,2.0
EHVK 230825Z AUTO 11007KT 080V150 9999 BKN080 OVC150 14/12 Q1010 BLU,EHVK,2022-10-23T08:25:00Z,51.65,5.7,14.0,12.0,110,7,,6.21,29.822834,,,TRUE,,,,,,,,BKN,8000,OVC,15000,,,,,VFR,,,,,,,,,,,,METAR,20.0
EHRD 230825Z AUTO 11007KT 080V140 9999 NSC 14/13 Q1008 NOSIG,EHRD,2022-10-23T08:25:00Z,51.95,4.45,14.0,13.0,110,7,,6.21,29.763779,,,TRUE,,,TRUE,,,,,CLR,,,,,,,,VFR,,,,,,,,,,,,METAR,-4.0
EHLW 230825Z AUTO 13008KT 090V150 9999 OVC120 13/11 Q1010 BLU,EHLW,2022-10-23T08:25:00Z,53.22,5.75,13.0,11.0,130,8,,6.21,29.822834,,,TRUE,,,,,,,,OVC,12000,,,,,,,VFR,,,,,,,,,,,,METAR,1.0
EHLE 230825Z AUTO 10006KT 9999 SCT046 13/13 Q1010 NOSIG,EHLE,2022-10-23T08:25:00Z,52.45,5.52,13.0,13.0,100,6,,6.21,29.822834,,,TRUE,,,TRUE,,,,,SCT,4600,,,,,,,VFR,,,,,,,,,,,,METAR,-3.0
EHKD 230825Z AUTO 12007KT 090V150 9999 OVC130 13/12 Q1009 BLU NOSIG,EHKD,2022-10-23T08:25:00Z,52.92,4.77,13.0,12.0,120,7,,6.21,29.793306,,,TRUE,,,TRUE,,,,,OVC,13000,,,,,,,VFR,,,,,,,,,,,,METAR,1.0
EHGR 230825Z AUTO 13007KT 9999 OVC130 14/13 Q1009 BLU,EHGR,2022-10-23T08:25:00Z,51.55,4.93,14.0,13.0,130,7,,6.21,29.793306,,,TRUE,,,,,,,,OVC,13000,,,,,,,VFR,,,,,,,,,,,,METAR,12.0
EHGG 230825Z AUTO 10006KT 070V150 8000 NSC 11/11 Q1011 NOSIG,EHGG,2022-10-23T08:25:00Z,53.12,6.57,11.0,11.0,100,6,,4.97,29.852362,,,TRUE,,,TRUE,,,,,CLR,,,,,,,,MVFR,,,,,,,,,,,,METAR,2.0
EHEH 230825Z AUTO 13006KT 100V180 9999 OVC140 15/12 Q1009 BLU NOSIG,EHEH,2022-10-23T08:25:00Z,51.45,5.38,15.0,12.0,130,6,,6.21,29.793306,,,TRUE,,,TRUE,,,,,OVC,14000,,,,,,,VFR,,,,,,,,,,,,METAR,20.0
EHDL 230825Z AUTO 12008KT 040V200 9999 BKN075 BKN089 OVC150 14/12 Q1010 BLU,EHDL,2022-10-23T08:25:00Z,52.07,5.88,14.0,12.0,120,8,,6.21,29.822834,,,TRUE,,,,,,,,BKN,7500,BKN,8900,OVC,15000,,,VFR,,,,,,,,,,,,METAR,49.0
EHBK 230825Z AUTO 15005KT 9999 NSC 17/13 Q1010 NOSIG,EHBK,2022-10-23T08:25:00Z,50.92,5.77,17.0,13.0,150,5,,6.21,29.822834,,,TRUE,,,TRUE,,,,,CLR,,,,,,,,VFR,,,,,,,,,,,,METAR,112.0
EHAM 230825Z 12009KT 090V150 CAVOK 14/12 Q1009 NOSIG,EHAM,2022-10-23T08:25:00Z,52.32,4.78,14.0,12.0,120,9,,6.21,29.793306,,,,,,TRUE,,,,,CAVOK,,,,,,,,VFR,,,,,,,,,,,,METAR,-2.0
CYZH 230825Z AUTO 13003KT 9SM BKN017 OVC044 02/01 A2993 RMK SLP163,CYZH,2022-10-23T08:25:00Z,55.28,-114.77,2.0,1.0,130,3,,9.0,29.929134,1016.3,,TRUE,,,,,,,,BKN,1700,OVC,4400,,,,,MVFR,,,,,,,,,,,,SPECI,583.0
CYAY 230825Z AUTO 23012G17KT 9SM BKN016 BKN081 BKN091 10/07 A3005 RMK SLP178,CYAY,2022-10-23T08:25:00Z,51.38,-56.07,10.0,7.0,230,12,17,9.0,30.050198,1017.8,,TRUE,,,,,,,,BKN,1600,BKN,8100,BKN,9100,,,MVFR,,,,,,,,,,,,SPECI,23.0
PANN 230824Z AUTO 00000KT 1SM BR BKN002 OVC047 M02/M02 A2992 RMK AO2 I1000 T10171022 TSNO,PANN,2022-10-23T08:24:00Z,64.55,-149.08,-1.7,-2.2,0,0,,1.0,29.920275,,,TRUE,TRUE,,,TRUE,,,BR,BKN,200,OVC,4700,,,,,LIFR,,,,,,,,,,,,METAR,110.0
KGZH 230824Z AUTO 00000KT 1 3/4SM BR CLR 07/06 A3013 RMK AO2 VIS 3/4V5 T00720061,KGZH,2022-10-23T08:24:00Z,31.42,-87.05,7.2,6.1,0,0,,1.75,30.129921,,,TRUE,TRUE,,,,,,BR,CLR,,,,,,,,IFR,,,,,,,,,,,,SPECI,77.0
CYFC 230824Z AUTO 22003KT 3SM BR CLR 03/02 A3033 RMK SLP273,CYFC,2022-10-23T08:24:00Z,45.87,-66.53,3.0,2.0,220,3,,3.0,30.33071,1027.3,,TRUE,,,,,,,BR,CLR,,,,,,,,MVFR,,,,,,,,,,,,METAR,16.0
YLIS 230823Z AUTO 18013KT 4200 +RA SCT006 SCT014 BKN026 18/17 Q1008,YLIS,2022-10-23T08:23:00Z,-28.83,153.27,18.0,17.0,180,13,,2.61,29.763779,,,TRUE,,,,,,,+RA,SCT,600,SCT,1400,BKN,2600,,,IFR,,,,,,,,,,,,SPECI,6.0
PARY 230823Z AUTO 00000KT 1 3/4SM BR OVC017 M02/M03 A2996 RMK AO2 FZRANO,PARY,2022-10-23T08:23:00Z,64.73,-155.47,-2.0,-3.0,0,0,,1.75,29.958662,,,TRUE,TRUE,,,,TRUE,,BR,OVC,1700,,,,,,,IFR,,,,,,,,,,,,METAR,185.0
KSHN 230823Z AUTO 00000KT 5SM BR SCT002 01/01 A2991 RMK AO2 T00060006,KSHN,2022-10-23T08:23:00Z,47.23,-123.13,0.6,0.6,0,0,,5.0,29.911417,,,TRUE,TRUE,,,,,,BR,SCT,200,,,,,,,MVFR,,,,,,,,,,,,SPECI,84.0
KSFY 230823Z AUTO 15007KT 10SM CLR 15/12 A2981 RMK AO2,KSFY,2022-10-23T08:23:00Z,42.05,-90.12,15.0,12.0,150,7,,10.0,29.811024,,,TRUE,TRUE,,,,,,,CLR,,,,,,,,VFR,,,,,,,,,,,,METAR,188.0
KROS 230823Z AUTO 15006KT 10SM CLR 17/09 A2964 RMK AO2,KROS,2022-10-23T08:23:00Z,45.7,-92.95,17.0,9.0,150,6,,10.0,29.639763,,,TRUE,TRUE,,,,,,,CLR,,,,,,,,VFR,,,,,,,,,,,,METAR,282.0
KMYF 230823Z AUTO 21008KT 3SM -RA BR FEW006 BKN016 OVC033 16/14 A2982 RMK AO2 RAB14 P0001 T01610144,KMYF,2022-10-23T08:23:00Z,32.82,-117.13,16.1,14.4,210,8,,3.0,29.819881,,,TRUE,TRUE,,,,,,-RA BR,FEW,600,BKN,1600,OVC,3300,,,MVFR,,,,,,0.01,,,,,,SPECI,128.0
KMEH 230823Z AUTO VRB03KT 10SM SCT009 BKN013 OVC024 01/00 A2978 RMK AO2 T00110000 ,KMEH,2022-10-23T08:23:00Z,45.52,-118.42,1.1,0.0,0,3,,10.0,29.778543,,,TRUE,TRUE,,,,,,,SCT,900,BKN,1300,OVC,2400,,,MVFR,,,,,,,,,,,,SPECI,1138.0
KESN 230823Z AUTO 36004KT 10SM OVC028 11/10 A3027 RMK AO2 T01060101,KESN,2022-10-23T08:23:00Z,38.8,-76.07,10.6,10.1,360,4,,10.0,30.268702,,,TRUE,TRUE,,,,,,,OVC,2800,,,,,,,MVFR,,,,,,,,,,,,METAR,14.0
KCNY 230823Z AUTO 29023G29KT 10SM -RA FEW008 BKN012 OVC040 05/05 A2946 RMK AO2 PK WND 30036/0756 P0002 T00500050,KCNY,2022-10-23T08:23:00Z,38.77,-109.75,5.0,5.0,290,23,29,10.0,29.459646,,,TRUE,TRUE,,,,,,-RA,FEW,800,BKN,1200,OVC,4000,,,MVFR,,,,,,0.02,,,,,,SPECI,1392.0
CYQL 230823Z AUTO 35013KT 3SM -SN OVC003 00/00 A2975 RMK ICE INTMT SLP108,CYQL,2022-10-23T08:23:00Z,49.63,-112.8,0.0,0.0,350,13,,3.0,29.749016,1010.8,,TRUE,,,,,,,-SN,OVC,300,,,,,,,LIFR,,,,,,,,,,,,SPECI,923.0
PAOR 230822Z 00000KT 10SM SCT002 OVC026 M07/M08 A2982 RMK AO2 T10671083 $,PAOR,2022-10-23T08:22:00Z,62.97,-141.93,-6.7,-8.3,0,0,,10.0,29.819881,,,,TRUE,TRUE,,,,,,SCT,200,OVC,2600,,,,,MVFR,,,,,,,,,,,,SPECI,524.0
KRKD 230822Z AUTO 00000KT 3/4SM BR OVC002 04/04 A3033 RMK AO2,KRKD,2022-10-23T08:22:00Z,44.07,-69.1,4.0,4.0,0,0,,0.75,30.33071,,,TRUE,TRUE,,,,,,BR,OVC,200,,,,,,,LIFR,,,,,,,,,,,,SPECI,15.0
KNKX 230822Z 22010KT 9SM SCT016 OVC029 16/15 A2981 RMK AO2 T01610150,KNKX,2022-10-23T08:22:00Z,32.87,-117.13,16.1,15.0,220,10,,9.0,29.811024,,,,TRUE,,,,,,,SCT,1600,OVC,2900,,,,,MVFR,,,,,,,,,,,,SPECI,138.0
KELY 230822Z AUTO 32004KT 1 1/4SM -SN BR OVC013 M01/M02 A2966 RMK AO2 P0001 T10111017,KELY,2022-10-23T08:22:00Z,39.3,-114.85,-1.1,-1.7,320,4,,1.25,29.660433,,,TRUE,TRUE,,,,,,-SN BR,OVC,1300,,,,,,,IFR,,,,,,0.01,,,,,,SPECI,1906.0
KDIJ 230822Z AUTO 03005KT 1 1/4SM -SN BR BKN014 BKN022 OVC030 M01/M03 A2957 RMK AO2 P0000,KDIJ,2022-10-23T08:22:00Z,43.75,-111.1,-1.0,-3.0,30,5,,1.25,29.568897,,,TRUE,TRUE,,,,,,-SN BR,BKN,1400,BKN,2200,OVC,3000,,,IFR,,,,,,0.005,,,,,,METAR,1896.0
KCMA 230822Z AUTO 13005KT 9SM SCT021 15/12 A2976 RMK AO2 T01500117,KCMA,2022-10-23T08:22:00Z,34.22,-119.1,15.0,11.7,130,5,,9.0,29.760826,,,TRUE,TRUE,,,,,,,SCT,2100,,,,,,,VFR,,,,,,,,,,,,METAR,20.0
CYXT 230822Z 03002KT 15SM FEW004 SCT020 01/00 A2996 RMK SF1SC3 SLP155,CYXT,2022-10-23T08:22:00Z,54.47,-128.57,1.0,0.0,30,2,,15.0,29.958662,1015.5,,,,,,,,,,FEW,400,SCT,2000,,,,,VFR,,,,,,,,,,,,SPECI,213.0
CWSA 230822Z AUTO 10006KT 3SM BR FEW250 13/13 A3037 RMK SLP286,CWSA,2022-10-23T08:22:00Z,43.93,-60.0,13.0,13.0,100,6,,3.0,30.369095,1028.6,,TRUE,,,,,,,BR,FEW,25000,,,,,,,MVFR,,,,,,,,,,,,SPECI,4.0
YCFS 230821Z AUTO 14008KT 7000 -RA SCT011 BKN029 OVC038 19/17 Q1012 RERA,YCFS,2022-10-23T08:21:00Z,-30.32,153.12,19.0,17.0,140,8,,4.35,29.88189,,,TRUE,,,,,,,-RA,SCT,1100,BKN,2900,OVC,3800,,,MVFR,,,,,,,,,,,,SPECI,2.0
KTIW 230821Z AUTO 00000KT 2 1/2SM BR BKN065 07/05 A2993 RMK AO2 T00670050,KTIW,2022-10-23T08:21:00Z,47.27,-122.58,6.7,5.0,0,0,,2.5,29.929134,,,TRUE,TRUE,,,,,,BR,BKN,6500,,,,,,,IFR,,,,,,,,,,,,METAR,89.0
KMYP 230821Z AUTO 23033G43KT 10SM BKN024 OVC030 00/M05 A2984 RMK AO2,KMYP,2022-10-23T08:21:00Z,38.48,-106.32,0.0,-5.0,230,33,43,10.0,29.840551,,,TRUE,TRUE,,,,,,,BKN,2400,OVC,3000,,,,,MVFR,,,,,,,,,,,,METAR,3629.0
KGPT 230821Z AUTO 00000KT 7SM FEW002 14/13 A3008 RMK AO2 T01390133,KGPT,2022-10-23T08:21:00Z,30.42,-89.08,13.9,13.3,0,0,,7.0,30.079725,,,TRUE,TRUE,,,,,,,FEW,200,,,,,,,VFR,,,,,,,,,,,,METAR,5.0
KEVM 230821Z AUTO 04004KT 10SM CLR 07/05 A2966 RMK AO2,KEVM,2022-10-23T08:21:00Z,47.42,-92.5,7.0,5.0,40,4,,10.0,29.660433,,,TRUE,TRUE,,,,,,,CLR,,,,,,,,VFR,,,,,,,,,,,,SPECI,419.0
KDIK 230821Z AUTO 06014KT 9SM BKN005 OVC110 06/04 A2944 RMK AO2 T00610044,KDIK,2022-10-23T08:21:00Z,46.8,-102.8,6.1,4.4,60,14,,9.0,29.438976,,,TRUE,TRUE,,,,,,,BKN,500,OVC,11000,,,,,IFR,,,,,,,,,,,,METAR,788.0
CYYN 230821Z AUTO 06016G21KT 9SM -RA BKN007 OVC012 03/02 A2967 RMK SLP074,CYYN,2022-10-23T08:21:00Z,50.28,-107.68,3.0,2.0,60,16,21,9.0,29.66929,1007.4,,TRUE,,,,,,,-RA,BKN,700,OVC,1200,,,,,IFR,,,,,,,,,,,,SPECI,814.0
UTO8 M M M 055/-11/-14/3513/M/ PK WND 2920 0725Z SOG 04 3005 37MM,UTO8,2022-10-23T08:20:00Z,,,,,,,,1.87,,,,,,,,,,,,,,,,,,,,,,,,,,,,,,,,SPECI,
RCMQ 230820Z 01011KT 4000 -RA BR FEW008 BKN020 BKN040 21/21 Q1013 RERA NOSIG RMK A2994,RCMQ,2022-10-23T08:20:00Z,24.27,120.62,21.0,21.0,10,11,,2.49,29.911417,,,,,,TRUE,,,,-RA BR,FEW,800,BKN,2000,BKN,4000,,,IFR,,,,,,,,,,,,SPECI,202.0
PKWA 230820Z AUTO 12004KT 10SM CLR 26/24 A2981 RMK AO2 T02560236,PKWA,2022-10-23T08:20:00Z,8.72,167.72,25.6,23.6,120,4,,10.0,29.811024,,,TRUE,TRUE,,,,,,,CLR,,,,,,,,VFR,,,,,,,,,,,,METAR,6.0
LXGB 230820Z 22004KT 9999 FEW020 BKN150 BKN250 22/18 Q1018 NOSIG RMK BLU BLU,LXGB,2022-10-23T08:20:00Z,36.15,-5.33,22.0,18.0,220,4,,6.21,30.059055,,,,,,TRUE,,,,,FEW,2000,BKN,15000,BKN,25000,,,VFR,,,,,,,,,,,,METAR,5.0
LSZS 230820Z VRB03KT 9999 FEW003 BKN060 BKN070 06/06 Q1025 RMK F TL170,LSZS,2022-10-23T08:20:00Z,46.53,9.88,6.0,6.0,0,3,,6.21,30.265747,,,,,,,,,,,FEW,300,BKN,6000,BKN,7000,,,VFR,,,,,,,,,,,,METAR,1708.0
LSZR 230820Z 29005KT 9999 SCT006 13/12 Q1017 RMK A,LSZR,2022-10-23T08:20:00Z,47.48,9.57,13.0,12.0,290,5,,6.21,30.029528,,,,,,,,,,,SCT,600,,,,,,,VFR,,,,,,,,,,,,METAR,396.0
LSZL 230820Z AUTO 09003KT 060V120 9999NDV FEW030 BKN045 15/14 Q1023 RMK,LSZL,2022-10-23T08:20:00Z,46.17,8.88,15.0,14.0,90,3,,,30.206694,,,TRUE,,,,,,,,FEW,3000,BKN,4500,,,,,,,,,,,,,,,,,METAR,198.0
LSZH 230820Z VRB01KT 0500 0250N R14/0650N R16/0375N R28/P2000N R34/1200U PRFG VCFG VV001 09/09 Q1017 BECMG 1500 SCT005,LSZH,2022-10-23T08:20:00Z,47.48,8.53,9.0,9.0,0,1,,0.31,30.029528,,,,,,,,,,VCFG PRFG,OVX,0,,,,,,,LIFR,,,,,,,,,,,100,METAR,424.0
LSZG 230820Z VRB01KT 0450 FG VV002 10/10 Q1017,LSZG,2022-10-23T08:20:00Z,47.17,7.42,10.0,10.0,0,1,,0.28,30.029528,,,,,,,,,,FG,OVX,0,,,,,,,LIFR,,,,,,,,,,,200,METAR,428.0
LSZC 230820Z AUTO VRB02KT 9999 FEW120 11/10 Q1017,LSZC,2022-10-23T08:20:00Z,46.97,8.38,11.0,10.0,0,2,,6.21,30.029528,,,TRUE,,,,,,,,FEW,12000,,,,,,,VFR,,,,,,,,,,,,METAR,445.0
LSZB 230820Z 18003KT 9999 SCT130 11/11 Q1017,LSZB,2022-10-23T08:20:00Z,46.92,7.5,11.0,11.0,180,3,,6.21,30.029528,,,,,,,,,,,SCT,13000,,,,,,,VFR,,,,,,,,,,,,METAR,510.0
LSZA 230820Z VRB01KT 8000 RA FEW006 SCT021 BKN031 15/15 Q1023,LSZA,2022-10-23T08:20:00Z,46.0,8.92,15.0,15.0,0,1,,4.97,30.206694,,,,,,,,,,RA,FEW,600,SCT,2100,BKN,3100,,,MVFR,,,,,,,,,,,,METAR,276.0
LSMP 230820Z AUTO VRB02KT 0450NDV R23/1100N R05/0900N FG VV001 11/11 Q1017 RMK,LSMP,2022-10-23T08:20:00Z,46.83,6.92,11.0,11.0,0,2,,0.68,30.029528,,,TRUE,,,,,,,FG,OVX,0,,,,,,,LIFR,,,,,,,,,,,100,METAR,490.0
LSMM 230820Z AUTO VRB02KT 9999NDV SCT120 09/09 Q1017 RMK,LSMM,2022-10-23T08:20:00Z,46.75,8.12,9.0,9.0,0,2,,,30.029528,,,TRUE,,,,,,,,SCT,12000,,,,,,,,,,,,,,,,,,,METAR,570.0
LSME 230820Z AUTO VRB01KT 0350NDV R04/0550V0750D R22/0450N FG VV001 09/09 Q1017 RMK,LSME,2022-10-23T08:20:00Z,47.1,8.3,9.0,9.0,0,1,,0.28,30.029528,,,TRUE,,,,,,,FG,OVX,0,,,,,,,LIFR,,,,,,,,,,,100,METAR,427.0
LSMD 230820Z AUTO 29003KT 250V360 0750NDV R11/0500V0900D R29/0700VP2000U BCFG BKN002 10/09 Q1017 RMK,LSMD,2022-10-23T08:20:00Z,47.4,8.65,10.0,9.0,290,3,,,30.029528,,,TRUE,,,,,,,BCFG,BKN,200,,,,,,,,,,,,,,,,,,,METAR,436.0
LSMA 230820Z AUTO VRB02KT 9999NDV SCT120 11/09 Q1017 RMK,LSMA,2022-10-23T08:20:00Z,46.95,8.28,11.0,9.0,0,2,,,30.029528,,,TRUE,,,,,,,,SCT,12000,,,,,,,,,,,,,,,,,,,METAR,441.0
LSGS 230820Z 05005KT 9999 BKN120 12/08 Q1020,LSGS,2022-10-23T08:20:00Z,46.22,7.32,12.0,8.0,50,5,,6.21,30.11811,,,,,,,,,,,BKN,12000,,,,,,,VFR,,,,,,,,,,,,METAR,482.0
LSGG 230820Z VRB01KT 9999 2500SW R04/0800U R22/P2000N PRFG FEW002 12/12 Q1017 NOSIG,LSGG,2022-10-23T08:20:00Z,46.25,6.12,12.0,12.0,0,1,,6.21,30.029528,,,,,,TRUE,,,,PRFG,FEW,200,,,,,,,VFR,,,,,,,,,,,,METAR,411.0
LSGC 230820Z 19004KT 120V240 CAVOK 16/09 Q1016,LSGC,2022-10-23T08:20:00Z,47.08,6.8,16.0,9.0,190,4,,6.21,30.0,,,,,,,,,,,CAVOK,,,,,,,,VFR,,,,,,,,,,,,METAR,1018.0
LOXZ 230820Z VRB01KT 9999 FEW010 BKN300 08/07 Q1023 NOSIG,LOXZ,2022-10-23T08:20:00Z,47.2,14.75,8.0,7.0,0,1,,6.21,30.206694,,,,,,TRUE,,,,,FEW,1000,BKN,30000,,,,,VFR,,,,,,,,,,,,METAR,678.0
LOWW 230820Z 12006KT 9999 3100S BR VCFG FEW000 SCT001 10/08 Q1021 TEMPO 2000 BR BKN002,LOWW,2022-10-23T08:20:00Z,48.12,16.57,10.0,8.0,120,6,,6.21,30.147638,,,,,,,,,,VCFG BR,FEW,0,SCT,100,,,,,VFR,,,,,,,,,,,,METAR,179.0
LOWS 230820Z 15011KT CAVOK 12/08 Q1019 NOSIG,LOWS,2022-10-23T08:20:00Z,47.78,13.02,12.0,8.0,150,11,,6.21,30.088583,,,,,,TRUE,,,,,CAVOK,,,,,,,,VFR,,,,,,,,,,,,METAR,427.0
LOWL 230820Z AUTO VRB02KT 0350 R26/0400N FG VV001 09/09 Q1020 NOSIG,LOWL,2022-10-23T08:20:00Z,48.22,14.18,9.0,9.0,0,2,,0.22,30.11811,,,TRUE,,,TRUE,,,,FG,OVX,0,,,,,,,LIFR,,,,,,,,,,,100,METAR,290.0
LOWK 230820Z AUTO 33004KT 290V350 9999 FEW007 BKN016 11/10 Q1024 NOSIG,LOWK,2022-10-23T08:20:00Z,46.65,14.32,11.0,10.0,330,4,,6.21,30.236221,,,TRUE,,,TRUE,,,,,FEW,700,BKN,1600,,,,,MVFR,,,,,,,,,,,,METAR,450.0
LOWI 230820Z 27009KT 9999 FEW010 11/09 Q1022 NOSIG,LOWI,2022-10-23T08:20:00Z,47.27,11.33,11.0,9.0,270,9,,6.21,30.177166,,,,,,TRUE,,,,,FEW,1000,,,,,,,VFR,,,,,,,,,,,,METAR,570.0
LOWG 230820Z VRB02KT 4000 1200N BCFG BR BKN001 09/09 Q1022 BECMG CAVOK,LOWG,2022-10-23T08:20:00Z,47.0,15.43,9.0,9.0,0,2,,2.49,30.177166,,,,,,,,,,BCFG BR,BKN,100,,,,,,,LIFR,,,,,,,,,,,,METAR,337.0
LLBG 230820Z VRB02KT CAVOK 28/14 Q1017 NOSIG RMK FEW090,LLBG,2022-10-23T08:20:00Z,32.0,34.88,28.0,14.0,0,2,,6.21,30.029528,,,,,,TRUE,,,,,CAVOK,,,,,,,,VFR,,,,,,,,,,,,METAR,35.0
LIRZ 230820Z AUTO 13003KT 090V180 9999 FEW037/// 19/14 Q1025,LIRZ,2022-10-23T08:20:00Z,43.1,12.5,19.0,14.0,130,3,,6.21,30.265747,,,TRUE,,,,,,,,FEW,3700,,,,,,,VFR,,,,,,,,,,,,METAR,206.0
LIRQ 230820Z 12005KT 090V150 9999 BKN035 21/17 Q1023,LIRQ,2022-10-23T08:20:00Z,43.8,11.2,21.0,17.0,120,5,,6.21,30.206694,,,,,,,,,,,BKN,3500,,,,,,,VFR,,,,,,,,,,,,METAR,33.0
LIRN 230820Z VRB02KT 8000 FEW050 21/17 Q1026 NOSIG,LIRN,2022-10-23T08:20:00Z,40.88,14.3,21.0,17.0,0,2,,4.97,30.295275,,,,,,TRUE,,,,,FEW,5000,,,,,,,MVFR,,,,,,,,,,,,METAR,76.0
LIRF 230820Z 14012KT 9999 SCT025 22/19 Q1024 NOSIG,LIRF,2022-10-23T08:20:00Z,41.78,12.23,22.0,19.0,140,12,,6.21,30.236221,,,,,,TRUE,,,,,SCT,2500,,,,,,,VFR,,,,,,,,,,,,METAR,2.0
LIRA 230820Z 18008KT CAVOK 22/16 Q1025,LIRA,2022-10-23T08:20:00Z,41.8,12.58,22.0,16.0,180,8,,6.21,30.265747,,,,,,,,,,,CAVOK,,,,,,,,VFR,,,,,,,,,,,,METAR,101.0
LIPZ 230820Z 01006KT 9999 FEW010 17/13 Q1022 NOSIG,LIPZ,2022-10-23T08:20:00Z,45.5,12.35,17.0,13.0,10,6,,6.21,30.177166,,,,,,TRUE,,,,,FEW,1000,,,,,,,VFR,,,,,,,,,,,,METAR,3.0
LIPY 230820Z AUTO VRB02KT 9999 BKN130/// 20/17 Q1023,LIPY,2022-10-23T08:20:00Z,43.62,13.37,20.0,17.0,0,2,,6.21,30.206694,,,TRUE,,,,,,,,BKN,13000,,,,,,,VFR,,,,,,,,,,,,METAR,11.0
LIPX 230820Z VRB02KT 9999 SCT090 19/14 Q1022,LIPX,2022-10-23T08:20:00Z,45.38,10.87,19.0,14.0,0,2,,6.21,30.177166,,,,,,,,,,,SCT,9000,,,,,,,VFR,,,,,,,,,,,,METAR,67.0
LIPR 230820Z 19006KT 9999 FEW030 SCT060 23/16 Q1022,LIPR,2022-10-23T08:20:00Z,44.02,12.62,23.0,16.0,190,6,,6.21,30.177166,,,,,,,,,,,FEW,3000,SCT,6000,,,,,VFR,,,,,,,,,,,,METAR,10.0
LIPQ 230820Z AUTO VRB02KT 9999 OVC008/// 18/17 Q1022,LIPQ,2022-10-23T08:20:00Z,45.82,13.47,18.0,17.0,0,2,,6.21,30.177166,,,TRUE,,,,,,,,OVC,800,,,,,,,IFR,,,,,,,,,,,,METAR,6.0
LIPO 230820Z AUTO 06008KT 9999 FEW061/// BKN075/// 19/14 Q1022,LIPO,2022-10-23T08:20:00Z,45.42,10.33,19.0,14.0,60,8,,6.21,30.177166,,,TRUE,,,,,,,,FEW,6100,BKN,7500,,,,,VFR,,,,,,,,,,,,METAR,104.0
LIPH 230820Z VRB02KT CAVOK 17/14 Q1022,LIPH,2022-10-23T08:20:00Z,45.63,12.18,17.0,14.0,0,2,,6.21,30.177166,,,,,,,,,,,CAVOK,,,,,,,,VFR,,,,,,,,,,,,METAR,10.0
LIPE 230820Z VRB01KT 0350 R12/0550N R30/1200U FG VV002 16/16 Q1022,LIPE,2022-10-23T08:20:00Z,44.52,11.3,16.0,16.0,0,1,,0.22,30.177166,,,,,,,,,,FG,OVX,0,,,,,,,LIFR,,,,,,,,,,,200,SPECI,37.0
LIMZ 230820Z AUTO VRB02KT 9999 BKN014/// BKN020/// 17/15 Q1023,LIMZ,2022-10-23T08:20:00Z,44.53,7.62,17.0,15.0,0,2,,6.21,30.206694,,,TRUE,,,,,,,,BKN,1400,BKN,2000,,,,,MVFR,,,,,,,,,,,,METAR,377.0
LIMW 230820Z AUTO VRB02KT 9999 SCT120/// 13/13 Q1023,LIMW,2022-10-23T08:20:00Z,45.73,7.37,13.0,13.0,0,2,,6.21,30.206694,,,TRUE,,,,,,,,SCT,12000,,,,,,,VFR,,,,,,,,,,,,METAR,554.0
LIML 230820Z 10004KT 080V160 9999 SCT030 BKN060 18/14 Q1022 NOSIG,LIML,2022-10-23T08:20:00Z,45.47,9.27,18.0,14.0,100,4,,6.21,30.177166,,,,,,TRUE,,,,,SCT,3000,BKN,6000,,,,,VFR,,,,,,,,,,,,METAR,109.0
LIMJ 230820Z 13014KT 9999 FEW015 SCT025 22/20 Q1021,LIMJ,2022-10-23T08:20:00Z,44.42,8.83,22.0,20.0,130,14,,6.21,30.147638,,,,,,,,,,,FEW,1500,SCT,2500,,,,,VFR,,,,,,,,,,,,METAR,3.0
LIMF 230820Z 03003KT 6000 FEW013 SCT025 18/16 Q1023,LIMF,2022-10-23T08:20:00Z,45.22,7.65,18.0,16.0,30,3,,3.73,30.206694,,,,,,,,,,,FEW,1300,SCT,2500,,,,,MVFR,,,,,,,,,,,,METAR,295.0
LIME 230820Z VRB02KT 9999 SCT040 SCT060 18/16 Q1023 NOSIG,LIME,2022-10-23T08:20:00Z,45.67,9.7,18.0,16.0,0,2,,6.21,30.206694,,,,,,TRUE,,,,,SCT,4000,SCT,6000,,,,,VFR,,,,,,,,,,,,METAR,239.0
LIMC 230820Z 03003KT 9999 BKN020 17/16 Q1023 NOSIG,LIMC,2022-10-23T08:20:00Z,45.62,8.72,17.0,16.0,30,3,,6.21,30.206694,,,,,,TRUE,,,,,BKN,2000,,,,,,,MVFR,,,,,,,,,,,,METAR,221.0
LIEO 230820Z VRB01KT CAVOK 21/15 Q1021,LIEO,2022-10-23T08:20:00Z,40.88,9.52,21.0,15.0,0,1,,6.21,30.147638,,,,,,,,,,,CAVOK,,,,,,,,VFR,,,,,,,,,,,,METAR,8.0
LIEE 230820Z 15010KT CAVOK 24/21 Q1022,LIEE,2022-10-23T08:20:00Z,39.25,9.07,24.0,21.0,150,10,,6.21,30.177166,,,,,,,,,,,CAVOK,,,,,,,,VFR,,,,,,,,,,,,METAR,1.0
LIEA 230820Z VRB02KT CAVOK 24/18 Q1021,LIEA,2022-10-23T08:20:00Z,40.62,8.28,24.0,18.0,0,2,,6.21,30.147638,,,,,,,,,,,CAVOK,,,,,,,,VFR,,,,,,,,,,,,METAR,22.0
LICR 230820Z AUTO 36008KT 330V030 9999 NCD 24/15 Q1025,LICR,2022-10-23T08:20:00Z,38.07,15.65,24.0,15.0,360,8,,6.21,30.265747,,,TRUE,,,,,,,,CLR,,,,,,,,VFR,,,,,,,,,,,,METAR,16.0
LICJ 230820Z AUTO 23003KT 9999 NCD 22/14 Q1025,LICJ,2022-10-23T08:20:00Z,38.17,13.08,22.0,14.0,230,3,,6.21,30.265747,,,TRUE,,,,,,,,CLR,,,,,,,,VFR,,,,,,,,,,,,METAR,20.0
LICD 230820Z AUTO 19009KT 9999 NCD 25/19 Q1025,LICD,2022-10-23T08:20:00Z,35.5,12.62,25.0,19.0,190,9,,6.21,30.265747,,,TRUE,,,,,,,,CLR,,,,,,,,VFR,,,,,,,,,,,,METAR,20.0
LICC 230820Z 27011KT CAVOK 23/14 Q1025,LICC,2022-10-23T08:20:00Z,37.47,15.05,23.0,14.0,270,11,,6.21,30.265747,,,,,,,,,,,CAVOK,,,,,,,,VFR,,,,,,,,,,,,METAR,6.0
LICB 230820Z AUTO VRB02KT 9999 NCD 22/17 Q1027,LICB,2022-10-23T08:20:00Z,37.0,14.62,22.0,17.0,0,2,,6.21,30.324802,,,TRUE,,,,,,,,CLR,,,,,,,,VFR,,,,,,,,,,,,METAR,212.0
LICA 230820Z AUTO 26006KT 9999 FEW019/// 22/17 Q1025,LICA,2022-10-23T08:20:00Z,38.9,16.25,22.0,17.0,260,6,,6.21,30.265747,,,TRUE,,,,,,,,FEW,1900,,,,,,,VFR,,,,,,,,,,,,METAR,7.0
LIBR 230820Z 17004KT 3000 BR SCT003 BKN010 20/19 Q1024,LIBR,2022-10-23T08:20:00Z,40.65,17.95,20.0,19.0,170,4,,1.86,30.236221,,,,,,,,,,BR,SCT,300,BKN,1000,,,,,IFR,,,,,,,,,,,,METAR,5.0
LIBP 230820Z AUTO VRB01KT 9999 NCD 19/16 Q1023,LIBP,2022-10-23T08:20:00Z,42.42,14.18,19.0,16.0,0,1,,6.21,30.206694,,,TRUE,,,,,,,,CLR,,,,,,,,VFR,,,,,,,,,,,,METAR,10.0
LIBD 230820Z VRB02KT CAVOK 23/15 Q1024,LIBD,2022-10-23T08:20:00Z,41.13,16.77,23.0,15.0,0,2,,6.21,30.236221,,,,,,,,,,,CAVOK,,,,,,,,VFR,,,,,,,,,,,,METAR,42.0
LGTS 230820Z 28007KT CAVOK 17/14 Q1022 NOSIG,LGTS,2022-10-23T08:20:00Z,40.52,22.97,17.0,14.0,280,7,,6.21,30.177166,,,,,,TRUE,,,,,CAVOK,,,,,,,,VFR,,,,,,,,,,,,METAR,4.0
LGSA 230820Z 00000KT CAVOK 21/13 Q1022,LGSA,2022-10-23T08:20:00Z,35.53,24.13,21.0,13.0,0,0,,6.21,30.177166,,,,,,,,,,,CAVOK,,,,,,,,VFR,,,,,,,,,,,,METAR,122.0
LGRX 230820Z 00000KT CAVOK 21/15 Q1024,LGRX,2022-10-23T08:20:00Z,38.17,21.42,21.0,15.0,0,0,,6.21,30.236221,,,,,,,,,,,CAVOK,,,,,,,,VFR,,,,,,,,,,,,METAR,16.0
LGRP 230820Z 25008KT CAVOK 21/14 Q1021 NOSIG,LGRP,2022-10-23T08:20:00Z,36.4,28.08,21.0,14.0,250,8,,6.21,30.147638,,,,,,TRUE,,,,,CAVOK,,,,,,,,VFR,,,,,,,,,,,,METAR,3.0
LGPZ 230820Z 07004KT CAVOK 20/15 Q1025,LGPZ,2022-10-23T08:20:00Z,38.92,20.77,20.0,15.0,70,4,,6.21,30.265747,,,,,,,,,,,CAVOK,,,,,,,,VFR,,,,,,,,,,,,METAR,3.0
LGMT 230820Z 13008KT CAVOK 18/08 Q1022,LGMT,2022-10-23T08:20:00Z,39.05,26.6,18.0,8.0,130,8,,6.21,30.177166,,,,,,,,,,,CAVOK,,,,,,,,VFR,,,,,,,,,,,,METAR,4.0
LGMK 230820Z 29004KT CAVOK 18/11 Q1022,LGMK,2022-10-23T08:20:00Z,37.43,25.35,18.0,11.0,290,4,,6.21,30.177166,,,,,,,,,,,CAVOK,,,,,,,,VFR,,,,,,,,,,,,METAR,126.0
LGLM 230820Z 19004KT CAVOK 20/14 Q1021,LGLM,2022-10-23T08:20:00Z,39.92,25.23,20.0,14.0,190,4,,6.21,30.147638,,,,,,,,,,,CAVOK,,,,,,,,VFR,,,,,,,,,,,,METAR,4.0
LGKV 230820Z 00000KT 9999 FEW010 17/12 Q1021,LGKV,2022-10-23T08:20:00Z,40.92,24.62,17.0,12.0,0,0,,6.21,30.147638,,,,,,,,,,,FEW,1000,,,,,,,VFR,,,,,,,,,,,,METAR,5.0
LGKR 230820Z 00000KT 9999 FEW018 20/17 Q1024 NOSIG,LGKR,2022-10-23T08:20:00Z,39.62,19.92,20.0,17.0,0,0,,6.21,30.236221,,,,,,TRUE,,,,,FEW,1800,,,,,,,VFR,,,,,,,,,,,,METAR,2.0
LGKP 230820Z 32015KT CAVOK 21/14 Q1022,LGKP,2022-10-23T08:20:00Z,35.42,27.15,21.0,14.0,320,15,,6.21,30.177166,,,,,,,,,,,CAVOK,,,,,,,,VFR,,,,,,,,,,,,METAR,20.0
LGKO 230820Z VRB03KT CAVOK 23/12 Q1022,LGKO,2022-10-23T08:20:00Z,36.8,27.08,23.0,12.0,0,3,,6.21,30.177166,,,,,,,,,,,CAVOK,,,,,,,,VFR,,,,,,,,,,,,METAR,130.0
LGKL 230820Z 35010KT CAVOK 22/12 Q1023,LGKL,2022-10-23T08:20:00Z,37.07,22.02,22.0,12.0,350,10,,6.21,30.206694,,,,,,,,,,,CAVOK,,,,,,,,VFR,,,,,,,,,,,,METAR,4.0
LGIR 230820Z VRB02KT CAVOK 20/12 Q1023 NOSIG,LGIR,2022-10-23T08:20:00Z,35.33,25.17,20.0,12.0,0,2,,6.21,30.206694,,,,,,TRUE,,,,,CAVOK,,,,,,,,VFR,,,,,,,,,,,,METAR,37.0
LGIO 230820Z 34002KT CAVOK 14/10 Q1026,LGIO,2022-10-23T08:20:00Z,39.7,20.82,14.0,10.0,340,2,,6.21,30.295275,,,,,,,,,,,CAVOK,,,,,,,,VFR,,,,,,,,,,,,METAR,476.0
LGEL 230820Z 00000KT CAVOK 22/12 Q1022,LGEL,2022-10-23T08:20:00Z,38.07,23.55,22.0,12.0,0,0,,6.21,30.177166,,,,,,,,,,,CAVOK,,,,,,,,VFR,,,,,,,,,,,,METAR,21.0
LGBL 230820Z 00000KT CAVOK 22/11 Q1022,LGBL,2022-10-23T08:20:00Z,39.22,22.8,22.0,11.0,0,0,,6.21,30.177166,,,,,,,,,,,CAVOK,,,,,,,,VFR,,,,,,,,,,,,METAR,13.0
LGAV 230820Z VRB01KT CAVOK 21/11 Q1022 NOSIG,LGAV,2022-10-23T08:20:00Z,37.93,23.95,21.0,11.0,0,1,,6.21,30.177166,,,,,,TRUE,,,,,CAVOK,,,,,,,,VFR,,,,,,,,,,,,METAR,83.0
LGAL 230820Z VRB03KT 9999 FEW020 19/15 Q1021,LGAL,2022-10-23T08:20:00Z,40.85,25.95,19.0,15.0,0,3,,6.21,30.147638,,,,,,,,,,,FEW,2000,,,,,,,VFR,,,,,,,,,,,,METAR,5.0
LGAD 230820Z 34004KT CAVOK 21/16 Q1024,LGAD,2022-10-23T08:20:00Z,37.92,21.28,21.0,16.0,340,4,,6.21,30.236221,,,,,,,,,,,CAVOK,,,,,,,,VFR,,,,,,,,,,,,METAR,8.0
LATI 230820Z VRB02KT CAVOK 20/10 Q1025 NOSIG,LATI,2022-10-23T08:20:00Z,41.42,19.72,20.0,10.0,0,2,,6.21,30.265747,,,,,,TRUE,,,,,CAVOK,,,,,,,,VFR,,,,,,,,,,,,METAR,32.0
KVOA 230820Z AUTO 13008KT 10SM CLR 23/11 A3008 RMK A01,KVOA,2022-10-23T08:20:00Z,29.23,-87.78,23.0,11.0,130,8,,10.0,30.079725,,,TRUE,TRUE,,,,,,,CLR,,,,,,,,VFR,,,,,,,,,,,,SPECI,53.0
KTCS 230820Z AUTO 25008KT 10SM -RA SCT034 BKN075 OVC110 16/11 A2977 RMK AO2 PK WND 27026/0754 LTG DSNT NE AND SW RAB0757 TSE0757 P0000 T01560111,KTCS,2022-10-23T08:20:00Z,33.23,-107.27,15.6,11.1,250,8,,10.0,29.769686,,,TRUE,TRUE,,,,,,-RA,SCT,3400,BKN,7500,OVC,11000,,,VFR,,,,,,0.005,,,,,,METAR,1471.0
KTCM 230820Z AUTO 18004KT 1SM R16/3500VP6000FT BR OVC070 03/03 A2992 RMK AO2 SLP137 $,KTCM,2022-10-23T08:20:00Z,47.13,-122.47,3.0,3.0,180,4,,1.0,29.920275,1013.7,,TRUE,TRUE,TRUE,,,,,BR,OVC,7000,,,,,,,IFR,,,,,,,,,,,,SPECI,87.0
KSBD 230820Z AUTO 08003KT 10SM BKN010 BKN030 OVC065 15/12 A2980 RMK AO2 T01520117,KSBD,2022-10-23T08:20:00Z,34.08,-117.25,15.2,11.7,80,3,,10.0,29.799213,,,TRUE,TRUE,,,,,,,BKN,1000,BKN,3000,OVC,6500,,,MVFR,,,,,,,,,,,,METAR,353.0
KRWL 230820Z AUTO 24009KT 10SM SCT006 BKN055 OVC065 01/00 A2949 RMK AO2 SNE07 P0000 T00110000,KRWL,2022-10-23T08:20:00Z,41.8,-107.2,1.1,0.0,240,9,,10.0,29.489174,,,TRUE,TRUE,,,,,,,SCT,600,BKN,5500,OVC,6500,,,VFR,,,,,,0.005,,,,,,METAR,2066.0
KQFX 230820Z AUTO 34001KT 9999 FEW049 18/16 / RMK A02 TSNO,KQFX,2022-10-23T08:20:00Z,,,18.0,16.0,340,1,,6.21,,,,TRUE,TRUE,,,TRUE,,,,FEW,4900,,,,,,,VFR,,,,,,,,,,,,METAR,
KQFW 230820Z AUTO 03002KT 9999 BKN055 11/10 A2988 RMK A02 TSNO,KQFW,2022-10-23T08:20:00Z,,,11.0,10.0,30,2,,6.21,29.878937,,,TRUE,TRUE,,,TRUE,,,,BKN,5500,,,,,,,VFR,,,,,,,,,,,,METAR,
KQFV 230820Z AUTO 27003KT 9999 FEW075 15/M02 A3008 RMK A02 TSNO,KQFV,2022-10-23T08:20:00Z,,,15.0,-2.0,270,3,,6.21,30.079725,,,TRUE,TRUE,,,TRUE,,,,FEW,7500,,,,,,,VFR,,,,,,,,,,,,METAR,
KQFU 230820Z AUTO 25003G12KT 9999 CLR 16/M03 A3012 RMK A02 TSNO,KQFU,2022-10-23T08:20:00Z,,,16.0,-3.0,250,3,12,6.21,30.121063,,,TRUE,TRUE,,,TRUE,,,,CLR,,,,,,,,VFR,,,,,,,,,,,,METAR,
KQFT 230820Z AUTO 30002G12KT 9999 CLR 17/M05 A3005 RMK A02 TSNO,KQFT,2022-10-23T08:20:00Z,,,17.0,-5.0,300,2,12,6.21,30.050198,,,TRUE,TRUE,,,TRUE,,,,CLR,,,,,,,,VFR,,,,,,,,,,,,METAR,
KQFB 230820Z AUTO 26002KT 9000 HZ CLR 18/07 A3004 RMK A02 TSNO,KQFB,2022-10-23T08:20:00Z,,,18.0,7.0,260,2,,5.59,30.041338,,,TRUE,TRUE,,,TRUE,,,HZ,CLR,,,,,,,,VFR,,,,,,,,,,,,METAR,
KQEY 230820Z AUTO 29006KT 9999 FEW050 16/05 A2976 RMK A02 TSNO,KQEY,2022-10-23T08:20:00Z,,,16.0,5.0,290,6,,6.21,29.760826,,,TRUE,TRUE,,,TRUE,,,,FEW,5000,,,,,,,VFR,,,,,,,,,,,,METAR,
KQEW 230820Z AUTO 26003G11KT 9999 // CLR 17/06 A3001 RMK A02 TSNO,KQEW,2022-10-23T08:20:00Z,,,17.0,6.0,260,3,11,6.21,30.008858,,,TRUE,TRUE,,,TRUE,,,,CLR,,,,,,,,VFR,,,,,,,,,,,,METAR,
KQEV 230820Z AUTO 30003KT 9999 CLR 16/03 A3004 RMK A02 TSNO,KQEV,2022-10-23T08:20:00Z,,,16.0,3.0,300,3,,6.21,30.041338,,,TRUE,TRUE,,,TRUE,,,,CLR,,,,,,,,VFR,,,,,,,,,,,,METAR,
KQER 230820Z AUTO 19002G10KT 9999 CLR 15/M04 A3002 RMK A02 TSNO,KQER,2022-10-23T08:20:00Z,,,15.0,-4.0,190,2,10,6.21,30.02067,,,TRUE,TRUE,,,TRUE,,,,CLR,,,,,,,,VFR,,,,,,,,,,,,METAR,
KQEQ 230820Z AUTO 34004G11KT 9999 CLR 15/M02 A3012 RMK A02 TSNO,KQEQ,2022-10-23T08:20:00Z,,,15.0,-2.0,340,4,11,6.21,30.121063,,,TRUE,TRUE,,,TRUE,,,,CLR,,,,,,,,VFR,,,,,,,,,,,,METAR,
KQEP 230820Z AUTO 34003KT 9999 CLR 17/M01 A3007 RMK A02 TSNO,KQEP,2022-10-23T08:20:00Z,,,17.0,-1.0,340,3,,6.21,30.070866,,,TRUE,TRUE,,,TRUE,,,,CLR,,,,,,,,VFR,,,,,,,,,,,,METAR,
KQEN 230820Z AUTO 11001KT 0400 -SHRA FG CLR / / RMK A02 TSNO,KQEN,2022-10-23T08:20:00Z,,,,,110,1,,0.25,,,,TRUE,TRUE,,,TRUE,,,-SHRA FG,CLR,,,,,,,,LIFR,,,,,,,,,,,,METAR,
KQEJ 230820Z AUTO 21001KT 9999 // FEW041 FEW070 SCT085 21/21 / RMK A02 TSNO,KQEJ,2022-10-23T08:20:00Z,,,21.0,21.0,210,1,,6.21,,,,TRUE,TRUE,,,TRUE,,,,FEW,4100,FEW,7000,SCT,8500,,,VFR,,,,,,,,,,,,METAR,
KQEI 230820Z AUTO 27001KT 9999 FEW065 11/10 A3005 RMK A02 TSNO,KQEI,2022-10-23T08:20:00Z,,,11.0,10.0,270,1,,6.21,30.050198,,,TRUE,TRUE,,,TRUE,,,,FEW,6500,,,,,,,VFR,,,,,,,,,,,,METAR,
KPKV 230820Z AUTO 17004KT 10SM CLR 21/18 A2989 RMK AO2 T02100182,KPKV,2022-10-23T08:20:00Z,28.65,-96.68,21.0,18.2,170,4,,10.0,29.890747,,,TRUE,TRUE,,,,,,,CLR,,,,,,,,VFR,,,,,,,,,,,,METAR,8.0
KMHV 230820Z AUTO 25015G20KT 10SM OVC039 13/05 A2975 RMK A01,KMHV,2022-10-23T08:20:00Z,35.07,-118.15,13.0,5.0,250,15,20,10.0,29.749016,,,TRUE,TRUE,,,,,,,OVC,3900,,,,,,,VFR,,,,,,,,,,,,METAR,841.0
KHSE 230820Z AUTO VRB05KT 9SM OVC009 17/17 A3001 RMK AO2 T01720167,KHSE,2022-10-23T08:20:00Z,35.23,-75.62,17.2,16.7,0,5,,9.0,30.008858,,,TRUE,TRUE,,,,,,,OVC,900,,,,,,,IFR,,,,,,,,,,,,METAR,4.0
KFYM 230820Z AUTO 16005KT 10SM CLR 12/10 A3014 RMK A01,KFYM,2022-10-23T08:20:00Z,35.07,-86.57,12.0,10.0,160,5,,10.0,30.138779,,,TRUE,TRUE,,,,,,,CLR,,,,,,,,VFR,,,,,,,,,,,,METAR,297.0
KFDK 230820Z AUTO 00000KT 1SM -SN VV007 03/03 A3026 RMK AO2,KFDK,2022-10-23T08:20:00Z,39.42,-77.37,3.0,3.0,0,0,,1.0,30.259842,,,TRUE,TRUE,,,,,,-SN,OVX,0,,,,,,,LIFR,,,,,,,,,,,700,METAR,82.0
KEDU 230820Z AUTO 35011G19KT 10SM CLR 15/M02 A2983 RMK AO1,KEDU,2022-10-23T08:20:00Z,38.53,-121.78,15.0,-2.0,350,11,19,10.0,29.828741,,,TRUE,TRUE,,,,,,,CLR,,,,,,,,VFR,,,,,,,,,,,,METAR,20.0
K2DP 230820Z AUTO 36009G17KT 10SM -RA BKN010 BKN100 BKN150 17/17 A3001 RMK AO2 CIG 010V100 BKN010 V SCT SLPNO $,K2DP,2022-10-23T08:20:00Z,35.68,-75.9,17.0,17.0,360,9,17,10.0,30.008858,,,TRUE,TRUE,TRUE,,,,,-RA,BKN,1000,BKN,10000,BKN,15000,,,MVFR,,,,,,,,,,,,METAR,1.0
EYVI 230820Z 27006KT 2300 -DZ BR OVC002 10/10 Q1012 NOSIG,EYVI,2022-10-23T08:20:00Z,54.63,25.28,10.0,10.0,270,6,,1.43,29.88189,,,,,,TRUE,,,,-DZ BR,OVC,200,,,,,,,LIFR,,,,,,,,,,,,METAR,180.0
EYSA 230820Z 27012KT 9999 FEW014 OVC034 11/08 Q1012 NOSIG,EYSA,2022-10-23T08:20:00Z,55.9,23.4,11.0,8.0,270,12,,6.21,29.88189,,,,,,TRUE,,,,,FEW,1400,OVC,3400,,,,,VFR,,,,,,,,,,,,METAR,135.0
EYPA 230820Z 33004KT 270V080 9999 OVC015 11/08 Q1013,EYPA,2022-10-23T08:20:00Z,55.97,21.08,11.0,8.0,330,4,,6.21,29.911417,,,,,,,,,,,OVC,1500,,,,,,,MVFR,,,,,,,,,,,,METAR,15.0
EYKA 230820Z 27008KT 240V300 9999 OVC009 11/10 Q1012,EYKA,2022-10-23T08:20:00Z,54.97,24.08,11.0,10.0,270,8,,6.21,29.88189,,,,,,,,,,,OVC,900,,,,,,,IFR,,,,,,,,,,,,METAR,68.0
EVVA 230820Z AUTO 30008KT 9999 OVC018 10/09 Q1011,EVVA,2022-10-23T08:20:00Z,57.35,21.55,10.0,9.0,300,8,,6.21,29.852362,,,TRUE,,,,,,,,OVC,1800,,,,,,,MVFR,,,,,,,,,,,,METAR,1.0
EVRA 230820Z 26004KT 220V320 9999 SCT013 BKN015 OVC028 10/09 Q1010 NOSIG,EVRA,2022-10-23T08:20:00Z,56.92,23.97,10.0,9.0,260,4,,6.21,29.822834,,,,,,TRUE,,,,,SCT,1300,BKN,1500,OVC,2800,,,MVFR,,,,,,,,,,,,METAR,7.0
EVLA 230820Z AUTO 29006KT 240V330 9999 OVC021/// 10/07 Q1012,EVLA,2022-10-23T08:20:00Z,56.52,21.1,10.0,7.0,290,6,,6.21,29.88189,,,TRUE,,,,,,,,OVC,2100,,,,,,,MVFR,,,,,,,,,,,,METAR,5.0
ETWM 230820Z AUTO 08003KT //// // ////// 11/11 Q1012 ///,ETWM,2022-10-23T08:20:00Z,52.72,7.33,11.0,11.0,80,3,,,29.88189,,,TRUE,,,,,,,,,,,,,,,,,,,,,,,,,,,,SPECI,18.0
ETSN 230820Z 07005KT 2800 BR FEW001 BKN002 10/10 Q1018 AMB,ETSN,2022-10-23T08:20:00Z,48.72,11.22,10.0,10.0,70,5,,1.74,30.059055,,,,,,,,,,BR,FEW,100,BKN,200,,,,,LIFR,,,,,,,,,,,,SPECI,378.0
ETSL 230820Z AUTO VRB01KT 9999 // ////// 12/09 Q1017 ///,ETSL,2022-10-23T08:20:00Z,48.18,10.87,12.0,9.0,0,1,,6.21,30.029528,,,TRUE,,,,,,,,,,,,,,,,,,,,,,,,,,,,SPECI,548.0
ETSI 230820Z AUTO 06003KT 0400 // ////// 10/09 Q1018 ///,ETSI,2022-10-23T08:20:00Z,48.72,11.53,10.0,9.0,60,3,,0.25,30.059055,,,TRUE,,,,,,,,,,,,,,,,,,,,,,,,,,,,SPECI,366.0
ETSH 230820Z 14004KT 9999 BKN180 12/12 Q1017 BLU,ETSH,2022-10-23T08:20:00Z,51.77,13.17,12.0,12.0,140,4,,6.21,30.029528,,,,,,,,,,,BKN,18000,,,,,,,VFR,,,,,,,,,,,,METAR,79.0
ETSB 230820Z AUTO 12006KT //// // ////// 13/10 Q1013 ///,ETSB,2022-10-23T08:20:00Z,50.17,7.07,13.0,10.0,120,6,,,29.911417,,,TRUE,,,,,,,,,,,,,,,,,,,,,,,,,,,,SPECI,477.0
ETNW 230820Z 15004KT 9999 FEW150 BKN170 BKN210 12/12 Q1014 BLU,ETNW,2022-10-23T08:20:00Z,52.45,9.42,12.0,12.0,150,4,,6.21,29.940945,,,,,,,,,,,FEW,15000,BKN,17000,BKN,21000,,,VFR,,,,,,,,,,,,METAR,57.0
ETNT 230820Z AUTO ///02KT //// // ////// 10/10 Q1012 ///,ETNT,2022-10-23T08:20:00Z,53.53,7.67,10.0,10.0,,,,,29.88189,,,TRUE,,,,,,,,,,,,,,,,,,,,,,,,,,,,SPECI,5.0
ETNS 230820Z AUTO 14004KT 0150 // ////// 09/09 Q1014 ///,ETNS,2022-10-23T08:20:00Z,54.47,9.52,9.0,9.0,140,4,,0.09,29.940945,,,TRUE,,,,,,,,,,,,,,,,,,,,,,,,,,,,SPECI,22.0
ETNN 230820Z AUTO 11006KT 8000 // ////// 14/12 Q1011 ///,ETNN,2022-10-23T08:20:00Z,50.82,6.67,14.0,12.0,110,6,,4.97,29.852362,,,TRUE,,,,,,,,,,,,,,,,,,,,,,,,,,,,SPECI,108.0
ETNL 230820Z 19005KT 0500 FG VV000 11/11 Q1015 RED,ETNL,2022-10-23T08:20:00Z,53.92,12.27,11.0,11.0,190,5,,0.31,29.970472,,,,,,,,,,FG,OVX,0,,,,,,,LIFR,,,,,,,,,,,0,METAR,40.0
ETNH 230820Z AUTO 12003KT 0100 // ////// 10/10 Q1014 ///,ETNH,2022-10-23T08:20:00Z,54.32,9.55,10.0,10.0,120,3,,0.06,29.940945,,,TRUE,,,,,,,,,,,,,,,,,,,,,,,,,,,,METAR,6.0
ETMN 230820Z AUTO 12005KT 6000 // ////// 10/09 Q1013 ///,ETMN,2022-10-23T08:20:00Z,53.77,8.67,10.0,9.0,120,5,,3.73,29.911417,,,TRUE,,,,,,,,,,,,,,,,,,,,,,,,,,,,SPECI,23.0
ETHS 230820Z AUTO 05003KT 6000 // ////// 10/10 Q1014 ///,ETHS,2022-10-23T08:20:00Z,52.92,10.18,10.0,10.0,50,3,,3.73,29.940945,,,TRUE,,,,,,,,,,,,,,,,,,,,,,,,,,,,SPECI,71.0
ETHN 230820Z 14009KT 9999 SCT075 BKN200 15/10 Q1016 BLU+,ETHN,2022-10-23T08:20:00Z,49.38,9.97,15.0,10.0,140,9,,6.21,30.0,,,,,,,,,,,SCT,7500,BKN,20000,,,,,VFR,,,,,,,,,,,,METAR,466.0
ETHL 230820Z AUTO 06002KT 2700 // ////// 08/08 Q1017 ///,ETHL,2022-10-23T08:20:00Z,48.22,9.92,8.0,8.0,60,2,,1.68,30.029528,,,TRUE,,,,,,,,,,,,,,,,,,,,,,,,,,,,SPECI,536.0
ETHF 230820Z 00000KT 0100 FG VV001 09/09 Q1015 RED,ETHF,2022-10-23T08:20:00Z,51.12,9.28,9.0,9.0,0,0,,0.06,29.970472,,,,,,,,,,FG,OVX,0,,,,,,,LIFR,,,,,,,,,,,100,METAR,171.0
ETHC 230820Z 09004KT 9999 FEW120 BKN160 BKN200 12/11 Q1014 BLU,ETHC,2022-10-23T08:20:00Z,52.6,10.02,12.0,11.0,90,4,,6.21,29.940945,,,,,,,,,,,FEW,12000,BKN,16000,BKN,20000,,,VFR,,,,,,,,,,,,METAR,35.0
ETHB 230820Z VRB02KT 9999 FEW140 BKN160 OVC200 15/11 Q1013 BLU,ETHB,2022-10-23T08:20:00Z,52.27,9.07,15.0,11.0,0,2,,6.21,29.911417,,,,,,,,,,,FEW,14000,BKN,16000,OVC,20000,,,VFR,,,,,,,,,,,,METAR,69.0
ETHA 230820Z AUTO 23004KT 9999 // ////// 09/08 Q1018 ///,ETHA,2022-10-23T08:20:00Z,47.83,10.87,9.0,8.0,230,4,,6.21,30.059055,,,TRUE,,,,,,,,,,,,,,,,,,,,,,,,,,,,SPECI,738.0
ETGG 230820Z AUTO 19003KT 1800 // ////// 11/11 Q1014 ///,ETGG,2022-10-23T08:20:00Z,54.83,9.5,11.0,11.0,190,3,,1.12,29.940945,,,TRUE,,,,,,,,,,,,,,,,,,,,,,,,,,,,METAR,33.0
ESUT 230820Z AUTO 30006KT 9999 FEW025/// BKN035/// OVC049/// 00/M03 Q1007,ESUT,2022-10-23T08:20:00Z,65.8,15.08,0.0,-3.0,300,6,,6.21,29.734253,,,TRUE,,,,,,,,FEW,2500,BKN,3500,OVC,4900,,,VFR,,,,,,,,,,,,METAR,457.0
ESUP 230820Z AUTO 28016KT //// // NCD 02/M05 Q0998,ESUP,2022-10-23T08:20:00Z,67.25,23.07,2.0,-5.0,280,16,,,29.468504,,,TRUE,,,,,,,,CLR,,,,,,,,,,,,,,,,,,,,METAR,164.0
ESTL 230820Z AUTO 25005KT 9999 NCD 13/12 Q1013,ESTL,2022-10-23T08:20:00Z,56.07,13.2,13.0,12.0,250,5,,6.21,29.911417,,,TRUE,,,,,,,,CLR,,,,,,,,VFR,,,,,,,,,,,,METAR,39.0
ESTA 230820Z AUTO 25008KT 9999 BKN007/// OVC015/// 12/11 Q1013,ESTA,2022-10-23T08:20:00Z,56.28,12.83,12.0,11.0,250,8,,6.21,29.911417,,,TRUE,,,,,,,,BKN,700,OVC,1500,,,,,IFR,,,,,,,,,,,,METAR,19.0
ESSV 230820Z 27009KT 9999 OVC012 09/07 Q1012,ESSV,2022-10-23T08:20:00Z,57.67,18.35,9.0,7.0,270,9,,6.21,29.88189,,,,,,,,,,,OVC,1200,,,,,,,MVFR,,,,,,,,,,,,METAR,38.0
ESST 230820Z AUTO 00000KT 0550 R16/1200N R34/1000N FZFG OVC002/// M01/M01 Q1012,ESST,2022-10-23T08:20:00Z,60.15,12.98,-1.0,-1.0,0,0,,0.34,29.88189,,,TRUE,,,,,,,FZFG,OVC,200,,,,,,,LIFR,,,,,,,,,,,,METAR,110.0
ESSP 230820Z AUTO 31005KT 9999 NCD 08/04 Q1012,ESSP,2022-10-23T08:20:00Z,58.58,16.25,8.0,4.0,310,5,,6.21,29.88189,,,TRUE,,,,,,,,CLR,,,,,,,,VFR,,,,,,,,,,,,METAR,3.0
ESSL 230820Z AUTO 28003KT 260V320 9999 BKN014/// BKN080/// 09/06 Q1012,ESSL,2022-10-23T08:20:00Z,58.4,15.67,9.0,6.0,280,3,,6.21,29.88189,,,TRUE,,,,,,,,BKN,1400,BKN,8000,,,,,MVFR,,,,,,,,,,,,METAR,51.0
ESSD 230820Z AUTO 27002KT 9999 NCD 01/M00 Q1011,ESSD,2022-10-23T08:20:00Z,60.42,15.5,1.0,0.0,270,2,,6.21,29.852362,,,TRUE,,,,,,,,CLR,,,,,,,,VFR,,,,,,,,,,,,METAR,151.0
ESSB 230820Z AUTO VRB02KT 9000 BKN005/// 03/03 Q1011,ESSB,2022-10-23T08:20:00Z,59.35,17.93,3.0,3.0,0,2,,5.59,29.852362,,,TRUE,,,,,,,,BKN,500,,,,,,,IFR,,,,,,,,,,,,METAR,14.0
ESSA 230820Z VRB03KT 0200 R01L/0550N R19R/0450N R01R/1100D R19L/1300D FG OVC002 01/01 Q1011 BECMG 9999 NSW,ESSA,2022-10-23T08:20:00Z,59.65,17.93,1.0,1.0,0,3,,0.12,29.852362,,,,,,,,,,FG,OVC,200,,,,,,,LIFR,,,,,,,,,,,,SPECI,36.0
ESPE 230820Z AUTO 34013KT 9999 NCD 02/M03 Q1004,ESPE,2022-10-23T08:20:00Z,65.88,20.15,2.0,-3.0,340,13,,6.21,29.64567,,,TRUE,,,,,,,,CLR,,,,,,,,VFR,,,,,,,,,,,,METAR,182.0
ESPA 230820Z 30014KT CAVOK 03/M03 Q1003,ESPA,2022-10-23T08:20:00Z,65.53,22.12,3.0,-3.0,300,14,,6.21,29.616142,,,,,,,,,,,CAVOK,,,,,,,,VFR,,,,,,,,,,,,METAR,12.0
ESOW 230820Z VRB02KT CAVOK 03/01 Q1012,ESOW,2022-10-23T08:20:00Z,59.58,16.63,3.0,1.0,0,2,,6.21,29.88189,,,,,,,,,,,CAVOK,,,,,,,,VFR,,,,,,,,,,,,METAR,7.0
ESOK 230820Z 04005KT 3200 BR BKN002 T04/// Q1011,ESOK,2022-10-23T08:20:00Z,59.45,13.33,,,40,5,,1.99,29.852362,,,,,,,,,,BR,BKN,200,,,,,,,LIFR,,,,,,,,,,,,SPECI,101.0
ESOH 230820Z AUTO VRB02KT 2200 OVC001/// M02/M02 Q1012 REFZUP,ESOH,2022-10-23T08:20:00Z,60.02,13.58,-2.0,-2.0,0,2,,1.37,29.88189,,,TRUE,,,,,,,,OVC,100,,,,,,,LIFR,,,,,,,,,,,,METAR,145.0
ESOE 230820Z AUTO VRB02KT 9999 SCT078/// BKN120/// 06/04 Q1012,ESOE,2022-10-23T08:20:00Z,59.22,15.05,6.0,4.0,0,2,,6.21,29.88189,,,TRUE,,,,,,,,SCT,7800,BKN,12000,,,,,VFR,,,,,,,,,,,,METAR,57.0
ESNZ 230820Z AUTO 33007KT 290V350 9999 NCD 03/01 Q1010,ESNZ,2022-10-23T08:20:00Z,63.18,14.5,3.0,1.0,330,7,,6.21,29.822834,,,TRUE,,,,,,,,CLR,,,,,,,,VFR,,,,,,,,,,,,METAR,360.0
ESNX 230820Z AUTO 27019KT 9999 NCD 01/M03 Q1004,ESNX,2022-10-23T08:20:00Z,65.58,19.28,1.0,-3.0,270,19,,6.21,29.64567,,,TRUE,,,,,,,,CLR,,,,,,,,VFR,,,,,,,,,,,,METAR,380.0
ESNV 230820Z AUTO 28005KT 9999 NCD ///// Q1008,ESNV,2022-10-23T08:20:00Z,64.58,16.83,,,280,5,,6.21,29.763779,,,TRUE,,,,,,,,CLR,,,,,,,,VFR,,,,,,,,,,,,METAR,348.0
ESNU 230820Z 31013KT CAVOK 04/M02 Q1007,ESNU,2022-10-23T08:20:00Z,63.78,20.28,4.0,-2.0,310,13,,6.21,29.734253,,,,,,,,,,,CAVOK,,,,,,,,VFR,,,,,,,,,,,,METAR,8.0
ESNS 230820Z AUTO 29012KT 9999 NCD 03/M04 Q1005,ESNS,2022-10-23T08:20:00Z,64.62,21.07,3.0,-4.0,290,12,,6.21,29.675198,,,TRUE,,,,,,,,CLR,,,,,,,,VFR,,,,,,,,,,,,METAR,41.0
ESNQ 230820Z AUTO 32020KT 9999 NCD M00/M05 Q0998,ESNQ,2022-10-23T08:20:00Z,67.82,20.33,0.0,-5.0,320,20,,6.21,29.468504,,,TRUE,,,,,,,,CLR,,,,,,,,VFR,,,,,,,,,,,,METAR,447.0
ESNO 230820Z AUTO 30008KT 9999 OVC160/// 03/M01 Q1008,ESNO,2022-10-23T08:20:00Z,63.4,18.97,3.0,-1.0,300,8,,6.21,29.763779,,,TRUE,,,,,,,,OVC,16000,,,,,,,VFR,,,,,,,,,,,,METAR,100.0
ESNN 230820Z AUTO VRB01KT 9999 FEW082/// SCT100/// 02/01 Q1010,ESNN,2022-10-23T08:20:00Z,62.52,17.43,2.0,1.0,0,1,,6.21,29.822834,,,TRUE,,,,,,,,FEW,8200,SCT,10000,,,,,VFR,,,,,,,,,,,,METAR,4.0
ESNL 230820Z AUTO 28008KT 9999 NCD 01/M03 Q1007,ESNL,2022-10-23T08:20:00Z,64.55,18.72,1.0,-3.0,280,8,,6.21,29.734253,,,TRUE,,,,,,,,CLR,,,,,,,,VFR,,,,,,,,,,,,METAR,220.0
ESNK 230820Z AUTO 01004KT 9999 SCT120/// 04/01 Q1010,ESNK,2022-10-23T08:20:00Z,63.03,17.77,4.0,1.0,10,4,,6.21,29.822834,,,TRUE,,,,,,,,SCT,12000,,,,,,,VFR,,,,,,,,,,,,METAR,4.0
ESND 230820Z AUTO 00000KT 9999 BKN096/// M01/M02 Q1011,ESND,2022-10-23T08:20:00Z,62.05,14.42,-1.0,-2.0,0,0,,6.21,29.852362,,,TRUE,,,,,,,,BKN,9600,,,,,,,VFR,,,,,,,,,,,,METAR,352.0
ESMX 230820Z AUTO 20005KT 2300 -RA BKN001/// OVC003/// 11/11 Q1012 REDZ,ESMX,2022-10-23T08:20:00Z,56.92,14.72,11.0,11.0,200,5,,1.43,29.88189,,,TRUE,,,,,,,-RA,BKN,100,OVC,300,,,,,LIFR,,,,,,,,,,,,METAR,176.0
ESMV 230820Z AUTO 20003KT 160V230 8000 -DZ OVC002/// 10/// Q1012,ESMV,2022-10-23T08:20:00Z,57.28,14.13,,,200,3,,4.97,29.88189,,,TRUE,,,,,,,-DZ,OVC,200,,,,,,,LIFR,,,,,,,,,,,,METAR,167.0
ESMT 230820Z AUTO 27007KT 9999 R01///// R19/P2000N FEW008/// OVC010/// 12/12 Q1013,ESMT,2022-10-23T08:20:00Z,56.68,12.82,12.0,12.0,270,7,,6.21,29.911417,,,TRUE,,,,,,,,FEW,800,OVC,1000,,,,,MVFR,,,,,,,,,,,,SPECI,24.0
ESMS 230820Z 25008KT 9999 BKN004 13/12 Q1014,ESMS,2022-10-23T08:20:00Z,55.53,13.37,13.0,12.0,250,8,,6.21,29.940945,,,,,,,,,,,BKN,400,,,,,,,LIFR,,,,,,,,,,,,METAR,68.0
ESMQ 230820Z AUTO 14003KT 9999 OVC010/// 10/10 Q1013,ESMQ,2022-10-23T08:20:00Z,56.68,16.3,10.0,10.0,140,3,,6.21,29.911417,,,TRUE,,,,,,,,OVC,1000,,,,,,,MVFR,,,,,,,,,,,,METAR,3.0
ESMK 230820Z AUTO 25004KT 220V290 9999 BKN038/// 14/12 Q1013,ESMK,2022-10-23T08:20:00Z,55.92,14.08,14.0,12.0,250,4,,6.21,29.911417,,,TRUE,,,,,,,,BKN,3800,,,,,,,VFR,,,,,,,,,,,,METAR,20.0
ESKS 230820Z AUTO VRB02KT 9999 NCD M02/M03 Q1010,ESKS,2022-10-23T08:20:00Z,61.17,12.83,-2.0,-3.0,0,2,,6.21,29.822834,,,TRUE,,,,,,,,CLR,,,,,,,,VFR,,,,,,,,,,,,METAR,503.0
ESKN 230820Z 28009KT CAVOK 06/03 Q1012,ESKN,2022-10-23T08:20:00Z,58.78,16.92,6.0,3.0,280,9,,6.21,29.88189,,,,,,,,,,,CAVOK,,,,,,,,VFR,,,,,,,,,,,,METAR,41.0
ESKM 230820Z AUTO 36002KT 9999 NCD 01/01 Q1011,ESKM,2022-10-23T08:20:00Z,60.97,14.52,1.0,1.0,360,2,,6.21,29.852362,,,TRUE,,,,,,,,CLR,,,,,,,,VFR,,,,,,,,,,,,METAR,184.0
ESIB 230820Z AUTO 09005KT 2300 DZRA BR OVC003/// 09/09 Q1010,ESIB,2022-10-23T08:20:00Z,58.42,12.7,9.0,9.0,90,5,,1.43,29.822834,,,TRUE,,,,,,,DZ RA BR,OVC,300,,,,,,,LIFR,,,,,,,,,,,,METAR,51.0
ESIA 230820Z AUTO 22002KT 9999 BKN009/// OVC012/// 08/07 Q1012,ESIA,2022-10-23T08:20:00Z,58.52,14.5,8.0,7.0,220,2,,6.21,29.88189,,,TRUE,,,,,,,,BKN,900,OVC,1200,,,,,IFR,,,,,,,,,,,,METAR,94.0
ESGT 230820Z AUTO 14004KT 4000 OVC004/// 09/09 Q1011 RESHUP REDZ,ESGT,2022-10-23T08:20:00Z,58.32,12.33,9.0,9.0,140,4,,2.49,29.852362,,,TRUE,,,,,,,,OVC,400,,,,,,,LIFR,,,,,,,,,,,,SPECI,40.0
ESGP 230820Z 21007KT 9999 SCT006 BKN014 OVC042 13/12 Q1011,ESGP,2022-10-23T08:20:00Z,57.77,11.87,13.0,12.0,210,7,,6.21,29.852362,,,,,,,,,,,SCT,600,BKN,1400,OVC,4200,,,MVFR,,,,,,,,,,,,METAR,15.0
ESGJ 230820Z AUTO 20002KT 4000 DZ VV003 08/08 Q1011,ESGJ,2022-10-23T08:20:00Z,57.77,14.07,8.0,8.0,200,2,,2.49,29.852362,,,TRUE,,,,,,,DZ,OVX,0,,,,,,,LIFR,,,,,,,,,,,300,METAR,224.0
ESGG 230820Z 22008KT 3600 RA VV011 11/10 Q1011,ESGG,2022-10-23T08:20:00Z,57.67,12.3,11.0,10.0,220,8,,2.24,29.852362,,,,,,,,,,RA,OVX,0,,,,,,,LIFR,,,,,,,,,,,1100,METAR,152.0
ESDF 230820Z AUTO 19001KT 3500 BR SCT002/// BKN012/// OVC015/// 11/11 Q1013,ESDF,2022-10-23T08:20:00Z,56.27,15.27,11.0,11.0,190,1,,2.17,29.911417,,,TRUE,,,,,,,BR,SCT,200,BKN,1200,OVC,1500,,,IFR,,,,,,,,,,,,METAR,52.0
ESCM 230820Z AUTO 30002KT 9999 NCD 02/02 Q1011,ESCM,2022-10-23T08:20:00Z,59.88,17.6,2.0,2.0,300,2,,6.21,29.852362,,,TRUE,,,,,,,,CLR,,,,,,,,VFR,,,,,,,,,,,,METAR,21.0
ESCF 230820Z AUTO VRB01KT 9999 OVC012/// 08/07 Q1012,ESCF,2022-10-23T08:20:00Z,58.38,15.52,8.0,7.0,0,1,,6.21,29.88189,,,TRUE,,,,,,,,OVC,1200,,,,,,,MVFR,,,,,,,,,,,,METAR,86.0
ENZV 230820Z 17006KT 9999 OVC030 12/11 Q1009,ENZV,2022-10-23T08:20:00Z,58.88,5.63,12.0,11.0,170,6,,6.21,29.793306,,,,,,,,,,,OVC,3000,,,,,,,MVFR,,,,,,,,,,,,METAR,7.0
ENWV 230820Z AUTO 17015KT 9999NDV FEW007/// BKN110/// 13/13 Q1009 W///S3,ENWV,2022-10-23T08:20:00Z,56.28,3.4,13.0,13.0,170,15,,,29.793306,,,TRUE,,,,,,,,FEW,700,BKN,11000,,,,,,,,,,,,,,,,,METAR,30.0
ENVD 230820Z AUTO 30008KT 270V340 9999 FEW110/// 02/M02 Q0983,ENVD,2022-10-23T08:20:00Z,70.07,29.85,2.0,-2.0,300,8,,6.21,29.02559,,,TRUE,,,,,,,,FEW,11000,,,,,,,VFR,,,,,,,,,,,,METAR,39.0
ENVA 230820Z 12003KT 9999 FEW002 SCT017 BKN027 04/04 Q1012 NOSIG RMK WIND 670FT 00000KT,ENVA,2022-10-23T08:20:00Z,63.47,10.92,4.0,4.0,120,3,,6.21,29.88189,,,,,,TRUE,,,,,FEW,200,SCT,1700,BKN,2700,,,MVFR,,,,,,,,,,,,METAR,12.0
ENUG 230820Z AUTO 33030KT 9999NDV FEW018/// SCT020/// BKN110/// 04/00 Q0989 W///S6,ENUG,2022-10-23T08:20:00Z,71.3,22.25,4.0,0.0,330,30,,,29.202755,,,TRUE,,,,,,,,FEW,1800,SCT,2000,BKN,11000,,,,,,,,,,,,,,,METAR,30.0
ENTO 230820Z 36006KT 4500 -DZ OVC005 04/04 Q1011 TEMPO 5000 -DZ OVC003,ENTO,2022-10-23T08:20:00Z,59.2,10.27,4.0,4.0,360,6,,2.8,29.852362,,,,,,,,,,-DZ,OVC,500,,,,,,,IFR,,,,,,,,,,,,METAR,84.0
ENTC 230820Z 30030G44KT 9999 -SHRASN FEW016 BKN024 BKN074 03/M02 Q1000 TEMPO 31020KT 2000 SHRASNGS BKN009CB RMK WIND 2600FT 32048G64KT,ENTC,2022-10-23T08:20:00Z,69.68,18.92,3.0,-2.0,300,30,44,6.21,29.52756,,,,,,,,,,-SHRA -SHSN,FEW,1600,BKN,2400,BKN,7400,,,MVFR,,,,,,,,,,,,METAR,9.0
ENSS 230820Z AUTO 29013KT 9999 FEW049 SCT082 BKN127 02/M00 Q0982 RMK WIND 0500FT 30019KT,ENSS,2022-10-23T08:20:00Z,70.35,31.05,2.0,0.0,290,13,,6.21,28.996063,,,TRUE,,,,,,,,FEW,4900,SCT,8200,BKN,12700,,,VFR,,,,,,,,,,,,SPECI,13.0
ENSR 230820Z AUTO 31020G40KT 270V330 8000 -RA ///020/// 03/00 Q0995 REDZ RMK WIND RWY32 29018G34KT WIND 1118FT 29043G54KT,ENSR,2022-10-23T08:20:00Z,69.78,20.97,3.0,0.0,310,20,40,4.97,29.379921,,,TRUE,,,,,,,-RA,,,,,,,,,,,,,,,,,,,,,SPECI,5.0
ENSL 230820Z AUTO 20015KT 9999NDV NCD 12/12 Q1012 W09/S3,ENSL,2022-10-23T08:20:00Z,58.37,1.9,12.0,12.0,200,15,,,29.88189,,,TRUE,,,,,,,,CLR,,,,,,,,,,,,,,,,,,,,METAR,50.0
ENSK 230820Z AUTO 32013KT 2500 -SN VV015 01/M02 Q1007,ENSK,2022-10-23T08:20:00Z,68.57,15.02,1.0,-2.0,320,13,,1.55,29.734253,,,TRUE,,,,,,,-SN,OVX,0,,,,,,,LIFR,,,,,,,,,,,1500,METAR,3.0
ENSF 230820Z AUTO 05023KT 9999NDV SCT010/// BKN041/// 11/07 Q1009 W///S4,ENSF,2022-10-23T08:20:00Z,61.25,1.85,11.0,7.0,50,23,,,29.793306,,,TRUE,,,,,,,,SCT,1000,BKN,4100,,,,,,,,,,,,,,,,,METAR,15.0
ENSE 230820Z AUTO 06025KT 9999NDV BKN012/// OVC042/// 09/07 Q1009 W///S4,ENSE,2022-10-23T08:20:00Z,61.45,2.15,9.0,7.0,60,25,,,29.793306,,,TRUE,,,,,,,,BKN,1200,OVC,4200,,,,,,,,,,,,,,,,,METAR,10.0
ENSD 230820Z VRB01KT 9999 BKN066 04/04 Q1009 RMK WIND RWY26 00000KT WIND 1140FT 19004KT,ENSD,2022-10-23T08:20:00Z,61.82,6.12,4.0,4.0,0,1,,6.21,29.793306,,,,,,,,,,,BKN,6600,,,,,,,VFR,,,,,,,,,,,,SPECI,61.0
ENSB 230820Z 11010KT 9999 FEW035 BKN075 M06/M10 Q1007 RMK WIND 1400FT 12006KT,ENSB,2022-10-23T08:20:00Z,78.25,15.47,-6.0,-10.0,110,10,,6.21,29.734253,,,,,,,,,,,FEW,3500,BKN,7500,,,,,VFR,,,,,,,,,,,,METAR,30.0
ENRY 230820Z AUTO 36003KT 5000NDV SCT001/// BKN015/// OVC019/// 04/04 Q1011,ENRY,2022-10-23T08:20:00Z,59.37,10.77,4.0,4.0,360,3,,,29.852362,,,TRUE,,,,,,,,SCT,100,BKN,1500,OVC,1900,,,,,,,,,,,,,,,METAR,45.0
ENRS 230820Z AUTO 34019KT 9999 BKN043 05/M03 Q1010,ENRS,2022-10-23T08:20:00Z,67.52,12.1,5.0,-3.0,340,19,,6.21,29.822834,,,TRUE,,,,,,,,BKN,4300,,,,,,,VFR,,,,,,,,,,,,METAR,4.0
ENRO 230820Z AUTO 00000KT 9999 OVC008 M02/M03 Q1010,ENRO,2022-10-23T08:20:00Z,62.57,11.33,-2.0,-3.0,0,0,,6.21,29.822834,,,TRUE,,,,,,,,OVC,800,,,,,,,IFR,,,,,,,,,,,,METAR,624.0
ENRM 230820Z AUTO 00000KT 9999 NCD 02/01 Q1012,ENRM,2022-10-23T08:20:00Z,64.83,11.13,2.0,1.0,0,0,,6.21,29.88189,,,TRUE,,,,,,,,CLR,,,,,,,,VFR,,,,,,,,,,,,METAR,4.0
ENRA 230820Z AUTO 23005KT 190V280 9999 OVC014/// 02/00 Q1009,ENRA,2022-10-23T08:20:00Z,66.37,14.3,2.0,0.0,230,5,,6.21,29.793306,,,TRUE,,,,,,,,OVC,1400,,,,,,,MVFR,,,,,,,,,,,,METAR,66.0
ENQR 230820Z AUTO 05017KT 9999NDV NCD 10/07 Q1009 W10/S4,ENQR,2022-10-23T08:20:00Z,61.52,2.22,10.0,7.0,50,17,,,29.793306,,,TRUE,,,,,,,,CLR,,,,,,,,,,,,,,,,,,,,METAR,10.0
ENQA 230820Z AUTO 09010KT 4600NDV -RA OVC004/// 10/09 Q1008 W17/S3,ENQA,2022-10-23T08:20:00Z,60.65,3.72,10.0,9.0,90,10,,,29.763779,,,TRUE,,,,,,,-RA,OVC,400,,,,,,,,,,,,,,,,,,,METAR,90.0
ENOV 230820Z 00000KT 9999 FEW017 BKN039 06/05 Q1010 RMK WIND RWY24 00000KT WIND 2090FT VRB02KT,ENOV,2022-10-23T08:20:00Z,62.17,6.07,6.0,5.0,0,0,,6.21,29.822834,,,,,,,,,,,FEW,1700,BKN,3900,,,,,VFR,,,,,,,,,,,,SPECI,72.0
ENOL 230820Z 06004KT 9999 -RA FEW007 SCT013 BKN018 04/04 Q1012 TEMPO 4000 -RADZ BKN014,ENOL,2022-10-23T08:20:00Z,63.7,9.6,4.0,4.0,60,4,,6.21,29.88189,,,,,,,,,,-RA,FEW,700,SCT,1300,BKN,1800,,,MVFR,,,,,,,,,,,,METAR,9.0
ENOA 230820Z 07015KT 8000 SCT005 BKN012 10/09 Q1007 W///S3,ENOA,2022-10-23T08:20:00Z,60.5,2.83,10.0,9.0,70,15,,4.97,29.734253,,,,,,,,,,,SCT,500,BKN,1200,,,,,MVFR,,,,,,,,,,,,SPECI,5.0
ENNM 230820Z AUTO 25003KT 9999 FEW011 SCT019 BKN033 04/02 Q1012,ENNM,2022-10-23T08:20:00Z,64.47,11.57,4.0,2.0,250,3,,6.21,29.88189,,,TRUE,,,,,,,,FEW,1100,SCT,1900,BKN,3300,,,VFR,,,,,,,,,,,,METAR,2.0
ENNE 230820Z 34012KT 9999 VCSH FEW030 BKN040 05/M02 Q1012 W///S5,ENNE,2022-10-23T08:20:00Z,66.03,8.08,5.0,-2.0,340,12,,6.21,29.88189,,,,,,,,,,VCSH,FEW,3000,BKN,4000,,,,,VFR,,,,,,,,,,,,METAR,10.0
ENNA 230820Z AUTO 30028KT 9999 OVC064/// 04/00 Q0988 RERA RMK WIND 1800FT 30034KT,ENNA,2022-10-23T08:20:00Z,70.07,24.97,4.0,0.0,300,28,,6.21,29.17323,,,TRUE,,,,,,,,OVC,6400,,,,,,,VFR,,,,,,,,,,,,SPECI,12.0
ENMS 230820Z AUTO VRB02KT 9999 -RA SCT019/// BKN034/// 00/M00 Q1010 REDZ RMK WIND 412FT VRB01KT,ENMS,2022-10-23T08:20:00Z,65.78,13.22,0.0,0.0,0,2,,6.21,29.822834,,,TRUE,,,,,,,-RA,SCT,1900,BKN,3400,,,,,VFR,,,,,,,,,,,,SPECI,44.0
ENML 230820Z AUTO 06008KT 020V080 9999NDV OVC030/// 06/04 Q1011,ENML,2022-10-23T08:20:00Z,62.75,7.27,6.0,4.0,60,8,,,29.852362,,,TRUE,,,,,,,,OVC,3000,,,,,,,,,,,,,,,,,,,SPECI,3.0
ENMH 230820Z AUTO 34018KT 9999 DZRA FEW009 SCT015 BKN023 04/02 Q0985,ENMH,2022-10-23T08:20:00Z,71.02,27.82,4.0,2.0,340,18,,6.21,29.084646,,,TRUE,,,,,,,DZ RA,FEW,900,SCT,1500,BKN,2300,,,MVFR,,,,,,,,,,,,METAR,10.0
ENLE 230820Z 16016KT CAVOK 13/12 Q1008 W13/S4,ENLE,2022-10-23T08:20:00Z,56.53,3.22,13.0,12.0,160,16,,6.21,29.763779,,,,,,,,,,,CAVOK,,,,,,,,VFR,,,,,,,,,,,,METAR,10.0
ENLA 230820Z AUTO 16015KT 9999NDV NCD 13/12 Q1008 W///S3,ENLA,2022-10-23T08:20:00Z,57.1,2.83,13.0,12.0,160,15,,,29.763779,,,TRUE,,,,,,,,CLR,,,,,,,,,,,,,,,,,,,,METAR,10.0
ENKR 230820Z 34008KT 9999 FEW009 SCT013 02/00 Q0983 RMK WIND 731FT 33011KT,ENKR,2022-10-23T08:20:00Z,69.72,29.88,2.0,0.0,340,8,,6.21,29.02559,,,,,,,,,,,FEW,900,SCT,1300,,,,,VFR,,,,,,,,,,,,SPECI,86.0
ENKB 230820Z AUTO 04003KT 9999 OVC078/// 05/03 Q1011 RMK WIND 745FT 07006KT,ENKB,2022-10-23T08:20:00Z,63.12,7.82,5.0,3.0,40,3,,6.21,29.852362,,,TRUE,,,,,,,,OVC,7800,,,,,,,VFR,,,,,,,,,,,,SPECI,62.0
ENJS 230820Z 20015KT 9999 FEW010 12/11 Q1008 W11/S/,ENJS,2022-10-23T08:20:00Z,,,12.0,11.0,200,15,,6.21,29.763779,,,,,,,,,,,FEW,1000,,,,,,,VFR,,,,,,,,,,,,METAR,
ENHV 230820Z AUTO 32016KT 9999 SCT028/// 05/01 Q0987,ENHV,2022-10-23T08:20:00Z,71.02,25.97,5.0,1.0,320,16,,6.21,29.143702,,,TRUE,,,,,,,,SCT,2800,,,,,,,VFR,,,,,,,,,,,,METAR,13.0
ENHM 230820Z AUTO 21011KT 0250NDV -SHRA FG NCD 11/11 Q1007 W12/S/,ENHM,2022-10-23T08:20:00Z,59.57,2.23,11.0,11.0,210,11,,,29.734253,,,TRUE,,,,,,,-SHRA FG,CLR,,,,,,,,,,,,,,,,,,,,METAR,10.0
ENHK 230820Z AUTO 31023KT 9999 -RA FEW013 BKN022 04/01 Q0992,ENHK,2022-10-23T08:20:00Z,70.48,22.13,4.0,1.0,310,23,,6.21,29.291338,,,TRUE,,,,,,,-RA,FEW,1300,BKN,2200,,,,,MVFR,,,,,,,,,,,,METAR,6.0
ENHF 230820Z AUTO VRB03KT 9999 FEW014/// SCT022/// BKN078/// 04/02 Q0990 RMK WIND 1254FT 32028KT,ENHF,2022-10-23T08:20:00Z,70.67,23.67,4.0,2.0,0,3,,6.21,29.232283,,,TRUE,,,,,,,,FEW,1400,SCT,2200,BKN,7800,,,VFR,,,,,,,,,,,,SPECI,79.0
ENHE 230820Z 35003G16KT 9999 FEW010CB BKN025 03/01 Q1013 W///S5,ENHE,2022-10-23T08:20:00Z,65.33,2.33,3.0,1.0,350,3,16,6.21,29.911417,,,,,,,,,,,FEW,1000,BKN,2500,,,,,MVFR,,,,,,,,,,,,SPECI,10.0
ENHD 230820Z 18009KT 9999 VCSH BKN003 BKN009 12/11 Q1008,ENHD,2022-10-23T08:20:00Z,59.35,5.22,12.0,11.0,180,9,,6.21,29.763779,,,,,,,,,,VCSH,BKN,300,BKN,900,,,,,LIFR,,,,,,,,,,,,METAR,22.0
ENGM 230820Z VRB02KT 0450 R19R/0650N R01R/0550N R19L/0600N R01L/0400N FG VV002 01/01 Q1011 NOSIG,ENGM,2022-10-23T08:20:00Z,60.2,11.07,1.0,1.0,0,2,,0.28,29.852362,,,,,,TRUE,,,,FG,OVX,0,,,,,,,LIFR,,,,,,,,,,,200,METAR,204.0
ENGC 230820Z 06023KT 9999 SCT012 BKN040 10/08 Q1009 W09/S4,ENGC,2022-10-23T08:20:00Z,61.02,2.02,10.0,8.0,60,23,,6.21,29.793306,,,,,,,,,,,SCT,1200,BKN,4000,,,,,VFR,,,,,,,,,,,,SPECI,10.0
ENFL 230820Z AUTO 12005KT 9999NDV BKN110/// 05/03 Q1009,ENFL,2022-10-23T08:20:00Z,61.57,5.02,5.0,3.0,120,5,,,29.793306,,,TRUE,,,,,,,,BKN,11000,,,,,,,,,,,,,,,,,,,SPECI,1.0
ENFB 230820Z AUTO 05023KT 9999NDV BKN010/// OVC040/// 09/07 Q1009 W///S4,ENFB,2022-10-23T08:20:00Z,61.2,1.83,9.0,7.0,50,23,,,29.793306,,,TRUE,,,,,,,,BKN,1000,OVC,4000,,,,,,,,,,,,,,,,,SPECI,10.0
ENEV 230820Z VRB02KT 9999 VCSH FEW012 SCT022 SCT051 00/M01 Q1006 RMK WIND 1400FT 29013KT,ENEV,2022-10-23T08:20:00Z,68.48,16.67,0.0,-1.0,0,2,,6.21,29.704725,,,,,,,,,,VCSH,FEW,1200,SCT,2200,SCT,5100,,,VFR,,,,,,,,,,,,SPECI,26.0
ENDU 230820Z 29019KT 9999 4000NE -SHSN FEW010 BKN020 01/M02 Q1003 TEMPO 28020G30KT 2000 SHSN VV010 RMK WIND 1100FT 29024G35KT WIND 2200FT 30028G38KT,ENDU,2022-10-23T08:20:00Z,69.05,18.55,1.0,-2.0,290,19,,6.21,29.616142,,,,,,,,,,-SHSN,FEW,1000,BKN,2000,,,,,MVFR,,,,,,,,,,,,METAR,65.0
ENDR 230820Z AUTO 03011KT 9999NDV SCT026/// 06/01 Q1012 W///S5,ENDR,2022-10-23T08:20:00Z,64.35,7.77,6.0,1.0,30,11,,,29.88189,,,TRUE,,,,,,,,SCT,2600,,,,,,,,,,,,,,,,,,,SPECI,10.0
ENCN 230820Z 00000KT 2000 -DZ BR VV006 09/09 Q1011,ENCN,2022-10-23T08:20:00Z,58.2,8.07,9.0,9.0,0,0,,1.24,29.852362,,,,,,,,,,-DZ BR,OVX,0,,,,,,,LIFR,,,,,,,,,,,600,METAR,17.0
ENBV 230820Z AUTO 31020KT 9999 BKN024 BKN029 05/02 Q0983,ENBV,2022-10-23T08:20:00Z,70.87,29.02,5.0,2.0,310,20,,6.21,29.02559,,,TRUE,,,,,,,,BKN,2400,BKN,2900,,,,,MVFR,,,,,,,,,,,,METAR,13.0
ENBS 230820Z AUTO 29009KT 9999 BKN019/// OVC028/// 02/M00 Q0982,ENBS,2022-10-23T08:20:00Z,70.62,29.68,2.0,0.0,290,9,,6.21,28.996063,,,TRUE,,,,,,,,BKN,1900,OVC,2800,,,,,MVFR,,,,,,,,,,,,METAR,144.0
ENBR 230820Z VRB02KT 4000 DZ BR BKN004 BKN007 09/09 Q1008 NOSIG RMK WIND 1200FT 13012KT,ENBR,2022-10-23T08:20:00Z,60.28,5.22,9.0,9.0,0,2,,2.49,29.763779,,,,,,TRUE,,,,DZ BR,BKN,400,BKN,700,,,,,LIFR,,,,,,,,,,,,METAR,49.0
ENBO 230820Z 32016KT 9999 FEW030 SCT045 05/M04 Q1008 TEMPO SHRAGS SCT020TCU,ENBO,2022-10-23T08:20:00Z,67.27,14.37,5.0,-4.0,320,16,,6.21,29.763779,,,,,,,,,,,FEW,3000,SCT,4500,,,,,VFR,,,,,,,,,,,,METAR,13.0
ENBN 230820Z AUTO 36009KT 9999NDV FEW028/// SCT039/// BKN050/// 05/M01 Q1011,ENBN,2022-10-23T08:20:00Z,65.47,12.22,5.0,-1.0,360,9,,,29.852362,,,TRUE,,,,,,,,FEW,2800,SCT,3900,BKN,5000,,,,,,,,,,,,,,,SPECI,3.0
ENAT 230820Z 29020KT 9999 -SHRA FEW010 SCT013 BKN024 03/02 Q0990 RMK WIND 700FT 30022KT,ENAT,2022-10-23T08:20:00Z,69.97,23.37,3.0,2.0,290,20,,6.21,29.232283,,,,,,,,,,-SHRA,FEW,1000,SCT,1300,BKN,2400,,,MVFR,,,,,,,,,,,,SPECI,3.0
ENAN 230820Z 32029KT 9999 VCSH FEW019CB SCT027 BKN039 03/M02 Q1005,ENAN,2022-10-23T08:20:00Z,69.3,16.13,3.0,-2.0,320,29,,6.21,29.675198,,,,,,,,,,VCSH,FEW,1900,SCT,2700,BKN,3900,,,VFR,,,,,,,,,,,,METAR,13.0
ENAL 230820Z 06013KT 9999 BKN012 07/05 Q1010,ENAL,2022-10-23T08:20:00Z,62.57,6.12,7.0,5.0,60,13,,6.21,29.822834,,,,,,,,,,,BKN,1200,,,,,,,MVFR,,,,,,,,,,,,METAR,21.0
ELLX 230820Z 14006KT 110V170 CAVOK 13/11 Q1012 NOSIG,ELLX,2022-10-23T08:20:00Z,49.63,6.2,13.0,11.0,140,6,,6.21,29.88189,,,,,,TRUE,,,,,CAVOK,,,,,,,,VFR,,,,,,,,,,,,METAR,374.0
EKYT 230820Z AUTO 23007KT 9999 OVC031/// 11/11 Q1012,EKYT,2022-10-23T08:20:00Z,57.1,9.87,11.0,11.0,230,7,,6.21,29.88189,,,TRUE,,,,,,,,OVC,3100,,,,,,,VFR,,,,,,,,,,,,METAR,2.0
EKVG 230820Z AUTO VRB02KT 9999 FEW024/// 06/03 Q1011 RMK BKN017/// WIND SKEID 10010KT 060V120,EKVG,2022-10-23T08:20:00Z,62.07,-7.27,6.0,3.0,0,2,,6.21,29.852362,,,TRUE,,,,,,,,FEW,2400,,,,,,,VFR,,1.0,,,,,,,,,,METAR,89.0
EKSP 230820Z 19005KT 0800 R10/P2000N R28/P2000N FG BKN002 12/11 Q1013,EKSP,2022-10-23T08:20:00Z,55.22,9.27,12.0,11.0,190,5,,0.5,29.911417,,,,,,,,,,FG,BKN,200,,,,,,,LIFR,,,,,,,,,,,,METAR,40.0
EKSB 230820Z AUTO 21003KT 0800 R14/P1500D R32/1300D FG OVC002/// 12/11 Q1014,EKSB,2022-10-23T08:20:00Z,54.97,9.8,12.0,11.0,210,3,,0.5,29.940945,,,TRUE,,,,,,,FG,OVC,200,,,,,,,LIFR,,,,,,,,,,,,METAR,23.0
EKRN 230820Z AUTO 26010KT 9999 BKN005/// BKN038/// 13/13 Q1014,EKRN,2022-10-23T08:20:00Z,55.07,14.75,13.0,13.0,260,10,,6.21,29.940945,,,TRUE,,,,,,,,BKN,500,BKN,3800,,,,,IFR,,,,,,,,,,,,METAR,14.0
EKRK 230820Z 24006KT 9999 OVC004 11/11 Q1014,EKRK,2022-10-23T08:20:00Z,55.58,12.13,11.0,11.0,240,6,,6.21,29.940945,,,,,,,,,,,OVC,400,,,,,,,LIFR,,,,,,,,,,,,METAR,40.0
EKKA 230820Z 20005KT 0250 R09/0800N R27/0900D FG BKN002 11/11 Q1012,EKKA,2022-10-23T08:20:00Z,56.3,9.12,11.0,11.0,200,5,,0.16,29.88189,,,,,,,,,,FG,BKN,200,,,,,,,LIFR,,,,,,,,,,,,METAR,50.0
EKEB 230820Z AUTO 16005KT 0300 R08/0500N R26/0600N FG VV002 12/12 Q1013,EKEB,2022-10-23T08:20:00Z,55.52,8.55,12.0,12.0,160,5,,0.19,29.911417,,,TRUE,,,,,,,FG,OVX,0,,,,,,,LIFR,,,,,,,,,,,200,METAR,29.0
EKCH 230820Z AUTO 24006KT 9999 SCT004/// 13/11 Q1014 NOSIG,EKCH,2022-10-23T08:20:00Z,55.62,12.67,13.0,11.0,240,6,,6.21,29.940945,,,TRUE,,,TRUE,,,,,SCT,400,,,,,,,VFR,,,,,,,,,,,,METAR,4.0
EKBI 230820Z AUTO 16003KT 0200 R09/0450N R27/0400N FG VV002 10/10 Q1013,EKBI,2022-10-23T08:20:00Z,55.73,9.15,10.0,10.0,160,3,,0.12,29.911417,,,TRUE,,,,,,,FG,OVX,0,,,,,,,LIFR,,,,,,,,,,,200,METAR,67.0
EKAH 230820Z AUTO 22002KT 9999 OVC004/// 11/11 Q1013,EKAH,2022-10-23T08:20:00Z,56.28,10.62,11.0,11.0,220,2,,6.21,29.911417,,,TRUE,,,,,,,,OVC,400,,,,,,,LIFR,,,,,,,,,,,,METAR,25.0
EGWU 230820Z 12006KT 9999 -RA FEW013 BKN022 BKN080 15/14 Q1002 TEMPO SCT013 RMK WHT TEMPO GRN,EGWU,2022-10-23T08:20:00Z,51.55,-0.42,15.0,14.0,120,6,,6.21,29.586615,,,,,,,,,,-RA,FEW,1300,BKN,2200,BKN,8000,,,MVFR,,,,,,,,,,,,METAR,33.0
EGVN 230820Z 08005KT 9999 RA FEW006 BKN070 14/14 Q1001 TEMPO 7000 SHRA SCT010 RMK BLU TEMPO GRN,EGVN,2022-10-23T08:20:00Z,51.77,-1.58,14.0,14.0,80,5,,6.21,29.557087,,,,,,,,,,RA,FEW,600,BKN,7000,,,,,VFR,,,,,,,,,,,,METAR,83.0
EGTK 230820Z VRB02KT 7000 -RA SCT005 BKN012 14/14 Q1002,EGTK,2022-10-23T08:20:00Z,51.83,-1.32,14.0,14.0,0,2,,4.35,29.586615,,,,,,,,,,-RA,SCT,500,BKN,1200,,,,,MVFR,,,,,,,,,,,,METAR,78.0
EGTE 230820Z 18007KT 9999 VCSH FEW008 15/14 Q0999,EGTE,2022-10-23T08:20:00Z,50.73,-3.42,15.0,14.0,180,7,,6.21,29.498032,,,,,,,,,,VCSH,FEW,800,,,,,,,VFR,,,,,,,,,,,,METAR,30.0
EGSY 230820Z 10006KT 9999 BKN005 BKN018 15/14 Q0999,EGSY,2022-10-23T08:20:00Z,51.4,-3.43,15.0,14.0,100,6,,6.21,29.498032,,,,,,,,,,,BKN,500,BKN,1800,,,,,IFR,,,,,,,,,,,,METAR,46.0
EGSS 230820Z AUTO 11011KT 090V160 9000 -RA FEW041/// //////CB 15/14 Q1003 RETSRA,EGSS,2022-10-23T08:20:00Z,51.88,0.22,15.0,14.0,110,11,,5.59,29.616142,,,TRUE,,,,,,,-RA,FEW,4100,,,,,,,VFR,,,,,,,,,,,,METAR,101.0
EGSH 230820Z 11009KT 8000 FEW007 15/15 Q1005 TEMPO RA BKN014,EGSH,2022-10-23T08:20:00Z,52.68,1.28,15.0,15.0,110,9,,4.97,29.675198,,,,,,,,,,,FEW,700,,,,,,,MVFR,,,,,,,,,,,,METAR,21.0
EGPO 230820Z AUTO 06003KT 9999 BKN032/// OVC041/// 12/11 Q1002,EGPO,2022-10-23T08:20:00Z,58.22,-6.32,12.0,11.0,60,3,,6.21,29.586615,,,TRUE,,,,,,,,BKN,3200,OVC,4100,,,,,VFR,,,,,,,,,,,,METAR,10.0
EGPN 230820Z 07005KT 9000 VCFG FEW003 BKN038 12/11 Q1004,EGPN,2022-10-23T08:20:00Z,56.45,-3.02,12.0,11.0,70,5,,5.59,29.64567,,,,,,,,,,VCFG,FEW,300,BKN,3800,,,,,VFR,,,,,,,,,,,,METAR,4.0
EGPL 230820Z AUTO 14009KT 9999 BKN004/// OVC014/// 13/12 Q1000,EGPL,2022-10-23T08:20:00Z,57.47,-7.37,13.0,12.0,140,9,,6.21,29.52756,,,TRUE,,,,,,,,BKN,400,OVC,1400,,,,,LIFR,,,,,,,,,,,,METAR,3.0
EGPK 230820Z 07008KT 9999 SCT028 12/11 Q1002,EGPK,2022-10-23T08:20:00Z,55.5,-4.58,12.0,11.0,70,8,,6.21,29.586615,,,,,,,,,,,SCT,2800,,,,,,,VFR,,,,,,,,,,,,METAR,14.0
EGPH 230820Z 06004KT 9999 -RA NSC 12/11 Q1003,EGPH,2022-10-23T08:20:00Z,55.95,-3.35,12.0,11.0,60,4,,6.21,29.616142,,,,,,,,,,-RA,CLR,,,,,,,,VFR,,,,,,,,,,,,METAR,29.0
EGPF 230820Z AUTO 06007KT 9999 NCD 12/11 Q1002,EGPF,2022-10-23T08:20:00Z,55.87,-4.42,12.0,11.0,60,7,,6.21,29.586615,,,TRUE,,,,,,,,CLR,,,,,,,,VFR,,,,,,,,,,,,METAR,8.0
EGPE 230820Z 00000KT 0300 R05/0800U FG VV/// 09/08 Q1004,EGPE,2022-10-23T08:20:00Z,57.53,-4.05,9.0,8.0,0,0,,0.19,29.64567,,,,,,,,,,FG,OVX,0,,,,,,,LIFR,,,,,,,,,,,,METAR,7.0
EGPD 230820Z 34002KT 9999 VCFG NSC 09/09 Q1004,EGPD,2022-10-23T08:20:00Z,57.2,-2.22,9.0,9.0,340,2,,6.21,29.64567,,,,,,,,,,VCFG,CLR,,,,,,,,VFR,,,,,,,,,,,,METAR,65.0
EGPC 230820Z AUTO 10006KT 0350 FG VV/// 11/11 Q1004,EGPC,2022-10-23T08:20:00Z,58.45,-3.08,11.0,11.0,100,6,,0.22,29.64567,,,TRUE,,,,,,,FG,OVX,0,,,,,,,LIFR,,,,,,,,,,,,METAR,38.0
EGPB 230820Z AUTO 08014KT 9000 OVC004/// 10/10 Q1007,EGPB,2022-10-23T08:20:00Z,59.87,-1.3,10.0,10.0,80,14,,5.59,29.734253,,,TRUE,,,,,,,,OVC,400,,,,,,,LIFR,,,,,,,,,,,,METAR,2.0
EGPA 230820Z 12005KT 1200 VCFG OVC002 11/11 Q1005,EGPA,2022-10-23T08:20:00Z,58.95,-2.9,11.0,11.0,120,5,,0.75,29.675198,,,,,,,,,,VCFG,OVC,200,,,,,,,LIFR,,,,,,,,,,,,METAR,15.0
EGNX 230820Z 10008KT 3000 RA FEW006 SCT032 BKN042 13/12 Q1003,EGNX,2022-10-23T08:20:00Z,52.82,-1.32,13.0,12.0,100,8,,1.86,29.616142,,,,,,,,,,RA,FEW,600,SCT,3200,BKN,4200,,,IFR,,,,,,,,,,,,METAR,91.0
EGNV 230820Z 08004KT 7000 BKN010 11/10 Q1004,EGNV,2022-10-23T08:20:00Z,54.52,-1.42,11.0,10.0,80,4,,4.35,29.64567,,,,,,,,,,,BKN,1000,,,,,,,MVFR,,,,,,,,,,,,METAR,36.0
EGNT 230820Z 13003KT 090V200 2000 BR FEW002 BKN004 12/12 Q1004,EGNT,2022-10-23T08:20:00Z,55.03,-1.7,12.0,12.0,130,3,,1.24,29.64567,,,,,,,,,,BR,FEW,200,BKN,400,,,,,LIFR,,,,,,,,,,,,METAR,77.0
EGNS 230820Z 10018KT 9999 BKN005 OVC008 14/13 Q0999 TEMPO RA,EGNS,2022-10-23T08:20:00Z,54.08,-4.63,14.0,13.0,100,18,,6.21,29.498032,,,,,,,,,,,BKN,500,OVC,800,,,,,IFR,,,,,,,,,,,,METAR,18.0
EGNR 230820Z 16005KT 9000 3000NW VCSH FEW010 OVC035 14/13 Q1001,EGNR,2022-10-23T08:20:00Z,53.17,-2.98,14.0,13.0,160,5,,5.59,29.557087,,,,,,,,,,VCSH,FEW,1000,OVC,3500,,,,,VFR,,,,,,,,,,,,SPECI,11.0
EGNM 230820Z 09007KT 0250 R14/0225N -RADZ FG VV/// 12/11 Q1004,EGNM,2022-10-23T08:20:00Z,53.87,-1.65,12.0,11.0,90,7,,0.16,29.64567,,,,,,,,,,-RA -DZ FG,OVX,0,,,,,,,LIFR,,,,,,,,,,,,METAR,221.0
EGNJ 230820Z 09007KT 8000 FEW005 13/13 Q1005,EGNJ,2022-10-23T08:20:00Z,53.57,-0.35,13.0,13.0,90,7,,4.97,29.675198,,,,,,,,,,,FEW,500,,,,,,,MVFR,,,,,,,,,,,,METAR,23.0
EGNH 230820Z 11010KT 9999 -SHRA SCT019 14/12 Q1001 RESHRA,EGNH,2022-10-23T08:20:00Z,53.77,-3.03,14.0,12.0,110,10,,6.21,29.557087,,,,,,,,,,-SHRA,SCT,1900,,,,,,,VFR,,,,,,,,,,,,METAR,10.0
EGMD 230820Z 17016KT 9999 FEW025 17/15 Q1003,EGMD,2022-10-23T08:20:00Z,50.95,0.93,17.0,15.0,170,16,,6.21,29.616142,,,,,,,,,,,FEW,2500,,,,,,,VFR,,,,,,,,,,,,METAR,4.0
EGMC 230820Z 13004KT 9999 FEW012 SCT047 15/14 Q1004 RETS,EGMC,2022-10-23T08:20:00Z,51.57,0.7,15.0,14.0,130,4,,6.21,29.64567,,,,,,,,,,,FEW,1200,SCT,4700,,,,,VFR,,,,,,,,,,,,METAR,15.0
EGLL 230820Z 13008KT 9999 -RA SCT019CB BKN027 15/14 Q1002,EGLL,2022-10-23T08:20:00Z,51.48,-0.45,15.0,14.0,130,8,,6.21,29.586615,,,,,,,,,,-RA,SCT,1900,BKN,2700,,,,,MVFR,,,,,,,,,,,,METAR,26.0
EGLF 230820Z 31004KT 270V330 7000 -RA SCT005 SCT018CB BKN030 15/14 Q1002 RERA,EGLF,2022-10-23T08:20:00Z,51.28,-0.77,15.0,14.0,310,4,,4.35,29.586615,,,,,,,,,,-RA,SCT,500,SCT,1800,BKN,3000,,,MVFR,,,,,,,,,,,,METAR,65.0
EGLC 230820Z AUTO 11008KT 9999 //////CB 15/14 Q1003,EGLC,2022-10-23T08:20:00Z,51.5,0.05,15.0,14.0,110,8,,6.21,29.616142,,,TRUE,,,,,,,,,,,,,,,,,,,,,,,,,,,,METAR,10.0
EGKK 230820Z 15006KT 110V180 3700 SHRA SCT014CB BKN029 16/15 Q1002 RESHGS RESHRA,EGKK,2022-10-23T08:20:00Z,51.13,-0.18,16.0,15.0,150,6,,2.3,29.586615,,,,,,,,,,SHRA SHRA,SCT,1400,BKN,2900,,,,,IFR,,,,,,,,,,,,METAR,58.0
EGKB 230820Z 14009KT 9999 VCSH SCT025 15/14 Q1003,EGKB,2022-10-23T08:20:00Z,51.32,0.02,15.0,14.0,140,9,,6.21,29.616142,,,,,,,,,,VCSH,SCT,2500,,,,,,,VFR,,,,,,,,,,,,METAR,183.0
EGKA 230820Z 20015KT 3500 RA SCT018 BKN035 16/15 Q1002,EGKA,2022-10-23T08:20:00Z,50.83,-0.3,16.0,15.0,200,15,,2.17,29.586615,,,,,,,,,,RA,SCT,1800,BKN,3500,,,,,IFR,,,,,,,,,,,,METAR,2.0
EGJJ 230820Z 15011KT 9999 FEW015CB 16/15 Q1001,EGJJ,2022-10-23T08:20:00Z,49.22,-2.2,16.0,15.0,150,11,,6.21,29.557087,,,,,,,,,,,FEW,1500,,,,,,,VFR,,,,,,,,,,,,METAR,84.0
EGJB 230820Z 16010KT 9999 VCSH FEW006 15/14 Q1001,EGJB,2022-10-23T08:20:00Z,49.42,-2.6,15.0,14.0,160,10,,6.21,29.557087,,,,,,,,,,VCSH,FEW,600,,,,,,,VFR,,,,,,,,,,,,METAR,102.0
EGJA 230820Z 16010KT CAVOK 15/14 Q1001,EGJA,2022-10-23T08:20:00Z,49.72,-2.2,15.0,14.0,160,10,,6.21,29.557087,,,,,,,,,,,CAVOK,,,,,,,,VFR,,,,,,,,,,,,METAR,83.0
EGHQ 230820Z 15009KT 9999 SCT006 14/13 Q0999,EGHQ,2022-10-23T08:20:00Z,50.43,-5.0,14.0,13.0,150,9,,6.21,29.498032,,,,,,,,,,,SCT,600,,,,,,,VFR,,,,,,,,,,,,METAR,101.0
EGHI 230820Z 00000KT 7000 -SHRA FEW008 SCT020 BKN046 15/15 Q1001,EGHI,2022-10-23T08:20:00Z,50.95,-1.35,15.0,15.0,0,0,,4.35,29.557087,,,,,,,,,,-SHRA,FEW,800,SCT,2000,BKN,4600,,,MVFR,,,,,,,,,,,,METAR,13.0
EGHH 230820Z 08008KT 9999 FEW012 15/14 Q1000,EGHH,2022-10-23T08:20:00Z,50.78,-1.83,15.0,14.0,80,8,,6.21,29.52756,,,,,,,,,,,FEW,1200,,,,,,,VFR,,,,,,,,,,,,METAR,9.0
EGGW 230820Z 13008KT 8000 -SHRA FEW007 SCT042CB 14/11 Q1003,EGGW,2022-10-23T08:20:00Z,51.87,-0.37,14.0,11.0,130,8,,4.97,29.616142,,,,,,,,,,-SHRA,FEW,700,SCT,4200,,,,,MVFR,,,,,,,,,,,,METAR,159.0
EGGP 230820Z 10012KT 8000 -SHRA SCT008 OVC041 14/13 Q1000,EGGP,2022-10-23T08:20:00Z,53.33,-2.85,14.0,13.0,100,12,,4.97,29.52756,,,,,,,,,,-SHRA,SCT,800,OVC,4100,,,,,MVFR,,,,,,,,,,,,METAR,23.0
EGGD 230820Z 09010KT 9999 2000E FEW001 13/13 Q0999,EGGD,2022-10-23T08:20:00Z,51.37,-2.72,13.0,13.0,90,10,,6.21,29.498032,,,,,,,,,,,FEW,100,,,,,,,VFR,,,,,,,,,,,,METAR,182.0
EGFF 230820Z 11007KT 9999 BKN005 BKN017 14/14 Q0999,EGFF,2022-10-23T08:20:00Z,51.38,-3.35,14.0,14.0,110,7,,6.21,29.498032,,,,,,,,,,,BKN,500,BKN,1700,,,,,IFR,,,,,,,,,,,,METAR,65.0
EGCN 230820Z 06003KT 010V100 5000 -RA BR SCT009 SCT027 BKN033 12/12 Q1004 RERA,EGCN,2022-10-23T08:20:00Z,53.48,-1.0,12.0,12.0,60,3,,3.11,29.64567,,,,,,,,,,-RA BR,SCT,900,SCT,2700,BKN,3300,,,MVFR,,,,,,,,,,,,METAR,9.0
EGCC 230820Z VRB04KT 9999 FEW014 BKN032TCU 14/13 Q1002 TEMPO RA,EGCC,2022-10-23T08:20:00Z,53.35,-2.27,14.0,13.0,0,4,,6.21,29.586615,,,,,,,,,,,FEW,1400,BKN,3200,,,,,VFR,,,,,,,,,,,,METAR,78.0
EGBJ 230820Z 04004KT 9999 VCSH FEW004 SCT024CB 14/14 Q1000,EGBJ,2022-10-23T08:20:00Z,51.9,-2.17,14.0,14.0,40,4,,6.21,29.52756,,,,,,,,,,VCSH,FEW,400,SCT,2400,,,,,VFR,,,,,,,,,,,,METAR,27.0
EGBB 230820Z 12010KT 100V170 5000 RA SCT005 BKN020 14/13 Q1002,EGBB,2022-10-23T08:20:00Z,52.47,-1.75,14.0,13.0,120,10,,3.11,29.586615,,,,,,,,,,RA,SCT,500,BKN,2000,,,,,MVFR,,,,,,,,,,,,METAR,91.0
EGAE 230820Z 12007KT 090V150 9999 9000E -SHRA FEW007 SCT025 13/13 Q0999,EGAE,2022-10-23T08:20:00Z,55.03,-7.15,13.0,13.0,120,7,,6.21,29.498032,,,,,,,,,,-SHRA,FEW,700,SCT,2500,,,,,VFR,,,,,,,,,,,,METAR,9.0
EGAC 230820Z AUTO 13005KT 100V170 9000 -RA BKN034/// //////TCU 14/13 Q1000 RERA,EGAC,2022-10-23T08:20:00Z,54.62,-5.87,14.0,13.0,130,5,,5.59,29.52756,,,TRUE,,,,,,,-RA,BKN,3400,,,,,,,VFR,,,,,,,,,,,,METAR,2.0
EGAA 230820Z AUTO 11007KT 080V140 9999 FEW005 BKN029 13/12 Q0999,EGAA,2022-10-23T08:20:00Z,54.65,-6.22,13.0,12.0,110,7,,6.21,29.498032,,,TRUE,,,,,,,,FEW,500,BKN,2900,,,,,MVFR,,,,,,,,,,,,METAR,65.0
EFVA 230820Z AUTO 28004KT 250V320 CAVOK 04/M01 Q1007,EFVA,2022-10-23T08:20:00Z,63.05,21.77,4.0,-1.0,280,4,,6.21,29.734253,,,TRUE,,,,,,,,CAVOK,,,,,,,,VFR,,,,,,,,,,,,METAR,4.0
EFUT 230820Z AUTO 27005KT 250V310 9999 OVC025 07/04 Q1005,EFUT,2022-10-23T08:20:00Z,60.88,26.93,7.0,4.0,270,5,,6.21,29.675198,,,TRUE,,,,,,,,OVC,2500,,,,,,,MVFR,,,,,,,,,,,,METAR,104.0
EFTU 230820Z AUTO 27006KT 9999 FEW021 08/05 Q1008,EFTU,2022-10-23T08:20:00Z,60.52,22.27,8.0,5.0,270,6,,6.21,29.763779,,,TRUE,,,,,,,,FEW,2100,,,,,,,VFR,,,,,,,,,,,,METAR,47.0
EFTP 230820Z AUTO 30006KT 270V330 9999 BKN018 06/03 Q1006,EFTP,2022-10-23T08:20:00Z,61.42,23.62,6.0,3.0,300,6,,6.21,29.704725,,,TRUE,,,,,,,,BKN,1800,,,,,,,MVFR,,,,,,,,,,,,METAR,111.0
EFSI 230820Z AUTO 29006KT CAVOK 03/00 Q1006,EFSI,2022-10-23T08:20:00Z,62.7,22.83,3.0,0.0,290,6,,6.21,29.704725,,,TRUE,,,,,,,,CAVOK,,,,,,,,VFR,,,,,,,,,,,,METAR,90.0
EFSA 230820Z AUTO 28008KT 9999 OVC017 06/03 Q1003,EFSA,2022-10-23T08:20:00Z,61.95,28.93,6.0,3.0,280,8,,6.21,29.616142,,,TRUE,,,,,,,,OVC,1700,,,,,,,MVFR,,,,,,,,,,,,METAR,90.0
EFRO 230820Z AUTO 28012G24KT 240V320 CAVOK 02/M06 Q0997,EFRO,2022-10-23T08:20:00Z,66.57,25.82,2.0,-6.0,280,12,24,6.21,29.438976,,,TRUE,,,,,,,,CAVOK,,,,,,,,VFR,,,,,,,,,,,,METAR,201.0
EFPO 230820Z AUTO 33006KT 300V360 9999 FEW021 BKN034 08/03 Q1008,EFPO,2022-10-23T08:20:00Z,61.47,21.8,8.0,3.0,330,6,,6.21,29.763779,,,TRUE,,,,,,,,FEW,2100,BKN,3400,,,,,VFR,,,,,,,,,,,,METAR,10.0
EFOU 230820Z AUTO 31012KT CAVOK 05/M01 Q1002,EFOU,2022-10-23T08:20:00Z,64.92,25.37,5.0,-1.0,310,12,,6.21,29.586615,,,TRUE,,,,,,,,CAVOK,,,,,,,,VFR,,,,,,,,,,,,METAR,15.0
EFMI 230820Z AUTO 28008KT 260V320 9999 BKN015 06/02 Q1004,EFMI,2022-10-23T08:20:00Z,61.68,27.2,6.0,2.0,280,8,,6.21,29.64567,,,TRUE,,,,,,,,BKN,1500,,,,,,,MVFR,,,,,,,,,,,,METAR,99.0
EFMA 230820Z AUTO 32004KT 290V350 9999 BKN020 08/04 Q1010,EFMA,2022-10-23T08:20:00Z,60.12,19.9,8.0,4.0,320,4,,6.21,29.822834,,,TRUE,,,,,,,,BKN,2000,,,,,,,MVFR,,,,,,,,,,,,METAR,6.0
EFLP 230820Z AUTO 28006KT 240V300 9999 BKN007 OVC029 06/05 Q1004,EFLP,2022-10-23T08:20:00Z,61.03,28.15,6.0,5.0,280,6,,6.21,29.64567,,,TRUE,,,,,,,,BKN,700,OVC,2900,,,,,IFR,,,,,,,,,,,,METAR,102.0
EFKU 230820Z AUTO 29009KT 260V320 9999 FEW014 04/01 Q1003,EFKU,2022-10-23T08:20:00Z,63.02,27.8,4.0,1.0,290,9,,6.21,29.616142,,,TRUE,,,,,,,,FEW,1400,,,,,,,VFR,,,,,,,,,,,,METAR,92.0
EFKT 230820Z AUTO 29015KT 260V320 CAVOK 02/M06 Q0994,EFKT,2022-10-23T08:20:00Z,67.7,24.85,2.0,-6.0,290,15,,6.21,29.350393,,,TRUE,,,,,,,,CAVOK,,,,,,,,VFR,,,,,,,,,,,,METAR,190.0
EFKS 230820Z AUTO 29015KT CAVOK 01/M05 Q0994,EFKS,2022-10-23T08:20:00Z,66.0,29.23,1.0,-5.0,290,15,,6.21,29.350393,,,TRUE,,,,,,,,CAVOK,,,,,,,,VFR,,,,,,,,,,,,METAR,270.0
EFKK 230820Z AUTO 29004KT 250V320 CAVOK 04/M01 Q1005,EFKK,2022-10-23T08:20:00Z,63.72,23.13,4.0,-1.0,290,4,,6.21,29.675198,,,TRUE,,,,,,,,CAVOK,,,,,,,,VFR,,,,,,,,,,,,METAR,25.0
EFKI 230820Z AUTO 28015KT CAVOK 04/M01 Q1001,EFKI,2022-10-23T08:20:00Z,64.27,27.67,4.0,-1.0,280,15,,6.21,29.557087,,,TRUE,,,,,,,,CAVOK,,,,,,,,VFR,,,,,,,,,,,,METAR,132.0
EFKE 230820Z AUTO 31014G24KT 270V340 CAVOK 04/M04 Q1000,EFKE,2022-10-23T08:20:00Z,65.78,24.57,4.0,-4.0,310,14,24,6.21,29.52756,,,TRUE,,,,,,,,CAVOK,,,,,,,,VFR,,,,,,,,,,,,METAR,15.0
EFJY 230820Z AUTO 30006KT 260V330 9999 FEW012 05/02 Q1005,EFJY,2022-10-23T08:20:00Z,62.4,25.68,5.0,2.0,300,6,,6.21,29.675198,,,TRUE,,,,,,,,FEW,1200,,,,,,,VFR,,,,,,,,,,,,METAR,139.0
EFJO 230820Z AUTO 29010KT 9999 BKN019 05/01 Q1002,EFJO,2022-10-23T08:20:00Z,62.67,29.62,5.0,1.0,290,10,,6.21,29.586615,,,TRUE,,,,,,,,BKN,1900,,,,,,,MVFR,,,,,,,,,,,,METAR,118.0
EFIV 230820Z AUTO 30020G32KT 9999 FEW026 03/M02 Q0987,EFIV,2022-10-23T08:20:00Z,68.62,27.42,3.0,-2.0,300,20,32,6.21,29.143702,,,TRUE,,,,,,,,FEW,2600,,,,,,,VFR,,,,,,,,,,,,METAR,145.0
EFHK 230820Z 31010KT 9999 BKN022 07/02 Q1007 NOSIG,EFHK,2022-10-23T08:20:00Z,60.32,24.97,7.0,2.0,310,10,,6.21,29.734253,,,,,,TRUE,,,,,BKN,2200,,,,,,,MVFR,,,,,,,,,,,,METAR,56.0
EFHA 230820Z AUTO 29006KT 9999 BKN010 05/03 Q1005,EFHA,2022-10-23T08:20:00Z,61.85,24.8,5.0,3.0,290,6,,6.21,29.675198,,,TRUE,,,,,,,,BKN,1000,,,,,,,MVFR,,,,,,,,,,,,METAR,144.0
EFET 230820Z AUTO 28017KT CAVOK 00/M05 Q0993,EFET,2022-10-23T08:20:00Z,68.37,23.43,0.0,-5.0,280,17,,6.21,29.320866,,,TRUE,,,,,,,,CAVOK,,,,,,,,VFR,,,,,,,,,,,,METAR,300.0
EETU 230820Z AUTO 24006KT 4400 BR OVC004/// 06/05 Q1008,EETU,2022-10-23T08:20:00Z,58.32,26.68,6.0,5.0,240,6,,2.73,29.763779,,,TRUE,,,,,,,BR,OVC,400,,,,,,,LIFR,,,,,,,,,,,,METAR,67.0
EETN 230820Z 28006KT 9999 OVC025 08/07 Q1007 NOSIG,EETN,2022-10-23T08:20:00Z,59.4,24.82,8.0,7.0,280,6,,6.21,29.734253,,,,,,TRUE,,,,,OVC,2500,,,,,,,MVFR,,,,,,,,,,,,METAR,41.0
EEPU 230820Z AUTO 26004KT 230V290 8000 -RA FEW004/// BKN037/// OVC042/// 09/09 Q1008,EEPU,2022-10-23T08:20:00Z,58.42,24.47,9.0,9.0,260,4,,4.97,29.763779,,,TRUE,,,,,,,-RA,FEW,400,BKN,3700,OVC,4200,,,MVFR,,,,,,,,,,,,METAR,13.0
EEKE 230820Z 30004KT 250V330 9999 FEW007 BKN017 OVC026 09/09 Q1009,EEKE,2022-10-23T08:20:00Z,58.23,22.52,9.0,9.0,300,4,,6.21,29.793306,,,,,,,,,,,FEW,700,BKN,1700,OVC,2600,,,MVFR,,,,,,,,,,,,METAR,4.0
EDXW 230820Z 19008KT 7000 SCT002 13/12 Q1013,EDXW,2022-10-23T08:20:00Z,54.92,8.33,13.0,12.0,190,8,,4.35,29.911417,,,,,,,,,,,SCT,200,,,,,,,MVFR,,,,,,,,,,,,METAR,8.0
EDVK 230820Z 15007KT 9999 FEW003 12/12 Q1014,EDVK,2022-10-23T08:20:00Z,51.4,9.37,12.0,12.0,150,7,,6.21,29.940945,,,,,,,,,,,FEW,300,,,,,,,VFR,,,,,,,,,,,,METAR,277.0
EDVE 230820Z 10004KT CAVOK 11/10 Q1014,EDVE,2022-10-23T08:20:00Z,52.32,10.55,11.0,10.0,100,4,,6.21,29.940945,,,,,,,,,,,CAVOK,,,,,,,,VFR,,,,,,,,,,,,METAR,83.0
EDTY 230820Z VRB01KT CAVOK 12/10 Q1016,EDTY,2022-10-23T08:20:00Z,49.12,9.78,12.0,10.0,0,1,,6.21,30.0,,,,,,,,,,,CAVOK,,,,,,,,VFR,,,,,,,,,,,,METAR,398.0
EDTL 230820Z VRB03KT CAVOK 15/12 Q1014,EDTL,2022-10-23T08:20:00Z,48.37,7.83,15.0,12.0,0,3,,6.21,29.940945,,,,,,,,,,,CAVOK,,,,,,,,VFR,,,,,,,,,,,,METAR,152.0
EDSB 230820Z 00000KT CAVOK 13/12 Q1015,EDSB,2022-10-23T08:20:00Z,48.78,8.08,13.0,12.0,0,0,,6.21,29.970472,,,,,,,,,,,CAVOK,,,,,,,,VFR,,,,,,,,,,,,METAR,122.0
EDQM 230820Z 16005KT 110V190 9999 FEW005 11/11 Q1018,EDQM,2022-10-23T08:20:00Z,50.3,11.85,11.0,11.0,160,5,,6.21,30.059055,,,,,,,,,,,FEW,500,,,,,,,VFR,,,,,,,,,,,,METAR,578.0
EDNY 230820Z 04003KT 9999 4200 NSC 13/10 Q1017,EDNY,2022-10-23T08:20:00Z,47.67,9.52,13.0,10.0,40,3,,6.21,30.029528,,,,,,,,,,,CLR,,,,,,,,VFR,,,,,,,,,,,,METAR,411.0
EDMO 230820Z AUTO VRB01KT 9999 // NCD 13/10 Q1018,EDMO,2022-10-23T08:20:00Z,48.07,11.27,13.0,10.0,0,1,,6.21,30.059055,,,TRUE,,,,,,,,CLR,,,,,,,,VFR,,,,,,,,,,,,METAR,587.0
EDMA 230820Z 15004KT 120V180 CAVOK 12/10 Q1018,EDMA,2022-10-23T08:20:00Z,48.42,10.92,12.0,10.0,150,4,,6.21,30.059055,,,,,,,,,,,CAVOK,,,,,,,,VFR,,,,,,,,,,,,METAR,462.0
EDLW 230820Z 14006KT 120V180 CAVOK 14/11 Q1012,EDLW,2022-10-23T08:20:00Z,51.52,7.62,14.0,11.0,140,6,,6.21,29.88189,,,,,,,,,,,CAVOK,,,,,,,,VFR,,,,,,,,,,,,METAR,122.0
EDLV 230820Z 13009KT CAVOK 15/12 Q1010,EDLV,2022-10-23T08:20:00Z,51.6,6.15,15.0,12.0,130,9,,6.21,29.822834,,,,,,,,,,,CAVOK,,,,,,,,VFR,,,,,,,,,,,,METAR,27.0
EDLP 230820Z 11003KT 070V160 CAVOK 16/11 Q1013,EDLP,2022-10-23T08:20:00Z,51.62,8.62,16.0,11.0,110,3,,6.21,29.911417,,,,,,,,,,,CAVOK,,,,,,,,VFR,,,,,,,,,,,,METAR,211.0
EDLN 230820Z 13006KT 100V170 CAVOK 15/12 Q1011,EDLN,2022-10-23T08:20:00Z,51.23,6.5,15.0,12.0,130,6,,6.21,29.852362,,,,,,,,,,,CAVOK,,,,,,,,VFR,,,,,,,,,,,,METAR,38.0
EDJA 230820Z VRB01KT CAVOK 11/08 Q1017,EDJA,2022-10-23T08:20:00Z,47.98,10.23,11.0,8.0,0,1,,6.21,30.029528,,,,,,,,,,,CAVOK,,,,,,,,VFR,,,,,,,,,,,,METAR,625.0
EDHL 230820Z VRB02KT 9999 FEW003 11/11 Q1015,EDHL,2022-10-23T08:20:00Z,53.8,10.72,11.0,11.0,0,2,,6.21,29.970472,,,,,,,,,,,FEW,300,,,,,,,VFR,,,,,,,,,,,,METAR,13.0
EDHK 230820Z 18004KT R26/0600N VV/// 09/09 Q1014,EDHK,2022-10-23T08:20:00Z,54.38,10.15,9.0,9.0,180,4,,0.37,29.940945,,,,,,,,,,,OVX,0,,,,,,,LIFR,,,,,,,,,,,,METAR,24.0
EDHI 230820Z AUTO 10006KT 070V140 9999 // FEW200/// BKN230/// 12/12 Q1014,EDHI,2022-10-23T08:20:00Z,53.53,9.83,12.0,12.0,100,6,,6.21,29.940945,,,TRUE,,,,,,,,FEW,20000,BKN,23000,,,,,VFR,,,,,,,,,,,,METAR,5.0
EDFM 230820Z VRB01KT CAVOK 13/12 Q1015,EDFM,2022-10-23T08:20:00Z,49.47,8.52,13.0,12.0,0,1,,6.21,29.970472,,,,,,,,,,,CAVOK,,,,,,,,VFR,,,,,,,,,,,,METAR,94.0
EDFH 230820Z 14010KT CAVOK 12/11 Q1013,EDFH,2022-10-23T08:20:00Z,49.95,7.27,12.0,11.0,140,10,,6.21,29.911417,,,,,,,,,,,CAVOK,,,,,,,,VFR,,,,,,,,,,,,METAR,494.0
EDDW 230820Z AUTO 13004KT 090V160 CAVOK 11/10 Q1013 NOSIG,EDDW,2022-10-23T08:20:00Z,53.03,8.8,11.0,10.0,130,4,,6.21,29.911417,,,TRUE,,,TRUE,,,,,CAVOK,,,,,,,,VFR,,,,,,,,,,,,METAR,5.0
EDDV 230820Z AUTO 12004KT 080V160 CAVOK 13/11 Q1014 NOSIG,EDDV,2022-10-23T08:20:00Z,52.47,9.68,13.0,11.0,120,4,,6.21,29.940945,,,TRUE,,,TRUE,,,,,CAVOK,,,,,,,,VFR,,,,,,,,,,,,METAR,53.0
EDDS 230820Z AUTO VRB02KT CAVOK 12/10 Q1015 NOSIG,EDDS,2022-10-23T08:20:00Z,48.68,9.22,12.0,10.0,0,2,,6.21,29.970472,,,TRUE,,,TRUE,,,,,CAVOK,,,,,,,,VFR,,,,,,,,,,,,METAR,374.0
EDDR 230820Z AUTO VRB02KT CAVOK 16/13 Q1013 NOSIG,EDDR,2022-10-23T08:20:00Z,49.22,7.1,16.0,13.0,0,2,,6.21,29.911417,,,TRUE,,,TRUE,,,,,CAVOK,,,,,,,,VFR,,,,,,,,,,,,METAR,317.0
EDDP 230820Z AUTO 15009KT CAVOK 12/11 Q1016 NOSIG,EDDP,2022-10-23T08:20:00Z,51.43,12.23,12.0,11.0,150,9,,6.21,30.0,,,TRUE,,,TRUE,,,,,CAVOK,,,,,,,,VFR,,,,,,,,,,,,METAR,129.0
EDDN 230820Z AUTO 11005KT CAVOK 13/11 Q1017 NOSIG,EDDN,2022-10-23T08:20:00Z,49.5,11.05,13.0,11.0,110,5,,6.21,30.029528,,,TRUE,,,TRUE,,,,,CAVOK,,,,,,,,VFR,,,,,,,,,,,,METAR,312.0
EDDM 230820Z AUTO 09006KT CAVOK 11/09 Q1018 NOSIG,EDDM,2022-10-23T08:20:00Z,48.35,11.82,11.0,9.0,90,6,,6.21,30.059055,,,TRUE,,,TRUE,,,,,CAVOK,,,,,,,,VFR,,,,,,,,,,,,METAR,445.0
EDDL 230820Z AUTO 15011KT CAVOK 17/12 Q1011 NOSIG,EDDL,2022-10-23T08:20:00Z,51.3,6.77,17.0,12.0,150,11,,6.21,29.852362,,,TRUE,,,TRUE,,,,,CAVOK,,,,,,,,VFR,,,,,,,,,,,,METAR,37.0
EDDK 230820Z AUTO 12007KT 070V160 CAVOK 15/11 Q1012 NOSIG,EDDK,2022-10-23T08:20:00Z,50.87,7.15,15.0,11.0,120,7,,6.21,29.88189,,,TRUE,,,TRUE,,,,,CAVOK,,,,,,,,VFR,,,,,,,,,,,,METAR,92.0
EDDH 230820Z AUTO 14004KT CAVOK 12/11 Q1014 NOSIG,EDDH,2022-10-23T08:20:00Z,53.63,10.0,12.0,11.0,140,4,,6.21,29.940945,,,TRUE,,,TRUE,,,,,CAVOK,,,,,,,,VFR,,,,,,,,,,,,METAR,8.0
EDDG 230820Z AUTO 13003KT 040V180 CAVOK 12/11 Q1012 NOSIG,EDDG,2022-10-23T08:20:00Z,52.13,7.7,12.0,11.0,130,3,,6.21,29.88189,,,TRUE,,,TRUE,,,,,CAVOK,,,,,,,,VFR,,,,,,,,,,,,METAR,46.0
EDDF 230820Z AUTO 02005KT 360V060 CAVOK 13/11 Q1014 NOSIG,EDDF,2022-10-23T08:20:00Z,50.05,8.6,13.0,11.0,20,5,,6.21,29.940945,,,TRUE,,,TRUE,,,,,CAVOK,,,,,,,,VFR,,,,,,,,,,,,METAR,113.0
EDDE 230820Z AUTO 18007KT CAVOK 14/11 Q1016 NOSIG,EDDE,2022-10-23T08:20:00Z,50.98,10.97,14.0,11.0,180,7,,6.21,30.0,,,TRUE,,,TRUE,,,,,CAVOK,,,,,,,,VFR,,,,,,,,,,,,METAR,314.0
EDDC 230820Z AUTO 15005KT 120V180 CAVOK 13/11 Q1018 NOSIG,EDDC,2022-10-23T08:20:00Z,51.13,13.75,13.0,11.0,150,5,,6.21,30.059055,,,TRUE,,,TRUE,,,,,CAVOK,,,,,,,,VFR,,,,,,,,,,,,METAR,227.0
EDDB 230820Z AUTO 17003KT 120V200 CAVOK 13/12 Q1017 NOSIG,EDDB,2022-10-23T08:20:00Z,52.38,13.53,13.0,12.0,170,3,,6.21,30.029528,,,TRUE,,,TRUE,,,,,CAVOK,,,,,,,,VFR,,,,,,,,,,,,METAR,48.0
EDBC 230820Z AUTO 18008KT 9999 // BKN170/// 14/12 Q1015,EDBC,2022-10-23T08:20:00Z,51.85,11.42,14.0,12.0,180,8,,6.21,29.970472,,,TRUE,,,,,,,,BKN,17000,,,,,,,VFR,,,,,,,,,,,,METAR,178.0
EDAH 230820Z 21005KT 6000 BKN002 12/12 Q1016,EDAH,2022-10-23T08:20:00Z,53.87,14.15,12.0,12.0,210,5,,3.73,30.0,,,,,,,,,,,BKN,200,,,,,,,LIFR,,,,,,,,,,,,METAR,22.0
EDAC 230820Z 20006KT CAVOK 14/11 Q1017,EDAC,2022-10-23T08:20:00Z,50.98,12.5,14.0,11.0,200,6,,6.21,30.029528,,,,,,,,,,,CAVOK,,,,,,,,VFR,,,,,,,,,,,,METAR,193.0
EBOS 230820Z 15011KT 9999 -SHRA FEW025 15/13 Q1006 TEMPO 4000 SHRA,EBOS,2022-10-23T08:20:00Z,51.2,2.87,15.0,13.0,150,11,,6.21,29.704725,,,,,,,,,,-SHRA,FEW,2500,,,,,,,VFR,,,,,,,,,,,,SPECI,5.0
EBLG 230820Z 14010KT 110V170 CAVOK 16/11 Q1010 NOSIG,EBLG,2022-10-23T08:20:00Z,50.63,5.45,16.0,11.0,140,10,,6.21,29.822834,,,,,,TRUE,,,,,CAVOK,,,,,,,,VFR,,,,,,,,,,,,METAR,187.0
EBCI 230820Z 16008KT 130V190 CAVOK 15/12 Q1009 NOSIG,EBCI,2022-10-23T08:20:00Z,50.47,4.45,15.0,12.0,160,8,,6.21,29.793306,,,,,,TRUE,,,,,CAVOK,,,,,,,,VFR,,,,,,,,,,,,METAR,176.0
EBBR 230820Z 14006KT CAVOK 15/12 Q1008 NOSIG,EBBR,2022-10-23T08:20:00Z,50.9,4.52,15.0,12.0,140,6,,6.21,29.763779,,,,,,TRUE,,,,,CAVOK,,,,,,,,VFR,,,,,,,,,,,,METAR,49.0
EBAW 230820Z AUTO 12006KT CAVOK ///// Q1009,EBAW,2022-10-23T08:20:00Z,51.2,4.47,,,120,6,,6.21,29.793306,,,TRUE,,,,,,,,CAVOK,,,,,,,,VFR,,,,,,,,,,,,SPECI,7.0
CYQY 230820Z 23005KT 7SM FEW002 BKN240 10/10 A3034 RMK ST2CI3 CIG ESTD SLP278,CYQY,2022-10-23T08:20:00Z,46.17,-60.03,10.0,10.0,230,5,,7.0,30.339567,1027.8,,,,,,,,,,FEW,200,BKN,24000,,,,,VFR,,,,,,,,,,,,SPECI,58.0
PADM 230819Z AUTO 00000KT 10SM OVC003 M03/M03 A3005 RMK AO2 FZRANO,PADM,2022-10-23T08:19:00Z,61.87,-162.03,-3.0,-3.0,0,0,,10.0,30.050198,,,TRUE,TRUE,,,,TRUE,,,OVC,300,,,,,,,LIFR,,,,,,,,,,,,METAR,17.0
PABE 230819Z 17005KT 1SM BR VV002 M04/M04 A3003 RMK AO2 I1000 T10391039 RVRNO,PABE,2022-10-23T08:19:00Z,60.78,-161.83,-3.9,-3.9,170,5,,1.0,30.029528,,,,TRUE,,,,,,BR,OVX,0,,,,,,,LIFR,,,,,,,,,,,200,SPECI,28.0
KMTN 230819Z AUTO 28005KT 10SM CLR 06/06 A3026 RMK AO2,KMTN,2022-10-23T08:19:00Z,39.32,-76.42,6.0,6.0,280,5,,10.0,30.259842,,,TRUE,TRUE,,,,,,,CLR,,,,,,,,VFR,,,,,,,,,,,,METAR,2.0
KLVM 230819Z AUTO 28007KT 3SM -SN BR BKN009 OVC015 01/00 A2954 RMK AO2 P0001 T00110000 $,KLVM,2022-10-23T08:19:00Z,45.7,-110.43,1.1,0.0,280,7,,3.0,29.53937,,,TRUE,TRUE,TRUE,,,,,-SN BR,BKN,900,OVC,1500,,,,,IFR,,,,,,0.01,,,,,,SPECI,1418.0
KLEB 230819Z AUTO 00000KT 2 1/2SM BR BKN001 02/01 A3033 RMK AO2 T00220006,KLEB,2022-10-23T08:19:00Z,43.63,-72.3,2.2,0.6,0,0,,2.5,30.33071,,,TRUE,TRUE,,,,,,BR,BKN,100,,,,,,,LIFR,,,,,,,,,,,,SPECI,169.0
KIDA 230819Z AUTO 22010KT 10SM BKN007 02/M01 A2960 RMK AO2 T00171006,KIDA,2022-10-23T08:19:00Z,43.52,-112.07,1.7,-0.6,220,10,,10.0,29.601377,,,TRUE,TRUE,,,,,,,BKN,700,,,,,,,IFR,,,,,,,,,,,,SPECI,1444.0
KHDC 230819Z AUTO 00000KT 10SM CLR 13/13 A3006 RMK AO2 TSNO,KHDC,2022-10-23T08:19:00Z,30.52,-90.42,13.0,13.0,0,0,,10.0,30.059055,,,TRUE,TRUE,,,TRUE,,,,CLR,,,,,,,,VFR,,,,,,,,,,,,METAR,12.0
KFME 230819Z AUTO 00000KT 7SM CLR 04/03 A3028 RMK AO1,KFME,2022-10-23T08:19:00Z,39.08,-76.77,4.0,3.0,0,0,,7.0,30.280512,,,TRUE,TRUE,,,,,,,CLR,,,,,,,,VFR,,,,,,,,,,,,METAR,43.0
KBML 230819Z AUTO 00000KT 10SM BKN001 M01/M02 A3034 RMK AO2 T10061017,KBML,2022-10-23T08:19:00Z,44.58,-71.18,-0.6,-1.7,0,0,,10.0,30.339567,,,TRUE,TRUE,,,,,,,BKN,100,,,,,,,LIFR,,,,,,,,,,,,METAR,344.0
K2W6 230819Z AUTO 00000KT 10SM CLR 09/09 A3023 RMK AO1,K2W6,2022-10-23T08:19:00Z,38.32,-76.55,9.0,9.0,0,0,,10.0,30.230314,,,TRUE,TRUE,,,,,,,CLR,,,,,,,,VFR,,,,,,,,,,,,METAR,40.0
EGUL 230819Z AUTO 10008KT 9999 BKN035 15/15 A2963 RMK AO2 RAE19 SLP037 $,EGUL,2022-10-23T08:19:00Z,52.42,0.57,15.0,15.0,100,8,,6.21,29.630905,1003.7,,TRUE,TRUE,TRUE,,,,,,BKN,3500,,,,,,,VFR,,,,,,,,,,,,SPECI,8.0
CYPY 230819Z AUTO 02004KT 9SM -SN OVC055 M03/M06 A3006 RMK SLP197,CYPY,2022-10-23T08:19:00Z,58.77,-111.12,-3.0,-6.0,20,4,,9.0,30.059055,1019.7,,TRUE,,,,,,,-SN,OVC,5500,,,,,,,VFR,,,,,,,,,,,,SPECI,225.0
CYPH 230819Z AUTO 27018G24KT 9SM -RA SCT019 OVC027 02/M00 A2989 RMK SLP126,CYPH,2022-10-23T08:19:00Z,58.47,-78.08,2.0,0.0,270,18,24,9.0,29.890747,1012.6,,TRUE,,,,,,,-RA,SCT,1900,OVC,2700,,,,,MVFR,,,,,,,,,,,,SPECI,24.0
YPBO 230818Z AUTO 27017G27KT 9999 // NCD 35/M01 Q1005,YPBO,2022-10-23T08:18:00Z,-23.17,117.75,35.0,-1.0,270,17,27,6.21,29.675198,,,TRUE,,,,,,,,CLR,,,,,,,,VFR,,,,,,,,,,,,SPECI,425.0
PADK 230818Z AUTO 20023G28KT BKN027 OVC034 08/06 A3020 RMK AO2 PK WND 20029/0807 P0002 PWINO $,PADK,2022-10-23T08:18:00Z,51.88,-176.65,8.0,6.0,200,23,28,,30.200787,,,TRUE,TRUE,TRUE,,,,TRUE,,BKN,2700,OVC,3400,,,,,,,,,,,0.02,,,,,,METAR,3.0
KSAW 230818Z AUTO 18008KT 7SM CLR 10/09 A2985 RMK AO2 T00950087,KSAW,2022-10-23T08:18:00Z,46.35,-87.4,9.5,8.7,180,8,,7.0,29.84941,,,TRUE,TRUE,,,,,,,CLR,,,,,,,,VFR,,,,,,,,,,,,METAR,359.0
KRGA 230818Z AUTO 00000KT 10SM CLR 15/08 A3016 RMK AO2,KRGA,2022-10-23T08:18:00Z,37.63,-84.33,15.0,8.0,0,0,,10.0,30.159449,,,TRUE,TRUE,,,,,,,CLR,,,,,,,,VFR,,,,,,,,,,,,METAR,301.0
KLGU 230818Z AUTO 24008KT 9SM FEW005 FEW010 BKN060 02/01 A2960 RMK AO2 T00170011,KLGU,2022-10-23T08:18:00Z,41.78,-111.85,1.7,1.1,240,8,,9.0,29.601377,,,TRUE,TRUE,,,,,,,FEW,500,FEW,1000,BKN,6000,,,VFR,,,,,,,,,,,,SPECI,1359.0
KEGE 230818Z AUTO 19007KT 10SM OVC095 14/M03 A2946 RMK AO2 WSHFT 0753,KEGE,2022-10-23T08:18:00Z,39.63,-106.92,14.0,-3.0,190,7,,10.0,29.459646,,,TRUE,TRUE,,,,,,,OVC,9500,,,,,,,VFR,,,,,,,,,,,,METAR,1993.0
KCQX 230818Z AUTO 03003KT 10SM FEW003 14/13 A3032 RMK AO2 T01390128,KCQX,2022-10-23T08:18:00Z,41.68,-70.0,13.9,12.8,30,3,,10.0,30.318897,,,TRUE,TRUE,,,,,,,FEW,300,,,,,,,VFR,,,,,,,,,,,,METAR,17.0
KBZN 230818Z AUTO 28010KT 1 1/4SM -SN BR FEW003 OVC014 01/00 A2959 RMK AO2 P0001 T00060000,KBZN,2022-10-23T08:18:00Z,45.78,-111.17,0.6,0.0,280,10,,1.25,29.589567,,,TRUE,TRUE,,,,,,-SN BR,FEW,300,OVC,1400,,,,,IFR,,,,,,0.01,,,,,,SPECI,1349.0
CYKL 230818Z AUTO 29011G16KT 9SM FEW014 SCT020 02/00 A2996 RMK SLP173,CYKL,2022-10-23T08:18:00Z,54.8,-66.8,2.0,0.0,290,11,16,9.0,29.958662,1017.3,,TRUE,,,,,,,,FEW,1400,SCT,2000,,,,,VFR,,,,,,,,,,,,SPECI,507.0
PAFA 230817Z 00000KT 2 1/2SM BR BKN002 OVC055 M01/M02 A2993 RMK AO2 T10061017,PAFA,2022-10-23T08:17:00Z,64.8,-147.87,-0.6,-1.7,0,0,,2.5,29.929134,,,,TRUE,,,,,,BR,BKN,200,OVC,5500,,,,,LIFR,,,,,,,,,,,,METAR,130.0
KVEL 230817Z AUTO 06008KT 1 1/2SM -SN BR BKN008 OVC012 01/M01 A2951 RMK AO2 RAE0754SNB0754 P0003 T00111006,KVEL,2022-10-23T08:17:00Z,40.45,-109.52,1.1,-0.6,60,8,,1.5,29.509842,,,TRUE,TRUE,,,,,,-SN BR,BKN,800,OVC,1200,,,,,IFR,,,,,,0.03,,,,,,METAR,1604.0
KSDB 230817Z AUTO 31019G27KT 10SM BKN022 OVC028 08/03 A2981 RMK AO2 PK WND 32031/0802 T00830028 $,KSDB,2022-10-23T08:17:00Z,34.75,-118.72,8.3,2.8,310,19,27,10.0,29.811024,,,TRUE,TRUE,TRUE,,,,,,BKN,2200,OVC,2800,,,,,MVFR,,,,,,,,,,,,METAR,1377.0
KNY0 230817Z AUTO 10004KT 10SM CLR 05/05 A3031 RMK AO2,KNY0,2022-10-23T08:17:00Z,42.98,-74.33,5.0,5.0,100,4,,10.0,30.31004,,,TRUE,TRUE,,,,,,,CLR,,,,,,,,VFR,,,,,,,,,,,,METAR,266.0
KLFK 230817Z AUTO 13006KT 10SM BKN028 BKN039 20/17 A2992 RMK AO2 T02000172,KLFK,2022-10-23T08:17:00Z,31.23,-94.75,20.0,17.2,130,6,,10.0,29.920275,,,TRUE,TRUE,,,,,,,BKN,2800,BKN,3900,,,,,MVFR,,,,,,,,,,,,METAR,87.0
KCKC 230817Z AUTO 05005KT 10SM CLR 07/06 A2974 RMK AO2,KCKC,2022-10-23T08:17:00Z,47.83,-90.38,7.0,6.0,50,5,,10.0,29.740158,,,TRUE,TRUE,,,,,,,CLR,,,,,,,,VFR,,,,,,,,,,,,METAR,544.0
KASX 230817Z AUTO 00000KT 1 1/2SM BR CLR 03/03 A2970 RMK AO2 T00280028,KASX,2022-10-23T08:17:00Z,46.55,-90.92,2.8,2.8,0,0,,1.5,29.698818,,,TRUE,TRUE,,,,,,BR,CLR,,,,,,,,IFR,,,,,,,,,,,,METAR,249.0
KADC 230817Z AUTO 10003KT 10SM CLR 07/03 A2956 RMK AO2 TSNO,KADC,2022-10-23T08:17:00Z,46.45,-95.22,7.0,3.0,100,3,,10.0,29.56004,,,TRUE,TRUE,,,TRUE,,,,CLR,,,,,,,,VFR,,,,,,,,,,,,METAR,416.0
CYVM 230817Z AUTO 20005KT 3SM -SN OVC029 M01/M01 A2923 RMK SLP899,CYVM,2022-10-23T08:17:00Z,67.55,-64.02,-1.0,-1.0,200,5,,3.0,29.22933,989.9,,TRUE,,,,,,,-SN,OVC,2900,,,,,,,MVFR,,,,,,,,,,,,SPECI,3.0
YLHI 230816Z AUTO 07024KT 7000 // SCT017 20/17 Q1016 RF00.0/000.0,YLHI,2022-10-23T08:16:00Z,-31.53,159.07,20.0,17.0,70,24,,4.35,30.0,,,TRUE,,,,,,,,SCT,1700,,,,,,,MVFR,,,,,,,,,,,,SPECI,2.0
YBDV 230816Z AUTO 16015G29KT 9999 // NCD 28/14 Q1005,YBDV,2022-10-23T08:16:00Z,-25.9,139.35,28.0,14.0,160,15,29,6.21,29.675198,,,TRUE,,,,,,,,CLR,,,,,,,,VFR,,,,,,,,,,,,SPECI,46.0
PAIK 230816Z AUTO 11005KT 10SM SCT024 OVC035 00/M02 A2991 RMK AO2 FZRANO,PAIK,2022-10-23T08:16:00Z,66.98,-160.43,0.0,-2.0,110,5,,10.0,29.911417,,,TRUE,TRUE,,,,TRUE,,,SCT,2400,OVC,3500,,,,,VFR,,,,,,,,,,,,SPECI,49.0
LHDC 230816Z AUTO 18007KT 140V210 0600 R04/0750N FG VV002 10/10 Q1023,LHDC,2022-10-23T08:16:00Z,47.48,21.62,10.0,10.0,180,7,,0.37,30.206694,,,TRUE,,,,,,,FG,OVX,0,,,,,,,LIFR,,,,,,,,,,,200,SPECI,105.0
KTRK 230816Z AUTO 00000KT 10SM CLR M07/M08 A2986 RMK AO2,KTRK,2022-10-23T08:16:00Z,39.32,-120.13,-7.0,-8.0,0,0,,10.0,29.861221,,,TRUE,TRUE,,,,,,,CLR,,,,,,,,VFR,,,,,,,,,,,,METAR,1800.0
KSHR 230816Z AUTO 24003KT 10SM SCT012 OVC042 07/05 A2942 RMK AO2 T00720050,KSHR,2022-10-23T08:16:00Z,44.77,-106.97,7.2,5.0,240,3,,10.0,29.421259,,,TRUE,TRUE,,,,,,,SCT,1200,OVC,4200,,,,,VFR,,,,,,,,,,,,METAR,1212.0
KOKB 230816Z AUTO 23008KT 4SM -RA BR FEW007 BKN026 OVC033 17/16 A2979 RMK AO2 RAE0753B13 P0000 T01720161,KOKB,2022-10-23T08:16:00Z,33.22,-117.35,17.2,16.1,230,8,,4.0,29.790354,,,TRUE,TRUE,,,,,,-RA BR,FEW,700,BKN,2600,OVC,3300,,,MVFR,,,,,,0.005,,,,,,METAR,7.0
KMSO 230816Z AUTO 35006KT 10SM OVC031 03/01 A2969 RMK AO2 RAE13 P0001 T00330006 $,KMSO,2022-10-23T08:16:00Z,46.92,-114.1,3.3,0.6,350,6,,10.0,29.68996,,,TRUE,TRUE,TRUE,,,,,,OVC,3100,,,,,,,VFR,,,,,,0.01,,,,,,METAR,974.0
KLGB 230816Z AUTO 22004KT 10SM BKN021 BKN042 18/13 A2978 RMK AO2 T01830128,KLGB,2022-10-23T08:16:00Z,33.82,-118.15,18.3,12.8,220,4,,10.0,29.778543,,,TRUE,TRUE,,,,,,,BKN,2100,BKN,4200,,,,,MVFR,,,,,,,,,,,,METAR,10.0
KJYG 230816Z AUTO 13009KT 10SM CLR 12/07 A2957 RMK AO2,KJYG,2022-10-23T08:16:00Z,43.98,-94.55,12.0,7.0,130,9,,10.0,29.568897,,,TRUE,TRUE,,,,,,,CLR,,,,,,,,VFR,,,,,,,,,,,,METAR,323.0
KHLN 230816Z AUTO 32006KT 2 1/2SM -SN BR OVC022 01/M01 A2961 RMK AO2 P0001 T00111011,KHLN,2022-10-23T08:16:00Z,46.6,-111.98,1.1,-1.1,320,6,,2.5,29.610237,,,TRUE,TRUE,,,,,,-SN BR,OVC,2200,,,,,,,IFR,,,,,,0.01,,,,,,METAR,1178.0
KGYF 230816Z AUTO 18018KT 10SM BKN044 26/14 A2993 RMK AO2 T02630144,KGYF,2022-10-23T08:16:00Z,26.13,-94.9,26.3,14.4,180,18,,10.0,29.929134,,,TRUE,TRUE,,,,,,,BKN,4400,,,,,,,VFR,,,,,,,,,,,,METAR,65.0
KFUL 230816Z AUTO 19004KT 10SM FEW029 BKN041 17/13 A2977 RMK AO2 T01720128,KFUL,2022-10-23T08:16:00Z,33.87,-117.98,17.2,12.8,190,4,,10.0,29.769686,,,TRUE,TRUE,,,,,,,FEW,2900,BKN,4100,,,,,VFR,,,,,,,,,,,,METAR,23.0
KDUB 230816Z AUTO 29006KT 10SM CLR M02/M07 A2949 RMK AO2,KDUB,2022-10-23T08:16:00Z,43.55,-109.68,-2.0,-7.0,290,6,,10.0,29.489174,,,TRUE,TRUE,,,,,,,CLR,,,,,,,,VFR,,,,,,,,,,,,METAR,2205.0
KCQM 230816Z AUTO 00000KT 10SM CLR 06/03 A2963 RMK AO2,KCQM,2022-10-23T08:16:00Z,47.82,-92.68,6.0,3.0,0,0,,10.0,29.630905,,,TRUE,TRUE,,,,,,,CLR,,,,,,,,VFR,,,,,,,,,,,,METAR,406.0
KCAG 230816Z AUTO VRB03KT 1 1/4SM -SN BR OVC010 01/M01 A2949 RMK AO2 P0000 T00061006,KCAG,2022-10-23T08:16:00Z,40.5,-107.52,0.6,-0.6,0,3,,1.25,29.489174,,,TRUE,TRUE,,,,,,-SN BR,OVC,1000,,,,,,,IFR,,,,,,0.005,,,,,,METAR,1888.0
KBBB 230816Z AUTO 14005KT 10SM CLR 13/06 A2953 RMK AO2,KBBB,2022-10-23T08:16:00Z,45.32,-95.65,13.0,6.0,140,5,,10.0,29.530512,,,TRUE,TRUE,,,,,,,CLR,,,,,,,,VFR,,,,,,,,,,,,METAR,315.0
KAUM 230816Z AUTO 14005KT 10SM CLR 15/09 A2967 RMK AO2,KAUM,2022-10-23T08:16:00Z,43.67,-92.92,15.0,9.0,140,5,,10.0,29.66929,,,TRUE,TRUE,,,,,,,CLR,,,,,,,,VFR,,,,,,,,,,,,METAR,376.0
KAPS 230816Z AUTO 00000KT 10SM CLR 15/14 A3006 RMK AO2,KAPS,2022-10-23T08:16:00Z,30.08,-90.58,15.0,14.0,0,0,,10.0,30.059055,,,TRUE,TRUE,,,,,,,CLR,,,,,,,,VFR,,,,,,,,,,,,METAR,1.0
K40B 230816Z AUTO 00000KT 03/ A3029 RMK AO1 SLP266 T0030 51011,K40B,2022-10-23T08:16:00Z,46.62,-69.52,3.0,,0,0,,,30.28937,1026.6,,TRUE,TRUE,,,,,,,,,,,,,,,,1.1,,,,,,,,,,,METAR,344.0
YGEL 230815Z AUTO 32010KT 6000 SHRA BKN013 BKN033 BKN053 20/18 Q1007,YGEL,2022-10-23T08:15:00Z,-28.8,114.7,20.0,18.0,320,10,,3.73,29.734253,,,TRUE,,,,,,,SHRA,BKN,1300,BKN,3300,BKN,5300,,,MVFR,,,,,,,,,,,,SPECI,32.0
PFSH 230815Z AUTO 20020KT 10SM BKN013 OVC049 03/01 A2993 RMK AO2,PFSH,2022-10-23T08:15:00Z,64.37,-161.22,3.0,1.0,200,20,,10.0,29.929134,,,TRUE,TRUE,,,,,,,BKN,1300,OVC,4900,,,,,MVFR,,,,,,,,,,,,SPECI,6.0
PAUT 230815Z AUTO 25007KT 10SM BKN032 BKN037 OVC043 05/02 A3023 RMK AO2,PAUT,2022-10-23T08:15:00Z,54.13,-165.6,5.0,2.0,250,7,,10.0,30.230314,,,TRUE,TRUE,,,,,,,BKN,3200,BKN,3700,OVC,4300,,,VFR,,,,,,,,,,,,SPECI,25.0
PASC 230815Z 10012KT 3SM BR OVC005 M06/M07 A3001 RMK AO2 I1001 T10611067 $,PASC,2022-10-23T08:15:00Z,70.2,-148.47,-6.1,-6.7,100,12,,3.0,30.008858,,,,TRUE,TRUE,,,,,BR,OVC,500,,,,,,,IFR,,,,,,,,,,,,METAR,17.0
PAKX 230815Z AUTO 17003KT 10SM CLR M01/M01 A2985 RMK AO2,PAKX,2022-10-23T08:15:00Z,60.2,-154.32,-1.0,-1.0,170,3,,10.0,29.84941,,,TRUE,TRUE,,,,,,,CLR,,,,,,,,VFR,,,,,,,,,,,,METAR,88.0
PAFB 230815Z AUTO 00000KT 1/2SM FZFG OVC055 M02/M02 A2992 RMK AO2 SLP143 RVRNO,PAFB,2022-10-23T08:15:00Z,64.83,-147.62,-2.0,-2.0,0,0,,0.5,29.920275,1014.3,,TRUE,TRUE,,,,,,FZFG,OVC,5500,,,,,,,LIFR,,,,,,,,,,,,METAR,137.0
PAAD 230815Z AUTO 12010KT 10SM OVC007 M08/M08 A3002 RMK AO2 T10761085,PAAD,2022-10-23T08:15:00Z,70.13,-146.28,-7.6,-8.5,120,10,,10.0,30.02067,,,TRUE,TRUE,,,,,,,OVC,700,,,,,,,IFR,,,,,,,,,,,,SPECI,8.0
LMML 230815Z 22005KT 180V280 9999 FEW026 23/17 Q1026 NOSIG,LMML,2022-10-23T08:15:00Z,35.85,14.47,23.0,17.0,220,5,,6.21,30.295275,,,,,,TRUE,,,,,FEW,2600,,,,,,,VFR,,,,,,,,,,,,METAR,78.0
LIRP 230815Z 12007KT 9999 BKN025 22/17 Q1022 NOSIG,LIRP,2022-10-23T08:15:00Z,43.68,10.38,22.0,17.0,120,7,,6.21,30.177166,,,,,,TRUE,,,,,BKN,2500,,,,,,,MVFR,,,,,,,,,,,,METAR,1.0
LHSN 230815Z 25006KT 2000 BR OVC003 12/12 Q1023 BECMG 5000 BR BKN005 RMK YLO,LHSN,2022-10-23T08:15:00Z,47.12,20.23,12.0,12.0,250,6,,1.24,30.206694,,,,,,,,,,BR,OVC,300,,,,,,,LIFR,,,,,,,,,,,,SPECI,89.0
LHKE 230815Z 28004KT 1000 BR BKN003 12/12 Q1023 BECMG 1500 RMK AMB,LHKE,2022-10-23T08:15:00Z,46.92,19.75,12.0,12.0,280,4,,0.62,30.206694,,,,,,,,,,BR,BKN,300,,,,,,,LIFR,,,,,,,,,,,,SPECI,113.0
KZPH 230815Z AUTO 02004KT 10SM CLR 14/14 A3008 RMK A02 T01430136,KZPH,2022-10-23T08:15:00Z,28.23,-82.15,14.3,13.6,20,4,,10.0,30.079725,,,TRUE,TRUE,,,,,,,CLR,,,,,,,,VFR,,,,,,,,,,,,METAR,26.0
KZER 230815Z AUTO 10004KT 10SM CLR 07/03 A3028 RMK AO2,KZER,2022-10-23T08:15:00Z,,,7.0,3.0,100,4,,10.0,30.280512,,,TRUE,TRUE,,,,,,,CLR,,,,,,,,VFR,,,,,,,,,,,,METAR,
KY70 230815Z AUTO 16006KT 10SM CLR 12/10 A3002 RMK AO2 T01200097,KY70,2022-10-23T08:15:00Z,42.93,-85.07,12.0,9.7,160,6,,10.0,30.02067,,,TRUE,TRUE,,,,,,,CLR,,,,,,,,VFR,,,,,,,,,,,,METAR,247.0
KY63 230815Z AUTO 11009KT 10SM CLR 09/04 A2953 RMK AO2 T00860036,KY63,2022-10-23T08:15:00Z,45.98,-96.0,8.6,3.6,110,9,,10.0,29.530512,,,TRUE,TRUE,,,,,,,CLR,,,,,,,,VFR,,,,,,,,,,,,METAR,367.0
KY51 230815Z AUTO 15008KT 10SM CLR 16/12 A2977 RMK AO1 T01600116,KY51,2022-10-23T08:15:00Z,43.58,-90.9,16.0,11.6,150,8,,10.0,29.769686,,,TRUE,TRUE,,,,,,,CLR,,,,,,,,VFR,,,,,,,,,,,,METAR,390.0
KY49 230815Z AUTO 12003KT 10SM CLR 08/06 A2958 RMK AO2 T00760058,KY49,2022-10-23T08:15:00Z,47.15,-94.65,7.6,5.8,120,3,,10.0,29.58071,,,TRUE,TRUE,,,,,,,CLR,,,,,,,,VFR,,,,,,,,,,,,METAR,413.0
KY31 230815Z AUTO 00000KT 10SM CLR 06/05 A3002 RMK AO2 T00550047,KY31,2022-10-23T08:15:00Z,44.25,-84.18,5.5,4.7,0,0,,10.0,30.02067,,,TRUE,TRUE,,,,,,,CLR,,,,,,,,VFR,,,,,,,,,,,,METAR,264.0
KY23 230815Z AUTO 00000KT 10SM CLR 12/10 A2971 RMK AO2 T01240100,KY23,2022-10-23T08:15:00Z,45.3,-91.63,12.4,10.0,0,0,,10.0,29.71063,,,TRUE,TRUE,,,,,,,CLR,,,,,,,,VFR,,,,,,,,,,,,METAR,322.0
KY19 230815Z AUTO 06013KT 10SM CLR 07/05 A2947 RMK AO2,KY19,2022-10-23T08:15:00Z,46.77,-100.9,7.0,5.0,60,13,,10.0,29.471457,,,TRUE,TRUE,,,,,,,CLR,,,,,,,,VFR,,,,,,,,,,,,METAR,591.0
KXSA 230815Z AUTO 00000KT 10SM CLR 09/09 A3022 RMK AO2 T00870087,KXSA,2022-10-23T08:15:00Z,37.87,-76.9,8.7,8.7,0,0,,10.0,30.221457,,,TRUE,TRUE,,,,,,,CLR,,,,,,,,VFR,,,,,,,,,,,,SPECI,41.0
KXNX 230815Z AUTO 00000KT 10SM CLR 11/10 A3013 RMK A01,KXNX,2022-10-23T08:15:00Z,36.38,-86.42,11.0,10.0,0,0,,10.0,30.129921,,,TRUE,TRUE,,,,,,,CLR,,,,,,,,VFR,,,,,,,,,,,,SPECI,178.0
KXLL 230815Z AUTO 00000KT 10SM SCT035 05/04 A3030 RMK AO2,KXLL,2022-10-23T08:15:00Z,40.57,-75.48,5.0,4.0,0,0,,10.0,30.301182,,,TRUE,TRUE,,,,,,,SCT,3500,,,,,,,VFR,,,,,,,,,,,,METAR,118.0
KXER 230815Z AUTO 17012KT 10SM SCT044 SCT050 25/15 A2994 RMK A01,KXER,2022-10-23T08:15:00Z,,,25.0,15.0,170,12,,10.0,29.940945,,,TRUE,TRUE,,,,,,,SCT,4400,SCT,5000,,,,,VFR,,,,,,,,,,,,METAR,
KXBP 230815Z AUTO 17010KT 10SM CLR 22/14 A2977 RMK AO2 T02200142,KXBP,2022-10-23T08:15:00Z,33.18,-97.83,22.0,14.2,170,10,,10.0,29.769686,,,TRUE,TRUE,,,,,,,CLR,,,,,,,,VFR,,,,,,,,,,,,METAR,256.0
KX60 230815Z AUTO 00000KT 10SM CLR 09/09 A3010 RMK AO2 T00930087,KX60,2022-10-23T08:15:00Z,29.35,-82.47,9.3,8.7,0,0,,10.0,30.100393,,,TRUE,TRUE,,,,,,,CLR,,,,,,,,VFR,,,,,,,,,,,,SPECI,21.0
KX26 230815Z AUTO 31006KT 10SM SCT042 19/18 A3003 RMK AO2 T01880180,KX26,2022-10-23T08:15:00Z,27.82,-80.5,18.8,18.0,310,6,,10.0,30.029528,,,TRUE,TRUE,,,,,,,SCT,4200,,,,,,,VFR,,,,,,,,,,,,METAR,5.0
KX07 230815Z AUTO 01004KT 10SM CLR 16/16 A3006 RMK A01,KX07,2022-10-23T08:15:00Z,27.9,-81.62,16.0,16.0,10,4,,10.0,30.059055,,,TRUE,TRUE,,,,,,,CLR,,,,,,,,VFR,,,,,,,,,,,,SPECI,36.0
KWDR 230815Z AUTO 00000KT 10SM CLR 07/03 A3021 RMK AO2,KWDR,2022-10-23T08:15:00Z,33.98,-83.67,7.0,3.0,0,0,,10.0,30.209646,,,TRUE,TRUE,,,,,,,CLR,,,,,,,,VFR,,,,,,,,,,,,METAR,280.0
KWDG 230815Z AUTO 19015G22KT 10SM CLR 23/11 A2957 RMK AO2,KWDG,2022-10-23T08:15:00Z,36.37,-97.78,23.0,11.0,190,15,22,10.0,29.568897,,,TRUE,TRUE,,,,,,,CLR,,,,,,,,VFR,,,,,,,,,,,,SPECI,352.0
KWBF 230815Z AUTO 12007G14KT 10SM 24/15 A3003 RMK A01,KWBF,2022-10-23T08:15:00Z,26.93,-90.5,24.0,15.0,120,7,14,10.0,30.029528,,,TRUE,TRUE,,,,,,,,,,,,,,,,,,,,,,,,,,,METAR,40.0
KW81 230815Z AUTO 34003KT 10SM CLR 07/05 A3021 RMK AO1 T00740054,KW81,2022-10-23T08:15:00Z,37.18,-78.1,7.4,5.4,340,3,,10.0,30.209646,,,TRUE,TRUE,,,,,,,CLR,,,,,,,,VFR,,,,,,,,,,,,SPECI,121.0
KW78 230815Z AUTO 00000KT 10SM CLR 06/05 A3021 RMK AO1 T00610048,KW78,2022-10-23T08:15:00Z,36.7,-78.85,6.1,4.8,0,0,,10.0,30.209646,,,TRUE,TRUE,,,,,,,CLR,,,,,,,,VFR,,,,,,,,,,,,SPECI,120.0
KW22 230815Z AUTO 09003KT 3SM HZ CLR 06/02 A3020 RMK AO2,KW22,2022-10-23T08:15:00Z,39.0,-80.27,6.0,2.0,90,3,,3.0,30.200787,,,TRUE,TRUE,,,,,,HZ,CLR,,,,,,,,MVFR,,,,,,,,,,,,METAR,497.0
KVYS 230815Z AUTO 14009KT 10SM CLR 15/12 A2986 RMK AO2 T01510115,KVYS,2022-10-23T08:15:00Z,41.35,-89.15,15.1,11.5,140,9,,10.0,29.861221,,,TRUE,TRUE,,,,,,,CLR,,,,,,,,VFR,,,,,,,,,,,,METAR,198.0
KVWU 230815Z AUTO 09004KT 10SM CLR 07/04 A2959 RMK AO2,KVWU,2022-10-23T08:15:00Z,48.15,-94.52,7.0,4.0,90,4,,10.0,29.589567,,,TRUE,TRUE,,,,,,,CLR,,,,,,,,VFR,,,,,,,,,,,,METAR,359.0
KVVV 230815Z 10005KT 7SM 08/03 A2950 RMK AO2,KVVV,2022-10-23T08:15:00Z,45.3,-96.42,8.0,3.0,100,5,,7.0,29.500984,,,,TRUE,,,,,,,,,,,,,,,,,,,,,,,,,,,METAR,334.0
KVVS 230815Z AUTO 06005KT 10SM CLR 12/02 A3021 RMK AO2 T01180020,KVVS,2022-10-23T08:15:00Z,39.95,-79.65,11.8,2.0,60,5,,10.0,30.209646,,,TRUE,TRUE,,,,,,,CLR,,,,,,,,VFR,,,,,,,,,,,,METAR,386.0
KVUJ 230815Z AUTO 00000KT 10SM CLR 05/04 A3022 RMK AO2 T00460043,KVUJ,2022-10-23T08:15:00Z,35.42,-80.15,4.6,4.3,0,0,,10.0,30.221457,,,TRUE,TRUE,,,,,,,CLR,,,,,,,,VFR,,,,,,,,,,,,METAR,174.0
KVTP 230815Z AUTO 26019G38KT 10SM -RA SCT031 SCT042 BKN050 M06/M12 A2973 RMK AO2,KVTP,2022-10-23T08:15:00Z,37.5,-105.17,-6.0,-12.0,260,19,38,10.0,29.731298,,,TRUE,TRUE,,,,,,-RA,SCT,3100,SCT,4200,BKN,5000,,,VFR,,,,,,,,,,,,METAR,3086.0
KVTI 230815Z AUTO 15010G17KT 10SM CLR 18/10 A2971 RMK AO2 T01770102,KVTI,2022-10-23T08:15:00Z,42.22,-92.02,17.7,10.2,150,10,17,10.0,29.71063,,,TRUE,TRUE,,,,,,,CLR,,,,,,,,VFR,,,,,,,,,,,,METAR,256.0
KVQQ 230815Z AUTO 00000KT 10SM FEW027 08/08 A3010 RMK AO2,KVQQ,2022-10-23T08:15:00Z,30.22,-81.88,8.0,8.0,0,0,,10.0,30.100393,,,TRUE,TRUE,,,,,,,FEW,2700,,,,,,,VFR,,,,,,,,,,,,METAR,21.0
KVPC 230815Z AUTO 00000KT 10SM OVC047 07/06 A3020 RMK AO2,KVPC,2022-10-23T08:15:00Z,34.1,-84.85,7.0,6.0,0,0,,10.0,30.200787,,,TRUE,TRUE,,,,,,,OVC,4700,,,,,,,VFR,,,,,,,,,,,,METAR,234.0
KVNW 230815Z AUTO 16006KT 10SM CLR 12/08 A3009 RMK AO2,KVNW,2022-10-23T08:15:00Z,40.87,-84.62,12.0,8.0,160,6,,10.0,30.088583,,,TRUE,TRUE,,,,,,,CLR,,,,,,,,VFR,,,,,,,,,,,,METAR,238.0
KVLL 230815Z AUTO 00000KT 10SM CLR 11/09 A3011 RMK AO2 T01050087,KVLL,2022-10-23T08:15:00Z,42.55,-83.18,10.5,8.7,0,0,,10.0,30.109253,,,TRUE,TRUE,,,,,,,CLR,,,,,,,,VFR,,,,,,,,,,,,METAR,214.0
KVKS 230815Z AUTO 14006KT 10SM CLR 17/15 A3003 RMK A01,KVKS,2022-10-23T08:15:00Z,32.23,-90.93,17.0,15.0,140,6,,10.0,30.029528,,,TRUE,TRUE,,,,,,,CLR,,,,,,,,VFR,,,,,,,,,,,,METAR,31.0
KVJI 230815Z AUTO 12004KT 10SM CLR 06/00 A3021 RMK AO2 T00610002,KVJI,2022-10-23T08:15:00Z,36.68,-82.03,6.1,0.2,120,4,,10.0,30.209646,,,TRUE,TRUE,,,,,,,CLR,,,,,,,,VFR,,,,,,,,,,,,SPECI,636.0
KVHN 230815Z AUTO 21008KT 10SM CLR 18/07 A2987 RMK AO2 T01790074,KVHN,2022-10-23T08:15:00Z,31.07,-104.78,17.9,7.4,210,8,,10.0,29.870079,,,TRUE,TRUE,,,,,,,CLR,,,,,,,,VFR,,,,,,,,,,,,METAR,1200.0
KVGC 230815Z AUTO 14003KT 7SM CLR 00/00 A3029 RMK AO2,KVGC,2022-10-23T08:15:00Z,42.85,-75.57,0.0,0.0,140,3,,7.0,30.28937,,,TRUE,TRUE,,,,,,,CLR,,,,,,,,VFR,,,,,,,,,,,,METAR,346.0
KVES 230815Z AUTO 16003KT 10SM CLR 11/07 A3010 RMK AO2,KVES,2022-10-23T08:15:00Z,40.2,-84.53,11.0,7.0,160,3,,10.0,30.100393,,,TRUE,TRUE,,,,,,,CLR,,,,,,,,VFR,,,,,,,,,,,,METAR,308.0
KVER 230815Z AUTO 14012KT 10SM CLR 20/14 A2971 RMK AO2 T01980137,KVER,2022-10-23T08:15:00Z,38.95,-92.68,19.8,13.7,140,12,,10.0,29.71063,,,TRUE,TRUE,,,,,,,CLR,,,,,,,,VFR,,,,,,,,,,,,METAR,209.0
KVDI 230815Z AUTO 00000KT 10SM CLR 11/05 A3015 RMK AO2,KVDI,2022-10-23T08:15:00Z,32.2,-82.37,11.0,5.0,0,0,,10.0,30.15059,,,TRUE,TRUE,,,,,,,CLR,,,,,,,,VFR,,,,,,,,,,,,METAR,81.0
KVDF 230815Z AUTO 00000KT 10SM CLR 16/15 A3007 RMK AO2,KVDF,2022-10-23T08:15:00Z,28.02,-82.33,16.0,15.0,0,0,,10.0,30.070866,,,TRUE,TRUE,,,,,,,CLR,,,,,,,,VFR,,,,,,,,,,,,METAR,5.0
KVCV 230815Z AUTO 23007KT 10SM BKN049 12/08 A2979 RMK AO2,KVCV,2022-10-23T08:15:00Z,34.58,-117.38,12.0,8.0,230,7,,10.0,29.790354,,,TRUE,TRUE,,,,,,,BKN,4900,,,,,,,VFR,,,,,,,,,,,,METAR,871.0
KVAF 230815Z AUTO 17020KT 10SM SCT050 26/15 A2995 RMK A01,KVAF,2022-10-23T08:15:00Z,27.35,-94.63,26.0,15.0,170,20,,10.0,29.949802,,,TRUE,TRUE,,,,,,,SCT,5000,,,,,,,VFR,,,,,,,,,,,,METAR,38.0
KUYF 230815Z AUTO 19003KT 10SM CLR 08/07 A3013 RMK AO2,KUYF,2022-10-23T08:15:00Z,39.93,-83.47,8.0,7.0,190,3,,10.0,30.129921,,,TRUE,TRUE,,,,,,,CLR,,,,,,,,VFR,,,,,,,,,,,,SPECI,326.0
KUXL 230815Z AUTO 12004KT 10SM CLR 21/17 A2998 RMK AO2 T02050167,KUXL,2022-10-23T08:15:00Z,30.13,-93.38,20.5,16.7,120,4,,10.0,29.97933,,,TRUE,TRUE,,,,,,,CLR,,,,,,,,VFR,,,,,,,,,,,,SPECI,2.0
KUVA 230815Z AUTO 00000KT 10SM CLR 18/18 A2988 RMK AO2 T01750175,KUVA,2022-10-23T08:15:00Z,29.22,-99.75,17.5,17.5,0,0,,10.0,29.878937,,,TRUE,TRUE,,,,,,,CLR,,,,,,,,VFR,,,,,,,,,,,,METAR,285.0
KUTA 230815Z AUTO 18009KT 10SM CLR 19/13 A3001 RMK AO2 T01880132 $,KUTA,2022-10-23T08:15:00Z,34.68,-90.35,18.8,13.2,180,9,,10.0,30.008858,,,TRUE,TRUE,TRUE,,,,,,CLR,,,,,,,,VFR,,,,,,,,,,,,SPECI,58.0
KUSE 230815Z AUTO 16005KT 10SM CLR 10/10 A3008 RMK AO2,KUSE,2022-10-23T08:15:00Z,41.62,-84.13,10.0,10.0,160,5,,10.0,30.079725,,,TRUE,TRUE,,,,,,,CLR,,,,,,,,VFR,,,,,,,,,,,,METAR,237.0
KUOX 230815Z AUTO 16006KT 10SM CLR 16/12 A3007 RMK AO2 PWINO,KUOX,2022-10-23T08:15:00Z,34.38,-89.53,16.0,12.0,160,6,,10.0,30.070866,,,TRUE,TRUE,,,,,TRUE,,CLR,,,,,,,,VFR,,,,,,,,,,,,SPECI,123.0
KUNV 230815Z AUTO 00000KT 10SM CLR 04/03 A3026 RMK AO2 T00400027,KUNV,2022-10-23T08:15:00Z,40.85,-77.83,4.0,2.7,0,0,,10.0,30.259842,,,TRUE,TRUE,,,,,,,CLR,,,,,,,,VFR,,,,,,,,,,,,METAR,365.0
KUNU 230815Z AUTO 15008KT 10SM CLR 15/12 A2987 RMK AO2 T01450116,KUNU,2022-10-23T08:15:00Z,43.42,-88.7,14.5,11.6,150,8,,10.0,29.870079,,,TRUE,TRUE,,,,,,,CLR,,,,,,,,VFR,,,,,,,,,,,,METAR,281.0
KUNI 230815Z AUTO 00000KT 7SM -SN CLR 05/05 A3016 RMK AO2 T00520052,KUNI,2022-10-23T08:15:00Z,39.22,-82.23,5.2,5.2,0,0,,7.0,30.159449,,,TRUE,TRUE,,,,,,-SN,CLR,,,,,,,,VFR,,,,,,,,,,,,METAR,232.0
KUMP 230815Z AUTO 00000KT 10SM CLR 16/12 A3006 RMK AO2 T01620120,KUMP,2022-10-23T08:15:00Z,39.93,-86.05,16.2,12.0,0,0,,10.0,30.059055,,,TRUE,TRUE,,,,,,,CLR,,,,,,,,VFR,,,,,,,,,,,,METAR,247.0
KULS 230815Z AUTO 20011KT 10SM CLR 17/07 A2948 RMK AO2,KULS,2022-10-23T08:15:00Z,37.6,-101.37,17.0,7.0,200,11,,10.0,29.480314,,,TRUE,TRUE,,,,,,,CLR,,,,,,,,VFR,,,,,,,,,,,,METAR,934.0
KULM 230815Z AUTO 14008KT 10SM CLR 13/07 A2958 RMK AO2,KULM,2022-10-23T08:15:00Z,44.32,-94.5,13.0,7.0,140,8,,10.0,29.58071,,,TRUE,TRUE,,,,,,,CLR,,,,,,,,VFR,,,,,,,,,,,,METAR,305.0
KUKT 230815Z AUTO 00000KT 10SM BKN031 04/04 A3027 RMK A01,KUKT,2022-10-23T08:15:00Z,40.43,-75.38,4.0,4.0,0,0,,10.0,30.268702,,,TRUE,TRUE,,,,,,,BKN,3100,,,,,,,VFR,,,,,,,,,,,,METAR,156.0
KUKL 230815Z AUTO 18020G27KT 10SM CLR A2957 RMK AO2,KUKL,2022-10-23T08:15:00Z,38.3,-95.73,,,180,20,27,10.0,29.568897,,,TRUE,TRUE,,,,,,,CLR,,,,,,,,VFR,,,,,,,,,,,,METAR,357.0
KUKF 230815Z AUTO 00000KT 10SM CLR 03/02 A3027 RMK AO2,KUKF,2022-10-23T08:15:00Z,36.22,-81.1,3.0,2.0,0,0,,10.0,30.268702,,,TRUE,TRUE,,,,,,,CLR,,,,,,,,VFR,,,,,,,,,,,,METAR,383.0
KUES 230815Z AUTO 17004KT 10SM CLR 15/10 A2990 RMK AO2,KUES,2022-10-23T08:15:00Z,43.05,-88.25,15.0,10.0,170,4,,10.0,29.899607,,,TRUE,TRUE,,,,,,,CLR,,,,,,,,VFR,,,,,,,,,,,,METAR,273.0
KUCY 230815Z AUTO 18014G21KT 10SM OVC050 19/12 A2999 RMK A01,KUCY,2022-10-23T08:15:00Z,36.38,-88.98,19.0,12.0,180,14,21,10.0,29.991142,,,TRUE,TRUE,,,,,,,OVC,5000,,,,,,,VFR,,,,,,,,,,,,SPECI,97.0
KU68 230815Z AUTO 30021G26KT 10SM SCT065 OVC095 05/03 A2943 RMK AO2,KU68,2022-10-23T08:15:00Z,44.92,-108.45,5.0,3.0,300,21,26,10.0,29.430119,,,TRUE,TRUE,,,,,,,SCT,6500,OVC,9500,,,,,VFR,,,,,,,,,,,,METAR,1244.0
KU55 230815Z AUTO 03006KT 1 1/4SM BR 00/M00 A2961 RMK A01,KU55,2022-10-23T08:15:00Z,37.85,-112.38,0.0,0.0,30,6,,1.25,29.610237,,,TRUE,TRUE,,,,,,BR,,,,,,,,,,,,,,,,,,,,,METAR,2060.0
KU42 230815Z AUTO 16005KT 10SM BKN047 OVC065 03/03 A2959 RMK AO1 T00310031,KU42,2022-10-23T08:15:00Z,40.62,-111.98,3.1,3.1,160,5,,10.0,29.589567,,,TRUE,TRUE,,,,,,,BKN,4700,OVC,6500,,,,,VFR,,,,,,,,,,,,METAR,1399.0
KTZR 230815Z AUTO 00000KT 10SM CLR 12/08 A3015 RMK AO2 T01160076,KTZR,2022-10-23T08:15:00Z,39.9,-83.13,11.6,7.6,0,0,,10.0,30.15059,,,TRUE,TRUE,,,,,,,CLR,,,,,,,,VFR,,,,,,,,,,,,SPECI,275.0
KTYQ 230815Z AUTO 15006KT 10SM CLR 14/10 A3005 RMK AO2 T01360100,KTYQ,2022-10-23T08:15:00Z,40.03,-86.25,13.6,10.0,150,6,,10.0,30.050198,,,TRUE,TRUE,,,,,,,CLR,,,,,,,,VFR,,,,,,,,,,,,METAR,279.0
KTYL 230815Z AUTO 22020G31KT 10SM FEW039 13/05 A2976 RMK AO2,KTYL,2022-10-23T08:15:00Z,34.45,-110.12,13.0,5.0,220,20,31,10.0,29.760826,,,TRUE,TRUE,,,,,,,FEW,3900,,,,,,,VFR,,,,,,,,,,,,METAR,1748.0
KTWT 230815Z AUTO 16006KT 10SM CLR 17/11 A3002 RMK AO2,KTWT,2022-10-23T08:15:00Z,37.55,-87.95,17.0,11.0,160,6,,10.0,30.02067,,,TRUE,TRUE,,,,,,,CLR,,,,,,,,VFR,,,,,,,,,,,,SPECI,113.0
KTWM 230815Z AUTO 02004KT 10SM CLR 07/06 A2969 RMK AO2,KTWM,2022-10-23T08:15:00Z,47.05,-91.75,7.0,6.0,20,4,,10.0,29.68996,,,TRUE,TRUE,,,,,,,CLR,,,,,,,,VFR,,,,,,,,,,,,METAR,331.0
KTVY 230815Z AUTO 00000KT 10SM SCT029 BKN039 OVC046 03/02 A2961 RMK AO2,KTVY,2022-10-23T08:15:00Z,40.62,-112.35,3.0,2.0,0,0,,10.0,29.610237,,,TRUE,TRUE,,,,,,,SCT,2900,BKN,3900,OVC,4600,,,VFR,,,,,,,,,,,,METAR,1310.0
KTVI 230815Z AUTO 00000KT 10SM CLR 06/05 A3014 RMK AO2,KTVI,2022-10-23T08:15:00Z,30.9,-83.88,6.0,5.0,0,0,,10.0,30.138779,,,TRUE,TRUE,,,,,,,CLR,,,,,,,,VFR,,,,,,,,,,,,METAR,74.0
KTTF 230815Z AUTO 00000KT 10SM CLR 11/08 A3009 RMK AO2 T01080081,KTTF,2022-10-23T08:15:00Z,41.93,-83.42,10.8,8.1,0,0,,10.0,30.088583,,,TRUE,TRUE,,,,,,,CLR,,,,,,,,VFR,,,,,,,,,,,,METAR,186.0
KTTA 230815Z AUTO 00000KT 7SM CLR 05/05 A3017 RMK AO2 T00540054,KTTA,2022-10-23T08:15:00Z,35.58,-79.1,5.4,5.4,0,0,,7.0,30.171259,,,TRUE,TRUE,,,,,,,CLR,,,,,,,,VFR,,,,,,,,,,,,METAR,71.0
KTSP 230815Z AUTO 30016G26KT 9SM SCT036 BKN043 OVC048 09/04 A2979 RMK AO2,KTSP,2022-10-23T08:15:00Z,35.13,-118.43,9.0,4.0,300,16,26,9.0,29.790354,,,TRUE,TRUE,,,,,,,SCT,3600,BKN,4300,OVC,4800,,,VFR,,,,,,,,,,,,METAR,1209.0
KTQV 230815Z AUTO 02007KT 10SM CLR 12/08 A3017 RMK A01,KTQV,2022-10-23T08:15:00Z,36.0,-78.93,12.0,8.0,20,7,,10.0,30.171259,,,TRUE,TRUE,,,,,,,CLR,,,,,,,,VFR,,,,,,,,,,,,SPECI,230.0
KTQK 230815Z AUTO 20010KT 10SM CLR 13/04 A2945 RMK AO2 T01270036,KTQK,2022-10-23T08:15:00Z,38.47,-100.88,12.7,3.6,200,10,,10.0,29.450787,,,TRUE,TRUE,,,,,,,CLR,,,,,,,,VFR,,,,,,,,,,,,METAR,906.0
KTQH 230815Z AUTO 16010G19KT 10SM CLR 22/11 A2976 RMK AO2,KTQH,2022-10-23T08:15:00Z,35.93,-95.0,22.0,11.0,160,10,19,10.0,29.760826,,,TRUE,TRUE,,,,,,,CLR,,,,,,,,VFR,,,,,,,,,,,,SPECI,265.0
KTOC 230815Z AUTO 33004KT 10SM CLR 08/04 A3020 RMK AO2 T00750044,KTOC,2022-10-23T08:15:00Z,34.6,-83.3,7.5,4.4,330,4,,10.0,30.200787,,,TRUE,TRUE,,,,,,,CLR,,,,,,,,VFR,,,,,,,,,,,,METAR,292.0
KTOB 230815Z AUTO 14010KT 10SM CLR 15/07 A2967 RMK AO2,KTOB,2022-10-23T08:15:00Z,44.02,-92.82,15.0,7.0,140,10,,10.0,29.66929,,,TRUE,TRUE,,,,,,,CLR,,,,,,,,VFR,,,,,,,,,,,,METAR,394.0
KTNU 230815Z AUTO 14012KT 10SM CLR 16/12 A2965 RMK A01,KTNU,2022-10-23T08:15:00Z,41.67,-93.02,16.0,12.0,140,12,,10.0,29.648623,,,TRUE,TRUE,,,,,,,CLR,,,,,,,,VFR,,,,,,,,,,,,METAR,287.0
KTMT 230815Z AUTO 24005KT 10SM SCT070 BKN085 M02/M03 A2979 RMK AO2 T10221030,KTMT,2022-10-23T08:15:00Z,39.47,-117.2,-2.2,-3.0,240,5,,10.0,29.790354,,,TRUE,TRUE,,,,,,,SCT,7000,BKN,8500,,,,,VFR,,,,,,,,,,,,METAR,1748.0
KTMK 230815Z AUTO 00000KT 1/2SM FG OVC001 05/05 A2999 RMK AO2,KTMK,2022-10-23T08:15:00Z,45.42,-123.82,5.0,5.0,0,0,,0.5,29.991142,,,TRUE,TRUE,,,,,,FG,OVC,100,,,,,,,LIFR,,,,,,,,,,,,METAR,8.0
KTME 230815Z AUTO 18006KT 10SM CLR 19/18 A2991 RMK AO2,KTME,2022-10-23T08:15:00Z,29.8,-95.9,19.0,18.0,180,6,,10.0,29.911417,,,TRUE,TRUE,,,,,,,CLR,,,,,,,,VFR,,,,,,,,,,,,METAR,49.0
KTKX 230815Z AUTO 18008KT 8SM CLR 17/12 A2995 RMK AO2 TSNO,KTKX,2022-10-23T08:15:00Z,36.22,-90.03,17.0,12.0,180,8,,8.0,29.949802,,,TRUE,TRUE,,,TRUE,,,,CLR,,,,,,,,VFR,,,,,,,,,,,,SPECI,73.0
KTKV 230815Z AUTO 00000KT 10SM CLR 12/09 A2981 RMK AO2 T01150086 PWINO,KTKV,2022-10-23T08:15:00Z,45.47,-89.82,11.5,8.6,0,0,,10.0,29.811024,,,TRUE,TRUE,,,,,TRUE,,CLR,,,,,,,,VFR,,,,,,,,,,,,METAR,449.0
KTKC 230815Z AUTO 15009KT 10SM 15/07 A2953 RMK AO2 T01530070,KTKC,2022-10-23T08:15:00Z,44.25,-95.62,15.3,7.0,150,9,,10.0,29.530512,,,TRUE,TRUE,,,,,,,,,,,,,,,,,,,,,,,,,,,METAR,408.0
KTIP 230815Z AUTO 15010KT 10SM CLR 15/11 A2994 RMK AO2 T01500106,KTIP,2022-10-23T08:15:00Z,40.28,-88.15,15.0,10.6,150,10,,10.0,29.940945,,,TRUE,TRUE,,,,,,,CLR,,,,,,,,VFR,,,,,,,,,,,,METAR,224.0
KTIF 230815Z AUTO 00000KT 10SM CLR 06/00 A2934 RMK AO2 T00590002,KTIF,2022-10-23T08:15:00Z,41.97,-100.57,5.9,0.2,0,0,,10.0,29.338583,,,TRUE,TRUE,,,,,,,CLR,,,,,,,,VFR,,,,,,,,,,,,METAR,888.0
KTHA 230815Z AUTO 15004KT 10SM CLR 11/08 A3012 RMK A01,KTHA,2022-10-23T08:15:00Z,35.38,-86.25,11.0,8.0,150,4,,10.0,30.121063,,,TRUE,TRUE,,,,,,,CLR,,,,,,,,VFR,,,,,,,,,,,,SPECI,333.0
KTGI 230815Z AUTO 36014G19KT 10SM SCT022 14/13 A3016 RMK AO1 T01440126,KTGI,2022-10-23T08:15:00Z,37.82,-75.98,14.4,12.6,360,14,19,10.0,30.159449,,,TRUE,TRUE,,,,,,,SCT,2200,,,,,,,VFR,,,,,,,,,,,,SPECI,1.0
KTEX 230815Z AUTO 19008G27KT 160V250 10SM -VCTSRA SCT050 BKN060 OVC070 07/M02 A2965 RMK AO2 LTG DSNT N AND NW,KTEX,2022-10-23T08:15:00Z,37.95,-107.9,7.0,-2.0,190,8,27,10.0,29.648623,,,TRUE,TRUE,,,,,,VCTS -RA,SCT,5000,BKN,6000,OVC,7000,,,VFR,,,,,,,,,,,,METAR,2760.0
KTEW 230815Z AUTO 16005KT 10SM CLR 14/10 A3006 RMK AO2 T01350095,KTEW,2022-10-23T08:15:00Z,42.57,-84.42,13.5,9.5,160,5,,10.0,30.059055,,,TRUE,TRUE,,,,,,,CLR,,,,,,,,VFR,,,,,,,,,,,,METAR,281.0
KTDF 230815Z AUTO 00000KT 10SM CLR 04/04 A3021 RMK AO2,KTDF,2022-10-23T08:15:00Z,36.28,-78.98,4.0,4.0,0,0,,10.0,30.209646,,,TRUE,TRUE,,,,,,,CLR,,,,,,,,VFR,,,,,,,,,,,,METAR,180.0
KTCY 230815Z AUTO 27010KT 10SM FEW055 15/01 A2983 RMK A01,KTCY,2022-10-23T08:15:00Z,37.68,-121.43,15.0,1.0,270,10,,10.0,29.828741,,,TRUE,TRUE,,,,,,,FEW,5500,,,,,,,VFR,,,,,,,,,,,,METAR,51.0
KTBR 230815Z AUTO 00000KT 10SM CLR 07/05 A3014 RMK AO2 T00680051,KTBR,2022-10-23T08:15:00Z,32.48,-81.73,6.8,5.1,0,0,,10.0,30.138779,,,TRUE,TRUE,,,,,,,CLR,,,,,,,,VFR,,,,,,,,,,,,METAR,54.0
KTAZ 230815Z AUTO 15011G15KT 10SM BKN065 16/11 A2988 RMK AO2 T01620110,KTAZ,2022-10-23T08:15:00Z,39.53,-89.33,16.2,11.0,150,11,15,10.0,29.878937,,,TRUE,TRUE,,,,,,,BKN,6500,,,,,,,VFR,,,,,,,,,,,,METAR,188.0
KT89 230815Z AUTO 11004KT 10SM CLR 21/04 A2981 RMK A01,KT89,2022-10-23T08:15:00Z,29.27,-103.68,21.0,4.0,110,4,,10.0,29.811024,,,TRUE,TRUE,,,,,,,CLR,,,,,,,,VFR,,,,,,,,,,,,METAR,801.0
KT82 230815Z AUTO 19013G18KT 10SM OVC014 20/17 A2989 RMK AO2 T02010172,KT82,2022-10-23T08:15:00Z,30.25,-98.92,20.1,17.2,190,13,18,10.0,29.890747,,,TRUE,TRUE,,,,,,,OVC,1400,,,,,,,MVFR,,,,,,,,,,,,METAR,509.0
KT78 230815Z AUTO 15003KT 10SM SCT038 BKN048 19/18 A2992 RMK AO2,KT78,2022-10-23T08:15:00Z,30.08,-94.7,19.0,18.0,150,3,,10.0,29.920275,,,TRUE,TRUE,,,,,,,SCT,3800,BKN,4800,,,,,VFR,,,,,,,,,,,,METAR,21.0
KT74 230815Z AUTO 19012KT 10SM CLR 21/18 A2986 RMK AO2 T02070177,KT74,2022-10-23T08:15:00Z,30.57,-97.45,20.7,17.7,190,12,,10.0,29.861221,,,TRUE,TRUE,,,,,,,CLR,,,,,,,,VFR,,,,,,,,,,,,METAR,169.0
KT69 230815Z AUTO 20003KT 10SM CLR 20/19 A2987 RMK A01,KT69,2022-10-23T08:15:00Z,28.03,-97.55,20.0,19.0,200,3,,10.0,29.870079,,,TRUE,TRUE,,,,,,,CLR,,,,,,,,VFR,,,,,,,,,,,,METAR,15.0
KT41 230815Z AUTO 10SM CLR 23/19 A2992 RMK AO2 T02260186,KT41,2022-10-23T08:15:00Z,29.67,-95.07,22.6,18.6,,,,10.0,29.920275,,,TRUE,TRUE,,,,,,,CLR,,,,,,,,VFR,,,,,,,,,,,,METAR,8.0
KT35 230815Z AUTO 19011G17KT 10SM CLR 21/17 A2986 RMK AO2 T02080172,KT35,2022-10-23T08:15:00Z,30.88,-96.97,20.8,17.2,190,11,17,10.0,29.861221,,,TRUE,TRUE,,,,,,,CLR,,,,,,,,VFR,,,,,,,,,,,,METAR,122.0
KT20 230815Z AUTO 17004KT 10SM CLR 21/19 A2988 RMK AO2 T02050185,KT20,2022-10-23T08:15:00Z,29.52,-97.47,20.5,18.5,170,4,,10.0,29.878937,,,TRUE,TRUE,,,,,,,CLR,,,,,,,,VFR,,,,,,,,,,,,METAR,107.0
KSZY 230815Z AUTO 17007KT 10SM BKN055 15/11 A3007 RMK A01,KSZY,2022-10-23T08:15:00Z,35.2,-88.5,15.0,11.0,170,7,,10.0,30.070866,,,TRUE,TRUE,,,,,,,BKN,5500,,,,,,,VFR,,,,,,,,,,,,SPECI,184.0
KSZT 230815Z AUTO 03005KT 10SM -RA OVC026 03/02 A2975 RMK AO2,KSZT,2022-10-23T08:15:00Z,48.3,-116.57,3.0,2.0,30,5,,10.0,29.749016,,,TRUE,TRUE,,,,,,-RA,OVC,2600,,,,,,,MVFR,,,,,,,,,,,,METAR,649.0
KSYN 230815Z AUTO 16010G14KT 10SM CLR 18/07 A2964 RMK AO2 T01770073,KSYN,2022-10-23T08:15:00Z,44.47,-93.02,17.7,7.3,160,10,14,10.0,29.639763,,,TRUE,TRUE,,,,,,,CLR,,,,,,,,VFR,,,,,,,,,,,,METAR,280.0
KSYM 230815Z AUTO 15004KT 10SM CLR 13/07 A3016 RMK AO2,KSYM,2022-10-23T08:15:00Z,38.22,-83.58,13.0,7.0,150,4,,10.0,30.159449,,,TRUE,TRUE,,,,,,,CLR,,,,,,,,VFR,,,,,,,,,,,,METAR,307.0
KSYI 230815Z AUTO 00000KT 10SM CLR 12/09 A3012 RMK A01,KSYI,2022-10-23T08:15:00Z,35.57,-86.45,12.0,9.0,0,0,,10.0,30.121063,,,TRUE,TRUE,,,,,,,CLR,,,,,,,,VFR,,,,,,,,,,,,SPECI,244.0
KSYF 230815Z AUTO 19004KT 10SM CLR 09/M06 A2935 RMK AO2 T00851059 PWINO,KSYF,2022-10-23T08:15:00Z,39.77,-101.8,8.5,-5.9,190,4,,10.0,29.350393,,,TRUE,TRUE,,,,,TRUE,,CLR,,,,,,,,VFR,,,,,,,,,,,,SPECI,1041.0
KSXU 230815Z AUTO 17011KT 10SM CLR 17/10 A2971 RMK AO2 T01720096,KSXU,2022-10-23T08:15:00Z,34.93,-104.65,17.2,9.6,170,11,,10.0,29.71063,,,TRUE,TRUE,,,,,,,CLR,,,,,,,,VFR,,,,,,,,,,,,METAR,1465.0
KSXK 230815Z AUTO 13013KT 10SM SCT025 SCT036 SCT043 14/10 A2948 RMK AO2,KSXK,2022-10-23T08:15:00Z,42.98,-96.17,14.0,10.0,130,13,,10.0,29.480314,,,TRUE,TRUE,,,,,,,SCT,2500,SCT,3600,SCT,4300,,,VFR,,,,,,,,,,,,METAR,430.0
KSWW 230815Z AUTO 20020G25KT 10SM CLR 22/12 A2979 RMK AO2 T02150120,KSWW,2022-10-23T08:15:00Z,32.47,-100.47,21.5,12.0,200,20,25,10.0,29.790354,,,TRUE,TRUE,,,,,,,CLR,,,,,,,,VFR,,,,,,,,,,,,METAR,718.0
KSVH 230815Z AUTO 00000KT 10SM CLR 05/03 A3019 RMK AO2 T00450028,KSVH,2022-10-23T08:15:00Z,35.75,-80.95,4.5,2.8,0,0,,10.0,30.188976,,,TRUE,TRUE,,,,,,,CLR,,,,,,,,VFR,,,,,,,,,,,,SPECI,286.0
KSVE 230815Z AUTO 30005KT 10SM SCT050 M01/M06 A2987 RMK AO2,KSVE,2022-10-23T08:15:00Z,40.37,-120.57,-1.0,-6.0,300,5,,10.0,29.870079,,,TRUE,TRUE,,,,,,,SCT,5000,,,,,,,VFR,,,,,,,,,,,,METAR,1263.0
KSVC 230815Z AUTO 22014G21KT 5SM TSRA SCT023 BKN060 OVC110 17/15 A2984 RMK AO2 P0006 T01650146,KSVC,2022-10-23T08:15:00Z,32.63,-108.15,16.5,14.6,220,14,21,5.0,29.840551,,,TRUE,TRUE,,,,,,TSRA,SCT,2300,BKN,6000,OVC,11000,,,MVFR,,,,,,0.06,,,,,,METAR,1638.0
KSUZ 230815Z AUTO 19010KT 10SM BKN037 20/15 A2992 RMK A01,KSUZ,2022-10-23T08:15:00Z,34.58,-92.48,20.0,15.0,190,10,,10.0,29.920275,,,TRUE,TRUE,,,,,,,BKN,3700,,,,,,,VFR,,,,,,,,,,,,SPECI,114.0
KSUT 230815Z AUTO 36007KT 10SM SCT060 16/09 A3008 RMK AO2 T01590090,KSUT,2022-10-23T08:15:00Z,33.93,-78.08,15.9,9.0,360,7,,10.0,30.079725,,,TRUE,TRUE,,,,,,,SCT,6000,,,,,,,VFR,,,,,,,,,,,,METAR,6.0
KSUN 230815Z AUTO 35005KT 10SM CLR 00/M03 A2961 RMK AO2,KSUN,2022-10-23T08:15:00Z,43.5,-114.28,0.0,-3.0,350,5,,10.0,29.610237,,,TRUE,TRUE,,,,,,,CLR,,,,,,,,VFR,,,,,,,,,,,,METAR,1619.0
KSUA 230815Z AUTO 30005KT 10SM CLR 20/18 A3002 RMK AO2 T02000175,KSUA,2022-10-23T08:15:00Z,27.18,-80.22,20.0,17.5,300,5,,10.0,30.02067,,,TRUE,TRUE,,,,,,,CLR,,,,,,,,VFR,,,,,,,,,,,,METAR,4.0
KSTK 230815Z AUTO 26005KT 10SM CLR 06/M04 A2931 RMK AO2,KSTK,2022-10-23T08:15:00Z,40.62,-103.27,6.0,-4.0,260,5,,10.0,29.309055,,,TRUE,TRUE,,,,,,,CLR,,,,,,,,VFR,,,,,,,,,,,,METAR,1228.0
KSTF 230815Z AUTO 18004KT 9SM CLR 13/12 A3007 RMK AO2,KSTF,2022-10-23T08:15:00Z,33.43,-88.85,13.0,12.0,180,4,,9.0,30.070866,,,TRUE,TRUE,,,,,,,CLR,,,,,,,,VFR,,,,,,,,,,,,SPECI,99.0
KSTE 230815Z AUTO 15006KT 10SM CLR 16/09 A2982 RMK AO2 T01560085,KSTE,2022-10-23T08:15:00Z,44.55,-89.53,15.6,8.5,150,6,,10.0,29.819881,,,TRUE,TRUE,,,,,,,CLR,,,,,,,,VFR,,,,,,,,,,,,METAR,335.0
KSRR 230815Z AUTO 23021G32KT 10SM 14/07 A2987 RMK AO2,KSRR,2022-10-23T08:15:00Z,33.47,-105.52,14.0,7.0,230,21,32,10.0,29.870079,,,TRUE,TRUE,,,,,,,,,,,,,,,,,,,,,,,,,,,METAR,2063.0
KSRE 230815Z AUTO 10SM CLR 22/13 A2972 RMK AO2,KSRE,2022-10-23T08:15:00Z,35.27,-96.68,22.0,13.0,,,,10.0,29.719488,,,TRUE,TRUE,,,,,,,CLR,,,,,,,,VFR,,,,,,,,,,,,SPECI,306.0
KSRB 230815Z AUTO 00000KT 10SM FEW048 08/07 A3014 RMK A01,KSRB,2022-10-23T08:15:00Z,36.05,-85.53,8.0,7.0,0,0,,10.0,30.138779,,,TRUE,TRUE,,,,,,,FEW,4800,,,,,,,VFR,,,,,,,,,,,,SPECI,303.0
KSQL 230815Z AUTO 30008KT 10SM CLR 13/06 A2988 RMK AO2,KSQL,2022-10-23T08:15:00Z,37.52,-122.25,13.0,6.0,300,8,,10.0,29.878937,,,TRUE,TRUE,,,,,,,CLR,,,,,,,,VFR,,,,,,,,,,,,METAR,1.0
KSPF 230815Z AUTO 11004KT 10SM FEW120 09/00 A2936 RMK AO2,KSPF,2022-10-23T08:15:00Z,44.47,-103.78,9.0,0.0,110,4,,10.0,29.359253,,,TRUE,TRUE,,,,,,,FEW,12000,,,,,,,VFR,,,,,,,,,,,,METAR,1191.0
KSPA 230815Z AUTO 34003KT 10SM CLR 08/03 A3020 RMK AO2,KSPA,2022-10-23T08:15:00Z,34.92,-81.95,8.0,3.0,340,3,,10.0,30.200787,,,TRUE,TRUE,,,,,,,CLR,,,,,,,,VFR,,,,,,,,,,,,METAR,242.0
KSOW 230815Z AUTO 21024G33KT 10SM CLR 10/06 A2976 RMK AO2,KSOW,2022-10-23T08:15:00Z,34.27,-110.0,10.0,6.0,210,24,33,10.0,29.760826,,,TRUE,TRUE,,,,,,,CLR,,,,,,,,VFR,,,,,,,,,,,,METAR,1954.0
KSOA 230815Z AUTO 10SM 20/13 A2988 RMK AO2,KSOA,2022-10-23T08:15:00Z,30.58,-100.65,20.0,13.0,,,,10.0,29.878937,,,TRUE,TRUE,,,,,,,,,,,,,,,,,,,,,,,,,,,METAR,654.0
KSNL 230815Z AUTO 18016G22KT 10SM CLR 22/11 A2968 RMK AO2 T02240108,KSNL,2022-10-23T08:15:00Z,35.35,-96.95,22.4,10.8,180,16,22,10.0,29.681103,,,TRUE,TRUE,,,,,,,CLR,,,,,,,,VFR,,,,,,,,,,,,METAR,327.0
KSNK 230815Z AUTO 19009KT 10SM CLR 20/12 A2977 RMK AO2 T01970119,KSNK,2022-10-23T08:15:00Z,32.7,-100.95,19.7,11.9,190,9,,10.0,29.769686,,,TRUE,TRUE,,,,,,,CLR,,,,,,,,VFR,,,,,,,,,,,,METAR,738.0
KSNC 230815Z AUTO 33003KT 10SM CLR 09/09 A3030 RMK AO2,KSNC,2022-10-23T08:15:00Z,41.38,-72.5,9.0,9.0,330,3,,10.0,30.301182,,,TRUE,TRUE,,,,,,,CLR,,,,,,,,VFR,,,,,,,,,,,,METAR,114.0
KSME 230815Z AUTO 00000KT 10SM CLR 11/10 A3014 RMK AO2,KSME,2022-10-23T08:15:00Z,37.05,-84.62,11.0,10.0,0,0,,10.0,30.138779,,,TRUE,TRUE,,,,,,,CLR,,,,,,,,VFR,,,,,,,,,,,,METAR,279.0
KSLO 230815Z AUTO 15006KT 10SM CLR 18/11 A2994 RMK AO2 T01780105,KSLO,2022-10-23T08:15:00Z,38.65,-88.97,17.8,10.5,150,6,,10.0,29.940945,,,TRUE,TRUE,,,,,,,CLR,,,,,,,,VFR,,,,,,,,,,,,METAR,173.0
KSLH 230815Z AUTO 00000KT 10SM CLR 09/07 A2996 RMK AO2,KSLH,2022-10-23T08:15:00Z,45.65,-84.52,9.0,7.0,0,0,,10.0,29.958662,,,TRUE,TRUE,,,,,,,CLR,,,,,,,,VFR,,,,,,,,,,,,METAR,193.0
KSLB 230815Z AUTO 14014KT 10SM CLR 13/10 A2955 RMK AO2,KSLB,2022-10-23T08:15:00Z,42.6,-95.23,13.0,10.0,140,14,,10.0,29.551182,,,TRUE,TRUE,,,,,,,CLR,,,,,,,,VFR,,,,,,,,,,,,METAR,450.0
KSJX 230815Z AUTO 19006KT 10SM CLR 17/11 A2995 RMK AO2 T01660106,KSJX,2022-10-23T08:15:00Z,45.7,-85.57,16.6,10.6,190,6,,10.0,29.949802,,,TRUE,TRUE,,,,,,,CLR,,,,,,,,VFR,,,,,,,,,,,,METAR,202.0
KSJS 230815Z AUTO 12003KT 10SM CLR 11/07 A3018 RMK AO2 T01130065,KSJS,2022-10-23T08:15:00Z,37.75,-82.63,11.3,6.5,120,3,,10.0,30.180119,,,TRUE,TRUE,,,,,,,CLR,,,,,,,,VFR,,,,,,,,,,,,METAR,359.0
KSIK 230815Z AUTO 17008G17KT 10SM CLR 19/12 A2996 RMK AO2,KSIK,2022-10-23T08:15:00Z,36.9,-89.57,19.0,12.0,170,8,17,10.0,29.958662,,,TRUE,TRUE,,,,,,,CLR,,,,,,,,VFR,,,,,,,,,,,,SPECI,95.0
KSIF 230815Z AUTO 00000KT 10SM CLR 02/02 A3021 RMK AO2 T00230023,KSIF,2022-10-23T08:15:00Z,36.43,-79.85,2.3,2.3,0,0,,10.0,30.209646,,,TRUE,TRUE,,,,,,,CLR,,,,,,,,VFR,,,,,,,,,,,,SPECI,206.0
KSHL 230815Z AUTO 14011KT 10SM CLR 15/10 A2950 RMK AO2,KSHL,2022-10-23T08:15:00Z,43.22,-95.83,15.0,10.0,140,11,,10.0,29.500984,,,TRUE,TRUE,,,,,,,CLR,,,,,,,,VFR,,,,,,,,,,,,METAR,430.0
KSHD 230815Z AUTO 00000KT 10SM CLR 00/00 A3026 RMK AO2 T00001002,KSHD,2022-10-23T08:15:00Z,38.27,-78.9,0.0,-0.2,0,0,,10.0,30.259842,,,TRUE,TRUE,,,,,,,CLR,,,,,,,,VFR,,,,,,,,,,,,SPECI,360.0
KSGS 230815Z AUTO 16004KT 10SM CLR 17/07 A2964 RMK AO2 T01670070,KSGS,2022-10-23T08:15:00Z,44.87,-93.03,16.7,7.0,160,4,,10.0,29.639763,,,TRUE,TRUE,,,,,,,CLR,,,,,,,,VFR,,,,,,,,,,,,METAR,250.0
KSFQ 230815Z AUTO 36005KT 10SM SCT013 14/12 A3015 RMK AO2 T01370121,KSFQ,2022-10-23T08:15:00Z,36.68,-76.6,13.7,12.1,360,5,,10.0,30.15059,,,TRUE,TRUE,,,,,,,SCT,1300,,,,,,,VFR,,,,,,,,,,,,SPECI,19.0
KSEZ 230815Z AUTO 18020G26KT 10SM 13/08 A2972 RMK AO2,KSEZ,2022-10-23T08:15:00Z,34.85,-111.78,13.0,8.0,180,20,26,10.0,29.719488,,,TRUE,TRUE,,,,,,,,,,,,,,,,,,,,,,,,,,,METAR,1455.0
KSEP 230815Z AUTO 18011G16KT 10SM CLR 21/16 A2982 RMK AO2 T02050157,KSEP,2022-10-23T08:15:00Z,32.22,-98.17,20.5,15.7,180,11,16,10.0,29.819881,,,TRUE,TRUE,,,,,,,CLR,,,,,,,,VFR,,,,,,,,,,,,METAR,399.0
KSEM 230815Z AUTO 00000KT 10SM BKN016 BKN042 08/08 A3013 RMK AO2,KSEM,2022-10-23T08:15:00Z,32.35,-86.98,8.0,8.0,0,0,,10.0,30.129921,,,TRUE,TRUE,,,,,,,BKN,1600,BKN,4200,,,,,MVFR,,,,,,,,,,,,SPECI,48.0
KSEF 230815Z AUTO 33005KT 10SM CLR 17/ A3005 RMK AO2 T0169////,KSEF,2022-10-23T08:15:00Z,27.45,-81.35,16.9,,330,5,,10.0,30.050198,,,TRUE,TRUE,,,,,,,CLR,,,,,,,,VFR,,,,,,,,,,,,METAR,17.0
KSEE 230815Z AUTO 22005KT 8SM FEW020 BKN036 OVC043 17/15 A2981 RMK AO2,KSEE,2022-10-23T08:15:00Z,32.82,-116.97,17.0,15.0,220,5,,8.0,29.811024,,,TRUE,TRUE,,,,,,,FEW,2000,BKN,3600,OVC,4300,,,VFR,,,,,,,,,,,,METAR,113.0
KSDC 230815Z AUTO 16004KT 10SM CLR 10/02 A3022 RMK AO2,KSDC,2022-10-23T08:15:00Z,43.23,-77.12,10.0,2.0,160,4,,10.0,30.221457,,,TRUE,TRUE,,,,,,,CLR,,,,,,,,VFR,,,,,,,,,,,,METAR,127.0
KSDA 230815Z AUTO VRB05KT 10SM CLR 18/12 A2951 RMK AO2,KSDA,2022-10-23T08:15:00Z,40.75,-95.42,18.0,12.0,0,5,,10.0,29.509842,,,TRUE,TRUE,,,,,,,CLR,,,,,,,,VFR,,,,,,,,,,,,METAR,293.0
KSCX 230815Z AUTO 00000KT 10SM CLR 10/07 A3017 RMK A01,KSCX,2022-10-23T08:15:00Z,36.45,-84.58,10.0,7.0,0,0,,10.0,30.171259,,,TRUE,TRUE,,,,,,,CLR,,,,,,,,VFR,,,,,,,,,,,,SPECI,462.0
KSCR 230815Z AUTO 00000KT 10SM CLR 07/07 A3017 RMK AO2 T00670067,KSCR,2022-10-23T08:15:00Z,35.7,-79.5,6.7,6.7,0,0,,10.0,30.171259,,,TRUE,TRUE,,,,,,,CLR,,,,,,,,VFR,,,,,,,,,,,,SPECI,182.0
KSCD 230815Z AUTO 00000KT 10SM SCT120 06/06 A3016 RMK AO2 T00620062,KSCD,2022-10-23T08:15:00Z,33.17,-86.3,6.2,6.2,0,0,,10.0,30.159449,,,TRUE,TRUE,,,,,,,SCT,12000,,,,,,,VFR,,,,,,,,,,,,SPECI,164.0
KSBS 230815Z AUTO 09004KT 10SM SCT004 OVC009 02/02 A2946 RMK AO1 T00210021,KSBS,2022-10-23T08:15:00Z,40.52,-106.87,2.1,2.1,90,4,,10.0,29.459646,,,TRUE,TRUE,,,,,,,SCT,400,OVC,900,,,,,IFR,,,,,,,,,,,,METAR,2097.0
KSBO 230815Z AUTO 00000KT 10SM CLR 08/07 A3016 RMK AO2,KSBO,2022-10-23T08:15:00Z,32.62,-82.37,8.0,7.0,0,0,,10.0,30.159449,,,TRUE,TRUE,,,,,,,CLR,,,,,,,,VFR,,,,,,,,,,,,METAR,98.0
KSAZ 230815Z AUTO 00000KT 10SM CLR 12/06 A2957 RMK AO2,KSAZ,2022-10-23T08:15:00Z,46.37,-94.8,12.0,6.0,0,0,,10.0,29.568897,,,TRUE,TRUE,,,,,,,CLR,,,,,,,,VFR,,,,,,,,,,,,METAR,391.0
KSAR 230815Z AUTO 16011KT 10SM CLR 18/11 A2991 RMK AO2 T01840106,KSAR,2022-10-23T08:15:00Z,38.15,-89.7,18.4,10.6,160,11,,10.0,29.911417,,,TRUE,TRUE,,,,,,,CLR,,,,,,,,VFR,,,,,,,,,,,,METAR,162.0
KSAA 230815Z AUTO 2SM -SN SCT003 OVC008 00/00 A2951 RMK AO2,KSAA,2022-10-23T08:15:00Z,41.45,-106.8,0.0,0.0,,,,2.0,29.509842,,,TRUE,TRUE,,,,,,-SN,SCT,300,OVC,800,,,,,IFR,,,,,,,,,,,,METAR,2093.0
KS71 230815Z AUTO 06003KT 7SM 03/03 A2959 ,KS71,2022-10-23T08:15:00Z,48.6,-109.25,3.0,3.0,60,3,,7.0,29.589567,,,TRUE,,,,,,,,,,,,,,,,,,,,,,,,,,,,METAR,736.0
KS59 230815Z AUTO 00000KT 9SM 02/02 A2974 ,KS59,2022-10-23T08:15:00Z,48.28,-115.48,2.0,2.0,0,0,,9.0,29.740158,,,TRUE,,,,,,,,,,,,,,,,,,,,,,,,,,,,METAR,793.0
KS52 230815Z AUTO 34004KT 10SM OVC080 M02/M06 A2983 RMK AO2 T10241057,KS52,2022-10-23T08:15:00Z,48.42,-120.15,-2.4,-5.7,340,4,,10.0,29.828741,,,TRUE,TRUE,,,,,,,OVC,8000,,,,,,,VFR,,,,,,,,,,,,METAR,517.0
KS39 230815Z AUTO 00000KT 10SM BKN034 BKN041 OVC055 02/M00 A2988 RMK AO2,KS39,2022-10-23T08:15:00Z,44.28,-120.9,2.0,0.0,0,0,,10.0,29.878937,,,TRUE,TRUE,,,,,,,BKN,3400,BKN,4100,OVC,5500,,,VFR,,,,,,,,,,,,METAR,987.0
KS33 230815Z AUTO 14003KT 10SM CLR 00/M01 A2991 RMK AO2,KS33,2022-10-23T08:15:00Z,44.67,-121.15,0.0,-1.0,140,3,,10.0,29.911417,,,TRUE,TRUE,,,,,,,CLR,,,,,,,,VFR,,,,,,,,,,,,METAR,739.0
KS32 230815Z AUTO 03011KT 10SM BKN024 OVC030 06/06 A2954 RMK AO2 TSNO,KS32,2022-10-23T08:15:00Z,47.42,-98.1,6.0,6.0,30,11,,10.0,29.53937,,,TRUE,TRUE,,,TRUE,,,,BKN,2400,OVC,3000,,,,,MVFR,,,,,,,,,,,,METAR,435.0
KS25 230815Z AUTO 08017G26KT 10SM OVC009 06/06 A2950 RMK AO2,KS25,2022-10-23T08:15:00Z,47.8,-103.25,6.0,6.0,80,17,26,10.0,29.500984,,,TRUE,TRUE,,,,,,,OVC,900,,,,,,,IFR,,,,,,,,,,,,METAR,632.0
KS24 230815Z AUTO 16007KT 10SM CLR 15/08 A3011 RMK AO2,KS24,2022-10-23T08:15:00Z,,,15.0,8.0,160,7,,10.0,30.109253,,,TRUE,TRUE,,,,,,,CLR,,,,,,,,VFR,,,,,,,,,,,,METAR,
KRZT 230815Z AUTO 00000KT 10SM CLR 10/08 A3014 RMK AO2 PWINO,KRZT,2022-10-23T08:15:00Z,39.43,-83.02,10.0,8.0,0,0,,10.0,30.138779,,,TRUE,TRUE,,,,,TRUE,,CLR,,,,,,,,VFR,,,,,,,,,,,,METAR,217.0
KRZR 230815Z AUTO 00000KT 7SM CLR 04/04 A3015 RMK A01,KRZR,2022-10-23T08:15:00Z,35.22,-84.8,4.0,4.0,0,0,,7.0,30.15059,,,TRUE,TRUE,,,,,,,CLR,,,,,,,,VFR,,,,,,,,,,,,SPECI,259.0
KRZN 230815Z AUTO 16003KT 10SM CLR 13/07 A2966 RMK AO2 T01330069,KRZN,2022-10-23T08:15:00Z,45.82,-92.37,13.3,6.9,160,3,,10.0,29.660433,,,TRUE,TRUE,,,,,,,CLR,,,,,,,,VFR,,,,,,,,,,,,METAR,301.0
KRZL 230815Z AUTO 15010KT 10SM SCT055 16/10 A2998 RMK AO2,KRZL,2022-10-23T08:15:00Z,40.95,-87.18,16.0,10.0,150,10,,10.0,29.97933,,,TRUE,TRUE,,,,,,,SCT,5500,,,,,,,VFR,,,,,,,,,,,,METAR,210.0
KRYW 230815Z AUTO 19013G20KT 10SM OVC014 21/18 A2988 RMK AO2 T02060175,KRYW,2022-10-23T08:15:00Z,30.5,-97.97,20.6,17.5,190,13,20,10.0,29.878937,,,TRUE,TRUE,,,,,,,OVC,1400,,,,,,,MVFR,,,,,,,,,,,,METAR,370.0
KRYV 230815Z AUTO 17009KT 10SM CLR 15/11 A2986 RMK AO2 T01520106,KRYV,2022-10-23T08:15:00Z,43.17,-88.72,15.2,10.6,170,9,,10.0,29.861221,,,TRUE,TRUE,,,,,,,CLR,,,,,,,,VFR,,,,,,,,,,,,METAR,249.0
KRWV 230815Z AUTO 17006KT 10SM CLR 20/17 A2988 RMK AO2 T01950165,KRWV,2022-10-23T08:15:00Z,30.52,-96.7,19.5,16.5,170,6,,10.0,29.878937,,,TRUE,TRUE,,,,,,,CLR,,,,,,,,VFR,,,,,,,,,,,,METAR,116.0
KRVL 230815Z AUTO 00000KT 6SM BR CLR 01/M00 A3027 RMK AO2,KRVL,2022-10-23T08:15:00Z,40.68,-77.63,1.0,0.0,0,0,,6.0,30.268702,,,TRUE,TRUE,,,,,,BR,CLR,,,,,,,,VFR,,,,,,,,,,,,METAR,250.0
KRVJ 230815Z AUTO 33003KT 10SM CLR 06/05 A3014 RMK AO2 T00630053,KRVJ,2022-10-23T08:15:00Z,32.07,-82.15,6.3,5.3,330,3,,10.0,30.138779,,,TRUE,TRUE,,,,,,,CLR,,,,,,,,VFR,,,,,,,,,,,,METAR,60.0
KRVF 230815Z AUTO 00000KT 1 3/4SM -SN OVC003 00/M00 A2961 RMK AO2,KRVF,2022-10-23T08:15:00Z,45.53,-112.3,0.0,0.0,0,0,,1.75,29.610237,,,TRUE,TRUE,,,,,,-SN,OVC,300,,,,,,,LIFR,,,,,,,,,,,,METAR,1445.0
KRUQ 230815Z AUTO 00000KT 7SM CLR 03/02 A3019 RMK AO2 T00290022,KRUQ,2022-10-23T08:15:00Z,35.65,-80.52,2.9,2.2,0,0,,7.0,30.188976,,,TRUE,TRUE,,,,,,,CLR,,,,,,,,VFR,,,,,,,,,,,,SPECI,231.0
KRUG 230815Z AUTO 06019G27KT 10SM FEW012 FEW044 FEW050 06/06 A2960 RMK AO2,KRUG,2022-10-23T08:15:00Z,48.38,-100.02,6.0,6.0,60,19,27,10.0,29.601377,,,TRUE,TRUE,,,,,,,FEW,1200,FEW,4400,FEW,5000,,,VFR,,,,,,,,,,,,METAR,469.0
KRTS 230815Z AUTO 32005KT 10SM CLR M03/M09 A2986 RMK AO2,KRTS,2022-10-23T08:15:00Z,39.67,-119.88,-3.0,-9.0,320,5,,10.0,29.861221,,,TRUE,TRUE,,,,,,,CLR,,,,,,,,VFR,,,,,,,,,,,,METAR,1537.0
KRSV 230815Z AUTO 17012KT 10SM OVC060 17/11 A3000 RMK AO2 T01740106,KRSV,2022-10-23T08:15:00Z,39.02,-87.65,17.4,10.6,170,12,,10.0,30.0,,,TRUE,TRUE,,,,,,,OVC,6000,,,,,,,VFR,,,,,,,,,,,,METAR,139.0
KRSN 230815Z AUTO 16006KT 10SM CLR 19/15 A3003 RMK AO2 T01850147,KRSN,2022-10-23T08:15:00Z,32.52,-92.58,18.5,14.7,160,6,,10.0,30.029528,,,TRUE,TRUE,,,,,,,CLR,,,,,,,,VFR,,,,,,,,,,,,SPECI,86.0
KRRT 230815Z AUTO 04011G17KT 10SM 08/06 A2963 RMK AO2,KRRT,2022-10-23T08:15:00Z,48.93,-95.33,8.0,6.0,40,11,17,10.0,29.630905,,,TRUE,TRUE,,,,,,,,,,,,,,,,,,,,,,,,,,,METAR,327.0
KRRL 230815Z AUTO 11004KT 10SM CLR 13/09 A2980 RMK AO2 T01310092 TSNO,KRRL,2022-10-23T08:15:00Z,45.2,-89.72,13.1,9.2,110,4,,10.0,29.799213,,,TRUE,TRUE,,,TRUE,,,,CLR,,,,,,,,VFR,,,,,,,,,,,,METAR,397.0
KRQO 230815Z AUTO 18018KT CLR 22/12 A2965 RMK AO2 PWINO T02170121,KRQO,2022-10-23T08:15:00Z,35.47,-98.0,21.7,12.1,180,18,,,29.648623,,,TRUE,TRUE,,,,,TRUE,,CLR,,,,,,,,,,,,,,,,,,,,METAR,431.0
KRQB 230815Z AUTO 00000KT 10SM CLR 12/10 A3000 RMK AO2 T01200095,KRQB,2022-10-23T08:15:00Z,43.72,-85.5,12.0,9.5,0,0,,10.0,30.0,,,TRUE,TRUE,,,,,,,CLR,,,,,,,,VFR,,,,,,,,,,,,METAR,282.0
KRPJ 230815Z AUTO 16011KT 10SM CLR 15/13 A2987 RMK AO2 T01450126 TSNO,KRPJ,2022-10-23T08:15:00Z,41.88,-89.08,14.5,12.6,160,11,,10.0,29.870079,,,TRUE,TRUE,,,TRUE,,,,CLR,,,,,,,,VFR,,,,,,,,,,,,METAR,234.0
KRPH 230815Z AUTO VRB05KT 10SM CLR 23/12 A2973 RMK AO2 T02280123 $,KRPH,2022-10-23T08:15:00Z,33.12,-98.55,22.8,12.3,0,5,,10.0,29.731298,,,TRUE,TRUE,TRUE,,,,,,CLR,,,,,,,,VFR,,,,,,,,,,,,METAR,341.0
KRPD 230815Z AUTO 12007KT 10SM CLR 14/11 A2971 RMK AO2 T01390110,KRPD,2022-10-23T08:15:00Z,45.42,-91.77,13.9,11.0,120,7,,10.0,29.71063,,,TRUE,TRUE,,,,,,,CLR,,,,,,,,VFR,,,,,,,,,,,,METAR,334.0
KROX 230815Z AUTO 06009KT 10SM CLR 08/06 A2961 RMK AO2,KROX,2022-10-23T08:15:00Z,48.85,-95.7,8.0,6.0,60,9,,10.0,29.610237,,,TRUE,TRUE,,,,,,,CLR,,,,,,,,VFR,,,,,,,,,,,,METAR,320.0
KRNV 230815Z AUTO 17010KT 10SM CLR A3002 RMK AO2 TSNO,KRNV,2022-10-23T08:15:00Z,33.77,-90.75,,,170,10,,10.0,30.02067,,,TRUE,TRUE,,,TRUE,,,,CLR,,,,,,,,VFR,,,,,,,,,,,,METAR,42.0
KRNP 230815Z AUTO 16003KT 10SM CLR 15/09 A3005 RMK AO2 T01480090,KRNP,2022-10-23T08:15:00Z,43.0,-84.13,14.8,9.0,160,3,,10.0,30.050198,,,TRUE,TRUE,,,,,,,CLR,,,,,,,,VFR,,,,,,,,,,,,METAR,224.0
KRNM 230815Z AUTO 23006KT 5SM -RA BR FEW010 BKN015 OVC037 14/13 A2981 RMK AO2 RAB14 P0000 T01440133,KRNM,2022-10-23T08:15:00Z,33.03,-116.92,14.4,13.3,230,6,,5.0,29.811024,,,TRUE,TRUE,,,,,,-RA BR,FEW,1000,BKN,1500,OVC,3700,,,MVFR,,,,,,0.005,,,,,,SPECI,423.0
KRNH 230815Z AUTO 14004KT 10SM CLR 15/11 A2967 RMK AO2 T01540110,KRNH,2022-10-23T08:15:00Z,45.15,-92.53,15.4,11.0,140,4,,10.0,29.66929,,,TRUE,TRUE,,,,,,,CLR,,,,,,,,VFR,,,,,,,,,,,,METAR,302.0
KRNC 230815Z AUTO 00000KT 10SM FEW044 09/07 A3013 RMK A01,KRNC,2022-10-23T08:15:00Z,35.7,-85.85,9.0,7.0,0,0,,10.0,30.129921,,,TRUE,TRUE,,,,,,,FEW,4400,,,,,,,VFR,,,,,,,,,,,,SPECI,310.0
KRMY 230815Z AUTO 16003KT 10SM CLR 14/10 A3004 RMK AO2 T01400096,KRMY,2022-10-23T08:15:00Z,42.25,-84.95,14.0,9.6,160,3,,10.0,30.041338,,,TRUE,TRUE,,,,,,,CLR,,,,,,,,VFR,,,,,,,,,,,,METAR,285.0
KRMN 230815Z AUTO 00000KT 10SM CLR 07/06 A3027 RMK AO2 T00730060,KRMN,2022-10-23T08:15:00Z,38.4,-77.45,7.3,6.0,0,0,,10.0,30.268702,,,TRUE,TRUE,,,,,,,CLR,,,,,,,,VFR,,,,,,,,,,,,SPECI,50.0
KRLD 230815Z AUTO 27006KT 10SM OVC090 08/03 A2981 RMK AO2 T00830027,KRLD,2022-10-23T08:15:00Z,46.3,-119.3,8.3,2.7,270,6,,10.0,29.811024,,,TRUE,TRUE,,,,,,,OVC,9000,,,,,,,VFR,,,,,,,,,,,,METAR,118.0
KRKR 230815Z AUTO 10SM CLR 22/13 A2981 RMK AO2,KRKR,2022-10-23T08:15:00Z,35.02,-94.62,22.0,13.0,,,,10.0,29.811024,,,TRUE,TRUE,,,,,,,CLR,,,,,,,,VFR,,,,,,,,,,,,SPECI,136.0
KRHP 230815Z AUTO 00000KT 10SM CLR 01/00 A3023 RMK AO2 T00120003,KRHP,2022-10-23T08:15:00Z,35.18,-83.85,1.2,0.3,0,0,,10.0,30.230314,,,TRUE,TRUE,,,,,,,CLR,,,,,,,,VFR,,,,,,,,,,,,SPECI,515.0
KRGK 230815Z AUTO 12005KT 10SM CLR 16/08 A2966 RMK AO2,KRGK,2022-10-23T08:15:00Z,44.58,-92.48,16.0,8.0,120,5,,10.0,29.660433,,,TRUE,TRUE,,,,,,,CLR,,,,,,,,VFR,,,,,,,,,,,,METAR,238.0
KRFI 230815Z AUTO 14007KT 10SM BKN024 BKN034 22/15 A2993 RMK AO2 T02210150,KRFI,2022-10-23T08:15:00Z,32.15,-94.85,22.1,15.0,140,7,,10.0,29.929134,,,TRUE,TRUE,,,,,,,BKN,2400,BKN,3400,,,,,MVFR,,,,,,,,,,,,METAR,133.0
KREG 230815Z AUTO 00000KT 10SM SCT044 16/14 A3004 RMK AO2 T01560142,KREG,2022-10-23T08:15:00Z,30.17,-90.93,15.6,14.2,0,0,,10.0,30.041338,,,TRUE,TRUE,,,,,,,SCT,4400,,,,,,,VFR,,,,,,,,,,,,METAR,3.0
KRDK 230815Z AUTO 14013G18KT CLR 19/12 A2953 RMK AO2,KRDK,2022-10-23T08:15:00Z,41.02,-95.27,19.0,12.0,140,13,18,,29.530512,,,TRUE,TRUE,,,,,,,CLR,,,,,,,,,,,,,,,,,,,,METAR,317.0
KRCZ 230815Z AUTO 36003KT 10SM CLR 10/09 A3016 RMK AO2 T01030088,KRCZ,2022-10-23T08:15:00Z,34.88,-79.77,10.3,8.8,360,3,,10.0,30.159449,,,TRUE,TRUE,,,,,,,CLR,,,,,,,,VFR,,,,,,,,,,,,METAR,110.0
KRCX 230815Z AUTO 14006KT 10SM CLR 16/12 A2975 RMK AO2 T01630115,KRCX,2022-10-23T08:15:00Z,45.5,-91.0,16.3,11.5,140,6,,10.0,29.749016,,,TRUE,TRUE,,,,,,,CLR,,,,,,,,VFR,,,,,,,,,,,,METAR,373.0
KRCV 230815Z AUTO 25018G33KT 10SM -DZ SCT070 BKN090 OVC110 09/M01 A2969 RMK AO2 LTG DSNT S AND W T00901011,KRCV,2022-10-23T08:15:00Z,37.72,-106.35,9.0,-1.1,250,18,33,10.0,29.68996,,,TRUE,TRUE,,,,,,-DZ,SCT,7000,BKN,9000,OVC,11000,,,VFR,,,,,,,,,,,,METAR,2418.0
KRCR 230815Z AUTO 16005KT 10SM CLR 15/11 A3001 RMK AO2,KRCR,2022-10-23T08:15:00Z,41.07,-86.18,15.0,11.0,160,5,,10.0,30.008858,,,TRUE,TRUE,,,,,,,CLR,,,,,,,,VFR,,,,,,,,,,,,METAR,240.0
KRCM 230815Z AUTO 16013G16KT 10SM CLR 20/11 A2965 RMK AO2,KRCM,2022-10-23T08:15:00Z,38.78,-93.8,20.0,11.0,160,13,16,10.0,29.648623,,,TRUE,TRUE,,,,,,,CLR,,,,,,,,VFR,,,,,,,,,,,,METAR,242.0
KRCE 230815Z AUTO 19019G26KT 10SM CLR 22/12 A2963 RMK AO2,KRCE,2022-10-23T08:15:00Z,35.48,-97.82,22.0,12.0,190,19,26,10.0,29.630905,,,TRUE,TRUE,,,,,,,CLR,,,,,,,,VFR,,,,,,,,,,,,SPECI,412.0
KRBW 230815Z AUTO 00000KT 10SM CLR 10/10 A3014 RMK AO2,KRBW,2022-10-23T08:15:00Z,32.92,-80.63,10.0,10.0,0,0,,10.0,30.138779,,,TRUE,TRUE,,,,,,,CLR,,,,,,,,VFR,,,,,,,,,,,,METAR,30.0
KRBO 230815Z AUTO 10SM CLR 22/19 A2987 RMK AO2 T02240193,KRBO,2022-10-23T08:15:00Z,27.78,-97.68,22.4,19.3,,,,10.0,29.870079,,,TRUE,TRUE,,,,,,,CLR,,,,,,,,VFR,,,,,,,,,,,,METAR,24.0
KRAW 230815Z AUTO 18010G15KT 10SM CLR 19/11 A2971 RMK AO2,KRAW,2022-10-23T08:15:00Z,38.35,-93.35,19.0,11.0,180,10,15,10.0,29.71063,,,TRUE,TRUE,,,,,,,CLR,,,,,,,,VFR,,,,,,,,,,,,METAR,285.0
KRAS 230815Z AUTO 17011KT 10SM CLR A2989 RMK AO2,KRAS,2022-10-23T08:15:00Z,27.82,-97.08,,,170,11,,10.0,29.890747,,,TRUE,TRUE,,,,,,,CLR,,,,,,,,VFR,,,,,,,,,,,,METAR,3.0
KPZZ 230815Z AUTO 14017KT 10SM FEW038 SCT044 BKN049 25/16 A3002 RMK A01,KPZZ,2022-10-23T08:15:00Z,28.43,-91.03,25.0,16.0,140,17,,10.0,30.02067,,,TRUE,TRUE,,,,,,,FEW,3800,SCT,4400,BKN,4900,,,VFR,,,,,,,,,,,,SPECI,25.0
KPZQ 230815Z AUTO 20003KT 10SM CLR 16/10 A3000 RMK AO2 T01640099,KPZQ,2022-10-23T08:15:00Z,45.4,-83.82,16.4,9.9,200,3,,10.0,30.0,,,TRUE,TRUE,,,,,,,CLR,,,,,,,,VFR,,,,,,,,,,,,METAR,199.0
KPYX 230815Z AUTO 22018KT 10SM CLR 20/09 A2956 RMK AO2 T01990091,KPYX,2022-10-23T08:15:00Z,36.42,-100.75,19.9,9.1,220,18,,10.0,29.56004,,,TRUE,TRUE,,,,,,,CLR,,,,,,,,VFR,,,,,,,,,,,,METAR,890.0
KPXE 230815Z AUTO 36003KT 10SM CLR 04/03 A3016 RMK AO2 T00400035,KPXE,2022-10-23T08:15:00Z,32.52,-83.77,4.0,3.5,360,3,,10.0,30.159449,,,TRUE,TRUE,,,,,,,CLR,,,,,,,,VFR,,,,,,,,,,,,METAR,126.0
KPWD 230815Z AUTO 08020G29KT 10SM OVC008 05/03 A2955 RMK AO2,KPWD,2022-10-23T08:15:00Z,48.78,-104.52,5.0,3.0,80,20,29,10.0,29.551182,,,TRUE,TRUE,,,,,,,OVC,800,,,,,,,IFR,,,,,,,,,,,,METAR,690.0
KPWC 230815Z AUTO 13004KT 10SM CLR 08/06 A2963 RMK AO2,KPWC,2022-10-23T08:15:00Z,46.72,-94.38,8.0,6.0,130,4,,10.0,29.630905,,,TRUE,TRUE,,,,,,,CLR,,,,,,,,VFR,,,,,,,,,,,,METAR,394.0
KPVJ 230815Z AUTO 17009G16KT 10SM CLR 23/14 A2971 RMK AO2 T02250135,KPVJ,2022-10-23T08:15:00Z,34.72,-97.22,22.5,13.5,170,9,16,10.0,29.71063,,,TRUE,TRUE,,,,,,,CLR,,,,,,,,VFR,,,,,,,,,,,,SPECI,287.0
KPVF 230815Z AUTO 08008KT 10SM CLR 08/M03 A2982 RMK AO1,KPVF,2022-10-23T08:15:00Z,38.72,-120.75,8.0,-3.0,80,8,,10.0,29.819881,,,TRUE,TRUE,,,,,,,CLR,,,,,,,,VFR,,,,,,,,,,,,METAR,788.0
KPVB 230815Z AUTO 15013G17KT 10SM CLR 16/12 A2980 RMK AO1 T01630116,KPVB,2022-10-23T08:15:00Z,42.68,-90.43,16.3,11.6,150,13,17,10.0,29.799213,,,TRUE,TRUE,,,,,,,CLR,,,,,,,,VFR,,,,,,,,,,,,METAR,311.0
KPUJ 230815Z AUTO 00000KT 7SM CLR 10/03 A3019 RMK AO2,KPUJ,2022-10-23T08:15:00Z,33.92,-84.93,10.0,3.0,0,0,,7.0,30.188976,,,TRUE,TRUE,,,,,,,CLR,,,,,,,,VFR,,,,,,,,,,,,SPECI,385.0
KPTT 230815Z AUTO 19011KT 10SM CLR 19/07 A2949 RMK AO2 T01940065,KPTT,2022-10-23T08:15:00Z,37.7,-98.75,19.4,6.5,190,11,,10.0,29.489174,,,TRUE,TRUE,,,,,,,CLR,,,,,,,,VFR,,,,,,,,,,,,METAR,594.0
KPTS 230815Z AUTO 19022G27KT 10SM SCT120 22/13 A2965 RMK AO2 T02230130 PWINO,KPTS,2022-10-23T08:15:00Z,37.45,-94.73,22.3,13.0,190,22,27,10.0,29.648623,,,TRUE,TRUE,,,,,TRUE,,SCT,12000,,,,,,,VFR,,,,,,,,,,,,SPECI,286.0
KPTD 230815Z AUTO 17004KT 10SM BKN060 12/02 A3025 RMK AO2,KPTD,2022-10-23T08:15:00Z,44.68,-74.95,12.0,2.0,170,4,,10.0,30.250984,,,TRUE,TRUE,,,,,,,BKN,6000,,,,,,,VFR,,,,,,,,,,,,METAR,144.0
KPTB 230815Z AUTO 00000KT 10SM CLR 10/08 A3021 RMK AO2 T00950078,KPTB,2022-10-23T08:15:00Z,37.17,-77.52,9.5,7.8,0,0,,10.0,30.209646,,,TRUE,TRUE,,,,,,,CLR,,,,,,,,VFR,,,,,,,,,,,,SPECI,56.0
KPSO 230815Z AUTO 22025G38KT 10SM BKN043 BKN049 BKN065 11/02 A2973 RMK AO2 LTG DSNT E AND NW T01140022,KPSO,2022-10-23T08:15:00Z,37.28,-107.05,11.4,2.2,220,25,38,10.0,29.731298,,,TRUE,TRUE,,,,,,,BKN,4300,BKN,4900,BKN,6500,,,VFR,,,,,,,,,,,,METAR,2332.0
KPSN 230815Z AUTO 16006KT 10SM CLR 19/18 A2988 RMK AO2,KPSN,2022-10-23T08:15:00Z,31.78,-95.7,19.0,18.0,160,6,,10.0,29.878937,,,TRUE,TRUE,,,,,,,CLR,,,,,,,,VFR,,,,,,,,,,,,METAR,124.0
KPSK 230815Z AUTO 00000KT 10SM CLR 03/02 A3022 RMK AO2 T00290024,KPSK,2022-10-23T08:15:00Z,37.13,-80.67,2.9,2.4,0,0,,10.0,30.221457,,,TRUE,TRUE,,,,,,,CLR,,,,,,,,VFR,,,,,,,,,,,,SPECI,629.0
KPRS 230815Z AUTO 00000KT 10SM CLR 21/09 A2983 RMK AO2 T02130088,KPRS,2022-10-23T08:15:00Z,29.63,-104.35,21.3,8.8,0,0,,10.0,29.828741,,,TRUE,TRUE,,,,,,,CLR,,,,,,,,VFR,,,,,,,,,,,,METAR,890.0
KPRO 230815Z AUTO 13008KT 10SM CLR 16/10 A2959 RMK AO2 T01570103,KPRO,2022-10-23T08:15:00Z,41.83,-94.17,15.7,10.3,130,8,,10.0,29.589567,,,TRUE,TRUE,,,,,,,CLR,,,,,,,,VFR,,,,,,,,,,,,METAR,308.0
KPRG 230815Z AUTO 15013KT 10SM BKN055 17/12 A2999 RMK AO2 T01680117,KPRG,2022-10-23T08:15:00Z,39.7,-87.67,16.8,11.7,150,13,,10.0,29.991142,,,TRUE,TRUE,,,,,,,BKN,5500,,,,,,,VFR,,,,,,,,,,,,METAR,197.0
KPPQ 230815Z AUTO 14008KT 10SM CLR 17/13 A2981 RMK AO2 T01660125,KPPQ,2022-10-23T08:15:00Z,39.63,-90.78,16.6,12.5,140,8,,10.0,29.811024,,,TRUE,TRUE,,,,,,,CLR,,,,,,,,VFR,,,,,,,,,,,,METAR,215.0
KPPO 230815Z AUTO 16006KT 10SM CLR 14/13 A2998 RMK AO2 T01400125,KPPO,2022-10-23T08:15:00Z,41.57,-86.73,14.0,12.5,160,6,,10.0,29.97933,,,TRUE,TRUE,,,,,,,CLR,,,,,,,,VFR,,,,,,,,,,,,METAR,242.0
KPPA 230815Z AUTO 21015KT 10SM CLR 21/12 A2964 RMK AO2 T02070118,KPPA,2022-10-23T08:15:00Z,35.62,-101.0,20.7,11.8,210,15,,10.0,29.639763,,,TRUE,TRUE,,,,,,,CLR,,,,,,,,VFR,,,,,,,,,,,,METAR,989.0
KPOY 230815Z AUTO 34017G24KT 10SM BKN070 00/00 A2943 RMK AO2,KPOY,2022-10-23T08:15:00Z,44.87,-108.8,0.0,0.0,340,17,24,10.0,29.430119,,,TRUE,TRUE,,,,,,,BKN,7000,,,,,,,VFR,,,,,,,,,,,,METAR,1547.0
KPOV 230815Z AUTO 11004KT 10SM CLR 07/05 A3017 RMK AO2 T00700046 PWINO,KPOV,2022-10-23T08:15:00Z,41.22,-81.25,7.0,4.6,110,4,,10.0,30.171259,,,TRUE,TRUE,,,,,TRUE,,CLR,,,,,,,,VFR,,,,,,,,,,,,METAR,363.0
KPNT 230815Z AUTO 14008KT 10SM CLR 15/13 A2990 RMK AO2 T01460125,KPNT,2022-10-23T08:15:00Z,40.92,-88.62,14.6,12.5,140,8,,10.0,29.899607,,,TRUE,TRUE,,,,,,,CLR,,,,,,,,VFR,,,,,,,,,,,,METAR,199.0
KPNM 230815Z AUTO 11004KT 10SM CLR 12/08 A2962 RMK AO2 TSNO,KPNM,2022-10-23T08:15:00Z,45.53,-93.6,12.0,8.0,110,4,,10.0,29.619095,,,TRUE,TRUE,,,TRUE,,,,CLR,,,,,,,,VFR,,,,,,,,,,,,METAR,298.0
KPNE 230815Z AUTO 02006KT 10SM OVC030 12/07 A3026 RMK AO2 T01170072,KPNE,2022-10-23T08:15:00Z,40.08,-75.02,11.7,7.2,20,6,,10.0,30.259842,,,TRUE,TRUE,,,,,,,OVC,3000,,,,,,,MVFR,,,,,,,,,,,,SPECI,32.0
KPNA 230815Z AUTO 29007KT 10SM OVC110 M02/M04 A2951 RMK AO2,KPNA,2022-10-23T08:15:00Z,42.8,-109.8,-2.0,-4.0,290,7,,10.0,29.509842,,,TRUE,TRUE,,,,,,,OVC,11000,,,,,,,VFR,,,,,,,,,,,,METAR,2158.0
KPMV 230815Z AUTO 13011KT 10SM CLR 17/12 A2949 RMK AO2 T01730122,KPMV,2022-10-23T08:15:00Z,40.95,-95.92,17.3,12.2,130,11,,10.0,29.489174,,,TRUE,TRUE,,,,,,,CLR,,,,,,,,VFR,,,,,,,,,,,,METAR,365.0
KPMU 230815Z AUTO 16003KT 10SM CLR 17/12 A3004 RMK AO2,KPMU,2022-10-23T08:15:00Z,34.37,-89.9,17.0,12.0,160,3,,10.0,30.041338,,,TRUE,TRUE,,,,,,,CLR,,,,,,,,VFR,,,,,,,,,,,,METAR,67.0
KPMH 230815Z AUTO 00000KT 10SM CLR 09/06 A3017 RMK AO2 T00880064,KPMH,2022-10-23T08:15:00Z,38.83,-82.85,8.8,6.4,0,0,,10.0,30.171259,,,TRUE,TRUE,,,,,,,CLR,,,,,,,,VFR,,,,,,,,,,,,METAR,200.0
KPLU 230815Z AUTO 00000KT 6SM -DZ OVC060 05/05 A2993 RMK AO2,KPLU,2022-10-23T08:15:00Z,47.1,-122.28,5.0,5.0,0,0,,6.0,29.929134,,,TRUE,TRUE,,,,,,-DZ,OVC,6000,,,,,,,VFR,,,,,,,,,,,,METAR,164.0
KPLR 230815Z AUTO 00000KT 7SM FEW024 BKN035 BKN065 07/06 A3017 RMK A01,KPLR,2022-10-23T08:15:00Z,33.57,-86.25,7.0,6.0,0,0,,7.0,30.171259,,,TRUE,TRUE,,,,,,,FEW,2400,BKN,3500,BKN,6500,,,VFR,,,,,,,,,,,,SPECI,145.0
KPIM 230815Z AUTO 00000KT 10SM CLR 08/04 A3017 RMK AO2 T00810039,KPIM,2022-10-23T08:15:00Z,32.83,-84.88,8.1,3.9,0,0,,10.0,30.171259,,,TRUE,TRUE,,,,,,,CLR,,,,,,,,VFR,,,,,,,,,,,,METAR,274.0
KPHT 230815Z AUTO 17013KT 10SM OVC060 18/11 A3003 RMK A01,KPHT,2022-10-23T08:15:00Z,36.33,-88.38,18.0,11.0,170,13,,10.0,30.029528,,,TRUE,TRUE,,,,,,,OVC,6000,,,,,,,VFR,,,,,,,,,,,,SPECI,172.0
KPHN 230815Z AUTO 00000KT 10SM CLR 10/07 A3011 RMK AO2,KPHN,2022-10-23T08:15:00Z,42.92,-82.52,10.0,7.0,0,0,,10.0,30.109253,,,TRUE,TRUE,,,,,,,CLR,,,,,,,,VFR,,,,,,,,,,,,METAR,195.0
KPGV 230815Z AUTO 34005KT 10SM CLR 12/12 A3012 RMK AO2,KPGV,2022-10-23T08:15:00Z,35.63,-77.4,12.0,12.0,340,5,,10.0,30.121063,,,TRUE,TRUE,,,,,,,CLR,,,,,,,,VFR,,,,,,,,,,,,METAR,6.0
KPEZ 230815Z AUTO 18005KT 10SM CLR 21/19 A2987 RMK AO2 T02100185,KPEZ,2022-10-23T08:15:00Z,28.95,-98.52,21.0,18.5,180,5,,10.0,29.870079,,,TRUE,TRUE,,,,,,,CLR,,,,,,,,VFR,,,,,,,,,,,,METAR,126.0
KPEX 230815Z AUTO 14007KT 10SM CLR 13/07 A2958 RMK AO2,KPEX,2022-10-23T08:15:00Z,45.37,-94.73,13.0,7.0,140,7,,10.0,29.58071,,,TRUE,TRUE,,,,,,,CLR,,,,,,,,VFR,,,,,,,,,,,,METAR,359.0
KPEQ 230815Z AUTO 00000KT 10SM CLR 16/12 A2976 RMK AO2 T01570119,KPEQ,2022-10-23T08:15:00Z,31.38,-103.52,15.7,11.9,0,0,,10.0,29.760826,,,TRUE,TRUE,,,,,,,CLR,,,,,,,,VFR,,,,,,,,,,,,METAR,794.0
KPEA 230815Z AUTO 14011G15KT 10SM CLR 17/11 A2967 RMK AO2 T01740112,KPEA,2022-10-23T08:15:00Z,41.4,-92.95,17.4,11.2,140,11,15,10.0,29.66929,,,TRUE,TRUE,,,,,,,CLR,,,,,,,,VFR,,,,,,,,,,,,METAR,264.0
KPCZ 230815Z AUTO 14004KT 10SM CLR 15/11 A2984 RMK AO2 T01480105,KPCZ,2022-10-23T08:15:00Z,44.33,-89.02,14.8,10.5,140,4,,10.0,29.840551,,,TRUE,TRUE,,,,,,,CLR,,,,,,,,VFR,,,,,,,,,,,,METAR,248.0
KPCW 230815Z AUTO 19007KT 10SM FEW055 13/10 A3010 RMK AO2,KPCW,2022-10-23T08:15:00Z,41.52,-82.87,13.0,10.0,190,7,,10.0,30.100393,,,TRUE,TRUE,,,,,,,FEW,5500,,,,,,,VFR,,,,,,,,,,,,METAR,179.0
KPCM 230815Z AUTO 02003KT 10SM CLR 17/15 A3009 RMK AO2,KPCM,2022-10-23T08:15:00Z,28.0,-82.17,17.0,15.0,20,3,,10.0,30.088583,,,TRUE,TRUE,,,,,,,CLR,,,,,,,,VFR,,,,,,,,,,,,SPECI,43.0
KPCD 230815Z AUTO 17012KT 10SM CLR 19/12 A2990 RMK AO2 T01850122,KPCD,2022-10-23T08:15:00Z,37.87,-89.87,18.5,12.2,170,12,,10.0,29.899607,,,TRUE,TRUE,,,,,,,CLR,,,,,,,,VFR,,,,,,,,,,,,METAR,112.0
KPBX 230815Z AUTO 13004KT 10SM CLR 12/05 A3018 RMK AO2 T01160052,KPBX,2022-10-23T08:15:00Z,37.57,-82.57,11.6,5.2,130,4,,10.0,30.180119,,,TRUE,TRUE,,,,,,,CLR,,,,,,,,VFR,,,,,,,,,,,,METAR,447.0
KPBH 230815Z AUTO 16007KT 10SM CLR 15/09 A2976 RMK AO2 T01510090,KPBH,2022-10-23T08:15:00Z,45.7,-90.4,15.1,9.0,160,7,,10.0,29.760826,,,TRUE,TRUE,,,,,,,CLR,,,,,,,,VFR,,,,,,,,,,,,METAR,445.0
KPAN 230815Z AUTO 24008G15KT 10SM BKN023 OVC030 12/08 A2981 RMK AO2 PWINO TSNO,KPAN,2022-10-23T08:15:00Z,34.25,-111.33,12.0,8.0,240,8,15,10.0,29.811024,,,TRUE,TRUE,,,TRUE,,TRUE,,BKN,2300,OVC,3000,,,,,MVFR,,,,,,,,,,,,METAR,1575.0
KP08 230815Z AUTO 20017G24KT 10SM CLR 20/14 A2972 RMK AO2,KP08,2022-10-23T08:15:00Z,32.93,-111.43,20.0,14.0,200,17,24,10.0,29.719488,,,TRUE,TRUE,,,,,,,CLR,,,,,,,,VFR,,,,,,,,,,,,METAR,477.0
KOZW 230815Z AUTO 16003KT 10SM CLR 14/10 A3007 RMK AO2 T01390098,KOZW,2022-10-23T08:15:00Z,42.62,-83.98,13.9,9.8,160,3,,10.0,30.070866,,,TRUE,TRUE,,,,,,,CLR,,,,,,,,VFR,,,,,,,,,,,,METAR,288.0
KOZS 230815Z AUTO 17011G17KT 10SM CLR 19/11 A2975 RMK AO2,KOZS,2022-10-23T08:15:00Z,37.97,-92.68,19.0,11.0,170,11,17,10.0,29.749016,,,TRUE,TRUE,,,,,,,CLR,,,,,,,,VFR,,,,,,,,,,,,SPECI,321.0
KOZA 230815Z AUTO 18015G24KT 10SM CLR 20/12 A2985 RMK AO2,KOZA,2022-10-23T08:15:00Z,30.73,-101.2,20.0,12.0,180,15,24,10.0,29.84941,,,TRUE,TRUE,,,,,,,CLR,,,,,,,,VFR,,,,,,,,,,,,METAR,721.0
KOXV 230815Z AUTO 14010KT 10SM CLR 17/11 A2965 RMK AO2,KOXV,2022-10-23T08:15:00Z,41.28,-93.12,17.0,11.0,140,10,,10.0,29.648623,,,TRUE,TRUE,,,,,,,CLR,,,,,,,,VFR,,,,,,,,,,,,METAR,280.0
KOXI 230815Z AUTO 16008KT 10SM CLR 13/11 A2998 RMK AO1,KOXI,2022-10-23T08:15:00Z,41.33,-86.67,13.0,11.0,160,8,,10.0,29.97933,,,TRUE,TRUE,,,,,,,CLR,,,,,,,,VFR,,,,,,,,,,,,METAR,208.0
KOXD 230815Z AUTO 18005KT 10SM CLR 17/09 A3011 RMK AO2 T01710091,KOXD,2022-10-23T08:15:00Z,39.5,-84.78,17.1,9.1,180,5,,10.0,30.109253,,,TRUE,TRUE,,,,,,,CLR,,,,,,,,VFR,,,,,,,,,,,,METAR,317.0
KOWX 230815Z AUTO 00000KT 10SM CLR 11/05 A3012 RMK AO1,KOWX,2022-10-23T08:15:00Z,41.03,-83.98,11.0,5.0,0,0,,10.0,30.121063,,,TRUE,TRUE,,,,,,,CLR,,,,,,,,VFR,,,,,,,,,,,,METAR,232.0
KOWP 230815Z AUTO 18012G24KT 10SM CLR 24/14 A2968 RMK AO2 T02430137,KOWP,2022-10-23T08:15:00Z,36.18,-96.15,24.3,13.7,180,12,24,10.0,29.681103,,,TRUE,TRUE,,,,,,,CLR,,,,,,,,VFR,,,,,,,,,,,,METAR,267.0
KOVL 230815Z AUTO 13008KT 10SM CLR 12/06 A2955 RMK AO2,KOVL,2022-10-23T08:15:00Z,44.78,-95.03,12.0,6.0,130,8,,10.0,29.551182,,,TRUE,TRUE,,,,,,,CLR,,,,,,,,VFR,,,,,,,,,,,,METAR,329.0
KOUN 230815Z AUTO 17016G22KT 10SM CLR 23/12 A2966 RMK AO2 T02340121,KOUN,2022-10-23T08:15:00Z,35.25,-97.47,23.4,12.1,170,16,22,10.0,29.660433,,,TRUE,TRUE,,,,,,,CLR,,,,,,,,VFR,,,,,,,,,,,,METAR,359.0
KOSC 230815Z AUTO 22004KT 10SM CLR 11/08 A3003 RMK AO2 T01100079,KOSC,2022-10-23T08:15:00Z,44.45,-83.4,11.0,7.9,220,4,,10.0,30.029528,,,TRUE,TRUE,,,,,,,CLR,,,,,,,,VFR,,,,,,,,,,,,METAR,191.0
KORS 230815Z AUTO 00000KT 9SM FEW040 SCT055 05/ A2992 RMK AO2,KORS,2022-10-23T08:15:00Z,48.7,-122.92,5.0,,0,0,,9.0,29.920275,,,TRUE,TRUE,,,,,,,FEW,4000,SCT,5500,,,,,VFR,,,,,,,,,,,,METAR,7.0
KORG 230815Z AUTO 00000KT 10SM BKN049 22/19 A2997 RMK AO2 T02190186,KORG,2022-10-23T08:15:00Z,30.07,-93.8,21.9,18.6,0,0,,10.0,29.970472,,,TRUE,TRUE,,,,,,,BKN,4900,,,,,,,VFR,,,,,,,,,,,,METAR,2.0
KOQN 230815Z AUTO 00000KT 10SM SCT032 09/07 A3025 RMK AO2,KOQN,2022-10-23T08:15:00Z,39.98,-75.58,9.0,7.0,0,0,,10.0,30.250984,,,TRUE,TRUE,,,,,,,SCT,3200,,,,,,,VFR,,,,,,,,,,,,METAR,141.0
KOPN 230815Z AUTO 00000KT 10SM CLR 08/05 A3018 RMK AO2,KOPN,2022-10-23T08:15:00Z,32.95,-84.27,8.0,5.0,0,0,,10.0,30.180119,,,TRUE,TRUE,,,,,,,CLR,,,,,,,,VFR,,,,,,,,,,,,METAR,241.0
KOPL 230815Z AUTO 13006KT 10SM CLR 17/16 A3002 RMK AO2 T01670156,KOPL,2022-10-23T08:15:00Z,30.55,-92.1,16.7,15.6,130,6,,10.0,30.02067,,,TRUE,TRUE,,,,,,,CLR,,,,,,,,VFR,,,,,,,,,,,,METAR,22.0
KOOA 230815Z AUTO 15014KT 10SM CLR 18/15 A2969 RMK AO2 T01820146,KOOA,2022-10-23T08:15:00Z,41.23,-92.5,18.2,14.6,150,14,,10.0,29.68996,,,TRUE,TRUE,,,,,,,CLR,,,,,,,,VFR,,,,,,,,,,,,METAR,256.0
KONZ 230815Z AUTO 18003KT 10SM BKN100 11/08 A3009 RMK AO2 T01070081,KONZ,2022-10-23T08:15:00Z,42.1,-83.15,10.7,8.1,180,3,,10.0,30.088583,,,TRUE,TRUE,,,,,,,BKN,10000,,,,,,,VFR,,,,,,,,,,,,METAR,179.0
KONX 230815Z AUTO 35009KT 10SM BKN010 OVC014 16/14 A3009 RMK AO2 T01560139,KONX,2022-10-23T08:15:00Z,36.4,-76.02,15.6,13.9,350,9,,10.0,30.088583,,,TRUE,TRUE,,,,,,,BKN,1000,OVC,1400,,,,,MVFR,,,,,,,,,,,,METAR,4.0
KONM 230815Z AUTO 19004KT 10SM SCT080 14/10 A2975 RMK AO2 T01430101,KONM,2022-10-23T08:15:00Z,34.02,-106.9,14.3,10.1,190,4,,10.0,29.749016,,,TRUE,TRUE,,,,,,,SCT,8000,,,,,,,VFR,,,,,,,,,,,,METAR,1467.0
KONL 230815Z AUTO 13008KT 10SM CLR 12/06 A2938 RMK AO2 T01180057,KONL,2022-10-23T08:15:00Z,42.47,-98.68,11.8,5.7,130,8,,10.0,29.379921,,,TRUE,TRUE,,,,,,,CLR,,,,,,,,VFR,,,,,,,,,,,,METAR,619.0
KONA 230815Z AUTO 16004KT 10SM CLR 18/08 A2971 RMK AO2,KONA,2022-10-23T08:15:00Z,44.07,-91.7,18.0,8.0,160,4,,10.0,29.71063,,,TRUE,TRUE,,,,,,,CLR,,,,,,,,VFR,,,,,,,,,,,,METAR,200.0
KOMH 230815Z AUTO 00000KT 10SM CLR 04/03 A3026 RMK AO2,KOMH,2022-10-23T08:15:00Z,38.25,-78.05,4.0,3.0,0,0,,10.0,30.259842,,,TRUE,TRUE,,,,,,,CLR,,,,,,,,VFR,,,,,,,,,,,,SPECI,136.0
KOLZ 230815Z AUTO 14011KT 10SM BKN075 15/10 A2972 RMK A01,KOLZ,2022-10-23T08:15:00Z,42.67,-91.97,15.0,10.0,140,11,,10.0,29.719488,,,TRUE,TRUE,,,,,,,BKN,7500,,,,,,,VFR,,,,,,,,,,,,METAR,328.0
KOLY 230815Z AUTO 16012G17KT 10SM OVC060 20/10 A2998 RMK AO2 T01950098,KOLY,2022-10-23T08:15:00Z,38.72,-88.18,19.5,9.8,160,12,17,10.0,29.97933,,,TRUE,TRUE,,,,,,,OVC,6000,,,,,,,VFR,,,,,,,,,,,,METAR,144.0
KOLV 230815Z AUTO 16005KT 10SM FEW050 17/12 A3002 RMK A01,KOLV,2022-10-23T08:15:00Z,34.98,-89.78,17.0,12.0,160,5,,10.0,30.02067,,,TRUE,TRUE,,,,,,,FEW,5000,,,,,,,VFR,,,,,,,,,,,,SPECI,124.0
KOLG 230815Z AUTO 02003KT 10SM CLR 05/04 A2968 RMK AO1,KOLG,2022-10-23T08:15:00Z,46.3,-91.82,5.0,4.0,20,3,,10.0,29.681103,,,TRUE,TRUE,,,,,,,CLR,,,,,,,,VFR,,,,,,,,,,,,METAR,334.0
KOLE 230815Z AUTO 21006KT 10SM CLR 08/00 A3024 RMK AO2,KOLE,2022-10-23T08:15:00Z,42.23,-78.37,8.0,0.0,210,6,,10.0,30.239174,,,TRUE,TRUE,,,,,,,CLR,,,,,,,,VFR,,,,,,,,,,,,METAR,651.0
KOKZ 230815Z AUTO 00000KT 10SM CLR 06/04 A3016 RMK AO2 T00560042,KOKZ,2022-10-23T08:15:00Z,32.97,-82.83,5.6,4.2,0,0,,10.0,30.159449,,,TRUE,TRUE,,,,,,,CLR,,,,,,,,VFR,,,,,,,,,,,,METAR,128.0
KOKV 230815Z AUTO 30003KT 7SM CLR 02/02 A3023 RMK AO2,KOKV,2022-10-23T08:15:00Z,39.13,-78.15,2.0,2.0,300,3,,7.0,30.230314,,,TRUE,TRUE,,,,,,,CLR,,,,,,,,VFR,,,,,,,,,,,,SPECI,213.0
KOKM 230815Z AUTO 18018G28KT 10SM CLR 23/14 A2971 RMK AO2 T02310139,KOKM,2022-10-23T08:15:00Z,35.67,-95.95,23.1,13.9,180,18,28,10.0,29.71063,,,TRUE,TRUE,,,,,,,CLR,,,,,,,,VFR,,,,,,,,,,,,METAR,215.0
KOJA 230815Z AUTO 20015G20KT 10SM CLR 22/12 A2962 RMK AO2 T02200121,KOJA,2022-10-23T08:15:00Z,35.55,-98.67,22.0,12.1,200,15,20,10.0,29.619095,,,TRUE,TRUE,,,,,,,CLR,,,,,,,,VFR,,,,,,,,,,,,SPECI,490.0
KOIN 230815Z AUTO 21008KT 10SM CLR 12/M03 A2940 RMK AO1 T01171031,KOIN,2022-10-23T08:15:00Z,39.83,-100.53,11.7,-3.1,210,8,,10.0,29.40059,,,TRUE,TRUE,,,,,,,CLR,,,,,,,,VFR,,,,,,,,,,,,SPECI,810.0
KOIC 230815Z AUTO 18003KT 10SM CLR 01/00 A3032 RMK AO2 T00050002,KOIC,2022-10-23T08:15:00Z,42.57,-75.52,0.5,0.2,180,3,,10.0,30.318897,,,TRUE,TRUE,,,,,,,CLR,,,,,,,,VFR,,,,,,,,,,,,METAR,311.0
KOGS 230815Z AUTO 00000KT 10SM CLR 06/04 A3023 RMK AO2,KOGS,2022-10-23T08:15:00Z,44.67,-75.47,6.0,4.0,0,0,,10.0,30.230314,,,TRUE,TRUE,,,,,,,CLR,,,,,,,,VFR,,,,,,,,,,,,METAR,88.0
KOGA 230815Z AUTO 00000KT 10SM CLR 06/00 A2931 RMK AO2 T00581002,KOGA,2022-10-23T08:15:00Z,41.12,-101.77,5.8,-0.2,0,0,,10.0,29.309055,,,TRUE,TRUE,,,,,,,CLR,,,,,,,,VFR,,,,,,,,,,,,METAR,991.0
KOEO 230815Z AUTO 00000KT 10SM CLR 14/10 A2968 RMK AO2 T01440103,KOEO,2022-10-23T08:15:00Z,45.32,-92.7,14.4,10.3,0,0,,10.0,29.681103,,,TRUE,TRUE,,,,,,,CLR,,,,,,,,VFR,,,,,,,,,,,,METAR,269.0
KOEL 230815Z AUTO 23010KT 10SM CLR 12/M05 A2940 RMK AO1 T01171055,KOEL,2022-10-23T08:15:00Z,39.12,-100.82,11.7,-5.5,230,10,,10.0,29.40059,,,TRUE,TRUE,,,,,,,CLR,,,,,,,,VFR,,,,,,,,,,,,METAR,924.0
KOEB 230815Z AUTO 16004KT 10SM CLR 13/09 A3005 RMK AO2 T01300093,KOEB,2022-10-23T08:15:00Z,41.92,-85.05,13.0,9.3,160,4,,10.0,30.050198,,,TRUE,TRUE,,,,,,,CLR,,,,,,,,VFR,,,,,,,,,,,,METAR,291.0
KOCQ 230815Z AUTO 14003KT 10SM CLR 10/10 A2986 RMK AO1 T01000099,KOCQ,2022-10-23T08:15:00Z,44.87,-87.92,10.0,9.9,140,3,,10.0,29.861221,,,TRUE,TRUE,,,,,,,CLR,,,,,,,,VFR,,,,,,,,,,,,METAR,181.0
KOBE 230815Z AUTO 36005KT 10SM CLR 18/18 A3002 RMK AO2,KOBE,2022-10-23T08:15:00Z,27.27,-80.85,18.0,18.0,360,5,,10.0,30.02067,,,TRUE,TRUE,,,,,,,CLR,,,,,,,,VFR,,,,,,,,,,,,METAR,11.0
KOAR 230815Z AUTO 24005KT 7SM CLR M12/M18 A2986 RMK AO2 PWINO,KOAR,2022-10-23T08:15:00Z,36.67,-121.77,-12.0,-18.0,240,5,,7.0,29.861221,,,TRUE,TRUE,,,,,TRUE,,CLR,,,,,,,,VFR,,,,,,,,,,,,METAR,41.0
KO69 230815Z AUTO VRB05G11KT 10SM CLR 11/02 A2988 RMK A01,KO69,2022-10-23T08:15:00Z,38.25,-122.6,11.0,2.0,0,5,11,10.0,29.878937,,,TRUE,TRUE,,,,,,,CLR,,,,,,,,VFR,,,,,,,,,,,,METAR,26.0
KO32 230815Z AUTO 25003KT 9SM CLR 11/06 A2978 RMK AO2 T01060059 $,KO32,2022-10-23T08:15:00Z,36.67,-119.45,10.6,5.9,250,3,,9.0,29.778543,,,TRUE,TRUE,TRUE,,,,,,CLR,,,,,,,,VFR,,,,,,,,,,,,METAR,117.0
KO22 230815Z AUTO 00000KT 10SM CLR 05/M00 A2980 RMK A01,KO22,2022-10-23T08:15:00Z,38.03,-120.42,5.0,0.0,0,0,,10.0,29.799213,,,TRUE,TRUE,,,,,,,CLR,,,,,,,,VFR,,,,,,,,,,,,METAR,637.0
KO05 230815Z AUTO 00000KT 10SM FEW040 02/M05 A2988 RMK A01,KO05,2022-10-23T08:15:00Z,40.28,-121.23,2.0,-5.0,0,0,,10.0,29.878937,,,TRUE,TRUE,,,,,,,FEW,4000,,,,,,,VFR,,,,,,,,,,,,METAR,1380.0
KNUQ 230815Z AUTO 24004KT 10SM CLR 13/06 A2988 RMK AO2,KNUQ,2022-10-23T08:15:00Z,37.4,-122.05,13.0,6.0,240,4,,10.0,29.878937,,,TRUE,TRUE,,,,,,,CLR,,,,,,,,VFR,,,,,,,,,,,,METAR,9.0
KNRN 230815Z AUTO 23007KT 10SM CLR 13/M01 A2940 RMK AO2,KNRN,2022-10-23T08:15:00Z,39.85,-99.9,13.0,-1.0,230,7,,10.0,29.40059,,,TRUE,TRUE,,,,,,,CLR,,,,,,,,VFR,,,,,,,,,,,,METAR,726.0
KNQA 230815Z AUTO 15007KT 10SM CLR 17/12 A2999 RMK A01,KNQA,2022-10-23T08:15:00Z,35.35,-89.87,17.0,12.0,150,7,,10.0,29.991142,,,TRUE,TRUE,,,,,,,CLR,,,,,,,,VFR,,,,,,,,,,,,SPECI,90.0
KNOW 230815Z AUTO 25005KT 10SM OVC050 09/06 A2993 RMK AO2 T00850056,KNOW,2022-10-23T08:15:00Z,48.13,-123.4,8.5,5.6,250,5,,10.0,29.929134,,,TRUE,TRUE,,,,,,,OVC,5000,,,,,,,VFR,,,,,,,,,,,,METAR,3.0
KN38 230815Z AUTO 00000KT 10SM CLR 04/03 A3025 RMK AO2,KN38,2022-10-23T08:15:00Z,41.73,-77.4,4.0,3.0,0,0,,10.0,30.250984,,,TRUE,TRUE,,,,,,,CLR,,,,,,,,VFR,,,,,,,,,,,,METAR,576.0
KN03 230815Z AUTO 00000KT 10SM CLR 01/00 A3028 RMK AO2,KN03,2022-10-23T08:15:00Z,42.6,-76.22,1.0,0.0,0,0,,10.0,30.280512,,,TRUE,TRUE,,,,,,,CLR,,,,,,,,VFR,,,,,,,,,,,,METAR,361.0
KMZZ 230815Z AUTO 17006KT 10SM CLR 14/10 A3006 RMK AO2 T01380099,KMZZ,2022-10-23T08:15:00Z,40.48,-85.68,13.8,9.9,170,6,,10.0,30.059055,,,TRUE,TRUE,,,,,,,CLR,,,,,,,,VFR,,,,,,,,,,,,METAR,260.0
KMZH 230815Z AUTO 05003KT 3SM BR CLR 07/06 A2966 RMK AO2,KMZH,2022-10-23T08:15:00Z,46.42,-92.8,7.0,6.0,50,3,,3.0,29.660433,,,TRUE,TRUE,,,,,,BR,CLR,,,,,,,,MVFR,,,,,,,,,,,,METAR,331.0
KMYJ 230815Z AUTO 15007KT 10SM CLR 17/12 A2976 RMK AO2,KMYJ,2022-10-23T08:15:00Z,39.15,-91.82,17.0,12.0,150,7,,10.0,29.760826,,,TRUE,TRUE,,,,,,,CLR,,,,,,,,VFR,,,,,,,,,,,,SPECI,249.0
KMWO 230815Z AUTO 00000KT 10SM CLR 10/09 A3013 RMK AO2 T01000095,KMWO,2022-10-23T08:15:00Z,39.53,-84.4,10.0,9.5,0,0,,10.0,30.129921,,,TRUE,TRUE,,,,,,,CLR,,,,,,,,VFR,,,,,,,,,,,,METAR,197.0
KMWM 230815Z AUTO 14008KT 10SM CLR 14/08 A2955 RMK AO2,KMWM,2022-10-23T08:15:00Z,43.9,-95.1,14.0,8.0,140,8,,10.0,29.551182,,,TRUE,TRUE,,,,,,,CLR,,,,,,,,VFR,,,,,,,,,,,,METAR,427.0
KMWK 230815Z AUTO 00000KT 10SM CLR 04/03 A3023 RMK AO2 T00410026,KMWK,2022-10-23T08:15:00Z,36.47,-80.55,4.1,2.6,0,0,,10.0,30.230314,,,TRUE,TRUE,,,,,,,CLR,,,,,,,,VFR,,,,,,,,,,,,METAR,374.0
KMWC 230815Z AUTO 18006KT 10SM CLR 16/09 A2990 RMK AO2,KMWC,2022-10-23T08:15:00Z,43.12,-88.03,16.0,9.0,180,6,,10.0,29.899607,,,TRUE,TRUE,,,,,,,CLR,,,,,,,,VFR,,,,,,,,,,,,METAR,225.0
KMWA 230815Z AUTO 17010G17KT 10SM CLR 18/12 A2997 RMK AO2 T01830115,KMWA,2022-10-23T08:15:00Z,37.77,-89.02,18.3,11.5,170,10,17,10.0,29.970472,,,TRUE,TRUE,,,,,,,CLR,,,,,,,,VFR,,,,,,,,,,,,METAR,142.0
KMVH 230815Z AUTO 31008G15KT 10SM OVC025 01/M01 A2949 RMK AO2 PWINO,KMVH,2022-10-23T08:15:00Z,46.83,-108.93,1.0,-1.0,310,8,15,10.0,29.489174,,,TRUE,TRUE,,,,,TRUE,,OVC,2500,,,,,,,MVFR,,,,,,,,,,,,METAR,1352.0
KMVE 230815Z AUTO 12007KT 10SM CLR 09/05 A2952 RMK AO2,KMVE,2022-10-23T08:15:00Z,44.97,-95.72,9.0,5.0,120,7,,10.0,29.518702,,,TRUE,TRUE,,,,,,,CLR,,,,,,,,VFR,,,,,,,,,,,,METAR,319.0
KMUT 230815Z AUTO 15006KT 10SM FEW075 17/13 A2976 RMK AO2,KMUT,2022-10-23T08:15:00Z,41.37,-91.15,17.0,13.0,150,6,,10.0,29.760826,,,TRUE,TRUE,,,,,,,FEW,7500,,,,,,,VFR,,,,,,,,,,,,METAR,166.0
KMTV 230815Z AUTO 31003KT 10SM CLR 01/00 A3024 RMK AO2 T00091002,KMTV,2022-10-23T08:15:00Z,36.63,-80.02,0.9,-0.2,310,3,,10.0,30.239174,,,TRUE,TRUE,,,,,,,CLR,,,,,,,,VFR,,,,,,,,,,,,SPECI,276.0
KMTK 230815Z AUTO 14009KT 10SM FEW042 23/13 A3006 RMK A01,KMTK,2022-10-23T08:15:00Z,,,23.0,13.0,140,9,,10.0,30.059055,,,TRUE,TRUE,,,,,,,FEW,4200,,,,,,,VFR,,,,,,,,,,,,METAR,
KMRT 230815Z AUTO 00000KT 10SM CLR 08/06 A3014 RMK AO2 T00840062,KMRT,2022-10-23T08:15:00Z,40.22,-83.35,8.4,6.2,0,0,,10.0,30.138779,,,TRUE,TRUE,,,,,,,CLR,,,,,,,,VFR,,,,,,,,,,,,METAR,302.0
KMRN 230815Z AUTO 00000KT 10SM CLR 02/02 A3024 RMK AO2 T00230018,KMRN,2022-10-23T08:15:00Z,35.82,-81.62,2.3,1.8,0,0,,10.0,30.239174,,,TRUE,TRUE,,,,,,,CLR,,,,,,,,VFR,,,,,,,,,,,,SPECI,375.0
KMRJ 230815Z AUTO 14008KT 10SM SCT120 15/10 A2981 RMK AO2,KMRJ,2022-10-23T08:15:00Z,42.88,-90.23,15.0,10.0,140,8,,10.0,29.811024,,,TRUE,TRUE,,,,,,,SCT,12000,,,,,,,VFR,,,,,,,,,,,,METAR,350.0
KMQW 230815Z AUTO 00000KT 10SM CLR 04/03 A3015 RMK AO2 T00410034,KMQW,2022-10-23T08:15:00Z,32.1,-82.88,4.1,3.4,0,0,,10.0,30.15059,,,TRUE,TRUE,,,,,,,CLR,,,,,,,,VFR,,,,,,,,,,,,METAR,62.0
KMQS 230815Z AUTO 36004KT 10SM CLR 08/08 A3027 RMK AO2,KMQS,2022-10-23T08:15:00Z,39.98,-75.87,8.0,8.0,360,4,,10.0,30.268702,,,TRUE,TRUE,,,,,,,CLR,,,,,,,,VFR,,,,,,,,,,,,METAR,200.0
KMQI 230815Z AUTO 03019G24KT 10SM OVC010 17/16 A3005 RMK AO2 T01720156,KMQI,2022-10-23T08:15:00Z,35.92,-75.7,17.2,15.6,30,19,24,10.0,30.050198,,,TRUE,TRUE,,,,,,,OVC,1000,,,,,,,MVFR,,,,,,,,,,,,METAR,3.0
KMQB 230815Z AUTO 14009KT 10SM CLR 15/11 A2982 RMK AO2 T01500109,KMQB,2022-10-23T08:15:00Z,40.52,-90.65,15.0,10.9,140,9,,10.0,29.819881,,,TRUE,TRUE,,,,,,,CLR,,,,,,,,VFR,,,,,,,,,,,,METAR,205.0
KMPR 230815Z AUTO 17012KT 10SM CLR 20/09 A2948 RMK AO2 T01950095,KMPR,2022-10-23T08:15:00Z,38.35,-97.68,19.5,9.5,170,12,,10.0,29.480314,,,TRUE,TRUE,,,,,,,CLR,,,,,,,,VFR,,,,,,,,,,,,METAR,455.0
KMOX 230815Z AUTO 13008KT 10SM CLR 10/02 A2953 RMK AO2,KMOX,2022-10-23T08:15:00Z,45.57,-95.97,10.0,2.0,130,8,,10.0,29.530512,,,TRUE,TRUE,,,,,,,CLR,,,,,,,,VFR,,,,,,,,,,,,METAR,346.0
KMOR 230815Z AUTO 00000KT 10SM CLR 08/07 A3017 RMK A01,KMOR,2022-10-23T08:15:00Z,36.18,-83.37,8.0,7.0,0,0,,10.0,30.171259,,,TRUE,TRUE,,,,,,,CLR,,,,,,,,VFR,,,,,,,,,,,,SPECI,393.0
KMOP 230815Z AUTO 00000KT 10SM CLR 10/09 A3002 RMK AO2 T00960088,KMOP,2022-10-23T08:15:00Z,43.62,-84.73,9.6,8.8,0,0,,10.0,30.02067,,,TRUE,TRUE,,,,,,,CLR,,,,,,,,VFR,,,,,,,,,,,,METAR,229.0
KMNZ 230815Z AUTO 18010KT 10SM CLR 20/17 A2984 RMK AO2 T02000170,KMNZ,2022-10-23T08:15:00Z,31.67,-98.15,20.0,17.0,180,10,,10.0,29.840551,,,TRUE,TRUE,,,,,,,CLR,,,,,,,,VFR,,,,,,,,,,,,METAR,397.0
KMNV 230815Z AUTO 00000KT 10SM 06/06 A3016 RMK A01,KMNV,2022-10-23T08:15:00Z,35.55,-84.38,6.0,6.0,0,0,,10.0,30.159449,,,TRUE,TRUE,,,,,,,,,,,,,,,,,,,,,,,,,,,SPECI,306.0
KMNI 230815Z AUTO 00000KT 10SM CLR 09/08 A3014 RMK AO2,KMNI,2022-10-23T08:15:00Z,33.58,-80.22,9.0,8.0,0,0,,10.0,30.138779,,,TRUE,TRUE,,,,,,,CLR,,,,,,,,VFR,,,,,,,,,,,,SPECI,29.0
KMNH 230815Z AUTO 18006G18KT 10SM CLR 11/M02 A2951 RMK AO2,KMNH,2022-10-23T08:15:00Z,39.22,-104.65,11.0,-2.0,180,6,18,10.0,29.509842,,,TRUE,TRUE,,,,,,,CLR,,,,,,,,VFR,,,,,,,,,,,,METAR,2152.0
KMNE 230815Z AUTO 15005KT 10SM SCT039 19/17 A2997 RMK AO2 T01920167,KMNE,2022-10-23T08:15:00Z,32.65,-93.3,19.2,16.7,150,5,,10.0,29.970472,,,TRUE,TRUE,,,,,,,SCT,3900,,,,,,,VFR,,,,,,,,,,,,SPECI,84.0
KMMU 230815Z AUTO 00000KT 7SM OVC034 06/05 A3028 RMK AO2,KMMU,2022-10-23T08:15:00Z,40.78,-74.42,6.0,5.0,0,0,,7.0,30.280512,,,TRUE,TRUE,,,,,,,OVC,3400,,,,,,,VFR,,,,,,,,,,,,METAR,55.0
KMMI 230815Z AUTO 00000KT 10SM FEW043 SCT050 05/05 A3018 RMK A01,KMMI,2022-10-23T08:15:00Z,35.4,-84.57,5.0,5.0,0,0,,10.0,30.180119,,,TRUE,TRUE,,,,,,,FEW,4300,SCT,5000,,,,,VFR,,,,,,,,,,,,SPECI,252.0
KMLJ 230815Z AUTO 00000KT 10SM CLR 08/07 A3016 RMK AO2 LTG DSNT N,KMLJ,2022-10-23T08:15:00Z,33.15,-83.25,8.0,7.0,0,0,,10.0,30.159449,,,TRUE,TRUE,,,,,,,CLR,,,,,,,,VFR,,,,,,,,,,,,METAR,115.0
KMLE 230815Z AUTO 12006KT 10SM CLR 18/12 A2948 RMK AO2 T01780122,KMLE,2022-10-23T08:15:00Z,41.2,-96.12,17.8,12.2,120,6,,10.0,29.480314,,,TRUE,TRUE,,,,,,,CLR,,,,,,,,VFR,,,,,,,,,,,,METAR,318.0
KMKS 230815Z AUTO 00000KT 10SM CLR 13/11 A3012 RMK AO2,KMKS,2022-10-23T08:15:00Z,33.18,-80.03,13.0,11.0,0,0,,10.0,30.121063,,,TRUE,TRUE,,,,,,,CLR,,,,,,,,VFR,,,,,,,,,,,,METAR,22.0
KMKN 230815Z AUTO 18010G16KT 10SM CLR 21/15 A2980 RMK AO2 T02050151,KMKN,2022-10-23T08:15:00Z,31.92,-98.6,20.5,15.1,180,10,16,10.0,29.799213,,,TRUE,TRUE,,,,,,,CLR,,,,,,,,VFR,,,,,,,,,,,,METAR,428.0
KMKJ 230815Z AUTO 00000KT 10SM CLR 01/00 A3026 RMK AO2 T00070000,KMKJ,2022-10-23T08:15:00Z,36.88,-81.33,0.7,0.0,0,0,,10.0,30.259842,,,TRUE,TRUE,,,,,,,CLR,,,,,,,,VFR,,,,,,,,,,,,SPECI,777.0
KMJQ 230815Z AUTO 15009KT 10SM CLR 13/08 A2957 RMK AO2,KMJQ,2022-10-23T08:15:00Z,43.63,-94.98,13.0,8.0,150,9,,10.0,29.568897,,,TRUE,TRUE,,,,,,,CLR,,,,,,,,VFR,,,,,,,,,,,,METAR,439.0
KMJD 230815Z AUTO 00000KT 10SM CLR 14/14 A3007 RMK AO2,KMJD,2022-10-23T08:15:00Z,30.48,-89.65,14.0,14.0,0,0,,10.0,30.070866,,,TRUE,TRUE,,,,,,,CLR,,,,,,,,VFR,,,,,,,,,,,,METAR,17.0
KMIO 230815Z AUTO 16016G24KT 10SM CLR 22/12 A2968 RMK AO2,KMIO,2022-10-23T08:15:00Z,36.92,-94.88,22.0,12.0,160,16,24,10.0,29.681103,,,TRUE,TRUE,,,,,,,CLR,,,,,,,,VFR,,,,,,,,,,,,SPECI,245.0
KMHR 230815Z AUTO 33012KT 10SM CLR 14/00 A2980 RMK A01,KMHR,2022-10-23T08:15:00Z,38.55,-121.28,14.0,0.0,330,12,,10.0,29.799213,,,TRUE,TRUE,,,,,,,CLR,,,,,,,,VFR,,,,,,,,,,,,METAR,30.0
KMHP 230815Z AUTO 28003KT 10SM CLR 07/06 A3014 RMK AO2 T00660065,KMHP,2022-10-23T08:15:00Z,32.37,-82.08,6.6,6.5,280,3,,10.0,30.138779,,,TRUE,TRUE,,,,,,,CLR,,,,,,,,VFR,,,,,,,,,,,,METAR,60.0
KMHL 230815Z AUTO 14009KT 10SM CLR 17/12 A2969 RMK AO2,KMHL,2022-10-23T08:15:00Z,39.1,-93.2,17.0,12.0,140,9,,10.0,29.68996,,,TRUE,TRUE,,,,,,,CLR,,,,,,,,VFR,,,,,,,,,,,,METAR,236.0
KMGR 230815Z AUTO 00000KT 10SM CLR 07/05 A3014 RMK AO2,KMGR,2022-10-23T08:15:00Z,31.08,-83.8,7.0,5.0,0,0,,10.0,30.138779,,,TRUE,TRUE,,,,,,,CLR,,,,,,,,VFR,,,,,,,,,,,,METAR,86.0
KMGN 230815Z AUTO 21005KT 10SM CLR 17/11 A2997 RMK AO2 T01800108,KMGN,2022-10-23T08:15:00Z,45.43,-84.92,18.0,10.8,210,5,,10.0,29.970472,,,TRUE,TRUE,,,,,,,CLR,,,,,,,,VFR,,,,,,,,,,,,METAR,205.0
KMGG 230815Z AUTO 14003KT 10SM CLR 14/07 A2961 RMK AO2 T01350070 PWINO,KMGG,2022-10-23T08:15:00Z,45.23,-93.98,13.5,7.0,140,3,,10.0,29.610237,,,TRUE,TRUE,,,,,TRUE,,CLR,,,,,,,,VFR,,,,,,,,,,,,METAR,310.0
KMGC 230815Z AUTO 16005KT 10SM CLR 15/10 A2997 RMK AO2,KMGC,2022-10-23T08:15:00Z,41.7,-86.82,15.0,10.0,160,5,,10.0,29.970472,,,TRUE,TRUE,,,,,,,CLR,,,,,,,,VFR,,,,,,,,,,,,METAR,199.0
KMFV 230815Z AUTO 01006KT 10SM BKN014 OVC021 12/10 A3015 RMK AO2 T01160100,KMFV,2022-10-23T08:15:00Z,37.63,-75.77,11.6,10.0,10,6,,10.0,30.15059,,,TRUE,TRUE,,,,,,,BKN,1400,OVC,2100,,,,,MVFR,,,,,,,,,,,,METAR,13.0
KMEZ 230815Z AUTO 22008KT 170V360 10SM 20/15 A2988 RMK AO2 T02000155 $,KMEZ,2022-10-23T08:15:00Z,34.55,-94.2,20.0,15.5,220,8,,10.0,29.878937,,,TRUE,TRUE,TRUE,,,,,,,,,,,,,,,,,,,,,,,,,,SPECI,320.0
KMEV 230815Z AUTO 15004KT 10SM CLR M03/M04 A2985 RMK AO2,KMEV,2022-10-23T08:15:00Z,38.98,-119.75,-3.0,-4.0,150,4,,10.0,29.84941,,,TRUE,TRUE,,,,,,,CLR,,,,,,,,VFR,,,,,,,,,,,,METAR,1437.0
KMER 230815Z AUTO 04003KT 10SM CLR 12/03 A2980 RMK AO1,KMER,2022-10-23T08:15:00Z,37.38,-120.57,12.0,3.0,40,3,,10.0,29.799213,,,TRUE,TRUE,,,,,,,CLR,,,,,,,,VFR,,,,,,,,,,,,METAR,58.0
KMDZ 230815Z AUTO 15006KT 10SM CLR 13/09 A2978 RMK AO2 T01330093 PWINO,KMDZ,2022-10-23T08:15:00Z,45.1,-90.3,13.3,9.3,150,6,,10.0,29.778543,,,TRUE,TRUE,,,,,TRUE,,CLR,,,,,,,,VFR,,,,,,,,,,,,METAR,446.0
KMDS 230815Z AUTO 13006KT 10SM CLR 11/07 A2948 RMK AO2,KMDS,2022-10-23T08:15:00Z,44.02,-97.08,11.0,7.0,130,6,,10.0,29.480314,,,TRUE,TRUE,,,,,,,CLR,,,,,,,,VFR,,,,,,,,,,,,METAR,524.0
KMDQ 230815Z AUTO 00000KT 10SM CLR 09/08 A3013 RMK A02 T00900081,KMDQ,2022-10-23T08:15:00Z,34.87,-86.55,9.0,8.1,0,0,,10.0,30.129921,,,TRUE,TRUE,,,,,,,CLR,,,,,,,,VFR,,,,,,,,,,,,METAR,221.0
KMDD 230815Z AUTO 18014G19KT 10SM CLR 19/12 A2978 RMK AO2 T01940123,KMDD,2022-10-23T08:15:00Z,32.03,-102.1,19.4,12.3,180,14,19,10.0,29.778543,,,TRUE,TRUE,,,,,,,CLR,,,,,,,,VFR,,,,,,,,,,,,METAR,853.0
KMCD 230815Z AUTO 19006KT 10SM CLR 11/09 A2997 RMK AO2 T01120089,KMCD,2022-10-23T08:15:00Z,45.85,-84.63,11.2,8.9,190,6,,10.0,29.970472,,,TRUE,TRUE,,,,,,,CLR,,,,,,,,VFR,,,,,,,,,,,,METAR,228.0
KMCC 230815Z AUTO 34011KT 10SM CLR 13/01 A2981 RMK AO2,KMCC,2022-10-23T08:15:00Z,38.67,-121.4,13.0,1.0,340,11,,10.0,29.811024,,,TRUE,TRUE,,,,,,,CLR,,,,,,,,VFR,,,,,,,,,,,,METAR,21.0
KMBY 230815Z AUTO 15009KT 10SM CLR 18/11 A2973 RMK AO2,KMBY,2022-10-23T08:15:00Z,39.47,-92.43,18.0,11.0,150,9,,10.0,29.731298,,,TRUE,TRUE,,,,,,,CLR,,,,,,,,VFR,,,,,,,,,,,,SPECI,263.0
KMBT 230815Z AUTO 00000KT 10SM FEW034 BKN044 BKN050 13/09 A3010 RMK A01,KMBT,2022-10-23T08:15:00Z,35.88,-86.38,13.0,9.0,0,0,,10.0,30.100393,,,TRUE,TRUE,,,,,,,FEW,3400,BKN,4400,BKN,5000,,,VFR,,,,,,,,,,,,SPECI,187.0
KMBO 230815Z AUTO 00000KT 10SM CLR 15/15 A3007 RMK AO2,KMBO,2022-10-23T08:15:00Z,32.43,-90.1,15.0,15.0,0,0,,10.0,30.070866,,,TRUE,TRUE,,,,,,,CLR,,,,,,,,VFR,,,,,,,,,,,,SPECI,98.0
KMAW 230815Z AUTO 17013KT 10SM CLR 17/11 A2996 RMK AO1,KMAW,2022-10-23T08:15:00Z,36.6,-90.0,17.0,11.0,170,13,,10.0,29.958662,,,TRUE,TRUE,,,,,,,CLR,,,,,,,,VFR,,,,,,,,,,,,METAR,88.0
KMAO 230815Z AUTO 02003KT 10SM CLR 11/09 A3013 RMK AO2,KMAO,2022-10-23T08:15:00Z,34.18,-79.33,11.0,9.0,20,3,,10.0,30.129921,,,TRUE,TRUE,,,,,,,CLR,,,,,,,,VFR,,,,,,,,,,,,SPECI,27.0
KMAN 230815Z AUTO 31009KT 10SM FEW001 04/01 A2976 RMK A01,KMAN,2022-10-23T08:15:00Z,43.58,-116.52,4.0,1.0,310,9,,10.0,29.760826,,,TRUE,TRUE,,,,,,,FEW,100,,,,,,,VFR,,,,,,,,,,,,METAR,773.0
KM75 230815Z AUTO 03014KT 8SM OVC019 05/05 A2951 RMK A01,KM75,2022-10-23T08:15:00Z,48.37,-107.92,5.0,5.0,30,14,,8.0,29.509842,,,TRUE,TRUE,,,,,,,OVC,1900,,,,,,,MVFR,,,,,,,,,,,,METAR,687.0
KM40 230815Z AUTO 15004KT 10SM CLR 14/12 A3010 RMK AO2,KM40,2022-10-23T08:15:00Z,33.87,-88.48,14.0,12.0,150,4,,10.0,30.100393,,,TRUE,TRUE,,,,,,,CLR,,,,,,,,VFR,,,,,,,,,,,,SPECI,68.0
KM30 230815Z AUTO 17010G16KT 10SM OVC060 20/11 A3000 RMK AO2 T01950108,KM30,2022-10-23T08:15:00Z,37.18,-88.75,19.5,10.8,170,10,16,10.0,30.0,,,TRUE,TRUE,,,,,,,OVC,6000,,,,,,,VFR,,,,,,,,,,,,METAR,116.0
KM21 230815Z AUTO 16005KT 10SM OVC065 17/11 A3007 RMK AO2 T01720110,KM21,2022-10-23T08:15:00Z,37.22,-87.15,17.2,11.0,160,5,,10.0,30.070866,,,TRUE,TRUE,,,,,,,OVC,6500,,,,,,,VFR,,,,,,,,,,,,SPECI,127.0
KM08 230815Z AUTO 15007KT 10SM OVC055 18/12 A3004 RMK A01,KM08,2022-10-23T08:15:00Z,35.22,-89.05,18.0,12.0,150,7,,10.0,30.041338,,,TRUE,TRUE,,,,,,,OVC,5500,,,,,,,VFR,,,,,,,,,,,,SPECI,149.0
KM04 230815Z AUTO 19010G16KT 10SM FEW055 18/12 A3000 RMK A01,KM04,2022-10-23T08:15:00Z,35.58,-89.58,18.0,12.0,190,10,16,10.0,30.0,,,TRUE,TRUE,,,,,,,FEW,5500,,,,,,,VFR,,,,,,,,,,,,METAR,83.0
KM02 230815Z AUTO VRB05KT 10SM 16/11 A3008 RMK A01,KM02,2022-10-23T08:15:00Z,36.13,-87.43,16.0,11.0,0,5,,10.0,30.079725,,,TRUE,TRUE,,,,,,,,,,,,,,,,,,,,,,,,,,,METAR,268.0
KM01 230815Z AUTO 17010KT 10SM CLR 19/13 A2999 RMK AO2 T01920132 $,KM01,2022-10-23T08:15:00Z,35.2,-90.05,19.2,13.2,170,10,,10.0,29.991142,,,TRUE,TRUE,TRUE,,,,,,CLR,,,,,,,,VFR,,,,,,,,,,,,METAR,69.0
KLZZ 230815Z AUTO 21007KT 10SM CLR 20/17 A2981 RMK AO2 T02010170,KLZZ,2022-10-23T08:15:00Z,31.1,-98.2,20.1,17.0,210,7,,10.0,29.811024,,,TRUE,TRUE,,,,,,,CLR,,,,,,,,VFR,,,,,,,,,,,,METAR,356.0
KLYV 230815Z AUTO 14005KT 10SM CLR 12/07 A2951 RMK AO2,KLYV,2022-10-23T08:15:00Z,43.62,-96.22,12.0,7.0,140,5,,10.0,29.509842,,,TRUE,TRUE,,,,,,,CLR,,,,,,,,VFR,,,,,,,,,,,,METAR,435.0
KLYO 230815Z AUTO 18012KT 10SM CLR 19/07 A2946 RMK AO2 T01930069,KLYO,2022-10-23T08:15:00Z,38.35,-98.23,19.3,6.9,180,12,,10.0,29.459646,,,TRUE,TRUE,,,,,,,CLR,,,,,,,,VFR,,,,,,,,,,,,METAR,515.0
KLXY 230815Z AUTO 18014KT 10SM CLR 21/16 A2986 RMK AO2 T02120162,KLXY,2022-10-23T08:15:00Z,31.63,-96.52,21.2,16.2,180,14,,10.0,29.861221,,,TRUE,TRUE,,,,,,,CLR,,,,,,,,VFR,,,,,,,,,,,,METAR,164.0
KLXN 230815Z AUTO 13006KT 10SM CLR 09/03 A2935 RMK AO2 T00890026,KLXN,2022-10-23T08:15:00Z,40.78,-99.77,8.9,2.6,130,6,,10.0,29.350393,,,TRUE,TRUE,,,,,,,CLR,,,,,,,,VFR,,,,,,,,,,,,METAR,734.0
KLXL 230815Z AUTO 13003KT 10SM CLR 13/06 A2959 RMK AO2,KLXL,2022-10-23T08:15:00Z,45.95,-94.33,13.0,6.0,130,3,,10.0,29.589567,,,TRUE,TRUE,,,,,,,CLR,,,,,,,,VFR,,,,,,,,,,,,METAR,335.0
KLWB 230815Z AUTO 00000KT 10SM CLR 02/01 A3024 RMK AO2 T00210005,KLWB,2022-10-23T08:15:00Z,37.87,-80.4,2.1,0.5,0,0,,10.0,30.239174,,,TRUE,TRUE,,,,,,,CLR,,,,,,,,VFR,,,,,,,,,,,,METAR,702.0
KLWA 230815Z AUTO 14004KT 10SM CLR 16/11 A2999 RMK AO2 T01550110,KLWA,2022-10-23T08:15:00Z,42.35,-86.25,15.5,11.0,140,4,,10.0,29.991142,,,TRUE,TRUE,,,,,,,CLR,,,,,,,,VFR,,,,,,,,,,,,METAR,199.0
KLVN 230815Z AUTO 00000KT 10SM CLR 13/06 A2964 RMK AO2,KLVN,2022-10-23T08:15:00Z,44.63,-93.23,13.0,6.0,0,0,,10.0,29.639763,,,TRUE,TRUE,,,,,,,CLR,,,,,,,,VFR,,,,,,,,,,,,METAR,292.0
KLVL 230815Z AUTO 00000KT 10SM CLR 11/09 A3019 RMK AO1 T01070092,KLVL,2022-10-23T08:15:00Z,36.78,-77.8,10.7,9.2,0,0,,10.0,30.188976,,,TRUE,TRUE,,,,,,,CLR,,,,,,,,VFR,,,,,,,,,,,,SPECI,98.0
KLUX 230815Z AUTO 34006KT 10SM CLR 06/04 A3019 RMK AO2,KLUX,2022-10-23T08:15:00Z,34.5,-81.95,6.0,4.0,340,6,,10.0,30.188976,,,TRUE,TRUE,,,,,,,CLR,,,,,,,,VFR,,,,,,,,,,,,SPECI,213.0
KLUV 230815Z AUTO 19009KT 10SM BKN090 BKN120 17/13 A2978 RMK AO2,KLUV,2022-10-23T08:15:00Z,32.75,-101.92,17.0,13.0,190,9,,10.0,29.778543,,,TRUE,TRUE,,,,,,,BKN,9000,BKN,12000,,,,,VFR,,,,,,,,,,,,METAR,910.0
KLUM 230815Z AUTO 12004KT 10SM CLR 14/12 A2969 RMK AO2 T01390115,KLUM,2022-10-23T08:15:00Z,44.9,-91.87,13.9,11.5,120,4,,10.0,29.68996,,,TRUE,TRUE,,,,,,,CLR,,,,,,,,VFR,,,,,,,,,,,,METAR,271.0
KLUL 230815Z AUTO 00000KT 10SM CLR 12/12 A3011 RMK A02 T01240120,KLUL,2022-10-23T08:15:00Z,31.67,-89.17,12.4,12.0,0,0,,10.0,30.109253,,,TRUE,TRUE,,,,,,,CLR,,,,,,,,VFR,,,,,,,,,,,,METAR,74.0
KLUG 230815Z AUTO 00000KT 6SM BR CLR 08/08 A3011 RMK A01,KLUG,2022-10-23T08:15:00Z,35.52,-86.8,8.0,8.0,0,0,,6.0,30.109253,,,TRUE,TRUE,,,,,,BR,CLR,,,,,,,,VFR,,,,,,,,,,,,METAR,218.0
KLUA 230815Z AUTO 00000KT 10SM CLR 02/02 A3024 RMK AO2,KLUA,2022-10-23T08:15:00Z,38.67,-78.5,2.0,2.0,0,0,,10.0,30.239174,,,TRUE,TRUE,,,,,,,CLR,,,,,,,,VFR,,,,,,,,,,,,METAR,273.0
KLRY 230815Z AUTO 17007KT 10SM CLR 19/12 A2966 RMK AO2,KLRY,2022-10-23T08:15:00Z,38.62,-94.35,19.0,12.0,170,7,,10.0,29.660433,,,TRUE,TRUE,,,,,,,CLR,,,,,,,,VFR,,,,,,,,,,,,SPECI,272.0
KLRU 230815Z AUTO 23013KT 10SM CLR 20/08 A2982 RMK AO2 T01960080,KLRU,2022-10-23T08:15:00Z,32.28,-106.92,19.6,8.0,230,13,,10.0,29.819881,,,TRUE,TRUE,,,,,,,CLR,,,,,,,,VFR,,,,,,,,,,,,METAR,1355.0
KLRO 230815Z AUTO 00000KT 10SM CLR 14/13 A3010 RMK AO2,KLRO,2022-10-23T08:15:00Z,32.9,-79.78,14.0,13.0,0,0,,10.0,30.100393,,,TRUE,TRUE,,,,,,,CLR,,,,,,,,VFR,,,,,,,,,,,,SPECI,3.0
KLRJ 230815Z AUTO 14010KT 10SM CLR 14/10 A2947 RMK AO2,KLRJ,2022-10-23T08:15:00Z,42.77,-96.2,14.0,10.0,140,10,,10.0,29.471457,,,TRUE,TRUE,,,,,,,CLR,,,,,,,,VFR,,,,,,,,,,,,METAR,363.0
KLQK 230815Z AUTO 10SM CLR 03/03 A3019 RMK AO2 T00320030,KLQK,2022-10-23T08:15:00Z,34.82,-82.7,3.2,3.0,,,,10.0,30.188976,,,TRUE,TRUE,,,,,,,CLR,,,,,,,,VFR,,,,,,,,,,,,SPECI,291.0
KLOT 230815Z AUTO 16014KT 10SM CLR 16/11 A2992 RMK AO2,KLOT,2022-10-23T08:15:00Z,41.6,-88.1,16.0,11.0,160,14,,10.0,29.920275,,,TRUE,TRUE,,,,,,,CLR,,,,,,,,VFR,,,,,,,,,,,,METAR,205.0
KLOM 230815Z AUTO 34003KT 10SM OVC024 08/07 A3026 RMK AO2 T00750073,KLOM,2022-10-23T08:15:00Z,40.13,-75.27,7.5,7.3,340,3,,10.0,30.259842,,,TRUE,TRUE,,,,,,,OVC,2400,,,,,,,MVFR,,,,,,,,,,,,METAR,87.0
KLNQ 230815Z AUTO 00000KT 10SM CLR 19/16 A3009 RMK AO2 T01890163,KLNQ,2022-10-23T08:15:00Z,29.35,-89.43,18.9,16.3,0,0,,10.0,30.088583,,,TRUE,TRUE,,,,,,,CLR,,,,,,,,VFR,,,,,,,,,,,,METAR,1.0
KLNP 230815Z AUTO 17005KT 10SM CLR 11/01 A3023 RMK AO2,KLNP,2022-10-23T08:15:00Z,36.98,-82.52,11.0,1.0,170,5,,10.0,30.230314,,,TRUE,TRUE,,,,,,,CLR,,,,,,,,VFR,,,,,,,,,,,,SPECI,817.0
KLNN 230815Z AUTO 16005KT 10SM CLR 15/05 A3015 RMK AO1 T01470045,KLNN,2022-10-23T08:15:00Z,41.68,-81.38,14.7,4.5,160,5,,10.0,30.15059,,,TRUE,TRUE,,,,,,,CLR,,,,,,,,VFR,,,,,,,,,,,,METAR,190.0
KLNL 230815Z AUTO 16004KT 10SM CLR 14/09 A2982 RMK AO2 T01410087,KLNL,2022-10-23T08:15:00Z,46.15,-89.22,14.1,8.7,160,4,,10.0,29.819881,,,TRUE,TRUE,,,,,,,CLR,,,,,,,,VFR,,,,,,,,,,,,METAR,517.0
KLNC 230815Z AUTO 17011G19KT 10SM CLR 21/16 A2983 RMK AO2 T02120158,KLNC,2022-10-23T08:15:00Z,32.58,-96.72,21.2,15.8,170,11,19,10.0,29.828741,,,TRUE,TRUE,,,,,,,CLR,,,,,,,,VFR,,,,,,,,,,,,METAR,152.0
KLNA 230815Z AUTO 32003KT 10SM CLR 21/20 A3000 RMK AO2 T02100201 PNO,KLNA,2022-10-23T08:15:00Z,26.6,-80.08,21.0,20.1,320,3,,10.0,30.0,,,TRUE,TRUE,,,,,,,CLR,,,,,,,,VFR,,,,,,,,,,,,METAR,3.0
KLMO 230815Z AUTO 18004KT 7SM CLR 09/M03 A2936 RMK AO2 T00871030,KLMO,2022-10-23T08:15:00Z,40.17,-105.17,8.7,-3.0,180,4,,7.0,29.359253,,,TRUE,TRUE,,,,,,,CLR,,,,,,,,VFR,,,,,,,,,,,,METAR,1535.0
KLLN 230815Z AUTO 20011KT 10SM CLR 16/13 A2976 RMK AO2,KLLN,2022-10-23T08:15:00Z,33.55,-102.37,16.0,13.0,200,11,,10.0,29.760826,,,TRUE,TRUE,,,,,,,CLR,,,,,,,,VFR,,,,,,,,,,,,METAR,1071.0
KLKU 230815Z AUTO 00000KT 5SM HZ CLR 04/ A3023 RMK AO2 T0040////,KLKU,2022-10-23T08:15:00Z,38.02,-77.97,4.0,,0,0,,5.0,30.230314,,,TRUE,TRUE,,,,,,HZ,CLR,,,,,,,,MVFR,,,,,,,,,,,,SPECI,146.0
KLKR 230815Z AUTO 00000KT 10SM SCT033 OVC039 05/04 A3017 RMK AO2,KLKR,2022-10-23T08:15:00Z,34.72,-80.85,5.0,4.0,0,0,,10.0,30.171259,,,TRUE,TRUE,,,,,,,SCT,3300,OVC,3900,,,,,VFR,,,,,,,,,,,,SPECI,166.0
KLJF 230815Z AUTO 14005KT 10SM CLR 12/06 A2957 RMK AO2,KLJF,2022-10-23T08:15:00Z,45.1,-94.52,12.0,6.0,140,5,,10.0,29.568897,,,TRUE,TRUE,,,,,,,CLR,,,,,,,,VFR,,,,,,,,,,,,METAR,347.0
KLHZ 230815Z AUTO 00000KT 10SM CLR 08/07 A3019 RMK AO2,KLHZ,2022-10-23T08:15:00Z,36.02,-78.33,8.0,7.0,0,0,,10.0,30.188976,,,TRUE,TRUE,,,,,,,CLR,,,,,,,,VFR,,,,,,,,,,,,SPECI,104.0
KLHM 230815Z AUTO 31003KT 10SM CLR 11/01 A2982 RMK AO1,KLHM,2022-10-23T08:15:00Z,38.92,-121.35,11.0,1.0,310,3,,10.0,29.819881,,,TRUE,TRUE,,,,,,,CLR,,,,,,,,VFR,,,,,,,,,,,,METAR,36.0
KLHB 230815Z AUTO 14004KT 10SM CLR 20/16 A2988 RMK AO2 T01960162,KLHB,2022-10-23T08:15:00Z,30.87,-96.62,19.6,16.2,140,4,,10.0,29.878937,,,TRUE,TRUE,,,,,,,CLR,,,,,,,,VFR,,,,,,,,,,,,METAR,83.0
KLGC 230815Z AUTO 00000KT 7SM CLR 04/03 A3017 RMK AO2 T00360026,KLGC,2022-10-23T08:15:00Z,33.0,-85.07,3.6,2.6,0,0,,7.0,30.171259,,,TRUE,TRUE,,,,,,,CLR,,,,,,,,VFR,,,,,,,,,,,,METAR,209.0
KLDM 230815Z AUTO 19010G18KT 10SM CLR 19/12 A2995 RMK AO2 T01900115,KLDM,2022-10-23T08:15:00Z,43.97,-86.4,19.0,11.5,190,10,18,10.0,29.949802,,,TRUE,TRUE,,,,,,,CLR,,,,,,,,VFR,,,,,,,,,,,,METAR,194.0
KLDJ 230815Z AUTO 03004KT 10SM OVC036 13/07 A3026 RMK AO2 T01250069,KLDJ,2022-10-23T08:15:00Z,40.62,-74.25,12.5,6.9,30,4,,10.0,30.259842,,,TRUE,TRUE,,,,,,,OVC,3600,,,,,,,VFR,,,,,,,,,,,,METAR,6.0
KLCQ 230815Z AUTO 00000KT 10SM CLR 07/07 A3011 RMK AO2,KLCQ,2022-10-23T08:15:00Z,30.18,-82.58,7.0,7.0,0,0,,10.0,30.109253,,,TRUE,TRUE,,,,,,,CLR,,,,,,,,VFR,,,,,,,,,,,,METAR,59.0
KLCG 230815Z AUTO 15004KT 10SM CLR 12/09 A2945 RMK AO2 T01150088,KLCG,2022-10-23T08:15:00Z,42.25,-96.98,11.5,8.8,150,4,,10.0,29.450787,,,TRUE,TRUE,,,,,,,CLR,,,,,,,,VFR,,,,,,,,,,,,METAR,434.0
KLBO 230815Z AUTO 17013G22KT 10SM CLR 19/11 A2978 RMK AO2,KLBO,2022-10-23T08:15:00Z,37.65,-92.65,19.0,11.0,170,13,22,10.0,29.778543,,,TRUE,TRUE,,,,,,,CLR,,,,,,,,VFR,,,,,,,,,,,,SPECI,399.0
KLBE 230815Z AUTO 00000KT 10SM CLR 05/03 A3021 RMK AO2,KLBE,2022-10-23T08:15:00Z,40.27,-79.4,5.0,3.0,0,0,,10.0,30.209646,,,TRUE,TRUE,,,,,,,CLR,,,,,,,,VFR,,,,,,,,,,,,METAR,345.0
KLAM 230815Z AUTO 19017G30KT 10SM SCT042 SCT050 BKN070 13/06 A2977 RMK AO2 LTG DSNT NE T01250057,KLAM,2022-10-23T08:15:00Z,35.87,-106.27,12.5,5.7,190,17,30,10.0,29.769686,,,TRUE,TRUE,,,,,,,SCT,4200,SCT,5000,BKN,7000,,,VFR,,,,,,,,,,,,METAR,2166.0
KLAL 230815Z AUTO 36003KT 10SM CLR 16/14 A3007 RMK AO2 T01610137,KLAL,2022-10-23T08:15:00Z,27.98,-82.02,16.1,13.7,360,3,,10.0,30.070866,,,TRUE,TRUE,,,,,,,CLR,,,,,,,,VFR,,,,,,,,,,,,METAR,39.0
KL52 230815Z AUTO 00000KT 7SM CLR 10/10 A2984 RMK A01,KL52,2022-10-23T08:15:00Z,35.1,-120.62,10.0,10.0,0,0,,7.0,29.840551,,,TRUE,TRUE,,,,,,,CLR,,,,,,,,VFR,,,,,,,,,,,,METAR,3.0
KL35 230815Z AUTO 24010G18KT 10SM SCT014 BKN019 BKN026 03/01 A2984 RMK AO2,KL35,2022-10-23T08:15:00Z,34.27,-116.85,3.0,1.0,240,10,18,10.0,29.840551,,,TRUE,TRUE,,,,,,,SCT,1400,BKN,1900,BKN,2600,,,MVFR,,,,,,,,,,,,METAR,2062.0
KL18 230815Z AUTO 22006KT 7SM BKN004 OVC010 15/15 A2981 RMK AO2,KL18,2022-10-23T08:15:00Z,33.35,-117.25,15.0,15.0,220,6,,7.0,29.811024,,,TRUE,TRUE,,,,,,,BKN,400,OVC,1000,,,,,LIFR,,,,,,,,,,,,METAR,215.0
KL08 230815Z AUTO 23005KT 10SM SCT050 OVC065 19/12 A2973 RMK AO2,KL08,2022-10-23T08:15:00Z,33.27,-116.32,19.0,12.0,230,5,,10.0,29.731298,,,TRUE,TRUE,,,,,,,SCT,5000,OVC,6500,,,,,VFR,,,,,,,,,,,,METAR,156.0
KKY8 230815Z AUTO 17011KT 10SM OVC070 19/13 A3006 RMK A01,KKY8,2022-10-23T08:15:00Z,37.95,-86.87,19.0,13.0,170,11,,10.0,30.059055,,,TRUE,TRUE,,,,,,,OVC,7000,,,,,,,VFR,,,,,,,,,,,,SPECI,124.0
KK88 230815Z AUTO 17018G23KT 10SM CLR 22/12 A2962 RMK AO1 T02150121,KK88,2022-10-23T08:15:00Z,37.87,-95.38,21.5,12.1,170,18,23,10.0,29.619095,,,TRUE,TRUE,,,,,,,CLR,,,,,,,,VFR,,,,,,,,,,,,METAR,308.0
KK62 230815Z AUTO 17005KT 10SM CLR 13/07 A3013 RMK AO2,KK62,2022-10-23T08:15:00Z,38.7,-84.4,13.0,7.0,170,5,,10.0,30.129921,,,TRUE,TRUE,,,,,,,CLR,,,,,,,,VFR,,,,,,,,,,,,METAR,274.0
KJZI 230815Z AUTO 35005KT 14/12 A3011 RMK AO2,KJZI,2022-10-23T08:15:00Z,32.7,-80.0,14.0,12.0,350,5,,,30.109253,,,TRUE,TRUE,,,,,,,,,,,,,,,,,,,,,,,,,,,SPECI,5.0
KJYR 230815Z AUTO 15007KT 10SM CLR 13/10 A2941 RMK AO2,KJYR,2022-10-23T08:15:00Z,40.9,-97.62,13.0,10.0,150,7,,10.0,29.409449,,,TRUE,TRUE,,,,,,,CLR,,,,,,,,VFR,,,,,,,,,,,,METAR,508.0
KJYO 230815Z AUTO 02003KT 10SM CLR 07/06 A3026 RMK AO2,KJYO,2022-10-23T08:15:00Z,39.07,-77.57,7.0,6.0,20,3,,10.0,30.259842,,,TRUE,TRUE,,,,,,,CLR,,,,,,,,VFR,,,,,,,,,,,,SPECI,112.0
KJYM 230815Z AUTO 15005KT 10SM CLR 12/09 A3007 RMK AO2 T01190090,KJYM,2022-10-23T08:15:00Z,41.92,-84.58,11.9,9.0,150,5,,10.0,30.070866,,,TRUE,TRUE,,,,,,,CLR,,,,,,,,VFR,,,,,,,,,,,,METAR,357.0
KJYL 230815Z AUTO 00000KT 10SM CLR 07/05 A3014 RMK AO2 T00700054,KJYL,2022-10-23T08:15:00Z,32.65,-81.6,7.0,5.4,0,0,,10.0,30.138779,,,TRUE,TRUE,,,,,,,CLR,,,,,,,,VFR,,,,,,,,,,,,METAR,54.0
KJWY 230815Z AUTO 18012G19KT 10SM CLR 21/17 A2984 RMK AO2 T02070167,KJWY,2022-10-23T08:15:00Z,32.45,-96.92,20.7,16.7,180,12,19,10.0,29.840551,,,TRUE,TRUE,,,,,,,CLR,,,,,,,,VFR,,,,,,,,,,,,METAR,211.0
KJWN 230815Z AUTO 06005KT 10SM 13/10 A3008 RMK A01,KJWN,2022-10-23T08:15:00Z,36.18,-86.88,13.0,10.0,60,5,,10.0,30.079725,,,TRUE,TRUE,,,,,,,,,,,,,,,,,,,,,,,,,,,METAR,149.0
KJWG 230815Z AUTO 17011KT 10SM CLR 22/12 A2963 RMK AO2 T02170120,KJWG,2022-10-23T08:15:00Z,35.87,-98.42,21.7,12.0,170,11,,10.0,29.630905,,,TRUE,TRUE,,,,,,,CLR,,,,,,,,VFR,,,,,,,,,,,,METAR,469.0
KJVY 230815Z AUTO 00000KT 10SM CLR 11/10 A3009 RMK AO2 PWINO,KJVY,2022-10-23T08:15:00Z,38.37,-85.73,11.0,10.0,0,0,,10.0,30.088583,,,TRUE,TRUE,,,,,TRUE,,CLR,,,,,,,,VFR,,,,,,,,,,,,SPECI,141.0
KJVW 230815Z AUTO 13004KT 10SM CLR 15/15 A3006 RMK AO2,KJVW,2022-10-23T08:15:00Z,32.3,-90.42,15.0,15.0,130,4,,10.0,30.059055,,,TRUE,TRUE,,,,,,,CLR,,,,,,,,VFR,,,,,,,,,,,,SPECI,73.0
KJVL 230815Z AUTO 16009KT 10SM CLR 16/10 A2985 RMK AO2,KJVL,2022-10-23T08:15:00Z,42.62,-89.05,16.0,10.0,160,9,,10.0,29.84941,,,TRUE,TRUE,,,,,,,CLR,,,,,,,,VFR,,,,,,,,,,,,METAR,244.0
KJSY 230815Z AUTO 2 1/2SM -SN SCT014 BKN023 OVC050 M01/M03 A2977 RMK AO2 T10121032 TSNO,KJSY,2022-10-23T08:15:00Z,45.35,-117.25,-1.2,-3.2,,,,2.5,29.769686,,,TRUE,TRUE,,,TRUE,,,-SN,SCT,1400,BKN,2300,OVC,5000,,,IFR,,,,,,,,,,,,METAR,1256.0
KJSO 230815Z AUTO 19007KT 10SM SCT016 19/17 A2992 RMK AO2 T01890170 TSNO,KJSO,2022-10-23T08:15:00Z,31.87,-95.22,18.9,17.0,190,7,,10.0,29.920275,,,TRUE,TRUE,,,TRUE,,,,SCT,1600,,,,,,,VFR,,,,,,,,,,,,METAR,204.0
KJRO 230815Z AUTO 00000KT 10SM CLR 07/06 A3017 RMK AO2,KJRO,2022-10-23T08:15:00Z,,,7.0,6.0,0,0,,10.0,30.171259,,,TRUE,TRUE,,,,,,,CLR,,,,,,,,VFR,,,,,,,,,,,,METAR,
KJQF 230815Z AUTO 00000KT 10SM CLR 06/03 A3021 RMK AO2,KJQF,2022-10-23T08:15:00Z,35.38,-80.72,6.0,3.0,0,0,,10.0,30.209646,,,TRUE,TRUE,,,,,,,CLR,,,,,,,,VFR,,,,,,,,,,,,METAR,204.0
KJPX 230815Z AUTO 36003KT 10SM OVC043 12/12 A3027 RMK AO2 T01230123,KJPX,2022-10-23T08:15:00Z,40.95,-72.25,12.3,12.3,360,3,,10.0,30.268702,,,TRUE,TRUE,,,,,,,OVC,4300,,,,,,,VFR,,,,,,,,,,,,METAR,10.0
KJOT 230815Z AUTO 17008KT 10SM CLR 18/11 A2991 RMK AO2 T01750112,KJOT,2022-10-23T08:15:00Z,41.52,-88.18,17.5,11.2,170,8,,10.0,29.911417,,,TRUE,TRUE,,,,,,,CLR,,,,,,,,VFR,,,,,,,,,,,,METAR,175.0
KJNX 230815Z AUTO 00000KT 10SM CLR 11/10 A3015 RMK AO2,KJNX,2022-10-23T08:15:00Z,35.53,-78.38,11.0,10.0,0,0,,10.0,30.15059,,,TRUE,TRUE,,,,,,,CLR,,,,,,,,VFR,,,,,,,,,,,,METAR,41.0
KJMR 230815Z AUTO 00000KT 10SM CLR 08/04 A2966 RMK AO2,KJMR,2022-10-23T08:15:00Z,45.88,-93.27,8.0,4.0,0,0,,10.0,29.660433,,,TRUE,TRUE,,,,,,,CLR,,,,,,,,VFR,,,,,,,,,,,,METAR,301.0
KJKJ 230815Z AUTO 00000KT 10SM CLR 03/M01 A2953 RMK AO2 TSNO,KJKJ,2022-10-23T08:15:00Z,46.83,-96.67,3.0,-1.0,0,0,,10.0,29.530512,,,TRUE,TRUE,,,TRUE,,,,CLR,,,,,,,,VFR,,,,,,,,,,,,METAR,280.0
KJKA 230815Z AUTO 00000KT 10SM CLR 11/10 A3010 RMK AO2,KJKA,2022-10-23T08:15:00Z,30.28,-87.67,11.0,10.0,0,0,,10.0,30.100393,,,TRUE,TRUE,,,,,,,CLR,,,,,,,,VFR,,,,,,,,,,,,METAR,5.0
KJHN 230815Z AUTO 25003KT 10SM CLR 18/07 A2951 RMK AO2 T01750067,KJHN,2022-10-23T08:15:00Z,37.58,-101.73,17.5,6.7,250,3,,10.0,29.509842,,,TRUE,TRUE,,,,,,,CLR,,,,,,,,VFR,,,,,,,,,,,,METAR,1013.0
KJFZ 230815Z AUTO 00000KT 10SM CLR 11/01 A3022 RMK AO2 T01080007,KJFZ,2022-10-23T08:15:00Z,37.07,-81.8,10.8,0.7,0,0,,10.0,30.221457,,,TRUE,TRUE,,,,,,,CLR,,,,,,,,VFR,,,,,,,,,,,,SPECI,809.0
KJFX 230815Z AUTO 00000KT 5SM BR CLR 09/08 A3013 RMK AO2,KJFX,2022-10-23T08:15:00Z,33.9,-87.32,9.0,8.0,0,0,,5.0,30.129921,,,TRUE,TRUE,,,,,,BR,CLR,,,,,,,,MVFR,,,,,,,,,,,,SPECI,144.0
KJES 230815Z AUTO 00000KT 10SM CLR 05/03 A3015 RMK AO2,KJES,2022-10-23T08:15:00Z,31.55,-81.88,5.0,3.0,0,0,,10.0,30.15059,,,TRUE,TRUE,,,,,,,CLR,,,,,,,,VFR,,,,,,,,,,,,METAR,26.0
KJDD 230815Z AUTO 16006KT CLR 20/16 A2987 RMK AO2,KJDD,2022-10-23T08:15:00Z,32.75,-95.5,20.0,16.0,160,6,,,29.870079,,,TRUE,TRUE,,,,,,,CLR,,,,,,,,,,,,,,,,,,,,METAR,127.0
KJCA 230815Z AUTO 02005KT 10SM CLR 07/04 A3020 RMK AO2 T00740044,KJCA,2022-10-23T08:15:00Z,34.18,-83.57,7.4,4.4,20,5,,10.0,30.200787,,,TRUE,TRUE,,,,,,,CLR,,,,,,,,VFR,,,,,,,,,,,,METAR,287.0
KJAS 230815Z AUTO 15004KT 9SM SCT038 OVC046 18/17 A2994 RMK AO2,KJAS,2022-10-23T08:15:00Z,30.88,-94.03,18.0,17.0,150,4,,9.0,29.940945,,,TRUE,TRUE,,,,,,,SCT,3800,OVC,4600,,,,,VFR,,,,,,,,,,,,METAR,60.0
KJAQ 230815Z AUTO 00000KT 10SM CLR 12/M03 A2980 RMK AO1 T01151032,KJAQ,2022-10-23T08:15:00Z,38.37,-120.8,11.5,-3.2,0,0,,10.0,29.799213,,,TRUE,TRUE,,,,,,,CLR,,,,,,,,VFR,,,,,,,,,,,,METAR,518.0
KIZA 230815Z AUTO 00000KT 9SM OVC015 11/09 A2982 RMK AO2,KIZA,2022-10-23T08:15:00Z,34.6,-120.07,11.0,9.0,0,0,,9.0,29.819881,,,TRUE,TRUE,,,,,,,OVC,1500,,,,,,,MVFR,,,,,,,,,,,,METAR,200.0
KIYA 230815Z AUTO 09004KT 18/15 A3001 RMK AO2 T01780152 PWINO,KIYA,2022-10-23T08:15:00Z,29.98,-92.08,17.8,15.2,90,4,,,30.008858,,,TRUE,TRUE,,,,,TRUE,,,,,,,,,,,,,,,,,,,,,,METAR,4.0
KIXA 230815Z AUTO 05003KT 10SM CLR 09/09 A3016 RMK AO2,KIXA,2022-10-23T08:15:00Z,36.33,-77.63,9.0,9.0,50,3,,10.0,30.159449,,,TRUE,TRUE,,,,,,,CLR,,,,,,,,VFR,,,,,,,,,,,,METAR,43.0
KIWA 230815Z AUTO 21014KT 10SM OVC055 21/13 A2972 RMK AO2 T02150131,KIWA,2022-10-23T08:15:00Z,33.3,-111.65,21.5,13.1,210,14,,10.0,29.719488,,,TRUE,TRUE,,,,,,,OVC,5500,,,,,,,VFR,,,,,,,,,,,,METAR,420.0
KIUA 230815Z AUTO 00000KT 10SM CLR 07/03 A3021 RMK AO2 T00670034,KIUA,2022-10-23T08:15:00Z,42.92,-77.33,6.7,3.4,0,0,,10.0,30.209646,,,TRUE,TRUE,,,,,,,CLR,,,,,,,,VFR,,,,,,,,,,,,METAR,248.0
KISQ 230815Z AUTO 18005KT 10SM CLR 11/09 A2992 RMK AO2 T01100090,KISQ,2022-10-23T08:15:00Z,45.97,-86.17,11.0,9.0,180,5,,10.0,29.920275,,,TRUE,TRUE,,,,,,,CLR,,,,,,,,VFR,,,,,,,,,,,,METAR,206.0
KISO 230815Z AUTO 34007KT 10SM CLR 13/11 A3012 RMK AO2 T01330107,KISO,2022-10-23T08:15:00Z,35.32,-77.62,13.3,10.7,340,7,,10.0,30.121063,,,TRUE,TRUE,,,,,,,CLR,,,,,,,,VFR,,,,,,,,,,,,METAR,27.0
KIRS 230815Z AUTO 17005KT 10SM CLR 14/12 A3003 RMK AO2 T01360119,KIRS,2022-10-23T08:15:00Z,41.8,-85.43,13.6,11.9,170,5,,10.0,30.029528,,,TRUE,TRUE,,,,,,,CLR,,,,,,,,VFR,,,,,,,,,,,,METAR,282.0
KIPJ 230815Z AUTO 00000KT 10SM CLR 04/03 A3020 RMK AO2 T00380030,KIPJ,2022-10-23T08:15:00Z,35.48,-81.17,3.8,3.0,0,0,,10.0,30.200787,,,TRUE,TRUE,,,,,,,CLR,,,,,,,,VFR,,,,,,,,,,,,SPECI,266.0
KIOB 230815Z AUTO 19005KT 10SM CLR 11/07 A3016 RMK AO2 PWINO,KIOB,2022-10-23T08:15:00Z,38.05,-83.98,11.0,7.0,190,5,,10.0,30.159449,,,TRUE,TRUE,,,,,TRUE,,CLR,,,,,,,,VFR,,,,,,,,,,,,SPECI,301.0
KINJ 230815Z AUTO 19014G20KT 10SM SCT023 21/17 A2983 RMK AO2 T02120170,KINJ,2022-10-23T08:15:00Z,32.08,-97.1,21.2,17.0,190,14,20,10.0,29.828741,,,TRUE,TRUE,,,,,,,SCT,2300,,,,,,,VFR,,,,,,,,,,,,METAR,208.0
KINF 230815Z AUTO 00000KT 10SM CLR 12/12 A3009 RMK AO2,KINF,2022-10-23T08:15:00Z,28.8,-82.32,12.0,12.0,0,0,,10.0,30.088583,,,TRUE,TRUE,,,,,,,CLR,,,,,,,,VFR,,,,,,,,,,,,SPECI,14.0
KIMS 230815Z AUTO 14004KT 10SM CLR 15/11 A3011 RMK AO2,KIMS,2022-10-23T08:15:00Z,38.75,-85.47,15.0,11.0,140,4,,10.0,30.109253,,,TRUE,TRUE,,,,,,,CLR,,,,,,,,VFR,,,,,,,,,,,,METAR,244.0
KIKW 230815Z AUTO 15003KT 10SM CLR 14/09 A3003 RMK AO2 T01360092,KIKW,2022-10-23T08:15:00Z,43.67,-84.27,13.6,9.2,150,3,,10.0,30.029528,,,TRUE,TRUE,,,,,,,CLR,,,,,,,,VFR,,,,,,,,,,,,METAR,190.0
KIKV 230815Z AUTO 13007KT 10SM CLR 17/11 A2963 RMK AO2,KIKV,2022-10-23T08:15:00Z,41.68,-93.57,17.0,11.0,130,7,,10.0,29.630905,,,TRUE,TRUE,,,,,,,CLR,,,,,,,,VFR,,,,,,,,,,,,METAR,270.0
KIKK 230815Z AUTO 16007KT 10SM CLR 16/10 A2994 RMK AO2 T01620101,KIKK,2022-10-23T08:15:00Z,41.07,-87.85,16.2,10.1,160,7,,10.0,29.940945,,,TRUE,TRUE,,,,,,,CLR,,,,,,,,VFR,,,,,,,,,,,,METAR,188.0
KIJX 230815Z AUTO 14012G17KT 10SM SCT085 18/12 A2983 RMK AO2 T01760120,KIJX,2022-10-23T08:15:00Z,39.77,-90.25,17.6,12.0,140,12,17,10.0,29.828741,,,TRUE,TRUE,,,,,,,SCT,8500,,,,,,,VFR,,,,,,,,,,,,METAR,187.0
KIIY 230815Z AUTO 35004KT 10SM CLR 08/04 A3019 RMK AO2 T00770041,KIIY,2022-10-23T08:15:00Z,33.78,-82.82,7.7,4.1,350,4,,10.0,30.188976,,,TRUE,TRUE,,,,,,,CLR,,,,,,,,VFR,,,,,,,,,,,,METAR,192.0
KIIB 230815Z AUTO 15012KT 10SM CLR 17/11 A2973 RMK AO2 T01710111,KIIB,2022-10-23T08:15:00Z,42.45,-91.95,17.1,11.1,150,12,,10.0,29.731298,,,TRUE,TRUE,,,,,,,CLR,,,,,,,,VFR,,,,,,,,,,,,METAR,294.0
KIGQ 230815Z AUTO 17010G15KT 10SM CLR 16/11 A2994 RMK AO2 T01640105,KIGQ,2022-10-23T08:15:00Z,41.53,-87.53,16.4,10.5,170,10,15,10.0,29.940945,,,TRUE,TRUE,,,,,,,CLR,,,,,,,,VFR,,,,,,,,,,,,METAR,187.0
KIFP 230815Z AUTO 23011KT 10SM CLR 22/06 A2958 RMK AO2,KIFP,2022-10-23T08:15:00Z,35.15,-114.57,22.0,6.0,230,11,,10.0,29.58071,,,TRUE,TRUE,,,,,,,CLR,,,,,,,,VFR,,,,,,,,,,,,METAR,210.0
KIFA 230815Z AUTO 13008KT 10SM CLR 16/11 A2966 RMK AO2 T01620107,KIFA,2022-10-23T08:15:00Z,42.47,-93.27,16.2,10.7,130,8,,10.0,29.660433,,,TRUE,TRUE,,,,,,,CLR,,,,,,,,VFR,,,,,,,,,,,,METAR,344.0
KIER 230815Z AUTO 15005KT 10SM CLR 17/16 A2998 RMK AO2 T01680156,KIER,2022-10-23T08:15:00Z,31.73,-93.1,16.8,15.6,150,5,,10.0,29.97933,,,TRUE,TRUE,,,,,,,CLR,,,,,,,,VFR,,,,,,,,,,,,METAR,35.0
KIDP 230815Z AUTO 17018G22KT 10SM CLR 22/13 A2963 RMK AO2 T02230130,KIDP,2022-10-23T08:15:00Z,37.17,-95.78,22.3,13.0,170,18,22,10.0,29.630905,,,TRUE,TRUE,,,,,,,CLR,,,,,,,,VFR,,,,,,,,,,,,METAR,252.0
KIDI 230815Z AUTO 00000KT 10SM CLR 04/03 A3026 RMK A01,KIDI,2022-10-23T08:15:00Z,40.63,-79.1,4.0,3.0,0,0,,10.0,30.259842,,,TRUE,TRUE,,,,,,,CLR,,,,,,,,VFR,,,,,,,,,,,,METAR,425.0
KICL 230815Z AUTO 17008G14KT 18/11 A2956 RMK AO2 PWINO,KICL,2022-10-23T08:15:00Z,40.72,-95.02,18.0,11.0,170,8,14,,29.56004,,,TRUE,TRUE,,,,,TRUE,,,,,,,,,,,,,,,,,,,,,,METAR,299.0
KIBM 230815Z AUTO 31007KT 10SM CLR 08/M07 A2934 RMK AO2 T00841074,KIBM,2022-10-23T08:15:00Z,41.18,-103.68,8.4,-7.4,310,7,,10.0,29.338583,,,TRUE,TRUE,,,,,,,CLR,,,,,,,,VFR,,,,,,,,,,,,METAR,1494.0
KI75 230815Z AUTO 14010KT 10SM CLR 18/12 A2962 RMK AO2 T01760120,KI75,2022-10-23T08:15:00Z,41.05,-93.68,17.6,12.0,140,10,,10.0,29.619095,,,TRUE,TRUE,,,,,,,CLR,,,,,,,,VFR,,,,,,,,,,,,METAR,336.0
KI74 230815Z AUTO 00000KT 10SM CLR 07/07 A3013 RMK AO2,KI74,2022-10-23T08:15:00Z,40.12,-83.75,7.0,7.0,0,0,,10.0,30.129921,,,TRUE,TRUE,,,,,,,CLR,,,,,,,,VFR,,,,,,,,,,,,METAR,322.0
KI69 230815Z AUTO 00000KT 10SM CLR 14/09 A3013 RMK AO2 T01410086,KI69,2022-10-23T08:15:00Z,39.08,-84.22,14.1,8.6,0,0,,10.0,30.129921,,,TRUE,TRUE,,,,,,,CLR,,,,,,,,VFR,,,,,,,,,,,,METAR,238.0
KI68 230815Z AUTO 11003KT 10SM CLR 14/09 A3012 RMK AO1 T01370091,KI68,2022-10-23T08:15:00Z,39.47,-84.25,13.7,9.1,110,3,,10.0,30.121063,,,TRUE,TRUE,,,,,,,CLR,,,,,,,,VFR,,,,,,,,,,,,METAR,274.0
KI67 230815Z AUTO 00000KT 10SM CLR 10/07 A3011 RMK AO1,KI67,2022-10-23T08:15:00Z,39.25,-84.78,10.0,7.0,0,0,,10.0,30.109253,,,TRUE,TRUE,,,,,,,CLR,,,,,,,,VFR,,,,,,,,,,,,METAR,177.0
KI63 230815Z AUTO 15008KT 10SM CLR 16/12 A2979 RMK AO2 T01600115,KI63,2022-10-23T08:15:00Z,39.98,-90.8,16.0,11.5,150,8,,10.0,29.790354,,,TRUE,TRUE,,,,,,,CLR,,,,,,,,VFR,,,,,,,,,,,,METAR,221.0
KI35 230815Z AUTO 00000KT 10SM CLR 06/06 A3020 RMK AO2 T00640064,KI35,2022-10-23T08:15:00Z,36.87,-83.37,6.4,6.4,0,0,,10.0,30.200787,,,TRUE,TRUE,,,,,,,CLR,,,,,,,,VFR,,,,,,,,,,,,METAR,467.0
KI23 230815Z AUTO 00000KT 10SM CLR 09/07 A3013 RMK AO1,KI23,2022-10-23T08:15:00Z,39.57,-83.42,9.0,7.0,0,0,,10.0,30.129921,,,TRUE,TRUE,,,,,,,CLR,,,,,,,,VFR,,,,,,,,,,,,METAR,298.0
KHZX 230815Z AUTO 00000KT 10SM CLR 07/06 A2963 RMK AO2,KHZX,2022-10-23T08:15:00Z,46.62,-93.32,7.0,6.0,0,0,,10.0,29.630905,,,TRUE,TRUE,,,,,,,CLR,,,,,,,,VFR,,,,,,,,,,,,METAR,374.0
KHZR 230815Z AUTO 09003KT 10SM SCT050 14/13 A3004 RMK AO2 T01440132,KHZR,2022-10-23T08:15:00Z,30.72,-91.48,14.4,13.2,90,3,,10.0,30.041338,,,TRUE,TRUE,,,,,,,SCT,5000,,,,,,,VFR,,,,,,,,,,,,METAR,11.0
KHZL 230815Z AUTO 00000KT 10SM CLR 02/01 A3031 RMK AO2,KHZL,2022-10-23T08:15:00Z,40.98,-76.0,2.0,1.0,0,0,,10.0,30.31004,,,TRUE,TRUE,,,,,,,CLR,,,,,,,,VFR,,,,,,,,,,,,METAR,481.0
KHZE 230815Z AUTO 06008G16KT 10SM OVC010 07/07 A2954 RMK AO2,KHZE,2022-10-23T08:15:00Z,47.28,-101.58,7.0,7.0,60,8,16,10.0,29.53937,,,TRUE,TRUE,,,,,,,OVC,1000,,,,,,,MVFR,,,,,,,,,,,,METAR,542.0
KHZD 230815Z AUTO 17009G14KT 10SM OVC060 18/12 A3003 RMK A01,KHZD,2022-10-23T08:15:00Z,36.08,-88.47,18.0,12.0,170,9,14,10.0,30.029528,,,TRUE,TRUE,,,,,,,OVC,6000,,,,,,,VFR,,,,,,,,,,,,METAR,147.0
KHYX 230815Z AUTO 17006KT 10SM CLR 11/08 A3005 RMK AO2 T01100078,KHYX,2022-10-23T08:15:00Z,43.43,-83.87,11.0,7.8,170,6,,10.0,30.050198,,,TRUE,TRUE,,,,,,,CLR,,,,,,,,VFR,,,,,,,,,,,,METAR,181.0
KHYW 230815Z AUTO 00000KT 3SM BR CLR 10/10 A3013 RMK AO2,KHYW,2022-10-23T08:15:00Z,33.83,-79.12,10.0,10.0,0,0,,3.0,30.129921,,,TRUE,TRUE,,,,,,BR,CLR,,,,,,,,MVFR,,,,,,,,,,,,SPECI,10.0
KHXD 230815Z AUTO 00000KT 10SM CLR 14/12 A3012 RMK AO2,KHXD,2022-10-23T08:15:00Z,32.22,-80.7,14.0,12.0,0,0,,10.0,30.121063,,,TRUE,TRUE,,,,,,,CLR,,,,,,,,VFR,,,,,,,,,,,,SPECI,5.0
KHWY 230815Z AUTO 00000KT 7SM CLR 03/01 A3028 RMK AO2 T00250012,KHWY,2022-10-23T08:15:00Z,38.58,-77.72,2.5,1.2,0,0,,7.0,30.280512,,,TRUE,TRUE,,,,,,,CLR,,,,,,,,VFR,,,,,,,,,,,,SPECI,93.0
KHVS 230815Z AUTO 00000KT 10SM SCT034 BKN040 10/08 A3015 RMK AO2,KHVS,2022-10-23T08:15:00Z,34.4,-80.12,10.0,8.0,0,0,,10.0,30.15059,,,TRUE,TRUE,,,,,,,SCT,3400,BKN,4000,,,,,VFR,,,,,,,,,,,,SPECI,110.0
KHVE 230815Z AUTO 31008G19KT 7SM OVC021 05/02 A2959 RMK AO2,KHVE,2022-10-23T08:15:00Z,38.42,-110.7,5.0,2.0,310,8,19,7.0,29.589567,,,TRUE,TRUE,,,,,,,OVC,2100,,,,,,,MVFR,,,,,,,,,,,,METAR,1351.0
KHUM 230815Z AUTO 10005KT 15/14 A3005 RMK AO2 T01480139 PWINO,KHUM,2022-10-23T08:15:00Z,29.57,-90.67,14.8,13.9,100,5,,,30.050198,,,TRUE,TRUE,,,,,TRUE,,,,,,,,,,,,,,,,,,,,,,METAR,1.0
KHSP 230815Z AUTO 00000KT 10SM CLR 08/00 A3026 RMK AO2 T00831003,KHSP,2022-10-23T08:15:00Z,37.95,-79.82,8.3,-0.3,0,0,,10.0,30.259842,,,TRUE,TRUE,,,,,,,CLR,,,,,,,,VFR,,,,,,,,,,,,SPECI,1148.0
KHSD 230815Z AUTO 18018G29KT 10SM CLR 24/12 A2962 RMK A01,KHSD,2022-10-23T08:15:00Z,35.6,-97.72,24.0,12.0,180,18,29,10.0,29.619095,,,TRUE,TRUE,,,,,,,CLR,,,,,,,,VFR,,,,,,,,,,,,METAR,358.0
KHSB 230815Z AUTO 17013KT 10SM OVC060 19/14 A2999 RMK AO2 T01920138,KHSB,2022-10-23T08:15:00Z,37.82,-88.55,19.2,13.8,170,13,,10.0,29.991142,,,TRUE,TRUE,,,,,,,OVC,6000,,,,,,,VFR,,,,,,,,,,,,METAR,118.0
KHRX 230815Z AUTO 21017G25KT 10SM CLR 21/10 A2970 RMK AO2 T02090103,KHRX,2022-10-23T08:15:00Z,34.87,-102.33,20.9,10.3,210,17,25,10.0,29.698818,,,TRUE,TRUE,,,,,,,CLR,,,,,,,,VFR,,,,,,,,,,,,METAR,1153.0
KHRJ 230815Z AUTO 03005KT 10SM CLR 12/10 A3017 RMK AO2 T01220100,KHRJ,2022-10-23T08:15:00Z,35.38,-78.73,12.2,10.0,30,5,,10.0,30.171259,,,TRUE,TRUE,,,,,,,CLR,,,,,,,,VFR,,,,,,,,,,,,SPECI,55.0
KHRF 230815Z AUTO 02005KT 10SM CLR 00/M01 A2968 RMK AO2,KHRF,2022-10-23T08:15:00Z,46.25,-114.13,0.0,-1.0,20,5,,10.0,29.681103,,,TRUE,TRUE,,,,,,,CLR,,,,,,,,VFR,,,,,,,,,,,,METAR,1112.0
KHQZ 230815Z AUTO 17013G19KT 10SM CLR 21/16 A2983 RMK AO1 T02100155,KHQZ,2022-10-23T08:15:00Z,32.75,-96.53,21.0,15.5,170,13,19,10.0,29.828741,,,TRUE,TRUE,,,,,,,CLR,,,,,,,,VFR,,,,,,,,,,,,METAR,136.0
KHQU 230815Z AUTO 32003KT 10SM CLR 05/04 A3018 RMK AO2 T00490035,KHQU,2022-10-23T08:15:00Z,33.53,-82.52,4.9,3.5,320,3,,10.0,30.180119,,,TRUE,TRUE,,,,,,,CLR,,,,,,,,VFR,,,,,,,,,,,,METAR,141.0
KHQG 230815Z AUTO 23014G19KT 10SM CLR 18/09 A2952 RMK AO2 T01820088,KHQG,2022-10-23T08:15:00Z,37.17,-101.37,18.2,8.8,230,14,19,10.0,29.518702,,,TRUE,TRUE,,,,,,,CLR,,,,,,,,VFR,,,,,,,,,,,,METAR,956.0
KHQG 230815Z AUTO 23014G19KT 10SM CLR 18/09 A2952 RMK AO2 T01820088,KHQG,2022-10-23T08:15:00Z,37.17,-101.37,18.2,8.8,230,14,19,10.0,29.518702,,,TRUE,TRUE,,,,,,,CLR,,,,,,,,VFR,,,,,,,,,,,,METAR,956.0
KHPT 230815Z AUTO 15010G15KT 10SM CLR 17/09 A2964 RMK AO2,KHPT,2022-10-23T08:15:00Z,42.72,-93.23,17.0,9.0,150,10,15,10.0,29.639763,,,TRUE,TRUE,,,,,,,CLR,,,,,,,,VFR,,,,,,,,,,,,METAR,354.0
KHOE 230815Z AUTO 00000KT 10SM CLR 05/03 A3013 RMK AO2 T00480036,KHOE,2022-10-23T08:15:00Z,31.05,-82.78,4.8,3.6,0,0,,10.0,30.129921,,,TRUE,TRUE,,,,,,,CLR,,,,,,,,VFR,,,,,,,,,,,,METAR,56.0
KHOB 230815Z AUTO 18009KT 10SM CLR 15/14 A2978 RMK AO2,KHOB,2022-10-23T08:15:00Z,32.67,-103.22,15.0,14.0,180,9,,10.0,29.778543,,,TRUE,TRUE,,,,,,,CLR,,,,,,,,VFR,,,,,,,,,,,,METAR,1112.0
KHNR 230815Z AUTO 16009KT 10SM CLR 17/13 A2953 RMK A01,KHNR,2022-10-23T08:15:00Z,41.58,-95.33,17.0,13.0,160,9,,10.0,29.530512,,,TRUE,TRUE,,,,,,,CLR,,,,,,,,VFR,,,,,,,,,,,,METAR,364.0
KHMZ 230815Z AUTO 00000KT 10SM CLR M01/M01 A3027 RMK AO2 T10071010,KHMZ,2022-10-23T08:15:00Z,40.08,-78.52,-0.7,-1.0,0,0,,10.0,30.268702,,,TRUE,TRUE,,,,,,,CLR,,,,,,,,VFR,,,,,,,,,,,,METAR,351.0
KHMT 230815Z AUTO 23009KT 10SM OVC010 14/ A2981 RMK AO2 T0138////,KHMT,2022-10-23T08:15:00Z,33.73,-117.02,13.8,,230,9,,10.0,29.811024,,,TRUE,TRUE,,,,,,,OVC,1000,,,,,,,MVFR,,,,,,,,,,,,METAR,462.0
KHMP 230815Z AUTO 00000KT 10SM CLR 04/04 A3022 RMK AO2 T00400036,KHMP,2022-10-23T08:15:00Z,33.38,-84.33,4.0,3.6,0,0,,10.0,30.221457,,,TRUE,TRUE,,,,,,,CLR,,,,,,,,VFR,,,,,,,,,,,,METAR,263.0
KHLX 230815Z AUTO 21004KT 10SM CLR 05/02 A3022 RMK AO2 T00480015,KHLX,2022-10-23T08:15:00Z,36.77,-80.82,4.8,1.5,210,4,,10.0,30.221457,,,TRUE,TRUE,,,,,,,CLR,,,,,,,,VFR,,,,,,,,,,,,METAR,819.0
KHLB 230815Z AUTO 17005KT 10SM CLR 14/09 A3010 RMK A01,KHLB,2022-10-23T08:15:00Z,39.35,-85.27,14.0,9.0,170,5,,10.0,30.100393,,,TRUE,TRUE,,,,,,,CLR,,,,,,,,VFR,,,,,,,,,,,,METAR,297.0
KHJH 230815Z AUTO 16012G17KT 10SM CLR 19/12 A2941 RMK AO2 T01860122,KHJH,2022-10-23T08:15:00Z,40.15,-97.58,18.6,12.2,160,12,17,10.0,29.409449,,,TRUE,TRUE,,,,,,,CLR,,,,,,,,VFR,,,,,,,,,,,,METAR,449.0
KHII 230815Z AUTO 25009KT 10SM CLR 22/07 A2963 RMK AO2,KHII,2022-10-23T08:15:00Z,34.57,-114.37,22.0,7.0,250,9,,10.0,29.630905,,,TRUE,TRUE,,,,,,,CLR,,,,,,,,VFR,,,,,,,,,,,,METAR,241.0
KHHW 230815Z AUTO 16010G14KT 10SM CLR 21/14 A2983 RMK AO2,KHHW,2022-10-23T08:15:00Z,34.03,-95.55,21.0,14.0,160,10,14,10.0,29.828741,,,TRUE,TRUE,,,,,,,CLR,,,,,,,,VFR,,,,,,,,,,,,METAR,178.0
KHHV 230815Z AUTO 18015G22KT 10SM FEW038 FEW048 25/16 A2990 RMK A01,KHHV,2022-10-23T08:15:00Z,26.93,-94.68,25.0,16.0,180,15,22,10.0,29.899607,,,TRUE,TRUE,,,,,,,FEW,3800,FEW,4800,,,,,VFR,,,,,,,,,,,,METAR,25.0
KHHG 230815Z AUTO 15003KT 10SM CLR A3005 RMK AO2,KHHG,2022-10-23T08:15:00Z,40.85,-85.45,,,150,3,,10.0,30.050198,,,TRUE,TRUE,,,,,,,CLR,,,,,,,,VFR,,,,,,,,,,,,METAR,247.0
KHHF 230815Z AUTO 20012KT 10SM CLR 22/11 A2958 RMK AO2 T02230110,KHHF,2022-10-23T08:15:00Z,35.9,-100.4,22.3,11.0,200,12,,10.0,29.58071,,,TRUE,TRUE,,,,,,,CLR,,,,,,,,VFR,,,,,,,,,,,,METAR,729.0
KHFY 230815Z AUTO 15006KT 10SM CLR 15/12 A3006 RMK AO2 T01510115,KHFY,2022-10-23T08:15:00Z,39.63,-86.08,15.1,11.5,150,6,,10.0,30.059055,,,TRUE,TRUE,,,,,,,CLR,,,,,,,,VFR,,,,,,,,,,,,METAR,250.0
KHFJ 230815Z AUTO 17012G21KT 10SM SCT120 21/12 A2975 RMK AO2,KHFJ,2022-10-23T08:15:00Z,36.9,-94.02,21.0,12.0,170,12,21,10.0,29.749016,,,TRUE,TRUE,,,,,,,SCT,12000,,,,,,,VFR,,,,,,,,,,,,METAR,398.0
KHEQ 230815Z AUTO 00000KT 10SM CLR 03/M03 A2933 RMK AO2,KHEQ,2022-10-23T08:15:00Z,40.57,-102.28,3.0,-3.0,0,0,,10.0,29.329725,,,TRUE,TRUE,,,,,,,CLR,,,,,,,,VFR,,,,,,,,,,,,METAR,1136.0
KHEG 230815Z AUTO 36004KT 10SM FEW020 SCT025 10/09 A3012 RMK AO2,KHEG,2022-10-23T08:15:00Z,30.28,-81.8,10.0,9.0,360,4,,10.0,30.121063,,,TRUE,TRUE,,,,,,,FEW,2000,SCT,2500,,,,,VFR,,,,,,,,,,,,METAR,25.0
KHDL 230815Z AUTO 00000KT 10SM CLR 07/07 A3013 RMK AO2,KHDL,2022-10-23T08:15:00Z,31.37,-85.32,7.0,7.0,0,0,,10.0,30.129921,,,TRUE,TRUE,,,,,,,CLR,,,,,,,,VFR,,,,,,,,,,,,METAR,109.0
KHDE 230815Z AUTO 15010KT 10SM CLR 09/01 A2935 RMK AO2 T00900010,KHDE,2022-10-23T08:15:00Z,40.45,-99.33,9.0,1.0,150,10,,10.0,29.350393,,,TRUE,TRUE,,,,,,,CLR,,,,,,,,VFR,,,,,,,,,,,,METAR,703.0
KHCR 230815Z AUTO 00000KT 10SM OVC010 01/00 A2955 RMK AO2,KHCR,2022-10-23T08:15:00Z,40.48,-111.43,1.0,0.0,0,0,,10.0,29.551182,,,TRUE,TRUE,,,,,,,OVC,1000,,,,,,,MVFR,,,,,,,,,,,,METAR,1708.0
KHCO 230815Z AUTO 04007KT 10SM CLR 09/06 A2962 RMK AO2,KHCO,2022-10-23T08:15:00Z,48.75,-96.93,9.0,6.0,40,7,,10.0,29.619095,,,TRUE,TRUE,,,,,,,CLR,,,,,,,,VFR,,,,,,,,,,,,METAR,250.0
KHCD 230815Z AUTO 13004KT 10SM CLR 11/06 A2960 RMK AO2 T01070059,KHCD,2022-10-23T08:15:00Z,44.87,-94.38,10.7,5.9,130,4,,10.0,29.601377,,,TRUE,TRUE,,,,,,,CLR,,,,,,,,VFR,,,,,,,,,,,,METAR,320.0
KHBI 230815Z AUTO 00000KT 10SM CLR 06/06 A3021 RMK AO2 T00600055,KHBI,2022-10-23T08:15:00Z,35.65,-79.9,6.0,5.5,0,0,,10.0,30.209646,,,TRUE,TRUE,,,,,,,CLR,,,,,,,,VFR,,,,,,,,,,,,SPECI,199.0
KHAI 230815Z AUTO 17005KT 10SM CLR 14/10 A3003 RMK AO2 T01440102,KHAI,2022-10-23T08:15:00Z,41.97,-85.6,14.4,10.2,170,5,,10.0,30.029528,,,TRUE,TRUE,,,,,,,CLR,,,,,,,,VFR,,,,,,,,,,,,METAR,250.0
KHAF 230815Z AUTO 35014G21KT 6SM HZ CLR 12/09 A2988 RMK AO2,KHAF,2022-10-23T08:15:00Z,37.52,-122.5,12.0,9.0,350,14,21,6.0,29.878937,,,TRUE,TRUE,,,,,,HZ,CLR,,,,,,,,VFR,,,,,,,,,,,,METAR,11.0
KHAE 230815Z AUTO 16009G14KT 10SM SCT075 19/11 A2978 RMK AO2,KHAE,2022-10-23T08:15:00Z,39.73,-91.45,19.0,11.0,160,9,14,10.0,29.778543,,,TRUE,TRUE,,,,,,,SCT,7500,,,,,,,VFR,,,,,,,,,,,,SPECI,230.0
KH71 230815Z AUTO 18014G21KT 10SM CLR 23/13 A2969 RMK AO2,KH71,2022-10-23T08:15:00Z,36.22,-95.33,23.0,13.0,180,14,21,10.0,29.68996,,,TRUE,TRUE,,,,,,,CLR,,,,,,,,VFR,,,,,,,,,,,,METAR,190.0
KGZS 230815Z AUTO 00000KT 3/4SM BR SCT038 BKN048 BKN060 08/08 A3011 RMK A01,KGZS,2022-10-23T08:15:00Z,35.15,-87.05,8.0,8.0,0,0,,0.75,30.109253,,,TRUE,TRUE,,,,,,BR,SCT,3800,BKN,4800,BKN,6000,,,LIFR,,,,,,,,,,,,METAR,198.0
KGZL 230815Z AUTO 21016G22KT 10SM CLR 23/14 A2974 RMK AO2,KGZL,2022-10-23T08:15:00Z,35.28,-95.1,23.0,14.0,210,16,22,10.0,29.740158,,,TRUE,TRUE,,,,,,,CLR,,,,,,,,VFR,,,,,,,,,,,,METAR,176.0
KGYY 230815Z AUTO 15006KT 10SM CLR 16/11 A2994 RMK AO2 T01600107,KGYY,2022-10-23T08:15:00Z,41.62,-87.42,16.0,10.7,150,6,,10.0,29.940945,,,TRUE,TRUE,,,,,,,CLR,,,,,,,,VFR,,,,,,,,,,,,METAR,179.0
KGYL 230815Z AUTO 13005KT 7SM CLR 12/07 A2960 RMK AO2 T01220067,KGYL,2022-10-23T08:15:00Z,44.77,-94.08,12.2,6.7,130,5,,7.0,29.601377,,,TRUE,TRUE,,,,,,,CLR,,,,,,,,VFR,,,,,,,,,,,,METAR,304.0
KGYI 230815Z AUTO 18015G21KT 10SM CLR 21/16 A2979 RMK AO2 T02140158 TSNO,KGYI,2022-10-23T08:15:00Z,33.72,-96.67,21.4,15.8,180,15,21,10.0,29.790354,,,TRUE,TRUE,,,TRUE,,,,CLR,,,,,,,,VFR,,,,,,,,,,,,METAR,227.0
KGYH 230815Z AUTO 34004KT 10SM CLR 09/03 A3020 RMK A02 T00890034,KGYH,2022-10-23T08:15:00Z,34.75,-82.38,8.9,3.4,340,4,,10.0,30.200787,,,TRUE,TRUE,,,,,,,CLR,,,,,,,,VFR,,,,,,,,,,,,SPECI,283.0
KGYB 230815Z AUTO 20006KT 10SM SCT037 21/18 A2989 RMK AO2 T02070176,KGYB,2022-10-23T08:15:00Z,30.17,-96.98,20.7,17.6,200,6,,10.0,29.890747,,,TRUE,TRUE,,,,,,,SCT,3700,,,,,,,VFR,,,,,,,,,,,,METAR,140.0
KGWW 230815Z AUTO 36006KT 10SM CLR 12/10 A3013 RMK AO2 T01220100,KGWW,2022-10-23T08:15:00Z,35.47,-77.97,12.2,10.0,360,6,,10.0,30.129921,,,TRUE,TRUE,,,,,,,CLR,,,,,,,,VFR,,,,,,,,,,,,SPECI,40.0
KGWR 230815Z AUTO 36008KT 10SM FEW048 03/03 A2951 RMK A01,KGWR,2022-10-23T08:15:00Z,46.22,-97.65,3.0,3.0,360,8,,10.0,29.509842,,,TRUE,TRUE,,,,,,,FEW,4800,,,,,,,VFR,,,,,,,,,,,,METAR,381.0
KGWB 230815Z AUTO 00000KT 10SM CLR 13/10 A3007 RMK AO2,KGWB,2022-10-23T08:15:00Z,41.3,-85.07,13.0,10.0,0,0,,10.0,30.070866,,,TRUE,TRUE,,,,,,,CLR,,,,,,,,VFR,,,,,,,,,,,,METAR,268.0
KGVT 230815Z AUTO 17011KT 10SM CLR 21/15 A2985 RMK AO2 TSNO T02070154,KGVT,2022-10-23T08:15:00Z,33.07,-96.07,20.7,15.4,170,11,,10.0,29.84941,,,TRUE,TRUE,,,TRUE,,,,CLR,,,,,,,,VFR,,,,,,,,,,,,METAR,165.0
KGRY 230815Z AUTO 16006KT 10SM BKN043 BKN049 24/12 A3004 RMK A01,KGRY,2022-10-23T08:15:00Z,27.63,-90.45,24.0,12.0,160,6,,10.0,30.041338,,,TRUE,TRUE,,,,,,,BKN,4300,BKN,4900,,,,,VFR,,,,,,,,,,,,METAR,58.0
KGRN 230815Z AUTO 00000KT 10SM CLR 01/M06 A2932 RMK AO2 T00071062,KGRN,2022-10-23T08:15:00Z,42.8,-102.17,0.7,-6.2,0,0,,10.0,29.320866,,,TRUE,TRUE,,,,,,,CLR,,,,,,,,VFR,,,,,,,,,,,,METAR,1080.0
KGPM 230815Z AUTO 18007G14KT 10SM CLR 22/16 A2983 RMK AO2 T02150159,KGPM,2022-10-23T08:15:00Z,32.7,-97.05,21.5,15.9,180,7,14,10.0,29.828741,,,TRUE,TRUE,,,,,,,CLR,,,,,,,,VFR,,,,,,,,,,,,METAR,178.0
KGPC 230815Z AUTO 16008KT 10SM CLR 14/10 A3003 RMK AO2 T01400100,KGPC,2022-10-23T08:15:00Z,39.63,-86.82,14.0,10.0,160,8,,10.0,30.029528,,,TRUE,TRUE,,,,,,,CLR,,,,,,,,VFR,,,,,,,,,,,,METAR,254.0
KGOP 230815Z AUTO 10SM CLR 21/17 A2985 RMK AO2,KGOP,2022-10-23T08:15:00Z,31.42,-97.8,21.0,17.0,,,,10.0,29.84941,,,TRUE,TRUE,,,,,,,CLR,,,,,,,,VFR,,,,,,,,,,,,METAR,272.0
KGOO 230815Z AUTO 00000KT 10SM CLR 08/M06 A2981 RMK A01,KGOO,2022-10-23T08:15:00Z,39.22,-121.0,8.0,-6.0,0,0,,10.0,29.811024,,,TRUE,TRUE,,,,,,,CLR,,,,,,,,VFR,,,,,,,,,,,,METAR,950.0
KGNT 230815Z AUTO 21003KT 10SM BKN085 07/04 A2981 RMK AO2 T00730043,KGNT,2022-10-23T08:15:00Z,35.17,-107.9,7.3,4.3,210,3,,10.0,29.811024,,,TRUE,TRUE,,,,,,,BKN,8500,,,,,,,VFR,,,,,,,,,,,,SPECI,1988.0
KGNG 230815Z AUTO 27015KT 10SM CLR 01/01 A2966 RMK AO2,KGNG,2022-10-23T08:15:00Z,42.92,-114.77,1.0,1.0,270,15,,10.0,29.660433,,,TRUE,TRUE,,,,,,,CLR,,,,,,,,VFR,,,,,,,,,,,,METAR,1128.0
KGNC 230815Z AUTO 19012G16KT 10SM CLR 17/14 A2981 RMK AO2 T01720142,KGNC,2022-10-23T08:15:00Z,32.68,-102.65,17.2,14.2,190,12,16,10.0,29.811024,,,TRUE,TRUE,,,,,,,CLR,,,,,,,,VFR,,,,,,,,,,,,METAR,1002.0
KGNB 230815Z AUTO 00000KT 10SM SCT085 01/M07 A2954 RMK AO2 T00081072,KGNB,2022-10-23T08:15:00Z,40.08,-105.92,0.8,-7.2,0,0,,10.0,29.53937,,,TRUE,TRUE,,,,,,,SCT,8500,,,,,,,VFR,,,,,,,,,,,,METAR,2500.0
KGMJ 230815Z AUTO 19018G29KT 10SM CLR 15/04 A2970 RMK AO2,KGMJ,2022-10-23T08:15:00Z,36.6,-94.73,15.0,4.0,190,18,29,10.0,29.698818,,,TRUE,TRUE,,,,,,,CLR,,,,,,,,VFR,,,,,,,,,,,,METAR,251.0
KGLY 230815Z AUTO 16011KT 10SM CLR 20/13 A2967 RMK AO2,KGLY,2022-10-23T08:15:00Z,38.35,-93.68,20.0,13.0,160,11,,10.0,29.66929,,,TRUE,TRUE,,,,,,,CLR,,,,,,,,VFR,,,,,,,,,,,,SPECI,247.0
KGLX 230815Z AUTO 00000G11KT 10SM FEW041 23/13 A3007 RMK A01,KGLX,2022-10-23T08:15:00Z,28.23,-88.98,23.0,13.0,0,0,11,10.0,30.070866,,,TRUE,TRUE,,,,,,,FEW,4100,,,,,,,VFR,,,,,,,,,,,,METAR,32.0
KGLW 230815Z AUTO 00000KT 10SM CLR 13/10 A3012 RMK AO2 T01300101,KGLW,2022-10-23T08:15:00Z,37.03,-85.95,13.0,10.1,0,0,,10.0,30.121063,,,TRUE,TRUE,,,,,,,CLR,,,,,,,,VFR,,,,,,,,,,,,METAR,216.0
KGLE 230815Z AUTO 17009G17KT 10SM CLR 21/15 A2978 RMK AO2 T02090149,KGLE,2022-10-23T08:15:00Z,33.65,-97.2,20.9,14.9,170,9,17,10.0,29.778543,,,TRUE,TRUE,,,,,,,CLR,,,,,,,,VFR,,,,,,,,,,,,METAR,250.0
KGKT 230815Z AUTO 00000KT 10SM CLR 06/06 A3018 RMK A01,KGKT,2022-10-23T08:15:00Z,35.85,-83.53,6.0,6.0,0,0,,10.0,30.180119,,,TRUE,TRUE,,,,,,,CLR,,,,,,,,VFR,,,,,,,,,,,,METAR,305.0
KGIC 230815Z AUTO 24006KT 10SM SCT034 BKN040 OVC048 01/00 A2976 RMK AO1,KGIC,2022-10-23T08:15:00Z,45.95,-116.12,1.0,0.0,240,6,,10.0,29.760826,,,TRUE,TRUE,,,,,,,SCT,3400,BKN,4000,OVC,4800,,,VFR,,,,,,,,,,,,METAR,1002.0
KGHW 230815Z AUTO 13006KT 10SM CLR 12/06 A2956 RMK AO2,KGHW,2022-10-23T08:15:00Z,45.63,-95.32,12.0,6.0,130,6,,10.0,29.56004,,,TRUE,TRUE,,,,,,,CLR,,,,,,,,VFR,,,,,,,,,,,,METAR,423.0
KGHG 230815Z AUTO 00000KT 10SM CLR 08/07 A3031 RMK AO2,KGHG,2022-10-23T08:15:00Z,42.1,-70.67,8.0,7.0,0,0,,10.0,30.31004,,,TRUE,TRUE,,,,,,,CLR,,,,,,,,VFR,,,,,,,,,,,,METAR,3.0
KGHB 230815Z AUTO 00000G10KT 8SM SCT041 BKN050 OVC060 25/18 A2999 RMK A01,KGHB,2022-10-23T08:15:00Z,27.83,-91.98,25.0,18.0,0,0,10,8.0,29.991142,,,TRUE,TRUE,,,,,,,SCT,4100,BKN,5000,OVC,6000,,,VFR,,,,,,,,,,,,METAR,30.0
KGGP 230815Z AUTO 16007KT 10SM CLR 12/08 A3002 RMK AO2,KGGP,2022-10-23T08:15:00Z,40.72,-86.37,12.0,8.0,160,7,,10.0,30.02067,,,TRUE,TRUE,,,,,,,CLR,,,,,,,,VFR,,,,,,,,,,,,METAR,224.0
KGGI 230815Z AUTO 14013KT 10SM CLR 18/12 A2969 RMK AO2 T01780120,KGGI,2022-10-23T08:15:00Z,41.72,-92.73,17.8,12.0,140,13,,10.0,29.68996,,,TRUE,TRUE,,,,,,,CLR,,,,,,,,VFR,,,,,,,,,,,,METAR,305.0
KGGF 230815Z AUTO 15009KT 10SM CLR 08/M06 A2931 RMK AO2,KGGF,2022-10-23T08:15:00Z,,,8.0,-6.0,150,9,,10.0,29.309055,,,TRUE,TRUE,,,,,,,CLR,,,,,,,,VFR,,,,,,,,,,,,METAR,
KGGE 230815Z AUTO 33003KT 10SM CLR 12/11 A3012 RMK AO2,KGGE,2022-10-23T08:15:00Z,33.32,-79.32,12.0,11.0,330,3,,10.0,30.121063,,,TRUE,TRUE,,,,,,,CLR,,,,,,,,VFR,,,,,,,,,,,,SPECI,9.0
KGEV 230815Z AUTO 00000KT 10SM CLR 03/01 A3024 RMK AO2 T00320007,KGEV,2022-10-23T08:15:00Z,36.43,-81.42,3.2,0.7,0,0,,10.0,30.239174,,,TRUE,TRUE,,,,,,,CLR,,,,,,,,VFR,,,,,,,,,,,,METAR,961.0
KGDJ 230815Z AUTO 16011G15KT 10SM CLR 22/16 A2980 RMK AO2 T02160162,KGDJ,2022-10-23T08:15:00Z,32.45,-97.82,21.6,16.2,160,11,15,10.0,29.799213,,,TRUE,TRUE,,,,,,,CLR,,,,,,,,VFR,,,,,,,,,,,,METAR,235.0
KGDB 230815Z AUTO 09006KT 10SM CLR 11/06 A2954 RMK AO2 T01060061,KGDB,2022-10-23T08:15:00Z,44.75,-95.55,10.6,6.1,90,6,,10.0,29.53937,,,TRUE,TRUE,,,,,,,CLR,,,,,,,,VFR,,,,,,,,,,,,METAR,316.0
KGCY 230815Z AUTO 00000KT 10SM CLR 09/03 A3018 RMK A01,KGCY,2022-10-23T08:15:00Z,36.2,-82.82,9.0,3.0,0,0,,10.0,30.180119,,,TRUE,TRUE,,,,,,,CLR,,,,,,,,VFR,,,,,,,,,,,,METAR,488.0
KGCM 230815Z AUTO 19013G17KT 10SM CLR 22/10 A2971 RMK AO2,KGCM,2022-10-23T08:15:00Z,36.3,-95.48,22.0,10.0,190,13,17,10.0,29.71063,,,TRUE,TRUE,,,,,,,CLR,,,,,,,,VFR,,,,,,,,,,,,METAR,215.0
KGCD 230815Z AUTO 00000KT 1SM -SN OVC003 00/00 A2983 RMK AO2 T00000000,KGCD,2022-10-23T08:15:00Z,44.4,-118.97,0.0,0.0,0,0,,1.0,29.828741,,,TRUE,TRUE,,,,,,-SN,OVC,300,,,,,,,LIFR,,,,,,,,,,,,METAR,1122.0
KGBK 230815Z AUTO 15011KT 9SM BKN040 BKN060 25/17 A2997 RMK A01,KGBK,2022-10-23T08:15:00Z,27.2,-92.2,25.0,17.0,150,11,,9.0,29.970472,,,TRUE,TRUE,,,,,,,BKN,4000,BKN,6000,,,,,VFR,,,,,,,,,,,,METAR,20.0
KGBG 230815Z AUTO 15006KT 10SM CLR 17/13 A2981 RMK AO2 T01650131,KGBG,2022-10-23T08:15:00Z,40.93,-90.43,16.5,13.1,150,6,,10.0,29.811024,,,TRUE,TRUE,,,,,,,CLR,,,,,,,,VFR,,,,,,,,,,,,METAR,230.0
KGAO 230815Z AUTO 12003KT 10SM SCT044 13/12 A3007 RMK AO2 T01290115,KGAO,2022-10-23T08:15:00Z,29.45,-90.27,12.9,11.5,120,3,,10.0,30.070866,,,TRUE,TRUE,,,,,,,SCT,4400,,,,,,,VFR,,,,,,,,,,,,METAR,0.0
KFZG 230815Z AUTO 00000KT 10SM CLR 06/06 A3014 RMK AO2 T00630056,KFZG,2022-10-23T08:15:00Z,31.68,-83.27,6.3,5.6,0,0,,10.0,30.138779,,,TRUE,TRUE,,,,,,,CLR,,,,,,,,VFR,,,,,,,,,,,,METAR,105.0
KFYJ 230815Z AUTO 00000KT 10SM CLR 10/09 A3019 RMK AO1 T01000091,KFYJ,2022-10-23T08:15:00Z,37.52,-76.77,10.0,9.1,0,0,,10.0,30.188976,,,TRUE,TRUE,,,,,,,CLR,,,,,,,,VFR,,,,,,,,,,,,METAR,3.0
KFYE 230815Z AUTO 17007KT 10SM SCT050 BKN055 18/12 A3002 RMK A01,KFYE,2022-10-23T08:15:00Z,35.2,-89.38,18.0,12.0,170,7,,10.0,30.02067,,,TRUE,TRUE,,,,,,,SCT,5000,BKN,5500,,,,,VFR,,,,,,,,,,,,METAR,133.0
KFXY 230815Z AUTO 14010KT 10SM CLR 15/09 A2963 RMK AO2,KFXY,2022-10-23T08:15:00Z,43.23,-93.62,15.0,9.0,140,10,,10.0,29.630905,,,TRUE,TRUE,,,,,,,CLR,,,,,,,,VFR,,,,,,,,,,,,METAR,366.0
KFWZ 230815Z AUTO 00000KT 10SM OVC015 M01/M02 A2945 RMK AO2,KFWZ,2022-10-23T08:15:00Z,42.52,-108.78,-1.0,-2.0,0,0,,10.0,29.450787,,,TRUE,TRUE,,,,,,,OVC,1500,,,,,,,MVFR,,,,,,,,,,,,METAR,2605.0
KFWS 230815Z AUTO 17012G20KT 10SM CLR 21/16 A2981 RMK AO2 T02130165,KFWS,2022-10-23T08:15:00Z,32.57,-97.3,21.3,16.5,170,12,20,10.0,29.811024,,,TRUE,TRUE,,,,,,,CLR,,,,,,,,VFR,,,,,,,,,,,,METAR,211.0
KFWC 230815Z AUTO 15010G15KT OVC060 19/11 A2997 RMK AO1 T01850105 PWINO,KFWC,2022-10-23T08:15:00Z,38.38,-88.42,18.5,10.5,150,10,15,,29.970472,,,TRUE,TRUE,,,,,TRUE,,OVC,6000,,,,,,,,,,,,,,,,,,,METAR,131.0
KFWB 230815Z AUTO VRB04KT 10SM CLR 20/13 A2980 RMK AO2,KFWB,2022-10-23T08:15:00Z,36.7,-93.4,20.0,13.0,0,4,,10.0,29.799213,,,TRUE,TRUE,,,,,,,CLR,,,,,,,,VFR,,,,,,,,,,,,SPECI,392.0
KFVX 230815Z AUTO 00000KT 7SM CLR 03/03 A3022 RMK AO2 T00320030,KFVX,2022-10-23T08:15:00Z,37.35,-78.43,3.2,3.0,0,0,,7.0,30.221457,,,TRUE,TRUE,,,,,,,CLR,,,,,,,,VFR,,,,,,,,,,,,SPECI,129.0
KFTN 230815Z AUTO 15010KT 10SM CLR 21/18 A2983 RMK A01,KFTN,2022-10-23T08:15:00Z,28.22,-100.02,21.0,18.0,150,10,,10.0,29.828741,,,TRUE,TRUE,,,,,,,CLR,,,,,,,,VFR,,,,,,,,,,,,METAR,236.0
KFSW 230815Z AUTO 15007KT 10SM OVC001 17/12 A2976 RMK AO2,KFSW,2022-10-23T08:15:00Z,40.67,-91.32,17.0,12.0,150,7,,10.0,29.760826,,,TRUE,TRUE,,,,,,,OVC,100,,,,,,,LIFR,,,,,,,,,,,,METAR,219.0
KFSO 230815Z AUTO 00000KT 10SM CLR 09/04 A3028 RMK AO2 T00870036,KFSO,2022-10-23T08:15:00Z,44.93,-73.1,8.7,3.6,0,0,,10.0,30.280512,,,TRUE,TRUE,,,,,,,CLR,,,,,,,,VFR,,,,,,,,,,,,METAR,70.0
KFSK 230815Z AUTO 18019G29KT 10SM BKN120 22/13 A2964 RMK AO2 T02230125,KFSK,2022-10-23T08:15:00Z,37.8,-94.77,22.3,12.5,180,19,29,10.0,29.639763,,,TRUE,TRUE,,,,,,,BKN,12000,,,,,,,VFR,,,,,,,,,,,,METAR,276.0
KFSE 230815Z AUTO 10003KT 10SM CLR 06/03 A2956 RMK AO2,KFSE,2022-10-23T08:15:00Z,47.58,-95.77,6.0,3.0,100,3,,10.0,29.56004,,,TRUE,TRUE,,,,,,,CLR,,,,,,,,VFR,,,,,,,,,,,,METAR,389.0
KFRR 230815Z AUTO 00000KT 10SM CLR 02/02 A3024 RMK AO1,KFRR,2022-10-23T08:15:00Z,38.92,-78.25,2.0,2.0,0,0,,10.0,30.239174,,,TRUE,TRUE,,,,,,,CLR,,,,,,,,VFR,,,,,,,,,,,,SPECI,213.0
KFRH 230815Z AUTO 15003KT 10SM CLR 16/09 A3006 RMK AO1,KFRH,2022-10-23T08:15:00Z,38.5,-86.63,16.0,9.0,150,3,,10.0,30.059055,,,TRUE,TRUE,,,,,,,CLR,,,,,,,,VFR,,,,,,,,,,,,METAR,241.0
KFQD 230815Z AUTO 30003KT 10SM CLR 06/03 A3022 RMK AO2,KFQD,2022-10-23T08:15:00Z,35.42,-81.93,6.0,3.0,300,3,,10.0,30.221457,,,TRUE,TRUE,,,,,,,CLR,,,,,,,,VFR,,,,,,,,,,,,METAR,325.0
KFPY 230815Z AUTO 00000KT 10SM CLR 07/06 A3012 RMK AO2 T00660055 TSNO,KFPY,2022-10-23T08:15:00Z,30.07,-83.57,6.6,5.5,0,0,,10.0,30.121063,,,TRUE,TRUE,,,TRUE,,,,CLR,,,,,,,,VFR,,,,,,,,,,,,METAR,12.0
KFPK 230815Z AUTO 19006KT 10SM CLR 13/09 A3003 RMK AO2 T01310093,KFPK,2022-10-23T08:15:00Z,42.57,-84.82,13.1,9.3,190,6,,10.0,30.029528,,,TRUE,TRUE,,,,,,,CLR,,,,,,,,VFR,,,,,,,,,,,,METAR,269.0
KFOA 230815Z AUTO 16012KT 10SM BKN055 18/11 A2997 RMK AO2,KFOA,2022-10-23T08:15:00Z,38.67,-88.45,18.0,11.0,160,12,,10.0,29.970472,,,TRUE,TRUE,,,,,,,BKN,5500,,,,,,,VFR,,,,,,,,,,,,METAR,141.0
KFMM 230815Z AUTO 00000G10KT 10SM CLR 08/M06 A2935 RMK AO2,KFMM,2022-10-23T08:15:00Z,40.33,-103.8,8.0,-6.0,0,0,10,10.0,29.350393,,,TRUE,TRUE,,,,,,,CLR,,,,,,,,VFR,,,,,,,,,,,,METAR,1376.0
KFLY 230815Z AUTO 18021G27KT 10SM CLR 13/M03 A2952 RMK AO2 T01271029,KFLY,2022-10-23T08:15:00Z,38.95,-104.57,12.7,-2.9,180,21,27,10.0,29.518702,,,TRUE,TRUE,,,,,,,CLR,,,,,,,,VFR,,,,,,,,,,,,METAR,2096.0
KFKS 230815Z AUTO 17008KT 10SM CLR 17/11 A2994 RMK AO2 T01700110,KFKS,2022-10-23T08:15:00Z,44.63,-86.2,17.0,11.0,170,8,,10.0,29.940945,,,TRUE,TRUE,,,,,,,CLR,,,,,,,,VFR,,,,,,,,,,,,METAR,189.0
KFKR 230815Z AUTO 16008KT 10SM FEW045 BKN050 14/10 A3001 RMK AO2,KFKR,2022-10-23T08:15:00Z,40.27,-86.57,14.0,10.0,160,8,,10.0,30.008858,,,TRUE,TRUE,,,,,,,FEW,4500,BKN,5000,,,,,VFR,,,,,,,,,,,,METAR,260.0
KFKN 230815Z AUTO 33003KT 10SM CLR 11/10 A3015 RMK AO2 T01060098,KFKN,2022-10-23T08:15:00Z,36.7,-76.9,10.6,9.8,330,3,,10.0,30.15059,,,TRUE,TRUE,,,,,,,CLR,,,,,,,,VFR,,,,,,,,,,,,SPECI,9.0
KFKA 230815Z AUTO 16010G16KT 10SM CLR 16/09 A2971 RMK AO2 T01600087,KFKA,2022-10-23T08:15:00Z,43.68,-92.17,16.0,8.7,160,10,16,10.0,29.71063,,,TRUE,TRUE,,,,,,,CLR,,,,,,,,VFR,,,,,,,,,,,,METAR,388.0
KFIN 230815Z AUTO 00000KT 10SM CLR 13/13 A3007 RMK AO2 T01300125,KFIN,2022-10-23T08:15:00Z,29.47,-81.2,13.0,12.5,0,0,,10.0,30.070866,,,TRUE,TRUE,,,,,,,CLR,,,,,,,,VFR,,,,,,,,,,,,METAR,10.0
KFHB 230815Z AUTO 33005KT 10SM CLR 14/12 A3010 RMK AO2,KFHB,2022-10-23T08:15:00Z,30.62,-81.47,14.0,12.0,330,5,,10.0,30.100393,,,TRUE,TRUE,,,,,,,CLR,,,,,,,,VFR,,,,,,,,,,,,METAR,4.0
KFGX 230815Z AUTO 20004KT 10SM CLR 13/07 A3016 RMK AO2 T01330071,KFGX,2022-10-23T08:15:00Z,38.55,-83.75,13.3,7.1,200,4,,10.0,30.159449,,,TRUE,TRUE,,,,,,,CLR,,,,,,,,VFR,,,,,,,,,,,,SPECI,279.0
KFGN 230815Z AUTO 06008KT 10SM CLR 09/04 A2965 RMK AO2,KFGN,2022-10-23T08:15:00Z,49.32,-94.9,9.0,4.0,60,8,,10.0,29.648623,,,TRUE,TRUE,,,,,,,CLR,,,,,,,,VFR,,,,,,,,,,,,METAR,327.0
KFFX 230815Z AUTO 15003KT 10SM CLR 16/11 A2998 RMK AO2 T01600109,KFFX,2022-10-23T08:15:00Z,43.43,-86.0,16.0,10.9,150,3,,10.0,29.97933,,,TRUE,TRUE,,,,,,,CLR,,,,,,,,VFR,,,,,,,,,,,,METAR,234.0
KFFM 230815Z AUTO 10008KT 10SM CLR 10/02 A2952 RMK AO2,KFFM,2022-10-23T08:15:00Z,46.28,-96.15,10.0,2.0,100,8,,10.0,29.518702,,,TRUE,TRUE,,,,,,,CLR,,,,,,,,VFR,,,,,,,,,,,,METAR,362.0
KFFL 230815Z AUTO 16012KT 10SM CLR 19/11 A2971 RMK A01,KFFL,2022-10-23T08:15:00Z,41.05,-91.97,19.0,11.0,160,12,,10.0,29.71063,,,TRUE,TRUE,,,,,,,CLR,,,,,,,,VFR,,,,,,,,,,,,METAR,240.0
KFET 230815Z AUTO 12010KT 10SM CLR 18/13 A2946 RMK AO2 T01750125,KFET,2022-10-23T08:15:00Z,41.45,-96.52,17.5,12.5,120,10,,10.0,29.459646,,,TRUE,TRUE,,,,,,,CLR,,,,,,,,VFR,,,,,,,,,,,,METAR,366.0
KFEP 230815Z AUTO 15011KT 10SM CLR 16/14 A2984 RMK AO2 T01550142,KFEP,2022-10-23T08:15:00Z,42.25,-89.58,15.5,14.2,150,11,,10.0,29.840551,,,TRUE,TRUE,,,,,,,CLR,,,,,,,,VFR,,,,,,,,,,,,METAR,255.0
KFDW 230815Z AUTO 03005KT 10SM CLR 11/06 A3016 RMK AO1,KFDW,2022-10-23T08:15:00Z,34.32,-81.12,11.0,6.0,30,5,,10.0,30.159449,,,TRUE,TRUE,,,,,,,CLR,,,,,,,,VFR,,,,,,,,,,,,METAR,174.0
KFBL 230815Z AUTO 14010KT 10SM CLR 17/08 A2964 RMK AO2,KFBL,2022-10-23T08:15:00Z,44.33,-93.32,17.0,8.0,140,10,,10.0,29.639763,,,TRUE,TRUE,,,,,,,CLR,,,,,,,,VFR,,,,,,,,,,,,METAR,318.0
KF70 230815Z AUTO 22004KT 10SM SCT011 BKN027 OVC049 14/13 A2981 RMK AO2,KF70,2022-10-23T08:15:00Z,33.57,-117.13,14.0,13.0,220,4,,10.0,29.811024,,,TRUE,TRUE,,,,,,,SCT,1100,BKN,2700,OVC,4900,,,MVFR,,,,,,,,,,,,METAR,406.0
KF46 230815Z AUTO 19012G17KT 10SM CLR 21/16 A2983 RMK AO2 T02100156,KF46,2022-10-23T08:15:00Z,32.93,-96.43,21.0,15.6,190,12,17,10.0,29.828741,,,TRUE,TRUE,,,,,,,CLR,,,,,,,,VFR,,,,,,,,,,,,METAR,175.0
KF44 230815Z AUTO 17006KT 10SM CLR 20/15 A2987 RMK AO2,KF44,2022-10-23T08:15:00Z,32.17,-95.83,20.0,15.0,170,6,,10.0,29.870079,,,TRUE,TRUE,,,,,,,CLR,,,,,,,,VFR,,,,,,,,,,,,METAR,137.0
KF17 230815Z AUTO 15004KT 10SM SCT036 20/16 A2995 RMK AO2,KF17,2022-10-23T08:15:00Z,31.83,-94.15,20.0,16.0,150,4,,10.0,29.949802,,,TRUE,TRUE,,,,,,,SCT,3600,,,,,,,VFR,,,,,,,,,,,,METAR,93.0
KF05 230815Z AUTO 20015KT 10SM CLR 24/12 A2967 RMK AO2 T02350121,KF05,2022-10-23T08:15:00Z,34.23,-99.28,23.5,12.1,200,15,,10.0,29.66929,,,TRUE,TRUE,,,,,,,CLR,,,,,,,,VFR,,,,,,,,,,,,METAR,384.0
KF00 230815Z AUTO 18013G17KT 10SM CLR 21/15 A2982 RMK AO2 T02100155,KF00,2022-10-23T08:15:00Z,33.62,-96.18,21.0,15.5,180,13,17,10.0,29.819881,,,TRUE,TRUE,,,,,,,CLR,,,,,,,,VFR,,,,,,,,,,,,METAR,189.0
KEZZ 230815Z AUTO 15012KT 10SM CLR 19/12 A2962 RMK AO2 T01880123,KEZZ,2022-10-23T08:15:00Z,39.72,-94.28,18.8,12.3,150,12,,10.0,29.619095,,,TRUE,TRUE,,,,,,,CLR,,,,,,,,VFR,,,,,,,,,,,,METAR,317.0
KEZM 230815Z AUTO 00000KT 10SM CLR 03/03 A3016 RMK AO2,KEZM,2022-10-23T08:15:00Z,32.22,-83.13,3.0,3.0,0,0,,10.0,30.159449,,,TRUE,TRUE,,,,,,,CLR,,,,,,,,VFR,,,,,,,,,,,,METAR,86.0
KEZF 230815Z AUTO 00000KT 10SM CLR 05/05 A3022 RMK AO2 T00540051,KEZF,2022-10-23T08:15:00Z,38.27,-77.45,5.4,5.1,0,0,,10.0,30.221457,,,TRUE,TRUE,,,,,,,CLR,,,,,,,,VFR,,,,,,,,,,,,SPECI,26.0
KEYF 230815Z AUTO 34005KT 10SM CLR 13/10 A3013 RMK AO2 T01320105,KEYF,2022-10-23T08:15:00Z,34.6,-78.58,13.2,10.5,340,5,,10.0,30.129921,,,TRUE,TRUE,,,,,,,CLR,,,,,,,,VFR,,,,,,,,,,,,METAR,39.0
KEXX 230815Z AUTO 07007KT 10SM CLR 04/04 A3019 RMK AO2 T00440044,KEXX,2022-10-23T08:15:00Z,35.78,-80.3,4.4,4.4,70,7,,10.0,30.188976,,,TRUE,TRUE,,,,,,,CLR,,,,,,,,VFR,,,,,,,,,,,,SPECI,221.0
KEVU 230815Z AUTO 14010KT 10SM CLR 18/13 A2956 RMK AO2 T01850131,KEVU,2022-10-23T08:15:00Z,40.35,-94.92,18.5,13.1,140,10,,10.0,29.56004,,,TRUE,TRUE,,,,,,,CLR,,,,,,,,VFR,,,,,,,,,,,,SPECI,351.0
KETN 230815Z AUTO 18007KT 10SM CLR 20/12 A2978 RMK AO2 T02020122,KETN,2022-10-23T08:15:00Z,32.42,-98.82,20.2,12.2,180,7,,10.0,29.778543,,,TRUE,TRUE,,,,,,,CLR,,,,,,,,VFR,,,,,,,,,,,,METAR,445.0
KETC 230815Z AUTO 33003KT 10SM CLR 11/10 A3014 RMK AO2 T01150100,KETC,2022-10-23T08:15:00Z,35.93,-77.55,11.5,10.0,330,3,,10.0,30.138779,,,TRUE,TRUE,,,,,,,CLR,,,,,,,,VFR,,,,,,,,,,,,METAR,15.0
KETB 230815Z AUTO 17007KT 10SM CLR 15/11 A2988 RMK AO2,KETB,2022-10-23T08:15:00Z,43.42,-88.13,15.0,11.0,170,7,,10.0,29.878937,,,TRUE,TRUE,,,,,,,CLR,,,,,,,,VFR,,,,,,,,,,,,METAR,269.0
KERY 230815Z AUTO 19012G17KT 10SM CLR 15/10 A2992 RMK AO2 T01520095,KERY,2022-10-23T08:15:00Z,46.3,-85.45,15.2,9.5,190,12,17,10.0,29.920275,,,TRUE,TRUE,,,,,,,CLR,,,,,,,,VFR,,,,,,,,,,,,METAR,261.0
KERV 230815Z AUTO 17008KT 10SM OVC012 20/18 A2989 RMK AO2 T01980176,KERV,2022-10-23T08:15:00Z,29.98,-99.08,19.8,17.6,170,8,,10.0,29.890747,,,TRUE,TRUE,,,,,,,OVC,1200,,,,,,,MVFR,,,,,,,,,,,,METAR,483.0
KEQA 230815Z AUTO 17014KT 10SM CLR 21/12 A2955 RMK AO2,KEQA,2022-10-23T08:15:00Z,37.78,-96.82,21.0,12.0,170,14,,10.0,29.551182,,,TRUE,TRUE,,,,,,,CLR,,,,,,,,VFR,,,,,,,,,,,,METAR,422.0
KEOE 230815Z AUTO 02004KT 10SM CLR 08/02 A3020 RMK AO2,KEOE,2022-10-23T08:15:00Z,34.32,-81.63,8.0,2.0,20,4,,10.0,30.200787,,,TRUE,TRUE,,,,,,,CLR,,,,,,,,VFR,,,,,,,,,,,,METAR,166.0
KEMM 230815Z AUTO 29004KT 10SM CLR M02/M03 A2954 RMK AO2,KEMM,2022-10-23T08:15:00Z,41.82,-110.55,-2.0,-3.0,290,4,,10.0,29.53937,,,TRUE,TRUE,,,,,,,CLR,,,,,,,,VFR,,,,,,,,,,,,METAR,2219.0
KELO 230815Z AUTO 00000KT 10SM CLR 03/02 A2968 RMK AO2,KELO,2022-10-23T08:15:00Z,47.82,-91.83,3.0,2.0,0,0,,10.0,29.681103,,,TRUE,TRUE,,,,,,,CLR,,,,,,,,VFR,,,,,,,,,,,,METAR,438.0
KELK 230815Z AUTO 19012KT 10SM OVC240 20/12 A2963 RMK AO2 SLP325 T02040116 $,KELK,2022-10-23T08:15:00Z,35.43,-99.4,20.4,11.6,190,12,,10.0,29.630905,1032.5,,TRUE,TRUE,TRUE,,,,,,OVC,24000,,,,,,,VFR,,,,,,,,,,,,SPECI,603.0
KELA 230815Z AUTO 17003KT 10SM CLR 18/17 A2989 RMK AO2 T01770165,KELA,2022-10-23T08:15:00Z,29.6,-96.32,17.7,16.5,170,3,,10.0,29.890747,,,TRUE,TRUE,,,,,,,CLR,,,,,,,,VFR,,,,,,,,,,,,METAR,56.0
KEKX 230815Z AUTO 14004KT 10SM CLR 14/10 A3010 RMK AO2 T01370098,KEKX,2022-10-23T08:15:00Z,37.68,-85.92,13.7,9.8,140,4,,10.0,30.100393,,,TRUE,TRUE,,,,,,,CLR,,,,,,,,VFR,,,,,,,,,,,,SPECI,234.0
KEKS 230815Z AUTO 04011KT 1SM -SN OVC003 M01/M01 A2961 RMK AO2,KEKS,2022-10-23T08:15:00Z,45.27,-111.65,-1.0,-1.0,40,11,,1.0,29.610237,,,TRUE,TRUE,,,,,,-SN,OVC,300,,,,,,,LIFR,,,,,,,,,,,,METAR,1636.0
KEKM 230815Z AUTO 14005KT 9SM CLR 14/12 A3002 RMK AO2 T01380116,KEKM,2022-10-23T08:15:00Z,41.72,-86.0,13.8,11.6,140,5,,9.0,30.02067,,,TRUE,TRUE,,,,,,,CLR,,,,,,,,VFR,,,,,,,,,,,,METAR,236.0
KEIK 230815Z AUTO 16003KT 10SM CLR 09/M07 A2935 RMK AO2 T00851075 PWINO,KEIK,2022-10-23T08:15:00Z,40.02,-105.05,8.5,-7.5,160,3,,10.0,29.350393,,,TRUE,TRUE,,,,,TRUE,,CLR,,,,,,,,VFR,,,,,,,,,,,,METAR,1551.0
KEHO 230815Z AUTO 00000KT 10SM CLR 04/03 A3020 RMK AO2 T00370033,KEHO,2022-10-23T08:15:00Z,35.25,-81.6,3.7,3.3,0,0,,10.0,30.200787,,,TRUE,TRUE,,,,,,,CLR,,,,,,,,VFR,,,,,,,,,,,,METAR,261.0
KEHA 230815Z AUTO 22026G35KT 10SM CLR 20/09 A2954 RMK AO2 T02020092,KEHA,2022-10-23T08:15:00Z,37.0,-101.87,20.2,9.2,220,26,35,10.0,29.53937,,,TRUE,TRUE,,,,,,,CLR,,,,,,,,VFR,,,,,,,,,,,,METAR,1103.0
KEGV 230815Z AUTO 16004KT 10SM CLR 13/08 A2981 RMK AO2 T01270081,KEGV,2022-10-23T08:15:00Z,45.93,-89.27,12.7,8.1,160,4,,10.0,29.811024,,,TRUE,TRUE,,,,,,,CLR,,,,,,,,VFR,,,,,,,,,,,,METAR,499.0
KEGT 230815Z AUTO 19018G23KT 10SM CLR 23/12 A2955 RMK AO2,KEGT,2022-10-23T08:15:00Z,37.32,-97.38,23.0,12.0,190,18,23,10.0,29.551182,,,TRUE,TRUE,,,,,,,CLR,,,,,,,,VFR,,,,,,,,,,,,METAR,387.0
KEFK 230815Z AUTO 20004KT 10SM CLR 07/02 A3033 RMK AO2 T00700024,KEFK,2022-10-23T08:15:00Z,44.88,-72.23,7.0,2.4,200,4,,10.0,30.33071,,,TRUE,TRUE,,,,,,,CLR,,,,,,,,VFR,,,,,,,,,,,,METAR,282.0
KEDN 230815Z AUTO 00000KT 10SM CLR 08/08 A3013 RMK AO2 T00750075,KEDN,2022-10-23T08:15:00Z,31.3,-85.9,7.5,7.5,0,0,,10.0,30.129921,,,TRUE,TRUE,,,,,,,CLR,,,,,,,,VFR,,,,,,,,,,,,METAR,103.0
KEDJ 230815Z AUTO 17006KT 10SM SCT050 14/09 A3013 RMK A01,KEDJ,2022-10-23T08:15:00Z,40.37,-83.82,14.0,9.0,170,6,,10.0,30.129921,,,TRUE,TRUE,,,,,,,SCT,5000,,,,,,,VFR,,,,,,,,,,,,METAR,341.0
KEDE 230815Z AUTO 36009KT 10SM SCT070 14/14 A3011 RMK AO2 T01440140,KEDE,2022-10-23T08:15:00Z,36.03,-76.57,14.4,14.0,360,9,,10.0,30.109253,,,TRUE,TRUE,,,,,,,SCT,7000,,,,,,,VFR,,,,,,,,,,,,METAR,4.0
KECU 230815Z AUTO 15012KT 10SM CLR 18/16 A2992 RMK AO2,KECU,2022-10-23T08:15:00Z,29.95,-100.17,18.0,16.0,150,12,,10.0,29.920275,,,TRUE,TRUE,,,,,,,CLR,,,,,,,,VFR,,,,,,,,,,,,METAR,725.0
KECS 230815Z AUTO 02009KT 10SM BKN110 12/M03 A2936 RMK AO2,KECS,2022-10-23T08:15:00Z,43.88,-104.32,12.0,-3.0,20,9,,10.0,29.359253,,,TRUE,TRUE,,,,,,,BKN,11000,,,,,,,VFR,,,,,,,,,,,,METAR,1273.0
KEBS 230815Z AUTO 14014KT 10SM CLR 16/11 A2959 RMK AO2,KEBS,2022-10-23T08:15:00Z,42.43,-93.87,16.0,11.0,140,14,,10.0,29.589567,,,TRUE,TRUE,,,,,,,CLR,,,,,,,,VFR,,,,,,,,,,,,SPECI,340.0
KEBG 230815Z AUTO 12004KT 10SM CLR 20/19 A2986 RMK AO2 T01990186 PWINO,KEBG,2022-10-23T08:15:00Z,26.45,-98.13,19.9,18.6,120,4,,10.0,29.861221,,,TRUE,TRUE,,,,,TRUE,,CLR,,,,,,,,VFR,,,,,,,,,,,,METAR,21.0
KEBA 230815Z AUTO 30003KT 10SM CLR 07/04 A3020 RMK AO2 T00740044,KEBA,2022-10-23T08:15:00Z,34.1,-82.82,7.4,4.4,300,3,,10.0,30.200787,,,TRUE,TRUE,,,,,,,CLR,,,,,,,,VFR,,,,,,,,,,,,METAR,180.0
KE42 230815Z AUTO 21021G26KT 10SM CLR 20/10 A2958 RMK AO2 T02050104,KE42,2022-10-23T08:15:00Z,36.22,-101.2,20.5,10.4,210,21,26,10.0,29.58071,,,TRUE,TRUE,,,,,,,CLR,,,,,,,,VFR,,,,,,,,,,,,METAR,942.0
KE41 230815Z AUTO 17014G21KT 10SM CLR 19/12 A2982 RMK AO2 T01920122,KE41,2022-10-23T08:15:00Z,31.2,-101.47,19.2,12.2,170,14,21,10.0,29.819881,,,TRUE,TRUE,,,,,,,CLR,,,,,,,,VFR,,,,,,,,,,,,METAR,825.0
KE38 230815Z AUTO 20005KT 10SM CLR 18/05 A2995 RMK AO2 T01800045,KE38,2022-10-23T08:15:00Z,30.38,-103.68,18.0,4.5,200,5,,10.0,29.949802,,,TRUE,TRUE,,,,,,,CLR,,,,,,,,VFR,,,,,,,,,,,,METAR,1372.0
KE16 230815Z AUTO 32008KT 10SM SCT019 11/07 A2988 RMK AO2,KE16,2022-10-23T08:15:00Z,37.08,-121.6,11.0,7.0,320,8,,10.0,29.878937,,,TRUE,TRUE,,,,,,,SCT,1900,,,,,,,VFR,,,,,,,,,,,,METAR,84.0
KE11 230815Z AUTO 19010KT 10SM CLR 18/13 A2979 RMK AO2 T01760128,KE11,2022-10-23T08:15:00Z,32.33,-102.53,17.6,12.8,190,10,,10.0,29.790354,,,TRUE,TRUE,,,,,,,CLR,,,,,,,,VFR,,,,,,,,,,,,METAR,966.0
KDZJ 230815Z AUTO 00000KT 7SM CLR 02/02 A3023 RMK AO2 T00210019,KDZJ,2022-10-23T08:15:00Z,34.85,-84.0,2.1,1.9,0,0,,7.0,30.230314,,,TRUE,TRUE,,,,,,,CLR,,,,,,,,VFR,,,,,,,,,,,,METAR,578.0
KDZB 230815Z AUTO 18007KT 10SM OVC020 22/17 A2987 RMK AO2 T02160172,KDZB,2022-10-23T08:15:00Z,30.53,-98.37,21.6,17.2,180,7,,10.0,29.870079,,,TRUE,TRUE,,,,,,,OVC,2000,,,,,,,MVFR,,,,,,,,,,,,METAR,329.0
KDYT 230815Z AUTO 07010G15KT 9SM OVC006 10/09 A2969 RMK AO2,KDYT,2022-10-23T08:15:00Z,46.72,-92.03,10.0,9.0,70,10,15,9.0,29.68996,,,TRUE,TRUE,,,,,,,OVC,600,,,,,,,IFR,,,,,,,,,,,,METAR,185.0
KDYB 230815Z AUTO 00000KT 10SM CLR 11/11 A3012 RMK AO2,KDYB,2022-10-23T08:15:00Z,33.07,-80.28,11.0,11.0,0,0,,10.0,30.121063,,,TRUE,TRUE,,,,,,,CLR,,,,,,,,VFR,,,,,,,,,,,,SPECI,15.0
KDYA 230815Z AUTO 00000KT 5SM BR CLR 10/10 A3012 RMK AO2 T00960096,KDYA,2022-10-23T08:15:00Z,32.47,-87.95,9.6,9.6,0,0,,5.0,30.121063,,,TRUE,TRUE,,,,,,BR,CLR,,,,,,,,MVFR,,,,,,,,,,,,SPECI,33.0
KDXX 230815Z AUTO 10008KT 10SM CLR 08/03 A2952 RMK AO2,KDXX,2022-10-23T08:15:00Z,44.98,-96.18,8.0,3.0,100,8,,10.0,29.518702,,,TRUE,TRUE,,,,,,,CLR,,,,,,,,VFR,,,,,,,,,,,,METAR,327.0
KDWA 230815Z AUTO 34011G16KT 10SM CLR 15/M01 A2985 RMK AO2,KDWA,2022-10-23T08:15:00Z,38.58,-121.85,15.0,-1.0,340,11,16,10.0,29.84941,,,TRUE,TRUE,,,,,,,CLR,,,,,,,,VFR,,,,,,,,,,,,METAR,28.0
KDVO 230815Z AUTO 32014G21KT 10SM CLR 14/03 A2988 RMK AO2,KDVO,2022-10-23T08:15:00Z,38.15,-122.55,14.0,3.0,320,14,21,10.0,29.878937,,,TRUE,TRUE,,,,,,,CLR,,,,,,,,VFR,,,,,,,,,,,,METAR,1.0
KDUX 230815Z AUTO 20011KT 10SM CLR 18/10 A2964 RMK AO2 T01770096,KDUX,2022-10-23T08:15:00Z,35.85,-102.02,17.7,9.6,200,11,,10.0,29.639763,,,TRUE,TRUE,,,,,,,CLR,,,,,,,,VFR,,,,,,,,,,,,METAR,1129.0
KDUH 230815Z AUTO 17003KT 10SM CLR 13/08 A3009 RMK AO2 T01260082,KDUH,2022-10-23T08:15:00Z,41.73,-83.65,12.6,8.2,170,3,,10.0,30.088583,,,TRUE,TRUE,,,,,,,CLR,,,,,,,,VFR,,,,,,,,,,,,METAR,203.0
KDUC 230815Z AUTO 17013KT 10SM CLR 21/12 A2971 RMK AO2 T02100124,KDUC,2022-10-23T08:15:00Z,34.47,-97.97,21.0,12.4,170,13,,10.0,29.71063,,,TRUE,TRUE,,,,,,,CLR,,,,,,,,VFR,,,,,,,,,,,,METAR,339.0
KDUA 230815Z AUTO 18013KT 10SM CLR 22/15 A2980 RMK AO2,KDUA,2022-10-23T08:15:00Z,33.95,-96.4,22.0,15.0,180,13,,10.0,29.799213,,,TRUE,TRUE,,,,,,,CLR,,,,,,,,VFR,,,,,,,,,,,,METAR,209.0
KDTL 230815Z AUTO 12003KT 10SM CLR 08/04 A2954 RMK AO2,KDTL,2022-10-23T08:15:00Z,46.82,-95.88,8.0,4.0,120,3,,10.0,29.53937,,,TRUE,TRUE,,,,,,,CLR,,,,,,,,VFR,,,,,,,,,,,,METAR,425.0
KDTA 230815Z AUTO 17010KT 10SM OVC003 01/01 A2961 RMK AO1,KDTA,2022-10-23T08:15:00Z,39.38,-112.5,1.0,1.0,170,10,,10.0,29.610237,,,TRUE,TRUE,,,,,,,OVC,300,,,,,,,LIFR,,,,,,,,,,,,METAR,1452.0
KDSF 230815Z AUTO 08007KT 10SM CLR 23/14 A3007 RMK A01,KDSF,2022-10-23T08:15:00Z,28.35,-88.27,23.0,14.0,80,7,,10.0,30.070866,,,TRUE,TRUE,,,,,,,CLR,,,,,,,,VFR,,,,,,,,,,,,METAR,40.0
KDRM 230815Z AUTO 00000KT 10SM CLR 08/08 A2999 RMK AO2 T00780077,KDRM,2022-10-23T08:15:00Z,46.0,-83.75,7.8,7.7,0,0,,10.0,29.991142,,,TRUE,TRUE,,,,,,,CLR,,,,,,,,VFR,,,,,,,,,,,,METAR,201.0
KDRI 230815Z AUTO 12004KT 10SM CLR 18/17 A2998 RMK AO2 T01760173 $,KDRI,2022-10-23T08:15:00Z,30.83,-93.33,17.6,17.3,120,4,,10.0,29.97933,,,TRUE,TRUE,TRUE,,,,,,CLR,,,,,,,,VFR,,,,,,,,,,,,SPECI,59.0
KDQH 230815Z AUTO 00000KT 10SM CLR 07/05 A3015 RMK AO2 T00660052,KDQH,2022-10-23T08:15:00Z,31.48,-82.87,6.6,5.2,0,0,,10.0,30.15059,,,TRUE,TRUE,,,,,,,CLR,,,,,,,,VFR,,,,,,,,,,,,METAR,76.0
KDPL 230815Z AUTO 01007KT 10SM CLR 13/10 A3012 RMK AO2,KDPL,2022-10-23T08:15:00Z,35.0,-77.97,13.0,10.0,10,7,,10.0,30.121063,,,TRUE,TRUE,,,,,,,CLR,,,,,,,,VFR,,,,,,,,,,,,METAR,39.0
KDNV 230815Z AUTO 14008KT 10SM OVC055 17/11 A2997 RMK AO2 T01700106,KDNV,2022-10-23T08:15:00Z,40.2,-87.6,17.0,10.6,140,8,,10.0,29.970472,,,TRUE,TRUE,,,,,,,OVC,5500,,,,,,,VFR,,,,,,,,,,,,METAR,208.0
KDNN 230815Z AUTO 00000KT 8SM CLR 06/05 A3019 RMK AO2 T00550048,KDNN,2022-10-23T08:15:00Z,34.72,-84.87,5.5,4.8,0,0,,8.0,30.188976,,,TRUE,TRUE,,,,,,,CLR,,,,,,,,VFR,,,,,,,,,,,,SPECI,216.0
KDNA 230815Z AUTO 22008KT 10SM CLR 20/08 A2982 RMK AO2,KDNA,2022-10-23T08:15:00Z,31.88,-106.7,20.0,8.0,220,8,,10.0,29.819881,,,TRUE,TRUE,,,,,,,CLR,,,,,,,,VFR,,,,,,,,,,,,METAR,1254.0
KDMW 230815Z AUTO 00000KT 10SM CLR 07/06 A3026 RMK AO2,KDMW,2022-10-23T08:15:00Z,39.6,-77.0,7.0,6.0,0,0,,10.0,30.259842,,,TRUE,TRUE,,,,,,,CLR,,,,,,,,VFR,,,,,,,,,,,,METAR,239.0
KDLZ 230815Z AUTO 15003KT 10SM CLR 11/06 A3014 RMK AO2,KDLZ,2022-10-23T08:15:00Z,40.28,-83.12,11.0,6.0,150,3,,10.0,30.138779,,,TRUE,TRUE,,,,,,,CLR,,,,,,,,VFR,,,,,,,,,,,,METAR,287.0
KDLO 230815Z AUTO 00000KT 10SM BKN090 12/07 A2980 RMK AO2 T01230066,KDLO,2022-10-23T08:15:00Z,35.75,-119.23,12.3,6.6,0,0,,10.0,29.799213,,,TRUE,TRUE,,,,,,,BKN,9000,,,,,,,VFR,,,,,,,,,,,,METAR,97.0
KDKX 230815Z AUTO 00000KT M1/4SM FG OVC001 07/07 A3018 RMK A01,KDKX,2022-10-23T08:15:00Z,35.97,-83.87,7.0,7.0,0,0,,0.25,30.180119,,,TRUE,TRUE,,,,,,FG,OVC,100,,,,,,,LIFR,,,,,,,,,,,,METAR,253.0
KDKR 230815Z AUTO 13004KT 10SM CLR 19/19 A2990 RMK AO2,KDKR,2022-10-23T08:15:00Z,31.3,-95.4,19.0,19.0,130,4,,10.0,29.899607,,,TRUE,TRUE,,,,,,,CLR,,,,,,,,VFR,,,,,,,,,,,,METAR,105.0
KDKB 230815Z AUTO 16009KT 10SM CLR 14/12 A2989 RMK AO2 T01350118,KDKB,2022-10-23T08:15:00Z,41.93,-88.7,13.5,11.8,160,9,,10.0,29.890747,,,TRUE,TRUE,,,,,,,CLR,,,,,,,,VFR,,,,,,,,,,,,METAR,277.0
KDEH 230815Z AUTO 16008G14KT 10SM FEW049 BKN060 BKN070 16/10 A2971 RMK AO2,KDEH,2022-10-23T08:15:00Z,43.27,-91.73,16.0,10.0,160,8,14,10.0,29.71063,,,TRUE,TRUE,,,,,,,FEW,4900,BKN,6000,BKN,7000,,,VFR,,,,,,,,,,,,METAR,348.0
KDED 230815Z AUTO 30005KT 10SM CLR 15/13 A3008 RMK AO2 T01500134,KDED,2022-10-23T08:15:00Z,29.07,-81.28,15.0,13.4,300,5,,10.0,30.079725,,,TRUE,TRUE,,,,,,,CLR,,,,,,,,VFR,,,,,,,,,,,,METAR,21.0
KDCY 230815Z AUTO 17009KT 10SM BKN070 18/11 A3003 RMK AO2 T01780107,KDCY,2022-10-23T08:15:00Z,38.7,-87.13,17.8,10.7,170,9,,10.0,30.029528,,,TRUE,TRUE,,,,,,,BKN,7000,,,,,,,VFR,,,,,,,,,,,,SPECI,143.0
KDCM 230815Z AUTO 00000KT 10SM CLR 06/03 A3018 RMK AO2,KDCM,2022-10-23T08:15:00Z,34.78,-81.2,6.0,3.0,0,0,,10.0,30.180119,,,TRUE,TRUE,,,,,,,CLR,,,,,,,,VFR,,,,,,,,,,,,METAR,191.0
KDBN 230815Z AUTO 00000KT 10SM CLR 05/04 A3017 RMK AO2,KDBN,2022-10-23T08:15:00Z,32.57,-82.98,5.0,4.0,0,0,,10.0,30.171259,,,TRUE,TRUE,,,,,,,CLR,,,,,,,,VFR,,,,,,,,,,,,METAR,90.0
KD95 230815Z AUTO 19003KT 10SM CLR 15/07 A3008 RMK AO2 T01470066,KD95,2022-10-23T08:15:00Z,43.07,-83.27,14.7,6.6,190,3,,10.0,30.079725,,,TRUE,TRUE,,,,,,,CLR,,,,,,,,VFR,,,,,,,,,,,,METAR,253.0
KD73 230815Z AUTO 00000KT 10SM CLR 05/ A3020 RMK AO2 T0046////,KD73,2022-10-23T08:15:00Z,33.78,-83.7,4.6,,0,0,,10.0,30.200787,,,TRUE,TRUE,,,,,,,CLR,,,,,,,,VFR,,,,,,,,,,,,METAR,254.0
KD60 230815Z AUTO 07020G25KT 10SM OVC010 05/05 A2956 RMK AO2,KD60,2022-10-23T08:15:00Z,48.38,-102.9,5.0,5.0,70,20,25,10.0,29.56004,,,TRUE,TRUE,,,,,,,OVC,1000,,,,,,,MVFR,,,,,,,,,,,,METAR,682.0
KD57 230815Z AUTO 06011KT 10SM FEW036 SCT100 BKN120 07/04 A2947 RMK AO2,KD57,2022-10-23T08:15:00Z,46.82,-101.87,7.0,4.0,60,11,,10.0,29.471457,,,TRUE,TRUE,,,,,,,FEW,3600,SCT,10000,BKN,12000,,,VFR,,,,,,,,,,,,METAR,636.0
KD55 230815Z AUTO 05016G26KT 10SM BKN008 BKN038 07/07 A2964 RMK AO2,KD55,2022-10-23T08:15:00Z,48.75,-98.4,7.0,7.0,50,16,26,10.0,29.639763,,,TRUE,TRUE,,,,,,,BKN,800,BKN,3800,,,,,IFR,,,,,,,,,,,,METAR,488.0
KD50 230815Z AUTO 07019G25KT 10SM OVC013 05/03 A2961 RMK AO2,KD50,2022-10-23T08:15:00Z,48.93,-103.3,5.0,3.0,70,19,25,10.0,29.610237,,,TRUE,TRUE,,,,,,,OVC,1300,,,,,,,MVFR,,,,,,,,,,,,METAR,591.0
KD39 230815Z AUTO 11003KT 10SM CLR 11/06 A2958 RMK AO2 T01110060,KD39,2022-10-23T08:15:00Z,45.7,-94.93,11.1,6.0,110,3,,10.0,29.58071,,,TRUE,TRUE,,,,,,,CLR,,,,,,,,VFR,,,,,,,,,,,,METAR,378.0
KD25 230815Z AUTO 16007KT 10SM CLR 14/09 A2978 RMK AO2 T01390090,KD25,2022-10-23T08:15:00Z,46.12,-89.88,13.9,9.0,160,7,,10.0,29.778543,,,TRUE,TRUE,,,,,,,CLR,,,,,,,,VFR,,,,,,,,,,,,METAR,490.0
KCZT 230815Z AUTO 15006KT 10SM CLR 20/20 A2981 RMK AO2,KCZT,2022-10-23T08:15:00Z,28.52,-99.82,20.0,20.0,150,6,,10.0,29.811024,,,TRUE,TRUE,,,,,,,CLR,,,,,,,,VFR,,,,,,,,,,,,METAR,176.0
KCZL 230815Z AUTO 00000KT 10SM CLR 06/05 A3021 RMK AO2,KCZL,2022-10-23T08:15:00Z,34.47,-84.93,6.0,5.0,0,0,,10.0,30.209646,,,TRUE,TRUE,,,,,,,CLR,,,,,,,,VFR,,,,,,,,,,,,METAR,197.0
KCXW 230815Z AUTO 19011G18KT 10SM OVC034 21/15 A2989 RMK A01,KCXW,2022-10-23T08:15:00Z,35.02,-92.55,21.0,15.0,190,11,18,10.0,29.890747,,,TRUE,TRUE,,,,,,,OVC,3400,,,,,,,VFR,,,,,,,,,,,,METAR,84.0
KCXU 230815Z AUTO 00000KT 10SM CLR 06/03 A3013 RMK AO1 T00600034,KCXU,2022-10-23T08:15:00Z,31.22,-84.23,6.0,3.4,0,0,,10.0,30.129921,,,TRUE,TRUE,,,,,,,CLR,,,,,,,,VFR,,,,,,,,,,,,METAR,48.0
KCXP 230815Z AUTO 00000KT 10SM CLR M00/M05 A2987 RMK AO2,KCXP,2022-10-23T08:15:00Z,39.18,-119.73,0.0,-5.0,0,0,,10.0,29.870079,,,TRUE,TRUE,,,,,,,CLR,,,,,,,,VFR,,,,,,,,,,,,METAR,1431.0
KCXE 230815Z AUTO 36005KT 10SM CLR 09/07 A3020 RMK AO1 T00850070,KCXE,2022-10-23T08:15:00Z,36.78,-78.5,8.5,7.0,360,5,,10.0,30.200787,,,TRUE,TRUE,,,,,,,CLR,,,,,,,,VFR,,,,,,,,,,,,SPECI,154.0
KCWV 230815Z AUTO 00000KT 10SM CLR 07/06 A3014 RMK AO2 T00680060,KCWV,2022-10-23T08:15:00Z,32.2,-81.87,6.8,6.0,0,0,,10.0,30.138779,,,TRUE,TRUE,,,,,,,CLR,,,,,,,,VFR,,,,,,,,,,,,METAR,32.0
KCWF 230815Z AUTO 12007KT 10SM CLR 17/16 A2998 RMK AO2 T01680156,KCWF,2022-10-23T08:15:00Z,30.22,-93.15,16.8,15.6,120,7,,10.0,29.97933,,,TRUE,TRUE,,,,,,,CLR,,,,,,,,VFR,,,,,,,,,,,,METAR,4.0
KCWC 230815Z AUTO 18012KT 10SM CLR 22/12 A2972 RMK AO2 T02200117,KCWC,2022-10-23T08:15:00Z,33.85,-98.48,22.0,11.7,180,12,,10.0,29.719488,,,TRUE,TRUE,,,,,,,CLR,,,,,,,,VFR,,,,,,,,,,,,METAR,304.0
KCWA 230815Z AUTO 15006KT 10SM CLR 13/09 A2982 RMK AO2,KCWA,2022-10-23T08:15:00Z,44.78,-89.67,13.0,9.0,150,6,,10.0,29.819881,,,TRUE,TRUE,,,,,,,CLR,,,,,,,,VFR,,,,,,,,,,,,METAR,387.0
KCVX 230815Z AUTO 17004KT 10SM CLR 16/11 A2996 RMK AO2 T01600105,KCVX,2022-10-23T08:15:00Z,45.3,-85.27,16.0,10.5,170,4,,10.0,29.958662,,,TRUE,TRUE,,,,,,,CLR,,,,,,,,VFR,,,,,,,,,,,,METAR,196.0
KCVH 230815Z AUTO 00000KT 10SM CLR 11/06 A2987 RMK A01,KCVH,2022-10-23T08:15:00Z,36.9,-121.42,11.0,6.0,0,0,,10.0,29.870079,,,TRUE,TRUE,,,,,,,CLR,,,,,,,,VFR,,,,,,,,,,,,METAR,68.0
KCVC 230815Z AUTO 00000KT 10SM CLR 05/03 A3017 RMK AO2,KCVC,2022-10-23T08:15:00Z,33.63,-83.85,5.0,3.0,0,0,,10.0,30.171259,,,TRUE,TRUE,,,,,,,CLR,,,,,,,,VFR,,,,,,,,,,,,METAR,240.0
KCUH 230815Z AUTO 18012G19KT 10SM CLR 23/13 A2964 RMK AO2 T02260132,KCUH,2022-10-23T08:15:00Z,35.95,-96.77,22.6,13.2,180,12,19,10.0,29.639763,,,TRUE,TRUE,,,,,,,CLR,,,,,,,,VFR,,,,,,,,,,,,METAR,274.0
KCTZ 230815Z AUTO 35003KT 10SM CLR 14/12 A3013 RMK AO2 T01360118,KCTZ,2022-10-23T08:15:00Z,34.98,-78.37,13.6,11.8,350,3,,10.0,30.129921,,,TRUE,TRUE,,,,,,,CLR,,,,,,,,VFR,,,,,,,,,,,,SPECI,43.0
KCTY 230815Z AUTO 00000KT 10SM CLR 07/05 A3011 RMK AO2 T00650053,KCTY,2022-10-23T08:15:00Z,29.63,-83.1,6.5,5.3,0,0,,10.0,30.109253,,,TRUE,TRUE,,,,,,,CLR,,,,,,,,VFR,,,,,,,,,,,,METAR,12.0
KCTJ 230815Z AUTO 00000KT 10SM CLR 05/04 A3022 RMK AO2 T00510042,KCTJ,2022-10-23T08:15:00Z,33.63,-85.15,5.1,4.2,0,0,,10.0,30.221457,,,TRUE,TRUE,,,,,,,CLR,,,,,,,,VFR,,,,,,,,,,,,METAR,351.0
KCSQ 230815Z AUTO 15010G16KT 10SM CLR 18/12 A2959 RMK AO2,KCSQ,2022-10-23T08:15:00Z,41.02,-94.37,18.0,12.0,150,10,16,10.0,29.589567,,,TRUE,TRUE,,,,,,,CLR,,,,,,,,VFR,,,,,,,,,,,,METAR,394.0
KCRX 230815Z AUTO 14005KT 10SM SCT060 14/10 A3007 RMK AO2,KCRX,2022-10-23T08:15:00Z,34.92,-88.6,14.0,10.0,140,5,,10.0,30.070866,,,TRUE,TRUE,,,,,,,SCT,6000,,,,,,,VFR,,,,,,,,,,,,METAR,128.0
KCQW 230815Z AUTO 00000KT 10SM CLR 08/07 A3015 RMK AO2 PWINO,KCQW,2022-10-23T08:15:00Z,34.72,-79.95,8.0,7.0,0,0,,10.0,30.15059,,,TRUE,TRUE,,,,,TRUE,,CLR,,,,,,,,VFR,,,,,,,,,,,,METAR,67.0
KCQF 230815Z AUTO 00000KT 10SM CLR 11/08 A3011 RMK AO2,KCQF,2022-10-23T08:15:00Z,30.47,-87.88,11.0,8.0,0,0,,10.0,30.109253,,,TRUE,TRUE,,,,,,,CLR,,,,,,,,VFR,,,,,,,,,,,,METAR,21.0
KCQB 230815Z AUTO 17013G19KT 10SM CLR 23/13 A2967 RMK AO2 T02270135,KCQB,2022-10-23T08:15:00Z,35.72,-96.82,22.7,13.5,170,13,19,10.0,29.66929,,,TRUE,TRUE,,,,,,,CLR,,,,,,,,VFR,,,,,,,,,,,,METAR,298.0
KCPW 230815Z AUTO 22047G78KT 1 3/4SM -SN OVC002 M01/M01 A2978 RMK AO2 VIS 1/2V5 LTG DSNT E SE AND W,KCPW,2022-10-23T08:15:00Z,37.45,-106.8,-1.0,-1.0,220,47,78,1.75,29.778543,,,TRUE,TRUE,,,,,,-SN,OVC,200,,,,,,,LIFR,,,,,,,,,,,,METAR,3570.0
KCPU 230815Z AUTO 00000KT 10SM CLR 07/M01 A2982 RMK AO2 T00701012,KCPU,2022-10-23T08:15:00Z,38.15,-120.65,7.0,-1.2,0,0,,10.0,29.819881,,,TRUE,TRUE,,,,,,,CLR,,,,,,,,VFR,,,,,,,,,,,,METAR,400.0
KCPT 230815Z AUTO 17011G16KT 10SM CLR 20/17 A2982 RMK A01,KCPT,2022-10-23T08:15:00Z,32.35,-97.43,20.0,17.0,170,11,16,10.0,29.819881,,,TRUE,TRUE,,,,,,,CLR,,,,,,,,VFR,,,,,,,,,,,,METAR,260.0
KCPK 230815Z AUTO 36003KT 15/12 A3012 RMK AO2 T01460120,KCPK,2022-10-23T08:15:00Z,36.67,-76.32,14.6,12.0,360,3,,,30.121063,,,TRUE,TRUE,,,,,,,,,,,,,,,,,,,,,,,,,,,METAR,4.0
KCPC 230815Z AUTO 00000KT 10SM CLR 14/10 A3013 RMK AO2 T01400102,KCPC,2022-10-23T08:15:00Z,34.28,-78.72,14.0,10.2,0,0,,10.0,30.129921,,,TRUE,TRUE,,,,,,,CLR,,,,,,,,VFR,,,,,,,,,,,,METAR,27.0
KCOQ 230815Z AUTO 11005KT 1/4SM FG OVC002 07/07 A2966 RMK AO2 TSNO,KCOQ,2022-10-23T08:15:00Z,46.7,-92.5,7.0,7.0,110,5,,0.25,29.660433,,,TRUE,TRUE,,,TRUE,,,FG,OVC,200,,,,,,,LIFR,,,,,,,,,,,,METAR,390.0
KCOM 230815Z AUTO 20012G16KT 10SM CLR 21/12 A2980 RMK AO2 T02070120,KCOM,2022-10-23T08:15:00Z,31.83,-99.4,20.7,12.0,200,12,16,10.0,29.799213,,,TRUE,TRUE,,,,,,,CLR,,,,,,,,VFR,,,,,,,,,,,,METAR,516.0
KCNI 230815Z AUTO 00000KT 10SM CLR 08/04 A3020 RMK AO2 T00850040,KCNI,2022-10-23T08:15:00Z,34.32,-84.42,8.5,4.0,0,0,,10.0,30.200787,,,TRUE,TRUE,,,,,,,CLR,,,,,,,,VFR,,,,,,,,,,,,METAR,371.0
KCNC 230815Z AUTO 14011KT 10SM CLR 17/12 A2964 RMK AO2,KCNC,2022-10-23T08:15:00Z,41.02,-93.37,17.0,12.0,140,11,,10.0,29.639763,,,TRUE,TRUE,,,,,,,CLR,,,,,,,,VFR,,,,,,,,,,,,METAR,319.0
KCNB 230815Z AUTO 00000KT 10SM CLR 05/00 A2951 RMK AO2 T00490001,KCNB,2022-10-23T08:15:00Z,44.73,-96.27,4.9,0.1,0,0,,10.0,29.509842,,,TRUE,TRUE,,,,,,,CLR,,,,,,,,VFR,,,,,,,,,,,,METAR,363.0
KCMR 230815Z AUTO 22021G35KT 8SM SCT024 BKN033 OVC055 09/05 A2971 RMK AO2,KCMR,2022-10-23T08:15:00Z,35.3,-112.2,9.0,5.0,220,21,35,8.0,29.71063,,,TRUE,TRUE,,,,,,,SCT,2400,BKN,3300,OVC,5500,,,VFR,,,,,,,,,,,,METAR,2039.0
KCMD 230815Z AUTO VRB04KT 10SM CLR 15/10 A3014 RMK AO2,KCMD,2022-10-23T08:15:00Z,34.27,-86.85,15.0,10.0,0,4,,10.0,30.138779,,,TRUE,TRUE,,,,,,,CLR,,,,,,,,VFR,,,,,,,,,,,,METAR,294.0
KCLW 230815Z AUTO 08003KT 10SM CLR 17/13 A3006 RMK AO2,KCLW,2022-10-23T08:15:00Z,27.98,-82.75,17.0,13.0,80,3,,10.0,30.059055,,,TRUE,TRUE,,,,,,,CLR,,,,,,,,VFR,,,,,,,,,,,,METAR,21.0
KCLS 230815Z AUTO 00000KT 10SM FEW030 SCT038 SCT045 04/03 A2994 RMK AO2,KCLS,2022-10-23T08:15:00Z,46.68,-122.98,4.0,3.0,0,0,,10.0,29.940945,,,TRUE,TRUE,,,,,,,FEW,3000,SCT,3800,SCT,4500,,,VFR,,,,,,,,,,,,METAR,52.0
KCLK 230815Z AUTO 19010KT 10SM CLR 20/11 A2962 RMK AO2,KCLK,2022-10-23T08:15:00Z,35.53,-98.93,20.0,11.0,190,10,,10.0,29.619095,,,TRUE,TRUE,,,,,,,CLR,,,,,,,,VFR,,,,,,,,,,,,METAR,489.0
KCLI 230815Z AUTO 17007KT 10SM CLR 14/11 A2986 RMK AO2 T01400106,KCLI,2022-10-23T08:15:00Z,44.62,-88.73,14.0,10.6,170,7,,10.0,29.861221,,,TRUE,TRUE,,,,,,,CLR,,,,,,,,VFR,,,,,,,,,,,,METAR,248.0
KCKZ 230815Z AUTO 00000KT 10SM SCT027 BKN034 05/05 A3027 RMK AO2,KCKZ,2022-10-23T08:15:00Z,40.38,-75.28,5.0,5.0,0,0,,10.0,30.268702,,,TRUE,TRUE,,,,,,,SCT,2700,BKN,3400,,,,,VFR,,,,,,,,,,,,METAR,160.0
KCKP 230815Z AUTO 15004KT 10SM CLR 13/10 A2953 RMK AO2 T01310098,KCKP,2022-10-23T08:15:00Z,42.73,-95.55,13.1,9.8,150,4,,10.0,29.530512,,,TRUE,TRUE,,,,,,,CLR,,,,,,,,VFR,,,,,,,,,,,,METAR,369.0
KCKN 230815Z AUTO 07006KT 10SM CLR 07/03 A2955 RMK AO2,KCKN,2022-10-23T08:15:00Z,47.85,-96.62,7.0,3.0,70,6,,10.0,29.551182,,,TRUE,TRUE,,,,,,,CLR,,,,,,,,VFR,,,,,,,,,,,,METAR,272.0
KCKM 230815Z AUTO 17009G14KT 10SM FEW035 SCT043 BKN050 19/13 A3002 RMK A01,KCKM,2022-10-23T08:15:00Z,34.3,-90.52,19.0,13.0,170,9,14,10.0,30.02067,,,TRUE,TRUE,,,,,,,FEW,3500,SCT,4300,BKN,5000,,,VFR,,,,,,,,,,,,SPECI,52.0
KCKI 230815Z AUTO 00000KT 10SM CLR 08/07 A3013 RMK AO2,KCKI,2022-10-23T08:15:00Z,33.72,-79.85,8.0,7.0,0,0,,10.0,30.129921,,,TRUE,TRUE,,,,,,,CLR,,,,,,,,VFR,,,,,,,,,,,,METAR,19.0
KCKF 230815Z AUTO 00000KT 10SM CLR 05/03 A3016 RMK AO2 T00500030,KCKF,2022-10-23T08:15:00Z,31.98,-83.77,5.0,3.0,0,0,,10.0,30.159449,,,TRUE,TRUE,,,,,,,CLR,,,,,,,,VFR,,,,,,,,,,,,METAR,92.0
KCJR 230815Z AUTO 00000KT 10SM CLR 05/04 A3025 RMK AO2 T00450038,KCJR,2022-10-23T08:15:00Z,38.53,-77.87,4.5,3.8,0,0,,10.0,30.250984,,,TRUE,TRUE,,,,,,,CLR,,,,,,,,VFR,,,,,,,,,,,,SPECI,90.0
KCIR 230815Z AUTO 19012KT 10SM CLR 19/12 A2997 RMK AO2 T01880122,KCIR,2022-10-23T08:15:00Z,37.07,-89.22,18.8,12.2,190,12,,10.0,29.970472,,,TRUE,TRUE,,,,,,,CLR,,,,,,,,VFR,,,,,,,,,,,,METAR,96.0
KCIN 230815Z AUTO 14005KT 10SM FEW045 11/10 A2955 RMK AO2,KCIN,2022-10-23T08:15:00Z,42.03,-94.78,11.0,10.0,140,5,,10.0,29.551182,,,TRUE,TRUE,,,,,,,FEW,4500,,,,,,,VFR,,,,,,,,,,,,METAR,365.0
KCIC 230815Z AUTO 33013KT 10SM CLR 12/00 A2987 RMK AO1,KCIC,2022-10-23T08:15:00Z,39.78,-121.85,12.0,0.0,330,13,,10.0,29.870079,,,TRUE,TRUE,,,,,,,CLR,,,,,,,,VFR,,,,,,,,,,,,METAR,72.0
KCGF 230815Z AUTO 14008KT 10SM CLR 15/06 A3017 RMK AO2 T01530062,KCGF,2022-10-23T08:15:00Z,41.57,-81.47,15.3,6.2,140,8,,10.0,30.171259,,,TRUE,TRUE,,,,,,,CLR,,,,,,,,VFR,,,,,,,,,,,,METAR,265.0
KCGE 230815Z AUTO 35008KT 10SM OVC027 12/11 A3020 RMK A01,KCGE,2022-10-23T08:15:00Z,38.53,-76.03,12.0,11.0,350,8,,10.0,30.200787,,,TRUE,TRUE,,,,,,,OVC,2700,,,,,,,MVFR,,,,,,,,,,,,METAR,5.0
KCGC 230815Z AUTO 12/11 A3009 RMK AO2 PWINO PNO,KCGC,2022-10-23T08:15:00Z,28.87,-82.57,12.0,11.0,,,,,30.088583,,,TRUE,TRUE,,,,,TRUE,,,,,,,,,,,,,,,,,,,,,,SPECI,3.0
KCFS 230815Z AUTO 17004KT 10SM CLR 16/09 A3006 RMK AO2 T01550090,KCFS,2022-10-23T08:15:00Z,43.47,-83.45,15.5,9.0,170,4,,10.0,30.059055,,,TRUE,TRUE,,,,,,,CLR,,,,,,,,VFR,,,,,,,,,,,,METAR,214.0
KCFO 230815Z AUTO 18011KT 10SM CLR 16/M05 A2940 RMK AO2 T01581055,KCFO,2022-10-23T08:15:00Z,39.78,-104.55,15.8,-5.5,180,11,,10.0,29.40059,,,TRUE,TRUE,,,,,,,CLR,,,,,,,,VFR,,,,,,,,,,,,METAR,1672.0
KCFJ 230815Z AUTO 14009KT 10SM SCT055 SCT070 13/07 A3001 RMK AO2 T01320066,KCFJ,2022-10-23T08:15:00Z,39.98,-86.92,13.2,6.6,140,9,,10.0,30.008858,,,TRUE,TRUE,,,,,,,SCT,5500,SCT,7000,,,,,VFR,,,,,,,,,,,,METAR,243.0
KCFE 230815Z AUTO 15007KT 10SM BKN022 BKN036 BKN048 15/08 A2960 RMK AO2,KCFE,2022-10-23T08:15:00Z,45.17,-93.85,15.0,8.0,150,7,,10.0,29.601377,,,TRUE,TRUE,,,,,,,BKN,2200,BKN,3600,BKN,4800,,,MVFR,,,,,,,,,,,,METAR,292.0
KCFD 230815Z AUTO 16007KT 10SM SCT037 20/17 A2990 RMK AO2 T02000167,KCFD,2022-10-23T08:15:00Z,30.72,-96.33,20.0,16.7,160,7,,10.0,29.899607,,,TRUE,TRUE,,,,,,,SCT,3700,,,,,,,VFR,,,,,,,,,,,,METAR,106.0
KCEY 230815Z AUTO 15007G13KT 10SM BKN060 17/12 A3004 RMK A01,KCEY,2022-10-23T08:15:00Z,36.67,-88.37,17.0,12.0,150,7,13,10.0,30.041338,,,TRUE,TRUE,,,,,,,BKN,6000,,,,,,,VFR,,,,,,,,,,,,SPECI,172.0
KCDN 230815Z AUTO 00000KT 10SM CLR 10/07 A3016 RMK AO2,KCDN,2022-10-23T08:15:00Z,34.28,-80.57,10.0,7.0,0,0,,10.0,30.159449,,,TRUE,TRUE,,,,,,,CLR,,,,,,,,VFR,,,,,,,,,,,,SPECI,90.0
KCDI 230815Z AUTO 00000KT 10SM CLR 04/04 A3018 RMK AO2 T00380038,KCDI,2022-10-23T08:15:00Z,39.97,-81.58,3.8,3.8,0,0,,10.0,30.180119,,,TRUE,TRUE,,,,,,,CLR,,,,,,,,VFR,,,,,,,,,,,,METAR,241.0
KCDH 230815Z AUTO 14005KT 10SM BKN042 BKN049 19/17 A2996 RMK AO2,KCDH,2022-10-23T08:15:00Z,33.62,-92.77,19.0,17.0,140,5,,10.0,29.958662,,,TRUE,TRUE,,,,,,,BKN,4200,BKN,4900,,,,,VFR,,,,,,,,,,,,METAR,38.0
KCDD 230815Z AUTO 00000KT 10SM CLR 05/03 A2967 RMK AO2,KCDD,2022-10-23T08:15:00Z,48.27,-92.48,5.0,3.0,0,0,,10.0,29.66929,,,TRUE,TRUE,,,,,,,CLR,,,,,,,,VFR,,,,,,,,,,,,METAR,344.0
KCDA 230815Z AUTO 00000KT 10SM 05/03 A3034 RMK AO2 T00460025,KCDA,2022-10-23T08:15:00Z,44.57,-72.02,4.6,2.5,0,0,,10.0,30.339567,,,TRUE,TRUE,,,,,,,,,,,,,,,,,,,,,,,,,,,METAR,357.0
KCCY 230815Z AUTO 14011KT 10SM SCT070 BKN080 16/10 A2968 RMK AO2,KCCY,2022-10-23T08:15:00Z,43.07,-92.62,16.0,10.0,140,11,,10.0,29.681103,,,TRUE,TRUE,,,,,,,SCT,7000,BKN,8000,,,,,VFR,,,,,,,,,,,,METAR,340.0
KCCU 230815Z AUTO 16016G22KT 10SM SCT025 BKN030 BKN040 02/M03 A2972 RMK AO2,KCCU,2022-10-23T08:15:00Z,39.48,-106.15,2.0,-3.0,160,16,22,10.0,29.719488,,,TRUE,TRUE,,,,,,,SCT,2500,BKN,3000,BKN,4000,,,MVFR,,,,,,,,,,,,METAR,3672.0
KCCO 230815Z AUTO 00000KT 10SM CLR 07/05 A3017 RMK AO2 T00700049,KCCO,2022-10-23T08:15:00Z,33.32,-84.77,7.0,4.9,0,0,,10.0,30.171259,,,TRUE,TRUE,,,,,,,CLR,,,,,,,,VFR,,,,,,,,,,,,METAR,290.0
KCCB 230815Z AUTO 25007KT 10SM BKN007 OVC012 14/14 A2979 RMK AO2,KCCB,2022-10-23T08:15:00Z,34.12,-117.68,14.0,14.0,250,7,,10.0,29.790354,,,TRUE,TRUE,,,,,,,BKN,700,OVC,1200,,,,,IFR,,,,,,,,,,,,METAR,440.0
KCCA 230815Z AUTO 00000KT 10SM BKN041 BKN048 14/12 A2990 RMK AO2,KCCA,2022-10-23T08:15:00Z,35.6,-92.45,14.0,12.0,0,0,,10.0,29.899607,,,TRUE,TRUE,,,,,,,BKN,4100,BKN,4800,,,,,VFR,,,,,,,,,,,,METAR,152.0
KCBK 230815Z AUTO 19013G18KT 10SM CLR 15/M04 A2939 RMK AO2 T01501040,KCBK,2022-10-23T08:15:00Z,39.43,-101.05,15.0,-4.0,190,13,18,10.0,29.388779,,,TRUE,TRUE,,,,,,,CLR,,,,,,,,VFR,,,,,,,,,,,,METAR,970.0
KCBG 230815Z AUTO 00000KT 10SM CLR 16/06 A2962 RMK AO2,KCBG,2022-10-23T08:15:00Z,45.57,-93.27,16.0,6.0,0,0,,10.0,29.619095,,,TRUE,TRUE,,,,,,,CLR,,,,,,,,VFR,,,,,,,,,,,,METAR,285.0
KCBF 230815Z AUTO 14011KT 10SM CLR 16/11 A2948 RMK AO2,KCBF,2022-10-23T08:15:00Z,41.27,-95.77,16.0,11.0,140,11,,10.0,29.480314,,,TRUE,TRUE,,,,,,,CLR,,,,,,,,VFR,,,,,,,,,,,,METAR,379.0
KCBE 230815Z AUTO 04003KT 10SM CLR 02/02 A3029 RMK AO2 T00240018,KCBE,2022-10-23T08:15:00Z,39.62,-78.77,2.4,1.8,40,3,,10.0,30.28937,,,TRUE,TRUE,,,,,,,CLR,,,,,,,,VFR,,,,,,,,,,,,METAR,226.0
KCAV 230815Z AUTO 14016KT 10SM 16/11 A2961 RMK A01,KCAV,2022-10-23T08:15:00Z,42.75,-93.77,16.0,11.0,140,16,,10.0,29.610237,,,TRUE,TRUE,,,,,,,,,,,,,,,,,,,,,,,,,,,METAR,352.0
KCAD 230815Z AUTO 18004KT 10SM CLR 14/10 A2999 RMK AO2 T01360097,KCAD,2022-10-23T08:15:00Z,44.27,-85.42,13.6,9.7,180,4,,10.0,29.991142,,,TRUE,TRUE,,,,,,,CLR,,,,,,,,VFR,,,,,,,,,,,,METAR,397.0
KC83 230815Z AUTO 23011KT 10SM CLR 13/05 A2984 RMK AO2,KC83,2022-10-23T08:15:00Z,37.83,-121.62,13.0,5.0,230,11,,10.0,29.840551,,,TRUE,TRUE,,,,,,,CLR,,,,,,,,VFR,,,,,,,,,,,,METAR,16.0
KC75 230815Z AUTO 17010G16KT 10SM CLR 16/13 A2984 RMK AO2 T01600127,KC75,2022-10-23T08:15:00Z,41.02,-89.38,16.0,12.7,170,10,16,10.0,29.840551,,,TRUE,TRUE,,,,,,,CLR,,,,,,,,VFR,,,,,,,,,,,,METAR,166.0
KC65 230815Z AUTO 17004KT 10SM CLR 15/10 A3000 RMK A01,KC65,2022-10-23T08:15:00Z,41.37,-86.3,15.0,10.0,170,4,,10.0,30.0,,,TRUE,TRUE,,,,,,,CLR,,,,,,,,VFR,,,,,,,,,,,,METAR,241.0
KC35 230815Z AUTO 15008KT 10SM CLR 16/11 A2980 RMK AO2 T01610111 PWINO,KC35,2022-10-23T08:15:00Z,43.53,-89.98,16.1,11.1,150,8,,10.0,29.799213,,,TRUE,TRUE,,,,,TRUE,,CLR,,,,,,,,VFR,,,,,,,,,,,,METAR,272.0
KC29 230815Z AUTO 16005KT 10SM CLR 16/12 A2983 RMK AO1 T01600117,KC29,2022-10-23T08:15:00Z,43.12,-89.53,16.0,11.7,160,5,,10.0,29.828741,,,TRUE,TRUE,,,,,,,CLR,,,,,,,,VFR,,,,,,,,,,,,METAR,282.0
KC09 230815Z AUTO 17010G14KT 10SM CLR 16/11 A2989 RMK AO2 T01550113,KC09,2022-10-23T08:15:00Z,41.43,-88.42,15.5,11.3,170,10,14,10.0,29.890747,,,TRUE,TRUE,,,,,,,CLR,,,,,,,,VFR,,,,,,,,,,,,METAR,179.0
KC07 230815Z AUTO 21014G31KT 10SM SCT021 01/M01 A2957 RMK AO2 LTG DSNT SW,KC07,2022-10-23T08:15:00Z,40.35,-106.7,1.0,-1.0,210,14,31,10.0,29.568897,,,TRUE,TRUE,,,,,,,SCT,2100,,,,,,,VFR,,,,,,,,,,,,METAR,3224.0
KBYY 230815Z AUTO 17006KT 10SM SCT034 OVC044 22/19 A2990 RMK AO2 T02180196,KBYY,2022-10-23T08:15:00Z,28.97,-95.87,21.8,19.6,170,6,,10.0,29.899607,,,TRUE,TRUE,,,,,,,SCT,3400,OVC,4400,,,,,VFR,,,,,,,,,,,,METAR,12.0
KBYL 230815Z AUTO 13006KT 10SM CLR 10/07 A3017 RMK AO1,KBYL,2022-10-23T08:15:00Z,36.8,-84.2,10.0,7.0,130,6,,10.0,30.171259,,,TRUE,TRUE,,,,,,,CLR,,,,,,,,VFR,,,,,,,,,,,,METAR,355.0
KBXK 230815Z AUTO 20010G15KT 10SM BKN035 OVC045 21/15 A2969 RMK A01,KBXK,2022-10-23T08:15:00Z,33.42,-112.68,21.0,15.0,200,10,15,10.0,29.68996,,,TRUE,TRUE,,,,,,,BKN,3500,OVC,4500,,,,,VFR,,,,,,,,,,,,METAR,303.0
KBXA 230815Z AUTO 00000KT 10SM CLR 11/09 A3009 RMK AO2 T01050091,KBXA,2022-10-23T08:15:00Z,30.82,-89.87,10.5,9.1,0,0,,10.0,30.088583,,,TRUE,TRUE,,,,,,,CLR,,,,,,,,VFR,,,,,,,,,,,,METAR,35.0
KBWW 230815Z AUTO 08013KT 10SM SCT110 06/04 A2941 RMK AO2,KBWW,2022-10-23T08:15:00Z,46.17,-103.3,6.0,4.0,80,13,,10.0,29.409449,,,TRUE,TRUE,,,,,,,SCT,11000,,,,,,,VFR,,,,,,,,,,,,METAR,911.0
KBWP 230815Z AUTO 10005KT 10SM CLR 05/M01 A2950 RMK AO2,KBWP,2022-10-23T08:15:00Z,46.25,-96.62,5.0,-1.0,100,5,,10.0,29.500984,,,TRUE,TRUE,,,,,,,CLR,,,,,,,,VFR,,,,,,,,,,,,METAR,294.0
KBVU 230815Z AUTO 15/24000015G21KT 10SM SCT038 BKN075 OVC110 16/04 A2963 RMK AO2,KBVU,2022-10-23T08:15:00Z,35.95,-114.87,16.0,4.0,0,15,21,10.0,29.630905,,,TRUE,TRUE,,,,,,,SCT,3800,BKN,7500,OVC,11000,,,VFR,,,,,,,,,,,,METAR,654.0
KBVS 230815Z AUTO 00000KT 10SM BKN038 05/05 A2993 RMK A01,KBVS,2022-10-23T08:15:00Z,48.47,-122.42,5.0,5.0,0,0,,10.0,29.929134,,,TRUE,TRUE,,,,,,,BKN,3800,,,,,,,VFR,,,,,,,,,,,,METAR,31.0
KBVN 230815Z AUTO 11004KT 10SM CLR 11/07 A2941 RMK AO2 T01110070,KBVN,2022-10-23T08:15:00Z,41.73,-98.05,11.1,7.0,110,4,,10.0,29.409449,,,TRUE,TRUE,,,,,,,CLR,,,,,,,,VFR,,,,,,,,,,,,METAR,547.0
KBVI 230815Z AUTO 12003KT 10SM CLR 11/03 A3020 RMK AO2 T01130026,KBVI,2022-10-23T08:15:00Z,40.77,-80.37,11.3,2.6,120,3,,10.0,30.200787,,,TRUE,TRUE,,,,,,,CLR,,,,,,,,VFR,,,,,,,,,,,,METAR,387.0
KBUU 230815Z AUTO 18003KT 10SM CLR 16/12 A2989 RMK AO2 T01570115 PWINO,KBUU,2022-10-23T08:15:00Z,42.68,-88.3,15.7,11.5,180,3,,10.0,29.890747,,,TRUE,TRUE,,,,,TRUE,,CLR,,,,,,,,VFR,,,,,,,,,,,,METAR,238.0
KBTN 230815Z AUTO 02006KT 9SM CLR 04/00 A2947 RMK AO2,KBTN,2022-10-23T08:15:00Z,45.82,-97.75,4.0,0.0,20,6,,9.0,29.471457,,,TRUE,TRUE,,,,,,,CLR,,,,,,,,VFR,,,,,,,,,,,,METAR,400.0
KBTA 230815Z AUTO 14012G17KT 10SM CLR 18/12 A2948 RMK AO2 T01830124,KBTA,2022-10-23T08:15:00Z,41.42,-96.12,18.3,12.4,140,12,17,10.0,29.480314,,,TRUE,TRUE,,,,,,,CLR,,,,,,,,VFR,,,,,,,,,,,,METAR,400.0
KBRY 230815Z AUTO 00000KT 10SM SCT210 BKN230 14/09 A3009 RMK AO2 T01350092,KBRY,2022-10-23T08:15:00Z,37.82,-85.5,13.5,9.2,0,0,,10.0,30.088583,,,TRUE,TRUE,,,,,,,SCT,21000,BKN,23000,,,,,VFR,,,,,,,,,,,,SPECI,192.0
KBRG 230815Z AUTO 19012KT 10SM CLR 16/09 A2974 RMK AO2 T01620085,KBRG,2022-10-23T08:15:00Z,34.65,-106.83,16.2,8.5,190,12,,10.0,29.740158,,,TRUE,TRUE,,,,,,,CLR,,,,,,,,VFR,,,,,,,,,,,,SPECI,1585.0
KBQX 230815Z AUTO 17023KT 9SM 26/20 A2990 RMK A01,KBQX,2022-10-23T08:15:00Z,28.5,-95.72,26.0,20.0,170,23,,9.0,29.899607,,,TRUE,TRUE,,,,,,,,,,,,,,,,,,,,,,,,,,,METAR,34.0
KBQP 230815Z AUTO 00000KT 10SM CLR 18/14 A3002 RMK AO2 T01800140,KBQP,2022-10-23T08:15:00Z,32.75,-91.88,18.0,14.0,0,0,,10.0,30.02067,,,TRUE,TRUE,,,,,,,CLR,,,,,,,,VFR,,,,,,,,,,,,METAR,50.0
KBQK 230815Z AUTO 00000KT 10SM CLR 09/09 A3011 RMK AO2 T00920086,KBQK,2022-10-23T08:15:00Z,31.25,-81.47,9.2,8.6,0,0,,10.0,30.109253,,,TRUE,TRUE,,,,,,,CLR,,,,,,,,VFR,,,,,,,,,,,,METAR,7.0
KBPG 230815Z AUTO 18017G22KT 10SM CLR 20/12 A2977 RMK AO2 T01990125,KBPG,2022-10-23T08:15:00Z,32.22,-101.52,19.9,12.5,180,17,22,10.0,29.769686,,,TRUE,TRUE,,,,,,,CLR,,,,,,,,VFR,,,,,,,,,,,,METAR,782.0
KBPC 230815Z AUTO 22011KT 10SM CLR 20/10 A2960 RMK AO2,KBPC,2022-10-23T08:15:00Z,35.88,-101.03,20.0,10.0,220,11,,10.0,29.601377,,,TRUE,TRUE,,,,,,,CLR,,,,,,,,VFR,,,,,,,,,,,,METAR,844.0
KBOW 230815Z AUTO 36004KT 10SM CLR 18/15 A3007 RMK AO2,KBOW,2022-10-23T08:15:00Z,27.93,-81.77,18.0,15.0,360,4,,10.0,30.070866,,,TRUE,TRUE,,,,,,,CLR,,,,,,,,VFR,,,,,,,,,,,,SPECI,38.0
KBNW 230815Z AUTO 13011KT 10SM CLR 14/11 A2963 RMK AO2,KBNW,2022-10-23T08:15:00Z,42.03,-93.83,14.0,11.0,130,11,,10.0,29.630905,,,TRUE,TRUE,,,,,,,CLR,,,,,,,,VFR,,,,,,,,,,,,METAR,350.0
KBNL 230815Z AUTO 00000KT 10SM BKN034 07/05 A3014 RMK AO2,KBNL,2022-10-23T08:15:00Z,33.25,-81.38,7.0,5.0,0,0,,10.0,30.138779,,,TRUE,TRUE,,,,,,,BKN,3400,,,,,,,VFR,,,,,,,,,,,,SPECI,76.0
KBMT 230815Z AUTO 14004KT 10SM BKN038 OVC050 21/18 A2994 RMK AO2 T02050180,KBMT,2022-10-23T08:15:00Z,30.07,-94.22,20.5,18.0,140,4,,10.0,29.940945,,,TRUE,TRUE,,,,,,,BKN,3800,OVC,5000,,,,,VFR,,,,,,,,,,,,METAR,8.0
KBKT 230815Z AUTO 36006KT 10SM CLR 09/07 A3020 RMK AO1 T00880070,KBKT,2022-10-23T08:15:00Z,37.07,-77.95,8.8,7.0,360,6,,10.0,30.200787,,,TRUE,TRUE,,,,,,,CLR,,,,,,,,VFR,,,,,,,,,,,,SPECI,134.0
KBKS 230815Z AUTO 15007KT 10SM CLR 20/19 A2984 RMK AO2 SLP066 T02000193 $,KBKS,2022-10-23T08:15:00Z,27.2,-98.12,20.0,19.3,150,7,,10.0,29.840551,1006.6,,TRUE,TRUE,TRUE,,,,,,CLR,,,,,,,,VFR,,,,,,,,,,,,METAR,34.0
KBKD 230815Z AUTO 20012G17KT 10SM CLR 23/12 A2975 RMK AO2 T02330124,KBKD,2022-10-23T08:15:00Z,32.72,-98.88,23.3,12.4,200,12,17,10.0,29.749016,,,TRUE,TRUE,,,,,,,CLR,,,,,,,,VFR,,,,,,,,,,,,METAR,383.0
KBJI 230815Z AUTO 00000KT 10SM CLR 06/04 A2957 RMK AO2 T00620040,KBJI,2022-10-23T08:15:00Z,47.5,-94.92,6.2,4.0,0,0,,10.0,29.568897,,,TRUE,TRUE,,,,,,,CLR,,,,,,,,VFR,,,,,,,,,,,,METAR,422.0
KBJC 230815Z AUTO 22007KT 10SM CLR 15/M04 A2938 RMK AO2,KBJC,2022-10-23T08:15:00Z,39.9,-105.1,15.0,-4.0,220,7,,10.0,29.379921,,,TRUE,TRUE,,,,,,,CLR,,,,,,,,VFR,,,,,,,,,,,,METAR,1694.0
KBIJ 230815Z AUTO 00000KT 10SM CLR 04/03 A3015 RMK AO2,KBIJ,2022-10-23T08:15:00Z,31.4,-84.9,4.0,3.0,0,0,,10.0,30.15059,,,TRUE,TRUE,,,,,,,CLR,,,,,,,,VFR,,,,,,,,,,,,METAR,63.0
KBIE 230815Z AUTO 15010KT 10SM CLR 18/13 A2945 RMK AO2 T01750129,KBIE,2022-10-23T08:15:00Z,40.28,-96.75,17.5,12.9,150,10,,10.0,29.450787,,,TRUE,TRUE,,,,,,,CLR,,,,,,,,VFR,,,,,,,,,,,,METAR,398.0
KBHC 230815Z AUTO 00000KT 10SM CLR A3013 RMK AO2,KBHC,2022-10-23T08:15:00Z,31.72,-82.4,,,0,0,,10.0,30.129921,,,TRUE,TRUE,,,,,,,CLR,,,,,,,,VFR,,,,,,,,,,,,METAR,61.0
KBGF 230815Z AUTO 17004KT 10SM CLR 11/08 A3013 RMK A01,KBGF,2022-10-23T08:15:00Z,35.18,-86.07,11.0,8.0,170,4,,10.0,30.129921,,,TRUE,TRUE,,,,,,,CLR,,,,,,,,VFR,,,,,,,,,,,,METAR,295.0
KBGE 230815Z AUTO 00000KT 10SM CLR 08/05 A3013 RMK AO2 T00780049,KBGE,2022-10-23T08:15:00Z,30.97,-84.63,7.8,4.9,0,0,,10.0,30.129921,,,TRUE,TRUE,,,,,,,CLR,,,,,,,,VFR,,,,,,,,,,,,METAR,40.0
KBEC 230815Z AUTO 17014G18KT 10SM CLR 21/12 A2953 RMK AO2 T02100116,KBEC,2022-10-23T08:15:00Z,37.7,-97.22,21.0,11.6,170,14,18,10.0,29.530512,,,TRUE,TRUE,,,,,,,CLR,,,,,,,,VFR,,,,,,,,,,,,METAR,421.0
KBEA 230815Z AUTO 16005KT 10SM CLR 21/18 A2987 RMK AO2 T02090180 PWINO,KBEA,2022-10-23T08:15:00Z,28.37,-97.78,20.9,18.0,160,5,,10.0,29.870079,,,TRUE,TRUE,,,,,TRUE,,CLR,,,,,,,,VFR,,,,,,,,,,,,METAR,83.0
KBDU 230815Z AUTO 16005KT 10SM CLR 11/M06 A2935 RMK AO2,KBDU,2022-10-23T08:15:00Z,40.03,-105.23,11.0,-6.0,160,5,,10.0,29.350393,,,TRUE,TRUE,,,,,,,CLR,,,,,,,,VFR,,,,,,,,,,,,METAR,1614.0
KBDH 230815Z AUTO 11008KT 10SM CLR 12/06 A2958 RMK AO2,KBDH,2022-10-23T08:15:00Z,45.12,-95.13,12.0,6.0,110,8,,10.0,29.58071,,,TRUE,TRUE,,,,,,,CLR,,,,,,,,VFR,,,,,,,,,,,,METAR,341.0
KBDG 230815Z AUTO 23017G23KT 5SM 09/08 A2962 RMK AO1 T00900075,KBDG,2022-10-23T08:15:00Z,37.58,-109.47,9.0,7.5,230,17,23,5.0,29.619095,,,TRUE,TRUE,,,,,,,,,,,,,,,,,,,,,,,,,,,METAR,1778.0
KBCK 230815Z AUTO 17005KT 10SM CLR 18/10 A2975 RMK AO2 T01760097,KBCK,2022-10-23T08:15:00Z,44.25,-90.85,17.6,9.7,170,5,,10.0,29.749016,,,TRUE,TRUE,,,,,,,CLR,,,,,,,,VFR,,,,,,,,,,,,METAR,256.0
KBCE 230815Z AUTO 29009KT 1/2SM SN FZFG VV009 M01/M02 A2959 RMK AO2 P0002 T10061017,KBCE,2022-10-23T08:15:00Z,37.7,-112.15,-0.6,-1.7,290,9,,0.5,29.589567,,,TRUE,TRUE,,,,,,SN FZFG,OVX,0,,,,,,,LIFR,,,,,,0.02,,,,,900,SPECI,2311.0
KBCB 230815Z AUTO 00000KT 10SM CLR 03/03 A3026 RMK AO2 T00290029,KBCB,2022-10-23T08:15:00Z,37.22,-80.42,2.9,2.9,0,0,,10.0,30.259842,,,TRUE,TRUE,,,,,,,CLR,,,,,,,,VFR,,,,,,,,,,,,METAR,642.0
KBBP 230815Z AUTO 00000KT 10SM CLR 08/08 A3015 RMK AO2,KBBP,2022-10-23T08:15:00Z,34.62,-79.73,8.0,8.0,0,0,,10.0,30.15059,,,TRUE,TRUE,,,,,,,CLR,,,,,,,,VFR,,,,,,,,,,,,METAR,44.0
KBBG 230815Z AUTO 17008KT 10SM FEW035 19/14 A2981 RMK AO2,KBBG,2022-10-23T08:15:00Z,36.53,-93.2,19.0,14.0,170,8,,10.0,29.811024,,,TRUE,TRUE,,,,,,,FEW,3500,,,,,,,VFR,,,,,,,,,,,,METAR,403.0
KBBD 230815Z AUTO 18011KT 10SM FEW024 FEW033 FEW040 20/15 A2983 RMK AO2,KBBD,2022-10-23T08:15:00Z,31.18,-99.32,20.0,15.0,180,11,,10.0,29.828741,,,TRUE,TRUE,,,,,,,FEW,2400,FEW,3300,FEW,4000,,,VFR,,,,,,,,,,,,METAR,554.0
KBAX 230815Z AUTO 16005KT 10SM CLR 13/09 A3007 RMK AO2 T01250087,KBAX,2022-10-23T08:15:00Z,43.78,-82.98,12.5,8.7,160,5,,10.0,30.070866,,,TRUE,TRUE,,,,,,,CLR,,,,,,,,VFR,,,,,,,,,,,,METAR,229.0
KBAM 230815Z AUTO 35004KT 10SM BKN037 BKN048 OVC110 02/00 A2979 RMK AO1,KBAM,2022-10-23T08:15:00Z,40.6,-116.87,2.0,0.0,350,4,,10.0,29.790354,,,TRUE,TRUE,,,,,,,BKN,3700,BKN,4800,OVC,11000,,,VFR,,,,,,,,,,,,METAR,1381.0
KBAC 230815Z AUTO 03008KT 10SM CLR 06/05 A2952 RMK AO2,KBAC,2022-10-23T08:15:00Z,46.93,-98.02,6.0,5.0,30,8,,10.0,29.518702,,,TRUE,TRUE,,,,,,,CLR,,,,,,,,VFR,,,,,,,,,,,,METAR,423.0
KAZE 230815Z AUTO 00000KT 10SM CLR 08/06 A3013 RMK AO2 T00820064,KAZE,2022-10-23T08:15:00Z,31.88,-82.65,8.2,6.4,0,0,,10.0,30.129921,,,TRUE,TRUE,,,,,,,CLR,,,,,,,,VFR,,,,,,,,,,,,METAR,78.0
KAZC 230815Z AUTO 30009G19KT 7SM RA SCT007 BKN022 OVC030 05/03 A2968 RMK AO2 P0002,KAZC,2022-10-23T08:15:00Z,36.97,-113.02,5.0,3.0,300,9,19,7.0,29.681103,,,TRUE,TRUE,,,,,,RA,SCT,700,BKN,2200,OVC,3000,,,MVFR,,,,,,0.02,,,,,,METAR,1476.0
KAYS 230815Z AUTO 00000KT 10SM SCT024 08/07 A3013 RMK AO2 T00790072,KAYS,2022-10-23T08:15:00Z,31.25,-82.4,7.9,7.2,0,0,,10.0,30.129921,,,TRUE,TRUE,,,,,,,SCT,2400,,,,,,,VFR,,,,,,,,,,,,METAR,42.0
KAXX 230815Z AUTO 19013G24KT 170V240 10SM SCT043 BKN050 BKN080 10/01 A2979 RMK AO2 T00990014,KAXX,2022-10-23T08:15:00Z,36.42,-105.28,9.9,1.4,190,13,24,10.0,29.790354,,,TRUE,TRUE,,,,,,,SCT,4300,BKN,5000,BKN,8000,,,VFR,,,,,,,,,,,,METAR,2543.0
KAXV 230815Z AUTO 15006KT 10SM CLR 12/08 A3010 RMK AO2,KAXV,2022-10-23T08:15:00Z,40.5,-84.3,12.0,8.0,150,6,,10.0,30.100393,,,TRUE,TRUE,,,,,,,CLR,,,,,,,,VFR,,,,,,,,,,,,METAR,278.0
KAXS 230815Z AUTO 19011KT 10SM CLR 23/12 A2967 RMK AO2 T02270116,KAXS,2022-10-23T08:15:00Z,34.7,-99.33,22.7,11.6,190,11,,10.0,29.66929,,,TRUE,TRUE,,,,,,,CLR,,,,,,,,VFR,,,,,,,,,,,,METAR,433.0
KAXH 230815Z AUTO 00000KT 10SM CLR 18/17 A2992 RMK AO2 T01800172,KAXH,2022-10-23T08:15:00Z,29.52,-95.48,18.0,17.2,0,0,,10.0,29.920275,,,TRUE,TRUE,,,,,,,CLR,,,,,,,,VFR,,,,,,,,,,,,METAR,18.0
KAXA 230815Z AUTO 15015G20KT 10SM CLR 17/10 A2958 RMK A01,KAXA,2022-10-23T08:15:00Z,43.07,-94.27,17.0,10.0,150,15,20,10.0,29.58071,,,TRUE,TRUE,,,,,,,CLR,,,,,,,,VFR,,,,,,,,,,,,METAR,371.0
KAWG 230815Z AUTO 16012KT 10SM CLR 17/13 A2972 RMK AO2,KAWG,2022-10-23T08:15:00Z,41.27,-91.67,17.0,13.0,160,12,,10.0,29.719488,,,TRUE,TRUE,,,,,,,CLR,,,,,,,,VFR,,,,,,,,,,,,METAR,229.0
KAVQ 230815Z AUTO 24004KT 10SM OVC039 20/13 A2977 RMK AO2 T02010133,KAVQ,2022-10-23T08:15:00Z,32.4,-111.22,20.1,13.3,240,4,,10.0,29.769686,,,TRUE,TRUE,,,,,,,OVC,3900,,,,,,,VFR,,,,,,,,,,,,METAR,618.0
KAVK 230815Z AUTO 19013KT 10SM CLR 23/10 A2952 RMK AO2 PWINO,KAVK,2022-10-23T08:15:00Z,36.77,-98.67,23.0,10.0,190,13,,10.0,29.518702,,,TRUE,TRUE,,,,,TRUE,,CLR,,,,,,,,VFR,,,,,,,,,,,,METAR,450.0
KAVC 230815Z AUTO 36005KT 10SM CLR 09/09 A3024 RMK AO2 T00900087,KAVC,2022-10-23T08:15:00Z,36.68,-78.05,9.0,8.7,360,5,,10.0,30.239174,,,TRUE,TRUE,,,,,,,CLR,,,,,,,,VFR,,,,,,,,,,,,SPECI,119.0
KAUN 230815Z AUTO 35005KT 10SM CLR 08/00 A2982 RMK A01,KAUN,2022-10-23T08:15:00Z,38.95,-121.08,8.0,0.0,350,5,,10.0,29.819881,,,TRUE,TRUE,,,,,,,CLR,,,,,,,,VFR,,,,,,,,,,,,METAR,453.0
KAUH 230815Z AUTO 15008KT 10SM CLR 13/09 A2940 RMK AO2 T01270085,KAUH,2022-10-23T08:15:00Z,40.88,-98.0,12.7,8.5,150,8,,10.0,29.40059,,,TRUE,TRUE,,,,,,,CLR,,,,,,,,VFR,,,,,,,,,,,,METAR,549.0
KATS 230815Z AUTO 20007KT 10SM CLR 17/12 A2975 RMK AO2,KATS,2022-10-23T08:15:00Z,32.85,-104.47,17.0,12.0,200,7,,10.0,29.749016,,,TRUE,TRUE,,,,,,,CLR,,,,,,,,VFR,,,,,,,,,,,,METAR,1073.0
KATP 230815Z AUTO 14007G14KT 10SM SCT050 SCT055 24/15 A3004 RMK A01,KATP,2022-10-23T08:15:00Z,27.2,-90.03,24.0,15.0,140,7,14,10.0,30.041338,,,TRUE,TRUE,,,,,,,SCT,5000,SCT,5500,,,,,VFR,,,,,,,,,,,,METAR,50.0
KATA 230815Z AUTO 15006KT 10SM BKN037 20/17 A2990 RMK AO2 SLP026 T02020166 $,KATA,2022-10-23T08:15:00Z,33.1,-94.2,20.2,16.6,150,6,,10.0,29.899607,1002.6,,TRUE,TRUE,TRUE,,,,,,BKN,3700,,,,,,,VFR,,,,,,,,,,,,METAR,85.0
KASW 230815Z AUTO 00000KT 10SM CLR 15/10 A3003 RMK AO2 T01510098,KASW,2022-10-23T08:15:00Z,41.27,-85.83,15.1,9.8,0,0,,10.0,30.029528,,,TRUE,TRUE,,,,,,,CLR,,,,,,,,VFR,,,,,,,,,,,,METAR,253.0
KASN 230815Z AUTO 00000KT 10SM CLR 07/06 A3017 RMK AO2 T00660063,KASN,2022-10-23T08:15:00Z,33.57,-86.05,6.6,6.3,0,0,,10.0,30.171259,,,TRUE,TRUE,,,,,,,CLR,,,,,,,,VFR,,,,,,,,,,,,METAR,159.0
KASL 230815Z AUTO 00000KT 10SM FEW033 SCT041 20/16 A2991 RMK AO2 T01970160 TSNO $,KASL,2022-10-23T08:15:00Z,32.52,-94.3,19.7,16.0,0,0,,10.0,29.911417,,,TRUE,TRUE,TRUE,,TRUE,,,,FEW,3300,SCT,4100,,,,,VFR,,,,,,,,,,,,METAR,104.0
KASJ 230815Z AUTO 33004KT 10SM CLR 11/11 A3014 RMK AO2 T01110111,KASJ,2022-10-23T08:15:00Z,36.28,-77.17,11.1,11.1,330,4,,10.0,30.138779,,,TRUE,TRUE,,,,,,,CLR,,,,,,,,VFR,,,,,,,,,,,,SPECI,20.0
KARW 230815Z AUTO 35004KT 10SM CLR 12/10 A3011 RMK AO2,KARW,2022-10-23T08:15:00Z,32.42,-80.63,12.0,10.0,350,4,,10.0,30.109253,,,TRUE,TRUE,,,,,,,CLR,,,,,,,,VFR,,,,,,,,,,,,SPECI,2.0
KARV 230815Z AUTO 16006KT 10SM CLR 16/09 A2979 RMK AO2 T01550092,KARV,2022-10-23T08:15:00Z,45.92,-89.72,15.5,9.2,160,6,,10.0,29.790354,,,TRUE,TRUE,,,,,,,CLR,,,,,,,,VFR,,,,,,,,,,,,METAR,494.0
KARM 230815Z AUTO 14004KT 10SM CLR 17/17 A2990 RMK AO2 T01720170 TSNO,KARM,2022-10-23T08:15:00Z,29.25,-96.15,17.2,17.0,140,4,,10.0,29.899607,,,TRUE,TRUE,,,TRUE,,,,CLR,,,,,,,,VFR,,,,,,,,,,,,METAR,29.0
KAQX 230815Z AUTO 00000KT 10SM CLR 09/07 A3013 RMK AO2,KAQX,2022-10-23T08:15:00Z,32.98,-81.27,9.0,7.0,0,0,,10.0,30.129921,,,TRUE,TRUE,,,,,,,CLR,,,,,,,,VFR,,,,,,,,,,,,SPECI,48.0
KAQO 230815Z AUTO VRB05KT 10SM OVC023 21/17 A2985 RMK AO2,KAQO,2022-10-23T08:15:00Z,30.78,-98.67,21.0,17.0,0,5,,10.0,29.84941,,,TRUE,TRUE,,,,,,,OVC,2300,,,,,,,MVFR,,,,,,,,,,,,METAR,334.0
KANW 230815Z AUTO 15009KT 10SM CLR 12/04 A2935 RMK AO2 T01180040,KANW,2022-10-23T08:15:00Z,42.57,-100.0,11.8,4.0,150,9,,10.0,29.350393,,,TRUE,TRUE,,,,,,,CLR,,,,,,,,VFR,,,,,,,,,,,,METAR,788.0
KANQ 230815Z AUTO 00000KT 10SM BKN048 BKN055 11/10 A3005 RMK AO2,KANQ,2022-10-23T08:15:00Z,41.63,-85.08,11.0,10.0,0,0,,10.0,30.050198,,,TRUE,TRUE,,,,,,,BKN,4800,BKN,5500,,,,,VFR,,,,,,,,,,,,METAR,299.0
KANE 230815Z AUTO 15007KT 10SM CLR 17/08 A2962 RMK AO2,KANE,2022-10-23T08:15:00Z,45.15,-93.22,17.0,8.0,150,7,,10.0,29.619095,,,TRUE,TRUE,,,,,,,CLR,,,,,,,,VFR,,,,,,,,,,,,METAR,276.0
KAMN 230815Z AUTO 16005KT 10SM CLR 13/09 A3003 RMK AO2 T01290091,KAMN,2022-10-23T08:15:00Z,43.32,-84.68,12.9,9.1,160,5,,10.0,30.029528,,,TRUE,TRUE,,,,,,,CLR,,,,,,,,VFR,,,,,,,,,,,,METAR,228.0
KALX 230815Z AUTO 00000KT 10SM CLR 08/07 A3016 RMK AO2 T00750074,KALX,2022-10-23T08:15:00Z,32.92,-85.97,7.5,7.4,0,0,,10.0,30.159449,,,TRUE,TRUE,,,,,,,CLR,,,,,,,,VFR,,,,,,,,,,,,METAR,198.0
KALN 230815Z AUTO 14009KT 10SM SCT090 19/11 A2986 RMK AO2 T01860110,KALN,2022-10-23T08:15:00Z,38.88,-90.03,18.6,11.0,140,9,,10.0,29.861221,,,TRUE,TRUE,,,,,,,SCT,9000,,,,,,,VFR,,,,,,,,,,,,METAR,159.0
KALM 230815Z AUTO 16016G22KT 10SM FEW041 SCT075 BKN085 20/09 A2979 RMK AO2,KALM,2022-10-23T08:15:00Z,32.83,-105.98,20.0,9.0,160,16,22,10.0,29.790354,,,TRUE,TRUE,,,,,,,FEW,4100,SCT,7500,BKN,8500,,,VFR,,,,,,,,,,,,METAR,1267.0
KAJZ 230815Z AUTO 24013G17KT 10SM VCTS SCT070 BKN075 OVC090 16/04 A2943 RMK AO2 LTG DSNT NE AND SW T01580039,KAJZ,2022-10-23T08:15:00Z,38.78,-108.07,15.8,3.9,240,13,17,10.0,29.430119,,,TRUE,TRUE,,,,,,VCTS,SCT,7000,BKN,7500,OVC,9000,,,VFR,,,,,,,,,,,,METAR,1583.0
KAJR 230815Z AUTO 02004KT 10SM CLR 07/06 A3020 RMK AO2 T00700055,KAJR,2022-10-23T08:15:00Z,34.5,-83.55,7.0,5.5,20,4,,10.0,30.200787,,,TRUE,TRUE,,,,,,,CLR,,,,,,,,VFR,,,,,,,,,,,,METAR,441.0
KAJG 230815Z AUTO 18011KT 10SM BKN060 19/11 A3000 RMK AO2 T01910112,KAJG,2022-10-23T08:15:00Z,38.62,-87.73,19.1,11.2,180,11,,10.0,30.0,,,TRUE,TRUE,,,,,,,BKN,6000,,,,,,,VFR,,,,,,,,,,,,METAR,130.0
KAIT 230815Z AUTO 00000KT 10SM CLR 04/03 A2961 RMK AO2,KAIT,2022-10-23T08:15:00Z,46.53,-93.67,4.0,3.0,0,0,,10.0,29.610237,,,TRUE,TRUE,,,,,,,CLR,,,,,,,,VFR,,,,,,,,,,,,METAR,367.0
KAIO 230815Z AUTO 16009G14KT 10SM CLR 18/13 A2953 RMK AO2,KAIO,2022-10-23T08:15:00Z,41.4,-95.03,18.0,13.0,160,9,14,10.0,29.530512,,,TRUE,TRUE,,,,,,,CLR,,,,,,,,VFR,,,,,,,,,,,,METAR,349.0
KAIK 230815Z AUTO 00000KT 10SM CLR 07/04 A3015 RMK AO2 T00690037,KAIK,2022-10-23T08:15:00Z,33.65,-81.68,6.9,3.7,0,0,,10.0,30.15059,,,TRUE,TRUE,,,,,,,CLR,,,,,,,,VFR,,,,,,,,,,,,SPECI,155.0
KAIG 230815Z AUTO 15007KT 10SM CLR 10/09 A2984 RMK AO2 T01030086,KAIG,2022-10-23T08:15:00Z,45.15,-89.12,10.3,8.6,150,7,,10.0,29.840551,,,TRUE,TRUE,,,,,,,CLR,,,,,,,,VFR,,,,,,,,,,,,METAR,462.0
KAID 230815Z AUTO 17004KT 10SM CLR 15/09 A3007 RMK AO2 T01530085,KAID,2022-10-23T08:15:00Z,40.12,-85.62,15.3,8.5,170,4,,10.0,30.070866,,,TRUE,TRUE,,,,,,,CLR,,,,,,,,VFR,,,,,,,,,,,,SPECI,277.0
KAHQ 230815Z AUTO 13010KT 10SM CLR 15/11 A2946 RMK AO2 T01450113,KAHQ,2022-10-23T08:15:00Z,41.23,-96.6,14.5,11.3,130,10,,10.0,29.459646,,,TRUE,TRUE,,,,,,,CLR,,,,,,,,VFR,,,,,,,,,,,,METAR,372.0
KAGO 230815Z AUTO 17007G12KT 10SM OVC039 20/16 A2994 RMK A01,KAGO,2022-10-23T08:15:00Z,33.23,-93.22,20.0,16.0,170,7,12,10.0,29.940945,,,TRUE,TRUE,,,,,,,OVC,3900,,,,,,,VFR,,,,,,,,,,,,SPECI,91.0
KAGI 230815Z AUTO 16015KT 10SM CLR 25/14 A2998 RMK AO2 T02490142,KAGI,2022-10-23T08:15:00Z,27.55,-92.45,24.9,14.2,160,15,,10.0,29.97933,,,TRUE,TRUE,,,,,,,CLR,,,,,,,,VFR,,,,,,,,,,,,METAR,41.0
KAFP 230815Z AUTO 00000KT 10SM CLR 06/05 A3017 RMK AO2 T00550048,KAFP,2022-10-23T08:15:00Z,35.02,-80.08,5.5,4.8,0,0,,10.0,30.171259,,,TRUE,TRUE,,,,,,,CLR,,,,,,,,VFR,,,,,,,,,,,,SPECI,91.0
KAFO 230815Z AUTO 00000KT 10SM BKN032 OVC041 00/M03 A2956 RMK AO2,KAFO,2022-10-23T08:15:00Z,42.72,-110.95,0.0,-3.0,0,0,,10.0,29.56004,,,TRUE,TRUE,,,,,,,BKN,3200,OVC,4100,,,,,VFR,,,,,,,,,,,,METAR,1881.0
KAFK 230815Z AUTO 15011G16KT 10SM CLR 18/13 A2950 RMK AO2 T01790126,KAFK,2022-10-23T08:15:00Z,40.6,-95.85,17.9,12.6,150,11,16,10.0,29.500984,,,TRUE,TRUE,,,,,,,CLR,,,,,,,,VFR,,,,,,,,,,,,METAR,353.0
KAEL 230815Z AUTO 15009KT 10SM CLR 16/09 A2964 RMK AO2,KAEL,2022-10-23T08:15:00Z,43.68,-93.37,16.0,9.0,150,9,,10.0,29.639763,,,TRUE,TRUE,,,,,,,CLR,,,,,,,,VFR,,,,,,,,,,,,METAR,382.0
KAEJ 230815Z AUTO 14005KT 10SM 10/M04 A2959 RMK AO2 T01021045,KAEJ,2022-10-23T08:15:00Z,38.82,-106.12,10.2,-4.5,140,5,,10.0,29.589567,,,TRUE,TRUE,,,,,,,,,,,,,,,,,,,,,,,,,,,METAR,2420.0
KAEG 230815Z AUTO 20008KT 10SM CLR 12/08 A2975 RMK AO2 T01210077,KAEG,2022-10-23T08:15:00Z,35.13,-106.8,12.1,7.7,200,8,,10.0,29.749016,,,TRUE,TRUE,,,,,,,CLR,,,,,,,,VFR,,,,,,,,,,,,METAR,1771.0
KADU 230815Z AUTO 16008KT 10SM SCT046 SCT055 BKN090 17/11 A2956 RMK AO2,KADU,2022-10-23T08:15:00Z,41.7,-94.92,17.0,11.0,160,8,,10.0,29.56004,,,TRUE,TRUE,,,,,,,SCT,4600,SCT,5500,BKN,9000,,,VFR,,,,,,,,,,,,METAR,391.0
KADT 230815Z AUTO 20005KT 10SM CLR 16/M03 A2940 RMK AO2 T01641035,KADT,2022-10-23T08:15:00Z,39.83,-101.05,16.4,-3.5,200,5,,10.0,29.40059,,,TRUE,TRUE,,,,,,,CLR,,,,,,,,VFR,,,,,,,,,,,,METAR,899.0
KADS 230815Z AUTO 18012G20KT 10SM CLR 21/16 A2983 RMK AO2 T02130158,KADS,2022-10-23T08:15:00Z,32.97,-96.83,21.3,15.8,180,12,20,10.0,29.828741,,,TRUE,TRUE,,,,,,,CLR,,,,,,,,VFR,,,,,,,,,,,,METAR,198.0
KADM 230815Z AUTO 16008KT 10SM CLR 22/14 A2974 RMK AO2,KADM,2022-10-23T08:15:00Z,34.3,-97.02,22.0,14.0,160,8,,10.0,29.740158,,,TRUE,TRUE,,,,,,,CLR,,,,,,,,VFR,,,,,,,,,,,,METAR,223.0
KADH 230815Z AUTO 18014G18KT 10SM CLR 21/14 A2975 RMK AO2,KADH,2022-10-23T08:15:00Z,34.8,-96.67,21.0,14.0,180,14,18,10.0,29.749016,,,TRUE,TRUE,,,,,,,CLR,,,,,,,,VFR,,,,,,,,,,,,METAR,301.0
KACQ 230815Z AUTO 14011KT 10SM CLR 15/07 A2964 RMK AO2,KACQ,2022-10-23T08:15:00Z,44.07,-93.55,15.0,7.0,140,11,,10.0,29.639763,,,TRUE,TRUE,,,,,,,CLR,,,,,,,,VFR,,,,,,,,,,,,METAR,339.0
KACP 230815Z AUTO 11003KT 10SM CLR 17/15 A2999 RMK AO2,KACP,2022-10-23T08:15:00Z,30.75,-92.68,17.0,15.0,110,3,,10.0,29.991142,,,TRUE,TRUE,,,,,,,CLR,,,,,,,,VFR,,,,,,,,,,,,METAR,31.0
KACJ 230815Z AUTO 00000KT 10SM CLR 06/04 A3014 RMK AO2 T00610040,KACJ,2022-10-23T08:15:00Z,32.12,-84.18,6.1,4.0,0,0,,10.0,30.138779,,,TRUE,TRUE,,,,,,,CLR,,,,,,,,VFR,,,,,,,,,,,,SPECI,140.0
KACB 230815Z AUTO 00000KT 10SM CLR 16/11 A2997 RMK AO2 T01600106,KACB,2022-10-23T08:15:00Z,44.98,-85.2,16.0,10.6,0,0,,10.0,29.970472,,,TRUE,TRUE,,,,,,,CLR,,,,,,,,VFR,,,,,,,,,,,,METAR,189.0
KAAS 230815Z AUTO 14004KT 10SM CLR 12/08 A3018 RMK AO1,KAAS,2022-10-23T08:15:00Z,37.35,-85.32,12.0,8.0,140,4,,10.0,30.180119,,,TRUE,TRUE,,,,,,,CLR,,,,,,,,VFR,,,,,,,,,,,,METAR,270.0
KAAA 230815Z AUTO 15008KT 10SM CLR 16/12 A2988 RMK AO2 T01620117,KAAA,2022-10-23T08:15:00Z,40.17,-89.33,16.2,11.7,150,8,,10.0,29.878937,,,TRUE,TRUE,,,,,,,CLR,,,,,,,,VFR,,,,,,,,,,,,METAR,179.0
K9V9 230815Z AUTO 11007KT 10SM CLR 08/03 A2936 RMK AO2 T00790027,K9V9,2022-10-23T08:15:00Z,43.77,-99.32,7.9,2.7,110,7,,10.0,29.359253,,,TRUE,TRUE,,,,,,,CLR,,,,,,,,VFR,,,,,,,,,,,,METAR,511.0
K9MN 230815Z AUTO 13009G17KT 10SM CLR 17/08 A2969 RMK AO1 T01710078,K9MN,2022-10-23T08:15:00Z,44.02,-92.48,17.1,7.8,130,9,17,10.0,29.68996,,,TRUE,TRUE,,,,,,,CLR,,,,,,,,VFR,,,,,,,,,,,,METAR,308.0
K9D7 230815Z AUTO 05014G20KT 10SM FEW010 FEW120 06/06 A2963 RMK AO2 TSNO,K9D7,2022-10-23T08:15:00Z,48.48,-99.23,6.0,6.0,50,14,20,10.0,29.630905,,,TRUE,TRUE,,,TRUE,,,,FEW,1000,FEW,12000,,,,,VFR,,,,,,,,,,,,METAR,451.0
K9A5 230815Z AUTO 00000KT 5SM CLR 05/05 A3019 RMK AO2 T00520052,K9A5,2022-10-23T08:15:00Z,34.68,-85.28,5.2,5.2,0,0,,5.0,30.188976,,,TRUE,TRUE,,,,,,,CLR,,,,,,,,MVFR,,,,,,,,,,,,METAR,234.0
K96D 230815Z AUTO 34007KT 10SM CLR 07/07 A2967 RMK AO2,K96D,2022-10-23T08:15:00Z,48.93,-97.9,7.0,7.0,340,7,,10.0,29.66929,,,TRUE,TRUE,,,,,,,CLR,,,,,,,,VFR,,,,,,,,,,,,METAR,290.0
K8W2 230815Z AUTO 00000KT 7SM CLR 00/00 A3025 RMK AO1 T00011001,K8W2,2022-10-23T08:15:00Z,38.65,-78.7,0.1,-0.1,0,0,,7.0,30.250984,,,TRUE,TRUE,,,,,,,CLR,,,,,,,,VFR,,,,,,,,,,,,METAR,295.0
K8T6 230815Z AUTO 14005KT 10SM FEW025 SCT036 BKN042 20/19 A2986 RMK AO2,K8T6,2022-10-23T08:15:00Z,28.37,-98.12,20.0,19.0,140,5,,10.0,29.861221,,,TRUE,TRUE,,,,,,,FEW,2500,SCT,3600,BKN,4200,,,VFR,,,,,,,,,,,,METAR,39.0
K8A3 230815Z AUTO 21004KT 10SM CLR 14/07 A3014 RMK A01,K8A3,2022-10-23T08:15:00Z,36.42,-85.32,14.0,7.0,210,4,,10.0,30.138779,,,TRUE,TRUE,,,,,,,CLR,,,,,,,,VFR,,,,,,,,,,,,METAR,413.0
K8A0 230815Z AUTO 14003KT 10SM CLR 12/07 A3015 RMK AO2,K8A0,2022-10-23T08:15:00Z,34.23,-86.25,12.0,7.0,140,3,,10.0,30.15059,,,TRUE,TRUE,,,,,,,CLR,,,,,,,,VFR,,,,,,,,,,,,METAR,313.0
K82V 230815Z AUTO 27006KT 10SM CLR 03/M07 A2937 RMK AO2,K82V,2022-10-23T08:15:00Z,41.15,-104.13,3.0,-7.0,270,6,,10.0,29.371063,,,TRUE,TRUE,,,,,,,CLR,,,,,,,,VFR,,,,,,,,,,,,METAR,1563.0
K82C 230815Z AUTO 13006KT 10SM CLR 15/11 A2979 RMK AO2 T01540110,K82C,2022-10-23T08:15:00Z,43.83,-90.13,15.4,11.0,130,6,,10.0,29.790354,,,TRUE,TRUE,,,,,,,CLR,,,,,,,,VFR,,,,,,,,,,,,METAR,273.0
K81R 230815Z AUTO 20010G14KT 10SM CLR 20/17 A2984 RMK AO2 T02040171,K81R,2022-10-23T08:15:00Z,31.23,-98.72,20.4,17.1,200,10,14,10.0,29.840551,,,TRUE,TRUE,,,,,,,CLR,,,,,,,,VFR,,,,,,,,,,,,METAR,381.0
K7W4 230815Z AUTO 00000KT 10SM CLR 06/06 A3023 RMK AO1 T00630060,K7W4,2022-10-23T08:15:00Z,37.97,-77.75,6.3,6.0,0,0,,10.0,30.230314,,,TRUE,TRUE,,,,,,,CLR,,,,,,,,VFR,,,,,,,,,,,,SPECI,115.0
K7L2 230815Z AUTO 07008KT 10SM CLR 06/03 A2946 RMK AO2,K7L2,2022-10-23T08:15:00Z,46.22,-100.25,6.0,3.0,70,8,,10.0,29.459646,,,TRUE,TRUE,,,,,,,CLR,,,,,,,,VFR,,,,,,,,,,,,METAR,541.0
K7BM 230815Z AUTO 29005G14KT 10SM SCT016 SCT030 OVC065 06/M04 A2967 RMK AO2 LTG DSNT SW,K7BM,2022-10-23T08:15:00Z,38.78,-106.22,6.0,-4.0,290,5,14,10.0,29.66929,,,TRUE,TRUE,,,,,,,SCT,1600,SCT,3000,OVC,6500,,,VFR,,,,,,,,,,,,METAR,2996.0
K79S 230815Z AUTO 24006KT 01/01 A2960 ,K79S,2022-10-23T08:15:00Z,47.85,-110.63,1.0,1.0,240,6,,,29.601377,,,TRUE,,,,,,,,,,,,,,,,,,,,,,,,,,,,METAR,874.0
K74V 230815Z AUTO 11003KT 10SM -DZ 06/00 A2950 RMK AO2,K74V,2022-10-23T08:15:00Z,40.28,-110.05,6.0,0.0,110,3,,10.0,29.500984,,,TRUE,TRUE,,,,,,-DZ,,,,,,,,,,,,,,,,,,,,,METAR,1567.0
K6S2 230815Z AUTO 00000KT 9SM -RA FEW021 SCT032 OVC044 08/08 A3001 RMK AO2,K6S2,2022-10-23T08:15:00Z,43.98,-124.12,8.0,8.0,0,0,,9.0,30.008858,,,TRUE,TRUE,,,,,,-RA,FEW,2100,SCT,3200,OVC,4400,,,VFR,,,,,,,,,,,,METAR,16.0
K6S0 230815Z AUTO 25016G22KT 10SM SCT026 OVC032 02/M00 A2951 RMK A01,K6S0,2022-10-23T08:15:00Z,45.8,-109.97,2.0,0.0,250,16,22,10.0,29.509842,,,TRUE,TRUE,,,,,,,SCT,2600,OVC,3200,,,,,VFR,,,,,,,,,,,,METAR,1364.0
K6P9 230815Z AUTO 21011G16KT 10SM CLR 21/13 A2978 RMK AO2 T02050127,K6P9,2022-10-23T08:15:00Z,32.43,-98.6,20.5,12.7,210,11,16,10.0,29.778543,,,TRUE,TRUE,,,,,,,CLR,,,,,,,,VFR,,,,,,,,,,,,METAR,451.0
K6L4 230815Z AUTO 20004KT 10SM CLR 14/03 A3018 RMK AO2,K6L4,2022-10-23T08:15:00Z,37.85,-81.92,14.0,3.0,200,4,,10.0,30.180119,,,TRUE,TRUE,,,,,,,CLR,,,,,,,,VFR,,,,,,,,,,,,METAR,504.0
K6I2 230815Z AUTO 15006KT 10SM CLR 14/08 A3013 RMK AO2,K6I2,2022-10-23T08:15:00Z,37.63,-85.25,14.0,8.0,150,6,,10.0,30.129921,,,TRUE,TRUE,,,,,,,CLR,,,,,,,,VFR,,,,,,,,,,,,METAR,258.0
K6B9 230815Z AUTO VRB04KT 10SM CLR 05/05 A3024 RMK AO2,K6B9,2022-10-23T08:15:00Z,42.92,-76.43,5.0,5.0,0,4,,10.0,30.239174,,,TRUE,TRUE,,,,,,,CLR,,,,,,,,VFR,,,,,,,,,,,,METAR,306.0
K6B0 230815Z AUTO 00000KT 10SM CLR 06/04 A3030 RMK AO2 T00570035,K6B0,2022-10-23T08:15:00Z,43.98,-73.1,5.7,3.5,0,0,,10.0,30.301182,,,TRUE,TRUE,,,,,,,CLR,,,,,,,,VFR,,,,,,,,,,,,METAR,149.0
K6A2 230815Z AUTO 00000KT 10SM CLR 05/04 A3018 RMK AO2,K6A2,2022-10-23T08:15:00Z,33.23,-84.27,5.0,4.0,0,0,,10.0,30.180119,,,TRUE,TRUE,,,,,,,CLR,,,,,,,,VFR,,,,,,,,,,,,METAR,290.0
K66R 230815Z AUTO 00000KT 10SM OVC047 18/17 A2990 RMK AO2 T01840170,K66R,2022-10-23T08:15:00Z,29.65,-96.52,18.4,17.0,0,0,,10.0,29.899607,,,TRUE,TRUE,,,,,,,OVC,4700,,,,,,,VFR,,,,,,,,,,,,METAR,70.0
K65S 230815Z AUTO 00000KT 8SM OVC022 03/02 A2976 RMK AO2,K65S,2022-10-23T08:15:00Z,48.73,-116.3,3.0,2.0,0,0,,8.0,29.760826,,,TRUE,TRUE,,,,,,,OVC,2200,,,,,,,MVFR,,,,,,,,,,,,METAR,708.0
K63S 230815Z AUTO 00000KT 10SM FEW034 FEW045 OVC070 04/02 A2977 RMK A01,K63S,2022-10-23T08:15:00Z,48.53,-117.88,4.0,2.0,0,0,,10.0,29.769686,,,TRUE,TRUE,,,,,,,FEW,3400,FEW,4500,OVC,7000,,,VFR,,,,,,,,,,,,METAR,571.0
K5T9 230815Z AUTO 00000KT 10SM CLR 19/18 A2980 RMK A01,K5T9,2022-10-23T08:15:00Z,28.85,-100.52,19.0,18.0,0,0,,10.0,29.799213,,,TRUE,TRUE,,,,,,,CLR,,,,,,,,VFR,,,,,,,,,,,,METAR,269.0
K5SM 230815Z AUTO 21015G36KT 180V240 5SM -VCTSSN BKN018 BKN030 OVC042 00/M02 A2959 RMK AO2 LTG DSNT SW,K5SM,2022-10-23T08:15:00Z,39.43,-107.38,0.0,-2.0,210,15,36,5.0,29.589567,,,TRUE,TRUE,,,,,,VCTS -SN,BKN,1800,BKN,3000,OVC,4200,,,MVFR,,,,,,,,,,,,METAR,3229.0
K5R8 230815Z AUTO 11003KT 10SM CLR 17/16 A2997 RMK AO2 T01660159,K5R8,2022-10-23T08:15:00Z,30.43,-93.47,16.6,15.9,110,3,,10.0,29.970472,,,TRUE,TRUE,,,,,,,CLR,,,,,,,,VFR,,,,,,,,,,,,METAR,26.0
K5M9 230815Z AUTO 17005KT 10SM SCT060 SCT065 16/10 A3003 RMK AO2 T01620102,K5M9,2022-10-23T08:15:00Z,37.33,-88.12,16.2,10.2,170,5,,10.0,30.029528,,,TRUE,TRUE,,,,,,,SCT,6000,SCT,6500,,,,,VFR,,,,,,,,,,,,METAR,199.0
K5H4 230815Z AUTO 04013KT 10SM BKN037 BKN043 06/M06 A2957 RMK AO2,K5H4,2022-10-23T08:15:00Z,47.78,-99.93,6.0,-6.0,40,13,,10.0,29.568897,,,TRUE,TRUE,,,,,,,BKN,3700,BKN,4300,,,,,VFR,,,,,,,,,,,,METAR,490.0
K5C1 230815Z AUTO 20007KT 10SM OVC011 18/18 A2989 RMK AO1,K5C1,2022-10-23T08:15:00Z,29.72,-98.7,18.0,18.0,200,7,,10.0,29.890747,,,TRUE,TRUE,,,,,,,OVC,1100,,,,,,,MVFR,,,,,,,,,,,,METAR,422.0
K57C 230815Z AUTO 17007KT 10SM CLR 16/11 A2988 RMK AO2 T01580112,K57C,2022-10-23T08:15:00Z,42.8,-88.37,15.8,11.2,170,7,,10.0,29.878937,,,TRUE,TRUE,,,,,,,CLR,,,,,,,,VFR,,,,,,,,,,,,METAR,454.0
K54J 230815Z AUTO 00000KT 10SM CLR 11/08 A3013 RMK AO2 T01060076,K54J,2022-10-23T08:15:00Z,30.73,-86.15,10.6,7.6,0,0,,10.0,30.129921,,,TRUE,TRUE,,,,,,,CLR,,,,,,,,VFR,,,,,,,,,,,,METAR,87.0
K54A 230815Z AUTO 02004KT 10SM CLR 18/18 A3003 RMK AO2,K54A,2022-10-23T08:15:00Z,26.85,-82.25,18.0,18.0,20,4,,10.0,30.029528,,,TRUE,TRUE,,,,,,,CLR,,,,,,,,VFR,,,,,,,,,,,,METAR,2.0
K4V0 230815Z AUTO 07006KT 2 1/2SM -SN SCT009 OVC016 00/00 A2951 RMK AO2 LTG DSNT S T00030001,K4V0,2022-10-23T08:15:00Z,40.1,-108.77,0.3,0.1,70,6,,2.5,29.509842,,,TRUE,TRUE,,,,,,-SN,SCT,900,OVC,1600,,,,,IFR,,,,,,,,,,,,METAR,1602.0
K4S2 230815Z AUTO 31007KT 10SM CLR 07/05 A2990 RMK AO2,K4S2,2022-10-23T08:15:00Z,45.68,-121.55,7.0,5.0,310,7,,10.0,29.899607,,,TRUE,TRUE,,,,,,,CLR,,,,,,,,VFR,,,,,,,,,,,,METAR,183.0
K4S1 230815Z AUTO 06006KT 7SM CLR 08/07 A3002 RMK AO2,K4S1,2022-10-23T08:15:00Z,42.42,-124.42,8.0,7.0,60,6,,7.0,30.02067,,,TRUE,TRUE,,,,,,,CLR,,,,,,,,VFR,,,,,,,,,,,,METAR,7.0
K4R5 230815Z AUTO 00000KT 1/4SM FG OVC003 06/06 A2969 RMK AO2 T00550055,K4R5,2022-10-23T08:15:00Z,46.78,-90.77,5.5,5.5,0,0,,0.25,29.68996,,,TRUE,TRUE,,,,,,FG,OVC,300,,,,,,,LIFR,,,,,,,,,,,,METAR,195.0
K4O4 230815Z AUTO 16011KT 9SM BKN027 BKN034 OVC040 20/16 A2987 RMK AO2,K4O4,2022-10-23T08:15:00Z,33.92,-94.87,20.0,16.0,160,11,,9.0,29.870079,,,TRUE,TRUE,,,,,,,BKN,2700,BKN,3400,OVC,4000,,,MVFR,,,,,,,,,,,,METAR,148.0
K4M9 230815Z AUTO 17012KT 10SM CLR 20/13 A2992 RMK AO2 PWINO,K4M9,2022-10-23T08:15:00Z,36.4,-90.65,20.0,13.0,170,12,,10.0,29.920275,,,TRUE,TRUE,,,,,TRUE,,CLR,,,,,,,,VFR,,,,,,,,,,,,SPECI,86.0
K4I3 230815Z AUTO 00000KT 10SM CLR 12/08 A3017 RMK AO2,K4I3,2022-10-23T08:15:00Z,40.33,-82.53,12.0,8.0,0,0,,10.0,30.171259,,,TRUE,TRUE,,,,,,,CLR,,,,,,,,VFR,,,,,,,,,,,,METAR,361.0
K4F2 230815Z AUTO 13008KT 10SM BKN037 19/16 A2994 RMK AO2 T01900161,K4F2,2022-10-23T08:15:00Z,32.18,-94.3,19.0,16.1,130,8,,10.0,29.940945,,,TRUE,TRUE,,,,,,,BKN,3700,,,,,,,VFR,,,,,,,,,,,,METAR,76.0
K4BM 230815Z AUTO 14008G19KT 050V270 10SM CLR 02/M07 A2973 RMK AO2 LTG DSNT S,K4BM,2022-10-23T08:15:00Z,39.05,-105.52,2.0,-7.0,140,8,19,10.0,29.731298,,,TRUE,TRUE,,,,,,,CLR,,,,,,,,VFR,,,,,,,,,,,,METAR,3432.0
K4A9 230815Z AUTO 35004KT 10SM CLR 06/06 A3016 RMK AO2 T00650060,K4A9,2022-10-23T08:15:00Z,34.47,-85.72,6.5,6.0,350,4,,10.0,30.159449,,,TRUE,TRUE,,,,,,,CLR,,,,,,,,VFR,,,,,,,,,,,,METAR,273.0
K4A6 230815Z AUTO 00000KT 10SM FEW021 SCT039 BKN050 08/08 A3016 RMK AO2,K4A6,2022-10-23T08:15:00Z,34.68,-86.0,8.0,8.0,0,0,,10.0,30.159449,,,TRUE,TRUE,,,,,,,FEW,2100,SCT,3900,BKN,5000,,,VFR,,,,,,,,,,,,SPECI,191.0
K49A 230815Z AUTO 00000KT 10SM CLR 05/04 A3023 RMK AO2 T00500039,K49A,2022-10-23T08:15:00Z,34.63,-84.53,5.0,3.9,0,0,,10.0,30.230314,,,TRUE,TRUE,,,,,,,CLR,,,,,,,,VFR,,,,,,,,,,,,METAR,449.0
K48A 230815Z AUTO 00000KT 10SM CLR 04/03 A3015 RMK AO2 T00420035,K48A,2022-10-23T08:15:00Z,32.4,-83.27,4.2,3.5,0,0,,10.0,30.15059,,,TRUE,TRUE,,,,,,,CLR,,,,,,,,VFR,,,,,,,,,,,,METAR,115.0
K46U 230815Z AUTO 31003KT 10SM FEW023 BKN028 OVC045 02/M01 A2957 RMK A01,K46U,2022-10-23T08:15:00Z,43.18,-111.05,2.0,-1.0,310,3,,10.0,29.568897,,,TRUE,TRUE,,,,,,,FEW,2300,BKN,2800,OVC,4500,,,MVFR,,,,,,,,,,,,METAR,1718.0
K46D 230815Z AUTO 03009KT 10SM CLR 06/04 A2956 RMK AO2,K46D,2022-10-23T08:15:00Z,47.45,-99.15,6.0,4.0,30,9,,10.0,29.56004,,,TRUE,TRUE,,,,,,,CLR,,,,,,,,VFR,,,,,,,,,,,,METAR,488.0
K42J 230815Z AUTO 00000KT 10SM FEW034 SCT040 BKN049 09/09 A3009 RMK A01,K42J,2022-10-23T08:15:00Z,29.85,-82.05,9.0,9.0,0,0,,10.0,30.088583,,,TRUE,TRUE,,,,,,,FEW,3400,SCT,4000,BKN,4900,,,VFR,,,,,,,,,,,,SPECI,57.0
K41U 230815Z AUTO 17009KT 10SM SCT004 BKN038 OVC046 01/01 A2958 RMK AO1 T00070007,K41U,2022-10-23T08:15:00Z,39.33,-111.6,0.7,0.7,170,9,,10.0,29.58071,,,TRUE,TRUE,,,,,,,SCT,400,BKN,3800,OVC,4600,,,VFR,,,,,,,,,,,,METAR,1676.0
K40U 230815Z AUTO 00000KT 2SM -SN BR SCT003 BKN009 OVC014 00/00 A2955 RMK AO2 P0001 T00001002,K40U,2022-10-23T08:15:00Z,40.98,-109.68,0.0,-0.2,0,0,,2.0,29.551182,,,TRUE,TRUE,,,,,,-SN BR,SCT,300,BKN,900,OVC,1400,,,IFR,,,,,,0.01,,,,,,METAR,1882.0
K3U3 230815Z AUTO 00000KT 10SM M01/M01 A2963 ,K3U3,2022-10-23T08:15:00Z,46.15,-112.87,-1.0,-1.0,0,0,,10.0,29.630905,,,TRUE,,,,,,,,,,,,,,,,,,,,,,,,,,,,METAR,1534.0
K3S8 230815Z AUTO 00000KT 10SM BKN006 BKN010 OVC039 06/05 A3004 RMK AO2,K3S8,2022-10-23T08:15:00Z,42.5,-123.4,6.0,5.0,0,0,,10.0,30.041338,,,TRUE,TRUE,,,,,,,BKN,600,BKN,1000,OVC,3900,,,IFR,,,,,,,,,,,,METAR,339.0
K3N8 230815Z AUTO 11004KT 10SM CLR 08/04 A2955 RMK AO2 T00780041,K3N8,2022-10-23T08:15:00Z,47.25,-95.92,7.8,4.1,110,4,,10.0,29.551182,,,TRUE,TRUE,,,,,,,CLR,,,,,,,,VFR,,,,,,,,,,,,METAR,379.0
K3LF 230815Z AUTO 15012G17KT 10SM OVC070 18/11 A2989 RMK AO2 T01750106,K3LF,2022-10-23T08:15:00Z,39.17,-89.67,17.5,10.6,150,12,17,10.0,29.890747,,,TRUE,TRUE,,,,,,,OVC,7000,,,,,,,VFR,,,,,,,,,,,,METAR,207.0
K3K3 230815Z AUTO 20011G16KT 10SM CLR 18/06 A2948 RMK AO2,K3K3,2022-10-23T08:15:00Z,38.0,-101.75,18.0,6.0,200,11,16,10.0,29.480314,,,TRUE,TRUE,,,,,,,CLR,,,,,,,,VFR,,,,,,,,,,,,METAR,1010.0
K3J7 230815Z AUTO 00000KT 10SM CLR 07/03 A3017 RMK AO2,K3J7,2022-10-23T08:15:00Z,33.6,-83.13,7.0,3.0,0,0,,10.0,30.171259,,,TRUE,TRUE,,,,,,,CLR,,,,,,,,VFR,,,,,,,,,,,,METAR,207.0
K3F3 230815Z AUTO 15006G14KT 10SM CLR 19/17 A2998 RMK AO2 T01900165,K3F3,2022-10-23T08:15:00Z,32.07,-93.77,19.0,16.5,150,6,14,10.0,29.97933,,,TRUE,TRUE,,,,,,,CLR,,,,,,,,VFR,,,,,,,,,,,,METAR,96.0
K3AU 230815Z AUTO 17014KT 10SM CLR 21/10 A2954 RMK AO2,K3AU,2022-10-23T08:15:00Z,37.67,-97.08,21.0,10.0,170,14,,10.0,29.53937,,,TRUE,TRUE,,,,,,,CLR,,,,,,,,VFR,,,,,,,,,,,,SPECI,403.0
K38S 230815Z AUTO 00000KT 10SM 01/01 A2965 ,K38S,2022-10-23T08:15:00Z,46.38,-112.77,1.0,1.0,0,0,,10.0,29.648623,,,TRUE,,,,,,,,,,,,,,,,,,,,,,,,,,,,METAR,1430.0
K35A 230815Z AUTO 00000KT 10SM CLR 04/03 A3023 RMK A02 T00370034,K35A,2022-10-23T08:15:00Z,34.68,-81.63,3.7,3.4,0,0,,10.0,30.230314,,,TRUE,TRUE,,,,,,,CLR,,,,,,,,VFR,,,,,,,,,,,,METAR,186.0
K33V 230815Z AUTO 15004KT 10SM SCT060 SCT085 05/00 A2952 RMK AO1,K33V,2022-10-23T08:15:00Z,40.75,-106.28,5.0,0.0,150,4,,10.0,29.518702,,,TRUE,TRUE,,,,,,,SCT,6000,SCT,8500,,,,,VFR,,,,,,,,,,,,METAR,2486.0
K33N 230815Z AUTO 35005KT 10SM BKN026 OVC033 11/11 A3022 RMK A01,K33N,2022-10-23T08:15:00Z,39.22,-75.6,11.0,11.0,350,5,,10.0,30.221457,,,TRUE,TRUE,,,,,,,BKN,2600,OVC,3300,,,,,MVFR,,,,,,,,,,,,METAR,17.0
K2V5 230815Z AUTO 28008KT 10SM CLR 09/M06 A2933 RMK AO2,K2V5,2022-10-23T08:15:00Z,40.1,-102.25,9.0,-6.0,280,8,,10.0,29.329725,,,TRUE,TRUE,,,,,,,CLR,,,,,,,,VFR,,,,,,,,,,,,METAR,1117.0
K2R9 230815Z AUTO 14004KT 7SM CLR 19/18 A2988 RMK AO2 T01910177,K2R9,2022-10-23T08:15:00Z,28.82,-97.87,19.1,17.7,140,4,,7.0,29.878937,,,TRUE,TRUE,,,,,,,CLR,,,,,,,,VFR,,,,,,,,,,,,METAR,88.0
K2P2 230815Z AUTO 19010G16KT 10SM CLR 12/12 A2990 RMK AO2 T01160116,K2P2,2022-10-23T08:15:00Z,45.38,-86.92,11.6,11.6,190,10,16,10.0,29.899607,,,TRUE,TRUE,,,,,,,CLR,,,,,,,,VFR,,,,,,,,,,,,METAR,182.0
K2M2 230815Z AUTO 16005KT 10SM BKN032 BKN048 BKN055 14/10 A3011 RMK A01,K2M2,2022-10-23T08:15:00Z,35.23,-87.25,14.0,10.0,160,5,,10.0,30.109253,,,TRUE,TRUE,,,,,,,BKN,3200,BKN,4800,BKN,5500,,,VFR,,,,,,,,,,,,METAR,286.0
K2J9 230815Z AUTO 00000KT 10SM CLR 06/05 A3014 RMK AO2,K2J9,2022-10-23T08:15:00Z,30.6,-84.55,6.0,5.0,0,0,,10.0,30.138779,,,TRUE,TRUE,,,,,,,CLR,,,,,,,,VFR,,,,,,,,,,,,METAR,62.0
K2J5 230815Z AUTO 00000KT 10SM CLR 06/05 A3016 RMK AO2 T00620051,K2J5,2022-10-23T08:15:00Z,32.9,-81.97,6.2,5.1,0,0,,10.0,30.159449,,,TRUE,TRUE,,,,,,,CLR,,,,,,,,VFR,,,,,,,,,,,,METAR,72.0
K2J3 230815Z AUTO 30003KT 10SM CLR 06/05 A3016 RMK AO2 T00590049,K2J3,2022-10-23T08:15:00Z,32.98,-82.38,5.9,4.9,300,3,,10.0,30.159449,,,TRUE,TRUE,,,,,,,CLR,,,,,,,,VFR,,,,,,,,,,,,METAR,97.0
K2G9 230815Z AUTO 00000KT 10SM CLR 02/00 A3024 RMK AO2,K2G9,2022-10-23T08:15:00Z,40.03,-79.02,2.0,0.0,0,0,,10.0,30.239174,,,TRUE,TRUE,,,,,,,CLR,,,,,,,,VFR,,,,,,,,,,,,METAR,677.0
K2D5 230815Z AUTO 05009KT 10SM FEW020 BKN026 BKN034 04/02 A2950 RMK AO2,K2D5,2022-10-23T08:15:00Z,46.17,-98.08,4.0,2.0,50,9,,10.0,29.500984,,,TRUE,TRUE,,,,,,,FEW,2000,BKN,2600,BKN,3400,,,MVFR,,,,,,,,,,,,METAR,407.0
K2C8 230815Z AUTO 36007KT 10SM BKN055 07/07 A2964 RMK AO2,K2C8,2022-10-23T08:15:00Z,48.78,-97.63,7.0,7.0,360,7,,10.0,29.639763,,,TRUE,TRUE,,,,,,,BKN,5500,,,,,,,VFR,,,,,,,,,,,,METAR,271.0
K2A0 230815Z AUTO 00000KT 3SM BR BKN002 06/06 A3016 RMK A01,K2A0,2022-10-23T08:15:00Z,35.48,-84.93,6.0,6.0,0,0,,3.0,30.159449,,,TRUE,TRUE,,,,,,BR,BKN,200,,,,,,,LIFR,,,,,,,,,,,,METAR,219.0
K28J 230815Z AUTO 00000KT 10SM FEW018 FEW025 SCT030 09/08 A3009 RMK AO2 TSNO,K28J,2022-10-23T08:15:00Z,29.65,-81.68,9.0,8.0,0,0,,10.0,30.088583,,,TRUE,TRUE,,,TRUE,,,,FEW,1800,FEW,2500,SCT,3000,,,VFR,,,,,,,,,,,,SPECI,9.0
K27K 230815Z AUTO 17003KT 10SM CLR 12/07 A3014 RMK AO1,K27K,2022-10-23T08:15:00Z,38.23,-84.43,12.0,7.0,170,3,,10.0,30.138779,,,TRUE,TRUE,,,,,,,CLR,,,,,,,,VFR,,,,,,,,,,,,METAR,283.0
K24J 230815Z AUTO 00000KT 10SM 05/05 A3011 RMK A01,K24J,2022-10-23T08:15:00Z,30.3,-83.03,5.0,5.0,0,0,,10.0,30.109253,,,TRUE,TRUE,,,,,,,,,,,,,,,,,,,,,,,,,,,SPECI,30.0
K24A 230815Z AUTO 00000KT 10SM CLR 06/02 A3025 RMK AO2 T00640018,K24A,2022-10-23T08:15:00Z,35.32,-83.2,6.4,1.8,0,0,,10.0,30.250984,,,TRUE,TRUE,,,,,,,CLR,,,,,,,,VFR,,,,,,,,,,,,METAR,864.0
K22N 230815Z AUTO 00000KT 7SM CLR 00/M01 A3031 RMK AO2,K22N,2022-10-23T08:15:00Z,40.8,-75.77,0.0,-1.0,0,0,,7.0,30.31004,,,TRUE,TRUE,,,,,,,CLR,,,,,,,,VFR,,,,,,,,,,,,METAR,159.0
K21D 230815Z AUTO 16008KT 10SM CLR 17/07 A2966 RMK AO2,K21D,2022-10-23T08:15:00Z,45.0,-92.85,17.0,7.0,160,8,,10.0,29.660433,,,TRUE,TRUE,,,,,,,CLR,,,,,,,,VFR,,,,,,,,,,,,METAR,281.0
K20V 230815Z AUTO 11005KT 10SM CLR 09/00 A2949 RMK AO2,K20V,2022-10-23T08:15:00Z,40.05,-106.37,9.0,0.0,110,5,,10.0,29.489174,,,TRUE,TRUE,,,,,,,CLR,,,,,,,,VFR,,,,,,,,,,,,METAR,2259.0
K20U 230815Z AUTO 11014G20KT 10SM OVC090 07/05 A2944 RMK AO2,K20U,2022-10-23T08:15:00Z,46.93,-103.98,7.0,5.0,110,14,20,10.0,29.438976,,,TRUE,TRUE,,,,,,,OVC,9000,,,,,,,VFR,,,,,,,,,,,,METAR,839.0
K1V6 230815Z AUTO 26026G33KT 10SM CLR 18/M01 A2945 RMK AO2,K1V6,2022-10-23T08:15:00Z,38.43,-105.1,18.0,-1.0,260,26,33,10.0,29.450787,,,TRUE,TRUE,,,,,,,CLR,,,,,,,,VFR,,,,,,,,,,,,METAR,1658.0
K1U7 230815Z AUTO 33004KT 10SM BKN042 OVC048 00/00 A2956 RMK A01,K1U7,2022-10-23T08:15:00Z,42.25,-111.33,0.0,0.0,330,4,,10.0,29.56004,,,TRUE,TRUE,,,,,,,BKN,4200,OVC,4800,,,,,VFR,,,,,,,,,,,,METAR,1808.0
K1S3 230815Z AUTO 36003KT 10SM 07/05 A2941 ,K1S3,2022-10-23T08:15:00Z,46.27,-106.62,7.0,5.0,360,3,,10.0,29.409449,,,TRUE,,,,,,,,,,,,,,,,,,,,,,,,,,,,METAR,831.0
K1R8 230815Z AUTO 00000KT 10SM FEW026 SCT037 BKN046 09/09 A3011 RMK AO2,K1R8,2022-10-23T08:15:00Z,30.87,-87.82,9.0,9.0,0,0,,10.0,30.109253,,,TRUE,TRUE,,,,,,,FEW,2600,SCT,3700,BKN,4600,,,VFR,,,,,,,,,,,,METAR,76.0
K1R7 230815Z AUTO 13003KT 10SM CLR 14/14 A3008 RMK AO2 PWINO,K1R7,2022-10-23T08:15:00Z,31.6,-90.42,14.0,14.0,130,3,,10.0,30.079725,,,TRUE,TRUE,,,,,TRUE,,CLR,,,,,,,,VFR,,,,,,,,,,,,SPECI,142.0
K1P1 230815Z AUTO 00000KT 7SM CLR 00/00 A3034 RMK AO2 T00020002,K1P1,2022-10-23T08:15:00Z,43.78,-71.75,0.2,0.2,0,0,,7.0,30.339567,,,TRUE,TRUE,,,,,,,CLR,,,,,,,,VFR,,,,,,,,,,,,METAR,155.0
K1M5 230815Z AUTO 17004KT 10SM CLR 14/11 A3010 RMK A01,K1M5,2022-10-23T08:15:00Z,36.6,-86.48,14.0,11.0,170,4,,10.0,30.100393,,,TRUE,TRUE,,,,,,,CLR,,,,,,,,VFR,,,,,,,,,,,,METAR,239.0
K1K1 230815Z AUTO 18011G18KT 10SM CLR 21/11 A2954 RMK AO2 T02080110,K1K1,2022-10-23T08:15:00Z,37.77,-97.12,20.8,11.0,180,11,18,10.0,29.53937,,,TRUE,TRUE,,,,,,,CLR,,,,,,,,VFR,,,,,,,,,,,,METAR,411.0
K1H2 230815Z AUTO 13013KT 10SM SCT060 18/11 A2996 RMK AO2 T01800108,K1H2,2022-10-23T08:15:00Z,39.07,-88.53,18.0,10.8,130,13,,10.0,29.958662,,,TRUE,TRUE,,,,,,,SCT,6000,,,,,,,VFR,,,,,,,,,,,,METAR,174.0
K1F0 230815Z AUTO 18012G21KT 10SM CLR 23/15 A2974 RMK AO2 T02260145,K1F0,2022-10-23T08:15:00Z,34.15,-97.12,22.6,14.5,180,12,21,10.0,29.740158,,,TRUE,TRUE,,,,,,,CLR,,,,,,,,VFR,,,,,,,,,,,,METAR,256.0
K1D1 230815Z AUTO 00000KT 9SM CLR 05/02 A2951 RMK AO2,K1D1,2022-10-23T08:15:00Z,45.23,-96.57,5.0,2.0,0,0,,9.0,29.509842,,,TRUE,TRUE,,,,,,,CLR,,,,,,,,VFR,,,,,,,,,,,,METAR,341.0
K1A9 230815Z AUTO 00000KT 10SM CLR 07/07 A3014 RMK AO2 T00730069,K1A9,2022-10-23T08:15:00Z,32.43,-86.52,7.3,6.9,0,0,,10.0,30.138779,,,TRUE,TRUE,,,,,,,CLR,,,,,,,,VFR,,,,,,,,,,,,METAR,65.0
K1A6 230815Z AUTO 00000KT 10SM CLR 05/05 A3020 RMK AO2 T00530053,K1A6,2022-10-23T08:15:00Z,36.62,-83.73,5.3,5.3,0,0,,10.0,30.200787,,,TRUE,TRUE,,,,,,,CLR,,,,,,,,VFR,,,,,,,,,,,,METAR,348.0
K19S 230815Z AUTO 21010KT 10SM CLR 19/09 A2951 RMK AO2 T01890088,K19S,2022-10-23T08:15:00Z,37.48,-100.83,18.9,8.8,210,10,,10.0,29.509842,,,TRUE,TRUE,,,,,,,CLR,,,,,,,,VFR,,,,,,,,,,,,METAR,886.0
K18H 230815Z AUTO 16017KT 10SM CLR 26/15 A2996 RMK A01,K18H,2022-10-23T08:15:00Z,26.13,-92.03,26.0,15.0,160,17,,10.0,29.958662,,,TRUE,TRUE,,,,,,,CLR,,,,,,,,VFR,,,,,,,,,,,,METAR,30.0
K18A 230815Z AUTO 03005KT 10SM CLR 10/05 A3020 RMK AO2 T00950047,K18A,2022-10-23T08:15:00Z,34.35,-83.13,9.5,4.7,30,5,,10.0,30.200787,,,TRUE,TRUE,,,,,,,CLR,,,,,,,,VFR,,,,,,,,,,,,METAR,260.0
K17J 230815Z AUTO 00000KT 10SM CLR 07/05 A3014 RMK AO2 T00660046,K17J,2022-10-23T08:15:00Z,31.0,-84.87,6.6,4.6,0,0,,10.0,30.138779,,,TRUE,TRUE,,,,,,,CLR,,,,,,,,VFR,,,,,,,,,,,,METAR,42.0
K15M 230815Z AUTO 17003KT 10SM CLR 15/11 A3010 RMK AO2 T01510110 $,K15M,2022-10-23T08:15:00Z,34.77,-88.17,15.1,11.0,170,3,,10.0,30.100393,,,TRUE,TRUE,TRUE,,,,,,CLR,,,,,,,,VFR,,,,,,,,,,,,SPECI,192.0
K14Y 230815Z AUTO 14003KT 10SM CLR 11/06 A2958 RMK AO2,K14Y,2022-10-23T08:15:00Z,45.9,-94.87,11.0,6.0,140,3,,10.0,29.58071,,,TRUE,TRUE,,,,,,,CLR,,,,,,,,VFR,,,,,,,,,,,,METAR,404.0
K13K 230815Z AUTO 17022KT 10SM CLR 21/14 A2957 RMK AO2 T02130135,K13K,2022-10-23T08:15:00Z,37.85,-96.3,21.3,13.5,170,22,,10.0,29.568897,,,TRUE,TRUE,,,,,,,CLR,,,,,,,,VFR,,,,,,,,,,,,METAR,367.0
K11R 230815Z AUTO 18004KT 10SM SCT043 20/17 A2990 RMK AO2 T02000174,K11R,2022-10-23T08:15:00Z,30.22,-96.37,20.0,17.4,180,4,,10.0,29.899607,,,TRUE,TRUE,,,,,,,SCT,4300,,,,,,,VFR,,,,,,,,,,,,METAR,87.0
K10G 230815Z AUTO 16005KT 10SM CLR 15/05 A3017 RMK AO2,K10G,2022-10-23T08:15:00Z,,,15.0,5.0,160,5,,10.0,30.171259,,,TRUE,TRUE,,,,,,,CLR,,,,,,,,VFR,,,,,,,,,,,,METAR,
K0VG 230815Z AUTO 00000KT 10SM CLR 04/04 A3021 RMK AO2,K0VG,2022-10-23T08:15:00Z,36.65,-83.22,4.0,4.0,0,0,,10.0,30.209646,,,TRUE,TRUE,,,,,,,CLR,,,,,,,,VFR,,,,,,,,,,,,SPECI,426.0
K0S9 230815Z AUTO 00000KT 10SM OVC055 06/06 A2992 RMK AO2,K0S9,2022-10-23T08:15:00Z,48.05,-122.82,6.0,6.0,0,0,,10.0,29.920275,,,TRUE,TRUE,,,,,,,OVC,5500,,,,,,,VFR,,,,,,,,,,,,METAR,33.0
K0R4 230815Z AUTO 13011KT 10SM CLR 18/14 A3002 RMK AO2 T01820142,K0R4,2022-10-23T08:15:00Z,31.57,-91.5,18.2,14.2,130,11,,10.0,30.02067,,,TRUE,TRUE,,,,,,,CLR,,,,,,,,VFR,,,,,,,,,,,,METAR,16.0
K0R0 230815Z AUTO 00000KT 10SM CLR 12/12 A3011 RMK AO2,K0R0,2022-10-23T08:15:00Z,31.3,-89.82,12.0,12.0,0,0,,10.0,30.109253,,,TRUE,TRUE,,,,,,,CLR,,,,,,,,VFR,,,,,,,,,,,,METAR,76.0
K0F2 230815Z AUTO 16011G16KT 10SM CLR 21/14 A2975 RMK AO2 T02110140,K0F2,2022-10-23T08:15:00Z,33.6,-97.78,21.1,14.0,160,11,16,10.0,29.749016,,,TRUE,TRUE,,,,,,,CLR,,,,,,,,VFR,,,,,,,,,,,,METAR,330.0
K0E0 230815Z AUTO 21016G20KT 10SM SCT065 13/09 A2979 RMK AO2 T01300094 TSNO,K0E0,2022-10-23T08:15:00Z,34.98,-106.0,13.0,9.4,210,16,20,10.0,29.790354,,,TRUE,TRUE,,,TRUE,,,,SCT,6500,,,,,,,VFR,,,,,,,,,,,,METAR,1887.0
K0CO 230815Z AUTO 25042G51KT 10SM CLR M01/M09 A2965 RMK AO2,K0CO,2022-10-23T08:15:00Z,39.8,-105.77,-1.0,-9.0,250,42,51,10.0,29.648623,,,TRUE,TRUE,,,,,,,CLR,,,,,,,,VFR,,,,,,,,,,,,METAR,3804.0
K0A9 230815Z AUTO 00000KT 9SM CLR 06/04 A3021 RMK A01,K0A9,2022-10-23T08:15:00Z,36.37,-82.17,6.0,4.0,0,0,,9.0,30.209646,,,TRUE,TRUE,,,,,,,CLR,,,,,,,,VFR,,,,,,,,,,,,METAR,479.0
K0A0 230815Z AUTO 13009G15KT 10SM BKN055 BKN065 18/10 A2978 RMK AO2,K0A0,2022-10-23T08:15:00Z,32.98,-106.97,18.0,10.0,130,9,15,10.0,29.778543,,,TRUE,TRUE,,,,,,,BKN,5500,BKN,6500,,,,,VFR,,,,,,,,,,,,METAR,1401.0
K08D 230815Z AUTO 06016KT 10SM OVC008 06/06 A2956 RMK AO2,K08D,2022-10-23T08:15:00Z,48.3,-102.4,6.0,6.0,60,16,,10.0,29.56004,,,TRUE,TRUE,,,,,,,OVC,800,,,,,,,IFR,,,,,,,,,,,,METAR,683.0
K06D 230815Z AUTO 04016KT 10SM OVC011 06/05 A2965 RMK AO2,K06D,2022-10-23T08:15:00Z,48.88,-99.62,6.0,5.0,40,16,,10.0,29.648623,,,TRUE,TRUE,,,,,,,OVC,1100,,,,,,,MVFR,,,,,,,,,,,,METAR,554.0
K06C 230815Z AUTO 17006KT 10SM CLR 16/13 A2990 RMK AO2 T01630134,K06C,2022-10-23T08:15:00Z,41.98,-88.1,16.3,13.4,170,6,,10.0,29.899607,,,TRUE,TRUE,,,,,,,CLR,,,,,,,,VFR,,,,,,,,,,,,METAR,243.0
K05U 230815Z AUTO 00000KT 7SM M01/M03 A2975 RMK A01,K05U,2022-10-23T08:15:00Z,39.6,-116.0,-1.0,-3.0,0,0,,7.0,29.749016,,,TRUE,TRUE,,,,,,,,,,,,,,,,,,,,,,,,,,,METAR,1813.0
K04W 230815Z AUTO 00000KT 10SM CLR 05/04 A2964 RMK AO2,K04W,2022-10-23T08:15:00Z,46.02,-92.9,5.0,4.0,0,0,,10.0,29.639763,,,TRUE,TRUE,,,,,,,CLR,,,,,,,,VFR,,,,,,,,,,,,METAR,310.0
K04V 230815Z AUTO 00000KT 10SM 06/M01 A2967 RMK AO2,K04V,2022-10-23T08:15:00Z,38.1,-106.17,6.0,-1.0,0,0,,10.0,29.66929,,,TRUE,TRUE,,,,,,,,,,,,,,,,,,,,,,,,,,,METAR,2389.0
CWPF 230815Z AUTO 01004KT 06/05 RMK AO1 SLP134 T00610046 51020,CWPF,2022-10-23T08:15:00Z,48.43,-123.43,6.1,4.6,10,4,,,,1013.4,,TRUE,TRUE,,,,,,,,,,,,,,,,2.0,,,,,,,,,,,METAR,5.0
BGTL 230815Z AUTO 17006KT 9999 SCT017 OVC041 M04/M07 A2941 RMK AO2 SLP946 TSNO $,BGTL,2022-10-23T08:15:00Z,76.53,-68.75,-4.0,-7.0,170,6,,6.21,29.409449,994.6,,TRUE,TRUE,TRUE,,TRUE,,,,SCT,1700,OVC,4100,,,,,VFR,,,,,,,,,,,,SPECI,79.0
YMIA 230814Z AUTO 14010KT 9999 -RA BKN008 BKN037 BKN050 17/17 Q1007,YMIA,2022-10-23T08:14:00Z,-34.23,142.08,17.0,17.0,140,10,,6.21,29.734253,,,TRUE,,,,,,,-RA,BKN,800,BKN,3700,BKN,5000,,,IFR,,,,,,,,,,,,SPECI,53.0
ROIG 230814Z 01013KT 9999 -SHRA FEW007 SCT014 BKN038 23/23 Q1012 RMK 1ST007 3CU014 5SC038 A2990,ROIG,2022-10-23T08:14:00Z,24.38,124.23,23.0,23.0,10,13,,6.21,29.88189,,,,,,,,,,-SHRA,FEW,700,SCT,1400,BKN,3800,,,VFR,,,,,,,,,,,,SPECI,37.0
LEVX 230814Z 23021G38KT 190V260 0800 R19/1700U R01/1400U +RA SCT009 BKN016 15/14 Q1006 TEMPO BKN010,LEVX,2022-10-23T08:14:00Z,42.23,-8.62,15.0,14.0,230,21,38,0.5,29.704725,,,,,,,,,,+RA,SCT,900,BKN,1600,,,,,LIFR,,,,,,,,,,,,SPECI,253.0
LEST 230814Z 23019G35KT 200V290 3000 -SHRA BKN006 BKN025TCU 14/13 Q1002 WS ALL RWY TEMPO SHRA,LEST,2022-10-23T08:14:00Z,42.88,-8.42,14.0,13.0,230,19,35,1.86,29.586615,,,,,,,,,,-SHRA,BKN,600,BKN,2500,,,,,IFR,,,,,,,,,,,,SPECI,363.0
KOTH 230814Z AUTO 16005KT 10SM SCT003 BKN039 BKN055 08/08 A3003 RMK AO2,KOTH,2022-10-23T08:14:00Z,43.42,-124.25,8.0,8.0,160,5,,10.0,30.029528,,,TRUE,TRUE,,,,,,,SCT,300,BKN,3900,BKN,5500,,,VFR,,,,,,,,,,,,SPECI,3.0
KMMH 230814Z AUTO 28008KT 10SM OVC045 M01/M08 A2983 RMK AO2,KMMH,2022-10-23T08:14:00Z,37.62,-118.83,-1.0,-8.0,280,8,,10.0,29.828741,,,TRUE,TRUE,,,,,,,OVC,4500,,,,,,,VFR,,,,,,,,,,,,METAR,2167.0
KGDV 230814Z AUTO 05010KT 10SM FEW015 07/05 A2944 RMK AO2,KGDV,2022-10-23T08:14:00Z,47.13,-104.8,7.0,5.0,50,10,,10.0,29.438976,,,TRUE,TRUE,,,,,,,FEW,1500,,,,,,,VFR,,,,,,,,,,,,SPECI,749.0
KCWN 230814Z AUTO 27013G32KT 10SM FEW210 14/M04 A2927 RMK AO2 WSHFT 13 SLP725 $,KCWN,2022-10-23T08:14:00Z,38.75,-104.85,14.0,-4.0,270,13,32,10.0,29.27067,972.5,,TRUE,TRUE,TRUE,,,,,,FEW,21000,,,,,,,VFR,,,,,,,,,,,,METAR,2040.0
KXVG 230813Z AUTO 12003KT 10SM CLR 08/05 A2959 RMK AO2,KXVG,2022-10-23T08:13:00Z,46.98,-94.2,8.0,5.0,120,3,,10.0,29.589567,,,TRUE,TRUE,,,,,,,CLR,,,,,,,,VFR,,,,,,,,,,,,METAR,407.0
KOWA 230813Z AUTO 14010KT 10SM CLR 17/08 A2964 RMK AO2,KOWA,2022-10-23T08:13:00Z,44.12,-93.25,17.0,8.0,140,10,,10.0,29.639763,,,TRUE,TRUE,,,,,,,CLR,,,,,,,,VFR,,,,,,,,,,,,METAR,345.0
KORB 230813Z AUTO 14004KT 10SM CLR 09/06 A2961 RMK AO2,KORB,2022-10-23T08:13:00Z,48.02,-92.87,9.0,6.0,140,4,,10.0,29.610237,,,TRUE,TRUE,,,,,,,CLR,,,,,,,,VFR,,,,,,,,,,,,METAR,407.0
KFOZ 230813Z AUTO 10003KT 10SM CLR 06/04 A2965 RMK AO2,KFOZ,2022-10-23T08:13:00Z,47.77,-93.65,6.0,4.0,100,3,,10.0,29.648623,,,TRUE,TRUE,,,,,,,CLR,,,,,,,,VFR,,,,,,,,,,,,METAR,412.0
KETH 230813Z AUTO 11007KT 10SM 03/M03 A2952 RMK AO2,KETH,2022-10-23T08:13:00Z,45.78,-96.55,3.0,-3.0,110,7,,10.0,29.518702,,,TRUE,TRUE,,,,,,,,,,,,,,,,,,,,,,,,,,,METAR,309.0
KDVP 230813Z AUTO 13007KT 10SM CLR 08/05 A2954 RMK AO2 T00820050,KDVP,2022-10-23T08:13:00Z,43.98,-95.78,8.2,5.0,130,7,,10.0,29.53937,,,TRUE,TRUE,,,,,,,CLR,,,,,,,,VFR,,,,,,,,,,,,METAR,493.0
KCYD 230813Z AUTO 13010G15KT 10SM SCT042 23/13 A3008 RMK A02 T02320135,KCYD,2022-10-23T08:13:00Z,28.17,-89.22,23.2,13.5,130,10,15,10.0,30.079725,,,TRUE,TRUE,,,,,,,SCT,4200,,,,,,,VFR,,,,,,,,,,,,METAR,30.0
KCUL 230813Z AUTO 14008KT 10SM SCT060 17/11 A2999 RMK AO2,KCUL,2022-10-23T08:13:00Z,38.08,-88.12,17.0,11.0,140,8,,10.0,29.991142,,,TRUE,TRUE,,,,,,,SCT,6000,,,,,,,VFR,,,,,,,,,,,,METAR,116.0
KAQP 230813Z AUTO 15007KT 10SM 11/04 A2951 RMK AO2,KAQP,2022-10-23T08:13:00Z,45.22,-96.0,11.0,4.0,150,7,,10.0,29.509842,,,TRUE,TRUE,,,,,,,,,,,,,,,,,,,,,,,,,,,METAR,312.0
CYDB 230813Z AUTO 27007KT 3SM -SN OVC020 M04/M07 A2974 RMK SLP121,CYDB,2022-10-23T08:13:00Z,61.37,-139.02,-4.0,-7.0,270,7,,3.0,29.740158,1012.1,,TRUE,,,,,,,-SN,OVC,2000,,,,,,,MVFR,,,,,,,,,,,,SPECI,807.0
PHNG 230812Z AUTO 08010G18KT 10SM SCT026 SCT034 A3003 RMK AO2,PHNG,2022-10-23T08:12:00Z,21.43,-157.77,,,80,10,18,10.0,30.029528,,,TRUE,TRUE,,,,,,,SCT,2600,SCT,3400,,,,,VFR,,,,,,,,,,,,METAR,1.0
PAPG 230812Z AUTO 24003KT 3SM BR FEW002 00/00 A2989 RMK AO2 FZRANO,PAPG,2022-10-23T08:12:00Z,56.82,-132.93,0.0,0.0,240,3,,3.0,29.890747,,,TRUE,TRUE,,,,TRUE,,BR,FEW,200,,,,,,,MVFR,,,,,,,,,,,,METAR,24.0
PAOT 230812Z 14016KT 1 1/4SM -SN BR FEW005 OVC013 M01/M01 A2979 RMK AO2 P0000 T10061006,PAOT,2022-10-23T08:12:00Z,66.88,-162.6,-0.6,-0.6,140,16,,1.25,29.790354,,,,TRUE,,,,,,-SN BR,FEW,500,OVC,1300,,,,,IFR,,,,,,0.005,,,,,,SPECI,3.0
LHPP 230812Z AUTO 00000KT 0250 R34/0400N FG VV001 13/13 Q1024,LHPP,2022-10-23T08:12:00Z,45.98,18.23,13.0,13.0,0,0,,0.16,30.236221,,,TRUE,,,,,,,FG,OVX,0,,,,,,,LIFR,,,,,,,,,,,100,SPECI,193.0
KGED 230812Z AUTO 03008KT 10SM OVC028 15/12 A3019 RMK AO2 T01500122,KGED,2022-10-23T08:12:00Z,38.68,-75.37,15.0,12.2,30,8,,10.0,30.188976,,,TRUE,TRUE,,,,,,,OVC,2800,,,,,,,MVFR,,,,,,,,,,,,SPECI,15.0
KCOD 230812Z AUTO 02010KT 10SM FEW007 OVC070 03/01 A2946 RMK AO2,KCOD,2022-10-23T08:12:00Z,44.52,-109.02,3.0,1.0,20,10,,10.0,29.459646,,,TRUE,TRUE,,,,,,,FEW,700,OVC,7000,,,,,VFR,,,,,,,,,,,,SPECI,1550.0
KBUR 230812Z 12008KT 10SM SCT017 BKN026 17/12 A2977 RMK AO2 T01720122,KBUR,2022-10-23T08:12:00Z,34.2,-118.37,17.2,12.2,120,8,,10.0,29.769686,,,,TRUE,,,,,,,SCT,1700,BKN,2600,,,,,MVFR,,,,,,,,,,,,METAR,221.0
ROMY 230811Z 01014KT 4000 -SHRA BR FEW007 BKN009 FEW025TCU BKN030 24/23 Q1012 RMK 2ST007 5CU009 1TCU025 6CU030 A2990 TCU 20KM NE MOV SE,ROMY,2022-10-23T08:11:00Z,24.78,125.27,24.0,23.0,10,14,,2.49,29.88189,,,,,,,,,,-SHRA BR,FEW,700,BKN,900,FEW,2500,BKN,3000,IFR,,,,,,,,,,,,SPECI,38.0
ROMD 230811Z AUTO 24008KT 210V280 9999 FEW002 SCT049 BKN050 25/25 Q1008 RMK A2978,ROMD,2022-10-23T08:11:00Z,25.83,131.25,25.0,25.0,240,8,,6.21,29.763779,,,TRUE,,,,,,,,FEW,200,SCT,4900,BKN,5000,,,VFR,,,,,,,,,,,,SPECI,45.0
KCRQ 230811Z AUTO 23011KT 9SM BKN007 BKN011 OVC032 17/16 A2980 RMK AO2 RAE03 CIG 005V008 P0000 T01670156,KCRQ,2022-10-23T08:11:00Z,33.13,-117.28,16.7,15.6,230,11,,9.0,29.799213,,,TRUE,TRUE,,,,,,,BKN,700,BKN,1100,OVC,3200,,,IFR,,,,,,0.005,,,,,,SPECI,96.0
KC99 230811Z AUTO 26012G21KT 210V280 10SM CLR 02/M09 A2961 RMK AO2 LTG DSNT SW,KC99,2022-10-23T08:11:00Z,39.87,-105.55,2.0,-9.0,260,12,21,10.0,29.610237,,,TRUE,TRUE,,,,,,,CLR,,,,,,,,VFR,,,,,,,,,,,,METAR,3334.0
EGQL 230811Z 06002KT 9999 3000W -SHRA SCT025 BKN050 10/10 Q1004 RMK YLO1,EGQL,2022-10-23T08:11:00Z,56.38,-2.87,10.0,10.0,60,2,,6.21,29.64567,,,,,,,,,,-SHRA,SCT,2500,BKN,5000,,,,,VFR,,,,,,,,,,,,SPECI,11.0
CYYH 230811Z 31008G15KT 12SM -SN FEW013 BKN018 M15/M18 A2967 RMK SC2SC5 SLP054,CYYH,2022-10-23T08:11:00Z,69.53,-93.57,-15.0,-18.0,310,8,15,12.0,29.66929,1005.4,,,,,,,,,-SN,FEW,1300,BKN,1800,,,,,MVFR,,,,,,,,,,,,SPECI,19.0
CBBC 230811Z AUTO 00000KT 9SM BKN004 00/M00 A2996 RMK SLP149,CBBC,2022-10-23T08:11:00Z,52.18,-128.15,0.0,0.0,0,0,,9.0,29.958662,1014.9,,TRUE,,,,,,,,BKN,400,,,,,,,LIFR,,,,,,,,,,,,SPECI,36.0
VCRI 230810Z 23009KT 9000 SCT018 BKN080 29/26 Q1009 NOSIG,VCRI,2022-10-23T08:10:00Z,6.28,81.13,29.0,26.0,230,9,,5.59,29.793306,,,,,,TRUE,,,,,SCT,1800,BKN,8000,,,,,VFR,,,,,,,,,,,,METAR,50.0
KWWR 230810Z AUTO 21013G18KT 10SM CLR 23/10 A2959 RMK AO2,KWWR,2022-10-23T08:10:00Z,36.45,-99.52,23.0,10.0,210,13,18,10.0,29.589567,,,TRUE,TRUE,,,,,,,CLR,,,,,,,,VFR,,,,,,,,,,,,METAR,664.0
KTXW 230810Z AUTO 15007KT 1 1/2SM HZ VV007 23/20 A2986 RMK AO2 VIS 1V2 1/2 T02300198,KTXW,2022-10-23T08:10:00Z,26.18,-97.97,23.0,19.8,150,7,,1.5,29.861221,,,TRUE,TRUE,,,,,,HZ,OVX,0,,,,,,,LIFR,,,,,,,,,,,700,METAR,21.0
KTNB 230810Z AUTO 27003KT 10SM CLR 00/00 A3026 RMK AO2 T00010001,KTNB,2022-10-23T08:10:00Z,36.2,-81.65,0.1,0.1,270,3,,10.0,30.259842,,,TRUE,TRUE,,,,,,,CLR,,,,,,,,VFR,,,,,,,,,,,,METAR,958.0
KSNH 230810Z AUTO 16006KT 10SM FEW050 OVC060 17/11 A3007 RMK A01,KSNH,2022-10-23T08:10:00Z,35.17,-88.22,17.0,11.0,160,6,,10.0,30.070866,,,TRUE,TRUE,,,,,,,FEW,5000,OVC,6000,,,,,VFR,,,,,,,,,,,,SPECI,142.0
KSLR 230810Z AUTO 17008KT 10SM CLR 21/15 A2987 RMK AO2 T02080146,KSLR,2022-10-23T08:10:00Z,33.17,-95.62,20.8,14.6,170,8,,10.0,29.870079,,,TRUE,TRUE,,,,,,,CLR,,,,,,,,VFR,,,,,,,,,,,,METAR,144.0
KS85 230810Z AUTO 07011G19KT 10SM OVC014 07/05 A2950 RMK A01 Culbertson ,KS85,2022-10-23T08:10:00Z,48.15,-104.5,7.0,5.0,70,11,19,10.0,29.500984,,,TRUE,TRUE,,,,,,,OVC,1400,,,,,,,MVFR,,,,,,,,,,,,METAR,596.0
KS21 230810Z AUTO 20009KT 10SM FEW047 BKN060 OVC075 00/M02 A2990 RMK AO2,KS21,2022-10-23T08:10:00Z,43.88,-121.45,0.0,-2.0,200,9,,10.0,29.899607,,,TRUE,TRUE,,,,,,,FEW,4700,BKN,6000,OVC,7500,,,VFR,,,,,,,,,,,,METAR,1269.0
KPVW 230810Z AUTO 21014G18KT 10SM CLR 17/11 A2972 RMK AO2 T01700109,KPVW,2022-10-23T08:10:00Z,34.17,-101.72,17.0,10.9,210,14,18,10.0,29.719488,,,TRUE,TRUE,,,,,,,CLR,,,,,,,,VFR,,,,,,,,,,,,METAR,1029.0
KOSA 230810Z AUTO 15011KT 10SM CLR 20/17 A2988 RMK AO2 T02020169,KOSA,2022-10-23T08:10:00Z,33.1,-94.97,20.2,16.9,150,11,,10.0,29.878937,,,TRUE,TRUE,,,,,,,CLR,,,,,,,,VFR,,,,,,,,,,,,METAR,108.0
KOCH 230810Z AUTO 16005KT 10SM BKN027 BKN033 OVC045 19/17 A2994 RMK AO2,KOCH,2022-10-23T08:10:00Z,31.57,-94.72,19.0,17.0,160,5,,10.0,29.940945,,,TRUE,TRUE,,,,,,,BKN,2700,BKN,3300,OVC,4500,,,MVFR,,,,,,,,,,,,SPECI,105.0
KNBG 230810Z AUTO 12003KT 10SM CLR 14/14 A3006 RMK AO2 T01440139 $,KNBG,2022-10-23T08:10:00Z,29.83,-90.02,14.4,13.9,120,3,,10.0,30.059055,,,TRUE,TRUE,TRUE,,,,,,CLR,,,,,,,,VFR,,,,,,,,,,,,METAR,0.0
KMYZ 230810Z AUTO 16010G15KT 10SM CLR 20/13 A2946 RMK AO2,KMYZ,2022-10-23T08:10:00Z,39.85,-96.63,20.0,13.0,160,10,15,10.0,29.459646,,,TRUE,TRUE,,,,,,,CLR,,,,,,,,VFR,,,,,,,,,,,,METAR,388.0
KMRC 230810Z AUTO 00000KT 10SM CLR 13/13 A3008 RMK A01,KMRC,2022-10-23T08:10:00Z,35.55,-87.18,13.0,13.0,0,0,,10.0,30.079725,,,TRUE,TRUE,,,,,,,CLR,,,,,,,,VFR,,,,,,,,,,,,SPECI,205.0
KMPZ 230810Z AUTO 15007KT 10SM CLR 17/14 A2975 RMK AO2,KMPZ,2022-10-23T08:10:00Z,40.95,-91.52,17.0,14.0,150,7,,10.0,29.749016,,,TRUE,TRUE,,,,,,,CLR,,,,,,,,VFR,,,,,,,,,,,,SPECI,222.0
KMLF 230810Z AUTO 34007KT 5SM -SN BR FEW007 BKN012 OVC029 01/00 A2962 RMK AO2 P0000 T00060000 $,KMLF,2022-10-23T08:10:00Z,38.42,-113.02,0.6,0.0,340,7,,5.0,29.619095,,,TRUE,TRUE,TRUE,,,,,-SN BR,FEW,700,BKN,1200,OVC,2900,,,MVFR,,,,,,0.005,,,,,,METAR,1537.0
KM91 230810Z AUTO 15003KT 10SM OVC060 15/11 A3008 RMK A01,KM91,2022-10-23T08:10:00Z,36.53,-86.92,15.0,11.0,150,3,,10.0,30.079725,,,TRUE,TRUE,,,,,,,OVC,6000,,,,,,,VFR,,,,,,,,,,,,SPECI,214.0
KM54 230810Z AUTO 00000KT 10SM BKN040 BKN045 11/09 A3009 RMK A01,KM54,2022-10-23T08:10:00Z,36.18,-86.32,11.0,9.0,0,0,,10.0,30.088583,,,TRUE,TRUE,,,,,,,BKN,4000,BKN,4500,,,,,VFR,,,,,,,,,,,,SPECI,168.0
KLUD 230810Z AUTO 17012G17KT 7SM CLR 21/14 A2977 RMK AO2 T02100141,KLUD,2022-10-23T08:10:00Z,33.25,-97.58,21.0,14.1,170,12,17,7.0,29.769686,,,TRUE,TRUE,,,,,,,CLR,,,,,,,,VFR,,,,,,,,,,,,METAR,319.0
KLSF 230810Z AUTO 00000KT 5/8SM R33/2800V5500FT BR CLR 04/04 M RMK AO2 SLPNO CHINO RWY15 $,KLSF,2022-10-23T08:10:00Z,32.32,-84.97,4.0,4.0,0,0,,0.63,,,,TRUE,TRUE,TRUE,,,,,BR,CLR,,,,,,,,LIFR,,,,,,,,,,,,SPECI,68.0
KK70 230810Z AUTO 35003KT 10SM CLR 23/21 A2997 RMK AO2,KK70,2022-10-23T08:10:00Z,25.32,-80.28,23.0,21.0,350,3,,10.0,29.970472,,,TRUE,TRUE,,,,,,,CLR,,,,,,,,VFR,,,,,,,,,,,,METAR,20.0
KJTC 230810Z AUTO 21023G36KT 10SM CLR 13/03 A2977 RMK AO2,KJTC,2022-10-23T08:10:00Z,34.13,-109.32,13.0,3.0,210,23,36,10.0,29.769686,,,TRUE,TRUE,,,,,,,CLR,,,,,,,,VFR,,,,,,,,,,,,METAR,2148.0
KIWI 230810Z AUTO 00000KT 10SM BKN002 04/03 A3034 RMK AO2 T00440033,KIWI,2022-10-23T08:10:00Z,43.97,-69.72,4.4,3.3,0,0,,10.0,30.339567,,,TRUE,TRUE,,,,,,,BKN,200,,,,,,,LIFR,,,,,,,,,,,,METAR,16.0
KHSG 230810Z AUTO 07005KT 10SM BKN021 OVC034 06/03 A2943 RMK AO2 T00550030,KHSG,2022-10-23T08:10:00Z,43.72,-108.38,5.5,3.0,70,5,,10.0,29.430119,,,TRUE,TRUE,,,,,,,BKN,2100,OVC,3400,,,,,MVFR,,,,,,,,,,,,METAR,1497.0
KHBV 230810Z AUTO 16003KT 10SM CLR 19/18 A2986 RMK AO2 T01920182,KHBV,2022-10-23T08:10:00Z,27.35,-98.73,19.2,18.2,160,3,,10.0,29.861221,,,TRUE,TRUE,,,,,,,CLR,,,,,,,,VFR,,,,,,,,,,,,METAR,200.0
KGVW 230810Z AUTO 15014G26KT 110V170 10SM CLR 25/18 A2994 RMK A01,KGVW,2022-10-23T08:10:00Z,29.13,-94.55,25.0,18.0,150,14,26,10.0,29.940945,,,TRUE,TRUE,,,,,,,CLR,,,,,,,,VFR,,,,,,,,,,,,METAR,37.0
KFOT 230810Z AUTO 00000KT 9SM SCT014 07/07 A3002 RMK AO1,KFOT,2022-10-23T08:10:00Z,40.55,-124.13,7.0,7.0,0,0,,9.0,30.02067,,,TRUE,TRUE,,,,,,,SCT,1400,,,,,,,VFR,,,,,,,,,,,,METAR,118.0
KEAN 230810Z AUTO 22003KT 10SM SCT120 12/M02 A2937 RMK AO2 T01151022,KEAN,2022-10-23T08:10:00Z,42.05,-104.93,11.5,-2.2,220,3,,10.0,29.371063,,,TRUE,TRUE,,,,,,,SCT,12000,,,,,,,VFR,,,,,,,,,,,,METAR,1452.0
KDWX 230810Z AUTO 13004KT 1 1/4SM -SN OVC008 A2953 RMK AO2,KDWX,2022-10-23T08:10:00Z,41.03,-107.5,,,130,4,,1.25,29.530512,,,TRUE,TRUE,,,,,,-SN,OVC,800,,,,,,,IFR,,,,,,,,,,,,METAR,1974.0
KDVK 230810Z AUTO 00000KT 10SM CLR 10/07 A3016 RMK AO2,KDVK,2022-10-23T08:10:00Z,37.58,-84.77,10.0,7.0,0,0,,10.0,30.159449,,,TRUE,TRUE,,,,,,,CLR,,,,,,,,VFR,,,,,,,,,,,,METAR,309.0
KCHK 230810Z AUTO 18015G24KT 10SM CLR 23/12 A2962 RMK AO2 T02290123,KCHK,2022-10-23T08:10:00Z,35.1,-97.97,22.9,12.3,180,15,24,10.0,29.619095,,,TRUE,TRUE,,,,,,,CLR,,,,,,,,VFR,,,,,,,,,,,,METAR,346.0
KBMC 230810Z AUTO 10SM BKN018 BKN110 04/02 A2961 RMK AO1 T00370018,KBMC,2022-10-23T08:10:00Z,41.55,-112.07,3.7,1.8,,,,10.0,29.610237,,,TRUE,TRUE,,,,,,,BKN,1800,BKN,11000,,,,,MVFR,,,,,,,,,,,,METAR,1289.0
KAWO 230810Z AUTO 00000KT 10SM BKN015 BKN041 OVC050 06/06 A2994 RMK AO2,KAWO,2022-10-23T08:10:00Z,48.17,-122.17,6.0,6.0,0,0,,10.0,29.940945,,,TRUE,TRUE,,,,,,,BKN,1500,BKN,4100,OVC,5000,,,MVFR,,,,,,,,,,,,SPECI,38.0
KANK 230810Z AUTO 21012G18KT 10SM BKN080 BKN110 13/M03 A2967 RMK AO1 T01301030,KANK,2022-10-23T08:10:00Z,38.53,-106.05,13.0,-3.0,210,12,18,10.0,29.66929,,,TRUE,TRUE,,,,,,,BKN,8000,BKN,11000,,,,,VFR,,,,,,,,,,,,METAR,2293.0
K6S8 230810Z AUTO 31013KT 10SM 04/03 A2948 RMK A01 LAUREL,K6S8,2022-10-23T08:10:00Z,45.7,-108.77,4.0,3.0,310,13,,10.0,29.480314,,,TRUE,TRUE,,,,,,,,,,,,,,,,,,,,,,,,,,,METAR,1072.0
K4V1 230810Z AUTO 23024G36KT 10SM CLR 17/00 A2957 RMK AO2 T01720000,K4V1,2022-10-23T08:10:00Z,37.7,-104.78,17.2,0.0,230,24,36,10.0,29.568897,,,TRUE,TRUE,,,,,,,CLR,,,,,,,,VFR,,,,,,,,,,,,METAR,1847.0
K36K 230810Z AUTO 21015KT 10SM CLR 17/07 A2950 RMK AO2,K36K,2022-10-23T08:10:00Z,37.97,-101.25,17.0,7.0,210,15,,10.0,29.500984,,,TRUE,TRUE,,,,,,,CLR,,,,,,,,VFR,,,,,,,,,,,,METAR,938.0
K2G2 230810Z AUTO 11005KT 10SM SCT047 09/05 A3018 RMK A01,K2G2,2022-10-23T08:10:00Z,,,9.0,5.0,110,5,,10.0,30.180119,,,TRUE,TRUE,,,,,,,SCT,4700,,,,,,,VFR,,,,,,,,,,,,METAR,
YBCG 230809Z AUTO 19012KT 9999 DZ BKN019 BKN035 OVC041 19/17 Q1006 RERA,YBCG,2022-10-23T08:09:00Z,-28.17,153.5,19.0,17.0,190,12,,6.21,29.704725,,,TRUE,,,,,,,DZ,BKN,1900,BKN,3500,OVC,4100,,,MVFR,,,,,,,,,,,,SPECI,5.0
KPVG 230809Z AUTO VRB03KT 10SM BKN012 14/13 A3015 RMK AO2 PNO $,KPVG,2022-10-23T08:09:00Z,36.78,-76.45,14.0,13.0,0,3,,10.0,30.15059,,,TRUE,TRUE,TRUE,,,,,,BKN,1200,,,,,,,MVFR,,,,,,,,,,,,SPECI,7.0
GMME 230809Z 14003KT 360V160 2000 R21/0350V1200U BR BKN002 18/18 Q1017 TEMPO 5000,GMME,2022-10-23T08:09:00Z,34.05,-6.77,18.0,18.0,140,3,,1.24,30.029528,,,,,,,,,,BR,BKN,200,,,,,,,LIFR,,,,,,,,,,,,SPECI,84.0
PATL 230808Z AUTO 00000KT 1SM BR VV002 M02/M02 A2997 RMK AO2 SLP164 TSNO $,PATL,2022-10-23T08:08:00Z,62.9,-155.97,-2.0,-2.0,0,0,,1.0,29.970472,1016.4,,TRUE,TRUE,TRUE,,TRUE,,,BR,OVX,0,,,,,,,LIFR,,,,,,,,,,,200,METAR,261.0
KPHF 230808Z 01004KT 10SM BKN012 12/11 A3016 RMK AO2 T01170111,KPHF,2022-10-23T08:08:00Z,37.13,-76.5,11.7,11.1,10,4,,10.0,30.159449,,,,TRUE,,,,,,,BKN,1200,,,,,,,MVFR,,,,,,,,,,,,SPECI,12.0
KLGD 230808Z AUTO 36005KT 10SM FEW016 BKN037 OVC070 02/01 A2981 RMK AO2 RAE01 P0000 FZRANO,KLGD,2022-10-23T08:08:00Z,45.28,-118.0,2.0,1.0,360,5,,10.0,29.811024,,,TRUE,TRUE,,,,TRUE,,,FEW,1600,BKN,3700,OVC,7000,,,VFR,,,,,,0.005,,,,,,SPECI,827.0
KAJO 230808Z AUTO 00000KT 10SM SCT025 15/13 A2980 RMK AO2,KAJO,2022-10-23T08:08:00Z,33.9,-117.6,15.0,13.0,0,0,,10.0,29.799213,,,TRUE,TRUE,,,,,,,SCT,2500,,,,,,,VFR,,,,,,,,,,,,SPECI,161.0
CYPL 230808Z AUTO 07007KT 9SM FEW071 SCT100 BKN120 03/02 A2989 RMK SLP140,CYPL,2022-10-23T08:08:00Z,51.43,-90.22,3.0,2.0,70,7,,9.0,29.890747,1014.0,,TRUE,,,,,,,,FEW,7100,SCT,10000,BKN,12000,,,VFR,,,,,,,,,,,,SPECI,390.0
CYOJ 230808Z AUTO 34005KT 5SM -SN OVC015 M03/M03 A3005 RMK SLP203,CYOJ,2022-10-23T08:08:00Z,58.62,-117.17,-3.0,-3.0,340,5,,5.0,30.050198,1020.3,,TRUE,,,,,,,-SN,OVC,1500,,,,,,,MVFR,,,,,,,,,,,,SPECI,339.0
RJKN 230807Z AUTO 02014KT 9999 FEW014 SCT019 OVC050 23/21 Q1011 RMK A2987,RJKN,2022-10-23T08:07:00Z,27.82,128.87,23.0,21.0,20,14,,6.21,29.852362,,,TRUE,,,,,,,,FEW,1400,SCT,1900,OVC,5000,,,VFR,,,,,,,,,,,,SPECI,4.0
PAOO 230807Z AUTO 00000KT FEW014 SCT021 M01/M01 A3001 RMK AO2 PWINO FZRANO TSNO $,PAOO,2022-10-23T08:07:00Z,60.53,-165.08,-1.0,-1.0,0,0,,,30.008858,,,TRUE,TRUE,TRUE,,TRUE,TRUE,TRUE,,FEW,1400,SCT,2100,,,,,,,,,,,,,,,,,SPECI,15.0
KILE 230807Z AUTO 18017G25KT 10SM BKN020 21/17 A2984 RMK AO2,KILE,2022-10-23T08:07:00Z,31.08,-97.68,21.0,17.0,180,17,25,10.0,29.840551,,,TRUE,TRUE,,,,,,,BKN,2000,,,,,,,MVFR,,,,,,,,,,,,SPECI,256.0
KGTU 230807Z AUTO 19012KT 10SM BKN020 21/17 A2987 RMK AO2,KGTU,2022-10-23T08:07:00Z,30.68,-97.68,21.0,17.0,190,12,,10.0,29.870079,,,TRUE,TRUE,,,,,,,BKN,2000,,,,,,,MVFR,,,,,,,,,,,,SPECI,232.0
KCTB 230807Z AUTO 35019KT 3/4SM -SN BR OVC005 M01/M01 A2966 RMK AO2 P0000 T10061006,KCTB,2022-10-23T08:07:00Z,48.6,-112.37,-0.6,-0.6,350,19,,0.75,29.660433,,,TRUE,TRUE,,,,,,-SN BR,OVC,500,,,,,,,LIFR,,,,,,0.005,,,,,,SPECI,1172.0
KAUG 230807Z AUTO 16004KT 1/4SM FG VV002 07/06 A3033 RMK AO2 T00670061,KAUG,2022-10-23T08:07:00Z,44.32,-69.8,6.7,6.1,160,4,,0.25,30.33071,,,TRUE,TRUE,,,,,,FG,OVX,0,,,,,,,LIFR,,,,,,,,,,,200,SPECI,107.0
LIVC 230806Z AUTO 23022G33KT ///// 09/07 Q1029,LIVC,2022-10-23T08:06:00Z,44.2,10.68,9.0,7.0,230,22,33,,30.383858,,,TRUE,,,,,,,,,,,,,,,,,,,,,,,,,,,,SPECI,2139.0
KSXT 230806Z AUTO 00000KT 3/4SM BR BKN009 BKN026 OVC060 01/01 A2995 RMK AO2 T00110006,KSXT,2022-10-23T08:06:00Z,42.6,-123.37,1.1,0.6,0,0,,0.75,29.949802,,,TRUE,TRUE,,,,,,BR,BKN,900,BKN,2600,OVC,6000,,,LIFR,,,,,,,,,,,,SPECI,1151.0
RODN 230805Z COR AUTO 01013KT 10SM FEW013 BKN020 24/23 A2982 RMK AO2 SLP103 $ COR 0816,RODN,2022-10-23T08:05:00Z,26.35,127.77,24.0,23.0,10,13,,10.0,29.819881,1010.3,TRUE,TRUE,TRUE,TRUE,,,,,,FEW,1300,BKN,2000,,,,,MVFR,,,,,,,,,,,,SPECI,38.0
KMXF 230805Z AUTO 00000KT 5SM BR CLR 09/08 A3013 RMK AO2 SLP205,KMXF,2022-10-23T08:05:00Z,32.38,-86.37,9.0,8.0,0,0,,5.0,30.129921,1020.5,,TRUE,TRUE,,,,,,BR,CLR,,,,,,,,MVFR,,,,,,,,,,,,SPECI,47.0
KMIB 230805Z AUTO 08007KT 10SM BKN017 BKN130 06/04 A2958 RMK AO2 CIG 017V130 BKN017 V SCT SLP030 $,KMIB,2022-10-23T08:05:00Z,48.42,-101.35,6.0,4.0,80,7,,10.0,29.58071,1003.0,,TRUE,TRUE,TRUE,,,,,,BKN,1700,BKN,13000,,,,,MVFR,,,,,,,,,,,,SPECI,505.0
KLSV 230805Z AUTO 05015KT 10SM -RA OVC070 15/06 A2963 RMK AO2 RAB05 SLP016,KLSV,2022-10-23T08:05:00Z,36.23,-115.05,15.0,6.0,50,15,,10.0,29.630905,1001.6,,TRUE,TRUE,,,,,,-RA,OVC,7000,,,,,,,VFR,,,,,,,,,,,,SPECI,563.0
KJAU 230805Z AUTO 00000KT 4SM BR CLR 06/05 A3022 RMK A01,KJAU,2022-10-23T08:05:00Z,36.33,-84.17,6.0,5.0,0,0,,4.0,30.221457,,,TRUE,TRUE,,,,,,BR,CLR,,,,,,,,MVFR,,,,,,,,,,,,METAR,350.0
KHLR 230805Z AUTO 18017G25KT 10SM BKN018 21/17 A2983 RMK AO2 SLP091,KHLR,2022-10-23T08:05:00Z,31.13,-97.72,21.0,17.0,180,17,25,10.0,29.828741,1009.1,,TRUE,TRUE,,,,,,,BKN,1800,,,,,,,MVFR,,,,,,,,,,,,SPECI,271.0
KGRF 230805Z 14003KT 3/4SM R15/3500V5500FT BR CLR 05/04 A2990 RMK AO2A VIS 3/4V2 SLP130 $,KGRF,2022-10-23T08:05:00Z,47.07,-122.57,5.0,4.0,140,3,,0.75,29.899607,1013.0,,,TRUE,TRUE,,,,,BR,CLR,,,,,,,,LIFR,,,,,,,,,,,,SPECI,91.0
KGFA 230805Z AUTO 31006KT 2SM -SN OVC006 00/M00 A2959 RMK AO2 SLP047 $,KGFA,2022-10-23T08:05:00Z,47.5,-111.18,0.0,0.0,310,6,,2.0,29.589567,1004.7,,TRUE,TRUE,TRUE,,,,,-SN,OVC,600,,,,,,,IFR,,,,,,,,,,,,METAR,1058.0
CYTE 230805Z AUTO 28012KT 9SM BKN011 M01/M03 A2946 RMK SLP982,CYTE,2022-10-23T08:05:00Z,64.22,-76.52,-1.0,-3.0,280,12,,9.0,29.459646,998.2,,TRUE,,,,,,,,BKN,1100,,,,,,,MVFR,,,,,,,,,,,,SPECI,49.0
PAKK 230804Z AUTO 18010KT 3SM -SN BR OVC005 00/00 A2986 RMK AO2 CIG 003V008 P0000 FZRANO,PAKK,2022-10-23T08:04:00Z,64.93,-161.15,0.0,0.0,180,10,,3.0,29.861221,,,TRUE,TRUE,,,,TRUE,,-SN BR,OVC,500,,,,,,,IFR,,,,,,0.005,,,,,,METAR,56.0
SVVA 230803Z AUTO 00000KT NCD 27/22 Q1011,SVVA,2022-10-23T08:03:00Z,10.15,-67.92,27.0,22.0,0,0,,,29.852362,,,TRUE,,,,,,,,CLR,,,,,,,,,,,,,,,,,,,,METAR,428.0
SVSR 230803Z AUTO NIL,SVSR,2022-10-23T08:03:00Z,7.87,-67.43,,,,,,,,,,TRUE,,,,,,,,,,,,,,,,,,,,,,,,,,,,METAR,49.0
SVPR 230803Z AUTO 13002KT NCD 24/21 Q1011,SVPR,2022-10-23T08:03:00Z,8.3,-62.77,24.0,21.0,130,2,,,29.852362,,,TRUE,,,,,,,,CLR,,,,,,,,,,,,,,,,,,,,METAR,140.0
SVPA 230803Z AUTO NIL,SVPA,2022-10-23T08:03:00Z,5.62,-67.6,,,,,,,,,,TRUE,,,,,,,,,,,,,,,,,,,,,,,,,,,,METAR,77.0
SVMT 230803Z AUTO 05003KT NCD 24/24 Q1010,SVMT,2022-10-23T08:03:00Z,9.75,-63.17,24.0,24.0,50,3,,,29.822834,,,TRUE,,,,,,,,CLR,,,,,,,,,,,,,,,,,,,,METAR,67.0
SVMI 230803Z AUTO 10004KT NCD ///// Q1010,SVMI,2022-10-23T08:03:00Z,10.6,-67.0,,,100,4,,,29.822834,,,TRUE,,,,,,,,CLR,,,,,,,,,,,,,,,,,,,,METAR,48.0
SVMG 230803Z AUTO 10009KT NCD 27/25 Q1009,SVMG,2022-10-23T08:03:00Z,10.92,-63.97,27.0,25.0,100,9,,,29.793306,,,TRUE,,,,,,,,CLR,,,,,,,,,,,,,,,,,,,,METAR,16.0
SVMC 230803Z AUTO NIL,SVMC,2022-10-23T08:03:00Z,10.57,-71.72,,,,,,,,,,TRUE,,,,,,,,,,,,,,,,,,,,,,,,,,,,METAR,76.0
SVLO 230803Z AUTO NIL,SVLO,2022-10-23T08:03:00Z,11.8,-66.18,,,,,,,,,,TRUE,,,,,,,,,,,,,,,,,,,,,,,,,,,,METAR,3.0
SVJM 230803Z AUTO 02002KT NCD 21/21 Q1010,SVJM,2022-10-23T08:03:00Z,9.92,-67.38,21.0,21.0,20,2,,,29.822834,,,TRUE,,,,,,,,CLR,,,,,,,,,,,,,,,,,,,,METAR,448.0
SVGU 230803Z AUTO NIL,SVGU,2022-10-23T08:03:00Z,9.03,-69.75,,,,,,,,,,TRUE,,,,,,,,,,,,,,,,,,,,,,,,,,,,METAR,165.0
SVGD 230803Z AUTO 27003KT NCD 24/24 Q1010,SVGD,2022-10-23T08:03:00Z,7.22,-70.75,24.0,24.0,270,3,,,29.822834,,,TRUE,,,,,,,,CLR,,,,,,,,,,,,,,,,,,,,METAR,129.0
SVFM 230803Z AUTO 00000KT NCD 21/18 Q1013,SVFM,2022-10-23T08:03:00Z,10.48,-66.83,21.0,18.0,0,0,,,29.911417,,,TRUE,,,,,,,,CLR,,,,,,,,,,,,,,,,,,,,METAR,852.0
SVCS 230803Z AUTO 34001KT NCD 45/43 Q1014,SVCS,2022-10-23T08:03:00Z,10.3,-66.82,45.0,43.0,340,1,,,29.940945,,,TRUE,,,,,,,,CLR,,,,,,,,,,,,,,,,,,,,METAR,656.0
SVCJ 230803Z AUTO NIL,SVCJ,2022-10-23T08:03:00Z,9.65,-68.58,,,,,,,,,,TRUE,,,,,,,,,,,,,,,,,,,,,,,,,,,,METAR,156.0
SVCB 230803Z AUTO 12003KT NCD 24/22 Q1008,SVCB,2022-10-23T08:03:00Z,8.12,-63.53,24.0,22.0,120,3,,,29.763779,,,TRUE,,,,,,,,CLR,,,,,,,,,,,,,,,,,,,,METAR,47.0
SVBS 230803Z AUTO 35002KT NCD 23/// Q1012,SVBS,2022-10-23T08:03:00Z,10.25,-67.65,,,350,2,,,29.88189,,,TRUE,,,,,,,,CLR,,,,,,,,,,,,,,,,,,,,METAR,435.0
SVBM 230803Z AUTO NIL,SVBM,2022-10-23T08:03:00Z,10.05,-69.37,,,,,,,,,,TRUE,,,,,,,,,,,,,,,,,,,,,,,,,,,,METAR,624.0
SVBI 230803Z AUTO 29003KT NCD 25/24 Q1013,SVBI,2022-10-23T08:03:00Z,8.62,-70.22,25.0,24.0,290,3,,,29.911417,,,TRUE,,,,,,,,CLR,,,,,,,,,,,,,,,,,,,,METAR,185.0
SVBC 230803Z AUTO 10003KT NCD 25/25 Q1010,SVBC,2022-10-23T08:03:00Z,10.12,-64.68,25.0,25.0,100,3,,,29.822834,,,TRUE,,,,,,,,CLR,,,,,,,,,,,,,,,,,,,,METAR,7.0
PHLI 230803Z AUTO 07013KT 10SM BKN026 26/22 A3008 RMK AO2 T02610217 TSNO $,PHLI,2022-10-23T08:03:00Z,21.97,-159.33,26.1,21.7,70,13,,10.0,30.079725,,,TRUE,TRUE,TRUE,,TRUE,,,,BKN,2600,,,,,,,MVFR,,,,,,,,,,,,METAR,32.0
PAPB 230803Z AUTO 22015KT 10SM BKN020 OVC039 06/ A3007 RMK AO2 T0061 TSNO $,PAPB,2022-10-23T08:03:00Z,56.58,-169.67,6.1,,220,15,,10.0,30.070866,,,TRUE,TRUE,TRUE,,TRUE,,,,BKN,2000,OVC,3900,,,,,MVFR,,,,,,,,,,,,METAR,33.0
LTCC 230803Z 13004KT 080V170 4000 BR SCT002 12/12 Q1024 NOSIG RMK RWY16 16003KT 100V170 4ST002,LTCC,2022-10-23T08:03:00Z,37.88,40.2,12.0,12.0,130,4,,2.49,30.236221,,,,,,TRUE,,,,BR,SCT,200,,,,,,,IFR,,,,,,,,,,,,METAR,676.0
KCDW 230803Z AUTO 00000KT 10SM BKN030 OVC039 09/06 A3028 RMK AO2 T00890061,KCDW,2022-10-23T08:03:00Z,40.88,-74.28,8.9,6.1,0,0,,10.0,30.280512,,,TRUE,TRUE,,,,,,,BKN,3000,OVC,3900,,,,,MVFR,,,,,,,,,,,,METAR,52.0
CYPX 230803Z AUTO 26017G22KT 9SM FEW016 SCT028 BKN034 BKN044 01/M01 A2974 RMK SLP074,CYPX,2022-10-23T08:03:00Z,60.03,-77.27,1.0,-1.0,260,17,22,9.0,29.740158,1007.4,,TRUE,,,,,,,,FEW,1600,SCT,2800,BKN,3400,BKN,4400,VFR,,,,,,,,,,,,SPECI,10.0
CYBC 230803Z AUTO VRB02KT 6SM BR CLR 02/02 A3020 RMK SLP230,CYBC,2022-10-23T08:03:00Z,49.13,-68.2,2.0,2.0,0,2,,6.0,30.200787,1023.0,,TRUE,,,,,,,BR,CLR,,,,,,,,VFR,,,,,,,,,,,,SPECI,20.0
PAHX 230802Z AUTO 00000KT 10SM OVC032 M02/M02 A3001 RMK AO2 SLP162 T10221022 410221022 FZRANO,PAHX,2022-10-23T08:02:00Z,62.7,-159.57,-2.2,-2.2,0,0,,10.0,30.008858,1016.2,,TRUE,TRUE,,,,TRUE,,,OVC,3200,,,,,,,VFR,,,,-2.2,-2.2,,,,,,,METAR,20.0
KVNY 230802Z AUTO 12005KT 10SM OVC015 17/13 A2976 RMK AO2 T01720133 $,KVNY,2022-10-23T08:02:00Z,34.22,-118.48,17.2,13.3,120,5,,10.0,29.760826,,,TRUE,TRUE,TRUE,,,,,,OVC,1500,,,,,,,MVFR,,,,,,,,,,,,SPECI,241.0
KORF 230802Z AUTO 01012KT 10SM BKN017 16/14 A3013 RMK AO2 T01560139,KORF,2022-10-23T08:02:00Z,36.9,-76.2,15.6,13.9,10,12,,10.0,30.129921,,,TRUE,TRUE,,,,,,,BKN,1700,,,,,,,MVFR,,,,,,,,,,,,METAR,5.0
KDLN 230802Z AUTO 11006KT 1SM -SN BR OVC014 M01/M01 A2958 RMK AO2 P0001 T10111011,KDLN,2022-10-23T08:02:00Z,45.25,-112.55,-1.1,-1.1,110,6,,1.0,29.58071,,,TRUE,TRUE,,,,,,-SN BR,OVC,1400,,,,,,,IFR,,,,,,0.01,,,,,,METAR,1586.0
CWOB 230802Z AUTO 30009KT ////SM BKN015 BKN030 OVC046 M02/M02 A2920,CWOB,2022-10-23T08:02:00Z,63.33,-64.15,-2.0,-2.0,300,9,,,29.199802,,,TRUE,,,,,,,,BKN,1500,BKN,3000,OVC,4600,,,,,,,,,,,,,,,SPECI,369.0
PAFS 230801Z AUTO 00000KT 10SM OVC021 M03/M03 A2996 RMK AO2 SLP156 T10331033 FZRANO,PAFS,2022-10-23T08:01:00Z,63.02,-154.35,-3.3,-3.3,0,0,,10.0,29.958662,1015.6,,TRUE,TRUE,,,,TRUE,,,OVC,2100,,,,,,,MVFR,,,,,,,,,,,,METAR,131.0
KW99 230801Z AUTO 00000KT 10SM CLR 01/01 A3027 RMK AO2,KW99,2022-10-23T08:01:00Z,39.0,-79.15,1.0,1.0,0,0,,10.0,30.268702,,,TRUE,TRUE,,,,,,,CLR,,,,,,,,VFR,,,,,,,,,,,,SPECI,288.0
KAVX 230801Z AUTO 27019KT 9SM OVC007 13/11 A2980 RMK AO2 CIG 006V010 T01280106,KAVX,2022-10-23T08:01:00Z,33.4,-118.42,12.8,10.6,270,19,,9.0,29.799213,,,TRUE,TRUE,,,,,,,OVC,700,,,,,,,IFR,,,,,,,,,,,,METAR,482.0
ZYTX 230800Z 34005MPS 9999 SCT040 11/M09 Q1024 NOSIG,ZYTX,2022-10-23T08:00:00Z,41.63,123.48,11.0,-9.0,340,10,,6.21,30.236221,,,,,,TRUE,,,,,SCT,4000,,,,,,,VFR,,,,,,,,,,,,METAR,56.0
ZYTL 230800Z 36005MPS 330V040 9999 FEW033 15/01 Q1023 NOSIG,ZYTL,2022-10-23T08:00:00Z,38.97,121.55,15.0,1.0,360,10,,6.21,30.206694,,,,,,TRUE,,,,,FEW,3300,,,,,,,VFR,,,,,,,,,,,,METAR,33.0
ZYHB 230800Z 34002MPS CAVOK 06/M04 Q1021 NOSIG,ZYHB,2022-10-23T08:00:00Z,45.62,126.25,6.0,-4.0,340,4,,6.21,30.147638,,,,,,TRUE,,,,,CAVOK,,,,,,,,VFR,,,,,,,,,,,,METAR,134.0
ZYCC 230800Z 34004MPS 310V010 9999 BKN030 06/M07 Q1022 NOSIG,ZYCC,2022-10-23T08:00:00Z,43.98,125.68,6.0,-7.0,340,8,,6.21,30.177166,,,,,,TRUE,,,,,BKN,3000,,,,,,,MVFR,,,,,,,,,,,,METAR,211.0
ZWWW 230800Z 34003MPS 320V020 CAVOK 17/01 Q1018 NOSIG,ZWWW,2022-10-23T08:00:00Z,43.9,87.47,17.0,1.0,340,6,,6.21,30.059055,,,,,,TRUE,,,,,CAVOK,,,,,,,,VFR,,,,,,,,,,,,METAR,654.0
ZWSH 230800Z 14003MPS 080V170 8000 FEW040 18/M06 Q1022 NOSIG,ZWSH,2022-10-23T08:00:00Z,39.55,76.02,18.0,-6.0,140,6,,4.97,30.177166,,,,,,TRUE,,,,,FEW,4000,,,,,,,MVFR,,,,,,,,,,,,METAR,1374.0
ZUUU 230800Z 19003MPS 140V210 9999 SCT030 26/14 Q1018 NOSIG,ZUUU,2022-10-23T08:00:00Z,30.58,103.95,26.0,14.0,190,6,,6.21,30.059055,,,,,,TRUE,,,,,SCT,3000,,,,,,,VFR,,,,,,,,,,,,METAR,494.0
ZUTF 230800Z 18002MPS CAVOK 26/14 Q1018 NOSIG,ZUTF,2022-10-23T08:00:00Z,30.3,104.43,26.0,14.0,180,4,,6.21,30.059055,,,,,,TRUE,,,,,CAVOK,,,,,,,,VFR,,,,,,,,,,,,METAR,443.0
ZUGY 230800Z 05003MPS 020V090 CAVOK 23/08 Q1022 NOSIG,ZUGY,2022-10-23T08:00:00Z,26.53,106.8,23.0,8.0,50,6,,6.21,30.177166,,,,,,TRUE,,,,,CAVOK,,,,,,,,VFR,,,,,,,,,,,,METAR,1130.0
ZUCK 230800Z 09002MPS 5000 HZ NSC 21/15 Q1020 NOSIG,ZUCK,2022-10-23T08:00:00Z,29.72,106.63,21.0,15.0,90,4,,3.11,30.11811,,,,,,TRUE,,,,HZ,CLR,,,,,,,,MVFR,,,,,,,,,,,,METAR,416.0
ZSSS 230800Z 36007MPS CAVOK 21/07 Q1022 NOSIG,ZSSS,2022-10-23T08:00:00Z,31.2,121.33,21.0,7.0,360,14,,6.21,30.177166,,,,,,TRUE,,,,,CAVOK,,,,,,,,VFR,,,,,,,,,,,,METAR,2.0
ZSQD 230800Z 32004MPS CAVOK 20/01 Q1023 NOSIG,ZSQD,2022-10-23T08:00:00Z,36.27,120.38,20.0,1.0,320,8,,6.21,30.206694,,,,,,TRUE,,,,,CAVOK,,,,,,,,VFR,,,,,,,,,,,,METAR,8.0
ZSPD 230800Z 02007MPS CAVOK 20/10 Q1021 NOSIG,ZSPD,2022-10-23T08:00:00Z,31.15,121.8,20.0,10.0,20,14,,6.21,30.147638,,,,,,TRUE,,,,,CAVOK,,,,,,,,VFR,,,,,,,,,,,,METAR,4.0
ZSOF 230800Z 03004MPS 8000 FEW043 24/10 Q1022 NOSIG,ZSOF,2022-10-23T08:00:00Z,31.98,116.97,24.0,10.0,30,8,,4.97,30.177166,,,,,,TRUE,,,,,FEW,4300,,,,,,,MVFR,,,,,,,,,,,,METAR,23.0
ZSNJ 230800Z 08004MPS 040V110 CAVOK 23/09 Q1022 NOSIG,ZSNJ,2022-10-23T08:00:00Z,31.75,118.87,23.0,9.0,80,8,,6.21,30.177166,,,,,,TRUE,,,,,CAVOK,,,,,,,,VFR,,,,,,,,,,,,METAR,27.0
ZSNB 230800Z 36004MPS 330V050 9999 BKN040 22/14 Q1020 NOSIG,ZSNB,2022-10-23T08:00:00Z,29.83,121.47,22.0,14.0,360,8,,6.21,30.11811,,,,,,TRUE,,,,,BKN,4000,,,,,,,VFR,,,,,,,,,,,,METAR,5.0
ZSHC 230800Z 36004MPS 320V030 8000 SCT033 23/13 Q1021 NOSIG,ZSHC,2022-10-23T08:00:00Z,30.22,120.43,23.0,13.0,360,8,,4.97,30.147638,,,,,,TRUE,,,,,SCT,3300,,,,,,,MVFR,,,,,,,,,,,,METAR,8.0
ZSFZ 230800Z 05009MPS CAVOK 24/17 Q1017 NOSIG,ZSFZ,2022-10-23T08:00:00Z,25.93,119.67,24.0,17.0,50,17,,6.21,30.029528,,,,,,TRUE,,,,,CAVOK,,,,,,,,VFR,,,,,,,,,,,,METAR,14.0
ZSAM 230800Z 07005MPS CAVOK 27/17 Q1014 NOSIG,ZSAM,2022-10-23T08:00:00Z,24.53,118.13,27.0,17.0,70,10,,6.21,29.940945,,,,,,TRUE,,,,,CAVOK,,,,,,,,VFR,,,,,,,,,,,,METAR,13.0
ZPPP 230800Z 15003MPS 120V200 9999 -SHRA SCT023 BKN040 17/14 Q1027 NOSIG,ZPPP,2022-10-23T08:00:00Z,25.0,102.65,17.0,14.0,150,6,,6.21,30.324802,,,,,,TRUE,,,,-SHRA,SCT,2300,BKN,4000,,,,,VFR,,,,,,,,,,,,METAR,1885.0
ZMUB 230800Z 22003MPS 180V250 CAVOK 12/M08 Q1019 NOSIG RMK QFE657.0 24,ZMUB,2022-10-23T08:00:00Z,47.83,106.75,12.0,-8.0,220,6,,6.21,30.088583,,,,,,TRUE,,,,,CAVOK,,,,,,,,VFR,,,,,,,,,,,,METAR,1300.0
ZLXY 230800Z VRB01MPS 7000 NSC 20/04 Q1023 NOSIG,ZLXY,2022-10-23T08:00:00Z,34.43,108.75,20.0,4.0,0,2,,4.35,30.206694,,,,,,TRUE,,,,,CLR,,,,,,,,MVFR,,,,,,,,,,,,METAR,478.0
ZLLL 230800Z 13003MPS 090V170 CAVOK 17/M00 Q1024 NOSIG,ZLLL,2022-10-23T08:00:00Z,36.52,103.62,17.0,0.0,130,6,,6.21,30.236221,,,,,,TRUE,,,,,CAVOK,,,,,,,,VFR,,,,,,,,,,,,METAR,1939.0
ZJSY 230800Z 22002MPS 190V270 CAVOK 29/22 Q1011 NOSIG,ZJSY,2022-10-23T08:00:00Z,18.3,109.42,29.0,22.0,220,4,,6.21,29.852362,,,,,,TRUE,,,,,CAVOK,,,,,,,,VFR,,,,,,,,,,,,METAR,27.0
ZJHK 230800Z 02003MPS CAVOK 28/19 Q1012 NOSIG,ZJHK,2022-10-23T08:00:00Z,19.93,110.43,28.0,19.0,20,6,,6.21,29.88189,,,,,,TRUE,,,,,CAVOK,,,,,,,,VFR,,,,,,,,,,,,METAR,21.0
ZHHH 230800Z 05003MPS 020V100 CAVOK 29/08 Q1020 NOSIG,ZHHH,2022-10-23T08:00:00Z,30.78,114.22,29.0,8.0,50,6,,6.21,30.11811,,,,,,TRUE,,,,,CAVOK,,,,,,,,VFR,,,,,,,,,,,,METAR,33.0
ZHCC 230800Z 10002MPS 070V140 5000 HZ NSC 23/03 Q1023 NOSIG,ZHCC,2022-10-23T08:00:00Z,34.52,113.83,23.0,3.0,100,4,,3.11,30.206694,,,,,,TRUE,,,,HZ,CLR,,,,,,,,MVFR,,,,,,,,,,,,METAR,149.0
ZGSZ 230800Z 10003MPS 050V160 CAVOK 32/16 Q1012 NOSIG,ZGSZ,2022-10-23T08:00:00Z,22.63,113.8,32.0,16.0,100,6,,6.21,29.88189,,,,,,TRUE,,,,,CAVOK,,,,,,,,VFR,,,,,,,,,,,,METAR,18.0
ZGOW 230800Z 11005MPS CAVOK 28/18 Q1013 NOSIG,ZGOW,2022-10-23T08:00:00Z,23.55,116.5,28.0,18.0,110,10,,6.21,29.911417,,,,,,TRUE,,,,,CAVOK,,,,,,,,VFR,,,,,,,,,,,,METAR,4.0
ZGNN 230800Z VRB02MPS CAVOK 33/17 Q1013 NOSIG,ZGNN,2022-10-23T08:00:00Z,22.62,108.17,33.0,17.0,0,4,,6.21,29.911417,,,,,,TRUE,,,,,CAVOK,,,,,,,,VFR,,,,,,,,,,,,METAR,128.0
ZGKL 230800Z 07005MPS CAVOK 32/08 Q1014 NOSIG,ZGKL,2022-10-23T08:00:00Z,25.22,110.03,32.0,8.0,70,10,,6.21,29.940945,,,,,,TRUE,,,,,CAVOK,,,,,,,,VFR,,,,,,,,,,,,METAR,151.0
ZGHA 230800Z 36003MPS 330V060 CAVOK 30/09 Q1017 NOSIG,ZGHA,2022-10-23T08:00:00Z,28.18,113.22,30.0,9.0,360,6,,6.21,30.029528,,,,,,TRUE,,,,,CAVOK,,,,,,,,VFR,,,,,,,,,,,,METAR,61.0
ZGGG 230800Z 03003MPS 350V070 CAVOK 34/16 Q1012 NOSIG,ZGGG,2022-10-23T08:00:00Z,23.4,113.3,34.0,16.0,30,6,,6.21,29.88189,,,,,,TRUE,,,,,CAVOK,,,,,,,,VFR,,,,,,,,,,,,METAR,11.0
ZBYN 230800Z 20002MPS 140V250 CAVOK 21/M09 Q1024 NOSIG,ZBYN,2022-10-23T08:00:00Z,37.73,112.63,21.0,-9.0,200,4,,6.21,30.236221,,,,,,TRUE,,,,,CAVOK,,,,,,,,VFR,,,,,,,,,,,,METAR,778.0
ZBTJ 230800Z 35006MPS CAVOK 20/M06 Q1023 NOSIG,ZBTJ,2022-10-23T08:00:00Z,39.12,117.35,20.0,-6.0,350,12,,6.21,30.206694,,,,,,TRUE,,,,,CAVOK,,,,,,,,VFR,,,,,,,,,,,,METAR,4.0
ZBSJ 230800Z 19002MPS 140V250 CAVOK 24/M04 Q1021 NOSIG,ZBSJ,2022-10-23T08:00:00Z,38.28,114.7,24.0,-4.0,190,4,,6.21,30.147638,,,,,,TRUE,,,,,CAVOK,,,,,,,,VFR,,,,,,,,,,,,METAR,70.0
ZBHH 230800Z 23004MPS CAVOK 15/M08 Q1025 NOSIG,ZBHH,2022-10-23T08:00:00Z,40.85,111.82,15.0,-8.0,230,8,,6.21,30.265747,,,,,,TRUE,,,,,CAVOK,,,,,,,,VFR,,,,,,,,,,,,METAR,1081.0
ZBAD 230800Z VRB01MPS CAVOK 21/M06 Q1022 NOSIG,ZBAD,2022-10-23T08:00:00Z,39.5,116.42,21.0,-6.0,0,2,,6.21,30.177166,,,,,,TRUE,,,,,CAVOK,,,,,,,,VFR,,,,,,,,,,,,METAR,25.0
ZBAA 230800Z 10002MPS 060V120 CAVOK 21/M04 Q1022 NOSIG,ZBAA,2022-10-23T08:00:00Z,40.07,116.6,21.0,-4.0,100,4,,6.21,30.177166,,,,,,TRUE,,,,,CAVOK,,,,,,,,VFR,,,,,,,,,,,,METAR,31.0
YSSY 230800Z AUTO 17012KT 9999 // BKN018 BKN026 BKN039 18/17 Q1013 RESHRA,YSSY,2022-10-23T08:00:00Z,-33.95,151.17,18.0,17.0,170,12,,6.21,29.911417,,,TRUE,,,,,,,,BKN,1800,BKN,2600,BKN,3900,,,MVFR,,,,,,,,,,,,SPECI,3.0
YSNW 230800Z AUTO 16008KT 4500 -SHRA SCT006 BKN011 OVC019 16/16 Q1014,YSNW,2022-10-23T08:00:00Z,-34.95,150.53,16.0,16.0,160,8,,2.8,29.940945,,,TRUE,,,,,,,-SHRA,SCT,600,BKN,1100,OVC,1900,,,IFR,,,,,,,,,,,,SPECI,109.0
YSNF 230800Z AUTO 08020KT 9999 // BKN028 OVC043 19/14 Q1023,YSNF,2022-10-23T08:00:00Z,-29.03,167.93,19.0,14.0,80,20,,6.21,30.206694,,,TRUE,,,,,,,,BKN,2800,OVC,4300,,,,,MVFR,,,,,,,,,,,,SPECI,113.0
YSCB 230800Z AUTO 11011KT 9999 // OVC019 15/12 Q1015,YSCB,2022-10-23T08:00:00Z,-35.3,149.18,15.0,12.0,110,11,,6.21,29.970472,,,TRUE,,,,,,,,OVC,1900,,,,,,,MVFR,,,,,,,,,,,,SPECI,577.0
YPXM 230800Z AUTO 17001KT 9999 -DZ BKN100 BKN125 24/24 Q1010,YPXM,2022-10-23T08:00:00Z,-10.45,105.68,24.0,24.0,170,1,,6.21,29.822834,,,TRUE,,,,,,,-DZ,BKN,10000,BKN,12500,,,,,VFR,,,,,,,,,,,,METAR,262.0
YPPD 230800Z AUTO 29019KT 9999 // NCD 30/18 Q1005 RF00.0/000.0,YPPD,2022-10-23T08:00:00Z,-20.37,118.62,30.0,18.0,290,19,,6.21,29.675198,,,TRUE,,,,,,,,CLR,,,,,,,,VFR,,,,,,,,,,,,SPECI,6.0
YPLM 230800Z AUTO 25018KT 9999 // NCD 28/15 Q1008 RF00.0/000.0,YPLM,2022-10-23T08:00:00Z,-22.23,114.08,28.0,15.0,250,18,,6.21,29.763779,,,TRUE,,,,,,,,CLR,,,,,,,,VFR,,,,,,,,,,,,SPECI,5.0
YPKG 230800Z AUTO 13009KT 9999 // SCT051 SCT061 OVC071 22/07 Q1010,YPKG,2022-10-23T08:00:00Z,-30.78,121.45,22.0,7.0,130,9,,6.21,29.822834,,,TRUE,,,,,,,,SCT,5100,SCT,6100,OVC,7100,,,VFR,,,,,,,,,,,,METAR,372.0
YPDN 230800Z 30014KT 9999 FEW021 32/26 Q1004,YPDN,2022-10-23T08:00:00Z,-12.42,130.9,32.0,26.0,300,14,,6.21,29.64567,,,,,,,,,,,FEW,2100,,,,,,,VFR,,,,,,,,,,,,METAR,32.0
YPCC 230800Z AUTO 14013KT 9999 // SCT032 28/21 Q1011 RF00.0/000.0,YPCC,2022-10-23T08:00:00Z,-12.18,96.83,28.0,21.0,140,13,,6.21,29.852362,,,TRUE,,,,,,,,SCT,3200,,,,,,,VFR,,,,,,,,,,,,SPECI,3.0
YPAD 230800Z 17007KT 9999 SCT021 BKN026 BKN043 16/14 Q1009,YPAD,2022-10-23T08:00:00Z,-34.95,138.52,16.0,14.0,170,7,,6.21,29.793306,,,,,,,,,,,SCT,2100,BKN,2600,BKN,4300,,,MVFR,,,,,,,,,,,,METAR,2.0
YMTG 230800Z AUTO 15011KT 9999 -RA BKN009 OVC012 12/12 Q1014,YMTG,2022-10-23T08:00:00Z,-37.75,140.78,12.0,12.0,150,11,,6.21,29.940945,,,TRUE,,,,,,,-RA,BKN,900,OVC,1200,,,,,IFR,,,,,,,,,,,,SPECI,65.0
YMML 230800Z AUTO 15011KT 9999 // SCT030 SCT120 17/13 Q1012,YMML,2022-10-23T08:00:00Z,-37.67,144.82,17.0,13.0,150,11,,6.21,29.88189,,,TRUE,,,,,,,,SCT,3000,SCT,12000,,,,,VFR,,,,,,,,,,,,SPECI,115.0
YMLT 230800Z AUTO 15018KT 9999 // OVC046 11/05 Q1022 RF00.0/000.4,YMLT,2022-10-23T08:00:00Z,-41.53,147.2,11.0,5.0,150,18,,6.21,30.177166,,,TRUE,,,,,,,,OVC,4600,,,,,,,VFR,,,,,,,,,,,,METAR,167.0
YMHB 230800Z 13012KT 9999 FEW030 BKN055 BKN250 11/04 Q1026 RF00.0/000.2,YMHB,2022-10-23T08:00:00Z,-42.83,147.52,11.0,4.0,130,12,,6.21,30.295275,,,,,,,,,,,FEW,3000,BKN,5500,BKN,25000,,,VFR,,,,,,,,,,,,SPECI,2.0
YMER 230800Z AUTO 18006KT 9999 // BKN011 OVC021 16/15 Q1016,YMER,2022-10-23T08:00:00Z,-36.92,149.9,16.0,15.0,180,6,,6.21,30.0,,,TRUE,,,,,,,,BKN,1100,OVC,2100,,,,,MVFR,,,,,,,,,,,,SPECI,2.0
YMAV 230800Z AUTO 11020G30KT 9999 // BKN031 17/13 Q1013 RF00.0/000.0,YMAV,2022-10-23T08:00:00Z,-38.03,144.48,17.0,13.0,110,20,30,6.21,29.911417,,,TRUE,,,,,,,,BKN,3100,,,,,,,VFR,,,,,,,,,,,,METAR,11.0
YBWW 230800Z AUTO 17007KT 9999 // SCT017 19/17 Q1008 RF00.0/000.0,YBWW,2022-10-23T08:00:00Z,-27.55,151.8,19.0,17.0,170,7,,6.21,29.763779,,,TRUE,,,,,,,,SCT,1700,,,,,,,VFR,,,,,,,,,,,,METAR,460.0
YBRM 230800Z AUTO 27012KT 9999 // NCD 29/23 Q1005 RF00.0/000.0,YBRM,2022-10-23T08:00:00Z,-17.93,122.23,29.0,23.0,270,12,,6.21,29.675198,,,TRUE,,,,,,,,CLR,,,,,,,,VFR,,,,,,,,,,,,SPECI,11.0
YBRK 230800Z AUTO 28003KT 9999 // NCD 29/16 Q1005 RF00.0/000.0,YBRK,2022-10-23T08:00:00Z,-23.37,150.47,29.0,16.0,280,3,,6.21,29.675198,,,TRUE,,,,,,,,CLR,,,,,,,,VFR,,,,,,,,,,,,SPECI,10.0
YBLN 230800Z AUTO 20010KT 9999 // ////// 20/11 Q1008 RF00.0/000.0,YBLN,2022-10-23T08:00:00Z,-33.68,115.4,20.0,11.0,200,10,,6.21,29.763779,,,TRUE,,,,,,,,,,,,,,,,,,,,,,,,,,,,METAR,17.0
YBCS 230800Z AUTO 01005KT 9999 // SCT021 SCT029 BKN042 28/24 Q1006,YBCS,2022-10-23T08:00:00Z,-16.87,145.75,28.0,24.0,10,5,,6.21,29.704725,,,TRUE,,,,,,,,SCT,2100,SCT,2900,BKN,4200,,,VFR,,,,,,,,,,,,SPECI,2.0
YBBN 230800Z 23014KT 9999 FEW009 SCT180 BKN210 21/19 Q1005,YBBN,2022-10-23T08:00:00Z,-27.38,153.13,21.0,19.0,230,14,,6.21,29.675198,,,,,,,,,,,FEW,900,SCT,18000,BKN,21000,,,VFR,,,,,,,,,,,,METAR,3.0
YBAS 230800Z AUTO 17012KT 9999 // NCD 33/08 Q1005 RF00.0/000.0,YBAS,2022-10-23T08:00:00Z,-23.8,133.9,33.0,8.0,170,12,,6.21,29.675198,,,TRUE,,,,,,,,CLR,,,,,,,,VFR,,,,,,,,,,,,SPECI,549.0
WSSS 230800Z 33006KT 300V360 9999 FEW018 BKN160 29/23 Q1009 NOSIG,WSSS,2022-10-23T08:00:00Z,1.37,103.97,29.0,23.0,330,6,,6.21,29.793306,,,,,,TRUE,,,,,FEW,1800,BKN,16000,,,,,VFR,,,,,,,,,,,,METAR,17.0
WSSL 230800Z 33005KT 270V020 9999 FEW020 BKN160 30/22 Q1009,WSSL,2022-10-23T08:00:00Z,1.42,103.87,30.0,22.0,330,5,,6.21,29.793306,,,,,,,,,,,FEW,2000,BKN,16000,,,,,VFR,,,,,,,,,,,,METAR,11.0
WSAP 230800Z 31004KT 9999 SCT020 BKN150 30/22 Q1009,WSAP,2022-10-23T08:00:00Z,1.37,103.92,30.0,22.0,310,4,,6.21,29.793306,,,,,,,,,,,SCT,2000,BKN,15000,,,,,VFR,,,,,,,,,,,,METAR,20.0
WMSA 230800Z 27008KT 240V320 9999 FEW019 30/24 Q1009,WMSA,2022-10-23T08:00:00Z,3.13,101.55,30.0,24.0,270,8,,6.21,29.793306,,,,,,,,,,,FEW,1900,,,,,,,VFR,,,,,,,,,,,,METAR,19.0
WMKP 230800Z 36004KT 280V050 9999 FEW020 31/23 Q1009 NOSIG,WMKP,2022-10-23T08:00:00Z,5.28,100.27,31.0,23.0,360,4,,6.21,29.793306,,,,,,TRUE,,,,,FEW,2000,,,,,,,VFR,,,,,,,,,,,,METAR,4.0
WMKN 230800Z 33010KT 260V030 9999 FEW018 29/24 Q1009,WMKN,2022-10-23T08:00:00Z,5.37,103.1,29.0,24.0,330,10,,6.21,29.793306,,,,,,,,,,,FEW,1800,,,,,,,VFR,,,,,,,,,,,,METAR,12.0
WMKM 230800Z 25004KT 170V330 9999 FEW017CB SCT021 29/25 Q1009 RESH,WMKM,2022-10-23T08:00:00Z,2.27,102.25,29.0,25.0,250,4,,6.21,29.793306,,,,,,,,,,,FEW,1700,SCT,2100,,,,,VFR,,,,,,,,,,,,METAR,9.0
WMKL 230800Z 24004KT 160V300 9999 SCT020 30/25 Q1009,WMKL,2022-10-23T08:00:00Z,6.32,99.72,30.0,25.0,240,4,,6.21,29.793306,,,,,,,,,,,SCT,2000,,,,,,,VFR,,,,,,,,,,,,METAR,4.0
WMKK 230800Z VRB04KT 9999 SCT018 30/26 Q1008 NOSIG,WMKK,2022-10-23T08:00:00Z,2.75,101.72,30.0,26.0,0,4,,6.21,29.763779,,,,,,TRUE,,,,,SCT,1800,,,,,,,VFR,,,,,,,,,,,,METAR,21.0
WMKJ 230800Z VRB03KT 9999 FEW018 30/25 Q1009,WMKJ,2022-10-23T08:00:00Z,1.63,103.67,30.0,25.0,0,3,,6.21,29.793306,,,,,,,,,,,FEW,1800,,,,,,,VFR,,,,,,,,,,,,METAR,38.0
WMKI 230800Z 02007KT 340V050 9999 FEW017CB SCT020 33/23 Q1008,WMKI,2022-10-23T08:00:00Z,4.57,101.08,33.0,23.0,20,7,,6.21,29.763779,,,,,,,,,,,FEW,1700,SCT,2000,,,,,VFR,,,,,,,,,,,,METAR,37.0
WMKE 230800Z VRB03KT 9999 FEW014CB 29/25 Q1008,WMKE,2022-10-23T08:00:00Z,4.53,103.43,29.0,25.0,0,3,,6.21,29.763779,,,,,,,,,,,FEW,1400,,,,,,,VFR,,,,,,,,,,,,METAR,5.0
WMKD 230800Z 35003KT 290V050 9999 -RA FEW024 28/24 Q1008 NOSIG,WMKD,2022-10-23T08:00:00Z,3.77,103.22,28.0,24.0,350,3,,6.21,29.763779,,,,,,TRUE,,,,-RA,FEW,2400,,,,,,,VFR,,,,,,,,,,,,METAR,18.0
WMKC 230800Z 35005KT 300V040 9999 FEW018 30/24 Q1009,WMKC,2022-10-23T08:00:00Z,6.17,102.28,30.0,24.0,350,5,,6.21,29.793306,,,,,,,,,,,FEW,1800,,,,,,,VFR,,,,,,,,,,,,METAR,7.0
WMKB 230800Z 31006KT 260V350 9999 FEW020 30/24 Q1009 NOSIG,WMKB,2022-10-23T08:00:00Z,5.47,100.38,30.0,24.0,310,6,,6.21,29.793306,,,,,,TRUE,,,,,FEW,2000,,,,,,,VFR,,,,,,,,,,,,METAR,4.0
WMKA 230800Z 36004KT 280V070 9999 FEW020 31/23 Q1009,WMKA,2022-10-23T08:00:00Z,6.2,100.4,31.0,23.0,360,4,,6.21,29.793306,,,,,,,,,,,FEW,2000,,,,,,,VFR,,,,,,,,,,,,METAR,5.0
WMBA 230800Z VRB03KT 8000 SHRA SCT020 30/27 Q1008,WMBA,2022-10-23T08:00:00Z,4.22,100.7,30.0,27.0,0,3,,4.97,29.763779,,,,,,,,,,SHRA,SCT,2000,,,,,,,MVFR,,,,,,,,,,,,METAR,9.0
WMAU 230800Z 31006KT 230V040 9999 SCT025 29/25 Q1009,WMAU,2022-10-23T08:00:00Z,2.38,103.88,29.0,25.0,310,6,,6.21,29.793306,,,,,,,,,,,SCT,2500,,,,,,,VFR,,,,,,,,,,,,METAR,5.0
WIPP 230800Z 25005KT 9999 SCT010 28/23 Q1008,WIPP,2022-10-23T08:00:00Z,-2.88,104.7,28.0,23.0,250,5,,6.21,29.763779,,,,,,,,,,,SCT,1000,,,,,,,VFR,,,,,,,,,,,,METAR,7.0
WIOO 230800Z 23012KT 9999 SCT013 30/25 Q1007 NOSIG,WIOO,2022-10-23T08:00:00Z,-0.15,109.4,30.0,25.0,230,12,,6.21,29.734253,,,,,,TRUE,,,,,SCT,1300,,,,,,,VFR,,,,,,,,,,,,METAR,4.0
WIMM 230800Z 01005KT 9999 SCT017 30/22 Q1009 NOSIG,WIMM,2022-10-23T08:00:00Z,3.57,98.67,30.0,22.0,10,5,,6.21,29.793306,,,,,,TRUE,,,,,SCT,1700,,,,,,,VFR,,,,,,,,,,,,METAR,27.0
WIII 230800Z 28006KT 9999 SCT020 32/25 Q1007 NOSIG,WIII,2022-10-23T08:00:00Z,-6.13,106.67,32.0,25.0,280,6,,6.21,29.734253,,,,,,TRUE,,,,,SCT,2000,,,,,,,VFR,,,,,,,,,,,,METAR,9.0
WIEE 230800Z VRB02KT 9999 FEW020 29/24 Q1009 NOSIG,WIEE,2022-10-23T08:00:00Z,-0.78,100.28,29.0,24.0,0,2,,6.21,29.793306,,,,,,TRUE,,,,,FEW,2000,,,,,,,VFR,,,,,,,,,,,,METAR,5.0
WIDD 230800Z 32004KT 9999 SCT014 28/25 Q1011 NOSIG,WIDD,2022-10-23T08:00:00Z,1.12,104.12,28.0,25.0,320,4,,6.21,29.852362,,,,,,TRUE,,,,,SCT,1400,,,,,,,VFR,,,,,,,,,,,,METAR,26.0
WIBB 230800Z 27007KT 8000 SCT012 29/24 Q1007,WIBB,2022-10-23T08:00:00Z,0.47,101.45,29.0,24.0,270,7,,4.97,29.734253,,,,,,,,,,,SCT,1200,,,,,,,MVFR,,,,,,,,,,,,METAR,41.0
WBSB 230800Z 31007KT 9999 SCT015 FEW016CB SCT140 BKN280 29/27 Q1008 NOSIG,WBSB,2022-10-23T08:00:00Z,4.93,114.92,29.0,27.0,310,7,,6.21,29.763779,,,,,,TRUE,,,,,SCT,1500,FEW,1600,SCT,14000,BKN,28000,VFR,,,,,,,,,,,,METAR,15.0
WBKW 230800Z 04003KT 330V100 9000 -TSRA FEW015CB SCT016 25/24 Q1008,WBKW,2022-10-23T08:00:00Z,4.32,118.12,25.0,24.0,40,3,,5.59,29.763779,,,,,,,,,,-TSRA,FEW,1500,SCT,1600,,,,,VFR,,,,,,,,,,,,METAR,17.0
WBKT 230800Z 26005KT 9999 FEW014 28/25 Q1008,WBKT,2022-10-23T08:00:00Z,6.92,116.83,28.0,25.0,260,5,,6.21,29.763779,,,,,,,,,,,FEW,1400,,,,,,,VFR,,,,,,,,,,,,METAR,11.0
WBKS 230800Z 33005KT 300V010 9999 FEW015 FEW017CB 28/25 Q1007,WBKS,2022-10-23T08:00:00Z,5.9,118.07,28.0,25.0,330,5,,6.21,29.734253,,,,,,,,,,,FEW,1500,FEW,1700,,,,,VFR,,,,,,,,,,,,METAR,13.0
WBKL 230800Z 34003KT 260V030 9999 FEW015 FEW017CB 29/25 Q1007,WBKL,2022-10-23T08:00:00Z,5.3,115.25,29.0,25.0,340,3,,6.21,29.734253,,,,,,,,,,,FEW,1500,FEW,1700,,,,,VFR,,,,,,,,,,,,METAR,29.0
WBKK 230800Z 00000KT 9999 FEW014 FEW016CB 29/25 Q1008 NOSIG,WBKK,2022-10-23T08:00:00Z,5.93,116.05,29.0,25.0,0,0,,6.21,29.763779,,,,,,TRUE,,,,,FEW,1400,FEW,1600,,,,,VFR,,,,,,,,,,,,METAR,9.0
WBGY 230800Z VRB01KT 9999 FEW015CB SCT022 33/25 Q1005,WBGY,2022-10-23T08:00:00Z,1.22,111.45,33.0,25.0,0,1,,6.21,29.675198,,,,,,,,,,,FEW,1500,SCT,2200,,,,,VFR,,,,,,,,,,,,METAR,13.0
WBGS 230800Z VRB04KT 9999 FEW015CB SCT018 30/25 Q1006,WBGS,2022-10-23T08:00:00Z,2.27,111.98,30.0,25.0,0,4,,6.21,29.704725,,,,,,,,,,,FEW,1500,SCT,1800,,,,,VFR,,,,,,,,,,,,METAR,26.0
WBGR 230800Z 30008KT 240V360 9999 SCT016 30/25 Q1007,WBGR,2022-10-23T08:00:00Z,4.32,113.98,30.0,25.0,300,8,,6.21,29.734253,,,,,,,,,,,SCT,1600,,,,,,,VFR,,,,,,,,,,,,METAR,18.0
WBGG 230800Z 32007KT 250V030 9999 BKN018 29/25 Q1006 NOSIG,WBGG,2022-10-23T08:00:00Z,1.48,110.35,29.0,25.0,320,7,,6.21,29.704725,,,,,,TRUE,,,,,BKN,1800,,,,,,,MVFR,,,,,,,,,,,,METAR,26.0
WBGB 230800Z 31008KT 250V030 9999 TS FEW015CB SCT016 29/26 Q1007,WBGB,2022-10-23T08:00:00Z,3.12,113.02,29.0,26.0,310,8,,6.21,29.734253,,,,,,,,,,TS,FEW,1500,SCT,1600,,,,,VFR,,,,,,,,,,,,METAR,34.0
WARR 230800Z 29014KT 1000 +TSRA BKN010CB 25/24 Q1008 TEMPO TL0830 5000 -TSRA,WARR,2022-10-23T08:00:00Z,-7.37,112.78,25.0,24.0,290,14,,0.62,29.763779,,,,,,,,,,+TSRA,BKN,1000,,,,,,,LIFR,,,,,,,,,,,,METAR,3.0
WAQQ 230800Z 05007KT 9999 SCT015 31/25 Q1006 NOSIG,WAQQ,2022-10-23T08:00:00Z,3.33,117.57,31.0,25.0,50,7,,6.21,29.704725,,,,,,TRUE,,,,,SCT,1500,,,,,,,VFR,,,,,,,,,,,,METAR,6.0
WAPP 230800Z 22008KT 9999 FEW018 31/25 Q1006 NOSIG,WAPP,2022-10-23T08:00:00Z,-3.7,128.08,31.0,25.0,220,8,,6.21,29.704725,,,,,,TRUE,,,,,FEW,1800,,,,,,,VFR,,,,,,,,,,,,METAR,20.0
WAOO 230800Z 22008KT 180V240 9999 SCT017 29/23 Q1006 NOSIG,WAOO,2022-10-23T08:00:00Z,-3.45,114.77,29.0,23.0,220,8,,6.21,29.704725,,,,,,TRUE,,,,,SCT,1700,,,,,,,VFR,,,,,,,,,,,,METAR,23.0
WAMM 230800Z 27004KT 200V340 9999 SCT018 29/25 Q1007 NOSIG,WAMM,2022-10-23T08:00:00Z,1.55,124.92,29.0,25.0,270,4,,6.21,29.734253,,,,,,TRUE,,,,,SCT,1800,,,,,,,VFR,,,,,,,,,,,,METAR,86.0
WALL 230800Z VRB04KT 9999 FEW020CB FEW020 30/26 Q1005 RMK CB TO W AND SW,WALL,2022-10-23T08:00:00Z,-1.27,116.9,30.0,26.0,0,4,,6.21,29.675198,,,,,,,,,,,FEW,2000,FEW,2000,,,,,VFR,,,,,,,,,,,,METAR,3.0
WAKK 230800Z 20007KT 9999 FEW017 29/25 Q1005 NOSIG,WAKK,2022-10-23T08:00:00Z,-8.52,140.42,29.0,25.0,200,7,,6.21,29.675198,,,,,,TRUE,,,,,FEW,1700,,,,,,,VFR,,,,,,,,,,,,METAR,5.0
WAJJ 230800Z 08003KT 9999 SCT013 29/24 Q1005 NOSIG,WAJJ,2022-10-23T08:00:00Z,-2.58,140.52,29.0,24.0,80,3,,6.21,29.675198,,,,,,TRUE,,,,,SCT,1300,,,,,,,VFR,,,,,,,,,,,,METAR,93.0
WAHS 230800Z 23004KT 7000 SCT014 29/24 Q1007,WAHS,2022-10-23T08:00:00Z,-6.98,110.38,29.0,24.0,230,4,,4.35,29.734253,,,,,,,,,,,SCT,1400,,,,,,,MVFR,,,,,,,,,,,,METAR,3.0
WADD 230800Z 25009KT 9999 FEW017 31/26 Q1007 NOSIG,WADD,2022-10-23T08:00:00Z,-8.73,115.17,31.0,26.0,250,9,,6.21,29.734253,,,,,,TRUE,,,,,FEW,1700,,,,,,,VFR,,,,,,,,,,,,METAR,3.0
WAAA 230800Z 13004KT 7000 -TSRA FEW018CB SCT019 27/25 Q1007 TEMPO TL0830 13010G20KT 4000 RMK CB IN APCH,WAAA,2022-10-23T08:00:00Z,-5.07,119.55,27.0,25.0,130,4,,4.35,29.734253,,,,,,,,,,-TSRA,FEW,1800,SCT,1900,,,,,MVFR,,,,,,,,,,,,METAR,13.0
VYYY 230800Z 09010KT 7000 BKN018 FEW025CB 33/24 Q1008,VYYY,2022-10-23T08:00:00Z,16.9,96.13,33.0,24.0,90,10,,4.35,29.763779,,,,,,,,,,,BKN,1800,FEW,2500,,,,,MVFR,,,,,,,,,,,,METAR,31.0
VYNT 230800Z 30004KT 7000 BKN017 FEW022CB BKN110 33/24 Q1009 NOSIG,VYNT,2022-10-23T08:00:00Z,19.62,96.2,33.0,24.0,300,4,,4.35,29.793306,,,,,,TRUE,,,,,BKN,1700,FEW,2200,BKN,11000,,,MVFR,,,,,,,,,,,,METAR,610.0
VVTS 230800Z 23010KT 9999 -TSRA SCT015 FEW017CB 28/25 Q1008 NOSIG RMK CB/S/SW/NW,VVTS,2022-10-23T08:00:00Z,10.82,106.67,28.0,25.0,230,10,,6.21,29.763779,,,,,,TRUE,,,,-TSRA,SCT,1500,FEW,1700,,,,,VFR,,,,,,,,,,,,METAR,10.0
VVPQ 230800Z 23005KT 9999 SCT015 32/24 Q1008 NOSIG,VVPQ,2022-10-23T08:00:00Z,10.23,103.97,32.0,24.0,230,5,,6.21,29.763779,,,,,,TRUE,,,,,SCT,1500,,,,,,,VFR,,,,,,,,,,,,METAR,8.0
VVPB 230800Z 32006KT 9999 FEW020 SCT060 27/24 Q1013 NOSIG,VVPB,2022-10-23T08:00:00Z,16.38,107.7,27.0,24.0,320,6,,6.21,29.911417,,,,,,TRUE,,,,,FEW,2000,SCT,6000,,,,,VFR,,,,,,,,,,,,METAR,15.0
VVNB 230800Z 36003KT 290V100 CAVOK 33/20 Q1012 NOSIG,VVNB,2022-10-23T08:00:00Z,21.22,105.8,33.0,20.0,360,3,,6.21,29.88189,,,,,,TRUE,,,,,CAVOK,,,,,,,,VFR,,,,,,,,,,,,METAR,6.0
VVDN 230800Z 36010KT 9999 FEW015 30/20 Q1012 NOSIG,VVDN,2022-10-23T08:00:00Z,16.03,108.2,30.0,20.0,360,10,,6.21,29.88189,,,,,,TRUE,,,,,FEW,1500,,,,,,,VFR,,,,,,,,,,,,METAR,7.0
VVCT 230800Z 01004KT 9999 SCT013 FEW015TCU 31/25 Q1008 NOSIG TCU/NE,VVCT,2022-10-23T08:00:00Z,10.08,105.72,31.0,25.0,10,4,,6.21,29.763779,,,,,,TRUE,,,,,SCT,1300,FEW,1500,,,,,VFR,,,,,,,,,,,,METAR,6.0
VVCR 230800Z 04013KT 9999 FEW015 29/22 Q1010 NOSIG,VVCR,2022-10-23T08:00:00Z,12.0,109.22,29.0,22.0,40,13,,6.21,29.822834,,,,,,TRUE,,,,,FEW,1500,,,,,,,VFR,,,,,,,,,,,,METAR,12.0
VVCI 230800Z 13007KT CAVOK 31/21 Q1012 NOSIG,VVCI,2022-10-23T08:00:00Z,20.82,106.73,31.0,21.0,130,7,,6.21,29.88189,,,,,,TRUE,,,,,CAVOK,,,,,,,,VFR,,,,,,,,,,,,METAR,6.0
VTUW 230800Z 12004KT 090V150 CAVOK 33/16 Q1011 NOSIG,VTUW,2022-10-23T08:00:00Z,17.38,104.63,33.0,16.0,120,4,,6.21,29.852362,,,,,,TRUE,,,,,CAVOK,,,,,,,,VFR,,,,,,,,,,,,METAR,167.0
VTUV 230800Z 06007KT 020V080 9000 NSC 32/19 Q1010 NOSIG,VTUV,2022-10-23T08:00:00Z,16.12,103.78,32.0,19.0,60,7,,5.59,29.822834,,,,,,TRUE,,,,,CLR,,,,,,,,VFR,,,,,,,,,,,,METAR,136.0
VTUU 230800Z 03008KT 9999 FEW030 32/24 Q1010 NOSIG,VTUU,2022-10-23T08:00:00Z,15.25,104.87,32.0,24.0,30,8,,6.21,29.822834,,,,,,TRUE,,,,,FEW,3000,,,,,,,VFR,,,,,,,,,,,,METAR,119.0
VTUQ 230800Z 03004KT 330V080 9999 FEW035 30/23 Q1011 NOSIG,VTUQ,2022-10-23T08:00:00Z,14.95,102.32,30.0,23.0,30,4,,6.21,29.852362,,,,,,TRUE,,,,,FEW,3500,,,,,,,VFR,,,,,,,,,,,,METAR,225.0
VTUO 230800Z 08007KT 040V110 9999 FEW040 31/22 Q1011 NOSIG,VTUO,2022-10-23T08:00:00Z,15.23,103.25,31.0,22.0,80,7,,6.21,29.852362,,,,,,TRUE,,,,,FEW,4000,,,,,,,VFR,,,,,,,,,,,,METAR,182.0
VTUL 230800Z VRB02KT 9999 SCT030 30/20 Q1012 NOSIG,VTUL,2022-10-23T08:00:00Z,17.43,101.72,30.0,20.0,0,2,,6.21,29.88189,,,,,,TRUE,,,,,SCT,3000,,,,,,,VFR,,,,,,,,,,,,METAR,257.0
VTUK 230800Z 07007KT 040V120 9999 FEW030 31/17 Q1011 NOSIG,VTUK,2022-10-23T08:00:00Z,16.47,102.78,31.0,17.0,70,7,,6.21,29.852362,,,,,,TRUE,,,,,FEW,3000,,,,,,,VFR,,,,,,,,,,,,METAR,190.0
VTUI 230800Z 11006KT 070V150 CAVOK 33/16 Q1011 NOSIG,VTUI,2022-10-23T08:00:00Z,17.2,104.12,33.0,16.0,110,6,,6.21,29.852362,,,,,,TRUE,,,,,CAVOK,,,,,,,,VFR,,,,,,,,,,,,METAR,162.0
VTUD 230800Z 09007KT 040V150 CAVOK 33/16 Q1011 NOSIG,VTUD,2022-10-23T08:00:00Z,17.37,102.78,33.0,16.0,90,7,,6.21,29.852362,,,,,,TRUE,,,,,CAVOK,,,,,,,,VFR,,,,,,,,,,,,METAR,177.0
VTST 230800Z 35004KT 250V050 9999 FEW030 32/24 Q1008 NOSIG,VTST,2022-10-23T08:00:00Z,7.52,99.62,32.0,24.0,350,4,,6.21,29.763779,,,,,,TRUE,,,,,FEW,3000,,,,,,,VFR,,,,,,,,,,,,METAR,17.0
VTSS 230800Z VRB02KT 9999 SCT020 BKN100 30/25 Q1009 NOSIG,VTSS,2022-10-23T08:00:00Z,6.92,100.38,30.0,25.0,0,2,,6.21,29.793306,,,,,,TRUE,,,,,SCT,2000,BKN,10000,,,,,VFR,,,,,,,,,,,,METAR,28.0
VTSR 230800Z 22009KT 9999 FEW025 33/20 Q1009 NOSIG,VTSR,2022-10-23T08:00:00Z,9.78,98.58,33.0,20.0,220,9,,6.21,29.793306,,,,,,TRUE,,,,,FEW,2500,,,,,,,VFR,,,,,,,,,,,,METAR,23.0
VTSP 230800Z 31007KT 9999 FEW020 32/25 Q1009 NOSIG,VTSP,2022-10-23T08:00:00Z,8.12,98.32,32.0,25.0,310,7,,6.21,29.793306,,,,,,TRUE,,,,,FEW,2000,,,,,,,VFR,,,,,,,,,,,,METAR,12.0
VTSM 230800Z 31005KT 290V350 9999 FEW020 31/25 Q1010 NOSIG,VTSM,2022-10-23T08:00:00Z,9.55,100.07,31.0,25.0,310,5,,6.21,29.822834,,,,,,TRUE,,,,,FEW,2000,,,,,,,VFR,,,,,,,,,,,,METAR,12.0
VTSG 230800Z 23006KT 200V270 9999 3000E -RA FEW040CB SCT050 BKN100 33/24 Q1009 NOSIG,VTSG,2022-10-23T08:00:00Z,8.1,98.98,33.0,24.0,230,6,,6.21,29.793306,,,,,,TRUE,,,,-RA,FEW,4000,SCT,5000,BKN,10000,,,VFR,,,,,,,,,,,,METAR,32.0
VTSF 230800Z 01006KT 320V050 9999 FEW016CB 33/25 Q1009 NOSIG,VTSF,2022-10-23T08:00:00Z,8.53,99.95,33.0,25.0,10,6,,6.21,29.793306,,,,,,TRUE,,,,,FEW,1600,,,,,,,VFR,,,,,,,,,,,,METAR,6.0
VTSE 230800Z 05003KT 330V100 9999 VCSH FEW018CB SCT080 31/24 Q1009 NOSIG,VTSE,2022-10-23T08:00:00Z,10.72,99.37,31.0,24.0,50,3,,6.21,29.793306,,,,,,TRUE,,,,VCSH,FEW,1800,SCT,8000,,,,,VFR,,,,,,,,,,,,METAR,8.0
VTSC 230800Z 30003KT 9999 -RA FEW018 SCT100 28/23 Q1009 NOSIG,VTSC,2022-10-23T08:00:00Z,6.52,101.75,28.0,23.0,300,3,,6.21,29.793306,,,,,,TRUE,,,,-RA,FEW,1800,SCT,10000,,,,,VFR,,,,,,,,,,,,METAR,5.0
VTSB 230800Z 28007KT 250V310 9999 VCSH FEW018CB SCT020 29/24 Q1009 NOSIG,VTSB,2022-10-23T08:00:00Z,9.12,99.15,29.0,24.0,280,7,,6.21,29.793306,,,,,,TRUE,,,,VCSH,FEW,1800,SCT,2000,,,,,VFR,,,,,,,,,,,,METAR,10.0
VTPP 230800Z 22004KT 160V280 CAVOK 32/19 Q1010 NOSIG,VTPP,2022-10-23T08:00:00Z,16.78,100.28,32.0,19.0,220,4,,6.21,29.822834,,,,,,TRUE,,,,,CAVOK,,,,,,,,VFR,,,,,,,,,,,,METAR,45.0
VTPO 230800Z VRB02KT 9999 FEW025 33/21 Q1011 NOSIG,VTPO,2022-10-23T08:00:00Z,17.23,99.82,33.0,21.0,0,2,,6.21,29.852362,,,,,,TRUE,,,,,FEW,2500,,,,,,,VFR,,,,,,,,,,,,METAR,58.0
VTPM 230800Z 07008KT 030V100 9999 FEW045 33/19 Q1010 NOSIG,VTPM,2022-10-23T08:00:00Z,16.7,98.53,33.0,19.0,70,8,,6.21,29.822834,,,,,,TRUE,,,,,FEW,4500,,,,,,,VFR,,,,,,,,,,,,METAR,211.0
VTPH 230800Z 03007KT 360V060 9999 FEW030 30/24 Q1009 NOSIG,VTPH,2022-10-23T08:00:00Z,12.63,99.95,30.0,24.0,30,7,,6.21,29.793306,,,,,,TRUE,,,,,FEW,3000,,,,,,,VFR,,,,,,,,,,,,METAR,12.0
VTPB 230800Z 04004KT 320V080 9999 FEW030 33/17 Q1011 NOSIG,VTPB,2022-10-23T08:00:00Z,16.67,101.2,33.0,17.0,40,4,,6.21,29.852362,,,,,,TRUE,,,,,FEW,3000,,,,,,,VFR,,,,,,,,,,,,METAR,134.0
VTCT 230800Z VRB03KT 9999 FEW040 30/21 Q1013 NOSIG,VTCT,2022-10-23T08:00:00Z,19.95,99.88,30.0,21.0,0,3,,6.21,29.911417,,,,,,TRUE,,,,,FEW,4000,,,,,,,VFR,,,,,,,,,,,,METAR,389.0
VTCP 230800Z 36007KT 320V050 9999 SCT047 32/22 Q1011 NOSIG,VTCP,2022-10-23T08:00:00Z,18.13,100.17,32.0,22.0,360,7,,6.21,29.852362,,,,,,TRUE,,,,,SCT,4700,,,,,,,VFR,,,,,,,,,,,,METAR,166.0
VTCN 230800Z 30004KT 250V020 9999 FEW025 31/22 Q1011 NOSIG,VTCN,2022-10-23T08:00:00Z,18.82,100.78,31.0,22.0,300,4,,6.21,29.852362,,,,,,TRUE,,,,,FEW,2500,,,,,,,VFR,,,,,,,,,,,,METAR,211.0
VTCL 230800Z VRB02KT 9999 SCT025 33/22 Q1012 NOSIG,VTCL,2022-10-23T08:00:00Z,18.27,99.52,33.0,22.0,0,2,,6.21,29.88189,,,,,,TRUE,,,,,SCT,2500,,,,,,,VFR,,,,,,,,,,,,METAR,240.0
VTCH 230800Z VRB04KT 9999 FEW020TCU SCT025 31/23 Q1011 NOSIG,VTCH,2022-10-23T08:00:00Z,19.3,97.98,31.0,23.0,0,4,,6.21,29.852362,,,,,,TRUE,,,,,FEW,2000,SCT,2500,,,,,VFR,,,,,,,,,,,,METAR,266.0
VTCC 230800Z VRB03KT 9999 -RA FEW025CB BKN035 29/21 Q1012 NOSIG,VTCC,2022-10-23T08:00:00Z,18.77,98.97,29.0,21.0,0,3,,6.21,29.88189,,,,,,TRUE,,,,-RA,FEW,2500,BKN,3500,,,,,VFR,,,,,,,,,,,,METAR,308.0
VTBU 230800Z 27004KT 7000 FEW020CB 30/26 Q1009 NOSIG,VTBU,2022-10-23T08:00:00Z,12.68,101.0,30.0,26.0,270,4,,4.35,29.793306,,,,,,TRUE,,,,,FEW,2000,,,,,,,MVFR,,,,,,,,,,,,METAR,12.0
VTBS 230800Z 03005KT 340V100 9999 FEW030 33/22 Q1009 NOSIG,VTBS,2022-10-23T08:00:00Z,13.68,100.75,33.0,22.0,30,5,,6.21,29.793306,,,,,,TRUE,,,,,FEW,3000,,,,,,,VFR,,,,,,,,,,,,METAR,1.0
VTBO 230800Z 33002KT 9999 FEW025 33/23 Q1008,VTBO,2022-10-23T08:00:00Z,12.28,102.32,33.0,23.0,330,2,,6.21,29.763779,,,,,,,,,,,FEW,2500,,,,,,,VFR,,,,,,,,,,,,METAR,25.0
VTBD 230800Z 04007KT 360V090 9999 FEW020 33/22 Q1009 NOSIG,VTBD,2022-10-23T08:00:00Z,13.92,100.6,33.0,22.0,40,7,,6.21,29.793306,,,,,,TRUE,,,,,FEW,2000,,,,,,,VFR,,,,,,,,,,,,METAR,6.0
VRMM 230800Z 22014KT 9999 SCT017 FEW018CB BKN240 28/25 Q1012 CB SE TEMPO 4000 SHRA,VRMM,2022-10-23T08:00:00Z,4.2,73.52,28.0,25.0,220,14,,6.21,29.88189,,,,,,,,,,,SCT,1700,FEW,1800,BKN,24000,,,VFR,,,,,,,,,,,,METAR,2.0
VRMH 230800Z 24008KT 9999 FEW018TCU BKN260 30/26 Q1012,VRMH,2022-10-23T08:00:00Z,6.75,73.17,30.0,26.0,240,8,,6.21,29.88189,,,,,,,,,,,FEW,1800,BKN,26000,,,,,VFR,,,,,,,,,,,,METAR,1.0
"VRMG 230800Z 24007KT 9999 FEW018 FEW019CB BKN270 30/25 Q1012 CB E,S NOSIG",VRMG,2022-10-23T08:00:00Z,-0.7,73.15,30.0,25.0,240,7,,6.21,29.88189,,,,,,TRUE,,,,,FEW,1800,FEW,1900,BKN,27000,,,VFR,,,,,,,,,,,,METAR,3.0
VQPR 230800Z 15009KT 9999 FEW040 SCT060 22/M01 Q1024,VQPR,2022-10-23T08:00:00Z,27.4,89.43,22.0,-1.0,150,9,,6.21,30.236221,,,,,,,,,,,FEW,4000,SCT,6000,,,,,VFR,,,,,,,,,,,,METAR,2227.0
VOVZ 230800Z 02007KT 5000 HZ FEW018 BKN220 30/20 Q1008 NOSIG,VOVZ,2022-10-23T08:00:00Z,17.72,83.22,30.0,20.0,20,7,,3.11,29.763779,,,,,,TRUE,,,,HZ,FEW,1800,BKN,22000,,,,,MVFR,,,,,,,,,,,,METAR,4.0
VOTV 230800Z 26006KT 6000 FEW015 FEW025TCU 30/24 Q1011 NOSIG,VOTV,2022-10-23T08:00:00Z,8.48,76.92,30.0,24.0,260,6,,3.73,29.852362,,,,,,TRUE,,,,,FEW,1500,FEW,2500,,,,,MVFR,,,,,,,,,,,,METAR,9.0
VOTR 230800Z 31005KT 4000 HZ FEW016 SCT100 32/24 Q1010 NOSIG,VOTR,2022-10-23T08:00:00Z,10.77,78.72,32.0,24.0,310,5,,2.49,29.822834,,,,,,TRUE,,,,HZ,FEW,1600,SCT,10000,,,,,IFR,,,,,,,,,,,,METAR,90.0
VOTP 230800Z 34008KT 6000 FEW020 32/15 Q1010 NOSIG,VOTP,2022-10-23T08:00:00Z,13.63,79.55,32.0,15.0,340,8,,3.73,29.822834,,,,,,TRUE,,,,,FEW,2000,,,,,,,MVFR,,,,,,,,,,,,METAR,103.0
VOTK 230800Z 15010KT 6000 SCT020 FEW030CB OVC080 31/23 Q1010 TEMPO 5000 HZ,VOTK,2022-10-23T08:00:00Z,8.72,78.02,31.0,23.0,150,10,,3.73,29.822834,,,,,,,,,,,SCT,2000,FEW,3000,OVC,8000,,,MVFR,,,,,,,,,,,,METAR,25.0
VORY 230800Z 00000KT 6000 NSC 35/20 Q1008 NOSIG,VORY,2022-10-23T08:00:00Z,17.1,81.82,35.0,20.0,0,0,,3.73,29.763779,,,,,,TRUE,,,,,CLR,,,,,,,,MVFR,,,,,,,,,,,,METAR,47.0
VOPB 230800Z 22005KT 4500 -RA SCT012 BKN080 27/25 Q1007 BECMG 3500 -RA,VOPB,2022-10-23T08:00:00Z,11.63,92.73,27.0,25.0,220,5,,2.8,29.734253,,,,,,,,,,-RA,SCT,1200,BKN,8000,,,,,IFR,,,,,,,,,,,,METAR,1.0
VOMY 230800Z 34004KT 6000 FEW015 30/17 Q1015,VOMY,2022-10-23T08:00:00Z,12.23,76.65,30.0,17.0,340,4,,3.73,29.970472,,,,,,,,,,,FEW,1500,,,,,,,MVFR,,,,,,,,,,,,METAR,727.0
VOMM 230800Z 34010KT 6000 FEW020 FEW025TCU SCT100 32/22 Q1009 NOSIG,VOMM,2022-10-23T08:00:00Z,13.0,80.17,32.0,22.0,340,10,,3.73,29.793306,,,,,,TRUE,,,,,FEW,2000,FEW,2500,SCT,10000,,,MVFR,,,,,,,,,,,,METAR,7.0
VOML 230800Z 25009KT 6000 SCT012 SCT020 FEW025TCU 32/22 Q1010 TEMPO 5000 HZ,VOML,2022-10-23T08:00:00Z,12.97,74.88,32.0,22.0,250,9,,3.73,29.822834,,,,,,,,,,,SCT,1200,SCT,2000,FEW,2500,,,MVFR,,,,,,,,,,,,METAR,100.0
VOMD 230800Z 28005KT 5000 HZ FEW020 FEW025TCU 32/22 Q1010 NOSIG,VOMD,2022-10-23T08:00:00Z,9.83,78.08,32.0,22.0,280,5,,3.11,29.822834,,,,,,TRUE,,,,HZ,FEW,2000,FEW,2500,,,,,MVFR,,,,,,,,,,,,METAR,135.0
VOKU 230800Z 33009KT 5000 HZ FEW020 30/10 Q1013,VOKU,2022-10-23T08:00:00Z,15.72,78.17,30.0,10.0,330,9,,3.11,29.911417,,,,,,,,,,HZ,FEW,2000,,,,,,,MVFR,,,,,,,,,,,,METAR,280.0
VOKN 230800Z 30009KT 6000 SCT012 FEW025TCU 31/25 Q1010 NOSIG,VOKN,2022-10-23T08:00:00Z,11.92,75.55,31.0,25.0,300,9,,3.73,29.822834,,,,,,TRUE,,,,,SCT,1200,FEW,2500,,,,,MVFR,,,,,,,,,,,,METAR,105.0
VOJV 230800Z 34008KT 6000 NSC 28/19 Q1014,VOJV,2022-10-23T08:00:00Z,15.17,76.63,28.0,19.0,340,8,,3.73,29.940945,,,,,,,,,,,CLR,,,,,,,,MVFR,,,,,,,,,,,,METAR,508.0
VOHY 230800Z 02006KT 6000 NSC 28/11 Q1014 NOSIG,VOHY,2022-10-23T08:00:00Z,17.45,78.47,28.0,11.0,20,6,,3.73,29.940945,,,,,,TRUE,,,,,CLR,,,,,,,,MVFR,,,,,,,,,,,,METAR,540.0
VOHS 230800Z 01012KT 6000 FEW020 28/14 Q1015 NOSIG,VOHS,2022-10-23T08:00:00Z,17.23,78.43,28.0,14.0,10,12,,3.73,29.970472,,,,,,TRUE,,,,,FEW,2000,,,,,,,MVFR,,,,,,,,,,,,METAR,607.0
VOHB 230800Z 04011KT 8000 NSC 29/13 Q1015,VOHB,2022-10-23T08:00:00Z,15.37,75.08,29.0,13.0,40,11,,4.97,29.970472,,,,,,,,,,,CLR,,,,,,,,MVFR,,,,,,,,,,,,METAR,661.0
VOGB 230800Z 02007KT 8000 FEW020 28/14 Q1014,VOGB,2022-10-23T08:00:00Z,17.35,76.85,28.0,14.0,20,7,,4.97,29.940945,,,,,,,,,,,FEW,2000,,,,,,,MVFR,,,,,,,,,,,,METAR,458.0
VOCP 230800Z 01005KT 6000 FEW020 31/15 Q1010 NOSIG,VOCP,2022-10-23T08:00:00Z,14.5,78.77,31.0,15.0,10,5,,3.73,29.822834,,,,,,TRUE,,,,,FEW,2000,,,,,,,MVFR,,,,,,,,,,,,METAR,134.0
VOCL 230800Z 25006KT 6000 SCT012 SCT018 29/24 Q1010 NOSIG,VOCL,2022-10-23T08:00:00Z,11.13,75.95,29.0,24.0,250,6,,3.73,29.822834,,,,,,TRUE,,,,,SCT,1200,SCT,1800,,,,,MVFR,,,,,,,,,,,,METAR,104.0
VOCI 230800Z 26004KT 6000 SCT015 SCT080 31/25 Q1010 NOSIG,VOCI,2022-10-23T08:00:00Z,10.15,76.4,31.0,25.0,260,4,,3.73,29.822834,,,,,,TRUE,,,,,SCT,1500,SCT,8000,,,,,MVFR,,,,,,,,,,,,METAR,8.0
VOCB 230800Z 20006KT 6000 SCT012 32/20 Q1012 NOSIG,VOCB,2022-10-23T08:00:00Z,11.02,77.03,32.0,20.0,200,6,,3.73,29.88189,,,,,,TRUE,,,,,SCT,1200,,,,,,,MVFR,,,,,,,,,,,,METAR,394.0
VOBZ 230800Z 33006KT 6000 NSC 33/22 Q1009 NOSIG,VOBZ,2022-10-23T08:00:00Z,16.52,80.78,33.0,22.0,330,6,,3.73,29.793306,,,,,,TRUE,,,,,CLR,,,,,,,,MVFR,,,,,,,,,,,,METAR,26.0
VOBM 230800Z 04009KT 9999 FEW012 27/10 Q1017,VOBM,2022-10-23T08:00:00Z,15.85,74.62,27.0,10.0,40,9,,6.21,30.029528,,,,,,,,,,,FEW,1200,,,,,,,VFR,,,,,,,,,,,,METAR,758.0
VOBL 230800Z 31010KT 8000 FEW012 26/13 Q1016 NOSIG,VOBL,2022-10-23T08:00:00Z,13.2,77.7,26.0,13.0,310,10,,4.97,30.0,,,,,,TRUE,,,,,FEW,1200,,,,,,,MVFR,,,,,,,,,,,,METAR,908.0
VOBG 230800Z 30006KT 6000 FEW012 28/16 Q1016 NOSIG,VOBG,2022-10-23T08:00:00Z,12.95,77.65,28.0,16.0,300,6,,3.73,30.0,,,,,,TRUE,,,,,FEW,1200,,,,,,,MVFR,,,,,,,,,,,,METAR,884.0
VOAT 230800Z 11003KT 6000 SCT015 31/25 Q1011 NOSIG,VOAT,2022-10-23T08:00:00Z,10.82,72.18,31.0,25.0,110,3,,3.73,29.852362,,,,,,TRUE,,,,,SCT,1500,,,,,,,MVFR,,,,,,,,,,,,METAR,5.0
VNKT 230800Z 13006KT 9999 FEW025 SCT040 26/07 Q1021 NOSIG,VNKT,2022-10-23T08:00:00Z,27.68,85.37,26.0,7.0,130,6,,6.21,30.147638,,,,,,TRUE,,,,,FEW,2500,SCT,4000,,,,,VFR,,,,,,,,,,,,METAR,1334.0
VMMC 230800Z 06005KT 030V090 9999 SCT045 27/21 Q1012 NOSIG,VMMC,2022-10-23T08:00:00Z,22.15,113.58,27.0,21.0,60,5,,6.21,29.88189,,,,,,TRUE,,,,,SCT,4500,,,,,,,VFR,,,,,,,,,,,,METAR,1.0
VLVT 230800Z 09008KT 8000 FEW020 FEW200 33/22 Q1011 NOSIG,VLVT,2022-10-23T08:00:00Z,17.98,102.57,33.0,22.0,90,8,,4.97,29.852362,,,,,,TRUE,,,,,FEW,2000,FEW,20000,,,,,MVFR,,,,,,,,,,,,METAR,171.0
VLSK 230800Z 04006KT 9999 FEW020 33/18 Q1012 NOSIG,VLSK,2022-10-23T08:00:00Z,16.55,104.75,33.0,18.0,40,6,,6.21,29.88189,,,,,,TRUE,,,,,FEW,2000,,,,,,,VFR,,,,,,,,,,,,METAR,148.0
VLPS 230800Z 36006KT 9999 FEW030 SCT050 SCT200 33/24 Q1010 NOSIG,VLPS,2022-10-23T08:00:00Z,15.13,105.78,33.0,24.0,360,6,,6.21,29.822834,,,,,,TRUE,,,,,FEW,3000,SCT,5000,SCT,20000,,,VFR,,,,,,,,,,,,METAR,102.0
VLLN 230800Z 18004KT 9999 FEW020 33/18 Q1014 NOSIG,VLLN,2022-10-23T08:00:00Z,20.97,101.4,33.0,18.0,180,4,,6.21,29.940945,,,,,,TRUE,,,,,FEW,2000,,,,,,,VFR,,,,,,,,,,,,METAR,548.0
VLLB 230800Z 36004KT 9999 FEW027 33/18 Q1011 NOSIG,VLLB,2022-10-23T08:00:00Z,19.9,102.17,33.0,18.0,360,4,,6.21,29.852362,,,,,,TRUE,,,,,FEW,2700,,,,,,,VFR,,,,,,,,,,,,METAR,297.0
VILK 230800Z VRB02KT 5000 HZ SCT020 SCT025 31/23 Q1014 NOSIG,VILK,2022-10-23T08:00:00Z,26.75,80.88,31.0,23.0,0,2,,3.11,29.940945,,,,,,TRUE,,,,HZ,SCT,2000,SCT,2500,,,,,MVFR,,,,,,,,,,,,METAR,121.0
VIJP 230800Z 31008KT 4000 HZ NSC 31/12 Q1017 NOSIG,VIJP,2022-10-23T08:00:00Z,26.82,75.8,31.0,12.0,310,8,,2.49,30.029528,,,,,,TRUE,,,,HZ,CLR,,,,,,,,IFR,,,,,,,,,,,,METAR,383.0
VIGG 230800Z 00000KT 6000 FEW035 27/16 Q1020,VIGG,2022-10-23T08:00:00Z,32.17,76.25,27.0,16.0,0,0,,3.73,30.11811,,,,,,,,,,,FEW,3500,,,,,,,MVFR,,,,,,,,,,,,METAR,760.0
VIDP 230800Z 27004KT 3500 HZ NSC 30/09 Q1016 NOSIG,VIDP,2022-10-23T08:00:00Z,28.57,77.12,30.0,9.0,270,4,,2.17,30.0,,,,,,TRUE,,,,HZ,CLR,,,,,,,,IFR,,,,,,,,,,,,METAR,236.0
VIBR 230800Z 20005KT 6000 FEW030 24/08 Q1019,VIBR,2022-10-23T08:00:00Z,31.82,77.15,24.0,8.0,200,5,,3.73,30.088583,,,,,,,,,,,FEW,3000,,,,,,,MVFR,,,,,,,,,,,,METAR,1089.0
VIAR 230800Z 30005KT 6000 NSC 30/09 Q1017 NOSIG,VIAR,2022-10-23T08:00:00Z,31.7,74.8,30.0,9.0,300,5,,3.73,30.029528,,,,,,TRUE,,,,,CLR,,,,,,,,MVFR,,,,,,,,,,,,METAR,226.0
VHHH 230800Z 14005KT 9999 FEW025 29/18 Q1012 NOSIG,VHHH,2022-10-23T08:00:00Z,22.32,113.92,29.0,18.0,140,5,,6.21,29.88189,,,,,,TRUE,,,,,FEW,2500,,,,,,,VFR,,,,,,,,,,,,METAR,9.0
VGHS 230800Z 00000KT 3200 DZ SCT010 BKN100 29/25 Q1010 TEMPO RA,VGHS,2022-10-23T08:00:00Z,23.85,90.4,29.0,25.0,0,0,,1.99,29.822834,,,,,,,,,,DZ,SCT,1000,BKN,10000,,,,,IFR,,,,,,,,,,,,METAR,11.0
VGEG 230800Z 33010KT 4000 HZ SCT016 FEW028CB BKN100 29/26 Q1008 NOSIG,VGEG,2022-10-23T08:00:00Z,22.23,91.82,29.0,26.0,330,10,,2.49,29.763779,,,,,,TRUE,,,,HZ,SCT,1600,FEW,2800,BKN,10000,,,IFR,,,,,,,,,,,,METAR,7.0
VERP 230800Z 03006KT 5000 HZ NSC 31/17 Q1013 NOSIG,VERP,2022-10-23T08:00:00Z,21.18,81.73,31.0,17.0,30,6,,3.11,29.911417,,,,,,TRUE,,,,HZ,CLR,,,,,,,,MVFR,,,,,,,,,,,,METAR,318.0
VERC 230800Z 36006KT 5000 HZ BKN100 27/17 Q1015 NOSIG,VERC,2022-10-23T08:00:00Z,23.32,85.32,27.0,17.0,360,6,,3.11,29.970472,,,,,,TRUE,,,,HZ,BKN,10000,,,,,,,MVFR,,,,,,,,,,,,METAR,646.0
VEPY 230800Z 18003KT 5000 HZ FEW020 27/06 Q1020 NOSIG,VEPY,2022-10-23T08:00:00Z,27.22,88.58,27.0,6.0,180,3,,3.11,30.11811,,,,,,TRUE,,,,HZ,FEW,2000,,,,,,,MVFR,,,,,,,,,,,,METAR,1399.0
VEPT 230800Z 31004KT 5000 HZ FEW020 SCT100 33/18 Q1010 NOSIG,VEPT,2022-10-23T08:00:00Z,25.6,85.08,33.0,18.0,310,4,,3.11,29.822834,,,,,,TRUE,,,,HZ,FEW,2000,SCT,10000,,,,,MVFR,,,,,,,,,,,,METAR,53.0
VEMR 230800Z 04005KT 5000 HZ BKN020 BKN100 28/22 Q1012 NOSIG,VEMR,2022-10-23T08:00:00Z,25.88,93.77,28.0,22.0,40,5,,3.11,29.88189,,,,,,TRUE,,,,HZ,BKN,2000,BKN,10000,,,,,MVFR,,,,,,,,,,,,METAR,147.0
VEMN 230800Z 03006KT 5000 HZ SCT020 BKN100 29/19 Q1012 NOSIG,VEMN,2022-10-23T08:00:00Z,27.47,95.02,29.0,19.0,30,6,,3.11,29.88189,,,,,,TRUE,,,,HZ,SCT,2000,BKN,10000,,,,,MVFR,,,,,,,,,,,,METAR,111.0
VELR 230800Z 02002KT 6000 FEW010 SCT020 BKN090 28/23 Q1012,VELR,2022-10-23T08:00:00Z,27.3,94.1,28.0,23.0,20,2,,3.73,29.88189,,,,,,,,,,,FEW,1000,SCT,2000,BKN,9000,,,MVFR,,,,,,,,,,,,METAR,101.0
VELP 230800Z 11005KT 5000 BR SCT018 SCT025 BKN100 28/24 Q1011 NOSIG,VELP,2022-10-23T08:00:00Z,23.83,92.62,28.0,24.0,110,5,,3.11,29.852362,,,,,,TRUE,,,,BR,SCT,1800,SCT,2500,BKN,10000,,,MVFR,,,,,,,,,,,,METAR,429.0
VEKI 230800Z 29007KT 5000 HZ NSC 31/16 Q1012 NOSIG,VEKI,2022-10-23T08:00:00Z,,,31.0,16.0,290,7,,3.11,29.88189,,,,,,TRUE,,,,HZ,CLR,,,,,,,,MVFR,,,,,,,,,,,,METAR,
VEJS 230800Z 02005KT 5000 HZ SCT018 33/17 Q1010,VEJS,2022-10-23T08:00:00Z,22.82,86.17,33.0,17.0,20,5,,3.11,29.822834,,,,,,,,,,HZ,SCT,1800,,,,,,,MVFR,,,,,,,,,,,,METAR,151.0
VEJR 230800Z 02007KT 5000 HZ FEW025 SCT100 28/16 Q1013,VEJR,2022-10-23T08:00:00Z,19.07,82.03,28.0,16.0,20,7,,3.11,29.911417,,,,,,,,,,HZ,FEW,2500,SCT,10000,,,,,MVFR,,,,,,,,,,,,METAR,555.0
VEJH 230800Z 03007KT 4000 HZ BKN100 30/18 Q1012,VEJH,2022-10-23T08:00:00Z,21.92,84.03,30.0,18.0,30,7,,2.49,29.88189,,,,,,,,,,HZ,BKN,10000,,,,,,,IFR,,,,,,,,,,,,METAR,231.0
VEIM 230800Z 20004KT 5000 HZ SCT018 BKN100 28/21 Q1015 NOSIG,VEIM,2022-10-23T08:00:00Z,24.77,93.9,28.0,21.0,200,4,,3.11,29.970472,,,,,,TRUE,,,,HZ,SCT,1800,BKN,10000,,,,,MVFR,,,,,,,,,,,,METAR,777.0
VEGY 230800Z 00000KT 3500 HZ FEW100 31/20 Q1012 NOSIG,VEGY,2022-10-23T08:00:00Z,24.75,84.95,31.0,20.0,0,0,,2.17,29.88189,,,,,,TRUE,,,,HZ,FEW,10000,,,,,,,IFR,,,,,,,,,,,,METAR,115.0
VEGT 230800Z 02002KT 3000 BR SCT018 BKN100 28/25 Q1011 NOSIG,VEGT,2022-10-23T08:00:00Z,26.1,91.58,28.0,25.0,20,2,,1.86,29.852362,,,,,,TRUE,,,,BR,SCT,1800,BKN,10000,,,,,IFR,,,,,,,,,,,,METAR,50.0
VEDO 230800Z 36005KT 5000 HZ SCT100 32/16 Q1012 NOSIG,VEDO,2022-10-23T08:00:00Z,,,32.0,16.0,360,5,,3.11,29.88189,,,,,,TRUE,,,,HZ,SCT,10000,,,,,,,MVFR,,,,,,,,,,,,METAR,
VEDG 230800Z 36005KT 5000 HZ FEW020 SCT100 32/19 Q1010 NOSIG,VEDG,2022-10-23T08:00:00Z,23.62,87.25,32.0,19.0,360,5,,3.11,29.822834,,,,,,TRUE,,,,HZ,FEW,2000,SCT,10000,,,,,MVFR,,,,,,,,,,,,METAR,88.0
VECO 230800Z 00000KT 6000 FEW025 32/22 Q1011,VECO,2022-10-23T08:00:00Z,26.33,89.47,32.0,22.0,0,0,,3.73,29.852362,,,,,,,,,,,FEW,2500,,,,,,,MVFR,,,,,,,,,,,,METAR,48.0
VECC 230800Z 13005KT 3200 -RA SCT018 OVC090 29/24 Q1009 BECMG 3000 -RA,VECC,2022-10-23T08:00:00Z,22.65,88.43,29.0,24.0,130,5,,1.99,29.793306,,,,,,,,,,-RA,SCT,1800,OVC,9000,,,,,IFR,,,,,,,,,,,,METAR,11.0
VEBU 230800Z 34012KT 6000 NSC 30/16 Q1012 NOSIG,VEBU,2022-10-23T08:00:00Z,21.98,82.12,30.0,16.0,340,12,,3.73,29.88189,,,,,,TRUE,,,,,CLR,,,,,,,,MVFR,,,,,,,,,,,,METAR,274.0
VEBS 230800Z 04005KT 3500 HZ SCT018 SCT100 29/25 Q1010 NOSIG,VEBS,2022-10-23T08:00:00Z,20.25,85.82,29.0,25.0,40,5,,2.17,29.822834,,,,,,TRUE,,,,HZ,SCT,1800,SCT,10000,,,,,IFR,,,,,,,,,,,,METAR,42.0
VEBN 230800Z 31004KT 4000 HZ NSC 33/17 Q1013 NOSIG,VEBN,2022-10-23T08:00:00Z,25.45,82.85,33.0,17.0,310,4,,2.49,29.911417,,,,,,TRUE,,,,HZ,CLR,,,,,,,,IFR,,,,,,,,,,,,METAR,81.0
VEAT 230800Z 34003KT 3500 -RA SCT018 BKN100 30/27 Q1009 BECMG 3000 -RA BR,VEAT,2022-10-23T08:00:00Z,23.88,91.25,30.0,27.0,340,3,,2.17,29.793306,,,,,,,,,,-RA,SCT,1800,BKN,10000,,,,,IFR,,,,,,,,,,,,METAR,20.0
VDSV 230800Z 25008KT 9999 SCT015 FEW017CB 31/25 Q1008 RMK CB:N,VDSV,2022-10-23T08:00:00Z,10.58,103.63,31.0,25.0,250,8,,6.21,29.763779,,,,,,,,,,,SCT,1500,FEW,1700,,,,,VFR,,,,,,,,,,,,METAR,1.0
VDSR 230800Z 20007KT 150V250 9999 SCT015 30/23 Q1008,VDSR,2022-10-23T08:00:00Z,13.42,103.8,30.0,23.0,200,7,,6.21,29.763779,,,,,,,,,,,SCT,1500,,,,,,,VFR,,,,,,,,,,,,METAR,16.0
VDPP 230800Z 02008KT 9999 SCT015 FEW017CB 32/25 Q1007 RMK CB:S/SE/NE,VDPP,2022-10-23T08:00:00Z,11.55,104.83,32.0,25.0,20,8,,6.21,29.734253,,,,,,,,,,,SCT,1500,FEW,1700,,,,,VFR,,,,,,,,,,,,METAR,10.0
VAUD 230800Z 36005KT 6000 NSC 32/08 Q1017 NOSIG,VAUD,2022-10-23T08:00:00Z,24.62,73.9,32.0,8.0,360,5,,3.73,30.029528,,,,,,TRUE,,,,,CLR,,,,,,,,MVFR,,,,,,,,,,,,METAR,506.0
VASU 230800Z 05004KT 6000 NSC 34/13 Q1013 NOSIG,VASU,2022-10-23T08:00:00Z,21.12,72.73,34.0,13.0,50,4,,3.73,29.911417,,,,,,TRUE,,,,,CLR,,,,,,,,MVFR,,,,,,,,,,,,METAR,6.0
VASD 230800Z 07008KT 5000 HZ NSC 28/09 Q1016 NOSIG,VASD,2022-10-23T08:00:00Z,19.68,74.38,28.0,9.0,70,8,,3.11,30.0,,,,,,TRUE,,,,HZ,CLR,,,,,,,,MVFR,,,,,,,,,,,,METAR,587.0
VARK 230800Z 14005KT 6000 NSC 35/10 Q1014 NOSIG,VARK,2022-10-23T08:00:00Z,22.3,70.77,35.0,10.0,140,5,,3.73,29.940945,,,,,,TRUE,,,,,CLR,,,,,,,,MVFR,,,,,,,,,,,,METAR,125.0
VAPR 230800Z 05012KT 6000 NSC 33/16 Q1013 NOSIG,VAPR,2022-10-23T08:00:00Z,21.63,69.67,33.0,16.0,50,12,,3.73,29.911417,,,,,,TRUE,,,,,CLR,,,,,,,,MVFR,,,,,,,,,,,,METAR,8.0
VANP 230800Z 02006KT 5000 NSC 30/16 Q1014 NOSIG,VANP,2022-10-23T08:00:00Z,21.08,79.05,30.0,16.0,20,6,,3.11,29.940945,,,,,,TRUE,,,,,CLR,,,,,,,,MVFR,,,,,,,,,,,,METAR,309.0
VAKS 230800Z 07010KT 5000 FU NSC 36/05 Q1014 NOSIG,VAKS,2022-10-23T08:00:00Z,21.32,70.32,36.0,5.0,70,10,,3.11,29.940945,,,,,,TRUE,,,,FU,CLR,,,,,,,,MVFR,,,,,,,,,,,,METAR,51.0
VAKP 230800Z 04008KT 8000 FEW020 29/11 Q1016,VAKP,2022-10-23T08:00:00Z,16.65,74.28,29.0,11.0,40,8,,4.97,30.0,,,,,,,,,,,FEW,2000,,,,,,,MVFR,,,,,,,,,,,,METAR,612.0
VAKE 230800Z 06004KT 5000 FU NSC 36/10 Q1014 NOSIG,VAKE,2022-10-23T08:00:00Z,23.13,70.12,36.0,10.0,60,4,,3.11,29.940945,,,,,,TRUE,,,,FU,CLR,,,,,,,,MVFR,,,,,,,,,,,,METAR,29.0
VAJJ 230800Z 05008KT 5000 FU NSC 33/14 Q1012 NOSIG,VAJJ,2022-10-23T08:00:00Z,19.08,72.83,33.0,14.0,50,8,,3.11,29.88189,,,,,,TRUE,,,,FU,CLR,,,,,,,,MVFR,,,,,,,,,,,,METAR,1.0
VAJB 230800Z 02003KT 5000 HZ NSC 30/16 Q1016 NOSIG,VAJB,2022-10-23T08:00:00Z,23.18,80.05,30.0,16.0,20,3,,3.11,30.0,,,,,,TRUE,,,,HZ,CLR,,,,,,,,MVFR,,,,,,,,,,,,METAR,489.0
VAID 230800Z 03003KT 6000 NSC 31/10 Q1017 NOSIG,VAID,2022-10-23T08:00:00Z,22.72,75.8,31.0,10.0,30,3,,3.73,30.029528,,,,,,TRUE,,,,,CLR,,,,,,,,MVFR,,,,,,,,,,,,METAR,564.0
VABV 230800Z 35007KT 6000 NSC 34/11 Q1014,VABV,2022-10-23T08:00:00Z,21.75,72.2,34.0,11.0,350,7,,3.73,29.940945,,,,,,,,,,,CLR,,,,,,,,MVFR,,,,,,,,,,,,METAR,8.0
VABP 230800Z 34010KT 6000 NSC 31/06 Q1016 NOSIG,VABP,2022-10-23T08:00:00Z,23.28,77.33,31.0,6.0,340,10,,3.73,30.0,,,,,,TRUE,,,,,CLR,,,,,,,,MVFR,,,,,,,,,,,,METAR,520.0
VABO 230800Z 03005KT 6000 NSC 34/16 Q1013 NOSIG,VABO,2022-10-23T08:00:00Z,22.33,73.22,34.0,16.0,30,5,,3.73,29.911417,,,,,,TRUE,,,,,CLR,,,,,,,,MVFR,,,,,,,,,,,,METAR,36.0
VABB 230800Z 11006KT 4000 FU NSC 33/11 Q1012 NOSIG,VABB,2022-10-23T08:00:00Z,19.1,72.87,33.0,11.0,110,6,,2.49,29.88189,,,,,,TRUE,,,,FU,CLR,,,,,,,,IFR,,,,,,,,,,,,METAR,14.0
VAAH 230800Z 36005KT 6000 NSC 36/13 Q1013 NOSIG,VAAH,2022-10-23T08:00:00Z,23.07,72.63,36.0,13.0,360,5,,3.73,29.911417,,,,,,TRUE,,,,,CLR,,,,,,,,MVFR,,,,,,,,,,,,METAR,52.0
UWWW 230800Z 19005MPS 9999 SCT033 02/M02 Q1024 R15/CLRD60 NOSIG RMK QFE757/1009,UWWW,2022-10-23T08:00:00Z,53.5,50.17,2.0,-2.0,190,10,,6.21,30.236221,,,,,,TRUE,,,,,SCT,3300,,,,,,,VFR,,,,,,,,,,,,METAR,124.0
UWUU 230800Z 20005MPS CAVOK 03/M04 Q1027 R14R/0///60 NOSIG,UWUU,2022-10-23T08:00:00Z,54.57,55.87,3.0,-4.0,200,10,,6.21,30.324802,,,,,,TRUE,,,,,CAVOK,,,,,,,,VFR,,,,,,,,,,,,METAR,137.0
UWSG 230800Z 21003MPS 160V250 CAVOK 06/01 Q1025 R08/CLRD70 NOSIG RMK QFE766/1022,UWSG,2022-10-23T08:00:00Z,51.72,46.17,6.0,1.0,210,6,,6.21,30.265747,,,,,,TRUE,,,,,CAVOK,,,,,,,,VFR,,,,,,,,,,,,METAR,31.0
UWPS 230800Z 19006MPS 9999 OVC030 04/02 Q1021 R20/CLRD60 NOSIG RMK QFE748,UWPS,2022-10-23T08:00:00Z,54.12,45.2,4.0,2.0,190,12,,6.21,30.147638,,,,,,TRUE,,,,,OVC,3000,,,,,,,MVFR,,,,,,,,,,,,METAR,206.0
UWOR 230800Z 28002MPS 240V340 CAVOK 01/M06 Q1030 R25/150060 NOSIG RMK QFE749/0998,UWOR,2022-10-23T08:00:00Z,51.07,58.6,1.0,-6.0,280,4,,6.21,30.413385,,,,,,TRUE,,,,,CAVOK,,,,,,,,VFR,,,,,,,,,,,,METAR,270.0
UWOO 230800Z 11002MPS 030V150 9999 FEW024 04/M02 Q1030 R26/65D NOSIG RMK QFE762/1016,UWOO,2022-10-23T08:00:00Z,51.8,55.47,4.0,-2.0,110,4,,6.21,30.413385,,,,,,TRUE,,,,,FEW,2400,,,,,,,VFR,,,,,,,,,,,,METAR,90.0
UWLW 230800Z 21005MPS CAVOK 05/01 Q1023 R20/CLRD60 NOSIG RMK QFE762/1016,UWLW,2022-10-23T08:00:00Z,54.4,48.8,5.0,1.0,210,10,,6.21,30.206694,,,,,,TRUE,,,,,CAVOK,,,,,,,,VFR,,,,,,,,,,,,METAR,67.0
UWLL 230800Z 22006MPS 9999 BKN014CB 05/02 Q1023 R20/090065 NOSIG RMK QFE757/1009,UWLL,2022-10-23T08:00:00Z,54.27,48.23,5.0,2.0,220,12,,6.21,30.206694,,,,,,TRUE,,,,,BKN,1400,,,,,,,MVFR,,,,,,,,,,,,METAR,119.0
UWKS 230800Z 20004MPS 9999 BKN043 03/00 Q1020 R24/010060 NOSIG RMK QFE751,UWKS,2022-10-23T08:00:00Z,56.08,47.35,3.0,0.0,200,8,,6.21,30.11811,,,,,,TRUE,,,,,BKN,4300,,,,,,,VFR,,,,,,,,,,,,METAR,165.0
UWKE 230800Z 20003MPS 9999 OVC044 01/M03 Q1023 R21/090070 NOSIG RMK QFE751/1001,UWKE,2022-10-23T08:00:00Z,55.57,52.08,1.0,-3.0,200,6,,6.21,30.206694,,,,,,TRUE,,,,,OVC,4400,,,,,,,VFR,,,,,,,,,,,,METAR,193.0
UWKD 230800Z 15003MPS 120V180 9999 OVC046 03/01 Q1022 R11/60D NOSIG RMK QFE756/1008,UWKD,2022-10-23T08:00:00Z,55.62,49.28,3.0,1.0,150,6,,6.21,30.177166,,,,,,TRUE,,,,,OVC,4600,,,,,,,VFR,,,,,,,,,,,,METAR,114.0
UWGG 230800Z 18005MPS 9999 OVC046 05/02 Q1018 R18L/090060 NOSIG,UWGG,2022-10-23T08:00:00Z,56.23,43.78,5.0,2.0,180,10,,6.21,30.059055,,,,,,TRUE,,,,,OVC,4600,,,,,,,VFR,,,,,,,,,,,,METAR,73.0
UUYY 230800Z 21006MPS 9999 BKN033 00/M02 Q1006 R18/61D NOSIG RMK QFE746/0995,UUYY,2022-10-23T08:00:00Z,61.65,50.83,0.0,-2.0,210,12,,6.21,29.704725,,,,,,TRUE,,,,,BKN,3300,,,,,,,VFR,,,,,,,,,,,,METAR,107.0
UUWW 230800Z 15003MPS 9999 BKN007 OVC016 04/02 Q1013 R24/000070 NOSIG,UUWW,2022-10-23T08:00:00Z,55.6,37.27,4.0,2.0,150,6,,6.21,29.911417,,,,,,TRUE,,,,,BKN,700,OVC,1600,,,,,IFR,,,,,,,,,,,,METAR,195.0
UUOO 230800Z 15005MPS CAVOK 07/04 Q1017 R12/010070 NOSIG RMK QFE749,UUOO,2022-10-23T08:00:00Z,51.82,39.23,7.0,4.0,150,10,,6.21,30.029528,,,,,,TRUE,,,,,CAVOK,,,,,,,,VFR,,,,,,,,,,,,METAR,154.0
UUOL 230800Z 16006MPS 9999 -RA NSC 06/05 Q1017 R15/090060 NOSIG,UUOL,2022-10-23T08:00:00Z,52.7,39.53,6.0,5.0,160,12,,6.21,30.029528,,,,,,TRUE,,,,-RA,CLR,,,,,,,,VFR,,,,,,,,,,,,METAR,176.0
UUOK 230800Z 18005MPS 5000 -RA OVC004 08/07 Q1014 R12/190055 NOSIG RMK QBB120 QFE742/0990,UUOK,2022-10-23T08:00:00Z,51.75,36.28,8.0,7.0,180,10,,3.11,29.940945,,,,,,TRUE,,,,-RA,OVC,400,,,,,,,LIFR,,,,,,,,,,,,METAR,203.0
UUOB 230800Z 16005MPS 9999 OVC010 09/07 Q1015 R11/010070 NOSIG,UUOB,2022-10-23T08:00:00Z,50.65,36.58,9.0,7.0,160,10,,6.21,29.970472,,,,,,TRUE,,,,,OVC,1000,,,,,,,MVFR,,,,,,,,,,,,METAR,218.0
UUMO 230800Z 17003MPS 130V200 9999 OVC009 05/05 Q1013 R25/CLRD60 NOSIG RMK QFE745/0993,UUMO,2022-10-23T08:00:00Z,55.52,37.5,5.0,5.0,170,6,,6.21,29.911417,,,,,,TRUE,,,,,OVC,900,,,,,,,IFR,,,,,,,,,,,,METAR,167.0
UUEE 230800Z 18003MPS 150V210 9999 BKN012 06/03 Q1012 R24L/CLRD62 R24C/CLRD62 NOSIG,UUEE,2022-10-23T08:00:00Z,55.97,37.42,6.0,3.0,180,6,,6.21,29.88189,,,,,,TRUE,,,,,BKN,1200,,,,,,,MVFR,,,,,,,,,,,,METAR,186.0
UUDL 230800Z 20003MPS 9999 BKN040 07/02 Q1013 R23/010060 NOSIG RMK QFE752,UUDL,2022-10-23T08:00:00Z,57.57,40.17,7.0,2.0,200,6,,6.21,29.911417,,,,,,TRUE,,,,,BKN,4000,,,,,,,VFR,,,,,,,,,,,,METAR,88.0
UUDD 230800Z 17005MPS 9999 OVC007 05/03 Q1013 R88/60D NOSIG,UUDD,2022-10-23T08:00:00Z,55.4,37.9,5.0,3.0,170,10,,6.21,29.911417,,,,,,TRUE,,,,,OVC,700,,,,,,,IFR,,,,,,,,,,,,METAR,165.0
UUBW 230800Z 14003MPS 9999 SCT007 BKN020 05/03 Q1014 R30/010060 NOSIG,UUBW,2022-10-23T08:00:00Z,55.55,38.15,5.0,3.0,140,6,,6.21,29.940945,,,,,,TRUE,,,,,SCT,700,BKN,2000,,,,,MVFR,,,,,,,,,,,,METAR,111.0
UUBP 230800Z 17003MPS 8000 -RA OVC005 08/08 Q1011 R16/////// NOSIG RMK QFE740/0987,UUBP,2022-10-23T08:00:00Z,53.22,34.18,8.0,8.0,170,6,,4.97,29.852362,,,,,,TRUE,,,,-RA,OVC,500,,,,,,,IFR,,,,,,,,,,,,METAR,197.0
UUBC 230800Z 13002MPS 3900 -RA BR OVC002 05/05 Q1012 R31/190055 NOSIG RMK QBB080 QFE742/0990,UUBC,2022-10-23T08:00:00Z,54.55,36.37,5.0,5.0,130,4,,2.42,29.88189,,,,,,TRUE,,,,-RA BR,OVC,200,,,,,,,LIFR,,,,,,,,,,,,METAR,198.0
UTTT 230800Z 33006KT 300V360 7000 SCT010 BKN046CB 12/10 Q1029 R08L/29//50 NOSIG,UTTT,2022-10-23T08:00:00Z,41.27,69.27,12.0,10.0,330,6,,4.35,30.383858,,,,,,TRUE,,,,,SCT,1000,BKN,4600,,,,,MVFR,,,,,,,,,,,,METAR,429.0
UTST 230800Z 27010KT 6000 NSC 22/06 Q1025 R25/CLRD70 NOSIG,UTST,2022-10-23T08:00:00Z,37.28,67.32,22.0,6.0,270,10,,3.73,30.265747,,,,,,TRUE,,,,,CLR,,,,,,,,MVFR,,,,,,,,,,,,SPECI,311.0
UTSS 230800Z VRB02KT 9999 -SHRA BKN056CB 12/10 Q1027 R27/290255 NOSIG,UTSS,2022-10-23T08:00:00Z,39.7,66.98,12.0,10.0,0,2,,6.21,30.324802,,,,,,TRUE,,,,-SHRA,BKN,5600,,,,,,,VFR,,,,,,,,,,,,METAR,665.0
UTSK 230800Z 33010KT 9999 FEW050CB 14/11 Q1028 R34/190060,UTSK,2022-10-23T08:00:00Z,38.8,65.77,14.0,11.0,330,10,,6.21,30.35433,,,,,,,,,,,FEW,5000,,,,,,,VFR,,,,,,,,,,,,SPECI,399.0
UTSB 230800Z 35008KT 320V020 CAVOK 15/07 Q1028 R01/CLRD70 NOSIG,UTSB,2022-10-23T08:00:00Z,39.77,64.48,15.0,7.0,350,8,,6.21,30.35433,,,,,,TRUE,,,,,CAVOK,,,,,,,,VFR,,,,,,,,,,,,SPECI,225.0
UTSA 230800Z VRB02KT 9000 NSC 15/07 Q1028 R25/CLRD70 NOSIG,UTSA,2022-10-23T08:00:00Z,40.12,65.17,15.0,7.0,0,2,,5.59,30.35433,,,,,,TRUE,,,,,CLR,,,,,,,,VFR,,,,,,,,,,,,SPECI,346.0
UTNU 230800Z VRB02KT CAVOK 13/02 Q1030 R31/CLRD70 NOSIG,UTNU,2022-10-23T08:00:00Z,41.58,60.63,13.0,2.0,0,2,,6.21,30.413385,,,,,,TRUE,,,,,CAVOK,,,,,,,,VFR,,,,,,,,,,,,SPECI,97.0
UTNN 230800Z 14002KT 9999 SCT034 11/01 Q1031 R33/CLRD60 NOSIG,UTNN,2022-10-23T08:00:00Z,42.48,59.63,11.0,1.0,140,2,,6.21,30.442913,,,,,,TRUE,,,,,SCT,3400,,,,,,,VFR,,,,,,,,,,,,SPECI,76.0
UTFN 230800Z 03004KT 360V070 4800 -SHRA BR OVC050CB 13/08 Q1027 R28/290060 NOSIG,UTFN,2022-10-23T08:00:00Z,40.98,71.57,13.0,8.0,30,4,,2.98,30.324802,,,,,,TRUE,,,,-SHRA BR,OVC,5000,,,,,,,IFR,,,,,,,,,,,,METAR,477.0
UTFF 230800Z 01008KT 9000 NSC 17/06 Q1027 R18/CLRD70,UTFF,2022-10-23T08:00:00Z,40.37,71.73,17.0,6.0,10,8,,5.59,30.324802,,,,,,,,,,,CLR,,,,,,,,VFR,,,,,,,,,,,,METAR,612.0
UTDT 230800Z 22002MPS 160V310 3600 HZ FEW026 SCT100 23/10 Q1024 R35/CLRD70 RMK QFE728/0971,UTDT,2022-10-23T08:00:00Z,37.87,68.87,23.0,10.0,220,4,,2.24,30.236221,,,,,,,,,,HZ,FEW,2600,SCT,10000,,,,,IFR,,,,,,,,,,,,METAR,443.0
UTDL 230800Z 24006MPS 9999 SCT060CB OVC086 12/07 Q1028 R26/CLRD70 NOSIG RMK QFE733/0977,UTDL,2022-10-23T08:00:00Z,40.22,69.7,12.0,7.0,240,12,,6.21,30.35433,,,,,,TRUE,,,,,SCT,6000,OVC,8600,,,,,VFR,,,,,,,,,,,,METAR,436.0
UTDK 230800Z VRB02MPS 3600 HZ OVC025 21/09 Q1026 R01/09//70 RMK QFE712/0949,UTDK,2022-10-23T08:00:00Z,37.98,69.8,21.0,9.0,0,4,,2.24,30.295275,,,,,,,,,,HZ,OVC,2500,,,,,,,IFR,,,,,,,,,,,,METAR,675.0
UTDD 230800Z 23003MPS 180V270 4500 HZ FEW066 SCT130 21/07 Q1026 R09/CLRD// NOSIG RMK QFE701/0934,UTDD,2022-10-23T08:00:00Z,38.53,68.82,21.0,7.0,230,6,,2.8,30.295275,,,,,,TRUE,,,,HZ,FEW,6600,SCT,13000,,,,,IFR,,,,,,,,,,,,METAR,785.0
UTAV 230800Z 36008KT 320V030 9999 FEW050CB BKN100 13/09 Q1029 R31/CLRD70 NOSIG,UTAV,2022-10-23T08:00:00Z,39.08,63.62,13.0,9.0,360,8,,6.21,30.383858,,,,,,TRUE,,,,,FEW,5000,BKN,10000,,,,,VFR,,,,,,,,,,,,METAR,187.0
UTAT 230800Z VRB02KT CAVOK 13/03 Q1030 R08/CLRD70 NOSIG,UTAT,2022-10-23T08:00:00Z,41.77,59.83,13.0,3.0,0,2,,6.21,30.413385,,,,,,TRUE,,,,,CAVOK,,,,,,,,VFR,,,,,,,,,,,,METAR,84.0
UTAM 230800Z 05006KT CAVOK 18/07 Q1029 R88/CLRD7 NOSIG,UTAM,2022-10-23T08:00:00Z,37.62,61.9,18.0,7.0,50,6,,6.21,30.383858,,,,,,TRUE,,,,,CAVOK,,,,,,,,VFR,,,,,,,,,,,,METAR,218.0
UTAK 230800Z 07012KT CAVOK 14/05 Q1026 R16R/CLRD70 NOSIG,UTAK,2022-10-23T08:00:00Z,40.05,53.0,14.0,5.0,70,12,,6.21,30.295275,,,,,,TRUE,,,,,CAVOK,,,,,,,,VFR,,,,,,,,,,,,METAR,83.0
UTAA 230800Z 11006KT 080V140 9999 FEW017CB OVC017 14/11 Q1027 R88/CLRD70 NOSIG,UTAA,2022-10-23T08:00:00Z,37.98,58.37,14.0,11.0,110,6,,6.21,30.324802,,,,,,TRUE,,,,,FEW,1700,OVC,1700,,,,,MVFR,,,,,,,,,,,,METAR,207.0
USTR 230800Z 29007MPS 9999 SCT036CB 02/M07 Q1018 R30/CLRD65 R21/CLRD65 NOSIG,USTR,2022-10-23T08:00:00Z,57.18,65.32,2.0,-7.0,290,14,,6.21,30.059055,,,,,,TRUE,,,,,SCT,3600,,,,,,,VFR,,,,,,,,,,,,METAR,93.0
USSS 230800Z 27010MPS 9999 SCT039 02/M08 Q1021 R26R/010060 R26L/010060 TEMPO 27010G16MPS RMK QFE745/0993,USSS,2022-10-23T08:00:00Z,56.75,60.78,2.0,-8.0,270,19,,6.21,30.147638,,,,,,,,,,,SCT,3900,,,,,,,VFR,,,,,,,,,,,,METAR,222.0
USRR 230800Z 28007MPS 9999 SCT011 M01/M03 Q1003 R25/CLRD60 NOSIG RMK QFE747,USRR,2022-10-23T08:00:00Z,61.33,73.42,-1.0,-3.0,280,14,,6.21,29.616142,,,,,,TRUE,,,,,SCT,1100,,,,,,,VFR,,,,,,,,,,,,METAR,52.0
USPP 230800Z 23008MPS 9999 SCT040 03/M05 Q1020 R21/090060 NOSIG RMK QFE754,USPP,2022-10-23T08:00:00Z,57.92,56.02,3.0,-5.0,230,16,,6.21,30.11811,,,,,,TRUE,,,,,SCT,4000,,,,,,,VFR,,,,,,,,,,,,METAR,120.0
USNN 230800Z 29004MPS 9999 OVC020 00/M04 Q1001 R21/0///65 NOSIG RMK QFE746,USNN,2022-10-23T08:00:00Z,60.95,76.48,0.0,-4.0,290,8,,6.21,29.557087,,,,,,TRUE,,,,,OVC,2000,,,,,,,MVFR,,,,,,,,,,,,METAR,52.0
USHH 230800Z 26007MPS 9999 SCT022 00/M05 Q1007 R24/010060 NOSIG,USHH,2022-10-23T08:00:00Z,61.03,69.08,0.0,-5.0,260,14,,6.21,29.734253,,,,,,TRUE,,,,,SCT,2200,,,,,,,VFR,,,,,,,,,,,,METAR,46.0
USDA 230800Z 33005MPS 9999 -SHSN SCT008 BKN033CB M01/M02 Q0986 R04/520245 NOSIG RMK QFE738/0985,USDA,2022-10-23T08:00:00Z,71.2,72.05,-1.0,-2.0,330,10,,6.21,29.114174,,,,,,TRUE,,,,-SHSN,SCT,800,BKN,3300,,,,,VFR,,,,,,,,,,,,METAR,5.0
USCM 230800Z 23004MPS 9999 NSC 02/M09 Q1025 R18/090060 TEMPO 27013MPS RMK QFE731,USCM,2022-10-23T08:00:00Z,53.4,58.75,2.0,-9.0,230,8,,6.21,30.265747,,,,,,,,,,,CLR,,,,,,,,VFR,,,,,,,,,,,,METAR,425.0
USCC 230800Z 30007MPS CAVOK 03/M09 Q1023 R27/000060 NOSIG RMK QFE747,USCC,2022-10-23T08:00:00Z,55.3,61.5,3.0,-9.0,300,14,,6.21,30.206694,,,,,,TRUE,,,,,CAVOK,,,,,,,,VFR,,,,,,,,,,,,METAR,227.0
URWW 230800Z 22005MPS 200V260 CAVOK 10/01 Q1025 R24/010070 NOSIG,URWW,2022-10-23T08:00:00Z,48.78,44.33,10.0,1.0,220,10,,6.21,30.265747,,,,,,TRUE,,,,,CAVOK,,,,,,,,VFR,,,,,,,,,,,,METAR,131.0
URWI 230800Z 19006MPS 160V220 CAVOK 12/02 Q1025 R09/010065 NOSIG,URWI,2022-10-23T08:00:00Z,46.37,44.33,12.0,2.0,190,12,,6.21,30.265747,,,,,,TRUE,,,,,CAVOK,,,,,,,,VFR,,,,,,,,,,,,METAR,145.0
URWA 230800Z 18002MPS 140V230 CAVOK 10/00 Q1029 R27/010070 NOSIG RMK QFE773/1031,URWA,2022-10-23T08:00:00Z,46.28,47.98,10.0,0.0,180,4,,6.21,30.383858,,,,,,TRUE,,,,,CAVOK,,,,,,,,VFR,,,,,,,,,,,,METAR,-19.0
URSS 230800Z 00000MPS 9999 NSC 17/05 Q1023 R02/010070 R06/010070 NOSIG RMK R06/09001MPS QFE765,URSS,2022-10-23T08:00:00Z,43.45,39.92,17.0,5.0,0,0,,6.21,30.206694,,,,,,TRUE,,,,,CLR,,,,,,,,VFR,,,,,,,,,,,,METAR,4.0
URRP 230800Z 15004MPS CAVOK 12/04 Q1022 R05/CLRD70 NOSIG RMK QFE762/1016,URRP,2022-10-23T08:00:00Z,47.5,39.92,12.0,4.0,150,8,,6.21,30.177166,,,,,,TRUE,,,,,CAVOK,,,,,,,,VFR,,,,,,,,,,,,METAR,73.0
URMT 230800Z 16004MPS CAVOK 12/02 Q1023 R25/010070 NOSIG RMK QFE729,URMT,2022-10-23T08:00:00Z,45.12,42.12,12.0,2.0,160,8,,6.21,30.206694,,,,,,TRUE,,,,,CAVOK,,,,,,,,VFR,,,,,,,,,,,,METAR,448.0
URMO 230800Z 08003MPS 050V110 9999 NSC 12/02 Q1025 R09/010070 NOSIG RMK QFE724/0966,URMO,2022-10-23T08:00:00Z,43.2,44.6,12.0,2.0,80,6,,6.21,30.265747,,,,,,TRUE,,,,,CLR,,,,,,,,VFR,,,,,,,,,,,,METAR,505.0
URMN 230800Z 09004MPS 9999 NSC 13/03 Q1024 R24/010070 NOSIG RMK QFE731,URMN,2022-10-23T08:00:00Z,43.52,43.63,13.0,3.0,90,8,,6.21,30.236221,,,,,,TRUE,,,,,CLR,,,,,,,,VFR,,,,,,,,,,,,METAR,424.0
URMM 230800Z 11006MPS 9999 NSC 13/02 Q1024 R12/090070 NOSIG RMK QFE739/0986,URMM,2022-10-23T08:00:00Z,44.22,43.07,13.0,2.0,110,12,,6.21,30.236221,,,,,,TRUE,,,,,CLR,,,,,,,,VFR,,,,,,,,,,,,METAR,318.0
URML 230800Z 15008MPS 9999 FEW016 SCT033 15/10 Q1026 R14/01//70 NOSIG RMK QFE769/1026,URML,2022-10-23T08:00:00Z,42.82,47.65,15.0,10.0,150,16,,6.21,30.295275,,,,,,TRUE,,,,,FEW,1600,SCT,3300,,,,,VFR,,,,,,,,,,,,METAR,4.0
URMG 230800Z 13004MPS 090V160 CAVOK 12/05 Q1026 R08/090070 NOSIG RMK QFE754/1006,URMG,2022-10-23T08:00:00Z,43.38,45.7,12.0,5.0,130,8,,6.21,30.295275,,,,,,TRUE,,,,,CAVOK,,,,,,,,VFR,,,,,,,,,,,,METAR,160.0
URKK 230800Z 11004MPS CAVOK 14/07 Q1022 R05R/CLRD70 NOSIG RMK QFE763,URKK,2022-10-23T08:00:00Z,45.03,39.15,14.0,7.0,110,8,,6.21,30.177166,,,,,,TRUE,,,,,CAVOK,,,,,,,,VFR,,,,,,,,,,,,METAR,29.0
URKA 230800Z 20009MPS 9999 SCT031 17/09 Q1020 R22/010070 TEMPO 20012G17MPS 2000 TSRA BKN020CB RMK QFE760/1013,URKA,2022-10-23T08:00:00Z,45.0,37.35,17.0,9.0,200,17,,6.21,30.11811,,,,,,,,,,,SCT,3100,,,,,,,VFR,,,1.2,,,,,,,,,METAR,41.0
UOOO 230800Z 18003MPS 9999 BKN019CB M04/M04 Q0986 R19/39//42 NOSIG RMK QFE724/0965,UOOO,2022-10-23T08:00:00Z,69.32,87.33,-4.0,-4.0,180,6,,6.21,29.114174,,,,,,TRUE,,,,,BKN,1900,,,,,,,MVFR,,,,,,,,,,,,METAR,177.0
UNWW 230800Z 22017G24MPS CAVOK 10/00 Q1004 R19/09//60 NOSIG RMK QFE726,UNWW,2022-10-23T08:00:00Z,53.82,86.88,10.0,0.0,220,33,47,6.21,29.64567,,,,,,TRUE,,,,,CAVOK,,,,,,,,VFR,,,,,,,,,,,,METAR,307.0
UNTT 230800Z 30006MPS 8000 -SHSN SCT010 BKN017CB 01/00 Q0997 R21/290250 NOSIG RMK QFE733,UNTT,2022-10-23T08:00:00Z,56.38,85.22,1.0,0.0,300,12,,4.97,29.438976,,,,,,TRUE,,,,-SHSN,SCT,1000,BKN,1700,,,,,MVFR,,,,,,,,,,,,METAR,179.0
UNOO 230800Z 26006MPS 9999 SCT033CB BKN040 01/M02 Q1017 R25/290150 NOSIG RMK QFE754,UNOO,2022-10-23T08:00:00Z,54.97,73.32,1.0,-2.0,260,12,,6.21,30.029528,,,,,,TRUE,,,,,SCT,3300,BKN,4000,,,,,VFR,,,,,,,,,,,,METAR,85.0
UNNT 230800Z 31008MPS 9999 OVC023CB 02/M02 Q1005 R25/250155 R34/090070 NOSIG RMK QFE744/0992,UNNT,2022-10-23T08:00:00Z,55.02,82.65,2.0,-2.0,310,16,,6.21,29.675198,,,,,,TRUE,,,,,OVC,2300,,,,,,,MVFR,,,,,,,,,,,,METAR,106.0
UNKL 230800Z 24008G13MPS CAVOK 15/04 Q0995 R29/120065 NOSIG RMK QFE721,UNKL,2022-10-23T08:00:00Z,56.17,92.48,15.0,4.0,240,16,25,6.21,29.379921,,,,,,TRUE,,,,,CAVOK,,,,,,,,VFR,,,,,,,,,,,,METAR,278.0
UNEE 230800Z 23014G21MPS 9000 -SHRA BKN015CB 08/03 Q0999 R23/CLRD60 NOSIG RMK QFE726,UNEE,2022-10-23T08:00:00Z,55.27,86.1,8.0,3.0,230,27,41,5.59,29.498032,,,,,,TRUE,,,,-SHRA,BKN,1500,,,,,,,MVFR,,,,,,,,,,,,METAR,261.0
UNBB 230800Z 25014MPS 9999 BKN018CB 04/01 Q1007 R24/190057 NOSIG RMK QFE733,UNBB,2022-10-23T08:00:00Z,53.37,83.53,4.0,1.0,250,27,,6.21,29.734253,,,,,,TRUE,,,,,BKN,1800,,,,,,,MVFR,,,,,,,,,,,,METAR,249.0
UNAA 230800Z 36002MPS CAVOK 14/04 Q1002 R02/CLRD65 NOSIG RMK QFE729,UNAA,2022-10-23T08:00:00Z,53.75,91.4,14.0,4.0,360,4,,6.21,29.586615,,,,,,TRUE,,,,,CAVOK,,,,,,,,VFR,,,,,,,,,,,,METAR,249.0
UMOO 230800Z 29004MPS 5000 BR OVC005 06/05 Q1012 NOSIG RMK QBB150,UMOO,2022-10-23T08:00:00Z,53.95,30.1,6.0,5.0,290,8,,3.11,29.88189,,,,,,TRUE,,,,BR,OVC,500,,,,,,,IFR,,,,,,,,,,,,METAR,188.0
UMMS 230800Z 29003MPS 8000 OVC004 07/07 Q1012 NOSIG RMK QBB130,UMMS,2022-10-23T08:00:00Z,53.88,28.03,7.0,7.0,290,6,,4.97,29.88189,,,,,,TRUE,,,,,OVC,400,,,,,,,LIFR,,,,,,,,,,,,METAR,196.0
UMMG 230800Z 28005MPS 8000 BKN015 BKN066 11/11 Q1014 NOSIG,UMMG,2022-10-23T08:00:00Z,53.6,24.05,11.0,11.0,280,10,,4.97,29.940945,,,,,,TRUE,,,,,BKN,1500,BKN,6600,,,,,MVFR,,,,,,,,,,,,METAR,125.0
UMKK 230800Z 28004MPS 230V300 9999 BKN020 13/11 Q1014 R24/290095 NOSIG RMK QFE759/1013,UMKK,2022-10-23T08:00:00Z,54.88,20.57,13.0,11.0,280,8,,6.21,29.940945,,,,,,TRUE,,,,,BKN,2000,,,,,,,MVFR,,,,,,,,,,,,METAR,6.0
UMGG 230800Z 28004MPS 5000 -SHRA BR OVC009CB 10/09 Q1011 NOSIG,UMGG,2022-10-23T08:00:00Z,52.53,31.02,10.0,9.0,280,8,,3.11,29.852362,,,,,,TRUE,,,,-SHRA BR,OVC,900,,,,,,,IFR,,,,,,,,,,,,METAR,135.0
UMBB 230800Z 28004G07MPS 5000 BR OVC009CB 13/12 Q1016 NOSIG,UMBB,2022-10-23T08:00:00Z,52.12,23.9,13.0,12.0,280,8,14,3.11,30.0,,,,,,TRUE,,,,BR,OVC,900,,,,,,,IFR,,,,,,,,,,,,METAR,138.0
ULWC 230800Z 20002G07MPS 9999 BKN032 06/02 Q1009 R21/010060 NOSIG RMK QFE746/0995,ULWC,2022-10-23T08:00:00Z,59.28,38.02,6.0,2.0,200,4,14,6.21,29.793306,,,,,,TRUE,,,,,BKN,3200,,,,,,,VFR,,,,,,,,,,,,METAR,113.0
ULPB 230800Z 23005MPS 9999 SCT012 OVC033 06/04 Q1002 R19/120055 NOSIG RMK QFE747/0997,ULPB,2022-10-23T08:00:00Z,61.88,34.15,6.0,4.0,230,10,,6.21,29.586615,,,,,,TRUE,,,,,SCT,1200,OVC,3300,,,,,VFR,,,,,,,,,,,,METAR,41.0
ULOO 230800Z 18002MPS 130V230 9999 FEW003 SCT049 02/02 Q1009 R19/090060 NOSIG RMK QBB110 OBST OBSC QFE752,ULOO,2022-10-23T08:00:00Z,57.78,28.4,2.0,2.0,180,4,,6.21,29.793306,,,,,,TRUE,,,,,FEW,300,SCT,4900,,,,,VFR,,,,,,,,,,,,METAR,46.0
ULMM 230800Z 26004MPS 9000 -SHSNRA BKN013CB 01/01 Q0983 R31/690150 NOSIG RMK QFE730,ULMM,2022-10-23T08:00:00Z,68.78,32.75,1.0,1.0,260,8,,5.59,29.02559,,,,,,TRUE,,,,-SHSN -SHRA,BKN,1300,,,,,,,MVFR,,,,,,,,,,,,METAR,79.0
ULLI 230800Z 22003MPS CAVOK 05/03 Q1006 R28R/090060 NOSIG,ULLI,2022-10-23T08:00:00Z,59.8,30.27,5.0,3.0,220,6,,6.21,29.704725,,,,,,TRUE,,,,,CAVOK,,,,,,,,VFR,,,,,,,,,,,,METAR,25.0
ULAA 230800Z 28006MPS 9999 SCT026 05/02 Q0993 R26/290060 NOSIG RMK QFE743/0991,ULAA,2022-10-23T08:00:00Z,64.6,40.72,5.0,2.0,280,12,,6.21,29.320866,,,,,,TRUE,,,,,SCT,2600,,,,,,,VFR,,,,,,,,,,,,METAR,10.0
UIUU 230800Z 11002MPS 060V140 9999 NSC 08/M02 Q1015 R26/60D NOSIG RMK QFE717/0956,UIUU,2022-10-23T08:00:00Z,51.8,107.45,8.0,-2.0,110,4,,6.21,29.970472,,,,,,TRUE,,,,,CLR,,,,,,,,VFR,,,,,,,,,,,,METAR,508.0
UIII 230800Z 15006MPS CAVOK 12/00 Q1008 R12/60D NOSIG RMK QFE714/0952,UIII,2022-10-23T08:00:00Z,52.27,104.37,12.0,0.0,150,12,,6.21,29.763779,,,,,,TRUE,,,,,CAVOK,,,,,,,,VFR,,,,,,,,,,,,METAR,480.0
UIBB 230800Z 20002MPS 150V260 9999 NSC 10/02 Q1003 R12/60D NOSIG RMK QFE710/0946,UIBB,2022-10-23T08:00:00Z,56.37,101.7,10.0,2.0,200,4,,6.21,29.616142,,,,,,TRUE,,,,,CLR,,,,,,,,VFR,,,,,,,,,,,,METAR,485.0
UIAA 230800Z VRB01MPS 9999 NSC 07/M07 Q1018 R29/70D NOSIG RMK QFE705/0940,UIAA,2022-10-23T08:00:00Z,52.02,113.32,7.0,-7.0,0,2,,6.21,30.059055,,,,,,TRUE,,,,,CLR,,,,,,,,VFR,,,,,,,,,,,,METAR,650.0
UHWW 230800Z 32004MPS 9999 BKN040CB 08/M02 Q1017 R25L/0///70 NOSIG RMK QFE762,UHWW,2022-10-23T08:00:00Z,43.4,132.15,8.0,-2.0,320,8,,6.21,30.029528,,,,,,TRUE,,,,,BKN,4000,,,,,,,VFR,,,,,,,,,,,,METAR,11.0
UHSS 230800Z 10002MPS 9999 NSC 02/M01 Q1013 R01/70D NOSIG RMK QFE759/1012,UHSS,2022-10-23T08:00:00Z,46.88,142.72,2.0,-1.0,100,4,,6.21,29.911417,,,,,,TRUE,,,,,CLR,,,,,,,,VFR,,,,,,,,,,,,METAR,14.0
UHPP 230800Z 06002MPS CAVOK M00/M07 Q1009 R34L/CLRD65 NOSIG RMK QFE753/1005,UHPP,2022-10-23T08:00:00Z,53.17,158.45,0.0,-7.0,60,4,,6.21,29.793306,,,,,,TRUE,,,,,CAVOK,,,,,,,,VFR,,,,,,,,,,,,METAR,33.0
UHMM 230800Z 01001MPS 9999 SCT036 M08/M15 Q1010 R10/82//55 NOSIG RMK QFE743 R28/08001MPS,UHMM,2022-10-23T08:00:00Z,59.92,150.72,-8.0,-15.0,10,2,,6.21,29.822834,,,,,,TRUE,,,,,SCT,3600,,,,,,,VFR,,,,,,,,,,,,METAR,175.0
UHMA 230800Z 29004MPS 9999 SCT009 OVC021 M04/M06 Q1006 R01/////// NOSIG RMK TDZ R01/29004G05MPS END R01/28004G05MPS QFE751/1001,UHMA,2022-10-23T08:00:00Z,64.73,177.73,-4.0,-6.0,290,8,,6.21,29.704725,,,,,,TRUE,,,,,SCT,900,OVC,2100,,,,,MVFR,,,,,,,,,,,,METAR,53.0
UHHH 230800Z 00000MPS CAVOK 03/M02 Q1017 R23R/090060 NOSIG RMK QFE756/1008,UHHH,2022-10-23T08:00:00Z,48.52,135.18,3.0,-2.0,0,0,,6.21,30.029528,,,,,,TRUE,,,,,CAVOK,,,,,,,,VFR,,,,,,,,,,,,METAR,74.0
UHBB 230800Z 35002MPS CAVOK 04/M08 Q1019 R36/090060 NOSIG RMK QFE747/0996,UHBB,2022-10-23T08:00:00Z,50.43,127.42,4.0,-8.0,350,4,,6.21,30.088583,,,,,,TRUE,,,,,CAVOK,,,,,,,,VFR,,,,,,,,,,,,METAR,185.0
UGTB 230800Z VRB03KT CAVOK 14/05 Q1027 NOSIG,UGTB,2022-10-23T08:00:00Z,41.67,44.95,14.0,5.0,0,3,,6.21,30.324802,,,,,,TRUE,,,,,CAVOK,,,,,,,,VFR,,,,,,,,,,,,METAR,468.0
UGSB 230800Z 35006KT 320V030 CAVOK 17/10 Q1023 NOSIG,UGSB,2022-10-23T08:00:00Z,41.62,41.6,17.0,10.0,350,6,,6.21,30.206694,,,,,,TRUE,,,,,CAVOK,,,,,,,,VFR,,,,,,,,,,,,METAR,32.0
UGKO 230800Z 09018KT CAVOK 18/07 Q1022 NOSIG,UGKO,2022-10-23T08:00:00Z,42.18,42.48,18.0,7.0,90,18,,6.21,30.177166,,,,,,TRUE,,,,,CAVOK,,,,,,,,VFR,,,,,,,,,,,,METAR,44.0
UERR 230800Z 18008MPS 9999 SCT018CB OVC033 01/M02 Q1002 R25/910050 NOSIG RMK QFE721/0961,UERR,2022-10-23T08:00:00Z,62.53,114.05,1.0,-2.0,180,16,,6.21,29.586615,,,,,,TRUE,,,,,SCT,1800,OVC,3300,,,,,VFR,,,,,,,,,,,,METAR,352.0
UERP 230800Z 21004MPS 4000 -SN BKN010 OVC100 M02/M04 Q0995 RMK QFE702,UERP,2022-10-23T08:00:00Z,66.4,112.03,-2.0,-4.0,210,8,,2.49,29.379921,,,,,,,,,,-SN,BKN,1000,OVC,10000,,,,,IFR,,,,,,,,,,,,METAR,514.0
UEEE 230800Z 17001MPS 9999 SCT020CB M04/M05 Q1015 R23L/490143 NOSIG RMK QFE753,UEEE,2022-10-23T08:00:00Z,62.08,129.77,-4.0,-5.0,170,2,,6.21,29.970472,,,,,,TRUE,,,,,SCT,2000,,,,,,,VFR,,,,,,,,,,,,METAR,106.0
UDYZ 230800Z 11003KT 080V150 9999 NSC 14/06 Q1025 R09/010070 NOSIG,UDYZ,2022-10-23T08:00:00Z,40.15,44.4,14.0,6.0,110,3,,6.21,30.265747,,,,,,TRUE,,,,,CLR,,,,,,,,VFR,,,,,,,,,,,,METAR,851.0
UDSG 230800Z VRB01KT 9999 NSC 10/01 Q1027 R02/CLRD70 NOSIG,UDSG,2022-10-23T08:00:00Z,40.75,43.87,10.0,1.0,0,1,,6.21,30.324802,,,,,,TRUE,,,,,CLR,,,,,,,,VFR,,,,,,,,,,,,METAR,1515.0
UCFO 230800Z 35003MPS 310V010 4400 FU FEW026 14/07 Q1028 R12/0///95 NOSIG,UCFO,2022-10-23T08:00:00Z,40.6,72.8,14.0,7.0,350,6,,2.73,30.35433,,,,,,TRUE,,,,FU,FEW,2600,,,,,,,IFR,,,,,,,,,,,,METAR,881.0
UCFM 230800Z 18002MPS 140V230 9999 -SHRA SCT008 BKN033CB 08/07 Q1029 R26/2///95 NOSIG,UCFM,2022-10-23T08:00:00Z,43.07,74.48,8.0,7.0,180,4,,6.21,30.383858,,,,,,TRUE,,,,-SHRA,SCT,800,BKN,3300,,,,,VFR,,,,,,,,,,,,METAR,632.0
UCFL 230800Z 23004MPS 9999 OVC030CB 11/01 Q1024 R07/CLRD95,UCFL,2022-10-23T08:00:00Z,42.58,76.7,11.0,1.0,230,8,,6.21,30.236221,,,,,,,,,,,OVC,3000,,,,,,,MVFR,,,,,,,,,,,,METAR,1654.0
UBEE 230800Z 34004KT 9999 SCT015 BKN073 16/10 Q1026 NOSIG,UBEE,2022-10-23T08:00:00Z,40.63,47.13,16.0,10.0,340,4,,6.21,30.295275,,,,,,TRUE,,,,,SCT,1500,BKN,7300,,,,,VFR,,,,,,,,,,,,METAR,14.0
UBBZ 230800Z 10006KT 050V150 9999 SCT006 BKN050 12/10 Q1028 NOSIG RMK MT OBSC,UBBZ,2022-10-23T08:00:00Z,,,12.0,10.0,100,6,,6.21,30.35433,,,,,,TRUE,,,,,SCT,600,BKN,5000,,,,,VFR,,,,,,,,,,,,METAR,
UBBY 230800Z 31006KT 9999 SCT100 14/07 Q1029 NOSIG RMK MT OP,UBBY,2022-10-23T08:00:00Z,41.57,46.67,14.0,7.0,310,6,,6.21,30.383858,,,,,,TRUE,,,,,SCT,10000,,,,,,,VFR,,,,,,,,,,,,METAR,383.0
UBBQ 230800Z 23004KT 9999 BKN070 13/07 Q1026 NOSIG RMK MT OBSC,UBBQ,2022-10-23T08:00:00Z,40.82,47.72,13.0,7.0,230,4,,6.21,30.295275,,,,,,TRUE,,,,,BKN,7000,,,,,,,VFR,,,,,,,,,,,,METAR,339.0
UBBN 230800Z VRB02KT 9999 SCT030CB BKN083 12/08 Q1025 NOSIG RMK MT OP QFE693,UBBN,2022-10-23T08:00:00Z,39.18,45.45,12.0,8.0,0,2,,6.21,30.265747,,,,,,TRUE,,,,,SCT,3000,BKN,8300,,,,,VFR,,,,,,,,,,,,METAR,857.0
UBBL 230800Z 34016KT 9999 -RA OVC050 12/12 Q1026 NOSIG RMK MT OBSC,UBBL,2022-10-23T08:00:00Z,38.75,48.82,12.0,12.0,340,16,,6.21,30.295275,,,,,,TRUE,,,,-RA,OVC,5000,,,,,,,VFR,,,,,,,,,,,,METAR,-11.0
UBBG 230800Z 33006KT 290V010 9999 BKN033 14/08 Q1027 NOSIG,UBBG,2022-10-23T08:00:00Z,40.73,46.32,14.0,8.0,330,6,,6.21,30.324802,,,,,,TRUE,,,,,BKN,3300,,,,,,,VFR,,,,,,,,,,,,METAR,333.0
UBBF 230800Z 16004KT 9999 -RA OVC010 12/10 Q1026 NOSIG RMK MT OBSC,UBBF,2022-10-23T08:00:00Z,39.6,47.2,12.0,10.0,160,4,,6.21,30.295275,,,,,,TRUE,,,,-RA,OVC,1000,,,,,,,MVFR,,,,,,,,,,,,METAR,370.0
UBBB 230800Z 10012KT 9999 FEW039CB BKN039 16/11 Q1026 NOSIG,UBBB,2022-10-23T08:00:00Z,40.47,50.07,16.0,11.0,100,12,,6.21,30.295275,,,,,,TRUE,,,,,FEW,3900,BKN,3900,,,,,VFR,,,,,,,,,,,,METAR,94.0
UAUU 230800Z 20005MPS 170V230 9999 BKN043 00/M03 Q1026 NOSIG RMK QFE753/1004,UAUU,2022-10-23T08:00:00Z,53.2,63.55,0.0,-3.0,200,10,,6.21,30.295275,,,,,,TRUE,,,,,BKN,4300,,,,,,,VFR,,,,,,,,,,,,SPECI,177.0
UASS 230800Z 28013G19MPS 9999 BKN040CB 05/M04 Q1021 NOSIG RMK QFE747/0997,UASS,2022-10-23T08:00:00Z,50.35,80.23,5.0,-4.0,280,25,37,6.21,30.147638,,,,,,TRUE,,,,,BKN,4000,,,,,,,VFR,,,,,,,,,,,,SPECI,215.0
UASP 230800Z 28009MPS 3000 SN OVC014 01/M01 Q1020 NOSIG RMK QFE753/1005,UASP,2022-10-23T08:00:00Z,52.2,77.07,1.0,-1.0,280,17,,1.86,30.11811,,,,,,TRUE,,,,SN,OVC,1400,,,,,,,IFR,,,,,,,,,,,,SPECI,122.0
UASK 230800Z 29012MPS 9999 BKN043CB OVC063 07/M02 Q1020 NOSIG RMK QFE740/0986,UASK,2022-10-23T08:00:00Z,50.03,82.5,7.0,-2.0,290,23,,6.21,30.11811,,,,,,TRUE,,,,,BKN,4300,OVC,6300,,,,,VFR,,,,,,,,,,,,METAR,285.0
UARR 230800Z 18005MPS 9999 SCT044 05/M01 Q1028 NOSIG RMK QFE767/1023,UARR,2022-10-23T08:00:00Z,51.15,51.53,5.0,-1.0,180,10,,6.21,30.35433,,,,,,TRUE,,,,,SCT,4400,,,,,,,VFR,,,,,,,,,,,,METAR,33.0
UAOO 230800Z 08003MPS 020V120 9999 BKN040 09/02 Q1032 NOSIG RMK QFE762/1016,UAOO,2022-10-23T08:00:00Z,44.7,65.6,9.0,2.0,80,6,,6.21,30.47244,,,,,,TRUE,,,,,BKN,4000,,,,,,,VFR,,,,,,,,,,,,METAR,130.0
UAKD 230800Z 29002MPS 240V030 CAVOK 04/M10 Q1031 NOSIG RMK QFE739/0986,UAKD,2022-10-23T08:00:00Z,47.7,67.73,4.0,-10.0,290,4,,6.21,30.442913,,,,,,TRUE,,,,,CAVOK,,,,,,,,VFR,,,,,,,,,,,,SPECI,379.0
UAIT 230800Z 27002MPS 9999 SCT036CB 12/01 Q1030 NOSIG RMK QFE745/0994,UAIT,2022-10-23T08:00:00Z,43.32,68.55,12.0,1.0,270,4,,6.21,30.413385,,,,,,TRUE,,,,,SCT,3600,,,,,,,VFR,,,,,,,,,,,,METAR,301.0
UADD 230800Z 02004MPS 9999 OVC029CB 07/05 Q1029 NOSIG RMK QFE713/0951,UADD,2022-10-23T08:00:00Z,42.85,71.3,7.0,5.0,20,8,,6.21,30.383858,,,,,,TRUE,,,,,OVC,2900,,,,,,,MVFR,,,,,,,,,,,,SPECI,663.0
UACP 230800Z 27007MPS 9999 BKN040CB 02/M03 Q1020 NOSIG RMK QFE752/1003,UACP,2022-10-23T08:00:00Z,54.78,69.18,2.0,-3.0,270,14,,6.21,30.11811,,,,,,TRUE,,,,,BKN,4000,,,,,,,VFR,,,,,,,,,,,,SPECI,134.0
UACK 230800Z 28009MPS 9999 BKN014 00/M03 Q1023 NOSIG RMK QFE743/0991,UACK,2022-10-23T08:00:00Z,53.32,69.58,0.0,-3.0,280,17,,6.21,30.206694,,,,,,TRUE,,,,,BKN,1400,,,,,,,MVFR,,,,,,,,,,,,METAR,261.0
UAAT 230800Z 27007MPS 9999 -SHRA SCT011 OVC023CB 07/05 Q1028 NOSIG RMK QFE719/0958,UAAT,2022-10-23T08:00:00Z,45.12,78.45,7.0,5.0,270,14,,6.21,30.35433,,,,,,TRUE,,,,-SHRA,SCT,1100,OVC,2300,,,,,MVFR,,,,,,,,,,,,METAR,588.0
UAAH 230800Z 32009MPS 9999 SCT045 07/M05 Q1027 NOSIG RMK QFE731/0974,UAAH,2022-10-23T08:00:00Z,46.9,75.0,7.0,-5.0,320,17,,6.21,30.324802,,,,,,TRUE,,,,,SCT,4500,,,,,,,VFR,,,,,,,,,,,,SPECI,427.0
TTPP 230800Z 10005KT 9999 -RA VCSH FEW014 23/22 Q1009 NOSIG RMK VCSH-ALQDS,TTPP,2022-10-23T08:00:00Z,10.58,-61.35,23.0,22.0,100,5,,6.21,29.793306,,,,,,TRUE,,,,-RA VCSH,FEW,1400,,,,,,,VFR,,,,,,,,,,,,METAR,11.0
TTCP 230800Z 04003KT 9999 VCSH FEW016 24/23 Q1009 NOSIG RMK VCSH SE,TTCP,2022-10-23T08:00:00Z,11.15,-60.85,24.0,23.0,40,3,,6.21,29.793306,,,,,,TRUE,,,,VCSH,FEW,1600,,,,,,,VFR,,,,,,,,,,,,METAR,13.0
TNCM 230800Z VRB02KT 9999 FEW020 26/24 Q1013 ,TNCM,2022-10-23T08:00:00Z,18.05,-63.12,26.0,24.0,0,2,,6.21,29.911417,,,,,,,,,,,FEW,2000,,,,,,,VFR,,,,,,,,,,,,METAR,9.0
TNCC 230800Z 09007KT 9999 FEW016 28/24 Q1010 NOSIG,TNCC,2022-10-23T08:00:00Z,12.2,-68.97,28.0,24.0,90,7,,6.21,29.822834,,,,,,TRUE,,,,,FEW,1600,,,,,,,VFR,,,,,,,,,,,,METAR,10.0
TLPL 230800Z 08010KT 9999 FEW025 27/23 Q1010 NOSIG,TLPL,2022-10-23T08:00:00Z,13.75,-60.95,27.0,23.0,80,10,,6.21,29.822834,,,,,,TRUE,,,,,FEW,2500,,,,,,,VFR,,,,,,,,,,,,METAR,13.0
TGPY 230800Z VRB02KT 9999 FEW018 27/24 Q1009 NOSIG,TGPY,2022-10-23T08:00:00Z,12.0,-61.78,27.0,24.0,0,2,,6.21,29.793306,,,,,,TRUE,,,,,FEW,1800,,,,,,,VFR,,,,,,,,,,,,METAR,12.0
TFFR 230800Z AUTO 07002KT CAVOK 23/22 Q1011,TFFR,2022-10-23T08:00:00Z,16.27,-61.53,23.0,22.0,70,2,,6.21,29.852362,,,TRUE,,,,,,,,CAVOK,,,,,,,,VFR,,,,,,,,,,,,METAR,6.0
TFFF 230800Z AUTO VRB03KT CAVOK 24/23 Q1010,TFFF,2022-10-23T08:00:00Z,14.6,-61.0,24.0,23.0,0,3,,6.21,29.822834,,,TRUE,,,,,,,,CAVOK,,,,,,,,VFR,,,,,,,,,,,,METAR,3.0
TBPB 230800Z 09009KT 9999 FEW018 27/24 Q1009 NOSIG,TBPB,2022-10-23T08:00:00Z,13.07,-59.48,27.0,24.0,90,9,,6.21,29.793306,,,,,,TRUE,,,,,FEW,1800,,,,,,,VFR,,,,,,,,,,,,METAR,55.0
TAPA 230800Z VRB02KT 9999 FEW020 23/22 Q1011 NOSIG,TAPA,2022-10-23T08:00:00Z,17.13,-61.78,23.0,22.0,0,2,,6.21,29.852362,,,,,,TRUE,,,,,FEW,2000,,,,,,,VFR,,,,,,,,,,,,METAR,15.0
SYCJ 230800Z VRB02KT 9999 FEW015 25/25 Q1009 NOSIG,SYCJ,2022-10-23T08:00:00Z,6.5,-58.25,25.0,25.0,0,2,,6.21,29.793306,,,,,,TRUE,,,,,FEW,1500,,,,,,,VFR,,,,,,,,,,,,METAR,30.0
SUMU 230800Z 16010KT 9999 BKN017 13/09 Q1021 NOSIG,SUMU,2022-10-23T08:00:00Z,-34.83,-56.02,13.0,9.0,160,10,,6.21,30.147638,,,,,,TRUE,,,,,BKN,1700,,,,,,,MVFR,,,,,,,,,,,,METAR,32.0
SULS 230800Z 15010KT 9999 BKN015 12/08 Q1020,SULS,2022-10-23T08:00:00Z,-34.87,-55.1,12.0,8.0,150,10,,6.21,30.11811,,,,,,,,,,,BKN,1500,,,,,,,MVFR,,,,,,,,,,,,METAR,22.0
SPSO 230800Z VRB02KT 5000 BR BKN010 13/12 Q1014 RMK PP000,SPSO,2022-10-23T08:00:00Z,-13.73,-76.22,13.0,12.0,0,2,,3.11,29.940945,,,,,,,,,,BR,BKN,1000,,,,,,,MVFR,,,,,,,,,,,,METAR,8.0
SPRU 230800Z 16010KT 9000 VCFG OVC015 16/13 Q1013 RMK PP000,SPRU,2022-10-23T08:00:00Z,-8.08,-79.12,16.0,13.0,160,10,,5.59,29.911417,,,,,,,,,,VCFG,OVC,1500,,,,,,,MVFR,,,,,,,,,,,,METAR,23.0
SPQT 230800Z 29007KT 4000 TSRA BKN005 FEW020CB OVC100 24/23 Q1009 NOSIG RMK PP036,SPQT,2022-10-23T08:00:00Z,-3.78,-73.32,24.0,23.0,290,7,,2.49,29.793306,,,,,,TRUE,,,,TSRA,BKN,500,FEW,2000,OVC,10000,,,IFR,,,,,,,,,,,,METAR,92.0
SPJC 230800Z 18006KT 9999 OVC012 15/12 Q1014 NOSIG RMK PP000,SPJC,2022-10-23T08:00:00Z,-12.02,-77.12,15.0,12.0,180,6,,6.21,29.940945,,,,,,TRUE,,,,,OVC,1200,,,,,,,MVFR,,,,,,,,,,,,METAR,26.0
SOCA 230800Z AUTO 00000KT CAVOK 24/23 Q1009,SOCA,2022-10-23T08:00:00Z,4.82,-52.37,24.0,23.0,0,0,,6.21,29.793306,,,TRUE,,,,,,,,CAVOK,,,,,,,,VFR,,,,,,,,,,,,METAR,7.0
SMJP 230800Z 09002KT 9999 FEW002 25/24 Q1010 NOSIG,SMJP,2022-10-23T08:00:00Z,5.45,-55.18,25.0,24.0,90,2,,6.21,29.822834,,,,,,TRUE,,,,,FEW,200,,,,,,,VFR,,,,,,,,,,,,METAR,14.0
SLVR 230800Z 30004KT 9999 BKN070 22/19 Q1013,SLVR,2022-10-23T08:00:00Z,-17.63,-63.13,22.0,19.0,300,4,,6.21,29.911417,,,,,,,,,,,BKN,7000,,,,,,,VFR,,,,,,,,,,,,METAR,377.0
SLLP 230800Z 09004KT 4000E VCFG FEW002 SCT200 01/00 Q1036,SLLP,2022-10-23T08:00:00Z,-16.52,-68.17,1.0,0.0,90,4,,2.49,30.590551,,,,,,,,,,VCFG,FEW,200,SCT,20000,,,,,IFR,,,,,,,,,,,,METAR,4061.0
SLCB 230800Z 12008KT 060V180 9999 FEW033 BKN070 16/08 Q1025,SLCB,2022-10-23T08:00:00Z,-17.42,-66.18,16.0,8.0,120,8,,6.21,30.265747,,,,,,,,,,,FEW,3300,BKN,7000,,,,,VFR,,,,,,,,,,,,METAR,2560.0
SKSP 230800Z 06007KT 040V100 999 FEW016 28/25 Q1009 RMK A2982,SKSP,2022-10-23T08:00:00Z,12.58,-81.72,28.0,25.0,60,7,,,29.793306,,,,,,,,,,,FEW,1600,,,,,,,,,,,,,,,,,,,METAR,6.0
SKRG 230800Z VRB02KT 9999 SCT008 BKN080 13/13 Q1024 NOSIG RMK A3025,SKRG,2022-10-23T08:00:00Z,6.17,-75.42,13.0,13.0,0,2,,6.21,30.236221,,,,,,TRUE,,,,,SCT,800,BKN,8000,,,,,VFR,,,,,,,,,,,,METAR,2132.0
SKLT 230800Z 13003KT 9999 -RA SCT010 BKN080 24/23 Q1009 RETSRA RMK A2981,SKLT,2022-10-23T08:00:00Z,-4.2,-69.93,24.0,23.0,130,3,,6.21,29.793306,,,,,,,,,,-RA,SCT,1000,BKN,8000,,,,,VFR,,,,,,,,,,,,METAR,78.0
SKCL 230800Z 00000KT 8000 VCFG SCT020 BKN050 20/20 Q1015 TEMPO DZ RMK A2998,SKCL,2022-10-23T08:00:00Z,3.53,-76.37,20.0,20.0,0,0,,4.97,29.970472,,,,,,,,,,VCFG,SCT,2000,BKN,5000,,,,,MVFR,,,,,,,,,,,,METAR,967.0
SKCG 230800Z 05005KT 010V090 9999 BKN015 26/25 Q1009 RMK A2981,SKCG,2022-10-23T08:00:00Z,10.43,-75.52,26.0,25.0,50,5,,6.21,29.793306,,,,,,,,,,,BKN,1500,,,,,,,MVFR,,,,,,,,,,,,METAR,6.0
SKBQ 230800Z VRB08G18KT 8000 RA BKN010 FEW012CB 23/22 Q1010 NOSIG RMK CB LTNG/W A2983,SKBQ,2022-10-23T08:00:00Z,10.87,-74.77,23.0,22.0,0,8,18,4.97,29.822834,,,,,,TRUE,,,,RA,BKN,1000,FEW,1200,,,,,MVFR,,,,,,,,,,,,METAR,23.0
SKBO 230800Z 20003KT 9999 FEW015 OVC070 12/11 Q1025 REDZ NOSIG RMK A3027,SKBO,2022-10-23T08:00:00Z,4.7,-74.15,12.0,11.0,200,3,,6.21,30.265747,,,,,,TRUE,,,,,FEW,1500,OVC,7000,,,,,VFR,,,,,,,,,,,,METAR,2547.0
SGAS 230800Z 15004KT CAVOK 19/16 Q1015,SGAS,2022-10-23T08:00:00Z,-25.25,-57.52,19.0,16.0,150,4,,6.21,29.970472,,,,,,,,,,,CAVOK,,,,,,,,VFR,,,,,,,,,,,,METAR,83.0
SELT 230800Z 18004KT 9999 SCT016 SCT030 BKN100 10/10 Q1028,SELT,2022-10-23T08:00:00Z,-0.92,-78.62,10.0,10.0,180,4,,6.21,30.35433,,,,,,,,,,,SCT,1600,SCT,3000,BKN,10000,,,VFR,,,,,,,,,,,,METAR,2779.0
SEGU 230800Z 22008KT 9999 FEW013 BKN026 BKN100 22/19 Q1011 NOSIG RMK A2987,SEGU,2022-10-23T08:00:00Z,-2.15,-79.88,22.0,19.0,220,8,,6.21,29.852362,,,,,,TRUE,,,,,FEW,1300,BKN,2600,BKN,10000,,,MVFR,,,,,,,,,,,,METAR,6.0
SECU 230800Z AUTO 00000KT ////NDV ////// 13/12 Q1024 A3026,SECU,2022-10-23T08:00:00Z,-2.88,-78.98,13.0,12.0,0,0,,,30.236221,,,TRUE,,,,,,,,,,,,,,,,,,,,,,,,,,,,METAR,2516.0
SCVM 230800Z 35003KT 310V090 6000 OVC008 10/08 Q1018,SCVM,2022-10-23T08:00:00Z,-32.95,-71.48,10.0,8.0,350,3,,3.73,30.059055,,,,,,,,,,,OVC,800,,,,,,,IFR,,,,,,,,,,,,METAR,136.0
SCVD 230800Z AUTO VRB01KT 9999 OVC031 05/05 Q1017,SCVD,2022-10-23T08:00:00Z,-39.65,-73.08,5.0,5.0,0,1,,6.21,30.029528,,,TRUE,,,,,,,,OVC,3100,,,,,,,VFR,,,,,,,,,,,,METAR,19.0
SCTN 230800Z AUTO 35013KT 9999 FEW033 OVC041 08/05 Q1015,SCTN,2022-10-23T08:00:00Z,-42.92,-72.7,8.0,5.0,350,13,,6.21,29.970472,,,TRUE,,,,,,,,FEW,3300,OVC,4100,,,,,VFR,,,,,,,,,,,,METAR,8.0
SCTE 230800Z 00000KT 9999 SCT030 SCT200 03/03 Q1016 NOSIG,SCTE,2022-10-23T08:00:00Z,-41.43,-73.08,3.0,3.0,0,0,,6.21,30.0,,,,,,TRUE,,,,,SCT,3000,SCT,20000,,,,,VFR,,,,,,,,,,,,METAR,85.0
SCSN 230800Z AUTO VRB01KT //// R/////// // OVC011 10/09 Q1018,SCSN,2022-10-23T08:00:00Z,-33.65,-71.62,10.0,9.0,0,1,,,30.059055,,,TRUE,,,,,,,,OVC,1100,,,,,,,,,,,,,,,,,,,METAR,73.0
SCSE 230800Z AUTO VRB02KT 9999 OVC006/// 11/10 Q1016,SCSE,2022-10-23T08:00:00Z,-29.92,-71.2,11.0,10.0,0,2,,6.21,30.0,,,TRUE,,,,,,,,OVC,600,,,,,,,IFR,,,,,,,,,,,,METAR,141.0
SCQP 230800Z AUTO 02001KT 1300 1000 R01/1500N FG SCT006 02/02 Q1017,SCQP,2022-10-23T08:00:00Z,-38.92,-72.65,2.0,2.0,20,1,,0.81,30.029528,,,TRUE,,,,,,,FG,SCT,600,,,,,,,LIFR,,,,,,,,,,,,METAR,97.0
SCPQ 230800Z AUTO 36005KT 9999 OVC025 04/03 Q1014,SCPQ,2022-10-23T08:00:00Z,-42.33,-73.72,4.0,3.0,360,5,,6.21,29.940945,,,TRUE,,,,,,,,OVC,2500,,,,,,,MVFR,,,,,,,,,,,,METAR,166.0
SCPD 230800Z AUTO 00000KT //// ///////// 09/03 Q1017,SCPD,2022-10-23T08:00:00Z,,,9.0,3.0,0,0,,,30.029528,,,TRUE,,,,,,,,,,,,,,,,,,,,,,,,,,,,METAR,
SCON 230800Z AUTO VRB02KT 9999 OVC032/// 05/04 Q1015,SCON,2022-10-23T08:00:00Z,-43.13,-73.62,5.0,4.0,0,2,,6.21,29.970472,,,TRUE,,,,,,,,OVC,3200,,,,,,,VFR,,,,,,,,,,,,METAR,11.0
SCMK 230800Z AUTO 33008KT //// // FEW031/// SCT038/// BKN210/// 07/04 Q1013,SCMK,2022-10-23T08:00:00Z,-43.9,-73.73,7.0,4.0,330,8,,,29.911417,,,TRUE,,,,,,,,FEW,3100,SCT,3800,BKN,21000,,,,,,,,,,,,,,,METAR,22.0
SCJO 230800Z AUTO VRB02KT 9999 FEW210/// BKN240/// 03/02 Q1016,SCJO,2022-10-23T08:00:00Z,-40.6,-73.05,3.0,2.0,0,2,,6.21,30.0,,,TRUE,,,,,,,,FEW,21000,BKN,24000,,,,,VFR,,,,,,,,,,,,METAR,61.0
SCIP 230800Z 10004KT 9999 SCT040 BKN050 16/13 Q1021 NOSIG,SCIP,2022-10-23T08:00:00Z,-27.17,-109.43,16.0,13.0,100,4,,6.21,30.147638,,,,,,TRUE,,,,,SCT,4000,BKN,5000,,,,,VFR,,,,,,,,,,,,METAR,48.0
SCIE 230800Z 28003KT 9999 FEW025 10/07 Q1017,SCIE,2022-10-23T08:00:00Z,-36.77,-73.07,10.0,7.0,280,3,,6.21,30.029528,,,,,,,,,,,FEW,2500,,,,,,,VFR,,,,,,,,,,,,METAR,8.0
SCIC 230800Z AUTO VRB01KT //// R/////// // VV002 09/04 Q1016,SCIC,2022-10-23T08:00:00Z,-34.97,-71.22,9.0,4.0,0,1,,,30.0,,,TRUE,,,,,,,,OVX,0,,,,,,,LIFR,,,,,,,,,,,200,METAR,230.0
SCFT 230800Z AUTO VRB02KT 9999 FEW062/// SCT240/// 04/03 Q1011,SCFT,2022-10-23T08:00:00Z,-43.18,-71.85,4.0,3.0,0,2,,6.21,29.852362,,,TRUE,,,,,,,,FEW,6200,SCT,24000,,,,,VFR,,,,,,,,,,,,METAR,345.0
SCFA 230800Z 18006KT 9999 OVC017 14/09 Q1016 NOSIG,SCFA,2022-10-23T08:00:00Z,-23.43,-70.43,14.0,9.0,180,6,,6.21,30.0,,,,,,TRUE,,,,,OVC,1700,,,,,,,MVFR,,,,,,,,,,,,METAR,113.0
SCEL 230800Z 17005KT CAVOK 09/05 Q1017 NOSIG,SCEL,2022-10-23T08:00:00Z,-33.38,-70.78,9.0,5.0,170,5,,6.21,30.029528,,,,,,TRUE,,,,,CAVOK,,,,,,,,VFR,,,,,,,,,,,,METAR,478.0
SCDA 230800Z 18009KT 9999 FEW018 14/10 Q1015,SCDA,2022-10-23T08:00:00Z,-20.53,-70.17,14.0,10.0,180,9,,6.21,29.970472,,,,,,,,,,,FEW,1800,,,,,,,VFR,,,,,,,,,,,,METAR,41.0
SCCY 230800Z AUTO VRB02KT CAVOK 04/M02 Q1009,SCCY,2022-10-23T08:00:00Z,-45.58,-72.1,4.0,-2.0,0,2,,6.21,29.793306,,,TRUE,,,,,,,,CAVOK,,,,,,,,VFR,,,,,,,,,,,,METAR,301.0
SCCI 230800Z 33011KT 9999 BKN020 06/04 Q0992 NOSIG,SCCI,2022-10-23T08:00:00Z,-53.0,-70.85,6.0,4.0,330,11,,6.21,29.291338,,,,,,TRUE,,,,,BKN,2000,,,,,,,MVFR,,,,,,,,,,,,METAR,37.0
SCCH 230800Z AUTO 00000KT CAVOK 03/02 Q1017,SCCH,2022-10-23T08:00:00Z,-36.57,-72.02,3.0,2.0,0,0,,6.21,30.029528,,,TRUE,,,,,,,,CAVOK,,,,,,,,VFR,,,,,,,,,,,,METAR,148.0
SCCF 230800Z 12018KT CAVOK 06/M18 Q1026,SCCF,2022-10-23T08:00:00Z,-22.5,-68.9,6.0,-18.0,120,18,,6.21,30.295275,,,,,,,,,,,CAVOK,,,,,,,,VFR,,,,,,,,,,,,METAR,2290.0
SCBA 230800Z AUTO 31014KT 9999 BKN180/// 05/M08 Q1007,SCBA,2022-10-23T08:00:00Z,-45.92,-71.68,5.0,-8.0,310,14,,6.21,29.734253,,,TRUE,,,,,,,,BKN,18000,,,,,,,VFR,,,,,,,,,,,,METAR,516.0
SCAT 230800Z AUTO 26006KT 9999 OVC011/// 12/10 Q1016,SCAT,2022-10-23T08:00:00Z,-27.27,-70.77,12.0,10.0,260,6,,6.21,30.0,,,TRUE,,,,,,,,OVC,1100,,,,,,,MVFR,,,,,,,,,,,,METAR,209.0
SCAR 230800Z 07005KT 9999 FEW040 13/10 Q1015,SCAR,2022-10-23T08:00:00Z,-18.35,-70.33,13.0,10.0,70,5,,6.21,29.970472,,,,,,,,,,,FEW,4000,,,,,,,VFR,,,,,,,,,,,,METAR,57.0
SCAP 230800Z AUTO /////KT ///V/// //// // ////// ///// Q////,SCAP,2022-10-23T08:00:00Z,-43.62,-71.8,,,,,,,,,,TRUE,,,,,,,,,,,,,,,,,,,,,,,,,,,,METAR,252.0
SAZN 230800Z 14002KT CAVOK 13/04 Q1013,SAZN,2022-10-23T08:00:00Z,-38.95,-68.15,13.0,4.0,140,2,,6.21,29.911417,,,,,,,,,,,CAVOK,,,,,,,,VFR,,,,,,,,,,,,METAR,273.0
SAZM 230800Z 00000KT CAVOK M02/M02 Q1024 RMK PP///,SAZM,2022-10-23T08:00:00Z,-37.92,-57.57,-2.0,-2.0,0,0,,6.21,30.236221,,,,,,,,,,,CAVOK,,,,,,,,VFR,,,,,,,,,,,,SPECI,17.0
SAWH 230800Z 19003KT 130V230 9999 FEW080 OVC120 07/03 Q0990 RMK PP000,SAWH,2022-10-23T08:00:00Z,-54.85,-68.3,7.0,3.0,190,3,,6.21,29.232283,,,,,,,,,,,FEW,8000,OVC,12000,,,,,VFR,,,,,,,,,,,,METAR,22.0
SAWG 230800Z 08004KT CAVOK 07/01 Q0995,SAWG,2022-10-23T08:00:00Z,-51.62,-69.27,7.0,1.0,80,4,,6.21,29.379921,,,,,,,,,,,CAVOK,,,,,,,,VFR,,,,,,,,,,,,METAR,15.0
SAWE 230800Z 31010KT 9999 -RA BKN040 OVC070 07/06 Q0993 RMK PP000,SAWE,2022-10-23T08:00:00Z,-53.78,-67.75,7.0,6.0,310,10,,6.21,29.320866,,,,,,,,,,-RA,BKN,4000,OVC,7000,,,,,VFR,,,,,,,,,,,,SPECI,22.0
SAVC 230800Z 25005KT 210V320 CAVOK 12/M10 Q1006 RMK PP000,SAVC,2022-10-23T08:00:00Z,-45.78,-67.47,12.0,-10.0,250,5,,6.21,29.704725,,,,,,,,,,,CAVOK,,,,,,,,VFR,,,,,,,,,,,,SPECI,58.0
SASJ 230800Z VRB01KT 9999 BKN060 18/12 Q1018 RMK PP000,SASJ,2022-10-23T08:00:00Z,-24.38,-65.1,18.0,12.0,0,1,,6.21,30.059055,,,,,,,,,,,BKN,6000,,,,,,,VFR,,,,,,,,,,,,SPECI,913.0
SASA 230800Z 33003KT 300V360 9999 BKN050 18/09 Q1020 RMK PP000,SASA,2022-10-23T08:00:00Z,-24.85,-65.48,18.0,9.0,330,3,,6.21,30.11811,,,,,,,,,,,BKN,5000,,,,,,,VFR,,,,,,,,,,,,SPECI,1235.0
SARP 230800Z 16003KT CAVOK 17/15 Q1016,SARP,2022-10-23T08:00:00Z,-27.38,-55.97,17.0,15.0,160,3,,6.21,30.0,,,,,,,,,,,CAVOK,,,,,,,,VFR,,,,,,,,,,,,METAR,123.0
SARL 230800Z 18008KT CAVOK 13/12 Q1019,SARL,2022-10-23T08:00:00Z,-29.68,-57.15,13.0,12.0,180,8,,6.21,30.088583,,,,,,,,,,,CAVOK,,,,,,,,VFR,,,,,,,,,,,,METAR,70.0
SARI 230800Z 19003KT 140V230 CAVOK 16/16 Q1015 RMK PP000,SARI,2022-10-23T08:00:00Z,-25.73,-54.47,16.0,16.0,190,3,,6.21,29.970472,,,,,,,,,,,CAVOK,,,,,,,,VFR,,,,,,,,,,,,SPECI,268.0
SARF 230800Z 14004KT CAVOK 17/16 Q1015,SARF,2022-10-23T08:00:00Z,-26.22,-58.22,17.0,16.0,140,4,,6.21,29.970472,,,,,,,,,,,CAVOK,,,,,,,,VFR,,,,,,,,,,,,METAR,65.0
SARE 230800Z 15007KT 9999 FEW012 17/15 Q1017 RMK PP///,SARE,2022-10-23T08:00:00Z,-27.43,-59.05,17.0,15.0,150,7,,6.21,30.029528,,,,,,,,,,,FEW,1200,,,,,,,VFR,,,,,,,,,,,,SPECI,52.0
SARC 230800Z 16011KT 9999 FEW008 17/15 Q1017,SARC,2022-10-23T08:00:00Z,-27.43,-58.77,17.0,15.0,160,11,,6.21,30.029528,,,,,,,,,,,FEW,800,,,,,,,VFR,,,,,,,,,,,,METAR,60.0
SAOC 230800Z 02014KT CAVOK 08/06 Q1019,SAOC,2022-10-23T08:00:00Z,-33.08,-64.27,8.0,6.0,20,14,,6.21,30.088583,,,,,,,,,,,CAVOK,,,,,,,,VFR,,,,,,,,,,,,METAR,422.0
SANT 230800Z 12005KT 8000 FEW049 OVC067 17/12 Q1019 RMK PP000,SANT,2022-10-23T08:00:00Z,-26.85,-65.1,17.0,12.0,120,5,,4.97,30.088583,,,,,,,,,,,FEW,4900,OVC,6700,,,,,MVFR,,,,,,,,,,,,SPECI,446.0
SAME 230800Z 00000KT CAVOK 09/06 Q1015,SAME,2022-10-23T08:00:00Z,-32.82,-68.78,9.0,6.0,0,0,,6.21,29.970472,,,,,,,,,,,CAVOK,,,,,,,,VFR,,,,,,,,,,,,METAR,709.0
SAEZ 230800Z 18003KT 9999 SCT035 05/05 Q1023 NOSIG RMK PP000,SAEZ,2022-10-23T08:00:00Z,-34.82,-58.53,5.0,5.0,180,3,,6.21,30.206694,,,,,,TRUE,,,,,SCT,3500,,,,,,,VFR,,,,,,,,,,,,SPECI,16.0
SADF 230800Z 18002KT 9999 SCT037 09/07 Q1022 RMK PP000,SADF,2022-10-23T08:00:00Z,-34.45,-58.58,9.0,7.0,180,2,,6.21,30.177166,,,,,,,,,,,SCT,3700,,,,,,,VFR,,,,,,,,,,,,METAR,4.0
SACO 230800Z 36005KT CAVOK 06/04 Q1020 NOSIG RMK PP000,SACO,2022-10-23T08:00:00Z,-31.32,-64.22,6.0,4.0,360,5,,6.21,30.11811,,,,,,TRUE,,,,,CAVOK,,,,,,,,VFR,,,,,,,,,,,,SPECI,474.0
SABE 230800Z 16004KT 130V200 9999 BKN038 12/07 Q1022 NOSIG RMK PP000,SABE,2022-10-23T08:00:00Z,-34.57,-58.42,12.0,7.0,160,4,,6.21,30.177166,,,,,,TRUE,,,,,BKN,3800,,,,,,,VFR,,,,,,,,,,,,SPECI,3.0
SAAR 230800Z 19004KT CAVOK 05/04 Q1021 RMK PP000,SAAR,2022-10-23T08:00:00Z,-32.92,-60.77,5.0,4.0,190,4,,6.21,30.147638,,,,,,,,,,,CAVOK,,,,,,,,VFR,,,,,,,,,,,,SPECI,24.0
RPVM 230800Z 04005KT 9999 FEW018CB BKN300 30/26 Q1007 RMK A2974 CB SW-W/NW-N,RPVM,2022-10-23T08:00:00Z,10.32,123.98,30.0,26.0,40,5,,6.21,29.734253,,,,,,,,,,,FEW,1800,BKN,30000,,,,,VFR,,,,,,,,,,,,METAR,9.0
RPMZ 230800Z 28009KT 9999 FEW016CB BKN090 28/25 Q1007 RMK A2974 CB SW-W,RPMZ,2022-10-23T08:00:00Z,6.92,122.07,28.0,25.0,280,9,,6.21,29.734253,,,,,,,,,,,FEW,1600,BKN,9000,,,,,VFR,,,,,,,,,,,,METAR,8.0
"RPMD 230800Z 28005KT 250V310 9999 VCSH SCT015CB SCT090 BKN260 30/23 Q1006 RMK A2971 CBE/WSW-NW, VCSH WSW-W",RPMD,2022-10-23T08:00:00Z,7.12,125.65,30.0,23.0,280,5,,6.21,29.704725,,,,,,,,,,VCSH,SCT,1500,SCT,9000,BKN,26000,,,VFR,,,,,,,,,,,,METAR,19.0
RPLL 230800Z 09005KT 050V120 9999 -SHRA FEW022CB FEW023 BKN100 27/25 Q1008 NOSIG RMK A2977 CB SW,RPLL,2022-10-23T08:00:00Z,14.52,121.0,27.0,25.0,90,5,,6.21,29.763779,,,,,,TRUE,,,,-SHRA,FEW,2200,FEW,2300,BKN,10000,,,VFR,,,,,,,,,,,,METAR,15.0
RPLI 230800Z 23004KT 210V270 8000 TS VCSH SCT017CB SCT100 31/25 Q1008 NOSIG RMK A2977 CB/VCSH NE-S,RPLI,2022-10-23T08:00:00Z,18.17,120.52,31.0,25.0,230,4,,4.97,29.763779,,,,,,TRUE,,,,TS VCSH,SCT,1700,SCT,10000,,,,,MVFR,,,,,,,,,,,,METAR,5.0
RPLB 230800Z 34005KT 270V050 9999 FEW018CB SCT020 BKN300 28/24 Q1008 RETS NOSIG RMK A2977 CB W,RPLB,2022-10-23T08:00:00Z,14.8,120.27,28.0,24.0,340,5,,6.21,29.763779,,,,,,TRUE,,,,,FEW,1800,SCT,2000,BKN,30000,,,VFR,,,,,,,,,,,,METAR,19.0
ROYN 230800Z AUTO 01023KT 9000 -RA FEW011 SCT020 BKN026 24/24 Q1013,ROYN,2022-10-23T08:00:00Z,24.47,122.97,24.0,24.0,10,23,,5.59,29.911417,,,TRUE,,,,,,,-RA,FEW,1100,SCT,2000,BKN,2600,,,MVFR,,,,,,,,,,,,METAR,21.0
RORY 230800Z AUTO 01018KT 9999 BKN017 BKN022 OVC030 25/22 Q1010,RORY,2022-10-23T08:00:00Z,27.05,128.4,25.0,22.0,10,18,,6.21,29.822834,,,TRUE,,,,,,,,BKN,1700,BKN,2200,OVC,3000,,,MVFR,,,,,,,,,,,,METAR,13.0
RORS 230800Z 01022KT 5000 RA BR SCT007 SCT010 BKN060 24/23 Q1012,RORS,2022-10-23T08:00:00Z,24.82,125.15,24.0,23.0,10,22,,3.11,29.88189,,,,,,,,,,RA BR,SCT,700,SCT,1000,BKN,6000,,,MVFR,,,,,,,,,,,,METAR,13.0
RORK 230800Z AUTO 24011KT 9999 FEW010 SCT015 BKN029 27/25 Q1008,RORK,2022-10-23T08:00:00Z,25.93,131.32,27.0,25.0,240,11,,6.21,29.763779,,,TRUE,,,,,,,,FEW,1000,SCT,1500,BKN,2900,,,MVFR,,,,,,,,,,,,METAR,11.0
ROAH 230800Z 01025KT 9999 -SHRA FEW008 SCT010 BKN014 25/23 Q1010 RMK 1ST008 4CU010 6CU014 A2985,ROAH,2022-10-23T08:00:00Z,26.18,127.65,25.0,23.0,10,25,,6.21,29.822834,,,,,,,,,,-SHRA,FEW,800,SCT,1000,BKN,1400,,,MVFR,,,,,,,,,,,,METAR,6.0
RKTU 230800Z 29009KT 9999 FEW040 17/07 Q1017,RKTU,2022-10-23T08:00:00Z,36.7,127.5,17.0,7.0,290,9,,6.21,30.029528,,,,,,,,,,,FEW,4000,,,,,,,VFR,,,,,,,,,,,,METAR,46.0
RKTN 230800Z 31009KT CAVOK 20/05 Q1015,RKTN,2022-10-23T08:00:00Z,35.88,128.65,20.0,5.0,310,9,,6.21,29.970472,,,,,,,,,,,CAVOK,,,,,,,,VFR,,,,,,,,,,,,METAR,25.0
RKSS 230800Z 33015KT CAVOK 16/M02 Q1018 NOSIG,RKSS,2022-10-23T08:00:00Z,37.55,126.78,16.0,-2.0,330,15,,6.21,30.059055,,,,,,TRUE,,,,,CAVOK,,,,,,,,VFR,,,,,,,,,,,,METAR,18.0
RKSM 230800Z 32009KT 9999 FEW050 17/M03 A3006,RKSM,2022-10-23T08:00:00Z,37.43,127.12,17.0,-3.0,320,9,,6.21,30.059055,,,,,,,,,,,FEW,5000,,,,,,,VFR,,,,,,,,,,,,METAR,18.0
RKSI 230800Z 33017KT CAVOK 16/01 Q1019 NOSIG,RKSI,2022-10-23T08:00:00Z,37.47,126.45,16.0,1.0,330,17,,6.21,30.088583,,,,,,TRUE,,,,,CAVOK,,,,,,,,VFR,,,,,,,,,,,,METAR,7.0
RKPK 230800Z 16002KT CAVOK 21/06 Q1015,RKPK,2022-10-23T08:00:00Z,35.17,128.93,21.0,6.0,160,2,,6.21,29.970472,,,,,,,,,,,CAVOK,,,,,,,,VFR,,,,,,,,,,,,METAR,3.0
RKPC 230800Z 33008KT 290V030 9999 SCT030 17/11 Q1019 NOSIG,RKPC,2022-10-23T08:00:00Z,33.5,126.48,17.0,11.0,330,8,,6.21,30.088583,,,,,,TRUE,,,,,SCT,3000,,,,,,,VFR,,,,,,,,,,,,METAR,23.0
RKNY 230800Z 24004KT 9999 FEW010 BKN025 11/11 Q1018 NOSIG,RKNY,2022-10-23T08:00:00Z,38.07,128.67,11.0,11.0,240,4,,6.21,30.059055,,,,,,TRUE,,,,,FEW,1000,BKN,2500,,,,,MVFR,,,,,,,,,,,,METAR,76.0
RKJB 230800Z 35011KT CAVOK 15/07 Q1019 NOSIG,RKJB,2022-10-23T08:00:00Z,34.98,126.38,15.0,7.0,350,11,,6.21,30.088583,,,,,,TRUE,,,,,CAVOK,,,,,,,,VFR,,,,,,,,,,,,METAR,16.0
RJTT 230800Z VRB02KT 9999 FEW030 20/16 Q1007 NOSIG RMK 1CU030 A2976,RJTT,2022-10-23T08:00:00Z,35.55,139.77,20.0,16.0,0,2,,6.21,29.734253,,,,,,TRUE,,,,,FEW,3000,,,,,,,VFR,,,,,,,,,,,,METAR,5.0
RJSY 230800Z 35006KT 310V050 9999 -SHRA FEW010 SCT025 BKN030 12/09 Q1013,RJSY,2022-10-23T08:00:00Z,38.82,139.78,12.0,9.0,350,6,,6.21,29.911417,,,,,,,,,,-SHRA,FEW,1000,SCT,2500,BKN,3000,,,MVFR,,,,,,,,,,,,METAR,17.0
RJSS 230800Z 03004KT 9999 -SHRA FEW020 SCT070 BKN080 16/13 Q1010,RJSS,2022-10-23T08:00:00Z,38.13,140.92,16.0,13.0,30,4,,6.21,29.822834,,,,,,,,,,-SHRA,FEW,2000,SCT,7000,BKN,8000,,,VFR,,,,,,,,,,,,METAR,5.0
RJSR 230800Z 20005KT 9999 FEW005 SCT040 BKN050 10/09 Q1012,RJSR,2022-10-23T08:00:00Z,40.18,140.37,10.0,9.0,200,5,,6.21,29.88189,,,,,,,,,,,FEW,500,SCT,4000,BKN,5000,,,VFR,,,,,,,,,,,,METAR,83.0
RJSN 230800Z 35017KT 8000 -SHRA FEW015 SCT020 BKN025 14/11 Q1013,RJSN,2022-10-23T08:00:00Z,37.95,139.12,14.0,11.0,350,17,,4.97,29.911417,,,,,,,,,,-SHRA,FEW,1500,SCT,2000,BKN,2500,,,MVFR,,,,,,,,,,,,METAR,4.0
RJSM 230800Z 28011KT 9999 SCT015 BKN030 BKN040 11/05 Q1011,RJSM,2022-10-23T08:00:00Z,40.7,141.37,11.0,5.0,280,11,,6.21,29.852362,,,,,,,,,,,SCT,1500,BKN,3000,BKN,4000,,,MVFR,,,,,,,,,,,,METAR,31.0
RJSK 230800Z 28004KT 9999 FEW008 SCT035 BKN140 10/09 Q1013,RJSK,2022-10-23T08:00:00Z,39.62,140.22,10.0,9.0,280,4,,6.21,29.911417,,,,,,,,,,,FEW,800,SCT,3500,BKN,14000,,,VFR,,,,,,,,,,,,METAR,95.0
RJSI 230800Z 31006KT 260V360 9999 FEW030 BKN050 BKN100 13/07 Q1011,RJSI,2022-10-23T08:00:00Z,39.42,141.13,13.0,7.0,310,6,,6.21,29.852362,,,,,,,,,,,FEW,3000,BKN,5000,BKN,10000,,,VFR,,,,,,,,,,,,METAR,89.0
RJSF 230800Z 35011KT 9999 FEW020 SCT100 14/10 Q1010,RJSF,2022-10-23T08:00:00Z,37.22,140.42,14.0,10.0,350,11,,6.21,29.822834,,,,,,,,,,,FEW,2000,SCT,10000,,,,,VFR,,,,,,,,,,,,METAR,373.0
RJSC 230800Z 02012KT 9999 FEW020 SCT030 BKN045 13/09 Q1012,RJSC,2022-10-23T08:00:00Z,38.42,140.37,13.0,9.0,20,12,,6.21,29.88189,,,,,,,,,,,FEW,2000,SCT,3000,BKN,4500,,,VFR,,,,,,,,,,,,METAR,104.0
RJSA 230800Z 23008KT 9999 FEW010 SCT040 BKN060 08/06 Q1011,RJSA,2022-10-23T08:00:00Z,40.72,140.68,8.0,6.0,230,8,,6.21,29.852362,,,,,,,,,,,FEW,1000,SCT,4000,BKN,6000,,,VFR,,,,,,,,,,,,METAR,196.0
RJOY 230800Z 27005KT 240V310 9999 FEW035 23/10 Q1011,RJOY,2022-10-23T08:00:00Z,34.6,135.6,23.0,10.0,270,5,,6.21,29.852362,,,,,,,,,,,FEW,3500,,,,,,,VFR,,,,,,,,,,,,METAR,10.0
RJOW 230800Z 36003KT 290V050 9999 FEW030 SCT035 19/12 Q1013,RJOW,2022-10-23T08:00:00Z,34.67,131.8,19.0,12.0,360,3,,6.21,29.911417,,,,,,,,,,,FEW,3000,SCT,3500,,,,,VFR,,,,,,,,,,,,METAR,54.0
RJOT 230800Z 22003KT 9999 FEW030 20/12 Q1011,RJOT,2022-10-23T08:00:00Z,34.22,134.02,20.0,12.0,220,3,,6.21,29.852362,,,,,,,,,,,FEW,3000,,,,,,,VFR,,,,,,,,,,,,METAR,181.0
RJOS 230800Z 34009KT 9999 FEW030 22/08 Q1011,RJOS,2022-10-23T08:00:00Z,34.12,134.62,22.0,8.0,340,9,,6.21,29.852362,,,,,,,,,,,FEW,3000,,,,,,,VFR,,,,,,,,,,,,METAR,3.0
RJOR 230800Z VRB01KT 9999 FEW035 19/12 Q1012,RJOR,2022-10-23T08:00:00Z,35.52,134.17,19.0,12.0,0,1,,6.21,29.88189,,,,,,,,,,,FEW,3500,,,,,,,VFR,,,,,,,,,,,,METAR,11.0
RJOO 230800Z 36011KT 9999 FEW030 21/10 Q1011 RMK 1CU030 A2986,RJOO,2022-10-23T08:00:00Z,34.78,135.43,21.0,10.0,360,11,,6.21,29.852362,,,,,,,,,,,FEW,3000,,,,,,,VFR,,,,,,,,,,,,METAR,11.0
RJOM 230800Z 25005KT 9999 FEW035 22/15 Q1011,RJOM,2022-10-23T08:00:00Z,33.82,132.68,22.0,15.0,250,5,,6.21,29.852362,,,,,,,,,,,FEW,3500,,,,,,,VFR,,,,,,,,,,,,METAR,3.0
RJOK 230800Z VRB02KT 9999 FEW030 24/16 Q1010,RJOK,2022-10-23T08:00:00Z,33.53,133.67,24.0,16.0,0,2,,6.21,29.822834,,,,,,,,,,,FEW,3000,,,,,,,VFR,,,,,,,,,,,,METAR,7.0
RJOH 230800Z 03012KT 9999 -SHRA FEW008 SCT015 BKN030 FEW030CB 19/14 Q1012,RJOH,2022-10-23T08:00:00Z,35.48,133.25,19.0,14.0,30,12,,6.21,29.88189,,,,,,,,,,-SHRA,FEW,800,SCT,1500,BKN,3000,FEW,3000,MVFR,,,,,,,,,,,,METAR,6.0
RJOC 230800Z 36006KT 9999 VCSH FEW015 FEW025TCU BKN045 20/12 Q1012,RJOC,2022-10-23T08:00:00Z,35.42,132.88,20.0,12.0,360,6,,6.21,29.88189,,,,,,,,,,VCSH,FEW,1500,FEW,2500,BKN,4500,,,VFR,,,,,,,,,,,,METAR,2.0
RJOB 230800Z 36004KT 310V040 9999 FEW030 SCT060 19/10 Q1012,RJOB,2022-10-23T08:00:00Z,34.75,133.85,19.0,10.0,360,4,,6.21,29.88189,,,,,,,,,,,FEW,3000,SCT,6000,,,,,VFR,,,,,,,,,,,,METAR,242.0
RJOA 230800Z 36006KT 9999 FEW030 19/12 Q1012,RJOA,2022-10-23T08:00:00Z,34.43,132.92,19.0,12.0,360,6,,6.21,29.88189,,,,,,,,,,,FEW,3000,,,,,,,VFR,,,,,,,,,,,,METAR,318.0
RJNW 230800Z 36004KT 290V060 9999 FEW010 SCT025 BKN035 12/09 Q1014,RJNW,2022-10-23T08:00:00Z,37.3,136.97,12.0,9.0,360,4,,6.21,29.940945,,,,,,,,,,,FEW,1000,SCT,2500,BKN,3500,,,VFR,,,,,,,,,,,,METAR,222.0
RJNT 230800Z 02007KT 9999 -SHRA FEW005 SCT010 BKN015 15/13 Q1013,RJNT,2022-10-23T08:00:00Z,36.63,137.18,15.0,13.0,20,7,,6.21,29.911417,,,,,,,,,,-SHRA,FEW,500,SCT,1000,BKN,1500,,,MVFR,,,,,,,,,,,,METAR,30.0
RJNS 230800Z 27017KT 9999 FEW030 21/08 Q1007,RJNS,2022-10-23T08:00:00Z,34.8,138.18,21.0,8.0,270,17,,6.21,29.734253,,,,,,,,,,,FEW,3000,,,,,,,VFR,,,,,,,,,,,,METAR,133.0
RJNK 230800Z 04013KT 9999 -SHRA FEW010 SCT020 BKN030 16/14 Q1013,RJNK,2022-10-23T08:00:00Z,36.38,136.42,16.0,14.0,40,13,,6.21,29.911417,,,,,,,,,,-SHRA,FEW,1000,SCT,2000,BKN,3000,,,MVFR,,,,,,,,,,,,METAR,7.0
RJKI 230800Z AUTO 02018KT 9999 FEW018 OVC043 24/20 Q1011,RJKI,2022-10-23T08:00:00Z,28.32,129.92,24.0,20.0,20,18,,6.21,29.852362,,,TRUE,,,,,,,,FEW,1800,OVC,4300,,,,,VFR,,,,,,,,,,,,METAR,6.0
RJKA 230800Z 01014KT 9999 FEW020 BKN050 24/20 Q1011,RJKA,2022-10-23T08:00:00Z,28.42,129.72,24.0,20.0,10,14,,6.21,29.852362,,,,,,,,,,,FEW,2000,BKN,5000,,,,,VFR,,,,,,,,,,,,METAR,7.0
RJGG 230800Z 31017KT 9999 FEW030 SCT/// 22/13 Q1010 NOSIG,RJGG,2022-10-23T08:00:00Z,34.87,136.8,22.0,13.0,310,17,,6.21,29.822834,,,,,,TRUE,,,,,FEW,3000,,,,,,,VFR,,,,,,,,,,,,METAR,5.0
RJFU 230800Z 32017KT 9999 FEW045 21/13 Q1013,RJFU,2022-10-23T08:00:00Z,32.92,129.92,21.0,13.0,320,17,,6.21,29.911417,,,,,,,,,,,FEW,4500,,,,,,,VFR,,,,,,,,,,,,METAR,2.0
RJFT 230800Z 28006KT 9999 FEW040 22/13 Q1012,RJFT,2022-10-23T08:00:00Z,32.83,130.85,22.0,13.0,280,6,,6.21,29.88189,,,,,,,,,,,FEW,4000,,,,,,,VFR,,,,,,,,,,,,METAR,188.0
RJFS 230800Z 32008KT 9999 FEW030 22/13 Q1013,RJFS,2022-10-23T08:00:00Z,33.15,130.3,22.0,13.0,320,8,,6.21,29.911417,,,,,,,,,,,FEW,3000,,,,,,,VFR,,,,,,,,,,,,METAR,2.0
RJFR 230800Z 33011KT 9999 FEW020 SCT035 20/13 Q1013,RJFR,2022-10-23T08:00:00Z,33.83,131.03,20.0,13.0,330,11,,6.21,29.911417,,,,,,,,,,,FEW,2000,SCT,3500,,,,,VFR,,,,,,,,,,,,METAR,9.0
RJFO 230800Z 32007KT 9999 FEW035 21/11 Q1012,RJFO,2022-10-23T08:00:00Z,33.47,131.73,21.0,11.0,320,7,,6.21,29.88189,,,,,,,,,,,FEW,3500,,,,,,,VFR,,,,,,,,,,,,METAR,3.0
RJFM 230800Z 08007KT 9999 FEW015 SCT022 24/19 Q1011,RJFM,2022-10-23T08:00:00Z,31.87,131.43,24.0,19.0,80,7,,6.21,29.852362,,,,,,,,,,,FEW,1500,SCT,2200,,,,,VFR,,,,,,,,,,,,METAR,10.0
RJFK 230800Z 32010KT 9999 FEW030 22/13 Q1012 RMK 1CU030 A2990 VOLCANIC ASH CLOUD S,RJFK,2022-10-23T08:00:00Z,31.8,130.72,22.0,13.0,320,10,,6.21,29.88189,,,,,,,,,,,FEW,3000,,,,,,,VFR,,,,,,,,,,,,METAR,271.0
RJFG 230800Z 30014KT 9999 FEW015 22/18 Q1012,RJFG,2022-10-23T08:00:00Z,30.62,130.98,22.0,18.0,300,14,,6.21,29.88189,,,,,,,,,,,FEW,1500,,,,,,,VFR,,,,,,,,,,,,METAR,234.0
RJFF 230800Z 34012KT 320V030 9999 FEW035 SCT045 20/12 Q1013 NOSIG RMK 1CU035 3CU045 A2993,RJFF,2022-10-23T08:00:00Z,33.58,130.45,20.0,12.0,340,12,,6.21,29.911417,,,,,,TRUE,,,,,FEW,3500,SCT,4500,,,,,VFR,,,,,,,,,,,,METAR,7.0
RJFE 230800Z 34010G21KT 9999 FEW030 18/12 Q1014,RJFE,2022-10-23T08:00:00Z,32.67,128.82,18.0,12.0,340,10,21,6.21,29.940945,,,,,,,,,,,FEW,3000,,,,,,,VFR,,,,,,,,,,,,METAR,80.0
RJEC 230800Z VRB01KT 9999 -SHRA FEW003 SCT015 BKN035 06/05 Q1009,RJEC,2022-10-23T08:00:00Z,43.67,142.43,6.0,5.0,0,1,,6.21,29.793306,,,,,,,,,,-SHRA,FEW,300,SCT,1500,BKN,3500,,,VFR,,,,,,,,,,,,METAR,209.0
RJDT 230800Z 33007KT 9999 FEW035 19/09 Q1014,RJDT,2022-10-23T08:00:00Z,34.28,129.32,19.0,9.0,330,7,,6.21,29.940945,,,,,,,,,,,FEW,3500,,,,,,,VFR,,,,,,,,,,,,METAR,61.0
RJDC 230800Z 33006KT 270V050 9999 FEW035 21/12 Q1013,RJDC,2022-10-23T08:00:00Z,33.92,131.27,21.0,12.0,330,6,,6.21,29.911417,,,,,,,,,,,FEW,3500,,,,,,,VFR,,,,,,,,,,,,METAR,5.0
RJDB 230800Z AUTO 36009KT 9999 SCT036 BKN042 BKN045 20/12 Q1014,RJDB,2022-10-23T08:00:00Z,33.75,129.78,20.0,12.0,360,9,,6.21,29.940945,,,TRUE,,,,,,,,SCT,3600,BKN,4200,BKN,4500,,,VFR,,,,,,,,,,,,METAR,13.0
RJCW 230800Z 08008KT 9999 FEW030 SCT080 05/02 Q1011,RJCW,2022-10-23T08:00:00Z,45.4,141.8,5.0,2.0,80,8,,6.21,29.852362,,,,,,,,,,,FEW,3000,SCT,8000,,,,,VFR,,,,,,,,,,,,METAR,11.0
RJCO 230800Z 32009KT 9999 -SHRA FEW015 SCT030 BKN050 08/06 Q1012,RJCO,2022-10-23T08:00:00Z,43.12,141.37,8.0,6.0,320,9,,6.21,29.88189,,,,,,,,,,-SHRA,FEW,1500,SCT,3000,BKN,5000,,,VFR,,,,,,,,,,,,METAR,7.0
RJCN 230800Z 20004KT 170V240 9999 -SHRA FEW015 BKN045 07/06 Q1008,RJCN,2022-10-23T08:00:00Z,43.57,144.97,7.0,6.0,200,4,,6.21,29.763779,,,,,,,,,,-SHRA,FEW,1500,BKN,4500,,,,,VFR,,,,,,,,,,,,METAR,62.0
RJCM 230800Z VRB01KT 9999 -SHRA FEW010 SCT015 BKN040 07/07 Q1010,RJCM,2022-10-23T08:00:00Z,43.88,144.17,7.0,7.0,0,1,,6.21,29.822834,,,,,,,,,,-SHRA,FEW,1000,SCT,1500,BKN,4000,,,VFR,,,,,,,,,,,,METAR,30.0
RJCK 230800Z 36008KT 9999 -SHRA FEW010 BKN030 BKN040 08/06 Q1008,RJCK,2022-10-23T08:00:00Z,43.03,144.18,8.0,6.0,360,8,,6.21,29.763779,,,,,,,,,,-SHRA,FEW,1000,BKN,3000,BKN,4000,,,MVFR,,,,,,,,,,,,METAR,94.0
RJCH 230800Z 28012KT 9999 FEW025 SCT070 10/03 Q1011,RJCH,2022-10-23T08:00:00Z,41.77,140.82,10.0,3.0,280,12,,6.21,29.852362,,,,,,,,,,,FEW,2500,SCT,7000,,,,,VFR,,,,,,,,,,,,METAR,36.0
RJCC 230800Z 36006KT 9999 FEW015 SCT025 BKN040 09/07 Q1010 RMK 1ST015 3CU025 7CU040 A2983,RJCC,2022-10-23T08:00:00Z,42.77,141.68,9.0,7.0,360,6,,6.21,29.822834,,,,,,,,,,,FEW,1500,SCT,2500,BKN,4000,,,VFR,,,,,,,,,,,,METAR,19.0
RJCB 230800Z 35006KT 9999 FEW030 BKN040 09/05 Q1008,RJCB,2022-10-23T08:00:00Z,42.72,143.22,9.0,5.0,350,6,,6.21,29.763779,,,,,,,,,,,FEW,3000,BKN,4000,,,,,VFR,,,,,,,,,,,,METAR,149.0
RJBT 230800Z 35005KT 9999 FEW020 FEW025CB SCT030 17/14 Q1012,RJBT,2022-10-23T08:00:00Z,35.5,134.8,17.0,14.0,350,5,,6.21,29.88189,,,,,,,,,,,FEW,2000,FEW,2500,SCT,3000,,,VFR,,,,,,,,,,,,METAR,172.0
RJBE 230800Z 30007KT 9999 FEW030 22/11 Q1011,RJBE,2022-10-23T08:00:00Z,34.63,135.23,22.0,11.0,300,7,,6.21,29.852362,,,,,,,,,,,FEW,3000,,,,,,,VFR,,,,,,,,,,,,METAR,5.0
RJBD 230800Z 32007KT 9999 FEW030 SCT/// 21/09 Q1010,RJBD,2022-10-23T08:00:00Z,33.67,135.37,21.0,9.0,320,7,,6.21,29.822834,,,,,,,,,,,FEW,3000,,,,,,,VFR,,,,,,,,,,,,METAR,91.0
RJBB 230800Z VRB02KT 9999 FEW030 22/11 Q1011 BECMG 34008KT,RJBB,2022-10-23T08:00:00Z,34.43,135.25,22.0,11.0,0,2,,6.21,29.852362,,,,,,,,,,,FEW,3000,,,,,,,VFR,,,,,,,,,,,,METAR,8.0
RJAW 230800Z 34003KT 280V040 9999 SCT015 BKN/// 27/23 Q1010 RMK 3CU015 A2985,RJAW,2022-10-23T08:00:00Z,24.78,141.32,27.0,23.0,340,3,,6.21,29.822834,,,,,,,,,,,SCT,1500,,,,,,,VFR,,,,,,,,,,,,METAR,116.0
RJAH 230800Z 07002KT 9999 FEW030 BKN250 20/16 Q1008,RJAH,2022-10-23T08:00:00Z,36.17,140.42,20.0,16.0,70,2,,6.21,29.763779,,,,,,,,,,,FEW,3000,BKN,25000,,,,,VFR,,,,,,,,,,,,METAR,31.0
RJAF 230800Z 33011KT 9999 FEW035 SCT045 BKN080 17/09 Q1010,RJAF,2022-10-23T08:00:00Z,36.17,137.92,17.0,9.0,330,11,,6.21,29.822834,,,,,,,,,,,FEW,3500,SCT,4500,BKN,8000,,,VFR,,,,,,,,,,,,METAR,652.0
RJAA 230800Z 07005KT 020V110 9999 FEW030 21/14 Q1008 NOSIG RMK 1CU030 A2977,RJAA,2022-10-23T08:00:00Z,35.77,140.38,21.0,14.0,70,5,,6.21,29.763779,,,,,,TRUE,,,,,FEW,3000,,,,,,,VFR,,,,,,,,,,,,METAR,36.0
RCTP 230800Z 04015KT 9999 -RA FEW008 BKN012 BKN020 23/22 Q1015 NOSIG RMK A3000,RCTP,2022-10-23T08:00:00Z,25.07,121.22,23.0,22.0,40,15,,6.21,29.970472,,,,,,TRUE,,,,-RA,FEW,800,BKN,1200,BKN,2000,,,MVFR,,,,,,,,,,,,SPECI,33.0
RCSS 230800Z 28004KT 8000 -RA FEW012 SCT025 BKN040 23/22 Q1015 NOSIG RMK A3000 RA AMT 0.6MM,RCSS,2022-10-23T08:00:00Z,25.07,121.55,23.0,22.0,280,4,,4.97,29.970472,,,,,,TRUE,,,,-RA,FEW,1200,SCT,2500,BKN,4000,,,MVFR,,,,,,,,,,,,SPECI,8.0
RCNN 230800Z 01005KT 9999 -RA FEW012 SCT025 BKN050 27/21 Q1011 NOSIG RMK A2987,RCNN,2022-10-23T08:00:00Z,22.93,120.2,27.0,21.0,10,5,,6.21,29.852362,,,,,,TRUE,,,,-RA,FEW,1200,SCT,2500,BKN,5000,,,VFR,,,,,,,,,,,,SPECI,15.0
RCKH 230800Z 31004KT 260V350 8000 FEW015 SCT030 BKN150 30/23 Q1010 NOSIG RMK A2985,RCKH,2022-10-23T08:00:00Z,22.57,120.33,30.0,23.0,310,4,,4.97,29.822834,,,,,,TRUE,,,,,FEW,1500,SCT,3000,BKN,15000,,,MVFR,,,,,,,,,,,,SPECI,6.0
RCFN 230800Z 03008KT 360V080 1600 +RA SCT004 BKN009 OVC013 22/22 Q1014 TEMPO 1000 +RA RMK A2996 RA AMT 11.4MM,RCFN,2022-10-23T08:00:00Z,22.77,121.1,22.0,22.0,30,8,,0.99,29.940945,,,,,,,,,,+RA,SCT,400,BKN,900,OVC,1300,,,LIFR,,,,,,,,,,,,SPECI,42.0
PLCH 230800Z 11005KT 9999 VCSH SCT020 25/23 Q1010,PLCH,2022-10-23T08:00:00Z,1.98,-157.35,25.0,23.0,110,5,,6.21,29.822834,,,,,,,,,,VCSH,SCT,2000,,,,,,,VFR,,,,,,,,,,,,METAR,5.0
PAKV 230800Z AUTO 00000KT 1/2SM FZFG OVC003 M03/M03 A2999 RMK AO2 T10281028 TSNO,PAKV,2022-10-23T08:00:00Z,64.33,-158.72,-2.8,-2.8,0,0,,0.5,29.991142,,,TRUE,TRUE,,,TRUE,,,FZFG,OVC,300,,,,,,,LIFR,,,,,,,,,,,,METAR,53.0
OTHH 230800Z 06005KT 030V090 CAVOK 33/20 Q1017 NOSIG,OTHH,2022-10-23T08:00:00Z,25.27,51.6,33.0,20.0,60,5,,6.21,30.029528,,,,,,TRUE,,,,,CAVOK,,,,,,,,VFR,,,,,,,,,,,,METAR,3.0
OTBD 230800Z 08005KT 030V130 CAVOK 34/21 Q1017 NOSIG,OTBD,2022-10-23T08:00:00Z,25.25,51.57,34.0,21.0,80,5,,6.21,30.029528,,,,,,TRUE,,,,,CAVOK,,,,,,,,VFR,,,,,,,,,,,,METAR,13.0
OSLK 230800Z 07004KT 9999 FEW030 27/13 Q1019,OSLK,2022-10-23T08:00:00Z,35.4,35.95,27.0,13.0,70,4,,6.21,30.088583,,,,,,,,,,,FEW,3000,,,,,,,VFR,,,,,,,,,,,,METAR,47.0
OSKL 230800Z 35004KT CAVOK 21/09 Q1021,OSKL,2022-10-23T08:00:00Z,37.03,41.2,21.0,9.0,350,4,,6.21,30.147638,,,,,,,,,,,CAVOK,,,,,,,,VFR,,,,,,,,,,,,METAR,443.0
OSDI 230800Z 06010KT CAVOK 21/10 Q1022,OSDI,2022-10-23T08:00:00Z,33.42,36.52,21.0,10.0,60,10,,6.21,30.177166,,,,,,,,,,,CAVOK,,,,,,,,VFR,,,,,,,,,,,,METAR,614.0
ORSU 230800Z VRB02KT 8000 FEW045 25/13 Q1023,ORSU,2022-10-23T08:00:00Z,35.57,45.32,25.0,13.0,0,2,,4.97,30.206694,,,,,,,,,,,FEW,4500,,,,,,,MVFR,,,,,,,,,,,,METAR,760.0
ORNI 230800Z 00000KT 5000 DU NSC 26/12 Q1016,ORNI,2022-10-23T08:00:00Z,31.98,44.4,26.0,12.0,0,0,,3.11,30.0,,,,,,,,,,DU,CLR,,,,,,,,MVFR,,,,,,,,,,,,METAR,33.0
ORMM 230800Z 14008KT CAVOK 34/17 Q1017 NOSIG,ORMM,2022-10-23T08:00:00Z,30.53,47.67,34.0,17.0,140,8,,6.21,30.029528,,,,,,TRUE,,,,,CAVOK,,,,,,,,VFR,,,,,,,,,,,,METAR,2.0
ORBI 230800Z 30007KT 5000 DU NSC 29/15 Q1017 NOSIG,ORBI,2022-10-23T08:00:00Z,33.27,44.23,29.0,15.0,300,7,,3.11,30.029528,,,,,,TRUE,,,,DU,CLR,,,,,,,,MVFR,,,,,,,,,,,,METAR,37.0
OPST 230800Z 31006KT 4000 HZ NSC 26/12 Q1017 NOSIG 42%,OPST,2022-10-23T08:00:00Z,32.53,74.37,26.0,12.0,310,6,,2.49,30.029528,,,,,,TRUE,,,,HZ,CLR,,,,,,,,IFR,,,,,,,,,,,,METAR,234.0
OPSK 230800Z 13006KT 5000 HZ NSC 35/15 Q1014 NOSIG,OPSK,2022-10-23T08:00:00Z,27.72,68.8,35.0,15.0,130,6,,3.11,29.940945,,,,,,TRUE,,,,HZ,CLR,,,,,,,,MVFR,,,,,,,,,,,,METAR,62.0
OPPS 230800Z 36006KT 7000 HZ NSC 27/11 Q1018,OPPS,2022-10-23T08:00:00Z,33.98,71.52,27.0,11.0,360,6,,4.35,30.059055,,,,,,,,,,HZ,CLR,,,,,,,,MVFR,,,,,,,,,,,,METAR,356.0
OPKC 230800Z 23008KT 6000 NSC 36/05 Q1015 NOSIG,OPKC,2022-10-23T08:00:00Z,24.9,67.13,36.0,5.0,230,8,,3.73,29.970472,,,,,,TRUE,,,,,CLR,,,,,,,,MVFR,,,,,,,,,,,,METAR,20.0
OPIS 230800Z 00000KT 7000 NSC 27/07 Q1018 NOSIG,OPIS,2022-10-23T08:00:00Z,33.55,72.83,27.0,7.0,0,0,,4.35,30.059055,,,,,,TRUE,,,,,CLR,,,,,,,,MVFR,,,,,,,,,,,,METAR,542.0
OMSJ 230800Z 24006G19KT 200V280 CAVOK 35/08 Q1017 BECMG 34012KT,OMSJ,2022-10-23T08:00:00Z,25.32,55.52,35.0,8.0,240,6,19,6.21,30.029528,,,,,,,,,,,CAVOK,,,,,,,,VFR,,,,,,,,,,,,METAR,33.0
OMRK 230800Z 27006KT CAVOK 36/10 Q1017 A3003,OMRK,2022-10-23T08:00:00Z,25.62,55.93,36.0,10.0,270,6,,6.21,30.029528,,,,,,,,,,,CAVOK,,,,,,,,VFR,,,,,,,,,,,,METAR,18.0
OMFJ 230800Z 10007KT 070V130 7000 NSC 31/23 Q1017 A3003,OMFJ,2022-10-23T08:00:00Z,25.1,56.32,31.0,23.0,100,7,,4.35,30.029528,,,,,,,,,,,CLR,,,,,,,,MVFR,,,,,,,,,,,,METAR,27.0
OMDW 230800Z 17010KT CAVOK 35/10 Q1017 BECMG 34014KT,OMDW,2022-10-23T08:00:00Z,24.9,55.17,35.0,10.0,170,10,,6.21,30.029528,,,,,,,,,,,CAVOK,,,,,,,,VFR,,,,,,,,,,,,METAR,34.0
OMDB 230800Z 23007KT 190V250 CAVOK 35/09 Q1016 BECMG 34012KT,OMDB,2022-10-23T08:00:00Z,25.25,55.37,35.0,9.0,230,7,,6.21,30.0,,,,,,,,,,,CAVOK,,,,,,,,VFR,,,,,,,,,,,,METAR,5.0
OMAL 230800Z 18013KT CAVOK 33/06 Q1018 NOSIG,OMAL,2022-10-23T08:00:00Z,24.25,55.6,33.0,6.0,180,13,,6.21,30.059055,,,,,,TRUE,,,,,CAVOK,,,,,,,,VFR,,,,,,,,,,,,METAR,247.0
OMAD 230800Z VRB03KT CAVOK 34/17 Q1016 BECMG 28008KT,OMAD,2022-10-23T08:00:00Z,24.42,54.47,34.0,17.0,0,3,,6.21,30.0,,,,,,,,,,,CAVOK,,,,,,,,VFR,,,,,,,,,,,,METAR,9.0
OMAA 230800Z 16006KT 110V230 CAVOK 33/14 Q1016 NOSIG,OMAA,2022-10-23T08:00:00Z,24.42,54.65,33.0,14.0,160,6,,6.21,30.0,,,,,,TRUE,,,,,CAVOK,,,,,,,,VFR,,,,,,,,,,,,METAR,13.0
OLBA 230800Z 33004KT 8000 FEW025 26/15 Q1019 NOSIG,OLBA,2022-10-23T08:00:00Z,33.82,35.48,26.0,15.0,330,4,,4.97,30.088583,,,,,,TRUE,,,,,FEW,2500,,,,,,,MVFR,,,,,,,,,,,,METAR,29.0
OKBK 230800Z 00000KT CAVOK 37/02 Q1017 NOSIG,OKBK,2022-10-23T08:00:00Z,29.22,47.97,37.0,2.0,0,0,,6.21,30.029528,,,,,,TRUE,,,,,CAVOK,,,,,,,,VFR,,,,,,,,,,,,METAR,55.0
OJAQ 230800Z 36009KT 6000 NSC 25/17 Q1017 NOSIG,OJAQ,2022-10-23T08:00:00Z,29.62,35.02,25.0,17.0,360,9,,3.73,30.029528,,,,,,TRUE,,,,,CLR,,,,,,,,MVFR,,,,,,,,,,,,METAR,45.0
OJAM 230800Z VRB02KT 4000 HZ NSC 23/11 Q1021 NOSIG,OJAM,2022-10-23T08:00:00Z,31.98,35.98,23.0,11.0,0,2,,2.49,30.147638,,,,,,TRUE,,,,HZ,CLR,,,,,,,,IFR,,,,,,,,,,,,METAR,765.0
OJAI 230800Z 00000KT 4000 HZ SCT035 SCT080 21/08 Q1021 NOSIG,OJAI,2022-10-23T08:00:00Z,31.72,36.0,21.0,8.0,0,0,,2.49,30.147638,,,,,,TRUE,,,,HZ,SCT,3500,SCT,8000,,,,,IFR,,,,,,,,,,,,METAR,723.0
OIZJ 230800Z 23006KT 8000 NSC 29/26 Q1016,OIZJ,2022-10-23T08:00:00Z,25.65,57.8,29.0,26.0,230,6,,4.97,30.0,,,,,,,,,,,CLR,,,,,,,,MVFR,,,,,,,,,,,,METAR,6.0
OIZI 230800Z 28004KT CAVOK 33/08 Q1019,OIZI,2022-10-23T08:00:00Z,27.23,60.72,33.0,8.0,280,4,,6.21,30.088583,,,,,,,,,,,CAVOK,,,,,,,,VFR,,,,,,,,,,,,METAR,622.0
OIZH 230800Z 36004KT CAVOK 29/M05 Q1025 A3027 NOSIG,OIZH,2022-10-23T08:00:00Z,29.47,60.92,29.0,-5.0,360,4,,6.21,30.265747,,,,,,TRUE,,,,,CAVOK,,,,,,,,VFR,,,,,,,,,,,,METAR,1378.0
OIZC 230800Z 24010KT 5000 HZ NSC 32/22 Q1014,OIZC,2022-10-23T08:00:00Z,25.45,60.38,32.0,22.0,240,10,,3.11,29.940945,,,,,,,,,,HZ,CLR,,,,,,,,MVFR,,,,,,,,,,,,METAR,13.0
OIZB 230800Z 35018KT 6000 NSC 29/09 Q1019,OIZB,2022-10-23T08:00:00Z,31.1,61.55,29.0,9.0,350,18,,3.73,30.088583,,,,,,,,,,,CLR,,,,,,,,MVFR,,,,,,,,,,,,METAR,483.0
OIYY 230800Z 12002KT 5000 HZ NSC 26/02 Q1026 NOSIG,OIYY,2022-10-23T08:00:00Z,31.9,54.28,26.0,2.0,120,2,,3.11,30.295275,,,,,,TRUE,,,,HZ,CLR,,,,,,,,MVFR,,,,,,,,,,,,METAR,1226.0
OITZ 230800Z 15004KT 9000 FEW015 SCT025CB BKN080 15/10 Q1023 A3022,OITZ,2022-10-23T08:00:00Z,36.77,48.37,15.0,10.0,150,4,,5.59,30.206694,,,,,,,,,,,FEW,1500,SCT,2500,BKN,8000,,,VFR,,,,,,,,,,,,METAR,1630.0
OITT 230800Z 24004KT 9999 FEW030 FEW032TCU SCT080 13/07 Q1026 A3030,OITT,2022-10-23T08:00:00Z,38.13,46.23,13.0,7.0,240,4,,6.21,30.295275,,,,,,,,,,,FEW,3000,FEW,3200,SCT,8000,,,VFR,,,,,,,,,,,,METAR,1353.0
OITR 230800Z 07004KT 9999 SCT035CB SCT040 BKN100 13/08 Q1024,OITR,2022-10-23T08:00:00Z,37.67,45.07,13.0,8.0,70,4,,6.21,30.236221,,,,,,,,,,,SCT,3500,SCT,4000,BKN,10000,,,VFR,,,,,,,,,,,,METAR,1312.0
OITP 230800Z 27004KT 4000 RADZ BR BKN020 OVC060 12/12 Q1027,OITP,2022-10-23T08:00:00Z,39.6,47.88,12.0,12.0,270,4,,2.49,30.324802,,,,,,,,,,RA DZ BR,BKN,2000,OVC,6000,,,,,IFR,,,,,,,,,,,,METAR,72.0
OITM 230800Z 26004KT 7000 FEW035 17/09 Q1023,OITM,2022-10-23T08:00:00Z,37.35,46.15,17.0,9.0,260,4,,4.35,30.206694,,,,,,,,,,,FEW,3500,,,,,,,MVFR,,,,,,,,,,,,METAR,1340.0
OITL 230800Z 30019KT 9000 VCFG SCT007 OVC020 08/06 Q1024 NOSIG,OITL,2022-10-23T08:00:00Z,38.33,48.42,8.0,6.0,300,19,,5.59,30.236221,,,,,,TRUE,,,,VCFG,SCT,700,OVC,2000,,,,,MVFR,,,,,,,,,,,,METAR,1314.0
OITK 230800Z 04008KT 9999 SCT035TCU FEW040 12/09 Q1025,OITK,2022-10-23T08:00:00Z,38.42,44.98,12.0,9.0,40,8,,6.21,30.265747,,,,,,,,,,,SCT,3500,FEW,4000,,,,,VFR,,,,,,,,,,,,METAR,1192.0
OISY 230800Z 00000KT CAVOK 23/M04 Q1030,OISY,2022-10-23T08:00:00Z,30.7,51.55,23.0,-4.0,0,0,,6.21,30.413385,,,,,,,,,,,CAVOK,,,,,,,,VFR,,,,,,,,,,,,METAR,1800.0
OISS 230800Z 00000KT 6000 NSC 25/M03 Q1027 A3033,OISS,2022-10-23T08:00:00Z,29.53,52.58,25.0,-3.0,0,0,,3.73,30.324802,,,,,,,,,,,CLR,,,,,,,,MVFR,,,,,,,,,,,,METAR,1484.0
OISR 230800Z 00000KT CAVOK 34/11 Q1020 NOSIG,OISR,2022-10-23T08:00:00Z,27.37,53.2,34.0,11.0,0,0,,6.21,30.11811,,,,,,TRUE,,,,,CAVOK,,,,,,,,VFR,,,,,,,,,,,,METAR,402.0
OISL 230800Z 24006KT CAVOK 31/05 Q1020 A3013 NOSIG,OISL,2022-10-23T08:00:00Z,27.67,54.37,31.0,5.0,240,6,,6.21,30.11811,,,,,,TRUE,,,,,CAVOK,,,,,,,,VFR,,,,,,,,,,,,METAR,804.0
OISF 230800Z 00000KT CAVOK 28/M01 Q1025 A3030,OISF,2022-10-23T08:00:00Z,28.9,53.72,28.0,-1.0,0,0,,6.21,30.265747,,,,,,,,,,,CAVOK,,,,,,,,VFR,,,,,,,,,,,,METAR,1305.0
OISA 230800Z 01002KT CAVOK 23/M09 Q1029 A3041,OISA,2022-10-23T08:00:00Z,31.03,52.78,23.0,-9.0,10,2,,6.21,30.383858,,,,,,,,,,,CAVOK,,,,,,,,VFR,,,,,,,,,,,,METAR,1949.0
OINZ 230800Z 31006KT 7000 SCT025 22/17 Q1024,OINZ,2022-10-23T08:00:00Z,36.63,53.2,22.0,17.0,310,6,,4.35,30.236221,,,,,,,,,,,SCT,2500,,,,,,,MVFR,,,,,,,,,,,,METAR,8.0
OINR 230800Z 16006KT 9999 FEW022CB SCT025 BKN090 20/15 Q1019,OINR,2022-10-23T08:00:00Z,36.9,50.67,20.0,15.0,160,6,,6.21,30.088583,,,,,,,,,,,FEW,2200,SCT,2500,BKN,9000,,,VFR,,,,,,,,,,,,METAR,-19.0
OINN 230800Z 10004KT 9999 FEW022TCU SCT190 21/17 Q1022,OINN,2022-10-23T08:00:00Z,36.67,51.47,21.0,17.0,100,4,,6.21,30.177166,,,,,,,,,,,FEW,2200,SCT,19000,,,,,VFR,,,,,,,,,,,,METAR,-25.0
OINK 230800Z 23006KT 9999 FEW030 23/16 Q1021,OINK,2022-10-23T08:00:00Z,37.25,55.1,23.0,16.0,230,6,,6.21,30.147638,,,,,,,,,,,FEW,3000,,,,,,,VFR,,,,,,,,,,,,METAR,30.0
OING 230800Z 00000KT 9999 FEW020 23/16 Q1025 NOSIG,OING,2022-10-23T08:00:00Z,36.9,54.4,23.0,16.0,0,0,,6.21,30.265747,,,,,,TRUE,,,,,FEW,2000,,,,,,,VFR,,,,,,,,,,,,METAR,0.0
OINE 230800Z 28004KT 9999 FEW025 SCT080 23/15 Q1022,OINE,2022-10-23T08:00:00Z,37.38,55.45,23.0,15.0,280,4,,6.21,30.177166,,,,,,,,,,,FEW,2500,SCT,8000,,,,,VFR,,,,,,,,,,,,METAR,125.0
OINB 230800Z 05002KT CAVOK 22/17 Q1023,OINB,2022-10-23T08:00:00Z,36.72,52.65,22.0,17.0,50,2,,6.21,30.206694,,,,,,,,,,,CAVOK,,,,,,,,VFR,,,,,,,,,,,,METAR,-20.0
OIMT 230800Z 13002KT 7000 NSC 30/M01 Q1020,OIMT,2022-10-23T08:00:00Z,33.67,56.88,30.0,-1.0,130,2,,4.35,30.11811,,,,,,,,,,,CLR,,,,,,,,MVFR,,,,,,,,,,,,METAR,693.0
OIMS 230800Z 10012KT 5000 HZ NSC 22/09 Q1025,OIMS,2022-10-23T08:00:00Z,36.17,57.6,22.0,9.0,100,12,,3.11,30.265747,,,,,,,,,,HZ,CLR,,,,,,,,MVFR,,,,,,,,,,,,METAR,920.0
OIMQ 230800Z 12010KT CAVOK 22/08 Q1024,OIMQ,2022-10-23T08:00:00Z,35.27,58.47,22.0,8.0,120,10,,6.21,30.236221,,,,,,,,,,,CAVOK,,,,,,,,VFR,,,,,,,,,,,,METAR,1101.0
OIMN 230800Z 00000KT 9999 FEW025 FEW025TCU 18/11 Q1026,OIMN,2022-10-23T08:00:00Z,37.48,57.3,18.0,11.0,0,0,,6.21,30.295275,,,,,,,,,,,FEW,2500,FEW,2500,,,,,VFR,,,,,,,,,,,,METAR,1065.0
OIMM 230800Z 10010KT 9999 FEW030 18/11 Q1027 A3033,OIMM,2022-10-23T08:00:00Z,36.23,59.63,18.0,11.0,100,10,,6.21,30.324802,,,,,,,,,,,FEW,3000,,,,,,,VFR,,,,,,,,,,,,METAR,995.0
OIMJ 230800Z 04012KT 9999 FEW030 19/07 Q1025,OIMJ,2022-10-23T08:00:00Z,36.43,55.1,19.0,7.0,40,12,,6.21,30.265747,,,,,,,,,,,FEW,3000,,,,,,,VFR,,,,,,,,,,,,METAR,1285.0
OIMD 230800Z 36006KT 7000 NSC 23/08 Q1021,OIMD,2022-10-23T08:00:00Z,34.38,58.63,23.0,8.0,360,6,,4.35,30.147638,,,,,,,,,,,CLR,,,,,,,,MVFR,,,,,,,,,,,,METAR,1097.0
OIMB 230800Z 33004KT 9999 FEW040 29/M09 Q1025 A3028,OIMB,2022-10-23T08:00:00Z,32.9,59.28,29.0,-9.0,330,4,,6.21,30.265747,,,,,,,,,,,FEW,4000,,,,,,,VFR,,,,,,,,,,,,METAR,1512.0
OIKQ 230800Z 13006KT 5000 HZ NSC 32/27 Q1016 NOSIG,OIKQ,2022-10-23T08:00:00Z,26.75,55.9,32.0,27.0,130,6,,3.11,30.0,,,,,,TRUE,,,,HZ,CLR,,,,,,,,MVFR,,,,,,,,,,,,METAR,9.0
OIKO 230800Z 22004KT 7000 NSC 35/17 Q1016,OIKO,2022-10-23T08:00:00Z,27.1,57.07,35.0,17.0,220,4,,4.35,30.0,,,,,,,,,,,CLR,,,,,,,,MVFR,,,,,,,,,,,,METAR,32.0
OIKK 230800Z 35008KT CAVOK 25/M04 Q1027 A3034,OIKK,2022-10-23T08:00:00Z,30.25,56.97,25.0,-4.0,350,8,,6.21,30.324802,,,,,,,,,,,CAVOK,,,,,,,,VFR,,,,,,,,,,,,METAR,1749.0
OIKB 230800Z 18008KT 5000 HZ NSC 32/24 Q1016 A3002 NOSIG,OIKB,2022-10-23T08:00:00Z,27.22,56.37,32.0,24.0,180,8,,3.11,30.0,,,,,,TRUE,,,,HZ,CLR,,,,,,,,MVFR,,,,,,,,,,,,METAR,6.0
OIIS 230800Z 20004KT CAVOK 24/04 Q1025,OIIS,2022-10-23T08:00:00Z,35.38,53.67,24.0,4.0,200,4,,6.21,30.265747,,,,,,,,,,,CAVOK,,,,,,,,VFR,,,,,,,,,,,,METAR,1115.0
OIIP 230800Z 30014KT 8000 FEW030CB SCT040 BKN100 17/07 Q1024 A3027,OIIP,2022-10-23T08:00:00Z,35.78,50.83,17.0,7.0,300,14,,4.97,30.236221,,,,,,,,,,,FEW,3000,SCT,4000,BKN,10000,,,MVFR,,,,,,,,,,,,METAR,1270.0
OIIK 230800Z 02002KT 8000 -RA SCT035CB SCT040 BKN090 15/09 Q1026 RETS,OIIK,2022-10-23T08:00:00Z,36.25,50.05,15.0,9.0,20,2,,4.97,30.295275,,,,,,,,,,-RA,SCT,3500,SCT,4000,BKN,9000,,,MVFR,,,,,,,,,,,,METAR,1278.0
OIII 230800Z 17008KT 9999 FEW040 BKN100 21/03 Q1025 A3028 NOSIG,OIII,2022-10-23T08:00:00Z,35.68,51.3,21.0,3.0,170,8,,6.21,30.265747,,,,,,TRUE,,,,,FEW,4000,BKN,10000,,,,,VFR,,,,,,,,,,,,METAR,1182.0
OIIE 230800Z 14014KT 9999 FEW030CB SCT040 22/04 Q1024,OIIE,2022-10-23T08:00:00Z,35.42,51.15,22.0,4.0,140,14,,6.21,30.236221,,,,,,,,,,,FEW,3000,SCT,4000,,,,,VFR,,,,,,,,,,,,METAR,993.0
OIHR 230800Z 24018KT 8000 FEW035 25/06 Q1025,OIHR,2022-10-23T08:00:00Z,34.13,49.85,25.0,6.0,240,18,,4.97,30.265747,,,,,,,,,,,FEW,3500,,,,,,,MVFR,,,,,,,,,,,,METAR,1658.0
OIHM 230800Z 22010KT 9999 SCT040 23/M04 Q1026,OIHM,2022-10-23T08:00:00Z,34.28,48.82,23.0,-4.0,220,10,,6.21,30.295275,,,,,,,,,,,SCT,4000,,,,,,,VFR,,,,,,,,,,,,METAR,1744.0
OIHH 230800Z 01010KT 9999 SCT040 21/01 Q1026 A3031,OIHH,2022-10-23T08:00:00Z,34.87,48.55,21.0,1.0,10,10,,6.21,30.295275,,,,,,,,,,,SCT,4000,,,,,,,VFR,,,,,,,,,,,,METAR,1742.0
OIGG 230800Z 27006KT 9999 BKN009 FEW015CB SCT080 17/16 Q1023,OIGG,2022-10-23T08:00:00Z,37.33,49.6,17.0,16.0,270,6,,6.21,30.206694,,,,,,,,,,,BKN,900,FEW,1500,SCT,8000,,,IFR,,,,,,,,,,,,METAR,-16.0
OIFS 230800Z 16004KT CAVOK 22/M06 Q1030,OIFS,2022-10-23T08:00:00Z,32.28,50.85,22.0,-6.0,160,4,,6.21,30.413385,,,,,,,,,,,CAVOK,,,,,,,,VFR,,,,,,,,,,,,METAR,2042.0
OIFM 230800Z 20006KT 5000 HZ NSC 24/M00 Q1028 A3037,OIFM,2022-10-23T08:00:00Z,32.75,51.87,24.0,0.0,200,6,,3.11,30.35433,,,,,,,,,,HZ,CLR,,,,,,,,MVFR,,,,,,,,,,,,METAR,1539.0
OIFK 230800Z 00000KT CAVOK 27/M02 Q1022,OIFK,2022-10-23T08:00:00Z,33.9,51.58,27.0,-2.0,0,0,,6.21,30.177166,,,,,,,,,,,CAVOK,,,,,,,,VFR,,,,,,,,,,,,METAR,1058.0
OICS 230800Z 20004KT 8000 FEW040 21/08 Q1024 A3025 NOSIG,OICS,2022-10-23T08:00:00Z,35.25,47.02,21.0,8.0,200,4,,4.97,30.236221,,,,,,TRUE,,,,,FEW,4000,,,,,,,MVFR,,,,,,,,,,,,METAR,1369.0
OICK 230800Z 28008KT CAVOK 25/M01 Q1024,OICK,2022-10-23T08:00:00Z,33.43,48.28,25.0,-1.0,280,8,,6.21,30.236221,,,,,,,,,,,CAVOK,,,,,,,,VFR,,,,,,,,,,,,METAR,1156.0
OICJ 230800Z 08006KT CAVOK 21/M01 Q1027,OICJ,2022-10-23T08:00:00Z,33.9,48.75,21.0,-1.0,80,6,,6.21,30.324802,,,,,,,,,,,CAVOK,,,,,,,,VFR,,,,,,,,,,,,METAR,1565.0
OICC 230800Z 30006KT 9999 FEW050 26/00 Q1024 A3026,OICC,2022-10-23T08:00:00Z,34.35,47.17,26.0,0.0,300,6,,6.21,30.236221,,,,,,,,,,,FEW,5000,,,,,,,VFR,,,,,,,,,,,,METAR,1310.0
OIBV 230800Z 16010KT 8000 NSC 33/23 Q1016,OIBV,2022-10-23T08:00:00Z,26.82,53.35,33.0,23.0,160,10,,4.97,30.0,,,,,,,,,,,CLR,,,,,,,,MVFR,,,,,,,,,,,,METAR,23.0
OIBS 230800Z 06006KT 3500 HZ FEW025 32/25 Q1017,OIBS,2022-10-23T08:00:00Z,25.9,54.55,32.0,25.0,60,6,,2.17,30.029528,,,,,,,,,,HZ,FEW,2500,,,,,,,IFR,,,,,,,,,,,,METAR,4.0
OIBQ 230800Z 09006KT 4000 HZ NSC 30/25 Q1017 A3005,OIBQ,2022-10-23T08:00:00Z,29.27,50.32,30.0,25.0,90,6,,2.49,30.029528,,,,,,,,,,HZ,CLR,,,,,,,,IFR,,,,,,,,,,,,METAR,3.0
OIBP 230800Z 30004KT 7000 NSC 35/22 Q1016 A3001,OIBP,2022-10-23T08:00:00Z,27.38,52.73,35.0,22.0,300,4,,4.35,30.0,,,,,,,,,,,CLR,,,,,,,,MVFR,,,,,,,,,,,,METAR,13.0
OIBL 230800Z 13006KT 5000 HZ NSC 31/23 Q1016,OIBL,2022-10-23T08:00:00Z,26.53,54.82,31.0,23.0,130,6,,3.11,30.0,,,,,,,,,,HZ,CLR,,,,,,,,MVFR,,,,,,,,,,,,METAR,25.0
OIBK 230800Z 17008KT CAVOK 33/23 Q1016 NOSIG,OIBK,2022-10-23T08:00:00Z,26.53,53.98,33.0,23.0,170,8,,6.21,30.0,,,,,,TRUE,,,,,CAVOK,,,,,,,,VFR,,,,,,,,,,,,METAR,27.0
OIBJ 230800Z AUTO 23003KT //// // ////// 32/04 Q1022,OIBJ,2022-10-23T08:00:00Z,27.82,52.35,32.0,4.0,230,3,,,30.177166,,,TRUE,,,,,,,,,,,,,,,,,,,,,,,,,,,,METAR,647.0
OIBH 230800Z 21008KT 5000 HZ NSC 32/24 Q1016 A3002,OIBH,2022-10-23T08:00:00Z,27.2,54.32,32.0,24.0,210,8,,3.11,30.0,,,,,,,,,,HZ,CLR,,,,,,,,MVFR,,,,,,,,,,,,METAR,412.0
OIBB 230800Z 30006KT 5000 HZ NSC 30/23 Q1017 A3003 NOSIG,OIBB,2022-10-23T08:00:00Z,28.93,50.83,30.0,23.0,300,6,,3.11,30.029528,,,,,,TRUE,,,,HZ,CLR,,,,,,,,MVFR,,,,,,,,,,,,METAR,15.0
OIBA 230800Z 18006KT 5000 HZ NSC 32/23 Q1016,OIBA,2022-10-23T08:00:00Z,25.88,55.03,32.0,23.0,180,6,,3.11,30.0,,,,,,,,,,HZ,CLR,,,,,,,,MVFR,,,,,,,,,,,,METAR,7.0
OIAW 230800Z 08004KT 2500 HZ NSC 31/24 Q1017,OIAW,2022-10-23T08:00:00Z,31.33,48.77,31.0,24.0,80,4,,1.55,30.029528,,,,,,,,,,HZ,CLR,,,,,,,,IFR,,,,,,,,,,,,METAR,25.0
OIAM 230800Z 00000KT 7000 NSC 33/25 Q1016,OIAM,2022-10-23T08:00:00Z,30.55,49.15,33.0,25.0,0,0,,4.35,30.0,,,,,,,,,,,CLR,,,,,,,,MVFR,,,,,,,,,,,,METAR,7.0
OIAH 230800Z 12004KT CAVOK 31/04 Q1022,OIAH,2022-10-23T08:00:00Z,30.33,50.83,31.0,4.0,120,4,,6.21,30.177166,,,,,,,,,,,CAVOK,,,,,,,,VFR,,,,,,,,,,,,METAR,730.0
OIAG 230800Z 24002KT 7000 NSC 33/19 Q1017,OIAG,2022-10-23T08:00:00Z,30.73,49.68,33.0,19.0,240,2,,4.35,30.029528,,,,,,,,,,,CLR,,,,,,,,MVFR,,,,,,,,,,,,METAR,17.0
OIAA 230800Z 12006KT CAVOK 35/20 Q1016,OIAA,2022-10-23T08:00:00Z,30.35,48.22,35.0,20.0,120,6,,6.21,30.0,,,,,,,,,,,CAVOK,,,,,,,,VFR,,,,,,,,,,,,METAR,4.0
OEYN 230800Z 15003KT CAVOK 33/22 Q1012 NOSIG,OEYN,2022-10-23T08:00:00Z,24.13,38.07,33.0,22.0,150,3,,6.21,29.88189,,,,,,TRUE,,,,,CAVOK,,,,,,,,VFR,,,,,,,,,,,,METAR,20.0
OEWJ 230800Z 30011KT CAVOK 29/22 Q1015 NOSIG,OEWJ,2022-10-23T08:00:00Z,26.18,36.47,29.0,22.0,300,11,,6.21,29.970472,,,,,,TRUE,,,,,CAVOK,,,,,,,,VFR,,,,,,,,,,,,METAR,8.0
OEWD 230800Z 11008KT CAVOK 32/12 Q1020 NOSIG,OEWD,2022-10-23T08:00:00Z,20.5,45.2,32.0,12.0,110,8,,6.21,30.11811,,,,,,TRUE,,,,,CAVOK,,,,,,,,VFR,,,,,,,,,,,,METAR,629.0
OETR 230800Z 07011KT 7000 NSC 25/14 Q1020 NOSIG,OETR,2022-10-23T08:00:00Z,31.7,38.73,25.0,14.0,70,11,,4.35,30.11811,,,,,,TRUE,,,,,CLR,,,,,,,,MVFR,,,,,,,,,,,,METAR,854.0
OETF 230800Z 15010KT CAVOK 28/M07 Q1026 NOSIG,OETF,2022-10-23T08:00:00Z,21.47,40.53,28.0,-7.0,150,10,,6.21,30.295275,,,,,,TRUE,,,,,CAVOK,,,,,,,,VFR,,,,,,,,,,,,METAR,1460.0
OETB 230800Z 00000KT CAVOK 25/08 Q1019 NOSIG,OETB,2022-10-23T08:00:00Z,28.37,36.62,25.0,8.0,0,0,,6.21,30.088583,,,,,,TRUE,,,,,CAVOK,,,,,,,,VFR,,,,,,,,,,,,METAR,770.0
OESK 230800Z 10007KT CAVOK 27/09 Q1021 NOSIG,OESK,2022-10-23T08:00:00Z,29.78,40.1,27.0,9.0,100,7,,6.21,30.147638,,,,,,TRUE,,,,,CAVOK,,,,,,,,VFR,,,,,,,,,,,,METAR,671.0
OESH 230800Z 09006KT CAVOK 33/06 Q1019 NOSIG,OESH,2022-10-23T08:00:00Z,17.47,47.12,33.0,6.0,90,6,,6.21,30.088583,,,,,,TRUE,,,,,CAVOK,,,,,,,,VFR,,,,,,,,,,,,METAR,720.0
OERR 230800Z 07012KT CAVOK 24/08 Q1019 NOSIG,OERR,2022-10-23T08:00:00Z,30.9,41.13,24.0,8.0,70,12,,6.21,30.088583,,,,,,TRUE,,,,,CAVOK,,,,,,,,VFR,,,,,,,,,,,,METAR,554.0
OERK 230800Z 23006KT CAVOK 32/03 Q1022 NOSIG,OERK,2022-10-23T08:00:00Z,24.95,46.72,32.0,3.0,230,6,,6.21,30.177166,,,,,,TRUE,,,,,CAVOK,,,,,,,,VFR,,,,,,,,,,,,METAR,618.0
OERF 230800Z 20018KT CAVOK 36/M05 Q1017 NOSIG,OERF,2022-10-23T08:00:00Z,29.62,43.48,36.0,-5.0,200,18,,6.21,30.029528,,,,,,TRUE,,,,,CAVOK,,,,,,,,VFR,,,,,,,,,,,,METAR,441.0
OEPA 230800Z 24008KT CAVOK 34/08 Q1018 NOSIG,OEPA,2022-10-23T08:00:00Z,28.33,46.12,34.0,8.0,240,8,,6.21,30.059055,,,,,,TRUE,,,,,CAVOK,,,,,,,,VFR,,,,,,,,,,,,METAR,361.0
OENG 230800Z 09006KT CAVOK 27/04 Q1023 NOSIG,OENG,2022-10-23T08:00:00Z,17.62,44.42,27.0,4.0,90,6,,6.21,30.206694,,,,,,TRUE,,,,,CAVOK,,,,,,,,VFR,,,,,,,,,,,,METAR,1210.0
OEMN 230800Z 20004KT CAVOK 35/20 Q1017,OEMN,2022-10-23T08:00:00Z,,,35.0,20.0,200,4,,6.21,30.029528,,,,,,,,,,,CAVOK,,,,,,,,VFR,,,,,,,,,,,,METAR,
OEMA 230800Z 09007KT CAVOK 32/M05 Q1021 NOSIG,OEMA,2022-10-23T08:00:00Z,24.55,39.7,32.0,-5.0,90,7,,6.21,30.147638,,,,,,TRUE,,,,,CAVOK,,,,,,,,VFR,,,,,,,,,,,,METAR,639.0
OEKM 230800Z 03012KT CAVOK 23/01 Q1029 NOSIG,OEKM,2022-10-23T08:00:00Z,18.3,42.78,23.0,1.0,30,12,,6.21,30.383858,,,,,,TRUE,,,,,CAVOK,,,,,,,,VFR,,,,,,,,,,,,METAR,2038.0
OEKJ 230800Z 16008KT CAVOK 33/M01 Q1023,OEKJ,2022-10-23T08:00:00Z,24.07,47.58,33.0,-1.0,160,8,,6.21,30.206694,,,,,,,,,,,CAVOK,,,,,,,,VFR,,,,,,,,,,,,METAR,487.0
OEJN 230800Z 34006KT CAVOK 34/18 Q1014 NOSIG,OEJN,2022-10-23T08:00:00Z,21.68,39.15,34.0,18.0,340,6,,6.21,29.940945,,,,,,TRUE,,,,,CAVOK,,,,,,,,VFR,,,,,,,,,,,,METAR,8.0
OEJB 230800Z AUTO 26006KT CAVOK 36/00 Q1017 NOSIG,OEJB,2022-10-23T08:00:00Z,27.05,49.4,36.0,0.0,260,6,,6.21,30.029528,,,TRUE,,,TRUE,,,,,CAVOK,,,,,,,,VFR,,,,,,,,,,,,METAR,6.0
OEHL 230800Z 21014KT CAVOK 31/00 Q1022,OEHL,2022-10-23T08:00:00Z,27.43,41.68,31.0,0.0,210,14,,6.21,30.177166,,,,,,,,,,,CAVOK,,,,,,,,VFR,,,,,,,,,,,,METAR,1002.0
OEGT 230800Z 00000KT CAVOK 24/10 Q1018 NOSIG,OEGT,2022-10-23T08:00:00Z,31.42,37.27,24.0,10.0,0,0,,6.21,30.059055,,,,,,TRUE,,,,,CAVOK,,,,,,,,VFR,,,,,,,,,,,,METAR,512.0
OEGS 230800Z 23010KT CAVOK 31/07 Q1020,OEGS,2022-10-23T08:00:00Z,26.3,43.77,31.0,7.0,230,10,,6.21,30.11811,,,,,,,,,,,CAVOK,,,,,,,,VFR,,,,,,,,,,,,METAR,647.0
OEGN 230800Z 21007KT 9999 FEW030 34/25 Q1015 NOSIG,OEGN,2022-10-23T08:00:00Z,16.9,42.58,34.0,25.0,210,7,,6.21,29.970472,,,,,,TRUE,,,,,FEW,3000,,,,,,,VFR,,,,,,,,,,,,METAR,5.0
OEDR 230800Z 28008KT CAVOK 36/03 Q1016,OEDR,2022-10-23T08:00:00Z,26.27,50.17,36.0,3.0,280,8,,6.21,30.0,,,,,,,,,,,CAVOK,,,,,,,,VFR,,,,,,,,,,,,METAR,17.0
OEDM 230800Z 18012KT CAVOK 31/M02 Q1022,OEDM,2022-10-23T08:00:00Z,24.45,44.12,31.0,-2.0,180,12,,6.21,30.177166,,,,,,,,,,,CAVOK,,,,,,,,VFR,,,,,,,,,,,,METAR,922.0
OEDF 230800Z 30006KT CAVOK 35/05 Q1017 NOSIG,OEDF,2022-10-23T08:00:00Z,26.43,49.82,35.0,5.0,300,6,,6.21,30.029528,,,,,,TRUE,,,,,CAVOK,,,,,,,,VFR,,,,,,,,,,,,METAR,15.0
OEBH 230800Z 09009KT CAVOK 28/10 Q1022 NOSIG,OEBH,2022-10-23T08:00:00Z,19.98,42.62,28.0,10.0,90,9,,6.21,30.177166,,,,,,TRUE,,,,,CAVOK,,,,,,,,VFR,,,,,,,,,,,,METAR,1167.0
OEBA 230800Z 11008KT CAVOK 24/07 Q1026 NOSIG,OEBA,2022-10-23T08:00:00Z,20.3,41.63,24.0,7.0,110,8,,6.21,30.295275,,,,,,TRUE,,,,,CAVOK,,,,,,,,VFR,,,,,,,,,,,,METAR,1659.0
OEAO 230800Z 24002KT CAVOK 31/06 Q1019 NOSIG,OEAO,2022-10-23T08:00:00Z,26.48,38.12,31.0,6.0,240,2,,6.21,30.088583,,,,,,TRUE,,,,,CAVOK,,,,,,,,VFR,,,,,,,,,,,,METAR,615.0
OEAH 230800Z 21010KT CAVOK 37/M01 Q1017 NOSIG,OEAH,2022-10-23T08:00:00Z,25.28,49.48,37.0,-1.0,210,10,,6.21,30.029528,,,,,,TRUE,,,,,CAVOK,,,,,,,,VFR,,,,,,,,,,,,METAR,180.0
OEAB 230800Z 03005KT CAVOK 23/00 Q1029 NOSIG,OEAB,2022-10-23T08:00:00Z,18.23,42.65,23.0,0.0,30,5,,6.21,30.383858,,,,,,TRUE,,,,,CAVOK,,,,,,,,VFR,,,,,,,,,,,,METAR,2092.0
NZWN 230800Z AUTO 01023KT 9999 BKN019/// 14/11 Q1025 NOSIG,NZWN,2022-10-23T08:00:00Z,-41.32,174.8,14.0,11.0,10,23,,6.21,30.265747,,,TRUE,,,TRUE,,,,,BKN,1900,,,,,,,MVFR,,,,,,,,,,,,METAR,12.0
NZCH 230800Z AUTO 30013KT 9999 NCD 19/M02 Q1018 NOSIG,NZCH,2022-10-23T08:00:00Z,-43.48,172.52,19.0,-2.0,300,13,,6.21,30.059055,,,TRUE,,,TRUE,,,,,CLR,,,,,,,,VFR,,,,,,,,,,,,METAR,36.0
NZAA 230800Z AUTO 21011KT 9999 NCD 15/12 Q1030 NOSIG,NZAA,2022-10-23T08:00:00Z,-37.02,174.8,15.0,12.0,210,11,,6.21,30.413385,,,TRUE,,,TRUE,,,,,CLR,,,,,,,,VFR,,,,,,,,,,,,METAR,7.0
NWWW 230800Z AUTO 07007KT 020V160 CAVOK 24/18 Q1012 TEMPO 3000 SHRA FEW020CB,NWWW,2022-10-23T08:00:00Z,-22.02,166.22,24.0,18.0,70,7,,6.21,29.88189,,,TRUE,,,,,,,,CAVOK,,,,,,,,VFR,,,,,,,,,,,,METAR,16.0
NVVV 230800Z 07007KT 8000 -RA FEW010 BKN018 OVC090 23/22 Q1012,NVVV,2022-10-23T08:00:00Z,-17.68,168.3,23.0,22.0,70,7,,4.97,29.88189,,,,,,,,,,-RA,FEW,1000,BKN,1800,OVC,9000,,,MVFR,,,,,,,,,,,,METAR,23.0
NVSS 230800Z 35004KT 9999 -RA SCT018 OVC100 23/23 Q1010,NVSS,2022-10-23T08:00:00Z,-15.52,167.22,23.0,23.0,350,4,,6.21,29.822834,,,,,,,,,,-RA,SCT,1800,OVC,10000,,,,,VFR,,,,,,,,,,,,METAR,47.0
NSFA 230800Z 09003KT 9999 FEW022 BKN250 26/24 Q1011,NSFA,2022-10-23T08:00:00Z,-13.83,-172.0,26.0,24.0,90,3,,6.21,29.852362,,,,,,,,,,,FEW,2200,BKN,25000,,,,,VFR,,,,,,,,,,,,METAR,6.0
NLWW 230800Z AUTO 09007KT 9999 FEW018/// 27/24 Q1011 TEMPO 4000 SHRA BKN014 FEW020CB,NLWW,2022-10-23T08:00:00Z,-13.23,-176.18,27.0,24.0,90,7,,6.21,29.852362,,,TRUE,,,,,,,,FEW,1800,,,,,,,VFR,,,,,,,,,,,,METAR,24.0
NIUE 230800Z AUTO 04001KT 24/23 Q1011,NIUE,2022-10-23T08:00:00Z,-19.07,-169.92,24.0,23.0,40,1,,,29.852362,,,TRUE,,,,,,,,,,,,,,,,,,,,,,,,,,,,METAR,22.0
NGTA 230800Z 10007KT 9999 FEW020 27/22 Q1009,NGTA,2022-10-23T08:00:00Z,1.37,173.13,27.0,22.0,100,7,,6.21,29.793306,,,,,,,,,,,FEW,2000,,,,,,,VFR,,,,,,,,,,,,METAR,8.0
NGFU 230800Z VRB02KT 9999 FEW018TCU BKN300 29/23 Q1009,NGFU,2022-10-23T08:00:00Z,-8.52,179.18,29.0,23.0,0,2,,6.21,29.793306,,,,,,,,,,,FEW,1800,BKN,30000,,,,,VFR,,,,,,,,,,,,METAR,2.0
NFTF 230800Z 14010KT 9999 FEW010 SCT015 BKN100 22/19 Q1015,NFTF,2022-10-23T08:00:00Z,-21.23,-175.15,22.0,19.0,140,10,,6.21,29.970472,,,,,,,,,,,FEW,1000,SCT,1500,BKN,10000,,,VFR,,,,,,,,,,,,METAR,38.0
NFNA 230800Z 14008KT 9999 SCT020 BKN048 25/22 Q1013,NFNA,2022-10-23T08:00:00Z,-18.05,178.57,25.0,22.0,140,8,,6.21,29.911417,,,,,,,,,,,SCT,2000,BKN,4800,,,,,VFR,,,,,,,,,,,,METAR,6.0
NFFN 230800Z 14009KT 9999 FEW030 SCT048 25/20 Q1012 NOSIG,NFFN,2022-10-23T08:00:00Z,-17.75,177.45,25.0,20.0,140,9,,6.21,29.88189,,,,,,TRUE,,,,,FEW,3000,SCT,4800,,,,,VFR,,,,,,,,,,,,METAR,14.0
NCSW 230800Z AUTO 07001KT //// ////// 28/24 Q1012,NCSW,2022-10-23T08:00:00Z,,,28.0,24.0,70,1,,,29.88189,,,TRUE,,,,,,,,,,,,,,,,,,,,,,,,,,,,METAR,
NCRK 230800Z AUTO 04003KT //// ////// 27/22 Q1011,NCRK,2022-10-23T08:00:00Z,-10.02,-161.1,27.0,22.0,40,3,,,29.852362,,,TRUE,,,,,,,,,,,,,,,,,,,,,,,,,,,,METAR,7.0
NCRG 230800Z AUTO 08006KT 9999 BKN009/// BKN019/// 24/24 Q1014,NCRG,2022-10-23T08:00:00Z,-21.2,-159.82,24.0,24.0,80,6,,6.21,29.940945,,,TRUE,,,,,,,,BKN,900,BKN,1900,,,,,IFR,,,,,,,,,,,,METAR,7.0
NCPY 230800Z AUTO 04009KT //// ////// 27/21 Q1012,NCPY,2022-10-23T08:00:00Z,-9.02,-158.03,27.0,21.0,40,9,,,29.88189,,,TRUE,,,,,,,,,,,,,,,,,,,,,,,,,,,,METAR,2.0
NCPL 230800Z AUTO 34002KT //// ///// 26/24 Q1012,NCPL,2022-10-23T08:00:00Z,1.98,-157.48,26.0,24.0,340,2,,,29.88189,,,TRUE,,,,,,,,,,,,,,,,,,,,,,,,,,,,METAR,3.0
NCPK 230800Z AUTO NIL,NCPK,2022-10-23T08:00:00Z,-10.9,-165.83,,,,,,,,,,TRUE,,,,,,,,,,,,,,,,,,,,,,,,,,,,METAR,5.0
NCNS 230800Z AUTO 02003KT //// ////// 28/23 Q1011,NCNS,2022-10-23T08:00:00Z,,,28.0,23.0,20,3,,,29.852362,,,TRUE,,,,,,,,,,,,,,,,,,,,,,,,,,,,METAR,
NCMR 230800Z AUTO 05002KT //// ////// ///// Q1013,NCMR,2022-10-23T08:00:00Z,-19.85,-157.7,,,50,2,,,29.911417,,,TRUE,,,,,,,,,,,,,,,,,,,,,,,,,,,,METAR,8.0
NCMK 230800Z AUTO NIL,NCMK,2022-10-23T08:00:00Z,-20.15,-157.33,,,,,,,,,,TRUE,,,,,,,,,,,,,,,,,,,,,,,,,,,,METAR,13.0
NCMH 230800Z AUTO 01002KT //// ////// ///// Q1012,NCMH,2022-10-23T08:00:00Z,-10.38,-161.0,,,10,2,,,29.88189,,,TRUE,,,,,,,,,,,,,,,,,,,,,,,,,,,,METAR,1.0
NCMG 230800Z AUTO 04003KT //// ////// ///// Q////,NCMG,2022-10-23T08:00:00Z,-21.88,-157.9,,,40,3,,,,,,TRUE,,,,,,,,,,,,,,,,,,,,,,,,,,,,METAR,14.0
NCAT 230800Z AUTO 03002KT //// ////// ///// Q////,NCAT,2022-10-23T08:00:00Z,-19.97,-158.12,,,30,2,,,,,,TRUE,,,,,,,,,,,,,,,,,,,,,,,,,,,,METAR,11.0
NCAI 230800Z AUTO 07002KT //// ////// 26/22 Q1013,NCAI,2022-10-23T08:00:00Z,-18.82,-159.77,26.0,22.0,70,2,,,29.911417,,,TRUE,,,,,,,,,,,,,,,,,,,,,,,,,,,,METAR,7.0
MROC 230800Z 08004KT 9999 FEW005 20/17 A2999 NOSIG,MROC,2022-10-23T08:00:00Z,10.0,-84.22,20.0,17.0,80,4,,6.21,29.991142,,,,,,TRUE,,,,,FEW,500,,,,,,,VFR,,,,,,,,,,,,METAR,900.0
MPTO 230800Z VRB02KT 9999 SCT018CB 23/23 Q1011 NOSIG RMK CB S,MPTO,2022-10-23T08:00:00Z,9.05,-79.38,23.0,23.0,0,2,,6.21,29.852362,,,,,,TRUE,,,,,SCT,1800,,,,,,,VFR,,,,,,,,,,,,SPECI,7.0
MNMG 230800Z 00000KT 9999 FEW020CB SCT300 24/22 Q1011 A2985 CB/SW/NW/SE NOSIG,MNMG,2022-10-23T08:00:00Z,12.15,-86.17,24.0,22.0,0,0,,6.21,29.852362,,,,,,TRUE,,,,,FEW,2000,SCT,30000,,,,,VFR,,,,,,,,,,,,SPECI,59.0
MKJS 230800Z VRB02KT 9999 FEW022CB 26/23 Q1011,MKJS,2022-10-23T08:00:00Z,18.5,-77.92,26.0,23.0,0,2,,6.21,29.852362,,,,,,,,,,,FEW,2200,,,,,,,VFR,,,,,,,,,,,,METAR,3.0
MKJP 230800Z 01006KT 9999 VCTS FEW020 FEW022CB SCT035 27/22 Q1011,MKJP,2022-10-23T08:00:00Z,17.93,-76.78,27.0,22.0,10,6,,6.21,29.852362,,,,,,,,,,VCTS,FEW,2000,FEW,2200,SCT,3500,,,VFR,,,,,,,,,,,,METAR,3.0
MGPB 230800Z 00000KT 9999 SCT018 BKN090 23/22 Q1012 A2988,MGPB,2022-10-23T08:00:00Z,15.73,-88.58,23.0,22.0,0,0,,6.21,29.88189,,,,,,,,,,,SCT,1800,BKN,9000,,,,,VFR,,,,,,,,,,,,METAR,6.0
MGGT 230800Z 01010KT 9999 FEW004 BKN014 16/15 Q1021 A3015,MGGT,2022-10-23T08:00:00Z,14.58,-90.53,16.0,15.0,10,10,,6.21,30.147638,,,,,,,,,,,FEW,400,BKN,1400,,,,,MVFR,,,,,,,,,,,,METAR,1497.0
MDST 230800Z 00000KT 9999 SCT016 BKN300 23/23 Q1012,MDST,2022-10-23T08:00:00Z,19.4,-70.6,23.0,23.0,0,0,,6.21,29.88189,,,,,,,,,,,SCT,1600,BKN,30000,,,,,VFR,,,,,,,,,,,,METAR,175.0
MDSD 230800Z 00000KT 9999 FEW016 SCT300 23/23 Q1012,MDSD,2022-10-23T08:00:00Z,18.42,-69.67,23.0,23.0,0,0,,6.21,29.88189,,,,,,,,,,,FEW,1600,SCT,30000,,,,,VFR,,,,,,,,,,,,METAR,18.0
MDPC 230800Z 09010KT 9999 FEW017CB BKN018 SCT300 25/24 Q1012 CB/SW/W/N,MDPC,2022-10-23T08:00:00Z,18.57,-68.37,25.0,24.0,90,10,,6.21,29.88189,,,,,,,,,,,FEW,1700,BKN,1800,SCT,30000,,,MVFR,,,,,,,,,,,,SPECI,10.0
LZZI 230800Z VRB01KT 4300 BR FEW004 BKN013 11/10 Q1022,LZZI,2022-10-23T08:00:00Z,49.23,18.62,11.0,10.0,0,1,,2.67,30.177166,,,,,,,,,,BR,FEW,400,BKN,1300,,,,,IFR,,,,,,,,,,,,METAR,311.0
LZTT 230800Z 23011KT 9999 FEW050 12/08 Q1022 NOSIG,LZTT,2022-10-23T08:00:00Z,49.07,20.25,12.0,8.0,230,11,,6.21,30.177166,,,,,,TRUE,,,,,FEW,5000,,,,,,,VFR,,,,,,,,,,,,METAR,693.0
LZPP 230800Z VRB01KT 0150 R01/0275N FG OVC002 09/09 Q1022,LZPP,2022-10-23T08:00:00Z,48.62,17.83,9.0,9.0,0,1,,0.09,30.177166,,,,,,,,,,FG,OVC,200,,,,,,,LIFR,,,,,,,,,,,,METAR,160.0
LZKZ 230800Z 15003KT 0200 R01/0300N FG VV001 08/08 Q1022 NOSIG,LZKZ,2022-10-23T08:00:00Z,48.67,21.23,8.0,8.0,150,3,,0.12,30.177166,,,,,,TRUE,,,,FG,OVX,0,,,,,,,LIFR,,,,,,,,,,,100,METAR,227.0
LZIB 230800Z 05005KT 0250 R31/0400N R22/0375N FG VV001 09/09 Q1022 BECMG 0500 FG,LZIB,2022-10-23T08:00:00Z,48.17,17.22,9.0,9.0,50,5,,0.16,30.177166,,,,,,,,,,FG,OVX,0,,,,,,,LIFR,,,,,,,,,,,100,METAR,129.0
LYTV 230800Z 00000KT CAVOK 19/14 Q1025 NOSIG,LYTV,2022-10-23T08:00:00Z,42.4,18.72,19.0,14.0,0,0,,6.21,30.265747,,,,,,TRUE,,,,,CAVOK,,,,,,,,VFR,,,,,,,,,,,,SPECI,3.0
LYPG 230800Z VRB02KT CAVOK 17/08 Q1026 NOSIG,LYPG,2022-10-23T08:00:00Z,42.37,19.25,17.0,8.0,0,2,,6.21,30.295275,,,,,,TRUE,,,,,CAVOK,,,,,,,,VFR,,,,,,,,,,,,SPECI,32.0
LYNI 230800Z VRB01KT 9999 SCT037 17/11 Q1025 NOSIG,LYNI,2022-10-23T08:00:00Z,43.33,21.85,17.0,11.0,0,1,,6.21,30.265747,,,,,,TRUE,,,,,SCT,3700,,,,,,,VFR,,,,,,,,,,,,SPECI,197.0
LYBE 230800Z 21005KT 130V240 9999 FEW020 16/15 Q1025 NOSIG,LYBE,2022-10-23T08:00:00Z,44.82,20.28,16.0,15.0,210,5,,6.21,30.265747,,,,,,TRUE,,,,,FEW,2000,,,,,,,VFR,,,,,,,,,,,,SPECI,93.0
LWSK 230800Z 19002KT CAVOK 13/10 Q1026 NOSIG,LWSK,2022-10-23T08:00:00Z,41.97,21.63,13.0,10.0,190,2,,6.21,30.295275,,,,,,TRUE,,,,,CAVOK,,,,,,,,VFR,,,,,,,,,,,,METAR,232.0
LUKK 230800Z 33011KT 9999 BKN015 OVC052 13/10 Q1016 NOSIG,LUKK,2022-10-23T08:00:00Z,46.93,28.93,13.0,10.0,330,11,,6.21,30.0,,,,,,TRUE,,,,,BKN,1500,OVC,5200,,,,,MVFR,,,,,,,,,,,,METAR,102.0
LRTZ 230800Z 31018KT 9999 FEW100 19/07 Q1017 BLU BLU,LRTZ,2022-10-23T08:00:00Z,43.98,28.62,19.0,7.0,310,18,,6.21,30.029528,,,,,,,,,,,FEW,10000,,,,,,,VFR,,,,,,,,,,,,METAR,45.0
LRTR 230800Z 24003KT 200V260 9999 FEW005 OVC012 14/13 Q1024,LRTR,2022-10-23T08:00:00Z,45.82,21.33,14.0,13.0,240,3,,6.21,30.236221,,,,,,,,,,,FEW,500,OVC,1200,,,,,MVFR,,,,,,,,,,,,SPECI,104.0
LRTM 230800Z 23004KT 9999 SCT015 BKN030 14/12 Q1022,LRTM,2022-10-23T08:00:00Z,46.47,24.42,14.0,12.0,230,4,,6.21,30.177166,,,,,,,,,,,SCT,1500,BKN,3000,,,,,MVFR,,,,,,,,,,,,SPECI,289.0
LRTC 230800Z 31018KT CAVOK 18/06 Q1017,LRTC,2022-10-23T08:00:00Z,45.07,28.72,18.0,6.0,310,18,,6.21,30.029528,,,,,,,,,,,CAVOK,,,,,,,,VFR,,,,,,,,,,,,SPECI,52.0
LRSV 230800Z 31015KT 9999 FEW018 BKN029 15/12 Q1018,LRSV,2022-10-23T08:00:00Z,47.68,26.35,15.0,12.0,310,15,,6.21,30.059055,,,,,,,,,,,FEW,1800,BKN,2900,,,,,MVFR,,,,,,,,,,,,METAR,406.0
LRSM 230800Z 27007KT 5000 BR OVC004 12/11 Q1023,LRSM,2022-10-23T08:00:00Z,47.7,22.88,12.0,11.0,270,7,,3.11,30.206694,,,,,,,,,,BR,OVC,400,,,,,,,LIFR,,,,,,,,,,,,METAR,123.0
LRSB 230800Z 30014KT 9999 FEW040 15/09 Q1022,LRSB,2022-10-23T08:00:00Z,45.78,24.08,15.0,9.0,300,14,,6.21,30.177166,,,,,,,,,,,FEW,4000,,,,,,,VFR,,,,,,,,,,,,METAR,442.0
LROP 230800Z 23006KT CAVOK 19/08 Q1019 NOSIG,LROP,2022-10-23T08:00:00Z,44.57,26.1,19.0,8.0,230,6,,6.21,30.088583,,,,,,TRUE,,,,,CAVOK,,,,,,,,VFR,,,,,,,,,,,,SPECI,92.0
LROD 230800Z 19007KT 9000 OVC007 12/10 Q1024,LROD,2022-10-23T08:00:00Z,47.03,21.88,12.0,10.0,190,7,,5.59,30.236221,,,,,,,,,,,OVC,700,,,,,,,IFR,,,,,,,,,,,,METAR,132.0
LRIA 230800Z 29006KT 6000 SCT015 BKN018 OVC021 12/12 Q1018,LRIA,2022-10-23T08:00:00Z,47.17,27.62,12.0,12.0,290,6,,3.73,30.059055,,,,,,,,,,,SCT,1500,BKN,1800,OVC,2100,,,MVFR,,,,,,,,,,,,METAR,71.0
LRFT 230800Z 28014KT 9999 FEW100 18/07 Q1018 BLU BLU,LRFT,2022-10-23T08:00:00Z,44.38,27.72,18.0,7.0,280,14,,6.21,30.059055,,,,,,,,,,,FEW,10000,,,,,,,VFR,,,,,,,,,,,,METAR,54.0
LRCV 230800Z 26014KT CAVOK 18/10 Q1021,LRCV,2022-10-23T08:00:00Z,44.32,23.88,18.0,10.0,260,14,,6.21,30.147638,,,,,,,,,,,CAVOK,,,,,,,,VFR,,,,,,,,,,,,METAR,192.0
LRCT 230800Z 29008KT 9999 FEW026 OVC038 15/10 Q1021 BLU BLU,LRCT,2022-10-23T08:00:00Z,46.5,23.88,15.0,10.0,290,8,,6.21,30.147638,,,,,,,,,,,FEW,2600,OVC,3800,,,,,VFR,,,,,,,,,,,,METAR,324.0
LRCL 230800Z 29012KT 9999 SCT030 BKN042 14/10 Q1022,LRCL,2022-10-23T08:00:00Z,46.78,23.68,14.0,10.0,290,12,,6.21,30.177166,,,,,,,,,,,SCT,3000,BKN,4200,,,,,VFR,,,,,,,,,,,,METAR,313.0
LRCK 230800Z 28015KT CAVOK 18/07 Q1018 NOSIG,LRCK,2022-10-23T08:00:00Z,44.37,28.48,18.0,7.0,280,15,,6.21,30.059055,,,,,,TRUE,,,,,CAVOK,,,,,,,,VFR,,,,,,,,,,,,SPECI,108.0
LRBS 230800Z 24007KT CAVOK 18/09 Q1019 NOSIG,LRBS,2022-10-23T08:00:00Z,44.5,26.08,18.0,9.0,240,7,,6.21,30.088583,,,,,,TRUE,,,,,CAVOK,,,,,,,,VFR,,,,,,,,,,,,SPECI,91.0
LRBO 230800Z 34020KT 9999 FEW060 SCT110 20/09 Q1018 BLU BLU,LRBO,2022-10-23T08:00:00Z,45.22,26.97,20.0,9.0,340,20,,6.21,30.059055,,,,,,,,,,,FEW,6000,SCT,11000,,,,,VFR,,,,,,,,,,,,METAR,104.0
LRBM 230800Z AUTO 27004KT 6000 FEW005/// SCT007/// BKN009/// 11/10 Q1023,LRBM,2022-10-23T08:00:00Z,47.67,23.47,11.0,10.0,270,4,,3.73,30.206694,,,TRUE,,,,,,,,FEW,500,SCT,700,BKN,900,,,IFR,,,,,,,,,,,,METAR,180.0
LRBC 230800Z VRB01KT 9999 BKN055 15/11 Q1018,LRBC,2022-10-23T08:00:00Z,46.52,26.92,15.0,11.0,0,1,,6.21,30.059055,,,,,,,,,,,BKN,5500,,,,,,,VFR,,,,,,,,,,,,METAR,183.0
LRAR 230800Z VRB02KT 9999 OVC008 13/11 Q1024,LRAR,2022-10-23T08:00:00Z,46.18,21.27,13.0,11.0,0,2,,6.21,30.236221,,,,,,,,,,,OVC,800,,,,,,,IFR,,,,,,,,,,,,SPECI,102.0
LQTZ 230800Z VRB01KT 8000 FEW002 13/13 Q1024,LQTZ,2022-10-23T08:00:00Z,44.47,18.73,13.0,13.0,0,1,,4.97,30.236221,,,,,,,,,,,FEW,200,,,,,,,MVFR,,,,,,,,,,,,METAR,242.0
LQSA 230800Z VRB01KT CAVOK 13/09 Q1025 NOSIG,LQSA,2022-10-23T08:00:00Z,43.82,18.32,13.0,9.0,0,1,,6.21,30.265747,,,,,,TRUE,,,,,CAVOK,,,,,,,,VFR,,,,,,,,,,,,SPECI,505.0
LQMO 230800Z VRB02KT CAVOK 16/11 Q1024,LQMO,2022-10-23T08:00:00Z,43.28,17.83,16.0,11.0,0,2,,6.21,30.236221,,,,,,,,,,,CAVOK,,,,,,,,VFR,,,,,,,,,,,,METAR,49.0
LQBK 230800Z 16003KT 3000 R16/1200N BR BKN002 14/14 Q1023 TEMPO 5000 SCT005,LQBK,2022-10-23T08:00:00Z,44.93,17.3,14.0,14.0,160,3,,1.86,30.206694,,,,,,,,,,BR,BKN,200,,,,,,,LIFR,,,,,,,,,,,,METAR,114.0
LPPT 230800Z 22010KT 9999 FEW020 18/14 Q1014,LPPT,2022-10-23T08:00:00Z,38.77,-9.13,18.0,14.0,220,10,,6.21,29.940945,,,,,,,,,,,FEW,2000,,,,,,,VFR,,,,,,,,,,,,METAR,98.0
LPPS 230800Z 31005KT 9999 FEW015 19/13 Q1018,LPPS,2022-10-23T08:00:00Z,33.07,-16.35,19.0,13.0,310,5,,6.21,30.059055,,,,,,,,,,,FEW,1500,,,,,,,VFR,,,,,,,,,,,,METAR,89.0
LPPR 230800Z 20018KT 9999 -SHRA FEW009 SCT015 FEW020CB 17/16 Q1009,LPPR,2022-10-23T08:00:00Z,41.23,-8.68,17.0,16.0,200,18,,6.21,29.793306,,,,,,,,,,-SHRA,FEW,900,SCT,1500,FEW,2000,,,VFR,,,,,,,,,,,,METAR,64.0
LPPD 230800Z 28012KT 9999 -SHRA FEW018 BKN040 19/14 Q1015,LPPD,2022-10-23T08:00:00Z,37.73,-25.68,19.0,14.0,280,12,,6.21,29.970472,,,,,,,,,,-SHRA,FEW,1800,BKN,4000,,,,,VFR,,,,,,,,,,,,METAR,62.0
LPMT 230800Z 20007KT 9999 FEW025 18/14 Q1014,LPMT,2022-10-23T08:00:00Z,38.7,-9.05,18.0,14.0,200,7,,6.21,29.940945,,,,,,,,,,,FEW,2500,,,,,,,VFR,,,,,,,,,,,,METAR,4.0
LPMR 230800Z 18010KT 9999 -SHRA BKN024 SCT035 17/14 Q1012,LPMR,2022-10-23T08:00:00Z,39.82,-8.88,17.0,14.0,180,10,,6.21,29.88189,,,,,,,,,,-SHRA,BKN,2400,SCT,3500,,,,,MVFR,,,,,,,,,,,,METAR,50.0
LPMA 230800Z 26006KT 9999 SCT016 20/14 Q1018,LPMA,2022-10-23T08:00:00Z,32.7,-16.77,20.0,14.0,260,6,,6.21,30.059055,,,,,,,,,,,SCT,1600,,,,,,,VFR,,,,,,,,,,,,METAR,54.0
LPLA 230800Z /////KT 9999 FEW015 SCT020 BKN030 19/18 Q1014,LPLA,2022-10-23T08:00:00Z,38.77,-27.1,19.0,18.0,,,,6.21,29.940945,,,,,,,,,,,FEW,1500,SCT,2000,BKN,3000,,,MVFR,,,,,,,,,,,,METAR,60.0
LPHR 230800Z 30018KT 9999 -RA FEW014 20/18 Q1015,LPHR,2022-10-23T08:00:00Z,38.52,-28.72,20.0,18.0,300,18,,6.21,29.970472,,,,,,,,,,-RA,FEW,1400,,,,,,,VFR,,,,,,,,,,,,METAR,39.0
LPFR 230800Z 21009KT 9999 FEW012 SCT025 20/18 Q1016,LPFR,2022-10-23T08:00:00Z,37.02,-7.97,20.0,18.0,210,9,,6.21,30.0,,,,,,,,,,,FEW,1200,SCT,2500,,,,,VFR,,,,,,,,,,,,METAR,3.0
LPBJ 230800Z 19007KT 9999 FEW025 BKN045 16/15 Q1016,LPBJ,2022-10-23T08:00:00Z,38.08,-7.93,16.0,15.0,190,7,,6.21,30.0,,,,,,,,,,,FEW,2500,BKN,4500,,,,,VFR,,,,,,,,,,,,METAR,196.0
LPAZ 230800Z 27014KT 9999 FEW022 19/14 Q1016,LPAZ,2022-10-23T08:00:00Z,36.97,-25.17,19.0,14.0,270,14,,6.21,30.0,,,,,,,,,,,FEW,2200,,,,,,,VFR,,,,,,,,,,,,METAR,96.0
LOAV 230800Z VRB02KT CAVOK 11/08,LOAV,2022-10-23T08:00:00Z,47.97,16.27,11.0,8.0,0,2,,6.21,,,,,,,,,,,,CAVOK,,,,,,,,VFR,,,,,,,,,,,,METAR,232.0
LOAN 230800Z 10004KT 9999 VCFG FEW001,LOAN,2022-10-23T08:00:00Z,47.85,16.25,,,100,4,,6.21,,,,,,,,,,,VCFG,FEW,100,,,,,,,VFR,,,,,,,,,,,,METAR,266.0
LKTB 230800Z VRB02KT 0350 R27/0500N FG VV002 08/08 Q1022 NOSIG,LKTB,2022-10-23T08:00:00Z,49.15,16.68,8.0,8.0,0,2,,0.22,30.177166,,,,,,TRUE,,,,FG,OVX,0,,,,,,,LIFR,,,,,,,,,,,200,METAR,233.0
LKPR 230800Z 15003KT 100V170 9999 VCFG FEW002 12/11 Q1019 NOSIG,LKPR,2022-10-23T08:00:00Z,50.1,14.27,12.0,11.0,150,3,,6.21,30.088583,,,,,,TRUE,,,,VCFG,FEW,200,,,,,,,VFR,,,,,,,,,,,,METAR,364.0
LKPD 230800Z VRB02KT 0600 R27/0750D FG VV002 09/09 Q1021 NOSIG,LKPD,2022-10-23T08:00:00Z,50.02,15.73,9.0,9.0,0,2,,0.37,30.147638,,,,,,TRUE,,,,FG,OVX,0,,,,,,,LIFR,,,,,,,,,,,200,METAR,226.0
LKNA 230800Z 13004KT 0100 R30/0200N FG VV001 06/06 Q1021 NOSIG RMK RED RED,LKNA,2022-10-23T08:00:00Z,49.17,16.12,6.0,6.0,130,4,,0.06,30.147638,,,,,,TRUE,,,,FG,OVX,0,,,,,,,LIFR,,,,,,,,,,,100,METAR,460.0
LKMT 230800Z 20012KT 9999 OVC013 12/10 Q1021 NOSIG,LKMT,2022-10-23T08:00:00Z,49.68,18.12,12.0,10.0,200,12,,6.21,30.147638,,,,,,TRUE,,,,,OVC,1300,,,,,,,MVFR,,,,,,,,,,,,METAR,251.0
LKLN 230800Z AUTO 00000KT 0200 FG VV002 07/07 Q1020,LKLN,2022-10-23T08:00:00Z,49.68,13.27,7.0,7.0,0,0,,0.12,30.11811,,,TRUE,,,,,,,FG,OVX,0,,,,,,,LIFR,,,,,,,,,,,200,METAR,353.0
LKKV 230800Z VRB02KT CAVOK 12/11 Q1019,LKKV,2022-10-23T08:00:00Z,50.2,12.92,12.0,11.0,0,2,,6.21,30.088583,,,,,,,,,,,CAVOK,,,,,,,,VFR,,,,,,,,,,,,METAR,600.0
LKKU 230800Z 31002KT 0200 FG BKN002 10/10 Q1022,LKKU,2022-10-23T08:00:00Z,49.05,17.45,10.0,10.0,310,2,,0.12,30.177166,,,,,,,,,,FG,BKN,200,,,,,,,LIFR,,,,,,,,,,,,METAR,176.0
LKKB 230800Z 06003KT CAVOK 09/09 Q1020 NOSIG,LKKB,2022-10-23T08:00:00Z,50.12,14.53,9.0,9.0,60,3,,6.21,30.11811,,,,,,TRUE,,,,,CAVOK,,,,,,,,VFR,,,,,,,,,,,,METAR,281.0
LKCV 230800Z 10004KT CAVOK 12/10 Q1020 NOSIG RMK BLU BLU,LKCV,2022-10-23T08:00:00Z,49.93,15.38,12.0,10.0,100,4,,6.21,30.11811,,,,,,TRUE,,,,,CAVOK,,,,,,,,VFR,,,,,,,,,,,,METAR,234.0
LJPZ 230800Z 14007KT 100V170 9999 FEW013 SCT060 21/18 Q1022,LJPZ,2022-10-23T08:00:00Z,45.47,13.62,21.0,18.0,140,7,,6.21,30.177166,,,,,,,,,,,FEW,1300,SCT,6000,,,,,VFR,,,,,,,,,,,,SPECI,2.0
LJMB 230800Z VRB01KT 9999 FEW007 BKN190 12/11 Q1022,LJMB,2022-10-23T08:00:00Z,46.47,15.67,12.0,11.0,0,1,,6.21,30.177166,,,,,,,,,,,FEW,700,BKN,19000,,,,,VFR,,,,,,,,,,,,SPECI,263.0
LJLJ 230800Z 00000KT 9999 SCT001 BKN033 10/10 Q1023 NOSIG,LJLJ,2022-10-23T08:00:00Z,46.22,14.47,10.0,10.0,0,0,,6.21,30.206694,,,,,,TRUE,,,,,SCT,100,BKN,3300,,,,,VFR,,,,,,,,,,,,SPECI,363.0
LJCE 230800Z VRB02KT 9999 SCT005 BKN090 14/13 Q1023 RMK BLU,LJCE,2022-10-23T08:00:00Z,45.9,15.52,14.0,13.0,0,2,,6.21,30.206694,,,,,,,,,,,SCT,500,BKN,9000,,,,,VFR,,,,,,,,,,,,METAR,153.0
LHBP 230800Z 22004KT 190V250 0400 R13R/0800U R13L/0325N FG VV002 10/10 Q1023 TEMPO TL0930 0700 FG BKN002 TEMPO FM0930 1000 BR BCFG SCT003,LHBP,2022-10-23T08:00:00Z,47.43,19.27,10.0,10.0,220,4,,0.25,30.206694,,,,,,,,,,FG,OVX,0,,,,,,,LIFR,,,,,,,,,,,200,METAR,141.0
LFYR 230800Z AUTO 14007KT CAVOK 16/13 Q1007,LFYR,2022-10-23T08:00:00Z,47.32,1.68,16.0,13.0,140,7,,6.21,29.734253,,,TRUE,,,,,,,,CAVOK,,,,,,,,VFR,,,,,,,,,,,,METAR,83.0
LFVP 230800Z AUTO 25014KT 9999 BKN017 12/11 Q1027,LFVP,2022-10-23T08:00:00Z,46.77,-56.18,12.0,11.0,250,14,,6.21,30.324802,,,TRUE,,,,,,,,BKN,1700,,,,,,,MVFR,,,,,,,,,,,,METAR,5.0
LFTW 230800Z AUTO 13007KT 090V180 9999 OVC014 20/18 Q1017 BECMG 14015G25KT,LFTW,2022-10-23T08:00:00Z,43.75,4.42,20.0,18.0,130,7,,6.21,30.029528,,,TRUE,,,,,,,,OVC,1400,,,,,,,MVFR,,,,,,,,,,,,METAR,91.0
LFTH 230800Z AUTO 06005KT 9999 BKN019 BKN024 22/19 Q1019 NOSIG,LFTH,2022-10-23T08:00:00Z,43.1,6.15,22.0,19.0,60,5,,6.21,30.088583,,,TRUE,,,TRUE,,,,,BKN,1900,BKN,2400,,,,,MVFR,,,,,,,,,,,,METAR,3.0
LFSX 230800Z AUTO 09007KT CAVOK 16/12 Q1013,LFSX,2022-10-23T08:00:00Z,47.77,6.35,16.0,12.0,90,7,,6.21,29.911417,,,TRUE,,,,,,,,CAVOK,,,,,,,,VFR,,,,,,,,,,,,METAR,266.0
LFST 230800Z AUTO VRB01KT CAVOK 14/12 Q1014 NOSIG,LFST,2022-10-23T08:00:00Z,48.53,7.63,14.0,12.0,0,1,,6.21,29.940945,,,TRUE,,,TRUE,,,,,CAVOK,,,,,,,,VFR,,,,,,,,,,,,METAR,149.0
LFSO 230800Z AUTO 19013KT CAVOK 17/13 Q1012,LFSO,2022-10-23T08:00:00Z,48.57,5.97,17.0,13.0,190,13,,6.21,29.88189,,,TRUE,,,,,,,,CAVOK,,,,,,,,VFR,,,,,,,,,,,,METAR,328.0
LFSN 230800Z AUTO 00000KT CAVOK 12/12 Q1013,LFSN,2022-10-23T08:00:00Z,48.68,6.22,12.0,12.0,0,0,,6.21,29.911417,,,TRUE,,,,,,,,CAVOK,,,,,,,,VFR,,,,,,,,,,,,METAR,214.0
LFSM 230800Z AUTO 09003KT 050V120 CAVOK 12/12 Q1014,LFSM,2022-10-23T08:00:00Z,47.48,6.78,12.0,12.0,90,3,,6.21,29.940945,,,TRUE,,,,,,,,CAVOK,,,,,,,,VFR,,,,,,,,,,,,METAR,317.0
LFSL 230800Z AUTO 16005KT CAVOK 19/13 Q1009 NOSIG,LFSL,2022-10-23T08:00:00Z,45.03,1.48,19.0,13.0,160,5,,6.21,29.793306,,,TRUE,,,TRUE,,,,,CAVOK,,,,,,,,VFR,,,,,,,,,,,,METAR,300.0
LFSI 230800Z AUTO 16009KT CAVOK 18/13 Q1010,LFSI,2022-10-23T08:00:00Z,48.62,4.9,18.0,13.0,160,9,,6.21,29.822834,,,TRUE,,,,,,,,CAVOK,,,,,,,,VFR,,,,,,,,,,,,METAR,136.0
LFSG 230800Z AUTO 19011KT CAVOK 17/13 Q1013,LFSG,2022-10-23T08:00:00Z,48.33,6.07,17.0,13.0,190,11,,6.21,29.911417,,,TRUE,,,,,,,,CAVOK,,,,,,,,VFR,,,,,,,,,,,,METAR,320.0
LFSD 230800Z AUTO 05001KT 9999 ////// 13/13 Q1012,LFSD,2022-10-23T08:00:00Z,47.27,5.08,13.0,13.0,50,1,,6.21,29.88189,,,TRUE,,,,,,,,,,,,,,,,,,,,,,,,,,,,METAR,218.0
LFSB 230800Z AUTO 14010KT CAVOK 16/11 Q1015 NOSIG,LFSB,2022-10-23T08:00:00Z,47.6,7.52,16.0,11.0,140,10,,6.21,29.970472,,,TRUE,,,TRUE,,,,,CAVOK,,,,,,,,VFR,,,,,,,,,,,,METAR,262.0
LFRZ 230800Z AUTO 10003KT CAVOK 15/13 Q1002 BECMG 20018G38KT 4000 SHRA SCT020 BKN050CB,LFRZ,2022-10-23T08:00:00Z,47.32,-2.17,15.0,13.0,100,3,,6.21,29.586615,,,TRUE,,,,,,,,CAVOK,,,,,,,,VFR,,,1.8,,,,,,,,,METAR,2.0
LFRV 230800Z AUTO 11008KT CAVOK 15/12 Q1001,LFRV,2022-10-23T08:00:00Z,47.72,-2.72,15.0,12.0,110,8,,6.21,29.557087,,,TRUE,,,,,,,,CAVOK,,,,,,,,VFR,,,,,,,,,,,,METAR,132.0
LFRU 230800Z AUTO 14006KT CAVOK 13/11 Q0999,LFRU,2022-10-23T08:00:00Z,48.6,-3.82,13.0,11.0,140,6,,6.21,29.498032,,,TRUE,,,,,,,,CAVOK,,,,,,,,VFR,,,,,,,,,,,,METAR,85.0
LFRT 230800Z AUTO 14006KT 9999 //////TCU 13/11 Q1001,LFRT,2022-10-23T08:00:00Z,48.53,-2.85,13.0,11.0,140,6,,6.21,29.557087,,,TRUE,,,,,,,,,,,,,,,,,,,,,,,,,,,,METAR,134.0
LFRS 230800Z AUTO 15006KT 9999 FEW008 17/16 Q1002 BECMG 20018G35KT,LFRS,2022-10-23T08:00:00Z,47.17,-1.6,17.0,16.0,150,6,,6.21,29.586615,,,TRUE,,,,,,,,FEW,800,,,,,,,VFR,,,1.8,,,,,,,,,METAR,26.0
LFRQ 230800Z AUTO 08005KT CAVOK 13/13 Q0999 TEMPO 2000 TSRAGR BKN008 BKN015CB BECMG 14015G30KT,LFRQ,2022-10-23T08:00:00Z,47.97,-4.17,13.0,13.0,80,5,,6.21,29.498032,,,TRUE,,,,,,,,CAVOK,,,,,,,,VFR,,,,,,,,,,,,METAR,94.0
LFRO 230800Z AUTO 12005KT 090V150 CAVOK 12/11 Q1000,LFRO,2022-10-23T08:00:00Z,48.75,-3.47,12.0,11.0,120,5,,6.21,29.52756,,,TRUE,,,,,,,,CAVOK,,,,,,,,VFR,,,,,,,,,,,,METAR,86.0
LFRN 230800Z AUTO 10003KT 040V140 9999 FEW040 BKN047 OVC054 16/14 Q1002 TEMPO 4000 SHRA BKN008 BKN015CB,LFRN,2022-10-23T08:00:00Z,48.07,-1.73,16.0,14.0,100,3,,6.21,29.586615,,,TRUE,,,,,,,,FEW,4000,BKN,4700,OVC,5400,,,VFR,,,,,,,,,,,,METAR,35.0
LFRM 230800Z AUTO 16007KT 130V210 CAVOK 18/14 Q1004 TEMPO SHRA SCT080CB,LFRM,2022-10-23T08:00:00Z,47.95,0.2,18.0,14.0,160,7,,6.21,29.64567,,,TRUE,,,,,,,,CAVOK,,,,,,,,VFR,,,,,,,,,,,,METAR,51.0
LFRL 230800Z AUTO 13010KT CAVOK 13/13 Q0999,LFRL,2022-10-23T08:00:00Z,48.27,-4.43,13.0,13.0,130,10,,6.21,29.498032,,,TRUE,,,,,,,,CAVOK,,,,,,,,VFR,,,,,,,,,,,,METAR,80.0
LFRK 230800Z AUTO 14007KT 9999 BKN033 OVC066 16/14 Q1003 TEMPO 18015G25KT 3000 SHRA BKN008 BKN015CB,LFRK,2022-10-23T08:00:00Z,49.17,-0.45,16.0,14.0,140,7,,6.21,29.616142,,,TRUE,,,,,,,,BKN,3300,OVC,6600,,,,,VFR,,,,,,,,,,,,METAR,66.0
LFRJ 230800Z AUTO 14010KT CAVOK 13/12 Q0999,LFRJ,2022-10-23T08:00:00Z,48.52,-4.15,13.0,12.0,140,10,,6.21,29.498032,,,TRUE,,,,,,,,CAVOK,,,,,,,,VFR,,,,,,,,,,,,METAR,109.0
LFRI 230800Z AUTO 14008KT CAVOK 17/14 Q1003 TEMPO 3000 SHRA SCT020 SCT080CB BECMG 20018G35KT,LFRI,2022-10-23T08:00:00Z,46.7,-1.37,17.0,14.0,140,8,,6.21,29.616142,,,TRUE,,,,,,,,CAVOK,,,,,,,,VFR,,,1.8,,,,,,,,,METAR,89.0
LFRH 230800Z AUTO 10009KT CAVOK 14/12 Q1000 BECMG 20015G30KT BKN030CB,LFRH,2022-10-23T08:00:00Z,47.77,-3.45,14.0,12.0,100,9,,6.21,29.52756,,,TRUE,,,,,,,,CAVOK,,,,,,,,VFR,,,1.5,,,,,,,,,METAR,46.0
LFRG 230800Z AUTO 15013KT CAVOK 16/14 Q1003 TEMPO 18015G25KT 3000 SHRA BKN008 BKN015CB,LFRG,2022-10-23T08:00:00Z,49.37,0.15,16.0,14.0,150,13,,6.21,29.616142,,,TRUE,,,,,,,,CAVOK,,,,,,,,VFR,,,,,,,,,,,,METAR,146.0
LFRD 230800Z AUTO 14006KT 110V170 CAVOK 16/13 Q1002 TEMPO 4000 SHRA BKN008 BKN015CB,LFRD,2022-10-23T08:00:00Z,48.58,-2.07,16.0,13.0,140,6,,6.21,29.586615,,,TRUE,,,,,,,,CAVOK,,,,,,,,VFR,,,,,,,,,,,,METAR,56.0
LFRC 230800Z AUTO 16006KT CAVOK 15/14 Q1002 TEMPO 18015G25KT 4000 SHRA BKN008 BKN015CB,LFRC,2022-10-23T08:00:00Z,49.63,-1.47,15.0,14.0,160,6,,6.21,29.586615,,,TRUE,,,,,,,,CAVOK,,,,,,,,VFR,,,,,,,,,,,,METAR,137.0
LFRB 230800Z AUTO 11008KT CAVOK 13/12 Q0999 TEMPO 2000 TSRAGR BKN008 BKN015CB BECMG 18010KT,LFRB,2022-10-23T08:00:00Z,48.45,-4.42,13.0,12.0,110,8,,6.21,29.498032,,,TRUE,,,,,,,,CAVOK,,,,,,,,VFR,,,,,,,,,,,,METAR,91.0
LFQQ 230800Z AUTO 11005KT 070V150 9999 -RA FEW025/// OVC094/// //////TCU 15/14 Q1007 TEMPO 4000 RA,LFQQ,2022-10-23T08:00:00Z,50.57,3.1,15.0,14.0,110,5,,6.21,29.734253,,,TRUE,,,,,,,-RA,FEW,2500,OVC,9400,,,,,VFR,,,,,,,,,,,,METAR,43.0
LFQG 230800Z AUTO 14008KT CAVOK 17/14 Q1010,LFQG,2022-10-23T08:00:00Z,47.0,3.1,17.0,14.0,140,8,,6.21,29.822834,,,TRUE,,,,,,,,CAVOK,,,,,,,,VFR,,,,,,,,,,,,METAR,172.0
LFQB 230800Z AUTO 18010KT CAVOK 17/14 Q1009,LFQB,2022-10-23T08:00:00Z,48.32,4.02,17.0,14.0,180,10,,6.21,29.793306,,,TRUE,,,,,,,,CAVOK,,,,,,,,VFR,,,,,,,,,,,,METAR,107.0
LFQA 230800Z AUTO 14012KT CAVOK 16/14 Q1009,LFQA,2022-10-23T08:00:00Z,49.2,4.15,16.0,14.0,140,12,,6.21,29.793306,,,TRUE,,,,,,,,CAVOK,,,,,,,,VFR,,,,,,,,,,,,METAR,92.0
LFPV 230800Z AUTO 14009KT CAVOK 15/13 Q1007 TEMPO 4500 -SHRA BKN035TCU,LFPV,2022-10-23T08:00:00Z,48.77,2.2,15.0,13.0,140,9,,6.21,29.734253,,,TRUE,,,,,,,,CAVOK,,,,,,,,VFR,,,,,,,,,,,,METAR,171.0
LFPT 230800Z AUTO 14005KT CAVOK 16/14 Q1006,LFPT,2022-10-23T08:00:00Z,49.1,2.03,16.0,14.0,140,5,,6.21,29.704725,,,TRUE,,,,,,,,CAVOK,,,,,,,,VFR,,,,,,,,,,,,METAR,91.0
LFPO 230800Z 14005KT CAVOK 16/14 Q1007 NOSIG,LFPO,2022-10-23T08:00:00Z,48.72,2.38,16.0,14.0,140,5,,6.21,29.734253,,,,,,TRUE,,,,,CAVOK,,,,,,,,VFR,,,,,,,,,,,,METAR,88.0
LFPN 230800Z AUTO 15008KT CAVOK 16/13 Q1007 NOSIG,LFPN,2022-10-23T08:00:00Z,48.75,2.12,16.0,13.0,150,8,,6.21,29.734253,,,TRUE,,,TRUE,,,,,CAVOK,,,,,,,,VFR,,,,,,,,,,,,METAR,152.0
LFPM 230800Z AUTO 15011KT CAVOK 17/14 Q1007,LFPM,2022-10-23T08:00:00Z,48.62,2.67,17.0,14.0,150,11,,6.21,29.734253,,,TRUE,,,,,,,,CAVOK,,,,,,,,VFR,,,,,,,,,,,,METAR,91.0
LFPG 230800Z 15010KT CAVOK 16/14 Q1007 NOSIG,LFPG,2022-10-23T08:00:00Z,49.02,2.53,16.0,14.0,150,10,,6.21,29.734253,,,,,,TRUE,,,,,CAVOK,,,,,,,,VFR,,,,,,,,,,,,METAR,107.0
LFPB 230800Z AUTO 13006KT CAVOK 16/14 Q1007 NOSIG,LFPB,2022-10-23T08:00:00Z,48.97,2.42,16.0,14.0,130,6,,6.21,29.734253,,,TRUE,,,TRUE,,,,,CAVOK,,,,,,,,VFR,,,,,,,,,,,,METAR,50.0
LFOZ 230800Z AUTO 15010KT CAVOK 16/13 Q1007,LFOZ,2022-10-23T08:00:00Z,47.9,2.17,16.0,13.0,150,10,,6.21,29.734253,,,TRUE,,,,,,,,CAVOK,,,,,,,,VFR,,,,,,,,,,,,METAR,121.0
LFOV 230800Z AUTO 15006KT 9999 FEW025 BKN200 OVC220 16/14 Q1003,LFOV,2022-10-23T08:00:00Z,48.03,-0.75,16.0,14.0,150,6,,6.21,29.616142,,,TRUE,,,,,,,,FEW,2500,BKN,20000,OVC,22000,,,VFR,,,,,,,,,,,,METAR,99.0
LFOT 230800Z AUTO 14006KT CAVOK 16/13 Q1006 TEMPO 4000 SHRA SCT030TCU BECMG 20015G25KT,LFOT,2022-10-23T08:00:00Z,47.43,0.72,16.0,13.0,140,6,,6.21,29.704725,,,TRUE,,,,,,,,CAVOK,,,,,,,,VFR,,,1.5,,,,,,,,,METAR,107.0
LFOP 230800Z AUTO 13013KT 9999 FEW007 SCT056 BKN140 15/14 Q1005 NOSIG,LFOP,2022-10-23T08:00:00Z,49.37,1.17,15.0,14.0,130,13,,6.21,29.675198,,,TRUE,,,TRUE,,,,,FEW,700,SCT,5600,BKN,14000,,,VFR,,,,,,,,,,,,METAR,149.0
LFOK 230800Z AUTO 17013KT CAVOK 16/14 Q1009 NOSIG,LFOK,2022-10-23T08:00:00Z,48.78,4.15,16.0,14.0,170,13,,6.21,29.793306,,,TRUE,,,TRUE,,,,,CAVOK,,,,,,,,VFR,,,,,,,,,,,,METAR,166.0
LFOJ 230800Z AUTO 15009KT CAVOK 16/13 Q1006 NOSIG,LFOJ,2022-10-23T08:00:00Z,47.98,1.75,16.0,13.0,150,9,,6.21,29.704725,,,TRUE,,,TRUE,,,,,CAVOK,,,,,,,,VFR,,,,,,,,,,,,METAR,122.0
LFOH 230800Z AUTO 14010KT CAVOK 17/14 Q1003 NOSIG,LFOH,2022-10-23T08:00:00Z,49.52,0.08,17.0,14.0,140,10,,6.21,29.616142,,,TRUE,,,TRUE,,,,,CAVOK,,,,,,,,VFR,,,,,,,,,,,,METAR,87.0
LFOE 230800Z AUTO 15010KT CAVOK 15/14 Q1005 NOSIG,LFOE,2022-10-23T08:00:00Z,49.02,1.22,15.0,14.0,150,10,,6.21,29.675198,,,TRUE,,,TRUE,,,,,CAVOK,,,,,,,,VFR,,,,,,,,,,,,METAR,132.0
LFOB 230800Z AUTO 13007KT CAVOK 15/14 Q1006 NOSIG,LFOB,2022-10-23T08:00:00Z,49.47,2.12,15.0,14.0,130,7,,6.21,29.704725,,,TRUE,,,TRUE,,,,,CAVOK,,,,,,,,VFR,,,,,,,,,,,,METAR,99.0
LFOA 230800Z AUTO 14006KT 110V170 CAVOK 18/14 Q1009 TEMPO 20015G25KT 4000 SHRA SCT050CB,LFOA,2022-10-23T08:00:00Z,47.05,2.63,18.0,14.0,140,6,,6.21,29.793306,,,TRUE,,,,,,,,CAVOK,,,,,,,,VFR,,,1.5,,,,,,,,,METAR,174.0
LFMY 230800Z AUTO 09004KT 060V120 CAVOK 20/16 Q1017,LFMY,2022-10-23T08:00:00Z,43.6,5.1,20.0,16.0,90,4,,6.21,30.029528,,,TRUE,,,,,,,,CAVOK,,,,,,,,VFR,,,,,,,,,,,,METAR,57.0
LFMV 230800Z AUTO 14007KT CAVOK 21/16 Q1017 NOSIG,LFMV,2022-10-23T08:00:00Z,43.9,4.9,21.0,16.0,140,7,,6.21,30.029528,,,TRUE,,,TRUE,,,,,CAVOK,,,,,,,,VFR,,,,,,,,,,,,METAR,33.0
LFMU 230800Z AUTO 11007KT 080V140 9999 BKN007 OVC011 21/20 Q1015 TEMPO 4000 BR OVC004,LFMU,2022-10-23T08:00:00Z,43.32,3.35,21.0,20.0,110,7,,6.21,29.970472,,,TRUE,,,,,,,,BKN,700,OVC,1100,,,,,IFR,,,,,,,,,,,,METAR,14.0
LFMT 230800Z AUTO 13016KT 6000 SCT008 BKN013 BKN023 21/20 Q1016 TEMPO 14015G25KT 3000 BR OVC004,LFMT,2022-10-23T08:00:00Z,43.57,3.97,21.0,20.0,130,16,,3.73,30.0,,,TRUE,,,,,,,,SCT,800,BKN,1300,BKN,2300,,,MVFR,,,,,,,,,,,,METAR,1.0
LFMP 230800Z AUTO VRB02KT CAVOK 17/15 Q1014 NOSIG,LFMP,2022-10-23T08:00:00Z,42.73,2.87,17.0,15.0,0,2,,6.21,29.940945,,,TRUE,,,TRUE,,,,,CAVOK,,,,,,,,VFR,,,,,,,,,,,,METAR,41.0
LFMO 230800Z AUTO VRB02KT CAVOK 16/15 Q1017 NOSIG,LFMO,2022-10-23T08:00:00Z,44.13,4.87,16.0,15.0,0,2,,6.21,30.029528,,,TRUE,,,TRUE,,,,,CAVOK,,,,,,,,VFR,,,,,,,,,,,,METAR,56.0
LFMN 230800Z 34008KT CAVOK 19/13 Q1021 NOSIG,LFMN,2022-10-23T08:00:00Z,43.65,7.2,19.0,13.0,340,8,,6.21,30.147638,,,,,,TRUE,,,,,CAVOK,,,,,,,,VFR,,,,,,,,,,,,METAR,4.0
LFML 230800Z AUTO 12012KT CAVOK 23/15 Q1017 NOSIG,LFML,2022-10-23T08:00:00Z,43.45,5.22,23.0,15.0,120,12,,6.21,30.029528,,,TRUE,,,TRUE,,,,,CAVOK,,,,,,,,VFR,,,,,,,,,,,,METAR,20.0
LFMK 230800Z AUTO 09014KT 060V130 9999 FEW010 OVC240 19/17 Q1014 BECMG 09015G25KT,LFMK,2022-10-23T08:00:00Z,43.22,2.32,19.0,17.0,90,14,,6.21,29.940945,,,TRUE,,,,,,,,FEW,1000,OVC,24000,,,,,VFR,,,,,,,,,,,,METAR,124.0
LFMI 230800Z AUTO 11009KT CAVOK 22/17 Q1017 BECMG 14015G25KT,LFMI,2022-10-23T08:00:00Z,43.52,4.93,22.0,17.0,110,9,,6.21,30.029528,,,TRUE,,,,,,,,CAVOK,,,,,,,,VFR,,,,,,,,,,,,METAR,20.0
LFMH 230800Z AUTO 19016G27KT 170V230 CAVOK 22/14 Q1013,LFMH,2022-10-23T08:00:00Z,45.52,4.28,22.0,14.0,190,16,27,6.21,29.911417,,,TRUE,,,,,,,,CAVOK,,,,,,,,VFR,,,,,,,,,,,,METAR,400.0
LFMD 230800Z AUTO 02003KT 330V060 CAVOK 19/16 Q1020 NOSIG,LFMD,2022-10-23T08:00:00Z,43.53,6.95,19.0,16.0,20,3,,6.21,30.11811,,,TRUE,,,TRUE,,,,,CAVOK,,,,,,,,VFR,,,,,,,,,,,,METAR,2.0
LFMC 230800Z AUTO 06006KT 9999 ////// 20/19 Q1020,LFMC,2022-10-23T08:00:00Z,43.37,6.38,20.0,19.0,60,6,,6.21,30.11811,,,TRUE,,,,,,,,,,,,,,,,,,,,,,,,,,,,METAR,79.0
LFLY 230800Z AUTO 20015KT CAVOK 21/14 Q1013 BECMG 18015G25KT,LFLY,2022-10-23T08:00:00Z,45.72,4.95,21.0,14.0,200,15,,6.21,29.911417,,,TRUE,,,,,,,,CAVOK,,,,,,,,VFR,,,,,,,,,,,,METAR,197.0
LFLX 230800Z AUTO 14007KT CAVOK 18/13 Q1007 BECMG 22015G27KT,LFLX,2022-10-23T08:00:00Z,46.87,1.73,18.0,13.0,140,7,,6.21,29.734253,,,TRUE,,,,,,,,CAVOK,,,,,,,,VFR,,,,,,,,,,,,METAR,157.0
LFLW 230800Z AUTO 14016G27KT CAVOK 18/13 Q1012 NOSIG,LFLW,2022-10-23T08:00:00Z,44.88,2.42,18.0,13.0,140,16,27,6.21,29.88189,,,TRUE,,,TRUE,,,,,CAVOK,,,,,,,,VFR,,,,,,,,,,,,METAR,638.0
LFLV 230800Z AUTO 17009KT CAVOK 19/14 Q1011,LFLV,2022-10-23T08:00:00Z,46.17,3.38,19.0,14.0,170,9,,6.21,29.852362,,,TRUE,,,,,,,,CAVOK,,,,,,,,VFR,,,,,,,,,,,,METAR,248.0
LFLU 230800Z AUTO 16007KT 120V200 CAVOK 19/16 Q1015,LFLU,2022-10-23T08:00:00Z,44.92,4.98,19.0,16.0,160,7,,6.21,29.970472,,,TRUE,,,,,,,,CAVOK,,,,,,,,VFR,,,,,,,,,,,,METAR,162.0
LFLS 230800Z AUTO 07004KT 040V100 CAVOK 16/14 Q1016 BECMG 21010KT,LFLS,2022-10-23T08:00:00Z,45.37,5.32,16.0,14.0,70,4,,6.21,30.0,,,TRUE,,,,,,,,CAVOK,,,,,,,,VFR,,,-1.0,,,,,,,,,METAR,386.0
LFLP 230800Z AUTO 00000KT CAVOK 11/10 Q1017 BECMG 23010KT,LFLP,2022-10-23T08:00:00Z,45.92,6.1,11.0,10.0,0,0,,6.21,30.029528,,,TRUE,,,,,,,,CAVOK,,,,,,,,VFR,,,,,,,,,,,,METAR,460.0
LFLN 230800Z AUTO 16011KT 140V200 CAVOK 21/14 Q1010 TEMPO 17018G35KT,LFLN,2022-10-23T08:00:00Z,46.42,4.02,21.0,14.0,160,11,,6.21,29.822834,,,TRUE,,,,,,,,CAVOK,,,,,,,,VFR,,,,,,,,,,,,METAR,238.0
LFLL 230800Z 17019KT CAVOK 21/13 Q1013 NOSIG,LFLL,2022-10-23T08:00:00Z,45.72,5.07,21.0,13.0,170,19,,6.21,29.911417,,,,,,TRUE,,,,,CAVOK,,,,,,,,VFR,,,,,,,,,,,,METAR,234.0
LFLH 230800Z AUTO VRB03KT CAVOK 13/13 Q1012,LFLH,2022-10-23T08:00:00Z,46.83,4.82,13.0,13.0,0,3,,6.21,29.88189,,,TRUE,,,,,,,,CAVOK,,,,,,,,VFR,,,,,,,,,,,,METAR,190.0
LFLC 230800Z AUTO 15018KT CAVOK 21/13 Q1011 TEMPO 18015G30KT,LFLC,2022-10-23T08:00:00Z,45.78,3.17,21.0,13.0,150,18,,6.21,29.852362,,,TRUE,,,,,,,,CAVOK,,,,,,,,VFR,,,,,,,,,,,,METAR,325.0
LFLB 230800Z AUTO 11001KT CAVOK 12/12 Q1016 BECMG 20010KT,LFLB,2022-10-23T08:00:00Z,45.63,5.87,12.0,12.0,110,1,,6.21,30.0,,,TRUE,,,,,,,,CAVOK,,,,,,,,VFR,,,1.0,,,,,,,,,METAR,234.0
LFKS 230800Z AUTO 36006KT 9999 BKN011 OVC140 22/19 Q1021,LFKS,2022-10-23T08:00:00Z,41.92,9.4,22.0,19.0,360,6,,6.21,30.147638,,,TRUE,,,,,,,,BKN,1100,OVC,14000,,,,,MVFR,,,,,,,,,,,,METAR,22.0
LFKJ 230800Z AUTO 03006KT CAVOK 22/12 Q1021 NOSIG,LFKJ,2022-10-23T08:00:00Z,41.92,8.8,22.0,12.0,30,6,,6.21,30.147638,,,TRUE,,,TRUE,,,,,CAVOK,,,,,,,,VFR,,,,,,,,,,,,METAR,9.0
LFKF 230800Z AUTO 05005KT 030V110 CAVOK 22/18 Q1021 NOSIG,LFKF,2022-10-23T08:00:00Z,41.5,9.08,22.0,18.0,50,5,,6.21,30.147638,,,TRUE,,,TRUE,,,,,CAVOK,,,,,,,,VFR,,,,,,,,,,,,METAR,15.0
LFKC 230800Z AUTO 16004KT CAVOK 22/12 Q1020 NOSIG,LFKC,2022-10-23T08:00:00Z,42.52,8.8,22.0,12.0,160,4,,6.21,30.11811,,,TRUE,,,TRUE,,,,,CAVOK,,,,,,,,VFR,,,,,,,,,,,,METAR,38.0
LFKB 230800Z AUTO 26003KT 220V280 9999 OVC020 21/17 Q1021 NOSIG,LFKB,2022-10-23T08:00:00Z,42.55,9.48,21.0,17.0,260,3,,6.21,30.147638,,,TRUE,,,TRUE,,,,,OVC,2000,,,,,,,MVFR,,,,,,,,,,,,METAR,7.0
LFJR 230800Z AUTO 15010KT 120V190 CAVOK 17/14 Q1004,LFJR,2022-10-23T08:00:00Z,47.57,-0.32,17.0,14.0,150,10,,6.21,29.64567,,,TRUE,,,,,,,,CAVOK,,,,,,,,VFR,,,,,,,,,,,,METAR,50.0
LFJL 230800Z AUTO 15013KT CAVOK 15/11 Q1012 NOSIG,LFJL,2022-10-23T08:00:00Z,48.97,6.25,15.0,11.0,150,13,,6.21,29.88189,,,TRUE,,,TRUE,,,,,CAVOK,,,,,,,,VFR,,,,,,,,,,,,METAR,259.0
LFHP 230800Z AUTO 17013G25KT 140V210 CAVOK 18/13 Q1015,LFHP,2022-10-23T08:00:00Z,45.07,3.77,18.0,13.0,170,13,25,6.21,29.970472,,,TRUE,,,,,,,,CAVOK,,,,,,,,VFR,,,,,,,,,,,,METAR,829.0
LFGJ 230800Z AUTO 20008KT 160V220 CAVOK 14/13 Q1013 BECMG 20015G25KT,LFGJ,2022-10-23T08:00:00Z,47.05,5.43,14.0,13.0,200,8,,6.21,29.911417,,,TRUE,,,,,,,,CAVOK,,,,,,,,VFR,,,1.5,,,,,,,,,METAR,191.0
LFGA 230800Z AUTO 00000KT CAVOK 15/11 Q1014,LFGA,2022-10-23T08:00:00Z,48.1,7.35,15.0,11.0,0,0,,6.21,29.940945,,,TRUE,,,,,,,,CAVOK,,,,,,,,VFR,,,,,,,,,,,,METAR,191.0
LFCR 230800Z AUTO 13017KT CAVOK 19/13 Q1013 BECMG 14016G26KT,LFCR,2022-10-23T08:00:00Z,44.4,2.47,19.0,13.0,130,17,,6.21,29.911417,,,TRUE,,,,,,,,CAVOK,,,,,,,,VFR,,,,,,,,,,,,METAR,576.0
LFCK 230800Z AUTO 13018KT CAVOK 21/14 Q1013 BECMG 12022G32KT,LFCK,2022-10-23T08:00:00Z,43.55,2.28,21.0,14.0,130,18,,6.21,29.911417,,,TRUE,,,,,,,,CAVOK,,,,,,,,VFR,,,,,,,,,,,,METAR,223.0
LFBZ 230800Z AUTO 20013G29KT 150V270 CAVOK 25/11 Q1007 NOSIG,LFBZ,2022-10-23T08:00:00Z,43.47,-1.53,25.0,11.0,200,13,29,6.21,29.734253,,,TRUE,,,TRUE,,,,,CAVOK,,,,,,,,VFR,,,,,,,,,,,,METAR,70.0
LFBY 230800Z AUTO 20014KT 9999 // ////// 25/11 Q1007,LFBY,2022-10-23T08:00:00Z,43.68,-1.07,25.0,11.0,200,14,,6.21,29.734253,,,TRUE,,,,,,,,,,,,,,,,,,,,,,,,,,,,METAR,32.0
LFBX 230800Z AUTO 13006KT 080V190 CAVOK 20/13 Q1008,LFBX,2022-10-23T08:00:00Z,45.2,0.82,20.0,13.0,130,6,,6.21,29.763779,,,TRUE,,,,,,,,CAVOK,,,,,,,,VFR,,,,,,,,,,,,METAR,97.0
LFBU 230800Z AUTO 14010KT 090V170 CAVOK 19/13 Q1007 TEMPO 16015G25KT,LFBU,2022-10-23T08:00:00Z,45.72,0.22,19.0,13.0,140,10,,6.21,29.734253,,,TRUE,,,,,,,,CAVOK,,,,,,,,VFR,,,,,,,,,,,,METAR,124.0
LFBT 230800Z AUTO 14006KT 050V200 9999 SCT100/// BKN120/// BKN170/// //////TCU 24/09 Q1010 TEMPO 20015G25KT FEW060CB BKN110,LFBT,2022-10-23T08:00:00Z,43.18,0.0,24.0,9.0,140,6,,6.21,29.822834,,,TRUE,,,,,,,,SCT,10000,BKN,12000,BKN,17000,,,VFR,,,1.5,,,,,,,,,METAR,359.0
LFBP 230800Z AUTO 20007KT CAVOK 25/10 Q1008 BECMG 20016G26KT,LFBP,2022-10-23T08:00:00Z,43.38,-0.42,25.0,10.0,200,7,,6.21,29.763779,,,TRUE,,,,,,,,CAVOK,,,,,,,,VFR,,,1.6,,,,,,,,,METAR,182.0
LFBO 230800Z AUTO 14013KT CAVOK 22/14 Q1010 TEMPO 15018G28KT,LFBO,2022-10-23T08:00:00Z,43.62,1.37,22.0,14.0,140,13,,6.21,29.822834,,,TRUE,,,,,,,,CAVOK,,,,,,,,VFR,,,,,,,,,,,,METAR,150.0
LFBM 230800Z AUTO 04002KT 9999 // NSC 16/15 Q1008,LFBM,2022-10-23T08:00:00Z,43.92,-0.5,16.0,15.0,40,2,,6.21,29.763779,,,TRUE,,,,,,,,CLR,,,,,,,,VFR,,,,,,,,,,,,METAR,56.0
LFBL 230800Z AUTO 16007KT 120V200 CAVOK 17/12 Q1009 BECMG 19015G25KT,LFBL,2022-10-23T08:00:00Z,45.87,1.17,17.0,12.0,160,7,,6.21,29.793306,,,TRUE,,,,,,,,CAVOK,,,,,,,,VFR,,,,,,,,,,,,METAR,402.0
LFBI 230800Z AUTO 16010KT CAVOK 18/13 Q1006 BECMG 20018G38KT,LFBI,2022-10-23T08:00:00Z,46.58,0.32,18.0,13.0,160,10,,6.21,29.704725,,,TRUE,,,,,,,,CAVOK,,,,,,,,VFR,,,1.8,,,,,,,,,METAR,117.0
LFBH 230800Z AUTO 16014KT 9999 ///TCU 20/14 Q1004 BECMG 20020G42KT NSC,LFBH,2022-10-23T08:00:00Z,46.18,-1.2,20.0,14.0,160,14,,6.21,29.64567,,,TRUE,,,,,,,,,,,,,,,,,,,2.0,,,,,,,,,METAR,18.0
LFBG 230800Z AUTO 14009KT CAVOK 18/13 Q1006,LFBG,2022-10-23T08:00:00Z,45.67,-0.32,18.0,13.0,140,9,,6.21,29.704725,,,TRUE,,,,,,,,CAVOK,,,,,,,,VFR,,,,,,,,,,,,METAR,28.0
LFBF 230800Z AUTO 14008KT 090V180 CAVOK 21/14 Q1010,LFBF,2022-10-23T08:00:00Z,43.53,1.37,21.0,14.0,140,8,,6.21,29.822834,,,TRUE,,,,,,,,CAVOK,,,,,,,,VFR,,,,,,,,,,,,METAR,159.0
LFBE 230800Z AUTO 15009KT CAVOK 19/13 Q1008 TEMPO 16015G25KT,LFBE,2022-10-23T08:00:00Z,44.82,0.52,19.0,13.0,150,9,,6.21,29.763779,,,TRUE,,,,,,,,CAVOK,,,,,,,,VFR,,,,,,,,,,,,METAR,49.0
LFBD 230800Z AUTO 16011KT CAVOK 19/13 Q1006 BECMG 20015G25KT,LFBD,2022-10-23T08:00:00Z,44.82,-0.7,19.0,13.0,160,11,,6.21,29.704725,,,TRUE,,,,,,,,CAVOK,,,,,,,,VFR,,,1.5,,,,,,,,,METAR,48.0
LFBC 230800Z AUTO 17008KT CAVOK 21/13 Q1006,LFBC,2022-10-23T08:00:00Z,44.52,-1.12,21.0,13.0,170,8,,6.21,29.704725,,,TRUE,,,,,,,,CAVOK,,,,,,,,VFR,,,,,,,,,,,,METAR,22.0
LFBA 230800Z AUTO 12003KT CAVOK 16/14 Q1009 NOSIG,LFBA,2022-10-23T08:00:00Z,44.17,0.6,16.0,14.0,120,3,,6.21,29.793306,,,TRUE,,,TRUE,,,,,CAVOK,,,,,,,,VFR,,,,,,,,,,,,METAR,68.0
LFAT 230800Z AUTO 13012KT CAVOK 16/14 Q1003 TEMPO 4000 TSRA BKN060CB,LFAT,2022-10-23T08:00:00Z,50.52,1.62,16.0,14.0,130,12,,6.21,29.616142,,,TRUE,,,,,,,,CAVOK,,,,,,,,VFR,,,,,,,,,,,,METAR,2.0
LFAQ 230800Z AUTO 11010KT 9999 FEW034 BKN084 14/14 Q1006 TEMPO 4000 RA BKN080TCU,LFAQ,2022-10-23T08:00:00Z,49.97,2.7,14.0,14.0,110,10,,6.21,29.704725,,,TRUE,,,,,,,,FEW,3400,BKN,8400,,,,,VFR,,,,,,,,,,,,METAR,107.0
LFAC 230800Z AUTO 13009KT 9999 ///TCU 15/14 Q1004,LFAC,2022-10-23T08:00:00Z,50.97,1.95,15.0,14.0,130,9,,6.21,29.64567,,,TRUE,,,,,,,,,,,,,,,,,,,,,,,,,,,,METAR,3.0
LEZL 230800Z 19005KT 150V250 9999 FEW009 21/19 Q1017 NOSIG,LEZL,2022-10-23T08:00:00Z,37.42,-5.9,21.0,19.0,190,5,,6.21,30.029528,,,,,,TRUE,,,,,FEW,900,,,,,,,VFR,,,,,,,,,,,,METAR,26.0
LEZG 230800Z 20014G24KT 170V230 9999 FEW030 SCT080 25/10 Q1013,LEZG,2022-10-23T08:00:00Z,41.67,-1.02,25.0,10.0,200,14,24,6.21,29.911417,,,,,,,,,,,FEW,3000,SCT,8000,,,,,VFR,,,,,,,,,,,,METAR,245.0
LEXJ 230800Z 22009G27KT 160V320 9999 FEW070 21/08 Q1004,LEXJ,2022-10-23T08:00:00Z,43.42,-3.82,21.0,8.0,220,9,27,6.21,29.64567,,,,,,,,,,,FEW,7000,,,,,,,VFR,,,,,,,,,,,,METAR,1.0
LEVT 230800Z 22016KT 190V250 9999 FEW065 SCT075 18/10 Q1010,LEVT,2022-10-23T08:00:00Z,42.87,-2.72,18.0,10.0,220,16,,6.21,29.822834,,,,,,,,,,,FEW,6500,SCT,7500,,,,,VFR,,,,,,,,,,,,METAR,501.0
LEVS 230800Z 20008KT 160V220 9999 SCT045 16/12 Q1016,LEVS,2022-10-23T08:00:00Z,40.37,-3.78,16.0,12.0,200,8,,6.21,30.0,,,,,,,,,,,SCT,4500,,,,,,,VFR,,,,,,,,,,,,METAR,683.0
LEVD 230800Z 21019KT 9999 BKN022 11/08 Q1012,LEVD,2022-10-23T08:00:00Z,41.72,-4.85,11.0,8.0,210,19,,6.21,29.88189,,,,,,,,,,,BKN,2200,,,,,,,MVFR,,,,,,,,,,,,METAR,844.0
LEVC 230800Z 31003KT 280V020 CAVOK 20/17 Q1017 NOSIG,LEVC,2022-10-23T08:00:00Z,39.5,-0.47,20.0,17.0,310,3,,6.21,30.029528,,,,,,TRUE,,,,,CAVOK,,,,,,,,VFR,,,,,,,,,,,,METAR,58.0
LETU 230800Z AUTO 10009KT 080V140 9999 NSC 18/14 Q1013,LETU,2022-10-23T08:00:00Z,,,18.0,14.0,100,9,,6.21,29.911417,,,TRUE,,,,,,,,CLR,,,,,,,,VFR,,,,,,,,,,,,METAR,
LETO 230800Z 20011KT 160V230 9999 FEW065 17/12 Q1015 NOSIG,LETO,2022-10-23T08:00:00Z,40.48,-3.47,17.0,12.0,200,11,,6.21,29.970472,,,,,,TRUE,,,,,FEW,6500,,,,,,,VFR,,,,,,,,,,,,METAR,598.0
LETL 230800Z AUTO 19015KT 9999 -RA NSC 17/08 Q1019,LETL,2022-10-23T08:00:00Z,40.42,-1.22,17.0,8.0,190,15,,6.21,30.088583,,,TRUE,,,,,,,-RA,CLR,,,,,,,,VFR,,,,,,,,,,,,METAR,1024.0
LESU 230800Z VRB03KT 9999 -RA VCFG FEW005 BKN081 12/11 Q1019,LESU,2022-10-23T08:00:00Z,42.33,1.4,12.0,11.0,0,3,,6.21,30.088583,,,,,,,,,,-RA VCFG,FEW,500,BKN,8100,,,,,VFR,,,,,,,,,,,,METAR,802.0
LESO 230800Z 19015KT 160V240 CAVOK 25/12 Q1007,LESO,2022-10-23T08:00:00Z,43.35,-1.8,25.0,12.0,190,15,,6.21,29.734253,,,,,,,,,,,CAVOK,,,,,,,,VFR,,,,,,,,,,,,METAR,3.0
LESB 230800Z AUTO 35003KT 310V020 CAVOK 21/13 Q1018,LESB,2022-10-23T08:00:00Z,39.6,2.7,21.0,13.0,350,3,,6.21,30.059055,,,TRUE,,,,,,,,CAVOK,,,,,,,,VFR,,,,,,,,,,,,METAR,48.0
LESA 230800Z 23021G31KT 9999 SCT034 13/09 Q1014,LESA,2022-10-23T08:00:00Z,40.95,-5.5,13.0,9.0,230,21,31,6.21,29.940945,,,,,,,,,,,SCT,3400,,,,,,,VFR,,,,,,,,,,,,METAR,788.0
LERT 230800Z 18007KT 140V200 9000 FEW020 21/19 Q1017 NOSIG,LERT,2022-10-23T08:00:00Z,36.63,-6.33,21.0,19.0,180,7,,5.59,30.029528,,,,,,TRUE,,,,,FEW,2000,,,,,,,VFR,,,,,,,,,,,,METAR,27.0
LERS 230800Z 04004KT 9999 SCT024 20/19 Q1016,LERS,2022-10-23T08:00:00Z,41.13,1.17,20.0,19.0,40,4,,6.21,30.0,,,,,,,,,,,SCT,2400,,,,,,,VFR,,,,,,,,,,,,METAR,68.0
LERI 230800Z 00000KT 7000 NSC 20/18 Q1017 NOSIG,LERI,2022-10-23T08:00:00Z,37.95,-1.22,20.0,18.0,0,0,,4.35,30.029528,,,,,,TRUE,,,,,CLR,,,,,,,,MVFR,,,,,,,,,,,,METAR,74.0
LEPP 230800Z 17021G31KT 140V200 9999 SCT055 21/10 Q1011,LEPP,2022-10-23T08:00:00Z,42.77,-1.65,21.0,10.0,170,21,31,6.21,29.852362,,,,,,,,,,,SCT,5500,,,,,,,VFR,,,,,,,,,,,,METAR,448.0
LEPA 230800Z 00000KT CAVOK 21/17 Q1018 NOSIG,LEPA,2022-10-23T08:00:00Z,39.55,2.73,21.0,17.0,0,0,,6.21,30.059055,,,,,,TRUE,,,,,CAVOK,,,,,,,,VFR,,,,,,,,,,,,METAR,8.0
LEMO 230800Z 17011KT 9999 FEW025 20/18 Q1017 NOSIG,LEMO,2022-10-23T08:00:00Z,37.17,-5.62,20.0,18.0,170,11,,6.21,30.029528,,,,,,TRUE,,,,,FEW,2500,,,,,,,VFR,,,,,,,,,,,,METAR,82.0
LEMI 230800Z 00000KT CAVOK 20/18 Q1018,LEMI,2022-10-23T08:00:00Z,37.8,-1.12,20.0,18.0,0,0,,6.21,30.059055,,,,,,,,,,,CAVOK,,,,,,,,VFR,,,,,,,,,,,,METAR,193.0
LEMH 230800Z 18007KT CAVOK 24/22 Q1018,LEMH,2022-10-23T08:00:00Z,39.87,4.22,24.0,22.0,180,7,,6.21,30.059055,,,,,,,,,,,CAVOK,,,,,,,,VFR,,,,,,,,,,,,METAR,82.0
LEMG 230800Z 28005KT CAVOK 20/13 Q1017 NOSIG,LEMG,2022-10-23T08:00:00Z,36.67,-4.47,20.0,13.0,280,5,,6.21,30.029528,,,,,,TRUE,,,,,CAVOK,,,,,,,,VFR,,,,,,,,,,,,METAR,5.0
LEMD 230800Z 17009KT 9999 FEW055 17/13 Q1015 NOSIG,LEMD,2022-10-23T08:00:00Z,40.45,-3.57,17.0,13.0,170,9,,6.21,29.970472,,,,,,TRUE,,,,,FEW,5500,,,,,,,VFR,,,,,,,,,,,,METAR,589.0
LELO 230800Z AUTO 19006KT 140V230 CAVOK 21/09 Q1011,LELO,2022-10-23T08:00:00Z,42.45,-2.32,21.0,9.0,190,6,,6.21,29.852362,,,TRUE,,,,,,,,CAVOK,,,,,,,,VFR,,,,,,,,,,,,METAR,352.0
LELN 230800Z 19015KT 160V220 9999 BKN020 BKN040 10/07 Q1009 RERA,LELN,2022-10-23T08:00:00Z,42.58,-5.65,10.0,7.0,190,15,,6.21,29.793306,,,,,,,,,,,BKN,2000,BKN,4000,,,,,MVFR,,,,,,,,,,,,METAR,911.0
LELL 230800Z VRB01KT 9999 FEW020 SCT045 18/12 Q1017,LELL,2022-10-23T08:00:00Z,41.52,2.1,18.0,12.0,0,1,,6.21,30.029528,,,,,,,,,,,FEW,2000,SCT,4500,,,,,VFR,,,,,,,,,,,,METAR,136.0
LELC 230800Z 27004KT 8000 NSC 20/19 Q1017 NOSIG,LELC,2022-10-23T08:00:00Z,37.77,-0.8,20.0,19.0,270,4,,4.97,30.029528,,,,,,TRUE,,,,,CLR,,,,,,,,MVFR,,,,,,,,,,,,METAR,3.0
LEJR 230800Z 15005KT 110V210 9999 FEW008 20/20 Q1017,LEJR,2022-10-23T08:00:00Z,36.75,-6.07,20.0,20.0,150,5,,6.21,30.029528,,,,,,,,,,,FEW,800,,,,,,,VFR,,,,,,,,,,,,METAR,25.0
LEIB 230800Z 23006KT CAVOK 24/21 Q1017 NOSIG,LEIB,2022-10-23T08:00:00Z,38.87,1.38,24.0,21.0,230,6,,6.21,30.029528,,,,,,TRUE,,,,,CAVOK,,,,,,,,VFR,,,,,,,,,,,,METAR,4.0
LEHC 230800Z 11005KT 9999 FEW060 17/14 Q1016,LEHC,2022-10-23T08:00:00Z,42.08,-0.32,17.0,14.0,110,5,,6.21,30.0,,,,,,,,,,,FEW,6000,,,,,,,VFR,,,,,,,,,,,,METAR,540.0
LEGT 230800Z 20011KT 160V230 9999 FEW049 17/12 Q1016,LEGT,2022-10-23T08:00:00Z,40.28,-3.72,17.0,12.0,200,11,,6.21,30.0,,,,,,,,,,,FEW,4900,,,,,,,VFR,,,,,,,,,,,,METAR,619.0
LEGR 230800Z 00000KT 9999 FEW090 18/07 Q1020,LEGR,2022-10-23T08:00:00Z,37.18,-3.78,18.0,7.0,0,0,,6.21,30.11811,,,,,,,,,,,FEW,9000,,,,,,,VFR,,,,,,,,,,,,METAR,560.0
LEGE 230800Z VRB02KT 9999 FEW080 18/15 Q1016,LEGE,2022-10-23T08:00:00Z,41.9,2.77,18.0,15.0,0,2,,6.21,30.0,,,,,,,,,,,FEW,8000,,,,,,,VFR,,,,,,,,,,,,METAR,140.0
LEDA 230800Z 09008KT 070V130 CAVOK 19/14 Q1016,LEDA,2022-10-23T08:00:00Z,41.73,0.53,19.0,14.0,90,8,,6.21,30.0,,,,,,,,,,,CAVOK,,,,,,,,VFR,,,,,,,,,,,,METAR,352.0
LECV 230800Z 22006KT 9999 FEW010 BKN020 12/12 Q1016,LECV,2022-10-23T08:00:00Z,40.68,-3.75,12.0,12.0,220,6,,6.21,30.0,,,,,,,,,,,FEW,1000,BKN,2000,,,,,MVFR,,,,,,,,,,,,METAR,995.0
LECO 230800Z 19010KT 140V240 9999 FEW027 FEW033TCU SCT036 BKN048 16/13 Q1000 TEMPO 3000 SHRA,LECO,2022-10-23T08:00:00Z,43.3,-8.37,16.0,13.0,190,10,,6.21,29.52756,,,,,,,,,,,FEW,2700,FEW,3300,SCT,3600,BKN,4800,VFR,,,,,,,,,,,,METAR,80.0
LECH 230800Z AUTO 16003KT 9000 NCD 16/15 Q1017,LECH,2022-10-23T08:00:00Z,40.2,0.07,16.0,15.0,160,3,,5.59,30.029528,,,TRUE,,,,,,,,CLR,,,,,,,,VFR,,,,,,,,,,,,METAR,360.0
LEBZ 230800Z 23006KT 9999 SCT019 SCT024 16/15 Q1016,LEBZ,2022-10-23T08:00:00Z,38.87,-6.82,16.0,15.0,230,6,,6.21,30.0,,,,,,,,,,,SCT,1900,SCT,2400,,,,,VFR,,,,,,,,,,,,METAR,183.0
LEBT 230800Z AUTO 30002KT CAVOK 19/17 Q1017,LEBT,2022-10-23T08:00:00Z,39.58,-0.45,19.0,17.0,300,2,,6.21,30.029528,,,TRUE,,,,,,,,CAVOK,,,,,,,,VFR,,,,,,,,,,,,METAR,50.0
LEBR 230800Z AUTO 11013KT 9999 NSC 18/14 Q1013,LEBR,2022-10-23T08:00:00Z,42.2,-1.43,18.0,14.0,110,13,,6.21,29.911417,,,TRUE,,,,,,,,CLR,,,,,,,,VFR,,,,,,,,,,,,METAR,347.0
LEBL 230800Z 32007G17KT 210V350 9999 FEW020 20/13 Q1016 NOSIG,LEBL,2022-10-23T08:00:00Z,41.28,2.07,20.0,13.0,320,7,17,6.21,30.0,,,,,,TRUE,,,,,FEW,2000,,,,,,,VFR,,,,,,,,,,,,METAR,2.0
LEBG 230800Z 19023G35KT 9999 -RA BKN017 BKN025 OVC034 12/10 Q1012,LEBG,2022-10-23T08:00:00Z,42.37,-3.62,12.0,10.0,190,23,35,6.21,29.88189,,,,,,,,,,-RA,BKN,1700,BKN,2500,OVC,3400,,,MVFR,,,,,,,,,,,,METAR,892.0
LEBB 230800Z 19013G28KT 130V240 9999 FEW030 SCT060 23/11 Q1006 NOSIG,LEBB,2022-10-23T08:00:00Z,43.28,-2.92,23.0,11.0,190,13,28,6.21,29.704725,,,,,,TRUE,,,,,FEW,3000,SCT,6000,,,,,VFR,,,,,,,,,,,,METAR,38.0
LEBA 230800Z VRB02KT 9999 BKN017 OVC019 20/17 Q1018,LEBA,2022-10-23T08:00:00Z,37.85,-4.83,20.0,17.0,0,2,,6.21,30.059055,,,,,,,,,,,BKN,1700,OVC,1900,,,,,MVFR,,,,,,,,,,,,METAR,88.0
LEAS 230800Z 21012G27KT 160V250 9999 -RA FEW057 15/10 Q1002 NOSIG,LEAS,2022-10-23T08:00:00Z,43.57,-6.03,15.0,10.0,210,12,27,6.21,29.586615,,,,,,TRUE,,,,-RA,FEW,5700,,,,,,,VFR,,,,,,,,,,,,METAR,120.0
LEAO 230800Z 20010KT 160V250 9999 FEW040 19/13 Q1018,LEAO,2022-10-23T08:00:00Z,38.95,-3.73,19.0,13.0,200,10,,6.21,30.059055,,,,,,,,,,,FEW,4000,,,,,,,VFR,,,,,,,,,,,,METAR,621.0
LEAM 230800Z 11003KT 080V140 CAVOK 22/13 Q1017,LEAM,2022-10-23T08:00:00Z,36.85,-2.37,22.0,13.0,110,3,,6.21,30.029528,,,,,,,,,,,CAVOK,,,,,,,,VFR,,,,,,,,,,,,METAR,16.0
LEAL 230800Z 21003KT 170V260 3500 BR NSC 20/17 Q1017 NOSIG,LEAL,2022-10-23T08:00:00Z,38.27,-0.55,20.0,17.0,210,3,,2.17,30.029528,,,,,,TRUE,,,,BR,CLR,,,,,,,,IFR,,,,,,,,,,,,METAR,26.0
LEAG 230800Z AUTO 00000KT 9999 SCT025 21/18 Q1018,LEAG,2022-10-23T08:00:00Z,36.12,-5.45,21.0,18.0,0,0,,6.21,30.059055,,,TRUE,,,,,,,,SCT,2500,,,,,,,VFR,,,,,,,,,,,,METAR,4.0
LEAB 230800Z VRB02KT CAVOK 16/12 Q1020 NOSIG,LEAB,2022-10-23T08:00:00Z,38.95,-1.85,16.0,12.0,0,2,,6.21,30.11811,,,,,,TRUE,,,,,CAVOK,,,,,,,,VFR,,,,,,,,,,,,METAR,704.0
LDZD 230800Z 13005KT 100V170 9999 FEW055 19/14 Q1024 NOSIG,LDZD,2022-10-23T08:00:00Z,44.1,15.33,19.0,14.0,130,5,,6.21,30.236221,,,,,,TRUE,,,,,FEW,5500,,,,,,,VFR,,,,,,,,,,,,METAR,82.0
LDZA 230800Z 00000KT 1000 R04/1700D R22/P2000N BR OVC002 13/12 Q1023 BECMG 6000 NSW BKN007,LDZA,2022-10-23T08:00:00Z,45.72,16.07,13.0,12.0,0,0,,0.62,30.206694,,,,,,,,,,BR,OVC,200,,,,,,,LIFR,,,,,,,,,,,,METAR,103.0
LDSP 230800Z VRB01KT CAVOK 22/12 Q1025 NOSIG,LDSP,2022-10-23T08:00:00Z,43.53,16.3,22.0,12.0,0,1,,6.21,30.265747,,,,,,TRUE,,,,,CAVOK,,,,,,,,VFR,,,,,,,,,,,,METAR,16.0
LDRI 230800Z 16008KT 120V210 9999 FEW010 SCT033 BKN046 18/17 Q1023,LDRI,2022-10-23T08:00:00Z,45.22,14.57,18.0,17.0,160,8,,6.21,30.206694,,,,,,,,,,,FEW,1000,SCT,3300,BKN,4600,,,VFR,,,,,,,,,,,,METAR,80.0
LDPL 230800Z 16006KT 090V230 9999 FEW004 BKN008 20/18 Q1023 BECMG BKN010,LDPL,2022-10-23T08:00:00Z,44.88,13.92,20.0,18.0,160,6,,6.21,30.206694,,,,,,,,,,,FEW,400,BKN,800,,,,,IFR,,,,,,,,,,,,METAR,63.0
LDOS 230800Z 18004KT 130V220 0100 FG VV001 12/12 Q1024,LDOS,2022-10-23T08:00:00Z,45.47,18.82,12.0,12.0,180,4,,0.06,30.236221,,,,,,,,,,FG,OVX,0,,,,,,,LIFR,,,,,,,,,,,100,METAR,82.0
LDLO 230800Z 16010KT 9999 BKN015 21/18 Q1023,LDLO,2022-10-23T08:00:00Z,44.57,14.4,21.0,18.0,160,10,,6.21,30.206694,,,,,,,,,,,BKN,1500,,,,,,,MVFR,,,,,,,,,,,,METAR,46.0
LDDU 230800Z 08003KT 030V150 CAVOK 20/13 Q1025 NOSIG,LDDU,2022-10-23T08:00:00Z,42.57,18.27,20.0,13.0,80,3,,6.21,30.265747,,,,,,TRUE,,,,,CAVOK,,,,,,,,VFR,,,,,,,,,,,,METAR,156.0
LCPH 230800Z 29004KT 240V340 CAVOK 24/12 Q1020,LCPH,2022-10-23T08:00:00Z,34.72,32.47,24.0,12.0,290,4,,6.21,30.11811,,,,,,,,,,,CAVOK,,,,,,,,VFR,,,,,,,,,,,,METAR,8.0
LCLK 230800Z 35010KT 310V010 CAVOK METAR LCNC Z NIL,LCLK,2022-10-23T08:00:00Z,34.87,33.62,,,350,10,,6.21,,,,,,,,,,,,CAVOK,,,,,,,,VFR,,,,,,,,,,,,SPECI,2.0
LBWN 230800Z 28018KT CAVOK 21/10 Q1018 NOSIG,LBWN,2022-10-23T08:00:00Z,43.22,27.82,21.0,10.0,280,18,,6.21,30.059055,,,,,,TRUE,,,,,CAVOK,,,,,,,,VFR,,,,,,,,,,,,METAR,74.0
LBSF 230800Z 28013KT CAVOK 17/10 Q1024 NOSIG,LBSF,2022-10-23T08:00:00Z,42.65,23.37,17.0,10.0,280,13,,6.21,30.236221,,,,,,TRUE,,,,,CAVOK,,,,,,,,VFR,,,,,,,,,,,,METAR,592.0
LBPD 230800Z AUTO 28021KT 9999 NCD 23/07 Q1021 NOSIG,LBPD,2022-10-23T08:00:00Z,42.05,24.85,23.0,7.0,280,21,,6.21,30.147638,,,TRUE,,,TRUE,,,,,CLR,,,,,,,,VFR,,,,,,,,,,,,METAR,182.0
LBGO 230800Z AUTO 27023KT 9999 NCD 20/11 Q1021 NOSIG,LBGO,2022-10-23T08:00:00Z,43.15,25.72,20.0,11.0,270,23,,6.21,30.147638,,,TRUE,,,TRUE,,,,,CLR,,,,,,,,VFR,,,,,,,,,,,,METAR,84.0
LBBG 230800Z 26012KT CAVOK 20/08 Q1019 NOSIG,LBBG,2022-10-23T08:00:00Z,42.57,27.52,20.0,8.0,260,12,,6.21,30.088583,,,,,,TRUE,,,,,CAVOK,,,,,,,,VFR,,,,,,,,,,,,METAR,41.0
KNEL 230800Z AUTO 03004KT 10SM OVC038 12/10 A3023 RMK AO2 SLP234 T01220100 $,KNEL,2022-10-23T08:00:00Z,40.03,-74.33,12.2,10.0,30,4,,10.0,30.230314,1023.4,,TRUE,TRUE,TRUE,,,,,,OVC,3800,,,,,,,VFR,,,,,,,,,,,,SPECI,26.0
KNBT 230800Z AUTO 35015G21KT 10SM BKN065 BKN085 19/14 A3004 RMK AO2 RAE0723 SLP176 P0000 T01890139,KNBT,2022-10-23T08:00:00Z,35.02,-76.47,18.9,13.9,350,15,21,10.0,30.041338,1017.6,,TRUE,TRUE,,,,,,,BKN,6500,BKN,8500,,,,,VFR,,,,,,0.005,,,,,,METAR,5.0
KJSL 230800Z AUTO 14010G15KT 130V200 10SM OVC070 A3000 RMK A01,KJSL,2022-10-23T08:00:00Z,26.23,-95.22,,,140,10,15,10.0,30.0,,,TRUE,TRUE,,,,,,,OVC,7000,,,,,,,VFR,,,,,,,,,,,,METAR,45.0
KGZN 230800Z AUTO 20012G18KT 10SM CLR 21/12 A2976 RMK AO2,KGZN,2022-10-23T08:00:00Z,32.37,-99.02,21.0,12.0,200,12,18,10.0,29.760826,,,TRUE,TRUE,,,,,,,CLR,,,,,,,,VFR,,,,,,,,,,,,METAR,522.0
KGRK 230800Z AUTO 17015KT 10SM BKN018 20/17 A2979 RMK AO2 BKN V FEW SLP077,KGRK,2022-10-23T08:00:00Z,31.07,-97.83,20.0,17.0,170,15,,10.0,29.790354,1007.7,,TRUE,TRUE,,,,,,,BKN,1800,,,,,,,MVFR,,,,,,,,,,,,SPECI,311.0
HUEN 230800Z 01010KT 9999 FEW023 FEW025CB 26/20 Q1020,HUEN,2022-10-23T08:00:00Z,0.03,32.45,26.0,20.0,10,10,,6.21,30.11811,,,,,,,,,,,FEW,2300,FEW,2500,,,,,VFR,,,,,,,,,,,,METAR,1147.0
HTZA 230800Z 27005KT 9999 -RA SCT016 BKN080 27/24 Q1018 NOSIG,HTZA,2022-10-23T08:00:00Z,-6.22,39.22,27.0,24.0,270,5,,6.21,30.059055,,,,,,TRUE,,,,-RA,SCT,1600,BKN,8000,,,,,VFR,,,,,,,,,,,,METAR,19.0
HTMW 230800Z 08015KT 9999 FEW026 FEW027CB SCT100 29/10 Q1020 NOSIG,HTMW,2022-10-23T08:00:00Z,-2.43,32.92,29.0,10.0,80,15,,6.21,30.11811,,,,,,TRUE,,,,,FEW,2600,FEW,2700,SCT,10000,,,VFR,,,,,,,,,,,,METAR,1144.0
HTKJ 230800Z 09010KT 9999 PO BKN033 27/15 Q1023 NOSIG,HTKJ,2022-10-23T08:00:00Z,-3.42,37.07,27.0,15.0,90,10,,6.21,30.206694,,,,,,TRUE,,,,PO,BKN,3300,,,,,,,VFR,,,,,,,,,,,,METAR,893.0
HTDA 230800Z 07008KT 9999 -RA BKN014 26/23 Q1019 NOSIG,HTDA,2022-10-23T08:00:00Z,-6.88,39.2,26.0,23.0,70,8,,6.21,30.088583,,,,,,TRUE,,,,-RA,BKN,1400,,,,,,,MVFR,,,,,,,,,,,,METAR,53.0
HRZA 230800Z 24003KT 9999 SCT025 24/17 Q1023 NOSIG,HRZA,2022-10-23T08:00:00Z,-2.47,28.92,24.0,17.0,240,3,,6.21,30.206694,,,,,,TRUE,,,,,SCT,2500,,,,,,,VFR,,,,,,,,,,,,METAR,1591.0
HRYR 230800Z 14005KT 110V190 9999 SCT025 25/15 Q1024 NOSIG,HRYR,2022-10-23T08:00:00Z,-1.97,30.13,25.0,15.0,140,5,,6.21,30.236221,,,,,,TRUE,,,,,SCT,2500,,,,,,,VFR,,,,,,,,,,,,METAR,1493.0
HKWJ 230800Z 17005KT 9999 OVC031 28/18 Q1016,HKWJ,2022-10-23T08:00:00Z,1.75,40.08,28.0,18.0,170,5,,6.21,30.0,,,,,,,,,,,OVC,3100,,,,,,,VFR,,,,,,,,,,,,METAR,254.0
HKNW 230800Z 06008KT 9999 BKN024 22/11 Q1026,HKNW,2022-10-23T08:00:00Z,-1.32,36.82,22.0,11.0,60,8,,6.21,30.295275,,,,,,,,,,,BKN,2400,,,,,,,MVFR,,,,,,,,,,,,METAR,1666.0
HKMO 230800Z 17005KT 9999 BKN020 BKN080 27/23 Q1018 NOSIG,HKMO,2022-10-23T08:00:00Z,-4.02,39.62,27.0,23.0,170,5,,6.21,30.059055,,,,,,TRUE,,,,,BKN,2000,BKN,8000,,,,,MVFR,,,,,,,,,,,,METAR,55.0
HKML 230800Z 11010KT 9999 SCT021 28/24 Q1017,HKML,2022-10-23T08:00:00Z,-3.22,40.1,28.0,24.0,110,10,,6.21,30.029528,,,,,,,,,,,SCT,2100,,,,,,,VFR,,,,,,,,,,,,METAR,20.0
HKKI 230800Z VRB04KT 9999 FEW025 SCT270 28/14 Q1020,HKKI,2022-10-23T08:00:00Z,-0.1,34.75,28.0,14.0,0,4,,6.21,30.11811,,,,,,,,,,,FEW,2500,SCT,27000,,,,,VFR,,,,,,,,,,,,METAR,1152.0
HKJK 230800Z 04008KT 9999 BKN025 23/12 Q1026 NOSIG,HKJK,2022-10-23T08:00:00Z,-1.32,36.92,23.0,12.0,40,8,,6.21,30.295275,,,,,,TRUE,,,,,BKN,2500,,,,,,,MVFR,,,,,,,,,,,,METAR,1615.0
HKEL 230800Z 12011KT 9999 FEW022 22/09 Q1028,HKEL,2022-10-23T08:00:00Z,0.4,35.23,22.0,9.0,120,11,,6.21,30.35433,,,,,,,,,,,FEW,2200,,,,,,,VFR,,,,,,,,,,,,METAR,2116.0
HETR 230800Z 30023KT 9999 FEW025 27/20 Q1017,HETR,2022-10-23T08:00:00Z,28.22,33.65,27.0,20.0,300,23,,6.21,30.029528,,,,,,,,,,,FEW,2500,,,,,,,VFR,,,,,,,,,,,,METAR,35.0
HESW 230800Z 27004KT CAVOK 21/11 Q1024,HESW,2022-10-23T08:00:00Z,29.35,25.5,21.0,11.0,270,4,,6.21,30.236221,,,,,,,,,,,CAVOK,,,,,,,,VFR,,,,,,,,,,,,METAR,101.0
HESN 230800Z 02008KT CAVOK 26/09 Q1020 NOSIG,HESN,2022-10-23T08:00:00Z,23.97,32.82,26.0,9.0,20,8,,6.21,30.11811,,,,,,TRUE,,,,,CAVOK,,,,,,,,VFR,,,,,,,,,,,,METAR,197.0
HESH 230800Z 01009KT CAVOK 29/18 Q1017 NOSIG,HESH,2022-10-23T08:00:00Z,27.97,34.38,29.0,18.0,10,9,,6.21,30.029528,,,,,,TRUE,,,,,CAVOK,,,,,,,,VFR,,,,,,,,,,,,METAR,50.0
HESG 230800Z 32006KT 8000 NSC 25/12 Q1019 NOSIG,HESG,2022-10-23T08:00:00Z,26.33,31.75,25.0,12.0,320,6,,4.97,30.088583,,,,,,TRUE,,,,,CLR,,,,,,,,MVFR,,,,,,,,,,,,METAR,70.0
HEPS 230800Z 24006KT CAVOK 23/19 Q1019 NOSIG,HEPS,2022-10-23T08:00:00Z,31.28,32.25,23.0,19.0,240,6,,6.21,30.088583,,,,,,TRUE,,,,,CAVOK,,,,,,,,VFR,,,,,,,,,,,,METAR,2.0
HEMM 230800Z 32013KT 9999 SCT020 SCT022 23/17 Q1022 NOSIG,HEMM,2022-10-23T08:00:00Z,31.32,27.22,23.0,17.0,320,13,,6.21,30.177166,,,,,,TRUE,,,,,SCT,2000,SCT,2200,,,,,VFR,,,,,,,,,,,,METAR,26.0
HEMA 230800Z 32013KT CAVOK 29/10 Q1017 NOSIG,HEMA,2022-10-23T08:00:00Z,25.55,34.58,29.0,10.0,320,13,,6.21,30.029528,,,,,,TRUE,,,,,CAVOK,,,,,,,,VFR,,,,,,,,,,,,METAR,77.0
HELX 230800Z 00000KT 6000 NSC 27/13 Q1019 NOSIG,HELX,2022-10-23T08:00:00Z,25.67,32.7,27.0,13.0,0,0,,3.73,30.088583,,,,,,TRUE,,,,,CLR,,,,,,,,MVFR,,,,,,,,,,,,METAR,86.0
HEIS 230800Z 32007KT CAVOK 23/16 Q1019,HEIS,2022-10-23T08:00:00Z,30.58,32.25,23.0,16.0,320,7,,6.21,30.088583,,,,,,,,,,,CAVOK,,,,,,,,VFR,,,,,,,,,,,,METAR,14.0
HEGN 230800Z 33012KT CAVOK 28/11 Q1018 NOSIG,HEGN,2022-10-23T08:00:00Z,27.18,33.8,28.0,11.0,330,12,,6.21,30.059055,,,,,,TRUE,,,,,CAVOK,,,,,,,,VFR,,,,,,,,,,,,METAR,14.0
HECP 230800Z 00000KT CAVOK 21/14 Q1019 NOSIG,HECP,2022-10-23T08:00:00Z,30.07,31.83,21.0,14.0,0,0,,6.21,30.088583,,,,,,TRUE,,,,,CAVOK,,,,,,,,VFR,,,,,,,,,,,,METAR,240.0
HECA 230800Z 29006KT 6000 SCT025 23/17 Q1020,HECA,2022-10-23T08:00:00Z,30.12,31.4,23.0,17.0,290,6,,3.73,30.11811,,,,,,,,,,,SCT,2500,,,,,,,MVFR,,,,,,,,,,,,METAR,68.0
HEBL 230800Z 34009KT CAVOK 27/10 Q1019 NOSIG,HEBL,2022-10-23T08:00:00Z,22.38,31.62,27.0,10.0,340,9,,6.21,30.088583,,,,,,TRUE,,,,,CAVOK,,,,,,,,VFR,,,,,,,,,,,,METAR,184.0
HEBA 230800Z 31004KT 9999 SCT020 25/16 Q1020 NOSIG,HEBA,2022-10-23T08:00:00Z,30.92,29.7,25.0,16.0,310,4,,6.21,30.11811,,,,,,TRUE,,,,,SCT,2000,,,,,,,VFR,,,,,,,,,,,,METAR,41.0
HEAX 230800Z 35008KT 9999 SCT020 SCT022 26/17 Q1020 NOSIG,HEAX,2022-10-23T08:00:00Z,31.18,29.93,26.0,17.0,350,8,,6.21,30.11811,,,,,,TRUE,,,,,SCT,2000,SCT,2200,,,,,VFR,,,,,,,,,,,,METAR,-2.0
HEAT 230800Z 33010KT CAVOK 23/15 Q1022 NOSIG,HEAT,2022-10-23T08:00:00Z,27.05,31.02,23.0,15.0,330,10,,6.21,30.177166,,,,,,TRUE,,,,,CAVOK,,,,,,,,VFR,,,,,,,,,,,,METAR,229.0
HCMM 230800Z 17009KT 9999 BKN023 29/24 Q1016,HCMM,2022-10-23T08:00:00Z,2.02,45.3,29.0,24.0,170,9,,6.21,30.0,,,,,,,,,,,BKN,2300,,,,,,,MVFR,,,,,,,,,,,,METAR,6.0
HCMF 230800Z 03008KT 9999 FEW038 28/24 Q1014,HCMF,2022-10-23T08:00:00Z,11.27,49.13,28.0,24.0,30,8,,6.21,29.940945,,,,,,,,,,,FEW,3800,,,,,,,VFR,,,,,,,,,,,,METAR,8.0
GVSV 230800Z 05024KT 9999 FEW018 25/21 Q1014 NOSIG,GVSV,2022-10-23T08:00:00Z,16.83,-25.07,25.0,21.0,50,24,,6.21,29.940945,,,,,,TRUE,,,,,FEW,1800,,,,,,,VFR,,,,,,,,,,,,METAR,16.0
GVNP 230800Z 02014KT 9999 FEW017 25/21 Q1014 NOSIG,GVNP,2022-10-23T08:00:00Z,14.95,-23.48,25.0,21.0,20,14,,6.21,29.940945,,,,,,TRUE,,,,,FEW,1700,,,,,,,VFR,,,,,,,,,,,,METAR,70.0
GVBA 230800Z 03012KT 9999 SCT014 25/22 Q1015 NOSIG,GVBA,2022-10-23T08:00:00Z,16.13,-22.88,25.0,22.0,30,12,,6.21,29.970472,,,,,,TRUE,,,,,SCT,1400,,,,,,,VFR,,,,,,,,,,,,METAR,23.0
GVAC 230800Z 02013KT 9999 SCT014 24/21 Q1015 NOSIG,GVAC,2022-10-23T08:00:00Z,16.73,-22.93,24.0,21.0,20,13,,6.21,29.970472,,,,,,TRUE,,,,,SCT,1400,,,,,,,VFR,,,,,,,,,,,,METAR,54.0
GQPP 230800Z 01014KT 6000 SCT006 20/19 Q1015 NOSIG,GQPP,2022-10-23T08:00:00Z,20.92,-17.02,20.0,19.0,10,14,,3.73,29.970472,,,,,,TRUE,,,,,SCT,600,,,,,,,MVFR,,,,,,,,,,,,METAR,5.0
GQNO 230800Z 34009KT 8000 NSC 23/18 Q1013 NOSIG,GQNO,2022-10-23T08:00:00Z,18.3,-15.97,23.0,18.0,340,9,,4.97,29.911417,,,,,,TRUE,,,,,CLR,,,,,,,,MVFR,,,,,,,,,,,,METAR,1.0
GOSS 230800Z VRB02KT 9999 SCT010 28/27 Q1014,GOSS,2022-10-23T08:00:00Z,16.05,-16.45,28.0,27.0,0,2,,6.21,29.940945,,,,,,,,,,,SCT,1000,,,,,,,VFR,,,,,,,,,,,,METAR,3.0
GOSP 230800Z 28004KT 9999 FEW011 26/23 Q1013,GOSP,2022-10-23T08:00:00Z,16.68,-14.97,26.0,23.0,280,4,,6.21,29.911417,,,,,,,,,,,FEW,1100,,,,,,,VFR,,,,,,,,,,,,METAR,10.0
GOSM 230800Z 26004KT CAVOK 28/24 Q1013,GOSM,2022-10-23T08:00:00Z,15.6,-13.33,28.0,24.0,260,4,,6.21,29.911417,,,,,,,,,,,CAVOK,,,,,,,,VFR,,,,,,,,,,,,METAR,28.0
GOOY 230800Z 34004KT 9999 SCT013 27/25 Q1013,GOOY,2022-10-23T08:00:00Z,14.73,-17.5,27.0,25.0,340,4,,6.21,29.911417,,,,,,,,,,,SCT,1300,,,,,,,VFR,,,,,,,,,,,,METAR,21.0
GOOG 230800Z 25004KT CAVOK 26/26 Q1011,GOOG,2022-10-23T08:00:00Z,15.4,-15.08,26.0,26.0,250,4,,6.21,29.852362,,,,,,,,,,,CAVOK,,,,,,,,VFR,,,,,,,,,,,,METAR,38.0
GOOD 230800Z 00000KT CAVOK 26/26 Q1013,GOOD,2022-10-23T08:00:00Z,14.65,-16.22,26.0,26.0,0,0,,6.21,29.911417,,,,,,,,,,,CAVOK,,,,,,,,VFR,,,,,,,,,,,,METAR,9.0
GOGS 230800Z 08004KT 9999 FEW015 26/26 Q1013,GOGS,2022-10-23T08:00:00Z,12.4,-16.75,26.0,26.0,80,4,,6.21,29.911417,,,,,,,,,,,FEW,1500,,,,,,,VFR,,,,,,,,,,,,METAR,13.0
GOGK 230800Z 00000KT CAVOK 25/24 Q1012,GOGK,2022-10-23T08:00:00Z,12.9,-14.97,25.0,24.0,0,0,,6.21,29.88189,,,,,,,,,,,CAVOK,,,,,,,,VFR,,,,,,,,,,,,METAR,37.0
GOGG 230800Z 00000KT CAVOK 25/25 Q1014,GOGG,2022-10-23T08:00:00Z,12.55,-16.27,25.0,25.0,0,0,,6.21,29.940945,,,,,,,,,,,CAVOK,,,,,,,,VFR,,,,,,,,,,,,METAR,24.0
GOBD 230800Z 32003KT 8000 FEW015 25/25 Q1014 NOSIG,GOBD,2022-10-23T08:00:00Z,14.67,-17.07,25.0,25.0,320,3,,4.97,29.940945,,,,,,TRUE,,,,,FEW,1500,,,,,,,MVFR,,,,,,,,,,,,METAR,90.0
GMTT 230800Z VRB02KT 8000 SCT016 BKN160 21/19 Q1018 NOSIG,GMTT,2022-10-23T08:00:00Z,35.72,-5.9,21.0,19.0,0,2,,4.97,30.059055,,,,,,TRUE,,,,,SCT,1600,BKN,16000,,,,,MVFR,,,,,,,,,,,,METAR,19.0
GMTN 230800Z VRB02KT 8000 FEW016 BKN140 20/15 Q1018 NOSIG,GMTN,2022-10-23T08:00:00Z,35.58,-5.32,20.0,15.0,0,2,,4.97,30.059055,,,,,,TRUE,,,,,FEW,1600,BKN,14000,,,,,MVFR,,,,,,,,,,,,METAR,10.0
GMTA 230800Z 21003KT 170V260 8000 FEW015 BKN200 21/18 Q1018 NOSIG,GMTA,2022-10-23T08:00:00Z,35.17,-3.85,21.0,18.0,210,3,,4.97,30.059055,,,,,,TRUE,,,,,FEW,1500,BKN,20000,,,,,MVFR,,,,,,,,,,,,METAR,14.0
GMMZ 230800Z VRB02KT CAVOK 15/M02 Q1026 NOSIG,GMMZ,2022-10-23T08:00:00Z,30.93,-6.9,15.0,-2.0,0,2,,6.21,30.295275,,,,,,TRUE,,,,,CAVOK,,,,,,,,VFR,,,,,,,,,,,,METAR,1139.0
GMMX 230800Z 24006KT CAVOK 18/10 Q1019 NOSIG,GMMX,2022-10-23T08:00:00Z,31.62,-8.03,18.0,10.0,240,6,,6.21,30.088583,,,,,,TRUE,,,,,CAVOK,,,,,,,,VFR,,,,,,,,,,,,METAR,465.0
GMMW 230800Z 25004KT 210V270 6000 NSC 20/16 Q1019 NOSIG,GMMW,2022-10-23T08:00:00Z,34.98,-3.02,20.0,16.0,250,4,,3.73,30.088583,,,,,,TRUE,,,,,CLR,,,,,,,,MVFR,,,,,,,,,,,,METAR,174.0
GMMN 230800Z 16003KT 8000 FEW010 SCT200 17/15 Q1019 NOSIG,GMMN,2022-10-23T08:00:00Z,33.37,-7.58,17.0,15.0,160,3,,4.97,30.088583,,,,,,TRUE,,,,,FEW,1000,SCT,20000,,,,,MVFR,,,,,,,,,,,,METAR,196.0
GMMI 230800Z VRB03KT 6000 NSC 15/11 Q1017 NOSIG,GMMI,2022-10-23T08:00:00Z,31.4,-9.68,15.0,11.0,0,3,,3.73,30.029528,,,,,,TRUE,,,,,CLR,,,,,,,,MVFR,,,,,,,,,,,,METAR,102.0
GMFO 230800Z 16015KT 9999 NCD 24/01 Q1021 NOSIG,GMFO,2022-10-23T08:00:00Z,34.78,-1.92,24.0,1.0,160,15,,6.21,30.147638,,,,,,TRUE,,,,,CLR,,,,,,,,VFR,,,,,,,,,,,,METAR,452.0
GMFK 230800Z 00000KT CAVOK 18/M02 Q1028 NOSIG,GMFK,2022-10-23T08:00:00Z,31.95,-4.4,18.0,-2.0,0,0,,6.21,30.35433,,,,,,TRUE,,,,,CAVOK,,,,,,,,VFR,,,,,,,,,,,,METAR,1033.0
GMFF 230800Z 20005KT CAVOK 22/05 Q1020 NOSIG,GMFF,2022-10-23T08:00:00Z,33.92,-4.97,22.0,5.0,200,5,,6.21,30.11811,,,,,,TRUE,,,,,CAVOK,,,,,,,,VFR,,,,,,,,,,,,METAR,575.0
GMAT 230800Z 01007KT 5000 SCT010 18/18 Q1018 NOSIG,GMAT,2022-10-23T08:00:00Z,28.43,-11.15,18.0,18.0,10,7,,3.11,30.059055,,,,,,TRUE,,,,,SCT,1000,,,,,,,MVFR,,,,,,,,,,,,METAR,192.0
GMAD 230800Z 04005KT CAVOK 21/04 Q1016 NOSIG,GMAD,2022-10-23T08:00:00Z,30.32,-9.42,21.0,4.0,40,5,,6.21,30.0,,,,,,TRUE,,,,,CAVOK,,,,,,,,VFR,,,,,,,,,,,,METAR,66.0
GLRB 230800Z 00000KT 9999 BKN010 FEW020CB 23/22 Q1014 NOSIG RMK CB-W,GLRB,2022-10-23T08:00:00Z,6.25,-10.35,23.0,22.0,0,0,,6.21,29.940945,,,,,,TRUE,,,,,BKN,1000,FEW,2000,,,,,MVFR,,,,,,,,,,,,SPECI,12.0
GGOV 230800Z 10002KT 8000 FEW014 25/24 Q1014 NOSIG,GGOV,2022-10-23T08:00:00Z,11.88,-15.65,25.0,24.0,100,2,,4.97,29.940945,,,,,,TRUE,,,,,FEW,1400,,,,,,,MVFR,,,,,,,,,,,,METAR,31.0
GFLL 230800Z 13007KT 9999 BKN009 FEW027CB 24/23 Q1013 RMK CB NE/S,GFLL,2022-10-23T08:00:00Z,8.62,-13.18,24.0,23.0,130,7,,6.21,29.911417,,,,,,,,,,,BKN,900,FEW,2700,,,,,IFR,,,,,,,,,,,,SPECI,28.0
GEML 230800Z 28006KT 240V320 9999 FEW010 22/19 Q1018,GEML,2022-10-23T08:00:00Z,35.27,-2.95,22.0,19.0,280,6,,6.21,30.059055,,,,,,,,,,,FEW,1000,,,,,,,VFR,,,,,,,,,,,,METAR,48.0
GECE 230800Z AUTO 07002KT CAVOK 20/17 Q1018,GECE,2022-10-23T08:00:00Z,35.88,-5.3,20.0,17.0,70,2,,6.21,30.059055,,,TRUE,,,,,,,,CAVOK,,,,,,,,VFR,,,,,,,,,,,,METAR,2.0
GCXO 230800Z 31003KT 8000 2200NW PRFG -DZ FEW001 BKN005 18/17 Q1020 NOSIG,GCXO,2022-10-23T08:00:00Z,28.48,-16.35,18.0,17.0,310,3,,4.97,30.11811,,,,,,TRUE,,,,PRFG -DZ,FEW,100,BKN,500,,,,,IFR,,,,,,,,,,,,SPECI,623.0
GCTS 230800Z 06008KT 020V080 9999 FEW022 SCT035 22/17 Q1018 NOSIG,GCTS,2022-10-23T08:00:00Z,28.05,-16.57,22.0,17.0,60,8,,6.21,30.059055,,,,,,TRUE,,,,,FEW,2200,SCT,3500,,,,,VFR,,,,,,,,,,,,METAR,59.0
GCRR 230800Z 03005KT 9999 FEW018 22/19 Q1018,GCRR,2022-10-23T08:00:00Z,28.95,-13.58,22.0,19.0,30,5,,6.21,30.059055,,,,,,,,,,,FEW,1800,,,,,,,VFR,,,,,,,,,,,,METAR,9.0
GCLP 230800Z 36010KT 9999 FEW025 22/18 Q1018 NOSIG,GCLP,2022-10-23T08:00:00Z,27.92,-15.38,22.0,18.0,360,10,,6.21,30.059055,,,,,,TRUE,,,,,FEW,2500,,,,,,,VFR,,,,,,,,,,,,METAR,16.0
GCLA 230800Z 28003KT 240V360 9999 FEW025 21/17 Q1019,GCLA,2022-10-23T08:00:00Z,28.62,-17.75,21.0,17.0,280,3,,6.21,30.088583,,,,,,,,,,,FEW,2500,,,,,,,VFR,,,,,,,,,,,,METAR,20.0
GCFV 230800Z 01008KT 9999 FEW013 SCT025 22/20 Q1018,GCFV,2022-10-23T08:00:00Z,28.43,-13.87,22.0,20.0,10,8,,6.21,30.059055,,,,,,,,,,,FEW,1300,SCT,2500,,,,,VFR,,,,,,,,,,,,METAR,11.0
GBYD 230800Z 00000KT CAVOK 26/25 Q1013,GBYD,2022-10-23T08:00:00Z,13.33,-16.65,26.0,25.0,0,0,,6.21,29.911417,,,,,,,,,,,CAVOK,,,,,,,,VFR,,,,,,,,,,,,METAR,29.0
GAMB 230800Z 00000KT 8000 NSC 30/21 Q1015,GAMB,2022-10-23T08:00:00Z,14.52,-4.08,30.0,21.0,0,0,,4.97,29.970472,,,,,,,,,,,CLR,,,,,,,,MVFR,,,,,,,,,,,,METAR,271.0
GAKD 230800Z 30006KT CAVOK 26/24 Q1015,GAKD,2022-10-23T08:00:00Z,14.48,-11.4,26.0,24.0,300,6,,6.21,29.970472,,,,,,,,,,,CAVOK,,,,,,,,VFR,,,,,,,,,,,,METAR,53.0
GABS 230800Z VRB02KT 9999 FEW020 24/22 Q1016 NOSIG,GABS,2022-10-23T08:00:00Z,12.53,-7.95,24.0,22.0,0,2,,6.21,30.0,,,,,,TRUE,,,,,FEW,2000,,,,,,,VFR,,,,,,,,,,,,METAR,375.0
FZAA 230800Z 00000KT 6000 SCT020 BKN080 27/22 Q1016 NOSIG,FZAA,2022-10-23T08:00:00Z,-4.38,15.45,27.0,22.0,0,0,,3.73,30.0,,,,,,TRUE,,,,,SCT,2000,BKN,8000,,,,,MVFR,,,,,,,,,,,,SPECI,309.0
FYWW 230800Z 04004KT CAVOK 28/07 Q1024,FYWW,2022-10-23T08:00:00Z,-22.57,17.1,28.0,7.0,40,4,,6.21,30.236221,,,,,,,,,,,CAVOK,,,,,,,,VFR,,,,,,,,,,,,METAR,1672.0
FYWH 230800Z 11009KT CAVOK 25/10 Q1025 BECMG FEW050,FYWH,2022-10-23T08:00:00Z,-22.47,17.47,25.0,10.0,110,9,,6.21,30.265747,,,,,,,,,,,CAVOK,,,,,,,,VFR,,,,,,,,,,,,SPECI,1699.0
FYWE 230800Z 00000KT CAVOK 28/06 Q1025,FYWE,2022-10-23T08:00:00Z,-22.62,17.08,28.0,6.0,0,0,,6.21,30.265747,,,,,,,,,,,CAVOK,,,,,,,,VFR,,,,,,,,,,,,METAR,1700.0
FYWB 230800Z 01007KT 9999 OVC010 15/13 Q1016,FYWB,2022-10-23T08:00:00Z,-22.98,14.65,15.0,13.0,10,7,,6.21,30.0,,,,,,,,,,,OVC,1000,,,,,,,MVFR,,,,,,,,,,,,METAR,87.0
FYRU 230800Z 31006KT CAVOK 29/12 Q1022,FYRU,2022-10-23T08:00:00Z,-17.95,19.72,29.0,12.0,310,6,,6.21,30.177166,,,,,,,,,,,CAVOK,,,,,,,,VFR,,,,,,,,,,,,METAR,1104.0
FYLZ 230800Z AUTO 19011KT //// // ////// 20/12 Q1014,FYLZ,2022-10-23T08:00:00Z,-26.68,15.25,20.0,12.0,190,11,,,29.940945,,,TRUE,,,,,,,,,,,,,,,,,,,,,,,,,,,,METAR,129.0
FYKM 230800Z 28007KT CAVOK 28/09 Q1018,FYKM,2022-10-23T08:00:00Z,-17.63,24.18,28.0,9.0,280,7,,6.21,30.059055,,,,,,,,,,,CAVOK,,,,,,,,VFR,,,,,,,,,,,,METAR,959.0
FYGF 230800Z 04003KT 9999 FEW030 BKN100 26/11 Q1023,FYGF,2022-10-23T08:00:00Z,-19.6,18.12,26.0,11.0,40,3,,6.21,30.206694,,,,,,,,,,,FEW,3000,BKN,10000,,,,,VFR,,,,,,,,,,,,METAR,1407.0
FWCL 230800Z 05010KT CAVOK 30/10 Q1020 NOSIG,FWCL,2022-10-23T08:00:00Z,-15.67,34.97,30.0,10.0,50,10,,6.21,30.11811,,,,,,TRUE,,,,,CAVOK,,,,,,,,VFR,,,,,,,,,,,,METAR,774.0
FTTJ 230800Z 11004KT 110V240 6000 NSC 32/21 Q1014 NOSIG,FTTJ,2022-10-23T08:00:00Z,12.13,15.03,32.0,21.0,110,4,,3.73,29.940945,,,,,,TRUE,,,,,CLR,,,,,,,,MVFR,,,,,,,,,,,,METAR,295.0
FTTA 230800Z 21003KT CAVOK 27/23 Q1016,FTTA,2022-10-23T08:00:00Z,9.15,18.37,27.0,23.0,210,3,,6.21,30.0,,,,,,,,,,,CAVOK,,,,,,,,VFR,,,,,,,,,,,,METAR,361.0
FSIA 230800Z 12013KT 9999 FEW021 29/23 Q1015 NOSIG,FSIA,2022-10-23T08:00:00Z,-4.67,55.52,29.0,23.0,120,13,,6.21,29.970472,,,,,,TRUE,,,,,FEW,2100,,,,,,,VFR,,,,,,,,,,,,METAR,3.0
FQXA 230800Z 19003KT 130V300 9999 FEW010 BKN020 OVC025 26/20 Q1021,FQXA,2022-10-23T08:00:00Z,-25.05,33.62,26.0,20.0,190,3,,6.21,30.147638,,,,,,,,,,,FEW,1000,BKN,2000,OVC,2500,,,MVFR,,,,,,,,,,,,METAR,3.0
FQTT 230800Z 17003KT 090V210 CAVOK 34/17 Q1016,FQTT,2022-10-23T08:00:00Z,-16.1,33.63,34.0,17.0,170,3,,6.21,30.0,,,,,,,,,,,CAVOK,,,,,,,,VFR,,,,,,,,,,,,METAR,146.0
FQPB 230800Z 05013KT 020V080 9999 FEW020 28/22 Q1019,FQPB,2022-10-23T08:00:00Z,-12.98,40.52,28.0,22.0,50,13,,6.21,30.088583,,,,,,,,,,,FEW,2000,,,,,,,VFR,,,,,,,,,,,,METAR,101.0
FQNP 230800Z 04010KT 350V090 CAVOK 30/11 Q1020,FQNP,2022-10-23T08:00:00Z,-15.1,39.27,30.0,11.0,40,10,,6.21,30.11811,,,,,,,,,,,CAVOK,,,,,,,,VFR,,,,,,,,,,,,METAR,434.0
FQMA 230800Z 16005KT 9999 BKN020 23/19 Q1019 NOSIG,FQMA,2022-10-23T08:00:00Z,-25.92,32.57,23.0,19.0,160,5,,6.21,30.088583,,,,,,TRUE,,,,,BKN,2000,,,,,,,MVFR,,,,,,,,,,,,METAR,34.0
FQLC 230800Z 04012KT 9999 FEW015 24/13 Q1024,FQLC,2022-10-23T08:00:00Z,-13.27,35.25,24.0,13.0,40,12,,6.21,30.236221,,,,,,,,,,,FEW,1500,,,,,,,VFR,,,,,,,,,,,,METAR,1362.0
FQIN 230800Z 34004KT 9999 SCT020 BKN025 26/21 Q1020,FQIN,2022-10-23T08:00:00Z,-23.87,35.38,26.0,21.0,340,4,,6.21,30.11811,,,,,,,,,,,SCT,2000,BKN,2500,,,,,MVFR,,,,,,,,,,,,METAR,10.0
FQCH 230800Z /////KT 9999 FEW020 27/18 Q1023,FQCH,2022-10-23T08:00:00Z,-19.15,33.43,27.0,18.0,,,,6.21,30.206694,,,,,,,,,,,FEW,2000,,,,,,,VFR,,,,,,,,,,,,SPECI,695.0
FQBR 230800Z 12011KT 090V150 9999 BKN018 30/23 Q1018,FQBR,2022-10-23T08:00:00Z,-19.8,34.9,30.0,23.0,120,11,,6.21,30.059055,,,,,,,,,,,BKN,1800,,,,,,,MVFR,,,,,,,,,,,,METAR,14.0
FOON 230800Z /////KT 9999 BKN011 27/23 Q1015,FOON,2022-10-23T08:00:00Z,-1.65,13.43,27.0,23.0,,,,6.21,29.970472,,,,,,,,,,,BKN,1100,,,,,,,MVFR,,,,,,,,,,,,METAR,440.0
FOOL 230800Z 13006KT 9000 -RA SCT008 FEW020CB SCT033 26/25 Q1014 NOSIG,FOOL,2022-10-23T08:00:00Z,0.45,9.42,26.0,25.0,130,6,,5.59,29.940945,,,,,,TRUE,,,,-RA,SCT,800,FEW,2000,SCT,3300,,,VFR,,,,,,,,,,,,METAR,9.0
FOOG 230800Z 17007KT 8000 SCT006 FEW016CB OVC026 25/24 Q1014,FOOG,2022-10-23T08:00:00Z,-0.7,8.75,25.0,24.0,170,7,,4.97,29.940945,,,,,,,,,,,SCT,600,FEW,1600,OVC,2600,,,MVFR,,,,,,,,,,,,METAR,4.0
FOOB 230800Z /////KT 9999 SCT010 BKN023 22/21 Q1015,FOOB,2022-10-23T08:00:00Z,2.07,11.48,22.0,21.0,,,,6.21,29.970472,,,,,,,,,,,SCT,1000,BKN,2300,,,,,MVFR,,,,,,,,,,,,METAR,599.0
FOGR 230800Z /////KT 9999 SCT008 OVC025 25/23 Q////,FOGR,2022-10-23T08:00:00Z,-0.7,10.25,25.0,23.0,,,,6.21,,,,,,,,,,,,SCT,800,OVC,2500,,,,,MVFR,,,,,,,,,,,,METAR,25.0
FOGM 230800Z /////KT 9999 SCT010 BKN023 27/23 Q////,FOGM,2022-10-23T08:00:00Z,-1.83,11.05,27.0,23.0,,,,6.21,,,,,,,,,,,,SCT,1000,BKN,2300,,,,,MVFR,,,,,,,,,,,,METAR,90.0
FNUE 230800Z 27004KT CAVOK 24/20 Q1024,FNUE,2022-10-23T08:00:00Z,-11.77,19.9,24.0,20.0,270,4,,6.21,30.236221,,,,,,,,,,,CAVOK,,,,,,,,VFR,,,,,,,,,,,,METAR,1354.0
FNUB 230800Z 05004KT 9999 BKN025 21/15 Q1026,FNUB,2022-10-23T08:00:00Z,-14.93,13.57,21.0,15.0,50,4,,6.21,30.295275,,,,,,,,,,,BKN,2500,,,,,,,MVFR,,,,,,,,,,,,METAR,1749.0
FNSA 230800Z 00000KT CAVOK 24/19 Q1016,FNSA,2022-10-23T08:00:00Z,-9.68,20.43,24.0,19.0,0,0,,6.21,30.0,,,,,,,,,,,CAVOK,,,,,,,,VFR,,,,,,,,,,,,METAR,1096.0
FNLU 230800Z 15009KT 9000 BKN020 26/22 Q1014,FNLU,2022-10-23T08:00:00Z,-8.85,13.22,26.0,22.0,150,9,,5.59,29.940945,,,,,,,,,,,BKN,2000,,,,,,,MVFR,,,,,,,,,,,,METAR,75.0
FNDU 230800Z 00000KT CAVOK ///// Q////,FNDU,2022-10-23T08:00:00Z,-7.4,20.82,,,0,0,,6.21,,,,,,,,,,,,CAVOK,,,,,,,,VFR,,,,,,,,,,,,METAR,749.0
FMSD 230800Z 10018KT 9999 FEW020 29/20 Q1017,FMSD,2022-10-23T08:00:00Z,-25.03,46.95,29.0,20.0,100,18,,6.21,30.029528,,,,,,,,,,,FEW,2000,,,,,,,VFR,,,,,,,,,,,,METAR,7.0
FMNN 230800Z 03008KT 9999 SCT020 31/// Q1018,FMNN,2022-10-23T08:00:00Z,-13.32,48.32,,,30,8,,6.21,30.059055,,,,,,,,,,,SCT,2000,,,,,,,VFR,,,,,,,,,,,,METAR,10.0
FMNM 230800Z 33009KT 300V010 9999 FEW023 31/20 Q1018 NOSIG,FMNM,2022-10-23T08:00:00Z,-15.67,46.35,31.0,20.0,330,9,,6.21,30.059055,,,,,,TRUE,,,,,FEW,2300,,,,,,,VFR,,,,,,,,,,,,METAR,18.0
FMMT 230800Z 05010KT 010V100 9999 SCT017 28/21 Q1019 NOSIG,FMMT,2022-10-23T08:00:00Z,-18.12,49.38,28.0,21.0,50,10,,6.21,30.088583,,,,,,TRUE,,,,,SCT,1700,,,,,,,VFR,,,,,,,,,,,,METAR,13.0
FMMI 230800Z VRB07KT 9999 SCT023 28/14 Q1023 NOSIG,FMMI,2022-10-23T08:00:00Z,-18.8,47.47,28.0,14.0,0,7,,6.21,30.206694,,,,,,TRUE,,,,,SCT,2300,,,,,,,VFR,,,,,,,,,,,,METAR,1269.0
FMEP 230800Z AUTO 26009KT 230V290 9999 BKN045 BKN230 26/19 Q1021 NOSIG,FMEP,2022-10-23T08:00:00Z,-21.32,55.42,26.0,19.0,260,9,,6.21,30.147638,,,TRUE,,,TRUE,,,,,BKN,4500,BKN,23000,,,,,VFR,,,,,,,,,,,,METAR,21.0
FMEE 230800Z AUTO 07010KT 9999 BKN066/// OVC076/// 26/20 Q1021 NOSIG,FMEE,2022-10-23T08:00:00Z,-20.88,55.52,26.0,20.0,70,10,,6.21,30.147638,,,TRUE,,,TRUE,,,,,BKN,6600,OVC,7600,,,,,VFR,,,,,,,,,,,,METAR,20.0
FMCZ 230800Z AUTO 20005KT 160V230 9999 FEW025 29/21 Q1018 NOSIG,FMCZ,2022-10-23T08:00:00Z,-12.8,45.27,29.0,21.0,200,5,,6.21,30.059055,,,TRUE,,,TRUE,,,,,FEW,2500,,,,,,,VFR,,,,,,,,,,,,METAR,7.0
FMCH 230800Z 10017KT 9999 FEW020 30/20 Q1019 NOSIG,FMCH,2022-10-23T08:00:00Z,-11.53,43.27,30.0,20.0,100,17,,6.21,30.088583,,,,,,TRUE,,,,,FEW,2000,,,,,,,VFR,,,,,,,,,,,,METAR,30.0
FKYS 230800Z 35005KT 9999 TS BKN006 FEW016CB 22/22 Q1019 BECMG NSW BKN010,FKYS,2022-10-23T08:00:00Z,3.82,11.52,22.0,22.0,350,5,,6.21,30.088583,,,,,,,,,,TS,BKN,600,FEW,1600,,,,,IFR,,,,,,,,,,,,METAR,694.0
FKKR 230800Z 15006KT 110V190 9999 SCT014 27/22 Q1017 BECMG BKN016,FKKR,2022-10-23T08:00:00Z,9.33,13.37,27.0,22.0,150,6,,6.21,30.029528,,,,,,,,,,,SCT,1400,,,,,,,VFR,,,,,,,,,,,,SPECI,223.0
FKKD 230800Z 04009KT 360V070 8000 -TSDZ SCT003 BKN010 FEW013CB 25/23 Q1014 TEMPO 3500 TSRADZ,FKKD,2022-10-23T08:00:00Z,4.0,9.72,25.0,23.0,40,9,,4.97,29.940945,,,,,,,,,,-TSDZ,SCT,300,BKN,1000,FEW,1300,,,MVFR,,,,,,,,,,,,METAR,10.0
FIMP 230800Z 03012KT 9999 SCT017 BKN050 26/20 Q1022,FIMP,2022-10-23T08:00:00Z,-20.43,57.68,26.0,20.0,30,12,,6.21,30.177166,,,,,,,,,,,SCT,1700,BKN,5000,,,,,VFR,,,,,,,,,,,,METAR,57.0
FGSL 230800Z VRB02KT 9999 SCT010 FEW020CB BKN040 27/25 Q1015 NO SIG,FGSL,2022-10-23T08:00:00Z,3.75,8.72,27.0,25.0,0,2,,6.21,29.970472,,,,,,,,,,,SCT,1000,FEW,2000,BKN,4000,,,VFR,,,,,,,,,,,,SPECI,23.0
FGBT 230800Z 16006KT 9999 SCT010 29/25 Q1014,FGBT,2022-10-23T08:00:00Z,1.9,9.8,29.0,25.0,160,6,,6.21,29.940945,,,,,,,,,,,SCT,1000,,,,,,,VFR,,,,,,,,,,,,METAR,2.0
FEFT 230800Z 36012KT 9999 FEW020 26/22 Q1017,FEFT,2022-10-23T08:00:00Z,4.22,15.8,26.0,22.0,360,12,,6.21,30.029528,,,,,,,,,,,FEW,2000,,,,,,,VFR,,,,,,,,,,,,METAR,567.0
FEFF 230800Z VRB03KT 7000 FEW010 FEW033CB 28/24 Q1014 TEMPO TS,FEFF,2022-10-23T08:00:00Z,4.4,18.52,28.0,24.0,0,3,,4.35,29.940945,,,,,,,,,,,FEW,1000,FEW,3300,,,,,MVFR,,,,,,,,,,,,SPECI,364.0
FDST 230800Z AUTO 10003KT //// // ////// 21/16 Q1020,FDST,2022-10-23T08:00:00Z,-26.43,31.95,21.0,16.0,100,3,,,30.11811,,,TRUE,,,,,,,,,,,,,,,,,,,,,,,,,,,,METAR,642.0
FDSK 230800Z 23003KT 9999 SCT035 25/15 Q1022 NOSIG,FDSK,2022-10-23T08:00:00Z,-26.35,31.72,25.0,15.0,230,3,,6.21,30.177166,,,,,,TRUE,,,,,SCT,3500,,,,,,,VFR,,,,,,,,,,,,METAR,323.0
FDPP 230800Z AUTO /////KT //// // ////// 17/M02 Q1021,FDPP,2022-10-23T08:00:00Z,-25.97,31.25,17.0,-2.0,,,,,30.147638,,,TRUE,,,,,,,,,,,,,,,,,,,,,,,,,,,,METAR,1023.0
FDOT 230800Z AUTO 07001KT //// // ////// 25/19 Q1022,FDOT,2022-10-23T08:00:00Z,-26.7,31.43,25.0,19.0,70,1,,,30.177166,,,TRUE,,,,,,,,,,,,,,,,,,,,,,,,,,,,METAR,342.0
FDMY 230800Z AUTO 04001KT //// // ////// 23/17 Q1032,FDMY,2022-10-23T08:00:00Z,-25.88,31.52,23.0,17.0,40,1,,,30.47244,,,TRUE,,,,,,,,,,,,,,,,,,,,,,,,,,,,METAR,401.0
FDBB 230800Z AUTO 01003KT //// // ////// 27/17 Q1019,FDBB,2022-10-23T08:00:00Z,-26.8,31.93,27.0,17.0,10,3,,,30.088583,,,TRUE,,,,,,,,,,,,,,,,,,,,,,,,,,,,METAR,106.0
FCPP 230800Z 18012KT 8000 -DZ FEW008 SCT015 BKN021 27/24 Q1014 NOSIG,FCPP,2022-10-23T08:00:00Z,-4.82,11.9,27.0,24.0,180,12,,4.97,29.940945,,,,,,TRUE,,,,-DZ,FEW,800,SCT,1500,BKN,2100,,,MVFR,,,,,,,,,,,,METAR,18.0
FCBB 230800Z 22003KT 180V270 9999 FEW013 SCT020 27/22 Q1016 NOSIG,FCBB,2022-10-23T08:00:00Z,-4.25,15.25,27.0,22.0,220,3,,6.21,30.0,,,,,,TRUE,,,,,FEW,1300,SCT,2000,,,,,VFR,,,,,,,,,,,,METAR,316.0
FBSK 230800Z 01007KT 340V040 9999 FEW030 BKN070 24/14 Q1022 NOSIG,FBSK,2022-10-23T08:00:00Z,-24.55,25.92,24.0,14.0,10,7,,6.21,30.177166,,,,,,TRUE,,,,,FEW,3000,BKN,7000,,,,,VFR,,,,,,,,,,,,METAR,1007.0
FBPM 230800Z 09013KT 060V120 CAVOK 26/16 Q1021,FBPM,2022-10-23T08:00:00Z,-21.17,27.48,26.0,16.0,90,13,,6.21,30.147638,,,,,,,,,,,CAVOK,,,,,,,,VFR,,,,,,,,,,,,METAR,1009.0
FBMN 230800Z VRB02KT CAVOK 25/13 Q1019,FBMN,2022-10-23T08:00:00Z,-19.97,23.42,25.0,13.0,0,2,,6.21,30.088583,,,,,,,,,,,CAVOK,,,,,,,,VFR,,,,,,,,,,,,METAR,946.0
FBKE 230800Z 08010KT 030V120 CAVOK 32/08 Q1019,FBKE,2022-10-23T08:00:00Z,-17.82,25.17,32.0,8.0,80,10,,6.21,30.088583,,,,,,,,,,,CAVOK,,,,,,,,VFR,,,,,,,,,,,,METAR,999.0
FAUP 230800Z 36012KT 9999 FEW040 SCT050CB 30/10 Q1016 NOSIG,FAUP,2022-10-23T08:00:00Z,-28.38,21.27,30.0,10.0,360,12,,6.21,30.0,,,,,,TRUE,,,,,FEW,4000,SCT,5000,,,,,VFR,,,,,,,,,,,,METAR,845.0
FAPP 230800Z 03011KT 9999 SCT025 21/16 Q1026 NOSIG,FAPP,2022-10-23T08:00:00Z,-23.83,29.45,21.0,16.0,30,11,,6.21,30.295275,,,,,,TRUE,,,,,SCT,2500,,,,,,,VFR,,,,,,,,,,,,METAR,1238.0
FAPE 230800Z 05007KT 030V100 CAVOK 20/15 Q1018 NOSIG,FAPE,2022-10-23T08:00:00Z,-33.98,25.6,20.0,15.0,50,7,,6.21,30.059055,,,,,,TRUE,,,,,CAVOK,,,,,,,,VFR,,,,,,,,,,,,METAR,58.0
FAOR 230800Z 01008KT 330V050 CAVOK 21/13 Q1026 NOSIG,FAOR,2022-10-23T08:00:00Z,-26.13,28.23,21.0,13.0,10,8,,6.21,30.295275,,,,,,TRUE,,,,,CAVOK,,,,,,,,VFR,,,,,,,,,,,,METAR,1684.0
FALW 230800Z AUTO 12003KT //// // ////// 26/14 Q1014,FALW,2022-10-23T08:00:00Z,-32.97,18.17,26.0,14.0,120,3,,,29.940945,,,TRUE,,,,,,,,,,,,,,,,,,,,,,,,,,,,METAR,31.0
FALE 230800Z 09006KT 030V160 9999 FEW028 23/15 Q1020 NOSIG,FALE,2022-10-23T08:00:00Z,-29.62,31.12,23.0,15.0,90,6,,6.21,30.11811,,,,,,TRUE,,,,,FEW,2800,,,,,,,VFR,,,,,,,,,,,,METAR,109.0
FALA 230800Z 02007KT 340V070 9999 FEW020 22/13 Q1026 NOSIG,FALA,2022-10-23T08:00:00Z,-25.93,27.92,22.0,13.0,20,7,,6.21,30.295275,,,,,,TRUE,,,,,FEW,2000,,,,,,,VFR,,,,,,,,,,,,METAR,1365.0
FAKN 230800Z 10003KT 9999 BKN015 20/16 Q1024 NOSIG,FAKN,2022-10-23T08:00:00Z,-25.38,31.1,20.0,16.0,100,3,,6.21,30.236221,,,,,,TRUE,,,,,BKN,1500,,,,,,,MVFR,,,,,,,,,,,,METAR,864.0
FAGG 230800Z 09005KT 040V170 9999 FEW015 BKN035 20/16 Q1019,FAGG,2022-10-23T08:00:00Z,-34.0,22.37,20.0,16.0,90,5,,6.21,30.088583,,,,,,,,,,,FEW,1500,BKN,3500,,,,,VFR,,,,,,,,,,,,METAR,196.0
FAEL 230800Z 06012KT 030V100 CAVOK 23/15 Q1019,FAEL,2022-10-23T08:00:00Z,-33.03,27.82,23.0,15.0,60,12,,6.21,30.088583,,,,,,,,,,,CAVOK,,,,,,,,VFR,,,,,,,,,,,,METAR,127.0
FACT 230800Z 17018KT CAVOK 24/15 Q1015 NOSIG,FACT,2022-10-23T08:00:00Z,-33.97,18.6,24.0,15.0,170,18,,6.21,29.970472,,,,,,TRUE,,,,,CAVOK,,,,,,,,VFR,,,,,,,,,,,,METAR,48.0
FABL 230800Z 03011KT CAVOK 22/14 Q1024 NOSIG,FABL,2022-10-23T08:00:00Z,-29.1,26.3,22.0,14.0,30,11,,6.21,30.236221,,,,,,TRUE,,,,,CAVOK,,,,,,,,VFR,,,,,,,,,,,,METAR,1348.0
EPZG 230800Z 21003KT 0500 R24/1500U FG FEW000 11/11 Q1018,EPZG,2022-10-23T08:00:00Z,52.13,15.77,11.0,11.0,210,3,,0.31,30.059055,,,,,,,,,,FG,FEW,0,,,,,,,LIFR,,,,,,,,,,,,METAR,59.0
EPWR 230800Z 22008KT CAVOK 13/11 Q1019,EPWR,2022-10-23T08:00:00Z,51.1,16.88,13.0,11.0,220,8,,6.21,30.088583,,,,,,,,,,,CAVOK,,,,,,,,VFR,,,,,,,,,,,,METAR,118.0
EPWA 230800Z 23004KT 190V270 9999 BKN010 13/12 Q1017 TEMPO BKN005,EPWA,2022-10-23T08:00:00Z,52.17,20.97,13.0,12.0,230,4,,6.21,30.029528,,,,,,,,,,,BKN,1000,,,,,,,MVFR,,,,,,,,,,,,METAR,107.0
EPSY 230800Z 24007KT 210V280 7000 BKN007 12/12 Q1016,EPSY,2022-10-23T08:00:00Z,53.47,20.93,12.0,12.0,240,7,,4.35,30.0,,,,,,,,,,,BKN,700,,,,,,,IFR,,,,,,,,,,,,METAR,136.0
EPSC 230800Z 18003KT 140V230 6000 OVC002 12/12 Q1016,EPSC,2022-10-23T08:00:00Z,53.58,14.9,12.0,12.0,180,3,,3.73,30.0,,,,,,,,,,,OVC,200,,,,,,,LIFR,,,,,,,,,,,,METAR,47.0
EPRZ 230800Z 26010KT 9999 FEW009 14/11 Q1020,EPRZ,2022-10-23T08:00:00Z,50.1,22.02,14.0,11.0,260,10,,6.21,30.11811,,,,,,,,,,,FEW,900,,,,,,,VFR,,,,,,,,,,,,METAR,206.0
EPPO 230800Z 26004KT 2400 BR OVC001 12/12 Q1017,EPPO,2022-10-23T08:00:00Z,52.42,16.83,12.0,12.0,260,4,,1.49,30.029528,,,,,,,,,,BR,OVC,100,,,,,,,LIFR,,,,,,,,,,,,METAR,87.0
EPMO 230800Z 20005KT 160V230 3600 BR BKN004 13/12 Q1017,EPMO,2022-10-23T08:00:00Z,52.45,20.65,13.0,12.0,200,5,,2.24,30.029528,,,,,,,,,,BR,BKN,400,,,,,,,LIFR,,,,,,,,,,,,METAR,102.0
EPLL 230800Z 23007KT 190V250 7000 BKN005 13/12 Q1018,EPLL,2022-10-23T08:00:00Z,51.72,19.4,13.0,12.0,230,7,,4.35,30.059055,,,,,,,,,,,BKN,500,,,,,,,IFR,,,,,,,,,,,,METAR,176.0
EPLB 230800Z 28010KT 9999 BKN013 14/13 Q1018,EPLB,2022-10-23T08:00:00Z,51.23,22.72,14.0,13.0,280,10,,6.21,30.059055,,,,,,,,,,,BKN,1300,,,,,,,MVFR,,,,,,,,,,,,METAR,206.0
EPKT 230800Z 23009KT 6000 FEW004 BKN024 11/10 Q1020,EPKT,2022-10-23T08:00:00Z,50.47,19.08,11.0,10.0,230,9,,3.73,30.11811,,,,,,,,,,,FEW,400,BKN,2400,,,,,MVFR,,,,,,,,,,,,METAR,296.0
EPKK 230800Z 21004KT 9999 BKN030 12/11 Q1021,EPKK,2022-10-23T08:00:00Z,50.07,19.8,12.0,11.0,210,4,,6.21,30.147638,,,,,,,,,,,BKN,3000,,,,,,,MVFR,,,,,,,,,,,,METAR,237.0
EPGD 230800Z 24007KT 8000 FEW003 BKN005 13/12 Q1014,EPGD,2022-10-23T08:00:00Z,54.37,18.47,13.0,12.0,240,7,,4.97,29.940945,,,,,,,,,,,FEW,300,BKN,500,,,,,IFR,,,,,,,,,,,,METAR,136.0
EPBY 230800Z 25009KT 5000 BR OVC002 13/13 Q1016,EPBY,2022-10-23T08:00:00Z,53.1,18.0,13.0,13.0,250,9,,3.11,30.0,,,,,,,,,,BR,OVC,200,,,,,,,LIFR,,,,,,,,,,,,METAR,66.0
EIWF 230800Z 19006KT 170V310 7000 SCT007 BKN011 13/13 Q0996,EIWF,2022-10-23T08:00:00Z,52.18,-7.08,13.0,13.0,190,6,,4.35,29.409449,,,,,,,,,,,SCT,700,BKN,1100,,,,,MVFR,,,,,,,,,,,,METAR,26.0
EISG 230800Z 08005KT 2000 RA BKN005 OVC018 12/11 Q0997,EISG,2022-10-23T08:00:00Z,54.28,-8.6,12.0,11.0,80,5,,1.24,29.438976,,,,,,,,,,RA,BKN,500,OVC,1800,,,,,IFR,,,,,,,,,,,,METAR,1.0
EINN 230800Z 09007KT 9999 -RA FEW008 SCT013 BKN060 14/13 Q0995 NOSIG,EINN,2022-10-23T08:00:00Z,52.7,-8.92,14.0,13.0,90,7,,6.21,29.379921,,,,,,TRUE,,,,-RA,FEW,800,SCT,1300,BKN,6000,,,VFR,,,,,,,,,,,,METAR,20.0
EIME 230800Z 09010KT 7000 RA SCT014 BKN018 14/13 Q0997,EIME,2022-10-23T08:00:00Z,53.3,-6.45,14.0,13.0,90,10,,4.35,29.438976,,,,,,,,,,RA,SCT,1400,BKN,1800,,,,,MVFR,,,,,,,,,,,,METAR,90.0
EIKY 230800Z VRB02KT 9999 FEW041 09/08 Q0995,EIKY,2022-10-23T08:00:00Z,52.18,-9.53,9.0,8.0,0,2,,6.21,29.379921,,,,,,,,,,,FEW,4100,,,,,,,VFR,,,,,,,,,,,,METAR,23.0
EIKN 230800Z 10007KT 060V140 1200 R26/1000 -RA VV002 12/11 Q0997 NOSIG,EIKN,2022-10-23T08:00:00Z,53.92,-8.82,12.0,11.0,100,7,,0.75,29.438976,,,,,,TRUE,,,,-RA,OVX,0,,,,,,,LIFR,,,,,,,,,,,200,METAR,201.0
EIDW 230800Z 11011KT 8000 -RA FEW006 SCT012 BKN020 14/13 Q0997 TEMPO BKN012,EIDW,2022-10-23T08:00:00Z,53.42,-6.28,14.0,13.0,110,11,,4.97,29.438976,,,,,,,,,,-RA,FEW,600,SCT,1200,BKN,2000,,,MVFR,,,,,,,,,,,,METAR,75.0
EICK 230800Z 19002KT 8000 SCT003 BKN005 12/12 Q0995 NOSIG,EICK,2022-10-23T08:00:00Z,51.85,-8.47,12.0,12.0,190,2,,4.97,29.379921,,,,,,TRUE,,,,,SCT,300,BKN,500,,,,,IFR,,,,,,,,,,,,METAR,158.0
DXXX 230800Z 26007KT 230V290 9999 FEW013 28/24 Q1014 NOSIG,DXXX,2022-10-23T08:00:00Z,6.17,1.25,28.0,24.0,260,7,,6.21,29.940945,,,,,,TRUE,,,,,FEW,1300,,,,,,,VFR,,,,,,,,,,,,METAR,22.0
DXNG 230800Z VRB01KT CAVOK 28/17 Q1017,DXNG,2022-10-23T08:00:00Z,9.77,1.1,28.0,17.0,0,1,,6.21,30.029528,,,,,,,,,,,CAVOK,,,,,,,,VFR,,,,,,,,,,,,METAR,343.0
DTTZ 230800Z 12007KT CAVOK 22/09 Q1024,DTTZ,2022-10-23T08:00:00Z,33.93,8.1,22.0,9.0,120,7,,6.21,30.236221,,,,,,,,,,,CAVOK,,,,,,,,VFR,,,,,,,,,,,,METAR,87.0
DTTR 230800Z 13005KT CAVOK 20/05 Q1027,DTTR,2022-10-23T08:00:00Z,31.7,9.27,20.0,5.0,130,5,,6.21,30.324802,,,,,,,,,,,CAVOK,,,,,,,,VFR,,,,,,,,,,,,METAR,253.0
DTTN 230800Z 00000KT CAVOK 20/05 Q1023,DTTN,2022-10-23T08:00:00Z,36.47,8.8,20.0,5.0,0,0,,6.21,30.206694,,,,,,,,,,,CAVOK,,,,,,,,VFR,,,,,,,,,,,,METAR,145.0
DTTL 230800Z 16006KT 9999 SCT020 25/20 Q1023,DTTL,2022-10-23T08:00:00Z,36.85,11.07,25.0,20.0,160,6,,6.21,30.206694,,,,,,,,,,,SCT,2000,,,,,,,VFR,,,,,,,,,,,,METAR,18.0
DTTK 230800Z 00000KT CAVOK 23/12 Q1023,DTTK,2022-10-23T08:00:00Z,35.67,10.08,23.0,12.0,0,0,,6.21,30.206694,,,,,,,,,,,CAVOK,,,,,,,,VFR,,,,,,,,,,,,METAR,65.0
DTTJ 230800Z 18007KT CAVOK 25/12 Q1025 NOSIG,DTTJ,2022-10-23T08:00:00Z,33.87,10.77,25.0,12.0,180,7,,6.21,30.265747,,,,,,TRUE,,,,,CAVOK,,,,,,,,VFR,,,,,,,,,,,,METAR,3.0
DTTG 230800Z VRB04KT CAVOK 20/07 Q1025 NOSIG,DTTG,2022-10-23T08:00:00Z,33.73,9.92,20.0,7.0,0,4,,6.21,30.265747,,,,,,TRUE,,,,,CAVOK,,,,,,,,VFR,,,,,,,,,,,,METAR,120.0
DTTF 230800Z 19006KT CAVOK 23/08 Q1026 NOSIG,DTTF,2022-10-23T08:00:00Z,34.42,8.82,23.0,8.0,190,6,,6.21,30.295275,,,,,,TRUE,,,,,CAVOK,,,,,,,,VFR,,,,,,,,,,,,METAR,314.0
DTTD 230800Z 00000KT CAVOK 23/06 Q1027,DTTD,2022-10-23T08:00:00Z,32.32,10.4,23.0,6.0,0,0,,6.21,30.324802,,,,,,,,,,,CAVOK,,,,,,,,VFR,,,,,,,,,,,,METAR,306.0
DTTB 230800Z 14006KT CAVOK 23/13 Q1022,DTTB,2022-10-23T08:00:00Z,37.25,9.8,23.0,13.0,140,6,,6.21,30.177166,,,,,,,,,,,CAVOK,,,,,,,,VFR,,,,,,,,,,,,METAR,4.0
DTTA 230800Z 17003KT 130V200 CAVOK 24/14 Q1022,DTTA,2022-10-23T08:00:00Z,36.85,10.22,24.0,14.0,170,3,,6.21,30.177166,,,,,,,,,,,CAVOK,,,,,,,,VFR,,,,,,,,,,,,METAR,4.0
DTNH 230800Z 20005KT CAVOK 21/16 Q1023 NOSIG,DTNH,2022-10-23T08:00:00Z,36.07,10.43,21.0,16.0,200,5,,6.21,30.206694,,,,,,TRUE,,,,,CAVOK,,,,,,,,VFR,,,,,,,,,,,,METAR,1.0
DTMB 230800Z 20008KT 8000 NSC 24/18 Q1023,DTMB,2022-10-23T08:00:00Z,35.77,10.75,24.0,18.0,200,8,,4.97,30.206694,,,,,,,,,,,CLR,,,,,,,,MVFR,,,,,,,,,,,,METAR,1.0
DTKA 230800Z 08009KT CAVOK 23/08 Q1021 NOSIG,DTKA,2022-10-23T08:00:00Z,36.98,8.88,23.0,8.0,80,9,,6.21,30.147638,,,,,,TRUE,,,,,CAVOK,,,,,,,,VFR,,,,,,,,,,,,METAR,70.0
DRZR 230800Z 35011KT CAVOK 29/03 Q1017,DRZR,2022-10-23T08:00:00Z,13.77,8.98,29.0,3.0,350,11,,6.21,30.029528,,,,,,,,,,,CAVOK,,,,,,,,VFR,,,,,,,,,,,,METAR,457.0
DRZA 230800Z 08019KT CAVOK 29/09 Q1018,DRZA,2022-10-23T08:00:00Z,16.97,8.0,29.0,9.0,80,19,,6.21,30.059055,,,,,,,,,,,CAVOK,,,,,,,,VFR,,,,,,,,,,,,METAR,506.0
DRRT 230800Z 10010KT CAVOK 28/02 Q1017,DRRT,2022-10-23T08:00:00Z,14.87,5.27,28.0,2.0,100,10,,6.21,30.029528,,,,,,,,,,,CAVOK,,,,,,,,VFR,,,,,,,,,,,,METAR,387.0
DRRN 230800Z 06012KT CAVOK 30/03 Q1015 NOSIG,DRRN,2022-10-23T08:00:00Z,13.47,2.17,30.0,3.0,60,12,,6.21,29.970472,,,,,,TRUE,,,,,CAVOK,,,,,,,,VFR,,,,,,,,,,,,METAR,223.0
DRRM 230800Z 07014KT CAVOK 28/07 Q1016,DRRM,2022-10-23T08:00:00Z,13.5,7.12,28.0,7.0,70,14,,6.21,30.0,,,,,,,,,,,CAVOK,,,,,,,,VFR,,,,,,,,,,,,METAR,374.0
DNSO 230800Z 09013KT 9999 NSC 27/12 Q1016,DNSO,2022-10-23T08:00:00Z,12.92,5.2,27.0,12.0,90,13,,6.21,30.0,,,,,,,,,,,CLR,,,,,,,,VFR,,,,,,,,,,,,METAR,302.0
DNMN 230800Z 50007KT CAVOK 27/17 Q1014,DNMN,2022-10-23T08:00:00Z,9.65,6.47,27.0,17.0,,,,6.21,29.940945,,,,,,,,,,,CAVOK,,,,,,,,VFR,0.7,,,,,,,,,,,METAR,268.0
DNMM 230800Z 28003KT 8000 FEW012 28/24 Q1015 NOSIG,DNMM,2022-10-23T08:00:00Z,6.57,3.32,28.0,24.0,280,3,,4.97,29.970472,,,,,,TRUE,,,,,FEW,1200,,,,,,,MVFR,,,,,,,,,,,,METAR,27.0
DNKA 230800Z 05014KT CAVOK 21/18 Q1018 NOSIG,DNKA,2022-10-23T08:00:00Z,10.58,7.45,21.0,18.0,50,14,,6.21,30.059055,,,,,,TRUE,,,,,CAVOK,,,,,,,,VFR,,,,,,,,,,,,METAR,631.0
DNJO 230800Z 11015KT CAVOK 23/08 Q1022,DNJO,2022-10-23T08:00:00Z,9.87,8.9,23.0,8.0,110,15,,6.21,30.177166,,,,,,,,,,,CAVOK,,,,,,,,VFR,,,,,,,,,,,,METAR,1284.0
DNIL 230800Z 24003KT CAVOK 27/23 Q1015,DNIL,2022-10-23T08:00:00Z,8.43,4.48,27.0,23.0,240,3,,6.21,29.970472,,,,,,,,,,,CAVOK,,,,,,,,VFR,,,,,,,,,,,,METAR,341.0
DNGO 230800Z 06016KT CAVOK 29/10 Q1016,DNGO,2022-10-23T08:00:00Z,10.3,10.9,29.0,10.0,60,16,,6.21,30.0,,,,,,,,,,,CAVOK,,,,,,,,VFR,,,,,,,,,,,,METAR,510.0
DNAA 230800Z 07002KT CAVOK 28/22 Q1015 NOSIG,DNAA,2022-10-23T08:00:00Z,9.0,7.27,28.0,22.0,70,2,,6.21,29.970472,,,,,,TRUE,,,,,CAVOK,,,,,,,,VFR,,,,,,,,,,,,METAR,338.0
DIYO 230800Z 28004KT 8000 BKN011 24/23 Q1015 NOSIG,DIYO,2022-10-23T08:00:00Z,6.9,-5.35,24.0,23.0,280,4,,4.97,29.970472,,,,,,TRUE,,,,,BKN,1100,,,,,,,MVFR,,,,,,,,,,,,METAR,202.0
DIBK 230800Z 20006KT 6000 FEW005 OVC010 23/23 Q1015 NOSIG,DIBK,2022-10-23T08:00:00Z,7.73,-5.07,23.0,23.0,200,6,,3.73,29.970472,,,,,,TRUE,,,,,FEW,500,OVC,1000,,,,,MVFR,,,,,,,,,,,,METAR,363.0
DIAP 230800Z 36003KT 300V040 9999 SCT013 25/25 Q1014 NOSIG,DIAP,2022-10-23T08:00:00Z,5.25,-3.92,25.0,25.0,360,3,,6.21,29.940945,,,,,,TRUE,,,,,SCT,1300,,,,,,,VFR,,,,,,,,,,,,METAR,4.0
DGAA 230800Z 27006KT 9999 BKN027 OVC033 26/24 Q1014 NOSIG,DGAA,2022-10-23T08:00:00Z,5.58,-0.17,26.0,24.0,270,6,,6.21,29.940945,,,,,,TRUE,,,,,BKN,2700,OVC,3300,,,,,MVFR,,,,,,,,,,,,METAR,68.0
DFOO 230800Z VRB02KT CAVOK 27/21 Q1016,DFOO,2022-10-23T08:00:00Z,11.17,-4.32,27.0,21.0,0,2,,6.21,30.0,,,,,,,,,,,CAVOK,,,,,,,,VFR,,,,,,,,,,,,METAR,461.0
DFFD 230800Z VRB01KT 4000 HZ NSC 29/19 Q1015 BECMG 6000 NSW,DFFD,2022-10-23T08:00:00Z,12.35,-1.52,29.0,19.0,0,1,,2.49,29.970472,,,,,,,,,,HZ,CLR,,,,,,,,IFR,,,,,,,,,,,,METAR,309.0
DBBB 230800Z 23006KT 9999 SCT012 29/25 Q1014 NOSIG,DBBB,2022-10-23T08:00:00Z,6.35,2.38,29.0,25.0,230,6,,6.21,29.940945,,,,,,TRUE,,,,,SCT,1200,,,,,,,VFR,,,,,,,,,,,,METAR,4.0
DAUT 230800Z 08012KT CAVOK 21/02 Q1022,DAUT,2022-10-23T08:00:00Z,29.25,0.27,21.0,2.0,80,12,,6.21,30.177166,,,,,,,,,,,CAVOK,,,,,,,,VFR,,,,,,,,,,,,METAR,307.0
DAUO 230800Z VRB02KT CAVOK 22/07 Q1025,DAUO,2022-10-23T08:00:00Z,33.5,6.78,22.0,7.0,0,2,,6.21,30.265747,,,,,,,,,,,CAVOK,,,,,,,,VFR,,,,,,,,,,,,METAR,55.0
DAUK 230800Z 00000KT CAVOK 24/06 Q1025,DAUK,2022-10-23T08:00:00Z,33.08,6.08,24.0,6.0,0,0,,6.21,30.265747,,,,,,,,,,,CAVOK,,,,,,,,VFR,,,,,,,,,,,,METAR,83.0
DAUH 230800Z 09004KT CAVOK 21/04 Q1024,DAUH,2022-10-23T08:00:00Z,31.67,6.15,21.0,4.0,90,4,,6.21,30.236221,,,,,,,,,,,CAVOK,,,,,,,,VFR,,,,,,,,,,,,METAR,141.0
DAUE 230800Z 34004KT CAVOK 19/05 Q1026,DAUE,2022-10-23T08:00:00Z,30.57,2.87,19.0,5.0,340,4,,6.21,30.295275,,,,,,,,,,,CAVOK,,,,,,,,VFR,,,,,,,,,,,,METAR,396.0
DAOR 230800Z 01004KT CAVOK 18/M00 Q1026,DAOR,2022-10-23T08:00:00Z,31.65,-2.27,18.0,0.0,10,4,,6.21,30.295275,,,,,,,,,,,CAVOK,,,,,,,,VFR,,,,,,,,,,,,METAR,809.0
DAOO 230800Z 20009KT CAVOK 27/05 Q1018,DAOO,2022-10-23T08:00:00Z,35.62,-0.62,27.0,5.0,200,9,,6.21,30.059055,,,,,,,,,,,CAVOK,,,,,,,,VFR,,,,,,,,,,,,METAR,87.0
DAON 230800Z 22008KT 9999 FEW030 26/02 Q1019,DAON,2022-10-23T08:00:00Z,35.02,-1.47,26.0,2.0,220,8,,6.21,30.088583,,,,,,,,,,,FEW,3000,,,,,,,VFR,,,,,,,,,,,,METAR,245.0
DABC 230800Z 13003KT CAVOK 18/05 Q1026,DABC,2022-10-23T08:00:00Z,36.27,6.62,18.0,5.0,130,3,,6.21,30.295275,,,,,,,,,,,CAVOK,,,,,,,,VFR,,,,,,,,,,,,METAR,686.0
DABB 230800Z 24003KT 9999 FEW033 25/09 Q1020,DABB,2022-10-23T08:00:00Z,36.82,7.82,25.0,9.0,240,3,,6.21,30.11811,,,,,,,,,,,FEW,3300,,,,,,,VFR,,,,,,,,,,,,METAR,3.0
DAAY 230800Z 23010KT CAVOK 17/01 Q1028,DAAY,2022-10-23T08:00:00Z,33.53,-0.25,17.0,1.0,230,10,,6.21,30.35433,,,,,,,,,,,CAVOK,,,,,,,,VFR,,,,,,,,,,,,METAR,1116.0
DAAT 230800Z 08016KT CAVOK 20/01 Q1027,DAAT,2022-10-23T08:00:00Z,22.82,5.47,20.0,1.0,80,16,,6.21,30.324802,,,,,,,,,,,CAVOK,,,,,,,,VFR,,,,,,,,,,,,METAR,1376.0
DAAP 230800Z 11006KT CAVOK 23/08 Q1026,DAAP,2022-10-23T08:00:00Z,26.72,8.62,23.0,8.0,110,6,,6.21,30.295275,,,,,,,,,,,CAVOK,,,,,,,,VFR,,,,,,,,,,,,METAR,542.0
DAAG 230800Z 15007KT CAVOK 29/07 Q1020,DAAG,2022-10-23T08:00:00Z,36.68,3.22,29.0,7.0,150,7,,6.21,30.11811,,,,,,,,,,,CAVOK,,,,,,,,VFR,,,,,,,,,,,,METAR,18.0
CZZJ 230800Z AUTO 00000KT M01/M01 RMK AO1 SLP162 T10071009 51015,CZZJ,2022-10-23T08:00:00Z,53.58,-116.47,-0.7,-0.9,0,0,,,,1016.2,,TRUE,TRUE,,,,,,,,,,,,,,,,1.5,,,,,,,,,,,METAR,927.0
CZVL 230800Z AUTO 33003KT 5SM BR SCT071 M00/ A2990 RMK DP MISG SLP155,CZVL,2022-10-23T08:00:00Z,53.67,-113.85,0.0,,330,3,,5.0,29.899607,1015.5,,TRUE,,,,,,,BR,SCT,7100,,,,,,,MVFR,,,,,,,,,,,,METAR,685.0
CZUM 230800Z AUTO 26006G15KT 240V310 9SM SCT029 SCT060 BKN079 06/02 A2999 RMK SLP174,CZUM,2022-10-23T08:00:00Z,53.55,-64.1,6.0,2.0,260,6,15,9.0,29.991142,1017.4,,TRUE,,,,,,,,SCT,2900,SCT,6000,BKN,7900,,,VFR,,,,,,,,,,,,METAR,431.0
CZTB 230800Z AUTO 09011KT 09/07 RMK AO1 SLP089 T00900071 55001,CZTB,2022-10-23T08:00:00Z,48.37,-89.32,9.0,7.1,90,11,,,,1008.9,,TRUE,TRUE,,,,,,,,,,,,,,,,-0.1,,,,,,,,,,,METAR,197.0
CZSP 230800Z AUTO 21009KT 10/07 RMK AO1 SLP264 T00990073 54000,CZSP,2022-10-23T08:00:00Z,46.45,-62.58,9.9,7.3,210,9,,,,1026.4,,TRUE,TRUE,,,,,,,,,,,,,,,,,,,,,,,,,,,METAR,31.0
CZSM 230800Z AUTO 28001KT M03/M09 RMK AO1 SLP200 T10321086 51011,CZSM,2022-10-23T08:00:00Z,60.03,-111.93,-3.2,-8.6,280,1,,,,1020.0,,TRUE,TRUE,,,,,,,,,,,,,,,,1.1,,,,,,,,,,,METAR,203.0
CZSJ 230800Z AUTO 04003KT 360V070 9SM SCT180 SCT200 M01/M01 A2995 RMK SLP159,CZSJ,2022-10-23T08:00:00Z,53.07,-93.35,-1.0,-1.0,40,3,,9.0,29.949802,1015.9,,TRUE,,,,,,,,SCT,18000,SCT,20000,,,,,VFR,,,,,,,,,,,,METAR,286.0
CZRP 230800Z AUTO 33020KT M19/M21 RMK AO1 SOG 53 3004 PK WND 33025/0732 SLP068 T11891206,CZRP,2022-10-23T08:00:00Z,75.37,-105.72,-18.9,-20.6,330,20,,,,1006.8,,TRUE,TRUE,,,,,,,,,,,,,,,,,,,,,,,,,,,METAR,6.0
CZPC 230800Z AUTO 34006KT 1 3/4SM -SN SCT004 BKN009 OVC012 M01/M01 A2977 RMK SLP124,CZPC,2022-10-23T08:00:00Z,49.52,-114.0,-1.0,-1.0,340,6,,1.75,29.769686,1012.4,,TRUE,,,,,,,-SN,SCT,400,BKN,900,OVC,1200,,,IFR,,,,,,,,,,,,METAR,1187.0
CZOL 230800Z AUTO 01001KT 01/01 RMK AO1 T00100009,CZOL,2022-10-23T08:00:00Z,53.65,-113.35,1.0,0.9,10,1,,,,,,TRUE,TRUE,,,,,,,,,,,,,,,,,,,,,,,,,,,METAR,645.0
CZMJ 230800Z AUTO 06012KT 04/02 RMK AO1 3PAST HR 0002 PK WND 07019/0705 SLP085 P0001 T00370020 50003,CZMJ,2022-10-23T08:00:00Z,50.33,-105.53,3.7,2.0,60,12,,,,1008.5,,TRUE,TRUE,,,,,,,,,,,,,,,,0.3,,,,,0.01,,,,,,METAR,571.0
CZMD 230800Z AUTO 05004KT 9SM FEW250 M01/M01 A2997 RMK SLP168,CZMD,2022-10-23T08:00:00Z,53.43,-91.77,-1.0,-1.0,50,4,,9.0,29.970472,1016.8,,TRUE,,,,,,,,FEW,25000,,,,,,,VFR,,,,,,,,,,,,METAR,276.0
CZKD 230800Z AUTO 30001KT M02/M03 RMK AO1 SLP187 T10201026 53027,CZKD,2022-10-23T08:00:00Z,56.03,-96.52,-2.0,-2.6,300,1,,,,1018.7,,TRUE,TRUE,,,,,,,,,,,,,,,,2.7,,,,,,,,,,,METAR,190.0
CZHY 230800Z AUTO 26005KT M03/M04 RMK AO1 SLP203 T10271042 51009,CZHY,2022-10-23T08:00:00Z,60.83,-115.78,-2.7,-4.2,260,5,,,,1020.3,,TRUE,TRUE,,,,,,,,,,,,,,,,0.9,,,,,,,,,,,METAR,159.0
CZFS 230800Z AUTO 10004KT M05/M06 RMK AO1 SOG 01 0000 SLP202 T10541063,CZFS,2022-10-23T08:00:00Z,61.77,-121.23,-5.4,-6.3,100,4,,,,1020.2,,TRUE,TRUE,,,,,,,,,,,,,,,,,,,,,,,,,,,METAR,174.0
CZEV 230800Z AUTO 08008KT M12/M14 RMK AO1 SOG 07 2005 SLP200 T11151139,CZEV,2022-10-23T08:00:00Z,68.32,-133.48,-11.5,-13.9,80,8,,,,1020.0,,TRUE,TRUE,,,,,,,,,,,,,,,,,,,,,,,,,,,METAR,92.0
CZEL 230800Z AUTO 11003KT 08/06 RMK AO1 SLP215 T00830063 50003,CZEL,2022-10-23T08:00:00Z,43.65,-80.42,8.3,6.3,110,3,,,,1021.5,,TRUE,TRUE,,,,,,,,,,,,,,,,0.3,,,,,,,,,,,METAR,370.0
CZDB 230800Z AUTO 05002KT 04/ RMK AO1 SLP284 T0040 53001,CZDB,2022-10-23T08:00:00Z,45.42,-63.47,4.0,,50,2,,,,1028.4,,TRUE,TRUE,,,,,,,,,,,,,,,,0.1,,,,,,,,,,,METAR,38.0
CZCR 230800Z AUTO 05001KT 08/04 RMK AO1 SLP249 T00780044 53019,CZCR,2022-10-23T08:00:00Z,47.98,-66.33,7.8,4.4,50,1,,,,1024.9,,TRUE,TRUE,,,,,,,,,,,,,,,,1.9,,,,,,,,,,,METAR,39.0
CZCP 230800Z AUTO VRB04KT ////SM //// OVC022 M07/M10 A3013,CZCP,2022-10-23T08:00:00Z,70.17,-124.68,-7.0,-10.0,0,4,,,30.129921,,,TRUE,,,,,,,,OVC,2200,,,,,,,,,,,,,,,,,,,METAR,23.0
CZBF 230800Z AUTO 24003KT 9SM CLR 03/03 A3027 RMK SLP256,CZBF,2022-10-23T08:00:00Z,47.62,-65.75,3.0,3.0,240,3,,9.0,30.268702,1025.6,,TRUE,,,,,,,,CLR,,,,,,,,VFR,,,,,,,,,,,,SPECI,60.0
CYZY 230800Z AUTO 00000KT 9SM OVC096 M03/M06 A2993 RMK SLP168,CYZY,2022-10-23T08:00:00Z,55.3,-123.13,-3.0,-6.0,0,0,,9.0,29.929134,1016.8,,TRUE,,,,,,,,OVC,9600,,,,,,,VFR,,,,,,,,,,,,SPECI,694.0
CYZX 230800Z 26002KT 10SM SCT250 03/02 A3036 RMK CI3 SLP283,CYZX,2022-10-23T08:00:00Z,44.98,-64.92,3.0,2.0,260,2,,10.0,30.360237,1028.3,,,,,,,,,,SCT,25000,,,,,,,VFR,,,,,,,,,,,,SPECI,28.0
CYZV 230800Z 01003KT 15SM FEW160 M01/M01 A3019 RMK AC1 AC TR SLP226,CYZV,2022-10-23T08:00:00Z,50.22,-66.27,-1.0,-1.0,10,3,,15.0,30.188976,1022.6,,,,,,,,,,FEW,16000,,,,,,,VFR,,,,,,,,,,,,SPECI,43.0
CYZT 230800Z 23006KT 15SM FEW035 03/03 A2996 RMK SC1 SLP148,CYZT,2022-10-23T08:00:00Z,50.68,-127.37,3.0,3.0,230,6,,15.0,29.958662,1014.8,,,,,,,,,,FEW,3500,,,,,,,VFR,,,,,,,,,,,,METAR,13.0
CYZS 230800Z 33017G22KT 15SM SCT018 OVC035 M01/M02 A2955 RMK SC3SC5 SLP014,CYZS,2022-10-23T08:00:00Z,64.2,-83.35,-1.0,-2.0,330,17,22,15.0,29.551182,1001.4,,,,,,,,,,SCT,1800,OVC,3500,,,,,VFR,,,,,,,,,,,,SPECI,60.0
CYZR 230800Z AUTO 17005KT 9SM CLR 12/09 A3010 RMK SLP194,CYZR,2022-10-23T08:00:00Z,43.0,-82.3,12.0,9.0,170,5,,9.0,30.100393,1019.4,,TRUE,,,,,,,,CLR,,,,,,,,VFR,,,,,,,,,,,,METAR,181.0
CYZP 230800Z AUTO VRB02KT 9SM OVC130 07/03 A2992 RMK SLP135,CYZP,2022-10-23T08:00:00Z,53.25,-131.82,7.0,3.0,0,2,,9.0,29.920275,1013.5,,TRUE,,,,,,,,OVC,13000,,,,,,,VFR,,,,,,,,,,,,METAR,7.0
CYZF 230800Z 36003KT 15SM SKC M08/M09 A3010 RMK SLP212,CYZF,2022-10-23T08:00:00Z,62.47,-114.45,-8.0,-9.0,360,3,,15.0,30.100393,1021.2,,,,,,,,,,SKC,,,,,,,,VFR,,,,,,,,,,,,SPECI,202.0
CYZE 230800Z AUTO 17010KT 9SM CLR 13/09 A3002 RMK SLP171,CYZE,2022-10-23T08:00:00Z,45.88,-82.57,13.0,9.0,170,10,,9.0,30.02067,1017.1,,TRUE,,,,,,,,CLR,,,,,,,,VFR,,,,,,,,,,,,METAR,189.0
CYYZ 230800Z 00000KT 15SM SKC 10/08 A3017 RMK SLP219,CYYZ,2022-10-23T08:00:00Z,43.67,-79.62,10.0,8.0,0,0,,15.0,30.171259,1021.9,,,,,,,,,,SKC,,,,,,,,VFR,,,,,,,,,,,,SPECI,171.0
CYYY 230800Z 20008KT 30SM SKC 13/04 A3021 RMK SLP233,CYYY,2022-10-23T08:00:00Z,48.6,-68.22,13.0,4.0,200,8,,30.0,30.209646,1023.3,,,,,,,,,,SKC,,,,,,,,VFR,,,,,,,,,,,,METAR,43.0
CYYW 230800Z AUTO 00000KT 9SM OVC230 04/ A2984 RMK DP MISG SLP112,CYYW,2022-10-23T08:00:00Z,50.3,-88.9,4.0,,0,0,,9.0,29.840551,1011.2,,TRUE,,,,,,,,OVC,23000,,,,,,,VFR,,,,,,,,,,,,METAR,320.0
CYYU 230800Z 12004KT 15SM FEW240 SCT260 05/05 A2996 RMK CI2CI2 SLP155,CYYU,2022-10-23T08:00:00Z,49.42,-82.47,5.0,5.0,120,4,,15.0,29.958662,1015.5,,,,,,,,,,FEW,24000,SCT,26000,,,,,VFR,,,,,,,,,,,,METAR,228.0
CYYT 230800Z 28016KT 15SM SKC 09/08 A3028 RMK SLP259,CYYT,2022-10-23T08:00:00Z,47.62,-52.73,9.0,8.0,280,16,,15.0,30.280512,1025.9,,,,,,,,,,SKC,,,,,,,,VFR,,,,,,,,,,,,SPECI,128.0
CYYR 230800Z 24012KT 15SM FEW070 FEW150 09/04 A2995 RMK AC1AC1 SLP145,CYYR,2022-10-23T08:00:00Z,53.32,-60.42,9.0,4.0,240,12,,15.0,29.949802,1014.5,,,,,,,,,,FEW,7000,FEW,15000,,,,,VFR,,,,,,,,,,,,SPECI,42.0
CYYQ 230800Z 30011KT 15SM BKN070 M02/M05 A3000 RMK AC7 SLP165,CYYQ,2022-10-23T08:00:00Z,58.75,-94.07,-2.0,-5.0,300,11,,15.0,30.0,1016.5,,,,,,,,,,BKN,7000,,,,,,,VFR,,,,,,,,,,,,SPECI,20.0
CYYL 230800Z AUTO 03004KT 9SM CLR M04/M04 A3004 RMK SLP198,CYYL,2022-10-23T08:00:00Z,56.87,-101.07,-4.0,-4.0,30,4,,9.0,30.041338,1019.8,,TRUE,,,,,,,,CLR,,,,,,,,VFR,,,,,,,,,,,,METAR,351.0
CYYJ 230800Z 27005KT 30SM SCT036 06/06 A2992 RMK SC3 SLP135,CYYJ,2022-10-23T08:00:00Z,48.63,-123.42,6.0,6.0,270,5,,30.0,29.920275,1013.5,,,,,,,,,,SCT,3600,,,,,,,VFR,,,,,,,,,,,,SPECI,16.0
CYYG 230800Z 22009KT 15SM SKC 11/08 A3030 RMK SLP264,CYYG,2022-10-23T08:00:00Z,46.28,-63.12,11.0,8.0,220,9,,15.0,30.301182,1026.4,,,,,,,,,,SKC,,,,,,,,VFR,,,,,,,,,,,,METAR,48.0
CYYF 230800Z 01007KT 15SM SCT070 04/M02 A2984 RMK AC4 SLP113,CYYF,2022-10-23T08:00:00Z,49.47,-119.6,4.0,-2.0,10,7,,15.0,29.840551,1011.3,,,,,,,,,,SCT,7000,,,,,,,VFR,,,,,,,,,,,,METAR,342.0
CYYE 230800Z 11005KT 15SM BKN026 OVC034 M02/M05 A3003 RMK SC7SC1 SLP194,CYYE,2022-10-23T08:00:00Z,58.83,-122.58,-2.0,-5.0,110,5,,15.0,30.029528,1019.4,,,,,,,,,,BKN,2600,OVC,3400,,,,,MVFR,,,,,,,,,,,,METAR,379.0
CYYC 230800Z 01010KT 2 1/2SM -SN BR BKN005 OVC020 M00/M01 A2983 RMK CF5SC3 SLP147,CYYC,2022-10-23T08:00:00Z,51.12,-114.02,0.0,-1.0,10,10,,2.5,29.828741,1014.7,,,,,,,,,-SN BR,BKN,500,OVC,2000,,,,,IFR,,,,,,,,,,,,SPECI,1085.0
CYYB 230800Z AUTO 14007KT 9SM CLR 10/07 A3012 RMK SLP206,CYYB,2022-10-23T08:00:00Z,46.35,-79.42,10.0,7.0,140,7,,9.0,30.121063,1020.6,,TRUE,,,,,,,,CLR,,,,,,,,VFR,,,,,,,,,,,,METAR,360.0
CYXY 230800Z 00000KT 15SM FEW025 OVC060 01/M00 A2973 RMK ST1SC7 SLP106,CYXY,2022-10-23T08:00:00Z,60.72,-135.07,1.0,0.0,0,0,,15.0,29.731298,1010.6,,,,,,,,,,FEW,2500,OVC,6000,,,,,VFR,,,,,,,,,,,,SPECI,677.0
CYXX 230800Z 00000KT 10SM R07/3000VP6000FT/U SCT110 03/02 A2992 RMK AC3 SLP136,CYXX,2022-10-23T08:00:00Z,49.03,-122.38,3.0,2.0,0,0,,10.0,29.920275,1013.6,,,,,,,,,,SCT,11000,,,,,,,VFR,,,,,,,,,,,,SPECI,54.0
CYXU 230800Z 11006KT 15SM SKC 09/07 A3014 RMK SLP211,CYXU,2022-10-23T08:00:00Z,43.03,-81.15,9.0,7.0,110,6,,15.0,30.138779,1021.1,,,,,,,,,,SKC,,,,,,,,VFR,,,,,,,,,,,,SPECI,278.0
CYXR 230800Z AUTO 20009KT 9SM CLR 11/09 A3005 RMK SLP181,CYXR,2022-10-23T08:00:00Z,47.7,-79.85,11.0,9.0,200,9,,9.0,30.050198,1018.1,,TRUE,,,,,,,,CLR,,,,,,,,VFR,,,,,,,,,,,,METAR,244.0
CYXL 230800Z 06006KT 030V110 15SM OVC180 07/05 A2976 RMK AC8 SLP092,CYXL,2022-10-23T08:00:00Z,50.12,-91.9,7.0,5.0,60,6,,15.0,29.760826,1009.2,,,,,,,,,,OVC,18000,,,,,,,VFR,,,,,,,,,,,,METAR,381.0
CYXJ 230800Z 33004KT 15SM FEW095 M04/M06 A2999 RMK AC1 SLP195,CYXJ,2022-10-23T08:00:00Z,56.25,-120.73,-4.0,-6.0,330,4,,15.0,29.991142,1019.5,,,,,,,,,,FEW,9500,,,,,,,VFR,,,,,,,,,,,,METAR,700.0
CYXH 230800Z AUTO 36012KT 8SM -RA BKN009 OVC015 03/03 A2971 RMK PCPN 0.5MM PAST HR SLP080,CYXH,2022-10-23T08:00:00Z,50.02,-110.72,3.0,3.0,360,12,,8.0,29.71063,1008.0,,TRUE,,,,,,,-RA,BKN,900,OVC,1500,,,,,IFR,,,,,,,,,,,,METAR,717.0
CYXE 230800Z 03010KT 15SM OVC110 02/M03 A2983 RMK AC8 SLP121,CYXE,2022-10-23T08:00:00Z,52.17,-106.7,2.0,-3.0,30,10,,15.0,29.828741,1012.1,,,,,,,,,,OVC,11000,,,,,,,VFR,,,,,,,,,,,,METAR,504.0
CYXC 230800Z 33003KT 20SM FEW015 SCT040 OVC070 02/M00 A2977 RMK ST2SC2AC4 SLP106,CYXC,2022-10-23T08:00:00Z,49.6,-115.78,2.0,0.0,330,3,,20.0,29.769686,1010.6,,,,,,,,,,FEW,1500,SCT,4000,OVC,7000,,,VFR,,,,,,,,,,,,METAR,928.0
CYWL 230800Z 28003KT 220V320 1/2SM FZFG VV003 M01/M01 A2988 RMK FG8 SLP155,CYWL,2022-10-23T08:00:00Z,52.18,-122.07,-1.0,-1.0,280,3,,0.5,29.878937,1015.5,,,,,,,,,FZFG,OVX,0,,,,,,,LIFR,,,,,,,,,,,300,METAR,942.0
CYWK 230800Z AUTO 26003KT 220V290 9SM FEW018 SCT038 BKN055 05/03 A3005 RMK SLP199,CYWK,2022-10-23T08:00:00Z,52.92,-66.87,5.0,3.0,260,3,,9.0,30.050198,1019.9,,TRUE,,,,,,,,FEW,1800,SCT,3800,BKN,5500,,,VFR,,,,,,,,,,,,SPECI,547.0
CYWG 230800Z 04015KT 15SM OVC150 08/06 A2969 RMK AC8 SLP065,CYWG,2022-10-23T08:00:00Z,49.9,-97.23,8.0,6.0,40,15,,15.0,29.68996,1006.5,,,,,,,,,,OVC,15000,,,,,,,VFR,,,,,,,,,,,,SPECI,238.0
CYWE 230800Z AUTO 31005KT 9SM OVC025 M07/M11 A3004 RMK ICE MISG SLP207,CYWE,2022-10-23T08:00:00Z,64.18,-114.08,-7.0,-11.0,310,5,,9.0,30.041338,1020.7,,TRUE,,,,,,,,OVC,2500,,,,,,,MVFR,,,,,,,,,,,,METAR,374.0
CYVV 230800Z 18010KT 15SM SKC 15/09 A3009 RMK SLP190,CYVV,2022-10-23T08:00:00Z,44.75,-81.1,15.0,9.0,180,10,,15.0,30.088583,1019.0,,,,,,,,,,SKC,,,,,,,,VFR,,,,,,,,,,,,METAR,221.0
CYVT 230800Z AUTO 10005KT 9SM SCT055 OVC082 01/M01 A2998 RMK SLP177,CYVT,2022-10-23T08:00:00Z,55.83,-108.42,1.0,-1.0,100,5,,9.0,29.97933,1017.7,,TRUE,,,,,,,,SCT,5500,OVC,8200,,,,,VFR,,,,,,,,,,,,METAR,438.0
CYVR 230800Z 08004KT 12SM MIFG FEW040 06/06 A2992 RMK SC1 SLP134,CYVR,2022-10-23T08:00:00Z,49.17,-123.17,6.0,6.0,80,4,,12.0,29.920275,1013.4,,,,,,,,,MIFG,FEW,4000,,,,,,,VFR,,,,,,,,,,,,SPECI,2.0
CYVQ 230800Z 08003KT 15SM -SN FEW015 BKN035 OVC075 M05/M07 A3005 RMK SC1SC4AC3 SLP184,CYVQ,2022-10-23T08:00:00Z,65.27,-126.78,-5.0,-7.0,80,3,,15.0,30.050198,1018.4,,,,,,,,,-SN,FEW,1500,BKN,3500,OVC,7500,,,VFR,,,,,,,,,,,,METAR,63.0
CYVP 230800Z 27012G20KT 15SM FEW017 SCT032 BKN049 BKN120 02/M02 A2979 RMK CU2SC2SC1AC2 INTMT -RA SLP093,CYVP,2022-10-23T08:00:00Z,58.12,-68.42,2.0,-2.0,270,12,20,15.0,29.790354,1009.3,,,,,,,,,,FEW,1700,SCT,3200,BKN,4900,BKN,12000,VFR,,,,,,,,,,,,SPECI,28.0
CYVO 230800Z AUTO 18006KT 9SM CLR 09/07 A3009 RMK SLP201,CYVO,2022-10-23T08:00:00Z,48.07,-77.77,9.0,7.0,180,6,,9.0,30.088583,1020.1,,TRUE,,,,,,,,CLR,,,,,,,,VFR,,,,,,,,,,,,METAR,329.0
CYVL 230800Z AUTO VRB02KT 8SM -SN OVC031 M08/M09 A3004 RMK SLP200,CYVL,2022-10-23T08:00:00Z,67.02,-126.13,-8.0,-9.0,0,2,,8.0,30.041338,1020.0,,TRUE,,,,,,,-SN,OVC,3100,,,,,,,VFR,,,,,,,,,,,,METAR,261.0
CYVC 230800Z 03005KT 15SM SKC M02/M03 A2999 RMK SLP177,CYVC,2022-10-23T08:00:00Z,55.15,-105.27,-2.0,-3.0,30,5,,15.0,29.991142,1017.7,,,,,,,,,,SKC,,,,,,,,VFR,,,,,,,,,,,,METAR,378.0
CYUY 230800Z 18004KT 15SM FEW240 10/07 A3005 RMK CI2 SLP185,CYUY,2022-10-23T08:00:00Z,48.2,-78.82,10.0,7.0,180,4,,15.0,30.050198,1018.5,,,,,,,,,,FEW,24000,,,,,,,VFR,,,,,,,,,,,,SPECI,304.0
CYUX 230800Z AUTO 31014KT 9SM BKN110 M06/M06 A2945 RMK SLP976,CYUX,2022-10-23T08:00:00Z,68.77,-81.22,-6.0,-6.0,310,14,,9.0,29.450787,997.6,,TRUE,,,,,,,,BKN,11000,,,,,,,VFR,,,,,,,,,,,,METAR,8.0
CYUS 230800Z AUTO 27010G20KT 240V310 ////SM //// BKN017 OVC022 M11/M13 A2968,CYUS,2022-10-23T08:00:00Z,68.78,-93.42,-11.0,-13.0,270,10,20,,29.681103,,,TRUE,,,,,,,,BKN,1700,OVC,2200,,,,,,,,,,,,,,,,,METAR,30.0
CYUL 230800Z 12002KT 15SM SKC 07/04 A3026 RMK SLP249,CYUL,2022-10-23T08:00:00Z,45.47,-73.73,7.0,4.0,120,2,,15.0,30.259842,1024.9,,,,,,,,,,SKC,,,,,,,,VFR,,,,,,,,,,,,SPECI,31.0
CYUA 230800Z AUTO 10009KT ////SM BKN007 OVC039 M08/M09 A3003,CYUA,2022-10-23T08:00:00Z,68.92,-137.23,-8.0,-9.0,100,9,,,30.029528,,,TRUE,,,,,,,,BKN,700,OVC,3900,,,,,,,,,,,,,,,,,METAR,25.0
CYTZ 230800Z AUTO 05010KT 9SM CLR 09/06 A3017 RMK SLP218,CYTZ,2022-10-23T08:00:00Z,43.63,-79.4,9.0,6.0,50,10,,9.0,30.171259,1021.8,,TRUE,,,,,,,,CLR,,,,,,,,VFR,,,,,,,,,,,,METAR,76.0
CYTS 230800Z 16003KT 15SM FEW240 07/06 A3000 RMK CI2 SLP169,CYTS,2022-10-23T08:00:00Z,48.57,-81.37,7.0,6.0,160,3,,15.0,30.0,1016.9,,,,,,,,,,FEW,24000,,,,,,,VFR,,,,,,,,,,,,METAR,290.0
CYTR 230800Z 04004KT 15SM SKC 03/03 A3021 RMK DENSITY ALT -1334FT SLP232,CYTR,2022-10-23T08:00:00Z,44.12,-77.52,3.0,3.0,40,4,,15.0,30.209646,1023.2,,,,,,,,,,SKC,,,,,,,,VFR,,,,,,,,,,,,SPECI,80.0
CYTL 230800Z AUTO VRB02KT 9SM CLR M03/M03 A3001 RMK SLP177,CYTL,2022-10-23T08:00:00Z,53.82,-89.88,-3.0,-3.0,0,2,,9.0,30.008858,1017.7,,TRUE,,,,,,,,CLR,,,,,,,,VFR,,,,,,,,,,,,SPECI,218.0
CYTH 230800Z 35005KT 15SM BKN054 M00/M02 A3003 RMK SC7 PRESRR SLP185,CYTH,2022-10-23T08:00:00Z,55.8,-97.83,0.0,-2.0,350,5,,15.0,30.029528,1018.5,,,,,,,,,,BKN,5400,,,,,,,VFR,,,,,,,,,,,,METAR,212.0
CYSM 230800Z 00000KT 15SM BKN033 M03/M07 A3008 RMK SC7 SLP203,CYSM,2022-10-23T08:00:00Z,60.03,-111.92,-3.0,-7.0,0,0,,15.0,30.079725,1020.3,,,,,,,,,,BKN,3300,,,,,,,VFR,,,,,,,,,,,,METAR,203.0
CYSJ 230800Z 00000KT 3/4SM R05/0900V1600FT/D BR MIFG BKN003 04/04 A3034 RMK FG4SF3 SLP278,CYSJ,2022-10-23T08:00:00Z,45.32,-65.88,4.0,4.0,0,0,,0.75,30.339567,1027.8,,,,,,,,,MIFG BR,BKN,300,,,,,,,LIFR,,,,,,,,,,,,SPECI,89.0
CYSF 230800Z AUTO 14002KT 9SM SCT150 M11/M12 A3008 RMK SLP209,CYSF,2022-10-23T08:00:00Z,59.25,-105.83,-11.0,-12.0,140,2,,9.0,30.079725,1020.9,,TRUE,,,,,,,,SCT,15000,,,,,,,VFR,,,,,,,,,,,,METAR,238.0
CYSC 230800Z AUTO 08003KT 020V090 9SM CLR 04/02 A3030 RMK SLP267,CYSC,2022-10-23T08:00:00Z,45.43,-71.68,4.0,2.0,80,3,,9.0,30.301182,1026.7,,TRUE,,,,,,,,CLR,,,,,,,,VFR,,,,,,,,,,,,METAR,236.0
CYSB 230800Z 19011KT 15SM SKC 12/09 A3008 RMK SLP191,CYSB,2022-10-23T08:00:00Z,46.63,-80.8,12.0,9.0,190,11,,15.0,30.079725,1019.1,,,,,,,,,,SKC,,,,,,,,VFR,,,,,,,,,,,,METAR,349.0
CYRV 230800Z AUTO 03002KT 9SM OVC071 05/02 A2982 RMK SLP111,CYRV,2022-10-23T08:00:00Z,50.97,-118.17,5.0,2.0,30,2,,9.0,29.819881,1011.1,,TRUE,,,,,,,,OVC,7100,,,,,,,VFR,,,,,,,,,,,,METAR,456.0
CYRT 230800Z 34019KT 15SM FEW011 BKN110 M07/M09 A2989 RMK SC1AC6 SLP128,CYRT,2022-10-23T08:00:00Z,62.82,-92.12,-7.0,-9.0,340,19,,15.0,29.890747,1012.8,,,,,,,,,,FEW,1100,BKN,11000,,,,,VFR,,,,,,,,,,,,METAR,29.0
CYRQ 230800Z AUTO 01002KT 9SM CLR 02/02 A3026 RMK SLP250,CYRQ,2022-10-23T08:00:00Z,46.35,-72.68,2.0,2.0,10,2,,9.0,30.259842,1025.0,,TRUE,,,,,,,,CLR,,,,,,,,VFR,,,,,,,,,,,,METAR,58.0
CYRJ 230800Z 22012G18KT 25SM SKC 12/05 A3017 RMK SLP220,CYRJ,2022-10-23T08:00:00Z,48.52,-72.27,12.0,5.0,220,12,18,25.0,30.171259,1022.0,,,,,,,,,,SKC,,,,,,,,VFR,,,,,,,,,,,,METAR,173.0
CYRB 230800Z 03018KT 15SM FEW100 M21/M24 A2955 RMK AS1 SLP020,CYRB,2022-10-23T08:00:00Z,74.72,-94.97,-21.0,-24.0,30,18,,15.0,29.551182,1002.0,,,,,,,,,,FEW,10000,,,,,,,VFR,,,,,,,,,,,,SPECI,59.0
CYQZ 230800Z AUTO VRB02KT 3/8SM FZFG VV003 M00/M00 A2993 RMK SLP163,CYQZ,2022-10-23T08:00:00Z,53.02,-122.52,0.0,0.0,0,2,,0.38,29.929134,1016.3,,TRUE,,,,,,,FZFG,OVX,0,,,,,,,LIFR,,,,,,,,,,,300,METAR,548.0
CYQX 230800Z 22014G20KT 20SM FEW220 08/06 A3020 RMK CC1 SLP233,CYQX,2022-10-23T08:00:00Z,48.95,-54.58,8.0,6.0,220,14,20,20.0,30.200787,1023.3,,,,,,,,,,FEW,22000,,,,,,,VFR,,,,,,,,,,,,SPECI,144.0
CYQW 230800Z AUTO 05004KT 9SM BKN043 OVC071 02/M02 A2989 RMK SLP143,CYQW,2022-10-23T08:00:00Z,52.77,-108.25,2.0,-2.0,50,4,,9.0,29.890747,1014.3,,TRUE,,,,,,,,BKN,4300,OVC,7100,,,,,VFR,,,,,,,,,,,,METAR,545.0
CYQV 230800Z AUTO 05008KT 9SM OVC046 04/M02 A2982 RMK SLP117,CYQV,2022-10-23T08:00:00Z,51.27,-102.47,4.0,-2.0,50,8,,9.0,29.819881,1011.7,,TRUE,,,,,,,,OVC,4600,,,,,,,VFR,,,,,,,,,,,,METAR,493.0
CYQU 230800Z 30010KT 25SM OVC020 M00/M04 A2998 RMK ST8 SLP183,CYQU,2022-10-23T08:00:00Z,55.18,-118.88,0.0,-4.0,300,10,,25.0,29.97933,1018.3,,,,,,,,,,OVC,2000,,,,,,,MVFR,,,,,,,,,,,,METAR,668.0
CYQT 230800Z 08010KT 15SM SKC 08/07 A2977 RMK SLP088,CYQT,2022-10-23T08:00:00Z,48.37,-89.32,8.0,7.0,80,10,,15.0,29.769686,1008.8,,,,,,,,,,SKC,,,,,,,,VFR,,,,,,,,,,,,METAR,197.0
CYQR 230800Z 07015G23KT 15SM -RA SCT014 OVC049 03/01 A2971 RMK SC3SC5 SLP079,CYQR,2022-10-23T08:00:00Z,50.43,-104.67,3.0,1.0,70,15,23,15.0,29.71063,1007.9,,,,,,,,,-RA,SCT,1400,OVC,4900,,,,,VFR,,,,,,,,,,,,METAR,576.0
CYQQ 230800Z 32009KT 20SM FEW030 08/M00 A2993 RMK SC1 SLP137,CYQQ,2022-10-23T08:00:00Z,49.72,-124.9,8.0,0.0,320,9,,20.0,29.929134,1013.7,,,,,,,,,,FEW,3000,,,,,,,VFR,,,,,,,,,,,,SPECI,24.0
CYQM 230800Z 22009KT 15SM FEW220 07/05 A3031 RMK CI1 SLP266,CYQM,2022-10-23T08:00:00Z,46.12,-64.67,7.0,5.0,220,9,,15.0,30.31004,1026.6,,,,,,,,,,FEW,22000,,,,,,,VFR,,,,,,,,,,,,SPECI,67.0
CYQK 230800Z 06012KT 20SM OVC150 08/05 A2967 RMK AC8 SLP059,CYQK,2022-10-23T08:00:00Z,49.78,-94.37,8.0,5.0,60,12,,20.0,29.66929,1005.9,,,,,,,,,,OVC,15000,,,,,,,VFR,,,,,,,,,,,,METAR,413.0
CYQI 230800Z 04003KT 010V130 1/8SM FG SKC 07/07 A3036 RMK FG6 SLP283,CYQI,2022-10-23T08:00:00Z,43.83,-66.08,7.0,7.0,40,3,,0.13,30.360237,1028.3,,,,,,,,,FG,SKC,,,,,,,,LIFR,,,,,,,,,,,,METAR,37.0
CYQH 230800Z 12011G17KT 10SM -SN OVC070 M01/M04 A2985 RMK AC8 SLP143,CYQH,2022-10-23T08:00:00Z,60.12,-128.82,-1.0,-4.0,120,11,17,10.0,29.84941,1014.3,,,,,,,,,-SN,OVC,7000,,,,,,,VFR,,,,,,,,,,,,METAR,692.0
CYQG 230800Z AUTO 19005KT 9SM CLR 13/09 A3010 RMK SLP194,CYQG,2022-10-23T08:00:00Z,42.27,-82.97,13.0,9.0,190,5,,9.0,30.100393,1019.4,,TRUE,,,,,,,,CLR,,,,,,,,VFR,,,,,,,,,,,,SPECI,189.0
CYQD 230800Z AUTO 00000KT 9SM BKN190 BKN210 BKN230 M04/M06 A2998 RMK SLP169,CYQD,2022-10-23T08:00:00Z,53.97,-101.08,-4.0,-6.0,0,0,,9.0,29.97933,1016.9,,TRUE,,,,,,,,BKN,19000,BKN,21000,BKN,23000,,,VFR,,,,,,,,,,,,METAR,268.0
CYQB 230800Z 00000KT 15SM SKC 03/02 A3028 RMK SLP256,CYQB,2022-10-23T08:00:00Z,46.78,-71.38,3.0,2.0,0,0,,15.0,30.280512,1025.6,,,,,,,,,,SKC,,,,,,,,VFR,,,,,,,,,,,,SPECI,73.0
CYQA 230800Z AUTO 15006KT 9SM CLR 08/06 A3016 RMK SLP218,CYQA,2022-10-23T08:00:00Z,44.97,-79.3,8.0,6.0,150,6,,9.0,30.159449,1021.8,,TRUE,,,,,,,,CLR,,,,,,,,VFR,,,,,,,,,,,,METAR,277.0
CYPR 230800Z AUTO 08005KT 9SM BKN180 03/03 A2992 RMK SLP137,CYPR,2022-10-23T08:00:00Z,54.28,-130.45,3.0,3.0,80,5,,9.0,29.920275,1013.7,,TRUE,,,,,,,,BKN,18000,,,,,,,VFR,,,,,,,,,,,,METAR,30.0
CYPQ 230800Z AUTO 00000KT 9SM CLR 02/02 A3020 RMK SLP231,CYPQ,2022-10-23T08:00:00Z,44.22,-78.37,2.0,2.0,0,0,,9.0,30.200787,1023.1,,TRUE,,,,,,,,CLR,,,,,,,,VFR,,,,,,,,,,,,METAR,190.0
CYPO 230800Z AUTO 23003KT 9SM CLR M02/M03 A3006 RMK SLP183,CYPO,2022-10-23T08:00:00Z,54.98,-85.43,-2.0,-3.0,230,3,,9.0,30.059055,1018.3,,TRUE,,,,,,,,CLR,,,,,,,,VFR,,,,,,,,,,,,METAR,49.0
CYPE 230800Z 02003KT 330V040 15SM BKN014 OVC055 M01/M03 A2998 RMK SC7SC1 SLP181,CYPE,2022-10-23T08:00:00Z,56.22,-117.45,-1.0,-3.0,20,3,,15.0,29.97933,1018.1,,,,,,,,,,BKN,1400,OVC,5500,,,,,MVFR,,,,,,,,,,,,METAR,572.0
CYPD 230800Z AUTO 20004KT 9SM CLR 11/10 A3034 RMK SLP278,CYPD,2022-10-23T08:00:00Z,45.67,-61.37,11.0,10.0,200,4,,9.0,30.339567,1027.8,,TRUE,,,,,,,,CLR,,,,,,,,VFR,,,,,,,,,,,,METAR,106.0
CYPA 230800Z 07009KT 15SM OVC180 00/M04 A2993 RMK AC8 SLP156,CYPA,2022-10-23T08:00:00Z,53.22,-105.67,0.0,-4.0,70,9,,15.0,29.929134,1015.6,,,,,,,,,,OVC,18000,,,,,,,VFR,,,,,,,,,,,,METAR,428.0
CYOW 230800Z 14003KT 15SM SKC 08/03 A3024 RMK SLP243,CYOW,2022-10-23T08:00:00Z,45.32,-75.67,8.0,3.0,140,3,,15.0,30.239174,1024.3,,,,,,,,,,SKC,,,,,,,,VFR,,,,,,,,,,,,SPECI,111.0
CYOO 230800Z AUTO 03003KT 9SM CLR 06/04 A3018 RMK SLP223,CYOO,2022-10-23T08:00:00Z,43.92,-78.9,6.0,4.0,30,3,,9.0,30.180119,1022.3,,TRUE,,,,,,,,CLR,,,,,,,,VFR,,,,,,,,,,,,METAR,136.0
CYOD 230800Z 00000KT 15SM FEW070 M01/M01 A2994 RMK AC1 DENSITY ALT 160FT SLP164,CYOD,2022-10-23T08:00:00Z,54.4,-110.28,-1.0,-1.0,0,0,,15.0,29.940945,1016.4,,,,,,,,,,FEW,7000,,,,,,,VFR,,,,,,,,,,,,METAR,540.0
CYNM 230800Z AUTO 14004KT 9SM CLR 02/02 A3005 RMK SLP188,CYNM,2022-10-23T08:00:00Z,49.77,-77.78,2.0,2.0,140,4,,9.0,30.050198,1018.8,,TRUE,,,,,,,,CLR,,,,,,,,VFR,,,,,,,,,,,,METAR,276.0
CYNE 230800Z AUTO 01003KT 9SM CLR M04/M04 A3001 RMK SLP178,CYNE,2022-10-23T08:00:00Z,53.97,-97.83,-4.0,-4.0,10,3,,9.0,30.008858,1017.8,,TRUE,,,,,,,,CLR,,,,,,,,VFR,,,,,,,,,,,,METAR,220.0
CYNA 230800Z AUTO 29004KT 9SM CLR 05/04 A3014 RMK ICE MISG SLP209,CYNA,2022-10-23T08:00:00Z,50.18,-61.78,5.0,4.0,290,4,,9.0,30.138779,1020.9,,TRUE,,,,,,,,CLR,,,,,,,,VFR,,,,,,,,,,,,METAR,9.0
CYMX 230800Z 34002KT 25SM SKC 05/04 A3026 RMK SLP251,CYMX,2022-10-23T08:00:00Z,45.67,-74.03,5.0,4.0,340,2,,25.0,30.259842,1025.1,,,,,,,,,,SKC,,,,,,,,VFR,,,,,,,,,,,,SPECI,78.0
CYMT 230800Z AUTO 14003KT 9SM BKN110 BKN200 06/05 A3011 RMK SLP209,CYMT,2022-10-23T08:00:00Z,49.77,-74.52,6.0,5.0,140,3,,9.0,30.109253,1020.9,,TRUE,,,,,,,,BKN,11000,BKN,20000,,,,,VFR,,,,,,,,,,,,METAR,388.0
CYMO 230800Z AUTO 05003KT 9SM OVC140 08/06 A3004 RMK SLP175,CYMO,2022-10-23T08:00:00Z,51.28,-80.62,8.0,6.0,50,3,,9.0,30.041338,1017.5,,TRUE,,,,,,,,OVC,14000,,,,,,,VFR,,,,,,,,,,,,METAR,8.0
CYMM 230800Z AUTO 10003KT 9SM OVC008 01/M00 A2998 RMK SLP174,CYMM,2022-10-23T08:00:00Z,56.65,-111.22,1.0,0.0,100,3,,9.0,29.97933,1017.4,,TRUE,,,,,,,,OVC,800,,,,,,,IFR,,,,,,,,,,,,METAR,371.0
CYMH 230800Z AUTO 24006KT 9SM OVC140 08/05 A2997 RMK SLP152,CYMH,2022-10-23T08:00:00Z,52.3,-55.82,8.0,5.0,240,6,,9.0,29.970472,1015.2,,TRUE,,,,,,,,OVC,14000,,,,,,,VFR,,,,,,,,,,,,SPECI,18.0
CYMA 230800Z 01003KT 10SM -SN OVC067 M02/M04 A2982 RMK AC8 SLP131,CYMA,2022-10-23T08:00:00Z,63.62,-135.87,-2.0,-4.0,10,3,,10.0,29.819881,1013.1,,,,,,,,,-SN,OVC,6700,,,,,,,VFR,,,,,,,,,,,,METAR,519.0
CYLW 230800Z AUTO 04002KT 9SM 00/M00 A2984 RMK CLD MISG SLP119,CYLW,2022-10-23T08:00:00Z,49.95,-119.37,0.0,0.0,40,2,,9.0,29.840551,1011.9,,TRUE,,,,,,,,,,,,,,,,,,,,,,,,,,,,METAR,420.0
CYLL 230800Z AUTO 06004KT 1/4SM +SN VV002 M01/M01 A2989 RMK ICE SLP152,CYLL,2022-10-23T08:00:00Z,53.32,-110.07,-1.0,-1.0,60,4,,0.25,29.890747,1015.2,,TRUE,,,,,,,+SN,OVX,0,,,,,,,LIFR,,,,,,,,,,,200,METAR,664.0
CYLH 230800Z AUTO 07004KT 9SM -RA BKN060 OVC091 03/03 A2997 RMK SLP164,CYLH,2022-10-23T08:00:00Z,52.2,-87.93,3.0,3.0,70,4,,9.0,29.970472,1016.4,,TRUE,,,,,,,-RA,BKN,6000,OVC,9100,,,,,VFR,,,,,,,,,,,,METAR,245.0
CYKY 230800Z 04012KT 15SM FEW040 OVC100 02/M02 A2976 RMK SC2AC6 SLP099,CYKY,2022-10-23T08:00:00Z,51.52,-109.17,2.0,-2.0,40,12,,15.0,29.760826,1009.9,,,,,,,,,,FEW,4000,OVC,10000,,,,,VFR,,,,,,,,,,,,METAR,692.0
CYKJ 230800Z AUTO 10005KT 9SM OVC027 M02/M04 A3001 RMK SLP194,CYKJ,2022-10-23T08:00:00Z,57.25,-105.62,-2.0,-4.0,100,5,,9.0,30.008858,1019.4,,TRUE,,,,,,,,OVC,2700,,,,,,,MVFR,,,,,,,,,,,,METAR,519.0
CYKF 230800Z AUTO 11004KT 100V220 9SM CLR 06/05 A3016 RMK SLP216,CYKF,2022-10-23T08:00:00Z,43.47,-80.38,6.0,5.0,110,4,,9.0,30.159449,1021.6,,TRUE,,,,,,,,CLR,,,,,,,,VFR,,,,,,,,,,,,METAR,312.0
CYKA 230800Z 29007KT 40SM FEW070 05/M02 A2989 RMK AC2 SLP132,CYKA,2022-10-23T08:00:00Z,50.7,-120.45,5.0,-2.0,290,7,,40.0,29.890747,1013.2,,,,,,,,,,FEW,7000,,,,,,,VFR,,,,,,,,,,,,METAR,344.0
CYJT 230800Z 19009KT 15SM SKC 11/08 A3024 RMK SLP243,CYJT,2022-10-23T08:00:00Z,48.55,-58.57,11.0,8.0,190,9,,15.0,30.239174,1024.3,,,,,,,,,,SKC,,,,,,,,VFR,,,,,,,,,,,,SPECI,7.0
CYIV 230800Z AUTO 04004KT 9SM CLR 02/M00 A2998 RMK SLP166,CYIV,2022-10-23T08:00:00Z,53.85,-94.65,2.0,0.0,40,4,,9.0,29.97933,1016.6,,TRUE,,,,,,,,CLR,,,,,,,,VFR,,,,,,,,,,,,METAR,234.0
CYIO 230800Z AUTO 16005KT 9SM -SN FEW050 SCT071 BKN092 BKN110 M10/M11 A2944 RMK SLP979,CYIO,2022-10-23T08:00:00Z,72.68,-77.97,-10.0,-11.0,160,5,,9.0,29.438976,997.9,,TRUE,,,,,,,-SN,FEW,5000,SCT,7100,BKN,9200,BKN,11000,VFR,,,,,,,,,,,,METAR,61.0
CYIN 230800Z AUTO 28004KT 9SM CLR M03/M05 A2987 RMK SLP145,CYIN,2022-10-23T08:00:00Z,51.27,-121.68,-3.0,-5.0,280,4,,9.0,29.870079,1014.5,,TRUE,,,,,,,,CLR,,,,,,,,VFR,,,,,,,,,,,,METAR,1127.0
CYHZ 230800Z 21006KT 8SM SCT260 08/08 A3034 RMK CI4 SLP280,CYHZ,2022-10-23T08:00:00Z,44.87,-63.5,8.0,8.0,210,6,,8.0,30.339567,1028.0,,,,,,,,,,SCT,26000,,,,,,,VFR,,,,,,,,,,,,SPECI,136.0
CYHY 230800Z 25005KT 5SM -SN BKN033 OVC042 M03/M04 A3010 RMK SC7SC1 SLP207,CYHY,2022-10-23T08:00:00Z,60.83,-115.77,-3.0,-4.0,250,5,,5.0,30.100393,1020.7,,,,,,,,,-SN,BKN,3300,OVC,4200,,,,,MVFR,,,,,,,,,,,,METAR,159.0
CYHU 230800Z AUTO 00000KT 9SM CLR 08/04 A3026 RMK SLP250,CYHU,2022-10-23T08:00:00Z,45.52,-73.42,8.0,4.0,0,0,,9.0,30.259842,1025.0,,TRUE,,,,,,,,CLR,,,,,,,,VFR,,,,,,,,,,,,METAR,26.0
CYHM 230800Z 14007KT 15SM SKC 11/07 A3017 RMK SLP219,CYHM,2022-10-23T08:00:00Z,43.17,-79.93,11.0,7.0,140,7,,15.0,30.171259,1021.9,,,,,,,,,,SKC,,,,,,,,VFR,,,,,,,,,,,,METAR,237.0
CYHE 230800Z AUTO 09003KT 9SM BKN034 05/05 A2993 RMK SLP140,CYHE,2022-10-23T08:00:00Z,49.37,-121.5,5.0,5.0,90,3,,9.0,29.929134,1014.0,,TRUE,,,,,,,,BKN,3400,,,,,,,VFR,,,,,,,,,,,,METAR,43.0
CYHD 230800Z AUTO 06011G16KT 9SM CLR 07/05 A2971 RMK SLP075,CYHD,2022-10-23T08:00:00Z,49.82,-92.75,7.0,5.0,60,11,16,9.0,29.71063,1007.5,,TRUE,,,,,,,,CLR,,,,,,,,VFR,,,,,,,,,,,,METAR,414.0
CYGX 230800Z 01009KT 15SM SKC M01/M02 A3004 RMK SLP184,CYGX,2022-10-23T08:00:00Z,56.35,-94.7,-1.0,-2.0,10,9,,15.0,30.041338,1018.4,,,,,,,,,,SKC,,,,,,,,VFR,,,,,,,,,,,,METAR,145.0
CYGW 230800Z AUTO 26007KT 9SM BKN026 OVC032 04/01 A3008 RMK SLP188,CYGW,2022-10-23T08:00:00Z,55.27,-77.77,4.0,1.0,260,7,,9.0,30.079725,1018.8,,TRUE,,,,,,,,BKN,2600,OVC,3200,,,,,MVFR,,,,,,,,,,,,METAR,13.0
CYGV 230800Z AUTO 33003KT 9SM CLR 00/M00 A3016 RMK SLP216,CYGV,2022-10-23T08:00:00Z,50.28,-63.62,0.0,0.0,330,3,,9.0,30.159449,1021.6,,TRUE,,,,,,,,CLR,,,,,,,,VFR,,,,,,,,,,,,METAR,32.0
CYGL 230800Z 00000KT 15SM BKN024 00/M00 A3009 RMK SC5 SLP204,CYGL,2022-10-23T08:00:00Z,53.62,-77.7,0.0,0.0,0,0,,15.0,30.088583,1020.4,,,,,,,,,,BKN,2400,,,,,,,MVFR,,,,,,,,,,,,SPECI,192.0
CYFS 230800Z 11005KT 070V150 15SM BKN005 BKN015 M05/M06 A3008 RMK SC7SC1 SC TR CIG RAG SLP204,CYFS,2022-10-23T08:00:00Z,61.75,-121.22,-5.0,-6.0,110,5,,15.0,30.079725,1020.4,,,,,,,,,,BKN,500,BKN,1500,,,,,IFR,,,,,,,,,,,,METAR,174.0
CYFB 230800Z 30015KT 15SM OVC022 M00/M02 A2933 RMK SC8 INTMT -SN SLP938,CYFB,2022-10-23T08:00:00Z,63.75,-68.55,0.0,-2.0,300,15,,15.0,29.329725,993.8,,,,,,,,,,OVC,2200,,,,,,,MVFR,,,,,,,,,,,,SPECI,23.0
CYEV 230800Z 08008KT 15SM FEW051 M12/M14 A3009 RMK SC2 SLP199,CYEV,2022-10-23T08:00:00Z,68.32,-133.5,-12.0,-14.0,80,8,,15.0,30.088583,1019.9,,,,,,,,,,FEW,5100,,,,,,,VFR,,,,,,,,,,,,METAR,74.0
CYET 230800Z AUTO 00000KT 3/8SM FZFG VV002 M01/ A2990 RMK DP MISG SLP162,CYET,2022-10-23T08:00:00Z,53.57,-116.47,-1.0,,0,0,,0.38,29.899607,1016.2,,TRUE,,,,,,,FZFG,OVX,0,,,,,,,LIFR,,,,,,,,,,,200,METAR,925.0
CYER 230800Z AUTO 22005KT 9SM BKN029 BKN250 M04/M04 A3003 RMK SLP173,CYER,2022-10-23T08:00:00Z,56.02,-87.68,-4.0,-4.0,220,5,,9.0,30.029528,1017.3,,TRUE,,,,,,,,BKN,2900,BKN,25000,,,,,MVFR,,,,,,,,,,,,METAR,11.0
CYEN 230800Z AUTO 07017G27KT 9SM OVC012 05/03 A2964 RMK SLP056,CYEN,2022-10-23T08:00:00Z,49.22,-102.97,5.0,3.0,70,17,27,9.0,29.639763,1005.6,,TRUE,,,,,,,,OVC,1200,,,,,,,MVFR,,,,,,,,,,,,METAR,580.0
CYEK 230800Z AUTO /////KT RMK WIND MISG CLD MISG WX MISG VIS MISG PCPN MISG PRES MISG T MISG DP MISG ICE MISG DENSITY ALT MISG,CYEK,2022-10-23T08:00:00Z,61.1,-94.07,,,,,,,,,,TRUE,,,,,,,,,,,,,,,,,,,,,,,,,,,,METAR,7.0
CYEG 230800Z 03005KT 20SM BKN022 OVC051 02/01 A2989 RMK SC5SC3 SLP152,CYEG,2022-10-23T08:00:00Z,53.3,-113.58,2.0,1.0,30,5,,20.0,29.890747,1015.2,,,,,,,,,,BKN,2200,OVC,5100,,,,,MVFR,,,,,,,,,,,,SPECI,710.0
CYDQ 230800Z AUTO 27004KT 9SM CLR M04/M06 A3000 RMK SLP196,CYDQ,2022-10-23T08:00:00Z,55.75,-120.18,-4.0,-6.0,270,4,,9.0,30.0,1019.6,,TRUE,,,,,,,,CLR,,,,,,,,VFR,,,,,,,,,,,,SPECI,658.0
CYDP 230800Z 27007KT 15SM FEW060 SCT230 07/02 A2976 RMK SC2CS2 SLP079,CYDP,2022-10-23T08:00:00Z,56.53,-61.68,7.0,2.0,270,7,,15.0,29.760826,1007.9,,,,,,,,,,FEW,6000,SCT,23000,,,,,VFR,,,,,,,,,,,,METAR,14.0
CYDN 230800Z AUTO 04009KT 9SM OVC076 04/M01 A2985 RMK SLP121,CYDN,2022-10-23T08:00:00Z,51.1,-100.05,4.0,-1.0,40,9,,9.0,29.84941,1012.1,,TRUE,,,,,,,,OVC,7600,,,,,,,VFR,,,,,,,,,,,,METAR,302.0
CYDL 230800Z AUTO 00000KT 9SM OVC060 M01/M01 A2980 RMK SLP119,CYDL,2022-10-23T08:00:00Z,58.42,-130.02,-1.0,-1.0,0,0,,9.0,29.799213,1011.9,,TRUE,,,,,,,,OVC,6000,,,,,,,VFR,,,,,,,,,,,,METAR,804.0
CYDF 230800Z VRB02KT 15SM SKC 01/01 A3018 RMK SLP224,CYDF,2022-10-23T08:00:00Z,49.22,-57.4,1.0,1.0,0,2,,15.0,30.180119,1022.4,,,,,,,,,,SKC,,,,,,,,VFR,,,,,,,,,,,,METAR,15.0
CYCY 230800Z AUTO 31012KT 9SM OVC018 M05/M06 A2944 RMK SLP976,CYCY,2022-10-23T08:00:00Z,70.48,-68.52,-5.0,-6.0,310,12,,9.0,29.438976,997.6,,TRUE,,,,,,,,OVC,1800,,,,,,,MVFR,,,,,,,,,,,,METAR,73.0
CYCO 230800Z 26015KT 15SM -SN OVC039 M09/M12 A3010 RMK SC8 SLP199,CYCO,2022-10-23T08:00:00Z,67.82,-115.15,-9.0,-12.0,260,15,,15.0,30.100393,1019.9,,,,,,,,,-SN,OVC,3900,,,,,,,VFR,,,,,,,,,,,,METAR,20.0
CYCK 230800Z AUTO 20010KT 9SM CLR 14/10 A3011 RMK SLP200,CYCK,2022-10-23T08:00:00Z,42.3,-82.08,14.0,10.0,200,10,,9.0,30.109253,1020.0,,TRUE,,,,,,,,CLR,,,,,,,,VFR,,,,,,,,,,,,METAR,196.0
CYCB 230800Z 31012KT 15SM DRSN OVC020 M17/M19 A2987 RMK SC8 SLP122,CYCB,2022-10-23T08:00:00Z,69.1,-105.12,-17.0,-19.0,310,12,,15.0,29.870079,1012.2,,,,,,,,,DRSN,OVC,2000,,,,,,,MVFR,,,,,,,,,,,,METAR,19.0
CYCA 230800Z AUTO 19005KT 9SM SCT170 OVC200 08/04 A2990 RMK SLP128,CYCA,2022-10-23T08:00:00Z,53.68,-57.03,8.0,4.0,190,5,,9.0,29.899607,1012.8,,TRUE,,,,,,,,SCT,17000,OVC,20000,,,,,VFR,,,,,,,,,,,,METAR,12.0
CYBX 230800Z 27009KT 3SM BR BKN005 BKN140 08/08 A3005 RMK ST5AC1 SLP181,CYBX,2022-10-23T08:00:00Z,51.45,-57.18,8.0,8.0,270,9,,3.0,30.050198,1018.1,,,,,,,,,BR,BKN,500,BKN,14000,,,,,IFR,,,,,,,,,,,,METAR,32.0
CYBW 230800Z AUTO 34005KT 4SM -SN OVC008 M01/M01 A2983 RMK SLP151,CYBW,2022-10-23T08:00:00Z,51.1,-114.37,-1.0,-1.0,340,5,,4.0,29.828741,1015.1,,TRUE,,,,,,,-SN,OVC,800,,,,,,,IFR,,,,,,,,,,,,METAR,1197.0
CYBU 230800Z AUTO 03005KT 7SM CLR M01/M04 A2994 RMK ICE SLP157,CYBU,2022-10-23T08:00:00Z,53.32,-104.0,-1.0,-4.0,30,5,,7.0,29.940945,1015.7,,TRUE,,,,,,,,CLR,,,,,,,,VFR,,,,,,,,,,,,METAR,369.0
CYBR 230800Z 06023G32KT 15SM OVC091 04/00 A2969 RMK AC8 SLP071,CYBR,2022-10-23T08:00:00Z,49.92,-99.95,4.0,0.0,60,23,32,15.0,29.68996,1007.1,,,,,,,,,,OVC,9100,,,,,,,VFR,,,,,,,,,,,,METAR,405.0
CYBQ 230800Z AUTO /////KT 9SM FEW018 M07/M07 A3003 RMK WIND MISG SLP192,CYBQ,2022-10-23T08:00:00Z,58.7,-98.5,-7.0,-7.0,,,,9.0,30.029528,1019.2,,TRUE,,,,,,,,FEW,1800,,,,,,,VFR,,,,,,,,,,,,METAR,272.0
CYBK 230800Z 32016KT 10SM -SN SCT020 OVC054 M06/M09 A2993 RMK SC3SC5 SLP140,CYBK,2022-10-23T08:00:00Z,64.3,-96.07,-6.0,-9.0,320,16,,10.0,29.929134,1014.0,,,,,,,,,-SN,SCT,2000,OVC,5400,,,,,VFR,,,,,,,,,,,,METAR,14.0
CYBG 230800Z 09004KT 25SM SKC 05/03 A3021 RMK SLP234,CYBG,2022-10-23T08:00:00Z,48.33,-70.98,5.0,3.0,90,4,,25.0,30.209646,1023.4,,,,,,,,,,SKC,,,,,,,,VFR,,,,,,,,,,,,SPECI,151.0
CYAT 230800Z AUTO 00000KT 9SM CLR M03/M03 A3008 RMK SLP188,CYAT,2022-10-23T08:00:00Z,52.93,-82.43,-3.0,-3.0,0,0,,9.0,30.079725,1018.8,,TRUE,,,,,,,,CLR,,,,,,,,VFR,,,,,,,,,,,,METAR,4.0
CYAM 230800Z 07004KT 20SM SKC 09/09 A2997 RMK SLP154,CYAM,2022-10-23T08:00:00Z,46.48,-84.52,9.0,9.0,70,4,,20.0,29.970472,1015.4,,,,,,,,,,SKC,,,,,,,,VFR,,,,,,,,,,,,METAR,186.0
CYAH 230800Z AUTO 23006KT 9SM OVC034 01/M00 A3008 RMK SLP205,CYAH,2022-10-23T08:00:00Z,53.75,-73.67,1.0,0.0,230,6,,9.0,30.079725,1020.5,,TRUE,,,,,,,,OVC,3400,,,,,,,VFR,,,,,,,,,,,,METAR,298.0
CXZV 230800Z AUTO 00000KT M01/M02 RMK AO1 SLP221 T10101017 53014,CXZV,2022-10-23T08:00:00Z,50.22,-66.25,-1.0,-1.7,0,0,,,,1022.1,,TRUE,TRUE,,,,,,,,,,,,,,,,1.4,,,,,,,,,,,METAR,43.0
CXZC 230800Z AUTO 04001KT 07/06 RMK AO1 SLP176 T00700058 52011,CXZC,2022-10-23T08:00:00Z,51.3,-80.62,7.0,5.8,40,1,,,,1017.6,,TRUE,TRUE,,,,,,,,,,,,,,,,1.1,,,,,,,,,,,METAR,8.0
CXYH 230800Z AUTO 21004KT M03/M05 RMK AO1 SLP166 T10311053 58002,CXYH,2022-10-23T08:00:00Z,61.25,-123.75,-3.1,-5.3,210,4,,,,1016.6,,TRUE,TRUE,,,,,,,,,,,,,,,,-0.2,,,,,,,,,,,METAR,197.0
CXWN 230800Z AUTO 03007KT 08/05 RMK AO1 SLP062 T00810051 58002,CXWN,2022-10-23T08:00:00Z,49.88,-97.13,8.1,5.1,30,7,,,,1006.2,,TRUE,TRUE,,,,,,,,,,,,,,,,-0.2,,,,,,,,,,,METAR,232.0
CXWM 230800Z AUTO 36017KT M00/M00 RMK AO1 PK WND 01021/0752 T10041003 50007,CXWM,2022-10-23T08:00:00Z,49.5,-112.12,-0.4,-0.3,360,17,,,,,,TRUE,TRUE,,,,,,,,,,,,,,,,0.7,,,,,,,,,,,METAR,947.0
CXVW 230800Z AUTO 33010KT M01/M01 RMK AO1 SLP165 T10071013 52016,CXVW,2022-10-23T08:00:00Z,55.1,-117.2,-0.7,-1.3,330,10,,,,1016.5,,TRUE,TRUE,,,,,,,,,,,,,,,,1.6,,,,,,,,,,,METAR,696.0
CXVN 230800Z AUTO 17007KT 14/05 RMK AO1 SLP212 T01350054 51005,CXVN,2022-10-23T08:00:00Z,43.18,-79.4,13.5,5.4,170,7,,,,1021.2,,TRUE,TRUE,,,,,,,,,,,,,,,,0.5,,,,,,,,,,,METAR,86.0
CXVM 230800Z AUTO 32001KT M00/M00 RMK AO1 T10041003,CXVM,2022-10-23T08:00:00Z,53.35,-110.88,-0.4,-0.3,320,1,,,,,,TRUE,TRUE,,,,,,,,,,,,,,,,,,,,,,,,,,,METAR,622.0
CXTV 230800Z AUTO 11002KT M13/M15 RMK AO1 SOG 07 2004 SLP202 T11301147,CXTV,2022-10-23T08:00:00Z,68.75,-133.5,-13.0,-14.7,110,2,,,,1020.2,,TRUE,TRUE,,,,,,,,,,,,,,,,,,,,,,,,,,,METAR,91.0
CXTP 230800Z AUTO 23011KT 07/06 RMK AO1 PK WND 23018/0729 SLP233 T00680063 56007,CXTP,2022-10-23T08:00:00Z,48.55,-53.97,6.8,6.3,230,11,,,,1023.3,,TRUE,TRUE,,,,,,,,,,,,,,,,-0.7,,,,,,,,,,,METAR,104.0
CXTO 230800Z AUTO 11/07 RMK AO1 SLP218 T01060066 51009,CXTO,2022-10-23T08:00:00Z,43.67,-79.4,10.6,6.6,,,,,,1021.8,,TRUE,TRUE,,,,,,,,,,,,,,,,0.9,,,,,,,,,,,METAR,115.0
CXTN 230800Z AUTO 23003KT M13/M15 RMK AO1 SOG 21 0000 SLP216 T11341151,CXTN,2022-10-23T08:00:00Z,69.2,-122.35,-13.4,-15.1,230,3,,,,1021.6,,TRUE,TRUE,,,,,,,,,,,,,,,,,,,,,,,,,,,METAR,564.0
CXTH 230800Z AUTO 06004KT M03/M03 RMK AO1 T10281029,CXTH,2022-10-23T08:00:00Z,53.63,-111.68,-2.8,-2.9,60,4,,,,,,TRUE,TRUE,,,,,,,,,,,,,,,,,,,,,,,,,,,METAR,679.0
CXTD 230800Z AUTO 20005KT 10/08 RMK AO1 SLP287 T01030082 58005,CXTD,2022-10-23T08:00:00Z,45.62,-61.68,10.3,8.2,200,5,,,,1028.7,,TRUE,TRUE,,,,,,,,,,,,,,,,-0.5,,,,,,,,,,,METAR,58.0
CXSP 230800Z AUTO 05004KT M02/M02 RMK AO1 T10171022 50004,CXSP,2022-10-23T08:00:00Z,54.02,-111.27,-1.7,-2.2,50,4,,,,,,TRUE,TRUE,,,,,,,,,,,,,,,,0.4,,,,,,,,,,,METAR,652.0
CXSL 230800Z AUTO 12004KT M00/M01 RMK AO1 T10011007,CXSL,2022-10-23T08:00:00Z,54.28,-112.5,-0.1,-0.7,120,4,,,,,,TRUE,TRUE,,,,,,,,,,,,,,,,,,,,,,,,,,,METAR,680.0
CXSH 230800Z AUTO 36002KT 04/03 RMK AO1 SLP251 T00420034 51012,CXSH,2022-10-23T08:00:00Z,46.55,-72.73,4.2,3.4,360,2,,,,1025.1,,TRUE,TRUE,,,,,,,,,,,,,,,,1.2,,,,,,,,,,,METAR,106.0
CXSE 230800Z AUTO 34016G21KT M16/M18 RMK AO1 SOG 05 5001 PK WND 34022/0729 SLP071 T11601184,CXSE,2022-10-23T08:00:00Z,73.77,-105.28,-16.0,-18.4,340,16,21,,,1007.1,,TRUE,TRUE,,,,,,,,,,,,,,,,,,,,,,,,,,,METAR,11.0
CXSC 230800Z AUTO 02012KT 03/02 RMK AO1 6PAST HR M PK WND 02017/0748 P0002 T00250015 50006,CXSC,2022-10-23T08:00:00Z,50.3,-110.08,2.5,1.5,20,12,,,,,,TRUE,TRUE,,,,,,,,,,,,,,,,0.6,,,,,0.02,,,,,,METAR,809.0
CXRL 230800Z AUTO 13001KT M05/M05 RMK AO1 T10471049,CXRL,2022-10-23T08:00:00Z,54.5,-111.7,-4.7,-4.9,130,1,,,,,,TRUE,TRUE,,,,,,,,,,,,,,,,,,,,,,,,,,,METAR,585.0
CXRH 230800Z AUTO 23011G19KT 11/08 RMK AO1 PK WND 22019/0755 SLP216 T01110078 53002,CXRH,2022-10-23T08:00:00Z,49.57,-57.88,11.1,7.8,230,11,19,,,1021.6,,TRUE,TRUE,,,,,,,,,,,,,,,,0.2,,,,,,,,,,,METAR,68.0
CXRB 230800Z AUTO 04016KT M20/M23 RMK AO1 SOG 04 3008 PK WND 04021/0705 SLP017 T12041234,CXRB,2022-10-23T08:00:00Z,74.72,-94.98,-20.4,-23.4,40,16,,,,1001.7,,TRUE,TRUE,,,,,,,,,,,,,,,,,,,,,,,,,,,METAR,30.0
CXPL 230800Z AUTO 02010KT 02/02 RMK AO1 T00180018,CXPL,2022-10-23T08:00:00Z,51.13,-111.7,1.8,1.8,20,10,,,,,,TRUE,TRUE,,,,,,,,,,,,,,,,,,,,,,,,,,,METAR,735.0
CXPC 230800Z AUTO 12/08 RMK AO1 SLP204 T01220076 50007,CXPC,2022-10-23T08:00:00Z,45.35,-80.05,12.2,7.6,,,,,,1020.4,,TRUE,TRUE,,,,,,,,,,,,,,,,0.7,,,,,,,,,,,METAR,176.0
CXPA 230800Z AUTO 35004KT M00/M02 RMK AO1 T10041019,CXPA,2022-10-23T08:00:00Z,55.62,-118.3,-0.4,-1.9,350,4,,,,,,TRUE,TRUE,,,,,,,,,,,,,,,,,,,,,,,,,,,METAR,628.0
CXOY 230800Z AUTO 04008KT 02/M02 RMK AO1 T00171017,CXOY,2022-10-23T08:00:00Z,51.35,-110.35,1.7,-1.7,40,8,,,,,,TRUE,TRUE,,,,,,,,,,,,,,,,,,,,,,,,,,,METAR,784.0
CXOX 230800Z AUTO 03003KT M02/M03 RMK AO1 SLP168 T10161031 51015,CXOX,2022-10-23T08:00:00Z,55.15,-105.27,-1.6,-3.1,30,3,,,,1016.8,,TRUE,TRUE,,,,,,,,,,,,,,,,1.5,,,,,,,,,,,METAR,381.0
CXOL 230800Z AUTO 35005KT 00/00 RMK AO1 4PAST HR M P0002 T00000000 50004,CXOL,2022-10-23T08:00:00Z,51.77,-114.08,0.0,0.0,350,5,,,,,,TRUE,TRUE,,,,,,,,,,,,,,,,0.4,,,,,0.02,,,,,,METAR,1026.0
CXNP 230800Z AUTO 18006KT 08/06 RMK AO1 SLP268 T00760055 51003,CXNP,2022-10-23T08:00:00Z,45.75,-64.23,7.6,5.5,180,6,,,,1026.8,,TRUE,TRUE,,,,,,,,,,,,,,,,0.3,,,,,,,,,,,METAR,19.0
CXNM 230800Z AUTO 25015G22KT 10/02 RMK AO1 PK WND 26023/0703 T01020024,CXNM,2022-10-23T08:00:00Z,46.82,-60.67,10.2,2.4,250,15,22,,,,,TRUE,TRUE,,,,,,,,,,,,,,,,,,,,,,,,,,,METAR,452.0
CXMY 230800Z AUTO 09/09 RMK AO1 T00870087,CXMY,2022-10-23T08:00:00Z,44.98,-62.48,8.7,8.7,,,,,,,,TRUE,TRUE,,,,,,,,,,,,,,,,,,,,,,,,,,,METAR,37.0
CXMO 230800Z AUTO 01006KT 01/01 RMK AO1 T00060006,CXMO,2022-10-23T08:00:00Z,51.67,-112.68,0.6,0.6,10,6,,,,,,TRUE,TRUE,,,,,,,,,,,,,,,,,,,,,,,,,,,METAR,837.0
CXMM 230800Z AUTO 11004KT 01/M00 RMK AO1 2PAST HR 1016 SLP174 P0001 T00081004 50002,CXMM,2022-10-23T08:00:00Z,56.65,-111.22,0.8,-0.4,110,4,,,,1017.4,,TRUE,TRUE,,,,,,,,,,,,,,,,0.2,,,,,0.01,,,,,,METAR,372.0
CXMI 230800Z AUTO 33004KT 12/11 RMK AO1 SLP277 T01170113 58002,CXMI,2022-10-23T08:00:00Z,44.6,-63.53,11.7,11.3,330,4,,,,1027.7,,TRUE,TRUE,,,,,,,,,,,,,,,,-0.2,,,,,,,,,,,METAR,15.0
CXMG 230800Z AUTO 33006KT M02/M03 RMK AO1 T10181030,CXMG,2022-10-23T08:00:00Z,56.97,-117.45,-1.8,-3.0,330,6,,,,,,TRUE,TRUE,,,,,,,,,,,,,,,,,,,,,,,,,,,METAR,467.0
CXMD 230800Z AUTO 02007KT 07/05 RMK AO1 SLP058 T00670053 52006,CXMD,2022-10-23T08:00:00Z,49.18,-98.08,6.7,5.3,20,7,,,,1005.8,,TRUE,TRUE,,,,,,,,,,,,,,,,0.6,,,,,,,,,,,METAR,297.0
CXLL 230800Z AUTO 00000KT M08/M09 RMK AO1 SOG 03 8001 SLP195 T10781088,CXLL,2022-10-23T08:00:00Z,61.12,-122.85,-7.8,-8.8,0,0,,,,1019.5,,TRUE,TRUE,,,,,,,,,,,,,,,,,,,,,,,,,,,METAR,180.0
CXLB 230800Z AUTO 36003KT 10/10 RMK AO1 SLP280 T01010095 55000,CXLB,2022-10-23T08:00:00Z,44.37,-64.3,10.1,9.5,360,3,,,,1028.0,,TRUE,TRUE,,,,,,,,,,,,,,,,0.0,,,,,,,,,,,METAR,4.0
CXKT 230800Z AUTO 20002KT 05/03 RMK AO1 SLP278 T00480030 55000,CXKT,2022-10-23T08:00:00Z,45.07,-64.48,4.8,3.0,200,2,,,,1027.8,,TRUE,TRUE,,,,,,,,,,,,,,,,0.0,,,,,,,,,,,METAR,48.0
CXKM 230800Z AUTO 02006KT 01/M00 RMK AO1 T00071001,CXKM,2022-10-23T08:00:00Z,52.83,-111.87,0.7,-0.1,20,6,,,,,,TRUE,TRUE,,,,,,,,,,,,,,,,,,,,,,,,,,,METAR,679.0
CXKI 230800Z AUTO 00014KT 03/03 RMK AO1 SLP175 T00300028 51010,CXKI,2022-10-23T08:00:00Z,48.13,-80.0,3.0,2.8,0,14,,,,1017.5,,TRUE,TRUE,,,,,,,,,,,,,,,,1.0,,,,,,,,,,,METAR,328.0
CXKE 230800Z AUTO 18003KT 10/04 RMK AO1 SLP242 T01000037 51013,CXKE,2022-10-23T08:00:00Z,45.0,-75.63,10.0,3.7,180,3,,,,1024.2,,TRUE,TRUE,,,,,,,,,,,,,,,,1.3,,,,,,,,,,,METAR,99.0
CXKA 230800Z AUTO 11001KT 05/04 RMK AO1 SLP156 T00460043 50002,CXKA,2022-10-23T08:00:00Z,49.4,-82.45,4.6,4.3,110,1,,,,1015.6,,TRUE,TRUE,,,,,,,,,,,,,,,,0.2,,,,,,,,,,,METAR,221.0
CXIB 230800Z AUTO 24010G17KT 12/07 RMK AO1 PK WND 23018/0711 SLP252 T01190068 58007,CXIB,2022-10-23T08:00:00Z,46.67,-60.4,11.9,6.8,240,10,17,,,1025.2,,TRUE,TRUE,,,,,,,,,,,,,,,,-0.7,,,,,,,,,,,METAR,6.0
CXHR 230800Z AUTO 33010KT M00/01 RMK AO1 T10040005 50004,CXHR,2022-10-23T08:00:00Z,51.18,-112.5,-0.4,0.5,330,10,,,,,,TRUE,TRUE,,,,,,,,,,,,,,,,0.4,,,,,,,,,,,METAR,975.0
CXHP 230800Z AUTO 31004KT 01/M00 RMK AO1 T00081002,CXHP,2022-10-23T08:00:00Z,55.4,-116.48,0.8,-0.2,310,4,,,,,,TRUE,TRUE,,,,,,,,,,,,,,,,,,,,,,,,,,,METAR,601.0
CXHM 230800Z AUTO 32001KT 11/06 RMK AO1 SLP218 T01060062 51008,CXHM,2022-10-23T08:00:00Z,43.28,-79.9,10.6,6.2,320,1,,,,1021.8,,TRUE,TRUE,,,,,,,,,,,,,,,,0.8,,,,,,,,,,,METAR,105.0
CXHD 230800Z AUTO 03003KT M05/M05 RMK AO1 T10451046,CXHD,2022-10-23T08:00:00Z,53.18,-112.25,-4.5,-4.6,30,3,,,,,,TRUE,TRUE,,,,,,,,,,,,,,,,,,,,,,,,,,,METAR,688.0
CXHA 230800Z AUTO 20006KT 14/09 RMK AO1 SLP193 T01360088 51008,CXHA,2022-10-23T08:00:00Z,42.03,-82.9,13.6,8.8,200,6,,,,1019.3,,TRUE,TRUE,,,,,,,,,,,,,,,,0.8,,,,,,,,,,,METAR,193.0
CXGH 230800Z AUTO 03016KT 07/05 RMK AO1 PK WND 04020/0735 SLP090 T00740050 53001,CXGH,2022-10-23T08:00:00Z,50.63,-97.0,7.4,5.0,30,16,,,,1009.0,,TRUE,TRUE,,,,,,,,,,,,,,,,0.1,,,,,,,,,,,METAR,217.0
CXFR 230800Z AUTO 35002KT M02/M02 RMK AO1 T10171021,CXFR,2022-10-23T08:00:00Z,56.08,-118.43,-1.7,-2.1,350,2,,,,,,TRUE,TRUE,,,,,,,,,,,,,,,,,,,,,,,,,,,METAR,657.0
CXFM 230800Z AUTO 35013KT M00/M00 RMK AO1 9PAST HR M PK WND 35019/0717 P0004 T10011003 50015,CXFM,2022-10-23T08:00:00Z,49.48,-111.48,-0.1,-0.3,350,13,,,,,,TRUE,TRUE,,,,,,,,,,,,,,,,1.5,,,,,0.04,,,,,,METAR,884.0
CXET 230800Z AUTO 13006KT 11/07 RMK AO1 SLP216 T01080074 51012,CXET,2022-10-23T08:00:00Z,44.23,-79.78,10.8,7.4,130,6,,,,1021.6,,TRUE,TRUE,,,,,,,,,,,,,,,,1.2,,,,,,,,,,,METAR,250.0
CXEG 230800Z AUTO 03004KT 02/01 RMK AO1 SLP148 T00210009 51011,CXEG,2022-10-23T08:00:00Z,53.3,-113.6,2.1,0.9,30,4,,,,1014.8,,TRUE,TRUE,,,,,,,,,,,,,,,,1.1,,,,,,,,,,,METAR,706.0
CXEC 230800Z AUTO 05002KT 02/M00 RMK AO1 SLP151 T00241001 51014,CXEC,2022-10-23T08:00:00Z,53.57,-113.52,2.4,-0.1,50,2,,,,1015.1,,TRUE,TRUE,,,,,,,,,,,,,,,,1.4,,,,,,,,,,,METAR,666.0
CXEA 230800Z AUTO 06006KT 06/05 RMK AO1 SLP081 T00630049 56012,CXEA,2022-10-23T08:00:00Z,50.63,-93.22,6.3,4.9,60,6,,,,1008.1,,TRUE,TRUE,,,,,,,,,,,,,,,,-1.2,,,,,,,,,,,METAR,351.0
CXDW 230800Z AUTO 03011KT 07/05 RMK AO1 PK WND 02017/0730 SLP060 T00660049 51001,CXDW,2022-10-23T08:00:00Z,49.4,-98.32,6.6,4.9,30,11,,,,1006.0,,TRUE,TRUE,,,,,,,,,,,,,,,,0.1,,,,,,,,,,,METAR,341.0
CXDK 230800Z AUTO 00000KT M03/M06 RMK AO1 SLP172 T10341056 58001,CXDK,2022-10-23T08:00:00Z,61.27,-124.47,-3.4,-5.6,0,0,,,,1017.2,,TRUE,TRUE,,,,,,,,,,,,,,,,-0.1,,,,,,,,,,,METAR,269.0
CXDI 230800Z AUTO 00000KT 08/06 RMK AO1 SLP213 T00790057 51005,CXDI,2022-10-23T08:00:00Z,42.87,-80.55,7.9,5.7,0,0,,,,1021.3,,TRUE,TRUE,,,,,,,,,,,,,,,,0.5,,,,,,,,,,,METAR,234.0
CXDE 230800Z AUTO 08006KT M04/M08 RMK AO1 SOG 02 0000 SLP188 T10411075,CXDE,2022-10-23T08:00:00Z,65.22,-123.43,-4.1,-7.5,80,6,,,,1018.8,,TRUE,TRUE,,,,,,,,,,,,,,,,,,,,,,,,,,,METAR,208.0
CXDB 230800Z AUTO 34018KT M02/M02 RMK AO1 PK WND 33022/0751 T10151017,CXDB,2022-10-23T08:00:00Z,49.05,-112.82,-1.5,-1.7,340,18,,,,,,TRUE,TRUE,,,,,,,,,,,,,,,,,,,,,,,,,,,METAR,1311.0
CXCS 230800Z AUTO 02011KT 01/M01 RMK AO1 T00081007,CXCS,2022-10-23T08:00:00Z,51.93,-110.72,0.8,-0.7,20,11,,,,,,TRUE,TRUE,,,,,,,,,,,,,,,,,,,,,,,,,,,METAR,771.0
CXCP 230800Z AUTO 36013KT 00/M00 RMK AO1 4PAST HR M PK WND 00017/0759 P0002 T00001003 50004,CXCP,2022-10-23T08:00:00Z,50.28,-113.35,0.0,-0.3,360,13,,,,,,TRUE,TRUE,,,,,,,,,,,,,,,,0.4,,,,,0.02,,,,,,METAR,999.0
CXCK 230800Z AUTO 00000KT M01/M02 RMK AO1 SLP113 T10131018 58004,CXCK,2022-10-23T08:00:00Z,62.12,-136.2,-1.3,-1.8,0,0,,,,1011.3,,TRUE,TRUE,,,,,,,,,,,,,,,,-0.4,,,,,,,,,,,METAR,526.0
CXCD 230800Z AUTO 31001KT M02/M05 RMK AO1 T10211049,CXCD,2022-10-23T08:00:00Z,56.32,-119.75,-2.1,-4.9,310,1,,,,,,TRUE,TRUE,,,,,,,,,,,,,,,,,,,,,,,,,,,METAR,628.0
CXCA 230800Z AUTO 12001KT 06/06 RMK AO1 SLP100 T00600056 57002,CXCA,2022-10-23T08:00:00Z,49.15,-88.35,6.0,5.6,120,1,,,,1010.0,,TRUE,TRUE,,,,,,,,,,,,,,,,-0.2,,,,,,,,,,,METAR,228.0
CXBW 230800Z AUTO 35015KT 01/01 RMK AO1 5PAST HR M PK WND 35019/0709 P0002 T00120011 50011,CXBW,2022-10-23T08:00:00Z,49.8,-112.3,1.2,1.1,350,15,,,,,,TRUE,TRUE,,,,,,,,,,,,,,,,1.1,,,,,0.02,,,,,,METAR,823.0
CXBR 230800Z AUTO 02017KT RMK AO1 PK WND 02022/0718 50005,CXBR,2022-10-23T08:00:00Z,49.62,-113.82,,,20,17,,,,,,TRUE,TRUE,,,,,,,,,,,,,,,,0.5,,,,,,,,,,,METAR,1137.0
CXBO 230800Z AUTO 26003KT 08/04 RMK AO1 T00760044,CXBO,2022-10-23T08:00:00Z,46.83,-71.2,7.6,4.4,260,3,,,,,,TRUE,TRUE,,,,,,,,,,,,,,,,,,,,,,,,,,,METAR,8.0
CXBK 230800Z AUTO 05017KT 03/02 RMK AO1 5PAST HR SOG 01 8003 PK WND 06022/0718 SLP066 P0002 T00270017 50006,CXBK,2022-10-23T08:00:00Z,50.2,-104.7,2.7,1.7,50,17,,,,1006.6,,TRUE,TRUE,,,,,,,,,,,,,,,,0.6,,,,,0.02,,,,,,METAR,585.0
CXBI 230800Z AUTO 01002KT 05/04 RMK AO1 SLP228 T00490036 51014,CXBI,2022-10-23T08:00:00Z,44.48,-79.55,4.9,3.6,10,2,,,,1022.8,,TRUE,TRUE,,,,,,,,,,,,,,,,1.4,,,,,,,,,,,METAR,287.0
CXBA 230800Z AUTO 05008KT 01/M01 RMK AO1 T00071014,CXBA,2022-10-23T08:00:00Z,52.12,-110.1,0.7,-1.4,50,8,,,,,,TRUE,TRUE,,,,,,,,,,,,,,,,,,,,,,,,,,,METAR,696.0
CXAT 230800Z AUTO 06008KT M08/M12 RMK AO1 SOG 04 1009 SLP979 T10771115,CXAT,2022-10-23T08:00:00Z,73.0,-85.03,-7.7,-11.5,60,8,,,,997.9,,TRUE,TRUE,,,,,,,,,,,,,,,,,,,,,,,,,,,METAR,10.0
CXAK 230800Z AUTO 01005KT M00/M00 RMK AO1 T10041003,CXAK,2022-10-23T08:00:00Z,52.35,-112.6,-0.4,-0.3,10,5,,,,,,TRUE,TRUE,,,,,,,,,,,,,,,,,,,,,,,,,,,METAR,799.0
CXAJ 230800Z AUTO 03002KT M00/M00 RMK AO1 T10031001,CXAJ,2022-10-23T08:00:00Z,54.78,-112.82,-0.3,-0.1,30,2,,,,,,TRUE,TRUE,,,,,,,,,,,,,,,,,,,,,,,,,,,METAR,586.0
CXAG 230800Z AUTO 35003KT M02/M02 RMK AO1 T10171022,CXAG,2022-10-23T08:00:00Z,53.92,-112.28,-1.7,-2.2,350,3,,,,,,TRUE,TRUE,,,,,,,,,,,,,,,,,,,,,,,,,,,METAR,632.0
CXAF 230800Z AUTO 35002KT M01/M01 RMK AO1 T10071010,CXAF,2022-10-23T08:00:00Z,54.28,-112.97,-0.7,-1.0,350,2,,,,,,TRUE,TRUE,,,,,,,,,,,,,,,,,,,,,,,,,,,METAR,667.0
CWZW 230800Z AUTO 06003KT 01/M01 RMK AO1 SLP121 T00051009 56008,CWZW,2022-10-23T08:00:00Z,60.17,-132.73,0.5,-0.9,60,3,,,,1012.1,,TRUE,TRUE,,,,,,,,,,,,,,,,-0.8,,,,,,,,,,,METAR,683.0
CWZQ 230800Z AUTO 17009KT 12/09 RMK AO1 SLP274 T01180086 55001,CWZQ,2022-10-23T08:00:00Z,46.53,-61.05,11.8,8.6,170,9,,,,1027.4,,TRUE,TRUE,,,,,,,,,,,,,,,,-0.1,,,,,,,,,,,METAR,13.0
CWZO 230800Z AUTO 35008KT RMK AO1,CWZO,2022-10-23T08:00:00Z,48.57,-123.25,,,350,8,,,,,,TRUE,TRUE,,,,,,,,,,,,,,,,,,,,,,,,,,,METAR,5.0
CWZN 230800Z AUTO 26016KT 12/10 RMK AO1 PK WND 27022/0732 SLP259 T01160103 58004,CWZN,2022-10-23T08:00:00Z,47.37,-55.8,11.6,10.3,260,16,,,,1025.9,,TRUE,TRUE,,,,,,,,,,,,,,,,-0.4,,,,,,,,,,,METAR,63.0
CWZL 230800Z AUTO 24004KT 09/06 RMK AO1 SLP143 T00870064 56009,CWZL,2022-10-23T08:00:00Z,53.03,-131.6,8.7,6.4,240,4,,,,1014.3,,TRUE,TRUE,,,,,,,,,,,,,,,,-0.9,,,,,,,,,,,METAR,17.0
CWZG 230800Z AUTO 02001KT M02/M02 RMK AO1 3PAST HR SOG 06 1012 SLP131 P0001 T10161023 50009,CWZG,2022-10-23T08:00:00Z,51.2,-115.55,-1.6,-2.3,20,1,,,,1013.1,,TRUE,TRUE,,,,,,,,,,,,,,,,0.9,,,,,0.01,,,,,,METAR,1402.0
CWYY 230800Z AUTO 32004KT 07/02 RMK AO1 SLP098 T00730019 51012,CWYY,2022-10-23T08:00:00Z,49.03,-119.43,7.3,1.9,320,4,,,,1009.8,,TRUE,TRUE,,,,,,,,,,,,,,,,1.2,,,,,,,,,,,METAR,284.0
CWYL 230800Z AUTO 06004KT M03/M05 RMK AO1 SLP124 T10271052 51015,CWYL,2022-10-23T08:00:00Z,51.45,-116.33,-2.7,-5.2,60,4,,,,1012.4,,TRUE,TRUE,,,,,,,,,,,,,,,,1.5,,,,,,,,,,,METAR,1602.0
CWYJ 230800Z AUTO 33002KT 04/03 RMK AO1 SLP135 T00430032 51020,CWYJ,2022-10-23T08:00:00Z,48.45,-123.3,4.3,3.2,330,2,,,,1013.5,,TRUE,TRUE,,,,,,,,,,,,,,,,2.0,,,,,,,,,,,METAR,59.0
CWXL 230800Z AUTO 02012G18KT 02/01 RMK AO1 7PAST HR 1004 PK WND 02018/0742 SLP087 P0003 T00160009 50016,CWXL,2022-10-23T08:00:00Z,49.73,-111.45,1.6,0.9,20,12,18,,,1008.7,,TRUE,TRUE,,,,,,,,,,,,,,,,1.6,,,,,0.03,,,,,,METAR,815.0
CWXI 230800Z AUTO 23021G26KT 10/09 RMK AO1 PK WND 23027/0748 SLP167 T01000088 50002,CWXI,2022-10-23T08:00:00Z,51.02,-57.1,10.0,8.8,230,21,26,,,1016.7,,TRUE,TRUE,,,,,,,,,,,,,,,,0.2,,,,,,,,,,,METAR,15.0
CWXC 230800Z AUTO 01001KT 04/03 RMK AO1 SLP235 T00400032 51007,CWXC,2022-10-23T08:00:00Z,48.88,-71.03,4.0,3.2,10,1,,,,1023.5,,TRUE,TRUE,,,,,,,,,,,,,,,,0.7,,,,,,,,,,,METAR,306.0
CWXA 230800Z AUTO 00010KT M01/M02 RMK AO1 SLP165 T10131020 51014,CWXA,2022-10-23T08:00:00Z,51.07,-115.07,-1.3,-2.0,0,10,,,,1016.5,,TRUE,TRUE,,,,,,,,,,,,,,,,1.4,,,,,,,,,,,METAR,1303.0
CWWZ 230800Z AUTO 17012KT 15/06 RMK AO1 SLP211 T01460064 51004,CWWZ,2022-10-23T08:00:00Z,43.25,-79.22,14.6,6.4,170,12,,,,1021.1,,TRUE,TRUE,,,,,,,,,,,,,,,,0.4,,,,,,,,,,,METAR,75.0
CWWS 230800Z AUTO 04018KT 04/01 RMK AO1 PK WND 04020/0753 SLP148 T00380009 50010,CWWS,2022-10-23T08:00:00Z,52.82,-97.62,3.8,0.9,40,18,,,,1014.8,,TRUE,TRUE,,,,,,,,,,,,,,,,1.0,,,,,,,,,,,METAR,220.0
CWWL 230800Z AUTO 14003KT 07/04 RMK AO1 SLP136 T00710042 56007,CWWL,2022-10-23T08:00:00Z,53.5,-130.63,7.1,4.2,140,3,,,,1013.6,,TRUE,TRUE,,,,,,,,,,,,,,,,-0.7,,,,,,,,,,,METAR,8.0
CWWK 230800Z AUTO 06001KT 05/04 RMK AO1 SLP138 T00530035 51019,CWWK,2022-10-23T08:00:00Z,49.02,-122.78,5.3,3.5,60,1,,,,1013.8,,TRUE,TRUE,,,,,,,,,,,,,,,,1.9,,,,,,,,,,,METAR,10.0
CWWF 230800Z AUTO 09020G26KT 04/02 RMK AO1 SOG 01 8003 PK WND 09028/0720 SLP051 T00370018,CWWF,2022-10-23T08:00:00Z,49.7,-103.8,3.7,1.8,90,20,26,,,1005.1,,TRUE,TRUE,,,,,,,,,,,,,,,,,,,,,,,,,,,METAR,583.0
CWWE 230800Z AUTO 36003KT 08/08 RMK AO1 SLP282 T00820081 55000,CWWE,2022-10-23T08:00:00Z,43.98,-64.67,8.2,8.1,360,3,,,,1028.2,,TRUE,TRUE,,,,,,,,,,,,,,,,0.0,,,,,,,,,,,METAR,4.0
CWWB 230800Z AUTO 35003KT 10/07 RMK AO1 SLP218 T00980072 51009,CWWB,2022-10-23T08:00:00Z,43.3,-79.78,9.8,7.2,350,3,,,,1021.8,,TRUE,TRUE,,,,,,,,,,,,,,,,0.9,,,,,,,,,,,METAR,77.0
CWWA 230800Z AUTO 02002KT 06/04 RMK AO1 SLP134 T00620035 51019,CWWA,2022-10-23T08:00:00Z,49.35,-123.18,6.2,3.5,20,2,,,,1013.4,,TRUE,TRUE,,,,,,,,,,,,,,,,1.9,,,,,,,,,,,METAR,172.0
CWVU 230800Z AUTO 14006KT 11/11 RMK AO1 SLP274 T01100109 55001,CWVU,2022-10-23T08:00:00Z,44.28,-66.33,11.0,10.9,140,6,,,,1027.4,,TRUE,TRUE,,,,,,,,,,,,,,,,-0.1,,,,,,,,,,,METAR,4.0
CWVT 230800Z AUTO 08004KT 01/M01 RMK AO1 SLP190 T00101013 53018,CWVT,2022-10-23T08:00:00Z,55.83,-108.42,1.0,-1.3,80,4,,,,1019.0,,TRUE,TRUE,,,,,,,,,,,,,,,,1.8,,,,,,,,,,,METAR,431.0
CWVQ 230800Z AUTO 00000KT 05/04 RMK AO1 SLP249 T00480039 51014,CWVQ,2022-10-23T08:00:00Z,45.42,-73.92,4.8,3.9,0,0,,,,1024.9,,TRUE,TRUE,,,,,,,,,,,,,,,,1.4,,,,,,,,,,,METAR,38.0
CWVP 230800Z AUTO 04007KT M00/M01 RMK AO1 6PAST HR SOG 09 8004 SLP046 P0002 T10041010 50013,CWVP,2022-10-23T08:00:00Z,49.63,-109.52,-0.4,-1.0,40,7,,,,1004.6,,TRUE,TRUE,,,,,,,,,,,,,,,,1.3,,,,,0.02,,,,,,METAR,1269.0
CWVN 230800Z AUTO 06015G21KT 02/01 RMK AO1 9PAST HR 8003 PK WND 06022/0738 SLP032 P0004 T00220006 50021,CWVN,2022-10-23T08:00:00Z,49.07,-107.58,2.2,0.6,60,15,21,,,1003.2,,TRUE,TRUE,,,,,,,,,,,,,,,,2.1,,,,,0.04,,,,,,METAR,792.0
CWVI 230800Z AUTO 01002KT M06/M06 RMK AO1 SLP160 T10601055 51013,CWVI,2022-10-23T08:00:00Z,53.52,-112.1,-6.0,-5.5,10,2,,,,1016.0,,TRUE,TRUE,,,,,,,,,,,,,,,,1.3,,,,,,,,,,,METAR,640.0
CWVH 230800Z AUTO VRB06KT ////SM OVC002 ///// A////,CWVH,2022-10-23T08:00:00Z,68.9,-133.93,,,0,6,,,,,,TRUE,,,,,,,,OVC,200,,,,,,,,,,,,,,,,,,,METAR,246.0
CWVF 230800Z AUTO 11005KT 10/07 RMK AO1 T00970074,CWVF,2022-10-23T08:00:00Z,49.1,-123.3,9.7,7.4,110,5,,,,,,TRUE,TRUE,,,,,,,,,,,,,,,,,,,,,,,,,,,METAR,13.0
CWUX 230800Z AUTO 00000KT 04/02 RMK AO1 SLP238 T00380023 51006,CWUX,2022-10-23T08:00:00Z,48.3,-70.93,3.8,2.3,0,0,,,,1023.8,,TRUE,TRUE,,,,,,,,,,,,,,,,0.6,,,,,,,,,,,METAR,150.0
CWUW 230800Z AUTO 04004KT 010V070 ////SM NCD M06/M07 A2926,CWUW,2022-10-23T08:00:00Z,68.62,-71.12,-6.0,-7.0,40,4,,,29.258858,,,TRUE,,,,,,,,CLR,,,,,,,,,,,,,,,,,,,,METAR,173.0
CWUS 230800Z AUTO 28007KT 06/M02 RMK AO1 SLP116 T00571023 51018,CWUS,2022-10-23T08:00:00Z,49.57,-119.65,5.7,-2.3,280,7,,,,1011.6,,TRUE,TRUE,,,,,,,,,,,,,,,,1.8,,,,,,,,,,,METAR,455.0
CWTY 230800Z AUTO 32002KT 08/07 RMK AO1 SLP253 T00780066 51016,CWTY,2022-10-23T08:00:00Z,46.35,-72.52,7.8,6.6,320,2,,,,1025.3,,TRUE,TRUE,,,,,,,,,,,,,,,,1.6,,,,,,,,,,,METAR,8.0
CWTT 230800Z AUTO 01002KT 06/04 RMK AO1 T00550039,CWTT,2022-10-23T08:00:00Z,45.27,-72.17,5.5,3.9,10,2,,,,,,TRUE,TRUE,,,,,,,,,,,,,,,,,,,,,,,,,,,METAR,210.0
CWTN 230800Z AUTO 11001KT 06/05 RMK AO1 SLP250 T00560050 52020,CWTN,2022-10-23T08:00:00Z,47.07,-70.78,5.6,5.0,110,1,,,,1025.0,,TRUE,TRUE,,,,,,,,,,,,,,,,2.0,,,,,,,,,,,METAR,5.0
CWTG 230800Z AUTO 23009KT 06/05 RMK AO1 SLP226 T00600050 51011,CWTG,2022-10-23T08:00:00Z,49.32,-67.37,6.0,5.0,230,9,,,,1022.6,,TRUE,TRUE,,,,,,,,,,,,,,,,1.1,,,,,,,,,,,METAR,6.0
CWTA 230800Z AUTO 18002KT 12/05 RMK AO1 SLP248 T01150050 51011,CWTA,2022-10-23T08:00:00Z,45.5,-73.58,11.5,5.0,180,2,,,,1024.8,,TRUE,TRUE,,,,,,,,,,,,,,,,1.1,,,,,,,,,,,METAR,71.0
CWST 230800Z AUTO 09003KT 10/04 RMK AO1 SLP240 T00950041 52016,CWST,2022-10-23T08:00:00Z,47.35,-70.02,9.5,4.1,90,3,,,,1024.0,,TRUE,TRUE,,,,,,,,,,,,,,,,1.6,,,,,,,,,,,METAR,31.0
CWSS 230800Z AUTO 15001KT 04/04 RMK AO1 SLP272 T00400038 51004,CWSS,2022-10-23T08:00:00Z,45.2,-67.25,4.0,3.8,150,1,,,,1027.2,,TRUE,TRUE,,,,,,,,,,,,,,,,0.4,,,,,,,,,,,METAR,27.0
CWSR 230800Z AUTO 04005KT 01/M02 RMK AO1 SLP146 T00071018 51009,CWSR,2022-10-23T08:00:00Z,53.37,-107.55,0.7,-1.8,40,5,,,,1014.6,,TRUE,TRUE,,,,,,,,,,,,,,,,0.9,,,,,,,,,,,METAR,589.0
CWSP 230800Z AUTO 07003KT 08/06 RMK AO1 SLP135 T00810055 51018,CWSP,2022-10-23T08:00:00Z,48.38,-123.92,8.1,5.5,70,3,,,,1013.5,,TRUE,TRUE,,,,,,,,,,,,,,,,1.8,,,,,,,,,,,METAR,2.0
CWSL 230800Z AUTO 18004KT M00/M03 RMK AO1 SLP120 T10031026 51022,CWSL,2022-10-23T08:00:00Z,50.7,-119.28,-0.3,-2.6,180,4,,,,1012.0,,TRUE,TRUE,,,,,,,,,,,,,,,,2.2,,,,,,,,,,,METAR,353.0
CWSK 230800Z AUTO 05002KT 03/02 RMK AO1 SLP139 T00290017 51021,CWSK,2022-10-23T08:00:00Z,49.78,-123.17,2.9,1.7,50,2,,,,1013.9,,TRUE,TRUE,,,,,,,,,,,,,,,,2.1,,,,,,,,,,,METAR,59.0
CWSG 230800Z AUTO 11/04 RMK AO1 SLP231 T01100043 51014,CWSG,2022-10-23T08:00:00Z,49.12,-66.65,11.0,4.3,,,,,,1023.1,,TRUE,TRUE,,,,,,,,,,,,,,,,1.4,,,,,,,,,,,METAR,5.0
CWSF 230800Z AUTO 17004KT 11/04 RMK AO1 SLP221 T01060044 51013,CWSF,2022-10-23T08:00:00Z,49.25,-65.32,10.6,4.4,170,4,,,,1022.1,,TRUE,TRUE,,,,,,,,,,,,,,,,1.3,,,,,,,,,,,METAR,15.0
CWSD 230800Z AUTO 23010KT 11/07 RMK AO1 SLP263 T01100074 51004,CWSD,2022-10-23T08:00:00Z,46.43,-63.85,11.0,7.4,230,10,,,,1026.3,,TRUE,TRUE,,,,,,,,,,,,,,,,0.4,,,,,,,,,,,METAR,12.0
CWRZ 230800Z AUTO 26010KT 09/05 RMK AO1 SLP234 T00880047 51018,CWRZ,2022-10-23T08:00:00Z,48.42,-64.32,8.8,4.7,260,10,,,,1023.4,,TRUE,TRUE,,,,,,,,,,,,,,,,1.8,,,,,,,,,,,METAR,16.0
CWRY 230800Z AUTO 36016G22KT M00/M00 RMK AO1 2PAST HR 3006 PK WND 01024/0710 SLP078 P0001 T10011003 50005,CWRY,2022-10-23T08:00:00Z,49.12,-112.05,-0.1,-0.3,360,16,22,,,1007.8,,TRUE,TRUE,,,,,,,,,,,,,,,,0.5,,,,,0.01,,,,,,METAR,1048.0
CWRU 230800Z AUTO 35017KT 09/ RMK AO1 PK WND 34022/0753 SLP145 T0089 51006,CWRU,2022-10-23T08:00:00Z,50.12,-127.93,8.9,,350,17,,,,1014.5,,TRUE,TRUE,,,,,,,,,,,,,,,,0.6,,,,,,,,,,,METAR,76.0
CWRT 230800Z AUTO 13002KT M01/M02 RMK AO1 SLP114 T10121015 51009,CWRT,2022-10-23T08:00:00Z,49.62,-114.47,-1.2,-1.5,130,2,,,,1011.4,,TRUE,TRUE,,,,,,,,,,,,,,,,0.9,,,,,,,,,,,METAR,1311.0
CWRO 230800Z AUTO 21007KT 07/ RMK AO1 SLP127 T0069 56010,CWRO,2022-10-23T08:00:00Z,54.17,-131.67,6.9,,210,7,,,,1012.7,,TRUE,TRUE,,,,,,,,,,,,,,,,-1.0,,,,,,,,,,,METAR,7.0
CWRN 230800Z AUTO 27004KT 13/13 RMK AO1 SLP280 T01290126 58001,CWRN,2022-10-23T08:00:00Z,45.35,-60.98,12.9,12.6,270,4,,,,1028.0,,TRUE,TRUE,,,,,,,,,,,,,,,,-0.1,,,,,,,,,,,METAR,8.0
CWRM 230800Z AUTO 33002KT 00/M00 RMK AO1 SLP128 T00001001 51012,CWRM,2022-10-23T08:00:00Z,52.42,-114.92,0.0,-0.1,330,2,,,,1012.8,,TRUE,TRUE,,,,,,,,,,,,,,,,1.2,,,,,,,,,,,METAR,986.0
CWRK 230800Z AUTO 20001KT 02/02 RMK AO1 SLP231 T00170017 50008,CWRK,2022-10-23T08:00:00Z,45.07,-77.87,1.7,1.7,200,1,,,,1023.1,,TRUE,TRUE,,,,,,,,,,,,,,,,0.8,,,,,,,,,,,METAR,328.0
CWRJ 230800Z AUTO 04013KT 03/M03 RMK AO1 PK WND 03017/0742 SLP097 T00301029 50003,CWRJ,2022-10-23T08:00:00Z,51.57,-107.92,3.0,-2.9,40,13,,,,1009.7,,TRUE,TRUE,,,,,,,,,,,,,,,,0.3,,,,,,,,,,,METAR,586.0
CWRH 230800Z AUTO 24044G53KT ////SM ////// ///// A2929,CWRH,2022-10-23T08:00:00Z,61.58,-64.65,,,240,44,53,,29.291338,,,TRUE,,,,,,,,,,,,,,,,,,,,,,,,,,,,METAR,343.0
CWRA 230800Z AUTO 00025KT 11/10 RMK AO1 SLP273 T01140104 55000,CWRA,2022-10-23T08:00:00Z,46.65,-53.07,11.4,10.4,0,25,,,,1027.3,,TRUE,TRUE,,,,,,,,,,,,,,,,0.0,,,,,,,,,,,METAR,4.0
CWQV 230800Z AUTO 11001KT 06/05 RMK AO1 T00550052,CWQV,2022-10-23T08:00:00Z,48.27,-70.12,5.5,5.2,110,1,,,,,,TRUE,TRUE,,,,,,,,,,,,,,,,,,,,,,,,,,,METAR,4.0
CWQS 230800Z AUTO 12009KT 09/06 RMK AO1 SLP125 T00940059 57015,CWQS,2022-10-23T08:00:00Z,53.32,-132.77,9.4,5.9,120,9,,,,1012.5,,TRUE,TRUE,,,,,,,,,,,,,,,,-1.5,,,,,,,,,,,METAR,10.0
CWQR 230800Z AUTO 30006KT 07/05 RMK AO1 T00670051,CWQR,2022-10-23T08:00:00Z,50.22,-64.22,6.7,5.1,300,6,,,,,,TRUE,TRUE,,,,,,,,,,,,,,,,,,,,,,,,,,,METAR,9.0
CWQP 230800Z AUTO 13011KT 13/10 RMK AO1 PK WND 36018/0731 SLP234 T01250095 52008,CWQP,2022-10-23T08:00:00Z,43.83,-77.15,12.5,9.5,130,11,,,,1023.4,,TRUE,TRUE,,,,,,,,,,,,,,,,0.8,,,,,,,,,,,METAR,77.0
CWQO 230800Z AUTO 20009KT 08/05 RMK AO1 T00820053,CWQO,2022-10-23T08:00:00Z,48.42,-68.9,8.2,5.3,200,9,,,,,,TRUE,TRUE,,,,,,,,,,,,,,,,,,,,,,,,,,,METAR,7.0
CWQK 230800Z AUTO 33001KT 09/ RMK AO1 SLP135 T0087 51020,CWQK,2022-10-23T08:00:00Z,48.3,-123.53,8.7,,330,1,,,,1013.5,,TRUE,TRUE,,,,,,,,,,,,,,,,2.0,,,,,,,,,,,METAR,5.0
CWQH 230800Z AUTO 06004KT 04/03 RMK AO1 SLP266 T00400026 51010,CWQH,2022-10-23T08:00:00Z,45.37,-71.82,4.0,2.6,60,4,,,,1026.6,,TRUE,TRUE,,,,,,,,,,,,,,,,1.0,,,,,,,,,,,METAR,181.0
CWPZ 230800Z AUTO 00000KT M07/M08 RMK AO1 SLP165 T10661079 53008,CWPZ,2022-10-23T08:00:00Z,54.38,-125.97,-6.6,-7.9,0,0,,,,1016.5,,TRUE,TRUE,,,,,,,,,,,,,,,,0.8,,,,,,,,,,,METAR,715.0
CWPX 230800Z AUTO 31020KT ////SM //// OVC018 M16/M18 A2985,CWPX,2022-10-23T08:00:00Z,69.03,-107.82,-16.0,-18.0,310,20,,,29.84941,,,TRUE,,,,,,,,OVC,1800,,,,,,,,,,,,,,,,,,,METAR,163.0
CWPR 230800Z AUTO 34002KT 01/01 RMK AO1 SOG 01 2019 SLP135 T00070006,CWPR,2022-10-23T08:00:00Z,49.47,-120.52,0.7,0.6,340,2,,,,1013.5,,TRUE,TRUE,,,,,,,,,,,,,,,,,,,,,,,,,,,METAR,703.0
CWPO 230800Z AUTO 05016G22KT 06/05 RMK AO1 PK WND 06024/0717 SLP063 T00640051 52004,CWPO,2022-10-23T08:00:00Z,49.2,-98.9,6.4,5.1,50,16,22,,,1006.3,,TRUE,TRUE,,,,,,,,,,,,,,,,0.4,,,,,,,,,,,METAR,471.0
CWPK 230800Z AUTO 18003KT 09/04 RMK AO1 SLP229 T00900042 51009,CWPK,2022-10-23T08:00:00Z,47.92,-74.62,9.0,4.2,180,3,,,,1022.9,,TRUE,TRUE,,,,,,,,,,,,,,,,0.9,,,,,,,,,,,METAR,443.0
CWPE 230800Z AUTO 28002KT 11/10 RMK AO1 SLP271 T01080100 56002,CWPE,2022-10-23T08:00:00Z,45.07,-66.47,10.8,10.0,280,2,,,,1027.1,,TRUE,TRUE,,,,,,,,,,,,,,,,-0.2,,,,,,,,,,,METAR,9.0
CWPD 230800Z AUTO 21006KT 01/01 RMK AO1 SLP246 T00120009 53012,CWPD,2022-10-23T08:00:00Z,47.57,-71.22,1.2,0.9,210,6,,,,1024.6,,TRUE,TRUE,,,,,,,,,,,,,,,,1.2,,,,,,,,,,,METAR,795.0
CWPC 230800Z AUTO 17008KT 14/06 RMK AO1 SLP232 T01420055 50006,CWPC,2022-10-23T08:00:00Z,42.87,-79.25,14.2,5.5,170,8,,,,1023.2,,TRUE,TRUE,,,,,,,,,,,,,,,,0.6,,,,,,,,,,,METAR,174.0
CWOY 230800Z AUTO 08008KT 02/M03 RMK AO1 SLP120 T00231034 51006,CWOY,2022-10-23T08:00:00Z,51.77,-104.2,2.3,-3.4,80,8,,,,1012.0,,TRUE,TRUE,,,,,,,,,,,,,,,,0.6,,,,,,,,,,,METAR,557.0
CWOE 230800Z AUTO 02015KT 01/M00 RMK AO1 6PAST HR SOG 03 1002 PK WND 03020/0708 SLP050 P0006 T00101004 50026,CWOE,2022-10-23T08:00:00Z,49.12,-110.47,1.0,-0.4,20,15,,,,1005.0,,TRUE,TRUE,,,,,,,,,,,,,,,,2.6,,,,,0.06,,,,,,METAR,931.0
CWOD 230800Z AUTO 00000KT 04/03 RMK AO1 SLP224 T00360028 51006,CWOD,2022-10-23T08:00:00Z,48.85,-72.55,3.6,2.8,0,0,,,,1022.4,,TRUE,TRUE,,,,,,,,,,,,,,,,0.6,,,,,,,,,,,METAR,150.0
CWOC 230800Z AUTO 29007KT 10/06 RMK AO1 SLP243 T01000062 53014,CWOC,2022-10-23T08:00:00Z,48.02,-65.32,10.0,6.2,290,7,,,,1024.3,,TRUE,TRUE,,,,,,,,,,,,,,,,1.4,,,,,,,,,,,METAR,42.0
CWNZ 230800Z AUTO 11003KT 01/01 RMK AO1 SLP144 T00130010 58003,CWNZ,2022-10-23T08:00:00Z,49.75,-84.17,1.3,1.0,110,3,,,,1014.4,,TRUE,TRUE,,,,,,,,,,,,,,,,-0.3,,,,,,,,,,,METAR,261.0
CWNQ 230800Z AUTO 09001KT 06/04 RMK AO1 SLP249 T00580039 51015,CWNQ,2022-10-23T08:00:00Z,46.22,-72.65,5.8,3.9,90,1,,,,1024.9,,TRUE,TRUE,,,,,,,,,,,,,,,,1.5,,,,,,,,,,,METAR,9.0
CWNP 230800Z AUTO 10003KT 05/02 RMK AO1 SLP100 T00480023 51018,CWNP,2022-10-23T08:00:00Z,50.27,-117.82,4.8,2.3,100,3,,,,1010.0,,TRUE,TRUE,,,,,,,,,,,,,,,,1.8,,,,,,,,,,,METAR,517.0
CWNM 230800Z AUTO 23002KT 05/05 RMK AO1 SLP097 T00510051 51017,CWNM,2022-10-23T08:00:00Z,49.5,-117.3,5.1,5.1,230,2,,,,1009.7,,TRUE,TRUE,,,,,,,,,,,,,,,,1.7,,,,,,,,,,,METAR,533.0
CWNK 230800Z AUTO 03011G16KT 07/05 RMK AO1 PK WND 04019/0745 SLP060 T00700050 51004,CWNK,2022-10-23T08:00:00Z,49.5,-98.03,7.0,5.0,30,11,16,,,1006.0,,TRUE,TRUE,,,,,,,,,,,,,,,,0.4,,,,,,,,,,,METAR,271.0
CWNH 230800Z AUTO 19005KT 11/04 RMK AO1 SLP243 T01050038 51014,CWNH,2022-10-23T08:00:00Z,47.8,-69.53,10.5,3.8,190,5,,,,1024.3,,TRUE,TRUE,,,,,,,,,,,,,,,,1.4,,,,,,,,,,,METAR,147.0
CWNE 230800Z AUTO 23021KT 12/09 RMK AO1 PK WND 23026/0709 SLP250 T01200094 53008,CWNE,2022-10-23T08:00:00Z,47.07,-64.0,12.0,9.4,230,21,,,,1025.0,,TRUE,TRUE,,,,,,,,,,,,,,,,0.8,,,,,,,,,,,METAR,5.0
CWND 230800Z AUTO 11016KT M08/M10 RMK AO1 PK WND 11020/0700 SLP170 T10751096 52002,CWND,2022-10-23T08:00:00Z,69.63,-135.43,-7.5,-9.6,110,16,,,,1017.0,,TRUE,TRUE,,,,,,,,,,,,,,,,0.2,,,,,,,,,,,METAR,14.0
CWNC 230800Z AUTO 05004KT 08/05 RMK AO1 SLP225 T00810051 50006,CWNC,2022-10-23T08:00:00Z,43.95,-78.17,8.1,5.1,50,4,,,,1022.5,,TRUE,TRUE,,,,,,,,,,,,,,,,0.6,,,,,,,,,,,METAR,71.0
CWMT 230800Z AUTO 17004KT M06/M08 RMK AO1 SLP205 T10611076 50002,CWMT,2022-10-23T08:00:00Z,63.13,-117.25,-6.1,-7.6,170,4,,,,1020.5,,TRUE,TRUE,,,,,,,,,,,,,,,,0.2,,,,,,,,,,,METAR,274.0
CWMQ 230800Z AUTO 05013KT 03/02 RMK AO1 6PAST HR 5004 PK WND 03018/0727 SLP068 P0002 T00340023 50015,CWMQ,2022-10-23T08:00:00Z,49.9,-109.47,3.4,2.3,50,13,,,,1006.8,,TRUE,TRUE,,,,,,,,,,,,,,,,1.5,,,,,0.02,,,,,,METAR,767.0
CWMM 230800Z AUTO 25001KT 05/04 RMK AO1 SLP139 T00510035 51019,CWMM,2022-10-23T08:00:00Z,49.22,-122.68,5.1,3.5,250,1,,,,1013.9,,TRUE,TRUE,,,,,,,,,,,,,,,,1.9,,,,,,,,,,,METAR,2.0
CWMJ 230800Z AUTO 19003KT 07/04 RMK AO1 SLP232 T00680041 51008,CWMJ,2022-10-23T08:00:00Z,46.27,-76.0,6.8,4.1,190,3,,,,1023.2,,TRUE,TRUE,,,,,,,,,,,,,,,,0.8,,,,,,,,,,,METAR,198.0
CWME 230800Z AUTO 07003KT 07/06 RMK AO1 SLP148 T00730057 51003,CWME,2022-10-23T08:00:00Z,52.18,-127.47,7.3,5.7,70,3,,,,1014.8,,TRUE,TRUE,,,,,,,,,,,,,,,,0.3,,,,,,,,,,,METAR,23.0
CWLY 230800Z AUTO 00000KT 1/4SM FG VV002 03/03 A2993 RMK SLP144,CWLY,2022-10-23T08:00:00Z,50.22,-121.58,3.0,3.0,0,0,,0.25,29.929134,1014.4,,TRUE,,,,,,,FG,OVX,0,,,,,,,LIFR,,,,,,,,,,,200,METAR,228.0
CWLX 230800Z AUTO ///// ////SM ////// M07/M09 A2938,CWLX,2022-10-23T08:00:00Z,68.9,-75.15,-7.0,-9.0,,,,,29.379921,,,TRUE,,,,,,,,,,,,,,,,,,,,,,,,,,,,METAR,129.0
CWLS 230800Z AUTO 17005KT 13/08 RMK AO1 SLP208 T01270076 51006,CWLS,2022-10-23T08:00:00Z,43.97,-80.75,12.7,7.6,170,5,,,,1020.8,,TRUE,TRUE,,,,,,,,,,,,,,,,0.6,,,,,,,,,,,METAR,413.0
CWLM 230800Z AUTO 35008KT 07/05 RMK AO1 SLP132 T00710046 51020,CWLM,2022-10-23T08:00:00Z,48.42,-123.32,7.1,4.6,350,8,,,,1013.2,,TRUE,TRUE,,,,,,,,,,,,,,,,2.0,,,,,,,,,,,METAR,62.0
CWLI 230800Z AUTO 11006KT ////SM OVC030 M09/M10 A3015,CWLI,2022-10-23T08:00:00Z,69.6,-130.9,-9.0,-10.0,110,6,,,30.15059,,,TRUE,,,,,,,,OVC,3000,,,,,,,,,,,,,,,,,,,METAR,92.0
CWLE 230800Z AUTO 07012KT 03/02 RMK AO1 3PAST HR 0000 PK WND 08019/0708 SLP089 P0001 T00300016 50008,CWLE,2022-10-23T08:00:00Z,50.95,-107.15,3.0,1.6,70,12,,,,1008.9,,TRUE,TRUE,,,,,,,,,,,,,,,,0.8,,,,,0.01,,,,,,METAR,666.0
CWLC 230800Z AUTO 13013KT 07/04 RMK AO1 T00740042,CWLC,2022-10-23T08:00:00Z,54.3,-130.62,7.4,4.2,130,13,,,,,,TRUE,TRUE,,,,,,,,,,,,,,,,,,,,,,,,,,,METAR,27.0
CWKX 230800Z AUTO 35001KT M01/M01 RMK AO1 SLP135 T10091011 58010,CWKX,2022-10-23T08:00:00Z,58.43,-130.02,-0.9,-1.1,350,1,,,,1013.5,,TRUE,TRUE,,,,,,,,,,,,,,,,-1.0,,,,,,,,,,,METAR,807.0
CWKP 230800Z AUTO 25014KT ////SM OVC024 M11/M12 A3003,CWKP,2022-10-23T08:00:00Z,69.67,-121.67,-11.0,-12.0,250,14,,,30.029528,,,TRUE,,,,,,,,OVC,2400,,,,,,,,,,,,,,,,,,,METAR,322.0
CWKO 230800Z AUTO 07004KT 03/02 RMK AO1 3PAST HR 3002 PK WND 04018/0704 SLP041 P0001 T00280019 50006,CWKO,2022-10-23T08:00:00Z,49.17,-105.97,2.8,1.9,70,4,,,,1004.1,,TRUE,TRUE,,,,,,,,,,,,,,,,0.6,,,,,0.01,,,,,,METAR,914.0
CWKM 230800Z AUTO 11015KT ////SM OVC003 M06/M07 A3005,CWKM,2022-10-23T08:00:00Z,69.6,-140.17,-6.0,-7.0,110,15,,,30.050198,,,TRUE,,,,,,,,OVC,300,,,,,,,,,,,,,,,,,,,METAR,8.0
CWKK 230800Z AUTO 10014KT 09/ RMK AO1 SLP112 T0091 58005,CWKK,2022-10-23T08:00:00Z,49.72,-88.33,9.1,,100,14,,,,1011.2,,TRUE,TRUE,,,,,,,,,,,,,,,,-0.5,,,,,,,,,,,METAR,259.0
CWKH 230800Z AUTO 06/03 RMK AO1 SLP123 T00560026 51019,CWKH,2022-10-23T08:00:00Z,48.57,-123.55,5.6,2.6,,,,,,1012.3,,TRUE,TRUE,,,,,,,,,,,,,,,,1.9,,,,,,,,,,,METAR,327.0
CWKG 230800Z AUTO 03001KT 03/03 RMK AO1 SLP286 T00330029 53002,CWKG,2022-10-23T08:00:00Z,44.43,-65.2,3.3,2.9,30,1,,,,1028.6,,TRUE,TRUE,,,,,,,,,,,,,,,,0.2,,,,,,,,,,,METAR,154.0
CWJX 230800Z AUTO 03008KT 03/01 RMK AO1 5PAST HR 1009 SLP088 P0002 T00320006 50005,CWJX,2022-10-23T08:00:00Z,50.88,-109.5,3.2,0.6,30,8,,,,1008.8,,TRUE,TRUE,,,,,,,,,,,,,,,,0.5,,,,,0.02,,,,,,METAR,671.0
CWJW 230800Z AUTO 36005KT 01/M02 RMK AO1 SLP139 T00141015 51013,CWJW,2022-10-23T08:00:00Z,52.93,-118.03,1.4,-1.5,360,5,,,,1013.9,,TRUE,TRUE,,,,,,,,,,,,,,,,1.3,,,,,,,,,,,METAR,1022.0
CWJV 230800Z AUTO 36001KT 02/M00 RMK AO1 SLP116 T00161003 51021,CWJV,2022-10-23T08:00:00Z,50.22,-119.18,1.6,-0.3,360,1,,,,1011.6,,TRUE,TRUE,,,,,,,,,,,,,,,,2.1,,,,,,,,,,,METAR,487.0
CWJU 230800Z AUTO 17006KT 08/06 RMK AO1 SLP123 T00790055 56013,CWJU,2022-10-23T08:00:00Z,54.25,-133.07,7.9,5.5,170,6,,,,1012.3,,TRUE,TRUE,,,,,,,,,,,,,,,,-1.3,,,,,,,,,,,METAR,47.0
CWJT 230800Z AUTO 06001KT 04/ RMK AO1 SLP246 T0036 51011,CWJT,2022-10-23T08:00:00Z,46.07,-74.57,3.6,,60,1,,,,1024.6,,TRUE,TRUE,,,,,,,,,,,,,,,,1.1,,,,,,,,,,,METAR,236.0
CWJR 230800Z AUTO 14002KT 04/04 RMK AO1 SLP096 T00380035 53016,CWJR,2022-10-23T08:00:00Z,49.03,-116.5,3.8,3.5,140,2,,,,1009.6,,TRUE,TRUE,,,,,,,,,,,,,,,,1.6,,,,,,,,,,,METAR,642.0
CWJO 230800Z AUTO 07004KT 07/05 RMK AO1 SLP230 T00650046 51007,CWJO,2022-10-23T08:00:00Z,48.43,-71.15,6.5,4.6,70,4,,,,1023.0,,TRUE,TRUE,,,,,,,,,,,,,,,,0.7,,,,,,,,,,,METAR,113.0
CWJI 230800Z AUTO 06020G26KT 03/01 RMK AO1 6PAST HR 8008 PK WND 06026/0748 SLP047 P0006 T00290012 50034,CWJI,2022-10-23T08:00:00Z,49.72,-105.93,2.9,1.2,60,20,26,,,1004.7,,TRUE,TRUE,,,,,,,,,,,,,,,,3.4,,,,,0.06,,,,,,METAR,724.0
CWJH 230800Z AUTO 08002KT 01/M02 RMK AO1 SLP187 T00141015 53023,CWJH,2022-10-23T08:00:00Z,56.32,-103.27,1.4,-1.5,80,2,,,,1018.7,,TRUE,TRUE,,,,,,,,,,,,,,,,2.3,,,,,,,,,,,METAR,345.0
CWJD 230800Z AUTO 05005KT 04/01 RMK AO1 SLP153 T00430005 50011,CWJD,2022-10-23T08:00:00Z,53.18,-99.27,4.3,0.5,50,5,,,,1015.3,,TRUE,TRUE,,,,,,,,,,,,,,,,1.1,,,,,,,,,,,METAR,222.0
CWJC 230800Z AUTO 33013KT M09/M11 RMK AO1 SOG 09 1024 PK WND 35017/0746 SLP206 T10901114,CWJC,2022-10-23T08:00:00Z,61.13,-100.9,-9.0,-11.4,330,13,,,,1020.6,,TRUE,TRUE,,,,,,,,,,,,,,,,,,,,,,,,,,,METAR,340.0
CWJB 230800Z AUTO 22001KT 07/04 RMK AO1 T00680044,CWJB,2022-10-23T08:00:00Z,46.78,-71.28,6.8,4.4,220,1,,,,,,TRUE,TRUE,,,,,,,,,,,,,,,,,,,,,,,,,,,METAR,90.0
CWIZ 230800Z AUTO 18005KT 10/05 RMK AO1 T00950051,CWIZ,2022-10-23T08:00:00Z,45.28,-73.33,9.5,5.1,180,5,,,,,,TRUE,TRUE,,,,,,,,,,,,,,,,,,,,,,,,,,,METAR,45.0
CWIW 230800Z AUTO 07010KT 03/M01 RMK AO1 SLP113 T00301011 51007,CWIW,2022-10-23T08:00:00Z,51.67,-105.4,3.0,-1.1,70,10,,,,1011.3,,TRUE,TRUE,,,,,,,,,,,,,,,,0.7,,,,,,,,,,,METAR,524.0
CWIT 230800Z AUTO 14001KT 08/04 RMK AO1 SLP244 T00830040 52009,CWIT,2022-10-23T08:00:00Z,45.17,-73.67,8.3,4.0,140,1,,,,1024.4,,TRUE,TRUE,,,,,,,,,,,,,,,,0.9,,,,,,,,,,,METAR,53.0
CWIS 230800Z AUTO 25003KT 10/02 RMK AO1 SLP256 T01020023 53014,CWIS,2022-10-23T08:00:00Z,47.28,-70.63,10.2,2.3,250,3,,,,1025.6,,TRUE,TRUE,,,,,,,,,,,,,,,,1.4,,,,,,,,,,,METAR,720.0
CWIP 230800Z AUTO 33002KT 05/04 RMK AO1 T00480043,CWIP,2022-10-23T08:00:00Z,50.17,-66.43,4.8,4.3,330,2,,,,,,TRUE,TRUE,,,,,,,,,,,,,,,,,,,,,,,,,,,METAR,27.0
CWIL 230800Z AUTO ///// ////SM OVC011 ///// A////,CWIL,2022-10-23T08:00:00Z,68.32,-100.07,,,,,,,,,,TRUE,,,,,,,,OVC,1100,,,,,,,,,,,,,,,,,,,METAR,28.0
CWIK 230800Z AUTO 06013G20KT 02/01 RMK AO1 8PAST HR 5001 PK WND 05020/0752 SLP087 P0003 T00240011 50010,CWIK,2022-10-23T08:00:00Z,50.37,-102.58,2.4,1.1,60,13,20,,,1008.7,,TRUE,TRUE,,,,,,,,,,,,,,,,1.0,,,,,0.03,,,,,,METAR,597.0
CWIJ 230800Z AUTO 32010KT M13/M15 RMK AO1 SOG 07 1009 SLP211 T11331152,CWIJ,2022-10-23T08:00:00Z,65.77,-111.23,-13.3,-15.2,320,10,,,,1021.1,,TRUE,TRUE,,,,,,,,,,,,,,,,,,,,,,,,,,,METAR,490.0
CWIG 230800Z AUTO 19013KT RMK AO1 PK WND 19017/0758,CWIG,2022-10-23T08:00:00Z,47.07,-70.53,,,190,13,,,,,,TRUE,TRUE,,,,,,,,,,,,,,,,,,,,,,,,,,,METAR,12.0
CWID 230800Z AUTO 27003KT M06/M08 RMK AO1 SLP211 T10641077 51006,CWID,2022-10-23T08:00:00Z,61.32,-117.6,-6.4,-7.7,270,3,,,,1021.1,,TRUE,TRUE,,,,,,,,,,,,,,,,0.6,,,,,,,,,,,METAR,160.0
CWHV 230800Z AUTO 18002KT 04/02 RMK AO1 SLP261 T00350023 53013,CWHV,2022-10-23T08:00:00Z,46.2,-70.78,3.5,2.3,180,2,,,,1026.1,,TRUE,TRUE,,,,,,,,,,,,,,,,1.3,,,,,,,,,,,METAR,227.0
CWHT 230800Z AUTO 29003KT 01/M06 RMK AO1 SLP108 T00051059 58002,CWHT,2022-10-23T08:00:00Z,60.77,-137.58,0.5,-5.9,290,3,,,,1010.8,,TRUE,TRUE,,,,,,,,,,,,,,,,-0.2,,,,,,,,,,,METAR,601.0
CWHQ 230800Z AUTO 34001KT 02/02 RMK AO1 T00190015,CWHQ,2022-10-23T08:00:00Z,46.68,-71.97,1.9,1.5,340,1,,,,,,TRUE,TRUE,,,,,,,,,,,,,,,,,,,,,,,,,,,METAR,56.0
CWHP 230800Z AUTO 23010KT 08/07 RMK AO1 SLP219 T00750068 53013,CWHP,2022-10-23T08:00:00Z,49.08,-61.7,7.5,6.8,230,10,,,,1021.9,,TRUE,TRUE,,,,,,,,,,,,,,,,1.3,,,,,,,,,,,METAR,7.0
CWHO 230800Z AUTO 00027KT 09/04 RMK AO1 SLP095 T00850038 53012,CWHO,2022-10-23T08:00:00Z,55.45,-60.22,8.5,3.8,0,27,,,,1009.5,,TRUE,TRUE,,,,,,,,,,,,,,,,1.2,,,,,,,,,,,METAR,16.0
CWHL 230800Z AUTO 09006KT 07/04 RMK AO1 SLP131 T00690039 56008,CWHL,2022-10-23T08:00:00Z,54.17,-130.35,6.9,3.9,90,6,,,,1013.1,,TRUE,TRUE,,,,,,,,,,,,,,,,-0.8,,,,,,,,,,,METAR,5.0
CWHI 230800Z AUTO 33005KT 01/M00 RMK AO1 5PAST HR M P0002 T00081002 50005,CWHI,2022-10-23T08:00:00Z,51.7,-113.22,0.8,-0.2,330,5,,,,,,TRUE,TRUE,,,,,,,,,,,,,,,,0.5,,,,,0.02,,,,,,METAR,906.0
CWGY 230800Z AUTO 34002KT 02/M02 RMK AO1 SLP114 T00161018 51012,CWGY,2022-10-23T08:00:00Z,51.67,-110.2,1.6,-1.8,340,2,,,,1011.4,,TRUE,TRUE,,,,,,,,,,,,,,,,1.2,,,,,,,,,,,METAR,709.0
CWGW 230800Z AUTO 31003KT 01/M02 RMK AO1 SLP109 T00081019 51010,CWGW,2022-10-23T08:00:00Z,49.75,-114.9,0.8,-1.9,310,3,,,,1010.9,,TRUE,TRUE,,,,,,,,,,,,,,,,1.0,,,,,,,,,,,METAR,1137.0
CWGT 230800Z AUTO 31016KT 10/04 RMK AO1 PK WND 31020/0745 SLP137 T00990035 51021,CWGT,2022-10-23T08:00:00Z,49.48,-124.43,9.9,3.5,310,16,,,,1013.7,,TRUE,TRUE,,,,,,,,,,,,,,,,2.1,,,,,,,,,,,METAR,5.0
CWGR 230800Z AUTO 24013G19KT 11/08 RMK AO1 PK WND 23019/0751 SLP249 T01100082 53005,CWGR,2022-10-23T08:00:00Z,47.42,-61.77,11.0,8.2,240,13,19,,,1024.9,,TRUE,TRUE,,,,,,,,,,,,,,,,0.5,,,,,,,,,,,METAR,4.0
CWGM 230800Z AUTO 02011KT M01/M02 RMK AO1 4PAST HR SOG 28 1008 PK WND 03017/0733 SLP108 P0002 T10121019 50013,CWGM,2022-10-23T08:00:00Z,49.13,-113.8,-1.2,-1.9,20,11,,,,1010.8,,TRUE,TRUE,,,,,,,,,,,,,,,,1.3,,,,,0.02,,,,,,METAR,1292.0
CWGL 230800Z AUTO 13005KT 12/06 RMK AO1 SLP206 T01200061 51011,CWGL,2022-10-23T08:00:00Z,44.53,-79.22,12.0,6.1,130,5,,,,1020.6,,TRUE,TRUE,,,,,,,,,,,,,,,,1.1,,,,,,,,,,,METAR,220.0
CWGH 230800Z AUTO 00000KT 10/05 RMK AO1 SLP242 T00950048 51012,CWGH,2022-10-23T08:00:00Z,44.42,-75.85,9.5,4.8,0,0,,,,1024.2,,TRUE,TRUE,,,,,,,,,,,,,,,,1.2,,,,,,,,,,,METAR,76.0
CWGD 230800Z AUTO 16007KT 15/09 RMK AO1 SLP193 T01470088 51006,CWGD,2022-10-23T08:00:00Z,43.77,-81.72,14.7,8.8,160,7,,,,1019.3,,TRUE,TRUE,,,,,,,,,,,,,,,,0.6,,,,,,,,,,,METAR,214.0
CWGB 230800Z AUTO 25012KT 10/ RMK AO1 PK WND 26018/0710 SLP132 T0096 51020,CWGB,2022-10-23T08:00:00Z,49.35,-124.13,9.6,,250,12,,,,1013.2,,TRUE,TRUE,,,,,,,,,,,,,,,,2.0,,,,,,,,,,,METAR,6.0
CWFQ 230800Z AUTO 16004KT 13/02 RMK AO1 SLP253 T01250018 52007,CWFQ,2022-10-23T08:00:00Z,45.03,-72.85,12.5,1.8,160,4,,,,1025.3,,TRUE,TRUE,,,,,,,,,,,,,,,,0.7,,,,,,,,,,,METAR,190.0
CWFJ 230800Z AUTO 35013G18KT M01/M01 RMK AO1 2PAST HR M PK WND 36018/0758 P0001 T10071009 50009,CWFJ,2022-10-23T08:00:00Z,49.2,-113.27,-0.7,-0.9,350,13,18,,,,,TRUE,TRUE,,,,,,,,,,,,,,,,0.9,,,,,0.01,,,,,,METAR,1142.0
CWFF 230800Z AUTO 05006KT M01/M05 RMK AO1 SLP141 T10061047 50008,CWFF,2022-10-23T08:00:00Z,52.82,-104.6,-0.6,-4.7,50,6,,,,1014.1,,TRUE,TRUE,,,,,,,,,,,,,,,,0.8,,,,,,,,,,,METAR,482.0
CWFD 230800Z AUTO ///// ////SM OVC002 M03/M04 A2908,CWFD,2022-10-23T08:00:00Z,66.58,-61.58,-3.0,-4.0,,,,,29.078741,,,TRUE,,,,,,,,OVC,200,,,,,,,,,,,,,,,,,,,METAR,375.0
CWEZ 230800Z AUTO 33002KT 08/07 RMK AO1 SLP129 T00830068 51018,CWEZ,2022-10-23T08:00:00Z,48.78,-123.05,8.3,6.8,330,2,,,,1012.9,,TRUE,TRUE,,,,,,,,,,,,,,,,1.8,,,,,,,,,,,METAR,23.0
CWEW 230800Z AUTO 00000KT 05/04 RMK AO1 SLP255 T00510040 51012,CWEW,2022-10-23T08:00:00Z,45.82,-73.43,5.1,4.0,0,0,,,,1025.5,,TRUE,TRUE,,,,,,,,,,,,,,,,1.2,,,,,,,,,,,METAR,17.0
CWEU 230800Z 01009KT 15SM IC SKC M20/M25 A2966 RMK SLP061,CWEU,2022-10-23T08:00:00Z,80.0,-85.93,-20.0,-25.0,10,9,,15.0,29.660433,1006.1,,,,,,,,,IC,SKC,,,,,,,,VFR,,,,,,,,,,,,METAR,2.0
CWER 230800Z AUTO 23015KT RMK AO1 PK WND 22018/0753,CWER,2022-10-23T08:00:00Z,47.0,-70.82,,,230,15,,,,,,TRUE,TRUE,,,,,,,,,,,,,,,,,,,,,,,,,,,METAR,4.0
CWEQ 230800Z AUTO 04008KT 01/M01 RMK AO1 SLP138 T00131014 51004,CWEQ,2022-10-23T08:00:00Z,52.12,-101.22,1.3,-1.4,40,8,,,,1013.8,,TRUE,TRUE,,,,,,,,,,,,,,,,0.4,,,,,,,,,,,METAR,331.0
CWEP 230800Z AUTO 21010KT 11/08 RMK AO1 SLP270 T01120082 53001,CWEP,2022-10-23T08:00:00Z,46.45,-61.98,11.2,8.2,210,10,,,,1027.0,,TRUE,TRUE,,,,,,,,,,,,,,,,0.1,,,,,,,,,,,METAR,9.0
CWEL 230800Z AUTO 28014KT 10/05 RMK AO1 PK WND 31021/0711 SLP134 T01010046 53023,CWEL,2022-10-23T08:00:00Z,49.22,-123.8,10.1,4.6,280,14,,,,1013.4,,TRUE,TRUE,,,,,,,,,,,,,,,,2.3,,,,,,,,,,,METAR,0.0
CWEK 230800Z AUTO 08010KT 06/ RMK AO1 SLP112 T0064 56003,CWEK,2022-10-23T08:00:00Z,54.58,-130.7,6.4,,80,10,,,,1011.2,,TRUE,TRUE,,,,,,,,,,,,,,,,-0.3,,,,,,,,,,,METAR,8.0
CWEH 230800Z AUTO 05018KT 00/M01 RMK AO1 1PAST HR SOG 04 8003 PK WND 06025/0749 SLP041 P0016 T00001008 50044,CWEH,2022-10-23T08:00:00Z,49.43,-108.98,0.0,-0.8,50,18,,,,1004.1,,TRUE,TRUE,,,,,,,,,,,,,,,,4.4,,,,,0.16,,,,,,METAR,1077.0
CWEF 230800Z AUTO 25025KT 13/09 RMK AO1 PK WND 25029/0707 SLP243 T01300088 55000,CWEF,2022-10-23T08:00:00Z,47.22,-60.13,13.0,8.8,250,25,,,,1024.3,,TRUE,TRUE,,,,,,,,,,,,,,,,0.0,,,,,,,,,,,METAR,27.0
CWEB 230800Z AUTO 00033KT 07/03 RMK AO1 SLP134 T00650026 51010,CWEB,2022-10-23T08:00:00Z,49.38,-126.55,6.5,2.6,0,33,,,,1013.4,,TRUE,TRUE,,,,,,,,,,,,,,,,1.0,,,,,,,,,,,METAR,1.0
CWDZ 230800Z AUTO 32005KT 02/M00 RMK AO1 1007 SLP127 T00191004 50003,CWDZ,2022-10-23T08:00:00Z,51.43,-112.67,1.9,-0.4,320,5,,,,1012.7,,TRUE,TRUE,,,,,,,,,,,,,,,,0.3,,,,,,,,,,,METAR,689.0
CWDV 230800Z AUTO 09003KT 07/05 RMK AO1 SLP078 T00680050 56005,CWDV,2022-10-23T08:00:00Z,49.02,-90.47,6.8,5.0,90,3,,,,1007.8,,TRUE,TRUE,,,,,,,,,,,,,,,,-0.5,,,,,,,,,,,METAR,487.0
CWDQ 230800Z AUTO 01001KT 04/03 RMK AO1 SLP247 T00360031 51011,CWDQ,2022-10-23T08:00:00Z,47.42,-72.78,3.6,3.1,10,1,,,,1024.7,,TRUE,TRUE,,,,,,,,,,,,,,,,1.1,,,,,,,,,,,METAR,174.0
CWDO 230800Z AUTO 23017G24KT 09/05 RMK AO1 PK WND 25025/0708 SLP198 T00870046 56009,CWDO,2022-10-23T08:00:00Z,49.68,-54.78,8.7,4.6,230,17,24,,,1019.8,,TRUE,TRUE,,,,,,,,,,,,,,,,-0.9,,,,,,,,,,,METAR,89.0
CWDM 230800Z AUTO 23006KT 07/07 RMK AO1 SLP194 T00710066 53009,CWDM,2022-10-23T08:00:00Z,50.47,-59.63,7.1,6.6,230,6,,,,1019.4,,TRUE,TRUE,,,,,,,,,,,,,,,,0.9,,,,,,,,,,,METAR,2.0
CWDK 230800Z AUTO 36009KT M00/01 RMK AO1 2PAST HR SOG 17 1010 SLP126 P0001 T10010005 50004,CWDK,2022-10-23T08:00:00Z,50.02,-113.62,-0.1,0.5,360,9,,,,1012.6,,TRUE,TRUE,,,,,,,,,,,,,,,,0.4,,,,,0.01,,,,,,METAR,1014.0
CWDJ 230800Z AUTO 07016G22KT 03/M00 RMK AO1 3PAST HR 0002 PK WND 08023/0705 SLP076 P0001 T00291003 50007,CWDJ,2022-10-23T08:00:00Z,50.4,-104.58,2.9,-0.3,70,16,22,,,1007.6,,TRUE,TRUE,,,,,,,,,,,,,,,,0.7,,,,,0.01,,,,,,METAR,576.0
CWDC 230800Z AUTO 06003KT M03/M07 RMK AO1 SLP196 T10261066 51012,CWDC,2022-10-23T08:00:00Z,59.57,-108.48,-2.6,-6.6,60,3,,,,1019.6,,TRUE,TRUE,,,,,,,,,,,,,,,,1.2,,,,,,,,,,,METAR,311.0
CWDA 230800Z AUTO 27019G25KT 11/ RMK AO1 PK WND 27036/0702 T0111,CWDA,2022-10-23T08:00:00Z,50.72,-56.12,11.1,,270,19,25,,,,,TRUE,TRUE,,,,,,,,,,,,,,,,,,,,,,,,,,,METAR,30.0
CWCT 230800Z AUTO 04009KT 01/M00 RMK AO1 SLP134 T00101002 51007,CWCT,2022-10-23T08:00:00Z,52.07,-111.43,1.0,-0.2,40,9,,,,1013.4,,TRUE,TRUE,,,,,,,,,,,,,,,,0.7,,,,,,,,,,,METAR,793.0
CWCO 230800Z AUTO 16003KT 13/08 RMK AO1 SLP206 T01250075 52017,CWCO,2022-10-23T08:00:00Z,44.5,-80.22,12.5,7.5,160,3,,,,1020.6,,TRUE,TRUE,,,,,,,,,,,,,,,,1.7,,,,,,,,,,,METAR,182.0
CWCJ 230800Z AUTO 04006KT 07/05 RMK AO1 SLP115 T00650053 51002,CWCJ,2022-10-23T08:00:00Z,48.6,-86.28,6.5,5.3,40,6,,,,1011.5,,TRUE,TRUE,,,,,,,,,,,,,,,,0.2,,,,,,,,,,,METAR,207.0
CWCF 230800Z AUTO 03005KT M00/M02 RMK AO1 SLP140 T10041024 50004,CWCF,2022-10-23T08:00:00Z,52.35,-97.03,-0.4,-2.4,30,5,,,,1014.0,,TRUE,TRUE,,,,,,,,,,,,,,,,0.4,,,,,,,,,,,METAR,219.0
CWBZ 230800Z AUTO 00000KT 03/02 RMK AO1 SLP241 T00310021 51010,CWBZ,2022-10-23T08:00:00Z,45.12,-74.28,3.1,2.1,0,0,,,,1024.1,,TRUE,TRUE,,,,,,,,,,,,,,,,1.0,,,,,,,,,,,METAR,49.0
CWBY 230800Z AUTO 00000KT 04/03 RMK AO1 SLP222 T00410033 51014,CWBY,2022-10-23T08:00:00Z,49.83,-64.28,4.1,3.3,0,0,,,,1022.2,,TRUE,TRUE,,,,,,,,,,,,,,,,1.4,,,,,,,,,,,METAR,56.0
CWBV 230800Z AUTO 34003KT 12/12 RMK AO1 SLP270 T01210118 55001,CWBV,2022-10-23T08:00:00Z,44.82,-62.33,12.1,11.8,340,3,,,,1027.0,,TRUE,TRUE,,,,,,,,,,,,,,,,-0.1,,,,,,,,,,,METAR,16.0
CWBU 230800Z AUTO 06005KT M01/M05 RMK AO1 SLP150 T10101052 51011,CWBU,2022-10-23T08:00:00Z,53.33,-104.02,-1.0,-5.2,60,5,,,,1015.0,,TRUE,TRUE,,,,,,,,,,,,,,,,1.1,,,,,,,,,,,METAR,369.0
CWBT 230800Z AUTO 30002KT M01/M01 RMK AO1 SLP218 T10061006 51018,CWBT,2022-10-23T08:00:00Z,50.27,-64.23,-0.6,-0.6,300,2,,,,1021.8,,TRUE,TRUE,,,,,,,,,,,,,,,,1.8,,,,,,,,,,,METAR,12.0
CWBS 230800Z AUTO 25003KT 12/06 RMK AO1 T01160059,CWBS,2022-10-23T08:00:00Z,46.18,-72.92,11.6,5.9,250,3,,,,,,TRUE,TRUE,,,,,,,,,,,,,,,,,,,,,,,,,,,METAR,3.0
CWBO 230800Z AUTO 01009KT 02/M00 RMK AO1 3PAST HR 1004 SLP107 P0001 T00181004 50003,CWBO,2022-10-23T08:00:00Z,50.53,-111.83,1.8,-0.4,10,9,,,,1010.7,,TRUE,TRUE,,,,,,,,,,,,,,,,0.3,,,,,0.01,,,,,,METAR,752.0
CWBK 230800Z AUTO 20005KT 09/08 RMK AO1 SLP277 T00930081 55000,CWBK,2022-10-23T08:00:00Z,45.77,-62.67,9.3,8.1,200,5,,,,1027.7,,TRUE,TRUE,,,,,,,,,,,,,,,,0.0,,,,,,,,,,,METAR,2.0
CWBA 230800Z AUTO 16005KT 09/08 RMK AO1 T00900084,CWBA,2022-10-23T08:00:00Z,46.72,-79.1,9.0,8.4,160,5,,,,,,TRUE,TRUE,,,,,,,,,,,,,,,,,,,,,,,,,,,METAR,181.0
CWAV 230800Z AUTO 01002KT M00/M00 RMK AO1 SLP147 T10011004 51012,CWAV,2022-10-23T08:00:00Z,51.77,-114.67,-0.1,-0.4,10,2,,,,1014.7,,TRUE,TRUE,,,,,,,,,,,,,,,,1.2,,,,,,,,,,,METAR,1115.0
CWAR 230800Z AUTO 20017KT 12/10 RMK AO1 PK WND 20022/0724 SLP263 T01230100 58005,CWAR,2022-10-23T08:00:00Z,47.28,-54.0,12.3,10.0,200,17,,,,1026.3,,TRUE,TRUE,,,,,,,,,,,,,,,,-0.5,,,,,,,,,,,METAR,6.0
CWAQ 230800Z AUTO 07014G20KT 05/03 RMK AO1 PK WND 07020/0750 SLP032 T00450030 58002,CWAQ,2022-10-23T08:00:00Z,49.05,-105.48,4.5,3.0,70,14,20,,,1003.2,,TRUE,TRUE,,,,,,,,,,,,,,,,-0.2,,,,,,,,,,,METAR,761.0
CWAJ 230800Z AUTO 17009KT RMK AO1 51006,CWAJ,2022-10-23T08:00:00Z,42.25,-81.9,,,170,9,,,,,,TRUE,TRUE,,,,,,,,,,,,,,,,0.6,,,,,,,,,,,METAR,177.0
CWAF 230800Z AUTO 21003KT 08/05 RMK AO1 T00770047,CWAF,2022-10-23T08:00:00Z,48.07,-69.55,7.7,4.7,210,3,,,,,,TRUE,TRUE,,,,,,,,,,,,,,,,,,,,,,,,,,,METAR,6.0
CTRA 230800Z AUTO 05006KT 07/05 RMK AO1 SLP063 T00680049 57004,CTRA,2022-10-23T08:00:00Z,49.67,-93.73,6.8,4.9,50,6,,,,1006.3,,TRUE,TRUE,,,,,,,,,,,,,,,,-0.4,,,,,,,,,,,METAR,432.0
CTNK 230800Z AUTO 10001KT 02/02 RMK AO1 SLP228 T00150021 51009,CTNK,2022-10-23T08:00:00Z,45.53,-78.27,1.5,2.1,100,1,,,,1022.8,,TRUE,TRUE,,,,,,,,,,,,,,,,0.9,,,,,,,,,,,METAR,405.0
CTCK 230800Z AUTO 00000KT 06/04 RMK AO1 SLP240 T00640036 51014,CTCK,2022-10-23T08:00:00Z,45.25,-74.97,6.4,3.6,0,0,,,,1024.0,,TRUE,TRUE,,,,,,,,,,,,,,,,1.4,,,,,,,,,,,METAR,84.0
CPSV 230800Z AUTO 02013KT 03/02 RMK AO1 3PAST HR M PK WND 02021/0701 P0005 T00280022 50026,CPSV,2022-10-23T08:00:00Z,49.92,-110.92,2.8,2.2,20,13,,,,,,TRUE,TRUE,,,,,,,,,,,,,,,,2.6,,,,,0.05,,,,,,METAR,766.0
CPST 230800Z AUTO 03008KT M00/M00 RMK AO1 T10021002,CPST,2022-10-23T08:00:00Z,51.03,-113.28,-0.2,-0.2,30,8,,,,,,TRUE,TRUE,,,,,,,,,,,,,,,,,,,,,,,,,,,METAR,1005.0
CPRY 230800Z AUTO 35013KT M00/M00 RMK AO1 5PAST HR M P0002 T10021001 50005,CPRY,2022-10-23T08:00:00Z,49.48,-112.68,-0.2,-0.1,350,13,,,,,,TRUE,TRUE,,,,,,,,,,,,,,,,0.5,,,,,0.02,,,,,,METAR,947.0
CPRO 230800Z AUTO 36006KT 02/M00 RMK AO1 T00211004,CPRO,2022-10-23T08:00:00Z,50.83,-112.05,2.1,-0.4,360,6,,,,,,TRUE,TRUE,,,,,,,,,,,,,,,,,,,,,,,,,,,METAR,733.0
CPIR 230800Z AUTO 36012KT M00/M00 RMK AO1 PK WND 01017/0759 T10031003 50006,CPIR,2022-10-23T08:00:00Z,49.9,-112.73,-0.3,-0.3,360,12,,,,,,TRUE,TRUE,,,,,,,,,,,,,,,,0.6,,,,,,,,,,,METAR,895.0
CPIN 230800Z AUTO 27009KT ////SM FEW016 SCT023 BKN032 ///// A////,CPIN,2022-10-23T08:00:00Z,,,,,270,9,,,,,,TRUE,,,,,,,,FEW,1600,SCT,2300,BKN,3200,,,,,,,,,,,,,,,METAR,
CPFI 230800Z AUTO 01015KT 02/01 RMK AO1 5PAST HR M PK WND 01021/0757 P0002 T00190012 50013,CPFI,2022-10-23T08:00:00Z,49.8,-112.03,1.9,1.2,10,15,,,,,,TRUE,TRUE,,,,,,,,,,,,,,,,1.3,,,,,0.02,,,,,,METAR,804.0
CPEH 230800Z AUTO 00000KT M00/M00 RMK AO1 5PAST HR M P0002 T10011003 50010,CPEH,2022-10-23T08:00:00Z,50.18,-112.43,-0.1,-0.3,0,0,,,,,,TRUE,TRUE,,,,,,,,,,,,,,,,1.0,,,,,0.02,,,,,,METAR,814.0
CPBT 230800Z AUTO 01016KT 00/00 RMK AO1 PK WND 01020/0742 T00000000,CPBT,2022-10-23T08:00:00Z,49.53,-113.05,0.0,0.0,10,16,,,,,,TRUE,TRUE,,,,,,,,,,,,,,,,,,,,,,,,,,,METAR,998.0
CMGB 230800Z AUTO 00000KT 07/03 RMK AO1 SLP255 T00740028 53011,CMGB,2022-10-23T08:00:00Z,45.37,-72.77,7.4,2.8,0,0,,,,1025.5,,TRUE,TRUE,,,,,,,,,,,,,,,,1.1,,,,,,,,,,,METAR,87.0
CMFM 230800Z AUTO 23001KT 02/01 RMK AO1 SLP263 T00190011 52012,CMFM,2022-10-23T08:00:00Z,47.32,-71.15,1.9,1.1,230,1,,,,1026.3,,TRUE,TRUE,,,,,,,,,,,,,,,,1.2,,,,,,,,,,,METAR,663.0
CFOX 230800Z AUTO ///// ////SM OVC039 M04/M05 A2939,CFOX,2022-10-23T08:00:00Z,,,-4.0,-5.0,,,,,29.388779,,,TRUE,,,,,,,,OVC,3900,,,,,,,,,,,,,,,,,,,METAR,
CERM 230800Z AUTO 00000KT 01/M00 RMK AO1 SLP261 T00061003 51014,CERM,2022-10-23T08:00:00Z,47.42,-68.32,0.6,-0.3,0,0,,,,1026.1,,TRUE,TRUE,,,,,,,,,,,,,,,,1.4,,,,,,,,,,,METAR,151.0
CBAR 230800Z AUTO 20006KT ////SM OVC033 M08/M10 A3016,CBAR,2022-10-23T08:00:00Z,,,-8.0,-10.0,200,6,,,30.159449,,,TRUE,,,,,,,,OVC,3300,,,,,,,,,,,,,,,,,,,METAR,
CAHR 230800Z AUTO 20005KT 10/08 RMK AO1 SLP263 T01040082 51002,CAHR,2022-10-23T08:00:00Z,46.35,-63.17,10.4,8.2,200,5,,,,1026.3,,TRUE,TRUE,,,,,,,,,,,,,,,,0.2,,,,,,,,,,,METAR,52.0
BIRK 230800Z 09007KT 060V120 9999 FEW024 SCT044 BKN150 05/01 Q1010,BIRK,2022-10-23T08:00:00Z,64.13,-21.93,5.0,1.0,90,7,,6.21,29.822834,,,,,,,,,,,FEW,2400,SCT,4400,BKN,15000,,,VFR,,,,,,,,,,,,METAR,12.0
BIKF 230800Z 15019KT 9999 -DZ FEW005 BKN014 BKN048 04/04 Q1009,BIKF,2022-10-23T08:00:00Z,63.98,-22.6,4.0,4.0,150,19,,6.21,29.793306,,,,,,,,,,-DZ,FEW,500,BKN,1400,BKN,4800,,,MVFR,,,,,,,,,,,,METAR,49.0
BIEG 230800Z 19005KT 150V210 CAVOK M02/M03 Q1012,BIEG,2022-10-23T08:00:00Z,65.27,-14.4,-2.0,-3.0,190,5,,6.21,29.88189,,,,,,,,,,,CAVOK,,,,,,,,VFR,,,,,,,,,,,,METAR,20.0
BIAR 230800Z 00000KT CAVOK M04/M05 Q1011,BIAR,2022-10-23T08:00:00Z,65.67,-18.07,-4.0,-5.0,0,0,,6.21,29.852362,,,,,,,,,,,CAVOK,,,,,,,,VFR,,,,,,,,,,,,METAR,1.0
AYPY 230800Z 21007KT 9999 FEW020 SCT035 30/24 Q1007,AYPY,2022-10-23T08:00:00Z,-9.43,147.22,30.0,24.0,210,7,,6.21,29.734253,,,,,,,,,,,FEW,2000,SCT,3500,,,,,VFR,,,,,,,,,,,,METAR,44.0
AYNZ 230800Z 07010G20KT 9999 SCT050 28/22 Q1005,AYNZ,2022-10-23T08:00:00Z,-6.57,146.72,28.0,22.0,70,10,20,6.21,29.675198,,,,,,,,,,,SCT,5000,,,,,,,VFR,,,,,,,,,,,,METAR,74.0
AYMH 230800Z 27015KT 9999 HZ FEW020 SCT060 19/17 Q1017,AYMH,2022-10-23T08:00:00Z,-5.83,144.3,19.0,17.0,270,15,,6.21,30.029528,,,,,,,,,,HZ,FEW,2000,SCT,6000,,,,,VFR,,,,,,,,,,,,METAR,1634.0
ANYN 230800Z 09005KT 9999 FEW020 27/25 Q1010,ANYN,2022-10-23T08:00:00Z,-0.55,166.92,27.0,25.0,90,5,,6.21,29.822834,,,,,,,,,,,FEW,2000,,,,,,,VFR,,,,,,,,,,,,METAR,7.0
AGGH 230800Z 20003KT 9999 SCT015 FEW016CB OVC029 25/25 Q1009 RMKS SH IN THE AREA,AGGH,2022-10-23T08:00:00Z,-9.42,160.05,25.0,25.0,200,3,,6.21,29.793306,,,,,,,,,,,SCT,1500,FEW,1600,OVC,2900,,,MVFR,,,,,,,,,,,,METAR,6.0
MUCF 230759Z AUTO 05005KT 23/21 Q1014,MUCF,2022-10-23T07:59:00Z,22.15,-80.4,23.0,21.0,50,5,,,29.940945,,,TRUE,,,,,,,,,,,,,,,,,,,,,,,,,,,,METAR,35.0
MTPP 230759Z AUTO 11005KT 9000 ////// 23/22 Q1011 A2986 NOSIG,MTPP,2022-10-23T07:59:00Z,18.57,-72.3,23.0,22.0,110,5,,5.59,29.852362,,,TRUE,,,TRUE,,,,,,,,,,,,,,,,,,,,,,,,,METAR,36.0
KNZY 230759Z AUTO 23009KT 10SM -DZ BKN038 OVC046 18/14 A2980 RMK AO2 P0000 T01830144 $,KNZY,2022-10-23T07:59:00Z,32.7,-117.22,18.3,14.4,230,9,,10.0,29.799213,,,TRUE,TRUE,TRUE,,,,,-DZ,BKN,3800,OVC,4600,,,,,VFR,,,,,,0.005,,,,,,SPECI,4.0
KNOZ 230759Z AUTO 02003KT 10SM CLR 18/09 A2971 RMK AO2 SLP012 T01780089,KNOZ,2022-10-23T07:59:00Z,32.53,-114.5,17.8,8.9,20,3,,10.0,29.71063,1001.2,,TRUE,TRUE,,,,,,,CLR,,,,,,,,VFR,,,,,,,,,,,,SPECI,78.0
KNGU 230759Z 02012KT 10SM BKN200 16/13 A3015 RMK AO2 SLP210 T01560133 $,KNGU,2022-10-23T07:59:00Z,36.93,-76.27,15.6,13.3,20,12,,10.0,30.15059,1021.0,,,TRUE,TRUE,,,,,,BKN,20000,,,,,,,VFR,,,,,,,,,,,,SPECI,3.0
PHSF 230758Z AUTO 10009KT 10SM CLR 12/M01 A3036 RMK AO2 SLP159 T01181013 $,PHSF,2022-10-23T07:58:00Z,19.77,-155.55,11.8,-1.3,100,9,,10.0,30.360237,1015.9,,TRUE,TRUE,TRUE,,,,,,CLR,,,,,,,,VFR,,,,,,,,,,,,METAR,1863.0
PASY 230758Z AUTO M 7SM OVC013 M M,PASY,2022-10-23T07:58:00Z,52.72,174.12,,,,,,7.0,,,,TRUE,,,,,,,,OVC,1300,,,,,,,MVFR,,,,,,,,,,,,METAR,6.0
KROG 230758Z 10SM CLR 21/13 A2979 RMK AO2 SLP071 T02110128 $,KROG,2022-10-23T07:58:00Z,36.37,-94.1,21.1,12.8,,,,10.0,29.790354,1007.1,,,TRUE,TRUE,,,,,,CLR,,,,,,,,VFR,,,,,,,,,,,,METAR,407.0
KPRN 230758Z AUTO 00000KT 10SM CLR 06/05 A3013 RMK AO2 SLP151 T00560050,KPRN,2022-10-23T07:58:00Z,31.85,-86.62,5.6,5.0,0,0,,10.0,30.129921,1015.1,,TRUE,TRUE,,,,,,,CLR,,,,,,,,VFR,,,,,,,,,,,,METAR,137.0
KMRH 230758Z AUTO 35011KT 10SM FEW050 SCT080 SCT100 16/12 A3003 RMK AO2 RAB18E55 SLP170 P0000 T01560122,KMRH,2022-10-23T07:58:00Z,34.73,-76.65,15.6,12.2,350,11,,10.0,30.029528,1017.0,,TRUE,TRUE,,,,,,,FEW,5000,SCT,8000,SCT,10000,,,VFR,,,,,,0.005,,,,,,METAR,2.0
KMEI 230758Z AUTO 00000KT 10SM CLR 11/10 A3010 RMK AO2 SLP192 T01110100,KMEI,2022-10-23T07:58:00Z,32.33,-88.75,11.1,10.0,0,0,,10.0,30.100393,1019.2,,TRUE,TRUE,,,,,,,CLR,,,,,,,,VFR,,,,,,,,,,,,METAR,90.0
KGOV 230758Z AUTO 17003KT 10SM CLR 10/07 A3001 RMK AO2 SLP168 T00950072 $,KGOV,2022-10-23T07:58:00Z,44.68,-84.73,9.5,7.2,170,3,,10.0,30.008858,1016.8,,TRUE,TRUE,TRUE,,,,,,CLR,,,,,,,,VFR,,,,,,,,,,,,SPECI,350.0
KEUF 230758Z AUTO 00000KT 10SM CLR 06/05 A3016 RMK AO2 SLP211 T00560050,KEUF,2022-10-23T07:58:00Z,31.95,-85.13,5.6,5.0,0,0,,10.0,30.159449,1021.1,,TRUE,TRUE,,,,,,,CLR,,,,,,,,VFR,,,,,,,,,,,,SPECI,87.0
KCMY 230758Z AUTO 17011G17KT 7SM R29/5500FT FEW130 19/10 A2975 RMK AO2 SLP073 T01850104 $,KCMY,2022-10-23T07:58:00Z,43.97,-90.73,18.5,10.4,170,11,17,7.0,29.749016,1007.3,,TRUE,TRUE,TRUE,,,,,,FEW,13000,,,,,,,VFR,,,,,,,,,,,,METAR,253.0
KBCR 230758Z AUTO 00000KT 10SM CLR 07/05 A3014 RMK AO2 SLP164 T00670050 $,KBCR,2022-10-23T07:58:00Z,30.85,-85.6,6.7,5.0,0,0,,10.0,30.138779,1016.4,,TRUE,TRUE,TRUE,,,,,,CLR,,,,,,,,VFR,,,,,,,,,,,,SPECI,26.0
PASV 230757Z AUTO 34010KT 270V020 10SM BKN002 BKN190 M04/M05 A2985 RMK AO2 SLP135,PASV,2022-10-23T07:57:00Z,61.1,-155.57,-4.0,-5.0,340,10,,10.0,29.84941,1013.5,,TRUE,TRUE,,,,,,,BKN,200,BKN,19000,,,,,LIFR,,,,,,,,,,,,METAR,462.0
PAJC 230757Z AUTO 24016G23KT 10SM SCT038 BKN047 BKN055 06/01 A3002 RMK AO2 RAE19 SLP165 T00610011 400610044 PNO $,PAJC,2022-10-23T07:57:00Z,56.32,-158.37,6.1,1.1,240,16,23,10.0,30.02067,1016.5,,TRUE,TRUE,TRUE,,,,,,SCT,3800,BKN,4700,BKN,5500,,,VFR,,,,6.1,4.4,,,,,,,METAR,10.0
KNYL 230757Z AUTO 32011KT 10SM CLR 21/09 A2969 RMK AO2 SLP051 T02060089,KNYL,2022-10-23T07:57:00Z,32.65,-114.62,20.6,8.9,320,11,,10.0,29.68996,1005.1,,TRUE,TRUE,,,,,,,CLR,,,,,,,,VFR,,,,,,,,,,,,METAR,58.0
KNJW 230757Z AUTO 17004KT 10SM CLR 14/12 A3012 RMK AO2 SLP115 T01440117,KNJW,2022-10-23T07:57:00Z,32.78,-88.82,14.4,11.7,170,4,,10.0,30.121063,1011.5,,TRUE,TRUE,,,,,,,CLR,,,,,,,,VFR,,,,,,,,,,,,METAR,165.0
KNJM 230757Z AUTO 01007G17KT 10SM CLR 17/11 A3006 RMK AO2 SLP182 T01720106,KNJM,2022-10-23T07:57:00Z,34.68,-77.02,17.2,10.6,10,7,17,10.0,30.059055,1018.2,,TRUE,TRUE,,,,,,,CLR,,,,,,,,VFR,,,,,,,,,,,,SPECI,5.0
KFLG 230757Z AUTO 23026G42KT 10SM FEW026 BKN048 OVC060 10/02 A2972 RMK AO2 PK WND 23046/0733 SLP980 T01000022,KFLG,2022-10-23T07:57:00Z,35.13,-111.67,10.0,2.2,230,26,42,10.0,29.719488,998.0,,TRUE,TRUE,,,,,,,FEW,2600,BKN,4800,OVC,6000,,,VFR,,,,,,,,,,,,METAR,2134.0
KAQV 230757Z AUTO 16003KT 10SM CLR 17/15 A2996 RMK AO2 SLP144 T01720150,KAQV,2022-10-23T07:57:00Z,31.4,-93.3,17.2,15.0,160,3,,10.0,29.958662,1014.4,,TRUE,TRUE,,,,,,,CLR,,,,,,,,VFR,,,,,,,,,,,,METAR,123.0
TJSJ 230756Z 19003KT 10SM FEW029 FEW070 26/24 A2989 RMK AO2 RAB02E34 SLP120 P0000 T02560239 $,TJSJ,2022-10-23T07:56:00Z,18.43,-66.02,25.6,23.9,190,3,,10.0,29.890747,1012.0,,,TRUE,TRUE,,,,,,FEW,2900,FEW,7000,,,,,VFR,,,,,,0.005,,,,,,METAR,3.0
ROTM 230756Z COR 01013G24KT 9999 BKN010 BKN030 24/24 A2983 RMK PK WND 01026/37 SHRAB48E43 SLP150 WND WRNG P0000 T02390239,ROTM,2022-10-23T07:56:00Z,26.27,127.75,23.9,23.9,10,13,24,6.21,29.828741,1015.0,TRUE,,,,,,,,,BKN,1000,BKN,3000,,,,,MVFR,,,,,,0.005,,,,,,METAR,80.0
RJTY 230756Z 01003KT 7SM OVC080 20/10 A2979 RMK AO2A SLP090 T02010102 $,RJTY,2022-10-23T07:56:00Z,35.75,139.33,20.1,10.2,10,3,,7.0,29.790354,1009.0,,,TRUE,TRUE,,,,,,OVC,8000,,,,,,,VFR,,,,,,,,,,,,METAR,136.0
RJOI 230756Z 06003KT 9999 SCT020 23/13 A2987 RMK AO2 SLP116 T02330133,RJOI,2022-10-23T07:56:00Z,34.13,132.23,23.3,13.3,60,3,,6.21,29.870079,1011.6,,,TRUE,,,,,,,SCT,2000,,,,,,,VFR,,,,,,,,,,,,METAR,2.0
PPIZ 230756Z AUTO 10007KT 10SM SCT050 M09/M11 A2983 RMK AO2 SLP104 T10941111 FZRANO,PPIZ,2022-10-23T07:56:00Z,69.73,-163.0,-9.4,-11.1,100,7,,10.0,29.828741,1010.4,,TRUE,TRUE,,,,TRUE,,,SCT,5000,,,,,,,VFR,,,,,,,,,,,,METAR,5.0
PMDY 230756Z AUTO 03004KT 10SM FEW029 23/18 A3011 RMK AO2 SLP198 T02330183 TSNO,PMDY,2022-10-23T07:56:00Z,28.22,-177.37,23.3,18.3,30,4,,10.0,30.109253,1019.8,,TRUE,TRUE,,,TRUE,,,,FEW,2900,,,,,,,VFR,,,,,,,,,,,,METAR,6.0
PHNY 230756Z AUTO 06005KT 10SM CLR 20/17 A3010 RMK AO2 SLP172 T02000172 $,PHNY,2022-10-23T07:56:00Z,20.77,-156.95,20.0,17.2,60,5,,10.0,30.100393,1017.2,,TRUE,TRUE,TRUE,,,,,,CLR,,,,,,,,VFR,,,,,,,,,,,,METAR,395.0
PFYU 230756Z AUTO 00000KT 10SM OVC055 M07/M07 A2999 RMK AO2 SLP171 T10671072 FZRANO,PFYU,2022-10-23T07:56:00Z,66.57,-145.23,-6.7,-7.2,0,0,,10.0,29.991142,1017.1,,TRUE,TRUE,,,,TRUE,,,OVC,5500,,,,,,,VFR,,,,,,,,,,,,METAR,130.0
PFWS 230756Z AUTO 34011KT 10SM CLR 01/M01 A2996 RMK AO2 SLP188 T00061011 FZRANO,PFWS,2022-10-23T07:56:00Z,58.7,-157.0,0.6,-1.1,340,11,,10.0,29.958662,1018.8,,TRUE,TRUE,,,,TRUE,,,CLR,,,,,,,,VFR,,,,,,,,,,,,METAR,40.0
PFNO 230756Z AUTO 13014KT 10SM BKN017 BKN026 OVC034 00/M01 A2987 RMK AO2 UPE28 SLP198 P0000 T00001011 FZRANO,PFNO,2022-10-23T07:56:00Z,66.82,-161.02,0.0,-1.1,130,14,,10.0,29.870079,1019.8,,TRUE,TRUE,,,,TRUE,,,BKN,1700,BKN,2600,OVC,3400,,,MVFR,,,,,,0.005,,,,,,METAR,14.0
PFKT 230756Z AUTO 24025G30KT 10SM OVC011 02/01 A2974 RMK AO2 PK WND 24030/0751 UPB08E10RAB10E20 SLP070 P0000 T00170006 FZRANO,PFKT,2022-10-23T07:56:00Z,65.33,-166.47,1.7,0.6,240,25,30,10.0,29.740158,1007.0,,TRUE,TRUE,,,,TRUE,,,OVC,1100,,,,,,,MVFR,,,,,,0.005,,,,,,METAR,8.0
PFEL 230756Z AUTO 19012G18KT 10SM -RA OVC010 02/01 A2987 RMK AO2 SLP117 P0001 T00170011 FZRANO,PFEL,2022-10-23T07:56:00Z,64.62,-162.27,1.7,1.1,190,12,18,10.0,29.870079,1011.7,,TRUE,TRUE,,,,TRUE,,-RA,OVC,1000,,,,,,,MVFR,,,,,,0.01,,,,,,METAR,50.0
PFCL 230756Z AUTO 33004KT 10SM CLR A2999 RMK AO2 SLPNO FZRANO TSNO $,PFCL,2022-10-23T07:56:00Z,58.83,-158.53,,,330,4,,10.0,29.991142,,,TRUE,TRUE,TRUE,,TRUE,TRUE,,,CLR,,,,,,,,VFR,,,,,,,,,,,,METAR,23.0
PAZK 230756Z AUTO 01004KT 10SM FEW007 OVC022 M07/M09 A2972 RMK AO2 SLP126 T10721089 FZRANO,PAZK,2022-10-23T07:56:00Z,61.93,-147.17,-7.2,-8.9,10,4,,10.0,29.719488,1012.6,,TRUE,TRUE,,,,TRUE,,,FEW,700,OVC,2200,,,,,MVFR,,,,,,,,,,,,METAR,1002.0
PAWS 230756Z AUTO 28003KT 10SM CLR M02/M05 A2980 RMK AO2 SLP098 T10171050 FZRANO,PAWS,2022-10-23T07:56:00Z,61.57,-149.53,-1.7,-5.0,280,3,,10.0,29.799213,1009.8,,TRUE,TRUE,,,,TRUE,,,CLR,,,,,,,,VFR,,,,,,,,,,,,METAR,102.0
PAWN 230756Z AUTO 13013KT 7SM -SN BKN005 OVC012 00/M01 A2981 RMK AO2 RAB00E16SNB16 CIG 005V009 SLP106 P0000 T00001006 400110000 FZRANO,PAWN,2022-10-23T07:56:00Z,67.57,-162.98,0.0,-0.6,130,13,,7.0,29.811024,1010.6,,TRUE,TRUE,,,,TRUE,,-SN,BKN,500,OVC,1200,,,,,IFR,,,,1.1,,0.005,,,,,,METAR,26.0
PAWM 230756Z AUTO 20015G24KT 5SM -RA BR OVC008 02/02 A2983 RMK AO2 UPB01E09RAB09 SLP105 T00220022 FZRANO PNO $,PAWM,2022-10-23T07:56:00Z,64.68,-163.42,2.2,2.2,200,15,24,5.0,29.828741,1010.5,,TRUE,TRUE,TRUE,,,TRUE,,-RA BR,OVC,800,,,,,,,IFR,,,,,,,,,,,,METAR,80.0
PAVD 230756Z AUTO 01003KT SCT070 A2983 RMK AO2 SLPNO FZRANO TSNO PNO $,PAVD,2022-10-23T07:56:00Z,61.13,-146.25,,,10,3,,,29.828741,,,TRUE,TRUE,TRUE,,TRUE,TRUE,,,SCT,7000,,,,,,,,,,,,,,,,,,,METAR,21.0
PAVC 230756Z AUTO 25011KT 10SM -RA FEW020 BKN025 OVC034 05/03 A3016 RMK AO2 SLP214 T00500028 PNO $,PAVC,2022-10-23T07:56:00Z,55.12,-162.27,5.0,2.8,250,11,,10.0,30.159449,1021.4,,TRUE,TRUE,TRUE,,,,,-RA,FEW,2000,BKN,2500,OVC,3400,,,MVFR,,,,,,,,,,,,METAR,48.0
PAVA 230756Z AUTO 17010KT 10SM FEW065 00/M01 A2995 RMK AO2 SLP145 T00001006 400441017 FZRANO,PAVA,2022-10-23T07:56:00Z,61.53,-165.6,0.0,-0.6,170,10,,10.0,29.949802,1014.5,,TRUE,TRUE,,,,TRUE,,,FEW,6500,,,,,,,VFR,,,,4.4,-1.7,,,,,,,METAR,14.0
PAUN 230756Z AUTO 10006KT 10SM SCT035 OVC055 00/M02 A2996 RMK AO2 SLP150 T00001022 FZRANO,PAUN,2022-10-23T07:56:00Z,63.88,-160.8,0.0,-2.2,100,6,,10.0,29.958662,1015.0,,TRUE,TRUE,,,,TRUE,,,SCT,3500,OVC,5500,,,,,VFR,,,,,,,,,,,,METAR,4.0
PATQ 230756Z AUTO 10010KT 10SM CLR M11/M12 A2991 RMK AO2 SLP134 T11061117 FZRANO TSNO,PATQ,2022-10-23T07:56:00Z,70.47,-157.43,-10.6,-11.7,100,10,,10.0,29.911417,1013.4,,TRUE,TRUE,,,TRUE,TRUE,,,CLR,,,,,,,,VFR,,,,,,,,,,,,METAR,28.0
PATG 230756Z AUTO 00000KT 10SM CLR M01/M02 A3002 RMK AO2 SLP166 T10061017 FZRANO,PATG,2022-10-23T07:56:00Z,59.05,-160.38,-0.6,-1.7,0,0,,10.0,30.02067,1016.6,,TRUE,TRUE,,,,TRUE,,,CLR,,,,,,,,VFR,,,,,,,,,,,,METAR,1.0
PATE 230756Z AUTO 23026KT 10SM OVC009 01/00 A2972 RMK AO2 PK WND 23032/0751 UPE30 CIG 005V013 SLP070 P0000 T00060000 FZRANO,PATE,2022-10-23T07:56:00Z,65.23,-166.33,0.6,0.0,230,26,,10.0,29.719488,1007.0,,TRUE,TRUE,,,,TRUE,,,OVC,900,,,,,,,IFR,,,,,,0.005,,,,,,METAR,93.0
PASX 230756Z AUTO 00000KT 10SM CLR M03/M03 A2982 RMK AO2 SLP104 T10281028 FZRANO,PASX,2022-10-23T07:56:00Z,60.48,-151.05,-2.8,-2.8,0,0,,10.0,29.819881,1010.4,,TRUE,TRUE,,,,TRUE,,,CLR,,,,,,,,VFR,,,,,,,,,,,,METAR,28.0
PASM 230756Z AUTO 17007KT 1/2SM FZFG OVC002 M01/M01 A2999 RMK AO2 SLP167 T10061006 400391022 FZRANO,PASM,2022-10-23T07:56:00Z,62.07,-163.3,-0.6,-0.6,170,7,,0.5,29.991142,1016.7,,TRUE,TRUE,,,,TRUE,,FZFG,OVC,200,,,,,,,LIFR,,,,3.9,-2.2,,,,,,,METAR,108.0
PASL 230756Z AUTO 00000KT 10SM CLR M01/M02 A3000 RMK AO2 SLPNO T10111017 400281017 FZRANO,PASL,2022-10-23T07:56:00Z,61.68,-157.15,-1.1,-1.7,0,0,,10.0,30.0,,,TRUE,TRUE,,,,TRUE,,,CLR,,,,,,,,VFR,,,,2.8,-1.7,,,,,,,METAR,64.0
PASK 230756Z AUTO 13008KT 10SM OVC050 M01/M02 A2991 RMK AO2 SLP125 T10061022 FZRANO,PASK,2022-10-23T07:56:00Z,66.6,-160.0,-0.6,-2.2,130,8,,10.0,29.911417,1012.5,,TRUE,TRUE,,,,TRUE,,,OVC,5000,,,,,,,VFR,,,,,,,,,,,,METAR,3.0
PASD 230756Z AUTO 32012KT 10SM FEW028 SCT033 06/02 A3011 RMK AO2 SLP198 T00560022 400720044 PNO $,PASD,2022-10-23T07:56:00Z,55.33,-160.52,5.6,2.2,320,12,,10.0,30.109253,1019.8,,TRUE,TRUE,TRUE,,,,,,FEW,2800,SCT,3300,,,,,VFR,,,,7.2,4.4,,,,,,,METAR,6.0
PASA 230756Z AUTO 19008KT 10SM SCT065 BKN080 00/M02 A2980 RMK AO2 SLP091 T00001017 FZRANO,PASA,2022-10-23T07:56:00Z,63.68,-170.5,0.0,-1.7,190,8,,10.0,29.799213,1009.1,,TRUE,TRUE,,,,TRUE,,,SCT,6500,BKN,8000,,,,,VFR,,,,,,,,,,,,METAR,9.0
PARS 230756Z AUTO 00000KT 1/4SM FG OVC003 A3001 RMK AO2 SLPNO FZRANO RVRNO $,PARS,2022-10-23T07:56:00Z,61.77,-161.32,,,0,0,,0.25,30.008858,,,TRUE,TRUE,TRUE,,,TRUE,,FG,OVC,300,,,,,,,LIFR,,,,,,,,,,,,METAR,15.0
PARC 230756Z AUTO 00000KT 10SM OVC033 M12/M13 A2987 RMK AO2 SLP181 T11171133 FZRANO,PARC,2022-10-23T07:56:00Z,68.12,-145.58,-11.7,-13.3,0,0,,10.0,29.870079,1018.1,,TRUE,TRUE,,,,TRUE,,,OVC,3300,,,,,,,VFR,,,,,,,,,,,,METAR,626.0
PAPN 230756Z AUTO 35007KT 10SM BKN022 BKN029 03/01 A2996 RMK AO2 SLP148 T00280011 400440022 PNO $,PAPN,2022-10-23T07:56:00Z,57.58,-157.57,2.8,1.1,350,7,,10.0,29.958662,1014.8,,TRUE,TRUE,TRUE,,,,,,BKN,2200,BKN,2900,,,,,MVFR,,,,4.4,2.2,,,,,,,METAR,19.0
PAPM 230756Z AUTO 34003KT 10SM CLR 01/01 A3003 RMK AO2 SLP172 T00110011 FZRANO,PAPM,2022-10-23T07:56:00Z,59.02,-161.82,1.1,1.1,340,3,,10.0,30.029528,1017.2,,TRUE,TRUE,,,,TRUE,,,CLR,,,,,,,,VFR,,,,,,,,,,,,METAR,4.0
PAPH 230756Z AUTO 32011KT 10SM FEW023 SCT029 SCT041 04/02 A3002 RMK AO2 RAE21 SLP166 P0000 T00440017 400560028,PAPH,2022-10-23T07:56:00Z,56.95,-158.62,4.4,1.7,320,11,,10.0,30.02067,1016.6,,TRUE,TRUE,,,,,,,FEW,2300,SCT,2900,SCT,4100,,,VFR,,,,5.6,2.8,0.005,,,,,,METAR,29.0
PAOU 230756Z AUTO 30016KT 10SM BKN024 BKN031 06/02 A3011 RMK AO2 SLP195 T00560022 PNO $,PAOU,2022-10-23T07:56:00Z,56.0,-161.17,5.6,2.2,300,16,,10.0,30.109253,1019.5,,TRUE,TRUE,TRUE,,,,,,BKN,2400,BKN,3100,,,,,MVFR,,,,,,,,,,,,METAR,3.0
PAOH 230756Z AUTO 11003KT 10SM OVC035 02/02 A2982 RMK AO2 SLP099 T00170017 FZRANO,PAOH,2022-10-23T07:56:00Z,58.1,-135.45,1.7,1.7,110,3,,10.0,29.819881,1009.9,,TRUE,TRUE,,,,TRUE,,,OVC,3500,,,,,,,VFR,,,,,,,,,,,,METAR,0.0
PANW 230756Z AUTO 34009KT 10SM CLR M01/M02 A2996 RMK AO2 SLP153 T10111022 FZRANO,PANW,2022-10-23T07:56:00Z,59.45,-157.32,-1.1,-2.2,340,9,,10.0,29.958662,1015.3,,TRUE,TRUE,,,,TRUE,,,CLR,,,,,,,,VFR,,,,,,,,,,,,METAR,100.0
PANV 230756Z AUTO 00000KT 10SM CLR M01/M02 A2997 RMK AO2 SLP250 T10111017 FZRANO TSNO,PANV,2022-10-23T07:56:00Z,62.65,-160.18,-1.1,-1.7,0,0,,10.0,29.970472,1025.0,,TRUE,TRUE,,,TRUE,TRUE,,,CLR,,,,,,,,VFR,,,,,,,,,,,,METAR,91.0
PAMK 230756Z AUTO 18011KT 10SM OVC065 00/M02 A2994 RMK AO2 SLP140 T00001017 FZRANO,PAMK,2022-10-23T07:56:00Z,63.48,-162.12,0.0,-1.7,180,11,,10.0,29.940945,1014.0,,TRUE,TRUE,,,,TRUE,,,OVC,6500,,,,,,,VFR,,,,,,,,,,,,METAR,31.0
PAMH 230756Z AUTO 00000KT 10SM OVC021 M02/M03 A2993 RMK AO2 SLP142 T10171033 FZRANO,PAMH,2022-10-23T07:56:00Z,63.9,-152.28,-1.7,-3.3,0,0,,10.0,29.929134,1014.2,,TRUE,TRUE,,,,TRUE,,,OVC,2100,,,,,,,MVFR,,,,,,,,,,,,METAR,200.0
PAMB 230756Z AUTO 17003KT 10SM CLR M01/M02 A2999 RMK AO2 SLP160 T10111022 FZRANO $,PAMB,2022-10-23T07:56:00Z,58.98,-159.05,-1.1,-2.2,170,3,,10.0,29.991142,1016.0,,TRUE,TRUE,TRUE,,,TRUE,,,CLR,,,,,,,,VFR,,,,,,,,,,,,METAR,28.0
PAKP 230756Z AUTO 19008KT 9SM -SN SCT050 OVC095 M08/M09 A2986 RMK AO2 SNB02 SLP166 P0000 T10781089 FZRANO,PAKP,2022-10-23T07:56:00Z,68.13,-151.73,-7.8,-8.9,190,8,,9.0,29.861221,1016.6,,TRUE,TRUE,,,,TRUE,,-SN,SCT,5000,OVC,9500,,,,,VFR,,,,,,0.005,,,,,,METAR,649.0
PAKI 230756Z AUTO 19007KT 10SM CLR 01/ A3001 RMK AO2 SLP167 T0011 FZRANO PNO $,PAKI,2022-10-23T07:56:00Z,59.93,-164.03,1.1,,190,7,,10.0,30.008858,1016.7,,TRUE,TRUE,TRUE,,,TRUE,,,CLR,,,,,,,,VFR,,,,,,,,,,,,METAR,4.0
PAKH 230756Z AUTO 10SM FEW015 OVC100 A2981 RMK AO2 SLPNO FZRANO TSNO $,PAKH,2022-10-23T07:56:00Z,56.93,-154.18,,,,,,10.0,29.811024,,,TRUE,TRUE,TRUE,,TRUE,TRUE,,,FEW,1500,OVC,10000,,,,,VFR,,,,,,,,,,,,METAR,15.0
PAKF 230756Z AUTO 27008G15KT 10SM OVC025 A3018 RMK AO2 RAE0657B17E42UPB0657E05 SLPNO P0000 FZRANO $,PAKF,2022-10-23T07:56:00Z,54.85,-163.42,,,270,8,15,10.0,30.180119,,,TRUE,TRUE,TRUE,,,TRUE,,,OVC,2500,,,,,,,MVFR,,,,,,0.005,,,,,,METAR,2.0
PAJZ 230756Z AUTO 33010KT 8SM CLR M01/M02 A3000 RMK AO2 SLP165 T10061022 400331044 FZRANO $,PAJZ,2022-10-23T07:56:00Z,59.73,-157.27,-0.6,-2.2,330,10,,8.0,30.0,1016.5,,TRUE,TRUE,TRUE,,,TRUE,,,CLR,,,,,,,,VFR,,,,3.3,-4.4,,,,,,,METAR,80.0
PAIN 230756Z AUTO 00000KT 10SM OVC025 M07/M09 A2987 RMK AO2 SLP154 T10721089 400171072 FZRANO $,PAIN,2022-10-23T07:56:00Z,63.73,-148.92,-7.2,-8.9,0,0,,10.0,29.870079,1015.4,,TRUE,TRUE,TRUE,,,TRUE,,,OVC,2500,,,,,,,MVFR,,,,1.7,-7.2,,,,,,,METAR,525.0
PAIG 230756Z AUTO 18003KT 10SM CLR M02/M02 A2991 RMK AO2 SLP136 T10171022 FZRANO $,PAIG,2022-10-23T07:56:00Z,59.32,-155.9,-1.7,-2.2,180,3,,10.0,29.911417,1013.6,,TRUE,TRUE,TRUE,,,TRUE,,,CLR,,,,,,,,VFR,,,,,,,,,,,,METAR,24.0
PAHY 230756Z AUTO 12007KT 10SM CLR 08/06 A2988 RMK AO2 SLP115 T00780056 $,PAHY,2022-10-23T07:56:00Z,55.2,-132.83,7.8,5.6,120,7,,10.0,29.878937,1011.5,,TRUE,TRUE,TRUE,,,,,,CLR,,,,,,,,VFR,,,,,,,,,,,,METAR,0.0
PAHL 230756Z AUTO 00000KT 10SM FEW031 OVC042 M02/M03 A2997 RMK AO2 SLP153 T10171033 FZRANO,PAHL,2022-10-23T07:56:00Z,65.7,-156.35,-1.7,-3.3,0,0,,10.0,29.970472,1015.3,,TRUE,TRUE,,,,TRUE,,,FEW,3100,OVC,4200,,,,,VFR,,,,,,,,,,,,METAR,49.0
PAGS 230756Z AUTO 00000KT 10SM OVC040 02/01 A2983 RMK AO2 SLP102 T00170011 FZRANO,PAGS,2022-10-23T07:56:00Z,58.42,-135.7,1.7,1.1,0,0,,10.0,29.828741,1010.2,,TRUE,TRUE,,,,TRUE,,,OVC,4000,,,,,,,VFR,,,,,,,,,,,,METAR,9.0
PAGN 230756Z AUTO 06004KT 10SM OVC049 05/04 A2986 RMK AO2 SLP100 T00500039,PAGN,2022-10-23T07:56:00Z,57.5,-134.58,5.0,3.9,60,4,,10.0,29.861221,1010.0,,TRUE,TRUE,,,,,,,OVC,4900,,,,,,,VFR,,,,,,,,,,,,METAR,2.0
PAGA 230756Z AUTO 10SM OVC036 M02/M02 A2998 RMK AO2 SLP156 T10171022 FZRANO $,PAGA,2022-10-23T07:56:00Z,64.73,-156.93,-1.7,-2.2,,,,10.0,29.97933,1015.6,,TRUE,TRUE,TRUE,,,TRUE,,,OVC,3600,,,,,,,VFR,,,,,,,,,,,,METAR,39.0
PAFM 230756Z AUTO 13004KT 9SM -SN OVC025 M01/M02 A2998 RMK AO2 UPB00E11SNB22 SLP159 P0000 T10111022 400061011 FZRANO,PAFM,2022-10-23T07:56:00Z,67.1,-157.85,-1.1,-2.2,130,4,,9.0,29.97933,1015.9,,TRUE,TRUE,,,,TRUE,,-SN,OVC,2500,,,,,,,MVFR,,,,0.6,-1.1,0.005,,,,,,METAR,79.0
PAFE 230756Z AUTO 09007KT 10SM OVC043 05/02 A2988 RMK AO2 SLP129 T00500022,PAFE,2022-10-23T07:56:00Z,56.97,-133.92,5.0,2.2,90,7,,10.0,29.878937,1012.9,,TRUE,TRUE,,,,,,,OVC,4300,,,,,,,VFR,,,,,,,,,,,,METAR,1.0
PADU 230756Z AUTO 19009KT 10SM BKN042 06/03 A3024 RMK AO2 SLP245 T00610028 400780044,PADU,2022-10-23T07:56:00Z,53.9,-166.53,6.1,2.8,190,9,,10.0,30.239174,1024.5,,TRUE,TRUE,,,,,,,BKN,4200,,,,,,,VFR,,,,7.8,4.4,,,,,,,METAR,4.0
PADL 230756Z AUTO 00000KT 10SM CLR M01/M03 A2999 RMK AO2 SLP158 T10111028 FZRANO,PADL,2022-10-23T07:56:00Z,59.05,-158.5,-1.1,-2.8,0,0,,10.0,29.991142,1015.8,,TRUE,TRUE,,,,TRUE,,,CLR,,,,,,,,VFR,,,,,,,,,,,,METAR,20.0
PABV 230756Z AUTO 16003KT 10SM CLR M03/M04 A2980 RMK AO2 SLP097 T10331044 FZRANO,PABV,2022-10-23T07:56:00Z,61.42,-149.52,-3.3,-4.4,160,3,,10.0,29.799213,1009.7,,TRUE,TRUE,,,,TRUE,,,CLR,,,,,,,,VFR,,,,,,,,,,,,METAR,21.0
PABL 230756Z AUTO 13012KT 10SM -RA OVC023 01/00 A2987 RMK AO2 RAB21 SLP116 P0000 T00060000 400171022 FZRANO $,PABL,2022-10-23T07:56:00Z,65.98,-161.15,0.6,0.0,130,12,,10.0,29.870079,1011.6,,TRUE,TRUE,TRUE,,,TRUE,,-RA,OVC,2300,,,,,,,MVFR,,,,1.7,-2.2,0.005,,,,,,METAR,7.0
PAAK 230756Z AUTO 20007KT 10SM FEW070 OVC085 A3032 RMK AO2 SLPNO FZRANO $,PAAK,2022-10-23T07:56:00Z,52.22,-174.2,,,200,7,,10.0,30.318897,,,TRUE,TRUE,TRUE,,,TRUE,,,FEW,7000,OVC,8500,,,,,VFR,,,,,,,,,,,,METAR,11.0
OEPS 230756Z 14006KT 9999 CLR 32/01 A3024 RMK A02A SLPNO WND DATA ESTMD T03100010 53010 $,OEPS,2022-10-23T07:56:00Z,24.07,47.58,31.0,1.0,140,6,,6.21,30.239174,,,,TRUE,TRUE,,,,,,CLR,,,,,,,,VFR,1.0,,,,,,,,,,,SPECI,503.0
KYKN 230756Z AUTO 09008KT 10SM CLR 13/08 A2944 RMK AO2 SLP974 T01280078,KYKN,2022-10-23T07:56:00Z,42.92,-97.37,12.8,7.8,90,8,,10.0,29.438976,997.4,,TRUE,TRUE,,,,,,,CLR,,,,,,,,VFR,,,,,,,,,,,,METAR,388.0
KY50 230756Z AUTO 15005KT 10SM CLR 14/11 A2983 RMK AO2 SLP097 T01440111 $,KY50,2022-10-23T07:56:00Z,44.03,-89.3,14.4,11.1,150,5,,10.0,29.828741,1009.7,,TRUE,TRUE,TRUE,,,,,,CLR,,,,,,,,VFR,,,,,,,,,,,,METAR,261.0
KWWD 230756Z AUTO 03010KT 10SM 14/12 A3020 RMK AO2 SLP230 T01440122 $,KWWD,2022-10-23T07:56:00Z,39.02,-74.92,14.4,12.2,30,10,,10.0,30.200787,1023.0,,TRUE,TRUE,TRUE,,,,,,,,,,,,,,,,,,,,,,,,,,METAR,4.0
KWVL 230756Z AUTO 00000KT 1/4SM FG OVC001 07/07 A3030 RMK AO2 SLP289 T00670067,KWVL,2022-10-23T07:56:00Z,44.52,-69.67,6.7,6.7,0,0,,0.25,30.301182,1028.9,,TRUE,TRUE,,,,,,FG,OVC,100,,,,,,,LIFR,,,,,,,,,,,,METAR,87.0
KWMC 230756Z AUTO A2980 RMK AO2 SLPNO PWINO FZRANO $,KWMC,2022-10-23T07:56:00Z,40.9,-117.8,,,,,,,29.799213,,,TRUE,TRUE,TRUE,,,TRUE,TRUE,,,,,,,,,,,,,,,,,,,,,,METAR,1311.0
KWJF 230756Z AUTO 26023G28KT 10SM CLR 14/07 A2975 RMK AO2 PK WND 26028/0756 SLP067 T01390067 402060128,KWJF,2022-10-23T07:56:00Z,34.73,-118.22,13.9,6.7,260,23,28,10.0,29.749016,1006.7,,TRUE,TRUE,,,,,,,CLR,,,,,,,,VFR,,,,20.6,12.8,,,,,,,METAR,712.0
KVPZ 230756Z AUTO 15007KT 10SM CLR 16/11 A2997 RMK AO2 SLP145 T01610106 $,KVPZ,2022-10-23T07:56:00Z,41.45,-87.0,16.1,10.6,150,7,,10.0,29.970472,1014.5,,TRUE,TRUE,TRUE,,,,,,CLR,,,,,,,,VFR,,,,,,,,,,,,METAR,235.0
KVIS 230756Z AUTO 32008KT 10SM CLR 13/05 A2980 RMK AO2 SLP096 T01330050 402390122,KVIS,2022-10-23T07:56:00Z,36.32,-119.4,13.3,5.0,320,8,,10.0,29.799213,1009.6,,TRUE,TRUE,,,,,,,CLR,,,,,,,,VFR,,,,23.9,12.2,,,,,,,METAR,92.0
KVBT 230756Z AUTO 18012G22KT 10SM CLR 21/13 A2979 RMK AO2 SLP078 T02110133,KVBT,2022-10-23T07:56:00Z,36.35,-94.22,21.1,13.3,180,12,22,10.0,29.790354,1007.8,,TRUE,TRUE,,,,,,,CLR,,,,,,,,VFR,,,,,,,,,,,,METAR,390.0
KUKI 230756Z AUTO 33006KT 10SM CLR 11/02 A2993 RMK AO2 SLP132 T01110017 402110111,KUKI,2022-10-23T07:56:00Z,39.12,-123.2,11.1,1.7,330,6,,10.0,29.929134,1013.2,,TRUE,TRUE,,,,,,,CLR,,,,,,,,VFR,,,,21.1,11.1,,,,,,,METAR,183.0
KUDG 230756Z AUTO 34004KT 10SM CLR 11/09 A3015 RMK AO2 SLP209 T01060094,KUDG,2022-10-23T07:56:00Z,34.45,-79.88,10.6,9.4,340,4,,10.0,30.15059,1020.9,,TRUE,TRUE,,,,,,,CLR,,,,,,,,VFR,,,,,,,,,,,,METAR,57.0
KUCP 230756Z AUTO 00000KT 10SM CLR 06/04 A3021 RMK AO2 SLP243 T00610044,KUCP,2022-10-23T07:56:00Z,41.03,-80.42,6.1,4.4,0,0,,10.0,30.209646,1024.3,,TRUE,TRUE,,,,,,,CLR,,,,,,,,VFR,,,,,,,,,,,,METAR,313.0
KTVF 230756Z AUTO 05009KT 10SM CLR 07/04 A2958 RMK AO2 SLP020 T00720044,KTVF,2022-10-23T07:56:00Z,48.07,-96.17,7.2,4.4,50,9,,10.0,29.58071,1002.0,,TRUE,TRUE,,,,,,,CLR,,,,,,,,VFR,,,,,,,,,,,,METAR,339.0
KTPH 230756Z AUTO 32017KT 10SM CLR 02/M04 A2978 RMK AO2 SLP059 T00171039 401560017,KTPH,2022-10-23T07:56:00Z,38.05,-117.08,1.7,-3.9,320,17,,10.0,29.778543,1005.9,,TRUE,TRUE,,,,,,,CLR,,,,,,,,VFR,,,,15.6,1.7,,,,,,,METAR,1647.0
KSUE 230756Z AUTO 18011KT 10SM CLR 13/11 A2988 RMK AO2 SLP118 T01280111,KSUE,2022-10-23T07:56:00Z,44.85,-87.42,12.8,11.1,180,11,,10.0,29.878937,1011.8,,TRUE,TRUE,,,,,,,CLR,,,,,,,,VFR,,,,,,,,,,,,METAR,215.0
KSRC 230756Z AUTO 17006KT 10SM CLR 17/13 A2994 RMK AO2 SLP136 T01720133,KSRC,2022-10-23T07:56:00Z,35.22,-91.73,17.2,13.3,170,6,,10.0,29.940945,1013.6,,TRUE,TRUE,,,,,,,CLR,,,,,,,,VFR,,,,,,,,,,,,METAR,80.0
KSQI 230756Z AUTO VRB06KT 10SM CLR 17/13 A2984 RMK AO2 SLP968 T01670128,KSQI,2022-10-23T07:56:00Z,41.75,-89.67,16.7,12.8,0,6,,10.0,29.840551,996.8,,TRUE,TRUE,,,,,,,CLR,,,,,,,,VFR,,,,,,,,,,,,METAR,196.0
KSPD 230756Z AUTO 22016G29KT 18/08 A2953 RMK AO1 PK WND 22032/0712 SLP929 T01830078,KSPD,2022-10-23T07:56:00Z,37.28,-102.62,18.3,7.8,220,16,29,,29.530512,992.9,,TRUE,TRUE,,,,,,,,,,,,,,,,,,,,,,,,,,,METAR,1340.0
KSOP 230756Z AUTO 00000KT 10SM CLR 08/08 A3017 RMK AO2 SLP219 T00780078 TSNO,KSOP,2022-10-23T07:56:00Z,35.23,-79.4,7.8,7.8,0,0,,10.0,30.171259,1021.9,,TRUE,TRUE,,,TRUE,,,,CLR,,,,,,,,VFR,,,,,,,,,,,,METAR,135.0
KSMP 230756Z AUTO VRB03KT 3/4SM BR BKN002 OVC024 00/M01 A2983 RMK AO2 SLP121 T00001011 400171006 $,KSMP,2022-10-23T07:56:00Z,47.28,-121.33,0.0,-1.1,0,3,,0.75,29.828741,1012.1,,TRUE,TRUE,TRUE,,,,,BR,BKN,200,OVC,2400,,,,,LIFR,,,,1.7,-0.6,,,,,,,METAR,1206.0
KSMN 230756Z AUTO 00000KT 10SM OVC070 02/M04 A2967 RMK AO2 SLP753 T00171044 FZRANO,KSMN,2022-10-23T07:56:00Z,45.12,-113.87,1.7,-4.4,0,0,,10.0,29.66929,975.3,,TRUE,TRUE,,,,TRUE,,,OVC,7000,,,,,,,VFR,,,,,,,,,,,,METAR,1228.0
KSLG 230756Z AUTO 18015G23KT 10SM CLR 21/13 A2978 RMK AO2 PK WND 18027/0728 SLP070 T02110133,KSLG,2022-10-23T07:56:00Z,36.2,-94.48,21.1,13.3,180,15,23,10.0,29.778543,1007.0,,TRUE,TRUE,,,,,,,CLR,,,,,,,,VFR,,,,,,,,,,,,METAR,361.0
KSLE 230756Z AUTO 00000KT 10SM -RA OVC055 08/06 A2995 RMK AO2 RAB46 SLP143 P0000 T00780061 401670061,KSLE,2022-10-23T07:56:00Z,44.9,-123.0,7.8,6.1,0,0,,10.0,29.949802,1014.3,,TRUE,TRUE,,,,,,-RA,OVC,5500,,,,,,,VFR,,,,16.7,6.1,0.005,,,,,,METAR,63.0
KSKX 230756Z AUTO 22011KT 10SM SCT080 BKN100 11/04 A2977 RMK AO2 LTG DSNT NE-S SLP022 T01110044,KSKX,2022-10-23T07:56:00Z,36.45,-105.67,11.1,4.4,220,11,,10.0,29.769686,1002.2,,TRUE,TRUE,,,,,,,SCT,8000,BKN,10000,,,,,VFR,,,,,,,,,,,,METAR,2163.0
KSHV 230756Z 16009KT 10SM BKN037 BKN045 20/16 A2994 RMK SLPNO,KSHV,2022-10-23T07:56:00Z,32.45,-93.83,20.0,16.0,160,9,,10.0,29.940945,,,,,,,,,,,BKN,3700,BKN,4500,,,,,VFR,,,,,,,,,,,,METAR,70.0
KSGU 230756Z AUTO 18004KT 10SM -RA OVC047 08/07 A2964 RMK AO2 SLP013 P0010 T00830067,KSGU,2022-10-23T07:56:00Z,37.03,-113.52,8.3,6.7,180,4,,10.0,29.639763,1001.3,,TRUE,TRUE,,,,,,-RA,OVC,4700,,,,,,,VFR,,,,,,0.1,,,,,,METAR,877.0
KSGT 230756Z AUTO 16009KT 10SM CLR 20/13 A2997 RMK AO2 SLP147 T02000133,KSGT,2022-10-23T07:56:00Z,34.6,-91.57,20.0,13.3,160,9,,10.0,29.970472,1014.7,,TRUE,TRUE,,,,,,,CLR,,,,,,,,VFR,,,,,,,,,,,,METAR,67.0
KSGJ 230756Z AUTO 32004KT 10SM CLR 15/14 A3009 RMK AO2 SLP188 T01500144,KSGJ,2022-10-23T07:56:00Z,29.97,-81.33,15.0,14.4,320,4,,10.0,30.088583,1018.8,,TRUE,TRUE,,,,,,,CLR,,,,,,,,VFR,,,,,,,,,,,,METAR,2.0
KSGH 230756Z AUTO 15006KT 10SM CLR 13/08 A3013 RMK AO2 SLP200 T01330083,KSGH,2022-10-23T07:56:00Z,39.83,-83.83,13.3,8.3,150,6,,10.0,30.129921,1020.0,,TRUE,TRUE,,,,,,,CLR,,,,,,,,VFR,,,,,,,,,,,,METAR,318.0
KSFZ 230756Z AUTO 00000KT 10SM CLR 08/08 A3031 RMK AO2 SLP264 T00830078,KSFZ,2022-10-23T07:56:00Z,41.92,-71.5,8.3,7.8,0,0,,10.0,30.31004,1026.4,,TRUE,TRUE,,,,,,,CLR,,,,,,,,VFR,,,,,,,,,,,,METAR,129.0
KSFO 230756Z 28012KT 10SM CLR 13/07 A2987 RMK AO2 SLP114 T01280072 401890128 $,KSFO,2022-10-23T07:56:00Z,37.62,-122.37,12.8,7.2,280,12,,10.0,29.870079,1011.4,,,TRUE,TRUE,,,,,,CLR,,,,,,,,VFR,,,,18.9,12.8,,,,,,,METAR,2.0
KSFM 230756Z AUTO 00000KT 10SM CLR 02/02 A3031 RMK AO2 SLP269 T00220022 FZRANO,KSFM,2022-10-23T07:56:00Z,43.38,-70.72,2.2,2.2,0,0,,10.0,30.31004,1026.9,,TRUE,TRUE,,,,TRUE,,,CLR,,,,,,,,VFR,,,,,,,,,,,,METAR,70.0
KSDY 230756Z AUTO 04010KT 10SM -RA OVC011 07/06 A2947 RMK AO2 RAB47 SLP992 T00720056 PNO $,KSDY,2022-10-23T07:56:00Z,47.7,-104.2,7.2,5.6,40,10,,10.0,29.471457,999.2,,TRUE,TRUE,TRUE,,,,,-RA,OVC,1100,,,,,,,MVFR,,,,,,,,,,,,METAR,600.0
KSDF 230756Z 14007KT 10SM FEW070 BKN200 OVC250 16/11 A3009 RMK AO2 SLP185 T01610111,KSDF,2022-10-23T07:56:00Z,38.18,-85.73,16.1,11.1,140,7,,10.0,30.088583,1018.5,,,TRUE,,,,,,,FEW,7000,BKN,20000,OVC,25000,,,VFR,,,,,,,,,,,,METAR,146.0
KSBP 230756Z AUTO 00000KT 9SM CLR 10/08 A2984 RMK AO2 SLP104 T01000078 401940094,KSBP,2022-10-23T07:56:00Z,35.23,-120.63,10.0,7.8,0,0,,9.0,29.840551,1010.4,,TRUE,TRUE,,,,,,,CLR,,,,,,,,VFR,,,,19.4,9.4,,,,,,,METAR,52.0
KRUT 230756Z AUTO 14007KT 10SM CLR 06/03 A3032 RMK AO2 SLP262 T00610028 $,KRUT,2022-10-23T07:56:00Z,43.53,-72.95,6.1,2.8,140,7,,10.0,30.318897,1026.2,,TRUE,TRUE,TRUE,,,,,,CLR,,,,,,,,VFR,,,,,,,,,,,,METAR,238.0
KRDM 230756Z AUTO 00000KT 10SM BKN040 OVC050 04/01 A2987 RMK AO2 RAE48 SLP116 P0001 T00440006 401000039,KRDM,2022-10-23T07:56:00Z,44.25,-121.15,4.4,0.6,0,0,,10.0,29.870079,1011.6,,TRUE,TRUE,,,,,,,BKN,4000,OVC,5000,,,,,VFR,,,,10.0,3.9,0.01,,,,,,METAR,930.0
KPWT 230756Z AUTO 00000KT 10SM OVC060 04/04 A2992 RMK AO2 SLP138 T00390039 401170011,KPWT,2022-10-23T07:56:00Z,47.5,-122.77,3.9,3.9,0,0,,10.0,29.920275,1013.8,,TRUE,TRUE,,,,,,,OVC,6000,,,,,,,VFR,,,,11.7,1.1,,,,,,,METAR,143.0
KPVU 230756Z AUTO 15004KT 10SM OVC015 03/02 A2961 RMK AO2 UPE01 SLP008 P0001 T00330022,KPVU,2022-10-23T07:56:00Z,40.22,-111.72,3.3,2.2,150,4,,10.0,29.610237,1000.8,,TRUE,TRUE,,,,,,,OVC,1500,,,,,,,MVFR,,,,,,0.01,,,,,,METAR,1370.0
KPVC 230756Z AUTO 05004KT 10SM CLR 12/12 A3032 RMK AO2 SLP267 T01220122,KPVC,2022-10-23T07:56:00Z,42.07,-70.22,12.2,12.2,50,4,,10.0,30.318897,1026.7,,TRUE,TRUE,,,,,,,CLR,,,,,,,,VFR,,,,,,,,,,,,METAR,1.0
KPTV 230756Z AUTO 00000KT 10SM CLR 13/07 A2980 RMK AO2 SLP091 T01330067,KPTV,2022-10-23T07:56:00Z,36.02,-119.07,13.3,6.7,0,0,,10.0,29.799213,1009.1,,TRUE,TRUE,,,,,,,CLR,,,,,,,,VFR,,,,,,,,,,,,METAR,132.0
KPTN 230756Z AUTO 12005KT 10SM SCT042 19/16 A3003 RMK AO2 SLP170 T01890161 $,KPTN,2022-10-23T07:56:00Z,29.72,-91.33,18.9,16.1,120,5,,10.0,30.029528,1017.0,,TRUE,TRUE,TRUE,,,,,,SCT,4200,,,,,,,VFR,,,,,,,,,,,,METAR,2.0
KPRX 230756Z AUTO 17016G19KT 10SM CLR 21/14 A2985 RMK AO2 SLP102 T02110144,KPRX,2022-10-23T07:56:00Z,33.63,-95.45,21.1,14.4,170,16,19,10.0,29.84941,1010.2,,TRUE,TRUE,,,,,,,CLR,,,,,,,,VFR,,,,,,,,,,,,METAR,165.0
KPQI 230756Z AUTO 18003KT 10SM CLR 06/05 A3031 RMK AO2 SLP292 T00560050,KPQI,2022-10-23T07:56:00Z,46.68,-68.05,5.6,5.0,180,3,,10.0,30.31004,1029.2,,TRUE,TRUE,,,,,,,CLR,,,,,,,,VFR,,,,,,,,,,,,METAR,154.0
KPIB 230756Z AUTO 00000KT 10SM CLR 12/12 A3011 RMK AO2 SLP194 T01220122 PNO $,KPIB,2022-10-23T07:56:00Z,31.47,-89.33,12.2,12.2,0,0,,10.0,30.109253,1019.4,,TRUE,TRUE,TRUE,,,,,,CLR,,,,,,,,VFR,,,,,,,,,,,,METAR,91.0
KP60 230756Z AUTO VRB03KT M03/M04 A2952 RMK AO1 SLP991 P0001 T10281039 $,KP60,2022-10-23T07:56:00Z,44.55,-110.42,-2.8,-3.9,0,3,,,29.518702,999.1,,TRUE,TRUE,TRUE,,,,,,,,,,,,,,,,,,,,0.01,,,,,,METAR,2377.0
KP53 230756Z AUTO 20008G15KT 15/11 A2985 RMK AO1 SLP109 T01500106,KP53,2022-10-23T07:56:00Z,46.42,-86.65,15.0,10.6,200,8,15,,29.84941,1010.9,,TRUE,TRUE,,,,,,,,,,,,,,,,,,,,,,,,,,,SPECI,185.0
KP28 230756Z AUTO 17010KT 21/09 A2950 RMK AO1 SLP972 T02060089 $,KP28,2022-10-23T07:56:00Z,37.28,-98.55,20.6,8.9,170,10,,,29.500984,997.2,,TRUE,TRUE,TRUE,,,,,,,,,,,,,,,,,,,,,,,,,,METAR,469.0
KOWB 230756Z AUTO 16009KT 10SM OVC065 18/12 A3005 RMK AO2 SLP175 T01780117,KOWB,2022-10-23T07:56:00Z,37.72,-87.17,17.8,11.7,160,9,,10.0,30.050198,1017.5,,TRUE,TRUE,,,,,,,OVC,6500,,,,,,,VFR,,,,,,,,,,,,METAR,121.0
KOTG 230756Z AUTO 15010KT 10SM CLR 14/08 A2955 RMK AO2 SLP000 T01390083,KOTG,2022-10-23T07:56:00Z,43.65,-95.57,13.9,8.3,150,10,,10.0,29.551182,1000.0,,TRUE,TRUE,,,,,,,CLR,,,,,,,,VFR,,,,,,,,,,,,METAR,478.0
KOLU 230756Z AUTO 09007KT 10SM CLR 14/10 A2944 RMK AO2 SLP960 T01390100,KOLU,2022-10-23T07:56:00Z,41.45,-97.33,13.9,10.0,90,7,,10.0,29.438976,996.0,,TRUE,TRUE,,,,,,,CLR,,,,,,,,VFR,,,,,,,,,,,,METAR,438.0
KOKK 230756Z AUTO 16007KT 10SM CLR 12/12 A3004 RMK AO2 SLP171 T01220117 PNO $,KOKK,2022-10-23T07:56:00Z,40.53,-86.07,12.2,11.7,160,7,,10.0,30.041338,1017.1,,TRUE,TRUE,TRUE,,,,,,CLR,,,,,,,,VFR,,,,,,,,,,,,METAR,251.0
KOFK 230756Z AUTO 13009KT 10SM CLR 14/09 A2942 RMK AO2 SLP952 T01390089,KOFK,2022-10-23T07:56:00Z,41.98,-97.43,13.9,8.9,130,9,,10.0,29.421259,995.2,,TRUE,TRUE,,,,,,,CLR,,,,,,,,VFR,,,,,,,,,,,,METAR,476.0
KOAJ 230756Z AUTO 36006KT 10SM CLR 14/10 A3010 RMK AO2 SLP194 T01440100,KOAJ,2022-10-23T07:56:00Z,34.82,-77.62,14.4,10.0,360,6,,10.0,30.100393,1019.4,,TRUE,TRUE,,,,,,,CLR,,,,,,,,VFR,,,,,,,,,,,,METAR,26.0
KNYG 230756Z AUTO 30005KT 9SM CLR 08/ A3026 RMK AO2 SLP246 T0083 $,KNYG,2022-10-23T07:56:00Z,38.5,-77.3,8.3,,300,5,,9.0,30.259842,1024.6,,TRUE,TRUE,TRUE,,,,,,CLR,,,,,,,,VFR,,,,,,,,,,,,SPECI,2.0
KNXP 230756Z AUTO 25015KT 10SM CLR 16/08 A2977 RMK AO2 SLP050 T01560083 402940139 $,KNXP,2022-10-23T07:56:00Z,34.28,-116.13,15.6,8.3,250,15,,10.0,29.769686,1005.0,,TRUE,TRUE,TRUE,,,,,,CLR,,,,,,,,VFR,,,,29.4,13.9,,,,,,,METAR,610.0
KNXF 230756Z AUTO 9SM 17/15 A2979 RMK AO2 SLP171 T01720150 402110167 PWINO $,KNXF,2022-10-23T07:56:00Z,33.28,-117.45,17.2,15.0,,,,9.0,29.790354,1017.1,,TRUE,TRUE,TRUE,,,,TRUE,,,,,,,,,,,,,,21.1,16.7,,,,,,,METAR,28.0
KNUC 230756Z AUTO 29018G23KT 10SM SCT024 15/ A2983 RMK AO2 SLP098 T0150 401780150 $,KNUC,2022-10-23T07:56:00Z,33.02,-118.57,15.0,,290,18,23,10.0,29.828741,1009.8,,TRUE,TRUE,TRUE,,,,,,SCT,2400,,,,,,,VFR,,,,17.8,15.0,,,,,,,METAR,52.0
KNSE 230756Z AUTO 02004KT 10SM CLR 07/07 A3012 RMK AO2 SLP185 T00720067 PNO $,KNSE,2022-10-23T07:56:00Z,30.73,-87.02,7.2,6.7,20,4,,10.0,30.121063,1018.5,,TRUE,TRUE,TRUE,,,,,,CLR,,,,,,,,VFR,,,,,,,,,,,,METAR,56.0
KNQI 230756Z AUTO 16006KT 10SM CLR 20/19 A2987 RMK AO2 SLP110 T02000189 $,KNQI,2022-10-23T07:56:00Z,27.5,-97.82,20.0,18.9,160,6,,10.0,29.870079,1011.0,,TRUE,TRUE,TRUE,,,,,,CLR,,,,,,,,VFR,,,,,,,,,,,,SPECI,15.0
KNPA 230756Z AUTO 34003KT 10SM CLR 10/ A3010 RMK AO2 SLP194 T0100 $,KNPA,2022-10-23T07:56:00Z,30.35,-87.32,10.0,,340,3,,10.0,30.100393,1019.4,,TRUE,TRUE,TRUE,,,,,,CLR,,,,,,,,VFR,,,,,,,,,,,,SPECI,6.0
KNOG 230756Z AUTO 15008KT 10SM CLR 21/18 A2987 RMK AO2 SLP095 T02060183 PNO $,KNOG,2022-10-23T07:56:00Z,27.9,-98.05,20.6,18.3,150,8,,10.0,29.870079,1009.5,,TRUE,TRUE,TRUE,,,,,,CLR,,,,,,,,VFR,,,,,,,,,,,,METAR,72.0
KNMM 230756Z AUTO 00000KT 10SM CLR 12/10 A3011 RMK AO2 VIS 1/4 SOUTH SLP206 T01170100 $,KNMM,2022-10-23T07:56:00Z,32.53,-88.53,11.7,10.0,0,0,,10.0,30.109253,1020.6,,TRUE,TRUE,TRUE,,,,,,CLR,,,,,,,,VFR,,,,,,,,,,,,METAR,94.0
KNLC 230756Z AUTO 35008KT 10SM CLR 12/03 A2980 RMK AO2 SLP089 T01170033 402610106,KNLC,2022-10-23T07:56:00Z,36.32,-119.95,11.7,3.3,350,8,,10.0,29.799213,1008.9,,TRUE,TRUE,,,,,,,CLR,,,,,,,,VFR,,,,26.1,10.6,,,,,,,SPECI,69.0
KNKT 230756Z 36012KT 10SM FEW095 BKN120 16/12 A3007 RMK AO2 SLP178 T01560122,KNKT,2022-10-23T07:56:00Z,34.9,-76.88,15.6,12.2,360,12,,10.0,30.070866,1017.8,,,TRUE,,,,,,,FEW,9500,BKN,12000,,,,,VFR,,,,,,,,,,,,SPECI,8.0
KNJK 230756Z AUTO 26025G38KT 10SM CLR 22/09 A2971 RMK AO2 PK WND 27039/0714 SLP074 T02220094 403330183 $,KNJK,2022-10-23T07:56:00Z,32.82,-115.67,22.2,9.4,260,25,38,10.0,29.71063,1007.4,,TRUE,TRUE,TRUE,,,,,,CLR,,,,,,,,VFR,,,,33.3,18.3,,,,,,,SPECI,-15.0
KNID 230756Z AUTO 28011KT 10SM CLR 17/01 A2966 RMK AO2 SLP029 T01670006 402720167 $,KNID,2022-10-23T07:56:00Z,35.68,-117.68,16.7,0.6,280,11,,10.0,29.660433,1002.9,,TRUE,TRUE,TRUE,,,,,,CLR,,,,,,,,VFR,,,,27.2,16.7,,,,,,,SPECI,682.0
KNGP 230756Z AUTO 17010KT 10SM CLR 26/20 A2987 RMK AO2 SLP113 T02560200,KNGP,2022-10-23T07:56:00Z,27.68,-97.28,25.6,20.0,170,10,,10.0,29.870079,1011.3,,TRUE,TRUE,,,,,,,CLR,,,,,,,,VFR,,,,,,,,,,,,SPECI,5.0
KNFL 230756Z AUTO 26006KT 10SM CLR 00/M04 A2982 RMK AO2 SLP076 T00001039,KNFL,2022-10-23T07:56:00Z,39.42,-118.7,0.0,-3.9,260,6,,10.0,29.819881,1007.6,,TRUE,TRUE,,,,,,,CLR,,,,,,,,VFR,,,,,,,,,,,,SPECI,1199.0
KNFE 230756Z AUTO 36008KT 10SM SCT017 BKN070 16/13 A3011 RMK AO2 SLP199 T01610128,KNFE,2022-10-23T07:56:00Z,36.7,-76.13,16.1,12.8,360,8,,10.0,30.109253,1019.9,,TRUE,TRUE,,,,,,,SCT,1700,BKN,7000,,,,,VFR,,,,,,,,,,,,METAR,4.0
KNDZ 230756Z AUTO 35003KT CLR 07/07 A3012 RMK AO2 SLP185 T00720067 $,KNDZ,2022-10-23T07:56:00Z,30.7,-87.02,7.2,6.7,350,3,,,30.121063,1018.5,,TRUE,TRUE,TRUE,,,,,,CLR,,,,,,,,,,,,,,,,,,,,SPECI,51.0
KNCA 230756Z AUTO 35008KT 10SM 14/11 A3007 RMK AO2 SLP184 T01440111 $,KNCA,2022-10-23T07:56:00Z,34.72,-77.45,14.4,11.1,350,8,,10.0,30.070866,1018.4,,TRUE,TRUE,TRUE,,,,,,,,,,,,,,,,,,,,,,,,,,SPECI,9.0
KNBC 230756Z AUTO 36004KT 10SM CLR 12/ A3011 RMK AO2 SLP197 T0122 $,KNBC,2022-10-23T07:56:00Z,32.47,-80.72,12.2,,360,4,,10.0,30.109253,1019.7,,TRUE,TRUE,TRUE,,,,,,CLR,,,,,,,,VFR,,,,,,,,,,,,SPECI,9.0
KMYR 230756Z AUTO 36005KT 10SM CLR 13/12 A3011 RMK AO2 SLP197 T01330117,KMYR,2022-10-23T07:56:00Z,33.68,-78.92,13.3,11.7,360,5,,10.0,30.109253,1019.7,,TRUE,TRUE,,,,,,,CLR,,,,,,,,VFR,,,,,,,,,,,,METAR,7.0
KMVN 230756Z AUTO 17009KT 10SM CLR 18/11 A2995 RMK AO2 SLP145 T01780106,KMVN,2022-10-23T07:56:00Z,38.32,-88.87,17.8,10.6,170,9,,10.0,29.949802,1014.5,,TRUE,TRUE,,,,,,,CLR,,,,,,,,VFR,,,,,,,,,,,,METAR,145.0
KMUO 230756Z AUTO 29015KT 10SM CLR 03/M01 A2969 RMK AO2 SLP056 T00251008 $,KMUO,2022-10-23T07:56:00Z,43.03,-115.87,2.5,-0.8,290,15,,10.0,29.68996,1005.6,,TRUE,TRUE,TRUE,,,,,,CLR,,,,,,,,VFR,,,,,,,,,,,,SPECI,915.0
KMTW 230756Z AUTO 16006KT 10SM CLR 12/11 A2990 RMK AO2 SLP124 T01170106,KMTW,2022-10-23T07:56:00Z,44.12,-87.67,11.7,10.6,160,6,,10.0,29.899607,1012.4,,TRUE,TRUE,,,,,,,CLR,,,,,,,,VFR,,,,,,,,,,,,METAR,197.0
KMSV 230756Z AUTO 00000KT 10SM CLR 04/03 A3029 RMK AO2 SLP259 T00390028,KMSV,2022-10-23T07:56:00Z,41.7,-74.78,3.9,2.8,0,0,,10.0,30.28937,1025.9,,TRUE,TRUE,,,,,,,CLR,,,,,,,,VFR,,,,,,,,,,,,METAR,427.0
KMRF 230756Z AUTO 09003KT 10SM SCT095 13/07 A2994 RMK AO2 SLP076 T01280072,KMRF,2022-10-23T07:56:00Z,30.37,-104.02,12.8,7.2,90,3,,10.0,29.940945,1007.6,,TRUE,TRUE,,,,,,,SCT,9500,,,,,,,VFR,,,,,,,,,,,,METAR,1476.0
KMQY 230756Z 12003KT 10SM CLR 11/09 A3013 RMK AO2 SLP208 T01060094,KMQY,2022-10-23T07:56:00Z,36.02,-86.52,10.6,9.4,120,3,,10.0,30.129921,1020.8,,,TRUE,,,,,,,CLR,,,,,,,,VFR,,,,,,,,,,,,METAR,156.0
KMOB 230756Z AUTO 00000KT 10SM CLR 13/10 A3011 RMK AO2 SLP194 T01330100,KMOB,2022-10-23T07:56:00Z,30.68,-88.25,13.3,10.0,0,0,,10.0,30.109253,1019.4,,TRUE,TRUE,,,,,,,CLR,,,,,,,,VFR,,,,,,,,,,,,METAR,67.0
KMNM 230756Z AUTO 00000KT 10SM CLR 12/11 A2988 RMK AO2 SLP116 T01170106 PNO $,KMNM,2022-10-23T07:56:00Z,45.12,-87.63,11.7,10.6,0,0,,10.0,29.878937,1011.6,,TRUE,TRUE,TRUE,,,,,,CLR,,,,,,,,VFR,,,,,,,,,,,,METAR,188.0
KMML 230756Z AUTO 15008KT 10SM CLR 14/08 A2951 RMK AO2 SLP991 T01440083,KMML,2022-10-23T07:56:00Z,44.45,-95.82,14.4,8.3,150,8,,10.0,29.509842,999.1,,TRUE,TRUE,,,,,,,CLR,,,,,,,,VFR,,,,,,,,,,,,METAR,358.0
KMKY 230756Z AUTO 02007KT 10SM CLR 19/17 A3002 RMK AO2 SLP167 T01890172 TSNO $,KMKY,2022-10-23T07:56:00Z,26.0,-81.67,18.9,17.2,20,7,,10.0,30.02067,1016.7,,TRUE,TRUE,TRUE,,TRUE,,,,CLR,,,,,,,,VFR,,,,,,,,,,,,METAR,2.0
KMKT 230756Z AUTO 15012KT 10SM CLR 16/07 A2961 RMK AO2 SLP023 T01560072,KMKT,2022-10-23T07:56:00Z,44.22,-93.92,15.6,7.2,150,12,,10.0,29.610237,1002.3,,TRUE,TRUE,,,,,,,CLR,,,,,,,,VFR,,,,,,,,,,,,METAR,309.0
KMHS 230756Z AUTO 00000KT 10SM FEW022 SCT033 02/00 A2991 RMK AO2 UPB42E52 SLP149 P0000 T00220000 401440022,KMHS,2022-10-23T07:56:00Z,41.32,-122.32,2.2,0.0,0,0,,10.0,29.911417,1014.9,,TRUE,TRUE,,,,,,,FEW,2200,SCT,3300,,,,,VFR,,,,14.4,2.2,0.005,,,,,,METAR,1080.0
KMDT 230756Z 00000KT 8SM SCT080 04/03 A3027 RMK AO2 SLP250 T00440028,KMDT,2022-10-23T07:56:00Z,40.2,-76.77,4.4,2.8,0,0,,8.0,30.268702,1025.0,,,TRUE,,,,,,,SCT,8000,,,,,,,VFR,,,,,,,,,,,,METAR,91.0
KMBL 230756Z AUTO 11004KT 8SM CLR 13/11 A2995 RMK AO2 SLP142 T01330106,KMBL,2022-10-23T07:56:00Z,44.27,-86.25,13.3,10.6,110,4,,8.0,29.949802,1014.2,,TRUE,TRUE,,,,,,,CLR,,,,,,,,VFR,,,,,,,,,,,,METAR,187.0
KM19 230756Z AUTO 18020KT 10SM CLR 19/12 A2991 RMK AO2 SLP126 T01890117 PNO $,KM19,2022-10-23T07:56:00Z,35.65,-91.17,18.9,11.7,180,20,,10.0,29.911417,1012.6,,TRUE,TRUE,TRUE,,,,,,CLR,,,,,,,,VFR,,,,,,,,,,,,METAR,72.0
KLZU 230756Z AUTO 00000KT 10SM CLR 06/04 A3019 RMK AO2 SLP233 T00560044,KLZU,2022-10-23T07:56:00Z,33.98,-83.97,5.6,4.4,0,0,,10.0,30.188976,1023.3,,TRUE,TRUE,,,,,,,CLR,,,,,,,,VFR,,,,,,,,,,,,METAR,316.0
KLWS 230756Z AUTO 00000KT 10SM BKN042 BKN100 05/02 A2978 RMK AO2 SLP091 T00500022 401170050,KLWS,2022-10-23T07:56:00Z,46.37,-117.02,5.0,2.2,0,0,,10.0,29.778543,1009.1,,TRUE,TRUE,,,,,,,BKN,4200,BKN,10000,,,,,VFR,,,,11.7,5.0,,,,,,,METAR,435.0
KLRF 230756Z AUTO 20008KT 10SM FEW035 21/15 A2991 RMK AO2 SLP129 T02090145,KLRF,2022-10-23T07:56:00Z,34.92,-92.12,20.9,14.5,200,8,,10.0,29.911417,1012.9,,TRUE,TRUE,,,,,,,FEW,3500,,,,,,,VFR,,,,,,,,,,,,METAR,85.0
KLRD 230756Z AUTO 14011KT 10SM CLR 22/19 A2983 RMK AO2 SLP098 T02220189,KLRD,2022-10-23T07:56:00Z,27.55,-99.47,22.2,18.9,140,11,,10.0,29.828741,1009.8,,TRUE,TRUE,,,,,,,CLR,,,,,,,,VFR,,,,,,,,,,,,METAR,150.0
KLPC 230756Z AUTO 00000KT 10SM CLR 11/09 A2984 RMK AO2 SLP106 T01110094 402110106,KLPC,2022-10-23T07:56:00Z,34.67,-120.47,11.1,9.4,0,0,,10.0,29.840551,1010.6,,TRUE,TRUE,,,,,,,CLR,,,,,,,,VFR,,,,21.1,10.6,,,,,,,METAR,26.0
KLNR 230756Z AUTO 14007KT 10SM CLR 19/12 A2979 RMK AO2 SLP080 T01890117,KLNR,2022-10-23T07:56:00Z,43.22,-90.18,18.9,11.7,140,7,,10.0,29.790354,1008.0,,TRUE,TRUE,,,,,,,CLR,,,,,,,,VFR,,,,,,,,,,,,METAR,218.0
KLEW 230756Z AUTO 36004KT 10SM CLR 03/03 A3032 RMK AO2 SLP276 T00280028,KLEW,2022-10-23T07:56:00Z,44.03,-70.28,2.8,2.8,360,4,,10.0,30.318897,1027.6,,TRUE,TRUE,,,,,,,CLR,,,,,,,,VFR,,,,,,,,,,,,METAR,81.0
KLCI 230756Z AUTO 00000KT 10SM CLR 05/05 A3032 RMK AO2 SLP268 T00500050,KLCI,2022-10-23T07:56:00Z,43.57,-71.42,5.0,5.0,0,0,,10.0,30.318897,1026.8,,TRUE,TRUE,,,,,,,CLR,,,,,,,,VFR,,,,,,,,,,,,METAR,166.0
KLBT 230756Z AUTO 35003KT 10SM CLR 13/11 A3014 RMK AO2 SLP205 T01330106 TSNO,KLBT,2022-10-23T07:56:00Z,34.6,-79.07,13.3,10.6,350,3,,10.0,30.138779,1020.5,,TRUE,TRUE,,,TRUE,,,,CLR,,,,,,,,VFR,,,,,,,,,,,,METAR,37.0
KLBL 230756Z AUTO 21013KT 10SM CLR 20/10 A2954 RMK AO2 SLP965 T02000100,KLBL,2022-10-23T07:56:00Z,37.03,-100.97,20.0,10.0,210,13,,10.0,29.53937,996.5,,TRUE,TRUE,,,,,,,CLR,,,,,,,,VFR,,,,,,,,,,,,METAR,877.0
KLAS 230756Z 34015G26KT 10SM FEW050 BKN075 OVC100 16/04 A2963 RMK AO2 PK WND 33035/0726 SLP012 T01560039 402830150,KLAS,2022-10-23T07:56:00Z,36.07,-115.17,15.6,3.9,340,15,26,10.0,29.630905,1001.2,,,TRUE,,,,,,,FEW,5000,BKN,7500,OVC,10000,,,VFR,,,,28.3,15.0,,,,,,,METAR,662.0
KKLS 230756Z AUTO 00000KT 10SM FEW019 OVC045 07/06 A2995 RMK AO2 RAB21E45 SLP147 P0000 T00720061 401500067,KKLS,2022-10-23T07:56:00Z,46.12,-122.9,7.2,6.1,0,0,,10.0,29.949802,1014.7,,TRUE,TRUE,,,,,,,FEW,1900,OVC,4500,,,,,VFR,,,,15.0,6.7,0.005,,,,,,METAR,4.0
KJXN 230756Z AUTO 16007KT 10SM CLR 15/10 A3007 RMK AO2 SLP177 T01500100,KJXN,2022-10-23T07:56:00Z,42.27,-84.47,15.0,10.0,160,7,,10.0,30.070866,1017.7,,TRUE,TRUE,,,,,,,CLR,,,,,,,,VFR,,,,,,,,,,,,METAR,303.0
KJRB 230756Z AUTO 03008KT 10SM BKN037 A3028 RMK AO2 SLPNO FZRANO $,KJRB,2022-10-23T07:56:00Z,40.7,-74.02,,,30,8,,10.0,30.280512,,,TRUE,TRUE,TRUE,,,TRUE,,,BKN,3700,,,,,,,VFR,,,,,,,,,,,,METAR,2.0
KJMS 230756Z AUTO 36009KT 10SM CLR 05/02 A2950 RMK AO2 SLP995 T00500022,KJMS,2022-10-23T07:56:00Z,46.93,-98.67,5.0,2.2,360,9,,10.0,29.500984,999.5,,TRUE,TRUE,,,,,,,CLR,,,,,,,,VFR,,,,,,,,,,,,METAR,455.0
KJHW 230756Z AUTO 19007KT 10SM CLR 10/02 A3023 RMK AO2 SLP238 T01000017,KJHW,2022-10-23T07:56:00Z,42.15,-79.27,10.0,1.7,190,7,,10.0,30.230314,1023.8,,TRUE,TRUE,,,,,,,CLR,,,,,,,,VFR,,,,,,,,,,,,METAR,520.0
KJAX 230756Z 00000KT 10SM CLR 12/09 A3010 RMK AO2 SLP192 T01170094,KJAX,2022-10-23T07:56:00Z,30.5,-81.68,11.7,9.4,0,0,,10.0,30.100393,1019.2,,,TRUE,,,,,,,CLR,,,,,,,,VFR,,,,,,,,,,,,METAR,8.0
KJAC 230756Z AUTO 23007KT 10SM BKN043 BKN050 OVC060 M01/M02 A2952 RMK AO2 SNE07 SLP001 T10061022 FZRANO PNO $,KJAC,2022-10-23T07:56:00Z,43.62,-110.73,-0.6,-2.2,230,7,,10.0,29.518702,1000.1,,TRUE,TRUE,TRUE,,,TRUE,,,BKN,4300,BKN,5000,OVC,6000,,,VFR,,,,,,,,,,,,METAR,1967.0
KIWD 230756Z AUTO 17012G18KT 10SM CLR 17/09 A2972 RMK AO2 SLP061 T01720094,KIWD,2022-10-23T07:56:00Z,46.52,-90.12,17.2,9.4,170,12,18,10.0,29.719488,1006.1,,TRUE,TRUE,,,,,,,CLR,,,,,,,,VFR,,,,,,,,,,,,METAR,373.0
KITH 230756Z AUTO 08006KT 10SM CLR 06/02 A3026 RMK AO2 SLP248 T00560022,KITH,2022-10-23T07:56:00Z,42.48,-76.45,5.6,2.2,80,6,,10.0,30.259842,1024.8,,TRUE,TRUE,,,,,,,CLR,,,,,,,,VFR,,,,,,,,,,,,METAR,338.0
KISP 230756Z AUTO 03008KT 10SM OVC043 14/11 A3026 RMK AO2 SLP247 T01390106,KISP,2022-10-23T07:56:00Z,40.8,-73.1,13.9,10.6,30,8,,10.0,30.259842,1024.7,,TRUE,TRUE,,,,,,,OVC,4300,,,,,,,VFR,,,,,,,,,,,,METAR,25.0
KISM 230756Z AUTO 34004KT 10SM CLR 17/15 A3008 RMK AO2 SLP185 T01720150 PNO $,KISM,2022-10-23T07:56:00Z,28.28,-81.43,17.2,15.0,340,4,,10.0,30.079725,1018.5,,TRUE,TRUE,TRUE,,,,,,CLR,,,,,,,,VFR,,,,,,,,,,,,METAR,25.0
KINW 230756Z AUTO 20020G28KT 10SM CLR 15/06 A2967 RMK AO2 PK WND 22036/0710 SLP982 T01500056,KINW,2022-10-23T07:56:00Z,35.03,-110.72,15.0,5.6,200,20,28,10.0,29.66929,998.2,,TRUE,TRUE,,,,,,,CLR,,,,,,,,VFR,,,,,,,,,,,,METAR,1492.0
KHYS 230756Z AUTO 22005KT 10SM CLR 13/01 A2942 RMK AO2 SLP947 T01330011 $,KHYS,2022-10-23T07:56:00Z,38.85,-99.27,13.3,1.1,220,5,,10.0,29.421259,994.7,,TRUE,TRUE,TRUE,,,,,,CLR,,,,,,,,VFR,,,,,,,,,,,,METAR,607.0
KHYI 230756Z AUTO 20009KT 10SM CLR RMK AO2 SLPNO FZRANO $,KHYI,2022-10-23T07:56:00Z,29.88,-97.87,,,200,9,,10.0,,,,TRUE,TRUE,TRUE,,,TRUE,,,CLR,,,,,,,,VFR,,,,,,,,,,,,METAR,180.0
KHYA 230756Z AUTO 00000KT 10SM CLR 11/11 A3029 RMK AO2 SLP259 T01060106 $,KHYA,2022-10-23T07:56:00Z,41.67,-70.27,10.6,10.6,0,0,,10.0,30.28937,1025.9,,TRUE,TRUE,TRUE,,,,,,CLR,,,,,,,,VFR,,,,,,,,,,,,METAR,11.0
KHWV 230756Z AUTO 01003KT 10SM BKN047 BKN110 13/09 A3027 RMK AO2 SLP251 T01280094,KHWV,2022-10-23T07:56:00Z,40.82,-72.87,12.8,9.4,10,3,,10.0,30.268702,1025.1,,TRUE,TRUE,,,,,,,BKN,4700,BKN,11000,,,,,VFR,,,,,,,,,,,,METAR,20.0
KHPN 230756Z 05004KT 10SM SCT032 BKN041 12/08 A3027 RMK AO2 SLP251 T01170083 $,KHPN,2022-10-23T07:56:00Z,41.07,-73.7,11.7,8.3,50,4,,10.0,30.268702,1025.1,,,TRUE,TRUE,,,,,,SCT,3200,BKN,4100,,,,,VFR,,,,,,,,,,,,METAR,113.0
KHND 230756Z AUTO 01010KT 10SM OVC065 15/04 A2965 RMK AO2 SLP038 T01500039,KHND,2022-10-23T07:56:00Z,35.98,-115.13,15.0,3.9,10,10,,10.0,29.648623,1003.8,,TRUE,TRUE,,,,,,,OVC,6500,,,,,,,VFR,,,,,,,,,,,,METAR,740.0
KHNB 230756Z AUTO 19010KT 10SM BKN070 19/12 A3006 RMK AO2 SLP175 T01890117,KHNB,2022-10-23T07:56:00Z,38.25,-86.95,18.9,11.7,190,10,,10.0,30.059055,1017.5,,TRUE,TRUE,,,,,,,BKN,7000,,,,,,,VFR,,,,,,,,,,,,METAR,159.0
KHEZ 230756Z AUTO 13010KT 10SM CLR 16/14 A3004 RMK AO2 SLP170 T01610144,KHEZ,2022-10-23T07:56:00Z,31.62,-91.3,16.1,14.4,130,10,,10.0,30.041338,1017.0,,TRUE,TRUE,,,,,,,CLR,,,,,,,,VFR,,,,,,,,,,,,METAR,82.0
KHEF 230756Z AUTO 14004KT 10SM CLR 03/02 A3025 RMK AO2 SLP251 T00280022,KHEF,2022-10-23T07:56:00Z,38.72,-77.52,2.8,2.2,140,4,,10.0,30.250984,1025.1,,TRUE,TRUE,,,,,,,CLR,,,,,,,,VFR,,,,,,,,,,,,METAR,53.0
KGXY 230756Z 07004KT 10SM CLR 06/M04 A2936 RMK AO2 SLP915 T00611044 $,KGXY,2022-10-23T07:56:00Z,40.43,-104.62,6.1,-4.4,70,4,,10.0,29.359253,991.5,,,TRUE,TRUE,,,,,,CLR,,,,,,,,VFR,,,,,,,,,,,,METAR,1420.0
KGVQ 230756Z AUTO 19005KT 10SM CLR 11/03 A3020 RMK AO2 SLP224 T01110028,KGVQ,2022-10-23T07:56:00Z,43.03,-78.17,11.1,2.8,190,5,,10.0,30.200787,1022.4,,TRUE,TRUE,,,,,,,CLR,,,,,,,,VFR,,,,,,,,,,,,METAR,279.0
KGUC 230756Z AUTO 18012G20KT 10SM OVC090 11/M02 A2958 RMK AO2 SLP934 T01061022,KGUC,2022-10-23T07:56:00Z,38.52,-106.93,10.6,-2.2,180,12,20,10.0,29.58071,993.4,,TRUE,TRUE,,,,,,,OVC,9000,,,,,,,VFR,,,,,,,,,,,,METAR,2337.0
KGTR 230756Z AUTO 16007KT 10SM CLR 16/12 A3009 RMK AO2 SLP196 T01560122,KGTR,2022-10-23T07:56:00Z,33.45,-88.58,15.6,12.2,160,7,,10.0,30.088583,1019.6,,TRUE,TRUE,,,,,,,CLR,,,,,,,,VFR,,,,,,,,,,,,METAR,80.0
KGRD 230756Z AUTO 34004KT 10SM CLR 05/03 A3020 RMK AO2 SLP223 T00500028,KGRD,2022-10-23T07:56:00Z,34.25,-82.15,5.0,2.8,340,4,,10.0,30.200787,1022.3,,TRUE,TRUE,,,,,,,CLR,,,,,,,,VFR,,,,,,,,,,,,METAR,188.0
KGPZ 230756Z AUTO 14006KT 10SM CLR 08/06 A2964 RMK AO2 SLP042 T00780061,KGPZ,2022-10-23T07:56:00Z,47.22,-93.52,7.8,6.1,140,6,,10.0,29.639763,1004.2,,TRUE,TRUE,,,,,,,CLR,,,,,,,,VFR,,,,,,,,,,,,METAR,410.0
KGON 230756Z AUTO 35006KT 10SM CLR 11/09 A3029 RMK AO2 SLP255 T01110089,KGON,2022-10-23T07:56:00Z,41.33,-72.05,11.1,8.9,350,6,,10.0,30.28937,1025.5,,TRUE,TRUE,,,,,,,CLR,,,,,,,,VFR,,,,,,,,,,,,METAR,2.0
KGNR 230756Z AUTO 04003KT 08/03 A3029 RMK AO1 SLP264 T00780033,KGNR,2022-10-23T07:56:00Z,45.47,-69.55,7.8,3.3,40,3,,,30.28937,1026.4,,TRUE,TRUE,,,,,,,,,,,,,,,,,,,,,,,,,,,METAR,426.0
KGNA 230756Z AUTO 07006KT 10/07 A2973 RMK AO1 SLP067 T01000072,KGNA,2022-10-23T07:56:00Z,47.75,-90.35,10.0,7.2,70,6,,,29.731298,1006.7,,TRUE,TRUE,,,,,,,,,,,,,,,,,,,,,,,,,,,METAR,186.0
KGBD 230756Z AUTO 19012KT 10SM CLR 19/08 A2945 RMK AO2 SLP953 T01940083,KGBD,2022-10-23T07:56:00Z,38.35,-98.87,19.4,8.3,190,12,,10.0,29.450787,995.3,,TRUE,TRUE,,,,,,,CLR,,,,,,,,VFR,,,,,,,,,,,,METAR,573.0
KGAI 230756Z AUTO 00000KT 10SM CLR 04/04 A3026 RMK AO2 SLP260 T00440044,KGAI,2022-10-23T07:56:00Z,39.17,-77.17,4.4,4.4,0,0,,10.0,30.259842,1026.0,,TRUE,TRUE,,,,,,,CLR,,,,,,,,VFR,,,,,,,,,,,,METAR,151.0
KGAD 230756Z AUTO 00000KT 10SM CLR 06/06 A3017 RMK AO2 SLP217 T00610056 $,KGAD,2022-10-23T07:56:00Z,33.97,-86.08,6.1,5.6,0,0,,10.0,30.171259,1021.7,,TRUE,TRUE,TRUE,,,,,,CLR,,,,,,,,VFR,,,,,,,,,,,,METAR,169.0
KFSD 230756Z AUTO 08005KT 10SM CLR 13/07 A2948 RMK AO2 SLP977 T01280072,KFSD,2022-10-23T07:56:00Z,43.58,-96.75,12.8,7.2,80,5,,10.0,29.480314,997.7,,TRUE,TRUE,,,,,,,CLR,,,,,,,,VFR,,,,,,,,,,,,METAR,433.0
KFRM 230756Z AUTO 15012KT 10SM CLR 14/08 A2958 RMK AO2 SLP016 T01440083,KFRM,2022-10-23T07:56:00Z,43.63,-94.42,14.4,8.3,150,12,,10.0,29.58071,1001.6,,TRUE,TRUE,,,,,,,CLR,,,,,,,,VFR,,,,,,,,,,,,METAR,353.0
KFOD 230756Z AUTO 12007KT 10SM CLR 16/09 A2960 RMK AO2 SLP029 T01560089,KFOD,2022-10-23T07:56:00Z,42.53,-94.17,15.6,8.9,120,7,,10.0,29.601377,1002.9,,TRUE,TRUE,,,,,,,CLR,,,,,,,,VFR,,,,,,,,,,,,METAR,347.0
KFNL 230756Z 35003KT 10SM CLR 12/M02 A2936 RMK AO2 SLP883 T01171022,KFNL,2022-10-23T07:56:00Z,40.45,-105.02,11.7,-2.2,350,3,,10.0,29.359253,988.3,,,TRUE,,,,,,,CLR,,,,,,,,VFR,,,,,,,,,,,,METAR,1529.0
KFMH 230756Z 00000KT 10SM CLR 11/11 A3030,KFMH,2022-10-23T07:56:00Z,41.65,-70.52,11.0,11.0,0,0,,10.0,30.301182,,,,,,,,,,,CLR,,,,,,,,VFR,,,,,,,,,,,,METAR,35.0
KFLP 230756Z AUTO VRB06G14KT 10SM CLR 21/14 A2983 RMK AO2 SLP096 T02060139,KFLP,2022-10-23T07:56:00Z,36.28,-92.58,20.6,13.9,0,6,14,10.0,29.828741,1009.6,,TRUE,TRUE,,,,,,,CLR,,,,,,,,VFR,,,,,,,,,,,,METAR,215.0
KFKL 230756Z AUTO 11004KT 10SM CLR 07/03 A3022 RMK AO2 SLP235 T00720028,KFKL,2022-10-23T07:56:00Z,41.37,-79.87,7.2,2.8,110,4,,10.0,30.221457,1023.5,,TRUE,TRUE,,,,,,,CLR,,,,,,,,VFR,,,,,,,,,,,,METAR,468.0
KFCI 230756Z AUTO 01003KT 10SM CLR 09/09 A3021 RMK AO2 SLP242 T00890089,KFCI,2022-10-23T07:56:00Z,37.4,-77.52,8.9,8.9,10,3,,10.0,30.209646,1024.2,,TRUE,TRUE,,,,,,,CLR,,,,,,,,VFR,,,,,,,,,,,,METAR,63.0
KFAM 230756Z AUTO 18014G19KT 10SM CLR 18/11 A2989 RMK AO2 SLP126 T01830111,KFAM,2022-10-23T07:56:00Z,37.77,-90.42,18.3,11.1,180,14,19,10.0,29.890747,1012.6,,TRUE,TRUE,,,,,,,CLR,,,,,,,,VFR,,,,,,,,,,,,METAR,276.0
KEWK 230756Z AUTO 17019KT 10SM CLR 21/12 A2951 RMK AO2 PK WND 17030/0705 SLP977 T02110122,KEWK,2022-10-23T07:56:00Z,38.05,-97.27,21.1,12.2,170,19,,10.0,29.509842,997.7,,TRUE,TRUE,,,,,,,CLR,,,,,,,,VFR,,,,,,,,,,,,METAR,468.0
KESC 230756Z AUTO 18003KT 10SM CLR 12/12 A2988 RMK AO2 SLP123 T01220117 PNO $,KESC,2022-10-23T07:56:00Z,45.72,-87.08,12.2,11.7,180,3,,10.0,29.878937,1012.3,,TRUE,TRUE,TRUE,,,,,,CLR,,,,,,,,VFR,,,,,,,,,,,,METAR,180.0
KENV 230756Z AUTO 31017KT 10SM BKN085 OVC110 05/M03 A2963 RMK AO2 SLP036 T00501028,KENV,2022-10-23T07:56:00Z,40.72,-114.02,5.0,-2.8,310,17,,10.0,29.630905,1003.6,,TRUE,TRUE,,,,,,,BKN,8500,OVC,11000,,,,,VFR,,,,,,,,,,,,METAR,1291.0
KELZ 230756Z AUTO 00000KT 10SM CLR 08/01 A3025 RMK AO2 SLP244 T00830011,KELZ,2022-10-23T07:56:00Z,42.1,-77.98,8.3,1.1,0,0,,10.0,30.250984,1024.4,,TRUE,TRUE,,,,,,,CLR,,,,,,,,VFR,,,,,,,,,,,,METAR,639.0
KEKY 230756Z AUTO 13005KT 10SM CLR 13/07 A3015 RMK AO2 SLP055 T01330072,KEKY,2022-10-23T07:56:00Z,33.32,-86.93,13.3,7.2,130,5,,10.0,30.15059,1005.5,,TRUE,TRUE,,,,,,,CLR,,,,,,,,VFR,,,,,,,,,,,,METAR,213.0
KEKQ 230756Z AUTO 18005KT 10SM CLR 12/08 A3017 RMK AO2 SLP208 T01170078,KEKQ,2022-10-23T07:56:00Z,36.85,-84.85,11.7,7.8,180,5,,10.0,30.171259,1020.8,,TRUE,TRUE,,,,,,,CLR,,,,,,,,VFR,,,,,,,,,,,,METAR,291.0
KEKO 230756Z AUTO VRB03KT 10SM OVC050 01/M02 A2970 RMK AO2 SLP063 T00111022 401670000,KEKO,2022-10-23T07:56:00Z,40.82,-115.78,1.1,-2.2,0,3,,10.0,29.698818,1006.3,,TRUE,TRUE,,,,,,,OVC,5000,,,,,,,VFR,,,,16.7,,,,,,,,METAR,1541.0
KEHR 230756Z AUTO 18017G25KT 10SM OVC060 19/11 A3003 RMK AO2 SLP166 T01940106,KEHR,2022-10-23T07:56:00Z,37.82,-87.67,19.4,10.6,180,17,25,10.0,30.029528,1016.6,,TRUE,TRUE,,,,,,,OVC,6000,,,,,,,VFR,,,,,,,,,,,,METAR,117.0
KEEN 230756Z AUTO 00000KT 10SM CLR 02/02 A3033 RMK AO2 SLP278 T00220022 FZRANO $,KEEN,2022-10-23T07:56:00Z,42.88,-72.27,2.2,2.2,0,0,,10.0,30.33071,1027.8,,TRUE,TRUE,TRUE,,,TRUE,,,CLR,,,,,,,,VFR,,,,,,,,,,,,METAR,143.0
KEED 230756Z AUTO 26014G23KT 10SM CLR 22/07 A2961 RMK AO2 PK WND 27028/0716 SLP000 T02220067 403170200,KEED,2022-10-23T07:56:00Z,34.77,-114.62,22.2,6.7,260,14,23,10.0,29.610237,1000.0,,TRUE,TRUE,,,,,,,CLR,,,,,,,,VFR,,,,31.7,20.0,,,,,,,METAR,271.0
KEAU 230756Z AUTO 15007KT 10SM CLR 17/09 A2970 RMK AO2 SLP054 T01670089,KEAU,2022-10-23T07:56:00Z,44.87,-91.48,16.7,8.9,150,7,,10.0,29.698818,1005.4,,TRUE,TRUE,,,,,,,CLR,,,,,,,,VFR,,,,,,,,,,,,METAR,271.0
KEAR 230756Z AUTO 14008KT 10SM -RA CLR 10/03 A2937 RMK AO2 RAB46 SLP929 P0000 T01000033,KEAR,2022-10-23T07:56:00Z,40.72,-99.0,10.0,3.3,140,8,,10.0,29.371063,992.9,,TRUE,TRUE,,,,,,-RA,CLR,,,,,,,,VFR,,,,,,0.005,,,,,,METAR,649.0
KDYR 230756Z AUTO 10SM CLR 17/12 A3001 RMK AO2 SLP165 T01720122,KDYR,2022-10-23T07:56:00Z,36.0,-89.4,17.2,12.2,,,,10.0,30.008858,1016.5,,TRUE,TRUE,,,,,,,CLR,,,,,,,,VFR,,,,,,,,,,,,METAR,98.0
KDWU 230756Z AUTO 11003KT 10SM CLR 10/ A3016 RMK AO2 SLP212 T0100,KDWU,2022-10-23T07:56:00Z,38.55,-82.73,10.0,,110,3,,10.0,30.159449,1021.2,,TRUE,TRUE,,,,,,,CLR,,,,,,,,VFR,,,,,,,,,,,,METAR,165.0
KDVL 230756Z AUTO 05012G19KT 10SM CLR 07/05 A2959 RMK AO2 SLP041 T00670050,KDVL,2022-10-23T07:56:00Z,48.12,-98.92,6.7,5.0,50,12,19,10.0,29.589567,1004.1,,TRUE,TRUE,,,,,,,CLR,,,,,,,,VFR,,,,,,,,,,,,METAR,439.0
KDAY 230756Z 18007KT 10SM BKN190 OVC250 16/09 A3012 RMK AO2 SLP194 T01560089,KDAY,2022-10-23T07:56:00Z,39.9,-84.22,15.6,8.9,180,7,,10.0,30.121063,1019.4,,,TRUE,,,,,,,BKN,19000,OVC,25000,,,,,VFR,,,,,,,,,,,,METAR,303.0
KD07 230756Z AUTO 07008KT 06/01 A2937 RMK AO1 SLP949 T00610011,KD07,2022-10-23T07:56:00Z,45.03,-102.02,6.1,1.1,70,8,,,29.371063,994.9,,TRUE,TRUE,,,,,,,,,,,,,,,,,,,,,,,,,,,METAR,786.0
KCXY 230756Z AUTO 00000KT 10SM CLR 06/04 A3027 RMK AO2 SLP253 T00610039,KCXY,2022-10-23T07:56:00Z,40.22,-76.85,6.1,3.9,0,0,,10.0,30.268702,1025.3,,TRUE,TRUE,,,,,,,CLR,,,,,,,,VFR,,,,,,,,,,,,METAR,102.0
KCWI 230756Z AUTO 14011KT 10SM CLR 16/13 A2981 RMK AO2 SLP094 T01610128,KCWI,2022-10-23T07:56:00Z,41.82,-90.32,16.1,12.8,140,11,,10.0,29.811024,1009.4,,TRUE,TRUE,,,,,,,CLR,,,,,,,,VFR,,,,,,,,,,,,METAR,212.0
KCVO 230756Z AUTO 21003KT 10SM BKN055 OVC075 07/06 A2999 RMK AO2 RAB12E23 SLP156 P0001 T00670061 401440067,KCVO,2022-10-23T07:56:00Z,44.5,-123.28,6.7,6.1,210,3,,10.0,29.991142,1015.6,,TRUE,TRUE,,,,,,,BKN,5500,OVC,7500,,,,,VFR,,,,14.4,6.7,0.01,,,,,,METAR,75.0
KCVN 230756Z AUTO 22010KT 10SM CLR 16/10 A2975 RMK AO2 SLP035 T01610100,KCVN,2022-10-23T07:56:00Z,34.42,-103.07,16.1,10.0,220,10,,10.0,29.749016,1003.5,,TRUE,TRUE,,,,,,,CLR,,,,,,,,VFR,,,,,,,,,,,,METAR,1278.0
KCOE 230756Z AUTO 03006KT 10SM SCT015 03/02 A2974 RMK AO2 SLP098 T00330017 400890028 PNO $,KCOE,2022-10-23T07:56:00Z,47.77,-116.82,3.3,1.7,30,6,,10.0,29.740158,1009.8,,TRUE,TRUE,TRUE,,,,,,SCT,1500,,,,,,,VFR,,,,8.9,2.8,,,,,,,METAR,693.0
KCIU 230756Z AUTO 12008KT 10SM CLR 10/08 A2997 RMK AO2 SLP148 T01000083,KCIU,2022-10-23T07:56:00Z,46.25,-84.47,10.0,8.3,120,8,,10.0,29.970472,1014.8,,TRUE,TRUE,,,,,,,CLR,,,,,,,,VFR,,,,,,,,,,,,METAR,242.0
KCHS 230756Z 01005KT 10SM CLR 13/11 A3011 RMK AO2 SLP194 T01280111,KCHS,2022-10-23T07:56:00Z,32.9,-80.03,12.8,11.1,10,5,,10.0,30.109253,1019.4,,,TRUE,,,,,,,CLR,,,,,,,,VFR,,,,,,,,,,,,METAR,12.0
KCGZ 230756Z AUTO 19012G19KT 10SM CLR 21/13 A2972 RMK AO2 SLP051 T02060133 $,KCGZ,2022-10-23T07:56:00Z,32.95,-111.77,20.6,13.3,190,12,19,10.0,29.719488,1005.1,,TRUE,TRUE,TRUE,,,,,,CLR,,,,,,,,VFR,,,,,,,,,,,,METAR,444.0
KCEC 230756Z AUTO 00000KT 7SM CLR 08/07 A3002 RMK AO2 SLP168 T00780067 401500078,KCEC,2022-10-23T07:56:00Z,41.78,-124.23,7.8,6.7,0,0,,7.0,30.02067,1016.8,,TRUE,TRUE,,,,,,,CLR,,,,,,,,VFR,,,,15.0,7.8,,,,,,,METAR,17.0
KCAE 230756Z 16003KT 10SM CLR 07/06 A3015 RMK AO2 SLP208 T00720056,KCAE,2022-10-23T07:56:00Z,33.93,-81.12,7.2,5.6,160,3,,10.0,30.15059,1020.8,,,TRUE,,,,,,,CLR,,,,,,,,VFR,,,,,,,,,,,,METAR,69.0
KBVX 230756Z AUTO 12007KT 10SM CLR 19/13 A2991 RMK AO2 SLP124 T01940133,KBVX,2022-10-23T07:56:00Z,35.73,-91.65,19.4,13.3,120,7,,10.0,29.911417,1012.4,,TRUE,TRUE,,,,,,,CLR,,,,,,,,VFR,,,,,,,,,,,,METAR,137.0
KBTP 230756Z AUTO 07004KT 10SM CLR 04/03 A3021 RMK AO2 SLP237 T00390028 TSNO,KBTP,2022-10-23T07:56:00Z,40.77,-79.95,3.9,2.8,70,4,,10.0,30.209646,1023.7,,TRUE,TRUE,,,TRUE,,,,CLR,,,,,,,,VFR,,,,,,,,,,,,METAR,375.0
KBOK 230756Z AUTO 00000KT 10SM -RA SCT049 OVC060 09/07 A3003 RMK AO2 RAB43 SLP169 P0000 T00890072 $,KBOK,2022-10-23T07:56:00Z,42.07,-124.28,8.9,7.2,0,0,,10.0,30.029528,1016.9,,TRUE,TRUE,TRUE,,,,,-RA,SCT,4900,OVC,6000,,,,,VFR,,,,,,0.005,,,,,,METAR,140.0
KBMI 230756Z AUTO 16015KT 10SM CLR 16/11 A2990 RMK AO2 SLP117 T01560111,KBMI,2022-10-23T07:56:00Z,40.47,-88.92,15.6,11.1,160,15,,10.0,29.899607,1011.7,,TRUE,TRUE,,,,,,,CLR,,,,,,,,VFR,,,,,,,,,,,,METAR,262.0
KBLM 230756Z AUTO 36004KT 10SM FEW039 13/13 A3026 RMK AO2 SLP246 T01280128,KBLM,2022-10-23T07:56:00Z,40.17,-74.12,12.8,12.8,360,4,,10.0,30.259842,1024.6,,TRUE,TRUE,,,,,,,FEW,3900,,,,,,,VFR,,,,,,,,,,,,METAR,45.0
KBKX 230756Z AUTO 14011KT 10SM CLR A2949 RMK AO2 SLPNO FZRANO $,KBKX,2022-10-23T07:56:00Z,44.3,-96.82,,,140,11,,10.0,29.489174,,,TRUE,TRUE,TRUE,,,TRUE,,,CLR,,,,,,,,VFR,,,,,,,,,,,,METAR,494.0
KBJJ 230756Z AUTO 00000KT 9SM CLR 06/05 A3017 RMK AO2 SLP216 T00610050,KBJJ,2022-10-23T07:56:00Z,40.87,-81.88,6.1,5.0,0,0,,9.0,30.171259,1021.6,,TRUE,TRUE,,,,,,,CLR,,,,,,,,VFR,,,,,,,,,,,,METAR,338.0
KBIH 230756Z AUTO 32009KT 10SM CLR 07/M07 A2977 RMK AO2 SLP044 T00671072 402610067,KBIH,2022-10-23T07:56:00Z,37.37,-118.35,6.7,-7.2,320,9,,10.0,29.769686,1004.4,,TRUE,TRUE,,,,,,,CLR,,,,,,,,VFR,,,,26.1,6.7,,,,,,,METAR,1252.0
KBID 230756Z AUTO 04006KT 10SM FEW120 14/12 A3029 RMK AO2 SLP257 T01390117,KBID,2022-10-23T07:56:00Z,41.17,-71.58,13.9,11.7,40,6,,10.0,30.28937,1025.7,,TRUE,TRUE,,,,,,,FEW,12000,,,,,,,VFR,,,,,,,,,,,,METAR,32.0
KBHB 230756Z AUTO 00000KT 8SM CLR 06/06 A3034 RMK AO2 SLP275 T00560056 PNO $,KBHB,2022-10-23T07:56:00Z,44.45,-68.37,5.6,5.6,0,0,,8.0,30.339567,1027.5,,TRUE,TRUE,TRUE,,,,,,CLR,,,,,,,,VFR,,,,,,,,,,,,METAR,21.0
KAUO 230756Z AUTO 08003KT 10SM CLR 09/06 A3017 RMK AO2 SLP238 T00940056,KAUO,2022-10-23T07:56:00Z,32.62,-85.43,9.4,5.6,80,3,,10.0,30.171259,1023.8,,TRUE,TRUE,,,,,,,CLR,,,,,,,,VFR,,,,,,,,,,,,METAR,231.0
KASH 230756Z AUTO 00000KT 10SM CLR 04/04 A3032 RMK AO2 SLP274 T00440044 $,KASH,2022-10-23T07:56:00Z,42.78,-71.52,4.4,4.4,0,0,,10.0,30.318897,1027.4,,TRUE,TRUE,TRUE,,,,,,CLR,,,,,,,,VFR,,,,,,,,,,,,METAR,56.0
KART 230756Z AUTO 00000KT 10SM CLR 13/02 A3023 RMK AO2 SLP235 T01330022,KART,2022-10-23T07:56:00Z,43.98,-76.03,13.3,2.2,0,0,,10.0,30.230314,1023.5,,TRUE,TRUE,,,,,,,CLR,,,,,,,,VFR,,,,,,,,,,,,METAR,100.0
KARG 230756Z AUTO 18017G21KT 10SM CLR 20/13 A2991 RMK AO2 SLP128 T02000128,KARG,2022-10-23T07:56:00Z,36.12,-90.92,20.0,12.8,180,17,21,10.0,29.911417,1012.8,,TRUE,TRUE,,,,,,,CLR,,,,,,,,VFR,,,,,,,,,,,,METAR,82.0
KAND 230756Z AUTO 00000KT 10SM CLR 07/04 A3020 RMK AO2 SLP221 T00720039,KAND,2022-10-23T07:56:00Z,34.5,-82.72,7.2,3.9,0,0,,10.0,30.200787,1022.1,,TRUE,TRUE,,,,,,,CLR,,,,,,,,VFR,,,,,,,,,,,,METAR,233.0
KALK 230756Z AUTO 23023G33KT 10SM CLR 17/11 A2987 RMK AO2 PK WND 23033/0755 SLP027 T01720106,KALK,2022-10-23T07:56:00Z,31.6,-110.43,17.2,10.6,230,23,33,10.0,29.870079,1002.7,,TRUE,TRUE,,,,,,,CLR,,,,,,,,VFR,,,,,,,,,,,,METAR,1451.0
KAIZ 230756Z AUTO 17009KT 10SM CLR 19/13 RMK AO2 SLPNO T01940128 $,KAIZ,2022-10-23T07:56:00Z,38.1,-92.53,19.4,12.8,170,9,,10.0,,,,TRUE,TRUE,TRUE,,,,,,CLR,,,,,,,,VFR,,,,,,,,,,,,METAR,263.0
KAFJ 230756Z AUTO 00000KT 10SM CLR 03/03 A3022 RMK AO2 SLP235 T00330028,KAFJ,2022-10-23T07:56:00Z,40.13,-80.28,3.3,2.8,0,0,,10.0,30.221457,1023.5,,TRUE,TRUE,,,,,,,CLR,,,,,,,,VFR,,,,,,,,,,,,METAR,360.0
KADF 230756Z AUTO 16005KT 10SM CLR 19/15 A2994 RMK AO2 SLP135 T01940150,KADF,2022-10-23T07:56:00Z,34.1,-93.07,19.4,15.0,160,5,,10.0,29.940945,1013.5,,TRUE,TRUE,,,,,,,CLR,,,,,,,,VFR,,,,,,,,,,,,METAR,54.0
K8D3 230756Z AUTO 00000KT 04/M01 A2950 RMK AO1 SLP985 T00391011,K8D3,2022-10-23T07:56:00Z,45.67,-96.98,3.9,-1.1,0,0,,,29.500984,998.5,,TRUE,TRUE,,,,,,,,,,,,,,,,,,,,,,,,,,,METAR,535.0
K7N0 230756Z AUTO VRB04KT 10SM CLR 21/15 A3008 RMK AO2 SLP183 T02060150 PNO $,K7N0,2022-10-23T07:56:00Z,29.95,-90.07,20.6,15.0,0,4,,10.0,30.079725,1018.3,,TRUE,TRUE,TRUE,,,,,,CLR,,,,,,,,VFR,,,,,,,,,,,,METAR,0.0
K79J 230756Z AUTO 00000KT 10SM CLR 09/06 A3013 RMK AO2 SLP200 T00940061,K79J,2022-10-23T07:56:00Z,31.32,-86.4,9.4,6.1,0,0,,10.0,30.129921,1020.0,,TRUE,TRUE,,,,,,,CLR,,,,,,,,VFR,,,,,,,,,,,,SPECI,93.0
K2WX 230756Z AUTO 07010KT 07/02 A2936 RMK AO1 SLP943 T00670022,K2WX,2022-10-23T07:56:00Z,45.6,-103.55,6.7,2.2,70,10,,,29.359253,994.3,,TRUE,TRUE,,,,,,,,,,,,,,,,,,,,,,,,,,,METAR,925.0
K1M4 230756Z AUTO 18006KT 10SM CLR 15/09 A3014 RMK AO2 SLP193 T01500094,K1M4,2022-10-23T07:56:00Z,34.28,-87.6,15.0,9.4,180,6,,10.0,30.138779,1019.3,,TRUE,TRUE,,,,,,,CLR,,,,,,,,VFR,,,,,,,,,,,,METAR,283.0
K1KW 230756Z AUTO 32008KT 10SM CLR 08/M07 A2929 RMK AO2 SLP879 T00831074 $,K1KW,2022-10-23T07:56:00Z,41.13,-103.48,8.3,-7.4,320,8,,10.0,29.291338,987.9,,TRUE,TRUE,TRUE,,,,,,CLR,,,,,,,,VFR,,,,,,,,,,,,METAR,1443.0
K1JW 230756Z AUTO 00000KT 10SM CLR 07/M09 A2919 RMK AO2 SLP844 T00711089 $,K1JW,2022-10-23T07:56:00Z,40.97,-103.2,7.1,-8.9,0,0,,10.0,29.190945,984.4,,TRUE,TRUE,TRUE,,,,,,CLR,,,,,,,,VFR,,,,,,,,,,,,METAR,1382.0
K1IW 230756Z AUTO 23011KT 10SM CLR 08/M07 A2928 RMK AO2 SLP880 T00821071 $,K1IW,2022-10-23T07:56:00Z,41.05,-102.87,8.2,-7.1,230,11,,10.0,29.279528,988.0,,TRUE,TRUE,TRUE,,,,,,CLR,,,,,,,,VFR,,,,,,,,,,,,METAR,1294.0
K1HW 230756Z AUTO 28012KT 10SM CLR 05/M08 A2928 RMK AO2 SLP886 T00491079 $,K1HW,2022-10-23T07:56:00Z,41.32,-102.83,4.9,-7.9,280,12,,10.0,29.279528,988.6,,TRUE,TRUE,TRUE,,,,,,CLR,,,,,,,,VFR,,,,,,,,,,,,METAR,1265.0
K1FW 230756Z AUTO 34007KT 10SM CLR 07/M07 A2933 RMK AO2 SLP885 T00741071 $,K1FW,2022-10-23T07:56:00Z,41.37,-103.48,7.4,-7.1,340,7,,10.0,29.329725,988.5,,TRUE,TRUE,TRUE,,,,,,CLR,,,,,,,,VFR,,,,,,,,,,,,METAR,1451.0
K1EW 230756Z AUTO 00000KT 10SM BKN240 10/M08 A2934 RMK AO2 SLP888 T01031084 $,K1EW,2022-10-23T07:56:00Z,41.12,-103.98,10.3,-8.4,0,0,,10.0,29.338583,988.8,,TRUE,TRUE,TRUE,,,,,,BKN,24000,,,,,,,VFR,,,,,,,,,,,,METAR,1609.0
K1DW 230756Z AUTO 34006KT 10SM SCT240 12/M09 A2936 RMK AO2 SLP882 T01171088 $,K1DW,2022-10-23T07:56:00Z,41.37,-103.8,11.7,-8.8,340,6,,10.0,29.359253,988.2,,TRUE,TRUE,TRUE,,,,,,SCT,24000,,,,,,,VFR,,,,,,,,,,,,METAR,1539.0
K1CW 230756Z AUTO 16005KT 10SM SCT220 BKN240 14/M10 A2931 RMK AO2 SLP868 T01351104 $,K1CW,2022-10-23T07:56:00Z,41.58,-103.57,13.5,-10.4,160,5,,10.0,29.309055,986.8,,TRUE,TRUE,TRUE,,,,,,SCT,22000,BKN,24000,,,,,VFR,,,,,,,,,,,,METAR,1370.0
K1BW 230756Z AUTO 09003KT 10SM BKN150 BKN220 OVC240 13/M10 A2935 RMK AO2 SLP877 T01291102 $,K1BW,2022-10-23T07:56:00Z,41.52,-104.0,12.9,-10.2,90,3,,10.0,29.350393,987.7,,TRUE,TRUE,TRUE,,,,,,BKN,15000,BKN,22000,OVC,24000,,,VFR,,,,,,,,,,,,METAR,1606.0
K1AW 230756Z AUTO 02003KT 10SM BKN130 BKN170 OVC240 08/M08 A2935 RMK AO2 SLP890 T00801077 $,K1AW,2022-10-23T07:56:00Z,41.33,-104.27,8.0,-7.7,20,3,,10.0,29.350393,989.0,,TRUE,TRUE,TRUE,,,,,,BKN,13000,BKN,17000,OVC,24000,,,VFR,,,,,,,,,,,,METAR,1670.0
TXKF 230755Z 11013KT 9999 SCT010 SCT045 25/24 Q1019 ,TXKF,2022-10-23T07:55:00Z,32.37,-64.68,25.0,24.0,110,13,,6.21,30.088583,,,,,,,,,,,SCT,1000,SCT,4500,,,,,VFR,,,,,,,,,,,,METAR,4.0
TNCE 230755Z AUTO VRB02KT //// // ///////// 24/23 Q1012 RE//,TNCE,2022-10-23T07:55:00Z,17.48,-62.97,24.0,23.0,0,2,,,29.88189,,,TRUE,,,,,,,,,,,,,,,,,,,,,,,,,,,,METAR,38.0
TNCB 230755Z AUTO 08007KT 9999 NCD 27/25 Q1009,TNCB,2022-10-23T07:55:00Z,12.13,-68.28,27.0,25.0,80,7,,6.21,29.793306,,,TRUE,,,,,,,,CLR,,,,,,,,VFR,,,,,,,,,,,,METAR,6.0
RKSO 230755Z AUTO 34009KT 10SM CLR 17/03 A3007 RMK AO2 SLP186 T01720028 TSNO CHINO RWY09 $,RKSO,2022-10-23T07:55:00Z,37.08,127.02,17.2,2.8,340,9,,10.0,30.070866,1018.6,,TRUE,TRUE,TRUE,,TRUE,,,,CLR,,,,,,,,VFR,,,,,,,,,,,,METAR,10.0
RKSG 230755Z 31010KT 10SM CLR 17/05 A3005 RMK AO2A SLP179 T01650045 TSNO $,RKSG,2022-10-23T07:55:00Z,36.97,127.02,16.5,4.5,310,10,,10.0,30.050198,1017.9,,,TRUE,TRUE,,TRUE,,,,CLR,,,,,,,,VFR,,,,,,,,,,,,METAR,12.0
RKJK 230755Z AUTO 33016G21KT 10SM CLR 15/03 A3006 RMK AO2 SLP184 T01540025 $,RKJK,2022-10-23T07:55:00Z,35.9,126.62,15.4,2.5,330,16,21,10.0,30.059055,1018.4,,TRUE,TRUE,TRUE,,,,,,CLR,,,,,,,,VFR,,,,,,,,,,,,METAR,8.0
PWAK 230755Z AUTO 06013KT 9999 FEW017 BKN065 28/24 A2992 RMK AO2 LTG DSNT SE SLP138 T02770243 $,PWAK,2022-10-23T07:55:00Z,19.28,166.62,27.7,24.3,60,13,,6.21,29.920275,1013.8,,TRUE,TRUE,TRUE,,,,,,FEW,1700,BKN,6500,,,,,VFR,,,,,,,,,,,,METAR,7.0
PHHI 230755Z AUTO 00000KT 10SM SCT028 BKN035 OVC044 24/17 A3009 RMK AO2 SLP178 T02380173 $,PHHI,2022-10-23T07:55:00Z,21.48,-158.05,23.8,17.3,0,0,,10.0,30.088583,1017.8,,TRUE,TRUE,TRUE,,,,,,SCT,2800,BKN,3500,OVC,4400,,,VFR,,,,,,,,,,,,METAR,246.0
PGUA 230755Z AUTO 14006KT 10SM FEW013 26/23 A2981 RMK AO2 SLP085 T02580234 $,PGUA,2022-10-23T07:55:00Z,13.57,144.92,25.8,23.4,140,6,,10.0,29.811024,1008.5,,TRUE,TRUE,TRUE,,,,,,FEW,1300,,,,,,,VFR,,,,,,,,,,,,METAR,159.0
PATC 230755Z AUTO 28023KT BKN006 01/01 A2967 RMK AO2 PK WND 28026/0729 SLP050 T00130007 PWINO FZRANO $,PATC,2022-10-23T07:55:00Z,65.57,-167.92,1.3,0.7,280,23,,,29.66929,1005.0,,TRUE,TRUE,TRUE,,,TRUE,TRUE,,BKN,600,,,,,,,,,,,,,,,,,,,METAR,77.0
PALU 230755Z AUTO 18019KT 130V190 10SM OVC070 02/M02 A2974 RMK AO2 PK WND 16030/0657 SLP071 T00241021,PALU,2022-10-23T07:55:00Z,68.88,-166.1,2.4,-2.1,180,19,,10.0,29.740158,1007.1,,TRUE,TRUE,,,,,,,OVC,7000,,,,,,,VFR,,,,,,,,,,,,METAR,8.0
PAIM 230755Z AUTO 00000KT 10SM OVC003 M04/M04 A2992 RMK AO2 SLP158 T10371037,PAIM,2022-10-23T07:55:00Z,66.0,-153.7,-3.7,-3.7,0,0,,10.0,29.920275,1015.8,,TRUE,TRUE,,,,,,,OVC,300,,,,,,,LIFR,,,,,,,,,,,,METAR,309.0
PAFR 230755Z AUTO 03003KT 10SM OVC170 M04/M05 A2973 RMK AO2 SLP078 T10441048 VISNO RWY35 CHINO RWY35 $,PAFR,2022-10-23T07:55:00Z,61.27,-149.65,-4.4,-4.8,30,3,,10.0,29.731298,1007.8,,TRUE,TRUE,TRUE,,,,,,OVC,17000,,,,,,,VFR,,,,,,,,,,,,METAR,106.0
PAEH 230755Z AUTO 00000KT 10SM BKN020 BKN190 04/02 A3003 RMK AO2 SLP178 T00350016,PAEH,2022-10-23T07:55:00Z,58.65,-162.07,3.5,1.6,0,0,,10.0,30.029528,1017.8,,TRUE,TRUE,,,,,,,BKN,2000,BKN,19000,,,,,MVFR,,,,,,,,,,,,METAR,101.0
PAED 230755Z 02009KT 10SM FEW009 BKN180 M00/M02 A2976 RMK AO2A SLP076 T10051022 $,PAED,2022-10-23T07:55:00Z,61.25,-149.83,-0.5,-2.2,20,9,,10.0,29.760826,1007.6,,,TRUE,TRUE,,,,,,FEW,900,BKN,18000,,,,,VFR,,,,,,,,,,,,METAR,54.0
PACZ 230755Z AUTO 18017G24KT 10SM BKN011 BKN050 BKN070 03/01 A2989 RMK AO2 SLP129 T00310013,PACZ,2022-10-23T07:55:00Z,61.78,-166.03,3.1,1.3,180,17,24,10.0,29.890747,1012.9,,TRUE,TRUE,,,,,,,BKN,1100,BKN,5000,BKN,7000,,,MVFR,,,,,,,,,,,,METAR,129.0
OTBH 230755Z 00000KT 9999 CLR 32/21 A3004 RMK AO2A SLPNO ALSTG ESTMD RVRNO PWINO FZRANO TSNO CHINO RWY34 $,OTBH,2022-10-23T07:55:00Z,25.12,51.32,32.0,21.0,0,0,,6.21,30.041338,,,,TRUE,TRUE,,TRUE,TRUE,TRUE,,CLR,,,,,,,,VFR,,,,,,,,,,,,SPECI,40.0
OPLA 230755Z 30005KT 6000 NSC 29/10 Q1017 NOSIG RMK QFE991 A30.03,OPLA,2022-10-23T07:55:00Z,31.52,74.4,29.0,10.0,300,5,,3.73,30.029528,,,,,,TRUE,,,,,CLR,,,,,,,,MVFR,,,,,,,,,,,,METAR,217.0
OPFA 230755Z 31004KT 4000 HZ NSC 31/13 Q1017 NOSIG,OPFA,2022-10-23T07:55:00Z,31.37,73.0,31.0,13.0,310,4,,2.49,30.029528,,,,,,TRUE,,,,HZ,CLR,,,,,,,,IFR,,,,,,,,,,,,METAR,180.0
OKAS 230755Z 24012KT 9000 HZ CLR 38/M03 A3001 RMK AO2A SLP154 $,OKAS,2022-10-23T07:55:00Z,29.35,47.52,38.0,-3.0,240,12,,5.59,30.008858,1015.4,,,TRUE,TRUE,,,,,HZ,CLR,,,,,,,,VFR,,,,,,,,,,,,METAR,144.0
NZCM 230755Z AUTO 06015KT 9999 CLR M21/M28 A2927 RMK AO2 SLP920 T12131277 $,NZCM,2022-10-23T07:55:00Z,-77.85,166.67,-21.3,-27.7,60,15,,6.21,29.27067,992.0,,TRUE,TRUE,TRUE,,,,,,CLR,,,,,,,,VFR,,,,,,,,,,,,METAR,24.0
LIVT 230755Z AUTO VRB03KT //// 20/18 Q1022,LIVT,2022-10-23T07:55:00Z,45.68,13.75,20.0,18.0,0,3,,,30.177166,,,TRUE,,,,,,,,,,,,,,,,,,,,,,,,,,,,METAR,20.0
LIVR 230755Z 12003KT 9999 FEW030 06/04 Q1025 RMK SCT MON CLD SCT VIS MIN 9999,LIVR,2022-10-23T07:55:00Z,46.28,11.78,6.0,4.0,120,3,,6.21,30.265747,,,,,,,,,,,FEW,3000,,,,,,,VFR,,,,,,,,,,,,SPECI,1997.0
LIVP 230755Z 21014KT 0000 FG VV/// 07/07 Q1025 RMK MON INVIS VAL INVIS VIS MIN 0000,LIVP,2022-10-23T07:55:00Z,46.15,11.03,7.0,7.0,210,14,,0.0,30.265747,,,,,,,,,,FG,OVX,0,,,,,,,LIFR,,,,,,,,,,,,METAR,2099.0
LIVM 230755Z AUTO /////KT //// ///// Q////,LIVM,2022-10-23T07:55:00Z,44.45,12.3,,,,,,,,,,TRUE,,,,,,,,,,,,,,,,,,,,,,,,,,,,METAR,6.0
LIVF 230755Z 15006KT 9999 FEW025 19/13 Q1022 RMK BKN SCT070 MON S W CIME INC NC VAL NIL VIS MIN 9999,LIVF,2022-10-23T07:55:00Z,43.52,12.72,19.0,13.0,150,6,,6.21,30.177166,,,,,,,,,,,FEW,2500,,,,,,,VFR,,,,,,,,,,,,METAR,549.0
LIVE 230755Z VRB02KT 9999 FEW020 SCT030 06/04 Q1024 RMK BKN VIS MIN 9999,LIVE,2022-10-23T07:55:00Z,46.82,10.5,6.0,4.0,0,2,,6.21,30.236221,,,,,,,,,,,FEW,2000,SCT,3000,,,,,VFR,,,,,,,,,,,,METAR,1684.0
LIVD 230755Z AUTO VRB03KT //// 07/06 Q1027,LIVD,2022-10-23T07:55:00Z,46.72,12.22,7.0,6.0,0,3,,,30.324802,,,TRUE,,,,,,,,,,,,,,,,,,,,,,,,,,,,METAR,1221.0
LIRX 230755Z 17020KT 0000 FG VV/// 19/17 Q1021 RMK VIS MIN 0000 VIS MAR 30 M,LIRX,2022-10-23T07:55:00Z,42.73,10.38,19.0,17.0,170,20,,0.0,30.147638,,,,,,,,,,FG,OVX,0,,,,,,,LIFR,,,,,,,,,,,,METAR,397.0
LIRV 230755Z 01005KT 9999 FEW016 17/15 Q1024 RMK SCT SCT070 MON E SE CIME INC VAR RAPID VIS MIN 9999 WIND THR04/////KT BLU,LIRV,2022-10-23T07:55:00Z,42.42,12.07,17.0,15.0,10,5,,6.21,30.236221,,,,,,,,,,,FEW,1600,,,,,,,VFR,,,,,,,,,,,,SPECI,294.0
LIRT 230755Z 28008KT CAVOK 18/M10 Q1027 RMK SKC MON LIB VAL MAR CLD VIS MIN 9999,LIRT,2022-10-23T07:55:00Z,41.03,15.22,18.0,-10.0,280,8,,6.21,30.324802,,,,,,,,,,,CAVOK,,,,,,,,VFR,,,,,,,,,,,,METAR,1058.0
LIRS 230755Z 13012KT 8000 SCT015 21/19 Q1022 RMK BKN VIS MIN 8000 WIND THR03 14011KT WIND THR21 15009KT BLU,LIRS,2022-10-23T07:55:00Z,42.75,11.07,21.0,19.0,130,12,,4.97,30.177166,,,,,,,,,,,SCT,1500,,,,,,,MVFR,,,,,,,,,,,,METAR,3.0
LIRM 230755Z 35004KT 4000 BR FEW018 SCT050 19/17 Q1025 RMK SCT VIS MIN 4000 WIND THR06 02004KT GRN,LIRM,2022-10-23T07:55:00Z,41.05,14.07,19.0,17.0,350,4,,2.49,30.265747,,,,,,,,,,BR,FEW,1800,SCT,5000,,,,,IFR,,,,,,,,,,,,METAR,6.0
LIRK 230755Z AUTO 28011G21KT 230V020 //// 13/02 Q1031,LIRK,2022-10-23T07:55:00Z,42.47,12.97,13.0,2.0,280,11,21,,30.442913,,,TRUE,,,,,,,,,,,,,,,,,,,,,,,,,,,,METAR,1721.0
LIRE 230755Z 13011KT 9999 SCT020 21/18 Q1024 RMK SCT VIS MIN 9999 WIND THR13 15011KT WIND THR31 /////KT BLU,LIRE,2022-10-23T07:55:00Z,41.65,12.43,21.0,18.0,130,11,,6.21,30.236221,,,,,,,,,,,SCT,2000,,,,,,,VFR,,,,,,,,,,,,METAR,16.0
LIQO 230755Z AUTO /////KT //// ///// Q////,LIQO,2022-10-23T07:55:00Z,42.38,11.17,,,,,,,,,,TRUE,,,,,,,,,,,,,,,,,,,,,,,,,,,,SPECI,627.0
LIQC 230755Z 00000KT 9999 SCT016 SCT026 18/16 Q1025 RMK BKN QUK 2 QUL 1 SE VIS MAR 15 KM VIS MIN 9999,LIQC,2022-10-23T07:55:00Z,40.55,14.2,18.0,16.0,0,0,,6.21,30.265747,,,,,,,,,,,SCT,1600,SCT,2600,,,,,VFR,,,,,,,,,,,,METAR,154.0
LIPS 230755Z /////KT 9999 BKN060 18/15 Q1022 RMK BKN VIS MIN 9999 WIND THR26 00000KT WIND THR08 05002KT BLU,LIPS,2022-10-23T07:55:00Z,45.68,12.1,18.0,15.0,,,,6.21,30.177166,,,,,,,,,,,BKN,6000,,,,,,,VFR,,,,,,,,,,,,METAR,42.0
LIPL 230755Z 08007KT 9999 SCT060 17/15 Q1021 RMK BKN VIS MIN 9999 WIND THR31 08007KT WIND THR13 08008KT BLU,LIPL,2022-10-23T07:55:00Z,45.42,10.27,17.0,15.0,80,7,,6.21,30.147638,,,,,,,,,,,SCT,6000,,,,,,,VFR,,,,,,,,,,,,METAR,96.0
LIPI 230755Z 34004KT 9999 SCT010 BKN040 15/11 Q1022 RMK OVC VIS MIN 9999 WIND THR06 02004KT WIND THR24 35004KT BLU,LIPI,2022-10-23T07:55:00Z,45.97,13.05,15.0,11.0,340,4,,6.21,30.177166,,,,,,,,,,,SCT,1000,BKN,4000,,,,,VFR,,,,,,,,,,,,METAR,49.0
LIPF 230755Z 01004KT 6000 NSC 15/13 Q1021 RMK FEW FEW200 VIS MIN 6000,LIPF,2022-10-23T07:55:00Z,44.82,11.62,15.0,13.0,10,4,,3.73,30.147638,,,,,,,,,,,CLR,,,,,,,,MVFR,,,,,,,,,,,,METAR,5.0
LIPC 230755Z 18002KT CAVOK 18/16 Q1021 RMK SCT SCT200 VIS MIN 9999 WIND THR11 18002KT WIND THR29 19002KT BLU,LIPC,2022-10-23T07:55:00Z,44.22,12.3,18.0,16.0,180,2,,6.21,30.147638,,,,,,,,,,,CAVOK,,,,,,,,VFR,,,,,,,,,,,,METAR,10.0
LIMU 230755Z ///05KT 9999 FEW018 SCT020 17/13 Q1020 RMK BKN QUK 1 QUL 1 SE VIS MAR 12 KM VIS MIN 9999,LIMU,2022-10-23T07:55:00Z,43.95,8.17,17.0,13.0,,,,6.21,30.11811,,,,,,,,,,,FEW,1800,SCT,2000,,,,,VFR,,,,,,,,,,,,METAR,215.0
LIMS 230755Z 01003KT 0800 R30/1000 R12/0900 FG BKN007 SCT015 14/14 Q1021,LIMS,2022-10-23T07:55:00Z,44.92,9.72,14.0,14.0,10,3,,0.5,30.147638,,,,,,,,,,FG,BKN,700,SCT,1500,,,,,LIFR,,,,,,,,,,,,METAR,132.0
LIMK 230755Z 36006KT 0100 FG VV/// 14/13 Q1022 RMK VAL FOSCHIA VIS MIN 0100,LIMK,2022-10-23T07:55:00Z,45.02,7.72,14.0,13.0,360,6,,0.06,30.177166,,,,,,,,,,FG,OVX,0,,,,,,,LIFR,,,,,,,,,,,,METAR,693.0
LIED 230755Z 11006KT 9999 FEW010 22/19 Q1022 RMK FEW VIS MIN 9999 WIND THR35 /////KT WIND THR17 11006KT BLU,LIED,2022-10-23T07:55:00Z,39.35,8.97,22.0,19.0,110,6,,6.21,30.177166,,,,,,,,,,,FEW,1000,,,,,,,VFR,,-0.6,,,,,,,,,,METAR,26.0
LIEB 230755Z 21014KT CAVOK 21/17 Q1021 RMK SKC QUK 4 QUL 3 S VIS MAR 20 KM MON LIB VIS MIN 9999,LIEB,2022-10-23T07:55:00Z,39.93,9.72,21.0,17.0,210,14,,6.21,30.147638,,,,,,,,,,,CAVOK,,,,,,,,VFR,,,,,,,,,,,,METAR,126.0
LICZ 230755Z /////KT CAVOK 21/11 Q1024 RMK SKC VIS MIN 9999 WIND THR28 29007KT WIND THR10 30007KT A3026 BLU,LICZ,2022-10-23T07:55:00Z,37.4,14.92,21.0,11.0,,,,6.21,30.236221,,,,,,,,,,,CAVOK,,,,,,,,VFR,,,,,,,,,,,,METAR,22.0
LICT 230755Z 14010KT CAVOK 23/19 Q1025 RMK SKC VIS MIN 9999 WIND THR13 16009KT BLU,LICT,2022-10-23T07:55:00Z,37.92,12.5,23.0,19.0,140,10,,6.21,30.265747,,,,,,,,,,,CAVOK,,,,,,,,VFR,,,,,,,,,,,,METAR,4.0
LICF 230755Z 07009KT CAVOK 22/16 Q1024 RMK SKC QUK 1 QUL 0 VIS MAR 18 KM MON LIB NC VIS MIN 9999,LICF,2022-10-23T07:55:00Z,38.2,15.55,22.0,16.0,70,9,,6.21,30.236221,,,,,,,,,,,CAVOK,,,,,,,,VFR,,,,,,,,,,,,METAR,66.0
LIBY 230755Z 00000KT 9999 FEW020 21/19 Q1023 RMK BKN SCT200 QUK 0 QUL 0 VIS MAR 12 KM VIS MIN 9999,LIBY,2022-10-23T07:55:00Z,39.82,18.35,21.0,19.0,0,0,,6.21,30.206694,,,,,,,,,,,FEW,2000,,,,,,,VFR,,,,,,,,,,,,METAR,105.0
LIBV 230755Z VRB01KT 8000 NSC 18/18 Q1023 RMK FEW FEW200 VIS MIN 8000 WIND THR32 17003KT WIND THR14 VRB01KT BLU,LIBV,2022-10-23T07:55:00Z,40.77,16.93,18.0,18.0,0,1,,4.97,30.206694,,,,,,,,,,,CLR,,,,,,,,MVFR,,,,,,,,,,,,METAR,344.0
LIBQ 230755Z AUTO 08004KT 030V150 //// 20/01 Q1033,LIBQ,2022-10-23T07:55:00Z,39.32,16.38,20.0,1.0,80,4,,,30.501968,,,TRUE,,,,,,,,,,,,,,,,,,,,,,,,,,,,METAR,1660.0
LIBN 230755Z 08003KT 0800 FG BKN005 17/16 Q1024 RMK BKN VIS MIN 0800 WIND THR14 06003KT WIND THR32 10003KT AMB,LIBN,2022-10-23T07:55:00Z,40.23,18.13,17.0,16.0,80,3,,0.5,30.236221,,,,,,,,,,FG,BKN,500,,,,,,,LIFR,,0.3,,,,,,,,,,METAR,46.0
LIBA 230755Z 15003KT CAVOK 19/15 Q1024 RMK FEW FEW200 VIS MIN 9999 WIND THR11 13003KT WIND THR29 /////KT BLU,LIBA,2022-10-23T07:55:00Z,41.53,15.72,19.0,15.0,150,3,,6.21,30.236221,,,,,,,,,,,CAVOK,,,,,,,,VFR,,,,,,,,,,,,METAR,55.0
KXNO 230755Z AUTO 00000KT 10SM CLR 08/07 A3015 RMK AO2 SLP212 T00750074 $,KXNO,2022-10-23T07:55:00Z,33.62,-81.07,7.5,7.4,0,0,,10.0,30.15059,1021.2,,TRUE,TRUE,TRUE,,,,,,CLR,,,,,,,,VFR,,,,,,,,,,,,METAR,94.0
KXMR 230755Z AUTO 36004KT 10SM SCT043 21/18 A3001 RMK AO2 SLP165 T02090181 $,KXMR,2022-10-23T07:55:00Z,28.47,-80.57,20.9,18.1,360,4,,10.0,30.008858,1016.5,,TRUE,TRUE,TRUE,,,,,,SCT,4300,,,,,,,VFR,,,,,,,,,,,,SPECI,5.0
KXIF 230755Z AUTO 00000KT 9SM CLR 04/03 A3024 RMK AO2 LTG DSNT S SLP245 T00380026 $,KXIF,2022-10-23T07:55:00Z,,,3.8,2.6,0,0,,9.0,30.239174,1024.5,,TRUE,TRUE,TRUE,,,,,,CLR,,,,,,,,VFR,,,,,,,,,,,,METAR,
KWRI 230755Z 01004KT 10SM OVC038 11/10 A3024 RMK AO2A SLP240 T01140096 $,KWRI,2022-10-23T07:55:00Z,40.02,-74.58,11.4,9.6,10,4,,10.0,30.239174,1024.0,,,TRUE,TRUE,,,,,,OVC,3800,,,,,,,VFR,,,,,,,,,,,,METAR,35.0
KWRB 230755Z 00000KT 10SM FEW250 05/05 A3015 RMK AO2A SLP212 T00530053,KWRB,2022-10-23T07:55:00Z,32.63,-83.58,5.3,5.3,0,0,,10.0,30.15059,1021.2,,,TRUE,,,,,,,FEW,25000,,,,,,,VFR,,,,,,,,,,,,SPECI,82.0
KVPS 230755Z AUTO 00000KT 10SM CLR 11/06 A3008 RMK AO2 SLP193 T01050061 $,KVPS,2022-10-23T07:55:00Z,30.47,-86.52,10.5,6.1,0,0,,10.0,30.079725,1019.3,,TRUE,TRUE,TRUE,,,,,,CLR,,,,,,,,VFR,,,,,,,,,,,,METAR,21.0
KVOK 230755Z AUTO 15008KT 10SM CLR 16/10 A2976 RMK AO2 SLP077 T01550103,KVOK,2022-10-23T07:55:00Z,43.93,-90.27,15.5,10.3,150,8,,10.0,29.760826,1007.7,,TRUE,TRUE,,,,,,,CLR,,,,,,,,VFR,,,,,,,,,,,,METAR,278.0
KVBG 230755Z AUTO 02003KT 10SM CLR 10/09 A2985 RMK AO2 SLP111 T01020088 401870096 TSNO $,KVBG,2022-10-23T07:55:00Z,34.73,-120.58,10.2,8.8,20,3,,10.0,29.84941,1011.1,,TRUE,TRUE,TRUE,,TRUE,,,,CLR,,,,,,,,VFR,,,,18.7,9.6,,,,,,,METAR,96.0
KVAD 230755Z AUTO 00000KT 10SM CLR 07/05 A3011 RMK AO2 SLP198 T00650047 $,KVAD,2022-10-23T07:55:00Z,30.97,-83.2,6.5,4.7,0,0,,10.0,30.109253,1019.8,,TRUE,TRUE,TRUE,,,,,,CLR,,,,,,,,VFR,,,,,,,,,,,,METAR,70.0
KUGN 230755Z AUTO 18010KT 10SM CLR 17/11 A2990 RMK AO2 SLP116 T01670111,KUGN,2022-10-23T07:55:00Z,42.42,-87.87,16.7,11.1,180,10,,10.0,29.899607,1011.6,,TRUE,TRUE,,,,,,,CLR,,,,,,,,VFR,,,,,,,,,,,,METAR,217.0
KUBE 230755Z AUTO 13004KT 10SM CLR 13/11 A2969 RMK AO2,KUBE,2022-10-23T07:55:00Z,45.5,-91.98,13.0,11.0,130,4,,10.0,29.68996,,,TRUE,TRUE,,,,,,,CLR,,,,,,,,VFR,,,,,,,,,,,,METAR,376.0
KTTS 230755Z AUTO 00000KT 10SM FEW033 19/17 A3002 RMK AO2 VIS 1/2 RWY15/33 DZB13E23DZB27E28DZB31E37 SLP170 P0000 T01870165 $,KTTS,2022-10-23T07:55:00Z,28.58,-80.67,18.7,16.5,0,0,,10.0,30.02067,1017.0,,TRUE,TRUE,TRUE,,,,,,FEW,3300,,,,,,,VFR,,,,,,0.005,,,,,,METAR,1.0
KTIK 230755Z AUTO 18015G21KT 10SM CLR 23/12 A2964 RMK AO2 SLP028 T02260119,KTIK,2022-10-23T07:55:00Z,35.4,-97.38,22.6,11.9,180,15,21,10.0,29.639763,1002.8,,TRUE,TRUE,,,,,,,CLR,,,,,,,,VFR,,,,,,,,,,,,METAR,387.0
KTFP 230755Z AUTO 20008KT 10SM CLR 24/20 A2986 RMK AO2 T02440199,KTFP,2022-10-23T07:55:00Z,27.92,-97.22,24.4,19.9,200,8,,10.0,29.861221,,,TRUE,TRUE,,,,,,,CLR,,,,,,,,VFR,,,,,,,,,,,,SPECI,5.0
KTDR 230755Z AUTO 06007KT 10SM CLR 11/10 A3007 RMK AO2 SLP186 T01090101 $,KTDR,2022-10-23T07:55:00Z,30.05,-85.52,10.9,10.1,60,7,,10.0,30.070866,1018.6,,TRUE,TRUE,TRUE,,,,,,CLR,,,,,,,,VFR,,,,,,,,,,,,METAR,4.0
KTBN 230755Z AUTO 15011G18KT 10SM CLR 18/12 A2978 RMK AO2 SLP078 T01800118,KTBN,2022-10-23T07:55:00Z,37.73,-92.13,18.0,11.8,150,11,18,10.0,29.778543,1007.8,,TRUE,TRUE,,,,,,,CLR,,,,,,,,VFR,,,,,,,,,,,,METAR,349.0
KT70 230755Z AUTO 32003KT 9SM CLR 17/15 A2982 RMK AO2 SLP087 T01730151 $,KT70,2022-10-23T07:55:00Z,29.12,-100.48,17.3,15.1,320,3,,9.0,29.819881,1008.7,,TRUE,TRUE,TRUE,,,,,,CLR,,,,,,,,VFR,,,,,,,,,,,,METAR,296.0
KSZL 230755Z 16013KT 10SM CLR 19/12 A2961 RMK AO2A SLP022 T01920120,KSZL,2022-10-23T07:55:00Z,38.73,-93.53,19.2,12.0,160,13,,10.0,29.610237,1002.2,,,TRUE,,,,,,,CLR,,,,,,,,VFR,,,,,,,,,,,,METAR,259.0
KSXS 230755Z AUTO 00000KT 10SM CLR 10/07 A3012 RMK AO2 SLP200 T00960070 $,KSXS,2022-10-23T07:55:00Z,31.37,-85.85,9.6,7.0,0,0,,10.0,30.121063,1020.0,,TRUE,TRUE,TRUE,,,,,,CLR,,,,,,,,VFR,,,,,,,,,,,,METAR,120.0
KSVN 230755Z AUTO 33004KT 10SM CLR 13/10 A3009 RMK AO2 SLP193 T01280100 $,KSVN,2022-10-23T07:55:00Z,32.02,-81.12,12.8,10.0,330,4,,10.0,30.088583,1019.3,,TRUE,TRUE,TRUE,,,,,,CLR,,,,,,,,VFR,,,,,,,,,,,,METAR,13.0
KSUU 230755Z 17004KT 10SM CLR 12/00 A2982 RMK AO2A SLP104 T01200001 402670103 $,KSUU,2022-10-23T07:55:00Z,38.27,-121.93,12.0,0.1,170,4,,10.0,29.819881,1010.4,,,TRUE,TRUE,,,,,,CLR,,,,,,,,VFR,,,,26.7,10.3,,,,,,,METAR,9.0
KSSC 230755Z AUTO 00000KT 10SM CLR 12/09 A3013 RMK AO2 SLP204 T01240089 $,KSSC,2022-10-23T07:55:00Z,33.97,-80.47,12.4,8.9,0,0,,10.0,30.129921,1020.4,,TRUE,TRUE,TRUE,,,,,,CLR,,,,,,,,VFR,,,,,,,,,,,,METAR,71.0
KSMS 230755Z AUTO 00000KT 10SM CLR 08/08 A3015 RMK AO2,KSMS,2022-10-23T07:55:00Z,34.0,-80.37,8.0,8.0,0,0,,10.0,30.15059,,,TRUE,TRUE,,,,,,,CLR,,,,,,,,VFR,,,,,,,,,,,,METAR,53.0
KSLI 230755Z AUTO 24007KT 10SM FEW022 BKN031 OVC038 17/13 A2976 RMK AO2 SLP081 T01660133 402210163 $,KSLI,2022-10-23T07:55:00Z,33.78,-118.03,16.6,13.3,240,7,,10.0,29.760826,1008.1,,TRUE,TRUE,TRUE,,,,,,FEW,2200,BKN,3100,OVC,3800,,,VFR,,,,22.1,16.3,,,,,,,METAR,8.0
KSKF 230755Z AUTO 16007KT 10SM CLR 20/19 A2985 RMK AO2 SLP101 T02030189 $,KSKF,2022-10-23T07:55:00Z,29.38,-98.57,20.3,18.9,160,7,,10.0,29.84941,1010.1,,TRUE,TRUE,TRUE,,,,,,CLR,,,,,,,,VFR,,,,,,,,,,,,METAR,214.0
KSKA 230755Z 26006KT 10SM SCT070 01/M04 A2972 RMK AO2A SLP310 T00071040 401011007 $,KSKA,2022-10-23T07:55:00Z,47.62,-117.67,0.7,-4.0,260,6,,10.0,29.719488,1031.0,,,TRUE,TRUE,,,,,,SCT,7000,,,,,,,VFR,,,,10.1,-0.7,,,,,,,METAR,754.0
KSEQ 230755Z AUTO 19008KT 10SM CLR 20/18 A2985 RMK AO2 SLP104 T01980181 $,KSEQ,2022-10-23T07:55:00Z,29.57,-97.9,19.8,18.1,190,8,,10.0,29.84941,1010.4,,TRUE,TRUE,TRUE,,,,,,CLR,,,,,,,,VFR,,,,,,,,,,,,METAR,160.0
KSCK 230755Z 30009KT 10SM CLR 13/04 A2981 RMK AO2 SLP095 T01330039 402500128,KSCK,2022-10-23T07:55:00Z,37.88,-121.22,13.3,3.9,300,9,,10.0,29.811024,1009.5,,,TRUE,,,,,,,CLR,,,,,,,,VFR,,,,25.0,12.8,,,,,,,METAR,8.0
KS34 230755Z AUTO 00000KT 10SM 03/M12 A2973 RMK Plains ,KS34,2022-10-23T07:55:00Z,47.47,-114.9,3.0,-12.0,0,0,,10.0,29.731298,,,TRUE,,,,,,,,,,,,,,,,,,,,,,,,,,,,METAR,750.0
KRYM 230755Z AUTO 00000KT 10SM CLR 11/06 A2957 RMK AO2 SLP016 T01050059 $,KRYM,2022-10-23T07:55:00Z,46.08,-94.37,10.5,5.9,0,0,,10.0,29.568897,1001.6,,TRUE,TRUE,TRUE,,,,,,CLR,,,,,,,,VFR,,,,,,,,,,,,METAR,344.0
KRNO 230755Z 27007KT 10SM FEW080 04/M08 A2985 RMK AO2 SLP086 T00391078 401890039,KRNO,2022-10-23T07:55:00Z,39.5,-119.77,3.9,-7.8,270,7,,10.0,29.84941,1008.6,,,TRUE,,,,,,,FEW,8000,,,,,,,VFR,,,,18.9,3.9,,,,,,,METAR,1344.0
KRND 230755Z AUTO 17008KT 10SM CLR 21/19 A2985 RMK AO2 SLP101 T02050190,KRND,2022-10-23T07:55:00Z,29.53,-98.27,20.5,19.0,170,8,,10.0,29.84941,1010.1,,TRUE,TRUE,,,,,,,CLR,,,,,,,,VFR,,,,,,,,,,,,METAR,224.0
KRIV 230755Z AUTO 00000KT 10SM FEW019 FEW042 BKN055 14/11 A2980 RMK AO2 SLP082 T01430113 402200137,KRIV,2022-10-23T07:55:00Z,33.87,-117.23,14.3,11.3,0,0,,10.0,29.799213,1008.2,,TRUE,TRUE,,,,,,,FEW,1900,FEW,4200,BKN,5500,,,VFR,,,,22.0,13.7,,,,,,,METAR,454.0
KRDR 230755Z AUTO 01008KT 10SM CLR 06/04 A2954 RMK AO2 SLP011 T00620037 CHINO RWY17 $,KRDR,2022-10-23T07:55:00Z,47.93,-97.4,6.2,3.7,10,8,,10.0,29.53937,1001.1,,TRUE,TRUE,TRUE,,,,,,CLR,,,,,,,,VFR,,,,,,,,,,,,METAR,276.0
KRCA 230755Z 02005KT 10SM FEW150 BKN170 08/01 A2934 RMK AO2A SLP931 T00780012 $,KRCA,2022-10-23T07:55:00Z,44.15,-103.12,7.8,1.2,20,5,,10.0,29.338583,993.1,,,TRUE,TRUE,,,,,,FEW,15000,BKN,17000,,,,,VFR,,,,,,,,,,,,METAR,993.0
KQVF 230755Z AUTO 13012G17KT 9999 CLR 29/24 A3006 RMK AO2 SLP182 WND DATA ESTMD T02910236,KQVF,2022-10-23T07:55:00Z,,,29.1,23.6,130,12,17,6.21,30.059055,1018.2,,TRUE,TRUE,,,,,,,CLR,,,,,,,,VFR,,,,,,,,,,,,METAR,
KQTZ 230755Z 36003KT 9999 FEW150 29/15 A3003 RMK SLP167 WND DATA ESTMD ALSTG/SLP ESTMD,KQTZ,2022-10-23T07:55:00Z,,,29.0,15.0,360,3,,6.21,30.029528,1016.7,,,,,,,,,,FEW,15000,,,,,,,VFR,,,,,,,,,,,,METAR,
KQRH 230755Z AUTO 07010G14KT 350V110 9999 CLR 32/22 A2997 RMK AO2 SLP151 WND DATA ESTMD T03230221,KQRH,2022-10-23T07:55:00Z,,,32.3,22.1,70,10,14,6.21,29.970472,1015.1,,TRUE,TRUE,,,,,,,CLR,,,,,,,,VFR,,,,,,,,,,,,METAR,
KQN3 230755Z AUTO VRB05G11KT 9999 CLR 30/03 A3000 RMK AO2 SLP148 WND DATA ESTMD T03010033,KQN3,2022-10-23T07:55:00Z,,,30.1,3.3,0,5,11,6.21,30.0,1014.8,,TRUE,TRUE,,,,,,,CLR,,,,,,,,VFR,,,,,,,,,,,,METAR,
KQD3 230755Z AUTO 11010G21KT 070V160 9999 CLR 33/22 A3001 RMK AO2 SLP147 WND DATA ESTMD T03260215,KQD3,2022-10-23T07:55:00Z,,,32.6,21.5,110,10,21,6.21,30.008858,1014.7,,TRUE,TRUE,,,,,,,CLR,,,,,,,,VFR,,,,,,,,,,,,METAR,
KQBL 230755Z AUTO 00000KT 10SM CLR 12/08 A3012 RMK AO2 SLP206 WND DATA ESTMD T01210076,KQBL,2022-10-23T07:55:00Z,,,12.1,7.6,0,0,,10.0,30.121063,1020.6,,TRUE,TRUE,,,,,,,CLR,,,,,,,,VFR,,,,,,,,,,,,METAR,
KQAZ 230755Z AUTO 08014G21KT 9999 CLR 29/04 A3010 RMK AO2 SLP191 WND DATA ESTMD T02890039,KQAZ,2022-10-23T07:55:00Z,,,28.9,3.9,80,14,21,6.21,30.100393,1019.1,,TRUE,TRUE,,,,,,,CLR,,,,,,,,VFR,,,,,,,,,,,,METAR,
KPSM 230755Z 00000KT 10SM BKN250 06/05 A3031 RMK AO2A SLP267 T00600053,KPSM,2022-10-23T07:55:00Z,43.08,-70.82,6.0,5.3,0,0,,10.0,30.31004,1026.7,,,TRUE,,,,,,,BKN,25000,,,,,,,VFR,,,,,,,,,,,,METAR,34.0
KPOE 230755Z AUTO 12005KT 10SM CLR 17/17 A2996 RMK AO2 SLP145 T01740172,KPOE,2022-10-23T07:55:00Z,31.05,-93.2,17.4,17.2,120,5,,10.0,29.958662,1014.5,,TRUE,TRUE,,,,,,,CLR,,,,,,,,VFR,,,,,,,,,,,,METAR,98.0
KPOB 230755Z AUTO 00000KT 10SM CLR 10/08 A3015 RMK AO2 SLP212 T00960084 $,KPOB,2022-10-23T07:55:00Z,35.17,-79.02,9.6,8.4,0,0,,10.0,30.15059,1021.2,,TRUE,TRUE,TRUE,,,,,,CLR,,,,,,,,VFR,,,,,,,,,,,,METAR,57.0
KPHP 230755Z AUTO 00000KT 10SM CLR 02/01 A2933 RMK AO2 SLP932 T00170006,KPHP,2022-10-23T07:55:00Z,44.05,-101.6,1.7,0.6,0,0,,10.0,29.329725,993.2,,TRUE,TRUE,,,,,,,CLR,,,,,,,,VFR,,,,,,,,,,,,METAR,673.0
KPAM 230755Z AUTO 06005KT 10SM CLR 14/09 A3010 RMK AO2 SLP196 T01390091 $,KPAM,2022-10-23T07:55:00Z,30.07,-85.57,13.9,9.1,60,5,,10.0,30.100393,1019.6,,TRUE,TRUE,TRUE,,,,,,CLR,,,,,,,,VFR,,,,,,,,,,,,METAR,4.0
KP58 230755Z AUTO 17005KT 14/10 A3005 RMK AO1 SLP171 T01440100,KP58,2022-10-23T07:55:00Z,44.02,-82.8,14.4,10.0,170,5,,,30.050198,1017.1,,TRUE,TRUE,,,,,,,,,,,,,,,,,,,,,,,,,,,METAR,180.0
KOZR 230755Z AUTO 00000KT 10SM CLR 08/05 A3012 RMK AO2 SLP201 T00780053 $,KOZR,2022-10-23T07:55:00Z,31.28,-85.72,7.8,5.3,0,0,,10.0,30.121063,1020.1,,TRUE,TRUE,TRUE,,,,,,CLR,,,,,,,,VFR,,,,,,,,,,,,METAR,90.0
KOFF 230755Z 13013KT 10SM CLR 18/11 A2951 RMK AO2A SLP989 T01790112 PWINO PNO FZRANO TSNO VISNO RWY13 $,KOFF,2022-10-23T07:55:00Z,41.12,-95.92,17.9,11.2,130,13,,10.0,29.509842,998.9,,,TRUE,TRUE,,TRUE,TRUE,TRUE,,CLR,,,,,,,,VFR,,,,,,,,,,,,METAR,308.0
KOCW 230755Z AUTO 35005KT 10SM CLR 13/11 A3010 RMK AO2 T01330110,KOCW,2022-10-23T07:55:00Z,35.57,-77.05,13.3,11.0,350,5,,10.0,30.100393,,,TRUE,TRUE,,,,,,,CLR,,,,,,,,VFR,,,,,,,,,,,,SPECI,10.0
KNTD 230755Z AUTO 29007KT 8SM CLR 15/12 A2977 RMK AO2 SLP081 T01500117 402170150,KNTD,2022-10-23T07:55:00Z,34.12,-119.12,15.0,11.7,290,7,,8.0,29.769686,1008.1,,TRUE,TRUE,,,,,,,CLR,,,,,,,,VFR,,,,21.7,15.0,,,,,,,SPECI,1.0
KMUI 230755Z AUTO 00000KT 10SM CLR 04/03 A3026 RMK AO2 SLP251 T00400027,KMUI,2022-10-23T07:55:00Z,40.43,-76.57,4.0,2.7,0,0,,10.0,30.259842,1025.1,,TRUE,TRUE,,,,,,,CLR,,,,,,,,VFR,,,,,,,,,,,,METAR,146.0
KMTC 230755Z AUTO 00000KT 10SM CLR 09/08 A3007 RMK AO2 SLP188 T00900076,KMTC,2022-10-23T07:55:00Z,42.62,-82.83,9.0,7.6,0,0,,10.0,30.070866,1018.8,,TRUE,TRUE,,,,,,,CLR,,,,,,,,VFR,,,,,,,,,,,,METAR,177.0
KMMT 230755Z AUTO 00000KT 10SM CLR 08/08 A3013 RMK AO2 SLP205 T00790078 $,KMMT,2022-10-23T07:55:00Z,33.92,-80.8,7.9,7.8,0,0,,10.0,30.129921,1020.5,,TRUE,TRUE,TRUE,,,,,,CLR,,,,,,,,VFR,,,,,,,,,,,,METAR,76.0
KMKG 230755Z AUTO 18012G22KT 10SM CLR 19/12 A2997 RMK AO2 SLP147 T01940117,KMKG,2022-10-23T07:55:00Z,43.17,-86.23,19.4,11.7,180,12,22,10.0,29.970472,1014.7,,TRUE,TRUE,,,,,,,CLR,,,,,,,,VFR,,,,,,,,,,,,METAR,190.0
KMGE 230755Z AUTO 11003KT 10SM CLR 07/04 A3017 RMK AO2 SLP215 T00710042 $,KMGE,2022-10-23T07:55:00Z,33.92,-84.52,7.1,4.2,110,3,,10.0,30.171259,1021.5,,TRUE,TRUE,TRUE,,,,,,CLR,,,,,,,,VFR,,,,,,,,,,,,METAR,309.0
KMCF 230755Z AUTO 04007KT 10SM CLR 17/14 A3002 RMK AO2 SLP168 T01650143 FZRANO $,KMCF,2022-10-23T07:55:00Z,27.85,-82.52,16.5,14.3,40,7,,10.0,30.02067,1016.8,,TRUE,TRUE,TRUE,,,TRUE,,,CLR,,,,,,,,VFR,,,,,,,,,,,,SPECI,3.0
KLUF 230755Z AUTO 19009KT 10SM CLR 21/14 A2966 RMK AO2 SLP032 T02110138 $,KLUF,2022-10-23T07:55:00Z,33.53,-112.37,21.1,13.8,190,9,,10.0,29.660433,1003.2,,TRUE,TRUE,TRUE,,,,,,CLR,,,,,,,,VFR,,,,,,,,,,,,METAR,333.0
KLTS 230755Z AUTO 18008KT 10SM CLR 21/12 A2963 RMK AO2 SLP016 T02100119 $,KLTS,2022-10-23T07:55:00Z,34.67,-99.27,21.0,11.9,180,8,,10.0,29.630905,1001.6,,TRUE,TRUE,TRUE,,,,,,CLR,,,,,,,,VFR,,,,,,,,,,,,METAR,416.0
KLOR 230755Z AUTO 00000KT 4SM BR CLR 05/05 A3014 RMK AO2 SLP190 T00500047 $,KLOR,2022-10-23T07:55:00Z,31.35,-85.75,5.0,4.7,0,0,,4.0,30.138779,1019.0,,TRUE,TRUE,TRUE,,,,,BR,CLR,,,,,,,,MVFR,,,,,,,,,,,,METAR,92.0
KLLJ 230755Z AUTO 01005KT 10SM OVC060 01/M06 A2964 RMK AO2 SLP037 T00111061 $,KLLJ,2022-10-23T07:55:00Z,44.52,-114.22,1.1,-6.1,10,5,,10.0,29.639763,1003.7,,TRUE,TRUE,TRUE,,,,,,OVC,6000,,,,,,,VFR,,,,,,,,,,,,METAR,1535.0
KLIC 230755Z AUTO 20011KT 10SM CLR 14/M03 A2945 RMK AO2 SLP899 T01391028 $,KLIC,2022-10-23T07:55:00Z,39.27,-103.67,13.9,-2.8,200,11,,10.0,29.450787,989.9,,TRUE,TRUE,TRUE,,,,,,CLR,,,,,,,,VFR,,,,,,,,,,,,METAR,1635.0
KLHW 230755Z AUTO 00000KT 10SM CLR 09/07 A3010 RMK AO2 SLP196 T00920070 $,KLHW,2022-10-23T07:55:00Z,31.88,-81.57,9.2,7.0,0,0,,10.0,30.100393,1019.6,,TRUE,TRUE,TRUE,,,,,,CLR,,,,,,,,VFR,,,,,,,,,,,,METAR,14.0
KLGF 230755Z AUTO 32011KT 10SM CLR 21/09 A2968 RMK AO2 SLP048 T02060086 TSNO $,KLGF,2022-10-23T07:55:00Z,32.87,-114.4,20.6,8.6,320,11,,10.0,29.681103,1004.8,,TRUE,TRUE,TRUE,,TRUE,,,,CLR,,,,,,,,VFR,,,,,,,,,,,,METAR,118.0
KLFI 230755Z AUTO 02012KT 10SM OVC011 15/15 A3014 RMK AO2 OVC V BKN SLP213 T01500148 $,KLFI,2022-10-23T07:55:00Z,37.08,-76.33,15.0,14.8,20,12,,10.0,30.138779,1021.3,,TRUE,TRUE,TRUE,,,,,,OVC,1100,,,,,,,MVFR,,,,,,,,,,,,METAR,2.0
KLCK 230755Z AUTO 00000KT 10SM CLR 11/07 A3014 RMK AO2 T01060072,KLCK,2022-10-23T07:55:00Z,39.82,-82.92,10.6,7.2,0,0,,10.0,30.138779,,,TRUE,TRUE,,,,,,,CLR,,,,,,,,VFR,,,,,,,,,,,,METAR,225.0
KIRK 230755Z AUTO 14011KT 10SM CLR 16/11 A2972 RMK AO2 SLP059 T01610111,KIRK,2022-10-23T07:55:00Z,40.1,-92.55,16.1,11.1,140,11,,10.0,29.719488,1005.9,,TRUE,TRUE,,,,,,,CLR,,,,,,,,VFR,,,,,,,,,,,,METAR,292.0
KINS 230755Z AUTO 29008KT 10SM SCT075 OVC090 12/04 A2968 RMK AO2 DZB0657E06DZB29E38 SLP016 P0000 T01160036 402510110 $,KINS,2022-10-23T07:55:00Z,36.58,-115.68,11.6,3.6,290,8,,10.0,29.681103,1001.6,,TRUE,TRUE,TRUE,,,,,,SCT,7500,OVC,9000,,,,,VFR,,,,25.1,11.0,0.005,,,,,,METAR,954.0
KIAB 230755Z AUTO 20009KT 10SM CLR 22/12 A2951 RMK AO2 SLP982 T02150123,KIAB,2022-10-23T07:55:00Z,37.62,-97.27,21.5,12.3,200,9,,10.0,29.509842,998.2,,TRUE,TRUE,,,,,,,CLR,,,,,,,,VFR,,,,,,,,,,,,METAR,413.0
KHST 230755Z AUTO 00000KT 10SM CLR 19/18 A2997 RMK AO2 SLP152 T01940175 $,KHST,2022-10-23T07:55:00Z,25.48,-80.37,19.4,17.5,0,0,,10.0,29.970472,1015.2,,TRUE,TRUE,TRUE,,,,,,CLR,,,,,,,,VFR,,,,,,,,,,,,METAR,1.0
KHRT 230755Z AUTO 00000KT 10SM CLR 09/07 A3010 RMK AO2 SLP195 T00890065 $,KHRT,2022-10-23T07:55:00Z,30.42,-86.68,8.9,6.5,0,0,,10.0,30.100393,1019.5,,TRUE,TRUE,TRUE,,,,,,CLR,,,,,,,,VFR,,,,,,,,,,,,METAR,10.0
KHOP 230755Z AUTO 15008KT 10SM OVC060 17/12 A3005 RMK AO2 SLP175 T01680123,KHOP,2022-10-23T07:55:00Z,36.67,-87.5,16.8,12.3,150,8,,10.0,30.050198,1017.5,,TRUE,TRUE,,,,,,,OVC,6000,,,,,,,VFR,,,,,,,,,,,,METAR,170.0
KHON 230755Z AUTO 13007KT 10SM CLR 10/04 A2942 RMK AO2 SLP960 T01000044,KHON,2022-10-23T07:55:00Z,44.38,-98.23,10.0,4.4,130,7,,10.0,29.421259,996.0,,TRUE,TRUE,,,,,,,CLR,,,,,,,,VFR,,,,,,,,,,,,METAR,391.0
KHMN 230755Z AUTO 15013KT 10SM OVC070 21/09 A2981 RMK AO2 PK WND 19026/00 SLP026 T02070090 $,KHMN,2022-10-23T07:55:00Z,32.85,-106.1,20.7,9.0,150,13,,10.0,29.811024,1002.6,,TRUE,TRUE,TRUE,,,,,,OVC,7000,,,,,,,VFR,,,,,,,,,,,,METAR,1240.0
KHIF 230755Z AUTO 02004KT 10SM FEW015 BKN060 OVC075 01/01 A2956 RMK AO2 RAE19 SLP991 P0002 T00090008 RVRNO $,KHIF,2022-10-23T07:55:00Z,41.12,-111.97,0.9,0.8,20,4,,10.0,29.56004,999.1,,TRUE,TRUE,TRUE,,,,,,FEW,1500,BKN,6000,OVC,7500,,,VFR,,,,,,0.02,,,,,,METAR,1461.0
KHFF 230755Z AUTO 01005KT 10SM CLR 09/09 A3013 RMK AO2 SLP205 T00890087 $,KHFF,2022-10-23T07:55:00Z,35.03,-79.5,8.9,8.7,10,5,,10.0,30.129921,1020.5,,TRUE,TRUE,TRUE,,,,,,CLR,,,,,,,,VFR,,,,,,,,,,,,METAR,100.0
KHEY 230755Z AUTO 00000KT 10SM CLR 07/07 A3011 RMK AO2 SLP198 T00720071 $,KHEY,2022-10-23T07:55:00Z,31.35,-85.65,7.2,7.1,0,0,,10.0,30.109253,1019.8,,TRUE,TRUE,TRUE,,,,,,CLR,,,,,,,,VFR,,,,,,,,,,,,METAR,95.0
KGXF 230755Z AUTO 20010KT 9SM CLR 22/14 A2969 RMK AO2 SLP042 T02150141 FZRANO $,KGXF,2022-10-23T07:55:00Z,32.88,-112.72,21.5,14.1,200,10,,9.0,29.68996,1004.2,,TRUE,TRUE,TRUE,,,TRUE,,,CLR,,,,,,,,VFR,,,,,,,,,,,,METAR,261.0
KGUS 230755Z AUTO 16006KT 10SM CLR 13/09 A3001 RMK AO2 SLP163 T01270093 $,KGUS,2022-10-23T07:55:00Z,40.63,-86.15,12.7,9.3,160,6,,10.0,30.008858,1016.3,,TRUE,TRUE,TRUE,,,,,,CLR,,,,,,,,VFR,,,,,,,,,,,,METAR,245.0
KGTB 230755Z AUTO 15011KT 10SM CLR 10/03 A3022 RMK AO2 SLP234 T00970032,KGTB,2022-10-23T07:55:00Z,44.07,-75.72,9.7,3.2,150,11,,10.0,30.221457,1023.4,,TRUE,TRUE,,,,,,,CLR,,,,,,,,VFR,,,,,,,,,,,,METAR,206.0
KGSB 230755Z 33006KT 10SM BKN250 14/08 A3011 RMK AO2A SLP199 T01350083 $,KGSB,2022-10-23T07:55:00Z,35.33,-77.93,13.5,8.3,330,6,,10.0,30.109253,1019.9,,,TRUE,TRUE,,,,,,BKN,25000,,,,,,,VFR,,,,,,,,,,,,METAR,33.0
KGPI 230755Z AUTO 34004KT 10SM OVC085 02/01 A2969 RMK AO2 SLP068 T00220011,KGPI,2022-10-23T07:55:00Z,48.32,-114.25,2.2,1.1,340,4,,10.0,29.68996,1006.8,,TRUE,TRUE,,,,,,,OVC,8500,,,,,,,VFR,,,,,,,,,,,,METAR,903.0
KFTK 230755Z AUTO 16008KT 10SM BKN210 16/10 A3007 RMK AO2 SLP180 T01550098,KFTK,2022-10-23T07:55:00Z,37.9,-85.97,15.5,9.8,160,8,,10.0,30.070866,1018.0,,TRUE,TRUE,,,,,,,BKN,21000,,,,,,,VFR,,,,,,,,,,,,METAR,225.0
KFSI 230755Z AUTO 19008KT 10SM CLR 21/12 A2964 RMK AO2 SLP026 T02140120,KFSI,2022-10-23T07:55:00Z,34.65,-98.4,21.4,12.0,190,8,,10.0,29.639763,1002.6,,TRUE,TRUE,,,,,,,CLR,,,,,,,,VFR,,,,,,,,,,,,METAR,360.0
KFRI 230755Z AUTO 15017G25KT 10SM CLR 22/13 A2946 RMK AO2 PK WND 15027/12 SLP964 T02150134 FZRANO $,KFRI,2022-10-23T07:55:00Z,39.05,-96.77,21.5,13.4,150,17,25,10.0,29.459646,996.4,,TRUE,TRUE,TRUE,,,TRUE,,,CLR,,,,,,,,VFR,,,,,,,,,,,,METAR,232.0
KFHU 230755Z AUTO 21005KT 10SM FEW041 18/09 A2987 RMK AO2 PK WND 21026/30 SLP054 T01830094,KFHU,2022-10-23T07:55:00Z,31.58,-110.35,18.3,9.4,210,5,,10.0,29.870079,1005.4,,TRUE,TRUE,,,,,,,FEW,4100,,,,,,,VFR,,,,,,,,,,,,METAR,1424.0
KFFO 230755Z AUTO 00000KT 10SM CLR 11/08 A3008 RMK AO2 SLP186 T01100080,KFFO,2022-10-23T07:55:00Z,39.83,-84.03,11.0,8.0,0,0,,10.0,30.079725,1018.6,,TRUE,TRUE,,,,,,,CLR,,,,,,,,VFR,,,,,,,,,,,,METAR,250.0
KFCS 230755Z AUTO 21014G22KT 10SM CLR 16/M04 A2944 RMK AO2 SLP901 T01561038 $,KFCS,2022-10-23T07:55:00Z,38.67,-104.77,15.6,-3.8,210,14,22,10.0,29.438976,990.1,,TRUE,TRUE,TRUE,,,,,,CLR,,,,,,,,VFR,,,,,,,,,,,,METAR,1789.0
KFBG 230755Z AUTO 00000KT 10SM CLR 12/10 A3014 RMK AO2 SLP208 T01240103 $,KFBG,2022-10-23T07:55:00Z,35.12,-78.92,12.4,10.3,0,0,,10.0,30.138779,1020.8,,TRUE,TRUE,TRUE,,,,,,CLR,,,,,,,,VFR,,,,,,,,,,,,METAR,69.0
KFAF 230755Z AUTO 36005KT 10SM CLR 12/10 A3014 RMK AO2 SLP210 T01240099 $,KFAF,2022-10-23T07:55:00Z,37.13,-76.62,12.4,9.9,360,5,,10.0,30.138779,1021.0,,TRUE,TRUE,TRUE,,,,,,CLR,,,,,,,,VFR,,,,,,,,,,,,METAR,3.0
KEND 230755Z AUTO 16019KT 10SM CLR 23/12 A2955 RMK AO2 PK WND 16027/0657 SLP993 T02250118,KEND,2022-10-23T07:55:00Z,36.33,-97.92,22.5,11.8,160,19,,10.0,29.551182,999.3,,TRUE,TRUE,,,,,,,CLR,,,,,,,,VFR,,,,,,,,,,,,METAR,392.0
KEDW 230755Z AUTO 24018KT 10SM BKN060 14/08 A2973 RMK AO2 SLP054 T01410078 402090130,KEDW,2022-10-23T07:55:00Z,34.9,-117.87,14.1,7.8,240,18,,10.0,29.731298,1005.4,,TRUE,TRUE,,,,,,,BKN,6000,,,,,,,VFR,,,,20.9,13.0,,,,,,,METAR,698.0
KEAT 230755Z AUTO 33008KT 10SM FEW090 07/M02 A2981 RMK AO2 SLP097 T00671022 401440056,KEAT,2022-10-23T07:55:00Z,47.4,-120.2,6.7,-2.2,330,8,,10.0,29.811024,1009.7,,TRUE,TRUE,,,,,,,FEW,9000,,,,,,,VFR,,,,14.4,5.6,,,,,,,METAR,375.0
KDYS 230755Z AUTO 18020G26KT 10SM CLR 21/11 A2972 RMK AO2 PK WND 19026/38 SLP019 T02140108,KDYS,2022-10-23T07:55:00Z,32.42,-99.83,21.4,10.8,180,20,26,10.0,29.719488,1001.9,,TRUE,TRUE,,,,,,,CLR,,,,,,,,VFR,,,,,,,,,,,,METAR,544.0
KDOV 230755Z 35007KT 10SM BKN024 OVC032 11/11 A3020 RMK AO2A SLP230 T01130113,KDOV,2022-10-23T07:55:00Z,39.12,-75.47,11.3,11.3,350,7,,10.0,30.200787,1023.0,,,TRUE,,,,,,,BKN,2400,OVC,3200,,,,,MVFR,,,,,,,,,,,,METAR,6.0
KDMA 230755Z AUTO 25014KT 10SM CLR 21/13 A2977 RMK AO2 SLP082 T02060131 $,KDMA,2022-10-23T07:55:00Z,32.17,-110.88,20.6,13.1,250,14,,10.0,29.769686,1008.2,,TRUE,TRUE,TRUE,,,,,,CLR,,,,,,,,VFR,,,,,,,,,,,,METAR,804.0
KDLH 230755Z 12011KT 9SM CLR 08/07 A2967 RMK AO2 SLP052 T00830067,KDLH,2022-10-23T07:55:00Z,46.85,-92.2,8.3,6.7,120,11,,9.0,29.66929,1005.2,,,TRUE,,,,,,,CLR,,,,,,,,VFR,,,,,,,,,,,,METAR,434.0
KDLF 230755Z AUTO 09010KT 10SM CLR 18/15 A2980 RMK AO2 SLP081 T01770148 $,KDLF,2022-10-23T07:55:00Z,29.37,-100.78,17.7,14.8,90,10,,10.0,29.799213,1008.1,,TRUE,TRUE,TRUE,,,,,,CLR,,,,,,,,VFR,,,,,,,,,,,,METAR,328.0
KDAA 230755Z AUTO 00000KT 10SM CLR 06/05 A3023 RMK AO2 SLP240 T00560049,KDAA,2022-10-23T07:55:00Z,38.72,-77.17,5.6,4.9,0,0,,10.0,30.230314,1024.0,,TRUE,TRUE,,,,,,,CLR,,,,,,,,VFR,,,,,,,,,,,,METAR,17.0
KCVS 230755Z AUTO 24006KT 10SM FEW130 15/11 A2973 RMK AO2 SLP012 T01520106 $,KCVS,2022-10-23T07:55:00Z,34.37,-103.32,15.2,10.6,240,6,,10.0,29.731298,1001.2,,TRUE,TRUE,TRUE,,,,,,FEW,13000,,,,,,,VFR,,,,,,,,,,,,METAR,1305.0
KCOF 230755Z AUTO 33006KT 10SM CLR 21/21 A3001 RMK AO2 SLP167 T02110209,KCOF,2022-10-23T07:55:00Z,28.23,-80.6,21.1,20.9,330,6,,10.0,30.008858,1016.7,,TRUE,TRUE,,,,,,,CLR,,,,,,,,VFR,,,,,,,,,,,,METAR,1.0
KCNK 230755Z AUTO 17020G28KT 10SM CLR 21/11 A2940 RMK AO2 PK WND 16028/0752 SLP941 T02060111,KCNK,2022-10-23T07:55:00Z,39.55,-97.65,20.6,11.1,170,20,28,10.0,29.40059,994.1,,TRUE,TRUE,,,,,,,CLR,,,,,,,,VFR,,,,,,,,,,,,METAR,445.0
KCEF 230755Z AUTO 33003KT 10SM CLR 04/04 A3029 RMK AO2 SLP264 T00440043,KCEF,2022-10-23T07:55:00Z,42.2,-72.52,4.4,4.3,330,3,,10.0,30.28937,1026.4,,TRUE,TRUE,,,,,,,CLR,,,,,,,,VFR,,,,,,,,,,,,METAR,72.0
KCBM 230755Z AUTO 14005KT 10SM CLR 13/10 A3005 RMK AO2 SLP177 T01270104 TSNO $,KCBM,2022-10-23T07:55:00Z,33.65,-88.45,12.7,10.4,140,5,,10.0,30.050198,1017.7,,TRUE,TRUE,TRUE,,TRUE,,,,CLR,,,,,,,,VFR,,,,,,,,,,,,METAR,59.0
KCAO 230755Z AUTO 22020G31KT 10SM CLR 17/09 A2964 RMK AO2 PK WND 22031/0755 SLP966 T01720089,KCAO,2022-10-23T07:55:00Z,36.45,-103.15,17.2,8.9,220,20,31,10.0,29.639763,996.6,,TRUE,TRUE,,,,,,,CLR,,,,,,,,VFR,,,,,,,,,,,,METAR,1517.0
KBYS 230755Z AUTO 25022KT 10SM CLR 15/06 A2965 RMK AO2 PK WND 24028/43 SLP020 T01500063 402530148,KBYS,2022-10-23T07:55:00Z,35.28,-116.63,15.0,6.3,250,22,,10.0,29.648623,1002.0,,TRUE,TRUE,,,,,,,CLR,,,,,,,,VFR,,,,25.3,14.8,,,,,,,METAR,717.0
KBLV 230755Z 16009KT 10SM BKN080 19/11 A2987 RMK AO2A SLP115 T01880109 $,KBLV,2022-10-23T07:55:00Z,38.53,-89.83,18.8,10.9,160,9,,10.0,29.870079,1011.5,,,TRUE,TRUE,,,,,,BKN,8000,,,,,,,VFR,,,,,,,,,,,,METAR,134.0
KBKF 230755Z 20016KT 10SM FEW220 15/M03 A2939 RMK AO2A SLP890 T01481035,KBKF,2022-10-23T07:55:00Z,39.72,-104.75,14.8,-3.5,200,16,,10.0,29.388779,989.0,,,TRUE,,,,,,,FEW,22000,,,,,,,VFR,,,,,,,,,,,,METAR,1703.0
KBIX 230755Z AUTO 00000KT 10SM CLR 15/14 A3007 RMK AO2 SLP186 T01500137,KBIX,2022-10-23T07:55:00Z,30.42,-88.92,15.0,13.7,0,0,,10.0,30.070866,1018.6,,TRUE,TRUE,,,,,,,CLR,,,,,,,,VFR,,,,,,,,,,,,METAR,4.0
KBIF 230755Z AUTO 13010G21KT 10SM CLR 23/09 A2979 RMK AO2 SLP021 T02260087 $,KBIF,2022-10-23T07:55:00Z,31.85,-106.38,22.6,8.7,130,10,21,10.0,29.790354,1002.1,,TRUE,TRUE,TRUE,,,,,,CLR,,,,,,,,VFR,,,,,,,,,,,,METAR,1201.0
KBAD 230755Z AUTO 15008KT 10SM BKN037 19/15 A2994 RMK AO2 SLP141 T01850146,KBAD,2022-10-23T07:55:00Z,32.5,-93.67,18.5,14.6,150,8,,10.0,29.940945,1014.1,,TRUE,TRUE,,,,,,,BKN,3700,,,,,,,VFR,,,,,,,,,,,,METAR,49.0
KBAB 230755Z AUTO 33013KT 10SM CLR 13/02 A2981 RMK AO2 SLP097 T01300016 402310125 VISNO RWY33 $,KBAB,2022-10-23T07:55:00Z,39.13,-121.43,13.0,1.6,330,13,,10.0,29.811024,1009.7,,TRUE,TRUE,TRUE,,,,,,CLR,,,,,,,,VFR,,,,23.1,12.5,,,,,,,METAR,31.0
KAST 230755Z AUTO 13003KT 10SM BKN037 OVC047 07/06 A2994 RMK AO2 SLP138 T00720061 401440067,KAST,2022-10-23T07:55:00Z,46.15,-123.88,7.2,6.1,130,3,,10.0,29.940945,1013.8,,TRUE,TRUE,,,,,,,BKN,3700,OVC,4700,,,,,VFR,,,,14.4,6.7,,,,,,,METAR,3.0
KANJ 230755Z AUTO 08003KT 10SM CLR 10/08 A2997 RMK AO2 SLP149 T01000083,KANJ,2022-10-23T07:55:00Z,46.47,-84.37,10.0,8.3,80,3,,10.0,29.970472,1014.9,,TRUE,TRUE,,,,,,,CLR,,,,,,,,VFR,,,,,,,,,,,,METAR,220.0
KAFF 230755Z AUTO 10006G17KT 10SM CLR 13/M04 A2944 RMK AO2 SLP880 T01341038,KAFF,2022-10-23T07:55:00Z,38.97,-104.82,13.4,-3.8,100,6,17,10.0,29.438976,988.0,,TRUE,TRUE,,,,,,,CLR,,,,,,,,VFR,,,,,,,,,,,,METAR,2003.0
KADW 230755Z AUTO 35005KT 10SM CLR 08/07 A3022 RMK AO2 SLP240 T00780066 $,KADW,2022-10-23T07:55:00Z,38.82,-76.87,7.8,6.6,350,5,,10.0,30.221457,1024.0,,TRUE,TRUE,TRUE,,,,,,CLR,,,,,,,,VFR,,,,,,,,,,,,METAR,87.0
KABH 230755Z AUTO 20016G20KT 10SM CLR 14/M03 A2950 RMK AO2 SLP911 T01361028,KABH,2022-10-23T07:55:00Z,38.75,-104.3,13.6,-2.8,200,16,20,10.0,29.500984,991.1,,TRUE,TRUE,,,,,,,CLR,,,,,,,,VFR,,,,,,,,,,,,METAR,1838.0
KAAT 230755Z AUTO 27008KT 10SM BKN055 OVC070 01/M02 A2988 RMK AO2 SLP121 T00061022 401281022,KAAT,2022-10-23T07:55:00Z,41.48,-120.57,0.6,-2.2,270,8,,10.0,29.878937,1012.1,,TRUE,TRUE,,,,,,,BKN,5500,OVC,7000,,,,,VFR,,,,12.8,-2.2,,,,,,,METAR,1336.0
K9L2 230755Z AUTO 22016KT 10SM CLR 14/08 A2973 RMK AO2 SLP054 T01380076 402110128 $,K9L2,2022-10-23T07:55:00Z,34.98,-117.87,13.8,7.6,220,16,,10.0,29.731298,1005.4,,TRUE,TRUE,TRUE,,,,,,CLR,,,,,,,,VFR,,,,21.1,12.8,,,,,,,METAR,697.0
K4MR 230755Z AUTO 20013KT 10SM CLR 18/10 A2969 RMK AO2 LTG DSNT N SLP973 T01780099 $,K4MR,2022-10-23T07:55:00Z,34.3,-103.8,17.8,9.9,200,13,,10.0,29.68996,997.3,,TRUE,TRUE,TRUE,,,,,,CLR,,,,,,,,VFR,,,,,,,,,,,,METAR,1339.0
K3D2 230755Z AUTO 18009KT 10SM CLR 12/11 A2988 RMK AO2 T01220106,K3D2,2022-10-23T07:55:00Z,45.13,-87.18,12.2,10.6,180,9,,10.0,29.878937,,,TRUE,TRUE,,,,,,,CLR,,,,,,,,VFR,,,,,,,,,,,,METAR,233.0
K1YT 230755Z AUTO 04004KT 10SM CLR 05/M03 A2978 RMK AO2 SLP091 T00451031 401370034 $,K1YT,2022-10-23T07:55:00Z,46.67,-120.45,4.5,-3.1,40,4,,10.0,29.778543,1009.1,,TRUE,TRUE,TRUE,,,,,,CLR,,,,,,,,VFR,,,,13.7,3.4,,,,,,,METAR,423.0
K1OM 230755Z AUTO 28016KT 10SM -RA SCT012 BKN021 OVC027 01/01 A2947 RMK AO2 RAE33PLB33E50RAB50 CIG 012V024 BKN V OVC SLP998 P0003 T00120006 $,K1OM,2022-10-23T07:55:00Z,47.33,-108.93,1.2,0.6,280,16,,10.0,29.471457,999.8,,TRUE,TRUE,TRUE,,,,,-RA,SCT,1200,BKN,2100,OVC,2700,,,MVFR,,,,,,0.03,,,,,,METAR,1088.0
K1NM 230755Z AUTO 27012KT 4SM -SN BKN024 OVC038 01/01 A2945 RMK AO2 SLP989 P0002 T00090008 $,K1NM,2022-10-23T07:55:00Z,47.07,-109.03,0.9,0.8,270,12,,4.0,29.450787,998.9,,TRUE,TRUE,TRUE,,,,,-SN,BKN,2400,OVC,3800,,,,,MVFR,,,,,,0.02,,,,,,METAR,1169.0
K1MW 230755Z AUTO 22004KT 10SM M 05/M08 A2499 RMK AO2 SLP389 T00461082 FZRANO $,K1MW,2022-10-23T07:55:00Z,40.7,-103.48,4.6,-8.2,220,4,,10.0,24.989174,1038.9,,TRUE,TRUE,TRUE,,,TRUE,,,,,,,,,,,,,,,,,,,,,,,METAR,1338.0
K1MM 230755Z AUTO 00000KT 8SM -SN SCT003 BKN030 OVC100 00/M01 A2950 RMK AO2 SLP008 P0003 T00021007 $,K1MM,2022-10-23T07:55:00Z,47.02,-109.63,0.2,-0.7,0,0,,8.0,29.500984,1000.8,,TRUE,TRUE,TRUE,,,,,-SN,SCT,300,BKN,3000,OVC,10000,,,MVFR,,,,,,0.03,,,,,,METAR,1256.0
K1LM 230755Z AUTO 01017KT 3SM -SN BKN004 OVC008 00/M00 A2947 RMK AO2 CIG 004V009 BKN V SCT SLP995 P0001 T00001001 $,K1LM,2022-10-23T07:55:00Z,46.7,-109.73,0.0,-0.1,10,17,,3.0,29.471457,999.5,,TRUE,TRUE,TRUE,,,,,-SN,BKN,400,OVC,800,,,,,LIFR,,,,,,0.01,,,,,,METAR,1417.0
K1KM 230755Z AUTO 35006KT 10SM -RA BKN008 OVC013 01/01 A2947 RMK AO2 RAE0656DZB0656E0659RAB0659E15PLB15E30SNB30E41PLB41E47RAB47 SLP992 P0000 T00120005 $,K1KM,2022-10-23T07:55:00Z,46.45,-109.8,1.2,0.5,350,6,,10.0,29.471457,999.2,,TRUE,TRUE,TRUE,,,,,-RA,BKN,800,OVC,1300,,,,,IFR,,,,,,0.005,,,,,,METAR,1332.0
K1JM 230755Z AUTO 33015KT 1 7/8SM BR BKN004 OVC010 M01/M01 A2956 RMK AO2 BKN V OVC SLP035 P0001 T10061009 PWINO $,K1JM,2022-10-23T07:55:00Z,47.75,-111.55,-0.6,-0.9,330,15,,1.88,29.56004,1003.5,,TRUE,TRUE,TRUE,,,,TRUE,BR,BKN,400,OVC,1000,,,,,LIFR,,,,,,0.01,,,,,,METAR,1154.0
K1IM 230755Z AUTO 29008KT 2 1/4SM -SN OVC003 00/00 A2957 RMK AO2 SLPNO P0003 T00010001 $,K1IM,2022-10-23T07:55:00Z,47.32,-111.47,0.1,0.1,290,8,,2.25,29.568897,,,TRUE,TRUE,TRUE,,,,,-SN,OVC,300,,,,,,,LIFR,,,,,,0.03,,,,,,METAR,1110.0
K1HM 230755Z AUTO 25013KT 1 7/8SM -SN OVC006 00/M01 A2957 RMK AO2 SLP037 P0000 T00001013 $,K1HM,2022-10-23T07:55:00Z,47.7,-111.95,0.0,-1.3,250,13,,1.88,29.568897,1003.7,,TRUE,TRUE,TRUE,,,,,-SN,OVC,600,,,,,,,IFR,,,,,,0.005,,,,,,METAR,1181.0
K1FM 230755Z AUTO 34021KT 4SM -SN BKN009 OVC020 M00/M01 A2959 RMK AO2 PK WND 34030/19 CIG 009V020 SLP042 P0001 T10051006 $,K1FM,2022-10-23T07:55:00Z,47.6,-112.32,-0.5,-0.6,340,21,,4.0,29.589567,1004.2,,TRUE,TRUE,TRUE,,,,,-SN,BKN,900,OVC,2000,,,,,IFR,,,,,,0.01,,,,,,METAR,1344.0
K1DM 230755Z AUTO 32009KT 4SM -SN FEW011 OVC019 00/M00 A2952 RMK AO2 SLP018 P0002 T00021001 $,K1DM,2022-10-23T07:55:00Z,47.37,-109.8,0.2,-0.1,320,9,,4.0,29.518702,1001.8,,TRUE,TRUE,TRUE,,,,,-SN,FEW,1100,OVC,1900,,,,,MVFR,,,,,,0.02,,,,,,METAR,1093.0
K1CM 230755Z AUTO 30023KT 6SM -SN SCT039 BKN050 OVC065 M00/M01 A2950 RMK AO2 PK WND 31027/47 SLP009 P0000 T10031007 $,K1CM,2022-10-23T07:55:00Z,47.1,-110.17,-0.3,-0.7,300,23,,6.0,29.500984,1000.9,,TRUE,TRUE,TRUE,,,,,-SN,SCT,3900,BKN,5000,OVC,6500,,,VFR,,,,,,0.005,,,,,,METAR,1338.0
K1BM 230755Z AUTO 26017KT 3SM -SN BKN015 OVC026 00/M00 A2952 RMK AO2 BKN V OVC SLP017 P0000 T00011005 $,K1BM,2022-10-23T07:55:00Z,47.28,-110.37,0.1,-0.5,260,17,,3.0,29.518702,1001.7,,TRUE,TRUE,TRUE,,,,,-SN,BKN,1500,OVC,2600,,,,,MVFR,,,,,,0.005,,,,,,METAR,1234.0
K1AM 230755Z AUTO 28011KT 1 7/8SM -SN FEW009 OVC014 00/00 A2956 RMK AO2 SLP032 P0001 T00010000 $,K1AM,2022-10-23T07:55:00Z,47.28,-110.8,0.1,0.0,280,11,,1.88,29.56004,1003.2,,TRUE,TRUE,TRUE,,,,,-SN,FEW,900,OVC,1400,,,,,IFR,,,,,,0.01,,,,,,METAR,1228.0
FJDG 230755Z 14015G22KT 9999 FEW020 SCT047 BKN110 32/25 A2992 RMK SLP129 T03170251,FJDG,2022-10-23T07:55:00Z,-7.32,72.42,31.7,25.1,140,15,22,6.21,29.920275,1012.9,,,,,,,,,,FEW,2000,SCT,4700,BKN,11000,,,VFR,,,,,,,,,,,,METAR,3.0
ETOU 230755Z AUTO 00000KT 9999 CLR 12/12 A2996 RMK AO2 SLP149 T01180115 $,ETOU,2022-10-23T07:55:00Z,50.03,8.32,11.8,11.5,0,0,,6.21,29.958662,1014.9,,TRUE,TRUE,TRUE,,,,,,CLR,,,,,,,,VFR,,,,,,,,,,,,METAR,141.0
ETIK 230755Z AUTO 11005KT 9999 CLR 12/09 A3001 RMK AO2 SLP166 T01220085 $,ETIK,2022-10-23T07:55:00Z,49.47,10.38,12.2,8.5,110,5,,6.21,30.008858,1016.6,,TRUE,TRUE,TRUE,,,,,,CLR,,,,,,,,VFR,,,,,,,,,,,,METAR,326.0
ETIH 230755Z AUTO 11005KT 9999 OVC003 10/10 A3008 RMK AO2 SLP193 T01040098 $,ETIH,2022-10-23T07:55:00Z,49.22,11.83,10.4,9.8,110,5,,6.21,30.079725,1019.3,,TRUE,TRUE,TRUE,,,,,,OVC,300,,,,,,,LIFR,,,,,,,,,,,,METAR,436.0
ETIC 230755Z AUTO 00000KT 9999 OVC004 11/10 A3006 RMK AO2 SLP185 T01060101 $,ETIC,2022-10-23T07:55:00Z,49.7,11.93,10.6,10.1,0,0,,6.21,30.059055,1018.5,,TRUE,TRUE,TRUE,,,,,,OVC,400,,,,,,,LIFR,,,,,,,,,,,,METAR,414.0
ETEB 230755Z AUTO 12007KT 9999 CLR 12/09 A3002 RMK AO2 SLP179 T01220092 $,ETEB,2022-10-23T07:55:00Z,49.32,10.63,12.2,9.2,120,7,,6.21,30.02067,1017.9,,TRUE,TRUE,TRUE,,,,,,CLR,,,,,,,,VFR,,,,,,,,,,,,METAR,466.0
ETAR 230755Z AUTO 00000KT 9999 FEW070 11/11 A2993 RMK AO2 SLP140 T01050105 $,ETAR,2022-10-23T07:55:00Z,49.43,7.58,10.5,10.5,0,0,,6.21,29.929134,1014.0,,TRUE,TRUE,TRUE,,,,,,FEW,7000,,,,,,,VFR,,,,,,,,,,,,METAR,231.0
ETAD 230755Z AUTO 09006KT 9999 FEW050 11/11 A2988 RMK AO2 SLP109 T01090107 $,ETAD,2022-10-23T07:55:00Z,49.98,6.7,10.9,10.7,90,6,,6.21,29.878937,1010.9,,TRUE,TRUE,TRUE,,,,,,FEW,5000,,,,,,,VFR,,,,,,,,,,,,METAR,365.0
EHSC 230755Z AUTO 12016KT 9999 ///////// 15/13 Q1008 W16/H6,EHSC,2022-10-23T07:55:00Z,51.93,3.67,15.0,13.0,120,16,,6.21,29.763779,,,TRUE,,,,,,,,,,,,,,,,,,,,,,,,,,,,METAR,19.0
EHSA 230755Z AUTO 11019KT 9999 ///////// 16/14 Q1007 W17/H8,EHSA,2022-10-23T07:55:00Z,52.0,3.28,16.0,14.0,110,19,,6.21,29.734253,,,TRUE,,,,,,,,,,,,,,,,,,,,,,,,,,,,METAR,18.0
EHQE 230755Z AUTO /////KT 9999 SCT036 SCT043 BKN047 15/13 Q1009,EHQE,2022-10-23T07:55:00Z,52.92,4.15,15.0,13.0,,,,6.21,29.793306,,,TRUE,,,,,,,,SCT,3600,SCT,4300,BKN,4700,,,VFR,,,,,,,,,,,,METAR,41.0
EHPG 230755Z AUTO 12018KT 9999 NSC 16/14 Q1007,EHPG,2022-10-23T07:55:00Z,52.37,3.35,16.0,14.0,120,18,,6.21,29.734253,,,TRUE,,,,,,,,CLR,,,,,,,,VFR,,,,,,,,,,,,METAR,24.0
EHMG 230755Z AUTO 15017KT 9999 NSC 14/12 Q1011,EHMG,2022-10-23T07:55:00Z,53.62,4.97,14.0,12.0,150,17,,6.21,29.852362,,,TRUE,,,,,,,,CLR,,,,,,,,VFR,,,,,,,,,,,,METAR,30.0
EHMA 230755Z AUTO 13018KT 9000 NSC 12/11 Q1011,EHMA,2022-10-23T07:55:00Z,53.5,5.95,12.0,11.0,130,18,,5.59,29.852362,,,TRUE,,,,,,,,CLR,,,,,,,,VFR,,,,,,,,,,,,METAR,27.0
EHKV 230755Z AUTO 15018KT 9999 NSC 16/14 Q1008,EHKV,2022-10-23T07:55:00Z,53.27,3.63,16.0,14.0,150,18,,6.21,29.763779,,,TRUE,,,,,,,,CLR,,,,,,,,VFR,,,,,,,,,,,,METAR,28.0
EHJR 230755Z AUTO 13017KT //// // ///////// 16/14 Q1008 RE// W16/H8,EHJR,2022-10-23T07:55:00Z,53.22,3.22,16.0,14.0,130,17,,,29.763779,,,TRUE,,,,,,,,,,,,,,,,,,,,,,,,,,,,METAR,31.0
EHJA 230755Z AUTO 12020KT 9999 FEW022/// 16/14 Q1008,EHJA,2022-10-23T07:55:00Z,53.82,2.95,16.0,14.0,120,20,,6.21,29.763779,,,TRUE,,,,,,,,FEW,2200,,,,,,,VFR,,,,,,,,,,,,METAR,34.0
EHHW 230755Z AUTO 14010KT 110V190 9999 NSC 14/13 Q1011,EHHW,2022-10-23T07:55:00Z,54.03,6.03,14.0,13.0,140,10,,6.21,29.852362,,,TRUE,,,,,,,,CLR,,,,,,,,VFR,,,,,,,,,,,,METAR,10.0
EHFS 230755Z AUTO 11016KT 080V140 9999 NSC 15/13 Q1007,EHFS,2022-10-23T07:55:00Z,51.45,3.6,15.0,13.0,110,16,,6.21,29.734253,,,TRUE,,,,,,,,CLR,,,,,,,,VFR,,,,,,,,,,,,METAR,1.0
EHFD 230755Z AUTO /////KT //// // NSC 15/14 Q1010,EHFD,2022-10-23T07:55:00Z,54.85,4.7,15.0,14.0,,,,,29.822834,,,TRUE,,,,,,,,CLR,,,,,,,,,,,,,,,,,,,,METAR,24.0
EHDV 230755Z AUTO 15020KT 9999 NSC 15/14 Q1008,EHDV,2022-10-23T07:55:00Z,54.32,2.93,15.0,14.0,150,20,,6.21,29.763779,,,TRUE,,,,,,,,CLR,,,,,,,,VFR,,,,,,,,,,,,METAR,36.0
EHAK 230755Z AUTO 16015KT 1900 BR OVC000/// 14/14 Q1009,EHAK,2022-10-23T07:55:00Z,55.38,3.82,14.0,14.0,160,15,,1.18,29.793306,,,TRUE,,,,,,,BR,OVC,0,,,,,,,LIFR,,,,,,,,,,,,METAR,33.0
EGUN 230755Z 12012KT 6000 -RA BKN040 BKN080 15/15 A2964 RMK AO2A VIS 4400V6000 RAB29 SLP040 P0003 T01480148 $,EGUN,2022-10-23T07:55:00Z,52.37,0.48,14.8,14.8,120,12,,3.73,29.639763,1004.0,,,TRUE,TRUE,,,,,-RA,BKN,4000,BKN,8000,,,,,MVFR,,,,,,0.03,,,,,,METAR,10.0
EBLB 230755Z AUTO 18006KT 9999 BKN210/// 14/10 Q1012 BLU,EBLB,2022-10-23T07:55:00Z,50.47,6.17,14.0,10.0,180,6,,6.21,29.88189,,,TRUE,,,,,,,,BKN,21000,,,,,,,VFR,,,,,,,,,,,,METAR,563.0
EBFS 230755Z AUTO 15010KT 9999 SCT110/// BKN130/// BKN150/// 14/12 Q1009 BLU,EBFS,2022-10-23T07:55:00Z,50.23,4.65,14.0,12.0,150,10,,6.21,29.793306,,,TRUE,,,,,,,,SCT,11000,BKN,13000,BKN,15000,,,VFR,,,,,,,,,,,,METAR,276.0
EBFN 230755Z AUTO 15011KT 9999 -RA OVC069/// 16/14 Q1006 BLU,EBFN,2022-10-23T07:55:00Z,51.08,2.65,16.0,14.0,150,11,,6.21,29.704725,,,TRUE,,,,,,,-RA,OVC,6900,,,,,,,VFR,,,,,,,,,,,,METAR,9.0
EBDT 230755Z AUTO 13005KT 9999 BKN150/// 14/12 Q1009 BLU,EBDT,2022-10-23T07:55:00Z,51.02,5.07,14.0,12.0,130,5,,6.21,29.793306,,,TRUE,,,,,,,,BKN,15000,,,,,,,VFR,,,,,,,,,,,,METAR,25.0
EBCV 230755Z AUTO 15006KT 9999 SCT086/// OVC120/// 16/13 Q1008 BLU,EBCV,2022-10-23T07:55:00Z,50.57,3.82,16.0,13.0,150,6,,6.21,29.763779,,,TRUE,,,,,,,,SCT,8600,OVC,12000,,,,,VFR,,,,,,,,,,,,METAR,56.0
EBBL 230755Z AUTO 10003KT 9999 BKN160/// 13/12 Q1010 BLU,EBBL,2022-10-23T07:55:00Z,51.17,5.47,13.0,12.0,100,3,,6.21,29.822834,,,TRUE,,,,,,,,BKN,16000,,,,,,,VFR,,,,,,,,,,,,METAR,50.0
EBBE 230755Z AUTO 13005KT 9999 BKN130/// OVC150/// 15/12 Q1009 BLU,EBBE,2022-10-23T07:55:00Z,50.75,4.77,15.0,12.0,130,5,,6.21,29.793306,,,TRUE,,,,,,,,BKN,13000,OVC,15000,,,,,VFR,,,,,,,,,,,,METAR,127.0
PHOG 230754Z 06012KT 10SM CLR 26/18 A3002 RMK AO2 SLP170 T02610183,PHOG,2022-10-23T07:54:00Z,20.9,-156.43,26.1,18.3,60,12,,10.0,30.02067,1017.0,,,TRUE,,,,,,,CLR,,,,,,,,VFR,,,,,,,,,,,,METAR,14.0
PHMK 230754Z AUTO 03006KT 10SM CLR 24/18 A3005 RMK AO2 SLP176 T02440183 TSNO,PHMK,2022-10-23T07:54:00Z,21.15,-157.1,24.4,18.3,30,6,,10.0,30.050198,1017.6,,TRUE,TRUE,,,TRUE,,,,CLR,,,,,,,,VFR,,,,,,,,,,,,METAR,135.0
PGUM 230754Z 11005KT 10SM FEW015 27/25 A2980 RMK AO2 SLP084 T02720250,PGUM,2022-10-23T07:54:00Z,13.48,144.8,27.2,25.0,110,5,,10.0,29.799213,1008.4,,,TRUE,,,,,,,FEW,1500,,,,,,,VFR,,,,,,,,,,,,METAR,74.0
PGSN 230754Z 12007KT 10SM FEW021 SCT028 28/25 A2981 RMK AO2 SLP114 T02830250,PGSN,2022-10-23T07:54:00Z,15.12,145.72,28.3,25.0,120,7,,10.0,29.811024,1011.4,,,TRUE,,,,,,,FEW,2100,SCT,2800,,,,,VFR,,,,,,,,,,,,METAR,65.0
PAKN 230754Z 32011KT 10SM SCT140 00/M01 A2990 RMK AO2 SLP126 T00001011,PAKN,2022-10-23T07:54:00Z,58.68,-156.65,0.0,-1.1,320,11,,10.0,29.899607,1012.6,,,TRUE,,,,,,,SCT,14000,,,,,,,VFR,,,,,,,,,,,,METAR,20.0
PAHN 230754Z AUTO 11007KT 10SM BKN018 BKN055 OVC100 06/02 A2984 RMK AO2 SLP107 T00560022 TSNO,PAHN,2022-10-23T07:54:00Z,59.25,-135.52,5.6,2.2,110,7,,10.0,29.840551,1010.7,,TRUE,TRUE,,,TRUE,,,,BKN,1800,BKN,5500,OVC,10000,,,MVFR,,,,,,,,,,,,METAR,15.0
PAEI 230754Z 00000KT 1/4SM R32/2600V4000FT FZFG OVC002 M02/M02 A2990 AO2A,PAEI,2022-10-23T07:54:00Z,64.67,-147.1,-2.0,-2.0,0,0,,0.25,29.899607,,,,TRUE,,,,,,FZFG,OVC,200,,,,,,,LIFR,,,,,,,,,,,,SPECI,166.0
LIQN 230754Z 17003KT 100V250 CAVOK 16/11 Q1026,LIQN,2022-10-23T07:54:00Z,42.42,12.83,16.0,11.0,170,3,,6.21,30.295275,,,,,,,,,,,CAVOK,,,,,,,,VFR,,,,,,,,,,,,SPECI,387.0
KWLD 230754Z AUTO 18015G26KT 10SM CLR 23/13 A2957 RMK AO2 PK WND 17026/0751 SLP999 T02330128,KWLD,2022-10-23T07:54:00Z,37.17,-97.03,23.3,12.8,180,15,26,10.0,29.568897,999.9,,TRUE,TRUE,,,,,,,CLR,,,,,,,,VFR,,,,,,,,,,,,METAR,351.0
KWAL 230754Z AUTO 36007KT 10SM OVC015 14/12 A3017 RMK AO2 SLP212 T01390117,KWAL,2022-10-23T07:54:00Z,37.93,-75.47,13.9,11.7,360,7,,10.0,30.171259,1021.2,,TRUE,TRUE,,,,,,,OVC,1500,,,,,,,MVFR,,,,,,,,,,,,METAR,10.0
KVTA 230754Z AUTO 00000KT 10SM CLR 08/06 A3015 RMK AO2 SLPNO T00830061 $,KVTA,2022-10-23T07:54:00Z,40.02,-82.47,8.3,6.1,0,0,,10.0,30.15059,,,TRUE,TRUE,TRUE,,,,,,CLR,,,,,,,,VFR,,,,,,,,,,,,METAR,268.0
KVSF 230754Z AUTO 00000KT 10SM CLR 03/02 A3034 RMK AO2 SLP276 T00280017,KVSF,2022-10-23T07:54:00Z,43.35,-72.52,2.8,1.7,0,0,,10.0,30.339567,1027.6,,TRUE,TRUE,,,,,,,CLR,,,,,,,,VFR,,,,,,,,,,,,METAR,176.0
KVAY 230754Z AUTO 02003KT 10SM SCT041 11/08 A3024 RMK AO2 SLP241 T01110083 $,KVAY,2022-10-23T07:54:00Z,39.93,-74.83,11.1,8.3,20,3,,10.0,30.239174,1024.1,,TRUE,TRUE,TRUE,,,,,,SCT,4100,,,,,,,VFR,,,,,,,,,,,,METAR,15.0
KUZA 230754Z AUTO 00000KT 10SM CLR 06/04 A3018 RMK AO2 SLP216 T00610044,KUZA,2022-10-23T07:54:00Z,34.98,-81.05,6.1,4.4,0,0,,10.0,30.180119,1021.6,,TRUE,TRUE,,,,,,,CLR,,,,,,,,VFR,,,,,,,,,,,,METAR,198.0
KUIN 230754Z AUTO 16010KT 10SM CLR 19/12 A2978 RMK AO2 SLP076 T01890117,KUIN,2022-10-23T07:54:00Z,39.95,-91.2,18.9,11.7,160,10,,10.0,29.778543,1007.6,,TRUE,TRUE,,,,,,,CLR,,,,,,,,VFR,,,,,,,,,,,,METAR,233.0
KTQE 230754Z AUTO 12010KT 10SM CLR 16/11 A2948 RMK AO2 SLP971 T01560106,KTQE,2022-10-23T07:54:00Z,41.77,-96.18,15.6,10.6,120,10,,10.0,29.480314,997.1,,TRUE,TRUE,,,,,,,CLR,,,,,,,,VFR,,,,,,,,,,,,METAR,312.0
KTAD 230754Z AUTO 23017G28KT 10SM CLR 17/M01 A2959 RMK AO2 PK WND 23038/0708 SLP933 T01721011,KTAD,2022-10-23T07:54:00Z,37.27,-104.33,17.2,-1.1,230,17,28,10.0,29.589567,993.3,,TRUE,TRUE,,,,,,,CLR,,,,,,,,VFR,,,,,,,,,,,,METAR,1751.0
KSYR 230754Z 00000KT 10SM CLR 07/02 A3025 RMK AO2 SLP241 T00670022 $,KSYR,2022-10-23T07:54:00Z,43.12,-76.1,6.7,2.2,0,0,,10.0,30.250984,1024.1,,,TRUE,TRUE,,,,,,CLR,,,,,,,,VFR,,,,,,,,,,,,METAR,125.0
KSUS 230754Z 18006KT 10SM FEW080 20/12 A2982 RMK AO2 SLP091 T02000117,KSUS,2022-10-23T07:54:00Z,38.65,-90.65,20.0,11.7,180,6,,10.0,29.819881,1009.1,,,TRUE,,,,,,,FEW,8000,,,,,,,VFR,,,,,,,,,,,,METAR,140.0
KSLC 230754Z 02010KT 3SM +RA BR FEW011 BKN023 OVC035 04/02 A2959 RMK AO2 RAB34 SLP996 P0001 T00440022 $,KSLC,2022-10-23T07:54:00Z,40.77,-111.97,4.4,2.2,20,10,,3.0,29.589567,999.6,,,TRUE,TRUE,,,,,+RA BR,FEW,1100,BKN,2300,OVC,3500,,,MVFR,,,,,,0.01,,,,,,METAR,1286.0
KSET 230754Z AUTO 14009KT 10SM BKN090 19/12 A2983 RMK AO2 SLP098 T01890117,KSET,2022-10-23T07:54:00Z,38.93,-90.43,18.9,11.7,140,9,,10.0,29.828741,1009.8,,TRUE,TRUE,,,,,,,BKN,9000,,,,,,,VFR,,,,,,,,,,,,METAR,133.0
KSBY 230754Z AUTO 36007KT 10SM OVC016 13/11 A3018 RMK AO2 SLP220 T01280111,KSBY,2022-10-23T07:54:00Z,38.33,-75.5,12.8,11.1,360,7,,10.0,30.180119,1022.0,,TRUE,TRUE,,,,,,,OVC,1600,,,,,,,MVFR,,,,,,,,,,,,METAR,14.0
KSBN 230754Z AUTO 14008KT 10SM CLR 15/11 A3001 RMK AO2 SLP160 T01500106,KSBN,2022-10-23T07:54:00Z,41.7,-86.32,15.0,10.6,140,8,,10.0,30.008858,1016.0,,TRUE,TRUE,,,,,,,CLR,,,,,,,,VFR,,,,,,,,,,,,METAR,236.0
KRST 230754Z AUTO 16012G19KT 10SM CLR 16/08 A2968 RMK AO2 SLP046 T01610083,KRST,2022-10-23T07:54:00Z,43.9,-92.5,16.1,8.3,160,12,19,10.0,29.681103,1004.6,,TRUE,TRUE,,,,,,,CLR,,,,,,,,VFR,,,,,,,,,,,,METAR,398.0
KROC 230754Z 24004KT 10SM CLR 07/03 A3021 RMK AO2 SLP233 T00720033,KROC,2022-10-23T07:54:00Z,43.12,-77.68,7.2,3.3,240,4,,10.0,30.209646,1023.3,,,TRUE,,,,,,,CLR,,,,,,,,VFR,,,,,,,,,,,,METAR,166.0
KROA 230754Z 30003KT 10SM CLR 05/03 A3025 RMK AO2 SLP240 T00500028 $,KROA,2022-10-23T07:54:00Z,37.32,-79.97,5.0,2.8,300,3,,10.0,30.250984,1024.0,,,TRUE,TRUE,,,,,,CLR,,,,,,,,VFR,,,,,,,,,,,,METAR,349.0
KRIC 230754Z 01006KT 10SM OVC300 09/07 A3021 RMK AO2 SLP235 T00890072 $,KRIC,2022-10-23T07:54:00Z,37.52,-77.32,8.9,7.2,10,6,,10.0,30.209646,1023.5,,,TRUE,TRUE,,,,,,OVC,30000,,,,,,,VFR,,,,,,,,,,,,METAR,51.0
KRFD 230754Z 16007KT 10SM CLR 16/12 A2987 RMK AO2 SLP113 T01560117,KRFD,2022-10-23T07:54:00Z,42.2,-89.1,15.6,11.7,160,7,,10.0,29.870079,1011.3,,,TRUE,,,,,,,CLR,,,,,,,,VFR,,,,,,,,,,,,METAR,222.0
KRDG 230754Z AUTO 00000KT 8SM CLR 06/04 A3027 RMK AO2 SLP255 T00610044 $,KRDG,2022-10-23T07:54:00Z,40.37,-75.97,6.1,4.4,0,0,,8.0,30.268702,1025.5,,TRUE,TRUE,TRUE,,,,,,CLR,,,,,,,,VFR,,,,,,,,,,,,METAR,101.0
KRBL 230754Z AUTO 31008KT 10SM CLR 13/01 A2988 RMK AO2 SLP115 T01280006 402330128,KRBL,2022-10-23T07:54:00Z,40.15,-122.25,12.8,0.6,310,8,,10.0,29.878937,1011.5,,TRUE,TRUE,,,,,,,CLR,,,,,,,,VFR,,,,23.3,12.8,,,,,,,METAR,107.0
KPTW 230754Z AUTO 00000KT 6SM BR FEW035 04/03 A3029 RMK AO2 SLP254 T00390033,KPTW,2022-10-23T07:54:00Z,40.23,-75.55,3.9,3.3,0,0,,6.0,30.28937,1025.4,,TRUE,TRUE,,,,,,BR,FEW,3500,,,,,,,VFR,,,,,,,,,,,,METAR,88.0
KPSF 230754Z AUTO 00000KT 10SM CLR 03/02 A3030 RMK AO2 SLP251 T00330022,KPSF,2022-10-23T07:54:00Z,42.43,-73.28,3.3,2.2,0,0,,10.0,30.301182,1025.1,,TRUE,TRUE,,,,,,,CLR,,,,,,,,VFR,,,,,,,,,,,,METAR,352.0
KPLN 230754Z AUTO 19009G14KT 160V230 10SM CLR 19/11 A2996 RMK AO2 SLP143 T01890106 $,KPLN,2022-10-23T07:54:00Z,45.57,-84.8,18.9,10.6,190,9,14,10.0,29.958662,1014.3,,TRUE,TRUE,TRUE,,,,,,CLR,,,,,,,,VFR,,,,,,,,,,,,METAR,215.0
KPIA 230754Z 17013G22KT 10SM CLR 18/12 A2985 RMK AO2 SLP103 T01780117,KPIA,2022-10-23T07:54:00Z,40.67,-89.68,17.8,11.7,170,13,22,10.0,29.84941,1010.3,,,TRUE,,,,,,,CLR,,,,,,,,VFR,,,,,,,,,,,,METAR,200.0
KPHL 230754Z 36003KT 10SM OVC027 12/10 A3025 RMK AO2 SLP242 T01220100 $,KPHL,2022-10-23T07:54:00Z,39.87,-75.23,12.2,10.0,360,3,,10.0,30.250984,1024.2,,,TRUE,TRUE,,,,,,OVC,2700,,,,,,,MVFR,,,,,,,,,,,,METAR,2.0
KORH 230754Z AUTO 00000KT 10SM CLR 09/06 A3030 RMK AO2 SLP263 T00890061,KORH,2022-10-23T07:54:00Z,42.27,-71.87,8.9,6.1,0,0,,10.0,30.301182,1026.3,,TRUE,TRUE,,,,,,,CLR,,,,,,,,VFR,,,,,,,,,,,,METAR,306.0
KOLS 230754Z AUTO 19013KT 10SM CLR 17/09 A2986 RMK AO2 PK WND 20026/0733 SLP052 T01720094,KOLS,2022-10-23T07:54:00Z,31.42,-110.85,17.2,9.4,190,13,,10.0,29.861221,1005.2,,TRUE,TRUE,,,,,,,CLR,,,,,,,,VFR,,,,,,,,,,,,METAR,1194.0
KOLM 230754Z AUTO 00000KT 10SM CLR 04/03 A2992 RMK AO2 SLP133 T00390033 401280017 $,KOLM,2022-10-23T07:54:00Z,46.97,-122.9,3.9,3.3,0,0,,10.0,29.920275,1013.3,,TRUE,TRUE,TRUE,,,,,,CLR,,,,,,,,VFR,,,,12.8,1.7,,,,,,,METAR,58.0
KOFP 230754Z AUTO 00000KT 10SM CLR 08/07 A3023 RMK AO2 SLP237 T00830067,KOFP,2022-10-23T07:54:00Z,37.7,-77.43,8.3,6.7,0,0,,10.0,30.230314,1023.7,,TRUE,TRUE,,,,,,,CLR,,,,,,,,VFR,,,,,,,,,,,,METAR,63.0
KNAK 230754Z AUTO 35004KT 10SM CLR 12/11 A3024 RMK AO2 SLP243 T01220106,KNAK,2022-10-23T07:54:00Z,38.98,-76.48,12.2,10.6,350,4,,10.0,30.239174,1024.3,,TRUE,TRUE,,,,,,,CLR,,,,,,,,VFR,,,,,,,,,,,,METAR,2.0
KMVL 230754Z AUTO 00000KT 10SM CLR 01/M01 A3032 RMK AO2 SLP272 T00061006,KMVL,2022-10-23T07:54:00Z,44.53,-72.62,0.6,-0.6,0,0,,10.0,30.318897,1027.2,,TRUE,TRUE,,,,,,,CLR,,,,,,,,VFR,,,,,,,,,,,,METAR,226.0
KMTP 230754Z AUTO 05004KT 16/12 A3029 RMK AO1 SLP255 T01610122,KMTP,2022-10-23T07:54:00Z,41.07,-71.92,16.1,12.2,50,4,,,30.28937,1025.5,,TRUE,TRUE,,,,,,,,,,,,,,,,,,,,,,,,,,,METAR,2.0
KMRY 230754Z AUTO 28008G18KT 9SM CLR 13/09 A2987 RMK AO2 SLP128 T01280089 401830128,KMRY,2022-10-23T07:54:00Z,36.58,-121.85,12.8,8.9,280,8,18,9.0,29.870079,1012.8,,TRUE,TRUE,,,,,,,CLR,,,,,,,,VFR,,,,18.3,12.8,,,,,,,METAR,51.0
KMOT 230754Z AUTO 05007KT 10SM OVC013 07/04 A2959 RMK AO2 SLP030 T00720044,KMOT,2022-10-23T07:54:00Z,48.25,-101.27,7.2,4.4,50,7,,10.0,29.589567,1003.0,,TRUE,TRUE,,,,,,,OVC,1300,,,,,,,MVFR,,,,,,,,,,,,METAR,507.0
KMKC 230754Z 15006KT 10SM CLR 21/13 A2959 RMK AO2 SLP014 T02060128,KMKC,2022-10-23T07:54:00Z,39.12,-94.6,20.6,12.8,150,6,,10.0,29.589567,1001.4,,,TRUE,,,,,,,CLR,,,,,,,,VFR,,,,,,,,,,,,METAR,228.0
KMIV 230754Z AUTO 04006KT 10SM SCT025 BKN030 BKN036 12/11 A3022 RMK AO2 SLP231 T01220106 $,KMIV,2022-10-23T07:54:00Z,39.37,-75.08,12.2,10.6,40,6,,10.0,30.221457,1023.1,,TRUE,TRUE,TRUE,,,,,,SCT,2500,BKN,3000,BKN,3600,,,MVFR,,,,,,,,,,,,METAR,18.0
KMGJ 230754Z AUTO 00000KT 8SM CLR 02/02 A3029 RMK AO2 SLP258 T00220017,KMGJ,2022-10-23T07:54:00Z,41.52,-74.27,2.2,1.7,0,0,,8.0,30.28937,1025.8,,TRUE,TRUE,,,,,,,CLR,,,,,,,,VFR,,,,,,,,,,,,METAR,106.0
KMFI 230754Z AUTO 17007KT 10SM CLR 14/09 A2978 RMK AO2 SLP082 T01440094,KMFI,2022-10-23T07:54:00Z,44.63,-90.18,14.4,9.4,170,7,,10.0,29.778543,1008.2,,TRUE,TRUE,,,,,,,CLR,,,,,,,,VFR,,,,,,,,,,,,METAR,383.0
KMEM 230754Z 18009KT 10SM SCT250 18/12 A3001 RMK AO2 SLP159 T01780122,KMEM,2022-10-23T07:54:00Z,35.07,-89.98,17.8,12.2,180,9,,10.0,30.008858,1015.9,,,TRUE,,,,,,,SCT,25000,,,,,,,VFR,,,,,,,,,,,,METAR,78.0
KLYH 230754Z AUTO 32003KT 10SM CLR 07/03 A3022 RMK AO2 SLP228 T00670033,KLYH,2022-10-23T07:54:00Z,37.32,-79.2,6.7,3.3,320,3,,10.0,30.221457,1022.8,,TRUE,TRUE,,,,,,,CLR,,,,,,,,VFR,,,,,,,,,,,,METAR,282.0
KLWM 230754Z AUTO 00000KT 9SM CLR 07/06 A3033 RMK AO2 SLP271 T00670056,KLWM,2022-10-23T07:54:00Z,42.72,-71.13,6.7,5.6,0,0,,9.0,30.33071,1027.1,,TRUE,TRUE,,,,,,,CLR,,,,,,,,VFR,,,,,,,,,,,,METAR,42.0
KLNK 230754Z AUTO 14008KT 10SM CLR 17/12 A2945 RMK AO2 SLP962 T01720117,KLNK,2022-10-23T07:54:00Z,40.85,-96.77,17.2,11.7,140,8,,10.0,29.450787,996.2,,TRUE,TRUE,,,,,,,CLR,,,,,,,,VFR,,,,,,,,,,,,METAR,357.0
KLEX 230754Z 15006KT 10SM CLR 14/08 A3014 RMK AO2 SLP198 T01440078,KLEX,2022-10-23T07:54:00Z,38.03,-84.6,14.4,7.8,150,6,,10.0,30.138779,1019.8,,,TRUE,,,,,,,CLR,,,,,,,,VFR,,,,,,,,,,,,METAR,294.0
KLAF 230754Z AUTO 15006KT 10SM SCT060 16/10 A2999 RMK AO2 SLP151 T01610100,KLAF,2022-10-23T07:54:00Z,40.42,-86.93,16.1,10.0,150,6,,10.0,29.991142,1015.1,,TRUE,TRUE,,,,,,,SCT,6000,,,,,,,VFR,,,,,,,,,,,,METAR,182.0
KJST 230754Z AUTO 16004KT CLR 09/02 A3023 RMK AO2 SLP235 T00890017 $,KJST,2022-10-23T07:54:00Z,40.32,-78.83,8.9,1.7,160,4,,,30.230314,1023.5,,TRUE,TRUE,TRUE,,,,,,CLR,,,,,,,,,,,,,,,,,,,,METAR,695.0
KJAN 230754Z AUTO 15007KT 10SM CLR 14/12 A3007 RMK AO2 SLP180 T01440122,KJAN,2022-10-23T07:54:00Z,32.32,-90.08,14.4,12.2,150,7,,10.0,30.070866,1018.0,,TRUE,TRUE,,,,,,,CLR,,,,,,,,VFR,,,,,,,,,,,,METAR,92.0
KIZG 230754Z AUTO 00000KT 10SM CLR 01/00 A3032 RMK AO2 SLP270 T00110000,KIZG,2022-10-23T07:54:00Z,43.98,-70.95,1.1,0.0,0,0,,10.0,30.318897,1027.0,,TRUE,TRUE,,,,,,,CLR,,,,,,,,VFR,,,,,,,,,,,,METAR,138.0
KISW 230754Z AUTO 16004KT 10SM CLR 16/10 A2981 RMK AO2 SLP091 T01610100,KISW,2022-10-23T07:54:00Z,44.37,-89.83,16.1,10.0,160,4,,10.0,29.811024,1009.1,,TRUE,TRUE,,,,,,,CLR,,,,,,,,VFR,,,,,,,,,,,,METAR,311.0
KIPT 230754Z AUTO 00000KT 10SM CLR 03/02 A3028 RMK AO2 SLP254 T00330022,KIPT,2022-10-23T07:54:00Z,41.25,-76.92,3.3,2.2,0,0,,10.0,30.280512,1025.4,,TRUE,TRUE,,,,,,,CLR,,,,,,,,VFR,,,,,,,,,,,,METAR,160.0
KINT 230754Z AUTO 02004KT 10SM CLR 09/03 A3020 RMK AO2 SLP223 T00940033,KINT,2022-10-23T07:54:00Z,36.13,-80.22,9.4,3.3,20,4,,10.0,30.200787,1022.3,,TRUE,TRUE,,,,,,,CLR,,,,,,,,VFR,,,,,,,,,,,,METAR,292.0
KINL 230754Z AUTO 09007KT 10SM CLR 08/04 A2962 RMK AO2 SLP035 T00780044,KINL,2022-10-23T07:54:00Z,48.57,-93.4,7.8,4.4,90,7,,10.0,29.619095,1003.5,,TRUE,TRUE,,,,,,,CLR,,,,,,,,VFR,,,,,,,,,,,,METAR,353.0
KIND 230754Z 14008KT 10SM BKN150 BKN200 14/10 A3004 RMK AO2 SLP167 T01440100 $,KIND,2022-10-23T07:54:00Z,39.72,-86.27,14.4,10.0,140,8,,10.0,30.041338,1016.7,,,TRUE,TRUE,,,,,,BKN,15000,BKN,20000,,,,,VFR,,,,,,,,,,,,METAR,242.0
KIMT 230754Z AUTO 13004KT 4SM BR CLR 09/09 A2984 RMK AO2 SLP107 T00940089,KIMT,2022-10-23T07:54:00Z,45.82,-88.12,9.4,8.9,130,4,,4.0,29.840551,1010.7,,TRUE,TRUE,,,,,,BR,CLR,,,,,,,,MVFR,,,,,,,,,,,,METAR,343.0
KILN 230754Z AUTO 16003KT 10SM CLR 14/08 A3013 RMK AO2 SLP197 T01390078,KILN,2022-10-23T07:54:00Z,39.43,-83.8,13.9,7.8,160,3,,10.0,30.129921,1019.7,,TRUE,TRUE,,,,,,,CLR,,,,,,,,VFR,,,,,,,,,,,,METAR,325.0
KHWD 230754Z 26003KT 10SM CLR 13/04 A2986 RMK AO2 SLP120 T01330044 402000128,KHWD,2022-10-23T07:54:00Z,37.67,-122.12,13.3,4.4,260,3,,10.0,29.861221,1012.0,,,TRUE,,,,,,,CLR,,,,,,,,VFR,,,,20.0,12.8,,,,,,,METAR,9.0
KGSO 230754Z 35003KT 10SM FEW250 08/04 A3018 RMK AO2 SLP216 T00830044,KGSO,2022-10-23T07:54:00Z,36.1,-79.95,8.3,4.4,350,3,,10.0,30.180119,1021.6,,,TRUE,,,,,,,FEW,25000,,,,,,,VFR,,,,,,,,,,,,METAR,275.0
KGCN 230754Z AUTO 22022G32KT 10SM SCT039 BKN048 OVC075 08/03 A2967 RMK AO2 PK WND 23047/0711 RAE12 SLP976 P0001 T00830028,KGCN,2022-10-23T07:54:00Z,35.95,-112.15,8.3,2.8,220,22,32,10.0,29.66929,997.6,,TRUE,TRUE,,,,,,,SCT,3900,BKN,4800,OVC,7500,,,VFR,,,,,,0.01,,,,,,METAR,1993.0
KGCK 230754Z AUTO 21018G24KT 10SM CLR 19/08 A2947 RMK AO2 PK WND 21029/0728 SLP941 T01890083,KGCK,2022-10-23T07:54:00Z,37.92,-100.72,18.9,8.3,210,18,24,10.0,29.471457,994.1,,TRUE,TRUE,,,,,,,CLR,,,,,,,,VFR,,,,,,,,,,,,METAR,877.0
KFWA 230754Z 14004KT 10SM FEW150 BKN210 13/09 A3006 RMK AO2 SLP178 T01280094 $,KFWA,2022-10-23T07:54:00Z,40.98,-85.2,12.8,9.4,140,4,,10.0,30.059055,1017.8,,,TRUE,TRUE,,,,,,FEW,15000,BKN,21000,,,,,VFR,,,,,,,,,,,,METAR,243.0
KFIG 230754Z AUTO 35004KT 10SM CLR 03/01 A3025 RMK AO2 SLP245 T00280011,KFIG,2022-10-23T07:54:00Z,41.05,-78.42,2.8,1.1,350,4,,10.0,30.250984,1024.5,,TRUE,TRUE,,,,,,,CLR,,,,,,,,VFR,,,,,,,,,,,,METAR,461.0
KFFZ 230754Z AUTO 19009KT 10SM FEW046 SCT060 22/12 A2969 RMK AO2 SLP031 T02170117,KFFZ,2022-10-23T07:54:00Z,33.47,-111.72,21.7,11.7,190,9,,10.0,29.68996,1003.1,,TRUE,TRUE,,,,,,,FEW,4600,SCT,6000,,,,,VFR,,,,,,,,,,,,METAR,420.0
KFAR 230754Z COR 00000KT 10SM CLR 02/M01 A2953,KFAR,2022-10-23T07:54:00Z,46.9,-96.82,2.0,-1.0,0,0,,10.0,29.530512,,TRUE,,,,,,,,,CLR,,,,,,,,VFR,,,,,,,,,,,,METAR,276.0
KEWN 230754Z AUTO 36007KT 10SM SCT065 15/12 A3009 RMK AO2 SLP188 T01500117,KEWN,2022-10-23T07:54:00Z,35.07,-77.05,15.0,11.7,360,7,,10.0,30.088583,1018.8,,TRUE,TRUE,,,,,,,SCT,6500,,,,,,,VFR,,,,,,,,,,,,METAR,3.0
KEVV 230754Z 17006KT 10SM OVC065 18/11 A3003 RMK AO2 SLP167 T01830111,KEVV,2022-10-23T07:54:00Z,38.05,-87.52,18.3,11.1,170,6,,10.0,30.029528,1016.7,,,TRUE,,,,,,,OVC,6500,,,,,,,VFR,,,,,,,,,,,,METAR,123.0
KEUG 230754Z AUTO 19003KT 10SM BKN050 08/07 A2998 RMK AO2 SLP153 T00780067 401500072 $,KEUG,2022-10-23T07:54:00Z,44.13,-123.22,7.8,6.7,190,3,,10.0,29.97933,1015.3,,TRUE,TRUE,TRUE,,,,,,BKN,5000,,,,,,,VFR,,,,15.0,7.2,,,,,,,METAR,109.0
KECG 230754Z AUTO 34011KT 10SM OVC014 15/13 A3010 RMK AO2 SLP192 T01500133,KECG,2022-10-23T07:54:00Z,36.27,-76.18,15.0,13.3,340,11,,10.0,30.100393,1019.2,,TRUE,TRUE,,,,,,,OVC,1400,,,,,,,MVFR,,,,,,,,,,,,METAR,2.0
KDYL 230754Z AUTO 03004KT 10SM BKN027 BKN034 09/06 A3025 RMK AO2 SLP243 T00940061,KDYL,2022-10-23T07:54:00Z,40.33,-75.12,9.4,6.1,30,4,,10.0,30.250984,1024.3,,TRUE,TRUE,,,,,,,BKN,2700,BKN,3400,,,,,MVFR,,,,,,,,,,,,METAR,121.0
KDSV 230754Z AUTO 14009KT 10SM CLR 06/03 A3024 RMK AO2 SLP249 T00610028,KDSV,2022-10-23T07:54:00Z,42.57,-77.72,6.1,2.8,140,9,,10.0,30.239174,1024.9,,TRUE,TRUE,,,,,,,CLR,,,,,,,,VFR,,,,,,,,,,,,METAR,195.0
KDSM 230754Z 14011KT 10SM CLR 18/11 A2962 RMK AO2 SLP024 T01830111,KDSM,2022-10-23T07:54:00Z,41.53,-93.67,18.3,11.1,140,11,,10.0,29.619095,1002.4,,,TRUE,,,,,,,CLR,,,,,,,,VFR,,,,,,,,,,,,METAR,286.0
KDMH 230754Z AUTO 11/06 A3026 RMK AO1 SLP247 T01060061,KDMH,2022-10-23T07:54:00Z,39.28,-76.62,10.6,6.1,,,,,30.259842,1024.7,,TRUE,TRUE,,,,,,,,,,,,,,,,,,,,,,,,,,,METAR,4.0
KDEC 230754Z AUTO 16014G21KT 10SM CLR 18/12 A2990 RMK AO2 SLP122 T01780117,KDEC,2022-10-23T07:54:00Z,39.83,-88.87,17.8,11.7,160,14,21,10.0,29.899607,1012.2,,TRUE,TRUE,,,,,,,CLR,,,,,,,,VFR,,,,,,,,,,,,METAR,205.0
KDDH 230754Z AUTO 00000KT 10SM CLR 04/M01 A3030 RMK AO2 SLP262 T00441006,KDDH,2022-10-23T07:54:00Z,42.9,-73.25,4.4,-0.6,0,0,,10.0,30.301182,1026.2,,TRUE,TRUE,,,,,,,CLR,,,,,,,,VFR,,,,,,,,,,,,METAR,241.0
KCRW 230754Z 00000KT 10SM CLR 07/06 A3017 RMK AO2 SLP213 T00670056,KCRW,2022-10-23T07:54:00Z,38.38,-81.58,6.7,5.6,0,0,,10.0,30.171259,1021.3,,,TRUE,,,,,,,CLR,,,,,,,,VFR,,,,,,,,,,,,METAR,278.0
KCOU 230754Z AUTO 15011KT 10SM CLR 19/12 A2975 RMK AO2 SLP065 T01940122,KCOU,2022-10-23T07:54:00Z,38.82,-92.22,19.4,12.2,150,11,,10.0,29.749016,1006.5,,TRUE,TRUE,,,,,,,CLR,,,,,,,,VFR,,,,,,,,,,,,METAR,272.0
KCOS 230754Z 18021G33KT 10SM FEW080 FEW200 15/M02 A2948 RMK AO2 PK WND 18033/0745 SLP898 T01501022 $,KCOS,2022-10-23T07:54:00Z,38.82,-104.68,15.0,-2.2,180,21,33,10.0,29.480314,989.8,,,TRUE,TRUE,,,,,,FEW,8000,FEW,20000,,,,,VFR,,,,,,,,,,,,METAR,1886.0
KCEU 230754Z AUTO 34005KT 10SM CLR 10/07 A3020 RMK AO2 SLP221 T01000072,KCEU,2022-10-23T07:54:00Z,34.67,-82.88,10.0,7.2,340,5,,10.0,30.200787,1022.1,,TRUE,TRUE,,,,,,,CLR,,,,,,,,VFR,,,,,,,,,,,,METAR,270.0
KCAR 230754Z AUTO 00000KT 10SM CLR 06/04 A3028 RMK AO2 SLP260 T00610044,KCAR,2022-10-23T07:54:00Z,46.87,-68.02,6.1,4.4,0,0,,10.0,30.280512,1026.0,,TRUE,TRUE,,,,,,,CLR,,,,,,,,VFR,,,,,,,,,,,,METAR,189.0
KBWI 230754Z 00000KT 10SM BKN250 08/06 A3025 RMK AO2 SLP242 T00830061 $,KBWI,2022-10-23T07:54:00Z,39.17,-76.68,8.3,6.1,0,0,,10.0,30.250984,1024.2,,,TRUE,TRUE,,,,,,BKN,25000,,,,,,,VFR,,,,,,,,,,,,METAR,42.0
KBUY 230754Z AUTO 00000KT 10SM CLR 07/06 A3018 RMK AO2 SLP217 T00720061,KBUY,2022-10-23T07:54:00Z,36.05,-79.47,7.2,6.1,0,0,,10.0,30.180119,1021.7,,TRUE,TRUE,,,,,,,CLR,,,,,,,,VFR,,,,,,,,,,,,METAR,185.0
KBUF 230754Z 14006KT 10SM CLR 12/03 A3019 RMK AO2 SLP221 T01170028 $,KBUF,2022-10-23T07:54:00Z,42.93,-78.73,11.7,2.8,140,6,,10.0,30.188976,1022.1,,,TRUE,TRUE,,,,,,CLR,,,,,,,,VFR,,,,,,,,,,,,METAR,217.0
KBTV 230754Z AUTO 00000KT 10SM CLR 08/04 A3029 RMK AO2 SLP258 T00780039,KBTV,2022-10-23T07:54:00Z,44.47,-73.15,7.8,3.9,0,0,,10.0,30.28937,1025.8,,TRUE,TRUE,,,,,,,CLR,,,,,,,,VFR,,,,,,,,,,,,METAR,101.0
KBOS 230754Z 36004KT 10SM OVC220 11/09 A3032 RMK AO2 SLP266 T01060089,KBOS,2022-10-23T07:54:00Z,42.37,-71.02,10.6,8.9,360,4,,10.0,30.318897,1026.6,,,TRUE,,,,,,,OVC,22000,,,,,,,VFR,,,,,,,,,,,,METAR,4.0
KBFL 230754Z AUTO 34007KT 10SM FEW070 14/07 A2978 RMK AO2 SLP079 T01440072 402440144,KBFL,2022-10-23T07:54:00Z,35.43,-119.05,14.4,7.2,340,7,,10.0,29.778543,1007.9,,TRUE,TRUE,,,,,,,FEW,7000,,,,,,,VFR,,,,24.4,14.4,,,,,,,METAR,146.0
KAVP 230754Z A3028 RMK AO2 SLPNO $,KAVP,2022-10-23T07:54:00Z,41.33,-75.72,,,,,,,30.280512,,,,TRUE,TRUE,,,,,,,,,,,,,,,,,,,,,,,,,,METAR,290.0
KAVL 230754Z AUTO 00000KT 10SM CLR 03/02 A3024 RMK AO2 SLP231 T00330017,KAVL,2022-10-23T07:54:00Z,35.43,-82.53,3.3,1.7,0,0,,10.0,30.239174,1023.1,,TRUE,TRUE,,,,,,,CLR,,,,,,,,VFR,,,,,,,,,,,,METAR,646.0
KAUW 230754Z AUTO A2980 RMK AO2 SLPNO PWINO FZRANO $,KAUW,2022-10-23T07:54:00Z,44.93,-89.62,,,,,,,29.799213,,,TRUE,TRUE,TRUE,,,TRUE,TRUE,,,,,,,,,,,,,,,,,,,,,,METAR,367.0
KAPN 230754Z AUTO 19006KT 10SM CLR 15/09 A3000 RMK AO2 SLP157 T01500089,KAPN,2022-10-23T07:54:00Z,45.07,-83.57,15.0,8.9,190,6,,10.0,30.0,1015.7,,TRUE,TRUE,,,,,,,CLR,,,,,,,,VFR,,,,,,,,,,,,METAR,208.0
KAPC 230754Z AUTO VRB03KT 10SM CLR 10/03 A2985 RMK AO2 SLP100 T01000028 402440094,KAPC,2022-10-23T07:54:00Z,38.2,-122.28,10.0,2.8,0,3,,10.0,29.84941,1010.0,,TRUE,TRUE,,,,,,,CLR,,,,,,,,VFR,,,,24.4,9.4,,,,,,,METAR,5.0
KALO 230754Z AUTO 15013KT 10SM FEW080 18/10 A2968 RMK AO2 SLP045 T01830100,KALO,2022-10-23T07:54:00Z,42.55,-92.4,18.3,10.0,150,13,,10.0,29.681103,1004.5,,TRUE,TRUE,,,,,,,FEW,8000,,,,,,,VFR,,,,,,,,,,,,METAR,264.0
KAKR 230754Z AUTO 17004KT 10SM CLR 14/04 A3016 RMK AO2 SLP208 T01440044,KAKR,2022-10-23T07:54:00Z,41.03,-81.47,14.4,4.4,170,4,,10.0,30.159449,1020.8,,TRUE,TRUE,,,,,,,CLR,,,,,,,,VFR,,,,,,,,,,,,METAR,319.0
KAKQ 230754Z AUTO VRB03KT 10SM CLR 11/09 A3017 RMK AO2 SLP216 T01060089,KAKQ,2022-10-23T07:54:00Z,36.98,-77.0,10.6,8.9,0,3,,10.0,30.171259,1021.6,,TRUE,TRUE,,,,,,,CLR,,,,,,,,VFR,,,,,,,,,,,,METAR,34.0
KAKH 230754Z AUTO 01005KT 10SM CLR 08/04 A3018 RMK AO2 SLP218 T00830039,KAKH,2022-10-23T07:54:00Z,35.2,-81.15,8.3,3.9,10,5,,10.0,30.180119,1021.8,,TRUE,TRUE,,,,,,,CLR,,,,,,,,VFR,,,,,,,,,,,,METAR,242.0
KACY 230754Z AUTO 01006KT 9SM OVC024 14/11 A3022 RMK AO2 SLP232 T01390111,KACY,2022-10-23T07:54:00Z,39.45,-74.57,13.9,11.1,10,6,,9.0,30.221457,1023.2,,TRUE,TRUE,,,,,,,OVC,2400,,,,,,,MVFR,,,,,,,,,,,,METAR,18.0
KAAO 230754Z AUTO 18013G25KT 10SM CLR 22/12 A2953 RMK AO2 PK WND 17026/0719 SLP983 T02170117,KAAO,2022-10-23T07:54:00Z,37.75,-97.22,21.7,11.7,180,13,25,10.0,29.530512,998.3,,TRUE,TRUE,,,,,,,CLR,,,,,,,,VFR,,,,,,,,,,,,METAR,429.0
K1V4 230754Z AUTO 02/01 A3033 RMK AO1 SLP269 T00220006 PNO,K1V4,2022-10-23T07:54:00Z,44.42,-72.02,2.2,0.6,,,,,30.33071,1026.9,,TRUE,TRUE,,,,,,,,,,,,,,,,,,,,,,,,,,,METAR,213.0
K12N 230754Z AUTO 00000KT 06/03 A3028 RMK AO1 SLP254 T00560033,K12N,2022-10-23T07:54:00Z,41.02,-74.73,5.6,3.3,0,0,,,30.280512,1025.4,,TRUE,TRUE,,,,,,,,,,,,,,,,,,,,,,,,,,,METAR,178.0
TJNR 230753Z AUTO 31006KT 10SM CLR 24/22 A2990 RMK AO2 RAE16 SLP126 P0001 T02390217,TJNR,2022-10-23T07:53:00Z,18.25,-65.63,23.9,21.7,310,6,,10.0,29.899607,1012.6,,TRUE,TRUE,,,,,,,CLR,,,,,,,,VFR,,,,,,0.01,,,,,,METAR,7.0
TISX 230753Z AUTO 36005KT 10SM SCT023 26/23 A2988 RMK AO2 SLP118 T02560233 TSNO $,TISX,2022-10-23T07:53:00Z,17.7,-64.8,25.6,23.3,360,5,,10.0,29.878937,1011.8,,TRUE,TRUE,TRUE,,TRUE,,,,SCT,2300,,,,,,,VFR,,,,,,,,,,,,SPECI,16.0
TIST 230753Z AUTO 06003KT 10SM FEW022 26/23 A2988 RMK AO2 SLP120 T02560233,TIST,2022-10-23T07:53:00Z,18.33,-64.98,25.6,23.3,60,3,,10.0,29.878937,1012.0,,TRUE,TRUE,,,,,,,FEW,2200,,,,,,,VFR,,,,,,,,,,,,METAR,5.0
PTPN 230753Z 13004KT 13SM BKN017TCU OVC130 26/24 A2976 RMK TCU ALQDS,PTPN,2022-10-23T07:53:00Z,6.98,158.22,26.0,24.0,130,4,,13.0,29.760826,,,,,,,,,,,BKN,1700,OVC,13000,,,,,MVFR,,,,,,,,,,,,METAR,3.0
PHTO 230753Z 24007KT 10SM FEW030 SCT041 22/17 A3007 RMK AO2 SLP182 T02220172,PHTO,2022-10-23T07:53:00Z,19.72,-155.05,22.2,17.2,240,7,,10.0,30.070866,1018.2,,,TRUE,,,,,,,FEW,3000,SCT,4100,,,,,VFR,,,,,,,,,,,,METAR,9.0
PHNL 230753Z 06009KT 10SM FEW025 27/20 A3004 RMK AO2 SLP173 T02670200,PHNL,2022-10-23T07:53:00Z,21.33,-157.93,26.7,20.0,60,9,,10.0,30.041338,1017.3,,,TRUE,,,,,,,FEW,2500,,,,,,,VFR,,,,,,,,,,,,METAR,2.0
PHKO 230753Z 28007KT 10SM CLR 28/18 A3000 RMK AO2 SLP157 T02780183,PHKO,2022-10-23T07:53:00Z,19.73,-156.05,27.8,18.3,280,7,,10.0,30.0,1015.7,,,TRUE,,,,,,,CLR,,,,,,,,VFR,,,,,,,,,,,,METAR,11.0
PHJR 230753Z AUTO 05004KT 10SM CLR 25/19 A3006 RMK AO2 SLP184 T02500189 TSNO,PHJR,2022-10-23T07:53:00Z,21.32,-158.07,25.0,18.9,50,4,,10.0,30.059055,1018.4,,TRUE,TRUE,,,TRUE,,,,CLR,,,,,,,,VFR,,,,,,,,,,,,METAR,9.0
PAYA 230753Z AUTO 07010KT 10SM FEW035 BKN070 OVC085 04/02 A2973 RMK AO2 RAE25 SLP068 P0000 T00390017 TSNO $,PAYA,2022-10-23T07:53:00Z,59.52,-139.67,3.9,1.7,70,10,,10.0,29.731298,1006.8,,TRUE,TRUE,TRUE,,TRUE,,,,FEW,3500,BKN,7000,OVC,8500,,,VFR,,,,,,0.005,,,,,,METAR,9.0
PAWI 230753Z AUTO 10011KT 10SM CLR M11/M12 A2986 RMK AO2 SLP112 T11061122 TSNO $,PAWI,2022-10-23T07:53:00Z,70.63,-160.02,-10.6,-12.2,100,11,,10.0,29.861221,1011.2,,TRUE,TRUE,TRUE,,TRUE,,,,CLR,,,,,,,,VFR,,,,,,,,,,,,METAR,12.0
PAWD 230753Z AUTO 02011KT 10SM CLR 03/M03 A2971 RMK AO2 SLP060 T00281033 TSNO,PAWD,2022-10-23T07:53:00Z,60.12,-149.42,2.8,-3.3,20,11,,10.0,29.71063,1006.0,,TRUE,TRUE,,,TRUE,,,,CLR,,,,,,,,VFR,,,,,,,,,,,,METAR,3.0
PATO 230753Z AUTO 00000KT 10SM BKN060 M02/M02 A2977 RMK AO2 SLP080 T10221022 TSNO,PATO,2022-10-23T07:53:00Z,60.78,-148.85,-2.2,-2.2,0,0,,10.0,29.769686,1008.0,,TRUE,TRUE,,,TRUE,,,,BKN,6000,,,,,,,VFR,,,,,,,,,,,,METAR,47.0
PATK 230753Z AUTO 07003KT 10SM CLR M04/M07 A2981 RMK AO2 SLP103 T10391067 TSNO,PATK,2022-10-23T07:53:00Z,62.32,-150.1,-3.9,-6.7,70,3,,10.0,29.811024,1010.3,,TRUE,TRUE,,,TRUE,,,,CLR,,,,,,,,VFR,,,,,,,,,,,,METAR,107.0
PASO 230753Z AUTO 00000KT 10SM FEW020 02/01 A2977 RMK AO2 SLP080 T00220011 TSNO,PASO,2022-10-23T07:53:00Z,59.45,-151.7,2.2,1.1,0,0,,10.0,29.769686,1008.0,,TRUE,TRUE,,,TRUE,,,,FEW,2000,,,,,,,VFR,,,,,,,,,,,,METAR,20.0
PASN 230753Z AUTO 26015KT 10SM OVC023 05/02 A3004 RMK AO2 SLP172 T00500017 TSNO $,PASN,2022-10-23T07:53:00Z,57.15,-170.22,5.0,1.7,260,15,,10.0,30.041338,1017.2,,TRUE,TRUE,TRUE,,TRUE,,,,OVC,2300,,,,,,,MVFR,,,,,,,,,,,,METAR,8.0
PASI 230753Z 10011KT 10SM BKN045 OVC080 08/02 A2977 RMK SLP081 T00830017,PASI,2022-10-23T07:53:00Z,57.03,-135.35,8.3,1.7,100,11,,10.0,29.769686,1008.1,,,,,,,,,,BKN,4500,OVC,8000,,,,,VFR,,,,,,,,,,,,METAR,2.0
PAQT 230753Z AUTO 10011KT 10SM OVC044 M05/M07 A3001 RMK AO2 SLP164 T10501067 TSNO,PAQT,2022-10-23T07:53:00Z,70.22,-151.0,-5.0,-6.7,100,11,,10.0,30.008858,1016.4,,TRUE,TRUE,,,TRUE,,,,OVC,4400,,,,,,,VFR,,,,,,,,,,,,METAR,11.0
PAOM 230753Z AUTO 26015KT 10SM OVC018 03/M01 A2981 RMK AO2 SLP094 T00281006 TSNO,PAOM,2022-10-23T07:53:00Z,64.5,-165.43,2.8,-0.6,260,15,,10.0,29.811024,1009.4,,TRUE,TRUE,,,TRUE,,,,OVC,1800,,,,,,,MVFR,,,,,,,,,,,,METAR,6.0
PANC 230753Z 36009KT 10SM OVC180 00/M03 A2978 RMK AO2 SLP086 T00001033,PANC,2022-10-23T07:53:00Z,61.17,-150.02,0.0,-3.3,360,9,,10.0,29.778543,1008.6,,,TRUE,,,,,,,OVC,18000,,,,,,,VFR,,,,,,,,,,,,METAR,39.0
PAMR 230753Z 02003KT 10SM CLR 00/M03 A2979 RMK AO2 SLP088 T00001028,PAMR,2022-10-23T07:53:00Z,61.22,-149.85,0.0,-2.8,20,3,,10.0,29.790354,1008.8,,,TRUE,,,,,,,CLR,,,,,,,,VFR,,,,,,,,,,,,METAR,43.0
PALH 230753Z 02008KT 10SM CLR 00/M03 A2979 RMK AO2 SLP089 T00001028,PALH,2022-10-23T07:53:00Z,61.18,-149.97,0.0,-2.8,20,8,,10.0,29.790354,1008.9,,,TRUE,,,,,,,CLR,,,,,,,,VFR,,,,,,,,,,,,METAR,26.0
PAKW 230753Z AUTO VRB03KT 10SM CLR 05/03 A2986 RMK AO2 SLP112 T00500033 TSNO $,PAKW,2022-10-23T07:53:00Z,55.58,-133.07,5.0,3.3,0,3,,10.0,29.861221,1011.2,,TRUE,TRUE,TRUE,,TRUE,,,,CLR,,,,,,,,VFR,,,,,,,,,,,,METAR,7.0
PAKT 230753Z AUTO 15003KT 10SM OVC050 04/03 A2992 RMK AO2 SLP132 T00440028 TSNO,PAKT,2022-10-23T07:53:00Z,55.35,-131.72,4.4,2.8,150,3,,10.0,29.920275,1013.2,,TRUE,TRUE,,,TRUE,,,,OVC,5000,,,,,,,VFR,,,,,,,,,,,,METAR,27.0
PAJN 230753Z 10009KT 10SM FEW003 BKN041 04/03 A2985 RMK AO2 SLP106 T00390028 $,PAJN,2022-10-23T07:53:00Z,58.35,-134.55,3.9,2.8,100,9,,10.0,29.84941,1010.6,,,TRUE,TRUE,,,,,,FEW,300,BKN,4100,,,,,VFR,,,,,,,,,,,,METAR,6.0
PAIL 230753Z AUTO 00000KT 10SM CLR 01/M04 A2986 RMK AO2 SLP114 T00061039 TSNO,PAIL,2022-10-23T07:53:00Z,59.75,-154.92,0.6,-3.9,0,0,,10.0,29.861221,1011.4,,TRUE,TRUE,,,TRUE,,,,CLR,,,,,,,,VFR,,,,,,,,,,,,METAR,44.0
PAHO 230753Z AUTO 02003KT 10SM CLR 01/M02 A2977 RMK AO2 SLP084 T00111017 TSNO,PAHO,2022-10-23T07:53:00Z,59.63,-151.48,1.1,-1.7,20,3,,10.0,29.769686,1008.4,,TRUE,TRUE,,,TRUE,,,,CLR,,,,,,,,VFR,,,,,,,,,,,,METAR,6.0
PAGY 230753Z AUTO 00000KT 10SM FEW028 OVC065 04/03 A2985 RMK AO2 SLP110 T00390028 TSNO $,PAGY,2022-10-23T07:53:00Z,59.47,-135.32,3.9,2.8,0,0,,10.0,29.84941,1011.0,,TRUE,TRUE,TRUE,,TRUE,,,,FEW,2800,OVC,6500,,,,,VFR,,,,,,,,,,,,METAR,7.0
PAGK 230753Z AUTO 29003KT 10SM OVC047 M03/M04 A2981 RMK AO2 SLP126 T10281039 TSNO,PAGK,2022-10-23T07:53:00Z,62.15,-145.45,-2.8,-3.9,290,3,,10.0,29.811024,1012.6,,TRUE,TRUE,,,TRUE,,,,OVC,4700,,,,,,,VFR,,,,,,,,,,,,METAR,481.0
PAEN 230753Z AUTO 01009KT 10SM CLR 02/M02 A2979 RMK AO2 SLP091 T00171022 TSNO,PAEN,2022-10-23T07:53:00Z,60.57,-151.25,1.7,-2.2,10,9,,10.0,29.790354,1009.1,,TRUE,TRUE,,,TRUE,,,,CLR,,,,,,,,VFR,,,,,,,,,,,,METAR,30.0
PADQ 230753Z AUTO 32012KT 10SM -RA FEW026 OVC040 04/02 A2973 RMK AO2 SLP066 P0001 T00440022 TSNO,PADQ,2022-10-23T07:53:00Z,57.75,-152.5,4.4,2.2,320,12,,10.0,29.731298,1006.6,,TRUE,TRUE,,,TRUE,,,-RA,FEW,2600,OVC,4000,,,,,VFR,,,,,,0.01,,,,,,METAR,5.0
PACV 230753Z 00000KT 10SM BKN180 02/00 A2970 RMK AO2 SLP057 T00170000,PACV,2022-10-23T07:53:00Z,60.5,-145.47,1.7,0.0,0,0,,10.0,29.698818,1005.7,,,TRUE,,,,,,,BKN,18000,,,,,,,VFR,,,,,,,,,,,,METAR,15.0
PACD 230753Z AUTO 28012KT 10SM SCT023 BKN035 OVC043 05/04 A3015 RMK AO2 SLP212 T00500039 TSNO,PACD,2022-10-23T07:53:00Z,55.22,-162.72,5.0,3.9,280,12,,10.0,30.15059,1021.2,,TRUE,TRUE,,,TRUE,,,,SCT,2300,BKN,3500,OVC,4300,,,VFR,,,,,,,,,,,,METAR,23.0
PABT 230753Z 35003KT 10SM BKN022 M06/M08 A2997 RMK AO2 SLP166 T10561078,PABT,2022-10-23T07:53:00Z,66.92,-151.52,-5.6,-7.8,350,3,,10.0,29.970472,1016.6,,,TRUE,,,,,,,BKN,2200,,,,,,,MVFR,,,,,,,,,,,,METAR,195.0
PABR 230753Z AUTO 11019KT 5SM -SN BR OVC007 M04/M05 A2995 RMK AO2 PK WND 10029/0712 UPB0655E0658SNE0655B01E11B49 SLP142 P0000 T10391050 TSNO,PABR,2022-10-23T07:53:00Z,71.28,-156.78,-3.9,-5.0,110,19,,5.0,29.949802,1014.2,,TRUE,TRUE,,,TRUE,,,-SN BR,OVC,700,,,,,,,IFR,,,,,,0.005,,,,,,METAR,6.0
PAAQ 230753Z AUTO 00000KT 10SM CLR M03/M04 A2977 RMK AO2 SLP087 I1000 T10281044 TSNO,PAAQ,2022-10-23T07:53:00Z,61.6,-149.08,-2.8,-4.4,0,0,,10.0,29.769686,1008.7,,TRUE,TRUE,,,TRUE,,,,CLR,,,,,,,,VFR,,,,,,,,,,,,METAR,68.0
KZZV 230753Z AUTO 00000KT 10SM CLR 08/06 A3016 RMK AO2 SLP210 T00780061,KZZV,2022-10-23T07:53:00Z,39.95,-81.9,7.8,6.1,0,0,,10.0,30.159449,1021.0,,TRUE,TRUE,,,,,,,CLR,,,,,,,,VFR,,,,,,,,,,,,METAR,268.0
KYKM 230753Z AUTO 17004KT 10SM CLR 04/M01 A2983 RMK AO2 SLP104 T00441011 401500028,KYKM,2022-10-23T07:53:00Z,46.57,-120.53,4.4,-1.1,170,4,,10.0,29.828741,1010.4,,TRUE,TRUE,,,,,,,CLR,,,,,,,,VFR,,,,15.0,2.8,,,,,,,METAR,319.0
KYIP 230753Z AUTO 00000KT 10SM CLR 11/07 A3009 RMK AO2 SLP187 T01060067 TSNO,KYIP,2022-10-23T07:53:00Z,42.23,-83.53,10.6,6.7,0,0,,10.0,30.088583,1018.7,,TRUE,TRUE,,,TRUE,,,,CLR,,,,,,,,VFR,,,,,,,,,,,,METAR,215.0
KXNA 230753Z AUTO 18019G27KT 10SM CLR 21/13 A2977 RMK AO2 PK WND 18031/0719 RAB19E29 SLP067 P0000 T02110128,KXNA,2022-10-23T07:53:00Z,36.28,-94.3,21.1,12.8,180,19,27,10.0,29.769686,1006.7,,TRUE,TRUE,,,,,,,CLR,,,,,,,,VFR,,,,,,0.005,,,,,,METAR,390.0
KWVI 230753Z AUTO 34004KT 10SM CLR 08/06 A2986 RMK AO2 SLP112 T00830061 402220083,KWVI,2022-10-23T07:53:00Z,36.93,-121.78,8.3,6.1,340,4,,10.0,29.861221,1011.2,,TRUE,TRUE,,,,,,,CLR,,,,,,,,VFR,,,,22.2,8.3,,,,,,,METAR,47.0
KWST 230753Z AUTO 01003KT 10SM CLR 09/08 A3029 RMK AO2 SLP256 T00940083,KWST,2022-10-23T07:53:00Z,41.35,-71.8,9.4,8.3,10,3,,10.0,30.28937,1025.6,,TRUE,TRUE,,,,,,,CLR,,,,,,,,VFR,,,,,,,,,,,,METAR,20.0
KWRL 230753Z AUTO 32005KT 10SM SCT035 OVC049 07/03 A2941 RMK AO2 SLP936 T00670033,KWRL,2022-10-23T07:53:00Z,43.97,-107.95,6.7,3.3,320,5,,10.0,29.409449,993.6,,TRUE,TRUE,,,,,,,SCT,3500,OVC,4900,,,,,VFR,,,,,,,,,,,,METAR,1281.0
KVUO 230753Z AUTO 00000KT 10SM BKN055 08/05 A2996 RMK AO2 SLP144 T00780050 401560072 $,KVUO,2022-10-23T07:53:00Z,45.62,-122.65,7.8,5.0,0,0,,10.0,29.958662,1014.4,,TRUE,TRUE,TRUE,,,,,,BKN,5500,,,,,,,VFR,,,,15.6,7.2,,,,,,,METAR,7.0
KVRB 230753Z AUTO 32006KT 10SM CLR 19/19 A3003 RMK AO2 SLP166 T01940189,KVRB,2022-10-23T07:53:00Z,27.65,-80.42,19.4,18.9,320,6,,10.0,30.029528,1016.6,,TRUE,TRUE,,,,,,,CLR,,,,,,,,VFR,,,,,,,,,,,,METAR,7.0
KVLD 230753Z AUTO 00000KT 10SM CLR 06/04 A3012 RMK AO2 SLP209 T00610044 $,KVLD,2022-10-23T07:53:00Z,30.78,-83.27,6.1,4.4,0,0,,10.0,30.121063,1020.9,,TRUE,TRUE,TRUE,,,,,,CLR,,,,,,,,VFR,,,,,,,,,,,,METAR,59.0
KVIH 230753Z AUTO 17012G22KT 10SM CLR 19/12 A2980 RMK AO2 SLP082 T01890117 $,KVIH,2022-10-23T07:53:00Z,38.13,-91.77,18.9,11.7,170,12,22,10.0,29.799213,1008.2,,TRUE,TRUE,TRUE,,,,,,CLR,,,,,,,,VFR,,,,,,,,,,,,METAR,342.0
KVGT 230753Z AUTO 33012G22KT 10SM BKN060 OVC085 16/05 A2962 RMK AO2 PK WND 33037/0712 SLP026 T01560050 403000156 $,KVGT,2022-10-23T07:53:00Z,36.22,-115.2,15.6,5.0,330,12,22,10.0,29.619095,1002.6,,TRUE,TRUE,TRUE,,,,,,BKN,6000,OVC,8500,,,,,VFR,,,,30.0,15.6,,,,,,,METAR,664.0
KVCB 230753Z AUTO 33010KT 10SM CLR 16/01 A2983 RMK AO2 SLP100 T01560006 402500150,KVCB,2022-10-23T07:53:00Z,38.38,-121.95,15.6,0.6,330,10,,10.0,29.828741,1010.0,,TRUE,TRUE,,,,,,,CLR,,,,,,,,VFR,,,,25.0,15.0,,,,,,,METAR,30.0
KUUU 230753Z AUTO 35003KT 9SM 11/11 A3029 RMK AO2 SLP257 T01060106 $,KUUU,2022-10-23T07:53:00Z,41.53,-71.28,10.6,10.6,350,3,,9.0,30.28937,1025.7,,TRUE,TRUE,TRUE,,,,,,,,,,,,,,,,,,,,,,,,,,METAR,45.0
KUTS 230753Z AUTO 16004KT 10SM CLR 21/18 A2989 RMK AO2 SLP118 T02110183,KUTS,2022-10-23T07:53:00Z,30.75,-95.58,21.1,18.3,160,4,,10.0,29.890747,1011.8,,TRUE,TRUE,,,,,,,CLR,,,,,,,,VFR,,,,,,,,,,,,METAR,103.0
KUNO 230753Z AUTO 16009KT 10SM CLR 17/12 A2987 RMK AO2 SLP105 T01720122,KUNO,2022-10-23T07:53:00Z,36.88,-91.9,17.2,12.2,160,9,,10.0,29.870079,1010.5,,TRUE,TRUE,,,,,,,CLR,,,,,,,,VFR,,,,,,,,,,,,METAR,376.0
KUIL 230753Z AUTO 09004KT 10SM CLR 04/04 A2991 RMK AO2 SLP130 T00440039 401280044,KUIL,2022-10-23T07:53:00Z,47.93,-124.55,4.4,3.9,90,4,,10.0,29.911417,1013.0,,TRUE,TRUE,,,,,,,CLR,,,,,,,,VFR,,,,12.8,4.4,,,,,,,METAR,58.0
KUAO 230753Z AUTO 19004KT 10SM -RA BKN045 OVC055 08/07 A2996 RMK AO2 RAB11 SLP145 P0001 T00830072 401610078,KUAO,2022-10-23T07:53:00Z,45.25,-122.77,8.3,7.2,190,4,,10.0,29.958662,1014.5,,TRUE,TRUE,,,,,,-RA,BKN,4500,OVC,5500,,,,,VFR,,,,16.1,7.8,0.01,,,,,,METAR,60.0
KTYS 230753Z 00000KT 10SM CLR 09/07 A3016 RMK AO2 SLP210 T00890067,KTYS,2022-10-23T07:53:00Z,35.82,-83.98,8.9,6.7,0,0,,10.0,30.159449,1021.0,,,TRUE,,,,,,,CLR,,,,,,,,VFR,,,,,,,,,,,,METAR,300.0
KTYR 230753Z AUTO 17011KT 10SM SCT030 21/18 A2988 RMK AO2 SLP112 T02060178 $,KTYR,2022-10-23T07:53:00Z,32.37,-95.4,20.6,17.8,170,11,,10.0,29.878937,1011.2,,TRUE,TRUE,TRUE,,,,,,SCT,3000,,,,,,,VFR,,,,,,,,,,,,METAR,161.0
KTXK 230753Z 18012G19KT 10SM FEW036 22/16 A2992 RMK AO2 SLP126 T02170156,KTXK,2022-10-23T07:53:00Z,33.45,-93.98,21.7,15.6,180,12,19,10.0,29.920275,1012.6,,,TRUE,,,,,,,FEW,3600,,,,,,,VFR,,,,,,,,,,,,METAR,118.0
KTWF 230753Z AUTO 26016G25KT 10SM CLR 01/M01 A2965 RMK AO2 SLP029 T00111011,KTWF,2022-10-23T07:53:00Z,42.48,-114.48,1.1,-1.1,260,16,25,10.0,29.648623,1002.9,,TRUE,TRUE,,,,,,,CLR,,,,,,,,VFR,,,,,,,,,,,,METAR,1269.0
KTVR 230753Z AUTO 16010KT 10SM CLR 17/13 A3004 RMK AO2 SLP176 T01720133,KTVR,2022-10-23T07:53:00Z,32.35,-91.03,17.2,13.3,160,10,,10.0,30.041338,1017.6,,TRUE,TRUE,,,,,,,CLR,,,,,,,,VFR,,,,,,,,,,,,METAR,25.0
KTVL 230753Z AUTO 19005KT 10SM BKN044 OVC055 M01/M03 A2982 RMK AO2 SLP081 T10111033 401331017,KTVL,2022-10-23T07:53:00Z,38.9,-120.0,-1.1,-3.3,190,5,,10.0,29.819881,1008.1,,TRUE,TRUE,,,,,,,BKN,4400,OVC,5500,,,,,VFR,,,,13.3,-1.7,,,,,,,METAR,1907.0
KTVC 230753Z AUTO 20006KT 10SM CLR 19/11 A2994 RMK AO2 SLP136 T01890111,KTVC,2022-10-23T07:53:00Z,44.73,-85.58,18.9,11.1,200,6,,10.0,29.940945,1013.6,,TRUE,TRUE,,,,,,,CLR,,,,,,,,VFR,,,,,,,,,,,,METAR,188.0
KTUS 230753Z 24013G21KT 10SM CLR 22/12 A2980 RMK AO2 SLP045 T02170122,KTUS,2022-10-23T07:53:00Z,32.13,-110.95,21.7,12.2,240,13,21,10.0,29.799213,1004.5,,,TRUE,,,,,,,CLR,,,,,,,,VFR,,,,,,,,,,,,METAR,776.0
KTUP 230753Z AUTO 17004KT 10SM CLR 16/11 A3008 RMK AO2 SLP182 T01560106 $,KTUP,2022-10-23T07:53:00Z,34.27,-88.77,15.6,10.6,170,4,,10.0,30.079725,1018.2,,TRUE,TRUE,TRUE,,,,,,CLR,,,,,,,,VFR,,,,,,,,,,,,METAR,107.0
KTUL 230753Z 17020G30KT 10SM CLR 23/13 A2966 RMK AO2 PK WND 16030/0751 SLP037 T02330133,KTUL,2022-10-23T07:53:00Z,36.2,-95.88,23.3,13.3,170,20,30,10.0,29.660433,1003.7,,,TRUE,,,,,,,CLR,,,,,,,,VFR,,,,,,,,,,,,METAR,196.0
KTTN 230753Z AUTO 34005KT 10SM OVC030 11/08 A3024 RMK AO2 SLP236 T01060078,KTTN,2022-10-23T07:53:00Z,40.28,-74.82,10.6,7.8,340,5,,10.0,30.239174,1023.6,,TRUE,TRUE,,,,,,,OVC,3000,,,,,,,MVFR,,,,,,,,,,,,METAR,58.0
KTTD 230753Z AUTO 04003KT 10SM SCT043 BKN060 OVC095 08/06 A2995 RMK AO2 RAB22E34 SLP142 P0000 T00830056 401560061,KTTD,2022-10-23T07:53:00Z,45.55,-122.42,8.3,5.6,40,3,,10.0,29.949802,1014.2,,TRUE,TRUE,,,,,,,SCT,4300,BKN,6000,OVC,9500,,,VFR,,,,15.6,6.1,0.005,,,,,,METAR,8.0
KTRL 230753Z AUTO 18013G22KT 10SM CLR 22/15 A2983 RMK AO2 PK WND 17027/0720 SLP096 T02170150,KTRL,2022-10-23T07:53:00Z,32.72,-96.27,21.7,15.0,180,13,22,10.0,29.828741,1009.6,,TRUE,TRUE,,,,,,,CLR,,,,,,,,VFR,,,,,,,,,,,,METAR,144.0
KTRI 230753Z 00000KT 10SM SCT250 04/03 A3022 RMK AO2 SLP218 T00440028 $,KTRI,2022-10-23T07:53:00Z,36.48,-82.4,4.4,2.8,0,0,,10.0,30.221457,1021.8,,,TRUE,TRUE,,,,,,SCT,25000,,,,,,,VFR,,,,,,,,,,,,METAR,456.0
KTPA 230753Z 02005KT 10SM CLR 18/14 A3007 RMK AO2 SLP183 T01780139,KTPA,2022-10-23T07:53:00Z,27.97,-82.53,17.8,13.9,20,5,,10.0,30.070866,1018.3,,,TRUE,,,,,,,CLR,,,,,,,,VFR,,,,,,,,,,,,METAR,2.0
KTOP 230753Z AUTO 17013G21KT 10SM CLR 23/14 A2953 RMK AO2 SLP989 T02280139,KTOP,2022-10-23T07:53:00Z,39.07,-95.63,22.8,13.9,170,13,21,10.0,29.530512,998.9,,TRUE,TRUE,,,,,,,CLR,,,,,,,,VFR,,,,,,,,,,,,METAR,268.0
KTOI 230753Z AUTO 00000KT 10SM CLR 06/04 A3015 RMK AO2 SLP206 T00610039,KTOI,2022-10-23T07:53:00Z,31.85,-86.02,6.1,3.9,0,0,,10.0,30.15059,1020.6,,TRUE,TRUE,,,,,,,CLR,,,,,,,,VFR,,,,,,,,,,,,METAR,120.0
KTMB 230753Z 00000KT 10SM FEW041 21/19 A2999 RMK AO2 RAE0658 SLP154 P0000 T02060194,KTMB,2022-10-23T07:53:00Z,25.65,-80.43,20.6,19.4,0,0,,10.0,29.991142,1015.4,,,TRUE,,,,,,,FEW,4100,,,,,,,VFR,,,,,,0.005,,,,,,METAR,2.0
KTLH 230753Z AUTO 00000KT 10SM CLR 06/03 A3012 RMK AO2 SLP198 T00560033,KTLH,2022-10-23T07:53:00Z,30.4,-84.35,5.6,3.3,0,0,,10.0,30.121063,1019.8,,TRUE,TRUE,,,,,,,CLR,,,,,,,,VFR,,,,,,,,,,,,METAR,17.0
KTKI 230753Z AUTO 17013G24KT 10SM CLR 22/16 A2981 RMK AO2 PK WND 18027/0717 SLP088 T02170161,KTKI,2022-10-23T07:53:00Z,33.18,-96.58,21.7,16.1,170,13,24,10.0,29.811024,1008.8,,TRUE,TRUE,,,,,,,CLR,,,,,,,,VFR,,,,,,,,,,,,METAR,173.0
KTHV 230753Z AUTO 00000KT 10SM CLR 02/01 A3026 RMK AO2 SLP251 T00170011,KTHV,2022-10-23T07:53:00Z,39.92,-76.88,1.7,1.1,0,0,,10.0,30.259842,1025.1,,TRUE,TRUE,,,,,,,CLR,,,,,,,,VFR,,,,,,,,,,,,METAR,141.0
KTDZ 230753Z AUTO 18006KT 10SM CLR 13/09 A3011 RMK AO2 SLP192 T01280089,KTDZ,2022-10-23T07:53:00Z,41.57,-83.48,12.8,8.9,180,6,,10.0,30.109253,1019.2,,TRUE,TRUE,,,,,,,CLR,,,,,,,,VFR,,,,,,,,,,,,METAR,189.0
KTCL 230753Z 00000KT 8SM CLR 11/10 A3013 RMK AO2 SLP199 T01110100,KTCL,2022-10-23T07:53:00Z,33.22,-87.62,11.1,10.0,0,0,,8.0,30.129921,1019.9,,,TRUE,,,,,,,CLR,,,,,,,,VFR,,,,,,,,,,,,METAR,48.0
KTCC 230753Z AUTO 22019G26KT 10SM CLR 17/12 A2965 RMK AO2 PK WND 22032/0712 SLP985 T01720117,KTCC,2022-10-23T07:53:00Z,35.18,-103.6,17.2,11.7,220,19,26,10.0,29.648623,998.5,,TRUE,TRUE,,,,,,,CLR,,,,,,,,VFR,,,,,,,,,,,,METAR,1233.0
KSWO 230753Z AUTO 18018G24KT 10SM CLR 24/13 A2961 RMK AO2 PK WND 19028/0712 SLP010 T02440128,KSWO,2022-10-23T07:53:00Z,36.17,-97.08,24.4,12.8,180,18,24,10.0,29.610237,1001.0,,TRUE,TRUE,,,,,,,CLR,,,,,,,,VFR,,,,,,,,,,,,METAR,293.0
KSTS 230753Z AUTO 36014G23KT 10SM CLR 12/03 A2988 RMK AO2 SLP111 T01220028 402220094,KSTS,2022-10-23T07:53:00Z,38.5,-122.82,12.2,2.8,360,14,23,10.0,29.878937,1011.1,,TRUE,TRUE,,,,,,,CLR,,,,,,,,VFR,,,,22.2,9.4,,,,,,,METAR,35.0
KSTP 230753Z AUTO 16007KT 10SM CLR 13/08 A2964 RMK AO2 SLP033 T01330078,KSTP,2022-10-23T07:53:00Z,44.93,-93.05,13.3,7.8,160,7,,10.0,29.639763,1003.3,,TRUE,TRUE,,,,,,,CLR,,,,,,,,VFR,,,,,,,,,,,,METAR,213.0
KSTJ 230753Z AUTO 16014G21KT 10SM CLR 19/13 A2957 RMK AO2 SLP005 T01940128,KSTJ,2022-10-23T07:53:00Z,39.77,-94.92,19.4,12.8,160,14,21,10.0,29.568897,1000.5,,TRUE,TRUE,,,,,,,CLR,,,,,,,,VFR,,,,,,,,,,,,METAR,247.0
KSTC 230753Z AUTO 10003KT 10SM CLR 13/07 A2959 RMK AO2 SLP025 T01330067,KSTC,2022-10-23T07:53:00Z,45.55,-94.05,13.3,6.7,100,3,,10.0,29.589567,1002.5,,TRUE,TRUE,,,,,,,CLR,,,,,,,,VFR,,,,,,,,,,,,METAR,302.0
KSSI 230753Z AUTO 34005KT 10SM CLR 15/10 A3010 RMK AO2 SLP194 T01500100,KSSI,2022-10-23T07:53:00Z,31.15,-81.38,15.0,10.0,340,5,,10.0,30.100393,1019.4,,TRUE,TRUE,,,,,,,CLR,,,,,,,,VFR,,,,,,,,,,,,METAR,6.0
KSSF 230753Z AUTO 18007KT 10SM CLR 21/18 A2985 RMK AO2 SLP096 T02110183,KSSF,2022-10-23T07:53:00Z,29.33,-98.47,21.1,18.3,180,7,,10.0,29.84941,1009.6,,TRUE,TRUE,,,,,,,CLR,,,,,,,,VFR,,,,,,,,,,,,METAR,175.0
KSRQ 230753Z AUTO 05005KT 10SM CLR 18/16 A3004 RMK AO2 SLP170 T01830161,KSRQ,2022-10-23T07:53:00Z,27.4,-82.57,18.3,16.1,50,5,,10.0,30.041338,1017.0,,TRUE,TRUE,,,,,,,CLR,,,,,,,,VFR,,,,,,,,,,,,METAR,5.0
KSPW 230753Z AUTO 14009KT 10SM CLR 15/08 A2955 RMK AO2 SLP000 T01500078,KSPW,2022-10-23T07:53:00Z,43.17,-95.22,15.0,7.8,140,9,,10.0,29.551182,1000.0,,TRUE,TRUE,,,,,,,CLR,,,,,,,,VFR,,,,,,,,,,,,METAR,407.0
KSPG 230753Z AUTO 04009KT 10SM CLR 20/18 A3005 RMK AO2 SLP175 T02000178,KSPG,2022-10-23T07:53:00Z,27.77,-82.63,20.0,17.8,40,9,,10.0,30.050198,1017.5,,TRUE,TRUE,,,,,,,CLR,,,,,,,,VFR,,,,,,,,,,,,METAR,1.0
KSPB 230753Z AUTO 00000KT 10SM BKN040 OVC048 07/06 A2994 RMK AO2 SLP139 T00670056 401560050,KSPB,2022-10-23T07:53:00Z,45.77,-122.87,6.7,5.6,0,0,,10.0,29.940945,1013.9,,TRUE,TRUE,,,,,,,BKN,4000,OVC,4800,,,,,VFR,,,,15.6,5.0,,,,,,,METAR,15.0
KSNY 230753Z AUTO 28010KT 10SM CLR 05/M07 A2930 RMK AO2 SLP884 T00501072,KSNY,2022-10-23T07:53:00Z,41.1,-102.98,5.0,-7.2,280,10,,10.0,29.300198,988.4,,TRUE,TRUE,,,,,,,CLR,,,,,,,,VFR,,,,,,,,,,,,METAR,1307.0
KSNS 230753Z AUTO 23007KT 10SM CLR 12/08 A2986 RMK AO2 SLP120 T01220078 401890122,KSNS,2022-10-23T07:53:00Z,36.67,-121.6,12.2,7.8,230,7,,10.0,29.861221,1012.0,,TRUE,TRUE,,,,,,,CLR,,,,,,,,VFR,,,,18.9,12.2,,,,,,,METAR,20.0
KSNA 230753Z AUTO 25008KT 10SM BKN021 OVC027 19/12 A2979 RMK AO2 SLP085 T01890122 402280189,KSNA,2022-10-23T07:53:00Z,33.67,-117.87,18.9,12.2,250,8,,10.0,29.790354,1008.5,,TRUE,TRUE,,,,,,,BKN,2100,OVC,2700,,,,,MVFR,,,,22.8,18.9,,,,,,,METAR,14.0
KSMQ 230753Z AUTO 00000KT 8SM SCT035 BKN043 07/06 A3026 RMK AO2 SLP246 T00720061,KSMQ,2022-10-23T07:53:00Z,40.62,-74.67,7.2,6.1,0,0,,8.0,30.259842,1024.6,,TRUE,TRUE,,,,,,,SCT,3500,BKN,4300,,,,,VFR,,,,,,,,,,,,METAR,30.0
KSMF 230753Z 33014KT 10SM CLR 14/00 A2981 RMK AO2 SLP093 T01440000 402500139,KSMF,2022-10-23T07:53:00Z,38.7,-121.6,14.4,0.0,330,14,,10.0,29.811024,1009.3,,,TRUE,,,,,,,CLR,,,,,,,,VFR,,,,25.0,13.9,,,,,,,METAR,7.0
KSLN 230753Z AUTO 17016G24KT 10SM CLR 21/10 A2944 RMK AO2 PK WND 16029/0717 SLP954 T02110100,KSLN,2022-10-23T07:53:00Z,38.8,-97.65,21.1,10.0,170,16,24,10.0,29.438976,995.4,,TRUE,TRUE,,,,,,,CLR,,,,,,,,VFR,,,,,,,,,,,,METAR,377.0
KSJC 230753Z AUTO 31005KT 10SM CLR 13/06 A2987 RMK AO2 SLP115 T01280056 402170122,KSJC,2022-10-23T07:53:00Z,37.37,-121.92,12.8,5.6,310,5,,10.0,29.870079,1011.5,,TRUE,TRUE,,,,,,,CLR,,,,,,,,VFR,,,,21.7,12.2,,,,,,,METAR,13.0
KSIY 230753Z AUTO 04003KT 10SM BKN037 03/02 A2997 RMK AO2 SLP161 T00280017 401560028,KSIY,2022-10-23T07:53:00Z,41.77,-122.47,2.8,1.7,40,3,,10.0,29.970472,1016.1,,TRUE,TRUE,,,,,,,BKN,3700,,,,,,,VFR,,,,15.6,2.8,,,,,,,METAR,807.0
KSGR 230753Z AUTO 16005KT 10SM CLR 19/17 A2990 RMK AO2 SLP126 T01940167,KSGR,2022-10-23T07:53:00Z,29.62,-95.65,19.4,16.7,160,5,,10.0,29.899607,1012.6,,TRUE,TRUE,,,,,,,CLR,,,,,,,,VFR,,,,,,,,,,,,METAR,22.0
KSFF 230753Z AUTO 00000KT 10SM FEW070 03/01 A2975 RMK AO2 SLP080 T00280006 401000028,KSFF,2022-10-23T07:53:00Z,47.68,-117.32,2.8,0.6,0,0,,10.0,29.749016,1008.0,,TRUE,TRUE,,,,,,,FEW,7000,,,,,,,VFR,,,,10.0,2.8,,,,,,,METAR,593.0
KSFB 230753Z AUTO 32005KT 10SM CLR 16/14 A3006 RMK AO2 SLP178 T01610144,KSFB,2022-10-23T07:53:00Z,28.77,-81.23,16.1,14.4,320,5,,10.0,30.059055,1017.8,,TRUE,TRUE,,,,,,,CLR,,,,,,,,VFR,,,,,,,,,,,,METAR,16.0
KSEG 230753Z AUTO 00000KT 6SM HZ CLR 00/ A3028 RMK AO2 SLP255 T0000,KSEG,2022-10-23T07:53:00Z,40.82,-76.87,0.0,,0,0,,6.0,30.280512,1025.5,,TRUE,TRUE,,,,,,HZ,CLR,,,,,,,,VFR,,,,,,,,,,,,METAR,136.0
KSEA 230753Z 12005KT 10SM FEW042 OVC060 07/05 A2992 RMK AO2 SLP138 T00670050 401000061 $,KSEA,2022-10-23T07:53:00Z,47.45,-122.32,6.7,5.0,120,5,,10.0,29.920275,1013.8,,,TRUE,TRUE,,,,,,FEW,4200,OVC,6000,,,,,VFR,,,,10.0,6.1,,,,,,,METAR,115.0
KSDM 230753Z AUTO 20008KT 10SM FEW040 BKN055 OVC070 16/15 A2982 RMK AO2 RAE34 SLP092 P0003 T01610150 402220161,KSDM,2022-10-23T07:53:00Z,32.58,-117.0,16.1,15.0,200,8,,10.0,29.819881,1009.2,,TRUE,TRUE,,,,,,,FEW,4000,BKN,5500,OVC,7000,,,VFR,,,,22.2,16.1,0.03,,,,,,METAR,161.0
KSDL 230753Z AUTO 00000KT 10SM OVC050 22/11 A2970 RMK AO2 SLP034 T02220111,KSDL,2022-10-23T07:53:00Z,33.62,-111.92,22.2,11.1,0,0,,10.0,29.698818,1003.4,,TRUE,TRUE,,,,,,,OVC,5000,,,,,,,VFR,,,,,,,,,,,,METAR,438.0
KSBM 230753Z AUTO 17006KT 10SM CLR 13/11 A2989 RMK AO2 SLP120 T01280106,KSBM,2022-10-23T07:53:00Z,43.78,-87.85,12.8,10.6,170,6,,10.0,29.890747,1012.0,,TRUE,TRUE,,,,,,,CLR,,,,,,,,VFR,,,,,,,,,,,,METAR,225.0
KSAV 230753Z AUTO 35003KT 10SM CLR 11/08 A3013 RMK AO2 SLP202 T01060083,KSAV,2022-10-23T07:53:00Z,32.12,-81.2,10.6,8.3,350,3,,10.0,30.129921,1020.2,,TRUE,TRUE,,,,,,,CLR,,,,,,,,VFR,,,,,,,,,,,,METAR,10.0
KSAF 230753Z AUTO 23007KT 10SM SCT048 SCT055 BKN070 14/07 A2976 RMK AO2 SLP990 T01390067,KSAF,2022-10-23T07:53:00Z,35.62,-106.1,13.9,6.7,230,7,,10.0,29.760826,999.0,,TRUE,TRUE,,,,,,,SCT,4800,SCT,5500,BKN,7000,,,VFR,,,,,,,,,,,,METAR,1918.0
KSAC 230753Z AUTO 32012G21KT 10SM CLR 14/00 A2981 RMK AO2 SLP095 T01390000 402440139,KSAC,2022-10-23T07:53:00Z,38.5,-121.5,13.9,0.0,320,12,21,10.0,29.811024,1009.5,,TRUE,TRUE,,,,,,,CLR,,,,,,,,VFR,,,,24.4,13.9,,,,,,,METAR,5.0
KRXE 230753Z AUTO 21004KT 10SM OVC044 02/M01 A2958 RMK AO2 SLP015 T00221006,KRXE,2022-10-23T07:53:00Z,43.83,-111.8,2.2,-0.6,210,4,,10.0,29.58071,1001.5,,TRUE,TRUE,,,,,,,OVC,4400,,,,,,,VFR,,,,,,,,,,,,METAR,1483.0
KRWI 230753Z AUTO 01006KT 10SM CLR 11/09 A3016 RMK AO2 SLP212 T01110089,KRWI,2022-10-23T07:53:00Z,35.85,-77.9,11.1,8.9,10,6,,10.0,30.159449,1021.2,,TRUE,TRUE,,,,,,,CLR,,,,,,,,VFR,,,,,,,,,,,,METAR,46.0
KRWF 230753Z AUTO 12008KT 10SM CLR 12/06 A2955 RMK AO2 SLP003 T01170061,KRWF,2022-10-23T07:53:00Z,44.55,-95.08,11.7,6.1,120,8,,10.0,29.551182,1000.3,,TRUE,TRUE,,,,,,,CLR,,,,,,,,VFR,,,,,,,,,,,,METAR,312.0
KRVS 230753Z AUTO 19015G23KT 10SM CLR 24/13 A2966 RMK AO2 PK WND 17027/0712 SLP047 T02390133,KRVS,2022-10-23T07:53:00Z,36.05,-95.98,23.9,13.3,190,15,23,10.0,29.660433,1004.7,,TRUE,TRUE,,,,,,,CLR,,,,,,,,VFR,,,,,,,,,,,,METAR,191.0
KRUE 230753Z AUTO 00000KT 10SM CLR 18/14 A2987 RMK AO2 SLP107 T01830139,KRUE,2022-10-23T07:53:00Z,35.25,-93.1,18.3,13.9,0,0,,10.0,29.870079,1010.7,,TRUE,TRUE,,,,,,,CLR,,,,,,,,VFR,,,,,,,,,,,,METAR,119.0
KRTN 230753Z AUTO 21004KT 10SM CLR 08/04 A2968 RMK AO2 SLP973 T00830044,KRTN,2022-10-23T07:53:00Z,36.73,-104.5,8.3,4.4,210,4,,10.0,29.681103,997.3,,TRUE,TRUE,,,,,,,CLR,,,,,,,,VFR,,,,,,,,,,,,METAR,1939.0
KRSW 230753Z 04004KT 10SM CLR 19/17 A3003 RMK AO2 SLP165 T01890172,KRSW,2022-10-23T07:53:00Z,26.53,-81.75,18.9,17.2,40,4,,10.0,30.029528,1016.5,,,TRUE,,,,,,,CLR,,,,,,,,VFR,,,,,,,,,,,,METAR,8.0
KRSL 230753Z AUTO 21011KT 10SM CLR 17/04 A2941 RMK AO2 SLP940 T01670039,KRSL,2022-10-23T07:53:00Z,38.87,-98.82,16.7,3.9,210,11,,10.0,29.409449,994.0,,TRUE,TRUE,,,,,,,CLR,,,,,,,,VFR,,,,,,,,,,,,METAR,569.0
KRQE 230753Z AUTO 21020G35KT 10SM FEW038 12/04 A2972 RMK AO2 PK WND 21035/0747 SLP963 T01170039,KRQE,2022-10-23T07:53:00Z,35.65,-109.07,11.7,3.9,210,20,35,10.0,29.719488,996.3,,TRUE,TRUE,,,,,,,FEW,3800,,,,,,,VFR,,,,,,,,,,,,METAR,2056.0
KRNT 230753Z AUTO 18003KT 10SM BKN035 OVC046 07/05 A2993 RMK AO2 SLP139 T00670050 401000056,KRNT,2022-10-23T07:53:00Z,47.5,-122.22,6.7,5.0,180,3,,10.0,29.929134,1013.9,,TRUE,TRUE,,,,,,,BKN,3500,OVC,4600,,,,,VFR,,,,10.0,5.6,,,,,,,METAR,7.0
KRMG 230753Z AUTO 00000KT 8SM CLR 07/05 A3017 RMK AO2 SLP212 T00670050,KRMG,2022-10-23T07:53:00Z,34.35,-85.17,6.7,5.0,0,0,,8.0,30.171259,1021.2,,TRUE,TRUE,,,,,,,CLR,,,,,,,,VFR,,,,,,,,,,,,METAR,196.0
KRME 230753Z AUTO 13006KT 10SM CLR 04/02 A3029 RMK AO2 SLP256 T00390022,KRME,2022-10-23T07:53:00Z,43.22,-75.4,3.9,2.2,130,6,,10.0,30.28937,1025.6,,TRUE,TRUE,,,,,,,CLR,,,,,,,,VFR,,,,,,,,,,,,METAR,146.0
KRKP 230753Z AUTO 18006KT 10SM CLR 24/20 A2987 RMK AO2 SLP115 T02440200,KRKP,2022-10-23T07:53:00Z,28.08,-97.05,24.4,20.0,180,6,,10.0,29.870079,1011.5,,TRUE,TRUE,,,,,,,CLR,,,,,,,,VFR,,,,,,,,,,,,METAR,8.0
KRIW 230753Z AUTO 29007KT 9SM -SN CLR 03/M01 A2942 RMK AO2 SNB46 SLP924 P0000 T00281006 $,KRIW,2022-10-23T07:53:00Z,43.07,-108.43,2.8,-0.6,290,7,,9.0,29.421259,992.4,,TRUE,TRUE,TRUE,,,,,-SN,CLR,,,,,,,,VFR,,,,,,0.005,,,,,,METAR,1662.0
KRIL 230753Z AUTO 25011KT 10SM -RA OVC060 09/07 A2944 RMK AO2 RAB51 SLP915 P0000 T00940067,KRIL,2022-10-23T07:53:00Z,39.53,-107.73,9.4,6.7,250,11,,10.0,29.438976,991.5,,TRUE,TRUE,,,,,,-RA,OVC,6000,,,,,,,VFR,,,,,,0.005,,,,,,METAR,1683.0
KRHI 230753Z AUTO 18006KT 10SM CLR 15/08 A2981 RMK AO2 SLP092 T01500083,KRHI,2022-10-23T07:53:00Z,45.63,-89.48,15.0,8.3,180,6,,10.0,29.811024,1009.2,,TRUE,TRUE,,,,,,,CLR,,,,,,,,VFR,,,,,,,,,,,,METAR,493.0
KRBG 230753Z AUTO 00000KT 10SM SCT065 SCT095 06/05 A3000 RMK AO2 SLP161 T00560050 401330056,KRBG,2022-10-23T07:53:00Z,43.23,-123.35,5.6,5.0,0,0,,10.0,30.0,1016.1,,TRUE,TRUE,,,,,,,SCT,6500,SCT,9500,,,,,VFR,,,,13.3,5.6,,,,,,,METAR,152.0
KRBD 230753Z AUTO 19016G24KT 10SM CLR 21/17 A2981 RMK AO2 SLP085 T02110167,KRBD,2022-10-23T07:53:00Z,32.68,-96.87,21.1,16.7,190,16,24,10.0,29.811024,1008.5,,TRUE,TRUE,,,,,,,CLR,,,,,,,,VFR,,,,,,,,,,,,METAR,200.0
KRAL 230753Z AUTO 00000KT 10SM SCT041 BKN049 OVC060 16/12 A2979 RMK AO2 SLP075 T01610122 402280156 $,KRAL,2022-10-23T07:53:00Z,33.95,-117.45,16.1,12.2,0,0,,10.0,29.790354,1007.5,,TRUE,TRUE,TRUE,,,,,,SCT,4100,BKN,4900,OVC,6000,,,VFR,,,,22.8,15.6,,,,,,,METAR,254.0
KRAC 230753Z AUTO 16006KT 10SM CLR 16/11 A2992 RMK AO2 SLP130 T01560111,KRAC,2022-10-23T07:53:00Z,42.77,-87.82,15.6,11.1,160,6,,10.0,29.920275,1013.0,,TRUE,TRUE,,,,,,,CLR,,,,,,,,VFR,,,,,,,,,,,,METAR,203.0
KPWA 230753Z AUTO 18020G26KT 10SM CLR 24/12 A2964 RMK AO2 PK WND 17027/0705 SLP018 T02390122,KPWA,2022-10-23T07:53:00Z,35.53,-97.65,23.9,12.2,180,20,26,10.0,29.639763,1001.8,,TRUE,TRUE,,,,,,,CLR,,,,,,,,VFR,,,,,,,,,,,,METAR,390.0
KPUW 230753Z AUTO 00000KT 10SM BKN018 02/01 A2977 RMK AO2 SLP094 T00170006 400780017 $,KPUW,2022-10-23T07:53:00Z,46.75,-117.12,1.7,0.6,0,0,,10.0,29.769686,1009.4,,TRUE,TRUE,TRUE,,,,,,BKN,1800,,,,,,,MVFR,,,,7.8,1.7,,,,,,,METAR,774.0
KPUC 230753Z AUTO 33005KT 10SM FEW038 OVC044 05/M03 A2951 RMK AO2 SLP970 T00501033,KPUC,2022-10-23T07:53:00Z,39.62,-110.75,5.0,-3.3,330,5,,10.0,29.509842,997.0,,TRUE,TRUE,,,,,,,FEW,3800,OVC,4400,,,,,VFR,,,,,,,,,,,,METAR,1777.0
KPUB 230753Z AUTO 24013KT 10SM CLR 20/M03 A2945 RMK AO2 PK WND 23027/0706 SLP903 T02001028,KPUB,2022-10-23T07:53:00Z,38.28,-104.5,20.0,-2.8,240,13,,10.0,29.450787,990.3,,TRUE,TRUE,,,,,,,CLR,,,,,,,,VFR,,,,,,,,,,,,METAR,1441.0
KPTK 230753Z 00000KT 10SM CLR 09/07 A3009 RMK AO2 SLP188 T00940072 $,KPTK,2022-10-23T07:53:00Z,42.67,-83.42,9.4,7.2,0,0,,10.0,30.088583,1018.8,,,TRUE,TRUE,,,,,,CLR,,,,,,,,VFR,,,,,,,,,,,,METAR,295.0
KPSX 230753Z AUTO 17010KT 10SM CLR 24/19 A2989 RMK AO2 SLP120 T02390194,KPSX,2022-10-23T07:53:00Z,28.72,-96.25,23.9,19.4,170,10,,10.0,29.890747,1012.0,,TRUE,TRUE,,,,,,,CLR,,,,,,,,VFR,,,,,,,,,,,,METAR,4.0
KPSP 230753Z AUTO 18003KT 10SM CLR 19/11 A2970 RMK AO2 SLP056 T01940106 402940183 $,KPSP,2022-10-23T07:53:00Z,33.82,-116.5,19.4,10.6,180,3,,10.0,29.698818,1005.6,,TRUE,TRUE,TRUE,,,,,,CLR,,,,,,,,VFR,,,,29.4,18.3,,,,,,,METAR,123.0
KPSC 230753Z AUTO 00000KT 10SM OVC120 08/02 A2981 RMK AO2 SLP096 T00780022 401500067 $,KPSC,2022-10-23T07:53:00Z,46.27,-119.12,7.8,2.2,0,0,,10.0,29.811024,1009.6,,TRUE,TRUE,TRUE,,,,,,OVC,12000,,,,,,,VFR,,,,15.0,6.7,,,,,,,METAR,121.0
KPRC 230753Z AUTO 20014G26KT 10SM FEW032 SCT041 12/07 A2974 RMK AO2 PK WND 18027/0726 SLP005 T01220072,KPRC,2022-10-23T07:53:00Z,34.65,-112.42,12.2,7.2,200,14,26,10.0,29.740158,1000.5,,TRUE,TRUE,,,,,,,FEW,3200,SCT,4100,,,,,VFR,,,,,,,,,,,,METAR,1528.0
KPRB 230753Z AUTO 30006KT 10SM CLR 10/06 A2988 RMK AO2 SLP115 T01000056 402060100,KPRB,2022-10-23T07:53:00Z,35.67,-120.63,10.0,5.6,300,6,,10.0,29.878937,1011.5,,TRUE,TRUE,,,,,,,CLR,,,,,,,,VFR,,,,20.6,10.0,,,,,,,METAR,249.0
KPQL 230753Z AUTO 00000KT 4SM BR CLR 10/09 A3010 RMK AO2 SLP193 T01000094,KPQL,2022-10-23T07:53:00Z,30.47,-88.53,10.0,9.4,0,0,,4.0,30.100393,1019.3,,TRUE,TRUE,,,,,,BR,CLR,,,,,,,,MVFR,,,,,,,,,,,,METAR,4.0
KPOU 230753Z AUTO 00000KT 10SM CLR 04/03 A3029 RMK AO2 SLP254 T00440033,KPOU,2022-10-23T07:53:00Z,41.63,-73.88,4.4,3.3,0,0,,10.0,30.28937,1025.4,,TRUE,TRUE,,,,,,,CLR,,,,,,,,VFR,,,,,,,,,,,,METAR,45.0
KPOF 230753Z AUTO 18007KT 10SM CLR 18/11 A2992 RMK AO2 SLP130 T01780106 $,KPOF,2022-10-23T07:53:00Z,36.77,-90.32,17.8,10.6,180,7,,10.0,29.920275,1013.0,,TRUE,TRUE,TRUE,,,,,,CLR,,,,,,,,VFR,,,,,,,,,,,,METAR,99.0
KPNS 230753Z AUTO 00000KT 10SM CLR 13/10 A3010 RMK AO2 SLP196 T01280100,KPNS,2022-10-23T07:53:00Z,30.48,-87.18,12.8,10.0,0,0,,10.0,30.100393,1019.6,,TRUE,TRUE,,,,,,,CLR,,,,,,,,VFR,,,,,,,,,,,,METAR,34.0
KPNC 230753Z AUTO 18011G19KT 10SM CLR 24/13 A2957 RMK AO2 SLP000 T02390128,KPNC,2022-10-23T07:53:00Z,36.73,-97.1,23.9,12.8,180,11,19,10.0,29.568897,1000.0,,TRUE,TRUE,,,,,,,CLR,,,,,,,,VFR,,,,,,,,,,,,METAR,304.0
KPMP 230753Z AUTO 00000KT 10SM CLR 21/18 A2999 RMK AO2 SLP156 T02060178,KPMP,2022-10-23T07:53:00Z,26.25,-80.12,20.6,17.8,0,0,,10.0,29.991142,1015.6,,TRUE,TRUE,,,,,,,CLR,,,,,,,,VFR,,,,,,,,,,,,METAR,4.0
KPMD 230753Z AUTO 23012KT 10SM SCT040 BKN047 OVC055 14/09 A2977 RMK AO2 SLP062 T01390089 402060133,KPMD,2022-10-23T07:53:00Z,34.63,-118.08,13.9,8.9,230,12,,10.0,29.769686,1006.2,,TRUE,TRUE,,,,,,,SCT,4000,BKN,4700,OVC,5500,,,VFR,,,,20.6,13.3,,,,,,,METAR,764.0
KPKD 230753Z AUTO 00000KT 10SM CLR 07/04 A2956 RMK AO2 SLP015 T00670039,KPKD,2022-10-23T07:53:00Z,46.9,-95.07,6.7,3.9,0,0,,10.0,29.56004,1001.5,,TRUE,TRUE,,,,,,,CLR,,,,,,,,VFR,,,,,,,,,,,,METAR,439.0
KPKB 230753Z AUTO 11004KT 9SM CLR 06/05 A3018 RMK AO2 SLP217 T00610050,KPKB,2022-10-23T07:53:00Z,39.35,-81.43,6.1,5.0,110,4,,9.0,30.180119,1021.7,,TRUE,TRUE,,,,,,,CLR,,,,,,,,VFR,,,,,,,,,,,,METAR,245.0
KPIR 230753Z AUTO 06010KT 10SM CLR 06/02 A2935 RMK AO2 SLP937 T00610017,KPIR,2022-10-23T07:53:00Z,44.38,-100.28,6.1,1.7,60,10,,10.0,29.350393,993.7,,TRUE,TRUE,,,,,,,CLR,,,,,,,,VFR,,,,,,,,,,,,METAR,524.0
KPIL 230753Z AUTO 17006KT 10SM SCT029 23/21 A2987 RMK AO2 SLP115 T02330211,KPIL,2022-10-23T07:53:00Z,26.17,-97.33,23.3,21.1,170,6,,10.0,29.870079,1011.5,,TRUE,TRUE,,,,,,,SCT,2900,,,,,,,VFR,,,,,,,,,,,,METAR,5.0
KPIE 230753Z AUTO 06006KT 10SM CLR 19/16 A3007 RMK AO2 SLP181 T01890161,KPIE,2022-10-23T07:53:00Z,27.92,-82.68,18.9,16.1,60,6,,10.0,30.070866,1018.1,,TRUE,TRUE,,,,,,,CLR,,,,,,,,VFR,,,,,,,,,,,,METAR,1.0
KPHD 230753Z AUTO 00000KT 10SM CLR 07/05 A3018 RMK AO2 SLP220 T00670050,KPHD,2022-10-23T07:53:00Z,40.47,-81.42,6.7,5.0,0,0,,10.0,30.180119,1022.0,,TRUE,TRUE,,,,,,,CLR,,,,,,,,VFR,,,,,,,,,,,,METAR,272.0
KPGD 230753Z AUTO 03003KT 9SM CLR 18/17 A3005 RMK AO2 SLP175 T01780172,KPGD,2022-10-23T07:53:00Z,26.92,-82.0,17.8,17.2,30,3,,9.0,30.050198,1017.5,,TRUE,TRUE,,,,,,,CLR,,,,,,,,VFR,,,,,,,,,,,,METAR,7.0
KPGA 230753Z AUTO 25012G24KT 10SM CLR 16/03 A2947 RMK AO2 PK WND 22028/0709 SLP923 T01610028,KPGA,2022-10-23T07:53:00Z,36.92,-111.45,16.1,2.8,250,12,24,10.0,29.471457,992.3,,TRUE,TRUE,,,,,,,CLR,,,,,,,,VFR,,,,,,,,,,,,METAR,1310.0
KPEO 230753Z AUTO 18003KT 10SM CLR 08/03 A3024 RMK AO2 SLP239 T00780033,KPEO,2022-10-23T07:53:00Z,42.65,-77.05,7.8,3.3,180,3,,10.0,30.239174,1023.9,,TRUE,TRUE,,,,,,,CLR,,,,,,,,VFR,,,,,,,,,,,,METAR,268.0
KPDX 230753Z 00000KT 10SM SCT032 SCT043 BKN060 09/06 A2995 RMK AO2 SLP142 T00940061 401610089,KPDX,2022-10-23T07:53:00Z,45.6,-122.62,9.4,6.1,0,0,,10.0,29.949802,1014.2,,,TRUE,,,,,,,SCT,3200,SCT,4300,BKN,6000,,,VFR,,,,16.1,8.9,,,,,,,METAR,7.0
KPDT 230753Z AUTO 26011KT 10SM CLR 06/02 A2981 RMK AO2 SLP093 T00610022 401220061,KPDT,2022-10-23T07:53:00Z,45.7,-118.83,6.1,2.2,260,11,,10.0,29.811024,1009.3,,TRUE,TRUE,,,,,,,CLR,,,,,,,,VFR,,,,12.2,6.1,,,,,,,METAR,453.0
KPDK 230753Z AUTO 00000KT 9SM CLR 04/04 A3019 RMK AO2 SLP221 T00440044,KPDK,2022-10-23T07:53:00Z,33.88,-84.3,4.4,4.4,0,0,,9.0,30.188976,1022.1,,TRUE,TRUE,,,,,,,CLR,,,,,,,,VFR,,,,,,,,,,,,METAR,299.0
KPBI 230753Z 31004KT 10SM FEW044 SCT055 20/19 A3001 RMK AO2 SLP160 T02000189 $,KPBI,2022-10-23T07:53:00Z,26.68,-80.1,20.0,18.9,310,4,,10.0,30.008858,1016.0,,,TRUE,TRUE,,,,,,FEW,4400,SCT,5500,,,,,VFR,,,,,,,,,,,,METAR,4.0
KPBG 230753Z AUTO 00000KT 10SM CLR 03/03 A3027 RMK AO2 SLP253 T00330028,KPBG,2022-10-23T07:53:00Z,44.65,-73.47,3.3,2.8,0,0,,10.0,30.268702,1025.3,,TRUE,TRUE,,,,,,,CLR,,,,,,,,VFR,,,,,,,,,,,,METAR,61.0
KPBF 230753Z AUTO 18012KT 10SM CLR 21/14 A2996 RMK AO2 SLP143 T02110144,KPBF,2022-10-23T07:53:00Z,34.18,-91.93,21.1,14.4,180,12,,10.0,29.958662,1014.3,,TRUE,TRUE,,,,,,,CLR,,,,,,,,VFR,,,,,,,,,,,,METAR,63.0
KPAH 230753Z AUTO 18007G18KT 150V210 10SM FEW065 19/11 A2999 RMK AO2 SLP150 T01940111,KPAH,2022-10-23T07:53:00Z,37.07,-88.77,19.4,11.1,180,7,18,10.0,29.991142,1015.0,,TRUE,TRUE,,,,,,,FEW,6500,,,,,,,VFR,,,,,,,,,,,,METAR,125.0
KPAE 230753Z AUTO 14003KT 10SM BKN033 OVC055 08/04 A2992 RMK AO2 SLP133 T00780044 401220056,KPAE,2022-10-23T07:53:00Z,47.92,-122.28,7.8,4.4,140,3,,10.0,29.920275,1013.3,,TRUE,TRUE,,,,,,,BKN,3300,OVC,5500,,,,,VFR,,,,12.2,5.6,,,,,,,METAR,166.0
KP68 230753Z AUTO 33007KT M02/M03 A2972 RMK AO1 SLP064 T10171033 401501022,KP68,2022-10-23T07:53:00Z,39.6,-116.0,-1.7,-3.3,330,7,,,29.719488,1006.4,,TRUE,TRUE,,,,,,,,,,,,,,,,,,,15.0,-2.2,,,,,,,METAR,1813.0
KOVS 230753Z AUTO 00000KT 10SM CLR 18/11 A2978 RMK AO2 SLP080 T01780111 $,KOVS,2022-10-23T07:53:00Z,43.15,-90.68,17.8,11.1,0,0,,10.0,29.778543,1008.0,,TRUE,TRUE,TRUE,,,,,,CLR,,,,,,,,VFR,,,,,,,,,,,,METAR,205.0
KOVE 230753Z AUTO 32010G18KT 10SM CLR 14/01 A2984 RMK AO2 SLP104 T01390006 402280139,KOVE,2022-10-23T07:53:00Z,39.5,-121.62,13.9,0.6,320,10,18,10.0,29.840551,1010.4,,TRUE,TRUE,,,,,,,CLR,,,,,,,,VFR,,,,22.8,13.9,,,,,,,METAR,56.0
KOTM 230753Z AUTO 15015KT 10SM -RA CLR 18/12 A2969 RMK AO2 RAB20 SLP047 P0000 T01780117,KOTM,2022-10-23T07:53:00Z,41.1,-92.45,17.8,11.7,150,15,,10.0,29.68996,1004.7,,TRUE,TRUE,,,,,,-RA,CLR,,,,,,,,VFR,,,,,,0.005,,,,,,METAR,254.0
KOSU 230753Z AUTO 00000KT 10SM CLR 13/08 A3013 RMK AO2 SLP201 T01280083,KOSU,2022-10-23T07:53:00Z,40.08,-83.08,12.8,8.3,0,0,,10.0,30.129921,1020.1,,TRUE,TRUE,,,,,,,CLR,,,,,,,,VFR,,,,,,,,,,,,METAR,276.0
KOSH 230753Z AUTO 19009KT 10SM CLR 15/11 A2985 RMK AO2 SLP098 T01500111,KOSH,2022-10-23T07:53:00Z,43.98,-88.55,15.0,11.1,190,9,,10.0,29.84941,1009.8,,TRUE,TRUE,,,,,,,CLR,,,,,,,,VFR,,,,,,,,,,,,METAR,239.0
KORL 230753Z AUTO 31004KT 10SM CLR 17/14 A3006 RMK AO2 SLP183 T01720139,KORL,2022-10-23T07:53:00Z,28.55,-81.33,17.2,13.9,310,4,,10.0,30.059055,1018.3,,TRUE,TRUE,,,,,,,CLR,,,,,,,,VFR,,,,,,,,,,,,METAR,32.0
KOQT 230753Z AUTO 00000KT 9SM CLR 08/07 A3019 RMK AO2 SLP219 T00780067,KOQT,2022-10-23T07:53:00Z,36.02,-84.23,7.8,6.7,0,0,,9.0,30.188976,1021.9,,TRUE,TRUE,,,,,,,CLR,,,,,,,,VFR,,,,,,,,,,,,METAR,276.0
KOPF 230753Z AUTO 35004KT 10SM CLR 20/18 A2999 RMK AO2 SLP157 T02000178,KOPF,2022-10-23T07:53:00Z,25.92,-80.28,20.0,17.8,350,4,,10.0,29.991142,1015.7,,TRUE,TRUE,,,,,,,CLR,,,,,,,,VFR,,,,,,,,,,,,METAR,1.0
KONT 230753Z 23007KT 10SM FEW009 BKN014 BKN043 15/13 A2979 RMK AO2 SLP078 T01500133 402220144 $,KONT,2022-10-23T07:53:00Z,34.05,-117.58,15.0,13.3,230,7,,10.0,29.790354,1007.8,,,TRUE,TRUE,,,,,,FEW,900,BKN,1400,BKN,4300,,,MVFR,,,,22.2,14.4,,,,,,,METAR,279.0
KONO 230753Z AUTO 26006KT 10SM CLR 05/M01 A2978 RMK AO2 SLP090 T00501006,KONO,2022-10-23T07:53:00Z,44.02,-117.02,5.0,-0.6,260,6,,10.0,29.778543,1009.0,,TRUE,TRUE,,,,,,,CLR,,,,,,,,VFR,,,,,,,,,,,,METAR,668.0
KOMK 230753Z AUTO 30004KT 10SM OVC095 04/M01 A2981 RMK AO2 SLP098 T00441011 401440017,KOMK,2022-10-23T07:53:00Z,48.47,-119.52,4.4,-1.1,300,4,,10.0,29.811024,1009.8,,TRUE,TRUE,,,,,,,OVC,9500,,,,,,,VFR,,,,14.4,1.7,,,,,,,METAR,395.0
KOLF 230753Z AUTO 06013KT OVC015 07/04 A2951 RMK AO2 SLP002 T00670039,KOLF,2022-10-23T07:53:00Z,48.1,-105.58,6.7,3.9,60,13,,,29.509842,1000.2,,TRUE,TRUE,,,,,,,OVC,1500,,,,,,,,,,,,,,,,,,,METAR,605.0
KOJC 230753Z AUTO 17014KT 10SM CLR 21/13 A2960 RMK AO2 SLP012 T02060128,KOJC,2022-10-23T07:53:00Z,38.85,-94.73,20.6,12.8,170,14,,10.0,29.601377,1001.2,,TRUE,TRUE,,,,,,,CLR,,,,,,,,VFR,,,,,,,,,,,,METAR,328.0
KOGD 230753Z AUTO 03003KT 10SM OVC065 04/02 A2958 RMK AO2 SLP991 T00440017,KOGD,2022-10-23T07:53:00Z,41.2,-112.02,4.4,1.7,30,3,,10.0,29.58071,999.1,,TRUE,TRUE,,,,,,,OVC,6500,,,,,,,VFR,,,,,,,,,,,,METAR,1356.0
KOGB 230753Z AUTO 00000KT 10SM CLR 09/08 A3014 RMK AO2 SLP204 T00940083,KOGB,2022-10-23T07:53:00Z,33.47,-80.85,9.4,8.3,0,0,,10.0,30.138779,1020.4,,TRUE,TRUE,,,,,,,CLR,,,,,,,,VFR,,,,,,,,,,,,METAR,59.0
KODX 230753Z AUTO 00000KT 10SM CLR 08/04 A2938 RMK AO2 SLP940 T00780039,KODX,2022-10-23T07:53:00Z,41.62,-98.95,7.8,3.9,0,0,,10.0,29.379921,994.0,,TRUE,TRUE,,,,,,,CLR,,,,,,,,VFR,,,,,,,,,,,,METAR,628.0
KODO 230753Z AUTO 19011KT 10SM CLR 19/13 A2978 RMK AO2 SLP039 T01890133,KODO,2022-10-23T07:53:00Z,31.92,-102.4,18.9,13.3,190,11,,10.0,29.778543,1003.9,,TRUE,TRUE,,,,,,,CLR,,,,,,,,VFR,,,,,,,,,,,,METAR,912.0
KOAK 230753Z 32007KT 10SM CLR 14/04 A2987 RMK AO2 SLP112 T01440044 402060139,KOAK,2022-10-23T07:53:00Z,37.72,-122.23,14.4,4.4,320,7,,10.0,29.870079,1011.2,,,TRUE,,,,,,,CLR,,,,,,,,VFR,,,,20.6,13.9,,,,,,,METAR,3.0
KNUW 230753Z 14004KT 10SM SCT042 OVC050 08/07 A2996 RMK AO2 SLP145 T00780067 401280044 VISNO $,KNUW,2022-10-23T07:53:00Z,48.35,-122.65,7.8,6.7,140,4,,10.0,29.958662,1014.5,,,TRUE,TRUE,,,,,,SCT,4200,OVC,5000,,,,,VFR,,,,12.8,4.4,,,,,,,METAR,14.0
KNUI 230753Z AUTO 00000KT FEW023 13/10 A3019 RMK AO2 SLP223 T01330100,KNUI,2022-10-23T07:53:00Z,38.15,-76.43,13.3,10.0,0,0,,,30.188976,1022.3,,TRUE,TRUE,,,,,,,FEW,2300,,,,,,,,,,,,,,,,,,,METAR,4.0
KNSI 230753Z AUTO 32021G32KT CLR 14/09 A2981 RMK AO2 PK WND 30034/0737 SLP088 T01440094 401890139 PWINO $,KNSI,2022-10-23T07:53:00Z,33.23,-119.45,14.4,9.4,320,21,32,,29.811024,1008.8,,TRUE,TRUE,TRUE,,,,TRUE,,CLR,,,,,,,,,,,,18.9,13.9,,,,,,,METAR,161.0
KNRS 230753Z AUTO 22007KT 10SM FEW048 OVC060 18/16 A2982 RMK AO2 RAE01 SLP096 P0001 T01780156 402110172 $,KNRS,2022-10-23T07:53:00Z,32.57,-117.12,17.8,15.6,220,7,,10.0,29.819881,1009.6,,TRUE,TRUE,TRUE,,,,,,FEW,4800,OVC,6000,,,,,VFR,,,,21.1,17.2,0.01,,,,,,METAR,15.0
KNQX 230753Z AUTO 05007KT CLR 26/20 A2998 RMK AO2 SLP150 T02610200 $,KNQX,2022-10-23T07:53:00Z,24.57,-81.67,26.1,20.0,50,7,,,29.97933,1015.0,,TRUE,TRUE,TRUE,,,,,,CLR,,,,,,,,,,,,,,,,,,,,SPECI,2.0
KNIP 230753Z 35010KT 10SM CLR 17/12 A3010 RMK AO2 SLP187 T01670122 $,KNIP,2022-10-23T07:53:00Z,30.23,-81.67,16.7,12.2,350,10,,10.0,30.100393,1018.7,,,TRUE,TRUE,,,,,,CLR,,,,,,,,VFR,,,,,,,,,,,,SPECI,3.0
KNEW 230753Z AUTO 12006KT 10SM CLR 18/16 A3007 RMK AO2 SLP175 T01830156,KNEW,2022-10-23T07:53:00Z,30.05,-90.03,18.3,15.6,120,6,,10.0,30.070866,1017.5,,TRUE,TRUE,,,,,,,CLR,,,,,,,,VFR,,,,,,,,,,,,METAR,1.0
KMYV 230753Z AUTO 34015G24KT 10SM CLR 14/01 A2982 RMK AO2 PK WND 32027/0657 SLP100 T01390006 402440139 $,KMYV,2022-10-23T07:53:00Z,39.1,-121.57,13.9,0.6,340,15,24,10.0,29.819881,1010.0,,TRUE,TRUE,TRUE,,,,,,CLR,,,,,,,,VFR,,,,24.4,13.9,,,,,,,METAR,18.0
KMWT 230753Z AUTO VRB04KT 10SM OVC029 22/15 A2988 RMK AO2 SLP107 T02170150,KMWT,2022-10-23T07:53:00Z,34.55,-93.58,21.7,15.0,0,4,,10.0,29.878937,1010.7,,TRUE,TRUE,,,,,,,OVC,2900,,,,,,,MVFR,,,,,,,,,,,,METAR,220.0
KMWL 230753Z AUTO 15010KT 10SM CLR 22/14 A2976 RMK AO2 SLP062 T02220139,KMWL,2022-10-23T07:53:00Z,32.78,-98.07,22.2,13.9,150,10,,10.0,29.760826,1006.2,,TRUE,TRUE,,,,,,,CLR,,,,,,,,VFR,,,,,,,,,,,,METAR,288.0
KMVY 230753Z AUTO 05005KT 10SM CLR 12/12 A3029 RMK AO2 SLP257 T01220117,KMVY,2022-10-23T07:53:00Z,41.4,-70.62,12.2,11.7,50,5,,10.0,30.28937,1025.7,,TRUE,TRUE,,,,,,,CLR,,,,,,,,VFR,,,,,,,,,,,,METAR,18.0
KMTO 230753Z AUTO 16014G21KT 10SM OVC060 18/11 A2994 RMK AO2 SLP134 T01830106,KMTO,2022-10-23T07:53:00Z,39.47,-88.27,18.3,10.6,160,14,21,10.0,29.940945,1013.4,,TRUE,TRUE,,,,,,,OVC,6000,,,,,,,VFR,,,,,,,,,,,,METAR,216.0
KMTJ 230753Z AUTO 19027G45KT 9SM FEW035 SCT110 16/02 A2941 RMK AO2 PK WND 19045/0753 RAB0656E01 SLP884 P0000 T01560017 $,KMTJ,2022-10-23T07:53:00Z,38.5,-107.9,15.6,1.7,190,27,45,9.0,29.409449,988.4,,TRUE,TRUE,TRUE,,,,,,FEW,3500,SCT,11000,,,,,VFR,,,,,,0.005,,,,,,METAR,1755.0
KMTH 230753Z AUTO 04007KT 10SM CLR 24/19 A2997 RMK AO2 SLP147 T02390194 $,KMTH,2022-10-23T07:53:00Z,24.73,-81.05,23.9,19.4,40,7,,10.0,29.970472,1014.7,,TRUE,TRUE,TRUE,,,,,,CLR,,,,,,,,VFR,,,,,,,,,,,,METAR,1.0
KMSY 230753Z 12007KT 10SM CLR 18/15 A3006 RMK AO2 SLP181 T01830150 $,KMSY,2022-10-23T07:53:00Z,30.0,-90.25,18.3,15.0,120,7,,10.0,30.059055,1018.1,,,TRUE,TRUE,,,,,,CLR,,,,,,,,VFR,,,,,,,,,,,,METAR,0.0
KMSS 230753Z AUTO 00000KT 10SM CLR 02/01 A3026 RMK AO2 SLP250 T00220006,KMSS,2022-10-23T07:53:00Z,44.93,-74.85,2.2,0.6,0,0,,10.0,30.259842,1025.0,,TRUE,TRUE,,,,,,,CLR,,,,,,,,VFR,,,,,,,,,,,,METAR,60.0
KMSP 230753Z 16008KT 10SM CLR 17/07 A2962 RMK AO2 SLP027 T01670072,KMSP,2022-10-23T07:53:00Z,44.88,-93.23,16.7,7.2,160,8,,10.0,29.619095,1002.7,,,TRUE,,,,,,,CLR,,,,,,,,VFR,,,,,,,,,,,,METAR,255.0
KMSN 230753Z AUTO 18006KT 10SM CLR 16/11 A2983 RMK AO2 SLP099 T01560111,KMSN,2022-10-23T07:53:00Z,43.13,-89.35,15.6,11.1,180,6,,10.0,29.828741,1009.9,,TRUE,TRUE,,,,,,,CLR,,,,,,,,VFR,,,,,,,,,,,,METAR,262.0
KMSL 230753Z AUTO 15004KT 10SM CLR 14/11 A3010 RMK AO2 SLP187 T01440106,KMSL,2022-10-23T07:53:00Z,34.75,-87.6,14.4,10.6,150,4,,10.0,30.100393,1018.7,,TRUE,TRUE,,,,,,,CLR,,,,,,,,VFR,,,,,,,,,,,,METAR,170.0
KMRB 230753Z AUTO 00000KT 8SM CLR 04/02 A3024 RMK AO2 SLP243 T00390022 $,KMRB,2022-10-23T07:53:00Z,39.4,-77.98,3.9,2.2,0,0,,8.0,30.239174,1024.3,,TRUE,TRUE,TRUE,,,,,,CLR,,,,,,,,VFR,,,,,,,,,,,,METAR,165.0
KMPO 230753Z AUTO 00000KT 10SM CLR 03/02 A3028 RMK AO2 SLP259 T00280017,KMPO,2022-10-23T07:53:00Z,41.13,-75.38,2.8,1.7,0,0,,10.0,30.280512,1025.9,,TRUE,TRUE,,,,,,,CLR,,,,,,,,VFR,,,,,,,,,,,,METAR,576.0
KMOD 230753Z AUTO 30011KT 10SM CLR 13/04 A2980 RMK AO2 SLP091 T01330039 402330133 $,KMOD,2022-10-23T07:53:00Z,37.62,-120.95,13.3,3.9,300,11,,10.0,29.799213,1009.1,,TRUE,TRUE,TRUE,,,,,,CLR,,,,,,,,VFR,,,,23.3,13.3,,,,,,,METAR,25.0
KMNN 230753Z AUTO 20007KT 8SM CLR 12/07 A3013 RMK AO2 SLP201 T01170072,KMNN,2022-10-23T07:53:00Z,40.62,-83.07,11.7,7.2,200,7,,8.0,30.129921,1020.1,,TRUE,TRUE,,,,,,,CLR,,,,,,,,VFR,,,,,,,,,,,,METAR,301.0
KMMK 230753Z AUTO 32003KT 10SM CLR 08/06 A3030 RMK AO2 SLP261 T00780056,KMMK,2022-10-23T07:53:00Z,41.52,-72.83,7.8,5.6,320,3,,10.0,30.301182,1026.1,,TRUE,TRUE,,,,,,,CLR,,,,,,,,VFR,,,,,,,,,,,,METAR,30.0
KMLU 230753Z AUTO 18007KT 10SM CLR 18/14 A3002 RMK AO2 SLP162 T01830144,KMLU,2022-10-23T07:53:00Z,32.52,-92.03,18.3,14.4,180,7,,10.0,30.02067,1016.2,,TRUE,TRUE,,,,,,,CLR,,,,,,,,VFR,,,,,,,,,,,,METAR,22.0
KMLT 230753Z AUTO 30003KT 9SM CLR 04/04 A3032 RMK AO2 SLP275 T00390039,KMLT,2022-10-23T07:53:00Z,45.65,-68.7,3.9,3.9,300,3,,9.0,30.318897,1027.5,,TRUE,TRUE,,,,,,,CLR,,,,,,,,VFR,,,,,,,,,,,,METAR,121.0
KMLS 230753Z AUTO 01008KT 10SM CLR 07/04 A2941 RMK AO2 SLP958 T00670044,KMLS,2022-10-23T07:53:00Z,46.43,-105.88,6.7,4.4,10,8,,10.0,29.409449,995.8,,TRUE,TRUE,,,,,,,CLR,,,,,,,,VFR,,,,,,,,,,,,METAR,800.0
KMLP 230753Z AUTO 34003KT 6SM BR OVC003 M02/M04 A2965 RMK AO2 SLP062 T10221044 410061033,KMLP,2022-10-23T07:53:00Z,47.45,-115.67,-2.2,-4.4,340,3,,6.0,29.648623,1006.2,,TRUE,TRUE,,,,,,BR,OVC,300,,,,,,,LIFR,,,,-0.6,-3.3,,,,,,,METAR,1837.0
KMLC 230753Z AUTO 17013G27KT 10SM FEW070 22/14 A2976 RMK AO2 PK WND 19028/0735 SLP069 T02170139,KMLC,2022-10-23T07:53:00Z,34.88,-95.78,21.7,13.9,170,13,27,10.0,29.760826,1006.9,,TRUE,TRUE,,,,,,,FEW,7000,,,,,,,VFR,,,,,,,,,,,,METAR,231.0
KMLB 230753Z AUTO 31003KT 10SM FEW038 18/18 A3003 RMK AO2 SLP168 T01780178,KMLB,2022-10-23T07:53:00Z,28.1,-80.65,17.8,17.8,310,3,,10.0,30.029528,1016.8,,TRUE,TRUE,,,,,,,FEW,3800,,,,,,,VFR,,,,,,,,,,,,METAR,7.0
KMKO 230753Z AUTO 17013G30KT 10SM CLR 23/13 A2975 RMK AO2 PK WND 17031/0742 SLP065 T02280133,KMKO,2022-10-23T07:53:00Z,35.65,-95.37,22.8,13.3,170,13,30,10.0,29.749016,1006.5,,TRUE,TRUE,,,,,,,CLR,,,,,,,,VFR,,,,,,,,,,,,METAR,184.0
KMKL 230753Z AUTO 18009KT OVC060 18/11 A3005 RMK AO2 SLP171 T01830111 $,KMKL,2022-10-23T07:53:00Z,35.6,-88.92,18.3,11.1,180,9,,,30.050198,1017.1,,TRUE,TRUE,TRUE,,,,,,OVC,6000,,,,,,,,,,,,,,,,,,,METAR,130.0
KMIW 230753Z AUTO 14013G22KT 10SM CLR 17/11 A2966 RMK AO2 SLP037 T01670106,KMIW,2022-10-23T07:53:00Z,42.12,-92.92,16.7,10.6,140,13,22,10.0,29.660433,1003.7,,TRUE,TRUE,,,,,,,CLR,,,,,,,,VFR,,,,,,,,,,,,METAR,296.0
KMIE 230753Z AUTO 18004KT 10SM CLR 17/09 A3007 RMK AO2 SLP172 T01670094,KMIE,2022-10-23T07:53:00Z,40.23,-85.4,16.7,9.4,180,4,,10.0,30.070866,1017.2,,TRUE,TRUE,,,,,,,CLR,,,,,,,,VFR,,,,,,,,,,,,METAR,286.0
KMIC 230753Z AUTO 15007KT 10SM CLR 16/08 A2961 RMK AO2 SLP024 T01610078,KMIC,2022-10-23T07:53:00Z,45.07,-93.35,16.1,7.8,150,7,,10.0,29.610237,1002.4,,TRUE,TRUE,,,,,,,CLR,,,,,,,,VFR,,,,,,,,,,,,SPECI,263.0
KMIA 230753Z 00000KT 10SM FEW040 22/19 A2999 RMK AO2 SLP155 T02220189 $,KMIA,2022-10-23T07:53:00Z,25.8,-80.32,22.2,18.9,0,0,,10.0,29.991142,1015.5,,,TRUE,TRUE,,,,,,FEW,4000,,,,,,,VFR,,,,,,,,,,,,METAR,1.0
KMHT 230753Z 00000KT 10SM SCT250 06/04 A3030 RMK AO2 SLP275 T00610044,KMHT,2022-10-23T07:53:00Z,42.93,-71.43,6.1,4.4,0,0,,10.0,30.301182,1027.5,,,TRUE,,,,,,,SCT,25000,,,,,,,VFR,,,,,,,,,,,,METAR,68.0
KMHE 230753Z AUTO 12010KT 10SM CLR 13/06 A2942 RMK AO2 SLP958 T01280056,KMHE,2022-10-23T07:53:00Z,43.77,-98.03,12.8,5.6,120,10,,10.0,29.421259,995.8,,TRUE,TRUE,,,,,,,CLR,,,,,,,,VFR,,,,,,,,,,,,METAR,397.0
KMGY 230753Z AUTO 17005KT 10SM CLR 14/08 A3011 RMK AO2 SLP191 T01390083,KMGY,2022-10-23T07:53:00Z,39.6,-84.23,13.9,8.3,170,5,,10.0,30.109253,1019.1,,TRUE,TRUE,,,,,,,CLR,,,,,,,,VFR,,,,,,,,,,,,METAR,290.0
KMGW 230753Z AUTO 18004KT 10SM CLR 11/02 A3020 RMK AO2 SLP223 T01110022,KMGW,2022-10-23T07:53:00Z,39.65,-79.92,11.1,2.2,180,4,,10.0,30.200787,1022.3,,TRUE,TRUE,,,,,,,CLR,,,,,,,,VFR,,,,,,,,,,,,METAR,375.0
KMGM 230753Z AUTO 00000KT 10SM CLR 07/07 A3014 RMK AO2 SLP206 T00720067,KMGM,2022-10-23T07:53:00Z,32.3,-86.4,7.2,6.7,0,0,,10.0,30.138779,1020.6,,TRUE,TRUE,,,,,,,CLR,,,,,,,,VFR,,,,,,,,,,,,METAR,64.0
KMFR 230753Z AUTO 17004KT 10SM BKN043 07/05 A2999 RMK AO2 SLP157 T00670050 401280061,KMFR,2022-10-23T07:53:00Z,42.38,-122.87,6.7,5.0,170,4,,10.0,29.991142,1015.7,,TRUE,TRUE,,,,,,,BKN,4300,,,,,,,VFR,,,,12.8,6.1,,,,,,,METAR,397.0
KMFE 230753Z AUTO 15006KT 10SM CLR 22/19 A2986 RMK AO2 SLP110 T02220194 $,KMFE,2022-10-23T07:53:00Z,26.18,-98.25,22.2,19.4,150,6,,10.0,29.861221,1011.0,,TRUE,TRUE,TRUE,,,,,,CLR,,,,,,,,VFR,,,,,,,,,,,,METAR,29.0
KMDW 230753Z 18009KT 10SM FEW250 18/11 A2992 RMK AO2 SLP122 T01830106,KMDW,2022-10-23T07:53:00Z,41.78,-87.75,18.3,10.6,180,9,,10.0,29.920275,1012.2,,,TRUE,,,,,,,FEW,25000,,,,,,,VFR,,,,,,,,,,,,METAR,186.0
KMCW 230753Z AUTO 15012KT 10SM CLR 15/09 A2966 RMK AO2 SLP031 T01500089,KMCW,2022-10-23T07:53:00Z,43.15,-93.33,15.0,8.9,150,12,,10.0,29.660433,1003.1,,TRUE,TRUE,,,,,,,CLR,,,,,,,,VFR,,,,,,,,,,,,METAR,363.0
KMCO 230753Z 32005KT 10SM CLR 17/15 A3006 RMK AO2 SLP178 T01670150 $,KMCO,2022-10-23T07:53:00Z,28.42,-81.33,16.7,15.0,320,5,,10.0,30.059055,1017.8,,,TRUE,TRUE,,,,,,CLR,,,,,,,,VFR,,,,,,,,,,,,METAR,27.0
KMCN 230753Z AUTO 00000KT 10SM CLR 04/04 A3015 RMK AO2 SLP209 T00440039,KMCN,2022-10-23T07:53:00Z,32.68,-83.65,4.4,3.9,0,0,,10.0,30.15059,1020.9,,TRUE,TRUE,,,,,,,CLR,,,,,,,,VFR,,,,,,,,,,,,METAR,104.0
KMCK 230753Z AUTO 23007KT 10SM CLR 14/M05 A2934 RMK AO2 SLP912 T01391050,KMCK,2022-10-23T07:53:00Z,40.2,-100.58,13.9,-5.0,230,7,,10.0,29.338583,991.2,,TRUE,TRUE,,,,,,,CLR,,,,,,,,VFR,,,,,,,,,,,,METAR,780.0
KMCI 230753Z 17015KT 10SM CLR 21/13 A2958 RMK AO2 SLP006 T02110128,KMCI,2022-10-23T07:53:00Z,39.3,-94.73,21.1,12.8,170,15,,10.0,29.58071,1000.6,,,TRUE,,,,,,,CLR,,,,,,,,VFR,,,,,,,,,,,,METAR,308.0
KMCE 230753Z AUTO 33008KT 10SM CLR 14/03 A2979 RMK AO2 SLP086 T01390028 402440117,KMCE,2022-10-23T07:53:00Z,37.28,-120.5,13.9,2.8,330,8,,10.0,29.790354,1008.6,,TRUE,TRUE,,,,,,,CLR,,,,,,,,VFR,,,,24.4,11.7,,,,,,,METAR,49.0
KMCB 230753Z AUTO 15003KT 8SM CLR 14/12 A3007 RMK AO2 SLP178 T01390122,KMCB,2022-10-23T07:53:00Z,31.18,-90.47,13.9,12.2,150,3,,8.0,30.070866,1017.8,,TRUE,TRUE,,,,,,,CLR,,,,,,,,VFR,,,,,,,,,,,,METAR,124.0
KMBS 230753Z AUTO 18007KT 10SM CLR 14/09 A3005 RMK AO2 SLP172 T01390089,KMBS,2022-10-23T07:53:00Z,43.53,-84.08,13.9,8.9,180,7,,10.0,30.050198,1017.2,,TRUE,TRUE,,,,,,,CLR,,,,,,,,VFR,,,,,,,,,,,,METAR,201.0
KMAI 230753Z AUTO 00000KT 10SM CLR 07/05 A3012 RMK AO1 SLP199 T00720050 $,KMAI,2022-10-23T07:53:00Z,30.83,-85.18,7.2,5.0,0,0,,10.0,30.121063,1019.9,,TRUE,TRUE,TRUE,,,,,,CLR,,,,,,,,VFR,,,,,,,,,,,,METAR,33.0
KMAF 230753Z AUTO 18011KT 10SM CLR 18/13 A2978 RMK AO2 SLP038 T01830133,KMAF,2022-10-23T07:53:00Z,31.95,-102.2,18.3,13.3,180,11,,10.0,29.778543,1003.8,,TRUE,TRUE,,,,,,,CLR,,,,,,,,VFR,,,,,,,,,,,,METAR,874.0
KMAE 230753Z AUTO 28006KT 10SM CLR 09/04 A2980 RMK AO2 SLP088 T00890044 402500089,KMAE,2022-10-23T07:53:00Z,36.98,-120.12,8.9,4.4,280,6,,10.0,29.799213,1008.8,,TRUE,TRUE,,,,,,,CLR,,,,,,,,VFR,,,,25.0,8.9,,,,,,,METAR,77.0
KLXV 230753Z AUTO 28006KT 10SM OVC055 03/M03 A2965 RMK AO2 SLP895 T00331033 $,KLXV,2022-10-23T07:53:00Z,39.23,-106.32,3.3,-3.3,280,6,,10.0,29.648623,989.5,,TRUE,TRUE,TRUE,,,,,,OVC,5500,,,,,,,VFR,,,,,,,,,,,,METAR,3027.0
KLXT 230753Z AUTO 16013KT 10SM CLR 19/13 A2962 RMK AO2 SLP021 T01890128,KLXT,2022-10-23T07:53:00Z,38.97,-94.37,18.9,12.8,160,13,,10.0,29.619095,1002.1,,TRUE,TRUE,,,,,,,CLR,,,,,,,,VFR,,,,,,,,,,,,METAR,306.0
KLWV 230753Z AUTO 17010KT 10SM BKN070 18/11 A3001 RMK AO2 SLP158 T01780111 $,KLWV,2022-10-23T07:53:00Z,38.77,-87.6,17.8,11.1,170,10,,10.0,30.008858,1015.8,,TRUE,TRUE,TRUE,,,,,,BKN,7000,,,,,,,VFR,,,,,,,,,,,,METAR,128.0
KLWD 230753Z AUTO 15009G19KT 10SM CLR 18/11 A2962 RMK AO2 SLP022 T01830111,KLWD,2022-10-23T07:53:00Z,40.63,-93.9,18.3,11.1,150,9,19,10.0,29.619095,1002.2,,TRUE,TRUE,,,,,,,CLR,,,,,,,,VFR,,,,,,,,,,,,METAR,345.0
KLVS 230753Z AUTO 22012G20KT 10SM VCTS -RA FEW045 SCT055 BKN070 12/08 A2977 RMK AO2 LTG DSNT SW-NW RAB11 SLP983 P0000 T01170083,KLVS,2022-10-23T07:53:00Z,35.65,-105.13,11.7,8.3,220,12,20,10.0,29.769686,998.3,,TRUE,TRUE,,,,,,VCTS -RA,FEW,4500,SCT,5500,BKN,7000,,,VFR,,,,,,0.005,,,,,,METAR,2095.0
KLVK 230753Z AUTO 00000KT 10SM CLR 11/07 A2986 RMK AO2 SLP107 T01060067 402170106,KLVK,2022-10-23T07:53:00Z,37.7,-121.82,10.6,6.7,0,0,,10.0,29.861221,1010.7,,TRUE,TRUE,,,,,,,CLR,,,,,,,,VFR,,,,21.7,10.6,,,,,,,METAR,120.0
KLVJ 230753Z AUTO 16004KT 10SM CLR 22/18 A2992 RMK AO2 SLP132 T02220183,KLVJ,2022-10-23T07:53:00Z,29.52,-95.25,22.2,18.3,160,4,,10.0,29.920275,1013.2,,TRUE,TRUE,,,,,,,CLR,,,,,,,,VFR,,,,,,,,,,,,METAR,11.0
KLUK 230753Z AUTO 00000KT 6SM BR CLR 11/09 A3012 RMK AO2 SLP199 T01060094,KLUK,2022-10-23T07:53:00Z,39.1,-84.42,10.6,9.4,0,0,,6.0,30.121063,1019.9,,TRUE,TRUE,,,,,,BR,CLR,,,,,,,,VFR,,,,,,,,,,,,METAR,144.0
KLSE 230753Z AUTO 17011G18KT 10SM CLR 19/10 A2972 RMK AO2 SLP054 T01890100 $,KLSE,2022-10-23T07:53:00Z,43.88,-91.25,18.9,10.0,170,11,18,10.0,29.719488,1005.4,,TRUE,TRUE,TRUE,,,,,,CLR,,,,,,,,VFR,,,,,,,,,,,,METAR,198.0
KLPR 230753Z AUTO 18007KT 10SM CLR 13/08 A3014 RMK AO2 SLP205 T01330078,KLPR,2022-10-23T07:53:00Z,41.35,-82.18,13.3,7.8,180,7,,10.0,30.138779,1020.5,,TRUE,TRUE,,,,,,,CLR,,,,,,,,VFR,,,,,,,,,,,,METAR,241.0
KLOZ 230753Z AUTO 00000KT 10SM CLR 08/06 A3016 RMK AO2 SLP207 T00830061,KLOZ,2022-10-23T07:53:00Z,37.08,-84.07,8.3,6.1,0,0,,10.0,30.159449,1020.7,,TRUE,TRUE,,,,,,,CLR,,,,,,,,VFR,,,,,,,,,,,,METAR,361.0
KLOU 230753Z AUTO 12004KT 10SM CLR 15/11 A3009 RMK AO2 SLP186 T01500106,KLOU,2022-10-23T07:53:00Z,38.22,-85.67,15.0,10.6,120,4,,10.0,30.088583,1018.6,,TRUE,TRUE,,,,,,,CLR,,,,,,,,VFR,,,,,,,,,,,,METAR,165.0
KLOL 230753Z AUTO 00000KT 10SM CLR A2982 RMK AO2 SLPNO $,KLOL,2022-10-23T07:53:00Z,40.07,-118.57,,,0,0,,10.0,29.819881,,,TRUE,TRUE,TRUE,,,,,,CLR,,,,,,,,VFR,,,,,,,,,,,,METAR,1191.0
KLNS 230753Z AUTO 27004KT 8SM CLR 06/04 A3027 RMK AO2 SLP249 T00610039,KLNS,2022-10-23T07:53:00Z,40.12,-76.3,6.1,3.9,270,4,,8.0,30.268702,1024.9,,TRUE,TRUE,,,,,,,CLR,,,,,,,,VFR,,,,,,,,,,,,METAR,122.0
KLND 230753Z AUTO 00000KT 10SM CLR 04/M01 A2942 RMK AO2 SLP925 T00441011 $,KLND,2022-10-23T07:53:00Z,42.82,-108.73,4.4,-1.1,0,0,,10.0,29.421259,992.5,,TRUE,TRUE,TRUE,,,,,,CLR,,,,,,,,VFR,,,,,,,,,,,,METAR,1700.0
KLMT 230753Z AUTO 30005KT 10SM SCT040 01/M02 A2990 RMK AO2 SLP124 T00061017 401001033,KLMT,2022-10-23T07:53:00Z,42.15,-121.72,0.6,-1.7,300,5,,10.0,29.899607,1012.4,,TRUE,TRUE,,,,,,,SCT,4000,,,,,,,VFR,,,,10.0,-3.3,,,,,,,METAR,1246.0
KLLQ 230753Z AUTO 17007KT 10SM CLR 19/13 A2999 RMK AO2 SLP153 T01940133,KLLQ,2022-10-23T07:53:00Z,33.63,-91.75,19.4,13.3,170,7,,10.0,29.991142,1015.3,,TRUE,TRUE,,,,,,,CLR,,,,,,,,VFR,,,,,,,,,,,,METAR,86.0
KLKV 230753Z AUTO 00000KT 10SM FEW037 BKN050 BKN095 M03/M04 A2986 RMK AO2 SLP132 T10281044 401171028 FZRANO,KLKV,2022-10-23T07:53:00Z,42.17,-120.4,-2.8,-4.4,0,0,,10.0,29.861221,1013.2,,TRUE,TRUE,,,,TRUE,,,FEW,3700,BKN,5000,BKN,9500,,,VFR,,,,11.7,-2.8,,,,,,,METAR,1440.0
KLIT 230753Z 18014KT 10SM BKN250 21/14 A2993 RMK AO2 SLP134 T02110139,KLIT,2022-10-23T07:53:00Z,34.73,-92.23,21.1,13.9,180,14,,10.0,29.929134,1013.4,,,TRUE,,,,,,,BKN,25000,,,,,,,VFR,,,,,,,,,,,,METAR,77.0
KLHX 230753Z AUTO 18005KT 10SM 17/01 A2948 RMK AO2 SLP922 T01670011 $,KLHX,2022-10-23T07:53:00Z,38.05,-103.52,16.7,1.1,180,5,,10.0,29.480314,992.2,,TRUE,TRUE,TRUE,,,,,,,,,,,,,,,,,,,,,,,,,,METAR,1289.0
KLHQ 230753Z AUTO 00000KT 10SM CLR 08/07 A3015 RMK AO2 SLP208 T00780067,KLHQ,2022-10-23T07:53:00Z,39.75,-82.67,7.8,6.7,0,0,,10.0,30.15059,1020.8,,TRUE,TRUE,,,,,,,CLR,,,,,,,,VFR,,,,,,,,,,,,METAR,259.0
KLFT 230753Z AUTO 00000KT 10SM CLR 17/16 A3001 RMK AO2 SLP163 T01720156,KLFT,2022-10-23T07:53:00Z,30.2,-91.97,17.2,15.6,0,0,,10.0,30.008858,1016.3,,TRUE,TRUE,,,,,,,CLR,,,,,,,,VFR,,,,,,,,,,,,METAR,9.0
KLEE 230753Z AUTO 35005KT 10SM CLR 16/13 A3009 RMK AO2 SLP187 T01560133,KLEE,2022-10-23T07:53:00Z,28.82,-81.82,15.6,13.3,350,5,,10.0,30.088583,1018.7,,TRUE,TRUE,,,,,,,CLR,,,,,,,,VFR,,,,,,,,,,,,METAR,21.0
KLCH 230753Z AUTO 14009KT 10SM CLR 17/16 A2997 RMK AO2 SLP156 T01670156,KLCH,2022-10-23T07:53:00Z,30.13,-93.22,16.7,15.6,140,9,,10.0,29.970472,1015.6,,TRUE,TRUE,,,,,,,CLR,,,,,,,,VFR,,,,,,,,,,,,METAR,2.0
KLBX 230753Z AUTO 16005KT 10SM SCT035 SCT046 BKN055 20/18 A2991 RMK AO2 SLP127 T02000178,KLBX,2022-10-23T07:53:00Z,29.12,-95.47,20.0,17.8,160,5,,10.0,29.911417,1012.7,,TRUE,TRUE,,,,,,,SCT,3500,SCT,4600,BKN,5500,,,VFR,,,,,,,,,,,,METAR,4.0
KLBF 230753Z AUTO 11009KT 10SM CLR 07/02 A2933 RMK AO2 SLP908 T00720017,KLBF,2022-10-23T07:53:00Z,41.12,-100.67,7.2,1.7,110,9,,10.0,29.329725,990.8,,TRUE,TRUE,,,,,,,CLR,,,,,,,,VFR,,,,,,,,,,,,METAR,843.0
KLBB 230753Z 20020G27KT 10SM CLR 19/13 A2974 RMK AO2 PK WND 20028/0726 SLP019 T01940128,KLBB,2022-10-23T07:53:00Z,33.67,-101.82,19.4,12.8,200,20,27,10.0,29.740158,1001.9,,,TRUE,,,,,,,CLR,,,,,,,,VFR,,,,,,,,,,,,METAR,996.0
KLAX 230753Z 26010KT 10SM BKN024 17/13 A2978 RMK AO2 SLP081 T01720133 402060172,KLAX,2022-10-23T07:53:00Z,33.93,-118.38,17.2,13.3,260,10,,10.0,29.778543,1008.1,,,TRUE,,,,,,,BKN,2400,,,,,,,MVFR,,,,20.6,17.2,,,,,,,METAR,30.0
KLAW 230753Z AUTO 19013KT 10SM CLR 23/12 A2966 RMK AO2 SLP029 T02280117,KLAW,2022-10-23T07:53:00Z,34.55,-98.42,22.8,11.7,190,13,,10.0,29.660433,1002.9,,TRUE,TRUE,,,,,,,CLR,,,,,,,,VFR,,,,,,,,,,,,METAR,328.0
KLAR 230753Z AUTO 32008G17KT 10SM OVC075 07/M02 A2948 RMK AO2 SLP890 T00721022,KLAR,2022-10-23T07:53:00Z,41.32,-105.67,7.2,-2.2,320,8,17,10.0,29.480314,989.0,,TRUE,TRUE,,,,,,,OVC,7500,,,,,,,VFR,,,,,,,,,,,,METAR,2217.0
KLAN 230753Z 14003KT 10SM CLR 13/09 A3005 RMK AO2 SLP174 T01330089 $,KLAN,2022-10-23T07:53:00Z,42.78,-84.58,13.3,8.9,140,3,,10.0,30.050198,1017.4,,,TRUE,TRUE,,,,,,CLR,,,,,,,,VFR,,,,,,,,,,,,METAR,261.0
KLAA 230753Z AUTO 21018KT 10SM CLR 18/04 A2944 RMK AO2 PK WND 20026/0730 SLP914 T01830039,KLAA,2022-10-23T07:53:00Z,38.07,-102.68,18.3,3.9,210,18,,10.0,29.438976,991.4,,TRUE,TRUE,,,,,,,CLR,,,,,,,,VFR,,,,,,,,,,,,METAR,1129.0
KJLN 230753Z AUTO 19025G48KT 10SM SCT120 23/12 A2969 RMK AO2 PK WND 19048/0747 SLP042 T02330122 $,KJLN,2022-10-23T07:53:00Z,37.15,-94.5,23.3,12.2,190,25,48,10.0,29.68996,1004.2,,TRUE,TRUE,TRUE,,,,,,SCT,12000,,,,,,,VFR,,,,,,,,,,,,METAR,297.0
KJKL 230753Z AUTO 19003KT 10SM CLR 14/07 A3017 RMK AO2 SLP204 T01440067,KJKL,2022-10-23T07:53:00Z,37.6,-83.32,14.4,6.7,190,3,,10.0,30.171259,1020.4,,TRUE,TRUE,,,,,,,CLR,,,,,,,,VFR,,,,,,,,,,,,METAR,414.0
KJER 230753Z AUTO 27012KT 10SM CLR 01/M01 A2963 RMK AO2 SLP038 T00111006,KJER,2022-10-23T07:53:00Z,42.72,-114.45,1.1,-0.6,270,12,,10.0,29.630905,1003.8,,TRUE,TRUE,,,,,,,CLR,,,,,,,,VFR,,,,,,,,,,,,METAR,1226.0
KJEF 230753Z AUTO 14007KT 10SM CLR 21/13 A2975 RMK AO2 SLP059 T02060128 $,KJEF,2022-10-23T07:53:00Z,38.6,-92.15,20.6,12.8,140,7,,10.0,29.749016,1005.9,,TRUE,TRUE,TRUE,,,,,,CLR,,,,,,,,VFR,,,,,,,,,,,,METAR,167.0
KJBR 230753Z AUTO 17013KT 10SM CLR 18/11 A2995 RMK AO2 SLP137 T01830111 $,KJBR,2022-10-23T07:53:00Z,35.83,-90.65,18.3,11.1,170,13,,10.0,29.949802,1013.7,,TRUE,TRUE,TRUE,,,,,,CLR,,,,,,,,VFR,,,,,,,,,,,,METAR,79.0
KIXD 230753Z AUTO 17014G23KT 10SM CLR 21/13 A2960 RMK AO2 SLP012 T02110128 $,KIXD,2022-10-23T07:53:00Z,38.82,-94.88,21.1,12.8,170,14,23,10.0,29.601377,1001.2,,TRUE,TRUE,TRUE,,,,,,CLR,,,,,,,,VFR,,,,,,,,,,,,METAR,322.0
KITR 230753Z AUTO 22017G27KT 10SM CLR 18/M01 A2941 RMK AO2 PK WND 22032/0714 SLP900 T01831006 $,KITR,2022-10-23T07:53:00Z,39.23,-102.28,18.3,-0.6,220,17,27,10.0,29.409449,990.0,,TRUE,TRUE,TRUE,,,,,,CLR,,,,,,,,VFR,,,,,,,,,,,,SPECI,1285.0
KINK 230753Z AUTO 14012KT 10SM CLR 18/14 A2975 RMK AO2 SLP030 T01780144,KINK,2022-10-23T07:53:00Z,31.78,-103.2,17.8,14.4,140,12,,10.0,29.749016,1003.0,,TRUE,TRUE,,,,,,,CLR,,,,,,,,VFR,,,,,,,,,,,,METAR,857.0
KIML 230753Z AUTO 18006KT 10SM CLR 11/M06 A2932 RMK AO2 SLP901 T01061056 $,KIML,2022-10-23T07:53:00Z,40.52,-101.62,10.6,-5.6,180,6,,10.0,29.320866,990.1,,TRUE,TRUE,TRUE,,,,,,CLR,,,,,,,,VFR,,,,,,,,,,,,METAR,997.0
KILM 230753Z AUTO 34009KT 10SM CLR 16/09 A3008 RMK AO2 SLP184 T01610089 PWINO,KILM,2022-10-23T07:53:00Z,34.27,-77.9,16.1,8.9,340,9,,10.0,30.079725,1018.4,,TRUE,TRUE,,,,,TRUE,,CLR,,,,,,,,VFR,,,,,,,,,,,,METAR,9.0
KICT 230753Z 17015KT 10SM CLR 21/12 A2952 RMK AO2 SLP981 T02110117,KICT,2022-10-23T07:53:00Z,37.65,-97.43,21.1,11.7,170,15,,10.0,29.518702,998.1,,,TRUE,,,,,,,CLR,,,,,,,,VFR,,,,,,,,,,,,METAR,428.0
KICR 230753Z AUTO 12011KT CLR 14/04 A2934 RMK AO2 SLP924 T01390039,KICR,2022-10-23T07:53:00Z,43.38,-99.85,13.9,3.9,120,11,,,29.338583,992.4,,TRUE,TRUE,,,,,,,CLR,,,,,,,,,,,,,,,,,,,,METAR,618.0
KIAH 230753Z 16005KT 10SM FEW040 FEW250 22/19 A2991 RMK AO2 SLP127 T02170189,KIAH,2022-10-23T07:53:00Z,30.0,-95.37,21.7,18.9,160,5,,10.0,29.911417,1012.7,,,TRUE,,,,,,,FEW,4000,FEW,25000,,,,,VFR,,,,,,,,,,,,METAR,27.0
KIAG 230753Z AUTO 07003KT 10SM CLR 09/04 A3018 RMK AO2 SLP220 T00940039,KIAG,2022-10-23T07:53:00Z,43.12,-78.93,9.4,3.9,70,3,,10.0,30.180119,1022.0,,TRUE,TRUE,,,,,,,CLR,,,,,,,,VFR,,,,,,,,,,,,METAR,179.0
KHZY 230753Z AUTO 14006KT 10SM CLR 12/04 A3019 RMK AO2 SLP221 T01220039,KHZY,2022-10-23T07:53:00Z,41.78,-80.7,12.2,3.9,140,6,,10.0,30.188976,1022.1,,TRUE,TRUE,,,,,,,CLR,,,,,,,,VFR,,,,,,,,,,,,METAR,279.0
KHYR 230753Z AUTO 16006KT 10SM CLR 16/08 A2970 RMK AO2 SLP055 T01610083,KHYR,2022-10-23T07:53:00Z,46.02,-91.45,16.1,8.3,160,6,,10.0,29.698818,1005.5,,TRUE,TRUE,,,,,,,CLR,,,,,,,,VFR,,,,,,,,,,,,METAR,369.0
KHWO 230753Z AUTO 00000KT 10SM CLR 19/18 A3000 RMK AO2 SLP159 T01940183,KHWO,2022-10-23T07:53:00Z,26.0,-80.23,19.4,18.3,0,0,,10.0,30.0,1015.9,,TRUE,TRUE,,,,,,,CLR,,,,,,,,VFR,,,,,,,,,,,,METAR,2.0
KHVR 230753Z AUTO 06007KT -SN OVC005 01/00 A2959 RMK AO2 UPE0654SNB0654 SLP037 P0005 T00060000 $,KHVR,2022-10-23T07:53:00Z,48.55,-109.77,0.6,0.0,60,7,,,29.589567,1003.7,,TRUE,TRUE,TRUE,,,,,-SN,OVC,500,,,,,,,,,,,,,0.05,,,,,,METAR,789.0
KHVN 230753Z AUTO 03004KT 9SM FEW048 11/09 A3029 RMK AO2 SLP257 T01110094,KHVN,2022-10-23T07:53:00Z,41.27,-72.88,11.1,9.4,30,4,,9.0,30.28937,1025.7,,TRUE,TRUE,,,,,,,FEW,4800,,,,,,,VFR,,,,,,,,,,,,METAR,4.0
KHUL 230753Z AUTO 20003KT 10SM CLR 08/06 A3030 RMK AO2 SLP264 T00780056,KHUL,2022-10-23T07:53:00Z,46.12,-67.8,7.8,5.6,200,3,,10.0,30.301182,1026.4,,TRUE,TRUE,,,,,,,CLR,,,,,,,,VFR,,,,,,,,,,,,METAR,148.0
KHUF 230753Z 16012KT 10SM BKN065 19/11 A3000 RMK AO2 SLP155 T01890111,KHUF,2022-10-23T07:53:00Z,39.45,-87.32,18.9,11.1,160,12,,10.0,30.0,1015.5,,,TRUE,,,,,,,BKN,6500,,,,,,,VFR,,,,,,,,,,,,METAR,174.0
KHTL 230753Z AUTO 17006KT 10SM CLR 13/08 A3002 RMK AO2 SLP165 T01280083,KHTL,2022-10-23T07:53:00Z,44.35,-84.67,12.8,8.3,170,6,,10.0,30.02067,1016.5,,TRUE,TRUE,,,,,,,CLR,,,,,,,,VFR,,,,,,,,,,,,METAR,350.0
KHSV 230753Z AUTO 11004KT 10SM CLR 13/10 A3012 RMK AO2 SLP193 T01280100,KHSV,2022-10-23T07:53:00Z,34.65,-86.78,12.8,10.0,110,4,,10.0,30.121063,1019.3,,TRUE,TRUE,,,,,,,CLR,,,,,,,,VFR,,,,,,,,,,,,METAR,190.0
KHSI 230753Z AUTO 15008KT 10SM CLR 14/07 A2940 RMK AO2 SLP940 T01390072 $,KHSI,2022-10-23T07:53:00Z,40.6,-98.43,13.9,7.2,150,8,,10.0,29.40059,994.0,,TRUE,TRUE,TRUE,,,,,,CLR,,,,,,,,VFR,,,,,,,,,,,,METAR,592.0
KHRO 230753Z AUTO 15009G19KT 10SM CLR 19/13 A2982 RMK AO2 SLP084 T01940133,KHRO,2022-10-23T07:53:00Z,36.27,-93.15,19.4,13.3,150,9,19,10.0,29.819881,1008.4,,TRUE,TRUE,,,,,,,CLR,,,,,,,,VFR,,,,,,,,,,,,METAR,417.0
KHRI 230753Z AUTO 23009KT 10SM CLR 07/04 A2983 RMK AO2 SLP100 T00720039 401500072,KHRI,2022-10-23T07:53:00Z,45.83,-119.27,7.2,3.9,230,9,,10.0,29.828741,1010.0,,TRUE,TRUE,,,,,,,CLR,,,,,,,,VFR,,,,15.0,7.2,,,,,,,METAR,194.0
KHQM 230753Z AUTO 00000KT 9SM BKN033 07/04 A2993 RMK AO2 SLP137 T00670044 401440061,KHQM,2022-10-23T07:53:00Z,46.97,-123.93,6.7,4.4,0,0,,9.0,29.929134,1013.7,,TRUE,TRUE,,,,,,,BKN,3300,,,,,,,VFR,,,,14.4,6.1,,,,,,,METAR,4.0
KHOU 230753Z 16006KT 10SM FEW042 FEW250 22/18 A2991 RMK AO2 SLP132 T02170183,KHOU,2022-10-23T07:53:00Z,29.63,-95.28,21.7,18.3,160,6,,10.0,29.911417,1013.2,,,TRUE,,,,,,,FEW,4200,FEW,25000,,,,,VFR,,,,,,,,,,,,METAR,13.0
KHOT 230753Z AUTO 18007KT 10SM SCT030 21/14 A2992 RMK AO2 SLP126 T02060144,KHOT,2022-10-23T07:53:00Z,34.48,-93.1,20.6,14.4,180,7,,10.0,29.920275,1012.6,,TRUE,TRUE,,,,,,,SCT,3000,,,,,,,VFR,,,,,,,,,,,,METAR,153.0
KHLG 230753Z AUTO 10005KT 10SM CLR 12/02 A3019 RMK AO2 SLP221 T01170022,KHLG,2022-10-23T07:53:00Z,40.17,-80.65,11.7,2.2,100,5,,10.0,30.188976,1022.1,,TRUE,TRUE,,,,,,,CLR,,,,,,,,VFR,,,,,,,,,,,,METAR,365.0
KHLC 230753Z AUTO 26003KT 10SM CLR 14/M01 A2939 RMK AO2 SLP930 T01391006,KHLC,2022-10-23T07:53:00Z,39.37,-99.83,13.9,-0.6,260,3,,10.0,29.388779,993.0,,TRUE,TRUE,,,,,,,CLR,,,,,,,,VFR,,,,,,,,,,,,METAR,667.0
KHKY 230753Z AUTO 31003KT 10SM CLR 07/05 A3020 RMK AO2 SLP213 T00720050,KHKY,2022-10-23T07:53:00Z,35.75,-81.38,7.2,5.0,310,3,,10.0,30.200787,1021.3,,TRUE,TRUE,,,,,,,CLR,,,,,,,,VFR,,,,,,,,,,,,METAR,357.0
KHKS 230753Z AUTO 14006KT 10SM CLR 16/12 A3007 RMK AO2 SLP175 T01560122,KHKS,2022-10-23T07:53:00Z,32.33,-90.22,15.6,12.2,140,6,,10.0,30.070866,1017.5,,TRUE,TRUE,,,,,,,CLR,,,,,,,,VFR,,,,,,,,,,,,METAR,103.0
KHKA 230753Z AUTO 17012KT 10SM CLR 18/11 A2996 RMK AO2 SLP144 T01830111 $,KHKA,2022-10-23T07:53:00Z,35.93,-89.83,18.3,11.1,170,12,,10.0,29.958662,1014.4,,TRUE,TRUE,TRUE,,,,,,CLR,,,,,,,,VFR,,,,,,,,,,,,METAR,78.0
KHJO 230753Z AUTO 33009KT 10SM CLR 13/06 A2979 RMK AO2 SLP089 T01280056 402500111,KHJO,2022-10-23T07:53:00Z,36.32,-119.62,12.8,5.6,330,9,,10.0,29.790354,1008.9,,TRUE,TRUE,,,,,,,CLR,,,,,,,,VFR,,,,25.0,11.1,,,,,,,METAR,73.0
KHIO 230753Z AUTO 00000KT 10SM BKN040 06/05 A2995 RMK AO2 SLP140 T00560050 401560044,KHIO,2022-10-23T07:53:00Z,45.55,-122.95,5.6,5.0,0,0,,10.0,29.949802,1014.0,,TRUE,TRUE,,,,,,,BKN,4000,,,,,,,VFR,,,,15.6,4.4,,,,,,,METAR,62.0
KHIB 230753Z AUTO 00000KT 9SM CLR 02/02 A2965 RMK AO2 SLP047 T00220022,KHIB,2022-10-23T07:53:00Z,47.38,-92.83,2.2,2.2,0,0,,9.0,29.648623,1004.7,,TRUE,TRUE,,,,,,,CLR,,,,,,,,VFR,,,,,,,,,,,,METAR,409.0
KHHR 230753Z AUTO 26006KT 10SM SCT035 18/14 A2978 RMK AO2 SLP082 T01780139 402110178,KHHR,2022-10-23T07:53:00Z,33.92,-118.33,17.8,13.9,260,6,,10.0,29.778543,1008.2,,TRUE,TRUE,,,,,,,SCT,3500,,,,,,,VFR,,,,21.1,17.8,,,,,,,METAR,21.0
KHGR 230753Z AUTO 00000KT 9SM CLR 06/02 A3026 RMK AO2 SLP255 T00560022 $,KHGR,2022-10-23T07:53:00Z,39.7,-77.73,5.6,2.2,0,0,,9.0,30.259842,1025.5,,TRUE,TRUE,TRUE,,,,,,CLR,,,,,,,,VFR,,,,,,,,,,,,METAR,206.0
KHFD 230753Z AUTO 05003KT 10SM CLR 09/06 A3031 RMK AO2 SLP264 T00890061,KHFD,2022-10-23T07:53:00Z,41.73,-72.65,8.9,6.1,50,3,,10.0,30.31004,1026.4,,TRUE,TRUE,,,,,,,CLR,,,,,,,,VFR,,,,,,,,,,,,METAR,3.0
KHEI 230753Z AUTO 06009KT 10SM CLR 07/02 A2942 RMK AO2 SLP965 T00720022 $,KHEI,2022-10-23T07:53:00Z,46.02,-102.65,7.2,2.2,60,9,,10.0,29.421259,996.5,,TRUE,TRUE,TRUE,,,,,,CLR,,,,,,,,VFR,,,,,,,,,,,,METAR,824.0
KHBR 230753Z AUTO 20014KT 10SM CLR 21/12 A2964 RMK AO2 SLP016 T02060122,KHBR,2022-10-23T07:53:00Z,34.98,-99.05,20.6,12.2,200,14,,10.0,29.639763,1001.6,,TRUE,TRUE,,,,,,,CLR,,,,,,,,VFR,,,,,,,,,,,,METAR,475.0
KHBG 230753Z AUTO 00000KT 10SM CLR 13/12 A3010 RMK AO2 SLP191 T01280117,KHBG,2022-10-23T07:53:00Z,31.27,-89.25,12.8,11.7,0,0,,10.0,30.100393,1019.1,,TRUE,TRUE,,,,,,,CLR,,,,,,,,VFR,,,,,,,,,,,,METAR,45.0
KHAO 230753Z AUTO 11003KT 10SM CLR 11/09 A3012 RMK AO2 SLP197 T01110089,KHAO,2022-10-23T07:53:00Z,39.37,-84.52,11.1,8.9,110,3,,10.0,30.121063,1019.7,,TRUE,TRUE,,,,,,,CLR,,,,,,,,VFR,,,,,,,,,,,,METAR,185.0
KGWO 230753Z AUTO 19008KT 10SM CLR 18/13 A3004 RMK AO2 SLP171 T01830128,KGWO,2022-10-23T07:53:00Z,33.5,-90.08,18.3,12.8,190,8,,10.0,30.041338,1017.1,,TRUE,TRUE,,,,,,,CLR,,,,,,,,VFR,,,,,,,,,,,,METAR,42.0
KGVL 230753Z AUTO 00000KT 10SM CLR 08/04 A3021 RMK AO2 SLP223 T00830039,KGVL,2022-10-23T07:53:00Z,34.27,-83.83,8.3,3.9,0,0,,10.0,30.209646,1022.3,,TRUE,TRUE,,,,,,,CLR,,,,,,,,VFR,,,,,,,,,,,,METAR,387.0
KGUY 230753Z AUTO 22017KT 10SM CLR 19/10 A2953 RMK AO2 PK WND 21027/0656 SLP950 T01940100,KGUY,2022-10-23T07:53:00Z,36.68,-101.5,19.4,10.0,220,17,,10.0,29.530512,995.0,,TRUE,TRUE,,,,,,,CLR,,,,,,,,VFR,,,,,,,,,,,,METAR,950.0
KGUP 230753Z AUTO 22017G26KT 10SM -RA CLR 12/06 A2973 RMK AO2 PK WND 22034/0704 SLP943 P0000 T01170061,KGUP,2022-10-23T07:53:00Z,35.52,-108.8,11.7,6.1,220,17,26,10.0,29.731298,994.3,,TRUE,TRUE,,,,,,-RA,CLR,,,,,,,,VFR,,,,,,0.005,,,,,,METAR,1972.0
KGTF 230753Z 31009KT 1SM -SN BR OVC003 00/00 A2959 RMK AO2 SFC VIS 1 1/4 SLP050 P0003 T00000000 $,KGTF,2022-10-23T07:53:00Z,47.47,-111.38,0.0,0.0,310,9,,1.0,29.589567,1005.0,,,TRUE,TRUE,,,,,-SN BR,OVC,300,,,,,,,LIFR,,,,,,0.03,,,,,,METAR,1117.0
KGSP 230753Z AUTO 00000KT 10SM CLR 05/03 A3021 RMK AO2 SLP224 T00500028,KGSP,2022-10-23T07:53:00Z,34.9,-82.22,5.0,2.8,0,0,,10.0,30.209646,1022.4,,TRUE,TRUE,,,,,,,CLR,,,,,,,,VFR,,,,,,,,,,,,METAR,285.0
KGSH 230753Z AUTO 15006KT 10SM CLR 16/11 A3002 RMK AO2 SLP163 T01560106,KGSH,2022-10-23T07:53:00Z,41.53,-85.78,15.6,10.6,150,6,,10.0,30.02067,1016.3,,TRUE,TRUE,,,,,,,CLR,,,,,,,,VFR,,,,,,,,,,,,METAR,252.0
KGRR 230753Z AUTO 17007KT 10SM CLR 13/10 A3002 RMK AO2 SLP162 T01330100 $,KGRR,2022-10-23T07:53:00Z,42.88,-85.52,13.3,10.0,170,7,,10.0,30.02067,1016.2,,TRUE,TRUE,TRUE,,,,,,CLR,,,,,,,,VFR,,,,,,,,,,,,METAR,239.0
KGRI 230753Z AUTO 15010KT 10SM CLR 14/07 A2940 RMK AO2 SLP943 T01390072 $,KGRI,2022-10-23T07:53:00Z,40.97,-98.32,13.9,7.2,150,10,,10.0,29.40059,994.3,,TRUE,TRUE,TRUE,,,,,,CLR,,,,,,,,VFR,,,,,,,,,,,,METAR,562.0
KGRB 230753Z AUTO 18006KT 10SM CLR 17/11 A2986 RMK AO2 SLP110 T01670106 $,KGRB,2022-10-23T07:53:00Z,44.48,-88.13,16.7,10.6,180,6,,10.0,29.861221,1011.0,,TRUE,TRUE,TRUE,,,,,,CLR,,,,,,,,VFR,,,,,,,,,,,,METAR,209.0
KGOK 230753Z AUTO 19018G30KT 10SM CLR 23/12 A2962 RMK AO2 PK WND 19030/0749 SLP017 T02330122,KGOK,2022-10-23T07:53:00Z,35.85,-97.4,23.3,12.2,190,18,30,10.0,29.619095,1001.7,,TRUE,TRUE,,,,,,,CLR,,,,,,,,VFR,,,,,,,,,,,,METAR,326.0
KGNV 230753Z AUTO 00000KT 10SM CLR 11/09 A3013 RMK AO2 SLP200 T01060089,KGNV,2022-10-23T07:53:00Z,29.7,-82.28,10.6,8.9,0,0,,10.0,30.129921,1020.0,,TRUE,TRUE,,,,,,,CLR,,,,,,,,VFR,,,,,,,,,,,,METAR,41.0
KGMU 230753Z AUTO 29004KT 10SM CLR 09/03 A3021 RMK AO2 SLP224 T00940033,KGMU,2022-10-23T07:53:00Z,34.85,-82.35,9.4,3.3,290,4,,10.0,30.209646,1022.4,,TRUE,TRUE,,,,,,,CLR,,,,,,,,VFR,,,,,,,,,,,,METAR,309.0
KGLR 230753Z AUTO 20009KT 10SM CLR 16/09 A3000 RMK AO2 SLP155 T01560089,KGLR,2022-10-23T07:53:00Z,45.02,-84.68,15.6,8.9,200,9,,10.0,30.0,1015.5,,TRUE,TRUE,,,,,,,CLR,,,,,,,,VFR,,,,,,,,,,,,METAR,403.0
KGLH 230753Z AUTO 17014KT 10SM CLR 20/13 A3000 RMK AO2 SLP165 T02000128,KGLH,2022-10-23T07:53:00Z,33.47,-90.98,20.0,12.8,170,14,,10.0,30.0,1016.5,,TRUE,TRUE,,,,,,,CLR,,,,,,,,VFR,,,,,,,,,,,,METAR,40.0
KGLD 230753Z AUTO 20009KT 10SM CLR 15/M02 A2937 RMK AO2 SLP900 T01501022,KGLD,2022-10-23T07:53:00Z,39.37,-101.7,15.0,-2.2,200,9,,10.0,29.371063,990.0,,TRUE,TRUE,,,,,,,CLR,,,,,,,,VFR,,,,,,,,,,,,METAR,1111.0
KGKY 230753Z AUTO 17009G19KT 10SM CLR 22/16 A2981 RMK AO2 SLP083 T02220161,KGKY,2022-10-23T07:53:00Z,32.67,-97.1,22.2,16.1,170,9,19,10.0,29.811024,1008.3,,TRUE,TRUE,,,,,,,CLR,,,,,,,,VFR,,,,,,,,,,,,METAR,189.0
KGKJ 230753Z AUTO 00000KT 10SM CLR 11/03 A3020 RMK AO2 SLP223 T01110028,KGKJ,2022-10-23T07:53:00Z,41.63,-80.22,11.1,2.8,0,0,,10.0,30.200787,1022.3,,TRUE,TRUE,,,,,,,CLR,,,,,,,,VFR,,,,,,,,,,,,METAR,428.0
KGJT 230753Z AUTO 02008KT 10SM -RA FEW046 OVC060 09/08 A2944 RMK AO2 LTG DSNT S SLP916 P0010 T00940078,KGJT,2022-10-23T07:53:00Z,39.13,-108.53,9.4,7.8,20,8,,10.0,29.438976,991.6,,TRUE,TRUE,,,,,,-RA,FEW,4600,OVC,6000,,,,,VFR,,,,,,0.1,,,,,,METAR,1475.0
KGIF 230753Z AUTO A3007 RMK AO2 SLPNO PWINO $,KGIF,2022-10-23T07:53:00Z,28.07,-81.75,,,,,,,30.070866,,,TRUE,TRUE,TRUE,,,,TRUE,,,,,,,,,,,,,,,,,,,,,,METAR,44.0
KGGW 230753Z AUTO 07015G23KT 6SM -RA BR BKN010 OVC014 06/04 A2950 RMK AO2 CIG 007V013 SLP000 P0005 T00610044,KGGW,2022-10-23T07:53:00Z,48.22,-106.62,6.1,4.4,70,15,23,6.0,29.500984,1000.0,,TRUE,TRUE,,,,,,-RA BR,BKN,1000,OVC,1400,,,,,MVFR,,,,,,0.05,,,,,,METAR,698.0
KGGG 230753Z AUTO 17011G17KT 10SM FEW032 21/16 A2990 RMK AO2 SLP120 T02060161,KGGG,2022-10-23T07:53:00Z,32.38,-94.72,20.6,16.1,170,11,17,10.0,29.899607,1012.0,,TRUE,TRUE,,,,,,,FEW,3200,,,,,,,VFR,,,,,,,,,,,,METAR,107.0
KGFL 230753Z AUTO 00000KT 10SM CLR 01/00 A3030 RMK AO2 SLP265 T00110000,KGFL,2022-10-23T07:53:00Z,43.33,-73.62,1.1,0.0,0,0,,10.0,30.301182,1026.5,,TRUE,TRUE,,,,,,,CLR,,,,,,,,VFR,,,,,,,,,,,,METAR,99.0
KGFK 230753Z AUTO 01008KT 10SM CLR 05/03 A2955 RMK AO2 SLP012 T00500028 $,KGFK,2022-10-23T07:53:00Z,47.95,-97.18,5.0,2.8,10,8,,10.0,29.551182,1001.2,,TRUE,TRUE,TRUE,,,,,,CLR,,,,,,,,VFR,,,,,,,,,,,,METAR,256.0
KGEZ 230753Z AUTO 14007KT 10SM CLR 16/11 A3006 RMK AO2 SLP174 T01610106,KGEZ,2022-10-23T07:53:00Z,39.58,-85.8,16.1,10.6,140,7,,10.0,30.059055,1017.4,,TRUE,TRUE,,,,,,,CLR,,,,,,,,VFR,,,,,,,,,,,,METAR,245.0
KGEY 230753Z AUTO 31008KT 10SM SCT060 OVC080 08/05 A2940 RMK AO2 RAB06E31 SLP945 P0000 T00780050,KGEY,2022-10-23T07:53:00Z,44.52,-108.08,7.8,5.0,310,8,,10.0,29.40059,994.5,,TRUE,TRUE,,,,,,,SCT,6000,OVC,8000,,,,,VFR,,,,,,0.005,,,,,,METAR,1191.0
KGEG 230753Z 25005KT 10SM FEW065 SCT140 01/M03 A2973 RMK AO2 SLP077 T00061033 400890006,KGEG,2022-10-23T07:53:00Z,47.62,-117.53,0.6,-3.3,250,5,,10.0,29.731298,1007.7,,,TRUE,,,,,,,FEW,6500,SCT,14000,,,,,VFR,,,,8.9,0.6,,,,,,,METAR,718.0
KGCC 230753Z AUTO 32004KT 10SM FEW070 07/02 A2940 RMK AO2 SLP925 T00720017,KGCC,2022-10-23T07:53:00Z,44.33,-105.55,7.2,1.7,320,4,,10.0,29.40059,992.5,,TRUE,TRUE,,,,,,,FEW,7000,,,,,,,VFR,,,,,,,,,,,,METAR,1328.0
KGAG 230753Z AUTO 20016KT 10SM CLR 23/11 A2956 RMK AO2 SLP978 T02280106,KGAG,2022-10-23T07:53:00Z,36.3,-99.77,22.8,10.6,200,16,,10.0,29.56004,997.8,,TRUE,TRUE,,,,,,,CLR,,,,,,,,VFR,,,,,,,,,,,,METAR,670.0
KFYV 230753Z AUTO 18012KT 10SM CLR 21/13 A2980 RMK AO2 SLP075 T02110133,KFYV,2022-10-23T07:53:00Z,36.02,-94.17,21.1,13.3,180,12,,10.0,29.799213,1007.5,,TRUE,TRUE,,,,,,,CLR,,,,,,,,VFR,,,,,,,,,,,,METAR,377.0
KFXE 230753Z 00000KT 10SM CLR 20/19 A2999 RMK AO2 SLP157 T02000194 $,KFXE,2022-10-23T07:53:00Z,26.2,-80.18,20.0,19.4,0,0,,10.0,29.991142,1015.7,,,TRUE,TRUE,,,,,,CLR,,,,,,,,VFR,,,,,,,,,,,,METAR,3.0
KFWN 230753Z AUTO 00000KT 8SM CLR 03/02 A3030 RMK AO2 SLP262 T00280022 $,KFWN,2022-10-23T07:53:00Z,41.2,-74.63,2.8,2.2,0,0,,8.0,30.301182,1026.2,,TRUE,TRUE,TRUE,,,,,,CLR,,,,,,,,VFR,,,,,,,,,,,,METAR,129.0
KFVE 230753Z AUTO 18004KT 10SM CLR 08/03 A3027 RMK AO2 SLP250 T00780033,KFVE,2022-10-23T07:53:00Z,47.28,-68.3,7.8,3.3,180,4,,10.0,30.268702,1025.0,,TRUE,TRUE,,,,,,,CLR,,,,,,,,VFR,,,,,,,,,,,,METAR,299.0
KFTY 230753Z 00000KT 10SM CLR 06/04 A3018 RMK AO2 SLP218 T00560044,KFTY,2022-10-23T07:53:00Z,33.78,-84.52,5.6,4.4,0,0,,10.0,30.180119,1021.8,,,TRUE,,,,,,,CLR,,,,,,,,VFR,,,,,,,,,,,,METAR,245.0
KFTW 230753Z 17015G22KT 10SM CLR 22/17 A2978 RMK AO2 SLP076 T02170172 $,KFTW,2022-10-23T07:53:00Z,32.83,-97.37,21.7,17.2,170,15,22,10.0,29.778543,1007.6,,,TRUE,TRUE,,,,,,CLR,,,,,,,,VFR,,,,,,,,,,,,METAR,213.0
KFST 230753Z AUTO 16007KT 10SM CLR 18/13 A2978 RMK AO2 SLP038 T01780133 $,KFST,2022-10-23T07:53:00Z,30.92,-102.92,17.8,13.3,160,7,,10.0,29.778543,1003.8,,TRUE,TRUE,TRUE,,,,,,CLR,,,,,,,,VFR,,,,,,,,,,,,METAR,917.0
KFSM 230753Z AUTO 00000KT 10SM CLR 22/14 A2981 RMK AO2 SLP088 T02220144,KFSM,2022-10-23T07:53:00Z,35.33,-94.37,22.2,14.4,0,0,,10.0,29.811024,1008.8,,TRUE,TRUE,,,,,,,CLR,,,,,,,,VFR,,,,,,,,,,,,METAR,136.0
KFRG 230753Z AUTO 02004KT 10SM OVC044 14/10 A3027 RMK AO2 SLP250 T01390100 $,KFRG,2022-10-23T07:53:00Z,40.73,-73.42,13.9,10.0,20,4,,10.0,30.268702,1025.0,,TRUE,TRUE,TRUE,,,,,,OVC,4400,,,,,,,VFR,,,,,,,,,,,,METAR,23.0
KFPR 230753Z AUTO 29004KT 6SM BR CLR 18/17 A3002 RMK AO2 SLP164 T01830172,KFPR,2022-10-23T07:53:00Z,27.5,-80.38,18.3,17.2,290,4,,6.0,30.02067,1016.4,,TRUE,TRUE,,,,,,BR,CLR,,,,,,,,VFR,,,,,,,,,,,,METAR,7.0
KFOK 230753Z AUTO 04007KT 10SM BKN046 OVC120 14/13 A3028 RMK AO2 SLP254 T01440128 $,KFOK,2022-10-23T07:53:00Z,40.85,-72.62,14.4,12.8,40,7,,10.0,30.280512,1025.4,,TRUE,TRUE,TRUE,,,,,,BKN,4600,OVC,12000,,,,,VFR,,,,,,,,,,,,METAR,13.0
KFOE 230753Z AUTO 10SM CLR 21/15 A2954 RMK AO2 SLP993 T02110150 $,KFOE,2022-10-23T07:53:00Z,38.93,-95.65,21.1,15.0,,,,10.0,29.53937,999.3,,TRUE,TRUE,TRUE,,,,,,CLR,,,,,,,,VFR,,,,,,,,,,,,METAR,315.0
KFNT 230753Z AUTO 17005KT 10SM CLR 13/09 A3007 RMK AO2 SLP181 T01280089,KFNT,2022-10-23T07:53:00Z,42.97,-83.75,12.8,8.9,170,5,,10.0,30.070866,1018.1,,TRUE,TRUE,,,,,,,CLR,,,,,,,,VFR,,,,,,,,,,,,METAR,235.0
KFNB 230753Z AUTO 14011KT 10SM CLR 19/13 A2951 RMK AO2 SLP985 T01940133,KFNB,2022-10-23T07:53:00Z,40.07,-95.58,19.4,13.3,140,11,,10.0,29.509842,998.5,,TRUE,TRUE,,,,,,,CLR,,,,,,,,VFR,,,,,,,,,,,,METAR,301.0
KFMY 230753Z AUTO 05005KT 10SM CLR 19/18 A3002 RMK AO2 SLP169 T01940183,KFMY,2022-10-23T07:53:00Z,26.58,-81.87,19.4,18.3,50,5,,10.0,30.02067,1016.9,,TRUE,TRUE,,,,,,,CLR,,,,,,,,VFR,,,,,,,,,,,,METAR,4.0
KFMN 230753Z AUTO 22011KT 10SM CLR 16/03 A2963 RMK AO2 SLP980 T01560033,KFMN,2022-10-23T07:53:00Z,36.75,-108.23,15.6,3.3,220,11,,10.0,29.630905,998.0,,TRUE,TRUE,,,,,,,CLR,,,,,,,,VFR,,,,,,,,,,,,METAR,1677.0
KFLO 230753Z AUTO 01003KT 10SM CLR 12/09 A3013 RMK AO2 SLP202 T01220094,KFLO,2022-10-23T07:53:00Z,34.18,-79.73,12.2,9.4,10,3,,10.0,30.129921,1020.2,,TRUE,TRUE,,,,,,,CLR,,,,,,,,VFR,,,,,,,,,,,,METAR,43.0
KFLL 230753Z 34005KT 10SM FEW025 21/19 A2998 RMK AO2 SLP153 T02060189 $,KFLL,2022-10-23T07:53:00Z,26.07,-80.15,20.6,18.9,340,5,,10.0,29.97933,1015.3,,,TRUE,TRUE,,,,,,FEW,2500,,,,,,,VFR,,,,,,,,,,,,METAR,1.0
KFLD 230753Z AUTO 18010KT 10SM CLR 16/11 A2986 RMK AO2 SLP108 T01610106,KFLD,2022-10-23T07:53:00Z,43.77,-88.48,16.1,10.6,180,10,,10.0,29.861221,1010.8,,TRUE,TRUE,,,,,,,CLR,,,,,,,,VFR,,,,,,,,,,,,METAR,242.0
KFHR 230753Z AUTO 00000KT 6SM BR CLR 04/04 A2993 RMK AO2 SLP135 T00440039 401330039,KFHR,2022-10-23T07:53:00Z,48.52,-123.03,4.4,3.9,0,0,,6.0,29.929134,1013.5,,TRUE,TRUE,,,,,,BR,CLR,,,,,,,,VFR,,,,13.3,3.9,,,,,,,METAR,34.0
KFFT 230753Z AUTO 00000KT 10SM CLR 13/08 A3012 RMK AO2 SLP193 T01280078,KFFT,2022-10-23T07:53:00Z,38.18,-84.9,12.8,7.8,0,0,,10.0,30.121063,1019.3,,TRUE,TRUE,,,,,,,CLR,,,,,,,,VFR,,,,,,,,,,,,METAR,235.0
KFFC 230753Z AUTO 00000KT 10SM CLR 05/03 A3018 RMK AO2 SLP221 T00500033,KFFC,2022-10-23T07:53:00Z,33.35,-84.57,5.0,3.3,0,0,,10.0,30.180119,1022.1,,TRUE,TRUE,,,,,,,CLR,,,,,,,,VFR,,,,,,,,,,,,METAR,242.0
KFDY 230753Z AUTO 15007KT 10SM CLR 13/09 A3010 RMK AO2 SLP186 T01330089,KFDY,2022-10-23T07:53:00Z,41.02,-83.67,13.3,8.9,150,7,,10.0,30.100393,1018.6,,TRUE,TRUE,,,,,,,CLR,,,,,,,,VFR,,,,,,,,,,,,METAR,247.0
KFDR 230753Z AUTO 18012KT 10SM CLR 22/11 A2964 RMK AO2 SLP014 T02220106,KFDR,2022-10-23T07:53:00Z,34.35,-98.98,22.2,10.6,180,12,,10.0,29.639763,1001.4,,TRUE,TRUE,,,,,,,CLR,,,,,,,,VFR,,,,,,,,,,,,METAR,378.0
KFCM 230753Z AUTO 13008KT 10SM CLR 16/07 A2961 RMK AO2 SLP021 T01560072 $,KFCM,2022-10-23T07:53:00Z,44.83,-93.47,15.6,7.2,130,8,,10.0,29.610237,1002.1,,TRUE,TRUE,TRUE,,,,,,CLR,,,,,,,,VFR,,,,,,,,,,,,METAR,276.0
KFAY 230753Z 02008KT 10SM CLR 13/11 A3015 RMK AO2 SLP203 T01330106 $,KFAY,2022-10-23T07:53:00Z,34.98,-78.88,13.3,10.6,20,8,,10.0,30.15059,1020.3,,,TRUE,TRUE,,,,,,CLR,,,,,,,,VFR,,,,,,,,,,,,METAR,57.0
KFAT 230753Z 29010KT 10SM FEW200 14/06 A2978 RMK AO2 SLP083 T01390056 402440139,KFAT,2022-10-23T07:53:00Z,36.78,-119.72,13.9,5.6,290,10,,10.0,29.778543,1008.3,,,TRUE,,,,,,,FEW,20000,,,,,,,VFR,,,,24.4,13.9,,,,,,,METAR,102.0
KEYW 230753Z AUTO 04007KT 10SM CLR 23/20 A2998 RMK AO2 SLP151 T02330200,KEYW,2022-10-23T07:53:00Z,24.55,-81.75,23.3,20.0,40,7,,10.0,29.97933,1015.1,,TRUE,TRUE,,,,,,,CLR,,,,,,,,VFR,,,,,,,,,,,,METAR,1.0
KEYE 230753Z AUTO 00000KT 10SM CLR 13/10 A3004 RMK AO2 SLP167 T01330100,KEYE,2022-10-23T07:53:00Z,39.83,-86.3,13.3,10.0,0,0,,10.0,30.041338,1016.7,,TRUE,TRUE,,,,,,,CLR,,,,,,,,VFR,,,,,,,,,,,,METAR,248.0
KEWB 230753Z AUTO 00000KT 10SM CLR 09/09 A3029 RMK AO2 SLP258 T00940094 $,KEWB,2022-10-23T07:53:00Z,41.68,-70.95,9.4,9.4,0,0,,10.0,30.28937,1025.8,,TRUE,TRUE,TRUE,,,,,,CLR,,,,,,,,VFR,,,,,,,,,,,,METAR,22.0
KEVW 230753Z AUTO 28003KT 10SM OVC037 M01/M03 A2956 RMK AO2 SLP975 T10111033 $,KEVW,2022-10-23T07:53:00Z,41.27,-111.03,-1.1,-3.3,280,3,,10.0,29.56004,997.5,,TRUE,TRUE,TRUE,,,,,,OVC,3700,,,,,,,VFR,,,,,,,,,,,,METAR,2178.0
KESF 230753Z AUTO 15004KT 10SM CLR 17/15 A3000 RMK AO2 SLP155 T01720150,KESF,2022-10-23T07:53:00Z,31.4,-92.28,17.2,15.0,150,4,,10.0,30.0,1015.5,,TRUE,TRUE,,,,,,,CLR,,,,,,,,VFR,,,,,,,,,,,,METAR,27.0
KEQY 230753Z AUTO 04004KT 10SM CLR 10/05 A3016 RMK AO2 SLP221 T01000050,KEQY,2022-10-23T07:53:00Z,35.02,-80.62,10.0,5.0,40,4,,10.0,30.159449,1022.1,,TRUE,TRUE,,,,,,,CLR,,,,,,,,VFR,,,,,,,,,,,,METAR,205.0
KEPH 230753Z AUTO 32008KT 10SM CLR 06/M03 A2978 RMK AO2 SLP087 T00611028 401500044,KEPH,2022-10-23T07:53:00Z,47.3,-119.52,6.1,-2.8,320,8,,10.0,29.778543,1008.7,,TRUE,TRUE,,,,,,,CLR,,,,,,,,VFR,,,,15.0,4.4,,,,,,,METAR,382.0
KENW 230753Z AUTO 19009KT 10SM CLR 18/12 A2990 RMK AO2 SLP123 T01780117,KENW,2022-10-23T07:53:00Z,42.6,-87.93,17.8,11.7,190,9,,10.0,29.899607,1012.3,,TRUE,TRUE,,,,,,,CLR,,,,,,,,VFR,,,,,,,,,,,,METAR,222.0
KEMP 230753Z AUTO 17017G26KT 10SM CLR 21/13 A2953 RMK AO2 PK WND 15029/0739 SLP990 T02110133,KEMP,2022-10-23T07:53:00Z,38.33,-96.2,21.1,13.3,170,17,26,10.0,29.530512,999.0,,TRUE,TRUE,,,,,,,CLR,,,,,,,,VFR,,,,,,,,,,,,METAR,366.0
KELN 230753Z AUTO 31011KT 10SM BKN080 06/M01 A2981 RMK AO2 SLP100 T00561011 401330056 $,KELN,2022-10-23T07:53:00Z,47.03,-120.53,5.6,-1.1,310,11,,10.0,29.811024,1010.0,,TRUE,TRUE,TRUE,,,,,,BKN,8000,,,,,,,VFR,,,,13.3,5.6,,,,,,,METAR,532.0
KELM 230753Z AUTO 00000KT 9SM CLR 01/00 A3027 RMK AO2 SLP251 T00060000,KELM,2022-10-23T07:53:00Z,42.15,-76.9,0.6,0.0,0,0,,9.0,30.268702,1025.1,,TRUE,TRUE,,,,,,,CLR,,,,,,,,VFR,,,,,,,,,,,,METAR,287.0
KELD 230753Z AUTO 17007KT 10SM CLR 19/16 A2997 RMK AO2 SLP146 T01890156,KELD,2022-10-23T07:53:00Z,33.22,-92.82,18.9,15.6,170,7,,10.0,29.970472,1014.6,,TRUE,TRUE,,,,,,,CLR,,,,,,,,VFR,,,,,,,,,,,,METAR,76.0
KEET 230753Z AUTO 00000KT 8SM CLR 10/08 A3014 RMK AO2 SLP202 T01000083,KEET,2022-10-23T07:53:00Z,33.18,-86.78,10.0,8.3,0,0,,8.0,30.138779,1020.2,,TRUE,TRUE,,,,,,,CLR,,,,,,,,VFR,,,,,,,,,,,,METAR,172.0
KEEO 230753Z AUTO 01008KT 9SM -RA BKN020 BKN027 OVC040 03/02 A2946 RMK AO2 SLP921 P0008 T00330022,KEEO,2022-10-23T07:53:00Z,40.05,-107.88,3.3,2.2,10,8,,9.0,29.459646,992.1,,TRUE,TRUE,,,,,,-RA,BKN,2000,BKN,2700,OVC,4000,,,MVFR,,,,,,0.08,,,,,,METAR,1957.0
KECP 230753Z AUTO 00000KT 10SM CLR 09/07 A3011 RMK AO1 SLP207 T00940067,KECP,2022-10-23T07:53:00Z,30.35,-85.8,9.4,6.7,0,0,,10.0,30.109253,1020.7,,TRUE,TRUE,,,,,,,CLR,,,,,,,,VFR,,,,,,,,,,,,METAR,17.0
KDXR 230753Z AUTO 00000KT 9SM BKN027 08/06 A3031 RMK AO2 SLP263 T00780056,KDXR,2022-10-23T07:53:00Z,41.37,-73.48,7.8,5.6,0,0,,9.0,30.31004,1026.3,,TRUE,TRUE,,,,,,,BKN,2700,,,,,,,MVFR,,,,,,,,,,,,METAR,138.0
KDWH 230753Z AUTO 18003KT 10SM CLR 21/18 A2990 RMK AO2 SLP124 T02110178,KDWH,2022-10-23T07:53:00Z,30.07,-95.55,21.1,17.8,180,3,,10.0,29.899607,1012.4,,TRUE,TRUE,,,,,,,CLR,,,,,,,,VFR,,,,,,,,,,,,METAR,46.0
KDVT 230753Z AUTO 22012KT 10SM CLR 21/13 A2968 RMK AO2 SLP029 T02060128,KDVT,2022-10-23T07:53:00Z,33.68,-112.07,20.6,12.8,220,12,,10.0,29.681103,1002.9,,TRUE,TRUE,,,,,,,CLR,,,,,,,,VFR,,,,,,,,,,,,METAR,454.0
KDUJ 230753Z AUTO 08003KT 10SM CLR 09/01 A3023 RMK AO2 SLP232 T00890011,KDUJ,2022-10-23T07:53:00Z,41.17,-78.9,8.9,1.1,80,3,,10.0,30.230314,1023.2,,TRUE,TRUE,,,,,,,CLR,,,,,,,,VFR,,,,,,,,,,,,METAR,552.0
KDTW 230753Z 16004KT 10SM SCT230 12/08 A3009 RMK AO2 SLP189 T01220083 $,KDTW,2022-10-23T07:53:00Z,42.23,-83.33,12.2,8.3,160,4,,10.0,30.088583,1018.9,,,TRUE,TRUE,,,,,,SCT,23000,,,,,,,VFR,,,,,,,,,,,,METAR,192.0
KDTS 230753Z AUTO 00000KT 10SM CLR 16/09 A3011 RMK AO2 SLP194 T01560094,KDTS,2022-10-23T07:53:00Z,30.4,-86.47,15.6,9.4,0,0,,10.0,30.109253,1019.4,,TRUE,TRUE,,,,,,,CLR,,,,,,,,VFR,,,,,,,,,,,,METAR,5.0
KDTO 230753Z AUTO 16011KT 10SM CLR 22/16 A2979 RMK AO2 SLP078 T02170161,KDTO,2022-10-23T07:53:00Z,33.2,-97.2,21.7,16.1,160,11,,10.0,29.790354,1007.8,,TRUE,TRUE,,,,,,,CLR,,,,,,,,VFR,,,,,,,,,,,,METAR,199.0
KDTN 230753Z AUTO 16009KT 10SM BKN040 21/16 A2995 RMK AO2 SLP138 T02060156,KDTN,2022-10-23T07:53:00Z,32.55,-93.75,20.6,15.6,160,9,,10.0,29.949802,1013.8,,TRUE,TRUE,,,,,,,BKN,4000,,,,,,,VFR,,,,,,,,,,,,METAR,53.0
KDRT 230753Z AUTO 09009KT 10SM CLR 19/14 A2981 RMK AO2 SLP086 T01890139,KDRT,2022-10-23T07:53:00Z,29.37,-100.92,18.9,13.9,90,9,,10.0,29.811024,1008.6,,TRUE,TRUE,,,,,,,CLR,,,,,,,,VFR,,,,,,,,,,,,METAR,303.0
KDRO 230753Z AUTO 20007KT 10SM FEW065 12/03 A2970 RMK AO2 SLP988 T01170033,KDRO,2022-10-23T07:53:00Z,37.15,-107.77,11.7,3.3,200,7,,10.0,29.698818,998.8,,TRUE,TRUE,,,,,,,FEW,6500,,,,,,,VFR,,,,,,,,,,,,METAR,2021.0
KDRA 230753Z AUTO 02007KT 10SM OVC090 11/03 A2969 RMK AO2 SLP018 T01110028 402560106,KDRA,2022-10-23T07:53:00Z,36.62,-116.03,11.1,2.8,20,7,,10.0,29.68996,1001.8,,TRUE,TRUE,,,,,,,OVC,9000,,,,,,,VFR,,,,25.6,10.6,,,,,,,METAR,988.0
KDNL 230753Z AUTO 33003KT 10SM CLR 11/03 A3016 RMK AO2 SLP209 T01110028,KDNL,2022-10-23T07:53:00Z,33.47,-82.03,11.1,2.8,330,3,,10.0,30.159449,1020.9,,TRUE,TRUE,,,,,,,CLR,,,,,,,,VFR,,,,,,,,,,,,METAR,126.0
KDMO 230753Z AUTO 16013KT 10SM CLR 20/12 A2969 RMK AO2 SLP046 T02000122,KDMO,2022-10-23T07:53:00Z,38.72,-93.17,20.0,12.2,160,13,,10.0,29.68996,1004.6,,TRUE,TRUE,,,,,,,CLR,,,,,,,,VFR,,,,,,,,,,,,METAR,271.0
KDMN 230753Z AUTO 22010KT 10SM CLR 19/11 A2981 RMK AO2 SLP022 T01890111,KDMN,2022-10-23T07:53:00Z,32.27,-107.72,18.9,11.1,220,10,,10.0,29.811024,1002.2,,TRUE,TRUE,,,,,,,CLR,,,,,,,,VFR,,,,,,,,,,,,METAR,1310.0
KDLS 230753Z AUTO 29006KT 10SM CLR 09/03 A2988 RMK AO2 SLP120 T00940028 401560083,KDLS,2022-10-23T07:53:00Z,45.62,-121.17,9.4,2.8,290,6,,10.0,29.878937,1012.0,,TRUE,TRUE,,,,,,,CLR,,,,,,,,VFR,,,,15.6,8.3,,,,,,,METAR,71.0
KDKK 230753Z AUTO 17011KT 10SM CLR 16/02 A3018 RMK AO2 SLP217 T01610022,KDKK,2022-10-23T07:53:00Z,42.5,-79.28,16.1,2.2,170,11,,10.0,30.180119,1021.7,,TRUE,TRUE,,,,,,,CLR,,,,,,,,VFR,,,,,,,,,,,,METAR,205.0
KDHT 230753Z AUTO 22011KT 10SM CLR 16/10 A2963 RMK AO2 SLP979 T01560100,KDHT,2022-10-23T07:53:00Z,36.02,-102.55,15.6,10.0,220,11,,10.0,29.630905,997.9,,TRUE,TRUE,,,,,,,CLR,,,,,,,,VFR,,,,,,,,,,,,METAR,1217.0
KDHN 230753Z AUTO 08003KT 10SM CLR 08/06 A3016 RMK AO2 SLP211 T00780061,KDHN,2022-10-23T07:53:00Z,31.32,-85.45,7.8,6.1,80,3,,10.0,30.159449,1021.1,,TRUE,TRUE,,,,,,,CLR,,,,,,,,VFR,,,,,,,,,,,,METAR,113.0
KDGW 230753Z AUTO 31007KT 10SM OVC110 13/01 A2939 RMK AO2 SLP902 T01280011,KDGW,2022-10-23T07:53:00Z,42.8,-105.38,12.8,1.1,310,7,,10.0,29.388779,990.2,,TRUE,TRUE,,,,,,,OVC,11000,,,,,,,VFR,,,,,,,,,,,,METAR,1503.0
KDFW 230753Z 18017KT 10SM FEW020 FEW250 22/17 A2978 RMK AO2 PK WND 18026/0657 SLP076 T02170167,KDFW,2022-10-23T07:53:00Z,32.9,-97.02,21.7,16.7,180,17,,10.0,29.778543,1007.6,,,TRUE,,,,,,,FEW,2000,FEW,25000,,,,,VFR,,,,,,,,,,,,METAR,168.0
KDFI 230753Z AUTO 15004KT 10SM CLR 14/09 A3008 RMK AO2 SLP183 T01440089,KDFI,2022-10-23T07:53:00Z,41.33,-84.43,14.4,8.9,150,4,,10.0,30.079725,1018.3,,TRUE,TRUE,,,,,,,CLR,,,,,,,,VFR,,,,,,,,,,,,METAR,215.0
KDEW 230753Z AUTO 05004KT 10SM CLR M01/M02 A2974 RMK AO2 SLP082 T10061022 401001011,KDEW,2022-10-23T07:53:00Z,47.97,-117.43,-0.6,-2.2,50,4,,10.0,29.740158,1008.2,,TRUE,TRUE,,,,,,,CLR,,,,,,,,VFR,,,,10.0,-1.1,,,,,,,METAR,672.0
KDET 230753Z 18006KT 9SM CLR 16/09 A3010 RMK AO2 SLP189 T01560089,KDET,2022-10-23T07:53:00Z,42.4,-83.02,15.6,8.9,180,6,,9.0,30.100393,1018.9,,,TRUE,,,,,,,CLR,,,,,,,,VFR,,,,,,,,,,,,METAR,190.0
KDEQ 230753Z AUTO VRB04KT 10SM 22/16 A2987 RMK AO2 SLP110 T02170156 $,KDEQ,2022-10-23T07:53:00Z,34.05,-94.4,21.7,15.6,0,4,,10.0,29.870079,1011.0,,TRUE,TRUE,TRUE,,,,,,,,,,,,,,,,,,,,,,,,,,METAR,107.0
KDEN 230753Z 18017KT 10SM FEW200 16/M04 A2938 RMK AO2 SLP870 T01611039,KDEN,2022-10-23T07:53:00Z,39.85,-104.65,16.1,-3.9,180,17,,10.0,29.379921,987.0,,,TRUE,,,,,,,FEW,20000,,,,,,,VFR,,,,,,,,,,,,METAR,1656.0
KDCU 230753Z AUTO 13004KT 10SM CLR 13/11 A3012 RMK AO2 SLP195 T01280106,KDCU,2022-10-23T07:53:00Z,34.65,-86.95,12.8,10.6,130,4,,10.0,30.121063,1019.5,,TRUE,TRUE,,,,,,,CLR,,,,,,,,VFR,,,,,,,,,,,,METAR,180.0
KDBQ 230753Z AUTO 15012KT 10SM CLR 16/12 A2978 RMK AO2 SLP080 T01610117,KDBQ,2022-10-23T07:53:00Z,42.4,-90.7,16.1,11.7,150,12,,10.0,29.778543,1008.0,,TRUE,TRUE,,,,,,,CLR,,,,,,,,VFR,,,,,,,,,,,,METAR,317.0
KDAN 230753Z AUTO 00000KT 10SM CLR 04/03 A3020 RMK AO2 SLP220 T00440028,KDAN,2022-10-23T07:53:00Z,36.57,-79.33,4.4,2.8,0,0,,10.0,30.200787,1022.0,,TRUE,TRUE,,,,,,,CLR,,,,,,,,VFR,,,,,,,,,,,,METAR,170.0
KDAL 230753Z 18013G22KT 10SM FEW015 FEW250 22/16 A2981 RMK AO2 SLP088 T02220161,KDAL,2022-10-23T07:53:00Z,32.85,-96.85,22.2,16.1,180,13,22,10.0,29.811024,1008.8,,,TRUE,,,,,,,FEW,1500,FEW,25000,,,,,VFR,,,,,,,,,,,,METAR,148.0
KDAB 230753Z 32005KT 10SM CLR 16/14 A3006 RMK AO2 SLP179 T01610139,KDAB,2022-10-23T07:53:00Z,29.18,-81.07,16.1,13.9,320,5,,10.0,30.059055,1017.9,,,TRUE,,,,,,,CLR,,,,,,,,VFR,,,,,,,,,,,,METAR,8.0
KCYS 230753Z AUTO 00000KT 10SM BKN120 09/M03 A2940 RMK AO2 SLP880 T00941028,KCYS,2022-10-23T07:53:00Z,41.15,-104.8,9.4,-2.8,0,0,,10.0,29.40059,988.0,,TRUE,TRUE,,,,,,,BKN,12000,,,,,,,VFR,,,,,,,,,,,,METAR,1868.0
KCXO 230753Z AUTO 14003KT 10SM CLR 18/18 A2991 RMK AO2 SLP127 T01830178,KCXO,2022-10-23T07:53:00Z,30.35,-95.42,18.3,17.8,140,3,,10.0,29.911417,1012.7,,TRUE,TRUE,,,,,,,CLR,,,,,,,,VFR,,,,,,,,,,,,METAR,69.0
KCUT 230753Z AUTO 31005KT 10SM FEW120 11/M03 A2942 RMK AO2 SLP907 T01061033,KCUT,2022-10-23T07:53:00Z,43.73,-103.62,10.6,-3.3,310,5,,10.0,29.421259,990.7,,TRUE,TRUE,,,,,,,FEW,12000,,,,,,,VFR,,,,,,,,,,,,METAR,1700.0
KCUB 230753Z AUTO 00000KT 10SM CLR 09/07 A3016 RMK AO2 SLP212 T00940072,KCUB,2022-10-23T07:53:00Z,33.97,-81.0,9.4,7.2,0,0,,10.0,30.159449,1021.2,,TRUE,TRUE,,,,,,,CLR,,,,,,,,VFR,,,,,,,,,,,,METAR,55.0
KCSV 230753Z AUTO 00000KT 10SM CLR 11/06 A3017 RMK AO2 SLP208 T01110056,KCSV,2022-10-23T07:53:00Z,35.95,-85.08,11.1,5.6,0,0,,10.0,30.171259,1020.8,,TRUE,TRUE,,,,,,,CLR,,,,,,,,VFR,,,,,,,,,,,,METAR,569.0
KCSM 230753Z AUTO 20018KT 10SM CLR 21/12 A2963 RMK AO2 SLP006 T02110117,KCSM,2022-10-23T07:53:00Z,35.35,-99.2,21.1,11.7,200,18,,10.0,29.630905,1000.6,,TRUE,TRUE,,,,,,,CLR,,,,,,,,VFR,,,,,,,,,,,,METAR,586.0
KCRS 230753Z AUTO 16012KT 10SM CLR 22/15 A2986 RMK AO2 SLP108 T02170150 $,KCRS,2022-10-23T07:53:00Z,32.03,-96.4,21.7,15.0,160,12,,10.0,29.861221,1010.8,,TRUE,TRUE,TRUE,,,,,,CLR,,,,,,,,VFR,,,,,,,,,,,,METAR,136.0
KCRG 230753Z AUTO 32004KT 10SM CLR 14/12 A3009 RMK AO2 SLP190 T01440117,KCRG,2022-10-23T07:53:00Z,30.33,-81.52,14.4,11.7,320,4,,10.0,30.088583,1019.0,,TRUE,TRUE,,,,,,,CLR,,,,,,,,VFR,,,,,,,,,,,,METAR,12.0
KCRE 230753Z AUTO 01006KT 10SM CLR 14/11 A3010 RMK AO1 SLP193 T01390111,KCRE,2022-10-23T07:53:00Z,33.82,-78.72,13.9,11.1,10,6,,10.0,30.100393,1019.3,,TRUE,TRUE,,,,,,,CLR,,,,,,,,VFR,,,,,,,,,,,,METAR,9.0
KCQC 230753Z AUTO 22022G32KT 10SM CLR 11/09 A2983 RMK AO2 PK WND 22035/0739 SLP018 T01110089,KCQC,2022-10-23T07:53:00Z,35.0,-105.67,11.1,8.9,220,22,32,10.0,29.828741,1001.8,,TRUE,TRUE,,,,,,,CLR,,,,,,,,VFR,,,,,,,,,,,,METAR,2163.0
KCPS 230753Z AUTO 15010KT 10SM FEW090 18/12 A2986 RMK AO2 SLP108 T01830117 $,KCPS,2022-10-23T07:53:00Z,38.53,-90.15,18.3,11.7,150,10,,10.0,29.861221,1010.8,,TRUE,TRUE,TRUE,,,,,,FEW,9000,,,,,,,VFR,,,,,,,,,,,,METAR,125.0
KCPR 230753Z AUTO 17012KT 10SM OVC070 09/01 A2942 RMK AO2 SLP917 T00890011,KCPR,2022-10-23T07:53:00Z,42.9,-106.47,8.9,1.1,170,12,,10.0,29.421259,991.7,,TRUE,TRUE,,,,,,,OVC,7000,,,,,,,VFR,,,,,,,,,,,,METAR,1623.0
KCOT 230753Z AUTO 15007KT 8SM CLR 22/18 A2984 RMK AO2 SLP096 T02220183,KCOT,2022-10-23T07:53:00Z,28.45,-99.22,22.2,18.3,150,7,,8.0,29.840551,1009.6,,TRUE,TRUE,,,,,,,CLR,,,,,,,,VFR,,,,,,,,,,,,METAR,144.0
KCNO 230753Z AUTO 26004KT 10SM BKN016 BKN022 16/13 A2980 RMK AO2 SLP087 T01610133 402330156,KCNO,2022-10-23T07:53:00Z,33.98,-117.62,16.1,13.3,260,4,,10.0,29.799213,1008.7,,TRUE,TRUE,,,,,,,BKN,1600,BKN,2200,,,,,MVFR,,,,23.3,15.6,,,,,,,METAR,191.0
KCNM 230753Z AUTO 21010KT 10SM SCT120 18/11 A2973 RMK AO2 SLP018 T01780106,KCNM,2022-10-23T07:53:00Z,32.33,-104.25,17.8,10.6,210,10,,10.0,29.731298,1001.8,,TRUE,TRUE,,,,,,,SCT,12000,,,,,,,VFR,,,,,,,,,,,,METAR,993.0
KCMX 230753Z AUTO 13005KT 10SM CLR 12/08 A2977 RMK AO2 SLP082 T01170083,KCMX,2022-10-23T07:53:00Z,47.17,-88.48,11.7,8.3,130,5,,10.0,29.769686,1008.2,,TRUE,TRUE,,,,,,,CLR,,,,,,,,VFR,,,,,,,,,,,,METAR,326.0
KCMI 230753Z AUTO 14012KT 10SM CLR 16/11 A2994 RMK AO2 SLP134 T01560106,KCMI,2022-10-23T07:53:00Z,40.03,-88.27,15.6,10.6,140,12,,10.0,29.940945,1013.4,,TRUE,TRUE,,,,,,,CLR,,,,,,,,VFR,,,,,,,,,,,,METAR,227.0
KCLM 230753Z AUTO 25010KT 10SM OVC050 08/03 A2993 RMK AO2 SLP136 T00830028 401330056,KCLM,2022-10-23T07:53:00Z,48.12,-123.5,8.3,2.8,250,10,,10.0,29.929134,1013.6,,TRUE,TRUE,,,,,,,OVC,5000,,,,,,,VFR,,,,13.3,5.6,,,,,,,METAR,81.0
KCLL 230753Z AUTO 17009KT 10SM SCT038 20/17 A2988 RMK AO2 SLP114 T02000167,KCLL,2022-10-23T07:53:00Z,30.58,-96.37,20.0,16.7,170,9,,10.0,29.878937,1011.4,,TRUE,TRUE,,,,,,,SCT,3800,,,,,,,VFR,,,,,,,,,,,,METAR,96.0
KCKB 230753Z AUTO 00000KT 10SM CLR 06/03 A3020 RMK AO2 SLP219 T00610028,KCKB,2022-10-23T07:53:00Z,39.3,-80.22,6.1,2.8,0,0,,10.0,30.200787,1021.9,,TRUE,TRUE,,,,,,,CLR,,,,,,,,VFR,,,,,,,,,,,,METAR,368.0
KCHO 230753Z AUTO 00000KT 10SM CLR 06/04 A3023 RMK AO2 SLP234 T00560039 $,KCHO,2022-10-23T07:53:00Z,38.13,-78.45,5.6,3.9,0,0,,10.0,30.230314,1023.4,,TRUE,TRUE,TRUE,,,,,,CLR,,,,,,,,VFR,,,,,,,,,,,,METAR,193.0
KCHA 230753Z AUTO 16003KT 7SM CLR 08/07 A3017 RMK AO2 SLP212 T00830067,KCHA,2022-10-23T07:53:00Z,35.03,-85.2,8.3,6.7,160,3,,7.0,30.171259,1021.2,,TRUE,TRUE,,,,,,,CLR,,,,,,,,VFR,,,,,,,,,,,,METAR,203.0
KCGI 230753Z AUTO 16012KT 10SM BLDU CLR 18/11 A2995 RMK AO2 SLP139 T01830111,KCGI,2022-10-23T07:53:00Z,37.23,-89.58,18.3,11.1,160,12,,10.0,29.949802,1013.9,,TRUE,TRUE,,,,,,BLDU,CLR,,,,,,,,VFR,,,,,,,,,,,,METAR,103.0
KCEZ 230753Z AUTO 19024G35KT 6SM HZ FEW041 FEW080 SCT110 15/02 A2961 RMK AO2 PK WND 17035/0706 SLP954 T01500017,KCEZ,2022-10-23T07:53:00Z,37.3,-108.63,15.0,1.7,190,24,35,6.0,29.610237,995.4,,TRUE,TRUE,,,,,,HZ,FEW,4100,FEW,8000,SCT,11000,,,VFR,,,,,,,,,,,,METAR,1801.0
KCEW 230753Z AUTO 00000KT 9SM CLR 08/07 A3013 RMK AO2 SLP203 T00780067,KCEW,2022-10-23T07:53:00Z,30.78,-86.52,7.8,6.7,0,0,,9.0,30.129921,1020.3,,TRUE,TRUE,,,,,,,CLR,,,,,,,,VFR,,,,,,,,,,,,METAR,47.0
KCDS 230753Z AUTO 10SM CLR 21/11 A2967 RMK AO2 SLP020 T02110111,KCDS,2022-10-23T07:53:00Z,34.43,-100.28,21.1,11.1,,,,10.0,29.66929,1002.0,,TRUE,TRUE,,,,,,,CLR,,,,,,,,VFR,,,,,,,,,,,,METAR,595.0
KCDR 230753Z AUTO 00000KT 10SM CLR 03/M02 A2935 RMK AO2 SLP931 T00331022,KCDR,2022-10-23T07:53:00Z,42.83,-103.1,3.3,-2.2,0,0,,10.0,29.350393,993.1,,TRUE,TRUE,,,,,,,CLR,,,,,,,,VFR,,,,,,,,,,,,METAR,1002.0
KCCR 230753Z AUTO 26006KT 10SM CLR 13/04 A2986 RMK AO2 SLP096 T01280044 402280128,KCCR,2022-10-23T07:53:00Z,38.0,-122.05,12.8,4.4,260,6,,10.0,29.861221,1009.6,,TRUE,TRUE,,,,,,,CLR,,,,,,,,VFR,,,,22.8,12.8,,,,,,,METAR,6.0
KBYI 230753Z AUTO 25012G24KT 10SM SCT014 BKN120 02/00 A2962 RMK AO2 SLP029 T00220000,KBYI,2022-10-23T07:53:00Z,42.55,-113.77,2.2,0.0,250,12,24,10.0,29.619095,1002.9,,TRUE,TRUE,,,,,,,SCT,1400,BKN,12000,,,,,VFR,,,,,,,,,,,,METAR,1263.0
KBYG 230753Z AUTO 35011KT 10SM BKN060 OVC085 07/04 A2940 RMK AO2 SLP925 T00720039,KBYG,2022-10-23T07:53:00Z,44.38,-106.72,7.2,3.9,350,11,,10.0,29.40059,992.5,,TRUE,TRUE,,,,,,,BKN,6000,OVC,8500,,,,,VFR,,,,,,,,,,,,METAR,1503.0
KBWG 230753Z AUTO 00000KT 10SM CLR 12/09 A3010 RMK AO2 SLP190 T01220094,KBWG,2022-10-23T07:53:00Z,36.97,-86.42,12.2,9.4,0,0,,10.0,30.100393,1019.0,,TRUE,TRUE,,,,,,,CLR,,,,,,,,VFR,,,,,,,,,,,,METAR,159.0
KBVY 230753Z AUTO 00000KT 7SM CLR 06/06 A3031 RMK AO2 SLP259 T00610056,KBVY,2022-10-23T07:53:00Z,42.58,-70.92,6.1,5.6,0,0,,7.0,30.31004,1025.9,,TRUE,TRUE,,,,,,,CLR,,,,,,,,VFR,,,,,,,,,,,,METAR,28.0
KBVO 230753Z AUTO 18012G20KT 10SM CLR 23/14 A2964 RMK AO2 SLP025 T02330139,KBVO,2022-10-23T07:53:00Z,36.77,-96.02,23.3,13.9,180,12,20,10.0,29.639763,1002.5,,TRUE,TRUE,,,,,,,CLR,,,,,,,,VFR,,,,,,,,,,,,METAR,210.0
KBTR 230753Z AUTO 08005KT 10SM CLR 16/14 A3004 RMK AO2 SLP170 T01560144 $,KBTR,2022-10-23T07:53:00Z,30.53,-91.15,15.6,14.4,80,5,,10.0,30.041338,1017.0,,TRUE,TRUE,TRUE,,,,,,CLR,,,,,,,,VFR,,,,,,,,,,,,METAR,20.0
KBTL 230753Z AUTO 17006KT 10SM CLR 14/10 A3004 RMK AO2 SLP170 T01390100,KBTL,2022-10-23T07:53:00Z,42.32,-85.25,13.9,10.0,170,6,,10.0,30.041338,1017.0,,TRUE,TRUE,,,,,,,CLR,,,,,,,,VFR,,,,,,,,,,,,METAR,282.0
KBRO 230753Z AUTO 16007KT 10SM CLR 23/20 A2987 RMK AO2 SLP114 T02280200,KBRO,2022-10-23T07:53:00Z,25.92,-97.42,22.8,20.0,160,7,,10.0,29.870079,1011.4,,TRUE,TRUE,,,,,,,CLR,,,,,,,,VFR,,,,,,,,,,,,METAR,6.0
KBRL 230753Z AUTO 14008KT 10SM CLR 17/12 A2977 RMK AO2 SLP076 T01670117,KBRL,2022-10-23T07:53:00Z,40.77,-91.13,16.7,11.7,140,8,,10.0,29.769686,1007.6,,TRUE,TRUE,,,,,,,CLR,,,,,,,,VFR,,,,,,,,,,,,METAR,208.0
KBRD 230753Z AUTO 00000KT 9SM CLR 06/04 A2960 RMK AO2 SLP026 T00610039,KBRD,2022-10-23T07:53:00Z,46.4,-94.13,6.1,3.9,0,0,,9.0,29.601377,1002.6,,TRUE,TRUE,,,,,,,CLR,,,,,,,,VFR,,,,,,,,,,,,METAR,372.0
KBPT 230753Z AUTO 16009KT 10SM SCT042 SCT049 21/18 A2994 RMK AO2 SLP137 T02110178,KBPT,2022-10-23T07:53:00Z,29.95,-94.03,21.1,17.8,160,9,,10.0,29.940945,1013.7,,TRUE,TRUE,,,,,,,SCT,4200,SCT,4900,,,,,VFR,,,,,,,,,,,,METAR,6.0
KBPK 230753Z AUTO 22013G22KT 10SM CLR 20/13 A2983 RMK AO2 SLP092 T02000128,KBPK,2022-10-23T07:53:00Z,36.37,-92.47,20.0,12.8,220,13,22,10.0,29.828741,1009.2,,TRUE,TRUE,,,,,,,CLR,,,,,,,,VFR,,,,,,,,,,,,METAR,279.0
KBPI 230753Z AUTO 35010KT 10SM OVC110 M01/M05 A2952 RMK AO2 SLP955 T10111050,KBPI,2022-10-23T07:53:00Z,42.58,-110.1,-1.1,-5.0,350,10,,10.0,29.518702,995.5,,TRUE,TRUE,,,,,,,OVC,11000,,,,,,,VFR,,,,,,,,,,,,METAR,2120.0
KBOI 230753Z 28008KT 10SM CLR 03/M01 A2972 RMK AO2 SLP065 T00331011,KBOI,2022-10-23T07:53:00Z,43.57,-116.23,3.3,-1.1,280,8,,10.0,29.719488,1006.5,,,TRUE,,,,,,,CLR,,,,,,,,VFR,,,,,,,,,,,,METAR,860.0
KBNO 230753Z AUTO 23004KT 10SM FEW060 SCT120 M03/M06 A2982 RMK AO2 SLP107 T10331056 400891033 $,KBNO,2022-10-23T07:53:00Z,43.6,-118.95,-3.3,-5.6,230,4,,10.0,29.819881,1010.7,,TRUE,TRUE,TRUE,,,,,,FEW,6000,SCT,12000,,,,,VFR,,,,8.9,-3.3,,,,,,,METAR,1263.0
KBNA 230753Z 18005KT 10SM CLR 14/09 A3012 RMK AO2 SLP194 T01390089 $,KBNA,2022-10-23T07:53:00Z,36.12,-86.68,13.9,8.9,180,5,,10.0,30.121063,1019.4,,,TRUE,TRUE,,,,,,CLR,,,,,,,,VFR,,,,,,,,,,,,METAR,168.0
KBMQ 230753Z AUTO 19011G19KT 10SM OVC017 21/18 A2988 RMK AO2 SLP101 T02110178,KBMQ,2022-10-23T07:53:00Z,30.73,-98.23,21.1,17.8,190,11,19,10.0,29.878937,1010.1,,TRUE,TRUE,,,,,,,OVC,1700,,,,,,,MVFR,,,,,,,,,,,,METAR,387.0
KBMG 230753Z AUTO 15005KT 10SM FEW060 15/10 A3004 RMK AO2 SLP168 T01500100,KBMG,2022-10-23T07:53:00Z,39.15,-86.62,15.0,10.0,150,5,,10.0,30.041338,1016.8,,TRUE,TRUE,,,,,,,FEW,6000,,,,,,,VFR,,,,,,,,,,,,METAR,254.0
KBKV 230753Z AUTO 00000KT 10SM CLR 16/14 A3008 RMK AO2 SLP186 T01560139,KBKV,2022-10-23T07:53:00Z,28.47,-82.45,15.6,13.9,0,0,,10.0,30.079725,1018.6,,TRUE,TRUE,,,,,,,CLR,,,,,,,,VFR,,,,,,,,,,,,METAR,21.0
KBKL 230753Z AUTO 15011KT 10SM CLR 16/07 A3013 RMK AO2 SLP202 T01560072,KBKL,2022-10-23T07:53:00Z,41.53,-81.67,15.6,7.2,150,11,,10.0,30.129921,1020.2,,TRUE,TRUE,,,,,,,CLR,,,,,,,,VFR,,,,,,,,,,,,METAR,177.0
KBKE 230753Z AUTO 36003KT 10SM OVC060 M02/M03 A2978 RMK AO2 SLP097 T10221028 400891028,KBKE,2022-10-23T07:53:00Z,44.85,-117.82,-2.2,-2.8,360,3,,10.0,29.778543,1009.7,,TRUE,TRUE,,,,,,,OVC,6000,,,,,,,VFR,,,,8.9,-2.8,,,,,,,METAR,1025.0
KBIV 230753Z AUTO 18008KT 10SM CLR 16/11 A2999 RMK AO2 SLP153 T01560111,KBIV,2022-10-23T07:53:00Z,42.75,-86.1,15.6,11.1,180,8,,10.0,29.991142,1015.3,,TRUE,TRUE,,,,,,,CLR,,,,,,,,VFR,,,,,,,,,,,,METAR,207.0
KBIL 230753Z 31016KT 5SM -RA BR BKN017 OVC022 04/03 A2945 RMK AO2 SLP976 P0002 T00440033,KBIL,2022-10-23T07:53:00Z,45.8,-108.55,4.4,3.3,310,16,,5.0,29.450787,997.6,,,TRUE,,,,,,-RA BR,BKN,1700,OVC,2200,,,,,MVFR,,,,,,0.02,,,,,,METAR,1089.0
KBHM 230753Z 00000KT 10SM SCT250 11/07 A3016 RMK AO2 SLP208 T01060072,KBHM,2022-10-23T07:53:00Z,33.57,-86.75,10.6,7.2,0,0,,10.0,30.159449,1020.8,,,TRUE,,,,,,,SCT,25000,,,,,,,VFR,,,,,,,,,,,,METAR,191.0
KBGR 230753Z 00000KT 1/8SM R15/1400V2200FT FG VV001 06/06 A3032 RMK AO2 SLP269 T00560056,KBGR,2022-10-23T07:53:00Z,44.8,-68.82,5.6,5.6,0,0,,0.13,30.318897,1026.9,,,TRUE,,,,,,FG,OVX,0,,,,,,,LIFR,,,,,,,,,,,100,METAR,45.0
KBGM 230753Z AUTO 14005KT 10SM CLR 07/02 A3026 RMK AO2 SLP249 T00720017,KBGM,2022-10-23T07:53:00Z,42.22,-75.98,7.2,1.7,140,5,,10.0,30.259842,1024.9,,TRUE,TRUE,,,,,,,CLR,,,,,,,,VFR,,,,,,,,,,,,METAR,485.0
KBFM 230753Z AUTO 32004KT 10SM CLR 13/11 A3012 RMK AO2 SLP200 T01280111,KBFM,2022-10-23T07:53:00Z,30.62,-88.07,12.8,11.1,320,4,,10.0,30.121063,1020.0,,TRUE,TRUE,,,,,,,CLR,,,,,,,,VFR,,,,,,,,,,,,METAR,7.0
KBFI 230753Z 00000KT 10SM SCT042 SCT050 OVC065 07/06 A2993 RMK AO2 SLP134 T00670056 401110056,KBFI,2022-10-23T07:53:00Z,47.55,-122.32,6.7,5.6,0,0,,10.0,29.929134,1013.4,,,TRUE,,,,,,,SCT,4200,SCT,5000,OVC,6500,,,VFR,,,,11.1,5.6,,,,,,,METAR,7.0
KBFF 230753Z AUTO 24005KT 10SM CLR 09/M05 A2932 RMK AO2 SLP886 T00891050,KBFF,2022-10-23T07:53:00Z,41.87,-103.6,8.9,-5.0,240,5,,10.0,29.320866,988.6,,TRUE,TRUE,,,,,,,CLR,,,,,,,,VFR,,,,,,,,,,,,METAR,1204.0
KBFD 230753Z AUTO 00000KT 10SM CLR 04/01 A3024 RMK AO2 SLP238 T00440011,KBFD,2022-10-23T07:53:00Z,41.8,-78.63,4.4,1.1,0,0,,10.0,30.239174,1023.8,,TRUE,TRUE,,,,,,,CLR,,,,,,,,VFR,,,,,,,,,,,,METAR,642.0
KBEH 230753Z AUTO 14005KT 10SM CLR 16/11 A2998 RMK AO2 SLP148 T01560111,KBEH,2022-10-23T07:53:00Z,42.13,-86.42,15.6,11.1,140,5,,10.0,29.97933,1014.8,,TRUE,TRUE,,,,,,,CLR,,,,,,,,VFR,,,,,,,,,,,,METAR,196.0
KBDE 230753Z AUTO 05004KT 10SM CLR 08/04 A2962 RMK AO2 SLP035 T00830039,KBDE,2022-10-23T07:53:00Z,48.73,-94.62,8.3,3.9,50,4,,10.0,29.619095,1003.5,,TRUE,TRUE,,,,,,,CLR,,,,,,,,VFR,,,,,,,,,,,,METAR,330.0
KBBW 230753Z AUTO 08005KT 10SM CLR 08/02 A2936 RMK AO2 SLP923 T00780022,KBBW,2022-10-23T07:53:00Z,41.43,-99.63,7.8,2.2,80,5,,10.0,29.359253,992.3,,TRUE,TRUE,,,,,,,CLR,,,,,,,,VFR,,,,,,,,,,,,METAR,771.0
KBAF 230753Z AUTO 00000KT 10SM CLR 05/04 A3031 RMK AO2 SLP265 T00500039,KBAF,2022-10-23T07:53:00Z,42.17,-72.72,5.0,3.9,0,0,,10.0,30.31004,1026.5,,TRUE,TRUE,,,,,,,CLR,,,,,,,,VFR,,,,,,,,,,,,METAR,80.0
KAZO 230753Z 17005KT 10SM CLR 16/11 A3003 RMK AO2 SLP166 T01610106 $,KAZO,2022-10-23T07:53:00Z,42.23,-85.55,16.1,10.6,170,5,,10.0,30.029528,1016.6,,,TRUE,TRUE,,,,,,CLR,,,,,,,,VFR,,,,,,,,,,,,METAR,264.0
KAXN 230753Z AUTO 15006KT 10SM CLR 12/06 A2957 RMK AO2 SLP011 T01220056,KAXN,2022-10-23T07:53:00Z,45.87,-95.4,12.2,5.6,150,6,,10.0,29.568897,1001.1,,TRUE,TRUE,,,,,,,CLR,,,,,,,,VFR,,,,,,,,,,,,METAR,433.0
KAWM 230753Z AUTO 18011KT 10SM CLR 19/12 A2999 RMK AO2 SLP150 T01890117,KAWM,2022-10-23T07:53:00Z,35.13,-90.23,18.9,11.7,180,11,,10.0,29.991142,1015.0,,TRUE,TRUE,,,,,,,CLR,,,,,,,,VFR,,,,,,,,,,,,METAR,64.0
KAUS 230753Z 19006KT 10SM FEW250 20/18 A2987 RMK AO2 SLP104 T02000178,KAUS,2022-10-23T07:53:00Z,30.18,-97.68,20.0,17.8,190,6,,10.0,29.870079,1010.4,,,TRUE,,,,,,,FEW,25000,,,,,,,VFR,,,,,,,,,,,,METAR,148.0
KATY 230753Z AUTO 16009KT 10SM CLR 12/06 A2948 RMK AO2 SLP979 T01170056,KATY,2022-10-23T07:53:00Z,44.9,-97.15,11.7,5.6,160,9,,10.0,29.480314,997.9,,TRUE,TRUE,,,,,,,CLR,,,,,,,,VFR,,,,,,,,,,,,METAR,531.0
KASE 230753Z AUTO 17012G27KT 10SM -RA BKN060 OVC070 10/M02 A2952 RMK AO2 PK WND 16037/0714 SLP887 P0000 T01001017,KASE,2022-10-23T07:53:00Z,39.23,-106.87,10.0,-1.7,170,12,27,10.0,29.518702,988.7,,TRUE,TRUE,,,,,,-RA,BKN,6000,OVC,7000,,,,,VFR,,,,,,0.005,,,,,,METAR,2384.0
KASD 230753Z AUTO 00000KT 10SM CLR 13/11 A3007 RMK AO2 SLP181 T01280111,KASD,2022-10-23T07:53:00Z,30.35,-89.82,12.8,11.1,0,0,,10.0,30.070866,1018.1,,TRUE,TRUE,,,,,,,CLR,,,,,,,,VFR,,,,,,,,,,,,METAR,8.0
KARB 230753Z AUTO 00000KT 8SM CLR 06/04 A3008 RMK AO2 SLP186 T00560039,KARB,2022-10-23T07:53:00Z,42.22,-83.73,5.6,3.9,0,0,,8.0,30.079725,1018.6,,TRUE,TRUE,,,,,,,CLR,,,,,,,,VFR,,,,,,,,,,,,METAR,251.0
KARA 230753Z AUTO 13007KT 10SM BKN045 18/15 A3001 RMK AO2 SLP162 T01780150,KARA,2022-10-23T07:53:00Z,30.03,-91.88,17.8,15.0,130,7,,10.0,30.008858,1016.2,,TRUE,TRUE,,,,,,,BKN,4500,,,,,,,VFR,,,,,,,,,,,,METAR,5.0
KAPF 230753Z AUTO 04006KT 8SM CLR 19/19 A3001 RMK AO2 SLP162 T01940194 PWINO $,KAPF,2022-10-23T07:53:00Z,26.15,-81.77,19.4,19.4,40,6,,8.0,30.008858,1016.2,,TRUE,TRUE,TRUE,,,,TRUE,,CLR,,,,,,,,VFR,,,,,,,,,,,,METAR,2.0
KAPA 230753Z 18010KT 10SM FEW220 15/M03 A2942 RMK AO2 SLP894 T01501033,KAPA,2022-10-23T07:53:00Z,39.57,-104.85,15.0,-3.3,180,10,,10.0,29.421259,989.4,,,TRUE,,,,,,,FEW,22000,,,,,,,VFR,,,,,,,,,,,,METAR,1791.0
KAOO 230753Z AUTO 00000KT 10SM CLR 02/00 A3025 RMK AO2 SLP246 T00170000,KAOO,2022-10-23T07:53:00Z,40.3,-78.32,1.7,0.0,0,0,,10.0,30.250984,1024.6,,TRUE,TRUE,,,,,,,CLR,,,,,,,,VFR,,,,,,,,,,,,METAR,450.0
KAOH 230753Z AUTO 16007KT 10SM CLR 12/08 A3011 RMK AO2 SLP192 T01220083,KAOH,2022-10-23T07:53:00Z,40.7,-84.02,12.2,8.3,160,7,,10.0,30.109253,1019.2,,TRUE,TRUE,,,,,,,CLR,,,,,,,,VFR,,,,,,,,,,,,METAR,294.0
KANB 230753Z AUTO 05003KT 10SM CLR 08/07 A3017 RMK AO2 SLP215 T00780072,KANB,2022-10-23T07:53:00Z,33.58,-85.85,7.8,7.2,50,3,,10.0,30.171259,1021.5,,TRUE,TRUE,,,,,,,CLR,,,,,,,,VFR,,,,,,,,,,,,METAR,187.0
KAMW 230753Z AUTO 14010KT 10SM CLR 17/11 A2962 RMK AO2 SLP022 T01670106,KAMW,2022-10-23T07:53:00Z,41.98,-93.62,16.7,10.6,140,10,,10.0,29.619095,1002.2,,TRUE,TRUE,,,,,,,CLR,,,,,,,,VFR,,,,,,,,,,,,METAR,282.0
KAMG 230753Z AUTO 00000KT 10SM BKN026 08/06 A3013 RMK AO2 SLP201 T00780056,KAMG,2022-10-23T07:53:00Z,31.53,-82.5,7.8,5.6,0,0,,10.0,30.129921,1020.1,,TRUE,TRUE,,,,,,,BKN,2600,,,,,,,MVFR,,,,,,,,,,,,METAR,61.0
KAMA 230753Z AUTO 22015KT 10SM CLR 19/11 A2966 RMK AO2 PK WND 22027/0654 SLP989 T01940106,KAMA,2022-10-23T07:53:00Z,35.22,-101.72,19.4,10.6,220,15,,10.0,29.660433,998.9,,TRUE,TRUE,,,,,,,CLR,,,,,,,,VFR,,,,,,,,,,,,METAR,1102.0
KALW 230753Z AUTO 18009KT 10SM BKN100 06/02 A2981 RMK AO2 SLP098 T00610022 401000056 $,KALW,2022-10-23T07:53:00Z,46.1,-118.28,6.1,2.2,180,9,,10.0,29.811024,1009.8,,TRUE,TRUE,TRUE,,,,,,BKN,10000,,,,,,,VFR,,,,10.0,5.6,,,,,,,METAR,355.0
KALI 230753Z AUTO 16007KT 10SM CLR 21/19 A2985 RMK AO2 SLP107 T02060189,KALI,2022-10-23T07:53:00Z,27.73,-98.02,20.6,18.9,160,7,,10.0,29.84941,1010.7,,TRUE,TRUE,,,,,,,CLR,,,,,,,,VFR,,,,,,,,,,,,METAR,52.0
KAKO 230753Z AUTO 24013KT 10SM CLR 13/M06 A2937 RMK AO2 SLP890 T01331056 $,KAKO,2022-10-23T07:53:00Z,40.17,-103.22,13.3,-5.6,240,13,,10.0,29.371063,989.0,,TRUE,TRUE,TRUE,,,,,,CLR,,,,,,,,VFR,,,,,,,,,,,,METAR,1431.0
KAIA 230753Z AUTO 29009KT 10SM CLR 03/M03 A2934 RMK AO2 SLP902 T00331033,KAIA,2022-10-23T07:53:00Z,42.05,-102.8,3.3,-3.3,290,9,,10.0,29.338583,990.2,,TRUE,TRUE,,,,,,,CLR,,,,,,,,VFR,,,,,,,,,,,,METAR,1198.0
KAGS 230753Z 00000KT 10SM CLR 05/04 A3015 RMK AO2 SLP209 T00500039,KAGS,2022-10-23T07:53:00Z,33.37,-81.97,5.0,3.9,0,0,,10.0,30.15059,1020.9,,,TRUE,,,,,,,CLR,,,,,,,,VFR,,,,,,,,,,,,METAR,40.0
KAGC 230753Z 11004KT 10SM CLR 11/02 A3019 RMK AO2 SLP226 T01060022,KAGC,2022-10-23T07:53:00Z,40.35,-79.92,10.6,2.2,110,4,,10.0,30.188976,1022.6,,,TRUE,,,,,,,CLR,,,,,,,,VFR,,,,,,,,,,,,METAR,380.0
KAFW 230753Z 17014KT 10SM BKN250 22/17 A2977 RMK AO2 SLP068 T02170167,KAFW,2022-10-23T07:53:00Z,32.97,-97.32,21.7,16.7,170,14,,10.0,29.769686,1006.8,,,TRUE,,,,,,,BKN,25000,,,,,,,VFR,,,,,,,,,,,,METAR,208.0
KAEX 230753Z 15009KT 10SM CLR 18/15 A2998 RMK AO2 SLP155 T01780150,KAEX,2022-10-23T07:53:00Z,31.33,-92.57,17.8,15.0,150,9,,10.0,29.97933,1015.5,,,TRUE,,,,,,,CLR,,,,,,,,VFR,,,,,,,,,,,,METAR,25.0
KADG 230753Z AUTO 00000KT 10SM CLR 11/09 A3009 RMK AO2 SLP191 T01060089,KADG,2022-10-23T07:53:00Z,41.87,-84.08,10.6,8.9,0,0,,10.0,30.088583,1019.1,,TRUE,TRUE,,,,,,,CLR,,,,,,,,VFR,,,,,,,,,,,,METAR,244.0
KACV 230753Z AUTO 08003KT 8SM CLR 06/05 A3001 RMK AO2 SLP169 T00610050 401500061,KACV,2022-10-23T07:53:00Z,40.98,-124.1,6.1,5.0,80,3,,8.0,30.008858,1016.9,,TRUE,TRUE,,,,,,,CLR,,,,,,,,VFR,,,,15.0,6.1,,,,,,,METAR,63.0
KACK 230753Z AUTO 06006KT 10SM CLR 16/14 A3029 RMK AO2 SLP257 T01610144,KACK,2022-10-23T07:53:00Z,41.25,-70.07,16.1,14.4,60,6,,10.0,30.28937,1025.7,,TRUE,TRUE,,,,,,,CLR,,,,,,,,VFR,,,,,,,,,,,,METAR,12.0
KABY 230753Z AUTO 00000KT 10SM CLR 07/05 A3016 RMK AO2 SLP211 T00670050,KABY,2022-10-23T07:53:00Z,31.53,-84.2,6.7,5.0,0,0,,10.0,30.159449,1021.1,,TRUE,TRUE,,,,,,,CLR,,,,,,,,VFR,,,,,,,,,,,,METAR,60.0
KABR 230753Z AUTO 02006KT 9SM CLR 03/00 A2946 RMK AO2 SLP976 T00330000,KABR,2022-10-23T07:53:00Z,45.45,-98.42,3.3,0.0,20,6,,9.0,29.459646,997.6,,TRUE,TRUE,,,,,,,CLR,,,,,,,,VFR,,,,,,,,,,,,METAR,397.0
KAAF 230753Z AUTO 05005KT 10SM CLR 11/09 A3010 RMK AO2 SLP192 T01110094,KAAF,2022-10-23T07:53:00Z,29.73,-85.03,11.1,9.4,50,5,,10.0,30.100393,1019.2,,TRUE,TRUE,,,,,,,CLR,,,,,,,,VFR,,,,,,,,,,,,METAR,5.0
PTYA 230752Z VRB03KT 12SM SCT016CB BKN130 OVC300 25/25 A2973 RMK SHRAE28 CB ALQDS SLP068 T02520250,PTYA,2022-10-23T07:52:00Z,9.48,138.08,25.2,25.0,0,3,,12.0,29.731298,1006.8,,,,,,,,,,SCT,1600,BKN,13000,OVC,30000,,,VFR,,,,,,,,,,,,METAR,4.0
PTTP 230752Z 14004KT 12SM BKN017TCU OVC110 25/24 A2981 RMK TCU SE-S SLP093 T02490236,PTTP,2022-10-23T07:52:00Z,6.97,158.22,24.9,23.6,140,4,,12.0,29.811024,1009.3,,,,,,,,,,BKN,1700,OVC,11000,,,,,MVFR,,,,,,,,,,,,METAR,36.0
PABA 230752Z AUTO 09022G26KT 10SM OVC010 M04/M06 A3003 RMK AO2 PK WND 08028/0710 SLP175 T10441056 FZRANO PNO $,PABA,2022-10-23T07:52:00Z,70.13,-143.58,-4.4,-5.6,90,22,26,10.0,30.029528,1017.5,,TRUE,TRUE,TRUE,,,TRUE,,,OVC,1000,,,,,,,MVFR,,,,,,,,,,,,METAR,1.0
KVTN 230752Z AUTO 15006KT 10SM CLR 12/02 A2934 RMK AO2 SLP920 T01220022,KVTN,2022-10-23T07:52:00Z,42.87,-100.55,12.2,2.2,150,6,,10.0,29.338583,992.0,,TRUE,TRUE,,,,,,,CLR,,,,,,,,VFR,,,,,,,,,,,,METAR,790.0
KTRM 230752Z AUTO 00000KT 10SM OVC075 21/11 A2967 RMK AO2 SLP057 T02110111 403110144,KTRM,2022-10-23T07:52:00Z,33.63,-116.17,21.1,11.1,0,0,,10.0,29.66929,1005.7,,TRUE,TRUE,,,,,,,OVC,7500,,,,,,,VFR,,,,31.1,14.4,,,,,,,METAR,-39.0
KTOL 230752Z 00000KT 10SM CLR 09/08 A3009 RMK AO2 SLP187 T00940078,KTOL,2022-10-23T07:52:00Z,41.58,-83.8,9.4,7.8,0,0,,10.0,30.088583,1018.7,,,TRUE,,,,,,,CLR,,,,,,,,VFR,,,,,,,,,,,,METAR,206.0
KTAN 230752Z AUTO A3031 RMK AO2 SLPNO PWINO FZRANO TSNO $,KTAN,2022-10-23T07:52:00Z,41.88,-71.02,,,,,,,30.31004,,,TRUE,TRUE,TRUE,,TRUE,TRUE,TRUE,,,,,,,,,,,,,,,,,,,,,,SPECI,8.0
KSUX 230752Z AUTO 12008KT 10SM CLR 12/09 A2947 RMK AO2 SLP975 T01220089,KSUX,2022-10-23T07:52:00Z,42.38,-96.38,12.2,8.9,120,8,,10.0,29.471457,997.5,,TRUE,TRUE,,,,,,,CLR,,,,,,,,VFR,,,,,,,,,,,,METAR,332.0
KSPS 230752Z AUTO 19015G24KT 10SM CLR 24/13 A2969 RMK AO2 PK WND 21028/0703 SLP036 T02390128,KSPS,2022-10-23T07:52:00Z,33.98,-98.5,23.9,12.8,190,15,24,10.0,29.68996,1003.6,,TRUE,TRUE,,,,,,,CLR,,,,,,,,VFR,,,,,,,,,,,,METAR,310.0
KSPI 230752Z AUTO 16012G19KT 10SM SCT110 18/11 A2986 RMK AO2 SLP106 T01780111,KSPI,2022-10-23T07:52:00Z,39.85,-89.68,17.8,11.1,160,12,19,10.0,29.861221,1010.6,,TRUE,TRUE,,,,,,,SCT,11000,,,,,,,VFR,,,,,,,,,,,,METAR,179.0
KSGF 230752Z 16013G22KT 10SM CLR 19/12 A2975 RMK AO2 SLP062 T01890122 $,KSGF,2022-10-23T07:52:00Z,37.23,-93.38,18.9,12.2,160,13,22,10.0,29.749016,1006.2,,,TRUE,TRUE,,,,,,CLR,,,,,,,,VFR,,,,,,,,,,,,METAR,387.0
KREO 230752Z AUTO 27006KT 03/00 A2976 RMK AO1 SLP082 T00280000,KREO,2022-10-23T07:52:00Z,42.58,-117.87,2.8,0.0,270,6,,,29.760826,1008.2,,TRUE,TRUE,,,,,,,,,,,,,,,,,,,,,,,,,,,METAR,1237.0
KRAP 230752Z AUTO 34009KT 10SM CLR 08/02 A2936 RMK AO2 SLP934 T00780022 $,KRAP,2022-10-23T07:52:00Z,44.05,-103.05,7.8,2.2,340,9,,10.0,29.359253,993.4,,TRUE,TRUE,TRUE,,,,,,CLR,,,,,,,,VFR,,,,,,,,,,,,METAR,965.0
KPYM 230752Z AUTO 00000KT 10SM 10/08 A3030 RMK AO2 SLP263 T01000083 $,KPYM,2022-10-23T07:52:00Z,41.92,-70.73,10.0,8.3,0,0,,10.0,30.301182,1026.3,,TRUE,TRUE,TRUE,,,,,,,,,,,,,,,,,,,,,,,,,,SPECI,42.0
KPWK 230752Z AUTO 17009KT 10SM CLR 17/12 A2992 RMK AO2 SLP128 T01720117,KPWK,2022-10-23T07:52:00Z,42.12,-87.9,17.2,11.7,170,9,,10.0,29.920275,1012.8,,TRUE,TRUE,,,,,,,CLR,,,,,,,,VFR,,,,,,,,,,,,SPECI,194.0
KPPF 230752Z AUTO 18013G26KT 10SM FEW120 23/12 A2964 RMK AO2 PK WND 19029/0718 SLP026 T02280122 PWINO $,KPPF,2022-10-23T07:52:00Z,37.33,-95.5,22.8,12.2,180,13,26,10.0,29.639763,1002.6,,TRUE,TRUE,TRUE,,,,TRUE,,FEW,12000,,,,,,,VFR,,,,,,,,,,,,METAR,265.0
KP69 230752Z AUTO 00000KT 05/03 A2980 RMK AO1 SLP100 T00500033 400780044,KP69,2022-10-23T07:52:00Z,46.15,-115.6,5.0,3.3,0,0,,,29.799213,1010.0,,TRUE,TRUE,,,,,,,,,,,,,,,,,,,7.8,4.4,,,,,,,METAR,447.0
KORE 230752Z AUTO 00000KT 9SM CLR 03/02 A3032 RMK AO2 SLP271 T00330017,KORE,2022-10-23T07:52:00Z,42.57,-72.28,3.3,1.7,0,0,,9.0,30.318897,1027.1,,TRUE,TRUE,,,,,,,CLR,,,,,,,,VFR,,,,,,,,,,,,SPECI,165.0
KOMA 230752Z 14015KT 10SM CLR 18/12 A2949 RMK AO2 SLP980 T01780122,KOMA,2022-10-23T07:52:00Z,41.32,-95.9,17.8,12.2,140,15,,10.0,29.489174,998.0,,,TRUE,,,,,,,CLR,,,,,,,,VFR,,,,,,,,,,,,METAR,299.0
KOKC 230752Z 18020G24KT 10SM CLR 23/12 A2965 RMK AO2 PK WND 19028/0716 SLP024 T02280122,KOKC,2022-10-23T07:52:00Z,35.38,-97.6,22.8,12.2,180,20,24,10.0,29.648623,1002.4,,,TRUE,,,,,,,CLR,,,,,,,,VFR,,,,,,,,,,,,METAR,391.0
KNRB 230752Z AUTO 31004KT 10SM CLR A3009 RMK AO2 SLP190 $,KNRB,2022-10-23T07:52:00Z,30.38,-81.42,,,310,4,,10.0,30.088583,1019.0,,TRUE,TRUE,TRUE,,,,,,CLR,,,,,,,,VFR,,,,,,,,,,,,METAR,4.0
KNHK 230752Z AUTO 36007KT 10SM FEW024 14/11 A3022 RMK AO2 SLP232 T01440106 $,KNHK,2022-10-23T07:52:00Z,38.28,-76.4,14.4,10.6,360,7,,10.0,30.221457,1023.2,,TRUE,TRUE,TRUE,,,,,,FEW,2400,,,,,,,VFR,,,,,,,,,,,,SPECI,5.0
KNFW 230752Z AUTO 18015G20KT 10SM CLR A2979 RMK AO2 SLP074 TSNO $,KNFW,2022-10-23T07:52:00Z,32.78,-97.43,,,180,15,20,10.0,29.790354,1007.4,,TRUE,TRUE,TRUE,,TRUE,,,,CLR,,,,,,,,VFR,,,,,,,,,,,,METAR,188.0
KNFG 230752Z AUTO 23005KT 10SM FEW015 BKN030 OVC034 17/16 A2979 RMK AO2 RAB02E46 SLP088 P0001 T01720156 402220167,KNFG,2022-10-23T07:52:00Z,33.3,-117.35,17.2,15.6,230,5,,10.0,29.790354,1008.8,,TRUE,TRUE,,,,,,,FEW,1500,BKN,3000,OVC,3400,,,MVFR,,,,22.2,16.7,0.01,,,,,,METAR,21.0
KN60 230752Z AUTO 06013G24KT 07/05 A2952 RMK AO1 PRESFR SLP003 T00670050,KN60,2022-10-23T07:52:00Z,47.65,-101.43,6.7,5.0,60,13,24,,29.518702,1000.3,,TRUE,TRUE,,,,,,,,,,,,,,,,,,,,,,,,,,,METAR,582.0
KMWH 230752Z AUTO 33009KT 10SM BKN100 04/M02 A2979 RMK AO2 SLP140 T00391017 401500028,KMWH,2022-10-23T07:52:00Z,47.2,-119.32,3.9,-1.7,330,9,,10.0,29.790354,1014.0,,TRUE,TRUE,,,,,,,BKN,10000,,,,,,,VFR,,,,15.0,2.8,,,,,,,METAR,355.0
KMLI 230752Z 16010KT 10SM CLR 18/12 A2977 RMK AO2 SLP078 T01780122,KMLI,2022-10-23T07:52:00Z,41.45,-90.52,17.8,12.2,160,10,,10.0,29.769686,1007.8,,,TRUE,,,,,,,CLR,,,,,,,,VFR,,,,,,,,,,,,METAR,174.0
KMKE 230752Z 16008KT 10SM CLR 17/11 A2989 RMK AO2 SLP119 T01670111,KMKE,2022-10-23T07:52:00Z,42.95,-87.9,16.7,11.1,160,8,,10.0,29.890747,1011.9,,,TRUE,,,,,,,CLR,,,,,,,,VFR,,,,,,,,,,,,METAR,203.0
KMHK 230752Z AUTO 19012G21KT 10SM CLR 22/13 A2947 RMK AO2 SLP967 T02170133,KMHK,2022-10-23T07:52:00Z,39.13,-96.68,21.7,13.3,190,12,21,10.0,29.471457,996.7,,TRUE,TRUE,,,,,,,CLR,,,,,,,,VFR,,,,,,,,,,,,METAR,320.0
KMFD 230752Z AUTO 16007KT 10SM CLR 13/08 A3015 RMK AO2 SLP205 T01280078,KMFD,2022-10-23T07:52:00Z,40.82,-82.52,12.8,7.8,160,7,,10.0,30.15059,1020.5,,TRUE,TRUE,,,,,,,CLR,,,,,,,,VFR,,,,,,,,,,,,METAR,394.0
KMEB 230752Z AUTO 02006KT 10SM CLR 13/09 A3015 RMK AO2 SLP208 T01280094,KMEB,2022-10-23T07:52:00Z,34.78,-79.37,12.8,9.4,20,6,,10.0,30.15059,1020.8,,TRUE,TRUE,,,,,,,CLR,,,,,,,,VFR,,,,,,,,,,,,METAR,65.0
KMDH 230752Z AUTO 17012KT 10SM CLR 19/11 A2994 RMK AO2 SLP135 T01890111,KMDH,2022-10-23T07:52:00Z,37.78,-89.25,18.9,11.1,170,12,,10.0,29.940945,1013.5,,TRUE,TRUE,,,,,,,CLR,,,,,,,,VFR,,,,,,,,,,,,SPECI,122.0
KMBG 230752Z AUTO 04007G18KT 10SM CLR 08/02 A2939 RMK AO2 SLP953 T00830017,KMBG,2022-10-23T07:52:00Z,45.55,-100.42,8.3,1.7,40,7,18,10.0,29.388779,995.3,,TRUE,TRUE,,,,,,,CLR,,,,,,,,VFR,,,,,,,,,,,,METAR,515.0
KLWC 230752Z AUTO 17012KT 10SM CLR 22/13 A2956 RMK AO1 SLP003 T02170133,KLWC,2022-10-23T07:52:00Z,39.02,-95.22,21.7,13.3,170,12,,10.0,29.56004,1000.3,,TRUE,TRUE,,,,,,,CLR,,,,,,,,VFR,,,,,,,,,,,,METAR,252.0
KIOW 230752Z AUTO 13008KT 10SM CLR 17/11 A2976 RMK AO2 SLP072 T01670111,KIOW,2022-10-23T07:52:00Z,41.63,-91.55,16.7,11.1,130,8,,10.0,29.760826,1007.2,,TRUE,TRUE,,,,,,,CLR,,,,,,,,VFR,,,,,,,,,,,,METAR,199.0
KIJD 230752Z AUTO 00000KT 10SM CLR 06/06 A3032 RMK AO2 SLP266 T00560056,KIJD,2022-10-23T07:52:00Z,41.75,-72.18,5.6,5.6,0,0,,10.0,30.318897,1026.6,,TRUE,TRUE,,,,,,,CLR,,,,,,,,VFR,,,,,,,,,,,,METAR,73.0
KIEN 230752Z AUTO 00000KT 10SM CLR 05/M02 A2933 RMK AO2 SLP915 T00501022,KIEN,2022-10-23T07:52:00Z,43.03,-102.52,5.0,-2.2,0,0,,10.0,29.329725,991.5,,TRUE,TRUE,,,,,,,CLR,,,,,,,,VFR,,,,,,,,,,,,SPECI,1002.0
KIAD 230752Z 32004KT 10SM SCT250 05/03 A3024 RMK AO2 SLP239 T00500033,KIAD,2022-10-23T07:52:00Z,38.93,-77.45,5.0,3.3,320,4,,10.0,30.239174,1023.9,,,TRUE,,,,,,,SCT,25000,,,,,,,VFR,,,,,,,,,,,,METAR,90.0
KHUT 230752Z AUTO 18011KT 10SM CLR 21/09 A2948 RMK AO2 SLP959 T02060089,KHUT,2022-10-23T07:52:00Z,38.07,-97.87,20.6,8.9,180,11,,10.0,29.480314,995.9,,TRUE,TRUE,,,,,,,CLR,,,,,,,,VFR,,,,,,,,,,,,METAR,464.0
KHRL 230752Z AUTO 14005KT 10SM CLR 21/19 A2987 RMK AO2 SLP113 T02060189 $,KHRL,2022-10-23T07:52:00Z,26.23,-97.65,20.6,18.9,140,5,,10.0,29.870079,1011.3,,TRUE,TRUE,TRUE,,,,,,CLR,,,,,,,,VFR,,,,,,,,,,,,METAR,9.0
KHIE 230752Z AUTO 00000KT 10SM CLR M01/M02 A3033 RMK AO2 SLP277 T10111022,KHIE,2022-10-23T07:52:00Z,44.37,-71.55,-1.1,-2.2,0,0,,10.0,30.33071,1027.7,,TRUE,TRUE,,,,,,,CLR,,,,,,,,VFR,,,,,,,,,,,,METAR,321.0
KGLS 230752Z AUTO 17015KT 10SM CLR 24/19 A2993 RMK AO2 SLP133 T02390194,KGLS,2022-10-23T07:52:00Z,29.27,-94.87,23.9,19.4,170,15,,10.0,29.929134,1013.3,,TRUE,TRUE,,,,,,,CLR,,,,,,,,VFR,,,,,,,,,,,,METAR,2.0
KFIT 230752Z AUTO 00000KT 10SM CLR 06/04 A3032 RMK AO2 SLP267 T00560039,KFIT,2022-10-23T07:52:00Z,42.55,-71.75,5.6,3.9,0,0,,10.0,30.318897,1026.7,,TRUE,TRUE,,,,,,,CLR,,,,,,,,VFR,,,,,,,,,,,,METAR,102.0
KEST 230752Z AUTO 15010KT 10SM CLR 12/07 A2957 RMK AO2 SLP007 T01170072,KEST,2022-10-23T07:52:00Z,43.4,-94.75,11.7,7.2,150,10,,10.0,29.568897,1000.7,,TRUE,TRUE,,,,,,,CLR,,,,,,,,VFR,,,,,,,,,,,,METAR,401.0
KDVN 230752Z AUTO 15010G19KT 10SM CLR 18/12 A2980 RMK AO2 SLP083 T01780122,KDVN,2022-10-23T07:52:00Z,41.62,-90.58,17.8,12.2,150,10,19,10.0,29.799213,1008.3,,TRUE,TRUE,,,,,,,CLR,,,,,,,,VFR,,,,,,,,,,,,METAR,227.0
KDPA 230752Z 16008KT 10SM CLR 16/11 A2990 RMK AO2 SLP119 T01610111,KDPA,2022-10-23T07:52:00Z,41.88,-88.25,16.1,11.1,160,8,,10.0,29.899607,1011.9,,,TRUE,,,,,,,CLR,,,,,,,,VFR,,,,,,,,,,,,METAR,228.0
KDDC 230752Z AUTO 22015G24KT 10SM CLR 22/08 A2948 RMK AO2 SLP948 T02170083 $,KDDC,2022-10-23T07:52:00Z,37.77,-99.97,21.7,8.3,220,15,24,10.0,29.480314,994.8,,TRUE,TRUE,TRUE,,,,,,CLR,,,,,,,,VFR,,,,,,,,,,,,METAR,786.0
KDCA 230752Z 01005KT 10SM BKN250 10/08 A3025 RMK AO2 SLP243 T01000078 $,KDCA,2022-10-23T07:52:00Z,38.85,-77.03,10.0,7.8,10,5,,10.0,30.250984,1024.3,,,TRUE,TRUE,,,,,,BKN,25000,,,,,,,VFR,,,,,,,,,,,,METAR,4.0
KCVG 230752Z 18007KT 10SM OVC180 14/09 A3011 RMK AO2 SLP188 T01440089,KCVG,2022-10-23T07:52:00Z,39.05,-84.67,14.4,8.9,180,7,,10.0,30.109253,1018.8,,,TRUE,,,,,,,OVC,18000,,,,,,,VFR,,,,,,,,,,,,METAR,264.0
KCNU 230752Z AUTO 18020G29KT 10SM FEW120 23/13 A2962 RMK AO2 PK WND 19029/0743 SLP015 T02330128 $,KCNU,2022-10-23T07:52:00Z,37.67,-95.48,23.3,12.8,180,20,29,10.0,29.619095,1001.5,,TRUE,TRUE,TRUE,,,,,,FEW,12000,,,,,,,VFR,,,,,,,,,,,,METAR,301.0
KCLT 230752Z 33004KT 10SM CLR 08/06 A3018 RMK SLP217 T00780061 $,KCLT,2022-10-23T07:52:00Z,35.22,-80.95,7.8,6.1,330,4,,10.0,30.180119,1021.7,,,,TRUE,,,,,,CLR,,,,,,,,VFR,,,,,,,,,,,,METAR,223.0
KCKV 230752Z AUTO 16006KT 10SM OVC060 17/11 A3007 RMK AO2 SLP178 T01720106,KCKV,2022-10-23T07:52:00Z,36.62,-87.42,17.2,10.6,160,6,,10.0,30.070866,1017.8,,TRUE,TRUE,,,,,,,OVC,6000,,,,,,,VFR,,,,,,,,,,,,METAR,166.0
KCID 230752Z AUTO 16013KT 10SM FEW080 18/11 A2972 RMK AO2 SLP059 T01780111 $,KCID,2022-10-23T07:52:00Z,41.88,-91.72,17.8,11.1,160,13,,10.0,29.719488,1005.9,,TRUE,TRUE,TRUE,,,,,,FEW,8000,,,,,,,VFR,,,,,,,,,,,,METAR,257.0
KCFV 230752Z AUTO 17018G27KT 10SM CLR 23/13 A2962 RMK AO2 PK WND 17029/0735 SLP023 T02330133 PWINO $,KCFV,2022-10-23T07:52:00Z,37.08,-95.57,23.3,13.3,170,18,27,10.0,29.619095,1002.3,,TRUE,TRUE,TRUE,,,,TRUE,,CLR,,,,,,,,VFR,,,,,,,,,,,,METAR,228.0
KBLU 230752Z AUTO VRB03KT 10SM CLR 03/M08 A2984 RMK AO2 SLP078 T00281078 401330028 $,KBLU,2022-10-23T07:52:00Z,39.28,-120.7,2.8,-7.8,0,3,,10.0,29.840551,1007.8,,TRUE,TRUE,TRUE,,,,,,CLR,,,,,,,,VFR,,,,13.3,2.8,,,,,,,METAR,1605.0
KBLH 230752Z AUTO 24017KT 10SM CLR 21/10 A2968 RMK AO2 PK WND 27034/0701 SLP043 T02060100 403170206 TSNO,KBLH,2022-10-23T07:52:00Z,33.62,-114.72,20.6,10.0,240,17,,10.0,29.681103,1004.3,,TRUE,TRUE,,,TRUE,,,,CLR,,,,,,,,VFR,,,,31.7,20.6,,,,,,,METAR,119.0
KBLF 230752Z AUTO 11003KT 10SM CLR 09/00 A3024 RMK AO2 SLP225 T00890000,KBLF,2022-10-23T07:52:00Z,37.3,-81.2,8.9,0.0,110,3,,10.0,30.239174,1022.5,,TRUE,TRUE,,,,,,,CLR,,,,,,,,VFR,,,,,,,,,,,,METAR,871.0
KBKB 230752Z AUTO VRB03KT 10SM CLR 17/16 A2996 RMK AO2 SLP172 T01720156,KBKB,2022-10-23T07:52:00Z,31.02,-92.92,17.2,15.6,0,3,,10.0,29.958662,1017.2,,TRUE,TRUE,,,,,,,CLR,,,,,,,,VFR,,,,,,,,,,,,METAR,74.0
KBIS 230752Z AUTO 06012G21KT 10SM CLR 08/04 A2948 RMK AO2 SLP989 T00830039,KBIS,2022-10-23T07:52:00Z,46.77,-100.75,8.3,3.9,60,12,21,10.0,29.480314,998.9,,TRUE,TRUE,,,,,,,CLR,,,,,,,,VFR,,,,,,,,,,,,METAR,506.0
KBDR 230752Z AUTO 01006KT 10SM BKN047 11/09 A3029 RMK AO2 SLP256 T01110089,KBDR,2022-10-23T07:52:00Z,41.17,-73.13,11.1,8.9,10,6,,10.0,30.28937,1025.6,,TRUE,TRUE,,,,,,,BKN,4700,,,,,,,VFR,,,,,,,,,,,,METAR,5.0
KBAN 230752Z AUTO 00000KT 10SM CLR M03/M07 A2980 RMK AO2 SLP069 T10331072 401391033 $,KBAN,2022-10-23T07:52:00Z,38.35,-119.52,-3.3,-7.2,0,0,,10.0,29.799213,1006.9,,TRUE,TRUE,TRUE,,,,,,CLR,,,,,,,,VFR,,,,13.9,-3.3,,,,,,,METAR,2067.0
KATL 230752Z 09004KT 10SM FEW250 11/05 A3018 RMK AO2 SLP217 T01110050,KATL,2022-10-23T07:52:00Z,33.63,-84.45,11.1,5.0,90,4,,10.0,30.180119,1021.7,,,TRUE,,,,,,,FEW,25000,,,,,,,VFR,,,,,,,,,,,,METAR,309.0
KARR 230752Z AUTO 15007KT 10SM CLR 14/11 A2989 RMK AO2 SLP119 T01440111,KARR,2022-10-23T07:52:00Z,41.77,-88.48,14.4,11.1,150,7,,10.0,29.890747,1011.9,,TRUE,TRUE,,,,,,,CLR,,,,,,,,VFR,,,,,,,,,,,,METAR,213.0
KAQW 230752Z AUTO 00000KT 10SM CLR 02/02 A3032 RMK AO2 SLP271 T00220017,KAQW,2022-10-23T07:52:00Z,42.7,-73.17,2.2,1.7,0,0,,10.0,30.318897,1027.1,,TRUE,TRUE,,,,,,,CLR,,,,,,,,VFR,,,,,,,,,,,,METAR,196.0
KALS 230752Z AUTO 24028G55KT 4SM -RA SCT050 BKN090 11/00 A2971 RMK AO2 PK WND 21055/0746 RAB48 SLP970 P0000 T01110000,KALS,2022-10-23T07:52:00Z,37.43,-105.87,11.1,0.0,240,28,55,4.0,29.71063,997.0,,TRUE,TRUE,,,,,,-RA,SCT,5000,BKN,9000,,,,,MVFR,,,,,,0.005,,,,,,METAR,2299.0
KAFN 230752Z AUTO 00000KT 10SM CLR 04/03 A3031 RMK AO2 SLP272 T00440028,KAFN,2022-10-23T07:52:00Z,42.8,-72.0,4.4,2.8,0,0,,10.0,30.31004,1027.2,,TRUE,TRUE,,,,,,,CLR,,,,,,,,VFR,,,,,,,,,,,,METAR,308.0
KABQ 230752Z 19012KT 10SM BKN060 OVC090 17/10 A2975 RMK AO2 SLP001 T01670100,KABQ,2022-10-23T07:52:00Z,35.05,-106.62,16.7,10.0,190,12,,10.0,29.749016,1000.1,,,TRUE,,,,,,,BKN,6000,OVC,9000,,,,,VFR,,,,,,,,,,,,METAR,1620.0
KABI 230752Z 19018G31KT 10SM CLR 22/13 A2976 RMK AO2 PK WND 19031/0747 SLP052 T02170128,KABI,2022-10-23T07:52:00Z,32.42,-99.68,21.7,12.8,190,18,31,10.0,29.760826,1005.2,,,TRUE,,,,,,,CLR,,,,,,,,VFR,,,,,,,,,,,,METAR,543.0
PHBK 230751Z AUTO 11003KT 10SM CLR 26/21 A3003 RMK AO2 SLP170 T02560211,PHBK,2022-10-23T07:51:00Z,22.03,-159.78,25.6,21.1,110,3,,10.0,30.029528,1017.0,,TRUE,TRUE,,,,,,,CLR,,,,,,,,VFR,,,,,,,,,,,,METAR,5.0
PAMD 230751Z AUTO 08014KT 10SM FEW030 BKN120 07/02 A2962 RMK AO2 SLP017 T00720022 400940061 PNO $,PAMD,2022-10-23T07:51:00Z,59.43,-146.3,7.2,2.2,80,14,,10.0,29.619095,1001.7,,TRUE,TRUE,TRUE,,,,,,FEW,3000,BKN,12000,,,,,VFR,,,,9.4,6.1,,,,,,,METAR,20.0
OITU 230751Z 09004KT 9999 FEW020 BKN035 11/07 Q1026,OITU,2022-10-23T07:51:00Z,39.33,44.43,11.0,7.0,90,4,,6.21,30.295275,,,,,,,,,,,FEW,2000,BKN,3500,,,,,VFR,,,,,,,,,,,,METAR,1364.0
OIAI 230751Z 32004KT CAVOK 31/07 Q1018,OIAI,2022-10-23T07:51:00Z,32.0,49.27,31.0,7.0,320,4,,6.21,30.059055,,,,,,,,,,,CAVOK,,,,,,,,VFR,,,,,,,,,,,,METAR,357.0
MUGM 230751Z 33008KT 10SM FEW030 BKN250 24/22 A2990 RMK AO2 SLP123 T02390222 $,MUGM,2022-10-23T07:51:00Z,19.9,-75.2,23.9,22.2,330,8,,10.0,29.899607,1012.3,,,TRUE,TRUE,,,,,,FEW,3000,BKN,25000,,,,,VFR,,,,,,,,,,,,METAR,21.0
KYNG 230751Z 12008KT 10SM FEW250 09/03 A3019 RMK AO2 SLP221 T00940033,KYNG,2022-10-23T07:51:00Z,41.25,-80.67,9.4,3.3,120,8,,10.0,30.188976,1022.1,,,TRUE,,,,,,,FEW,25000,,,,,,,VFR,,,,,,,,,,,,METAR,356.0
KXWA 230751Z AUTO 07018G25KT 10SM OVC011 06/03 A2952 RMK AO2 SLP013 T00610033,KXWA,2022-10-23T07:51:00Z,48.27,-103.75,6.1,3.3,70,18,25,10.0,29.518702,1001.3,,TRUE,TRUE,,,,,,,OVC,1100,,,,,,,MVFR,,,,,,,,,,,,SPECI,717.0
KVCT 230751Z AUTO 16007KT 10SM CLR 19/18 A2988 RMK AO2 SLP117 T01940178,KVCT,2022-10-23T07:51:00Z,28.87,-96.93,19.4,17.8,160,7,,10.0,29.878937,1011.7,,TRUE,TRUE,,,,,,,CLR,,,,,,,,VFR,,,,,,,,,,,,METAR,33.0
KTPL 230751Z AUTO 17015KT 10SM CLR 21/18 A2984 RMK AO2 SLP094 T02060178,KTPL,2022-10-23T07:51:00Z,31.15,-97.4,20.6,17.8,170,15,,10.0,29.840551,1009.4,,TRUE,TRUE,,,,,,,CLR,,,,,,,,VFR,,,,,,,,,,,,SPECI,206.0
KTEB 230751Z 34004KT 10SM BKN034 OVC045 11/08 A3027 RMK AO2 SLP251 T01060078,KTEB,2022-10-23T07:51:00Z,40.87,-74.05,10.6,7.8,340,4,,10.0,30.268702,1025.1,,,TRUE,,,,,,,BKN,3400,OVC,4500,,,,,VFR,,,,,,,,,,,,METAR,3.0
KSTL 230751Z 15007KT 10SM BKN080 19/11 A2985 RMK AO2 SLP098 T01890111 $,KSTL,2022-10-23T07:51:00Z,38.75,-90.37,18.9,11.1,150,7,,10.0,29.84941,1009.8,,,TRUE,TRUE,,,,,,BKN,8000,,,,,,,VFR,,,,,,,,,,,,METAR,163.0
KSNT 230751Z AUTO 00000KT M03/M05 A2964 RMK AO1 SLP011 T10281050,KSNT,2022-10-23T07:51:00Z,44.17,-114.93,-2.8,-5.0,0,0,,,29.639763,1001.1,,TRUE,TRUE,,,,,,,,,,,,,,,,,,,,,,,,,,,METAR,1980.0
KSMX 230751Z AUTO 00000KT 8SM CLR 10/09 A2984 RMK AO2 SLP106 T01000089 401890094,KSMX,2022-10-23T07:51:00Z,34.9,-120.45,10.0,8.9,0,0,,8.0,29.840551,1010.6,,TRUE,TRUE,,,,,,,CLR,,,,,,,,VFR,,,,18.9,9.4,,,,,,,METAR,73.0
KSMO 230751Z AUTO 21005KT 10SM FEW042 17/13 A2977 RMK AO2 SLP080 T01670128 401940167,KSMO,2022-10-23T07:51:00Z,34.02,-118.45,16.7,12.8,210,5,,10.0,29.769686,1008.0,,TRUE,TRUE,,,,,,,FEW,4200,,,,,,,VFR,,,,19.4,16.7,,,,,,,SPECI,56.0
KSLK 230751Z AUTO 00000KT 10SM CLR M02/M02 A3029 RMK AO2 SLP262 T10171022,KSLK,2022-10-23T07:51:00Z,44.4,-74.2,-1.7,-2.2,0,0,,10.0,30.28937,1026.2,,TRUE,TRUE,,,,,,,CLR,,,,,,,,VFR,,,,,,,,,,,,SPECI,502.0
KSJT 230751Z AUTO 19017G25KT 10SM CLR 21/12 A2977 RMK AO2 SLP058 T02110122,KSJT,2022-10-23T07:51:00Z,31.37,-100.5,21.1,12.2,190,17,25,10.0,29.769686,1005.8,,TRUE,TRUE,,,,,,,CLR,,,,,,,,VFR,,,,,,,,,,,,SPECI,582.0
KSAT 230751Z 18009KT 10SM BKN017 21/18 A2988 RMK AO2 SLP100 T02110178,KSAT,2022-10-23T07:51:00Z,29.53,-98.48,21.1,17.8,180,9,,10.0,29.878937,1010.0,,,TRUE,,,,,,,BKN,1700,,,,,,,MVFR,,,,,,,,,,,,METAR,246.0
KSAN 230751Z 24007KT 10SM BKN042 19/14 A2982 RMK AO2 SLP098 T01890144 402110178,KSAN,2022-10-23T07:51:00Z,32.73,-117.18,18.9,14.4,240,7,,10.0,29.819881,1009.8,,,TRUE,,,,,,,BKN,4200,,,,,,,VFR,,,,21.1,17.8,,,,,,,METAR,3.0
KSAD 230751Z AUTO 31006KT 10SM FEW090 21/10 A2971 RMK AO2 SLP014 T02060100,KSAD,2022-10-23T07:51:00Z,32.85,-109.63,20.6,10.0,310,6,,10.0,29.71063,1001.4,,TRUE,TRUE,,,,,,,FEW,9000,,,,,,,VFR,,,,,,,,,,,,METAR,937.0
KROW 230751Z AUTO 19010KT 10SM CLR 19/11 A2972 RMK AO2 SLP003 T01890111,KROW,2022-10-23T07:51:00Z,33.3,-104.5,18.9,11.1,190,10,,10.0,29.719488,1000.3,,TRUE,TRUE,,,,,,,CLR,,,,,,,,VFR,,,,,,,,,,,,METAR,1105.0
KRDU 230751Z 00000KT 10SM BKN250 11/09 A3018 RMK AO2 SLP215 T01110094,KRDU,2022-10-23T07:51:00Z,35.9,-78.78,11.1,9.4,0,0,,10.0,30.180119,1021.5,,,TRUE,,,,,,,BKN,25000,,,,,,,VFR,,,,,,,,,,,,METAR,121.0
KPWM 230751Z AUTO 27003KT 10SM CLR 05/05 A3032 RMK AO2 SLP268 T00500050,KPWM,2022-10-23T07:51:00Z,43.65,-70.3,5.0,5.0,270,3,,10.0,30.318897,1026.8,,TRUE,TRUE,,,,,,,CLR,,,,,,,,VFR,,,,,,,,,,,,SPECI,15.0
KPVD 230751Z AUTO 30003KT 10SM CLR 09/08 A3031 RMK AO2 SLP264 T00940078 $,KPVD,2022-10-23T07:51:00Z,41.72,-71.43,9.4,7.8,300,3,,10.0,30.31004,1026.4,,TRUE,TRUE,TRUE,,,,,,CLR,,,,,,,,VFR,,,,,,,,,,,,METAR,15.0
KPIT 230751Z 00000KT 10SM FEW250 07/03 A3019 RMK AO2 SLP230 T00720033,KPIT,2022-10-23T07:51:00Z,40.47,-80.2,7.2,3.3,0,0,,10.0,30.188976,1023.0,,,TRUE,,,,,,,FEW,25000,,,,,,,VFR,,,,,,,,,,,,SPECI,339.0
KPHX 230751Z 21007KT 10SM SCT060 24/10 A2965 RMK AO2 SLP024 T02390100 $,KPHX,2022-10-23T07:51:00Z,33.43,-112.02,23.9,10.0,210,7,,10.0,29.648623,1002.4,,,TRUE,TRUE,,,,,,SCT,6000,,,,,,,VFR,,,,,,,,,,,,SPECI,338.0
KP59 230751Z AUTO 24008G16KT 12/09 A2976 RMK AO1 SLP077 T01220089 $,KP59,2022-10-23T07:51:00Z,47.47,-87.88,12.2,8.9,240,8,16,,29.760826,1007.7,,TRUE,TRUE,TRUE,,,,,,,,,,,,,,,,,,,,,,,,,,METAR,185.0
KOXR 230751Z AUTO 30008KT 10SM BKN019 16/12 A2975 RMK AO2 SLP074 T01560122 402000150,KOXR,2022-10-23T07:51:00Z,34.2,-119.2,15.6,12.2,300,8,,10.0,29.749016,1007.4,,TRUE,TRUE,,,,,,,BKN,1900,,,,,,,MVFR,,,,20.0,15.0,,,,,,,METAR,12.0
KOXC 230751Z AUTO 00000KT 10SM CLR 09/08 A3030 RMK AO2 SLP273 T00890078,KOXC,2022-10-23T07:51:00Z,41.47,-73.13,8.9,7.8,0,0,,10.0,30.301182,1027.3,,TRUE,TRUE,,,,,,,CLR,,,,,,,,VFR,,,,,,,,,,,,SPECI,211.0
KORD 230751Z 17009KT 10SM CLR 17/11 A2991 RMK AO2 SLP123 T01720111,KORD,2022-10-23T07:51:00Z,41.95,-87.93,17.2,11.1,170,9,,10.0,29.911417,1012.3,,,TRUE,,,,,,,CLR,,,,,,,,VFR,,,,,,,,,,,,SPECI,202.0
KOCF 230751Z AUTO 00000KT 10SM CLR 12/11 A3010 RMK AO2 SLP194 T01220111 PNO $,KOCF,2022-10-23T07:51:00Z,29.17,-82.22,12.2,11.1,0,0,,10.0,30.100393,1019.4,,TRUE,TRUE,TRUE,,,,,,CLR,,,,,,,,VFR,,,,,,,,,,,,METAR,24.0
KNYC 230751Z AUTO 02003KT 10SM FEW043 13/08 A3029 RMK AO2 SLP249 T01280078 $,KNYC,2022-10-23T07:51:00Z,40.78,-73.97,12.8,7.8,20,3,,10.0,30.28937,1024.9,,TRUE,TRUE,TRUE,,,,,,FEW,4300,,,,,,,VFR,,,,,,,,,,,,METAR,33.0
KMYL 230751Z AUTO 31005KT 10SM OVC055 M01/M07 A2969 RMK AO2 SLP064 T10061067,KMYL,2022-10-23T07:51:00Z,44.9,-116.1,-0.6,-6.7,310,5,,10.0,29.68996,1006.4,,TRUE,TRUE,,,,,,,OVC,5500,,,,,,,VFR,,,,,,,,,,,,METAR,1532.0
KMPV 230751Z AUTO 00000KT 10SM CLR 04/01 A3035 RMK AO2 SLP282 T00390011,KMPV,2022-10-23T07:51:00Z,44.2,-72.57,3.9,1.1,0,0,,10.0,30.351377,1028.2,,TRUE,TRUE,,,,,,,CLR,,,,,,,,VFR,,,,,,,,,,,,SPECI,336.0
KLGA 230751Z 04006KT 10SM SCT031 BKN120 BKN250 13/10 A3028 RMK AO2 SLP259 T01330100 $,KLGA,2022-10-23T07:51:00Z,40.78,-73.88,13.3,10.0,40,6,,10.0,30.280512,1025.9,,,TRUE,TRUE,,,,,,SCT,3100,BKN,12000,BKN,25000,,,VFR,,,,,,,,,,,,SPECI,9.0
KJFK 230751Z 04006KT 10SM BKN045 BKN140 BKN220 13/11 A3028 RMK AO2 SLP252 T01330111,KJFK,2022-10-23T07:51:00Z,40.63,-73.77,13.3,11.1,40,6,,10.0,30.280512,1025.2,,,TRUE,,,,,,,BKN,4500,BKN,14000,BKN,22000,,,VFR,,,,,,,,,,,,METAR,3.0
KJCT 230751Z AUTO VRB03KT 10SM CLR 21/16 A2986 RMK AO2 SLP073 T02060161 $,KJCT,2022-10-23T07:51:00Z,30.5,-99.77,20.6,16.1,0,3,,10.0,29.861221,1007.3,,TRUE,TRUE,TRUE,,,,,,CLR,,,,,,,,VFR,,,,,,,,,,,,SPECI,522.0
KILG 230751Z AUTO 33007KT 10SM BKN035 08/07 A3025 RMK AO2 SLP242 T00830072,KILG,2022-10-23T07:51:00Z,39.67,-75.6,8.3,7.2,330,7,,10.0,30.250984,1024.2,,TRUE,TRUE,,,,,,,BKN,3500,,,,,,,VFR,,,,,,,,,,,,SPECI,22.0
KIGM 230751Z AUTO 23021G28KT 10SM BKN050 OVC060 16/05 A2965 RMK AO2 PK WND 23034/0715 SLP979 T01610050,KIGM,2022-10-23T07:51:00Z,35.25,-113.93,16.1,5.0,230,21,28,10.0,29.648623,997.9,,TRUE,TRUE,,,,,,,BKN,5000,OVC,6000,,,,,VFR,,,,,,,,,,,,METAR,1045.0
KHTS 230751Z 00000KT 10SM CLR 11/08 A3015 RMK AO2 SLP207 T01060078,KHTS,2022-10-23T07:51:00Z,38.37,-82.55,10.6,7.8,0,0,,10.0,30.15059,1020.7,,,TRUE,,,,,,,CLR,,,,,,,,VFR,,,,,,,,,,,,METAR,252.0
KHDO 230751Z AUTO 15005KT 10SM CLR 19/18 A2987 RMK AO2 SLP098 T01940178,KHDO,2022-10-23T07:51:00Z,29.37,-99.17,19.4,17.8,150,5,,10.0,29.870079,1009.8,,TRUE,TRUE,,,,,,,CLR,,,,,,,,VFR,,,,,,,,,,,,SPECI,280.0
KGDP 230751Z AUTO 24023KT 10SM CLR 17/07 A2989 RMK AO2 PK WND 25026/0747 SLP048 T01720067,KGDP,2022-10-23T07:51:00Z,31.83,-104.82,17.2,6.7,240,23,,10.0,29.890747,1004.8,,TRUE,TRUE,,,,,,,CLR,,,,,,,,VFR,,,,,,,,,,,,METAR,1664.0
KEWR 230751Z 02007KT 10SM BKN036 OVC210 12/08 A3027 RMK AO2 SLP250 T01220083,KEWR,2022-10-23T07:51:00Z,40.68,-74.17,12.2,8.3,20,7,,10.0,30.268702,1025.0,,,TRUE,,,,,,,BKN,3600,OVC,21000,,,,,VFR,,,,,,,,,,,,SPECI,2.0
KERI 230751Z AUTO 16013KT 10SM CLR 13/03 A3017 RMK AO2 SLP214 T01330033,KERI,2022-10-23T07:51:00Z,42.08,-80.18,13.3,3.3,160,13,,10.0,30.171259,1021.4,,TRUE,TRUE,,,,,,,CLR,,,,,,,,VFR,,,,,,,,,,,,SPECI,222.0
KELP 230751Z 19012G26KT 10SM FEW120 SCT180 23/08 A2980 RMK AO2 PK WND 19026/0743 SLP019 T02280083,KELP,2022-10-23T07:51:00Z,31.82,-106.35,22.8,8.3,190,12,26,10.0,29.799213,1001.9,,,TRUE,,,,,,,FEW,12000,SCT,18000,,,,,VFR,,,,,,,,,,,,METAR,1205.0
KEKN 230751Z AUTO 00000KT 8SM CLR 00/M02 A3025 RMK AO2 SLP249 T00001017,KEKN,2022-10-23T07:51:00Z,38.88,-79.85,0.0,-1.7,0,0,,8.0,30.250984,1024.9,,TRUE,TRUE,,,,,,,CLR,,,,,,,,VFR,,,,,,,,,,,,METAR,596.0
KDAW 230751Z AUTO 32006KT 10SM CLR 06/04 A3030 RMK AO2 SLP259 T00610039,KDAW,2022-10-23T07:51:00Z,43.28,-70.92,6.1,3.9,320,6,,10.0,30.301182,1025.9,,TRUE,TRUE,,,,,,,CLR,,,,,,,,VFR,,,,,,,,,,,,SPECI,100.0
KCSG 230751Z AUTO 00000KT 10SM CLR 09/06 A3016 RMK AO2 SLP209 T00890056,KCSG,2022-10-23T07:51:00Z,32.52,-84.95,8.9,5.6,0,0,,10.0,30.159449,1020.9,,TRUE,TRUE,,,,,,,CLR,,,,,,,,VFR,,,,,,,,,,,,METAR,120.0
KCRP 230751Z 16005KT 10SM FEW250 21/18 A2987 RMK AO2 SLP113 T02060183,KCRP,2022-10-23T07:51:00Z,27.77,-97.5,20.6,18.3,160,5,,10.0,29.870079,1011.3,,,TRUE,,,,,,,FEW,25000,,,,,,,VFR,,,,,,,,,,,,METAR,11.0
KCON 230751Z AUTO 00000KT 10SM CLR 03/02 A3032 RMK AO2 SLP270 T00280022,KCON,2022-10-23T07:51:00Z,43.2,-71.5,2.8,2.2,0,0,,10.0,30.318897,1027.0,,TRUE,TRUE,,,,,,,CLR,,,,,,,,VFR,,,,,,,,,,,,METAR,102.0
KCMH 230751Z 12004KT 10SM CLR 13/08 A3014 RMK AO2 SLP202 T01330083 $,KCMH,2022-10-23T07:51:00Z,40.0,-82.88,13.3,8.3,120,4,,10.0,30.138779,1020.2,,,TRUE,TRUE,,,,,,CLR,,,,,,,,VFR,,,,,,,,,,,,SPECI,257.0
KCLE 230751Z 17007KT 10SM FEW250 13/07 A3013 RMK AO2 SLP215 T01330067 $,KCLE,2022-10-23T07:51:00Z,41.42,-81.85,13.3,6.7,170,7,,10.0,30.129921,1021.5,,,TRUE,TRUE,,,,,,FEW,25000,,,,,,,VFR,,,,,,,,,,,,SPECI,237.0
KCDJ 230751Z AUTO 14006KT 20/12 A2966 RMK AO1 SLP029 T02000122,KCDJ,2022-10-23T07:51:00Z,39.82,-93.57,20.0,12.2,140,6,,,29.660433,1002.9,,TRUE,TRUE,,,,,,,,,,,,,,,,,,,,,,,,,,,METAR,234.0
KCAK 230751Z 15005KT 10SM FEW250 13/06 A3017 RMK AO2 SLP212 T01280056,KCAK,2022-10-23T07:51:00Z,40.92,-81.45,12.8,5.6,150,5,,10.0,30.171259,1021.2,,,TRUE,,,,,,,FEW,25000,,,,,,,VFR,,,,,,,,,,,,METAR,369.0
KBKW 230751Z AUTO 13004KT 10SM CLR 10/01 A3023 RMK AO2 SLP220 T01000011,KBKW,2022-10-23T07:51:00Z,37.8,-81.12,10.0,1.1,130,4,,10.0,30.230314,1022.0,,TRUE,TRUE,,,,,,,CLR,,,,,,,,VFR,,,,,,,,,,,,METAR,762.0
KBHK 230751Z AUTO 10014KT 10SM BKN110 07/03 A2939 RMK AO2 SLP952 T00720028,KBHK,2022-10-23T07:51:00Z,46.35,-104.25,7.2,2.8,100,14,,10.0,29.388779,995.2,,TRUE,TRUE,,,,,,,BKN,11000,,,,,,,VFR,,,,,,,,,,,,SPECI,904.0
KBGD 230751Z AUTO 21010G21KT 10SM CLR 23/11 A2962 RMK AO2 PK WND 18026/0701 SLP984 T02280106,KBGD,2022-10-23T07:51:00Z,35.7,-101.4,22.8,10.6,210,10,21,10.0,29.619095,998.4,,TRUE,TRUE,,,,,,,CLR,,,,,,,,VFR,,,,,,,,,,,,METAR,928.0
KBED 230751Z AUTO 00000KT 8SM CLR 06/04 A3031 RMK AO2 SLP276 T00560044,KBED,2022-10-23T07:51:00Z,42.47,-71.3,5.6,4.4,0,0,,8.0,30.31004,1027.6,,TRUE,TRUE,,,,,,,CLR,,,,,,,,VFR,,,,,,,,,,,,SPECI,39.0
KBDL 230751Z 00000KT 10SM FEW030 BKN250 07/05 A3031 RMK AO2 SLP262 T00670050,KBDL,2022-10-23T07:51:00Z,41.93,-72.68,6.7,5.0,0,0,,10.0,30.31004,1026.2,,,TRUE,,,,,,,FEW,3000,BKN,25000,,,,,VFR,,,,,,,,,,,,METAR,52.0
KBAZ 230751Z AUTO 20008KT 10SM CLR 20/18 A2986 RMK AO2 SLP103 T02000178,KBAZ,2022-10-23T07:51:00Z,29.72,-98.05,20.0,17.8,200,8,,10.0,29.861221,1010.3,,TRUE,TRUE,,,,,,,CLR,,,,,,,,VFR,,,,,,,,,,,,SPECI,199.0
KATT 230751Z AUTO VRB04KT 10SM BKN022 21/18 A2988 RMK AO2 SLP105 T02110178,KATT,2022-10-23T07:51:00Z,30.32,-97.77,21.1,17.8,0,4,,10.0,29.878937,1010.5,,TRUE,TRUE,,,,,,,BKN,2200,,,,,,,MVFR,,,,,,,,,,,,METAR,203.0
KALB 230751Z 00000KT 10SM BKN250 06/03 A3031 RMK AO2 SLP264 T00610033,KALB,2022-10-23T07:51:00Z,42.75,-73.8,6.1,3.3,0,0,,10.0,30.31004,1026.4,,,TRUE,,,,,,,BKN,25000,,,,,,,VFR,,,,,,,,,,,,METAR,82.0
KAHN 230751Z AUTO 30003KT 10SM CLR 06/04 A3018 RMK AO2 SLP221 T00610039,KAHN,2022-10-23T07:51:00Z,33.95,-83.33,6.1,3.9,300,3,,10.0,30.180119,1022.1,,TRUE,TRUE,,,,,,,CLR,,,,,,,,VFR,,,,,,,,,,,,METAR,241.0
KACT 230751Z AUTO 17017G26KT 10SM CLR 22/18 A2981 RMK AO2 PK WND 18027/0732 SLP088 T02170178 $,KACT,2022-10-23T07:51:00Z,31.62,-97.23,21.7,17.8,170,17,26,10.0,29.811024,1008.8,,TRUE,TRUE,TRUE,,,,,,CLR,,,,,,,,VFR,,,,,,,,,,,,SPECI,150.0
KABE 230751Z 33003KT CLR 06/03 A3028 RMK AO2 SLP255 T00560033,KABE,2022-10-23T07:51:00Z,40.65,-75.45,5.6,3.3,330,3,,,30.280512,1025.5,,,TRUE,,,,,,,CLR,,,,,,,,,,,,,,,,,,,,METAR,117.0
K6R6 230751Z AUTO 02005KT 16/13 A2982 RMK AO1 SLP068 T01610133,K6R6,2022-10-23T07:51:00Z,30.05,-102.22,16.1,13.3,20,5,,,29.819881,1006.8,,TRUE,TRUE,,,,,,,,,,,,,,,,,,,,,,,,,,,METAR,702.0
PTRO 230750Z 27005KT 14SM BKN015CB BKN120 OVC300 27/24 A2970 RMK CB ALQDS,PTRO,2022-10-23T07:50:00Z,7.37,134.55,27.0,24.0,270,5,,14.0,29.698818,,,,,,,,,,,BKN,1500,BKN,12000,OVC,30000,,,MVFR,,,,,,,,,,,,METAR,30.0
PGWT 230750Z 11012KT 7SM SCT016 BKN100 29/25,PGWT,2022-10-23T07:50:00Z,14.98,145.62,29.0,25.0,110,12,,7.0,,,,,,,,,,,,SCT,1600,BKN,10000,,,,,VFR,,,,,,,,,,,,METAR,84.0
PGRO 230750Z 11010KT 7SM BKN015 BKN090 26/24 A2977 RMK LAST,PGRO,2022-10-23T07:50:00Z,14.18,145.25,26.0,24.0,110,10,,7.0,29.769686,,,,,,,,,,,BKN,1500,BKN,9000,,,,,MVFR,,,,,,,,,,,,METAR,181.0
OOSH 230750Z AUTO VRB04KT //// ////// 33/22 Q1016 RMK 1012,OOSH,2022-10-23T07:50:00Z,24.38,56.62,33.0,22.0,0,4,,,30.0,,,TRUE,,,,,,,,,,,,,,,,,,,,,,,,,,,,METAR,35.0
OOSA 230750Z 14007KT 100V180 9999 FEW025 29/22 Q1017 NOSIG,OOSA,2022-10-23T07:50:00Z,17.03,54.1,29.0,22.0,140,7,,6.21,30.029528,,,,,,TRUE,,,,,FEW,2500,,,,,,,VFR,,,,,,,,,,,,METAR,20.0
OOMS 230750Z 36011KT CAVOK 31/24 Q1016 NOSIG,OOMS,2022-10-23T07:50:00Z,23.58,58.28,31.0,24.0,360,11,,6.21,30.0,,,,,,TRUE,,,,,CAVOK,,,,,,,,VFR,,,,,,,,,,,,METAR,8.0
OOKB 230750Z 04007KT 010V070 CAVOK 34/16 Q1017 NOSIG,OOKB,2022-10-23T07:50:00Z,26.17,56.23,34.0,16.0,40,7,,6.21,30.029528,,,,,,TRUE,,,,,CAVOK,,,,,,,,VFR,,,,,,,,,,,,METAR,30.0
OODQ 230750Z AUTO 06010KT CAVOK ////// 28/23 Q1017 NOSIG RMK RH70? 0,OODQ,2022-10-23T07:50:00Z,19.52,57.65,28.0,23.0,60,10,,6.21,30.029528,,,TRUE,,,TRUE,,,,,CAVOK,,,,,,,,VFR,,,,,,,,,,,,METAR,116.0
OIMC 230750Z 03008KT CAVOK 19/10 Q1027,OIMC,2022-10-23T07:50:00Z,36.5,61.07,19.0,10.0,30,8,,6.21,30.324802,,,,,,,,,,,CAVOK,,,,,,,,VFR,,,,,,,,,,,,METAR,287.0
OIGK 230750Z 28004KT 9999 SCT020 BKN070 13/07 Q1027,OIGK,2022-10-23T07:50:00Z,34.35,47.13,13.0,7.0,280,4,,6.21,30.324802,,,,,,,,,,,SCT,2000,BKN,7000,,,,,VFR,,,,,,,,,,,,METAR,1314.0
NSTU 230750Z VRB05KT 8SM -SHRA SCT018 BKN040 OVC100 26/25 A2986 RMK SLP112 T02560252,NSTU,2022-10-23T07:50:00Z,-14.33,-170.72,25.6,25.2,0,5,,8.0,29.861221,1011.2,,,,,,,,,-SHRA,SCT,1800,BKN,4000,OVC,10000,,,VFR,,,,,,,,,,,,METAR,8.0
MUVR 230750Z 27001KT 8000 FEW020 20/19 Q1015,MUVR,2022-10-23T07:50:00Z,23.03,-81.43,20.0,19.0,270,1,,4.97,29.970472,,,,,,,,,,,FEW,2000,,,,,,,MVFR,,,,,,,,,,,,METAR,65.0
MUHG 230750Z 09005KT 9000 FEW025 OVC165 22/22 Q1013,MUHG,2022-10-23T07:50:00Z,20.78,-76.32,22.0,22.0,90,5,,5.59,29.911417,,,,,,,,,,,FEW,2500,OVC,16500,,,,,VFR,,,,,,,,,,,,METAR,100.0
MUHA 230750Z 10002KT 8000 FEW005 18/18 Q1015,MUHA,2022-10-23T07:50:00Z,22.98,-82.42,18.0,18.0,100,2,,4.97,29.970472,,,,,,,,,,,FEW,500,,,,,,,MVFR,,,,,,,,,,,,METAR,61.0
MUCU 230750Z 36006KT 9000 FEW020 25/21 Q1012,MUCU,2022-10-23T07:50:00Z,19.97,-75.83,25.0,21.0,360,6,,5.59,29.88189,,,,,,,,,,,FEW,2000,,,,,,,VFR,,,,,,,,,,,,METAR,70.0
MUCM 230750Z 33005KT 7000 VCFG FEW020 22/22 Q1014,MUCM,2022-10-23T07:50:00Z,21.42,-77.85,22.0,22.0,330,5,,4.35,29.940945,,,,,,,,,,VCFG,FEW,2000,,,,,,,MVFR,,,,,,,,,,,,METAR,125.0
MUCL 230750Z AUTO 07005KT 030V120 26/23 Q1013,MUCL,2022-10-23T07:50:00Z,21.63,-81.55,26.0,23.0,70,5,,,29.911417,,,TRUE,,,,,,,,,,,,,,,,,,,,,,,,,,,,METAR,5.0
MSLP 230750Z VRB02KT 9999 SCT076 26/22 Q1010 A2983 NOSIG,MSLP,2022-10-23T07:50:00Z,13.43,-89.05,26.0,22.0,0,2,,6.21,29.822834,,,,,,TRUE,,,,,SCT,7600,,,,,,,VFR,,,,,,,,,,,,METAR,25.0
LTFO 230750Z 05009KT CAVOK 17/08 Q1022,LTFO,2022-10-23T07:50:00Z,41.18,40.85,17.0,8.0,50,9,,6.21,30.177166,,,,,,,,,,,CAVOK,,,,,,,,VFR,,,,,,,,,,,,METAR,5.0
LTFM 230750Z 24016KT CAVOK 18/12 Q1021 NOSIG RMK RWY17L 24017KT RWY34L 22015KT RWY16R 23014KT RWY36 24016KT RWY18 25020KT,LTFM,2022-10-23T07:50:00Z,41.27,28.75,18.0,12.0,240,16,,6.21,30.147638,,,,,,TRUE,,,,,CAVOK,,,,,,,,VFR,,,,,,,,,,,,METAR,99.0
LTFJ 230750Z 24015KT CAVOK 18/07 Q1021 NOSIG RMK RWY24 26011KT,LTFJ,2022-10-23T07:50:00Z,40.9,29.3,18.0,7.0,240,15,,6.21,30.147638,,,,,,TRUE,,,,,CAVOK,,,,,,,,VFR,,,,,,,,,,,,METAR,83.0
LTFH 230750Z 18006KT 150V230 CAVOK 21/06 Q1021 NOSIG,LTFH,2022-10-23T07:50:00Z,41.27,36.57,21.0,6.0,180,6,,6.21,30.147638,,,,,,TRUE,,,,,CAVOK,,,,,,,,VFR,,,,,,,,,,,,METAR,7.0
LTFG 230750Z 25003KT 200V300 CAVOK 24/08 Q1021,LTFG,2022-10-23T07:50:00Z,36.3,32.3,24.0,8.0,250,3,,6.21,30.147638,,,,,,,,,,,CAVOK,,,,,,,,VFR,,,,,,,,,,,,METAR,26.0
LTFE 230750Z 07003KT 360V110 CAVOK 18/02 Q1022 NOSIG RMK RWY10 09003KT 010V140,LTFE,2022-10-23T07:50:00Z,37.25,27.67,18.0,2.0,70,3,,6.21,30.177166,,,,,,TRUE,,,,,CAVOK,,,,,,,,VFR,,,,,,,,,,,,METAR,6.0
LTFD 230750Z 00000KT CAVOK 18/06 Q1023,LTFD,2022-10-23T07:50:00Z,39.55,27.02,18.0,6.0,0,0,,6.21,30.206694,,,,,,,,,,,CAVOK,,,,,,,,VFR,,,,,,,,,,,,METAR,15.0
LTFC 230750Z VRB02KT CAVOK 11/00 Q1025 RMK RWY23 24004KT 170V310,LTFC,2022-10-23T07:50:00Z,37.87,30.38,11.0,0.0,0,2,,6.21,30.265747,,,,,,,,,,,CAVOK,,,,,,,,VFR,,,,,,,,,,,,METAR,862.0
LTFB 230750Z 08004KT 030V110 CAVOK 19/06 Q1022,LTFB,2022-10-23T07:50:00Z,37.95,27.33,19.0,6.0,80,4,,6.21,30.177166,,,,,,,,,,,CAVOK,,,,,,,,VFR,,,,,,,,,,,,METAR,3.0
LTDA 230750Z 01004KT 300V060 CAVOK 22/13 Q1022 NOSIG,LTDA,2022-10-23T07:50:00Z,36.37,36.28,22.0,13.0,10,4,,6.21,30.177166,,,,,,TRUE,,,,,CAVOK,,,,,,,,VFR,,,,,,,,,,,,METAR,80.0
LTCW 230750Z 13003KT 050V220 9999 SCT030 14/06 Q1026,LTCW,2022-10-23T07:50:00Z,37.55,44.23,14.0,6.0,130,3,,6.21,30.295275,,,,,,,,,,,SCT,3000,,,,,,,VFR,,,,,,,,,,,,METAR,1852.0
LTCV 230750Z 29005KT 240V320 9999 FEW040 20/12 Q1022,LTCV,2022-10-23T07:50:00Z,37.37,42.07,20.0,12.0,290,5,,6.21,30.177166,,,,,,,,,,,FEW,4000,,,,,,,VFR,,,,,,,,,,,,METAR,620.0
LTCU 230750Z VRB02KT 9999 FEW035 14/06 Q1025,LTCU,2022-10-23T07:50:00Z,38.87,40.58,14.0,6.0,0,2,,6.21,30.265747,,,,,,,,,,,FEW,3500,,,,,,,VFR,,,,,,,,,,,,METAR,1061.0
LTCT 230750Z VRB04KT 9999 FEW040 15/03 Q1025,LTCT,2022-10-23T07:50:00Z,39.98,43.87,15.0,3.0,0,4,,6.21,30.265747,,,,,,,,,,,FEW,4000,,,,,,,VFR,,,,,,,,,,,,METAR,936.0
LTCS 230750Z 06007KT 030V090 CAVOK 18/02 Q1024 RMK RWY22 03006KT 340V060 SKC,LTCS,2022-10-23T07:50:00Z,37.45,38.9,18.0,2.0,60,7,,6.21,30.236221,,,,,,,,,,,CAVOK,,,,,,,,VFR,,,,,,,,,,,,METAR,825.0
LTCR 230750Z VRB04KT CAVOK 22/08 Q1022,LTCR,2022-10-23T07:50:00Z,37.22,40.63,22.0,8.0,0,4,,6.21,30.177166,,,,,,,,,,,CAVOK,,,,,,,,VFR,,,,,,,,,,,,METAR,529.0
LTCP 230750Z 18004KT 070V220 CAVOK 20/02 Q1024,LTCP,2022-10-23T07:50:00Z,37.73,38.47,20.0,2.0,180,4,,6.21,30.236221,,,,,,,,,,,CAVOK,,,,,,,,VFR,,,,,,,,,,,,METAR,672.0
LTCO 230750Z 09004KT 030V180 9999 FEW040 10/05 Q1026,LTCO,2022-10-23T07:50:00Z,39.65,43.03,10.0,5.0,90,4,,6.21,30.295275,,,,,,,,,,,FEW,4000,,,,,,,VFR,,,,,,,,,,,,METAR,1657.0
LTCN 230750Z VRB02KT CAVOK 19/04 Q1023 NOSIG,LTCN,2022-10-23T07:50:00Z,37.53,36.95,19.0,4.0,0,2,,6.21,30.206694,,,,,,TRUE,,,,,CAVOK,,,,,,,,VFR,,,,,,,,,,,,METAR,505.0
LTCM 230750Z VRB01KT CAVOK 20/06 Q1020,LTCM,2022-10-23T07:50:00Z,42.02,35.07,20.0,6.0,0,1,,6.21,30.11811,,,,,,,,,,,CAVOK,,,,,,,,VFR,,,,,,,,,,,,METAR,7.0
LTCL 230750Z 27003KT 200V330 9999 FEW040 16/12 Q1024,LTCL,2022-10-23T07:50:00Z,37.98,41.83,16.0,12.0,270,3,,6.21,30.236221,,,,,,,,,,,FEW,4000,,,,,,,VFR,,,,,,,,,,,,METAR,602.0
LTCK 230750Z 32005KT 270V360 8000 SCT025 12/08 Q1025,LTCK,2022-10-23T07:50:00Z,38.75,41.67,12.0,8.0,320,5,,4.97,30.265747,,,,,,,,,,,SCT,2500,,,,,,,MVFR,,,,,,,,,,,,METAR,1267.0
LTCJ 230750Z 20004KT 150V240 9999 BKN008 14/11 Q1024 NOSIG RMK RWY20 16004KT 140V220 7ST008,LTCJ,2022-10-23T07:50:00Z,37.93,41.12,14.0,11.0,200,4,,6.21,30.236221,,,,,,TRUE,,,,,BKN,800,,,,,,,IFR,,,,,,,,,,,,METAR,559.0
LTCI 230750Z 30005KT 280V340 9999 FEW040 12/04 Q1028 NOSIG,LTCI,2022-10-23T07:50:00Z,38.47,43.33,12.0,4.0,300,5,,6.21,30.35433,,,,,,TRUE,,,,,FEW,4000,,,,,,,VFR,,,,,,,,,,,,METAR,1654.0
LTCG 230750Z 09008KT CAVOK 17/09 Q1022 NOSIG RMK RWY29 09007KT,LTCG,2022-10-23T07:50:00Z,41.0,39.77,17.0,9.0,90,8,,6.21,30.177166,,,,,,TRUE,,,,,CAVOK,,,,,,,,VFR,,,,,,,,,,,,METAR,28.0
LTCF 230750Z VRB03KT 9999 FEW040 07/02 Q1026,LTCF,2022-10-23T07:50:00Z,40.57,43.12,7.0,2.0,0,3,,6.21,30.295275,,,,,,,,,,,FEW,4000,,,,,,,VFR,,,,,,,,,,,,METAR,1794.0
LTCE 230750Z VRB02KT CAVOK 09/01 Q1026 NOSIG RMK RWY08R VRB02KT RWY26R VRB03KT RWY08L VRB02KT SKC,LTCE,2022-10-23T07:50:00Z,39.95,41.17,9.0,1.0,0,2,,6.21,30.295275,,,,,,TRUE,,,,,CAVOK,,,,,,,,VFR,,,,,,,,,,,,METAR,1758.0
LTCD 230750Z VRB02KT CAVOK 12/04 Q1026 NOSIG,LTCD,2022-10-23T07:50:00Z,39.72,39.52,12.0,4.0,0,2,,6.21,30.295275,,,,,,TRUE,,,,,CAVOK,,,,,,,,VFR,,,,,,,,,,,,METAR,1146.0
LTCB 230750Z 08005KT 050V110 CAVOK 18/10 Q1021,LTCB,2022-10-23T07:50:00Z,40.97,38.07,18.0,10.0,80,5,,6.21,30.147638,,,,,,,,,,,CAVOK,,,,,,,,VFR,,,,,,,,,,,,METAR,5.0
LTCA 230750Z 00000KT CAVOK 16/04 Q1025 NOSIG,LTCA,2022-10-23T07:50:00Z,38.6,39.28,16.0,4.0,0,0,,6.21,30.265747,,,,,,TRUE,,,,,CAVOK,,,,,,,,VFR,,,,,,,,,,,,METAR,887.0
LTBY 230750Z 10005KT 040V170 CAVOK 11/01 Q1025,LTBY,2022-10-23T07:50:00Z,39.82,30.52,11.0,1.0,100,5,,6.21,30.265747,,,,,,,,,,,CAVOK,,,,,,,,VFR,,,,,,,,,,,,METAR,788.0
LTBU 230750Z 23009KT 8000 SCT012 18/13 Q1021 RMK RWY22 25009KT,LTBU,2022-10-23T07:50:00Z,41.13,27.92,18.0,13.0,230,9,,4.97,30.147638,,,,,,,,,,,SCT,1200,,,,,,,MVFR,,,,,,,,,,,,METAR,165.0
LTBS 230750Z 04003KT 340V110 CAVOK 21/06 Q1021 BECMG TL0900 21012KT RMK RWY19 35004KT 320V040 SKC,LTBS,2022-10-23T07:50:00Z,36.7,28.78,21.0,6.0,40,3,,6.21,30.147638,,,,,,,,,,,CAVOK,,,,,,,,VFR,,,-1.2,,,,,,,,,METAR,2.0
LTBR 230750Z 17004KT 130V230 CAVOK 14/04 Q1023 NOSIG RMK RWY07 15003KT 060V170,LTBR,2022-10-23T07:50:00Z,40.25,29.57,14.0,4.0,170,4,,6.21,30.206694,,,,,,TRUE,,,,,CAVOK,,,,,,,,VFR,,,,,,,,,,,,METAR,233.0
LTBQ 230750Z VRB02KT CAVOK 16/08 Q1021 NOSIG,LTBQ,2022-10-23T07:50:00Z,40.73,30.07,16.0,8.0,0,2,,6.21,30.147638,,,,,,TRUE,,,,,CAVOK,,,,,,,,VFR,,,,,,,,,,,,METAR,51.0
LTBJ 230750Z 19004KT 110V220 CAVOK 19/03 Q1022 NOSIG RMK RWY16 21004KT 170V240,LTBJ,2022-10-23T07:50:00Z,38.28,27.15,19.0,3.0,190,4,,6.21,30.177166,,,,,,TRUE,,,,,CAVOK,,,,,,,,VFR,,,-0.4,,,,,,,,,METAR,123.0
LTBH 230750Z 23005KT CAVOK 18/10 Q1023,LTBH,2022-10-23T07:50:00Z,40.13,26.42,18.0,10.0,230,5,,6.21,30.206694,,,,,,,,,,,CAVOK,,,,,,,,VFR,,,,,,,,,,,,METAR,8.0
LTBF 230750Z 01003KT 330V060 CAVOK 14/03 Q1023 NOSIG,LTBF,2022-10-23T07:50:00Z,39.62,27.92,14.0,3.0,10,3,,6.21,30.206694,,,,,,TRUE,,,,,CAVOK,,,,,,,,VFR,,,,,,,,,,,,METAR,95.0
LTBD 230750Z 07009KT CAVOK 17/00 Q1023,LTBD,2022-10-23T07:50:00Z,37.82,27.88,17.0,0.0,70,9,,6.21,30.206694,,,,,,,,,,,CAVOK,,,,,,,,VFR,,,,,,,,,,,,METAR,29.0
LTBA 230750Z 24009KT CAVOK 17/13 Q1021 RMK RWY23 25013KT,LTBA,2022-10-23T07:50:00Z,40.97,28.82,17.0,13.0,240,9,,6.21,30.147638,,,,,,,,,,,CAVOK,,,,,,,,VFR,,,,,,,,,,,,METAR,33.0
LTAZ 230750Z 10004KT 050V200 CAVOK 10/M02 Q1026 RMK RWY29 11004KT 070V170,LTAZ,2022-10-23T07:50:00Z,38.77,34.52,10.0,-2.0,100,4,,6.21,30.295275,,,,,,,,,,,CAVOK,,,,,,,,VFR,,-0.4,,,,,,,,,,METAR,944.0
LTAY 230750Z 08006KT CAVOK 12/M02 Q1025,LTAY,2022-10-23T07:50:00Z,37.78,29.7,12.0,-2.0,80,6,,6.21,30.265747,,,,,,,,,,,CAVOK,,,,,,,,VFR,,,,,,,,,,,,METAR,851.0
LTAW 230750Z 28002KT CAVOK 10/05 Q1026,LTAW,2022-10-23T07:50:00Z,40.3,36.37,10.0,5.0,280,2,,6.21,30.295275,,,,,,,,,,,CAVOK,,,,,,,,VFR,,,,,,,,,,,,METAR,561.0
LTAU 230750Z 00000KT CAVOK 09/01 Q1026 NOSIG RMK RWY07 09003KT 360V170,LTAU,2022-10-23T07:50:00Z,38.77,35.48,9.0,1.0,0,0,,6.21,30.295275,,,,,,TRUE,,,,,CAVOK,,,,,,,,VFR,,,,,,,,,,,,METAR,1053.0
LTAT 230750Z 08003KT 020V120 CAVOK 14/01 Q1026 NOSIG RMK RWY03 VRB02KT,LTAT,2022-10-23T07:50:00Z,38.43,38.08,14.0,1.0,80,3,,6.21,30.295275,,,,,,TRUE,,,,,CAVOK,,,,,,,,VFR,,,,,,,,,,,,METAR,850.0
LTAS 230750Z 18007KT 140V220 9999 SCT035 BKN100 14/04 Q1020,LTAS,2022-10-23T07:50:00Z,41.52,32.08,14.0,4.0,180,7,,6.21,30.11811,,,,,,,,,,,SCT,3500,BKN,10000,,,,,VFR,,,,,,,,,,,,METAR,13.0
LTAR 230750Z 20005KT 140V240 CAVOK 07/M01 Q1026,LTAR,2022-10-23T07:50:00Z,39.8,36.9,7.0,-1.0,200,5,,6.21,30.295275,,,,,,,,,,,CAVOK,,,,,,,,VFR,,,,,,,,,,,,METAR,1601.0
LTAP 230750Z VRB02KT CAVOK 12/03 Q1024 NOSIG RMK RWY23 VRB02KT,LTAP,2022-10-23T07:50:00Z,40.83,35.52,12.0,3.0,0,2,,6.21,30.236221,,,,,,TRUE,,,,,CAVOK,,,,,,,,VFR,,,,,,,,,,,,METAR,536.0
LTAN 230750Z 16004KT 120V220 CAVOK 10/M03 Q1026 NOSIG,LTAN,2022-10-23T07:50:00Z,37.97,32.55,10.0,-3.0,160,4,,6.21,30.295275,,,,,,TRUE,,,,,CAVOK,,,,,,,,VFR,,,,,,,,,,,,METAR,1029.0
LTAL 230750Z VRB03KT CAVOK 10/M01 Q1022,LTAL,2022-10-23T07:50:00Z,41.32,33.8,10.0,-1.0,0,3,,6.21,30.177166,,,,,,,,,,,CAVOK,,,,,,,,VFR,,,,,,,,,,,,METAR,1074.0
LTAJ 230750Z 09004KT 040V130 CAVOK 19/08 Q1023 NOSIG RMK RWY10 09006KT SKC,LTAJ,2022-10-23T07:50:00Z,36.95,37.48,19.0,8.0,90,4,,6.21,30.206694,,,,,,TRUE,,,,,CAVOK,,,,,,,,VFR,,,,,,,,,,,,METAR,684.0
LTAI 230750Z 01006KT CAVOK 22/M00 Q1021 NOSIG RMK RWY18C 35006KT 320V030 RWY36R 01006KT 350V050 RWY18L 02005KT 330V050,LTAI,2022-10-23T07:50:00Z,36.9,30.8,22.0,0.0,10,6,,6.21,30.147638,,,,,,TRUE,,,,,CAVOK,,,,,,,,VFR,,,,,,,,,,,,METAR,50.0
LTAG 230750Z 04008KT CAVOK 25/02 Q1019 NOSIG RMK SKC,LTAG,2022-10-23T07:50:00Z,37.0,35.42,25.0,2.0,40,8,,6.21,30.088583,,,,,,TRUE,,,,,CAVOK,,,,,,,,VFR,,,,,,,,,,,,METAR,62.0
LTAF 230750Z 02007KT 350V060 CAVOK 25/06 Q1020 NOSIG RMK RWY23 03007KT 360V080 SKC,LTAF,2022-10-23T07:50:00Z,36.98,35.28,25.0,6.0,20,7,,6.21,30.11811,,,,,,TRUE,,,,,CAVOK,,,,,,,,VFR,,,,,,,,,,,,METAR,19.0
LTAE 230750Z VRB02KT CAVOK 11/M00 Q1026 NOSIG RMK RWY21 VRB01KT,LTAE,2022-10-23T07:50:00Z,40.07,32.57,11.0,0.0,0,2,,6.21,30.295275,,,,,,TRUE,,,,,CAVOK,,,,,,,,VFR,,,,,,,,,,,,METAR,836.0
LTAC 230750Z 18003KT 110V240 CAVOK 11/M01 Q1025 NOSIG RMK RWY21L 23003KT 160V310 RWY03L VRB02KT RWY21R 25003KT 200V280,LTAC,2022-10-23T07:50:00Z,40.12,32.98,11.0,-1.0,180,3,,6.21,30.265747,,,,,,TRUE,,,,,CAVOK,,,,,,,,VFR,,,,,,,,,,,,METAR,952.0
LLIB 230750Z AUTO 35005KT 270V060 9000 NSC 26/12 Q1018 RMK SCT140,LLIB,2022-10-23T07:50:00Z,32.98,35.57,26.0,12.0,350,5,,5.59,30.059055,,,TRUE,,,,,,,,CLR,,,,,,,,VFR,,,,,,,,,,,,METAR,268.0
LLHA 230750Z 13004KT 090V160 CAVOK 26/14 Q1017 RMK FEW100,LLHA,2022-10-23T07:50:00Z,32.8,35.03,26.0,14.0,130,4,,6.21,30.029528,,,,,,,,,,,CAVOK,,,,,,,,VFR,,,,,,,,,,,,METAR,3.0
LLER 230750Z 01013KT 9000 NSC 26/15 Q1017,LLER,2022-10-23T07:50:00Z,29.72,35.02,26.0,15.0,10,13,,5.59,30.029528,,,,,,,,,,,CLR,,,,,,,,VFR,,,,,,,,,,,,METAR,88.0
LIRU 230750Z VRB01KT 9999 SCT040 20/16 Q1024,LIRU,2022-10-23T07:50:00Z,41.95,12.5,20.0,16.0,0,1,,6.21,30.236221,,,,,,,,,,,SCT,4000,,,,,,,VFR,,,,,,,,,,,,METAR,16.0
LIRI 230750Z 10002KT CAVOK 20/15 Q1025,LIRI,2022-10-23T07:50:00Z,40.62,14.92,20.0,15.0,100,2,,6.21,30.265747,,,,,,,,,,,CAVOK,,,,,,,,VFR,,,,,,,,,,,,METAR,31.0
LIPK 230750Z VRB01KT CAVOK 18/17 Q1022,LIPK,2022-10-23T07:50:00Z,44.2,12.07,18.0,17.0,0,1,,6.21,30.177166,,,,,,,,,,,CAVOK,,,,,,,,VFR,,,,,,,,,,,,METAR,24.0
LIPB 230750Z VRB01KT 9999 BKN050 13/10 Q1024,LIPB,2022-10-23T07:50:00Z,46.47,11.32,13.0,10.0,0,1,,6.21,30.236221,,,,,,,,,,,BKN,5000,,,,,,,VFR,,,,,,,,,,,,METAR,239.0
LIMP 230750Z 10005KT 070V130 0800 R20/0700D FG BKN004 15/15 Q1022,LIMP,2022-10-23T07:50:00Z,44.82,10.3,15.0,15.0,100,5,,0.5,30.177166,,,,,,,,,,FG,BKN,400,,,,,,,LIFR,,,,,,,,,,,,METAR,41.0
LIMG 230750Z 23004KT 140V300 9999 SCT020 19/16 Q1021,LIMG,2022-10-23T07:50:00Z,44.03,8.12,19.0,16.0,230,4,,6.21,30.147638,,,,,,,,,,,SCT,2000,,,,,,,VFR,,,,,,,,,,,,METAR,41.0
LIMA 230750Z VRB02KT 8000 BKN013 16/16 Q1022,LIMA,2022-10-23T07:50:00Z,45.08,7.6,16.0,16.0,0,2,,4.97,30.177166,,,,,,,,,,,BKN,1300,,,,,,,MVFR,,,,,,,,,,,,METAR,285.0
LICG 230750Z 19013KT CAVOK 22/19 Q1025,LICG,2022-10-23T07:50:00Z,36.82,11.97,22.0,19.0,190,13,,6.21,30.265747,,,,,,,,,,,CAVOK,,,,,,,,VFR,,,,,,,,,,,,METAR,192.0
LIBG 230750Z VRB02KT 0500 R35/////// FG NSC 18/18 Q1024,LIBG,2022-10-23T07:50:00Z,40.52,17.4,18.0,18.0,0,2,,0.31,30.236221,,,,,,,,,,FG,CLR,,,,,,,,LIFR,,,,,,,,,,,,METAR,64.0
LIBF 230750Z VRB01KT CAVOK 20/14 Q1023,LIBF,2022-10-23T07:50:00Z,41.42,15.53,20.0,14.0,0,1,,6.21,30.206694,,,,,,,,,,,CAVOK,,,,,,,,VFR,,,,,,,,,,,,METAR,81.0
LIBC 230750Z 22003KT 180V240 CAVOK 23/14 Q1025,LIBC,2022-10-23T07:50:00Z,39.0,17.07,23.0,14.0,220,3,,6.21,30.265747,,,,,,,,,,,CAVOK,,,,,,,,VFR,,,,,,,,,,,,METAR,158.0
LGZA 230750Z 33009KT 9999 FEW018 22/17 Q1024,LGZA,2022-10-23T07:50:00Z,37.75,20.88,22.0,17.0,330,9,,6.21,30.236221,,,,,,,,,,,FEW,1800,,,,,,,VFR,,,,,,,,,,,,METAR,3.0
LGSR 230750Z 25007KT CAVOK 18/14 Q1023,LGSR,2022-10-23T07:50:00Z,36.4,25.48,18.0,14.0,250,7,,6.21,30.206694,,,,,,,,,,,CAVOK,,,,,,,,VFR,,,,,,,,,,,,METAR,31.0
LGSO 230750Z 27005KT CAVOK 20/15 Q1022,LGSO,2022-10-23T07:50:00Z,37.42,24.95,20.0,15.0,270,5,,6.21,30.177166,,,,,,,,,,,CAVOK,,,,,,,,VFR,,,,,,,,,,,,METAR,71.0
LGSM 230750Z 15005KT CAVOK 18/12 Q1022,LGSM,2022-10-23T07:50:00Z,37.68,26.92,18.0,12.0,150,5,,6.21,30.177166,,,,,,,,,,,CAVOK,,,,,,,,VFR,,,,,,,,,,,,METAR,5.0
LGSK 230750Z VRB02KT CAVOK 20/15 Q1020,LGSK,2022-10-23T07:50:00Z,39.18,23.5,20.0,15.0,0,2,,6.21,30.11811,,,,,,,,,,,CAVOK,,,,,,,,VFR,,,,,,,,,,,,METAR,13.0
LGPA 230750Z VRB02KT CAVOK 20/15 Q1023,LGPA,2022-10-23T07:50:00Z,37.02,25.1,20.0,15.0,0,2,,6.21,30.206694,,,,,,,,,,,CAVOK,,,,,,,,VFR,,,,,,,,,,,,METAR,42.0
LGNX 230750Z 00000KT CAVOK 20/11 Q1022,LGNX,2022-10-23T07:50:00Z,37.08,25.37,20.0,11.0,0,0,,6.21,30.177166,,,,,,,,,,,CAVOK,,,,,,,,VFR,,,,,,,,,,,,METAR,3.0
LGKZ 230750Z 18004KT CAVOK 18/09 Q1025,LGKZ,2022-10-23T07:50:00Z,40.28,21.83,18.0,9.0,180,4,,6.21,30.265747,,,,,,,,,,,CAVOK,,,,,,,,VFR,,,,,,,,,,,,METAR,615.0
LGKF 230750Z 33006KT 9999 FEW020 21/18 Q1024,LGKF,2022-10-23T07:50:00Z,38.12,20.5,21.0,18.0,330,6,,6.21,30.236221,,,,,,,,,,,FEW,2000,,,,,,,VFR,,,,,,,,,,,,METAR,14.0
LGHI 230750Z 00000KT CAVOK 20/13 Q1022,LGHI,2022-10-23T07:50:00Z,38.33,26.13,20.0,13.0,0,0,,6.21,30.177166,,,,,,,,,,,CAVOK,,,,,,,,VFR,,,,,,,,,,,,METAR,6.0
LCEN 230750Z 31006KT CAVOK 24/10 Q1020 NOSIG RMK RWY11 32006KT,LCEN,2022-10-23T07:50:00Z,35.15,33.5,24.0,10.0,310,6,,6.21,30.11811,,,,,,TRUE,,,,,CAVOK,,,,,,,,VFR,,,,,,,,,,,,METAR,91.0
KRYY 230750Z AUTO 00000KT 10SM CLR 07/05 A3020 RMK AO2 SLP220 T00670050 $,KRYY,2022-10-23T07:50:00Z,34.02,-84.6,6.7,5.0,0,0,,10.0,30.200787,1022.0,,TRUE,TRUE,TRUE,,,,,,CLR,,,,,,,,VFR,,,,,,,,,,,,METAR,306.0
KQEX 230750Z AUTO 33005KT 9999 CLR 19/06 A2993 RMK A02 TSNO,KQEX,2022-10-23T07:50:00Z,,,19.0,6.0,330,5,,6.21,29.929134,,,TRUE,TRUE,,,TRUE,,,,CLR,,,,,,,,VFR,,,,,,,,,,,,METAR,
KDAG 230750Z AUTO 25018G29KT 10SM CLR 16/08 A2968 RMK AO2 PK WND 24034/0700 SLP029 T01610078 402830161,KDAG,2022-10-23T07:50:00Z,34.85,-116.78,16.1,7.8,250,18,29,10.0,29.681103,1002.9,,TRUE,TRUE,,,,,,,CLR,,,,,,,,VFR,,,,28.3,16.1,,,,,,,SPECI,584.0
ESNG 230750Z AUTO 28015KT 9999 NCD 01/// Q0999,ESNG,2022-10-23T07:50:00Z,67.13,20.82,,,280,15,,6.21,29.498032,,,TRUE,,,,,,,,CLR,,,,,,,,VFR,,,,,,,,,,,,METAR,300.0
EKVD 230750Z 20006KT 170V230 0200 FG VV002 12/11 Q1013,EKVD,2022-10-23T07:50:00Z,55.43,9.32,12.0,11.0,200,6,,0.12,29.911417,,,,,,,,,,FG,OVX,0,,,,,,,LIFR,,,,,,,,,,,200,METAR,41.0
EKOD 230750Z 22005KT 9999 FEW005 BKN008 BKN010 12/11 Q1013,EKOD,2022-10-23T07:50:00Z,55.47,10.32,12.0,11.0,220,5,,6.21,29.911417,,,,,,,,,,,FEW,500,BKN,800,BKN,1000,,,IFR,,,,,,,,,,,,METAR,13.0
EGYP 230750Z 35014KT CAVOK 07/M03 Q1001,EGYP,2022-10-23T07:50:00Z,-51.82,-58.45,7.0,-3.0,350,14,,6.21,29.557087,,,,,,,,,,,CAVOK,,,,,,,,VFR,,,,,,,,,,,,METAR,70.0
EGYM 230750Z AUTO 11011KT 9000 -RA OVC087/// 15/14 Q1004,EGYM,2022-10-23T07:50:00Z,52.63,0.57,15.0,14.0,110,11,,5.59,29.64567,,,TRUE,,,,,,,-RA,OVC,8700,,,,,,,VFR,,,,,,,,,,,,METAR,25.0
EGYH 230750Z AUTO 12007KT 9000 -RA OVC088/// 14/13 Q1004,EGYH,2022-10-23T07:50:00Z,52.87,0.15,14.0,13.0,120,7,,5.59,29.64567,,,TRUE,,,,,,,-RA,OVC,8800,,,,,,,VFR,,,,,,,,,,,,METAR,5.0
EGYE 230750Z AUTO 14010KT //// VV/// ///// Q////,EGYE,2022-10-23T07:50:00Z,52.97,-0.57,,,140,10,,,,,,TRUE,,,,,,,,OVX,0,,,,,,,LIFR,,,,,,,,,,,,METAR,105.0
EGYD 230750Z AUTO 17007KT 5000 FEW034/// 13/13 Q1004,EGYD,2022-10-23T07:50:00Z,53.03,-0.5,13.0,13.0,170,7,,3.11,29.64567,,,TRUE,,,,,,,,FEW,3400,,,,,,,MVFR,,,,,,,,,,,,METAR,65.0
EGXZ 230750Z AUTO 12011KT 4900 -RA OVC003/// 13/12 Q1005,EGXZ,2022-10-23T07:50:00Z,54.2,-1.38,13.0,12.0,120,11,,3.04,29.675198,,,TRUE,,,,,,,-RA,OVC,300,,,,,,,LIFR,,,,,,,,,,,,METAR,24.0
EGXW 230750Z AUTO 13008KT 7000 -RA OVC060/// 13/13 Q1004,EGXW,2022-10-23T07:50:00Z,53.18,-0.52,13.0,13.0,130,8,,4.35,29.64567,,,TRUE,,,,,,,-RA,OVC,6000,,,,,,,MVFR,,,,,,,,,,,,METAR,70.0
EGXV 230750Z AUTO 13003KT 5000 -RA FEW026/// OVC078/// 12/12 Q1005,EGXV,2022-10-23T07:50:00Z,53.87,-0.45,12.0,12.0,130,3,,3.11,29.675198,,,TRUE,,,,,,,-RA,FEW,2600,OVC,7800,,,,,MVFR,,,,,,,,,,,,METAR,6.0
EGXT 230750Z AUTO 08011KT 6000 RA FEW048/// BKN065/// 13/13 Q1003,EGXT,2022-10-23T07:50:00Z,52.62,-0.47,13.0,13.0,80,11,,3.73,29.616142,,,TRUE,,,,,,,RA,FEW,4800,BKN,6500,,,,,MVFR,,,,,,,,,,,,METAR,74.0
EGXS 230750Z AUTO 11011KT 9000 BR OVC100/// 14/13 Q1004,EGXS,2022-10-23T07:50:00Z,53.48,0.15,14.0,13.0,110,11,,5.59,29.64567,,,TRUE,,,,,,,BR,OVC,10000,,,,,,,VFR,,,,,,,,,,,,METAR,6.0
EGXP 230750Z AUTO 12004KT 9999 // FEW030/// BKN060/// 13/13 Q1004,EGXP,2022-10-23T07:50:00Z,53.3,-0.55,13.0,13.0,120,4,,6.21,29.64567,,,TRUE,,,,,,,,FEW,3000,BKN,6000,,,,,VFR,,,,,,,,,,,,METAR,58.0
EGXE 230750Z AUTO 00000KT 3300 BR OVC006/// 13/12 Q1004,EGXE,2022-10-23T07:50:00Z,54.28,-1.52,13.0,12.0,0,0,,2.05,29.64567,,,TRUE,,,,,,,BR,OVC,600,,,,,,,IFR,,,,,,,,,,,,METAR,30.0
EGXC 230750Z 11006KT 7000 -RA SCT050 OVC080 14/13 Q1004 RMK WHT,EGXC,2022-10-23T07:50:00Z,53.1,-0.17,14.0,13.0,110,6,,4.35,29.64567,,,,,,,,,,-RA,SCT,5000,OVC,8000,,,,,MVFR,,,,,,,,,,,,METAR,9.0
EGWC 230750Z 10007KT 3000 +RA BKN010 14/13 Q1002 RMK YLO1,EGWC,2022-10-23T07:50:00Z,52.63,-2.3,14.0,13.0,100,7,,1.86,29.586615,,,,,,,,,,+RA,BKN,1000,,,,,,,IFR,,,,,,,,,,,,METAR,79.0
EGVP 230750Z AUTO 09005KT 9999 RA FEW065/// BKN079/// 15/14 Q1001,EGVP,2022-10-23T07:50:00Z,51.13,-1.57,15.0,14.0,90,5,,6.21,29.557087,,,TRUE,,,,,,,RA,FEW,6500,BKN,7900,,,,,VFR,,,,,,,,,,,,METAR,80.0
EGVO 230750Z AUTO 09003KT 9999 -RA OVC002/// 15/14 Q1002,EGVO,2022-10-23T07:50:00Z,51.23,-0.95,15.0,14.0,90,3,,6.21,29.586615,,,TRUE,,,,,,,-RA,OVC,200,,,,,,,LIFR,,,,,,,,,,,,METAR,118.0
EGUW 230750Z AUTO 12010KT 9999 BKN060/// BKN130/// 15/14 Q1004,EGUW,2022-10-23T07:50:00Z,52.12,0.97,15.0,14.0,120,10,,6.21,29.64567,,,TRUE,,,,,,,,BKN,6000,BKN,13000,,,,,VFR,,,,,,,,,,,,METAR,86.0
EGUB 230750Z AUTO 16009KT 4900 +RA OVC009/// 15/14 Q1002,EGUB,2022-10-23T07:50:00Z,51.62,-1.08,15.0,14.0,160,9,,3.04,29.586615,,,TRUE,,,,,,,+RA,OVC,900,,,,,,,IFR,,,,,,,,,,,,METAR,56.0
EGTC 230750Z 08006KT 9999 -RA FEW014 SCT021 BKN027 13/13 Q1003,EGTC,2022-10-23T07:50:00Z,52.07,-0.62,13.0,13.0,80,6,,6.21,29.616142,,,,,,,,,,-RA,FEW,1400,SCT,2100,BKN,2700,,,MVFR,,,,,,,,,,,,METAR,110.0
EGQS 230750Z 13006KT 9999 FEW025 09/08 Q1003 RMK BLU,EGQS,2022-10-23T07:50:00Z,57.72,-3.32,9.0,8.0,130,6,,6.21,29.616142,,,,,,,,,,,FEW,2500,,,,,,,VFR,,,,,,,,,,,,METAR,6.0
EGQM 230750Z AUTO 18005KT 0600 FG VV/// 11/11 Q1005,EGQM,2022-10-23T07:50:00Z,55.42,-1.6,11.0,11.0,180,5,,0.37,29.675198,,,TRUE,,,,,,,FG,OVX,0,,,,,,,LIFR,,,,,,,,,,,,SPECI,24.0
EGQK 230750Z AUTO 11004KT 9999 REFG NCD 07/07 Q1003,EGQK,2022-10-23T07:50:00Z,57.65,-3.57,7.0,7.0,110,4,,6.21,29.616142,,,TRUE,,,,,,,,CLR,,,,,,,,VFR,,,,,,,,,,,,METAR,5.0
EGPU 230750Z AUTO 16009KT 9999 BKN016/// BKN020/// 13/11 Q1000,EGPU,2022-10-23T07:50:00Z,56.5,-6.88,13.0,11.0,160,9,,6.21,29.52756,,,TRUE,,,,,,,,BKN,1600,BKN,2000,,,,,MVFR,,,,,,,,,,,,METAR,12.0
EGPI 230750Z AUTO 12009KT 080V150 9999 FEW009/// 13/13 Q1000,EGPI,2022-10-23T07:50:00Z,55.68,-6.25,13.0,13.0,120,9,,6.21,29.52756,,,TRUE,,,,,,,,FEW,900,,,,,,,VFR,,,,,,,,,,,,METAR,17.0
EGOV 230750Z AUTO 09011KT 9000 -RA OVC075/// 15/12 Q0998,EGOV,2022-10-23T07:50:00Z,53.25,-4.53,15.0,12.0,90,11,,5.59,29.468504,,,TRUE,,,,,,,-RA,OVC,7500,,,,,,,VFR,,,,,,,,,,,,METAR,11.0
EGOS 230750Z AUTO 10011KT 6000 RA FEW003/// BKN075/// 13/13 Q1000,EGOS,2022-10-23T07:50:00Z,52.8,-2.67,13.0,13.0,100,11,,3.73,29.52756,,,TRUE,,,,,,,RA,FEW,300,BKN,7500,,,,,MVFR,,,,,,,,,,,,METAR,76.0
EGOP 230750Z AUTO 13012KT 9999 OVC019/// 15/13 Q0998,EGOP,2022-10-23T07:50:00Z,51.72,-4.37,15.0,13.0,130,12,,6.21,29.468504,,,TRUE,,,,,,,,OVC,1900,,,,,,,MVFR,,,,,,,,,,,,METAR,8.0
EGOM 230750Z AUTO 07007KT 6000 BR SCT001/// BKN060/// BKN079/// 10/09 Q1003,EGOM,2022-10-23T07:50:00Z,55.05,-2.55,10.0,9.0,70,7,,3.73,29.616142,,,TRUE,,,,,,,BR,SCT,100,BKN,6000,BKN,7900,,,MVFR,,,,,,,,,,,,METAR,286.0
EGDY 230750Z AUTO 10005KT 9999 -RA OVC088/// 14/13 Q0999,EGDY,2022-10-23T07:50:00Z,51.0,-2.63,14.0,13.0,100,5,,6.21,29.498032,,,TRUE,,,,,,,-RA,OVC,8800,,,,,,,VFR,,,,,,,,,,,,METAR,21.0
EGDR 230750Z AUTO 17007KT 8000 BR OVC004/// 14/13 Q0998,EGDR,2022-10-23T07:50:00Z,50.08,-5.25,14.0,13.0,170,7,,4.97,29.468504,,,TRUE,,,,,,,BR,OVC,400,,,,,,,LIFR,,,,,,,,,,,,METAR,74.0
EGDM 230750Z AUTO 11007KT 9999 -RA BKN081/// BKN100/// 14/14 Q1000,EGDM,2022-10-23T07:50:00Z,51.17,-1.75,14.0,14.0,110,7,,6.21,29.52756,,,TRUE,,,,,,,-RA,BKN,8100,BKN,10000,,,,,VFR,,,,,,,,,,,,METAR,122.0
EGCK 230750Z AUTO 10013G23KT 9999 -RA FEW003/// SCT039/// 16/12 Q0998,EGCK,2022-10-23T07:50:00Z,53.1,-4.33,16.0,12.0,100,13,23,6.21,29.468504,,,TRUE,,,,,,,-RA,FEW,300,SCT,3900,,,,,VFR,,,,,,,,,,,,METAR,6.0
EEEI 230750Z 25004KT 9999 SCT032 BKN040 08/08 Q1008 NOSIG,EEEI,2022-10-23T07:50:00Z,59.27,24.2,8.0,8.0,250,4,,6.21,29.763779,,,,,,TRUE,,,,,SCT,3200,BKN,4000,,,,,VFR,,,,,,,,,,,,METAR,19.0
EDGS 230750Z 14007KT 9999 3000E BCFG NSC 11/10 Q1014,EDGS,2022-10-23T07:50:00Z,50.7,8.08,11.0,10.0,140,7,,6.21,29.940945,,,,,,,,,,BCFG,CLR,,,,,,,,VFR,,,,,,,,,,,,METAR,595.0
BGSF 230750Z AUTO 04011KT 9999NDV SCT065/// BKN080/// 05/M01 Q0996,BGSF,2022-10-23T07:50:00Z,67.0,-50.72,5.0,-1.0,40,11,,,29.409449,,,TRUE,,,,,,,,SCT,6500,BKN,8000,,,,,,,,,,,,,,,,,METAR,75.0
BGKK 230750Z AUTO VRB01KT 9999NDV FEW080/// BKN100/// M00/M03 Q1007,BGKK,2022-10-23T07:50:00Z,65.57,-37.13,0.0,-3.0,0,1,,,29.734253,,,TRUE,,,,,,,,FEW,8000,BKN,10000,,,,,,,,,,,,,,,,,METAR,37.0
BGJN 230750Z AUTO 10015KT 9999NDV SCT074/// BKN150/// 04/M03 Q0996,BGJN,2022-10-23T07:50:00Z,69.25,-51.07,4.0,-3.0,100,15,,,29.409449,,,TRUE,,,,,,,,SCT,7400,BKN,15000,,,,,,,,,,,,,,,,,METAR,22.0
BGGH 230750Z AUTO 16029G41KT 5000NDV -SG OVC036/// 03/01 Q0996,BGGH,2022-10-23T07:50:00Z,64.2,-51.68,3.0,1.0,160,29,41,,29.409449,,,TRUE,,,,,,,-SG,OVC,3600,,,,,,,,,,,,,,,,,,,METAR,76.0
BGBW 230750Z AUTO 22002KT 9999NDV -DZ OVC050/// 02/01 Q1006,BGBW,2022-10-23T07:50:00Z,61.17,-45.42,2.0,1.0,220,2,,,29.704725,,,TRUE,,,,,,,-DZ,OVC,5000,,,,,,,,,,,,,,,,,,,METAR,49.0
MMGL 230748Z 00000KT 8SM BKN020 OVC090 18/15 A3014 RMK 8/57/,MMGL,2022-10-23T07:48:00Z,20.52,-103.32,18.0,15.0,0,0,,8.0,30.138779,,,,,,,,,,,BKN,2000,OVC,9000,,,,,MVFR,,,,,,,,,,,,METAR,1531.0
KMWN 230748Z 13003KT 80SM SCT130 10/M11 RMK,KMWN,2022-10-23T07:48:00Z,44.27,-71.3,10.0,-11.0,130,3,,80.0,,,,,,,,,,,,SCT,13000,,,,,,,VFR,,,,,,,,,,,,METAR,1911.0
KJDN 230748Z AUTO 05008KT 07/06 A2946 RMK AO1 SLP986 P0003 T00670056,KJDN,2022-10-23T07:48:00Z,47.33,-106.95,6.7,5.6,50,8,,,29.459646,998.6,,TRUE,TRUE,,,,,,,,,,,,,,,,,,,,,0.03,,,,,,METAR,802.0
MMML 230747Z 27007KT 10SM SKC 20/08 A2968,MMML,2022-10-23T07:47:00Z,32.62,-115.23,20.0,8.0,270,7,,10.0,29.681103,,,,,,,,,,,SKC,,,,,,,,VFR,,,,,,,,,,,,METAR,21.0
MMAA 230747Z 00000KT 5SM FEW015 FEW300 25/23 A2989 RMK 8/102 HZY,MMAA,2022-10-23T07:47:00Z,16.75,-99.75,25.0,23.0,0,0,,5.0,29.890747,,,,,,,,,,,FEW,1500,FEW,30000,,,,,MVFR,,,,,,,,,,,,METAR,5.0
KCQT 230747Z AUTO 00000KT 10SM SCT023 SCT055 17/13 A2978 RMK AO2 SLP084 T01670133 402110167,KCQT,2022-10-23T07:47:00Z,34.02,-118.28,16.7,13.3,0,0,,10.0,29.778543,1008.4,,TRUE,TRUE,,,,,,,SCT,2300,SCT,5500,,,,,VFR,,,,21.1,16.7,,,,,,,METAR,51.0
YPPH 230746Z AUTO 19010KT 9999 RA SCT010 SCT074 OVC091 17/15 Q1008,YPPH,2022-10-23T07:46:00Z,-31.93,115.98,17.0,15.0,190,10,,6.21,29.763779,,,TRUE,,,,,,,RA,SCT,1000,SCT,7400,OVC,9100,,,VFR,,,,,,,,,,,,SPECI,16.0
MMAS 230746Z 16006KT 10SM SCT230 14/11 A3022 RMK 8/006,MMAS,2022-10-23T07:46:00Z,21.7,-102.32,14.0,11.0,160,6,,10.0,30.221457,,,,,,,,,,,SCT,23000,,,,,,,VFR,,,,,,,,,,,,METAR,1866.0
PAGM 230745Z AUTO 2 1/2SM -RA BR FEW008 BKN017 OVC027 01/M01 A2977 RMK AO2 VIS 1 1/2V5 UPB00E12RAB37 P0000 FZRANO $,PAGM,2022-10-23T07:45:00Z,63.77,-171.73,1.0,-1.0,,,,2.5,29.769686,,,TRUE,TRUE,TRUE,,,TRUE,,-RA BR,FEW,800,BKN,1700,OVC,2700,,,IFR,,,,,,0.005,,,,,,SPECI,6.0
MMMX 230745Z 30004KT 8SM SCT020 BKN100 BKN220 17/12 A3029 NOSIG RMK 8/538 HZY,MMMX,2022-10-23T07:45:00Z,19.43,-99.08,17.0,12.0,300,4,,8.0,30.28937,,,,,,TRUE,,,,,SCT,2000,BKN,10000,BKN,22000,,,VFR,,,,,,,,,,,,METAR,2224.0
MMCZ 230745Z 00000KT 7SM SKC 20/18 A2995,MMCZ,2022-10-23T07:45:00Z,20.52,-86.92,20.0,18.0,0,0,,7.0,29.949802,,,,,,,,,,,SKC,,,,,,,,VFR,,,,,,,,,,,,METAR,7.0
LHSM 230745Z AUTO VRB02KT 0450 R16/0750N FG VV002 11/11 Q1023 BECMG 0900 FG BKN003,LHSM,2022-10-23T07:45:00Z,46.68,17.17,11.0,11.0,0,2,,0.28,30.206694,,,TRUE,,,,,,,FG,OVX,0,,,,,,,LIFR,,,,,,,,,,,200,METAR,119.0
LHPR 230745Z AUTO VRB02KT 0400 R29/0550N BCFG FEW001 11/10 Q1022 BECMG 0900 BCFG,LHPR,2022-10-23T07:45:00Z,47.63,17.82,11.0,10.0,0,2,,0.25,30.177166,,,TRUE,,,,,,,BCFG,FEW,100,,,,,,,LIFR,,,,,,,,,,,,METAR,127.0
LHPA 230745Z 14002KT CAVOK 14/14 Q1022 NOSIG RMK BLU,LHPA,2022-10-23T07:45:00Z,47.35,17.5,14.0,14.0,140,2,,6.21,30.177166,,,,,,TRUE,,,,,CAVOK,,,,,,,,VFR,,,,,,,,,,,,METAR,143.0
KSWF 230745Z 00000KT 7SM BKN120 05/04 A2029,KSWF,2022-10-23T07:45:00Z,41.5,-74.08,5.0,4.0,0,0,,7.0,20.291338,,,,,,,,,,,BKN,12000,,,,,,,VFR,,,,,,,,,,,,METAR,139.0
KBDN 230745Z AUTO 10005KT 10SM SCT028 SCT040 02/M00 A2988 RMK AO2,KBDN,2022-10-23T07:45:00Z,44.1,-121.2,2.0,0.0,100,5,,10.0,29.878937,,,TRUE,TRUE,,,,,,,SCT,2800,SCT,4000,,,,,VFR,,,,,,,,,,,,METAR,1044.0
MMUN 230743Z 32003KT 7SM SKC 17/16 A2996,MMUN,2022-10-23T07:43:00Z,21.03,-86.85,17.0,16.0,320,3,,7.0,29.958662,,,,,,,,,,,SKC,,,,,,,,VFR,,,,,,,,,,,,METAR,13.0
MMMM 230742Z 00000KT 7SM SCT030 SCT300 15/14 A3022 RMK 8/508 HZY,MMMM,2022-10-23T07:42:00Z,19.85,-101.03,15.0,14.0,0,0,,7.0,30.221457,,,,,,,,,,,SCT,3000,SCT,30000,,,,,VFR,,,,,,,,,,,,METAR,1840.0
MMTO 230741Z 00000KT 3SM BR HZ BKN015 OVC070 12/12 A3037 RMK 8/43/ BINOVC,MMTO,2022-10-23T07:41:00Z,19.35,-99.57,12.0,12.0,0,0,,3.0,30.369095,,,,,,,,,,BR HZ,BKN,1500,OVC,7000,,,,,MVFR,,,,,,,,,,,,METAR,2582.0
MMTJ 230741Z 18005KT 6SM BKN030 16/16 A2985 RMK 8/700 HZY,MMTJ,2022-10-23T07:41:00Z,32.53,-116.97,16.0,16.0,180,5,,6.0,29.84941,,,,,,,,,,,BKN,3000,,,,,,,MVFR,,,,,,,,,,,,METAR,150.0
MMMZ 230741Z 00000KT 10SM SCT030 BKN080 OVC240 25/25 A2977 RMK 8/477,MMMZ,2022-10-23T07:41:00Z,23.17,-106.27,25.0,25.0,0,0,,10.0,29.769686,,,,,,,,,,,SCT,3000,BKN,8000,OVC,24000,,,VFR,,,,,,,,,,,,METAR,7.0
MMMD 230741Z 17004KT 7SM SKC 18/17 A2999,MMMD,2022-10-23T07:41:00Z,20.95,-89.65,18.0,17.0,170,4,,7.0,29.991142,,,,,,,,,,,SKC,,,,,,,,VFR,,,,,,,,,,,,METAR,10.0
MMHO 230741Z 20005KT 10SM SCT080 24/17 A2982 RMK 8/030 HZY,MMHO,2022-10-23T07:41:00Z,29.08,-111.05,24.0,17.0,200,5,,10.0,29.819881,,,,,,,,,,,SCT,8000,,,,,,,VFR,,,,,,,,,,,,METAR,186.0
KRPX 230741Z AUTO 10SM 04/02 A2943 RMK Roundup ,KRPX,2022-10-23T07:41:00Z,46.47,-108.55,4.0,2.0,,,,10.0,29.430119,,,TRUE,,,,,,,,,,,,,,,,,,,,,,,,,,,,METAR,1062.0
MMZC 230740Z E16009KT 10SM SCT080 14/12 A3021 RMK 8/020,MMZC,2022-10-23T07:40:00Z,22.9,-102.68,14.0,12.0,160,9,,10.0,30.209646,,,,,,,,,,,SCT,8000,,,,,,,VFR,,,,,,,,,,,,METAR,2175.0
MMTP 230740Z 00000KT 8SM SCT100 24/24 A2989 RMK 8/060,MMTP,2022-10-23T07:40:00Z,14.78,-92.37,24.0,24.0,0,0,,8.0,29.890747,,,,,,,,,,,SCT,10000,,,,,,,VFR,,,,,,,,,,,,METAR,27.0
MMSP 230740Z 00000KT 7SM SKC 15/10 A3018 RMK SC/CI,MMSP,2022-10-23T07:40:00Z,22.25,-100.93,15.0,10.0,0,0,,7.0,30.180119,,,,,,,,,,,SKC,,,,,,,,VFR,,,,,,,,,,,,METAR,1841.0
MMQT 230740Z 00000KT 8SM BKN020 16/11 A3027 RMK 8/500,MMQT,2022-10-23T07:40:00Z,20.62,-100.18,16.0,11.0,0,0,,8.0,30.268702,,,,,,,,,,,BKN,2000,,,,,,,MVFR,,,,,,,,,,,,METAR,1909.0
MMMY 230740Z 09004KT 10SM SKC 19/17 A2986,MMMY,2022-10-23T07:40:00Z,25.77,-100.1,19.0,17.0,90,4,,10.0,29.861221,,,,,,,,,,,SKC,,,,,,,,VFR,,,,,,,,,,,,METAR,382.0
YMAY 230735Z AUTO 08007KT 6000 // SCT035 SCT042 BKN050 21/19 Q1010,YMAY,2022-10-23T07:35:00Z,-36.07,146.95,21.0,19.0,80,7,,3.73,29.822834,,,TRUE,,,,,,,,SCT,3500,SCT,4200,BKN,5000,,,MVFR,,,,,,,,,,,,SPECI,156.0
YNAR 230730Z AUTO 11017KT 9999 // SCT043 SCT053 24/16 Q1008,YNAR,2022-10-23T07:30:00Z,-34.7,146.52,24.0,16.0,110,17,,6.21,29.763779,,,TRUE,,,,,,,,SCT,4300,SCT,5300,,,,,VFR,,,,,,,,,,,,SPECI,142.0
VYMD 230730Z 18002KT 8000 SCT025 36/21 Q1009 NOSIG,VYMD,2022-10-23T07:30:00Z,21.7,95.98,36.0,21.0,180,2,,4.97,29.793306,,,,,,TRUE,,,,,SCT,2500,,,,,,,MVFR,,,,,,,,,,,,METAR,87.0
VOPC 230730Z 28004KT 5000 HZ SCT015 BKN080 30/24 Q1011 NOSIG,VOPC,2022-10-23T07:30:00Z,11.97,79.82,30.0,24.0,280,4,,3.11,29.852362,,,,,,TRUE,,,,HZ,SCT,1500,BKN,8000,,,,,MVFR,,,,,,,,,,,,METAR,43.0
VAOZ 230730Z 10010KT 6000 NSC 29/09 Q1017 NOSIG,VAOZ,2022-10-23T07:30:00Z,20.12,73.92,29.0,9.0,100,10,,3.73,30.029528,,,,,,TRUE,,,,,CLR,,,,,,,,MVFR,,,,,,,,,,,,METAR,598.0
KFYG 230715Z AUTO 13008KT 10SM CLR 20/13 A2981 RMK AO2,KFYG,2022-10-23T07:15:00Z,38.58,-91.0,20.0,13.0,130,8,,10.0,29.811024,,,TRUE,TRUE,,,,,,,CLR,,,,,,,,VFR,,,,,,,,,,,,METAR,147.0
