{"station_id": ["AGGA", "AGGC", "AGGH", "AGGK", "AGGL", "AGGM", "AGGN", "AGGR", "ANYN", "AYPY", "BGAA", "BGBW", "BGCO", "BGGH", "BGJN", "BGKK", "BGMQ", "BGPT", "BGQQ", "BGSF", "BGSS", "BGUK", "BGUQ", "BIAR", "BIBD", "BIEG", "BIGR", "BIHN", "BIHU", "BIIS", "BIKF", "BIRK", "BITN", "BIVM", "BIVO", "BKPR", "CWSA", "CWWU", "CYAH", "CYAM", "CYAT", "CYAY", "CYBC", "CYBG", "CYBK", "CYBR", "CYBW", "CYBX", "CYCA", "CYCB", "CYCO", "CYCY", "CYDB", "CYDF", "CYDN", "CYDP", "CYEG", "CYEN", "CYER", "CYEU", "CYEV", "CYFB", "CYFC", "CYFS", "CYGK", "CYGL", "CYGP", "CYGQ", "CYGR", "CYGV", "CYGW", "CYGX", "CYHD", "CYHK", "CYHM", "CYHU", "CYHY", "CYHZ", "CYIO", "CYIV", "CYJT", "CYKA", "CYKF", "CYKJ", "CYKL", "CYLD", "CYLL", "CYLW", "CYMA", "CYMH", "CYMM", "CYMO", "CYMT", "CYMX", "CYNA", "CYNE", "CYOD", "CYOJ", "CYOO", "CYOW", "CYPA", "CYPE", "CYPH", "CYPL", "CYPQ", "CYPR", "CYPX", "CYPY", "CYQA", "CYQB", "CYQD", "CYQF", "CYQG", "CYQH", "CYQI", "CYQK", "CYQL", "CYQM", "CYQQ", "CYQR", "CYQT", "CYQU", "CYQV", "CYQW", "CYQX", "CYQY", "CYQZ", "CYRB", "CYRJ", "CYRL", "CYRQ", "CYRT", "CYSB", "CYSC", "CYSF", "CYSJ", "CYSM", "CYTE", "CYTH", "CYTL", "CYTR", "CYTS", "CYTZ", "CYUL", "CYUX", "CYUY", "CYVC", "CYVM", "CYVO", "CYVP", "CYVQ", "CYVR", "CYVV", "CYWG", "CYWK", "CYWL", "CYXC", "CYXE", "CYXH", "CYXJ", "CYXL", "CYXR", "CYXS", "CYXT", "CYXU", "CYXX", "CYXY", "CYYB", "CYYC", "CYYE", "CYYF", "CYYG", "CYYH", "CYYJ", "CYYL", "CYYN", "CYYQ", "CYYR", "CYYT", "CYYU", "CYYY", "CYYZ", "CYZE", "CYZF", "CYZH", "CYZP", "CYZR", "CYZS", "CYZT", "CYZV", "CYZX", "CZBF", "CZMD", "CZSJ", "CZUM", "CZVL", "DAAD", "DAAE", "DAAG", "DAAJ", "DAAP", "DAAS", "DAAT", "DAAV", "DAAY", "DABB", "DABC", "DABS", "DABT", "DAFH", "DAOB", "DAOF", "DAOI", "DAON", "DAOO", "DAOR", "DAOV", "DATM", "DAUA", "DAUB", "DAUG", "DAUH", "DAUI", "DAUK", "DAUL", "DAUO", "DAUT", "DAUU", "DAUZ", "DBBB", "DFFD", "DFOO", "DGAA", "DGLE", "DGSI", "DIAP", "DIBK", "DIYO", "DNAA", "DNAK", "DNBE", "DNGO", "DNIB", "DNIL", "DNJO", "DNKA", "DNKN", "DNKT", "DNMA", "DNMM", "DNSO", "DNSU", "DNYO", "DRRN", "DRZA", "DRZR", "DTKA", "DTMB", "DTNH", "DTTA", "DTTB", "DTTF", "DTTG", "DTTJ", "DTTR", "DTTX", "DTTZ", "DXNG", "DXXX", "EBAW", "EBBR", "EBCI", "EBCV", "EBFS", "EBLG", "EBOS", "EDAC", "EDAH", "EDDB", "EDDC", "EDDE", "EDDF", "EDDG", "EDDH", "EDDK", "EDDL", "EDDM", "EDDN", "EDDP", "EDDR", "EDDS", "EDDV", "EDDW", "EDFH", "EDFM", "EDGS", "EDHI", "EDHK", "EDHL", "EDJA", "EDLN", "EDLP", "EDLV", "EDLW", "EDMA", "EDMO", "EDNY", "EDQM", "EDSB", "EDTL", "EDTY", "EDVE", "EDVK", "EDXW", "EEEI", "EETN", "EETU", "EFHA", "EFHK", "EFIV", "EFJY", "EFKK", "EFKT", "EFKU", "EFLP", "EFMA", "EFOU", "EFPO", "EFRO", "EFSA", "EFSI", "EFTP", "EFTU", "EFUT", "EFVA", "EGAA", "EGAC", "EGAE", "EGBB", "EGBJ", "EGCC", "EGCK", "EGCN", "EGDR", "EGDY", "EGEC", "EGEO", "EGFF", "EGGD", "EGGP", "EGGW", "EGHC", "EGHE", "EGHH", "EGHI", "EGHQ", "EGJA", "EGJB", "EGJJ", "EGKA", "EGKB", "EGKK", "EGLC", "EGLF", "EGLL", "EGMC", "EGMD", "EGNH", "EGNJ", "EGNM", "EGNO", "EGNR", "EGNS", "EGNT", "EGNV", "EGNX", "EGOS", "EGOV", "EGOW", "EGPA", "EGPB", "EGPC", "EGPD", "EGPE", "EGPF", "EGPH", "EGPI", "EGPK", "EGPL", "EGPN", "EGPO", "EGPU", "EGQL", "EGQS", "EGSC", "EGSH", "EGSS", "EGSY", "EGTC", "EGTE", "EGTK", "EGUB", "EGUN", "EGUW", "EGVN", "EGVO", "EGVP", "EGWC", "EGWU", "EGXC", "EGXE", "EGXP", "EGXT", "EGXW", "EGYD", "EGYP", "EHAM", "EHBK", "EHEH", "EHGG", "EHGR", "EHKD", "EHLE", "EHLW", "EHRD", "EHVK", "EHWO", "EICK", "EIDL", "EIDW", "EIKN", "EIKY", "EIME", "EINN", "EISG", "EIWF", "EKAH", "EKBI", "EKCH", "EKEB", "EKGC", "EKHD", "EKKA", "EKOD", "EKRK", "EKRN", "EKSB", "EKSP", "EKVD", "EKVG", "EKVJ", "EKYT", "ELLX", "ENAL", "ENAN", "ENAT", "ENBN", "ENBO", "ENBR", "ENBS", "ENBV", "ENCN", "ENDU", "ENEV", "ENFL", "ENGC", "ENGM", "ENHD", "ENHE", "ENHF", "ENHV", "ENKB", "ENKR", "ENLE", "ENML", "ENMS", "ENNA", "ENNE", "ENNO", "ENOA", "ENOL", "ENOV", "ENRA", "ENRM", "ENRO", "ENRY", "ENSB", "ENSD", "ENSH", "ENSK", "ENSO", "ENSR", "ENTC", "ENTO", "ENVA", "ENVD", "ENZV", "EPBY", "EPCE", "EPDA", "EPDE", "EPGD", "EPIR", "EPKK", "EPKS", "EPKT", "EPLB", "EPLK", "EPLL", "EPLY", "EPMB", "EPMI", "EPMM", "EPMO", "EPOK", "EPPO", "EPPR", "EPPW", "EPRA", "EPRZ", "EPSC", "EPSN", "EPSY", "EPTM", "EPWA", "EPWR", "EPZG", "ESCF", "ESCM", "ESDF", "ESGG", "ESGJ", "ESGP", "ESGT", "ESIA", "ESIB", "ESKN", "ESMK", "ESMQ", "ESMS", "ESMT", "ESMX", "ESNG", "ESNK", "ESNN", "ESNQ", "ESNS", "ESNU", "ESNX", "ESNZ", "ESOE", "ESOK", "ESOW", "ESPA", "ESPE", "ESSA", "ESSB", "ESSD", "ESSL", "ESSP", "ESSV", "ESTA", "ESTL", "ETAD", "ETAR", "ETHA", "ETHB", "ETHC", "ETHF", "ETHL", "ETHN", "ETHS", "ETIK", "ETMN", "ETND", "ETNG", "ETNH", "ETNL", "ETNN", "ETNS", "ETNW", "ETSB", "ETSH", "ETSI", "ETSL", "ETSN", "EVGA", "EVLA", "EVRA", "EYKA", "EYPA", "EYSA", "EYVI", "FABL", "FACT", "FAEL", "FAGG", "FAHS", "FAKM", "FAKN", "FALA", "FALE", "FAMM", "FAOR", "FAPE", "FAPM", "FAPP", "FARB", "FAUP", "FAUT", "FAWB", "FAWK", "FBKE", "FBMN", "FBPM", "FBSK", "FCBB", "FCPP", "FDMS", "FDSK", "FEFF", "FGBT", "FGSL", "FHAW", "FIMP", "FIMR", "FJDG", "FKKD", "FKKL", "FKKR", "FKYS", "FLCP", "FLHN", "FLKK", "FLKS", "FLMA", "FLMF", "FLSK", "FLSW", "FMCH", "FMCZ", "FMEE", "FMEP", "FMMI", "FMMS", "FMMT", "FMNA", "FMNM", "FMNN", "FMSD", "FMST", "FNBG", "FNCA", "FNCT", "FNDU", "FNGI", "FNHU", "FNKU", "FNLU", "FNMA", "FNME", "FNMO", "FNSA", "FNSO", "FNUB", "FNUE", "FOOG", "FOOL", "FQBR", "FQCH", "FQIN", "FQLC", "FQMA", "FQNC", "FQNP", "FQPB", "FQQL", "FQTT", "FQVL", "FQXA", "FSIA", "FTTJ", "FVJN", "FVRG", "FWCL", "FWKI", "FYGF", "FYKM", "FYLZ", "FYRU", "FYWB", "FYWE", "FYWH", "FZAA", "GABS", "GAGO", "GBYD", "GCFV", "GCGM", "GCHI", "GCLA", "GCLP", "GCRR", "GCTS", "GCXO", "GECE", "GEML", "GFLL", "GGOV", "GLRB", "GMAD", "GMAG", "GMFF", "GMFK", "GMFM", "GMFO", "GMME", "GMMH", "GMMI", "GMML", "GMMN", "GMMW", "GMMX", "GMMZ", "GMTA", "GMTT", "GOBD", "GOGS", "GOOY", "GOSS", "GQNO", "GQPP", "GUCY", "GVAC", "GVBA", "GVNP", "GVSV", "HAAB", "HABD", "HADC", "HADR", "HAGN", "HAJJ", "HALA", "HBBA", "HCMM", "HDAM", "HEAL", "HEAR", "HEAT", "HEAX", "HEBA", "HEBL", "HECA", "HEGN", "HELX", "HEMA", "HEMM", "HEOW", "HEPS", "HESC", "HESG", "HESH", "HESN", "HETB", "HETR", "HKEL", "HKJK", "HKKI", "HKML", "HKMO", "HKNW", "HLGD", "HLGT", "HLKF", "HLLB", "HLLM", "HLLQ", "HLLS", "HLMS", "HLON", "HLTD", "HLTQ", "HLUB", "HRYR", "HRZA", "HSKA", "HSOB", "HSPN", "HSSJ", "HSSK", "HTAR", "HTDA", "HTDO", "HTKA", "HTKJ", "HTMW", "HTTB", "HTZA", "HUEN", "HUSO", "KABE", "KABI", "KABQ", "KABR", "KABY", "KACK", "KACT", "KACV", "KACY", "KADF", "KADW", "KAEG", "KAEX", "KAFW", "KAGC", "KAGS", "KAHN", "KAIA", "KALB", "KALI", "KALO", "KALS", "KALW", "KAMA", "KANB", "KAND", "KAOO", "KAPA", "KAPC", "KAPF", "KAPN", "KARA", "KART", "KASD", "KASE", "KASN", "KAST", "KATL", "KATW", "KATY", "KAUG", "KAUS", "KAUW", "KAVL", "KAVP", "KAXN", "KAZO", "KBAD", "KBAF", "KBAM", "KBBD", "KBBG", "KBCB", "KBCE", "KBDL", "KBDN", "KBDR", "KBED", "KBFD", "KBFF", "KBFI", "KBFL", "KBFM", "KBGM", "KBGR", "KBHB", "KBHM", "KBIF", "KBIH", "KBIL", "KBIS", "KBJC", "KBJI", "KBKE", "KBKF", "KBKW", "KBLF", "KBLH", "KBLI", "KBLV", "KBMG", "KBMI", "KBNA", "KBNO", "KBOI", "KBOS", "KBPI", "KBPK", "KBPT", "KBRD", "KBRL", "KBRO", "KBTL", "KBTM", "KBTR", "KBTV", "KBUF", "KBUR", "KBVI", "KBVO", "KBWG", "KBWI", "KBYI", "KBZN", "KCAE", "KCAK", "KCAR", "KCDC", "KCDR", "KCDS", "KCEC", "KCEF", "KCGI", "KCHA", "KCHO", "KCHS", "KCID", "KCIU", "KCKB", "KCKV", "KCLE", "KCLL", "KCLM", "KCLT", "KCMA", "KCMH", "KCMI", "KCMX", "KCNM", "KCNU", "KCNY", "KCOD", "KCOE", "KCON", "KCOS", "KCOT", "KCOU", "KCPR", "KCPS", "KCRE", "KCRG", "KCRP", "KCRQ", "KCRW", "KCSG", "KCSM", "KCSV", "KCTB", "KCUB", "KCVG", "KCVS", "KCWA", "KCXO", "KCXP", "KCYS", "KDAB", "KDAG", "KDAL", "KDAN", "KDAY", "KDBQ", "KDCA", "KDDC", "KDEC", "KDEN", "KDET", "KDFW", "KDHN", "KDHT", "KDIJ", "KDIK", "KDLH", "KDLS", "KDMA", "KDMN", "KDNL", "KDOV", "KDPA", "KDRO", "KDRT", "KDSM", "KDTW", "KDUJ", "KDVL", "KDVT", "KDYS", "KEAR", "KEAT", "KEAU", "KECG", "KECP", "KEED", "KEET", "KEFD", "KEFK", "KEGE", "KEKN", "KEKO", "KEKS", "KELD", "KELM", "KELP", "KELY", "KEND", "KENV", "KENW", "KERI", "KEUG", "KEUL", "KEVV", "KEVW", "KEWN", "KEWR", "KEYW", "KFAR", "KFAT", "KFAY", "KFBG", "KFDY", "KFFO", "KFKL", "KFLG", "KFLL", "KFLO", "KFMH", "KFMN", "KFMY", "KFNT", "KFOD", "KFOE", "KFPR", "KFSD", "KFSM", "KFST", "KFTW", "KFTY", "KFVE", "KFWA", "KFXE", "KFYV", "KGBD", "KGCC", "KGCK", "KGCN", "KGDV", "KGEG", "KGFK", "KGFL", "KGGG", "KGGW", "KGJT", "KGKY", "KGLD", "KGLH", "KGLS", "KGMU", "KGNV", "KGON", "KGPI", "KGPT", "KGRB", "KGRF", "KGRI", "KGRK", "KGRR", "KGSO", "KGSP", "KGTB", "KGTF", "KGTR", "KGUC", "KGUP", "KGUS", "KGUY", "KGWO", "KGYY", "KHBG", "KHCR", "KHDC", "KHDN", "KHIB", "KHIE", "KHIO", "KHKS", "KHKY", "KHLG", "KHLN", "KHMN", "KHNB", "KHND", "KHOB", "KHON", "KHOP", "KHOT", "KHOU", "KHPN", "KHQM", "KHRL", "KHRO", "KHRT", "KHST", "KHSV", "KHTS", "KHUF", "KHUL", "KHUM", "KHUT", "KHVR", "KHYA", "KHYR", "KHYS", "KIAB", "KIAD", "KIAG", "KIAH", "KICT", "KIDA", "KIFP", "KILG", "KILM", "KILN", "KIND", "KINK", "KINL", "KINT", "KINW", "KIPL", "KIPT", "KISM", "KISO", "KISP", "KITH", "KIWA", "KIWD", "KIXD", "KJAC", "KJAN", "KJAX", "KJBR", "KJCT", "KJEF", "KJER", "KJFK", "KJHW", "KJKA", "KJKL", "KJLN", "KJMS", "KJST", "KJVL", "KJXN", "KJZI", "KLAF", "KLAL", "KLAN", "KLAR", "KLAS", "KLAW", "KLAX", "KLBB", "KLBE", "KLBF", "KLBL", "KLBT", "KLBX", "KLCH", "KLCK", "KLEB", "KLEE", "KLEX", "KLFI", "KLFK", "KLFT", "KLGA", "KLGB", "KLGU", "KLIT", "KLLQ", "KLMT", "KLND", "KLNK", "KLNS", "KLOZ", "KLRD", "KLRF", "KLRU", "KLSE", "KLSV", "KLUK", "KLVK", "KLVM", "KLVS", "KLWB", "KLWS", "KLWT", "KLYH", "KMAF", "KMBG", "KMBL", "KMBS", "KMCB", "KMCC", "KMCE", "KMCF", "KMCI", "KMCK", "KMCN", "KMCO", "KMCW", "KMDT", "KMDW", "KMEI", "KMEM", "KMER", "KMEV", "KMFD", "KMFE", "KMFR", "KMGE", "KMGM", "KMGW", "KMHK", "KMHR", "KMHT", "KMIA", "KMIV", "KMKC", "KMKE", "KMKG", "KMKL", "KMKT", "KMLB", "KMLC", "KMLI", "KMLS", "KMLU", "KMMH", "KMMT", "KMOB", "KMOD", "KMOT", "KMPV", "KMQY", "KMRB", "KMRY", "KMSL", "KMSN", "KMSO", "KMSP", "KMSS", "KMSY", "KMTC", "KMTH", "KMTJ", "KMTN", "KMTW", "KMVN", "KMWH", "KMYL", "KMYR", "KNBC", "KNBG", "KNCA", "KNEW", "KNFG", "KNFW", "KNGP", "KNGU", "KNHK", "KNIP", "KNKT", "KNKX", "KNPA", "KNSE", "KNTD", "KNTU", "KNUW", "KNXP", "KNYG", "KNYL", "KNZY", "KOAJ", "KOAK", "KOFF", "KOFK", "KOGB", "KOGD", "KOKC", "KOLF", "KOLM", "KOLS", "KOMA", "KONP", "KONT", "KOPF", "KORD", "KORF", "KORH", "KOTH", "KOTM", "KOUN", "KOWB", "KOXR", "KPAE", "KPAH", "KPAM", "KPBF", "KPBG", "KPBI", "KPDK", "KPDT", "KPDX", "KPEQ", "KPGA", "KPGD", "KPGV", "KPHF", "KPHL", "KPHX", "KPIA", "KPIB", "KPIE", "KPIH", "KPIR", "KPIT", "KPKB", "KPLN", "KPMD", "KPNA", "KPNC", "KPNE", "KPNS", "KPOE", "KPOU", "KPQI", "KPRB", "KPRC", "KPSC", "KPSF", "KPSM", "KPSP", "KPTK", "KPUB", "KPUW", "KPVD", "KPVU", "KPVW", "KPWM", "KPWT", "KRAP", "KRBG", "KRBL", "KRCA", "KRDD", "KRDG", "KRDM", "KRDU", "KRFD", "KRHI", "KRIC", "KRIL", "KRIV", "KRIW", "KRKD", "KRKS", "KRME", "KRNH", "KRNO", "KROA", "KROC", "KROG", "KROW", "KRSL", "KRST", "KRSW", "KRUT", "KRVS", "KRWF", "KRWI", "KRWL", "KRYY", "KSAC", "KSAF", "KSAN", "KSAT", "KSAV", "KSAW", "KSBA", "KSBD", "KSBM", "KSBN", "KSBP", "KSBY", "KSCK", "KSDF", "KSDL", "KSDY", "KSEA", "KSEZ", "KSFB", "KSFF", "KSFO", "KSGF", "KSGJ", "KSGR", "KSGU", "KSHR", "KSHV", "KSJC", "KSJS", "KSJT", "KSKA", "KSKF", "KSLC", "KSLE", "KSLI", "KSLK", "KSLN", "KSME", "KSMF", "KSMN", "KSMO", "KSMX", "KSNA", "KSNS", "KSNY", "KSOA", "KSPI", "KSPS", "KSRQ", "KSSC", "KSSF", "KSSI", "KSTC", "KSTJ", "KSTL", "KSTS", "KSUA", "KSUN", "KSUS", "KSUU", "KSUX", "KSVN", "KSWF", "KSWO", "KSYM", "KSYR", "KTCC", "KTCL", "KTCM", "KTCS", "KTEB", "KTEX", "KTIK", "KTIX", "KTLH", "KTMB", "KTOI", "KTOL", "KTOP", "KTPA", "KTPH", "KTRI", "KTRK", "KTRM", "KTTD", "KTTN", "KTUL", "KTUP", "KTUS", "KTVC", "KTVF", "KTVL", "KTWF", "KTXK", "KTYR", "KTYS", "KUAO", "KUES", "KUIN", "KUKI", "KUNV", "KUTS", "KVCT", "KVEL", "KVGT", "KVIS", "KVLD", "KVNY", "KVOK", "KVPS", "KVQQ", "KVRB", "KVTN", "KWJF", "KWMC", "KWRI", "KWRL", "KWWR", "KWYS", "KXNA", "KXWA", "KYIP", "KYKM", "KYNG", "KZZV", "LATI", "LBBG", "LBGO", "LBPD", "LBSF", "LBWN", "LCEN", "LCLK", "LCPH", "LCRA", "LDDU", "LDLO", "LDOS", "LDPL", "LDRI", "LDSP", "LDZA", "LDZD", "LEAB", "LEAG", "LEAL", "LEAM", "LEAO", "LEAS", "LEBA", "LEBB", "LEBG", "LEBL", "LEBR", "LEBZ", "LECO", "LECV", "LEEC", "LEGA", "LEGE", "LEGR", "LEGT", "LEHC", "LEIB", "LEJR", "LELC", "LELL", "LELN", "LELO", "LEMD", "LEMG", "LEMH", "LEMO", "LEPA", "LEPP", "LERI", "LERL", "LERS", "LERT", "LESA", "LESO", "LEST", "LESU", "LETO", "LEVC", "LEVD", "LEVS", "LEVT", "LEVX", "LEXJ", "LEZG", "LEZL", "LFAQ", "LFAT", "LFBA", "LFBC", "LFBD", "LFBE", "LFBG", "LFBH", "LFBI", "LFBL", "LFBM", "LFBO", "LFBP", "LFBT", "LFBU", "LFBZ", "LFCK", "LFCR", "LFGJ", "LFJL", "LFKB", "LFKC", "LFKF", "LFKJ", "LFKS", "LFLB", "LFLC", "LFLL", "LFLN", "LFLP", "LFLS", "LFLW", "LFLX", "LFLY", "LFMD", "LFMI", "LFMK", "LFML", "LFMN", "LFMO", "LFMP", "LFMT", "LFMU", "LFMV", "LFMY", "LFOA", "LFOB", "LFOE", "LFOH", "LFOJ", "LFOK", "LFOP", "LFOT", "LFPB", "LFPG", "LFPN", "LFPO", "LFPV", "LFQQ", "LFRB", "LFRC", "LFRD", "LFRG", "LFRH", "LFRI", "LFRJ", "LFRK", "LFRL", "LFRM", "LFRN", "LFRQ", "LFRS", "LFRZ", "LFSB", "LFSI", "LFSL", "LFSO", "LFST", "LFSX", "LFTH", "LFTW", "LFVP", "LFYR", "LGAD", "LGAL", "LGAV", "LGBL", "LGEL", "LGHI", "LGIO", "LGIR", "LGKC", "LGKF", "LGKL", "LGKO", "LGKP", "LGKR", "LGKV", "LGLM", "LGLR", "LGMK", "LGMT", "LGPZ", "LGRP", "LGRX", "LGSA", "LGSK", "LGSM", "LGSR", "LGST", "LGSY", "LGTG", "LGTL", "LGTS", "LGZA", "LHBP", "LHDC", "LHKE", "LHPA", "LHPP", "LHPR", "LHSM", "LHSN", "LIBA", "LIBC", "LIBD", "LIBF", "LIBG", "LIBN", "LIBP", "LIBR", "LIBV", "LICA", "LICB", "LICC", "LICD", "LICG", "LICJ", "LICR", "LICT", "LICZ", "LIEA", "LIED", "LIEE", "LIEO", "LIMC", "LIME", "LIMF", "LIMG", "LIMJ", "LIML", "LIMN", "LIMP", "LIMW", "LIMZ", "LIPA", "LIPB", "LIPC", "LIPE", "LIPH", "LIPI", "LIPK", "LIPL", "LIPO", "LIPQ", "LIPR", "LIPS", "LIPX", "LIPY", "LIPZ", "LIQW", "LIRA", "LIRE", "LIRF", "LIRG", "LIRH", "LIRL", "LIRM", "LIRN", "LIRP", "LIRQ", "LIRS", "LIRU", "LIRV", "LIRZ", "LJCE", "LJLJ", "LJMB", "LJPZ", "LKKB", "LKKV", "LKMT", "LKNA", "LKPD", "LKPR", "LKTB", "LLBG", "LLER", "LLHA", "LLHZ", "LLIB", "LMML", "LOAN", "LOAV", "LOWG", "LOWI", "LOWK", "LOWL", "LOWS", "LOWW", "LOXA", "LOXN", "LOXT", "LOXZ", "LPAR", "LPAZ", "LPBJ", "LPCS", "LPFR", "LPHR", "LPLA", "LPMA", "LPMR", "LPMT", "LPOV", "LPPD", "LPPR", "LPPS", "LPPT", "LPST", "LQBK", "LQMO", "LQSA", "LQTZ", "LRAR", "LRBC", "LRBM", "LRBO", "LRBS", "LRCK", "LRCL", "LRCT", "LRCV", "LRFT", "LRIA", "LROD", "LROP", "LRSB", "LRSM", "LRSV", "LRTC", "LRTM", "LRTR", "LRTZ", "LSGC", "LSGG", "LSGS", "LSZA", "LSZB", "LSZC", "LSZG", "LSZH", "LSZL", "LSZR", "LSZS", "LTAB", "LTAC", "LTAD", "LTAE", "LTAF", "LTAG", "LTAH", "LTAI", "LTAJ", "LTAL", "LTAN", "LTAO", "LTAP", "LTAR", "LTAS", "LTAT", "LTAU", "LTAV", "LTAW", "LTAY", "LTAZ", "LTBA", "LTBD", "LTBF", "LTBG", "LTBH", "LTBI", "LTBJ", "LTBK", "LTBL", "LTBN", "LTBO", "LTBP", "LTBQ", "LTBR", "LTBS", "LTBT", "LTBU", "LTBV", "LTBX", "LTBY", "LTBZ", "LTCA", "LTCB", "LTCC", "LTCD", "LTCE", "LTCF", "LTCG", "LTCI", "LTCJ", "LTCK", "LTCL", "LTCM", "LTCN", "LTCO", "LTCP", "LTCR", "LTCS", "LTCT", "LTCU", "LTCV", "LTCW", "LTDA", "LTFA", "LTFB", "LTFC", "LTFD", "LTFE", "LTFG", "LTFH", "LTFJ", "LTFK", "LTFM", "LTFO", "LUBM", "LUKK", "LWOH", "LWSK", "LXGB", "LYBE", "LYBT", "LYKV", "LYNI", "LYPG", "LYTV", "LYVR", "LZIB", "LZKZ", "LZMC", "LZPP", "LZPW", "LZSL", "LZTT", "LZZI", "MBGT", "MBPV", "MDBH", "MDCY", "MDJB", "MDLR", "MDPC", "MDPP", "MDSD", "MDST", "MGGT", "MGMM", "MGPB", "MGSJ", "MHLC", "MHLM", "MHPR", "MHRO", "MHTG", "MKJP", "MKJS", "MMAA", "MMAN", "MMAS", "MMBT", "MMCB", "MMCE", "MMCL", "MMCM", "MMCN", "MMCP", "MMCS", "MMCU", "MMCV", "MMCZ", "MMDO", "MMEP", "MMGL", "MMGM", "MMHO", "MMIA", "MMIO", "MMLM", "MMLO", "MMLP", "MMLT", "MMMA", "MMMD", "MMML", "MMMM", "MMMT", "MMMV", "MMMX", "MMMY", "MMMZ", "MMNL", "MMOX", "MMPA", "MMPB", "MMPG", "MMPN", "MMPQ", "MMPR", "MMPS", "MMQT", "MMRX", "MMSD", "MMSL", "MMSM", "MMSP", "MMTC", "MMTG", "MMTJ", "MMTM", "MMTO", "MMTP", "MMUN", "MMVA", "MMVR", "MMZC", "MMZH", "MMZO", "MNBL", "MNMG", "MNPC", "MPDA", "MPMG", "MPPA", "MPSM", "MPTO", "MRLB", "MRLM", "MROC", "MRPV", "MSLP", "MSSS", "MTCH", "MTPP", "MUCC", "MUCF", "MUCL", "MUCM", "MUCU", "MUGM", "MUHA", "MUHG", "MUSC", "MUVR", "MWCB", "MWCR", "MYGF", "MYNN", "MZBZ", "NCRG", "NFFN", "NFNA", "NFTF", "NFTV", "NGFU", "NGTA", "NIUE", "NLWF", "NLWW", "NSFA", "NSTU", "NTAA", "NVSC", "NVSG", "NVSL", "NVSP", "NVSS", "NVVA", "NVVV", "NVVW", "NWWD", "NWWE", "NWWK", "NWWL", "NWWM", "NWWR", "NWWU", "NWWW", "NZAA", "NZCH", "NZFX", "NZQN", "NZWN", "OBBI", "OEAB", "OEAH", "OEAO", "OEBA", "OEBH", "OEDF", "OEDM", "OEDR", "OEGN", "OEGS", "OEGT", "OEHL", "OEJN", "OEKJ", "OEKM", "OEMA", "OENG", "OEPA", "OEPS", "OERF", "OERK", "OERR", "OESH", "OESK", "OETB", "OETF", "OETR", "OEWD", "OEWJ", "OEYN", "OIAA", "OIAW", "OIBB", "OIBK", "OIBP", "OICC", "OICI", "OIFM", "OIGG", "OIIE", "OIII", "OIIP", "OIKB", "OIKK", "OIMM", "OING", "OINZ", "OISL", "OISS", "OITL", "OITR", "OITT", "OIYY", "OIZH", "OJAI", "OJAM", "OJAQ", "OKAS", "OKBK", "OLBA", "OMAA", "OMAD", "OMAL", "OMDB", "OMDW", "OMFJ", "OMRK", "OMSJ", "OODQ", "OOMS", "OOSA", "OOSH", "OPBW", "OPDG", "OPFA", "OPGD", "OPIS", "OPKC", "OPLA", "OPMT", "OPNH", "OPPS", "OPRK", "OPSK", "OPST", "ORBI", "ORER", "ORNI", "ORSU", "OSAP", "OSDI", "OSLK", "OTBD", "OTBH", "OTHH", "PAAQ", "PABE", "PABR", "PABT", "PACD", "PACV", "PADL", "PADQ", "PADU", "PAED", "PAEI", "PAEN", "PAFA", "PAGA", "PAGK", "PAGY", "PAHN", "PAHO", "PAIL", "PAJN", "PAKN", "PAKT", "PAKW", "PAMC", "PANC", "PAOM", "PAOR", "PAOT", "PAPG", "PAQT", "PASC", "PASD", "PASI", "PASN", "PASY", "PATA", "PATK", "PAUN", "PAVD", "PAWG", "PAYA", "PGRO", "PGSN", "PGUA", "PGUM", "PGWT", "PHJH", "PHJR", "PHKO", "PHLI", "PHMK", "PHNL", "PHNY", "PHOG", "PHTO", "PKMJ", "PKWA", "PLCH", "PMDY", "PTKK", "PTPN", "PTRO", "PTSA", "PTYA", "PWAK", "RCFN", "RCKH", "RCMQ", "RCNN", "RCSS", "RCTP", "RJAA", "RJAH", "RJBB", "RJCB", "RJCC", "RJCH", "RJCK", "RJCM", "RJEC", "RJFF", "RJFK", "RJFM", "RJFO", "RJFR", "RJFS", "RJFT", "RJFU", "RJGG", "RJNK", "RJNS", "RJNT", "RJOA", "RJOB", "RJOC", "RJOH", "RJOI", "RJOK", "RJOM", "RJOO", "RJOT", "RJSA", "RJSF", "RJSI", "RJSK", "RJSN", "RJSS", "RJTT", "RKJB", "RKNY", "RKPC", "RKPK", "RKSG", "RKSI", "RKSM", "RKSO", "RKSS", "RKTN", "RKTU", "ROAH", "RODN", "ROIG", "ROTM", "RPLB", "RPLC", "RPLI", "RPLL", "RPMD", "RPMR", "RPMZ", "RPVD", "RPVM", "RPVP", "SAAR", "SABE", "SACO", "SADF", "SAEZ", "SAME", "SANR", "SANT", "SARE", "SARF", "SARI", "SARP", "SASA", "SASJ", "SAVC", "SAWE", "SAWG", "SAWH", "SAZM", "SAZN", "SAZS", "SBAC", "SBAF", "SBAN", "SBAR", "SBAT", "SBBE", "SBBG", "SBBI", "SBBR", "SBBU", "SBBV", "SBBW", "SBCB", "SBCF", "SBCG", "SBCJ", "SBCO", "SBCP", "SBCR", "SBCT", "SBCY", "SBCZ", "SBDN", "SBEG", "SBFI", "SBFL", "SBFN", "SBFZ", "SBGL", "SBGO", "SBGR", "SBGW", "SBIH", "SBIL", "SBIZ", "SBJE", "SBJP", "SBJV", "SBKG", "SBKP", "SBLO", "SBMA", "SBME", "SBMN", "SBMO", "SBMQ", "SBNF", "SBNT", "SBOI", "SBPA", "SBPB", "SBPJ", "SBPK", "SBPL", "SBPP", "SBPS", "SBPV", "SBRB", "SBRF", "SBRJ", "SBRP", "SBSC", "SBSG", "SBSJ", "SBSL", "SBSM", "SBSN", "SBSP", "SBSV", "SBTD", "SBTE", "SBTF", "SBTT", "SBUG", "SBUL", "SBUR", "SBVH", "SBVT", "SBYS", "SCAR", "SCAT", "SCBA", "SCCF", "SCCI", "SCCY", "SCDA", "SCEL", "SCFA", "SCIE", "SCIP", "SCJO", "SCNT", "SCQP", "SCSE", "SCTE", "SCVM", "SEGU", "SELT", "SEMT", "SEQM", "SGAS", "SGCO", "SGEN", "SGES", "SKAR", "SKBG", "SKBO", "SKBQ", "SKCC", "SKCG", "SKCL", "SKLT", "SKPE", "SKRG", "SKSM", "SKSP", "SLAL", "SLCB", "SLCO", "SLET", "SLLP", "SLTJ", "SLTR", "SLVR", "SMJP", "SMZO", "SOCA", "SPCL", "SPEO", "SPGM", "SPHI", "SPHO", "SPHY", "SPJC", "SPJI", "SPJL", "SPJR", "SPLO", "SPME", "SPMS", "SPNC", "SPPY", "SPQT", "SPQU", "SPRU", "SPSO", "SPST", "SPTN", "SPTU", "SPYL", "SPZO", "SUAA", "SUCA", "SUDU", "SULS", "SUMU", "SURV", "SUSO", "SVBC", "SVJC", "SVMC", "SVMG", "SVMI", "SVPR", "SVSA", "SVVA", "SYCJ", "SYEC", "TAPA", "TBPB", "TDPD", "TFFF", "TFFR", "TGPY", "TIST", "TISX", "TJBQ", "TJPS", "TJSJ", "TKPK", "TKPN", "TLPC", "TLPL", "TNCA", "TNCB", "TNCC", "TNCM", "TQPF", "TRPG", "TTCP", "TTPP", "TUPJ", "TVSA", "TXKF", "UAAA", "UAAH", "UAAT", "UACC", "UACK", "UACP", "UADD", "UAII", "UAIT", "UAKD", "UAKK", "UAOO", "UARR", "UASK", "UASP", "UASS", "UATE", "UATG", "UATT", "UAUU", "UBBB", "UBBF", "UBBG", "UBBL", "UBBN", "UBBQ", "UBBY", "UBEE", "UCFL", "UCFM", "UCFO", "UDSG", "UDYZ", "UEEE", "UERP", "UERR", "UGAM", "UGKO", "UGMS", "UGSB", "UGTB", "UHBB", "UHHH", "UHMA", "UHMM", "UHPP", "UHSS", "UHWW", "UIAA", "UIBB", "UIII", "UIUU", "ULAA", "ULLI", "ULMM", "ULOO", "ULPB", "ULWC", "UMBB", "UMGG", "UMII", "UMIO", "UMKK", "UMMG", "UMMS", "UMOO", "UNAA", "UNBB", "UNEE", "UNKL", "UNNT", "UNOO", "UNTT", "UNWW", "UOOO", "URKA", "URKK", "URMG", "URML", "URMM", "URMN", "URMO", "URMT", "URRP", "URSS", "URWA", "URWI", "URWW", "USCC", "USCM", "USDA", "USHH", "USNN", "USPP", "USRR", "USSS", "USTR", "UTAA", "UTAK", "UTAM", "UTAT", "UTAV", "UTDD", "UTDK", "UTDL", "UTDT", "UTFA", "UTFF", "UTFN", "UTNN", "UTNU", "UTSA", "UTSB", "UTSK", "UTSS", "UTST", "UTTT", "UUBC", "UUBP", "UUBW", "UUDD", "UUDL", "UUEE", "UUMO", "UUOB", "UUOK", "UUOL", "UUOO", "UUWW", "UUYY", "UWGG", "UWKD", "UWKE", "UWKS", "UWLL", "UWLW", "UWOO", "UWOR", "UWPS", "UWSG", "UWUU", "UWWW", "VAAH", "VAAU", "VABB", "VABJ", "VABO", "VABP", "VABV", "VADU", "VAID", "VAJB", "VAJL", "VAJM", "VAKE", "VAKP", "VANP", "VAOZ", "VAPO", "VAPR", "VARK", "VASD", "VASL", "VASU", "VAUD", "VCBI", "VCRI", "VDPP", "VDSR", "VDSV", "VEAB", "VEAT", "VEBD", "VEBI", "VEBN", "VEBS", "VECC", "VECX", "VEGK", "VEGT", "VEGY", "VEIM", "VEJH", "VEJS", "VEJT", "VELP", "VELR", "VEMN", "VEMR", "VEPT", "VERC", "VETZ", "VGEG", "VGHS", "VHHH", "VIAG", "VIAR", "VIBR", "VIBT", "VIBY", "VICG", "VIDN", "VIDP", "VIGG", "VIGR", "VIJO", "VIJP", "VIJU", "VILH", "VILK", "VIPT", "VISM", "VISR", "VLLB", "VLLN", "VLPS", "VLSK", "VLVT", "VMMC", "VNKT", "VOAR", "VOAT", "VOBG", "VOBL", "VOBM", "VOBZ", "VOCB", "VOCI", "VOCL", "VOCP", "VOGB", "VOGO", "VOHB", "VOHS", "VOHY", "VOJV", "VOKN", "VOKU", "VOLT", "VOMD", "VOML", "VOMM", "VOMY", "VOND", "VOPB", "VORY", "VOSR", "VOTP", "VOTR", "VOTV", "VOVZ", "VRMG", "VRMH", "VRMM", "VTBD", "VTBO", "VTBS", "VTBU", "VTCC", "VTCH", "VTCL", "VTCN", "VTCP", "VTCT", "VTPB", "VTPH", "VTPM", "VTPO", "VTPP", "VTSB", "VTSC", "VTSE", "VTSF", "VTSG", "VTSM", "VTSP", "VTSR", "VTSS", "VTST", "VTUD", "VTUI", "VTUK", "VTUL", "VTUO", "VTUQ", "VTUU", "VTUV", "VTUW", "VVCI", "VVCR", "VVCT", "VVDN", "VVNB", "VVPB", "VVPQ", "VVTS", "VYMD", "VYNT", "VYYY", "WAAA", "WABB", "WADD", "WADL", "WALL", "WALS", "WAMM", "WAOO", "WAPP", "WAQA", "WAQD", "WAQJ", "WAQQ", "WAQT", "WARR", "WATT", "WBGB", "WBGG", "WBGR", "WBGS", "WBKK", "WBKL", "WBKS", "WBKW", "WBSB", "WIDD", "WIEE", "WIHH", "WIII", "WIMM", "WIPB", "WIPP", "WIPY", "WITT", "WMAP", "WMBT", "WMKA", "WMKB", "WMKC", "WMKE", "WMKI", "WMKJ", "WMKK", "WMKL", "WMKM", "WMKN", "WMKP", "WMPA", "WMSA", "WPDL", "WSAP", "WSSL", "WSSS", "YAMB", "YBAS", "YBBN", "YBCG", "YBCS", "YBHM", "YBLN", "YBMA", "YBRK", "YBRM", "YBTL", "YBWW", "YCFS", "YCIN", "YFRT", "YGEL", "YGLA", "YHID", "YLHI", "YMAV", "YMHB", "YMLT", "YMML", "YPAD", "YPCC", "YPDN", "YPEA", "YPGV", "YPJT", "YPKG", "YPKU", "YPLM", "YPPD", "YPPH", "YPTN", "YPWR", "YPXM", "YSCB", "YSDU", "YSNF", "YSRI", "YSSY", "YSTW", "YWLM", "ZBAA", "ZBAD", "ZBHH", "ZBSJ", "ZBTJ", "ZBYN", "ZGGG", "ZGHA", "ZGKL", "ZGNN", "ZGOW", "ZGSZ", "ZHCC", "ZHHH", "ZJHK", "ZJSY", "ZKPY", "ZKWS", "ZLLL", "ZLXY", "ZMCK", "ZMUB", "ZPPP", "ZSAM", "ZSFZ", "ZSHC", "ZSJN", "ZSNB", "ZSNJ", "ZSOF", "ZSPD", "ZSQD", "ZSSS", "ZUCK", "ZUGY", "ZUUU", "ZWSH", "ZWWW", "ZYCC", "ZYHB", "ZYTL", "ZYTX"], "raw_text": ["TAF AGGA 092310Z 1000/1024 18010KT 9999 SCT019 Q 1010 1008 1007 1009", "TAF AGGC 092310Z 1000/1024 05010KT 9999 FEW018 Q 1011 1009 1008 1010", "TAF AGGH 101110Z 1012/1112 VRB03KT 9999 FEW016 T 24 23 22 26 Q 1010 1008 1007 1009", "TAF AGGK 091710Z 0918/1018 05010KT 9999 SCT018", "TAF AGGL 091710Z 0918/1018 05007KT 9999 SCT018 ", "TAF AGGM 101110Z 1012/1112 VRB03KT 9999 SCT018 Q 1009 1007 1006 1008", "TAF AGGN 101110Z 1012/1112 VRB03KT 9999 SCT018 Q 1009 1007 1006 1008", "TAF AGGR 091710Z 0918/1018 09012KT 9999 SCT018 ", "TAF ANYN 092201Z 1000/1024 10010KT 9999 SCT020", "TAF AYPY 092203Z 1000/1024 VRB03KT 9999 SCT020 SCT140 FM100200 20005KT 9999 -SHRA SCT017 BKN030 INTER 1003/1009 4000 +TSRA BKN010 FEW018CB", "TAF AMD BGAA 101100Z 1011/1017 06007KT 9999 BKN070 TEMPO 1015/1017 BKN035", "TAF BGBW 101115Z 1012/1021 06004KT 9999 SCT020 BKN050 TEMPO 1012/1021 VRB05KT 6000 -RADZ BKN015", "TAF BGCO 101006Z 1009/1017 32010KT 9999 FEW015 SCT100 TEMPO 1009/1017 BKN015", "TAF BGGH 101115Z 1012/1021 16022KT 9999 FEW010 SCT015 BKN020 TEMPO 1012/1021 17025G38KT 6000 -RA BKN040", "TAF BGJN 101115Z 1012/1021 15007KT 9999 BKN060 TEMPO 1012/1015 SCT100 TEMPO 1015/1021 3000 -SN BKN035", "TAF BGKK 101115Z 1012/1020 09018KT 7000 -SNRA BKN014 TEMPO 1012/1020 07020G30KT 4000 RASN BKN030", "TAF BGMQ 101006Z 1009/1018 15020KT 9999 SCT015 BKN050 BECMG 1009/1011 15020G30KT 4000 RA BKN015 TEMPO 1011/1018 15015KT 9999 NSW BKN040", "TAF BGPT 101006Z 1009/1018 14020KT 9999 FEW015 SCT020 BKN050 TEMPO 1009/1012 14023G33KT 5000 -RA BKN020 TEMPO 1012/1018 14030G40KT 4000 RA BKN015", "TAF BGQQ 101006Z 1009/1018 03006KT 9999 FEW200", "TAF BGSF 101055Z 1012/1101 06008KT 9999 SCT040 BKN110", "TAF BGSS 101120Z 1011/1018 VRB04KT 9999 BKN030 TEMPO 1011/1018 1200 -SN BKN012", "TAF BGUK 101006Z 1009/1018 10009KT 9999 FEW100 BECMG 1012/1015 BKN080 TEMPO 1015/1018 SCT080", "TAF BGUQ 101006Z 1009/1018 14006KT 9999 BKN100 BECMG 1012/1015 BKN070 TEMPO 1015/1018 BKN035", "TAF BIAR 101033Z 1012/1112 33010KT 9999 SCT030 BKN045 TX07/1112Z TNM03/1022Z BECMG 1020/1022 18010KT", "TAF BIBD 101002Z 1011/1020 16008KT 9999 SCT030", "TAF BIEG 101033Z 1012/1112 34020G30KT 9999 FEW030 SCT040 TX02/1012Z TNM06/1106Z BECMG 1015/1017 24008KT", "TAF BIGR 101019Z 1011/1020 34022G32KT 9999 FEW018 SCT030 BECMG 1014/1016 33017KT BECMG 1018/1020 27007KT", "TAF BIHN 101006Z 1011/1020 31030G40KT 9999 SCT035 BECMG 1012/1014 31020G30KT", "TAF BIHU 101004Z 1011/1018 34018G28KT 9999 SCT020 BKN030 PROB40 TEMPO 1011/1013 33028G38KT 3000 SHSNRA OVC004 BECMG 1013/1015 33013KT", "TAF BIIS 101001Z 1011/1018 19006KT 9999 SCT030", "TAF BIKF 101033Z 1012/1112 02010KT 9999 SCT025 BKN035 TX07/1112Z TN01/1021Z BECMG 1015/1017 13010KT BECMG 1021/1023 12018G28KT -DZ BKN012 OVC022 BECMG 1101/1103 12028G38KT TEMPO 1103/1112 3000 RADZ BR OVC006 BECMG 1110/1112 26017KT", "TAF BIRK 101033Z 1012/1112 02010KT 9999 SCT025 BKN035 TX07/1112Z TN02/1100Z BECMG 1018/1020 09007KT BECMG 1100/1102 12018KT -DZ BKN012 OVC022 TEMPO 1102/1112 12024G34KT 3000 RADZ BR OVC008", "TAF BITN 100808Z 1008/1012 33030KT 4000 RASN OVC007", "TAF BIVM 101007Z 1011/1018 34014KT 9999 FEW025 SCT040 BECMG 1015/1017 30004KT", "TAF BIVO 101009Z 1011/1015 32015KT 4000 SNRA OVC008 BECMG 1011/1013 9999 NSW SCT018 BKN028 TEMPO 1011/1015 32020G30KT", "TAF BKPR 101130Z 1012/1112 15006KT 9999 FEW040 BKN080 TEMPO 1102/1112 5000 -RA BR BKN010 OVC020 PROB30 TEMPO 1103/1106 1500", "TAF CWSA 100740Z 1008/1020 30012KT P6SM BKN050 TEMPO 1008/1018 BKN020 BECMG 1008/1010 26012KT FM101800 23012KT P6SM -SHRA SCT020 BKN060 RMK FCST BASED ON AUTO OBS. NXT FCST BY 101400Z", "TAF CWWU 101200Z 1012/1112 21006KT P6SM FEW040 FM101700 24009KT P6SM FEW030 SCT050 FM102300 25006KT P6SM SCT020 BKN040 TEMPO 1102/1105 5SM -SHRA SCT015 BKN025 OVC035 FM110600 27005KT P6SM FEW025 SCT040 RMK NXT FCST BY 101800Z", "TAF AMD CYAH 101121Z 1011/1021 23010G20KT 2SM -SHSN BKN020 TEMPO 1011/1018 P6SM NSW BKN030 FM101800 28015G25KT P6SM -RASN SCT020 BKN080 RMK FCST BASED ON AUTO OBS. NXT FCST BY 101800Z", "TAF CYAM 100740Z 1008/1020 VRB03KT P6SM BKN030 TEMPO 1011/1014 BKN020 FM101500 18007KT P6SM SCT040 BECMG 1016/1018 22007KT RMK NXT FCST BY 101400Z", "TAF CYAT 100840Z 1009/1019 25010KT P6SM SCT020 OVC050 TEMPO 1009/1014 BKN020 BECMG 1012/1014 25012G22KT RMK FCST BASED ON AUTO OBS. NXT FCST BY 101500Z", "TAF CYAY 100740Z 1008/1020 17009KT P6SM -SHRA SCT010 BKN025 TEMPO 1008/1012 4SM SHRA BR BKN008 OVC020 FM101200 26012KT P6SM SCT010 BKN030 TEMPO 1012/1014 5SM -SHRA BR SCT008 OVC020 PROB30 1012/1014 BKN008 OVC020 FM101400 25010G20KT P6SM BKN030 TEMPO 1014/1018 BKN020 BECMG 1016/1018 23015G25KT RMK FCST BASED ON AUTO OBS. NXT FCST BY 101400Z", "TAF CYBC 100740Z 1008/1020 25007KT P6SM FEW050 BECMG 1012/1014 24012KT FM101500 24012KT P6SM BKN050 RMK FCST BASED ON AUTO OBS. NXT FCST BY 101400Z", "TAF CYBG 101140Z 1012/1112 26008KT P6SM BKN030 TEMPO 1012/1014 P6SM -SHRASN BKN020 FM101400 27012KT P6SM BKN030 FM102100 26008KT P6SM SCT030 SCT220 FM110400 26008KT P6SM BKN160 RMK NXT FCST BY 101500Z", "TAF CYBK 101140Z 1012/1024 36008KT P6SM FEW012 BKN100 TEMPO 1012/1024 3SM -SN BR BKN012 BKN100 BECMG 1012/1014 08015KT RMK NXT FCST BY 101800Z", "TAF CYBR 101140Z 1012/1024 VRB03KT P6SM SKC PROB30 1012/1014 1/4SM FG VV002 FM101500 25010KT P6SM FEW280 BECMG 1017/1019 22015KT SKC RMK NXT FCST BY 101800Z", "TAF CYBW 101140Z 1012/1024 30008KT P6SM SKC FM101600 28010KT P6SM BKN150 BECMG 1016/1018 26015G25KT FM102200 28020G30KT P6SM BKN100 RMK FCST BASED ON AUTO OBS. NXT FCST BY 101800Z", "TAF CYBX 100740Z 1008/1020 16008KT P6SM -SHRA SCT010 BKN030 TEMPO 1008/1012 4SM SHRA BR BKN008 OVC020 BECMG 1008/1010 28008KT FM101200 30012KT P6SM BKN015 TEMPO 1012/1014 BKN025 FM101400 26012KT P6SM BKN030 BECMG 1018/1020 26012G22KT RMK NXT FCST BY 101400Z", "TAF CYCA 100740Z 1008/1020 19010KT P6SM SCT020 SCT080 TEMPO 1008/1012 BKN020 BKN080 FM101200 28010G20KT P6SM FEW020 FM101600 27010G20KT P6SM SCT040 RMK FCST BASED ON AUTO OBS. NXT FCST BY 101400Z", "TAF AMD CYCB 101104Z 1011/1019 10015KT P6SM SCT008 TEMPO 1011/1015 BKN008 BECMG 1011/1013 10015G25KT FM101500 10015KT P6SM SCT004 BKN012 TEMPO 1015/1019 BKN004 BKN012 RMK NXT FCST BY 101300Z", "TAF CYCO 100640Z 1007/1019 09015KT P6SM OVC100 FM101300 10015KT P6SM BKN030 OVC060 TEMPO 1013/1019 6SM -SHRA BKN015 OVC030 RMK NXT FCST BY 101300Z", "TAF CYCY 100640Z 1007/1019 30012KT P6SM FEW020 OVC060 TEMPO 1007/1015 4SM -SHSN BKN020 OVC060 BECMG 1013/1015 30015G25KT FM101500 30015G25KT P6SM BKN025 TEMPO 1015/1019 2SM -SHSN BKN008 PROB30 1015/1019 1SM -SHSN BKN004 RMK FCST BASED ON AUTO OBS. NXT FCST BY 101300Z", "TAF CYDB 101140Z 1012/1024 31010KT P6SM SCT020 BKN040 TEMPO 1012/1015 BKN020 OVC040 FM101500 32007KT P6SM SCT040 BECMG 1019/1021 11007KT RMK FCST BASED ON AUTO OBS. NXT FCST BY 101800Z", "TAF CYDF 100740Z 1008/1020 23012G22KT P6SM BKN030 TEMPO 1008/1012 5SM -SHRA BR SCT008 OVC020 PROB30 1008/1012 OVC008 FM101200 24015G30KT P6SM BKN030 TEMPO 1012/1014 P6SM -SHRA BKN020 FM101400 23015G28KT P6SM BKN040 RMK NXT FCST BY 101400Z", "TAF CYDN 101140Z 1012/1024 22015KT P6SM FEW260 RMK FCST BASED ON AUTO OBS. NXT FCST BY 101800Z", "TAF CYDP 100940Z 1010/1022 29015G25KT P6SM BKN040 TEMPO 1010/1014 5SM -SHSN OVC020 FM101400 28015G25KT P6SM SCT030 SCT080 TEMPO 1014/1018 BKN020 BKN060 FM101800 28010G20KT P6SM BKN030 BKN120 RMK NXT FCST BY 101400Z", "TAF CYEG 101140Z 1012/1112 19008KT P6SM SCT220 FM101800 26010G20KT P6SM BKN150 FM102100 28018G28KT P6SM SCT020 BKN150 TEMPO 1021/1103 30030G40KT 5SM SHRA VCTS BR BKN020CB OVC150 FM110300 32020G30KT P6SM FEW020 SCT060 BKN150 BECMG 1104/1106 30015G25KT FM110900 30015KT P6SM SKC RMK NXT FCST BY 101500Z", "TAF CYEN 101140Z 1012/1024 22010KT P6SM SKC BECMG 1016/1018 22015KT RMK FCST BASED ON AUTO OBS. NXT FCST BY 101800Z", "TAF AMD CYER 100932Z 1009/1019 VRB03KT P6SM SCT008 OVC060 TEMPO 1009/1013 BKN008 FM101300 23008KT P6SM FEW020 BKN080 BECMG 1013/1015 25012G22KT RMK FCST BASED ON AUTO OBS. NXT FCST BY 101500Z", "TAF CYEU 101040Z 1011/1023 01008KT P6SM FEW030 OVC150 TEMPO 1011/1023 P6SM -SN BKN020 OVC150 RMK ADVISORY OFFSITE. NXT FCST BY 101800Z", "TAF AMD CYEV 100923Z 1009/1019 32010G20KT 5SM -SN OVC006 TEMPO 1009/1012 1SM -SN OVC003 FM101200 32012G22KT 3SM -SN OVC008 TEMPO 1012/1019 2SM -SN OVC004 BECMG 1013/1015 32015G25KT RMK NXT FCST BY 101300Z", "TAF CYFB 101140Z 1012/1112 33010KT P6SM FEW015 SCT040 TEMPO 1012/1024 P6SM -SN BKN015 OVC030 FM110000 33010KT P6SM BKN025 TEMPO 1100/1112 P6SM -SN BKN020 RMK NXT FCST BY 101800Z", "TAF CYFC 101140Z 1012/1024 VRB03KT P6SM SKC BECMG 1012/1014 25008KT RMK FCST BASED ON AUTO OBS. NXT FCST BY 101800Z", "TAF CYFS 101140Z 1012/1024 24012G22KT P6SM SCT150 BKN240 FM101800 24010G20KT P6SM SCT060 BKN120 TEMPO 1018/1024 P6SM -SHRA BKN060 OVC120 BECMG 1019/1021 31012G22KT RMK NXT FCST BY 101800Z", "TAF CYGK 101140Z 1012/1024 03005KT P6SM SCT040 TEMPO 1012/1017 BKN040 RMK NXT FCST BY 101400Z", "TAF CYGL 101140Z 1012/1112 23012G22KT 2SM -SNRA BR BKN003 OVC015 TEMPO 1012/1014 P6SM -RA SCT003 OVC015 FM101400 25015G25KT 5SM -SHRA BR BKN015 OVC030 TEMPO 1014/1017 P6SM NSW FEW015 BKN030 FM101700 25015G25KT P6SM BKN030 FM102000 24015G25KT 4SM -RA SCT008 OVC020 FM110100 24015G25KT P6SM FEW020 OVC080 TEMPO 1101/1103 BKN020 FM110600 24012G22KT P6SM -SHRA OVC050 BECMG 1110/1112 24012KT RMK NXT FCST BY 101800Z", "TAF CYGP 100140Z 1002/1014 28008KT P6SM FEW030 RMK NXT FCST BY 100800Z", "TAF CYGQ 100740Z 1008/1020 VRB03KT P6SM SCT030 FM101300 24010KT P6SM SCT150 BECMG 1013/1015 24010G20KT RMK FCST BASED ON AUTO OBS. NXT FCST BY 101400Z", "TAF CYGR 101040Z 1011/1023 28015G25KT P6SM SCT020 TEMPO 1011/1023 BKN020 BECMG 1016/1018 26015G25KT RMK NXT FCST BY 101400Z", "TAF CYGV 100740Z 1008/1020 28010KT P6SM FEW020 BECMG 1008/1010 30010G20KT BECMG 1015/1017 27015G25KT RMK FCST BASED ON AUTO OBS. NXT FCST BY 101400Z", "TAF CYGW 101140Z 1012/1024 29015G25KT P6SM BKN030 TEMPO 1012/1020 P6SM -SHRA BKN020 FM102200 24012KT 6SM -RA BR FEW008 OVC015 TEMPO 1022/1024 3SM -SHRA BR OVC008 RMK FCST BASED ON AUTO OBS. NXT FCST BY 101800Z", "TAF CYGX 100640Z 1007/1019 22008KT P6SM SCT070 SCT240 FM101200 22010KT P6SM SCT150 SCT220 BECMG 1014/1016 22012G22KT SKC RMK NXT FCST BY 101300Z", "TAF CYHD 100740Z 1008/1020 16006KT P6SM FEW200 PROB30 1008/1012 2SM BR BECMG 1012/1014 21010G20KT RMK FCST BASED ON AUTO OBS. NXT FCST BY 101400Z", "TAF CYHK 101140Z 1012/1024 32015KT P6SM SCT012 OVC020 TEMPO 1012/1014 3SM -SN BR BKN006 OVC012 PROB30 1012/1014 2SM -FZDZ BR FM101400 09010KT P6SM -SN BKN020 TEMPO 1014/1024 2SM -SN BR BKN008 RMK FCST BASED ON AUTO OBS. NXT FCST BY 101800Z", "TAF CYHM 101140Z 1012/1112 VRB03KT P6SM BKN060 FM101500 34007KT P6SM SCT050 BECMG 1018/1020 27012KT BECMG 1023/1101 27005KT FM110300 VRB03KT P6SM SKC PROB30 1108/1112 2SM BR RMK NXT FCST BY 101800Z", "TAF CYHU 101140Z 1012/1112 VRB03KT P6SM BKN080 BECMG 1012/1014 33005KT FM101700 26010KT P6SM SCT080 BECMG 1100/1102 24005KT FM110200 24005KT P6SM SKC FM110900 20005KT P6SM SCT180 RMK FCST BASED ON AUTO OBS. NXT FCST BY 101800Z", "TAF CYHY 101140Z 1012/1024 20010KT P6SM SCT100 BKN230 TEMPO 1012/1018 P6SM -SHRA SCT050 BKN100 OVC230 BECMG 1016/1018 29015G25KT FM101800 29015G25KT P6SM SCT100 BKN230 BECMG 1022/1024 29012KT RMK NXT FCST BY 101800Z", "TAF CYHZ 101140Z 1012/1112 26008KT P6SM FEW050 FM110300 23008KT P6SM SCT060 RMK NXT FCST BY 101500Z", "TAF CYIO 100640Z 1007/1019 15010KT P6SM FEW020 TEMPO 1007/1019 P6SM -SN BKN020 BECMG 1007/1009 VRB03KT RMK FCST BASED ON AUTO OBS. NXT FCST BY 101300Z", "TAF AMD CYIV 101031Z 1010/1019 22006KT P6SM FEW060 FM101100 22006KT P6SM BKN060 BECMG 1012/1014 22012G22KT FEW260 RMK FCST BASED ON AUTO OBS. NXT FCST BY 101300Z", "TAF CYJT 101140Z 1012/1112 28015G25KT P6SM SCT030 BKN040 TEMPO 1012/1021 P6SM -SHRA BKN020 BKN040 FM102100 25012G22KT P6SM FEW020 BKN030 TEMPO 1021/1106 P6SM -SHRA FEW006 BKN020 PROB30 1103/1106 4SM SHRA BKN006 BKN020 FM110600 25012G22KT P6SM FEW020 BKN040 TEMPO 1106/1112 P6SM -SHRA BECMG 1110/1112 25015G25KT RMK NXT FCST BY 101800Z", "TAF CYKA 100640Z 1007/1019 VRB03KT P6SM FEW240 FM101300 10007KT P6SM FEW140 BKN220 FM101600 10008KT P6SM BKN100 RMK NXT FCST BY 101300Z", "TAF CYKF 100740Z 1008/1020 VRB03KT P6SM BKN050 PROB30 1008/1012 1SM BR BKN002 FM101200 VRB03KT P6SM BKN030 TEMPO 1012/1013 4SM BR FM101600 27010KT P6SM SCT050 RMK FCST BASED ON AUTO OBS. NXT FCST BY 101400Z", "TAF CYKJ 100940Z 1010/1022 22010KT P6SM SKC BECMG 1018/1020 24015G25KT RMK FCST BASED ON AUTO OBS. NXT FCST BY 101300Z", "TAF CYKL 100740Z 1008/1020 30007KT 3SM -SHSN SCT008 OVC015 TEMPO 1008/1012 P6SM -SN BKN025 PROB30 1008/1012 2SM -SHSN OVC008 FM101200 25010KT 5SM -SHSN SCT008 OVC020 TEMPO 1012/1014 P6SM NSW BKN030 BKN100 PROB30 1012/1014 OVC008 FM101400 26012G22KT 5SM -SHRA FEW010 OVC015 TEMPO 1014/1018 P6SM NSW SCT015 OVC025 FM101800 23015G25KT 4SM -SN SCT008 OVC015 PROB40 1018/1020 2SM -SHSN OVC008 RMK FCST BASED ON AUTO OBS. NXT FCST BY 101400Z", "TAF CYLD 101140Z 1012/1024 VRB03KT P6SM BKN030 FM101400 22008KT P6SM SCT030 RMK NXT FCST BY 101400Z", "TAF CYLL 101140Z 1012/1024 24012KT P6SM SKC BECMG 1020/1022 29015G25KT BECMG 1022/1024 28020G30KT RMK FCST BASED ON AUTO OBS. NXT FCST BY 101800Z", "TAF CYLW 100640Z 1007/1019 VRB03KT P6SM FEW240 FM101500 VRB03KT P6SM FEW140 BKN220 RMK FCST BASED ON AUTO OBS. NXT FCST BY 101300Z", "TAF CYMA 101140Z 1012/1024 VRB03KT 6SM -SN OVC040 TEMPO 1012/1015 2SM -SHSN VV015 BECMG 1012/1014 25010KT FM101500 25007KT P6SM BKN040 RMK NXT FCST BY 101800Z", "TAF AMD CYMH 101043Z 1010/1021 26006KT P6SM BKN030 TEMPO 1010/1012 BKN020 FM101200 28012G22KT P6SM SCT012 SCT050 TEMPO 1012/1014 BKN012 BKN050 FM101400 28010G20KT P6SM FEW030 FM101800 27010G20KT P6SM BKN040 RMK FCST BASED ON AUTO OBS. NXT FCST BY 101400Z", "TAF CYMM 100640Z 1007/1019 22008KT P6SM SCT250 BECMG 1009/1011 23010G20KT BECMG 1016/1018 25020G30KT RMK FCST BASED ON AUTO OBS. NXT FCST BY 101300Z", "TAF CYMO 101140Z 1012/1024 23012KT P6SM SCT040 BKN070 TEMPO 1012/1016 P6SM -SHRA BKN040 BECMG 1012/1014 24010G20KT FM101600 23010G20KT P6SM SCT040 SCT140 FM102200 22012G22KT P6SM BKN140 RMK FCST BASED ON AUTO OBS. NXT FCST BY 101800Z", "TAF CYMT 101140Z 1012/1024 23006KT P6SM -RASN SCT008 OVC015 TEMPO 1012/1014 4SM -SN OVC008 FM101400 24012KT P6SM BKN020 TEMPO 1014/1017 BKN030 FM101700 24012KT P6SM BKN030 BKN070 TEMPO 1017/1022 P6SM -SHRA FM102200 24012G22KT P6SM BKN030 BKN140 BECMG 1022/1024 24010KT RMK FCST BASED ON AUTO OBS. NXT FCST BY 101800Z", "TAF CYMX 101140Z 1012/1112 VRB03KT P6SM BKN070 FM101700 28007KT P6SM SCT070 BECMG 1022/1024 VRB03KT FM110600 VRB03KT P6SM FEW006 PROB30 1108/1112 1/2SM FZFG RMK NXT FCST BY 101800Z", "TAF CYNA 100740Z 1008/1020 29012KT P6SM FEW020 OVC050 TEMPO 1008/1010 SCT050 FM101000 29012KT P6SM FEW020 BECMG 1013/1015 27012KT BECMG 1016/1018 27015G25KT RMK FCST BASED ON AUTO OBS. NXT FCST BY 101400Z", "TAF CYNE 100640Z 1007/1019 21009KT P6SM SKC BECMG 1015/1017 21015KT RMK FCST BASED ON AUTO OBS. NXT FCST BY 101300Z", "TAF CYOD 101140Z 1012/1112 VRB03KT P6SM FEW250 BECMG 1013/1015 24010KT FM101600 24010KT P6SM FEW100 BKN170 BECMG 1016/1018 24010G20KT FM102000 27015G25KT P6SM BKN090 OVC140 FM110000 27015G25KT P6SM -SHRA BKN070 BECMG 1100/1102 27020G35KT FM110300 29020G35KT P6SM SCT020 BKN040 BECMG 1104/1106 32015G25KT RMK NXT FCST BY 101500Z", "TAF CYOJ 100640Z 1007/1019 VRB03KT P6SM BKN260 FM101200 18007KT P6SM SCT030 OVC120 TEMPO 1012/1017 P6SM -SHRA OVC030 BECMG 1013/1015 32015G30KT RMK FCST BASED ON AUTO OBS. NXT FCST BY 101300Z", "TAF CYOO 100740Z 1008/1020 VRB03KT P6SM BKN070 PROB30 1010/1012 2SM BR FM101200 VRB03KT P6SM SCT010 TEMPO 1012/1014 5SM BR BKN010 FM101600 30007KT P6SM BKN050 RMK FCST BASED ON AUTO OBS. NXT FCST BY 101400Z", "TAF CYOW 101140Z 1012/1112 36007KT P6SM BKN050 FM101700 29007KT P6SM SCT050 BECMG 1022/1024 VRB03KT FM111000 18005KT 6SM BR SCT020 PROB30 1110/1112 1SM BR RMK NXT FCST BY 101500Z", "TAF CYPA 100640Z 1007/1019 23005KT P6SM SCT250 FM101400 23012KT P6SM SKC RMK NXT FCST BY 101300Z", "TAF CYPE 100640Z 1007/1019 24015G25KT P6SM SCT240 FM101200 24015G25KT P6SM SCT140 BKN210 FM101500 25025G35KT P6SM SCT030 OVC080 TEMPO 1015/1019 P6SM -SHRA OVC030 RMK NXT FCST BY 101300Z", "TAF CYPH 101140Z 1012/1024 31010G20KT P6SM BKN030 TEMPO 1012/1024 5SM -SHRASN BKN020 BECMG 1021/1023 29010KT RMK FCST BASED ON AUTO OBS. NXT FCST BY 101800Z", "TAF CYPL 100740Z 1008/1020 28007KT P6SM SCT060 BKN180 BECMG 1012/1014 23012KT RMK FCST BASED ON AUTO OBS. NXT FCST BY 101400Z", "TAF CYPQ 100940Z 1010/1022 VRB03KT 6SM BR SCT003 BKN100 TEMPO 1010/1013 4SM BR PROB30 1010/1013 2SM BR BKN003 FM101400 VRB03KT P6SM BKN050 FM101800 27007KT P6SM SCT050 RMK FCST BASED ON AUTO OBS. NXT FCST BY 101400Z", "TAF AMD CYPR 100811Z 1008/1019 29012G22KT 6SM -RA BR SCT005 BKN015 OVC030 TEMPO 1008/1009 2SM SHRA BR BKN005 OVC015 FM100900 31012G22KT P6SM FEW007 SCT015 BKN040 TEMPO 1009/1012 5SM -SHRA BR SCT007 BKN020 FM101200 30010G20KT P6SM SCT020 BKN050 TEMPO 1012/1019 P6SM -SHRA BKN020 RMK FCST BASED ON AUTO OBS. NXT FCST BY 101300Z", "TAF CYPX 101140Z 1012/1024 31015G25KT P6SM -SN SCT020 BKN030 TEMPO 1012/1024 1SM -SHSN OVC012 PROB30 1012/1024 1/2SM SHSN OVC006 RMK FCST BASED ON AUTO OBS. NXT FCST BY 101800Z", "TAF CYPY 101140Z 1012/1024 22006KT P6SM SCT240 FM101800 26010G20KT P6SM SCT030 BKN080 TEMPO 1018/1024 30020G30KT P6SM -SHRA VCTS BKN030CB OVC080 RMK FCST BASED ON AUTO OBS. NXT FCST BY 101800Z", "TAF CYQA 101140Z 1012/1024 VRB03KT P6SM SCT050 FM101500 27005KT P6SM SCT050 RMK FCST BASED ON AUTO OBS. NXT FCST BY 101400Z", "TAF CYQB 101140Z 1012/1112 VRB03KT P6SM FEW012 BKN230 PROB30 1012/1013 1SM BR SCT003 FM101500 24008KT P6SM SCT040 TEMPO 1015/1024 BKN040 FM110000 24008KT P6SM FEW040 BECMG 1100/1102 26005KT FM110600 26005KT P6SM FEW006 SCT180 PROB30 1106/1112 2SM BR RMK NXT FCST BY 101800Z", "TAF CYQD 100640Z 1007/1019 18008KT P6SM SKC BECMG 1014/1016 21015KT RMK FCST BASED ON AUTO OBS. NXT FCST BY 101300Z", "TAF CYQF 101140Z 1012/1024 20006KT P6SM SKC FM101500 22006KT P6SM BKN250 FM102000 27012G22KT P6SM BKN080 TEMPO 1020/1024 P6SM -SHRA OVC060 RMK NXT FCST BY 101800Z", "TAF CYQG 101140Z 1012/1112 35003KT P6SM SCT070 BECMG 1012/1014 03007KT FM101800 VRB03KT P6SM SCT050 BECMG 1022/1024 12005KT BECMG 1103/1105 18007KT FM110900 23007KT P6SM FEW070 RMK FCST BASED ON AUTO OBS. NXT FCST BY 101800Z", "TAF CYQH 101140Z 1012/1024 24005KT P6SM SCT060 BKN120 BECMG 1012/1014 27010G20KT FM101500 27010G20KT P6SM BKN060 BECMG 1016/1018 27020G30KT RMK NXT FCST BY 101800Z", "TAF CYQI 101140Z 1012/1024 VRB03KT P6SM FEW030 BECMG 1013/1015 27008KT FM101800 26010KT P6SM BKN060 TEMPO 1018/1021 SCT060 FM102100 27008KT P6SM BKN040 RMK NXT FCST BY 101800Z", "TAF CYQK 100740Z 1008/1020 16006KT P6SM FEW200 PROB30 1008/1012 2SM BR BECMG 1012/1014 21010G20KT RMK NXT FCST BY 101400Z", "TAF CYQL 101140Z 1012/1024 23012G22KT P6SM SKC BECMG 1016/1018 26025G35KT RMK FCST BASED ON AUTO OBS. NXT FCST BY 101800Z", "TAF CYQM 101140Z 1012/1112 24010KT P6SM SKC BECMG 1101/1103 22008KT RMK NXT FCST BY 101800Z", "TAF CYQQ 101140Z 1012/1112 VRB03KT P6SM FEW040 BKN190 BKN230 FM101600 34005KT P6SM FEW030 SCT060 TEMPO 1016/1023 SCT030 BKN060 BECMG 1018/1020 34006KT FM102300 35012KT P6SM FEW030 BECMG 1023/1101 35015G25KT BECMG 1108/1110 33010G20KT RMK NXT FCST BY 101800Z", "TAF CYQR 101140Z 1012/1112 13008KT P6SM SKC BECMG 1015/1017 21010KT FM102000 21015KT P6SM SKC FM110800 31015G30KT P6SM BKN100 FM111100 31020G35KT P6SM BKN020 OVC050 RMK NXT FCST BY 101800Z", "TAF CYQT 100740Z 1008/1020 28005KT P6SM SKC PROB30 1008/1012 2SM BR BKN009 BECMG 1012/1014 19010KT RMK NXT FCST BY 101400Z", "TAF CYQU 100640Z 1007/1019 24010G20KT P6SM SCT250 FM101200 24015G25KT P6SM SCT060 BKN150 FM101500 25020G30KT P6SM SCT050 OVC100 TEMPO 1015/1019 P6SM -SHRA OVC050 BECMG 1016/1018 26025G35KT RMK NXT FCST BY 101300Z", "TAF CYQV 101140Z 1012/1024 VRB03KT P6SM FEW260 BECMG 1014/1016 23012KT RMK FCST BASED ON AUTO OBS. AUTO OBS REP NON-REPRESENTATIVE PCPN. NXT FCST BY 101800Z", "TAF CYQW 101140Z 1012/1024 23005KT P6SM SKC BECMG 1016/1018 23012KT FM102200 23012KT P6SM BKN120 RMK FCST BASED ON AUTO OBS. NXT FCST BY 101800Z", "TAF CYQX 101140Z 1012/1112 24015G25KT P6SM FEW030 FEW070 TEMPO 1012/1019 BKN030 FM101900 27015G25KT P6SM BKN040 TEMPO 1019/1024 P6SM -SHRA BECMG 1022/1024 27010KT FM110500 23010KT P6SM SCT030 BECMG 1110/1112 25012G22KT RMK NXT FCST BY 101800Z", "TAF CYQY 101140Z 1012/1024 26008KT P6SM FEW250 FM101500 26012KT P6SM SCT040 TEMPO 1015/1024 BKN040 RMK NXT FCST BY 101800Z", "TAF CYQZ 101140Z 1012/1024 VRB02KT P6SM SCT060 BKN090 OVC110 TEMPO 1012/1015 6SM -RA BKN060 OVC090 FM101500 13005KT P6SM SCT060 BECMG 1016/1018 20010KT FM101900 20010KT P6SM FEW060 BECMG 1019/1021 33020G30KT RMK FCST BASED ON AUTO OBS. NXT FCST BY 101900Z", "TAF CYRB 101140Z 1012/1112 10008KT P6SM -SN OVC020 TEMPO 1012/1014 P6SM NSW BKN030 FM101400 09010KT P6SM SCT006 BKN015 OVC030 TEMPO 1014/1024 3SM -SN BR BKN006 OVC015 FM110000 09008KT P6SM -SN SCT005 BKN012 OVC100 TEMPO 1100/1112 1 1/2SM -SN BKN005 OVC012 BECMG 1107/1109 18008KT RMK NXT FCST BY 101800Z", "TAF CYRJ 101140Z 1012/1024 24008KT P6SM SCT050 TEMPO 1012/1024 BKN050 BECMG 1016/1018 26012KT RMK NXT FCST BY 101400Z", "TAF CYRL 101040Z 1011/1023 23010KT P6SM SKC BECMG 1013/1015 22015G25KT BECMG 1021/1023 22010G20KT RMK NXT FCST BY 101400Z", "TAF CYRQ 100740Z 1008/1020 VRB03KT P6SM FEW070 BECMG 1016/1018 22010KT RMK FCST BASED ON AUTO OBS. NXT FCST BY 101400Z", "TAF CYRT 101140Z 1012/1024 27005KT P6SM SCT020 BKN100 TEMPO 1012/1014 6SM -SN OVC020 FM101400 25008KT P6SM BKN020 OVC080 TEMPO 1014/1018 3SM -SHSN OVC008 BECMG 1016/1018 09012KT FM101800 09012KT P6SM BKN020 TEMPO 1018/1024 SCT020 RMK NXT FCST BY 101800Z", "TAF CYSB 100740Z 1008/1020 VRB03KT P6SM SCT050 BKN240 FM101100 VRB03KT P6SM SCT240 PROB30 1011/1013 1SM BR BKN003 FM101700 23007KT P6SM FEW040 RMK NXT FCST BY 101400Z", "TAF CYSC 101042Z 1011/1023 VRB03KT P6SM SCT060 TEMPO 1011/1016 BKN060 BECMG 1016/1018 27010KT RMK FCST BASED ON AUTO OBS. NXT FCST BY 101800Z", "TAF CYSF 101140Z 1012/1024 VRB03KT P6SM SCT240 TEMPO 1012/1014 1SM BR BECMG 1016/1018 22010G20KT FM101800 22012G22KT P6SM BKN150 RMK FCST BASED ON AUTO OBS. NXT FCST BY 101800Z", "TAF CYSJ 101140Z 1012/1024 VRB03KT P6SM FEW040 BECMG 1013/1015 24012KT RMK NXT FCST BY 101800Z", "TAF CYSM 101140Z 1012/1024 16008KT P6SM SCT100 OVC240 FM101800 25010G20KT P6SM BKN070 OVC200 TEMPO 1018/1024 30025G35KT P6SM -SHRA VCTS BKN030CB OVC070 RMK NXT FCST BY 101800Z", "TAF CYTE 100640Z 1007/1019 13008KT P6SM SCT008 OVC015 TEMPO 1007/1019 3SM -SN OVC008 RMK FCST BASED ON AUTO OBS. NXT FCST BY 101300Z", "TAF CYTH 100640Z 1007/1019 20005KT P6SM SCT060 SCT260 FM101000 22006KT P6SM SCT150 SCT240 FM101600 22012G22KT P6SM SKC RMK NXT FCST BY 101300Z", "TAF CYTL 100740Z 1008/1020 28010G20KT P6SM BKN120 BECMG 1012/1014 19010KT RMK FCST BASED ON AUTO OBS. NXT FCST BY 101400Z", "TAF CYTR 101140Z 1012/1112 02005KT P6SM BKN070 FM101500 VRB03KT P6SM SCT070 FM101800 23005KT P6SM FEW040 FM110300 VRB03KT P6SM FEW020 RMK NXT FCST BY 101800Z", "TAF CYTS 100740Z 1008/1020 26005KT P6SM BKN040 FM101100 24005KT P6SM SCT040 PROB30 1011/1014 2SM BR SCT005 BECMG 1014/1016 24010KT FM101800 24010KT P6SM FEW050 SCT100 RMK NXT FCST BY 101400Z", "TAF CYTZ 100740Z 1008/1108 VRB03KT P6SM BKN070 FM101200 VRB03KT P6SM SCT010 TEMPO 1012/1014 BKN010 FM101500 VRB03KT P6SM SCT040 FM101800 18005KT P6SM BKN050 FM102100 VRB03KT P6SM SCT050 FM110000 VRB03KT P6SM SKC RMK FCST BASED ON AUTO OBS. NXT FCST BY 101400Z", "TAF CYUL 101140Z 1012/1112 VRB03KT P6SM BKN070 BECMG 1012/1014 33005KT BECMG 1015/1017 25010KT FM101700 25010KT P6SM SCT050 BECMG 1100/1102 22007KT SKC FM110900 21005KT P6SM SCT180 RMK NXT FCST BY 101500Z", "TAF AMD CYUX 100711Z 1007/1019 VRB03KT P6SM FEW008 BKN030 TEMPO 1007/1019 3SM -SN BR SCT008 OVC020 PROB30 1007/1019 2SM BR BKN008 RMK FCST BASED ON AUTO OBS. NXT FCST BY 101300Z", "TAF CYUY 101140Z 1012/1024 VRB03KT P6SM BKN040 FM101500 24007KT P6SM FEW040 BECMG 1015/1017 24010KT BECMG 1022/1024 21008KT RMK NXT FCST BY 101800Z", "TAF CYVC 100640Z 1007/1019 22008KT P6SM SKC BECMG 1014/1016 25012KT RMK NXT FCST BY 101300Z", "TAF CYVM 100640Z 1007/1019 VRB03KT P6SM SCT020 OVC080 TEMPO 1007/1019 3/4SM -SHSN FEW009 BKN015 OVC080 RMK FCST BASED ON AUTO OBS. NXT FCST BY 101300Z", "TAF CYVO 101140Z 1012/1024 27005KT P6SM BKN050 FM101600 23008KT P6SM FEW040 RMK NXT FCST BY 101800Z", "TAF CYVP 101140Z 1012/1024 29006KT P6SM FEW015 BKN040 TEMPO 1012/1020 5SM -SN BKN015 OVC040 BECMG 1012/1014 21012KT FM102000 19008KT P6SM OVC025 TEMPO 1020/1024 1 1/2SM -SHSN OVC008 RMK NXT FCST BY 101800Z", "TAF CYVQ 101140Z 1012/1024 29020G30KT P6SM SCT008 BKN100 OVC170 TEMPO 1012/1015 3SM -RASN BKN008 OVC080 FM101500 30025G35KT 6SM -RASN OVC030 TEMPO 1015/1024 2SM -SN OVC015 BECMG 1016/1018 30030G50KT RMK NXT FCST BY 101800Z", "TAF CYVR 101140Z 1012/1118 10008KT P6SM SCT220 FM101600 12007KT P6SM FEW020 BKN150 FM102000 22008KT P6SM FEW030 BKN060 BECMG 1021/1023 27012G22KT FM110200 27020G30KT P6SM FEW060 SCT150 BECMG 1106/1108 29008KT FM111000 10005KT P6SM FEW030 FM111500 09008KT P6SM SCT015 BKN030 RMK NXT FCST BY 101500Z", "TAF CYVV 101040Z 1011/1023 VRB03KT P6SM SCT040 TEMPO 1011/1013 4SM BR FM102000 27005KT P6SM FEW050 RMK NXT FCST BY 101400Z", "TAF CYWG 101140Z 1012/1112 19012KT P6SM SKC FM101600 19018KT P6SM SKC FM110000 19015KT P6SM SKC RMK NXT FCST BY 101800Z", "TAF CYWK 100740Z 1008/1020 27008KT P6SM BKN030 TEMPO 1008/1014 3SM -SHSN SCT010 BKN020 PROB30 1008/1014 2SM -SHSN BKN008 OVC020 FM101400 25012G22KT P6SM BKN030 TEMPO 1014/1019 3SM -SHSN SCT010 BKN020 FM101900 24015G25KT 4SM -SN SCT008 OVC015 PROB40 1019/1020 2SM -SHSN OVC008 RMK FCST BASED ON AUTO OBS. NXT FCST BY 101400Z", "TAF CYWL 100640Z 1007/1019 15005KT P6SM BKN230 FM101200 13005KT P6SM SCT050 BKN100 RMK NXT FCST BY 101300Z", "TAF CYXC 100640Z 1007/1019 VRB03KT P6SM FEW250 RMK NXT FCST BY 101300Z", "TAF CYXE 101140Z 1012/1112 19008KT P6SM SKC BECMG 1016/1018 21015KT FM110400 31015G30KT P6SM BKN100 FM110900 31020G40KT P6SM -SHRA BKN020 OVC050 RMK NXT FCST BY 101800Z", "TAF CYXH 101140Z 1012/1024 24008KT P6SM SKC BECMG 1012/1014 22012G22KT BECMG 1016/1018 24018G28KT FM102300 26022G32KT P6SM BKN150 RMK FCST BASED ON AUTO OBS. NXT FCST BY 101800Z", "TAF CYXJ 100640Z 1007/1019 23018G28KT P6SM BKN240 FM101200 23020G30KT P6SM SCT040 OVC200 TEMPO 1012/1019 P6SM -SHRA BKN040 OVC200 BECMG 1017/1019 27025G35KT RMK NXT FCST BY 101300Z", "TAF CYXL 100740Z 1008/1020 21005KT P6SM SKC PROB30 1008/1012 1/2SM FG VV002 BECMG 1012/1014 21010G20KT RMK NXT FCST BY 101400Z", "TAF CYXR 101140Z 1012/1024 28006KT P6SM BKN040 FM101500 24006KT P6SM FEW040 SCT100 RMK FCST BASED ON AUTO OBS. NXT FCST BY 101800Z", "TAF CYXS 100640Z 1007/1019 17010KT P6SM SCT180 FM100900 19012KT P6SM SCT050 BKN120 TEMPO 1009/1012 P6SM -SHRA BKN050 OVC100 FM101200 19012KT P6SM -SHRA BKN050 OVC100 TEMPO 1012/1019 5SM -SHRA BR BKN025 OVC050 BECMG 1014/1016 22018KT RMK FCST BASED ON AUTO OBS. NXT FCST BY 101300Z", "TAF AMD CYXT 100926Z 1009/1019 18020G30KT P6SM FEW006 SCT015 BKN040 TEMPO 1009/1018 P6SM -SHRA BKN015 BKN040 BECMG 1013/1015 18012KT RMK NXT FCST BY 101300Z", "TAF CYXU 101140Z 1012/1112 34006KT P6SM BKN025 BKN050 TEMPO 1012/1013 BKN020 BKN050 FM101400 28007KT P6SM SCT050 FM101800 30012KT P6SM FEW040 BECMG 1022/1024 36007KT FM110300 VRB03KT P6SM SKC FM110800 15007KT P6SM SKC PROB30 1108/1112 2SM BR RMK NXT FCST BY 101800Z", "TAF CYXX 101140Z 1012/1112 VRB03KT P6SM SCT220 PROB30 1012/1016 1SM BR FM101600 VRB03KT P6SM FEW030 BKN140 FM101800 21007KT P6SM SCT060 BKN100 FM102100 21012KT P6SM BKN060 FM110400 22006KT P6SM SCT040 FM110900 VRB03KT P6SM SCT012 BKN030 RMK NXT FCST BY 101800Z", "TAF CYXY 101140Z 1012/1024 34005KT P6SM SCT060 BKN140 BKN180 TEMPO 1012/1015 BKN060 OVC140 FM101500 35005KT P6SM BKN060 BECMG 1016/1018 VRB03KT FM101800 VRB03KT P6SM BKN060 BECMG 1020/1022 18012G22KT RMK NXT FCST BY 101800Z", "TAF CYYB 100740Z 1008/1020 02005KT P6SM FEW050 PROB30 1010/1012 2SM BR FM101700 24007KT P6SM FEW050 RMK FCST BASED ON AUTO OBS. NXT FCST BY 101400Z", "TAF CYYC 101140Z 1012/1112 25006KT P6SM FEW230 FM101800 26012G22KT P6SM BKN150 BECMG 1021/1023 30025G35KT FM102300 30022G32KT P6SM BKN150 TEMPO 1023/1102 5SM BLDU FM110200 32020G30KT P6SM SCT030 BKN070 TEMPO 1102/1107 35030G40KT 5SM -SHRA BR OVC030 FM110700 34015G25KT P6SM SCT030 FM111000 30010KT P6SM SKC RMK NXT FCST BY 101500Z", "TAF AMD CYYE 101015Z 1010/1019 29015G25KT P6SM BKN090 OVC120 TEMPO 1010/1014 32025G35KT P6SM -SHRA OVC040 FM101400 28015G25KT P6SM SCT150 BECMG 1017/1019 26030G40KT RMK NXT FCST BY 101300Z", "TAF CYYF 100640Z 1007/1019 VRB03KT P6SM FEW240 FM101500 17006KT P6SM SCT120 BKN220 RMK NXT FCST BY 101300Z", "TAF CYYG 101140Z 1012/1024 27008KT P6SM FEW025 BECMG 1013/1015 25010KT FM102100 24008KT P6SM SCT040 TEMPO 1021/1024 BKN040 RMK NXT FCST BY 101800Z", "TAF CYYH 101140Z 1012/1024 36010KT P6SM FEW010 BKN015 BKN030 TEMPO 1012/1024 P6SM -SN BKN009 OVC015 PROB30 1012/1024 2SM -FZDZ BR BKN006 RMK NXT FCST BY 101800Z", "TAF CYYJ 101140Z 1012/1112 24003KT P6SM SCT240 PROB30 1012/1016 1SM BR FM101700 VRB03KT P6SM BKN150 FM102000 13007KT P6SM FEW060 SCT100 FM110000 12005KT P6SM BKN050 FM110800 VRB03KT P6SM SCT050 RMK NXT FCST BY 101800Z", "TAF CYYL 100640Z 1007/1019 23006KT P6SM SCT240 BECMG 1014/1016 23012KT RMK FCST BASED ON AUTO OBS. NXT FCST BY 101300Z", "TAF CYYN 101140Z 1012/1024 21010KT P6SM SKC BECMG 1014/1016 22018KT RMK FCST BASED ON AUTO OBS. AUTO OBS REP NON-REPRESENTATIVE WIND. NXT FCST BY 101800Z", "TAF CYYQ 101140Z 1012/1112 15010KT 1 1/2SM BR OVC003 TEMPO 1012/1015 P6SM NSW SCT005 BKN090 FM101500 18010KT P6SM FEW005 BKN090 FM102200 12010KT P6SM FEW090 SCT200 FM110300 12010KT P6SM FEW003 BKN160 FM111100 20008KT P6SM FEW060 BKN200 RMK NXT FCST BY 101800Z", "TAF CYYR 101140Z 1012/1112 27007KT P6SM FEW030 FEW060 FM101500 26012G22KT P6SM BKN030 FM102200 26012G22KT P6SM -SHRASN BKN030 OVC100 FM110300 23010KT P6SM -SHRASN SCT012 OVC025 FM110700 26010KT P6SM BKN025 RMK NXT FCST BY 101800Z", "TAF CYYT 101140Z 1012/1112 25012G22KT P6SM FEW020 FEW040 FEW070 TEMPO 1012/1015 5SM -SHRA BR BKN020 BECMG 1013/1015 28015G30KT FM101500 28015G30KT P6SM FEW040 TEMPO 1015/1018 P6SM -SHRA BKN040 BECMG 1022/1024 25012G22KT FM110200 26012KT P6SM -SHRA FEW010 BKN040 BKN200 RMK NXT FCST BY 101800Z", "TAF CYYU 100740Z 1008/1020 26005KT P6SM BKN040 FM100900 24005KT P6SM FEW040 PROB30 1009/1012 1SM BR BKN003 BECMG 1012/1014 23012KT FM101500 24012KT P6SM FEW050 SCT100 RMK NXT FCST BY 101400Z", "TAF CYYY 100740Z 1008/1020 22012KT P6SM FEW040 FM100900 24012KT P6SM SCT040 TEMPO 1009/1014 BKN040 BECMG 1016/1018 24015G25KT RMK NXT FCST BY 101400Z", "TAF CYYZ 101140Z 1012/1118 35005KT P6SM SCT040 TEMPO 1012/1013 BKN040 FM101700 27007KT P6SM SCT050 TEMPO 1017/1022 BKN050 BECMG 1019/1021 22010KT FM102300 21005KT P6SM SKC BECMG 1102/1104 28005KT BECMG 1109/1111 18005KT FM111400 18010KT P6SM SKC BECMG 1115/1117 21012G22KT RMK NXT FCST BY 101500Z", "TAF CYZE 100940Z 1010/1022 07007KT P6SM FEW050 FM101700 32005KT P6SM SCT040 RMK FCST BASED ON AUTO OBS. NXT FCST BY 101400Z", "TAF CYZF 101140Z 1012/1112 16007KT P6SM SCT060 BKN100 BKN210 TEMPO 1012/1015 P6SM -SHRA BKN060 OVC100 BECMG 1012/1014 24010KT FM101500 27010KT P6SM FEW060 SCT120 BECMG 1016/1018 30020G30KT FM110300 28015G25KT P6SM FEW030 SCT080 FM110600 28015G25KT P6SM -SN BKN030 OVC080 TEMPO 1106/1112 3SM -SN BKN015 OVC030 RMK NXT FCST BY 101800Z", "TAF CYZH 100640Z 1007/1019 28010KT P6SM SCT250 FM101500 26012G22KT P6SM SCT060 BKN120 BECMG 1017/1019 28022G32KT RMK FCST BASED ON AUTO OBS. NXT FCST BY 101300Z", "TAF CYZP 100640Z 1007/1019 16008KT P6SM -RA SCT012 BKN040 OVC080 TEMPO 1007/1009 3SM -RA BR BKN012 OVC030 BECMG 1007/1009 29015G25KT FM100900 29015G25KT P6SM FEW015 SCT030 BKN060 TEMPO 1009/1019 P6SM -SHRA SCT015 BKN030 RMK FCST BASED ON AUTO OBS. NXT FCST BY 101300Z", "TAF CYZR 100740Z 1008/1020 VRB03KT P6SM SKC PROB30 1009/1013 1/2SM FG BKN002 FM101400 34007KT P6SM FEW040 RMK FCST BASED ON AUTO OBS. NXT FCST BY 101400Z", "TAF CYZS 100640Z 1007/1019 33008KT P6SM FEW020 BKN120 TEMPO 1007/1019 6SM -SN BKN020 OVC120 RMK NXT FCST BY 101300Z", "TAF AMD CYZT 101009Z 1010/1019 VRB03KT P6SM -RA SCT008 OVC030 TEMPO 1010/1015 3SM -RA BR BKN006 OVC020 FM101500 24008KT P6SM SCT015 BKN060 TEMPO 1015/1019 P6SM -SHRA BKN015 BECMG 1016/1018 32015G25KT RMK NXT FCST BY 101300Z", "TAF CYZV 101140Z 1012/1112 30005KT P6SM FEW030 BECMG 1012/1014 24010KT FM101600 25012KT P6SM BKN050 BKN100 BECMG 1022/1024 27012G22KT FM110300 27010G20KT P6SM SCT050 FM110900 27010G20KT P6SM -RA BKN030 OVC080 BECMG 1110/1112 23015G25KT RMK NXT FCST BY 101800Z", "TAF CYZX 101140Z 1012/1112 VRB03KT P6SM FEW030 FM101500 26012KT P6SM FEW030 FM101800 27012KT P6SM SCT080 BKN200 FM110200 24005KT P6SM BKN025 FM110700 VRB03KT 4SM BR FEW003 PROB40 1107/1112 1/2SM FG VV002 RMK NXT FCST BY 101800Z", "TAF CZBF 100840Z 1009/1021 26005KT P6SM SKC FM101800 26010KT P6SM SCT050 TEMPO 1018/1021 BKN050 RMK FCST BASED ON AUTO OBS. NXT FCST BY 101400Z", "TAF CZMD 100940Z 1010/1022 22010G20KT P6SM SCT150 BECMG 1012/1014 23015G25KT RMK FCST BASED ON AUTO OBS. NXT FCST BY 101600Z", "TAF CZSJ 100940Z 1010/1022 22010G20KT P6SM SKC BECMG 1012/1014 22015G25KT RMK FCST BASED ON AUTO OBS. NXT FCST BY 101600Z", "TAF CZUM 100740Z 1008/1020 28008KT P6SM -SN BKN025 TEMPO 1008/1012 2SM -SHSN BKN015 FM101200 28012KT P6SM BKN030 TEMPO 1012/1018 P6SM -SHSN BKN020 BECMG 1012/1014 28012G22KT FM101800 29012G22KT 3SM -SHSN SCT020 BKN040 RMK FCST BASED ON AUTO OBS. NXT FCST BY 101400Z", "TAF CZVL 101140Z 1012/1024 22008KT P6SM SCT220 BECMG 1016/1018 24015G30KT FM102000 28012G22KT P6SM SCT070 BKN120 TEMPO 1020/1024 32030G40KT 5SM -SHRA VCTS BR OVC070CB RMK FCST BASED ON AUTO OBS. NXT FCST BY 101800Z", "TAF DAAD 101100Z 1012/1021 VRB02KT 7000 FEW013 SCT026 BECMG 1013/1015 04012KT PROB40 TEMPO 1014/1017 VRB15G25KT 4000 -RA FEW026CB", "TAF DAAE 101100Z 1012/1112 07011KT 9999 FEW020 PROB40 1012/1104 FEW026CB PROB40 TEMPO 1013/1103 4000 TSRA BECMG 1016/1019 21007KT PROB30 1103/1108 3000 BR BKN010 FEW023TCU", "TAF DAAG 101100Z 1012/1112 24008KT 9999 FEW030 SCT100 PROB40 TEMPO 1012/1017 FEW026CB PROB30 TEMPO 1014/1020 VRB15G25KT 4000 -RA FEW023CB", "TAF DAAJ 101100Z 1012/1112 12006KT CAVOK", "TAF DAAP 101100Z 1012/1021 14010KT CAVOK", "TAF DAAS 101100Z 1012/1112 26008KT 9999 FEW026 PROB40 1012/1024 FEW026CB PROB40 TEMPO 1014/1022 26015G25KT 4000 TSRA PROB30 1100/1108 3000 BR BKN010 FEW026TCU", "TAF DAAT 101100Z 1012/1112 14010KT CAVOK TEMPO 1012/1017 12015G30KT", "TAF DAAV 101100Z 1012/1112 32009KT 9999 FEW023 PROB40 1012/1104 FEW026CB PROB40 TEMPO 1013/1103 4000 TSRA PROB30 1103/1108 3000 BR BKN010 FEW023TCU", "TAF COR DAAY 100800Z 1009/1018 23010KT 8000 SCT030 SCT033 BECMG 1010/1013 VRB02KT 9999 FEW026CB SCT030 PROB40 TEMPO 1014/1018 9999 TSRA FEW026CB SCT030 SCT100", "TAF DABB 101100Z 1012/1112 05011KT 9999 FEW026 PROB40 TEMPO 1015/1024 5000 -TSRA FEW026CB BECMG 1017/1020 VRB02KT PROB40 1100/1108 3000 BR BKN010 FEW023TCU BECMG 1110/1112 04010KT", "TAF DABC 101100Z 1012/1112 26008KT CAVOK PROB40 1012/1024 FEW026CB PROB40 TEMPO 1014/1022 26015G25KT 4000 TSRA BECMG 1018/1021 VRB02KT PROB40 1100/1108 4000 BR BKN010 FEW026TCU", "TAF COR DABS 101100Z 1012/1112 24011KT 9999 FEW033 PROB40 1012/1015 FEW030TCU PROB30 TEMPO 1014/1102 5000 -TSRA FEW030CB PROB40 BECMG 1017/1020 VRB02KT", "TAF DABT 101100Z 1012/1112 35008KT 8000 FEW023 PROB40 1012/1024 FEW026CB PROB40 TEMPO 1014/1022 26015G25KT 4000 TSRA PROB40 1100/1108 3000 BR BKN010 PROB40 1108/1112 FEW030TCU", "TAF DAFH 101100Z 1012/1021 24010KT 9999 FEW033 SCT080 PROB30 TEMPO 1014/1018 FEW030CB", "TAF DAOB 101100Z 1012/1112 14008KT 9999 FEW026 PROB40 TEMPO 1012/1020 FEW026CB PROB30 TEMPO 1014/1018 VRB15G25KT 4000 -TSRA FEW023CB", "TAF DAOF 101100Z 1012/1021 28010KT CAVOK", "TAF DAOI 101100Z 1012/1112 08005KT 9999 SCT030 BECMG 1015/1018 VRB02KT 9999 SCT026 FEW030CB PROB40 TEMPO 1020/1101 9999 TSRA SCT026 FEW030CB SCT100 BECMG 1101/1103 8000 SCT020 SCT026 FEW030CB PROB40 TEMPO 1104/1109 9999 TSRA FEW026CB SCT030 SCT100 BECMG 1110/1112 9999 FEW026CB SCT230", "TAF DAON 101100Z 1012/1112 33008KT 9999 SCT026 SCT233 PROB40 TEMPO 1013/1016 9999 TSRA SCT026 FEW030CB SCT100 BECMG 1017/1020 VRB02KT 9999 SCT023 FEW026CB SCT030 TEMPO 1022/1024 9999 TSRA SCT023 SCT026CB BKN100 BECMG 1101/1104 9999 SCT020 SCT026 PROB40 TEMPO 1106/1110 RA BKN023 SCT026 SCT100 BECMG 1110/1112 35008KT 9999 BKN023 FEW026CB", "TAF DAOO 101100Z 1012/1112 23012KT 9999 FEW026 BECMG 1018/1021 VRB02KT 9999 SCT020 FEW023CB SCT030 PROB40 TEMPO 1022/1104 8000 TSRA SCT016 FEW023CB BKN026 TEMPO 1104/1108 4000 BR BKN016 SCT023 FEW026CB BECMG 1108/1110 04008KT 6000 SCT013 BKN020 PROB40 TEMPO 1110/1112 9999 TSRA BKN023 FEW026CB SCT100", "TAF DAOR 101100Z 1012/1021 16008KT 9999 FEW033 SCT100 PROB30 TEMPO 1012/1016 FEW033CB BECMG 1013/1015 22012KT", "TAF COR DAOV 100800Z 1009/1018 VRB02KT 9999 FEW026 SCT033 BECMG 1010/1013 9999 SCT026 FEW030CB PROB40 TEMPO 1014/1018 9999 TSRA SCT026 FEW030CB SCT100", "TAF DATM 101100Z 1012/1021 14008KT CAVOK", "TAF DAUA 101100Z 1012/1112 04016KT 7000 FEW046 PROB40 TEMPO 1012/1015 4000 DRSA", "TAF DAUB 101100Z 1012/1112 30009KT 9999 FEW040 PROB40 1012/1024 FEW033CB PROB30 TEMPO 1015/1021 5000 -TSRA", "TAF DAUG 101100Z 1012/1112 22012KT 9999 SCT030 SCT033 PROB30 TEMPO 1012/1018 FEW030CB BECMG 1021/1024 VRB02KT BECMG 1108/1111 14012KT", "TAF DAUH 101100Z 1012/1112 06010KT 9999 SCT040 SCT100 PROB30 TEMPO 1012/1018 FEW033CB", "TAF DAUI 101100Z 1012/1112 04010KT CAVOK PROB30 TEMPO 1022/1108 04022KT 4000 DRSA", "TAF DAUK 101100Z 1012/1021 06010KT 9999 SCT040 PROB30 TEMPO 1014/1017 FEW033CB", "TAF DAUL 101100Z 1012/1021 22010KT 9999 SCT033 SCT100 PROB40 TEMPO 1012/1018 FEW030CB PROB30 TEMPO 1015/1018 VRB15G25KT 4000 -TSRA FEW026CB", "TAF DAUO 101100Z 1012/1021 08010KT 9999 SCT040 SCT100 PROB30 TEMPO 1012/1017 FEW033CB", "TAF DAUT 101100Z 1012/1021 08014KT 8000 SCT046 PROB30 TEMPO 1012/1014 08015G25KT 3000 DRSA", "TAF DAUU 101100Z 1012/1021 04010KT 9999 FEW040 SCT100 PROB30 TEMPO 1014/1017 FEW033CB", "TAF DAUZ 101100Z 1012/1112 14014KT CAVOK", "TAF DBBB 101100Z 1012/1118 22008KT 9999 SCT012", "TAF DFFD 101100Z 1012/1118 VRB07KT 9999 FEW020", "TAF DFOO 101100Z 1012/1112 VRB07KT 9999 FEW016", "TAF DGAA 101100Z 1012/1118 19015KT 9999 SCT016 TEMPO 1012/1016 BKN016 FEW030CB BECMG 1019/1021 BKN012 BECMG 1100/1102 27005KT", "TAF DGLE 101100Z 1012/1112 16010KT 9999 SCT016 PROB30 TEMPO 1016/1020 5000 TSRA BKN010 FEW030CB BECMG 1021/1023 12007KT", "TAF DGSI 101100Z 1012/1112 10007KT 9999 BKN015 PROB30 TEMPO 1015/1020 5000 TSRA BKN010 FEW028CB PROB30 1105/1107 5000 BR SCT012", "TAF DIAP 101114Z 1012/1118 22012KT 9999 SCT013 PROB30 TEMPO 1015/1021 BKN012 FEW020CB TEMPO 1103/1107 4000 RA BKN012 PROB30 TEMPO 1115/1118 BKN012 FEW020CB", "TAF DIBK 101120Z 1012/1112 22010KT 9999 SCT013 TEMPO 1014/1017 BKN013 PROB30 TEMPO 1017/1023 BKN013 FEW030CB TEMPO 1106/1112 BKN013", "TAF DIYO 101123Z 1012/1112 23010KT 9999 SCT013 TEMPO 1014/1018 BKN013 PROB30 TEMPO 1018/1024 BKN013 FEW025CB TEMPO 1106/1112 BKN013", "TAF DNAA 100500Z 1006/1112 15003KT 9999 FEW008 BECMG 1008/1010 25010KT BKN011 TEMPO 1015/1101 TS SCT013 FEW020CB PROB30 1018/1024 07018G36KT 5000 -TSRA BKN008 FEW018CB BECMG 1101/1103 VRB02KT FEW008", "TAF DNAK 092300Z 1000/1106 VRB02KT 9999 SCT010 TEMPO 1005/1008 4000 BR BECMG 1008/1010 24010KT BKN013 TEMPO 1011/1017 SCT013 FEW020CB POB30 1013/1017 TS BECMG 1017/1019 VRB02KT SCT010", "TAF DNBE 100500Z 1006/1112 VRB02KT 4000 BR SCT009 TEMPO 1006/1008 3000 BECMG 1008/1010 20010KT NSW BKN012 FEW020CB TEMPO 1011/1016 TS VRB02KT SCT010 TEMPO 1105/1108 4000 BR BECMG 1109/1111 20010KT BKN013 FEW020CB", "TAF DNGO 101100Z 1012/1118 19004KT CAVOK TEMPO 1115/1120 TS SCT010 FEW020CB", "TAF DNIB 100500Z 1006/1112 VRB02KT 7000 SCT008 TEMPO 1006/1007 5000 BR BECMG 1009/1011 23010KT BKN013 TEMPO 1013/1018 FEW020CB TEMPO 1014/1019 TS SCT013 FEW020CB BECMG 1019/10121 VRB02KT SCT010 TEMPO 1105/1107 4000BR BECMG 1108/111 25010KT BKN013", "TAF DNIL 092300Z 1000/1106 VRB02KT 9999 FEW010 BECMG 1008/1010 21010KT BKN011 TEMPO 1015/1101 TS SCT013 FEW020CB PROB30 1018/1024 07018G36KT 5000 -TSRA BKN008 FEW018CB BECMG 1101/1102 VRB02KT FEW010", "TAF DNJO 100500Z 1006/1112 07004KT CAVOK PROB30 TEMPO 1006/1008 5000 BR BKN003 BECMG 1008/1011 26010KT BKN008 TEMPO 1013/1019 TS FEW017CB PROB30 1014/1017 06018G35KT 5000 -TSRA BKN006 FEW016CB BECMG 1019/1021 18004KT FEW007", "TAF DNKA 100500Z 1006/1112 18003KT 9999 SCT009 BECMG 1008/101123010KT BKN011 TEMPO 1015/1022 TS SCT013 FEW020CB PROB30 1017/1021 07018G37KT 5000 -TSRA BKN008 FEW018CB BECMG 1022/1024 13010KT FEW008", "TAF DNKN 101100Z 1012/1118 06006KT 6000 NSW NSC TEMPO 1104/1109 21010KT CAVOK", "TAF DNKT 101100Z 1012/1118 05005KT 6000 NSW NSC TEMPO 1103/1108 23009KT CAVOK", "TAF DNMA 101100Z 1012/1118 VRB02KT CAVOK TEMPO 1017/1022 5000HZ BECMG 1102/1104 19010KT", "TAF DNMM 101100Z 1012/1118 21010KT 8000 BKN013 PROB30 TEMPO 1013/1017 TS SCT013 FEW020CB BECMG 1017/1019 SCT010 BECMG 1020/1022 VRB02KT TEMPO 1105/1108 4000 BR BECMG 1108/1110 22010KT BKN013 TEMPO 1111/1116 TS SCT013 FEW020CB BECMG 1116/1118 SCT011", "TAF DNSO 101100Z 1012/1118 24005KT CAVOK", "TAF DNSU 100500Z 1006/1112 VRB02KT 5000 BR SCT009 TEMPO 1006/1008 3000 BECMG 1008/1010 20010KT NSW BKN012 FEW020CB TEMPO 1011/1016 TS BECMG 1016/1018 VRB02KT SCT010 TEMPO 1105/1108 3500 BR BECMG 1109/1111 22010KT BKN013 FEW020CB", "TAF DNYO 101100Z 1012/1118 260006KT 9999 FEW012 TEMPO 1016/1021 TS SCT012 FEW020CB", "TAF COR DRRN 101100Z 1012/1118 30005KT CAVOK NSC", "TAF DRZA 101100Z 1012/1112 10012KT 8000 NSC", "TAF DRZR 101100Z 1012/1112 06010KT 3200 DU NSC BECMG 1012/1014 2500 DU BECMG 1014/1016 4500 DU", "TAF DTKA 100900Z 1010/1019 VRB03KT 9999 FEW020 PROB30 TEMPO 1010/1013 -TSRA FEW023CB", "TAF DTMB 101100Z 1012/1112 21008KT 9999 SCT026 BECMG 1015/1017 14013KT BECMG 1021/1023 20008KT PROB30 TEMPO 1108/1112 VRB17G32KT -TSRA FEW030CB", "TAF DTNH 101100Z 1012/1112 22010KT 9999 FEW026 BECMG 1013/1015 11012KT BECMG 1019/1021 05005KT PROB30 TEMPO 1108/1112 VRB17G32KT -TSRA FEW030CB", "TAF DTTA 101100Z 1012/1112 16005KT 9999 FEW026 BECMG 1013/1015 07010KT BECMG 1021/1023 13004KT PROB30 TEMPO 1109/1112 RA SCT026TCU FEW030CB", "TAF DTTB 100900Z 1010/1019 09004KT 9999 FEW020", "TAF DTTF 100900Z 1010/1019 06005KT 9999 BKN026 PROB30 TEMPO 1010/1013 RA FEW030CB BECMG 1013/1015 23010KT", "TAF DTTG 100900Z 1010/1019 35005KT 9999 BKN030 PROB30 TEMPO 1010/1013 RA FEW030CB", "TAF DTTJ 101100Z 1012/1112 36010KT 9999 FEW033 BECMG 1014/1016 10004KT BECMG 1019/1021 20010KT BECMG 1101/1103 28007KT", "TAF DTTR 100900Z 1010/1019 18012KT 9999 FEW030 BECMG 1011/1013 24010KT BECMG 1016/1018 34010KT", "TAF DTTX 101100Z 1012/1112 33005KT 8000 FEW020 SCT030", "TAF DTTZ 101100Z 1012/1112 04010KT 9999 SCT030 BKN033 BECMG 1014/1016 25010KT BECMG 1019/1021 34003KT", "TAF DXNG 101100Z 1012/1112 VRB05KT 9999 FEW007 TEMPO 1015/1019 TS BKN006 FEW016CB", "TAF DXXX 101100Z 1012/1118 20010KT 9999 SCT014 PROB30 TEMPO 1013/1018 4000 TSRA BKN010 FEW020CB BECMG 1100/1102 VRB03KT", "TAF EBAW 101100Z 1012/1021 33011KT CAVOK PROB30 TEMPO 1014/1017 4000 RA SHRA BKN008", "TAF EBBR 101100Z 1012/1118 20006KT CAVOK BECMG 1013/1015 33011KT PROB30 TEMPO 1014/1017 4000 RA SHRA BKN009 BECMG 1023/1102 03002KT TEMPO 1101/1108 4000 BR PROB40 1102/1107 2500", "TAF EBCI 101100Z 1012/1118 20006KT CAVOK BECMG 1014/1016 33011KT PROB30 TEMPO 1015/1018 3000 RA SHRA BKN007 BECMG 1021/1023 03003KT TEMPO 1023/1109 3000 BR PROB30 TEMPO 1102/1108 0500 FG BKN001", "TAF EBCV 100841Z 1010/1019 19006KT 9999 SCT100 BKN220 BECMG 1011/1012 26006KT SCT020 BKN040 TEMPO 1012/1016 SCT010 BKN015 PROB40 TEMPO 1013/1016 7000 -RA SCT006 BKN010 BECMG 1014/1015 30008G18KT BY EBWM", "TAF EBFS 100841Z 1010/1019 18006KT 9999 BKN280 BECMG 1011/1013 SCT015 BKN050 BECMG 1014/1016 32012KT 4000 -RA BKN008 BKN020 TEMPO 1015/1019 32012KT 3000 RA BKN004 BKN010", "TAF EBLG 101100Z 1012/1118 20006KT CAVOK BECMG 1015/1017 33011KT PROB30 TEMPO 1016/1019 3500 RA SHRA BKN008 BECMG 1100/1103 03002KT TEMPO 1022/1109 3500 BR TEMPO 1102/1108 0150 FG BKN001", "TAF EBOS 101100Z 1012/1118 33011KT CAVOK TEMPO 1012/1014 33015G25KT 4000 RA SHRA BKN011 BECMG 1019/1022 03005KT", "TAF EDAC 101100Z 1012/1021 21010KT CAVOK BECMG 1015/1017 20005KT", "TAF EDAH 101100Z 1012/1021 15011KT CAVOK BECMG 1014/1016 21008KT", "TAF EDDB 101100Z 1012/1112 19008KT CAVOK BECMG 1018/1020 27007KT", "TAF EDDC 101100Z 1012/1112 17007KT CAVOK BECMG 1019/1021 23006KT BECMG 1100/1102 31005KT", "TAF EDDE 101100Z 1012/1112 24012KT CAVOK BECMG 1016/1018 24007KT BECMG 1023/1101 30005KT", "TAF EDDF 101100Z 1012/1118 22006KT 9999 FEW020 PROB40 TEMPO 1019/1022 SHRA BKN025CB BECMG 1020/1022 32004KT TEMPO 1022/1112 BKN035 BECMG 1104/1107 02007KT", "TAF EDDG 101100Z 1012/1112 21008KT CAVOK BECMG 1014/1017 27007KT PROB30 TEMPO 1016/1019 29015KT SHRA BKN015TCU BECMG 1018/1021 VRB02KT BECMG 1022/1024 3000 BCFG TEMPO 1101/1109 0500 FG TEMPO 1104/1109 BKN003 BECMG 1108/1111 9999", "TAF EDDH 101100Z 1012/1118 19008KT CAVOK BECMG 1012/1015 25010KT PROB40 TEMPO 1017/1019 30015G25KT 4500 RA BKN012 BECMG 1019/1021 26005KT", "TAF EDDK 101100Z 1012/1118 20006KT CAVOK BECMG 1014/1017 30007KT PROB30 TEMPO 1017/1020 30015KT SHRA BKN015TCU BECMG 1020/1023 VRB03KT BECMG 1102/1104 3500 BCFG PROB30 TEMPO 1104/1109 0800 FG TEMPO 1106/1111 BKN007 PROB30 TEMPO 1107/1110 BKN004 BECMG 1110/1112 9999", "TAF EDDL 101100Z 1012/1118 23008KT CAVOK BECMG 1012/1015 30008KT PROB30 TEMPO 1016/1019 30015KT SHRA BKN015TCU BECMG 1019/1022 VRB03KT TEMPO 1104/1109 3000 BCFG PROB30 TEMPO 1105/1108 0800 FG BKN002 PROB30 TEMPO 1108/1110 BKN006", "TAF EDDM 101100Z 1012/1118 28005KT CAVOK PROB30 TEMPO 1013/1018 SHRA SCT025TCU BECMG 1016/1018 VRB01KT PROB30 TEMPO 1022/1106 1200 BCFG PROB30 TEMPO 1106/1109 4000 SHRA BR BKN004 BKN012TCU TEMPO 1109/1113 SHRA BKN012TCU", "TAF EDDN 101100Z 1012/1112 16005KT CAVOK BECMG 1100/1102 VRB02KT BKN012 PROB30 TEMPO 1100/1106 4000 SHRA BR BKN006 BKN025TCU BECMG 1110/1112 03005KT BKN020", "TAF EDDP 101100Z 1012/1112 21012KT CAVOK BECMG 1016/1018 23007KT BECMG 1022/1024 30005KT", "TAF EDDR 101100Z 1012/1112 22007KT 9999 SCT020 TEMPO 1016/1021 4000 SHRA BKN020CB PROB30 TEMPO 1017/1019 TSRA BKN015CB BECMG 1020/1022 VRB03KT TEMPO 1022/1107 4000 BR BKN008 BECMG 1101/1104 04006KT", "TAF EDDS 101100Z 1012/1112 22005KT 9999 SCT040 BECMG 1018/1020 VRB03KT TEMPO 1020/1103 SHRA BKN015CB BECMG 1101/1102 BKN010 TEMPO 1103/1108 4000 BR BKN008 BECMG 1110/1112 36005KT BKN015", "TAF EDDV 101100Z 1012/1112 22009KT CAVOK PROB30 TEMPO 1018/1020 28010KT BKN014 BECMG 1020/1022 27004KT PROB30 TEMPO 1104/1107 2500 BCFG", "TAF EDDW 101100Z 1012/1112 24010KT CAVOK PROB40 TEMPO 1016/1019 30012KT 4500 RA BKN012 BECMG 1019/1021 25005KT", "TAF EDFH 101100Z 1012/1112 25005KT CAVOK PROB40 TEMPO 1016/1020 4000 SHRA BKN015CB BECMG 1018/1021 32005KT BKN008 TEMPO 1021/1106 2500 BR BKN004 BECMG 1100/1102 02005KT BECMG 1107/1109 SCT015", "TAF EDFM 101100Z 1012/1021 18006KT CAVOK PROB30 TEMPO 1019/1021 SHRA BKN020CB BECMG 1019/1021 VRB03KT", "TAF EDGS 101100Z 1012/1021 22008KT 9999 SCT020 BECMG 1014/1017 28009KT PROB30 TEMPO 1017/1020 30015KT 4000 SHRA BKN004TCU", "TAF EDHI 101100Z 1012/1021 19008KT CAVOK BECMG 1012/1015 25010KT PROB40 TEMPO 1017/1019 30015G25KT 4500 RA BKN012 BECMG 1019/1021 26005KT", "TAF EDHK 101100Z 1012/1019 23008KT CAVOK TEMPO 1015/1018 30015G25KT 4500 RA BKN012 BECMG 1017/1019 29008KT", "TAF EDHL 101100Z 1012/1021 23006KT CAVOK PROB40 TEMPO 1017/1019 30012KT 4500 RA BKN012", "TAF EDJA 101100Z 1012/1021 24008KT 9999 FEW020 BECMG 1015/1017 20003KT", "TAF EDLN 101100Z 1012/1021 24004KT CAVOK BECMG 1012/1015 30006KT PROB30 TEMPO 1016/1019 30015KT SHRA BKN015TCU", "TAF EDLP 101100Z 1012/1112 23009KT CAVOK BECMG 1015/1018 25004KT PROB30 TEMPO 1017/1020 26015KT SHRA BKN015TCU TEMPO 1104/1109 4500 BR", "TAF EDLV 101100Z 1012/1112 22008KT CAVOK BECMG 1013/1016 29007KT PROB30 TEMPO 1015/1017 30013KT SHRA BKN015TCU BECMG 1017/1020 VRB02KT PROB30 TEMPO 1102/1109 4500 BR", "TAF EDLW 101100Z 1012/1112 22010KT CAVOK BECMG 1015/1018 29005KT PROB30 TEMPO 1016/1019 29015KT SHRA BKN015TCU BECMG 1100/1103 21004KT", "TAF EDMA 101100Z 1012/1021 24005KT 9999 FEW030 BECMG 1016/1018 VRB03KT", "TAF EDMO 101100Z 1012/1021 26005KT 9999 FEW030 BECMG 1015/1017 VRB03KT", "TAF EDNY 101100Z 1012/1112 VRB02KT CAVOK TEMPO 1012/1015 SHRA BKN050TCU TEMPO 1018/1103 4000 SHRA BKN012 BKN050CB TEMPO 1103/1109 4000 SHRA BKN009 BKN040CB TEMPO 1109/1112 SHRA BKN025CB", "TAF EDQM 101100Z 1012/1021 21010KT 9999 FEW020 BECMG 1015/1017 20005KT", "TAF EDSB 101100Z 1012/1112 22009KT CAVOK BECMG 1018/1020 VRB03KT TEMPO 1019/1102 SHRA BKN015CB PROB30 TEMPO 1020/1022 TSRA BKN010CB BECMG 1104/1106 03007KT", "TAF EDTL 101100Z 1012/1021 22005KT CAVOK PROB40 TEMPO 1019/1021 SHRA BKN020CB", "TAF EDTY 101100Z 1012/1021 23005KT 9999 FEW020 BECMG 1016/1018 VRB03KT PROB30 TEMPO 1020/1021 27007KT SHRA FEW010 BKN020TCU", "TAF EDVE 101100Z 1012/1021 24007KT CAVOK PROB30 TEMPO 1019/1021 30012KT BKN014", "TAF EDVK 101100Z 1012/1021 21010KT CAVOK BECMG 1015/1017 26005KT", "TAF EDXW 101100Z 1012/1021 21015KT 9999 SCT030 PROB30 TEMPO 1012/1014 22015G25KT TEMPO 1014/1016 31020G30KT 3000 RA BKN007 BECMG 1016/1018 30020G30KT", "TAF EEEI 101130Z 1012/1112 23012KT 9999 SCT025 TEMPO 1012/1013 24015G25KT BECMG 1014/1016 17012KT TEMPO 1106/1112 19016G27KT 4000 SHRA BKN007 FEW030CB", "TAF EETN 101130Z 1012/1112 24012G22KT 9999 SCT025 BECMG 1016/1018 18012KT TEMPO 1103/1107 BKN007 BKN012 TEMPO 1107/1112 3000 SHRA BKN005 BKN015CB PROB40 TEMPO 1107/1111 19016G26KT BECMG 1111/1112 27018G30KT", "TAF EETU 100528Z 1006/1012 22008KT 6000 OVC005 TEMPO 1006/1008 1500 BR BKN003 BECMG 1008/1010 9999 BKN007", "TAF EFHA 101131Z 1012/1015 22014KT 9999 SCT025 TEMPO 1012/1015 24016G27KT", "TAF EFHK 101131Z 1012/1112 20017KT 9999 BKN020 PROB30 TEMPO 1012/1014 21017G27KT BECMG 1101/1103 BKN010 TEMPO 1103/1108 BKN008 TEMPO 1108/1112 7000 RA BKN006", "TAF EFIV 101130Z 1012/1018 20010KT CAVOK PROB40 1015/1018 5000 BKN006", "TAF EFJY 101131Z 1012/1112 21011KT 9999 BKN030 PROB30 1020/1106 BKN012 TEMPO 1106/1109 BKN010 TEMPO 1109/1112 BKN008", "TAF EFKK 101136Z 1012/1021 21015KT 9999 FEW035 TEMPO 1012/1015 21016G28KT", "TAF EFKT 101130Z 1012/1018 17008KT CAVOK TEMPO 1013/1018 BKN012", "TAF EFKU 101128Z 1012/1112 21009KT 9999 SCT015 BKN030 PROB30 TEMPO 1100/1109 BKN013", "TAF EFLP 101128Z 1012/1021 24010KT 9999 SCT025", "TAF EFMA 101136Z 1012/1021 20018KT CAVOK TEMPO 1012/1021 20018G30KT", "TAF EFOU 101130Z 1012/1112 18008KT 9999 BKN020 PROB40 1110/1112 5000 BKN008", "TAF EFPO 101136Z 1012/1015 22014KT 9999 FEW030 TEMPO 1012/1015 21018G30KT", "TAF EFRO 101130Z 1012/1112 20009KT 9999 BKN008 BECMG 1012/1014 BKN012 TEMPO 1014/1112 BKN007 PROB30 1015/1022 7000 DZ PROB30 1100/1108 20015G25KT", "TAF EFSA 101128Z 1012/1018 24009KT 9999 BKN020", "TAF EFSI 101136Z 1012/1021 22016KT 9999 FEW035 TEMPO 1012/1016 22018G32KT", "TAF EFTP 101131Z 1012/1112 22015KT 9999 SCT030 PROB30 TEMPO 1012/1017 21015G25KT PROB30 1017/1020 BKN010 BECMG 1101/1103 15010KT TEMPO 1103/1106 BKN011 TEMPO 1106/1112 7000 RA BKN006", "TAF EFTU 101131Z 1012/1112 24015KT 9999 BKN023 TEMPO 1012/1023 22016G27KT BECMG 1101/1103 BKN012 TEMPO 1103/1111 7000 RA BKN007", "TAF EFUT 101128Z 1012/1015 23012KT 9999 SCT025", "TAF EFVA 101136Z 1012/1112 21017KT 9999 FEW025 TEMPO 1012/1016 21020G33KT PROB30 TEMPO 1012/1015 BKN010 BECMG 1101/1103 18007KT TEMPO 1106/1112 4500 SHRA BKN012 SCT020CB PROB30 TEMPO 1109/1112 2500 -DZ BKN007", "TAF EGAA 101103Z 1012/1112 27012KT 9999 FEW030 SCT045 PROB30 TEMPO 1012/1016 9000 -SHRA BECMG 1023/1102 20006KT", "TAF EGAC 101102Z 1012/1021 28010KT 9999 FEW030 SCT040 PROB30 TEMPO 1012/1016 9000 -SHRA", "TAF EGAE 101102Z 1012/1021 28012KT 9999 FEW020 SCT035 PROB40 TEMPO 1012/1018 28015G25KT 8000 SHRA", "TAF EGBB 101102Z 1012/1112 30013KT 9999 FEW030 BECMG 1021/1024 22004KT TEMPO 1104/1110 8000 PROB30 1106/1109 4000 BR", "TAF EGBJ 101102Z 1012/1019 30006KT 9999 FEW030", "TAF EGCC 101058Z 1012/1118 30010KT 9999 FEW030 PROB30 TEMPO 1012/1014 7000 -SHRA BECMG 1019/1022 VRB04KT", "TAF EGCK 101101Z 1012/1021 32009KT 9999 FEW030", "TAF EGCN 101059Z 1012/1112 30010KT 9999 FEW030 BECMG 1019/1021 24005KT", "TAF EGDR 101012Z 1012/1021 01015G25KT 9999 FEW022 SCT030", "TAF EGDY 100723Z 1009/1018 36012KT 9999 SCT025", "TAF EGEC 101057Z 1012/1017 30017KT 9999 FEW020 SCT035 PROB30 TEMPO 1012/1017 31020G30KT 6000 SHRA", "TAF EGEO 101057Z 1012/1017 29016KT 9999 SCT025 PROB30 TEMPO 1012/1017 30019G29KT 6000 SHRA", "TAF EGFF 101053Z 1012/1112 34012KT 9999 FEW030 BECMG 1022/1101 04006KT", "TAF EGGD 101053Z 1012/1112 34012KT 9999 FEW035 BECMG 1017/1020 04006KT", "TAF EGGP 101058Z 1012/1112 30010KT 9999 FEW030 PROB30 TEMPO 1012/1015 31015G25KT 7000 -SHRA BECMG 1018/1021 VRB04KT", "TAF EGGW 101054Z 1012/1112 33010KT 9999 FEW040 BECMG 1100/1103 VRB03KT PROB30 1102/1108 8000", "TAF EGHC 101103Z 1012/1018 36018KT 9999 FEW030 BECMG 1015/1018 03008KT", "TAF EGHE 101103Z 1012/1018 01014KT 9999 FEW030", "TAF EGHH 101102Z 1012/1021 01011KT CAVOK", "TAF EGHI 101102Z 1012/1021 36009KT CAVOK", "TAF EGHQ 101103Z 1012/1021 35013KT 9999 FEW030 BECMG 1016/1019 05007KT", "TAF EGJA 101101Z 1012/1021 04014KT 9999 FEW015 PROB30 TEMPO 1012/1013 01020G30KT BKN010", "TAF EGJB 101101Z 1012/1021 04014KT 9999 FEW015 PROB30 TEMPO 1012/1013 01018G28KT BKN010", "TAF EGJJ 101101Z 1012/1021 04014KT 9999 FEW015 TEMPO 1012/1013 01016G26KT PROB30 TEMPO 1012/1014 BKN010", "TAF EGKA 101057Z 1012/1019 36016KT CAVOK BECMG 1015/1018 35005KT", "TAF EGKB 101057Z 1012/1021 34011KT CAVOK", "TAF EGKK 101057Z 1012/1118 35010KT CAVOK BECMG 1102/1105 08002KT PROB30 TEMPO 1102/1110 7000", "TAF EGLC 101057Z 1012/1021 34010KT CAVOK", "TAF EGLF 101057Z 1012/1021 34011KT CAVOK", "TAF EGLL 101056Z 1012/1118 34010KT CAVOK BECMG 1103/1105 VRB02KT PROB30 1103/1107 8000", "TAF EGMC 101057Z 1012/1021 33011KT CAVOK", "TAF EGMD 101057Z 1012/1021 35016KT 9999 SCT045 BECMG 1015/1018 36005KT", "TAF EGNH 101101Z 1012/1020 32015KT 9999 SCT020 PROB30 TEMPO 1012/1015 7000 -SHRA", "TAF EGNJ 101101Z 1012/1021 29010KT 9999 FEW040 BECMG 1018/1021 23005KT", "TAF EGNM 101059Z 1012/1112 30012KT 9999 FEW030 BECMG 1019/1021 24004KT", "TAF EGNO 101101Z 1012/1018 30010KT 9999 SCT025 PROB30 TEMPO 1012/1015 7000 -SHRA", "TAF EGNR 100758Z 1009/1018 28008KT 9999 FEW040", "TAF EGNS 101100Z 1012/1021 30015KT 9999 FEW025", "TAF EGNT 101059Z 1012/1112 27015KT 9999 FEW030 BECMG 1021/1024 25005KT", "TAF EGNV 101101Z 1012/1021 29012KT 9999 FEW040 BECMG 1018/1021 23005KT", "TAF EGNX 101102Z 1012/1112 31010KT 9999 FEW030 BECMG 1019/1022 24005KT TEMPO 1104/1110 8000 PROB30 1106/1109 4000 BR", "TAF EGOS 101042Z 1012/1018 30012KT 9999 FEW030", "TAF EGOV 101026Z 1012/1021 31014KT 9999 FEW025", "TAF EGOW 101040Z 1012/1018 31012KT 9999 FEW025", "TAF EGPA 101056Z 1012/1021 26019G30KT 9999 FEW025 SCT035 PROB40 TEMPO 1012/1018 27028G40KT 6000 SHRA BECMG 1015/1018 26015KT PROB40 TEMPO 1018/1021 27018G28KT 6000 SHRA", "TAF EGPB 101056Z 1012/1021 27023G35KT 9999 FEW015 SCT025 PROB40 TEMPO 1012/1021 28030G45KT 6000 SHRA", "TAF EGPC 101056Z 1012/1021 25012KT 9999 FEW025 SCT035 TEMPO 1012/1021 27020G33KT PROB30 TEMPO 1012/1021 6000 SHRA", "TAF EGPD 101055Z 1012/1112 27009KT 9999 FEW020 SCT030 PROB40 TEMPO 1012/1016 28016G28KT PROB30 TEMPO 1012/1016 8000 -SHRA PROB30 TEMPO 1103/1108 7000 -RADZ", "TAF EGPE 101056Z 1012/1021 24012KT 9999 FEW025 SCT035 PROB30 TEMPO 1012/1018 25018G28KT", "TAF EGPF 101055Z 1012/1112 27008KT 9999 FEW025 PROB30 TEMPO 1012/1016 28015G28KT 8000 -SHRA PROB30 TEMPO 1022/1106 8000 -RADZ BECMG 1109/1112 21010KT", "TAF EGPH 101055Z 1012/1112 25009KT 9999 FEW025 PROB30 TEMPO 1012/1016 28015G28KT 8000 -SHRA PROB30 TEMPO 1100/1107 7000 -RADZ", "TAF EGPI 101057Z 1012/1018 29017KT 9999 FEW020 SCT030 PROB30 TEMPO 1012/1018 31020G32KT 6000 SHRA", "TAF EGPK 101055Z 1012/1112 29012KT 9999 FEW020 SCT030 PROB40 TEMPO 1012/1016 30017G28KT 8000 -SHRA PROB30 TEMPO 1022/1106 8000 -RADZ BECMG 1109/1112 23010KT", "TAF EGPL 101056Z 1012/1017 29022G33KT 9999 FEW025 SCT035 TEMPO 1012/1017 6000 SHRA", "TAF EGPN 101057Z 1012/1021 28012KT 9999 FEW025 PROB30 TEMPO 1012/1018 28015G28KT 8000 -SHRA", "TAF EGPO 101056Z 1012/1021 28014KT 9999 FEW020 SCT035 TEMPO 1012/1021 6000 SHRA TEMPO 1012/1013 28021G34KT PROB30 TEMPO 1013/1018 28018G28KT", "TAF EGPU 101057Z 1012/1018 29017KT 9999 SCT025 PROB40 TEMPO 1012/1018 30020G32KT 6000 SHRA", "TAF EGQL 101010Z 1012/1021 26014KT 9999 FEW040 PROB40 TEMPO 1012/1017 28018G28KT", "TAF EGQS 101031Z 1012/1106 26016KT 9999 FEW040 TEMPO 1012/1018 27018G32KT", "TAF EGSC 101057Z 1012/1017 32010KT 9999 SCT045", "TAF EGSH 101102Z 1012/1021 29009KT 9999 FEW030", "TAF EGSS 101054Z 1012/1118 33010KT 9999 FEW040 BECMG 1100/1103 VRB03KT PROB30 1102/1108 7000", "TAF EGSY 101102Z 1012/1021 33006KT 9999 FEW030", "TAF EGTC 101057Z 1012/1018 32013KT 9999 SCT045", "TAF EGTE 101103Z 1012/1021 36009KT 9999 FEW030", "TAF EGTK 101057Z 1012/1021 33011KT CAVOK", "TAF EGUB 101041Z 1012/1021 34010KT 9999 FEW030", "TAF EGUN 100400Z 1004/1110 24009KT 9999 VCSH BKN030 OVC080 620802 QNH2984INS TEMPO 1005/1009 30012G18KT 6000 -SHRA BR SCT015 BKN020 BECMG 1008/1009 32010G15KT 9999 NSW FEW020 SCT040 QNH3000INS TEMPO 1009/1015 32012G20KT BKN030 BECMG 1015/1016 33009KT 9999 SCT040 QNH3015INS BECMG 1021/1022 30006KT 9000 BR FEW030 QNH3030INS BECMG 1102/1103 28006KT 8000 BR FEW030 FEW150 QNH3031INS TX16/1015Z TN06/1104Z", "TAF EGUW 101026Z 1012/1021 33012KT 9999 FEW025", "TAF EGVN 101049Z 1012/1112 33012KT 9999 FEW035 PROB30 1104/1108 3500 MIFG BR", "TAF EGVO 101053Z 1012/1024 35012KT 9999 FEW030", "TAF EGVP 101020Z 1012/1021 36012KT 9999 FEW030", "TAF EGWC 101042Z 1012/1017 30012KT 9999 FEW030", "TAF EGWU 101040Z 1012/1106 35010KT CAVOK PROB40 1105/1106 6000 BR", "TAF EGXC 101034Z 1012/1106 29013KT 9999 FEW030 PROB30 1104/1106 5000 MIFG BR", "TAF EGXE 101019Z 1012/1018 29013KT 9999 FEW032 PROB30 TEMPO 1012/1013 29015G25KT", "TAF EGXP 101039Z 1012/1018 30012KT 9999 FEW035", "TAF EGXT 101040Z 1012/1018 31013KT 9999 FEW035", "TAF EGXW 101038Z 1012/1106 30012KT 9999 FEW035", "TAF EGYD 101040Z 1012/1018 29012KT 9999 FEW030", "TAF EGYP 101005Z 1012/1106 30016KT CAVOK BECMG 1014/1017 28022G32KT BECMG 1021/1024 29017KT", "TAF EHAM 101121Z 1012/1118 28013KT 7000 -RADZ SCT014 BKN018 BECMG 1012/1014 32012KT 9999 NSW BKN035 BECMG 1016/1019 31006KT BECMG 1023/1102 19004KT BECMG 1111/1114 31007KT BECMG 1116/1118 VRB02KT", "TAF EHBK 101120Z 1012/1118 24008KT CAVOK BECMG 1013/1016 33010KT PROB40 TEMPO 1014/1017 6000 SHRA BKN040 FEW050CB PROB40 TEMPO 1017/1019 7000 -RADZ BKN007 BECMG 1019/1022 VRB02KT 4000 BR MIFG PROB40 1100/1108 1500 BCFG BECMG 1107/1110 06005KT 9999 NSW", "TAF EHEH 101137Z 1012/1118 23007KT CAVOK BECMG 1013/1015 31008KT TEMPO 1013/1016 4000 RADZ FEW006 SCT010 BKN012 BECMG 1018/1021 VRB02KT 3000 BR MIFG PROB40 1023/1106 0400 FG VV000 BECMG 1106/1109 9999 NSW", "TAF EHGG 101120Z 1012/1118 24010KT 9999 BKN030 BECMG 1012/1015 28007KT TEMPO 1013/1015 30015KT 7000 -RADZ BKN012", "TAF EHGR 100427Z 1005/1017 18006KT CAVOK BECMG 1005/1008 22008KT TEMPO 1013/1015 4500 RADZ FEW008 SCT010 BKN015", "TAF EHKD 100841Z 1009/1021 20011KT 9999 FEW018 SCT025 BKN035 BECMG 1009/1011 31015G25KT TEMPO 1010/1013 4000 RA RADZ FEW006 SCT010 BKN012 BECMG 1015/1017 31012KT", "TAF EHLE 101120Z 1012/1118 24010KT 7000 -RADZ BKN014 BECMG 1012/1015 30008KT 9999 NSW BKN035 BECMG 1116/1118 VRB02KT", "TAF EHLW 100843Z 1009/1021 20010KT 9999 FEW025 SCT035 BECMG 1011/1013 30012KT TEMPO 1012/1014 32012G24KT 4000 RA RADZ FEW006 SCT010 BKN012 BECMG 1016/1018 30008KT", "TAF EHRD 101120Z 1012/1118 28013KT 7000 -RADZ BKN014 BECMG 1012/1014 32009KT 9999 NSW BKN035 BECMG 1023/1102 VRB02KT BECMG 1110/1113 30007KT BECMG 1115/1118 VRB02KT", "TAF EHVK 100839Z 1009/1021 22008KT CAVOK BECMG 1014/1016 30008KT TEMPO 1014/1016 4500 RADZ FEW006 SCT010 BKN012 BECMG 1018/1021 VRB02KT 4500 MIFG BR", "TAF AMD EHWO 101112Z 1012/1021 22006KT 9999 SCT015 BECMG 1012/1014 32009KT TEMPO 1012/1014 33007G17KT 4500 -RADZ FEW006 SCT010 BKN012 BECMG 1019/1021 VRB02KT 4500 BR MIFG", "TAF EICK 101100Z 1012/1112 32009KT 9999 FEW030", "TAF EIDL 101100Z 1012/1021 30015G25KT 9999 FEW040 BECMG 1015/1017 29012KT BECMG 1019/1021 24005KT", "TAF EIDW 101100Z 1012/1112 28012KT 9999 FEW040 BECMG 1020/1022 25005KT", "TAF EIKN 101100Z 1012/1112 29009KT 9999 FEW030 PROB30 TEMPO 1105/1107 3000 BR BECMG 1106/1108 20010KT", "TAF EIKY 101100Z 1012/1021 32008KT 9999 FEW040", "TAF EIME 101100Z 1012/1021 26009KT 9999 FEW030", "TAF EINN 101100Z 1012/1112 31009KT 9999 FEW040", "TAF EISG 101100Z 1012/1021 30015G25KT 9999 FEW030 BECMG 1012/1014 30008KT", "TAF EIWF 101100Z 1012/1021 33012KT 9999 FEW030 BECMG 1016/1018 VRB03KT", "TAF EKAH 101100Z 1012/1112 19010KT 9999 SCT025 TEMPO 1012/1015 BKN012 BECMG 1015/1017 27015G28KT 4000 RADZ BKN009 BECMG 1017/1019 27008KT 9999 NSW SCT030 TEMPO 1019/1112 -SHRA SCT020TCU", "TAF EKBI 101100Z 1012/1112 18010KT 9999 SCT025 TEMPO 1012/1013 BKN012 BECMG 1013/1015 27015G28KT 4000 RADZ BKN009 BECMG 1015/1017 27008KT 9999 NSW SCT030 TEMPO 1017/1112 -SHRA SCT020TCU", "TAF EKCH 101113Z 1012/1112 18015KT CAVOK TEMPO 1012/1018 17015G25KT TEMPO 1018/1021 28015G35KT 4000 RADZ BKN009 BECMG 1021/1023 26015KT", "TAF EKEB 101101Z 1012/1021 14012KT 9999 SCT025 TEMPO 1012/1013 BKN012 BECMG 1013/1015 32015G32KT 4000 RADZ BKN010 BECMG 1015/1017 27008KT 9999 NSW SCT030 TEMPO 1017/1021 -SHRA SCT020TCU", "TAF EKGC 101101Z 1012/1021 30025KT 9999 SCT030 TEMPO 1012/1021 FEW030TCU", "TAF EKHD 101101Z 1012/1021 30025KT 9999 SCT030 TEMPO 1012/1021 FEW030TCU", "TAF EKKA 101115Z 1012/1112 17008KT 9999 SCT030 BKN200 BECMG 1012/1013 18010G20KT BECMG 1013/1015 30015G25KT 4000 RA BKN006 BECMG 1015/1017 27010KT 9999 NSW SCT020 TEMPO 1017/1023 5000 -SHRA FEW020TCU TEMPO 1023/1111 27012G22KT 5000 -SHRA FEW020TCU", "TAF EKOD 100903Z 1009/1016 16008KT 9999 SCT020 BECMG 1015/1016 30015G28KT 4000 RADZ BKN008", "TAF AMD EKRK 101148Z 1012/1021 16010KT 9999 FEW030 FM101700 27012KT 8000 -RADZ BKN015 TEMPO 1017/1021 30015G35KT RADZ BKN009", "TAF EKRN 101109Z 1012/1021 17018KT 9999 FEW030 SCT100 TEMPO 1012/1015 19018G28KT BECMG 1015/1017 21015G25KT BECMG 1019/1021 24018G28KT", "TAF EKSB 100903Z 1009/1018 16008KT 9999 SCT020 BECMG 1015/1018 29012KT 4000 RADZ BKN008", "TAF EKSP 101113Z 1012/1112 19012KT 9999 FEW030 BKN200 BECMG 1012/1014 20012G25KT BECMG 1014/1016 30015G28KT 4000 RA BKN010 BECMG 1016/1018 27010KT 9999 NSW SCT030 TEMPO 1018/1112 28012G22KT 7000 -SHRA SCT015TCU", "TAF EKVD 100903Z 1009/1016 18008KT 9999 SCT020 BECMG 1014/1016 29012KT 4000 RADZ BKN008", "TAF EKVG 101100Z 1012/1021 29030G43KT 9999 BKN028 TEMPO 1012/1021 3000 SHRA BKN015TCU BECMG 1015/1017 29020G30KT BECMG 1019/1021 30018KT", "TAF AMD EKVJ 101104Z 1011/1015 15008KT 9999 SCT020 TEMPO 1011/1012 BKN012 BECMG 1012/1015 30018G32KT 4000 RADZ BKN008", "TAF EKYT 101115Z 1012/1112 21010KT 9999 SCT030 BKN200 BECMG 1012/1013 18010G20KT BECMG 1013/1015 30015G25KT 4000 RA BKN008 BECMG 1015/1017 27012KT 9999 NSW SCT020 TEMPO 1017/1112 27015G25KT 5000 -SHRA FEW020TCU", "TAF COR ELLX 101100Z 1012/1118 16005KT CAVOK PROB40 TEMPO 1015/1018 SHRA SCT040TCU BECMG 1018/1020 36005KT BKN010 BECMG 1102/1104 BKN020 BECMG 1106/1108 05010KT", "TAF ENAL 101100Z 1012/1021 22015KT 9999 -SHRA SCT020 BKN030 TEMPO 1012/1021 22030G40KT SHRA BKN020CB BECMG 1012/1014 24025KT", "ENAN 1012/1112 18012KT 9999 -RADZ BKN040 TEMPO 1016/1022 RA BECMG 1022/1024 17022KT TEMPO 1100/1106 17020G30KT SCT020CB TEMPO 1106/1112 17028G40KT SHRA SCT020CB", "TAF ENAT 101100Z 1012/1021 10006KT CAVOK PROB40 TEMPO 1019/1021 BKN014", "TAF ENBN 101100Z 1012/1021 16012KT 9999 BKN060 TEMPO 1012/1021 SHRA SCT025CB", "ENBO 1012/1112 10012KT 9999 BKN050 TEMPO 1015/1018 SHRA SCT030TCU BECMG 1020/1022 18015KT TEMPO 1100/1112 SHRA SCT030CB", "ENBR 1012/1112 23012KT 9999 FEW015 BKN020 TEMPO 1012/1103 27015G25KT TEMPO 1012/1106 SHRA BKN020CB BECMG 1020/1022 30012KT", "TAF ENBS 101100Z 1012/1021 26012KT 9999 FEW015 BKN025 BECMG 1013/1016 20008KT", "TAF ENBV 101100Z 1012/1021 27012KT 9999 BKN030 BECMG 1013/1016 20008KT PROB40 TEMPO 1020/1021 19018KT", "TAF ENCN 101100Z 1012/1021 19015KT 9999 BKN012 TEMPO 1012/1014 21018G28KT 4000 RADZ BR BKN008 BECMG 1013/1015 26008KT SCT025", "ENDU 1012/1112 VRB03KT 9999 SCT050 BKN100 PROB30 1100/1106 1200 PRFG PROB40 TEMPO 1109/1112 21015G28KT", "ENEV 1012/1112 15008KT 9999 BKN060 TEMPO 1018/1024 RA TEMPO 1023/1112 FEW035CB TEMPO 1107/1112 22015G30KT SHRA", "TAF ENFL 101100Z 1012/1021 20023KT 9999 -SHRA FEW010 BKN020 TEMPO 1012/1021 SHRA BKN012CB TEMPO 1012/1017 23025G35KT BECMG 1015/1017 26020KT TEMPO 1017/1021 23020G30KT", "ENGC 1012/1112 24040KT 9999 FEW010 BKN030 TEMPO 1012/1103 SHRA BKN014CB BECMG 1017/1020 30038KT BECMG 1105/1108 29025KT BECMG 1110/1112 27015KT", "COR ENGM 1012/1112 19015KT 9999 FEW012 BKN018 TEMPO 1012/1014 19018G28KT BKN014 BECMG 1016/1018 20005KT RA BKN012 BECMG 1018/1020 NSW FEW020", "TAF ENHD 101100Z 1012/1020 26018KT 9999 FEW010 BKN020 PROB40 TEMPO 1012/1014 SHRA BKN020CB TEMPO 1014/1020 SHRA BKN020CB TEMPO 1014/1018 27018G28KT BECMG 1018/1020 28022G32KT", "TAF ENHE 101100Z 1012/1021 20040KT 9999 FEW020 BKN030 TEMPO 1012/1021 20040G50KT SHRA BKN014CB", "TAF ENHF 101100Z 1012/1021 20008KT 9999 SCT030 BKN060 TEMPO 1018/1021 19018G28KT", "TAF ENHV 101100Z 1012/1021 21008KT 9999 BKN030", "TAF ENKB 101100Z 1012/1021 17009KT 9999 FEW020 BKN040 BECMG 1012/1014 24015KT PROB40 TEMPO 1012/1014 SHRA BKN020CB TEMPO 1012/1017 TEMPO 1014/1021 25017G27KT SHRA BKN020CB", "TAF ENKR 101100Z 1012/1021 22008KT CAVOK PROB30 1018/1021 2000 BR BKN003", "TAF ENLE 101100Z 1012/1021 30027KT 9999 FEW020 BKN030 TEMPO 1015/1021 FEW020 BKN025CB", "TAF ENML 101100Z 1012/1021 24009KT 9999 FEW015 BKN040 TEMPO 1012/1021 25015G25KT SHRA BKN020CB", "TAF ENMS 101100Z 1012/1021 18006KT 9999 BKN050 TEMPO 1014/1021 SHRA SCT025CB", "ENNA 1012/1112 18015KT 9999 FEW050 BKN080 BECMG 1018/1020 BKN014 TEMPO 1022/1106 BKN009 BECMG 1105/1107 BKN025", "TAF ENNE 100800Z 1009/1017 17030KT 9999 FEW020 BKN030 PROB40 TEMPO 1009/1013 SHRA BKN014TCU BECMG 1012/1015 20043KT TEMPO 1013/1017 20040G50KT SHRA BKN014CB", "TAF ENNO 100800Z 1009/1017 11010G20KT 9999 SCT020 BKN040 BECMG 1011/1013 VRB05KT TEMPO 1012/1015 30010G20KT RA", "ENOA 1012/1112 23035KT 9999 FEW020 BKN040 TEMPO 1012/1104 SHRA BKN014CB BECMG 1016/1018 29036KT BECMG 1105/1107 28026KT BECMG 1108/1111 27015KT", "ENOL 1012/1112 15008KT 9999 FEW015TCU BKN050 BECMG 1015/1017 22015KT TEMPO 1017/1112 SHRAGS BKN012CB TEMPO 1017/1106 24025G35KT BECMG 1100/1103 25025KT TEMPO 1103/1112 26030G45KT", "TAF ENOV 101100Z 1012/1021 VRB05G18KT 9999 -SHRA FEW020 BKN030 TEMPO 1012/1018 21017G27KT TEMPO 1012/1015 SHRA BKN020CB TEMPO 1015/1021 SHRA BKN014CB", "TAF ENRA 101100Z 1012/1021 VRB03KT 9999 FEW040 BKN070 PROB30 TEMPO 1016/1021 SHRA SCT025CB", "TAF ENRM 100500Z 1006/1013 15010KT 9999 FEW030 BKN060 TEMPO 1006/1012 15015G25KT BECMG 1010/1013 21015KT", "TAF ENRO 101100Z 1012/1019 17012KT 9999 BKN040 TEMPO 1012/1015 18015G25KT", "ENRY 1012/1112 18015KT 9999 FEW008 BKN015 TEMPO 1012/1017 19018G28KT RA BKN008 BECMG 1017/1019 26008KT", "ENSB 1012/1112 14005KT 9999 FEW020 BKN040 BECMG 1018/1021 13015KT TEMPO 1102/1112 13020G30KT", "TAF ENSD 101100Z 1012/1021 VRB05KT 9999 -SHRA FEW020 BKN030 TEMPO 1012/1015 21015G25KT TEMPO 1012/1018 SHRA BKN020CB TEMPO 1018/1021 SHRA BKN014CB", "TAF AMD ENSH 100500Z 1006/1012 14009KT 9999 -RA FEW020 BKN040", "TAF ENSK 101100Z 1012/1021 14009KT 9999 -SHRA FEW020 BKN040 PROB30 TEMPO 1016/1018 SHRA SCT025CB", "TAF ENSO 101100Z 1012/1019 26008KT 9999 -RA FEW010 BKN020 PROB40 TEMPO 1012/1015 SHRA BKN020CB BECMG 1015/1017 27018KT TEMPO 1015/1019 SHRA BKN020CB TEMPO 1017/1019 27015G25KT", "TAF ENSR 101100Z 1012/1020 VRB05KT 9999 BKN040 BECMG 1017/1019 16010KT", "ENTC 1012/1112 22009KT 9999 FEW020 BKN050 BECMG 1021/1023 22020KT", "ENTO 1012/1112 18018KT 9999 BKN012 TEMPO 1012/1016 20020G30KT RA BKN008 BECMG 1016/1018 26008KT FEW012 BKN050", "ENVA 1012/1112 15010KT CAVOK TEMPO 1012/1016 16015G25KT BECMG 1017/1020 24012KT TEMPO 1020/1106 SHRA BKN020CB TEMPO 1103/1109 27015G25KT TEMPO 1106/1112 SHRA BKN014 SCT020CB TEMPO 1109/1112 27025G35KT", "TAF ENVD 101100Z 1012/1021 28015KT 9999 FEW030 BECMG 1013/1016 22008KT TEMPO 1019/1021 BKN004", "ENZV 1012/1112 27015KT 9999 BKN020 TEMPO 1012/1015 BKN020TCU TEMPO 1015/1103 SHRA BKN020CB TEMPO 1015/1019 27015G25KT TEMPO 1019/1103 29020G32KT TEMPO 1103/1109 BKN020TCU TEMPO 1103/1106 29015G25KT", "TAF EPBY 101130Z 1012/1112 15008KT CAVOK BECMG 1018/1020 VRB03KT CAVOK TEMPO 1021/1109 BKN014 PROB40 TEMPO 1023/1106 4000 -RA BR BKN006 BECMG 1107/1109 25008KT", "TAF EPCE 101100Z 1012/1021 17008KT CAVOK TEMPO 1012/1020 17015G25KT", "TAF EPDA 101100Z 1012/1021 15010KT CAVOK PROB30 TEMPO 1012/1015 16015G25KT", "TAF EPDE 101100Z 1012/1021 16012KT CAVOK", "TAF EPGD 101130Z 1012/1112 17014KT CAVOK TEMPO 1012/1021 18016G26KT BECMG 1100/1103 27012KT BKN014 PROB40 TEMPO 1101/1106 -RA BKN008 BECMG 1106/1108 SCT030 TEMPO 1107/1112 27017G27KT", "TAF EPIR 101100Z 1012/1021 13016KT CAVOK BECMG 1019/1021 18010KT", "TAF EPKK 101130Z 1012/1112 08007KT CAVOK BECMG 1103/1106 27010KT BKN014 TEMPO 1106/1109 -RA BKN007 BKN013 TEMPO 1109/1111 BKN008 BKN013", "TAF EPKS 101100Z 1012/1021 15012KT CAVOK BECMG 1017/1019 24008KT", "TAF EPKT 101130Z 1012/1112 14010KT CAVOK BECMG 1017/1020 20010KT BECMG 1101/1103 BKN014 BECMG 1103/1106 26007KT TEMPO 1106/1112 BKN007 BKN012 BECMG 1109/1112 32010KT", "TAF EPLB 101130Z 1012/1112 16010KT CAVOK BECMG 1106/1109 25007KT TEMPO 1109/1112 -RA BKN014 PROB40 TEMPO 1109/1112 BKN008", "TAF EPLK 101100Z 1012/1021 15012KT CAVOK", "TAF EPLL 101130Z 1012/1112 16012KT CAVOK PROB40 TEMPO 1012/1015 16015G25KT BECMG 1100/1103 25007KT PROB40 TEMPO 1102/1107 -RA BKN014 BECMG 1107/1110 31010KT", "TAF EPLY 101100Z 1012/1021 15012KT CAVOK PROB30 TEMPO 1012/1016 16015G25KT", "TAF EPMB 101100Z 1012/1021 18014KT CAVOK TEMPO 1012/1016 18014G24KT", "TAF EPMI 101100Z 1012/1021 15014KT CAVOK", "TAF EPMM 101100Z 1012/1021 16012KT CAVOK", "TAF EPMO 101130Z 1012/1112 15012KT CAVOK PROB40 TEMPO 1012/1015 16015G25KT BECMG 1103/1106 25007KT TEMPO 1103/1107 -RA BKN014 BECMG 1107/1110 31010KT", "TAF EPOK 101100Z 1012/1021 16013KT CAVOK PROB30 TEMPO 1012/1021 16015G25KT", "TAF EPPO 101130Z 1012/1112 14010KT CAVOK BECMG 1018/1021 23006KT BECMG 1104/1107 30010KT TEMPO 1104/1109 BKN006", "TAF EPPR 101100Z 1012/1021 18015KT CAVOK", "TAF EPPW 101100Z 1012/1021 17012KT CAVOK", "TAF EPRA 101130Z 1012/1021 15010KT CAVOK", "TAF EPRZ 101130Z 1012/1112 11014KT CAVOK BECMG 1018/1021 17007KT BECMG 1101/1103 23010KT BECMG 1108/1110 4000 -RA BR SCT007 BKN013 BECMG 1110/1111 BKN004 BKN010", "TAF EPSC 101130Z 1012/1112 17014KT CAVOK TEMPO 1012/1016 18018G28KT BECMG 1019/1021 28010KT BECMG 1021/1024 BKN014 PROB40 TEMPO 1022/1106 -RA BKN004 BKN008 BECMG 1106/1109 SCT030", "TAF EPSN 101100Z 1012/1021 17012KT CAVOK TEMPO 1012/1016 17012G22KT", "TAF EPSY 101130Z 1012/1021 16012KT CAVOK", "TAF EPTM 101100Z 1012/1021 15010KT CAVOK", "TAF EPWA 101130Z 1012/1112 16012KT CAVOK PROB40 TEMPO 1012/1015 16015G25KT BECMG 1103/1106 25007KT TEMPO 1103/1107 -RA BKN014 BECMG 1107/1110 31010KT", "TAF EPWR 101130Z 1012/1112 13015KT CAVOK TEMPO 1012/1016 17015G25KT BECMG 1019/1021 20006KT BECMG 1104/1107 30010KT TEMPO 1105/1108 BKN012", "TAF EPZG 101130Z 1012/1021 13010KT CAVOK BECMG 1014/1017 23006KT", "TAF ESCF 101130Z 1012/1015 18010G18KT 9999 FEW020 RMK MIL", "TAF ESCM 101135Z 1012/1014 19015G25KT 9999 SCT025 RMK MIL", "TAF ESDF 101130Z 1012/1019 18015G26KT 9999 SCT020 BECMG 1014/1016 18010G20KT TEMPO 1016/1019 5000 SHRA SCT015 BKN050CB RMK MIL", "TAF ESGG 101130Z 1012/1112 17015KT 9999 SCT020 TEMPO 1017/1022 4000 SHRA BKN008 BKN025CB BECMG 1018/1020 27010KT TEMPO 1022/1112 28015G28KT", "TAF ESGJ 101130Z 1012/1021 18015G25KT 9999 SCT030 PROB40 1020/1021 RA BKN014", "TAF ESGP 101130Z 1012/1021 18015G28KT 9999 SCT020 BKN025 TEMPO 1017/1021 RA BKN010 BKN030CB BECMG 1017/1019 28015G25KT", "TAF ESGT 101130Z 1012/1017 18015G25KT 9999 SCT025 PROB40 1016/1017 RA", "TAF ESIA 100830Z 1009/1014 20015G25KT 9999 SCT012 RMK MIL", "TAF ESIB 101130Z 1012/1015 18015G25KT 9999 FEW025 RMK MIL", "TAF ESKN 101130Z 1012/1112 18013KT CAVOK TEMPO 1013/1020 17015G25KT PROB40 1021/1103 4000 RA BKN010 BECMG 1103/1105 27010KT", "TAF ESMK 101111Z 1012/1019 18015KT 9999 FEW030 TEMPO 1018/1019 BKN014", "TAF ESMQ 101130Z 1012/1019 18015G25KT 9999 SCT025 PROB40 1018/1019 SHRA BKN050CB", "TAF ESMS 101111Z 1012/1112 16015KT CAVOK BECMG 1018/1021 28015G30KT 4000 RADZ BKN009 BECMG 1021/1023 26015KT 9999 SCT020", "TAF ESMT 101111Z 1012/1019 18015KT CAVOK TEMPO 1017/1019 28015G25KT RADZ BKN012", "TAF ESMX 101130Z 1012/1021 16010G20KT 9999 SCT023 PROB40 1020/1021 RA BKN010", "TAF ESNG 101130Z 1012/1021 18008KT CAVOK PROB40 1014/1017 BKN012 PROB40 1017/1021 BKN009", "TAF ESNK 101130Z 1012/1017 17011KT CAVOK", "TAF ESNN 101130Z 1012/1021 20012G22KT CAVOK", "TAF ESNQ 101130Z 1012/1017 20012KT CAVOK PROB40 1015/1017 BKN012", "TAF ESNS 101130Z 1012/1021 19012KT 9999 SCT020", "TAF ESNU 101130Z 1012/1021 20018G30KT 9999 BKN020 PROB40 1012/1017 BKN014 BECMG 1018/1020 20014KT", "TAF ESNX 101130Z 1012/1020 18007KT CAVOK PROB40 1012/1020 BKN014", "TAF ESNZ 101130Z 1012/1021 20015G26KT 9999 SCT040 BECMG 1018/1020 20014KT", "TAF ESOE 101130Z 1012/1021 19015KT CAVOK", "TAF ESOK 101130Z 1012/1015 18014KT 9999 BKN017", "TAF ESOW 101130Z 1012/1015 19015KT 9999 SCT020", "TAF ESPA 101129Z 1012/1021 19008KT CAVOK RMK MIL", "TAF ESPE 101125Z 1012/1014 20005KT CAVOK RMK MIL", "TAF ESSA 101130Z 1012/1112 20015G25KT CAVOK BECMG 1019/1021 20012KT TEMPO 1022/1103 RA BKN010 PROB40 1103/1106 RA BKN007 BECMG 1105/1107 27010KT", "TAF ESSB 101130Z 1012/1021 19013KT CAVOK TEMPO 1012/1020 19015G25KT", "TAF ESSD 101130Z 1012/1015 20010KT 9999 BKN025", "TAF ESSL 101130Z 1012/1016 17012KT CAVOK", "TAF ESSP 101130Z 1012/1017 18010KT CAVOK", "TAF ESSV 101130Z 1012/1020 18014G27KT 9999 SCT020", "TAF ESTA 101111Z 1012/1021 16015KT 9999 FEW020 TEMPO 1017/1018 BKN012 TEMPO 1018/1021 30015G35KT 4000 RADZ BKN008", "TAF ESTL 101111Z 1012/1015 16008KT CAVOK", "TAF ETAD 100400Z 1004/1110 VRB05KT 9999 FEW020 QNH2997INS BECMG 1007/1008 20009KT 9999 SCT015 BKN025 QNH3000INS BECMG 1016/1017 24012KT 9000 -RA SCT015 BKN020 QNH3003INS BECMG 1019/1020 VRB06KT 9999 NSW SCT010 BKN015 QNH3009INS BECMG 1100/1101 03009KT 9999 SCT012 BKN030 QNH3018INS TX17/1014Z TN04/1004Z", "TAF ETAR 101000Z 1010/1116 25012KT 9999 SCT020 QNH3002INS BECMG 1016/1017 31012KT 9000 -SHRA BKN030 QNH3001INS BECMG 1102/1103 01009KT 8000 BR BKN010 BKN030 QNH3012INS TEMPO 1104/1106 0800 FG BECMG 1107/1108 05009KT 9999 NSW BKN030 QNH3028INS TX18/1014Z TN06/1106Z", "TAF ETHA 101020Z 1011/1020 30007KT 9999 NSW FEW025 BKN130", "TAF ETHB 101020Z 1011/1020 21008KT 9999 NSW FEW150 BKN300 TEMPO 1015/1018 26010G20KT 8000 -RA SCT020 BKN030 BECMG 1018/1020 29008KT 9999 NSW SCT030", "TAF ETHC 101027Z 1011/1020 20010KT 9999 NSW BKN220 BECMG 1016/1018 24008KT 8000 -RA BKN050 TEMPO 1018/1020 25010KT 5000 RA BKN015", "TAF ETHF 101020Z 1011/1020 21008KT 9999 NSW FEW030 BKN240", "TAF ETHL 101022Z 1011/1020 23005KT 9999 NSW BKN100 TEMPO 1011/1020 23008KT 5000 SHRA FEW040 BKN070TCU", "TAF ETHN 101020Z 1011/1020 22007KT 9999 NSW FEW020 SCT100", "TAF ETHS 101015Z 1011/1020 23010KT 9999 NSW SCT030 SCT300 TEMPO 1017/1020 27008KT 4000 -RADZ BKN010 BKN030", "TAF ETIK 100600Z 1006/1112 VRB06KT 9999 SCT080 QNH3005INS BECMG 1011/1012 24009KT 9999 SCT040 BKN100 QNH3006INS BECMG 1017/1018 VRB06KT 9999 BKN050 QNH3008INS BECMG 1101/1102 VRB06KT 4800 -DZ BR BKN010 BKN025 OVC040 QNH3014INS BECMG 1105/1106 VRB06KT 0800 FG BKN020 OVC050 QNH3022INS BECMG 1109/1110 VRB06KT 9999 NSW BKN030 QNH3024INS TX18/1014Z TN05/1006Z LAST NO AMDS AFT 1006 NEXT 1106", "TAF ETMN 101011Z 1011/1020 22012KT 9999 NSW SCT040 BKN260 BECMG 1013/1015 23012KT 7000 -RA SCT010 BKN015 TEMPO 1014/1017 24012KT 4000 RADZ OVC010 BECMG 1015/1017 30013G23KT 9999 NSW SCT020 SCT040", "TAF ETND 101006Z 1011/1020 19008KT 9999 NSW BKN250 BECMG 1013/1014 26010G20KT 9999 NSW BKN040 TEMPO 1016/1020 25015KT 8000 -RA SCT010 BKN015 BY ETGL", "TAF ETNG 101100Z 1012/1103 27008G15KT SCT050 BECMG 1015/1017 31008G15KT BKN050 TEMPO 1019/1021 36010G15KT -SHRA BKN015TCU BECMG 1021/1022 VRB02KT CAVOK", "TAF ETNH 101019Z 1011/1020 20010KT 9999 NSW SCT030 BKN250 BECMG 1013/1015 24010KT 9999 NSW SCT010 BKN030 TEMPO 1014/1017 26012G22KT 4000 RADZ BKN007 BECMG 1017/1019 28010KT 9999 NSW SCT025 BY ETGL", "TAF ETNL 101019Z 1011/1023 19008KT 9999 NSW SCT030 SCT300 TEMPO 1019/1022 27012KT 4000 RADZ BKN007 BY ETGL", "TAF ETNN 101026Z 1011/1020 20006KT 9999 NSW FEW260 BECMG 1014/1016 27006KT 8000 -RA BKN040 TEMPO 1018/1020 30006KT 4000 RA BKN015 BY ETGL", "TAF ETNS 101019Z 1011/1020 20010KT 9999 NSW SCT030 BKN250 BECMG 1013/1015 24010KT 9999 NSW SCT010 BKN030 TEMPO 1014/1017 26012G22KT 4000 RADZ BKN007 BECMG 1017/1019 28010KT 9999 NSW SCT025 BY ETGL", "TAF ETNW 101006Z 1011/1111 25010G20KT 9999 NSW FEW030 BKN250 BECMG 1015/1017 27010G20KT 9999 NSW BKN040 BKN250 TEMPO 1017/1021 28012G20KT 7000 -RA SCT010 BKN020 BECMG 1020/1022 27005KT 9999 NSW SKC BECMG 1103/1105 25005KT 9999 NSW BKN250 BY ETGL", "TAF ETSB 101026Z 1011/1020 23010KT 9999 NSW FEW030 BKN290 BECMG 1014/1016 25006KT 9999 NSW BKN060 TEMPO 1016/1018 27010G20KT 3000 SHRA BKN010CB BY ETGL", "TAF ETSH 101049Z 1011/1020 18010KT 9999 NSW SCT120 SCT200", "TAF ETSI 101011Z 1011/1020 25004KT 9999 NSW FEW015 BKN120", "TAF ETSL 101026Z 1011/1020 24008KT 9999 NSW FEW030 BKN100 BECMG 1017/1019 20005KT 9999 NSW FEW070 BY ETGL", "TAF ETSN 101026Z 1011/1020 23004KT 9999 NSW FEW030 BKN090 TEMPO 1018/1020 VRB03KT 4000 BR SCT070 BY ETGL", "TAF EVGA 101100Z 1012/1112 20010KT 9999 BKN020 TEMPO 1105/1112 4000 -SHRA BKN008 SCT015CB", "TAF EVLA 101108Z 1012/1112 19012KT 9999 SCT020 TEMPO 1100/1105 20015G26KT 4000 -SHRA BKN010 BKN015CB BECMG 1104/1105 26012KT TEMPO 1105/1112 25018G30KT SCT020CB", "TAF EVRA 101104Z 1012/1112 18010KT 9999 BKN025 TEMPO 1104/1110 BKN008 BKN015CB BECMG 1109/1111 24007KT", "TAF EYKA 101100Z 1012/1112 16007KT 9000 SCT025 BECMG 1016/1018 NSC TEMPO 1018/1024 3000 MIFG BR SCT003 BECMG 1103/1105 BKN030 TEMPO 1106/1112 26012KT 5000 SHRA SCT010 BKN020CB", "TAF EYPA 101100Z 1012/1112 16012G22KT 9000 NSC TEMPO 1012/1022 SCT020 BECMG 1022/1024 BKN035 TEMPO 1100/1106 5000 SHRA SCT010 BKN025CB BECMG 1106/1108 27015G25KT", "TAF EYSA 101100Z 1012/1021 19011KT 9000 SCT025", "TAF EYVI 101100Z 1012/1112 VRB05KT 9000 SCT015 TEMPO 1012/1014 SCT010 BKN015 BECMG 1016/1017 5000 BR TEMPO 1017/1021 1500 SCT005 BECMG 1021/1023 17015KT 9000 NSW NSC BECMG 1106/1107 BKN020 TEMPO 1108/1112 5000 SHRA BKN015CB", "TAF FABL 101000Z 1012/1112 34010KT CAVOK TX33/1012Z TN13/1104Z PROB30 TEMPO 1015/1018 -SHRA FEW040TCU PROB30 TEMPO 1017/1021 -TSRA FEW050CB", "TAF FACT 101000Z 1012/1118 20008KT CAVOK TX27/1012Z TN14/1104Z BECMG 1020/1022 35012KT FM110300 35010KT 9999 BKN020 PROB30 1103/1109 BKN010 BECMG 1113/1115 18010KT", "TAF FAEL 100900Z 1010/1019 06015KT 9999 SCT025 TX23/1011Z TN19/1019Z TEMPO 1011/1018 06020G30KT", "TAF FAGG 101000Z 1012/1112 14013KT CAVOK TX25/1012Z TN10/1104Z BECMG 1108/1110 20015KT PROB30 TEMPO 1109/1112 20015G25KT", "TAF FAHS 100600Z 1007/1018 16015G25KT 9999 BKN030 TX33/1013Z TN25/1018Z FM101300 11016KT 9999 SCT030", "TAF FAKM 100900Z 1010/1018 03010KT CAVOK TX34/1012Z TN25/1018Z PROB30 TEMPO 1015/1018 -SHRA FEW060TCU", "TAF FAKN 100900Z 1010/1018 VRB03KT 9999 SCT020 TX27/1013Z TN23/1018Z BECMG 1011/1013 09009KT SCT040 PROB30 TEMPO 1014/1017 TS FEW040CB", "TAF FALA 101000Z 1012/1112 01010KT CAVOK TX32/1013Z TN18/1104Z PROB30 TEMPO 1012/1017 TS FEW045CB PROB40 TEMPO 1017/1019 -TSRA FEW050CB BECMG 1021/1023 VRB03KT BECMG 1108/1110 34010KT", "TAF FALE 101000Z 1012/1118 07012KT 9999 SCT025 TX31/1112Z TN18/1103Z PROB30 TEMPO 1018/1024 BKN015 BECMG 1022/1024 VRB03KT FM110700 04010KT CAVOK TEMPO 1111/1114 04015G25KT", "TAF FAMM 100900Z 1010/1018 01010KT CAVOK TX34/1013Z TN25/1018Z", "TAF FAOR 101000Z 1012/1118 36012KT CAVOK TX30/1013Z TN16/1104Z PROB30 TEMPO 1012/1016 TS FEW050CB PROB40 TEMPO 1018/1021 -TSRA FEW050CB BECMG 1022/1024 06008KT BECMG 1106/1108 34011KT PROB30 TEMPO 1113/1118 TS FEW050CB", "TAF FAPE 101000Z 1012/1112 08019KT CAVOK TX23/1012Z TN17/1104Z TEMPO 1012/1017 07022G32KT PROB30 TEMPO 1018/1021 BKN006 BECMG 1021/1023 06009KT BECMG 1105/1107 24010KT BECMG 1108/1110 24020KT TEMPO 1110/1112 24025G35KT", "TAF FAPM 100900Z 1010/1021 06008KT CAVOK TX26/1011Z TN16/1021Z FM101600 VRB03KT 9999 SCT025", "TAF FAPP 100900Z 1010/1018 05012KT CAVOK TX30/1013Z TN24/1018Z BECMG 1016/1018 SCT015", "TAF FARB 100900Z 1010/1018 17010KT 9999 BKN020 TX25/1012Z TN20/1018Z BECMG 1013/1015 07010KT", "TAF FAUP 101000Z 1012/1112 06010KT CAVOK TX38/1012Z TN19/1104Z PROB30 TEMPO 1012/1015 35015G25KT", "TAF FAUT 100900Z 1010/1018 07010KT 9999 SCT025 TX24/1012Z TN16/1018Z BECMG 1015/1017 VRB03KT", "TAF FAWB 100900Z 1010/1018 03010KT CAVOK TX32/1013Z TN24/1018Z PROB30 TEMPO 1012/1018 TS FEW050CB PROB40 TEMPO 1016/1018 03015G25KT", "TAF FAWK 100900Z 1010/1018 03010KT CAVOK TX31/1013Z TN23/1018Z PROB30 TEMPO 1012/1018 TS FEW050CB", "TAF FBKE 100900Z 1012/1021 09014KT CAVOK", "FBMN 101000Z 1012/1112 06008KT CAVOK", "FBPM 101000Z 1012/1112 09014KT CAVOK", "TAF FBSK 101000Z 1012/1118 04011KT CAVOK", "TAF FCBB 101100Z 1012/1318 26004KT 9000 SCT020 PROB30 1017/1021 FEW020 FEW030CB BECMG 1112/1114 SCT020 FEW030CB", "TAF FCPP 101100Z 1012/1312 20005KT 9000 SCT020 FEW030CB BECMG 1019/1021 SCT020 PROB30 1104/1108 4000 DZ BKN010 SCT015", "FDMS 101000Z 1012/1018 13007KT 9999 BKN030", "FDSK 101000Z 1012/1018 16013KT 9999 BKN035", "TAF COR FEFF 101100Z 1012/1118 24006KT 9999 SCT020 FEW033CB PROB30 TEMPO 1015/1019 4000 TSRA FM102100 00000KT NSW SCT10 BECMG 1103/1105 4000 BR BKN007 FM110730 VRB03KT 9999 NSW SCT010", "TAF FGBT 101100Z 1012/1112 25005KT 9999 SCT010 PROB40 TEMPO 1015/1020 4000 TSRA BKN010 FEW020CB TEMPO 1105/1108 TS BKN008 FEW018CB", "TAF FGSL 101100Z 1012/1118 25005KT 9999 SCT009 PROB40 TEMPO 1013/1016 3000 TSRA BKN010 FEW018CB PROB30 TEMPO 1104/1108 4000 RADZ BKN008", "TAF FHAW 101030Z 1012/1106 14012KT 9999 FEW018 SCT030 TEMPO 1012/1015 6000 -SHRA FEW009 SCT015 PROB40 TEMPO 1021/1106 7000 -SHRA SCT015", "TAF FIMP 101105Z 1012/1118 11012KT 9999 SCT018 PROB30 1014/1018 7000 -SHRA BKN016 TEMPO 1018/1104 VRB05KT", "TAF FIMR 101105Z 1012/1106 12020G35KT 9999 SCT017", "TAF FJDG 100900Z 1009/1115 16015KT 9999 FEW025 QNH2983INS TX31/1017Z TN25/1022Z FOR MIL USE ONLY", "TAF FKKD 101100Z 1012/1118 VRB04KT 9999 BKN016 FEW020CB PROB30 TEMPO 1014/1018 TS TEMPO 1018/1022 TSRA BECMG 1020/1022 BKN013 FEW016CB PROB30 TEMPO 1103/1108 3000 TSRA", "TAF FKKL 100500Z 1006/1018 VRB04KT 9999 FEW030 PROB30 1015/1018 TS BKN014 FEW020CB", "TAF FKKR 100500Z 1006/1018 VRB05KT TS 9999 BKN013 FEW016CB BECMG 1008/1010 NSW SCT020 PROB40 1014/1018 TS BKN014 FEW020CB", "TAF FKYS 101100Z 1012/1112 VRB03KT 8000 BKN016 TEMPO 1014/1019 4000 TSRA BKN013 FEW016CB BECMG 1020/1022 BKN006 BECMG 1109/1111 BKN016", "TAF FLCP 101000Z 1012/1118 10005G10KT 9999 SCT040 FM101500 13005KT CAVOK BECMG 1017/1019 VRB03KT BECMG 1105/1107 08005KT", "TAF FLHN 101000Z 1012/1118 09010G15KT 9999 FEW045 BECMG 1014/1016 06005KT CAVOK BECMG 1020/1022 VRB03KB BECMG 1104/1106 09005G15KT", "TAF FLKK 101000Z 1012/1118 10010G20KT 9000 HZ FEW040 BECMG 1016/1018 13005G10KT CAVOK BECMG 1021/1023 VRB03KB BECMG 1104/1106 12005G15KT 9000 HZ SKC", "TAF FLKS 101000Z 1012/1118 11010G20KT 9000 HZ SCT035 BECMG 1014/1016 10005G15KT CAVOK BECMG 1106/1108 9000 HZ SCT020 BECMG 1009/1011 12010G20KT SCT030", "TAF FLMA 101000Z 1012/1118 13010KT 9000 HZ FEW040 BECMG 1014/1016 CAVOK BECMG 1018/1020 11005KT BECMG 1104/1106 15010G20KT 8000 HZ SKC", "TAF FLMF 101000Z 1012/1118 10005G10KT 9999 SCT040 FM101500 13005KT CAVOK BECMG 1017/1019 VRB03KT BECMG 1105/1107 08005KT", "TAF FLSK 101000Z 1012/1118 11010G20KT 9000 FU FEW040 FM101600 08005KT CAVOK BECMG 1104/1106 10010G20KT 9000 FU NSC BECMG 1107/1109 SCT030", "TAF FLSW 101000Z 1012/1118 07005G15KT 9999 SCT035 FM101400 10005KT CAVOK FM101800 VRB03KT BECMG 1103/1105 09005KT", "TAF FMCH 101100Z 1012/1118 24011KT 9999 FEW020 SCT025 PROB30 TEMPO 1012/1015 4500 SHRA BECMG 1015/1017 08003KT BECMG 1105/1107 25010KT", "TAF FMCZ 101100Z 1012/1112 32010KT 9999 FEW026 BKN043 TEMPO 1108/1112 3400 SHRA SCT020TCU", "TAF FMEE 100500Z 1006/1112 09015G30KT 9999 NSC BECMG 1012/1014 11014KT BECMG 1104/1106 10015G30KT", "TAF FMEP 101100Z 1012/1021 25006KT 9999 OVC042", "TAF FMMI 101100Z 1012/1118 10012KT 9999 FEW020 BECMG 1018/1020 16004KT PROB40 1101/1105 2000 BR BKN004 BECMG 1108/1110 10012KT", "TAF FMMS 101100Z 1012/1112 15009KT 9999 FEW017", "TAF FMMT 101100Z 1012/1112 12010KT 9999 SCT017 BECMG 1017/1019 00000KT BECMG 1107/1109 12010KT", "TAF FMNA 101100Z 1012/1112 14016KT 9999 SCT020", "TAF FMNM 101100Z 1012/1112 34011KT 9999 FEW040 BECMG 1018/1021 12007KT BECMG 1109/1111 34010KT", "TAF FMNN 101100Z 1012/1112 28010KT 9999 SCT020 BECMG 1016/1018 00000KT PROB30 TEMPO 1019/1102 4500 SHRA", "TAF FMSD 101100Z 1012/1112 08008KT 9999 FEW020", "TAF FMST 101100Z 1012/1112 22014KT 9999 FEW023 BECMG 1019/1021 16005KT BECMG 1108/1110 22012KT", "TAF FNBG 101100Z 1012/1024 29010KT CAVOK", "TAF FNCA 101100Z 1012/1024 18012KT 9999 SCT012", "TAF FNCT 101100Z 1012/1024 29009KT CAVOK", "TAF FNDU 101100Z 1012/1024 VRB02KT CAVOK", "TAF FNGI 101100Z 1012/1024 07007KT CAVOK", "TAF FNHU 101100Z 1012/1024 09007KT 8000 NSC", "TAF FNKU 101100Z 1012/1024 10009KT 8000 NSC", "TAF FNLU 101100Z 1012/1118 25011KT 9999 SCT020 TEMPO 1001/1006 BKN014 TEMPO 1007/1012 16005KT", "TAF FNMA 101100Z 1012/1024 VRB02KT 9999 FEW018 TEMPO 1019/1024 26007KT", "TAF FNME 101100Z 1012/1024 09007KT 8000 NSC", "TAF FNMO 101100Z 1012/1024 28009KT 9999 FEW018 BECMG 1019/1024 BKN015", "TAF FNSA 101100Z 1012/1024 10006KT 9999 FEW020", "TAF FNSO 101100Z 1012/1024 19011KT 9999 FEW020", "TAF FNUB 101100Z 1012/1024 06005KT 9999 FEW025", "TAF FNUE 101100Z 1012/1024 VRB03KT 9999 FEW022", "TAF FOOG 101100Z 1012/1112 20010KT 9999 SCT012 PROB40 TEMPO 1015/1020 TS BKN008 FEW020CB", "TAF FOOL 101100Z 1012/1118 26006KT 8000 TS BKN010 FEW020CB PROB30 TEMPO 1012/1015 4000 TSRA BKN010 FEW020CB BECMG 1015/1017 NSW SCT012 BKN030", "TAF FQBR 101000Z 1012/1118 12014KT 9999 FEW020 TX31/1013Z TN21/1103Z BECMG 1021/1023 10008KT SCT020 BECMG 1106/1108 17010KT BECMG 1115/1117 11012KT", "TAF FQCH 101000Z 1012/1112 14013KT 9999 FEW018 TX32/1013Z TN15/1103Z BECMG 1019/1021 20008KT PROB30 TEMPO 1100/1106 3000 BR SCT015 BECMG 1105/1107 09005KT", "TAF FQIN 101000Z 1012/1112 11010KT 9999 SCT020 TX30/1013Z TN22/1103Z BECMG 1018/1020 17006KT BECMG 1107/1109 08010KT", "TAF FQLC 101000Z 1012/1112 09012KT 9999 FEW020 TX27/1013Z TN12/1103Z BECMG 1018/1020 03008KT", "TAF FQMA 101000Z 1012/1118 17012KT 9999 BKN020 TX29/1013Z TN17/1103Z BECMG 1018/1020 13007KT FEW020 BECMG 1100/1102 24003KT PROB30 TEMPO 1101/1105 4000 BR SCT015 BECMG 1112/1114 07012KT", "TAF FQNC 101000Z 1012/1118 08010KT 9999 FEW020 TX32/1013Z TN20/1103Z BECMG 1020/1022 23006KT BECMG 1100/1102 VRB02KT PROB30 TEMPO 1100/1106 4000 BR FEW020 BECMG 1110/1112 09010KT", "TAF FQNP 101000Z 1012/1112 09014KT 9999 FEW020 TX33/1013Z TN18/1103Z BECMG 1100/1102 VRB02KT BECMG 1106/1108 07010KT", "TAF FQPB 101000Z 1012/1112 09012KT 9999 FEW020 TX29/1013Z TN19/1103Z BECMG 1019/1021 VRB02KT PROB30 TEMPO 1100/1106 5000 BR FEW018 BECMG 1108/1110 10010KT", "TAF FQQL 101000Z 1012/1112 16012KT 9999 FEW020 TX35/1013Z TN22/1103Z BECMG 1020/1022 28006KT PROB30 TEMPO 1100/1106 0900 FG FEW020 BECMG 1108/1110 15010KT", "TAF FQTT 101000Z 1012/1112 15012KT 9999 FEW020 TX38/1013Z TN23/1103Z BECMG 1017/1019 21005KT BECMG 1106/1108 16013KT", "TAF FQVL 101000Z 1012/1112 10012KT 9999 SCT020 TX29/1013Z TN22/1103Z BECMG 1018/1020 16010KT BECMG 1106/1108 09010KT", "TAF FQXA 101000Z 1012/1112 17014KT 9999 BKN020 TX27/1013Z TN19/1103Z PROB40 TEMPO 1012/1016 5000 DZ BKN015 BECMG 1019/1021 23008KT PROB30 TEMPO 1101/1106 5000 BR BKN020 BECMG 1108/1110 10010KT", "TAF FSIA 101103Z 1012/1112 14013KT 9999 FEW024", "TAF FTTJ 101100Z 1012/1118 VRB04KT 8000 FEW033 PROB30 TEMPO 1016/1022 4000 BLDU TS", "TAF FVJN 101000Z 1012/1118 09014KT CAVOK", "TAF FVRG 101000Z 1012/1118 10013KT CAVOK", "TAF FWCL 100900Z 1012/1118 09009KT 9999 SCT025 TX33/1012Z TN19/1103Z BECMG 1016/1018 12011KT CAVOK BECMG 1103/1105 07004KT 8000 HZ NSC", "TAF FWKI 100900Z 1012/1118 10016KT 9999 FEW032 FM101300 09012KT CAVOK", "TAF FYGF 101100Z 1012/1021 04010G20KT CAVOK", "TAF FYKM 101100Z 1012/1021 08009KT CAVOK", "TAF FYLZ 101100Z 1012/1021 30006KT 9999 SCT020", "TAF FYRU 101100Z 1012/1021 09010KT CAVOK", "TAF FYWB 101000Z 1012/1112 30004KT CAVOK BECMG 1019/1021 21004KT", "TAF FYWE 101100Z 1012/1021 34010KT CAVOK", "TAF FYWH 101000Z 1012/1112 04007KT CAVOK", "TAF FZAA 100500Z 1006/1112 24004KT 7000 BKN016 BECMG 1010/1012 34012KT SCT023 FEW030CB PROB30 1015/1019 TS BECMG 1021/1023 18004KT FEW018", "TAF GABS 101100Z 1012/1118 VRB06KT 9999 FEW020 PROB40 TEMPO 1015/1018 TS SCT020 FEW033CB PROB40 TEMPO 1018/1024 08018G35KT 4000 TSRA SCT020 FEW033CB", "TAF GAGO 101100Z 1012/1112 10008KT 8000 FEW030 PROB30 TEMPO 1015/1018 TS SCT030 FEW040CB", "TAF GBYD 101100Z 1012/1118 09006KT 9999 SCT013", "TAF GCFV 100800Z 1009/1109 04012KT 9999 SCT020 TX26/1014Z TN20/1106Z BECMG 1023/1102 34008KT", "TAF GCGM 100800Z 1009/1109 23010KT 9999 SCT025 TX26/1014Z TN21/1106Z TEMPO 1009/1011 01007KT", "TAF GCHI 100800Z 1009/1109 03015KT 9999 SCT025 TX24/1014Z TN22/1106Z PROB30 TEMPO 1009/1011 09008KT", "TAF GCLA 100800Z 1009/1109 03012KT 9999 BKN030 TX26/1014Z TN21/1106Z PROB30 TEMPO 1009/1012 33009KT PROB40 TEMPO 1019/1109 33009KT", "TAF GCLP 100800Z 1009/1109 02022KT 9999 SCT030 TX26/1014Z TN21/1106Z", "TAF AMD GCRR 100959Z 1009/1109 01012KT 9999 SCT025 TX28/1014Z TN20/1106Z PROB40 TEMPO 1010/1016 07012KT", "TAF GCTS 100800Z 1009/1109 08020KT 9999 FEW030 TX28/1014Z TN20/1106Z BECMG 1021/1023 06009KT", "TAF GCXO 100800Z 1009/1109 32008KT 9999 BKN020 TX22/1014Z TN16/1106Z PROB30 TEMPO 1009/1012 3000 BCFG BKN010 PROB40 TEMPO 1019/1109 3000 DZ BCFG BKN005", "TAF GECE 100800Z 1009/1109 28008KT 9999 SCT020 TX23/1015Z TN18/1105Z", "TAF GEML 101100Z 1012/1112 29010KT 9999 FEW012 TX26/1013Z TN19/1106Z BECMG 1017/1019 VRB03KT PROB30 TEMPO 1100/1108 BKN012", "TAF GFLL 101100Z 1012/1118 03005KT 9999 BKN011 FEW026CB PROB30 TEMPO 1011/1013 06007KT 7000 TSRA BKN012 FEW025CB TEMPO 1015/1019 27008KT 9999 BKN013 FEW027CB BECMG 11020/1022 24007KT BKN011 BECMG 1106/1108 VRB02KT BKN010", "TAF GGOV 101100Z 1012/1112 VRB05KT 8000 SCT012 TEMPO 1018/1022 4000 TSRA BKN010 FEW015CB", "TAF GLRB 100500Z 1006/1106 22010KT 9999 BKN016 BECMG 1006/1008 05003KT 7000 BKN011 TEMPO 1010/1014 21009KT 9999 BKN017", "TAF COR GMAD 101100Z 1012/1118 28012KT 8000 NSC BECMG 1102/1104 BKN006", "TAF GMAG 101100Z 1012/1118 23005KT 5000 SCT020 BECMG 1012/1014 8000 NSC PROB30 1100/1106 4000 BR BKN013", "TAF GMFF 101100Z 1012/1118 32010KT 9999 SCT016 BKN026 BECMG 1013/1015 BKN030 FEW033CB TEMPO 1016/1020 TSRA", "TAF GMFK 101100Z 1012/1118 12007KT 6000 NSC PROB40 TEMPO 1018/1023 4500 -TSRA BKN023 FEW036CB", "TAF GMFM 101100Z 1012/1118 34004KT 8000 BKN020 PROB40 TEMPO 1104/1109 VRB02KT 4000 BR SCT010 BKN020", "TAF GMFO 101100Z 1012/1118 36012KT 9999 SCT026 BKN200 PROB30 TEMPO 1014/1020 TSRA FEW040CB", "TAF GMME 101100Z 1012/1118 00000KT 5000 BKN020 SCT100 TEMPO 1018/1022 VRB02KT BKN013", "TAF GMMH 101100Z 1012/1118 01016KT 8000 NSC", "TAF GMMI 101100Z 1012/1118 23006KT 6000 SCT020 SCT200 BECMG 1012/1015 8000 NSC", "TAF GMML 101100Z 1012/1118 04017KT 8000 NSC PROB30 1100/1106 4000 BR BKN010", "TAF GMMN 101100Z 1012/1118 VRB03KT 9999 BKN020 PROB30 1103/1107 3000 BR BKN003 BKN020", "TAF GMMW 101100Z 1012/1118 33005KT 8000 BKN020 BECMG 1012/1014 SCT030 PROB30 1100/1108 4000 BR BKN013", "TAF GMMX 101100Z 1012/1118 28006KT 8000 BKN026 PROB30 TEMPO 1015/1023 34016G30KT 4000 TSRA FEW040CB BKN100", "TAF GMMZ 101100Z 1012/1118 VRB02KT 8000 NSC TEMPO 1017/1022 30012KT", "TAF GMTA 101100Z 1012/1118 36008KT 9999 FEW010 SCT030 PROB30 1100/1108 4000 BR BKN010", "TAF GMTT 101100Z 1012/1118 24009KT 9999 BKN013 TEMPO 1101/1118 4000 -RA BKN010 BKN013", "TAF GOBD 101100Z 1012/1118 08010KT 9999 SCT013 PROB30 TEMPO 1016/1020 3000 TSRA BKN013 FEW030CB", "TAF GOGS 101100Z 1012/1112 11005KT 9999 SCT013 PROB30 TEMPO 1014/1018 4000 TSRA BKN013 FEW030CB", "TAF GOOY 101100Z 1012/1118 04006KT 9999 SCT013", "TAF GOSS 101100Z 1012/1112 04006KT 9999 SCT010", "TAF GQNO 101100Z 1012/1118 04008KT 8000 NSC BECMG 1016/1018 34012KT BECMG 1109/1111 05010KT", "TAF GQPP 101100Z 1012/1112 36014KT 3500 BR BKN005 BECMG 1014/1016 6000 NSW FEW005", "TAF GUCY 100500Z 1006/1112 28006KT 9999 SCT015 SCT110 BECMG 1018/1022 TS SCT015 FEW023CB BKN110 PROB30 TEMPO 1100/1104 09012KT 5000 -TSRA BKN011 FEW020CB BKN100", "TAF GVAC 101100Z 1012/1118 05015KT 9999 SCT014 TEMPO 1103/1109 04005KT BKN014", "TAF GVBA 101100Z 1012/1118 05012KT 9999 SCT014 TEMPO 1100/1109 BKN014", "TAF GVNP 101100Z 1012/1118 04015KT 9999 SCT016 TEMPO 1103/1109 03005KT SCT012 BKN015", "TAF GVSV 101100Z 1012/1118 05018KT 9999 SCT018 PROB30 TEMPO 1103/1109 06008KT", "TAF HAAB 100930Z 1012/1118 34010KT 9999 FEW025 SCT090 TEMPO 1019/1021 12008KT -RA SCT025 SCT080", "HABD 090930Z 0912/1018 28005KT 9999 BKN026 SCT090", "HADC 090930Z 0912/1018 04005KT 9999 BKN025 SCT090", "TAF HADR 100930Z 1012/1118 34011KT 9999 FEW020 SCT090 BECMG 1012/1018 34010KT SCT025 SCT070", "HAGN 090930Z 0912/1018 35007KT 9999 SCT026 SCT090", "HAJJ 090930Z 0912/1018 18005KT 9999 SCT027 SCT090", "HALA 090930Z 0912/1018 19004KT 9999 BKN026 SCT090 TEMPO 0912/0916 8000M SHRA", "TAF HBBA 101100Z 1012/1118 18010G20KT 9999 FEW030 SCT100 PROB30 TEMPO1014/1018 09010KT 8000 TSRA OR SHRA FEW025CB BKN100 BECMG1021/1023 00000KT CAVOK BECMG1102/1104 36004KT 9999 FEW025 BECMG1108/1110 18010KT", "TAF HCMM 101100Z 1012/1118 19015KT 9999 SCT023 BECMG 1021/1100 20010KT BKN019 BECMG 1109/1112 21015KT SCT024", "TAF HDAM 100500Z 1006/1106 07012G18KT 9999 SCT023 FEW030CB BECMG 1015/1021 VRB06KT SCT020 FEW133 BECMG 1100/1106 15004KT 9000 HZ SCT020 SCT133", "TAF HEAL 091100Z 0912/1018 33011KT 9999 SCT020 TEMPO 0912/0918 8000 -RA BKN020", "TAF HEAR 101100Z 1012/1118 34012KT 9999 SCT025", "TAF HEAT 091100Z 0912/1018 36015KT CAVOK", "TAF HEAX 101100Z 1012/1118 33010KT 9999 SCT020", "TAF HEBA 091100Z 0912/1018 33011KT 9999 SCT020 TEMPO 0912/0918 8000 -RA BKN020", "TAF HEBL 091100Z 0912/1018 01012KT CAVOK", "TAF HECA 101100Z 1012/1118 34009KT 9999 SCT025", "TAF HEGN 101100Z 1012/1118 35015G25KT CAVOK", "TAF HELX 100500Z 1006/1112 VRB03KT 6000 NSC BECMG 1008/1010 32010KT CAVOK", "TAF HEMA 091100Z 0912/1018 36012G25KT CAVOK", "TAF HEMM 101100Z 1012/1118 36011KT 9999 SCT020", "TAF HEOW 091100Z 0912/1018 34016KT CAVOK", "TAF HEPS 101100Z 1012/1118 32010KT 9999 SCT025", "TAF HESC 091100Z 0912/1018 29012KT CAVOK", "TAF HESG 091100Z 0912/1018 36015KT CAVOK", "TAF HESH 101100Z 1012/1118 03015KT CAVOK", "TAF HESN 100500Z 1006/1112 36012KT CAVOK", "TAF HETB 101100Z 1012/1118 35015KT CAVOK", "TAF HETR 091100Z 0912/1018 29016G28KT CAVOK TEMPO 0912/0916 6000 NSC", "TAF HKEL 101100Z 1012/1118 09007KT 9999 SCT022 TEMPO 1014/1018 VRB10KT -TSRA FEW019CB SCT020 BKN090 BECMG 1020/1023 VRB03KT CAVOK BECMG 1108/1111 23010KT 9999 FEW023CB BKN024 TEMPO 1113/1117 VRB10KT -TSRA FEW019CB SCT020 BKN090", "TAF HKJK 100500Z 1006/1112 09005KT 9999 BKN018 BECMG 1007/1010 09010K T BKN024 TEMPO 1012/1016 FEW025CB BKN026 BECMG 1020/1023 VRB03KT SCT0 18 BECMG 1107/1110 11010KT BKN026", "TAF HKKI 101100Z 1012/1118 23007KT 9999 FEW026 TEMPO 1014/1018 -TSRA FEW022CB BKN023 BKN080 BECMG 1020/1023 VRB03KT CAVOK BECMG 1108/1111 22010KT 9999 FEW027CB SCT028 TEMPO 1113/1117 -TSRA FEW023CB BKN024 BKN080", "TAF HKML 101100Z 1012/1112 18015KT 9999 SCT022 TEMPO 1100/1104 20005KT -RA SCT020 BKN080 BECMG 1109/1112 18015KT NSW SCT023", "TAF HKMO 101100Z 1012/1118 16015KT 9999 FEW025 TEMPO 1100/1104 22005KT -RA SCT020 BKN080 BECMG 1109/1112 15015KT NSW FEW026", "TAF HKNW 100500Z 1006/1106 VRB03KT 9999 SCT018 BKN080 BECMG 1008/1011 12010KT BKN025 TEMPO 1012/1018 FEW024CB BKN025 BECMG 1020/1023 VRB03KT SCT018", "TAF HLGD 101100Z 1012/1112 15010KT 8000 NSC BECMG 1014/1016 06010KT BECMG 1100/1102 14010KT", "TAF HLGT 101100Z 1012/1112 12012KT 8000 NSC", "TAF HLKF 101100Z 1012/1112 03010KT CAVOK", "TAF HLLB 101100Z 1012/1112 12010KT CAVOK BECMG 1014/1016 36010KT 8000 SCT025 BECMG 1021/1023 06010KT BECMG 1106/1108 12012KT", "TAF HLLM 101100Z 1012/1112 36010KT 8000 SCT025 BECMG 1100/1102 VRB02KT", "TAF HLLQ 101100Z 1012/1112 36010KT 8000 SCT025 ", "TAF HLLS 101100Z 1012/1112 06010KT CAVOK ", "TAF HLMS 101100Z 1012/1112 15015KT 8000 NSC", "TAF HLON 100500Z 1006/1106 12010KT CAVOK BECMG 1008/1010 VRB02KT", "TAF HLTD 101100Z 1012/1112 14012KT 8000 NSC", "TAF HLTQ 101100Z 1012/1112 36012KT 8000 SCT025 ", "TAF HLUB 101100Z 1012/1112 10005KT CAVOK BECMG 1021/1023 VRB02KT", "HRYR 101100Z 1012/1118 12008KT 9999 SCT025 SCT100 BECMG 1014/1017 06010G20KT TS FEW022CB SCT025 BECMG 1019/1022 36005KT NSW SCT026 SCT100 BECMG 1107/1110 16008KT BKN023 TEMPO 1112/1117 09012G24KT TSRA FEW020CB BKN024", "HRZA 101100Z 1012/1118 12010KT 9999 SCT025 TEMPO 1014/1018 -TSRA FEW023CB BKN025 BECMG 1021/1023 27004KT RA BKN025 FM 110200 00000KT 9000 BECMG 1105/1107 34005KT 9999 NSW SCT025 TEMPO 1109/1113 14008G18KT -TSRA FEW023CB BKN025", "HSKA 101100Z 1012/1118 18005KT 9999 FEW040 SCT140", "HSOB 101100Z 1012/1118 18008KT 9999 FEW040 SCT140 TEMPO 1018/1021 6000 TSRA FEW045CB SCT140", "TAF HSPN 101100Z 1012/1118 02012G22KT CAVOK BECMG 1021/1023 32008KT", "TAF HSSJ 100400Z 1006/1112 18003KT 9999 FEW040 SCT030 TEMPO 1008/1014 VRB02KT 9999 FEW040 SCT030 TEMPO 1012/1018 16003KT 9999 SCT030BKN140", "HSSK 101100Z 1012/1118 18008KT 9999 SCT140 TEMPO 1012/1021 9999 FEW040 SCT140 PROB30 TEMPO 1018/1021 6000 TSRA FEW045CB", "HTAR 100500Z 1006/1106 12010KT 9999 BKN028 BECMG 1014/1017 FEW038", "TAF HTDA 101100Z 1012/1118 14015KT 9999 SCT032 BECMG 1017/1020 15005KT", "HTDO 101100Z 1012/1112 09017KT 9999 SCT027 BECMG 1014/1015 FEW028", "HTKA 101100Z 1012/1112 000000KT 9999 FEW025 FEW026CB TEMPO 1012/1015 27010KT", "TAF HTKJ 101100Z 1012/1112 08010KT 9999 SCT038", "HTMW 101100Z 1012/1112 33010KT 9999 FEW025 FEW026CB BECMG 1018/1020 00000KT BECMG 1103/1105 13010KT TS FEW020 FEW021CB BKN080", "HTTB 101100Z 1012/1112 13015KT 9999 FEW022 BKN080", "HTZA 101100Z 1012/1112 13020KT 9999 SCT020 BECMG 1019/1021 13010KT BECMG 1103/1105 20010KT", "TAF HUEN 101100Z 1012/1118 36010KT 9999 FEW022 FEW024CB TEMPO 1012/1014 18010KT 9000 TS SCT020 FEW022CB BECMG 1103/1107 8000 -TSRA SCT019 FEW021CB", "TAF HUSO 091100Z 0912/1012 09007KT 9999 SCT020 FEW022CB FM 091400 25006KT -TSRA SCT019 FEW021CB BECMG 1002/1006 02005KT FEW018 SCT100 BECMG 1008/1012 SCT020 FEW022CB", "KABE 101120Z 1012/1112 VRB03KT P6SM FEW250 FM101500 26006KT P6SM SCT050", "KABI 101129Z 1012/1112 15006KT P6SM BKN100 FM101500 18008KT P6SM OVC100 FM101800 19011G18KT P6SM VCTS OVC080CB FM110100 16007KT P6SM OVC100", "KABQ 101122Z 1012/1112 36005KT P6SM BKN200 FM101900 22006KT P6SM SCT070 BKN200 FM110400 16005KT P6SM SCT100", "KABR 101137Z 1012/1112 00000KT 1SM BR VV002 TEMPO 1012/1013 1/2SM FZFG FM101300 00000KT 3SM BR OVC002 TEMPO 1013/1015 1SM BR FM101500 16006KT 5SM BR FEW250 FM101600 16008KT P6SM SCT250 FM101900 18012G19KT P6SM SCT250", "KABY 101120Z 1012/1112 35006KT P6SM SKC FM110600 06005KT P6SM FEW025", "KACK 101120Z 1012/1112 00000KT P6SM FEW200 FM101300 17003KT P6SM FEW200 FM101500 20007KT P6SM BKN110 FM101800 23010G18KT P6SM SCT080 FM110300 26006KT P6SM FEW110 FM111100 33005KT P6SM FEW200", "KACT 101120Z 1012/1112 19006KT P6SM FEW150 SCT250 FM101900 15012KT P6SM FEW080 SCT140", "KACV 101141Z 1012/1112 36004KT 4SM BR OVC003 FM102200 31008KT P6SM OVC007 FM110300 32004KT 1/4SM FG OVC001 FM110600 16003KT 1/4SM FG OVC001", "KACY 101120Z 1012/1112 VRB03KT P6SM SKC FM101500 26008KT P6SM SKC", "KADF 101120Z 1012/1112 VRB04KT P6SM BKN100 FM110200 VRB03KT P6SM FEW120", "TAF KADW 100900Z 1009/1115 VRB06KT 9999 SKC QNH3019INS BECMG 1102/1103 27006KT 9999 SKC QNH3027INS TX19/1019Z TN04/1009Z", "KAEG 101122Z 1012/1112 VRB05KT P6SM BKN200 FM102000 21006KT P6SM SCT070 BKN200 FM110400 25005KT P6SM SCT100", "KAEX 101120Z 1012/1112 00000KT P6SM SKC FM101800 09006KT P6SM SKC FM110800 00000KT P6SM SKC", "KAFW 101120Z 1012/1112 17009KT P6SM FEW100 SCT250 FM101900 18013KT P6SM VCSH FEW050 BKN080 FM110100 15011KT P6SM SCT080 BKN120", "KAGC 101120Z 1012/1112 19005KT P6SM SCT150 FM101600 25010KT P6SM SKC FM110000 18003KT P6SM SKC", "KAGS 101132Z 1012/1112 VRB04KT P6SM BKN022 FM101900 06005KT P6SM BKN040 FM110700 VRB02KT 5SM BR BKN015", "KAHN 101132Z 1012/1112 02003KT P6SM SKC FM101700 05006KT P6SM SCT035 FM110000 VRB03KT P6SM FEW250 FM111000 05004KT P6SM BKN015 FM111100 04004KT P6SM BKN007", "KAIA 101120Z 1012/1112 20006KT P6SM FEW250 FM101700 22010G20KT P6SM FEW250", "KALB 101130Z 1012/1112 17008KT P6SM OVC050 FM101400 19008KT P6SM VCSH OVC050 FM102000 27010KT P6SM SCT050 FM110000 27004KT P6SM FEW050", "KALI 101120Z 1012/1112 36004KT P6SM FEW025 FEW120 FM101600 11012KT P6SM SCT035 SCT120 FM102200 12014G22KT P6SM FEW045 SCT150 FM110300 09005KT P6SM SCT035 SCT150", "KALO 101121Z 1012/1112 11003KT P6SM FEW250 FM101700 17007KT P6SM FEW250", "KALS 101140Z 1012/1112 VRB04KT P6SM SKC FM101900 25008KT P6SM FEW060 FM110200 VRB04KT P6SM SCT200", "KALW 101124Z 1012/1112 14004KT P6SM SKC FM101800 22012G22KT P6SM SKC FM102200 25020G30KT P6SM SKC FM110600 22012KT P6SM SKC", "KAMA 101135Z 1012/1112 22008KT 3SM BR SCT029 FM101300 21007KT P6SM BKN013 FM101400 22009KT P6SM SCT014 FM102000 20014KT P6SM VCTS BKN090CB", "KANB 101120Z 1012/1112 VRB04KT P6SM SKC FM101500 03007KT P6SM SKC FM110100 VRB04KT P6SM SKC FM110900 06004KT P6SM SCT250", "KAND 101123Z 1012/1112 00000KT P6SM SKC FM101400 04005KT P6SM FEW050 FM102000 07007KT P6SM FEW250 FM111000 04004KT P6SM BKN030", "KAOO 101129Z 1012/1112 24004KT P6SM SCT250 FM101500 24008KT P6SM SKC", "KAPA 101135Z 1012/1112 18007KT P6SM SKC FM101400 VRB06KT P6SM FEW120 FEW220 FM102100 10006KT P6SM FEW120 FEW220 FM110200 17007KT P6SM SKC", "KAPC 101131Z 1012/1112 VRB03KT 2SM BR OVC002 TEMPO 1012/1014 1/2SM FG VV002 FM101600 VRB05KT 4SM BR OVC003 FM101800 20006KT P6SM SKC FM102200 19011KT P6SM SKC FM110500 21006KT P6SM FEW010 FM111100 VRB04KT P6SM BKN006", "KAPF 101120Z 1012/1112 VRB04KT P6SM SCT010 BKN070 FM101400 08007KT P6SM FEW030 SCT045 FM101700 28008KT P6SM VCTS SCT030CB BKN050 FM110000 VRB04KT P6SM FEW030 SCT070 SCT250 AMD NOT SKED", "KAPN 101129Z 1012/1112 VRB03KT P6SM SCT210", "KARA 101120Z 1012/1112 VRB03KT P6SM SKC FM101500 09008KT P6SM SKC FM110300 VRB03KT P6SM SKC", "KART 101120Z 1012/1112 02004KT P6SM BKN040 FM101800 VRB04KT P6SM FEW250 FM110000 22004KT P6SM FEW250 FM110600 18006KT P6SM FEW200", "KASD 101120Z 1012/1112 VRB03KT P6SM SKC FM101600 07006KT P6SM SKC FM102200 05005KT P6SM SKC FM110000 00000KT P6SM SKC", "KASE 101120Z 1012/1112 20005KT P6SM SKC FM101800 33007KT P6SM FEW110 FEW250 FM102100 34010G17KT P6SM FEW130 FEW250 FM110200 22006KT P6SM FEW250", "KASN 101120Z 1012/1112 VRB04KT P6SM SKC FM101600 02007KT P6SM SKC FM110100 VRB05KT P6SM SKC FM110900 06004KT P6SM SCT250", "KAST 101140Z 1012/1112 24003KT 1/2SM FG VV002 FM101500 24005KT 1 1/2SM BR BKN003 FM101800 28011KT 5SM BR OVC008 FM110100 28008KT 6SM BR OVC025 FM110300 28007KT P6SM SKC FM110800 25005KT P6SM OVC015", "KATL 101132Z 1012/1118 34005KT P6SM SKC FM101500 02006KT P6SM SKC FM110300 05004KT P6SM FEW250 FM110900 07005KT P6SM SCT010 BKN020 FM111200 07007KT P6SM BKN012 FM111500 08008KT P6SM SCT015", "KATW 101134Z 1012/1112 04002KT P6SM SCT025 TEMPO 1014/1016 BKN025 FM101600 16004KT P6SM SKC", "KATY 101137Z 1012/1112 00000KT 3SM BR FEW002 TEMPO 1012/1014 1/2SM FZFG FM101400 00000KT 6SM BR SKC TEMPO 1014/1015 2SM BR FM101500 17009KT P6SM FEW250 FM110400 16012G23KT P6SM FEW250 WS020/20045KT FM111000 18012G24KT P6SM FEW250", "KAUG 101120Z 1012/1112 00000KT P6SM FEW060 BKN100 FM101400 29004KT P6SM BKN035 BKN050 FM110000 VRB03KT P6SM SKC", "KAUS 101120Z 1012/1118 VRB01KT P6SM SKC FM101600 15010G20KT P6SM FEW080 FEW200 FM110500 15003KT P6SM FEW020 SCT150 FM111500 17008KT P6SM FEW200", "KAUW 101134Z 1012/1112 VRB03KT P6SM FEW012 FM101400 16004KT P6SM SKC", "KAVL 101123Z 1012/1112 33003KT 6SM BR SCT002 FM101300 34004KT P6SM SCT016 FM101400 35008KT P6SM FEW045 FM110800 VRB02KT 3SM BR BKN004 FM110900 00000KT 1 1/2SM BR OVC002", "KAVP 101120Z 1012/1112 23004KT P6SM SCT070 FM101700 25008KT P6SM SCT080", "KAXN 101120Z 1012/1112 12004KT P6SM SKC FM101700 17010KT P6SM FEW150", "KAZO 101120Z 1012/1112 VRB03KT P6SM FEW080 FM101800 20006KT P6SM FEW070", "TAF KBAD 100400Z 1004/1110 VRB03KT 9999 SKC QNH3020INS BECMG 1018/1019 16005KT 9999 FEW150 QNH3014INS TX29/1021Z TN14/1012Z", "KBAF 101120Z 1012/1112 19004KT P6SM BKN090 FM101600 24005KT P6SM VCSH BKN060 FM102200 30006KT P6SM BKN050 FM110000 32003KT P6SM SCT150", "KBAM 101126Z 1012/1112 VRB06KT P6SM SKC", "KBBD 101129Z 1012/1112 VRB05KT P6SM OVC050 FM101500 15009KT P6SM FEW250 FM101700 15011G18KT P6SM FEW250 FM110100 14007KT P6SM OVC100", "KBBG 101120Z 1012/1112 21005KT P6SM SCT150 FM101700 23010KT P6SM SCT150 FM102300 21007KT P6SM BKN100 FM110400 18007KT P6SM BKN080 PROB30 1108/1112 6SM SHRA OVC040", "KBCB 101120Z 1012/1112 26003KT P6SM SKC FM101500 32003KT P6SM SKC", "KBCE 101120Z 1012/1112 25007KT P6SM FEW200 FM102000 31010G17KT P6SM VCSH FEW080 BKN100 FM110200 26005KT P6SM SCT120", "KBDL 101120Z 1012/1118 21004KT P6SM BKN100 FM101800 25007KT P6SM BKN060 FM102300 31004KT P6SM SCT150 FM110500 00000KT P6SM FEW150 FM111600 25003KT P6SM SKC", "KBDN 101124Z 1012/1112 VRB06KT P6SM SKC FM102000 32012G22KT P6SM FEW250 FM102300 32014G24KT P6SM SCT250 FM110400 32008KT P6SM SKC FM110800 VRB06KT P6SM SKC", "KBDR 101120Z 1012/1112 VRB03KT P6SM BKN100 FM101400 24009KT P6SM BKN100 FM110000 28005KT P6SM BKN120 FM110400 VRB03KT P6SM FEW250", "KBED 101120Z 1012/1112 20004KT P6SM BKN100 FM101600 23005KT P6SM BKN060 FM101800 26006KT P6SM VCSH BKN050 FM102300 30004KT P6SM BKN050 FM110100 00000KT P6SM SCT060", "KBFD 101129Z 1012/1112 22004KT P6SM -SHRA BKN050 OVC080 FM101600 27007KT P6SM BKN100", "KBFF 101120Z 1012/1112 VRB06KT P6SM FEW250 FM101900 25010KT P6SM SKC", "KBFI 101128Z 1012/1112 16004KT 6SM HZ SKC FM101900 19006KT P6SM SCT100 BKN200 FM110100 22008KT P6SM BKN050 OVC080 FM110700 17006KT P6SM BKN015 OVC025", "KBFL 101120Z 1012/1112 VRB06KT P6SM SKC FM102300 32008G13KT P6SM SKC FM110200 VRB06KT P6SM SKC", "KBFM 101120Z 1012/1112 01009KT P6SM SKC FM110000 36004KT P6SM SKC", "KBGM 101120Z 1012/1112 23005KT P6SM VCSH BKN070 FM101600 26008KT P6SM BKN050 FM110100 00000KT P6SM FEW240", "KBGR 101120Z 1012/1112 VRB02KT P6SM FEW250 FM101700 25007KT P6SM BKN060 FM102000 22007KT P6SM SCT150", "KBHB 101120Z 1012/1112 VRB03KT P6SM FEW250 FM101600 27006KT P6SM SCT060 FM101800 24008KT P6SM BKN045", "KBHM 101120Z 1012/1112 VRB03KT P6SM SKC FM101700 02007KT P6SM SKC FM110100 VRB03KT P6SM SKC", "TAF KBIF 100600Z 1006/1112 15012G18KT 9000 -SHRA FEW027 BKN040 QNH3025INS TEMPO 1006/1007 8000 -TSRA BKN027CB BECMG 1011/1012 22010KT 9999 NSW SCT030 BKN050 QNH3021INS BECMG 1022/1023 22010KT 9000 -SHRA SCT050 QNH3011INS TEMPO 1023/1103 22010G15KT 8000 -TSRA BKN040CB BECMG 1109/1110 VRB06KT 9999 NSW FEW050 SCT070 QNH3015INS TX23/1020Z TN15/1011Z", "KBIH 101127Z 1012/1112 33007KT P6SM SCT120 FM102100 25008KT P6SM BKN110 PROB30 1022/1102 25020G30KT -TSRA BKN100CB FM110200 32008KT P6SM SCT120 FM110600 32006KT P6SM FEW200", "KBIL 101120Z 1012/1112 24006KT P6SM FEW200 FM102000 26012KT P6SM FEW200 FM110600 26012KT P6SM FEW100 SCT200 FM111000 33012KT P6SM SCT100 BKN200", "KBIS 101129Z 1012/1112 VRB05KT P6SM SCT150 FM101500 19010KT P6SM SKC FM110000 VRB05KT P6SM SKC", "KBJC 101135Z 1012/1112 VRB05KT P6SM FEW120 FEW220 FM110100 26007KT P6SM SKC", "KBJI 101131Z 1012/1112 00000KT 2SM BR FEW060 FM101400 VRB03KT P6SM SKC FM101800 19008KT P6SM SKC", "KBKE 101120Z 1012/1112 VRB04KT P6SM SKC FM102000 31007KT P6SM SKC FM110400 VRB04KT P6SM SCT250", "TAF KBKF 100900Z 1009/1115 VRB06KT 9999 SKC 510013 QNH3000INS BECMG 1111/1112 19006KT 9999 SKC 530054 QNH2999INS TX22/1021Z TN07/1013Z", "KBKW 101125Z 1012/1112 28003KT P6SM SKC FM101500 32006KT P6SM SKC FM110000 00000KT P6SM SKC", "KBLF 101120Z 1012/1112 23002KT P6SM SKC FM101400 34004KT P6SM SKC", "KBLH 101141Z 1012/1112 VRB05KT P6SM FEW250", "KBLI 101128Z 1012/1112 00000KT 5SM BR SCT001 FM101400 18006KT P6SM SCT100 BKN200 FM102100 18012KT P6SM BKN045 OVC070 FM110300 18006KT P6SM SCT050 BKN200 FM110900 00000KT 5SM BR OVC006", "TAF KBLV 100800Z 1008/1114 VRB06KT 9999 SKC QNH3010INS BECMG 1100/1101 17006KT 9000 -RA BKN060 QNH3012INS TX26/1020Z TN07/1012Z", "KBMG 101120Z 1012/1112 20007KT P6SM SKC", "KBMI 101120Z 1012/1112 20007KT P6SM SCT080 FM110400 16008KT P6SM SCT250 FM110800 17011KT P6SM BKN050", "KBNA 101120Z 1012/1112 08004KT P6SM SKC", "KBNO 101120Z 1012/1112 VRB06KT P6SM SKC FM102200 29014G20KT P6SM SKC FM110200 27008KT P6SM SCT250", "KBOI 101120Z 1012/1112 14007KT P6SM SKC FM101800 31008KT P6SM SKC FM110300 13005KT P6SM SCT250", "KBOS 101120Z 1012/1118 19004KT P6SM BKN100 FM101700 24007KT P6SM VCSH BKN060 FM110000 31005KT P6SM BKN050 FM111300 28004KT P6SM FEW250", "KBPI 101120Z 1012/1112 30005KT P6SM SKC FM102000 29012G22KT P6SM SKC FM110100 30006KT P6SM SKC", "KBPK 101120Z 1012/1112 17005KT P6SM SCT070 SCT100 FM101400 20005KT P6SM BKN060 BKN100 FM110000 VRB03KT P6SM SCT070 OVC100", "KBPT 101120Z 1012/1112 VRB04KT P6SM SKC FM101600 09008KT P6SM SKC FM110200 VRB03KT P6SM SKC", "KBRD 101132Z 1012/1112 00000KT 1/4SM FG VV001 FM101300 00000KT 1SM BR SCT004 FM101400 18007KT P6SM FEW150 FM110300 17007KT P6SM FEW150 WS020/22045KT", "KBRL 101123Z 1012/1112 00000KT P6SM FEW200 FM111100 18007KT P6SM SCT160", "KBRO 101120Z 1012/1112 06004KT P6SM SCT050 FM101600 08009G15KT P6SM SCT040 FM110000 07009KT P6SM SCT040", "KBTL 101120Z 1012/1112 08004KT P6SM FEW080 FM101800 20006KT P6SM FEW070", "KBTM 101122Z 1012/1112 VRB04KT P6SM SKC FM102100 28012G20KT P6SM FEW200 FM110300 27011KT P6SM SCT200", "KBTR 101120Z 1012/1112 VRB03KT P6SM SKC FM102300 06005KT P6SM SKC FM110100 00000KT P6SM SKC FM110600 VRB03KT P6SM SKC", "KBTV 101120Z 1012/1112 VRB03KT P6SM VCSH OVC045 FM101400 30004KT P6SM SCT040", "KBUF 101120Z 1012/1112 23004KT P6SM BKN050 FM101400 34004KT P6SM BKN035 FM101700 30004KT P6SM SCT050 FM102100 26004KT P6SM FEW200 FM110400 18004KT P6SM FEW250", "KBUR 101140Z 1012/1112 VRB03KT 5SM HZ OVC007 FM101300 VRB03KT 3SM BR BKN004 FM101500 VRB03KT P6SM BKN008 FM101700 18008KT P6SM SKC FM110300 13006KT P6SM SKC FM110600 VRB03KT P6SM SKC FM111000 VRB03KT 6SM HZ BKN008", "KBVI 101120Z 1012/1112 22003KT P6SM SCT100 FM101600 25010KT P6SM SKC FM110000 19003KT P6SM SKC AMD LTD TO WIND VIS AND WX", "KBVO 101135Z 1012/1112 VRB03KT P6SM BKN080 TEMPO 1012/1015 4SM BR FM101600 21008KT P6SM SCT060 BKN100 PROB30 1021/1024 5SM -SHRA BKN060 FM110000 19006KT P6SM SCT050 BKN080 PROB30 1100/1106 5SM -SHRA BKN050 FM110600 18006KT 6SM -SHRA OVC060 PROB30 1106/1112 4SM -TSRA BKN040CB", "KBWG 101120Z 1012/1112 00000KT P6SM SKC FM101700 14005KT P6SM SKC FM110000 00000KT P6SM SKC", "KBWI 101128Z 1012/1118 26003KT P6SM SKC FM101400 28007KT P6SM FEW250 FM102300 23003KT P6SM SKC FM111400 28005KT P6SM SKC", "KBYI 101120Z 1012/1112 VRB06KT P6SM SKC FM101800 28012G22KT P6SM FEW250 FM110200 22008KT P6SM SKC", "KBZN 101121Z 1012/1118 VRB04KT P6SM SCT250 FM102000 27010KT P6SM SKC FM110900 25008KT P6SM SCT050 BKN080 PROB30 1112/1115 4SM -SHRA BR BKN030", "KCAE 101132Z 1012/1112 03004KT P6SM BKN025 FM101800 06005KT P6SM BKN040 FM110700 VRB03KT P6SM BKN025", "KCAK 101126Z 1012/1112 22006KT P6SM OVC080 FM101400 22006KT P6SM SCT250 FM110200 18005KT P6SM SKC", "KCAR 101120Z 1012/1112 VRB03KT P6SM FEW250 FM101700 26008G15KT P6SM FEW045 FM102100 25006KT P6SM FEW250", "KCDC 101120Z 1012/1112 14005KT P6SM SCT120 FM101900 33006KT P6SM VCSH SCT120 BKN150 FM110200 16007KT P6SM SKC", "KCDR 101120Z 1012/1112 24006KT P6SM SKC FM101800 24010KT P6SM FEW250", "KCDS 101141Z 1012/1112 22009KT P6SM SCT100 OVC250 FM102100 20011KT P6SM -SHRA SCT030 OVC060 FM110400 19010KT P6SM SCT070 SCT250", "KCEC 101141Z 1012/1112 VRB02KT 3/4SM BR VV002 FM101600 05003KT 1/4SM FG OVC002 FM102000 33008KT 4SM BR FEW004 FM102300 34013G20KT 6SM BR FEW006 FM110400 34013KT 1/4SM FG OVC001", "TAF KCEF 101110Z 1011/1117 VRB03KT 9999 FEW070 BKN100 621002 QNH3013INS BECMG 1014/1015 21006KT 9999 BKN065 OVC100 620656 QNH3012INS BECMG 1018/1019 25008KT 9999 BKN060 OVC085 620605 QNH3011INS BECMG 1020/1021 32006KT 9999 SCT050 QNH3012INS BECMG 1023/1024 32005KT 9999 FEW250 QNH3017INS WND VRB04KT AFT 1105 BECMG 1115/1116 22007KT 9999 FEW025 QNH3023INS TX17/1019Z TN03/1111Z", "KCGI 101120Z 1012/1112 00000KT P6SM SCT080 FM101500 20005KT P6SM SKC FM102300 17003KT P6SM SKC FM110800 16003KT P6SM SCT100", "KCHA 101120Z 1012/1112 03006KT P6SM SKC", "KCHO 101128Z 1012/1112 25003KT P6SM SKC FM101600 30005KT P6SM SKC FM102000 09004KT P6SM SKC FM102100 14003KT P6SM SKC", "KCHS 101120Z 1012/1112 03004KT P6SM BKN040 FM101400 04006KT P6SM BKN025 FM101700 05008KT P6SM SCT025 BKN035 FM102000 06010KT P6SM SCT030 BKN040 FM110600 03004KT P6SM SCT015 BKN035", "KCID 101123Z 1012/1112 VRB04KT P6SM SKC FM111100 17007KT P6SM FEW240", "KCIU 101129Z 1012/1112 VRB03KT P6SM SCT040", "KCKB 101125Z 1012/1112 VRB03KT P6SM SKC FM101300 VRB03KT P6SM FEW060 FM101600 25006KT P6SM SKC FM110000 00000KT P6SM SKC", "KCKV 101120Z 1012/1112 04004KT P6SM SKC", "KCLE 101126Z 1012/1118 22007KT P6SM SCT090 FM101500 24007KT P6SM SKC FM102200 36004KT P6SM SKC FM110400 17006KT P6SM SKC", "KCLL 101127Z 1012/1112 VRB02KT P6SM SKC FM101500 12006KT P6SM SKC FM102000 15008KT P6SM SKC FM110300 VRB03KT P6SM FEW250", "KCLM 101128Z 1012/1112 VRB03KT P6SM SKC FM101700 28006KT P6SM SCT100 BKN200 FM102100 28012KT P6SM BKN100 OVC200 FM110100 28012KT P6SM SCT200 FM110800 28006KT P6SM OVC011", "KCLT 101123Z 1012/1118 35003KT P6SM BKN050 FM101400 03005KT P6SM SCT050 FM102000 08006KT P6SM SCT070 FM110500 02004KT P6SM SCT140 FM111400 07005KT P6SM FEW150", "KCMA 101140Z 1012/1112 VRB03KT 6SM BR BKN006 FM101400 VRB03KT 4SM BR OVC006 FM101800 23008KT P6SM SKC FM110400 VRB03KT P6SM OVC008", "KCMH 101120Z 1012/1112 20003KT P6SM SCT070 FM101500 22008KT P6SM FEW070 FM102300 21003KT P6SM SKC", "KCMI 101120Z 1012/1112 VRB03KT P6SM SKC FM101600 21007KT P6SM SKC FM110800 15007KT P6SM BKN050", "KCMX 101120Z 1012/1112 VRB03KT P6SM SCT180 FM110400 20007KT P6SM FEW160", "KCNM 101121Z 1012/1112 31006KT P6SM SCT070 BKN100", "KCNU 101120Z 1012/1112 19004KT P6SM FEW230 FM101600 20007KT P6SM FEW250", "KCNY 101120Z 1012/1112 VRB04KT P6SM BKN120 FM102100 28006KT P6SM SCT250 FM110400 24005KT P6SM SKC", "KCOD 101120Z 1012/1112 VRB04KT P6SM SKC FM102200 26010G18KT P6SM SKC FM110200 26010KT P6SM SKC", "KCOE 101136Z 1012/1112 17005KT P6SM FEW250 FM101900 22011G18KT P6SM SCT250 FM102200 23013G21KT P6SM SCT150 FM110300 27008G13KT P6SM SKC FM110600 20004KT P6SM SKC", "KCON 101120Z 1012/1112 00000KT P6SM BKN090 FM101300 VRB03KT P6SM BKN040 BKN060 FM110000 00000KT P6SM SKC", "KCOS 101140Z 1012/1112 02005KT P6SM SKC FM101700 15007KT P6SM FEW090 FM102000 17012KT P6SM SCT090 FM110200 09006KT P6SM FEW100 FM110400 01005KT P6SM SKC", "KCOT 101120Z 1012/1112 10005KT P6SM FEW080 FM101600 13011KT P6SM SCT040 FM102200 12012G18KT P6SM SCT070 SCT150 FM110800 08005KT P6SM FEW070 FEW150", "KCOU 101120Z 1012/1112 19006KT P6SM SKC FM110300 VRB04KT P6SM BKN100 FM110900 18007KT 6SM -SHRA BKN050", "KCPR 101120Z 1012/1112 VRB05KT P6SM SKC FM101500 23009G15KT P6SM SKC FM102000 27012G20KT P6SM SKC FM110100 24009KT P6SM SKC", "KCPS 101120Z 1012/1112 VRB04KT P6SM FEW250 FM101500 20006KT P6SM SKC FM110300 VRB04KT P6SM BKN100", "KCRE 101120Z 1012/1112 06007KT P6SM OVC045 FM101400 05009KT P6SM BKN045 FM101600 07009KT P6SM BKN045 FM110100 06006KT P6SM SCT050 FM110500 04006KT P6SM SCT080", "KCRG 101133Z 1012/1112 33003KT 1/4SM FG OVC002 FM101300 36003KT 4SM BR SCT006 BKN015 FM101500 02009KT P6SM SCT030 FM102000 07010G15KT P6SM FEW060 FM110000 02004KT P6SM SCT250 FM110600 35003KT 5SM BR BKN009", "KCRP 101120Z 1012/1112 10006KT P6SM FEW025 FEW120 FM101600 11014KT P6SM SCT035 SCT120 FM102000 10016G22KT P6SM SCT040 SCT120 FM110300 09006KT P6SM FEW030 FEW150", "KCRQ 101137Z 1012/1112 VRB03KT P6SM OVC011 FM101800 25008KT P6SM SCT012 SCT100 TEMPO 1023/1102 BKN010 FM110200 VRB04KT P6SM OVC010", "KCRW 101125Z 1012/1112 00000KT 6SM BR SCT001 FM101300 VRB03KT P6SM SCT060 FM101500 24003KT P6SM SKC FM102300 00000KT P6SM SKC FM110900 00000KT 6SM BR SCT001", "KCSG 101132Z 1012/1112 34005KT P6SM SKC FM101300 01006KT P6SM SKC FM110000 02004KT P6SM FEW250 FM110800 06004KT P6SM SCT090 FM111000 05004KT P6SM SCT020", "KCSM 101126Z 1012/1112 22008KT P6SM VCSH BKN100 TEMPO 1012/1015 -RA BKN070 FM101500 19008KT P6SM SCT110 FM101900 20012G20KT P6SM BKN080 PROB30 1021/1103 4SM TSRA BR OVC025CB FM110300 18011G17KT P6SM BKN080 PROB30 1103/1106 4SM TSRA BR OVC018CB FM110600 18011G17KT P6SM BKN021 PROB30 1106/1112 4SM -SHRA BR OVC015", "KCSV 101120Z 1012/1112 05004KT P6SM SKC", "KCTB 101121Z 1012/1112 25009KT P6SM SCT150 FM101700 25017G32KT P6SM SCT150 FM102100 26032G43KT P6SM SCT150 FM110100 27020G30KT P6SM SCT100 BKN150 FM110500 34025G35KT P6SM VCSH SCT020 BKN040 TEMPO 1106/1109 3SM -SHRASN BR BKN025 FM111000 36014KT P6SM SCT020 BKN040", "KCUB 101132Z 1012/1112 04004KT P6SM BKN030 FM101800 05005KT P6SM BKN040 FM110700 VRB03KT P6SM BKN025", "KCVG 101120Z 1012/1118 20004KT P6SM FEW080 FM101500 21008KT P6SM FEW080 FM110000 18005KT P6SM SKC", "TAF AMD KCVS 100100Z 1001/1024 18008KT 9000 -DZ SCT050 BKN080 QNH3026INS BECMG 1001/1002 VRB06KT 9999 NSW BKN040 BKN070 QNH3023INS BECMG 1010/1011 VRB06KT 6000 BR OVC030 QNH3022INS BECMG 1015/1016 21008KT 9999 NSW BKN030 BKN080 QNH3015INS TEMPO 1018/1021 8000 -SHRA OVC030 TX17/1018Z TN12/1012Z LAST NO AMDS AFT 1001 NEXT 1112", "KCWA 101134Z 1012/1112 07003KT P6SM FEW005 FM101400 15004KT P6SM SKC", "KCXO 101127Z 1012/1112 VRB03KT P6SM SKC FM101500 11006KT P6SM SKC FM102100 14008KT P6SM SKC FM110300 VRB03KT P6SM SCT250", "KCXP 101120Z 1012/1112 VRB03KT P6SM SCT120 FM102100 05009KT P6SM SCT090 FM110300 VRB03KT P6SM SKC", "KCYS 101120Z 1012/1112 27008KT P6SM FEW250 FM101700 27012G22KT P6SM FEW250 FM110600 27015G25KT P6SM SCT250", "KDAB 101136Z 1012/1112 VRB05KT P6SM FEW025 SCT080 FM101500 02008KT P6SM SCT030 BKN050 FM101800 02010KT P6SM VCSH SCT030 BKN050 FM110000 02006KT P6SM SCT035 BKN080", "KDAG 101127Z 1012/1112 26007KT P6SM SKC FM101900 08008KT P6SM SCT120 PROB30 1022/1103 VRB20G30KT -TSRA BKN100CB FM110300 26008KT P6SM BKN120 FM110500 27007KT P6SM FEW200", "KDAL 101120Z 1012/1112 17009KT P6SM FEW100 SCT250 FM101900 17012KT P6SM VCSH FEW050 BKN080 FM110100 14011KT P6SM SCT080 BKN120", "KDAN 101120Z 1012/1112 00000KT P6SM BKN040 FM101600 36003KT P6SM SKC", "KDAY 101120Z 1012/1112 21009KT P6SM FEW070 FM102300 21006KT P6SM SKC", "KDBQ 101123Z 1012/1112 VRB03KT P6SM FEW250 FM110500 16007KT P6SM FEW250", "KDCA 101128Z 1012/1118 24003KT P6SM SKC FM101400 29007KT P6SM FEW250 FM102300 24004KT P6SM SKC FM111400 30005KT P6SM SKC", "KDDC 101120Z 1012/1112 VRB06KT P6SM FEW250 FM101700 19014KT P6SM FEW250", "KDEC 101120Z 1012/1112 VRB03KT P6SM SKC FM101700 22007KT P6SM SKC FM110600 17008KT P6SM BKN050", "KDEN 101135Z 1012/1118 23011KT P6SM SKC FM101400 VRB06KT P6SM FEW120 FEW220 FM102200 14006KT P6SM FEW120 FEW220 FM110300 20010KT P6SM SKC FM111500 25009KT P6SM FEW100 FEW200", "KDET 101120Z 1012/1112 32004KT P6SM SCT070 FM101500 VRB03KT P6SM SCT060 FM110100 16005KT P6SM SKC FM110600 21005KT P6SM SKC", "KDFW 101120Z 1012/1118 17009KT P6SM FEW100 SCT250 FM101900 18013KT P6SM VCSH FEW050 BKN080 FM110100 15011KT P6SM SCT080 BKN120", "KDHN 101120Z 1012/1112 35007KT P6SM SKC", "KDHT 101135Z 1012/1112 21006KT P6SM FEW150 FM101500 23010KT P6SM FEW160 FM101900 21012G22KT P6SM FEW250 FM110200 19011KT P6SM SCT230", "KDIJ 101120Z 1012/1112 VRB06KT P6SM SKC FM101800 24010G20KT P6SM FEW060 FEW250 FM110200 16008KT P6SM FEW250 AMD LTD TO CLD VIS AND WIND", "KDIK 101129Z 1012/1112 VRB05KT P6SM BKN150 FM101500 23008KT P6SM SKC FM110000 VRB05KT P6SM SKC", "KDLH 101132Z 1012/1112 00000KT 2SM BR SCT002 TEMPO 1012/1014 1/2SM FG OVC002 FM101400 VRB05KT P6SM FEW060 FEW150 FM110400 17004KT P6SM SCT010 WS020/21040KT", "KDLS 101124Z 1012/1112 30008KT P6SM SKC FM101800 31015G25KT P6SM SKC FM102100 30026G36KT P6SM SKC FM110300 30020G30KT P6SM SKC FM110600 30018G28KT P6SM SKC", "TAF KDMA 100603Z 1006/1112 09009KT 9999 SCT070 BKN100 QNH3004INS BECMG 1009/1010 10009KT 9999 FEW100 QNH3003INS BECMG 1022/1023 13009KT 9999 SCT080 QNH2999INS BECMG 1102/1103 VRB06KT 9999 SCT070 QNH2999INS TX29/1022Z TN15/1013Z", "KDMN 101121Z 1012/1112 13005KT P6SM SCT150 FM101700 08007KT P6SM FEW050 SCT100", "KDNL 101132Z 1012/1112 35006KT P6SM BKN020 FM101900 06005KT P6SM BKN040 FM110700 05005KT P6SM BKN012", "TAF KDOV 100800Z 1008/1114 28006KT 9999 SKC QNH3020INS BECMG 1021/1022 24006KT 9999 SKC QNH3023INS BECMG 1105/1106 27006KT 9999 SKC QNH3030INS TX19/1018Z TN06/1011Z", "KDPA 101120Z 1012/1112 VRB03KT P6SM FEW080 FM101700 23007KT P6SM FEW080 FM110200 07004KT P6SM FEW250 FM110600 18005KT P6SM SCT250", "KDRO 101120Z 1012/1112 03003KT P6SM SKC FM102000 24007KT P6SM SCT250 FM110100 28007KT P6SM FEW250 FM110500 28005KT P6SM SKC", "KDRT 101120Z 1012/1112 11009KT P6SM FEW020 SCT090 FM101500 14015G25KT P6SM VCSH BKN070 BKN150 FM110100 12011KT P6SM VCSH SCT070 SCT150 FM110900 10009KT P6SM SCT020 SCT150", "KDSM 101121Z 1012/1112 VRB04KT P6SM FEW250 FM102000 19008KT P6SM SCT250", "KDTW 101120Z 1012/1118 32004KT P6SM SCT070 FM101500 VRB03KT P6SM SCT060 FM110100 16005KT P6SM SKC FM110600 21005KT P6SM SKC", "KDUJ 101120Z 1012/1112 22005KT P6SM BKN090 FM101800 26010KT P6SM SCT050 FM110000 21003KT P6SM SKC", "KDVL 101131Z 1012/1112 18009KT P6SM SKC FM101500 19012KT P6SM SKC FM102100 20014G22KT P6SM SKC FM110000 17010KT P6SM SKC", "KDVT 101141Z 1012/1112 06005KT P6SM FEW100 FEW250 FM101500 10010G18KT P6SM SKC FM101800 13006KT P6SM FEW100 FEW250 FM110000 19005KT P6SM FEW100 FEW250 FM110300 06007KT P6SM FEW100 FEW250", "TAF AMD KDYS 092020Z 0920/1100 18009KT 9999 BKN090 QNH3017INS BECMG 1002/1003 VRB06KT 9000 -SHRA BKN070 QNH3020INS BECMG 1005/1006 17012KT 9999 NSW BKN080 QNH3016INS BECMG 1014/1015 21010G15KT 9999 BKN050 QNH3008INS BECMG 1021/1022 19012G18KT 9000 -SHRA BKN080 QNH3007INS TX26/0921Z TN17/1013Z LAST NO AMDS AFT 0920 NEXT 1112", "KEAR 101139Z 1012/1112 VRB03KT P6SM FEW250 FM101500 20006KT P6SM SKC FM101800 18014G18KT P6SM SKC FM102300 17010KT P6SM SKC FM110900 20011KT P6SM SKC", "KEAT 101136Z 1012/1112 30009KT 4SM FU HZ BKN021 FM101500 30005KT 3SM FU HZ OVC020 FM102100 29016G24KT P6SM SCT200 FM110500 30014G20KT P6SM SKC FM110900 29009KT P6SM SKC", "KEAU 101120Z 1012/1112 09004KT P6SM FEW015 FM101400 16006KT P6SM FEW150", "KECG 101120Z 1012/1112 VRB02KT P6SM FEW060 TEMPO 1012/1013 2SM BR FM101400 VRB04KT P6SM SCT060 FM110000 VRB02KT P6SM SKC", "KECP 101120Z 1012/1112 35005KT P6SM SKC", "KEED 101127Z 1012/1112 VRB04KT P6SM SKC FM101900 12007KT P6SM SCT120 FM110200 21009KT P6SM SCT120 FM110500 VRB05KT P6SM FEW200", "KEET 101120Z 1012/1112 VRB03KT P6SM SKC FM101600 03007KT P6SM SKC FM110100 VRB03KT P6SM FEW250", "TAF KEFD 100400Z 1004/1110 VRB06KT 9999 SKC QNH3017INS BECMG 1017/1018 09010G15KT 9999 SKC QNH3012INS BECMG 1104/1105 VRB06KT 9999 FEW020 QNH3012INS TX27/1019Z TN18/1012Z", "KEFK 101120Z 1012/1112 00000KT P6SM BKN035 FM101300 00000KT P6SM BKN090 FM101800 26005KT P6SM SCT040", "KEGE 101120Z 1012/1112 VRB03KT P6SM SKC FM101930 24008KT P6SM SCT250 FM110200 17006KT P6SM FEW250 FM110600 VRB03KT P6SM SKC", "KEKN 101125Z 1012/1112 00000KT 1SM BR OVC001 FM101300 00000KT 4SM BR SCT001 FM101400 30004KT P6SM SKC FM102300 00000KT P6SM SKC FM110500 00000KT 1SM BR BKN001", "KEKO 101126Z 1012/1112 VRB04KT P6SM FEW120 FM102200 28010G20KT P6SM FEW120 FM110200 VRB06KT P6SM SKC", "KEKS 101121Z 1012/1112 VRB06KT P6SM SCT250 FM101800 23013KT P6SM SKC FM102200 26013KT P6SM SKC FM111000 25010KT P6SM SCT050 BKN080", "KELD 101120Z 1012/1112 00000KT P6SM SKC FM101400 VRB04KT P6SM SCT080 SCT250 FM110000 15005KT P6SM FEW070", "KELM 101120Z 1012/1112 VRB03KT P6SM BKN060 FM101300 26006KT P6SM BKN070 FM102100 33005KT P6SM SCT070 FM110000 00000KT P6SM FEW220 FM110700 00000KT 1SM BR FEW240", "KELP 101121Z 1012/1112 06005KT P6SM SCT150 BKN200 FM101800 18006KT P6SM SCT070", "KELY 101126Z 1012/1112 18009KT P6SM SCT120 FM101600 VRB06KT P6SM SCT120 FM110200 18010KT P6SM FEW120", "TAF AMD KEND 100229Z 1002/1108 20006KT 9999 SCT050 QNH3011INS BECMG 1014/1015 21012G22KT 9999 SCT030 OVC250 QNH3014INS BECMG 1020/1021 18011KT 9000 SHRA VCTS BKN050CB OVC250 QNH3005INS BECMG 1021/1022 21011KT 9999 NSW BKN250 QNH3003INS BECMG 1105/1106 17020G30KT 8000 -TSRA OVC010CB QNH3003INS TX27/1021Z TN13/1012Z LAST NO AMDS AFT 1003 NEXT 1010", "KENV 101120Z 1012/1112 VRB04KT P6SM SKC FM101900 12007KT P6SM SKC FM110000 31006KT P6SM FEW250", "KENW 101131Z 1012/1112 08006KT P6SM SKC FM101500 11009KT P6SM FEW250 FM110300 15004KT P6SM FEW250 FM110900 20006KT P6SM FEW200", "KERI 101126Z 1012/1112 21010KT P6SM OVC070 FM101700 26007KT P6SM FEW250 FM110200 17005KT P6SM SKC", "KEUG 101140Z 1012/1112 00000KT P6SM SKC FM101300 00000KT 1/2SM FG VV002 FM101600 VRB03KT 2SM BR HZ SCT003 FM101800 35009KT P6SM SKC FM110500 32005KT P6SM BKN040 FM111000 VRB03KT P6SM OVC015", "KEUL 101120Z 1012/1112 VRB05KT P6SM SKC FM101800 32008KT P6SM SKC FM110200 VRB05KT P6SM SCT250", "KEVV 101120Z 1012/1112 00000KT P6SM SKC FM101500 19006KT P6SM SKC FM102300 16005KT P6SM SKC", "KEVW 101120Z 1012/1112 17006KT P6SM SKC FM101700 28014G24KT P6SM SKC FM110300 21010KT P6SM FEW250", "KEWN 101125Z 1012/1112 VRB06KT P6SM BKN060", "KEWR 101120Z 1012/1118 24004KT P6SM BKN100 FM101600 26010KT P6SM SCT100 BKN250 FM102300 27006KT P6SM BKN120 FM110300 33004KT P6SM FEW250 FM111500 25005KT P6SM FEW250", "KEYW 101136Z 1012/1112 08009KT P6SM FEW020", "KFAR 101131Z 1012/1112 16005KT P6SM SKC FM101700 18011KT P6SM SKC FM102000 18013G20KT P6SM SKC FM110000 16009KT P6SM SKC", "KFAT 101120Z 1012/1112 VRB06KT P6SM SKC FM110000 31009KT P6SM SKC FM110200 VRB06KT P6SM SKC", "KFAY 101120Z 1012/1112 03005KT P6SM BKN050 FM110000 VRB03KT P6SM SCT060", "TAF KFBG 100900Z 1009/1115 VRB06KT 9999 FEW025 BKN055 QNH3020INS TX22/1020Z TN11/1111Z", "KFDY 101126Z 1012/1112 22005KT P6SM FEW250 FM102300 19006KT P6SM SKC", "TAF KFFO 101100Z 1011/1117 VRB06KT 9999 FEW080 QNH3017INS BECMG 1013/1014 23009KT 9999 SCT050 QNH3018INS BECMG 1022/1023 20006KT 9999 SKC QNH3019INS BECMG 1114/1115 19010G15KT 9999 FEW050 FEW250 QNH3021INS TX22/1020Z TN04/1011Z", "KFKL 101120Z 1012/1112 21005KT P6SM BKN070 FM101600 27010KT P6SM SCT050 FM110000 16003KT P6SM SKC", "KFLG 101120Z 1012/1112 VRB03KT P6SM SKC FM101900 07007KT P6SM SCT080 FM110200 VRB03KT P6SM SKC", "KFLL 101120Z 1012/1118 VRB03KT P6SM VCSH SCT020 SCT070 FM101500 11008KT P6SM VCSH SCT030 BKN045 FM102000 08009KT P6SM SCT035 BKN050 FM110300 11008KT P6SM SCT030 BKN250 FM111600 10011KT P6SM VCSH BKN030 BKN050", "KFLO 101120Z 1012/1112 05005KT P6SM VCSH OVC040 FM101500 07007KT P6SM BKN035 FM102000 08008KT P6SM BKN035 FM110200 06004KT P6SM SCT060", "KFMH 101120Z 1012/1112 00000KT P6SM FEW110 FM101300 18003KT P6SM BKN120 FM101600 22007KT P6SM BKN090 FM110100 27003KT P6SM FEW090 FM110500 00000KT P6SM FEW200", "KFMN 101122Z 1012/1112 08006KT P6SM FEW250 FM102100 27007KT P6SM SCT100 FM110200 VRB05KT P6SM FEW100", "KFMY 101120Z 1012/1112 06005KT P6SM SCT010 BKN080 TEMPO 1012/1013 BKN010 FM101300 07006KT P6SM SCT020 BKN080 FM101800 01006KT P6SM VCSH SCT030 BKN050 FM110100 07006KT P6SM SCT040", "KFNT 101120Z 1012/1112 35004KT P6SM SKC FM101500 32004KT P6SM SCT060 FM110100 12005KT P6SM SKC FM110600 20003KT P6SM SKC", "KFOD 101121Z 1012/1112 15003KT P6SM FEW250 FM101900 20008KT P6SM FEW250 FM110900 17011G19KT P6SM SCT250", "KFOE 101127Z 1012/1112 VRB03KT P6SM SKC FM101600 18008KT P6SM SCT250", "KFPR 101136Z 1012/1112 VRB04KT P6SM SCT015 SCT070 FM101500 VRB05KT P6SM VCSH SCT025 BKN040 FM101800 05009KT P6SM VCTS SCT030CB BKN050 TEMPO 1018/1021 3SM TSRA BKN030CB FM110000 06005KT P6SM SCT035 BKN150", "KFSD 101120Z 1012/1112 VRB03KT P6SM FEW250 FM101600 15005KT P6SM SCT230 FM102000 18011KT P6SM SCT250 FM110200 17009G18KT P6SM SCT250 WS010/18040KT", "KFSM 101135Z 1012/1112 00000KT P6SM SCT100 BKN250 FM101500 VRB05KT P6SM SCT070 BKN100 PROB30 1021/1024 5SM -SHRA BKN070 FM110000 VRB05KT P6SM SCT050 BKN080 PROB30 1100/1106 5SM -SHRA BKN050", "KFST 101121Z 1012/1112 17007KT P6SM -RA OVC070 FM101400 20007KT P6SM OVC100", "KFTW 101120Z 1012/1112 17009KT P6SM FEW100 SCT250 FM101900 18013KT P6SM VCSH FEW050 BKN080 FM110100 15011KT P6SM SCT080 BKN120", "KFTY 101132Z 1012/1112 35005KT P6SM SKC FM101500 02006KT P6SM SKC FM110400 07003KT P6SM FEW250 FM110900 07005KT P6SM SCT010 BKN020", "KFVE 101120Z 1012/1112 25005KT P6SM SCT250 FM101800 26008G15KT P6SM SCT035 FM102200 25006KT P6SM FEW200", "KFWA 101121Z 1012/1112 21005KT P6SM SCT080", "KFXE 101120Z 1012/1112 VRB04KT P6SM VCSH SCT020 SCT070 FM101500 11007KT P6SM VCSH SCT030 BKN045 FM102000 08009KT P6SM SCT035 BKN050 FM110300 11006KT P6SM SCT030 BKN250", "KFYV 101135Z 1012/1112 19003KT P6SM SCT100 BKN250 FM101500 22008KT P6SM SCT070 BKN100 PROB30 1021/1024 5SM -SHRA BKN070 FM110000 VRB04KT P6SM SCT050 BKN080 PROB30 1100/1106 5SM -SHRA BKN050 FM110600 VRB04KT P6SM SCT040 BKN070 PROB30 1106/1112 4SM -TSRA BKN040CB", "KGBD 101120Z 1012/1112 VRB03KT P6SM FEW250 FM101500 18006KT P6SM FEW250 FM110600 19013KT P6SM FEW250", "KGCC 101120Z 1012/1112 23007KT P6SM SCT200", "KGCK 101120Z 1012/1112 VRB06KT P6SM FEW250 FM101600 19014KT P6SM FEW250", "KGCN 101120Z 1012/1112 VRB03KT P6SM SKC FM101800 05006KT P6SM FEW080 FM110200 VRB03KT P6SM SKC", "KGDV 101123Z 1012/1112 VRB05KT P6SM SKC FM102000 22009KT P6SM SKC FM110800 26009KT P6SM BKN130 WS020/29035KT FM111100 29012G23KT P6SM BKN140 WS020/33035KT", "KGEG 101136Z 1012/1112 16008KT P6SM SCT250 FM101800 21010KT P6SM FEW250 FM102000 23015G22KT P6SM SCT180 FM110300 25011KT P6SM SKC", "KGFK 101131Z 1012/1112 18005KT P6SM SKC FM101600 18011KT P6SM SKC FM102000 18013G22KT P6SM FEW250 FM110000 17012KT P6SM SKC", "KGFL 101130Z 1012/1112 VRB02KT P6SM VCSH OVC040 FM101500 22009KT P6SM VCSH BKN040 FM101800 24009KT P6SM SCT050 FM110000 25003KT P6SM SCT050", "KGGG 101120Z 1012/1112 00000KT P6SM SKC FM101800 14005KT P6SM FEW070 SCT250 FM110300 15005KT P6SM FEW080 FM110900 17005KT P6SM SCT250", "KGGW 101123Z 1012/1112 12006KT P6SM SKC FM101800 18009KT P6SM SKC FM110500 25010G18KT P6SM SCT150 WS020/28040KT FM110800 29013KT P6SM BKN120 WS020/29045KT FM111000 32016G25KT P6SM BKN090", "KGJT 101120Z 1012/1112 09008KT P6SM FEW140 FM101330 13009KT P6SM FEW150 FM101800 18007KT P6SM FEW250 FM102100 29007KT P6SM FEW250 FM110200 03005KT P6SM SKC FM110900 11006KT P6SM FEW250", "KGKY 101120Z 1012/1112 17009KT P6SM FEW100 SCT250 FM101900 17013KT P6SM VCSH FEW050 BKN080 FM110100 14011KT P6SM SCT080 BKN120", "KGLD 101138Z 1012/1112 20005KT P6SM SKC FM101800 19012G20KT P6SM SKC FM102200 19010KT P6SM SKC FM111100 24009KT P6SM SKC", "KGLH 101146Z 1012/1112 14005KT P6SM SCT080", "KGLS 101127Z 1012/1112 03006KT P6SM SKC FM101500 08012KT P6SM SKC FM102100 11013KT P6SM SKC FM110400 11008KT P6SM SKC", "KGMU 101123Z 1012/1112 36006KT P6SM SKC FM101400 02005KT P6SM SCT050 FM101700 05006KT P6SM FEW050 FM110100 06004KT P6SM FEW250 FM110600 02005KT P6SM SCT090 FM110900 03004KT P6SM BKN050", "KGNV 101133Z 1012/1112 02004KT P6SM SKC FM102000 07005KT P6SM SCT050 SCT250 FM110600 02006KT 4SM BR SCT002 BKN009", "KGON 101120Z 1012/1112 VRB03KT P6SM OVC100 FM101500 24010KT P6SM BKN100 FM102100 28006KT P6SM SCT100 BKN250 FM110300 34003KT P6SM FEW250", "KGPI 101122Z 1012/1112 VRB04KT 2SM BR SKC TEMPO 1012/1015 1/2SM FG FM101500 VRB05KT P6SM SKC FM102100 21012G20KT P6SM BKN200 FM110200 20010KT P6SM BKN200 FM110500 05012KT P6SM BKN050", "KGPT 101120Z 1012/1112 04006KT P6SM SKC", "KGRB 101134Z 1012/1112 01005KT P6SM SCT020 TEMPO 1012/1016 BKN020 FM101600 12003KT P6SM SCT035 FM101800 17004KT P6SM SKC", "TAF COR KGRF 100720Z 1007/1111 02005KT 9999 SKC QNH3009INS LAST NO AMDS AFT 1007Z NEXT 1114Z TX23/1103Z TN11/1015Z", "KGRI 101139Z 1012/1112 VRB02KT P6SM FEW250 FM101500 20006KT P6SM SKC FM101800 19013G18KT P6SM SKC FM102300 18010KT P6SM SKC", "TAF AMD KGRK 100801Z 1008/1114 17009KT 9999 BKN120 QNH3016INS BECMG 1011/1012 18006KT 9999 SKC QNH3019INS BECMG 1017/1018 15010G15KT 9999 SCT065 QNH3008INS BECMG 1021/1022 16009KT 9999 SCT065 QNH3006INS TX31/1021Z TN16/1011Z", "KGRR 101120Z 1012/1112 07005KT P6SM FEW070", "KGSO 101120Z 1012/1112 VRB03KT P6SM BKN050 FM101500 36005KT P6SM SCT050 FM110000 05003KT P6SM SKC", "KGSP 101123Z 1012/1112 00000KT P6SM SKC FM101400 02005KT P6SM SCT050 FM101700 05006KT P6SM FEW050 FM110100 06004KT P6SM FEW250 FM110600 02005KT P6SM SCT090 FM110900 03004KT P6SM BKN050", "TAF KGTB 100900Z 1009/1115 33005KT 9999 BKN040 QNH3010INS BECMG 1012/1013 33005KT 9999 SCT080 QNH3015INS BECMG 1100/1101 15005KT 9999 SCT100 QNH3023INS TX11/1019Z TN04/1012Z", "KGTF 101121Z 1012/1112 21007KT P6SM SKC FM101700 23015G24KT P6SM SCT150 FM102100 24023G33KT P6SM SCT150 FM110100 24014KT P6SM SCT100 BKN150 FM110800 34015G20KT P6SM SCT040 BKN060 TEMPO 1110/1112 3SM -RASN BR BKN020", "KGTR 101146Z 1012/1112 36004KT P6SM SKC", "KGUC 101120Z 1012/1112 04003KT P6SM SKC FM102000 25008KT P6SM SCT200 FM110200 31007KT P6SM SKC FM110600 00000KT P6SM FEW250", "KGUP 101122Z 1012/1112 VRB05KT P6SM FEW050 FM102100 VRB06KT P6SM VCSH SCT070 BKN120 FM110400 VRB04KT P6SM SCT100", "TAF KGUS 092100Z 0921/1103 26010G15KT 9999 SKC QNH3010INS TEMPO 0921/0924 26015G25KT BECMG 0923/0924 VRB06KT 9999 FEW065 FEW170 QNH3011INS TX22/1020Z TN05/1011Z LAST NO AMDS AFT 1003 NEXT 1013", "KGUY 101135Z 1012/1112 22005KT P6SM FEW240 FM101500 23010KT P6SM FEW240 FM102300 19015KT P6SM FEW190 FM110800 21014KT P6SM FEW240", "KGWO 101146Z 1012/1112 09004KT P6SM FEW080", "KGYY 101120Z 1012/1112 18003KT P6SM SCT080 FM101700 23007KT P6SM FEW080 TEMPO 1021/1024 VRB03KT FM110000 03006KT P6SM FEW250 FM110500 18005KT P6SM SCT250", "KHBG 101146Z 1012/1112 04006KT P6SM SKC", "KHCR 101120Z 1012/1112 VRB02KT P6SM FEW180 FM102100 28008KT P6SM SKC FM110200 VRB02KT P6SM FEW200", "KHDC 101120Z 1012/1112 00000KT P6SM SKC", "KHDN 101120Z 1012/1112 11010KT P6SM SKC FM101800 25009KT P6SM SKC FM101930 28008KT P6SM FEW250 FM102200 28014G22KT P6SM FEW250 FM110200 25007KT P6SM SKC FM110400 12004KT P6SM SKC", "KHIB 101132Z 1012/1112 00000KT 1/4SM FZFG VV002 FM101400 VRB03KT P6SM BKN004 FM101600 18006KT P6SM SCT150 FM110500 17003KT P6SM FEW150 WS020/22035KT", "KHIE 101136Z 1012/1112 00000KT P6SM SCT003 BKN029 OVC035 FM101300 00000KT P6SM BKN030 BKN060 FM101600 30003KT P6SM BKN050 FM102100 00000KT P6SM FEW250", "KHIO 101140Z 1012/1112 00000KT P6SM SKC FM101300 00000KT 5SM MIFG BR FEW001 FM101700 32007KT P6SM SKC FM110300 30005KT P6SM BKN040 FM110900 VRB03KT P6SM OVC015", "KHKS 101146Z 1012/1112 08004KT P6SM SKC", "KHKY 101123Z 1012/1112 34003KT 3SM BR SCT002 TEMPO 1012/1013 1/2SM FG VV001 BKN050 FM101400 04004KT P6SM FEW050 FM101700 07004KT P6SM FEW250 FM110100 06003KT P6SM SKC FM110600 02004KT P6SM FEW250", "KHLG 101120Z 1012/1112 20003KT P6SM SCT150 FM101600 25010KT P6SM SKC FM110000 20003KT P6SM SKC", "KHLN 101121Z 1012/1112 VRB04KT P6SM VCFG SKC TEMPO 1013/1015 1/2SM FG BKN003 FM101700 25009KT P6SM SKC FM102100 27016G26KT P6SM SCT250 FM110100 27010KT P6SM SCT100 BKN150 FM111100 34015KT P6SM SCT040 BKN060", "TAF COR KHMN 091555Z 0913/1019 VRB06KT 9999 SCT040 BKN060 QNH3031INS BECMG 0915/0916 03009KT 9000 -SHRA SCT030 BKN040 QNH3034INS TEMPO 0920/0922 VCTS SCT030CB BKN040 BECMG 0922/0923 VRB06KT 9999 NSW SCT040 QNH3022INS TX19/0923Z TN14/1013Z LAST NO AMDS AFT 0920 NEXT 1109", "KHNB 101120Z 1012/1112 17004KT P6SM SKC FM101500 18008KT P6SM SKC FM102300 14005KT P6SM SKC", "KHND 101127Z 1012/1112 19006KT P6SM FEW200 FM101300 VRB04KT P6SM FEW120 FM101900 04006KT P6SM SCT120 FM110100 19008KT P6SM FEW120 SCT250 FM110600 19007KT P6SM FEW250", "KHOB 101121Z 1012/1112 09007KT 2SM BR BKN009 TEMPO 1012/1015 1/2SM FG OVC002 FM101700 15007KT P6SM BKN040", "KHON 101120Z 1012/1112 10003KT P6SM FEW250 FM101600 16012G18KT P6SM SCT200 FM110100 17012G22KT P6SM SCT150 WS010/18041KT FM111000 16009G16KT P6SM FEW250", "TAF KHOP 100800Z 1008/1114 VRB06KT 9999 SKC QNH3020INS TX22/1020Z TN06/1012Z", "KHOT 101120Z 1012/1112 VRB04KT P6SM SCT080 BKN120 FM110200 VRB03KT P6SM FEW120", "KHOU 101127Z 1012/1112 VRB02KT P6SM SKC FM101500 09007KT P6SM SKC FM102100 13009KT P6SM FEW250 FM110200 VRB04KT P6SM SCT250", "KHPN 101120Z 1012/1112 VRB04KT P6SM BKN080 FM101500 26007KT P6SM SCT080 BKN250 FM102300 32004KT P6SM BKN120 FM110300 VRB03KT P6SM FEW250 AMD NOT SKED", "KHQM 101128Z 1012/1112 VRB03KT 1/4SM FG VV002 FM101500 24006KT P6SM SKC FM102100 26014KT P6SM BKN100 OVC200 FM110500 23010KT P6SM BKN008 OVC015 FM110900 23004KT 5SM BR OVC002", "KHRL 101120Z 1012/1112 06004KT P6SM FEW035 FM101500 10010G15KT P6SM SCT040 FM110000 10007KT P6SM FEW030 SCT050", "KHRO 101120Z 1012/1112 22006KT P6SM BKN060 BKN100 FM110000 17004KT P6SM SCT070 BKN100 FM110900 16004KT P6SM BKN070 OVC100 PROB30 1109/1112 6SM -SHRA", "TAF AMD KHRT 091500Z 0915/1016 04010G15KT 9999 SCT250 QNH3024INS BECMG 0923/0924 01009KT 9999 SKC QNH3015INS TX27/0918Z TN12/1010Z LAST NO AMDS AFT 0915 NEXT 1110", "TAF KHST 101100Z 1011/1117 VRB05KT 9999 FEW025 QNH2999INS BECMG 1014/1015 09009KT 9999 FEW025 SCT050 QNH2998INS TX30/1019Z TN24/1011Z", "KHSV 101120Z 1012/1112 VRB03KT P6SM SKC FM101500 04007KT P6SM SKC FM110000 VRB04KT P6SM SKC", "KHTS 101125Z 1012/1112 20004KT P6SM SKC FM110000 00000KT P6SM SKC", "KHUF 101120Z 1012/1112 20008KT P6SM FEW250", "KHUL 101120Z 1012/1112 26004KT P6SM FEW250", "KHUM 101120Z 1012/1112 04005KT P6SM SKC FM102300 07006KT P6SM SKC FM110100 00000KT P6SM SKC", "KHUT 101120Z 1012/1112 VRB03KT P6SM FEW250 FM101400 17004KT P6SM FEW250 FM101800 18010KT P6SM FEW240", "KHVR 101121Z 1012/1112 VRB04KT P6SM SCT200 FM101500 21007KT P6SM SCT200 FM101700 23013G23KT P6SM SCT150 FM102200 24020G31KT P6SM SCT150 FM110100 25014KT P6SM SCT100 BKN150 FM110800 34011KT P6SM SCT040 BKN060 TEMPO 1109/1112 -SHRA BKN040", "KHYA 101120Z 1012/1112 00000KT P6SM FEW110 FM101300 17003KT P6SM SCT110 FM101500 20007KT P6SM BKN100 FM101800 23010G19KT P6SM BKN070 FM110100 25005KT P6SM FEW070 FM110700 32004KT P6SM FEW200", "KHYR 101132Z 1012/1112 00000KT P6SM SKC FM101500 17007KT P6SM FEW150 FM110600 17005KT P6SM FEW150 WS020/22040KT", "KHYS 101120Z 1012/1112 VRB06KT P6SM FEW250 FM101700 18014KT P6SM FEW250", "TAF AMD KIAB 100230Z 1002/1105 27009KT 9999 SKC QNH2999INS TX27/1021Z TN11/1012Z LAST NO AMDS AFT 1002 NEXT 1110", "KIAD 101128Z 1012/1118 25003KT P6SM SKC FM101400 30006KT P6SM FEW250 FM102300 24003KT P6SM SKC FM111400 32005KT P6SM SKC", "KIAG 101120Z 1012/1112 VRB04KT P6SM VCSH BKN050 FM101400 01004KT P6SM BKN045 FM101700 32005KT P6SM SCT120 FM102100 27004KT P6SM FEW250 FM110500 19005KT P6SM FEW250", "KIAH 101127Z 1012/1118 VRB02KT P6SM SKC FM101600 10007KT P6SM SKC FM102300 14008KT P6SM FEW250 FM110300 VRB04KT P6SM SCT250 FM111500 11007KT P6SM FEW035", "KICT 101120Z 1012/1112 VRB03KT P6SM FEW250 FM101600 18008KT P6SM SCT240 FM101700 19010KT P6SM SCT250", "KIDA 101120Z 1012/1112 VRB06KT P6SM SKC FM101800 23015G25KT P6SM FEW100 FEW250 FM110200 21010KT P6SM FEW200", "KIFP 101127Z 1012/1112 VRB03KT P6SM SKC FM101900 20006KT P6SM SCT120 FM110400 34006KT P6SM SCT120 FM110600 VRB05KT P6SM FEW200", "KILG 101120Z 1012/1112 VRB03KT P6SM SKC FM101500 26008KT P6SM FEW050", "KILM 101120Z 1012/1112 07006KT P6SM OVC050 FM101400 07008KT P6SM OVC060 FM102000 08008KT P6SM BKN050 FM110000 05005KT P6SM SCT060", "KILN 101120Z 1012/1112 20006KT P6SM SCT070 FM101500 23009KT P6SM FEW070 FM102300 21006KT P6SM SKC", "KIND 101120Z 1012/1118 20008KT P6SM SKC TEMPO 1017/1021 22010G18KT FM102300 17006KT P6SM FEW250 FM111400 19010G20KT P6SM BKN150", "KINK 101121Z 1012/1112 14005KT P6SM VCSH SCT040 BKN100", "KINL 101132Z 1012/1112 00000KT P6SM SCT150 FM101300 21007KT P6SM FEW040 FEW150 FM110500 18006KT P6SM FEW150 WS020/22040KT", "KINT 101120Z 1012/1112 VRB03KT P6SM BKN050 FM101400 36004KT P6SM SCT050 FM110000 05003KT P6SM SKC", "KINW 101120Z 1012/1112 12005KT P6SM SKC FM102100 06005KT P6SM FEW100 FM110200 VRB05KT P6SM SKC", "KIPL 101141Z 1012/1112 VRB05KT P6SM SKC FM101900 11006KT P6SM SKC FM110200 25005KT P6SM FEW250 FM110600 VRB05KT P6SM FEW250", "KIPT 101129Z 1012/1112 VRB03KT P6SM VCSH SCT060 BKN080 FM101600 26006KT P6SM SCT250", "KISM 101136Z 1012/1112 36005KT P6SM FEW025 SCT090 FM101500 02007KT P6SM VCSH SCT035 BKN050 FM101800 04010KT P6SM VCSH SCT040 BKN060 FM110000 03007KT P6SM SCT025 BKN060", "KISO 101125Z 1012/1112 VRB06KT P6SM BKN050 FM110300 VRB06KT P6SM SCT050 AMD LTD TO CLD VIS AND WIND", "KISP 101120Z 1012/1112 VRB03KT P6SM BKN100 FM101400 25009KT P6SM BKN100 FM110100 30005KT P6SM BKN120 FM110500 VRB03KT P6SM FEW250", "KITH 101120Z 1012/1112 VRB04KT P6SM VCSH OVC060 FM101700 26008KT P6SM BKN050 FM110000 00000KT P6SM SCT250", "KIWA 101141Z 1012/1112 12007KT P6SM FEW100 FEW250 FM101500 10010G18KT P6SM SKC FM101900 11006KT P6SM FEW100 FEW250 FM102200 20005KT P6SM FEW100 FEW250 FM110300 10007KT P6SM FEW100 FEW250", "KIWD 101120Z 1012/1112 VRB04KT P6SM FEW180 FM101700 20006KT P6SM FEW200 FM102000 20007KT P6SM SKC FM110000 18005KT P6SM FEW180 FM110300 18008KT P6SM SKC WS020/21035KT FM111000 19010G19KT P6SM FEW130 WS020/23040KT", "KIXD 101121Z 1012/1112 VRB02KT P6SM SKC TEMPO 1012/1013 4SM BR SCT050 FM101300 VRB04KT P6SM FEW050 FM101800 19008KT P6SM SCT250 FM110000 18010KT P6SM BKN100", "KJAC 101120Z 1012/1112 22005KT P6SM SKC FM101900 27010G18KT P6SM SKC FM110100 18007KT P6SM SKC", "KJAN 101146Z 1012/1112 08005KT P6SM SKC", "KJAX 101133Z 1012/1112 00000KT 1/4SM FG OVC002 FM101300 36003KT 4SM BR SCT005 BKN015 FM101500 02006KT P6SM SCT030 FM102000 07010KT P6SM FEW060 FM110000 01004KT P6SM SCT250 FM110600 35003KT 5SM BR BKN009", "KJBR 101127Z 1012/1112 VRB02KT P6SM SKC FM101500 20006KT P6SM FEW080 FM110000 16003KT P6SM FEW080", "KJCT 101129Z 1012/1112 VRB05KT P6SM FEW250 FM101500 16007KT P6SM FEW250 FM101700 17011G18KT P6SM FEW250 FM102000 17011G18KT P6SM OVC100 FM110100 16007KT P6SM OVC100", "KJEF 101120Z 1012/1112 19006KT P6SM SKC FM110300 VRB04KT P6SM BKN100 FM110900 18007KT 6SM -SHRA BKN050", "KJER 101120Z 1012/1112 VRB06KT P6SM SKC FM101800 25011KT P6SM SKC FM110300 23007KT P6SM FEW150", "KJFK 101120Z 1012/1118 25007KT P6SM BKN100 FM101700 24011KT P6SM SCT100 BKN250 FM110000 26007KT P6SM BKN120 FM110300 33006KT P6SM FEW250 FM111400 28006KT P6SM FEW250", "KJHW 101120Z 1012/1112 22007KT P6SM BKN060 FM101300 23007KT P6SM SCT080 FM101600 27007KT P6SM SCT100 FM102200 29004KT P6SM FEW250 FM110000 VRB04KT P6SM FEW250 FM110600 16004KT P6SM FEW200", "KJKA 101120Z 1012/1112 02008KT P6SM SKC FM110000 36004KT P6SM SKC", "KJKL 101120Z 1012/1112 VRB03KT P6SM SKC", "KJLN 101120Z 1012/1112 21008KT P6SM SCT150 FM101700 23010G18KT P6SM SCT150 FM102300 21008KT P6SM BKN120 FM110400 18008KT P6SM BKN080 PROB30 1108/1112 6SM SHRA OVC040", "KJMS 101129Z 1012/1112 VRB05KT P6SM FEW150 FM101500 18012KT P6SM SKC FM110000 VRB05KT P6SM SKC", "KJST 101129Z 1012/1112 20007KT P6SM SCT250 FM101500 25009KT P6SM SKC", "KJVL 101131Z 1012/1112 08005KT P6SM SKC FM102100 14005KT P6SM FEW210 FM110600 18005KT P6SM FEW200", "KJXN 101120Z 1012/1112 05003KT P6SM FEW070 FM101800 18004KT P6SM FEW070", "KJZI 101120Z 1012/1112 02006KT P6SM BKN040 FM101400 03007KT P6SM BKN025 FM101800 05009KT P6SM SCT025 BKN035 FM102000 06011KT P6SM SCT030 BKN040 FM110600 03005KT P6SM SCT015 BKN035", "KLAF 101120Z 1012/1112 20006KT P6SM FEW300 FM101600 22010G18KT P6SM SKC FM102300 19008KT P6SM FEW060 SCT250", "KLAL 101120Z 1012/1112 04004KT P6SM SCT015 SCT080 TEMPO 1012/1014 BKN015 FM101800 04007KT P6SM SCT025 BKN040 FM110100 06005KT P6SM BKN050", "KLAN 101120Z 1012/1112 02004KT P6SM FEW070 FM110400 19006KT P6SM FEW070", "KLAR 101120Z 1012/1112 20010KT P6SM FEW250 FM101700 27015G25KT P6SM FEW250", "KLAS 101127Z 1012/1118 VRB05KT P6SM FEW200 FM101800 08007KT P6SM SCT120 FM110100 22010KT P6SM FEW120 SCT250 FM110600 21008KT P6SM FEW250 FM111600 VRB05KT P6SM FEW250", "KLAW 101126Z 1012/1112 00000KT P6SM VCSH BKN100 FM101700 18010KT P6SM BKN060 PROB30 1022/1103 4SM TSRA BR OVC030CB FM110300 15005KT P6SM BKN080 PROB30 1103/1107 4SM TSRA BR OVC025CB", "KLAX 101140Z 1012/1118 VRB03KT P6SM FEW008 OVC010 FM101800 26005KT P6SM SCT012 FM102000 26012KT P6SM FEW015 FM110400 26005KT P6SM BKN010 FM110800 VRB03KT P6SM OVC008 FM111700 27005KT P6SM OVC010", "KLBB 101141Z 1012/1112 20009KT 6SM BR FEW010 BKN050 OVC100 TEMPO 1012/1016 3SM BR SCT003 OVC010 FM101600 19011KT P6SM SCT050 OVC100 FM102200 18011KT P6SM -SHRA SCT007 OVC050 FM110200 17011KT P6SM SCT100 SCT250", "KLBE 101120Z 1012/1112 22005KT P6SM SCT150 FM101500 23010KT P6SM SKC FM110000 20003KT P6SM SKC", "KLBF 101128Z 1012/1112 00000KT P6SM FEW250 FM101800 19013G20KT P6SM SKC FM110000 16009KT P6SM SKC", "KLBL 101120Z 1012/1112 VRB06KT P6SM FEW250 FM101500 20014KT P6SM FEW250", "KLBT 101120Z 1012/1112 04005KT P6SM VCSH OVC045 FM101600 05005KT P6SM BKN040 FM102100 06006KT P6SM BKN050 FM110000 05003KT P6SM SCT070 AMD NOT SKED", "KLBX 101127Z 1012/1112 36004KT 6SM BR SKC FM101500 09007KT P6SM SKC FM102100 13009KT P6SM SKC FM110200 VRB04KT P6SM FEW250", "KLCH 101120Z 1012/1112 VRB04KT P6SM SKC FM101500 09008KT P6SM SKC FM110400 VRB04KT P6SM SKC", "KLCK 101120Z 1012/1112 20003KT P6SM SCT070 FM101500 22008KT P6SM FEW070 FM102300 21003KT P6SM SKC", "KLEB 101120Z 1012/1112 00000KT 2SM BR OVC001 FM101230 00000KT P6SM OVC004 FM101400 VRB03KT P6SM BKN030 BKN060 FM101600 31004KT P6SM BKN060 FM110800 00000KT 4SM BR FEW250", "KLEE 101136Z 1012/1112 36004KT P6SM FEW002 SCT080 FM101500 03007KT P6SM SCT030 BKN050 FM101800 04009KT P6SM SCT030 BKN050 FM110000 05007KT P6SM SCT025 BKN060", "KLEX 101120Z 1012/1112 18005KT P6SM SKC FM110000 14005KT P6SM SKC", "TAF KLFI 100900Z 1009/1115 VRB06KT 9999 FEW200 QNH3021INS TX19/1020Z TN09/1011Z", "KLFK 101120Z 1012/1112 00000KT P6SM SKC FM101500 VRB04KT P6SM SKC FM110900 17005KT P6SM FEW250", "KLFT 101120Z 1012/1112 VRB03KT P6SM SKC FM101900 08010KT P6SM SKC FM110400 VRB03KT P6SM SKC", "KLGA 101120Z 1012/1118 25008KT P6SM BKN100 FM101700 26010KT P6SM SCT100 BKN250 FM110000 29007KT P6SM BKN120 FM110300 34006KT P6SM FEW250 FM111500 27006KT P6SM FEW250", "KLGB 101140Z 1012/1112 VRB03KT P6SM OVC012 FM101800 19008KT P6SM SKC FM102300 30008KT P6SM SKC FM110500 VRB03KT P6SM SKC FM110800 VRB03KT P6SM BKN012", "KLGU 101120Z 1012/1112 VRB04KT P6SM FEW200 FM102100 26008KT P6SM SKC FM110200 VRB04KT P6SM FEW250", "KLIT 101120Z 1012/1112 VRB05KT P6SM BKN100 FM110400 17004KT P6SM FEW120", "KLLQ 101120Z 1012/1112 VRB04KT P6SM SCT100", "KLMT 101120Z 1012/1112 VRB03KT P6SM SKC FM102200 33011KT P6SM SKC FM110300 VRB03KT P6SM SKC", "KLND 101120Z 1012/1112 VRB06KT P6SM SKC", "KLNK 101120Z 1012/1112 VRB04KT P6SM SKC FM101800 18011KT P6SM SCT250", "KLNS 101129Z 1012/1112 00000KT P6SM SCT250 FM101400 29005KT P6SM FEW250", "KLOZ 101120Z 1012/1112 VRB03KT P6SM SKC", "KLRD 101120Z 1012/1112 10006KT P6SM FEW080 FM101600 12011KT P6SM SCT040 FM102200 12012G18KT P6SM SCT070 SCT150 FM110800 10005KT P6SM FEW070 FEW150", "TAF KLRF 091500Z 0915/1021 VRB06KT 9999 FEW080 SCT140 QNH3031INS BECMG 1002/1003 19009KT 9999 SCT040 BKN100 QNH3017INS TX27/0921Z TN13/1012Z LAST NO AMDS AFT 0915 NEXT 1107", "KLRU 101121Z 1012/1112 12002KT P6SM SCT100 FM101700 08007KT P6SM FEW050 SCT100", "KLSE 101125Z 1012/1112 00000KT P6SM FEW250 TEMPO 1012/1015 1/2SM FG BKN003 FM101500 15006KT P6SM FEW250 FM110600 18007KT P6SM FEW250", "TAF KLSV 091500Z 0915/1021 07009KT 9999 FEW130 QNH3009INS BECMG 0918/0919 12012KT 9999 SCT130 QNH3011INS BECMG 1004/1005 VRB06KT 9999 FEW130 QNH3003INS BECMG 1018/1019 14010G15KT 9999 SKC QNH3004INS TX36/0923Z TN18/1012Z LAST NO AMDS AFT 0923 NEXT 1107", "KLUK 101120Z 1012/1112 00000KT P6SM FEW060 FM101400 21006KT P6SM FEW080 FM102200 21003KT P6SM SKC FM110800 17003KT 3SM BR SKC FM111000 16003KT 1SM BR SKC", "KLVK 101151Z 1012/1112 VRB04KT P6SM SCT006 TEMPO 1012/1016 BKN006 FM102000 29008KT P6SM SKC FM110300 VRB03KT P6SM SKC", "KLVM 101120Z 1012/1112 31010KT P6SM FEW200 FM101400 26010KT P6SM FEW200 FM101800 26016G26KT P6SM FEW200 FM110200 24018G30KT P6SM FEW100 SCT200 FM111000 24016KT P6SM SCT100 BKN200", "KLVS 101122Z 1012/1112 00000KT P6SM VCFG BKN200 FM101500 19006KT P6SM FEW040 BKN200 FM102000 19011KT P6SM VCSH SCT070 BKN120 FM110300 22007KT P6SM SCT100", "KLWB 101120Z 1012/1112 00000KT 1 1/2SM BR SCT001 TEMPO 1012/1013 1/4SM FZFG VV001 FM101330 VRB02KT P6SM SKC FM110900 04003KT 4SM BR SKC", "KLWS 101136Z 1012/1112 VRB04KT P6SM FEW250 FM101800 29007KT P6SM SCT250 FM102200 27013G21KT P6SM FEW180 FM110500 26005KT P6SM SKC", "KLWT 101121Z 1012/1112 13005KT P6SM SKC FM101600 25011KT P6SM SCT150 TEMPO 1022/1101 26015G25KT FM110100 25014KT P6SM SCT100 BKN150 FM110900 34011KT P6SM SCT040 BKN060 TEMPO 1110/1112 3SM -RASN BR BKN015", "KLYH 101120Z 1012/1112 34004KT P6SM SKC", "KMAF 101121Z 1012/1112 14006KT P6SM SCT050 BKN100 TEMPO 1012/1015 5SM BR OVC020 FM101500 17006KT P6SM BKN070", "KMBG 101137Z 1012/1112 13007KT P6SM FEW250 FM101500 16008KT P6SM SCT250 FM101700 16011G18KT P6SM SCT250", "KMBL 101129Z 1012/1112 00000KT 1 1/2SM BR SCT001 FM101330 VRB03KT P6SM FEW250 FM102100 31004KT P6SM SKC FM110600 15004KT 3SM BR SKC", "KMBS 101120Z 1012/1112 31004KT P6SM SKC FM101500 30005KT P6SM SCT060 FM110100 12004KT P6SM SKC FM110600 18004KT P6SM SKC", "KMCB 101120Z 1012/1112 00000KT P6SM SKC", "KMCC 101120Z 1012/1112 15005KT P6SM SKC FM101800 VRB05KT P6SM SKC", "KMCE 101120Z 1012/1112 VRB06KT P6SM SKC FM102000 32008G16KT P6SM SKC FM110200 VRB05KT P6SM SKC", "TAF KMCF 101100Z 1011/1117 04006KT 9999 BKN040 QNH3001INS TEMPO 1019/1022 VRB06KT 9999 VCTS FEW025 SCT030CB TX28/1017Z TN21/1011Z", "KMCI 101121Z 1012/1112 VRB05KT P6SM SKC FM101900 18010KT P6SM BKN250", "KMCK 101138Z 1012/1112 VRB04KT P6SM SKC FM101600 18007KT P6SM FEW250 FM101900 18013G20KT P6SM SKC FM102200 16010KT P6SM SKC FM110500 20009KT P6SM FEW250", "KMCN 101132Z 1012/1112 31005KT P6SM SKC FM101500 02006KT P6SM FEW150 FM101900 04007KT P6SM FEW050 FM110800 05004KT P6SM BKN015 FM111000 04005KT P6SM SCT004 BKN007", "KMCO 101136Z 1012/1118 36006KT P6SM FEW025 SCT090 FM101500 02007KT P6SM VCSH SCT035 BKN050 FM101800 04010KT P6SM VCSH SCT040 BKN060 FM110000 03007KT P6SM SCT025 BKN060 FM111500 08005KT P6SM SCT035", "KMCW 101121Z 1012/1112 14003KT P6SM FEW250 FM101700 18008KT P6SM FEW250", "KMDT 101129Z 1012/1112 VRB03KT P6SM BKN200 FM101500 29008KT P6SM SKC", "KMDW 101120Z 1012/1118 18003KT P6SM SCT080 FM101700 23007KT P6SM FEW080 FM110000 07006KT P6SM FEW250 FM110500 18005KT P6SM SCT250 FM111400 20014G22KT P6SM SCT100", "KMEI 101146Z 1012/1112 04006KT P6SM SKC", "KMEM 101127Z 1012/1118 13003KT P6SM FEW080 FM101500 21004KT P6SM FEW080 FM102300 16004KT P6SM FEW080", "KMER 101120Z 1012/1112 VRB06KT P6SM SKC FM102000 32008G17KT P6SM SKC FM110200 VRB05KT P6SM SKC AMD NOT SKED", "KMEV 101120Z 1012/1112 VRB04KT P6SM SCT120 FM102100 VRB05KT P6SM VCSH SCT090 FM110100 VRB04KT P6SM SCT090 FM110400 VRB04KT P6SM SKC", "KMFD 101126Z 1012/1112 21006KT P6SM FEW250 FM110000 18004KT P6SM SKC", "KMFE 101120Z 1012/1112 06004KT P6SM FEW040 FM101815 09008G15KT P6SM FEW035 FM110000 10008KT P6SM FEW040 SCT100", "KMFR 101120Z 1012/1112 VRB03KT P6SM SKC FM102300 32010KT P6SM SKC FM110300 VRB03KT P6SM SKC", "TAF AMD KMGE 091535Z 0915/1019 04005KT 9999 SKC QNH3022INS BECMG 0915/0916 05005KT 9999 SCT020 QNH3022INS BECMG 0923/0924 VRB05KT 9999 SKC QNH3022INS BECMG 1011/1012 34007KT 9999 SKC QNH3023INS TX21/0921Z TN09/1012Z LAST NO AMDS AFT 0920 NEXT 1111", "KMGM 101120Z 1012/1112 VRB04KT P6SM SKC FM101600 02007KT P6SM SKC FM110200 VRB03KT P6SM FEW250 FM110900 07003KT P6SM FEW035 SCT150", "KMGW 101120Z 1012/1112 00000KT P6SM SCT150 FM101600 23005KT P6SM SKC", "KMHK 101127Z 1012/1112 VRB03KT P6SM SKC FM101600 18008KT P6SM SCT250", "KMHR 101120Z 1012/1112 15005KT P6SM SKC FM101800 VRB05KT P6SM SKC", "KMHT 101120Z 1012/1112 13005KT P6SM SCT050 BKN100 BKN200 FM101300 29005KT P6SM BKN040 BKN060 FM110000 00000KT P6SM SKC", "KMIA 101120Z 1012/1118 VRB03KT P6SM VCSH SCT020 SCT070 FM101500 12008KT P6SM VCSH SCT030 BKN045 FM102000 09007KT P6SM SCT035 BKN050 FM110300 10005KT P6SM SCT030 BKN250 FM111600 11011KT P6SM VCSH BKN030 BKN050", "KMIV 101120Z 1012/1112 VRB03KT P6SM SKC FM101500 26006KT P6SM SKC", "KMKC 101121Z 1012/1112 VRB02KT P6SM SKC FM101900 19008KT P6SM BKN250", "KMKE 101131Z 1012/1118 09009KT P6SM FEW200 FM110300 15004KT P6SM FEW250 FM110900 20005KT P6SM FEW210 FM111200 19012KT P6SM FEW050", "KMKG 101120Z 1012/1112 08005KT P6SM FEW070", "KMKL 101127Z 1012/1112 VRB03KT P6SM SCT080 FM101500 VRB04KT P6SM FEW080 FM110000 00000KT P6SM FEW080", "KMKT 101120Z 1012/1112 16004KT P6SM SKC FM101700 19008KT P6SM FEW150", "KMLB 101136Z 1012/1112 35005KT P6SM VCSH SCT025 BKN070 FM101500 03007KT P6SM VCSH SCT035 BKN050 FM101800 04010KT P6SM VCTS SCT030CB BKN050 TEMPO 1018/1021 3SM TSRA BKN030CB FM110000 03007KT P6SM SCT035 BKN080", "KMLC 101135Z 1012/1112 VRB03KT P6SM SCT060 OVC090 FM101600 21006KT P6SM SCT040 BKN060 PROB30 1021/1024 5SM -SHRA BKN050 FM110000 VRB04KT P6SM SCT060 BKN100 PROB30 1100/1106 5SM -SHRA BKN060 FM110600 VRB04KT P6SM SCT040 BKN080 PROB30 1106/1112 4SM -TSRA BKN040CB", "KMLI 101123Z 1012/1112 00000KT P6SM SKC FM111000 17007KT P6SM SCT210", "KMLS 101120Z 1012/1112 24006KT P6SM FEW200 FM110600 27006KT P6SM FEW100 SCT200 FM111000 30014G22KT P6SM SCT100 BKN200", "KMLU 101120Z 1012/1112 00000KT P6SM SKC FM101300 VRB03KT P6SM SCT100 FM101800 08004KT P6SM FEW080 FM111000 VRB03KT P6SM FEW070 FEW250", "KMMH 101120Z 1012/1112 VRB04KT P6SM BKN100 FM101900 11007KT P6SM VCSH SCT090 FM110300 VRB04KT P6SM BKN100", "TAF KMMT 100700Z 1007/1113 VRB06KT 9999 VCSH BKN020 QNH3014INS BECMG 1012/1013 VRB06KT 9999 NSW BKN025 QNH3019INS BECMG 1021/1022 05010G15KT 9999 BKN030 QNH3021INS TX22/1018Z TN12/1011Z", "KMOB 101120Z 1012/1112 02009KT P6SM SKC FM110000 01003KT P6SM SKC", "KMOD 101120Z 1012/1112 35008KT P6SM SKC FM102000 32012KT P6SM SKC", "KMOT 101129Z 1012/1112 VRB05KT P6SM FEW150 FM101500 21010KT P6SM SKC FM110000 VRB05KT P6SM SKC", "KMPV 101153Z 1012/1112 00000KT 1SM BR VCSH OVC001 FM101400 VRB04KT P6SM BKN070", "KMQY 101120Z 1012/1112 08004KT P6SM SKC", "KMRB 101128Z 1012/1112 24003KT P6SM FEW250 FM101600 28006KT P6SM FEW250 FM102200 24003KT P6SM SKC", "KMRY 101131Z 1012/1112 VRB04KT 5SM -DZ BR OVC003 TEMPO 1012/1015 3SM -DZ BR OVC002 FM101700 VRB03KT P6SM BKN008 FM101900 30008KT P6SM SCT009 FM102200 28006KT P6SM BKN007 FM110400 VRB04KT 5SM BR OVC004", "KMSL 101120Z 1012/1112 VRB02KT P6SM SKC FM101800 05005KT P6SM SKC FM102300 VRB03KT P6SM SKC", "KMSN 101131Z 1012/1112 09005KT P6SM SKC FM101800 14005KT P6SM FEW240 FM110600 18005KT P6SM FEW200", "KMSO 101122Z 1012/1112 VRB04KT P6SM SKC FM102200 28012G23KT P6SM SCT200 FM110200 28006KT P6SM SCT200", "KMSP 101120Z 1012/1118 12005KT P6SM SKC FM101800 17008KT P6SM FEW150 FM111500 18014G25KT P6SM SCT150", "KMSS 101120Z 1012/1112 00000KT P6SM BKN070 FM101800 29007KT P6SM SKC FM102300 00000KT P6SM FEW250", "KMSY 101120Z 1012/1118 06006KT P6SM SKC", "TAF KMTC 101100Z 1011/1117 01006KT 9999 SCT015 QNH3015INS TEMPO 1011/1015 8000 BR BECMG 1021/1022 23006KT 9999 SCT050 QNH3019INS TEMPO 1110/1114 8000 BR TX16/1020Z TN07/1011Z", "KMTH 101136Z 1012/1112 09008KT P6SM FEW020", "KMTJ 101120Z 1012/1112 15004KT P6SM SKC FM101830 33008KT P6SM FEW250 FM110300 15008KT P6SM SKC", "KMTN 101128Z 1012/1112 24003KT P6SM SKC FM101600 26006KT P6SM FEW250 FM102300 22003KT P6SM SKC", "KMTW 101134Z 1012/1112 04003KT P6SM SCT020 TEMPO 1012/1016 BKN020 FM101600 12006KT P6SM SKC FM101800 16004KT P6SM SKC FM111000 19005KT P6SM SKC", "KMVN 101120Z 1012/1112 00000KT P6SM SKC FM101500 20005KT P6SM SKC FM102300 16003KT P6SM SKC FM110600 VRB03KT P6SM SCT100", "KMWH 101136Z 1012/1112 01004KT P6SM SKC FM102100 26015G23KT P6SM FEW180 FM110500 30010KT P6SM SKC", "KMYL 101120Z 1012/1112 VRB04KT P6SM SKC FM102000 25008KT P6SM SKC FM110200 VRB03KT P6SM SCT250", "KMYR 101120Z 1012/1112 07006KT P6SM OVC045 FM101400 06009KT P6SM BKN040 FM101700 07011KT P6SM BKN035 FM110100 05008KT P6SM BKN045 FM110500 04007KT P6SM SCT080", "TAF KNBC 0915/1015 08008KT 9999 BKN010 QNH3021INS FM091900 VRB06KT 9999 SCT010 BKN015 QNH3013INS FM100200 VRB06KT 9999 BKN010 OVC015 QNH3011INS AUTOMATED SENSOR METWATCH 0723 TIL 0919 T25/0918Z T17/1011Z", "TAF KNBG 1007/1107 VRB06KT 9999 FEW250 QNH3013INS BECMG 1014/1016 05010G18KT 9999 SKC QNH3014INS BECMG 1020/1022 VRB06KT 9999 SKC QNH3012INS AUTOMATED SENSOR METWATCH 1007 TIL 1110 T19/1012Z T26/1020Z FN00247", "TAF KNCA 1009/1109 VRB06KT 9999 FEW050 QNH3018INS FM101600 05007KT 9999 BKN050 QNH3020INS T21/1017Z T15/1105Z", "KNEW 101120Z 1012/1112 06009KT P6SM FEW250 FM102300 08005KT P6SM SKC FM110300 06007KT P6SM SKC", "TAF KNFG 1009/1109 VRB05KT 9999 OVC012 QNH2998INS TEMPO 1012/1016 OVC005 FM110730 VRB05KT 9999 BKN010 QNH2995INS T17/1008Z T22/1021Z", "TAF KNFW 0915/1015 VRB06KT 9999 SCT120 SCT250 QNH3016INS LAST NO AMDS AFT 0923 NEXT 1107 T19/0915Z T27/0922Z FN20070", "TAF KNGP 1007/1107 10010KT 9999 FEW050 QNH3008INS BECMG 1014/1016 10010G18KT 9999 FEW040 SCT080 QNH3005INS AUTOMATED SENSOR METWATCH 1007 TIL 1112 T24/1012Z T29/1020Z FN00247", "TAF KNGU 1007/1107 23005KT 9999 FEW015 SCT040 SCT250 QNH3021INS FM101800 VRB05KT 9999 SCT015 BKN035 QNH3022INS FM110000 07005KT 9999 SKC QNH3026INS T15/1012Z T19/1021Z FN00247", "TAF KNHK 1007/1107 28005KT 9999 SKC QNH3021INS TEMPO 1012/1014 VRB04KT 8000 BR SCT005 FM101400 VRB04KT 9999 FEW015 QNH3023INS FM110500 25005KT 9999 SKC QNH3034INS T11/1012Z T17/1021Z FN00247", "TAF KNIP 1007/1107 VRB06KT 9999 FEW010 SCT020 SCT100 QNH3008INS FM101500 01010KT 9999 FEW020 QNH3009INS FM102100 06006KT 9999 SKC QNH3012INS T18/1012Z T26/1021Z FN00247", "TAF KNKT 1009/1109 VRB06KT 9999 FEW050 QNH3018INS FM101600 05007KT 9999 BKN050 QNH3020INS T21/1017Z T15/1105Z", "TAF KNKX 1003/1103 VRB05KT 9999 BKN010 QNH3000INS TEMPO 1003/1008 6000 BR OVC007 FM101730 VRB05KT 9999 SCT015 QNH2994INS T16/1013Z T24/1021Z", "TAF KNPA 1007/1107 02010KT 9999 FEW250 QNH3011INS AUTOMATED SENSOR METWATCH 1007 TIL 1111 T18/1012Z T25/1021Z FN00247", "TAF KNSE 1007/1107 02010KT 9999 SKC QNH3013INS AUTOMATED SENSOR METWATCH 1007 TIL 1111 T15/1012Z T25/1021Z FN00247", "TAF KNTD 0915/1015 VRB06KT 4800 BR OVC007 QNH3000INS TEMPO 0915/0918 OVC010 BECMG 0918/0920 27009KT 9000 HZ BKN010 QNH2996INS FM092300 30009KT 9000 HZ BKN012 BKN140 QNH2997INS TEMPO 0923/1002 SCT012 BKN140 FM100700 VRB06KT 8000 BR OVC008 QNH2995INS LAST NO AMDS 0923 NEXT 1107 T23/0922Z T16/1012Z FS30202", "TAF KNTU 1007/1107 VRB04KT 9999 FEW015 SCT040 SCT250 QNH3021INS FM101800 VRB05KT 9999 SCT015 BKN035 QNH3022INS FM110000 05005KT 9999 SKC QNH3026INS T13/1012Z T18/1021Z FN00247", "TAF KNUW 1007/1107 VRB06KT 9000 HZ FEW040 FEW180 SCT250 QNH3004INS BECMG 1017/1018 25009G14KT 9999 VCSH SCT015 BKN030 BKN080 641204 540404 QNH2998INS TEMPO 1018/1100 6000 -SHRA BR SCT008 BKN012 OVC030 FM110000 28013G18KT 8000 -RA BR SCT008 BKN012 600000 540404 QNH2999INS TEMPO 1101/1107 30015G25KT 4800 SHRA BR BKN008 OVC011 LAST NO AMDS AFT 1007 NEXT 1107 T09/1013Z T17/1023Z FS30190", "TAF KNXP 1009/1109 VRB05KT 9999 SCT010 QNH3005INS FM101230 27005KT 9999 SKC QNH3006INS T18/1014Z T31/1019Z", "TAF COR KNYG 1010/1109 VRB06KT 9999 SKC QNH3021INS FM101500 VRB06KT 9999 FEW250 QNH3021INS T19/1017Z T07/1109Z COR 1056", "TAF KNYL 1009/1109 24005KT 9999 SCT100 QNH2986INS FM101130 VRB05KT 9999 SKC QNH2989INS T23/1013Z T34/1022Z", "TAF KNZY 1007/1107 VRB06KT 9999 BKN014 QNH2996INS TEMPO 1010/1016 6000 BR BKN008 OVC012 FM102000 29008KT 9999 SCT025 SCT060 QNH2990INS FM110200 VRB06KT 9999 BKN014 QNH2994INS T19/1012Z T23/1023Z FS30190", "KOAJ 101125Z 1012/1112 VRB06KT P6SM BKN050 AMD LTD TO CLD VIS AND WIND", "KOAK 101131Z 1012/1118 VRB04KT P6SM OVC006 FM101800 VRB05KT P6SM SCT012 FM102100 30012KT P6SM SKC FM110400 30006KT P6SM FEW010 FM110900 VRB04KT P6SM BKN008", "TAF KOFF 101000Z 1010/1116 VRB06KT 9999 SKC QNH3010INS BECMG 1019/1020 18010G15KT 9999 SKC QNH3000INS BECMG 1023/1100 18009KT 9999 SKC QNH2989INS TX26/1020Z TN07/1012Z", "KOFK 101120Z 1012/1112 VRB04KT P6SM SKC FM101900 18012G19KT P6SM SCT250 FM110600 18011KT P6SM SKC", "KOGB 101132Z 1012/1112 03005KT P6SM VCSH BKN025 TEMPO 1012/1013 5SM -SHRA FM102100 06005KT P6SM BKN040 FM110600 05004KT P6SM BKN015", "KOGD 101120Z 1012/1112 17010KT P6SM FEW200 FM101900 26007KT P6SM SKC FM110200 17011KT P6SM FEW250", "KOKC 101126Z 1012/1112 16003KT P6SM VCSH BKN080 FM101700 19010KT P6SM BKN100 PROB30 1021/1103 4SM TSRA BR OVC025CB FM110300 17008KT P6SM BKN050 PROB30 1103/1109 4SM TSRA BR OVC025CB", "KOLF 101123Z 1012/1112 VRB05KT P6SM SKC TEMPO 1012/1013 2SM BR BKN001 FM101600 22007KT P6SM FEW130 FM110000 20009KT P6SM SKC FM110500 24008KT P6SM SCT210 FM111000 29011G19KT P6SM BKN110 WS020/29045KT", "KOLM 101128Z 1012/1112 00000KT 4SM HZ BR SCT002 TEMPO 1012/1015 1SM HZ BR BKN002 FM101700 21006KT P6SM SKC FM102200 21010KT P6SM BKN100 OVC200 FM110200 21006KT P6SM SCT040 SCT200 FM110900 00000KT 1SM BR OVC002", "KOLS 101120Z 1012/1112 VRB04KT P6SM SCT110 FM101800 12006KT P6SM SCT080 SCT120 FM102100 22005KT P6SM BKN070 BKN100 FM110100 VRB04KT P6SM SCT100", "KOMA 101120Z 1012/1112 VRB04KT P6SM SKC FM101900 18010KT P6SM SCT250", "KONP 101140Z 1012/1112 20004KT 1/2SM FG OVC003 FM101800 34010KT 1 1/2SM BR OVC004 FM110300 34006KT 4SM BR OVC012", "KONT 101137Z 1012/1118 VRB03KT 4SM BR BKN006 FM101600 23005KT 6SM HZ FEW008 FM102000 25011KT P6SM SCT100 FM110400 25006KT P6SM SKC FM111000 VRB04KT 5SM BR BKN007 FM111700 VRB03KT P6SM SCT010", "KOPF 101128Z 1011/1112 VRB03KT P6SM VCSH SCT020 SCT070 TEMPO 1011/1012 6SM BR SCT015 FM101500 11007KT P6SM VCSH SCT030 BKN045 FM102000 08008KT P6SM SCT035 BKN050 FM110300 10008KT P6SM SCT030 BKN250", "KORD 101120Z 1012/1118 18003KT P6SM SCT080 FM101700 23007KT P6SM FEW080 FM102300 07006KT P6SM FEW250 FM110500 18005KT P6SM SCT250 FM111400 20014G22KT P6SM SCT100", "KORF 101120Z 1012/1112 23005KT P6SM FEW060 SCT250 FM101500 04005KT P6SM SCT060 FM110000 VRB02KT P6SM SKC", "KORH 101120Z 1012/1112 22004KT P6SM OVC100 FM101600 23007KT P6SM VCSH BKN070 FM102100 28006KT P6SM BKN045 FM102300 30004KT P6SM SCT060 FM110400 29004KT P6SM FEW200", "KOTH 101120Z 1012/1112 VRB03KT 1SM BR OVC003 FM101900 35010KT P6SM BKN005 FM102100 35014G25KT P6SM SCT010 FM110200 35010KT 5SM BR OVC004 FM110700 VRB03KT 1SM BR OVC003", "KOTM 101121Z 1012/1112 16002KT P6SM FEW250 FM110100 16007KT P6SM SCT250", "KOUN 101126Z 1012/1112 18006KT P6SM BKN100 PROB30 1021/1103 4SM TSRA BR OVC025CB FM110300 17006G11KT P6SM BKN040 PROB30 1103/1109 4SM TSRA BR OVC015CB", "KOWB 101120Z 1012/1112 VRB03KT P6SM SKC FM101500 19007KT P6SM SKC FM102300 15005KT P6SM SKC", "KOXR 101140Z 1012/1112 VRB03KT P6SM OVC006 FM101400 VRB03KT 5SM BR OVC006 FM101700 26008KT P6SM BKN010 FM102200 26008KT P6SM SCT012 FM110200 28006KT P6SM OVC010 FM110500 VRB03KT P6SM OVC008", "KPAE 101128Z 1012/1112 VRB03KT 4SM HZ SKC FM101900 24010KT P6SM SCT100 BKN200 FM110000 34008KT P6SM BKN040 OVC070 FM110500 VRB03KT P6SM BKN011 OVC020", "KPAH 101120Z 1012/1112 00000KT P6SM FEW080 FM101500 20005KT P6SM SKC FM102300 16003KT P6SM SKC", "TAF KPAM 101100Z 1011/1117 03009KT 9999 FEW150 QNH3016INS BECMG 1111/1112 06009KT 9999 FEW030 QNH3013INS TX29/1019Z TN15/1011Z", "KPBF 101120Z 1012/1112 VRB04KT P6SM SCT100", "KPBG 101120Z 1012/1112 VRB04KT P6SM OVC035", "KPBI 101120Z 1012/1112 VRB04KT P6SM VCSH SCT020 SCT070 FM101500 12007KT P6SM VCSH SCT030 BKN045 FM102000 08009KT P6SM SCT035 BKN050 FM110300 11006KT P6SM SCT030 BKN250", "KPDK 101132Z 1012/1112 33004KT P6SM FEW250 FM101400 03005KT P6SM SKC FM110400 07003KT P6SM FEW250 FM110900 07005KT P6SM SCT010 BKN020", "KPDT 101124Z 1012/1112 13005KT P6SM SKC FM101800 25012G22KT P6SM SKC FM102200 25020G30KT P6SM SKC FM110600 25012KT P6SM SKC", "KPDX 101140Z 1012/1112 00000KT P6SM SKC FM101300 00000KT 5SM MIFG BR FEW001 FM101600 28006KT P6SM SKC FM110300 29004KT P6SM BKN040 FM111000 29003KT P6SM OVC015", "KPEQ 101121Z 1012/1112 12005KT P6SM BKN100", "KPGA 101120Z 1012/1112 VRB05KT P6SM FEW200", "KPGD 101120Z 1012/1112 04005KT P6SM SCT010 BKN250 TEMPO 1012/1013 BKN010 FM101300 05005KT P6SM SCT020 BKN080 FM101800 05006KT P6SM VCSH SCT030 BKN050 FM110100 07006KT P6SM SCT040", "KPGV 101125Z 1012/1112 VRB06KT P6SM BKN050 FM110300 VRB06KT P6SM SCT050 AMD LTD TO CLD VIS AND WIND", "KPHF 101120Z 1012/1112 VRB03KT P6SM SCT060 FM101500 33005KT P6SM SCT060 FM110000 VRB02KT P6SM SKC", "KPHL 101120Z 1012/1118 25003KT P6SM SKC FM101500 26008KT P6SM FEW050", "KPHX 101141Z 1012/1118 10007KT P6SM FEW100 FEW250 FM101500 10009G18KT P6SM SKC FM101800 12007KT P6SM SKC FM102300 20005KT P6SM FEW100 FEW250 FM110500 11006KT P6SM FEW100 FEW250", "KPIA 101120Z 1012/1112 19005KT P6SM FEW090 FM110700 15005KT P6SM BKN050", "KPIB 101146Z 1012/1112 03006KT P6SM SKC", "KPIE 101120Z 1012/1112 04006KT P6SM SCT020 SCT080 FM101800 36007KT P6SM BKN050 FM110100 05006KT P6SM BKN050", "KPIH 101120Z 1012/1112 VRB06KT P6SM SKC FM101800 25017G27KT P6SM FEW250 FM110200 21011KT P6SM SKC", "KPIR 101137Z 1012/1112 11008KT P6SM BKN250 FM101500 14009KT P6SM SKC FM101700 15012G19KT P6SM FEW250 FM102200 18009KT P6SM FEW250 FM102300 23006KT P6SM FEW250", "KPIT 101120Z 1012/1118 20005KT P6SM SCT150 FM101500 25010KT P6SM SKC FM110000 19003KT P6SM SKC", "KPKB 101125Z 1012/1112 VRB03KT P6SM SCT060 FM101600 24006KT P6SM SKC FM110000 00000KT P6SM SKC", "KPLN 101129Z 1012/1112 00000KT P6SM SCT240 FM101800 25004KT P6SM FEW250 FM110000 00000KT P6SM FEW250", "KPMD 101143Z 1012/1112 16008KT P6SM SKC FM101500 VRB03KT P6SM SKC FM101800 14006KT P6SM SKC FM102300 23010KT P6SM SCT100 FM110400 13006KT P6SM SKC", "KPNA 101120Z 1012/1112 29007KT P6SM SKC FM102000 29014G22KT P6SM SKC FM110100 29009KT P6SM SKC", "KPNC 101126Z 1012/1112 VRB03KT P6SM BKN220 FM101600 21008KT P6SM SCT130 FM102100 19011G17KT P6SM SCT090 PROB30 1022/1104 4SM -SHRA BR BKN090 BKN100 FM110400 17007G12KT P6SM BKN100 PROB30 1104/1108 4SM TSRA BR OVC025CB FM110800 18009G15KT P6SM BKN022 PROB30 1108/1112 4SM -SHRA BR OVC025", "KPNE 101120Z 1012/1112 VRB03KT P6SM SKC FM101500 27006KT P6SM FEW050", "KPNS 101120Z 1012/1112 02008KT P6SM SKC FM110000 36004KT P6SM SKC", "TAF KPOE 092300Z 0923/1105 VRB06KT 9999 SKC QNH3018INS BECMG 1005/1006 VRB06KT FEW040 QNH3022INS BECMG 1014/1015 13007KT FEW040 QNH3027INS BECMG 1017/1018 09012KT SCT040 QNH3024INS BECMG 1023/1024 15007KT SKC QNH3014INS TX28/1021Z TN14/1012Z LAST NO AMDS AFT 1005 NEXT 1015", "KPOU 101130Z 1012/1112 VRB03KT P6SM OVC080 FM101400 23005KT P6SM BKN080 FM102100 30006KT P6SM BKN100 FM110100 VRB03KT P6SM SCT100", "KPQI 101120Z 1012/1112 25004KT P6SM FEW250 FM101700 26008G15KT P6SM FEW050 FM102100 25006KT P6SM FEW090", "KPRB 101140Z 1012/1112 VRB03KT 1/2SM FG VV001 FM101600 32006KT P6SM SKC FM102000 20012KT P6SM SKC FM110100 20006KT P6SM SKC FM110400 VRB03KT P6SM SKC", "KPRC 101120Z 1012/1112 VRB05KT P6SM SKC TEMPO 1019/1023 SCT080 SCT100", "KPSC 101124Z 1012/1112 VRB06KT P6SM SKC FM102000 25012G22KT P6SM SKC FM102300 25018G28KT P6SM SKC FM110400 25012KT P6SM SKC", "KPSF 101130Z 1012/1112 28006KT P6SM OVC070 FM101500 24006KT P6SM VCSH BKN050 FM102100 27006KT P6SM SCT025 BKN040 FM110100 28003KT P6SM FEW040", "KPSM 101120Z 1012/1112 00000KT P6SM BKN060 OVC100 FM101400 30005KT P6SM BKN040 BKN050 FM110100 VRB03KT P6SM OVC250", "KPSP 101137Z 1012/1112 VRB05KT P6SM SKC FM101900 11009KT P6SM SCT100 SCT150 FM110200 32006KT P6SM SKC", "KPTK 101120Z 1012/1112 33004KT P6SM SKC FM101500 VRB03KT P6SM SCT060 FM110100 14005KT P6SM SKC FM110600 20003KT P6SM SKC", "KPUB 101140Z 1012/1112 27005KT P6SM SKC FM101800 17006KT P6SM FEW090 FM102000 14010KT P6SM SCT090 FM110300 28005KT P6SM FEW100", "KPUW 101136Z 1012/1112 10005KT P6SM FEW250 FM101700 16009KT P6SM SCT250 FM102000 24014G23KT P6SM BKN200 FM110300 26010KT P6SM SCT200 FM111000 26005KT P6SM FEW018", "KPVD 101120Z 1012/1112 22004KT P6SM BKN110 FM101600 23007KT P6SM BKN090 FM102300 27005KT P6SM SCT070 FM110200 31003KT P6SM FEW150 FM110800 00000KT P6SM FEW150", "KPVU 101120Z 1012/1112 VRB05KT P6SM FEW250", "KPVW 101141Z 1012/1112 21011KT 6SM BR BKN050 OVC100 TEMPO 1013/1016 3SM BR SCT003 OVC007 FM101600 20011KT P6SM SCT050 OVC250 FM102200 19011KT P6SM -SHRA SCT007 OVC050 FM110300 18007KT P6SM SCT070 SCT250", "KPWM 101120Z 1012/1112 00000KT P6SM BKN080 FM101400 31004KT P6SM BKN035 BKN050 FM110000 VRB03KT P6SM SKC", "KPWT 101128Z 1012/1112 19004KT P6SM SKC FM101900 19012KT P6SM SCT100 BKN200 FM110100 18006KT P6SM BKN045 OVC070 FM110500 VRB03KT P6SM BKN006 OVC011 FM110900 00000KT 3SM BR OVC002", "KRAP 101120Z 1012/1112 VRB05KT P6SM SCT200 FM101800 16008KT P6SM SCT200", "KRBG 101120Z 1012/1112 VRB03KT 5SM HZ SKC FM102200 36010KT P6SM SKC FM110200 VRB03KT P6SM SKC", "KRBL 101120Z 1012/1112 34006KT P6SM SKC FM102200 VRB05KT P6SM SKC", "TAF KRCA 101100Z 1011/1117 VRB06KT 9999 FEW220 QNH2976INS BECMG 1114/1115 33015G25KT 9999 FEW080 SCT160 SCT220 QNH2978INS TX23/1022Z TN06/1012Z", "KRDD 101120Z 1012/1112 VRB05KT P6SM SKC", "KRDG 101120Z 1012/1112 VRB03KT P6SM FEW250 FM101500 27006KT P6SM SCT050", "KRDM 101124Z 1012/1112 17007KT P6SM SKC FM102000 32012G22KT P6SM FEW250 FM102300 32014G24KT P6SM SCT250 FM110400 32010KT P6SM SKC FM110800 17007KT P6SM SKC", "KRDU 101120Z 1012/1112 VRB03KT P6SM BKN050 FM101800 35003KT P6SM SCT050 FM110000 00000KT P6SM SKC", "KRFD 101120Z 1012/1112 VRB04KT P6SM FEW080 TEMPO 1012/1014 1/4SM FG VV002 FM110000 14005KT P6SM SCT250", "KRHI 101134Z 1012/1112 VRB03KT P6SM SCT012 TEMPO 1012/1016 BKN012 FM101600 20005KT P6SM SKC", "KRIC 101120Z 1012/1112 VRB04KT P6SM SCT060 FM101500 32006KT P6SM SCT060 FM110000 VRB02KT P6SM SKC", "KRIL 101120Z 1012/1112 27004KT P6SM SKC FM102000 28011KT P6SM FEW250 FM110100 23007KT P6SM FEW250 FM110400 12004KT P6SM SKC", "TAF KRIV 100400Z 1004/1110 32006KT 9999 SCT120 SCT300 QNH2999INS BECMG 1011/1012 30004KT 8000 BR SCT120 SCT280 QNH2999INS BECMG 1015/1016 30004KT 9999 NSW SCT120 SCT300 QNH3000INS BECMG 1018/1019 32009KT 9999 SCT120 SCT280 510005 QNH2993INS TS OMTNS NE-SE BECMG 1020/1021 32009KT 9999 VCTS SCT120CB BKN280 QNH2991INS TEMPO 1021/1102 VRB12G20KT 8000 -TSRA BKN100CB BKN250 BECMG 1102/1103 32006KT 9999 NSW SCT120 BKN250 QNH2995INS TX30/1022Z TN16/1013Z", "KRIW 101120Z 1012/1112 31008KT P6SM SKC FM102100 25008KT P6SM SKC FM110100 31010G16KT P6SM SKC FM110500 31008KT P6SM SKC", "KRKD 101120Z 1012/1112 33003KT P6SM SKC FM101500 25006KT P6SM BKN050 BKN080 FM110000 00000KT P6SM SKC", "KRKS 101120Z 1012/1112 30006KT P6SM SKC FM101900 27013G22KT P6SM SKC FM110100 26009KT P6SM SKC", "KRME 101120Z 1012/1112 VRB03KT P6SM VCSH OVC060 TEMPO 1014/1016 OVC025 FM101600 29008KT P6SM BKN050 FM110100 00000KT P6SM FEW250", "KRNH 101120Z 1012/1112 10003KT P6SM SKC FM101700 18008KT P6SM FEW150 FM110000 14004KT P6SM FEW150", "KRNO 101120Z 1012/1112 VRB03KT P6SM SCT120 FM102100 VRB05KT P6SM SCT100 FM102300 35006KT P6SM SCT120 FM110400 VRB03KT P6SM SKC", "KROA 101120Z 1012/1112 29003KT P6SM SKC", "KROC 101120Z 1012/1112 24006KT P6SM VCSH OVC060 FM101400 30004KT P6SM BKN025 FM101600 35005KT P6SM BKN030 FM101800 33004KT P6SM SCT045 FM102300 VRB04KT P6SM FEW250 FM110500 19006KT P6SM FEW250", "KROG 101135Z 1012/1112 20005KT P6SM BKN060 FM101500 22010KT P6SM SCT060 BKN100 PROB30 1021/1024 5SM -SHRA BKN070 FM110000 17006KT P6SM SCT050 BKN080 PROB30 1100/1106 5SM -SHRA BKN050 FM110600 16006KT P6SM SCT040 BKN070 PROB30 1106/1112 4SM -TSRA BKN040CB", "KROW 101122Z 1012/1112 VRB05KT P6SM FEW030 BKN250 FM102000 17008KT P6SM SCT060 BKN250 TEMPO 1021/1101 VRB15G25KT 5SM -TSRA OVC030CB FM110200 19006KT P6SM SCT070 BKN120 FM111000 20004KT P6SM VCFG FEW002 SCT120", "KRSL 101120Z 1012/1112 23006KT P6SM FEW250 FM101600 19007KT P6SM FEW250", "KRST 101125Z 1012/1112 16005KT P6SM FEW250 FM101500 15011KT P6SM SKC FM110300 18012KT P6SM SKC", "KRSW 101120Z 1012/1112 06005KT P6SM SCT010 BKN080 TEMPO 1012/1013 BKN010 FM101300 08005KT P6SM SCT020 BKN080 FM101800 06006KT P6SM VCSH SCT030 BKN050 FM110100 07006KT P6SM SCT040", "KRUT 101120Z 1012/1112 VRB03KT P6SM VCSH BKN040 FM101500 29004KT P6SM VCSH BKN050 FM101700 VRB03KT P6SM BKN045", "KRVS 101135Z 1012/1112 19007KT P6SM SCT060 BKN100 PROB30 1021/1024 5SM -SHRA BKN060 FM110000 17005KT P6SM SCT050 BKN080 PROB30 1100/1106 5SM -SHRA BKN050 FM110600 17005KT 6SM -SHRA OVC060 PROB30 1106/1112 4SM -TSRA BKN040CB", "KRWF 101120Z 1012/1112 15004KT P6SM SKC FM101700 17009KT P6SM FEW150", "KRWI 101120Z 1012/1112 VRB03KT P6SM BKN050 FM101800 03003KT P6SM SCT050 FM110000 00000KT P6SM SKC FM110900 00000KT 1 1/2SM BR SKC", "KRWL 101120Z 1012/1112 24008KT P6SM FEW250 FM101700 26015G25KT P6SM FEW250 FM102300 26020G34KT P6SM SCT250", "KRYY 101132Z 1012/1112 VRB03KT P6SM SKC FM101600 36005KT P6SM SKC FM110400 05003KT P6SM FEW250 FM111000 07005KT P6SM SCT040", "KSAC 101120Z 1012/1112 VRB05KT P6SM SKC FM110200 18006KT P6SM SKC", "KSAF 101122Z 1012/1112 01006KT P6SM BKN200 FM102100 26007KT P6SM VCSH SCT070 BKN200 FM110300 VRB06KT P6SM FEW060 SCT100", "KSAN 101137Z 1012/1118 VRB03KT P6SM OVC015 FM101800 29009KT P6SM SCT018 SCT100 TEMPO 1023/1103 BKN015 FM110300 VRB04KT P6SM OVC012", "KSAT 101120Z 1012/1118 VRB02KT P6SM FEW150 FM101600 14012G22KT P6SM SCT080 SCT200 FM110600 12004KT P6SM SCT020 SCT150 FM111500 15008KT P6SM FEW035 FEW200", "KSAV 101120Z 1012/1112 35004KT P6SM BKN008 FM101400 36005KT P6SM SCT010 BKN020 FM101600 02006KT P6SM SCT025 BKN035 FM102000 05008KT P6SM SCT040 FM110500 02005KT P6SM SCT006 BKN015", "KSAW 101120Z 1012/1112 VRB03KT P6SM SCT180 FM101700 22007KT P6SM FEW190", "KSBA 101140Z 1012/1112 05006KT P6SM BKN008 FM101700 16006KT P6SM BKN010 FM101900 24008KT P6SM SCT012 FM110300 10006KT P6SM SKC FM110500 10006KT P6SM OVC008", "KSBD 101137Z 1012/1112 VRB03KT P6SM SKC FM102000 25010KT P6SM SCT100 SCT150 FM110400 VRB04KT P6SM SKC", "KSBM 101131Z 1012/1112 07005KT P6SM FEW025 FM101600 13007KT P6SM FEW250 FM110300 18005KT P6SM FEW200", "KSBN 101121Z 1012/1112 17005KT P6SM SCT080", "KSBP 101140Z 1012/1112 VRB03KT 6SM BR BKN006 FM101400 VRB03KT 3SM BR OVC003 FM101600 32006KT 6SM BR BKN006 FM101800 31012KT P6SM SKC FM110400 31006KT P6SM BKN008 FM110800 VRB03KT 3SM BR OVC005", "KSBY 101120Z 1012/1112 VRB03KT P6SM FEW060 FM101500 27006KT P6SM FEW060 FM110000 00000KT P6SM SKC", "KSCK 101120Z 1012/1112 34007KT P6SM SKC FM102000 31009KT P6SM SKC", "KSDF 101120Z 1012/1118 14003KT P6SM SKC FM101600 19007KT P6SM SKC FM110100 15004KT P6SM SKC", "KSDL 101141Z 1012/1112 VRB04KT P6SM FEW100 FEW250 FM101500 10008G17KT P6SM SKC FM101800 12005KT P6SM FEW100 FEW250 FM110000 VRB04KT P6SM FEW100 FEW250", "KSDY 101123Z 1012/1112 VRB05KT P6SM SKC FM101800 20007KT P6SM SKC FM110900 25010KT P6SM SCT160 FM111000 30011G22KT P6SM BKN140", "KSEA 101128Z 1012/1118 17004KT 6SM HZ SKC FM101900 23008KT P6SM SCT100 BKN200 FM110100 23012KT P6SM BKN045 OVC070 FM110700 18006KT P6SM BKN011 OVC020 FM111100 VRB03KT 5SM BR OVC006", "KSEZ 101120Z 1012/1112 04011KT P6SM SKC FM101500 VRB05KT P6SM SKC TEMPO 1019/1023 SCT080 SCT100 FM110330 04008KT P6SM FEW100", "KSFB 101136Z 1012/1112 36005KT P6SM FEW025 SCT090 FM101500 02007KT P6SM VCSH SCT035 BKN050 FM101800 04010KT P6SM VCSH SCT040 BKN060 FM110000 03007KT P6SM SCT025 BKN060", "KSFF 101136Z 1012/1112 05004KT P6SM FEW250 FM101600 17006KT P6SM SCT250 FM102000 23013G20KT P6SM SCT180 FM110300 25006KT P6SM SKC", "KSFO 101131Z 1012/1118 VRB05KT P6SM OVC006 TEMPO 1012/1015 4SM BR OVC005 FM101800 VRB04KT P6SM FEW008 FM102100 30019KT P6SM FEW010 FM110400 31010KT P6SM FEW007 FM111000 30007KT P6SM BKN008 FM111700 VRB05KT P6SM SCT007", "KSGF 101120Z 1012/1112 19005KT P6SM SCT150 FM101700 23010KT P6SM SCT150 FM102300 21007KT P6SM BKN120 FM110400 18007KT P6SM BKN080 PROB30 1108/1112 6SM SHRA OVC040", "KSGJ 101133Z 1012/1112 VRB03KT P6SM SKC TEMPO 1012/1013 5SM BR SCT004 FM101300 36006KT P6SM SCT015 SCT040 FM101600 04010G17KT P6SM SCT040 FM102300 04006KT P6SM FEW040", "KSGR 101127Z 1012/1112 01003KT P6SM SKC FM101600 10008KT P6SM SKC FM102200 14008KT P6SM FEW250 FM110300 VRB03KT P6SM SCT250", "KSGU 101120Z 1012/1112 11004KT P6SM FEW150 FM102100 28008KT P6SM FEW150 FM110300 VRB04KT P6SM FEW250", "KSHR 101120Z 1012/1112 VRB04KT P6SM FEW200 FM111000 30008KT P6SM FEW100 SCT200", "KSHV 101120Z 1012/1112 00000KT P6SM SKC FM101300 VRB03KT P6SM FEW110 FM101800 11005KT P6SM FEW080 SCT250 FM110000 VRB03KT P6SM FEW250", "KSJC 101131Z 1012/1112 VRB03KT 6SM BR OVC009 FM101730 VRB04KT P6SM FEW010 FM102100 33009KT P6SM SKC FM110300 VRB04KT P6SM FEW012 FM111100 VRB03KT P6SM BKN009", "KSJS 101120Z 1012/1112 VRB03KT P6SM SKC", "KSJT 101129Z 1012/1112 17005KT P6SM BKN050 FM101600 18011G18KT P6SM BKN100 FM101800 17013G20KT P6SM VCTS BKN100CB FM110100 16007KT P6SM OVC100", "TAF KSKA 101100Z 1011/1117 VRB06KT 9999 FEW200 QNH2992INS BECMG 1017/1018 22010G15KT 9999 FEW190 QNH2979INS BECMG 1020/1021 24012G22KT 9999 SCT160 QNH2968INS BECMG 1105/1106 25007KT 9999 SCT160 QNH2968INS TX23/1020Z TN08/1014Z", "TAF KSKF 101000Z 1010/1116 13006KT 9999 FEW040 QNH3015INS BECMG 1015/1016 12012G20KT 9999 FEW100 QNH3007INS BECMG 1105/1106 14009KT 9999 SCT100 QNH3011INS BECMG 1108/1109 12006KT 9999 SCT020 QNH3010INS TX30/1020Z TN17/1011Z", "KSLC 101120Z 1012/1118 15005KT P6SM SCT180 FM101900 33008KT P6SM SKC FM110300 15008KT P6SM FEW250", "KSLE 101140Z 1012/1112 17003KT P6SM SKC FM101300 17003KT 5SM BR MIFG SKC FM101600 33006KT P6SM SKC FM110500 32004KT P6SM BKN040 FM111000 VRB02KT P6SM OVC015", "TAF KSLI 100500Z 1005/1111 VRB06KT 9999 FEW110 QNH2997INS BECMG 1015/1016 VRB06KT 8000 BR BKN004 OVC011 QNH3001INS BECMG 1018/1019 VRB06KT 8000 BR SCT011 QNH2989INS BECMG 1107/1108 VRB06KT 8000 BR BKN010 BKN018 BKN090 QNH2996INS BECMG 1108/1109 VRB06KT 8000 BR BKN003 OVC010 QNH2995INS TX24/1023Z TN18/1014Z", "KSLK 101153Z 1012/1112 00000KT P6SM OVC025 FM101400 VRB03KT P6SM BKN060", "KSLN 101120Z 1012/1112 VRB03KT P6SM FEW250 FM101800 17008KT P6SM FEW250", "KSME 101120Z 1012/1112 VRB03KT P6SM SKC", "KSMF 101120Z 1012/1112 16005KT P6SM SKC FM101800 VRB05KT P6SM SKC FM110000 17008KT P6SM SKC", "KSMN 101122Z 1012/1112 VRB04KT P6SM SKC FM102300 31012KT P6SM FEW200 FM110100 23005KT P6SM FEW200", "KSMO 101140Z 1012/1112 VRB03KT P6SM OVC008 FM101700 VRB03KT P6SM OVC010 FM101900 24008KT P6SM SCT012 FM110400 VRB03KT P6SM OVC010 FM110800 VRB03KT P6SM OVC008", "KSMX 101140Z 1012/1112 VRB03KT 6SM BR OVC004 FM101400 VRB03KT 2SM BR OVC004 FM101630 30006KT 6SM BR BKN006 FM101800 30012KT P6SM SKC FM110000 31006KT P6SM BKN008 FM110400 VRB03KT P6SM OVC008", "KSNA 101137Z 1012/1112 VRB04KT P6SM OVC014 FM101800 22008KT P6SM FEW015 SCT100 FM110500 VRB04KT P6SM OVC012", "KSNS 101131Z 1012/1112 VRB05KT 5SM BR OVC003 FM101700 VRB03KT P6SM BKN007 FM101830 30014KT P6SM FEW012 FM110200 31006KT P6SM OVC008 FM110600 VRB03KT 5SM BR OVC005", "KSNY 101120Z 1012/1112 23010KT P6SM FEW250 FM101600 24010G20KT P6SM FEW250", "KSOA 101129Z 1012/1112 VRB05KT P6SM OVC020 FM101300 15005KT P6SM OVC050 FM101500 17012G19KT P6SM OVC050 FM110100 16007KT P6SM OVC100", "KSPI 101120Z 1012/1112 VRB03KT P6SM SKC FM110600 16008KT P6SM BKN050", "KSPS 101126Z 1012/1112 VRB05KT P6SM VCSH BKN080 FM101800 21007KT P6SM VCTS BKN080CB FM102100 21007G12KT P6SM VCSH BKN070 PROB30 1101/1107 4SM -SHRA BR OVC025", "KSRQ 101120Z 1012/1112 05007KT P6SM SCT015 SCT080 FM101800 01007KT P6SM SCT025 BKN040 FM110100 07006KT P6SM BKN050", "TAF AMD KSSC 100830Z 1008/1113 04009KT 9000 SHRA FEW017 SCT025 OVC040 QNH3016INS BECMG 1011/1012 04009KT 9999 NSW BKN025 OVC040 QNH3019INS TX20/1018Z TN15/1011Z LAST NO AMDS AFT 1008 NEXT 1015", "KSSF 101120Z 1012/1112 VRB02KT P6SM FEW150 FM101600 13012G22KT P6SM SCT080 SCT200 FM110600 09003KT P6SM SCT020 SCT150", "KSSI 101133Z 1012/1112 34004KT 1SM BR BKN002 FM101400 02006KT P6SM BKN009 FM101600 05010G18KT P6SM SCT025 BKN040 FM110100 03005KT P6SM BKN015", "KSTC 101120Z 1012/1112 12004KT P6SM SKC FM101700 16009KT P6SM FEW150", "KSTJ 101121Z 1012/1112 VRB02KT 1SM BR SKC TEMPO 1012/1013 1/2SM FG VV001 FM101300 VRB04KT P6SM SKC FM101700 18007KT P6SM SCT250 FM110100 18005KT P6SM BKN250", "KSTL 101120Z 1012/1118 VRB04KT P6SM FEW250 FM101500 20006KT P6SM SKC FM110300 VRB04KT P6SM BKN100 FM111200 18008KT 6SM SHRA FEW025 OVC035", "KSTS 101131Z 1012/1112 19003KT 1/2SM FG VV002 FM101730 17004KT P6SM FEW003 FM102100 16007KT P6SM SKC FM110400 VRB04KT P6SM FEW008 FM110800 00000KT 2SM BR OVC004", "KSUA 101136Z 1012/1112 VRB04KT P6SM VCSH SCT025 SCT060 FM101500 VRB05KT P6SM VCSH SCT025 BKN040 FM101800 06008KT P6SM VCTS SCT030CB BKN050 TEMPO 1018/1021 3SM TSRA BKN030CB FM110000 06006KT P6SM SCT035 BKN150 AMD NOT SKED", "KSUN 101120Z 1012/1118 31009KT P6SM SKC FM101700 15008KT P6SM FEW250 FM102000 25013G23KT P6SM FEW250 FM110300 31010KT P6SM FEW250", "KSUS 101120Z 1012/1112 VRB04KT P6SM FEW250 FM101500 20006KT P6SM SKC FM110300 VRB04KT P6SM BKN100", "TAF KSUU 101055Z 1011/1117 23015G25KT 9999 FEW100 QNH2993INS BECMG 1013/1014 23010G15KT 9999 FEW100 QNH2983INS BECMG 1016/1017 VRB06KT 9999 SKC QNH2986INS BECMG 1022/1023 23010G15KT 9999 SKC QNH2983INS BECMG 1104/1105 23015G25KT 9999 SKC QNH2988INS BECMG 1114/1115 23010G15KT 9999 SKC QNH2992INS TX30/1023Z TN12/1013Z", "KSUX 101120Z 1012/1112 15003KT P6SM FEW250 FM102100 18011G16KT P6SM FEW250 FM110900 17009KT P6SM FEW250 WS010/21038KT", "TAF KSVN 100400Z 1004/1110 VRB06KT 9999 FEW020 QNH3012INS BECMG 1009/1010 01006KT 6000 BR FEW005 SCT012 BKN020 QNH3009INS TEMPO 1011/1014 SCT005 BKN012 BECMG 1014/1015 02009KT 9999 NSW FEW005 SCT012 BKN016 QNH3017INS BECMG 1017/1018 05012KT 9999 SCT015 BKN025 QNH3018INS BECMG 1023/1024 05009KT 9999 SCT020 BKN027 QNH3012INS BECMG 1100/1101 05012KT 9999 BKN020 OVC027 QNH3014INS TX27/1020Z TN17/1011Z", "KSWF 101120Z 1012/1118 28004KT P6SM OVC100 FM101600 29009KT P6SM BKN100 FM102100 31006KT P6SM BKN100 FM110100 VRB02KT P6SM FEW250 FM111500 26006KT P6SM FEW250 AMD NOT SKED", "KSWO 101126Z 1012/1112 VRB04KT P6SM VCSH BKN120 FM101700 20007G12KT P6SM SCT080 FM110300 17009G15KT P6SM BKN070 PROB30 1103/1106 4SM TSRA BR OVC025CB FM110600 18008G14KT P6SM BKN021 PROB30 1106/1112 4SM TSRA BR OVC015CB", "KSYM 101120Z 1012/1112 VRB03KT P6SM SCT050 FM101300 VRB03KT P6SM SKC", "KSYR 101120Z 1012/1112 VRB05KT P6SM VCSH BKN050 TEMPO 1014/1016 OVC025 FM101600 29007KT P6SM BKN050 FM110000 00000KT P6SM FEW250", "KTCC 101122Z 1012/1112 17006KT P6SM BKN250 TEMPO 1012/1015 2SM BR SCT002 FM101700 23009KT P6SM SCT060 BKN250 FM102000 22012G20KT P6SM SCT070 BKN250 FM110300 23010KT P6SM FEW100 SCT250", "KTCL 101120Z 1012/1112 VRB03KT P6SM SKC FM101700 03007KT P6SM SKC FM110000 VRB03KT P6SM SKC", "TAF KTCM 100505Z 1005/1111 VRB04KT 9999 SKC QNH3008INS BECMG 1011/1012 VRB04KT 3600 BR SKC QNH3009INS BECMG 1014/1015 03006KT 9999 NSW SKC QNH3009INS BECMG 1020/1021 VRB06KT 9999 BKN120 QNH3006INS BECMG 1109/1110 VRB06KT 9999 BKN025 TX25/1023Z TN08/1013Z", "KTCS 101121Z 1012/1112 01006KT P6SM SCT002 BKN050 TEMPO 1012/1015 1/2SM FG OVC002 FM101500 06006KT P6SM SCT040 BKN100 FM110200 32006KT P6SM SCT150", "KTEB 101120Z 1012/1118 VRB04KT P6SM BKN100 FM101500 26009KT P6SM SCT100 BKN250 FM102300 20005KT P6SM BKN120 FM110300 VRB03KT P6SM FEW250 FM111600 25005KT P6SM FEW250", "KTEX 101120Z 1012/1112 16005KT P6SM SKC FM102000 29007KT P6SM VCTS FEW080CB SCT110 FM110300 14004KT P6SM SKC", "TAF KTIK 100900Z 1009/1115 VRB06KT 9999 FEW045 BKN060 QNH3015INS BECMG 1014/1015 VRB06KT 8000 -SHRA SCT035 OVC055 QNH3022INS BECMG 1017/1018 18009KT 9000 -SHRA SCT045 OVC060 QNH3005INS TX25/1022Z TN16/1012Z", "KTIX 101136Z 1012/1112 VRB05KT P6SM VCSH FEW025 SCT090 FM101500 02008KT P6SM VCSH SCT030 BKN050 FM101800 03011KT P6SM VCTS SCT030CB BKN050 FM110000 03007KT P6SM SCT035 BKN080", "KTLH 101120Z 1012/1112 35005KT P6SM SKC", "KTMB 101125Z 1011/1112 VRB02KT 2SM BR SCT030 FM101200 VRB03KT P6SM VCSH SCT020 SCT070 FM101500 11008KT P6SM VCSH SCT030 BKN045 FM102000 08007KT P6SM SCT035 BKN050 FM110300 10005KT P6SM SCT030 BKN250", "KTOI 101120Z 1012/1112 VRB03KT P6SM SKC FM101500 01009KT P6SM SKC FM110200 VRB03KT P6SM FEW150 FM110900 07003KT P6SM FEW035 SCT150", "KTOL 101126Z 1012/1112 24004KT P6SM FEW250 FM102300 16005KT P6SM SKC", "KTOP 101127Z 1012/1112 VRB02KT 6SM BR SKC TEMPO 1012/1013 1SM BR FM101300 VRB04KT P6SM SKC FM101600 18008KT P6SM SCT250", "KTPA 101120Z 1012/1118 04005KT P6SM SCT020 SCT080 FM101800 01007KT P6SM BKN050 FM110100 06005KT P6SM BKN050", "KTPH 101126Z 1012/1112 35008KT P6SM SCT120 FM101800 30007KT P6SM FEW120 FM110300 34010KT P6SM FEW110", "KTRI 101120Z 1012/1112 00000KT P6SM SKC", "KTRK 101120Z 1012/1112 00000KT P6SM SCT100 FM102100 30005KT P6SM SCT120 FM110100 VRB02KT P6SM FEW090", "KTRM 101137Z 1012/1112 VRB05KT P6SM SKC FM101900 14010KT P6SM SCT100 SCT150 FM110100 VRB05KT P6SM SCT150 FM110600 33006KT P6SM SKC", "KTTD 101140Z 1012/1112 08003KT P6SM SKC FM101800 26005KT P6SM SKC FM110300 26002KT P6SM OVC050 FM111000 VRB03KT P6SM OVC020", "KTTN 101120Z 1012/1112 VRB03KT P6SM FEW250 FM101500 27006KT P6SM FEW050", "KTUL 101135Z 1012/1112 19010KT P6SM SCT060 BKN100 PROB30 1021/1024 5SM -SHRA BKN060 FM110000 18008KT P6SM SCT050 BKN080 PROB30 1100/1106 5SM -SHRA BKN050 FM110600 17008KT 6SM -SHRA OVC060 PROB30 1106/1112 4SM -TSRA BKN040CB", "KTUP 101127Z 1012/1112 00000KT P6SM SKC FM101500 06005KT P6SM SKC FM110000 VRB03KT P6SM SKC", "KTUS 101120Z 1012/1112 14004KT P6SM FEW120 FM101800 12009G18KT P6SM SCT080 SCT120 FM102200 13008KT P6SM BKN080 BKN120 FM110400 14007KT P6SM SCT140", "KTVC 101129Z 1012/1112 00000KT P6SM FEW240 FM101500 VRB03KT P6SM FEW240 FM111000 17004KT P6SM SKC", "KTVF 101131Z 1012/1112 17005KT P6SM SKC FM101600 17010KT P6SM SKC", "KTVL 101120Z 1012/1112 19003KT P6SM SCT100 FM101900 03005KT P6SM VCSH SCT090 FM110100 19003KT P6SM SCT100", "KTWF 101120Z 1012/1112 22010KT P6SM SKC FM101800 29010KT P6SM SKC FM110300 21012KT P6SM FEW150", "KTXK 101120Z 1012/1112 00000KT P6SM BKN120 FM101800 16004KT P6SM SCT080 SCT250 FM110000 VRB04KT P6SM FEW100 FM110700 16004KT P6SM SCT250", "KTYR 101120Z 1012/1112 19005KT P6SM SKC FM101800 19006KT P6SM FEW070 SCT250 FM102100 19005KT P6SM SCT080 SCT250 FM110700 20008KT P6SM SCT250", "KTYS 101120Z 1012/1112 00000KT 1/4SM FG VV001 TEMPO 1012/1013 1SM BR BKN002 FM101300 00000KT 3SM BR SCT003 FM101400 04006KT P6SM SKC", "KUAO 101140Z 1012/1112 VRB03KT 6SM BR MIFG SKC FM101300 VRB03KT 4SM BR MIFG FEW001 FM101600 34006KT P6SM SKC FM110400 34004KT P6SM BKN040 FM111000 VRB03KT P6SM OVC015", "KUES 101131Z 1012/1112 09008KT P6SM FEW200 FM110300 13006KT P6SM FEW250 FM110900 18005KT P6SM FEW200", "KUIN 101120Z 1012/1112 20008KT P6SM SKC FM110000 17007KT P6SM BKN200", "KUKI 101141Z 1012/1112 VRB02KT P6SM SKC FM110000 30007KT P6SM SKC FM110400 VRB02KT P6SM SKC", "KUNV 101129Z 1012/1112 00000KT P6SM BKN090 FM101400 24005KT P6SM SCT100", "KUTS 101127Z 1012/1112 VRB02KT P6SM SKC FM101600 11005KT P6SM SKC FM101900 15007KT P6SM SKC FM110100 VRB03KT P6SM FEW250", "KVCT 101120Z 1012/1112 VRB03KT 6SM BR FEW120 TEMPO 1012/1013 3SM BR FEW003 FM101400 07006KT P6SM FEW020 FM101800 13013G18KT P6SM SCT060 FM110200 09005KT P6SM FEW040 SCT150 FM110900 06005KT 6SM BR SCT040 SCT150", "KVEL 101120Z 1012/1112 VRB04KT P6SM SKC FM110100 28006KT P6SM SKC", "KVGT 101127Z 1012/1112 30006KT P6SM FEW200 FM101400 VRB04KT P6SM FEW120 FM101800 13007KT P6SM SCT120 FM110200 33008KT P6SM FEW120 SCT250 FM110600 33006KT P6SM FEW250", "KVIS 101120Z 1012/1112 VRB06KT P6SM SKC", "KVLD 101120Z 1012/1112 00000KT P6SM SKC TEMPO 1012/1013 4SM BR SCT003 FM101400 01005KT P6SM FEW250 FM110900 03005KT P6SM FEW015", "KVNY 101140Z 1012/1112 VRB03KT 5SM HZ OVC008 FM101330 VRB03KT 2SM BR OVC003 FM101500 VRB03KT 4SM BR BKN006 FM101700 15008KT P6SM SKC FM110000 11006KT P6SM SKC FM110700 VRB03KT P6SM SKC FM111100 VRB03KT 6SM HZ BKN008", "TAF KVOK 100900Z 1009/1115 VRB06KT 9999 SKC QNH2989INS TX17/1021Z TN01/1011Z", "TAF KVPS 100900Z 1009/1115 02005KT 9999 SKC QNH3015INS BECMG 1014/1015 04012KT 9999 SKC QNH3009INS BECMG 1101/1102 02006KT 9999 SKC QNH3012INS TX28/1020Z TN11/1011Z", "KVQQ 101133Z 1012/1112 36003KT 1/4SM FG OVC002 FM101300 36003KT P6SM SCT005 BKN015 FM101500 04006KT P6SM SCT040 FM110600 35003KT 5SM BR BKN009", "KVRB 101136Z 1012/1112 VRB05KT P6SM VCSH FEW025 BKN060 FM101500 VRB05KT P6SM VCSH SCT025 BKN040 FM101800 04009KT P6SM VCTS SCT030CB BKN050 TEMPO 1018/1021 3SM TSRA BKN030CB FM110000 06005KT P6SM SCT035 BKN150", "KVTN 101128Z 1012/1112 VRB04KT P6SM SKC FM101700 20012KT P6SM SCT250 FM102000 21016G24KT P6SM FEW250 FM110400 21011KT P6SM FEW250", "KWJF 101143Z 1012/1112 VRB03KT P6SM SKC FM101800 12006KT P6SM SKC FM102200 27012KT P6SM SCT100 FM110300 27006KT P6SM SCT100 FM110800 VRB03KT P6SM SKC", "KWMC 101126Z 1012/1112 VRB06KT P6SM SKC FM102100 27008KT P6SM SKC FM110200 VRB06KT P6SM SKC", "TAF KWRI 101000Z 1010/1116 VRB06KT 9999 SKC QNH3017INS BECMG 1015/1016 25010G15KT 9999 FEW060 QNH3018INS WND VRB05KT AFT 1022 TX19/1018Z TN03/1010Z", "KWRL 101120Z 1012/1112 28006KT P6SM SKC FM101900 14007KT P6SM SKC FM110200 32009KT P6SM SKC FM110500 VRB04KT P6SM SKC", "KWWR 101126Z 1012/1112 21006G12KT P6SM SCT230 FM101700 21010G15KT P6SM SCT100 PROB30 1021/1024 4SM -SHRA BR BKN090", "KWYS 101121Z 1012/1112 00000KT P6SM SKC FM101700 22009KT P6SM SKC FM110400 VRB02KT P6SM SKC FM111000 VRB04KT P6SM SCT050 BKN080", "KXNA 101135Z 1012/1112 19003KT P6SM BKN060 FM101500 22010KT P6SM SCT060 BKN100 PROB30 1021/1024 5SM -SHRA BKN070 FM110000 VRB05KT P6SM SCT050 BKN080 PROB30 1100/1106 5SM -SHRA BKN050 FM110600 VRB05KT P6SM SCT040 BKN070 PROB30 1106/1112 4SM -TSRA BKN040CB", "KXWA 101129Z 1012/1112 VRB05KT P6SM FEW150 FM101500 22012KT P6SM SKC FM110000 VRB05KT P6SM SKC", "KYIP 101120Z 1012/1112 32004KT P6SM SCT070 FM101500 VRB03KT P6SM SCT060 FM110100 16005KT P6SM SKC FM110600 21005KT P6SM SKC", "KYKM 101124Z 1012/1112 27005KT P6SM SKC FM102000 30012G20KT P6SM SKC FM102200 30020G30KT P6SM FEW100 SCT250 FM110400 32014KT P6SM SKC FM110600 32008KT P6SM SKC", "KYNG 101126Z 1012/1112 22007KT P6SM OVC080 FM101500 21006KT P6SM SCT250 FM102300 VRB03KT P6SM SKC", "KZZV 101120Z 1012/1112 00000KT P6SM SCT120 FM101600 25005KT P6SM SKC", "TAF LATI 101100Z 1012/1112 VRB05KT 9999 SCT070 BKN120 TX23/1012Z TN13/1103Z BECMG 1017/1019 SCT040 BKN070 BECMG 1022/1024 16012KT RA SCT025 OVC040 PROB40 TEMPO 1100/1112 3000 RA BR", "TAF LBBG 101100Z 1012/1112 12012KT 9999 SCT045 BECMG 1018/1020 03010KT", "TAF LBGO 101100Z 1012/1112 08010KT 9999 SCT060 BECMG 1019/1021 VRB04KT TEMPO 1100/1105 2000 BR", "TAF LBPD 101100Z 1012/1112 10010KT 9999 SCT070 BECMG 1022/1024 VRB04KT BECMG 1108/1110 08010KT", "TAF LBSF 101100Z 1012/1112 VRB04KT 9999 SCT060 BECMG 1108/1110 11010KT BECMG 1018/1020 VRB04KT TEMPO 1102/1106 3000 BR SCT010", "TAF LBWN 101100Z 1012/1112 12012KT 9999 SCT040 BECMG 1018/1020 VRB04KT", "TAF LCEN 101040Z 1012/1112 03015KT 9999 FEW025 PROB30 TEMPO 1012/1016 -SHRA BKN025 BECMG 1015/1018 29015KT", "TAF LCLK 101130Z 1012/1112 17012KT 9999 SCT030 BECMG 1019/1022 31007KT BECMG 1108/1111 21012KT", "TAF LCPH 101130Z 1012/1112 28012KT 9999 FEW025 BECMG 1017/1020 35007KT BECMG 1109/1112 29012KT", "TAF LCRA 101037Z 1012/1106 23010KT 9999 FEW040 BECMG 1021/1023 02003KT", "TAF LDDU 101125Z 1012/1112 16009KT 9999 FEW020 SCT050 TX21/1012Z TN16/1104Z PROB30 TEMPO 1015/1018 SHRA FEW025TCU SCT030 BECMG 1017/1019 12012KT RA PROB30 TEMPO 1021/1102 3000 TSRA FEW025CB BKN030 PROB30 TEMPO 1102/1112 08007KT 2000 +SHRA SCT025TCU BKN030", "TAF LDLO 091125Z 0912/1012 33007KT CAVOK TX24/0913Z TN18/1004Z BECMG 0919/0921 02008KT BECMG 1002/1004 12008KT", "TAF LDOS 101125Z 1012/1112 07006KT CAVOK TX19/1013Z TN10/1103Z TEMPO 1100/1108 VRB02KT 3000 BR PROB30 1103/1107 0200 FG VV001", "TAF LDPL 101125Z 1012/1112 09006KT CAVOK TX22/1012Z TN12/1102Z PROB30 TEMPO 1012/1015 FEW040TCU", "TAF LDRI 101125Z 1012/1112 28005KT CAVOK TX22/1013Z TN15/1102Z BECMG 1109/1111 09010KT", "TAF LDSP 101125Z 1012/1112 10007KT CAVOK TX23/1012Z TN15/1105Z PROB30 TEMPO 1014/1020 SHRA FEW035TCU SCT040 BECMG 1110/1111 23007KT", "TAF LDZA 101125Z 1012/1112 VRB02KT 9999 BKN030 TX18/1013Z TN09/1103Z BECMG 1021/1023 2000 BR BECMG 1023/1101 0200 FG VV001 BECMG 1107/1109 3000 BR BKN008 BECMG 1109/1111 9999 NSW SCT030", "TAF LDZD 101125Z 1012/1112 16008KT 9999 SCT050 TX23/1012Z TN11/1105Z BECMG 1015/1017 10003KT PROB30 TEMPO 1023/1105 3000 BR MIFG BECMG 1106/1108 32007KT", "TAF LEAB 101100Z 1012/1112 VRB05KT CAVOK TX22/1012Z TN13/1106Z PROB40 TEMPO 1012/1018 RA SHRA SCT040TCU PROB30 TEMPO 1012/1018 VRB15G25KT 3000 TSRA SCT030CB PROB40 TEMPO 1100/1109 3000 BR BKN004 PROB30 TEMPO 1102/1108 0300 FG VV001", "TAF LEAG 100800Z 1009/1109 VRB03KT 9999 SCT020 TX25/1015Z TN19/1105Z PROB40 TEMPO 1104/1109 BKN006", "TAF LEAL 101100Z 1012/1112 10010KT 9999 FEW030 TX27/1012Z TN17/1106Z BECMG 1020/1022 VRB04KT TEMPO 1012/1102 SHRA SCT020CB", "TAF LEAM 101100Z 1012/1112 21010KT 9999 FEW010 TX26/1014Z TN18/1106Z PROB30 TEMPO 1012/1018 4000 RA SHRA FEW030CB BECMG 1018/1020 VRB02KT PROB30 TEMPO 1100/1106 BKN010", "TAF LEAO 100800Z 1009/1109 VRB04KT 9999 BKN049 TX21/1016Z TN15/1107Z PROB40 TEMPO 1009/1018 3000 SHRA SCT030TCU PROB30 TEMPO 1009/1018 3000 TSRA SCT030CB", "TAF LEAS 100800Z 1009/1109 VRB03KT 9999 BKN020 TX18/1014Z TN13/1105Z TEMPO 1009/1016 3000 SHRA BKN010 FEW030TCU PROB30 TEMPO 1009/1010 30010KT 3000 TSRA FEW030CB PROB40 TEMPO 1016/1109 3000 DZ BR BKN010 PROB40 TEMPO 1020/1109 0800 FG VV002", "TAF LEBA 100800Z 1009/1109 24006KT 9999 FEW040 TX28/1015Z TN18/1106Z PROB40 TEMPO 1012/1103 4000 SHRA FEW030CB PROB40 TEMPO 1012/1024 3000 TSRA SCT030CB", "TAF LEBB 101100Z 1012/1112 12005KT 9999 FEW020 TX24/1014Z TN16/1106Z TEMPO 1014/1019 32008KT PROB30 TEMPO 1015/1020 SHRA RA SCT025 FEW040TCU PROB40 TEMPO 1020/1106 3000 DZ BR BKN010", "TAF LEBG 100800Z 1009/1109 23007KT 9999 SCT050 TX18/1015Z TN09/1106Z PROB30 TEMPO 1016/1024 3000 RA SHRA SCT030TCU BECMG 1017/1019 03010KT PROB30 TEMPO 1104/1108 0400 FG OVC002", "TAF LEBL 101100Z 1012/1112 12010KT 9999 SCT040 TX24/1012Z TN18/1106Z BECMG 1018/1020 05007KT PROB30 TEMPO 1022/1106 SHRA BKN014 FEW020TCU", "TAF LEBR 100800Z 1009/1109 11009KT 9999 FEW020 TX25/1014Z TN13/1105Z PROB30 1013/1021 31010KT PROB40 TEMPO 1013/1109 3000 RA SHRA FEW050TCU PROB30 TEMPO 1014/1103 1500 TSRA FEW040CB", "TAF LEBZ 100800Z 1009/1109 30007KT 9999 FEW045 TX28/1015Z TN17/1106Z PROB30 TEMPO 1013/1024 4000 SHRA FEW040CB", "TAF LECO 100800Z 1009/1109 20008KT 9999 SCT020 TX21/1013Z TN15/1023Z TEMPO 1009/1010 3000 RA BKN010 FEW020TCU PROB30 TEMPO 1010/1018 3000 DZ BKN010 PROB30 TEMPO 1010/1017 32010KT TEMPO 1017/1103 3000 BR BKN010 PROB40 TEMPO 1102/1109 0350 FG VV001", "TAF LECV 101100Z 1012/1112 VRB05KT 9999 SCT020 TX18/1016Z TN11/1106Z PROB30 TEMPO 1012/1019 21010KT PROB30 TEMPO 1012/1014 RA SHRA BKN014 SCT030TCU", "TAF LEEC 100800Z 1009/1109 23005KT 9999 FEW020 TX27/1015Z TN19/1106Z PROB40 TEMPO 1012/1020 4000 TS SHRA FEW030CB PROB30 TEMPO 1100/1109 4000 SHRA FEW025CB", "TAF LEGA 101100Z 1012/1112 VRB02KT 9999 FEW040 TX26/1014Z TN12/1106Z PROB30 TEMPO 1012/1018 22010KT 4000 SHRA FEW040CB", "TAF LEGE 101100Z 1012/1112 VRB03KT 9999 FEW010 SCT020 TX25/1013Z TN16/1106Z PROB40 TEMPO 1012/1016 09010KT TEMPO 1022/1106 3000 BR BKN013", "TAF LEGR 101100Z 1012/1112 VRB02KT 9999 FEW040 TX26/1014Z TN12/1106Z PROB40 TEMPO 1012/1018 27010KT 4000 SHRA FEW040CB", "TAF LEGT 101100Z 1012/1112 VRB05KT CAVOK TX21/1016Z TN14/1106Z PROB30 TEMPO 1012/1019 21010KT PROB30 TEMPO 1012/1014 RA SHRA BKN012 SCT040TCU", "TAF LEHC 100800Z 1009/1109 10007KT 9999 FEW040 TX24/1014Z TN14/1105Z BECMG 1016/1018 VRB05KT PROB40 TEMPO 1022/1109 TS FEW030CB PROB40 TEMPO 1104/1109 1000 +SHRA", "TAF LEIB 100800Z 1009/1109 36007KT 9999 SCT025 TX26/1012Z TN16/1105Z BECMG 1009/1010 09010KT TEMPO 1009/1012 FEW030TCU TEMPO 1012/1024 FEW030CB TEMPO 1100/1109 TSRA SCT020CB PROB40 TEMPO 1102/1106 33010KT 2000 TS +SHRA", "TAF LEJR 100800Z 1009/1109 VRB02KT 9999 SCT020 TX27/1014Z TN17/1106Z BECMG 1010/1012 22010KT PROB30 TEMPO 1018/1024 4000 RA BKN014 BECMG 1019/1021 VRB02KT", "TAF LELC 101100Z 1012/1112 09010KT 9999 FEW030 TX27/1013Z TN17/1106Z PROB40 TEMPO 1012/1102 4000 SHRA FEW030CB PROB30 TEMPO 1017/1102 3000 TSRA SCT030CB BECMG 1019/1021 VRB02KT", "TAF LELL 100800Z 1009/1109 VRB03KT 9999 SCT025 TX23/1013Z TN15/1105Z TEMPO 1009/1024 FEW020TCU TEMPO 1016/1022 BKN020 TEMPO 1012/1018 16008KT", "TAF LELN 100800Z 1009/1109 VRB04KT 9999 BKN030 TX19/1016Z TN08/1107Z PROB30 TEMPO 1014/1024 3000 RA SHRA SCT030TCU PROB30 TEMPO 1014/1020 3000 TSRA SCT030CB", "TAF LELO 100800Z 1009/1109 10007KT CAVOK TX21/1016Z TN14/1107Z PROB30 TEMPO 1009/1018 3000 RA SHRA SCT030TCU", "TAF LEMD 101100Z 1012/1118 VRB05KT CAVOK TX22/1016Z TN12/1106Z PROB30 TEMPO 1012/1019 20010KT PROB30 TEMPO 1012/1014 RA SHRA BKN012 SCT040TCU PROB30 TEMPO 1115/1118 RA SHRA FEW040TCU", "TAF LEMG 101100Z 1012/1112 13006KT 9999 FEW030 TX25/1014Z TN18/1106Z PROB30 TEMPO 1012/1018 4000 SHRA FEW030CB BECMG 1016/1018 VRB02KT PROB30 TEMPO 1022/1106 BKN010 BECMG 1108/1110 13006KT", "TAF LEMH 100800Z 1009/1109 01005KT 9999 SCT015 TX24/1012Z TN18/1105Z TEMPO 1012/1017 VRB04KT", "TAF LEMO 100800Z 1009/1109 22007KT 9999 FEW040 TX27/1015Z TN19/1106Z PROB40 TEMPO 1009/1010 4000 SHRA BKN014 FEW030CB PROB40 TEMPO 1012/1024 4000 TS SHRA FEW030CB PROB30 TEMPO 1100/1109 4000 SHRA FEW030CB", "TAF LEPA 101100Z 1012/1112 20010KT 9999 FEW025 TX27/1013Z TN15/1106Z TEMPO 1012/1014 07005KT PROB30 TEMPO 1015/1018 SHRA FEW020TCU PROB40 TEMPO 1108/1112 TS SHRA FEW030CB", "TAF LEPP 100800Z 1009/1109 VRB03KT CAVOK TX24/1014Z TN11/1105Z TEMPO 1009/1018 19010KT PROB40 TEMPO 1014/1103 3000 RA SHRA SCT025 FEW050TCU PROB30 TEMPO 1015/1103 2000 TSRA FEW040CB", "TAF LERI 101100Z 1012/1112 VRB02KT 9999 FEW030 TX26/1013Z TN15/1106Z BECMG 1012/1015 09010KT PROB40 TEMPO 1012/1022 4000 SHRA FEW030CB BECMG 1019/1021 VRB02KT", "TAF LERL 100800Z 1009/1109 VRB04KT 9999 BKN045 TX21/1016Z TN15/1107Z PROB40 TEMPO 1009/1018 3000 SHRA SCT030TCU PROB30 TEMPO 1009/1018 3000 TSRA SCT030CB", "TAF LERS 100800Z 1009/1109 02005KT 9999 SCT014 TX25/1013Z TN16/1105Z TEMPO 1010/1018 13010KT PROB40 TEMPO 1015/1106 FEW020CB", "TAF LERT 100800Z 1009/1109 VRB02KT 9999 FEW030 TX25/1015Z TN17/1106Z BECMG 1009/1011 22010KT BECMG 1018/1020 VRB02KT", "TAF LESA 100800Z 1009/1109 VRB04KT 9999 SCT030 TX21/1016Z TN12/1107Z PROB30 TEMPO 1009/1018 3000 RA SHRA SCT030TCU", "TAF LESO 101100Z 1012/1112 VRB05KT 9999 FEW020 TX24/1013Z TN17/1105Z PROB40 TEMPO 1014/1018 SHRA FEW040TCU PROB30 TEMPO 1019/1021 29010KT PROB30 TEMPO 1022/1107 3000 BR BKN010 PROB30 TEMPO 1109/1112 FEW018TCU", "TAF LEST 101100Z 1012/1112 VRB05KT 9999 SCT010 TX17/1014Z TN13/1106Z TEMPO 1012/1015 3000 BR BKN005 BKN010 PROB40 TEMPO 1015/1108 3000 BR BKN005 PROB40 TEMPO 1020/1108 0350 FG VV001", "TAF LESU 100800Z 1009/1109 VRB03KT 9999 FEW020 TX22/1014Z TN09/1105Z TEMPO 1012/1016 20007KT TEMPO 1012/1015 FEW060CB TEMPO 1018/1024 SHRA FEW020CB", "TAF LETO 101100Z 1012/1112 VRB05KT CAVOK TX22/1016Z TN11/1106Z PROB30 TEMPO 1012/1019 21010KT PROB30 TEMPO 1012/1014 RA SHRA BKN012 SCT040TCU", "TAF LEVC 101100Z 1012/1112 11010KT 9999 FEW025 TX25/1012Z TN17/1106Z TEMPO 1014/1106 3000 TSRA FEW060CB BECMG 1020/1023 31010KT PROB30 TEMPO 1020/1024 1000 +SHRA BECMG 1110/1112 04007KT", "TAF AMD LEVD 101055Z 1010/1109 23006KT 9999 SCT038 TX18/1016Z TN10/1107Z PROB40 TEMPO 1010/1014 BKN006 PROB30 TEMPO 1014/1024 3000 RA SHRA SCT030TCU", "TAF LEVS 101100Z 1012/1112 VRB05KT CAVOK TX20/1016Z TN14/1106Z PROB30 TEMPO 1012/1019 21010KT PROB30 TEMPO 1012/1014 RA SHRA BKN012 SCT040TCU", "TAF LEVT 101100Z 1012/1112 VRB05KT 9999 FEW025 TX21/1014Z TN13/1106Z PROB30 TEMPO 1016/1021 FEW050TCU PROB40 TEMPO 1021/1108 3000 BR BKN010 PROB40 TEMPO 1100/1107 0350 FG VV002", "TAF LEVX 101100Z 1012/1112 19005KT 9999 SCT012 TX18/1014Z TN12/1106Z PROB40 TEMPO 1012/1018 3000 DZ BR BKN005 BKN010 PROB40 TEMPO 1012/1018 0800 FG DZ VV001 PROB30 TEMPO 1018/1108 3000 BR BKN005 PROB30 TEMPO 1018/1107 0350 FG VV001", "TAF LEXJ 100800Z 1009/1109 VRB04KT 9999 SCT020 TX23/1013Z TN15/1106Z TEMPO 1010/1017 28010KT PROB30 TEMPO 1015/1019 BKN010 PROB40 TEMPO 1015/1109 3000 RA SHRA BKN010 FEW020TCU", "TAF LEZG 101100Z 1012/1112 09008KT 9999 FEW050 TX26/1014Z TN16/1106Z TEMPO 1013/1020 VRB05KT PROB40 TEMPO 1014/1106 FEW060TCU PROB30 TEMPO 1016/1106 FEW020CB BECMG 1106/1108 31007KT", "TAF LEZL 100800Z 1009/1109 23007KT 9999 FEW020 TX27/1015Z TN19/1106Z PROB40 TEMPO 1012/1024 4000 TS SHRA FEW030CB PROB30 TEMPO 1100/1109 4000 SHRA FEW025CB", "TAF LFAQ 101100Z 1012/1021 12003KT CAVOK TEMPO 1014/1015 35012KT BKN014", "TAF LFAT 101100Z 1012/1021 01012KT 9999 BKN009 BKN012 BECMG 1012/1015 BKN030", "TAF LFBA 101100Z 1012/1021 04004KT CAVOK", "TAF LFBC 100800Z 1009/1109 02006KT CAVOK TEMPO 1009/1019 -SHRA SCT060TCU BECMG 1019/1021 BKN035 TEMPO 1019/1109 SHRA SCT035TCU PROB30 TEMPO 1019/1105 4000 TSRA SCT025CB", "TAF LFBD 101100Z 1012/1118 VRB02KT CAVOK TX23/1015Z TN13/1105Z TEMPO 1012/1114 4000 -SHRA BKN085TCU BECMG 1015/1017 02005KT PROB30 TEMPO 1018/1103 1500 TSRA BKN015 BKN035CB TEMPO 1106/1110 BKN006", "TAF LFBE 101100Z 1012/1112 VRB03KT CAVOK TEMPO 1020/1111 4000 -SHRA BKN060TCU PROB30 TEMPO 1020/1103 3000 TSRA BKN050CB", "TAF LFBG 100800Z 1009/1109 15005KT CAVOK TEMPO 1013/1109 -SHRA BKN080TCU PROB30 TEMPO 1021/1024 -TSRA BKN080CB BECMG 1106/1108 04010KT TEMPO 1107/1109 4000 -RA", "TAF LFBH 101100Z 1012/1112 18004KT 9999 SCT012 OVC030 BECMG 1019/1021 05007KT TEMPO 1021/1112 4500 -SHRA BKN030TCU", "TAF LFBI 101100Z 1012/1112 24008KT 9999 BKN015 BECMG 1012/1014 BKN020 BECMG 1019/1021 05007KT TEMPO 1021/1112 4500 -SHRA BKN030TCU TEMPO 1106/1112 3000 BR BKN003", "TAF LFBL 101100Z 1012/1112 21010KT CAVOK PROB40 TEMPO 1013/1020 4000 -SHRA BKN030 SCT080TCU TEMPO 1022/1112 4000 SHRA BKN030 BKN050TCU", "TAF LFBM 100800Z 1009/1109 VRB02KT 9999 OVC008 BECMG 1010/1012 NSC TEMPO 1009/1018 4000 -SHRA BKN070TCU", "TAF LFBO 101100Z 1012/1118 14012KT CAVOK BECMG 1020/1022 VRB03KT BECMG 1023/1101 BKN010 TEMPO 1101/1108 OVC005 PROB40 TEMPO 1101/1107 4000 BR BECMG 1109/1111 SCT030", "TAF LFBP 101100Z 1012/1112 VRB03KT CAVOK TEMPO 1015/1024 4000 SHRA SCT035TCU BKN090 PROB30 TEMPO 1016/1022 30015G25KT 2000 TSRA BKN014 SCT040CB BECMG 1022/1024 27006KT BKN008 PROB30 TEMPO 1100/1109 4000 -RA OVC005", "TAF LFBT 101100Z 1012/1112 27005KT CAVOK PROB40 TEMPO 1016/1020 SCT030TCU BECMG 1100/1102 BKN005 PROB30 TEMPO 1104/1108 4000 -RA BECMG 1108/1110 BKN014", "TAF LFBU 101100Z 1012/1112 13005KT CAVOK BECMG 1012/1014 23007KT PROB40 TEMPO 1019/1111 -SHRA SCT005 BKN055TCU", "TAF LFBZ 101100Z 1012/1112 14005KT 9999 BKN025 PROB40 TEMPO 1012/1112 4000 SHRA FEW060CB BKN070TCU PROB30 TEMPO 1016/1024 -TSRA BKN045CB BECMG 1100/1102 BKN010", "TAF LFCK 101100Z 1012/1021 12013KT CAVOK", "TAF LFCR 101100Z 1012/1112 13010KT CAVOK BECMG 1018/1020 VRB03KT", "TAF LFGJ 101100Z 1012/1021 20008KT CAVOK TEMPO 1018/1021 SHRA FEW035TCU", "TAF LFJL 101100Z 1012/1112 16008KT CAVOK TEMPO 1014/1020 24010KT SHRA SCT030TCU PROB40 TEMPO 1106/1112 BKN008", "TAF LFKB 100800Z 1009/1109 15004KT 9999 SCT025 BKN100 TX23/1012Z TN15/1104Z TEMPO 1009/1018 -SHRA SCT015 FEW035TCU PROB40 TEMPO 1011/1016 4000 TSRA BKN015 SCT035CB BECMG 1018/1020 BKN015 TEMPO 1020/1109 BKN010 PROB30 TEMPO 1020/1109 SHRA FEW020TCU", "TAF LFKC 100800Z 1009/1109 35006KT 9999 FEW035 TX23/1012Z TN14/1105Z TEMPO 1009/1016 SHRA FEW035TCU PROB40 TEMPO 1011/1016 TSRA BKN030 FEW035CB", "TAF LFKF 100800Z 1009/1109 08010KT 9999 FEW030 TEMPO 1009/1018 -SHRA FEW030TCU PROB40 TEMPO 1012/1015 4000 TSRA FEW030CB", "TAF LFKJ 100800Z 1009/1109 23004KT 9999 FEW035 TEMPO 1009/1018 23010KT SHRA FEW035CB PROB40 TEMPO 1011/1016 TSRA FEW035CB", "TAF LFKS 100800Z 1009/1109 06010KT 9999 SCT025 BKN090 TEMPO 1009/1014 -SHRA BKN020TCU TEMPO 1014/1016 6000 -TSRA BKN010 BKN025CB BECMG 1018/1020 27005KT", "TAF LFLB 100800Z 1009/1109 VRB03KT CAVOK PROB40 TEMPO 1009/1011 BKN012 PROB30 TEMPO 1014/1016 FEW030TCU PROB40 TEMPO 1023/1108 4000 BR BKN008", "TAF LFLC 101100Z 1012/1112 18008KT CAVOK PROB40 TEMPO 1012/1018 28015G25KT 4000 SHRA SCT050TCU BECMG 1021/1023 VRB03KT TEMPO 1100/1109 3000 BR OVC009 PROB30 TEMPO 1103/1108 0600 FG VV///", "TAF LFLL 101100Z 1012/1118 18010KT CAVOK BECMG 1016/1018 VRB03KT FM110300 35005KT CAVOK TEMPO 1103/1110 3000 BR BKN006 PROB40 TEMPO 1103/1106 0400 FG VV/// PROB40 TEMPO 1106/1109 0200 FG VV///", "TAF LFLN 101100Z 1012/1021 18005KT CAVOK TEMPO 1018/1021 SHRA FEW035TCU", "TAF LFLP 100800Z 1009/1109 VRB03KT CAVOK PROB30 TEMPO 1009/1010 BKN009 PROB30 TEMPO 1013/1017 FEW040TCU PROB40 TEMPO 1103/1108 4000 BR BKN011", "TAF LFLS 100800Z 1009/1109 09006KT CAVOK TEMPO 1009/1012 3000 BR OVC012 PROB40 TEMPO 1009/1011 0800 FG VV/// TEMPO 1012/1019 24006KT SCT036 TEMPO 1100/1109 VRB02KT 3000 BR OVC007 PROB40 TEMPO 1103/1109 0600 FG VV///", "TAF LFLW 101100Z 1012/1021 12008KT CAVOK PROB40 TEMPO 1012/1018 32012KT SHRA BKN020 SCT030TCU", "TAF LFLX 101100Z 1012/1118 26007KT 9999 SCT020 BKN080 PROB40 TEMPO 1012/1018 -SHRA FEW030TCU PROB30 TEMPO 1013/1017 BKN013 FEW030CB BECMG 1020/1023 04010KT 3000 BR TEMPO 1101/1109 1000 BKN003 PROB40 TEMPO 1101/1108 0500 FG VV/// BECMG 1109/1111 9999 NSW BKN020", "TAF LFLY 101100Z 1012/1112 18010KT CAVOK BECMG 1016/1018 VRB03KT FM110300 35005KT CAVOK TEMPO 1103/1110 3000 BR BKN006 PROB40 TEMPO 1103/1106 0400 FG VV/// PROB40 TEMPO 1106/1109 0200 FG VV///", "TAF LFMD 100800Z 1009/1109 08008KT CAVOK TEMPO 1012/1018 SHRA FEW020TCU", "TAF LFMI 100800Z 1009/1109 13004KT CAVOK TX25/1014Z TN15/1102Z BECMG 1013/1015 25010KT BECMG 1019/1021 04004KT PROB30 TEMPO 1103/1107 2000 BR BKN014", "TAF LFMK 100800Z 1009/1109 09012KT 9999 BKN008 BECMG 1010/1012 BKN014 BECMG 1013/1015 SCT025 BECMG 1018/1020 BKN008 BECMG 1022/1024 08006KT 4000 BR OVC005", "TAF LFML 100800Z 1009/1115 10005KT CAVOK TX24/1114Z TN16/1105Z BECMG 1012/1014 23010KT BECMG 1018/1020 VRB03KT PROB30 TEMPO 1104/1106 2000 BR BKN014 BECMG 1109/1111 25010KT", "TAF LFMN 100800Z 1009/1115 07008KT CAVOK", "TAF LFMO 100800Z 1009/1109 31003KT 9999 BKN065 TX24/1015Z TN12/1104Z PROB40 TEMPO 1021/1103 4000 BR", "TAF LFMP 100800Z 1009/1109 25004KT 9999 BKN025 BECMG 1010/1012 09010KT PROB30 TEMPO 1012/1017 BKN014 BECMG 1015/1017 VRB04KT BECMG 1017/1021 3000 BR OVC008", "TAF LFMT 100800Z 1009/1109 02004KT 9999 SCT030 TEMPO 1012/1016 11010KT PROB30 TEMPO 1012/1020 BKN014 TEMPO 1020/1109 BKN012", "TAF LFMU 100800Z 1009/1109 06006KT 9999 SCT025 PROB30 TEMPO 1012/1019 12010KT BKN014 BECMG 1019/1021 4000 BR BKN010", "TAF LFMV 100800Z 1009/1109 VRB02KT 9999 FEW040 BECMG 1012/1015 25008KT BECMG 1018/1020 VRB02KT PROB30 TEMPO 1103/1106 2000 BR BKN014 ", "TAF LFMY 100800Z 1009/1109 08005KT 9999 SCT040 TX24/1013Z TN12/1104Z TEMPO 1012/1016 23006KT PROB30 1023/1106 SCT008", "TAF LFOA 100800Z 1009/1109 08005KT CAVOK TX18/1012Z TN09/1106Z BECMG 1009/1011 25007KT TEMPO 1012/1018 4000 SHRA BKN050CB BECMG 1018/1020 35002KT PROB30 TEMPO 1100/1103 2000 BR TEMPO 1103/1109 BKN006", "TAF LFOB 101100Z 1012/1112 VRB03KT CAVOK FM101400 34008KT 9999 BKN030 PROB40 TEMPO 1014/1017 3000 SHRA BKN013CB", "TAF LFOE 100800Z 1009/1109 21005KT CAVOK BECMG 1012/1013 30010KT -RA BKN020 OVC030 TEMPO 1012/1015 -SHRA SCT030TCU BECMG 1015/1017 35008KT NSW BECMG 1018/1019 CAVOK", "TAF AMD LFOH 101132Z 1012/1112 09003KT 9999 SCT036 BKN042 TEMPO 1012/1014 03012KT 4000 RADZ BKN009 OVC012 PROB30 TEMPO 1012/1014 1500 DZRA BKN004 OVC007", "TAF LFOJ 100800Z 1009/1109 22010KT 9999 OVC005 TX19/1015Z TN11/1106Z BECMG 1010/1012 BKN020 BECMG 1015/1017 30005KT BECMG 1019/1021 02010KT", "TAF LFOK 100500Z 1006/1106 VRB03KT CAVOK BECMG 1008/1010 20010KT BECMG 1016/1018 36010KT TEMPO 1020/1102 3000 DZ BR BKN003 OVC015", "TAF LFOP 101100Z 1012/1112 31012KT 9999 SCT040 PROB40 TEMPO 1012/1014 4000 SHRA BKN020 BKN025CB", "TAF LFOT 101100Z 1012/1112 25006KT 9999 FEW020 BKN030 PROB30 TEMPO 1012/1017 SHRA BKN014 SCT030TCU TEMPO 1020/1106 BKN012 PROB30 TEMPO 1021/1103 4000 BR BKN006 BECMG 1022/1024 04010KT", "TAF LFPB 101100Z 1012/1112 26010KT CAVOK BECMG 1015/1017 32010KT BECMG 1017/1019 02010KT PROB30 TEMPO 1018/1021 BKN014", "TAF LFPG 101100Z 1012/1118 26010KT CAVOK TX21/1014Z TN07/1104Z BECMG 1015/1017 32010KT BECMG 1017/1019 02010KT PROB30 TEMPO 1018/1021 BKN012", "TAF LFPN 101100Z 1012/1021 25007KT 9999 SCT020 BKN040 TEMPO 1012/1018 -SHRA SCT030TCU PROB30 TEMPO 1013/1017 4000 SHRA BKN013 SCT030CB BECMG 1018/1020 01010KT", "TAF LFPO 101100Z 1012/1118 22008KT 9999 SCT015 BKN120 PROB30 TEMPO 1012/1014 BKN014 PROB30 TEMPO 1015/1018 -SHRA SCT030TCU BECMG 1018/1020 02010KT", "TAF LFPV 100800Z 1009/1109 21005KT CAVOK TX21/1015Z TN06/1106Z PROB30 TEMPO 1009/1011 BKN008 BECMG 1015/1018 34010G20KT PROB40 TEMPO 1018/1021 BKN010", "TAF LFQQ 101100Z 1012/1118 16003KT CAVOK FM101300 33012KT 9999 BKN020 TEMPO 1013/1015 3000 RA OVC012 BECMG 1017/1020 VRB03KT PROB30 1103/1106 4000 BR", "TAF LFRB 101100Z 1012/1118 02015G25KT 9999 BKN020 BECMG 1016/1018 03010KT BECMG 1022/1024 VRB05KT TEMPO 1022/1109 3000 BR PROB40 TEMPO 1102/1108 0500 FG BECMG 1108/1110 07010KT BECMG 1112/1114 VRB05KT", "TAF LFRC 101100Z 1012/1021 02015G25KT 9999 BKN012 TEMPO 1012/1013 BKN004 BECMG 1013/1015 03010KT BKN020", "TAF LFRD 101100Z 1012/1112 36010KT 9999 BKN012 TEMPO 1012/1014 4000 RA BKN006 BECMG 1014/1016 BKN020 TEMPO 1014/1018 02015G25KT BECMG 1022/1024 VRB05KT TEMPO 1102/1108 3000 BR PROB40 TEMPO 1102/1107 0500 FG BECMG 1108/1110 09010KT", "TAF LFRG 101100Z 1012/1021 34010KT 9999 BKN012 TEMPO 1012/1014 3000 RADZ BKN004 BECMG 1014/1016 04010KT BKN020 BECMG 1019/1021 VRB05KT", "TAF LFRH 101100Z 1012/1112 35010KT 9999 SCT013 SCT023 BKN050 PROB30 TEMPO 1012/1014 BKN012 PROB40 TEMPO 1012/1015 SHRA BKN019TCU BECMG 1014/1016 SCT018 BKN025 BECMG 1100/1102 05010KT", "TAF LFRI 101100Z 1012/1112 23004KT 9999 BKN025 BECMG 1019/1021 05007KT TEMPO 1100/1103 4500 -SHRA BKN025TCU TEMPO 1103/1107 3000 BR BKN005", "TAF LFRJ 101100Z 1012/1021 01013KT 9999 BKN021 TEMPO 1012/1018 03015G25KT", "TAF LFRK 101100Z 1012/1021 34010KT 9999 BKN012 TEMPO 1012/1014 3000 RADZ BKN004 BECMG 1014/1016 BKN020 BECMG 1016/1018 04010KT BECMG 1019/1021 VRB05KT", "TAF LFRL 101100Z 1012/1112 03013KT 9999 BKN025 TEMPO 1012/1013 BKN010 TEMPO 1012/1020 04012G25KT", "TAF LFRM 101100Z 1012/1112 26006KT 9999 OVC007 BECMG 1012/1014 SCT030 BKN045 TEMPO 1015/1018 4500 -SHRA BKN035TCU BECMG 1017/1019 01010KT", "TAF LFRN 101100Z 1012/1112 VRB05KT 9999 BKN015 TEMPO 1012/1019 4000 RA BKN008 BECMG 1016/1018 02010KT TEMPO 1102/1108 3000 BR PROB40 TEMPO 1102/1107 0500 FG BECMG 1104/1106 VRB05KT BECMG 1108/1110 06010KT", "TAF LFRQ 101100Z 1012/1112 02010KT 9999 BKN020 TEMPO 1012/1014 BKN012 BECMG 1100/1102 VRB05KT TEMPO 1102/1108 3000 BR PROB40 TEMPO 1102/1107 0500 FG BECMG 1108/1110 08010KT", "TAF LFRS 101100Z 1012/1118 24004KT 9999 BKN030 BECMG 1018/1020 03010KT", "TAF LFRZ 101100Z 1012/1112 32006KT 9999 BKN020 BECMG 1018/1020 02012KT", "TAF LFSB 101100Z 1012/1112 16005KT CAVOK PROB40 TEMPO 1013/1016 FEW060TCU PROB40 TEMPO 1106/1108 -RADZ BKN004", "TAF LFSI 100800Z 1009/1109 10005KT CAVOK BECMG 1010/1012 24015KT TEMPO 1012/1015 6000 SHRA BKN060TCU BKN100 BKN140 PROB40 TEMPO 1012/1015 4000 TSRA FEW015 BKN050CB BKN100 BECMG 1015/1017 27005KT BKN015 BKN025 TEMPO 1021/1109 2000 DZRA BKN005 BKN010 BKN020", "TAF LFSL 101100Z 1012/1021 14005KT CAVOK TEMPO 1012/1015 -SHRA BKN070TCU PROB40 TEMPO 1020/1021 3000 SHRA BKN080TCU", "TAF LFSO 100800Z 1009/1109 VRB02KT CAVOK TEMPO 1014/1021 24010KT -SHRA BKN025TCU BECMG 1021/1024 35010KT BKN008 BECMG 1106/1108 BKN015", "TAF LFST 101100Z 1012/1112 17005KT CAVOK TEMPO 1017/1024 SHRA SCT030TCU TEMPO 1100/1106 SHRA BKN010 FEW030TCU", "TAF LFSX 100800Z 1009/1109 10005KT CAVOK PROB40 TEMPO 1013/1021 4000 SHRA SCT040TCU PROB30 TEMPO 1013/1021 3000 -TSRA SCT030CB TEMPO 1102/1106 3000 BR", "TAF LFTH 100800Z 1009/1109 01005KT 9999 SCT025 BECMG 1009/1011 09010KT BECMG 1018/1020 35005KT CAVOK", "TAF LFTW 100800Z 1009/1109 35004KT 9999 SCT040 BECMG 1012/1015 22010KT BECMG 1018/1020 VRB05KT PROB30 TEMPO 1103/1106 2000 BR BKN014 ", "TAF LFVP 101100Z 1012/1021 26020KT 9999 BKN030 PROB30 TEMPO 1012/1015 6000 -SHRA BKN020 TEMPO 1012/1020 SCT035 BECMG 1019/1021 27015KT SCT040", "TAF LFYR 100800Z 1009/1109 18005KT CAVOK TEMPO 1009/1010 BKN008 TEMPO 1010/1016 29010KT 4000 SHRA BKN017 BKN065TCU PROB30 TEMPO 1023/1103 3000 BR BKN003 TEMPO 1103/1109 BKN006", "TAF LGAD 101100Z 1012/1021 24008KT 9999 FEW025", "TAF LGAL 101100Z 1012/1021 07016KT 9999 FEW025 TEMPO 1017/1021 07016G26KT", "TAF LGAV 101100Z 1012/1112 02016KT 9999 FEW020 TEMPO 1012/1016 01012G22KT BECMG 1018/1020 VRB05KT", "TAF LGBL 101100Z 1012/1021 10008KT 9999 FEW025 BECMG 1019/1021 26005KT", "TAF LGEL 101100Z 1012/1112 35012KT 9999 FEW020 BECMG 1106/1108 VRB05KT", "TAF LGHI 101100Z 1012/1021 36014KT 9999 FEW025", "TAF LGIO 101100Z 1012/1021 VRB03KT 9999 SCT025 BKN080 PROB30 TEMPO 1016/1021 5000 RA", "TAF LGIR 101100Z 1012/1112 32010KT 9999 SCT025 TEMPO 1021/1108 VRB05KT", "TAF LGKC 101100Z 1012/1021 05012KT 9999 FEW025", "TAF LGKF 101100Z 1012/1021 19010KT 9999 FEW018 BECMG 1015/1017 FEW018 SCT020 BKN080 PROB30 TEMPO 1018/1021 5000 RA FEW018TCU BKN020 BKN070", "TAF LGKL 101100Z 1012/1021 16008KT 9999 FEW020 BECMG 1016/1018 34005KT", "TAF LGKO 101100Z 1012/1112 33012KT 9999 FEW020", "TAF LGKP 101100Z 1012/1021 32015KT 9999 FEW020", "TAF LGKR 101100Z 1012/1112 14010KT 9999 FEW018 SCT080 TEMPO 1106/1112 14012G22KT BECMG 1012/1014 SCT020 BKN070 PROB40 TEMPO 1015/1112 5000 RA FEW016TCU BKN020 BKN070 PROB30 TEMPO 1020/1112 5000 TSRA FEW010 FEW016CB BKN020 BKN070", "TAF LGKV 101100Z 1012/1112 06010KT 9999 FEW025 BKN080", "TAF LGLM 101100Z 1012/1021 05012KT 9999 FEW020", "TAF LGLR 101100Z 1012/1021 VRB03KT 9999 FEW025 TEMPO 1012/1018 09008KT", "TAF LGMK 101100Z 1012/1021 36016KT 9999 FEW020 TEMPO 1012/1016 01016G26KT", "TAF LGMT 101100Z 1012/1021 35012KT 9999 FEW025", "TAF LGPZ 101100Z 1012/1112 27010KT 9999 FEW020 BECMG 1015/1017 SCT020 BKN070 BECMG 1021/1023 10010KT PROB40 TEMPO 1021/1112 5000 RA FEW016TCU BKN020 BKN070 PROB30 TEMPO 1023/1112 5000 TSRA FEW012 FEW016CB BKN020 BKN070", "TAF LGRP 101100Z 1012/1112 27010KT 9999 FEW020", "TAF LGRX 101100Z 1012/1021 26008KT 9999 FEW025", "TAF LGSA 101100Z 1012/1112 VRB05KT 9999 SCT025 TEMPO 1012/1016 35010KT", "TAF LGSK 101100Z 1012/1021 03010KT 9999 FEW015", "TAF LGSM 101100Z 1012/1021 36012KT 9999 FEW025", "TAF LGSR 101100Z 1012/1112 35012KT 9999 FEW020", "TAF LGST 101100Z 1012/1021 29016KT 9999 FEW025 TEMPO 1012/1015 29016G26KT", "TAF LGSY 101100Z 1012/1021 01012KT 9999 FEW020", "TAF LGTG 101100Z 1012/1021 35008KT 9999 FEW025", "TAF LGTL 101100Z 1012/1021 01010KT 9999 FEW025", "TAF LGTS 101100Z 1012/1112 15013KT 9999 SCT025 PROB30 TEMPO 1103/1112 5000 RA FEW008 SCT020 BECMG 1018/1020 VRB03KT", "TAF LGZA 101100Z 1012/1021 19010KT 9999 SCT018 BECMG 1018/1020 SCT018 BKN080", "TAF LHBP 101115Z 1012/1112 10006KT CAVOK BECMG 1021/1024 04004KT 9999 BKN033 BKN150", "TAF LHDC 101115Z 1012/1021 VRB02KT CAVOK", "TAF LHKE 101115Z 1012/1021 07008KT CAVOK BECMG 1012/1015 09004KT BECMG 1016/1018 VRB03KT TEMPO 1017/1021 9999 SCT040 BKN180", "TAF LHPA 101115Z 1012/1112 19008KT CAVOK BECMG 1012/1015 16005KT BECMG 1018/1021 VRB03KT TEMPO 1100/1106 8000 MIFG NSC TEMPO 1106/1112 9999 SCT030 BKN080 BECMG 1109/1112 36004KT", "TAF LHPP 101115Z 1012/1021 11006KT CAVOK", "TAF LHPR 101115Z 1012/1021 15008KT CAVOK", "TAF LHSM 101115Z 1012/1021 VRB02KT CAVOK", "TAF LHSN 101115Z 1012/1021 05007KT CAVOK TEMPO 1012/1016 VRB03KT", "TAF LIBA 100800Z 1009/1018 11010KT 9999 FEW025CB SCT060 TEMPO 1012/1018 7000 TSRA BECMG 1018/1019 28008KT 9999 SCT030 SCT060", "TAF LIBC 101100Z 1012/1112 20015KT 9999 SCT030 TEMPO 1012/1018 20015G25KT 3000 TSRA BKN010 BECMG 1023/1102 01010KT", "TAF LIBD 101100Z 1012/1112 08008KT 9999 BKN030 TEMPO 1012/1021 4000 TSRA BKN010 BECMG 1013/1016 28010KT TEMPO 1100/1106 3000 RA BR BECMG 1109/1111 34008KT", "TAF LIBF 101100Z 1012/1112 10010KT 9999 BKN030 TEMPO 1012/1021 4000 TSRA BECMG 1017/1019 VRB05KT TEMPO 1022/1106 2000 BR BECMG 1105/1107 32010KT", "TAF LIBG 101100Z 1012/1021 18010KT 9999 SCT020 BKN040 TEMPO 1012/1021 4000 TSRA BKN010 BECMG 1017/1019 VRB05KT", "TAF LIBN 100800Z 1009/1018 11010KT 8000 SCT025 TEMPO 1009/1011 6000 RA SCT015 TEMPO 1011/1018 16012G25KT 4000 TSRA FEW012CB BKN020", "TAF LIBP 101100Z 1012/1112 07010KT 9999 BKN030 TEMPO 1012/1018 TSRA BECMG 1016/1018 VRB05KT BECMG 1020/1022 3000 BR TEMPO 1100/1106 0400 FG BKN002 BECMG 1105/1107 6000", "TAF LIBR 101100Z 1012/1112 17008KT 8000 BKN030 TEMPO 1012/1103 3000 TSRA BKN010 BECMG 1022/1101 33010KT", "TAF COR LIBV 101100Z 1012/1021 16010KT 5000 RA BR SCT007 BKN012 TEMPO 1012/1016 2000 SHRA BKN005 FEW012CB PROB30 TEMPO 1013/1016 TSRA BECMG 1016/1018 1500 BR FEW003 BKN005 TEMPO 1019/1021 0800 FG BKN004", "TAF LICA 101100Z 1012/1112 08012KT 9999 SCT030 TEMPO 1012/1018 4000 TSRA BECMG 1016/1018 VRB05KT TEMPO 1018/1021 4000 SHRA TEMPO 1109/1112 TSRA BECMG 1110/1112 27010KT", "TAF LICB 101100Z 1012/1112 25010KT 9999 BKN030 TEMPO 1012/1018 4000 TSRA BECMG 1016/1018 VRB04KT BECMG 1110/1112 25010KT", "TAF LICC 101100Z 1012/1112 25010KT 9999 SCT030 TEMPO 1012/1020 4000 TSRA BECMG 1110/1112 10010KT", "TAF LICD 101100Z 1012/1112 20015KT 9999 SCT020 TEMPO 1012/1015 4000 TSRA", "TAF LICG 101100Z 1012/1021 12013KT 9999 SCT020 TEMPO 1012/1015 4000 TSRA BECMG 1016/1018 VRB05KT", "TAF LICJ 101100Z 1012/1112 20012KT 9999 SCT030 BECMG 1012/1014 27010KT TEMPO 1012/1015 4000 SHRA BECMG 1016/1018 VRB05KT BECMG 1110/1112 03010KT", "TAF LICR 101100Z 1012/1112 19010KT 9999 SCT030 TEMPO 1012/1018 4000 TSRA TEMPO 1109/1112 TSRA", "TAF LICT 101100Z 1012/1021 20010KT 9999 SCT020 PROB30 TEMPO 1018/1021 7000 TSRA FEW012CB SCT018", "TAF LICZ 101100Z 1012/1112 29007KT 9999 SCT030 SCT080 TEMPO 1012/1018 5000 RA BKN030 BKN080 PROB40 TEMPO 1012/1015 TSRA FEW020CB TEMPO 1018/1021 7000 SHRA FEW020TCU BKN030", "TAF LIEA 101100Z 1012/1112 VRB05KT 9999 SCT025 TEMPO 1012/1016 4000 TSRA", "TAF LIED 101100Z 1012/1021 14010KT 9999 SCT020 SCT040 TEMPO 1013/1017 4000 RA TSRA FEW015CB BKN020", "TAF LIEE 101100Z 1012/1112 16010KT 9999 SCT030 TEMPO 1012/1015 4000 TSRA BECMG 1017/1019 VRB05KT TEMPO 1109/1112 SHRA BECMG 1110/1112 18010KT", "TAF LIEO 101100Z 1012/1112 06008KT 9999 SCT025 TEMPO 1012/1015 4000 TSRA TEMPO 1015/1021 SHRA", "TAF LIMC 101100Z 1012/1118 VRB05KT 9999 SCT040 TEMPO 1022/1107 2000 BCFG", "TAF LIME 101100Z 1012/1112 VRB05KT 9999 SCT060", "TAF LIMF 101100Z 1012/1112 VRB05KT 8000 SCT020 TEMPO 1021/1106 2000 BCFG", "TAF LIMG 101100Z 1012/1112 05010KT 9999 FEW030 BECMG 1014/1016 35006KT BECMG 1109/1111 08010KT", "TAF LIMJ 101100Z 1012/1112 03012KT 9999 SCT030 TEMPO 1012/1014 4000 SHRA BECMG 1108/1110 VRB05KT", "TAF LIML 101100Z 1012/1112 VRB05KT 9999 SCT030 BECMG 1021/1023 4000 BR TEMPO 1100/1106 0800 FG BKN005 BECMG 1106/1108 8000", "TAF LIMN 101100Z 1012/1021 02006KT 9999 SCT040 TEMPO 1012/1015 5000 RA BR SCT030 BKN050", "TAF LIMP 101100Z 1012/1112 VRB05KT 8000 SCT050 TEMPO 1100/1106 3000 BR", "TAF LIMW 101100Z 1012/1021 09010KT 9999 SCT060 BECMG 1015/1017 VRB05KT", "TAF LIMZ 101100Z 1012/1112 VRB05KT 8000 SCT008 TEMPO 1021/1106 2000 BCFG", "TAF LIPA 101100Z 1012/1021 06006KT 9999 SCT080", "TAF LIPB 101100Z 1012/1112 VRB04KT 9999 BKN040", "TAF LIPC 101100Z 1012/1021 06008KT 9999 SCT020 PROB40 TEMPO 1012/1017 5000 TSRA FEW015CB BKN020", "TAF LIPE 101100Z 1012/1112 VRB05KT 9999 BKN030 PROB40 TEMPO 1012/1016 4000 TSRA", "TAF LIPH 101100Z 1012/1112 VRB05KT 9999 SCT050", "TAF LIPI 101100Z 1012/1021 09005KT 9999 FEW080 SCT110", "TAF LIPK 101100Z 1012/1112 VRB06KT 9999 SCT040 PROB30 TEMPO 1012/1018 TSRA TEMPO 1022/1106 2000 BCFG", "TAF LIPL 101100Z 1012/1021 10007KT 9999 FEW040 SCT080", "TAF LIPO 101100Z 1012/1112 VRB05KT 9999 SCT050 TEMPO 1023/1106 4000 BR", "TAF LIPQ 101100Z 1012/1112 VRB05KT 9999 SCT050", "TAF LIPR 101100Z 1012/1112 VRB05KT 9999 FEW060 BECMG 1018/1020 29010KT BECMG 1109/1112 35010KT", "TAF LIPS 100800Z 1009/1018 04005KT 9999 BKN090 TEMPO 1012/1015 08010KT 9999 FEW030 SCT090", "TAF LIPX 101100Z 1012/1112 VRB05KT 9999 SCT060 TEMPO 1100/1106 4000 BR", "TAF LIPY 101100Z 1012/1112 10010KT 9999 SCT050 TEMPO 1012/1018 RA BECMG 1018/1020 VRB05KT TEMPO 1100/1106 3000 BR", "TAF LIPZ 101100Z 1012/1118 VRB06KT 9999 SCT040 TEMPO 1102/1106 3000 BR", "TAF LIQW 101100Z 1012/1021 32006KT 9999 FEW040 TEMPO 1012/1018 5000 RA BR BKN035 PROB30 TEMPO 1012/1015 3000 TSRA FEW020CB BKN025", "TAF LIRA 101100Z 1012/1112 16006KT 9999 SCT040 TEMPO 1012/1016 4000 TSRA TEMPO 1110/1112 RA", "TAF LIRE 101100Z 1012/1021 VRB03KT 9999 FEW020CB SCT070 TEMPO 1012/1015 20010KT TEMPO 1014/1017 5000 SHRA SCT020CB BKN040", "TAF LIRF 101100Z 1012/1118 12010KT 9999 SCT040 TEMPO 1012/1015 4000 TSRA BECMG 1016/1018 06006KT BECMG 1110/1112 23010KT", "TAF LIRG 101100Z 1012/1021 VRB03KT CAVOK TEMPO 1012/1015 9999 SCT025 SCT060", "TAF LIRH 101100Z 1012/1021 15008KT 9999 SCT035 SCT070 TEMPO 1015/1017 20018KT 6000 SHRA FEW030CB", "TAF LIRL 101100Z 1012/1021 VRB02KT 9999 SCT030 TEMPO 1015/1018 5000 SHRA SCT025TCU SCT060", "TAF LIRM 101100Z 1012/1021 12005KT 9999 FEW030 SCT070", "TAF LIRN 101100Z 1012/1112 04006KT 9999 SCT040 TEMPO 1012/1018 4000 TSRA", "TAF LIRP 101100Z 1012/1112 22006KT 9999 FEW040 SCT080 PROB30 TEMPO 1012/1018 5000 TSRA FEW025CB BKN040 BECMG 1020/1022 12006KT PROB30 TEMPO 1102/1106 5000 MIFG", "TAF LIRQ 101100Z 1012/1112 VRB05KT 9999 FEW030 SCT050 TEMPO 1012/1015 4000 SHRA", "TAF COR LIRS 101100Z 1012/1021 11008KT 8000 SCT020 BKN060 TEMPO 1012/1016 5000 TSRA FEW018CB BKN020", "TAF LIRU 101100Z 1012/1021 VRB05KT 9999 FEW030 TEMPO 1012/1015 TSRA", "TAF LIRV 101100Z 1012/1021 VRB03KT 9999 SCT025 BKN060 TEMPO 1014/1017 26010KT 5000 SHRA SCT025TCU SCT035", "TAF LIRZ 101100Z 1012/1112 02006KT 9999 SCT030 TEMPO 1012/1016 SHRA", "TAF LJCE 101100Z 1012/1021 09003KT 9999 SCT035 BKN050", "TAF LJLJ 101100Z 1012/1112 VRB02KT 9999 SCT035 PROB40 TEMPO 1022/1109 SCT003 BKN010", "TAF LJMB 101100Z 1012/1112 VRB02KT 9999 FEW045", "TAF LJPZ 101100Z 1012/1021 28005KT CAVOK", "TAF LKKB 100500Z 1006/1106 10007KT CAVOK BECMG 1012/1014 22004KT BECMG 1020/1022 27010KT TEMPO 1103/1106 27004KT 5000 MIFG BR BECMG 1104/1106 SCT015 BKN028", "TAF LKKV 101100Z 1012/1118 04008KT CAVOK BECMG 1015/1017 24005KT BECMG 1023/1101 VRB02KT 9999 BKN025 TEMPO 1101/1113 -RA BKN014 BECMG 1113/1115 10004KT", "TAF LKMT 101100Z 1012/1118 21009KT CAVOK TEMPO 1012/1016 20016KT BECMG 1100/1102 9999 BKN030 TEMPO 1102/1110 -RA BKN018 BECMG 1107/1109 01007KT", "TAF LKNA 100500Z 1006/1106 12012KT CAVOK TEMPO 1006/1017 15016G30KT BECMG 1018/1020 15008KT 9999 BKN030 BECMG 1100/1102 30008KT", "TAF LKPD 100500Z 1006/1106 10008KT CAVOK BECMG 1012/1014 16008KT BECMG 1021/1100 VRB02KT BKN025", "TAF LKPR 101100Z 1012/1118 20004KT CAVOK BECMG 1017/1019 24008KT BECMG 1102/1104 35005KT 9999 BKN040 PROB40 TEMPO 1104/1112 -RA BKN025", "TAF LKTB 101100Z 1012/1118 15014KT CAVOK PROB30 TEMPO 1012/1016 17014G24KT BECMG 1016/1018 VRB02KT BECMG 1110/1112 05008KT 9999 BKN035", "TAF LLBG 101103Z 1012/1112 33011KT 9999 SCT045 BECMG 1015/1017 02006KT FEW035 BECMG 1019/1021 VRB03KT PROB40 TEMPO 1022/1105 14005KT SCT030 BECMG 1105/1107 32012KT TX29/1012Z TN19/1103Z", "TAF LLER 101102Z 1012/1112 01015KT CAVOK TEMPO 1012/1015 02020G30KT BECMG 1015/1017 36013KT PROB30 1101/1105 9999 SCT030 PROB40 TEMPO 1108/1112 02020G30KT TX31/1012Z TN22/1103Z", "TAF LLHA 101104Z 1012/1112 33010KT 9999 FEW040 BECMG 1017/1019 VRB04KT SCT030 PROB40 TEMPO 1021/1105 13006KT BKN030 BECMG 1105/1107 34012KT FEW035 TX27/1012Z TN20/1103Z", "TAF LLHZ 101104Z 1012/1112 33010KT 9999 FEW045 BECMG 1015/1017 03005KT SCT030 BECMG 1019/1021 VRB03KT PROB40 TEMPO 1022/1105 15005KT BKN030 BECMG 1105/1107 32011KT FEW035 TX28/1012Z TN21/1103Z", "TAF LLIB 101106Z 1012/1112 VRB04KT 9999 FEW035 FM101300 33011KT 9999 FEW035 BECMG 1017/1019 VRB04KT PROB30 1023/1106 8000 SCT012 BECMG 1106/1108 17006KT CAVOK TX29/1012Z TN15/1103Z", "TAF LMML 101100Z 1012/1112 20015KT 9999 SCT020 TEMPO 1012/1018 8000 SHRA BKN020TCU PROB30 TEMPO 1012/1018 4000 TSRA BKN015CB BECMG 1100/1103 31005KT", "TAF LOAN 101125Z 1012/1021 16012KT CAVOK TEMPO 1012/1015 18015G25KT", "TAF LOAV 101125Z 1012/1021 15012KT CAVOK TEMPO 1012/1015 16015G25KT", "TAF LOWG 101115Z 1012/1112 VRB05KT 9999 FEW030 TX19/1112Z TN07/1103Z TEMPO 1012/1016 16008KT TEMPO 1020/1024 0500 BCFG TEMPO 1100/1108 0300 FG VV002", "TAF LOWI 101115Z 1012/1112 27008KT 9999 SCT070 TX19/1014Z TN10/1105Z TEMPO 1012/1018 09007KT", "TAF LOWK 101115Z 1012/1112 VRB04KT 9999 FEW050 SCT100 TX18/1014Z TN09/1105Z TEMPO 1100/1108 BKN002 PROB30 TEMPO 1100/1106 0400 BCFG", "TAF LOWL 101115Z 1012/1112 VRB03KT CAVOK TX18/1014Z TN09/1106Z PROB40 TEMPO 1102/1108 1200 BCFG PROB30 TEMPO 1104/1107 0600 FG BKN001", "TAF LOWS 101115Z 1012/1112 01006KT 9999 FEW060 BKN130 TX21/1013Z TN10/1103Z BECMG 1016/1018 15006KT TEMPO 1022/1110 -SHRA SCT010 BKN030 PROB30 TEMPO 1022/1102 4500 SHRA BKN012 BECMG 1108/1110 34006KT", "TAF LOWW 101115Z 1012/1118 14018G28KT CAVOK TX19/1113Z TN09/1103Z BECMG 1016/1019 15008KT BECMG 1102/1105 31008KT", "TAF LOXA 101115Z 1012/1021 04007KT 9999 FEW100 SCT270 TEMPO 1012/1018 06010KT FEW050 SCT140 BECMG 1018/1020 VRB03KT", "TAF LOXN 101115Z 1012/1021 18010KT 9999 FEW040 BKN300 PROB40 TEMPO 1012/1014 18015G25KT", "TAF LOXT 101115Z 1012/1021 10010KT 9999 FEW090 BKN300 PROB40 TEMPO 1012/1014 13015G25KT BECMG 1018/1020 VRB03KT", "TAF LOXZ 101115Z 1012/1021 VRB03KT 9999 FEW040 BKN300", "TAF LPAR 101105Z 1012/1021 20008KT 9999 SCT012 SCT020 TEMPO 1012/1018 5000 -RADZ BR SCT008 BKN014 FEW022TCU BECMG 1017/1019 VRB02KT", "TAF LPAZ 101100Z 1012/1118 35008KT 9999 FEW010 SCT030 PROB40 TEMPO 1012/1115 SCT004 BKN008 BECMG 1100/1103 04008KT BECMG 1112/1115 09008KT", "TAF LPBJ 101104Z 1012/1112 VRB02KT 9999 FEW040 BECMG 1020/1022 5000 BR SCT010 SCT015 TEMPO 1021/1108 2500 RADZ BR BKN004 FEW022TCU BECMG 1107/1109 9999 NSW FEW040", "TAF LPCS 101100Z 1012/1021 19007KT 9999 SCT008 BKN018 TEMPO 1012/1015 5000 -RADZ BR SCT004 BKN008 FEW025TCU PROB30 TEMPO 1012/1015 2000 TSRA BKN004 FEW020CB BECMG 1016/1019 33007KT", "TAF LPFR 101100Z 1012/1112 17005KT 9999 FEW020 BECMG 1012/1015 24008KT BECMG 1018/1020 30007KT 9999 SCT020 TEMPO 1020/1110 5000 RA BKN012 FEW025TCU PROB30 TEMPO 1020/1110 3000 TSRA BKN008 SCT020CB BECMG 1022/1024 VRB02KT BECMG 1104/1106 06010KT BECMG 1110/1112 12012KT", "TAF LPHR 101100Z 1012/1021 30007KT 9999 FEW015 SCT025 TEMPO 1012/1021 VRB05KT PROB30 TEMPO 1012/1018 SCT004 BKN010", "TAF LPLA 101100Z 1012/1112 33008KT 9999 FEW010 SCT030 PROB40 TEMPO 1101/1109 VRB02KT 4000 -DZRA SCT006 BKN012", "TAF LPMA 101100Z 1012/1112 VRB05KT 9999 SCT015 TEMPO 1012/1112 SCT015 BKN030 PROB40 TEMPO 1012/1016 20008KT 6000 -RA BKN013 BECMG 1017/1019 01013KT", "TAF LPMR 101104Z 1012/1112 VRB02KT 9999 SCT015 PROB40 TEMPO 1012/1017 5000 -RADZ BR BKN009 FEW022TCU BECMG 1017/1019 5000 BR SCT004 PROB40 1018/1110 0200 FG BKN002", "TAF LPMT 101104Z 1012/1112 20008KT 9999 SCT015 TEMPO 1012/1019 5000 -RADZ BR SCT008 BKN014 FEW022TCU BECMG 1018/1020 VRB02KT SCT010 PROB40 1021/1109 4000 BR BKN004", "TAF LPOV 101104Z 1012/1112 20008KT 9999 FEW015 SCT022 PROB40 TEMPO 1012/1016 5000 -RADZ BR SCT008 BKN014 FEW022TCU BECMG 1017/1020 VRB02KT 5000 BR SCT008 PROB40 1018/1109 0200 FG BKN002", "TAF LPPD 101100Z 1012/1112 01007KT 9999 FEW012 SCT035 PROB30 TEMPO 1012/1112 VRB05KT SCT004 BKN010", "TAF LPPR 101100Z 1012/1112 19010KT 9999 SCT008 BKN015 PROB30 TEMPO 1012/1015 VRB05KT 5000 -RADZ BR SCT004 BKN008 BECMG 1015/1017 30005KT SCT015 BKN025 BECMG 1018/1020 VRB02KT SCT025 BECMG 1020/1022 5000 BR SCT005 PROB40 TEMPO 1020/1108 2000 BR BKN002 BECMG 1108/1111 28005KT 9999 NSW FEW020", "TAF LPPS 101100Z 1012/1118 32012KT 9999 SCT015 TEMPO 1012/1118 SCT012 BKN030 PROB40 TEMPO 1012/1016 5000 -RADZ BR SCT004 BKN008 BECMG 1016/1018 36013KT", "TAF LPPT 101100Z 1012/1118 22010KT 9999 SCT008 BKN018 TEMPO 1012/1017 5000 -RADZ BR SCT005 BKN010 FEW035TCU PROB30 TEMPO 1012/1017 3000 TSRA BKN005 FEW030CB BECMG 1017/1020 33007KT SCT015 BKN030 BECMG 1022/1024 VRB02KT SCT008 TEMPO 1100/1109 5000 BR BKN005 BECMG 1109/1112 04007KT SCT025", "TAF LPST 101105Z 1012/1021 20008KT 6000 SCT008 SCT014 TEMPO 1012/1018 4000 -RADZ BR BKN004 FEW020CB BECMG 1018/1021 VRB02KT 4000 BR BKN004", "TAF LQBK 101100Z 1012/1112 VRB02KT 5000 BR BKN011 TX19/1013Z TN09/1104Z PROB40 TEMPO 1012/1017 8000 NSW SCT035 PROB30 TEMPO 1023/1107 0300 FG BKN003", "TAF LQMO 101100Z 1012/1112 VRB02KT 9999 SCT045 TX25/1013Z TN12/1104Z TEMPO 1020/1112 35010KT RA PROB30 TEMPO 1103/1112 5000 SHRA FEW040TCU SCT050", "TAF LQSA 101100Z 1012/1112 VRB02KT 9999 SCT040 TX20/1013Z TN08/1104Z PROB40 TEMPO 1022/1112 4000 RA BKN014 BKN035", "TAF COR LQTZ 101100Z 1012/1112 VRB02KT 8000 SCT025 TX22/1013Z TN09/1104Z TEMPO 1021/1108 1500 -RA BR BKN010 PROB30 TEMPO 1101/1106 0300 FG BKN002", "TAF LRAR 101100Z 1012/1021 VRB04KT CAVOK", "TAF LRBC 101100Z 1012/1021 35008KT CAVOK", "TAF LRBM 101100Z 1012/1021 11008KT CAVOK", "TAF LRBO 101100Z 1012/1112 04006KT 9999 SCT050 TEMPO 1012/1014 04016KT BECMG 1106/1108 21008KT SCT040 BKN100", "TAF LRBS 101100Z 1012/1112 08009KT CAVOK", "TAF LRCK 101100Z 1012/1112 02010KT CAVOK BECMG 1013/1015 VRB04KT", "TAF LRCL 101100Z 1012/1021 13010KT 9999 SCT020 BECMG 1016/1018 VRB04KT", "TAF LRCT 101100Z 1012/1112 12005KT 9999 SKC BECMG 1017/1019 BKN150", "TAF LRCV 101100Z 1012/1021 08012KT CAVOK", "TAF LRFT 101100Z 1012/1112 04012KT 9999 SCT060 BECMG 1016/1018 VRB02KT BKN150 PROB30 TEMPO 1101/1105 5000 BR", "TAF LRIA 101100Z 1012/1021 32010KT CAVOK BECMG 1015/1017 VRB03KT", "TAF LROD 101100Z 1012/1021 VRB04KT CAVOK", "TAF LROP 101100Z 1012/1112 08009KT CAVOK", "TAF LRSB 101100Z 1012/1112 11012KT CAVOK BECMG 1017/1019 VRB04KT", "TAF LRSM 101100Z 1012/1021 13008KT CAVOK", "TAF LRSV 101100Z 1012/1021 VRB04KT CAVOK", "TAF LRTC 101100Z 1012/1021 35012KT CAVOK BECMG 1016/1018 VRB04KT", "TAF LRTM 101100Z 1012/1021 VRB04KT CAVOK", "TAF LRTR 101100Z 1012/1112 12006KT CAVOK", "TAF LRTZ 101100Z 1012/1112 03012KT 9999 SCT200 BECMG 1016/1018 VRB03KT PROB30 TEMPO 1023/1104 3000 BR BECMG 1105/1107 03006KT", "TAF LSGC 101125Z 1012/1021 22005KT 9999 FEW030", "TAF LSGG 101125Z 1012/1118 VRB03KT 9999 FEW035 TX21/1015Z TN10/1105Z TX19/1115Z PROB40 TEMPO 1102/1108 1500 BCFG", "TAF LSGS 101125Z 1012/1021 VRB03KT 9999 SCT080 SCT150", "TAF LSZA 101125Z 1012/1021 VRB02KT 9999 BKN055 PROB30 TEMPO 1012/1014 SHRA", "TAF LSZB 101125Z 1012/1021 VRB02KT 9999 SCT080 TEMPO 1013/1018 CAVOK", "TAF LSZC 101125Z 1012/1021 VRB02KT 9999 SCT070", "TAF LSZG 101125Z 1012/1021 22004KT 9999 FEW020 TEMPO 1012/1017 CAVOK PROB30 TEMPO 1018/1021 SHRA", "TAF LSZH 101125Z 1012/1118 VRB02KT 9999 SCT070 TX19/1014Z TN09/1104Z TX18/1114Z TEMPO 1012/1020 CAVOK PROB30 TEMPO 1021/1103 SHRA PROB40 1102/1108 2000 BCFG PROB30 1103/1108 1000 PRFG VV004 BECMG 1109/1111 03006KT BECMG 1116/1118 VRB02KT", "TAF LSZL 101125Z 1012/1021 VRB02KT 9999 BKN070 TEMPO 1015/1021 CAVOK", "TAF LSZR 101125Z 1012/1021 VRB02KT CAVOK TEMPO 1012/1021 9999 FEW080", "TAF LSZS 101125Z 1012/1021 22007KT 9999 FEW030 SCT065 TX12/1014Z PROB40 TEMPO 1012/1021 SHRA FEW040TCU", "TAF LTAB 101040Z 1012/1021 VRB02KT 9999 SCT040 BECMG 1015/1017 CAVOK", "TAF LTAC 101040Z 1012/1112 VRB02KT 9999 SCT040 BECMG 1015/1018 CAVOK BECMG 1106/1108 SCT040", "TAF LTAD 101040Z 1012/1021 33008KT 9999 SCT040 BECMG 1015/1017 CAVOK", "TAF LTAE 101040Z 1012/1021 33008KT 9999 SCT040 BECMG 1017/1019 CAVOK", "TAF LTAF 101040Z 1012/1112 VRB02KT CAVOK", "TAF LTAG 101040Z 1012/1112 03008KT CAVOK TEMPO 1013/1017 22012KT", "TAF LTAH 101040Z 1012/1021 VRB02KT 9999 FEW035 BECMG 1012/1015 CAVOK", "TAF LTAI 101040Z 1012/1112 16012KT 9999 FEW030 BECMG 1015/1018 34008KT CAVOK BECMG 1108/1111 18010KT FEW030", "TAF LTAJ 101040Z 1012/1112 19006KT 9999 FEW040 BECMG 1014/1016 CAVOK BECMG 1018/1020 35010KT BECMG 1109/1111 19006KT", "TAF LTAL 101040Z 1012/1021 28008KT 9999 SCT030 BKN100 TEMPO 1013/1016 -SHRA BKN028 BKN080", "TAF LTAN 101040Z 1012/1021 02008KT 9999 SCT040 BECMG 1016/1019 CAVOK", "TAF LTAO 101040Z 1012/1021 VRB02KT 9999 SCT040 BKN100 BECMG 1016/1018 CAVOK", "TAF LTAP 101040Z 1012/1112 03012KT 9999 SCT040 BECMG 1016/1019 VRB02KT PROB30 TEMPO 1103/1106 4000 BR", "TAF LTAR 101040Z 1012/1021 33008KT 9999 BKN030 TEMPO 1012/1014 -SHRA BECMG 1015/1018 SCT025", "TAF LTAS 101040Z 1012/1021 VRB02KT 9999 SCT035 SCT100 TEMPO 1012/1016 -SHRA FEW025CB BKN030", "TAF LTAT 101040Z 1012/1112 VRB02KT 9999 SCT040 BKN100 BECMG 1016/1018 CAVOK", "TAF LTAU 101040Z 1012/1112 VRB02KT 9999 SCT035 BECMG 1016/1019 CAVOK BECMG 1107/1110 FEW040", "TAF LTAV 101040Z 1012/1021 VRB02KT 9999 FEW035 BECMG 1012/1015 CAVOK", "TAF LTAW 101040Z 1012/1021 VRB02KT 9999 SCT033 BKN090", "TAF LTAY 101040Z 1012/1021 VRB02KT 9999 FEW035 BECMG 1015/1018 CAVOK", "TAF LTAZ 101040Z 1012/1112 VRB02KT 9999 SCT040 BECMG 1017/1020 CAVOK BECMG 1106/1109 FEW040", "TAF LTBA 101040Z 1012/1112 04015KT 9999 SCT030 BKN100 BECMG 1018/1021 CAVOK BECMG 1105/1108 04018G28KT", "TAF LTBD 101040Z 1012/1021 VRB02KT 9999 FEW035 TEMPO 1013/1016 25012KT BECMG 1015/1017 CAVOK", "TAF LTBF 101040Z 1012/1021 01012KT 9999 FEW035 BECMG 1013/1016 CAVOK", "TAF LTBG 101040Z 1012/1021 05017KT CAVOK BECMG 1018/1021 FEW015 SCT035", "TAF LTBH 101040Z 1012/1021 06015KT CAVOK BECMG 1018/1021 FEW015 SCT035", "TAF LTBI 101040Z 1012/1021 VRB02KT 9999 FEW040 BECMG 1012/1015 CAVOK", "TAF LTBJ 101040Z 1012/1112 36015G25KT CAVOK BECMG 1017/1020 VRB02KT", "TAF LTBK 101040Z 1012/1021 34009KT CAVOK TEMPO 1012/1016 35015G25KT", "TAF LTBL 101040Z 1012/1021 28009KT CAVOK", "TAF LTBN 101040Z 1012/1021 VRB02KT 9999 FEW035 BECMG 1012/1015 CAVOK", "TAF LTBO 101040Z 1012/1021 07010KT CAVOK", "TAF LTBP 101040Z 1012/1021 04009KT 9999 SCT040 BECMG 1015/1019 CAVOK TEMPO 1018/1021 06015G25KT", "TAF LTBQ 101040Z 1012/1021 VRB02KT 9999 SCT035 TEMPO 1012/1015 04012KT BKN030", "TAF LTBR 101040Z 1012/1112 VRB02KT 9999 SCT035 TEMPO 1012/1015 02012KT BECMG 1015/1017 CAVOK BECMG 1020/1024 3500 BR BECMG 1100/1103 0200 FG VV001 BECMG 1105/1108 08014KT 4000 BR SCT015 BECMG 1108/1111 01012KT CAVOK", "TAF LTBS 101040Z 1012/1112 21012KT 9999 FEW030 BECMG 1015/1017 VRB02KT CAVOK BECMG 1107/1109 21012KT FEW030 BKN180", "TAF LTBT 101040Z 1012/1021 34009KT CAVOK", "TAF LTBU 101040Z 1012/1112 03015KT 9999 SCT035 BKN100 BECMG 1015/1018 SCT015 BKN025 BECMG 1019/1022 03005KT FEW030 BKN100 BECMG 1106/1109 04015KT", "TAF LTBV 101040Z 1012/1021 27013KT CAVOK BECMG 1014/1016 VRB02KT", "TAF LTBX 101040Z 1012/1021 03009KT 9999 SCT040 BECMG 1012/1015 CAVOK", "TAF LTBY 101040Z 1012/1021 VRB02KT 9999 FEW040 BECMG 1012/1015 CAVOK", "TAF LTBZ 101040Z 1012/1021 VRB02KT 9999 FEW035 BECMG 1012/1015 CAVOK", "TAF LTCA 101040Z 1012/1021 30007KT 9999 SCT035 BECMG 1015/1017 CAVOK", "TAF LTCB 101040Z 1012/1021 20009KT 9999 -SHRA BKN035 TEMPO 1013/1017 28018G30KT -TSRA SCT008 FEW020CB BKN025", "TAF LTCC 101040Z 1012/1112 32008KT CAVOK", "TAF LTCD 101040Z 1012/1021 27009KT 9999 SCT045 BKN080", "TAF LTCE 101040Z 1012/1112 VRB02KT 9999 SCT040 BECMG 1012/1014 27012KT BECMG 1016/1018 VRB02KT", "TAF LTCF 101040Z 1012/1021 04007KT 9999 SCT040 BECMG 1012/1014 26012KT SCT035 BKN070 BECMG 1016/1018 VRB02KT", "TAF LTCG 101040Z 1012/1112 22009KT 9999 -SHRA BKN035 TEMPO 1014/1018 29015G25KT 3500 TSRA SCT006 SCT020CB BKN025", "TAF LTCI 101040Z 1012/1021 28009KT 9999 FEW035", "TAF LTCJ 101040Z 1012/1112 VRB02KT CAVOK", "TAF LTCK 101040Z 1012/1021 27008KT 9999 FEW040", "TAF LTCL 101040Z 1012/1021 VRB02KT CAVOK", "TAF LTCM 101040Z 1012/1021 29021KT 9999 SCT030 BKN100 TEMPO 1013/1016 4000 SHRA BKN028 BKN080 TEMPO 1018/1021 -SHRA", "TAF LTCN 101040Z 1012/1021 27009KT 9999 FEW040 BECMG 1016/1018 CAVOK", "TAF LTCO 101040Z 1012/1021 22012KT 9999 FEW040 BECMG 1016/1018 VRB02KT FEW040 SCT080", "TAF LTCP 101040Z 1012/1021 35009KT 9999 FEW040 BECMG 1015/1017 CAVOK", "TAF LTCR 101040Z 1012/1021 26008KT CAVOK BECMG 1015/1018 35014KT", "TAF LTCS 101040Z 1012/1112 36007KT CAVOK", "TAF LTCT 101040Z 1012/1021 VRB02KT 9999 SCT040 BECMG 1018/1021 27012KT SCT035 BKN070", "TAF LTCU 101040Z 1012/1021 30007KT 9999 SCT035 BECMG 1015/1017 CAVOK", "TAF LTCV 101040Z 1012/1112 32008KT CAVOK", "TAF LTCW 101040Z 1012/1021 20014G25KT 9999 FEW035 BECMG 1016/1018 08009KT", "TAF LTDA 101040Z 1012/1021 24012KT 9999 SCT035", "TAF LTFA 101040Z 1012/1021 28009KT CAVOK", "TAF LTFB 101040Z 1012/1021 VRB02KT CAVOK TEMPO 1012/1014 24012KT", "TAF LTFC 101040Z 1012/1112 VRB02KT CAVOK", "TAF LTFD 101040Z 1012/1021 06015KT 9999 FEW035 BECMG 1015/1017 CAVOK", "TAF LTFE 101040Z 1012/1112 27013KT CAVOK BECMG 1014/1016 VRB02KT BECMG 1102/1106 SCT035 BECMG 1107/1109 27012KT", "TAF LTFG 101040Z 1012/1021 24010KT 9999 SCT030 BECMG 1014/1017 11008KT CAVOK", "TAF LTFH 101040Z 1012/1021 29018G29KT 9999 SCT030 BKN100 TEMPO 1015/1018 -SHRA BKN028 BKN080", "TAF LTFJ 101040Z 1012/1112 03009KT 9999 SCT040 BECMG 1012/1015 CAVOK PROB30 TEMPO 1102/1105 4000 BR", "TAF LTFK 101040Z 1012/1021 01015KT CAVOK BECMG 1018/1021 FEW010 SCT025", "TAF LTFM 101040Z 1012/1118 04015KT 9999 SCT015 BKN025 BECMG 1018/1021 SCT035 BKN100", "TAF LTFO 101040Z 1012/1021 20009KT 9999 -SHRA BKN035 TEMPO 1012/1016 26015G25KT 3500 TSRA SCT009 SCT020CB BKN025", "TAF LUBM 100520Z 1006/1015 33009KT CAVOK", "TAF LUKK 101120Z 1012/1112 34012KT CAVOK BECMG 1017/1019 VRB04KT BECMG 1100/1102 5000 BR TEMPO 1102/1106 0600 FG", "TAF LWOH 101130Z 1012/1112 16005KT 9999 SCT100 TEMPO 1100/1106 RA SCT050 OVC080", "TAF LWSK 101130Z 1012/1112 VRB02KT 9999 SCT100 TEMPO 1012/1018 15012KT", "TAF AMD LXGB 101105Z 1011/1018 23008KT 9999 FEW030 PROB40 TEMPO 1011/1018 20012KT 520002 PROB30 TEMPO 1011/1018 FEW030CB", "TAF LYBE 101100Z 1012/1112 13012KT 9999 SCT033 TX21/1013Z TN13/1105Z BECMG 1015/1017 07005KT TEMPO 1106/1110 5000 -RA BR BKN010 BKN025", "TAF LYBT 101100Z 1012/1112 10012KT CAVOK TX21/1013Z TN12/1104Z BECMG 1015/1017 04006KT TEMPO 1106/1110 BKN015 BKN030", "TAF LYKV 101100Z 1012/1112 13005KT CAVOK TX22/1013Z TN11/1106Z BECMG 1101/1103 5000 -RA BR SCT013 BKN030 TEMPO 1104/1107 3000 BKN007 BKN023", "TAF LYNI 101100Z 1012/1112 07007KT CAVOK TX19/1013Z TN12/1104Z TEMPO 1106/1112 5000 RA BR", "TAF LYPG 101100Z 1012/1112 16005KT 9999 SCT040 BKN080 TX24/1013Z TN15/1105Z TEMPO 1017/1110 5000 RA PROB40 TEMPO 1102/1109 2000 +SHRA SCT030TCU SCT040", "TAF LYTV 101100Z 1012/1112 15005KT 9999 SCT040 BKN080 TX23/1013Z TN14/1105Z TEMPO 1016/1109 5000 RA PROB40 TEMPO 1100/1107 2000 +SHRA SCT030TCU SCT040", "TAF LYVR 101100Z 1012/1112 14010KT CAVOK TX21/1013Z TN13/1105Z TEMPO 1012/1014 14015G25KT", "TAF LZIB 101115Z 1012/1112 15008KT 9999 BKN045 TEMPO 1012/1016 13015G25KT BECMG 1101/1103 05004KT BECMG 1109/1111 33011KT CAVOK", "TAF LZKZ 101115Z 1012/1112 14007KT CAVOK BECMG 1101/1103 VRB02KT 4000 BR BKN008 BECMG 1106/1108 13006KT 9999 BKN045", "TAF LZMC 100730Z 1009/1018 14010KT CAVOK TEMPO 1009/1012 9999 SCT040 TEMPO 1009/1018 15015G30KT", "TAF LZPP 101115Z 1012/1021 16008KT CAVOK TEMPO 1012/1015 18013G25KT", "TAF LZPW 100730Z 1009/1018 15006KT CAVOK", "TAF LZSL 100730Z 1009/1018 VRB02KT CAVOK TEMPO 1010/1015 16008KT", "TAF LZTT 101115Z 1012/1112 12006KT CAVOK BECMG 1100/1102 04003KT 1000 BR BKN002 BECMG 1106/1108 10006KT 9999 SCT013 BKN030 TEMPO 1109/1112 RA SCT005 BKN018", "TAF LZZI 101115Z 1012/1021 23008KT CAVOK BECMG 1017/1019 VRB02KT", "MBGT 101100Z 1012/1112 09015KT 9999 SCT022 ", "MBPV 101100Z 1012/1112 09015KT 9999 SCT022", "TAF MDBH 101000Z 1012/1112 13008KT 9999 SCT018 PROB30 1021/1102 8000-TSRA FEW016CB SCT018 ", "TAF MDCY 101000Z 1012/1112 00000KT 9999 SCT018 SCT070 PROB30 1012/1017 7000-RA BKN016 BKN070 BECMG 1013/1015 06006KT", "TAF MDJB 101000Z 1012/1112 03006KT 9999 SCT016 PROB30 1021/1101 7000-TSRA FEW014CB SCT016 BECMG 1100/1102 00000KT", "TAF MDLR 101000Z 1012/1112 09015KT 9999 SCT018 PROB30 1020/1102 7000-TSRA FEW016CB BKN016 BECMG 1101/1103 00000KT", "TAF MDPC 101000Z 1012/1112 08010KT 9999 FEW016CB SCT016 PROB30 1013/10019 8000-TSSH FEW016CB BKN016 BECMG 1014/1016 14010KT", "TAF MDPP 101000Z 1012/1112 00000KT 9999 FEW016 PROB30 1012/1018 8000-RA BKN018 BKN070 BECMG 1014/1016 10012KT", "TAF MDSD 101000Z 1012/1112 04005KT 9999 FEW016CB SCT018 BECMG 1016/1018 12006KT TEMPO 1020/1102 7000-TSRA FEW016CB BKN018 BKN300", "TAF MDST 101000Z 1012/1112 12010KT 9999 SCT020 SCT300 PROB30 1018/1100 8000-TSRA FEW015CB BKN016 BKN070 BECMG 1020/1022 05012KT", "MGGT 100541Z 1006/1106 36016KT 9999 BKN014 OVC080 TX22/1020Z TN14/1012Z TEMPO 1006/1106 02022KT 8000 RADZ OVC016 BECMG 1014/1016 BKN016 BECMG 1100/1002 BKN014", "MGMM 100541Z 1006/1106 00000KT 9999 BKN016 OVC080 TX26/1020Z TN20/1012Z TEMPO 1006/1100 5000 TSRA BKN014 SCT018CB BECMG 1014/1016 09006KT BECMG 1018/1020 BKN018 BECMG 1100/1102 00000KT BKN016 TEMPO 1101/1105 RADZ BKN014", "MGPB 100541Z 1006/1106 02010KT 9999 BKN016 OVC080 TX24/1020Z TN21/1012Z PROB40 TEMPO 1006/1013 5000 RADZ OVC014 BECMG 1013/1015 20008KT BKN018 TEMPO 1017/1102 02006KT RADZ SCT018 BECMG 1100/1102 00000KT SCT016", "MGSJ 100541Z 1006/1106 30008KT 9999 BKN016 OVC080 TX32/1020Z TN21/1012Z PROB40 TEMPO 1006/1106 5000 TSRA OVC016 BECMG 1018/1020 12008KT", "TAF MHLC 101100Z 1012/1112 11015KT 4000 RA SCT018TCU OVC070 TX30/1019Z TN22/1112Z FM101600 VRB05KT 9999 SCT022 FM102000 VRB04KT 8000 VCSH SCT018TCU FEW020CB BKN080 BECMG 1101/1103 VRB05KT 9999 SCT020", "TAF MHLM 101100Z 1012/1112 VRB05KT 5000 RA SCT006 BKN020TCU OVC070 TX27/1019Z TN22/1112Z FM102000 VRB05KT 7000 RA SCT020TCU FEW025CB BKN070 FM110100 VRB05KT 9999 SCT025", "TAF MHPR 101100Z 1012/1112 36010KT 7000 RA BKN042 OVC060 TX25/1020Z TN20/1110Z FM101500 18010KT 7000 RA BKN042 OVC060 FM110300 18010KT 9999 BKN042", "TAF MHRO 101100Z 1012/1112 11015KT 5000 RA BKN016 FEW020CB BKN080 TX31/1021Z TN26/1112Z FM101500 10015KT 9999 SCT020 TEMPO 1021/1103 8000 VCSH SCT020CB BKN080 FM110300 11015KT 9999 FEW020", "TAF MHTG 101100Z 1012/1112 VRB05KT 4000 RA SCT007 BKN024 OVC070 TX21/1021Z TN17/1112Z FM101800 VRB05KT 7000 RA BKN024 BKN080 FM110100 00000KT 9999 SCT026", "TAF MKJP 101115Z 1012/1112 34005KT 9999 FEW022 BECMG 1014/1016 13020KT FEW020 FEW022CB PROB30 TEMPO 1018/1024 TS SCT020CB BECMG 1101/1103 35008KT", "TAF MKJS 101115Z 1012/1112 12005KT 9999 FEW020 FEW022CB BECMG 1014/1016 08018KT PROB30 TEMPO 1018/1024 TS SCT020CB BECMG 1101/1103 12005KT", "TAF MMAA 101041Z 1012/1118 00000KT 5SM HZ SCT100 SCT300 TX31/1019Z TN27/1012Z FM101800 24010KT 6SM HZ SCT020 BKN300 FM110300 24005KT 6SM HZ SCT020 BKN100 BKN300 TEMPO 1106/1110 5SM TSRA BKN010CB FM111600 24005KT 6SM HZ SCT020 SCT100 BKN300", "TAF MMAN 100514Z 1006/1106 12005KT P6SM VC -RA BKN020 FM101000 12005KT 5SM HZ BKN015 TEMPO 1011/1015 4SM BR OVC010 FM101800 13015KT P6SM BKN030 TEMPO 1021/1101 6SM TSRA BKN020CB", "TAF MMAS 100446Z 1006/1106 08005KT P6SM SCT020 TEMPO 1010/1014 BKN020 FM101700 08010KT P6SM SCT020 FM110200 08005KT P6SM SCT020", "TAF MMBT 100427Z 1006/1106 00000KT P6SM BKN200 FM101600 25010KT P6SM SCT020 BKN200 FM102300 23010KT P6SM SCT020 BKN080 FM110400 03005KT P6SM VC RA BKN020 OVC080", "TAF MMCB 100427Z 1006/1106 00000KT P6SM SCT020 SCT200 FM101800 03005KT P6SM SCT020 BKN200 FM102300 03005KT P6SM BKN020 BKN080 FM110300 00000KT P6SM SCT020 BKN200", "TAF MMCE 100458Z 1006/1106 02010KT P6SM SCT020 BKN200 TEMPO 1010/1014 5SM RA FM101400 03010KT 6SM HZ BKN020 OVC080 TEMPO 1014/1018 5SM RA FM101800 03010KT 5SM -RA BKN015 OVC080 TEMPO 1020/1024 3SM TSRA BKN015CB", "TAF MMCL 100453Z 1006/1106 00000KT P6SM SKC FM101800 24010KT P6SM SCT030 FM110300 24005KT P6SM SKC", "TAF MMCM 100458Z 1006/1106 12005KT 4SM RA BKN020CB OVC080 TEMPO 1008/1012 3SM TSRA FM101200 12010KT 5SM RA BKN015CB OVC080 TEMPO 1012/1016 2SM TSRA FM101600 12010KT 5SM RA BKN015CB OVC080 TEMPO 1020/1024 2SM TSRA", "TAF MMCN 100518Z 1006/1106 00000KT P6SM SKC BECMG 1020/1021 27010KT FM110300 28005KT P6SM SKC", "TAF MMCP 100458Z 1006/1106 02008KT P6SM SCT015 BKN080 TEMPO 1010/1014 5SM RA BKN015 FM101400 12010KT 5SM VC RA BKN020 OVC080 TEMPO 1014/1018 3SM RA FM101800 12010KT 5SM RA BKN015CB OVC080 TEMPO 1020/1024 3SM TSRA 3SM TSRA", "TAF MMCS 100514Z 1006/1106 08008KT P6SM SCT025 BKN100 TEMPO 1006/1010 5SM TSRA BKN020CB FM101800 13010KT P6SM BKN030 BKN100 TEMPO 1021/1101 6SM TSRA BKN020CB", "TAF MMCU 100514Z 1006/1106 22010KT P6SM SCT030 BKN080 BKN200 TEMPO 1006/1010 6SM TSRA BKN020CB FM101800 14010KT P6SM SCT030 BKN100 BKN200 TEMPO 1100/1104 5SM TSRA OVC020CB", "TAF MMCV 100533Z 1006/1106 01005KT P6SM SCT020 BKN080 FM101900 01010KT P6SM SCT030 TEMPO 1021/1101 5SM -RA BKN030 FM110200 13005KT P6SM BKN030 BKN100", "TAF MMCZ 101101Z 1012/1118 12005KT 6SM HZ SCT015 BKN070 BKN250 TEMPO 1012/1016 6SM -RA BKN015CB FM101800 13010G20KT 5SM -RA BKN020CB OVC100 TEMPO 1021/1101 3SM TSRA OVC015CB TEMPO 1106/1110 4SM TSRA FM111600 13010KT 5SM -RA BKN015CB OVC080", "TAF MMDO 100518Z 1006/1106 06005KT P6SM SCT020 FM102000 05010KT P6SM SCT020 SCT070 PROB40 1021/1101 5SM TSRA BKN020CB FM110300 03005KT P6SM SCT020 BKN070", "TAF MMEP 100446Z 1006/1106 03005KT P6SM SKC FM101600 03005KT P6SM SCT020 SCT100 FM110300 03005KT 6SM HZ SCT015 SCT200", "TAF MMGL 101047Z 1012/1118 14005KT 6SM HZ SKC TX26/1021Z TN13/1012Z FM101800 08010KT 6SM HZ SCT020 FM110300 08005KT 6SM HZ SCT015 FM111800 13010KT P6SM SKC", "TAF MMGM 100518Z 1006/1106 00000KT P6SM SKC FM101900 22015KT P6SM SKC FM110300 20005KT P6SM SKC", "TAF MMHO 100453Z 1006/1106 00000KT P6SM SKC FM101800 26010KT P6SM SCT030 FM110300 23005KT P6SM SKC", "TAF MMIA 100446Z 1006/1106 00000KT P6SM SCT200 FM101800 24010KT P6SM SCT020 FM110200 00000KT P6SM SCT020 SCT100", "TAF MMIO 100514Z 1006/1106 02010KT P6SM BKN040 FM101800 03010KT P6SM SCT040 FM110300 03005KT P6SM SCT030", "TAF MMLM 100518Z 1006/1106 00000KT P6SM SCT070 BECMG 1020/1021 29012KT FM110300 29005KT P6SM SCT020", "TAF MMLO 100446Z 1006/1106 06005KT P6SM SCT020 SCT200 TEMPO 1010/1014 BKN020 FM101600 08010KT P6SM SCT020 TEMPO 1016/1020 BKN020 FM110200 08005KT P6SM SCT020", "TAF MMLP 100453Z 1006/1106 00000KT P6SM SKC FM101800 33010KT P6SM SCT030 FM110300 03005KT P6SM SKC", "TAF MMLT 100518Z 1006/1106 06005KT P6SM SKC BECMG 1020/1021 07010KT FM110300 06005KT P6SM SKC", "TAF MMMA 100533Z 1006/1106 07005KT P6SM SCT020 FM101800 07015KT P6SM BKN030 FM110200 08005KT P6SM SCT030", "TAF MMMD 101101Z 1012/1118 08005KT 6SM HZ OVC300 TX31/1019Z TN26/1012Z FM101800 08010G20KT 6SM -RA BKN020 OVC300 TEMPO 1021/1101 5SM TSRA BKN015CB FM110600 08005KT 6SM HZ SCT015 BKN100 OVC300 TEMPO 1106/1110 5SM RA BKN015 FM111600 08015KT 6SM HZ SCT020 BKN100 BKN300", "TAF MMML 100453Z 1006/1106 00000KT P6SM SKC FM101800 13010KT P6SM SKC FM110300 13005KT P6SM SKC", "TAF MMMM 101047Z 1012/1118 00000KT 6SM HZ SCT020 BKN080 TEMPO 1012/1015 3SM BR SCT010 FM101800 03010KT 6SM HZ SCT020 TEMPO 1021/1101 BKN030 FM110600 03005KT 6SM HZ SCT015 BKN070 TEMPO 1112/1115 3SM BR BKN010", "TAF MMMT 100458Z 1006/1106 26010KT 5SM VC RA BKN020 OVC080 TEMPO 1010/1014 3SM BR RA BKN010 FM101400 03015KT 5SM VC RA BKN020 OVC080 TEMPO 1014/1018 3SM RA FM101800 36015KT 5SM RA BKN015 OVC080 TEMPO 1020/1024 2SM TSRA", "TAF MMMV 100514Z 1006/1106 09005KT P6SM SCT060 TEMPO 1012/1016 BKN030 FM101800 08010KT P6SM BKN040 FM110300 08005KT 6SM HZ SCT030", "TAF MMMX 101041Z 1012/1118 02010KT 6SM HZ BKN015 OVC080 TX21/1021Z TN12/1012Z TEMPO 1012/1015 3SM HZ FM101800 03010KT 6SM HZ SCT020 BKN080 TEMPO 1022/1102 6SM -RA BKN020 FM110400 06005KT 6SM HZ SCT015 BKN080 TEMPO 1110/1114 3SM HZ BKN015", "TAF MMMY 101102Z 1012/1118 12005KT 6SM HZ SCT025 BKN100 TX27/1021Z TN19/1012Z TEMPO 1012/1016 3SM BR OVC010 FM101800 13010KT P6SM BKN030 TEMPO 1022/1102 6SM TSRA BKN020CB FM110300 13005KT 6SM HZ SCT020 TEMPO 1111/1115 2SM BR OVC010", "TAF MMMZ 101052Z 1012/1118 00000KT 5SM HZ SKC TX32/1020Z TN23/1012Z TEMPO 1012/1014 2SM BR SCT010 FM101500 00000KT 6SM HZ SKC FM101800 24010KT P6SM SKC FM110300 24005KT P6SM SKC TEMPO 1112/1114 3SM BR SCT010", "TAF MMNL 100533Z 1006/1106 12005KT 6SM HZ SCT020 FM102000 12015KT P6SM SCT020 FM110300 12005KT P6SM BKN080", "TAF MMOX 100427Z 1006/1106 03005KT P6SM SCT030 BKN100 TEMPO 1010/1014 BKN020 FM101800 36010KT P6SM BKN020 BKN080 TEMPO 1022/1102 5SM RA FM110200 03005KT 5SM RA BKN020 OVC080", "TAF MMPA 100533Z 1006/1106 30005KT 5SM HZ SCT015 BKN020 TEMPO 1010/1014 2SM BR -DZ BKN010 FM101500 30010KT 5SM HZ BKN020 TEMPO 1021/1101 3SM SHRA FM110200 03005KT 5SM HZ BKN015", "TAF MMPB 100427Z 1006/1106 36005KT P6SM SCT200 FM101600 03010KT P6SM BKN080 TEMPO 1021/1101 5SM RA FM110300 03005KT P6SM SCT020 BKN080", "TAF MMPG 100533Z 1006/1106 00000KT P6SM SCT030 SCT200 TEMPO 1008/1012 BKN010 FM101800 12012KT P6SM BKN030 PROB40 1020/1024 5SM RA FM110300 13005KT P6SM BKN030", "TAF MMPN 100446Z 1006/1106 00000KT P6SM SKC FM101800 18010KT P6SM SCT020 FM110200 00000KT P6SM SCT020", "TAF MMPQ 100458Z 1006/1106 08005KT 5SM VC RA SCT030 OVC080 TEMPO 1010/1014 3SM RA BKN015 FM101400 08005KT 5SM RA BKN020 OVC080 TEMPO 1020/1024 2SM TSRA BKN015CB", "TAF MMPR 101047Z 1012/1118 03005KT P6SM SKC TX31/1021Z TN26/1012Z FM101800 23010KT P6SM SKC FM110300 23005KT P6SM SKC FM111800 23010KT P6SM SKC", "TAF MMPS 100427Z 1006/1106 03005KT P6SM SCT020 BKN200 FM101800 23010KT P6SM SCT020 BKN080 FM110200 03005KT P6SM VC RA SCT020 BKN080", "TAF MMQT 100446Z 1006/1106 06010KT P6SM BKN020 OVC070 TEMPO 1010/1014 3SM BR BKN010 FM101600 12010KT P6SM SCT020 BKN030 FM102100 12012KT P6SM BKN020 FM110200 12005KT P6SM BKN015", "TAF MMRX 100533Z 1006/1106 07005KT 6SM HZ SCT030 TEMPO 1010/1014 3SM BR SCT015 FM101800 07015KT P6SM BKN030 FM110200 08005KT P6SM SCT030", "TAF MMSD 100518Z 1006/1106 26005KT P6SM SKC FM101600 16012KT P6SM SKC FM110300 29005KT P6SM SKC", "TAF MMSL 100518Z 1006/1106 26005KT P6SM SKC FM101800 16010KT P6SM SKC FM110300 29005KT P6SM SKC", "TAF MMSM 101041Z 1012/1118 33005KT 6SM HZ SCT020 BKN070 TEMPO 1012/1015 3SM HZ BKN015 FM101800 03010KT 6SM HZ BKN020 BKN080 TEMPO 1022/1102 6SM -RA BKN020 FM110400 06005KT 6SM HZ SCT015 BKN080 TEMPO 1110/1114 3SM HZ BKN010", "TAF MMSP 101047Z 1012/1118 12005KT 4SM HZ SCT015 OVC020 TX19/1021Z TN12/1012Z TEMPO 1012/1015 1SM BR OVC010 FM101800 13010KT 6SM HZ BKN020 BKN080 FM110300 03005KT 6SM HZ BKN015 TEMPO 1111/1115 2SM BR OVC010", "TAF MMTC 100514Z 1006/1106 08005KT 6SM HZ SCT020 TEMPO 1012/1015 3SM HZ BKN020 FM101800 08010KT 6SM HZ BKN020 BKN100 FM110300 08005KT 6SM HZ SCT015 BKN080", "TAF AMD MMTG 101106Z 1011/1106 33010KT 3SM RA SCT020 BKN040 OVC090 TEMPO 1012/1015 1SM RA BR OVC010 FM101500 03010G20KT 5SM -RA BKN015 OVC090 FM101800 33020G30KT 4SM -RA BKN015CB OVC100 TEMPO 1021/1101 2SM TSRA OVC010CB", "TAF MMTJ 101052Z 1012/1118 00000KT 4SM HZ OVC007 TX24/1020Z TN18/1012Z TEMPO 1012/1015 1SM BR OVC005 FM101800 35005KT 5SM HZ BKN010 FM101900 25005KT 6SM HZ SKC FM110200 24005KT 6SM HZ BKN010 FM110900 00000KT 4SM BR OVC008 TEMPO 1112/1115 2SM BR OVC006", "TAF MMTM 100431Z 1006/1106 02005KT 4SM HZ SCT010 FM101000 03005KT 3SM HZ SCT010 BKN070 TEMPO 1011/1015 1SM BR DZ BKN010 FM101800 03010KT 5SM HZ BKN015 BKN200 TEMPO 1021/1101 4SM RA BKN010CB", "TAF MMTO 101041Z 1012/1118 05005KT 6SM HZ SCT020 TX19/1021Z TN08/1012Z TEMPO 1012/1015 3SM BR BKN010 FM101800 03010KT 5SM HZ BKN020 TEMPO 1022/1102 6SM -RA BKN015 FM110400 03005KT 5SM HZ SCT015 BKN070 TEMPO 1110/1114 2SM BR BKN010", "TAF MMTP 101101Z 1012/1118 06010KT P6SM VC -RA SCT020 BKN120 BKN200 TEMPO 1012/1016 6SM -RA BKN020CB FM101800 14010G20KT 5SM -RA BKN020CB OVC100 TEMPO 1021/1101 3SM TSRA OVC015CB FM111600 13010KT 6SM -RA BKN015 BKN100 OVC200", "TAF MMUN 101101Z 1012/1118 08005KT 6SM HZ SCT015 SCT080 BKN250 TX31/1019Z TN26/1019Z TEMPO 1012/1016 6SM -RA FM101800 08010G20KT 6SM -RA BKN015CB OVC100 TEMPO 1021/1101 3SM TSRA OVC010CB FM110400 13015KT 6SM -RA BKN015CB OVC080 TEMPO 1106/1110 6SM TSRA FM111600 13010KT 6SM -RA BKN020CB", "TAF MMVA 100458Z 1006/1106 03005KT 6SM HZ SCT015 BKN080 TEMPO 1010/1014 2SM BR RA BKN010 FM101400 36005KT 5SM RA BKN015 OVC070 TEMPO 1014/1018 3SM RA FM101800 03010KT 4SM RA BKN015 OVC080 TEMPO 1018/1022 3SM TSRA BKN015CB", "TAF AMD MMVR 101127Z 1011/1106 35005KT 5SM -DZ OVC015 TX30/1021Z TN22/1012Z TEMPO 1012/1016 2SM BR DZ OVC010 FM101600 35008KT 5SM HZ BKN015 OVC080 FM101800 03015KT 5SM HZ BKN020 BKN080 BECMG 1022/1023 35010G20KT TEMPO 1021/1101 5SM RA BKN015CB", "TAF MMZC 101047Z 1012/1118 15005KT 6SM HZ SCT050 TX20/1021Z TN13/1012Z TEMPO 1012/1016 3SM HZ BKN015 FM101800 12010KT P6SM BKN030 FM110300 13005KT P6SM SKC FM111800 14010KT P6SM SCT030", "TAF MMZH 100427Z 1006/1106 00000KT 6SM HZ SCT020 FM101600 23010KT P6SM SCT020 FM110200 00000KT P6SM SCT020 SCT250", "TAF MMZO 100447Z 1006/1106 00000KT P6SM SKC FM101800 24010KT P6SM SCT020 FM110300 23005KT P6SM SKC", "MNBL 092126Z 1000/1024 VRB10KT 5000 TSRA/RA SCT015CB SCT060 BECMG 1008/1010 09006KT 6000 DZ/VCRA BKN016 SCT070", "MNMG 101110Z 1012/1112 00000KT 9999 FEW022 SCT070 BECMG 1014/1016 09012KT SCT022 TEMPO 1019/1102 VRB10G22KT 6000 TSRA FEW022CB", "MNPC 092126Z 1000/1024 12008KT 5000 DZ/RA FEW014CB BKN016TCU BECMG 1008/1012 6000 -RA/DZ BKN016TCU", "TAF MPDA 101100Z 1012/1024 22007KT 9999 FEW008 SCT015 BKN090 PROB40 1012/1015 VR02KT 7000 DZ PROB30 1019/1023 6000 TSRA SCT014CB BKN080", "TAF MPMG 101100Z 1012/1024 16007KT 9999 SCT018 SCT090 TEMPO 1015/1019 18010KT PROB30 1018/1022 6000 TSRA SCT014CB BKN080", "TAF MPPA 101100Z 1012/1118 19007KT 9999 SCT018 SCT090 TEMPO 1015/1019 18010KT PROB30 1019/1023 6000 TSRA SCT014CB BKN080", "TAF MPSM 101100Z 1012/1118 19007KT 9999 SCT018 SCT090 TEMPO 1015/1019 17011KT PROB30 1019/1023 6000 TSRA SCT014CB BKN080", "TAF MPTO 101100Z 1012/1118 13007KT 9999 SCT018 SCT090 PROB40 1012/1015 03004KT 8000 RA SCT016 SCT080 TEMPO 1015/1019 15012KT PROB30 1019/1023 6000 TSRA SCT014CB BKN080", "MRLB 101122Z 1012/1112 16004KT 9999 SCT030 BKN100 TX29/1018Z TN20/1111Z TEMPO 1012/1014 VRB02KT 5000 BR BKN020 TEMPO 1020/1024 27005KT RA BKN030 ", "MRLM 101122Z 1012/1112 28004KT 9999 FEW030 SCT120 TX29/1020Z TN22/1011Z TEMPO 1012/1014 DZ BECMG 1016/1018 04006KT BECMG 1100/1103 23004KT ", "MROC 101122Z 1012/1112 26005KT 9999 FEW025 BKN100 TX26/1018Z TN18/1110Z TEMPO 1012/1015 08005KT BKN015 TEMPO 1020/1023 RA BKN025 TEMPO 1100/1103 VRB02KT 5000 BR BKN010 BECMG 1104/1106 09004KT ", "MRPV 101122Z 1012/1112 29005KT 9999 FEW020 BKN100 TX25/1018Z TN18/1010Z TEMPO 1012/1016 09005KT TEMPO 1020/1023 RA BKN020 TEMPO 1100/1102 00000KT 5000 BR BECMG 1103/1105 08005KT ", "TAF MSLP 100925Z 1012/1112 35010KT 5000 RA SCT017 FEW033CB BKN047 TX28/1018Z TN24/1110Z FM101500 14015G25KT 3000 +RA BKN017 FEW033CB BKN047 FM102200 09006KT 6000 RA SCT020 FEW033CB BKN053 TEMPO 1103/1106 07006KT 5000 TSRA BKN020 SCT033CB", "TAF MSSS 100925Z 1012/1112 04012KT 5000 RA SCT017 FEW033CB BKN043 TX25/1019Z TN19/1110Z FM101500 10015G25KT 3000 +TSRA BKN017 SCT033CB BKN040 FM102200 14006KT 6000 RA SCT017 FEW033CB BKN047 TEMPO 1103/1106 01006KT 5000 TSRA BKN017 SCT033CB", "TAF MTCH 091700Z 0918/1018 04014KT 9000 SCT028 FM091800 05012G22KT 9999 SCT022CB BECMG 1002/1006 36010KT TEMPO 1008/1012 VRB02KT", "TAF MTPP 1012/1112 VRB02KT 9000 FEW018 BECMG 1014/1017 12012KT FM101800 29010KT 9999 SCT024TCU SCT040 PROB40 TEMPO 1102/1106 4000 TSRA SCT020CB BKN030 BECMG 1006/1010 VRB02KT 9000 NSW FEW016", "MUCC 101100Z 1012/1112 09010KT 9000 SCT020 TEMPO 1012/1017 FEW018CB BKN020", "MUCF 101100Z 1012/1024 VRB03KT 9000 SCT020 TEMPO 1020/1024 VRB10KT 5000 TSRA SCT018CB BKN020", "MUCL 101100Z 1012/1024 10012KT 9000 SCT020 TEMPO 1013/1021 FEW018CB BKN020", "MUCM 101100Z 1012/1112 VRB03KT 9000 SCT020 TEMPO 1012/1013 5000 BR BECMG 1014/1016 08009KT TEMPO 1019/1101 VRB10KT 5000 TSRA FEW018CB BKN020 BECMG 1102/1104 VRB03KT", "MUCU 101100Z 1012/1112 VRB03KT 9000 SCT020 BECMG 1014/1016 14008KT TEMPO 1018/1021 VRB10KT 5000 TSRA FEW018CB BKN020 BECMG 1102/1104 VRB03KT", "TAF MUGM 1007/1107 01008KT 9999 FEW030 FEW250 QNH2991INS BECMG 1014/1016 11013KT 9999 FEW030 FEW250 QNH2989INS BECMG 1100/1102 02008KT 9999 SCT030 SCT250 QNH2996INS T26/1007Z T30/1018Z FN00247", "MUHA 101100Z 1012/1112 09007KT 9000 SCT030 TEMPO 1020/1101 VRB10KT 4000 SHRA FEW020CB BKN030", "MUHG 101100Z 1012/1112 VRB03KT 9000 FEW030 BECMG 1014/1016 08010KT TEMPO 1017/1024 VRB10KT 5000 TSRA FEW018CB BKN020 BECMG 1102/1104 VRB03KT", "MUSC 101100Z 1012/1112 VRB03KT 9000 SCT020 TEMPO 1019/1101 VRB10KT 5000 TSRA FEW018CB BKN020 BECMG 1102/1104 VRB03KT", "MUVR 101100Z 1012/1112 VRB03KT 9000 FEW040 BECMG 1014/1016 08009KT SCT020 TEMPO 1017/1021 FEW018CB BKN020 BECMG 1102/1103 VRB03KT TEMPO 1104/1107 VRB10KT 5000 TSRA SCT018CB BKN020", "TAF MWCB 101100Z 1012/1112 11014KT 9999 SHRA SCT014 BKN030", "TAF MWCR 101100Z 1012/1112 11014KT 9999 SHRA SCT014 BKN030", "MYGF 101100Z 1012/1112 08010KT 9999 FEW018CB SCT120", "MYNN 101100Z 1012/1112 08010KT 9999 SCT020 SCT200 PROB40 TEMPO 1021/1024 9999 SHRA SCT018CB SCT090", "TAF MZBZ 101100Z 1012/1112 12010KT 9999 SCT022 BKN045 PROB40 TEMPO 1012/1106 5000 RA BKN014 BKN035 PROB30 TEMPO 1015/1018 3000 TSRA SCT012CB", "TAF NCRG 101111Z 1012/1112 09015G30KT 9999 BKN022 BKN035 PROB40 TEMPO 1012/1015 5000 SHRA BKN015", "TAF NFFN 101107Z 1012/1112 17008KT 9999 FEW027", "TAF NFNA 101113Z 1012/1112 18007KT 9999 SCT018 BKN045", "TAF NFTF 101112Z 1012/1112 02007KT 9999 FEW015 SCT040 PROB40 TEMPO 1015/1020 5000 TSRA BKN015 FEW018CB PROB30 TEMPO 1020/1106 30015G25KT", "TAF NFTV 101116Z 1012/1112 31008KT 9999 FEW008 SCT016 BKN040 PROB40 TEMPO 1012/1106 34015G25KT 3000 TSRA BKN010 SCT015CB", "TAF NGFU 101117Z 1012/1112 07008KT 9999 FEW018", "TAF NGTA 101114Z 1012/1112 06007KT 9999 FEW018 SCT040 PROB40 TEMPO 1012/1020 5000 SHRA BKN015", "TAF NIUE 101116Z 1012/1112 05008KT 9999 FEW009 SCT017 BKN100 PROB4O TEMPO 1012/1106 03015G25KT 3000 +TSRA BKN015 SCT018CB", "TAF NLWF 101100Z 1012/1112 31005KT 9999 SCT020 BKN040 BKN060 TEMPO 1012/1109 4000 SHRA BKN013 FEW020CB PROB40 TEMPO 1012/1106 29015G25KT 2000 TSRA BKN008 BKN016CB PROB30 TEMPO 1017/1020 1200 TSRA BKN005 BKN016CB TEMPO 1109/1112 SHRA BKN012 FEW020TCU", "TAF NLWW 101100Z 1012/1112 33005KT 9999 SCT025 SCT035 BKN065 PROB40 TEMPO 1012/1021 SHRA FEW020TCU TEMPO 1021/1112 4000 SHRA BKN013 FEW020CB PROB30 TEMPO 1100/1112 2000 TSRA BKN008 BKN016CB", "TAF NSFA 101112Z 1012/1112 10007KT 9999 FEW024 SCT045 PROB40 TEMPO 1012/1106 5000 TSRA FEW018CB", "NSTU 101129Z 1012/1112 01008KT P6SM FEW025 SCT100", "TAF NTAA 101100Z 1012/1118 VRB05KT 9999 FEW025", "TAF NVSC 101100Z 1012/1112 VRB02KT 9999 SCT020 INTER 1012/1018 9000 -SHRA SCT018", "TAF NVSG 101100Z 1012/1112 VRB02KT 9999 BKN020 INTER 1012/1018 9000 -SHRA BKN018", "TAF NVSL 101100Z 1012/1112 VRB04KT 9999 FEW010 BKN018 FEW025CB OVC040 INTER 1012/1018 7000 RA FEW008 BKN015 OVC038", "TAF NVSP 101100Z 1012/1112 VRB04KT 9999 FEW010 BKN028 FEW025CB OVC040 INTER 1012/1018 9000 -SHRA BKN018 OVC038", "TAF NVSS 101100Z 1012/1112 VRB04KT 9999 BKN020 INTER 1012/1018 8000 SHRA FEW010 BKN018", "TAF NVVA 101100Z 1012/1112 VRB04KT 9999 FEW020", "TAF NVVV 101100Z 1012/1112 VRB04KT 9999 FEW010 BKN020 OVC040 INTER 1012/1018 7000 RA FEW008 BKN016 FEW022CB", "TAF NVVW 101100Z 1012/1112 VRB04KT 9999 FEW020", "TAF NWWD 100500Z 1006/1106 06010KT 9999 SCT040 PROB40 TEMPO 1102/1106 SHRA FEW020TCU", "TAF NWWE 091700Z 0918/1018 10014KT 9999 BKN020 TEMPO 1000/1018 SHRA PROB30 TEMPO 1012/1018 4000 SHRA FEW020TCU", "TAF NWWK 100500Z 1006/1106 15010KT 9999 FEW025 BKN040 PROB40 TEMPO 1006/1008 4000 SHRA BKN014 SCT020TCU BECMG 1008/1010 VRB02KT BECMG 1023/1101 17010KT", "TAF NWWL 101100Z 1012/1112 11010KT 9999 SCT020 SCT035 BKN130 TEMPO 1012/1103 RA BKN014 PROB30 TEMPO 1020/1022 3000 SHRA BKN014 PROB30 TEMPO 1103/1106 10015G25KT FEW020TCU", "TAF NWWM 101100Z 1012/1112 08012KT 9999 FEW035 SCT060 PROB40 TEMPO 1012/1024 FEW025TCU PROB30 TEMPO 1012/1018 4800 SHRA FEW020TCU FM110000 11014KT 9999 FEW030 SCT040 PROB30 TEMPO 1103/1106 SHRA FEW020TCU", "TAF NWWR 101100Z 1012/1112 10008KT 9999 SCT020 SCT030 BKN060 TEMPO 1012/1103 RA BKN014 PROB30 TEMPO 1100/1103 3000 SHRA BKN014 PROB30 TEMPO 1103/1106 09015G25KT FEW020TCU", "TAF NWWU 091700Z 0918/1018 12018KT 9999 BKN020 PROB40 TEMPO 0918/1015 4000 SHRA FEW020TCU", "TAF NWWW 101100Z 1012/1112 07004KT 9999 FEW050 PROB30 TEMPO 1012/1023 FEW020TCU BECMG 1023/1101 16010KT PROB30 TEMPO 1103/1106 05010KT SHRA FEW025TCU BECMG 1106/1108 VRB02KT", "TAF NZAA 101109Z 1012/1118 05008KT 9999 BKN050", "TAF NZCH 101106Z 1012/1118 03010KT CAVOK BECMG 1014/1016 30005KT BECMG 1018/1020 22010KT FM110200 06010KT 9999 SCT030", "TAF NZFX 100901Z 1009/1109 10011KT 9999 FEW020 SCT150 QNH2870INS GRID27011KT BECMG 1011/1013 11018G25KT 9999 DRSN FEW020 SCT150 QNH2869INS GRID28018G25KT TEMPO 1014/1019 16025G40KT 1600 BLSN SCT020 BKN150 GRID33025G40KT TEMPO 1019/1101 15020G35KT 6000 BLSN GRID32020G35KT BECMG 1101/1103 05010KT 9999 NSW FEW020 FEW150 QNH2878INS GRID22010KT ", "TAF NZQN 101052Z 1012/1106 26008KT 9999 SCT040 BECMG 1016/1018 19010KT", "TAF NZWN 101109Z 1012/1118 34022G40KT 9999 BKN030 TEMPO 1018/1023 6000 SHRA BKN012 BECMG 1019/1021 32015KT BECMG 1101/1103 16010KT BECMG 1109/1111 02005KT", "TAF OBBI 101100Z 1012/1118 VRB05KT CAVOK", "TAF OEAB 101100Z 1012/1118 09013KT 9999 FEW020 TEMPO 1012/1018 FEW025CB BECMG 1020/1022 VRB03KT BECMG 1106/1108 07012KT", "TAF OEAH 101110Z 1012/1118 VRB03KT CAVOK BECMG 1106/1108 27010KT", "TAF OEAO 101100Z 1012/1118 25012KT CAVOK BECMG 1018/1020 36006KT BECMG 1110/1112 27010KT", "TAF OEBA 101100Z 1012/1118 09013KT 9999 FEW030 TEMPO 1014/1018 FEW025CB BECMG 1021/1023 18008KT CAVOK BECMG 1106/1108 09012KT", "TAF OEBH 101100Z 1012/1118 09012KT CAVOK BECMG 1100/1102 18006KT BECMG 1108/1110 09012KT", "TAF OEDF 101110Z 1012/1118 36005KT CAVOK BECMG 1018/1020 19005KT 7000 NSC TEMPO 1100/1105 3000 BR", "TAF OEDM 100400Z 1005/1021 19008KT CAVOK BECMG 1015/1017 13008KT", "TAF OEDR 101110Z 1012/1118 36005KT CAVOK BECMG 1018/1020 19005KT 7000 NSC TEMPO 1100/1105 3000 BR", "TAF OEGN 101100Z 1012/1118 27015KT 7000 FEW030 TEMPO 1012/1018 TS SCT030 FEW035CB PROB30 TEMPO 1012/1017 VRB22KT 0800 BLDU BECMG 1018/1020 VRB03KT BECMG 1106/1108 27012KT", "TAF OEGS 101100Z 1012/1118 15010KT CAVOK BECMG 1018/1020 19010KT", "TAF OEGT 101100Z 1012/1118 33012KT CAVOK", "TAF OEHL 101100Z 1012/1118 17010KT 9999 FEW040 BECMG 1018/1020 26010KT BECMG 1106/1108 20010KT", "TAF OEJN 101100Z 1012/1118 34012KT 7000 FEW040 BECMG 1018/1020 VRB03KT PROB30 TEMPO 1100/1105 4000 BR FEW020 BECMG 1106/1108 30010KT", "TAF OEKJ 101100Z 1012/1118 04006KT CAVOK BECMG 1018/1020 19010KT BECMG 1102/1104 26006KT", "TAF OEKM 101100Z 1012/1118 09013KT 9999 FEW020 TEMPO 1012/1018 FEW025CB BECMG 1020/1022 VRB03KT BECMG 1106/1108 07012KT", "TAF OEMA 101100Z 1012/1118 09010KT CAVOK BECMG 1018/1020 VRB03KT", "TAF OENG 101100Z 1012/1118 09013KT 7000 FEW035 BECMG 1018/1020 VRB03KT BECMG 1106/1108 08012KT", "TAF OEPA 101110Z 1012/1118 27010KT CAVOK TEMPO 1100/1106 VRB03KT BECMG 1106/1108 35010KT", "TAF OEPS 100900Z 1009/1115 21012KT 9999 SKC QNH3008INS BECMG 1010/1011 06010G15KT 9999 SKC QNH3004INS BECMG 1014/1015 VRB06KT 9999 SKC QNH3004INS BECMG 1109/1110 01010G15KT 9999 SKC QNH3000INS TX38/1011Z TN24/1102Z", "TAF OERF 101100Z 1012/1118 06010KT 7000 NSC BECMG 1020/1022 36006KT BECMG 1106/1108 09010KT", "TAF OERK 101100Z 1012/1118 13010KT CAVOK BECMG 1018/1020 22008KT BECMG 1106/1108 VRB03KT", "TAF OERR 101100Z 1012/1118 07013KT CAVOK BECMG 1100/1102 02006KT", "TAF OESH 101100Z 1012/1118 07014KT 7000 FEW040 BECMG 1100/1102 VRB03KT BECMG 1108/1110 04012KT", "TAF OESK 101100Z 1012/1118 06010KT CAVOK BECMG 1018/1020 02006KT", "TAF OETB 101100Z 1012/1118 26010KT CAVOK BECMG 1018/1020 32006KT 9999 FEW040", "TAF OETF 101100Z 1012/1118 09013KT 7000 FEW030 TEMPO 1014/1018 FEW025CB BECMG 1020/1018 18006KT BECMG 1110/1112 09012KT", "TAF OETR 101100Z 1012/1118 17008KT CAVOK BECMG 1018/1020 02010KT BECMG 1102/1104 12008KT", "TAF OEWD 101100Z 1012/1118 09013KT CAVOK BECMG 1018/1020 VRB03KT BECMG 1108/1110 09012KT", "TAF OEWJ 101100Z 1012/1118 32018KT 7000 NSC BECMG 1018/1020 35008KT BECMG 1106/1108 30016KT", "TAF OEYN 101100Z 1012/1118 28015KT CAVOK BECMG 1020/1022 09006KT 7000 NSC TEMPO 1100/1106 VRB03KT 3000 BR PROB30 TEMPO 1102/1106 0500 FG BECMG 1106/1108 27014KT CAVOK", "TAF OIAA 101130Z 1012/1118 16006KT 7000 NSC BECMG 1020/1022 3000 BR TEMPO 1022/1105 0500 FG BECMG 1108/1109 7000 NSC", "TAF OIAW 101130Z 1012/1118 16006KT 5000 HZ NSC TEMPO 1023/1105 3000 HZ", "TAF OIBB 101100Z 1012/1021 01004KT 7000 NSC BECMG 1019/1021 3000 BR", "TAF OIBK 101130Z 1012/1118 12008KT 7000 NSC BECMG 1014/1016 27006KT", "TAF OIBP 101100Z 1012/1021 22006KT 7000 NSC", "TAF OICC 101100Z 1012/1021 27010KT 8000 NSC TEMPO 1012/1015 27020KT FEW035CB SCT040 BKN090", "TAF OICI 091100Z 0912/1018 12008KT 8000 NSC TEMPO 0912/0915 24020KT 4000 SA NSC TEMPO 1006/1012 24020KT 4000 SA NSC", "TAF OIFM 101130Z 1012/1118 27006KT 7000 NSC BECMG 1103/1105 3000 HZ BECMG 1107/1109 7000 NSC", "TAF OIGG 101100Z 1012/1021 06006KT 7000 SCT025 TEMPO 1012/1015 35012KT 5000 RA BKN010 FEW015CB OVC080 BECMG 1018/1020 21004KT 3000 BR", "TAF OIIE 101130Z 1012/1118 32008KT 7000 NSC TEMPO 1012/1014 12018KT TEMPO 1014/1021 FEW035TCU SCT040 SCT100", "TAF OIII 101130Z 1012/1118 34008KT 7000 NSC TEMPO 1012/1014 24018KT TEMPO 1014/1021 FEW035TCU SCT040 SCT100", "TAF OIIP 101100Z 1012/1021 15008KT 8000 NSC", "TAF OIKB 101130Z 1012/1118 18008KT 7000 NSC TEMPO 1012/1015 20016KT BECMG 1018/1020 02006KT", "TAF OIKK 101130Z 1012/1118 33008KT 8000 NSC TEMPO 1012/1014 34016KT", "TAF OIMM 101130Z 1012/1118 12008KT 8000 NSC TEMPO 1012/1015 08014KT BECMG 1016/1018 24008KT", "TAF OING 101100Z 1012/1021 02008KT 8000 NSC", "TAF OINZ 101100Z 1012/1021 02008KT 8000 FEW025 BECMG 1018/1020 28012KT 6000 SCT030", "TAF OISL 091100Z 0912/1018 24008KT 8000 NSC TEMPO 0912/0921 33008KT", "TAF OISS 101130Z 1012/1118 12008KT 8000 NSC TEMPO 1012/1015 24012KT BECMG 1016/1018 32006KT", "TAF OITL 101100Z 1012/1021 22010KT 8000 FEW035 TEMPO 1012/1015 22018G30KT FEW030CB SCT035 BKN100 BECMG 1016/1018 35006KT SCT020", "TAF OITR 101130Z 1012/1118 20008KT 7000 FEW035 SCT100 TEMPO 1012/1015 20018KT", "TAF OITT 101130Z 1012/1118 12008KT 7000 FEW035 TEMPO 1012/1018 24020G30KT 4000 SA FEW030CB SCT040 BKN100 TEMPO 1109/1115 FEW030CB SCT040 BKN100", "TAF OIYY 101100Z 1012/1021 32008KT 8000 NSC", "TAF OIZH 101130Z 1012/1118 17006KT 7000 NSC BECMG 1018/1020 19006KT", "TAF OJAI 101100Z 1012/1118 29010KT 5000 HZ NSC PROB30 1102/1106 VRB02KT 3000 BR", "TAF OJAM 101100Z 1012/1118 28006KT 5000 HZ NSC PROB30 1102/1106 VRB02KT 3000 FU", "TAF OJAQ 101100Z 1012/1118 36014KT 6000 NSC PROB30 1012/1016 36018KT 4000BLDU", "TAF OKAS 100800Z 1008/1114 24009KT 9999 SKC QNH2985INS BECMG 1015/1016 16006KT 9999 SKC QNH2987INS BECMG 1020/1021 30009KT 9999 SKC QNH2984INS BECMG 1105/1106 33010G15KT 9999 SKC QNH2981INS TX40/1008Z TN26/1103Z", "TAF OKBK 101100Z 1012/1118 13010KT 7000 NSC TEMPO 1018/1106 VRB03KT 3000 BR", "TAF OLBA 101000Z 1012/1118 34010KT 9999 NSC BECMG 1020/1022 VRB03KT BECMG 1106/1108 35010KT", "TAF OMAA 101100Z 1012/1118 32010KT 8000 NSC BECMG 1017/1019 14005KT PROB30 1100/1104 4000 HZ BKN010 BECMG 1107/1109 32012KT BECMG 1115/1117 05005KT", "TAF OMAD 100500Z 1006/1112 15005KT 8000 NSC BECMG 1007/1009 33010KT BECMG 1019/1021 14005KT PROB30 TEMPO 1100/1104 3000 HZ BKN010 BECMG 1107/1109 33010KT", "TAF OMAL 101100Z 1012/1118 32012KT 8000 NSC BECMG 1018/1020 07006KT BECMG 1100/1102 14008KT BECMG 1110/1112 32012KT BECMG 1117/1118 04005KT", "TAF OMDB 101100Z 1012/1118 33010KT CAVOK BECMG 1015/1017 12005KT PROB30 TEMPO 1100/1104 4000 HZ BKN010 BECMG 1106/1108 33012KT BECMG 1115/1117 10005KT", "TAF OMDW 091100Z 0912/1018 33010KT CAVOK BECMG 0915/0917 08005KT BECMG 1002/1004 18010KT BECMG 1009/1011 33015KT BECMG 1015/1017 10005KT", "TAF OMFJ 101100Z 1012/1118 10008KT CAVOK BECMG 1014/1016 VRB03KT BECMG 1021/1023 29005KT BECMG 1107/1109 09008KT", "TAF OMRK 101100Z 1012/1118 34010KT CAVOK BECMG 1015/1017 VRB02KT PROB30 1022/1104 4000 HZ BKN010 BECMG 1106/1108 33010KT BECMG 1115/1117 VRB02KT", "TAF OMSJ 101100Z 1012/1118 33010KT CAVOK BECMG 1015/1017 13005KT PROB30 TEMPO 1023/1104 4000 HZ BKN010 BECMG 1107/1109 33012KT BECMG 1115/1117 10005KT", "TAF OODQ 100500Z 1006/1106 26005KT 8000 NSC BECMG 1009/1011 12012KT BECMG 1016/1018 21012KT PROB30 TEMPO 1023/1103 SCT020", "TAF OOMS 101100Z 1012/1118 03007KT 8000 NSC BECMG 1016/1018 25007KT BECMG 1106/1108 35012KT BECMG 1115/1117 VRB02KT", "TAF OOSA 101140Z 1012/1118 18010KT 9999 FEW025 BECMG 1014/1016 VRB03KT BECMG 1108/1110 19010KT", "TAF OOSH 101100Z 1012/1118 07007KT 8000 NSC BECMG 1015/1017 VRB02KT BECMG 1106/1108 06010KT BECMG 1115/1117 VRB02KT", "TAF OPBW 100945Z 1012/1106 23010KT 4000 FU SCT120 TN22/1101Z PROB30 TEMPO 1101/1105 00000KT 1500 BR NSC", "TAF OPDG 100945Z 1012/1106 13010KT 5000 FU FEW120 TN22/1101Z", "TAF OPFA 100945Z 1012/1106 13004KT 4000 FU SCT100 TN23/1100Z TEMPO 1100/1104 VRB02KT 2000 BR SCT100", "TAF OPGD 100930Z 1012/1112 02010KT 5000 HZ NSC FM101800 24005KT 3000 FU NSC TEMPO 1023/1103 32008KT 2000 BR NSC FM110600 33010KT 5000 HZ NSC", "TAF OPIS 100930Z 1012/1118 27008KT 5000 FU FEW040 SCT100 TEMPO 1012/1016 25010G20KT 3000 -TSRA FEW040CB SCT040 BKN100 BECMG 1018/1024 13008KT 4000 FU FEW040 TEMPO 1100/1103 09008KT 3000 BR BECMG 1110/1114 27008KT 5000 FU FEW040", "TAF OPKC 100930Z 1012/1021 31010KT 6000 NSC", "TAF OPLA 100945Z 1012/1118 05010KT 4000 FU SCT040 SCT100 TX30/1110Z TN21/1101Z TEMPO 1012/1016 32015G35KT 2000 TSRA FEW030CB BKN100 OVC100 PROB30 TEMPO 1109/1112 33015G35KT 2000 TSRA FEW030CB SCT040 BKN100", "TAF OPMT 100945Z 1012/1106 13010KT 4000 FU SCT120 TN23/1101Z PROB30 TEMPO 1101/1105 00000KT 1500 BR NSC", "TAF OPNH 100930Z 1012/1021 02008KT 6000 NSC", "TAF OPPS 100930Z 1012/1118 05006KT 4000 HZ FEW040 SCT100 TEMPO 1012/1015 05010G20KT 3000 VCTS FEW040TCU SCT100 FM101600 31008KT 4000 FU FEW100 TEMPO 1023/1104 27010KT 3000 -TSRA FEW030CB BKN090", "TAF OPRK 100945Z 1012/1106 23010KT 4000 FU NSC TN23/1101Z", "TAF OPSK 100930Z 1012/1112 31008KT 5000 HZ NSC BECMG 1017/1019 33008KT 5000 HZ NSC TEMPO 1023/1103 36008KT 3000 FU NSC FM110600 02008KT 5000 HZ NSC", "TAF OPST 100945Z 1012/1118 31006KT 4000 FU FEW040 SCT100 TX32/1110Z TN20/1101Z TEMPO 1022/1103 05010G20KT 2500 -TSRA FEW030CB SCT040 SCT100", "TAF ORBI 101000Z 1012/1112 28008KT 8000 NSC", "TAF ORER 100400Z 1006/1106 18005KT 8000 NSC BECMG 1009/1012 26010KT BECMG 1021/1023 04005KT", "TAF ORNI 101000Z 1012/1112 32010KT 7000 NSC", "TAF ORSU 100500Z 1006/1106 23008KT CAVOK BECMG 1012/1014 26012KT 9999 FEW045 BECMG 1020/1022 32006KT CAVOK", "TAF OSAP 1012/1112 29008KT CAVOK", "TAF OSDI 101100Z 1012/1118 20010KT CAVOK TEMPO 1012/1118 22010G25KT 8000 FEW030", "OSLK 1012/1112 22012KT 9999 SCT030", "TAF OTBD 101102Z 1012/1118 08011KT CAVOK TEMPO 1012/1018 9999 FEW035TCU TEMPO 1017/1106 VRB02KT 5000 HZ PROB30 TEMPO 1100/1103 3000 BR", "TAF OTBH 100800Z 1008/1114 VRB06KT 9999 SKC QNH2988INS BECMG 1012/1013 30009KT 9999 SKC QNH2985INS BECMG 1017/1018 03006KT 9999 SKC QNH2989INS BECMG 1100/1101 27006KT 8000 BR SKC QNH2983INS TEMPO 1101/1103 6000 BR TX39/1012Z TN21/1101Z", "TAF OTHH 100516Z 1006/1112 08007KT 8000 NSC TEMPO 1006/1010 VRB03KT TEMPO 1006/1009 01007KT TEMPO 1015/1105 VRB03KT", "PAAQ 101139Z 1012/1112 16004KT P6SM OVC060 FM110200 05005KT 6SM -RASN SCT015 OVC025", "PABE 101138Z 1012/1112 35010KT P6SM OVC050 FM110900 24005KT P6SM OVC050", "PABR 101149Z 1012/1112 23013KT P6SM VCSH OVC035 FM101500 23015KT P6SM VCSH OVC025 FM111100 23022KT 5SM -SHSN BKN015", "PABT 101149Z 1012/1112 VRB03KT 6SM BR OVC050 TEMPO 1014/1018 5SM -SHSN BR BKN025", "PACD 101139Z 1012/1112 20010KT P6SM BKN025 OVC035 TEMPO 1012/1014 SCT025 OVC035 FM101400 22030G40KT 5SM -RA OVC015 FM101800 28045G60KT 5SM -RA OVC025 FM102200 30035G45KT P6SM SCT025 BKN050 FM110300 30012KT P6SM BKN050", "PACV 101121Z 1012/1112 VRB05KT P6SM SCT040 BKN070 FM102200 10010KT 6SM -RA SCT020 BKN030 FM110000 10012G22KT 5SM RA BR SCT010 OVC025 FM110300 10012G20KT 2SM RA BR OVC015 FM110800 09007KT 6SM -RA BR SCT020 BKN025", "PADL 101138Z 1012/1112 06006KT P6SM VCSH SCT025 BKN035 OVC070 FM101500 04013G20KT 4SM -RA BR OVC015 FM101800 03013G20KT 2SM -RA BR OVC007 FM110000 32013G20KT 6SM -RA BR OVC015 FM110300 30010G17KT P6SM OVC050 FM110600 VRB05KT P6SM SKC", "PADQ 101121Z 1012/1112 17006KT P6SM -RA SCT025 BKN040 FM101400 19009KT 5SM -RA SCT015 OVC025 FM102000 22010G20KT P6SM SCT025 BKN035 FM110400 25025G40KT P6SM SCT200 FM111000 28020G30KT P6SM BKN200", "PADU 101139Z 1012/1112 25030G40KT P6SM -SHRA BKN025 OVC050 FM101800 28025G35KT P6SM SCT025 BKN050 FM102200 28015G25KT P6SM BKN050 FM110400 29008KT P6SM SCT050", "TAF PAED 101000Z 1010/1116 03009KT 9999 FEW060 BKN080 BKN200 QNH2977INS BECMG 1019/1020 02009KT 9999 VCSH FEW010 BKN040 OVC080 620407 QNH2968INS BECMG 1021/1022 01009KT 6000 -SN SCT007 OVC015 640159 QNH2961INS BECMG 1102/1103 01009KT 3200 -SN BR FEW003 OVC007 640079 QNH2961INS BECMG 1110/1111 03009KT 9999 NSW FEW007 SCT015 BKN040 620405 QNH2986INS TX02/1021Z TNM01/1015Z", "TAF PAEI 100600Z 1006/1112 23010G15KT 9999 FEW020 BKN050 BKN080 620506 520004 QNH2968INS BECMG 1012/1013 21009KT 9999 VCSH BKN020 OVC030 620205 QNH2980INS BECMG 1018/1019 VRB06KT 9999 NSW SCT025 BKN050 600502 QNH2972INS TX00/1101Z TNM03/1016Z", "PAEN 101139Z 1012/1112 14008KT P6SM BKN200 FM110000 02015KT 6SM -RASN SCT015 OVC025 FM110800 18003KT P6SM SCT025 OVC050", "PAFA 101149Z 1012/1118 25008KT 5SM -SHSN BR BKN025 OVC040 TEMPO 1012/1016 2SM -SHSN BR BKN015 FM102000 VRB03KT P6SM VCSH SCT025 BKN040", "PAGA 101149Z 1012/1112 20006KT P6SM VCSH BKN040 AMD LTD TO CLD VIS WX", "PAGK 101121Z 1012/1112 20005KT P6SM BKN080 FM102200 16008KT P6SM OVC080 FM110200 VRB04KT 6SM -RA OVC040 FM110600 34004KT 2SM -SN BR OVC020", "PAGY 101141Z 1012/1112 21020G30KT P6SM VCSH BKN050 FM110500 20025G40KT 6SM -RA BR SCT025 OVC040 AMD LTD TO CLD VIS AND WIND", "PAHN 101141Z 1012/1112 10012KT P6SM VCSH FEW015 BKN060 FM110500 11012G22KT 6SM -RA BR SCT025 OVC040 AMD LTD TO CLD VIS AND WIND", "PAHO 101139Z 1012/1112 25010KT P6SM BKN100 FM102300 05007KT 6SM -RA SCT015 OVC025 FM110600 28006KT P6SM -SHRA SCT025 BKN040", "PAIL 101138Z 1012/1112 36006KT P6SM SKC FM101500 05010KT P6SM OVC100 FM102100 06015KT 4SM -RASN BR OVC007 FM110300 32007KT 6SM -RASN BR OVC015 FM110600 30007KT P6SM SKC", "PAJN 101141Z 1012/1112 VRB04KT P6SM VCSH SCT030 OVC040 WS020/26030KT TEMPO 1012/1016 6SM -SHRA BR BKN025 OVC035 FM101700 10006KT P6SM VCSH SCT035 OVC050 TEMPO 1017/1021 25006KT SCT035 BKN050 FM110500 11012G22KT 6SM -RA BR SCT025 OVC040", "PAKN 101138Z 1012/1112 08008KT P6SM OVC050 FM101800 08008KT 4SM -RA BR OVC015 FM102100 36010KT 2SM -RA BR OVC007 FM110300 31010KT P6SM -RA OVC025 FM110600 28008KT P6SM BKN050", "PAKT 101141Z 1012/1112 31006KT P6SM VCSH SCT035 BKN070 AMD LTD TO CLD VIS AND WIND 1012/1015", "PAKW 101141Z 1012/1112 23008KT P6SM VCSH SCT025 BKN040 AMD LTD TO CLD VIS AND WIND", "PAMC 101149Z 1012/1112 VRB03KT P6SM BKN050", "PANC 101139Z 1012/1118 06006KT P6SM BKN050 FM110000 36009KT P6SM -RA OVC030 FM110200 36008KT 6SM -RASN BR BKN030 OVC050 FM111000 02005KT P6SM BKN060", "PAOM 101149Z 1012/1112 VRB05KT P6SM OVC050", "PAOR 101149Z 1012/1112 31010G18KT P6SM VCSH OVC050 FM101800 VRB04KT P6SM OVC050 FM110600 VRB03KT 3SM -SN BKN025 FM110900 30005KT 1SM -SN OVC015", "PAOT 101149Z 1012/1112 VRB05KT P6SM VCSH SCT025 BKN050 FM102100 22008KT 6SM -SHSN BR BKN025 OVC040", "PAPG 101141Z 1012/1112 26006KT P6SM VCSH SCT025 OVC080 AMD LTD TO CLD VIS AND WIND 1012/1015", "PAQT 101149Z 1012/1112 23006KT 3SM BR VCSH OVC003 TEMPO 1012/1013 1SM BR FM101700 23008KT 5SM BR BKN005 FM101900 24010KT P6SM OVC015 FM102100 21010KT P6SM OVC035", "PASC 101149Z 1012/1112 22006KT 3SM BR VCSH OVC005 TEMPO 1012/1014 1SM BR OVC003 FM101700 23008KT 5SM BR BKN005 FM102000 24010KT P6SM OVC015 FM102300 21010KT P6SM OVC035", "PASD 101139Z 1012/1112 22025G35KT 6SM -RA BR OVC015 FM101600 22035G45KT 5SM BR OVC015 FM101800 26035G45KT 5SM BR OVC025 FM102100 28040G55KT 5SM BR OVC025 FM110400 32020G30KT P6SM BKN050", "PASI 101141Z 1012/1112 30010KT P6SM VCSH BKN040 BKN060 TEMPO 1012/1016 6SM -SHRA BR SCT015 BKN030 OVC040 FM101900 25007KT P6SM VCSH BKN060 FM110200 15008KT 6SM -RA BKN025 OVC040", "PASN 101139Z 1012/1112 36025G35KT 6SM -RA SCT015 OVC025 TEMPO 1012/1016 P6SM NSW SCT025 OVC040 FM101600 33018G28KT P6SM VCSH SCT025 BKN050 FM102100 30013KT P6SM BKN050 FM110600 19011KT P6SM -RA BKN025", "TAF PASY 100600Z 1006/1112 23020KT 9999 FEW025 SCT040 QNH3024INS BECMG 1014/1015 27025KT 9999 FEW025 FEW050 QNH3025INS BECMG 1100/1101 30020KT 9999 SKC QNH3045INS BECMG 1107/1108 27009KT 9999 FEW050 QNH3052INS TX08/1015Z TN04/1007Z LIMITED METWATCH 1006 TIL 1017", "PATA 101149Z 1012/1112 28008KT P6SM BKN050 FM102100 VRB03KT P6SM OVC050", "PATK 101139Z 1012/1112 17008KT P6SM SCT025 OVC050 TEMPO 1012/1016 BKN025 OVC050 FM110000 02005KT P6SM -SN SCT025 OVC050 FM110800 VRB02KT P6SM OVC050", "PAUN 101149Z 1012/1112 VRB05KT P6SM VCSH SCT025 OVC040 FM101500 25004KT 6SM -SN BR BKN025", "PAVD 101121Z 1012/1112 VRB04KT P6SM BKN050 BKN100 FM102200 VRB03KT 5SM -RA BR BKN040 OVC050 FM110200 08005KT 5SM -RA BR BKN020 OVC030 FM110400 08006KT 3SM RA BR SCT003 OVC015 AMD LTD TO CLD VIS AND WIND", "PAWG 100540Z 1006/1106 VRB05KT P6SM -SHRA FEW025 OVC040 FM101500 VRB05KT P6SM VCSH SCT025 OVC050 AMD NOT SKED 1006/1015", "PAYA 101141Z 1012/1112 25012KT 6SM -SHRA BKN030 OVC040 TEMPO 1012/1016 25012G22KT 4SM SHRA BR BKN015 OVC025 FM102100 21008KT P6SM VCSH SCT030 OVC040 FM110100 12010KT 6SM -RA BR SCT015 OVC025 FM110400 09010G18KT 4SM RA BR OVC015 WS015/15030KT AMD LTD TO CLD VIS AND WIND", "PGRO 100528Z 1006/1106 18010KT P6SM VCSH SCT015 BKN120 TEMPO 1006/1007 VRB15KT 4SM SHRA BKN015", "PGSN 101132Z 1012/1112 19010KT P6SM VCSH SCT015 BKN030", "TAF PGUA 101000Z 1010/1116 24010KT 9999 VCSH SCT018 BKN180 QNH2970INS TEMPO 1012/1024 21012G20KT 3200 SHRA VCTS BKN018CB BECMG 1023/1024 19012G20KT 9999 VCSH SCT008 BKN020 BKN140 QNH2967INS TEMPO 1100/1108 18015G25KT 3200 SHRA BKN008 OVC020 TX30/1102Z TN24/1016Z", "PGUM 101132Z 1012/1118 18010KT P6SM VCSH FEW015 SCT035", "PGWT 100528Z 1006/1106 11008KT P6SM VCSH SCT018 BKN120", "PHJH 092341Z 1000/1024 35009KT P6SM VCSH SCT025 BKN050 FM100600 05005KT P6SM VCSH FEW025 SCT050 FM102100 25009KT P6SM VCSH SCT025 BKN050", "PHJR 101129Z 1012/1112 VRB03KT P6SM FEW025 FM101900 21006KT P6SM VCSH FEW025 BKN045 BKN100 FM110500 VRB05KT P6SM VCSH SCT025 BKN045 BKN080", "PHKO 101129Z 1012/1112 VRB05KT P6SM VCSH FEW025 BKN050 FM102000 25008KT P6SM FEW030 SCT050 FM102200 27008KT P6SM VCSH SCT025 BKN050 BKN120 FM110600 VRB05KT P6SM VCSH FEW025 SCT050 SCT120", "PHLI 101129Z 1012/1112 26005KT P6SM VCSH FEW025 SCT040 SCT100 FM102000 10007KT P6SM VCSH FEW025 BKN050 BKN120 FM110500 VRB05KT 6SM SHRA SCT025 BKN040 BKN100", "PHMK 101129Z 1012/1112 VRB05KT P6SM VCSH SCT020 BKN040 TEMPO 1012/1016 4SM SHRA BKN020 OVC040 FM102100 08009KT P6SM FEW030 SCT050 SCT100 FM110500 VRB05KT P6SM FEW030 SCT050 BKN100", "PHNL 101129Z 1012/1118 01004KT P6SM VCSH FEW025 SCT045 SCT100 FM101900 19008KT P6SM VCSH SCT025 BKN045 BKN100 FM110500 VRB05KT P6SM VCSH SCT025 BKN045 BKN080", "PHNY 101129Z 1012/1112 16007KT P6SM VCSH SCT015 BKN025 TEMPO 1012/1016 4SM SHRA BR BKN015 OVC035 FM101900 VRB05KT P6SM VCSH SCT020 BKN040 BKN100", "PHOG 101129Z 1012/1112 VRB05KT P6SM FEW025 SCT050 FM102000 02009KT P6SM VCSH SCT025 BKN040 BKN100", "PHTO 101129Z 1012/1112 23005KT P6SM VCSH FEW020 SCT040 SCT070 FM102000 10006KT P6SM VCSH SCT025 BKN040 BKN120 FM110000 VRB05KT 6SM SHRA BKN025 BKN040 BKN120", "PKMJ 101132Z 1012/1112 VRB05KT P6SM VCSH FEW015 SCT050", "PKWA 101132Z 1012/1112 VRB05KT P6SM VCSH SCT015", "TAF PLCH 101114Z 1012/1112 11005KT 9999 SCT018 PROB30 TEMPO 1019/1104 09015G25KT 5000 SHRA BKN015", "PMDY 101129Z 1012/1112 06013G21KT P6SM VCSH SCT025 BKN050", "PTKK 101132Z 1012/1112 VRB05KT P6SM FEW015", "PTPN 092338Z 1000/1024 10008KT P6SM VCSH SCT020 SCT060 TEMPO 1002/1006 VRB15KT 4SM SHRA BKN018", "PTRO 101132Z 1012/1112 24008KT P6SM VCSH SCT016 BKN120", "PTSA 100528Z 1006/1106 VRB06KT P6SM VCSH BKN018 BKN130 TEMPO 1006/1008 4SM SHRA BKN018", "PTYA 101132Z 1012/1112 27006KT P6SM VCSH BKN016 OVC120 TEMPO 1013/1017 VRB10G25KT 2SM SHRA BKN015", "TAF PWAK 100600Z 1006/1112 05009KT 9000 BR FEW017 QNH2976INS TEMPO 1009/1112 VRB18G30KT 9000 -TSRA BKN025CB OVC040 TX32/1008Z TN25/1016Z FOR MIL USE ONLY", "TAF RCFN 101100Z 1012/1112 35005KT 9999 FEW015 BKN032 BKN060 BECMG 1101/1103 04012KT TEMPO 1104/1108 06013G23KT", "TAF RCKH 101100Z 1012/1118 01005KT 9999 FEW015 BKN032 BKN060 BECMG 1101/1103 33010KT BECMG 1110/1112 01005KT", "TAF RCMQ 101100Z 1012/1112 01022G32KT 9999 FEW012 BKN050 TX26/1105Z TN17/1021Z BECMG 1014/1017 36016G26KT FEW012 SCT100 TEMPO 1018/1023 FEW008 BKN030 BECMG 1102/1105 01022G32KT FEW010 BKN080 BECMG 1108/1111 01016G26KT FEW012 SCT100", "TAF RCNN 101100Z 1012/1112 36010KT 9999 FEW012 BKN060 TX31/1105Z TN23/1020Z BECMG 1016/1019 FEW012 SCT060 BECMG 1020/1023 FEW012 BKN080 BECMG 1100/1103 FEW012 SCT060 BECMG 1110/1113 02004KT FEW012 BKN060", "TAF RCSS 101100Z 1012/1112 08012KT 9999 FEW015 BKN032 BKN060 TEMPO 1020/1024 10005KT FEW012 BKN020 BKN050 TEMPO 1102/1108 09013G23KT", "TAF RCTP 101100Z 1012/1118 05018KT 9999 FEW012 BKN032 TEMPO 1020/1024 FEW010 BKN016 BKN040 TEMPO 1102/1108 04020G30KT", "TAF RJAA 101105Z 1012/1118 22010KT 9999 FEW020 BECMG 1109/1112 36010KT", "TAF RJAH 101105Z 1012/1118 36005KT 9999 FEW020 TEMPO 1012/1015 4000 BR BECMG 1015/1017 23008KT BECMG 1106/1109 02008KT", "TAF RJBB 101105Z 1012/1118 28021KT 9999 FEW015 SCT050 BECMG 1109/1112 03012KT", "TAF RJCB 101108Z 1012/1118 30006KT 9999 -SHRA FEW004 BKN015 TEMPO 1012/1017 2000 SHRA BR FEW002 BKN004 BECMG 1017/1019 15004KT TEMPO 1017/1100 0700 -SHRA FG VV001 BECMG 1022/1100 17018KT BECMG 1106/1109 16006KT", "TAF RJCC 101106Z 1012/1118 16006KT 9999 -SHRA FEW005 BKN015 TEMPO 1012/1016 2000 SHRA BR FEW003 BKN005 TEMPO 1016/1020 0700 -SHRA FG VV001 TEMPO 1020/1100 3000 SHRA BR FEW003 BKN006 BECMG 1021/1023 20020KT TEMPO 1100/1106 20022G32KT", "TAF RJCH 101116Z 1012/1118 26012KT 9999 FEW015 BKN025 BECMG 1021/1023 26030G40KT TEMPO 1022/1100 4000 SHRA BR FEW015 BKN025 FEW025CB BECMG 1112/1115 28015KT", "TAF RJCK 101118Z 1012/1118 34008KT 7000 FEW003 BKN015 TEMPO 1012/1019 0700 SHRA FG VV001 BECMG 1015/1017 24005KT TEMPO 1019/1023 3000 -SHRA BR FEW001 BKN003 BECMG 1022/1100 19015KT TEMPO 1100/1106 21023G33KT", "TAF RJCM 101120Z 1012/1118 35005KT 9999 FEW008 BKN020 BECMG 1012/1014 19006KT TEMPO 1012/1022 4000 -SHRA BR BECMG 1100/1103 20018KT BECMG 1109/1112 19006KT", "TAF RJEC 101112Z 1012/1118 36004KT 7000 FEW003 BKN015 TEMPO 1012/1023 0700 -SHRA FG VV001 BECMG 1021/1023 20018KT TEMPO 1023/1106 18022G32KT BECMG 1112/1115 20008KT", "TAF RJFF 101114Z 1012/1118 23008KT 9999 FEW020 BKN035 BECMG 1014/1016 30011KT BECMG 1109/1112 03005KT BECMG 1112/1115 13004KT", "TAF RJFK 101106Z 1012/1118 32006KT 9999 FEW030", "TAF RJFM 101106Z 1012/1118 27010KT 9999 FEW030 BECMG 1100/1103 10006KT", "TAF RJFO 101106Z 1012/1118 24007KT 9999 FEW030 SCT045 BECMG 1100/1103 32013KT", "TAF RJFR 101111Z 1012/1118 25009KT 9999 FEW030 SCT045 BECMG 1014/1016 29014KT TEMPO 1014/1021 27016G28KT BECMG 1109/1112 35008KT", "TAF RJFS 101106Z 1012/1118 28011KT 9999 FEW030 BECMG 1106/1109 36005KT", "TAF RJFT 101106Z 1012/1118 31006KT 9999 FEW030 SCT045 BECMG 1012/1014 06003KT BECMG 1100/1103 31006KT BECMG 1109/1112 05006KT", "TAF RJFU 101106Z 1012/1118 30015KT 9999 FEW030 SCT045 BECMG 1109/1112 01012KT", "TAF RJGG 101105Z 1012/1118 29018KT 9999 FEW020", "TAF RJNK 101105Z 1012/1118 22012KT 9999 FEW020 BKN040 BECMG 1109/1112 12004KT", "TAF RJNS 101116Z 1012/1118 26010KT 9999 FEW030", "TAF RJNT 101105Z 1012/1118 20008KT 9999 FEW040", "TAF RJOA 101105Z 1012/1118 27006KT 9999 FEW020 BKN040", "TAF RJOB 101106Z 1012/1118 30006KT 9999 FEW020 SCT040", "TAF RJOC 101108Z 1012/1118 24018KT 9999 FEW015 BKN035 TEMPO 1012/1018 26028G38KT BECMG 1109/1112 17007KT", "TAF RJOH 101107Z 1012/1118 24018KT 9999 FEW015 BKN035 TEMPO 1012/1018 26028G38KT BECMG 1109/1112 18007KT", "TAF RJOI 1009/1109 25014KT 9999 FEW020 SCT060 BKN200 551009 551909 QNH2992INS FM101800 27012KT 9999 FEW015 BKN045 BKN200 551009 551909 QNH2997INS FM110000 27012KT 9999 FEW020 BKN035 BKN200 551409 552505 QNH3005INS FM110700 31010KT 9999 FEW020 SCT035 BKN200 551909 QNH3006INS T15/1021Z T21/1106Z", "TAF RJOK 101107Z 1012/1118 34007KT 9999 FEW025 SCT050 BECMG 1100/1103 17007KT BECMG 1106/1109 35009KT", "TAF RJOM 101106Z 1012/1118 27018KT 9999 FEW020 BKN040 BECMG 1103/1106 36008KT BECMG 1115/1118 06006KT", "TAF RJOO 101106Z 1012/1118 32005KT 9999 FEW020 SCT045", "TAF RJOT 101107Z 1012/1118 26014KT 9999 FEW020 SCT040 BECMG 1109/1112 20005KT BECMG 1112/1115 15007KT", "TAF RJSA 101105Z 1012/1118 24010KT 8000 -SHRA FEW008 BKN015 BKN020 TEMPO 1012/1016 4000 SHRA BR FEW002 BKN005 BKN008 BECMG 1022/1100 24020KT TEMPO 1100/1109 24020G30KT BECMG 1115/1118 24010KT", "TAF RJSF 101120Z 1012/1118 02004KT 8000 -SHRA FEW010 BKN015 BKN020 TEMPO 1012/1018 3000 -SHRA BR FEW001 BKN003 BKN005 BECMG 1022/1100 32010KT", "TAF RJSI 101108Z 1012/1118 19004KT 8000 FEW010 BKN015 BKN020 TEMPO 1012/1014 4000 BR FEW002 BKN005 BKN008 TEMPO 1016/1019 3000 SHRA BR FEW005 BKN008 BKN015 TEMPO 1019/1022 4000 BR FEW002 BKN005 BKN008 BECMG 1022/1100 27012KT TEMPO 1100/1106 27015G25KT", "TAF RJSK 101116Z 1012/1118 28008KT 8000 -SHRA FEW008 BKN015 BKN020 TEMPO 1012/1015 3000 SHRA BR FEW002 BKN005 BKN008 BECMG 1015/1017 14004KT TEMPO 1017/1022 1500 -SHRA BR FEW001 BKN003 BKN005 BECMG 1022/1100 26015KT TEMPO 1100/1106 26020G30KT", "TAF RJSN 101116Z 1012/1118 20010KT 8000 -SHRA FEW020 BKN030 BECMG 1020/1022 24022G32KT BECMG 1109/1112 30008KT", "TAF RJSS 101114Z 1012/1118 24004KT 9999 FEW010 BKN040 BECMG 1022/1100 27015KT TEMPO 1100/1106 27020G30KT BECMG 1112/1115 30005KT", "TAF RJTT 101105Z 1012/1118 22018KT 9999 FEW020 BECMG 1106/1109 18008KT BECMG 1109/1112 36014KT", "TAF RKJB 101100Z 1012/1118 29012KT 9999 SCT040 TN12/1021Z TX18/1104Z TEMPO 1012/1016 32015G25KT 4000 -RA BKN035 BKN090 BECMG 1016/1017 BKN040 BECMG 1023/1024 35011KT SCT040 BECMG 1112/1113 05005KT", "TAF RKNY 101100Z 1012/1118 27020G35KT 9999 SCT030 TN08/1021Z TX18/1105Z TEMPO 1012/1018 27025G45KT BECMG 1022/1024 26015G25KT BECMG 1102/1104 25008KT", "TAF RKPC 101100Z 1012/1118 31020G35KT 9999 SCT040 TN15/1020Z TX18/1105Z BECMG 1017/1018 31015G25KT TEMPO 1021/1102 33011KT BECMG 1102/1103 35008KT", "TAF RKPK 101100Z 1012/1118 32009KT CAVOK TN11/1021Z TX21/1106Z BECMG 1100/1101 33012G22KT 9999 SCT030", "TAF RKSG 101100Z 1011/1117 28012KT 9999 FEW017 OVC035 620404 520053 QNH2993INS BECMG 1013/1014 28012KT 9999 BKN017 620404 520203 QNH2995INS BECMG 1014/1015 29012KT 9999 BKN017 520053 QNH2997INS BECMG 1023/1024 32006KT 9999 FEW018 510043 QNH3012INS BECMG 1100/1101 32012G18KT 9999 FEW030 510053 QNH3014INS BECMG 1108/1109 VRB06KT 9999 SKC QNH3017INS TX15/1106Z TN08/1019Z", "TAF RKSI 101100Z 1012/1118 31018G35KT 9999 FEW015 BKN028 TN10/1021Z TX17/1105Z BECMG 1016/1018 SCT030 BECMG 1020/1022 32015G25KT CAVOK BECMG 1104/1106 33010KT BECMG 1115/1117 03007KT", "TAF RKSM 101100Z 1012/1118 30010KT 9999 BKN025 BECMG 1021/1022 30008KT 9999 SCT030 WND 30006KT AFT 1103 TN06/1021Z TX18/1106Z", "TAF RKSO 091300Z 0913/1019 27006KT 9000 -SHRA BKN040 QNH2990INS BECMG 0919/0920 28010G15KT 9999 VCSH BKN040 QNH2992INS BECMG 1000/1001 29012G18KT 8000 -SHRA SCT020 BKN030 QNH2986INS TEMPO 1006/1010 30015G25KT 6000 -RA BKN020 BECMG 1009/1010 27012KT 6000 -SHRA SCT020 BKN030 QNH2987INS BECMG 1014/1015 30009KT 9999 VCSH SCT030 QNH2991INS TX13/1005Z TN10/0921Z LAST NO AMDS AFT 0913 NEXT 1021", "TAF RKSS 101100Z 1012/1118 31007KT 9999 FEW012 BKN030 OVC080 TN05/1021Z TX17/1105Z BECMG 1017/1019 SCT040 BECMG 1112/1114 06005KT 6000 NSC", "TAF RKTN 101100Z 1012/1118 30010KT 9999 BKN050 TN10/1021Z TX20/1106Z TEMPO 1012/1015 9000 -RA BKN030 BECMG 1017/1018 NSW SCT040", "TAF RKTU 101100Z 1012/1118 27006KT 9999 BKN030 TN08/1021Z TX18/1106Z BECMG 1021/1022 27008KT SCT030", "TAF ROAH 101105Z 1012/1118 02022KT 9999 FEW025 BKN040", "TAF RODN 100800Z 1008/1114 01012G18KT 9999 BKN025 OVC050 QNH2996INS TEMPO 1008/1012 01015G25KT BECMG 1012/1013 01015KT 9999 FEW020 OVC030 QNH2999INS BECMG 1101/1102 02015G27KT 9999 SCT030 OVC050 QNH2996INS TX27/1104Z TN23/1018Z", "TAF ROIG 101108Z 1012/1118 02020KT 9999 FEW020 BKN030 TEMPO 1012/1112 03024G34KT", "TAF COR ROTM 1009/1109 01015G25KT 9999 BKN025 OVC040 QNH2992INS BECMG 1012/1014 02006G15KT 9999 SCT020 BKN040 QNH2994INS BECMG 1018/1020 03012G20KT 9999 SCT025 SCT040 QNH2997INS T27/1004Z T21/1014Z COR 0905", "TAF RPLB 101100Z 1012/1112 33005KT 9999 FEW020 SCT300 TX32/1106Z TN24/1022Z TEMPO 1012/1018 VRB03KT 9000 -SHRA FEW016CB SCT018 BKN080", "TAF RPLC 101100Z 1012/1118 27006KT 9999 FEW020 BKN300 TX35/1106Z TN26/1021Z TEMPO 1012/1018 32006KT SCT020 BKN300", "TAF RPLI 101100Z 1012/1112 03008KT 9999 FEW018 SCT100 BKN290 TEMPO 1012/1018 36012KT 8000 -RA FEW018 BKN090", "TAF RPLL 101100Z 1012/1118 26005KT 9999 FEW025 SCT300 TX33/1106Z TN26/1021Z TEMPO 1012/1018 24012KT -RA FEW023CB FEW025 BKN100 TEMPO 1018/1024 VRB03KT FEW025", "TAF RPMD 101100Z 1012/1112 33005KT 9999 FEW016 SCT090 BKN260 TEMPO 1012/1018 18008KT -SHRA FEW015CB SCT016 BKN090", "TAF RPMR 101100Z 1012/1112 16006KT 9999 FEW018 SCT250 TEMPO 1012/1018 27012KT FEW017CB FEW018 SCT080", "TAF RPMZ 101100Z 1012/1112 26005KT 9999 FEW017 SCT300 TEMPO 1012/1018 30010KT FEW016CB FEW017 BKN090", "TAF RPVD 101100Z 1012/1112 32006KT 9999 FEW015 SCT070 BKN220 TEMPO 1012/1018 27010KT -SHRA FEW014CB FEW015 BKN070", "TAF RPVM 101100Z 1012/1118 21006KT 9999 FEW020 BKN300 TEMPO 1012/1018 29004KT -SHRA FEW018CB BKN100 TEMPO 1018/1024 23005KT FEW018CB BKN300", "TAF RPVP 101100Z 1012/1112 29006KT 9999 FEW019 BKN240 TEMPO 1012/1018 27010KT FEW017CB SCT019 BKN240", "TAF SAAR 101100Z 1012/1112 VRB03KT CAVOK TX23/1019Z TN06/1109Z BECMG 1013/1015 06010KT BECMG 1100/1102 VRB03KT ", "TAF SABE 101100Z 1012/1112 VRB03KT CAVOK TX19/1019Z TN12/1109Z BECMG 1017/1019 09015KT BECMG 1103/1105 03010KT BECMG 1108/1110 VRB03KT ", "TAF SACO 101100Z 1012/1112 36010KT CAVOK TX21/1018Z TN05/1110Z TEMPO 1016/1019 02015KT BECMG 1100/1103 34005KT", "TAF SADF 101100Z 1012/1112 02005KT CAVOK TX21/1018Z TN08/1110Z BECMG 1018/1020 09015KT BECMG 1106/1108 05005KT", "TAF SAEZ 101100Z 1012/1112 03005KT CAVOK TX20/1018Z TN06/1109Z BECMG 1018/1020 09010KT BECMG 1102/1104 03010KT", "TAF SAME 101100Z 1012/1112 VRB03KT CAVOK TX23/1021Z TN07/1110Z BECMG 1015/1017 05008KT BECMG 1101/1103 20005KT", "TAF SANR 092300Z 1000/1024 10015KT 7000 NSC TX23/1018Z TN07/1010Z BECMG 1002/1004 18005KT BECMG 1012/1014 09010KT", "TAF SANT 101100Z 1012/1112 34005KT CAVOK TX23/1018Z TN07/1110Z BECMG 1014/1017 07010KT ", "TAF SARE 101100Z 1012/1112 16010KT CAVOK TX21/1018Z TN10/1110Z PROB30 TEMPO 1013/1015 8000 RA BKN050", "TAF SARF 101100Z 1012/1112 16010KT CAVOK TX21/1018Z TN12/1110Z PROB30 TEMPO 1013/1015 8000 RA BKN050", "TAF SARI 101100Z 1012/1112 18010KT 5000 RA BR BKN002 BKN040 TX20/1018Z TN12/1109Z PROB30 1013/1015 9999 BKN015 BECMG 1016/1018 3000 TSRA SCT010 FEW050CB BKN050", "TAF SARP 101100Z 1012/1112 14010KT CAVOK TX21/1018Z TN12/1109Z BECMG 1014/1016 5000 TSRA SCT010 FEW050CB BKN050", "TAF SASA 101100Z 1012/1112 VRB03KT CAVOK TX20/1018Z TN04/1110Z TEMPO 1016/1019 05015KT", "TAF SASJ 101100Z 1012/1112 32005KT CAVOK TX22/1018Z TN06/1110Z TEMPO 1017/1020 07015KT ", "TAF SAVC 101100Z 1012/1112 29010KT CAVOK TX21/1019Z TN08/1109Z BECMG 1013/1015 29015G25KT BECMG 1020/1022 29015KT BECMG 1100/1102 29015G25KT BECMG 1108/1110 29025G40KT ", "TAF SAWE 101100Z 1012/1112 30025G35KT CAVOK TX10/1018Z TN04/1109Z BECMG 1022/1024 34015KT 9999 SCT040 ", "TAF SAWG 101100Z 1012/1112 32020KT CAVOK TX14/1019Z TN04/1109Z BECMG 1013/1015 25025G35KT 9999 SCT050 PROB30 TEMPO 1015/1017 8000 -RA SCT030 BECMG 1021/1023 36005KT BECMG 1109/1111 27015KT CAVOK ", "TAF SAWH 101100Z 1012/1112 28015G25KT 9999 BKN045 TX10/1018Z TN04/1103Z TEMPO 1012/1015 9000 -DZ FEW030 BKN040 BECMG 1019/1021 VRB03KT 9999 SCT050 BECMG 1105/1107 35015KT ", "TAF COR SAZM 101120Z 1012/1112 05010KT CAVOK TX13/1017Z TN06/1109Z BECMG 1017/1018 05015G25KT BECMG 1101/1103 02010KT TEMPO 1108/1111 36005KT 5000 BR SCT010", "TAF SAZN 101100Z 1012/1112 VRB03KT CAVOK TX22/1019Z TN08/1109Z BECMG 1105/1107 25015KT BECMG 1110/1112 25020G30KT ", "TAF SAZS 101100Z 1012/1112 16005KT CAVOK TX16/1019Z TN03/1109Z BECMG 1015/1017 30010KT BECMG 1100/1102 VRB03KT 9999 SCT035 BECMG 1110/1112 30015G25KT CAVOK ", "TAF SBAC 100845Z 1012/1024 10015KT 9999 SCT030 TX32/1018Z TN26/1024Z BECMG 1013/1015 06015KT RMK PGU", "TAF SBAF 100300Z 1006/1018 24005KT 8000 BKN010 TN20/1009Z TX23/1018Z BECMG 1012/1014 9999 SCT015 RMK PDZ", "TAF SBAN 100300Z 1006/1018 07004KT 9999 SCT030 TN19/1009Z TX30/1017Z BECMG 1014/1016 SCT030 FEW035TCU RMK PDZ", "TAF SBAR 100845Z 1012/1112 10015KT 9999 SCT015 BKN030 TX29/1015Z TN25/1108Z PROB40 1012/1014 5000 RA BKN015 RMK PGU", "TAF SBAT 100100Z 1006/1018 13003KT 9999 SCT030 TN23/1009Z TX33/1017Z BECMG 1008/1010 04008KT RMK PGX", "TAF SBBE 100900Z 1012/1112 08005KT 9999 SCT020 TX31/1016Z TN24/1107Z BECMG 1015/1017 36005KT BKN035 FEW040TCU PROB30 1019/1021 TS BKN020 FEW025CB BECMG 1022/1024 05010KT FEW030 BECMG 1103/1105 08005KT RMK PHD", "TAF SBBG 100900Z 1012/1024 08009KT CAVOK TN06/1012Z TX15/1017Z BECMG 1013/1015 11010KT 9999 SCT030 BECMG 1021/1023 8000 SCT010 BKN020 RMK PEN", "TAF SBBI 100300Z 1006/1018 09005KT 8000 OVC005 TN12/1009Z TX14/1018Z BECMG 1010/1012 9999 BKN010 RMK PDZ", "TAF SBBR 100830Z 1012/1112 05007KT 9999 FEW045 TX31/1018Z TN20/1109Z RMK PGG", "TAF SBBU 100345Z 1006/1018 13004KT 8000 FEW011 TN19/1007Z TX28/1017Z BECMG 1012/1014 10004KT BECMG 1014/1016 03004KT FEW025 RMK PGM", "TAF SBBV 100900Z 1012/1112 27005KT 9999 SCT030 FEW040TCU TX33/1017Z TN25/1107Z PROB30 1100/1102 TS SCT030 FEW040CB RMK PHD", "TAF SBBW 092330Z 1006/1018 13004KT 9999 SCT018 TN22/1008Z TX31/1017Z TEMPO 1009/1012 20005KT 7000 RA BECMG 1013/1015 14008KT SCT020 FEW025TCU RMK PGL", "TAF SBCB 100845Z 1012/1024 22010KT 7000 BKN013 BKN025 TX25/1018Z TN21/1024Z BECMG 1015/1017 17010KT BKN017 RMK PGU", "TAF SBCF 100830Z 1012/1112 12005KT CAVOK TX32/1018Z TN19/1109Z BECMG 1013/1015 06010KT BECMG 1022/1024 12005KT RMK PGG", "TAF SBCG 100830Z 1012/1112 33005KT 9999 FEW040 TX27/1018Z TN20/1110Z PROB30 1016/1021 8000 TSRA BKN030 FEW045CB BECMG 1021/1023 03005KT RMK PGG", "TAF SBCJ 100900Z 1012/1024 05005KT 7000 SCT025 TN23/1012Z TX28/1018Z PROB30 1012/1014 5000 RA BR BKN010 BECMG 1020/1022 TS SCT025 FEW030CB RMK PHD", "TAF SBCO 100300Z 1006/1018 12010KT 9999 FEW030 TN11/1006Z TX16/1017Z BECMG 1008/1010 9999 BKN030 BECMG 1013/1015 13014KT 8000 SHRA BKN020 FEW040TCU RMK PEN", "TAF SBCP 100845Z 1012/1024 18010KT 9999 BKN020 TX30/1016Z TN24/1024Z BECMG 1013/1015 16010KT 7000 BKN017 BECMG 1017/1019 11007KT RMK PGU", "TAF SBCR 100830Z 1012/1112 22010KT 9999 FEW030 TX28/1018Z TN20/1110Z BECMG 1016/1018 04005KT BECMG 1022/1024 12004KT CAVOK RMK PGG", "TAF SBCT 100900Z 1012/1112 12005KT 8000 OVC008 TX14/1015Z TN12/1109Z BECMG 1012/1014 9999 BKN010 BECMG 1022/1024 8000 OVC008 RMK PDZ", "TAF SBCY 100900Z 1012/1112 30005KT 9999 SCT020 TX31/1018Z TN22/1107Z PROB30 1020/1023 TS SCT020 FEW025CB RMK PHD", "TAF SBCZ 100900Z 1012/1112 16005KT 9999 BKN030 TX33/1018Z TN21/1106Z PROB30 1019/1022 TS BKN030 FEW035CB BECMG 1100/1102 00000KT CAVOK RMK PHD", "TAF SBDN 092330Z 1006/1018 06005KT 8000 BKN035 TN20/1008Z TX27/1012Z PROB30 1008/1012 VCSH BKN015 FEW035TCU BECMG 1012/1014 04010KT 9999 SCT040 FEW045TCU PROB40 1017/1018 TSRA SCT040 FEW045CB RMK PGH", "TAF SBEG 100900Z 1012/1112 27005KT 9999 FEW020 TX33/1017Z TN24/1110Z BECMG 1014/1016 19005KT SCT025 FEW030TCU BECMG 1021/1023 36005KT FEW025 PROB30 1100/1102 TS SCT025 FEW030CB RMK PHD", "TAF SBFI 100900Z 1012/1112 24005KT 8000 BKN007 TX21/1018Z TN16/1108Z BECMG 1014/1016 BKN015 BECMG 1018/1020 SCT030 RMK PDZ", "TAF SBFL 100900Z 1012/1112 18009KT 9999 SCT025 TX25/1017Z TN13/1108Z PROB40 1012/1014 27006KT 8000 RA BKN010 BKN020 BECMG 1022/1024 08006KT 7000 RA BKN010 BKN020 RMK PEB", "TAF SBFN 100845Z 1012/1024 12010KT 9999 SCT015 BKN020 TX31/1016Z TN26/1024Z RMK PGU", "TAF SBFZ 100845Z 1012/1112 12015KT 9999 BKN017 TX31/1015Z TN25/1109Z BECMG 1021/1023 09010KT BECMG 1103/1105 12015KT BKN017 RMK PGU", "TAF SBGL 100845Z 1012/1118 26002KT 7000 BKN015 BKN025 TN22/1109Z TX29/1118Z BECMG 1014/1016 15007KT BKN017 BKN030 BECMG 1103/1105 30003KT BKN010 PROB40 1105/1109 4000 BR BKN005 BECMG 1113/1115 15007KT 9999 SCT020 RMK PGU", "TAF SBGO 100830Z 1012/1112 10005KT 9999 SCT010 FEW040TCU TX33/1018Z TN21/1109Z PROB30 1012/1015 8000 TSRA BKN010 FEW035CB BECMG 1015/1017 FEW045 RMK PGG", "TAF SBGR 100745Z 1012/1118 11006KT 8000 BKN009 TN16/1108Z TX28/1117Z BECMG 1013/1015 BKN014 BECMG 1015/1017 13008KT BKN018 TEMPO 1017/1020 TSRA BKN015 FEW040CB BECMG 1020/1022 15006KT BKN011 BECMG 1100/1102 09005KT BECMG 1108/1110 06009KT BECMG 1112/1114 FEW013 BECMG 1115/1117 03009KT FEW025 RMK PGM", "TAF SBGW 100300Z 1006/1018 09005KT 8000 SCT020 FEW025TCU TN18/1009Z TX22/1016Z BECMG 1013/1015 9999 SCT020 RMK PDZ", "TAF SBIH 100100Z 1006/1018 07007KT 7000 SCT020 BKN040 TN24/1010Z TX30/1017Z TEMPO 1006/1012 18008G18KT 3000 TSRA BR BKN020 FEW025CB BKN040 RMK PGX", "TAF SBIL 100430Z 1006/1018 25005KT 9999 SCT025 TN23/1008Z TX29/1017Z RMK PROB30 1008/1012 SHRA SCT020 FEW025TCU BECMG 1012/1014 10010KT PGG", "TAF SBIZ 100100Z 1006/1018 06005KT 9999 FEW020 TN26/1009Z TX35/1017Z PROB30 1017/1018 SCT020 FEW030TCU RMK PGA", "TAF SBJE 100845Z 1012/1024 06020KT 9999 SCT020 TX35/1016Z TN26/1024Z RMK PGU", "TAF SBJP 100845Z 1012/1112 11012KT 9999 BKN020 TX30/1016Z TN23/1108Z BECMG 1022/1024 14007KT FEW020 BECMG 1103/1105 6000 RA SCT005 BKN015 RMK PGU", "TAF SBJV 100300Z 1006/1018 15003KT 9999 SCT025 TN17/1008Z TX27/1017Z PROB40 TEMPO 1008/1014 33004KT 5000 RA BR BKN007 BKN013 BECMG 1016/1018 7000 RA BKN010 BKN020 RMK PEB", "TAF SBKG 090045Z 1006/1018 10010KT 6000 RA BKN010 TN21/1009Z TX29/1018Z TEMPO 1006/1012 4000 RA BR BKN006 BECMG 1015/1017 8000 NSW BKN020 RMK PFV", "TAF SBKP 100745Z 1012/1112 09006KT 8000 FEW025 TX26/1018Z TN17/1109Z BECMG 1013/1015 03007KT SCT025 TEMPO 1017/1021 TSRA SCT025 FEW040CB BECMG 1021/1023 11007KT FEW025 RMK PGM", "TAF SBLO 100745Z 1012/1024 08007KT 8000 FEW020 TX25/1018Z TN22/1023Z BECMG 1014/1016 02010KT TEMPO 1018/1021 TSRA SCT025 FEW045CB BECMG 1021/1023 01006KT RMK PGM", "TAF SBMA 100900Z 1012/1024 01005KT 9999 SCT025 TX34/1017Z TN26/1024Z PROB30 1012/1014 5000 FU SCT020 BECMG 1020/1022 30005KT TS SCT025 FEW030CB RMK PHD", "TAF SBME 090045Z 1006/1018 18005KT 8000 FEW020 TN22/1009Z TX28/1015Z TEMPO 1006/1010 4000 BR BKN010 BECMG 1010/1012 BKN020 BECMG 1015/1017 13010KT FEW025 RMK PFV", "TAF SBMN 100900Z 1012/1024 05006KT 9999 FEW030 TN29/1012Z TX35/1017Z PROB40 TEMPO 1018/1020 09007KT 8000 TSRA BKN020 FEW035CB RMK PEB", "TAF SBMO 100845Z 1012/1112 12015KT 9999 SCT013 BKN017 TX29/1015Z TN24/1109Z PROB40 1012/1015 5000 RA BKN010 BKN025 BECMG 1022/1024 08005KT RMK PGU", "TAF SBMQ 100900Z 1012/1112 04005KT 9999 SCT020 TX35/1018Z TN26/1108Z BECMG 1014/1016 07010KT SCT025 PROB30 1023/1101 TS SCT020 FEW030CB BECMG 1104/1106 36005KT FEW015 RMK PHD", "TAF SBNF 100900Z 1012/1112 13008KT 9999 SCT020 TX25/1017Z TN15/1108Z PROB40 1012/1014 27006KT 8000 RA BKN010 BKN020 BECMG 1022/1024 08006KT 7000 RA BKN010 BKN020 RMK PEB", "TAF SBNT 100845Z 1012/1024 13012KT 9999 BKN015 FEW030TCU TX29/1016Z TN24/1024Z PROB40 1012/1015 5000 SHRA RMK PGU", "TAF SBOI 100900Z 1012/1024 09005KT 9999 SCT030 TN28/1012Z TX33/1016Z PROB30 1020/1022 TS SCT030 FEW035CB RMK PHD", "TAF SBPA 100900Z 1012/1112 13008KT CAVOK TX15/1017Z TN11/1106Z BECMG 1013/1015 13014KT 8000 SHRA BKN020 FEW040TCU BECMG 1019/1021 5000 RA BR BKN012 BKN030 BECMG 1102/1104 BKN008 RMK PEN", "TAF SBPB 100845Z 1012/1024 13017KT 9999 SCT020 TX33/1016Z TN26/1024Z RMK PGU", "TAF SBPJ 100845Z 1012/1112 18005KT 9999 SCT040 TX36/1018Z TN25/1109Z BECMG 1013/1015 24010KT FEW030 FEW040TCU BECMG 1018/1020 18005KT FEW035 BECMG 1100/1102 15003KT RMK PGU", "TAF SBPK 100900Z 1012/1112 07009KT 9999 FEW015 TX17/1017Z TN08/1106Z BECMG 1013/1015 SCT030 BECMG 1016/1018 14015KT BKN030 BECMG 1021/1023 5000 RA BKN012 BKN030 RMK PEN", "TAF SBPL 100845Z 1012/1112 15010KT 9999 SCT035 TX36/1018Z TN24/1109Z RMK PGU", "TAF SBPP 100745Z 1012/1112 30008KT 8000 BKN005 TX23/1018Z TN16/1107Z BECMG 1014/1016 33006KT BKN015 TEMPO 1016/1019 TSRA BKN014 FEW025CB BECMG 1019/1021 20005KT BKN018 BECMG 1107/1109 27004KT RA BKN005 RMK PGM", "TAF SBPS 100845Z 1012/1112 03010KT 9999 SCT015 BKN020 TX28/1015Z TN23/1109Z BECMG 1014/1016 08015KT BECMG 1021/1023 02010KT FEW020 BECMG 1102/1104 08005KT BKN017 TEMPO 1106/1109 4000 BR BKN015 RMK PGU", "TAF SBPV 100900Z 1012/1112 26005KT 9999 SCT025 TX33/1018Z TN24/1107Z PROB30 1021/1023 TS SCT025 FEW035CB BECMG 1100/1102 36005KT FEW015 RMK PHD", "TAF SBRB 100900Z 1012/1024 16005KT 9999 SCT025 TN22/1012Z TX33/1017Z PROB30 1020/1023 TS SCT030 FEW035CB RMK PHD", "TAF SBRF 100845Z 1012/1112 13013KT 9999 SCT020 TX29/1017Z TN25/1109Z TEMPO 1012/1015 4500 SHRA SCT010 BKN015 BECMG 1015/1017 BKN020 BECMG 1102/1104 5000 RA SCT010 BKN015 RMK PGU", "TAF SBRJ 100845Z 1012/1024 23005KT 7000 SCT015 BKN025 TX24/1018Z TN22/1024Z BECMG 1015/1017 16008KT SCT017 BKN030 RMK PGU", "TAF SBRP 100830Z 1012/1024 08005KT 7000 RA BKN030 TN20/1012Z TX25/1018Z PROB30 1012/1017 5000 RA BR BKN014 BECMG 1018/1020 9999 NSW SCT040 BECMG 1020/1022 14010KT RMK PGG", "TAF SBSC 100300Z 1006/1018 22005KT 8000 BKN010 TN21/1009Z TX23/1018Z BECMG 1012/1014 9999 SCT015 RMK PDZ", "TAF SBSG 100845Z 1012/1112 24005KT 9999 SCT015 BKN025 TX29/1018Z TN22/1108Z PROB40 1012/1015 5000 SHRA BKN015 FEW025TCU BECMG 1015/1017 15015KT BKN030 BECMG 1019/1021 19010KT SCT020 RMK PGU", "TAF SBSJ 100745Z 1012/1024 12005KT 8000 BKN010 TX23/1017Z TN17/1023Z BECMG 1013/1015 BKN015 BECMG 1015/1017 16007KT BKN020 TEMPO 1017/1020 TSRA BKN015 FEW040CB BECMG 1020/1022 15006KT RMK PGM", "TAF SBSL 100845Z 1012/1112 06012KT 9999 BKN017 FEW025TCU TX33/1017Z TN27/1107Z RMK PGU", "TAF SBSM 100300Z 1006/1018 10012KT CAVOK TN07/1006Z TX15/1017Z BECMG 1008/1010 8000 SCT006 BECMG 1013/1015 BKN015 RMK PEN", "TAF SBSN 100900Z 1012/1112 09010KT 9999 SCT020 TX33/1017Z TN24/1107Z PROB30 1019/1021 TS SCT020 FEW025CB BECMG 1022/1024 12005KT BECMG 1107/1109 09010KT FEW015 RMK PHD", "TAF SBSP 100745Z 1012/1024 15007KT 8000 BKN010 TX21/1017Z TN17/1023Z BECMG 1013/1015 BKN015 BECMG 1015/1017 16009KT TEMPO 1017/1020 TSRA BKN015 FEW040CB BECMG 1020/1022 15007KT BKN011 RMK PGM", "TAF SBSV 100830Z 1012/1112 10010KT 9999 FEW020 TX29/1017Z TN25/1108Z PROB30 1108/1112 SHRA SCT018 FEW023TCU RMK PGG", "TAF SBTD 100745Z 1012/1024 05007KT 8000 FEW020 TX20/1018Z TN17/1023Z TEMPO 1012/1015 TSRA SCT025 FEW045CB BECMG 1021/1023 01006KT RMK PGM", "TAF SBTE 100845Z 1012/1024 09010KT 9999 SCT030 TX37/1018Z TN30/1024Z BECMG 1015/1017 06005KT SCT040 FEW045TCU RMK PGU", "TAF SBTF 100900Z 1012/1024 29005KT 9999 SCT020 TN26/1012Z TX33/1018Z PROB30 1020/1022 TS SCT020 FEW025CB RMK PHD", "TAF SBTT 100900Z 1012/1112 29005KT 9999 SCT025 TN23/1012Z TX32/1018Z PROB30 1020/1023 TS SCT025 FEW030CB RMK PHD", "TAF SBUG 100900Z 1012/1024 13011KT CAVOK TN09/1012Z TX14/1017Z BECMG 1014/1016 9999 SCT030 BECMG 1017/1019 8000 -RA BKN020 BKN040 RMK PEN", "TAF SBUL 100430Z 1006/1018 18005KT 8000 TS FEW045CB TN19/1009Z TX30/1017Z BECMG 1007/1009 NSW FEW013 PROB30 1009/1012 4000 RA BR BKN005 BECMG 1012/1014 09010KT 9999 BECMG 1015/1017 03010KT SCT040 RMK PGG", "TAF SBUR 100430Z 1006/1018 09005KT 8000 TS FEW045CB TN19/1009Z TX30/1017Z BECMG 1007/1009 NSW FEW015 PROB30 1009/1013 4000 RA BR BKN005 BECMG 1013/1015 02010KT 9999 SCT035 RMK PGG", "TAF SBVH 100100Z 1006/1018 29005KT 6000 SCT020 TN22/1009Z TX28/1017Z PROB30 1015/1018 4000 TSRA BKN025 FEW035CB RMK PGA", "TAF SBVT 100845Z 1012/1112 01010KT 9999 SCT010 BKN015 TX30/1015Z TN22/1109Z BECMG 1013/1015 04013KT SCT030 BECMG 1021/1023 01005KT BKN017 PROB40 1103/1106 5000 RA BKN015 BECMG 1107/1109 36005KT SCT015 BKN030 RMK PGU", "TAF SBYS 100300Z 1006/1018 12005KT 8000 BKN010 TN17/1009Z TX24/1015Z TEMPO 1009/1012 3000 RA BKN008 BECMG 1012/1014 BKN020 RMK PDZ", "TAF SCAR 101007Z 1012/1112 12004KT 9999 OVC025 TX18/1018Z TN15/1110Z BECMG 1015/1017 23010KT CAVOK BECMG 1100/1102 19004KT OVC025", "TAF SCAT 101007Z 1012/1112 30006KT 9999 OVC018 TX16/1018Z TN09/1110Z BECMG 1016/1018 24012KT CAVOK BECMG 1100/1102 20004KT BECMG 1104/1106 12004KT OVC007", "TAF SCBA 101022Z 1012/1112 29022KT 9999 SCT025 TN05/1012Z TX10/1019Z BECMG 1103/1105 SCT014 BKN060 TEMPO 1106/1112 29010KT 8000 -RA BKN010 BKN020", "TAF SCCF 101007Z 1012/1112 11010KT CAVOK TX23/1018Z TN03/1110Z BECMG 1016/1018 27022KT TEMPO 1018/1021 28025G35KT BECMG 1023/1100 28012KT BECMG 1103/1105 11014KT", "TAF SCCI 101055Z 1012/1112 30025G40KT 9000 FEW023 SCT040 TN07/1112Z TX11/1020Z PROB30 TEMPO 1012/1014 30035G50KT BECMG 1014/1016 28024KT 8000 -SHRA BECMG 1022/1100 31015KT TEMPO 1106/1108 02005KT BECMG 1108/1110 34015KT", "TAF SCCY 101029Z 1012/1024 33008KT 9999 BKN020 BKN040 TN06/1012Z TX11/1019Z", "TAF SCDA 101007Z 1012/1112 12004KT 9999 FEW023 TX19/1018Z TN15/1110Z BECMG 1015/1017 21016KT CAVOK BECMG 1022/1024 BKN028 BECMG 1102/1104 12004KT OVC018", "TAF SCEL 101006Z 1012/1112 VRB02KT CAVOK TX23/1018Z TN07/1110Z BECMG 1016/1018 20011KT TEMPO 1018/1022 FEW050 SCT080 BECMG 1101/1103 15005KT TEMPO 1108/1112 5000 BR", "TAF SCFA 101007Z 1012/1112 18004KT 9999 BKN022 TX17/1017Z TN14/1110Z BECMG 1015/1017 21015KT FEW025 BECMG 1023/1101 BKN024 BECMG 1104/1106 20004KT OVC016", "TAF SCIE 101008Z 1012/1112 22005KT CAVOK TX17/1019Z TN06/1110Z BECMG 1015/1017 21012KT BECMG 1101/1103 22005KT TEMPO 1109/1112 6000 SCT005 BKN008", "TAF SCIP 101013Z 1012/1112 11005KT 9999 SCT025 TX21/1019Z TN15/1106Z BECMG 1016/1018 09015KT TEMPO 1020/1101 5000 -SHRA SCT015 BKN035 BECMG 1102/1104 10005KT SCT020 BKN040 TEMPO 1106/1112 5000 -SHRA SCT015 BKN035", "TAF SCJO 101026Z 1012/1024 18010KT 9999 FEW025 TN07/1012Z TX14/1019Z", "TAF SCNT 101056Z 1012/1100 29018KT 9000 -SHRA FEW020 SCT035 TN07/1100Z TX13/1019Z PROB40 TEMPO 1013/1017 28020G45KT 7000 -SHRA SCT020 BKN030", "TAF COR SCQP 101053Z 1012/1112 22004KT CAVOK TN05/1012Z TX17/1019Z TEMPO 1012/1014 19008KT 9999 BKN014 BECMG 1014/1016 19010KT SCT025 BECMG 1020/1022 27010KT BECMG 1103/1105 29004KT SCT010 BKN020 TEMPO 1105/1112 VRB02KT 2000 BR BKN004", "TAF SCSE 101005Z 1012/1112 30004KT 9999 BKN010 OVC015 TX16/1019Z TN09/1110Z BECMG 1014/1016 FEW010 BKN018 BECMG 1017/1019 29010KT CAVOK BECMG 1101/1103 30004KT TEMPO 1107/1112 BKN012", "TAF SCTE 101022Z 1012/1112 18010KT 9999 SCT025 TN06/1012Z TX14/1019Z BECMG 1013/1015 17012KT BECMG 1017/1019 FEW025 BECMG 1101/1103 29004KT TEMPO 1109/1112 36010KT SCT020 BKN080", "TAF SCVM 101005Z 1012/1112 32004KT 9999 BKN010 OVC015 TX15/1019Z TN07/1110Z TEMPO 1012/1014 5000 BR OVC010 BECMG 1015/1017 33010KT SCT015 TEMPO 1018/1100 CAVOK BECMG 1102/1104 33004KT SCT007 BKN012", "SEGU 101040Z 1012/1112 20007KT 9999 SCT026 SCT100 BECMG 1018/1020 15005KT FEW026 BECMG 1100/1102 21010KT SCT020 SCT100 TX30/1020Z TN21/1110Z", "SELT 101040Z 1012/1112 02005KT 9999 FEW030 BECMG 1018/1020 18014KT BECMG 1100/1102 15006KT FEW020 SCT100 TX19/1018Z TN07/1111Z", "SEMT 101040Z 1012/1112 21005KT 9999 BKN020 BECMG 1018/1020 27010KT SCT020 BECMG 1100/1102 23005KT BKN020 TX26/1020Z TN20/1110Z", "SEQM 101040Z 1012/1112 VRB03KT 9999 FEW033 SCT200 BECMG 1018/1020 34012KT BECMG 1100/1102 04005KT FEW023 SCT100 TX24/1019Z TN10/1111Z", "TAF SGAS 100950Z 1012/1112 18010KT 9999 BKN020 TX17/1019Z TN12/1110Z PROB30 1013/1017 7000 RA OVC010 BECMG 1018/1021 15006KT 9999 BKN017 BECMG 1100/1103 9999 SCT020 BECMG 1107/1110 24004KT 9999 BKN015", "TAF SGCO 100950Z 1012/1112 18008KT 9999 OVC015 TX17/1019Z TN11/1110Z TEMPO 1018/1100 7000 RA OVC010 BECMG 1104/1107 21010KT 9999 BKN015", "TAF SGEN 100950Z 1012/1112 14010KT 9000 OVC015 TX16/1019Z TN12/1110Z TEMPO 1014/1019 7000 RA OVC010 BECMG 1021/1100 9999 BKN020 PROB30 1106/1109 5000 BR BKN010", "TAF SGES 100950Z 1012/1112 22010KT 7000 TSRA OVC010 TX17/1019Z TN13/1110Z TEMPO 1013/1015 6000 RA OVC010 BECMG 1017/1020 18005KT 9999 BKN015 BECMG 1100/1103 23008KT 8000 -RA BKN010", "TAF SKAR 101030Z 1012/1112 VRB02KT 9999 SCT020 TEMPO 1012/1014 5000 BCFG DZ BKN015 BECMG 1014/1016 32006KT TEMPO 1019/1022 DZ SCT020TCU BKN080 TX27/1020Z TN18/1111Z", "TAF SKBG 101030Z 1012/1112 19004KT 9999 SCT010 BKN070 TEMPO 1012/1014 5000 BCFG BKN007 TEMPO 1018/1022 RA SCT012TCU BECMG 1101/1103 30003KT PROB40 TEMPO 1105/1109 DZ TX26/1018Z TN17/1110Z", "TAF SKBO 101030Z 1012/1112 04003KT 9999 FEW017 BECMG 1015/1018 16010KT SCT020 BECMG 1101/1103 VRB02KT TX20/1019Z TN09/1110Z", "TAF SKBQ 101030Z 1012/1112 14004KT 9999 FEW015 TEMPO 1012/1014 3000 BR PROB30 TEMPO 1017/1021 TSRA SCT015CB TX31/1017Z TN25/1109Z", "TAF SKCC 101030Z 1012/1112 VRB02KT 9999 BKN010 SCT070 TEMPO 1012/1014 4000 BCFG BKN007 TEMPO 1019/1021 5000 TSRA BKN017CB BECMG 1023/1101 34008KT SCT020 TX29/1018Z TN22/1110Z", "TAF SKCG 101030Z 1012/1112 20003KT 9999 FEW015 BKN070 TEMPO 1018/1022 5000 TSRA SCT015CB BECMG 1019/1021 34008KT BECMG 1101/1103 VRB02KT TX29/1018Z TN25/1110Z", "TAF SKCL 101030Z 1012/1112 VRB02KT 9999 SCT020 BECMG 1016/1018 33010KT TEMPO 1019/1023 DZ SCT020CB BECMG 1101/1103 VRB02KT TX30/1020Z TN19/1111Z", "TAF SKLT 101030Z 1012/1112 VRB02KT CAVOK TEMPO 1012/1014 3000 BR BECMG 1015/1019 26006KT BECMG 1101/1103 VRB02KT TX33/1019Z TN23/1110Z", "TAF SKPE 101030Z 1012/1112 VRB02KT 9999 SCT015 TEMPO 1012/1014 2000 BCFG BKN008 BECMG 1015/1017 20006KT TEMPO 1019/1022 DZ SCT015TCU BECMG 1101/1103 VRB02KT TX27/1020Z TN17/1111Z", "TAF SKRG 101030Z 1012/1112 VRB02KT 9999 BKN008 BECMG 1013/1015 14010KT SCT015 TEMPO 1019/1023 DZ SCT017TCU BECMG 1100/1102 VRB02KT TEMPO 1102/1106 DZ BKN010 TX22/1019Z TN13/1110Z", "TAF SKSM 101030Z 1012/1112 22004KT 9999 FEW020 PROB40 TEMPO 1020/1023 TSRA SCT020CB TX33/1019Z TN25/1110Z", "TAF SKSP 101030Z 1012/1112 10009KT 9999 FEW017 BKN080 TEMPO 1015/1018 5000 TSRA BKN012CB BECMG 1101/1103 08004KT TX29/1018Z TN25/1109Z", "TAF SLAL 101000Z 1012/1112 35006KT 9999 SCT010 TX21/1019Z TN07/1111Z BECMG 1015/1017 01015KT FEW020 BECMG 1103/1105 00000KT", "TAF SLCB 101000Z 1012/1112 00000KT 9999 FEW033 TX32/1019Z TN09/1111Z BECMG 1014/1016 24012KT TEMPO 1019/1021 03010KT BECMG 1023/1102 12010KT BECMG 1103/1105 00000KT", "TAF SLCO 101000Z 1012/1112 00000KT 9999 FEW020 SCT080 TX34/1018Z TN22 /1110Z BECMG 1015/1017 33010KT SCT023 TEMPO 1018/1020 36007KT 8000 VCSH FEW025CB BECMG 1022/1102 00000KT FEW017 SCT070", "TAF COR SLET 101120Z 1012/1112 16010KT 9999 SCT023 SCT070 TX29/1019Z TN17/1110Z BECMG 1017/1019 VRB02KT NSC BECMG 1101/1103 16005KT 8000 FEW023 SCT080 TEMPO 1107/1109 BKN020 BKN070", "TAF SLLP 101000Z 1012/1112 VRB02KT 9999 FEW015 TX18/1019Z TNM05/1110Z BECMG 1013/1016 28012KT TEMPO 1018/1021 28015G25KT BECMG 1102/1106 01005KT", "TAF SLTJ 101000Z 1012/1112 00000KT 9999 NSC TX21/1019Z TN04/1111Z BECMG 1015/1017 15012KT BECMG 1100/1102 00000KT", "TAF SLTR 101000Z 1012/1112 12005KT 9999 SCT020 BKN070 TX32/1019Z TN20 /1110Z BECMG 1015/1017 15008KT SCT023 TEMPO 1018/1021 17013KT FEW025CB BECMG 1023/1103 00000KT NSC", "TAF COR SLVR 101120Z 1012/1112 16010KT 9999 SCT023 SCT070 TX29/1019Z TN17/1110Z BECMG 1017/1019 VRB02KT NSC BECMG 1101/1103 16005KT 8000 FEW023 SCT080 TEMPO 1107/1109 BKN020 BKN070", "TAF SMJP 101000Z 1012/1112 11006KT 9999 SCT012 TX34/1017Z TN23/1108Z TEMPO 1017/1022 VRB10G20KT 5000 TSRA FEW015CB SCT020", "TAF SMZO 101000Z 1012/1112 11006KT 9999 SCT012 TX33/1017Z TN23/1109Z TEMPO 1016/1020 VRB10G20KT 5000 TSRA FEW015CB SCT020", "TAF SOCA 101000Z 1012/1112 VRB02KT 9999 SCT050 PROB40 TEMPO 1012/1014 3000 SHRA SCT010 BKN015CB BECMG 1013/1015 07012KT BECMG 1021/1023 VRB02KT PROB40 TEMPO 1101/1109 3000 SHRA SCT010 BKN012CB", "TAF SPCL 101100Z 1012/1112 35005KT 9999 BKN015 BKN100 TX33/1019Z TN22/1111Z TEMPO 1019/1023 4000 SHRA BKN015 FEW025TCU TEMPO 1109/1112 3000 BR BKN008", "TAF SPEO 101030Z 1012/1112 18006KT 9999 SCT020 TX20/1019Z TN13/1111Z TEMPO 1012/1015 7000 BKN013 BECMG 1017/1018 20018KT SCT018", "TAF SPGM 101100Z 1012/1112 04005KT 9999 FEW020 SCT100 TX30/1019Z TN21/1111Z FM101800 34007KT 9999 SCT040 BKN100", "TAF SPHI 101030Z 1012/1112 18006KT 9999 BKN018 TX22/1019Z TN15/1111Z TEMPO 1012/1014 FEW010 BKN12 BECMG 1016/1018 19015KT CAVOK", "SPHO 101100Z 1012/1112 VRB01KT 9999 FEW045 BKN080 TX27/1019Z TN11/1111Z TEMPO 1018/1021 17010KT FEW045TCU BKN070", "SPHY 101100Z 1012/1112 00000KT 9999 FEW012 BKN070 TX18/1019Z TN00/1111Z BECMG 1017/1018 36010KT BECMG 1022/1023 VRB05KT", "TAF SPJC 101100Z 1012/1112 24005KT 9999 OVC011 TX19/1020Z TN15/1111Z BECMG 1014/1016 FEW012 OVC016 BECMG 1018/1020 18012KT SCT012 BECMG 1104/1107 16007KT 7000 BKN009", "TAF SPJI 101100Z 1012/1112 12005KT 9999 SCT020 BKN100 TX33/1020Z TN20/1111Z TEMPO 1012/1016 2000 BCFG BKN010 TEMPO 1018/1022 4000 SHRA SCT015 FEW025TCU BKN100", "TAF SPJL 101120Z 1012/1112 VRB03KT CAVOK TX18/1019Z TNM03/1110Z BECMG 1019/1021 24016KT FM110000 22005KT CAVOK", "TAF SPJR 101100Z 1012/1112 VRB03KT 9999 SCT025 TX21/1019Z TN09/1111Z BECMG 1017/1019 35010KT SCT025 BKN050 TEMPO 1019/1022 RA SCT023 BKN046 BECMG 1101/1102 VRB02KT", "TAF SPLO 101120Z 1012/1112 17008KT 9999 OVC025 TX21/1019Z TN15/1110Z FM101730 22009KT 9999 SCT035 FM110100 15005KT 9999 OVC020", "TAF SPME 101030Z 1012/1112 33006KT 9999 BKN015 TX27/1019Z TN20/1111Z TEMPO 1012/1015 OVC012", "TAF SPMS 101100Z 1012/1112 07007KT 9999 SCT012 BKN100 TX32/1020Z TN23/1111Z TEMPO 1012/1016 2000 BR BKN010 TEMPO 1018/1022 4000 RA BKN010 FEW025TCU BKN100", "TAF SPNC 101100Z 1012/1112 12005KT 9999 FEW025 SCT100 TX28/1019Z TN16/1111Z BECMG 1017/1019 06015KT FEW040 BKN100 BECMG 1100/1102 08004KT", "TAF SPPY 101100Z 1012/1112 10010KT 9999 SCT010 BKN050 TX19/1020Z TN11/1111Z TEMPO 1012/1016 2000 BCFG BKN010 TEMPO 1017/1021 4000 RA SCT010 FEW025TCU BKN100", "TAF SPQT 101100Z 1012/1112 03005KT 9999 SCT008 BKN100 TX32/1020Z TN22/1111Z BECMG 1013/1016 BKN015 SCT100 TEMPO 1019/1023 10015KT 4000 SHRA BKN012 FEW025TCU TEMPO 1108/1112 1000 BR BKN002", "TAF SPQU 101120Z 1012/1112 01008KT CAVOK TX21/1018Z TN07/1110Z FM101500 26009KT CAVOK FM110000 04005KT CAVOK", "TAF SPRU 101030Z 1012/1112 16006KT 6000 OVC015 TX18/1019Z TN14/1111Z TEMPO 1012/1014 5000 BR OVC010 BECMG 1016/1018 7000 NSW BKN015", "TAF SPSO 101100Z 1012/1112 VRB02KT 6000 NSC TX21/1019Z TN13/1111Z TEMPO 1012/1014 4000 BR BKN007 BECMG 1015/1017 32008KT 9999 FEW017 FM101900 22015KT CAVOK BECMG 1105/1107 VRB02KT 5000 BR NSC", "TAF SPST 101100Z 1012/1112 VRB04KT 9999 SCT015 SCT080 TX32/1019Z TN20/1111Z TEMPO 1012/1014 4000 BR BKN010", "TAF SPTN 101120Z 1012/1112 VRB02KT 9999 OVC020 TX21/1019Z TN11/1110Z FM101600 23008KT CAVOK FM110000 VRB02KT 8000 OVC020", "SPTU 091700Z 0918/1018 31005KT 9999 FEW020 TX35/0920Z TN22/1011Z", "TAF SPYL 101030Z 1012/1112 16017KT CAVOK TX24/1019Z TN14/1111Z TEMPO 1012/1014 SCT040", "TAF SPZO 101100Z 1012/1112 07002KT 9999 SCT040 BKN100 TX22/1019Z TN05/1111Z BECMG 1017/1018 01012KT BECMG 1023/1024 VRB04KT", "TAF SUAA 101130Z 1012/1112 03005KT 9999 FEW026 TX17/1018Z TN06/1110Z BECMG 1014/1016 12012KT TEMPO 1014/1020 SCT015 BKN070", "TAF SUCA 101130Z 1012/1112 03005KT CAVOK TX18/1018Z TN07/1110Z BECMG 1014/1016 13015KT TEMPO 1015/1020 14015G25KT 9999 SCT015 BKN070", "TAF SUDU 101130Z 1012/1112 06005KT CAVOK TX19/1018Z TN04/1110Z BECMG 1015/1017 12012KT BECMG 1104/1106 OVC010 TEMPO 1106/1112 0500 FG OVC005", "TAF SULS 101130Z 1012/1112 04005KT 9999 SCT020 TX17/1018Z TN09/1110Z BECMG 1015/1017 10012KT BKN015 BECMG 1104/1106 OVC010 TEMPO 1106/1112 0500 FG OVC005", "TAF SUMU 101130Z 1012/1112 03005KT 9999 FEW026 TX17/1018Z TN06/1110Z BECMG 1014/1016 12012KT TEMPO 1014/1020 SCT015 BKN070", "TAF SURV 101130Z 1012/1112 16005KT CAVOK TX19/1018Z TN08/1110Z BECMG 1012/1014 11015KT TEMPO 1017/1100 9999 SHRA SCT015 BKN070 BECMG 1104/1106 OVC010 TEMPO 1106/1112 0500 GF OVC005", "TAF SUSO 101130Z 1012/1112 12008KT CAVOK TX20/1018Z TN05/1110Z", "TAF SVBC 101000Z 1012/1112 12007KT 9999 FEW016 TX31/1018Z TN22/1107Z TEMPO 1012/1022 09010KT 9999 SCT016", "TAF SVJC 101000Z 1012/1112 05015KT 9999 SCT016 TX33/1019Z TN25/1107Z TEMPO 1013/1023 02002KT 9999 BKN010", "TAF SVMC 101000Z 1012/1112 07013KT 9999 BKN016 TX31/1019Z TN22/1108Z TEMPO 1014/1019 02004KT 9999 SCT010", "TAF SVMG 101000Z 1012/1112 09002KT 9999 FEW016 TX33/1018Z TN25/1108Z TEMPO 1014/1020 06003KT 9999 SCT016 SCT020", "TAF SVMI 101000Z 1012/1112 05005KT 9999 SCT016 TX31/1018Z TN22/1107Z TEMPO 1015/1020 06002KT 9999 BKN010", "TAF SVPR 101000Z 1012/1112 08009KT 9999 SCT016 TX33/1019Z TN25/1107Z TEMPO 1014/1020 07011KT 9999 BKN013 ", "TAF SVSA 101000Z 1012/1112 12010KT 9999 SCT016 TX33/1019Z TN25/1108Z TEMPO 1012/1019 05004KT 9999 BKN010", "TAF SVVA 101034Z 1012/1112 18003KT 9999 BKN016 TX30/1019 TN23/1109 TEMPO 1014/1018 11004KT BKN016 BECMG 1020/1100 19002KT -DZ 9000 BKN016 PROB60", "TAF SYCJ 100500Z 1006/1106 VRB04KT 9999 SCT015 PROB30 TEMPO 1008/1011 0500 FG SCT003 BECMG 1011/1013 08006KT 9999 BKN017 SCT040 TEMPO 1017/1023 5000 TSRA SCT013CB", "TAF SYEC 100500Z 1006/1106 06008KT 9999 SCT016 BKN040 TEMPO 1010/1016 7000 TS SHRA FEW013CB BKN016 BKN036 BECMG 1018/1020 9999 BKN017 BKN090", "TAF TAPA 101100Z 1012/1112 09011KT 9999 SCT018 BKN037 PROB30 TEMPO 1012/1020 SHRA PROB40 TEMPO 1020/1110 SHRA BKN014", "TAF TBPB 101100Z 1012/1112 09013KT 9999 FEW015CB SCT016 TEMPO 1012/1018 09015G25KT 4000 TSRA SHRA SCT010CB BKN014", "TAF TDPD 101100Z 1012/1112 08007KT 9999 SCT016 SCT036 TEMPO 1012/1018 4000 RA SHRA BKN010 FEW015CB BKN032", "TAF TFFF 101100Z 1012/1112 07006KT 9999 SCT020TCU BKN050 TEMPO 1012/1112 4000 SHRA FEW013CB BKN016TCU PROB30 TEMPO 1014/1018 VRB15G25KT 1000 TSRA SCT010CB BKN013TCU PROB30 TEMPO 1021/1112 VRB15G25KT 1000 TSRA SCT010CB BKN013TCU", "TAF TFFR 101100Z 1012/1112 12010KT 9999 SCT018 SCT050 BKN200 TEMPO 1012/1112 4000 SHRA BKN016TCU PROB40 TEMPO 1102/1109 VRB02KT PROB30 TEMPO 1103/1112 VRB15G25KT 1500 TSRA SCT010CB BKN013TCU", "TGPY 101000Z 1012/1112 09014KT 9999 FEW018 SCT040 PROB40 1016/1019 5000 FEW012CB BKN016 BECMG 1022/1024 SCT018", "TIST 101140Z 1012/1112 20010KT P6SM VCSH FEW020 SCT040 FM101300 09013KT P6SM VCSH SCT025 BKN040 FM110230 09005KT P6SM FEW025 SCT040", "TISX 101140Z 1012/1112 VRB03KT P6SM FEW020 SCT040 FM101300 09013KT P6SM VCSH SCT025 BKN040 FM110230 09005KT P6SM FEW025 SCT040", "TJBQ 101140Z 1012/1112 11004KT P6SM FEW024 FEW100 FM101400 08012KT P6SM SCT040 FM101700 10015G25KT P6SM VCTS SCT020CB BKN028 BKN035 FM110230 15005KT P6SM FEW040 AMD NOT SKED 1102/1111", "TJPS 101140Z 1012/1112 VRB04KT P6SM SCT030 FM101400 13013KT P6SM SCT030 FM101700 15015KT P6SM VCTS SCT030CB SCT060 FM110100 07007KT P6SM FEW030 AMD NOT SKED", "TJSJ 101140Z 1012/1112 VRB03KT P6SM VCSH SCT025 SCT040 FM101300 09014KT P6SM VCSH FEW025 SCT045 FM101700 07012G22KT P6SM VCTS FEW018 SCT024 BKN040CB FM102100 08009KT P6SM VCTS SCT024 SCT040CB BKN080", "TAF TKPK 101100Z 1012/1112 09011KT 9999 SCT018 BKN037 PROB30 TEMPO 1012/1020 SHRA PROB40 TEMPO 1020/1110 SHRA BKN014", "TAF TKPN 101100Z 1012/1112 09011KT 9999 SCT018 BKN037 PROB30 TEMPO 1012/1020 SHRA PROB40 TEMPO 1020/1110 SHRA BKN014", "TAF TLPC 100500Z 1006/1106 09006KT 9999 SCT021 TEMPO 1008/1018 5000 SHRA TS FEW015CB BKN018 BKN040", "TAF TLPL 101100Z 1012/1112 07015KT 9999 FEW018CB SCT020 TEMPO 1012/1018 5000 SHRA FEW015CB BKN018 BKN040 PROB30 TEMPO 1015/1018 TSRA FEW008 SCT012CB", "TAF TNCA 101017Z 1012/1112 11012KT 9999 SCT020 PROB30 TEMPO 1012/1016 5000 SHRA FEW012CB BKN015 BECMG 1014/1016 10018KT ", "TAF TNCB 101120Z 1012/1118 09014KT 9999 FEW016 SCT022 PROB40 TEMPO 1012/1118 3000 SHRA TSRA BKN014 SCT018CB", "TAF TNCC 101115Z 1012/1112 14007KT 9999 SCT020 PROB30 TEMPO 1012/1016 5000 SHRA FEW012CB BKN015 BECMG 1013/1015 12014KT ", "TNCM 101000Z 1012/1112 10007KT 9999 SCT016 TEMPO 1016/1022 7000 TSRA FEW014CB SCT015 ", "TAF TQPF 101100Z 1012/1112 10011KT 9999 SCT018 BKN037 PROB30 TEMPO 1012/1020 SHRA PROB40 TEMPO 1020/1110 SHRA BKN014", "TAF TRPG 101100Z 1012/1112 09013KT 9999 SCT018 BKN037 PROB30 TEMPO 1012/1020 SHRA PROB40 TEMPO 1020/1110 SHRA BKN014", "TAF TTCP 101000Z 1012/1112 10012KT 9999 FEW012CB SCT018 PROB30 TEMPO 1015/1020 10015G25KT 2000 TSRA SCT008CB BKN015 BECMG 1023/1101 10005KT FEW016", "TAF TTPP 101000Z 1012/1112 10012KT 9999 FEW012CB SCT018 PROB40 TEMPO 1015/1020 10015G25KT 2000 TSRA SCT008CB BKN015 BECMG 1023/1101 10005KT FEW016", "TAF TUPJ 101100Z 1012/1112 11010KT 9999 SCT018 BKN037 PROB30 TEMPO 1012/1020 SHRA PROB40 TEMPO 1022/1112 SHRA FEW012CB BKN014", "TAF TVSA 101100Z 1012/1112 07007KT 9999 FEW015CB SCT016 TEMPO 1012/1018 4000 TSRA SHRA SCT010CB BKN014", "TAF TXKF 101141Z 1012/1112 09008KT 9999 VCSH FEW008 SCT035 BKN120 PROB40 TEMPO 1012/1018 4000 SHRA SCT008 BKN012 PROB30 TEMPO 1012/1015 VRB12G22KT 2000 +TSRA BKN008CB PROB40 TEMPO 1100/1112 4000 SHRA SCT008 BKN012 ", "TAF UAAA 101101Z 1012/1112 15003MPS 9999 FEW050 SCT100 TX18/1109Z TN02/1101Z TEMPO 1012/1018 04003G08MPS 3100 FU TEMPO 1018/1103 20003G08MPS BECMG 1103/1104 34003G08MPS TEMPO 1103/1112 03003G08MPS", "TAF UAAH 100500Z 1006/1015 36005MPS CAVOK", "TAF UAAT 101100Z 1012/1021 02003G10MPS 9999 SCT050 SCT100", "TAF UACC 101103Z 1012/1112 26005MPS 9999 SCT020 BKN100 TX15/1109Z TN00/1101Z TEMPO 1012/1014 22006MPS BECMG 1014/1016 22004MPS TEMPO 1018/1102 3100 BR FEW005 BKN011 BECMG 1102/1104 25005MPS SCT030 BKN100", "TAF UACK 101101Z 1012/1021 26007MPS 9999 SCT020 BKN100 TEMPO 1012/1018 27008G13MPS", "TAF UACP 100801Z 1009/1018 25007MPS 9999 SCT040 TEMPO 1009/1011 27008G13MPS BKN040 BECMG 1011/1013 24006MPS", "TAF UADD 101100Z 1012/1021 05005G13MPS 9999 NSC", "TAF UAII 101101Z 1012/1112 08005G10MPS 7000 NSC TX24/1110Z TN08/1101Z TEMPO 1012/1017 04006G15MPS TEMPO 1017/1103 13003G08MPS 4000 FU", "TAF UAIT 101100Z 1012/1021 07009G15MPS CAVOK TEMPO 1012/1015 09012G18MPS", "TAF UAKD 101101Z 1012/1021 VRB02MPS CAVOK TEMPO 1012/1018 10004MPS", "TAF UAKK 101102Z 1012/1112 27005MPS 9999 SCT020 BKN100 TX14/1109Z TNM02/1023Z BECMG 1014/1016 VRB02MPS BECMG 1018/1020 3100 BR SCT011 TEMPO 1018/1103 0300 FZFG VV002 BECMG 1103/1105 9999 NSW SCT040", "TAF UAOO 101100Z 1012/1021 07009MPS CAVOK", "TAF UARR 101101Z 1012/1021 13006G12MPS 9999 SCT033CB TEMPO 1012/1015 15011G16MPS TEMPO 1015/1021 -SHRA BKN020CB", "TAF UASK 101105Z 1012/1021 24003MPS 9999 SCT030 BKN070 TEMPO 1012/1018 27003MPS 3100 BR FEW004 BKN021CB TEMPO 1018/1021 VRB01MPS 0200 FG VV002", "TAF UASP 101100Z 1012/1021 22007MPS 9999 BKN020 TEMPO 1012/1015 27010G15MPS", "TAF UASS 101103Z 1012/1021 27005MPS 9999 BKN030 BKN100 TEMPO 1012/1018 30004G09MPS 3100 -SHRA FU BKN011 BKN020CB", "TAF UATE 101104Z 1012/1112 12008G14MPS 9999 SCT040CB TX21/1109Z TN16/1102Z TEMPO 1012/1018 18010G16MPS 3100 BLDU SCT008 BECMG 1018/1020 12007MPS", "TAF UATG 101104Z 1012/1112 13011G16MPS 6000 BKN030CB TX19/1110Z TN10/1103Z TEMPO 1012/1015 3100 BLDU BKN011 BECMG 1015/1016 14010MPS BECMG 1102/1104 17007MPS 9999 BECMG 1107/1108 21008MPS", "TAF UATT 101100Z 1012/1112 14005MPS CAVOK TX20/1012Z TN03/1102Z BECMG 1020/1022 SCT040 TEMPO 1105/1112 16010MPS", "TAF UAUU 101103Z 1012/1021 23005G11MPS 9999 SCT030 TEMPO 1012/1021 25003G08MPS", "TAF UBBB 101058Z 1012/1112 35010KT 9999 SCT015 BKN040 TX25/1012Z TN17/1101Z TEMPO 1012/1016 33005KT FEW040CB BECMG 1020/1022 34016G26KT FEW040CB TEMPO 1022/1112 35022G32KT -SHRA SCT030CB BKN030", "TAF UBBF 101100Z 1012/1021 34010KT 9999 SCT015 BKN050 TEMPO 1012/1015 36016G26KT FEW030CB TEMPO 1015/1021 30008KT SCT030CB BKN030", "TAF UBBG 101100Z 1012/1112 30020KT 9999 FEW040 SCT100 TX22/1012Z TN15/1103Z TEMPO 1012/1016 29020G30KT SCT030CB BKN060 BECMG 1016/1018 28010KT", "TAF UBBL 101100Z 1012/1112 34008KT 9999 SCT015 BKN030 TX24/1012Z TN16/1102Z TEMPO 1012/1020 31012KT TEMPO 1020/1104 VRB04KT -SHRA SCT010 SCT020CB OVC020 BECMG 1104/1106 04010KT", "TAF UBBN 101102Z 1012/1112 VRB04KT 9999 FEW050 BKN100 TX25/1012Z TN14/1103Z TEMPO 1014/1106 12012KT", "TAF UBBQ 101059Z 1012/1112 32016KT 9999 FEW040CB BKN040 TX24/1012Z TN14/1101Z TEMPO 1012/1024 30020G30KT SCT010 SCT030CB OVC030 PROB40 TEMPO 1015/1020 -TSRA BKN020CB OVC020", "TAF UBBY 101100Z 1012/1021 32016KT 9999 FEW040 BKN100 TEMPO 1016/1019 32010KT", "TAF UBEE 101100Z 1012/1021 33016KT 9999 FEW040 BKN100 TEMPO 1016/1019 31010KT", "TAF UCFL 101035Z 1012/1112 34003G08MPS 9999 SCT030CB TEMPO 1012/1018 28012G17MPS BECMG 1105/1106 14003G08MPS", "TAF UCFM 101036Z 1012/1112 03003G08MPS 9999 SCT050 TEMPO 1014/1021 05007G12MPS TEMPO 1021/1103 12003G08MPS 1500 BR FU", "TAF UCFO 101043Z 1012/1112 17003G08MPS 6000 NSC TEMPO 1012/1018 25003G08MPS 2100 FU SCT050 BECMG 1102/1104 29003G08MPS", "TAF UDSG 101058Z 1012/1112 24006KT 9999 FEW050 TEMPO 1012/1020 VRB16KT FEW040CB", "TAF UDYZ 101100Z 1012/1112 24006KT 9999 FEW040 TEMPO 1012/1018 20020KT", "TAF UEEE 101100Z 1012/1118 04003MPS 1000 SHSN BR BKN004 BKN015CB OVC070 TEMPO 1012/1103 0300 SHSN FZFG VV002 FM110300 35003G10MPS 9999 SCT011 BKN020CB OVC070 TEMPO 1103/1112 3200 -SHSN", "TAF UERP 101100Z 1012/1112 VRB01MPS 9999 BKN017 OVC100 TEMPO 1012/1022 4000 -SHSN BKN013CB OVC100", "TAF UERR 101100Z 1012/1112 VRB01MPS 9999 SCT007 BKN020CB TEMPO 1012/1015 4000 -SHSN TEMPO 1015/1024 0500 FZFG VV003 BECMG 1104/1106 15003G08MPS TEMPO 1106/1112 1500 SHSNRA BKN005 OVC015CB", "TAF UGAM 101000Z 1011/1017 VRB02KT 9999 OVC050 TEMPO 1011/1013 4000 RA BR OVC030", "TAF UGKO 101100Z 1012/1112 25007KT 9999 SCT023 OVC040 TX16/1012Z TN13/1104Z TEMPO 1012/1021 27017KT 2500 SHRA BKN017CB OVC030 TEMPO 1021/1105 3000 SHRA BKN020CB OVC030 TEMPO 1105/1110 5000 RA BR BKN020", "TAF UGMS 101000Z 1011/1017 VRB02KT 4500 RA BKN020CB OVC030", "TAF UGSB 101100Z 1012/1112 23012KT 9999 -SHRA SCT015CB BKN035 TX17/1012Z TN15/1103Z TEMPO 1012/1018 24022G32KT 3000 TSRA BKN006 OVC020CB TEMPO 1018/1105 VRB18KT 3000 TSRA BKN006 OVC020CB", "TAF UGTB 101100Z 1012/1112 31020KT CAVOK TX22/1012Z TN15/1102Z TEMPO 1109/1112 31027G40KT", "TAF UHBB 101045Z 1012/1112 15003MPS 9999 NSC TEMPO 1012/1024 3100 FU BECMG 1013/1014 29003MPS BECMG 1022/1024 34003G08MPS", "TAF UHHH 101050Z 1012/1118 01009MPS 5000 -SHRA BKN011 BKN020CB TEMPO 1015/1106 36011G16MPS 2000 SHRA BKN005 OVC015CB FM110700 27003MPS 9999 SCT011 BKN020CB TEMPO 1107/1113 30008MPS 5000 -SHRA", "TAF UHMA 101043Z 1012/1112 35003G08MPS 9999 SCT025 TEMPO 1012/1112 29005G10MPS 5000 -SN FEW006 BKN015", "TAF UHMM 101047Z 1012/1118 06003MPS 9999 SCT030 TEMPO 1012/1022 SCT011", "TAF UHPP 101040Z 1012/1118 36003G10MPS 9999 SCT040 TEMPO 1023/1104 18005G12MPS FM110400 14005G12MPS 4000 -SHRA BR BKN006 OVC015CB TEMPO 1107/1118 16010G18MPS 1000 SHRA BR VV003", "TAF AMD UHSS 101150Z 1011/1118 11007G12MPS 9999 -SHRA BKN020CB BECMG 1021/1023 18003MPS BECMG 1110/1113 9999 BKN030CB", "TAF UHWW 101100Z 1012/1112 34003G08MPS 9999 SCT020CB TEMPO 1012/1112 34010G15MPS 6000 -SHRA FEW003 BKN016CB", "TAF UIAA 101100Z 1012/1112 22003G08MPS 9999 SCT040CB", "TAF UIBB 101100Z 1012/1112 27006G11MPS 9999 FEW001 BKN020CB", "TAF UIII 101100Z 1012/1112 32003G08MPS 9999 SCT040CB TEMPO 1021/1112 BKN007CB", "TAF UIUU 101100Z 1012/1112 30003G08MPS 9999 SCT030CB TEMPO 1018/1112 36006G12MPS", "TAF ULAA 101100Z 1012/1112 23004MPS 9999 BKN016 TEMPO 1012/1014 25006G13MPS FEW011 TEMPO 1014/1018 25006G12MPS 6000 -SHRA FEW007 BKN011CB", "TAF ULLI 101059Z 1012/1112 23003G08MPS 9999 BKN016 TEMPO 1100/1106 1000 MIFG BR BKN004 BECMG 1106/1107 17006G12MPS TEMPO 1110/1112 19009G15MPS", "TAF ULMM 101050Z 1012/1112 24005G10MPS 9999 SCT016 BECMG 1018/1020 18003G08MPS", "TAF ULOO 101054Z 1012/1021 18003MPS 6000 BKN005 TEMPO 1012/1018 BKN010", "TAF ULPB 101053Z 1012/1021 23006G12MPS 9999 BKN017 TEMPO 1014/1021 BKN010", "TAF ULWC 101100Z 1012/1021 24005MPS 9999 SCT020 TEMPO 1012/1016 FEW007 BKN017 TEMPO 1016/1021 VRB01MPS 1000 BR MIFG OVC003", "TAF UMBB 101100Z 1012/1021 15003MPS CAVOK", "TAF UMGG 101102Z 1012/1112 35007MPS 9999 SCT025 BECMG 1018/1020 VRB02MPS TEMPO 1020/1106 1200 BR BKN004", "TAF UMII 101110Z 1012/1021 29003MPS 9999 SCT016 TEMPO 1018/1021 VRB02MPS 2000 BCFG BR BKN005", "TAF UMIO 101101Z 1012/1021 35005G10MPS 9999 BKN015 FM101800 VRB02MPS 3000 BR BKN005 TEMPO 1018/1021 0300 FG BKN002", "TAF UMKK 101056Z 1012/1112 17007G12MPS 9999 SCT020 BECMG 1100/1102 20005G10MPS TEMPO 1103/1109 BKN010CB BECMG 1106/1108 28008G13MPS", "TAF UMMG 101111Z 1012/1021 16003MPS 9999 SCT016 TEMPO 1012/1015 17003G08MPS", "TAF UMMS 101103Z 1012/1112 24005MPS CAVOK BECMG 1014/1016 3000 BR SCT010 TEMPO 1016/1109 0200 FG VV001 BECMG 1109/1110 22006G11MPS 9999 NSW BKN015 TEMPO 1110/1112 5000 -SHRA BKN020CB", "TAF UMOO 101106Z 1012/1021 35005MPS 9999 SCT020 TEMPO 1012/1018 32007MPS TEMPO 1018/1021 VRB02MPS 2000 BR BKN005", "TAF UNAA 101051Z 1012/1112 23003G08MPS CAVOK TEMPO 1012/1015 24008G13MPS BECMG 1104/1106 23008G15MPS", "TAF UNBB 101100Z 1012/1112 22003G09MPS 9999 BKN030CB TEMPO 1012/1014 3000 -SHRA BKN010CB TEMPO 1103/1112 24008G14MPS", "TAF UNEE 101100Z 1012/1112 23007G15MPS 8000 BKN020CB", "TAF AMD UNKL 101117Z 1012/1112 27008G14MPS 9999 SCT017CB BECMG 1101/1103 22008G18MPS", "TAF UNNT 101100Z 1012/1112 22007G15MPS 9999 BKN030CB TEMPO 1103/1112 27009G18MPS", "TAF UNOO 101055Z 1012/1112 24005G12MPS 9999 SCT030CB BKN033 BECMG 1103/1105 26003G11MPS", "TAF UNTT 101100Z 1012/1021 25003G10MPS 6000 -SHRA BKN016CB TEMPO 1012/1015 BKN011CB BECMG 1015/1018 21005G13MPS", "TAF UNWW 101100Z 1012/1112 21003G08MPS 8000 BKN033CB TEMPO 1012/1018 25007G15MPS -SHRA BKN011CB BECMG 1021/1101 22008G16MPS", "TAF UOOO 101047Z 1012/1112 18007G12MPS 6000 -SHRA SCT008 BKN016CB TEMPO 1012/1015 1500 -SHRA BR SCT004 BKN014CB BECMG 1017/1019 0300 FG VV002 BECMG 1019/1021 23003G08MPS BECMG 1107/1110 01005MPS", "TAF URKA 101056Z 1012/1112 29007G14MPS 9999 BKN030CB TEMPO 1012/1018 6000 -SHRA BKN016CB TEMPO 1018/1106 3100 -SHRA BR SCT011 BKN020CB", "TAF URKK 101057Z 1012/1112 26003G08MPS 9999 SCT020CB TEMPO 1012/1017 29007G14MPS BECMG 1103/1105 24006G11MPS BKN016CB TEMPO 1106/1112 27008G16MPS", "TAF URMG 101100Z 1012/1021 28003G08MPS 9999 BKN020 TEMPO 1012/1021 6000 -SHRA BKN016 BKN020CB", "TAF URML 101100Z 1012/1021 34005G12MPS 9999 SCT016 BKN030CB TEMPO 1012/1018 VRB10G16MPS 6000 -TSRA FEW011 BKN020CB", "TAF URMM 101100Z 1012/1112 29003G08MPS 9999 BKN030 TX18/1112Z TN08/1103Z TEMPO 1012/1024 28006G14MPS 6000 -TSRA BKN016 BKN020CB TEMPO 1100/1112 6000 -SHRA BKN016 BKN020CB", "TAF URMN 101100Z 1012/1021 08003G08MPS 9999 SCT020CB TEMPO 1012/1021 34006G13MPS 6000 -TSRA FEW006 BKN016CB", "TAF URMO 101100Z 1012/1021 32003G08MPS 9999 BKN020 TEMPO 1012/1021 6000 -SHRA BKN016 BKN025CB", "TAF URMT 101100Z 1012/1021 29006G11MPS 9999 SCT020 TEMPO 1012/1021 31008G14MPS 6000 -SHRA SCT010 BKN020CB", "TAF URRP 101056Z 1012/1112 29003G12MPS 6000 -SHRA SCT016 BKN020CB TEMPO 1012/1018 FEW007 BKN020CB BECMG 1018/1020 25011G18MPS TEMPO 1020/1112 FEW004 BKN020CB", "TAF URSS 101055Z 1012/1112 05003G08MPS 9999 BKN030CB BKN100 TEMPO 1012/1016 VRB06G12MPS 1000 TSRA SCT006 BKN020CB OVC100 BECMG 1107/1108 16003G08MPS SCT030CB BKN100 TEMPO 1108/1112 -TSRA", "TAF URWA 101058Z 1012/1021 12006G11MPS 6000 BKN016 BKN030CB PROB40 TEMPO 1012/1015 -TSRA BECMG 1015/1017 09003G08MPS TEMPO 1015/1018 -SHRA BKN007 BKN020CB", "TAF URWI 101055Z 1012/1021 27006G14MPS 6000 -SHRA SCT016 SCT030CB PROB40 TEMPO 1012/1021 -TSRA", "TAF URWW 101058Z 1012/1021 15005G11MPS 6000 -SHRA BKN007 BKN020CB TEMPO 1012/1015 12007G13MPS BKN004 BKN020CB PROB40 TEMPO 1012/1015 -TSRAGR TEMPO 1015/1021 18003G10MPS 0300 FG BKN002 BKN020CB", "TAF USCC 101100Z 1012/1112 22003G10MPS CAVOK TEMPO 1012/1021 24008G13MPS SCT030 TEMPO 1100/1112 16003G10MPS", "TAF USCM 101100Z 1012/1021 22003G08MPS 9999 NSC TEMPO 1012/1018 24008G13MPS", "TAF USDA 101055Z 1012/1021 21007MPS 6000 -RA BKN010 TEMPO 1016/1018 19006MPS 4100 -RA BR SCT004 BKN009 TEMPO 1018/1021 1100 RA BR BKN004", "TAF USHH 101040Z 1012/1112 24005G14MPS 9999 BKN020 TEMPO 1012/1015 5000 -SHRA SCT005 BKN016CB BECMG 1015/1017 27005G13MPS", "TAF USNN 101050Z 1012/1112 24006G13MPS 6000 -SHRA BKN016 BKN020CB TEMPO 1012/1018 FEW007 BKN016CB BECMG 1018/1020 27006G14MPS BECMG 1023/1024 9999 NSW", "TAF USPP 101053Z 1012/1112 25005G16MPS 6000 -SHRA BKN016CB TEMPO 1012/1016 28003G15MPS BECMG 1016/1017 28003G09MPS 8000 NSW", "TAF USRR 101043Z 1012/1112 26007G14MPS 6000 -SHRA FEW011 BKN016CB TEMPO 1012/1018 2100 -SHRA SCT005 BKN015CB", "TAF USSS 101051Z 1012/1112 26008G17MPS CAVOK FM101500 22003G12MPS 8000 -RA BKN020 BECMG 1103/1105 9999 -SHRA SCT016CB BECMG 1108/1110 18003G12MPS", "TAF USTR 101040Z 1012/1112 24006G14MPS 9999 SCT020 BECMG 1015/1016 24005MPS BECMG 1021/1022 27005MPS TEMPO 1021/1103 -SHRA BKN007 BKN016CB BECMG 1106/1107 27006G14MPS", "TAF UTAA 101045Z 1012/1112 09016KT 6000 SCT050 TEMPO 1012/1014 12014G24KT 3000 DRDU BECMG 1016/1018 13016KT BECMG 1104/1106 05014KT TEMPO 1108/1112 34016KT", "TAF UTAK 101030Z 1011/1112 30014G24KT 6000 SCT023 SCT040CB BKN100 TEMPO 1011/1016 25018G28KT 3000 BLDU TEMPO 1018/1024 34016KT 4000 BR BKN005 SCT026CB BKN100", "TAF UTAM 101030Z 1012/1112 04014KT 6000 NSC TEMPO 1012/1015 35012G22KT 3000 DRDU BECMG 1015/1016 36012KT TEMPO 1016/1104KT VRB04KT 3000 HZ", "TAF UTAT 101038Z 1012/1112 09016G26KT CAVOK TEMPO 1012/1015 12014G24KT 3000 BLDU BECMG 1015/1017 07012KT", "TAF UTAV 101030Z 1012/1112 34014KT CAVOK TEMPO 1012/1018 04016G26KT 3000 DRDU", "TAF UTDD 100900Z 1010/1022 VRB02MPS 8000 FEW066 SCT100 TEMPO 1010/1016 27006MPS", "TAF UTDK 100900Z 1010/1019 VRB02MPS 8000 FEW066 SCT100 TEMPO 1010/1013 21005MPS BECMG 1014/1016 03005MPS", "TAF UTDL 100900Z 1010/1022 24005MPS 9999 NSC BECMG 1019/1020 VRB02MPS", "TAF UTDT 100900Z 1010/1019 VRB02MPS 8000 FEW066 SCT100", "TAF UTFA 100900Z 1010/1019 24010KT 9999 NSC", "TAF UTFF 100900Z 1010/1019 34010KT 9999 NSC", "TAF UTFN 101100Z 1012/1112 34010KT 9999 NSC", "TAF UTNN 101100Z 1012/1112 10010G20KT CAVOK TEMPO 1012/1016 07016G26KT TEMPO 1017/1103 05006G16KT", "TAF UTNU 101100Z 1012/1112 08014G24KT CAVOK", "TAF UTSA 101101Z 1012/1112 02012KT 7000 NSC TEMPO 1012/1018 07014G24KT 4000 -DS TEMPO 1018/1024 VRB03KT", "TAF UTSB 101100Z 1012/1112 02012KT 7000 NSC TEMPO 1012/1018 04014G24KT 4000 -DS TEMPO 1018/1024 VRB03KT", "TAF UTSK 100859Z 1010/1019 22010KT CAVOK TEMPO 1010/1016 34012G22KT", "TAF UTSS 101101Z 1012/1112 12012KT 9999 NSC TEMPO 1012/1018 07014G24KT", "TAF UTST 101100Z 1012/1112 VRB06KT 6000 NSC TEMPO 1012/1023 25010G20KT", "TAF UTTT 101100Z 1012/1112 04010KT 7000 NSC TEMPO 1012/1024 32012G22KT", "TAF UUBC 101051Z 1012/1021 02003G08MPS 9999 BKN020", "TAF UUBP 101057Z 1012/1021 34005G10MPS 9999 SCT016", "TAF UUBW 101052Z 1012/1112 35003MPS 9999 SCT020 TX13/1012Z TN01/1103Z TEMPO 1012/1015 36008G13MPS PROB40 TEMPO 1018/1106 0300 FG BKN002", "TAF UUDD 101054Z 1012/1118 36005MPS 8000 SCT016 TX14/1012Z TN01/1103Z TEMPO 1012/1015 36008G13MPS PROB40 TEMPO 1022/1106 0300 FG SCT002", "TAF UUDL 101100Z 1012/1112 33003MPS 9999 SCT040 TX11/1012Z TN01/1103Z PROB40 TEMPO 1021/1106 0500 FG VV003", "TAF UUEE 101050Z 1012/1112 36004MPS 9999 SCT030 TX11/1012Z TN01/1103Z TEMPO 1012/1015 36008G13MPS PROB40 TEMPO 1100/1106 0300 FG BKN002", "TAF UUMO 101057Z 1012/1021 36004G09MPS CAVOK", "TAF UUOB 101059Z 1012/1021 36005G10MPS 6000 -RA OVC011 TEMPO 1012/1018 2100 -RA BR BKN005", "TAF UUOK 101052Z 1012/1021 36004MPS 6000 OVC009 TEMPO 1012/1021 02007G13MPS -SHRA BKN015CB", "TAF UUOL 101100Z 1012/1021 02003G08MPS 6000 -RA OVC006", "TAF UUOO 101059Z 1012/1021 03003G08MPS 6000 -RA OVC007 TEMPO 1012/1021 2100 -RA BR", "TAF UUWW 101055Z 1012/1112 01003MPS 6000 FEW004 BKN016 TX11/1012Z TN01/1103Z TEMPO 1012/1015 34008G14MPS PROB40 TEMPO 1020/1106 0300 FG BKN001", "TAF UUYY 101100Z 1012/1112 26003G10MPS 9999 FEW011 BKN017CB TEMPO 1012/1015 27005G14MPS 6000 -SHRA BKN007 BKN016CB BECMG 1015/1017 23003G10MPS", "TAF UWGG 101050Z 1012/1112 03003G08MPS 9999 BKN020 TX12/1012Z TN06/1103Z", "TAF UWKD 101100Z 1012/1112 20003MPS 9999 BKN016 TX14/1012Z TN08/1103Z TEMPO 1012/1021 -SHRA BKN020CB BECMG 1015/1017 08003MPS", "TAF UWKE 101055Z 1012/1112 20003G10MPS 9999 BKN030 TEMPO 1012/1015 22003G14MPS SCT016 BECMG 1021/1023 08003G08MPS BKN016 TEMPO 1100/1112 -SHRA BKN020CB", "TAF UWKS 101047Z 1012/1021 01003MPS 8000 -SHRA BKN013CB TX11/1012Z TN09/1021Z TEMPO 1012/1020 OVC007CB", "TAF UWLL 101050Z 1012/1112 11003G08MPS 9999 BKN020 TX15/1012Z TN08/1103Z TEMPO 1012/1106 16008G13MPS -SHRA BKN016CB", "TAF UWLW 101054Z 1012/1112 12003MPS 9999 BKN020 TX15/1012Z TN07/1102Z TEMPO 1012/1109 15005G11MPS 6000 -SHRA BKN016CB", "TAF UWOO 101043Z 1012/1112 15003G10MPS 9999 SCT030 TX18/1012Z TN04/1101Z TEMPO 1012/1112 13005G14MPS", "TAF UWOR 101041Z 1012/1021 19003G08MPS 9999 SCT016 TX18/1012Z TN07/1021Z TEMPO 1012/1021 18005G14MPS", "TAF UWPS 101050Z 1012/1021 06003MPS 9999 BKN030 TX12/1012Z TN07/1021Z ", "TAF UWSG 101056Z 1012/1021 10003G09MPS 6000 BKN016 TX15/1012Z TN09/1021Z TEMPO 1012/1021 2100 -SHRA FEW003 BKN007 BKN016CB", "TAF UWUU 101045Z 1012/1112 19005G12MPS 9999 BKN040 TX16/1111Z TN04/1103Z TEMPO 1012/1018 22007G12MPS", "TAF UWWW 101052Z 1012/1112 13003G09MPS 6000 BKN016 TX16/1012Z TN08/1102Z TEMPO 1012/1016 17006G12MPS TEMPO 1016/1112 09006G12MPS 3000 -SHRA BKN005 BKN011CB", "TAF VAAH 101100Z 1012/1118 14003KT 4000 HZ FEW020 FEW025TCU SCT080 BECMG 1016/1018 17003KT SCT020 SCT080 BR BECMG 1022/1024 00000KT BECMG 1101/1103 1500 BECMG 1104/1106 09004KT 4000 HZ FU FEW020 SCT025 BECMG 1113/1115 14003KT FEW025 BECMG 1116/1118 18003KT NSC", "TAF VAAU 100800Z 1009/1018 23008KT 3000 -RA HZ SCT018 SCT025 BKN090 TEMPO 1009/1013 20007G17KT 2000 -TSRA -SHRA SCT015 FEW030TCU/CB OVC080 BECMG 1013/1015 3000 -RA HZ BECMG 1015/1017 2500 -RA -SHRA", "TAF VABB 101100Z 1012/1118 29010KT 3500 HZ FEW020 SCT025 BECMG 1013/1015 31006KT 3000 DZ HZ SCT020 SCT100 TEMPO 1018/1022 2000 -TSRA SHRA SCT018 FEW030CB OVC080 BECMG 1100/1104 15004KT 2500 BR HZ BECMG 1105/1107 26010KT 3500 DZ HZ TEMPO 1108/1112 -SHRA RA SCT015 FEW030CB OVC080 BECMG 1114/1116 31006KT RA HZ", "TAF VABJ 101100Z 1012/1021 02005KT 6000 FEW020 BECMG 1013/1015 19003KT BECMG 1016/1018 28004KT BECMG 1019/1021 32004KT", "TAF VABO 101100Z 1012/1021 16003KT 5000 HZ SCT020 SCT080", "TAF VABP 100500Z 1006/1015 14008KT 4000 -RA HZ SCT020 SCT100 TEMPO 1010/1014 20010KT 3000 -TSRA SCT020 FEW030CB BKN100", "TAF VABV 101100Z 1012/1021 22004KT 5000 HZ SCT020 BKN080", "TAF VADU 101100Z 1012/1021 26005KT 5000 HZ FEW020 SCT080", "TAF VAID 100500Z 1006/1015 14005KT 4000 HZ SCT020 SCT025 TEMPO 1008/1012 16008KT 3000 -TSRA SCT020 FEW030CB SCT100", "TAF VAJB 100500Z 1006/1015 18012KT 4000 HZ SCT020 SCT025 TEMPO 1008/1012 20010KT 3000 -TSRA SCT020 FEW030CB BKN100", "TAF VAJL 100500Z 1006/1015 23008KT 3000 -RA HZ SCT018 SCT025 BKN090 TEMPO 1009/1013 20007G17KT 2000 -TSRA -SHRA SCT015 FEW030TCU/CB OVC080 BECMG 1013/1015 3000 -RA HZ", "TAF VAJM 101100Z 1012/1021 32005KT 6000 SCT020 BECMG 1019/1021 21005KT", "TAF VAKE 100800Z 1009/1018 25004KT 6000 FEW020 BECMG 1012/1014 5000 HZ FU NSC ", "TAF VAKP 100800Z 1009/1018 32008KT 3000 -RA HZ SCT020 SCT025 BKN090 TEMPO 1009/1013 2000 -TSRA -SHRA SCT018 FEW030TCU/CB BKN090 BECMG 1015/1017 3000 -RA HZ SCT020 SCT025", "TAF VANP 100800Z 1009/1018 18005KT 5000 HZ -RA SCT020 SCT025 BECMG 1013/1015 3000 HZ FEW020 SCT100 TEMPO 1009/1013 FEWCB030", "TAF VAOZ 100800Z 1009/1021 30005KT 6000 SCT025 SCT030 BKN250 TEMPO 1010/1013 3000 TSRA SCT025 SCT030 FEW030CB BKN250 BECMG 1015/1017 5000 BR SCT030 BKN250", "TAF VAPO 100500Z 1006/1112 06008KT 6000 SCT025 BKN090 TEMPO 1010/1013 4000 TSRA SCT020 SCT025 FEW030CB BKN080 TEMPO 1015/1019 3000 RABR SCT015 SCT025 FEW030TCU BKN080 TEMPO 1023/1103 VRB02KT 2500 BRHZ SCT020 BKN090 TEMPO 1109/1112 4000 TS SCT015 SCT025 FEW030CB BKN080", "TAF VAPR 101100Z 1012/1021 23006KT 6000 SCT020 FEW025TCU SCT080 BECMG 1013/1015 20005KT BECMG 1016/1018 27005KT SCT020 SCT080", "TAF VARK 101100Z 1012/1021 01006KT 6000 SCT020 SCT080 BECMG 1016/1018 24004KT BECMG 1019/1021 20004KT", "TAF VASD 100800Z 1009/1018 23008KT 3000 -RA HZ SCT018 SCT025 BKN090 TEMPO 1009/1013 20007G17KT 2000 -TSRA -SHRA SCT015 FEW030TCU/CB OVC080 BECMG 1013/1015 3000 -RA HZ BECMG 1015/1017 2500 -RA -SHRA", "TAF VASL 100800Z 1009/1018 32008KT 3000 -RA HZ SCT020 SCT025 BKN090 TEMPO 1009/1013 2000 -TSRA -SHRA SCT018 FEW030TCU/CB BKN090 BECMG 1015/1017 3000 -RA HZ SCT020 SCT025", "TAF VASU 101100Z 1012/1021 22006KT 6000 SCT020 SCT080 BECMG 1016/1018 15004KT", "TAF VAUD 100800Z 1009/1018 VRB03KT 5000 HZ SCT030 SCT100 BECMG 1013/1015 VRB03KT 3000 HZ BR SCT030", "TAF VCBI 101100Z 1012/1118 23008KT 9999 SCT017 TX31/1107Z TN25/1100Z BECMG 1013/1015 VRB05KT PROB30 TEMPO 1018/1101 8000 -SHRA SCT016 BECMG 1102/1104 24010KT", "TAF VCRI 100500Z 1006/1112 27010G20KT 9999 SCT018 TX35/1007Z TN25/1100Z PROB40 TEMPO 1008/1014 7000 -TSRA/SHRA SCT016 FEW018CB BECMG 1013/1015 26006KT BECMG 1103/1105 25012G22KT PROB40 TEMPO 1106/1114 7000 -TSRA/SHRA SCT016 FEW018CB BKN080", "TAF VDPP 101100Z 1012/1106 15007KT 9999 SCT017 TEMPO 1012/1017 5000 TSRA SCT015 FEW017CB SCT040", "TAF VDSR 101100Z 1012/1106 14007KT 9999 SCT017 TEMPO 1012/1017 5000 TSRA SCT015 FEW017CB SCT040", "TAF VDSV 101100Z 1012/1106 16007KT 9999 SCT017 TEMPO 1012/1017 5000 TSRA SCT015 FEW017CB SCT040", "TAF VEAB 100330Z 1006/1018 17005KT 6000 FEW015 SCT025 BKN090 TEMPO 1010/1014 20010G20KT 4000 TSRA FEW015 SCT025 FEW030CB BKN090 BECMG 1015/1018 24005KT 6000 FEW015 SCT025 BKN090 SCT250", "TAF VEAT 101100Z 1012/1021 00000KT 4000 BR SCT018 FEW030CB BKN100 TEMPO 1015/1018 2500 -RA BR ", "TAF VEBD 100500Z 1006/1112 VRB02KT 4000 RABR BKN010 SCT020 FEW030CB BKN080 TEMPO 1009/1012 3000 TSRA BECMG 1015/1017 5000 TSRA SCT020 FEW030CB BKN080 BECMG 1022/1100 3000 TSRA BKN010 SCT020 FEW030CB BKN080 BECMG 1105/1107 5000 RABR SCT015 SCT020 BKN080 BECMG 1109/1111 SCT020 FEW030CB BKN080", "TAF VEBI 100800Z 1009/1018 33005KT 5000 BR SCT018 FEWE025CB BKN100 BECMG 1013/1015 00000KT 3000 BR", "TAF VEBN 100500Z 1006/1112 04006KT 5000 HZ SCT020 BKN100 TEMPO 1007/1011 2000 -TSRA -RA FEW030CB OVC090 BECMG 1013/1015 VRB02KT 3000 BR SCT020 BKN090 TEMPO 1016/1020 2000 -TSRA -RA FEW030CB OVC090 BECMG 1104/1106 09005KT 5000 HZ SCT020 BKN100 TEMPO 1108/1112 2000 -TSRA -RA FEW030CB OVC090", "TAF VEBS 101100Z 1012/1021 18005KT 4000 -RA HZ SCT018 BKN100", "TAF VECC 101100Z 1012/1021 18006KT 4000 HZ SCT020 SCT100 TEMPO 1012/1016 1500 TSRA SCT015 FEW025CB OVC090", "TAF VECX 100330Z 1006/1018 18010KT 4000 -RA SCT015 SCT020 OVC080 TEMPO 1009/1011 2310G20KT 1500 -TSRA SCT010 SCT020 FEW030CB OVC080", "TAF VEGK 100330Z 1006/1018 21010KT 4000 TSRA BKN008 SCT015 FEW030CB OVC080 BECMG 1009/1012 VRB02KT 6000 -RA SCT015 SCT020 FEW030TCU OVC090", "TAF VEGT 101100Z 1012/1021 20005KT 4000 BR SCT018 FEW025CB BKN100 BECMG 1013/1015 00000KT 3000 U2013TSRA BR", "TAF VEGY 100800Z 1009/1018 00000KT 6000 FEW018 SCT025 FEW030CB BECMG 1015/1017 3000 BR FEW018 SCT100 ", "TAF VEIM 101100Z 1012/1021 30005KT 5000 HZ FEW018 SCT100 BECMG 1013/1015 00000KT 3000 -TSRA BR SCT018 FEW025CB BKN100", "TAF VEJH 101100Z 1012/1021 14005KT 4000 HZ SCT018 BKN100", "TAF VEJS 100800Z 1009/1018 27005KT 5000 HZ SCT018 FEW030CB BKN100 BECMG 1012/1014 00000KT 3000 HZ SCT018 BKN100", "TAF VEJT 100330Z 1006/1018 02005KT 6000 SCT018 BKN080 TEMPO 1008/1010 21005KT 4000 TSRA SCT010 SCT020 FEW030CB BKN080", "TAF VELP 100800Z 1009/1018 12004KT 3000 BR SCT015 SCT025 BKN100", "TAF VELR 100800Z 1009/1018 02005KT 3000 BR SCT018 FGEW025CB OVC090 TEMPO 1010/1012 1500 TSRA BECMG 1013/1015 00000KT 3000 U2013RA BR", "TAF VEMN 101100Z 1012/1021 02005KT 3000 BR SCT018 FEW025CB BKN100 TEMPO 1015/1018 14008KT 1500 -TSRA RA FEW008 SCT018 FEW025CB OVC090", "TAF VEMR 100800Z 1009/1018 24005KT 5000 HZ SCT020 SCT100 BECMG 1013/1015 00000KT 3000 BR", "TAF VEPT 101100Z 1012/1021 11004KT 2500 -TSRA BR FEW010 SCT015 FEW030CB OVC080 BECMG 1015/1017 00000KT 3000 BR SCT015 BKN100", "TAF VERC 101100Z 1012/1021 18008KT 5000 SCT020 SCT025 BECMG 1015/1017 00000KT 3000 HZ SCT015 BKN100", "TAF VETZ 100500Z 1006/1015 09005KT 5000 HZ SCT018 BKN100 TEMPO 1009/1011 1500 -TSRA FEW008 SCT016 FEW025CB BKN090", "TAF VGEG 101100Z 1012/1118 27010KT 4000 HZ SCT016 BKN100 TEMPO 1017/1103 17015KT 2000 RA/TSRA SCT008 FEW025CB OVC090 BECMG 1103/1105 10006KT 5000 HZ SCT018 SCT110 TEMPO 1110/1118 16010KT 2000 RA/TSRA SCT008 FEW025CB OVC090", "TAF VGHS 101100Z 1012/1118 18008KT 4000 HZ SCT012 BKN100 TEMPO 1018/1102 18015KT 2000 RA/TSRA BKN008 FEW025CB OVC090 BECMG 1105/1107 20005KT 3500 HZ SCT012 BKNT100 TEMPO 1109/1112 18020KT 2000 RA/TSRA BKN008 FEW025CB OVC090 BECMG 1113/1115 20005KT 3500 HZ SCT012 BKN100", "TAF VHHH 101100Z 1012/1118 01015KT 9999 FEW040 TX27/1106Z TN22/1023Z BECMG 1109/1111 07010KT", "TAF VIAG 100500Z 1006/1112 16010KT 6000 FEW010 SCT015 BKN080 TEMPO 1008/1011 20010G20KT 3000 TSRA SCT010 FEW030CB BKN080 BECMG 1015/1016 5000 BR BECMG 1020/1022 VRB02KT 3000 BR TEMPO 1100/1103 1500 BR SCT010 SCT015 BKN080 BECMG 1105/1106 06005KT 5000 BR SCT015 SCT100 TEMPO 1109/1111 SCT015 FEW030TCU SCT100", "TAF VIAR 101100Z 1012/1118 13006KT 3500 BR DZ SCT030 BKN090 BECMG 1018/1020 VRB02KT 2500 BR BECMG 1023/1101 09004KT 1500 BR DZ BECMG 1105/1107 32008KT 5000 HZ FEW030 SCT090 BECMG 1115/1117 11006KT 4000 BR", "TAF VIBR 100500Z 1006/1015 00000KT 6000 FEW030 SCT080 BECMG 1012/1014 5000 BR DZ SCT030 BKN080", "TAF VIBT 100330Z 1006/1018 14010KT 6000 SCT020 BKN090 TEMPO 1008/1012 09010G20KT 5000 -RABR SCT015 SCT020 FEW030CB BKN090", "TAF VIBY 100330Z 1006/1018 08008KT 5000 -RABR BKN008 SCT012 BKN090 TEMPO 1008/1010 06015KT 3000 TSRA SCT008 BKN015 BKN090 TX 26/09Z", "TAF VICG 100500Z 1006/1112 16010KT 6000 SCT020 BKN090 TEMPO 1008/1012 5000 -RA SCT012 SCT020 BKN090 TEMPO 1018/1022 14010KT 4000 -TSRABR SCT012 SCT020 FEW030CB BKN090 BECMG 1100/1101 12010KT 4000 -RABR SCT020 BKN090 BECMG 1104/1105 14005KT 6000 SCT025 SCT100", "TAF VIDN 101100Z 1012/1021 16006KT 3500 BR DZ BKN025 OVC060 BECMG 1015/1017 05008KT 3000 BR TEMPO 1018/1021 1000 -TSRA FEW030CB", "TAF VIDP 101100Z 1012/1118 09008KT 3000 BR BKN025 OVC080 BECMG 1017/1019 2200 BR TEMPO 1022/1102 24010G20KT 1200 -TSRA FEW030CB BECMG 1105/1107 11008KT 3500 BR BKN025 OVC080 TEMPO 1109/1113 1500 -TSRA FEW030CB BECMG 1116/1118 05006KT 2500 BR DZ SCT030 BKN090", "TAF VIGG 100500Z 1006/1015 00000KT 5000 BR DZ SCT030 OVC080", "TAF VIGR 100330Z 1006/1018 17005KT 5000 BR SCT010 SCT025 BKN090 BECMG 1007/1009 20005KT 5000 BR SCT015 SCT025 FEW025CB BKN100 TEMPO 1010/1013 4000 TSRA SCT015 SCT025 FEW025CB BKN100 TEMPO 1014/1017 5000 RA SCT010 SCT015 FEW025TCU BKN090", "TAF VIJO 100800Z 1009/1018 02005KT 6000 SCT030 BECMG 1013/1015 VRB03KT 4000 HZ FEW030", "VIJP 100800Z 1009/1018 VRB03KT 5000 HZ SCT030 SCT100 BECMG 1013/1015 VRB03KT 3000 BR HZ SCT030", "TAF VIJU 100330Z 1006/1018 32010KT 6000 SCT025 BKN090 BECMG 1008/1012 30010KT 6000 FEW025 SCT090 TEMPO 1007/1011 FEW030TCUCB", "TAF VILH 100330Z 1006/1018 VRB02KT 6000 SCT070 BKN100 BECMG 1007/1009 26008KT SCT060 BKN090 TEMPO 1011/1014 29020G30KT -RA 5000", "TAF VILK 100800Z 1009/1018 09005KT 2000 -TSRA SCT018 OVC090 TEMPO 1009/1013 1500 RA FEW030CB OVC090 BECMG 1016/1018 VRB02KT 2500 BR -RA SCT018 OVC090", "TAF VIPT 101100Z 1012/1021 09006KT 2500 DZ BR FEW010 SCT020 OVC080 BECMG 1016/1018 2000 BR", "TAF VISM 100500Z 1006/1015 00000KT 1500 BR DZ SCT020 BKN030 BECMG 1012/1014 0800 MIFG SCT020 SCT030", "TAF VISR 100330Z 1006/1018 26008KT 6000 SCT025 BKN090 TEMPO 1011/1014 4000 TSRABR SCT025 FEW025CB BKN090", "TAF VLLB 101100Z 1012/1112 06006KT 5000 BR SCT013 BKN060", "TAF VLLN 101100Z 1012/1112 14006KT 4000 BR SCT020 BKN100", "TAF VLPS 101100Z 1012/1112 36006KT 6000 FEW020 BKN050 SCT100", "TAF VLSK 101100Z 1012/1112 14008KT 4000 BR SCT016 SCT100", "TAF VLVT 101100Z 1012/1112 14006KT 5000 BR SCT050 SCT200", "TAF VMMC 101100Z 1012/1118 36015KT 9999 FEW040 TEMPO 1109/1115 06008KT", "TAF VNKT 100500Z 1006/1106 28007KT 8000 FEW015 SCT030 BKN100 PROB40 1006/1012 30010KT 4000 -TSRA FEW025CB BECMG 1009/1010 23006KT 7000 FEW015 SCT025 BKN100 BECMG 1100/1102 VRB02KT 6000 FEW010 SCT025 BKN100 BECMG 1104/1105 20005KT FEW015 SCT030", "TAF VOAR 100500Z 1006/1112 03004KT 3400 BR SCT016 BKN090 TEMPO 1011/1017 2100 -TSRA/RA SCT016 FEW025TCU/CB OVC090 TEMPO 1017/1022 VRB02KT 3400 -RA/DZ BECMG 1102/1104 26008KT 4500 HZ/BR BECMG 1104/1106 60000 TEMPO 1110/1112 2500 -TSRA/RA SCT016 FEW025TCU/CB BKN090", "TAF VOAT 100200Z 1003/1012 29010KT 5000 HZ SCT015 SCT080 BECMG 1004/1005 6000", "TAF VOBG 101100Z 1012/1021 07005KT 6000 SCT012 SCT080 TEMPO 1012/1018 3000 TSRA RA SCT008 SCT012 FEW025CB BKN080", "TAF VOBL 101100Z 1012/1118 07005KT 6000 SCT012 SCT080 TEMPO 1012/1018 3000 TSRA RA SCT008 SCT012 FEW025CB BKN080 TEMPO 1022/1103 3000 BR DZ SCT008 SCT012 BKN080 TEMPO 1106/1112 3000 RA DZ SCT008 SCT012 FEW025CB BKN080", "TAF VOBM 101100Z 1012/1021 VRB02KT 6000 SCT012 SCT080 TEMPO 1012/1018 3000 RA DZ SCT008 SCT012 FEW025CB BKN080", "TAF VOBZ 101100Z 1012/1118 07006KT 6000 SCT015 SCT025 OVC080 TEMPO 1012/1018 07006KT 3000 RA TSRA SCT010 FEW030CB OVC080 BECMG 1018/1020 26005KT 4000 BR HZ SCT015 SCT100 TEMPO 1023/1103 VRB04KT 1500 DZ BR SCT010 SCT015 BKN080 BECMG 1104/1106 26010KT 5000 HZ BR SCT015 SCT025", "TAF VOCB 101100Z 1012/1118 20010KT 5000 -DZ/BR SCT012 BKN080 TEMPO 1012/1018 4000 -TSRA/RA SCT012 FEW020TCU/CB OVC080 BECMG 1018/1019 3000 -RA/BR BECMG 1105/1106 20010KT 5000 -DZ/BR", "TAF VOCI 101100Z 1012/1021 27010KT 6000 SCT012 BKN080 BECMG 1014/1016 28005KT 3500 TS RA FEW015 FEW025CB BKN080", "TAF VOCL 101100Z 1012/1021 25008KT 6000 SCT012 BKN080 BECMG 1014/1016 27005KT 3500 TS RA FEW015 FEW025CB BKN080", "TAF VOCP 100500Z 1006/1015 01006KT 6000 SCT015 SCT025 OVC080 TEMPO 1006/1012 FEW030CB", "TAF VOGB 100800Z 1009/1018 09005KT 6000 SCT012 SCT080 TEMPO 1009/1012 5000 RA DZ SCT008 SCT012 FEW025CB BKN080", "TAF VOGO 101100Z 1012/1021 32007KT 6000 FEW020 SCT030 SCT090 TEMPO 1018/1021 4000 RA DZ", "TAF VOHB 101100Z 1012/1118 VRB02KT 6000 SCT012 SCT080 TEMPO 1012/1018 3000 RA DZ SCT008 SCT012 FEW025CB BKN080 TEMPO 1100/1103 3000 BR SCT008 SCT012 TEMPO 1106/1112 3000 RA DZ SCT012 SCT020 FEW025CB BKN080", "TAF VOHS 101100Z 1012/1118 12010KT 5000 BR SCT015 SCT025 BKN100 TEMPO 1012/1018 12010KT 3000 RA TSRA SCT010 FEW030CB OVC080 BECMG 1016/1018 26005KT 4000 DZ BR SCT010 SCT015 BKN100 TEMPO 1023/1103 VRB04KT 3000 DZ BR SCT010 SCT015 OVC080 BECMG 1104/1106 29010KT 6000 SCT015 SCT025 BKN100", "TAF VOHY 101100Z 1012/1021 12010KT 5000 BR SCT015 SCT025 BKN100 TEMPO 1012/1018 12010KT 3000 RA TSRA SCT010 FEW030CB OVC080 BECMG 1016/1018 26005KT 4000 DZ BR SCT010 SCT015 BKN100", "TAF VOJV 100800Z 1009/1018 VRB02KT 6000 SCT012 SCT080 TEMPO 1009/1015 3000 RA DZ SCT008 SCT012 FEW025CB BKN080", "TAF VOKN 101100Z 1012/1021 30003KT 6000 FEW012 SCT080 BECMG 1014/1016 30005KT 3500 TS RA FEW015 FEW025CB BKN080", "TAF VOKU 100500Z 1006/1015 12005KT 5000 BR SCT010 SCT015 BKN080 TEMPO 1009/1014 3000 RA TSRA SCT010 FEW030CB OVC080", "TAF VOLT 100800Z 1009/1018 32008KT 3000 -RA HZ SCT020 SCT025 BKN090 TEMPO 1009/1013 2000 -TSRA -SHRA SCT018 FEW030TCU/CB BKN090 BECMG 1015/1017 3000 -RA HZ SCT020 SCT025", "TAF VOMD 101100Z 1012/1118 18010KT 4000 BR FEW020 SCT100 TEMPO 1012/1018 3000 TSRA/RA SCT018 FEW025TCU/CB BKN080 BECMG 1018/1019 3000 -RA/BR BECMG 1103/1104 09010KT 5000 BR", "TAF VOML 101100Z 1012/1118 27010KT 6000 SCT015 SCT080 TEMPO 1012/1018 5000 TSRA RA SCT008 SCT012 FEW025CB BKN080 BECMG 1016/1017 09005KT BECMG 1022/1023 3000 BR SCT008 SCT012 TEMPO 1100/1103 1500 BR SCT005 SCT012 BECMG 1106/1107 27010KT 6000 SCT012", "TAF VOMM 101100Z 1012/1118 29010KT 4000 -DZ/BR SCT020 BKN100 TEMPO 1012/1018 3000 TSRA/RA SCT018 FEW025TCU/CB BKN080 BECMG 1018/1019 3000 -RA/BR BECMG 1105/1106 20010KT 4000 BR TEMPO 1109/1115 SCT020 FEW025TCU/CB BKN100", "TAF VOMY 100800Z 1009/1018 07005KT 6000 SCT015 SCT020 BKN080 TEMPO 1009/1015 3000 TSRA RA SCT008 SCT012 FEW025CB BKN080", "TAF VOND 100800Z 1009/1018 23008KT 3000 -RA HZ SCT018 SCT025 BKN090 TEMPO 1009/1013 20007G17KT 2000 -TSRA -SHRA SCT015 FEW030TCU/CB OVC080 BECMG 1013/1015 3000 -RA HZ BECMG 1015/1017 2500 -RA -SHRA", "TAF VOPB 100900Z 1012/1021 VRB02KT 5000 DZ BR SCT014 BKN080 TEMPO 1012/1018 21010KT 2000 SHRA RA SCT012 SCT020 FEW022TCU OVC080", "TAF VORY 101100Z 1012/1118 07008KT 5000 RA SCT010 SCT015 BKN080 TEMPO 1012/1018 3000 RA TSRA SCT010 FEW030CB OVC080 BECMG 1018/102025006KT 5000 BR HZ SCT015 SCT100 TEMPO 1023/1103 VRB04KT 3000 DZ BR SCT010 SCT015 BKN080 BECMG 1104/1106 26010KT 6000 SCT015 BKN100", "TAF VOSR 100800Z 1009/1018 28008KT 3000 -RA HZ SCT020 SCT025 BKN090 TEMPO 1011/1015 2000 -TSRA -SHRA SCT018 FEW030TCU/CB BKN090 BECMG 1015/1017 3000 -RA HZ SCT020 SCT025", "TAF VOTP 101100Z 1012/1118 03008KT 6000 SCT015 SCT025 BKN090 TEMPO 1012/1016 FEW030CB BECMG 1018/1020 26008KT 5000 BR HZ SCT015 SCT100 TEMPO 1023/1103 VRB04KT 3000 DZ BR SCT010 SCT015 BKN080 BECMG 1104/1106 26010KT 6000 SCT015 SCT025", "TAF VOTR 101100Z 1012/1118 20010KT 4000 -DZ/BR SCT015 BKN080 TEMPO 1012/1018 3000 -TSRA/RA SCT015 FEW025TCU/CB OVC080 BECMG 1018/1019 3000 -RA/BR BECMG 1105/1106 4000 BR", "TAF VOTV 101100Z 1012/1021 27005KT 6000 SCT015 FEW025CB BECMG 1014/1016 30005KT 3500 TS RA FEW015 FEW025CB BKN080", "TAF VOVZ 101100Z 1012/1118 12010KT 5000 BR SCT016 FEW022TCU BKN080 TEMPO 1015/1019 10208G18 3000 -TSRA SCT014 FEW022TCU BKN080 BECMG 1020/1022 VRB02KT 4500 BR SCT014 BKN080 TEMPO 1022/1102 3000 BR BECMG 1104/1108 12008KT 5000 BR SCT016 BKN080 TEMPO 1109/1113 12008G18KT 3000 -TSRA RA SCT014 FEW025CB BKN080 BECMG 1114/1116 VRB02KT 4500 BR", "TAF VRMG 101100Z 1012/1118 26016KT 9999 SCT017TCU BKN100 TEMPO 1012/1018 4000 SHRA FEW017CB", "TAF VRMH 101100Z 1012/1118 30010KT 9999 SCT018TCU BKN110 TEMPO 1018/1024 5000 TSRA FEW017CB", "TAF VRMM 101100Z 1012/1118 30011KT 9999 SCT017TCU BKN100 TEMPO 1012/1018 4000 SHRA FEW017CB", "TAF VTBD 101100Z 1012/1118 08008KT 9999 FEW020 TEMPO 1014/1018 VRB15KT 3000 TSRA FEW018CB SCT030 BKN100 BECMG 1022/1024 34005KT BECMG 1102/1104 06008KT TEMPO 1108/1112 VRB15KT 3000 TSRA FEW018CB SCT030 BKN100", "TAF VTBO 101100Z 1012/1112 08008KT 9999 FEW020 TEMPO 1014/1018 VRB15KT 3000 TSRA FEW018CB SCT022 BKN100 TEMPO 1108/1112 VRB15KT 3000 TSRA FEW018CB SCT022 BKN100", "TAF VTBS 101100Z 1012/1118 08008KT 9999 FEW020 TEMPO 1014/1018 VRB15KT 3000 TSRA FEW018CB SCT030 BKN100 BECMG 1022/1024 35005KT BECMG 1102/1104 09008KT TEMPO 1108/1112 VRB15KT 3000 TSRA FEW018CB SCT030 BKN100", "TAF VTBU 101100Z 1012/1112 16008KT 9999 FEW020 BKN100 BECMG 1012/1014 35004KT TEMPO 1020/1101 VRB15KT 4000 TSRA FEW018CB SCT035 BKN100 BECMG 1104/1106 14006KT", "TAF VTCC 101100Z 1012/1118 02005KT 9999 SCT035 TEMPO 1012/1015 24010G25KT 4000 TSRA FEW025CB BKN032 TEMPO 1017/1021 -TSRA FEW025CB BKN032 BECMG 1102/1104 14005KT TEMPO 1109/1112 -TSRA FEW025CB BKN032", "TAF VTCH 101100Z 1012/1112 14005KT 9999 SCT025 TEMPO 1012/1015 -TSRA FEW020CB BKN025", "TAF VTCL 101100Z 1012/1112 02005KT 9999 SCT025 TEMPO 1012/1018 -TSRA FEW020CB BKN025", "TAF VTCN 101100Z 1012/1112 03005KT 9999 SCT025 TEMPO 1109/1112 -TSRA FEW018CB BKN025", "TAF VTCP 101100Z 1012/1112 02005KT 9999 SCT035 TEMPO 1012/1018 -TSRA FEW020CB BKN025", "TAF VTCT 101100Z 1012/1118 03005KT 9999 SCT025 TEMPO 1103/1106 -TSRA FEW020CB BKN025", "TAF VTPB 101100Z 1012/1112 35005KT 9999 SCT030 TEMPO 1012/1014 01010G25KT 4000 TSRA FEW018CB BKN030", "TAF VTPH 101100Z 1012/1112 02005KT 9999 SCT020 BKN100 TEMPO 1012/1016 4000 RA TEMPO 1022/1110 VRB15G25KT 3000 TSRA FEW016CB SCT018 BKN100", "TAF VTPM 101100Z 1012/1112 09005KT 9999 SCT035 TEMPO 1012/1015 12010G25KT 4000 TSRA FEW020CB BKN035", "TAF VTPO 101100Z 1012/1112 30005KT 9999 SCT025 TEMPO 1012/1015 -TSRA FEW018CB BKN020", "TAF VTPP 101100Z 1012/1112 36005KT 9999 SCT030 TEMPO 1012/1015 -TSRA FEW020CB BKN025", "TAF VTSB 101100Z 1012/1112 00000KT 9999 SCT020 BKN100 TEMPO 1012/1015 4000 RA BECMG 1021/1023 1500 BR BKN005 BECMG 1101/1103 06006KT 9999 NSW FEW020 TEMPO 1106/1112 VRB15G25KT 3000 TSRA FEW016CB SCT018 BKN100", "TAF VTSC 101100Z 1012/1112 19003KT 9999 FEW020 BKN100 TEMPO 1012/1015 4000 RA BECMG 1104/1106 07008KT TEMPO 1106/1112 VRB15G25KT 4000 TSRA FEW016CB SCT018 BKN100", "TAF VTSE 101100Z 1012/1112 08003KT 9999 SCT020 TEMPO 1012/1016 4000 RA TEMPO 1022/1110 VRB15G25KT 4000 TSRA FEW016CB SCT018 BKN100", "TAF VTSF 101100Z 1012/1112 00000KT 9999 SCT020 SCT100 TEMPO 1012/1015 4000 RA BECMG 1101/1103 06006KT TEMPO 1104/1112 VRB15G25KT 3000 TSRA FEW016CB SCT018 BKN100", "TAF VTSG 101100Z 1012/1112 00000KT 9999 SCT020 BECMG 1020/1022 3000 BR BECMG 1100/1102 9999 NSW BECMG 1104/1106 24006KT TEMPO 1106/1112 24015G25KT 3000 TSRA FEW018CB SCT020 BKN100", "TAF VTSM 101100Z 1012/1112 16005KT 9999 SCT020 TEMPO 1012/1016 4000 RA TEMPO 1022/1110 VRB15G25KT 3000 TSRA FEW016CB SCT018 BKN100", "TAF VTSP 101100Z 1012/1118 00000KT 9999 SCT020 BECMG 1102/1104 28006KT", "TAF VTSR 101100Z 1012/1112 00000KT 9999 SCT020 BECMG 1104/1106 30006KT", "TAF VTSS 101100Z 1012/1112 00000KT 9999 SCT020 BKN100 TEMPO 1012/1015 4000 RA BECMG 1021/1023 1500 BR BKN005 BECMG 1101/1103 06006KT 9999 NSW FEW020 TEMPO 1106/1112 VRB15G25KT 4000 TSRA FEW016CB SCT018 BKN100", "TAF VTST 101100Z 1012/1112 00000KT 9999 SCT020 BECMG 1020/1022 3000 BR BECMG 1100/1102 9999 NSW BECMG 1104/1106 26006KT TEMPO 1106/1112 26015G25KT 3000 TSRA FEW018CB SCT020 BKN100", "TAF VTUD 101100Z 1012/1112 08005KT 8000 FEW030", "TAF VTUI 101100Z 1012/1112 05005KT 8000 FEW030", "TAF VTUK 101100Z 1012/1112 03005KT 8000 FEW030", "TAF VTUL 101100Z 1012/1112 08005KT 8000 FEW030", "TAF VTUO 101100Z 1012/1112 08012KT 9999 FEW025", "TAF VTUQ 101100Z 1012/1112 05010KT 9999 FEW025", "TAF VTUU 101100Z 1012/1112 05011KT 9999 FEW025", "TAF VTUV 101100Z 1012/1112 06011KT 9999 FEW025", "TAF VTUW 101100Z 1012/1112 05005KT 8000 FEW030", "TAF VVCI 101100Z 1012/1112 02006KT 9999 SCT020 BKN040", "TAF VVCR 101100Z 1012/1112 06008KT 9999 FEW015 SCT060 TEMPO 1022/1103 4000 SHRA SCT013 FEW015CB BKN050", "TAF VVCT 101100Z 1012/1112 VRB02KT 9999 SCT017 SCT040 TEMPO 1012/1015 5000 TSRA BKN015 FEW017CB BECMG 1100/1101 03010KT TEMPO 1104/1110 5000 TSRA BKN015 FEW017CB", "TAF VVDN 101100Z 1012/1112 04012KT 7000 SCT010 BKN050 TEMPO 1012/1018 3000 SHRA SCT010 FEW015CB BKN050 TEMPO 1020/1103 4000 RA", "TAF VVNB 101100Z 1012/1112 36006KT 9999 SCT024 BKN040", "TAF VVPB 101100Z 1012/1112 34012KT 7000 SCT013 BKN040 TEMPO 1012/1018 3200 SHRA SCT010 FEW015CB BKN040 TEMPO 1018/1102 2500 RA BR SCT007 BKN040", "TAF VVPQ 101100Z 1012/1112 VRB02KT 9999 SCT017 SCT040 TEMPO 1014/1020 5000 TSRA BKN015 FEW017CB BECMG 1100/1101 06010KT TEMPO 1106/1110 5000 TSRA BKN015 FEW017CB", "TAF VVTS 101100Z 1012/1118 VRB03KT 9999 SCT017 SCT040 TEMPO 1012/1018 5000 TSRA SCT015 FEW017CB BKN040 BECMG 1100/1101 06010KT TEMPO 1104/1110 5000 TSRA SCT015 FEW017CB BKN040", "TAF VYMD 101100Z 1012/1112 36005KT 6000 BKN020 FEW025CB TEMPO 1012/1018 35009KT 4000 -TSRA BKN015 FEW018CB OVC100", "TAF VYNT 101100Z 1012/1112 23008KT 7000 SCT020 FEW025CB BKN120 TEMPO 1012/1018 19008KT 5000 -TSRA BKN018 FEW022CB BKN110", "TAF VYYY 101100Z 1012/1112 14006KT 8000 SCT018 FEW020CB BKN100 TEMPO 1012/1018 23005KT 5000 -RA TEMPO 1106/1112 14008G18KT 4000 TSRA BKN012 FEW018CB BKN090", "TAF WAAA 101100Z 1012/1118 10003KT 8000 SCT019 BECMG 1100/1102 30012KT", "TAF WABB 101000Z 1012/1118 18005KT 9999 SCT018 TEMPO 1019/1022 5000 RA FEW017CB BKN016", "TAF WADD 101100Z 1012/1112 VRB05KT 9999 SCT016 TEMPO 1102/1106 5000 RA FEW014CB BKN014", "TAF WADL 101100Z 1012/1112 15005KT 6000 BKN016", "TAF AMD WALL 101150Z 1012/1118 25007KT 5000 -RA FEW017CB SCT018 BECMG 1012/1014 9999 NSW SCT018", "TAF WALS 101100Z 1012/1024 23004KT 8000 FEW016CB SCT017 BECMG 1013/1015 SCT017", "TAF WAMM 101100Z 1012/1118 VRB03KT 9000 SCT020 TEMPO 1017/1020 5000 RA FEW017CB BECMG 1101/1102 32008KT", "TAF WAOO 101100Z 1012/1112 15005KT 9000 SCT018 BECMG 1021/1023 04010KT", "TAF WAPP 101100Z 1012/1112 34006KT 9000 FEW016CB SCT018 TEMPO 1012/1016 5000 TSRA", "TAF WAQA 101100Z 1012/1024 13003KT 8000 FEW012CB FEW012 BECMG 1013/1015 FEW012", "TAF WAQD 101100Z 1012/1024 11003KT 8000 FEW015", "TAF WAQJ 101100Z 1012/1024 30005KT 6000 BKN015", "TAF WAQQ 101100Z 1012/1024 14004KT 9999 FEW015", "TAF WAQT 101100Z 1012/1024 VRB01KT 8000 FEW015", "TAF WARR 101100Z 1012/1112 06005KT 8000 SCT020 BECMG 1016/1018 25005KT 5000 HZ BECMG 1101/1103 07010KT 9999 NSW PROB30 TEMPO 1108/1112 4000 TSRA SCT018CB", "TAF WATT 101100Z 1012/1112 14008KT 8000 SCT017 PROB40 TEMPO 1104/1108 31012KT 4000 TSRA FEW016CB BKN017", "TAF WBGB 101100Z 1012/1112 10005KT 9999 FEW016 TEMPO 1022/1102 3000 TSRA FEW015CB SCT016", "TAF WBGG 101100Z 1012/1112 15005KT 9999 FEW020 TEMPO 1107/1111 30006KT 3000 TSRA FEW015CB SCT020", "TAF WBGR 101100Z 1012/1112 10005KT 9999 FEW016 TEMPO 1101/1105 3000 TSRA FEW015CB SCT016", "TAF WBGS 101100Z 1012/1112 12005KT 9999 FEW018 TEMPO 1108/1112 29006KT 3000 TSRA FEW015CB SCT016", "TAF WBKK 101100Z 1012/1112 11005KT 9999 FEW014 BECMG 1100/1102 26005KT", "TAF WBKL 101100Z 1012/1112 VRB03KT 9999 FEW014", "TAF WBKS 101100Z 1012/1112 23005KT 9999 FEW016", "TAF WBKW 101100Z 1012/1112 35005KT 9999 FEW016 TEMPO 1016/1020 4000 RA FEW010 FEW016CB SCT027", "TAF WBSB 101050Z 1012/1118 25008KT 9999 FEW014 FEW015CB TEMPO 1012/1016 6000 -SHRA SCT014 FEW015CB BECMG 1016/1018 21005KT FEW004 FEW015CB", "TAF WIDD 101100Z 1012/1112 25004KT 9999 SCT014", "TAF WIEE 101100Z 1012/1112 10003KT 9999 SCT020 TEMPO 1013/1017 3000 RA TEMPO 1109/1112 2000 RA", "TAF WIHH 101100Z 1012/1112 24006KT 5000 HZ SCT020 BECMG 1021/1023 00000KT 4000 FEW020", "TAF COR WIII 101100Z 1012/1118 23008KT 8000 SCT020 BECMG 1013/1015 4000 HZ BECMG 1101/1103 36010KT 8000 NSW", "TAF WIMM 101100Z 1012/1112 VRB05KT 5000 HZ FEW016CB SCT018 BECMG 1103/1105 03010KT 9000", "TAF WIPB 100500Z 1006/1018 31005KT 9999 BKN010 TEMPO 1008/1012 4000 TSRA FEW010CB BKN011", "TAF WIPP 101100Z 1012/1112 14007KT 9999 SCT010 TEMPO 1013/1015 5000 -TSRA BKN010 FEW011CB TEMPO 1020/1024 3000 BR", "TAF WIPY 092300Z 1000/1012 20006KT 9999 SCT010 TEMPO 1000/1002 3000 BR TEMPO 1006/1010 3000 TSRA FEW009CB BKN010", "TAF WITT 101100Z 1012/1112 15007KT 9999 SCT018 TEMPO 1018/1021 BKN017 PROB30 TEMPO 1106/1109 34008KT 5000 RA FEW015CB BKN017", "TAF WMAP 101100Z 1012/1112 VRB02KT 9999 FEW025", "TAF WMBT 101100Z 1012/1112 VRB03KT 9999 FEW025", "TAF WMKA 101100Z 1012/1112 VRB02KT 9000 FEW028 BECMG 1105/1107 25008KT FEW020", "TAF WMKB 101100Z 1012/1112 VRB02KT 8000 FEW024 BECMG 1102/1104 29005KT 9999 FEW020 PROB30 TEMPO 1105/1108 6000 TSRA FEW017CB", "TAF WMKC 101100Z 1012/1112 03006KT 9999 FEW020 TEMPO 1014/1016 7000 -TSRA FEW017CB", "TAF WMKE 101100Z 1012/1112 VRB02KT 9999 FEW017", "TAF WMKI 101100Z 1012/1112 VRB02KT 8000 FEW027 BECMG 1100/1102 05005KT 9999 FEW020 PROB30 TEMPO 1107/1111 6000 TSRA FEW017CB", "TAF WMKJ 101100Z 1012/1112 VRB02KT 9999 FEW020", "TAF WMKK 101100Z 1012/1118 VRB02KT 9999 FEW030 TEMPO 1022/1102 4000 TSRA FEW008 FEW017CB", "TAF WMKL 101100Z 1012/1112 VRB02KT 9999 FEW020 BECMG 1104/1106 24008KT FEW020", "TAF WMKM 101100Z 1012/1112 VRB02KT 9999 FEW028 TEMPO 1022/1102 4000 TSRA FEW010 FEW016CB", "TAF WMKN 101100Z 1012/1112 VRB03KT 9999 FEW022 TEMPO 1012/1016 7000 -TSRA FEW017CB", "TAF WMKP 101013Z 1012/1112 00000KT 9000 FEW025 PROB30 TEMPO 1019/1023 7000 TSRA FEW017CB BECMG 1104/1106 22008KT FEW020", "TAF WMPA 100500Z 1006/1106 VRB02KT 9999 FEW021 PROB30 TEMPO 1100/1103 6000 TSRA FEW017CB", "TAF WMSA 101100Z 1012/1112 VRB03KT 9999 FEW026 PROB30 TEMPO 1100/1104 4000 TSRA FEW017CB", "TAF WPDL 101103Z 1012/1100 19005KT 9999 SCT030", "TAF WSAP 101100Z 1012/1118 22007KT 9999 FEW015 BKN020 TEMPO 1021/1101 3000 TSRA FEW012CB BKN015", "TAF WSSL 101100Z 1012/1118 22007KT 9999 FEW015 BKN020 TEMPO 1021/1101 3000 TSRA FEW012CB BKN015", "TAF WSSS 101100Z 1012/1118 22007KT 9999 FEW015 BKN020 TEMPO 1021/1101 3000 TSRA FEW012CB BKN015", "TAF YAMB 101119Z 1012/1112 19006KT 9999 SCT030 FM102300 13014KT 9999 SCT040 FM111000 16008KT 9999 SCT040", "TAF YBAS 101103Z 1012/1112 07008KT CAVOK FM101900 35005KT CAVOK FM102200 33016KT CAVOK FM110200 31008KT CAVOK FM110700 01005KT CAVOK", "TAF YBBN 101118Z 1012/1118 14009KT 9999 SCT035 FM101400 18006KT 9999 SCT030 FM102300 12014KT 9999 SCT040 FM110200 13016G26KT 9999 SCT040 FM110800 16008KT 9999 SCT030", "TAF YBCG 101114Z 1012/1112 21010KT 9999 SCT030 FM110000 14016KT 9999 SCT030 FM110700 15012KT 9999 SCT030 FM111100 20008KT 9999 SCT030", "TAF YBCS 101107Z 1012/1112 16008KT 9999 SCT025 FM101500 17006KT 9999 -SHRA SCT020 FM110000 12014KT 9999 NSW FEW035 FM110900 16008KT 9999 SCT025", "TAF YBHM 101109Z 1012/1100 14018KT 9999 -SHRA BKN015 INTER 1012/1100 3000 SHRA BKN010", "TAF YBLN 101123Z 1012/1112 23012KT 9999 SCT035 FM101500 22010KT 9999 -SHRA SCT030 FM110300 20016G26KT 9999 -SHRA BKN035 FM111000 18010KT 9999 NSW SCT035 INTER 1103/1109 4000 SHRA BKN020", "TAF YBMA 101109Z 1012/1100 17007KT CAVOK", "TAF AMD YBRK 101116Z 1011/1112 15008KT 9999 BKN020 FM102300 12012KT 9999 BKN025 FM110200 08014KT 9999 SCT035 TEMPO 1012/1022 9999 BKN012", "TAF YBRM 101106Z 1012/1112 24008KT CAVOK FM110200 26012KT CAVOK FM110900 27007KT CAVOK", "TAF YBTL 101132Z 1012/1112 10010KT 9999 SCT020 FM101400 14008KT 9999 SCT016 FM110000 12014KT 9999 SCT020 FM110300 08017KT 9999 SCT040", "TAF YBWW 101127Z 1012/1112 09014KT 9999 SCT018 FM110000 10014KT 9999 SCT035", "TAF AMD YCFS 101127Z 1011/1112 29005KT 9999 -SHRA SCT020 BKN030 FM101800 19005KT 9999 -SHRA FEW020 BKN040 FM110100 16010KT 9999 -SHRA BKN040 FM111100 25008KT 9999 -SHRA FEW020 BKN030 INTER 1011/1101 4000 SHRA BKN015 INTER 1109/1112 4000 SHRA BKN015", "TAF YCIN 100614Z 1008/1020 29011KT CAVOK FM101000 34013KT CAVOK FM101400 29007KT CAVOK FM101900 34005KT CAVOK", "TAF AMD YFRT 100829Z 1008/1020 19010KT CAVOK PROB30 1018/1020 0300 FG BKN001", "TAF YGEL 101122Z 1012/1106 18008KT 9999 BKN045 FM101500 14006KT 9999 BKN035 FM110100 16015G25KT 9999 SCT050", "TAF AMD YGLA 101133Z 1011/1100 14010KT 9999 BKN024 TEMPO 1012/1023 9999 BKN012", "TAF YHID 101110Z 1012/1112 13010KT 9999 -SHRA BKN018 FM110000 11016KT 9999 NSW SCT020", "TAF AMD YLHI 101116Z 1012/1112 12014KT 9999 FEW020 SCT030 FM102200 14018KT 9999 -SHRA SCT018 BKN025 FM110300 14020KT 9999 -SHRA BKN018 TEMPO 1103/1112 14020G30KT 3000 SHRA BKN010", "TAF YMAV 101108Z 1012/1112 10008KT 9999 SCT045 FM101300 VRB03KT CAVOK FM101800 04008KT CAVOK FM102300 36014KT CAVOK FM110900 04006KT CAVOK", "TAF YMHB 101122Z 1012/1112 33004KT 9999 SCT040 FM110200 16012KT 9999 FEW045 FM110500 05010KT 9999 FEW045", "TAF YMLT 101119Z 1012/1112 34008KT CAVOK FM101600 03005KT 9999 FEW010 FM101900 01005KT 9999 SCT010 FM110000 36010KT 9999 FEW035 PROB30 1015/1022 0500 FG", "TAF AMD YMML 101108Z 1012/1118 35005KT CAVOK FM102200 02018G28KT CAVOK FM110700 01012KT CAVOK", "TAF AMD YPAD 101108Z 1012/1118 03012KT CAVOK BECMG 1023/1100 01015G25KT CAVOK BECMG 1102/1103 35014KT CAVOK FM110900 03008KT CAVOK FM111300 22007KT CAVOK", "TAF AMD YPCC 101106Z 1012/1112 03008KT 9999 SCT012 FM102100 05008KT 9999 -SHRA SCT010 INTER 1102/1112 4000 SHRA BKN008", "TAF YPDN 101104Z 1012/1118 30010KT 9999 FEW040 FM101600 VRB03KT 9999 SCT018 FM101900 VRB05KT 9999 -SHRA SCT016 FM110200 30010KT 9999 -SHRA SCT035 FM110900 26012KT CAVOK FM111300 34010KT 9999 SCT015", "TAF YPEA 101122Z 1012/1106 20010KT 9999 FEW040 FM101400 15006KT 9999 FEW045 FM110100 20012KT 9999 SCT050 FM110500 22016G26KT CAVOK", "TAF YPGV 100626Z 1008/1020 14008KT 9999 SCT025 FM101900 15005KT 9999 SCT012", "TAF YPJT 101122Z 1012/1106 20012KT 9999 FEW045 FM101400 15006KT 9999 FEW045 FM110100 20012KT 9999 SCT050 FM110500 22016G26KT CAVOK", "TAF YPKG 101122Z 1012/1112 22012KT CAVOK", "TAF YPKU 100615Z 1008/1020 18007KT CAVOK FM101200 VRB05KT CAVOK", "TAF YPLM 101105Z 1012/1112 22014KT CAVOK FM110000 18013KT CAVOK FM110200 21019KT CAVOK", "TAF YPPD 101105Z 1012/1112 29010KT CAVOK FM101400 24009KT CAVOK FM102200 18008KT CAVOK FM110300 32017KT CAVOK", "TAF YPPH 101115Z 1012/1118 18012KT 9999 FEW045 FM101600 15005KT 9999 FEW045 FM110100 20012KT 9999 SCT050 FM110500 22016G26KT CAVOK FM110900 19008KT CAVOK FM111500 16009KT CAVOK", "TAF YPTN 101105Z 1012/1112 09005KT CAVOK FM102300 05008KT CAVOK FM110400 14005KT CAVOK", "TAF YPWR 101059Z 1012/1106 03014KT CAVOK BECMG 1102/1103 01016G28KT CAVOK", "TAF YPXM 101105Z 1012/1112 13010KT 9999 BKN008", "TAF AMD YSCB 101055Z 1011/1112 08005KT 9999 BKN025 FM102300 06008KT 9999 SCT030 FM110200 05010KT 9999 SCT040 TEMPO 1011/1023 9999 BKN017", "TAF YSDU 101103Z 1012/1106 10012KT CAVOK FM102000 09012KT 9999 BKN030 FM110200 07010KT 9999 BKN040", "TAF AMD YSNF 101114Z 1011/1112 08014KT 9999 -SHRA SCT010 BKN020 FM110600 09014KT 9999 -SHRA SCT010 BKN015 INTER 1011/1100 09015G25KT 4000 SHRA BKN010 TEMPO 1106/1112 09015G25KT 3000 SHRA BKN010", "TAF YSRI 101101Z 1012/1112 VRB03KT 9999 SCT035 BKN045 FM102100 VRB03KT 9999 -SHRA SCT035 BKN045 FM110100 08006KT 9999 -SHRA SCT035 BKN045 FM111000 VRB03KT 9999 NSW SCT035 BKN045", "TAF YSSY 101119Z 1012/1118 VRB05KT 9999 SCT035 FM101800 29008KT 9999 SCT030 FM102300 06012KT 9999 SCT040 FM111500 30008KT 9999 SCT025", "TAF YSTW 101104Z 1012/1106 10008KT CAVOK FM102200 11008KT 9999 SCT050 FM110300 14008KT CAVOK", "TAF YWLM 101010Z 1011/1106 08006KT 9999 BKN035 FM101500 30005KT 9999 BKN040 FM102200 08012KT 9999 -SHRA SCT030 FM110300 10014KT 9999 NSW SCT040", "TAF ZBAA 100903Z 1012/1112 32003MPS CAVOK TX19/1107Z TN04/1021Z", "TAF ZBAD 100901Z 1012/1112 36004MPS CAVOK TX20/1107Z TN01/1021Z", "TAF ZBHH 100903Z 1012/1112 06004MPS CAVOK TX15/1107Z TNM05/1022Z", "TAF ZBSJ 100922Z 1012/1112 21003MPS CAVOK TX20/1107Z TN03/1021Z", "TAF ZBTJ 100901Z 1012/1112 23003MPS 5000 HZ NSC TX19/1106Z TN06/1021Z", "TAF ZBYN 100901Z 1012/1112 09003MPS 6000 NSC TX18/1107Z TN00/1022Z", "TAF ZGGG 100905Z 1012/1112 01004MPS 8000 FEW040 TX28/1107Z TN18/1021Z", "TAF ZGHA 100902Z 1012/1112 35004MPS 6000 NSC TX23/1107Z TN10/1022Z", "TAF ZGKL 100906Z 1012/1112 05004MPS 8000 SCT060 TX26/1108Z TN15/1022Z", "TAF ZGNN 100909Z 1012/1112 01004MPS CAVOK TX26/1107Z TN16/1022Z", "TAF ZGOW 100915Z 1012/1112 03004MPS 8000 SCT050 TX28/1106Z TN17/1022Z BECMG 1106/1107 10005MPS", "TAF ZGSZ 100905Z 1012/1112 02007G12MPS 8000 FEW030 TX28/1106Z TN20/1022Z", "TAF ZHCC 100904Z 1012/1112 18003MPS 5000 HZ NSC TX20/1107Z TN05/1022Z", "TAF ZHHH 100905Z 1012/1112 23003MPS 6000 NSC TX21/1107Z TN09/1021Z", "TAF ZJHK 100901Z 1012/1112 03005MPS 9999 SCT030 TX26/1106Z TN23/1021Z", "TAF ZJSY 100902Z 1012/1112 05004MPS 9999 FEW020 TX31/1106Z TN24/1021Z", "TAF ZKPY 100510Z 1006/1106 34007G10MPS 9999 BKN023 TX10/1006Z TN05/1021Z BECMG 1012/1014 32005MPS CAVOK", "TAF ZKWS 100510Z 1006/1106 27006MPS 9999 BKN033 TX12/1006Z TN07/1021Z BECMG 1008/1010 CAVOK", "TAF ZLLL 100911Z 1012/1112 36003MPS 6000 NSC TX16/1108Z TN00/1023Z", "TAF ZLXY 100916Z 1012/1112 06003MPS 6000 NSC TX17/1108Z TN03/1023Z", "TAF ZMCK 101042Z 1012/1118 VRB02MPS 9999 SCT100 TNM06/1022Z TX12/1107Z BECMG 1104/1106 32007MPS SCT033 BKN100 BECMG 1114/1116 VRB02MPS", "TAF ZMUB 101042Z 1012/1118 VRB02MPS 9999 SCT100 TNM08/1022Z TX12/1107Z BECMG 1104/1106 33005MPS SCT033 BKN100 BECMG 1111/1113 VRB02MPS", "TAF ZPPP 100915Z 1012/1112 04004MPS 6000 SCT023 OVC036 TX16/1108Z TN09/1023Z BECMG 1104/1105 22005MPS", "TAF ZSAM 100902Z 1012/1112 06006G13MPS 8000 SCT033 TX27/1106Z TN20/1021Z", "TAF ZSFZ 100927Z 1012/1112 04008G13MPS 6000 FEW030 TX24/1106Z TN19/1022Z", "TAF ZSHC 100904Z 1012/1112 32003MPS 6000 NSC TX18/1106Z TN08/1021Z BECMG 1103/1104 03005MPS", "TAF ZSJN 100902Z 1012/1112 23003MPS 5000 HZ NSC TX20/1106Z TN03/1021Z", "TAF ZSNB 100906Z 1012/1112 36004G09MPS 6000 SCT030 TX19/1106Z TN10/1021Z", "TAF ZSNJ 100902Z 1012/1112 35004MPS 3500 HZ NSC TX18/1106Z TN06/1021Z", "TAF ZSOF 100904Z 1012/1112 35004MPS 5000 HZ NSC TX20/1106Z TN08/1021Z", "TAF ZSPD 100902Z 1012/1112 33006MPS 6000 SCT033 TX19/1106Z TN11/1021Z", "TAF ZSQD 100902Z 1012/1112 31004MPS 5000 BR NSC TX18/1106Z TN05/1021Z", "TAF ZSSS 100901Z 1012/1112 33004MPS 6000 BKN033 TX20/1106Z TN12/1021Z", "TAF ZUCK 100908Z 1012/1112 03003MPS 6000 BKN050 TX20/1108Z TN14/1022Z", "TAF ZUGY 100901Z 1012/1112 02004MPS 6000 BKN015 OVC033 TX17/1107Z TN10/1022Z", "TAF ZUUU 100901Z 1012/1112 22003MPS 6000 SCT050 TX19/1107Z TN11/1022Z", "TAF ZWSH 100910Z 1012/1112 31005MPS 8000 FEW040 TX21/1109Z TN12/1101Z BECMG 1104/1105 06004MPS", "TAF ZWWW 100905Z 1012/1112 24004G09MPS 6000 -SHRA BKN040 TX14/1109Z TN09/1023Z BECMG 1102/1103 36004MPS CAVOK", "TAF ZYCC 100902Z 1012/1112 33006G12MPS 6000 FEW030 TX11/1106Z TNM01/1021Z BECMG 1017/1018 27004MPS", "TAF ZYHB 100901Z 1012/1112 34006MPS 6000 FEW030 TX13/1106Z TN00/1021Z BECMG 1018/1019 28004MPS", "TAF ZYTL 100907Z 1012/1112 33003MPS 6000 SCT030 TX15/1106Z TN07/1022Z", "TAF ZYTX 100902Z 1012/1112 18003MPS 6000 NSC TX12/1106Z TNM02/1021Z TEMPO 1020/1024 2000 BR"]}