{"station_id": ["AGGH", "ANYN", "AYPY", "BGBW", "BGGH", "BGJN", "BGKK", "BGSF", "BGTL", "BIAR", "BIEG", "BIIS", "BIKF", "BIRK", "BIVM", "BK12", "BKPR", "CAHR", "CBBC", "CERM", "CMFM", "CMGB", "CPBT", "CPEH", "CPFI", "CPIN", "CPIR", "CPRO", "CPRY", "CPST", "CPSV", "CTCK", "CTNK", "CTRA", "CWAF", "CWAJ", "CWAQ", "CWAR", "CWAV", "CWBA", "CWBK", "CWBO", "CWBS", "CWBT", "CWBU", "CWBV", "CWBY", "CWBZ", "CWCF", "CWCI", "CWCJ", "CWCO", "CWCT", "CWDA", "CWDJ", "CWDK", "CWDM", "CWDO", "CWDQ", "CWDV", "CWDZ", "CWEE", "CWEF", "CWEH", "CWEL", "CWEP", "CWEQ", "CWER", "CWEU", "CWEW", "CWEZ", "CWFF", "CWFJ", "CWFQ", "CWGB", "CWGD", "CWGH", "CWGL", "CWGM", "CWGR", "CWGT", "CWGY", "CWHI", "CWHL", "CWHO", "CWHP", "CWHQ", "CWHT", "CWHV", "CWID", "CWIG", "CWII", "CWIJ", "CWIK", "CWIL", "CWIP", "CWIS", "CWIT", "CWIW", "CWIZ", "CWJB", "CWJC", "CWJD", "CWJH", "CWJI", "CWJO", "CWJR", "CWJT", "CWJU", "CWJV", "CWJW", "CWJX", "CWKD", "CWKG", "CWKH", "CWKM", "CWKO", "CWKX", "CWLB", "CWLC", "CWLE", "CWLM", "CWLP", "CWLS", "CWLX", "CWLY", "CWME", "CWMJ", "CWMM", "CWMQ", "CWMT", "CWNC", "CWND", "CWNE", "CWNH", "CWNK", "CWNM", "CWNP", "CWNQ", "CWNZ", "CWOB", "CWOC", "CWOD", "CWOE", "CWOY", "CWPD", "CWPE", "CWPF", "CWPK", "CWPO", "CWPR", "CWPZ", "CWQH", "CWQK", "CWQO", "CWQP", "CWQR", "CWQS", "CWQV", "CWRA", "CWRJ", "CWRK", "CWRM", "CWRN", "CWRO", "CWRT", "CWRU", "CWRY", "CWRZ", "CWSA", "CWSD", "CWSF", "CWSG", "CWSK", "CWSL", "CWSP", "CWSR", "CWSS", "CWST", "CWTA", "CWTG", "CWTN", "CWTT", "CWTY", "CWUS", "CWUW", "CWUX", "CWVF", "CWVI", "CWVN", "CWVP", "CWVQ", "CWVT", "CWVU", "CWWA", "CWWB", "CWWE", "CWWF", "CWWK", "CWWL", "CWWS", "CWWZ", "CWXA", "CWXC", "CWXI", "CWXL", "CWYJ", "CWYL", "CWYY", "CWZA", "CWZG", "CWZL", "CWZN", "CWZO", "CWZQ", "CWZW", "CXAF", "CXAG", "CXAJ", "CXAK", "CXAT", "CXBA", "CXBI", "CXBK", "CXBO", "CXBR", "CXBW", "CXCA", "CXCD", "CXCK", "CXCP", "CXCS", "CXDB", "CXDE", "CXDI", "CXDK", "CXDW", "CXEA", "CXEC", "CXET", "CXFM", "CXFR", "CXGH", "CXHA", "CXHD", "CXHM", "CXHP", "CXHR", "CXIB", "CXKA", "CXKE", "CXKI", "CXKM", "CXKT", "CXLB", "CXLL", "CXMD", "CXMG", "CXMI", "CXMM", "CXMO", "CXMY", "CXNM", "CXNP", "CXOL", "CXOX", "CXOY", "CXPA", "CXPC", "CXPL", "CXRB", "CXRH", "CXRL", "CXSC", "CXSE", "CXSH", "CXSL", "CXSP", "CXTD", "CXTH", "CXTN", "CXTO", "CXTP", "CXTV", "CXVM", "CXVN", "CXVW", "CXWM", "CXWN", "CXYH", "CXZC", "CXZV", "CYAH", "CYAM", "CYAT", "CYAY", "CYBC", "CYBG", "CYBK", "CYBQ", "CYBR", "CYBU", "CYBW", "CYBX", "CYCA", "CYCB", "CYCK", "CYCO", "CYCY", "CYDA", "CYDB", "CYDF", "CYDL", "CYDN", "CYDP", "CYDQ", "CYEG", "CYEK", "CYEN", "CYER", "CYET", "CYEV", "CYFB", "CYFC", "CYFO", "CYFS", "CYFT", "CYGK", "CYGL", "CYGP", "CYGR", "CYGV", "CYGW", "CYGX", "CYHD", "CYHE", "CYHK", "CYHM", "CYHU", "CYHY", "CYHZ", "CYIN", "CYIO", "CYIV", "CYJT", "CYKA", "CYKJ", "CYKL", "CYKP", "CYKY", "CYLD", "CYLL", "CYLT", "CYLW", "CYMA", "CYMH", "CYMM", "CYMO", "CYMT", "CYMX", "CYNA", "CYND", "CYNE", "CYNM", "CYOD", "CYOJ", "CYOO", "CYOW", "CYPA", "CYPD", "CYPE", "CYPH", "CYPL", "CYPO", "CYPQ", "CYPR", "CYPX", "CYPY", "CYQA", "CYQB", "CYQD", "CYQF", "CYQG", "CYQH", "CYQI", "CYQK", "CYQL", "CYQM", "CYQQ", "CYQR", "CYQT", "CYQU", "CYQV", "CYQW", "CYQX", "CYQY", "CYQZ", "CYRB", "CYRJ", "CYRL", "CYRQ", "CYRT", "CYRV", "CYSB", "CYSC", "CYSF", "CYSJ", "CYSM", "CYSN", "CYTE", "CYTH", "CYTL", "CYTR", "CYTS", "CYTZ", "CYUA", "CYUL", "CYUX", "CYUY", "CYVC", "CYVL", "CYVM", "CYVO", "CYVP", "CYVQ", "CYVR", "CYVT", "CYVV", "CYWE", "CYWG", "CYWK", "CYWL", "CYXC", "CYXE", "CYXH", "CYXJ", "CYXL", "CYXR", "CYXS", "CYXT", "CYXU", "CYXX", "CYXY", "CYXZ", "CYYB", "CYYC", "CYYD", "CYYE", "CYYF", "CYYG", "CYYH", "CYYJ", "CYYL", "CYYN", "CYYQ", "CYYR", "CYYT", "CYYU", "CYYY", "CYYZ", "CYZE", "CYZF", "CYZH", "CYZP", "CYZR", "CYZS", "CYZT", "CYZV", "CYZX", "CYZY", "CZBF", "CZCP", "CZCR", "CZDB", "CZEL", "CZEV", "CZFS", "CZHY", "CZKD", "CZMD", "CZMJ", "CZOL", "CZPC", "CZPS", "CZSJ", "CZSM", "CZSP", "CZTB", "CZUM", "CZVL", "CZZJ", "DAAD", "DAAE", "DAAG", "DAAJ", "DAAP", "DAAS", "DAAT", "DAAV", "DAAY", "DABB", "DABC", "DABS", "DABT", "DAFH", "DAOB", "DAOF", "DAOI", "DAOL", "DAON", "DAOO", "DAOR", "DAOV", "DAUA", "DAUB", "DAUG", "DAUH", "DAUZ", "DBBB", "DFFD", "DFOO", "DGAA", "DIAP", "DIBK", "DIYO", "DNAA", "DNBE", "DNEN", "DNGO", "DNIB", "DNIL", "DNIM", "DNJO", "DNKA", "DNKN", "DNKT", "DNMM", "DNMN", "DNPO", "DNSO", "DNYO", "DRRM", "DRRN", "DRRT", "DRZA", "DRZR", "DTKA", "DTMB", "DTNH", "DTTA", "DTTB", "DTTD", "DTTF", "DTTG", "DTTJ", "DTTK", "DTTL", "DTTN", "DTTR", "DTTX", "DTTZ", "DXNG", "DXXX", "EBAW", "EBBE", "EBBL", "EBBR", "EBCI", "EBCV", "EBDT", "EBFN", "EBFS", "EBLB", "EBLG", "EBOS", "EDAH", "EDBC", "EDDB", "EDDC", "EDDE", "EDDF", "EDDG", "EDDH", "EDDK", "EDDL", "EDDM", "EDDN", "EDDP", "EDDR", "EDDS", "EDDV", "EDDW", "EDFH", "EDFM", "EDGS", "EDHI", "EDHK", "EDHL", "EDJA", "EDLN", "EDLP", "EDLV", "EDLW", "EDMA", "EDMO", "EDNY", "EDQM", "EDSB", "EDTL", "EDTY", "EDVE", "EDVK", "EDWE", "EDXW", "EEEI", "EEKE", "EEPU", "EETN", "EETU", "EFET", "EFHA", "EFHK", "EFIV", "EFJO", "EFJY", "EFKE", "EFKI", "EFKK", "EFKS", "EFKT", "EFKU", "EFLP", "EFMA", "EFMI", "EFOU", "EFPO", "EFRO", "EFSA", "EFSI", "EFTP", "EFTU", "EFUT", "EFVA", "EGAA", "EGAC", "EGAE", "EGBB", "EGBJ", "EGCC", "EGCK", "EGDM", "EGDR", "EGDY", "EGEC", "EGEO", "EGFF", "EGGD", "EGGP", "EGGW", "EGHC", "EGHE", "EGHH", "EGHI", "EGHQ", "EGJA", "EGJB", "EGJJ", "EGKA", "EGKB", "EGKK", "EGLC", "EGLF", "EGLL", "EGMC", "EGMD", "EGNH", "EGNJ", "EGNM", "EGNR", "EGNS", "EGNT", "EGNV", "EGNX", "EGOM", "EGOP", "EGOS", "EGOV", "EGPA", "EGPB", "EGPC", "EGPD", "EGPE", "EGPF", "EGPH", "EGPI", "EGPK", "EGPL", "EGPN", "EGPO", "EGPU", "EGQA", "EGQK", "EGQL", "EGQM", "EGQS", "EGSH", "EGSS", "EGSY", "EGTC", "EGTE", "EGTK", "EGUB", "EGUL", "EGUN", "EGUW", "EGVA", "EGVN", "EGVO", "EGVP", "EGWC", "EGWU", "EGXC", "EGXE", "EGXS", "EGXT", "EGXV", "EGXW", "EGXZ", "EGYD", "EGYH", "EGYM", "EGYP", "EHAK", "EHAM", "EHBK", "EHDL", "EHDV", "EHEH", "EHFD", "EHFS", "EHGG", "EHGR", "EHHW", "EHJA", "EHJR", "EHKD", "EHKV", "EHLE", "EHLW", "EHMA", "EHMG", "EHPG", "EHRD", "EHSA", "EHSC", "EHVK", "EHVL", "EHWO", "EICK", "EIDL", "EIDW", "EIKN", "EIKY", "EIME", "EINN", "EISG", "EIWF", "EKAH", "EKBI", "EKCH", "EKEB", "EKKA", "EKOD", "EKRK", "EKRN", "EKRS", "EKSB", "EKSP", "EKVD", "EKVG", "EKYT", "ELLX", "ENAL", "ENAN", "ENAT", "ENBL", "ENBN", "ENBO", "ENBR", "ENBS", "ENBV", "ENCN", "ENDR", "ENDU", "ENEV", "ENFB", "ENFL", "ENGC", "ENGM", "ENHD", "ENHE", "ENHF", "ENHK", "ENHM", "ENHV", "ENJS", "ENKB", "ENKR", "ENLA", "ENLE", "ENLK", "ENMH", "ENML", "ENMS", "ENNA", "ENNE", "ENNM", "ENNO", "ENOA", "ENOL", "ENOV", "ENQA", "ENQC", "ENQR", "ENRA", "ENRM", "ENRO", "ENRS", "ENRY", "ENSB", "ENSD", "ENSE", "ENSF", "ENSG", "ENSH", "ENSK", "ENSL", "ENSR", "ENSS", "ENST", "ENTC", "ENTO", "ENUG", "ENUN", "ENVA", "ENVD", "ENWV", "ENZV", "EPBY", "EPGD", "EPKK", "EPKT", "EPLB", "EPLL", "EPMO", "EPPO", "EPRA", "EPRZ", "EPSC", "EPSY", "EPWA", "EPWR", "EPZG", "ESCF", "ESCM", "ESDF", "ESGG", "ESGJ", "ESGP", "ESGT", "ESIA", "ESIB", "ESKM", "ESKN", "ESKS", "ESMK", "ESMQ", "ESMS", "ESMT", "ESMX", "ESND", "ESNG", "ESNK", "ESNL", "ESNN", "ESNO", "ESNQ", "ESNS", "ESNU", "ESNV", "ESNX", "ESNZ", "ESOE", "ESOH", "ESOK", "ESOW", "ESPA", "ESPE", "ESSA", "ESSB", "ESSD", "ESSL", "ESSP", "ESST", "ESSV", "ESTA", "ESTL", "ESUP", "ESUT", "ETAD", "ETAR", "ETEB", "ETGG", "ETHA", "ETHB", "ETHC", "ETHF", "ETHL", "ETHN", "ETHS", "ETIC", "ETIH", "ETIK", "ETMN", "ETNH", "ETNL", "ETNN", "ETNS", "ETNT", "ETNW", "ETOU", "ETSB", "ETSH", "ETSI", "ETSL", "ETSN", "ETWM", "EVGA", "EVLA", "EVRA", "EVVA", "EYKA", "EYPA", "EYSA", "EYVI", "FABL", "FACT", "FAEL", "FAGG", "FAHS", "FAJB", "FAKM", "FAKN", "FALA", "FALE", "FALW", "FAMM", "FAOR", "FAPE", "FAPN", "FAPP", "FAUP", "FAUT", "FAVV", "FBKE", "FBMN", "FBPM", "FBSK", "FCBB", "FCOD", "FDBB", "FDMS", "FDMY", "FDPP", "FDSK", "FDST", "FEFF", "FGSL", "FHAW", "FIMP", "FJDG", "FKKD", "FKKL", "FKKN", "FKKR", "FKYS", "FMCZ", "FMEE", "FMEP", "FMMI", "FMMT", "FMNA", "FMNM", "FMNN", "FMSD", "FNCA", "FNCT", "FNGI", "FNHU", "FNLU", "FNUB", "FNUE", "FOGM", "FOGO", "FOGR", "FOOG", "FOOL", "FOON", "FQBR", "FQCH", "FQIN", "FQLC", "FQMA", "FQNC", "FQNP", "FQQL", "FQTT", "FQVL", "FQXA", "FSIA", "FTTA", "FTTJ", "FTTY", "FVJN", "FVRG", "FWCL", "FWKI", "FYGF", "FYKT", "FYWE", "FYWH", "FYWW", "FZAA", "GABS", "GAKD", "GBYD", "GCFV", "GCGM", "GCHI", "GCLA", "GCLP", "GCRR", "GCTS", "GCXO", "GECE", "GEML", "GGOV", "GLRB", "GMAD", "GMAG", "GMAT", "GMFB", "GMFF", "GMFK", "GMFM", "GMFO", "GMMB", "GMMC", "GMMD", "GMME", "GMMH", "GMMI", "GMML", "GMMN", "GMMW", "GMMX", "GMMZ", "GMTA", "GMTN", "GMTT", "GOBD", "GOGG", "GOGK", "GOGS", "GOOD", "GOOG", "GOOY", "GOSM", "GOSP", "GOSS", "GOTT", "GQNO", "GQPP", "GUCY", "GVAC", "GVBA", "GVNP", "GVSV", "HAAB", "HABD", "HBBA", "HCMF", "HEAT", "HEAX", "HEBA", "HEBL", "HECA", "HECP", "HEGN", "HEIS", "HELX", "HEMA", "HEMM", "HEPS", "HESH", "HESN", "HESW", "HESX", "HETR", "HKEL", "HKGA", "HKJK", "HKKT", "HKLO", "HKLU", "HKME", "HKML", "HKMO", "HKNI", "HKNK", "HKNW", "HKWJ", "HRYR", "HRZA", "HTAR", "HTBU", "HTDA", "HTDO", "HTIB", "HTIR", "HTKA", "HTKJ", "HTMG", "HTMP", "HTMT", "HTMU", "HTMW", "HTSO", "HTSU", "HTTB", "HTZA", "HUEN", "K04V", "K04W", "K05U", "K06C", "K06D", "K08D", "K0A0", "K0A9", "K0CO", "K0E0", "K0F2", "K0J4", "K0R0", "K0S9", "K0V4", "K0VG", "K10G", "K12N", "K13K", "K14Y", "K15M", "K17J", "K18A", "K18H", "K19S", "K1A5", "K1A6", "K1A9", "K1AM", "K1BM", "K1BN", "K1BW", "K1CM", "K1CN", "K1CW", "K1DM", "K1DN", "K1EM", "K1EN", "K1EW", "K1F0", "K1FW", "K1GM", "K1GN", "K1H2", "K1HM", "K1HN", "K1HW", "K1IM", "K1IN", "K1IW", "K1JM", "K1JN", "K1JW", "K1KM", "K1LN", "K1LW", "K1M4", "K1MM", "K1MW", "K1NW", "K1OM", "K1ON", "K1OW", "K1P1", "K1R7", "K1R8", "K1S5", "K1U7", "K1V4", "K1V6", "K1YT", "K20U", "K20V", "K21D", "K22N", "K24A", "K24J", "K28J", "K2A0", "K2C8", "K2D5", "K2DP", "K2G4", "K2G9", "K2I0", "K2IS", "K2J3", "K2J5", "K2J9", "K2M2", "K2P2", "K2R9", "K2V5", "K2V6", "K2W6", "K2WX", "K33N", "K33V", "K35A", "K38S", "K3AU", "K3D2", "K3F3", "K3K3", "K3L4", "K3N8", "K3R7", "K3S8", "K3T5", "K3U3", "K40B", "K40U", "K41U", "K42J", "K46D", "K46U", "K48A", "K49A", "K4A6", "K4A9", "K4BM", "K4F2", "K4I3", "K4M9", "K4MR", "K4O4", "K4R5", "K4S1", "K4S2", "K4U6", "K4V0", "K4V1", "K54A", "K54J", "K57C", "K5A6", "K5C1", "K5H4", "K5R8", "K5SM", "K5T9", "K63S", "K65S", "K66R", "K6A1", "K6A2", "K6B0", "K6B9", "K6I2", "K6L4", "K6P9", "K6R3", "K6R6", "K6S0", "K6S2", "K6S8", "K77S", "K79J", "K7BM", "K7L2", "K7W4", "K81R", "K82C", "K8A0", "K8A3", "K8B0", "K8D3", "K8T6", "K8W2", "K96D", "K9A5", "K9D7", "K9L2", "K9MN", "K9S9", "K9V9", "KA39", "KAAA", "KAAF", "KAAO", "KAAT", "KABE", "KABH", "KABI", "KABQ", "KABR", "KABY", "KACB", "KACJ", "KACK", "KACP", "KACQ", "KACT", "KACV", "KACY", "KACZ", "KADC", "KADF", "KADG", "KADH", "KADM", "KADS", "KADT", "KADU", "KADW", "KAEG", "KAEJ", "KAEL", "KAEX", "KAFF", "KAFJ", "KAFK", "KAFN", "KAFO", "KAFP", "KAFW", "KAGC", "KAGI", "KAGO", "KAGS", "KAHN", "KAHQ", "KAIA", "KAID", "KAIG", "KAIK", "KAIO", "KAIT", "KAIZ", "KAJG", "KAJO", "KAJR", "KAJZ", "KAKH", "KAKO", "KAKQ", "KAKR", "KALB", "KALI", "KALK", "KALM", "KALN", "KALO", "KALS", "KALW", "KAMA", "KAMG", "KAMN", "KAMW", "KANB", "KAND", "KANE", "KANJ", "KANK", "KANQ", "KANW", "KAOH", "KAOO", "KAPA", "KAPC", "KAPF", "KAPN", "KAPS", "KAPY", "KAQO", "KAQP", "KAQV", "KAQW", "KAQX", "KARA", "KARB", "KARG", "KARM", "KARR", "KART", "KARV", "KARW", "KASD", "KASE", "KASG", "KASH", "KASJ", "KASL", "KASN", "KAST", "KASW", "KASX", "KATA", "KATL", "KATP", "KATS", "KATT", "KATW", "KATY", "KAUG", "KAUH", "KAUM", "KAUN", "KAUO", "KAUS", "KAUW", "KAVC", "KAVL", "KAVP", "KAVQ", "KAVX", "KAWG", "KAWM", "KAWO", "KAXA", "KAXH", "KAXN", "KAXS", "KAXV", "KAXX", "KAYS", "KAZC", "KAZE", "KAZO", "KBAB", "KBAC", "KBAD", "KBAF", "KBAM", "KBAN", "KBAX", "KBAZ", "KBBB", "KBBD", "KBBG", "KBBP", "KBBW", "KBCB", "KBCE", "KBCK", "KBCT", "KBDE", "KBDG", "KBDH", "KBDL", "KBDN", "KBDR", "KBDU", "KBEA", "KBEC", "KBED", "KBEH", "KBFD", "KBFF", "KBFI", "KBFL", "KBFM", "KBFR", "KBGD", "KBGE", "KBGF", "KBGM", "KBGR", "KBHB", "KBHC", "KBHK", "KBHM", "KBID", "KBIE", "KBIF", "KBIH", "KBIJ", "KBIL", "KBIS", "KBIV", "KBIX", "KBJC", "KBJI", "KBJJ", "KBKB", "KBKD", "KBKE", "KBKF", "KBKL", "KBKN", "KBKS", "KBKT", "KBKV", "KBKW", "KBKX", "KBLF", "KBLI", "KBLM", "KBLU", "KBLV", "KBMC", "KBMG", "KBMI", "KBML", "KBMQ", "KBMT", "KBNA", "KBNL", "KBNO", "KBNW", "KBOI", "KBOK", "KBOS", "KBOW", "KBPC", "KBPG", "KBPI", "KBPK", "KBPT", "KBQK", "KBQP", "KBQX", "KBRD", "KBRG", "KBRL", "KBRO", "KBRY", "KBTA", "KBTL", "KBTM", "KBTN", "KBTP", "KBTR", "KBTV", "KBUF", "KBUR", "KBUU", "KBUY", "KBVI", "KBVN", "KBVO", "KBVS", "KBVU", "KBVX", "KBVY", "KBWD", "KBWG", "KBWI", "KBWP", "KBWW", "KBXA", "KBXK", "KBYG", "KBYI", "KBYL", "KBYS", "KBYY", "KBZN", "KC09", "KC29", "KC35", "KC62", "KC65", "KC75", "KC99", "KCAD", "KCAE", "KCAG", "KCAK", "KCAO", "KCAR", "KCAV", "KCBE", "KCBF", "KCBG", "KCBK", "KCBM", "KCCA", "KCCB", "KCCO", "KCCR", "KCCU", "KCCY", "KCDA", "KCDC", "KCDD", "KCDH", "KCDI", "KCDJ", "KCDN", "KCDR", "KCDS", "KCDW", "KCEC", "KCEF", "KCEU", "KCEW", "KCEY", "KCEZ", "KCFD", "KCFE", "KCFJ", "KCFO", "KCFS", "KCFV", "KCGC", "KCGE", "KCGF", "KCGI", "KCGS", "KCGZ", "KCHA", "KCHK", "KCHO", "KCHS", "KCIC", "KCID", "KCIN", "KCIR", "KCIU", "KCJR", "KCKB", "KCKC", "KCKF", "KCKI", "KCKM", "KCKN", "KCKP", "KCKV", "KCKZ", "KCLE", "KCLI", "KCLK", "KCLL", "KCLM", "KCLS", "KCLT", "KCLW", "KCMA", "KCMD", "KCMH", "KCMI", "KCMR", "KCMX", "KCMY", "KCNB", "KCNC", "KCNI", "KCNK", "KCNM", "KCNO", "KCNU", "KCNW", "KCNY", "KCOD", "KCOE", "KCOF", "KCOM", "KCON", "KCOQ", "KCOS", "KCOT", "KCOU", "KCPC", "KCPF", "KCPK", "KCPR", "KCPS", "KCPT", "KCPW", "KCQB", "KCQC", "KCQF", "KCQM", "KCQT", "KCQW", "KCQX", "KCRE", "KCRG", "KCRP", "KCRQ", "KCRS", "KCRW", "KCRX", "KCSG", "KCSM", "KCSQ", "KCSV", "KCTB", "KCTJ", "KCTY", "KCTZ", "KCUB", "KCUH", "KCUL", "KCUT", "KCVC", "KCVG", "KCVH", "KCVN", "KCVO", "KCVS", "KCVX", "KCWA", "KCWC", "KCWF", "KCWI", "KCWN", "KCWV", "KCXE", "KCXO", "KCXP", "KCXU", "KCXW", "KCXY", "KCYD", "KCYS", "KCZL", "KCZT", "KD07", "KD25", "KD39", "KD50", "KD55", "KD57", "KD60", "KD73", "KD95", "KDAA", "KDAB", "KDAG", "KDAL", "KDAN", "KDAW", "KDAY", "KDBN", "KDBQ", "KDCA", "KDCM", "KDCU", "KDCY", "KDDC", "KDDH", "KDEC", "KDED", "KDEH", "KDEN", "KDEQ", "KDET", "KDEW", "KDFI", "KDFW", "KDGW", "KDHN", "KDHT", "KDIJ", "KDIK", "KDKK", "KDKR", "KDKX", "KDLF", "KDLH", "KDLL", "KDLN", "KDLO", "KDLP", "KDLS", "KDLZ", "KDMA", "KDMH", "KDMN", "KDMO", "KDMW", "KDNA", "KDNL", "KDNN", "KDNV", "KDOV", "KDPA", "KDPL", "KDQH", "KDRA", "KDRI", "KDRM", "KDRO", "KDRT", "KDSF", "KDSM", "KDSV", "KDTA", "KDTL", "KDTO", "KDTS", "KDTW", "KDUA", "KDUB", "KDUC", "KDUG", "KDUH", "KDUJ", "KDUX", "KDVK", "KDVL", "KDVN", "KDVO", "KDVP", "KDVT", "KDWA", "KDWH", "KDWU", "KDWX", "KDXR", "KDXX", "KDYA", "KDYB", "KDYL", "KDYR", "KDYS", "KDYT", "KDZB", "KDZJ", "KE11", "KE16", "KE38", "KE41", "KE42", "KEAN", "KEAR", "KEAT", "KEAU", "KEBA", "KEBG", "KEBS", "KECG", "KECP", "KECS", "KECU", "KEDC", "KEDE", "KEDJ", "KEDN", "KEDU", "KEDW", "KEED", "KEEN", "KEEO", "KEET", "KEFD", "KEFK", "KEFT", "KEGE", "KEGI", "KEGT", "KEGV", "KEHA", "KEHO", "KEHR", "KEIK", "KEKE", "KEKM", "KEKN", "KEKO", "KEKQ", "KEKS", "KEKX", "KEKY", "KELA", "KELD", "KELK", "KELM", "KELN", "KELO", "KELP", "KELY", "KELZ", "KEMM", "KEMP", "KEMV", "KEND", "KENL", "KENV", "KENW", "KEOE", "KEOK", "KEPH", "KEQA", "KEQY", "KERI", "KERV", "KERY", "KESC", "KESF", "KESN", "KEST", "KETB", "KETC", "KETH", "KETN", "KEUF", "KEUG", "KEUL", "KEVB", "KEVM", "KEVU", "KEVV", "KEVW", "KEWB", "KEWK", "KEWN", "KEWR", "KEXX", "KEYE", "KEYF", "KEYW", "KEZF", "KEZM", "KEZS", "KEZZ", "KF00", "KF05", "KF17", "KF44", "KF46", "KF70", "KFAF", "KFAM", "KFAR", "KFAT", "KFAY", "KFBG", "KFBL", "KFCI", "KFCM", "KFCS", "KFDK", "KFDR", "KFDW", "KFDY", "KFEP", "KFET", "KFFA", "KFFC", "KFFL", "KFFM", "KFFO", "KFFT", "KFFX", "KFFZ", "KFGN", "KFGX", "KFHB", "KFHR", "KFHU", "KFIG", "KFIN", "KFKL", "KFKN", "KFKR", "KFKS", "KFLD", "KFLG", "KFLL", "KFLO", "KFLP", "KFLY", "KFME", "KFMH", "KFMM", "KFMN", "KFMY", "KFNB", "KFNL", "KFNT", "KFOA", "KFOD", "KFOE", "KFOK", "KFOZ", "KFPK", "KFPR", "KFPY", "KFQD", "KFRG", "KFRH", "KFRI", "KFRM", "KFRR", "KFSD", "KFSE", "KFSI", "KFSK", "KFSM", "KFST", "KFSW", "KFTK", "KFTN", "KFTW", "KFTY", "KFUL", "KFVE", "KFVX", "KFWA", "KFWB", "KFWC", "KFWN", "KFWS", "KFXE", "KFXY", "KFYE", "KFYG", "KFYJ", "KFYM", "KFYV", "KFZG", "KFZY", "KGAD", "KGAF", "KGAG", "KGAI", "KGAO", "KGBD", "KGBG", "KGCC", "KGCD", "KGCK", "KGCM", "KGCN", "KGCY", "KGDA", "KGDB", "KGDJ", "KGDP", "KGDV", "KGED", "KGEG", "KGEV", "KGEY", "KGEZ", "KGFA", "KGFK", "KGFL", "KGGE", "KGGF", "KGGG", "KGGI", "KGGP", "KGGW", "KGHG", "KGHW", "KGIC", "KGIF", "KGJT", "KGKJ", "KGKT", "KGKY", "KGLD", "KGLE", "KGLH", "KGLR", "KGLS", "KGLW", "KGLY", "KGMJ", "KGMU", "KGNA", "KGNB", "KGNC", "KGNG", "KGNR", "KGNT", "KGNV", "KGOK", "KGON", "KGOO", "KGOP", "KGOV", "KGPC", "KGPH", "KGPI", "KGPM", "KGPT", "KGPZ", "KGRB", "KGRD", "KGRF", "KGRI", "KGRK", "KGRN", "KGRR", "KGRY", "KGSB", "KGSH", "KGSO", "KGSP", "KGTF", "KGTR", "KGTU", "KGUC", "KGUL", "KGUP", "KGUR", "KGUS", "KGUY", "KGVE", "KGVL", "KGVQ", "KGVT", "KGVW", "KGWB", "KGWO", "KGWR", "KGWW", "KGXA", "KGXF", "KGXY", "KGYB", "KGYF", "KGYH", "KGYI", "KGYL", "KGYY", "KGZH", "KGZL", "KGZN", "KGZS", "KHAE", "KHAF", "KHAI", "KHAO", "KHBG", "KHBI", "KHBR", "KHBV", "KHCD", "KHCO", "KHCR", "KHDC", "KHDE", "KHDL", "KHDN", "KHDO", "KHEF", "KHEG", "KHEI", "KHEQ", "KHEY", "KHEZ", "KHFD", "KHFF", "KHFJ", "KHFY", "KHGR", "KHHF", "KHHG", "KHHR", "KHHW", "KHIB", "KHIE", "KHIF", "KHII", "KHIO", "KHJH", "KHJO", "KHKA", "KHKS", "KHKY", "KHLB", "KHLC", "KHLG", "KHLN", "KHLR", "KHLX", "KHMN", "KHMP", "KHMT", "KHMZ", "KHNB", "KHND", "KHNR", "KHNZ", "KHOB", "KHOE", "KHON", "KHOP", "KHOT", "KHOU", "KHPN", "KHPT", "KHQG", "KHQG", "KHQM", "KHQU", "KHQZ", "KHRF", "KHRI", "KHRJ", "KHRL", "KHRO", "KHRT", "KHRX", "KHSA", "KHSB", "KHSD", "KHSE", "KHSG", "KHSI", "KHSP", "KHST", "KHSV", "KHTH", "KHTS", "KHUA", "KHUF", "KHUL", "KHUM", "KHUT", "KHVC", "KHVE", "KHVN", "KHVR", "KHVS", "KHWD", "KHWO", "KHWV", "KHWY", "KHXD", "KHYA", "KHYI", "KHYR", "KHYS", "KHYW", "KHYX", "KHZD", "KHZE", "KHZL", "KHZR", "KHZX", "KHZY", "KI16", "KI19", "KI23", "KI35", "KI63", "KI67", "KI68", "KI69", "KI74", "KI75", "KI95", "KIAB", "KIAD", "KIAG", "KIAH", "KIBM", "KICR", "KICT", "KIDA", "KIDI", "KIDP", "KIEN", "KIER", "KIFA", "KIFP", "KIGM", "KIGQ", "KIIB", "KIIY", "KIJD", "KIJX", "KIKG", "KIKK", "KIKV", "KIKW", "KILE", "KILG", "KILM", "KILN", "KIML", "KIMM", "KIMS", "KIMT", "KIND", "KINF", "KINJ", "KINK", "KINL", "KINS", "KINT", "KINW", "KIOB", "KIOW", "KIPJ", "KIPL", "KIPT", "KIRK", "KIRS", "KISM", "KISO", "KISP", "KISQ", "KISW", "KITH", "KITR", "KIUA", "KIWA", "KIWD", "KIWI", "KIXA", "KIXD", "KIYA", "KIZA", "KIZG", "KJAC", "KJAN", "KJAQ", "KJAS", "KJAU", "KJAX", "KJBR", "KJCA", "KJCT", "KJDN", "KJEF", "KJER", "KJES", "KJFK", "KJFX", "KJFZ", "KJHW", "KJKA", "KJKJ", "KJKL", "KJLN", "KJMR", "KJMS", "KJNX", "KJOT", "KJPX", "KJQF", "KJRB", "KJRO", "KJSO", "KJST", "KJSV", "KJSY", "KJTC", "KJVL", "KJVY", "KJWG", "KJWN", "KJWY", "KJXN", "KJYG", "KJYL", "KJYM", "KJYO", "KJYR", "KJZI", "KJZP", "KK62", "KK70", "KK82", "KK88", "KKLS", "KKNB", "KKY8", "KL08", "KL18", "KL35", "KLAA", "KLAF", "KLAL", "KLAM", "KLAN", "KLAR", "KLAS", "KLAW", "KLAX", "KLBB", "KLBE", "KLBF", "KLBL", "KLBO", "KLBT", "KLCG", "KLCH", "KLCI", "KLCK", "KLCQ", "KLDM", "KLEB", "KLEE", "KLEW", "KLEX", "KLFI", "KLFK", "KLFT", "KLGA", "KLGB", "KLGC", "KLGD", "KLGF", "KLGU", "KLHB", "KLHM", "KLHQ", "KLHW", "KLHX", "KLHZ", "KLIC", "KLIT", "KLJF", "KLKR", "KLKU", "KLKV", "KLLJ", "KLLN", "KLLQ", "KLMO", "KLMS", "KLMT", "KLNA", "KLND", "KLNK", "KLNL", "KLNN", "KLNP", "KLNQ", "KLNR", "KLNS", "KLOL", "KLOM", "KLOR", "KLOT", "KLOU", "KLOZ", "KLPR", "KLQK", "KLRD", "KLRF", "KLRJ", "KLRO", "KLRU", "KLRY", "KLSE", "KLSF", "KLSV", "KLTS", "KLUA", "KLUD", "KLUF", "KLUG", "KLUK", "KLUL", "KLUM", "KLUV", "KLUX", "KLVJ", "KLVK", "KLVM", "KLVN", "KLVS", "KLWA", "KLWB", "KLWC", "KLWD", "KLWM", "KLWS", "KLWT", "KLWV", "KLXL", "KLXN", "KLXT", "KLXV", "KLXY", "KLYH", "KLYO", "KLYV", "KLZU", "KM01", "KM02", "KM04", "KM08", "KM19", "KM21", "KM25", "KM30", "KM40", "KM54", "KM75", "KM91", "KMAF", "KMAN", "KMAO", "KMAW", "KMBG", "KMBL", "KMBO", "KMBS", "KMBT", "KMBY", "KMCB", "KMCC", "KMCD", "KMCE", "KMCF", "KMCI", "KMCJ", "KMCK", "KMCN", "KMCO", "KMCW", "KMCZ", "KMDD", "KMDH", "KMDQ", "KMDS", "KMDT", "KMDW", "KMDZ", "KMEB", "KMEH", "KMEI", "KMEM", "KMEV", "KMEZ", "KMFD", "KMFI", "KMFR", "KMGC", "KMGE", "KMGG", "KMGJ", "KMGM", "KMGN", "KMGR", "KMGW", "KMGY", "KMHE", "KMHK", "KMHL", "KMHP", "KMHR", "KMHS", "KMHT", "KMHV", "KMIA", "KMIB", "KMIC", "KMIE", "KMIO", "KMIV", "KMIW", "KMJD", "KMJQ", "KMKC", "KMKE", "KMKG", "KMKJ", "KMKL", "KMKN", "KMKO", "KMKS", "KMKT", "KMLB", "KMLC", "KMLE", "KMLF", "KMLI", "KMLJ", "KMLP", "KMLS", "KMLT", "KMLU", "KMMH", "KMMI", "KMMK", "KMML", "KMMT", "KMMU", "KMMV", "KMNE", "KMNH", "KMNI", "KMNM", "KMNN", "KMNV", "KMNZ", "KMOB", "KMOD", "KMOP", "KMOT", "KMOX", "KMPO", "KMPR", "KMPV", "KMPZ", "KMQB", "KMQI", "KMQJ", "KMQS", "KMQW", "KMQY", "KMRB", "KMRC", "KMRF", "KMRH", "KMRJ", "KMRN", "KMRT", "KMRY", "KMSL", "KMSN", "KMSO", "KMSP", "KMSS", "KMSV", "KMSY", "KMTC", "KMTH", "KMTJ", "KMTK", "KMTN", "KMTO", "KMTP", "KMTV", "KMTW", "KMUO", "KMUT", "KMVE", "KMVH", "KMVL", "KMVN", "KMVY", "KMWA", "KMWC", "KMWH", "KMWK", "KMWL", "KMWM", "KMWN", "KMWO", "KMWT", "KMXF", "KMYF", "KMYJ", "KMYL", "KMYP", "KMYR", "KMYV", "KMYZ", "KMZH", "KMZZ", "KN03", "KN38", "KN60", "KN79", "KNAK", "KNBC", "KNBG", "KNBT", "KNCA", "KNDZ", "KNEL", "KNEW", "KNFE", "KNFG", "KNFL", "KNFW", "KNGP", "KNGU", "KNHK", "KNID", "KNIP", "KNJK", "KNJM", "KNJW", "KNKT", "KNKX", "KNLC", "KNMM", "KNOG", "KNOW", "KNPA", "KNQA", "KNQI", "KNQX", "KNRB", "KNRN", "KNRS", "KNSE", "KNSI", "KNTD", "KNTU", "KNUC", "KNUI", "KNUQ", "KNUW", "KNXF", "KNXP", "KNYC", "KNYG", "KNYL", "KNZY", "KO05", "KO22", "KO32", "KO69", "KO86", "KOAJ", "KOAK", "KOAR", "KOBE", "KOCF", "KOCH", "KOCQ", "KOCW", "KODO", "KODX", "KOEB", "KOEL", "KOEO", "KOFF", "KOFK", "KOFP", "KOGA", "KOGB", "KOGD", "KOGS", "KOIC", "KOIN", "KOJA", "KOJC", "KOKB", "KOKC", "KOKK", "KOKM", "KOKV", "KOKZ", "KOLE", "KOLF", "KOLG", "KOLM", "KOLS", "KOLU", "KOLV", "KOLY", "KOLZ", "KOMA", "KOMH", "KOMK", "KOMN", "KONL", "KONM", "KONO", "KONP", "KONT", "KONX", "KONZ", "KOOA", "KOPF", "KOPL", "KOPN", "KOQN", "KOQT", "KORB", "KORD", "KORE", "KORF", "KORG", "KORH", "KORK", "KORL", "KORS", "KOSA", "KOSC", "KOSH", "KOSU", "KOTG", "KOTH", "KOTM", "KOUN", "KOVL", "KOVS", "KOWA", "KOWB", "KOWD", "KOWI", "KOWX", "KOXB", "KOXC", "KOXD", "KOXI", "KOXR", "KOXV", "KOYM", "KOZA", "KOZR", "KOZS", "KOZW", "KP08", "KP28", "KP52", "KP53", "KP58", "KP59", "KP60", "KP68", "KP69", "KP92", "KPAE", "KPAH", "KPAM", "KPAN", "KPBF", "KPBG", "KPBH", "KPBI", "KPBX", "KPCM", "KPCW", "KPCZ", "KPDC", "KPDK", "KPDT", "KPDX", "KPEA", "KPEO", "KPEQ", "KPEX", "KPEZ", "KPGA", "KPGD", "KPGV", "KPHD", "KPHF", "KPHL", "KPHN", "KPHP", "KPHT", "KPHX", "KPIA", "KPIB", "KPIE", "KPIH", "KPIL", "KPIM", "KPIR", "KPIT", "KPJC", "KPKB", "KPKD", "KPLN", "KPLR", "KPLU", "KPMD", "KPMH", "KPMP", "KPMU", "KPMV", "KPNA", "KPNC", "KPNE", "KPNM", "KPNS", "KPNT", "KPO1", "KPOB", "KPOE", "KPOF", "KPOU", "KPOV", "KPOY", "KPPA", "KPPF", "KPPO", "KPPQ", "KPQI", "KPQL", "KPRB", "KPRC", "KPRG", "KPRN", "KPRO", "KPRS", "KPRX", "KPSC", "KPSF", "KPSK", "KPSM", "KPSN", "KPSO", "KPSP", "KPSX", "KPTB", "KPTD", "KPTK", "KPTN", "KPTS", "KPTT", "KPTV", "KPTW", "KPUB", "KPUC", "KPUJ", "KPUW", "KPVB", "KPVC", "KPVD", "KPVE", "KPVF", "KPVG", "KPVJ", "KPVU", "KPVW", "KPWA", "KPWC", "KPWD", "KPWG", "KPWK", "KPWM", "KPWT", "KPXE", "KPYM", "KPYX", "KPZQ", "KQAZ", "KQBL", "KQBR", "KQD3", "KQDG", "KQEI", "KQEJ", "KQEN", "KQEP", "KQEQ", "KQER", "KQES", "KQEV", "KQEW", "KQEX", "KQEY", "KQFB", "KQFT", "KQFU", "KQFV", "KQFW", "KQFX", "KQHY", "KQN3", "KQOA", "KQRH", "KQTZ", "KQVF", "KRAC", "KRAL", "KRAP", "KRAS", "KRAW", "KRBD", "KRBG", "KRBL", "KRBO", "KRBW", "KRCA", "KRCE", "KRCM", "KRCR", "KRCV", "KRCX", "KRCZ", "KRDD", "KRDG", "KRDK", "KRDM", "KRDR", "KRDU", "KREG", "KREO", "KRFD", "KRFI", "KRGA", "KRGK", "KRHI", "KRHP", "KRIC", "KRID", "KRIL", "KRIV", "KRIW", "KRKD", "KRKP", "KRKR", "KRKS", "KRKW", "KRLD", "KRME", "KRMG", "KRMN", "KRMY", "KRNC", "KRND", "KRNH", "KRNM", "KRNO", "KRNP", "KRNT", "KROA", "KROC", "KROG", "KROS", "KROW", "KROX", "KRPD", "KRPH", "KRPJ", "KRPX", "KRQB", "KRQE", "KRQO", "KRRL", "KRRT", "KRSL", "KRSP", "KRST", "KRSW", "KRTN", "KRTS", "KRUE", "KRUG", "KRUQ", "KRUT", "KRVF", "KRVJ", "KRVL", "KRVS", "KRWF", "KRWI", "KRWL", "KRWV", "KRXE", "KRYM", "KRYN", "KRYW", "KRYY", "KRZL", "KRZN", "KRZR", "KRZT", "KS21", "KS24", "KS25", "KS32", "KS33", "KS34", "KS39", "KS52", "KS71", "KS85", "KSAA", "KSAC", "KSAD", "KSAF", "KSAN", "KSAR", "KSAT", "KSAV", "KSAW", "KSAZ", "KSBA", "KSBD", "KSBM", "KSBN", "KSBO", "KSBP", "KSBS", "KSBY", "KSCD", "KSCH", "KSCK", "KSCR", "KSCX", "KSDA", "KSDB", "KSDC", "KSDF", "KSDL", "KSDM", "KSDY", "KSEA", "KSEE", "KSEF", "KSEG", "KSEM", "KSEP", "KSEQ", "KSET", "KSEZ", "KSFB", "KSFF", "KSFM", "KSFO", "KSFQ", "KSFZ", "KSGF", "KSGH", "KSGJ", "KSGR", "KSGS", "KSGT", "KSGU", "KSHD", "KSHL", "KSHM", "KSHN", "KSHR", "KSHV", "KSIF", "KSIK", "KSIY", "KSJC", "KSJS", "KSJT", "KSJX", "KSKA", "KSKF", "KSKX", "KSLB", "KSLC", "KSLE", "KSLG", "KSLH", "KSLI", "KSLK", "KSLN", "KSLO", "KSLR", "KSMD", "KSME", "KSMF", "KSMN", "KSMO", "KSMQ", "KSMS", "KSMX", "KSNA", "KSNC", "KSNH", "KSNK", "KSNS", "KSNT", "KSNY", "KSOA", "KSOP", "KSOW", "KSPA", "KSPB", "KSPD", "KSPF", "KSPG", "KSPI", "KSPK", "KSPS", "KSPW", "KSQI", "KSQL", "KSRB", "KSRC", "KSRE", "KSRQ", "KSRR", "KSSC", "KSSF", "KSSI", "KSTC", "KSTE", "KSTF", "KSTJ", "KSTK", "KSTL", "KSTP", "KSTS", "KSUA", "KSUE", "KSUN", "KSUS", "KSUT", "KSUU", "KSUW", "KSUX", "KSUZ", "KSVC", "KSVE", "KSVH", "KSVN", "KSWF", "KSWO", "KSWW", "KSXK", "KSXS", "KSXT", "KSXU", "KSYF", "KSYI", "KSYM", "KSYN", "KSYR", "KSZL", "KSZT", "KSZY", "KT20", "KT35", "KT41", "KT69", "KT70", "KT74", "KT78", "KT82", "KT89", "KTAD", "KTAN", "KTAZ", "KTBN", "KTBR", "KTBX", "KTCL", "KTCM", "KTCS", "KTCY", "KTDF", "KTDR", "KTDZ", "KTEB", "KTEW", "KTEX", "KTFP", "KTGI", "KTHA", "KTHM", "KTIF", "KTIK", "KTIP", "KTIW", "KTIX", "KTKC", "KTKI", "KTKV", "KTKX", "KTLH", "KTMA", "KTMB", "KTME", "KTMK", "KTMT", "KTNB", "KTNU", "KTOB", "KTOC", "KTOI", "KTOL", "KTOP", "KTOR", "KTPA", "KTPF", "KTPH", "KTPL", "KTQE", "KTQH", "KTQK", "KTQV", "KTRI", "KTRK", "KTRL", "KTRM", "KTSP", "KTTA", "KTTD", "KTTF", "KTTN", "KTTS", "KTUL", "KTUP", "KTUS", "KTVC", "KTVF", "KTVI", "KTVK", "KTVL", "KTVR", "KTVY", "KTWF", "KTWM", "KTWT", "KTXK", "KTXW", "KTYL", "KTYQ", "KTYR", "KTYS", "KTZR", "KU42", "KU55", "KU64", "KU68", "KU69", "KUAO", "KUBE", "KUCP", "KUCY", "KUDG", "KUES", "KUGN", "KUIL", "KUIN", "KUKF", "KUKI", "KUKL", "KUKT", "KULM", "KULS", "KUMP", "KUNI", "KUNO", "KUNU", "KUNV", "KUOX", "KUSE", "KUTA", "KUTS", "KUUU", "KUUV", "KUVA", "KUXL", "KUYF", "KUZA", "KVAD", "KVAF", "KVAY", "KVBG", "KVBT", "KVBW", "KVCB", "KVCT", "KVCV", "KVDF", "KVDI", "KVEL", "KVER", "KVES", "KVGC", "KVGT", "KVHN", "KVIH", "KVIS", "KVJI", "KVKS", "KVKY", "KVLD", "KVLL", "KVNC", "KVNW", "KVNY", "KVOA", "KVOK", "KVPC", "KVPS", "KVPZ", "KVQQ", "KVRB", "KVSF", "KVTA", "KVTI", "KVTN", "KVTP", "KVUJ", "KVVS", "KVVV", "KVWU", "KVYS", "KW13", "KW22", "KW29", "KW31", "KW40", "KW43", "KW63", "KW75", "KW78", "KW81", "KW96", "KWAL", "KWBF", "KWDG", "KWDR", "KWJF", "KWLD", "KWMC", "KWRB", "KWRI", "KWRL", "KWST", "KWVI", "KWVL", "KWWD", "KWWR", "KX07", "KX26", "KX60", "KXBP", "KXLL", "KXMR", "KXNA", "KXNO", "KXNX", "KXSA", "KXVG", "KXWA", "KY19", "KY23", "KY31", "KY49", "KY50", "KY51", "KY63", "KY70", "KYIP", "KYKM", "KYKN", "KYNG", "KZER", "KZPH", "KZZV", "LATI", "LBBG", "LBGO", "LBIA", "LBPD", "LBPG", "LBPL", "LBSF", "LBWN", "LCEN", "LCLK", "LCPH", "LCRA", "LDDU", "LDLO", "LDOS", "LDPL", "LDRI", "LDSB", "LDSP", "LDZA", "LDZD", "LEAB", "LEAG", "LEAL", "LEAM", "LEAO", "LEAS", "LEBA", "LEBB", "LEBG", "LEBL", "LEBR", "LEBT", "LEBZ", "LECH", "LECO", "LECV", "LEDA", "LEGE", "LEGR", "LEGT", "LEHC", "LEIB", "LEJR", "LELC", "LELL", "LELN", "LELO", "LEMD", "LEMG", "LEMH", "LEMI", "LEMO", "LEPA", "LEPP", "LERI", "LERS", "LERT", "LESA", "LESB", "LESO", "LEST", "LESU", "LETL", "LETO", "LETU", "LEVC", "LEVD", "LEVS", "LEVT", "LEVX", "LEXJ", "LEZG", "LEZL", "LFAC", "LFAQ", "LFAT", "LFBA", "LFBC", "LFBD", "LFBE", "LFBF", "LFBG", "LFBH", "LFBI", "LFBL", "LFBM", "LFBO", "LFBP", "LFBT", "LFBU", "LFBX", "LFBY", "LFBZ", "LFCK", "LFCR", "LFGA", "LFGJ", "LFHP", "LFJL", "LFJR", "LFKB", "LFKC", "LFKF", "LFKJ", "LFKS", "LFLB", "LFLC", "LFLH", "LFLL", "LFLN", "LFLP", "LFLS", "LFLU", "LFLV", "LFLW", "LFLX", "LFLY", "LFMC", "LFMD", "LFMH", "LFMI", "LFMK", "LFML", "LFMN", "LFMO", "LFMP", "LFMT", "LFMU", "LFMV", "LFMY", "LFOA", "LFOB", "LFOE", "LFOH", "LFOJ", "LFOK", "LFOP", "LFOT", "LFOV", "LFOZ", "LFPB", "LFPG", "LFPM", "LFPN", "LFPO", "LFPT", "LFPV", "LFQA", "LFQB", "LFQG", "LFQQ", "LFRB", "LFRC", "LFRD", "LFRG", "LFRH", "LFRI", "LFRJ", "LFRK", "LFRL", "LFRM", "LFRN", "LFRO", "LFRQ", "LFRS", "LFRT", "LFRU", "LFRV", "LFRZ", "LFSB", "LFSD", "LFSG", "LFSI", "LFSL", "LFSM", "LFSN", "LFSO", "LFST", "LFSX", "LFTH", "LFTW", "LFVP", "LFYR", "LGAD", "LGAL", "LGAV", "LGBL", "LGEL", "LGHI", "LGIO", "LGIR", "LGKF", "LGKL", "LGKO", "LGKP", "LGKR", "LGKV", "LGKZ", "LGLM", "LGMK", "LGMT", "LGPA", "LGPZ", "LGRP", "LGRX", "LGSA", "LGSM", "LGSO", "LGSR", "LGTS", "LGZA", "LHBP", "LHDC", "LHKE", "LHPA", "LHPP", "LHPR", "LHSM", "LHSN", "LIBA", "LIBC", "LIBD", "LIBF", "LIBG", "LIBN", "LIBP", "LIBQ", "LIBR", "LIBV", "LIBY", "LICA", "LICB", "LICC", "LICD", "LICF", "LICG", "LICJ", "LICR", "LICT", "LICZ", "LIEA", "LIEB", "LIED", "LIEE", "LIEO", "LIMA", "LIMC", "LIME", "LIMF", "LIMG", "LIMH", "LIMJ", "LIMK", "LIML", "LIMP", "LIMS", "LIMU", "LIMV", "LIMW", "LIMZ", "LIPA", "LIPB", "LIPC", "LIPE", "LIPF", "LIPH", "LIPI", "LIPK", "LIPL", "LIPO", "LIPQ", "LIPR", "LIPS", "LIPU", "LIPX", "LIPY", "LIPZ", "LIQC", "LIQN", "LIRA", "LIRE", "LIRF", "LIRI", "LIRK", "LIRM", "LIRN", "LIRP", "LIRQ", "LIRS", "LIRU", "LIRV", "LIRX", "LIRZ", "LIVC", "LIVD", "LIVE", "LIVF", "LIVM", "LIVP", "LIVR", "LIVT", "LJCE", "LJLJ", "LJMB", "LJPZ", "LKCV", "LKKB", "LKKV", "LKLN", "LKMT", "LKNA", "LKPD", "LKPR", "LKTB", "LLBG", "LLER", "LLHA", "LLIB", "LMML", "LOAN", "LOAV", "LOWG", "LOWI", "LOWK", "LOWL", "LOWS", "LOWW", "LOXZ", "LPAZ", "LPBJ", "LPCS", "LPFL", "LPFR", "LPHR", "LPLA", "LPMA", "LPMR", "LPMT", "LPOV", "LPPD", "LPPR", "LPPS", "LPPT", "LQBK", "LQMO", "LQSA", "LQTZ", "LRAR", "LRBC", "LRBM", "LRBS", "LRCK", "LRCL", "LRCV", "LRIA", "LROD", "LROP", "LRSB", "LRSM", "LRSV", "LRTC", "LRTM", "LRTR", "LSGC", "LSGG", "LSGS", "LSMA", "LSMD", "LSMM", "LSMP", "LSZA", "LSZB", "LSZC", "LSZG", "LSZH", "LSZL", "LSZR", "LSZS", "LTAC", "LTAE", "LTAF", "LTAG", "LTAI", "LTAJ", "LTAN", "LTAP", "LTAR", "LTAS", "LTAT", "LTAU", "LTAW", "LTAY", "LTAZ", "LTBA", "LTBD", "LTBF", "LTBH", "LTBJ", "LTBO", "LTBQ", "LTBR", "LTBS", "LTBU", "LTBY", "LTCA", "LTCB", "LTCC", "LTCD", "LTCE", "LTCF", "LTCG", "LTCI", "LTCJ", "LTCK", "LTCL", "LTCM", "LTCN", "LTCO", "LTCP", "LTCR", "LTCS", "LTCT", "LTCU", "LTCV", "LTCW", "LTDA", "LTFB", "LTFC", "LTFD", "LTFE", "LTFG", "LTFH", "LTFJ", "LTFM", "LTFO", "LUKK", "LWOH", "LWSK", "LXGB", "LYBE", "LYBT", "LYKV", "LYNI", "LYPG", "LYTV", "LYVR", "LZIB", "LZKZ", "LZPP", "LZTT", "LZZI", "MBPV", "MDAB", "MDBH", "MDCY", "MDJB", "MDLR", "MDPC", "MDPP", "MDSD", "MDST", "MGGT", "MGHT", "MGMM", "MGPB", "MHPR", "MHTG", "MKJP", "MKJS", "MMAA", "MMAN", "MMAS", "MMCE", "MMCM", "MMCP", "MMCS", "MMCU", "MMCZ", "MMDO", "MMGL", "MMHO", "MMLO", "MMMD", "MMMM", "MMMT", "MMMX", "MMMY", "MMMZ", "MMOX", "MMPG", "MMPR", "MMPS", "MMQT", "MMRX", "MMSP", "MMTJ", "MMTM", "MMTO", "MMTP", "MMUN", "MMZC", "MNMG", "MPDA", "MPMG", "MPPA", "MPTO", "MRLB", "MRLM", "MROC", "MRPV", "MSLP", "MTPP", "MUCC", "MUCF", "MUCL", "MUCM", "MUCU", "MUGM", "MUHA", "MUHG", "MUSC", "MUVR", "MWCB", "MWCR", "MYCB", "MYGF", "MYNN", "MYSM", "MZBZ", "NCAI", "NCAT", "NCMG", "NCMH", "NCMK", "NCMR", "NCNS", "NCPK", "NCPL", "NCPY", "NCRG", "NCRK", "NCSW", "NFFN", "NFNA", "NFTF", "NFTL", "NFTV", "NGFU", "NGTA", "NIUE", "NLWW", "NSFA", "NSTU", "NTAA", "NVVV", "NWWW", "NZAA", "NZCH", "NZCM", "NZSP", "NZWN", "OBBI", "OEAB", "OEAH", "OEAO", "OEBA", "OEBH", "OEDF", "OEDM", "OEDR", "OEGN", "OEGS", "OEGT", "OEHL", "OEJB", "OEJN", "OEKJ", "OEKM", "OEMA", "OEMN", "OENG", "OEPA", "OEPS", "OERF", "OERK", "OERR", "OESH", "OESK", "OETB", "OETF", "OETR", "OEWD", "OEWJ", "OEYN", "OIAA", "OIAG", "OIAH", "OIAI", "OIAM", "OIAW", "OIBA", "OIBB", "OIBH", "OIBJ", "OIBK", "OIBL", "OIBP", "OIBQ", "OIBS", "OIBV", "OICC", "OICI", "OICJ", "OICK", "OICM", "OICS", "OIFK", "OIFM", "OIFS", "OIGG", "OIGK", "OIHH", "OIHM", "OIHR", "OIIE", "OIII", "OIIK", "OIIP", "OIKB", "OIKK", "OIKO", "OIKQ", "OIMB", "OIMC", "OIMD", "OIMJ", "OIMM", "OIMN", "OIMQ", "OIMS", "OINB", "OINE", "OING", "OINK", "OINN", "OINR", "OINZ", "OISA", "OISF", "OISL", "OISR", "OISS", "OISY", "OITK", "OITL", "OITM", "OITP", "OITR", "OITT", "OITZ", "OIYY", "OIZB", "OIZC", "OIZH", "OIZI", "OIZJ", "OJAI", "OJAM", "OJAQ", "OKAS", "OKKK", "OLBA", "OMAA", "OMAD", "OMAL", "OMDB", "OMDW", "OMFJ", "OMRK", "OMSJ", "OOAD", "OODQ", "OOKB", "OOMS", "OOSA", "OOSH", "OPFA", "OPIS", "OPKC", "OPLA", "OPMT", "OPNH", "OPPS", "OPSK", "OPST", "ORBI", "ORER", "ORMM", "ORNI", "OSAP", "OSDI", "OSKL", "OSLK", "OTBD", "OTBH", "OTHH", "PAAD", "PAAK", "PAAQ", "PABA", "PABE", "PABI", "PABL", "PABR", "PABT", "PABV", "PACD", "PACM", "PACV", "PACZ", "PADE", "PADK", "PADL", "PADM", "PADQ", "PADU", "PAED", "PAEG", "PAEH", "PAEI", "PAEN", "PAFA", "PAFB", "PAFE", "PAFM", "PAFR", "PAFS", "PAGK", "PAGL", "PAGM", "PAGN", "PAGS", "PAGY", "PAHC", "PAHL", "PAHN", "PAHO", "PAHX", "PAHY", "PAIG", "PAIK", "PAIL", "PAIM", "PAIN", "PAIW", "PAJC", "PAJN", "PAJZ", "PAKH", "PAKI", "PAKN", "PAKP", "PAKT", "PAKU", "PAKV", "PAKW", "PAKX", "PALG", "PALH", "PALP", "PALU", "PAMB", "PAMD", "PAMH", "PAMK", "PAMM", "PAMO", "PAMR", "PAMY", "PANA", "PANC", "PANI", "PANV", "PANW", "PAOH", "PAOM", "PAOO", "PAOR", "PAOT", "PAOU", "PAPB", "PAPG", "PAPH", "PAPM", "PAPN", "PAPO", "PAQT", "PARC", "PARY", "PASC", "PASD", "PASI", "PASK", "PASL", "PASM", "PASN", "PASO", "PASV", "PASX", "PASY", "PATA", "PATC", "PATE", "PATG", "PATK", "PATL", "PATO", "PATQ", "PAUN", "PAVC", "PAVD", "PAVL", "PAWD", "PAWI", "PAWM", "PAWN", "PAWS", "PAYA", "PAZK", "PFCL", "PFEL", "PFKT", "PFKW", "PFNO", "PFSH", "PFWS", "PFYU", "PGSN", "PGUA", "PGUM", "PGWT", "PHBK", "PHHI", "PHJR", "PHKO", "PHLI", "PHMK", "PHNG", "PHNL", "PHNY", "PHOG", "PHSF", "PHTO", "PKMR", "PKWA", "PLCH", "PMDY", "PPIZ", "PTKK", "PTPN", "PTRO", "PTTP", "PTYA", "PWAK", "RCFN", "RCKH", "RCMQ", "RCNN", "RCSS", "RCTP", "RJAA", "RJAH", "RJBB", "RJBE", "RJCB", "RJCC", "RJCH", "RJCK", "RJCM", "RJCO", "RJDB", "RJDC", "RJDT", "RJEC", "RJFF", "RJFK", "RJFM", "RJFO", "RJFR", "RJFS", "RJFT", "RJFU", "RJFY", "RJGG", "RJKA", "RJKI", "RJNG", "RJNK", "RJNS", "RJNT", "RJOA", "RJOB", "RJOC", "RJOF", "RJOH", "RJOI", "RJOK", "RJOM", "RJOO", "RJOP", "RJOR", "RJOS", "RJOT", "RJSA", "RJSF", "RJSH", "RJSK", "RJSM", "RJSN", "RJSS", "RJSY", "RJTT", "RJTY", "RKJB", "RKJK", "RKNW", "RKNY", "RKPC", "RKPK", "RKSG", "RKSI", "RKSM", "RKSO", "RKSS", "RKTN", "RKTU", "ROAH", "RODE", "RODN", "ROIG", "ROMD", "ROMY", "RORK", "RORS", "RORT", "RORY", "ROTM", "ROYN", "RPLB", "RPLC", "RPLI", "RPLL", "RPMD", "RPVM", "RPVP", "SAAR", "SABE", "SACO", "SADF", "SAEZ", "SAME", "SANT", "SAOC", "SARC", "SARE", "SARF", "SARI", "SARL", "SARP", "SASA", "SASJ", "SAVC", "SAWE", "SAWG", "SAWH", "SAZM", "SAZN", "SAZS", "SBAF", "SBAN", "SBAR", "SBBE", "SBBG", "SBBH", "SBBI", "SBBR", "SBBU", "SBBV", "SBCA", "SBCB", "SBCC", "SBCF", "SBCG", "SBCH", "SBCJ", "SBCO", "SBCP", "SBCR", "SBCT", "SBCY", "SBDN", "SBEG", "SBES", "SBFI", "SBFL", "SBFN", "SBFS", "SBFZ", "SBGL", "SBGO", "SBGR", "SBGW", "SBHT", "SBIH", "SBIL", "SBIP", "SBIZ", "SBJP", "SBJR", "SBJU", "SBJV", "SBKG", "SBKP", "SBLB", "SBLE", "SBLO", "SBLS", "SBMA", "SBME", "SBMG", "SBMK", "SBMN", "SBMO", "SBMQ", "SBMT", "SBNF", "SBNT", "SBOI", "SBPA", "SBPB", "SBPF", "SBPJ", "SBPK", "SBPL", "SBPP", "SBPS", "SBPV", "SBRB", "SBRF", "SBRJ", "SBRP", "SBSC", "SBSG", "SBSJ", "SBSL", "SBSM", "SBSN", "SBSP", "SBSR", "SBST", "SBSV", "SBTA", "SBTE", "SBTF", "SBTT", "SBTU", "SBUL", "SBUR", "SBUY", "SBVH", "SBVT", "SBYS", "SCAP", "SCAR", "SCAT", "SCBA", "SCCF", "SCCH", "SCCI", "SCCY", "SCDA", "SCEL", "SCFA", "SCFT", "SCGZ", "SCHR", "SCIC", "SCIE", "SCIP", "SCIR", "SCJO", "SCMK", "SCNT", "SCON", "SCPD", "SCPQ", "SCQP", "SCRG", "SCRM", "SCSE", "SCSN", "SCTB", "SCTE", "SCTN", "SCVD", "SCVM", "SECA", "SECU", "SEGU", "SEGZ", "SELT", "SEMT", "SEQM", "SESA", "SESM", "SFAL", "SGAS", "SGEN", "SGES", "SKAR", "SKBG", "SKBO", "SKBQ", "SKCC", "SKCG", "SKCL", "SKEJ", "SKIB", "SKIP", "SKLC", "SKLT", "SKMD", "SKMR", "SKMZ", "SKNV", "SKPC", "SKPE", "SKPS", "SKPV", "SKRG", "SKRH", "SKSM", "SKSP", "SKUC", "SKUI", "SKVP", "SKVV", "SLAL", "SLCA", "SLCB", "SLCP", "SLET", "SLJE", "SLLP", "SLPS", "SLRI", "SLSA", "SLSV", "SLTR", "SLVM", "SLVR", "SMJP", "SMZO", "SOCA", "SPHI", "SPHO", "SPJC", "SPJJ", "SPJL", "SPJR", "SPQT", "SPQU", "SPRU", "SPSO", "SPST", "SPTN", "SPTU", "SPUR", "SPYL", "SPZO", "SUAA", "SUCA", "SULS", "SUMU", "SUSO", "SVBC", "SVBI", "SVBM", "SVBS", "SVCB", "SVCS", "SVFM", "SVGD", "SVGU", "SVJM", "SVLO", "SVMC", "SVMG", "SVMI", "SVMT", "SVPA", "SVPR", "SVSA", "SVSR", "SVVA", "SVVG", "SVVL", "SYCJ", "SYEC", "TAPA", "TBPB", "TDPD", "TFFF", "TFFR", "TGPY", "TIST", "TISX", "TJBQ", "TJIG", "TJNR", "TJPS", "TJSJ", "TKPK", "TKPN", "TLPL", "TNCA", "TNCB", "TNCC", "TNCE", "TNCM", "TQPF", "TRPG", "TTCP", "TTPP", "TUPJ", "TVSA", "TXKF", "UAAA", "UAAH", "UAAT", "UACC", "UACK", "UACP", "UADD", "UAII", "UAIT", "UAKD", "UAKK", "UAOO", "UARR", "UASK", "UASP", "UASS", "UATE", "UATG", "UATT", "UAUU", "UBBB", "UBBF", "UBBG", "UBBL", "UBBN", "UBBQ", "UBBY", "UBBZ", "UBEE", "UCFL", "UCFM", "UCFO", "UDSG", "UDYZ", "UEEE", "UERP", "UERR", "UGAM", "UGKO", "UGMS", "UGSB", "UGTB", "UHBB", "UHHH", "UHMA", "UHMM", "UHPP", "UHSS", "UHWW", "UIAA", "UIBB", "UIII", "UIUU", "ULAA", "ULLI", "ULMM", "ULOO", "ULPB", "ULWC", "UMBB", "UMGG", "UMII", "UMIO", "UMKK", "UMMG", "UMMS", "UMOO", "UNAA", "UNBB", "UNEE", "UNKL", "UNNT", "UNOO", "UNTT", "UNWW", "UOOO", "URKA", "URKK", "URMG", "URML", "URMM", "URMN", "URMO", "URMT", "URRP", "URSS", "URWA", "URWI", "URWW", "USCC", "USCM", "USDA", "USHH", "USNN", "USPP", "USRR", "USSS", "USTR", "UTAA", "UTAK", "UTAM", "UTAT", "UTAV", "UTDD", "UTDK", "UTDL", "UTDT", "UTFF", "UTFN", "UTNN", "UTNU", "UTO8", "UTSA", "UTSB", "UTSK", "UTSS", "UTST", "UTTT", "UUBC", "UUBP", "UUBW", "UUDD", "UUDL", "UUEE", "UUMO", "UUOB", "UUOK", "UUOL", "UUOO", "UUWW", "UUYY", "UWGG", "UWKD", "UWKE", "UWKS", "UWLL", "UWLW", "UWOO", "UWOR", "UWPS", "UWSG", "UWUU", "UWWW", "VAAH", "VABB", "VABO", "VABP", "VADU", "VAID", "VAJB", "VAJJ", "VAJL", "VAKP", "VANP", "VAOZ", "VAPR", "VASD", "VASU", "VAUD", "VCBI", "VDPP", "VDSR", "VDSV", "VEAT", "VEBN", "VEBS", "VEBU", "VECC", "VECO", "VEDG", "VEGT", "VEGY", "VEIM", "VEJH", "VEJS", "VEKI", "VEKO", "VELP", "VELR", "VEMN", "VEPT", "VERC", "VERK", "VERP", "VERU", "VGHS", "VHHH", "VIAR", "VIDN", "VIDP", "VIJP", "VILK", "VLLB", "VLLN", "VLPS", "VLVT", "VMMC", "VNKT", "VOBG", "VOBL", "VOBM", "VOBZ", "VOCB", "VOCI", "VOCL", "VOCP", "VOGA", "VOGO", "VOHB", "VOHS", "VOHY", "VOJV", "VOKN", "VOMD", "VOML", "VOMM", "VOPC", "VORY", "VOTK", "VOTP", "VOTR", "VOTV", "VOVZ", "VRMG", "VRMH", "VRMM", "VTBD", "VTBO", "VTBS", "VTBU", "VTCC", "VTCH", "VTCL", "VTCN", "VTCP", "VTCT", "VTPB", "VTPH", "VTPM", "VTPO", "VTPP", "VTPT", "VTSB", "VTSC", "VTSE", "VTSF", "VTSG", "VTSM", "VTSP", "VTSR", "VTSS", "VTST", "VTUD", "VTUI", "VTUK", "VTUL", "VTUO", "VTUQ", "VTUU", "VTUV", "VTUW", "VVCI", "VVCR", "VVCT", "VVDN", "VVNB", "VVPB", "VVPQ", "VVTS", "VVVD", "VYNT", "VYYY", "WAAA", "WABB", "WADD", "WADL", "WAHS", "WAJJ", "WALL", "WAMM", "WAOO", "WAPP", "WAQQ", "WARR", "WATT", "WBGB", "WBGG", "WBGR", "WBGS", "WBGY", "WBKK", "WBKL", "WBKS", "WBKT", "WBKW", "WBSB", "WIDD", "WIDN", "WIEE", "WIHH", "WIII", "WILL", "WIMM", "WIOO", "WIPP", "WMAU", "WMBA", "WMKA", "WMKB", "WMKC", "WMKD", "WMKE", "WMKI", "WMKJ", "WMKK", "WMKL", "WMKM", "WMKN", "WMKP", "WMSA", "WSAP", "WSSL", "WSSS", "YAMB", "YBAS", "YBBN", "YBCG", "YBCS", "YBHM", "YBLN", "YBMA", "YBRK", "YBRM", "YBSU", "YBTL", "YBWW", "YCFS", "YCIN", "YFRT", "YGEL", "YGLA", "YHID", "YLHI", "YMAV", "YMHB", "YMLT", "YMML", "YPAD", "YPCC", "YPDN", "YPEA", "YPGV", "YPJT", "YPKG", "YPKU", "YPLM", "YPPD", "YPPH", "YPTN", "YPWR", "YSCB", "YSDU", "YSNF", "YSRI", "YSSY", "YSTW", "YWLM", "ZBAA", "ZBAD", "ZBHH", "ZBSJ", "ZBTJ", "ZBYN", "ZGGG", "ZGHA", "ZGKL", "ZGNN", "ZGOW", "ZGSZ", "ZHCC", "ZHHH", "ZJHK", "ZJSY", "ZLLL", "ZLXY", "ZMCK", "ZMUB", "ZPPP", "ZSAM", "ZSFZ", "ZSHC", "ZSNB", "ZSNJ", "ZSOF", "ZSPD", "ZSQD", "ZSSS", "ZUCK", "ZUGY", "ZUTF", "ZUUU", "ZWSH", "ZWWW", "ZYCC", "ZYHB", "ZYTL", "ZYTX"], "observation_time": ["2023-04-29T11:00:00Z", "2023-04-29T11:00:00Z", "2023-04-29T11:00:00Z", "2023-04-29T11:50:00Z", "2023-04-29T11:52:00Z", "2023-04-29T11:50:00Z", "2023-04-29T11:50:00Z", "2023-04-29T11:50:00Z", "2023-04-29T10:55:00Z", "2023-04-29T11:00:00Z", "2023-04-29T11:00:00Z", "2023-04-29T12:00:00Z", "2023-04-29T11:30:00Z", "2023-04-29T11:00:00Z", "2023-04-29T12:00:00Z", "2023-04-29T11:55:00Z", "2023-04-29T12:00:00Z", "2023-04-29T11:00:00Z", "2023-04-29T11:00:00Z", "2023-04-29T11:00:00Z", "2023-04-29T11:00:00Z", "2023-04-29T11:00:00Z", "2023-04-29T11:00:00Z", "2023-04-29T11:00:00Z", "2023-04-29T11:00:00Z", "2023-04-29T11:00:00Z", "2023-04-29T11:00:00Z", "2023-04-29T11:00:00Z", "2023-04-29T11:00:00Z", "2023-04-29T11:00:00Z", "2023-04-29T11:00:00Z", "2023-04-29T11:00:00Z", "2023-04-29T11:00:00Z", "2023-04-29T11:00:00Z", "2023-04-29T11:00:00Z", "2023-04-29T11:00:00Z", "2023-04-29T11:00:00Z", "2023-04-29T11:00:00Z", "2023-04-29T11:00:00Z", "2023-04-29T11:00:00Z", "2023-04-29T11:00:00Z", "2023-04-29T11:00:00Z", "2023-04-29T11:00:00Z", "2023-04-29T11:00:00Z", "2023-04-29T11:00:00Z", "2023-04-29T11:00:00Z", "2023-04-29T11:00:00Z", "2023-04-29T11:00:00Z", "2023-04-29T11:00:00Z", "2023-04-29T11:00:00Z", "2023-04-29T11:00:00Z", "2023-04-29T11:00:00Z", "2023-04-29T11:00:00Z", "2023-04-29T11:00:00Z", "2023-04-29T11:00:00Z", "2023-04-29T11:00:00Z", "2023-04-29T11:00:00Z", "2023-04-29T11:00:00Z", "2023-04-29T11:00:00Z", "2023-04-29T11:00:00Z", "2023-04-29T11:00:00Z", "2023-04-29T11:00:00Z", "2023-04-29T11:00:00Z", "2023-04-29T11:00:00Z", "2023-04-29T11:00:00Z", "2023-04-29T11:00:00Z", "2023-04-29T11:00:00Z", "2023-04-29T11:00:00Z", "2023-04-29T11:00:00Z", "2023-04-29T11:00:00Z", "2023-04-29T11:00:00Z", "2023-04-29T11:00:00Z", "2023-04-29T11:00:00Z", "2023-04-29T11:00:00Z", "2023-04-29T11:00:00Z", "2023-04-29T11:00:00Z", "2023-04-29T11:00:00Z", "2023-04-29T11:00:00Z", "2023-04-29T11:00:00Z", "2023-04-29T11:00:00Z", "2023-04-29T11:00:00Z", "2023-04-29T11:00:00Z", "2023-04-29T11:00:00Z", "2023-04-29T11:00:00Z", "2023-04-29T11:00:00Z", "2023-04-29T11:00:00Z", "2023-04-29T11:00:00Z", "2023-04-29T11:00:00Z", "2023-04-29T11:00:00Z", "2023-04-29T11:00:00Z", "2023-04-29T11:00:00Z", "2023-04-29T11:00:00Z", "2023-04-29T11:00:00Z", "2023-04-29T11:00:00Z", "2023-04-29T11:00:00Z", "2023-04-29T11:00:00Z", "2023-04-29T11:00:00Z", "2023-04-29T11:00:00Z", "2023-04-29T11:00:00Z", "2023-04-29T11:00:00Z", "2023-04-29T11:00:00Z", "2023-04-29T11:00:00Z", "2023-04-29T11:00:00Z", "2023-04-29T11:00:00Z", "2023-04-29T11:00:00Z", "2023-04-29T11:00:00Z", "2023-04-29T11:00:00Z", "2023-04-29T11:00:00Z", "2023-04-29T11:00:00Z", "2023-04-29T11:00:00Z", "2023-04-29T11:00:00Z", "2023-04-29T11:00:00Z", "2023-04-29T11:00:00Z", "2023-04-29T11:00:00Z", "2023-04-29T11:00:00Z", "2023-04-29T11:00:00Z", "2023-04-29T11:00:00Z", "2023-04-29T11:00:00Z", "2023-04-29T11:00:00Z", "2023-04-29T11:00:00Z", "2023-04-29T11:00:00Z", "2023-04-29T11:00:00Z", "2023-04-29T11:00:00Z", "2023-04-29T11:00:00Z", "2023-04-29T11:00:00Z", "2023-04-29T11:00:00Z", "2023-04-29T11:00:00Z", "2023-04-29T11:00:00Z", "2023-04-29T11:00:00Z", "2023-04-29T11:00:00Z", "2023-04-29T11:00:00Z", "2023-04-29T11:00:00Z", "2023-04-29T11:08:14Z", "2023-04-29T11:00:00Z", "2023-04-29T11:00:00Z", "2023-04-29T11:00:00Z", "2023-04-29T11:00:00Z", "2023-04-29T11:00:00Z", "2023-04-29T11:00:00Z", "2023-04-29T11:00:00Z", "2023-04-29T11:00:00Z", "2023-04-29T11:00:00Z", "2023-04-29T11:00:00Z", "2023-04-29T11:00:00Z", "2023-04-29T11:00:00Z", "2023-04-29T11:00:00Z", "2023-04-29T11:00:00Z", "2023-04-29T11:30:00Z", "2023-04-29T11:00:00Z", "2023-04-29T11:00:00Z", "2023-04-29T11:00:00Z", "2023-04-29T11:00:00Z", "2023-04-29T11:00:00Z", "2023-04-29T11:00:00Z", "2023-04-29T11:00:00Z", "2023-04-29T11:00:00Z", "2023-04-29T11:00:00Z", "2023-04-29T11:00:00Z", "2023-04-29T11:00:00Z", "2023-04-29T11:00:00Z", "2023-04-29T11:00:00Z", "2023-04-29T11:00:00Z", "2023-04-29T11:00:00Z", "2023-04-29T11:00:00Z", "2023-04-29T11:00:00Z", "2023-04-29T11:00:00Z", "2023-04-29T11:00:00Z", "2023-04-29T11:00:00Z", "2023-04-29T11:00:00Z", "2023-04-29T11:00:00Z", "2023-04-29T11:00:00Z", "2023-04-29T11:00:00Z", "2023-04-29T11:00:00Z", "2023-04-29T11:00:00Z", "2023-04-29T11:00:00Z", "2023-04-29T11:00:00Z", "2023-04-29T11:00:00Z", "2023-04-29T11:00:00Z", "2023-04-29T11:00:00Z", "2023-04-29T11:00:00Z", "2023-04-29T11:00:00Z", "2023-04-29T11:00:00Z", "2023-04-29T11:00:00Z", "2023-04-29T11:00:00Z", "2023-04-29T11:00:00Z", "2023-04-29T11:00:00Z", "2023-04-29T11:00:00Z", "2023-04-29T11:00:00Z", "2023-04-29T11:00:00Z", "2023-04-29T11:00:00Z", "2023-04-29T11:00:00Z", "2023-04-29T11:00:00Z", "2023-04-29T11:00:00Z", "2023-04-29T11:00:00Z", "2023-04-29T11:00:00Z", "2023-04-29T11:00:00Z", "2023-04-29T11:00:00Z", "2023-04-29T11:00:00Z", "2023-04-29T11:00:00Z", "2023-04-29T11:00:00Z", "2023-04-29T11:00:00Z", "2023-04-29T11:00:00Z", "2023-04-29T11:00:00Z", "2023-04-29T11:00:00Z", "2023-04-29T11:00:00Z", "2023-04-29T11:00:00Z", "2023-04-29T11:00:00Z", "2023-04-29T11:00:00Z", "2023-04-29T11:00:00Z", "2023-04-29T11:00:00Z", "2023-04-29T11:00:00Z", "2023-04-29T11:00:00Z", "2023-04-29T11:00:00Z", "2023-04-29T11:00:00Z", "2023-04-29T11:00:00Z", "2023-04-29T11:00:00Z", "2023-04-29T11:00:00Z", "2023-04-29T11:00:00Z", "2023-04-29T11:00:00Z", "2023-04-29T11:00:00Z", "2023-04-29T11:00:00Z", "2023-04-29T11:00:00Z", "2023-04-29T11:00:00Z", "2023-04-29T11:00:00Z", "2023-04-29T11:00:00Z", "2023-04-29T11:00:00Z", "2023-04-29T11:00:00Z", "2023-04-29T11:00:00Z", "2023-04-29T11:00:00Z", "2023-04-29T11:00:00Z", "2023-04-29T11:00:00Z", "2023-04-29T11:00:00Z", "2023-04-29T11:00:00Z", "2023-04-29T11:00:00Z", "2023-04-29T11:00:00Z", "2023-04-29T11:00:00Z", "2023-04-29T11:00:00Z", "2023-04-29T11:00:00Z", "2023-04-29T11:00:00Z", "2023-04-29T11:00:00Z", "2023-04-29T11:00:00Z", "2023-04-29T11:00:00Z", "2023-04-29T11:00:00Z", "2023-04-29T11:00:00Z", "2023-04-29T11:00:00Z", "2023-04-29T11:00:00Z", "2023-04-29T11:00:00Z", "2023-04-29T11:00:00Z", "2023-04-29T11:00:00Z", "2023-04-29T11:00:00Z", "2023-04-29T11:00:00Z", "2023-04-29T11:00:00Z", "2023-04-29T11:00:00Z", "2023-04-29T11:00:00Z", "2023-04-29T11:00:00Z", "2023-04-29T11:00:00Z", "2023-04-29T11:00:00Z", "2023-04-29T11:00:00Z", "2023-04-29T11:00:00Z", "2023-04-29T11:00:00Z", "2023-04-29T11:00:00Z", "2023-04-29T11:00:00Z", "2023-04-29T11:00:00Z", "2023-04-29T11:00:00Z", "2023-04-29T11:00:00Z", "2023-04-29T11:00:00Z", "2023-04-29T11:00:00Z", "2023-04-29T11:00:00Z", "2023-04-29T11:00:00Z", "2023-04-29T11:00:00Z", "2023-04-29T11:00:00Z", "2023-04-29T11:00:00Z", "2023-04-29T11:00:00Z", "2023-04-29T11:00:00Z", "2023-04-29T11:00:00Z", "2023-04-29T11:00:00Z", "2023-04-29T11:00:00Z", "2023-04-29T11:00:00Z", "2023-04-29T11:00:00Z", "2023-04-29T11:00:00Z", "2023-04-29T11:00:00Z", "2023-04-29T11:00:00Z", "2023-04-29T11:00:00Z", "2023-04-29T11:00:00Z", "2023-04-29T11:00:00Z", "2023-04-29T11:00:00Z", "2023-04-29T11:00:00Z", "2023-04-29T11:00:00Z", "2023-04-29T11:00:00Z", "2023-04-29T11:00:00Z", "2023-04-29T11:00:00Z", "2023-04-29T11:00:00Z", "2023-04-29T11:00:00Z", "2023-04-29T11:00:00Z", "2023-04-29T11:00:00Z", "2023-04-29T11:00:00Z", "2023-04-29T11:53:00Z", "2023-04-29T11:00:00Z", "2023-04-29T11:32:00Z", "2023-04-29T11:41:00Z", "2023-04-29T11:00:00Z", "2023-04-29T11:00:00Z", "2023-04-29T11:00:00Z", "2023-04-29T11:00:00Z", "2023-04-29T11:32:00Z", "2023-04-29T11:26:00Z", "2023-04-29T11:51:00Z", "2023-04-29T11:00:00Z", "2023-04-29T11:19:00Z", "2023-04-29T11:00:00Z", "2023-04-29T11:00:00Z", "2023-04-29T11:00:00Z", "2023-04-29T11:00:00Z", "2023-04-29T11:00:00Z", "2023-04-29T11:00:00Z", "2023-04-29T11:00:00Z", "2023-04-29T11:00:00Z", "2023-04-29T11:45:00Z", "2023-04-29T11:00:00Z", "2023-04-29T11:00:00Z", "2023-04-29T11:00:00Z", "2023-04-29T11:00:00Z", "2023-04-29T11:00:00Z", "2023-04-29T11:00:00Z", "2023-04-29T11:00:00Z", "2023-04-29T11:00:00Z", "2023-04-29T11:00:00Z", "2023-04-29T11:00:00Z", "2023-04-29T11:00:00Z", "2023-04-29T11:00:00Z", "2023-04-29T11:00:00Z", "2023-04-29T11:00:00Z", "2023-04-29T11:00:00Z", "2023-04-29T11:00:00Z", "2023-04-29T11:00:00Z", "2023-04-29T11:00:00Z", "2023-04-29T11:00:00Z", "2023-04-29T11:26:00Z", "2023-04-29T11:00:00Z", "2023-04-29T11:00:00Z", "2023-04-29T11:00:00Z", "2023-04-29T11:00:00Z", "2023-04-29T11:00:00Z", "2023-04-29T11:00:00Z", "2023-04-29T11:23:00Z", "2023-04-29T11:00:00Z", "2023-04-29T11:00:00Z", "2023-04-29T11:00:00Z", "2023-04-29T11:49:00Z", "2023-04-29T11:00:00Z", "2023-04-29T11:00:00Z", "2023-04-29T11:00:00Z", "2023-04-29T11:00:00Z", "2023-04-29T11:00:00Z", "2023-04-29T11:00:00Z", "2023-04-29T11:00:00Z", "2023-04-29T11:00:00Z", "2023-04-29T11:14:00Z", "2023-04-29T11:00:00Z", "2023-04-29T11:00:00Z", "2023-04-29T11:00:00Z", "2023-04-29T11:00:00Z", "2023-04-29T11:00:00Z", "2023-04-29T11:00:00Z", "2023-04-29T11:00:00Z", "2023-04-29T11:00:00Z", "2023-04-29T11:52:00Z", "2023-04-29T11:00:00Z", "2023-04-29T11:00:00Z", "2023-04-29T11:00:00Z", "2023-04-29T11:00:00Z", "2023-04-29T11:48:00Z", "2023-04-29T11:00:00Z", "2023-04-29T11:00:00Z", "2023-04-29T11:07:00Z", "2023-04-29T11:00:00Z", "2023-04-29T11:03:00Z", "2023-04-29T11:00:00Z", "2023-04-29T11:00:00Z", "2023-04-29T11:00:00Z", "2023-04-29T11:15:00Z", "2023-04-29T11:00:00Z", "2023-04-29T11:32:00Z", "2023-04-29T11:00:00Z", "2023-04-29T11:00:00Z", "2023-04-29T11:00:00Z", "2023-04-29T11:00:00Z", "2023-04-29T11:24:00Z", "2023-04-29T11:00:00Z", "2023-04-29T11:00:00Z", "2023-04-29T11:34:00Z", "2023-04-29T11:00:00Z", "2023-04-29T11:00:00Z", "2023-04-29T11:00:00Z", "2023-04-29T11:47:00Z", "2023-04-29T11:00:00Z", "2023-04-29T11:00:00Z", "2023-04-29T11:00:00Z", "2023-04-29T11:00:00Z", "2023-04-29T11:00:00Z", "2023-04-29T11:00:00Z", "2023-04-29T11:00:00Z", "2023-04-29T11:00:00Z", "2023-04-29T11:00:00Z", "2023-04-29T11:00:00Z", "2023-04-29T11:00:00Z", "2023-04-29T11:00:00Z", "2023-04-29T11:00:00Z", "2023-04-29T11:00:00Z", "2023-04-29T11:00:00Z", "2023-04-29T11:00:00Z", "2023-04-29T11:00:00Z", "2023-04-29T11:23:00Z", "2023-04-29T11:00:00Z", "2023-04-29T11:14:00Z", "2023-04-29T11:00:00Z", "2023-04-29T11:00:00Z", "2023-04-29T11:00:00Z", "2023-04-29T11:00:00Z", "2023-04-29T11:00:00Z", "2023-04-29T11:00:00Z", "2023-04-29T11:00:00Z", "2023-04-29T11:00:00Z", "2023-04-29T11:15:00Z", "2023-04-29T11:00:00Z", "2023-04-29T11:00:00Z", "2023-04-29T11:00:00Z", "2023-04-29T11:00:00Z", "2023-04-29T11:00:00Z", "2023-04-29T11:00:00Z", "2023-04-29T11:00:00Z", "2023-04-29T11:00:00Z", "2023-04-29T11:00:00Z", "2023-04-29T11:00:00Z", "2023-04-29T11:00:00Z", "2023-04-29T11:00:00Z", "2023-04-29T11:33:00Z", "2023-04-29T11:18:00Z", "2023-04-29T11:15:00Z", "2023-04-29T11:00:00Z", "2023-04-29T11:52:00Z", "2023-04-29T11:00:00Z", "2023-04-29T11:00:00Z", "2023-04-29T11:00:00Z", "2023-04-29T11:57:00Z", "2023-04-29T11:00:00Z", "2023-04-29T11:00:00Z", "2023-04-29T11:00:00Z", "2023-04-29T11:00:00Z", "2023-04-29T11:25:00Z", "2023-04-29T11:00:00Z", "2023-04-29T11:00:00Z", "2023-04-29T11:46:00Z", "2023-04-29T11:00:00Z", "2023-04-29T11:00:00Z", "2023-04-29T11:00:00Z", "2023-04-29T11:25:00Z", "2023-04-29T11:00:00Z", "2023-04-29T11:00:00Z", "2023-04-29T11:35:00Z", "2023-04-29T11:48:00Z", "2023-04-29T11:00:00Z", "2023-04-29T11:00:00Z", "2023-04-29T11:00:00Z", "2023-04-29T11:00:00Z", "2023-04-29T11:00:00Z", "2023-04-29T11:00:00Z", "2023-04-29T11:00:00Z", "2023-04-29T11:00:00Z", "2023-04-29T11:00:00Z", "2023-04-29T11:52:00Z", "2023-04-29T11:00:00Z", "2023-04-29T11:00:00Z", "2023-04-29T11:00:00Z", "2023-04-29T11:00:00Z", "2023-04-29T11:00:00Z", "2023-04-29T11:00:00Z", "2023-04-29T11:00:00Z", "2023-04-29T11:00:00Z", "2023-04-29T11:00:00Z", "2023-04-29T11:00:00Z", "2023-04-29T11:00:00Z", "2023-04-29T11:00:00Z", "2023-04-29T11:00:00Z", "2023-04-29T11:00:00Z", "2023-04-29T11:00:00Z", "2023-04-29T11:00:00Z", "2023-04-29T11:00:00Z", "2023-04-29T11:00:00Z", "2023-04-29T11:00:00Z", "2023-04-29T11:00:00Z", "2023-04-29T11:00:00Z", "2023-04-29T11:00:00Z", "2023-04-29T11:30:00Z", "2023-04-29T11:00:00Z", "2023-04-29T11:00:00Z", "2023-04-29T11:00:00Z", "2023-04-29T11:30:00Z", "2023-04-29T11:00:00Z", "2023-04-29T11:00:00Z", "2023-04-29T11:30:00Z", "2023-04-29T11:30:00Z", "2023-04-29T11:00:00Z", "2023-04-29T11:00:00Z", "2023-04-29T11:00:00Z", "2023-04-29T11:00:00Z", "2023-04-29T11:00:00Z", "2023-04-29T11:00:00Z", "2023-04-29T11:00:00Z", "2023-04-29T11:30:00Z", "2023-04-29T11:30:00Z", "2023-04-29T11:00:00Z", "2023-04-29T11:00:00Z", "2023-04-29T11:00:00Z", "2023-04-29T11:00:00Z", "2023-04-29T11:00:00Z", "2023-04-29T11:00:00Z", "2023-04-29T11:00:00Z", "2023-04-29T11:00:00Z", "2023-04-29T11:00:00Z", "2023-04-29T11:00:00Z", "2023-04-29T11:00:00Z", "2023-04-29T12:00:00Z", "2023-04-29T11:00:00Z", "2023-04-29T11:00:00Z", "2023-04-29T11:00:00Z", "2023-04-29T11:00:00Z", "2023-04-29T11:00:00Z", "2023-04-29T11:00:00Z", "2023-04-29T11:00:00Z", "2023-04-29T11:00:00Z", "2023-04-29T11:00:00Z", "2023-04-29T11:00:00Z", "2023-04-29T11:00:00Z", "2023-04-29T11:00:00Z", "2023-04-29T11:00:00Z", "2023-04-29T11:00:00Z", "2023-04-29T11:00:00Z", "2023-04-29T11:00:00Z", "2023-04-29T11:00:00Z", "2023-04-29T11:00:00Z", "2023-04-29T11:00:00Z", "2023-04-29T11:00:00Z", "2023-04-29T11:00:00Z", "2023-04-29T11:00:00Z", "2023-04-29T11:00:00Z", "2023-04-29T11:00:00Z", "2023-04-29T11:30:00Z", "2023-04-29T11:30:00Z", "2023-04-29T11:30:00Z", "2023-04-29T11:00:00Z", "2023-04-29T11:00:00Z", "2023-04-29T11:00:00Z", "2023-04-29T11:00:00Z", "2023-04-29T11:30:00Z", "2023-04-29T11:00:00Z", "2023-04-29T11:00:00Z", "2023-04-29T11:00:00Z", "2023-04-29T11:00:00Z", "2023-04-29T11:00:00Z", "2023-04-29T11:00:00Z", "2023-04-29T11:00:00Z", "2023-04-29T11:00:00Z", "2023-04-29T11:50:00Z", "2023-04-29T11:25:00Z", "2023-04-29T11:43:00Z", "2023-04-29T11:50:00Z", "2023-04-29T11:50:00Z", "2023-04-29T11:33:00Z", "2023-04-29T11:46:00Z", "2023-04-29T11:25:00Z", "2023-04-29T11:25:00Z", "2023-04-29T11:49:00Z", "2023-04-29T11:50:00Z", "2023-04-29T11:50:00Z", "2023-04-29T11:50:00Z", "2023-04-29T11:50:00Z", "2023-04-29T11:50:00Z", "2023-04-29T11:50:00Z", "2023-04-29T11:50:00Z", "2023-04-29T11:50:00Z", "2023-04-29T11:50:00Z", "2023-04-29T11:50:00Z", "2023-04-29T11:50:00Z", "2023-04-29T11:50:00Z", "2023-04-29T11:50:00Z", "2023-04-29T11:50:00Z", "2023-04-29T11:50:00Z", "2023-04-29T11:50:00Z", "2023-04-29T11:50:00Z", "2023-04-29T11:50:00Z", "2023-04-29T11:50:00Z", "2023-04-29T11:50:00Z", "2023-04-29T11:50:00Z", "2023-04-29T11:50:00Z", "2023-04-29T11:50:00Z", "2023-04-29T11:50:00Z", "2023-04-29T11:50:00Z", "2023-04-29T11:50:00Z", "2023-04-29T11:50:00Z", "2023-04-29T11:50:00Z", "2023-04-29T11:50:00Z", "2023-04-29T11:50:00Z", "2023-04-29T11:50:00Z", "2023-04-29T11:50:00Z", "2023-04-29T11:50:00Z", "2023-04-29T11:50:00Z", "2023-04-29T11:50:00Z", "2023-04-29T11:50:00Z", "2023-04-29T11:50:00Z", "2023-04-29T11:50:00Z", "2023-04-29T11:50:00Z", "2023-04-29T11:20:00Z", "2023-04-29T11:50:00Z", "2023-04-29T11:50:00Z", "2023-04-29T11:50:00Z", "2023-04-29T11:50:00Z", "2023-04-29T11:50:00Z", "2023-04-29T11:50:00Z", "2023-04-29T11:50:00Z", "2023-04-29T11:50:00Z", "2023-04-29T11:50:00Z", "2023-04-29T11:50:00Z", "2023-04-29T11:50:00Z", "2023-04-29T11:50:00Z", "2023-04-29T11:50:00Z", "2023-04-29T11:50:00Z", "2023-04-29T11:50:00Z", "2023-04-29T11:50:00Z", "2023-04-29T11:50:00Z", "2023-04-29T11:50:00Z", "2023-04-29T11:50:00Z", "2023-04-29T11:50:00Z", "2023-04-29T11:50:00Z", "2023-04-29T11:50:00Z", "2023-04-29T11:50:00Z", "2023-04-29T11:50:00Z", "2023-04-29T11:50:00Z", "2023-04-29T11:50:00Z", "2023-04-29T11:50:00Z", "2023-04-29T11:50:00Z", "2023-04-29T11:50:00Z", "2023-04-29T11:50:00Z", "2023-04-29T11:50:00Z", "2023-04-29T11:50:00Z", "2023-04-29T11:50:00Z", "2023-04-29T11:50:00Z", "2023-04-29T11:20:00Z", "2023-04-29T11:50:00Z", "2023-04-29T11:50:00Z", "2023-04-29T11:20:00Z", "2023-04-29T11:50:00Z", "2023-04-29T11:20:00Z", "2023-04-29T11:50:00Z", "2023-04-29T11:50:00Z", "2023-04-29T11:50:00Z", "2023-04-29T11:50:00Z", "2023-04-29T11:50:00Z", "2023-04-29T11:50:00Z", "2023-04-29T11:50:00Z", "2023-04-29T11:50:00Z", "2023-04-29T11:50:00Z", "2023-04-29T11:50:00Z", "2023-04-29T11:50:00Z", "2023-04-29T11:50:00Z", "2023-04-29T11:50:00Z", "2023-04-29T11:50:00Z", "2023-04-29T11:20:00Z", "2023-04-29T11:50:00Z", "2023-04-29T11:50:00Z", "2023-04-29T11:50:00Z", "2023-04-29T11:50:00Z", "2023-04-29T11:50:00Z", "2023-04-29T11:50:00Z", "2023-04-29T11:50:00Z", "2023-04-29T11:50:00Z", "2023-04-29T11:50:00Z", "2023-04-29T11:50:00Z", "2023-04-29T11:50:00Z", "2023-04-29T11:50:00Z", "2023-04-29T11:20:00Z", "2023-04-29T11:50:00Z", "2023-04-29T11:50:00Z", "2023-04-29T11:20:00Z", "2023-04-29T11:20:00Z", "2023-04-29T11:20:00Z", "2023-04-29T11:20:00Z", "2023-04-29T11:50:00Z", "2023-04-29T11:50:00Z", "2023-04-29T11:50:00Z", "2023-04-29T11:50:00Z", "2023-04-29T11:50:00Z", "2023-04-29T11:50:00Z", "2023-04-29T11:50:00Z", "2023-04-29T11:50:00Z", "2023-04-29T11:50:00Z", "2023-04-29T11:50:00Z", "2023-04-29T11:50:00Z", "2023-04-29T11:50:00Z", "2023-04-29T11:50:00Z", "2023-04-29T11:20:00Z", "2023-04-29T11:20:00Z", "2023-04-29T11:50:00Z", "2023-04-29T11:20:00Z", "2023-04-29T11:50:00Z", "2023-04-29T11:50:00Z", "2023-04-29T11:50:00Z", "2023-04-29T11:50:00Z", "2023-04-29T11:50:00Z", "2023-04-29T11:50:00Z", "2023-04-29T11:50:00Z", "2023-04-29T11:20:00Z", "2023-04-29T11:55:00Z", "2023-04-29T11:55:00Z", "2023-04-29T11:20:00Z", "2023-04-29T10:57:00Z", "2023-04-29T11:50:00Z", "2023-04-29T11:20:00Z", "2023-04-29T11:20:00Z", "2023-04-29T11:50:00Z", "2023-04-29T11:20:00Z", "2023-04-29T11:50:00Z", "2023-04-29T11:20:00Z", "2023-04-29T11:20:00Z", "2023-04-29T11:20:00Z", "2023-04-29T11:20:00Z", "2023-04-29T11:20:00Z", "2023-04-29T11:20:00Z", "2023-04-29T11:20:00Z", "2023-04-29T11:20:00Z", "2023-04-29T11:20:00Z", "2023-04-29T11:50:00Z", "2023-04-29T11:55:00Z", "2023-04-29T11:55:00Z", "2023-04-29T11:55:00Z", "2023-04-29T11:55:00Z", "2023-04-29T11:55:00Z", "2023-04-29T11:55:00Z", "2023-04-29T11:55:00Z", "2023-04-29T11:25:00Z", "2023-04-29T11:55:00Z", "2023-04-29T11:55:00Z", "2023-04-29T11:55:00Z", "2023-04-29T11:55:00Z", "2023-04-29T11:55:00Z", "2023-04-29T11:55:00Z", "2023-04-29T11:55:00Z", "2023-04-29T11:55:00Z", "2023-04-29T11:55:00Z", "2023-04-29T11:55:00Z", "2023-04-29T11:55:00Z", "2023-04-29T11:55:00Z", "2023-04-29T11:55:00Z", "2023-04-29T11:55:00Z", "2023-04-29T11:55:00Z", "2023-04-29T11:55:00Z", "2023-04-29T11:55:00Z", "2023-04-29T11:55:00Z", "2023-04-29T11:30:00Z", "2023-04-29T11:30:00Z", "2023-04-29T11:30:00Z", "2023-04-29T11:30:00Z", "2023-04-29T11:30:00Z", "2023-04-29T11:00:00Z", "2023-04-29T11:30:00Z", "2023-04-29T11:30:00Z", "2023-04-29T11:30:00Z", "2023-04-29T11:50:00Z", "2023-04-29T11:50:00Z", "2023-04-29T11:50:00Z", "2023-04-29T11:50:00Z", "2023-04-29T11:50:00Z", "2023-04-29T10:50:00Z", "2023-04-29T11:50:00Z", "2023-04-29T11:50:00Z", "2023-04-29T11:50:00Z", "2023-04-29T11:50:00Z", "2023-04-29T11:50:00Z", "2023-04-29T11:50:00Z", "2023-04-29T11:50:00Z", "2023-04-29T11:50:00Z", "2023-04-29T11:50:00Z", "2023-04-29T11:50:00Z", "2023-04-29T11:50:00Z", "2023-04-29T11:50:00Z", "2023-04-29T11:50:00Z", "2023-04-29T11:50:00Z", "2023-04-29T11:50:00Z", "2023-04-29T11:50:00Z", "2023-04-29T11:50:00Z", "2023-04-29T11:50:00Z", "2023-04-29T11:50:00Z", "2023-04-29T11:50:00Z", "2023-04-29T11:50:00Z", "2023-04-29T11:50:00Z", "2023-04-29T11:50:00Z", "2023-04-29T11:50:00Z", "2023-04-29T11:50:00Z", "2023-04-29T11:50:00Z", "2023-04-29T11:50:00Z", "2023-04-29T11:50:00Z", "2023-04-29T11:50:00Z", "2023-04-29T11:50:00Z", "2023-04-29T11:50:00Z", "2023-04-29T11:50:00Z", "2023-04-29T11:50:00Z", "2023-04-29T11:50:00Z", "2023-04-29T11:50:00Z", "2023-04-29T11:50:00Z", "2023-04-29T11:50:00Z", "2023-04-29T11:50:00Z", "2023-04-29T11:50:00Z", "2023-04-29T11:50:00Z", "2023-04-29T11:50:00Z", "2023-04-29T11:50:00Z", "2023-04-29T11:50:00Z", "2023-04-29T11:50:00Z", "2023-04-29T11:50:00Z", "2023-04-29T11:20:00Z", "2023-04-29T11:50:00Z", "2023-04-29T11:50:00Z", "2023-04-29T11:50:00Z", "2023-04-29T11:50:00Z", "2023-04-29T11:50:00Z", "2023-04-29T11:50:00Z", "2023-04-29T11:50:00Z", "2023-04-29T11:50:00Z", "2023-04-29T11:50:00Z", "2023-04-29T11:50:00Z", "2023-04-29T11:50:00Z", "2023-04-29T11:50:00Z", "2023-04-29T11:50:00Z", "2023-04-29T11:50:00Z", "2023-04-29T11:50:00Z", "2023-04-29T11:50:00Z", "2023-04-29T11:50:00Z", "2023-04-29T11:50:00Z", "2023-04-29T11:50:00Z", "2023-04-29T11:50:00Z", "2023-04-29T11:50:00Z", "2023-04-29T11:50:00Z", "2023-04-29T11:50:00Z", "2023-04-29T11:50:00Z", "2023-04-29T11:50:00Z", "2023-04-29T11:50:00Z", "2023-04-29T11:50:00Z", "2023-04-29T11:50:00Z", "2023-04-29T11:50:00Z", "2023-04-29T11:30:00Z", "2023-04-29T11:30:00Z", "2023-04-29T11:30:00Z", "2023-04-29T11:30:00Z", "2023-04-29T11:30:00Z", "2023-04-29T11:30:00Z", "2023-04-29T11:30:00Z", "2023-04-29T11:30:00Z", "2023-04-29T11:30:00Z", "2023-04-29T11:30:00Z", "2023-04-29T11:30:00Z", "2023-04-29T11:30:00Z", "2023-04-29T11:30:00Z", "2023-04-29T11:30:00Z", "2023-04-29T11:30:00Z", "2023-04-29T11:50:00Z", "2023-04-29T11:50:00Z", "2023-04-29T11:50:00Z", "2023-04-29T11:50:00Z", "2023-04-29T11:50:00Z", "2023-04-29T11:50:00Z", "2023-04-29T11:50:00Z", "2023-04-29T11:50:00Z", "2023-04-29T11:50:00Z", "2023-04-29T11:50:00Z", "2023-04-29T11:50:00Z", "2023-04-29T11:50:00Z", "2023-04-29T11:50:00Z", "2023-04-29T11:50:00Z", "2023-04-29T11:50:00Z", "2023-04-29T11:50:00Z", "2023-04-29T11:50:00Z", "2023-04-29T11:50:00Z", "2023-04-29T11:50:00Z", "2023-04-29T11:50:00Z", "2023-04-29T11:50:00Z", "2023-04-29T11:50:00Z", "2023-04-29T11:50:00Z", "2023-04-29T11:50:00Z", "2023-04-29T11:50:00Z", "2023-04-29T11:50:00Z", "2023-04-29T11:50:00Z", "2023-04-29T11:50:00Z", "2023-04-29T11:50:00Z", "2023-04-29T11:50:00Z", "2023-04-29T11:50:00Z", "2023-04-29T11:50:00Z", "2023-04-29T11:50:00Z", "2023-04-29T11:50:00Z", "2023-04-29T11:50:00Z", "2023-04-29T11:50:00Z", "2023-04-29T11:50:00Z", "2023-04-29T11:50:00Z", "2023-04-29T11:50:00Z", "2023-04-29T11:50:00Z", "2023-04-29T11:50:00Z", "2023-04-29T11:50:00Z", "2023-04-29T11:50:00Z", "2023-04-29T11:50:00Z", "2023-04-29T11:50:00Z", "2023-04-29T11:50:00Z", "2023-04-29T11:55:00Z", "2023-04-29T11:55:00Z", "2023-04-29T11:55:00Z", "2023-04-29T11:20:00Z", "2023-04-29T11:20:00Z", "2023-04-29T11:20:00Z", "2023-04-29T11:20:00Z", "2023-04-29T11:20:00Z", "2023-04-29T11:20:00Z", "2023-04-29T11:20:00Z", "2023-04-29T11:20:00Z", "2023-04-29T11:56:00Z", "2023-04-29T11:55:00Z", "2023-04-29T11:55:00Z", "2023-04-29T11:20:00Z", "2023-04-29T11:20:00Z", "2023-04-29T11:20:00Z", "2023-04-29T11:20:00Z", "2023-04-29T11:20:00Z", "2023-04-29T11:20:00Z", "2023-04-29T11:20:00Z", "2023-04-29T11:55:00Z", "2023-04-29T11:20:00Z", "2023-04-29T11:20:00Z", "2023-04-29T11:20:00Z", "2023-04-29T11:20:00Z", "2023-04-29T11:20:00Z", "2023-04-29T11:20:00Z", "2023-04-29T11:50:00Z", "2023-04-29T11:50:00Z", "2023-04-29T11:50:00Z", "2023-04-29T11:50:00Z", "2023-04-29T11:50:00Z", "2023-04-29T11:50:00Z", "2023-04-29T11:50:00Z", "2023-04-29T11:50:00Z", "2023-04-29T11:00:00Z", "2023-04-29T11:00:00Z", "2023-04-29T11:00:00Z", "2023-04-29T11:00:00Z", "2023-04-29T11:00:00Z", "2023-04-29T11:00:00Z", "2023-04-29T11:00:00Z", "2023-04-29T11:00:00Z", "2023-04-29T11:00:00Z", "2023-04-29T11:00:00Z", "2023-04-29T11:00:00Z", "2023-04-29T11:00:00Z", "2023-04-29T12:00:00Z", "2023-04-29T11:00:00Z", "2023-04-29T11:00:00Z", "2023-04-29T11:00:00Z", "2023-04-29T11:00:00Z", "2023-04-29T11:00:00Z", "2023-04-29T11:00:00Z", "2023-04-29T11:00:00Z", "2023-04-29T11:00:00Z", "2023-04-29T11:00:00Z", "2023-04-29T11:00:00Z", "2023-04-29T11:00:00Z", "2023-04-29T11:00:00Z", "2023-04-29T11:00:00Z", "2023-04-29T11:00:00Z", "2023-04-29T11:00:00Z", "2023-04-29T11:00:00Z", "2023-04-29T12:00:00Z", "2023-04-29T11:00:00Z", "2023-04-29T11:00:00Z", "2023-04-29T11:00:00Z", "2023-04-29T11:50:00Z", "2023-04-29T12:00:00Z", "2023-04-29T11:55:00Z", "2023-04-29T11:00:00Z", "2023-04-29T11:00:00Z", "2023-04-29T11:00:00Z", "2023-04-29T11:00:00Z", "2023-04-29T11:00:00Z", "2023-04-29T11:30:00Z", "2023-04-29T11:30:00Z", "2023-04-29T11:30:00Z", "2023-04-29T12:00:00Z", "2023-04-29T11:00:00Z", "2023-04-29T11:00:00Z", "2023-04-29T11:00:00Z", "2023-04-29T11:00:00Z", "2023-04-29T11:00:00Z", "2023-04-29T11:00:00Z", "2023-04-29T11:00:00Z", "2023-04-29T11:00:00Z", "2023-04-29T11:00:00Z", "2023-04-29T11:00:00Z", "2023-04-29T11:00:00Z", "2023-04-29T11:00:00Z", "2023-04-29T11:00:00Z", "2023-04-29T11:00:00Z", "2023-04-29T11:00:00Z", "2023-04-29T11:30:00Z", "2023-04-29T11:00:00Z", "2023-04-29T11:00:00Z", "2023-04-29T11:00:00Z", "2023-04-29T12:00:00Z", "2023-04-29T12:00:00Z", "2023-04-29T11:00:00Z", "2023-04-29T12:00:00Z", "2023-04-29T12:00:00Z", "2023-04-29T11:00:00Z", "2023-04-29T11:00:00Z", "2023-04-29T11:00:00Z", "2023-04-29T12:00:00Z", "2023-04-29T12:00:00Z", "2023-04-29T11:00:00Z", "2023-04-29T11:00:00Z", "2023-04-29T11:00:00Z", "2023-04-29T11:00:00Z", "2023-04-29T11:00:00Z", "2023-04-29T11:00:00Z", "2023-04-29T11:00:00Z", "2023-04-29T11:00:00Z", "2023-04-29T11:00:00Z", "2023-04-29T11:00:00Z", "2023-04-29T11:00:00Z", "2023-04-29T11:00:00Z", "2023-04-29T11:00:00Z", "2023-04-29T11:00:00Z", "2023-04-29T11:30:00Z", "2023-04-29T11:00:00Z", "2023-04-29T11:00:00Z", "2023-04-29T11:30:00Z", "2023-04-29T11:30:00Z", "2023-04-29T11:30:00Z", "2023-04-29T11:30:00Z", "2023-04-29T11:30:00Z", "2023-04-29T11:30:00Z", "2023-04-29T11:30:00Z", "2023-04-29T11:30:00Z", "2023-04-29T11:30:00Z", "2023-04-29T11:30:00Z", "2023-04-29T11:00:00Z", "2023-04-29T11:30:00Z", "2023-04-29T11:30:00Z", "2023-04-29T11:00:00Z", "2023-04-29T11:00:00Z", "2023-04-29T11:00:00Z", "2023-04-29T11:30:00Z", "2023-04-29T11:00:00Z", "2023-04-29T11:00:00Z", "2023-04-29T11:30:00Z", "2023-04-29T11:00:00Z", "2023-04-29T11:00:00Z", "2023-04-29T11:00:00Z", "2023-04-29T11:30:00Z", "2023-04-29T11:00:00Z", "2023-04-29T11:00:00Z", "2023-04-29T11:00:00Z", "2023-04-29T11:30:00Z", "2023-04-29T11:00:00Z", "2023-04-29T11:30:00Z", "2023-04-29T11:00:00Z", "2023-04-29T11:00:00Z", "2023-04-29T11:00:00Z", "2023-04-29T11:30:00Z", "2023-04-29T11:30:00Z", "2023-04-29T11:00:00Z", "2023-04-29T11:00:00Z", "2023-04-29T11:00:00Z", "2023-04-29T11:00:00Z", "2023-04-29T11:00:00Z", "2023-04-29T11:00:00Z", "2023-04-29T11:00:00Z", "2023-04-29T11:00:00Z", "2023-04-29T11:00:00Z", "2023-04-29T11:30:00Z", "2023-04-29T11:30:00Z", "2023-04-29T12:00:00Z", "2023-04-29T11:00:00Z", "2023-04-29T12:00:00Z", "2023-04-29T12:00:00Z", "2023-04-29T12:00:00Z", "2023-04-29T12:00:00Z", "2023-04-29T11:00:00Z", "2023-04-29T11:00:00Z", "2023-04-29T11:00:00Z", "2023-04-29T11:00:00Z", "2023-04-29T11:00:00Z", "2023-04-29T11:00:00Z", "2023-04-29T11:00:00Z", "2023-04-29T11:00:00Z", "2023-04-29T11:30:00Z", "2023-04-29T11:00:00Z", "2023-04-29T11:00:00Z", "2023-04-29T11:00:00Z", "2023-04-29T11:00:00Z", "2023-04-29T11:00:00Z", "2023-04-29T11:00:00Z", "2023-04-29T11:00:00Z", "2023-04-29T11:00:00Z", "2023-04-29T11:00:00Z", "2023-04-29T11:00:00Z", "2023-04-29T11:00:00Z", "2023-04-29T11:00:00Z", "2023-04-29T11:00:00Z", "2023-04-29T11:00:00Z", "2023-04-29T11:30:00Z", "2023-04-29T11:00:00Z", "2023-04-29T11:00:00Z", "2023-04-29T11:00:00Z", "2023-04-29T11:00:00Z", "2023-04-29T11:00:00Z", "2023-04-29T11:00:00Z", "2023-04-29T11:00:00Z", "2023-04-29T11:00:00Z", "2023-04-29T11:00:00Z", "2023-04-29T11:00:00Z", "2023-04-29T11:30:00Z", "2023-04-29T11:00:00Z", "2023-04-29T11:00:00Z", "2023-04-29T11:00:00Z", "2023-04-29T11:00:00Z", "2023-04-29T11:00:00Z", "2023-04-29T11:00:00Z", "2023-04-29T11:00:00Z", "2023-04-29T11:00:00Z", "2023-04-29T11:00:00Z", "2023-04-29T11:00:00Z", "2023-04-29T11:00:00Z", "2023-04-29T11:00:00Z", "2023-04-29T11:00:00Z", "2023-04-29T11:00:00Z", "2023-04-29T11:00:00Z", "2023-04-29T11:00:00Z", "2023-04-29T11:00:00Z", "2023-04-29T11:00:00Z", "2023-04-29T11:30:00Z", "2023-04-29T11:55:00Z", "2023-04-29T10:59:00Z", "2023-04-29T11:50:00Z", "2023-04-29T11:55:00Z", "2023-04-29T11:55:00Z", "2023-04-29T11:55:00Z", "2023-04-29T11:55:00Z", "2023-04-29T11:55:00Z", "2023-04-29T11:55:00Z", "2023-04-29T11:55:00Z", "2023-04-29T11:55:00Z", "2023-04-29T11:58:00Z", "2023-04-29T11:55:00Z", "2023-04-29T10:55:00Z", "2023-04-29T11:55:00Z", "2023-04-29T11:55:00Z", "2023-04-29T11:55:00Z", "2023-04-29T11:54:00Z", "2023-04-29T11:55:00Z", "2023-04-29T11:55:00Z", "2023-04-29T11:55:00Z", "2023-04-29T11:55:00Z", "2023-04-29T11:35:00Z", "2023-04-29T11:55:00Z", "2023-04-29T11:35:00Z", "2023-04-29T11:50:00Z", "2023-04-29T11:55:00Z", "2023-04-29T11:55:00Z", "2023-04-29T11:55:00Z", "2023-04-29T11:55:00Z", "2023-04-29T11:55:00Z", "2023-04-29T11:55:00Z", "2023-04-29T11:55:00Z", "2023-04-29T11:55:00Z", "2023-04-29T11:55:00Z", "2023-04-29T11:55:00Z", "2023-04-29T11:55:00Z", "2023-04-29T11:55:00Z", "2023-04-29T11:55:00Z", "2023-04-29T11:55:00Z", "2023-04-29T11:55:00Z", "2023-04-29T11:55:00Z", "2023-04-29T11:55:00Z", "2023-04-29T11:55:00Z", "2023-04-29T11:55:00Z", "2023-04-29T11:55:00Z", "2023-04-29T11:55:00Z", "2023-04-29T11:55:00Z", "2023-04-29T11:55:00Z", "2023-04-29T11:55:00Z", "2023-04-29T11:55:00Z", "2023-04-29T11:55:00Z", "2023-04-29T11:55:00Z", "2023-04-29T11:55:00Z", "2023-04-29T11:55:00Z", "2023-04-29T11:55:00Z", "2023-04-29T11:55:00Z", "2023-04-29T11:56:00Z", "2023-04-29T11:55:00Z", "2023-04-29T11:55:00Z", "2023-04-29T11:55:00Z", "2023-04-29T11:55:00Z", "2023-04-29T11:55:00Z", "2023-04-29T11:55:00Z", "2023-04-29T11:55:00Z", "2023-04-29T11:55:00Z", "2023-04-29T11:55:00Z", "2023-04-29T11:55:00Z", "2023-04-29T11:55:00Z", "2023-04-29T11:54:00Z", "2023-04-29T11:55:00Z", "2023-04-29T11:55:00Z", "2023-04-29T11:55:00Z", "2023-04-29T11:55:00Z", "2023-04-29T11:55:00Z", "2023-04-29T11:55:00Z", "2023-04-29T11:45:00Z", "2023-04-29T11:55:00Z", "2023-04-29T11:55:00Z", "2023-04-29T11:55:00Z", "2023-04-29T11:55:00Z", "2023-04-29T11:55:00Z", "2023-04-29T11:55:00Z", "2023-04-29T11:55:00Z", "2023-04-29T11:55:00Z", "2023-04-29T11:55:00Z", "2023-04-29T11:55:00Z", "2023-04-29T11:35:00Z", "2023-04-29T11:35:00Z", "2023-04-29T11:55:00Z", "2023-04-29T11:55:00Z", "2023-04-29T11:55:00Z", "2023-04-29T11:55:00Z", "2023-04-29T11:55:00Z", "2023-04-29T11:39:00Z", "2023-04-29T11:49:00Z", "2023-04-29T11:56:00Z", "2023-04-29T11:55:00Z", "2023-04-29T11:55:00Z", "2023-04-29T11:55:00Z", "2023-04-29T12:00:00Z", "2023-04-29T11:55:00Z", "2023-04-29T11:55:00Z", "2023-04-29T11:55:00Z", "2023-04-29T11:55:00Z", "2023-04-29T11:55:00Z", "2023-04-29T11:55:00Z", "2023-04-29T11:55:00Z", "2023-04-29T11:55:00Z", "2023-04-29T11:55:00Z", "2023-04-29T12:00:00Z", "2023-04-29T11:16:00Z", "2023-04-29T11:55:00Z", "2023-04-29T11:55:00Z", "2023-04-29T11:55:00Z", "2023-04-29T11:55:00Z", "2023-04-29T11:55:00Z", "2023-04-29T11:55:00Z", "2023-04-29T11:55:00Z", "2023-04-29T11:55:00Z", "2023-04-29T11:55:00Z", "2023-04-29T11:55:00Z", "2023-04-29T11:55:00Z", "2023-04-29T11:55:00Z", "2023-04-29T11:55:00Z", "2023-04-29T11:55:00Z", "2023-04-29T11:55:00Z", "2023-04-29T11:55:00Z", "2023-04-29T11:55:00Z", "2023-04-29T11:55:00Z", "2023-04-29T11:55:00Z", "2023-04-29T11:55:00Z", "2023-04-29T11:55:00Z", "2023-04-29T11:55:00Z", "2023-04-29T11:35:00Z", "2023-04-29T11:55:00Z", "2023-04-29T11:55:00Z", "2023-04-29T11:55:00Z", "2023-04-29T11:55:00Z", "2023-04-29T11:55:00Z", "2023-04-29T11:55:00Z", "2023-04-29T11:55:00Z", "2023-04-29T11:55:00Z", "2023-04-29T11:55:00Z", "2023-04-29T11:55:00Z", "2023-04-29T11:55:00Z", "2023-04-29T11:55:00Z", "2023-04-29T11:55:00Z", "2023-04-29T11:55:00Z", "2023-04-29T11:35:00Z", "2023-04-29T11:55:00Z", "2023-04-29T11:35:00Z", "2023-04-29T11:55:00Z", "2023-04-29T11:51:00Z", "2023-04-29T11:55:00Z", "2023-04-29T11:55:00Z", "2023-04-29T11:55:00Z", "2023-04-29T11:55:00Z", "2023-04-29T11:56:00Z", "2023-04-29T11:35:00Z", "2023-04-29T11:55:00Z", "2023-04-29T11:55:00Z", "2023-04-29T11:55:00Z", "2023-04-29T11:55:00Z", "2023-04-29T11:35:00Z", "2023-04-29T11:55:00Z", "2023-04-29T11:55:00Z", "2023-04-29T10:56:00Z", "2023-04-29T11:55:00Z", "2023-04-29T11:55:00Z", "2023-04-29T11:55:00Z", "2023-04-29T11:55:00Z", "2023-04-29T11:55:00Z", "2023-04-29T11:55:00Z", "2023-04-29T11:55:00Z", "2023-04-29T11:55:00Z", "2023-04-29T11:55:00Z", "2023-04-29T11:55:00Z", "2023-04-29T11:55:00Z", "2023-04-29T11:53:00Z", "2023-04-29T11:54:00Z", "2023-04-29T11:55:00Z", "2023-04-29T11:51:00Z", "2023-04-29T11:55:00Z", "2023-04-29T11:52:00Z", "2023-04-29T11:52:00Z", "2023-04-29T11:53:00Z", "2023-04-29T11:53:00Z", "2023-04-29T11:55:00Z", "2023-04-29T11:55:00Z", "2023-04-29T11:53:00Z", "2023-04-29T11:55:00Z", "2023-04-29T11:55:00Z", "2023-04-29T11:51:00Z", "2023-04-29T11:53:00Z", "2023-04-29T11:54:00Z", "2023-04-29T11:45:00Z", "2023-04-29T11:55:00Z", "2023-04-29T11:56:00Z", "2023-04-29T11:53:00Z", "2023-04-29T11:55:00Z", "2023-04-29T11:50:00Z", "2023-04-29T11:47:00Z", "2023-04-29T11:35:00Z", "2023-04-29T11:55:00Z", "2023-04-29T11:55:00Z", "2023-04-29T11:35:00Z", "2023-04-29T11:55:00Z", "2023-04-29T11:55:00Z", "2023-04-29T11:53:00Z", "2023-04-29T11:55:00Z", "2023-04-29T11:56:00Z", "2023-04-29T11:55:00Z", "2023-04-29T11:52:00Z", "2023-04-29T11:30:00Z", "2023-04-29T11:49:00Z", "2023-04-29T11:53:00Z", "2023-04-29T11:53:00Z", "2023-04-29T11:55:00Z", "2023-04-29T11:55:00Z", "2023-04-29T11:53:00Z", "2023-04-29T11:51:00Z", "2023-04-29T11:55:00Z", "2023-04-29T11:53:00Z", "2023-04-29T11:55:00Z", "2023-04-29T11:55:00Z", "2023-04-29T11:55:00Z", "2023-04-29T11:55:00Z", "2023-04-29T11:55:00Z", "2023-04-29T11:56:00Z", "2023-04-29T11:55:00Z", "2023-04-29T11:56:00Z", "2023-04-29T11:55:00Z", "2023-04-29T11:55:00Z", "2023-04-29T11:54:00Z", "2023-04-29T11:53:00Z", "2023-04-29T11:54:00Z", "2023-04-29T11:54:00Z", "2023-04-29T11:51:00Z", "2023-04-29T11:53:00Z", "2023-04-29T11:56:00Z", "2023-04-29T11:55:00Z", "2023-04-29T11:50:00Z", "2023-04-29T11:54:00Z", "2023-04-29T11:52:00Z", "2023-04-29T11:53:00Z", "2023-04-29T11:53:00Z", "2023-04-29T11:53:00Z", "2023-04-29T11:55:00Z", "2023-04-29T11:53:00Z", "2023-04-29T11:53:00Z", "2023-04-29T11:56:00Z", "2023-04-29T11:59:00Z", "2023-04-29T11:55:00Z", "2023-04-29T11:30:00Z", "2023-04-29T11:55:00Z", "2023-04-29T11:55:00Z", "2023-04-29T11:53:00Z", "2023-04-29T11:53:00Z", "2023-04-29T11:53:00Z", "2023-04-29T11:54:00Z", "2023-04-29T11:53:00Z", "2023-04-29T11:54:00Z", "2023-04-29T11:36:00Z", "2023-04-29T11:55:00Z", "2023-04-29T11:55:00Z", "2023-04-29T11:53:00Z", "2023-04-29T11:57:00Z", "2023-04-29T11:52:00Z", "2023-04-29T11:55:00Z", "2023-04-29T11:53:00Z", "2023-04-29T11:53:00Z", "2023-04-29T11:56:00Z", "2023-04-29T11:55:00Z", "2023-04-29T11:52:00Z", "2023-04-29T11:56:00Z", "2023-04-29T11:55:00Z", "2023-04-29T11:55:00Z", "2023-04-29T11:53:00Z", "2023-04-29T11:53:00Z", "2023-04-29T11:48:00Z", "2023-04-29T11:56:00Z", "2023-04-29T11:45:00Z", "2023-04-29T11:55:00Z", "2023-04-29T11:55:00Z", "2023-04-29T11:55:00Z", "2023-04-29T11:55:00Z", "2023-04-29T11:53:00Z", "2023-04-29T11:55:00Z", "2023-04-29T11:52:00Z", "2023-04-29T12:00:00Z", "2023-04-29T11:55:00Z", "2023-04-29T10:51:00Z", "2023-04-29T11:45:00Z", "2023-04-29T11:53:00Z", "2023-04-29T11:53:00Z", "2023-04-29T11:55:00Z", "2023-04-29T11:56:00Z", "2023-04-29T11:55:00Z", "2023-04-29T11:53:00Z", "2023-04-29T11:53:00Z", "2023-04-29T11:54:00Z", "2023-04-29T11:55:00Z", "2023-04-29T11:54:00Z", "2023-04-29T11:54:00Z", "2023-04-29T11:55:00Z", "2023-04-29T11:51:00Z", "2023-04-29T11:55:00Z", "2023-04-29T11:53:00Z", "2023-04-29T11:56:00Z", "2023-04-29T11:55:00Z", "2023-04-29T11:55:00Z", "2023-04-29T11:53:00Z", "2023-04-29T11:55:00Z", "2023-04-29T11:55:00Z", "2023-04-29T11:55:00Z", "2023-04-29T11:55:00Z", "2023-04-29T11:55:00Z", "2023-04-29T11:35:00Z", "2023-04-29T11:53:00Z", "2023-04-29T10:55:00Z", "2023-04-29T11:55:00Z", "2023-04-29T11:55:00Z", "2023-04-29T11:53:00Z", "2023-04-29T11:55:00Z", "2023-04-29T11:52:00Z", "2023-04-29T11:55:00Z", "2023-04-29T11:51:00Z", "2023-04-29T11:56:00Z", "2023-04-29T11:55:00Z", "2023-04-29T11:45:00Z", "2023-04-29T11:55:00Z", "2023-04-29T11:53:00Z", "2023-04-29T11:55:00Z", "2023-04-29T11:53:00Z", "2023-04-29T11:55:00Z", "2023-04-29T11:53:00Z", "2023-04-29T11:53:00Z", "2023-04-29T11:35:00Z", "2023-04-29T11:55:00Z", "2023-04-29T11:51:00Z", "2023-04-29T11:55:00Z", "2023-04-29T11:52:00Z", "2023-04-29T11:55:00Z", "2023-04-29T11:55:00Z", "2023-04-29T11:55:00Z", "2023-04-29T11:51:00Z", "2023-04-29T11:53:00Z", "2023-04-29T11:53:00Z", "2023-04-29T11:53:00Z", "2023-04-29T11:53:00Z", "2023-04-29T11:54:00Z", "2023-04-29T11:53:00Z", "2023-04-29T11:55:00Z", "2023-04-29T11:51:00Z", "2023-04-29T11:55:00Z", "2023-04-29T11:55:00Z", "2023-04-29T11:53:00Z", "2023-04-29T11:53:00Z", "2023-04-29T11:56:00Z", "2023-04-29T11:55:00Z", "2023-04-29T11:51:00Z", "2023-04-29T11:53:00Z", "2023-04-29T11:56:00Z", "2023-04-29T11:55:00Z", "2023-04-29T11:55:00Z", "2023-04-29T11:56:00Z", "2023-04-29T11:55:00Z", "2023-04-29T11:53:00Z", "2023-04-29T11:52:00Z", "2023-04-29T11:53:00Z", "2023-04-29T11:55:00Z", "2023-04-29T11:45:00Z", "2023-04-29T11:55:00Z", "2023-04-29T11:56:00Z", "2023-04-29T11:52:00Z", "2023-04-29T11:55:00Z", "2023-04-29T11:53:00Z", "2023-04-29T10:58:00Z", "2023-04-29T11:53:00Z", "2023-04-29T11:55:00Z", "2023-04-29T11:55:00Z", "2023-04-29T11:55:00Z", "2023-04-29T11:53:00Z", "2023-04-29T11:51:00Z", "2023-04-29T11:56:00Z", "2023-04-29T11:52:00Z", "2023-04-29T11:53:00Z", "2023-04-29T11:56:00Z", "2023-04-29T11:52:00Z", "2023-04-29T11:55:00Z", "2023-04-29T11:30:00Z", "2023-04-29T11:53:00Z", "2023-04-29T11:56:00Z", "2023-04-29T11:52:00Z", "2023-04-29T11:53:00Z", "2023-04-29T11:55:00Z", "2023-04-29T11:53:00Z", "2023-04-29T11:55:00Z", "2023-04-29T11:53:00Z", "2023-04-29T11:55:00Z", "2023-04-29T11:53:00Z", "2023-04-29T11:56:00Z", "2023-04-29T11:54:00Z", "2023-04-29T11:55:00Z", "2023-04-29T11:55:00Z", "2023-04-29T11:55:00Z", "2023-04-29T11:53:00Z", "2023-04-29T11:53:00Z", "2023-04-29T11:53:00Z", "2023-04-29T11:55:00Z", "2023-04-29T11:55:00Z", "2023-04-29T11:55:00Z", "2023-04-29T11:53:00Z", "2023-04-29T11:55:00Z", "2023-04-29T11:53:00Z", "2023-04-29T11:53:00Z", "2023-04-29T11:55:00Z", "2023-04-29T11:55:00Z", "2023-04-29T11:53:00Z", "2023-04-29T11:53:00Z", "2023-04-29T11:55:00Z", "2023-04-29T11:56:00Z", "2023-04-29T11:53:00Z", "2023-04-29T11:54:00Z", "2023-04-29T11:54:00Z", "2023-04-29T11:53:00Z", "2023-04-29T11:55:00Z", "2023-04-29T11:54:00Z", "2023-04-29T11:55:00Z", "2023-04-29T11:55:00Z", "2023-04-29T11:53:00Z", "2023-04-29T11:55:00Z", "2023-04-29T11:55:00Z", "2023-04-29T11:56:00Z", "2023-04-29T11:53:00Z", "2023-04-29T11:35:00Z", "2023-04-29T11:53:00Z", "2023-04-29T11:54:00Z", "2023-04-29T11:55:00Z", "2023-04-29T11:55:00Z", "2023-04-29T11:55:00Z", "2023-04-29T11:55:00Z", "2023-04-29T11:53:00Z", "2023-04-29T11:53:00Z", "2023-04-29T11:55:00Z", "2023-04-29T11:55:00Z", "2023-04-29T11:55:00Z", "2023-04-29T11:56:00Z", "2023-04-29T11:55:00Z", "2023-04-29T11:55:00Z", "2023-04-29T11:55:00Z", "2023-04-29T11:55:00Z", "2023-04-29T11:55:00Z", "2023-04-29T11:55:00Z", "2023-04-29T11:35:00Z", "2023-04-29T11:55:00Z", "2023-04-29T11:56:00Z", "2023-04-29T11:53:00Z", "2023-04-29T11:51:00Z", "2023-04-29T11:55:00Z", "2023-04-29T11:54:00Z", "2023-04-29T11:55:00Z", "2023-04-29T11:45:00Z", "2023-04-29T11:55:00Z", "2023-04-29T11:55:00Z", "2023-04-29T11:35:00Z", "2023-04-29T11:55:00Z", "2023-04-29T11:55:00Z", "2023-04-29T11:55:00Z", "2023-04-29T11:35:00Z", "2023-04-29T11:53:00Z", "2023-04-29T11:55:00Z", "2023-04-29T11:55:00Z", "2023-04-29T11:55:00Z", "2023-04-29T11:53:00Z", "2023-04-29T11:54:00Z", "2023-04-29T11:55:00Z", "2023-04-29T11:55:00Z", "2023-04-29T11:51:00Z", "2023-04-29T11:55:00Z", "2023-04-29T11:53:00Z", "2023-04-29T11:53:00Z", "2023-04-29T11:53:00Z", "2023-04-29T11:56:00Z", "2023-04-29T11:55:00Z", "2023-04-29T11:54:00Z", "2023-04-29T11:53:00Z", "2023-04-29T11:55:00Z", "2023-04-29T11:53:00Z", "2023-04-29T11:55:00Z", "2023-04-29T11:55:00Z", "2023-04-29T11:55:00Z", "2023-04-29T11:55:00Z", "2023-04-29T11:55:00Z", "2023-04-29T11:52:00Z", "2023-04-29T11:55:00Z", "2023-04-29T11:45:00Z", "2023-04-29T11:45:00Z", "2023-04-29T11:53:00Z", "2023-04-29T11:50:00Z", "2023-04-29T11:56:00Z", "2023-04-29T11:53:00Z", "2023-04-29T11:55:00Z", "2023-04-29T11:53:00Z", "2023-04-29T11:56:00Z", "2023-04-29T11:55:00Z", "2023-04-29T11:52:00Z", "2023-04-29T11:55:00Z", "2023-04-29T11:55:00Z", "2023-04-29T11:56:00Z", "2023-04-29T11:55:00Z", "2023-04-29T11:53:00Z", "2023-04-29T11:55:00Z", "2023-04-29T11:55:00Z", "2023-04-29T11:55:00Z", "2023-04-29T11:55:00Z", "2023-04-29T11:55:00Z", "2023-04-29T11:55:00Z", "2023-04-29T11:52:00Z", "2023-04-29T11:55:00Z", "2023-04-29T11:51:00Z", "2023-04-29T11:55:00Z", "2023-04-29T11:55:00Z", "2023-04-29T11:53:00Z", "2023-04-29T11:53:00Z", "2023-04-29T11:55:00Z", "2023-04-29T11:52:00Z", "2023-04-29T11:55:00Z", "2023-04-29T11:55:00Z", "2023-04-29T11:55:00Z", "2023-04-29T11:51:00Z", "2023-04-29T11:53:00Z", "2023-04-29T11:55:00Z", "2023-04-29T11:53:00Z", "2023-04-29T10:55:00Z", "2023-04-29T11:55:00Z", "2023-04-29T11:55:00Z", "2023-04-29T11:55:00Z", "2023-04-29T11:55:00Z", "2023-04-29T11:53:00Z", "2023-04-29T11:53:00Z", "2023-04-29T11:52:00Z", "2023-04-29T11:55:00Z", "2023-04-29T11:53:00Z", "2023-04-29T11:56:00Z", "2023-04-29T11:56:00Z", "2023-04-29T11:55:00Z", "2023-04-29T11:55:00Z", "2023-04-29T11:51:00Z", "2023-04-29T11:55:00Z", "2023-04-29T11:54:00Z", "2023-04-29T11:53:00Z", "2023-04-29T11:54:00Z", "2023-04-29T11:45:00Z", "2023-04-29T11:55:00Z", "2023-04-29T11:55:00Z", "2023-04-29T11:53:00Z", "2023-04-29T11:53:00Z", "2023-04-29T11:55:00Z", "2023-04-29T11:35:00Z", "2023-04-29T11:55:00Z", "2023-04-29T11:53:00Z", "2023-04-29T11:55:00Z", "2023-04-29T11:57:00Z", "2023-04-29T11:47:00Z", "2023-04-29T11:55:00Z", "2023-04-29T11:52:00Z", "2023-04-29T11:53:00Z", "2023-04-29T11:53:00Z", "2023-04-29T11:51:00Z", "2023-04-29T11:53:00Z", "2023-04-29T11:53:00Z", "2023-04-29T11:54:00Z", "2023-04-29T11:55:00Z", "2023-04-29T11:51:00Z", "2023-04-29T11:53:00Z", "2023-04-29T11:55:00Z", "2023-04-29T11:53:00Z", "2023-04-29T11:56:00Z", "2023-04-29T11:35:00Z", "2023-04-29T11:55:00Z", "2023-04-29T11:45:00Z", "2023-04-29T11:53:00Z", "2023-04-29T11:55:00Z", "2023-04-29T11:38:00Z", "2023-04-29T11:53:00Z", "2023-04-29T11:55:00Z", "2023-04-29T11:52:00Z", "2023-04-29T11:55:00Z", "2023-04-29T11:56:00Z", "2023-04-29T11:56:00Z", "2023-04-29T11:55:00Z", "2023-04-29T11:55:00Z", "2023-04-29T11:50:00Z", "2023-04-29T11:55:00Z", "2023-04-29T11:45:00Z", "2023-04-29T11:56:00Z", "2023-04-29T11:55:00Z", "2023-04-29T11:55:00Z", "2023-04-29T11:55:00Z", "2023-04-29T11:53:00Z", "2023-04-29T11:55:00Z", "2023-04-29T11:55:00Z", "2023-04-29T11:55:00Z", "2023-04-29T11:56:00Z", "2023-04-29T11:55:00Z", "2023-04-29T11:53:00Z", "2023-04-29T11:55:00Z", "2023-04-29T11:35:00Z", "2023-04-29T11:56:00Z", "2023-04-29T11:55:00Z", "2023-04-29T11:55:00Z", "2023-04-29T11:55:00Z", "2023-04-29T11:55:00Z", "2023-04-29T11:55:00Z", "2023-04-29T11:55:00Z", "2023-04-29T11:55:00Z", "2023-04-29T11:55:00Z", "2023-04-29T11:55:00Z", "2023-04-29T11:53:00Z", "2023-04-29T11:50:00Z", "2023-04-29T11:53:00Z", "2023-04-29T11:53:00Z", "2023-04-29T11:51:00Z", "2023-04-29T11:56:00Z", "2023-04-29T11:30:00Z", "2023-04-29T11:53:00Z", "2023-04-29T11:52:00Z", "2023-04-29T11:55:00Z", "2023-04-29T11:53:00Z", "2023-04-29T11:55:00Z", "2023-04-29T11:52:00Z", "2023-04-29T11:54:00Z", "2023-04-29T11:54:00Z", "2023-04-29T11:30:00Z", "2023-04-29T11:55:00Z", "2023-04-29T11:53:00Z", "2023-04-29T11:53:00Z", "2023-04-29T11:53:00Z", "2023-04-29T11:53:00Z", "2023-04-29T11:53:00Z", "2023-04-29T11:53:00Z", "2023-04-29T11:53:00Z", "2023-04-29T11:53:00Z", "2023-04-29T11:53:00Z", "2023-04-29T11:56:00Z", "2023-04-29T11:56:00Z", "2023-04-29T11:53:00Z", "2023-04-29T11:55:00Z", "2023-04-29T11:55:00Z", "2023-04-29T11:55:00Z", "2023-04-29T11:55:00Z", "2023-04-29T11:55:00Z", "2023-04-29T11:53:00Z", "2023-04-29T11:55:00Z", "2023-04-29T11:55:00Z", "2023-04-29T11:53:00Z", "2023-04-29T11:55:00Z", "2023-04-29T10:55:00Z", "2023-04-29T11:54:00Z", "2023-04-29T11:53:00Z", "2023-04-29T11:53:00Z", "2023-04-29T11:45:00Z", "2023-04-29T11:55:00Z", "2023-04-29T11:53:00Z", "2023-04-29T11:55:00Z", "2023-04-29T11:55:00Z", "2023-04-29T11:55:00Z", "2023-04-29T11:52:00Z", "2023-04-29T11:45:00Z", "2023-04-29T11:55:00Z", "2023-04-29T11:53:00Z", "2023-04-29T11:55:00Z", "2023-04-29T11:55:00Z", "2023-04-29T11:53:00Z", "2023-04-29T11:53:00Z", "2023-04-29T12:00:00Z", "2023-04-29T11:54:00Z", "2023-04-29T11:54:00Z", "2023-04-29T11:55:00Z", "2023-04-29T11:55:00Z", "2023-04-29T11:53:00Z", "2023-04-29T11:53:00Z", "2023-04-29T11:53:00Z", "2023-04-29T11:55:00Z", "2023-04-29T11:37:00Z", "2023-04-29T11:55:00Z", "2023-04-29T11:56:00Z", "2023-04-29T11:55:00Z", "2023-04-29T11:53:00Z", "2023-04-29T11:55:00Z", "2023-04-29T11:30:00Z", "2023-04-29T11:56:00Z", "2023-04-29T11:52:00Z", "2023-04-29T11:55:00Z", "2023-04-29T11:53:00Z", "2023-04-29T11:53:00Z", "2023-04-29T11:55:00Z", "2023-04-29T11:53:00Z", "2023-04-29T11:56:00Z", "2023-04-29T11:55:00Z", "2023-04-29T11:53:00Z", "2023-04-29T11:55:00Z", "2023-04-29T11:55:00Z", "2023-04-29T11:55:00Z", "2023-04-29T11:54:00Z", "2023-04-29T11:56:00Z", "2023-04-29T11:55:00Z", "2023-04-29T11:55:00Z", "2023-04-29T11:55:00Z", "2023-04-29T11:55:00Z", "2023-04-29T11:35:00Z", "2023-04-29T11:55:00Z", "2023-04-29T11:55:00Z", "2023-04-29T11:55:00Z", "2023-04-29T11:55:00Z", "2023-04-29T11:30:00Z", "2023-04-29T11:56:00Z", "2023-04-29T11:55:00Z", "2023-04-29T11:56:00Z", "2023-04-29T11:55:00Z", "2023-04-29T11:35:00Z", "2023-04-29T11:35:00Z", "2023-04-29T11:54:00Z", "2023-04-29T11:53:00Z", "2023-04-29T11:55:00Z", "2023-04-29T11:55:00Z", "2023-04-29T11:35:00Z", "2023-04-29T11:50:00Z", "2023-04-29T11:55:00Z", "2023-04-29T11:55:00Z", "2023-04-29T11:50:00Z", "2023-04-29T11:55:00Z", "2023-04-29T11:56:00Z", "2023-04-29T11:56:00Z", "2023-04-29T11:53:00Z", "2023-04-29T11:53:00Z", "2023-04-29T11:54:00Z", "2023-04-29T11:55:00Z", "2023-04-29T11:55:00Z", "2023-04-29T11:56:00Z", "2023-04-29T11:55:00Z", "2023-04-29T11:35:00Z", "2023-04-29T11:55:00Z", "2023-04-29T11:35:00Z", "2023-04-29T11:45:00Z", "2023-04-29T11:56:00Z", "2023-04-29T11:55:00Z", "2023-04-29T11:55:00Z", "2023-04-29T11:55:00Z", "2023-04-29T11:51:00Z", "2023-04-29T11:56:00Z", "2023-04-29T11:56:00Z", "2023-04-29T11:55:00Z", "2023-04-29T11:55:00Z", "2023-04-29T11:56:00Z", "2023-04-29T11:35:00Z", "2023-04-29T11:53:00Z", "2023-04-29T11:55:00Z", "2023-04-29T11:53:00Z", "2023-04-29T11:53:00Z", "2023-04-29T11:55:00Z", "2023-04-29T11:51:00Z", "2023-04-29T11:53:00Z", "2023-04-29T11:56:00Z", "2023-04-29T11:55:00Z", "2023-04-29T11:53:00Z", "2023-04-29T11:55:00Z", "2023-04-29T11:55:00Z", "2023-04-29T11:55:00Z", "2023-04-29T11:56:00Z", "2023-04-29T11:53:00Z", "2023-04-29T11:55:00Z", "2023-04-29T11:35:00Z", "2023-04-29T11:53:00Z", "2023-04-29T11:55:00Z", "2023-04-29T11:53:00Z", "2023-04-29T11:51:00Z", "2023-04-29T11:35:00Z", "2023-04-29T11:55:00Z", "2023-04-29T11:56:00Z", "2023-04-29T11:53:00Z", "2023-04-29T11:50:00Z", "2023-04-29T11:52:00Z", "2023-04-29T11:55:00Z", "2023-04-29T11:40:00Z", "2023-04-29T11:53:00Z", "2023-04-29T11:30:00Z", "2023-04-29T11:58:00Z", "2023-04-29T11:54:00Z", "2023-04-29T11:56:00Z", "2023-04-29T11:47:00Z", "2023-04-29T11:42:00Z", "2023-04-29T11:55:00Z", "2023-04-29T11:54:00Z", "2023-04-29T11:53:00Z", "2023-04-29T11:53:00Z", "2023-04-29T11:56:00Z", "2023-04-29T11:54:00Z", "2023-04-29T11:51:00Z", "2023-04-29T11:50:00Z", "2023-04-29T11:53:00Z", "2023-04-29T11:50:00Z", "2023-04-29T11:53:00Z", "2023-04-29T11:55:00Z", "2023-04-29T11:55:00Z", "2023-04-29T11:55:00Z", "2023-04-29T11:35:00Z", "2023-04-29T11:35:00Z", "2023-04-29T11:55:00Z", "2023-04-29T11:55:00Z", "2023-04-29T11:55:00Z", "2023-04-29T11:55:00Z", "2023-04-29T11:55:00Z", "2023-04-29T11:55:00Z", "2023-04-29T11:56:00Z", "2023-04-29T11:53:00Z", "2023-04-29T11:53:00Z", "2023-04-29T11:53:00Z", "2023-04-29T11:55:00Z", "2023-04-29T11:55:00Z", "2023-04-29T11:56:00Z", "2023-04-29T11:53:00Z", "2023-04-29T11:55:00Z", "2023-04-29T11:47:00Z", "2023-04-29T11:53:00Z", "2023-04-29T11:55:00Z", "2023-04-29T11:53:00Z", "2023-04-29T11:35:00Z", "2023-04-29T11:35:00Z", "2023-04-29T11:55:00Z", "2023-04-29T11:53:00Z", "2023-04-29T11:35:00Z", "2023-04-29T11:55:00Z", "2023-04-29T11:55:00Z", "2023-04-29T11:53:00Z", "2023-04-29T11:55:00Z", "2023-04-29T11:54:00Z", "2023-04-29T11:55:00Z", "2023-04-29T11:35:00Z", "2023-04-29T11:35:00Z", "2023-04-29T11:53:00Z", "2023-04-29T11:55:00Z", "2023-04-29T11:54:00Z", "2023-04-29T11:50:00Z", "2023-04-29T11:56:00Z", "2023-04-29T11:55:00Z", "2023-04-29T11:35:00Z", "2023-04-29T11:55:00Z", "2023-04-29T11:53:00Z", "2023-04-29T11:57:00Z", "2023-04-29T11:53:00Z", "2023-04-29T11:53:00Z", "2023-04-29T11:56:00Z", "2023-04-29T11:55:00Z", "2023-04-29T11:49:00Z", "2023-04-29T11:45:00Z", "2023-04-29T11:35:00Z", "2023-04-29T11:53:00Z", "2023-04-29T11:53:00Z", "2023-04-29T11:53:00Z", "2023-04-29T11:56:00Z", "2023-04-29T11:53:00Z", "2023-04-29T11:35:00Z", "2023-04-29T11:56:00Z", "2023-04-29T11:53:00Z", "2023-04-29T11:53:00Z", "2023-04-29T11:53:00Z", "2023-04-29T11:55:00Z", "2023-04-29T11:53:00Z", "2023-04-29T11:35:00Z", "2023-04-29T11:45:00Z", "2023-04-29T11:53:00Z", "2023-04-29T11:55:00Z", "2023-04-29T11:55:00Z", "2023-04-29T11:56:00Z", "2023-04-29T11:55:00Z", "2023-04-29T11:56:00Z", "2023-04-29T11:55:00Z", "2023-04-29T11:55:00Z", "2023-04-29T11:35:00Z", "2023-04-29T11:53:00Z", "2023-04-29T11:53:00Z", "2023-04-29T11:35:00Z", "2023-04-29T11:55:00Z", "2023-04-29T11:55:00Z", "2023-04-29T11:53:00Z", "2023-04-29T11:53:00Z", "2023-04-29T11:53:00Z", "2023-04-29T11:53:00Z", "2023-04-29T11:55:00Z", "2023-04-29T11:54:00Z", "2023-04-29T11:55:00Z", "2023-04-29T11:35:00Z", "2023-04-29T11:53:00Z", "2023-04-29T11:50:00Z", "2023-04-29T11:53:00Z", "2023-04-29T11:35:00Z", "2023-04-29T11:55:00Z", "2023-04-29T11:55:00Z", "2023-04-29T11:55:00Z", "2023-04-29T11:55:00Z", "2023-04-29T11:53:00Z", "2023-04-29T11:35:00Z", "2023-04-29T11:54:00Z", "2023-04-29T11:56:00Z", "2023-04-29T11:55:00Z", "2023-04-29T11:53:00Z", "2023-04-29T11:56:00Z", "2023-04-29T11:35:00Z", "2023-04-29T11:56:00Z", "2023-04-29T11:35:00Z", "2023-04-29T11:53:00Z", "2023-04-29T11:35:00Z", "2023-04-29T11:54:00Z", "2023-04-29T11:35:00Z", "2023-04-29T11:54:00Z", "2023-04-29T11:55:00Z", "2023-04-29T11:55:00Z", "2023-04-29T11:55:00Z", "2023-04-29T11:55:00Z", "2023-04-29T11:51:00Z", "2023-04-29T11:56:00Z", "2023-04-29T11:54:00Z", "2023-04-29T11:53:00Z", "2023-04-29T11:45:00Z", "2023-04-29T11:53:00Z", "2023-04-29T11:53:00Z", "2023-04-29T11:55:00Z", "2023-04-29T11:53:00Z", "2023-04-29T11:53:00Z", "2023-04-29T11:55:00Z", "2023-04-29T11:35:00Z", "2023-04-29T11:53:00Z", "2023-04-29T11:55:00Z", "2023-04-29T11:35:00Z", "2023-04-29T11:53:00Z", "2023-04-29T11:55:00Z", "2023-04-29T11:55:00Z", "2023-04-29T11:35:00Z", "2023-04-29T11:53:00Z", "2023-04-29T11:53:00Z", "2023-04-29T11:53:00Z", "2023-04-29T11:55:00Z", "2023-04-29T11:53:00Z", "2023-04-29T11:53:00Z", "2023-04-29T11:35:00Z", "2023-04-29T11:53:00Z", "2023-04-29T11:53:00Z", "2023-04-29T11:52:00Z", "2023-04-29T11:35:00Z", "2023-04-29T11:55:00Z", "2023-04-29T11:35:00Z", "2023-04-29T11:53:00Z", "2023-04-29T11:56:00Z", "2023-04-29T11:35:00Z", "2023-04-29T11:30:00Z", "2023-04-29T12:00:00Z", "2023-04-29T11:56:00Z", "2023-04-29T11:55:00Z", "2023-04-29T11:53:00Z", "2023-04-29T11:53:00Z", "2023-04-29T11:56:00Z", "2023-04-29T11:55:00Z", "2023-04-29T11:35:00Z", "2023-04-29T11:55:00Z", "2023-04-29T11:35:00Z", "2023-04-29T11:55:00Z", "2023-04-29T11:55:00Z", "2023-04-29T11:50:00Z", "2023-04-29T11:53:00Z", "2023-04-29T11:56:00Z", "2023-04-29T11:53:00Z", "2023-04-29T11:56:00Z", "2023-04-29T11:55:00Z", "2023-04-29T11:53:00Z", "2023-04-29T11:55:00Z", "2023-04-29T11:35:00Z", "2023-04-29T11:53:00Z", "2023-04-29T11:55:00Z", "2023-04-29T11:55:00Z", "2023-04-29T11:53:00Z", "2023-04-29T11:54:00Z", "2023-04-29T11:53:00Z", "2023-04-29T11:53:00Z", "2023-04-29T11:56:00Z", "2023-04-29T11:56:00Z", "2023-04-29T11:56:00Z", "2023-04-29T12:00:00Z", "2023-04-29T11:53:00Z", "2023-04-29T11:55:00Z", "2023-04-29T11:55:00Z", "2023-04-29T11:53:00Z", "2023-04-29T11:55:00Z", "2023-04-29T11:53:00Z", "2023-04-29T11:56:00Z", "2023-04-29T11:35:00Z", "2023-04-29T12:00:00Z", "2023-04-29T11:35:00Z", "2023-04-29T11:53:00Z", "2023-04-29T11:55:00Z", "2023-04-29T11:50:00Z", "2023-04-29T11:55:00Z", "2023-04-29T11:55:00Z", "2023-04-29T11:56:00Z", "2023-04-29T11:55:00Z", "2023-04-29T11:35:00Z", "2023-04-29T11:47:00Z", "2023-04-29T11:50:00Z", "2023-04-29T11:55:00Z", "2023-04-29T11:45:00Z", "2023-04-29T11:53:00Z", "2023-04-29T11:35:00Z", "2023-04-29T11:40:00Z", "2023-04-29T11:55:00Z", "2023-04-29T11:55:00Z", "2023-04-29T11:55:00Z", "2023-04-29T11:55:00Z", "2023-04-29T11:53:00Z", "2023-04-29T11:53:00Z", "2023-04-29T11:45:00Z", "2023-04-29T11:53:00Z", "2023-04-29T11:35:00Z", "2023-04-29T11:55:00Z", "2023-04-29T11:55:00Z", "2023-04-29T11:35:00Z", "2023-04-29T11:55:00Z", "2023-04-29T11:55:00Z", "2023-04-29T11:55:00Z", "2023-04-29T11:56:00Z", "2023-04-29T11:51:00Z", "2023-04-29T11:56:00Z", "2023-04-29T11:55:00Z", "2023-04-29T11:53:00Z", "2023-04-29T11:55:00Z", "2023-04-29T11:58:00Z", "2023-04-29T11:56:00Z", "2023-04-29T11:53:00Z", "2023-04-29T11:55:00Z", "2023-04-29T11:55:00Z", "2023-04-29T11:55:00Z", "2023-04-29T11:53:00Z", "2023-04-29T11:55:00Z", "2023-04-29T11:55:00Z", "2023-04-29T11:53:00Z", "2023-04-29T11:35:00Z", "2023-04-29T11:53:00Z", "2023-04-29T11:52:00Z", "2023-04-29T11:55:00Z", "2023-04-29T11:55:00Z", "2023-04-29T11:53:00Z", "2023-04-29T11:35:00Z", "2023-04-29T11:53:00Z", "2023-04-29T11:53:00Z", "2023-04-29T11:53:00Z", "2023-04-29T11:53:00Z", "2023-04-29T11:55:00Z", "2023-04-29T11:53:00Z", "2023-04-29T11:53:00Z", "2023-04-29T11:53:00Z", "2023-04-29T11:55:00Z", "2023-04-29T11:55:00Z", "2023-04-29T11:55:00Z", "2023-04-29T11:55:00Z", "2023-04-29T11:55:00Z", "2023-04-29T11:55:00Z", "2023-04-29T11:56:00Z", "2023-04-29T11:56:00Z", "2023-04-29T11:55:00Z", "2023-04-29T11:55:00Z", "2023-04-29T11:50:00Z", "2023-04-29T11:55:00Z", "2023-04-29T11:55:00Z", "2023-04-29T11:55:00Z", "2023-04-29T11:53:00Z", "2023-04-29T11:53:00Z", "2023-04-29T11:56:00Z", "2023-04-29T11:55:00Z", "2023-04-29T11:55:00Z", "2023-04-29T11:55:00Z", "2023-04-29T11:53:00Z", "2023-04-29T11:55:00Z", "2023-04-29T11:50:00Z", "2023-04-29T12:00:00Z", "2023-04-29T11:53:00Z", "2023-04-29T11:45:00Z", "2023-04-29T11:52:00Z", "2023-04-29T11:53:00Z", "2023-04-29T11:55:00Z", "2023-04-29T11:55:00Z", "2023-04-29T11:50:00Z", "2023-04-29T11:55:00Z", "2023-04-29T11:55:00Z", "2023-04-29T11:51:00Z", "2023-04-29T11:55:00Z", "2023-04-29T11:53:00Z", "2023-04-29T11:35:00Z", "2023-04-29T11:55:00Z", "2023-04-29T11:56:00Z", "2023-04-29T11:55:00Z", "2023-04-29T11:51:00Z", "2023-04-29T11:55:00Z", "2023-04-29T11:53:00Z", "2023-04-29T11:53:00Z", "2023-04-29T11:47:00Z", "2023-04-29T11:52:00Z", "2023-04-29T11:55:00Z", "2023-04-29T11:55:00Z", "2023-04-29T11:53:00Z", "2023-04-29T11:53:00Z", "2023-04-29T11:55:00Z", "2023-04-29T11:54:00Z", "2023-04-29T11:53:00Z", "2023-04-29T11:56:00Z", "2023-04-29T11:55:00Z", "2023-04-29T11:50:00Z", "2023-04-29T11:56:00Z", "2023-04-29T11:56:00Z", "2023-04-29T11:53:00Z", "2023-04-29T11:56:00Z", "2023-04-29T11:55:00Z", "2023-04-29T11:55:00Z", "2023-04-29T11:55:00Z", "2023-04-29T11:55:00Z", "2023-04-29T11:55:00Z", "2023-04-29T11:35:00Z", "2023-04-29T11:55:00Z", "2023-04-29T11:53:00Z", "2023-04-29T11:55:00Z", "2023-04-29T11:55:00Z", "2023-04-29T11:55:00Z", "2023-04-29T11:43:00Z", "2023-04-29T11:55:00Z", "2023-04-29T11:55:00Z", "2023-04-29T11:55:00Z", "2023-04-29T11:55:00Z", "2023-04-29T11:55:00Z", "2023-04-29T11:55:00Z", "2023-04-29T11:55:00Z", "2023-04-29T11:55:00Z", "2023-04-29T11:52:00Z", "2023-04-29T11:53:00Z", "2023-04-29T11:53:00Z", "2023-04-29T11:55:00Z", "2023-04-29T11:53:00Z", "2023-04-29T11:53:00Z", "2023-04-29T11:53:00Z", "2023-04-29T11:55:00Z", "2023-04-29T11:55:00Z", "2023-04-29T11:52:00Z", "2023-04-29T11:55:00Z", "2023-04-29T11:55:00Z", "2023-04-29T11:55:00Z", "2023-04-29T11:51:00Z", "2023-04-29T11:55:00Z", "2023-04-29T11:55:00Z", "2023-04-29T11:55:00Z", "2023-04-29T11:52:00Z", "2023-04-29T11:55:00Z", "2023-04-29T11:55:00Z", "2023-04-29T11:35:00Z", "2023-04-29T11:55:00Z", "2023-04-29T11:55:00Z", "2023-04-29T11:56:00Z", "2023-04-29T11:51:00Z", "2023-04-29T11:53:00Z", "2023-04-29T11:54:00Z", "2023-04-29T11:53:00Z", "2023-04-29T11:55:00Z", "2023-04-29T11:55:00Z", "2023-04-29T11:54:00Z", "2023-04-29T11:54:00Z", "2023-04-29T11:55:00Z", "2023-04-29T11:55:00Z", "2023-04-29T11:53:00Z", "2023-04-29T11:54:00Z", "2023-04-29T11:55:00Z", "2023-04-29T11:54:00Z", "2023-04-29T11:56:00Z", "2023-04-29T11:55:00Z", "2023-04-29T11:52:00Z", "2023-04-29T11:45:00Z", "2023-04-29T11:53:00Z", "2023-04-29T11:54:00Z", "2023-04-29T11:55:00Z", "2023-04-29T11:55:00Z", "2023-04-29T11:56:00Z", "2023-04-29T11:56:00Z", "2023-04-29T11:56:00Z", "2023-04-29T11:55:00Z", "2023-04-29T11:54:00Z", "2023-04-29T11:56:00Z", "2023-04-29T11:53:00Z", "2023-04-29T11:55:00Z", "2023-04-29T11:55:00Z", "2023-04-29T11:56:00Z", "2023-04-29T11:53:00Z", "2023-04-29T11:50:00Z", "2023-04-29T11:53:00Z", "2023-04-29T11:55:00Z", "2023-04-29T11:55:00Z", "2023-04-29T11:54:00Z", "2023-04-29T11:56:00Z", "2023-04-29T11:54:00Z", "2023-04-29T11:55:00Z", "2023-04-29T11:55:00Z", "2023-04-29T11:55:00Z", "2023-04-29T11:56:00Z", "2023-04-29T11:56:00Z", "2023-04-29T11:35:00Z", "2023-04-29T11:51:00Z", "2023-04-29T11:48:00Z", "2023-04-29T11:53:00Z", "2023-04-29T11:53:00Z", "2023-04-29T11:35:00Z", "2023-04-29T11:51:00Z", "2023-04-29T11:55:00Z", "2023-04-29T11:55:00Z", "2023-04-29T11:56:00Z", "2023-04-29T11:35:00Z", "2023-04-29T11:55:00Z", "2023-04-29T11:53:00Z", "2023-04-29T11:53:00Z", "2023-04-29T11:55:00Z", "2023-04-29T11:56:00Z", "2023-04-29T11:45:00Z", "2023-04-29T11:55:00Z", "2023-04-29T11:55:00Z", "2023-04-29T11:50:00Z", "2023-04-29T11:56:00Z", "2023-04-29T11:55:00Z", "2023-04-29T11:55:00Z", "2023-04-29T11:54:00Z", "2023-04-29T11:55:00Z", "2023-04-29T11:55:00Z", "2023-04-29T11:55:00Z", "2023-04-29T11:45:00Z", "2023-04-29T11:55:00Z", "2023-04-29T11:55:00Z", "2023-04-29T11:50:00Z", "2023-04-29T11:55:00Z", "2023-04-29T11:56:00Z", "2023-04-29T11:57:00Z", "2023-04-29T11:55:00Z", "2023-04-29T11:55:00Z", "2023-04-29T11:55:00Z", "2023-04-29T11:55:00Z", "2023-04-29T11:55:00Z", "2023-04-29T11:55:00Z", "2023-04-29T11:35:00Z", "2023-04-29T11:55:00Z", "2023-04-29T11:35:00Z", "2023-04-29T11:55:00Z", "2023-04-29T11:56:00Z", "2023-04-29T11:55:00Z", "2023-04-29T11:55:00Z", "2023-04-29T11:55:00Z", "2023-04-29T11:55:00Z", "2023-04-29T11:55:00Z", "2023-04-29T11:53:00Z", "2023-04-29T11:54:00Z", "2023-04-29T11:58:00Z", "2023-04-29T11:55:00Z", "2023-04-29T11:53:00Z", "2023-04-29T11:53:00Z", "2023-04-29T11:56:00Z", "2023-04-29T11:53:00Z", "2023-04-29T11:53:00Z", "2023-04-29T11:53:00Z", "2023-04-29T11:47:00Z", "2023-04-29T11:53:00Z", "2023-04-29T11:56:00Z", "2023-04-29T11:55:00Z", "2023-04-29T11:56:00Z", "2023-04-29T11:55:00Z", "2023-04-29T11:53:00Z", "2023-04-29T11:56:00Z", "2023-04-29T11:55:00Z", "2023-04-29T11:55:00Z", "2023-04-29T11:55:00Z", "2023-04-29T11:53:00Z", "2023-04-29T11:53:00Z", "2023-04-29T11:56:00Z", "2023-04-29T11:54:00Z", "2023-04-29T11:40:00Z", "2023-04-29T11:53:00Z", "2023-04-29T11:53:00Z", "2023-04-29T11:51:00Z", "2023-04-29T11:53:00Z", "2023-04-29T11:55:00Z", "2023-04-29T11:56:00Z", "2023-04-29T11:55:00Z", "2023-04-29T11:51:00Z", "2023-04-29T11:55:00Z", "2023-04-29T11:55:00Z", "2023-04-29T11:53:00Z", "2023-04-29T11:55:00Z", "2023-04-29T11:53:00Z", "2023-04-29T11:55:00Z", "2023-04-29T11:55:00Z", "2023-04-29T11:53:00Z", "2023-04-29T11:55:00Z", "2023-04-29T11:55:00Z", "2023-04-29T11:55:00Z", "2023-04-29T11:53:00Z", "2023-04-29T11:55:00Z", "2023-04-29T11:55:00Z", "2023-04-29T11:53:00Z", "2023-04-29T11:55:00Z", "2023-04-29T11:55:00Z", "2023-04-29T11:53:00Z", "2023-04-29T11:55:00Z", "2023-04-29T11:53:00Z", "2023-04-29T11:54:00Z", "2023-04-29T11:55:00Z", "2023-04-29T11:55:00Z", "2023-04-29T11:55:00Z", "2023-04-29T11:55:00Z", "2023-04-29T11:56:00Z", "2023-04-29T11:53:00Z", "2023-04-29T11:53:00Z", "2023-04-29T11:55:00Z", "2023-04-29T11:55:00Z", "2023-04-29T11:45:00Z", "2023-04-29T11:53:00Z", "2023-04-29T11:53:00Z", "2023-04-29T11:53:00Z", "2023-04-29T11:55:00Z", "2023-04-29T11:56:00Z", "2023-04-29T11:55:00Z", "2023-04-29T11:55:00Z", "2023-04-29T11:55:00Z", "2023-04-29T11:55:00Z", "2023-04-29T11:55:00Z", "2023-04-29T11:53:00Z", "2023-04-29T11:55:00Z", "2023-04-29T11:55:00Z", "2023-04-29T11:55:00Z", "2023-04-29T11:55:00Z", "2023-04-29T11:55:00Z", "2023-04-29T11:55:00Z", "2023-04-29T11:55:00Z", "2023-04-29T11:53:00Z", "2023-04-29T11:55:00Z", "2023-04-29T11:55:00Z", "2023-04-29T11:35:00Z", "2023-04-29T11:55:00Z", "2023-04-29T11:53:00Z", "2023-04-29T11:53:00Z", "2023-04-29T11:53:00Z", "2023-04-29T11:55:00Z", "2023-04-29T11:53:00Z", "2023-04-29T11:55:00Z", "2023-04-29T11:55:00Z", "2023-04-29T11:52:00Z", "2023-04-29T11:53:00Z", "2023-04-29T11:54:00Z", "2023-04-29T11:56:00Z", "2023-04-29T11:54:00Z", "2023-04-29T11:53:00Z", "2023-04-29T11:55:00Z", "2023-04-29T11:55:00Z", "2023-04-29T11:53:00Z", "2023-04-29T11:53:00Z", "2023-04-29T11:55:00Z", "2023-04-29T11:54:00Z", "2023-04-29T11:55:00Z", "2023-04-29T11:55:00Z", "2023-04-29T11:56:00Z", "2023-04-29T11:55:00Z", "2023-04-29T11:55:00Z", "2023-04-29T11:50:00Z", "2023-04-29T11:55:00Z", "2023-04-29T11:56:00Z", "2023-04-29T11:55:00Z", "2023-04-29T11:55:00Z", "2023-04-29T11:55:00Z", "2023-04-29T11:55:00Z", "2023-04-29T11:55:00Z", "2023-04-29T11:55:00Z", "2023-04-29T11:50:00Z", "2023-04-29T11:53:00Z", "2023-04-29T11:55:00Z", "2023-04-29T11:55:00Z", "2023-04-29T11:55:00Z", "2023-04-29T11:52:00Z", "2023-04-29T11:56:00Z", "2023-04-29T11:55:00Z", "2023-04-29T11:53:00Z", "2023-04-29T11:55:00Z", "2023-04-29T11:55:00Z", "2023-04-29T11:53:00Z", "2023-04-29T11:55:00Z", "2023-04-29T11:55:00Z", "2023-04-29T11:53:00Z", "2023-04-29T11:55:00Z", "2023-04-29T11:53:00Z", "2023-04-29T11:55:00Z", "2023-04-29T11:53:00Z", "2023-04-29T11:53:00Z", "2023-04-29T11:53:00Z", "2023-04-29T11:53:00Z", "2023-04-29T11:45:00Z", "2023-04-29T11:55:00Z", "2023-04-29T11:52:00Z", "2023-04-29T11:55:00Z", "2023-04-29T11:55:00Z", "2023-04-29T11:56:00Z", "2023-04-29T11:53:00Z", "2023-04-29T11:55:00Z", "2023-04-29T11:52:00Z", "2023-04-29T11:56:00Z", "2023-04-29T11:58:00Z", "2023-04-29T11:54:00Z", "2023-04-29T11:55:00Z", "2023-04-29T11:55:00Z", "2023-04-29T11:52:00Z", "2023-04-29T11:54:00Z", "2023-04-29T11:53:00Z", "2023-04-29T11:55:00Z", "2023-04-29T10:55:00Z", "2023-04-29T11:55:00Z", "2023-04-29T11:54:00Z", "2023-04-29T11:53:00Z", "2023-04-29T11:55:00Z", "2023-04-29T11:55:00Z", "2023-04-29T11:53:00Z", "2023-04-29T11:53:00Z", "2023-04-29T11:53:00Z", "2023-04-29T11:52:00Z", "2023-04-29T11:55:00Z", "2023-04-29T11:55:00Z", "2023-04-29T11:55:00Z", "2023-04-29T11:56:00Z", "2023-04-29T11:53:00Z", "2023-04-29T11:40:00Z", "2023-04-29T11:53:00Z", "2023-04-29T11:55:00Z", "2023-04-29T11:53:00Z", "2023-04-29T11:53:00Z", "2023-04-29T11:55:00Z", "2023-04-29T11:54:00Z", "2023-04-29T11:53:00Z", "2023-04-29T11:55:00Z", "2023-04-29T11:55:00Z", "2023-04-29T11:54:00Z", "2023-04-29T11:52:00Z", "2023-04-29T11:55:00Z", "2023-04-29T11:55:00Z", "2023-04-29T11:53:00Z", "2023-04-29T11:55:00Z", "2023-04-29T11:53:00Z", "2023-04-29T11:55:00Z", "2023-04-29T11:56:00Z", "2023-04-29T11:53:00Z", "2023-04-29T11:53:00Z", "2023-04-29T11:55:00Z", "2023-04-29T11:52:00Z", "2023-04-29T11:52:00Z", "2023-04-29T11:55:00Z", "2023-04-29T11:53:00Z", "2023-04-29T11:53:00Z", "2023-04-29T11:53:00Z", "2023-04-29T11:53:00Z", "2023-04-29T11:55:00Z", "2023-04-29T11:55:00Z", "2023-04-29T11:53:00Z", "2023-04-29T11:56:00Z", "2023-04-29T11:55:00Z", "2023-04-29T11:51:00Z", "2023-04-29T11:53:00Z", "2023-04-29T11:40:00Z", "2023-04-29T11:55:00Z", "2023-04-29T11:55:00Z", "2023-04-29T11:57:00Z", "2023-04-29T11:53:00Z", "2023-04-29T11:55:00Z", "2023-04-29T11:55:00Z", "2023-04-29T11:56:00Z", "2023-04-29T11:53:00Z", "2023-04-29T11:55:00Z", "2023-04-29T11:54:00Z", "2023-04-29T11:55:00Z", "2023-04-29T11:53:00Z", "2023-04-29T11:55:00Z", "2023-04-29T11:51:00Z", "2023-04-29T11:55:00Z", "2023-04-29T11:55:00Z", "2023-04-29T11:50:00Z", "2023-04-29T11:55:00Z", "2023-04-29T11:55:00Z", "2023-04-29T11:55:00Z", "2023-04-29T11:56:00Z", "2023-04-29T11:53:00Z", "2023-04-29T11:55:00Z", "2023-04-29T11:56:00Z", "2023-04-29T11:58:00Z", "2023-04-29T11:55:00Z", "2023-04-29T11:45:00Z", "2023-04-29T11:39:00Z", "2023-04-29T11:54:00Z", "2023-04-29T11:53:00Z", "2023-04-29T11:53:00Z", "2023-04-29T11:53:00Z", "2023-04-29T11:53:00Z", "2023-04-29T11:53:00Z", "2023-04-29T11:56:00Z", "2023-04-29T11:53:00Z", "2023-04-29T11:50:00Z", "2023-04-29T11:53:00Z", "2023-04-29T11:53:00Z", "2023-04-29T11:55:00Z", "2023-04-29T11:55:00Z", "2023-04-29T11:53:00Z", "2023-04-29T11:54:00Z", "2023-04-29T11:55:00Z", "2023-04-29T11:56:00Z", "2023-04-29T11:55:00Z", "2023-04-29T11:55:00Z", "2023-04-29T11:55:00Z", "2023-04-29T12:00:00Z", "2023-04-29T11:54:00Z", "2023-04-29T11:56:00Z", "2023-04-29T11:53:00Z", "2023-04-29T11:45:00Z", "2023-04-29T12:00:00Z", "2023-04-29T11:52:00Z", "2023-04-29T11:45:00Z", "2023-04-29T11:53:00Z", "2023-04-29T11:55:00Z", "2023-04-29T10:54:00Z", "2023-04-29T11:55:00Z", "2023-04-29T11:53:00Z", "2023-04-29T11:55:00Z", "2023-04-29T11:53:00Z", "2023-04-29T11:55:00Z", "2023-04-29T11:51:00Z", "2023-04-29T11:55:00Z", "2023-04-29T11:56:00Z", "2023-04-29T11:53:00Z", "2023-04-29T11:55:00Z", "2023-04-29T11:55:00Z", "2023-04-29T11:55:00Z", "2023-04-29T11:55:00Z", "2023-04-29T11:55:00Z", "2023-04-29T11:52:00Z", "2023-04-29T11:55:00Z", "2023-04-29T11:54:00Z", "2023-04-29T11:56:00Z", "2023-04-29T11:55:00Z", "2023-04-29T11:51:00Z", "2023-04-29T11:56:00Z", "2023-04-29T11:56:00Z", "2023-04-29T11:52:00Z", "2023-04-29T11:53:00Z", "2023-04-29T11:56:00Z", "2023-04-29T11:52:00Z", "2023-04-29T11:56:00Z", "2023-04-29T11:52:00Z", "2023-04-29T11:56:00Z", "2023-04-29T11:59:00Z", "2023-04-29T11:52:00Z", "2023-04-29T11:56:00Z", "2023-04-29T11:53:00Z", "2023-04-29T11:56:00Z", "2023-04-29T11:57:00Z", "2023-04-29T10:57:00Z", "2023-04-29T11:56:00Z", "2023-04-29T10:55:00Z", "2023-04-29T11:56:00Z", "2023-04-29T11:56:00Z", "2023-04-29T11:56:00Z", "2023-04-29T11:30:00Z", "2023-04-29T10:56:00Z", "2023-04-29T11:50:00Z", "2023-04-29T11:56:00Z", "2023-04-29T11:53:00Z", "2023-04-29T11:52:00Z", "2023-04-29T11:55:00Z", "2023-04-29T11:53:00Z", "2023-04-29T11:34:00Z", "2023-04-29T11:53:00Z", "2023-04-29T11:55:00Z", "2023-04-29T11:56:00Z", "2023-04-29T11:56:00Z", "2023-04-29T11:53:00Z", "2023-04-29T11:55:00Z", "2023-04-29T11:53:00Z", "2023-04-29T10:56:00Z", "2023-04-29T11:56:00Z", "2023-04-29T11:51:00Z", "2023-04-29T11:56:00Z", "2023-04-29T11:57:00Z", "2023-04-29T11:52:00Z", "2023-04-29T11:55:00Z", "2023-04-29T11:55:00Z", "2023-04-29T11:55:00Z", "2023-04-29T11:55:00Z", "2023-04-29T11:55:00Z", "2023-04-29T11:56:00Z", "2023-04-29T11:53:00Z", "2023-04-29T11:55:00Z", "2023-04-29T11:55:00Z", "2023-04-29T11:51:00Z", "2023-04-29T11:56:00Z", "2023-04-29T11:55:00Z", "2023-04-29T11:45:00Z", "2023-04-29T11:53:00Z", "2023-04-29T11:53:00Z", "2023-04-29T11:55:00Z", "2023-04-29T11:55:00Z", "2023-04-29T11:55:00Z", "2023-04-29T11:55:00Z", "2023-04-29T11:56:00Z", "2023-04-29T11:54:00Z", "2023-04-29T11:55:00Z", "2023-04-29T11:53:00Z", "2023-04-29T11:53:00Z", "2023-04-29T11:55:00Z", "2023-04-29T11:55:00Z", "2023-04-29T11:55:00Z", "2023-04-29T11:55:00Z", "2023-04-29T11:53:00Z", "2023-04-29T11:52:00Z", "2023-04-29T11:52:00Z", "2023-04-29T11:56:00Z", "2023-04-29T11:55:00Z", "2023-04-29T11:55:00Z", "2023-04-29T11:55:00Z", "2023-04-29T11:55:00Z", "2023-04-29T11:53:00Z", "2023-04-29T11:55:00Z", "2023-04-29T11:54:00Z", "2023-04-29T11:54:00Z", "2023-04-29T11:56:00Z", "2023-04-29T11:50:00Z", "2023-04-29T11:30:00Z", "2023-04-29T11:35:00Z", "2023-04-29T11:52:00Z", "2023-04-29T11:55:00Z", "2023-04-29T11:53:00Z", "2023-04-29T11:50:00Z", "2023-04-29T11:35:00Z", "2023-04-29T11:55:00Z", "2023-04-29T11:53:00Z", "2023-04-29T11:55:00Z", "2023-04-29T11:53:00Z", "2023-04-29T11:45:00Z", "2023-04-29T11:55:00Z", "2023-04-29T11:35:00Z", "2023-04-29T11:53:00Z", "2023-04-29T11:35:00Z", "2023-04-29T11:35:00Z", "2023-04-29T11:55:00Z", "2023-04-29T11:53:00Z", "2023-04-29T11:53:00Z", "2023-04-29T11:51:00Z", "2023-04-29T11:52:00Z", "2023-04-29T11:51:00Z", "2023-04-29T11:35:00Z", "2023-04-29T11:54:00Z", "2023-04-29T11:55:00Z", "2023-04-29T11:53:00Z", "2023-04-29T11:55:00Z", "2023-04-29T11:35:00Z", "2023-04-29T11:55:00Z", "2023-04-29T11:53:00Z", "2023-04-29T11:53:00Z", "2023-04-29T11:56:00Z", "2023-04-29T11:56:00Z", "2023-04-29T11:53:00Z", "2023-04-29T11:35:00Z", "2023-04-29T11:55:00Z", "2023-04-29T11:53:00Z", "2023-04-29T11:53:00Z", "2023-04-29T11:56:00Z", "2023-04-29T11:53:00Z", "2023-04-29T11:55:00Z", "2023-04-29T11:35:00Z", "2023-04-29T11:53:00Z", "2023-04-29T11:51:00Z", "2023-04-29T11:55:00Z", "2023-04-29T11:35:00Z", "2023-04-29T11:51:00Z", "2023-04-29T11:35:00Z", "2023-04-29T11:55:00Z", "2023-04-29T11:35:00Z", "2023-04-29T11:55:00Z", "2023-04-29T11:55:00Z", "2023-04-29T11:55:00Z", "2023-04-29T11:55:00Z", "2023-04-29T11:56:00Z", "2023-04-29T11:55:00Z", "2023-04-29T11:56:00Z", "2023-04-29T10:55:00Z", "2023-04-29T11:51:00Z", "2023-04-29T11:56:00Z", "2023-04-29T11:53:00Z", "2023-04-29T11:52:00Z", "2023-04-29T10:59:00Z", "2023-04-29T11:53:00Z", "2023-04-29T11:53:00Z", "2023-04-29T11:55:00Z", "2023-04-29T11:55:00Z", "2023-04-29T11:53:00Z", "2023-04-29T11:53:00Z", "2023-04-29T11:55:00Z", "2023-04-29T11:53:00Z", "2023-04-29T11:35:00Z", "2023-04-29T11:55:00Z", "2023-04-29T11:55:00Z", "2023-04-29T11:55:00Z", "2023-04-29T11:55:00Z", "2023-04-29T11:53:00Z", "2023-04-29T11:53:00Z", "2023-04-29T11:53:00Z", "2023-04-29T11:35:00Z", "2023-04-29T11:53:00Z", "2023-04-29T11:35:00Z", "2023-04-29T11:55:00Z", "2023-04-29T11:55:00Z", "2023-04-29T11:53:00Z", "2023-04-29T11:53:00Z", "2023-04-29T11:45:00Z", "2023-04-29T11:05:00Z", "2023-04-29T11:54:00Z", "2023-04-29T11:54:00Z", "2023-04-29T11:55:00Z", "2023-04-29T11:55:00Z", "2023-04-29T11:55:00Z", "2023-04-29T11:51:00Z", "2023-04-29T11:54:00Z", "2023-04-29T11:56:00Z", "2023-04-29T11:53:00Z", "2023-04-29T11:53:00Z", "2023-04-29T11:53:00Z", "2023-04-29T11:35:00Z", "2023-04-29T11:53:00Z", "2023-04-29T11:51:00Z", "2023-04-29T11:55:00Z", "2023-04-29T11:53:00Z", "2023-04-29T11:53:00Z", "2023-04-29T11:54:00Z", "2023-04-29T11:55:00Z", "2023-04-29T11:55:00Z", "2023-04-29T11:53:00Z", "2023-04-29T11:55:00Z", "2023-04-29T11:53:00Z", "2023-04-29T11:35:00Z", "2023-04-29T11:35:00Z", "2023-04-29T11:35:00Z", "2023-04-29T11:53:00Z", "2023-04-29T11:54:00Z", "2023-04-29T11:55:00Z", "2023-04-29T11:53:00Z", "2023-04-29T11:55:00Z", "2023-04-29T12:00:00Z", "2023-04-29T11:55:00Z", "2023-04-29T11:55:00Z", "2023-04-29T11:53:00Z", "2023-04-29T11:53:00Z", "2023-04-29T11:55:00Z", "2023-04-29T11:35:00Z", "2023-04-29T11:35:00Z", "2023-04-29T11:52:00Z", "2023-04-29T11:35:00Z", "2023-04-29T11:35:00Z", "2023-04-29T11:56:00Z", "2023-04-29T11:53:00Z", "2023-04-29T11:53:00Z", "2023-04-29T11:53:00Z", "2023-04-29T11:35:00Z", "2023-04-29T10:58:00Z", "2023-04-29T11:55:00Z", "2023-04-29T11:55:00Z", "2023-04-29T11:56:00Z", "2023-04-29T11:53:00Z", "2023-04-29T11:54:00Z", "2023-04-29T11:55:00Z", "2023-04-29T11:55:00Z", "2023-04-29T11:35:00Z", "2023-04-29T11:35:00Z", "2023-04-29T11:53:00Z", "2023-04-29T11:53:00Z", "2023-04-29T11:55:00Z", "2023-04-29T11:55:00Z", "2023-04-29T11:53:00Z", "2023-04-29T11:56:00Z", "2023-04-29T11:55:00Z", "2023-04-29T11:35:00Z", "2023-04-29T11:56:00Z", "2023-04-29T11:54:00Z", "2023-04-29T11:53:00Z", "2023-04-29T11:53:00Z", "2023-04-29T11:35:00Z", "2023-04-29T11:53:00Z", "2023-04-29T11:55:00Z", "2023-04-29T11:56:00Z", "2023-04-29T11:51:00Z", "2023-04-29T11:55:00Z", "2023-04-29T11:55:00Z", "2023-04-29T11:56:00Z", "2023-04-29T11:55:00Z", "2023-04-29T11:56:00Z", "2023-04-29T11:35:00Z", "2023-04-29T11:53:00Z", "2023-04-29T11:55:00Z", "2023-04-29T11:55:00Z", "2023-04-29T11:56:00Z", "2023-04-29T11:52:00Z", "2023-04-29T11:51:00Z", "2023-04-29T11:56:00Z", "2023-04-29T11:55:00Z", "2023-04-29T11:52:00Z", "2023-04-29T11:55:00Z", "2023-04-29T11:55:00Z", "2023-04-29T11:55:00Z", "2023-04-29T11:55:00Z", "2023-04-29T10:55:00Z", "2023-04-29T11:55:00Z", "2023-04-29T11:55:00Z", "2023-04-29T11:50:00Z", "2023-04-29T11:50:00Z", "2023-04-29T12:00:00Z", "2023-04-29T12:00:00Z", "2023-04-29T12:00:00Z", "2023-04-29T11:50:00Z", "2023-04-29T11:50:00Z", "2023-04-29T11:50:00Z", "2023-04-29T12:00:00Z", "2023-04-29T11:50:00Z", "2023-04-29T11:40:00Z", "2023-04-29T11:50:00Z", "2023-04-29T11:50:00Z", "2023-04-29T12:00:00Z", "2023-04-29T12:00:00Z", "2023-04-29T11:50:00Z", "2023-04-29T12:00:00Z", "2023-04-29T11:55:00Z", "2023-04-29T11:55:00Z", "2023-04-29T11:55:00Z", "2023-04-29T11:55:00Z", "2023-04-29T10:55:00Z", "2023-04-29T11:55:00Z", "2023-04-29T11:53:00Z", "2023-04-29T11:53:00Z", "2023-04-29T11:52:00Z", "2023-04-29T11:35:00Z", "2023-04-29T11:55:00Z", "2023-04-29T11:53:00Z", "2023-04-29T11:53:00Z", "2023-04-29T11:54:00Z", "2023-04-29T11:35:00Z", "2023-04-29T11:55:00Z", "2023-04-29T10:55:00Z", "2023-04-29T11:55:00Z", "2023-04-29T11:55:00Z", "2023-04-29T11:35:00Z", "2023-04-29T11:55:00Z", "2023-04-29T11:55:00Z", "2023-04-29T11:55:00Z", "2023-04-29T11:53:00Z", "2023-04-29T11:54:00Z", "2023-04-29T11:35:00Z", "2023-04-29T11:56:00Z", "2023-04-29T11:55:00Z", "2023-04-29T11:51:00Z", "2023-04-29T11:55:00Z", "2023-04-29T11:52:00Z", "2023-04-29T11:54:00Z", "2023-04-29T11:55:00Z", "2023-04-29T11:35:00Z", "2023-04-29T11:55:00Z", "2023-04-29T11:53:00Z", "2023-04-29T11:50:00Z", "2023-04-29T11:54:00Z", "2023-04-29T11:55:00Z", "2023-04-29T11:53:00Z", "2023-04-29T11:55:00Z", "2023-04-29T11:53:00Z", "2023-04-29T11:56:00Z", "2023-04-29T11:53:00Z", "2023-04-29T11:55:00Z", "2023-04-29T11:54:00Z", "2023-04-29T11:55:00Z", "2023-04-29T11:55:00Z", "2023-04-29T11:53:00Z", "2023-04-29T11:53:00Z", "2023-04-29T11:55:00Z", "2023-04-29T11:55:00Z", "2023-04-29T11:55:00Z", "2023-04-29T11:55:00Z", "2023-04-29T11:55:00Z", "2023-04-29T11:53:00Z", "2023-04-29T11:55:00Z", "2023-04-29T11:55:00Z", "2023-04-29T11:53:00Z", "2023-04-29T11:54:00Z", "2023-04-29T11:54:00Z", "2023-04-29T11:58:00Z", "2023-04-29T11:55:00Z", "2023-04-29T11:51:00Z", "2023-04-29T11:55:00Z", "2023-04-29T11:55:00Z", "2023-04-29T11:55:00Z", "2023-04-29T11:35:00Z", "2023-04-29T10:55:00Z", "2023-04-29T11:55:00Z", "2023-04-29T11:53:00Z", "2023-04-29T11:35:00Z", "2023-04-29T11:55:00Z", "2023-04-29T11:55:00Z", "2023-04-29T11:53:00Z", "2023-04-29T11:54:00Z", "2023-04-29T11:54:00Z", "2023-04-29T11:53:00Z", "2023-04-29T11:53:00Z", "2023-04-29T11:55:00Z", "2023-04-29T11:53:00Z", "2023-04-29T11:55:00Z", "2023-04-29T11:45:00Z", "2023-04-29T11:56:00Z", "2023-04-29T11:55:00Z", "2023-04-29T11:35:00Z", "2023-04-29T11:55:00Z", "2023-04-29T11:53:00Z", "2023-04-29T11:53:00Z", "2023-04-29T11:53:00Z", "2023-04-29T11:53:00Z", "2023-04-29T11:35:00Z", "2023-04-29T11:53:00Z", "2023-04-29T11:55:00Z", "2023-04-29T11:55:00Z", "2023-04-29T11:55:00Z", "2023-04-29T11:50:00Z", "2023-04-29T11:55:00Z", "2023-04-29T11:55:00Z", "2023-04-29T11:55:00Z", "2023-04-29T11:35:00Z", "2023-04-29T11:55:00Z", "2023-04-29T11:55:00Z", "2023-04-29T11:55:00Z", "2023-04-29T11:55:00Z", "2023-04-29T11:35:00Z", "2023-04-29T10:55:00Z", "2023-04-29T11:55:00Z", "2023-04-29T11:55:00Z", "2023-04-29T12:00:00Z", "2023-04-29T11:55:00Z", "2023-04-29T11:55:00Z", "2023-04-29T11:53:00Z", "2023-04-29T11:51:00Z", "2023-04-29T11:53:00Z", "2023-04-29T11:51:00Z", "2023-04-29T11:55:00Z", "2023-04-29T11:51:00Z", "2023-04-29T11:53:00Z", "2023-04-29T11:45:00Z", "2023-04-29T11:55:00Z", "2023-04-29T11:53:00Z", "2023-04-29T12:00:00Z", "2023-04-29T11:53:00Z", "2023-04-29T11:54:00Z", "2023-04-29T11:55:00Z", "2023-04-29T11:56:00Z", "2023-04-29T11:55:00Z", "2023-04-29T11:54:00Z", "2023-04-29T11:55:00Z", "2023-04-29T11:46:00Z", "2023-04-29T11:55:00Z", "2023-04-29T11:45:00Z", "2023-04-29T11:55:00Z", "2023-04-29T11:55:00Z", "2023-04-29T11:51:00Z", "2023-04-29T11:35:00Z", "2023-04-29T11:56:00Z", "2023-04-29T11:53:00Z", "2023-04-29T11:53:00Z", "2023-04-29T11:56:00Z", "2023-04-29T11:53:00Z", "2023-04-29T11:55:00Z", "2023-04-29T11:55:00Z", "2023-04-29T11:53:00Z", "2023-04-29T11:55:00Z", "2023-04-29T11:55:00Z", "2023-04-29T11:55:00Z", "2023-04-29T11:54:00Z", "2023-04-29T11:55:00Z", "2023-04-29T11:53:00Z", "2023-04-29T11:53:00Z", "2023-04-29T11:56:00Z", "2023-04-29T11:56:00Z", "2023-04-29T11:55:00Z", "2023-04-29T11:56:00Z", "2023-04-29T11:52:00Z", "2023-04-29T11:56:00Z", "2023-04-29T11:56:00Z", "2023-04-29T11:53:00Z", "2023-04-29T11:55:00Z", "2023-04-29T11:56:00Z", "2023-04-29T11:56:00Z", "2023-04-29T11:55:00Z", "2023-04-29T11:55:00Z", "2023-04-29T11:55:00Z", "2023-04-29T11:53:00Z", "2023-04-29T11:53:00Z", "2023-04-29T11:56:00Z", "2023-04-29T11:45:00Z", "2023-04-29T11:55:00Z", "2023-04-29T11:53:00Z", "2023-04-29T11:53:00Z", "2023-04-29T11:55:00Z", "2023-04-29T11:51:00Z", "2023-04-29T11:55:00Z", "2023-04-29T11:55:00Z", "2023-04-29T11:55:00Z", "2023-04-29T11:56:00Z", "2023-04-29T11:55:00Z", "2023-04-29T11:54:00Z", "2023-04-29T11:56:00Z", "2023-04-29T11:56:00Z", "2023-04-29T11:55:00Z", "2023-04-29T11:55:00Z", "2023-04-29T11:51:00Z", "2023-04-29T11:53:00Z", "2023-04-29T11:55:00Z", "2023-04-29T11:55:00Z", "2023-04-29T11:55:00Z", "2023-04-29T11:55:00Z", "2023-04-29T11:53:00Z", "2023-04-29T11:56:00Z", "2023-04-29T11:51:00Z", "2023-04-29T11:53:00Z", "2023-04-29T11:55:00Z", "2023-04-29T11:51:00Z", "2023-04-29T11:53:00Z", "2023-04-29T11:55:00Z", "2023-04-29T11:50:00Z", "2023-04-29T11:55:00Z", "2023-04-29T11:53:00Z", "2023-04-29T11:51:00Z", "2023-04-29T11:53:00Z", "2023-04-29T11:55:00Z", "2023-04-29T11:56:00Z", "2023-04-29T11:55:00Z", "2023-04-29T11:55:00Z", "2023-04-29T11:53:00Z", "2023-04-29T11:56:00Z", "2023-04-29T11:55:00Z", "2023-04-29T11:53:00Z", "2023-04-29T11:52:00Z", "2023-04-29T11:55:00Z", "2023-04-29T11:52:00Z", "2023-04-29T11:53:00Z", "2023-04-29T11:56:00Z", "2023-04-29T11:55:00Z", "2023-04-29T11:55:00Z", "2023-04-29T11:56:00Z", "2023-04-29T11:55:00Z", "2023-04-29T11:53:00Z", "2023-04-29T11:55:00Z", "2023-04-29T11:55:00Z", "2023-04-29T11:53:00Z", "2023-04-29T11:53:00Z", "2023-04-29T11:53:00Z", "2023-04-29T11:55:00Z", "2023-04-29T11:55:00Z", "2023-04-29T11:53:00Z", "2023-04-29T11:55:00Z", "2023-04-29T11:51:00Z", "2023-04-29T11:53:00Z", "2023-04-29T11:53:00Z", "2023-04-29T11:51:00Z", "2023-04-29T11:56:00Z", "2023-04-29T11:55:00Z", "2023-04-29T11:54:00Z", "2023-04-29T11:50:00Z", "2023-04-29T11:55:00Z", "2023-04-29T11:55:00Z", "2023-04-29T11:52:00Z", "2023-04-29T11:55:00Z", "2023-04-29T11:55:00Z", "2023-04-29T11:55:00Z", "2023-04-29T11:45:00Z", "2023-04-29T11:55:00Z", "2023-04-29T11:45:00Z", "2023-04-29T11:53:00Z", "2023-04-29T11:55:00Z", "2023-04-29T11:55:00Z", "2023-04-29T11:55:00Z", "2023-04-29T11:56:00Z", "2023-04-29T11:55:00Z", "2023-04-29T11:55:00Z", "2023-04-29T11:55:00Z", "2023-04-29T11:55:00Z", "2023-04-29T11:55:00Z", "2023-04-29T11:54:00Z", "2023-04-29T11:55:00Z", "2023-04-29T11:55:00Z", "2023-04-29T11:55:00Z", "2023-04-29T11:35:00Z", "2023-04-29T11:35:00Z", "2023-04-29T11:55:00Z", "2023-04-29T11:55:00Z", "2023-04-29T11:55:00Z", "2023-04-29T11:55:00Z", "2023-04-29T11:55:00Z", "2023-04-29T11:55:00Z", "2023-04-29T11:55:00Z", "2023-04-29T11:54:00Z", "2023-04-29T11:52:00Z", "2023-04-29T11:55:00Z", "2023-04-29T11:55:00Z", "2023-04-29T11:55:00Z", "2023-04-29T11:55:00Z", "2023-04-29T11:53:00Z", "2023-04-29T11:55:00Z", "2023-04-29T11:53:00Z", "2023-04-29T11:55:00Z", "2023-04-29T11:45:00Z", "2023-04-29T11:55:00Z", "2023-04-29T11:53:00Z", "2023-04-29T11:51:00Z", "2023-04-29T11:55:00Z", "2023-04-29T11:55:00Z", "2023-04-29T10:55:00Z", "2023-04-29T11:55:00Z", "2023-04-29T11:55:00Z", "2023-04-29T10:55:00Z", "2023-04-29T11:55:00Z", "2023-04-29T11:55:00Z", "2023-04-29T11:35:00Z", "2023-04-29T11:53:00Z", "2023-04-29T11:50:00Z", "2023-04-29T11:55:00Z", "2023-04-29T11:53:00Z", "2023-04-29T11:55:00Z", "2023-04-29T11:55:00Z", "2023-04-29T11:53:00Z", "2023-04-29T11:55:00Z", "2023-04-29T11:53:00Z", "2023-04-29T11:55:00Z", "2023-04-29T11:55:00Z", "2023-04-29T11:55:00Z", "2023-04-29T11:55:00Z", "2023-04-29T11:55:00Z", "2023-04-29T11:55:00Z", "2023-04-29T11:55:00Z", "2023-04-29T11:53:00Z", "2023-04-29T11:52:00Z", "2023-04-29T11:53:00Z", "2023-04-29T11:53:00Z", "2023-04-29T11:53:00Z", "2023-04-29T11:55:00Z", "2023-04-29T11:56:00Z", "2023-04-29T11:51:00Z", "2023-04-29T11:54:00Z", "2023-04-29T11:55:00Z", "2023-04-29T11:55:00Z", "2023-04-29T11:55:00Z", "2023-04-29T11:53:00Z", "2023-04-29T11:42:00Z", "2023-04-29T11:53:00Z", "2023-04-29T11:52:00Z", "2023-04-29T11:55:00Z", "2023-04-29T11:45:00Z", "2023-04-29T11:53:00Z", "2023-04-29T11:55:00Z", "2023-04-29T11:53:00Z", "2023-04-29T11:55:00Z", "2023-04-29T11:53:00Z", "2023-04-29T11:53:00Z", "2023-04-29T11:53:00Z", "2023-04-29T11:53:00Z", "2023-04-29T11:56:00Z", "2023-04-29T11:55:00Z", "2023-04-29T11:55:00Z", "2023-04-29T11:53:00Z", "2023-04-29T11:53:00Z", "2023-04-29T11:55:00Z", "2023-04-29T11:53:00Z", "2023-04-29T11:55:00Z", "2023-04-29T11:55:00Z", "2023-04-29T11:53:00Z", "2023-04-29T11:55:00Z", "2023-04-29T11:55:00Z", "2023-04-29T11:55:00Z", "2023-04-29T11:53:00Z", "2023-04-29T11:53:00Z", "2023-04-29T11:47:00Z", "2023-04-29T11:55:00Z", "2023-04-29T11:55:00Z", "2023-04-29T11:55:00Z", "2023-04-29T11:55:00Z", "2023-04-29T11:55:00Z", "2023-04-29T11:53:00Z", "2023-04-29T11:55:00Z", "2023-04-29T11:56:00Z", "2023-04-29T11:55:00Z", "2023-04-29T11:56:00Z", "2023-04-29T11:45:00Z", "2023-04-29T11:51:00Z", "2023-04-29T11:53:00Z", "2023-04-29T11:54:00Z", "2023-04-29T11:45:00Z", "2023-04-29T11:56:00Z", "2023-04-29T11:55:00Z", "2023-04-29T11:55:00Z", "2023-04-29T11:55:00Z", "2023-04-29T11:30:00Z", "2023-04-29T11:35:00Z", "2023-04-29T11:55:00Z", "2023-04-29T11:53:00Z", "2023-04-29T11:55:00Z", "2023-04-29T11:53:00Z", "2023-04-29T11:55:00Z", "2023-04-29T11:55:00Z", "2023-04-29T11:55:00Z", "2023-04-29T11:53:00Z", "2023-04-29T11:53:00Z", "2023-04-29T11:55:00Z", "2023-04-29T11:55:00Z", "2023-04-29T11:55:00Z", "2023-04-29T11:55:00Z", "2023-04-29T11:54:00Z", "2023-04-29T11:55:00Z", "2023-04-29T11:55:00Z", "2023-04-29T11:54:00Z", "2023-04-29T11:55:00Z", "2023-04-29T11:56:00Z", "2023-04-29T11:55:00Z", "2023-04-29T11:53:00Z", "2023-04-29T11:51:00Z", "2023-04-29T11:55:00Z", "2023-04-29T11:55:00Z", "2023-04-29T11:55:00Z", "2023-04-29T11:53:00Z", "2023-04-29T11:55:00Z", "2023-04-29T11:30:00Z", "2023-04-29T11:55:00Z", "2023-04-29T11:53:00Z", "2023-04-29T11:55:00Z", "2023-04-29T11:53:00Z", "2023-04-29T11:56:00Z", "2023-04-29T11:55:00Z", "2023-04-29T11:55:00Z", "2023-04-29T11:55:00Z", "2023-04-29T11:53:00Z", "2023-04-29T11:55:00Z", "2023-04-29T11:55:00Z", "2023-04-29T11:55:00Z", "2023-04-29T11:51:00Z", "2023-04-29T11:55:00Z", "2023-04-29T11:25:00Z", "2023-04-29T11:55:00Z", "2023-04-29T11:55:00Z", "2023-04-29T11:56:00Z", "2023-04-29T11:50:00Z", "2023-04-29T11:53:00Z", "2023-04-29T11:54:00Z", "2023-04-29T11:54:00Z", "2023-04-29T11:55:00Z", "2023-04-29T11:52:00Z", "2023-04-29T11:55:00Z", "2023-04-29T11:45:00Z", "2023-04-29T11:30:00Z", "2023-04-29T11:55:00Z", "2023-04-29T11:55:00Z", "2023-04-29T11:55:00Z", "2023-04-29T11:55:00Z", "2023-04-29T11:55:00Z", "2023-04-29T11:45:00Z", "2023-04-29T11:55:00Z", "2023-04-29T11:45:00Z", "2023-04-29T11:55:00Z", "2023-04-29T11:55:00Z", "2023-04-29T11:55:00Z", "2023-04-29T11:55:00Z", "2023-04-29T11:55:00Z", "2023-04-29T11:55:00Z", "2023-04-29T11:54:00Z", "2023-04-29T11:55:00Z", "2023-04-29T11:45:00Z", "2023-04-29T11:55:00Z", "2023-04-29T11:56:00Z", "2023-04-29T11:54:00Z", "2023-04-29T11:56:00Z", "2023-04-29T10:55:00Z", "2023-04-29T11:55:00Z", "2023-04-29T11:53:00Z", "2023-04-29T11:53:00Z", "2023-04-29T11:53:00Z", "2023-04-29T11:56:00Z", "2023-04-29T11:56:00Z", "2023-04-29T11:55:00Z", "2023-04-29T11:55:00Z", "2023-04-29T11:30:00Z", "2023-04-29T11:55:00Z", "2023-04-29T11:30:00Z", "2023-04-29T11:55:00Z", "2023-04-29T11:55:00Z", "2023-04-29T11:53:00Z", "2023-04-29T11:55:00Z", "2023-04-29T11:55:00Z", "2023-04-29T11:55:00Z", "2023-04-29T11:53:00Z", "2023-04-29T11:51:00Z", "2023-04-29T11:55:00Z", "2023-04-29T11:55:00Z", "2023-04-29T11:55:00Z", "2023-04-29T11:55:00Z", "2023-04-29T11:56:00Z", "2023-04-29T11:55:00Z", "2023-04-29T11:55:00Z", "2023-04-29T11:55:00Z", "2023-04-29T11:53:00Z", "2023-04-29T11:53:00Z", "2023-04-29T11:56:00Z", "2023-04-29T11:51:00Z", "2023-04-29T11:55:00Z", "2023-04-29T11:55:00Z", "2023-04-29T11:53:00Z", "2023-04-29T11:50:00Z", "2023-04-29T12:00:00Z", "2023-04-29T12:00:00Z", "2023-04-29T12:00:00Z", "2023-04-29T12:00:00Z", "2023-04-29T12:00:00Z", "2023-04-29T12:00:00Z", "2023-04-29T12:00:00Z", "2023-04-29T12:00:00Z", "2023-04-29T11:50:00Z", "2023-04-29T11:30:00Z", "2023-04-29T11:30:00Z", "2023-04-29T11:50:00Z", "2023-04-29T11:30:00Z", "2023-04-29T11:30:00Z", "2023-04-29T11:30:00Z", "2023-04-29T11:30:00Z", "2023-04-29T11:30:00Z", "2023-04-29T11:30:00Z", "2023-04-29T11:30:00Z", "2023-04-29T11:30:00Z", "2023-04-29T11:30:00Z", "2023-04-29T11:30:00Z", "2023-04-29T11:30:00Z", "2023-04-29T11:30:00Z", "2023-04-29T11:30:00Z", "2023-04-29T11:30:00Z", "2023-04-29T11:30:00Z", "2023-04-29T11:30:00Z", "2023-04-29T11:30:00Z", "2023-04-29T11:30:00Z", "2023-04-29T11:30:00Z", "2023-04-29T11:30:00Z", "2023-04-29T11:30:00Z", "2023-04-29T11:30:00Z", "2023-04-29T11:30:00Z", "2023-04-29T11:30:00Z", "2023-04-29T11:30:00Z", "2023-04-29T11:30:00Z", "2023-04-29T11:30:00Z", "2023-04-29T11:30:00Z", "2023-04-29T11:30:00Z", "2023-04-29T11:30:00Z", "2023-04-29T11:30:00Z", "2023-04-29T12:00:00Z", "2023-04-29T11:30:00Z", "2023-04-29T11:30:00Z", "2023-04-29T11:30:00Z", "2023-04-29T11:30:00Z", "2023-04-29T11:30:00Z", "2023-04-29T11:30:00Z", "2023-04-29T11:30:00Z", "2023-04-29T11:30:00Z", "2023-04-29T12:00:00Z", "2023-04-29T11:30:00Z", "2023-04-29T11:30:00Z", "2023-04-29T11:30:00Z", "2023-04-29T11:30:00Z", "2023-04-29T11:30:00Z", "2023-04-29T11:30:00Z", "2023-04-29T11:30:00Z", "2023-04-29T11:30:00Z", "2023-04-29T11:30:00Z", "2023-04-29T11:30:00Z", "2023-04-29T11:30:00Z", "2023-04-29T11:30:00Z", "2023-04-29T11:30:00Z", "2023-04-29T11:30:00Z", "2023-04-29T11:30:00Z", "2023-04-29T11:30:00Z", "2023-04-29T11:30:00Z", "2023-04-29T11:30:00Z", "2023-04-29T11:30:00Z", "2023-04-29T11:30:00Z", "2023-04-29T11:30:00Z", "2023-04-29T11:30:00Z", "2023-04-29T11:30:00Z", "2023-04-29T11:30:00Z", "2023-04-29T11:30:00Z", "2023-04-29T11:30:00Z", "2023-04-29T11:30:00Z", "2023-04-29T11:30:00Z", "2023-04-29T11:30:00Z", "2023-04-29T11:30:00Z", "2023-04-29T11:30:00Z", "2023-04-29T11:30:00Z", "2023-04-29T11:30:00Z", "2023-04-29T11:30:00Z", "2023-04-29T11:30:00Z", "2023-04-29T11:30:00Z", "2023-04-29T11:30:00Z", "2023-04-29T11:30:00Z", "2023-04-29T11:30:00Z", "2023-04-29T11:30:00Z", "2023-04-29T11:30:00Z", "2023-04-29T11:30:00Z", "2023-04-29T11:30:00Z", "2023-04-29T11:30:00Z", "2023-04-29T11:30:00Z", "2023-04-29T11:30:00Z", "2023-04-29T11:30:00Z", "2023-04-29T11:30:00Z", "2023-04-29T11:30:00Z", "2023-04-29T11:30:00Z", "2023-04-29T11:30:00Z", "2023-04-29T11:30:00Z", "2023-04-29T11:30:00Z", "2023-04-29T11:30:00Z", "2023-04-29T11:30:00Z", "2023-04-29T11:30:00Z", "2023-04-29T11:30:00Z", "2023-04-29T11:30:00Z", "2023-04-29T11:30:00Z", "2023-04-29T11:30:00Z", "2023-04-29T11:30:00Z", "2023-04-29T11:30:00Z", "2023-04-29T11:30:00Z", "2023-04-29T11:30:00Z", "2023-04-29T11:30:00Z", "2023-04-29T11:30:00Z", "2023-04-29T11:30:00Z", "2023-04-29T11:30:00Z", "2023-04-29T11:30:00Z", "2023-04-29T11:30:00Z", "2023-04-29T11:30:00Z", "2023-04-29T11:30:00Z", "2023-04-29T11:30:00Z", "2023-04-29T11:30:00Z", "2023-04-29T11:30:00Z", "2023-04-29T11:30:00Z", "2023-04-29T11:30:00Z", "2023-04-29T11:30:00Z", "2023-04-29T11:30:00Z", "2023-04-29T11:30:00Z", "2023-04-29T11:30:00Z", "2023-04-29T11:30:00Z", "2023-04-29T11:30:00Z", "2023-04-29T11:30:00Z", "2023-04-29T11:30:00Z", "2023-04-29T11:30:00Z", "2023-04-29T11:30:00Z", "2023-04-29T11:30:00Z", "2023-04-29T11:30:00Z", "2023-04-29T11:30:00Z", "2023-04-29T11:30:00Z", "2023-04-29T11:30:00Z", "2023-04-29T11:30:00Z", "2023-04-29T11:30:00Z", "2023-04-29T11:30:00Z", "2023-04-29T11:30:00Z", "2023-04-29T11:30:00Z", "2023-04-29T11:30:00Z", "2023-04-29T11:30:00Z", "2023-04-29T11:30:00Z", "2023-04-29T11:30:00Z", "2023-04-29T11:30:00Z", "2023-04-29T11:30:00Z", "2023-04-29T11:30:00Z", "2023-04-29T11:30:00Z", "2023-04-29T11:30:00Z", "2023-04-29T11:30:00Z", "2023-04-29T11:30:00Z", "2023-04-29T11:30:00Z", "2023-04-29T11:30:00Z", "2023-04-29T11:30:00Z", "2023-04-29T11:30:00Z", "2023-04-29T11:30:00Z", "2023-04-29T11:30:00Z", "2023-04-29T11:30:00Z", "2023-04-29T11:30:00Z", "2023-04-29T11:30:00Z", "2023-04-29T11:30:00Z", "2023-04-29T11:30:00Z", "2023-04-29T11:30:00Z", "2023-04-29T11:30:00Z", "2023-04-29T11:30:00Z", "2023-04-29T11:30:00Z", "2023-04-29T11:30:00Z", "2023-04-29T11:30:00Z", "2023-04-29T11:30:00Z", "2023-04-29T11:30:00Z", "2023-04-29T11:30:00Z", "2023-04-29T11:30:00Z", "2023-04-29T11:30:00Z", "2023-04-29T11:30:00Z", "2023-04-29T11:50:00Z", "2023-04-29T11:50:00Z", "2023-04-29T11:50:00Z", "2023-04-29T11:50:00Z", "2023-04-29T11:50:00Z", "2023-04-29T11:50:00Z", "2023-04-29T11:50:00Z", "2023-04-29T11:50:00Z", "2023-04-29T11:50:00Z", "2023-04-29T11:50:00Z", "2023-04-29T11:50:00Z", "2023-04-29T11:50:00Z", "2023-04-29T11:50:00Z", "2023-04-29T11:50:00Z", "2023-04-29T11:50:00Z", "2023-04-29T11:50:00Z", "2023-04-29T11:50:00Z", "2023-04-29T11:50:00Z", "2023-04-29T11:50:00Z", "2023-04-29T11:50:00Z", "2023-04-29T11:50:00Z", "2023-04-29T11:50:00Z", "2023-04-29T11:50:00Z", "2023-04-29T11:50:00Z", "2023-04-29T11:50:00Z", "2023-04-29T11:50:00Z", "2023-04-29T11:50:00Z", "2023-04-29T11:50:00Z", "2023-04-29T11:30:00Z", "2023-04-29T11:15:00Z", "2023-04-29T11:45:00Z", "2023-04-29T11:15:00Z", "2023-04-29T11:15:00Z", "2023-04-29T11:15:00Z", "2023-04-29T11:15:00Z", "2023-04-29T11:45:00Z", "2023-04-29T10:55:00Z", "2023-04-29T10:50:00Z", "2023-04-29T11:50:00Z", "2023-04-29T10:50:00Z", "2023-04-29T10:50:00Z", "2023-04-29T10:55:00Z", "2023-04-29T11:50:00Z", "2023-04-29T10:55:00Z", "2023-04-29T11:50:00Z", "2023-04-29T10:55:00Z", "2023-04-29T10:55:00Z", "2023-04-29T11:50:00Z", "2023-04-29T11:50:00Z", "2023-04-29T11:50:00Z", "2023-04-29T11:50:00Z", "2023-04-29T10:55:00Z", "2023-04-29T10:50:00Z", "2023-04-29T11:50:00Z", "2023-04-29T11:50:00Z", "2023-04-29T10:55:00Z", "2023-04-29T10:55:00Z", "2023-04-29T11:50:00Z", "2023-04-29T10:55:00Z", "2023-04-29T10:55:00Z", "2023-04-29T11:50:00Z", "2023-04-29T11:50:00Z", "2023-04-29T10:50:00Z", "2023-04-29T11:50:00Z", "2023-04-29T11:50:00Z", "2023-04-29T11:50:00Z", "2023-04-29T10:50:00Z", "2023-04-29T10:55:00Z", "2023-04-29T11:50:00Z", "2023-04-29T10:55:00Z", "2023-04-29T11:50:00Z", "2023-04-29T10:50:00Z", "2023-04-29T10:55:00Z", "2023-04-29T10:55:00Z", "2023-04-29T10:55:00Z", "2023-04-29T11:20:00Z", "2023-04-29T11:50:00Z", "2023-04-29T10:55:00Z", "2023-04-29T11:50:00Z", "2023-04-29T10:55:00Z", "2023-04-29T11:50:00Z", "2023-04-29T10:55:00Z", "2023-04-29T11:50:00Z", "2023-04-29T10:55:00Z", "2023-04-29T11:50:00Z", "2023-04-29T10:55:00Z", "2023-04-29T11:50:00Z", "2023-04-29T11:50:00Z", "2023-04-29T11:50:00Z", "2023-04-29T10:55:00Z", "2023-04-29T10:50:00Z", "2023-04-29T11:50:00Z", "2023-04-29T11:50:00Z", "2023-04-29T11:50:00Z", "2023-04-29T10:55:00Z", "2023-04-29T10:50:00Z", "2023-04-29T11:50:00Z", "2023-04-29T10:55:00Z", "2023-04-29T11:50:00Z", "2023-04-29T10:50:00Z", "2023-04-29T10:55:00Z", "2023-04-29T10:55:00Z", "2023-04-29T11:50:00Z", "2023-04-29T11:45:00Z", "2023-04-29T11:50:00Z", "2023-04-29T10:55:00Z", "2023-04-29T10:50:00Z", "2023-04-29T10:55:00Z", "2023-04-29T10:55:00Z", "2023-04-29T11:50:00Z", "2023-04-29T10:55:00Z", "2023-04-29T10:55:00Z", "2023-04-29T10:55:00Z", "2023-04-29T10:55:00Z", "2023-04-29T10:55:00Z", "2023-04-29T10:55:00Z", "2023-04-29T10:55:00Z", "2023-04-29T10:55:00Z", "2023-04-29T11:30:00Z", "2023-04-29T11:30:00Z", "2023-04-29T11:30:00Z", "2023-04-29T11:30:00Z", "2023-04-29T11:30:00Z", "2023-04-29T11:00:00Z", "2023-04-29T11:30:00Z", "2023-04-29T11:00:00Z", "2023-04-29T11:30:00Z", "2023-04-29T11:39:00Z", "2023-04-29T11:38:00Z", "2023-04-29T11:30:00Z", "2023-04-29T11:30:00Z", "2023-04-29T11:50:00Z", "2023-04-29T11:50:00Z", "2023-04-29T11:50:00Z", "2023-04-29T11:50:00Z", "2023-04-29T11:45:00Z", "2023-04-29T11:00:00Z", "2023-04-29T11:00:00Z", "2023-04-29T11:50:00Z", "2023-04-29T11:50:00Z", "2023-04-29T11:50:00Z", "2023-04-29T11:50:00Z", "2023-04-29T11:50:00Z", "2023-04-29T11:50:00Z", "2023-04-29T11:50:00Z", "2023-04-29T11:30:00Z", "2023-04-29T11:00:00Z", "2023-04-29T11:30:00Z", "2023-04-29T11:30:00Z", "2023-04-29T11:30:00Z", "2023-04-29T11:30:00Z", "2023-04-29T11:00:00Z", "2023-04-29T11:30:00Z", "2023-04-29T11:00:00Z", "2023-04-29T11:00:00Z", "2023-04-29T11:00:00Z", "2023-04-29T11:30:00Z", "2023-04-29T11:30:00Z", "2023-04-29T11:30:00Z", "2023-04-29T11:30:00Z", "2023-04-29T11:30:00Z", "2023-04-29T11:30:00Z", "2023-04-29T11:30:00Z", "2023-04-29T11:30:00Z", "2023-04-29T11:30:00Z", "2023-04-29T11:30:00Z", "2023-04-29T11:30:00Z", "2023-04-29T11:30:00Z", "2023-04-29T11:30:00Z", "2023-04-29T11:30:00Z", "2023-04-29T11:30:00Z", "2023-04-29T11:30:00Z", "2023-04-29T11:30:00Z", "2023-04-29T11:30:00Z", "2023-04-29T11:30:00Z", "2023-04-29T11:30:00Z", "2023-04-29T11:30:00Z", "2023-04-29T11:30:00Z", "2023-04-29T11:30:00Z", "2023-04-29T11:30:00Z", "2023-04-29T11:50:00Z", "2023-04-29T11:50:00Z", "2023-04-29T11:50:00Z", "2023-04-29T11:50:00Z", "2023-04-29T11:50:00Z", "2023-04-29T11:50:00Z", "2023-04-29T11:50:00Z", "2023-04-29T11:50:00Z", "2023-04-29T11:50:00Z", "2023-04-29T11:50:00Z", "2023-04-29T11:50:00Z", "2023-04-29T11:50:00Z", "2023-04-29T11:50:00Z", "2023-04-29T11:50:00Z", "2023-04-29T11:50:00Z", "2023-04-29T11:50:00Z", "2023-04-29T10:50:00Z", "2023-04-29T11:50:00Z", "2023-04-29T11:50:00Z", "2023-04-29T11:50:00Z", "2023-04-29T11:50:00Z", "2023-04-29T11:50:00Z", "2023-04-29T11:50:00Z", "2023-04-29T11:50:00Z", "2023-04-29T11:50:00Z", "2023-04-29T11:50:00Z", "2023-04-29T11:50:00Z", "2023-04-29T11:50:00Z", "2023-04-29T11:50:00Z", "2023-04-29T11:50:00Z", "2023-04-29T11:50:00Z", "2023-04-29T11:50:00Z", "2023-04-29T11:50:00Z", "2023-04-29T11:50:00Z", "2023-04-29T11:50:00Z", "2023-04-29T11:50:00Z", "2023-04-29T11:50:00Z", "2023-04-29T11:50:00Z", "2023-04-29T11:50:00Z", "2023-04-29T11:50:00Z", "2023-04-29T11:50:00Z", "2023-04-29T11:50:00Z", "2023-04-29T11:50:00Z", "2023-04-29T11:50:00Z", "2023-04-29T11:50:00Z", "2023-04-29T11:50:00Z", "2023-04-29T11:50:00Z", "2023-04-29T11:50:00Z", "2023-04-29T11:50:00Z", "2023-04-29T11:50:00Z", "2023-04-29T11:50:00Z", "2023-04-29T11:50:00Z", "2023-04-29T11:50:00Z", "2023-04-29T11:50:00Z", "2023-04-29T11:50:00Z", "2023-04-29T11:50:00Z", "2023-04-29T11:50:00Z", "2023-04-29T11:50:00Z", "2023-04-29T11:50:00Z", "2023-04-29T11:50:00Z", "2023-04-29T11:50:00Z", "2023-04-29T11:50:00Z", "2023-04-29T11:50:00Z", "2023-04-29T11:50:00Z", "2023-04-29T11:50:00Z", "2023-04-29T11:50:00Z", "2023-04-29T11:50:00Z", "2023-04-29T11:50:00Z", "2023-04-29T11:50:00Z", "2023-04-29T11:50:00Z", "2023-04-29T11:50:00Z", "2023-04-29T11:50:00Z", "2023-04-29T12:00:00Z", "2023-04-29T12:00:00Z", "2023-04-29T12:00:00Z", "2023-04-29T11:50:00Z", "2023-04-29T11:30:00Z", "2023-04-29T11:30:00Z", "2023-04-29T11:30:00Z", "2023-04-29T11:30:00Z", "2023-04-29T11:30:00Z", "2023-04-29T11:30:00Z", "2023-04-29T11:30:00Z", "2023-04-29T11:30:00Z", "2023-04-29T11:30:00Z", "2023-04-29T11:30:00Z", "2023-04-29T11:30:00Z", "2023-04-29T11:30:00Z", "2023-04-29T12:00:00Z", "2023-04-29T12:00:00Z", "2023-04-29T12:00:00Z", "2023-04-29T12:00:00Z", "2023-04-29T12:00:00Z", "2023-04-29T12:00:00Z", "2023-04-29T12:00:00Z", "2023-04-29T12:00:00Z", "2023-04-29T12:00:00Z", "2023-04-29T12:00:00Z", "2023-04-29T12:00:00Z", "2023-04-29T11:00:00Z", "2023-04-29T12:00:00Z", "2023-04-29T11:00:00Z", "2023-04-29T12:00:00Z", "2023-04-29T11:00:00Z", "2023-04-29T11:00:00Z", "2023-04-29T11:00:00Z", "2023-04-29T11:48:00Z", "2023-04-29T11:40:00Z", "2023-04-29T11:48:00Z", "2023-04-29T11:54:00Z", "2023-04-29T11:54:00Z", "2023-04-29T11:44:00Z", "2023-04-29T11:40:00Z", "2023-04-29T11:40:00Z", "2023-04-29T11:40:00Z", "2023-04-29T11:08:00Z", "2023-04-29T11:44:00Z", "2023-04-29T11:40:00Z", "2023-04-29T11:43:00Z", "2023-04-29T11:47:00Z", "2023-04-29T11:45:00Z", "2023-04-29T11:52:00Z", "2023-04-29T11:54:00Z", "2023-04-29T11:40:00Z", "2023-04-29T11:43:00Z", "2023-04-29T11:52:00Z", "2023-04-29T11:57:00Z", "2023-04-29T11:45:00Z", "2023-04-29T11:54:00Z", "2023-04-29T11:41:00Z", "2023-04-29T11:53:00Z", "2023-04-29T11:46:00Z", "2023-04-29T11:40:00Z", "2023-04-29T11:40:00Z", "2023-04-29T11:40:00Z", "2023-04-29T11:40:00Z", "2023-04-29T11:45:00Z", "2023-04-29T11:40:00Z", "2023-04-29T11:00:00Z", "2023-04-29T11:00:00Z", "2023-04-29T12:00:00Z", "2023-04-29T11:00:00Z", "2023-04-29T12:00:00Z", "2023-04-29T12:00:00Z", "2023-04-29T12:00:00Z", "2023-04-29T12:00:00Z", "2023-04-29T12:00:00Z", "2023-04-29T11:50:00Z", "2023-04-29T12:00:00Z", "2023-04-29T11:50:00Z", "2023-04-29T11:50:00Z", "2023-04-29T11:50:00Z", "2023-04-29T11:51:00Z", "2023-04-29T11:50:00Z", "2023-04-29T11:51:00Z", "2023-04-29T11:50:00Z", "2023-04-29T11:50:00Z", "2023-04-29T11:50:00Z", "2023-04-29T11:50:00Z", "2023-04-29T12:00:00Z", "2023-04-29T12:00:00Z", "2023-04-29T12:00:00Z", "2023-04-29T12:00:00Z", "2023-04-29T12:00:00Z", "2023-04-29T12:00:00Z", "2023-04-29T11:00:00Z", "2023-04-29T12:00:00Z", "2023-04-29T12:00:00Z", "2023-04-29T12:00:00Z", "2023-04-29T12:00:00Z", "2023-04-29T12:00:00Z", "2023-04-29T12:00:00Z", "2023-04-29T12:00:00Z", "2023-04-29T12:00:00Z", "2023-04-29T12:00:00Z", "2023-04-29T12:00:00Z", "2023-04-29T11:30:00Z", "2023-04-29T12:00:00Z", "2023-04-29T12:00:00Z", "2023-04-29T12:00:00Z", "2023-04-29T12:00:00Z", "2023-04-29T12:00:00Z", "2023-04-29T12:00:00Z", "2023-04-29T12:00:00Z", "2023-04-29T11:26:05Z", "2023-04-29T12:00:00Z", "2023-04-29T11:00:00Z", "2023-04-29T11:30:00Z", "2023-04-29T12:00:00Z", "2023-04-29T11:50:00Z", "2023-04-29T11:30:00Z", "2023-04-29T11:00:00Z", "2023-04-29T11:30:00Z", "2023-04-29T11:30:00Z", "2023-04-29T11:30:00Z", "2023-04-29T11:55:00Z", "2023-04-29T11:50:00Z", "2023-04-29T11:30:00Z", "2023-04-29T11:30:00Z", "2023-04-29T11:00:00Z", "2023-04-29T11:00:00Z", "2023-04-29T11:00:00Z", "2023-04-29T11:00:00Z", "2023-04-29T11:00:00Z", "2023-04-29T11:00:00Z", "2023-04-29T11:00:00Z", "2023-04-29T11:00:00Z", "2023-04-29T11:00:00Z", "2023-04-29T11:00:00Z", "2023-04-29T11:00:00Z", "2023-04-29T11:00:00Z", "2023-04-29T11:00:00Z", "2023-04-29T11:00:00Z", "2023-04-29T11:00:00Z", "2023-04-29T11:00:00Z", "2023-04-29T11:00:00Z", "2023-04-29T11:00:00Z", "2023-04-29T11:00:00Z", "2023-04-29T11:00:00Z", "2023-04-29T11:55:00Z", "2023-04-29T11:00:00Z", "2023-04-29T11:00:00Z", "2023-04-29T11:00:00Z", "2023-04-29T11:00:00Z", "2023-04-29T11:00:00Z", "2023-04-29T11:00:00Z", "2023-04-29T11:00:00Z", "2023-04-29T11:00:00Z", "2023-04-29T11:00:00Z", "2023-04-29T11:00:00Z", "2023-04-29T11:00:00Z", "2023-04-29T11:00:00Z", "2023-04-29T11:00:00Z", "2023-04-29T11:00:00Z", "2023-04-29T11:00:00Z", "2023-04-29T11:00:00Z", "2023-04-29T11:30:00Z", "2023-04-29T11:00:00Z", "2023-04-29T11:30:00Z", "2023-04-29T11:00:00Z", "2023-04-29T11:00:00Z", "2023-04-29T11:30:00Z", "2023-04-29T11:00:00Z", "2023-04-29T11:30:00Z", "2023-04-29T11:00:00Z", "2023-04-29T11:00:00Z", "2023-04-29T11:00:00Z", "2023-04-29T11:30:00Z", "2023-04-29T11:00:00Z", "2023-04-29T11:00:00Z", "2023-04-29T11:00:00Z", "2023-04-29T11:00:00Z", "2023-04-29T11:00:00Z", "2023-04-29T11:00:00Z", "2023-04-29T11:30:00Z", "2023-04-29T11:00:00Z", "2023-04-29T11:30:00Z", "2023-04-29T10:50:00Z", "2023-04-29T11:00:00Z", "2023-04-29T11:00:00Z", "2023-04-29T11:00:00Z", "2023-04-29T11:30:00Z", "2023-04-29T11:30:00Z", "2023-04-29T11:00:00Z", "2023-04-29T11:00:00Z", "2023-04-29T11:30:00Z", "2023-04-29T10:50:00Z", "2023-04-29T11:00:00Z", "2023-04-29T11:00:00Z", "2023-04-29T11:00:00Z", "2023-04-29T10:50:00Z", "2023-04-29T11:00:00Z", "2023-04-29T11:00:00Z", "2023-04-29T11:30:00Z", "2023-04-29T11:00:00Z", "2023-04-29T11:00:00Z", "2023-04-29T11:00:00Z", "2023-04-29T11:00:00Z", "2023-04-29T11:00:00Z", "2023-04-29T11:00:00Z", "2023-04-29T11:00:00Z", "2023-04-29T11:00:00Z", "2023-04-29T11:30:00Z", "2023-04-29T11:00:00Z", "2023-04-29T11:00:00Z", "2023-04-29T11:00:00Z", "2023-04-29T11:00:00Z", "2023-04-29T11:00:00Z", "2023-04-29T11:30:00Z", "2023-04-29T11:00:00Z", "2023-04-29T11:00:00Z", "2023-04-29T11:30:00Z", "2023-04-29T11:00:00Z", "2023-04-29T11:30:00Z", "2023-04-29T11:30:00Z", "2023-04-29T11:30:00Z", "2023-04-29T11:00:00Z", "2023-04-29T11:00:00Z", "2023-04-29T11:00:00Z", "2023-04-29T11:00:00Z", "2023-04-29T11:30:00Z", "2023-04-29T11:00:00Z", "2023-04-29T11:00:00Z", "2023-04-29T12:00:00Z", "2023-04-29T12:00:00Z", "2023-04-29T12:00:00Z", "2023-04-29T11:55:00Z", "2023-04-29T11:00:00Z", "2023-04-29T12:00:00Z", "2023-04-29T11:00:00Z", "2023-04-29T11:00:00Z", "2023-04-29T11:00:00Z", "2023-04-29T11:00:00Z", "2023-04-29T11:00:00Z", "2023-04-29T11:00:00Z", "2023-04-29T11:00:00Z", "2023-04-29T11:00:00Z", "2023-04-29T10:50:00Z", "2023-04-29T10:50:00Z", "2023-04-29T10:50:00Z", "2023-04-29T10:50:00Z", "2023-04-29T10:50:00Z", "2023-04-29T10:50:00Z", "2023-04-29T10:55:00Z", "2023-04-29T11:30:00Z", "2023-04-29T12:00:00Z", "2023-04-29T11:55:00Z", "2023-04-29T12:00:00Z", "2023-04-29T11:00:00Z", "2023-04-29T11:30:00Z", "2023-04-29T11:00:00Z", "2023-04-29T12:00:00Z", "2023-04-29T11:00:00Z", "2023-04-29T11:00:00Z", "2023-04-29T11:00:00Z", "2023-04-29T11:00:00Z", "2023-04-29T12:00:00Z", "2023-04-29T12:00:00Z", "2023-04-29T12:00:00Z", "2023-04-29T12:00:00Z", "2023-04-29T11:30:00Z", "2023-04-29T11:55:00Z", "2023-04-29T11:00:00Z", "2023-04-29T11:55:00Z", "2023-04-29T11:56:00Z", "2023-04-29T11:53:00Z", "2023-04-29T11:52:00Z", "2023-04-29T11:53:00Z", "2023-04-29T11:53:00Z", "2023-04-29T11:56:00Z", "2023-04-29T11:53:00Z", "2023-04-29T11:53:00Z", "2023-04-29T11:56:00Z", "2023-04-29T11:53:00Z", "2023-04-29T11:56:00Z", "2023-04-29T11:53:00Z", "2023-04-29T11:55:00Z", "2023-04-29T11:53:00Z", "2023-04-29T11:56:00Z", "2023-04-29T11:56:00Z", "2023-04-29T11:56:00Z", "2023-04-29T11:53:00Z", "2023-04-29T11:56:00Z", "2023-04-29T11:55:00Z", "2023-04-29T11:53:00Z", "2023-04-29T11:55:00Z", "2023-04-29T11:55:00Z", "2023-04-29T11:53:00Z", "2023-04-29T11:53:00Z", "2023-04-29T11:55:00Z", "2023-04-29T11:59:00Z", "2023-04-29T11:59:00Z", "2023-04-29T11:55:00Z", "2023-04-29T11:01:00Z", "2023-04-29T11:53:00Z", "2023-04-29T11:56:00Z", "2023-04-29T10:56:00Z", "2023-04-29T11:56:00Z", "2023-04-29T11:56:00Z", "2023-04-29T11:53:00Z", "2023-04-29T11:56:00Z", "2023-04-29T11:56:00Z", "2023-04-29T11:54:00Z", "2023-04-29T11:53:00Z", "2023-04-29T11:02:00Z", "2023-04-29T11:56:00Z", "2023-04-29T11:56:00Z", "2023-04-29T11:56:00Z", "2023-04-29T11:53:00Z", "2023-04-29T11:55:00Z", "2023-04-29T11:56:00Z", "2023-04-29T11:56:00Z", "2023-04-29T11:57:00Z", "2023-04-29T11:55:00Z", "2023-04-29T11:56:00Z", "2023-04-29T11:56:00Z", "2023-04-29T11:56:00Z", "2023-04-29T11:54:00Z", "2023-04-29T11:56:00Z", "2023-04-29T11:53:00Z", "2023-04-29T11:45:00Z", "2023-04-29T11:53:00Z", "2023-04-29T11:53:00Z", "2023-04-29T11:55:00Z", "2023-04-29T11:56:00Z", "2023-04-29T11:53:00Z", "2023-04-29T11:45:00Z", "2023-04-29T11:55:00Z", "2023-04-29T11:56:00Z", "2023-04-29T10:51:00Z", "2023-04-29T11:56:00Z", "2023-04-29T11:56:00Z", "2023-04-29T11:56:00Z", "2023-04-29T11:56:00Z", "2023-04-29T11:53:00Z", "2023-04-29T11:56:00Z", "2023-04-29T11:56:00Z", "2023-04-29T11:53:00Z", "2023-04-29T11:56:00Z", "2023-04-29T11:56:00Z", "2023-04-29T11:56:00Z", "2023-04-29T11:56:00Z", "2023-04-29T11:53:00Z", "2023-04-29T11:56:00Z", "2023-04-29T11:53:00Z", "2023-04-29T11:53:00Z", "2023-04-29T11:56:00Z", "2023-04-29T10:53:00Z", "2023-04-29T11:56:00Z", "2023-04-29T11:56:00Z", "2023-04-29T11:56:00Z", "2023-04-29T11:56:00Z", "2023-04-29T11:56:00Z", "2023-04-29T11:53:00Z", "2023-04-29T11:56:00Z", "2023-04-29T11:56:00Z", "2023-04-29T11:53:00Z", "2023-04-29T11:56:00Z", "2023-04-29T11:53:00Z", "2023-04-29T11:56:00Z", "2023-04-29T11:56:00Z", "2023-04-29T11:56:00Z", "2023-04-29T11:53:00Z", "2023-04-29T11:53:00Z", "2023-04-29T11:55:00Z", "2023-04-29T11:56:00Z", "2023-04-29T10:56:00Z", "2023-04-29T11:52:00Z", "2023-04-29T11:55:00Z", "2023-04-29T11:56:00Z", "2023-04-29T11:56:00Z", "2023-04-29T11:53:00Z", "2023-04-29T11:55:00Z", "2023-04-29T11:53:00Z", "2023-04-29T11:56:00Z", "2023-04-29T11:56:00Z", "2023-04-29T11:56:00Z", "2023-04-29T11:56:00Z", "2023-04-29T11:53:00Z", "2023-04-29T11:53:00Z", "2023-04-29T11:53:00Z", "2023-04-29T11:56:00Z", "2023-04-29T11:56:00Z", "2023-04-29T11:56:00Z", "2023-04-29T11:53:00Z", "2023-04-29T11:56:00Z", "2023-04-29T11:56:00Z", "2023-04-29T11:56:00Z", "2023-04-29T11:56:00Z", "2023-04-29T11:56:00Z", "2023-04-29T11:56:00Z", "2023-04-29T11:56:00Z", "2023-04-29T11:56:00Z", "2023-04-29T11:56:00Z", "2023-04-29T11:54:00Z", "2023-04-29T11:55:00Z", "2023-04-29T11:54:00Z", "2023-04-29T10:50:00Z", "2023-04-29T11:51:00Z", "2023-04-29T11:55:00Z", "2023-04-29T11:53:00Z", "2023-04-29T11:53:00Z", "2023-04-29T11:53:00Z", "2023-04-29T11:54:00Z", "2023-04-29T11:57:00Z", "2023-04-29T11:53:00Z", "2023-04-29T11:56:00Z", "2023-04-29T11:54:00Z", "2023-04-29T11:55:00Z", "2023-04-29T11:53:00Z", "2023-04-29T10:56:00Z", "2023-04-29T12:00:00Z", "2023-04-29T12:00:00Z", "2023-04-29T11:56:00Z", "2023-04-29T11:56:00Z", "2023-04-29T10:51:00Z", "2023-04-29T11:55:00Z", "2023-04-29T10:50:00Z", "2023-04-29T10:54:00Z", "2023-04-29T11:53:00Z", "2023-04-29T11:55:00Z", "2023-04-29T11:30:00Z", "2023-04-29T11:30:00Z", "2023-04-29T11:30:00Z", "2023-04-29T11:30:00Z", "2023-04-29T11:30:00Z", "2023-04-29T11:57:00Z", "2023-04-29T11:30:00Z", "2023-04-29T11:00:00Z", "2023-04-29T11:30:00Z", "2023-04-29T11:00:00Z", "2023-04-29T11:00:00Z", "2023-04-29T11:30:00Z", "2023-04-29T11:00:00Z", "2023-04-29T11:00:00Z", "2023-04-29T11:00:00Z", "2023-04-29T11:00:00Z", "2023-04-29T11:00:00Z", "2023-04-29T11:00:00Z", "2023-04-29T11:00:00Z", "2023-04-29T11:00:00Z", "2023-04-29T11:30:00Z", "2023-04-29T11:00:00Z", "2023-04-29T11:00:00Z", "2023-04-29T11:00:00Z", "2023-04-29T11:00:00Z", "2023-04-29T11:00:00Z", "2023-04-29T11:00:00Z", "2023-04-29T11:00:00Z", "2023-04-29T11:36:00Z", "2023-04-29T11:30:00Z", "2023-04-29T11:00:00Z", "2023-04-29T11:00:00Z", "2023-04-29T11:22:00Z", "2023-04-29T11:00:00Z", "2023-04-29T11:00:00Z", "2023-04-29T11:00:00Z", "2023-04-29T11:00:00Z", "2023-04-29T11:00:00Z", "2023-04-29T11:00:00Z", "2023-04-29T11:22:00Z", "2023-04-29T11:00:00Z", "2023-04-29T11:56:00Z", "2023-04-29T11:00:00Z", "2023-04-29T11:00:00Z", "2023-04-29T11:00:00Z", "2023-04-29T11:35:00Z", "2023-04-29T11:00:00Z", "2023-04-29T11:13:00Z", "2023-04-29T11:00:00Z", "2023-04-29T11:00:00Z", "2023-04-29T11:00:00Z", "2023-04-29T10:51:00Z", "2023-04-29T11:00:00Z", "2023-04-29T11:00:00Z", "2023-04-29T11:00:00Z", "2023-04-29T11:00:00Z", "2023-04-29T11:00:00Z", "2023-04-29T11:30:00Z", "2023-04-29T11:55:00Z", "2023-04-29T11:00:00Z", "2023-04-29T11:55:00Z", "2023-04-29T11:45:00Z", "2023-04-29T11:00:00Z", "2023-04-29T11:00:00Z", "2023-04-29T11:00:00Z", "2023-04-29T11:55:00Z", "2023-04-29T11:30:00Z", "2023-04-29T11:00:00Z", "2023-04-29T11:55:00Z", "2023-04-29T11:00:00Z", "2023-04-29T11:00:00Z", "2023-04-29T11:00:00Z", "2023-04-29T11:30:00Z", "2023-04-29T10:59:00Z", "2023-04-29T11:55:00Z", "2023-04-29T11:00:00Z", "2023-04-29T11:00:00Z", "2023-04-29T11:00:00Z", "2023-04-29T11:00:00Z", "2023-04-29T11:00:00Z", "2023-04-29T11:00:00Z", "2023-04-29T11:00:00Z", "2023-04-29T11:56:00Z", "2023-04-29T11:00:00Z", "2023-04-29T11:00:00Z", "2023-04-29T11:00:00Z", "2023-04-29T11:00:00Z", "2023-04-29T11:00:00Z", "2023-04-29T11:00:00Z", "2023-04-29T11:00:00Z", "2023-04-29T11:00:00Z", "2023-04-29T11:00:00Z", "2023-04-29T11:00:00Z", "2023-04-29T11:00:00Z", "2023-04-29T11:00:00Z", "2023-04-29T11:00:00Z", "2023-04-29T11:00:00Z", "2023-04-29T11:00:00Z", "2023-04-29T11:00:00Z", "2023-04-29T11:00:00Z", "2023-04-29T11:00:00Z", "2023-04-29T11:00:00Z", "2023-04-29T11:00:00Z", "2023-04-29T11:00:00Z", "2023-04-29T11:00:00Z", "2023-04-29T11:00:00Z", "2023-04-29T11:00:00Z", "2023-04-29T11:00:00Z", "2023-04-29T11:00:00Z", "2023-04-29T11:00:00Z", "2023-04-29T11:00:00Z", "2023-04-29T11:00:00Z", "2023-04-29T11:00:00Z", "2023-04-29T11:00:00Z", "2023-04-29T11:00:00Z", "2023-04-29T11:00:00Z", "2023-04-29T12:00:00Z", "2023-04-29T12:00:00Z", "2023-04-29T12:00:00Z", "2023-04-29T11:00:00Z", "2023-04-29T11:00:00Z", "2023-04-29T12:00:00Z", "2023-04-29T11:00:00Z", "2023-04-29T12:00:00Z", "2023-04-29T11:00:00Z", "2023-04-29T12:00:00Z", "2023-04-29T11:00:00Z", "2023-04-29T12:00:00Z", "2023-04-29T12:00:00Z", "2023-04-29T11:00:00Z", "2023-04-29T12:00:00Z", "2023-04-29T11:00:00Z", "2023-04-29T12:00:00Z", "2023-04-29T12:00:00Z", "2023-04-29T12:00:00Z", "2023-04-29T12:00:00Z", "2023-04-29T11:00:00Z", "2023-04-29T12:00:00Z", "2023-04-29T11:00:00Z", "2023-04-29T12:00:00Z", "2023-04-29T12:00:00Z", "2023-04-29T12:00:00Z", "2023-04-29T11:00:00Z", "2023-04-29T12:00:00Z", "2023-04-29T12:00:00Z", "2023-04-29T12:00:00Z", "2023-04-29T12:00:00Z", "2023-04-29T11:00:00Z", "2023-04-29T11:00:00Z", "2023-04-29T11:00:00Z", "2023-04-29T11:00:00Z", "2023-04-29T11:00:00Z", "2023-04-29T11:00:00Z", "2023-04-29T12:00:00Z", "2023-04-29T11:00:00Z", "2023-04-29T11:00:00Z", "2023-04-29T11:00:00Z", "2023-04-29T11:00:00Z", "2023-04-29T12:00:00Z", "2023-04-29T11:08:00Z", "2023-04-29T11:00:00Z", "2023-04-29T12:00:00Z", "2023-04-29T11:00:00Z", "2023-04-29T12:00:00Z", "2023-04-29T11:00:00Z", "2023-04-29T11:00:00Z", "2023-04-29T11:00:00Z", "2023-04-29T12:00:00Z", "2023-04-29T12:00:00Z", "2023-04-29T11:00:00Z", "2023-04-29T11:00:00Z", "2023-04-29T12:00:00Z", "2023-04-29T11:00:00Z", "2023-04-29T11:00:00Z", "2023-04-29T12:00:00Z", "2023-04-29T12:00:00Z", "2023-04-29T11:00:00Z", "2023-04-29T12:00:00Z", "2023-04-29T12:00:00Z", "2023-04-29T12:00:00Z", "2023-04-29T12:00:00Z", "2023-04-29T12:00:00Z", "2023-04-29T12:00:00Z", "2023-04-29T12:00:00Z", "2023-04-29T12:00:00Z", "2023-04-29T12:00:00Z", "2023-04-29T12:00:00Z", "2023-04-29T11:00:00Z", "2023-04-29T12:00:00Z", "2023-04-29T12:00:00Z", "2023-04-29T12:00:00Z", "2023-04-29T11:00:00Z", "2023-04-29T12:00:00Z", "2023-04-29T12:00:00Z", "2023-04-29T11:00:00Z", "2023-04-29T11:00:00Z", "2023-04-29T12:00:00Z", "2023-04-29T11:00:00Z", "2023-04-29T12:00:00Z", "2023-04-29T12:00:00Z", "2023-04-29T12:00:00Z", "2023-04-29T11:00:00Z", "2023-04-29T11:00:00Z", "2023-04-29T11:00:00Z", "2023-04-29T11:00:00Z", "2023-04-29T11:00:00Z", "2023-04-29T12:00:00Z", "2023-04-29T11:00:00Z", "2023-04-29T12:00:00Z", "2023-04-29T12:00:00Z", "2023-04-29T12:00:00Z", "2023-04-29T12:00:00Z", "2023-04-29T11:00:00Z", "2023-04-29T11:00:00Z", "2023-04-29T12:00:00Z", "2023-04-29T12:00:00Z", "2023-04-29T12:00:00Z", "2023-04-29T12:00:00Z", "2023-04-29T12:00:00Z", "2023-04-29T12:00:00Z", "2023-04-29T12:00:00Z", "2023-04-29T12:00:00Z", "2023-04-29T12:00:00Z", "2023-04-29T12:00:00Z", "2023-04-29T12:00:00Z", "2023-04-29T12:00:00Z", "2023-04-29T12:00:00Z", "2023-04-29T12:00:00Z", "2023-04-29T12:00:00Z", "2023-04-29T12:00:00Z", "2023-04-29T12:00:00Z", "2023-04-29T12:00:00Z", "2023-04-29T12:00:00Z", "2023-04-29T12:00:00Z", "2023-04-29T12:00:00Z", "2023-04-29T12:00:00Z", "2023-04-29T11:00:00Z", "2023-04-29T12:00:00Z", "2023-04-29T12:00:00Z", "2023-04-29T12:00:00Z", "2023-04-29T12:00:00Z", "2023-04-29T12:00:00Z", "2023-04-29T12:00:00Z", "2023-04-29T11:00:00Z", "2023-04-29T12:00:00Z", "2023-04-29T12:00:00Z", "2023-04-29T12:00:00Z", "2023-04-29T12:00:00Z", "2023-04-29T12:00:00Z", "2023-04-29T12:00:00Z", "2023-04-29T12:00:00Z", "2023-04-29T11:50:00Z", "2023-04-29T12:00:00Z", "2023-04-29T12:00:00Z", "2023-04-29T12:00:00Z", "2023-04-29T11:00:00Z", "2023-04-29T11:00:00Z", "2023-04-29T11:00:00Z", "2023-04-29T11:00:00Z", "2023-04-29T11:00:00Z", "2023-04-29T11:00:00Z", "2023-04-29T11:00:00Z", "2023-04-29T11:00:00Z", "2023-04-29T11:00:00Z", "2023-04-29T11:00:00Z", "2023-04-29T11:00:00Z", "2023-04-29T11:00:00Z", "2023-04-29T11:00:00Z", "2023-04-29T11:00:00Z", "2023-04-29T11:00:00Z", "2023-04-29T11:00:00Z", "2023-04-29T11:00:00Z", "2023-04-29T11:00:00Z", "2023-04-29T11:00:00Z", "2023-04-29T11:00:00Z", "2023-04-29T11:00:00Z", "2023-04-29T11:00:00Z", "2023-04-29T11:00:00Z", "2023-04-29T11:00:00Z", "2023-04-29T11:00:00Z", "2023-04-29T11:00:00Z", "2023-04-29T11:00:00Z", "2023-04-29T11:00:00Z", "2023-04-29T11:00:00Z", "2023-04-29T11:00:00Z", "2023-04-29T12:00:00Z", "2023-04-29T11:00:00Z", "2023-04-29T11:00:00Z", "2023-04-29T11:00:00Z", "2023-04-29T12:00:00Z", "2023-04-29T11:00:00Z", "2023-04-29T11:00:00Z", "2023-04-29T11:00:00Z", "2023-04-29T11:00:00Z", "2023-04-29T11:00:00Z", "2023-04-29T11:00:00Z", "2023-04-29T12:00:00Z", "2023-04-29T12:00:00Z", "2023-04-29T12:00:00Z", "2023-04-29T11:30:00Z", "2023-04-29T12:00:00Z", "2023-04-29T12:00:00Z", "2023-04-29T12:00:00Z", "2023-04-29T12:00:00Z", "2023-04-29T12:00:00Z", "2023-04-29T12:00:00Z", "2023-04-29T12:00:00Z", "2023-04-29T12:00:00Z", "2023-04-29T12:00:00Z", "2023-04-29T12:00:00Z", "2023-04-29T12:00:00Z", "2023-04-29T12:00:00Z", "2023-04-29T12:00:00Z", "2023-04-29T12:00:00Z", "2023-04-29T12:00:00Z", "2023-04-29T12:00:00Z", "2023-04-29T12:00:00Z", "2023-04-29T12:00:00Z", "2023-04-29T12:00:00Z", "2023-04-29T11:00:00Z", "2023-04-29T12:00:00Z", "2023-04-29T11:03:00Z", "2023-04-29T11:03:00Z", "2023-04-29T11:03:00Z", "2023-04-29T11:03:00Z", "2023-04-29T11:03:00Z", "2023-04-29T11:03:00Z", "2023-04-29T11:03:00Z", "2023-04-29T11:03:00Z", "2023-04-29T11:03:00Z", "2023-04-29T11:03:00Z", "2023-04-29T11:03:00Z", "2023-04-29T12:00:00Z", "2023-04-29T12:00:00Z", "2023-04-29T11:03:00Z", "2023-04-29T11:03:00Z", "2023-04-29T11:03:00Z", "2023-04-29T11:03:00Z", "2023-04-29T11:03:00Z", "2023-04-29T11:03:00Z", "2023-04-29T12:00:00Z", "2023-04-29T12:00:00Z", "2023-04-29T11:03:00Z", "2023-04-29T12:00:00Z", "2023-04-29T11:00:00Z", "2023-04-29T11:00:00Z", "2023-04-29T11:00:00Z", "2023-04-29T11:00:00Z", "2023-04-29T11:30:00Z", "2023-04-29T11:30:00Z", "2023-04-29T11:00:00Z", "2023-04-29T11:53:00Z", "2023-04-29T11:53:00Z", "2023-04-29T11:50:00Z", "2023-04-29T11:45:00Z", "2023-04-29T11:53:00Z", "2023-04-29T11:55:00Z", "2023-04-29T11:56:00Z", "2023-04-29T11:00:00Z", "2023-04-29T11:00:00Z", "2023-04-29T12:00:00Z", "2023-04-29T11:00:00Z", "2023-04-29T10:55:00Z", "2023-04-29T11:00:00Z", "2023-04-29T10:55:00Z", "2023-04-29T11:00:00Z", "2023-04-29T12:00:00Z", "2023-04-29T12:00:00Z", "2023-04-29T11:00:00Z", "2023-04-29T11:00:00Z", "2023-04-29T12:00:00Z", "2023-04-29T11:00:00Z", "2023-04-29T11:55:00Z", "2023-04-29T11:30:00Z", "2023-04-29T11:30:00Z", "2023-04-29T11:30:00Z", "2023-04-29T11:30:00Z", "2023-04-29T11:00:00Z", "2023-04-29T11:30:00Z", "2023-04-29T11:30:00Z", "2023-04-29T11:30:00Z", "2023-04-29T11:30:00Z", "2023-04-29T11:30:00Z", "2023-04-29T11:30:00Z", "2023-04-29T11:30:00Z", "2023-04-29T11:30:00Z", "2023-04-29T11:30:00Z", "2023-04-29T11:30:00Z", "2023-04-29T11:30:00Z", "2023-04-29T11:30:00Z", "2023-04-29T11:30:00Z", "2023-04-29T11:30:00Z", "2023-04-29T11:30:00Z", "2023-04-29T11:30:00Z", "2023-04-29T11:30:00Z", "2023-04-29T11:30:00Z", "2023-04-29T12:00:00Z", "2023-04-29T12:00:00Z", "2023-04-29T12:00:00Z", "2023-04-29T12:00:00Z", "2023-04-29T11:30:00Z", "2023-04-29T12:00:00Z", "2023-04-29T11:00:00Z", "2023-04-29T11:30:00Z", "2023-04-29T11:30:00Z", "2023-04-29T11:30:00Z", "2023-04-29T11:30:00Z", "2023-04-29T11:30:00Z", "2023-04-29T11:00:00Z", "2023-04-29T11:00:00Z", "2023-04-29T11:30:00Z", "2023-04-29T11:30:00Z", "2023-04-29T11:30:00Z", "2023-04-29T11:30:00Z", "2023-04-29T11:30:00Z", "2023-04-29T11:00:00Z", "2023-04-29T11:30:00Z", "2023-04-29T11:30:00Z", "2023-04-29T11:00:00Z", "2023-04-29T11:00:00Z", "2023-04-29T11:00:00Z", "2023-04-29T11:30:00Z", "2023-04-29T11:30:00Z", "2023-04-29T11:30:00Z", "2023-04-29T11:30:00Z", "2023-04-29T11:30:00Z", "2023-04-29T11:30:00Z", "2023-04-29T11:30:00Z", "2023-04-29T11:30:00Z", "2023-04-29T11:30:00Z", "2023-04-29T11:30:00Z", "2023-04-29T11:30:00Z", "2023-04-29T11:00:00Z", "2023-04-29T11:30:00Z", "2023-04-29T11:00:00Z", "2023-04-29T11:30:00Z", "2023-04-29T11:30:00Z", "2023-04-29T11:00:00Z", "2023-04-29T11:30:00Z", "2023-04-29T11:00:00Z", "2023-04-29T11:30:00Z", "2023-04-29T11:30:00Z", "2023-04-29T11:30:00Z", "2023-04-29T11:30:00Z", "2023-04-29T11:30:00Z", "2023-04-29T11:30:00Z", "2023-04-29T11:30:00Z", "2023-04-29T11:30:00Z", "2023-04-29T11:30:00Z", "2023-04-29T11:30:00Z", "2023-04-29T11:30:00Z", "2023-04-29T11:30:00Z", "2023-04-29T11:30:00Z", "2023-04-29T11:30:00Z", "2023-04-29T11:30:00Z", "2023-04-29T11:30:00Z", "2023-04-29T11:30:00Z", "2023-04-29T11:30:00Z", "2023-04-29T11:30:00Z", "2023-04-29T11:30:00Z", "2023-04-29T11:30:00Z", "2023-04-29T11:30:00Z", "2023-04-29T11:30:00Z", "2023-04-29T11:30:00Z", "2023-04-29T11:30:00Z", "2023-04-29T11:30:00Z", "2023-04-29T11:30:00Z", "2023-04-29T11:30:00Z", "2023-04-29T11:30:00Z", "2023-04-29T11:30:00Z", "2023-04-29T11:30:00Z", "2023-04-29T11:00:00Z", "2023-04-29T12:00:00Z", "2023-04-29T12:00:00Z", "2023-04-29T11:00:00Z", "2023-04-29T11:00:00Z", "2023-04-29T11:30:00Z", "2023-04-29T11:30:00Z", "2023-04-29T11:30:00Z", "2023-04-29T11:30:00Z", "2023-04-29T11:30:00Z", "2023-04-29T11:30:00Z", "2023-04-29T11:30:00Z", "2023-04-29T11:30:00Z", "2023-04-29T11:08:17Z", "2023-04-29T11:30:00Z", "2023-04-29T11:30:00Z", "2023-04-29T11:30:00Z", "2023-04-29T11:30:00Z", "2023-04-29T11:30:00Z", "2023-04-29T11:30:00Z", "2023-04-29T11:30:00Z", "2023-04-29T11:30:00Z", "2023-04-29T11:30:00Z", "2023-04-29T11:30:00Z", "2023-04-29T11:30:00Z", "2023-04-29T11:30:00Z", "2023-04-29T11:30:00Z", "2023-04-29T11:30:00Z", "2023-04-29T11:30:00Z", "2023-04-29T11:30:00Z", "2023-04-29T11:30:00Z", "2023-04-29T11:30:00Z", "2023-04-29T11:30:00Z", "2023-04-29T11:30:00Z", "2023-04-29T11:30:00Z", "2023-04-29T11:30:00Z", "2023-04-29T11:30:00Z", "2023-04-29T11:30:00Z", "2023-04-29T11:00:00Z", "2023-04-29T11:30:00Z", "2023-04-29T11:00:00Z", "2023-04-29T11:30:00Z", "2023-04-29T11:30:00Z", "2023-04-29T11:30:00Z", "2023-04-29T11:30:00Z", "2023-04-29T12:00:00Z", "2023-04-29T11:30:00Z", "2023-04-29T11:30:00Z", "2023-04-29T11:30:00Z", "2023-04-29T11:30:00Z", "2023-04-29T11:30:00Z", "2023-04-29T12:00:00Z", "2023-04-29T11:30:00Z", "2023-04-29T11:30:00Z", "2023-04-29T11:00:00Z", "2023-04-29T11:30:00Z", "2023-04-29T11:30:00Z", "2023-04-29T11:00:00Z", "2023-04-29T11:30:00Z", "2023-04-29T11:30:00Z", "2023-04-29T11:30:00Z", "2023-04-29T11:10:00Z", "2023-04-29T11:30:00Z", "2023-04-29T11:30:00Z", "2023-04-29T11:30:00Z", "2023-04-29T11:30:00Z", "2023-04-29T11:30:00Z", "2023-04-29T11:30:00Z", "2023-04-29T11:00:00Z", "2023-04-29T11:30:00Z", "2023-04-29T11:00:00Z", "2023-04-29T11:30:00Z", "2023-04-29T11:30:00Z", "2023-04-29T11:00:00Z", "2023-04-29T11:30:00Z", "2023-04-29T11:30:00Z", "2023-04-29T11:00:00Z", "2023-04-29T11:00:00Z", "2023-04-29T11:00:00Z", "2023-04-29T12:00:00Z", "2023-04-29T11:00:00Z", "2023-04-29T11:30:00Z", "2023-04-29T11:30:00Z", "2023-04-29T11:30:00Z", "2023-04-29T11:00:00Z", "2023-04-29T12:00:00Z", "2023-04-29T11:00:00Z", "2023-04-29T11:30:00Z", "2023-04-29T11:30:00Z", "2023-04-29T11:30:00Z", "2023-04-29T11:30:00Z", "2023-04-29T11:30:00Z", "2023-04-29T11:30:00Z", "2023-04-29T11:30:00Z", "2023-04-29T11:00:00Z", "2023-04-29T11:00:00Z", "2023-04-29T11:00:00Z", "2023-04-29T11:00:00Z", "2023-04-29T11:30:00Z", "2023-04-29T12:00:00Z", "2023-04-29T11:30:00Z", "2023-04-29T11:30:00Z", "2023-04-29T11:30:00Z", "2023-04-29T11:30:00Z", "2023-04-29T11:30:00Z", "2023-04-29T11:30:00Z", "2023-04-29T11:30:00Z", "2023-04-29T11:31:00Z", "2023-04-29T11:30:00Z", "2023-04-29T11:00:00Z", "2023-04-29T11:30:00Z", "2023-04-29T11:00:00Z", "2023-04-29T11:30:00Z", "2023-04-29T11:30:00Z", "2023-04-29T11:30:00Z", "2023-04-29T11:30:00Z", "2023-04-29T11:30:00Z", "2023-04-29T11:30:00Z", "2023-04-29T11:00:00Z", "2023-04-29T11:00:00Z", "2023-04-29T11:00:00Z", "2023-04-29T11:30:00Z", "2023-04-29T11:30:00Z", "2023-04-29T11:30:00Z", "2023-04-29T11:30:00Z", "2023-04-29T11:00:00Z", "2023-04-29T11:00:00Z", "2023-04-29T11:00:00Z", "2023-04-29T11:30:00Z", "2023-04-29T11:00:00Z", "2023-04-29T11:30:00Z", "2023-04-29T11:30:00Z", "2023-04-29T11:30:00Z", "2023-04-29T11:00:00Z", "2023-04-29T11:00:00Z", "2023-04-29T11:00:00Z", "2023-04-29T11:00:00Z", "2023-04-29T11:00:00Z", "2023-04-29T11:00:00Z", "2023-04-29T11:00:00Z", "2023-04-29T11:00:00Z", "2023-04-29T11:00:00Z", "2023-04-29T11:00:00Z", "2023-04-29T11:00:00Z", "2023-04-29T11:00:00Z", "2023-04-29T11:00:00Z", "2023-04-29T11:00:00Z", "2023-04-29T11:00:00Z", "2023-04-29T11:00:00Z", "2023-04-29T11:00:00Z", "2023-04-29T11:30:00Z", "2023-04-29T11:00:00Z", "2023-04-29T11:30:00Z", "2023-04-29T11:00:00Z", "2023-04-29T11:00:00Z", "2023-04-29T11:00:00Z", "2023-04-29T11:00:00Z", "2023-04-29T11:00:00Z", "2023-04-29T11:00:00Z", "2023-04-29T11:00:00Z", "2023-04-29T11:00:00Z", "2023-04-29T11:00:00Z", "2023-04-29T11:00:00Z", "2023-04-29T11:30:00Z", "2023-04-29T11:30:00Z", "2023-04-29T11:30:00Z", "2023-04-29T11:30:00Z", "2023-04-29T11:30:00Z", "2023-04-29T11:30:00Z", "2023-04-29T11:30:00Z", "2023-04-29T11:30:00Z", "2023-04-29T11:30:00Z", "2023-04-29T11:00:00Z", "2023-04-29T11:30:00Z", "2023-04-29T11:30:00Z", "2023-04-29T11:30:00Z", "2023-04-29T11:30:00Z", "2023-04-29T11:30:00Z", "2023-04-29T11:30:00Z", "2023-04-29T11:30:00Z", "2023-04-29T11:30:00Z", "2023-04-29T11:30:00Z", "2023-04-29T11:30:00Z", "2023-04-29T11:30:00Z", "2023-04-29T11:00:00Z", "2023-04-29T11:30:00Z", "2023-04-29T11:30:00Z", "2023-04-29T11:00:00Z", "2023-04-29T11:30:00Z", "2023-04-29T11:00:00Z", "2023-04-29T11:00:00Z", "2023-04-29T11:00:00Z", "2023-04-29T11:30:00Z", "2023-04-29T11:00:00Z", "2023-04-29T11:00:00Z", "2023-04-29T11:00:00Z", "2023-04-29T11:00:00Z", "2023-04-29T11:30:00Z", "2023-04-29T11:30:00Z", "2023-04-29T11:30:00Z", "2023-04-29T11:30:00Z", "2023-04-29T11:30:00Z", "2023-04-29T12:00:00Z", "2023-04-29T11:00:00Z", "2023-04-29T11:30:00Z", "2023-04-29T11:30:00Z", "2023-04-29T11:30:00Z", "2023-04-29T11:00:00Z", "2023-04-29T11:00:00Z", "2023-04-29T11:00:00Z", "2023-04-29T11:00:00Z", "2023-04-29T11:00:00Z", "2023-04-29T11:00:00Z", "2023-04-29T11:00:00Z", "2023-04-29T11:00:00Z", "2023-04-29T11:00:00Z", "2023-04-29T11:30:00Z", "2023-04-29T11:00:00Z", "2023-04-29T11:00:00Z", "2023-04-29T11:00:00Z", "2023-04-29T11:30:00Z", "2023-04-29T11:00:00Z", "2023-04-29T11:20:00Z", "2023-04-29T11:35:00Z", "2023-04-29T11:30:00Z", "2023-04-29T11:30:00Z", "2023-04-29T11:30:00Z", "2023-04-29T11:30:00Z", "2023-04-29T11:30:00Z", "2023-04-29T11:30:00Z", "2023-04-29T11:30:00Z", "2023-04-29T11:30:00Z", "2023-04-29T11:30:00Z", "2023-04-29T11:30:00Z", "2023-04-29T11:30:00Z", "2023-04-29T11:30:00Z", "2023-04-29T11:30:00Z", "2023-04-29T11:30:00Z", "2023-04-29T11:30:00Z", "2023-04-29T11:30:00Z", "2023-04-29T11:30:00Z", "2023-04-29T11:30:00Z", "2023-04-29T11:30:00Z", "2023-04-29T11:30:00Z", "2023-04-29T11:30:00Z", "2023-04-29T11:30:00Z", "2023-04-29T11:30:00Z", "2023-04-29T11:30:00Z", "2023-04-29T11:30:00Z", "2023-04-29T11:30:00Z", "2023-04-29T11:30:00Z", "2023-04-29T11:30:00Z", "2023-04-29T11:30:00Z", "2023-04-29T11:30:00Z", "2023-04-29T11:30:00Z", "2023-04-29T11:30:00Z", "2023-04-29T11:30:00Z", "2023-04-29T11:30:00Z", "2023-04-29T11:30:00Z", "2023-04-29T11:30:00Z", "2023-04-29T11:56:00Z", "2023-04-29T11:30:00Z", "2023-04-29T11:30:00Z", "2023-04-29T11:30:00Z", "2023-04-29T12:00:00Z", "2023-04-29T11:35:00Z", "2023-04-29T11:57:00Z", "2023-04-29T11:37:00Z", "2023-04-29T11:43:00Z", "2023-04-29T11:30:00Z", "2023-04-29T11:30:00Z", "2023-04-29T11:00:00Z", "2023-04-29T11:00:00Z", "2023-04-29T11:30:00Z", "2023-04-29T11:30:00Z", "2023-04-29T11:30:00Z", "2023-04-29T11:00:00Z", "2023-04-29T11:00:00Z", "2023-04-29T11:00:00Z", "2023-04-29T11:00:00Z", "2023-04-29T11:00:00Z", "2023-04-29T11:00:00Z", "2023-04-29T11:00:00Z", "2023-04-29T11:00:00Z", "2023-04-29T11:00:00Z", "2023-04-29T11:00:00Z", "2023-04-29T11:00:00Z", "2023-04-29T12:00:00Z", "2023-04-29T12:00:00Z", "2023-04-29T11:00:00Z", "2023-04-29T11:00:00Z", "2023-04-29T11:00:00Z", "2023-04-29T11:30:00Z", "2023-04-29T11:00:00Z", "2023-04-29T11:00:00Z", "2023-04-29T11:00:00Z", "2023-04-29T11:30:00Z", "2023-04-29T11:00:00Z", "2023-04-29T11:30:00Z", "2023-04-29T11:00:00Z", "2023-04-29T11:00:00Z", "2023-04-29T11:00:00Z", "2023-04-29T11:00:00Z", "2023-04-29T11:00:00Z", "2023-04-29T11:30:00Z", "2023-04-29T11:00:00Z", "2023-04-29T11:00:00Z", "2023-04-29T11:30:00Z", "2023-04-29T11:30:00Z"], "raw_text": ["AGGH 291100Z 16005KT 9999 FEW015 FEW016CB 26/25 Q1005", "ANYN 291100Z 06005KT 9999 FEW020 29/25 Q1009", "AYPY 291100Z VRB03KT 9999 SCT160 25/24 Q1008", "BGBW 291150Z 06017KT 9999 SKC 07/M13 Q1020", "BGGH 291152Z 20004KT 180V300 9999 SKV 03/M02 Q1022", "BGJN 291150Z VRB05KT 9999 FEW190 M00/M11 Q1026", "BGKK 291150Z 33004KT 9999 SCT180 M01/M10 Q1030", "BGSF 291150Z AUTO 06008KT 020V080 9999NDV NCD 02/M10 Q1025", "BGTL 291055Z AUTO 00000KT 9999 BKN041 M07/M12 A3043 RMK AO2 SLP292 T10721118 TSNO $", "BIAR 291100Z 00010KT CAVOK M01/M11 Q1028", "BIEG 291100Z 29012KT 270V330 9999 FEW050 00/M11 Q1025", "BIIS 291200Z 02009KT 000V060 9999 FEW025 M00/M09 Q1028", "BIKF 291130Z 06012KT CAVOK 03/M07 Q1024", "BIRK 291100Z 08010KT CAVOK 03/M09 Q1024", "BIVM 291200Z 10008KT 9999 FEW055 04/M03 Q1023", "BK12 291155Z 26004KT 9999 FEW060 BKN075 17/05 A3001 RMK AO2A SLP166 WND DATA ESMTD T02680047 10161 200527 57011", "BKPR 291200Z 28005KT 9999 BKN061 16/05 Q1015 NOSIG", "CAHR 291100Z AUTO 05001KT 03/01 RMK AO1 5PAST HR 1015 SLP253 P0002 T00290012 50007", "CBBC 291100Z AUTO VRB02KT 9SM CLR 07/03 A2980 RMK SLP094", "CERM 291100Z AUTO 00000KT 02/01 RMK AO1 SLP223 T00200006 53007", "CMFM 291100Z AUTO 00000KT M01/M02 RMK AO1 SOG 12 8001 SLP207 T10101015", "CMGB 291100Z AUTO 11005KT 11/01 RMK AO1 SLP174 T01100010 55001", "CPBT 291100Z AUTO 06007KT 01/M01 RMK AO1 T00121013", "CPEH 291100Z AUTO 00000KT 04/M02 RMK AO1 T00361016", "CPFI 291100Z AUTO 28001KT 02/M00 RMK AO1 T00211001", "CPIN 291100Z AUTO 30012KT ////SM ////// ///// A////", "CPIR 291100Z AUTO 35006KT 04/M01 RMK AO1 T00371008", "CPRO 291100Z AUTO 36003KT 06/01 RMK AO1 T00570013", "CPRY 291100Z AUTO 11006KT 04/01 RMK AO1 T00370005", "CPST 291100Z AUTO 27001KT 04/M02 RMK AO1 T00441020", "CPSV 291100Z AUTO 03006KT 07/M00 RMK AO1 T00651002", "CTCK 291100Z AUTO 06006KT 11/04 RMK AO1 SLP140 T01060041 56008", "CTNK 291100Z AUTO 12005KT 07/06 RMK AO1 4PAST HR 6016 SLP116 P0005 T00660056 50033", "CTRA 291100Z AUTO 02004KT M01/M05 RMK AO1 SLP131 T10101046 56007", "CWAF 291100Z AUTO 05020KT 04/04 RMK AO1 PK WND 05024/1035 T00440037", "CWAJ 291100Z AUTO 09010KT RMK AO1 PK WND 08017/1021 56005", "CWAQ 291100Z AUTO 30007KT 01/M02 RMK AO1 SLP204 T00131015 51019", "CWAR 291100Z AUTO 33018KT 02/M01 RMK AO1 PK WND 32028/1037 SLP173 T00231013 51009", "CWAV 291100Z AUTO 28002KT M02/M03 RMK AO1 SLP223 T10151030 56004", "CWBA 291100Z AUTO 33004KT 06/06 RMK AO1 2PAST HR M P0005 T00600056 50029", "CWBK 291100Z AUTO 07003KT 03/01 RMK AO1 SLP255 T00320005 51012", "CWBO 291100Z AUTO 36002KT 04/00 RMK AO1 SLP221 T00370000 52007", "CWBS 291100Z AUTO 03009KT 08/04 RMK AO1 T00820035", "CWBT 291100Z AUTO 06003KT 03/M01 RMK AO1 SLP253 T00331012 55000", "CWBU 291100Z AUTO 32008KT 02/M01 RMK AO1 SLP198 T00191011 53014", "CWBV 291100Z AUTO 04013KT 03/01 RMK AO1 SLP229 T00310005 51012", "CWBY 291100Z AUTO 10008KT 03/M01 RMK AO1 SLP245 T00311009 53002", "CWBZ 291100Z AUTO 09004KT 10/05 RMK AO1 SLP145 T01040050 56007", "CWCF 291100Z AUTO 03004KT 02/M04 RMK AO1 SLP145 T00231040 51001", "CWCI 291100Z AUTO 10013KT 04/03 RMK AO1 PK WND 10017/1051 SLP078 T00440029 56016", "CWCJ 291100Z AUTO 05007KT 04/03 RMK AO1 1PAST HR 6017 SLP095 P0000 T00370031 50043", "CWCO 291100Z AUTO 15004KT 07/06 RMK AO1 6013 SLP082 T00720056 50007", "CWCT 291100Z AUTO 36005KT 03/M04 RMK AO1 SLP239 T00321040 53006", "CWDA 291100Z AUTO 00033KT 03/ RMK AO1 T0028", "CWDJ 291100Z AUTO 31008KT M01/M03 RMK AO1 SLP202 T10091032 51015", "CWDK 291100Z AUTO 34004KT M00/M02 RMK AO1 SLP225 T10021019 51006", "CWDM 291100Z AUTO 02003KT 04/M01 RMK AO1 SLP254 T00371014 53004", "CWDO 291100Z AUTO 36022G27KT M00/M01 RMK AO1 PK WND 35027/1057 SLP195 T10011010 51009", "CWDQ 291100Z AUTO 30001KT 03/01 RMK AO1 SLP191 T00280007 55001", "CWDV 291100Z AUTO 04003KT 01/M00 RMK AO1 1PAST HR 6015 SLP108 P0000 T00051002 50001", "CWDZ 291100Z AUTO 00000KT 10/02 RMK AO1 SLP217 T00960015 51006", "CWEE 291100Z AUTO M01/M01 RMK AO1 SLP189 T10081012 56003", "CWEF 291100Z AUTO 36004KT 03/02 RMK AO1 SLP230 T00280017 53005", "CWEH 291100Z AUTO 03006KT 07/M08 RMK AO1 SLP206 T00711075 53007", "CWEL 291100Z AUTO 16005KT 12/07 RMK AO1 SLP123 T01210069 54000", "CWEP 291100Z AUTO 36004KT 03/02 RMK AO1 SLP252 T00320022 53013", "CWEQ 291100Z AUTO 35012G19KT 05/01 RMK AO1 PK WND 35019/1055 SLP160 T00450009 53011", "CWER 291100Z AUTO 05014G21KT RMK AO1 PK WND 05021/1059", "CWEU 291100Z 03006KT 020V080 15SM FEW015 FEW040 SCT170 BKN190 M19/M22 A3038 RMK SC1SC2AC2CS3 SC TR SLP303", "CWEW 291100Z AUTO 03002KT 09/04 RMK AO1 SLP176 T00930041 53001", "CWEZ 291100Z AUTO 25004KT 12/06 RMK AO1 SLP127 T01150059 53006", "CWFF 291100Z AUTO 28004KT M01/M04 RMK AO1 SLP207 T10141035 52013", "CWFJ 291100Z AUTO 28006KT 05/M00 RMK AO1 T00541002", "CWFQ 291100Z AUTO 36006KT 10/01 RMK AO1 SLP167 T00970006 56003", "CWGB 291100Z AUTO 34002KT 12/ RMK AO1 SLP122 T0117 53002", "CWGD 291100Z AUTO 11013G19KT 08/07 RMK AO1 4PAST HR 6010 PK WND 11020/1040 SLP049 P0005 T00790066 50034", "CWGH 291100Z AUTO 08003KT 11/05 RMK AO1 6010 SLP129 T01060053 50004", "CWGL 291100Z AUTO 11012G18KT 07/06 RMK AO1 PK WND 13020/1042 SLP078 T00720058 56015", "CWGM 291100Z AUTO 01001KT 01/M02 RMK AO1 SLP209 T00131017 52008", "CWGR 291100Z AUTO 04005KT 05/02 RMK AO1 SLP252 T00470017 53015", "CWGT 291100Z AUTO 21002KT 12/07 RMK AO1 SLP130 T01230072 53005", "CWGY 291100Z AUTO 31002KT M02/M07 RMK AO1 SLP237 T10231068 53012", "CWHI 291100Z AUTO 24002KT 06/M01 RMK AO1 T00581010", "CWHL 291100Z AUTO 01002KT 08/07 RMK AO1 SLP086 T00800070 56026", "CWHO 291100Z AUTO 00014KT M02/M02 RMK AO1 8004 SLP238 T10151024 50002", "CWHP 291100Z AUTO 03008KT 03/M00 RMK AO1 SLP251 T00341003 53008", "CWHQ 291100Z AUTO 06004KT 09/M01 RMK AO1 T00911011", "CWHT 291100Z AUTO 31002KT 01/M01 RMK AO1 SLP161 T00061011 57007", "CWHV 291100Z AUTO 17003KT 02/M00 RMK AO1 SLP200 T00151002 53001", "CWID 291100Z AUTO 11003KT M00/M06 RMK AO1 SLP232 T10031057 51001", "CWIG 291100Z AUTO 03010KT RMK AO1", "CWII 291100Z AUTO 00000KT 01/M00 RMK AO1 SLP137 T00121001 56005", "CWIJ 291100Z AUTO 29012KT M09/M10 RMK AO1 SOG 78 2013 SLP240 T10871102", "CWIK 291100Z AUTO 34009KT 03/01 RMK AO1 SLP177 T00260006 51014", "CWIL 291100Z AUTO ///// ////SM OVC002 M10/M11 A3014", "CWIP 291100Z AUTO 03004KT 04/M01 RMK AO1 T00361012", "CWIS 291100Z AUTO 03003KT 03/M02 RMK AO1 SOG 63 4000 SLP210 T00261024", "CWIT 291100Z AUTO 36004KT 10/04 RMK AO1 SLP158 T00990035 56003", "CWIW 291100Z AUTO 33008KT 01/M02 RMK AO1 SLP215 T00101019 53014", "CWIZ 291100Z AUTO 11004KT 11/03 RMK AO1 T01060031", "CWJB 291100Z AUTO 08/02 RMK AO1 T00780016", "CWJC 291100Z AUTO 36012KT M00/01 RMK AO1 SOG 01 3020 SLP183 T10040005", "CWJD 291100Z AUTO 36001KT 02/01 RMK AO1 9PAST HR 1011 SLP150 P0004 T00170014 50030", "CWJH 291100Z AUTO 32007KT 02/M00 RMK AO1 SOG 02 3015 SLP194 T00181003", "CWJI 291100Z AUTO 31002KT M00/M02 RMK AO1 SLP208 T10031021 51016", "CWJO 291100Z AUTO 00000KT 06/M02 RMK AO1 SLP194 T00641019 51002", "CWJR 291100Z AUTO 00000KT 08/01 RMK AO1 SLP196 T00840008 53003", "CWJT 291100Z AUTO 12003KT 11/05 RMK AO1 SLP158 T01120046 55000", "CWJU 291100Z AUTO 10004KT 08/06 RMK AO1 SLP111 T00760063 56023", "CWJV 291100Z AUTO 09007KT 10/02 RMK AO1 SLP168 T00960016 52002", "CWJW 291100Z AUTO 13002KT M04/M06 RMK AO1 SLP214 T10351062 52002", "CWJX 291100Z AUTO 01004KT 03/M06 RMK AO1 SOG 01 3009 SLP220 T00301057", "CWKD 291100Z AUTO M01/M03 RMK AO1 SLP215 T10141033 55000", "CWKG 291100Z AUTO 09004KT 06/03 RMK AO1 SLP231 T00590032 53007", "CWKH 291100Z AUTO 15/03 RMK AO1 SLP120 T01530026 50002", "CWKM 291100Z AUTO 35002KT ////SM NCD M21/M23 A3017", "CWKO 291100Z AUTO 36005KT 02/M02 RMK AO1 SLP208 T00241019 51017", "CWKX 291100Z AUTO 07004KT M01/M02 RMK AO1 SLP199 T10101022 58009", "CWLB 291100Z AUTO 04001KT M00/M04 RMK AO1 SLP249 T10021039 51012", "CWLC 291100Z AUTO 33004KT 08/07 RMK AO1 T00830070", "CWLE 291100Z AUTO 31005KT 01/M03 RMK AO1 SLP225 T00081027 52013", "CWLM 291100Z AUTO 29001KT 13/06 RMK AO1 SLP128 T01250059 53006", "CWLP 291100Z AUTO 16011KT 09/07 RMK AO1 SLP103 T00910073 56004", "CWLS 291100Z AUTO 13007G15KT 06/05 RMK AO1 SLP068 T00590048 56010", "CWLX 291100Z AUTO ///// ////SM ////// M02/M02 A3017", "CWLY 291100Z AUTO 19003KT 9SM CLR 10/02 A2999 RMK SLP157", "CWME 291100Z AUTO 07015G25KT 11/05 RMK AO1 PK WND 05026/1012 SLP113 T01060052 56002", "CWMJ 291100Z AUTO 10002KT 09/04 RMK AO1 SLP144 T00940037 56007", "CWMM 291100Z AUTO 00000KT 10/07 RMK AO1 SLP133 T01010067 53005", "CWMQ 291100Z AUTO 19003KT 06/01 RMK AO1 SLP217 T00560007 53003", "CWMT 291100Z AUTO 15005KT M00/M06 RMK AO1 SLP235 T10031062 51003", "CWNC 291100Z AUTO 11008G16KT 07/06 RMK AO1 6PAST HR 6012 SLP107 P0006 T00690061 50094", "CWND 291517Z M01/M01 RMK 6011 T10131006", "CWNE 291100Z AUTO 07007KT 03/02 RMK AO1 SLP247 T00340016 50003", "CWNH 291100Z AUTO 01004KT 05/04 RMK AO1 SLP213 T00450035 53010", "CWNK 291100Z AUTO 30005KT 05/01 RMK AO1 SLP127 T00500014 55003", "CWNM 291100Z AUTO 00000KT 05/03 RMK AO1 SLP202 T00450032 53001", "CWNP 291100Z AUTO 09001KT 03/02 RMK AO1 SLP202 T00300020 53004", "CWNQ 291100Z AUTO 06004KT 08/04 RMK AO1 SLP182 T00830035 53002", "CWNZ 291100Z AUTO 04004KT 02/02 RMK AO1 1PAST HR 7019 SLP130 P0000 T00210019 50008", "CWOB 291100Z AUTO 05006KT 040V100 ////SM ////// M07/M07 A3018", "CWOC 291100Z AUTO 12003KT 02/01 RMK AO1 SLP249 T00220005 53003", "CWOD 291100Z AUTO 32002KT 03/01 RMK AO1 SLP198 T00310005 53001", "CWOE 291100Z AUTO 06002KT 06/M00 RMK AO1 SLP210 T00631001 51007", "CWOY 291100Z AUTO 32005KT 01/M02 RMK AO1 SLP203 T00131015 53014", "CWPD 291100Z AUTO 00000KT M01/M03 RMK AO1 SLP190 T10131030 58001", "CWPE 291100Z AUTO 08006KT 07/05 RMK AO1 SLP231 T00690046 53008", "CWPF 291130Z AUTO 01003KT 10/08 RMK AO1 SLP129 T01010075 53006", "CWPK 291100Z AUTO 04001KT 03/01 RMK AO1 SLP174 T00280006 56008", "CWPO 291100Z AUTO 35005KT 03/03 RMK AO1 8PAST HR SOG 06 6002 SLP140 P0011 T00330033 50029", "CWPR 291100Z AUTO 31001KT 05/M00 RMK AO1 SLP170 T00531002 52004", "CWPZ 291100Z AUTO 30002KT M03/M04 RMK AO1 SLP180 T10281044 58008", "CWQH 291100Z AUTO 07003KT 06/03 RMK AO1 SLP192 T00590028 53001", "CWQK 291100Z AUTO 31002KT 14/05 RMK AO1 SLP128 T01420046 53006", "CWQO 291100Z AUTO 04012KT 04/04 RMK AO1 PK WND 03017/1012 T00400040", "CWQP 291100Z AUTO 11018KT 06/05 RMK AO1 9PAST HR 6007 PK WND 11022/1038 SLP121 P0011 T00630053 50071", "CWQR 291100Z AUTO 06008KT 02/M01 RMK AO1 T00221008", "CWQS 291100Z AUTO 04002KT 10/07 RMK AO1 SLP090 T01030073 56022", "CWQV 291100Z AUTO 10004KT 03/ RMK AO1 T0032", "CWRA 291100Z AUTO 04/M01 RMK AO1 SLP145 T00361011 51007", "CWRJ 291100Z AUTO 30003KT M02/M07 RMK AO1 SLP228 T10221067 53014", "CWRK 291100Z AUTO 12005KT 07/07 RMK AO1 0PAST HR SOG 01 6014 SLP117 P0012 T00670067 50059", "CWRM 291100Z AUTO 11004KT 04/M03 RMK AO1 SLP192 T00381032 58004", "CWRN 291100Z AUTO 30005KT 04/01 RMK AO1 SLP243 T00390012 52012", "CWRO 291100Z AUTO 36009KT 08/ RMK AO1 SLP100 T0075 56026", "CWRT 291100Z AUTO 00000KT M02/M03 RMK AO1 SLP225 T10201027 51006", "CWRU 291100Z AUTO 12021KT 12/ RMK AO1 PK WND 11026/1047 SLP094 T0120 58003", "CWRY 291100Z AUTO 33003KT 01/01 RMK AO1 SOG 17 1007 SLP212 T00060005", "CWRZ 291100Z AUTO 25003KT 02/M00 RMK AO1 SLP250 T00211002 53002", "CWSA 291100Z AUTO 36008KT 9SM 04/02 A3020 RMK CLD MISG SLP227", "CWSD 291100Z AUTO 11003KT 04/M00 RMK AO1 SLP251 T00371003 51006", "CWSF 291100Z AUTO 00000KT 04/03 RMK AO1 3PAST HR 3009 SLP228 P0001 T00410027 50005", "CWSG 291100Z AUTO 19003KT 03/02 RMK AO1 SLP236 T00260022 53007", "CWSK 291100Z AUTO 35002KT 09/05 RMK AO1 SLP149 T00910049 52004", "CWSL 291100Z AUTO 18002KT 06/04 RMK AO1 SLP178 T00610035 52005", "CWSP 291100Z AUTO 08001KT 15/05 RMK AO1 SLP131 T01500050 53007", "CWSR 291100Z AUTO 25003KT M02/M05 RMK AO1 SLP230 T10161051 53011", "CWSS 291100Z AUTO 00000KT 04/03 RMK AO1 SLP229 T00360028 53008", "CWST 291100Z AUTO 05005KT 04/M00 RMK AO1 SLP203 T00411004 51009", "CWTA 291100Z AUTO 14002KT 12/02 RMK AO1 SLP167 T01180020 55001", "CWTG 291100Z AUTO 04016G23KT 03/01 RMK AO1 PK WND 05023/1053 SLP234 T00340011 53006", "CWTN 291100Z AUTO 26002KT 09/02 RMK AO1 SLP203 T00860017 53005", "CWTT 291100Z AUTO 35001KT 05/04 RMK AO1 T00530036", "CWTY 291100Z AUTO 04006KT 08/03 RMK AO1 SLP189 T00780027 53005", "CWUS 291100Z AUTO 26005KT 10/00 RMK AO1 SLP165 T01010000 53002", "CWUW 291100Z AUTO 12014KT ////SM ////// M05/M06 A3014", "CWUX 291100Z AUTO 12004KT 05/M02 RMK AO1 SLP203 T00541019 50001", "CWVF 291100Z AUTO 08002KT 11/08 RMK AO1 T01140078", "CWVI 291100Z AUTO 00000KT M00/M02 RMK AO1 SLP237 T10031023 51010", "CWVN 291100Z AUTO 36004KT 03/M04 RMK AO1 SLP210 T00251039 53012", "CWVP 291100Z AUTO 05003KT 06/M08 RMK AO1 SLP205 T00571075 53003", "CWVQ 291100Z AUTO 10006KT 11/03 RMK AO1 SLP162 T01120033 55001", "CWVT 291100Z AUTO 32005KT M01/M06 RMK AO1 SLP256 T10051061 51016", "CWVU 291100Z AUTO 11004KT 07/06 RMK AO1 SLP223 T00730055 53010", "CWWA 291100Z AUTO 03001KT 14/04 RMK AO1 SLP131 T01400035 52005", "CWWB 291100Z AUTO 06011KT 06/06 RMK AO1 SLP084 T00570055 56009", "CWWE 291100Z AUTO 07010KT 04/03 RMK AO1 PK WND 07017/1021 SLP238 T00380032 53014", "CWWF 291100Z AUTO 34008KT M00/M01 RMK AO1 SOG 01 3020 SLP189 T10041010", "CWWK 291100Z AUTO 00000KT 10/07 RMK AO1 SLP136 T01000072 53008", "CWWL 291100Z AUTO 00000KT 10/06 RMK AO1 SLP083 T00990061 56024", "CWWS 291100Z AUTO 02010KT 01/M01 RMK AO1 SOG 24 3002 SLP146 T00101014", "CWWZ 291100Z AUTO 06011KT 07/06 RMK AO1 PK WND 06017/1000 SLP080 T00700064 56010", "CWXA 291100Z AUTO 00025KT M03/M05 RMK AO1 SLP244 T10301050 56005", "CWXC 291100Z AUTO 03001KT 01/M02 RMK AO1 SLP200 T00101023 50001", "CWXI 291100Z AUTO 34010KT 01/M01 RMK AO1 SLP234 T00131011 51006", "CWXL 291100Z AUTO 00000KT 06/01 RMK AO1 SLP218 T00610014 53009", "CWYJ 291100Z AUTO 34002KT 11/05 RMK AO1 SLP129 T01110053 53005", "CWYL 291100Z AUTO 10003KT M03/M05 RMK AO1 SOG 47 4000 SLP228 T10261046", "CWYY 291100Z AUTO 00000KT 07/04 RMK AO1 SLP165 T00690039 53004", "CWZA 291100Z AUTO 03006KT 16/03 RMK AO1 SLP136 T01590033 53005", "CWZG 291100Z AUTO 00000KT M03/M05 RMK AO1 SLP224 T10271047 50000", "CWZL 291100Z AUTO 08006KT 11/07 RMK AO1 SLP106 T01050072 56023", "CWZN 291100Z AUTO 36019G27KT 02/M03 RMK AO1 PK WND 01029/1048 SLP200 T00221033 53009", "CWZO 291100Z AUTO 05004KT RMK AO1", "CWZQ 291100Z AUTO 23005KT 02/M01 RMK AO1 SLP247 T00201006 53010", "CWZW 291100Z AUTO 04002KT 03/M01 RMK AO1 SOG 19 6009 SLP172 T00321009", "CXAF 291100Z AUTO 08003KT 03/M02 RMK AO1 T00261023", "CXAG 291100Z AUTO 17002KT 02/M04 RMK AO1 T00151038", "CXAJ 291100Z AUTO 03002KT M01/M06 RMK AO1 T10101062", "CXAK 291100Z AUTO 00000KT 06/M00 RMK AO1 T00631002", "CXAT 291100Z AUTO 24002KT M05/M07 RMK AO1 SOG 10 0000 SLP244 T10481072", "CXBA 291100Z AUTO 28004KT M01/M06 RMK AO1 T10101060", "CXBI 291100Z AUTO 12009KT 06/05 RMK AO1 6015 SLP096 T00600053 50036", "CXBK 291100Z AUTO 29007KT 01/M00 RMK AO1 SOG 01 1017 SLP202 T00071002", "CXBO 291100Z AUTO 05005KT 07/02 RMK AO1 T00740021", "CXBR 291100Z AUTO 04004KT RMK AO1", "CXBW 291100Z AUTO 35002KT 01/01 RMK AO1 T00050014", "CXCA 291100Z AUTO 36005KT 01/M00 RMK AO1 4PAST HR 6020 SLP107 P0005 T00091003 50083", "CXCD 291100Z AUTO 36003KT 06/M05 RMK AO1 T00601049", "CXCK 291100Z AUTO 31002KT M02/M04 RMK AO1 SOG 32 6001 SLP151 T10211041", "CXCP 291100Z AUTO 35004KT 01/M02 RMK AO1 T00111023", "CXCS 291100Z AUTO 33005KT 03/M06 RMK AO1 T00301063", "CXDB 291100Z AUTO 15003KT 04/M01 RMK AO1 T00431009", "CXDE 291100Z AUTO 08004KT M01/M07 RMK AO1 SOG 21 8004 SLP195 T10081067", "CXDI 291100Z AUTO 12003KT 08/07 RMK AO1 3PAST HR 7006 SLP065 P0001 T00770072 50005", "CXDK 291100Z AUTO 00000KT M04/M05 RMK AO1 SLP195 T10381048 58003", "CXDW 291100Z AUTO 30010KT 05/03 RMK AO1 SOG 01 5003 SLP127 T00470026", "CXEA 291100Z AUTO 04004KT 01/M03 RMK AO1 SLP130 T00051033 58008", "CXEC 291100Z AUTO 10003KT 08/M05 RMK AO1 SLP225 T00791049 51004", "CXET 291100Z AUTO 12013G18KT 07/05 RMK AO1 PK WND 12022/1011 SLP086 T00660050 56011", "CXFM 291100Z AUTO 15006KT 02/M01 RMK AO1 T00201013", "CXFR 291100Z AUTO 08009KT 08/M04 RMK AO1 T00791039", "CXGH 291100Z AUTO 32002KT 03/M00 RMK AO1 SLP134 T00251004 57005", "CXHA 291100Z AUTO 18003KT 10/10 RMK AO1 1PAST HR 5001 SLP042 P0000 T00980095 50001", "CXHD 291100Z AUTO 02003KT 02/M02 RMK AO1 T00181019", "CXHM 291100Z AUTO 07005KT 06/05 RMK AO1 1PAST HR 6009 SLP085 P0004 T00590050 50011", "CXHP 291100Z AUTO 09006KT 06/M03 RMK AO1 T00591030", "CXHR 291100Z AUTO 12006KT 08/M05 RMK AO1 T00811051", "CXIB 291100Z AUTO 10001KT 06/01 RMK AO1 SLP232 T00570008 51005", "CXKA 291100Z AUTO 02003KT 02/02 RMK AO1 SLP125 T00150019 56017", "CXKE 291100Z AUTO 12005KT 12/05 RMK AO1 SLP136 T01160047 56011", "CXKI 291100Z AUTO 00000KT 04/02 RMK AO1 SLP115 T00370020 56008", "CXKM 291100Z AUTO 34003KT M00/M04 RMK AO1 T10031036", "CXKT 291100Z AUTO 04002KT 05/01 RMK AO1 SLP238 T00460014 51007", "CXLB 291100Z AUTO 10008KT 04/03 RMK AO1 SLP241 T00370031 53012", "CXLL 291100Z AUTO M03/M06 RMK AO1 SOG 16 5000 SLP201 T10311058", "CXMD 291100Z AUTO 30008KT 06/01 RMK AO1 SOG 01 5005 SLP123 T00590014", "CXMG 291100Z AUTO 06003KT M02/M05 RMK AO1 T10231053", "CXMI 291100Z AUTO 06005KT 03/02 RMK AO1 SLP239 T00320018 51012", "CXMM 291100Z AUTO 19002KT M03/M07 RMK AO1 SLP257 T10311070 52014", "CXMO 291100Z AUTO 04002KT 07/01 RMK AO1 T00710013", "CXMY 291100Z AUTO 03/01 RMK AO1 T00320005", "CXNM 291100Z AUTO 08004KT 03/M03 RMK AO1 SOG 73 T00271025", "CXNP 291100Z AUTO 03002KT 04/02 RMK AO1 2PAST HR 1007 SLP240 P0001 T00380015 50002", "CXOL 291100Z AUTO 13004KT 04/M02 RMK AO1 T00351017", "CXOX 291100Z AUTO 30005KT M00/M03 RMK AO1 SLP213 T10011030 53016", "CXOY 291100Z AUTO 36005KT 03/M04 RMK AO1 T00331037", "CXPA 291100Z AUTO 07008KT 04/M03 RMK AO1 T00391032", "CXPC 291100Z AUTO 08/06 RMK AO1 7017 SLP086 T00800062 50004", "CXPL 291100Z AUTO 36006KT 07/02 RMK AO1 T00660019", "CXRB 291100Z AUTO 12017KT M10/M12 RMK AO1 PK WND 12021/1047 SLP248 T11021119 51004", "CXRH 291100Z AUTO 02004KT 03/M02 RMK AO1 SLP238 T00291016 52003", "CXRL 291100Z AUTO 12002KT M01/M07 RMK AO1 T10051074", "CXSC 291100Z AUTO 02002KT 08/M05 RMK AO1 T00791048", "CXSE 291100Z AUTO 11009KT M10/M12 RMK AO1 SOG 22 3008 SLP217 T10951124", "CXSH 291100Z AUTO 05004KT 08/01 RMK AO1 SLP187 T00780007 53004", "CXSL 291100Z AUTO 09005KT 05/M07 RMK AO1 T00451066", "CXSP 291100Z AUTO 04005KT 03/M07 RMK AO1 T00301068", "CXTD 291100Z AUTO 26005KT 02/M00 RMK AO1 SLP258 T00241001 52014", "CXTH 291100Z AUTO 08006KT 05/M06 RMK AO1 T00451055", "CXTN 291100Z AUTO 27005KT M15/M17 RMK AO1 SOG 42 3008 SLP239 T11531172", "CXTO 291100Z AUTO 06/05 RMK AO1 6012 SLP087 T00550052 50002", "CXTP 291100Z AUTO 34006KT 01/M01 RMK AO1 PK WND 34019/1023 SLP175 T00081014 52006", "CXTV 291100Z AUTO 35003KT M17/M20 RMK AO1 SOG 46 8005 SLP218 T11741195", "CXVM 291100Z AUTO 00000KT M02/M06 RMK AO1 T10221057 50004", "CXVN 291100Z AUTO 07007KT 07/06 RMK AO1 SLP078 T00710064 56011", "CXVW 291100Z AUTO 11008KT 05/M05 RMK AO1 SLP201 T00451052 58005", "CXWM 291100Z AUTO 13004KT 02/M01 RMK AO1 T00241010", "CXWN 291100Z AUTO 04001KT 04/02 RMK AO1 SLP127 T00440020 56007", "CXYH 291100Z AUTO 01002KT M01/M05 RMK AO1 SLP179 T10061046 56002", "CXZC 291100Z AUTO 01003KT 02/02 RMK AO1 SOG 07 6007 SLP161 T00210015 50008", "CXZV 291100Z AUTO 05004KT 04/01 RMK AO1 SLP242 T00370005 53006", "CYAH 291100Z AUTO 00000KT 9SM OVC071 00/M02 A3010 RMK SLP209", "CYAM 291100Z 08005KT 12SM FEW010 SCT080 BKN100 08/07 A2974 RMK SC2AC2AS3 SLP078", "CYAT 291100Z AUTO 35005KT 9SM OVC002 01/ A3004 RMK DP MISG SLP175", "CYAY 291100Z AUTO 33010KT 9SM CLR 02/M02 A3023 RMK SLP240", "CYBC 291153Z AUTO 09009KT 9SM OVC007 04/03 A3021 RMK SLP233", "CYBG 291100Z 11007KT 25SM BKN220 05/M01 A3010 RMK CI7 DENSITY ALT -716FT SLP199", "CYBK 291132Z 13002KT 1SM BR OVC003 M12/M13 A3012 RMK SC8 SLP204", "CYBQ 291141Z AUTO 18004KT 9SM -RA BKN019 OVC028 00/M02 A2997 RMK SLP171", "CYBR 291100Z 33009KT 15SM FEW035 SCT060 04/02 A2989 RMK SC2SC2 SLP139", "CYBU 291100Z AUTO 29009KT 9SM CLR 02/M00 A3008 RMK SLP202", "CYBW 291100Z AUTO 24003KT 9SM CLR 01/M02 A3015 RMK SLP228", "CYBX 291100Z 02008KT 15SM SCT250 04/M02 A3024 RMK CI3 SLP244", "CYCA 291132Z AUTO 22005KT 200V260 9SM SCT004 02/01 A3026 RMK SLP251", "CYCB 291126Z 02004KT 3SM BR BKN003 M18/M20 A3014 RMK SF7 FROIN SLP213", "CYCK 291151Z AUTO 14008KT 5SM BR OVC002 08/08 A2965 RMK SLP045", "CYCO 291100Z 24011KT 15SM BKN017 M12/M14 A3020 RMK SC7 SLP233", "CYCY 291119Z AUTO 15011KT 9SM FEW050 BKN060 OVC072 M07/M09 A3030 RMK SLP265", "CYDA 291100Z 00000KT 15SM OVC072 01/M02 A2990 RMK AC8 SLP144", "CYDB 291100Z AUTO 00000KT 9SM OVC066 M02/M05 A2987 RMK SLP156", "CYDF 291100Z 03006KT 340V050 15SM BKN037 04/M04 A3022 RMK SC7 SLP238", "CYDL 291100Z AUTO 07005KT 9SM FEW170 M01/M02 A3002 RMK SLP185", "CYDN 291100Z AUTO 35012KT 9SM SCT032 OVC050 05/03 A2993 RMK SLP148", "CYDP 291100Z 30004KT 15SM FEW005 BKN230 M03/M03 A3021 RMK SF1CI6 TR SF SLP233", "CYDQ 291100Z AUTO 28002KT 9SM CLR M01/M04 A3007 RMK SLP206", "CYEG 291100Z 00000KT 20SM FEW110 BKN140 04/M03 A3016 RMK AC2AC5 SLP230", "CYEK 291145Z AUTO 04003KT 1/2SM FZFG VV003 M06/M06 A3014 RMK ICE SLP209", "CYEN 291100Z AUTO 31012KT 9SM CLR 01/00 A3000 RMK SLP180", "CYER 291100Z AUTO 10004KT 9SM OVC060 M02/M02 A3011 RMK SLP199", "CYET 291100Z AUTO 04005KT 9SM CLR 06/M04 A3011 RMK SLP208", "CYEV 291100Z 07007KT 15SM BKN073 M09/M13 A3012 RMK AC6 SLP208", "CYFB 291100Z 15006KT 8SM OVC012 M02/M04 A3022 RMK SC8 VIS S 30 INTMT -SN SLP238", "CYFC 291100Z AUTO 03005KT 9SM CLR 05/03 A3021 RMK SLP233", "CYFO 291100Z 32008KT 10SM OVC003 02/01 A3001 RMK ST8 BR SNW CVR/NIL SLP181", "CYFS 291100Z 13002KT 15SM BKN150 05/M06 A3011 RMK AC7 SLP206", "CYFT 291100Z 18003KT 15SM FEW240 01/M02 A3023 RMK CI1 CI TR SLP243", "CYGK 291100Z 10007KT 060V130 10SM -RA OVC033 09/06 A2990 RMK SC8 SLP129", "CYGL 291100Z 11007KT 10SM -RA OVC036 02/02 A3000 RMK SC8 SLP173", "CYGP 291100Z VRB02KT 10SM VCFG FEW250 M00/M00 A3025 RMK CI1 FG BANK S-W VIS 2 CONTRAILS SLP248", "CYGR 291100Z 05007KT 360V070 20SM FEW015 FEW180 05/02 A3027 RMK SF1AC1 SF TR SLP253", "CYGV 291100Z AUTO 07006KT 9SM CLR 03/M01 A3027 RMK SLP253", "CYGW 291100Z AUTO VRB02KT 9SM OVC066 03/01 A3007 RMK SLP184", "CYGX 291100Z 03004KT 15SM FEW100 M05/M06 A3000 RMK AS1 AS TR SLP172", "CYHD 291100Z AUTO 04003KT 360V060 9SM OVC071 01/M03 A2987 RMK SLP133", "CYHE 291100Z AUTO 11010KT 9SM CLR 11/05 A2998 RMK SLP154", "CYHK 291100Z AUTO 03005KT 9SM -SN FEW008 BKN028 OVC055 M10/M11 A3013 RMK SLP211", "CYHM 291126Z 05009KT 3SM -RA BR OVC002 06/06 A2974 RMK SF8 SLP076", "CYHU 291100Z AUTO 11007KT 9SM OVC150 11/03 A3002 RMK SLP170", "CYHY 291100Z 14002KT 15SM FEW230 M03/M08 A3023 RMK CI1 SLP247", "CYHZ 291100Z 07004KT 15SM BKN005 01/00 A3022 RMK SC7 SLP240", "CYIN 291100Z AUTO 18004KT 120V200 9SM CLR M01/M04 A2998 RMK SLP157", "CYIO 291100Z AUTO 36004KT 9SM OVC071 M09/M10 A3026 RMK SLP256", "CYIV 291100Z AUTO 06004KT 9SM BKN060 OVC073 04/M02 A2993 RMK SLP149", "CYJT 291123Z 02012G18KT 15SM FEW046 06/M03 A3022 RMK SC1 WSHFT 1106 SLP237", "CYKA 291100Z 11009KT 40SM FEW240 11/02 A3000 RMK CI1 SLP161", "CYKJ 291100Z AUTO 30005KT 9SM BKN017 M00/M02 A3010 RMK SLP220", "CYKL 291100Z AUTO 00000KT 9SM OVC120 03/00 A3012 RMK SLP223", "CYKP 291149Z AUTO 06007KT 9SM FEW006 BKN011 OVC031 02/01 A2997 RMK SLP161", "CYKY 291100Z 31004KT 280V030 15SM FEW180 FEW230 M01/M06 A3016 RMK AC1CI1 AC TR CI TR SLP231", "CYLD 291100Z 00000KT 15SM SCT048 OVC072 03/02 A2980 RMK SC3AS5 SLP110", "CYLL 291100Z AUTO 36002KT 9SM CLR 03/M07 A3018 RMK SLP242", "CYLT 291100Z 14009KT 10SM FEW050 FEW090 M17/M21 A3039 RMK SC1AC1 SC TR SLP297", "CYLW 291100Z AUTO 05002KT 9SM CLR 06/02 A3003 RMK SLP172", "CYMA 291100Z VRB02KT 20SM OVC065 01/M02 A2990 RMK SC8 SLP152", "CYMH 291100Z AUTO 32009KT 9SM CLR 02/M01 A3023 RMK SLP241", "CYMM 291100Z AUTO 00000KT 9SM CLR M03/M07 A3024 RMK SLP258", "CYMO 291114Z AUTO 02005KT 330V050 9SM OVC081 02/02 A2998 RMK SLP155", "CYMT 291100Z AUTO 08004KT 9SM SCT120 04/M02 A3003 RMK SLP183", "CYMX 291100Z 05004KT 30SM BKN140 OVC240 09/05 A3002 RMK AC6CS2 SLP168", "CYNA 291100Z AUTO 09003KT 9SM OVC045 02/M01 A3028 RMK SLP256", "CYND 291100Z 07008KT 15SM OVC095 11/04 A2994 RMK AC8 SLP142", "CYNE 291100Z AUTO 36002KT 9SM OVC100 00/M03 A2995 RMK SLP153", "CYNM 291100Z AUTO 12003KT 9SM CLR 05/M01 A2994 RMK SLP148", "CYOD 291100Z 00000KT 15SM FEW230 M02/M06 A3021 RMK CI1 DENSITY ALT -274FT SLP249", "CYOJ 291100Z AUTO 31002KT 9SM CLR M02/M04 A3018 RMK SLP238", "CYOO 291152Z AUTO 10013G20KT 2 1/4SM -RA BR OVC004 06/06 A2979 RMK PCPN 1.0MM PAST HR SLP095", "CYOW 291100Z 06008KT 15SM OVC100 10/04 A2994 RMK AC8 SLP141", "CYPA 291100Z 23009KT 15SM SKC M01/M02 A3014 RMK SLP226", "CYPD 291100Z AUTO VRB02KT 9SM CLR 03/M00 A3022 RMK SLP239", "CYPE 291100Z 02004KT 010V070 15SM BKN098 08/M06 A3013 RMK AC7 SLP220", "CYPH 291148Z AUTO 00000KT 3/4SM BR OVC001 M04/M05 A3018 RMK SLP225", "CYPL 291100Z AUTO 07003KT 9SM OVC048 01/M02 A2993 RMK SLP156", "CYPO 291100Z AUTO 13004KT 010V160 9SM OVC050 00/M03 A3011 RMK SLP200", "CYPQ 291107Z AUTO 12009KT 6SM -RA BR BKN007 OVC011 07/06 A2983 RMK SLP110", "CYPR 291100Z AUTO 08003KT 9SM SCT220 06/05 A2980 RMK SLP093", "CYPX 291103Z AUTO 32014KT 2SM -SN OVC014 M01/M01 A3014 RMK SLP210", "CYPY 291100Z AUTO 00000KT 9SM CLR M06/M08 A3024 RMK SLP255", "CYQA 291100Z AUTO 12012G20KT 7SM BKN011 OVC017 07/06 A2978 RMK SLP091", "CYQB 291100Z 05006KT 30SM OVC180 06/00 A3011 RMK AS8 SLP201", "CYQD 291115Z AUTO 32008KT 9SM OVC010 02/02 A2999 RMK SLP171", "CYQF 291100Z AUTO 09003KT 9SM CLR 06/M03 A3016 RMK SLP227", "CYQG 291132Z AUTO 17003KT 1 3/4SM BR OVC004 10/10 A2965 RMK SLP043", "CYQH 291100Z VRB02KT 20SM BKN082 00/M03 A3001 RMK AC6 SLP190", "CYQI 291100Z 14006KT 7SM FEW002 OVC250 05/05 A3019 RMK SF1CI7 CONTRAILS SLP227", "CYQK 291100Z 07007KT 20SM BKN095 BKN220 01/M04 A2988 RMK AC5CI2 SLP133", "CYQL 291100Z AUTO 05007KT 9SM CLR 03/M01 A3013 RMK SLP214", "CYQM 291124Z 11005KT 15SM FEW006 FEW240 04/03 A3024 RMK CF1CI1 CF TR CONTRAILS SLP244", "CYQQ 291100Z 00000KT 20SM SKC 09/06 A2991 RMK DENSITY ALT -463FT SLP128", "CYQR 291100Z 30008KT 15SM SKC M01/M02 A3008 RMK SLP206", "CYQT 291134Z 35005KT 8SM -RA FEW007 BKN016 OVC021 02/01 A2977 RMK SF2SC5SC1 BR SLP092", "CYQU 291100Z 35002KT 25SM FEW100 03/M03 A3007 RMK AC1 SLP200", "CYQV 291100Z AUTO 31009KT 9SM CLR 01/00 A3001 RMK SLP183", "CYQW 291100Z AUTO 00000KT 9SM CLR M03/M06 A3019 RMK SLP244", "CYQX 291147Z 35018KT 4SM -DZ BR BKN009 OVC028 00/M00 A3009 RMK SF7SC1 SLP199", "CYQY 291100Z 01009KT 15SM BKN039 04/01 A3022 RMK SC6 SLP239", "CYQZ 291100Z AUTO 00000KT 9SM CLR 04/M01 A2999 RMK SLP167", "CYRB 291100Z 10021KT 3SM R35/4000VP6000FT/D BLSN FEW005 M10/M12 A3024 RMK ST1 ST TR SLP252", "CYRJ 291100Z 19002KT 40SM SCT180 BKN210 04/01 A3009 RMK AC3CI3 SLP197", "CYRL 291100Z 00000KT 15SM FEW040 SCT100 SCT240 M02/M04 A2991 RMK SC1AC3CI1 SC TR CI TR SLP147", "CYRQ 291100Z AUTO 05005KT 9SM BKN170 07/02 A3007 RMK SLP185", "CYRT 291100Z 13007KT 1/4SM FZFG VV002 M06/M07 A3016 RMK FG8 SLP220", "CYRV 291100Z AUTO 00000KT 9SM OVC160 03/01 A3013 RMK SLP211", "CYSB 291100Z 09013G21KT 6SM -SHRA OVC006 07/07 A2979 RMK CU8 SLP097", "CYSC 291100Z AUTO 07006KT 9SM FEW250 07/01 A3008 RMK SLP192", "CYSF 291100Z AUTO VRB02KT 9SM SCT015 01/M00 A3013 RMK SLP219", "CYSJ 291100Z 10006KT 15SM SCT250 07/04 A3021 RMK CI4 SLP235", "CYSM 291100Z 18002KT 15SM FEW270 M04/M07 A3024 RMK CI1 CI TR SLP253", "CYSN 291100Z 09007KT 15SM -SHRA BKN031 OVC044 08/07 A2975 RMK SC5SC3 CVCTV CLD EMBD SLP076", "CYTE 291100Z AUTO 26003KT 9SM OVC024 M00/M01 A3015 RMK SLP216", "CYTH 291100Z 05004KT 15SM FEW080 BKN110 BKN210 M01/M04 A2996 RMK AC2AC4CI1 SLP161", "CYTL 291100Z AUTO 00000KT 9SM CLR M03/M04 A3002 RMK SLP180", "CYTR 291123Z 11009G15KT 090V160 3SM -RA BR BKN014 OVC023 07/06 A2987 RMK SC5SC3 DENSITY ALT -445FT SLP118", "CYTS 291100Z VRB02KT 15SM BKN085 OVC250 02/M00 A2984 RMK AC5CI3 SLP115", "CYTZ 291114Z AUTO 06023KT 9SM -RA OVC004 06/06 A2978 RMK SLP088", "CYUA 291100Z AUTO 21005KT 210V290 ////SM OVC002 ///// A////", "CYUL 291100Z 10009KT 30SM OVC150 11/02 A3001 RMK AC8 SLP165", "CYUX 291100Z AUTO 15009KT 9SM -SN OVC005 M01/ A3012 RMK DP MISG SLP201", "CYUY 291100Z 13009KT 15SM FEW022 OVC070 09/01 A2990 RMK SC1AC8 SC TR SLP134", "CYVC 291100Z 29006KT 15SM SKC M00/M03 A3013 RMK SLP222", "CYVL 291100Z AUTO 01003KT 9SM FEW230 M14/M15 A3010 RMK SLP220", "CYVM 291100Z AUTO 03002KT 9SM OVC120 M09/M10 A3032 RMK SLP270", "CYVO 291100Z 15003KT 15SM OVC075 08/01 A2992 RMK AC8 SLP143", "CYVP 291115Z 20004KT 190V260 1/4SM R07/1800V2200FT/N FG VV003 01/01 A3019 RMK FG8 SLP228", "CYVQ 291100Z 08002KT 30SM FEW040 FEW090 BKN150 BKN200 M06/M07 A3007 RMK SC1AC1AC4CI2 SC TR SLP189", "CYVR 291100Z 33004KT 15SM FEW230 09/07 A2990 RMK CI1 CI TR SLP129", "CYVT 291100Z AUTO 33006KT 9SM CLR M00/M06 A3019 RMK SLP243", "CYVV 291100Z 10006KT 3SM -RA BR OVC009 07/06 A2971 RMK SF8 SLP068", "CYWE 291100Z AUTO VRB02KT 9SM CLR M05/M06 A3017 RMK ICE MISG SLP244", "CYWG 291100Z 05005KT 15SM OVC061 04/03 A2987 RMK SC8 SLP126", "CYWK 291100Z 00000KT 15SM BKN110 03/M01 A3011 RMK AC7 SLP218", "CYWL 291100Z 00000KT 15SM SKC 08/M01 A2998 RMK SLP157", "CYXC 291100Z 27008KT 220V280 15SM FEW030 07/M00 A3012 RMK FU2 FU VIS LWR NE-SE SLP201", "CYXE 291100Z 31009KT 15SM SKC M02/M04 A3015 RMK SLP228", "CYXH 291100Z AUTO 06004KT 9SM OVC130 09/M02 A3013 RMK SLP211", "CYXJ 291100Z 06004KT 15SM FEW200 07/M05 A3008 RMK CI1 SLP203", "CYXL 291133Z 04003KT 15SM FEW040 BKN062 01/M03 A2988 RMK SC2SC5 SLP137", "CYXR 291118Z AUTO 12004KT 110V180 9SM -RA OVC071 06/04 A2987 RMK SLP126", "CYXS 291115Z AUTO 01009KT 9SM CLR 02/M02 A2999 RMK SLP185", "CYXT 291100Z 36022G28KT 20SM BKN230 09/02 A2991 RMK CS5 SLP135", "CYXU 291152Z 10014KT 1SM R15/P6000FT/D -DZ BR OVC003 07/07 A2969 RMK ST8 SLP059", "CYXX 291100Z VRB02KT 15SM FEW230 12/05 A2990 RMK CI1 SLP129", "CYXY 291100Z 16016KT 15SM OVC055 04/M02 A2991 RMK SC8 SLP156", "CYXZ 291100Z 01005KT 320V040 15SM BKN048 OVC068 04/02 A2980 RMK SC6AC2 SLP102", "CYYB 291157Z 09015G21KT 10SM -RA BKN012 OVC023 07/06 A2980 RMK SC7SC1 SLP098", "CYYC 291100Z 00000KT 15SM FEW170 05/M02 A3015 RMK AC1 AC TR SLP227", "CYYD 291100Z AUTO 17002KT 9SM CLR 02/00 A3000 RMK SLP170", "CYYE 291100Z 27003KT 220V290 15SM FEW120 FEW250 M00/M05 A3007 RMK AC1CI1 SLP201", "CYYF 291100Z 00000KT 15SM FEW230 07/01 A3002 RMK CI1 SLP169", "CYYG 291125Z 08005KT 020V100 15SM SCT008 SCT240 03/01 A3026 RMK CF3CI1 SLP251", "CYYH 291100Z 11002KT 8SM -SN BKN003 OVC010 M08/M09 A3014 RMK ST6SC2 CIG RAG SLP212", "CYYJ 291100Z 27005KT 30SM SKC 09/08 A2991 RMK SLP129", "CYYL 291146Z AUTO 33009KT 9SM -RA -UP OVC004 01/01 A2998 RMK SLP175", "CYYN 291100Z AUTO 16005KT 9SM CLR 01/M04 A3012 RMK ICE MISG SLP217", "CYYQ 291100Z 09007KT 10SM SCT130 BKN250 M10/M12 A3009 RMK AC3CI2 SLP194", "CYYR 291100Z 00000KT 15SM BKN250 01/M03 A3026 RMK CI6 DENSITY ALT -1862FT SLP250", "CYYT 291125Z 35019G29KT 2SM -SN OVC006 00/M00 A2994 RMK ST8 SLP149", "CYYU 291100Z 02004KT 15SM SCT080 SCT110 BKN120 BKN130 OVC140 02/02 A2986 RMK AC3AC1AC1AC1AC2 SLP123", "CYYY 291100Z 06009KT 30SM BKN240 05/03 A3017 RMK CI6 FG OVR RIVER SLP219", "CYYZ 291135Z 10011G16KT 4SM -DZ BR OVC004 06/06 A2976 RMK ST8 SLP085", "CYZE 291148Z AUTO 12012G17KT 9SM -RA BKN009 OVC014 07/07 A2972 RMK SLP071", "CYZF 291100Z 12003KT 15SM FEW050 FEW240 M00/M05 A3022 RMK SC1CI1 SC TR CI TR SLP247", "CYZH 291100Z AUTO 09006KT 9SM OVC100 05/M05 A3018 RMK SLP241", "CYZP 291100Z AUTO 27010KT FEW110 SCT130 BKN220 08/06 A2983 RMK WX MISG VIS MISG SLP102", "CYZR 291100Z AUTO 13015G20KT 9SM OVC007 09/08 A2964 RMK SLP042", "CYZS 291100Z 32007KT 15SM FEW013 SCT096 M12/M12 A3017 RMK SC1AC3 SLP225", "CYZT 291100Z 18003KT 15SM SCT150 04/04 A2984 RMK AC3 SLP106", "CYZV 291100Z 06005KT 30SM FEW120 FEW210 04/M00 A3024 RMK AC1CI2 AC TR SLP247", "CYZX 291100Z 06007KT 15SM SCT250 04/03 A3024 RMK CI3 DENSITY ALT -1472FT SLP240", "CYZY 291100Z AUTO 00000KT 9SM CLR M01/M01 A3005 RMK SLP198", "CZBF 291152Z AUTO 17004KT 110V230 6SM BR OVC002 01/01 A3028 RMK SLP257", "CZCP 291100Z AUTO 25006KT ////SM ////// M17/M19 A3018", "CZCR 291100Z AUTO 09008KT 02/02 RMK AO1 SLP246 T00170017 53007", "CZDB 291100Z AUTO 08005KT 02/M00 RMK AO1 SLP245 T00211001 50009", "CZEL 291100Z AUTO 10012G17KT 06/05 RMK AO1 3PAST HR 6009 PK WND 10019/1044 SLP078 P0001 T00560047 50003", "CZEV 291100Z AUTO 07005KT M10/M13 RMK AO1 SOG 51 8006 SLP211 T10951130", "CZFS 291100Z AUTO 11003KT 05/M07 RMK AO1 SLP205 T00471066 58004", "CZHY 291100Z AUTO 15004KT 00/M07 RMK AO1 SLP243 T00001066 51007", "CZKD 291100Z AUTO 00000KT M03/M04 RMK AO1 SOG 16 2006 SLP170 T10261039", "CZMD 291100Z AUTO 04002KT 9SM CLR M04/M05 A2998 RMK SLP171", "CZMJ 291100Z AUTO 29008KT M01/M02 RMK AO1 SOG 01 1016 SLP220 T10071020", "CZOL 291100Z AUTO 00000KT 03/M03 RMK AO1 T00281031", "CZPC 291100Z AUTO 25010KT 9SM CLR 01/M01 A3015 RMK SLP216", "CZPS 291100Z AUTO 14004KT 06/M04 RMK AO1 T00551044", "CZSJ 291100Z AUTO 11004KT 9SM OVC086 02/M03 A2995 RMK SLP158", "CZSM 291100Z AUTO 18001KT M04/M07 RMK AO1 SLP255 T10401072 51015", "CZSP 291100Z AUTO 32003KT 03/02 RMK AO1 SLP251 T00310020 51016", "CZTB 291100Z AUTO 00001KT 02/01 RMK AO1 3PAST HR SOG 01 7023 SLP096 P0005 T00220012 50066", "CZUM 291100Z AUTO 12005KT 9SM CLR 02/M04 A3016 RMK SLP233", "CZVL 291100Z AUTO VRB02KT 9SM BKN100 OVC140 05/M02 A3016 RMK SLP228", "CZZJ 291100Z AUTO 04004KT 05/M05 RMK AO1 SLP210 T00531046 57006", "DAAD 291100Z VRB02KT 8000 FEW030 BKN200 32/04 Q1017", "DAAE 291100Z 08003KT 9999 FEW040 BKN233 27/17 Q1013", "DAAG 291130Z 14006KT 110V170 CAVOK 31/13 Q1015", "DAAJ 291100Z 18007KT 6000 NSC 31/M04 Q1019", "DAAP 291100Z 05004KT CAVOK 37/// Q1014", "DAAS 291100Z 36007KT 9999 SCT026 SCT100 29/M05 Q1020", "DAAT 291130Z VRB04KT 9999 SCT046 34/// Q1021", "DAAV 291100Z 36003KT 9999 SCT033 SCT200 32/13 Q1013", "DAAY 291100Z 01010KT CAVOK 31/01 Q1023", "DABB 291130Z 02011KT 9999 FEW026 SCT100 33/09 Q1012", "DABC 291130Z 34010KT 9999 FEW033 SCT100 30/06 Q1018", "DABS 291100Z 34007KT 9999 FEW033 SCT100 32/// Q1017", "DABT 291100Z 31009KT 9999 SCT023 BKN200 32/// Q1019", "DAFH 291100Z 24015KT CAVOK 33/M04 Q1018", "DAOB 291100Z 30010KT 9999 FEW030 SCT220 30/M00 Q1021", "DAOF 291100Z 11006KT CAVOK 37/01 Q1017", "DAOI 291100Z 24007KT 9999 FEW026 SCT100 31/11 Q1016", "DAOL 291100Z 23006KT 9999 SCT026 BKN100 26/15 Q1016", "DAON 291130Z 35004KT 9999 SCT030 SCT233 30/09 Q1017", "DAOO 291130Z 23020KT 9999 SCT033 SCT100 26/13 Q1016", "DAOR 291100Z 25006KT CAVOK 34/// Q1020", "DAOV 291100Z VRB02KT 9999 SCT030 SCT100 33/06 Q1017", "DAUA 291100Z 13011KT CAVOK 40/// Q1013", "DAUB 291100Z 12003KT CAVOK 32/08 Q1015", "DAUG 291100Z 22007KT 180V260 CAVOK 35/// Q1017", "DAUH 291100Z VRB02KT CAVOK 37/// Q1015", "DAUZ 291100Z 08008KT CAVOK 34/M03 Q1016", "DBBB 291100Z 23005KT 9999 SCT013 31/26 Q1013 NOSIG", "DFFD 291100Z 25006KT 210V300 CAVOK 37/21 Q1012 NOSIG", "DFOO 291100Z 23007KT 190V270 9999 FEW020 34/20 Q1014", "DGAA 291100Z 20007KT 150V240 9999 FEW031 SCT036 31/23 Q1014 NOSIG", "DIAP 291200Z 23007KT 190V270 9999 FEW013 31/26 Q1013 NOSIG", "DIBK 291100Z 22010KT 9999 BKN015 29/23 Q1015 NOSIG", "DIYO 291100Z 22010KT 9999 SCT015 31/24 Q1015 NOSIG", "DNAA 291100Z 26004KT 9999 FEW010 26/22 Q1014 NOSIG", "DNBE 291100Z 00000KT 9999 BKN012 33/25 Q1014", "DNEN 291100Z 21009KT 9999 SCT015 32/23 Q1013", "DNGO 291100Z 18005KT CAVOK 35/20 Q1012", "DNIB 291100Z 08004KT 9999 SCT012 31/25 Q1015", "DNIL 291100Z 21003KT 9999 FEW010 25/21 Q1014", "DNIM 291100Z 24008KT 9999 BKN012 32/24 Q1014", "DNJO 291100Z 33010KT CAVOK 28/15 Q1020", "DNKA 291100Z 28014KT 9999 FEW011 29/20 Q1016 NOSIG", "DNKN 291100Z 25014KT 9999 FEW013 34/19 Q1015 NOSIG", "DNKT 291100Z 24017KT 9999 FEW013 36/19 Q1014", "DNMM 291100Z 05008KT 5000 HZ BKN014 FEW020CB 31/27 Q1014 TEMPO -TSRA", "DNMN 291100Z 35005KT 9999 FEW008N26/23 Q1014", "DNPO 291100Z 23006KT 9999 BKN360M FEWCB630M 32/26 Q1013 TEMPO TS", "DNSO 291100Z 16010KT 9999 FEW012 FEW019CB 31/23 Q1014", "DNYO 291100Z 27011KT CAVOK 37/21 Q1011", "DRRM 291100Z 27008KT 170V300 CAVOK 34/20 Q1013", "DRRN 291100Z 16012KT CAVOK 37/11 Q1012 NOSIG", "DRRT 291100Z 26002KT CAVOK 34/16 Q1013", "DRZA 291100Z 10018KT 6000 NSC 40/03 Q1013", "DRZR 291100Z 07004KT CAVOK 40/12 Q1013", "DTKA 291100Z 36006KT 300V060 CAVOK 33/11 Q1012 NOSIG", "DTMB 291130Z 09014KT 8000 NSC 27/18 Q1014", "DTNH 291130Z 10016KT CAVOK 23/18 Q1014 NOSIG", "DTTA 291130Z 10006KT 020V160 9999 FEW030 30/14 Q1013", "DTTB 291100Z 11007KT 080V140 CAVOK 31/12 Q1013", "DTTD 291100Z 34002KT CAVOK 33/01 Q1016", "DTTF 291100Z 24011KT 210V270 CAVOK 31/07 Q1016 NOSIG", "DTTG 291100Z VRB02KT CAVOK 29/13 Q1016 NOSIG", "DTTJ 291130Z 03009KT 360V070 CAVOK 27/18 Q1015 NOSIG", "DTTK 291100Z VRB03KT CAVOK 32/09 Q1014", "DTTL 291100Z 14008KT 060V200 9999 SCT020 22/18 Q1015", "DTTN 291100Z /////KT 9999 FEW020 32/05 Q1013", "DTTR 291100Z VRB06KT CAVOK 33/01 Q1017", "DTTX 291100Z 14007KT 080V170 9999 FEW033 26/13 Q1015", "DTTZ 291100Z VRB05KT CAVOK 32/09 Q1015", "DXNG 291100Z 17004KT 090V210 9999 FEW007 29/20 Q1017", "DXXX 291100Z 19008KT 150V210 9999 FEW015 32/25 Q1014 NOSIG", "EBAW 291150Z 35005KT 310V020 9999 BKN027 BKN036 13/06 Q1021 NOSIG", "EBBE 291125Z AUTO 01004KT 9999 SCT016/// BKN032/// 11/07 Q1020 WHT", "EBBL 291143Z AUTO 01005KT 9999 OVC033/// 13/07 Q1020 BLU", "EBBR 291150Z VRB02KT 9999 FEW025 BKN040 12/07 Q1021 NOSIG", "EBCI 291150Z 02006KT 9999 SCT017 BKN028 10/06 Q1021 NOSIG", "EBCV 291133Z AUTO 07004KT 9999 FEW017/// BKN024/// 11/07 Q1021 WHT", "EBDT 291146Z AUTO VRB02KT 6000 OVC032/// 12/08 Q1020 WHT", "EBFN 291125Z AUTO 36005KT 9999 BKN021/// 12/07 Q1021 WHT", "EBFS 291125Z AUTO 35005KT 6000 SCT007/// BKN009/// OVC011/// 08/07 Q1020 GRN", "EBLB 291149Z AUTO 03006KT 7000 OVC005/// 07/06 Q1019 YLO", "EBLG 291150Z VRB03KT 9999 FEW015 SCT017 BKN030 10/07 Q1020 NOSIG", "EBOS 291150Z 01009KT 9999 FEW026 11/06 Q1022 NOSIG", "EDAH 291150Z 35008KT 320V020 9999 SCT031 BKN037 11/07 Q1013", "EDBC 291150Z AUTO 34012KT 9999 // FEW022/// BKN044/// 12/07 Q1016", "EDDB 291150Z AUTO 30008KT 9999 SCT011 BKN016 OVC021 11/09 Q1014 BECMG BKN015", "EDDC 291150Z AUTO 31012KT 270V340 9999 SCT015 BKN021 OVC027 12/09 Q1014 TEMPO 30015G25KT BKN014", "EDDE 291150Z AUTO 31011KT 9999 FEW015 OVC037 11/08 Q1016 NOSIG", "EDDF 291150Z AUTO 29007KT 230V320 9999 FEW030 OVC045 14/07 Q1017 NOSIG", "EDDG 291150Z AUTO 33008KT 290V010 9999 FEW029 14/07 Q1019 NOSIG", "EDDH 291150Z AUTO 30011KT 260V320 9999 SCT038 14/05 Q1017 NOSIG", "EDDK 291150Z AUTO 34006KT 310V010 7000 OVC011 10/08 Q1019 BECMG BKN015", "EDDL 291150Z AUTO 32005KT 260V360 9999 BKN017 OVC049 13/08 Q1019 NOSIG", "EDDM 291150Z AUTO 30012KT 260V330 9999 FEW042 17/09 Q1015 NOSIG", "EDDN 291150Z AUTO 31011KT 9999 FEW027 14/09 Q1016 NOSIG", "EDDP 291150Z AUTO 31012KT 9999 OVC015 11/08 Q1016 NOSIG", "EDDR 291150Z AUTO 36004KT 310V060 9999 BKN021 12/08 Q1018 NOSIG", "EDDS 291150Z AUTO 34010KT 300V040 9999 FEW027 BKN036 BKN043 15/09 Q1016 NOSIG", "EDDV 291150Z AUTO 32011KT 9999 SCT035 BKN046 14/07 Q1017 NOSIG", "EDDW 291150Z AUTO 33014KT 300V360 9999 FEW036 14/05 Q1018 NOSIG", "EDFH 291150Z 35008KT 300V020 9999 FEW008 BKN010 08/06 Q1018", "EDFM 291150Z 33008KT 300V010 9999 FEW027 OVC032 14/09 Q1018", "EDGS 291150Z 32009KT 3500 BR OVC002 07/07 Q1018", "EDHI 291150Z AUTO 29012KT 260V320 9999 // SCT037/// 15/07 Q1017", "EDHK 291150Z 30014KT 9999 FEW041 14/05 Q1017", "EDHL 291150Z 32009KT 290V350 9999 FEW042 14/04 Q1016", "EDJA 291150Z 32010KT 290V350 9999 SCT033 18/10 Q1015", "EDLN 291150Z 34004KT 290V010 9999 BKN016 12/08 Q1020", "EDLP 291150Z 33006KT 270V030 9999 FEW017 SCT021 OVC047 11/07 Q1018", "EDLV 291150Z VRB03KT 9999 FEW025 BKN038 OVC046 13/07 Q1020", "EDLW 291150Z 31004KT 240V020 9999 SCT017 SCT026 BKN048 12/08 Q1019", "EDMA 291150Z 32012KT 290V350 9999 SCT038 17/10 Q1015", "EDMO 291150Z 32010KT 9999 SCT030 17/10 Q1015", "EDNY 291150Z 25008KT 9999 FEW038 19/10 Q1015 RMK/M", "EDQM 291150Z 31007KT 270V350 9999 SCT013 BKN019 BKN028 11/09 Q1015", "EDSB 291150Z VRB03KT 9999 BKN044 16/09 Q1016", "EDTL 291150Z 35009KT 330V030 9999 BKN032 OVC039 16/09 Q1017", "EDTY 291150Z 34007KT 9999 FEW015 SCT018 OVC034 13/10 Q1016", "EDVE 291150Z 31008KT 280V350 9999 FEW035 BKN045 13/06 Q1016", "EDVK 291150Z 35003KT 290V040 9999 FEW021 BKN040 11/07 Q1017", "EDWE 291120Z 34008KT 290V010 CAVOK 12/02 Q1019", "EDXW 291150Z 32017KT 9999 SCT014 BKN023 BKN034 11/06 Q1018", "EEEI 291150Z 24012KT 200V280 9999 VCSH FEW045TCU 11/M06 Q1014 NOSIG", "EEKE 291150Z AUTO 18011KT 140V200 9999NDV NSC 10/M02 Q1015", "EEPU 291150Z AUTO 20011KT 9999 SCT150/// 09/02 Q1016", "EETN 291150Z 33006KT 290V020 CAVOK 09/M04 Q1014 NOSIG", "EETU 291150Z AUTO 23009KT 190V260 9999 OVC074/// 11/M04 Q1016", "EFET 291150Z AUTO 07011KT 040V100 6000 -SN OVC009 M01/M02 Q1006", "EFHA 291150Z AUTO 26010KT 230V290 9999 SCT045 09/M05 Q1010", "EFHK 291150Z 19012KT 150V210 9999 VCSH FEW040CB 10/M02 Q1013 BECMG FEW030TCU", "EFIV 291150Z AUTO 07011KT 9999 OVC046 02/M06 Q1009", "EFJO 291150Z AUTO 26013KT 9999 SHSN BKN028 //////CB 04/00 Q1009 RESHRA", "EFJY 291150Z AUTO 23009KT 200V270 9999 -SHRA BKN037 05/M01 Q1009", "EFKE 291150Z AUTO 21010KT 4700 -SN OVC001 M00/M01 Q1006", "EFKI 291150Z AUTO 26010KT 9999 SCT042 05/M03 Q1006", "EFKK 291150Z AUTO 20008KT 9999 OVC014 05/02 Q1008", "EFKS 291150Z AUTO 12004KT 4300 -SN OVC005 M01/M02 Q1004", "EFKT 291150Z AUTO 08011KT 1700 -SN OVC006 M01/M02 Q1006", "EFKU 291150Z AUTO 24011KT CAVOK 07/M00 Q1008", "EFLP 291150Z AUTO 27008KT 240V300 9999 -SHRA SCT014 BKN021 //////CB 06/02 Q1012", "EFMA 291150Z AUTO 19015KT CAVOK 07/03 Q1010", "EFMI 291150Z AUTO 26012KT 220V290 9999 FEW039 08/M03 Q1011", "EFOU 291150Z AUTO 23008KT 9999 OVC010 01/M01 Q1007", "EFPO 291150Z AUTO 24010KT 200V280 9999 VCSH //////CB 10/M01 Q1010", "EFRO 291150Z AUTO 08010KT 6000 -SN OVC005 M01/M02 Q1004", "EFSA 291150Z AUTO VRB02KT 9999 -SHSN SCT012 BKN037 //////CB 03/02 Q1011", "EFSI 291150Z AUTO 24013KT 220V280 CAVOK 08/M06 Q1008", "EFTP 291150Z AUTO 28007KT 250V340 9999 -SHRA OVC029 //////CB 06/M01 Q1011", "EFTU 291150Z AUTO 18014KT 160V230 9999 FEW041 09/M03 Q1012", "EFUT 291150Z AUTO 23009KT 200V270 9999 SCT030 07/M02 Q1012", "EFVA 291150Z AUTO 25014KT 9999 FEW030 07/M00 Q1008", "EGAA 291150Z AUTO 15004KT 090V250 9999 BKN011 15/12 Q1018", "EGAC 291150Z AUTO 13007KT 090V190 9999 BKN006 OVC011 13/11 Q1019", "EGAE 291150Z 05006KT 9000 FEW017 SCT024 15/12 Q1018", "EGBB 291150Z 13006KT 9999 -RA SCT020TCU 14/12 Q1021", "EGBJ 291120Z 21003KT 9999 BKN032TCU 17/11 Q1020", "EGCC 291150Z AUTO 20005KT 110V260 9999 SCT025 SCT032 BKN038 17/11 Q1020", "EGCK 291150Z 20009KT 9999 FEW012 16/12 Q1020", "EGDM 291120Z AUTO 13004KT 9999 SCT021/// BKN048/// 16/10 Q1021", "EGDR 291150Z 23004KT 9999 FEW006 SCT008 BKN012 13/12 Q1020 TEMPO 3000 -DZ BR SCT004 RMK GRN TEMPO YLO2", "EGDY 291120Z AUTO 18005KT 9999 BR OVC013/// 15/11 Q1020", "EGEC 291150Z AUTO 10010KT 9999 OVC004/// 10/09 Q1019", "EGEO 291150Z 13009KT 100V160 9999 BKN020 10/05 Q1020", "EGFF 291150Z 10007KT 080V140 8000 OVC003 12/11 Q1021", "EGGD 291150Z AUTO 10004KT 010V170 9000 OVC009 13/11 Q1021", "EGGP 291150Z 13003KT 100V180 9999 FEW025TCU 16/11 Q1019", "EGGW 291150Z AUTO VRB03KT 9999 NCD 16/07 Q1021", "EGHC 291150Z 14009KT 9999 FEW000 SCT003 12/11 Q1020", "EGHE 291150Z 15009KT 0900 FG FEW000 BKN002 12/12 Q1020", "EGHH 291150Z 18007KT 140V220 9999 FEW016 14/10 Q1021", "EGHI 291150Z 19004KT 140V240 9999 FEW028 16/09 Q1021", "EGHQ 291150Z 14007KT 9999 BKN013 14/12 Q1021", "EGJA 291150Z 09007KT 4000 1500NE VCFG FEW000 14/13 Q1020", "EGJB 291150Z 29004KT 260V320 9999 FEW012 15/12 Q1020", "EGJJ 291150Z 13005KT 090V230 5000 VCFG FEW000 SCT003 BKN004 12/12 Q1020", "EGKA 291120Z 15007KT 120V190 9999 SCT015 12/09 Q1022", "EGKB 291150Z VRB03KT 9999 SCT026 14/08 Q1021", "EGKK 291150Z VRB02KT 9999 FEW030 16/08 Q1021", "EGLC 291150Z AUTO 06006KT 020V100 9999 NCD 14/07 Q1022", "EGLF 291150Z AUTO VRB03KT 9999 NCD 16/07 Q1021", "EGLL 291150Z AUTO VRB02KT 9999 NCD 16/08 Q1021 NOSIG", "EGMC 291150Z 11007KT 080V150 9999 FEW021 13/06 Q1022", "EGMD 291150Z 10010KT 070V130 9999 FEW023 13/09 Q1022", "EGNH 291150Z 30006KT 230V340 9999 FEW018 SCT025 SCT036 16/11 Q1020", "EGNJ 291150Z 19005KT 130V240 9999 SCT020 16/11 Q1021", "EGNM 291150Z 03005KT 3600 HZ SCT004 BKN006 10/08 Q1021", "EGNR 291150Z 16003KT 090V260 9999 SCT019 SCT032CB 17/11 Q1020", "EGNS 291150Z 12004KT 6000 2500S VCFG FEW000 SCT002 OVC003 11/11 Q1020 TEMPO 0500 FG", "EGNT 291120Z 10006KT 9999 BKN012 08/05 Q1022", "EGNV 291150Z 04010KT 4000 BR BKN003 08/07 Q1022", "EGNX 291150Z 29004KT 250V350 9999 SCT018 BKN020 15/10 Q1021", "EGOM 291120Z AUTO 09010KT 9999 // OVC003/// 06/05 Q1020", "EGOP 291120Z AUTO 24007KT 4300 OVC001/// 11/10 Q1020", "EGOS 291120Z AUTO 18004KT 9999 // FEW020/// SCT055/// 16/10 Q1020", "EGOV 291120Z AUTO 21009KT 9999 OVC004/// 13/11 Q1020", "EGPA 291150Z 33008KT 9999 FEW020 SCT035 07/M02 Q1022", "EGPB 291150Z 33012KT 300V360 9999 SCT021 07/00 Q1021 TEMPO SHRA", "EGPC 291150Z AUTO 09005KT 050V120 9999 SCT034/// BKN044/// 07/M01 Q1022", "EGPD 291150Z AUTO 19003KT 150V260 9999 OVC032 07/M00 Q1022 NOSIG", "EGPE 291150Z VRB02KT 9999 BKN020 OVC026 07/01 Q1022", "EGPF 291150Z AUTO 05012KT 9999 OVC010 07/05 Q1022", "EGPH 291150Z 06013KT 6000 -RA OVC005 06/05 Q1022", "EGPI 291150Z 13011KT 9999 BKN008 12/09 Q1019", "EGPK 291150Z 04007KT 8000 -DZ SCT011 BKN017 09/08 Q1020", "EGPL 291150Z AUTO 08014KT 9999 BKN037/// 10/04 Q1020", "EGPN 291150Z 09006KT 9999 BKN022 06/02 Q1023", "EGPO 291150Z 07010KT 9999 FEW035 09/M01 Q1021", "EGPU 291150Z 12010KT 9999 BKN012 10/08 Q1019", "EGQA 291120Z AUTO 10008KT 9999 OVC043/// 07/M01 Q1022", "EGQK 291120Z AUTO 13006KT 9999 OVC034/// 07/M01 Q1022", "EGQL 291150Z 07008KT 9999 OVC014 06/03 Q1022 RMK GRN", "EGQM 291120Z AUTO 08007KT 9999 OVC016/// 08/05 Q1022", "EGQS 291150Z 06008KT 9999 FEW033 BKN038 07/M01 Q1022 NOSIG RMK BLU BLU", "EGSH 291150Z VRB04KT CAVOK 16/06 Q1021 NOSIG", "EGSS 291150Z AUTO 14006G16KT 100V220 9999 SCT026 15/08 Q1021", "EGSY 291150Z 10007KT 070V140 8000 BKN006 13/10 Q1021", "EGTC 291150Z VRB03KT 9999 FEW030 16/09 Q1021", "EGTE 291150Z 12007KT 9999 BKN009 14/11 Q1021", "EGTK 291150Z 19005KT 140V240 9999 SCT032 17/09 Q1021", "EGUB 291120Z AUTO 21002KT 9999 FEW031/// 16/08 Q1021", "EGUL 291155Z AUTO 17005KT 9999 CLR 16/11 A3014 RMK AO2 SLP210 T01600112 10160 20032 50001 $", "EGUN 291155Z 26003KT 9999 SCT050 16/11 A3014 RMK AO2A SLP210 T01560110 10156 20040 50000 $", "EGUW 291120Z AUTO 13004KT 9999 BKN021/// 13/07 Q1021", "EGVA 291057Z 00000KT 9999 -DZ FEW025 16/12 A3012 RMK AO2A DZB57 SLP203 FZRANO $", "EGVN 291150Z 17003KT 9999 FEW026 SCT058 18/10 Q1020 NOSIG RMK BLU BLU", "EGVO 291120Z AUTO 18003KT 9999 NCD 16/09 Q1021", "EGVP 291120Z AUTO 19003KT 9999 FEW023/// 17/10 Q1021", "EGWC 291150Z 18005KT 9999 BKN038 16/11 Q1020 RMK BLU", "EGWU 291120Z AUTO 10003KT 9999 NCD 17/08 Q1021", "EGXC 291150Z 20005KT 9999 SCT025 16/11 Q1020 NOSIG RMK BLU BLU", "EGXE 291120Z AUTO 36008KT 4800 BR OVC003/// 09/08 Q1021", "EGXS 291120Z AUTO 12011KT 9999 // OVC020/// 13/10 Q1020", "EGXT 291120Z AUTO 17003KT 9999 NCD 15/08 Q1020", "EGXV 291120Z AUTO 04003KT 7000 BR BKN013/// 14/10 Q1020", "EGXW 291120Z AUTO 19004KT 9999 OVC023/// 15/09 Q1020", "EGXZ 291120Z AUTO 33009KT 2600 BR OVC005/// 10/09 Q1021", "EGYD 291120Z AUTO 17007KT 9999 SCT020/// SCT030/// BKN099/// 15/10 Q1020", "EGYH 291120Z AUTO 17007KT 9999 NCD 16/09 Q1021", "EGYM 291120Z AUTO 25004KT 9999 // FEW079/// 15/08 Q1021", "EGYP 291150Z 02017KT 9999 BKN002 09/09 Q0981 BECMG 35025G35KT SCT014", "EHAK 291155Z AUTO 36013KT 9999 FEW016/// OVC040/// 07/03 Q1021", "EHAM 291155Z 36006KT 320V070 9999 FEW036 15/07 Q1020 NOSIG", "EHBK 291155Z AUTO 34004KT 300V010 9999 SCT015 OVC020 11/08 Q1020 NOSIG", "EHDL 291155Z AUTO 33006KT 290V050 9999 BKN037 OVC041 14/05 Q1020 BLU", "EHDV 291155Z AUTO 02005KT 9999 BKN006/// OVC007/// 08/// Q1021", "EHEH 291155Z AUTO 35006KT 290V070 9999 SCT026 BKN029 BKN035 13/07 Q1020 BLU NOSIG", "EHFD 291155Z AUTO VRB08KT 9999 FEW017/// SCT048/// 08/04 Q1021", "EHFS 291125Z AUTO 02007KT 320V060 9999 SCT022/// BKN025/// BKN030/// 13/08 Q1021", "EHGG 291155Z AUTO 32009KT 280V350 9999 NCD 14/03 Q1020 NOSIG", "EHGR 291155Z AUTO 03006KT 300V070 9999 BKN039 OVC043 14/07 Q1020 BLU", "EHHW 291155Z AUTO 33010KT 9999 FEW009/// OVC021/// 09/06 Q1020", "EHJA 291155Z AUTO VRB04KT 9999 FEW028/// 09/06 Q1021", "EHJR 291155Z AUTO 28003KT //// // ///////// 10/04 Q1022 RE// W10/H6", "EHKD 291155Z AUTO 07007KT 030V090 9999 NCD 12/05 Q1021 BLU", "EHKV 291155Z AUTO 01003KT 9999 NCD 09/04 Q1022", "EHLE 291155Z AUTO 01007KT 290V070 9999 NCD 14/07 Q1020 NOSIG", "EHLW 291155Z AUTO 36005KT 280V040 9999 NCD 12/05 Q1020 BLU", "EHMA 291155Z AUTO 33010KT 9999 NCD 09/06 Q1020", "EHMG 291155Z AUTO 33007KT 9999 NCD 09/05 Q1022", "EHPG 291155Z AUTO 34006KT 9999 NSC 10/05 Q1022", "EHRD 291155Z AUTO VRB03KT 9999 FEW033 BKN037 15/09 Q1020 NOSIG", "EHSA 291155Z AUTO 35005KT 9999 ///////// 10/05 Q1022 W08/H7", "EHSC 291155Z AUTO 36007KT 9999 ///////// 09/06 Q1022 W11/H7", "EHVK 291155Z AUTO 36005KT 320V050 9999 OVC040 14/08 Q1020 BLU", "EHVL 291155Z AUTO 35005KT 300V020 9999 NCD 11/05 Q1021 BLU", "EHWO 291155Z AUTO 02005KT 340V120 9999 OVC031 14/07 Q1020 BLU", "EICK 291130Z 18007KT 150V210 2000 -DZ SCT001 BKN003 12/11 Q1019 TEMPO 5000", "EIDL 291130Z 01005KT 9999 FEW034 15/08 Q1017", "EIDW 291130Z 12007KT 080V160 9999 -SHRA FEW002 SCT010 BKN020 15/12 Q1019 NOSIG", "EIKN 291130Z 19007KT 150V240 9999 FEW012 BKN045 BKN220 14/10 Q1018 NOSIG", "EIKY 291130Z 17009KT 9999 FEW031 BKN037 OVC044 15/11 Q1018", "EIME 291100Z 31003KT 9999 FEW006 SCT021 BKN070 16/12 Q1018", "EINN 291130Z 17010KT 9999 FEW023 BKN038 17/13 Q1018 NOSIG", "EISG 291130Z VRB04KT 9999 SCT034 BKN060 17/10 Q1017", "EIWF 291130Z 22009KT 2000 BR BKN002 13/12 Q1020", "EKAH 291150Z AUTO 29018KT 9999 SCT037/// 12/01 Q1015", "EKBI 291150Z AUTO 29017KT 9999 FEW036/// 11/01 Q1016", "EKCH 291150Z AUTO 28015KT 9999 FEW056/// 15/03 Q1014 NOSIG", "EKEB 291150Z AUTO 31017KT 9999 FEW031/// BKN034/// 10/02 Q1017", "EKKA 291150Z AUTO 30016KT 9999 BKN031/// 10/01 Q1016", "EKOD 291050Z 30013KT 9999 FEW040 BKN050 12/03 Q1016", "EKRK 291150Z AUTO 30013KT 270V330 9999 BKN047/// 14/04 Q1014", "EKRN 291150Z AUTO 32010KT 290V360 9999 NCD 13/01 Q1013", "EKRS 291150Z AUTO 28013KT 220V340 9999 NCD 13/03 Q1015", "EKSB 291150Z AUTO 30014KT 270V330 9999 BKN044/// 13/05 Q1016", "EKSP 291150Z 29017KT 9999 FEW027 SCT048 12/04 Q1016", "EKVD 291150Z 29015KT 260V320 9999 SCT031 11/02 Q1016", "EKVG 291150Z AUTO 32015KT 9999 OVC031/// 02/M04 Q1023 RMK OVC030/// WIND SKEID 31016G29KT", "EKYT 291150Z AUTO 29023KT 9999 FEW240/// 09/M00 Q1014", "ELLX 291150Z 36005KT 310V030 9999 BKN020 10/06 Q1018 NOSIG", "ENAL 291150Z 27014KT 240V310 9999 FEW018 SCT033 BKN046 05/00 Q1012", "ENAN 291150Z 06004KT 9999 DZ BKN016 03/01 Q1008", "ENAT 291150Z 22005KT 170V290 9999 FEW042 BKN100 02/M06 Q1013 RMK WIND 700FT 16019KT", "ENBL 291150Z 26005KT 210V300 9999 -SHSN FEW012 SCT020 BKN040 02/M01 Q1013", "ENBN 291150Z 33009KT CAVOK 07/M04 Q1008", "ENBO 291150Z 29008KT 9999 FEW021 SCT030 06/00 Q1008 NOSIG", "ENBR 291150Z 30014KT 9999 FEW020TCU SCT033 BKN057 06/M01 Q1016 NOSIG RMK WIND 1200FT 31024KT", "ENBS 291150Z AUTO 12029KT 9999 SCT013/// BKN190/// 00/M03 Q1017", "ENBV 291150Z AUTO 12022KT 9999 BKN020/// 02/M03 Q1018", "ENCN 291150Z 30018G30KT 280V340 CAVOK 11/M05 Q1013", "ENDR 291150Z AUTO 32005KT 9999NDV FEW024/// SCT034/// 05/00 Q1010 W///S4", "ENDU 291150Z 11009KT 9999 FEW010 SCT030 BKN045 03/M03 Q1008 NOSIG RMK WIND 1100FT 08009KT WIND 2200FT 11019KT", "ENEV 291150Z 35004KT 9999 -RA SCT004 BKN010 02/01 Q1008 RMK WIND 1400FT 01004KT", "ENFB 291150Z AUTO 30023KT 9999NDV BKN056/// 04/M02 Q1017 W///S5", "ENFL 291150Z 30015KT 9999 SCT025TCU BKN045 05/M01 Q1015", "ENGC 291150Z 31024KT 9999 VCSH FEW015TCU SCT025 BKN034 03/M03 Q1016 W04/S4", "ENGM 291150Z 36013KT 9999 VCSH BKN042 06/M02 Q1005 TEMPO 4000 SHRASNGS SCT020CB BKN040", "ENHD 291150Z 34015KT 9999 FEW021 BKN051 06/01 Q1017", "ENHE 291150Z 24013KT 9999 FEW020 BKN045 04/M02 Q1008 W///S4", "ENHF 291150Z 10009KT 070V150 CAVOK 02/M05 Q1012 RMK WIND 1254FT 12019KT", "ENHK 291150Z AUTO 13014KT 9999 FEW157/// 04/M05 Q1011", "ENHM 291150Z AUTO 32021KT //// FEW037/// SCT052/// BKN072/// 04/03 Q1019 W08/S/", "ENHV 291150Z AUTO 13017KT 9999 FEW220/// 03/M04 Q1015", "ENJS 291150Z 32025KT 9999 FEW032 BKN050 07/M02 Q1019 W07/S/", "ENKB 291150Z 29010KT 9999 VCSH FEW015 SCT027 BKN048 06/M03 Q1010 RMK WIND 745FT 30013KT", "ENKR 291150Z 10022KT CAVOK 01/M05 Q1015 RMK WIND 731FT /////KT", "ENLA 291150Z AUTO 30013KT 9999NDV SCT032/// 11/00 Q1020 W///S4", "ENLE 291150Z 32012KT 9999 FEW035 07/M03 Q1021 W08/S4", "ENLK 291150Z 32007KT 270V330 9999 SCT025 SCT040 06/M00 Q1008", "ENMH 291150Z AUTO 13019G29KT 9999 NCD 02/M03 Q1017", "ENML 291150Z 26012KT 230V320 9999 -RAGS SCT029 BKN048 05/01 Q1011", "ENMS 291150Z 35006KT 300V030 9999 FEW050 08/M08 Q1008 RMK WIND 412FT VRB03KT", "ENNA 291150Z AUTO 14005KT 080V200 9999 FEW140/// 05/M06 Q1013 RMK WIND 1800FT 14016KT", "ENNE 291150Z 19014KT 9999 FEW030CB SCT050 04/M01 Q1007 W///S4", "ENNM 291150Z AUTO VRB01KT 9999 FEW127/// 08/M06 Q1008", "ENNO 291150Z 29024KT 9999 FEW045 10/M06 Q1009", "ENOA 291120Z 29019KT 9999 -SHRA FEW020CB BKN025 03/00 Q1016 W///S4", "ENOL 291150Z 30006KT 9999 VCSH FEW020TCU 06/M01 Q1009 TEMPO SCT014CB", "ENOV 291150Z 24009KT 210V280 1000 SHSN VV005 01/M01 Q1013 RMK WIND RWY24 24010KT WIND 2090FT 27017KT", "ENQA 291150Z AUTO 33020KT 9999NDV FEW019/// 04/M01 Q1016 W09/S4", "ENQC 291150Z AUTO 29021KT 9999NDV FEW039/// 08/00 Q1016 W///S4", "ENQR 291150Z AUTO 30021KT 9999NDV -SHRA BKN021/// 03/M01 Q1015 W08/S4", "ENRA 291150Z 32007KT 9999 SCT040 07/M04 Q1007", "ENRM 291150Z AUTO 23009KT 9999 NCD 07/M02 Q1008", "ENRO 291150Z AUTO 31014KT 9999 SCT029/// OVC046/// M01/M06 Q1005", "ENRS 291150Z AUTO 22010KT 9999 SCT025/// BKN035/// 06/01 Q1008", "ENRY 291150Z 28016KT CAVOK 11/M05 Q1006", "ENSB 291150Z 26006KT CAVOK M00/M04 Q1018 RMK WIND 1400FT 32004KT", "ENSD 291150Z 30010KT 270V330 9999 VCSH SCT027 BKN043 05/M01 Q1013 RMK WIND RWY26 VRB04KT WIND 1140FT 29010KT", "ENSE 291150Z AUTO 31027KT //// OVC027/// 03/M01 Q1015 W///S5", "ENSF 291150Z AUTO 31025G38KT 9999NDV FEW024/// BKN056/// ///// Q//// W///S5", "ENSG 291150Z 23017G27KT 9999 VCSH FEW036 SCT049 02/M03 Q1010 RMK WIND 3806FT 28033G43KT", "ENSH 291150Z 35006KT 320V030 9999 -DZRA FEW008 SCT015 BKN025 03/M00 Q1008 RMK WIND 0150FT 36010KT", "ENSK 291150Z 28009KT 9000 RADZ FEW008 SCT012 BKN015 02/01 Q1008", "ENSL 291150Z AUTO 30018KT 9999NDV SCT034/// 07/M02 Q1020 W05/S4", "ENSR 291150Z AUTO 13010KT 9999 SCT033/// BKN041/// OVC059/// 04/M02 Q1010 RMK WIND RWY32 13010KT WIND 1118FT 13018KT", "ENSS 291150Z AUTO 12027KT 7000 OVC016/// 01/M01 Q1018 RMK WIND 0500FT 11027G39KT", "ENST 291150Z 29004KT 260V330 9999 FEW040 08/M05 Q1008 RMK WIND 300FT 30006KT", "ENTC 291150Z 21007KT 9999 FEW020 SCT030 BKN080 04/M01 Q1008 NOSIG RMK WIND 2600FT 11008KT", "ENTO 291150Z 31016G26KT CAVOK 10/M05 Q1007 NOSIG", "ENUG 291150Z AUTO VRB14G28KT 9999NDV NCD 03/M05 Q1010 W///S4", "ENUN 291150Z AUTO 21012KT 9999NDV FEW044/// 05/00 Q1006 W06/S4", "ENVA 291150Z 27010KT 9999 -RASN SCT008 BKN018 OVC030 02/01 Q1009 TEMPO 4000 -RASN BKN008 RMK WIND 670FT 29012KT", "ENVD 291150Z 10028KT 9999 SCT016 01/M03 Q1016", "ENWV 291150Z AUTO 34012KT 9999NDV NCD 08/M02 Q1021 W///S3", "ENZV 291150Z 31021KT 9999 FEW033TCU 08/M01 Q1017", "EPBY 291130Z 14008KT 090V180 CAVOK 13/07 Q1012", "EPGD 291130Z 17010KT 9999 -SHRA SCT035TCU BKN045 12/05 Q1012", "EPKK 291130Z VRB02KT 9999 BKN043 14/07 Q1013", "EPKT 291130Z 23009KT 190V250 9999 BKN028 14/07 Q1013", "EPLB 291130Z 13012KT CAVOK 15/03 Q1016", "EPLL 291130Z 14008KT 100V190 9999 FEW032 BKN041 14/07 Q1013", "EPMO 291130Z 14011KT 090V180 CAVOK 18/03 Q1013", "EPPO 291130Z 22006KT 9999 SCT030 14/10 Q1011", "EPRA 291130Z 16009KT 130V220 CAVOK 16/05 Q1014", "EPRZ 291130Z 19009KT CAVOK 16/04 Q1014", "EPSC 291130Z 32007KT 3000 BR OVC003 09/09 Q1012", "EPSY 291130Z 17010KT 150V210 CAVOK 16/01 Q1014", "EPWA 291130Z 15011KT 110V180 CAVOK 17/04 Q1013 NOSIG", "EPWR 291130Z 26005KT 200V310 9999 SCT023TCU 16/10 Q1012", "EPZG 291130Z 26007KT 230V290 5000 -TSRA SCT010 BKN023CB OVC044 13/13 Q1011", "ESCF 291150Z 21014KT CAVOK 11/M02 Q1008", "ESCM 291150Z AUTO 16010KT 9999 OVC076/// 11/02 Q1007", "ESDF 291150Z 22009KT 180V260 CAVOK 14/03 Q1011", "ESGG 291150Z 25015G25KT 9999 SCT021 BKN029 08/02 Q1010", "ESGJ 291150Z AUTO 23018G29KT 9999 FEW042/// SCT160/// 10/03 Q1009", "ESGP 291150Z 27018KT 9999 FEW023 SCT036 10/02 Q1011", "ESGT 291150Z 26016G28KT 230V290 9999 FEW043 SCT057 10/M02 Q1009", "ESIA 291150Z 22011G22KT 9999 -RA BKN042 OVC058 09/02 Q1007", "ESIB 291150Z AUTO 26022KT 9999 SCT044/// 10/01 Q1008", "ESKM 291150Z AUTO 11005KT 090V160 9999 RA SCT008/// BKN011/// OVC015/// 03/02 Q1006", "ESKN 291150Z 16012KT 9999 -SHRA BKN049 FEW056CB 08/00 Q1009", "ESKS 291150Z AUTO VRB02KT 3700 -RASN OVC004/// 01/M00 Q1003", "ESMK 291150Z AUTO 29009KT 240V330 9999 NCD 15/M03 Q1012", "ESMQ 291150Z AUTO 17011KT 9999 NCD 11/04 Q1011", "ESMS 291150Z 31012KT CAVOK 13/01 Q1013", "ESMT 291150Z AUTO 27012KT 9999 FEW023/// BKN035/// OVC046/// 09/05 Q1013", "ESMX 291150Z AUTO 23012KT 200V270 9999 BKN096/// 14/M03 Q1010", "ESND 291150Z AUTO 08005KT 3900 -RASN VV017 02/M00 Q1006", "ESNG 291150Z AUTO 08006KT 1600 -SN SCT006/// OVC017/// ///// Q1004", "ESNK 291150Z AUTO 26007KT 180V310 9999 SCT068/// BKN120/// BKN150/// ///// Q1007", "ESNL 291150Z AUTO 29008KT 9999 FEW059/// SCT076/// 08/M06 Q1005", "ESNN 291150Z AUTO 13010KT 9999 SCT059/// BKN098/// 06/M03 Q1008", "ESNO 291150Z AUTO 18010KT 9999 BKN062/// 07/M02 Q1006", "ESNQ 291150Z AUTO 05005KT 2400 -SN FEW007/// SCT016/// OVC044/// M01/M02 Q1004", "ESNS 291150Z 30004KT 250V340 9999 VCSH FEW026 SCT051 BKN072 05/M00 Q1006", "ESNU 291150Z 19009KT 9999 VCSH NSC 06/01 Q1007", "ESNV 291150Z AUTO 28005KT 230V340 9999 NCD 05/M07 Q1005", "ESNX 291150Z AUTO 29010KT 9999 BKN018/// BKN066/// OVC086/// 02/M02 Q1004 RESHRA", "ESNZ 291150Z AUTO 28005KT 9999 FEW033/// 03/M03 Q1006", "ESOE 291150Z AUTO 21017KT 9999 FEW049/// SCT059/// 09/M01 Q1007 REUP", "ESOH 291150Z AUTO 18003KT 140V230 9999 BKN006/// BKN016/// OVC021/// 03/02 Q1005 RERASN", "ESOK 291150Z AUTO 23010KT 200V260 9999 FEW019/// SCT022/// BKN036/// 07/03 Q1005", "ESOW 291150Z AUTO 20017KT 170V240 9999 BKN082/// 10/M05 Q1008", "ESPA 291150Z 20008KT CAVOK 04/01 Q1005", "ESPE 291150Z AUTO 30003KT 250V030 9999 -SHRA FEW015/// SCT046/// BKN064/// 03/01 Q1004", "ESSA 291150Z 19016KT CAVOK 10/M03 Q1008 NOSIG", "ESSB 291150Z 18010KT 140V220 CAVOK 09/M07 Q1009", "ESSD 291150Z AUTO 19006KT 130V240 9999 -DZ FEW016/// SCT033/// BKN041/// 06/00 Q1006 RERA", "ESSL 291150Z AUTO 22012KT 170V250 9999 OVC072/// 11/M04 Q1008", "ESSP 291150Z 22010KT 9999 VCSH SCT040CB BKN060 11/M03 Q1008", "ESST 291150Z AUTO VRB03KT 9999 BKN006/// BKN018/// OVC062/// 04/02 Q1005 RESHUP RERA", "ESSV 291150Z 16015KT CAVOK 11/M00 Q1011", "ESTA 291150Z 29016KT CAVOK 11/04 Q1013", "ESTL 291150Z AUTO 28016KT 9999 NCD 14/01 Q1013", "ESUP 291150Z AUTO 07007KT 010V110 2000 -SN FEW005/// SCT010/// BKN016/// ///// Q1005", "ESUT 291150Z AUTO 32009KT 290V010 9999 BKN036/// 02/M05 Q1006", "ETAD 291155Z AUTO 01009KT 9999 OVC018 10/06 A3006 RMK AO2 SLP174 70016 T01010061 10108 20092 52010", "ETAR 291155Z AUTO 33005KT 9999 OVC027 12/07 A3006 RMK AO2 SLP185 T01190066 10120 20102 50007 $", "ETEB 291155Z AUTO 30008KT 9999 FEW025 SCT049 SCT140 14/08 A2999 RMK AO2 SLP171 70020 T01370079 10137 20107 52005 $", "ETGG 291120Z AUTO 30020KT 9999 // ////// 13/05 Q1016 ///", "ETHA 291120Z AUTO 28016KT 9999 // ////// 16/07 Q1015 ///", "ETHB 291120Z AUTO 35008KT 9999 // ////// 13/06 Q1017 ///", "ETHC 291120Z AUTO 32010KT 7000 // ////// 14/05 Q1016 ///", "ETHF 291120Z 30007KT 9999 SCT016 BKN035 11/08 Q1017 BLU", "ETHL 291120Z 30010KT 9999 FEW040 SCT270 17/07 Q1015 BLU+", "ETHN 291120Z 30007KT 9999 SCT024 BKN042 12/08 Q1016 BLU", "ETHS 291120Z AUTO 35011KT 7000 // ////// 14/04 Q1016 ///", "ETIC 291156Z AUTO 32011KT 9999 FEW016 BKN026 OVC032 12/09 A2996 RMK AO2 DZE55 SLP150 $", "ETIH 291155Z AUTO 29004KT 9999 FEW027 SCT037 BKN046 OVC060 14/08 A2998 RMK AO2 SLP156 70006 T01400075 10154 20113 50006 $", "ETIK 291155Z AUTO 33008KT 9999 FEW030 BKN040 OVC048 14/09 A3001 RMK AO2 SLP166 70002 T01350090 10141 20115 52006 FZRANO $", "ETMN 291120Z 34014KT 9999 FEW025 11/01 Q1018 BLU+", "ETNH 291120Z AUTO 30013KT 9999 // ////// 14/02 Q1016 ///", "ETNL 291120Z 33013KT 9999 FEW035 13/04 Q1015 BLU+", "ETNN 291120Z 31005KT 9999 BKN018 10/07 Q1019 WHT", "ETNS 291120Z AUTO 30015KT 8000 // ////// 13/03 Q1017 ///", "ETNT 291120Z AUTO 34009KT //// // ////// 11/02 Q1019 ///", "ETNW 291120Z 34008KT 9999 FEW030 BKN044 14/07 Q1017 BLU", "ETOU 291155Z AUTO 30006KT 9999 FEW026 OVC043 15/02 A3005 RMK AO2 SLP179 70006 T01460015 10146 20113 50004 $", "ETSB 291120Z AUTO 01007KT //// // ////// 09/05 Q1018 ///", "ETSH 291120Z 31009KT 5000 -DZ BR SCT005 BKN007 10/09 Q1014 GRN", "ETSI 291120Z AUTO 33013KT 8000 // ////// 16/09 Q1015 ///", "ETSL 291120Z 31010KT 9999 SCT030 16/08 Q1015 BLU+", "ETSN 291120Z 28011KT 9999 FEW030 BKN055 16/08 Q1015 BLU", "ETWM 291120Z AUTO 35007KT //// // ////// 14/06 Q1019 ///", "EVGA 291150Z 18010KT CAVOK 11/M02 Q1017 NOSIG", "EVLA 291150Z AUTO VRB07KT CAVOK 14/M02 Q1013", "EVRA 291150Z 17010KT 140V200 CAVOK 12/M02 Q1016 NOSIG", "EVVA 291150Z AUTO 18010KT 150V210 CAVOK 13/M02 Q1014", "EYKA 291150Z 17008KT 120V250 CAVOK 15/00 Q1016", "EYPA 291150Z 18013KT CAVOK 15/00 Q1014", "EYSA 291150Z 22010KT CAVOK 15/M01 Q1015 NOSIG", "EYVI 291150Z 19007KT 120V230 CAVOK 13/M03 Q1017 NOSIG", "FABL 291100Z 34004KT 9999 FEW025 24/11 Q1023 NOSIG", "FACT 291100Z 17009KT 9999 FEW025 BKN040 20/12 Q1024 NOSIG", "FAEL 291100Z 20011KT 9999 FEW045 23/13 Q1019", "FAGG 291100Z 26013KT 9999 FEW032 SCT046 19/11 Q1022", "FAHS 291100Z AUTO 34006KT //// // ////// 33/19 Q1016", "FAJB 291100Z AUTO 31002KT //// // ////// 26/10 Q1023", "FAKM 291100Z 17003KT CAVOK 26/10 Q1021", "FAKN 291100Z 03006KT 9999 FEW025 29/18 Q1018 NOSIG", "FALA 291100Z 32006KT 210V020 9999 FEW040 27/13 Q1023 NOSIG", "FALE 291100Z 16015KT 9999 SCT022 BKN035 BKN049 25/20 Q1015 NOSIG", "FALW 291100Z AUTO 19006KT //// // ////// 21/13 Q1022", "FAMM 291100Z 32006KT 9999 FEW030 SCT080 30/11 Q1022 NOSIG", "FAOR 291200Z 27007KT 230V330 CAVOK 26/09 Q1023 NOSIG", "FAPE 291100Z 25021KT 9999 SCT030 22/12 Q1020 NOSIG", "FAPN 291100Z AUTO 34003KT //// // ////// 30/13 Q1020", "FAPP 291100Z 35005KT 9999 FEW030 29/12 Q1023 NOSIG", "FAUP 291100Z 20005KT CAVOK 26/M04 Q1021 NOSIG", "FAUT 291100Z 08002KT 9999 SCT020 21/14 Q1020", "FAVV 291100Z AUTO 29003KT //// // ////// 27/10 Q1024", "FBKE 291100Z VRB05G16KT CAVOK 31/09 Q1020", "FBMN 291100Z 01005KT CAVOK 32/12 Q1019", "FBPM 291100Z 14007KT 060V180 CAVOK 31/10 Q1020", "FBSK 291100Z VRB03KT 9999 FEW030 31/13 Q1020 NOSIG", "FCBB 291100Z 21003KT 170V280 9999 FEW016 BKN021 29/22 Q1015 NOSIG", "FCOD 291100Z 31004KT 9999 BKN016 29/25 Q1014", "FDBB 291100Z AUTO 00000KT //// // ////// 33/20 Q1011", "FDMS 291100Z 19010KT 9999 FEW045TCU 30/19 Q1015 NOSIG", "FDMY 291100Z AUTO 00000KT //// // ////// 31/19 Q1024", "FDPP 291100Z AUTO 07006KT //// // ////// ///// Q1022", "FDSK 291200Z 06006KT 010V110 9999 FEW035TCU 31/18 Q1014 NOSIG", "FDST 291100Z AUTO 14003KT //// // ////// 28/17 Q1014", "FEFF 291100Z 22006KT 9999 TS BKN010 FEW033CB 26/22 Q1013 BECMG NSW SCT010 FEW033CB", "FGSL 291100Z 08004KT 040V100 9999 SCT008 FEW016CB BKN060 29/27 Q1015 NOSIG", "FHAW 291150Z 15013KT 9999 SCT019 29/22 Q1016 BECMG FEW019 RMK WHT BECMG BLU", "FIMP 291200Z 16006KT 9999 FEW018 28/21 Q1012", "FJDG 291155Z 14012KT 9999 FEW022 SCT080 SCT250 30/25 A2972 RMK SLP061 8/132 T03000250 10321 20300 56010", "FKKD 291100Z 16005KT 110V220 9999 BKN016 FEW020CB 25/21 Q1015 NOSIG", "FKKL 291100Z VRB08KT CAVOK 41/15 Q1010", "FKKN 291100Z 20006KT 9999 BKN016 27/20 Q1018", "FKKR 291100Z 27016KT CAVOK 37/20 Q1009 NOSIG", "FKYS 291100Z 18009KT 150V210 9999 BKN011 25/22 Q1019 BECMG BKN016", "FMCZ 291130Z AUTO 16011KT CAVOK 33/25 Q1010 NOSIG", "FMEE 291130Z AUTO 10012KT 9999 OVC058 28/20 Q1011 NOSIG", "FMEP 291130Z AUTO 14017KT CAVOK 28/21 Q1012 NOSIG", "FMMI 291200Z 11005KT 050V150 9999 SCT020 25/12 Q1018 NOSIG", "FMMT 291100Z 20012KT 170V260 9999 VCSH SCT017TCU SCT033 28/22 Q1013 NOSIG", "FMNA 291100Z 14006KT 9999 FEW020 32/19 Q1009", "FMNM 291100Z 23007KT 190V280 9999 FEW040 34/19 Q1010 NOSIG", "FMNN 291100Z 03006KT 9999 FEW020 31/// Q1009", "FMSD 291100Z 10014KT 9999 FEW023 SCT050 27/18 Q1015", "FNCA 291100Z AUTO 26008KT 230V300 9999 FEW031 31/23 Q1012", "FNCT 291100Z AUTO 30006KT 270V330 //// ////// ///// Q////", "FNGI 291100Z 36004KT CAVOK 32/10 Q1020", "FNHU 291100Z AUTO 13011KT CAVOK 26/09 Q1023", "FNLU 291100Z 29010KT 9999 BKN020 FEW023CB 30/25 Q1012", "FNUB 291100Z AUTO 07010KT 010V110 CAVOK 26/06 Q1025", "FNUE 291100Z AUTO VRB09KT 9999 NCD 27/09 Q1023", "FOGM 291100Z 00000KT 9999 SCT015 BKN040 30/24 Q////", "FOGO 291100Z /////KT 9999 SCT010 BKN030 25/22 Q////", "FOGR 291100Z /////KT 9999 SCT010 BKN027 27/24 Q////", "FOOG 291130Z 26004KT 200V330 9999 SCT012 BKN033 30/25 Q1013", "FOOL 291100Z 07004KT 9999 SCT010 30/24 Q1013 NOSIG", "FOON 291100Z /////KT 9999 SCT010 29/24 Q1014", "FQBR 291100Z /////KT 9999 FEW018 28/21 Q1014", "FQCH 291200Z /////KT 9999 FEW020 27/16 Q1019", "FQIN 291200Z 07010KT 9999 FEW020 29/19 Q1015", "FQLC 291100Z 15005KT 9999 BKN015 24/16 Q1019", "FQMA 291200Z 34007KT 9999 FEW025 33/19 Q1011 NOSIG", "FQNC 291200Z /////KT 9999 SCT020 28/// Q1012", "FQNP 291100Z 19006KT 130V280 9999 SCT020 28/17 Q1015", "FQQL 291100Z 27006KT 230V310 9999 SCT020 30/21 Q1015", "FQTT 291100Z 13005KT 9999 BKN020 31/19 Q1015", "FQVL 291200Z 04005KT 9999 FEW020 29/17 Q1014", "FQXA 291200Z 35009KT 310V030 9999 FEW020 30/19 Q1014", "FSIA 291100Z 12009KT 090V150 9999 FEW017CB SCT021 31/27 Q1007 NOSIG", "FTTA 291100Z 22006KT CAVOK 33/19 Q1012", "FTTJ 291100Z 14008KT 6000 NSC 38/17 Q1008 NOSIG", "FTTY 291100Z 04021KT 5000 BLSA NSC 37/06 Q1013", "FVJN 291100Z VRB06KT CAVOK 28/08 Q1023 NOSIG", "FVRG 291100Z 31004KT CAVOK 24/04 Q1023 NOSIG", "FWCL 291100Z 27010KT 9999 SCT025 26/16 Q1018 NOSIG", "FWKI 291100Z 23006KT 9999 BKN030 26/14 Q1020 NOSIG", "FYGF 291100Z 03008KT 9999 FEW040 31/08 Q1023", "FYKT 291100Z 07004KT CAVOK 26/02 Q1022", "FYWE 291100Z 30004KT 200V010 9999 FEW050TCU 28/07 Q1026", "FYWH 291100Z 36003KT 9999 FEW045 29/10 Q1025 NOSIG", "FYWW 291100Z 03003KT 9999 FEW045 28/09 Q1025", "FZAA 291100Z 24004KT 8000 SCT018 28/22 Q1015 NOSIG", "GABS 291130Z 23011KT 200V270 CAVOK 36/18 Q1013 NOSIG", "GAKD 291100Z 32010KT CAVOK 36/17 Q1013", "GBYD 291100Z 35005KT CAVOK 28/19 Q1014", "GCFV 291130Z 04011KT 9999 FEW012 22/18 Q1019", "GCGM 291130Z 22006KT 170V260 CAVOK 24/16 Q1020 RMK R09/23004KT 130V300 ARP/24004KT 170V290", "GCHI 291130Z 35014KT CAVOK 24/17 Q1020", "GCLA 291130Z 02009KT 350V050 CAVOK 24/18 Q1021", "GCLP 291130Z 02016KT 350V050 CAVOK 28/07 Q1019 NOSIG", "GCRR 291130Z 06016KT 9999 FEW025 26/13 Q1019", "GCTS 291130Z 08020KT CAVOK 27/06 Q1019 NOSIG", "GCXO 291130Z 11009KT 080V170 CAVOK 22/04 Q1022 NOSIG", "GECE 291130Z AUTO 31013KT 280V340 CAVOK 22/15 Q1018", "GEML 291130Z 29012G22KT 250V330 9999 FEW020 28/06 Q1016", "GGOV 291100Z 22007KT 170V270 8000 NSC 29/22 Q1014 NOSIG", "GLRB 291130Z 23011KT 9999 BKN020 32/25 Q1014 NOSIG", "GMAD 291130Z 26007KT 220V300 CAVOK 28/17 Q1016 NOSIG", "GMAG 291100Z 24005KT 210V300 8000 NSC 24/17 Q1017 NOSIG", "GMAT 291100Z 03012KT CAVOK 23/15 Q1018 NOSIG", "GMFB 291100Z 24004KT CAVOK 34/M01 Q1023 NOSIG", "GMFF 291130Z 32008KT 280V360 9999 FEW033 SCT200 27/04 Q1022 NOSIG", "GMFK 291100Z 20010KT 170V230 CAVOK 32/M12 Q1023 NOSIG", "GMFM 291100Z 31006KT 250V350 9999 SCT020 SCT100 28/07 Q1022 NOSIG", "GMFO 291130Z 35018KT 9999 SCT026 SCT100 BKN200 29/01 Q1018 NOSIG", "GMMB 291100Z VRB05KT CAVOK 28/M00 Q1020 NOSIG", "GMMC 291100Z 02006KT 8000 NSC 25/15 Q1020", "GMMD 291100Z 16005KT 9999 SCT100 27/08 Q1020 NOSIG", "GMME 291130Z 33007KT 260V050 5000 SCT020 SCT200 24/15 Q1020 NOSIG", "GMMH 291100Z 31015KT 250V320 8000 NSC 23/17 Q1016 NOSIG", "GMMI 291100Z 05013KT 020V090 8000 NSC 31/05 Q1018 NOSIG", "GMML 291100Z 04016KT CAVOK 27/15 Q1017 NOSIG", "GMMN 291130Z 02007KT 340V100 CAVOK 28/13 Q1020 NOSIG", "GMMW 291100Z 26006KT 220V300 8000 FEW029 BKN098 29/06 Q1017 NOSIG", "GMMX 291130Z VRB04KT CAVOK 28/14 Q1020 NOSIG", "GMMZ 291100Z 07004KT 360V100 9999 FEW040 31/00 Q1022 NOSIG", "GMTA 291100Z 26006KT 220V320 31/11 Q1017", "GMTN 291100Z 29008KT 240V330 CAVOK 29/16 Q1018 NOSIG", "GMTT 291130Z 22009KT 180V260 9999 FEW016 24/20 Q1019 NOSIG", "GOBD 291130Z 36009KT 330V030 CAVOK 30/18 Q1014 NOSIG", "GOGG 291100Z 32004KT CAVOK 30/23 Q1015", "GOGK 291100Z 28006KT CAVOK 33/20 Q1011", "GOGS 291100Z 28006KT 9999 BKN010 26/22 Q1015", "GOOD 291100Z 08002KT CAVOK 32/19 Q1013", "GOOG 291100Z 04002KT CAVOK 36/16 Q1010", "GOOY 291100Z 34006KT 9999 FEW010 25/20 Q1014", "GOSM 291100Z 00000KT CAVOK 39/09 Q1011", "GOSP 291100Z 36002KT CAVOK 39/19 Q1011", "GOSS 291100Z 36006KT 270V050 CAVOK 31/20 Q1013", "GOTT 291130Z 24010KT CAVOK 36/19 Q1012", "GQNO 291130Z 03014KT 6000 NSC 37/12 Q1012 NOSIG", "GQPP 291200Z 03011KT 8000 NSC 30/13 Q1014 NOSIG", "GUCY 291100Z 30008KT 9999 BKN015 31/23 Q1015 NOSIG", "GVAC 291200Z 01017KT 9999 FEW013 26/19 Q1016 NOSIG", "GVBA 291200Z 01012KT 9999 FEW014 25/20 Q1016 NOSIG", "GVNP 291200Z 01010KT 9999 FEW018 28/18 Q1016 NOSIG", "GVSV 291200Z 05017KT 9999 FEW024 27/18 Q1016 NOSIG", "HAAB 291100Z 16004KT 6000 TSRA BKN025 17/15 Q1023", "HABD 291100Z 05008KT 9999 FEW024 SCT025 28/09 Q1019 NOSIG", "HBBA 291100Z 17008KT 9999 FEW020 FEW025CB BKN100 26/21 Q1015", "HCMF 291100Z 02009KT 9999 FEW036 31/27 Q1004", "HEAT 291100Z 01015KT CAVOK 23/06 Q1016 NOSIG", "HEAX 291100Z 29012KT 9999 SCT020 22/07 Q1015 NOSIG", "HEBA 291100Z 31013KT 9999 SCT020 21/10 Q1015 NOSIG", "HEBL 291100Z 08006KT CAVOK 30/06 Q1011 NOSIG", "HECA 291130Z 29013KT 9999 SCT025 23/05 Q1013 NOSIG", "HECP 291100Z 28014KT 9999 SCT025 22/05 Q1013 NOSIG", "HEGN 291100Z 01017KT CAVOK 26/05 Q1011 NOSIG", "HEIS 291100Z 24012KT 9999 SCT025 23/11 Q1013", "HELX 291100Z 35008KT CAVOK 28/04 Q1012 NOSIG", "HEMA 291100Z 01015KT CAVOK 25/12 Q1010 NOSIG", "HEMM 291100Z 29013KT 9999 SCT020 21/09 Q1016 NOSIG", "HEPS 291100Z 27009KT 9999 SCT020 21/08 Q1013 NOSIG", "HESH 291100Z 04013KT CAVOK 25/10 Q1011 NOSIG", "HESN 291100Z 02006KT CAVOK 30/03 Q1011 NOSIG", "HESW 291100Z 28005KT CAVOK 22/04 Q1017", "HESX 291100Z 33009KT 9999 SCT030 22/05 Q1013 NOSIG", "HETR 291100Z 30021KT CAVOK 24/09 Q1011", "HKEL 291100Z 30010KT 9999 FEW020CB BKN021 20/15 Q1022", "HKGA 291100Z 18004KT 9999 BKN027 32/22 Q1009", "HKJK 291130Z 21006KT 9999 FEW023CB BKN023 BKN080 22/15 Q1019 NOSIG", "HKKT 291100Z 35003KT 9999 FEW021CB BKN022 23/17", "HKLO 291100Z 26009KT 9999 TSHRA FEW026CB SCT028 OVC090 27/23 Q1011", "HKLU 291100Z 00000KT 9999 FEW025CC BKN026 29/22 Q1010", "HKME 291100Z 05003KT 9999 FEW009 BKN019 21/18", "HKML 291100Z 22011KT 9999 SCT017 BKN80 27/24 Q1010", "HKMO 291100Z 22007KT 9999 SCT022 BKN080 25/23 Q1010 NOSIG", "HKNI 291100Z 13008KT 9999 FEW024CB BKN025 24/17", "HKNK 291100Z 12010KT 9999 FEW025CB SCT026 24/13", "HKNW 291100Z 17006KT 9999 BKN024 BKN080 21/15 Q1021", "HKWJ 291100Z 17006KT 9999 BKN033TCU 30/23 Q1008", "HRYR 291130Z 28010KT 9999 FEW023CB BKN025 22/16 Q1020 BECMG TSRA", "HRZA 291100Z 09007KT 9999 -TSRA FEW023CB BKN025 19/18 Q1021 NOSIG", "HTAR 291100Z 12005KT 9999 BKN026 21/16 Q1020 NOSIG", "HTBU 291100Z 27010KT 9999 FEW018 FEW020CB BKN090 24/18 Q1016 NOSIG", "HTDA 291100Z 19010KT 9999 FEW025 BKN027 FEW029CB 29/24 Q1012 NOSIG", "HTDO 291100Z 07010KT 9999 SCT027 FEW028CB 27/16 Q1016 NOSIG", "HTIB 291100Z 16005KT 9999 SCT023 FEW024CB SCT100 27/17 Q1015", "HTIR 291100Z 15007KT 9999 BKN030 FEW032CB 23/15 Q1019", "HTKA 291100Z 30009KT 9999 SCT022 FEW023CB SCT100 26/21 Q1014 NOSIG", "HTKJ 291100Z 00000KT 9999 BKN028 25/20 Q1016 NOSIG", "HTMG 291100Z 00000KT 9999 BKN024 26/21 Q1013", "HTMP 291100Z 16004KT 9999 SCT026 28/18 Q1018", "HTMT 291100Z 20012KT 9999 -RA SCT020 FEW021CB BKN070 24/23 Q1013 NOSIG", "HTMU 291100Z 34010KT 9999 SCT020 FEW022CB BKN080 24/20 Q1017", "HTMW 291100Z 21005KT 9999 SCT024 FEW025CB 26/18 Q1017 NOSIG", "HTSO 291100Z VRB02KT 9999 SCT022 FEW023CB BKN080 25/17 Q1019", "HTSU 291100Z 09006KT 9999 SCT023 FEW024CB 24/14 Q1023", "HTTB 291100Z 12010KT 9999 SCT024 FEW025CB 27/16 Q1018 NOSIG", "HTZA 291100Z 20007KT 9999 BKN018 FEW020CB BKN080 28/24 Q1011 NOSIG", "HUEN 291130Z 24015KT 9999 FEW024 FEW026CB 26/18 Q1016", "K04V 291155Z AUTO 32015KT 10SM CLR 03/M08 A3032 RMK AO2", "K04W 291059Z AUTO 00000KT 10SM BKN009 OVC013 03/02 A2981 RMK AO2", "K05U 291150Z AUTO VRB06KT 10SM 04/M03 A3026 RMK A01", "K06C 291155Z AUTO 00000KT 10SM CLR 07/03 A2970 RMK AO2 T00710031 10071 20042", "K06D 291155Z AUTO 36008G13KT 10SM -UP SCT028 BKN037 OVC065 04/02 A2989 RMK AO2", "K08D 291155Z AUTO 32015G21KT 10SM CLR 04/02 A2998 RMK AO2", "K0A0 291155Z AUTO 00000KT 10SM CLR 02/M06 A3026 RMK AO2", "K0A9 291155Z AUTO 00000KT 6SM BR BKN034 BKN041 OVC048 14/14 A2985 RMK AO2", "K0CO 291155Z AUTO 33023G35KT CLR M08/M12 A3036 RMK AO2 PWINO", "K0E0 291155Z AUTO 00000KT 10SM CLR M05/M05 A3029 RMK AO2 T10481049 11019 21072", "K0F2 291155Z AUTO 10SM CLR 08/06 A3000 RMK AO2 70006 T00770056 10100 20077", "K0J4 291158Z AUTO 00000KT M1/4SM FG VV001 18/16 A2982 RMK AO2 SLP096 60000 T01780161 10183 20156 58003 ", "K0R0 291155Z AUTO 08003KT 9SM CLR 13/13 A2976 RMK AO2", "K0S9 291055Z AUTO 00000KT 10SM FEW041 FEW048 06/06 A2991 RMK AO2", "K0V4 291155Z AUTO 16007KT 5SM OVC004 12/12 A2985 RMK AO1", "K0VG 291155Z AUTO 00000KT M1/4SM FG OVC001 09/09 A2988 RMK AO2", "K10G 291155Z AUTO 23005KT 2SM -DZ BKN004 OVC007 11/10 A2973 RMK AO2 P0001", "K12N 291154Z AUTO VRB03KT 10/08 A2990 RMK AO1 SLP128 P0009 60053 70088 T01000078 10100 20089 53005", "K13K 291155Z AUTO 31008KT 10SM CLR 06/04 A2998 RMK AO2 T00550044 10100 20052 70076", "K14Y 291155Z AUTO 35003KT 10SM BKN006 BKN065 00/00 A2984 RMK AO2", "K15M 291155Z AUTO 00000KT 8SM BKN140 OVC160 11/11 A2979 RMK AO2 PRESFR T01090109 $", "K17J 291155Z AUTO 36003KT 1/4SM FG OVC003 18/17 A2982 RMK AO2 T01810173 10191 20178", "K18A 291135Z AUTO 00000KT 7SM CLR 12/11 A2990 RMK AO2 T01160112", "K18H 291155Z AUTO 34041G46KT 5SM HZ FEW006 SCT027 BKN048 23/18 A2978 RMK A01 P0001", "K19S 291135Z AUTO 28011KT 10SM CLR 02/01 A3011 RMK AO2 P0001 T00180015", "K1A5 291150Z AUTO 00000KT M1/4SM FG OVC001 10/10 A2991 RMK AO2 T01020100 10112 20090", "K1A6 291155Z AUTO 00000KT 3/4SM BR OVC003 09/09 A2988 RMK AO2 70036 T00860086 10109 20073", "K1A9 291155Z AUTO 00000KT 10SM CLR A2984 RMK AO2", "K1AM 291155Z AUTO 06005KT 10SM CLR 05/M01 A3011 RMK AO2 SLP199 T00501008 10080 20049 53002 $", "K1BM 291155Z AUTO 00000KT 10SM CLR 08/M01 A3012 RMK AO2 SLP198 T00751012 10078 20043 53002 $", "K1BN 291155Z AUTO 26014KT 10SM CLR 04/M00 A2988 RMK AO2 SLP133 60000 T00401002 10063 20031 50001 $", "K1BW 291155Z AUTO 26013KT 10SM OVC085 06/M02 A3014 RMK AO2 SLP190 T00591017 10059 20008 56006 $", "K1CM 291155Z AUTO 35003KT 10SM CLR 05/M00 A3011 RMK AO2 SLP199 T00531005 10093 20032 55002 $", "K1CN 291155Z AUTO 28009KT 10SM CLR 00/M01 A2989 RMK AO2 SLP140 T00001013 10051 20000 53002 $", "K1CW 291155Z AUTO 00000KT 10SM OVC090 06/M01 A3009 RMK AO2 SLP174 T00571010 10078 20033 57010 $", "K1DM 291155Z AUTO 15007KT 10SM CLR 03/00 A3012 RMK AO2 SLP210 T00310000 10113 20030 53002 $", "K1DN 291155Z AUTO 31007KT 10SM CLR 01/M01 A2832 RMK AO2 SLP600 T00081011 10051 21006 53001 $", "K1EM 291155Z AUTO 10008KT 10SM CLR 06/00 A3012 RMK AO2 SLP204 T00550001 10115 20051 53004 $", "K1EN 291155Z AUTO 32008KT 10SM FEW085 01/M01 A2969 RMK AO2 SLP076 T00131006 10043 21010 51009 $", "K1EW 291155Z AUTO 11010KT 10SM OVC085 06/M01 A3010 RMK AO2 SLP176 T00631011 10064 20011 55005 $", "K1F0 291155Z AUTO 33009G15KT 300V360 10SM OVC029 10/07 A2997 RMK AO2 T01000066 10112 20099", "K1FW 291155Z AUTO 30010KT 10SM OVC090 07/M02 A3007 RMK AO2 SLP162 T00731024 10073 20012 57008 $", "K1GM 291155Z AUTO 25007KT 10SM CLR 07/M01 M RMK AO2 SLPNO T00651009 10109 20065 $", "K1GN 291155Z AUTO 33012KT 10SM CLR 01/01 A2992 RMK AO2 SLP156 T00140010 10048 21007 52012 $", "K1H2 291155Z AUTO 00000KT 7SM CLR 08/08 A2976 RMK AO2 T00800076 10110 20070", "K1HM 291155Z AUTO 25004KT 10SM CLR 01/M01 A3008 RMK AO2 SLP195 T00141010 10098 20011 51004 $", "K1HN 291155Z AUTO 33011KT 10SM BKN090 05/01 A2994 RMK AO2 SLP153 T00490014 10050 21015 51011 $", "K1HW 291155Z AUTO 28011KT 10SM OVC090 07/M01 A3003 RMK AO2 SLP159 T00721010 10072 20000 57010 $", "K1IM 291155Z AUTO 00000KT 10SM CLR 06/01 A3007 RMK AO2 SLP186 T00550005 10099 20041 51005 $", "K1IN 291155Z AUTO 33013KT 10SM CLR 03/01 A2995 RMK AO2 SLP159 T00330005 10040 20000 52014 $", "K1IW 291155Z AUTO 28010KT 10SM OVC090 06/M01 A3005 RMK AO2 SLP168 T00641015 10064 20004 58007 $", "K1JM 291155Z AUTO 03007KT 10SM CLR 05/M00 A3008 RMK AO2 SLP188 T00451003 10099 20018 53002 $", "K1JN 291155Z AUTO 33013G20KT 10SM CLR 04/02 A2993 RMK AO2 SLP151 T00390023 10043 20011 50013 $", "K1JW 291155Z AUTO 27008KT 10SM OVC090 08/M03 M RMK AO2 SLPNO T00751034 10077 20027 $", "K1KM 291155Z AUTO 28011KT 10SM CLR 04/M02 A3012 RMK AO2 SLP201 T00431017 10087 20018 50002 $", "K1LN 291155Z AUTO 33012KT 10SM CLR 02/02 A2998 RMK AO2 SLP166 T00190018 10039 20006 52018 $", "K1LW 291155Z AUTO 28010KT 10SM OVC090 06/M02 A3010 RMK AO2 SLP181 T00641020 10064 20046 57006 $", "K1M4 291156Z AUTO 00000KT 6SM BR CLR 10/10 A2982 RMK AO2 SLP089 T01000100 10100 20078 58013", "K1MM 291155Z AUTO 20004KT 10SM FEW140 01/M01 A3011 RMK AO2 SLP208 T00141012 10056 20012 53001 $", "K1MW 291155Z AUTO 27006KT 10SM OVC095 03/M02 A3010 RMK AO2 SLP186 T00301016 10062 20012 58005 $", "K1NW 291155Z AUTO 28003KT 10SM OVC100 06/M02 A3011 RMK AO2 SLP180 T00551017 10060 20028 58006 $", "K1OM 291155Z AUTO 12006KT 10SM CLR 07/M02 A3011 RMK AO2 SLP199 T00731024 10121 20068 52006 $", "K1ON 291155Z AUTO 34013KT 10SM FEW047 03/M00 M RMK AO2 SLPNO 60000 T00261002 10042 20026 $", "K1OW 291155Z AUTO 31009KT 10SM OVC090 06/M01 A3024 RMK AO2 SLP223 T00561013 10056 20009 58006 $", "K1P1 291155Z AUTO 07003KT 10SM CLR 06/03 A3012 RMK AO2 T00610028 10061 20030", "K1R7 291155Z AUTO 12004KT 10SM CLR 17/17 A2971 RMK AO2 PWINO", "K1R8 291155Z AUTO 00000KT M1/4SM FG OVC002 18/18 A2978 RMK AO2", "K1S5 291155Z AUTO 00000KT 10SM CLR 08/05 A3000 RMK AO2 T00770051 10125 20072", "K1U7 291155Z AUTO 00000KT 10SM CLR M06/M06 A3030 RMK A01", "K1V4 291154Z AUTO 07/02 A3006 RMK AO1 SLP180 T00720017 10072 20033 50000", "K1V6 291155Z AUTO 27012G15KT 10SM CLR 08/M03 A3019 RMK AO2", "K1YT 291155Z AUTO 11004KT 10SM CLR 09/01 A2997 RMK AO2 SLP149 T00940011 10139 20091 55001 $", "K20U 291155Z AUTO 32009KT 10SM CLR 04/M02 A3004 RMK AO2", "K20V 291155Z AUTO 00000KT 10SM CLR M05/M06 A3036 RMK AO2", "K21D 291155Z AUTO 34006KT 10SM OVC004 02/02 A2981 RMK AO2", "K22N 291155Z AUTO 05003KT 3SM RA OVC008 08/07 A2989 RMK AO2", "K24A 291145Z AUTO 00000KT M1/4SM FG OVC003 11/11 A2989 RMK AO2 T01060105 10134 20105 70001", "K24J 291155Z AUTO 00000KT 3SM BR OVC004 21/21 A2986 RMK A01", "K28J 291155Z AUTO 00000KT 8SM CLR 18/18 A2989 RMK AO2", "K2A0 291155Z AUTO 00000KT M1/4SM FG OVC002 11/11 A2985 RMK A01", "K2C8 291155Z AUTO 00000KT 10SM FEW050 OVC070 03/03 A2987 RMK AO2", "K2D5 291155Z AUTO 30003KT 10SM FEW120 03/03 A2988 RMK AO2", "K2DP 291155Z AUTO 28005KT 1SM BR VV002 M A2981 RMK AO2 SLPNO ALSTG ESTMD 7//// 10176 20152 52028 RVRNO $", "K2G4 291155Z AUTO VRB04KT 6SM BR BKN004 BKN008 OVC018 08/08 A2979 RMK AO2", "K2G9 291155Z AUTO 19006KT 10SM OVC007 07/06 A2980 RMK AO2", "K2I0 291155Z AUTO 24005KT 7SM -RA BKN075 OVC085 14/12 A2983 RMK AO2 P0002 60002 70002 T01400123 10145 20110", "K2IS 291155Z AUTO 19005KT 7SM CLR 23/22 A2990 RMK AO2 T02320219 10233 20206", "K2J3 291135Z AUTO 00000KT 7SM CLR 15/14 A2985 RMK AO2 T01470140", "K2J5 291135Z AUTO 7SM CLR 15/15 A2985 RMK AO2 T01530148", "K2J9 291155Z AUTO 00000KT 1/2SM FG OVC002 17/17 A2982 RMK AO2", "K2M2 291155Z AUTO 00000KT 5SM BR CLR 11/10 A2983 RMK A01", "K2P2 291155Z AUTO 11006KT 10SM BKN060 BKN110 08/08 A2969 RMK AO2 T00750075 10085 20039", "K2R9 291155Z AUTO 30008KT 10SM CLR 13/08 A3002 RMK AO2 T01260084 10173 20126 70005", "K2V5 291155Z AUTO 24005KT 10SM CLR 00/M02 A3009 RMK AO2", "K2V6 291139Z AUTO 27010KT 10SM CLR 00/M03 A3010 RMK AO2", "K2W6 291149Z AUTO 28004KT 1 3/4SM OVC003 13/13 A2984 RMK AO1", "K2WX 291156Z AUTO 30010KT 04/M01 A2998 RMK AO1 SLP156 T00441011 10111 20044 51008", "K33N 291155Z AUTO 36006KT 4SM BR OVC003 13/13 A2979 RMK A01", "K33V 291155Z AUTO 14005KT 10SM CLR M04/M07 A3032 RMK AO1", "K35A 291155Z AUTO 05003KT 1/2SM FG OVC002 15/15 A2986 RMK A02 T01530152 10161 20134", "K38S 291200Z AUTO 26003KT 1SM 01/M01 A3022 ", "K3AU 291155Z AUTO 31004KT 10SM CLR 05/03 A3000 RMK AO2", "K3D2 291155Z AUTO 00000KT 10SM SCT070 07/05 A2968 RMK AO2 T00730050 10075 20049", "K3F3 291155Z AUTO 00000KT 10SM OVC012 16/14 A2981 RMK AO2 70005 T01560136 10172 20156", "K3K3 291155Z AUTO 26005KT 10SM OVC110 00/M01 A3012 RMK AO2", "K3L4 291155Z AUTO 31011G16KT 10SM CLR 19/16 A2975 RMK A01", "K3N8 291155Z AUTO 00000KT 10SM OVC075 02/02 A2986 RMK AO2 70006 T00150015 10036 20006", "K3R7 291155Z AUTO 29004KT 10SM CLR 19/14 A2977 RMK AO2 T01850135 10230 20185", "K3S8 291155Z AUTO 00000KT 10SM CLR 10/05 A3005 RMK AO2", "K3T5 291155Z AUTO 32010KT 10SM CLR 12/11 A2994 RMK AO2 T01220108 $", "K3U3 291200Z AUTO 00000KT 10SM 04/M04 A3019 ", "K40B 291116Z AUTO 00000KT 01/M01 A3013 RMK AO1 SLP220 T00131005 52004", "K40U 291155Z AUTO 00000KT 10SM CLR M03/M05 A3029 RMK AO2 T10291048 10030 21034", "K41U 291155Z AUTO 06003KT 10SM CLR M01/M05 A3029 RMK AO1 T10131050 10058 21024", "K42J 291155Z AUTO 18004KT 7SM CLR 21/21 A2987 RMK A01", "K46D 291155Z AUTO 29005KT 10SM BKN042 BKN100 BKN120 04/03 A2991 RMK AO2", "K46U 291155Z AUTO 00000KT 10SM CLR M02/M05 A3032 RMK A01", "K48A 291155Z AUTO 00000KT 10SM CLR 15/14 A2985 RMK AO2 T01460140 10168 20127", "K49A 291155Z AUTO 36004KT 1 1/4SM BR BKN002 11/11 A2985 RMK AO2", "K4A6 291155Z AUTO 00000KT 1/4SM FG OVC003 11/11 A2986 RMK AO2 VIS M1/4V2", "K4A9 291155Z AUTO 03003KT M1/4SM FG OVC002 09/09 A2984 RMK AO2 T00900090 10118 20085", "K4BM 291155Z AUTO 29008KT 10SM CLR M02/M10 A3038 RMK AO2", "K4F2 291155Z AUTO 33008KT 10SM OVC012 14/12 A2980 RMK AO2 T01390122 10178 20138 60001 70002", "K4I3 291155Z AUTO 24006KT 10SM BKN010 BKN016 OVC023 10/09 A2974 RMK AO2", "K4M9 291155Z AUTO 28004KT 2SM BR BKN060 OVC070 14/14 A2982 RMK AO2 PWINO", "K4MR 291155Z AUTO 25009KT 10SM CLR 02/M04 A3017 RMK AO2 SLP185 T00241041 10033 20009 58002 $", "K4O4 291155Z AUTO 31007G13KT 9SM OVC027 13/13 A2984 RMK AO2", "K4R5 291155Z AUTO 00000KT 2 1/2SM -DZ BKN004 OVC009 01/01 A2977 RMK AO2 T00130013", "K4S1 291155Z AUTO 22003KT 2 1/2SM BR BKN003 08/08 A3005 RMK AO2", "K4S2 291155Z AUTO 00000KT 10SM CLR 10/05 A3001 RMK AO2", "K4U6 291155Z AUTO 35004KT 10SM 05/M02 A3008 RMK A01 Circle ", "K4V0 291155Z AUTO 10003KT 10SM CLR 01/M02 A3029 RMK AO2 T00071021 10037 20006", "K4V1 291155Z AUTO 22006KT 10SM CLR 03/M01 A3021 RMK AO2 T00311015 10380 21232", "K54A 291155Z AUTO 00000KT 9SM SCT037 25/24 A2991 RMK AO2", "K54J 291135Z AUTO 35005KT M1/4SM FG OVC002 18/17 A2982 RMK AO2 T01760173", "K57C 291155Z AUTO 13003KT 10SM BKN110 04/03 A2968 RMK AO2 T00420025 10047 20010", "K5A6 291155Z AUTO 07003KT 10SM 13/11 A2977 RMK AO2 T01280113 10135 20125", "K5C1 291155Z AUTO 33010KT 10SM CLR 10/04 A3003 RMK AO1", "K5H4 291155Z AUTO 29006KT 10SM BKN050 OVC065 04/M08 A2992 RMK AO2", "K5R8 291155Z AUTO 28006KT 10SM CLR 17/14 A2978 RMK AO2 T01680141 10202 20168", "K5SM 291155Z AUTO 28007KT 10SM CLR M02/M12 A3044 RMK AO2", "K5T9 291155Z AUTO 29004KT 10SM CLR 12/06 A3010 RMK A01", "K63S 291155Z AUTO 00000KT 10SM BKN070 BKN100 BKN120 03/01 A3007 RMK A01", "K65S 291155Z AUTO 00000KT 10SM CLR 05/01 A3011 RMK AO2", "K66R 291155Z AUTO 32005KT 10SM CLR 12/10 A2992 RMK AO2 7//// T01230095 10165 20123", "K6A1 291155Z AUTO 00000KT 10SM CLR 14/14 A2985 RMK AO2 T01420141 10179 20116", "K6A2 291155Z AUTO 00000KT 7SM CLR 12/11 A2986 RMK AO2", "K6B0 291155Z AUTO 14004KT 10SM OVC110 11/00 A3003 RMK AO2 T01050000 10111 20090", "K6B9 291155Z AUTO 12009G17KT 090V150 10SM OVC015 07/07 A2986 RMK AO2", "K6I2 291135Z AUTO 18004KT 6SM BR FEW110 10/10 A2983 RMK AO2", "K6L4 291155Z AUTO 00000KT M1/4SM FG VV000 11/11 A2983 RMK AO2", "K6P9 291135Z AUTO 33009KT 10SM CLR 08/06 A3004 RMK AO2 T00800055", "K6R3 291155Z AUTO 33011G17KT 10SM OVC012 15/12 A2985 RMK AO2 7//// T01510122 10178 20151 TSNO", "K6R6 291151Z AUTO 30009KT 09/M01 A3015 RMK AO1 SLP192 T00891006 10128 20078 56002", "K6S0 291155Z AUTO 28007KT 10SM CLR 03/M02 A3016 RMK A01", "K6S2 291155Z AUTO 20005KT 2 1/2SM UP BR OVC003 09/09 A3006 RMK AO2", "K6S8 291155Z AUTO 00000KT 10SM 04/M02 A3014 RMK A01 Laurel ", "K77S 291155Z AUTO 00000KT 10SM CLR 09/09 A3002 RMK A01", "K79J 291156Z AUTO 00000KT 1/4SM FG VV002 16/14 A2981 RMK AO2 SLP090 T01610139 10183 20156 50001 $", "K7BM 291135Z AUTO 31007G15KT 290V360 10SM CLR 01/M10 A3033 RMK AO2", "K7L2 291155Z AUTO 00000KT 10SM CLR 00/01 A2990 RMK AO2", "K7W4 291155Z AUTO 10SM OVC006 11/11 A2984 RMK AO1 70117 T01120109 10112 20105", "K81R 291155Z AUTO 31009KT 10SM CLR 09/05 A3007 RMK AO2 T00940053 10119 20092 70019", "K82C 291155Z AUTO 29010G14KT 7SM OVC006 06/06 A2971 RMK AO2 60007 70007 T00550055 10106 20055", "K8A0 291135Z AUTO 00000KT 5SM CLR 10/09 A2985 RMK AO2", "K8A3 291155Z AUTO 00000KT 5SM BR CLR 11/11 A2984 RMK A01", "K8B0 291155Z AUTO 13005KT 10SM CLR 10/M05 A3012 RMK AO2", "K8D3 291056Z AUTO 29005KT 06/02 A2986 RMK AO1 SLP115 T00610017", "K8T6 291155Z AUTO 32009KT 10SM CLR 14/09 A3002 RMK AO2", "K8W2 291155Z AUTO 00000KT 10SM OVC013 11/10 A2983 RMK AO1 70061 T01050100 10105 20098", "K96D 291155Z AUTO 29006KT 10SM FEW025 SCT044 BKN050 05/04 A2987 RMK AO2", "K9A5 291155Z AUTO 00000KT 10SM CLR 10/10 A2987 RMK AO2 T00960096 10126 20091", "K9D7 291155Z AUTO 28007KT 10SM FEW038 BKN047 OVC080 04/04 A2989 RMK AO2 TSNO", "K9L2 291155Z AUTO 36004KT 10SM CLR 10/02 A3002 RMK AO2 SLP147 T01010015 10199 20101 53001 $", "K9MN 291155Z AUTO 32003KT 7SM BKN005 OVC015 03/03 A2978 RMK AO1 70027 T00300027 10054 20030", "K9S9 291155Z AUTO 12010KT 10SM CLR 11/05 A3004 RMK AO2 PWINO", "K9V9 291155Z AUTO 00000KT 10SM SCT100 04/01 A2982 RMK AO2 T00440007 10050 20012", "KA39 291155Z AUTO 35005KT 10SM CLR 15/M06 A2999 RMK AO2", "KAAA 291155Z AUTO 28003KT 10SM CLR 10/04 A2973 RMK AO2 T00950042 10105 20067", "KAAF 291153Z AUTO 11004KT 8SM CLR 21/20 A2979 RMK AO2 SLP088 7//// T02060200 10233 20194 58009", "KAAO 291154Z AUTO 31010KT 10SM CLR 05/02 A2999 RMK AO2 SLP161 70027 T00500022 10089 20050 51003", "KAAT 291155Z AUTO 00000KT 10SM CLR 04/01 A3016 RMK AO2 SLP184 T00390006 10150 20039 53002", "KABE 291151Z AUTO 06009KT 5SM -RA BR OVC010 09/08 A2988 RMK AO2 RAE11B20 CIG 007V014 SLP118 P0001 60020 70067 T00890078 10089 20078 53003 $", "KABH 291155Z AUTO 00000KT 10SM CLR M00/M04 A3020 RMK AO2 SLP233 T10021043 10031 21008 58003", "KABI 291152Z 32009KT 10SM CLR 08/02 A3009 RMK AO2 SLP183 T00780022 10100 20072 53008", "KABQ 291152Z 31004KT 10SM CLR 05/M01 A3026 RMK AO2 SLP210 T00501011 10094 20050 53003", "KABR 291153Z AUTO 04005KT 10SM FEW046 SCT080 BKN110 03/02 A2988 RMK AO2 SLP124 60000 T00330017 10050 20022 55007", "KABY 291153Z 00000KT 8SM SCT003 17/16 A2985 RMK AO2 SLP108 T01670156 10194 20156 53005", "KACB 291155Z AUTO 00000KT 10SM OVC018 09/08 A2969 RMK AO2 T00930075 10097 20083", "KACJ 291155Z AUTO 00000KT 8SM FEW050 15/15 A2985 RMK AO2 T01460146", "KACK 291153Z 09017KT 10SM BKN120 11/06 A3008 RMK AO2 SLP187 T01060061 10106 20072 50002", "KACP 291155Z AUTO 30005KT 10SM CLR 18/12 A2974 RMK AO2", "KACQ 291155Z AUTO 29008KT 10SM CLR 01/01 A2982 RMK AO2", "KACT 291151Z 32012KT 10SM CLR 10/08 A2994 RMK AO2 SLP136 70012 T01000078 10122 20094 56004", "KACV 291153Z AUTO 00000KT 1/4SM R32/1200V3000FT FG VV001 09/09 A3005 RMK AO2 SLP182 T00940089 10100 20089 53005", "KACY 291154Z 08006KT 7SM OVC010 14/13 A2979 RMK AO2 SLP087 60099 70240 T01390128 10139 20117 53003", "KACZ 291145Z AUTO 23003KT 1/2SM FG OVC002 18/18 A2982 RMK AO2 T01770176 10185 20146 60001 70007", "KADC 291155Z AUTO 00000KT 10SM OVC027 02/01 A2985 RMK AO2 TSNO", "KADF 291156Z AUTO 36009G16KT 10SM RA FEW007 BKN070 OVC090 14/14 A2979 RMK AO2 TSE1057 SLP087 P0042 60130 70156 T01390139 10156 20139 51017", "KADG 291153Z AUTO 26004KT 10SM OVC021 10/09 A2969 RMK AO2 SLP056 60000 70058 T01000089 10100 20100 53005", "KADH 291155Z AUTO 34006G14KT 10SM OVC013 09/08 A2995 RMK AO2", "KADM 291150Z 33011KT 10SM FEW023 OVC030 10/07 A2995", "KADS 291147Z 33014G21KT 10SM OVC020 12/07 A2994", "KADT 291135Z AUTO 25004KT 10SM CLR 00/M02 A3011 RMK AO2 T00031025", "KADU 291155Z AUTO 00000KT 10SM SCT065 SCT080 SCT090 03/01 A2988 RMK AO2", "KADW 291155Z AUTO 34006KT 10SM OVC005 12/11 A2981 RMK AO2 DZE1058 SLP102 P0000 60001 70114 T01160114 10127 20116 53024", "KAEG 291135Z AUTO 33003KT 10SM CLR 00/M05 A3026 RMK AO2 T00001047", "KAEJ 291155Z AUTO 30010KT 10SM CLR 01/M08 A3029 RMK AO2 T00121078 10042 20012", "KAEL 291155Z AUTO 30005KT 10SM 03/02 A2980 RMK AO2", "KAEX 291153Z 28005KT 10SM CLR 17/14 A2974 RMK AO2 SLP074 T01670139 10200 20167 56003", "KAFF 291155Z AUTO 02003KT 10SM CLR 00/M04 A3019 RMK AO2 SLP216 T00021044 10007 21019 58001", "KAFJ 291156Z AUTO 19005KT 10SM BKN013 OVC032 11/09 A2979 RMK AO2 SLP086 60001 70033 T01060094 10106 20094 53005", "KAFK 291155Z AUTO 28008KT 10SM CLR 04/00 A2994 RMK AO2 T00410000 10075 20033", "KAFN 291152Z AUTO 00000KT 10SM OVC110 09/03 A3009 RMK AO2 SLP198 T00890033 10089 20067 53004", "KAFO 291130Z AUTO 00000KT 10SM CLR M03/M07 A3030 RMK AO2", "KAFP 291149Z AUTO 00000KT 1/4SM FG OVC002 15/14 A2982 RMK AO2 T01480142", "KAFW 291153Z 33015G21KT 10SM BKN024 11/07 A2997 RMK AO2 SLP145 T01110067 10122 20111 53011", "KAGC 291153Z 17005KT 9SM OVC031 11/09 A2975 RMK AO2 SLP079 70036 T01060094 10106 20100 51007", "KAGI 291155Z AUTO 31015KT 10SM CLR 23/15 A2977 RMK AO2 LTG DSNT E AND SE T02270149 10240 20213 60007 70007", "KAGO 291155Z AUTO 35010G16KT 4SM BR BKN006 BKN019 OVC060 15/14 A2972 RMK A01 P0014", "KAGS 291153Z 00000KT 10SM CLR 15/14 A2982 RMK AO2 SLP098 T01500144 10150 20117 53016", "KAHN 291151Z AUTO 00000KT 10SM CLR 14/13 A2984 RMK AO2 SLP101 T01390128 10150 20117 53015", "KAHQ 291155Z AUTO 25005KT 10SM CLR 04/01 A2992 RMK AO2 70029 T00400007 10058 20033", "KAIA 291153Z AUTO 27010KT 10SM BKN085 06/M02 A3003 RMK AO2 SLP159 T00561017 10072 21039 56011 $", "KAID 291155Z AUTO 20004KT 7SM CLR 08/05 A2978 RMK AO2 T00770050 10097 20065", "KAIG 291155Z AUTO 10008KT 7SM -RA BKN043 OVC049 04/04 A2965 RMK AO2 P0003 60005 70005 T00430036 10071 20043", "KAIK 291155Z AUTO 24003KT 10SM CLR 16/15 A2983 RMK AO2 T01650148 10169 20125", "KAIO 291155Z AUTO 00000KT 10SM CLR 03/03 A2990 RMK AO2", "KAIT 291155Z AUTO 32005KT 7SM OVC008 03/02 A2981 RMK AO2", "KAIZ 291156Z AUTO VRB06KT 10SM OVC010 12/09 RMK AO2 SLPNO T01170094 10133 20106 $", "KAJG 291155Z AUTO 00000KT 10SM OVC110 12/10 A2977 RMK AO2 T01150097 10121 20091", "KAJO 291156Z AUTO 00000KT 3SM BR OVC004 12/12 A3002 RMK AO2 SLP159 7//// T01170117 10133 20111 57001", "KAJR 291155Z AUTO 00000KT 4SM BR CLR 13/13 A2984 RMK AO2 T01320132 10151 20121", "KAJZ 291155Z AUTO 07005KT 10SM CLR 03/M05 A3031 RMK AO2 T00311050 10083 20030 PWINO", "KAKH 291154Z AUTO 03005KT 1SM BR OVC002 15/14 A2982 RMK AO2 SLP094 T01500144 10161 20150 53014", "KAKO 291153Z AUTO 26010KT 10SM BKN090 03/M02 A3012 RMK AO2 SLP190 T00331022 10033 21006 58003 TSNO $", "KAKQ 291154Z AUTO 35004KT 10SM OVC004 12/11 A2983 RMK AO2 SLP103 70050 T01220111 10144 20117 51023", "KAKR 291154Z AUTO 20009KT 2 1/2SM HZ OVC007 12/09 A2969 RMK AO2 CIG 005V011 SLP054 60000 70009 T01220094 10122 20117 53005", "KALB 291151Z 14004KT 7SM -RA BKN050 OVC065 08/05 A3004 RMK AO2 RAB1055 SLP174 P0002 60006 70006 T00830050 10122 20083 53007", "KALI 291153Z AUTO 32012KT 10SM CLR 14/09 A3001 RMK AO2 SLP162 6//// 7//// T01440089 10189 20144 53015 PNO $", "KALK 291156Z AUTO 11008KT 10SM CLR 14/M09 A3017 RMK AO2 SLP130 T01441094 10183 20139 53008", "KALM 291155Z AUTO 06004KT 10SM SCT048 BKN055 03/M05 A3025 RMK AO2", "KALN 291150Z 30007KT 10SM CLR 10/08 A2978", "KALO 291154Z 30010KT 10SM CLR 05/03 A2979 RMK AO2 SLP091 70003 T00500028 10083 20050 56011", "KALS 291152Z AUTO 24003KT 10SM CLR M04/M07 A3028 RMK AO2 SLP230 70003 T10441067 10056 21044 50003", "KALW 291153Z AUTO 11005KT 10SM CLR 13/03 A2998 RMK AO2 SLP150 T01280033 10161 20117 50001", "KAMA 291153Z 29010KT 10SM CLR 03/00 A3014 RMK AO2 SLP197 70021 T00280000 10061 20028 56002", "KAMG 291153Z AUTO 19003KT 6SM BR CLR 20/18 A2985 RMK AO2 SLP104 T02000183 10217 20183 53012 $", "KAMN 291155Z AUTO 32004KT 5SM BR OVC003 10/10 A2966 RMK AO2 T00980096 10101 20095", "KAMW 291153Z AUTO 29010KT 10SM FEW060 05/02 A2985 RMK AO2 SLP109 70001 T00500017 10094 20022 56007", "KANB 291153Z AUTO 05003KT 10SM CLR 12/11 A2985 RMK AO2 SLP106 T01170106 10133 20106 53003", "KAND 291156Z AUTO 19003KT 10SM CLR 13/12 A2982 RMK AO2 SLP092 T01280122 10156 20117 53013", "KANE 291159Z 32006KT 10SM OVC005 04/04 A2980", "KANJ 291155Z AUTO 11007G15KT 10SM SCT019 SCT025 OVC034 10/07 A2973 RMK AO2 SLP068 T01000067 10100 20083 56016", "KANK 291130Z AUTO 27004KT 10SM CLR 01/M05 A3037 RMK AO1 T00051051", "KANQ 291155Z AUTO 24005KT 3SM BR FEW005 BKN009 OVC013 09/09 A2971 RMK AO2", "KANW 291155Z AUTO 26014KT 10SM OVC100 07/02 A2990 RMK AO2 T00720016 10073 20023", "KAOH 291153Z AUTO 25009KT 6SM BR OVC013 11/09 A2973 RMK AO2 SLP069 60000 70032 T01060094 10111 20106 51009", "KAOO 291153Z AUTO 04003KT 2SM BR OVC004 08/07 A2982 RMK AO2 SLP101 60003 70074 T00780067 10078 20072 51006", "KAPA 291153Z 00000KT 10SM FEW090 FEW140 FEW220 02/M03 A3017 RMK AO2 SLP208 T00221028 10056 20022 55002", "KAPC 291154Z 28006KT 10SM OVC003 09/08 A3002 RMK AO2 CIG 002V007 SLP158 T00940078 10122 20094 51003", "KAPF 291153Z 13007KT 10SM CLR 25/23 A2989 RMK AO2 SLP119 T02500228 10256 20239 53003", "KAPN 291154Z AUTO 09004KT 4SM -RA BR OVC003 07/06 A2970 RMK AO2 SLP060 P0003 60016 70016 T00670061 10094 20067 56016", "KAPS 291136Z AUTO 12003KT 10SM CLR 17/16 A2973 RMK AO2 LTG DSNT S", "KAPY 291155Z AUTO 31010G14KT 10SM CLR 16/06 A3009 RMK AO2 70002 T01580064 10221 20158 TSNO", "KAQO 291155Z AUTO 28006KT 10SM CLR 10/05 A3005 RMK AO2", "KAQP 291153Z AUTO 00000KT 10SM 01/M01 A2986 RMK AO2", "KAQV 291157Z AUTO VRB03KT 10SM FEW019 SCT025 OVC055 17/14 A2973 RMK AO2 SLP066 T01670144 10200 20161 50000 ", "KAQW 291152Z AUTO 08008G18KT 10SM -RA OVC085 09/02 A3003 RMK AO2 SLP172 P0001 60001 70001 T00890017 10111 20089 53003", "KAQX 291155Z AUTO 00000KT 9SM SCT060 18/17 A2983 RMK AO2", "KARA 291153Z 00000KT 10SM CLR 20/16 A2969 RMK AO2 SLP053 T02000161 10200 20178 56043", "KARB 291153Z 30007KT 10SM OVC008 10/08 A2965 RMK AO2 CIG 006V011 SLP042 70053 T01000078 10100 20094 53003", "KARG 291156Z AUTO 30005KT 3SM -RA BR OVC055 14/14 A2983 RMK AO2 SLP101 P0003 60015 70016 T01390139 10150 20139 53005", "KARM 291155Z AUTO 32015G21KT 10SM SCT021 SCT070 13/12 A2991 RMK AO2 70003 T01300120 10165 20130 TSNO", "KARR 291152Z 00000KT 5SM HZ CLR 06/02 A2970 RMK AO2 SLP059 T00560022 10056 20017 56013", "KART 291156Z AUTO 8SM -RA OVC060 08/05 A2990 RMK AO2 SLP123 P0003 60010 70015 T00830050 10106 20083 53003", "KARV 291155Z AUTO 35008KT 1 1/4SM RA OVC004 01/01 A2968 RMK AO2 60006 70006 T00120008 10038 20012", "KARW 291155Z AUTO 25005KT 10SM CLR 21/19 A2983 RMK AO2", "KASD 291153Z AUTO 00000KT 10SM SCT001 16/15 A2975 RMK AO2 SLP072 T01610150 10172 20150 56015", "KASE 291153Z AUTO 20005KT 10SM CLR M02/M08 A3033 RMK AO2 SLP227 T10221078 10006 21033 51000", "KASG 291148Z 35009G16KT 4SM BR BKN006 OVC009 11/11 A2988", "KASH 291156Z 10006KT 10SM SCT120 10/07 A3012 RMK AO2 SLP205 T01000067 10100 20067 50005", "KASJ 291145Z AUTO 33003KT 4SM BR OVC002 13/13 A2984 RMK AO2 T01270127", "KASL 291155Z AUTO 32009KT 7SM -RA OVC006 13/13 A2978 RMK AO2 CIG 005V008 OVC V BKN P0000 T01340131 $", "KASN 291155Z AUTO 00000KT 10SM SCT001 11/11 A2985 RMK AO2 T01080106 10130 20100", "KAST 291155Z AUTO VRB06KT 8SM OVC008 11/09 A3001 RMK AO2 SLP162 T01060089 10106 20100 53010", "KASW 291155Z AUTO 00000KT 7SM CLR 05/03 A2974 RMK AO2 T00550037", "KASX 291153Z AUTO 31004KT 2SM BR OVC003 02/01 A2977 RMK AO2 SLP091 60001 70067 T00170011 10017 20011 56013", "KATA 291155Z AUTO 30007KT 5SM -RA BR OVC008 14/13 A2979 RMK AO2 CIG 006V012 SLP987 P0000 T01380133 $", "KATL 291152Z 31003KT 10SM FEW250 16/12 A2985 RMK AO2 SLP101 T01560122 10167 20139 53008 $", "KATP 291200Z AUTO 14013G20KT 4SM BR BKN065 OVC080 25/24 A2971 RMK A01", "KATS 291155Z AUTO 30008KT 10SM CLR 03/M03 A3027 RMK AO2", "KATT 291051Z AUTO 10SM CLR 12/08 A2999 RMK AO2 SLP152 T01220078", "KATW 291145Z 00000KT 10SM -DZ OVC060 07/02 A2966", "KATY 291153Z AUTO 04005KT 10SM -RA SCT041 OVC060 03/02 A2986 RMK AO2 RAB27 SLP121 P0000 60000 T00330022 10033 20006 56009", "KAUG 291153Z AUTO 15004KT 10SM CLR 09/04 A3016 RMK AO2 SLP216 T00890039 10089 20044 51009", "KAUH 291155Z AUTO 26009KT 10SM CLR 02/M01 A2995 RMK AO2 70005 T00161008 10023 20005", "KAUM 291156Z AUTO 31007KT 10SM SCT055 03/02 A2979 RMK AO2", "KAUN 291155Z AUTO 09007KT 10SM CLR 18/08 A3000 RMK A01", "KAUO 291153Z AUTO 06003KT 10SM CLR 15/13 A2986 RMK AO2 SLP104 6//// 7//// T01500133 10156 20139 53008 PNO $", "KAUS 291153Z 32011G21KT 10SM FEW120 12/08 A2997 RMK AO2 SLP146 70045 T01220078 10144 20122 50008 $", "KAUW 291154Z AUTO 28013KT 2SM HZ OVC005 06/M01 A2965 RMK AO2 RAE01 SLP046 P0000 60024 70024 T00561011 10111 20056 55015", "KAVC 291155Z AUTO 00000KT 10SM OVC004 12/12 A2989 RMK AO2 70066 T01180116 10127 20112", "KAVL 291154Z VRB03KT 10SM CLR 10/09 A2986 RMK AO2 SLP097 70013 T01000089 10128 20100 53013", "KAVP 291154Z 05008KT 7SM -RA OVC055 09/07 A2986 RMK AO2 SLP110 P0001 60004 70020 T00890067 10089 20072 53009", "KAVQ 291155Z AUTO 00000KT 10SM 19/M09 A2999 RMK AO2 T01881094", "KAVX 291151Z AUTO 00000KT M1/4SM FG VV001 11/10 A3001 RMK AO2 SLP154 T01060100 10106 20094 56005 $", "KAWG 291155Z AUTO 31012KT 10SM BKN095 08/08 A2980 RMK AO2", "KAWM 291153Z AUTO 00000KT 3SM BR SCT050 OVC065 14/14 A2979 RMK AO2 LTG DSNT W RAE10 SLP086 P0000 60005 70005 T01440139 10150 20144 53003", "KAWO 291156Z AUTO 00000KT 10SM CLR 10/08 A2995 RMK AO2 SLP144 T01000078 10144 20089 53013", "KAXA 291155Z AUTO 29007KT 10SM CLR 02/01 A2983 RMK A01", "KAXH 291155Z AUTO 32011G18KT 10SM OVC018 15/12 A2988 RMK AO2 60003 70005 T01500123 10177 20150", "KAXN 291153Z AUTO 36005KT 10SM BKN080 02/01 A2984 RMK AO2 SLP117 70001 T00220006 10039 20000 56010", "KAXS 291155Z AUTO 35006KT 10SM CLR 04/02 A3010 RMK AO2 70008 T00420023 10077 20040", "KAXV 291155Z AUTO 24006KT 10SM OVC019 10/09 A2975 RMK AO2", "KAXX 291155Z AUTO 00000KT 10SM CLR M07/M08 A3032 RMK AO2 T10661078 11038 21072", "KAYS 291155Z AUTO 00000KT 7SM CLR 19/19 A2985 RMK AO2 T01930186 10206 20176", "KAZC 291155Z AUTO 14006KT 10SM CLR 05/M03 A3025 RMK AO2", "KAZE 291135Z AUTO 00000KT 7SM CLR 18/18 A2984 RMK AO2 T01820177", "KAZO 291153Z 25003KT 6SM BR CLR 09/08 A2970 RMK AO2 SLP060 70007 T00890078 10111 20078 55004", "KBAB 291055Z AUTO 16003KT 10SM CLR 15/12 A2994 RMK AO2 SLP141 T01450118 $", "KBAC 291155Z AUTO 30009KT 10SM BKN070 02/02 A2988 RMK AO2", "KBAD 291155Z AUTO 31013KT 10SM OVC011 16/13 A2975 RMK AO2 SLP077 60000 T01560125 10176 20156 52012", "KBAF 291153Z 36005KT 10SM -RA BKN048 OVC060 08/05 A3008 RMK AO2 SLP189 P0004 60012 70012 T00780050 10100 20072 53006", "KBAM 291155Z AUTO 00000KT 10SM CLR 05/M02 A3018 RMK AO1", "KBAN 291152Z AUTO 00000KT 10SM CLR 02/M02 A3029 RMK AO2 SLP190 T00171022 10072 20017 56002 $", "KBAX 291155Z AUTO 11007KT 1 1/4SM -RA OVC004 08/08 A2965 RMK AO2 T00800080 10093 20076", "KBAZ 291151Z AUTO 33010KT 10SM CLR 12/08 A2998 RMK AO2 SLP149 70049 T01170078 10150 20117 50014", "KBBB 291156Z AUTO 36003KT 7SM CLR M01/M01 A2986 RMK AO2", "KBBD 291155Z AUTO 32011G17KT 10SM CLR 09/02 A3006 RMK AO2", "KBBG 291145Z 31006KT 4SM BR OVC011 11/11 A2987", "KBBP 291155Z AUTO 00000KT 7SM CLR 16/16 A2981 RMK AO2", "KBBW 291153Z AUTO 26010KT 10SM CLR 06/00 A2994 RMK AO2 SLP141 T00560000 10061 21022 56019", "KBCB 291155Z AUTO 00000KT 10SM OVC011 13/13 A2987 RMK AO2 70027 T01270127 10128 20125", "KBCE 291153Z AUTO 27009KT 10SM CLR M01/M04 A3035 RMK AO2 SLP201 T10111044 10028 21011 58002", "KBCK 291155Z AUTO 33003KT 10SM OVC007 04/03 A2974 RMK AO2 60008 70015 T00400033 10070 20040", "KBCT 291153Z VRB04KT 10SM CLR 26/24 A2991", "KBDE 291153Z AUTO 00000KT 10SM OVC095 03/01 A2986 RMK AO2 SLP123 T00280011 10050 20017 56006 $", "KBDG 291135Z AUTO 36005KT 10SM 04/M09 A3034 RMK AO1 T00361089", "KBDH 291155Z AUTO 00000KT 10SM CLR 01/00 A2987 RMK AO2", "KBDL 291151Z 02007KT 10SM -RA OVC060 08/06 A3007 RMK AO2 SLP183 P0004 60015 70015 T00830061 10106 20078 53005 $", "KBDN 291155Z AUTO 23006KT 10SM CLR 11/05 A3007 RMK AO2", "KBDR 291152Z 08022G27KT 5SM +RA BR BKN055 OVC075 10/08 A2999 RMK AO2 PK WND 08027/1152 SLP156 P0008 60046 70051 T01000078 10100 20094 53001", "KBDU 291155Z AUTO 00000KT 10SM OVC100 10/M05 A3014 RMK AO2", "KBEA 291155Z AUTO 32008KT 10SM CLR 13/08 A3000 RMK AO2 70001 T01280081 10175 20128 PWINO", "KBEC 291155Z AUTO 31007KT 10SM CLR 05/03 A3000 RMK AO2 70001 T00500030 10090 20050", "KBED 291151Z 09006KT 10SM SCT120 11/06 A3010 RMK AO2 SLP206 T01060061 10106 20072 53004", "KBEH 291153Z AUTO 00000KT 3SM BR CLR 05/04 A2972 RMK AO2 SLP066 T00500044 10061 20022 53008", "KBFD 291153Z AUTO 14010KT 4SM BR OVC006 07/06 A2976 RMK AO2 RAE07B30E53 SLP083 P0000 60001 70021 T00720056 10072 20067 51003", "KBFF 291153Z AUTO 32008KT 10SM FEW100 05/M01 A3008 RMK AO2 SLP174 T00501006 10072 20017 56006", "KBFI 291153Z 14007KT 10SM CLR 14/09 A2995 RMK AO2 SLP143 T01390089 10167 20122 53015", "KBFL 291154Z AUTO 14005KT 8SM CLR 19/12 A2997 RMK AO2 SLP141 T01940122 10250 20194 53003", "KBFM 291153Z 01003KT 1/4SM BR VV002 19/18 A2979 RMK AO2 SLP089 T01940183 10194 20167 55013", "KBFR 291155Z AUTO 00000KT 4SM BR CLR 07/06 A2977 RMK AO2", "KBGD 291151Z AUTO 21006KT 10SM CLR 06/01 A3015 RMK AO2 SLP202 70019 T00560011 10078 20056 55001", "KBGE 291155Z AUTO 29005KT 1/4SM FG OVC002 18/18 A2983 RMK AO2 T01820180 10198 20165", "KBGF 291155Z AUTO 00000KT 5SM BR CLR 11/11 A2984 RMK A01", "KBGM 291153Z 13013KT 4SM -RA BR BKN007 OVC010 06/05 A2985 RMK AO2 CIG 003V008 SLP115 P0003 60021 70042 T00610050 10061 20050 58000", "KBGR 291153Z 00000KT 10SM SCT150 BKN250 08/03 A3017 RMK AO2 SLP217 T00780033 10078 20022 51008", "KBHB 291156Z AUTO 00000KT 10SM CLR 07/04 A3019 RMK AO2 SLP224 T00720044 10072 20017 53006", "KBHC 291155Z AUTO 00000KT 7SM CLR 18/18 A2985 RMK AO2", "KBHK 291151Z AUTO 34004KT 10SM CLR 02/M02 A3004 RMK AO2 SLP175 T00221017 10089 20017 51007", "KBHM 291153Z 00000KT 10SM FEW250 13/11 A2985 RMK AO2 SLP102 T01280111 10144 20117 58002", "KBID 291156Z AUTO 08011G18KT 10SM OVC047 09/07 A3005 RMK AO2 SLP176 60000 T00890067 10089 20083 53002", "KBIE 291155Z AUTO 00000KT 10SM CLR 01/00 A2996 RMK AO2 T00051001 10036 21003", "KBIF 291155Z 36002KT 7SM SKC 08/M02 A3027 RMK SLPNO WND DATA ESTMD ALSTG DATA ESTMD", "KBIH 291156Z AUTO 35005KT 10SM CLR 07/02 A3014 RMK AO2 SLP167 T00720017 10178 20072 53003", "KBIJ 291155Z AUTO 00000KT 1/2SM FG OVC002 15/14 A2984 RMK AO2", "KBIL 291153Z 21008KT 10SM FEW150 FEW200 06/M01 A3013 RMK AO2 SLP196 T00611011 10122 20061 56002", "KBIS 291152Z 03003KT 10SM CLR 01/M02 A2993 RMK AO2 SLP144 T00111017 10067 20000 53008", "KBIV 291153Z AUTO 24003KT 6SM BR CLR 08/07 A2970 RMK AO2 SLP040 T00830072 10117 20061 55008", "KBIX 291155Z AUTO 04004KT 5SM BR CLR 19/18 A2974 RMK AO2 SLP074 T01890182 10221 20187 57015", "KBJC 291145Z 28016KT 10SM SCT100 10/M06 A3016", "KBJI 291155Z AUTO 32003KT 10SM -DZ BKN065 OVC085 01/01 A2985 RMK AO2 70001 T00100010 10025 21001", "KBJJ 291156Z AUTO 24007KT 3SM -RA BR BKN009 OVC015 11/10 A2971 RMK AO2 RAB07 CIG 005V010 SLP063 P0000 60000 70030 T01060100 10106 20100 53009", "KBKB 291152Z AUTO 00000KT 10SM FEW023 17/14 A2972 RMK AO2 SLP091 T01670139 10206 20167 58006 ", "KBKD 291155Z AUTO 32003KT 10SM CLR 09/05 A3006 RMK AO2 T00890050 10118 20089", "KBKE 291153Z AUTO 31003KT 10SM CLR 02/00 A3013 RMK AO2 SLP199 T00220000 10089 20011 56001", "KBKF 291058Z 18009KT 10SM SCT220 04/M04 A3016 RMK AO2A SLP189 T00391038", "KBKL 291153Z 18009KT 5SM BR OVC011 12/11 A2967 RMK AO2 RAB24E37 SLP046 P0000 60000 70002 T01220106 10128 20117 52004", "KBKN 291155Z AUTO 31008KT 06/05 A3001 RMK AO2", "KBKS 291155Z AUTO 33008KT M1/4SM HZ CLR 16/10 A3003 RMK AO2 SLP131 T01580100 $", "KBKT 291155Z AUTO 33003KT 10SM SCT085 11/11 A2984 RMK AO1 70068 T01130105 10113 20097", "KBKV 291153Z 00000KT 7SM SCT002 21/21 A2990 RMK AO2 SLP122 T02110211 10228 20183 51008", "KBKW 291151Z AUTO 22004KT 10SM FEW018 OVC024 10/09 A2984 RMK AO2 SLP099 70073 T01000089 10117 20100 53010", "KBKX 291156Z AUTO 03003KT 10SM FEW050 OVC065 02/01 A2987 RMK AO2 SLP138 7//// T00220006 10028 20006 56013 FZRANO", "KBLF 291152Z AUTO 30005KT 10SM OVC006 10/09 A2985 RMK AO2 CIG 004V008 SLP096 70071 T01000089 10117 20100 53009", "KBLI 291153Z AUTO 00000KT 10SM CLR 09/09 A2991 RMK AO2 SLP135 T00890089 10117 20078 52005 $", "KBLM 291156Z AUTO 07009KT 3SM +RA OVC004 A2988 RMK AO2 SLPNO 6//// 7//// 54000 FZRANO $", "KBLU 291152Z AUTO 11003KT 10SM CLR 16/00 A3020 RMK AO2 SLP144 T01560000 10156 20144 56005", "KBLV 291155Z 00000KT 10SM BKN200 10/07 A2976 RMK AO2A SLP080 T01030072 10141 20082 55000 $", "KBMC 291130Z AUTO 32004KT 10SM CLR 05/00 A3022 RMK AO1 T00540001", "KBMG 291153Z 00000KT 2 1/2SM BR BKN120 07/06 A2976 RMK AO2 SLP078 T00670061 10067 20044 56007", "KBMI 291156Z 21008KT 10SM CLR 09/04 A2973 RMK AO2 SLP062 T00890044 10094 20072 55011", "KBML 291152Z AUTO 00000KT 10SM CLR 06/02 A3010 RMK AO2 SLP199 T00560017 10056 21017 50001", "KBMQ 291153Z AUTO 31012G19KT 10SM CLR 11/07 A3003 RMK AO2 SLP161 70080 T01060067 10117 20100 $", "KBMT 291155Z AUTO 31012G16KT 10SM OVC014 16/14 A2980 RMK AO2 T01620141 10211 20162", "KBNA 291153Z 00000KT 5SM BR SCT200 BKN250 12/10 A2986 RMK AO2 SLP109 T01170100 10122 20094 53002", "KBNL 291155Z AUTO 00000KT 9SM CLR 18/16 A2983 RMK AO2", "KBNO 291153Z AUTO 31006KT 10SM CLR 06/01 A3013 RMK AO2 SLP180 T00610006 10122 20050 53001", "KBNW 291155Z AUTO 28008KT 10SM OVC055 04/03 A2984 RMK AO2", "KBOI 291153Z VRB03KT 10SM CLR 11/01 A3010 RMK AO2 SLP176 T01110006 10139 20111 50002", "KBOK 291156Z AUTO 00000KT 4SM BR OVC003 08/08 A3006 RMK AO2 RAE39 SLP180 P0000 60000 7//// T00830083 10094 20083 50001", "KBOS 291154Z 10010KT 10SM FEW028 BKN120 BKN220 10/07 A3013 RMK AO2 SLP200 T01000072 10100 20089 53008 $", "KBOW 291155Z AUTO 15005KT 9SM CLR 23/22 A2991 RMK AO2", "KBPC 291155Z AUTO 31007KT 10SM CLR 03/00 A3014 RMK AO2", "KBPG 291155Z AUTO 00000KT 10SM CLR 05/M03 A3018 RMK AO2 T00461027 10082 20044", "KBPI 291153Z AUTO 32007KT 10SM CLR 01/M06 A3027 RMK AO2 SLP205 T00111061 10017 21022 58002", "KBPK 291153Z AUTO 00000KT 4SM -RA BR OVC048 12/11 A2985 RMK AO2 SLP104 P0001 60004 70009 T01170111 10122 20117 53013", "KBPT 291153Z 32012G20KT 10SM OVC015 17/14 A2976 RMK AO2 SLP078 60001 70001 T01720144 10222 20172 50002", "KBQK 291155Z AUTO 22007KT 10SM CLR 21/20 A2986 RMK AO2 T02050201 10206 20184 70004", "KBQP 291155Z AUTO 00000KT 10SM CLR 15/15 A2973 RMK AO2 T01520148 10173 20142", "KBQX 291155Z AUTO 34031KT 10SM SCT018 BKN025 OVC034 17/13 A2988 RMK A01", "KBRD 291153Z AUTO 34011KT 10SM OVC012 04/01 A2983 RMK AO2 SLP110 70002 T00390011 10050 20033 55009", "KBRG 291155Z AUTO 00000KT 10SM CLR 01/M05 A3027 RMK AO2 T00121049 10070 20005", "KBRL 291153Z AUTO 33009G21KT 10SM OVC090 09/05 A2979 RMK AO2 SLP086 T00890050 10133 20089 53004", "KBRO 291153Z 33013G24KT 10SM CLR 17/12 A2999 RMK AO2 PK WND 32034/1113 SLP155 60177 70177 T01720117 10261 20172 52049", "KBRY 291155Z AUTO 00000KT 7SM BKN110 09/09 A2980 RMK AO2 T00890089", "KBTA 291155Z AUTO 25003KT 10SM CLR 02/00 A2990 RMK AO2 70020 T00220002 10058 20022", "KBTL 291153Z 28006KT 4SM BR CLR 10/09 A2969 RMK AO2 SLP055 70019 T01000089 10106 20083 55005", "KBTM 291153Z AUTO 00000KT 10SM CLR M01/M03 A3021 RMK AO2 SLP212 T10061028 10044 21011 50001", "KBTN 291155Z AUTO 26006KT 10SM FEW039 BKN050 OVC110 05/05 A2986 RMK AO2", "KBTP 291156Z AUTO 16005KT 10SM FEW014 OVC032 09/09 A2975 RMK AO2 SLP084 60001 70046 T00940094 10094 20083 53002 TSNO $", "KBTR 291153Z 12008KT 10SM CLR 18/15 A2968 RMK AO2 SLP051 T01830150 10183 20167 56048 $", "KBTV 291154Z 10004KT 10SM BKN120 BKN150 12/01 A3002 RMK AO2 SLP165 T01220011 10133 20111 58004", "KBUF 291154Z 13007KT 8SM -RA BKN028 OVC040 09/06 A2976 RMK AO2 RAB44 SLP079 P0000 60000 70017 T00940056 10094 20089 56002", "KBUR 291153Z 16004KT 4SM BR OVC004 12/11 A3000 RMK AO2 SLP148 T01220111 10144 20122 58006", "KBUU 291155Z AUTO 00000KT 10SM SCT120 04/02 A2969 RMK AO2 T00400018 10040 20005 PWINO", "KBUY 291154Z AUTO 00000KT 1 1/4SM BR OVC002 12/12 A2983 RMK AO2 SLP099 70030 T01220117 10139 20117 51014", "KBVI 291155Z AUTO 17005KT 7SM OVC006 11/10 A2974 RMK AO2 T01100095", "KBVN 291155Z AUTO 32003KT 10SM CLR 03/00 A2991 RMK AO2 70012 T00251005 10032 21008", "KBVO 291153Z AUTO VRB04KT 10SM OVC070 11/07 A2996 RMK AO2 SLP142 70031 T01060072 10106 20094 53006", "KBVS 291155Z AUTO 00000KT 10SM CLR 09/08 A2993 RMK A01", "KBVU 291155Z AUTO 00000KT 10SM CLR 17/M00 A3003 RMK AO2", "KBVX 291156Z AUTO VRB03KT 4SM RA BR BKN036 BKN043 13/13 A2982 RMK AO2 SLP098 P0007 60022 70027 T01280128 10139 20128 50003", "KBVY 291153Z 10007KT 10SM CLR 10/06 A3011 RMK AO2 SLP194 T01000056 10100 20044 51004", "KBWD 291135Z AUTO 33005KT 10SM CLR 07/05 A3006 RMK AO1", "KBWG 291153Z AUTO 00000KT 4SM BR CLR 11/10 A2984 RMK AO2 SLP102 T01110100 10111 20089 53002", "KBWI 291154Z 01004KT 1 1/2SM -DZ BR BKN005 BKN008 OVC015 12/12 A2982 RMK AO2 SLP096 P0000 60001 70173 T01220117 10128 20117 53017 $", "KBWP 291155Z AUTO 27005KT 10SM BKN075 BKN095 M00/M00 A2986 RMK AO2", "KBWW 291155Z AUTO 32012KT 10SM CLR 03/M00 A3000 RMK AO2", "KBXA 291155Z AUTO 00000KT 10SM CLR 14/13 A2976 RMK AO2 T01430131 10156 20133", "KBXK 291155Z AUTO 36006KT 8SM CLR 17/M08 A2995 RMK A01", "KBYG 291153Z AUTO 33012KT 10SM CLR 08/M02 A3014 RMK AO2 SLP180 T00781022 10111 20061 53003", "KBYI 291153Z AUTO 00000KT 10SM CLR 03/M02 A3016 RMK AO2 SLP194 T00281017 10083 20017 50002", "KBYL 291155Z AUTO 00000KT M1/4SM OVC001 08/08 A2986 RMK AO1", "KBYS 291155Z AUTO 04007KT 10SM CLR 18/M06 A2999 RMK AO2 SLP130 T01791061 10209 20129 55000 $", "KBYY 291155Z AUTO 33012G15KT 10SM BKN020 OVC060 15/11 A2990 RMK AO2 T01470117", "KBZN 291156Z 00000KT 10SM CLR 02/M02 A3017 RMK AO2 SLP211 T00221017 10061 20011 53002", "KC09 291155Z AUTO 00000KT 10SM CLR 05/02 A2971 RMK AO2 T00510016 10077 20031", "KC29 291155Z AUTO 30008KT 7SM BKN008 BKN014 OVC035 09/08 A2969 RMK AO1 P0004 60014 70014 T00880081 10098 20051", "KC35 291155Z AUTO 30010G15KT 10SM OVC005 06/06 A2971 RMK AO2 60007 70007 T00600060 10106 20060 PWINO", "KC62 291155Z AUTO 23008KT 3SM BR BKN003 A2973 RMK AO2", "KC65 291155Z AUTO 00000KT 9SM CLR 05/03 A2973 RMK A01", "KC75 291155Z AUTO 00000KT 10SM BKN120 06/05 A2972 RMK AO2 T00640047 10089 20046", "KC99 291135Z AUTO 31006G21KT 10SM CLR M03/M10 A3033 RMK AO2", "KCAD 291155Z AUTO 00000KT 10SM OVC013 08/07 A2966 RMK AO2 T00800065 10090 20075", "KCAE 291156Z 29003KT 10SM FEW170 SCT250 17/15 A2981 RMK AO2 SLP092 T01670150 10183 20150 51012", "KCAG 291153Z AUTO 00000KT 10SM CLR M02/M06 A3030 RMK AO2 SLP257 T10221056 10033 21028 58003", "KCAK 291151Z 21011KT 2SM -RA BR OVC005 11/09 A2970 RMK AO2 SFC VIS 3 SLP060 P0000 60002 70058 T01060094 10106 20100 53004", "KCAO 291155Z AUTO 28012KT 10SM CLR 04/M03 A3016 RMK AO2 SLP199 70001 T00391033 10050 20006 58004", "KCAR 291154Z AUTO 12003KT 10SM CLR 08/03 A3016 RMK AO2 SLP219 T00830033 10083 20039 51010", "KCAV 291155Z AUTO 29006KT 10SM CLR 02/00 A2983 RMK A01", "KCBE 291145Z AUTO 00000KT 3SM BR BKN004 OVC010 09/09 A2987 RMK AO2 T00930088 10096 20091 60001 70057", "KCBF 291155Z AUTO 22005KT 10SM CLR 04/M00 A2989 RMK AO2", "KCBG 291155Z AUTO 00000KT 5SM HZ SCT006 OVC013 04/M02 A2981 RMK AO2 P0001", "KCBK 291135Z AUTO 27009KT 10SM CLR 01/M02 A3008 RMK AO2 T00061020", "KCBM 291155Z AUTO 10006KT 10SM CLR M A2975 RMK AO2 SLPNO ALSTG ESTMD 57017 $", "KCCA 291155Z AUTO VRB04KT 3SM -RA SCT048 BKN055 OVC065 13/13 A2983 RMK AO2 P0004", "KCCB 291155Z AUTO 00000KT 6SM BR 13/11 A3000 RMK AO2", "KCCO 291135Z AUTO 00000KT 10SM CLR 11/11 A2986 RMK AO2 T01100105", "KCCR 291153Z AUTO 29003KT 10SM CLR 11/09 A3000 RMK AO2 SLP146 T01060089 10144 20106 53001", "KCCU 291155Z AUTO 28013KT 10SM CLR M02/M10 A3041 RMK AO2", "KCCY 291155Z AUTO 29007KT 10SM SCT120 03/03 A2979 RMK AO2", "KCDA 291155Z AUTO 00000KT 10SM 07/02 A3009 RMK AO2 T00670024 10082 20033", "KCDC 291153Z AUTO 00000KT 10SM CLR 04/M03 A3025 RMK AO2 SLP202 T00391033 10122 20022 58001", "KCDD 291154Z AUTO 00000KT 10SM BKN044 OVC075 01/00 A2985 RMK AO2 PWINO", "KCDH 291155Z AUTO 00000KT 8SM FEW015 OVC050 15/15 A2973 RMK AO2", "KCDI 291155Z AUTO 20004KT 5SM BR OVC008 11/10 A2976 RMK AO2 T01070101 10107 20100", "KCDJ 291151Z AUTO 32005KT 09/06 A2990 RMK AO1 SLP125 T00890061 10122 20078", "KCDN 291155Z AUTO 00000KT 3SM BR CLR 15/15 A2981 RMK AO2", "KCDR 291153Z AUTO 31013KT 10SM FEW090 08/M02 A3002 RMK AO2 SLP169 T00831017 10100 20033 55002", "KCDS 291153Z AUTO 32008KT 10SM CLR 04/02 A3011 RMK AO2 SLP194 70012 T00440022 10072 20044 51005", "KCDW 291153Z 08009KT 2SM -RA BR FEW007 BKN011 OVC016 09/08 A2992 RMK AO2 SLP138 P0008 60100 70163 T00940078 10094 20083 56006", "KCEC 291156Z AUTO 00000KT 2SM BR OVC002 10/10 A3006 RMK AO2 SLP180 T01000100 10106 20094 51001", "KCEF 291155Z AUTO 03004KT 10SM -RA OVC060 08/06 A3006 RMK AO2 DZE13RAB13 SLP186 P0003 60006 70006 T00750061 10097 20071 53007", "KCEU 291154Z AUTO 00000KT 10SM CLR 13/13 A2983 RMK AO2 SLP094 T01330128 10156 20117 53013", "KCEW 291153Z AUTO 00000KT 1/4SM FG VV002 17/16 A2981 RMK AO2 SLP093 T01720161 10172 20144 58004", "KCEY 291155Z AUTO 00000KT 5SM BR FEW045 SCT060 BKN075 13/13 A2983 RMK A01 P0001", "KCEZ 291153Z AUTO 08003KT 10SM CLR 00/M07 A3027 RMK AO2 SLP217 T00001072 10083 21011 53003", "KCFD 291155Z AUTO 31008G19KT 10SM BKN026 12/09 A2993 RMK AO2 70034 T01230090 10161 20122", "KCFE 291155Z AUTO 35007G14KT 10SM OVC015 04/03 A2981 RMK AO2", "KCFJ 291155Z AUTO 13004KT 10SM CLR 06/02 A2976 RMK AO2 70001 T00550017 10055 20027", "KCFO 291155Z AUTO 20007KT 10SM SCT100 04/M02 A3017 RMK AO2 T00381017 10075 20035", "KCFS 291155Z AUTO 00000KT 1 3/4SM RA OVC003 10/08 A2965 RMK AO2 T00950084 10100 20093", "KCFV 291152Z AUTO 34009KT 10SM OVC070 10/08 A2993 RMK AO2 SLP135 70011 T01000078 10106 20094 53003", "KCGC 291155Z AUTO 00000KT 10SM CLR 20/19 A2988 RMK AO2", "KCGE 291145Z AUTO 27004KT 10SM BKN003 OVC018 15/15 A2980 RMK A01", "KCGF 291145Z 19006KT 2SM BR OVC008 11/10 A2967", "KCGI 291153Z 18007KT 10SM SCT050 BKN065 OVC080 14/13 A2980 RMK AO2 SLP088 T01440128 10150 20139 53001 $", "KCGS 291150Z AUTO 36005KT 7SM OVC006 12/11 A2983 RMK AO2 T01210113 10126 20118 60001 70129", "KCGZ 291156Z AUTO 04009KT 10SM CLR 25/M11 A2998 RMK AO2 SLP135 6//// 7//// T02501106 10267 20183 51006 PNO $", "KCHA 291153Z 29003KT 10SM FEW042 FEW150 SCT250 13/12 A2986 RMK AO2 SLP107 70003 T01330117 10156 20117 53008 $", "KCHK 291155Z AUTO 31008KT 10SM CLR 07/05 A2998 RMK AO2 T00650045 10097 20064 70005", "KCHO 291153Z 20004KT 10SM CLR 11/09 A2984 RMK AO2 SLP103 70135 T01110089 10122 20083 53015", "KCHS 291156Z 27003KT 10SM BKN046 BKN060 22/19 A2982 RMK AO2 SLP098 T02170194 10217 20194 53011", "KCIC 291155Z AUTO 00000KT 10SM CLR 18/11 A2997 RMK AO1", "KCID 291152Z 30006KT 6SM BR FEW070 06/04 A2978 RMK AO2 SLP085 60000 T00560044 10094 20056 58004", "KCIN 291155Z AUTO 28009KT 10SM CLR 03/03 A2987 RMK AO2", "KCIR 291155Z AUTO 20004KT 7SM BKN065 OVC075 15/14 A2981 RMK AO2 T01450135 10158 20140", "KCIU 291156Z AUTO 10013KT 10SM OVC014 08/06 A2974 RMK AO2 SLP072 T00830061 10089 20072 56015", "KCJR 291155Z AUTO 35003KT 10SM OVC014 12/10 A2986 RMK AO2 70117 T01160100 10116 20110", "KCKB 291153Z 19009KT 10SM BKN034 12/09 A2979 RMK AO2 SLP081 70007 T01220089 10128 20100 53007", "KCKC 291155Z AUTO 34012KT 5SM -SN BKN008 OVC033 00/M01 A2971 RMK AO2", "KCKF 291155Z AUTO 00000KT 10SM SCT055 16/15 A2986 RMK AO2 T01590148 10177 20145", "KCKI 291155Z AUTO 00000KT 7SM SCT080 18/17 A2982 RMK AO2", "KCKM 291155Z AUTO 08006KT 10SM BKN100 OVC120 15/15 A2977 RMK A01", "KCKN 291155Z AUTO 00000KT 2 1/2SM BR OVC090 01/00 A2987 RMK AO2", "KCKP 291155Z AUTO 00000KT 10SM SCT110 01/00 A2989 RMK AO2 70001 T00090001 10050 20000", "KCKV 291152Z AUTO 00000KT 4SM BR BKN110 11/09 A2983 RMK AO2 SLP100 T01110094 10111 20089 53001", "KCKZ 291155Z AUTO 07011G15KT 1 1/2SM BR OVC005 09/09 A2986 RMK AO2", "KCLE 291151Z 21009KT 2 1/2SM BR OVC008 11/09 A2966 RMK AO2 RAB24E34 SLP059 P0000 60000 70003 T01110094 10122 20111 53003", "KCLI 291155Z AUTO 02003KT 5SM -RA BR SCT035 OVC046 06/04 A2968 RMK AO2 P0002 T00570042 10068 20040 60002 70002", "KCLK 291155Z AUTO 34004KT 10SM CLR 03/02 A3006 RMK AO2", "KCLL 291153Z AUTO 31007KT 10SM BKN025 13/09 A2991 RMK AO2 SLP126 60001 70080 T01280094 10150 20128 51007", "KCLM 291153Z AUTO 28007KT 10SM CLR 13/07 A2994 RMK AO2 SLP137 T01280067 10150 20100 53008", "KCLS 291155Z AUTO 00000KT 10SM CLR 09/09 A2999 RMK AO2", "KCLT 291152Z 36005KT 2SM BR OVC004 16/14 A2982 RMK AO2 SFC VIS 5 SLP108 T01560144 10167 20156 53015", "KCLW 291155Z AUTO 14003KT 10SM CLR 24/21 A2988 RMK AO2", "KCMA 291155Z AUTO 00000KT 5SM BR OVC004 13/11 A3000 RMK AO2 SLP168 T01280111 10128 20122 58008", "KCMD 291155Z AUTO 00000KT M1/4SM FG OVC001 10/10 A2983 RMK AO2", "KCMH 291151Z 26009KT 7SM FEW011 SCT018 OVC026 11/11 A2975 RMK AO2 RAB23E32 CIG 014 NW SLP073 P0000 60000 70009 T01110106 10117 20111 51009", "KCMI 291153Z 11004KT 10SM CLR 08/04 A2973 RMK AO2 SLP066 T00830039 10083 20061 56007", "KCMR 291155Z AUTO 18007KT 10SM CLR 01/M09 A3029 RMK AO2", "KCMX 291153Z AUTO 00000KT 8SM OVC003 04/03 A2968 RMK AO2 SLP060 70006 T00390028 10050 20033 56017", "KCMY 291055Z AUTO 32003KT 10SM OVC007 05/05 A2973 RMK AO2 SLP072 T00540053 FZRANO $", "KCNB 291155Z AUTO 28004KT 10SM BKN055 OVC065 05/02 A2987 RMK AO2 T00530017 10053 20020", "KCNC 291155Z AUTO 28007KT 10SM CLR 05/05 A2985 RMK AO2", "KCNI 291155Z AUTO 00000KT 7SM BR CLR 13/12 A2985 RMK AO2 T01270121 10156 20109 70002", "KCNK 291155Z AUTO 26006KT 10SM CLR 04/M01 A2998 RMK AO2 SLP156 70003 T00391011 10078 20028 58010", "KCNM 291153Z AUTO 35003KT 10SM CLR 02/M03 A3024 RMK AO2 SLP224 T00171033 10061 20017 51015", "KCNO 291153Z AUTO 27006KT 4SM BR CLR 09/08 A3002 RMK AO2 SLP160 T00940083 10133 20094 56005", "KCNU 291152Z AUTO 34005KT 10SM CLR 09/06 A2994 RMK AO2 SLP138 70008 T00940061 10111 20094 53003", "KCNW 291155Z 31012G18KT 10SM SCT030 12/08 A2994", "KCNY 291153Z AUTO 24004KT 10SM CLR 06/M06 A3022 RMK AO2 SLP209 T00611056 10100 20039 58001", "KCOD 291156Z AUTO 18004KT 10SM CLR 06/M05 A3018 RMK AO2 SLP202 T00561050 10078 20039 58006", "KCOE 291156Z AUTO 07007KT 10SM CLR 07/03 A3008 RMK AO2 SLP196 6//// 7//// T00670028 10117 20056 52003 PNO $", "KCOF 291155Z AUTO 20013KT 10SM CLR 25/23 A2988 RMK AO2 SLP123 T02510227 10251 20232 53013 $", "KCOM 291155Z AUTO 32009G15KT 10SM CLR 09/02 A3008 RMK AO2 T00890022 10102 20089", "KCON 291151Z AUTO VRB03KT 10SM CLR 09/04 A3012 RMK AO2 SLP201 T00940044 10094 20050 51004", "KCOQ 291155Z AUTO 34008KT 10SM -DZ BKN006 OVC010 02/01 A2978 RMK AO2 TSNO", "KCOS 291154Z 34004KT 10SM FEW150 03/M05 A3020 RMK AO2 SLP214 ACSL SW T00281050 10050 20022 57002", "KCOT 291153Z AUTO 31006KT 10SM CLR 14/06 A3007 RMK AO2 SLP175 70050 T01440061 10189 20144 51017", "KCOU 291154Z 31007KT 10SM BKN085 10/08 A2985 RMK AO2 SLP103 T01000078 10128 20100 53006", "KCPC 291145Z AUTO 00000KT 7SM CLR 18/17 A2983 RMK AO2 T01780172", "KCPF 291155Z AUTO 00000KT 1/2SM FG BKN005 08/08 A2985 RMK AO2", "KCPK 291155Z AUTO 32004KT 3SM OVC004 14/14 A2983 RMK AO2 70025 T01410135 10165 20140", "KCPR 291153Z 24006KT 10SM CLR 02/M03 A3016 RMK AO2 SLP197 T00171033 10056 20006 50002", "KCPS 291153Z 27004KT 9SM CLR 12/08 A2978 RMK AO2 SLP084 T01170083 10156 20100 53002", "KCPT 291155Z AUTO 32009KT 10SM OVC029 09/08 A2998 RMK A01", "KCPW 291135Z AUTO 29008KT 10SM CLR M02/M14 A3047 RMK AO2", "KCQB 291155Z AUTO 33009KT 10SM OVC060 09/06 A2997 RMK AO2 T00850064 10095 20084 70006", "KCQC 291153Z AUTO 00000KT 10SM CLR 00/M04 A3027 RMK AO2 SLP233 70007 T00001039 10017 21028 50001 $", "KCQF 291155Z AUTO 3/4SM BR OVC005 17/17 A2978 RMK AO2 VIS 1/4V2 1/2", "KCQM 291157Z AUTO 00000KT 10SM SCT049 BKN070 02/01 A2981 RMK AO2", "KCQT 291147Z AUTO 00000KT 4SM BR OVC007 14/12 A3002 RMK AO2 SLP163 T01390122 10144 20139 56005", "KCQW 291155Z AUTO 05003KT 1/2SM -DZ OVC002 15/15 A2981 RMK AO2", "KCQX 291152Z AUTO 08010KT 10SM SCT005 SCT120 10/08 A3011 RMK AO2 SLP198 T01000078 10106 20078 53001", "KCRE 291153Z 24003KT 10SM FEW080 21/19 A2981 RMK AO1 SLP097 70001 T02110194 10211 20183 53014", "KCRG 291153Z 27003KT 10SM BKN020 BKN029 OVC033 23/21 A2988 RMK AO2 SLP119 T02280206 10233 20217 53018", "KCRP 291151Z 33012G18KT 10SM FEW090 FEW130 15/11 A2999 RMK AO2 SLP152 60000 70032 T01500106 10194 20150 53021 $", "KCRQ 291153Z AUTO 00000KT 8SM OVC006 13/12 A2999 RMK AO2 SLP154 T01330117 10144 20133 56007", "KCRS 291153Z AUTO 32012G21KT 10SM OVC025 13/09 A2991 RMK AO2 SLP127 6//// 7//// T01280089 10133 20128 52001 $", "KCRW 291154Z 00000KT 10SM FEW028 SCT200 11/10 A2983 RMK AO2 SLP098 VLY FG 70012 T01060100 10128 20094 53010 $", "KCRX 291155Z AUTO 00000KT 5SM BR CLR 12/12 A2978 RMK AO2", "KCSG 291151Z AUTO 00000KT 10SM CLR 14/13 A2985 RMK AO2 SLP102 T01440128 10167 20122 50009", "KCSM 291153Z AUTO 32007KT 10SM CLR 03/01 A3006 RMK AO2 SLP179 70012 T00330011 10072 20033 51005", "KCSQ 291155Z AUTO 30008KT 10SM CLR 02/02 A2988 RMK AO2", "KCSV 291153Z AUTO 00000KT 4SM BR FEW002 08/08 A2986 RMK AO2 SLP104 70008 T00830083 10111 20067 53003", "KCTB 291156Z AUTO 10006KT 10SM CLR 05/00 A3014 RMK AO2 SLP197 T00500000 10111 20039 51008", "KCTJ 291135Z AUTO 00000KT 10SM CLR 09/09 A2990 RMK AO2 T00900090", "KCTY 291155Z AUTO 00000KT 5SM HZ CLR 21/ A2986 RMK AO2", "KCTZ 291145Z AUTO 02004KT 10SM CLR 16/16 A2983 RMK AO2 T01600160", "KCUB 291153Z AUTO 00000KT 10SM CLR 16/15 A2982 RMK AO2 SLP097 T01610150 10172 20144 51015", "KCUH 291155Z AUTO 34009G14KT 10SM OVC060 08/06 A2996 RMK AO2 70014 T00830062 10093 20081", "KCUL 291138Z AUTO 21004KT 10SM OVC110 14/11 A2978 RMK AO2", "KCUT 291153Z AUTO VRB06KT 10SM CLR 07/M03 A3004 RMK AO2 SLP148 T00671033 10083 20056 55002", "KCVC 291155Z AUTO 00000KT 7SM CLR 12/12 A2986 RMK AO2", "KCVG 291152Z 24005KT 1/4SM R18C/2200V4000FT FG VV002 08/08 A2979 RMK AO2 TWR VIS 1/2 SLP087 T00830083 10100 20078 53005 $", "KCVH 291155Z AUTO 00000KT 3/4SM BR OVC001 10/10 A3003 RMK A01", "KCVN 291156Z AUTO 30009KT 10SM CLR 03/M04 A3020 RMK AO2 SLP225 T00331039 10033 20000 58006", "KCVO 291156Z AUTO 30009KT 10SM CLR 10/08 A3002 RMK AO2 SLP166 T01000083 10161 20100 51006", "KCVS 291155Z AUTO 32009KT 10SM CLR 04/M05 A3019 RMK AO2 SLP207 T00381049 10046 20029 58004 $", "KCVX 291155Z AUTO 05005KT 10SM OVC013 09/06 A2970 RMK AO2 T00850060 10095 20070", "KCWA 291150Z 30012G17KT 2SM -RA OVC005 04/04 A2968", "KCWC 291155Z AUTO 31012G17KT 10SM CLR 09/05 A3005 RMK AO2 70002 T00880045 10116 20088", "KCWF 291145Z 30011KT 10SM CLR 18/14 A2976", "KCWI 291156Z AUTO 29011KT 10SM OVC010 08/07 A2975 RMK AO2 SLP076 T00830072 10111 20067 55000", "KCWN 291155Z AUTO 29003KT 10SM CLR 06/M08 A3020 RMK AO2 SLP115 T00631077 10081 20051 50001 $", "KCWV 291155Z AUTO 00000KT 5SM BR CLR 18/17 A2986 RMK AO2 T01800173 10199 20162", "KCXE 291155Z AUTO 10SM CLR 11/11 A2984 RMK AO1 70031 T01120112 10116 20091", "KCXO 291153Z 33011G21KT 10SM OVC019 13/11 A2986 RMK AO2 SLP110 70026 T01330106 10167 20133 50009", "KCXP 291155Z AUTO 00000KT 10SM CLR 09/03 A3020 RMK AO2", "KCXU 291155Z AUTO 00000KT 1/4SM OVC002 18/17 A2983 RMK AO1 T01800172 10195 20169", "KCXW 291155Z AUTO 33007KT 2 1/2SM BR SCT008 BKN014 OVC021 14/ A2981 RMK A01", "KCXY 291156Z VRB03KT 3SM BR OVC007 11/08 A2985 RMK AO2 SLP111 60008 70118 T01060083 10106 20100 53005", "KCYD 291155Z AUTO 02009G15KT 3 1/2SM -TSRA SCT012 BKN026 OVC055 23/20 A2971 RMK A02 LTG DSNT E AND W P0048 T02260196 10242 20213 60048 70048", "KCYS 291153Z 31014G25KT 10SM OVC080 09/M05 A3016 RMK AO2 SLP167 T00941050 10094 20056 57001", "KCZL 291155Z AUTO 00000KT 10SM CLR 11/11 A2988 RMK AO2", "KCZT 291135Z AUTO 10SM CLR 12/05 A3009 RMK AO2", "KD07 291156Z AUTO 33019KT 07/00 A2992 RMK AO1 SLP139 T00670000 10106 20061", "KD25 291155Z AUTO 34005KT 4SM -SN OVC005 00/00 A2969 RMK AO2 60009 70016 T00040004 10027 20003", "KD39 291155Z AUTO 29003KT 10SM SCT065 SCT080 00/00 A2984 RMK AO2 T00030003 10034 21005", "KD50 291155Z AUTO 32013KT 10SM CLR 02/01 A3005 RMK AO2", "KD55 291155Z AUTO 35008KT 1SM +RA SCT004 OVC021 03/03 A2988 RMK AO2", "KD57 291155Z AUTO 31010KT 10SM CLR 01/M02 A2994 RMK AO2", "KD60 291155Z AUTO 33014KT 10SM FEW085 03/03 A3002 RMK AO2", "KD73 291155Z AUTO 00000KT 10SM CLR 14/ A2986 RMK AO2 T0140//// 10143 20115", "KD95 291155Z AUTO 00000KT 1/2SM RA OVC003 10/10 A2965 RMK AO2 60009 70040 T00970097 10100 20096 P0001", "KDAA 291155Z AUTO 31005KT 10SM OVC006 12/12 A2982 RMK AO2 SLP101 60001 70170 T01200118 10132 20114 52022 $", "KDAB 291153Z 21004KT 10SM SCT200 22/18 A2989 RMK AO2 SLP120 T02170183 10222 20200 53012 $", "KDAG 291150Z AUTO 25012KT 10SM CLR 20/02 A3000 RMK AO2 SLP133 T02000022 10244 20194 53002", "KDAL 291153Z 33015KT 10SM OVC023 12/08 A2994 RMK AO2 SLP133 70081 T01220078 10133 20122 53006 $", "KDAN 291153Z AUTO 00000KT 1/4SM FG VV001 11/10 A2985 RMK AO2 SLP100 70007 T01060100 10111 20094 51009", "KDAW 291151Z AUTO 00000KT 10SM CLR 09/06 A3013 RMK AO2 SLP202 T00890056 10094 20033 52007", "KDAY 291156Z 24008KT 7SM OVC021 11/09 A2978 RMK AO2 SLP083 70004 T01110089 10111 20106 53007 VISNO RWY 6L $", "KDBN 291130Z AUTO 00000KT 7SM CLR 14/12 A2987 RMK AO2", "KDBQ 291153Z 30011KT 10SM BKN008 OVC100 07/05 A2974 RMK AO2 RAE1058 SLP072 P0000 60009 70009 T00670050 10122 20067 55004", "KDCA 291152Z 01006KT 10SM BKN010 OVC015 13/12 A2984 RMK AO2 RAE01 SLP105 P0000 60003 70140 T01280117 10133 20128 53019 $", "KDCM 291155Z AUTO 00000KT 3/4SM BR OVC003 15/15 A2984 RMK AO2", "KDCU 291153Z AUTO 00000KT 7SM CLR 12/11 A2983 RMK AO2 SLP100 T01170111 10117 20106 57004", "KDCY 291155Z AUTO 16005KT 10SM SCT120 10/10 A2977 RMK AO2 T00970096 10101 20069", "KDDC 291152Z AUTO 28010KT 9SM CLR 04/M01 A3008 RMK AO2 SLP184 T00391006 10044 20028 58004", "KDDH 291154Z AUTO 13010G15KT 10SM -RA OVC080 09/ A3001 RMK AO2 PK WND 14026/1056 SLP165 P0000 60000 T0089 10111 20089 53003 $", "KDEC 291154Z 22003KT 10SM CLR 07/04 A2972 RMK AO2 SLP065 T00670039 10100 20044 56007", "KDED 291130Z AUTO 00000KT 10SM CLR 21/19 A2990 RMK AO2 T02060189", "KDEH 291155Z AUTO VRB03KT 10SM CLR 04/04 A2975 RMK AO2", "KDEN 291153Z 22009KT 10SM BKN095 BKN220 07/M03 A3016 RMK AO2 SLP178 T00671033 10067 20050 56001", "KDEQ 291153Z AUTO 10SM FEW032 OVC070 13/12 A2979 RMK AO2 SLP083 60034 70100 T01330117 10161 20128 53009 $", "KDET 291153Z 14003KT 1 1/2SM BR OVC003 12/09 A2964 RMK AO2 RAE46 SLP037 P0003 60003 70099 T01170094 10117 20106 50001", "KDEW 291153Z AUTO 03003KT 10SM CLR 02/00 A3006 RMK AO2 SLP177 T00220000 10094 20022 51003", "KDFI 291153Z AUTO 22006KT 8SM OVC022 11/09 A2972 RMK AO2 SLP067 70041 T01060089 10106 20100 53013", "KDFW 291153Z 32016G24KT 10SM OVC025 12/08 A2994 RMK AO2 PK WND 34027/1056 SLP134 70006 T01170078 10128 20117 53008", "KDGW 291153Z AUTO 31010KT 10SM 04/M04 A3014 RMK AO2 SLP190 T00441039 10083 20044 $", "KDHN 291153Z AUTO 00000KT 1/4SM FG VV001 17/17 A2985 RMK AO2 SLP105 T01720167 10189 20161 50003", "KDHT 291153Z AUTO 29007KT 10SM CLR 01/M02 A3015 RMK AO2 SLP202 70008 T00111017 10050 20006 58008", "KDIJ 291156Z AUTO 09007KT 10SM CLR M01/M03 A3027 RMK AO2 SLP249 T10061033 10039 21011 56005", "KDIK 291156Z AUTO 31008KT 10SM BKN075 04/00 A2996 RMK AO2 SLP152 7//// T00440000 10078 20039 53013", "KDKK 291153Z AUTO 00000KT 10SM FEW021 FEW028 OVC035 12/07 A2973 RMK AO2 RAB1058E28 SLP069 P0001 60001 70011 T01220072 10122 20111 56002", "KDKR 291155Z AUTO 30007KT 270V330 10SM OVC016 13/12 A2986 RMK AO2", "KDKX 291155Z AUTO 00000KT 1/4SM FG OVC002 11/11 A2986 RMK A01", "KDLF 291155Z AUTO 30010KT 10SM CLR 13/03 A3010 RMK AO2 SLP185 T01260030 10159 20115 53004 $", "KDLH 291155Z 34006KT 10SM OVC004 02/01 A2977 RMK AO2 RAE16SNE16 SLP099 P0000 60003 70011 T00170006 10017 20011 56013 $", "KDLL 291155Z AUTO 31003KT 10SM -DZ OVC005 07/07 A2970 RMK AO2 60004 70004 T00700068 10104 20070", "KDLN 291153Z AUTO 20007KT 10SM CLR 04/M02 A3018 RMK AO2 SLP192 T00391017 10072 20022 50001", "KDLO 291155Z AUTO 00000KT 10SM CLR 14/10 A2996 RMK AO2 T01400101 10197 20135", "KDLP 291155Z AUTO 33011KT 10SM CLR 23/19 A2968 RMK A01", "KDLS 291153Z AUTO 00000KT 10SM CLR 09/06 A2999 RMK AO2 SLP156 T00940056 10156 20089 51004", "KDLZ 291155Z AUTO 25007KT 10SM OVC026 10/08 A2975 RMK AO2", "KDMA 291055Z AUTO 17006KT 10SM CLR 16/M08 A3000 RMK AO2 SLP163 T01631081 RVRNO VISNO RWY30 $", "KDMH 291154Z AUTO 12/11 A2984 RMK AO1 SLP104 70158 T01220111 10128 20122 53020", "KDMN 291153Z AUTO 36005KT 10SM CLR 06/M03 A3025 RMK AO2 SLP196 T00561033 10144 20056 51009", "KDMO 291153Z AUTO 32008KT 10SM OVC070 11/06 A2989 RMK AO2 SLP120 T01060061 10128 20106 53004", "KDMW 291145Z AUTO 03003KT 4SM BR OVC008 11/11 A2983 RMK AO2", "KDNA 291155Z AUTO 00000KT 10SM CLR 06/M02 A3025 RMK AO2", "KDNL 291153Z AUTO 00000KT 10SM CLR 17/13 A2984 RMK AO2 SLP099 T01720133 10189 20161 53015", "KDNN 291155Z AUTO 00000KT 6SM BR CLR 13/13 A2985 RMK AO2 T01310128", "KDNV 291155Z AUTO 00000KT 10SM CLR 07/04 A2975 RMK AO2 T00700038 10080 20048", "KDOV 291155Z AUTO 33007KT 10SM OVC004 14/14 A2977 RMK AO2 CIG 004V006 SLP085 60020 70547 T01390139 10140 20122 53009", "KDPA 291152Z 20003KT 10SM CLR 07/02 A2970 RMK AO2 SLP058 T00670017 10067 20044 56010", "KDPL 291145Z AUTO 03004KT 1 3/4SM BR BKN003 BKN008 15/ A2983 RMK AO2", "KDQH 291155Z AUTO 00000KT 5SM BR CLR 18/18 A2987 RMK AO2 T01810178", "KDRA 291153Z AUTO 00000KT 10SM CLR 13/M05 A3008 RMK AO2 SLP147 T01331050 10211 20117 53000 $", "KDRI 291155Z AUTO 28007KT 9SM BKN049 BKN055 17/16 A2978 RMK AO2 T01700159 $", "KDRM 291155Z AUTO 09007KT 050V110 10SM DZ OVC005 08/07 A2972 RMK AO2 T00780070 10098 20077", "KDRO 291153Z AUTO 35003KT 10SM CLR M01/M08 A3026 RMK AO2 SLP214 T10111083 10067 21022 53006", "KDRT 291153Z AUTO 29006KT 10SM CLR 13/03 A3012 RMK AO2 SLP193 T01330033 10178 20133 53004", "KDSF 291200Z AUTO 12012KT 5SM HZ OVC047 24/21 A2973 RMK A01", "KDSM 291154Z 28007KT 10SM FEW120 04/02 A2986 RMK AO2 SLP116 T00440022 10100 20039 56009", "KDSV 291154Z AUTO 14008KT 10SM SCT019 BKN041 OVC060 08/06 A2980 RMK AO2 RAB28E51 SLP103 P0001 60001 70007 T00830061 10083 20078 56005", "KDTA 291155Z AUTO 08005KT 10SM CLR 05/M07 A3023 RMK AO1", "KDTL 291155Z AUTO 00000KT 8SM OVC075 01/01 A2985 RMK AO2", "KDTO 291153Z 33011KT 10SM BKN028 11/07 A2997 RMK AO2 SLP143 T01060067 10122 20106 53009", "KDTS 291153Z 01003KT M1/4SM FG VV002 19/19 A2980 RMK AO2 SLP091 T01940189 10222 20183 55004", "KDTW 291153Z 31003KT 2SM BR OVC005 10/09 A2965 RMK AO2 SFC VIS 4 DZE39 SLP042 P0000 60002 70065 T01000094 10100 20100 52002 $", "KDUA 291155Z AUTO 34010G17KT 250V360 10SM OVC014 11/07 A2994 RMK AO2", "KDUB 291137Z AUTO 31016KT 10SM CLR 02/M10 A3024 RMK AO2", "KDUC 291155Z AUTO 33008KT 10SM CLR 07/05 A3002 RMK AO2 T00750050 10105 20074 70002", "KDUG 291156Z AUTO 13007KT 10SM CLR 13/M03 A3015 RMK AO2 SLP149 T01281028 10150 20083 51011 TSNO $", "KDUH 291155Z AUTO 26004KT 10SM SCT006 OVC015 10/10 A2968 RMK AO2 T01030103 10105 20096", "KDUJ 291153Z AUTO 13007KT 4SM BR OVC005 08/06 A2977 RMK AO2 SLP083 60002 70057 T00780061 10078 20067 53002", "KDUX 291155Z AUTO 25005KT 10SM CLR 01/M01 A3015 RMK AO2 70018 T00131011 10036 20013", "KDVK 291130Z AUTO 00000KT 5SM BR SCT002 07/07 A2985 RMK AO2", "KDVL 291156Z AUTO 29006KT 10SM -RA OVC038 03/01 A2990 RMK AO2 UPB37E45RAB45 SLP149 P0000 60000 T00280011 10050 20006 55002", "KDVN 291152Z AUTO 31013KT 10SM FEW014 BKN045 OVC090 09/05 A2977 RMK AO2 SLP077 T00890050 10122 20089 55001", "KDVO 291155Z AUTO 34008KT 10SM OVC004 10/09 A3003 RMK AO2", "KDVP 291153Z AUTO 28005KT 10SM OVC060 03/M02 A2987 RMK AO2 T00311018 10036 20005", "KDVT 291153Z AUTO 08006KT 10SM CLR 20/M09 A2998 RMK AO2 SLP127 T02001094 10272 20167 51008", "KDWA 291155Z AUTO 00000KT 10SM BKN046 OVC055 11/10 A2996 RMK AO2", "KDWH 291153Z 32012G22KT 10SM OVC019 14/11 A2987 RMK AO2 SLP112 60000 70055 T01390106 10172 20139 50008", "KDWU 291156Z AUTO 00000KT 10SM FEW045 11/11 A2983 RMK AO2 SLP100 70003 T01110111 10128 20100 53007", "KDWX 291155Z AUTO 03003KT 10SM CLR M01/M04 A3032 RMK AO2 T10131041 10150 21051", "KDXR 291153Z 06007KT 8SM -RA OVC009 08/07 A3000 RMK AO2 CIG 006V014 SLP159 P0012 60059 70061 T00830067 10089 20078 51002", "KDXX 291155Z AUTO 28004KT 10SM CLR 04/02 A2988 RMK AO2", "KDYA 291155Z AUTO 00000KT 7SM CLR A2980 RMK AO2", "KDYB 291155Z AUTO 00000KT 3SM BR BKN070 20/20 A2982 RMK AO2", "KDYL 291154Z AUTO 03006KT 5SM -RA BR OVC009 11/09 A2985 RMK AO2 SLP109 P0002 60061 70181 T01060089 10106 20083 53002", "KDYR 291156Z AUTO 11003KT 2 1/2SM -RA BKN075 OVC085 13/ A2982 RMK AO2 SLP101 P0011 60016 70016 T0128 10128 20122 58004", "KDYS 291155Z AUTO 31009KT 10SM CLR 07/M00 A3007 RMK AO2 SLP175 T00651003 10084 20061 52007", "KDYT 291155Z AUTO 33006KT 10SM -RA OVC024 03/02 A2979 RMK AO2", "KDZB 291155Z AUTO 31005KT 10SM CLR 11/07 A3003 RMK AO2 70056 T01070065 10126 20105", "KDZJ 291155Z AUTO 00000KT M1/4SM FG OVC002 10/10 A2988 RMK AO2 T00980098 10122 20088", "KE11 291135Z AUTO 31004KT 10SM CLR 05/M03 A3021 RMK AO2 T00451033", "KE16 291155Z AUTO 17003KT 1/4SM FG OVC002 10/10 A3004 RMK AO2", "KE38 291155Z AUTO 00000KT 10SM CLR 02/M03 A3030 RMK AO2 T00191034 10075 20016", "KE41 291155Z AUTO 34008KT 10SM CLR 05/M02 A3016 RMK AO2 T00541023 10092 20053", "KE42 291155Z AUTO 29006KT 10SM CLR 02/M01 A3013 RMK AO2 T00171008 10047 20015 70038", "KEAN 291130Z AUTO 26009KT 10SM SCT090 10/M03 A3012 RMK AO2 T00971030", "KEAR 291156Z AUTO 24006KT 10SM CLR 04/M01 A2997 RMK AO2 SLP154 T00391011 10056 20017 58016", "KEAT 291155Z AUTO 31011KT 10SM CLR 11/02 A3002 RMK AO2 SLP163 T01110017 10167 20106 53002 $", "KEAU 291156Z 33006KT 10SM OVC010 03/01 A2976 RMK AO2 SLP083 70019 T00330011 10056 20033 56003", "KEBA 291155Z AUTO 26005KT 10SM CLR 14/13 A2983 RMK AO2 T01440131 10158 20124", "KEBG 291135Z AUTO 33016G20KT 10SM OVC100 17/10 A3003 RMK AO2 T01680100", "KEBS 291135Z AUTO 28008KT 10SM CLR 03/02 A2983 RMK AO2", "KECG 291154Z 30006KT 10SM OVC006 17/16 A2983 RMK AO2 CIG 005V009 SLP101 70048 T01670156 10183 20161 53029", "KECP 291153Z 00000KT 1/2SM R16/1800V2000FT FG VV001 18/17 A2979 RMK AO1 SLP097 60001 70001 T01780167 10200 20167 58005", "KECS 291155Z AUTO 33009KT 10SM CLR 06/M02 A3007 RMK AO2", "KECU 291155Z AUTO 31013G18KT 10SM CLR 09/01 A3013 RMK AO2", "KEDC 291135Z AUTO 31009G17KT 10SM CLR 12/09 A2997 RMK AO2", "KEDE 291150Z AUTO 32006KT 4SM BR OVC003 17/17 A2984 RMK AO2 70035 T01670167 10196 20167", "KEDJ 291155Z AUTO 27007KT 8SM 10/10 A2976 RMK A01", "KEDN 291155Z AUTO 00000KT M1/4SM OVC002 15/15 A2982 RMK AO2 T01520152 10177 20141 PWINO", "KEDU 291150Z AUTO 00000KT 10SM CLR 10/09 A2996 RMK AO1", "KEDW 291155Z AUTO 00000KT 10SM CLR 13/05 A3001 RMK AO2 SLP142 T01280047 10199 20126 53001", "KEED 291156Z AUTO 25003KT 10SM CLR 20/M05 A2994 RMK AO2 SLP108 T02001050 10283 20194 53007", "KEEN 291156Z AUTO 00000KT 10SM OVC110 09/03 RMK AO2 SLPNO T00940028 10094 20072 $", "KEEO 291153Z AUTO 00000KT 10SM CLR M01/M06 A3032 RMK AO2 SLP246 T10111056 10022 21022 55000", "KEET 291153Z AUTO 00000KT 10SM CLR 13/12 A2984 RMK AO2 SLP100 T01330122 10150 20122 53003", "KEFD 291154Z 30018KT 10SM OVC017 16/13 A2983", "KEFK 291155Z AUTO 13006KT 10SM CLR 09/02 A3007 RMK AO2 T00940019 10099 20051", "KEFT 291155Z AUTO 31011KT 10SM DZ BKN004 OVC017 09/08 A2968 RMK AO2 P0001 60001 70001 T00880081 10100 20077", "KEGE 291156Z AUTO 00000KT 10SM CLR M02/M06 A3037 RMK AO2 SLP179 T10171056 10033 21017 53002 FZRANO", "KEGI 291155Z COR AUTO 36003KT 1/4SM FG VV001 16/16 A2979 RMK AO2 SLP088 T01610155 10177 20141 58004 $ COR 1156", "KEGT 291135Z AUTO 32008KT 10SM CLR 04/03 A3001 RMK AO2 T00430032", "KEGV 291155Z AUTO 04003KT 3SM RA OVC004 03/03 A2967 RMK AO2 T00290029 10038 20028", "KEHA 291135Z AUTO 28010KT 10SM CLR 03/00 A3015 RMK AO2 T00271004", "KEHO 291145Z AUTO 04004KT 7SM OVC005 14/14 A2983 RMK AO2 T01400140", "KEHR 291156Z AUTO 21007KT 10SM OVC110 13/11 A2981 RMK AO2 SLP092 T01330111 10133 20094 53002", "KEIK 291155Z AUTO 00000KT 10SM SCT095 04/M01 A3015 RMK AO2 T00401012 10069 20021", "KEKE 291155Z AUTO 34011KT 10SM CLR 23/18 A2969 RMK A01", "KEKM 291155Z 23003KT 9SM CLR 06/06 A2975 RMK AO2 T00570057 $", "KEKN 291151Z AUTO 27007KT 10SM OVC019 11/08 A2982 RMK AO2 SLP100 60000 70009 T01110078 10122 20089 53008", "KEKO 291156Z AUTO 07003KT 10SM CLR 05/M03 A3021 RMK AO2 SLP198 T00501033 10117 20050 51002", "KEKQ 291156Z AUTO 00000KT 3/4SM BR OVC001 08/08 A2987 RMK AO2 SLP112 T00780078 10089 20050 51005 RVRNO", "KEKS 291155Z AUTO 00000KT 10SM CLR 02/M04 A3023 RMK AO2", "KEKX 291155Z AUTO 21004KT 7SM SCT100 10/10 A2983 RMK AO2 T00950095 10095 20065", "KEKY 291156Z AUTO 09004KT 10SM CLR A2984 RMK AO2 SLPNO 70001 57003 FZRANO $", "KELA 291135Z AUTO 32011G17KT 10SM CLR 13/10 A2991 RMK AO2 T01310101", "KELD 291153Z AUTO 00000KT 8SM FEW070 BKN110 14/14 A2973 RMK AO2 LTG DSNT W AND NW SLP065 70047 T01390139 10156 20133 $", "KELK 291155Z AUTO 32008KT 10SM CLR 04/03 A3007 RMK AO2 SLP466 T00430029 $", "KELM 291153Z VRB05KT 2 1/2SM -RA BR BKN010 OVC016 08/06 A2985 RMK AO2 RAE05B39 SLP113 P0000 60009 70025 T00780061 10078 20067 55000", "KELN 291153Z AUTO 00000KT 10SM CLR 07/02 A3003 RMK AO2 SLP162 T00720017 10133 20072 53000", "KELO 291155Z AUTO 00000KT 10SM BKN055 BKN075 02/02 A2980 RMK AO2", "KELP 291151Z 00000KT 10SM CLR 08/M02 A3023 RMK AO2 SLP198 T00781022 10128 20078 53006", "KELY 291153Z AUTO 17009KT 10SM CLR 02/M04 A3027 RMK AO2 SLP188 T00171044 10083 20011 56004 $", "KELZ 291156Z AUTO 15010G19KT 10SM BKN012 OVC020 07/05 A2979 RMK AO2 RAB07E47 SLP097 P0001 60002 70018 T00670050 10067 20050 53001", "KEMM 291155Z AUTO 35007KT 10SM CLR 00/M08 A3030 RMK AO2 TSNO", "KEMP 291153Z AUTO 30006KT 10SM CLR 06/03 A2996 RMK AO2 SLP150 70010 T00560028 10106 20050 50004", "KEMV 291155Z AUTO 31008KT 10SM 11/11 A2986 RMK AO2 6//// 7//// T01120112", "KEND 291155Z AUTO 33009KT 10SM CLR 06/04 A2999 RMK AO2 SLP160 70057 T00600038 10089 20056 51006", "KENL 291155Z AUTO 00000KT 10SM CLR 12/10 A2978 RMK AO2 T01170095 10142 20113", "KENV 291156Z AUTO 00000KT 10SM CLR 06/M07 A3021 RMK AO2 SLP219 T00561067 10106 20050 56000", "KENW 291153Z 00000KT 6SM HZ CLR 07/02 A2970 RMK AO2 SLP058 T00720022 10072 20022 56006", "KEOE 291155Z AUTO 36005KT 7SM SCT002 14/13 A2986 RMK AO2", "KEOK 291135Z AUTO 32011KT 10SM OVC090 09/06 A2981 RMK A01", "KEPH 291153Z AUTO 32005KT 10SM FEW120 10/04 A3000 RMK AO2 SLP154 T01000039 10178 20100 55000", "KEQA 291155Z AUTO 34005KT 10SM CLR 06/04 A2999 RMK AO2", "KEQY 291153Z AUTO 04005KT 1/2SM FG VV002 15/14 A2981 RMK AO2 SLP099 70002 T01500144 10172 20144 52003 $", "KERI 291151Z 16013KT 10SM OVC033 10/07 A2970 RMK AO2 SLP058 60001 70008 T01000072 10100 20094 58003", "KERV 291135Z AUTO 34005KT 10SM CLR 08/05 A3005 RMK AO2 T00820046", "KERY 291155Z AUTO 08004KT 10SM BKN012 OVC021 08/06 A2973 RMK AO2 T00760059 10082 20069", "KESC 291156Z AUTO 09003KT 10SM SCT055 BKN085 08/06 A2970 RMK AO2 SLP064 T00780061 10078 20033 56013", "KESF 291153Z AUTO 27004KT 10SM CLR 17/14 A2974 RMK AO2 SLP070 T01720139 10206 20161 55004", "KESN 291150Z 31003KT 1 3/4SM DZ OVC003 13/13 A2984", "KEST 291152Z AUTO 30009KT 10SM CLR 03/M01 A2984 RMK AO2 SLP111 70004 T00281006 10028 21006 56013", "KETB 291155Z AUTO 00000KT 10SM BKN110 03/02 A2968 RMK AO2", "KETC 291140Z AUTO 29004KT 2 1/2SM BR OVC003 14/14 A2984 RMK AO2 T01400136", "KETH 291153Z AUTO 00000KT 10SM CLR 03/01 A2989 RMK AO2", "KETN 291130Z AUTO 10SM CLR 07/04 A3005 RMK AO2 T00680040", "KEUF 291158Z AUTO 00000KT 6SM BR SCT002 15/15 A2985 RMK AO2 SLP105 T01500150 10150 20122 51007 ", "KEUG 291154Z AUTO 24004KT 10SM CLR 11/09 A3003 RMK AO2 SLP166 T01060089 10172 20106 53004", "KEUL 291156Z AUTO 00000KT 10SM CLR 08/02 A3011 RMK AO2 SLP189 T00780022 10133 20061 53004", "KEVB 291147Z 23005KT 10SM SCT050 28/19 A2988", "KEVM 291142Z AUTO 00000KT 10SM -DZ OVC008 02/02 A2981 RMK AO2", "KEVU 291155Z AUTO 32004KT 7SM CLR 05/03 A2991 RMK AO2 T00560034", "KEVV 291154Z 24004KT 9SM OVC110 13/11 A2979 RMK AO2 SLP087 T01280111 10128 20083 53000 $", "KEVW 291153Z AUTO 15007KT 10SM CLR 02/M07 A3030 RMK AO2 SLP227 T00171067 10050 20011 56002", "KEWB 291153Z 07006KT 10SM BKN110 09/06 A3008 RMK AO2 SLP185 T00940056 10094 20067 53004", "KEWK 291156Z AUTO 31006KT 10SM CLR 03/02 A3001 RMK AO2 SLP165 70005 T00330022 10083 20033 53002", "KEWN 291154Z 27004KT 1 1/4SM BR OVC002 18/18 A2984 RMK AO2 SLP103 70070 T01780178 10189 20178 51017", "KEWR 291151Z 07012G20KT 3SM -RA BR SCT008 OVC012 11/09 A2992 RMK AO2 PK WND 08026/1124 SLP130 P0005 60120 70176 T01110094 10111 20100 56003 $", "KEXX 291150Z AUTO 00000KT 1 1/4SM BR OVC003 13/13 A2984 RMK AO2 T01260126 10150 20126", "KEYE 291153Z AUTO 00000KT 7SM CLR 08/06 A2976 RMK AO2 SLP077 70001 T00780061 55002 $", "KEYF 291150Z AUTO 19003KT 1/2SM FG OVC003 18/18 A2982 RMK AO2 T01780176 10186 20163 70001", "KEYW 291153Z 18008KT 10SM CLR 28/24 A2991 RMK AO2 SLP134 T02780239 10278 20272 53010", "KEZF 291155Z AUTO 35005KT 10SM OVC006 12/12 A2983 RMK AO2 70118 T01180118 10118 20112", "KEZM 291155Z AUTO 00000KT 5SM BR CLR 14/14 A2987 RMK AO2", "KEZS 291155Z AUTO 36003KT 10SM RA SCT048 BKN050 OVC060 07/04 A2967 RMK AO2 T00700039 10077 20049", "KEZZ 291135Z AUTO 30004KT 10SM CLR 06/05 A2992 RMK AO2 T00600046", "KF00 291135Z AUTO 34010G14KT 10SM OVC013 11/09 A2992 RMK AO2 T01130089", "KF05 291155Z AUTO 33009KT 10SM CLR 08/04 A3008 RMK AO2 T00750040 10104 20073", "KF17 291155Z AUTO 31008KT 10SM OVC011 15/12 A2981 RMK AO2", "KF44 291155Z AUTO 33006KT 300V360 10SM OVC017 12/10 A2987 RMK AO2", "KF46 291155Z AUTO 33013G21KT 10SM OVC016 12/10 A2991 RMK AO2 70057 T01180095 10126 20118", "KF70 291155Z AUTO 00000KT 10SM CLR 11/10 A3001 RMK AO2", "KFAF 291155Z AUTO 31007KT 10SM OVC005 13/12 A2981 RMK AO2 SLP098 60000 70033 T01290123 10158 20128 52024 $", "KFAM 291156Z AUTO 30005KT 10SM BKN075 12/09 A2981 RMK AO2 SLP102 T01220089 10139 20117 53001", "KFAR 291153Z 35003KT 10SM BKN100 02/00 A2987 RMK AO2 SLP121 T00170000 10050 20000 56007", "KFAT 291153Z 00000KT 10SM FEW200 19/12 A2995 RMK AO2 SLP139 T01890122 10256 20183 53001", "KFAY 291153Z 03005KT 10SM FEW004 OVC009 17/16 A2981 RMK AO2 SLP090 70022 T01670161 10172 20150 51012", "KFBG 291155Z AUTO 00000KT 10SM OVC003 16/15 A2981 RMK AO2 SLP096 70001 T01560154 10167 20142 52015 $", "KFBL 291155Z AUTO 00000KT 10SM SCT008 OVC013 04/03 A2980 RMK AO2", "KFCI 291156Z AUTO 33005KT 7SM OVC003 11/11 A2984 RMK AO2 SLP117 70118 T01110111 10111 20106 51021", "KFCM 291153Z 35005KT 9SM OVC008 03/03 A2979 RMK AO2 CIG 006V011 SLP095 70012 T00330028 10039 20022 56011", "KFCS 291155Z AUTO 33007KT 10SM CLR 01/M04 A3017 RMK AO2 SLP224 T00121043 10067 20011 58003 $", "KFDK 291147Z 01005KT 7SM OVC060 11/11 A2985", "KFDR 291153Z AUTO 30009KT 10SM CLR 06/04 A3003 RMK AO2 SLP166 70002 T00560039 10106 20056 51007", "KFDW 291155Z AUTO 28003KT 10SM CLR 15/15 A2983 RMK AO1", "KFDY 291153Z AUTO 26011KT 4SM BR BKN007 OVC013 11/09 A2971 RMK AO2 SLP056 60002 70029 T01060094 10117 20106 53013", "KFEP 291135Z AUTO 28004KT 5SM BR OVC007 08/07 A2972 RMK AO2 T00810067", "KFET 291135Z AUTO 30003KT 10SM CLR 00/00 A2992 RMK AO2 T00031001", "KFFA 291155Z AUTO 00000KT 7SM BKN009 OVC014 18/18 A2980 RMK AO2 70097 T01770177 10281 20005", "KFFC 291153Z AUTO 00000KT 9SM CLR 11/11 A2986 RMK AO2 SLP110 T01110106 10122 20094 53011", "KFFL 291135Z AUTO 30010KT 10SM CLR 08/05 A2982 RMK A01", "KFFM 291155Z AUTO 01003KT 5SM BR OVC070 01/01 A2985 RMK AO2", "KFFO 291155Z 22008KT 10SM FEW015 OVC023 11/09 A2974 RMK AO2A CIG 020 RWY05L SLP075 60000 T01070090 10111 20106 53007", "KFFT 291153Z AUTO 00000KT 7SM BKN120 11/09 A2981 RMK AO2 SLP092 T01060094 10106 20078 53000", "KFFX 291155Z AUTO 00000KT 10SM CLR 08/08 A2967 RMK AO2 T00840084 10109 20067", "KFFZ 291154Z 01004KT 10SM CLR 22/M09 A2997 RMK AO2 SLP124 T02171094 10283 20217 51010", "KFGN 291155Z AUTO 00000KT 10SM OVC090 02/01 A2988 RMK AO2", "KFGX 291135Z AUTO 26004KT 7SM CLR 09/08 A2983 RMK AO2 T00850079", "KFHB 291135Z AUTO 22006KT 10SM BKN018 BKN055 22/ A2987 RMK AO2", "KFHR 291153Z AUTO 00000KT 10SM CLR 08/05 A2993 RMK AO2 SLP135 T00780050 10111 20072 53008", "KFHU 291155Z AUTO 00000KT 10SM CLR 15/M09 A3017 RMK AO2 SLP161 T01471094 10191 20139 52009", "KFIG 291154Z AUTO 36004KT 1/2SM FG OVC009 07/06 A2981 RMK AO2 RAE21 SLP100 P0001 60003 70036 T00670061 10067 20061 51003 $", "KFIN 291150Z 00000KT 10SM CLR 20/19 A2988", "KFKL 291156Z AUTO 15007KT 10SM OVC005 08/08 A2974 RMK AO2 SLP077 60001 70043 T00780078 10078 20067 50001", "KFKN 291155Z AUTO 34004KT 1 1/2SM BR OVC002 12/12 A2985 RMK AO2 70039 T01200117 10154 20120", "KFKR 291135Z AUTO 18004KT 5SM BR CLR 05/04 A2975 RMK AO2", "KFKS 291155Z AUTO 00000KT 10SM CLR 06/05 A2969 RMK AO2 T00570050 10115 20028", "KFLD 291153Z AUTO 15004KT 10SM -RA OVC055 07/03 A2968 RMK AO2 RAB30 SLP050 P0000 60000 T00720033 10072 20033 56012", "KFLG 291157Z AUTO VRB04KT 10SM CLR 03/M11 A3031 RMK AO2 SLP196 T00281106 10050 21017 53002", "KFLL 291153Z 15005KT 10SM FEW030 FEW250 26/25 A2991", "KFLO 291153Z 00000KT 6SM BR CLR 18/17 A2982 RMK AO2 SLP093 T01780172 10183 20156 51011", "KFLP 291156Z AUTO 26004KT 2SM -RA BR OVC046 12/12 A2986 RMK AO2 SLP108 P0002 60005 70009 T01220122 10128 20122 53015", "KFLY 291155Z AUTO 31008KT 10SM CLR 03/M06 A3022 RMK AO2 T00251060 10036 20017", "KFME 291149Z AUTO 03004KT 7SM OVC006 11/11 A2984 RMK AO1", "KFMH 291145Z 10009KT 10SM CLR 10/06 A3009", "KFMM 291135Z AUTO 26009KT 10SM BKN110 03/M00 A3013 RMK AO2 LTG DSNT S", "KFMN 291153Z 00000KT 10SM CLR 02/M09 A3023 RMK AO2 SLP211 T00221094 10100 20017 51008", "KFMY 291153Z 00000KT 10SM CLR 26/23 A2989 RMK AO2 SLP123 T02610228 10261 20244 53005", "KFNB 291153Z AUTO 30006KT 10SM CLR 03/01 A2993 RMK AO2 SLP138 T00330011 10100 20022 58005", "KFNL 291156Z 26003KT 10SM OVC100 05/00 A3017 RMK AO2 SLP193 T00500000 10100 20044 53003", "KFNT 291153Z 31005KT 3SM -RA BR BKN004 BKN014 OVC040 09/09 A2964 RMK AO2 RAB23 SLP040 P0001 60006 70056 T00940089 10094 20094 56001", "KFOA 291135Z AUTO 22005KT 10SM CLR 11/09 A2976 RMK AO2", "KFOD 291156Z AUTO 29005KT 10SM FEW055 03/01 A2986 RMK AO2 SLP133 T00330011 10050 20022 56006", "KFOE 291153Z 31006KT 10SM CLR 05/03 A2995 RMK AO2 SLP143 T00500033 10111 20039 53002 $", "KFOK 291153Z 09010G15KT 060V130 7SM -RA OVC065 10/09 A3001 RMK AO2 SLP161 P0000 60024 70030 T01000094 10100 20094 53010", "KFOZ 291153Z AUTO 34003KT 10SM CLR 02/02 A2989 RMK AO2", "KFPK 291155Z AUTO 28004KT 5SM BR SCT006 OVC020 10/09 A2966 RMK AO2 60001 70016 T01000086 10103 20097", "KFPR 291153Z 30003KT 8SM CLR 24/22 A2992 RMK AO2 SLP130 T02390222 10239 20228 53015", "KFPY 291135Z AUTO 00000KT 3SM -RA CLR 21/20 A2986 RMK AO2 T02100203", "KFQD 291145Z AUTO 00000KT M1/4SM FG OVC002 12/12 A2985 RMK AO2", "KFRG 291153Z 07013KT 1 1/2SM +RA BR SCT010 BKN015 OVC022 11/09 A2995 RMK AO2 TWR VIS 1 3/4 SLP140 P0022 60068 70089 T01060089 10106 20094 50006", "KFRH 291155Z AUTO 00000KT 10SM OVC110 10/07 A2978 RMK AO1", "KFRI 291155Z AUTO 20004KT 10SM CLR 04/02 A2999 RMK AO2 SLP157 T00370022 10109 20033 55001", "KFRM 291156Z AUTO 30011KT 10SM CLR 03/01 A2984 RMK AO2 SLP115 70002 T00280006 10044 20017 56013", "KFRR 291155Z AUTO 00000KT 3SM BKN006 OVC013 M37/M38 A2983 RMK AO1", "KFSD 291156Z 00000KT 10SM BKN110 03/M01 A2987 RMK AO2 SLP121 70001 T00281006 10033 20006 57017", "KFSE 291155Z AUTO 00000KT 2 1/2SM BR OVC080 02/01 A2986 RMK AO2", "KFSI 291155Z AUTO 32008KT 10SM CLR 09/05 A2999 RMK AO2 SLP154 70002 T00850045 10106 20083 50006 FZRANO $", "KFSK 291135Z AUTO 34009KT 10SM SCT043 OVC070 10/07 A2992 RMK AO2 T01030074", "KFSM 291153Z 27006KT 9SM BKN027 OVC045 13/12 A2985 RMK AO2 SLP106 60034 70092 T01330117 10144 20133 55000", "KFST 291153Z AUTO 24010KT 10SM CLR 07/M02 A3021 RMK AO2 SLP206 T00671022 10089 20061 53002 $", "KFSW 291135Z AUTO 31010KT 10SM 09/06 A2979 RMK AO2", "KFTK 291155Z AUTO 17003KT 10SM OVC100 10/10 A2979 RMK AO2 SLP090 T00980096 10098 20069 55002", "KFTN 291155Z AUTO 29006KT 10SM CLR 12/07 A3013 RMK A01", "KFTW 291153Z 32017G23KT 10SM OVC026 11/07 A2997 RMK AO2 SLP145 70001 T01110072 10117 20111 53011", "KFTY 291153Z 00000KT 10SM CLR 13/12 A2985 RMK AO2 SLP102 T01280117 10161 20111 53010", "KFUL 291153Z AUTO 00000KT 7SM OVC010 14/12 A3000 RMK AO2 SLP158 T01440117 10144 20139 56006", "KFVE 291153Z AUTO 10006KT 10SM CLR 06/02 A3015 RMK AO2 SLP213 6//// 7//// T00610017 10072 20044 51009 $", "KFVX 291155Z AUTO 00000KT 10SM OVC012 11/10 A2985 RMK AO2 70055 T01050103 10106 20078", "KFWA 291154Z 25007KT 8SM SCT021 BKN180 BKN250 08/06 A2974 RMK AO2 SLP073 70037 T00830061 10106 20078 53007", "KFWB 291155Z AUTO 33003KT 7SM OVC014 12/10 A2987 RMK AO2", "KFWC 291135Z AUTO 00000KT 10SM BKN110 11/10 A2977 RMK AO1 T01110101", "KFWN 291153Z AUTO 02009KT 4SM -RA BR OVC013 09/08 A2993 RMK AO2 RAE06B24 SLP138 P0002 60026 70045 T00890078 10089 20072 51007", "KFWS 291150Z 33021G27KT 10SM OVC028 12/06 A2998", "KFXE 291153Z 15006KT 10SM SCT030 26/25 A2990 RMK AO2 SLP126 6//// 7//// T02610250 10261 20250 50006 PNO", "KFXY 291135Z AUTO 29005KT 10SM BKN041 01/00 A2982 RMK AO2", "KFYE 291155Z AUTO 00000KT 5SM BR BKN075 OVC085 13/13 A2978 RMK A01", "KFYG 291155Z AUTO 00000KT 10SM CLR 10/10 A2981 RMK AO2", "KFYJ 291155Z AUTO 00000KT 7SM OVC004 12/11 A2984 RMK AO1 70085 T01180112 10136 20113", "KFYM 291155Z AUTO 00000KT 8SM CLR 12/12 A2986 RMK A01", "KFYV 291153Z 35005KT 7SM BKN009 OVC013 12/11 A2987 RMK AO2 CIG 007V012 SLP111 60015 70040 T01220106 10122 20122 51007", "KFZG 291135Z AUTO 00000KT 4SM SCT004 18/17 A2985 RMK AO2 T01750169", "KFZY 291154Z AUTO 5SM -RA BR BKN011 OVC031 07/06 A2989 RMK AO2 SLP121 P0012 60037 70040 T00720056 10100 20067 56002", "KGAD 291156Z AUTO 00000KT 10SM CLR 11/11 A2985 RMK AO2 SLP111 6//// 7//// T01060106 10122 20083 56001 PNO $", "KGAF 291155Z AUTO 00000KT 10SM CLR 03/03 A2988 RMK AO2", "KGAG 291153Z AUTO 34007KT 10SM CLR 04/01 A3008 RMK AO2 SLP186 70041 T00390011 10061 20033 50002", "KGAI 291156Z AUTO 00000KT 8SM OVC003 11/11 A2984 RMK AO2 SLP119 60005 70141 T01110106 10111 20100 53015", "KGAO 291135Z AUTO 00000KT 10SM CLR 17/15 A2977 RMK AO2 T01740153", "KGBD 291156Z AUTO 29007KT 10SM CLR 02/00 A3005 RMK AO2 SLP181 T00220000 10061 20011 58004 FZRANO", "KGBG 291135Z AUTO 31009KT 10SM OVC010 09/08 A2977 RMK AO2 T00930083 TSNO", "KGCC 291153Z AUTO 28011KT 10SM CLR 06/M01 A3011 RMK AO2 SLP182 T00561011 10100 20056 51006", "KGCD 291135Z AUTO 10007KT 10SM CLR 09/00 A3010 RMK AO2 T00850002", "KGCK 291154Z AUTO 28007KT 10SM CLR 01/00 A3009 RMK AO2 SLP193 T00110000 10044 20006 58008", "KGCM 291135Z AUTO 34006KT 10SM BKN016 OVC070 10/10 A2992 RMK AO2", "KGCN 291154Z AUTO 00000KT 10SM CLR M01/M09 A3030 RMK AO2 SLP212 T10061089 10017 21022 58002", "KGCY 291155Z AUTO 27004KT 10SM BKN036 13/10 A2986 RMK A01", "KGDA 291155Z AUTO 00000KT 2 1/2SM SCT065 OVC080 12/11 A2983 RMK AO2 T01150111 10122 20107 PWINO", "KGDB 291155Z AUTO 27007KT 10SM CLR 01/00 A2988 RMK AO2 70001 T00110000 10025 20002", "KGDJ 291155Z AUTO 31012G17KT 10SM CLR 10/07 A3001 RMK AO2 T01020065 10117 20100", "KGDP 291151Z AUTO 27004KT 8SM CLR 06/M04 A3027 RMK AO2 SLP227 T00611039 10067 20044 53018 $", "KGDV 291156Z AUTO 32015KT 10SM CLR 05/M02 A3007 RMK AO2 SLP185 T00501017 10094 20044 53014 TSNO", "KGED 291154Z AUTO 00000KT 6SM BR OVC003 15/14 A2978 RMK AO2 SLP085 6//// 7//// T01500139 10161 20144 53018 PNO $", "KGEG 291153Z 07007KT 10SM FEW140 FEW250 11/02 A3005 RMK AO2 SLP166 T01060022 10139 20100 50001", "KGEV 291145Z AUTO 27011G15KT 10SM SCT014 12/08 A2987 RMK AO2 T01180084", "KGEY 291153Z AUTO 00000KT 10SM CLR 02/M04 A3016 RMK AO2 SLP210 T00171044 10083 20011 53001", "KGEZ 291153Z AUTO 17004KT 6SM BR CLR 09/07 A2977 RMK AO2 SLP082 T00890067 10111 20061 53001", "KGFA 291155Z AUTO 07003KT 10SM CLR 04/01 A3011 RMK AO2 SLP205 T00380008 10069 20028 53006 $", "KGFK 291153Z 00000KT 10SM SCT070 OVC090 03/01 A2987 RMK AO2 SLP121 T00280006 10033 20011 56005", "KGFL 291153Z AUTO 00000KT 10SM OVC060 10/04 A3003 RMK AO2 SLP171 T01000039 10100 20056 53002", "KGGE 291155Z AUTO 00000KT 7SM OVC065 20/20 A2983 RMK AO2", "KGGF 291135Z AUTO 27014KT 10SM OVC100 05/M01 A3003 RMK AO2", "KGGG 291153Z 31012KT 10SM OVC009 13/ A2981 RMK AO2 CIG 007V013 SLP090 60019 70020 T0133 10172 20133 50004 $", "KGGI 291155Z AUTO 29006KT 10SM CLR 06/05 A2984 RMK AO2 T00610047 10096 20055", "KGGP 291135Z AUTO 20004KT 7SM CLR 03/02 A2976 RMK AO2", "KGGW 291153Z AUTO 34009KT 10SM CLR 03/M02 A3011 RMK AO2 SLP202 T00331022 10083 20033 53016", "KGHG 291155Z AUTO 09006KT 10SM CLR 10/07 A3011 RMK AO2", "KGHW 291155Z AUTO 35005KT 10SM BKN080 02/01 A2984 RMK AO2", "KGIC 291135Z AUTO 10004KT 7SM CLR 05/00 A3010 RMK AO1", "KGIF 291153Z AUTO 18007KT 10SM CLR 24/22 A2991 RMK AO2 SLP124 T02390222 10244 20228 53011", "KGJT 291153Z AUTO 10008KT 10SM CLR 06/M03 A3026 RMK AO2 SLP218 T00561033 10083 20050 50001", "KGKJ 291153Z AUTO 00000KT 10SM OVC008 08/07 A2971 RMK AO2 SLP063 60000 70024 T00830072 10083 20072 58001", "KGKT 291155Z AUTO 00000KT 10SM SCT044 13/12 A2987 RMK A01", "KGKY 291153Z AUTO 32018G30KT 10SM OVC027 12/07 A2995 RMK AO2 PK WND 31030/1151 SLP138 7//// T01220067 10128 20122 53008 $", "KGLD 291153Z AUTO 28010KT 10SM CLR 01/M03 A3008 RMK AO2 SLP187 T00061033 10006 21006 57008", "KGLE 291135Z AUTO 33009KT 10SM SCT021 OVC030 09/07 A2998 RMK AO2 T00900070", "KGLH 291153Z 10007KT 10SM BKN055 BKN070 16/12 A2974 RMK AO2 SLP078 60000 T01610122 10167 20156 55010", "KGLR 291153Z AUTO 05006KT 1 1/4SM BR OVC003 08/07 A2968 RMK AO2 SLP054 T00830067 10094 20083 58005", "KGLS 291152Z 31019G29KT 10SM BKN016 BKN036 17/14 A2982 RMK AO2 PK WND 31030/1132 SLP098 60011 70038 T01720144 10211 20172 53002", "KGLW 291135Z AUTO 00000KT 1 1/2SM BR VV007 08/08 A2984 RMK AO2 T00800080", "KGLY 291155Z AUTO 33006KT 9SM OVC070 11/07 A2990 RMK AO2", "KGMJ 291135Z AUTO VRB04KT 8SM OVC011 11/11 A2990 RMK AO2", "KGMU 291153Z 05005KT 1/4SM FG VV001 14/13 A2983 RMK AO2 SLP095 T01440133 10167 20139 53015", "KGNA 291156Z AUTO 02009G23KT 03/01 A2974 RMK AO1 SLP078 60019 70047 T00330011 10033 20011 56021", "KGNB 291135Z AUTO 08005KT 10SM CLR M04/M07 A3036 RMK AO2 T10431070", "KGNC 291130Z AUTO 31006KT 10SM CLR 04/M03 A3025 RMK AO2 T00351033", "KGNG 291200Z AUTO 09014KT 10SM 08/00 A3016 RMK AO2", "KGNR 291156Z AUTO 13006KT 10/01 A3011 RMK AO1 SLP203 T01000006 10100 20044 51006", "KGNT 291155Z AUTO 30004KT 10SM CLR 00/M13 A3030 RMK AO2 T00041126 10055 21017", "KGNV 291153Z 00000KT 6SM BR CLR 21/20 A2990 RMK AO2 SLP123 T02060200 10222 20189 51015", "KGOK 291153Z AUTO 33007KT 10SM CLR 07/05 A2998 RMK AO2 SLP157 70021 T00670050 10083 20067 52008", "KGON 291156Z 09016G23KT 10SM OVC049 12/05 A3003 RMK AO2 PK WND 09027/1117 SLP168 60002 70002 T01220050 10122 20111 53000", "KGOO 291155Z AUTO 00000KT 10SM CLR 19/05 A3007 RMK A01", "KGOP 291135Z AUTO 31010G17KT 10SM CLR 11/07 A2997 RMK AO2", "KGOV 291155Z AUTO 04003KT 10SM OVC007 08/07 A2968 RMK AO2 SLP060 T00820073 10086 20081 55009 $", "KGPC 291135Z AUTO 08003KT 7SM CLR 05/05 A2976 RMK AO2 T00540050", "KGPH 291155Z AUTO 31004KT 10SM CLR 08/05 A2992 RMK AO2", "KGPI 291155Z AUTO 00000KT 10SM CLR 01/M01 A3010 RMK AO2 SLP196 T00061011 10061 20000 53002", "KGPM 291150Z 21009G15KT 10SM OVC023 12/07 A2997", "KGPT 291153Z 00000KT 10SM CLR 19/18 A2976 RMK AO2 SLP075 T01940183 10217 20178 58015", "KGPZ 291156Z AUTO 35006KT 10SM -RA BKN004 BKN012 OVC019 02/02 A2984 RMK AO2 RAE1058B16UPB1058E16 SLP119 P0000 60001 70016 T00220022 10028 20022 56003 FZRANO TSNO", "KGRB 291153Z 00000KT 10SM OVC085 06/03 A2967 RMK AO2 SLP052 T00610033 10067 20044 56012 $", "KGRD 291156Z AUTO 21003KT 6SM BR CLR 14/13 A2984 RMK AO2 SLP100 T01390133 10156 20111 53016", "KGRF 291155Z AUTO 00000KT 10SM CLR 09/06 A2995 RMK AO2 SLP145 T00900063 10166 20088 52017 $", "KGRI 291153Z 25011KT 10SM CLR 04/M01 A2995 RMK AO2 SLP151 70003 T00391011 10039 20017 58018", "KGRK 291155Z AUTO 30013KT 10SM CLR 11/06 A2998 RMK AO2 SLP149 70125 T01100063 10119 20108 55002", "KGRN 291135Z AUTO 27009KT 10SM OVC085 07/00 A2998 RMK AO2 T00741005", "KGRR 291153Z 28004KT 10SM SCT023 SCT150 SCT250 11/08 A2968 RMK AO2 SLP052 T01060083 10111 20100 55009 $", "KGRY 291155Z AUTO 34015G31KT 290V360 10SM FEW005 SCT029 OVC036 22/18 A2979 RMK A01", "KGSB 291155Z 00000KT 1/2SM R26/3500V4000FT FG OVC001 15/15 A2980 RMK AO2A SLP094 WND DATA ESTMD 70058 T01530151 10159 20150 52017 $", "KGSH 291153Z AUTO 22007KT 5SM BR CLR 06/04 A2974 RMK AO2 SLP072 60000 70032 T00610044 10111 20050 53006", "KGSO 291154Z 02003KT 1/4SM FG VV002 12/11 A2983 RMK AO2 TWR VIS 1/4 SLP098 70054 T01170111 10139 20111 51015 RVRNO", "KGSP 291153Z 03006KT 1/2SM FG VV002 14/14 A2983 RMK AO2 SLP093 T01440139 10156 20122 52009", "KGTF 291153Z 00000KT 10SM CLR 03/01 A3011 RMK AO2 SLP194 T00330006 10117 20022 53004", "KGTR 291156Z 10005KT 10SM CLR 14/13 A2980 RMK AO2 SLP098 T01390128 10139 20111 56016", "KGTU 291156Z 29010KT 10SM CLR 11/07 A3000 RMK AO2 SLP158 70045 T01060072 10128 20106 53003", "KGUC 291156Z AUTO 00000KT 10SM CLR M03/M06 A3035 RMK AO2 SLP264 T10281061 10022 21044 52001 FZRANO", "KGUL 291200Z AUTO 20008KT 7SM FEW004 SCT055 BKN075 21/17 A2976 RMK A01", "KGUP 291153Z AUTO 00000KT 10SM CLR M03/M12 A3030 RMK AO2 SLP204 T10331122 10039 21039 51006", "KGUR 291155Z AUTO 30004KT 9SM FEW100 04/01 A3010 RMK AO2 SLP201 T00370012 10084 20026 55002", "KGUS 291155Z AUTO 21004KT 10SM CLR 06/04 A2974 RMK AO2 SLP076 70021 T00590037 10090 20033 51002 TSNO $", "KGUY 291153Z AUTO 28008KT 10SM CLR 03/01 A3012 RMK AO2 SLP190 T00330006 10056 20028 58009", "KGVE 291155Z AUTO 00000KT 10SM SCT013 12/10 A2984 RMK AO1 70135 T01150104 10115 20103", "KGVL 291153Z AUTO 24003KT 10SM CLR 14/13 A2986 RMK AO2 SLP100 T01390128 10161 20117 53009", "KGVQ 291156Z AUTO 12007KT 10SM OVC040 08/05 A2978 RMK AO2 SLP085 60000 70010 T00780050 10078 20067 56006", "KGVT 291135Z AUTO 33013G17KT 10SM OVC016 12/10 A2990 RMK AO2 TSNO T01190096", "KGVW 291200Z AUTO 31024G31KT 10SM SCT016 SCT020 BKN029 18/15 A2981 RMK A01", "KGWB 291135Z AUTO 23005KT 5SM BR OVC023 09/09 A2973 RMK AO2", "KGWO 291153Z AUTO 07003KT 10SM CLR 16/12 A2976 RMK AO2 SLP077 T01560117 10161 20144 55011", "KGWR 291155Z AUTO 30005KT 10SM SCT075 04/04 A2987 RMK A01", "KGWW 291150Z AUTO 29003KT 1/4SM OVC001 15/15 A2984 RMK AO2 70044 T01450145 10158 20145", "KGXA 291155Z AUTO 26004KT 10SM CLR 14/M02 A3003 RMK AO2 SLP140 WND DATA ESTMD T01431018 10180 20142 57003", "KGXF 291155Z AUTO 11008KT 10SM CLR 20/M11 A2992 RMK AO2 SLP120 T01951107 10263 20192 51005 FZRANO $", "KGXY 291156Z AUTO 20003KT 10SM OVC100 07/01 A3016 RMK AO2 SLP206 7//// T00670006 10089 20044 58001", "KGYB 291155Z AUTO 32010G18KT 10SM CLR 12/09 A2995 RMK AO2 70069 T01200085 10151 20120", "KGYF 291135Z AUTO 01007KT 10SM TSRA OVC120 A2986 RMK AO2 LTG DSNT E THRU W P0004", "KGYH 291147Z 04005KT 1/4SM FG OVC001 13/13 A2983", "KGYI 291150Z 33012G18KT 10SM OVC016 11/08 A2995", "KGYL 291155Z AUTO 31009KT 10SM SCT010 SCT027 04/02 A2982 RMK AO2 70012 T00350020 10042 20025", "KGYY 291145Z 18004KT 10SM CLR A2973", "KGZH 291153Z AUTO 00000KT 7SM CLR 12/12 A2982 RMK AO2 SLP096 T01220117 10144 20117 50004", "KGZL 291135Z AUTO 33007G15KT 9SM OVC008 12/11 A2988 RMK AO2", "KGZN 291140Z AUTO 30009KT 10SM CLR 07/04 A3003 RMK AO2", "KGZS 291155Z AUTO 00000KT M1/4SM FG OVC002 11/11 A2984 RMK A01", "KHAE 291155Z AUTO 32010KT 10SM BKN100 10/06 A2981 RMK AO2", "KHAF 291155Z AUTO 07003KT 2SM BR OVC003 09/09 A3004 RMK AO2", "KHAI 291155Z AUTO 22005KT 4SM BR CLR 09/08 A2972 RMK AO2 T00900078 10115 20065", "KHAO 291153Z AUTO 00000KT 7SM CLR 11/09 A2980 RMK AO2 SLP092 T01060089 10122 20089 53004", "KHBG 291153Z AUTO 00000KT 10SM CLR 13/13 A2976 RMK AO2 SLP077 T01330128 10161 20133 58022", "KHBI 291145Z AUTO 00000KT 1/2SM FG OVC002 13/13 RMK AO2 T01300130", "KHBR 291153Z AUTO 33009KT 10SM CLR 06/03 A3006 RMK AO2 SLP180 70018 T00560028 10072 20044 51008", "KHBV 291135Z AUTO 34011G18KT 10SM CLR 15/07 A3006 RMK AO2 T01500065", "KHCD 291155Z AUTO 32008KT 10SM CLR 03/02 A2984 RMK AO2 70010 T00330016 10054 20022", "KHCO 291155Z AUTO 09003KT 10SM SCT080 OVC100 02/02 A2986 RMK AO2", "KHCR 291135Z AUTO 10SM CLR 00/M05 A3028 RMK AO2", "KHDC 291155Z AUTO 00000KT 10SM CLR 16/15 A2973 RMK AO2 T01550150 10165 20141", "KHDE 291155Z AUTO 26008KT 10SM CLR 03/M01 A2998 RMK AO2 T00311011 10041 20029", "KHDL 291155Z AUTO 00000KT M1/4SM FG OVC002 16/16 A2982 RMK AO2", "KHDN 291156Z AUTO 10007KT 10SM CLR 01/M04 A3032 RMK AO2 SLP254 T00061044 10039 20000 57003 FZRANO", "KHDO 291151Z AUTO 32007KT 10SM CLR 10/06 A3005 RMK AO2 SLP166 60000 T01000056 10156 20100 51004", "KHEF 291156Z 36007KT 10SM OVC006 12/11 A2984 RMK AO2 SLP110 60000 70112 T01170106 10117 20106 51015", "KHEG 291155Z AUTO 00000KT 9SM SCT020 SCT025 BKN039 21/20 A2990 RMK AO2", "KHEI 291153Z AUTO 31010KT 10SM CLR 07/M01 A2997 RMK AO2 SLP152 T00671006 10100 20056 53011", "KHEQ 291155Z AUTO 28009KT 10SM SCT100 05/M01 A3007 RMK AO2", "KHEY 291158Z AUTO 00000KT 1SM BR VV002 16/16 A2979 RMK AO2 VIS 1/8V1 SLP088 RVRNO", "KHEZ 291156Z AUTO 00000KT 10SM CLR 17/14 A2974 RMK AO2 SLP070 T01670144 10183 20150 56014", "KHFD 291153Z 35004KT 9SM -RA FEW050 OVC060 09/07 A3006 RMK AO2 SLP178 P0002 60013 70013 T00940067 10106 20083 53005", "KHFF 291155Z AUTO 11004KT 1 3/4SM BR OVC003 15/15 A2980 RMK AO2 SLP092 T01520150 10174 20137 52014 $", "KHFJ 291155Z AUTO 33005KT 5SM BR OVC006 10/10 A2989 RMK AO2", "KHFY 291155Z AUTO 00000KT 7SM CLR 07/07 A2978 RMK AO2 T00720072 10095 20056", "KHGR 291153Z 01005KT 7SM FEW004 OVC009 10/09 A2983 RMK AO2 SLP112 70071 T01000089 10100 20089 52006 $", "KHHF 291155Z AUTO 00000KT 10SM CLR 04/01 A3011 RMK AO2 T00360007 10061 20035", "KHHG 291155Z AUTO 26005KT 10SM CLR 07/06 A2975 RMK AO2 70036 T00660055 10100 20057", "KHHR 291153Z AUTO 26004KT 5SM HZ OVC006 14/11 A3002 RMK AO2 SLP164 T01440111 10156 20144 58005", "KHHW 291135Z AUTO 33010G16KT 2SM -DZ 11/09 A2987 RMK AO2", "KHIB 291153Z AUTO 34006KT 10SM BKN025 OVC040 02/02 A2980 RMK AO2 SLP106 60009 70036 T00220017 10022 20017 56012", "KHIE 291152Z AUTO 14010G16KT 10SM CLR 10/M01 A3007 RMK AO2 SLP188 T01001011 10100 21017 58003", "KHIF 291155Z AUTO 06013G21KT 10SM CLR 07/M04 A3019 RMK AO2 SLP193 T00731042 10106 20073 56004", "KHII 291155Z AUTO 00000KT 10SM CLR 22/M07 A2992 RMK AO2", "KHIO 291153Z 01003KT 10SM CLR 09/08 A2999 RMK AO2 SLP151 T00940083 10189 20094 51018", "KHJH 291135Z AUTO 28003KT 10SM CLR 01/M01 A2999 RMK AO2 T00121011", "KHJO 291153Z AUTO 33005KT 10SM CLR 17/12 A2995 RMK AO2 SLP141 T01720122 10250 20161 55000", "KHKA 291153Z AUTO 00000KT 2 1/2SM RA BR BKN065 OVC080 14/13 A2980 RMK AO2 SLP091 P0007 60010 70010 T01390128 10144 20133 51002 $", "KHKS 291153Z 12005KT 10SM CLR 16/13 A2973 RMK AO2 SLP061 T01610133 10167 20150 56022 $", "KHKY 291153Z 08003KT 1/4SM FG VV002 13/13 A2983 RMK AO2 SLP085 70003 T01330128 10150 20133 53010", "KHLB 291155Z AUTO 00000KT 1SM BR BKN002 07/07 A2978 RMK A01", "KHLC 291153Z AUTO 27007KT 10SM CLR 02/M02 A3005 RMK AO2 SLP180 T00171022 10044 20006 58011", "KHLG 291153Z AUTO 20009KT 10SM BKN012 BKN030 OVC038 11/09 A2975 RMK AO2 SLP078 70057 T01110089 10111 20100 53006", "KHLN 291153Z 00000KT 10SM CLR 06/00 A3014 RMK AO2 SLP212 T00560000 10117 20050 51004", "KHLR 291155Z AUTO 31017KT 9SM CLR 11/07 A2997 RMK AO2 SLP145 70121 T01110070 10119 20106 55003", "KHLX 291155Z AUTO 00000KT 1/4SM FG OVC002 11/11 A2984 RMK AO2 70050 T01090109 10125 20104", "KHMN 291155Z AUTO 19005KT 10SM CLR 05/M03 A3028 RMK AO2 SLP220 T00521034 10110 20051 51015 $", "KHMP 291155Z AUTO 00000KT 10SM CLR 11/11 A2989 RMK AO2 T01120110 10114 20087", "KHMT 291155Z AUTO 00000KT 2SM BR CLR 11/ A3001 RMK AO2 VIS 3/4V5 T0106//// 10143 20096", "KHMZ 291155Z AUTO 00000KT 2 1/2SM BR OVC005 08/07 A2983 RMK AO2 60002 70051 T00760072 10076 20070", "KHNB 291156Z AUTO 17005KT 9SM OVC120 11/10 A2980 RMK AO2 SLP090 T01110100 10111 20078 53001", "KHND 291156Z AUTO 19007KT 10SM CLR 17/M07 A3006 RMK AO2 SLP175 T01671072 10211 20156 53002", "KHNR 291155Z AUTO 28009KT 10SM CLR 03/03 A2990 RMK A01", "KHNZ 291155Z AUTO 00000KT 10SM BKN003 11/10 A2985 RMK AO2 70003 T01050104 10115 20101", "KHOB 291150Z 30008KT 10SM SKC 03/M03 A3022", "KHOE 291155Z AUTO 00000KT 5SM BR CLR 18/17 A2986 RMK AO2 T01850177", "KHON 291155Z AUTO 10004KT 10SM BKN085 OVC110 04/02 A2984 RMK AO2 SLP111 T00390017 10039 20011 56019", "KHOP 291155Z AUTO 00000KT 10SM CLR 11/11 A2982 RMK AO2 SLP099 60000 T01130111 10113 20103 55000", "KHOT 291153Z AUTO 36010KT 2SM +RA BR FEW014 BKN048 OVC070 14/12 A2982 RMK AO2 SLP094 P0026 60070 70077 T01390122 10150 20133 53027", "KHOU 291153Z 32013G23KT 10SM BKN017 OVC040 15/11 A2985 RMK AO2 SLP113 60000 70021 T01500111 10200 20150 52010", "KHPN 291156Z 08015G21KT 2SM RA BR BKN006 OVC009 09/08 A2994 RMK AO2 SLP141 P0023 60095 70124 T00890078 10089 20078 58002", "KHPT 291155Z AUTO 28008KT 10SM CLR 03/01 A2982 RMK AO2", "KHQG 291155Z AUTO 29008KT 10SM CLR 01/00 A3012 RMK AO2 T00120000 10036 20011", "KHQG 291155Z AUTO 29008KT 10SM CLR 01/00 A3012 RMK AO2 T00120000 10036 20011", "KHQM 291153Z AUTO 21006KT 10SM OVC012 12/09 A3003 RMK AO2 SLP171 T01170089 10156 20117 53015", "KHQU 291155Z AUTO 00000KT 10SM CLR 13/12 A2984 RMK AO2 T01330124 10145 20113", "KHQZ 291150Z 31015G23KT 10SM OVC019 12/09 A2992", "KHRF 291200Z AUTO 15004KT 10SM 04/M02 A3015 RMK AO2 Hamilton ", "KHRI 291153Z AUTO 00000KT 10SM CLR 09/06 A2999 RMK AO2 SLP152 T00890061 10133 20078 53005 $", "KHRJ 291145Z AUTO 01005KT 10SM OVC005 16/15 A2984 RMK AO2 T01560148 10166 20150 70005", "KHRL 291152Z 33016G23KT 10SM OVC110 17/12 A3001 RMK AO2 PK WND 33031/1105 SLP162 60065 70065 T01720122 10250 20167 53036 $", "KHRO 291153Z AUTO 32006KT 8SM OVC010 12/11 A2986 RMK AO2 CIG 007V014 SLP107 60010 70012 T01170106 10122 20111 51011", "KHRT 291155Z AUTO 00000KT 1/8SM -DZ FG VV000 17/16 A2978 RMK AO2 DZB02 SLP086 P0000 60000 T01660159 10208 20154 55007 RVRNO $", "KHRX 291155Z AUTO 28008KT 10SM CLR 01/M01 A3018 RMK AO2 70002 T00121010 10021 20000", "KHSA 291150Z 00000KT 10SM CLR 15/15 A2975", "KHSB 291155Z AUTO 00000KT 10SM OVC110 13/13 A2980 RMK AO2 T01300130 10130 20110", "KHSD 291155Z AUTO 31012KT 10SM CLR 07/05 A3000 RMK A01", "KHSE 291151Z AUTO 27005KT 6SM BR CLR 21/21 A2981 RMK AO2 SLP095 60000 70046 T02060206 10206 20183 53025 $", "KHSG 291155Z AUTO 02004KT 10SM CLR 01/M03 A3018 RMK AO2 T00091032 10086 20009", "KHSI 291153Z AUTO 27011KT 10SM CLR 04/M01 A2997 RMK AO2 SLP153 70001 T00391011 10039 20006 58016", "KHSP 291135Z AUTO 25011G17KT 1SM BR OVC002 10/09 A2984 RMK AO2 VIS 1/4V5 T00950090", "KHST 291155Z AUTO 00000KT 10SM FEW050 26/25 A2992 RMK AO2 SLP135 T02560245 10256 20236 52013", "KHSV 291156Z 00000KT M1/4SM R18R/0800V1800FT FG VV002 12/12 A2983 RMK AO2 T01170117", "KHTH 291155Z AUTO 22005KT 10SM CLR 13/M00 A3016 RMK A01", "KHTS 291151Z 23004KT 10SM FEW040 11/09 A2981 RMK AO2 SLP093 T01060089 10122 20094 53007", "KHUA 291155Z AUTO 00000KT 1/4SM R17/2000V2600FT FG VV001 11/10 A2983 RMK AO2 SLP100 T01060104 10119 20094 55004", "KHUF 291153Z 12003KT 10SM CLR 08/07 A2975 RMK AO2 SLP074 70003 T00830067 10083 20050 56005", "KHUL 291153Z AUTO 00000KT 10SM CLR 08/02 A3017 RMK AO2 SLP219 T00830022 10083 20006 51011", "KHUM 291147Z 00000KT 7SM CLR 17/16 A2976", "KHUT 291152Z 31006KT 10SM CLR 01/M01 A3002 RMK AO2 SLP163 70001 T00061006 10083 20000 56001", "KHVC 291155Z AUTO 00000KT 3SM BR CLR 11/11 A2982 RMK AO2", "KHVE 291155Z AUTO 00000KT 10SM CLR 02/M10 A3026 RMK AO2", "KHVN 291153Z 09011G24KT 4SM -RA BKN039 BKN050 OVC060 11/08 A3002 RMK AO2 SLP166 P0004 60022 70023 T01110083 10117 20100 53006", "KHVR 291153Z AUTO 07007KT 10SM CLR 06/00 A3013 RMK AO2 SLP204 T00560000 10111 20056 53004", "KHVS 291155Z AUTO 00000KT 8SM CLR 16/16 A2981 RMK AO2", "KHWD 291154Z AUTO 33005KT 10SM OVC006 12/10 A3002 RMK AO2 SLP176 T01170100 10122 20111 55000", "KHWO 291153Z 13006KT 10SM CLR 26/24 A2993 RMK AO2 SLP133 70002 T02610239 10267 20250 50012 $", "KHWV 291156Z AUTO 10010G22KT 060V140 2 1/2SM +RA BR FEW041 BKN055 OVC070 10/08 A2995 RMK AO2 SLP143 P0013 60045 70055 T01000083 10100 20094 58006", "KHWY 291155Z AUTO 00000KT 10SM OVC011 12/11 A2984 RMK AO2 70125 T01200105 10120 20112", "KHXD 291150Z 22006KT 10SM CLR 21/20 A2984", "KHYA 291156Z 11010KT 10SM SCT120 10/06 A3008 RMK AO2 SLP186 T01000056 10100 20056 56002", "KHYI 291156Z 32012KT 10SM CLR 12/08 A2999 RMK AO2 SLP151 70049 T01170083 10150 20111 50008", "KHYR 291153Z AUTO 35003KT 3SM BR OVC005 02/01 A2976 RMK AO2 CIG 004V010 SLP091 70045 T00170006 10022 20017 56012", "KHYS 291156Z AUTO 26005KT 10SM CLR 01/M02 A3005 RMK AO2 SLP183 T00061022 10039 20000 58007 FZRANO $", "KHYW 291155Z AUTO 00000KT 7SM CLR 19/18 A2983 RMK AO2", "KHYX 291155Z AUTO 29006KT 2SM RA OVC006 09/09 A2966 RMK AO2 T00930093 10097 20090", "KHZD 291155Z AUTO 22004KT 2 1/2SM BR FEW055 SCT065 BKN080 12/12 A2983 RMK A01", "KHZE 291155Z AUTO 23005KT 10SM BKN090 M01/M01 A2997 RMK AO2", "KHZL 291155Z AUTO 11012G18KT 080V140 07/06 A2986 RMK AO2 PWINO P0002", "KHZR 291135Z AUTO 16003KT 10SM SCT110 18/15 A2970 RMK AO2 T01800151", "KHZX 291155Z AUTO 35006KT 1 1/2SM OVC004 03/02 A2981 RMK AO2", "KHZY 291153Z AUTO 16008KT 10SM BKN008 OVC033 10/08 A2970 RMK AO2 SLP059 60000 70003 T01000078 10100 20094 58001", "KI16 291155Z AUTO 7SM SCT007 SCT015 OVC027 12/12 A2989 RMK AO2 7//// T01220117 10140 20110", "KI19 291155Z AUTO 26007KT 10SM OVC022 11/10 A2977 RMK AO2", "KI23 291155Z AUTO 24007KT 10SM OVC026 10/09 A2977 RMK AO1", "KI35 291143Z AUTO 00000KT M1/4SM OVC002 11/11 A2987 RMK AO2", "KI63 291155Z AUTO 31012KT 10SM BKN013 09/07 A2978 RMK AO2 T00930070 10130 20090", "KI67 291155Z AUTO 20004KT 5SM SCT004 08/08 A2980 RMK AO1", "KI68 291155Z AUTO 25004KT 10SM 11/09 A2979 RMK AO1 7//// T01110092 10115 20106", "KI69 291155Z AUTO 21003KT 5SM BR CLR 10/09 A2981 RMK AO2 T00950089 10120 20088", "KI74 291155Z AUTO 25003KT 7SM SCT010 OVC016 10/10 A2976 RMK AO2", "KI75 291155Z AUTO 27005KT 10SM CLR 05/03 A2986 RMK AO2 T00460032 10097 20040", "KI95 291155Z AUTO 27008G15KT 8SM OVC018 10/10 A2972 RMK A01", "KIAB 291155Z AUTO 33011KT 10SM CLR 05/03 A2997 RMK AO2 SLP156 70008 T00530026 10081 20053 52006 $", "KIAD 291152Z 33004KT 2 1/2SM R01R/4500V5500FT BR OVC004 11/11 A2984 RMK AO2 SLP103 60002 70113 T01110106 10111 20106 53015", "KIAG 291153Z COR 10SM OVC032 09/06 A2975 RMK AO2 SLP079 70010 T00940061 10094 20089 56006 $", "KIAH 291153Z 31011G24KT 10SM OVC019 14/11 A2986 RMK AO2 SLP111 70034 T01440111 10178 20144 50014", "KIBM 291155Z AUTO 27005KT 10SM OVC090 04/M01 A3011 RMK AO2 T00411015 10045 20000", "KICR 291153Z AUTO 26015KT 10SM CLR 10/02 A2983 RMK AO2 SLP102 T01000017 10100 20039 58025 PWINO $", "KICT 291153Z 33007KT 10SM CLR 04/02 A3000 RMK AO2 SLP162 70014 T00440022 10089 20044 51003", "KIDA 291153Z AUTO 00000KT 10SM CLR 03/M03 A3023 RMK AO2 SLP222 T00281028 10072 20022 50000", "KIDI 291155Z AUTO 16005KT 9SM OVC028 10/09 A2981 RMK A01", "KIDP 291155Z AUTO 34011KT 10SM SCT070 09/06 A2995 RMK AO2 T00890064 10104 20088 70007", "KIEN 291152Z AUTO 00000KT 10SM BKN085 07/00 A3000 RMK AO2 SLP158 7//// T00720000 10089 20039 55003", "KIER 291155Z AUTO 21003KT 10SM SCT013 SCT025 OVC065 15/15 A2976 RMK AO2 70007 T01530152 10177 20151", "KIFA 291155Z AUTO 28009KT 10SM CLR 03/02 A2984 RMK AO2 T00270022 10065 20022", "KIFP 291155Z AUTO 00000KT 10SM CLR 23/M04 A2992 RMK AO2", "KIGM 291151Z AUTO 12010KT 10SM CLR 14/M10 A3011 RMK AO2 SLP129 T01441100 10206 20094 50001", "KIGQ 291155Z AUTO 20003KT 10SM CLR 03/01 A2973 RMK AO2 T00280005 10045 20009", "KIIB 291155Z AUTO 30007KT 4SM BR SCT003 04/04 A2980 RMK AO2 T00400038 10080 20026 60001 70001", "KIIY 291155Z AUTO 22003KT 10SM CLR 14/13 A2985 RMK AO2 T01420129 10170 20121", "KIJD 291152Z AUTO 07006KT 10SM BKN075 OVC090 09/04 A3006 RMK AO2 RAB14E44 SLP180 P0000 60000 T00890044 10094 20078 53003", "KIJX 291155Z AUTO 29008KT 10SM CLR 10/09 A2977 RMK AO2 T01010085 10128 20085", "KIKG 291155Z AUTO 31006KT 10SM CLR 15/09 A3003 RMK AO2 7//// T01450089 10195 20145", "KIKK 291135Z AUTO 15004KT 10SM CLR 03/01 A2974 RMK AO2 T00330005 PWINO", "KIKV 291155Z AUTO 28007KT 10SM SCT060 05/03 A2986 RMK AO2", "KIKW 291155Z AUTO 36004KT 1 3/4SM BR OVC004 09/09 A2966 RMK AO2 60006 70009 T00870087 10094 20085", "KILE 291156Z AUTO 31009G15KT 10SM CLR 12/07 A2998 RMK AO2 SLP147 7//// T01170067 10122 20111 55002", "KILG 291151Z 04013KT 10SM OVC007 13/11 A2981 RMK AO2 SLP094 60026 70176 T01280111 10128 20111 50006 $", "KILM 291153Z 23003KT 6SM BR CLR 22/20 A2982 RMK AO2 SLP098 70001 T02170200 10217 20200 53015 $", "KILN 291154Z AUTO 25007KT 10SM OVC024 12/08 A2978 RMK AO2 SLP091 70004 T01170083 10117 20111 53008", "KIML 291153Z AUTO 26012G26KT 10SM OVC100 03/M03 A3004 RMK AO2 PK WND 27026/1144 SLP177 T00331033 10044 20011 58013", "KIMM 291155Z AUTO 00000KT 7SM CLR A2990 RMK AO2", "KIMS 291155Z AUTO 00000KT 3SM BR CLR 07/07 A2982 RMK AO2", "KIMT 291154Z AUTO 31004KT 10SM SCT120 04/02 A2967 RMK AO2 SLP054 T00440022 10056 20028 56011", "KIND 291154Z 00000KT 10SM SCT150 BKN200 08/06 A2976 RMK AO2 SLP079 70001 T00780056 10083 20056 56000", "KINF 291155Z AUTO 00000KT 3SM BR CLR 20/20 A2990 RMK AO2", "KINJ 291155Z AUTO 32012KT 10SM OVC028 11/09 A2994 RMK AO2 70024 T01100090 10126 20110", "KINK 291153Z AUTO VRB04KT 10SM CLR 03/M04 A3020 RMK AO2 SLP214 T00281044 10078 20028 53006 $", "KINL 291154Z AUTO 36004KT 10SM CLR 02/M01 A2984 RMK AO2 SLP119 70006 T00171011 10039 20006 56006", "KINS 291155Z AUTO 00000KT 10SM CLR 12/M07 A3009 RMK AO2 SLP152 T01211074 10198 20113 53001 $", "KINT 291154Z 02004KT 1SM BR VV002 12/12 A2985 RMK AO2 SLP104 70130 T01220117 10139 20117 53014", "KINW 291156Z AUTO 19004KT 10SM CLR 03/M13 A3026 RMK AO2 SLP210 T00331133 10128 20028 53006", "KIOB 291155Z AUTO 24004KT 2 1/2SM CLR 08/08 A2985 RMK AO2 PWINO", "KIOW 291152Z AUTO 32007KT 10SM BKN100 08/05 A2980 RMK AO2 SLP091 60000 T00830050 10117 20083 56003", "KIPJ 291145Z AUTO 00000KT 2SM BR OVC003 14/14 A2984 RMK AO2 T01400137", "KIPL 291153Z AUTO 00000KT 10SM CLR 19/07 A2983 RMK AO2 SLP104 T01890072 10272 20189 53002", "KIPT 291154Z 08004KT 2 1/2SM BR OVC004 08/08 A2985 RMK AO2 RAE1056B08E12 SLP109 P0002 60017 70062 T00830078 10083 20072 50004", "KIRK 291155Z AUTO 31009KT 10SM OVC080 09/05 A2985 RMK AO2 SLP111 T00890050 10117 20083 56002", "KIRS 291155Z AUTO 25006KT 4SM HZ SCT009 SCT025 09/06 A2971 RMK AO2 70030 T00850055 10100 20066", "KISM 291156Z 32003KT 10SM CLR 23/22 A2991 RMK AO2 SLP129 6//// 7//// T02330217 10233 20217 53015 PNO $", "KISO 291156Z 00000KT 1/4SM FG OVC002 16/16 A2983", "KISP 291156Z 09017G28KT 2SM RA BR FEW011 BKN060 OVC075 10/09 A2994 RMK AO2 PK WND 09030/1115 SFC VIS 3 SLP140 P0019 60073 70088 T01000089 10100 20094 50001", "KISQ 291155Z AUTO 07005KT 5SM BR SCT004 BKN080 07/06 A2971 RMK AO2 T00720058 10087 20058", "KISW 291154Z AUTO 29013G19KT 6SM BR OVC005 04/03 A2970 RMK AO2 RAE05 SLP059 P0000 60024 70024 T00440033 10106 20044 56009", "KITH 291156Z 15007KT 8SM -RA OVC010 06/06 A2987 RMK AO2 CIG 008V012 SLP119 P0000 60012 70018 T00610056 10067 20056 53003", "KITR 291153Z AUTO 28010KT 10SM CLR 01/M03 A3012 RMK AO2 SLP193 T00111033 10022 21006 53001", "KIUA 291155Z AUTO 13009G16KT 100V170 7SM DZ SCT009 SCT045 OVC050 06/05 A2983 RMK AO2 60003 70009 T00550045 10073 20050", "KIWA 291155Z AUTO 12003KT 10SM CLR 18/M06 A2998 RMK AO2 T01841063 10275 20166", "KIWD 291156Z AUTO 34007KT 1 1/4SM UP BR OVC003 01/01 A2973 RMK AO2 RAE46UPB46 SLP079 P0002 60011 70035 T00060006 10011 20006 56006 FZRANO", "KIWI 291153Z AUTO 00000KT 10SM CLR 09/06 A3017 RMK AO2 SLP218 I6000 T00890056 10089 20011 51006", "KIXA 291150Z AUTO 33004KT 7SM OVC002 11/11 A2985 RMK AO2", "KIXD 291153Z 32009KT 10SM CLR 07/06 A2993 RMK AO2 SLP136 70002 T00720056 10106 20072 50004", "KIYA 291155Z AUTO 29014KT CLR 20/13 A2974 RMK AO2 LTG DSNT SE T01980132 10203 20176 PWINO", "KIZA 291155Z AUTO 00000KT M1/4SM FG OVC002 09/09 A3002 RMK AO2", "KIZG 291154Z AUTO 00000KT 10SM CLR 07/03 A3015 RMK AO2 SLP213 T00720033 10072 20000 51010", "KJAC 291156Z AUTO 02007KT 10SM CLR M03/M07 A3030 RMK AO2 SLP267 T10281067 10000 21039 56001 FZRANO", "KJAN 291154Z 13005KT 10SM FEW045 16/13 A2973 RMK AO2 SLP063 T01610133 10167 20150 55026", "KJAQ 291155Z AUTO 00000KT 10SM CLR 19/07 A3000 RMK AO1 T01920072 10230 20184", "KJAS 291155Z AUTO 30010KT 9SM 16/15 A2979 RMK AO2", "KJAU 291155Z AUTO 00000KT M1/4SM FG OVC002 08/08 A2990 RMK A01", "KJAX 291156Z 19006KT 10SM SCT018 BKN022 BKN030 BKN250 22/21 A2987 RMK AO2 SLP116 T02220206 10228 20206 53020", "KJBR 291156Z AUTO 00000KT 1 3/4SM RA BR FEW009 BKN028 OVC041 14/14 A2982 RMK AO2 P0001 T01440139 $", "KJCA 291135Z AUTO 25004KT 2SM BR CLR 12/ A2985 RMK AO2 T0119////", "KJCT 291151Z AUTO 29003KT 10SM CLR 08/03 A3009 RMK AO2 SLP168 T00830033 10128 20078 53003 $", "KJDN 291148Z AUTO 31006KT 07/M01 A3011 RMK AO1 SLP196 T00721006 10106 20022 53007", "KJEF 291153Z 27005KT 10SM CLR 12/09 A2986 RMK AO2 SLP099 T01170089 10133 20111 53009", "KJER 291153Z AUTO 07016KT 10SM CLR 08/M04 A3015 RMK AO2 SLP186 T00831044 10128 20072 56005", "KJES 291135Z AUTO 00000KT 3SM BR CLR 18/17 A2988 RMK AO2", "KJFK 291151Z 09017G28KT 5SM RA BR SCT010 BKN028 OVC047 10/09 A2991 RMK PK WND 09029/1139 CIG 015 W SLP127 P0027 60099 70151 T01000094 10100 20089 58004", "KJFX 291155Z AUTO 00000KT 5SM BR FEW002 10/10 A2981 RMK AO2", "KJFZ 291155Z AUTO 26006KT 10SM SCT008 SCT018 BKN043 11/11 A2987 RMK AO2 T01110111 10130 20111", "KJHW 291156Z AUTO 16010KT 8SM -RA OVC004 07/07 A2974 RMK AO2 SLP083 6//// 7//// T00670067 10072 20067 50001 PNO $", "KJKA 291135Z AUTO 00000KT M1/4SM FG OVC001 18/18 A2979 RMK AO2", "KJKJ 291155Z AUTO 00000KT 7SM SCT100 120 01/00 A2988 RMK AO2 TSNO", "KJKL 291153Z AUTO 00000KT 3SM BR FEW002 10/09 A2984 RMK AO2 SLP100 70024 T01000089 10117 20094 51008", "KJLN 291153Z 35007KT 9SM BKN015 BKN026 OVC030 11/08 A2992 RMK AO2 SLP129 T01060078 10117 20106 51010", "KJMR 291155Z AUTO 33004KT 7SM OVC007 03/02 A2984 RMK AO2", "KJMS 291156Z AUTO 32004KT 10SM SCT055 OVC075 02/01 A2988 RMK AO2 SLP128 60001 70001 T00220011 10056 20022 55003", "KJNX 291145Z AUTO 00000KT 7SM OVC004 15/15 A2983 RMK AO2", "KJOT 291155Z AUTO 00000KT 7SM CLR 06/04 A2971 RMK AO2 T00640041 10069 20028", "KJPX 291155Z AUTO 10014G19KT 10SM OVC032 10/07 A3000 RMK AO2 70001 T01000072 10100 20088", "KJQF 291150Z 00000KT 1SM BR OVC003 15/14 A2985", "KJRB 291156Z AUTO 05016G27KT 10SM UP OVC011 A2991 RMK AO2 PK WND 04028/1125 RAE48UPB48 SLPNO 6//// 7//// 56007 FZRANO PNO $", "KJRO 291155Z AUTO 21005KT 10SM SCT018 SCT043 12/09 A2981 RMK AO2", "KJSO 291155Z AUTO 32006KT 10SM OVC008 12/11 A2987 RMK AO2 60007 70013 T01150110 10150 20115 TSNO", "KJST 291154Z AUTO 17004KT 10SM BKN009 OVC015 07/07 A2979 RMK AO2 SLP095 60000 70029 T00720067 10072 20067 52006", "KJSV 291155Z AUTO 35006KT 10SM OVC013 13/13 A2987 RMK AO2", "KJSY 291155Z AUTO 20004KT 10SM A3013 RMK AO2 6//// 7//// PNO TSNO", "KJTC 291155Z AUTO 20009KT 10SM CLR 02/M12 A3032 RMK AO2", "KJVL 291145Z 00000KT 7SM -RA SCT065 BKN075 OVC080 07/M03 A2968 RMK RAB36", "KJVY 291155Z AUTO 00000KT 3SM CLR 08/08 A2978 RMK AO2 PWINO", "KJWG 291155Z AUTO 31007KT 10SM CLR 06/04 A3006 RMK AO2 10090 20055 70023", "KJWN 291150Z 00000KT 1/4SM FG BKN002 09/09 A2983", "KJWY 291155Z AUTO 32012G19KT 10SM OVC022 12/08 A2996 RMK AO2 70002 T01160082 10122 20116", "KJXN 291156Z VRB05KT 10SM BKN006 OVC021 09/08 A2967 RMK AO2 SLP049 70054 T00940083 10100 20094 55003", "KJYG 291157Z AUTO 30009KT 10SM 02/01 A2983 RMK AO2", "KJYL 291155Z AUTO 00000KT 4SM BR BKN050 16/16 A2985 RMK AO2 T01610157 10182 20157", "KJYM 291155Z AUTO 28005KT 7SM SCT009 OVC020 09/08 A2968 RMK AO2 60001 70060 T00880080 10090 20085", "KJYO 291155Z AUTO 35004KT 2 1/2SM BR OVC004 11/11 A2985 RMK AO2", "KJYR 291155Z AUTO 26006KT 10SM CLR 01/M00 A2994 RMK AO2", "KJZI 291155Z AUTO 00000KT 9SM FEW045 21/21 A2982 RMK AO2", "KJZP 291155Z AUTO 30004KT 10SM CLR 13/12 A2986 RMK AO2 T01300122 10157 20122 70003", "KK62 291135Z AUTO 00000KT 3SM BR CLR 07/07 A2981 RMK AO2", "KK70 291155Z AUTO 16007KT 10SM FEW014 27/26 A2991 RMK AO2", "KK82 291135Z AUTO 25007KT 10SM CLR M02/M03 A3003 RMK AO2 T10231033", "KK88 291155Z AUTO 32006KT 10SM CLR 08/06 A2996 RMK AO1 70005 T00750055 10097 20075", "KKLS 291156Z AUTO 00000KT CLR 11/09 A3001 RMK AO2 SLP165 T01110089 10194 20111 50014 PWINO $", "KKNB 291155Z AUTO 36014KT 10SM CLR 08/M05 A3027 RMK A01", "KKY8 291155Z AUTO 18005KT 9SM FEW110 12/12 A2980 RMK A01", "KL08 291155Z AUTO 00000KT 10SM CLR 16/01 A2988 RMK AO2", "KL18 291155Z AUTO 00000KT 1 1/2SM BR OVC003 12/12 A3001 RMK AO2", "KL35 291155Z AUTO 00000KT 10SM CLR 00/M05 A3030 RMK AO2", "KLAA 291153Z AUTO 24005KT 10SM CLR 01/M02 A3013 RMK AO2 SLP197 T00061017 10028 20000 56005", "KLAF 291154Z 00000KT 9SM CLR 06/03 A2974 RMK AO2 SLP072 T00560033 10067 20033 56008", "KLAL 291158Z 16005KT 10SM SKC 23/23 A2990", "KLAM 291155Z AUTO 29003KT 10SM CLR 03/M02 A3027 RMK AO2 T00291022 $", "KLAN 291153Z AUTO 30006KT 6SM BR OVC006 10/08 A2967 RMK AO2 CIG 004V009 SLP049 60001 70022 T01000083 10100 20094 58003", "KLAR 291153Z AUTO 00000KT 10SM CLR 03/M06 A3021 RMK AO2 SLP188 T00281056 10039 21011 58000", "KLAS 291156Z 20003KT 10SM CLR 19/M06 A3003 RMK AO2 SLP149 T01891061 10244 20189 51004 $", "KLAW 291153Z AUTO 33010KT 10SM CLR 10/04 A3002 RMK AO2 SLP165 70001 T01000039 10111 20094 51005", "KLAX 291153Z 24004KT 1SM R25L/P6000FT BR OVC003 13/12 A3001 RMK AO2 SLP162 T01280117 10133 20128 58003", "KLBB 291153Z 31007KT 10SM CLR 03/M02 A3016 RMK AO2 SLP203 T00331022 10056 20033 53004", "KLBE 291147Z 20006KT 15SM OVC034 12/09 A2977", "KLBF 291153Z AUTO 30007KT 10SM OVC100 03/00 A3000 RMK AO2 SLP162 T00330000 10050 21033 56015", "KLBL 291156Z AUTO 29009KT 10SM CLR 02/01 A3012 RMK AO2 SLP201 70001 T00220006 10033 20022 58007 FZRANO", "KLBO 291155Z AUTO 32005KT 7SM OVC005 11/09 A2986 RMK AO2", "KLBT 291156Z AUTO 00000KT 6SM BR CLR 18/18 A2981 RMK AO2 SLP094 70002 T01780178 10189 20139 51015", "KLCG 291155Z AUTO 00000KT 10SM SCT095 SCT120 01/M01 A2988 RMK AO2 T00061011 10007 21010", "KLCH 291153Z 32009KT 10SM CLR 17/14 A2976 RMK AO2 SLP085 T01720144 10239 20172 51019", "KLCI 291156Z AUTO 07009KT 10SM CLR 11/03 A3012 RMK AO2 SLP201 T01060028 10106 20039 51005", "KLCK 291155Z AUTO 25010KT 5SM BR BKN012 OVC022 12/10 A2976 RMK AO2 T01150101 10117 20113", "KLCQ 291155Z AUTO 00000KT 10SM SCT005 BKN013 OVC017 20/20 A2987 RMK AO2", "KLDM 291155Z AUTO 00000KT 5SM BR CLR 06/05 A2968 RMK AO2 T00580047 10087 20026", "KLEB 291153Z 00000KT 10SM CLR 11/03 A3008 RMK AO2 SLP182 T01060028 10106 20050 50001", "KLEE 291153Z 18005KT 10SM CLR 23/22 A2989 RMK AO2 SLP121 T02280222 10228 20217 53013", "KLEW 291156Z AUTO 00000KT 10SM CLR 07/04 A3016 RMK AO2 SLP220 6//// 7//// T00670039 10067 20006 50008 PNO $", "KLEX 291154Z 00000KT 5SM BR OVC120 10/09 A2982 RMK AO2 SLP094 T01000089 10100 20083 56001", "KLFI 291140Z AUTO 29007KT 7SM OVC006 14/14 A2981 RMK AO2 SLP101 $", "KLFK 291153Z AUTO 32009G19KT 10SM OVC013 14/12 A2983 RMK AO2 SLP098 70051 T01440117 10183 20144 53008 $", "KLFT 291153Z 28011G21KT 10SM CLR 21/15 A2974 RMK AO2 SLP072 T02110150 10211 20189 55025", "KLGA 291151Z 09015KT 5SM -RA BR SCT009 OVC016 11/09 A2992 RMK AO2 SLP130 P0031 60128 70172 T01060089 10106 20089 58007 $", "KLGB 291153Z AUTO 16003KT 5SM BR OVC009 14/12 A3001 RMK AO2 SLP161 T01390117 10144 20133 58005", "KLGC 291155Z AUTO 00000KT 10SM CLR 11/10 A2985 RMK AO2 T01060100 10120 20088", "KLGD 291156Z AUTO 33005KT 10SM CLR 06/02 A3011 RMK AO2 SLP190 T00560022 10172 20044 53002", "KLGF 291155Z AUTO 07003KT M M CLR 21/02 A2986 RMK AO2 SLP108 T02120024 10286 20210 53002 RVRNO PWINO TSNO $", "KLGU 291151Z AUTO 00000KT 10SM CLR 03/M01 A3024 RMK AO2 SLP221 T00281011 10100 20028 53001", "KLHB 291155Z AUTO 30004KT 10SM OVC027 13/10 A2993 RMK AO2 60001 70072 T01250095 10150 20120", "KLHM 291155Z AUTO 19004KT 10SM CLR 13/11 A2995 RMK AO1", "KLHQ 291153Z AUTO 25007KT 6SM BR FEW011 BKN016 OVC025 12/10 A2976 RMK AO2 SLP077 60000 70015 T01170100 10117 20117 53007", "KLHW 291155Z AUTO 28003KT 4SM BR OVC002 20/19 A2981 RMK AO2 SLP097 T01950190 10212 20183 51015 $", "KLHX 291153Z AUTO 27012KT 10SM CLR 02/00 A3015 RMK AO2 SLP195 T00220000 10050 20022 58003", "KLHZ 291155Z AUTO 00000KT 7SM OVC003 11/11 A2986 RMK AO2", "KLIC 291155Z AUTO 00000KT 10SM CLR 02/M03 A3016 RMK AO2 SLP193 T00221033 10033 20000 53002", "KLIT 291153Z COR 11012G18KT 1 1/2SM +TSRA SCT005 SCT015CB OVC030 14/12 A2978 RMK AO2 LTG DSNT SW TSB38 SLP085 OCNL LTGICCCG SW TS SW MOV NE P0032 60064 70065 T01440122 10167 20144 53001", "KLJF 291155Z AUTO 31006KT 10SM CLR 03/01 A2983 RMK AO2", "KLKR 291155Z AUTO 00000KT M1/4SM FG OVC002 15/14 A2982 RMK AO2", "KLKU 291155Z AUTO 33004KT 10SM OVC007 11/10 A2985 RMK AO2 T01120103 10114 20104 70140", "KLKV 291153Z AUTO 32006KT 10SM CLR 04/02 A3017 RMK AO2 SLP191 T00440017 10133 20039 53000", "KLLJ 291155Z AUTO 00000KT 10SM CLR 04/M07 A3023 RMK AO2 SLP200 T00391067 10117 20039 53005", "KLLN 291155Z AUTO 31008KT 10SM CLR 03/M04 A3020 RMK AO2", "KLLQ 291153Z AUTO 09006KT 10SM OVC120 15/13 A2971 RMK AO2 SLP059 60021 70022 T01500133 10167 20150 58017", "KLMO 291155Z AUTO 00000KT 10SM SCT100 03/M02 A3017 RMK AO2 T00331018 10077 20033", "KLMS 291155Z AUTO 08005KT 10SM CLR 13/12 A2980 RMK AO2 LTG DSNT N", "KLMT 291153Z AUTO 00000KT 10SM CLR 03/M01 A3012 RMK AO2 SLP170 T00331011 10156 20033 53000", "KLNA 291155Z AUTO 16003KT 10SM CLR 26/24 A2992 RMK AO2 T02560241 10256 20235", "KLND 291153Z AUTO 22003KT 10SM CLR 04/M02 A3019 RMK AO2 SLP199 T00441022 10083 20028 56005", "KLNK 291154Z 21003KT 10SM CLR 02/M01 A2995 RMK AO2 SLP146 70017 T00221006 10056 20011 58011", "KLNL 291155Z AUTO 00000KT 2 1/2SM RA OVC003 03/03 A2970 RMK AO2 P0002 60005 70006 T00250025 10032 20025", "KLNN 291155Z AUTO 19005KT 10SM OVC010 11/09 A2967 RMK AO1 T01050093 10112 20097", "KLNP 291155Z AUTO 25004KT 10SM CLR 09/08 A2988 RMK AO2", "KLNQ 291155Z AUTO 00000KT 5SM CLR 22/20 A2979 RMK AO2 T02160200 10232 20193", "KLNR 291156Z AUTO 30011KT 10SM OVC011 08/06 A2971 RMK AO2 SLP057 60008 70008 T00780056 10122 20078 56005", "KLNS 291153Z 06006KT 7SM OVC010 11/09 A2983 RMK AO2 RAE25 CIG 007V013 SLP103 P0001 60004 70110 T01060089 10106 20100 50008", "KLOL 291153Z AUTO 00000KT 10SM CLR 07/ A3012 RMK AO2 SLP176 T0067 10122 20039 53002 $", "KLOM 291155Z AUTO 06009G15KT 020V080 2 1/2SM DZ BR OVC006 10/10 A2984 RMK AO2 VIS 2V3 1/2 T01030101 10103 20085", "KLOR 291155Z AUTO 00000KT 1/8SM FG VV002 15/15 A2981 RMK AO2 SLP077 T01490147 10157 20137 50002 RVRNO", "KLOT 291145Z 20005KT 7SM SCT200 06/04 A2972", "KLOU 291153Z 16004KT 8SM BKN120 09/08 A2981 RMK AO2 SLP092 T00940083 10094 20072 56000", "KLOZ 291153Z AUTO 1SM BR VV003 09/09 A2985 RMK AO2 SLP105 70005 T00890089 10106 20072 53005 $", "KLPR 291153Z AUTO 24010KT 10SM OVC012 11/09 A2969 RMK AO2 SLP052 60001 70022 T01110094 10111 20106 53007", "KLQK 291155Z AUTO 00000KT 7SM CLR 11/11 A2982 RMK AO2 70063 T01110111 10124 20090", "KLRD 291156Z 31014KT 10SM CLR 15/07 A3008 RMK AO2 SLP185 70025 T01500067 10200 20150 51018", "KLRF 291155Z AUTO 03007KT 5SM RA BR BKN003 14/13 A2975 RMK AO2 CIG 003V006 SLP076 P0038 60085 70088 T01360134 10150 20136 58001", "KLRJ 291155Z AUTO 00000KT 10SM FEW055 FEW065 BKN095 01/01 A2987 RMK AO2", "KLRO 291155Z AUTO 00000KT 2 1/2SM BR BKN050 BKN060 21/21 A2982 RMK AO2", "KLRU 291155Z AUTO 26003KT 10SM CLR 06/M03 A3026 RMK AO2 T00561029 10124 20055", "KLRY 291155Z AUTO 34005KT 10SM CLR 10/07 A2994 RMK AO2", "KLSE 291153Z 32011KT 10SM OVC017 06/04 A2975", "KLSF 291155Z AUTO 00000KT 4SM BR FEW000 12/12 A2983 RMK AO2 SLP106 T01210118 10133 20107 51010 $", "KLSV 291155Z AUTO 00000KT 10SM CLR 15/M08 A3000 RMK AO2 SLP140 T01511084 10215 20149 52004 $", "KLTS 291155Z AUTO 32017KT 10SM CLR 06/03 A3005 RMK AO2 SLP177 70006 T00640025 10093 20056 50009", "KLUA 291155Z AUTO 00000KT 10SM BKN007 OVC010 08/08 A2984 RMK AO2", "KLUD 291155Z AUTO 32006KT 10SM OVC023 10/06 A2998 RMK AO2 T00950058 10105 20095", "KLUF 291155Z AUTO 00000KT 10SM CLR 21/M07 A2994 RMK AO2 SLP124 T02091067 10262 20200 51010 $", "KLUG 291155Z AUTO 00000KT M1/4SM FG OVC002 11/11 A2984 RMK A01", "KLUK 291153Z 20005KT 3SM BR CLR 10/09 A2981 RMK AO2 SLP094 T01000094 10128 20078 53004", "KLUL 291155Z AUTO 09005KT 10SM CLR 15/15 A2977 RMK A02 T01500147 10150 20125", "KLUM 291155Z 31009KT 10SM OVC011 05/02 A2978 RMK AO2 70017 T00450024 10060 20040 PWINO", "KLUV 291135Z AUTO 31010KT 10SM BKN095 OVC120 04/M03 A3019 RMK AO2", "KLUX 291155Z AUTO 00000KT M1/4SM FG OVC001 13/13 A2983 RMK AO2", "KLVJ 291153Z AUTO 32014G26KT 10SM SCT018 OVC042 16/12 A2985 RMK AO2 PK WND 31026/1153 SLP108 60000 70012 T01610117 10194 20161 51003", "KLVK 291153Z 31006KT 10SM CLR 12/08 A3000 RMK AO2 SLP154 T01220083 10178 20122 55001", "KLVM 291153Z AUTO 33009KT 10SM CLR 02/M02 A3015 RMK AO2 SLP198 T00221022 10072 20011 55002", "KLVN 291155Z AUTO 34006KT 10SM SCT015 OVC050 03/03 A2980 RMK AO2", "KLVS 291153Z AUTO 04005KT 10SM CLR M01/M04 A3025 RMK AO2 SLP213 70008 T10061044 10006 21028 58001", "KLWA 291155Z AUTO 00000KT 2 1/2SM BR CLR 06/06 A2972 RMK AO2 T00600060 10090 20043", "KLWB 291155Z AUTO 23005KT 10SM CLR 12/09 A2984 RMK AO2 60001 70023 T01150094 10118 20108", "KLWC 291152Z AUTO 31004KT 5SM BR CLR 05/03 A2995 RMK AO1 SLP143 70030 T00500033 10111 20044 53003", "KLWD 291153Z AUTO 29007KT 10SM CLR 04/02 A2988 RMK AO2 SLP120 T00390022 10094 20033 56005", "KLWM 291154Z 09005KT 10SM CLR 11/06 A3014 RMK AO2 SLP205 T01060061 10106 20067 53005", "KLWS 291156Z AUTO 11006KT 10SM CLR 11/03 A3004 RMK AO2 SLP168 T01110033 10172 20111 53008 $", "KLWT 291154Z AUTO 10007KT 10SM CLR 03/M01 A3014 RMK AO2 SLP198 T00281011 10067 20022 53001", "KLWV 291153Z AUTO 19005KT 4SM BR CLR 09/09 A2977 RMK AO2 SLP081 T00940089 10100 20083 55000", "KLXL 291155Z AUTO 33003KT 10SM CLR 02/01 A2982 RMK AO2", "KLXN 291155Z AUTO 30005KT 10SM CLR 00/M01 A2999 RMK AO2 T00041007 10016 20000", "KLXT 291153Z AUTO 32007KT 10SM CLR 08/06 A2991 RMK AO2 SLP130 70052 T00830061 10111 20083 50003", "KLXV 291153Z AUTO 04007KT 10SM CLR M04/M11 A3034 RMK AO2 SLP210 T10441106 11028 21050 58003", "KLXY 291155Z AUTO 32010G15KT 10SM OVC024 13/09 A2990 RMK AO2 60001 7//// T01250091 10131 20125", "KLYH 291154Z 15003KT 6SM BR OVC002 13/11 A2983 RMK AO2 SLP099 70045 T01280111 10128 20100 53012", "KLYO 291155Z AUTO 29005KT 10SM CLR 01/M01 A3003 RMK AO2 T00141008 10041 20011 70002", "KLYV 291155Z AUTO 00000KT 10SM BKN042 OVC070 02/00 A2988 RMK AO2", "KLZU 291156Z 00000KT 10SM CLR 13/13 A2986 RMK AO2 SLP115 T01330128 10156 20111 53010", "KM01 291155Z AUTO 00000KT 4SM BR OVC065 14/14 A2977 RMK AO2 T01420142 $", "KM02 291155Z AUTO 00000KT 2 1/2SM BR CLR 11/10 A2983 RMK A01", "KM04 291150Z AUTO 00000KT 2 1/2SM BR FEW050 OVC070 13/13 A2979 RMK A01", "KM08 291155Z AUTO 04004KT 5SM BR FEW090 OVC120 12/12 A2976 RMK A01", "KM19 291156Z AUTO 36004KT 5SM RA BR FEW024 BKN034 OVC055 14/13 A2982 RMK AO2 SLP098 6//// 7//// T01390133 10144 20133 53003 PNO $", "KM21 291155Z AUTO 00000KT 5SM BR BKN090 OVC120 11/10 A2983 RMK AO2 T01050102 10105 20076", "KM25 291155Z AUTO 00000KT 5SM SCT070 OVC090 12/11 A2984 RMK AO2 P0002 PWINO", "KM30 291155Z AUTO 00000KT 7SM -RA OVC075 14/13 A2983 RMK AO2 T01360131 10144 20132", "KM40 291155Z AUTO 00000KT 10SM CLR 12/12 A2981 RMK AO2", "KM54 291155Z AUTO 00000KT 10SM CLR 10/10 A2983 RMK A01", "KM75 291155Z AUTO 36011KT 10SM OVC120 09/M02 A3012 RMK A01", "KM91 291150Z AUTO 17003KT 4SM BR CLR 10/10 A2983 RMK A01", "KMAF 291153Z 32010KT 9SM CLR 05/M03 A3019 RMK AO2 SLP205 T00501028 10078 20044 50004", "KMAN 291155Z AUTO 00000KT 10SM CLR 06/02 A3011 RMK A01", "KMAO 291155Z AUTO 00000KT 2SM BR OVC001 17/15 A2983 RMK AO2", "KMAW 291155Z AUTO 00000KT 5SM -RA OVC080 15/13 A2981 RMK AO1", "KMBG 291152Z AUTO 36004KT 10SM CLR 02/M01 A2984 RMK AO2 SLP109 T00221006 10078 20017 53001", "KMBL 291156Z AUTO 00000KT 8SM OVC018 05/04 A2969 RMK AO2 SLP055 T00500044 10106 20022 56010", "KMBO 291155Z AUTO VRB05KT 10SM CLR 16/16 A2973 RMK AO2", "KMBS 291153Z 33006KT 6SM BR OVC003 08/08 A2967 RMK AO2 SLP050 60006 70017 T00830078 10094 20083 53001", "KMBT 291155Z AUTO 00000KT 10SM CLR 11/10 A2983 RMK A01", "KMBY 291155Z AUTO 31010KT 10SM OVC085 10/05 A2985 RMK AO2", "KMCB 291153Z AUTO 10005KT 9SM CLR 15/13 A2969 RMK AO2 PRESFR SLP050 T01500128 10150 20122 58043", "KMCC 291155Z AUTO 17005KT 10SM CLR 14/10 A2995 RMK AO2", "KMCD 291155Z AUTO 09006KT 3/4SM BR OVC001 05/05 A2972 RMK AO2 T00500050 10052 20040", "KMCE 291153Z AUTO 00000KT 10SM CLR 16/11 A2994 RMK AO2 SLP137 T01560106 10228 20156 50001", "KMCF 291155Z AUTO 15006KT 10SM CLR 24/22 A2984 RMK AO2 SLP107 70001 T02440223 10252 20217 52014 FZRANO $", "KMCI 291153Z 30005KT 9SM CLR 07/06 A2992 RMK AO2 SLP129 70003 T00720056 10111 20067 53001", "KMCJ 291155Z AUTO 32013G25KT 10SM OVC019 14/11 A2984 RMK A01", "KMCK 291153Z AUTO 24008KT 10SM OVC100 03/M02 A3003 RMK AO2 SLP174 T00281017 10028 20006 58014", "KMCN 291153Z 00000KT 9SM CLR 14/13 A2984 RMK AO2 SLP103 T01390133 10156 20111 53009", "KMCO 291153Z 18003KT 10SM FEW200 BKN250 23/22 A2990 RMK AO2 SLP122 T02330217 10233 20200 53013", "KMCW 291153Z AUTO 28010KT 10SM OVC045 03/01 A2982 RMK AO2 SLP100 7//// T00280011 10050 20011 56009", "KMCZ 291145Z AUTO 34005KT 2SM BR OVC002 15/15 A2983 RMK AO2 T01510149 10186 20150 70082", "KMDD 291155Z AUTO 32007KT 10SM 05/M04 A3020 RMK AO2 T00541035 10088 20053", "KMDH 291152Z 22004KT 10SM OVC100 14/12 A2978 RMK AO2 SLP083 T01390117 10144 20133 55002", "KMDQ 291155Z AUTO 3/4SM BR OVC002 10/10 A2985 RMK A02 T01040100 10125 20094", "KMDS 291155Z AUTO 06004KT 10SM SCT085 BKN120 02/02 A2985 RMK AO2", "KMDT 291156Z 35004KT 7SM OVC009 09/08 A2984 RMK AO2 SLP108 60009 70114 T00940083 10094 20089 50005", "KMDW 291153Z 21004KT 10SM FEW220 BKN250 08/01 A2972 RMK AO2 SLP065 T00780011 10094 20056 58002", "KMDZ 291155Z AUTO 31010KT 3SM OVC003 02/02 A2969 RMK AO2 60030 70041 T00150015 10067 20015 PWINO", "KMEB 291152Z AUTO 05004KT 5SM BR BKN003 18/16 A2982 RMK AO2 SLP095 70001 T01780156 10194 20156 51013", "KMEH 291156Z AUTO 00000KT 10SM CLR 01/M01 A3009 RMK AO2 SLP184 T00111006 10050 20011 56003", "KMEI 291158Z 36004KT 10SM CLR 15/13 A2979 RMK AO2 SLP084 T01500133 10150 20117 58012", "KMEM 291154Z 14004KT 6SM BR BKN070 OVC100 14/14 A2979 RMK AO2 RAE16 SLP085 P0000 60003 70003 T01440139 10156 20139 58000", "KMEV 291155Z AUTO 00000KT 10SM FEW044 FEW050 06/M00 A3018 RMK AO2", "KMEZ 291155Z AUTO 02005KT 10SM OVC010 12/12 A2983 RMK AO2 CIG 009V015 T01220120", "KMFD 291152Z 24009G18KT 2 1/2SM BR OVC007 10/09 A2970 RMK AO2 RAB1057E11B47E50 CIG 004V010 SLP059 P0001 60004 70064 T01000094 10106 20100 50008", "KMFI 291154Z AUTO 31012G20KT 10SM OVC004 03/02 A2969 RMK AO2 SLP060 60027 70027 T00280022 10083 20028 57004", "KMFR 291153Z AUTO 00000KT 10SM CLR 13/06 A3002 RMK AO2 SLP153 T01280061 10222 20122 53006", "KMGC 291155Z AUTO 00000KT 5SM BR CLR 03/02 A2974 RMK AO2", "KMGE 291055Z AUTO 00000KT 10SM CLR 12/11 A2981 RMK AO2 SLP090 T01230107 $", "KMGG 291155Z AUTO 33007KT 10SM BKN014 04/02 A2983 RMK AO2 70015 T00430017 10048 20027", "KMGJ 291154Z AUTO 05009KT 10SM -RA FEW007 BKN015 OVC021 08/06 A2995 RMK AO2 SLP145 P0002 60090 70112 T00780061 10078 20061 58003", "KMGM 291153Z 07003KT 10SM CLR 14/13 A2984 RMK AO2 SLP101 T01440133 10156 20133 50004", "KMGN 291155Z AUTO 07005KT 10SM OVC005 07/06 A2970 RMK AO2 T00720065", "KMGR 291155Z AUTO 00000KT 9SM CLR 17/17 A2984 RMK AO2 T01720170", "KMGW 291153Z 19005KT 10SM OVC037 12/08 A2979 RMK AO2 SLP086 60000 70008 T01220083 10128 20117 50005", "KMGY 291153Z AUTO 24006KT 8SM OVC024 11/08 A2977 RMK AO2 SLP081 70001 T01110083 10117 20106 53008", "KMHE 291153Z AUTO 11005KT 10SM BKN090 OVC110 03/01 A2986 RMK AO2 SLP116 T00330006 10050 20011 56019", "KMHK 291152Z 00000KT 10SM CLR 02/00 A2999 RMK AO2 SLP159 T00220000 10111 20017 55002", "KMHL 291155Z AUTO 32008G14KT 10SM OVC080 10/06 A2989 RMK AO2", "KMHP 291155Z AUTO 18003KT 5SM HZ CLR 17/ A2985 RMK AO2 T0167//// 10183 20158", "KMHR 291155Z AUTO 18003KT 10SM CLR 13/10 A2995 RMK A01", "KMHS 291156Z AUTO 00000KT 10SM CLR 08/04 A3010 RMK AO2 SLP188 T00830044 10122 20078 55000 ", "KMHT 291153Z 11005KT 10SM BKN130 BKN200 11/04 A3011 RMK AO2 SLP208 T01060044 10106 20072 50004", "KMHV 291140Z AUTO 00000KT 10SM CLR 18/05 A3004 RMK AO2", "KMIA 291153Z 16004KT 10SM SCT045 BKN060 BKN250 27/24 A2992 RMK AO2 SLP133 T02720244 10272 20256 51012 $", "KMIB 291155Z 34012KT 10SM SCT055 02/00 A2991 RMK AO2A SLP145 60000 T00190000 10056 20011 50011 $", "KMIC 291153Z 33004KT 10SM BKN006 OVC014 04/03 A2980 RMK AO2 RAE11 SLP096 P0001 60002 70025 T00390028 10050 20022 $", "KMIE 291153Z 24005KT 7SM CLR 09/05 A2976 RMK AO2 SLP075 70003 T00890050 10111 20078 53004", "KMIO 291155Z AUTO 33007KT 9SM BKN028 OVC034 11/11 A2992 RMK AO2", "KMIV 291154Z AUTO 04006KT 9SM OVC006 14/13 A2978 RMK AO2 SLP082 60087 70359 T01390133 10139 20117 51007 $", "KMIW 291153Z AUTO 30011KT 10SM CLR 04/02 A2982 RMK AO2 SLP101 T00390017 10089 20033 56010", "KMJD 291155Z AUTO 00000KT 10SM CLR 15/15 A2974 RMK AO2", "KMJQ 291155Z AUTO 31011KT 10SM CLR 03/00 A2985 RMK AO2", "KMKC 291154Z 30006KT 10SM CLR 08/06 A2992 RMK AO2 SLP132 T00830061 10117 20083 50003", "KMKE 291152Z 23003KT 10SM BKN130 BKN250 08/01 A2968 RMK AO2 SLP055 T00780011 10078 20039 56009 $", "KMKG 291155Z 00000KT 4SM BR FEW250 08/06 A2969 RMK AO2 SLP054 T00780061 10111 20056 56011", "KMKJ 291155Z AUTO 26009KT 10SM OVC008 12/11 A2987 RMK AO2 70050 T01160106 10120 20109", "KMKL 291153Z 06004KT 2 1/2SM BR OVC090 12/12 A2980 RMK AO2 SLP090 T01220117 10122 20100 58011", "KMKN 291155Z AUTO 33010KT 10SM 10/06 A3005 RMK AO2 T00950055 10101 20092", "KMKO 291153Z AUTO 34010KT 7SM OVC011 11/09 A2992 RMK AO2 RAE1056 SLP128 P0000 60005 70010 T01110089 10122 20111 51004", "KMKS 291155Z AUTO 00000KT 10SM BKN060 OVC080 20/19 A2983 RMK AO2", "KMKT 291156Z AUTO 31007KT 10SM CLR 03/01 A2982 RMK AO2 SLP108 70005 T00280011 10050 20028 56010", "KMLB 291153Z 21006KT 10SM CLR 23/22 A2991 RMK AO2 SLP128 T02330217 10233 20222 53016", "KMLC 291153Z AUTO 34010KT 10SM -RA OVC010 11/09 A2990 RMK AO2 SLP121 P0000 60000 70022 T01060094 10117 20106 51007", "KMLE 291155Z AUTO 00000KT 10SM CLR 02/01 A2992 RMK AO2 70008 T00160008 10066 20013", "KMLF 291152Z AUTO 24007KT 10SM CLR 02/M08 A3023 RMK AO2 SLP207 T00171078 10083 20006 58003", "KMLI 291152Z 30012G20KT 10SM BKN014 OVC095 10/06 A2975 RMK AO2 SLP073 T01000061 10128 20100 55000", "KMLJ 291155Z AUTO 00000KT 10SM CLR 14/14 A2984 RMK AO2", "KMLP 291153Z AUTO 23004KT 10SM CLR 11/M04 A3017 RMK AO2 SLP134 T01061039 10117 20100 55002", "KMLS 291153Z AUTO 31007KT 10SM CLR 06/M02 A3009 RMK AO2 SLP187 T00561017 10117 20050 53010", "KMLT 291153Z AUTO VRB03KT 10SM CLR 06/03 A3018 RMK AO2 SLP226 T00610033 10061 20011 52008", "KMLU 291153Z 23005KT 10SM CLR 16/14 A2974 RMK AO2 SLP068 60000 T01560144 10189 20150 55006", "KMMH 291155Z AUTO 33003KT 10SM CLR 02/M01 A3032 RMK AO2 T00151014 10070 21006", "KMMI 291155Z AUTO 00000KT 10SM CLR 11/11 A2987 RMK A01", "KMMK 291153Z AUTO VRB03KT 10SM -RA FEW047 OVC065 09/06 A3005 RMK AO2 SLP174 P0001 60013 70013 T00890056 10100 20083 53006", "KMML 291156Z AUTO 27005KT 10SM BKN070 BKN110 03/01 A2987 RMK AO2 SLP123 70001 T00280006 10028 20000 56010", "KMMT 291155Z 00000KT 10SM FEW250 17/16 A2980 RMK AO2A SLPNO ALSTG ESTMD 52014 $", "KMMU 291151Z 06005G10KT 2 1/4SM RA BR OVC007 09/09 A2993", "KMMV 291153Z AUTO 06003KT 10SM CLR 10/08 A2999 RMK AO2 SLP153 T01000083 10183 20100 51012", "KMNE 291140Z AUTO 27006KT 10SM OVC004 16/16 A2975 RMK AO2 LTG DSNT N", "KMNH 291155Z AUTO 25008KT 10SM CLR 01/M05 A3022 RMK AO2", "KMNI 291155Z AUTO 00000KT 7SM SCT065 17/17 A2982 RMK AO2", "KMNM 291157Z AUTO 00000KT 10SM BKN070 06/04 A2969 RMK AO2 SLP074 6//// 7//// T00560044 10061 20044 56014 PNO $", "KMNN 291153Z AUTO 27009KT 6SM BR SCT008 BKN013 OVC023 11/09 A2972 RMK AO2 SLP065 60001 70015 T01060094 10111 20106 52009", "KMNV 291155Z AUTO 00000KT 10SM 13/ A2986 RMK A01", "KMNZ 291155Z AUTO 32013KT 10SM CLR 10/08 A3002 RMK AO2 7//// T01010078 10113 20100", "KMOB 291156Z 00000KT M1/4SM FG VV002 19/18 A2979 RMK AO2 SLP084 T01890178 10189 20156 58006", "KMOD 291153Z AUTO 34005KT 10SM CLR 16/09 A2994 RMK AO2 SLP138 T01610089 10228 20161 57002", "KMOP 291155Z AUTO 35003KT 5SM BR OVC004 10/10 A2965 RMK AO2 70001 T00950095 10097 20092", "KMOT 291154Z AUTO 30012KT 10SM BKN060 03/00 A2993 RMK AO2 SLP147 T00330000 10061 20028 51012", "KMOX 291155Z AUTO 32003KT 10SM CLR 00/M01 A2986 RMK AO2", "KMPO 291153Z AUTO 08010G16KT 3/4SM -RA BR VV003 05/05 A2988 RMK AO2 SLP127 P0003 60050 70070 T00500050 10050 20039 53005", "KMPR 291155Z AUTO 33004KT 10SM CLR 01/00 A3001 RMK AO2 T00121004 10081 20006", "KMPV 291151Z AUTO 00000KT 10SM BKN110 08/03 A3009 RMK AO2 SLP196 T00830028 10083 20044 58001", "KMPZ 291155Z AUTO 31009G14KT 10SM SCT080 08/05 A2981 RMK AO2", "KMQB 291155Z AUTO 31011KT 10SM BKN110 09/07 A2979 RMK AO2 T00900067 10129 20090", "KMQI 291150Z AUTO 29003KT 10SM OVC009 18/17 A2982 RMK AO2 70036 T01800173 10180 20167", "KMQJ 291155Z AUTO 00000KT 7SM CLR 07/07 A2977 RMK AO1", "KMQS 291155Z AUTO 06003KT 1 3/4SM BR OVC003 10/10 A2983 RMK AO2 P0001", "KMQW 291155Z AUTO 00000KT 10SM SCT060 A2985 RMK AO2 10175 20142", "KMQY 291156Z 00000KT 1/4SM FG OVC002 10/10 A2987 RMK AO2 SLP118 T01000100 10117 20083 53005", "KMRB 291153Z 01003KT 3/4SM BR OVC004 09/09 A2982 RMK AO2 SLP100 70088 T00890089 10089 20083 51005", "KMRC 291155Z AUTO 00000KT M1/4SM FG OVC002 11/11 A2983 RMK A01", "KMRF 291156Z AUTO 00000KT 10SM CLR 03/M03 A3026 RMK AO2 SLP221 6//// 7//// T00281033 10072 20022 53010", "KMRH 291158Z AUTO 24005KT 9SM CLR 21/20 A2982 RMK AO2 SLP097 70105 T02110200 10211 20200 51019", "KMRJ 291155Z AUTO 32009KT 10SM OVC006 07/M05 A2973 RMK AO2 PWINO", "KMRN 291145Z AUTO 00000KT 10SM OVC008 15/14 A2985 RMK AO2 T01480137", "KMRT 291139Z AUTO 25007KT 10SM OVC024 10/09 A2975 RMK AO1", "KMRY 291154Z AUTO 00000KT 4SM BR OVC001 10/10 A3003 RMK AO2 SLP181 T01000100 10111 20094 56003", "KMSL 291153Z AUTO 03004KT 1/4SM FG VV002 12/11 A2981 RMK AO2 PRESFR SLP090 70001 T01170111 10128 20106 58012", "KMSN 291153Z 00000KT 2 1/2SM RA BR OVC007 07/06 A2968 RMK AO2 SFC VIS 3 SLP052 CIG 006V011 P0011 60021 70021 T00720056 10094 20061 55007", "KMSO 291153Z AUTO 00000KT 10SM CLR 04/01 A3015 RMK AO2 SLP205 T00440006 10111 20033 51004", "KMSP 291153Z 35004KT 10SM -RA OVC019 04/02 A2980 RMK AO2 RAB15E30B46 SLP097 P0000 60000 70020 T00390022 10056 20033 56010", "KMSS 291153Z AUTO 09004KT 10SM BKN100 BKN120 11/04 A2996 RMK AO2 SLP146 T01110044 10111 20072 56005", "KMSV 291156Z AUTO 09014G19KT 10SM -RA OVC005 06/05 A2994 RMK AO2 SLP145 P0001 60004 70015 T00560050 10056 20044 53002", "KMSY 291153Z 13003KT 10SM BKN180 19/17 A2975 RMK AO2 SLP075 T01940172 10211 20183 56028", "KMTC 291150Z 11007KT 2SM -DZ BR OVC003 09/09 A2963 RMK AO2A SLP040 $", "KMTH 291153Z AUTO 17005KT 9SM FEW011 28/25 A2991 RMK AO2 SLP127 T02780250 10278 20272 53009", "KMTJ 291153Z AUTO 15006KT 10SM CLR 02/M03 A3032 RMK AO2 SLP236 T00221033 10067 20017 51001", "KMTK 291155Z AUTO 34016KT 10SM CLR 23/20 A2975 RMK A01", "KMTN 291155Z 32003KT 2SM BR OVC006 12/12 A2985", "KMTO 291153Z AUTO 15006KT 10SM CLR 09/07 A2972 RMK AO2 SLP065 T00940072 10111 20078 56006", "KMTP 291154Z AUTO 08009G16KT 050V130 11/08 A3002 RMK AO1 SLP167 70001 T01060078 10106 20094 55001", "KMTV 291155Z AUTO 00000KT 1SM BR OVC002 12/11 A2987 RMK AO2 70007 T01200106 10126 20116", "KMTW 291156Z AUTO 00000KT 9SM OVC120 05/03 A2969 RMK AO2 SLP055 T00500028 10050 20028 56014", "KMUO 291155Z AUTO 00000KT 10SM CLR 07/M01 A3009 RMK AO2 SLP179 T00661011 10101 20047 53003", "KMUT 291155Z AUTO 30010KT 10SM OVC080 09/07 A2980 RMK AO2", "KMVE 291155Z AUTO 29003KT 10SM CLR 02/01 A2986 RMK AO2", "KMVH 291200Z AUTO 00000KT 10SM CLR 01/M02 A3017 RMK AO2 PWINO", "KMVL 291154Z AUTO 15004KT 10SM CLR 10/03 A3006 RMK AO2 SLP182 7//// T01000033 10100 20061 50000", "KMVN 291156Z AUTO 24004KT 10SM FEW100 12/11 A2978 RMK AO2 SLP089 T01170106 10128 20106 53001", "KMVY 291153Z 09011KT 10SM FEW100 11/06 A3008 RMK AO2 SLP185 T01110061 10111 20083 53003", "KMWA 291145Z 20003KT 20SM OVC110 14/13 A2979", "KMWC 291200Z 17004KT 10SM CLR 06/02 A2969", "KMWH 291152Z AUTO 34003KT 10SM CLR 07/04 A3000 RMK AO2 SLP158 T00720039 10128 20067 55000", "KMWK 291145Z AUTO 00000KT 10SM SCT002 OVC008 13/13 A2986 RMK AO2 T01310130", "KMWL 291153Z AUTO 31012KT 10SM CLR 11/06 A3000 RMK AO2 SLP152 T01060061 10111 20100 53009", "KMWM 291155Z AUTO 28007KT 10SM CLR 02/00 A2985 RMK AO2", "KMWN 291054Z 14028KT 80SM SCT080 SCT120 BKN150 BKN200 M03/M05 RMK VIRGA DSNT SW PTCHY VLY FG SE", "KMWO 291155Z AUTO 21005KT 7SM SCT024 11/10 A2980 RMK AO2 T01090101 10117 20106", "KMWT 291153Z AUTO VRB04KT 9SM -RA OVC075 13/12 A2977 RMK AO2 SLP075 P0005 60089 70135 T01330117 10150 20133 51010", "KMXF 291155Z AUTO 00000KT 10SM CLR 14/12 A2982 RMK AO2 SLP100 T01440124 10147 20127 53005", "KMYF 291153Z AUTO 11003KT 7SM OVC007 13/11 A3000 RMK AO2 SLP157 T01330111 10139 20133 58007", "KMYJ 291155Z AUTO 31008KT 10SM CLR 08/07 A2983 RMK AO2", "KMYL 291151Z AUTO 00000KT 10SM CLR M02/M03 A3019 RMK AO2 SLP222 T10171028 10028 21022 50002", "KMYP 291155Z AUTO 24016G21KT 10SM CLR M05/M12 A3048 RMK AO2", "KMYR 291156Z 23004KT 10SM FEW065 BKN080 22/21 A2983 RMK AO2 SLP100 70003 T02170211 10217 20194 51015", "KMYV 291153Z AUTO 16006KT 10SM CLR 14/11 A2995 RMK AO2 SLP146 T01440106 10211 20144 53001 $", "KMYZ 291155Z AUTO 00000KT 10SM CLR 02/01 A2997 RMK AO2", "KMZH 291155Z AUTO 00000KT 4SM UP OVC004 02/01 A2981 RMK AO2 P0001", "KMZZ 291155Z AUTO 22003KT 7SM CLR 06/05 A2977 RMK AO2 70025 T00610048 10285 21014", "KN03 291155Z AUTO 09006KT 7SM DZ OVC009 05/04 A2987 RMK AO2", "KN38 291155Z AUTO 16007KT 2 1/2SM BR OVC005 06/06 A2981 RMK AO2", "KN60 291152Z AUTO 30005KT M02/M04 A2993 RMK AO1 SLP149 T10221044 10044 21022 51008", "KN79 291155Z AUTO 05004KT 4SM -RA BR BKN014 09/08 A2984 RMK AO2 P0000 T00940084", "KNAK 291154Z AUTO 35006KT 6SM BR OVC008 13/12 A2982 RMK AO2 RAE19 SLP099 P0000 60000 70160 T01330117 10139 20128 53020 $", "KNBC 291156Z AUTO 25005KT 10SM CLR 21/19 A2984 RMK AO2 SLP104 60000 T02110194 10217 20194 51019", "KNBG 291155Z 23003KT 10SM FEW150 BKN200 17/17 A2975 RMK AO2 SLP074 T01720172 10200 20161 55023 $", "KNBT 291151Z AUTO 27005KT 10SM CLR 23/19 A2981 RMK AO2 SLP100 70025 T02280189 10228 20206 51022", "KNCA 291156Z AUTO 23008KT 10SM SCT005 19/18 A2982 RMK AO2 SLP100 70006 T01940183 10194 20167 50015", "KNDZ 291156Z AUTO 35005KT M1/4SM FG OVC002 17/17 A2980 RMK AO2 SLP076 T01720167 10178 20150 58003 $", "KNEL 291152Z AUTO 07012KT RA FEW006 BKN014 OVC020 11/11 A2984 RMK AO2 T01110106 PNO $", "KNEW 291153Z 00000KT 10SM CLR 23/18 A2976 RMK AO2 SLP071 T02280178 10228 20211 56025", "KNFE 291156Z AUTO VRB03KT 2SM BR OVC004 16/14 A2983 RMK AO2 SLP103 70028 T01610144 10183 20161 53010", "KNFG 291152Z AUTO 00000KT 7SM OVC006 14/12 A3001 RMK AO2 SLP161 T01440122 10150 20144 56006 $", "KNFL 291156Z AUTO 16008KT 10SM CLR 12/M01 A3012 RMK AO2 SLP166 T01171011 10167 20100 52002", "KNFW 291152Z 34020G26KT 7SM OVC026 12/06 A2998 RMK AO2 PK WND 33027/1102 SLP137 70010 T01170061 10122 20117 53012 VISNO S $", "KNGP 291156Z AUTO 33024G35KT 10SM CLR 18/11 A2998 RMK AO2 PK WND 32037/1130 SLP151 60003 7//// T01780111 10217 20178 53025 $", "KNGU 291159Z 30006KT 7SM OVC004 14/14 A2984 RMK AO2 DZE26 SLP106 P0000 60000 70055 T01440144 10178 20144 53026 $ ", "KNHK 291152Z 28009KT 1 1/2SM BR OVC005 16/14 A2981 RMK AO2 SFC VIS 2 1/2 CIG 003V007 SLP096 70133 T01560139 10172 20156 52023 $", "KNID 291156Z AUTO 00000KT 10SM CLR 14/02 A3001 RMK AO2 SLP144 T01440017 10233 20144 53002 $", "KNIP 291153Z 22006KT 9SM FEW019 BKN033 BKN250 23/21 A2989 RMK AO2 SLP117 T02280206 10233 20222 53017", "KNJK 291156Z AUTO 28007KT 10SM CLR 20/04 A2985 RMK AO2 SLP124 T02000044 10272 20194 52001 $ ", "KNJM 291157Z AUTO 26005KT 5SM HZ CLR 23/19 A2983 RMK AO2 SLP105 70105 T02280194 10228 20217 53019", "KNJW 291057Z AUTO 12007KT 10SM CLR 12/11 A2982 RMK AO2 SLP011 T01220106", "KNKT 291156Z 25007KT 8SM FEW006 19/19 A2984 RMK AO2 SLP100 70033 T01940194 10200 20172 53021 $", "KNKX 291055Z 31003KT 8SM OVC007 13/12 A3001 RMK AO2 SLP157 T01280117", "KNLC 291156Z AUTO 32004KT 10SM CLR 16/10 A2995 RMK AO2 SLP141 T01610100 10244 20161 53001", "KNMM 291156Z AUTO 00000KT 10SM CLR 12/11 A2981 RMK AO2 SLP102 T01220111 10139 20106 56007 $", "KNOG 291156Z AUTO 32015KT 10SM CLR 14/08 A3002 RMK AO2 SLP147 70026 T01390083 10189 20139 53015 TSNO $", "KNOW 291130Z AUTO 00000KT 10SM CLR 10/09 A2992 RMK AO2 T00970090", "KNPA 291056Z AUTO 1/4SM FG VV002 17/16 A2979 RMK AO2 SLP089 T01720156 $", "KNQA 291150Z 36003KT 5SM BR BKN060 OVC070 14/14 A2978", "KNQI 291156Z AUTO 10SM CLR 16/11 A3002 RMK AO2 SLP161 70001 T01560106 10206 20156 53025 $", "KNQX 291153Z 19008KT 10SM FEW020 SCT070 BKN250 28/24 A2991 RMK AO2 SLP126 T02780244 53008 $", "KNRB 291152Z AUTO 24006KT 10SM SCT022 BKN035 OVC060 24/21 A2988 RMK AO2 SLP117 T02390211 10239 20222 53018", "KNRN 291155Z AUTO 27006KT 10SM OVC100 02/00 A3005 RMK AO2", "KNRS 291153Z AUTO 32005KT 10SM OVC010 14/12 A3001 RMK AO2 SLP161 T01440117 10150 20144 58008", "KNSE 291134Z AUTO 02003KT 1/4SM FG VV002 16/16 A2980 RMK AO2 T01610156", "KNSI 291153Z AUTO 30008KT 1/4SM FG VV002 10/10 A3002 RMK AO2 SLP160 T01000100 10106 20100 56004 $", "KNTD 291155Z AUTO 00000KT OVC004 12/12 A3002 RMK AO2 SLP166 T01220117 10122 20117 58007 $", "KNTU 291156Z 30004KT 9SM OVC006 13/13 A2982 RMK AO2 SLP099 70043 T01330133 10156 20122 53027 $", "KNUC 291156Z AUTO 32006KT OVC002 11/ A3003 RMK AO2 SLP168 T0106 10106 20106 56006 $", "KNUI 291153Z AUTO 30006KT 5SM BR BKN006 OVC013 14/14 A2981 RMK AO2 CIG 004V009 SLP092 70153 T01440144 10167 20139 50023 $", "KNUQ 291155Z AUTO 01004KT 10SM OVC008 13/11 A3002 RMK AO2", "KNUW 291153Z 14007KT 10SM FEW250 08/06 A2993 RMK AO2 SLP138 T00830061 10111 20067 53008 VISNO $", "KNXF 291056Z AUTO 03003KT 7SM 13/12 A3001 RMK AO2 SLP248 T01330117 $", "KNXP 291156Z AUTO 27006KT 10SM CLR 19/M03 A3007 RMK AO2 SLP147 T01941028 10250 20183 53003", "KNYC 291151Z AUTO VRB06G17KT 5SM -RA BR OVC006 10/09 A2994 RMK AO2 SLP129 P0018 60106 70147 T01000089 10100 20089 58009 $", "KNYG 291156Z AUTO 32005KT 7SM RA BR SCT007 OVC013 13/ A2985 RMK AO2 SLP108 P0000 60000 70080 T0128 10128 20117 53022 $", "KNYL 291157Z AUTO 17004KT 10SM CLR 20/06 A2986 RMK AO2 SLP107 T02000061 10272 20200 51004", "KNZY 291152Z AUTO VRB05KT 10SM OVC011 14/12 A3000 RMK AO2 SLP157 T01440122 10144 20139 58007 $", "KO05 291155Z AUTO 00000KT 10SM FEW042 SCT050 SCT060 02/M00 A3019 RMK A01", "KO22 291155Z AUTO 00000KT 10SM CLR 13/09 A3002 RMK A01", "KO32 291155Z AUTO 26003KT 9SM CLR 14/14 A2994 RMK AO2 T01420142 $", "KO69 291155Z AUTO VRB03KT 3SM BR OVC004 07/07 A3004 RMK A01", "KO86 291155Z AUTO 27004KT 10SM 09/06 A3009 RMK A01", "KOAJ 291156Z 00000KT 4SM BR OVC004 17/17 A2983 RMK AO2 SLP104 70064 T01720172 10183 20161 53018", "KOAK 291153Z 31004KT 10SM FEW002 OVC006 11/09 A3005 RMK AO2 SLP174 T01060094 10117 20106 55001", "KOAR 291155Z AUTO 00000KT 1 1/4SM BR OVC002 09/09 A3003 RMK AO2", "KOBE 291155Z AUTO 34005KT 7SM CLR 24/24 A2991 RMK AO2", "KOCF 291151Z COR 00000KT 10SM BR CLR 21/20 A2989 RMK AO2 SLP121 70001 T02060200 10217 20194 52010 $", "KOCH 291156Z AUTO 32011KT 10SM OVC008 13/13 A2984 RMK AO2 SLP107 70028 T01280128 10172 20128 51012 PWINO", "KOCQ 291155Z AUTO 00000KT 10SM BKN100 06/05 A2968 RMK AO1 T00550050 10055 20012", "KOCW 291145Z AUTO 29003KT 1SM BR OVC003 17/16 A2984 RMK AO2 T01650157", "KODO 291153Z AUTO 35010KT 10SM CLR 07/M03 A3019 RMK AO2 SLP207 T00671033 10094 20056 50003", "KODX 291153Z AUTO 32003KT 10SM CLR M01/M02 A2992 RMK AO2 SLP142 T10061022 10022 21011 58020", "KOEB 291155Z AUTO 24006KT 2SM BR BKN006 09/09 A2971 RMK AO2 T00880085 10099 20085", "KOEL 291155Z AUTO 29009KT 10SM CLR 02/M03 A3007 RMK AO1 T00231027 10027 20000", "KOEO 291155Z AUTO 31005KT 10SM OVC010 04/04 A2983 RMK AO2 70034 T00350035 10039 20033", "KOFF 291155Z 29003KT 10SM CLR 03/M00 A2994 RMK AO2A SLP148 T00301005 10060 20024 57008 PWINO PNO FZRANO TSNO $", "KOFK 291156Z AUTO 00000KT 10SM CLR 01/M02 A2989 RMK AO2 SLP127 70004 T00061022 10028 21011 57019", "KOFP 291154Z AUTO 30004KT 10SM OVC005 12/11 A2985 RMK AO2 SLP109 70091 T01220111 10122 20111 53022", "KOGA 291155Z AUTO 25010KT 10SM OVC100 04/M01 A3004 RMK AO2 T00421013 10043 21012", "KOGB 291153Z AUTO 00000KT 7SM CLR 17/17 A2982 RMK AO2 SLP095 T01720172 10178 20156 50012", "KOGD 291153Z AUTO 17009KT 10SM CLR 08/M03 A3020 RMK AO2 SLP195 T00831033 10122 20083 57003", "KOGS 291155Z AUTO VRB04G11KT 3SM -RA FEW044 BKN055 OVC065 10/06 A2992 RMK AO2 P0001", "KOIC 291155Z AUTO 00000KT 10SM -RA OVC021 06/04 A2993 RMK AO2 P0001 60019 70021 T00580041 10070 20049", "KOIN 291155Z AUTO 00000KT 10SM OVC100 02/M01 A3008 RMK AO1 T00151011", "KOJA 291155Z AUTO 32006KT 10SM CLR 05/03 A3005 RMK AO2 T00520031 10081 20051 70007", "KOJC 291153Z 33006KT 10SM CLR 08/06 A2992 RMK AO2 SLP130 T00830056 10117 20083 50004", "KOKB 291152Z AUTO 00000KT 10SM OVC008 14/12 A3000 RMK AO2 SLP158 T01390122 10150 20139 56006", "KOKC 291152Z 33015KT 10SM FEW120 FEW250 07/04 A2999 RMK AO2 SLP154 70007 T00720044 10094 20072 53009", "KOKK 291156Z AUTO 00000KT 8SM CLR 07/06 A2977 RMK AO2 SLP083 6//// 7//// T00670056 10094 20044 53002 PNO $", "KOKM 291155Z AUTO 32005KT 10SM OVC016 11/09 A2994 RMK AO2 70005 T01050090 10110 20105", "KOKV 291155Z AUTO 00000KT 3SM BR BKN005 OVC010 08/08 A2982 RMK AO2", "KOKZ 291155Z AUTO 00000KT 10SM SCT055 14/14 A2985 RMK AO2 T01450136 10146 20118", "KOLE 291155Z AUTO 16007KT 7SM OVC006 05/05 A2977 RMK AO2", "KOLF 291153Z AUTO 36012KT 10SM CLR 07/M01 A3009 RMK AO2 SLP194 T00671011 10083 20067 53020", "KOLG 291155Z AUTO 33003KT 10SM OVC005 01/00 A2977 RMK AO1", "KOLM 291154Z AUTO 00000KT 10SM CLR 07/07 A2998 RMK AO2 SLP150 T00720067 10156 20072 51018", "KOLS 291154Z AUTO 19003KT 10SM CLR 11/M04 A3009 RMK AO2 SLP132 T01061044 10194 20094 51004", "KOLU 291156Z AUTO 23006KT 10SM CLR 02/01 A2993 RMK AO2 SLP142 70040 T00220011 10033 20017 58017 FZRANO", "KOLV 291150Z 15004KT 10SM BKN080 BKN100 13/13 A2978", "KOLY 291130Z AUTO 00000KT 10SM CLR 11/09 A2976 RMK AO2 T01130089 PWINO", "KOLZ 291135Z AUTO 30008KT 3SM BR FEW150 03/03 A2978 RMK A01", "KOMA 291152Z 00000KT 10SM FEW250 03/01 A2991 RMK AO2 SLP134 70003 T00280006 10056 20022 58010", "KOMH 291155Z AUTO 04003KT 10SM SCT010 OVC014 12/11 RMK AO2", "KOMK 291153Z AUTO 29004KT 10SM CLR 09/02 A3003 RMK AO2 SLP167 T00890017 10144 20072 53002", "KOMN 291150Z 00000KT 5SM BR CLR 20/20 A2988", "KONL 291135Z AUTO 25009KT 10SM BKN110 04/00 A2988 RMK AO2 T00380000", "KONM 291155Z AUTO 27004KT 10SM CLR 03/M04 A3026 RMK AO2 T00331042 10077 20028", "KONO 291153Z AUTO 26004KT 10SM CLR 07/02 A3012 RMK AO2 SLP197 T00670017 10117 20067 53004", "KONP 291155Z AUTO 19009KT 7SM OVC003 09/08 A3007 RMK AO2", "KONT 291153Z VRB04KT 5SM BR CLR 12/11 A3000 RMK AO2 SLP149 T01220111 10156 20122 56005", "KONX 291145Z AUTO 28005KT 1 3/4SM BR OVC003 A2982 RMK AO2", "KONZ 291155Z AUTO 29003KT 3SM BR BKN003 BKN010 OVC031 10/10 A2964 RMK AO2 60001 70073 T01010096 10101 20090 P0001", "KOOA 291135Z AUTO 29009KT 10SM CLR 07/05 A2984 RMK AO2 T00710053", "KOPF 291153Z 16005KT 10SM FEW043 27/24 A2992 RMK AO2 SLP134 T02670239 10267 20244 50012", "KOPL 291135Z AUTO 29004KT 10SM CLR 19/13 A2975 RMK AO2 T01920134", "KOPN 291135Z AUTO 00000KT 7SM CLR 12/10 A2987 RMK AO2", "KOQN 291155Z AUTO 06006KT 3SM DZ OVC005 10/10 A2983 RMK AO2 P0001", "KOQT 291153Z AUTO 00000KT 1/4SM FG VV002 10/09 A2987 RMK AO2 SLP109 70044 T01000094 10128 20094 53004", "KORB 291153Z AUTO 00000KT 10SM SCT065 OVC090 02/02 A2980 RMK AO2", "KORD 291151Z 00000KT 9SM SCT170 BKN250 08/01 A2970 RMK AO2 SLP059 T00780006 10089 20061 58006", "KORE 291152Z AUTO 10003KT 10SM BKN080 OVC095 09/03 A3009 RMK AO2 SLP192 T00890028 10094 20072 53004", "KORF 291151Z 32004KT 6SM BR OVC005 14/14 A2982 RMK AO2 SLP098 70051 T01440139 10172 20144 53025", "KORG 291135Z AUTO 30004KT 10SM BKN013 BKN120 18/15 A2980 RMK AO2 T01820150", "KORH 291154Z 10004KT 10SM OVC070 08/03 A3008 RMK AO2 SLP191 T00780028 10083 20078 53006", "KORK 291155Z AUTO 03007KT 2 1/2SM +RA BR OVC004 13/13 A2979 RMK AO2 LTG DSNT S P0020", "KORL 291153Z 19004KT 10SM CLR 23/21 A2990 RMK AO2 SLP128 T02330211 10239 20217 53014", "KORS 291155Z AUTO 00000KT 10SM CLR 09/07 A2991 RMK AO2", "KOSA 291135Z AUTO 30013KT 10SM OVC012 13/12 A2983 RMK AO2 P0002 T01280122", "KOSC 291155Z AUTO 08009KT 3SM RA OVC002 07/07 A2967 RMK AO2 60024 70031 T00690069 10080 20067 P0009", "KOSH 291153Z 09004KT 4SM -RA OVC050 07/03 A2966 RMK AO2 RAB14 SLP045 P0001 60001 70001 T00670028 10072 20028 58014", "KOSU 291153Z 26007KT 6SM BR BKN012 OVC020 12/09 A2975 RMK AO2 SLP072 70004 T01170094 10128 20117 53013", "KOTG 291156Z AUTO 27007KT 10SM OVC060 02/00 A2987 RMK AO2 SLP125 6//// 7//// T00220000 10033 20006 56013 FZRANO PNO $", "KOTH 291156Z AUTO 20003KT 10SM OVC004 09/09 A3007 RMK AO2 SLP182 T00940089 10100 20089 50001", "KOTM 291153Z AUTO 29009KT 10SM FEW065 07/05 A2982 RMK AO2 SLP099 60000 T00670050 10100 20061 55006", "KOUN 291135Z AUTO 34013G20KT 10SM CLR 08/05 A2996 RMK AO2 T00830046", "KOVL 291155Z AUTO 31005KT 10SM CLR 01/00 A2984 RMK AO2", "KOVS 291153Z AUTO 29007KT 10SM OVC013 08/04 A2975 RMK AO2 SLP074 60013 70013 T00780044 10133 20078 55004", "KOWA 291153Z AUTO 27003KT 10SM SCT040 SCT060 02/02 A2980 RMK AO2", "KOWB 291156Z 17007KT 7SM BKN075 OVC095 12/11 A2981 RMK AO2 SLP094 T01220111 10122 20100 53003", "KOWD 291153Z 09007KT 10SM OVC110 12/05 A3011 RMK AO2 SLP194 T01170050 10117 20083 53004", "KOWI 291155Z AUTO 32009KT 10SM CLR 08/06 A2992 RMK AO2", "KOWX 291135Z AUTO 26006KT 10SM OVC018 10/08 A2974 RMK AO1", "KOXB 291153Z AUTO 29004KT 2SM BR OVC002 16/15 A2978 RMK AO2 SLP085 60001 70087 T01560150 10156 20144 53017", "KOXC 291151Z 07008KT 6SM RA BR BKN037 OVC050 07/06 A3002 RMK AO2 SLP180 P0005 60032 70032 T00670061 10078 20067 53006", "KOXD 291155Z AUTO 00000KT 5SM BR CLR 11/11 A2978 RMK AO2 T01110105 10127 20108", "KOXI 291135Z AUTO 00000KT 7SM CLR 02/01 A2974 RMK AO1", "KOXR 291151Z AUTO 20003KT 7SM OVC004 11/11 A3001 RMK AO2 SLP161 T01110111 10117 20111 58007 $", "KOXV 291135Z AUTO 28008KT 10SM CLR 05/03 A2984 RMK AO2", "KOYM 291155Z AUTO 13007KT 5SM OVC006 07/06 A2981 RMK AO2 P0001 PWINO", "KOZA 291135Z AUTO 33008KT 10SM CLR 08/M01 A3016 RMK AO2", "KOZR 291155Z AUTO 02003KT 1/4SM FG VV000 16/15 A2981 RMK AO2 SLP095 T01560153 10173 20154 50001 RVRNO", "KOZS 291155Z AUTO 32007KT 10SM OVC009 11/08 A2987 RMK AO2", "KOZW 291155Z AUTO 31007KT 10SM OVC004 10/10 A2965 RMK AO2 60001 70066 T00960095 10097 20092", "KP08 291155Z AUTO 00000KT 10SM CLR 15/M07 A2998 RMK AO2", "KP28 291156Z AUTO 27004KT 02/02 A3004 RMK AO1 SLP177 70011 T00170017 10044 20017 51003 $ ", "KP52 291155Z AUTO 28004KT 10SM CLR 11/M09 A3016 RMK AO2", "KP53 291156Z AUTO 16007KT 130V190 07/06 A2969 RMK AO1 SLP060 70001 T00720056 10072 20006 58015", "KP58 291055Z AUTO 09013KT 07/07 A2965 RMK AO1 SLP046 P0003 T00720072", "KP59 291151Z AUTO 33003KT 04/03 A2970 RMK AO1 SLP064 70013 T00390028 10039 20033 56017", "KP60 291156Z AUTO 00000KT M06/M08 A3031 RMK AO1 SLP264 T10611078 11028 21061 58005", "KP68 291153Z AUTO 21006KT 04/M03 A3023 RMK AO1 SLP178 T00441033 10083 20044 55000", "KP69 291152Z AUTO VRB04KT 05/02 A3017 RMK AO1 SLP213 T00500017 10100 20050 53009 $", "KP92 291059Z AUTO 00000KT 19/17 A2975 RMK AO1 SLP075 T01890172", "KPAE 291153Z AUTO 17007KT 10SM CLR 14/08 A2995 RMK AO2 SLP139 T01390083 10172 20133 53011", "KPAH 291153Z 00000KT 3SM -RA BR OVC080 14/13 A2981 RMK AO2 SLP094 P0002 60008 70009 T01390128 10150 20133 53005", "KPAM 291155Z AUTO 00000KT 10SM CLR 20/19 A2978 RMK AO2 SLP088 T01980191 10219 20193 58007 $", "KPAN 291155Z AUTO 19003KT 10SM CLR 14/M14 A3021 RMK AO2 PWINO TSNO", "KPBF 291153Z AUTO 05008KT 10SM OVC044 15/13 A2975 RMK AO2 SLP073 60022 70026 T01500133 10161 20150 58004", "KPBG 291153Z AUTO A3001 RMK AO2 SLPNO 56003 PWINO FZRANO $", "KPBH 291155Z AUTO 32008KT 10SM OVC003 00/00 A2971 RMK AO2 7//// T00000000 10027 20000", "KPBI 291153Z 16004KT 10SM SCT055 SCT200 25/23 A2991 RMK AO2 SLP129 70082 T02500233 10250 20233 51011", "KPBX 291135Z AUTO 00000KT 10SM SCT014 10/10 A2985 RMK AO2 T01000100", "KPCM 291155Z AUTO 14004KT 7SM CLR 25/23 A2991 RMK AO2", "KPCW 291155Z AUTO 25009KT 4SM BR OVC005 10/10 A2967 RMK AO2", "KPCZ 291155Z AUTO 00000KT 3SM -RA SCT029 BKN043 OVC050 07/06 A2967 RMK AO2 P0005 60006 70006 T00670055 10077 20065", "KPDC 291155Z AUTO 31008KT 10SM SCT012 06/03 A2976 RMK AO2 60007 70011 T00550030 10096 20055", "KPDK 291153Z 00000KT 9SM CLR 13/13 A2985 RMK AO2 SLP100 T01330128 10156 20106 53010", "KPDT 291153Z AUTO 14005KT 10SM CLR 11/06 A3000 RMK AO2 SLP148 7//// T01060056 10156 20100 53003", "KPDX 291153Z 11008KT 10SM CLR 16/08 A3000 RMK AO2 SLP156 T01560078 10233 20150 53017", "KPEA 291135Z AUTO 28008KT 10SM CLR 06/04 A2985 RMK AO2 T00580040", "KPEO 291153Z AUTO 12004KT 6SM BR OVC008 07/06 A2985 RMK AO2 CIG 005V011 SLP113 60010 70032 T00670061 10072 20061 55001", "KPEQ 291135Z AUTO 00000KT 10SM CLR 05/M03 A3023 RMK AO2 T00481033", "KPEX 291155Z AUTO 27004KT 10SM SCT070 00/M00 A2984 RMK AO2", "KPEZ 291155Z AUTO 30008KT 10SM CLR 13/07 A3003 RMK AO2 T01250072 10171 20125", "KPGA 291153Z AUTO 00000KT 10SM CLR 11/M08 A3022 RMK AO2 SLP189 T01111078 10161 20106 53001", "KPGD 291153Z 10003KT 10SM BKN030 25/24 A2992 RMK AO2 SLP130 T02500239 10250 20233 53010", "KPGV 291145Z AUTO 00000KT 2 1/2SM BR OVC003 15/15 A2984 RMK AO2", "KPHD 291105Z AUTO 18005KT 3SM -RA BR OVC012 11/09 A2972 RMK AO2 P0000 T01110089", "KPHF 291154Z VRB04KT 10SM BKN007 OVC010 13/12 A2983 RMK AO2 SLP102 70045 T01280122 10172 20128 53024", "KPHL 291154Z 05012KT 4SM BR OVC009 12/11 A2982 RMK AO2 SLP096 CIG 008V010 60034 70195 T01170106 10117 20094 56001 $", "KPHN 291155Z AUTO 12005KT 2SM DZ OVC004 09/08 A2966 RMK AO2", "KPHP 291155Z AUTO 30008KT 10SM CLR 07/01 A2993 RMK AO2 SLP132 T00720011 10094 20050 53004", "KPHT 291155Z AUTO 00000KT 4SM BR FEW043 SCT055 BKN080 12/12 A2981 RMK A01 P0002", "KPHX 291151Z 07006KT 10SM CLR 22/M06 A2994 RMK AO2 SLP121 T02221056 10294 20217 53009", "KPIA 291154Z 30007KT 10SM FEW110 10/08 A2973 RMK AO2 SLP067 T01000078 10128 20089 56003", "KPIB 291156Z AUTO 36003KT 7SM CLR 14/14 A2977 RMK AO2 SLP078 7//// T01390139 10144 20122 58023", "KPIE 291153Z 17006KT 10SM CLR 24/23 A2987 RMK AO2 SLP115 T02390228 10250 20206 51013", "KPIH 291153Z 00000KT 10SM CLR 01/M03 A3021 RMK AO2 SLP216 T00111033 10083 20000 50004", "KPIL 291153Z AUTO 32020KT 10SM -RA CLR 17/12 A3000 RMK AO2 PK WND 32034/1128 SLP157 P0000 60107 70109 T01670122 10228 20167 53047", "KPIM 291135Z AUTO 00000KT 10SM CLR 11/10 A2987 RMK AO2 T01080098", "KPIR 291153Z AUTO 31014KT 10SM CLR 08/01 A2982 RMK AO2 SLP099 T00830011 10083 20061 56013", "KPIT 291151Z 18005KT 10SM -RA BKN013 OVC031 10/09 A2975 RMK AO2 RAB48 SLP081 P0000 60000 70054 T01000089 10100 20089 51006", "KPJC 291155Z AUTO 14005KT 7SM -RA BKN014 BKN021 OVC038 10/10 A2975 RMK AO2", "KPKB 291153Z 22007KT 10SM FEW007 OVC028 12/09 A2979 RMK AO2 SLP087 70039 T01170094 10122 20111 $", "KPKD 291153Z AUTO 00000KT 10SM FEW028 FEW050 OVC070 03/01 A2984 RMK AO2 SLP117 70001 T00280011 10044 20006 55006", "KPLN 291154Z AUTO 06008KT 10SM BKN008 OVC016 08/06 A2971 RMK AO2 SLP066 T00780061 10094 20044 58006", "KPLR 291155Z AUTO 00000KT M1/4SM FG OVC002 11/11 A2985 RMK A01", "KPLU 291155Z AUTO 00000KT 10SM -DZ BKN055 10/10 A2998 RMK AO2", "KPMD 291153Z AUTO 19008KT 10SM CLR 15/01 A3004 RMK AO2 SLP144 T01500006 10183 20150 56003", "KPMH 291155Z AUTO 17003KT 10SM SCT017 OVC043 13/09 A2981 RMK AO2 70032 T01300093 10136 20122", "KPMP 291153Z 15009KT 10SM FEW008 FEW030 27/25 A2990 RMK AO2 SLP126 70006 T02670250 10267 20250 50006 $", "KPMU 291135Z AUTO 00000KT 7SM FEW065 SCT075 13/12 A2978 RMK AO2", "KPMV 291135Z AUTO 26006KT 10SM CLR 03/00 A2993 RMK AO2 T00291003", "KPNA 291135Z AUTO 36003KT 10SM CLR 00/M06 A3029 RMK AO2", "KPNC 291153Z AUTO 33004KT 10SM CLR 07/04 A3000 RMK AO2 SLP157 70058 T00670044 10100 20067 53009", "KPNE 291154Z 06010KT 7SM OVC007 11/10 A2985 RMK AO2 RAE1057 SLP107 P0001 60051 70163 T01110100 10111 20100 54000", "KPNM 291155Z AUTO 31003KT 10SM OVC029 04/03 A2982 RMK AO2", "KPNS 291153Z 35006KT 1/2SM FG OVC002 19/18 A2979 RMK AO2 SLP088 T01890178 10211 20183 56005 RVRNO", "KPNT 291155Z AUTO 13004KT 10SM CLR 05/M01 A2972 RMK AO2 T00471006 10051 20025", "KPO1 291200Z AUTO 36011KT 10SM CLR 07/00 A3008 RMK AO2", "KPOB 291155Z AUTO 06004KT 10SM OVC005 16/16 A2981 RMK AO2 SLP096 T01570155 10165 20138 52013 $", "KPOE 291155Z AUTO 29007KT 8SM FEW016 BKN045 BKN190 17/14 A2974 RMK AO2 SLP071 T01660142 10209 20166 58002", "KPOF 291153Z AUTO 23003KT 4SM -RA BR BKN050 OVC065 14/13 A2980 RMK AO2 RAE1058B31 SLP089 P0001 60002 70002 T01390133 10150 20139 51005", "KPOU 291153Z 06007KT 10SM -RA FEW022 BKN060 OVC090 08/07 A2999 RMK AO2 SLP152 P0010 60065 70067 T00830067 10089 20072 55001", "KPOV 291155Z AUTO 17004KT 4SM OVC005 10/09 A2969 RMK AO2 T00960085 PWINO", "KPOY 291135Z AUTO 25003KT 10SM CLR 07/M07 A3015 RMK AO2", "KPPA 291135Z AUTO 29006KT 10SM 02/01 A3013 RMK AO2 T00200005", "KPPF 291152Z AUTO 33006KT 10SM BKN070 09/07 A2994 RMK AO2 SLP138 70005 T00940067 10106 20094 53002", "KPPO 291135Z AUTO 00000KT 7SM CLR 04/04 A2974 RMK AO2 T00360036", "KPPQ 291135Z AUTO 31005KT 10SM CLR 10/08 A2979 RMK AO2 T01010083", "KPQI 291156Z AUTO 15008KT 10SM BKN080 08/04 A3018 RMK AO2 SLP248 T00780039 10078 20000 51010", "KPQL 291153Z AUTO 00000KT M1/4SM FG VV002 17/17 A2978 RMK AO2 SLP085 T01720172 10172 20150 58012", "KPRB 291153Z AUTO 32003KT 10SM CLR 10/08 A3001 RMK AO2 SLP157 T01000078 10161 20100 56001", "KPRC 291153Z AUTO 22004KT 10SM CLR 06/M06 A3021 RMK AO2 SLP172 T00611061 10144 20056 53003", "KPRG 291135Z AUTO 13004KT 10SM CLR 07/05 A2976 RMK AO2 T00670051", "KPRN 291058Z AUTO 00000KT 10SM CLR 11/11 A2983 RMK AO2 SLP048 T01060106", "KPRO 291155Z AUTO 28009KT 10SM CLR 03/01 A2987 RMK AO2 T00250009 10080 20015", "KPRS 291155Z AUTO 36007KT 10SM CLR 10/01 A3024 RMK AO2 T00980005 10142 20092", "KPRX 291156Z AUTO 33011G20KT 2 1/2SM -RA BR OVC005 12/12 A2987 RMK AO2 VIS 1 1/2V5 CIG 004V008 SLP114 P0001 60001 70094 T01170117 10128 20117 51009", "KPSC 291153Z AUTO 00000KT 10SM CLR 08/06 A2999 RMK AO2 SLP154 T00780061 10150 20072 52004", "KPSF 291154Z AUTO 11008G18KT 6SM -RA BKN060 OVC075 06/02 A3002 RMK AO2 SLP162 P0002 60007 70007 T00610022 10089 20056 53005", "KPSK 291155Z AUTO 00000KT 3SM BR OVC002 12/12 A2984 RMK AO2 60001 70017 T01150115 10123 20113", "KPSM 291155Z 09007KT 7SM FEW150 SCT200 BKN250 10/07 A3013 RMK AO2A SLP206 T00980072 10098 20057 52004", "KPSN 291135Z AUTO 31009G15KT 10SM SCT018 OVC026 12/11 A2986 RMK AO2", "KPSO 291135Z AUTO 00000KT 10SM CLR 02/M07 A3029 RMK AO2 T00191068", "KPSP 291153Z AUTO 32006KT 10SM CLR 25/07 A2989 RMK AO2 SLP118 T02500067 10300 20244 53001", "KPSX 291153Z AUTO 33015G26KT 10SM OVC070 15/11 A2991 RMK AO2 PK WND 33027/1128 RAE1054 SLP129 P0000 6//// 7//// T01500111 10178 20150 51023 $", "KPTB 291155Z AUTO 00000KT 10SM OVC005 12/11 A2985 RMK AO2 70110 T01160106 10123 20108", "KPTD 291155Z AUTO VRB06G17KT 10SM SCT045 BKN070 OVC080 13/M01 A2994 RMK AO2", "KPTK 291153Z 32004KT 1SM R09R/P6000FT -DZ BR BKN004 OVC018 09/09 A2963 RMK AO2 SLP035 P0001 60003 70067 T00940089 10094 20089 56001", "KPTN 291156Z AUTO 11006KT 10SM CLR 17/16 A2971 RMK AO2 PRESFR SLPNO 7//// T01720161 10189 20161 56042 $", "KPTS 291155Z AUTO 34003KT 10SM BKN041 OVC065 10/09 A2991 RMK AO2 6//// 7//// T00950086 PWINO", "KPTT 291135Z AUTO 30008KT 10SM CLR 02/01 A3005 RMK AO2 T00200014", "KPTV 291156Z AUTO 15006KT 10SM CLR 14/12 A2997 RMK AO2 SLP145 T01440122 10200 20144 55001", "KPTW 291154Z AUTO VRB06KT 2 1/2SM BR OVC009 09/09 A2985 RMK AO2 RAE1056B12E21 CIG 007V011 SLP107 P0000 60009 70118 T00940089 10094 20072 50002", "KPUB 291153Z AUTO 26005KT 10SM CLR 02/01 A3018 RMK AO2 SLP202 T00220006 10067 20022 58003", "KPUC 291153Z AUTO 03008KT 10SM CLR 04/M08 A3026 RMK AO2 SLP224 T00391083 10094 20039 58001", "KPUJ 291135Z AUTO 00000KT 5SM BR CLR 12/12 A2985 RMK AO2", "KPUW 291153Z AUTO 08007KT 10SM CLR 10/01 A3007 RMK AO2 SLP174 T01000006 10122 20100 53003", "KPVB 291155Z AUTO 30012KT 10SM OVC006 07/06 A2973 RMK AO1 P0001 60013 70013 T00690060 10113 20069", "KPVC 291156Z AUTO 10011KT 10SM CLR 11/08 A3012 RMK AO2 SLP199 T01060078 10106 20056 55000", "KPVD 291151Z 06005KT 10SM OVC100 09/05 A3008 RMK AO2 SLP186 T00940050 10094 20078 53002", "KPVE 291155Z AUTO 00000KT M1/4SM FG OVC002 11/11 A2984 RMK A01", "KPVF 291155Z AUTO 08006KT 10SM CLR 19/01 A3006 RMK AO1", "KPVG 291156Z AUTO 5SM BR OVC005 14/14 A2984 RMK AO2 RAE08 CIG 003V008 SLP107 P0000 60001 70073 T01390139 10167 20133 53025 $", "KPVJ 291155Z AUTO 32006KT 10SM OVC023 09/07 A2997 RMK AO2 T00860066 10100 20085", "KPVU 291156Z AUTO 20005KT 10SM CLR 06/M02 A3025 RMK AO2 SLP220 T00611022 10117 20039 55000", "KPVW 291135Z AUTO 31007KT 10SM CLR 02/M02 A3016 RMK AO2 T00201016", "KPWA 291153Z 34010KT 10SM CLR 07/04 A3000 RMK AO2 SLP157 70009 T00720039 10094 20072 51010", "KPWC 291155Z AUTO 35004KT 10SM OVC009 03/02 A2987 RMK AO2", "KPWD 291155Z AUTO 34010KT 10SM CLR 01/M01 A3008 RMK AO2", "KPWG 291156Z AUTO 31011KT 10SM CLR 11/08 A2995 RMK AO2 SLP139 70008 T01060078 10128 20100 56008", "KPWK 291152Z 00000KT 10SM CLR 07/02 A2972 RMK AO2 SLP064 T00720022 10072 20039 56006", "KPWM 291151Z VRB03KT 10SM SCT200 SCT250 09/07 A3016 RMK AO2 SLP212 T00940067 10094 20028 51008", "KPWT 291156Z AUTO 22007KT 10SM CLR 09/08 A2996 RMK AO2 SLP146 T00940083 10144 20078 53012", "KPXE 291155Z AUTO 00000KT 10SM CLR 14/14 A2986 RMK AO2 T01370137 10146 20119", "KPYM 291152Z AUTO 08006KT 10SM FEW120 11/06 A3009 RMK AO2 SLP193 T01060061 10106 20072 53003", "KPYX 291155Z AUTO 30007KT 10SM CLR 01/M01 A3010 RMK AO2 60001 70004 T00071012 10024 21003", "KPZQ 291155Z AUTO 06004KT 1 3/4SM -RA OVC003 04/04 A2972 RMK AO2 T00400040 10060 20037", "KQAZ 291155Z AUTO 08012G21KT 9999 CLR 40/M02 A2990 RMK AO2 SLP116 WND DATA ESTMD T04041022 10408 20280 57018", "KQBL 291155Z AUTO 00000KT 3/8SM FG VV002 17/17 A2981 RMK AO2 SLP100 WND DATA ESTMD T01720172 10209 20162 55006", "KQBR 291055Z AUTO 14002KT 10SM CLR 09/M03 A3023 RMK AO2 SLP182 WND DATA ESTMD T00861031", "KQD3 291155Z AUTO 06012KT 9999 CLR 34/24 A2967 RMK AO2 SLP032 WND DATA ESTMD T03440240 10360 20313 57028", "KQDG 291155Z AUTO 06004KT 9999 OVC002 12/10 A2974 RMK AO2 PRESFR SLP073 60000 T01150101 10165 20106 57017 $", "KQEI 291150Z AUTO 17005KT 9999 OVC032 11/05 A2968 RMK A02 TSNO", "KQEJ 291150Z AUTO 20007G13KT 9999 BKN034 11/05 A2964 RMK A02 TSNO", "KQEN 291200Z AUTO 24016G31KT 9999 OVC017 06/02 A2957 RMK A02 TSNO", "KQEP 291200Z AUTO 23008G14KT 9999 OVC025 10/06 A2979 RMK A02 TSNO", "KQEQ 291200Z AUTO 25007G12KT 9999 OVC028 10/06 A2979 RMK A02 TSNO", "KQER 291150Z AUTO 16007G16KT 9999 BKN030 10/06 A2966 RMK A02 TSNO", "KQES 291150Z AUTO 23001KT 9999 OVC020 10/06 A2985 RMK A02 TSNO", "KQEV 291150Z AUTO 27009G18KT 9000 HZ BKN017 11/07 A2977 RMK A02 TSNO", "KQEW 291200Z AUTO 19002KT 9999 FEW031 SCT049 12/07 A2975 RMK A02 TSNO", "KQEX 291150Z AUTO 33003KT 9999 CLR 13/06 A2968 RMK A02 TSNO", "KQEY 291140Z AUTO 25005G11KT 9999 OVC023 11/07 A2951 RMK A02 TSNO", "KQFB 291150Z AUTO 29010G13KT 9999 FEW039 SCT230 15/11 A2977 RMK A02 TSNO", "KQFT 291150Z AUTO 21004G11KT 9999 OVC023 11/06 A2974 RMK A02 TSNO", "KQFU 291200Z AUTO 19002KT 9999 OVC016 10/07 A2979 RMK A02 TSNO", "KQFV 291200Z AUTO 22003KT 9999 OVC021 09/05 A2973 RMK A02 TSNO", "KQFW 291150Z AUTO 19008G14KT 9999 OVC025 11/06 A2954 RMK A02 TSNO", "KQFX 291200Z AUTO 25004G11KT 6000 HZ OVC016 10/07 A2976 RMK A02 TSNO", "KQHY 291155Z AUTO 01004KT 1 1/8SM -RA BR OVC002 17/17 A2980 RMK AO2 DZE16RAB16 SLP098 P0000 60000 T01720170 10212 20167 55007", "KQN3 291155Z VRB04KT 9999 SCT150 39/14 A2988 RMK SLP098 WND DATA ESTMD T03890141 10390 20298 58018", "KQOA 291155Z AUTO 14007KT 9999 CLR 24/17 A2991 RMK AO2 SLP084 T02380173 10260 20237 51007 PNO FZRANO TSNO $", "KQRH 291155Z AUTO 08012G18KT 330V130 9999 CLR 33/24 A2962 RMK AO2 SLP033 WND DATA ESTMD T03300243 10355 20325 57030", "KQTZ 291055Z 27009G15KT 240V320 9999 SKC 30/08 A2968 RMK SLP052", "KQVF 291155Z AUTO 21008G15KT 9999 FEW020 30/24 A2981 RMK AO2 SLP097 WND DATA ESTMD 70029 T02950238 10297 20257 57023", "KRAC 291153Z AUTO 00000KT 9SM CLR 07/01 A2971 RMK AO2 SLP063 T00720006 10072 20028 56008", "KRAL 291153Z AUTO 27003KT 5SM BR CLR 12/10 A3000 RMK AO2 SLP148 T01170100 10156 20117 56005", "KRAP 291152Z AUTO 33015KT 10SM CLR 09/M01 A3000 RMK AO2 SLP153 T00941006 10111 20061 53011", "KRAS 291135Z AUTO 32022G25KT 10SM SCT120 16/11 A2997 RMK AO2 T01590113", "KRAW 291155Z AUTO 35009KT 10SM OVC060 10/06 A2989 RMK AO2", "KRBD 291153Z 33014G25KT 10SM OVC024 12/07 A2993 RMK AO2 PK WND 32027/1131 SLP131 70050 T01170072 10122 20117 53006", "KRBG 291153Z AUTO 00000KT 10SM CLR 13/09 A3002 RMK AO2 SLP161 T01280089 10217 20128 53008", "KRBL 291154Z AUTO 30006KT 10SM CLR 16/12 A2997 RMK AO2 SLP144 T01560117 10217 20156 53006", "KRBO 291135Z AUTO 32011KT 10SM CLR 15/11 A2999 RMK AO2 T01470105", "KRBW 291155Z AUTO 00000KT 10SM SCT055 19/18 A2984 RMK AO2", "KRCA 291055Z 30018KT 10SM CLR 11/M02 A2995 RMK AO2A SLP140 T01121016 $", "KRCE 291155Z AUTO 33010KT 10SM CLR 06/05 A3000 RMK AO2", "KRCM 291155Z AUTO 32008KT 10SM SCT070 09/06 A2990 RMK AO2", "KRCR 291135Z AUTO 00000KT 8SM CLR 05/04 A2974 RMK AO2", "KRCV 291155Z AUTO 26005KT 10SM CLR 01/M09 A3030 RMK AO2 T00141094 10047 20004", "KRCX 291155Z AUTO 34009KT 10SM OVC007 02/02 A2976 RMK AO2 70028 T00210021 10032 20020", "KRCZ 291155Z AUTO 04003KT 1/2SM FG OVC001 15/14 A2982 RMK AO2 70001 T01470144 10184 20144", "KRDD 291153Z AUTO 33003KT 10SM CLR 16/12 A2996 RMK AO2 SLP140 T01610122 10222 20161 53003", "KRDG 291154Z 04007KT 4SM BR OVC008 10/09 A2984 RMK AO2 RAE33 SLP111 P0000 60003 70082 T01000089 10100 20094 50006", "KRDK 291135Z AUTO 29007KT 10SM CLR 03/02 A2992 RMK AO2", "KRDM 291156Z AUTO 12004KT 10SM CLR 06/02 A3007 RMK AO2 SLP163 T00610022 10178 20061 53002 $", "KRDR 291155Z AUTO 29003KT 10SM OVC065 02/00 A2985 RMK AO2 SLP119 T00220001 10023 21010 56006 VISNO RWY17 $", "KRDU 291151Z 06004KT 1/4SM BR OVC002 13/13 A2984 RMK AO2 SFC VIS 1 1/2 SLP103 70013 T01330128 10161 20133 51021", "KREG 291155Z AUTO 20003KT 10SM CLR 17/16 A2973 RMK AO2 LTG DSNT S T01700160 10185 20154", "KREO 291152Z AUTO 23004KT 04/M02 A3012 RMK AO1 SLP178 T00441022 10106 20039 53000", "KRFD 291154Z 00000KT 10SM FEW080 OVC110 07/02 A2971 RMK AO2 SLP062 6//// 7//// T00720022 10150 20061 $", "KRFI 291155Z AUTO 30005KT 10SM OVC007 14/10 A2985 RMK AO2 60005 70009 T01400101 10181 20140", "KRGA 291135Z AUTO 18006KT 5SM BR CLR 08/08 A2984 RMK AO2", "KRGK 291155Z AUTO 00000KT 7SM OVC007 04/02 A2978 RMK AO2", "KRHI 291153Z AUTO 35006KT 7SM -RA BKN003 OVC025 04/03 A2967 RMK AO2 CIG 003V007 SLP051 P0001 60007 70007 T00390028 10056 20039 58017", "KRHP 291150Z AUTO 00000KT M1/4SM FG OVC002 09/09 A2987 RMK AO2 T00920086", "KRIC 291154Z 31006KT 10SM OVC004 12/10 A2984 RMK AO2 SLP109 70105 T01170100 10128 20111 53022", "KRID 291155Z AUTO 26006KT 5SM BR CLR 07/07 A2978 RMK AO2", "KRIL 291153Z AUTO 07003KT 10SM CLR 00/M04 A3032 RMK AO2 SLP249 T00001039 10050 20000 53001", "KRIV 291155Z AUTO 00000KT 8SM CLR 11/11 A3000 RMK AO2 SLP150 T01090106 10154 20099 56005", "KRIW 291153Z AUTO 19003KT 10SM CLR 04/M04 A3019 RMK AO2 SLP201 T00441044 10078 20022 58003 $", "KRKD 291156Z AUTO 10004KT 10SM CLR 09/07 A3018 RMK AO2 SLP220 T00890067 10089 20017 51008", "KRKP 291153Z AUTO A2996 RMK AO2 SLP148 7//// 51024 PWINO $", "KRKR 291155Z AUTO 34008KT 10SM OVC044 12/10 A2986 RMK AO2", "KRKS 291154Z AUTO 21007KT 10SM CLR 02/M06 A3027 RMK AO2 SLP216 T00221056 10067 20017 58001", "KRKW 291155Z AUTO 00000KT 9SM CLR 10/10 A2985 RMK A01", "KRLD 291155Z AUTO 00000KT 10SM CLR 10/06 A3000 RMK AO2 T00950058 10152 20086", "KRME 291153Z 11011G20KT 4SM +RA BR FEW022 OVC065 07/04 A2995 RMK AO2 SLP141 P0015 60037 70037 T00670044 10111 20061 56002", "KRMG 291153Z AUTO 00000KT 10SM OVC001 12/10 A2985 RMK AO2 SLP101 70001 T01170100 10144 20106 53009", "KRMN 291155Z AUTO 33004KT 10SM OVC005 15/14 A2984 RMK AO2 60002 70232 T01450135 10145 20140", "KRMY 291155Z AUTO 27003KT 5SM BR BKN005 OVC010 10/09 A2968 RMK AO2 60001 70033 T00970090 10098 20093 P0001", "KRNC 291155Z AUTO 00000KT M1/4SM FG OVC002 09/09 A2984 RMK A01", "KRND 291155Z AUTO 33006KT 10SM CLR 11/08 A2998 RMK AO2 SLP149 70035 T01120077 10145 20111 51018", "KRNH 291155Z AUTO 32006KT 10SM UP OVC007 03/03 A2979 RMK AO2 70016 T00290029 10035 20027", "KRNM 291153Z AUTO 00000KT 3/4SM BR VV002 07/06 A3000 RMK AO2 SLP150 T00670061 10106 20067 56006 $", "KRNO 291155Z 29004KT 10SM SCT200 13/00 A3016 RMK AO2 SLP166 T01280000 10206 20128 55000", "KRNP 291155Z AUTO 33006KT 2 1/2SM BR OVC003 10/08 A2964 RMK AO2 T00970080 10098 20093", "KRNT 291153Z AUTO 00000KT 10SM CLR 13/09 A2996 RMK AO2 SLP150 T01280089 10167 20128 53016", "KROA 291154Z 12005KT 4SM BR OVC003 12/11 A2985 RMK AO2 SLP103 70006 T01220111 10128 20122 53012", "KROC 291154Z 14011KT 6SM BR SCT024 OVC046 07/06 A2981 RMK AO2 SLP101 60009 70028 T00720061 10083 20067 56009", "KROG 291158Z 34007KT 4SM OVC005 11/10 A2990 RMK AO2 SLP120 60001 70008 T01060100 10117 20106 53008", "KROS 291155Z AUTO 00000KT 10SM OVC023 05/03 A2981 RMK AO2 60001 70006 T00460030 10055 20043 P0001", "KROW 291151Z 34004KT 10SM CLR 04/M03 A3023 RMK AO2 SLP214 T00391028 10078 20033 51006", "KROX 291155Z AUTO 00000KT 10SM BKN060 03/03 A2987 RMK AO2", "KRPD 291155Z AUTO 32005KT 7SM -RA OVC007 03/03 A2978 RMK AO2 70019 T00260026 10034 20026", "KRPH 291155Z AUTO 31008KT 9SM FEW150 08/06 A3004 RMK AO2 T00840060 $", "KRPJ 291135Z AUTO 16004KT 10SM BKN090 OVC110 07/02 A2970 RMK AO2 T00650023 TSNO", "KRPX 291055Z AUTO 26005KT 05/M02 A3004 RMK Roundup ", "KRQB 291155Z AUTO 00000KT 10SM OVC017 09/07 A2968 RMK AO2 T00930072 10096 20090", "KRQE 291153Z AUTO 00000KT 10SM CLR M02/M11 A3030 RMK AO2 SLP204 T10171106 10056 21022 52005", "KRQO 291135Z AUTO 31009KT 06/04 A3003 RMK AO2 PWINO T00640043", "KRRL 291155Z AUTO 32008KT 2SM -DZ OVC005 03/03 A2966 RMK AO2 T00320032 10076 20032 TSNO", "KRRT 291155Z AUTO 00000KT 10SM BKN055 OVC090 03/01 A2987 RMK AO2", "KRSL 291153Z AUTO 26007KT 10SM CLR M01/M03 A3002 RMK AO2 SLP174 T10111033 10050 21011 58007", "KRSP 291154Z AUTO 06007KT M1/4SM FG VV002 09/07 A2980 RMK AO2 SLP099 60003 70242 T00940072 10100 20083 50006 $", "KRST 291154Z 32006KT 9SM OVC010 03/03 A2977 RMK AO2 SLP091 70023 T00280028 10050 20017 56009", "KRSW 291153Z 09003KT 10SM CLR 24/23 A2989 RMK AO2 SLP121 T02440228 10250 20233 53005", "KRTN 291153Z AUTO 04005KT 10SM CLR M03/M06 A3023 RMK AO2 SLP222 T10281061 10028 21039 50001", "KRTS 291155Z AUTO 00000KT 10SM CLR 08/M01 A3019 RMK AO2", "KRUE 291153Z AUTO 34004KT 5SM -RA BR BKN070 OVC085 13/12 A2981 RMK AO2 SLP088 P0006 60055 70059 T01280117 10150 20128 50005", "KRUG 291155Z AUTO 29008KT 10SM FEW060 SCT080 02/02 A2990 RMK AO2", "KRUQ 291145Z AUTO 00000KT 3/4SM BR OVC003 13/13 A2983 RMK AO2 T01330131", "KRUT 291156Z AUTO 17011G17KT 10SM SCT090 BKN110 10/01 A3004 RMK AO2 SLP168 T01000011 10100 20089 55000 $", "KRVF 291155Z AUTO 20007KT 10SM CLR 02/M03 A3021 RMK AO2", "KRVJ 291135Z AUTO 00000KT 3/4SM BR BKN003 17/ A2985 RMK AO2 T0168////", "KRVL 291155Z AUTO 00000KT 3SM -DZ BKN001 OVC010 09/08 A2985 RMK AO2 P0001", "KRVS 291153Z VRB04KT 10SM BKN024 OVC030 11/07 A2994 RMK AO2 SLP143 70006 T01060072 10111 20106 53007", "KRWF 291153Z AUTO 30006KT 10SM CLR 02/01 A2984 RMK AO2 SLP112 70007 T00170006 10050 20006 56009", "KRWI 291153Z AUTO 35003KT 1/2SM FG VV002 14/13 A2984 RMK AO2 SLP105 70094 T01390133 10161 20139 53018", "KRWL 291153Z AUTO 24016KT 10SM CLR 06/M06 A3024 RMK AO2 SLP196 T00561056 10072 20044 51002", "KRWV 291135Z AUTO 31011G19KT 10SM CLR 12/09 A2993 RMK AO2 T01170086", "KRXE 291153Z AUTO 05003KT 10SM CLR 01/M03 A3023 RMK AO2 SLP229 T00111033 10072 20011 53000", "KRYM 291155Z AUTO 35007KT 10SM FEW012 03/01 A2981 RMK AO2 SLP106 70002 T00310011 10059 20026 57009", "KRYN 291155Z AUTO 00000KT 10SM SCT048 SCT055 13/M09 A3000 RMK AO2", "KRYW 291155Z AUTO 29008KT 10SM CLR 10/07 A3000 RMK AO2 70042 T00970072 10118 20097", "KRYY 291150Z 00000KT 10SM CLR 13/12 A2986 RMK AO2 SLP104 70001 T01330122 10156 20111 53009 $", "KRZL 291155Z AUTO 00000KT 10SM CLR 05/02 A2975 RMK AO2", "KRZN 291155Z AUTO 36004KT 7SM -RA BKN008 OVC011 02/01 A2980 RMK AO2 7//// T00200012 10028 20020", "KRZR 291155Z AUTO 00000KT 1/2SM BR VV005 11/11 A2984 RMK A01", "KRZT 291135Z AUTO 24009G15KT 10SM OVC030 11/10 A2979 RMK AO2 PWINO", "KS21 291155Z AUTO 18007KT 10SM CLR 04/02 A3016 RMK AO2", "KS24 291155Z AUTO 25010KT 10SM BKN007 OVC011 11/10 A2969 RMK AO2", "KS25 291155Z AUTO 34010KT 10SM CLR 05/01 A3003 RMK AO2", "KS32 291155Z AUTO 00000KT 10SM OVC070 01/01 A2988 RMK AO2 TSNO", "KS33 291135Z AUTO 14005KT 10SM CLR A3006 RMK AO2", "KS34 291055Z AUTO 00000KT 10SM 03/M23 A3011 RMK Plains ", "KS39 291155Z AUTO 18003KT 10SM CLR 07/04 A3008 RMK AO2", "KS52 291155Z AUTO 36003KT 10SM BKN100 OVC120 05/01 A3008 RMK AO2 T00460012 10105 20034", "KS71 291200Z AUTO 00000KT 10SM 07/02 A3016 ", "KS85 291155Z AUTO 36011KT 10SM 05/01 A3005 RMK A01 Culbertson ", "KSAA 291155Z AUTO 00000KT 10SM CLR 00/M04 A3027 RMK AO2", "KSAC 291153Z AUTO 20003KT 10SM CLR 13/09 A2996 RMK AO2 SLP144 T01280094 10178 20128 58001", "KSAD 291151Z AUTO 10010KT 10SM CLR 15/M01 A3013 RMK AO2 SLP158 T01501011 10211 20150 51014 $", "KSAF 291153Z AUTO 01007KT 10SM CLR 00/ A3026 RMK AO2 SLP217 70008 T0000 10044 21017 50000 $", "KSAN 291151Z VRB03KT 10SM OVC010 15/12 A3002 RMK AO2 SLP164 T01500117 10156 20144 58007 $", "KSAR 291155Z AUTO 26004KT 10SM SCT090 12/09 A2980 RMK AO2 T01230085 10152 20122", "KSAT 291151Z 30009KT 10SM CLR 12/07 A3002 RMK AO2 SLP154 70075 T01170067 10144 20111 51014", "KSAV 291153Z 28005KT 1/4SM R01/6000VP6000FT BR BKN002 19/18 A2985 RMK AO2 SFC VIS 2 SLP106 60023 70023 T01940183 10211 20194 53013", "KSAW 291145Z 00000KT 7SM BKN041 OVC055 03/01 A2969", "KSAZ 291155Z AUTO 32003KT 10SM OVC009 03/02 A2984 RMK AO2", "KSBA 291153Z AUTO 27004KT 8SM BR OVC004 12/10 A3001 RMK AO2 SLP163 T01170100 10122 20117 56006 $", "KSBD 291200Z AUTO 00000KT 7SM CLR 13/09 A3001 RMK AO2 T01340093", "KSBM 291153Z AUTO 00000KT 7SM FEW120 06/03 A2967 RMK AO2 SLP051 T00560028 10056 20022 56015", "KSBN 291154Z 21005KT 6SM BR CLR 05/03 A2974 RMK AO2 SLP072 70014 T00500028 10067 20033 53006", "KSBO 291155Z AUTO 00000KT 10SM CLR A2986 RMK AO2", "KSBP 291156Z 23003KT 3SM BR OVC003 11/10 A3002 RMK AO2 SLP165 T01060100 10111 20106 50000", "KSBS 291155Z AUTO 00000KT 10SM CLR M02/M04 A3031 RMK AO1 T10221045 10017 21025", "KSBY 291154Z 22003KT 3SM BR OVC002 16/16 A2978 RMK AO2 SLP086 60000 7//// T01610156 10167 20161 53020", "KSCD 291155Z AUTO 00000KT 10SM SCT075 BKN095 OVC120 12/12 A2986 RMK AO2 T01170115 10132 20105", "KSCH 291146Z 09004KT 10SM -RA OVC050 A3003 RMK TEMP AND DP MISSING", "KSCK 291155Z AUTO 35004KT 10SM CLR 14/09 A2996 RMK AO2 SLP143 T01390089 10189 20139 55002", "KSCR 291145Z AUTO 03004KT 1/2SM FG OVC002 13/13 A2983 RMK AO2 T01270127", "KSCX 291155Z AUTO 00000KT 6SM BR CLR 08/08 A2986 RMK A01", "KSDA 291155Z AUTO 23003KT 9SM CLR 04/02 A2992 RMK AO2", "KSDB 291151Z AUTO 33008KT 10SM CLR 18/06 A3014 RMK AO2 SLP151 T01830056 10194 20178 56005 $", "KSDC 291135Z AUTO 14006KT 3SM -RA BKN009 BKN017 OVC039 07/06 A2987 RMK AO2 P0002", "KSDF 291156Z 13004KT 10SM OVC120 11/09 A2980 RMK AO2 SLP092 T01110089 10122 20094 56000", "KSDL 291153Z AUTO 00000KT 10SM CLR 21/M04 A2998 RMK AO2 SLP127 T02061044 10294 20200 51009", "KSDM 291153Z AUTO VRB03KT 5SM BR OVC007 13/11 A2999 RMK AO2 SLP155 T01330111 10139 20133 58007 $", "KSDY 291156Z AUTO 35012KT 10SM CLR 07/00 A3005 RMK AO2 SLP186 T00670000 10083 20061 53021", "KSEA 291153Z 19007KT 10SM BKN250 14/08 A2996 RMK AO2 SLP151 T01390083 10172 20122 51014", "KSEE 291155Z AUTO 31003KT 6SM BR OVC005 13/11 A3000 RMK AO2", "KSEF 291155Z AUTO 00000KT 10SM SCT029 BKN042 24/ A2993 RMK AO2 T0242//// 10243 20221", "KSEG 291153Z AUTO 00000KT 6SM BR FEW009 OVC019 09/08 A2986 RMK AO2 RAE33 SLP113 P0001 60013 70058 T00890083 10089 20078 50007", "KSEM 291155Z AUTO 00000KT 10SM CLR 12/12 A2982 RMK AO2", "KSEP 291155Z AUTO 32010KT 10SM CLR 10/06 A3003 RMK AO2 T01020056 10108 20100", "KSEQ 291155Z AUTO 32009KT 10SM CLR 11/08 A2997 RMK AO2 SLP148 70031 T01120084 10146 20112 51010", "KSET 291154Z AUTO 28005KT 9SM FEW014 11/09 A2979 RMK AO2 SLP084 T01110089 10128 20083 53007", "KSEZ 291155Z AUTO 36008KT 10SM CLR 15/M12 A3020 RMK AO2", "KSFB 291153Z 21005KT 10SM CLR 23/20 A2989 RMK AO2 SLP121 T02280200 10228 20211 53016", "KSFF 291153Z AUTO 00000KT 10SM CLR 06/03 A3006 RMK AO2 SLP173 T00610028 10128 20061 50003", "KSFM 291156Z AUTO 10005KT 10SM CLR 08/06 A3015 RMK AO2 SLP214 T00830061 10083 21011 51007", "KSFO 291156Z 31008KT 10SM OVC007 11/09 A3003 RMK AO2 SLP168 T01110094 10117 20106 53000", "KSFQ 291155Z AUTO 30003KT 2 1/2SM BR OVC002 14/14 A2984 RMK AO2 70037 T01410141 10176 20141", "KSFZ 291156Z AUTO 10006KT 10SM BKN070 09/04 A3009 RMK AO2 SLP189 T00890044 10089 20072 53004", "KSGF 291152Z 35011KT 7SM OVC009 12/10 A2986 RMK AO2 CIG 008V013 SLP108 T01170100 10122 20111 53004", "KSGH 291156Z AUTO 25008KT 9SM OVC022 11/10 A2977 RMK AO2 SLP084 60000 70006 T01060100 10106 20100 53008", "KSGJ 291156Z 23004KT 10SM 22/20 A2989 RMK AO2 SLP121 70001 T02220200 10222 20211 53013 $", "KSGR 291153Z 33012G24KT 310V010 10SM OVC020 14/11 A2987 RMK AO2 SLP116 60000 70065 T01440106 10178 20144 53009", "KSGS 291155Z AUTO 34004KT 4SM -RA SCT005 OVC021 04/03 A2980 RMK AO2 60001 70022 T00360027 10045 20030 P0001", "KSGT 291156Z AUTO 06012KT 10SM OVC030 14/13 A2977 RMK AO2 RAB01E51 SLP081 P0000 60016 70016 T01440133 10161 20144 58002", "KSGU 291156Z AUTO 19006KT 10SM CLR 14/M04 A3014 RMK AO2 SLP180 T01391039 10194 20133 53006", "KSHD 291155Z AUTO 10004KT 10SM OVC011 10/08 A2986 RMK AO2 70066 T00970084 10097 20086", "KSHL 291155Z AUTO 32005KT 10SM FEW050 BKN100 BKN120 01/01 A2986 RMK AO2", "KSHM 291155Z AUTO 29006KT 10SM CLR 06/M06 A3016 RMK AO2 SLP199 T00571065 10070 20034 58002 $", "KSHN 291153Z AUTO 24012KT 10SM CLR 11/09 A2996 RMK AO2 SLP144 T01110089 10156 20100 51019", "KSHR 291153Z AUTO 30008KT 10SM CLR 08/M02 A3014 RMK AO2 SLP195 T00781022 10100 20056 52007", "KSHV 291156Z 30014G21KT 10SM OVC009 16/13 A2977 RMK RAE17 SLPNO", "KSIF 291145Z AUTO 00000KT 1 3/4SM BR OVC003 11/11 A2985 RMK AO2 T01120110", "KSIK 291155Z AUTO 00000KT 7SM SCT070 SCT080 14/14 A2980 RMK AO2 P0001", "KSIY 291153Z AUTO 03004KT 10SM CLR 08/03 A3007 RMK AO2 SLP174 T00830028 10156 20083 53003", "KSJC 291153Z AUTO 00000KT 9SM OVC009 14/12 A3002 RMK AO2 SLP164 T01390117 10144 20128 53001", "KSJS 291155Z AUTO 00000KT 10SM CLR 11/11 A2984 RMK AO2 T01100110 10127 20103", "KSJT 291151Z 28013G22KT 10SM CLR 09/01 A3012 RMK AO2 SLP195 T00890011 10106 20083 51006", "KSJX 291155Z AUTO 08007KT 7SM SCT034 07/07 A2971 RMK AO2 T00690069 10090 20055", "KSKA 291155Z AUTO 07006KT 10SM CLR 07/01 A3003 RMK AO2 SLP163 T00650014 10155 20065 53001 $", "KSKF 291155Z AUTO 31008KT 10SM CLR 11/07 A3000 RMK AO2 SLP157 70006 T01100067 10147 20110 50014 $", "KSKX 291156Z AUTO 00000KT 10SM CLR M04/M06 A3030 RMK AO2 SLP255 70014 T10441061 10033 21044 58001 FZRANO", "KSLB 291155Z AUTO 27009KT 10SM CLR 01/00 A2987 RMK AO2", "KSLC 291154Z 11005KT 10SM CLR 09/01 A3020 RMK AO2 SLP196 T00890006 10133 20089 56004", "KSLE 291156Z AUTO 20003KT 10SM CLR 13/08 A2999 RMK AO2 SLP156 T01280083 10200 20128 53010", "KSLG 291156Z AUTO 01009KT 6SM BR OVC005 11/11 A2989 RMK AO2 CIG 004V008 SLP118 60001 7//// T01060106 10117 20106 52007", "KSLH 291155Z AUTO 08008KT 1 1/4SM BR OVC005 07/07 A2971 RMK AO2", "KSLI 291155Z AUTO 11003KT 9SM OVC007 13/12 A2999 RMK AO2 SLP159 T01320116 10133 20126 57005 $", "KSLK 291151Z AUTO 14004KT 10SM BKN080 OVC100 10/M01 A2995 RMK AO2 SLP145 T01001011 10100 20056 58004", "KSLN 291153Z 30007KT 10SM CLR 03/00 A3002 RMK AO2 SLP168 70016 T00280000 10089 20017 58003", "KSLO 291155Z AUTO 25005KT 10SM CLR 12/09 A2977 RMK AO2 T01170090 10133 20103", "KSLR 291155Z AUTO 33013KT 10SM OVC011 13/11 A2990 RMK AO2 60004 70030 T01250111 10135 20122", "KSMD 291155Z AUTO 24006KT 6SM BR OVC023 09/09 A2974 RMK A01", "KSME 291155Z AUTO 00000KT M1/4SM FG OVC001 08/08 A2984 RMK AO2", "KSMF 291153Z 18007KT 10SM FEW250 14/10 A2994 RMK AO2 SLP139 T01390100 10200 20139 55001", "KSMN 291156Z AUTO 00000KT 10SM CLR 01/M02 A3021 RMK AO2 SLP917 T00111022 10100 20011 51007 FZRANO", "KSMO 291151Z 19004KT 3SM BR OVC002 12/11 A3001 RMK AO2 SLP162 T01220111 10128 20122 58005", "KSMQ 291153Z AUTO 5SM -RA BR OVC013 11/09 A2988 RMK AO2 SLP118 P0003 60064 70121 T01060094 10106 20083 51009", "KSMS 291155Z AUTO 00000KT 7SM CLR 18/18 A2982 RMK AO2", "KSMX 291151Z AUTO 19003KT 4SM BR OVC003 09/09 A3003 RMK AO2 SLP171 T00940094 10100 20089 50000", "KSNA 291153Z AUTO 00000KT 10SM OVC007 14/12 A3001 RMK AO2 SLP161 T01440117 10150 20139 56005", "KSNC 291155Z AUTO 05006KT 10SM -DZ OVC041 09/07 A3003 RMK AO2", "KSNH 291150Z AUTO 00000KT 3SM BR CLR 11/11 A2979 RMK A01", "KSNK 291155Z AUTO 31006KT 10SM CLR 06/M01 A3015 RMK AO2 T00561012", "KSNS 291153Z AUTO 00000KT 9SM OVC005 12/09 A3002 RMK AO2 SLP175 T01170094 10128 20117 56007", "KSNT 291151Z AUTO 15003KT M04/M07 A3030 RMK AO1 SLP214 T10391067 10011 21044 50003", "KSNY 291153Z AUTO 29011KT 10SM OVC090 07/M02 A3006 RMK AO2 SLP167 T00721022 10072 21006 58009", "KSOA 291155Z AUTO 00000KT 10SM CLR 10/M01 A3015 RMK AO2", "KSOP 291156Z AUTO 09005KT 5SM BR OVC003 15/15 A2983 RMK AO2 SLP105 70005 T01500150 10161 20144 51013", "KSOW 291155Z AUTO 00000KT 10SM CLR 02/M10 A3030 RMK AO2", "KSPA 291155Z AUTO 01004KT 4SM BR OVC003 14/13 A2982 RMK AO2", "KSPB 291153Z AUTO 00000KT 10SM CLR 11/08 A2999 RMK AO2 SLP154 T01060083 10172 20100 53018", "KSPD 291156Z AUTO 29011KT 03/M01 A3012 RMK AO1 SLP182 T00331011 10033 20006 56007", "KSPF 291155Z AUTO 29011KT 10SM CLR 09/M02 A3006 RMK AO2", "KSPG 291153Z 21008KT 10SM CLR 26/23 A2986 RMK AO2 SLP110 70001 T02560228 10256 20239 51011", "KSPI 291152Z 30008KT 10SM CLR 11/08 A2975 RMK AO2 SLP071 T01060083 10122 20061 53003", "KSPK 291155Z AUTO 14009KT 10SM CLR 07/M04 A3024 RMK AO2", "KSPS 291152Z AUTO 31014KT 10SM CLR 08/05 A3003 RMK AO2 SLP167 70002 T00780050 10111 20078 53007 $", "KSPW 291153Z AUTO 28005KT 10SM CLR 01/M03 A2986 RMK AO2 SLP119 T00061028 10022 21017 56010", "KSQI 291156Z AUTO 28013G19KT 10SM BKN008 OVC015 11/09 A2972 RMK AO2 RAB15E33 SLP929 P0000 60000 T01060094 10106 20061 55011", "KSQL 291155Z AUTO 00000KT 7SM OVC009 13/12 A3004 RMK AO2", "KSRB 291155Z AUTO 00000KT 1SM BR BKN002 10/10 A2986 RMK AO2", "KSRC 291156Z AUTO 06007KT 10SM -RA OVC036 14/13 A2981 RMK AO2 SLP092 P0003 60030 70031 T01390133 10144 20139 55002", "KSRE 291155Z AUTO 34009G14KT 10SM OVC020 09/07 A2996 RMK AO2", "KSRQ 291153Z 23006KT 10SM FEW014 26/23 A2988 RMK AO2 SLP116 60000 T02610228 10267 20250 53013", "KSRR 291155Z AUTO 23003KT 10SM CLR 03/M04 A3029 RMK AO2", "KSSC 291155Z AUTO 00000KT 10SM CLR 18/16 A2979 RMK AO2 SLP088 T01780161 10178 20156 50011 $", "KSSF 291153Z 29006KT 10SM CLR 13/08 A3000 RMK AO2 SLP156 60000 70004 T01280078 10156 20122 51019 $", "KSSI 291153Z AUTO 24007KT 7SM FEW005 23/20 A2986 RMK AO2 SLP112 70002 T02280200 10233 20222 53016", "KSTC 291153Z 34006KT 10SM OVC020 05/02 A2981 RMK AO2 SLP109 70001 T00500022 10056 20033 58009", "KSTE 291155Z AUTO 29005KT 10SM OVC005 06/05 A2967 RMK AO2 60019 70019 T00620045 10112 20062", "KSTF 291155Z AUTO 00000KT 10SM CLR 12/12 A2979 RMK AO2", "KSTJ 291153Z AUTO 00000KT 9SM CLR 05/03 A2993 RMK AO2 SLP137 T00500033 10117 20050 55000", "KSTK 291155Z AUTO 17006KT 10SM OVC090 01/00 A3010 RMK AO2", "KSTL 291151Z 30007KT 10SM SCT100 BKN250 12/09 A2979 RMK AO2 SLP082 T01170089 10161 20111 53002 $", "KSTP 291153Z 33005KT 10SM OVC008 04/02 A2981 RMK AO2 RAE42 SLP098 P0001 60001 70021 T00390022 10044 20033 58010", "KSTS 291153Z 08003KT 1SM BR VV002 09/08 A3003 RMK AO2 SLP164 T00890078 10100 20089 53001", "KSUA 291151Z VRB05KT 7SM CLR 24/21 A2992", "KSUE 291156Z AUTO 14003KT 10SM CLR 06/03 A2969 RMK AO2 SLP053 7//// T00610033 10067 20044 56014", "KSUN 291155Z AUTO 32012KT 10SM CLR 04/M02 A3025 RMK AO2", "KSUS 291154Z 26005KT 10SM CLR 10/08 A2980 RMK AO2 SLP087 T01000083 10106 20067 53006", "KSUT 291150Z AUTO 25004KT 5SM BR OVC003 20/19 A2983 RMK AO2 T02000190 10200 20187", "KSUU 291155Z AUTO 22016KT 10SM CLR 10/09 A2994 RMK AO2 SLP145 T01030086 10139 20103 55006", "KSUW 291155Z AUTO 32003KT 10SM -DZ OVC019 02/02 A2980 RMK AO2 60003 70008 T00240020 10024 20011", "KSUX 291152Z 00000KT 10SM BKN110 01/M01 A2989 RMK AO2 SLP127 70041 T00111006 10039 20006 58013", "KSUZ 291155Z AUTO 31005KT 3SM BR OVC005 14/14 A2978 RMK A01", "KSVC 291155Z AUTO 01007KT 10SM CLR 03/M03 A3027 RMK AO2 T00321033 10077 20015", "KSVE 291155Z AUTO 26005KT 10SM CLR 07/03 A3015 RMK AO2", "KSVH 291145Z AUTO 00000KT 1 3/4SM BR OVC003 13/13 A2984 RMK AO2 T01310127", "KSVN 291155Z AUTO 29004KT 9SM OVC002 20/20 A2981 RMK AO2 CIG 001 RWY10 SLP098 T01950195 10207 20184 51019 $", "KSWF 291145Z 08014G19KT 4SM -DZ BR BKN010 OVC025 08/07 A2996", "KSWO 291153Z 32007KT 10SM CLR 08/06 A2998 RMK AO2 SLP151 70020 T00830056 10100 20083 53007", "KSWW 291155Z AUTO 31007KT 10SM CLR 07/00 A3015 RMK AO2 T00730004 10102 20071", "KSXK 291155Z AUTO 29003KT 10SM FEW060 FEW080 BKN100 02/00 A2986 RMK AO2", "KSXS 291155Z AUTO 00000KT 3/8SM FG VV000 15/15 A2981 RMK AO2 DZB12E39 SLP094 P0000 60000 T01500148 10185 20146 50004 RVRNO", "KSXT 291156Z AUTO 21007KT 10SM CLR 14/M02 A3008 RMK AO2 SLP136 T01391022 10178 20139 55004 ", "KSXU 291155Z AUTO 00000KT 10SM CLR 00/M03 A3024 RMK AO2 T00021031 10047 21001", "KSYF 291155Z AUTO 23009KT 10SM BKN095 00/M03 A3009 RMK AO2 T10051027 10010 21013 PWINO", "KSYI 291155Z AUTO 00000KT 1 3/4SM BR BKN002 10/10 A2984 RMK A01", "KSYM 291155Z AUTO 22005KT 7SM CLR 10/10 A2984 RMK AO2", "KSYN 291155Z AUTO 00000KT 3SM BR SCT041 OVC047 03/02 A2979 RMK AO2 70009 T00260021 10029 20007", "KSYR 291154Z 08013KT 10SM -RA FEW009 BKN026 OVC034 07/05 A2989 RMK AO2 SLP120 P0004 60048 70055 T00720050 10094 20067 58001", "KSZL 291155Z 33008KT 10SM BKN070 10/06 A2987 RMK AO2A SLP116 T01040058 10127 20104 50004 $", "KSZT 291155Z AUTO 00000KT 10SM CLR 03/01 A3010 RMK AO2", "KSZY 291155Z AUTO 00000KT 1 3/4SM BR FEW002 SCT100 12/11 A2978 RMK A01", "KT20 291135Z AUTO 33009KT 10SM CLR 13/09 A2996 RMK AO2 T01250091", "KT35 291135Z AUTO 31010G15KT 10SM CLR 11/09 A2994 RMK AO2 T01120087", "KT41 291155Z AUTO 31012G21KT 10SM BKN019 OVC041 15/12 A2984 RMK AO2 T01540124 10195 20154", "KT69 291155Z AUTO 34008G15KT 10SM CLR 15/10 A2999 RMK A01", "KT70 291155Z AUTO 31009KT 9SM CLR 11/04 A3010 RMK AO2 SLP184 70037 T01140044 10155 20090 50004 $", "KT74 291155Z AUTO 33010G16KT 10SM CLR 11/08 A2997 RMK AO2 T01100081 10139 20108 70070", "KT78 291155Z AUTO 33011G17KT 290V350 10SM OVC017 15/13 A2981 RMK AO2", "KT82 291155Z AUTO 32010G16KT 10SM CLR 10/04 A3005 RMK AO2 70001 T00970040 10115 20095", "KT89 291155Z AUTO 00000KT 10SM CLR 10/M01 A3020 RMK A01", "KTAD 291154Z AUTO 25012KT 10SM CLR 01/M03 A3021 RMK AO2 SLP211 70002 T00111028 10011 20006 56003", "KTAN 291152Z AUTO VRB06KT 10SM BKN110 11/05 A3009 RMK AO2 SLP188 T01110050 10111 20072 53002", "KTAZ 291155Z AUTO 29007KT 10SM CLR 10/08 A2975 RMK AO2 T01030075 10120 20081 PWINO", "KTBN 291155Z AUTO 32006G14KT 10SM OVC006 M M RMK AO2 SLPNO RVRNO TSNO $", "KTBR 291155Z AUTO 00000KT 10SM CLR 17/17 A2985 RMK AO2 T01730165 10177 20150 PWINO", "KTBX 291155Z AUTO 10SM CLR 07/M09 A3032 RMK AO2", "KTCL 291153Z AUTO 00000KT 8SM CLR 13/13 A2981 RMK AO2 SLP093 T01330128 10144 20111 56009", "KTCM 291155Z AUTO 00000KT 10SM CLR 09/09 A2997 RMK AO2 SLP152 T00860086 10151 20079 $", "KTCS 291153Z AUTO 29005KT 10SM CLR 05/M05 A3024 RMK AO2 SLP198 T00501050 10106 20044 51010", "KTCY 291155Z AUTO 10003KT 10SM CLR 15/10 A2996 RMK A01", "KTDF 291145Z AUTO 00000KT 10SM OVC005 10/10 A2986 RMK AO2", "KTDR 291155Z AUTO 08004KT 10SM CLR 20/19 A2975 RMK AO2 LTG DSNT S SLP078 T02010194 10224 20193 57008 $", "KTDZ 291153Z AUTO 25008KT 10SM OVC010 11/09 A2969 RMK AO2 CIG 008V012 SLP055 70040 T01110094 10111 20106 53013", "KTEB 291151Z 06007KT 4SM RA BR OVC008 09/09 A2991 RMK AO2 CIG 007V011 SLP129 P0019 60113 70157 T00940089 10094 20089 56009", "KTEW 291155Z AUTO 31006KT 5SM BR BKN006 OVC016 11/09 A2966 RMK AO2 T01050090 10107 20103", "KTEX 291155Z AUTO 14004KT 10SM CLR 00/M10 A3039 RMK AO2", "KTFP 291055Z AUTO 34013G19KT 10SM CLR 15/10 A2996 RMK AO2 T01530104", "KTGI 291155Z AUTO 27008KT 4SM OVC003 15/14 A2981 RMK AO1 70041 T01450141 10262 21056", "KTHA 291155Z AUTO 00000KT 3SM BR SCT002 11/11 A2983 RMK A01", "KTHM 291055Z AUTO 00000KT 10SM 03/01 A3015 RMK Thompson Falls ", "KTIF 291155Z AUTO 26009KT 10SM OVC100 08/01 A2996 RMK AO2 T00830010 10083 20019", "KTIK 291155Z AUTO 34013KT 10SM CLR 08/05 A2995 RMK AO2 SLP150 70005 T00750053 10094 20075 50007", "KTIP 291135Z AUTO 00000KT 10SM CLR 07/02 A2974 RMK AO2 T00650018", "KTIW 291153Z AUTO 22003KT 10SM CLR 13/09 A2998 RMK AO2 SLP148 7//// T01330089 10167 20133 51017", "KTIX 291150Z 20005KT 7SM SCT120 24/21 A2991", "KTKC 291155Z AUTO 28007KT 10SM BKN065 OVC110 04/01 A2985 RMK AO2", "KTKI 291153Z 33013KT 10SM OVC019 12/08 A2992 RMK AO2 SLP139 70002 T01170083 10128 20117 53008", "KTKV 291155Z AUTO 31007KT 1 3/4SM OVC005 03/01 A2969 RMK AO2 T00250014 10062 20025 PWINO", "KTKX 291155Z AUTO 00000KT 1 1/2SM -RA SCT036 SCT043 OVC065 14/14 A2980 RMK AO2", "KTLH 291153Z 07005KT 1/2SM FG BKN003 20/19 A2981 RMK AO2 SLP092 T02000189 10200 20194 58008", "KTMA 291155Z AUTO 00000KT 7SM 19/18 A2986 RMK AO2 T01870184 PNO $", "KTMB 291153Z 15003KT 10SM BKN050 26/25 A2992 RMK AO2 SLP132 70206 T02610250 10261 20244 51012", "KTME 291155Z AUTO 32016KT 10SM 13/10 A2990 RMK AO2", "KTMK 291155Z AUTO 22006KT 10SM OVC008 11/09 A3005 RMK AO2", "KTMT 291155Z AUTO 14003KT 10SM CLR M01/M05 A3025 RMK AO2 T10151052 10097 21015", "KTNB 291155Z AUTO 28006KT 10SM SCT009 BKN018 12/09 A2988 RMK AO2 70011 T01150092 10117 20091", "KTNU 291155Z AUTO 30009KT A2983 RMK A01", "KTOB 291155Z AUTO 29006KT 1 3/4SM BR OVC003 03/03 A2978 RMK AO2", "KTOC 291155Z AUTO 24003KT 10SM CLR 13/12 A2984 RMK AO2 T01310121 10154 20109", "KTOI 291153Z AUTO 00000KT 10SM CLR 14/12 A2984 RMK AO2 SLP100 T01390117 10161 20122 50007", "KTOL 291152Z 24009KT 10SM OVC023 11/09 A2970 RMK AO2 SLP057 60003 70062 T01110094 10111 20106 53013", "KTOP 291153Z 28005KT 10SM CLR 07/03 A2996 RMK AO2 SLP145 70003 T00670033 10117 20061 53001", "KTOR 291153Z AUTO 31007KT 10SM CLR 06/M01 A3008 RMK AO2 SLP170 T00611011 10083 20044 58004", "KTPA 291153Z 15006KT 10SM FEW180 BKN250 24/23 A2988 RMK AO2 SLP118 T02440228 10256 20233 51010", "KTPF 291155Z AUTO 17005KT 4SM BR CLR 25/23 A2989 RMK AO2", "KTPH 291156Z AUTO A3022 RMK AO2 SLPNO 55000 PWINO $", "KTPL 291151Z AUTO 31013G18KT CLR 11/08 A2996 RMK AO2 SLP141 70086 T01060083 10128 20100 55006 PWINO RVRNO $", "KTQE 291154Z AUTO 13003KT 10SM FEW120 02/00 A2990 RMK AO2 SLP125 70047 T00220000 10061 20022 58013", "KTQH 291155Z AUTO 36007KT 7SM OVC009 11/08 A2990 RMK AO2", "KTQK 291155Z AUTO 27009KT 10SM CLR 04/M02 A3009 RMK AO2 T00371016 10040 20010", "KTQV 291155Z AUTO VRB04KT 3SM BR OVC004 13/12 A2984 RMK A01", "KTRI 291153Z 30003KT 10SM OVC041 14/12 A2986 RMK AO2 SLP093 VLY AND LK FG ALQDS 70021 T01390122 10144 20128 53010", "KTRK 291142Z AUTO 00000KT 10SM CLR 01/00 A3027 RMK AO2 TSNO", "KTRL 291153Z AUTO 32012G20KT 10SM OVC019 12/08 A2990 RMK AO2 SLP123 70096 T01220083 10133 20122 53005", "KTRM 291152Z AUTO 27004KT 8SM CLR 17/08 A2984 RMK AO2 SLP108 T01670083 10294 20167 53004 $", "KTSP 291155Z AUTO 00000KT 10SM CLR 08/06 A3015 RMK AO2", "KTTA 291145Z AUTO 00000KT 2SM BR OVC002 13/13 A2984 RMK AO2 T01340134", "KTTD 291153Z AUTO VRB03KT 10SM CLR 13/08 A3000 RMK AO2 SLP159 T01330078 10239 20128 53016", "KTTF 291155Z AUTO 27007KT 10SM OVC007 10/10 A2966 RMK AO2 60002 70068 T01010097 10103 20098", "KTTN 291153Z 07011KT 6SM BR OVC008 10/09 A2985 RMK AO2 RAE32 SLP102 P0002 60073 70160 T01000094 10100 20089 50002", "KTTS 291155Z AUTO 22006KT 10SM CLR M A2987 RMK AO2 SLPNO ALSTG ESTMD 52015 $", "KTUL 291153Z 33008KT 10SM BKN025 OVC060 11/08 A2994 RMK AO2 SLP136 60000 70006 T01060083 10106 20100 53008", "KTUP 291153Z 00000KT 7SM CLR 13/11 A2979 RMK AO2 SLP085 T01280111 10139 20122 58012 $", "KTUS 291153Z 15008KT 10SM CLR 16/M06 A3003 RMK AO2 SLP129 T01611056 10239 20156 52006", "KTVC 291153Z 00000KT 10SM OVC016 08/07 A2968 RMK AO2 SLP052 T00830067 10106 20056 56008", "KTVF 291156Z AUTO 00000KT 8SM FEW100 01/ A2987 RMK AO2 SLP127 T0006 10050 20006 FZRANO", "KTVI 291155Z AUTO 00000KT 1/2SM FG OVC002 16/16 A2984 RMK AO2 VIS 1/4V1 1/2", "KTVK 291155Z AUTO 28006KT 9SM CLR 06/06 A2987 RMK AO2", "KTVL 291153Z AUTO 00000KT 10SM CLR 01/M02 A3026 RMK AO2 SLP211 T00111017 10067 20011 56003", "KTVR 291153Z AUTO 00000KT 10SM SCT050 17/14 A2974 RMK AO2 SLP077 T01670144 10183 20161 56000", "KTVY 291155Z AUTO 19009KT 10SM CLR 08/M05 A3020 RMK AO2", "KTWF 291153Z 26005KT 10SM CLR 06/M05 A3016 RMK AO2 SLP176 T00561050 10117 20022 50000", "KTWM 291155Z AUTO 33004KT 10SM -UP OVC030 02/02 A2977 RMK AO2", "KTWT 291155Z AUTO 18005KT 10SM OVC080 13/11 A2981 RMK AO2", "KTXK 291153Z 32006KT 10SM -RA BKN009 OVC013 15/13 A2979 RMK AO2 CIG 005V012 SLP085 P0002 60020 70078 T01500128 10178 20150 53018", "KTXW 291155Z AUTO 32014G20KT 10SM OVC100 17/10 A3004 RMK AO2 T01720103 10197 20168 60080 70102", "KTYL 291155Z AUTO 00000KT 10SM CLR 00/M12 A3029 RMK AO2", "KTYQ 291155Z AUTO 00000KT 5SM BR CLR 05/05 A2976 RMK AO2 T00540046 10081 20039", "KTYR 291153Z 32013KT 5SM BR BKN010 OVC015 12/11 A2985 RMK AO2 CIG 006V013 SLP104 60009 70021 T01220106 10156 20122 51003", "KTYS 291153Z 00000KT 9SM FEW047 FEW150 13/12 A2985 RMK AO2 SLP100 70026 T01280117 10156 20111 53003 $", "KTZR 291147Z 25008KT 4SM BR SCT008 BKN017 OVC024 11/10 A2977", "KU42 291155Z AUTO 18006KT 10SM CLR 08/M03 A3022 RMK AO1 T00841034 10125 20082", "KU55 291155Z AUTO 14006KT 10SM FEW039 BKN049 BKN060 M01/M05 A3035 RMK A01", "KU64 291155Z AUTO 30004KT 10SM CLR 03/M10 A3031 RMK AO2 T00281096 $", "KU68 291155Z AUTO 00000KT 10SM CLR 02/M06 A3016 RMK AO2", "KU69 291155Z AUTO 30007KT 10SM CLR 03/M05 A3028 RMK A01", "KUAO 291153Z AUTO 19003KT 10SM CLR 14/09 A3001 RMK AO2 SLP159 T01390094 10222 20139 53013", "KUBE 291155Z AUTO 33010KT 7SM OVC004 02/02 A2977 RMK AO2", "KUCP 291156Z AUTO 15005KT 10SM OVC012 10/10 A2973 RMK AO2 SLP084 60000 70051 T01000100 10100 20083 53002", "KUCY 291155Z AUTO 15003KT 2SM BR SCT046 BKN055 BKN070 13/13 A2980 RMK A01 P0004", "KUDG 291156Z AUTO 19003KT 5SM BR CLR 17/17 A2982 RMK AO2 SLP097 T01720167 10178 20139 51015", "KUES 291145Z 00000KT 10SM CLR 04/01 A2969", "KUGN 291151Z 23003KT 10SM CLR 07/03 A2970 RMK AO2 SLP058 T00670028 10067 20022 56005", "KUIL 291153Z AUTO 19009G20KT 10SM OVC007 11/09 A2997 RMK AO2 SLP146 T01110094 10172 20106 50008", "KUIN 291154Z AUTO 31011KT 10SM FEW100 09/06 A2979 RMK AO2 SLP085 T00940056 10139 20094 56002", "KUKF 291145Z AUTO 13004KT 10SM OVC010 13/13 A2988 RMK AO2", "KUKI 291156Z AUTO 00000KT 10SM CLR 10/07 A3002 RMK AO2 SLP157 T01000072 10172 20100 53004", "KUKL 291155Z AUTO 32008KT 10SM CLR 05/03 A2996 RMK AO2 70007 T00530033 10094 20051", "KUKT 291155Z AUTO 08005G11KT 2 1/2SM BR OVC008 10/10 A2986 RMK A01 P0001", "KULM 291155Z AUTO 32009KT 10SM CLR 02/00 A2983 RMK AO2", "KULS 291130Z AUTO 29007KT 10SM CLR 01/00 A3011 RMK AO2", "KUMP 291135Z AUTO 00000KT 7SM CLR 07/07 A2977 RMK AO2 T00710071", "KUNI 291155Z AUTO 21004KT 10SM OVC039 12/09 A2979 RMK AO2 T01170087 10117 20114", "KUNO 291153Z AUTO 36004KT 10SM OVC050 12/09 A2984 RMK AO2 SLP099 T01220089 10133 20122 53005", "KUNU 291155Z AUTO 00000KT 7SM RA SCT040 BKN060 OVC080 06/02 A2969 RMK AO2 T00580018 10061 20029", "KUNV 291153Z 00000KT 6SM -DZ BR BKN006 OVC012 07/07 A2984", "KUOX 291155Z AUTO 00000KT 10SM CLR 12/12 A2981 RMK AO2", "KUSE 291155Z AUTO 26006KT 9SM OVC019 10/10 A2970 RMK AO2", "KUTA 291155Z AUTO 06003KT 8SM BKN060 OVC080 14/14 A2978 RMK AO2 T01410141 $", "KUTS 291153Z AUTO 32009G17KT 10SM OVC018 14/11 A2988 RMK AO2 SLP113 60001 70067 T01390106 10183 20139 51008", "KUUU 291153Z AUTO 10011KT 10SM OVC100 10/06 A3006 RMK AO2 SLP180 T01000056 10100 20083 53002", "KUUV 291155Z AUTO 29005KT 10SM CLR 10/08 A2984 RMK AO2", "KUVA 291155Z AUTO 29005KT 10SM CLR 11/05 A3010 RMK AO2 T01050047 10155 20105", "KUXL 291155Z AUTO 30007KT 10SM CLR 18/15 A2978 RMK AO2 T01800152 10240 20180", "KUYF 291155Z AUTO 25008KT 7SM BKN010 OVC014 10/09 A2976 RMK AO2", "KUZA 291154Z AUTO VRB04KT 6SM BR OVC005 16/15 A2982 RMK AO2 SLP091 T01610150 10161 20133 53017", "KVAD 291155Z AUTO 00000KT 10SM CLR 19/18 A2983 RMK AO2 SLP102 70009 T01870177 10201 20162 51006 $", "KVAF 291155Z AUTO 25016KT 10SM SCT021 BKN026 OVC032 22/17 A2985 RMK A01", "KVAY 291154Z AUTO VRB05KT 5SM BR OVC007 12/11 A2982 RMK AO2 SLP098 60091 70246 T01170111 10117 20106 55001 $", "KVBG 291155Z AUTO 36003KT 1SM R30/5500V6000FT BR VV001 09/09 A3004 RMK AO2 SLP176 T00930093 10100 20092 58000 TSNO $", "KVBT 291156Z AUTO 35007KT 8SM OVC007 11/09 A2990 RMK AO2 CIG 006V012 SLP127 60000 70007 T01060094 10117 20106 53009", "KVBW 291155Z AUTO 15004KT 10SM OVC007 10/10 A2982 RMK AO1 70042 T01000100 10100 20093", "KVCB 291153Z AUTO 00000KT 10SM CLR 12/08 A2996 RMK AO2 SLP142 T01220083 10156 20122 55002", "KVCT 291151Z 32014G25KT 10SM CLR 13/10 A2994 RMK AO2 SLP137 60000 70069 T01330100 10172 20133 51010 $", "KVCV 291155Z AUTO 16007KT 10SM CLR 14/01 A3008 RMK AO2", "KVDF 291155Z AUTO 17004KT 7SM CLR 23/23 A2990 RMK AO2", "KVDI 291155Z AUTO 00000KT 10SM SCT060 18/17 A2985 RMK AO2", "KVEL 291153Z AUTO 25004KT 10SM CLR 01/M03 A3027 RMK AO2 SLP233 T00061033 10083 20000 51001", "KVER 291155Z AUTO 32010KT 10SM SCT070 OVC090 12/07 A2987 RMK AO2 T01170073 10307 21006", "KVES 291130Z AUTO 24005KT 10SM OVC019 10/10 A2976 RMK AO2", "KVGC 291155Z AUTO 14006KT 10SM OVC015 06/03 A2990 RMK AO2", "KVGT 291153Z AUTO 31005KT 10SM CLR 18/M04 A3003 RMK AO2 SLP164 T01831039 10233 20178 50002", "KVHN 291155Z AUTO 23004KT 10SM CLR 03/M04 A3029 RMK AO2 T00291040 10091 20019", "KVIH 291153Z AUTO 31008KT 6SM BR CLR 09/08 A2983 RMK AO2 SLP099 T00940083 10128 20089 53004", "KVIS 291156Z AUTO 00000KT 10SM CLR 17/14 A2996 RMK AO2 SLP147 7//// T01670139 10233 20156 55001", "KVJI 291155Z AUTO 26005KT 7SM SCT006 BKN039 OVC048 13/12 A2986 RMK AO2 T01250121 10132 20120", "KVKS 291155Z AUTO 00000KT 10SM CLR 16/16 A2974 RMK A01", "KVKY 291155Z AUTO 01011KT 7SM CLR A2979 RMK A01", "KVLD 291153Z 00000KT 7SM SCT250 19/18 A2986 RMK AO1 SLP116 T01890178 10194 20172 53010", "KVLL 291155Z AUTO 26003KT 1SM +DZ OVC005 11/10 A2966 RMK AO2 T01070101 10107 20095", "KVNC 291155Z AUTO 21006KT 10SM OVC036 27/25 A2991 RMK AO2", "KVNW 291155Z AUTO 24006KT 7SM OVC025 10/09 A2975 RMK AO2", "KVNY 291151Z 15004KT 5SM BR CLR 13/11 A2999 RMK AO2 SLP149 T01280106 10156 20128 58006", "KVOA 291155Z AUTO 00000KT 10SM OVC015 23/22 A2979 RMK A01", "KVOK 291125Z AUTO 29009KT 10SM OVC004 05/05 A2970 RMK AO2 SLP061", "KVPC 291155Z AUTO 00000KT 10SM SCT002 12/11 A2986 RMK AO2", "KVPS 291155Z AUTO 35004KT 7/8SM R12/4000VP6000FT BR VV001 17/16 A2979 RMK AO2 VIS 1/4 RWY02 VIS 3/8 RWY20 VIS 1/4 RWY30 CIG 000 RWY02 CIG 000 RWY30 SLP094 T01670160 10195 20156 55006 $", "KVPZ 291156Z AUTO 21003KT 7SM CLR 04/01 A2974 RMK AO2 SLP073 70005 T00440011 10061 20028 51000", "KVQQ 291150Z 00000KT 10SM SCT021 BKN039 21/21 A2989", "KVRB 291153Z 00000KT 7SM CLR 23/22 A2992 RMK AO2 SLP132 70072 T02330222 10233 20217 53013", "KVSF 291154Z AUTO 00000KT 10SM OVC110 09/04 A3009 RMK AO2 SLP190 T00890039 10089 20067 53002", "KVTA 291154Z AUTO 23005KT 10SM OVC016 12/10 A2974 RMK AO2 SLP069 60001 70041 T01170100 10117 20117 53010", "KVTI 291155Z AUTO 29007KT 7SM SCT009 06/06 A2980 RMK AO2 T00550055 10105 20047", "KVTN 291152Z AUTO 28008KT 10SM SCT090 07/01 A2990 RMK AO2 SLP130 T00720011 10072 20033 56019", "KVTP 291155Z AUTO 27006KT 10SM CLR M03/M18 A3033 RMK AO2", "KVUJ 291145Z AUTO 05005KT 4SM BR OVC003 15/14 A2987 RMK AO2 T01450142", "KVVS 291130Z AUTO 21006KT 10SM OVC036 12/08 A2979 RMK AO2 T01200081", "KVVV 291155Z AUTO 28005KT 10SM CLR 03/01 A2986 RMK AO2", "KVWU 291155Z AUTO 00000KT 10SM SCT080 OVC100 02/01 A2986 RMK AO2", "KVYS 291155Z AUTO 18003KT 10SM OVC100 08/02 A2971 RMK AO2 T00750015", "KW13 291155Z AUTO 00000KT 10SM OVC007 10/09 A2984 RMK AO1 70078 T00950093 10095 20085", "KW22 291155Z AUTO 23007KT 10SM FEW024 OVC037 11/08 A2981 RMK AO2", "KW29 291145Z AUTO 35006KT 4SM BR OVC005 12/ A2982 RMK AO2 P0001 T0122//// 10130 20119 60002 70190", "KW31 291155Z AUTO 10SM SCT080 M37/M38 A2984 RMK AO1 70055 T13751377 11373 21378", "KW40 291145Z AUTO 03004KT 1/4SM FG OVC002 15/15 A2984 RMK AO2 T01550153 10155 20128 70028", "KW43 291155Z AUTO 28004KT 10SM CLR 07/00 A3010 RMK AO2", "KW63 291155Z AUTO 00000KT 10SM CLR 12/12 A2984 RMK AO1", "KW75 291155Z AUTO 29003KT 10SM OVC004 12/11 A2983 RMK AO1 70083 T01230113 10156 20122", "KW78 291155Z AUTO 00000KT 10SM OVC009 12/11 A2984 RMK AO1 70008 T01150107 10123 20085", "KW81 291155Z AUTO 00000KT 10SM SCT090 10/09 A2985 RMK AO1 70042 T01040090 10106 20081", "KW96 291155Z AUTO 27004KT 3SM OVC004 11/11 A2984 RMK AO1 70079 T01130112 10123 20107", "KWAL 291154Z AUTO 23007KT 3/4SM BR OVC002 17/16 A2980 RMK AO2 RAB06E08B38E47 SLP087 P0000 60000 70069 T01670156 10167 20156 51017", "KWBF 291155Z AUTO VRB06G26KT M1/4SM FG OVC006 20/20 A2975 RMK A01 P0045", "KWDG 291145Z 33012KT 10SM SCT120 08/04 A3001", "KWDR 291155Z AUTO 00000KT 10SM CLR 14/13 A2987 RMK AO2", "KWJF 291156Z AUTO 29004KT 10SM CLR 12/06 A3003 RMK AO2 SLP152 T01220056 10178 20117 56002", "KWLD 291154Z AUTO 33003KT 10SM CLR 04/03 A3000 RMK AO2 SLP162 70027 T00390033 10083 20033 51005 $", "KWMC 291156Z AUTO 00000KT 10SM CLR 04/M02 A3015 RMK AO2 SLP179 T00391022 10117 20022 51004", "KWRB 291055Z AUTO 00000KT 9SM CLR 13/13 A2983 RMK AO2 SLP102 T01300130", "KWRI 291155Z 06014G18KT 10SM OVC006 11/11 A2983 RMK AO2A RAE14 SLP101 P0000 60076 70187 T01110109 10111 20097 50009", "KWRL 291153Z AUTO 17007KT 10SM CLR 00/M04 A3016 RMK AO2 SLP214 T00001044 10061 20000 53001", "KWST 291153Z AUTO 08012G23KT 10SM BKN048 OVC060 12/06 A3005 RMK AO2 SLP174 60000 T01170056 10117 20100 53001", "KWVI 291153Z AUTO 00000KT 2 1/2SM BR OVC002 10/10 A3003 RMK AO2 SLP169 T01000100 10111 20100 56002", "KWVL 291156Z AUTO 00000KT 10SM CLR 08/04 A3014 RMK AO2 SLP236 T00830039 10083 20028 51009", "KWWD 291156Z AUTO 00000KT 6SM BR SCT013 SCT041 14/14 A2979 RMK AO2 SLP088 60032 70238 T01390139 10139 20122 53015 $", "KWWR 291155Z AUTO 30005KT 10SM CLR 03/00 A3011 RMK AO2", "KX07 291155Z AUTO 16005KT 4SM BR CLR 23/23 A2991 RMK A01", "KX26 291130Z AUTO 00000KT 4SM BR CLR 22/22 A2992 RMK AO2 TSNO T02210216", "KX60 291155Z AUTO 00000KT 2SM BR CLR 20/20 A2988 RMK AO2 VIS 1V4 T02030200 10209 20185", "KXBP 291130Z AUTO 34011G19KT 10SM CLR 11/06 A3001 RMK AO2 T01100057", "KXLL 291155Z AUTO 06010G14KT 7SM -RA OVC010 10/08 A2988 RMK AO2", "KXMR 291155Z AUTO 22004KT 10SM CLR 24/22 A2987 RMK AO2 SLP118 T02380222 10238 20217 52014 $", "KXNA 291153Z 35010KT 10SM BKN008 OVC012 11/09 A2989 RMK AO2 CIG 007V010 SLP116 60001 70006 T01110094 10117 20111 53008", "KXNO 291155Z AUTO 22003KT 10SM CLR 17/17 A2983 RMK AO2 SLP102 T01650165 10173 20149 52015 $", "KXNX 291155Z AUTO 00000KT 3SM BR OVC003 09/09 A2988 RMK A01", "KXSA 291155Z AUTO 27005KT 10SM OVC003 12/12 A2984 RMK AO2 60001 70107 T01200120 10126 20113", "KXVG 291153Z AUTO 00000KT 3/4SM BR OVC002 01/01 A2984 RMK AO2", "KXWA 291151Z AUTO 34013KT 10SM CLR 04/M01 A3004 RMK AO2 SLP188 T00391006 10072 20039 53019", "KY19 291155Z AUTO 31005KT 10SM CLR 00/00 A2992 RMK AO2", "KY23 291155Z AUTO 00000KT 10SM OVC008 04/04 A2977 RMK AO2 70030 T00370037 10048 20035", "KY31 291155Z AUTO 00000KT 1 1/2SM -DZ OVC004 08/07 A2966 RMK AO2 60011 70011 T00760073 10088 20076 P0001", "KY49 291155Z AUTO 00000KT 10SM OVC090 01/01 A2985 RMK AO2 70008 T00070007 10028 21006", "KY50 291156Z AUTO 28010KT 9SM -RA BKN007 OVC017 07/06 A2968 RMK AO2 CIG 006V012 SLP051 P0002 6//// 7//// T00670061 10072 20050 56007 $", "KY51 291155Z AUTO 31008KT 10SM OVC010 05/05 A2973 RMK AO1 60012 70012 T00500050 10083 20050", "KY63 291155Z AUTO 30003KT 3SM BR BKN060 00/00 A2986 RMK AO2 T00011003 10030 21002", "KY70 291155Z AUTO 31003KT 10SM SCT007 OVC020 10/10 A2967 RMK AO2 70003 T00970097 10101 20095", "KYIP 291153Z 30005KT 10SM OVC008 10/08 A2965 RMK AO2 CIG 005V012 SLP040 60001 70052 T01000083 10100 20094 53003", "KYKM 291153Z AUTO 27005KT 10SM CLR 08/03 A3001 RMK AO2 SLP160 T00780033 10150 20078 53001", "KYKN 291156Z AUTO 07004KT 10SM OVC110 02/01 A2987 RMK AO2 SLP133 70002 T00170006 10050 20006 56023 FZRANO", "KYNG 291151Z 17006KT 7SM -DZ OVC006 10/09 A2971 RMK AO2 SLP063 CIG 004V009 P0000 60000 70051 T01000089 10100 20083 53001", "KZER 291155Z AUTO 11017G23KT 1/2SM -RA OVC002 06/06 A2983 RMK AO2", "KZPH 291155Z AUTO 00000KT 2 1/2SM BR CLR 22/22 A2990 RMK A02 VIS 1 1/4V4 T02220220 10239 20198", "KZZV 291153Z AUTO 21007KT 8SM OVC013 11/10 A2975 RMK AO2 SLP073 60000 70105 T01110100 10111 20106 53005", "LATI 291150Z 33008KT 300V010 9999 BKN086 20/10 Q1016 NOSIG", "LBBG 291200Z 13014KT CAVOK 16/02 Q1015 NOSIG", "LBGO 291200Z AUTO VRB03KT 9999 FEW240/// 17/02 Q1016 NOSIG", "LBIA 291200Z 29004KT 9999 FEW050 SCT200 18/03 Q1015", "LBPD 291200Z AUTO VRB03KT 9999 BKN150/// 18/01 Q1015 NOSIG", "LBPG 291200Z 15004KT 9999 SCT100 18/M01 Q1015", "LBPL 291200Z 12002KT 9999 BKN200 20/06 Q1016", "LBSF 291200Z 26011KT 9999 SCT073 BKN089 16/02 Q1015 NOSIG", "LBWN 291200Z 36010KT 330V040 CAVOK 17/01 Q1014 NOSIG", "LCEN 291150Z 01009KT 320V060 9999 FEW020CB SCT025 BKN080 12/09 Q1008 RETSRA NOSIG", "LCLK 291130Z 32012KT 9999 FEW016 FEW020CB FEW025TCU SCT050 17/12 Q1008 RETS NOSIG", "LCPH 291130Z 30009KT 250V320 9999 -TSRA FEW025TCU FEW030CB BKN050 16/09 Q1008 RERA TEMPO 5000 TSRA FEW025TCU FEW020CB", "LCRA 291150Z 16007KT 9999 FEW045 20/09 Q1007 NOSIG", "LDDU 291130Z 17009KT 9999 FEW070 16/11 Q1016 NOSIG", "LDLO 291130Z 17007KT 9999 FEW015 SCT040 17/15 Q1015", "LDOS 291130Z 09003KT 050V150 CAVOK 20/08 Q1014", "LDPL 291130Z 09007KT 9999 -RA FEW035 SCT055 17/11 Q1015 NOSIG", "LDRI 291130Z 28005KT 240V330 9999 FEW055 18/07 Q1015", "LDSB 291130Z 13004KT 070V180 9999 FEW045 16/02 Q1016", "LDSP 291130Z 11005KT 060V140 CAVOK 19/09 Q1015 BECMG 23007KT", "LDZA 291130Z VRB03KT 9999 FEW045 21/07 Q1013 NOSIG", "LDZD 291130Z 22005KT 170V250 9999 BKN050 18/10 Q1015 TEMPO 22008KT", "LEAB 291130Z 26007KT 230V290 CAVOK 25/08 Q1017 NOSIG", "LEAG 291130Z AUTO 30008KT 250V050 CAVOK 26/14 Q1018", "LEAL 291130Z 23009KT 190V280 CAVOK 32/12 Q1011 NOSIG", "LEAM 291130Z 21010KT 180V240 CAVOK 22/17 Q1015", "LEAO 291130Z 27011KT 230V300 CAVOK 26/07 Q1018", "LEAS 291130Z 02004KT 330V100 9000 SCT003 BKN010 17/16 Q1020 NOSIG", "LEBA 291130Z VRB05KT 9999 FEW035 22/16 Q1016", "LEBB 291130Z 32005KT 270V360 9999 SCT014 BKN031 BKN040 18/15 Q1019 NOSIG", "LEBG 291130Z 03008KT 340V060 9999 BKN032 19/11 Q1019", "LEBL 291130Z 10009KT CAVOK 19/16 Q1013 NOSIG", "LEBR 291130Z AUTO 31017KT 280V360 9999 NCD 24/15 Q1015", "LEBT 291130Z AUTO 11009KT 050V160 CAVOK 23/17 Q1012", "LEBZ 291130Z 27011KT 230V300 CAVOK 26/13 Q1018", "LECH 291130Z AUTO 10013KT CAVOK 22/13 Q1013", "LECO 291130Z 01005KT 320V050 CAVOK 19/15 Q1020 NOSIG", "LECV 291130Z 18004KT 9999 SCT065 21/09 Q1018", "LEDA 291130Z 24008KT 200V290 CAVOK 25/08 Q1013", "LEGE 291130Z 04011KT 350V080 9999 FEW030 25/15 Q1013", "LEGR 291130Z 29010KT 260V330 9999 FEW050 28/06 Q1019", "LEGT 291130Z 29007KT 260V320 9999 -RA FEW028 OVC078TCU 21/13 Q1017", "LEHC 291130Z 28012KT 250V320 CAVOK 26/13 Q1014", "LEIB 291130Z 23010KT 200V260 9999 FEW003 24/15 Q1012 NOSIG", "LEJR 291200Z 35008G18KT 320V060 CAVOK 28/13 Q1018", "LELC 291130Z 22009KT CAVOK 30/17 Q1012 NOSIG", "LELL 291130Z 13011KT 080V170 CAVOK 23/13 Q1013", "LELN 291130Z 19003KT 9999 SCT045 20/09 Q1018", "LELO 291130Z AUTO 29009KT 250V330 9999 BKN033 21/13 Q1017", "LEMD 291130Z 24008KT 210V280 9999 -RA FEW050 BKN075 20/13 Q1017 NOSIG", "LEMG 291130Z 32015KT CAVOK 32/09 Q1015 NOSIG", "LEMH 291130Z 03010KT 360V060 CAVOK 25/17 Q1011", "LEMI 291130Z 21007KT 180V260 CAVOK 32/10 Q1013", "LEMO 291200Z 33006KT 260V030 CAVOK 26/13 Q1018 NOSIG", "LEPA 291130Z 23015KT 9999 FEW045 25/16 Q1012 NOSIG", "LEPP 291130Z 33013KT 290V360 9999 FEW017 SCT020 BKN032 17/12 Q1017", "LERI 291130Z 24005KT 190V330 CAVOK 34/07 Q1012 NOSIG", "LERS 291130Z 13009KT 080V170 CAVOK 22/15 Q1014", "LERT 291130Z 34006KT 290V040 CAVOK 27/15 Q1018 NOSIG", "LESA 291130Z 29006KT 230V340 9999 FEW042 21/10 Q1019", "LESB 291130Z AUTO 21016KT CAVOK 25/14 Q1012", "LESO 291130Z 25007G17KT 210V310 7000 OVC008 16/14 Q1019", "LEST 291130Z VRB04KT 9999 FEW012 SCT020 19/14 Q1021 NOSIG", "LESU 291130Z 20014KT 9999 FEW070 28/07 Q1013", "LETL 291130Z AUTO 35009KT 320V050 CAVOK 27/03 Q1016", "LETO 291130Z 25007KT 210V290 9999 -RA FEW063 20/10 Q1017 TEMPO SHRA FEW045TCU", "LETU 291130Z AUTO 33015KT 9999 NCD 24/14 Q1016", "LEVC 291130Z 07011KT 050V110 9999 FEW030 SCT050 22/17 Q1012 NOSIG", "LEVD 291130Z 31005KT CAVOK 20/10 Q1019", "LEVS 291130Z 30006KT 250V360 9999 -RA FEW050 SCT076 19/12 Q1018", "LEVT 291130Z 34005KT 300V010 9999 BKN014 16/13 Q1019", "LEVX 291130Z 28005KT 230V330 9999 FEW008 SCT012 BKN015 18/15 Q1021 NOSIG", "LEXJ 291130Z 32005KT 290V360 9999 BKN012 BKN050 18/17 Q1020", "LEZG 291130Z 30016KT CAVOK 25/15 Q1014", "LEZL 291130Z 35005KT CAVOK 27/15 Q1018 NOSIG", "LFAC 291130Z AUTO 04008KT 9999 OVC020 12/08 Q1022", "LFAQ 291130Z AUTO 02006KT 350V060 9999 BKN014 OVC020 10/08 Q1021 BECMG OVC017", "LFAT 291130Z AUTO 07006KT 030V100 9999 OVC021 12/08 Q1021 NOSIG", "LFBA 291130Z AUTO 30003KT 260V340 9999 OVC010 19/17 Q1016 TEMPO 4000 -SHRA BKN005 BKN030TCU", "LFBC 291130Z AUTO 36009KT 9999 //////TCU 19/15 Q1017", "LFBD 291130Z AUTO 33005KT 300V360 9999 SCT011/// OVC064/// //////TCU 18/16 Q1017 TEMPO 4000 -SHRA", "LFBE 291130Z AUTO 29003KT 250V350 9999 FEW013 OVC092 19/17 Q1016 TEMPO 4000 SHRA BKN030TCU", "LFBF 291130Z AUTO 30004KT 260V340 9999 OVC011/// //////TCU 19/16 Q1016", "LFBG 291130Z AUTO 01006KT 340V040 9999 BKN015 OVC100 20/15 Q1017", "LFBH 291130Z AUTO 02008KT 350V060 9999 BKN021 BKN120 BKN210 21/16 Q1018 NOSIG", "LFBI 291130Z AUTO 36008KT 320V030 9999 FEW022 19/13 Q1018 NOSIG", "LFBL 291130Z AUTO 01008KT 320V040 9999 FEW025 BKN140 20/14 Q1017 TEMPO BKN030TCU", "LFBM 291130Z AUTO VRB03KT 2300 +TSRA BR BKN005/// BKN047/// OVC056/// //////CB 17/16 Q1017 TEMPO 4000 SHRA BECMG BKN010 SCT030TCU", "LFBO 291130Z AUTO 30006KT 260V320 9999 BKN012 OVC018 19/17 Q1016 TEMPO 4000 -SHRA BECMG BKN012 SCT040TCU", "LFBP 291130Z AUTO 27008KT 5000 BR BKN005 OVC009 16/15 Q1017 TEMPO SHRA BKN003 SCT020TCU", "LFBT 291130Z AUTO 33003KT 290V010 9999 OVC007 17/15 Q1018 TEMPO 4000 -SHRA BKN004 SCT025TCU", "LFBU 291130Z AUTO 36009KT 330V040 9999 BKN018 BKN024 OVC110 20/16 Q1017 TEMPO BKN030TCU", "LFBX 291130Z AUTO VRB02KT 9999 //////TCU 22/17 Q1016", "LFBY 291130Z AUTO 26007KT 220V300 2600 // ////// 17/16 Q1017", "LFBZ 291130Z AUTO 27012KT 9999 OVC004 15/15 Q1018 TEMPO OVC005", "LFCK 291130Z AUTO 31008KT 260V350 9999 BKN024 BKN029 OVC130 21/15 Q1017 TEMPO SCT020TCU", "LFCR 291130Z AUTO 32007KT 290V350 9999 BKN014 BKN022 BKN100 19/16 Q1017 TEMPO 4000 -SHRA BKN014 BKN050TCU", "LFGA 291130Z AUTO 04009KT 010V070 9999 FEW043 18/09 Q1016", "LFGJ 291130Z AUTO 36010KT 330V040 CAVOK 19/12 Q1016 NOSIG", "LFHP 291130Z AUTO VRB02KT 9999 FEW022/// SCT029/// BKN035/// ///TCU 16/11 Q1017", "LFJL 291130Z AUTO 01006KT 330V030 9999 FEW021/// OVC031/// 12/08 Q1018 NOSIG", "LFJR 291130Z AUTO 06003KT 330V140 9999 OVC015 15/11 Q1019", "LFKB 291130Z AUTO 10007KT 060V130 9999 SCT023 BKN140 19/15 Q1014 TEMPO BKN010 BKN040", "LFKC 291130Z AUTO 34008KT 310V030 CAVOK 20/10 Q1014 NOSIG", "LFKF 291130Z AUTO 06010KT 030V090 CAVOK 21/15 Q1014 NOSIG", "LFKJ 291130Z AUTO 19005KT 140V240 9999 ///TCU 21/14 Q1013 BECMG NSC", "LFKS 291130Z AUTO 06005KT 9999 FEW020 SCT140 OVC210 18/15 Q1014", "LFLB 291130Z AUTO VRB03KT 9999 FEW038/// BKN052/// BKN092/// ///TCU 17/15 Q1016 TEMPO VRB15KT 2000 TSRA SCT025CB", "LFLC 291130Z AUTO 03005KT 350V060 9999 FEW023 OVC090 19/14 Q1016 TEMPO VRB15KT 2000 TSRA BKN012 SCT020CB BKN025TCU", "LFLH 291130Z AUTO 02007KT 340V070 9999 FEW039 21/11 Q1016", "LFLL 291130Z 36009KT 9999 BKN013 BKN076 18/14 Q1016 NOSIG", "LFLN 291130Z AUTO VRB02KT 9999 BKN026/// BKN230/// //////CB 20/14 Q1016 NOSIG", "LFLP 291130Z AUTO 32006KT 290V360 9999 BKN076 OVC100 18/14 Q1016 TEMPO 2000 TSRA SCT018CB", "LFLS 291130Z AUTO 34005KT 300V360 9999 FEW017 BKN031 OVC037 17/14 Q1016 TEMPO 4000 SHRA SCT012 FEW020CB BKN030TCU", "LFLU 291130Z AUTO 36007KT 320V030 CAVOK 19/14 Q1015", "LFLV 291130Z AUTO 01006KT 330V040 9999 FEW023/// SCT028/// //////CB 19/14 Q1016", "LFLW 291130Z AUTO 30006KT 250V330 9999 SCT016/// BKN024/// BKN110/// ///TCU 18/15 Q1017 TEMPO 2000 TSRA BKN018CB", "LFLX 291130Z AUTO 36008KT 330V030 CAVOK 19/13 Q1018 NOSIG", "LFLY 291130Z AUTO 36007KT 9999 FEW017 SCT022 OVC074 18/15 Q1016 TEMPO 4000 SHRA BKN022TCU", "LFMC 291130Z AUTO VRB05KT 9999 ////// 24/14 Q1013", "LFMD 291130Z AUTO 15005KT 100V190 9999 OVC018 18/14 Q1014 TEMPO BKN012", "LFMH 291130Z AUTO 34005KT 300V020 9999 SCT020 SCT032 BKN042 18/14 Q1016", "LFMI 291130Z AUTO 35009KT 310V030 CAVOK 25/12 Q1013 BECMG 22010KT", "LFMK 291130Z AUTO 27012KT 240V300 9999 FEW020 22/17 Q1015 BECMG BKN020 SCT070TCU", "LFML 291130Z AUTO 25009KT CAVOK 24/13 Q1013 NOSIG", "LFMN 291130Z 11010KT 9999 FEW013 BKN029 18/14 Q1015 NOSIG", "LFMO 291130Z AUTO 34004KT 310V030 9999 FEW039/// SCT100/// BKN130/// //////TCU 20/17 Q1014 BECMG NSC", "LFMP 291130Z AUTO VRB03KT 9999 FEW045 SCT150 26/14 Q1014 NOSIG", "LFMT 291130Z AUTO 19003KT CAVOK 22/13 Q1014 NOSIG", "LFMU 291130Z AUTO 15009KT 110V170 9999 //////TCU 22/12 Q1014 BECMG NSC", "LFMV 291130Z AUTO 01006KT 9999 FEW041/// BKN120/// ///TCU 21/14 Q1014 TEMPO SHRA BECMG NSC", "LFMY 291130Z AUTO 34008KT 270V010 CAVOK 24/13 Q1013", "LFOA 291130Z AUTO 04009KT 360V070 CAVOK 19/12 Q1018", "LFOB 291130Z AUTO 03008KT 9999 OVC015 12/08 Q1021 NOSIG", "LFOE 291130Z AUTO VRB03KT 9999 OVC016 13/10 Q1020 NOSIG", "LFOH 291130Z AUTO 34008KT 320V020 9000 NSC 13/11 Q1021 NOSIG", "LFOJ 291130Z AUTO 02009KT 9999 OVC007 13/11 Q1019 BECMG SCT020", "LFOK 291130Z AUTO 01009KT 9999 OVC022 12/09 Q1020 NOSIG", "LFOP 291130Z AUTO 01003KT 320V090 9999 OVC023 14/08 Q1020 NOSIG", "LFOT 291130Z AUTO 07006KT 040V100 9999 SCT023 BKN190 BKN220 17/13 Q1019 NOSIG", "LFOV 291130Z AUTO 09006KT 050V130 9999 OVC015 15/11 Q1020", "LFOZ 291130Z AUTO 03006KT 330V090 9999 BKN017 16/11 Q1019", "LFPB 291130Z AUTO 35006KT 320V050 9999 OVC025 14/09 Q1020 NOSIG", "LFPG 291130Z 03006KT 360V120 9999 OVC021 13/08 Q1020 NOSIG", "LFPM 291130Z AUTO 36005KT 330V030 9999 BKN015 OVC021 14/09 Q1020", "LFPN 291130Z AUTO 34003KT 300V040 9999 OVC019 13/10 Q1020 NOSIG", "LFPO 291130Z 02003KT 340V080 9999 BKN021 14/09 Q1020 NOSIG", "LFPT 291130Z AUTO 02007KT 9999 OVC027 14/10 Q1020", "LFPV 291130Z AUTO 01004KT 300V080 9999 OVC018 13/09 Q1020 NOSIG", "LFQA 291130Z AUTO 34009KT 9999 OVC024 12/09 Q1020", "LFQB 291130Z AUTO 33006KT 9999 BKN017 BKN022 BKN027 14/11 Q1019", "LFQG 291130Z AUTO 36007KT 330V030 CAVOK 20/10 Q1017", "LFQQ 291130Z AUTO 04006KT 360V080 9999 BKN028 OVC033 12/07 Q1021 NOSIG", "LFRB 291130Z AUTO 06007KT 020V090 9999 FEW020 17/12 Q1020 TEMPO BKN012", "LFRC 291130Z AUTO 09008KT 070V130 8000 NSC 15/12 Q1021 TEMPO BKN008", "LFRD 291130Z AUTO 03004KT 330V140 9999 OVC013 15/11 Q1020 TEMPO BKN008", "LFRG 291130Z AUTO 02004KT 300V070 8000 OVC014 14/11 Q1021 BECMG SCT020", "LFRH 291130Z AUTO 02004KT 280V070 9999 BKN021 17/12 Q1020 NOSIG", "LFRI 291130Z AUTO 01010KT 340V040 9999 BKN012 17/14 Q1019 BECMG BKN020", "LFRJ 291130Z AUTO 04007KT 350V080 9999 SCT017 16/12 Q1020", "LFRK 291130Z AUTO VRB03KT 9999 OVC017 16/11 Q1021 TEMPO BKN012", "LFRL 291130Z AUTO 32004KT 270V010 CAVOK 17/12 Q1020", "LFRM 291130Z AUTO 07005KT 010V140 9999 FEW025 17/11 Q1019 NOSIG", "LFRN 291130Z AUTO 05006KT 360V100 9999 OVC017 16/11 Q1020 NOSIG", "LFRO 291130Z AUTO 03007KT 350V080 9999 OVC018 15/11 Q1020", "LFRQ 291130Z AUTO VRB02KT 9999 BKN025 19/13 Q1020 TEMPO BKN012", "LFRS 291130Z AUTO 07007KT 030V100 9999 OVC013 14/11 Q1019 BECMG BKN020", "LFRT 291130Z AUTO VRB03KT 9999 BKN005 13/11 Q1020", "LFRU 291130Z AUTO 33006KT 290V010 9999 BKN019 16/13 Q1020", "LFRV 291130Z AUTO 04007KT 330V070 9999 BKN014 BKN160 15/11 Q1019", "LFRZ 291130Z AUTO 03006KT 360V070 9999 OVC011 14/13 Q1019 BECMG BKN020", "LFSB 291130Z AUTO 02009KT 350V050 9999 BKN030 BKN036 18/12 Q1016 NOSIG", "LFSD 291130Z AUTO 04010KT CAVOK 19/10 Q1017", "LFSG 291130Z AUTO 35007KT 9999 OVC031 13/08 Q1018", "LFSI 291130Z AUTO 31007KT 9999 BKN017 BKN026 OVC037 14/09 Q1019", "LFSL 291130Z AUTO 30007KT 260V330 9999 BKN018/// BKN027/// OVC035/// ///TCU 20/16 Q1016 TEMPO 3000 SHRA BKN005 BKN020CB", "LFSM 291130Z AUTO 27006KT 230V330 CAVOK 20/09 Q1016", "LFSN 291130Z AUTO 02006KT 340V050 9999 OVC032 13/08 Q1018", "LFSO 291130Z AUTO 34006KT 310V010 9999 OVC027 12/08 Q1018", "LFST 291130Z AUTO 33011KT 300V360 9999 FEW029 SCT038 17/10 Q1017 NOSIG", "LFSX 291130Z AUTO 01007KT 310V050 9999 BKN035 18/10 Q1017", "LFTH 291130Z AUTO 11011KT 090V150 CAVOK 20/16 Q1014 NOSIG", "LFTW 291130Z AUTO 04006KT 9999 -RA FEW031/// SCT090/// BKN110/// ///TCU 21/14 Q1014 TEMPO SHRA BECMG NSC", "LFVP 291130Z AUTO 01018KT 9999 OVC025 04/M02 Q1020 NOSIG", "LFYR 291130Z AUTO 02004KT 310V100 CAVOK 19/11 Q1018", "LGAD 291150Z 24009KT 9999 FEW020 21/07 Q1016", "LGAL 291150Z 24009KT 9999 SCT025 17/04 Q1016", "LGAV 291150Z 10005KT 050V200 9999 SCT040 19/05 Q1016 NOSIG", "LGBL 291150Z 10009KT 9999 FEW030 18/10 Q1015", "LGEL 291150Z 18010KT 9999 FEW030 20/09 Q1015", "LGHI 291150Z 03009KT 9999 FEW030 17/06 Q1015", "LGIO 291150Z AUTO 02004KT 290V040 //// // ////// 20/04 Q1015 RE//", "LGIR 291150Z 33010KT 9999 FEW016 18/07 Q1017 NOSIG", "LGKF 291150Z 24006KT 200V260 9999 FEW040 19/11 Q1016", "LGKL 291150Z 17011KT 9999 FEW030 20/11 Q1016", "LGKO 291150Z 33015G25KT 9999 FEW016 17/04 Q1014", "LGKP 291150Z 31025KT 9999 FEW020 18/05 Q1013", "LGKR 291150Z 13007KT 9999 FEW030 20/13 Q1015 NOSIG", "LGKV 291150Z 19008KT 9999 FEW025 17/11 Q1016", "LGKZ 291150Z AUTO 15006KT 110V220 //// // ////// 19/00 Q1015 RE//", "LGLM 291150Z 04005KT 9999 SCT018 17/06 Q1016", "LGMK 291150Z 02014KT 350V050 CAVOK 16/M00 Q1016", "LGMT 291150Z 33012KT 9999 FEW020 18/09 Q1016", "LGPA 291150Z 34010KT CAVOK 17/02 Q1016", "LGPZ 291150Z 27012KT 9999 FEW030 20/10 Q1016 RMK FEW180 BLU", "LGRP 291150Z 25016KT 9999 FEW020 19/03 Q1011 NOSIG", "LGRX 291150Z 23008KT 9999 FEW020 20/06 Q1016 RMK FEW180 BLU", "LGSA 291150Z 04010KT 9999 FEW020 19/12 Q1016", "LGSM 291150Z 32008KT 9999 FEW025 19/11 Q1014", "LGSO 291150Z 03009KT CAVOK 17/05 Q1017", "LGSR 291150Z 36013KT 9999 FEW025 18/03 Q1016", "LGTS 291150Z 20008KT 140V250 9999 FEW030 19/09 Q1016 NOSIG", "LGZA 291150Z 22008KT 9999 FEW020 21/10 Q1016", "LHBP 291130Z VRB04KT CAVOK 16/05 Q1015 NOSIG", "LHDC 291115Z AUTO VRB03KT CAVOK 16/03 Q1015 NOSIG", "LHKE 291145Z VRB02KT CAVOK 18/05 Q1015 NOSIG RMK BLU", "LHPA 291115Z 05004KT 9999 FEW015 SCT020 BKN083 17/12 Q1014 NOSIG RMK BLU", "LHPP 291115Z AUTO VRB03KT CAVOK 19/08 Q1014", "LHPR 291115Z AUTO VRB03KT 9999 FEW023 SCT038 OVC066 17/12 Q1014 NOSIG", "LHSM 291115Z AUTO VRB03KT CAVOK 20/10 Q1014 NOSIG", "LHSN 291145Z VRB02KT CAVOK 17/06 Q1015 NOSIG RMK BLU", "LIBA 291055Z 09008KT 9999 FEW050 24/10 Q1014 RMK BKN SCT120 VIS MIN 9999 WIND THR11 08009KT WIND THR29 /////KT BLU", "LIBC 291050Z 16008KT 110V200 CAVOK 21/08 Q1016", "LIBD 291150Z 03006KT 360V070 CAVOK 21/07 Q1014", "LIBF 291050Z 21003KT 150V310 CAVOK 24/12 Q1014", "LIBG 291050Z 21004KT 160V270 CAVOK 23/05 Q1014", "LIBN 291055Z 20007KT CAVOK 22/11 Q1016 RMK SKC VIS MIN 9999 WIND THR14 21006KT WIND THR32 21006KT BLU", "LIBP 291150Z AUTO 03007KT 9999 FEW081/// BKN110/// 20/11 Q1015", "LIBQ 291055Z 26006KT 170V310 CAVOK 14/02 Q1019", "LIBR 291150Z 12010KT CAVOK 21/09 Q1014", "LIBV 291055Z 20010KT CAVOK 22/05 Q1014 RMK SCT SCT200 VIS MIN 9999 WIND THR32 22006KT WIND THR14 23006KT BLU", "LIBY 291055Z /////KT CAVOK 17/14 Q1015 RMK SKC QUK 1 QUL 0 VIS MAR 20 KM VIS MIN 9999", "LICA 291150Z AUTO 26014KT 9999 NCD 20/14 Q1016", "LICB 291150Z AUTO 25010KT 200V280 9999 NCD 22/06 Q1017", "LICC 291150Z 11009KT 080V140 CAVOK 23/07 Q1016", "LICD 291150Z AUTO 15008KT 9999 NCD 21/16 Q1016", "LICF 291055Z 07009KT 9999 FEW040 23/12 Q1017 RMK FEW QUK 2 QUL 0 VIS MAR 20 KM MON LIB NC VIS MIN 9999", "LICG 291050Z 19006KT CAVOK 23/07 Q1017", "LICJ 291150Z 03011KT CAVOK 20/13 Q1015", "LICR 291150Z AUTO 36013KT 9999 NCD 25/07 Q1016", "LICT 291055Z 18010KT CAVOK 25/12 Q1016 RMK SCT SCT120 VIS MIN 9999 WIND THR13 22012KT BLU", "LICZ 291055Z 25005KT CAVOK 25/M01 Q1015 RMK SKC VIS MIN 9999 WIND THR28 29004KT WIND THR10 26003KT A2999 BLU", "LIEA 291150Z 21008KT 140V250 CAVOK 29/11 Q1013", "LIEB 291055Z 18008KT 0200 FG VV002 17/15 Q1014 RMK QUK / QUL / VIS MAR 0 M MON INVIS VIS MIN 0200", "LIED 291055Z 13010KT 9999 SCT030 27/18 Q1013 RMK BKN SCT090 VIS MIN 9999 WIND THR35 /////KT WIND THR17 14010KT BLU", "LIEE 291150Z 16009KT CAVOK 24/16 Q1013", "LIEO 291150Z 08008KT 050V110 9999 -RA SCT050 18/16 Q1015", "LIMA 291050Z VRB03KT 9999 FEW035 21/09 Q1014", "LIMC 291150Z 22006KT 180V270 9999 SCT028 BKN090 20/13 Q1014 NOSIG", "LIME 291150Z 18003KT 100V240 9999 SCT016 BKN035 18/12 Q1014 NOSIG", "LIMF 291150Z 18004KT 110V230 9999 SCT035 SCT140 21/11 Q1013", "LIMG 291050Z 06008KT 9000 SCT020 BKN030 18/14 Q1015", "LIMH 291055Z AUTO 03007KT //// M01/M03 Q1021", "LIMJ 291150Z 12005KT 9999 SCT016 BKN035 16/14 Q1015", "LIMK 291055Z 31002KT 9999 BKN033 16/12 Q1015", "LIML 291150Z VRB03KT 9999 SCT020 BKN070 20/13 Q1014 NOSIG", "LIMP 291050Z 04003KT 360V090 4000 BR BKN030 17/14 Q1015", "LIMS 291055Z 08005KT 9999 SCT020 SCT030 18/17 Q1014 RMK BKN VIS MIN 9999 WIND THR30 06005KT BLU", "LIMU 291055Z 04004KT 9999 FEW020 17/13 Q1016 RMK BKN SCT100 QUK 1 QUL 1 SE VIS MAR 20 KM VIS MIN 9999", "LIMV 291055Z /////KT 8000 BKN006 14/13 Q1016 RMK OVC SCT070 MON INC NC VAL FOSCHIA VIS MIN 8000", "LIMW 291120Z AUTO 09006KT 050V110 9999 BKN086/// 19/12 Q1014", "LIMZ 291150Z AUTO VRB02KT 9999 BKN190/// 20/08 Q1014", "LIPA 291055Z 19004KT CAVOK 18/08 Q1014 RMK BKN BKN200 VIS MIN 9999 WIND THR05 /////KT WIND THR23 /////KT A2997 BLU", "LIPB 291150Z 17006KT 140V210 9999 FEW060 23/10 Q1012", "LIPC 291055Z 01005KT 9999 -RA SCT040 17/13 Q1015 RMK OVC BKN080 VIS MIN 9999 WIND THR11 02005KT WIND THR29 05006KT BLU", "LIPE 291150Z 01003KT 330V070 9999 SCT035 18/13 Q1014", "LIPF 291055Z 00000KT 8000 SCT025 BKN070 17/15 Q1015 RMK OVC VIS MIN 8000", "LIPH 291150Z VRB02KT CAVOK 20/09 Q1015", "LIPI 291055Z 13004KT CAVOK 19/09 Q1015 RMK SCT SCT170 VIS MIN 9999 WIND THR06 19004KT WIND THR24 13004KT BLU", "LIPK 291150Z VRB02KT 7000 DZ FEW040 18/13 Q1015", "LIPL 291055Z 28005KT 9999 FEW030 18/15 Q1014 RMK SCT SCT100 VIS MIN 9999 WIND THR31 27007KT WIND THR13 25005KT BLU", "LIPO 291150Z AUTO 24006KT 200V300 9999 SCT026/// 20/13 Q1014", "LIPQ 291150Z AUTO 21005KT 170V250 9999 FEW110/// 19/12 Q1015", "LIPR 291150Z 01006KT 9999 -RA FEW045 BKN059 17/13 Q1015", "LIPS 291055Z 08003KT 9999 FEW040 18/08 Q1015 RMK BKN BKN150 VIS MIN 9999 WIND THR26 08003KT WIND THR08 08002KT BLU", "LIPU 291050Z VRB02KT 9999 FEW035 19/11 Q1015", "LIPX 291150Z 18004KT 120V220 CAVOK 19/10 Q1014", "LIPY 291150Z AUTO 04005KT 9999 OVC063/// 19/10 Q1015", "LIPZ 291150Z 14004KT 100V200 CAVOK 17/12 Q1015 NOSIG", "LIQC 291055Z 26004KT CAVOK 18/14 Q1018 RMK SCT SCT080 QUK 1 QUL 0 VIS MAR 20 KM VIS MIN 9999", "LIQN 291050Z 23004KT 170V250 CAVOK 19/09 Q1017", "LIRA 291150Z 21010KT 9999 SCT030 SCT070 19/09 Q1016", "LIRE 291055Z 16008KT 9999 -RA FEW030 SCT040 BKN060 18/16 Q1016 RMK OVC VIS MIN 9999 WIND THR13 18008KT WIND THR31 /////KT BLU", "LIRF 291150Z 17008KT 9999 FEW018 18/15 Q1015 NOSIG", "LIRI 291050Z 25007KT 230V290 CAVOK 18/14 Q1017", "LIRK 291055Z AUTO /////KT //// 10/06 Q1021", "LIRM 291055Z 22008KT 9999 FEW025 SCT080 20/09 Q1017 RMK SCT VIS MIN 9999 WIND THR06 24008KT BLU", "LIRN 291150Z 21007KT 170V260 9999 FEW035 20/12 Q1016 NOSIG", "LIRP 291145Z VRB03KT 9999 SCT025 SCT035 18/12 Q1015 NOSIG", "LIRQ 291150Z VRB02KT 9999 FEW027 SCT050 19/12 Q1015", "LIRS 291055Z 16008KT 9999 SCT020 SCT035 18/15 Q1015 RMK OVC VIS MIN 9999 WIND THR03 17007KT WIND THR21 18006KT BLU", "LIRU 291050Z 21006KT 180V250 CAVOK 21/13 Q1016", "LIRV 291055Z 21007KT 9999 FEW040 18/08 Q1016 RMK BKN BKN070 MON E SE LIB NC VIS MIN 9999 WIND THR04 ///// KT BLU", "LIRX 291055Z 15007KT 0000 FG VV/// 14/12 Q1015 RMK VIS MIN 0000 VIS MAR 30 M", "LIRZ 291150Z AUTO 23006KT 9999 -RA BKN078/// 18/08 Q1016", "LIVC 291055Z AUTO /////KT //// ///// Q////", "LIVD 291055Z AUTO 30008KT 230V340 //// 17/03 Q1016", "LIVE 291055Z 02007KT 9999 SCT018 14/01 Q1016 RMK BKN SCT180 VIS MIN 9999", "LIVF 291055Z 06005KT 9999 SCT040 16/05 Q1015", "LIVM 291055Z AUTO /////KT //// ///// Q////", "LIVP 291055Z 07005KT 9999 SCT030 07/01 Q1017 RMK BKN SCT200 MON LIB VAL S FOSCHIA SKC SUP VIS MIN 9999", "LIVR 291055Z 13006KT 9999 SCT035 10/01 Q1018 RMK BKN SCT070 MON CLD CIME VIS MIN 9999", "LIVT 291055Z AUTO VRB02KT //// 16/11 Q1015", "LJCE 291130Z 30006KT 270V340 CAVOK 21/08 Q1013 RMK BLU", "LJLJ 291130Z 08003KT 9999 FEW060 SCT250 20/10 Q1013 NOSIG", "LJMB 291130Z 18005KT 150V220 9999 FEW039 20/09 Q1013", "LJPZ 291130Z 29006KT 9999 FEW040 BKN050 17/10 Q1015", "LKCV 291130Z 30005KT 9000 -SHRA FEW020CB BKN050 15/11 Q1013 NOSIG RMK BLU BLU", "LKKB 291100Z 33012KT 310V010 9999 VCSH FEW017CB SCT033 BKN070 14/10 Q1013 NOSIG", "LKKV 291130Z 27008KT 230V310 9999 -SHRA FEW009 SCT017 BKN026 11/09 Q1014", "LKLN 291100Z AUTO 27008KT 230V310 9999 FEW030 SCT049 OVC073 15/08 Q1014", "LKMT 291130Z 23009KT 9999 FEW012 12/09 Q1014 NOSIG", "LKNA 291139Z 09008KT 060V120 3000 -VCTS -SHRA BR BKN006 BKN015CB 12/10 Q1013 RMK YLO", "LKPD 291138Z 20003KT 160V250 9999 SCT020 BKN040 14/10 Q1012", "LKPR 291130Z 32007KT 9999 VCSH FEW020TCU SCT030 14/10 Q1013 BECMG NSC", "LKTB 291130Z 15006KT 110V180 9999 BKN011 BKN031 13/10 Q1013 TEMPO 3000 TSRA BKN008CB", "LLBG 291150Z 25018KT 9999 SCT037 SCT050 20/11 Q1010 NOSIG", "LLER 291150Z 34008KT 310V010 CAVOK 27/M02 Q1010", "LLHA 291150Z 24016G27KT 9999 SCT031 21/11 Q1009", "LLIB 291150Z AUTO 25013KT 9999 FEW025TCU BKN035 17/12 Q1009 RERA", "LMML 291145Z 20011KT 170V230 CAVOK 20/14 Q1018 NOSIG", "LOAN 291100Z 10004KT 9999 -SHRA FEW015 BKN035", "LOAV 291100Z VRB03KT 9999 SCT030 BKN040 16/12", "LOWG 291150Z 04004KT 330V130 9999 BKN070 19/10 Q1013 TEMPO SHRA", "LOWI 291150Z 36007KT 300V040 9999 -SHRA FEW025 SCT070 BKN100 18/08 Q1014 NOSIG", "LOWK 291150Z VRB02KT 9999 FEW060 FEW060TCU 20/09 Q1013 NOSIG", "LOWL 291150Z AUTO 32009KT 290V350 9999 FEW024 18/11 Q1014 NOSIG", "LOWS 291150Z VRB03KT 9999 -SHRA FEW014 SCT032 FEW040CB BKN043 15/12 Q1015 RETS TEMPO SHRA", "LOWW 291150Z 12005KT 060V190 9999 FEW015 SCT020 FEW040CB 17/13 Q1014 TEMPO TSRA", "LOXZ 291150Z 09006KT 050V130 9999 FEW050 SCT080 17/08 Q1014 NOSIG", "LPAZ 291130Z 17011KT 9999 FEW016 19/15 Q1019", "LPBJ 291100Z 33012KT 300V360 9999 SCT040 23/14 Q1020", "LPCS 291130Z 33012KT 9999 SCT014 SCT021 20/15 Q1022", "LPFL 291130Z 16013KT 9999 FEW008 SCT013 16/14 Q1012", "LPFR 291130Z 22009KT 190V250 CAVOK 25/16 Q1019", "LPHR 291130Z 16010KT 9999 FEW014 18/14 Q1016", "LPLA 291100Z /////KT 9999 FEW024 18/13 Q1017", "LPMA 291130Z 04006KT 350V080 9999 FEW013 23/19 Q1022", "LPMR 291100Z 30007KT 230V340 9999 FEW013 BKN017 21/15 Q1021", "LPMT 291100Z 35010KT 310V020 9999 SCT022 24/16 Q1020", "LPOV 291100Z 26006KT 9999 FEW022 BKN035 19/17 Q1020", "LPPD 291130Z 20006KT 9999 FEW018 SCT035 18/15 Q1019", "LPPR 291130Z 25007KT 220V290 9999 FEW024 BKN038 18/16 Q1020", "LPPS 291130Z 12008KT 090V150 9999 FEW015 23/18 Q1023", "LPPT 291130Z 31011KT 280V340 9999 SCT018 21/15 Q1021", "LQBK 291130Z 02004KT 300V060 CAVOK 20/08 Q1014 NOSIG", "LQMO 291130Z VRB02KT 9999 FEW060 SCT075 19/08 Q1014", "LQSA 291130Z VRB02KT CAVOK 18/06 Q1014 NOSIG", "LQTZ 291130Z 08005KT 9999 FEW050 18/08 Q1014", "LRAR 291130Z 16004KT 100V210 CAVOK 17/06 Q1015", "LRBC 291130Z 01008KT 330V030 CAVOK 15/M02 Q1016", "LRBM 291130Z AUTO 26008KT 9999 BKN075/// 16/02 Q1015", "LRBS 291130Z VRB05KT CAVOK 17/03 Q1016 NOSIG", "LRCK 291130Z 31012KT CAVOK 16/00 Q1014 NOSIG", "LRCL 291130Z 09004KT 040V160 CAVOK 16/01 Q1015", "LRCV 291130Z 12003KT 080V170 CAVOK 15/01 Q1016", "LRIA 291130Z 01008KT 340V040 CAVOK 14/M03 Q1017", "LROD 291130Z VRB04KT CAVOK 17/02 Q1015", "LROP 291130Z VRB05KT CAVOK 17/03 Q1016 NOSIG", "LRSB 291130Z 01007KT 330V040 CAVOK 16/M00 Q1015", "LRSM 291130Z 31003KT 220V020 CAVOK 16/03 Q1016", "LRSV 291130Z 12004KT CAVOK 14/M02 Q1016", "LRTC 291130Z AUTO 33018KT 9999 NCD 16/M04 Q1014", "LRTM 291130Z 13004KT 100V160 CAVOK 16/03 Q1015", "LRTR 291130Z VRB04KT CAVOK 17/05 Q1015", "LSGC 291150Z 36006KT 300V040 9999 FEW028 BKN040 15/09 Q1017", "LSGG 291150Z VRB01KT 9999 VCSH FEW008 BKN060 16/14 Q1016 NOSIG", "LSGS 291150Z 25005KT 200V280 9999 FEW020 SCT065 BKN100 16/12 Q1016", "LSMA 291150Z AUTO 02004KT 350V060 9999NDV -RA FEW028 BKN079 BKN096 18/11 Q1015 RMK", "LSMD 291150Z AUTO 26011KT 210V310 9999NDV -RA SCT038 BKN045 BKN062 16/10 Q1016 RMK", "LSMM 291150Z AUTO 26008KT 230V300 9999NDV FEW100 17/10 Q1016 RMK", "LSMP 291150Z AUTO VRB02KT 9999NDV FEW026 19/12 Q1016 RMK", "LSZA 291150Z 19007KT CAVOK 20/13 Q1013", "LSZB 291150Z VRB04KT 9999 SCT031 20/12 Q1015", "LSZC 291150Z AUTO VRB02KT 9999 FEW070 BKN100 19/11 Q1015", "LSZG 291150Z 23009KT 200V270 9999 SCT050 20/12 Q1015", "LSZH 291150Z 28004KT 220V350 9999 VCSH FEW035TCU SCT050 19/11 Q1015 TEMPO SHRA", "LSZL 291150Z AUTO 26005KT 9999NDV FEW130 18/12 Q1013 RMK", "LSZR 291150Z AUTO 04003KT 340V090 9999 //////TCU 19/13 Q1015", "LSZS 291150Z 35004KT 260V060 9999 SCT055 13/M01 Q1017 RMK M TL170", "LTAC 291150Z 27011KT 240V300 9999 SCT036 SCT100 11/00 Q1010 NOSIG", "LTAE 291050Z 29011KT 260V320 9999 SCT035 BKN100 10/01 Q1012 NOSIG RMK RWY21 30012KT", "LTAF 291150Z 23007KT 180V270 9999 FEW025CB BKN035 22/11 Q1006 TEMPO -TSRA", "LTAG 291150Z 13006KT 9999 FEW025CB SCT030 19/09 Q1005 TEMPO -TSRA", "LTAI 291150Z 33009KT 240V360 9999 SCT030 21/01 Q1008 NOSIG", "LTAJ 291150Z 23008KT 9999 SCT035 BKN080 17/05 Q1005 TEMPO -TSRA", "LTAN 291150Z 36014KT 330V030 9999 SCT040 BKN080 10/00 Q1011 NOSIG", "LTAP 291150Z 05005KT 360V080 9999 FEW020 SCT035 BKN080 12/05 Q1010 NOSIG", "LTAR 291150Z 33010KT 9999 SCT010 BKN025 06/01 Q1009", "LTAS 291150Z 25008KT 220V290 9999 -SHRA BKN030 BKN090 11/06 Q1015", "LTAT 291150Z 27007KT 9999 -TSRA FEW027CB BKN035 12/09 Q1006 NOSIG", "LTAU 291150Z 32011KT 9999 BKN025 BKN080 09/02 Q1010 NOSIG", "LTAW 291150Z 07007KT 020V110 9999 BKN030 BKN080 11/05 Q1010", "LTAY 291150Z 27013KT 230V360 9999 SCT035 BKN100 10/02 Q1013 NOSIG", "LTAZ 291150Z 31003KT 280V340 9999 BKN030 09/03 Q1011", "LTBA 291150Z 34008KT 310V030 9999 FEW045 BKN100 14/01 Q1016", "LTBD 291150Z 10006KT 060V150 9999 FEW040 SCT100 19/04 Q1013", "LTBF 291150Z 02012KT 350V050 9999 SCT035 16/03 Q1016 NOSIG", "LTBH 291150Z 05005KT 340V100 9999 FEW035 SCT200 18/01 Q1016", "LTBJ 291150Z 02014KT 330V060 9999 SCT035 16/02 Q1014 NOSIG", "LTBO 291150Z VRB09KT 9999 BKN040 BKN100 09/M01 Q1014", "LTBQ 291150Z 20003KT 150V260 9999 -SHRA BKN035 BKN080 11/06 Q1016 NOSIG", "LTBR 291150Z VRB04KT 9999 SCT035 BKN090 12/04 Q1016 NOSIG", "LTBS 291150Z VRB10KT 9999 FEW030 21/03 Q1009 NOSIG", "LTBU 291150Z VRB02KT 9999 SCT040 16/01 Q1015", "LTBY 291150Z 31011KT 9999 BKN025 08/02 Q1014", "LTCA 291150Z 12013KT 9999 SCT035 19/06 Q1005 NOSIG", "LTCB 291150Z 09004KT 060V140 9999 -SHRA SCT015 BKN033 11/08 Q1014 NOSIG", "LTCC 291150Z 11008KT 060V150 9999 FEW030 SCT100 20/09 Q1005 NOSIG", "LTCD 291150Z VRB02KT 9999 FEW045 SCT080 17/01 Q1005 TEMPO FM1300 25012KT", "LTCE 291150Z 32006KT 290V350 9999 FEW025CB BKN035 08/05 Q1010 NOSIG", "LTCF 291150Z 20003KT 100V250 9999 -SHRA FEW025CB BKN035 BKN070 07/06 Q1011 NOSIG", "LTCG 291150Z 30011KT 9999 SCT009 BKN028 12/09 Q1013 NOSIG", "LTCI 291150Z 24005KT 9999 FEW020TCU SCT030 BKN070 13/06 Q1013 RETSRA BECMG TL1250 22020G30KT TEMPO -TSRA", "LTCJ 291150Z VRB04KT 9999 SCT040 SCT100 21/10 Q1005 NOSIG", "LTCK 291150Z 29006KT 260V330 9999 FEW035 SCT080 12/09 Q1008 RETSRA", "LTCL 291150Z 26006KT 220V310 9999 FEW040 SCT100 21/10 Q1007", "LTCM 291150Z 29018KT 9999 FEW023 SCT030 BKN090 12/07 Q1013", "LTCN 291150Z 26018KT 9999 FEW025CB BKN035 15/08 Q1006 RESHRA", "LTCO 291150Z 15016KT 9999 -TSRA SCT025CB SCT035 11/05 Q1009 RETSRA", "LTCP 291150Z 19009KT 130V230 9999 FEW032TCU SCT035 18/06 Q1006", "LTCR 291150Z 26006KT 200V330 9999 SCT040 20/07 Q1006", "LTCS 291150Z 24012KT 180V250 9999 BKN040 17/06 Q1006", "LTCT 291150Z 09013KT 9999 SCT040 BKN100 20/10 Q1006", "LTCU 291150Z 14007KT 9999 FEW027CB SCT035 BKN100 16/05 Q1007", "LTCV 291150Z 18010KT 9999 SCT035 SCT100 22/12 Q1005", "LTCW 291150Z 22014G32KT 130V280 8000 -TSRA FEW020CB SCT030 BKN070 13/05 Q1012 RETS", "LTDA 291150Z 22017KT 9999 SCT035 BKN100 20/10 Q1006 NOSIG", "LTFB 291150Z 36008KT 9999 FEW035 18/04 Q1014", "LTFC 291150Z 33021KT 9999 SCT040 12/02 Q1011", "LTFD 291150Z 25007KT 190V310 9999 SCT035 19/05 Q1015", "LTFE 291150Z 01010KT 320V070 9999 FEW035 SCT200 20/02 Q1012 NOSIG", "LTFG 291150Z 25010KT 9999 SCT030 SCT180 18/09 Q1008", "LTFH 291150Z 02007KT 9999 -SHRA FEW009 BKN030 BKN100 11/09 Q1013 NOSIG", "LTFJ 291150Z 33005KT 280V020 9999 SCT035 BKN090 13/01 Q1016 NOSIG", "LTFM 291150Z 01012KT 320V030 9999 FEW040 BKN100 12/00 Q1016 NOSIG", "LTFO 291150Z 25010KT 3200 -SHRA BR BKN005 BKN025 10/09 Q1013", "LUKK 291200Z 01014KT CAVOK 16/M02 Q1015 NOSIG", "LWOH 291200Z 13002KT 9999 SCT050 BKN080 16/03 Q1015", "LWSK 291200Z 25001KT 9999 BKN093 18/05 Q1015 NOSIG", "LXGB 291150Z 24010KT 9999 FEW040 27/15 Q1018 NOSIG RMK BLU BLU", "LYBE 291130Z 10007KT 060V130 CAVOK 19/04 Q1014 NOSIG", "LYBT 291130Z 09005KT 030V130 CAVOK 20/06 Q1014 NOSIG", "LYKV 291130Z VRB01KT 9999 FEW040 19/08 Q1014 NOSIG", "LYNI 291130Z VRB02KT CAVOK 17/03 Q1015 NOSIG", "LYPG 291130Z VRB02KT 9999 FEW030 BKN080 19/07 Q1015 NOSIG", "LYTV 291130Z VRB01KT 9999 OVC080 17/12 Q1016 NOSIG", "LYVR 291130Z AUTO VRB03KT CAVOK 17/07 Q1016", "LZIB 291130Z 03004KT 350V050 9999 -SHRA SCT040 13/11 Q1015 RESHRA NOSIG", "LZKZ 291130Z 25007KT 220V290 9999 SCT040 14/04 Q1015 NOSIG", "LZPP 291130Z 18006KT 150V210 9999 BKN028 14/08 Q1014", "LZTT 291130Z 25012KT 9999 BKN040 12/04 Q1014 NOSIG", "LZZI 291130Z VRB02KT 9999 OVC032 13/06 Q1014", "MBPV 281200Z 12005KT 9999 SCT010 26/20 Q1015", "MDAB 291200Z 00000KT 9999 BKN016 24/23 Q1016", "MDBH 291200Z 11006KT 9999 FEW018CB SCT018 SCT080 26/25 Q1015 CB/W", "MDCY 291200Z 00000KT 9999 SCT018 23/22 Q1015", "MDJB 291200Z 00000KT 9999 FEW016 24/23 Q1016", "MDLR 291200Z 00000KT 9999 SCT016 25/24 Q1015", "MDPC 291200Z 06007KT 9999 FEW018 28/23 Q1016 NOSIG", "MDPP 291200Z 00000KT 9999 FEW020 25/24 Q1015", "MDSD 291200Z 01004KT 9999 FEW018 BKN300 25/24 Q1016 NOSIG", "MDST 291200Z 09005KT 040V130 9999 BKN018 24/23 Q1016", "MGGT 291200Z 18010KT 5000 BR SCT200 18/15 Q1020 A3012 BR", "MGHT 291100Z 00000KT 0000 FG VV/// 13/13 APCH CLSD", "MGMM 291200 14004KT 1000 FG SKC 23/23 Q1009 A2980 APCH CLSD", "MGPB 291100Z 00000KT 6000 FEW018 25/24 Q1006 A2971 BR", "MHPR 291200Z 18010KT 5000 FU FEW048 23/16 Q1015 A2998 NOSIG", "MHTG 291100Z 00000KT 7000 FEW034 19/16 Q1017 A3003 NOSIG", "MKJP 291100Z 12004KT 9999 FEW022 27/22 Q1013", "MKJS 291100Z 15005KT 9999 FEW022 26/21 Q1014", "MMAA 291148Z 02003KT 6SM SCT015 BKN090 BKN300 25/21 A2986 RMK SLP100 57013 903 8/532 HZY", "MMAN 291140Z 35013KT 10SM FEW025 SCT070 17/05 A3012 RMK SLP/// 5//// 9// 8/570 RTS", "MMAS 291148Z 04002KT 9SM SKC 10/M08 A3018 RMK SLP088 5//// 9// 6//// HZY", "MMCE 291154Z 00000KT 3SM HZ BKN250 25/24 A2973 RMK SLP064 5//// 967 8/009 RTS", "MMCM 291154Z 12008KT 7SM SCT020 OVC300 27/24 A2979 RMK SLP089 5//// 954 8/502 RTS", "MMCP 291144Z 14010KT 3SM HZ FU SKC 24/22 A2975 RMK SLP061 5//// 969", "MMCS 291140Z 00000KT 10SM SKC 08/M02 A3026 RMK SLP190 5//// 947 RTS", "MMCU 291140Z 22005KT 10SM SKC 07/M02 A3025 RMK SLP165 5//// 944 RTS", "MMCZ 291140Z 13003KT 7SM SCT015 BKN250 27/25 A2981 RMK SLP099 5//// 958 8/508 RTS", "MMDO 291108Z RTD 00000KT 6SM SKC 07/00 A3020 RMK RTS", "MMGL 291144Z 00000KT 10SM SKC 10/M01 A3012 RMK SLP086 52004 901 HZY RTS", "MMHO 291140Z 06005KT 10SM SKC 19/05 A2991 RMK SLP124 54000 919 HZY", "MMLO 291143Z 36004KT 8SM SKC 10/M06 A3022 RMK SLP091 52006 901", "MMMD 291147Z 16007KT 4SM SKC 24/22 A2976 RMK SLP078 57007 966 HZ CI", "MMMM 291145Z 00000KT 7SM SKC 10/03 A3017 RMK SLP083 52004 908 HZY", "MMMT 291152Z 18008KT 6SM SKC 24/21 A2971 RMK SLP061 967 RTS", "MMMX 291154Z 00000KT 8SM SKC 15/M01 A3027 NOSIG RMK SLP054 52002 903 HZY", "MMMY 291140Z 30011G23KT 10SM SCT070 17/05 A3008 RMK SLP/// 5//// 9// 8/070", "MMMZ 291143Z 04005KT 8SM BKN080 OVC240 16/15 A2991 RMK SLP123 57003 912 8/077 HZY", "MMOX 291152Z 00000KT 8SM SCT220 14/09 A3018 RMK SLP096 5//// 909 8/002 HZY", "MMPG 291157Z RTD 24007KT 8SM SKC 14/09 A3012 RMK HZY RTS", "MMPR 291145Z 00000KT 12SM SKC 19/16 A2989 RMK SLP/// 5//// 9// HZY MSGTX MMMX", "MMPS 291154Z 33004KT 7SM SCT200 24/19 A2989 RMK 8/001 HZY", "MMQT 291141Z 09006KT 8SM SCT020 13/01 A3024 RMK 8/500", "MMRX 291153Z 33012KT 6SM BKN080 17/08 A3005 RMK SLP222 5//// 945 61495 8/030 HZY RTS", "MMSP 291146Z 21004KT 8SM SKC 12/00 A3016 RMK SLP065 52012 914", "MMTJ 291140Z 310037KT 8SM OVC010 13/12 A3003 RMK SLP178 54000 933 8/6// HZY", "MMTM 291140Z E36025G35KT 4SM BKN010 22/17 A2988 RMK SLP107 5//// 927 8/500 BLDU OCNL DROPS VRB COND", "MMTO 291140Z 00000KT 7SM SKC 05/00 A3033 RMK SLP054 57003 900 HZY", "MMTP 291140Z 00000KT 8SM SKC 23/23 A2986 RMK SLP134 54000 903 HZY", "MMUN 291145Z 14013KT 7SM SCT015 SCT080 BKN250 27/24 A2982 RMK SLP102 51011 952 8/178 HZY", "MMZC 291140Z E00000KT 10SM SKC 07/M10 A3020", "MNMG 291100Z 00000KT 8000 FEW021 SCT300 23/20 Q1011 A2985 FU NOSIG", "MPDA 291100Z 04004KT 9999 24/22 Q1010", "MPMG 291200Z VRB02KT 9000 NSC 26/23 Q1011 NOSIG", "MPPA 291100Z 00000KT 9999 FEW020 24/23 Q1011", "MPTO 291200Z 26003KT 9999 FEW020 25/22 Q1011 NOSIG", "MRLB 291200Z 09003KT CAVOK 24/23 A2986", "MRLM 291200Z 21005KT 9999 FEW020 SCT200 22/21 A2989", "MROC 291200Z 04005KT 9999 FEW002 BKN110 21/17 A3002 NOSIG", "MRPV 291200Z 10003KT CAVOK 21/18 A3006 NOSIG", "MSLP 291150Z VRB02KT 5000 BR SCT020 24/23 Q1010 A2985 NOSIG", "MTPP 291200Z 10003KT 9999 FEW023 27/22 Q1014 A2997", "MUCC 291150Z 14005KT 9000 SCT020 BKN200 26/24 Q1014", "MUCF 291150Z VRB03KT 9999 FEW025 23/21 Q1014", "MUCL 291150Z 15009KT 9000 SCT020 28/22 Q1013", "MUCM 291151Z 05004KT 9000 FEW016 BKN250 24/23 Q1015", "MUCU 291150Z 05004KT 350V090 9000 FEW020 25/21 Q1015", "MUGM 291151Z 34005KT 10SM FEW030 BKN250 26/23 A3000 RMK AO2 SLP157 T02560233 10261 20233 53018 $", "MUHA 291150Z 10005KT 9000 FEW025 24/22 Q1013", "MUHG 291150Z 08004KT 9000 FEW018 BKN250 25/24 Q1015", "MUSC 291150Z VRB01KT 9000 SCT060 22/21 Q1015", "MUVR 291150Z 15005KT 9000 FEW020 BKN200 23/22 Q1014", "MWCB 291200Z 11006KT 9999 FEW018 28/23 Q1014", "MWCR 291200Z 12008KT 9999 FEW018 28/23 Q1012", "MYCB 291200Z AUTO /////KT ///V/// //// R09///// // NCD ///// A////", "MYGF 291200Z 15004KT 9999 FEW015CB 26/23 A2994", "MYNN 291200Z 19010KT 9999 FEW020 BKN200 27/22 A2997", "MYSM 291200Z AUTO 13004KT CAVOK 26/23 A3001", "MZBZ 291100Z 08003KT 8000 FEW020 26/25 A2974 Q1007 NOSIG RMK HZ", "NCAI 291200Z AUTO 17006KT //// ////// 25/20 Q1013", "NCAT 291200Z AUTO NIL", "NCMG 291200Z AUTO 12003KT //// ////// ///// Q////", "NCMH 291200Z AUTO NIL", "NCMK 291200Z AUTO 16003KT //// ////// ///// Q1012", "NCMR 291200Z AUTO 10003KT //// ////// ///// Q1013", "NCNS 291200Z AUTO NIL", "NCPK 291200Z AUTO NIL", "NCPL 291200Z AUTO NIL", "NCPY 291200Z AUTO NIL", "NCRG 291130Z AUTO 13003KT 110V170 9999 FEW045/// 22/18 Q1015", "NCRK 291200Z AUTO NIL", "NCSW 291200Z AUTO NIL", "NFFN 291200Z VRB02KT 9999 FEW030 24/23 Q1013 NOSIG", "NFNA 291200Z 00000KT 9999 FEW020 24/23 Q1012", "NFTF 291200Z 08008KT 9999 FEW016 BKN290 26/24 Q1015 RMK GRASS DEW", "NFTL 291200Z 12012KT 9999 FEW016TCU BKN280 25/25 Q1014 RMK GRASS DEW", "NFTV 291200Z 00000KT 9999 FEW020 23/22 Q1014 RMK GRASS DEW", "NGFU 292000Z 09015KT 8000 +TSRA FEW016CB FEW018TCU BKN800 OVC100 27/26 Q1009", "NGTA 291200Z 08005KT 9999 SCT020 SCT300 28/25 Q1008", "NIUE 291100Z AUTO 09006KT NCD 24/24 Q1014", "NLWW 291130Z AUTO 12008KT 9999 FEW019/// 28/25 Q1011 TEMPO 4500 SHRA FEW020CB", "NSFA 291200Z 16004KT 9999 FEW030 23/22 Q1012", "NSTU 291150Z 11011KT 10SM SCT018 28/26 A2987 RMK SLP115 8/100 T02800255 10286 20275 56003", "NTAA 291130Z 00000KT 9999 FEW023 26/22 Q1011 NOSIG", "NVVV 291100Z VRB01KT 9999 FEW020 SCT120 24/22 Q1012", "NWWW 291130Z AUTO VRB03KT 9999 FEW029 SCT044 20/19 Q1013 NOSIG", "NZAA 291130Z AUTO 08012KT 9999 SCT025/// 17/14 Q1020", "NZCH 291130Z AUTO 05003KT 9999 NCD 11/11 Q1020", "NZCM 291155Z AUTO 06005KT 9999 CLR M21/M26 A2926 RMK AO2 SLP916 T12121264 11188 21224 411821270 56027", "NZSP 291150Z 02017KT 1000 IC BR FEW025 M48/ A2875 RMK CLN AIR 01021KT ALL WNDS GRID", "NZWN 291130Z AUTO 01010KT 9999 NCD 13/10 Q1024", "OBBI 291130Z 12011KT CAVOK 37/06 Q1005 NOSIG", "OEAB 291100Z 19016KT 9999 SCT020 FEW025CB 23/10 Q1021 NOSIG", "OEAH 291100Z 24011KT CAVOK 39/04 Q1005 NOSIG", "OEAO 291100Z 23020KT CAVOK 31/M01 Q1010 NOSIG", "OEBA 291100Z 20009KT 9999 SCT030 28/06 Q1017 NOSIG", "OEBH 291100Z 15015KT 9999 FEW030 26/18 Q1012 NOSIG", "OEDF 291100Z 22007KT 140V270 8000 NSC 39/07 Q1004 NOSIG", "OEDM 291100Z 26016KT CAVOK 32/07 Q1010", "OEDR 291100Z 14011KT CAVOK 37/06 Q1003", "OEGN 291100Z 27010KT 9999 FEW030 37/22 Q1005 NOSIG", "OEGS 291100Z 23008KT CAVOK 34/05 Q1008", "OEGT 291100Z 28013KT 9999 SCT040 23/00 Q1010 NOSIG", "OEHL 291100Z 24010KT CAVOK 28/04 Q1012", "OEJB 291100Z AUTO 16010KT CAVOK 39/04 Q1004 NOSIG", "OEJN 291100Z 32014KT CAVOK 37/06 Q1006 NOSIG", "OEKJ 291100Z 25006KT CAVOK 37/05 Q1010", "OEKM 291100Z 22012KT 9999 SCT022 FEW025CB 25/07 Q1020 NOSIG", "OEMA 291100Z 20015KT CAVOK 34/M03 Q1010 NOSIG", "OEMN 291100Z 23004KT CAVOK 38/10 Q1009", "OENG 291100Z 33006KT 7000 NSC 33/15 Q1013 NOSIG", "OEPA 291100Z 24014KT CAVOK 37/11 Q1006 NOSIG", "OEPS 291155Z 18014G23KT 9999 FEW030 SCT170 35/08 A2980 RMK AO2A PRESRR SLP071 WND DATA ESTMD T03500080 10369 20312 57021", "OERF 291100Z 31012KT CAVOK 30/M02 Q1008 NOSIG", "OERK 291100Z 26007KT 9999 FEW040 34/08 Q1009 NOSIG", "OERR 291100Z 31008KT CAVOK 27/M02 Q1008 NOSIG", "OESH 291100Z 00000KT CAVOK 37/10 Q1008 NOSIG", "OESK 291100Z 28008KT CAVOK 25/00 Q1012 NOSIG", "OETB 291100Z 27007KT CAVOK 25/00 Q1009 NOSIG", "OETF 291100Z 35011KT 9999 FEW025CB SCT030 28/07 Q1017 TEMPO TS", "OETR 291100Z 26014KT 9999 FEW040 19/M02 Q1010 NOSIG", "OEWD 291100Z 15008KT 9999 SCT030 BKN080 36/03 Q1008", "OEWJ 291100Z 30019KT CAVOK 26/13 Q1010 NOSIG", "OEYN 291100Z 24014KT CAVOK 35/09 Q1006 NOSIG", "OIAA 291100Z 12016KT 7000 NSC 36/11 Q1004", "OIAG 291100Z 21014KT CAVOK 38/04 Q1005", "OIAH 291100Z 00000KT 9999 FEW040 33/M01 Q1011", "OIAI 291100Z 13004KT CAVOK 35/04 Q1005", "OIAM 291100Z 18016KT CAVOK 35/06 Q1004", "OIAW 291130Z 15008KT CAVOK 39/06 Q1003", "OIBA 291100Z 24010KT CAVOK 29/20 Q1005", "OIBB 291130Z 20014KT CAVOK 32/10 Q1004 A2967", "OIBH 291100Z 21016KT CAVOK 33/13 Q1004 A2965", "OIBJ 291100Z AUTO 22007KT //// // ////// 31/16 Q1009", "OIBK 291130Z 26012KT CAVOK 29/19 Q1006", "OIBL 291100Z 22010KT 6000 NSC 29/21 Q1005", "OIBP 291130Z 31010KT CAVOK 33/14 Q1005 A2968", "OIBQ 291100Z 21010KT CAVOK 34/10 Q1005", "OIBS 291100Z 21008KT 7000 NSC 30/23 Q1006", "OIBV 291100Z 25012KT CAVOK 31/16 Q1005", "OICC 291130Z 21016KT 9999 FEW040CB SCT045 BKN080 23/02 Q1013 A2992", "OICI 291100Z 13014KT 9999 SCT040 FEW045CB 24/02 Q1014 A2995", "OICJ 291100Z 18014KT 9999 FEW040 24/08 Q1014", "OICK 291100Z 29010KT 9999 FEW040 27/07 Q1011", "OICM 291100Z 10002KT 9999 FEW040TCU BKN045 33/10 Q1003", "OICS 291100Z 21014KT 9999 -SHRA FEW035CB SCT040 21/03 Q1013 A2992", "OIFK 291100Z 00000KT 9999 SCT040 32/M02 Q1008 A2978", "OIFM 291130Z 10004KT 9999 FEW040 26/M00 Q1014 A2994", "OIFS 291100Z 26010KT 9999 SCT040 22/M05 Q1017", "OIGG 291130Z 00000KT 9999 BKN020 23/20 Q1005", "OIGK 291050Z 21016KT 9999 FEW040 23/M04 Q1016", "OIHH 291100Z 25008KT 9999 SCT040 24/M01 Q1013 A2993", "OIHM 291100Z 17008KT 9999 FEW040 23/00 Q1014", "OIHR 291100Z 07004KT 9999 SCT035TCU 25/M03 Q1014", "OIIE 291130Z 07012KT 9999 FEW035CB 31/M00 Q1009", "OIII 291130Z 20008KT 9999 FEW035TCU FEW040CB 28/M03 Q1010 A2984", "OIIK 291100Z 04004KT 9999 FEW040CB SCT100 24/08 Q1011", "OIIP 291100Z 16004KT 9999 FEW030CB SCT035 BKN200 28/01 Q1010 A2983", "OIKB 291130Z 23016KT 6000 FEW030CB 32/18 Q1004", "OIKK 291050Z 04010KT 9999 TS FEW035CB SCT040 24/04 Q1014 A2996", "OIKO 291100Z 22006KT 8000 FEW030 34/19 Q1004", "OIKQ 291100Z 24018KT 9999 FEW025TCU 29/24 Q1005 NOSIG", "OIMB 291100Z 27006KT 9999 SCT040 BKN180 28/M08 Q1012 A2990", "OIMC 291050Z 05008KT CAVOK 36/M02 Q1007", "OIMD 291100Z 02008KT 9999 FEW035 SCT190 32/02 Q1009", "OIMJ 291100Z 25012KT 9999 FEW035CB SCT035 26/05 Q1012", "OIMM 291130Z 16010KT CAVOK 30/06 Q1010 A2983", "OIMN 291100Z 21012KT 9999 FEW070CB SCT110 BKN200 23/03 Q1013", "OIMQ 291100Z 24006KT 9999 SCT040 OVC180 30/M01 Q1012", "OIMS 291100Z 27016KT 9999 FEW030CB SCT035 OVC200 28/06 Q1012", "OINB 291100Z 03006KT 9999 FEW025 24/18 Q1005", "OINE 291100Z 20008KT 9999 FEW035 BKN200 32/14 Q1004", "OING 291100Z 30004KT 9999 FEW040CB 34/17 Q1006 NOSIG", "OINK 291100Z 22006KT 9999 FEW025 33/13 Q1003 A2963", "OINN 291100Z 03004KT 9999 FEW020TCU 22/18 Q1006", "OINR 291130Z 08006KT 9999 FEW030TCU SCT033 22/16 Q1005", "OINZ 291100Z 01006KT 9999 FEW035TCU 29/20 Q1005", "OISA 291100Z 19004KT 9999 SCT040 24/M04 Q1015 A2999", "OISF 291100Z 19004KT 9999 FEW035CB SCT040TCU 28/04 Q1012 A2991", "OISL 291100Z 30006KT 9999 SCT030CB 31/12 Q1007 NOSIG", "OISR 291100Z 23016KT 9999 FEW035 35/13 Q1007 A2975 NOSIG", "OISS 291130Z 25008KT 9999 FEW030TCU SCT035 28/02 Q1013 A2992", "OISY 291100Z 21008KT 9999 FEW040 24/M03 Q1019", "OITK 291100Z 23016G31KT 9999 SCT030CB SCT035 BKN090 19/06 Q1009 A2982", "OITL 291130Z 21014KT 9999 SCT045TCU FEW050CB 27/M02 Q1009", "OITM 291100Z 27006KT 9999 FEW035 SCT090 24/04 Q1011", "OITP 291130Z 04004KT 9999 FEW035 28/17 Q1005", "OITR 291130Z 17016G27KT 9999 SCT035CB BKN040 22/05 Q1009 A2982", "OITT 291130Z 24012KT 9999 SCT030 SCT032CB BKN080 21/03 Q1011 A2988", "OITZ 291100Z 18010KT 9999 FEW035 25/M02 Q1012 A2990", "OIYY 291100Z 33008KT 9999 SCT035TCU 28/05 Q1012 NOSIG", "OIZB 291100Z 01006KT 4000 DU NSC 36/08 Q1006", "OIZC 291100Z 20016KT 4000 TS FEW030CB SCT035 BKN090 29/20 Q1004 A2966", "OIZH 291130Z 08012KT 7000 FEW035CB FEW040TCU SCT200 28/04 Q1011 A2986", "OIZI 291100Z 31012KT 9999 SCT040TCU 33/10 Q1005", "OIZJ 291100Z 27012KT CAVOK 30/22 Q1004", "OJAI 291200Z 25017KT 5000 BLDU SCT030 SCT035 18/07 Q1011 NOSIG", "OJAM 291200Z 25015KT 6000 SQ SCT025TCU SCT030 16/08 Q1012 NOSIG", "OJAQ 291200Z 33012KT CAVOK 27/M02 Q1010 NOSIG", "OKAS 291155Z 26003KT 9999 CLR 38/M00 A2961 RMK AO2A SLP021 T03831002 10391 20317 57017 FZRANO $", "OKKK 291100Z 35017KT 5000 BLDU NSC 35/14 Q1003 NOSIG", "OLBA 291200Z 20013KT 6000 BKN026 21/13 Q1010 NOSIG", "OMAA 291100Z 32014KT 290V350 CAVOK 34/04 Q1006 NOSIG", "OMAD 291100Z 34010KT 310V010 CAVOK 34/05 Q1006 NOSIG", "OMAL 291100Z 34013KT 290V020 CAVOK 36/03 Q1007 NOSIG", "OMDB 291100Z 30011KT 270V340 CAVOK 32/13 Q1006 NOSIG", "OMDW 291100Z 30013KT 270V330 CAVOK 32/08 Q1007 NOSIG", "OMFJ 291100Z 09008KT 050V130 7000 FEW030 27/22 Q1005 A2970", "OMRK 291100Z 29010KT CAVOK 34/15 Q1006 A2971", "OMSJ 291100Z 29011KT CAVOK 32/13 Q1006 NOSIG", "OOAD 291050Z AUTO 27012KT //// R31///// // NCD 36/00 Q1006 NOSIG", "OODQ 291050Z AUTO VRB02KT CAVOK ////// 36/18 Q1005 NOSIG", "OOKB 291050Z 02012KT 9999 FEW030 32/19 Q1005 NOSIG", "OOMS 291050Z 05010KT 020V080 9999 FEW025 31/21 Q1005 NOSIG", "OOSA 291050Z 19013KT 9999 FEW020 32/24 Q1007 NOSIG", "OOSH 291050Z AUTO 05011KT //// ////// 33/13 Q1004 RMK 1001", "OPFA 291055Z 18012KT 4000 HZ FEW040 BKN100 31/13 Q1007 TEMPO 31015G30KT", "OPIS 291130Z 36004KT 7000 NSC 31/12 Q1007 NOSIG", "OPKC 291200Z 30005KT 6000 SCT030 29/15 Q1006 TEMPO 0800 DS TSRA", "OPLA 291155Z 23025KT 4000 HZ SCT040 SCT100 31/14 Q1006 TEMPO 21025G35KT 1500 TSRA FEW030CB RMK QFE980 A29.71", "OPMT 291200Z 00000KT 4000 FU SCT040 BKN100 27/17 Q1006 NOSIG", "OPNH 291100Z 09004KT 6000 SCT035 FEW100 32/18 Q1004", "OPPS 291130Z 36004KT 9999 FEW040 BKN170 31/11 Q1007", "OPSK 291100Z 18008KT 4000 HZ SCT040 SCT100 30/16 Q1007 NOSIG", "OPST 291200Z 31004KT 5000 HZ FEW040 SCT100 35/11 Q1005 NOSIG 24", "ORBI 291100Z 31012KT CAVOK 31/08 Q1005 NOSIG", "ORER 291100Z 19012G24KT 8000 SCT040 SCT080 28/08 Q1006", "ORMM 291100Z 11018KT 7000 NSC 37/04 Q1003 NOSIG", "ORNI 291100Z 30013KT 8000 NSC 33/05 Q1005", "OSAP 291200Z 25018KT 9999 BKN026 20/06 Q1007", "OSDI 291200Z 30017KT 9999 FEW026 TCU SCT030 17/05 Q1009", "OSKL 291200Z 25008KT 9999 FEW026 SCT100 23/07 Q1005", "OSLK 291200Z 18012KT 8000 TS FEW025CB SCT030 BKN100 15/08 Q1009", "OTBD 291130Z AUTO 13015KT CAVOK 33/13 Q1005 NOSIG", "OTBH 291155Z 21004KT 9999 FEW200 38/05 A2965 Q1004 RMK AO2A SLP041 T03830050 10385 20331 FZRANO VISNO RWY34 CHINO RWY34 $", "OTHH 291100Z 12013KT CAVOK 34/10 Q1005 NOSIG", "PAAD 291155Z AUTO 09011KT 1 1/2SM OVC003 M19/M21 A3014 RMK AO2 T11881206 11181 21210 PWINO", "PAAK 291156Z AUTO 31006KT 3SM -SN BR OVC021 M01/M01 A2946 RMK AO2 SLP977 P0000 60000 70001 T10061011 10011 21006 56013 FZRANO $", "PAAQ 291153Z AUTO 34008KT 10SM CLR 01/M04 A2993 RMK AO2 SLP139 T00061044 10061 20006 58005 TSNO", "PABA 291152Z AUTO 09011KT 9SM -SN OVC003 M14/M16 A3018 RMK AO2 SLP225 6//// 7//// T11441156 11139 21206 56002 FZRANO PNO $", "PABE 291153Z 09007KT 10SM OVC065 00/M01 A2975 RMK AO2 SLP076 60001 70003 T00001006 10017 21006 58000", "PABI 291153Z AUTO 24004KT 10SM CLR M01/M06 A2995 RMK AO2 SLP159 T10111056 10044 21011 51008 TSNO", "PABL 291156Z AUTO 19004KT 10SM CLR M06/M07 A2991 RMK AO2 SLP131 T10561067 10006 21056 51007 FZRANO", "PABR 291153Z AUTO 07015KT 10SM OVC055 M14/M17 A3017 RMK AO2 SLP217 T11441167 11144 21167 58000 TSNO $", "PABT 291153Z 00000KT 10SM FEW050 BKN060 00/M06 A2996 RMK AO2 SLP159 4/030 T00001061 10039 21006 53014 PNO", "PABV 291156Z AUTO 07003KT 10SM CLR 01/M04 A2996 RMK AO2 SLP150 T00111039 10067 21006 56007 FZRANO", "PACD 291153Z AUTO 14016G23KT 10SM -RA FEW025 BKN033 OVC110 03/01 A2957 RMK AO2 RAB42 SLP015 P0000 60003 70008 T00280006 10028 20011 58010 TSNO $", "PACM 291156Z AUTO 09008KT SCT009 BKN018 OVC055 M01/M01 A2975 RMK AO2 SLP070 T10061006 10006 21011 51002 PWINO FZRANO $", "PACV 291153Z 00000KT 10SM -RA OVC042 02/01 A2990 RMK AO2 RAB29 SLP125 P0000 60005 70043 T00170011 10028 20017 57020", "PACZ 291155Z AUTO 12015KT 5SM -FZRA FEW015 OVC034 M01/M03 A2967 RMK AO2 SNB1120E1154 SLP056 P0000 60002 70004 T10141028 11001 21019 54000", "PADE 291153Z AUTO 00000KT 10SM BKN060 OVC075 M07/M07 A2987 RMK AO2 SLP115 7//// T10671072 11011 21072 51006 TSNO $", "PADK 291156Z AUTO 01011KT BKN031 OVC042 01/M03 A2945 RMK AO2 SLP973 T00061033 10017 20000 58009 PWINO FZRANO $", "PADL 291156Z AUTO 13007KT 10SM FEW060 BKN075 OVC090 01/00 A2982 RMK AO2 SLP101 60000 70002 T00110000 10022 20011 50002 FZRANO", "PADM 291156Z AUTO 06006KT 10SM SCT100 01/M01 A2981 RMK AO2 SLP100 60001 70002 T00111011 10028 21006 51005 FZRANO", "PADQ 291153Z AUTO 00000KT 10SM OVC019 03/00 A2990 RMK AO2 SLP124 70013 T00280000 10039 20022 58005 TSNO", "PADU 291156Z AUTO 27005KT 10SM UP SCT014 OVC022 02/01 A2949 RMK AO2 SLP990 P0001 60002 70002 T00220011 10033 20022 55001 FZRANO", "PAED 291155Z 00000KT 10SM CLR 01/M02 A2992 RMK AO2A SLP129 70002 4/001 T00091025 10064 20005 57007", "PAEG 291153Z AUTO 17003KT 10SM SCT100 M02/M06 A2991 RMK AO2 SLP135 T10171056 10039 21017 52007 TSNO", "PAEH 291155Z AUTO 02011G17KT 10SM SCT015 02/M01 A2969 RMK AO2 SLP061 70015 T00191015 10022 20012 51004", "PAEI 291155Z 00000KT 10SM CLR M04/M05 A2992 RMK AO2A SLP141 4/015 T10421053 10046 21045 52006 $", "PAEN 291153Z AUTO 33003KT 10SM OVC065 M01/M03 A2994 RMK AO2 SLP140 T10061028 10028 21011 58003 TSNO", "PAFA 291153Z 00000KT 10SM FEW075 FEW100 M02/M06 A2995 RMK AO2 SLP149 T10221061 10067 21022 51005", "PAFB 291155Z AUTO 00000KT 10SM M M02/M05 A2994 RMK AO2 SLP149 T10251052 10045 21029 51004 CHINO RWY25R $", "PAFE 291159Z AUTO 07003KT 1 1/2SM BR BKN002 03/03 A2995 RMK AO2 VIS 1/2V5 $", "PAFM 291159Z AUTO 03007KT 3/4SM BR BKN002 OVC070 00/M01 A2998 RMK AO2 FZRANO", "PAFR 291155Z AUTO 00000KT 10SM CLR M02/M04 A2993 RMK AO2 SLP144 70001 T10231045 10056 21023 57007 $", "PAFS 291101Z AUTO 00000KT 10SM OVC120 M01/M03 A2994 RMK AO2 SLP147 T10111028 FZRANO", "PAGK 291153Z AUTO 00000KT 10SM CLR M03/M04 A2993 RMK AO2 SLP160 T10331044 10022 21033 58005 TSNO", "PAGL 291156Z AUTO 09012KT 10SM FEW032 00/M02 A2985 RMK AO2 SLP105 T00001017 10006 21006 50005 FZRANO", "PAGM 291056Z AUTO 03018G26KT 5SM UP BR OVC005 M06/M07 A2982 RMK AO2 PK WND 04029/1031 UPB45SNB12E45 SLP106 P0000 T10611072 FZRANO", "PAGN 291156Z AUTO 00000KT 10SM OVC013 05/05 A2997 RMK AO2 SLP139 60000 70002 T00500050 10067 20050 58024", "PAGS 291156Z AUTO 33007KT 4SM -RA BR FEW004 OVC012 04/04 A3001 RMK AO2 SLP161 P0000 60000 70003 T00440039 10044 20039 56017", "PAGY 291153Z AUTO 00000KT 10SM FEW004 SCT011 OVC027 06/04 A3000 RMK AO2 PRESFR SLP158 60001 70001 T00560044 10072 20056 58017 TSNO", "PAHC 291156Z AUTO VRB03KT 10SM CLR 02/M02 A2982 RMK AO2 SLP102 T00171022 10039 20017 51003 FZRANO", "PAHL 291156Z AUTO 07004KT 10SM FEW055 SCT070 OVC085 M02/M03 A2993 RMK AO2 SLP141 T10221028 11006 21033 53004 FZRANO", "PAHN 291154Z AUTO 25003KT OVC004 06/04 A3001 RMK AO2 SLP163 60001 70002 T00560044 10061 20056 58010 TSNO $", "PAHO 291153Z AUTO 00000KT 10SM CLR M01/M04 A2993 RMK AO2 SLP137 T10111039 10050 21011 58005 TSNO", "PAHX 291102Z AUTO 12005KT 10SM FEW050 01/M02 A2985 RMK AO2 SLP108 T00111022 FZRANO", "PAHY 291156Z AUTO 00000KT 1/4SM FG OVC001 04/04 A2984 RMK AO2 SLP103 70001 T00440044 10061 20044 56026 $", "PAIG 291156Z AUTO 03005KT 10SM BKN100 M01/M02 A2987 RMK AO2 SLP124 T10111022 10033 21022 58001 FZRANO $", "PAIK 291156Z AUTO 29003KT 10SM BKN065 OVC075 M01/M03 A2996 RMK AO2 SLP146 T10111028 10039 21017 51010 FZRANO", "PAIL 291153Z AUTO 08009KT 10SM OVC027 02/M01 A2991 RMK AO2 SLP130 60000 T00171006 10022 20017 58004 TSNO", "PAIM 291155Z AUTO 00000KT 10SM FEW150 M02/M05 A2992 RMK AO2 SLP146 T10231054 10050 21018 52008", "PAIN 291156Z AUTO 21003KT 10SM CLR M06/M09 A2995 RMK AO2 SLP169 T10561089 10017 21056 53003 FZRANO", "PAIW 291156Z AUTO 03015KT 3SM UP BR OVC006 M08/M09 A2992 RMK AO2 UPB52SNB39E52 SLP134 P0000 60000 T10831089 11072 21083 51006 FZRANO", "PAJC 291157Z AUTO 11009KT 10SM -RA FEW025 BKN034 OVC041 03/00 A2978 RMK AO2 SLP084 6//// 7//// T00330000 10039 20017 58005 PNO $", "PAJN 291155Z 23005KT 3SM BR BCFG OVC004 06/05 A2998 RMK AO2 T00560050 $", "PAJZ 291156Z AUTO 10008KT 9SM FEW039 OVC065 01/M01 A2991 RMK AO2 SLP135 T00061011 10028 20000 50000 FZRANO $", "PAKH 291156Z AUTO 10SM OVC032 03/M01 A2990 RMK AO2 SLP126 T00281011 10033 20022 58006 TSNO $", "PAKI 291156Z AUTO 10SM UP OVC006 00/00 A2967 RMK AO2 UPE13B55RAB42E55 CIG 004V009 SLP049 P0000 60000 T00000000 10006 21011 56004 FZRANO $", "PAKN 291154Z 13007KT 10SM FEW100 01/M03 A2982 RMK AO2 SLP097 T00111033 10044 20006 58003", "PAKP 291156Z AUTO 00000KT 10SM CLR M13/M15 A2992 RMK AO2 SLP186 T11281150 11061 21139 53005 FZRANO", "PAKT 291153Z AUTO 33009KT 10SM CLR 08/06 A2984 RMK AO2 SLP106 70002 T00780056 10094 20078 56027 TSNO", "PAKU 291145Z 07013KT 5SM R06/P6000FT BR BKN004 M18/M22 A3015", "PAKV 291153Z AUTO 00000KT 10SM FEW060 M03/M05 A2993 RMK AO2 SLP138 T10331050 10039 21033 51009 TSNO $", "PAKW 291153Z AUTO 00000KT 10SM CLR 05/04 A2984 RMK AO2 SLP104 T00500039 10089 20044 56028 TSNO", "PAKX 291155Z AUTO 00000KT 10SM BKN050 OVC060 00/00 A2989 RMK AO2", "PALG 291156Z AUTO 09005KT 10SM BKN110 02/M01 A2978 RMK AO2 SLP089 60000 T00171006 10033 20017 50003 FZRANO", "PALH 291153Z AUTO 02003KT 10SM CLR 01/M02 A2995 RMK AO2 SLP142 70004 T00061022 10050 20006 58006 TSNO", "PALP 291145Z 06010KT 7SM FEW010 M16/M19 A3015", "PALU 291155Z AUTO 11006KT 10SM OVC050 M09/M11 A2997 RMK AO2 SLP148 T10871111 11083 21095 54001", "PAMB 291156Z AUTO 13007KT 7SM FEW035 OVC043 01/00 A2981 RMK AO2 SLP098 60000 T00110000 10017 20011 50002 FZRANO $", "PAMD 291051Z AUTO 04010KT 10SM OVC009 03/03 A2990 RMK AO2 RAB21E46 SLP111 T00330033 PNO $", "PAMH 291156Z AUTO 00000KT CLR M03/M04 A2993 RMK AO2 SLP138 T10281044 10039 21039 51007 PWINO FZRANO $", "PAMK 291156Z AUTO 09009KT 10SM BKN060 M01/M02 A2982 RMK AO2 SLP099 T10111022 10011 21022 58000 FZRANO", "PAMM 291156Z AUTO 35014KT 10SM CLR 08/06 A2984 RMK AO2 SLP199 7//// T00780061 10094 20078 56027 $", "PAMO 291156Z AUTO 11009KT 10SM BKN022 OVC080 M01/M01 A2976 RMK AO2 SNE1059 SLP082 P0000 60000 7//// T10061011 10006 21006 50001 FZRANO", "PAMR 291153Z 35003KT 10SM CLR 03/M03 A2994 RMK AO2 SLP140 T00281033 10067 20022 58006", "PAMY 291156Z AUTO 09008KT 1 1/4SM UP BR OVC002 M01/M01 A2937 RMK AO2 UPB32SNB09E32 SLP946 P0000 60000 T10111011 11006 21011 55000 FZRANO", "PANA 291156Z AUTO 08005KT 10SM SCT040 BKN050 OVC060 00/M01 A2975 RMK AO2 SLP072 60003 70013 T00001006 10006 21006 58001 FZRANO TSNO $", "PANC 291153Z 36004KT 10SM CLR 02/M02 A2993 RMK AO2 SLP139 4/001 70005 T00221022 10050 20017 58005", "PANI 291156Z AUTO 13011KT 10SM OVC095 03/M02 A2986 RMK AO2 SLP105 T00281022 10033 20022 51005 $", "PANV 291156Z AUTO 07005KT 10SM OVC037 01/M03 A2980 RMK AO2 SLP178 T00061028 10033 20006 50001 FZRANO TSNO", "PANW 291156Z AUTO 10006KT 10SM BKN060 OVC100 00/M02 A2986 RMK AO2 SLP120 60000 70005 T00001017 10028 20000 50000 FZRANO", "PAOH 291156Z AUTO 00000KT 6SM -RA BR 06/05 A2998 RMK AO2 RAB18 SLP153 P0001 60001 70004 T00560050 10067 20056 56014 $", "PAOM 291153Z AUTO 08007KT 10SM OVC009 M01/M01 A2982 RMK AO2 SLP098 60001 70007 T10061011 10000 21022 51005 TSNO", "PAOO 291156Z AUTO OVC005 00/M01 A2969 RMK AO2 SLP059 T00001006 10000 21006 58002 PWINO FZRANO TSNO $", "PAOR 291153Z 00000KT 10SM BKN065 OVC080 01/M03 A2989 RMK AO2 SLP140 4/015 T00111028 10039 20006 56003 PNO", "PAOT 291153Z AUTO 05009KT 10SM OVC070 M03/M04 A2989 RMK AO2 SLP123 70004 T10331044 11022 21067 50004 TSNO", "PAOU 291156Z AUTO 14016KT 10SM FEW031 02/00 A2967 RMK AO2 SLP046 6//// 7//// T00220000 10028 20017 58007 FZRANO PNO $", "PAPB 291053Z AUTO 06004KT 10SM OVC085 M02/M05 A2948 RMK AO2 SLP970 T10221050 TSNO $", "PAPG 291156Z AUTO 13003KT 1/2SM FG OVC002 04/04 A2993 RMK AO2 SLP139 7//// T00440044 10067 20039 58020", "PAPH 291156Z AUTO 11009KT 10SM CLR 02/M01 A2976 RMK AO2 SLP078 70001 T00221011 10028 20017 53000 FZRANO", "PAPM 291156Z AUTO 14009KT 10SM BKN034 OVC110 01/M01 A2972 RMK AO2 RAE06 SLP065 P0000 60001 70002 T00111006 10017 20006 53003 FZRANO", "PAPN 291156Z AUTO 11008KT 8SM CLR 01/M01 A2979 RMK AO2 SLP089 T00061006 10022 20006 58004 FZRANO", "PAPO 291156Z AUTO 07005KT 10SM OVC012 M07/M08 A2995 RMK AO2 SLP140 60000 T10671083 11050 21067 53004 FZRANO", "PAQT 291153Z AUTO 05009KT 10SM CLR M18/M21 A3015 RMK AO2 UPB23E28 SLP212 I6000 T11831206 11156 21183 51002 TSNO PNO $", "PARC 291156Z AUTO 35005KT 10SM CLR M12/M14 A2996 RMK AO2 SLP204 T11221144 11050 21122 51004 FZRANO", "PARY 291156Z AUTO 00000KT 10SM OVC055 02/M03 A2990 RMK AO2 SLP136 60000 70001 T00171033 10039 20011 50000 FZRANO", "PASC 291153Z 06013KT 3SM R06/3500V4000FT BR SCT003 M18/M20 A3013 RMK AO2 SLP206 I6000 T11781200 11150 21178 53002", "PASD 291156Z AUTO 15008KT 10SM -RA SCT018 BKN023 OVC034 04/00 A2969 RMK AO2 RAB52 SLP055 6//// 7//// T00390000 10039 20028 58008 PNO $", "PASI 291153Z 00000KT 7SM SCT002 OVC050 08/06 A2989 RMK AO2 SLP122 60001 70002 T00780061 10083 20078 56020", "PASK 291156Z AUTO 06010KT 10SM FEW080 M04/M05 A2994 RMK AO2 SLP135 T10391050 11006 21044 51006 FZRANO", "PASL 291156Z AUTO 00000KT 10SM OVC070 01/M01 A2993 RMK AO2 RAB04E35 SLP128 P0000 60000 T00061011 10044 20006 51006 FZRANO", "PASM 291156Z AUTO 12009KT 10SM FEW022 BKN075 OVC090 M01/M01 A2977 RMK AO2 SNE06 SLP089 P0000 60000 70001 T10061011 10006 21006 50003 FZRANO", "PASN 291153Z AUTO 21009KT 10SM OVC080 00/M03 A2947 RMK AO2 SLP981 60000 T00001033 10017 21011 53004 TSNO", "PASO 291153Z AUTO 00000KT 10SM CLR M01/M02 A2993 RMK AO2 SLP136 70003 T10061017 10044 21006 58005 TSNO", "PASV 291155Z AUTO 18001KT 10SM FEW039 OVC055 01/M05 A2985 RMK AO2 SLP127 T00091051 10008 21006 54000", "PASX 291156Z AUTO 00000KT 10SM OVC065 M01/M03 A2996 RMK AO2 SLP150 T10061028 10056 21011 58005 FZRANO", "PASY 291056Z 36016G23KT 7SM BKN020 M01/M04 A2975 RMK AO2A PK WND 36029/00 SLP078 T10111036 PNO FZRANO $", "PATA 291152Z AUTO 00000KT 10SM CLR M05/M07 A2995 RMK AO2 SLP145 T10501072 10056 21050 51008 TSNO", "PATC 291155Z AUTO 02024KT 3/4SM -SN BR BKN003 M09/M10 A2985 RMK AO2 PK WND 02026/1128 SNB1055 SLP116 P0000 60000 T10901097 11080 21089 54001", "PATE 291156Z AUTO 07006KT 9SM -SN FEW013 BKN020 OVC027 M03/M04 A2983 RMK AO2 SLP108 P0000 60000 T10331044 11017 21044 50002 FZRANO", "PATG 291156Z AUTO 11015KT 10SM OVC041 02/01 A2977 RMK AO2 SLP082 T00170006 10017 20011 50004 FZRANO", "PATK 291153Z AUTO 00000KT 10SM CLR M03/M05 A2996 RMK AO2 SLP150 70021 T10281050 10056 21028 58003 TSNO", "PATL 291155Z AUTO 00000KT 10SM FEW002 M01/M01 A2994 RMK AO2 SLP151 70004 T10121014 10013 21005 52005 TSNO $", "PATO 291153Z AUTO 00000KT 10SM CLR M02/M02 A2995 RMK AO2 SLP143 I1000 I6000 T10171022 10022 21017 58010 TSNO", "PATQ 291156Z AUTO 08018KT 3SM -SN BR BKN039 OVC047 M15/M17 A3011 RMK AO2 SLP200 P0000 60000 T11501172 11139 21156 58001 FZRANO TSNO", "PAUN 291156Z AUTO 08014KT 10SM BKN100 01/M02 A2986 RMK AO2 SLP116 T00061017 10028 20006 50002 FZRANO", "PAVC 291156Z AUTO 14014KT 10SM UP OVC012 03/02 A2963 RMK AO2 RAE30UPB12 SLP034 P0000 60000 T00280022 10033 20022 58010", "PAVD 291156Z AUTO 00000KT OVC001 00/M01 A3001 RMK AO2 SLP158 7//// T00001006 10017 21011 58018 FZRANO TSNO $", "PAVL 291153Z AUTO 06004KT 10SM M05/M07 A2991 RMK AO2 SLP130 T10501067 11028 21050 TSNO $", "PAWD 291153Z AUTO 00000KT 10SM SCT060 01/M01 A2992 RMK AO2 SLP133 70004 T00111011 10033 20011 58014 TSNO", "PAWI 291153Z AUTO 07019KT 3SM BLSN OVC026 M13/M16 A3006 RMK AO2 UPB1055E1056SNE1055 SLP182 T11281156 11128 21133 57000 TSNO $", "PAWM 291156Z AUTO 10007KT 9SM FEW048 M02/M02 A2985 RMK AO2 SLP112 60000 70001 T10171022 10006 21017 51006 FZRANO", "PAWN 291156Z AUTO 01004KT 10SM OVC070 M04/M05 RMK AO2 SLPNO T10391050 10006 21072 FZRANO $", "PAWS 291156Z AUTO 00000KT 10SM CLR M02/M04 A2995 RMK AO2 SLP149 70002 T10221044 10067 21022 56005 FZRANO", "PAYA 291153Z AUTO 08007KT 1 3/4SM BR OVC012 06/04 A2993 RMK AO2 RAE09 SLP134 P0002 60024 70040 T00560044 10056 20044 56006 TSNO", "PAZK 291156Z AUTO 00000KT 10SM OVC046 M04/M08 A2984 RMK AO2 SLP157 T10441078 11022 21061 50000 FZRANO", "PFCL 291156Z AUTO 14015KT 10SM BKN090 01/00 A2981 RMK AO2 SLP087 T00060000 10022 20006 50000 FZRANO TSNO", "PFEL 291156Z AUTO 34005KT 10SM SCT040 OVC050 01/M01 A2986 RMK AO2 SLP115 60001 70004 T00061011 10006 21006 51005 FZRANO", "PFKT 291156Z AUTO 02020KT 8SM -SN FEW023 BKN030 OVC038 A2984 RMK AO2 SLPNO P0000 60000 50000 FZRANO $", "PFKW 291156Z AUTO 08007KT 10SM BKN036 BKN045 OVC070 00/M01 A2976 RMK AO2 SLP076 60001 70002 T00001006 10028 20000 50002 FZRANO", "PFNO 291156Z AUTO 06010KT 10SM CLR M01/M03 A2993 RMK AO2 SLP217 T10111028 10017 21022 51006 FZRANO $", "PFSH 291156Z AUTO 11009KT 10SM OVC055 M01/M02 A2987 RMK AO2 SLP113 60000 T10061022 10028 21006 51001 FZRANO", "PFWS 291156Z AUTO 14013KT 10SM BKN100 01/M02 A2985 RMK AO2 SLP151 T00061022 10028 21006 58003 FZRANO", "PFYU 291156Z AUTO 04007KT 10SM BKN060 BKN075 M01/M05 A2997 RMK AO2 RAE12 SLP159 P0000 60000 T10061050 10056 21006 53008 FZRANO", "PGSN 291154Z 08017KT 10SM FEW021 BKN030 BKN048 27/23 A2988 RMK AO2 SLP139 T02720233 10294 20267 52015 $", "PGUA 291155Z AUTO 07014KT 10SM FEW016 SCT023 26/22 A2988 RMK AO2 SLP109 60000 70023 T02560221 10280 20254 52019 $", "PGUM 291154Z 07012KT 10SM FEW048 28/22 A2988 RMK AO2 SLP108 70016 T02780222 10306 20278 51019 ", "PGWT 291050Z 08014KT 7SM SCT022 27/22 RMK LAST", "PHBK 291151Z AUTO 11005KT 10SM FEW018 FEW024 OVC041 22/21 A3000 RMK AO2 RAB17E45 SLP161 P0001 60001 70001 T02220206 10233 20206 58006 ", "PHHI 291155Z AUTO 00000KT 10SM CLR 18/17 A3004 RMK AO2 SLP164 T01820170 10222 20179 58008 $", "PHJR 291153Z AUTO 03003KT 10SM CLR 21/18 A3003 RMK AO2 SLP174 6//// 7//// T02110183 10239 20211 58006 TSNO PNO", "PHKO 291153Z AUTO 11004KT 10SM FEW030 OVC039 24/21 A3001 RMK AO2 SLP160 T02390206 10256 20233 58011 TSNO", "PHLI 291153Z AUTO 09009KT 10SM FEW014 SCT023 BKN042 24/22 A3002 RMK AO2 SLP162 60014 70021 T02390222 10239 20222 58012 TSNO $", "PHMK 291154Z AUTO 00000KT 10SM OVC055 21/20 A3003 RMK AO2 SLP171 T02110200 10233 20200 58007 TSNO", "PHNG 291157Z 12008KT 080V150 BKN015 BKN020 OVC028 26/22 A2999 RMK AO2 SLP150 70027 T02560217 10267 20239 58009 $ ", "PHNL 291153Z 02004KT 10SM FEW025 SCT075 23/20 A3002 RMK AO2 SLP163 T02330200 58006", "PHNY 291156Z AUTO 36006KT 10SM SCT034 20/18 A3007 RMK AO2 SLP160 70053 T02000183 10211 20183 58012", "PHOG 291154Z AUTO 13003KT 10SM CLR 20/18 A3001 RMK AO2 SLP167 T02000183 10244 20200 58011 TSNO", "PHSF 291155Z AUTO 06007KT 10SM SCT150 11/08 A3032 RMK AO2 SLP158 70008 T01060084 10129 20095 57010 $", "PHTO 291153Z AUTO 24004KT 10SM FEW025 SCT039 OVC046 21/20 A3002 RMK AO2 RAB39E52 SLP165 P0000 60025 70025 T02110200 10239 20206 58014 TSNO", "PKMR 291056Z 06007KT 6SM -SHRA SCT014TCU BKN045 OVC110 26/24 A2982 RMK SHRAB09 TCU ALQDS SLP098 T02630244", "PKWA 291200Z AUTO 07020KT 10SM SCT013 BKN100 26/24 A2981 RMK AO2 T02550237 TSNO", "PLCH 291200Z 10007KT 9999 -SHRA FEW018TCU SCT019 BKN040 26/25 Q 1007 RMK RR 7.0MM", "PMDY 291156Z AUTO 10SM CLR 21/15 A3012 RMK AO2 SLP200 T02060150 10206 20200 58009 TSNO $", "PPIZ 291156Z AUTO 05017KT 10SM -SN OVC055 M14/M17 A3000 RMK AO2 SNE09B56 SLP162 P0000 60000 T11441167 11133 21150 58000 FZRANO", "PTKK 291051Z VRB04KT 15SM SCT012 BKN120 OVC280 27/26 A2978 RMK SLP086 T02710260", "PTPN 291155Z 15004KT 15SM SCT018 BKN300 26/24 A2977 ", "PTRO 291050Z 00000KT 13SM SCT015 BKN110 BKN290 26/25 A2974 ", "PTTP 291054Z 00000KT 15SM FEW018 BKN300 26/24 A2981 RMK SLP093 T02550239", "PTYA 291153Z 09009KT 12SM FEW016TCU BKN300 28/26 A2977 RMK TCU W SLP081 60011 70034 8/202 T02820262 10293 20277 52022", "PWAK 291155Z AUTO 06009KT 6SM HZ CLR 25/21 A2996 RMK AO2 RAB02E11 SLP151 P0000 60000 T02500211 10271 20249 402940244 50005", "RCFN 291130Z VRB02KT 9999 FEW014 BKN022 BKN035 26/24 Q1011 NOSIG RMK A2987", "RCKH 291130Z 32007KT 9999 FEW016 SCT045 BKN200 28/21 Q1010 NOSIG RMK A2983", "RCMQ 291130Z 35004KT 9999 FEW010 BKN040 BKN080 24/21 Q1012 NOSIG RMK A2989", "RCNN 291130Z 36004KT 9999 FEW012 BKN050 27/19 Q1010 RMK A2985", "RCSS 291130Z 12006KT 090V150 9999 FEW015 BKN050 BKN090 26/22 Q1011 NOSIG RMK A2987", "RCTP 291157Z 02010KT 9999 SCT009 BKN014 BKN035 25/24 Q1012 NOSIG RMK A2990", "RJAA 291130Z 18010KT 150V210 9999 FEW025 BKN120 BKN/// 19/15 Q1011 NOSIG", "RJAH 291100Z 18010KT 9999 FEW030 BKN160 19/14 Q1011", "RJBB 291130Z 14008KT 9999 -SHRA FEW003 SCT015 BKN040 19/18 Q1008 BECMG 18004KT TEMPO 4000 SHRA BR FEW005 BKN012", "RJBE 291100Z 05010KT 9999 -SHRA FEW005 BKN012 BKN020 18/17 Q1008", "RJCB 291100Z 18007KT 140V220 9999 FEW005 SCT011 BKN140 08/07 Q1012", "RJCC 291130Z 17009KT 7000 -SHRA FEW003 BKN005 BKN008 09/08 Q1010", "RJCH 291100Z 15006KT 9999 FEW030 SCT060 BKN120 10/08 Q1008", "RJCK 291100Z 02004KT 5000 BR FEW003 SCT012 BKN020 08/07 Q1013", "RJCM 291100Z 18006KT 9999 FEW050 SCT120 BKN140 11/06 Q1010", "RJCO 291100Z 12010KT 9999 -SHRA FEW030 SCT050 BKN070 14/07 Q1010", "RJDB 291100Z AUTO 25004KT 190V320 9999 FEW006 SCT008 BKN010 16/15 Q1007", "RJDC 291100Z 29010KT 260V320 6000 -SHRA FEW003 SCT006 BKN030 17/16 Q1006", "RJDT 291100Z 27006KT 210V300 9999 -RA FEW010 SCT120 BKN130 15/14 Q1006", "RJEC 291100Z VRB03KT 9999 -SHRA FEW015 SCT030 BKN070 12/10 Q1009", "RJFF 291130Z VRB02KT 6000 -SHRA FEW003 SCT008 BKN010 17/16 Q1007 BECMG 28006KT TEMPO FEW003 SCT005 BKN008", "RJFK 291100Z 20012KT 170V240 2500 SHRA BCFG BR FEW001 BKN003 BKN005 FEW020CB 20/20 Q1008", "RJFM 291100Z VRB02KT 8000 FEW005 SCT020 BKN030 20/19 Q1006", "RJFO 291100Z 15013KT 4000 SHRA BR FEW002 SCT020 BKN040 18/17 Q1005", "RJFR 291100Z 28011KT 8000 SHRA FEW005 BKN012 BKN040 17/16 Q1006", "RJFS 291100Z 29006KT 9999 -SHRA FEW010 SCT025 BKN030 17/16 Q1007", "RJFT 291100Z 23011KT 4000 -RA BR BCFG FEW001 BKN003 BKN012 19/19 Q1007", "RJFU 291100Z 33009KT 8000 -SHRA FEW007 SCT010 BKN020 17/16 Q1008", "RJFY 291136Z 23016G27KT 200V260 4900 +TSRA BR FEW005 BKN015 FEW015CB OVC030 22/21 Q1007 RMK 1ST005 5CU015 2CB015 8CU030 A2975 FBL TS 20KM SW MOV NE", "RJGG 291130Z 12011KT 9999 -SHRA FEW003 BKN005 BKN010 18/17 Q1011 BECMG FEW005 BKN008 TEMPO 4000 SHRA BR", "RJKA 291100Z AUTO 20013KT 9000 FEW005 BKN009 OVC010 24/23 Q1010", "RJKI 291100Z AUTO 19007KT 160V230 9999 SCT005 BKN013 OVC044 24/23 Q1011", "RJNG 291122Z 09005KT 5000 SHRA BR FEW008 SCT015 BKN020 16/16 Q1012 RMK 1ST008 3CU015 6CU020 A2989", "RJNK 291100Z 20014KT 9999 -RA SCT050 BKN070 OVC100 22/13 Q1005", "RJNS 291100Z 27005KT 9999 -SHRA FEW015 BKN030 BKN050 16/15 Q1014", "RJNT 291100Z 18015KT 130V220 9999 VCSH FEW040 SCT060 OVC080 21/11 Q1006", "RJOA 291100Z 11003KT 070V160 2000 R10/0600VP2000D -SHRA BCFG BR FEW000 SCT002 BKN018 15/15 Q1006", "RJOB 291100Z 09004KT 8000 -SHRA BCFG FEW000 SCT008 BKN045 16/16 Q1007", "RJOC 291100Z VRB03KT 9999 -SHRA FEW015 SCT030 BKN050 19/17 Q1003", "RJOF 291122Z 27011KT 6000 SHRA FEW005 BKN025 BKN035 17/16 Q1007 RMK 2ST005 5CU025 7CU035 A2975", "RJOH 291100Z 16008KT 9999 -RA FEW035 BKN060 OVC080 18/17 Q1003", "RJOI 291156Z VRB03KT 3200 -RA BR SCT005 BKN010 OVC025 18/17 A2970 RMK AO2 SLP056 P0019 60115 70163 T01780172 10178 20156 56014", "RJOK 291100Z 12013KT 7000 -SHRA FEW003 BKN008 BKN010 19/18 Q1008", "RJOM 291100Z VRB03KT 9999 -SHRA FEW008 SCT025 BKN050 20/18 Q1005", "RJOO 291100Z VRB04KT 6000 SHRA BR FEW005 SCT025 BKN035 18/17 Q1009", "RJOP 291135Z 16014KT 9999 -SHRA FEW003 BKN006 OVC012 19/18 Q1008 RMK 1ST003 5ST006 8CU012 A2977", "RJOR 291100Z 18015G25KT 9999 -RA FEW020 SCT040 BKN090 20/16 Q1004", "RJOS 291113Z 15016KT 4000 -SHRA BR FEW003 BKN005 OVC012 18/17 Q1008 RMK 2ST003 5ST005 8CU012 A2977", "RJOT 291100Z VRB01KT 5000 BR FEW000 SCT002 BKN006 17/17 Q1006", "RJSA 291100Z 03003KT 9999 -RA FEW050 BKN100 13/08 Q1008", "RJSF 291100Z 18011KT 9999 FEW030 SCT120 BKN150 17/10 Q1010", "RJSH 291051Z VRB02KT 4900 BR FEW005 BKN130 11/09 Q1008 RMK 2ST005 7AC130 A2979", "RJSK 291100Z 10003KT 9999 FEW030 BKN120 BKN/// 16/09 Q1007", "RJSM 291100Z VRB02KT 2000 BR SCT001 BKN003 BKN006 09/08 Q1009", "RJSN 291100Z 10004KT 9999 FEW070 SCT090 BKN150 17/08 Q1006", "RJSS 291100Z 17013KT CAVOK 17/13 Q1008", "RJSY 291100Z 17004KT 9999 -RA FEW050 SCT070 BKN130 16/07 Q1006", "RJTT 291130Z 20023KT 9999 VCSH FEW030 BKN140 BKN/// 20/15 Q1011 NOSIG", "RJTY 291155Z AUTO 17012KT 10SM CLR 18/12 A2984 RMK AO2 SLP106 T01840122 10210 20184 58007", "RKJB 291100Z 32011KT 280V360 9999 BKN018 BKN200 12/09 Q1011 NOSIG", "RKJK 291155Z AUTO 30012KT 8SM OVC022 10/08 A2983 RMK AO2 OVC V BKN CIG 018 RWY18 SLP106 T01010077 10127 20100 52022 $", "RKNW 291145Z 24011KT 9999 -RA BKN025 11/07 A2973 RMK CIG025", "RKNY 291100Z 27014G32KT 220V300 9999 SCT030 14/03 Q1001 WS ALL RWY NOSIG", "RKPC 291100Z 30014KT 270V340 9999 SCT018 BKN190 13/08 Q1012 NOSIG", "RKPK 291100Z 31003KT 9999 FEW020 BKN030 BKN050 BKN200 16/12 Q1006", "RKSG 291155Z 28008G15KT 10SM SCT019 BKN023 OVC029 10/06 A2981 RMK AO2A SLP094 WND DATA ESTMD 60008 70002 T01010059 10171 20124 53020 $", "RKSI 291130Z 28015KT 9999 BKN020 10/07 Q1008 NOSIG", "RKSM 291100Z 25011KT 9999 BKN025 11/07 A2975", "RKSO 291155Z 27008KT 6SM BR BKN018 OVC025 10/09 A2980 RMK AO2A SLP095 T00960094 10131 20096 53021 $", "RKSS 291100Z 26009KT 220V290 9999 BKN017 10/07 Q1008 NOSIG", "RKTN 291100Z 31008KT 9999 SCT050 BKN200 15/10 Q1005", "RKTU 291100Z 27006KT 9999 BKN030 BKN050 12/08 Q1007", "ROAH 291130Z 18010KT 9999 -SHRA FEW007 BKN028 BKN040 25/24 Q1011", "RODE 291059Z AUTO 20009KT 8SM BKN041 BKN065 A2987 RMK AO2 SLPNO $", "RODN 291155Z 19007KT 10SM BKN029 BKN037 25/23 A2985 RMK A02A SLP114 60000 T02530229 10275 20252 52017 $", "ROIG 291100Z VRB02KT 9999 VCSH FEW010 25/24 Q1011", "ROMD 291100Z AUTO 16005KT 120V200 8000 FEW007 24/24 Q1013", "ROMY 291100Z 21008KT 9999 VCSH FEW005 SCT011 BKN090 23/21 Q1011", "RORK 291100Z AUTO 15005KT 9000 FEW007 SCT009 24/23 Q1013", "RORS 291100Z AUTO 18010KT 9999 FEW007 //////TCU 24/21 Q1011", "RORT 291100Z AUTO 12007KT 090V170 9999 FEW006 OVC013 //////TCU 24/22 Q1011", "RORY 291100Z AUTO 18009KT 9999 FEW019 SCT025 OVC034 24/24 Q1011", "ROTM 291156Z 19008KT 9000 -SHRA BKN015 BKN025 26/24 A2989 RMK SHRAB50 SLP107 T02560239 10267 20256 52014", "ROYN 291100Z AUTO 06008KT 9999 FEW006 SCT007 BKN009 25/24 Q1011", "RPLB 291100Z 34009KT 9999 FEW020 30/24 Q1008 NOSIG RMK A2977", "RPLC 291100Z 18006KT 9999 FEW020 SCT300 31/24 Q1009 NOSIG RMK A2980", "RPLI 291100Z 27003KT 220V350 9999 FEW018 30/24 Q1009 NOSIG RMK A2980", "RPLL 291100Z 12008KT 080V150 9999 FEW025 31/25 Q1008 NOSIG RMK A2977", "RPMD 291100Z 36006KT 9999 FEW015CB SCT090 BKN250 27/26 Q1008 RMK A2977 FRQNT LTG S-SW CB S-SW NW", "RPVM 291100Z 09006KT 9000 SCT018CB OVC100 29/25 Q1009 NOSIG RMK A2980 CB E,S-SW,W NW, N W/ OCNL LTG", "RPVP 291100Z 12006KT 9999 TS FEW017CB 31/26 Q1008 RMK A2977 CB NW-N W/ OCNL TS /LTG", "SAAR 291100Z 04009KT CAVOK 18/15 Q1008 RMK PP000", "SABE 291100Z 34012KT 300V360 CAVOK 19/14 Q1011 NOSIG RMK PP000", "SACO 291100Z VRB02KT 9999 FEW040 11/10 Q1005 NOSIG RMK PP000", "SADF 291100Z 02008KT CAVOK 16/14 Q1011 RMK PP000", "SAEZ 291100Z 01011KT CAVOK 19/13 Q1010 NOSIG RMK PP000", "SAME 291100Z 20008KT 170V240 CAVOK 16/11 Q1005", "SANT 291100Z 04004KT 350V070 CAVOK 15/14 Q1006 RMK PP000", "SAOC 291100Z 05004KT 8000 NSC 14/13 Q1003", "SARC 291100Z 07005KT 7000 NSC 16/15 Q1012", "SARE 291100Z 06007KT CAVOK 16/14 Q1012 RMK PP///", "SARF 291100Z 09006KT 9000 NSC 17/16 Q1012", "SARI 291100Z 08005KT 9999 FEW030 SCT045 17/16 Q1017 RMK PP000", "SARL 291100Z 09005KT CAVOK 15/13 Q1013", "SARP 291100Z 07006KT CAVOK 18/17 Q1015", "SASA 291100Z 10003KT 050V150 9999 BKN020 15/14 Q1014 RMK PP000", "SASJ 291100Z 32004KT 9999 FEW030 14/13 Q1012 RMK PP000", "SAVC 291100Z 30021G32KT CAVOK 12/01 Q0988 RMK PP000", "SAWE 291100Z 16016KT 7000 -RA SCT028 04/03 Q0986 RMK PP999", "SAWG 291100Z 16024G34KT 9999 -RA SCT005 BKN009 OVC050 06/05 Q0980", "SAWH 291100Z 21011KT 9999 -RA BKN020 OVC040 03/01 Q0990 RMK PP999", "SAZM 291100Z 36010KT CAVOK 17/15 Q1009 RMK PP///", "SAZN 291100Z 27008G19KT CAVOK 17/06 Q1001", "SAZS 291100Z 32017KT 8000 -RA SCT017 BKN028 OVC034 06/04 Q0999 RMK PP///", "SBAF 291100Z 00000KT 9999 FEW015 BKN050 BKN080 22/22 Q1019", "SBAN 291100Z 13005KT CAVOK 21/19 Q1021", "SBAR 291200Z 07007KT 030V100 9999 VCSH SCT018 FEW020TCU 30/25 Q1016", "SBBE 291200Z 04008KT 9999 SCT014 29/25 Q1014", "SBBG 291200Z AUTO 03013KT CAVOK 19/13 Q1017", "SBBH 291100Z 08004KT 9999 SCT012 BKN015 BKN090 21/18 Q1020", "SBBI 291100Z 15003KT 9999 FEW002 BKN007 14/14 Q1022", "SBBR 291200Z VRB02KT CAVOK 24/18 Q1021", "SBBU 291100Z 17005KT CAVOK 17/15 Q1019", "SBBV 291200Z 09008KT 9999 FEW030 SCT090 27/23 Q1014", "SBCA 291100Z 07012KT CAVOK 17/16 Q1019", "SBCB 291200Z 08004KT 9000 FEW012TCU SCT040 BKN100 24/20 Q1019", "SBCC 291100Z 03002KT CAVOK 24/21 Q1016", "SBCF 291200Z 10007KT 9999 SCT011 BKN100 22/18 Q1021", "SBCG 291200Z 06008KT CAVOK 23/19 Q1017", "SBCH 291100Z 04004KT 9999 FEW020 15/14 Q1019", "SBCJ 291200Z 00000KT 9999 SCT015 BKN100 24/22 Q1019", "SBCO 291100Z 28002KT 5000 BR NSC 14/14 Q1018", "SBCP 291200Z 22006KT 9999 SCT025 BKN090 24/21 Q1019", "SBCR 291200Z 09007KT 050V110 9999 FEW008 26/23 Q1014", "SBCT 291200Z 13005KT 9999 OVC008 15/15 Q1022", "SBCY 291200Z 26005KT CAVOK 28/24 Q1016", "SBDN 291100Z 10010KT CAVOK 18/16 Q1018", "SBEG 291200Z 10005KT 060V130 9999 FEW020 BKN080 28/25 Q1014", "SBES 291100Z 00000KT 9999 VCSH SCT013 FEW020TCU BKN050 BKN100 22/21 Q1019", "SBFI 291200Z 09006KT 9999 FEW035 19/17 Q1018", "SBFL 291200Z 30004KT 270V340 9999 FEW020 21/18 Q1020", "SBFN 291200Z AUTO 16007KT 9999 SCT012 BKN015 BKN018 29/27 Q1016", "SBFS 291100Z 24010KT 9999 SCT020 SCT070 24/22 Q1018", "SBFZ 291200Z 16007KT 9999 SCT020 SCT100 26/24 Q1015", "SBGL 291200Z 01006KT 9999 FEW009 SCT014 BKN080 23/20 Q1019", "SBGO 291200Z 14005KT 100V180 CAVOK 23/20 Q1020", "SBGR 291200Z 07008KT 9999 BKN013 18/16 Q1021", "SBGW 291100Z 04004KT 4000 BR SCT012 BKN025 19/17 Q1021", "SBHT 291100Z 00000KT 9999 FEW012 BKN080 25/25 Q1014", "SBIH 291100Z 00000KT 9999 FEW015 28/24 Q1013", "SBIL 291100Z 28004KT 9999 SCT020 28/27 Q1017", "SBIP 291100Z AUTO 03004KT 9999 -RA FEW005 BKN038 21/19 Q1019", "SBIZ 291100Z 23003KT 9999 SCT017 25/23 Q1014", "SBJP 291200Z 00000KT 9999 BKN017 29/25 Q1016", "SBJR 291100Z 35001KT 8000 SCT020 BKN060 23/23 Q1018", "SBJU 291100Z 00000KT 9999 FEW020 24/22 Q1019", "SBJV 291100Z 34001KT 9999 SCT030 BKN080 18/18 Q1019", "SBKG 291100Z 05001KT 9999 BKN010 23/22 Q1018", "SBKP 291200Z 12010KT 9999 FEW030 19/15 Q1020", "SBLB 291108Z AUTO 13010KT 4900 -RA OVC058 23/21 Q1018 W///S4", "SBLE 291100Z AUTO 07003KT 340V130 9999 FEW017 BKN043 26/21 Q1019", "SBLO 291200Z 14005KT 9999 FEW045 20/17 Q1020", "SBLS 291100Z 14010KT 9999 FEW007 BKN100 20/18 Q1021", "SBMA 291200Z 04008KT 9999 SCT015 BKN020 27/25 Q1015", "SBME 291100Z 26002KT 9999 FEW020 SCT080 24/23 Q1019", "SBMG 291100Z 14004KT 090V190 CAVOK 18/15 Q1018", "SBMK 291100Z VRB02KT CAVOK 26/17 Q1018", "SBMN 291200Z 08002KT 9999 FEW015 SCT100 28/25 Q1014", "SBMO 291200Z 10004KT 9999 BKN017 29/25 Q1016", "SBMQ 291100Z 34002KT 9999 FEW015 27/26 Q1013", "SBMT 291100Z 10006KT 9999 SCT011 BKN015 17/17 Q1021", "SBNF 291200Z 26007KT 9999 SCT030 20/18 Q1019", "SBNT 291100Z VRB02KT 9999 SCT005 SCT050 BKN100 25/24 Q1015", "SBOI 291100Z 00000KT 9999 FEW020 26/24 Q1014", "SBPA 291200Z VRB01KT CAVOK 18/15 Q1019", "SBPB 291200Z 10008KT 9999 FEW016 ///// Q1014", "SBPF 291100Z 06006KT CAVOK 13/12 Q1020", "SBPJ 291200Z VRB04KT 9999 FEW030 28/24 Q1015", "SBPK 291200Z 03006KT CAVOK 18/18 Q1018", "SBPL 291200Z 15008KT 9999 BKN025 29/23 Q1017", "SBPP 291200Z 01010KT CAVOK 20/17 Q1018", "SBPS 291200Z 07007KT 030V100 9999 SCT020 29/24 Q1017", "SBPV 291200Z 00000KT CAVOK 27/25 Q1013", "SBRB 291200Z 23002KT CAVOK 24/24 Q1014", "SBRF 291200Z 18003KT 130V220 9999 SCT023 30/23 Q1015", "SBRJ 291200Z 02006KT 9999 FEW015 BKN035 BKN080 23/21 Q1019", "SBRP 291200Z 13006KT 2000 BR OVC002 17/17 Q1019", "SBSC 291100Z 36003KT 8000 FEW005 SCT015 OVC050 21/21 Q1019", "SBSG 291200Z 24005KT 200V270 9999 SCT004 BKN015 BKN100 26/25 Q1015", "SBSJ 291200Z 06004KT 9999 BKN011 19/17 Q1021", "SBSL 291200Z 10005KT 9999 SCT020 30/25 Q1014", "SBSM 291100Z 10003KT 8000 3000E BCFG FEW003 12/12 Q1017", "SBSN 291200Z 09013KT 9999 BKN013 27/25 Q1014", "SBSP 291200Z 13005KT 9999 OVC013 18/16 Q1022", "SBSR 291100Z 19003KT 6000 NSC 19/16 Q1018", "SBST 291100Z 05002KT 2000 -RA BR SCT020 OVC040 21/19 Q1018", "SBSV 291200Z 10005KT 9999 SCT020 29/24 Q1016", "SBTA 291100Z 15003KT 070V190 5000 BR FEW010 SCT015 OVC020 18/17 Q1020", "SBTE 291200Z 01004KT 320V070 9999 SCT010 BKN015 27/24 Q1015", "SBTF 291200Z 16004KT CAVOK 26/25 Q1013", "SBTT 291200Z 06007KT 1200 BR BKN005 23/22 Q1015", "SBTU 291100Z AUTO 19006KT 170V230 9999 // SCT001/// BKN032/// BKN120/// 25/24 Q1015", "SBUL 291100Z 05005KT CAVOK 22/17 Q1020", "SBUR 291100Z 05006KT CAVOK 21/17 Q1020", "SBUY 291100Z 00000KT 9999 SCT003 BKN070 24/23 Q1012", "SBVH 291100Z 09006KT CAVOK 22/22 Q1016", "SBVT 291200Z 28003KT 9999 FEW040 BKN050 OVC070 24/22 Q1018", "SBYS 291100Z 15003KT 4000 BR OVC007 16/15 Q1019", "SCAP 291200Z AUTO VRB01KT 6000 RA ////// 07/05 Q1000", "SCAR 291200Z 05004KT 9999 BKN025 20/15 Q1015", "SCAT 291200Z AUTO 11005KT 9999 NCD 11/09 Q1017", "SCBA 291200Z 29025KT 9999 FEW040 05/01 Q0988", "SCCF 291100Z 10015KT CAVOK 03/M11 Q1027", "SCCH 291100Z AUTO 36008KT 9999 ///////// 14/14 Q1010 RESHRA", "SCCI 291200Z 20012KT 9999 FEW027 BKN096 BKN110 04/01 Q0987 NOSIG", "SCCY 291200Z VRB05KT 9999 SCT040 07/02 Q0992", "SCDA 291200Z 19004KT CAVOK 18/13 Q1015", "SCEL 291200Z 18002KT 8000 SCT030 BKN060 BKN090 14/12 Q1016 NOSIG", "SCFA 291200Z 05001KT CAVOK 14/12 Q1016 NOSIG", "SCFT 291200Z AUTO 00000KT 9999 -RA SCT011/// BKN017/// OVC038/// 06/06 Q0997", "SCGZ 291200Z 12005KT 080V190 9999 -SHRA FEW015 SCT020 OVC036 03/02 Q0990", "SCHR 291200Z AUTO VRB02KT CAVOK 06/04 Q0984", "SCIC 291200Z AUTO 02010KT //// R/////// // SCT014 15/15 Q1014", "SCIE 291200Z 32014G27KT 290V010 8000 -RA FEW012 BKN020 OVC053 14/13 Q1010 RERA", "SCIP 291200Z 11009KT 9999 FEW030 20/15 Q1025 NOSIG", "SCIR 291200Z 26010KT 9999 SCT033 15/10 Q////", "SCJO 291200Z 31003KT 270V010 9999 BKN035 OVC070 10/08 Q1003", "SCMK 291200Z AUTO 28005KT 190V360 //// // FEW036/// BKN049/// 09/07 Q0997", "SCNT 291200Z 21008KT 9999 -DZ SCT015 BKN040 03/02 Q0989", "SCON 291200Z AUTO 36005KT 9999 SCT030/// OVC180/// 08/08 Q0998", "SCPD 291200Z AUTO 32002KT //// ///////// 13/09 Q1017", "SCPQ 291200Z AUTO VRB02KT 6000 SHRA FEW003 BKN027 08/07 Q0998", "SCQP 291200Z 34005KT 310V020 9999 SCT034 11/09 Q1006", "SCRG 291200Z 04004KT 1600 RA OVC016 13/13 Q1016", "SCRM 291200Z 33018KT 9999 SCT008 BKN025 M02/M03 Q0990 NOSIG", "SCSE 291200Z 13005KT CAVOK 11/09 Q1017", "SCSN 291100Z AUTO 01004KT 330V040 //// R/////// // OVC008 14/14 Q1015", "SCTB 291200Z 07004KT 010V120 8000 -SHRA OVC130 13/11 Q1017", "SCTE 291200Z 36009KT 9999 SCT050 BKN150 09/09 Q1001 NOSIG", "SCTN 291200Z AUTO 34011KT 9999 FEW015 10/10 Q0999", "SCVD 291200Z AUTO 31007KT 9999 R35///// NCD 11/09 Q1004 RERA", "SCVM 291200Z 00000KT 0800 -DZ FG BKN002 OVC012 14/13 Q1017", "SECA 291200Z 05002KT 9999 BKN040 18/18 Q1019 RMK A3010", "SECU 291100Z 07002KT 9999 FEW005 OVC040 13/13 Q1027", "SEGU 291200Z 34003KT 9999 SCT016 SCT090 25/24 Q1010 NOSIG RMK A2984", "SEGZ 291200Z 00000KT 9999 2000N BR OVC023 21/21 Q1019", "SELT 291200Z 36002KT 9999 SCT010 BKN030 09/09 Q1032", "SEMT 291200Z 11003KT 9999 BKN023 25/23 Q1012 RMK A2989", "SEQM 291200Z 07004KT 9999 FEW005 SCT080 BKN300 11/11 Q1028 NOSIG RMK A3037", "SESA 291200Z 09008KT CAVOK 26/24 Q1011 RMK A2986", "SESM 291200Z 00000KT 9999 FEW033 SCT120 19/18 Q1018 RMK A3006", "SFAL 291150Z 04012KT 0200 FG 0VC000 08/06 Q0982", "SGAS 291200Z 05008KT CAVOK 21/18 Q1014", "SGEN 291200Z 07012KT CAVOK 18/16 Q1016", "SGES 291200Z 11004KT 5000 BR NSC 19/18 Q1017", "SKAR 291100Z 00000KT 5000 -DZ BCFG FEW010 BKN020 19/19 Q1017 RMK A3006", "SKBG 291100Z 19007KT 9999 FEW017 BKN270 19/18 Q1015 RMK A3000", "SKBO 291100Z 04003KT 9999 SCT020 12/11 Q1027 NOSIG RMK A3034", "SKBQ 291100Z 04005KT 8000 VCFG FEW008 26/25 Q1011 NOSIG RMK A2985", "SKCC 291100Z VRB02KT 9999 FEW020 23/23 Q1013 RMK A2993", "SKCG 291100Z VRB02KT 9999 FEW012 SCT200 27/25 Q1010 RMK A2984", "SKCL 291100Z VRB02KT 9999 SCT017 SCT070 20/20 Q1017 REDZ NOSIG RMK A3004", "SKEJ 291100Z VRB02KT 9999 SCT020 SCT100 25/25 Q1010 RMK A2983", "SKIB 291100Z 25005KT 9999 DZ BKN030 19/19 Q1018 RERA RMK A3007", "SKIP 291100Z 00000KT 9999 MIFG SCT012 SCT070 09/09 Q1030 RMK A3044", "SKLC 291100Z 18003KT 9999 SCT012TCU BKN090 25/24 Q1010 RMK TCUNE/E A2985", "SKLT 291100Z 00000KT 9999 OVC005 24/24 Q1012 RMK A2990", "SKMD 291100Z 20003KT 9999 FEW030 SCT100 BKN200 17/17 Q1021 RMK A3016", "SKMR 291100Z VRB02KT 9000 BKN016 25/25 Q1010 RMK HZ A2984", "SKMZ 291100Z 13003KT 7000 VCFG BKN025 15/15 Q1027 RMK A3032", "SKNV 291100Z 20003KT 8000 DZ FEW007 SCT020 BKN090 23/22 Q1014 RMK A2995", "SKPC 291100Z 00000KT 9999 SCT017 25/25 Q1012 RMK A2989", "SKPE 291100Z 00000KT 9999 -DZ MIFG SCT020 BKN080 19/19 Q1018 RMK A3008", "SKPS 291100Z 05003KT 9999 -DZ SCT010 OVC070 16/16 Q1022 RMK A3018", "SKPV 291100Z 10004KT 080V140 9999 SCT017 27/22 Q1012 RMK A2990", "SKRG 291100Z 16003KT 3000 BR BKN003 SCT080 14/14 Q1026 BECMG FM1200 5000 BR RMK A3029", "SKRH 291100Z 10005KT 9999 FEW018 27/23 Q1010 RMK A2985", "SKSM 291100Z 15004KT 9999 FEW020 BKN200 27/23 Q1011 RMK A2988", "SKSP 291100Z 12003KT 060V170 9999 FEW016 26/23 Q1012 RMK A2989", "SKUC 291100Z VRB01KT 9999 BKN025 23/23 Q1012 RMK A2991", "SKUI 291100Z 00000KT 4000 -TSRA FEW008CB BKN009 OVC080 24/24 Q1011 RMK CB SW A2988", "SKVP 291100Z 00000KT 9999 FEW015 BKN200 26/24 Q1013 RMK A2992", "SKVV 291100Z 26004KT 9999 BKN020 21/20 Q1014 RMK A2996", "SLAL 291100Z 00000KT 9999 NSC 07/05 Q1030", "SLCA 291100Z 00000KT 9999 BR NSC 18/17 Q1013", "SLCB 291200Z 00000KT 9000 NSC 13/06 Q1027", "SLCP 291100Z 00000KT 0100 FG VV/// 21/21 Q1016", "SLET 291100Z 33013KT 9999 BKN010 24/23 Q1011", "SLJE 291100Z 00000KT 9999 BKN010 23/22 Q1016", "SLLP 291200Z VRB02KT 9999 NSC 08/M02 Q1040", "SLPS 291100Z 00000KT 9999 NSC 22/19 Q1013", "SLRI 291100Z 00000KT 9999 SCT080 BKN200 24/23 Q1013", "SLSA 291100Z 00000KT 9999 FEW020 SCT200 25/25 Q1011", "SLSV 291100Z 00000KT 3000 BR OVC010 21/21 Q1012", "SLTR 291100Z 00000KT 9999 FEW020 SCT200 24/24 Q1012", "SLVM 291100Z 00000KT 5000 VCFG FEW005 SCT023 21/20 Q1008", "SLVR 291200Z 35013KT 9999 SCT008 BKN015 24/23 Q1012", "SMJP 291200Z 08006KT 9999 BKN010 27/24 Q1015 NOSIG", "SMZO 291200Z 12004KT 9999 SCT010 29/24 Q1014 NOSIG", "SOCA 291130Z AUTO 10008KT 060V130 9999 FEW009 BKN019 29/25 Q1014 TEMPO 3000 SHRA SCT010 BKN015TCU", "SPHI 291200Z 19007KT 9999 FEW025 SCT040 24/21 Q1011 RMK BIRD HAZARD RWY 19/01 TN23.8 PP000", "SPHO 291200Z 00000KT 9999 BKN060 13/05 Q1032 RMK TN11.2 PP000", "SPJC 291200Z 15010KT 9999 BKN023 23/19 Q1012 NOSIG RMK TN23.2 PP000", "SPJJ 291200Z 01003KT 9999 FEW030 05/// Q1036 RMK TN//./ PP000", "SPJL 291200Z /////KT CAVOK M03/M07 Q1039 RMK WIND RWY12 28003KT.TN/// PP000", "SPJR 291200Z VRB01KT 9999 FEW070 11/09 Q1029 RMK TN9.6 PP000", "SPQT 291200Z 00000KT 3000 BCFG BKN002 BKN080 24/24 Q1014 BECMG FM1220 8000 NSW RMK TN22.3 PP000", "SPQU 291200Z 04005KT CAVOK 13/04 Q1028 NOSIG RMK TN8.8 PP000", "SPRU 291200Z 12003KT 7000 BCFG NSC 24/21 Q1011 RMK TN22.2 PP000", "SPSO 291200Z 20006KT 8000 NSC 20/19 Q1013 RMK TN20.0 FU BR BIRD HAZARD RWY 22/04 PP000", "SPST 291200Z 00000KT 8000 3500S BCFG SCT005 BKN050 24/24 Q1014 RMK TN22.7 PP000", "SPTN 291200Z 33004KT 9999 OVC030 18/14 Q1016 RMK TN16.9 PP000", "SPTU 291200Z VRB01KT CAVOK 24/23 Q1012 RMK TN21.7 BIRD HAZARD RWY 01/19 PP000", "SPUR 291200Z VRB02KT CAVOK 23/22 Q1011 RMK BIRD HAZARD RWY 19/01 TN.23.0 PP000", "SPYL 291200Z 18002KT CAVOK 25/23 Q1011 RMK TN21.6 BIRD HAZARD RWY 17/35 PP000", "SPZO 291200Z 00000KT 9999 NSC 08/05 Q1035 NOSIG RMK BIRD HAZARD RWY 10/28 TN4.8 PP000", "SUAA 291200Z 01012KT CAVOK 17/13 Q1014", "SUCA 291200Z 02009KT CAVOK 18/13 Q1012", "SULS 291200Z 05005KT 010V080 CAVOK 18/15 Q1014", "SUMU 291100Z 02008KT CAVOK 15/13 Q1013 NOSIG", "SUSO 291200Z 07004KT CAVOK 17/13 Q1013", "SVBC 291103Z AUTO 11001KT NCD 26/25 Q1013", "SVBI 291103Z AUTO /////KT NCD 23/23 Q1016", "SVBM 291103Z AUTO 11009KT NCD 21/20 Q1015", "SVBS 291103Z AUTO 06004KT NCD 24/21 Q1015", "SVCB 291103Z AUTO ///05KT NCD 25/23 Q1012", "SVCS 291103Z AUTO 11002KT NCD 22/20 Q1016", "SVFM 291103Z AUTO NIL", "SVGD 291103Z AUTO 24001KT NCD 23/23 Q1012", "SVGU 291103Z AUTO 06006KT NCD 23/22 Q1014", "SVJM 291103Z AUTO 07001KT NCD 23/23 Q1013", "SVLO 291103Z AUTO NIL", "SVMC 291200Z 00000KT 9999 SCT030 ///// Q1010", "SVMG 291200Z 10015KT 9999 FEW030 ///// Q1014", "SVMI 291103Z AUTO 09006KT NCD 26/22 Q1013", "SVMT 291103Z AUTO 01002KT NCD 24/24 Q1014", "SVPA 291103Z AUTO NIL", "SVPR 291103Z AUTO 14003KT NCD 24/22 Q1015", "SVSA 291103Z AUTO NIL", "SVSR 291103Z AUTO NIL", "SVVA 291200Z /////KT 5000 +RA OVC016 22/21 Q1014", "SVVG 291200Z /////KT 8000 BR SCT130 26/23 Q1012", "SVVL 291103Z AUTO ///01KT NCD ///// Q////", "SYCJ 291200Z 01004KT 9999 FEW016 28/26 Q1015 NOSIG", "SYEC 291100Z 06006KT 030V090 9999 SCT018 28/24 Q1014 NOSIG", "TAPA 291100Z VRB01KT 9999 SCT018 25/24 Q1015 NOSIG", "TBPB 291100Z 11008KT 9999 FEW018 27/24 Q1014 NOSIG", "TDPD 291100Z 27003KT 9999 FEW024 25/25 Q1015", "TFFF 291130Z AUTO 06004KT 020V100 CAVOK 28/24 Q1015 NOSIG", "TFFR 291130Z AUTO VRB03KT 9999 SCT016 BKN021 27/25 Q1015 NOSIG", "TGPY 291100Z 09018KT 9999 SCT017 28/25 Q1014 NOSIG", "TIST 291153Z 09009KT 10SM SCT030 28/23 A2999 RMK AO2 SLP157 70002 T02830233 10283 20250 51019", "TISX 291153Z 09011KT 10SM FEW019 SCT024 28/23 A3000 RMK AO2 SLP157 T02780233 10278 20239 53020", "TJBQ 291150Z 09006KT 10SM CLR 26/22 A3003", "TJIG 291145Z 14005KT 10SM SCT060 26/22 A3001", "TJNR 291153Z AUTO 33005KT 10SM FEW031 SCT043 OVC055 24/23 A3002 RMK AO2 RAE16 SLP167 P0000 60024 70124 T02390228 10244 20228 53018", "TJPS 291155Z AUTO 08003KT 10SM CLR 28/22 A2998 RMK AO2 TSNO", "TJSJ 291156Z 00000KT 10SM FEW024 SCT060 SCT085 25/23 A3002 RMK AO2 SLP163 60000 70077 T02500233 10250 20239 53023", "TKPK 291100Z 00000KT 9999 FEW022 26/24 Q1015", "TKPN 291100Z 12005KT 9999 FEW024 27/26 Q1015", "TLPL 291200Z 10013KT 9999 BKN025 28/23 Q1016 NOSIG", "TNCA 291100Z 10014KT 9999 FEW016 27/24 Q1012 NOSIG", "TNCB 291055Z 09011KT 070V130 9999 FEW010 SCT016 BKN032 27/24 Q1012", "TNCC 291100Z 11007KT 080V140 9999 FEW016 27/25 Q1013 NOSIG", "TNCE 291055Z AUTO 06007KT //// // ///////// 26/23 Q1015 RE//", "TNCM 291100Z 05006KT 9999 FEW016 28/24 Q1016 NOSIG ", "TQPF 291200Z 10010KT 9999 SCT018 27/24 Q1016", "TRPG 291200Z 10008KT 9999 SCT017 27/25 Q1017", "TTCP 291100Z 11009KT 9999 FEW016 27/24 Q1014 NOSIG", "TTPP 291100Z 00000KT 9999 VCSH FEW016 26/24 Q1014 NOSIG", "TUPJ 291200Z 08009KT 10SM SCT019 27/21 A3001 RMK Q1016 VIS16KM", "TVSA 291100Z 08006KT 9999 SCT014 27/25 Q1014 ", "TXKF 291155Z 14015KT 9999 FEW027 BKN063 BKN090 OVC250 19/13 Q1017 ", "UAAA 291130Z 04005MPS 9999 -SHRA BKN050CB OVC100 17/10 Q1014 NOSIG", "UAAH 291130Z 21004MPS 190V250 9000 NSC 27/M04 Q1007 NOSIG RMK QFE718/0958", "UAAT 291130Z 24003MPS 9999 FEW050CB BKN200 27/04 Q1007 NOSIG RMK QFE704/0939", "UACC 291130Z 05011MPS CAVOK 20/05 Q1011 NOSIG RMK QFE727/0969", "UACK 291100Z 05007MPS CAVOK 12/M05 Q1017 NOSIG RMK QFE739/0985", "UACP 291130Z 35006MPS 310V020 CAVOK 13/M10 Q1019 NOSIG RMK QFE752/1002", "UADD 291130Z 31006MPS 280V350 9999 SCT040 BKN200 28/02 Q1010 NOSIG RMK QFE700/0934", "UAII 291130Z VRB01MPS CAVOK 29/02 Q1010 NOSIG RMK QFE722/0963", "UAIT 291130Z 04002MPS 9999 SCT046 31/00 Q1009 NOSIG RMK QFE730/0973", "UAKD 291130Z 36005MPS 330V040 CAVOK 28/M03 Q1008 NOSIG RMK QFE723/0964", "UAKK 291130Z 01003MPS 340V060 CAVOK 26/M03 Q1008 NOSIG RMK QFE710/0946", "UAOO 291130Z 35006MPS CAVOK 32/M06 Q1008 NOSIG RMK QFE744/0993", "UARR 291130Z 10004MPS 040V130 CAVOK 26/04 Q1014 NOSIG RMK QFE757/1010", "UASK 291130Z 28003MPS 250V310 9999 NSC 27/M00 Q1007 NOSIG RMK QFE730/0973", "UASP 291130Z 02007MPS 350V050 9999 SCT053CB 16/M07 Q1012 NOSIG RMK QFE749/0999", "UASS 291130Z 31004MPS 260V340 CAVOK 28/M02 Q1007 NOSIG RMK QFE737/0983", "UATE 291130Z 25004MPS 210V280 CAVOK 27/08 Q1008 NOSIG RMK QFE754/1006", "UATG 291130Z 15003MPS 120V190 CAVOK 31/08 Q1009 NOSIG RMK QFE759/1012", "UATT 291130Z 09003MPS 050V130 CAVOK 26/06 Q1014 NOSIG RMK QFE740/0987", "UAUU 291130Z 05007MPS 9000 NSC 18/M03 Q1018 NOSIG RMK QFE748/0997", "UBBB 291130Z 15010KT CAVOK 28/12 Q1007 NOSIG", "UBBF 291130Z 05008KT 9999 SCT100 25/15 Q1006 NOSIG RMK MT OBSC", "UBBG 291130Z 08012KT 9999 BKN100 21/15 Q1007 NOSIG", "UBBL 291200Z 12010KT 9999 NSC 21/16 Q1006 NOSIG RMK MT OBSC", "UBBN 291200Z 15010KT 9999 SCT046CB OVC100 25/04 Q1006 NOSIG RMK MT OP QFE680", "UBBQ 291200Z 15010KT 9999 NSC 27/12 Q1007 NOSIG RMK MT OP", "UBBY 291200Z 10004KT 9999 BKN100 22/17 Q1009 NOSIG RMK MT OP", "UBBZ 291130Z 04014KT 360V070 9999 FEW050CB BKN100 26/13 Q1007 NOSIG RMK MT OP", "UBEE 291200Z 15005KT 9999 SCT030 BKN083 23/15 Q1006 NOSIG", "UCFL 291100Z 28009MPS 9999 BKN026CB 17/00 Q1015", "UCFM 291130Z 26008MPS 9999 TS BKN066CB 23/06 Q1011 TEMPO VRB09G14MPS TSRA BKN020CB", "UCFO 291130Z 31002MPS 240V050 9999 FEW050CB 27/02 Q1012 NOSIG", "UDSG 291130Z 10005KT 050V130 9999 BKN046CB 17/05 Q1010 NOSIG", "UDYZ 291130Z 11008KT 9999 VCTS SCT036CB 19/07 Q1007 NOSIG", "UEEE 291130Z 11001MPS CAVOK 04/M05 Q1012 R05/09//60 NOSIG RMK QFE750", "UERP 291100Z 12003MPS 9999 BKN030CB BKN100 01/M01 Q1003 NOSIG RMK QFE708", "UERR 291100Z 13004MPS 9999 FEW033 07/M05 Q1003 R25/CLRD60 NOSIG RMK QFE721/0962", "UGAM 291130Z AUTO 27010KT //// ////// 11/09 Q1013", "UGKO 291130Z 06005KT 9000 -RA SCT024 OVC050 12/11 Q1012 NOSIG", "UGMS 291130Z AUTO 24003KT 160V320 //// ////// 10/10 Q1012", "UGSB 291130Z 28010KT 9999 SCT012 BKN028 12/11 Q1013 NOSIG", "UGTB 291130Z 22005KT 180V240 9999 FEW043 22/14 Q1007 NOSIG", "UHBB 291100Z 34003MPS 9999 BKN033CB 06/04 Q1007 R36/090060 NOSIG RMK QFE738/0984", "UHHH 291130Z 02008MPS CAVOK 07/M02 Q1007 R88/090060 NOSIG RMK QFE749/0999", "UHMA 291130Z 35003MPS CAVOK M16/M19 Q1017 R01/////// NOSIG RMK MID 02002MPS END R01/04003MPS QFE759/1012", "UHMM 291100Z 27002MPS 230V310 9999 NSC M01/M05 Q1017 RMK QFE748 R28/31003MPS", "UHPP 291100Z 08002MPS CAVOK M01/M04 Q1018 R16R/CLRD65 NOSIG RMK QFE761/1014", "UHSS 291100Z 19001MPS 9999 BKN032CB 05/03 Q1013 R19/70D NOSIG RMK MT OBSC QFE758/1011", "UHWW 291130Z 24004MPS 2300 -SHRA BR SCT005 BKN025CB 07/07 Q0998 R25L/290160 NOSIG RMK QFE747", "UIAA 291130Z 19001MPS 9999 NSC 09/M07 Q1009 R29/CLRD70 NOSIG RMK QFE699/0932", "UIBB 291130Z 21003MPS 180V240 9999 SCT050CB 09/08 Q1000 R30/290150 NOSIG RMK QFE708/0944", "UIII 291130Z 17004MPS CAVOK 09/02 Q1005 R12/60D NOSIG RMK QFE712/0949", "UIUU 291130Z 20003MPS 9999 FEW046 11/02 Q1009 R26/CLRD60 NOSIG RMK QFE712/0950", "ULAA 291130Z 13006MPS 090V160 9999 -SHRA OVC015CB 04/01 Q1013 R08/290060 NOSIG RMK QFE759/1012", "ULLI 291130Z 27006MPS 240V300 9999 FEW020CB BKN043 08/01 Q1015 R88/190055 NOSIG", "ULMM 291130Z 11009G14MPS 9999 SCT026 02/M05 Q1015 R13/090070 NOSIG RMK QFE755", "ULOO 291130Z 30004MPS 230V350 CAVOK 11/M03 Q1017 R19/090060 NOSIG RMK QFE758", "ULPB 291130Z 25004MPS 210V280 9999 SCT032CB 08/03 Q1011 R19/190050 NOSIG RMK QFE755/1006", "ULWC 291130Z 24004MPS 9999 SCT020 09/M01 Q1015 R21/290160 NOSIG RMK QFE751/1001", "UMBB 291100Z 13005G08MPS CAVOK 15/M02 Q1017 NOSIG", "UMGG 291130Z 33005MPS CAVOK 12/00 Q1020 NOSIG", "UMII 291100Z 25004G07MPS CAVOK 11/M04 Q1018 NOSIG", "UMIO 291130Z 26003MPS 190V340 CAVOK 12/M03 Q1019 NOSIG RMK QFE747/0996", "UMKK 291130Z 18006MPS 140V220 CAVOK 18/04 Q1013 R24/CLRD95 NOSIG RMK QFE758/1011", "UMMG 291100Z 16005G08MPS CAVOK 14/M01 Q1018 NOSIG", "UMMS 291130Z 22003G06MPS 160V260 CAVOK 13/M04 Q1019 NOSIG", "UMOO 291100Z 26004MPS 9999 SCT040 12/M04 Q1021 NOSIG", "UNAA 291130Z 25009MPS CAVOK 20/04 Q1005 R20/CLRD64 NOSIG RMK QFE731", "UNBB 291130Z 01004MPS CAVOK 15/M12 Q1010 R06/CLRD66 NOSIG RMK QFE735", "UNEE 291130Z 28008MPS CAVOK 10/M12 Q1009 R23/CLRD60 NOSIG RMK QFE734", "UNKL 291130Z 28009MPS CAVOK 10/M09 Q1004 WS R29 R29/CLRD65 NOSIG RMK QFE728", "UNNT 291130Z 31006MPS CAVOK 11/M10 Q1012 R25/090070 R16/090070 NOSIG RMK QFE749/0999", "UNOO 291130Z 34005MPS 8000 NSC 11/M12 Q1017 R25/CLRD60 NOSIG RMK QFE755", "UNTT 291130Z 29006MPS CAVOK 08/M10 Q1009 R21/////// NOSIG RMK QFE742", "UNWW 291130Z 36005MPS CAVOK 14/M04 Q1009 R01/09//55 NOSIG RMK QFE729", "UOOO 291130Z 02016MPS 7000 BLSN NSC M04/M05 Q1006 R01/620546 NOSIG RMK QFE740/0987", "URKA 291130Z 20004MPS 9999 BKN023 12/09 Q1010 R22/010070 TEMPO 1000 SHRA BKN007 BKN020CB RMK QFE753/1004", "URKK 291130Z 23003MPS 6000 -SHRA SCT005 BKN030CB 12/12 Q1010 R23L/290060 TEMPO VRB09G14MPS 1000 TSRA SCT003 BKN020CB RMK QBB150 QFE754", "URMG 291130Z 30004MPS 9999 SCT/// 21/15 Q1005 R26/090070 NOSIG RMK QFE739/0986", "URML 291130Z 14004MPS 100V170 9000 SCT003 14/12 Q1006 R14/01//70 NOSIG RMK QBB110 MT OBSC QFE754/1006", "URMM 291130Z 29004MPS 9999 BKN039 17/14 Q1007 R30/090070 NOSIG RMK QFE727/0970", "URMN 291130Z 03002MPS 9999 OVC023CB 17/13 Q1006 R24/010070 TEMPO -TSRA BKN016CB RMK QFE718", "URMO 291130Z 32002MPS 9999 BKN034 20/11 Q1006 R27/010070 NOSIG RMK QFE710/0947", "URMT 291130Z 31003MPS 9999 BKN025 15/12 Q1008 R07/010070 NOSIG RMK QFE716", "URRP 291130Z 05007MPS 9999 FEW/// SCT037CB 22/14 Q1008 R05/CLRD70 TEMPO 4000 -TSRA SCT010 BKN020CB RMK QFE751/1001", "URSS 291130Z 28004MPS 9999 SCT008 BKN044CB OVC080 11/10 Q1011 R02/290060 R06/290060 NOSIG RMK R06/30004MPS MT OBSC QFE757", "URWA 291130Z 15010MPS CAVOK 24/14 Q1006 R09/010070 TEMPO 13009G17MPS RMK QFE756/1009", "URWI 291130Z 07004MPS CAVOK 22/13 Q1006 R09/010065 NOSIG", "URWW 291130Z 13005MPS 090V160 CAVOK 25/12 Q1008 R05/010070 NOSIG", "USCC 291130Z 16001MPS CAVOK 16/M02 Q1020 R27/000060 NOSIG RMK QFE745", "USCM 291130Z 10003MPS 7000 BKN040 19/04 Q1018 R36/090060 NOSIG RMK QFE725", "USDA 291130Z 35010MPS 9999 SCT006 M06/M07 Q1028 R04/520156 NOSIG RMK QBB190 QFE770/1026", "USHH 291130Z 32003MPS 230V030 9999 -SHSN SCT040CB 01/M06 Q1022 R06/010060 NOSIG", "USNN 291130Z 30006G11MPS 9999 -SHSN BKN022CB M03/M08 Q1014 R21/0///65 NOSIG RMK QFE756", "USPP 291130Z 06002MPS 350V160 CAVOK 17/M04 Q1019 R03/090060 TEMPO 11003G12MPS RMK QFE754", "USRR 291130Z 30008MPS 9999 -SHSN SCT022CB BKN038 M02/M06 Q1018 R25/CLRD60 NOSIG RMK QFE758", "USSS 291130Z 32003MPS 280V360 CAVOK 16/M06 Q1020 R08L/010060 NOSIG RMK QFE745/0993", "USTR 291130Z 33004MPS 290V020 CAVOK 12/M09 Q1021 R03/090065 R30/////99 NOSIG", "UTAA 291100Z 30004KT 250V340 9999 FEW050 BKN100 34/M05 Q1007 R88/70D NOSIG", "UTAK 291200Z 23012KT CAVOK 32/08 Q1006 R16R/CLRD70 NOSIG", "UTAM 291200Z 03008KT CAVOK 35/01 Q1006 R88/CLRD70 NOSIG", "UTAT 291100Z 01010KT 340V060 CAVOK 33/M01 Q1009 R08/CLRD70 NOSIG", "UTAV 291100Z 32004KT 260V050 CAVOK 33/M07 Q1008 R31/CLRD70 NOSIG", "UTDD 291130Z VRB02MPS 9999 NSC 28/01 Q1011 R09/D NOSIG RMK QFE690/0921", "UTDK 291130Z VRB02MPS 9999 NSC 29/02 Q1011 R01/09//70 RMK QFE701/0935", "UTDL 291130Z 24002MPS 190V260 9999 FEW086 31/M02 Q1009 R26/CLRD70 NOSIG RMK QFE719/0959", "UTDT 291130Z 01003MPS 310V060 9999 SCT130 32/M04 Q1008 R35/CLRD70 RMK QFE717/0956", "UTFF 291130Z 35006KT 9999 NSC 29/M01 Q1010 R18/CLRD70", "UTFN 291130Z VRB02KT 9999 NSC 30/M04 Q1009 R28/CLRD70 NOSIG", "UTNN 291130Z 36006KT CAVOK 33/M04 Q1009 R33/CLRD60 NOSIG", "UTNU 291130Z 34008KT CAVOK 33/M01 Q1009 R31/CLRD70 NOSIG", "UTO8 M M M 204/-11/-12/1305/M/ SOG 04 2007 72MM", "UTSA 291130Z 24004KT 9999 NSC 31/M03 Q1009 R07/CLRD70 NOSIG", "UTSB 291130Z 04004KT 340V080 CAVOK 32/M04 Q1008 R01/CLRD70 NOSIG", "UTSK 291130Z 33006KT 300V360 CAVOK 32/M08 Q1009 R16/CLRD70", "UTSS 291130Z 31006KT 9999 NSC 29/M03 Q1010 R27/70D NOSIG", "UTST 291130Z 16004KT 100V200 CAVOK 33/M01 Q1008 R25/CLRD70 NOSIG", "UTTT 291130Z 22004KT 150V270 CAVOK 30/01 Q1010 R26L/CLRD70 NOSIG", "UUBC 291130Z 34004G11MPS 300V100 CAVOK 12/M01 Q1018 R31/CLRD60 NOSIG RMK QFE746/0995", "UUBP 291130Z 03003MPS 320V090 CAVOK 14/M04 Q1018 R34/////// NOSIG RMK QFE746/0995", "UUBW 291130Z 32005MPS 9999 BKN033 12/03 Q1018 R30/010060 NOSIG", "UUDD 291130Z 32004MPS 300V360 9999 SCT040 11/00 Q1018 R32L/CLRD60 R32C/190050 NOSIG", "UUDL 291130Z 32004MPS 9999 SCT009 OVC021 05/05 Q1017 R23/290355 NOSIG RMK QFE754", "UUEE 291130Z 33004MPS 250V010 CAVOK 10/M01 Q1017 R06R/CLRD62 R06C/CLRD62 NOSIG", "UUMO 291130Z 33003MPS 250V020 CAVOK 10/M01 Q1018 R25/CLRD60 NOSIG RMK QFE748/0997", "UUOB 291130Z 02006MPS 9999 BKN015 08/06 Q1015 R29/290060 NOSIG", "UUOK 291130Z 03006MPS 330V060 9999 BKN028 10/03 Q1017 R30/190055 NOSIG RMK QFE744/0992", "UUOL 291130Z 35007MPS 9999 OVC011 07/06 Q1015 R15/////// NOSIG", "UUOO 291130Z 34005MPS 9999 -RA OVC011 09/08 Q1015 R30/290150 NOSIG RMK QFE747", "UUWW 291130Z 35003MPS 310V020 9999 BKN046 11/M01 Q1018 R01/110060 NOSIG", "UUYY 291130Z 09007MPS CAVOK 09/M06 Q1021 R36/61D NOSIG RMK QFE757/1009", "UWGG 291130Z 27004MPS CAVOK 15/14 Q1012", "UWKD 291130Z 14006MPS CAVOK 25/02 Q1016 R11/70D NOSIG RMK QFE751/1002", "UWKE 291130Z VRB02MPS CAVOK 23/06 Q1018 R03/090070 NOSIG RMK QFE746/0995", "UWKS 291130Z 20007MPS 9999 BKN040CB 23/06 Q1013 R24/010060 NOSIG RMK QFE746", "UWLL 291130Z 12006MPS CAVOK 23/04 Q1015 R20/090065 NOSIG RMK QFE751/1001", "UWLW 291100Z 17006MPS 140V200 CAVOK 26/04 Q1015 R20/CLRD60 NOSIG RMK QFE756/1008", "UWOO 291130Z 05005MPS 010V090 CAVOK 26/M01 Q1015 R08/CLRD60 NOSIG RMK QFE751/1001", "UWOR 291100Z 05005G10MPS 360V090 CAVOK 24/06 Q1015 R07/CLRD65 NOSIG RMK QFE737/0982", "UWPS 291130Z 19008G13MPS 9999 BKN033 26/05 Q1012 R20/CLRD60 TEMPO 18012G17MPS RMK QFE741", "UWSG 291130Z 11006MPS CAVOK 26/06 Q1012 R08/CLRD70 NOSIG RMK QFE756/1008", "UWUU 291130Z 03004MPS 320V080 9999 SCT040 21/05 Q1017 WS R32L R32L/0///60 NOSIG", "UWWW 291130Z 17005MPS 9999 SCT033 24/02 Q1016 R15/CLRD60 NOSIG RMK QFE750/1001", "VAAH 291200Z 19007KT 5000 FU FEW020 SCT080 30/16 Q1005 NOSIG", "VABB 291130Z 26014KT 5000 FU FEW020 SCT100 32/20 Q1006 NOSIG", "VABO 291130Z 35006KT 6000 FEW080 33/20 Q1006 NOSIG", "VABP 291130Z 18004KT 5000 HZ FEW030 FEW030CB BKN100 23/21 Q1009 NOSIG", "VADU 291130Z 21004KT 6000 FEW020 SCT080 29/24 Q1007 NOSIG", "VAID 291130Z 18005KT 6000 FEW020 SCT025 BKN100 30/13 Q1009 NOSIG", "VAJB 291200Z 35002KT 4000 HZ BKN020 FEW030CB BKN090 29/19 Q1010 TEMPO 4000 -TSRA", "VAJJ 291130Z 27010KT 5000 FU FEW020 31/22 Q1006 NOSIG", "VAJL 291130Z 13009KT 7000 SCT020 SCT025 FEW030CB 28/21 Q1007 NOSIG", "VAKP 291100Z 28010KT 9000 FEW020 32/16 Q1009", "VANP 291130Z 25007KT 5000 HZ SCT020 BKN090 32/20 Q1009 NOSIG", "VAOZ 291130Z 22009KT 8000 SCT030 BKN100 32/13 Q1009 NOSIG", "VAPR 291100Z 05003KT 4000 FU FEW012 SCT018 OVC070 26/22 Q1009 NOSIG", "VASD 291130Z 15008KT 4000 HZ SCT020 BKN030 26/20 Q1009 NOSIG", "VASU 291130Z 24006KT 6000 FEW030 SCT090 33/20 Q1006 NOSIG", "VAUD 291130Z 16005KT 6000 SCT030 BKN100 27/18 Q1008 NOSIG", "VCBI 291110Z 08006KT 8000 -TSRA SCT010 SCT014CB 23/22 Q1007 NOSIG RMK CB N/NE/E/SE/S", "VDPP 291130Z 15004KT 9999 FEW015 FEW017CB 33/23 Q1005 RMK CB:E", "VDSR 291130Z 23006KT 180V270 9999 SCT015 32/25 Q1006", "VDSV 291130Z 16002KT 9000 SCT015 SCT040 29/26 Q1006", "VEAT 291130Z 26004KT 4000 -TSRA SCT020 FEW030CB BKN100 33/23 Q1005 TEMPO 3000 -TSRA", "VEBN 291130Z 22003KT 4000 HZ FEW100 35/15 Q1005 BECMG 3000 HZ", "VEBS 291130Z 22008KT 5000 HZ SCT018 FEW030CB BKN100 32/28 Q1007 NOSIG", "VEBU 291100Z 22008KT 6000 NSC 32/19 Q1007 NOSIG", "VECC 291130Z 13009KT 3200 -RA SCT018 FEW030CB BKN090 27/23 Q1005 TEMPO TL1230 17015G30KT 2000 TSRA", "VECO 291100Z 07003KT 3000 HZ SCT025 28/23 Q1005 NOSIG", "VEDG 291130Z 24005KT 4500 HZ SCT020 BKN080 33/15 Q1005 NOSIG", "VEGT 291130Z 04003KT 5000 BR SCT018 FEW025CB SCT100 32/27 Q1006 NOSIG", "VEGY 291100Z 29004KT 5000 HZ SCT020 BKN100 34/17 Q1005 NOSIG", "VEIM 291130Z 28010KT 5000 HZ FEW018 30/19 Q1010 BECMG 4000 HZ", "VEJH 291130Z 29004KT 6000 SCT020 SCT100 34/17 Q1007", "VEJS 291100Z 00000KT 5000 HZ SCT100 32/18 Q1006", "VEKI 291100Z 23008KT 5000 HZ FEW025 35/09 Q1004 NOSIG", "VEKO 291100Z 16003KT 6000 SCT025 BKN100 35/15 Q1006", "VELP 291200Z 34003KT 4000 HZ FEW020 SCT100 BKN200 30/21 Q1008 NOSIG", "VELR 291100Z 09002KT 3000 HZ FEW020 SCT090 24/19 Q1009", "VEMN 291130Z 15003KT 3500 BR SCT018 BKN100 22/21 Q1009 NOSIG", "VEPT 291130Z 25006KT 5000 HZ FEW018 SCT100 35/17 Q1004 NOSIG", "VERC 291130Z 20002KT 5000 HZ FEW020 SCT100 30/15 Q1009 NOSIG", "VERK 291100Z 30004KT 6000 FEW020 34/13 Q1006", "VERP 291200Z 16004KT 5000 HZ FEW025 BKN100 30/21 Q1007 NOSIG", "VERU 291100Z 06007KT 5000 HZ FEW020 SCT100 26/21 Q1005 NOSIG", "VGHS 291130Z 22013KT 2800 TS BKN010 FEW025CB OVC100 32/25 Q1005 TEMPO TSRA", "VHHH 291130Z 34013KT 9999 FEW020 SCT040 26/20 Q1012 NOSIG", "VIAR 291130Z 22017KT 2800 TS BLDU BKN035 FEW040CB OVC100 31/15 Q1006 TEMPO 19015G35KT", "VIDN 291130Z 29004KT 3000 HZ FEW030 BKN080 29/10 Q1009", "VIDP 291130Z 23008KT 3000 HZ SCT035 BKN100 30/12 Q1007 NOSIG", "VIJP 291130Z 10004KT 5000 HZ FEW035 SCT100 31/14 Q1007 NOSIG", "VILK 291130Z 25005KT 5000 HZ SCT020 SCT025 BKN100 32/20 Q1006 NOSIG", "VLLB 291100Z 04002KT 9999 TS FEW020CB SCT060 OVC080 36/18 Q1003 CB N NOSIG", "VLLN 291100Z 18002KT 9000 FEW020 30/23 Q1008 NOSIG", "VLPS 291100Z 14002KT 7000 FEW020 FEW050 BKN200 32/23 Q1005 NOSIG", "VLVT 291100Z 27004KT 6000 FEW020 BKN050 36/24 Q1003 NOSIG", "VMMC 291130Z 28006KT 9999 FEW025 SCT040 26/23 Q1012 NOSIG", "VNKT 291200Z 36005KT 4500 TSRA FEW015 FEW025CB SCT030 OVC09 0 16/14 Q1016 NOSIG CB TO SW W NW N NE E SE S AND OVERHEAD", "VOBG 291130Z 00000KT 6000 FEW012 SCT080 30/22 Q1011 NOSIG", "VOBL 291130Z VRB02KT 6000 SCT010 SCT020 FEW025CB 27/22 Q1011 NOSIG", "VOBM 291130Z 29008KT 8000 SCT012 SCT018 FEW025CB 32/21 Q1010", "VOBZ 291130Z 11004KT 6000 SCT020 BKN080 28/22 Q1005 NOSIG", "VOCB 291130Z 09009KT 6000 SCT012 FEW025CB 34/18 Q1007 NOSIG", "VOCI 291130Z 14002KT 5000 BR SCT012 FEW025CB BKN080 27/25 Q1007 NOSIG", "VOCL 291130Z 23006KT 6000 SCT012 FEW025CB BKN080 30/23 Q1005 NOSIG", "VOCP 291131Z 09010KT 6000 FEW020 FEW030CB 36/17 Q1004 NOSIG", "VOGA 291130Z 30012KT 7000 FEW020 31/21 Q1006 NOSIG", "VOGO 291100Z 32013KT 6000 FEW090 31/23 Q1005 NOSIG", "VOHB 291130Z 28008KT 9999 SCT012 34/19 Q1008", "VOHS 291100Z 15007KT 5000 HZ FEW020 31/20 Q1010 NOSIG", "VOHY 291130Z 16006KT 6000 FEW020 31/18 Q1010 NOSIG", "VOJV 291130Z 24004KT 6000 SCT015 SCT020 BKN080 28/18 Q1008", "VOKN 291130Z 04015KT 5000 TS SCT012 FEW025CB 32/24 Q1005 TEMPO 3000 -TSRA", "VOMD 291130Z 07010KT 6000 FEW020 FEW025TCU SCT100 33/24 Q1007 NOSIG", "VOML 291130Z 28010KT 9999 FEW015 FEW025CB 33/21 Q1005 NOSIG", "VOMM 291130Z 17008KT 6000 FEW020 SCT100 32/27 Q1006 NOSIG", "VOPC 291100Z 16004KT 6000 SCT020 BKN100 31/25 Q1008 NOSIG", "VORY 291100Z 22010G20KT 5000 -TSRA SCT015 FEW030CB 28/25 Q1008 BECMG 6000", "VOTK 291100Z 11010KT 6000 FEW020 FEW025TCU 35/21 Q1007 NOSIG", "VOTP 291130Z 13007KT 6000 FEW020 31/23 Q1006 NOSIG", "VOTR 291130Z 10009KT 5000 HZ SCT016 FEW025TCU BKN080 31/24 Q1006 NOSIG", "VOTV 291130Z 00000KT 4000 TS HZ SCT015 FEW025CB BKN080 27/25 Q1007 NOSIG", "VOVZ 291130Z 27006KT 4000 VCSH SCT018 FEW022TCU SCT080 31/20 Q1007 TEMPO 3000 -RA", "VRMG 291100Z 31004KT 6000 -SHRA SCT017 FEW018CB OVC100 25/25 Q1007 RESHRA CB NE,E,SE,NW TEMPO 3000 TSRA", "VRMH 291100Z 04005KT 9999 FEW018 FEW019CB BKN260 31/25 Q1006 CB NE,SE", "VRMM 291100Z 29010KT 9999 SCT017 FEW018CB BKN270 31/26 Q1006 CB N,NE,NW TEMPO 5000 TSRA", "VTBD 291130Z 02011KT 9999 FEW020 SCT040 32/22 Q1005 NOSIG", "VTBO 291100Z VRB02KT 6000 -RA FEW018 SCT020 BKN100 27/25 Q1006 RETS", "VTBS 291130Z 19008KT 9999 FEW020 32/23 Q1005 NOSIG", "VTBU 291130Z 17009KT 9000 FEW020 30/26 Q1006 NOSIG", "VTCC 291130Z 14004KT 9000 FEW035 38/16 Q1003 NOSIG", "VTCH 291100Z VRB04KT 9999 FEW025 40/14 Q1003 NOSIG", "VTCL 291100Z 17010KT 140V200 9999 FEW025 33/19 Q1004 NOSIG", "VTCN 291100Z VRB02KT 9999 FEW025 30/22 Q1004 RETS NOSIG", "VTCP 291100Z 18005KT 130V210 CAVOK 37/21 Q1003 NOSIG", "VTCT 291100Z 07004KT 040V100 9999 FEW025 35/21 Q1004 NOSIG", "VTPB 291100Z 36006KT 8000 FEW030 31/23 Q1005 NOSIG", "VTPH 291100Z 17008KT 140V200 9999 FEW030 31/26 Q1005 NOSIG", "VTPM 291100Z 26008KT 9999 FEW035 35/20 Q1005 NOSIG", "VTPO 291100Z 11005KT 9999 FEW030 38/22 Q1003 NOSIG", "VTPP 291100Z VRB01KT 9999 FEW030 36/24 Q1003 NOSIG", "VTPT 291100Z /////KT 9999 SCT035 33/25 Q1004 RETSRA NOSIG", "VTSB 291100Z 15005KT 110V180 9999 FEW020 30/24 Q1005 NOSIG", "VTSC 291100Z 07006KT 020V100 9999 FEW020 30/26 Q1006 NOSIG", "VTSE 291100Z VRB02KT 9999 FEW020 30/24 Q1005 NOSIG", "VTSF 291100Z 07005KT 030V090 9999 FEW018 33/27 Q1006 NOSIG", "VTSG 291100Z 06003KT 010V110 9999 FEW020 26/24 Q1006 NOSIG", "VTSM 291100Z 13005KT 9999 FEW020 32/26 Q1007 NOSIG", "VTSP 291130Z 27008KT 9999 FEW020CB 31/25 Q1006 TEMPO TL1200 08010G25KT 3000 TSRA", "VTSR 291100Z 15006KT 120V190 9000 -RA VCTS FEW018CB BKN020 26/23 Q1006 NOSIG", "VTSS 291130Z 14003KT 100V260 9999 FEW020 SCT100 27/25 Q1006 NOSIG", "VTST 291100Z VRB02KT 9999 VCSH SCT030 SCT050 28/25 Q1006 NOSIG", "VTUD 291100Z 24004KT 210V280 9000 NSC 36/20 Q1004 NOSIG", "VTUI 291100Z 17004KT 9999 FEW040 34/16 Q1004 NOSIG", "VTUK 291100Z VRB02KT 9999 FEW030 BKN100 35/22 Q1005 NOSIG", "VTUL 291100Z 35005KT 9999 BKN030 33/23 Q1005 NOSIG", "VTUO 291100Z 19009KT 9000 VCSH FEW025TCU BKN080 33/18 Q1005 NOSIG", "VTUQ 291100Z 22007KT 9000 FEW030 31/22 Q1006 NOSIG", "VTUU 291100Z 13004KT 040V200 9000 FEW040 32/23 Q1005 RETS NOSIG", "VTUV 291100Z 08003KT 8000 FEW035 35/23 Q1004 NOSIG", "VTUW 291100Z 20004KT 7000 FEW040 35/22 Q1005 NOSIG", "VVCI 291130Z 14005KT 110V180 9999 FEW015 OVC038 24/21 Q1011 NOSIG", "VVCR 291130Z 08005KT 9999 FEW015 29/25 Q1009 NOSIG", "VVCT 291130Z 24002KT 9999 FEW015 FEW017TCU 28/26 Q1006 NOSIG", "VVDN 291130Z 08005KT 030V120 9999 SCT010 SCT040 28/25 Q1010 NOSIG", "VVNB 291130Z 12009KT 9999 BKN041 OVC048 26/21 Q1011 NOSIG", "VVPB 291130Z 08011KT 9999 SCT013 BKN050 28/25 Q1010 NOSIG", "VVPQ 291130Z 00000KT 9999 SCT015 28/26 Q1007 NOSIG", "VVTS 291130Z 17008KT 140V200 9999 FEW020 SCT050 31/25 Q1007 NOSIG", "VVVD 291130Z AUTO VRB02KT 9999 BKN039/// 23/21 Q1012 NOSIG", "VYNT 291100Z 15004KT 6000 SCT020 FEW025TCU 38/20 Q1003 NOSIG", "VYYY 291130Z 19010KT 7000 FEW020 37/25 Q1003 NOSIG", "WAAA 291130Z 11001KT 8000 FEW019 26/25 Q1008 NOSIG", "WABB 291130Z VRB02KT 9999 SCT018 26/24 Q1008 NOSIG", "WADD 291130Z 15005KT 7000 -RA BKN016 26/25 Q1009 TEMPO TL1230 7000 -RA", "WADL 291130Z VRB02KT 7000 -RA FEW015CB BKN016 25/24 Q1010 TEMPO TL1230 -RA RMK CB TO SW", "WAHS 291130Z 35002KT 7000 SCT014 29/25 Q1007 NOSIG", "WAJJ 291130Z 21002KT 9999 FEW012 25/23 Q1008 NOSIG", "WALL 291130Z 000002KT 7000 FEW020 25/25 Q1007 NOSIG", "WAMM 291130Z VRB02KT 9999 FEW020 25/24 Q1007 NOSIG METAR ", "WAOO 291130Z 00000KT 9999 FEW018 27/25 Q1007 NOSIG", "WAPP 291130Z 35008KT 9999 FEW018 25/23 Q1007 NOSIG", "WAQQ 291100Z 08002KT 8000 FEW015 28/25 Q1007 NOSIG", "WARR 291130Z 13003KT 8000 SCT020 27/25 Q1007 NOSIG", "WATT 291130Z 13005KT 8000 FEW018 27/25 Q1009 NOSIG", "WBGB 291100Z VRB02KT 9999 FEW016 29/26 Q1007", "WBGG 291130Z 27003KT 190V340 9999 SCT020 25/23 Q1007 NOSIG", "WBGR 291100Z VRB04KT 9999 FEW016 29/25 Q1006", "WBGS 291100Z 00000KT 9999 FEW015CB SCT016 26/25 Q1007", "WBGY 291100Z AUTO VRB04KT //// // ////// 29/26 Q1006", "WBKK 291130Z 13004KT 9999 FEW014 27/26 Q1006 NOSIG", "WBKL 291100Z VRB02KT 9999 TS FEW013 FEW016CB 28/25 Q1006", "WBKS 291100Z 07003KT 030V110 9999 FEW016 29/25 Q1006", "WBKT 291100Z 07004KT 350V150 9999 FEW014 30/25 Q1006", "WBKW 291100Z VRB02KT 9999 FEW016 26/25 Q1007", "WBSB 291130Z 29005KT 9999 TS SCT014 FEW015CB BKN140 29/28 Q1007 NOSIG", "WIDD 291130Z 31004KT 9999 TS FEW013CB BKN014 29/25 Q1009 TEMPO FM1200 5000 TSRA RMK CB TO SE-SW", "WIDN 291130Z 05003KT 9999 FEW017 28/27 Q1008 NOSIG", "WIEE 291130Z 29003KT 260V330 9999 SCT020 28/24 Q1006 NOSIG", "WIHH 291130Z 02004KT 5000 HZ SCT018 30/23 Q1007 NOSIG METAR ", "WIII 291200Z 32002KT 4500 HZ FEW020 28/25 Q1007 NOSIG", "WILL 291100Z 00000KT 8000 BKN014 29/24 Q1006 NOSIG", "WIMM 291130Z 35005KT 9000 FEW016TCU SCT017 29/25 Q1006 NOSIG", "WIOO 291130Z 06004KT 7000 BKN012 25/24 Q1007 RERA NOSIG", "WIPP 291130Z 02004KT 9999 SCT010 30/26 Q1006 NOSIG", "WMAU 291100Z 05004KT 290V060 9999 FEW020 30/26 Q1007", "WMBA 291100Z VRB03KT 9999 TS FEW017CB 31/25 Q1006", "WMKA 291100Z VRB03KT 9000 -TSRA FEW017CB 30/26 Q1006 RETS", "WMKB 291100Z 13010KT 090V200 7000 -TSRA FEW017CB SCT023 28/25 Q1006 NOSIG", "WMKC 291100Z 08004KT 050V130 9999 FEW020 30/26 Q1006", "WMKD 291100Z 00000KT 9999 FEW017CB 29/25 Q1007 RETS NOSIG", "WMKE 291100Z 00000KT 9999 FEW014CB SCT022 30/26 Q1007", "WMKI 291100Z 22003KT 170V260 9000 SCT026 27/24 Q1007 RETS", "WMKJ 291100Z VRB02KT 9999 -TSRA FEW012 FEW017CB 27/25 Q1007", "WMKK 291130Z VRB02KT 9000 FEW010 FEW017CB 25/24 Q1007 NOSIG", "WMKL 291100Z VRB03KT 9999 TS FEW017CB 31/26 Q1006", "WMKM 291100Z 00000KT 9999 FEW017CB SCT026 28/25 Q1007", "WMKN 291100Z VRB02KT 9999 FEW018 31/26 Q1006", "WMKP 291130Z VRB03KT 9000 TS FEW017CB 31/25 Q1006 NOSIG", "WMSA 291100Z VRB02KT 9999 FEW024 26/24 Q1007", "WSAP 291120Z 04001KT 9999 -RA FEW014 FEW016TCU BKN150 26/25 Q1007 RETS", "WSSL 291135Z VRB02KT 8000 -RA FEW016TCU FEW018CB BKN150 26/25 Q1007 RETS", "WSSS 291130Z 31002KT 8000 -RA FEW017TCU FEW018CB BKN160 26/25 Q1007 RETS NOSIG", "YAMB 291130Z AUTO 07005KT 9999 // BKN073 BKN091 18/17 Q1010", "YBAS 291130Z AUTO /////KT 9999 // NCD 13/07 Q1019 RF00.0/000.0", "YBBN 291130Z 36007KT 9999 FEW030 SCT170 BKN195 21/19 Q1010 RF00/0/000/0", "YBCG 291130Z AUTO 31005KT 9999 // NCD 20/18 Q1011 RF00.0/000.2", "YBCS 291130Z AUTO 00000KT 9999 // BKN100 23/21 Q1010 RF00.0/000.0", "YBHM 291130Z AUTO 08004KT 9999 // NCD 23/20 Q1010 RF00.0/000.2", "YBLN 291130Z AUTO 14003KT 9999 // NCD 13/10 Q1020 RF00.0/000.0", "YBMA 291130Z AUTO 16010KT 9999 // SCT100 19/07 Q1015 RF00.0/000.0", "YBRK 291130Z AUTO 25005KT 9999 // OVC075 22/19 Q1011 RF00.0/000.0", "YBRM 291130Z AUTO 15007KT 9999 // NCD 29/16 Q1010 RF00.0/000.0", "YBSU 291130Z AUTO 30005KT 9999 // SCT100 19/18 Q1010 RF00.0/000.0", "YBTL 291130Z AUTO 07006KT 9999 // SCT021 25/21 Q1010 RF00.0/000.0", "YBWW 291130Z AUTO 20007KT 9999 // OVC035 14/11 Q1013 RF00.0/000.0", "YCFS 291130Z AUTO 31009KT 9999 // SCT125 20/17 Q1010 RF00.0/000.0", "YCIN 291130Z AUTO 17006KT 9999 // NCD 24/13 Q1009 RF00.0/000.0", "YFRT 291130Z AUTO 16006KT 9999 // SCT041 BKN053 15/11 Q1021", "YGEL 291130Z AUTO 15008KT 9999 // NCD 17/12 Q1018 RF00.0/000.0", "YGLA 291130Z AUTO 23003KT 9999 // BKN061 OVC110 23/19 Q1011", "YHID 291130Z AUTO 13008KT 9999 // SCT019 SCT025 28/25 Q1008", "YLHI 291130Z AUTO 06011KT 9999 // SCT026 20/15 Q1014 RF00.0/000.0", "YMAV 291130Z AUTO 35004KT 9999 // NCD 08/05 Q1016 RF00.0/000.0", "YMHB 291130Z 34008KT CAVOK 12/03 Q1012", "YMLT 291130Z AUTO 35009KT 9999 // NCD 06/03 Q1014 RF00.0/000.0", "YMML 291130Z 35003KT 9999 FEW039 07/05 Q1016", "YPAD 291130Z 12005KT 9999 -SHRA FEW020 SCT024 OVC063 13/11 Q1017 RESHRA", "YPCC 291130Z AUTO 07006KT 9999 // NCD 28/25 Q1008 RF00.0/002.0", "YPDN 291130Z 27004KT 9999 FEW020 BKN370 28/23 Q1009 RF00.0/000.0", "YPEA 291130Z AUTO 14005KT 090V170 9999 // NCD 15/08 Q1020 RF00.0/000.0", "YPGV 291130Z AUTO 07005KT 9999 // OVC100 27/22 Q1009 RF00.0/000.0", "YPJT 291130Z AUTO 19004KT 9999 // NCD 13/09 Q1020 RF00.0/000.0", "YPKG 291130Z AUTO 08002KT 9999 // NCD 15/05 Q1021 RF00.0/000.0", "YPKU 291130Z AUTO 00000KT 9999 // ////// 25/21 Q1008 RF00.0/000.0", "YPLM 291130Z AUTO 33006KT 9999 // NCD 24/12 Q1013 RF00.0/000.0", "YPPD 291130Z AUTO 11007KT 9999 // NCD 27/08 Q1013 RF00.0/000.0", "YPPH 291130Z 18008KT CAVOK 14/08 Q1020", "YPTN 291156Z AUTO 00000KT 9999 // NCD 25/16 Q1009 RF00/0/000/0", "YPWR 291130Z AUTO 26005KT 9999 // NCD 12/06 Q1018 RF00.0/000.0", "YSCB 291130Z AUTO 20005KT 9999 RA SCT019 OVC058 10/10 Q1013", "YSDU 291130Z AUTO 18004KT 9999 // BKN007 BKN013 OVC023 12/12 Q1012", "YSNF 291200Z AUTO 21013KT 9999 -SHRA BKN016 BKN027 BKN038 19/17 Q1009", "YSRI 291135Z AUTO 33007KT 6000 // BKN023 BKN032 OVC048 15/15 Q1010", "YSSY 291157Z 20015KT 9999 -SHRA VCTS SCT005 BKN018 BKN027 FEW046CB 17/16 Q1009", "YSTW 291137Z AUTO 36007KT 9999 // SCT008 SCT031 SCT052 12/12 Q1012", "YWLM 291143Z AUTO 30011KT 9999 -RA BKN012 BKN027 OVC068 18/17 Q1008", "ZBAA 291130Z 31007MPS CAVOK 22/M03 Q1006 NOSIG", "ZBAD 291130Z 31007MPS CAVOK 22/M03 Q1006 NOSIG", "ZBHH 291100Z 33009G14MPS 9999 SCT040 14/M06 Q1011 NOSIG", "ZBSJ 291100Z 15003MPS CAVOK 17/08 Q1006 NOSIG", "ZBTJ 291130Z 21003MPS CAVOK 21/01 Q1006 NOSIG", "ZBYN 291130Z 26003MPS CAVOK 16/M08 Q1012 NOSIG", "ZGGG 291130Z 34006MPS 300V360 9999 BKN033 22/18 Q1013 NOSIG", "ZGHA 291100Z 18003MPS 9999 FEW050 18/11 Q1017 NOSIG", "ZGKL 291100Z 06004MPS 020V080 CAVOK 20/10 Q1016 NOSIG", "ZGNN 291100Z 02004MPS CAVOK 21/15 Q1013 NOSIG", "ZGOW 291100Z VRB01MPS 9999 BKN050 26/20 Q1011 BECMG TL1230 02005MPS", "ZGSZ 291100Z 31004MPS 9999 FEW020 25/20 Q1012 NOSIG", "ZHCC 291100Z 19002MPS 150V230 CAVOK 21/01 Q1013 NOSIG", "ZHHH 291100Z 21002MPS CAVOK 18/07 Q1015 NOSIG", "ZJHK 291100Z 04003MPS 350V070 9999 FEW012 FEW026TCU 23/21 Q1012 NOSIG", "ZJSY 291100Z 06005MPS 9999 -SHRA SCT015 FEW026CB BKN043 24/23 Q1011 BECMG AT1150 SCT020", "ZLLL 291100Z 06005MPS CAVOK 17/M16 Q1017 NOSIG", "ZLXY 291100Z 27002MPS CAVOK 22/M03 Q1012 NOSIG", "ZMCK 291200Z VRB02MPS CAVOK 10/M05 Q1011 NOSIG", "ZMUB 291200Z 03004MPS CAVOK 10/M06 Q1011 NOSIG RMK QFE651.4 32", "ZPPP 291100Z 13006MPS 9999 SCT026 SCT043 15/07 Q1020 NOSIG", "ZSAM 291100Z 27002MPS 210V330 CAVOK 26/21 Q1009 NOSIG", "ZSFZ 291100Z 03008MPS 4000 -TSRA BR BKN004 FEW026CB BKN040 19/19 Q1012 RESHRA BECMG TL1120 -SHRA", "ZSHC 291130Z 23003MPS CAVOK 16/11 Q1016 NOSIG", "ZSNB 291100Z VRB01MPS 7000 -SHRA BKN026 16/10 Q1015 NOSIG", "ZSNJ 291100Z 24002MPS CAVOK 16/05 Q1015 NOSIG", "ZSOF 291100Z 25002MPS CAVOK 17/03 Q1015 NOSIG", "ZSPD 291130Z 29003MPS CAVOK 17/07 Q1015 NOSIG", "ZSQD 291100Z VRB01MPS CAVOK 19/00 Q1010 BECMG TL1230 21005MPS", "ZSSS 291130Z 31003MPS 280V340 CAVOK 18/05 Q1015 NOSIG", "ZUCK 291100Z 17002MPS CAVOK 21/07 Q1016 NOSIG", "ZUGY 291100Z 06003MPS 9999 FEW040 16/08 Q1018 NOSIG", "ZUTF 291100Z 20004MPS 170V230 CAVOK 24/04 Q1015 NOSIG", "ZUUU 291100Z 19004MPS CAVOK 22/05 Q1015 NOSIG", "ZWSH 291100Z 21004MPS 150V230 8000 NSC 22/M05 Q1014 NOSIG", "ZWWW 291130Z 34004MPS 310V010 CAVOK 27/M07 Q1008 NOSIG", "ZYCC 291100Z 33002MPS 280V020 2700 RA SCT008 OVC030 08/07 Q1000 BECMG TL1240 3000 -RA", "ZYHB 291100Z 05005MPS 8000 -RA OVC033 08/07 Q1001 NOSIG", "ZYTL 291130Z VRB01MPS CAVOK 11/04 Q1009 NOSIG", "ZYTX 291130Z 26002MPS CAVOK 07/05 Q1007 NOSIG"]}