station_id, observation_time,raw_text
AGGH,2022-10-31T19:00:00Z,AGGH 311900Z 00000KT 9999 FEW015 FEW016CB BKN028 25/25 Q1007
AYNZ,2022-10-31T19:00:00Z,AYNZ 311900Z 32004KT 9999 FEW020 26/20 Q1008
AYPY,2022-10-31T19:00:00Z,AYPY 311900Z 32005KT 9999 SCT050 25/24 Q1006
BGBW,2022-10-31T18:50:00Z,BGBW 311850Z 19002KT 9999 BKN097 M04/M09 Q0986
BGGH,2022-10-31T18:50:00Z,BGGH 311850Z 04005KT 9999 VCSH BKN015 M01/M03 Q0990
BGJN,2022-10-31T18:50:00Z,BGJN 311850Z 14004KT 9999 FEW016 BKN100 M08/M10 Q0992
BGKK,2022-10-31T18:50:00Z,BGKK 311850Z AUTO 08014KT 9999NDV BKN021/// 01/M03 Q0985
BGSF,2022-10-31T18:50:00Z,BGSF 311850Z AUTO VRB02KT 9999NDV SCT032/// BKN075/// M05/M07 Q0993
BGTL,2022-10-31T18:55:00Z,BGTL 311855Z AUTO 12007KT 9999 CLR M16/M21 A2929 RMK AO2 SLP908 T11581215 TSNO $
BIAR,2022-10-31T19:00:00Z,BIAR 311900Z 27004KT 9999 -RA BKN033 OVC041 04/03 Q0982
BIEG,2022-10-31T19:00:00Z,BIEG 311900Z VRB02KT 9999 -RA SCT015 BKN030 OVC040 04/03 Q0980
BIHN,2022-10-31T19:00:00Z,BIHN 311900Z 15010KT 9999 SCT009 BKN035 OVC037 07/06 Q0981
BIKF,2022-10-31T19:30:00Z,BIKF 311930Z 16015KT 5000 -DZ OVC003 06/06 Q0979
BIRK,2022-10-31T19:00:00Z,BIRK 311900Z 11008KT 9999 FEW009 BKN160 06/03 Q0981
BKPR,2022-10-31T19:30:00Z,BKPR 311930Z 31001KT CAVOK 12/06 Q1024 NOSIG
CAHR,2022-10-31T19:00:00Z,CAHR 311900Z AUTO 27006KT 15/01 RMK AO1 SLP149 T01450011 55000
CBAR,2022-10-31T19:30:00Z,CBAR 311930Z AUTO 03013KT ////SM OVC011 M15/M16 A3006
CBBC,2022-10-31T19:36:00Z,CBBC 311936Z AUTO 13006KT 9SM FEW013 BKN023 OVC033 05/04 A2975 RMK SLP079
CERM,2022-10-31T19:00:00Z,CERM 311900Z AUTO 13003KT 17/01 RMK AO1 SLP133 T01740014 56018
CFOX,2022-10-31T19:41:00Z,CFOX 311941Z AUTO ///// ////SM FEW007 FEW019 BKN026 M12/M14 A2956
CMFM,2022-10-31T19:00:00Z,CMFM 311900Z AUTO 22004KT 12/M05 RMK AO1 SLP143 T01211051 56012
CMGB,2022-10-31T19:00:00Z,CMGB 311900Z AUTO 24001KT 14/02 RMK AO1 SLP132 T01420022 58019
CPBT,2022-10-31T19:00:00Z,CPBT 311900Z AUTO 24005KT 06/01 RMK AO1 T00550008
CPEH,2022-10-31T19:00:00Z,CPEH 311900Z AUTO 00000KT 05/M01 RMK AO1 T00521011
CPFI,2022-10-31T19:00:00Z,CPFI 311900Z AUTO 24005KT 08/01 RMK AO1 T00800014
CPIN,2022-10-31T19:00:00Z,CPIN 311900Z AUTO 17002KT ////SM OVC017 ///// A////
CPIR,2022-10-31T19:00:00Z,CPIR 311900Z AUTO 31003KT 06/M00 RMK AO1 T00601003
CPRO,2022-10-31T19:00:00Z,CPRO 311900Z AUTO 04006KT 07/M05 RMK AO1 T00711048
CPRY,2022-10-31T19:00:00Z,CPRY 311900Z AUTO 25007KT 06/01 RMK AO1 T00580007
CPST,2022-10-31T19:00:00Z,CPST 311900Z AUTO 19004KT 04/M04 RMK AO1 T00401037
CPSV,2022-10-31T19:00:00Z,CPSV 311900Z AUTO 07006KT 08/04 RMK AO1 T00770040
CTCK,2022-10-31T19:00:00Z,CTCK 311900Z AUTO 35001KT 15/04 RMK AO1 SLP127 T01490044 57015
CTNK,2022-10-31T19:00:00Z,CTNK 311900Z AUTO 21003KT 13/07 RMK AO1 SLP117 T01330072 58022
CTRA,2022-10-31T19:00:00Z,CTRA 311900Z AUTO 21005KT 10/02 RMK AO1 SLP039 T01010015 57006
CWAE,2022-10-31T19:03:00Z,CWAE 311903Z 18003KT 15SM -SHRA SCT014 OVC044 05/04 A2965 RMK SC3SC5 WIND ESTD SLP050
CWAF,2022-10-31T19:00:00Z,CWAF 311900Z AUTO 24005KT 08/05 RMK AO1 T00810047
CWAJ,2022-10-31T19:00:00Z,CWAJ 311900Z AUTO 18006KT RMK AO1 57015
CWAQ,2022-10-31T19:00:00Z,CWAQ 311900Z AUTO 18006KT 14/02 RMK AO1 SLP057 T01430023 58011
CWAR,2022-10-31T19:00:00Z,CWAR 311900Z AUTO 18024KT 12/09 RMK AO1 PK WND 18032/1808 SLP107 T01150094 56016
CWAV,2022-10-31T19:00:00Z,CWAV 311900Z AUTO 13007KT 02/M04 RMK AO1 SLP065 T00221036 58009
CWBA,2022-10-31T19:00:00Z,CWBA 311900Z AUTO 17004KT 11/06 RMK AO1 T01050060
CWBK,2022-10-31T19:00:00Z,CWBK 311900Z AUTO 31004KT 16/09 RMK AO1 SLP154 T01590089 56005
CWBO,2022-10-31T19:00:00Z,CWBO 311900Z AUTO 03006KT 07/M04 RMK AO1 SLP064 T00651035 58004
CWBS,2022-10-31T19:00:00Z,CWBS 311900Z AUTO 36002KT 11/05 RMK AO1 T01120050
CWBT,2022-10-31T19:00:00Z,CWBT 311900Z AUTO 32003KT 14/M01 RMK AO1 SLP120 T01351006 51017
CWBU,2022-10-31T19:00:00Z,CWBU 311900Z AUTO 29014G19KT 08/M04 RMK AO1 PK WND 29019/1855 SLP029 T00791035 51006
CWBV,2022-10-31T19:00:00Z,CWBV 311900Z AUTO 24017KT 14/11 RMK AO1 PK WND 24021/1813 SLP145 T01370109 56009
CWBY,2022-10-31T19:00:00Z,CWBY 311900Z AUTO 29009KT 11/01 RMK AO1 PK WND 30017/1812 SLP127 T01110012 51014
CWBZ,2022-10-31T19:00:00Z,CWBZ 311900Z AUTO 30005KT 16/03 RMK AO1 SLP129 T01590032 56015
CWCF,2022-10-31T19:00:00Z,CWCF 311900Z AUTO 25008KT 08/03 RMK AO1 SLP005 T00790026 51023
CWCJ,2022-10-31T19:00:00Z,CWCJ 311900Z AUTO 23004KT 09/07 RMK AO1 SLP091 T00920066 57012
CWCO,2022-10-31T19:00:00Z,CWCO 311900Z AUTO 16001KT 12/11 RMK AO1 SLP100 T01220106 56022
CWCT,2022-10-31T19:00:00Z,CWCT 311900Z AUTO 25003KT 05/M06 RMK AO1 SLP077 T00521055 57002
CWDA,2022-10-31T19:00:00Z,CWDA 311900Z AUTO 29025G33KT 11/ RMK AO1 PK WND 28041/1826 T0107
CWDC,2022-10-31T19:00:00Z,CWDC 311900Z AUTO 04005KT M09/M14 RMK AO1 SOG 02 1023 SLP056 T10881137
CWDJ,2022-10-31T19:00:00Z,CWDJ 311900Z AUTO 31006KT 07/M02 RMK AO1 SLP075 T00661015 51003
CWDK,2022-10-31T19:00:00Z,CWDK 311900Z AUTO 08003KT 03/01 RMK AO1 SLP062 T00250008 58013
CWDM,2022-10-31T19:00:00Z,CWDM 311900Z AUTO 32016G23KT 13/M01 RMK AO1 PK WND 32026/1826 SLP079 T01261007 53031
CWDO,2022-10-31T19:00:00Z,CWDO 311900Z AUTO 25023G31KT 12/05 RMK AO1 PK WND 26031/1853 SLP038 T01170046 55008
CWDQ,2022-10-31T19:00:00Z,CWDQ 311900Z AUTO 17006KT 15/01 RMK AO1 SLP127 T01540005 56015
CWDT,2022-10-31T19:00:00Z,CWDT 311900Z AUTO 14002KT RMK AO1 57015
CWDV,2022-10-31T19:00:00Z,CWDV 311900Z AUTO 24011G18KT 13/M01 RMK AO1 PK WND 26018/1850 SLP055 T01341011 58017
CWDZ,2022-10-31T19:00:00Z,CWDZ 311900Z AUTO 31001KT 07/M03 RMK AO1 SLP066 T00691030 57009
CWEB,2022-10-31T19:00:00Z,CWEB 311900Z AUTO 00031KT 08/03 RMK AO1 SLP102 T00830027 52016
CWEE,2022-10-31T19:00:00Z,CWEE 311900Z AUTO 10/04 RMK AO1 SLP113 T01030042 56020
CWEF,2022-10-31T19:00:00Z,CWEF 311900Z AUTO 27023KT 11/08 RMK AO1 PK WND 27030/1803 SLP120 T01100076 53016
CWEH,2022-10-31T19:00:00Z,CWEH 311900Z AUTO 23007KT 10/02 RMK AO1 SLP049 T00970021 58005
CWEK,2022-10-31T19:00:00Z,CWEK 311900Z AUTO 16018KT 05/ RMK AO1 2PAST HR 3004 PK WND 16026/1812 SLP010 P0005 T0046 50012
CWEL,2022-10-31T19:00:00Z,CWEL 311900Z AUTO 30006KT 10/08 RMK AO1 SLP077 T01040078 53018
CWEP,2022-10-31T19:00:00Z,CWEP 311900Z AUTO 28012KT 14/03 RMK AO1 SLP150 T01430027 53002
CWEQ,2022-10-31T19:00:00Z,CWEQ 311900Z AUTO 27015G24KT 11/M05 RMK AO1 PK WND 27024/1853 SLP025 T01061050 51011
CWER,2022-10-31T19:00:00Z,CWER 311900Z AUTO 23012KT RMK AO1
CWEU,2022-10-31T19:00:00Z,CWEU 311900Z 27008KT 210V020 15SM IC DRSN FEW080 M23/M26 A2964 RMK AC1 AC TR PRFZFG E 20 SM OVR FIORD AC LENT SLP054
CWEW,2022-10-31T19:00:00Z,CWEW 311900Z AUTO 21003KT 15/02 RMK AO1 SLP138 T01490024 56020
CWEZ,2022-10-31T19:00:00Z,CWEZ 311900Z AUTO 25012G19KT 11/07 RMK AO1 PK WND 25023/1845 SLP082 T01050067 53020
CWFD,2022-10-31T19:00:00Z,CWFD 311900Z AUTO 35008KT ////SM ////// M12/M13 A2928
CWFF,2022-10-31T19:00:00Z,CWFF 311900Z AUTO 27009KT 06/M04 RMK AO1 SLP044 T00571035 51006
CWFJ,2022-10-31T19:00:00Z,CWFJ 311900Z AUTO 26003KT 06/02 RMK AO1 T00620018
CWFQ,2022-10-31T19:00:00Z,CWFQ 311900Z AUTO 21003KT 15/01 RMK AO1 SLP130 T01500014 57020
CWGB,2022-10-31T19:00:00Z,CWGB 311900Z AUTO 29020KT 10/ RMK AO1 PK WND 30025/1827 SLP072 T0099 53014
CWGD,2022-10-31T19:00:00Z,CWGD 311900Z AUTO 00000KT 13/13 RMK AO1 SLP095 T01340126 56015
CWGH,2022-10-31T19:00:00Z,CWGH 311900Z AUTO 21001KT 14/07 RMK AO1 SLP126 T01430070 57019
CWGL,2022-10-31T19:00:00Z,CWGL 311900Z AUTO 10002KT 10/09 RMK AO1 SLP093 T00950094 56026
CWGM,2022-10-31T19:00:00Z,CWGM 311900Z AUTO 09002KT 03/02 RMK AO1 7PAST HR 0007 SLP056 P0003 T00340022 50007
CWGR,2022-10-31T19:00:00Z,CWGR 311900Z AUTO 27010KT 11/07 RMK AO1 PK WND 27019/1801 SLP139 T01140071 53012
CWGT,2022-10-31T19:00:00Z,CWGT 311900Z AUTO 33022KT 09/04 RMK AO1 PK WND 33025/1850 SLP081 T00900037 51017
CWGW,2022-10-31T19:00:00Z,CWGW 311900Z AUTO 17009KT 06/03 RMK AO1 SLP061 T00600033 58004
CWGY,2022-10-31T19:00:00Z,CWGY 311900Z AUTO 28006KT 06/M06 RMK AO1 SLP068 T00641063 58005
CWHI,2022-10-31T19:00:00Z,CWHI 311900Z AUTO 16004KT 06/M07 RMK AO1 T00571068
CWHL,2022-10-31T19:00:00Z,CWHL 311900Z AUTO 10008KT 04/01 RMK AO1 PK WND 06017/1840 SLP039 T00370014 50002
CWHO,2022-10-31T19:00:00Z,CWHO 311900Z AUTO 00031KT 05/M05 RMK AO1 SLP088 T00461049 52031
CWHP,2022-10-31T19:00:00Z,CWHP 311900Z AUTO 33012KT 13/02 RMK AO1 SLP107 T01290023 53019
CWHQ,2022-10-31T19:00:00Z,CWHQ 311900Z AUTO 25003KT 13/01 RMK AO1 T01310012
CWHT,2022-10-31T19:00:00Z,CWHT 311900Z AUTO 33008G16KT M07/M13 RMK AO1 PK WND 34017/1841 SLP065 T10721129 53024
CWHV,2022-10-31T19:00:00Z,CWHV 311900Z AUTO 13002KT 14/M00 RMK AO1 SLP136 T01411002 56018
CWID,2022-10-31T19:00:00Z,CWID 311900Z AUTO 00000KT M06/M08 RMK AO1 SLP069 T10601078 51010
CWIG,2022-10-31T19:00:00Z,CWIG 311900Z AUTO 22008KT RMK AO1
CWII,2022-10-31T19:00:00Z,CWII 311900Z AUTO 23012KT 08/04 RMK AO1 PK WND 23017/1801 SLP023 T00790035 51014
CWIJ,2022-10-31T19:00:00Z,CWIJ 311900Z AUTO 06002KT M18/M20 RMK AO1 SOG 06 3009 SLP133 T11811195
CWIK,2022-10-31T19:00:00Z,CWIK 311900Z AUTO 30007KT 08/M02 RMK AO1 SLP065 T00801015 53004
CWIL,2022-10-31T19:27:00Z,CWIL 311927Z AUTO ///// ////SM BKN009 BKN012 ///// A////
CWIP,2022-10-31T19:00:00Z,CWIP 311900Z AUTO 28002KT 13/M02 RMK AO1 T01331018
CWIS,2022-10-31T19:00:00Z,CWIS 311900Z AUTO 22004KT 11/M01 RMK AO1 SLP136 T01121008 56014
CWIT,2022-10-31T19:00:00Z,CWIT 311900Z AUTO 09003KT 15/03 RMK AO1 SLP126 T01460026 56020
CWIW,2022-10-31T19:00:00Z,CWIW 311900Z AUTO 30009KT 07/M05 RMK AO1 PK WND 30017/1801 SLP063 T00721051 53004
CWIX,2022-10-31T19:00:00Z,CWIX 311900Z AUTO 03004KT 12/05 RMK AO1 SLP128 T01150047 58014
CWIZ,2022-10-31T19:00:00Z,CWIZ 311900Z AUTO 20005KT 14/04 RMK AO1 T01390039
CWJB,2022-10-31T19:00:00Z,CWJB 311900Z AUTO 34007KT 14/M00 RMK AO1 T01351001
CWJC,2022-10-31T19:00:00Z,CWJC 311900Z AUTO 36032G38KT M15/M18 RMK AO1 PK WND 00038/1853 SLP991 T11531178 51031
CWJD,2022-10-31T19:00:00Z,CWJD 311900Z AUTO 26008G16KT 09/M00 RMK AO1 PK WND 27020/1831 SLP993 T00871002 51021
CWJH,2022-10-31T19:00:00Z,CWJH 311900Z AUTO 31008G17KT 02/M02 RMK AO1 PK WND 27019/1821 SLP983 T00191020 53026
CWJI,2022-10-31T19:00:00Z,CWJI 311900Z AUTO 05004KT 08/01 RMK AO1 SLP065 T00760012 58007
CWJO,2022-10-31T19:00:00Z,CWJO 311900Z AUTO 10003KT 13/03 RMK AO1 SLP127 T01310027 56018
CWJR,2022-10-31T19:00:00Z,CWJR 311900Z AUTO 09002KT 09/08 RMK AO1 3PAST HR 7011 SLP070 P0001 T00860075 50003
CWJT,2022-10-31T19:00:00Z,CWJT 311900Z AUTO 26001KT 14/07 RMK AO1 SLP133 T01370070 56014
CWJU,2022-10-31T19:00:00Z,CWJU 311900Z AUTO 21010G17KT 04/01 RMK AO1 PK WND 19017/1856 SLP022 T00390011 51005
CWJV,2022-10-31T19:00:00Z,CWJV 311900Z AUTO 11007KT 10/06 RMK AO1 SLP036 T00970056 58015
CWJW,2022-10-31T19:00:00Z,CWJW 311900Z AUTO 27001KT 02/M00 RMK AO1 SLP028 T00211002 57019
CWJX,2022-10-31T19:00:00Z,CWJX 311900Z AUTO 06006KT 07/M04 RMK AO1 SLP061 T00671035 56007
CWKD,2022-10-31T19:00:00Z,CWKD 311900Z AUTO 06/01 RMK AO1 SLP134 T00640011 56015
CWKH,2022-10-31T19:00:00Z,CWKH 311900Z AUTO 08/05 RMK AO1 SLP083 T00780049 53020
CWKK,2022-10-31T19:00:00Z,CWKK 311900Z AUTO 19004KT 13/ RMK AO1 SLP048 T0125 58030
CWKM,2022-10-31T19:00:00Z,CWKM 311900Z AUTO 12010KT ////SM FEW018 BKN026 M15/M19 A3013
CWKO,2022-10-31T19:00:00Z,CWKO 311900Z AUTO 22010KT 12/M00 RMK AO1 SLP059 T01241002 58013
CWKP,2022-10-31T19:00:00Z,CWKP 311900Z AUTO 05013KT ////SM OVC004 M15/M17 A2988
CWKX,2022-10-31T19:00:00Z,CWKX 311900Z AUTO 24001KT M04/M06 RMK AO1 SOG 02 3013 SLP030 T10401059
CWLB,2022-10-31T19:00:00Z,CWLB 311900Z AUTO 28007KT 05/ RMK AO1 SLP048 T0053 50001
CWLC,2022-10-31T19:00:00Z,CWLC 311900Z AUTO 13015KT 04/02 RMK AO1 PK WND 13024/1822 T00380020
CWLE,2022-10-31T19:00:00Z,CWLE 311900Z AUTO 22004KT 06/M02 RMK AO1 SLP068 T00621024 58004
CWLI,2022-10-31T19:41:00Z,CWLI 311941Z AUTO 04012KT ////SM FEW005 OVC016 M13/M15 A3007
CWLM,2022-10-31T19:00:00Z,CWLM 311900Z AUTO 25014G19KT 10/06 RMK AO1 PK WND 26024/1821 SLP096 T01010061 53024
CWLS,2022-10-31T19:00:00Z,CWLS 311900Z AUTO 19004KT 12/11 RMK AO1 SLP103 T01170110 56018
CWLX,2022-10-31T19:00:00Z,CWLX 311900Z AUTO ///// ////SM ////// M13/M15 A2957
CWLY,2022-10-31T19:00:00Z,CWLY 311900Z AUTO 19018G29KT 9SM SCT071 BKN085 10/05 A2958 RMK SLP022
CWME,2022-10-31T19:00:00Z,CWME 311900Z AUTO 21002KT 04/02 RMK AO1 6PAST HR 3004 SLP080 P0002 T00370015 50006
CWMJ,2022-10-31T19:00:00Z,CWMJ 311900Z AUTO 14001KT 11/03 RMK AO1 SLP127 T01130029 58016
CWMM,2022-10-31T19:00:00Z,CWMM 311900Z AUTO 26004KT 12/09 RMK AO1 SLP082 T01180089 53015
CWMQ,2022-10-31T19:00:00Z,CWMQ 311900Z AUTO 08004KT 09/03 RMK AO1 SLP049 T00850031 58008
CWMT,2022-10-31T19:00:00Z,CWMT 311900Z AUTO 08003KT M09/M11 RMK AO1 1PAST HR SOG 08 3012 SLP083 P0000 T10901109 50001
CWMZ,2022-10-31T19:00:00Z,CWMZ 311900Z AUTO 13003KT 12/ RMK AO1 SLP108 T0119 56018
CWNC,2022-10-31T19:00:00Z,CWNC 311900Z AUTO 12006KT 12/08 RMK AO1 SLP116 T01210075 56026
CWND,2022-10-31T19:00:00Z,CWND 311900Z AUTO 06007KT M13/M16 RMK AO1 SLP175 T11341161 53016
CWNE,2022-10-31T19:00:00Z,CWNE 311900Z AUTO 22011KT 12/07 RMK AO1 SLP140 T01150070 55000
CWNH,2022-10-31T19:00:00Z,CWNH 311900Z AUTO 29002KT 12/01 RMK AO1 SLP131 T01180013 56019
CWNK,2022-10-31T19:00:00Z,CWNK 311900Z AUTO 28010G16KT 14/02 RMK AO1 PK WND 28018/1845 SLP038 T01410015 51003
CWNM,2022-10-31T19:00:00Z,CWNM 311900Z AUTO 25006KT 08/08 RMK AO1 2PAST HR 6010 SLP069 P0001 T00750075 50002
CWNP,2022-10-31T19:00:00Z,CWNP 311900Z AUTO 16003KT 07/07 RMK AO1 6PAST HR 8010 SLP056 P0002 T00730073 50006
CWNQ,2022-10-31T19:00:00Z,CWNQ 311900Z AUTO 30001KT 12/05 RMK AO1 SLP133 T01200047 56019
CWNZ,2022-10-31T19:00:00Z,CWNZ 311900Z AUTO 19006KT 13/03 RMK AO1 SLP065 T01300031 58025
CWOB,2022-10-31T19:00:00Z,CWOB 311900Z AUTO 36017KT ////SM NCD M08/M09 A2952
CWOC,2022-10-31T19:00:00Z,CWOC 311900Z AUTO 27005KT 14/03 RMK AO1 SLP129 T01440034 51001
CWOD,2022-10-31T19:00:00Z,CWOD 311900Z AUTO 07003KT 11/05 RMK AO1 SLP127 T01070048 56020
CWOE,2022-10-31T19:00:00Z,CWOE 311900Z AUTO 24015KT 14/02 RMK AO1 PK WND 25024/1816 SLP039 T01430023 57007
CWOY,2022-10-31T19:00:00Z,CWOY 311900Z AUTO 27005KT 06/M05 RMK AO1 SLP056 T00641053 50005
CWPC,2022-10-31T19:00:00Z,CWPC 311900Z AUTO 16003KT 13/12 RMK AO1 SLP123 T01270115 56018
CWPD,2022-10-31T19:00:00Z,CWPD 311900Z AUTO 19003KT 12/01 RMK AO1 SLP117 T01220005 56012
CWPF,2022-10-31T19:30:00Z,CWPF 311930Z AUTO 24009KT 10/06 RMK AO1 SLP098 T01040060 52019
CWPK,2022-10-31T19:00:00Z,CWPK 311900Z AUTO 28001KT 11/04 RMK AO1 SLP127 T01110043 58015
CWPO,2022-10-31T19:00:00Z,CWPO 311900Z AUTO 28011KT 12/02 RMK AO1 SLP059 T01240020 58002
CWPR,2022-10-31T19:00:00Z,CWPR 311900Z AUTO 13001KT 07/05 RMK AO1 SOG 01 6019 SLP040 T00720047
CWPX,2022-10-31T19:20:00Z,CWPX 311920Z AUTO 34015KT ////SM //// FEW003 M25/M28 A2981
CWPZ,2022-10-31T19:00:00Z,CWPZ 311900Z AUTO 30004KT 01/M04 RMK AO1 SLP038 T00111038 52005
CWQH,2022-10-31T19:00:00Z,CWQH 311900Z AUTO 04004KT 14/02 RMK AO1 SLP135 T01440015 56024
CWQK,2022-10-31T19:00:00Z,CWQK 311900Z AUTO 26021KT 10/ RMK AO1 PK WND 26028/1821 SLP092 T0102 53022
CWQO,2022-10-31T19:00:00Z,CWQO 311900Z AUTO 22006KT 08/03 RMK AO1 T00770032
CWQP,2022-10-31T19:00:00Z,CWQP 311900Z AUTO 00000KT 12/10 RMK AO1 6PAST HR 8022 SLP126 P0002 T01180101 50006
CWQR,2022-10-31T19:00:00Z,CWQR 311900Z AUTO 26011KT 08/04 RMK AO1 T00770043
CWQS,2022-10-31T19:00:00Z,CWQS 311900Z AUTO 19003KT 04/02 RMK AO1 PK WND 27022/1814 SLP037 T00390019 53006
CWQV,2022-10-31T19:00:00Z,CWQV 311900Z AUTO 10002KT 09/04 RMK AO1 T00880042
CWRA,2022-10-31T19:00:00Z,CWRA 311900Z AUTO 00022KT 12/09 RMK AO1 SLP125 T01200093 56015
CWRH,2022-10-31T19:00:00Z,CWRH 311900Z AUTO 29042G50KT ////SM ////// ///// A2958
CWRJ,2022-10-31T19:00:00Z,CWRJ 311900Z AUTO 29006KT 08/M08 RMK AO1 SLP060 T00821077 58001
CWRK,2022-10-31T19:00:00Z,CWRK 311900Z AUTO 07001KT 11/08 RMK AO1 SLP119 T01100077 58023
CWRM,2022-10-31T19:00:00Z,CWRM 311900Z AUTO 17013KT 01/M01 RMK AO1 SOG 03 8022 PK WND 17017/1851 SLP031 T00131007
CWRN,2022-10-31T19:00:00Z,CWRN 311900Z AUTO 22011KT 15/08 RMK AO1 SLP148 T01480082 55007
CWRO,2022-10-31T19:00:00Z,CWRO 311900Z AUTO 20009KT 04/ RMK AO1 SLP032 T0040 51004
CWRT,2022-10-31T19:00:00Z,CWRT 311900Z AUTO 15003KT 05/04 RMK AO1 2PAST HR 8004 SLP060 P0001 T00510041 50002
CWRU,2022-10-31T19:00:00Z,CWRU 311900Z AUTO 01006KT 06/ RMK AO1 SLP099 T0059 51015
CWRX,2022-10-31T19:00:00Z,CWRX 311900Z AUTO ///// ////SM OVC021 M13/M16 A2958
CWRY,2022-10-31T19:00:00Z,CWRY 311900Z AUTO 34007KT 09/03 RMK AO1 SLP052 T00910028 51003
CWRZ,2022-10-31T19:00:00Z,CWRZ 311900Z AUTO 22004KT 10/05 RMK AO1 SLP128 T01020052 53010
CWSA,2022-10-31T19:00:00Z,CWSA 311900Z AUTO 24010KT 9SM FEW240 15/12 A3003 RMK SLP172
CWSD,2022-10-31T19:00:00Z,CWSD 311900Z AUTO 23006KT 16/03 RMK AO1 SLP146 T01550029 56006
CWSF,2022-10-31T19:00:00Z,CWSF 311900Z AUTO 28011KT 10/03 RMK AO1 SLP133 T00960029 51006
CWSG,2022-10-31T19:00:00Z,CWSG 311900Z AUTO 08/04 RMK AO1 SLP137 T00830038 58002
CWSK,2022-10-31T19:00:00Z,CWSK 311900Z AUTO 19005KT 11/09 RMK AO1 2PAST HR 3011 SLP059 P0001 T01130088 50002
CWSL,2022-10-31T19:00:00Z,CWSL 311900Z AUTO 34002KT 11/05 RMK AO1 SLP033 T01070053 58020
CWSP,2022-10-31T19:00:00Z,CWSP 311900Z AUTO 26024KT 09/06 RMK AO1 PK WND 27029/1851 SLP097 T00900059 53016
CWSR,2022-10-31T19:00:00Z,CWSR 311900Z AUTO 28011KT 06/M07 RMK AO1 SLP049 T00611074 53005
CWSS,2022-10-31T19:00:00Z,CWSS 311900Z AUTO 17003KT 20/04 RMK AO1 SLP144 T01960043 56020
CWST,2022-10-31T19:00:00Z,CWST 311900Z AUTO 31001KT 13/03 RMK AO1 SLP126 T01250031 57018
CWSW,2022-10-31T19:00:00Z,CWSW 311900Z 17009G16KT 12SM -RA FEW008 BKN030 OVC043 06/04 A2966 RMK SF1ST5SC2 SLP062 DENSITY ALT 4000FT
CWTA,2022-10-31T19:00:00Z,CWTA 311900Z AUTO 17002KT 15/02 RMK AO1 SLP131 T01520022 56016
CWTG,2022-10-31T19:00:00Z,CWTG 311900Z AUTO 26012KT 07/04 RMK AO1 SLP134 T00690040 58002
CWTN,2022-10-31T19:00:00Z,CWTN 311900Z AUTO 25004KT 16/02 RMK AO1 SLP129 T01560024 57019
CWTT,2022-10-31T19:00:00Z,CWTT 311900Z AUTO 00000KT 15/M05 RMK AO1 T01511052
CWTY,2022-10-31T19:00:00Z,CWTY 311900Z AUTO 25002KT 14/01 RMK AO1 SLP137 T01360009 56020
CWUS,2022-10-31T19:00:00Z,CWUS 311900Z AUTO 13012G20KT 12/06 RMK AO1 PK WND 16020/1821 SLP037 T01210059 58022
CWUW,2022-10-31T19:00:00Z,CWUW 311900Z AUTO 26010KT ////SM OVC039 M20/M22 A2946
CWUX,2022-10-31T19:00:00Z,CWUX 311900Z AUTO 03003KT 12/03 RMK AO1 SLP135 T01150027 55012
CWVF,2022-10-31T19:00:00Z,CWVF 311900Z AUTO 30009KT 11/08 RMK AO1 T01060083
CWVH,2022-10-31T19:00:00Z,CWVH 311900Z AUTO 36007KT ////SM FEW013 OVC020 M14/M15 A3001
CWVI,2022-10-31T19:00:00Z,CWVI 311900Z AUTO 28007KT 05/M08 RMK AO1 SLP057 T00541081 58001
CWVN,2022-10-31T19:00:00Z,CWVN 311900Z AUTO 22009KT 14/02 RMK AO1 SLP046 T01390017 58012
CWVP,2022-10-31T19:00:00Z,CWVP 311900Z AUTO 16006KT 08/02 RMK AO1 SLP034 T00830018 57010
CWVQ,2022-10-31T19:00:00Z,CWVQ 311900Z AUTO 33003KT 14/03 RMK AO1 SLP134 T01440034 55013
CWVT,2022-10-31T19:00:00Z,CWVT 311900Z AUTO 30006KT 02/M04 RMK AO1 SLP054 T00231043 51021
CWVU,2022-10-31T19:00:00Z,CWVU 311900Z AUTO 16010KT 14/09 RMK AO1 SLP164 T01430093 56013
CWWA,2022-10-31T19:00:00Z,CWWA 311900Z AUTO 28002KT 11/09 RMK AO1 SLP076 T01110088 53013
CWWB,2022-10-31T19:00:00Z,CWWB 311900Z AUTO 00000KT 07/07 RMK AO1 SLP114 T00740071 58021
CWWE,2022-10-31T19:00:00Z,CWWE 311900Z AUTO 20014KT 15/12 RMK AO1 PK WND 20017/1857 SLP165 T01530122 56014
CWWF,2022-10-31T19:00:00Z,CWWF 311900Z AUTO 31004KT 10/M00 RMK AO1 SLP066 T01011001 50001
CWWK,2022-10-31T19:00:00Z,CWWK 311900Z AUTO 22003KT 13/08 RMK AO1 SLP089 T01270084 53021
CWWL,2022-10-31T19:00:00Z,CWWL 311900Z AUTO 22012KT 06/02 RMK AO1 SLP043 T00580024 51001
CWWS,2022-10-31T19:00:00Z,CWWS 311900Z AUTO 28012G19KT 09/01 RMK AO1 PK WND 28019/1850 SLP988 T00860014 51018
CWWZ,2022-10-31T19:00:00Z,CWWZ 311900Z AUTO 22001KT 11/10 RMK AO1 SLP108 T01080099 58020
CWXA,2022-10-31T19:00:00Z,CWXA 311900Z AUTO 00036KT 03/M01 RMK AO1 SLP067 T00281011 58012
CWXC,2022-10-31T19:00:00Z,CWXC 311900Z AUTO 19003KT 14/04 RMK AO1 SLP127 T01380042 56018
CWXI,2022-10-31T19:00:00Z,CWXI 311900Z AUTO 25015G20KT 10/07 RMK AO1 PK WND 23022/1829 SLP042 T01010067 53029
CWXL,2022-10-31T19:00:00Z,CWXL 311900Z AUTO 26003KT 10/02 RMK AO1 SLP050 T01000015 58004
CWYJ,2022-10-31T19:00:00Z,CWYJ 311900Z AUTO 24003KT 11/06 RMK AO1 SLP099 T01060064 53025
CWYL,2022-10-31T19:00:00Z,CWYL 311900Z AUTO 26008KT 03/M01 RMK AO1 SOG 04 8011 SLP030 T00251006
CWYY,2022-10-31T19:00:00Z,CWYY 311900Z AUTO 13006KT 13/07 RMK AO1 SLP046 T01310069 58013
CWZA,2022-10-31T19:00:00Z,CWZA 311900Z AUTO 06004KT 09/09 RMK AO1 5PAST HR 3014 SLP077 P0006 T00940086 50015
CWZG,2022-10-31T19:00:00Z,CWZG 311900Z AUTO 11002KT 03/02 RMK AO1 SLP037 T00250018 58009
CWZL,2022-10-31T19:00:00Z,CWZL 311900Z AUTO 19009KT 05/02 RMK AO1 SLP057 T00470021 55000
CWZN,2022-10-31T19:00:00Z,CWZN 311900Z AUTO 24028G33KT 11/10 RMK AO1 PK WND 23035/1806 SLP097 T01050099 55017
CWZO,2022-10-31T19:00:00Z,CWZO 311900Z AUTO 24010KT RMK AO1 PK WND 25021/1819
CWZQ,2022-10-31T19:00:00Z,CWZQ 311900Z AUTO 22009KT 15/09 RMK AO1 SLP152 T01450092 53001
CWZW,2022-10-31T19:00:00Z,CWZW 311900Z AUTO 28002KT M05/M07 RMK AO1 SOG 05 3015 SLP027 T10491074
CXAF,2022-10-31T19:00:00Z,CXAF 311900Z AUTO 27005KT 04/M08 RMK AO1 T00431075
CXAG,2022-10-31T19:00:00Z,CXAG 311900Z AUTO 26006KT 04/M07 RMK AO1 T00361068
CXAJ,2022-10-31T19:00:00Z,CXAJ 311900Z AUTO 25007KT 06/M08 RMK AO1 T00551082
CXAK,2022-10-31T19:00:00Z,CXAK 311900Z AUTO 24007KT 05/M03 RMK AO1 T00451033
CXAT,2022-10-31T19:00:00Z,CXAT 311900Z AUTO 10006KT M15/M18 RMK AO1 SOG 04 1011 SLP977 T11501175
CXBA,2022-10-31T19:00:00Z,CXBA 311900Z AUTO 24005KT 06/M05 RMK AO1 T00581051
CXBI,2022-10-31T19:00:00Z,CXBI 311900Z AUTO 12004KT 10/09 RMK AO1 SLP115 T01010091 56025
CXBK,2022-10-31T19:00:00Z,CXBK 311900Z AUTO 32006KT 07/M00 RMK AO1 SOG 01 1006 SLP076 T00701002
CXBO,2022-10-31T19:00:00Z,CXBO 311900Z AUTO 24005KT 16/01 RMK AO1 T01640006
CXBR,2022-10-31T19:00:00Z,CXBR 311900Z AUTO 21006KT RMK AO1
CXBW,2022-10-31T19:00:00Z,CXBW 311900Z AUTO 22004KT 08/02 RMK AO1 T00820020
CXCA,2022-10-31T19:00:00Z,CXCA 311900Z AUTO 16009G15KT 11/04 RMK AO1 SLP060 T01050040 58030
CXCD,2022-10-31T19:00:00Z,CXCD 311900Z AUTO 09001KT 03/M06 RMK AO1 T00261063
CXCK,2022-10-31T19:00:00Z,CXCK 311900Z AUTO 34004KT M07/M11 RMK AO1 SOG 06 3026 SLP070 T10651108
CXCP,2022-10-31T19:00:00Z,CXCP 311900Z AUTO 12005KT 04/M01 RMK AO1 T00391014
CXCS,2022-10-31T19:00:00Z,CXCS 311900Z AUTO 31006KT 05/M06 RMK AO1 T00531055
CXDB,2022-10-31T19:00:00Z,CXDB 311900Z AUTO 30005KT 08/02 RMK AO1 T00780019
CXDE,2022-10-31T19:00:00Z,CXDE 311900Z AUTO 34011KT M10/M12 RMK AO1 SOG 11 3020 PK WND 02017/1836 SLP111 T10981122
CXDI,2022-10-31T19:00:00Z,CXDI 311900Z AUTO 20004KT 14/13 RMK AO1 SLP105 T01430126 57019
CXDK,2022-10-31T19:00:00Z,CXDK 311900Z AUTO M06/M09 RMK AO1 SOG 08 3018 SLP074 T10571093
CXDW,2022-10-31T19:00:00Z,CXDW 311900Z AUTO 26016G21KT 13/02 RMK AO1 PK WND 26021/1855 SLP040 T01340021 51006
CXEA,2022-10-31T19:00:00Z,CXEA 311900Z AUTO 24009G16KT 10/02 RMK AO1 PK WND 23017/1836 SLP001 T01040017 58006
CXEC,2022-10-31T19:00:00Z,CXEC 311900Z AUTO 19004KT 07/M09 RMK AO1 SLP046 T00701092 58012
CXEG,2022-10-31T19:00:00Z,CXEG 311900Z AUTO 18010KT 06/M06 RMK AO1 SLP051 T00561055 58010
CXET,2022-10-31T19:00:00Z,CXET 311900Z AUTO 17005KT 11/10 RMK AO1 2PAST HR 6022 SLP110 P0001 T01110104 50002
CXFM,2022-10-31T19:00:00Z,CXFM 311900Z AUTO 26008KT 09/02 RMK AO1 T00860022
CXFR,2022-10-31T19:00:00Z,CXFR 311900Z AUTO 27003KT 03/M07 RMK AO1 T00271067
CXGH,2022-10-31T19:00:00Z,CXGH 311900Z AUTO 27007KT 10/02 RMK AO1 SLP018 T00970021 51009
CXHA,2022-10-31T19:00:00Z,CXHA 311900Z AUTO 22005KT 16/15 RMK AO1 SLP094 T01590146 56013
CXHD,2022-10-31T19:00:00Z,CXHD 311900Z AUTO 27007KT 06/M08 RMK AO1 T00591076
CXHM,2022-10-31T19:00:00Z,CXHM 311900Z AUTO 14002KT 09/08 RMK AO1 SLP113 T00930081 58021
CXHP,2022-10-31T19:00:00Z,CXHP 311900Z AUTO 27005KT 05/M08 RMK AO1 T00501079
CXHR,2022-10-31T19:00:00Z,CXHR 311900Z AUTO 03002KT 04/M04 RMK AO1 T00431038
CXIB,2022-10-31T19:00:00Z,CXIB 311900Z AUTO 25003KT 17/03 RMK AO1 SLP126 T01680028 53004
CXKA,2022-10-31T19:00:00Z,CXKA 311900Z AUTO 22005KT 14/05 RMK AO1 SLP074 T01350054 56025
CXKE,2022-10-31T19:00:00Z,CXKE 311900Z AUTO 17002KT 15/06 RMK AO1 SLP127 T01460058 58017
CXKI,2022-10-31T19:00:00Z,CXKI 311900Z AUTO 00018KT 11/05 RMK AO1 SLP093 T01110053 57023
CXKM,2022-10-31T19:00:00Z,CXKM 311900Z AUTO 24008KT 06/M04 RMK AO1 T00551039
CXKT,2022-10-31T19:00:00Z,CXKT 311900Z AUTO 28003KT 18/M00 RMK AO1 SLP154 T01831001 56013
CXLB,2022-10-31T19:00:00Z,CXLB 311900Z AUTO 26007KT 18/06 RMK AO1 SLP161 T01790056 56011
CXLL,2022-10-31T19:00:00Z,CXLL 311900Z AUTO 36004KT M06/M08 RMK AO1 SOG 21 3017 SLP084 T10571081
CXMD,2022-10-31T19:00:00Z,CXMD 311900Z AUTO 26011G17KT 13/03 RMK AO1 PK WND 27023/1815 SLP038 T01250031 50000
CXMG,2022-10-31T19:00:00Z,CXMG 311900Z AUTO 36003KT 01/M03 RMK AO1 T00051029
CXMI,2022-10-31T19:00:00Z,CXMI 311900Z AUTO 25006KT 17/07 RMK AO1 SLP159 T01690074 56011
CXMM,2022-10-31T19:00:00Z,CXMM 311900Z AUTO 02006KT 02/M03 RMK AO1 SLP042 T00201028 51014
CXMO,2022-10-31T19:00:00Z,CXMO 311900Z AUTO 18003KT 06/M04 RMK AO1 T00571042
CXMY,2022-10-31T19:00:00Z,CXMY 311900Z AUTO 17/06 RMK AO1 T01740059
CXNM,2022-10-31T19:00:00Z,CXNM 311900Z AUTO 27016G21KT 10/04 RMK AO1 PK WND 25023/1801 T01030040
CXNP,2022-10-31T19:00:00Z,CXNP 311900Z AUTO 29009KT 16/10 RMK AO1 SLP149 T01580104 55007
CXOL,2022-10-31T19:00:00Z,CXOL 311900Z AUTO 11005KT 03/M06 RMK AO1 T00251056
CXOX,2022-10-31T19:00:00Z,CXOX 311900Z AUTO 31012G20KT 04/M06 RMK AO1 PK WND 31022/1813 SLP017 T00401056 51022
CXOY,2022-10-31T19:00:00Z,CXOY 311900Z AUTO 36005KT 06/M05 RMK AO1 T00581049
CXPA,2022-10-31T19:00:00Z,CXPA 311900Z AUTO 17003KT 04/M06 RMK AO1 T00421055
CXPC,2022-10-31T19:00:00Z,CXPC 311900Z AUTO 14/08 RMK AO1 SLP105 T01350078 58020
CXPL,2022-10-31T19:00:00Z,CXPL 311900Z AUTO 04005KT 06/M03 RMK AO1 T00621034
CXRB,2022-10-31T19:00:00Z,CXRB 311900Z AUTO 04013KT M20/M24 RMK AO1 SOG 03 3003 SLP001 T12011236
CXRH,2022-10-31T19:00:00Z,CXRH 311900Z AUTO 27009G16KT 10/06 RMK AO1 PK WND 29018/1815 SLP090 T01000059 53014
CXRL,2022-10-31T19:00:00Z,CXRL 311900Z AUTO 27007KT 04/M08 RMK AO1 T00431083
CXSC,2022-10-31T19:00:00Z,CXSC 311900Z AUTO 08008KT 05/01 RMK AO1 T00510006
CXSE,2022-10-31T19:00:00Z,CXSE 311900Z AUTO 34021G27KT M19/M21 RMK AO1 SOG 05 3007 PK WND 34029/1837 SLP065 T11891214
CXSH,2022-10-31T19:00:00Z,CXSH 311900Z AUTO 18005KT 12/04 RMK AO1 SLP136 T01240035 56017
CXSL,2022-10-31T19:00:00Z,CXSL 311900Z AUTO 30007KT 05/M08 RMK AO1 T00501078
CXSP,2022-10-31T19:00:00Z,CXSP 311900Z AUTO 23006KT 03/M04 RMK AO1 T00311044
CXTD,2022-10-31T19:00:00Z,CXTD 311900Z AUTO 29005KT 18/M00 RMK AO1 SLP160 T01801001 56009
CXTH,2022-10-31T19:00:00Z,CXTH 311900Z AUTO 27009KT 05/M08 RMK AO1 T00491080
CXTN,2022-10-31T19:00:00Z,CXTN 311900Z AUTO 03002KT M17/M19 RMK AO1 SOG 21 3014 SLP166 T11661187
CXTO,2022-10-31T19:00:00Z,CXTO 311900Z AUTO 11/08 RMK AO1 SLP111 T01130081 56021
CXTP,2022-10-31T19:00:00Z,CXTP 311900Z AUTO 25010KT 14/04 RMK AO1 PK WND 24024/1845 SLP070 T01390039 55013
CXTV,2022-10-31T19:00:00Z,CXTV 311900Z AUTO 33007KT M11/M13 RMK AO1 SOG 10 3014 SLP195 T11121131
CXVM,2022-10-31T19:00:00Z,CXVM 311900Z AUTO 27005KT 06/M08 RMK AO1 T00571080
CXVN,2022-10-31T19:00:00Z,CXVN 311900Z AUTO 33003KT 10/08 RMK AO1 SLP109 T00960082 57022
CXVW,2022-10-31T19:00:00Z,CXVW 311900Z AUTO 15008KT 04/M08 RMK AO1 SLP031 T00391077 57003
CXWM,2022-10-31T19:00:00Z,CXWM 311900Z AUTO 27010KT 07/01 RMK AO1 T00700010
CXWN,2022-10-31T19:00:00Z,CXWN 311900Z AUTO 23004KT 11/02 RMK AO1 SLP034 T01080020 53006
CXYH,2022-10-31T19:00:00Z,CXYH 311900Z AUTO 04002KT M05/M08 RMK AO1 SLP072 T10491081 53018
CXZC,2022-10-31T19:00:00Z,CXZC 311900Z AUTO 12002KT 12/02 RMK AO1 SLP061 T01200017 58029
CXZV,2022-10-31T19:00:00Z,CXZV 311900Z AUTO 07002KT 13/M02 RMK AO1 SLP126 T01301017 53005
CYAB,2022-10-31T19:00:00Z,CYAB 311900Z 08008KT 5SM -SN OVC020 M15/M18 A2944 RMK NS8 CIG EST SLP975
CYAH,2022-10-31T19:00:00Z,CYAH 311900Z AUTO 14005KT 9SM OVC025 05/M00 A2984 RMK SLP121
CYAM,2022-10-31T19:00:00Z,CYAM 311900Z 04006KT 15SM FEW110 SCT250 15/09 A2977 RMK AC1CI3 SLP088 DENSITY ALT 1000FT
CYAS,2022-10-31T19:00:00Z,CYAS 311900Z 30010KT 15SM FEW026 M04/M10 A2984 RMK SC2 LAST STFD OBS/NEXT 011200UTC SLP118
CYAT,2022-10-31T19:00:00Z,CYAT 311900Z AUTO 19009KT 160V230 9SM CLR 11/M00 A2963 RMK SLP036
CYAW,2022-10-31T19:00:00Z,CYAW 311900Z 22007KT 15SM FEW250 17/07 A3001 RMK CI2 DENSITY ALT 457FT SLP164
CYAY,2022-10-31T19:00:00Z,CYAY 311900Z AUTO 25016G24KT 9SM FEW066 10/05 A2961 RMK SLP031
CYAZ,2022-10-31T19:00:00Z,CYAZ 311900Z 29013G20KT 15SM SCT017 10/06 A2982 RMK CU3 SLP099
CYBB,2022-10-31T19:00:00Z,CYBB 311900Z 25008KT 15SM BKN028 M16/M20 A2970 RMK SC7 SLP060
CYBC,2022-10-31T19:00:00Z,CYBC 311900Z AUTO 23009KT 9SM CLR 10/05 A2991 RMK SLP133
CYBD,2022-10-31T19:00:00Z,CYBD 311900Z 27002KT 15SM FEW025 FEW055 FEW080 SCT200 06/03 A2975 RMK CU2CU1AC1CI2 CU TR AC TR VIS LWR W WIND ESTD SLP077
CYBG,2022-10-31T19:00:00Z,CYBG 311900Z 08003KT 25SM SCT120 BKN150 BKN210 13/03 A2990 RMK AC3AC2CI2 SLP131
CYBK,2022-10-31T19:00:00Z,CYBK 311900Z 36026G33KT 3/8SM -SN BLSN SCT042 BKN069 BKN140 M15/M17 A2953 RMK BLSN1SC3AC1CI1 CI TR SLP005
CYBL,2022-10-31T19:00:00Z,CYBL 311900Z 31009G16KT 280V340 30SM FEW006 FEW034 SCT090 08/04 A2977 RMK CF1CU1AC1 SLP087
CYBQ,2022-10-31T19:00:00Z,CYBQ 311900Z AUTO /////KT 9SM BKN011 OVC019 M05/M06 A2920 RMK WIND MISG SLP908
CYBR,2022-10-31T19:18:00Z,CYBR 311918Z 29009G15KT 15SM SCT170 BKN250 12/01 A2964 RMK AC3CI4 SLP053 DENSITY ALT 1600FT
CYBU,2022-10-31T19:00:00Z,CYBU 311900Z AUTO 27016G23KT 9SM FEW140 A2957 RMK T MISG DP MISG DENSITY ALT MISG
CYBV,2022-10-31T19:00:00Z,CYBV 311900Z 27009KT 15SM BKN150 BKN160 08/03 A2952 RMK AC5AC1 SLP006
CYBW,2022-10-31T19:00:00Z,CYBW 311900Z AUTO 16013KT 9SM OVC019 02/M02 A2963 RMK SLP070
CYBX,2022-10-31T19:00:00Z,CYBX 311900Z 33020G30KT 15SM SCT041 BKN064 09/03 A2967 RMK SC3SC4 PRESRR SLP051
CYCA,2022-10-31T19:01:00Z,CYCA 311901Z AUTO 32010G16KT 9SM SCT047 OVC086 01/00 A2974 RMK SLP075
CYCB,2022-10-31T19:40:00Z,CYCB 311940Z 31012KT 4SM BR SCT004 OVC015 M21/M24 A2986 RMK SF4SC4 SLP120
CYCD,2022-10-31T19:00:00Z,CYCD 311900Z 26009KT 240V330 25SM BKN045 BKN250 12/02 A2977 RMK CU5CI1 SLP084
CYCG,2022-10-31T19:00:00Z,CYCG 311900Z VRB02KT 9SM -RA FEW001 FEW008 SCT025 BKN034 OVC090 08/08 A2971 RMK SF1CF1SC2SC4AC1 SF TR VIS S 6 LO CLD S SLP071
CYCK,2022-10-31T19:42:00Z,CYCK 311942Z AUTO 22012KT 9SM SCT005 16/15 A2980 RMK SLP094 DENSITY ALT 1000FT
CYCO,2022-10-31T19:13:00Z,CYCO 311913Z 24010KT 4SM -SG OVC019 M17/M19 A2996 RMK SC8 SLP152
CYCP,2022-10-31T19:00:00Z,CYCP 311900Z VRB02KT 5SM BR FEW004 SCT022 BKN060 BKN095 04/03 A2956 RMK SF2SC2CU2AC1 SLP032
CYCQ,2022-10-31T19:00:00Z,CYCQ 311900Z VRB02KT 35SM FEW040 SCT060 BKN130 OVC140 OVC200 00/M05 A2951 RMK SC1SC3AC2AS2CI1 CI TR PCPN DIST N+W ROTOR CLDS NE+SE VIRGA S-NW SUN DIMLY VISBL SLP023
CYCX,2022-10-31T19:00:00Z,CYCX 311900Z 19002KT 15SM FEW200 SCT230 17/M01 A2995 RMK CI1CI2 DENSITY ALT 531FT SLP142
CYCY,2022-10-31T19:00:00Z,CYCY 311900Z 25009KT 15SM FEW015 SCT040 BKN050 M11/M16 A2938 RMK SF1SC4SC3 SF TR SLP954
CYDA,2022-10-31T19:00:00Z,CYDA 311900Z 00000KT 6SM -SN OVC029 M13/M15 A2977 RMK SC8 SLP118
CYDB,2022-10-31T19:00:00Z,CYDB 311900Z 30011KT 10SM OVC039 M13/M17 A2964 RMK SC8 SLP102
CYDC,2022-10-31T19:30:00Z,CYDC 311930Z VRB02KT 15SM FEW039 SCT049 BKN072 BKN200 08/05 A2963 RMK SC1SC2AC3CI1 CI TR SLP044 DENSITY ALT 2400FT
CYDF,2022-10-31T19:00:00Z,CYDF 311900Z 25019G26KT 15SM FEW035 SCT220 12/04 A2977 RMK SC2CI2 SLP083
CYDL,2022-10-31T19:00:00Z,CYDL 311900Z AUTO 00000KT 9SM FEW045 BKN060 BKN075 M04/M06 A2949 RMK SLP015
CYDN,2022-10-31T19:00:00Z,CYDN 311900Z AUTO 26014G19KT 9SM CLR 12/01 A2958 RMK SLP027 DENSITY ALT 1300FT
CYDP,2022-10-31T19:00:00Z,CYDP 311900Z 29013G22KT 15SM FEW024 02/M06 A2979 RMK SC2 PRESRR SLP092
CYDQ,2022-10-31T19:00:00Z,CYDQ 311900Z AUTO 12005KT 9SM CLR 02/M06 A2953 RMK SLP029
CYED,2022-10-31T19:00:00Z,CYED 311900Z 21005KT 180V250 15SM FEW120 06/M08 A2963 RMK AC1 DENSITY ALT 2048FT SLP053
CYEG,2022-10-31T19:00:00Z,CYEG 311900Z 19011KT 20SM FEW070 BKN090 05/M05 A2962 RMK AC2AC4 SLP055
CYEK,2022-10-31T19:01:00Z,CYEK 311901Z 27005KT 15SM OVC020 01/01 RMK SC8 ALTM 2907 WIND EST VIA CYQB DENSITY ALT MISG
CYEN,2022-10-31T19:00:00Z,CYEN 311900Z AUTO 27006KT 230V300 9SM CLR 12/02 A2969 RMK SLP068 DENSITY ALT 2300FT
CYER,2022-10-31T19:00:00Z,CYER 311900Z AUTO 19014G21KT 9SM FEW170 SCT240 10/M00 A2925 RMK SLP907 DENSITY ALT 200FT
CYET,2022-10-31T19:20:00Z,CYET 311920Z AUTO 10005KT 9SM BKN039 OVC049 03/M02 A2955 RMK SLP036
CYEV,2022-10-31T19:00:00Z,CYEV 311900Z 29003KT 220V340 15SM -SN OVC026 M12/M14 A3008 RMK SC8 SLP195
CYFB,2022-10-31T19:00:00Z,CYFB 311900Z 34011KT 30SM OVC029 M08/M13 A2978 RMK SC8 SLP091
CYFC,2022-10-31T19:00:00Z,CYFC 311900Z AUTO 14007KT 9SM CLR 18/02 A2994 RMK SLP141 DENSITY ALT 500FT
CYFO,2022-10-31T19:00:00Z,CYFO 311900Z 25010G23KT 220V280 15SM BKN041 08/M03 A2945 RMK SC7 SLP988
CYFR,2022-10-31T19:00:00Z,CYFR 311900Z 08008KT 15SM BKN042 BKN070 M08/M10 A2970 RMK SC5AC2 SLP071
CYFS,2022-10-31T19:28:00Z,CYFS 311928Z 33012KT 1SM -SN FEW007 OVC030 M05/M07 A2971 RMK SF1SC8 SF TR SLP077
CYFT,2022-10-31T19:00:00Z,CYFT 311900Z 30010G16KT 15SM BKN028 03/M03 A2978 RMK SC6 SLP089
CYGE,2022-10-31T19:00:00Z,CYGE 311900Z 14015G24KT 15SM FEW025 SCT061 BKN120 08/02 A2958 RMK SC2SC2AC1 CU ASOCTD SLP032 DENSITY ALT 2800FT
CYGH,2022-10-31T19:00:00Z,CYGH 311900Z 01003KT 310V050 10SM -SN SCT014 BKN046 M17/M20 A3002 RMK SC4SC3 SLP180
CYGK,2022-10-31T19:00:00Z,CYGK 311900Z 18010KT 6SM -SHRA BR BKN050 OVC100 12/09 A2992 RMK SC5AC3 SLP134
CYGL,2022-10-31T19:00:00Z,CYGL 311900Z 18005KT 15SM SCT016 OVC160 05/01 A2978 RMK SC4AC4 SLP098
CYGP,2022-10-31T19:00:00Z,CYGP 311900Z 31010G16KT 15SM FEW190 BKN250 15/M04 A2989 RMK AC1CC1 AC TR SLP126 DENSITY ALT 300FT
CYGR,2022-10-31T19:00:00Z,CYGR 311900Z 28011KT 20SM FEW220 BKN290 11/07 A2994 RMK CI2CI4 SLP140
CYGT,2022-10-31T19:00:00Z,CYGT 311900Z 29012KT 15SM FEW022 SCT035 M16/M19 A2959 RMK SC2SC1 SLP030
CYGV,2022-10-31T19:00:00Z,CYGV 311900Z AUTO 33007KT 9SM CLR 14/M01 A2986 RMK SLP116
CYGW,2022-10-31T19:00:00Z,CYGW 311900Z AUTO 16008KT 9SM FEW032 OVC042 06/03 A2975 RMK SLP076
CYGX,2022-10-31T19:00:00Z,CYGX 311900Z 23008KT 15SM BKN018 04/02 A2916 RMK SC7 SLP886
CYHA,2022-10-31T19:00:00Z,CYHA 311900Z 32012G19KT 15SM BKN024 M03/M08 A2980 RMK SC7 LAST OBS/NEXT 011200 UTC SLP098
CYHD,2022-10-31T19:00:00Z,CYHD 311900Z AUTO 22014G19KT 9SM SCT190 BKN210 BKN240 12/01 A2958 RMK SLP032 DENSITY ALT 1700FT
CYHE,2022-10-31T19:33:00Z,CYHE 311933Z AUTO 24008G19KT 200V320 9SM FEW016 SCT025 SCT044 BKN055 10/08 A2974 RMK SLP072
CYHI,2022-10-31T19:00:00Z,CYHI 311900Z 05006KT 15SM FEW008 M20/M23 A3002 RMK SC2 SLP174
CYHK,2022-10-31T19:00:00Z,CYHK 311900Z AUTO 29011KT 9SM OVC014 M17/M19 A2973 RMK ICE MISG SLP076
CYHM,2022-10-31T19:00:00Z,CYHM 311900Z 05005KT 1SM R12/P6000FT/D BR OVC010 11/11 A2984 RMK FG5SF3 SLP109
CYHU,2022-10-31T19:00:00Z,CYHU 311900Z AUTO 14004KT 9SM BKN160 15/02 A2991 RMK SLP133 DENSITY ALT 200FT
CYHY,2022-10-31T19:27:00Z,CYHY 311927Z 26006KT 2 1/4SM -SN BR SCT006 OVC013 M04/M05 A2966 RMK ST4SC4 SLP060
CYHZ,2022-10-31T19:00:00Z,CYHZ 311900Z 23007KT 15SM FEW250 17/05 A2999 RMK CI1 SLP161 DENSITY ALT 800FT
CYIK,2022-10-31T19:00:00Z,CYIK 311900Z CCA 13014G20KT 15SM DRSN FEW013 OVC026 M04/M07 A2967 RMK ST1SC8 ST TR LAST STFD OB/NEXT 011200UTC SLP054
CYIN,2022-10-31T19:37:00Z,CYIN 311937Z AUTO 30004KT 3/4SM -SN SCT007 OVC012 00/M00 A2954 RMK SLP034
CYIO,2022-10-31T19:00:00Z,CYIO 311900Z 22010KT 8SM -SN OVC024 M15/M18 A2945 RMK SC8 SLP982
CYIV,2022-10-31T19:00:00Z,CYIV 311900Z AUTO 26011G18KT 9SM SCT160 10/02 A2932 RMK SLP940 DENSITY ALT 1100FT
CYJF,2022-10-31T19:00:00Z,CYJF 311900Z 04011G16KT 15SM SCT020 SCT044 BKN130 M04/M08 A2971 RMK SC3SC2AC1 IC SLP075
CYJT,2022-10-31T19:00:00Z,CYJT 311900Z 25016G21KT 15SM FEW025 FEW220 11/08 A2985 RMK SC1CI2 SC TR SLP111
CYKA,2022-10-31T19:00:00Z,CYKA 311900Z 14005KT 050V170 40SM SCT060 SCT160 14/02 A2953 RMK SC3AC1 SLP006 DENSITY ALT 1700FT
CYKF,2022-10-31T19:36:00Z,CYKF 311936Z AUTO 15005KT 3SM BR BKN004 OVC012 13/12 A2982 RMK SLP102 DENSITY ALT 1200FT
CYKG,2022-10-31T19:00:00Z,CYKG 311900Z 21005KT 15SM BKN024 M05/M10 A2977 RMK SC7 SLP097
CYKJ,2022-10-31T19:00:00Z,CYKJ 311900Z AUTO 30014KT 9SM OVC014 M03/M05 A2947 RMK SLP008
CYKL,2022-10-31T19:00:00Z,CYKL 311900Z AUTO 30005KT 9SM OVC020 M02/M05 A2989 RMK SLP155
CYKO,2022-10-31T19:00:00Z,CYKO 311900Z 16022G28KT 15SM OVC018 M01/M05 A2966 RMK SC8 SLP047
CYKQ,2022-10-31T19:00:00Z,CYKQ 311900Z 09007KT 15SM FEW053 FEW160 BKN250 12/M00 A2973 RMK SC1AC1CI3 SLP071
CYKY,2022-10-31T19:00:00Z,CYKY 311900Z 32004KT 280V360 15SM FEW060 SCT100 BKN130 07/M08 A2966 RMK SC2AS2AC3 SLP064
CYLC,2022-10-31T19:00:00Z,CYLC 311900Z 33006KT 290V350 15SM SCT026 BKN250 M08/M13 A2980 RMK SC3CC2 LASTSTFD OBS/NXT 011200Z SLP097
CYLD,2022-10-31T19:00:00Z,CYLD 311900Z 21010G15KT 190V260 15SM FEW220 SCT250 15/04 A2975 RMK CC1CI3 SLP090 DENSITY ALT 2100FT
CYLH,2022-10-31T19:00:00Z,CYLH 311900Z AUTO 19012G20KT 160V230 9SM CLR 13/M02 A2946 RMK SLP987 DENSITY ALT 1400FT
CYLJ,2022-10-31T19:00:00Z,CYLJ 311900Z 26008KT 15SM FEW130 FEW170 FEW210 06/M05 A2962 RMK AC1AC1CC1 AC TR CC TR SLP051
CYLK,2022-10-31T19:00:00Z,CYLK 311900Z 08006KT 060V150 25SM SCT015 BKN072 BKN120 BKN140 M13/M17 A2979 RMK SC3AC1AC1AC1 SLP108
CYLL,2022-10-31T19:00:00Z,CYLL 311900Z 27013KT 15SM BKN110 05/M08 A2965 RMK AC7 SLP063
CYLT,2022-10-31T19:00:00Z,CYLT 311900Z 00000KT 15SM FEW018 BKN028 M25/M29 A2972 RMK SC2SC3 FROIN SLP069
CYLU,2022-10-31T19:00:00Z,CYLU 311900Z 29013G20KT 15SM DRSN SCT028 OVC032 M01/M06 A2987 RMK SC3SC5 LAST STFD OBS/NEXT 011200 UTC SLP120
CYLW,2022-10-31T19:00:00Z,CYLW 311900Z AUTO 17004KT 9SM OVC066 11/06 A2962 RMK SLP036 DENSITY ALT 1700FT
CYMA,2022-10-31T19:00:00Z,CYMA 311900Z 35006KT 10SM -SN OVC055 M08/M12 A2965 RMK SC8 SLP083
CYMH,2022-10-31T19:36:00Z,CYMH 311936Z AUTO 33014G23KT 9SM -RA OVC016 03/01 A2970 RMK PRESRR SLP061
CYMJ,2022-10-31T19:38:00Z,CYMJ 311938Z 33006KT 12SM -SHRA BKN045 OVC065 07/M01 A2970 RMK SC5SC3 VIS W-NW 8 SLP072
CYMM,2022-10-31T19:00:00Z,CYMM 311900Z AUTO 03005KT 9SM SCT028 SCT034 OVC060 02/M03 A2960 RMK SLP043
CYMO,2022-10-31T19:00:00Z,CYMO 311900Z AUTO 10004KT 9SM CLR 12/02 A2970 RMK SLP061
CYMT,2022-10-31T19:00:00Z,CYMT 311900Z AUTO 12004KT 9SM BKN055 BKN190 BKN210 10/04 A2983 RMK SLP118
CYMU,2022-10-31T19:00:00Z,CYMU 311900Z 13013G19KT 15SM SCT015 BKN021 OVC037 03/00 A2976 RMK SF3SC3SC2 SLP085
CYMX,2022-10-31T19:00:00Z,CYMX 311900Z VRB02KT 30SM BKN160 BKN240 14/04 A2992 RMK AC5CS2 SLP135
CYNA,2022-10-31T19:00:00Z,CYNA 311900Z AUTO 33013G21KT 9SM CLR 13/M00 A2983 RMK PRESRR SLP105
CYND,2022-10-31T19:00:00Z,CYND 311900Z 07002KT 15SM FEW081 BKN110 OVC140 12/06 A2990 RMK AC2AC3AC3 SLP128
CYNE,2022-10-31T19:00:00Z,CYNE 311900Z AUTO 27012G19KT 220V310 9SM CLR 10/M00 A2940 RMK SLP966 DENSITY ALT 900FT
CYNM,2022-10-31T19:00:00Z,CYNM 311900Z AUTO 16005KT 130V200 9SM FEW049 OVC071 12/06 A2978 RMK SLP096
CYOC,2022-10-31T19:00:00Z,CYOC 311900Z 00000KT 35SM IC FEW003 M22/M24 A3003 RMK ST1 ST TR FROIN SLP201
CYOD,2022-10-31T19:00:00Z,CYOD 311900Z 25005KT 15SM BKN140 05/M05 A2963 RMK AC6 DENSITY ALT 1244FT SLP054
CYOJ,2022-10-31T19:00:00Z,CYOJ 311900Z 10004KT 060V120 10SM -SN SCT009 OVC060 M01/M02 A2961 RMK SC4SC4 SLP048
CYOO,2022-10-31T19:00:00Z,CYOO 311900Z AUTO 13005KT 110V190 9SM BKN014 OVC021 12/09 A2985 RMK SLP113
CYOW,2022-10-31T19:00:00Z,CYOW 311900Z VRB02KT 15SM BKN110 BKN140 14/07 A2989 RMK AC5AC2 SLP127 DENSITY ALT 400FT
CYOY,2022-10-31T19:00:00Z,CYOY 311900Z 24005KT 210V270 15SM OVC130 14/02 A2993 RMK AC8 DENSITY ALT 581FT SLP141
CYPA,2022-10-31T19:00:00Z,CYPA 311900Z 28013KT 15SM FEW150 FEW250 07/M05 A2963 RMK AC1CI1 SLP052
CYPC,2022-10-31T19:00:00Z,CYPC 311900Z 36003KT 320V050 3SM -SN OVC025 M11/M15 A3002 RMK SC8 SLP167
CYPD,2022-10-31T19:00:00Z,CYPD 311900Z AUTO 29008KT 9SM CLR 17/01 A2996 RMK SLP149 DENSITY ALT 700FT
CYPE,2022-10-31T19:00:00Z,CYPE 311900Z 17007KT 15SM FEW250 02/M06 A2956 RMK CI1 CI TR SLP038
CYPG,2022-10-31T19:00:00Z,CYPG 311900Z 25011G16KT 15SM BKN150 OVC180 10/02 A2962 RMK AC7AC1 SLP038
CYPH,2022-10-31T19:00:00Z,CYPH 311900Z AUTO 16018G26KT 9SM BKN017 OVC022 02/M01 A2967 RMK SLP050
CYPL,2022-10-31T19:00:00Z,CYPL 311900Z AUTO 23017G25KT 200V260 9SM CLR 13/M00 A2948 RMK SLP997 DENSITY ALT 1900FT
CYPO,2022-10-31T19:00:00Z,CYPO 311900Z AUTO 19014G20KT 9SM FEW071 OVC091 08/M02 A2941 RMK PRESFR SLP964
CYPQ,2022-10-31T19:37:00Z,CYPQ 311937Z AUTO 12005KT 080V170 9SM BKN023 BKN032 OVC060 12/10 A2985 RMK SLP113
CYPR,2022-10-31T19:12:00Z,CYPR 311912Z AUTO 08005KT 050V130 9SM SCT022 SCT029 BKN071 04/03 A2965 RMK SLP044
CYPW,2022-10-31T19:00:00Z,CYPW 311900Z 29010KT 20SM FEW011 SCT040 09/06 A2976 RMK SF1SC3 SF TR TCU TOPS DIST NW-E VIS N 5 LO CLD BR SLP082
CYPX,2022-10-31T19:00:00Z,CYPX 311900Z AUTO 13018KT 9SM OVC025 M01/M05 A2970 RMK SLP060
CYPY,2022-10-31T19:00:00Z,CYPY 311900Z AUTO 02005KT 8SM -SN OVC014 M03/M05 A2963 RMK SLP051
CYQA,2022-10-31T19:30:00Z,CYQA 311930Z AUTO VRB02KT 5SM -RA BR BKN005 OVC010 10/09 A2983 RMK PCPN 0.5MM PAST HR SLP108
CYQB,2022-10-31T19:00:00Z,CYQB 311900Z 25006KT 30SM FEW050 BKN130 BKN190 OVC210 14/02 A2992 RMK SC1AC4AC3CI1 SC TR SLP136
CYQD,2022-10-31T19:00:00Z,CYQD 311900Z AUTO 26017G26KT 9SM CLR 09/M03 A2948 RMK SLP996 DENSITY ALT 900FT
CYQF,2022-10-31T19:00:00Z,CYQF 311900Z AUTO 22005KT 9SM OVC046 04/M02 A2965 RMK SLP072
CYQG,2022-10-31T19:32:00Z,CYQG 311932Z AUTO 23010KT 9SM FEW009 SCT017 OVC025 17/16 A2980 RMK SLP093 DENSITY ALT 1200FT
CYQH,2022-10-31T19:00:00Z,CYQH 311900Z VRB04KT 40SM FEW060 SCT090 M03/M05 A2948 RMK SC1AC2 SLP020
CYQI,2022-10-31T19:00:00Z,CYQI 311900Z 21008KT 15SM FEW250 14/10 A3004 RMK CI2 SLP176
CYQK,2022-10-31T19:00:00Z,CYQK 311900Z 21011KT 20SM BKN160 OVC240 09/01 A2961 RMK AC6CI2 SLP039
CYQL,2022-10-31T19:00:00Z,CYQL 311900Z 22007KT 170V240 60SM FEW060 SCT100 BKN260 06/00 A2966 RMK SC1AC4CI3 SC TR SLP062 DENSITY ALT 3100FT
CYQM,2022-10-31T19:00:00Z,CYQM 311900Z 24005KT 15SM FEW180 SCT260 17/03 A2995 RMK AC1CI2 SLP146 DENSITY ALT 500FT
CYQQ,2022-10-31T19:00:00Z,CYQQ 311900Z 35010KT 20SM FEW020 BKN040 09/05 A2978 RMK SC2SC4 SLP086
CYQR,2022-10-31T19:00:00Z,CYQR 311900Z 29005KT 15SM OVC071 07/M01 A2970 RMK AC8 SLP078
CYQT,2022-10-31T19:00:00Z,CYQT 311900Z 06009KT 20SM SCT280 10/04 A2970 RMK CI4 SLP069
CYQU,2022-10-31T19:00:00Z,CYQU 311900Z 00000KT 25SM SCT180 05/M08 A2955 RMK AC3 SLP033
CYQV,2022-10-31T19:00:00Z,CYQV 311900Z AUTO 30014G21KT 9SM CLR 08/M05 A2964 RMK SLP055
CYQW,2022-10-31T19:00:00Z,CYQW 311900Z AUTO 30010G15KT 9SM OVC120 07/M07 A2967 RMK SLP067
CYQX,2022-10-31T19:00:00Z,CYQX 311900Z 24016G21KT 20SM FEW036 BKN120 BKN210 13/04 A2972 RMK SC1AC5CI2 SC TR SLP068 DENSITY ALT 700FT
CYQY,2022-10-31T19:00:00Z,CYQY 311900Z 26007KT 230V300 15SM SCT120 BKN250 16/04 A2993 RMK AC3CC2 SLP139 DENSITY ALT 400FT
CYQZ,2022-10-31T19:06:00Z,CYQZ 311906Z AUTO 17002KT 9SM BKN046 OVC055 01/M00 A2960 RMK SLP049
CYRA,2022-10-31T19:00:00Z,CYRA 311900Z 10004KT 3SM -SHSN OVC025 M10/M13 A2973 RMK SC8 SLP092
CYRB,2022-10-31T19:00:00Z,CYRB 311900Z 04013KT 15SM IC OVC048 M20/M24 A2951 RMK SC8 SLP006
CYRJ,2022-10-31T19:00:00Z,CYRJ 311900Z 07003KT 40SM SCT140 OVC170 10/04 A2989 RMK AC3AS5 SLP130
CYRL,2022-10-31T19:00:00Z,CYRL 311900Z 23008KT 15SM SCT140 BKN240 11/02 A2951 RMK AC3CI3 SLP006 DENSITY ALT 1600FT
CYRQ,2022-10-31T19:00:00Z,CYRQ 311900Z AUTO 25003KT 9SM SCT160 SCT180 12/02 A2992 RMK SLP136
CYRT,2022-10-31T19:25:00Z,CYRT 311925Z 06012G20KT 1SM -SN OVC007 M00/M01 A2909 RMK SN2SC6 SLP857
CYRV,2022-10-31T19:00:00Z,CYRV 311900Z AUTO 19015KT 9SM -RA BKN049 OVC060 08/06 A2963 RMK SLP045
CYSB,2022-10-31T19:00:00Z,CYSB 311900Z 19008KT 160V230 20SM BKN140 BKN200 14/05 A2981 RMK AC5CI2 SLP104 DENSITY ALT 1500FT
CYSC,2022-10-31T19:00:00Z,CYSC 311900Z AUTO 03003KT 310V040 9SM CLR 14/M01 A2991 RMK SLP137 DENSITY ALT 1000FT
CYSF,2022-10-31T19:00:00Z,CYSF 311900Z AUTO 36006KT 9SM CLR M07/M12 A2959 RMK SLP040
CYSJ,2022-10-31T19:00:00Z,CYSJ 311900Z 20011KT 15SM FEW020 BKN250 14/09 A2999 RMK CU1CI5 CU TR SLP160
CYSK,2022-10-31T19:00:00Z,CYSK 311900Z 17014KT 12SM SCT010 BKN100 04/03 A2966 RMK SF3AS3 SLP048
CYSM,2022-10-31T19:00:00Z,CYSM 311900Z 03004KT 15SM BKN011 BKN100 M08/M10 A2967 RMK SC6AC1 SLP065
CYSN,2022-10-31T19:00:00Z,CYSN 311900Z 20004KT 8SM -RA BKN017 OVC070 15/14 A2983 RMK SC6AC2 SLP106 DENSITY ALT 500FT
CYSP,2022-10-31T19:00:00Z,CYSP 311900Z 26004KT 190V310 1/2SM MIFG VV001 06/06 A2976 RMK FG8 SLP094
CYSY,2022-10-31T19:00:00Z,CYSY 311900Z 02007KT 15SM IC FEW005 BKN035 M20/M22 A3008 RMK ST1SC6 ST TR SLP202
CYTE,2022-10-31T19:00:00Z,CYTE 311900Z 11008KT 15SM -SN OVC024 M06/M09 A2972 RMK SC8 SLP071
CYTH,2022-10-31T19:00:00Z,CYTH 311900Z 27018G25KT 15SM BKN034 BKN055 06/00 A2928 RMK SC5SC2 SLP929
CYTL,2022-10-31T19:00:00Z,CYTL 311900Z AUTO 22010G15KT 9SM CLR 10/02 A2932 RMK SLP939 DENSITY ALT 1100FT
CYTQ,2022-10-31T19:00:00Z,CYTQ 311900Z 28008KT 15SM BKN027 M01/M07 A2990 RMK SC5 SLP130
CYTR,2022-10-31T19:00:00Z,CYTR 311900Z 11005KT 15SM BKN055 BKN090 13/09 A2988 RMK SC6AC1 DENSITY ALT 303FT SLP122
CYTS,2022-10-31T19:00:00Z,CYTS 311900Z 18008KT 15SM FEW150 SCT200 15/05 A2974 RMK AC1CI2 SLP081 DENSITY ALT 1500FT
CYTZ,2022-10-31T19:00:00Z,CYTZ 311900Z AUTO 07010KT 9SM OVC011 10/09 A2985 RMK SLP113
CYUA,2022-10-31T19:02:00Z,CYUA 311902Z AUTO 27007KT ////SM FEW005 BKN011 OVC021 M12/M14 A3008
CYUB,2022-10-31T19:00:00Z,CYUB 311900Z 05006KT 15SM -SN OVC018 M12/M15 A3009 RMK SC8 SLP193
CYUL,2022-10-31T19:00:00Z,CYUL 311900Z 25003KT 30SM OVC160 15/03 A2992 RMK AC8 SLP133 DENSITY ALT 200FT
CYUS,2022-10-31T19:00:00Z,CYUS 311900Z AUTO 29015KT ////SM //// OVC015 M14/M17 A2968
CYUT,2022-10-31T19:25:00Z,CYUT 311925Z 02011KT 15SM OVC150 M17/M20 A2970 RMK AC5 SLP062
CYUX,2022-10-31T19:00:00Z,CYUX 311900Z 26012KT 10SM DRSN FEW005 FEW070 M17/M20 A2966 RMK SF1AC1 SLP047
CYUY,2022-10-31T19:00:00Z,CYUY 311900Z 19007KT 15SM FEW068 BKN097 BKN210 11/05 A2980 RMK AC1AC6CI1 CI TR SLP102 DENSITY ALT 1000FT
CYVC,2022-10-31T19:00:00Z,CYVC 311900Z 29015G21KT 15SM BKN042 04/M05 A2956 RMK SC5 SLP026
CYVL,2022-10-31T19:00:00Z,CYVL 311900Z AUTO 35009KT 1 1/2SM -SN OVC003 M20/M21 A2991 RMK SLP166
CYVM,2022-10-31T19:00:00Z,CYVM 311900Z 19007KT 15SM FEW020 FEW030 M09/M13 A2950 RMK SC1SC1 SC TR SLP991
CYVO,2022-10-31T19:00:00Z,CYVO 311900Z 18006KT 15SM SCT100 BKN120 13/05 A2980 RMK AC3AC3 SLP106 DENSITY ALT 1200FT
CYVP,2022-10-31T19:00:00Z,CYVP 311900Z 26007G15KT 220V300 15SM BKN032 BKN260 M00/M08 A2991 RMK SC5CI1 SLP134
CYVQ,2022-10-31T19:00:00Z,CYVQ 311900Z 28019G24KT 10SM -SN DRSN SCT043 OVC085 M14/M17 A2998 RMK SC3AC5 SLP163
CYVR,2022-10-31T19:00:00Z,CYVR 311900Z 26007KT 25SM FEW010 FEW025 FEW160 FEW180 FEW240 12/11 A2977 RMK SF1CU2AC1AC1CI1 SF TR AC TR AC TR CI TR SLP082
CYVT,2022-10-31T19:00:00Z,CYVT 311900Z AUTO 31010G15KT 9SM OVC033 02/M04 A2959 RMK SLP040
CYVV,2022-10-31T19:00:00Z,CYVV 311900Z 15003KT 15SM BKN025 OVC100 14/11 A2981 RMK SC7AC1 SLP100 DENSITY ALT 1000FT
CYWE,2022-10-31T19:26:00Z,CYWE 311926Z AUTO 11007KT 9SM -SN SCT022 SCT071 M13/M17 A2973 RMK ICE MISG SLP110
CYWG,2022-10-31T19:00:00Z,CYWG 311900Z 25011KT 15SM BKN130 OVC220 10/03 A2961 RMK AS7CS1 SLP035 DENSITY ALT 800FT
CYWH,2022-10-31T19:00:00Z,CYWH 311900Z 25013G19KT 15SM VCSH FEW025 BKN040 BKN220 11/06 A2982 RMK CU2SC3CI2 SLP100
CYWJ,2022-10-31T19:00:00Z,CYWJ 311900Z 34012G18KT 10SM -SN FEW050 BKN060 BKN090 M10/M12 A2979 RMK SC2SC4AC1 BR DIST SE SLP110
CYWK,2022-10-31T19:00:00Z,CYWK 311900Z VRB02KT 15SM FEW034 05/M03 A2987 RMK CU2 SLP138
CYWL,2022-10-31T19:00:00Z,CYWL 311900Z 18005KT 120V220 15SM SCT012 BKN120 02/M01 A2954 RMK CF3AC3 SLP031
CYWY,2022-10-31T19:00:00Z,CYWY 311900Z 33006KT 300V010 3SM -SN BR VV012 M10/M12 A2983 RMK SN8 SLP118
CYXC,2022-10-31T19:00:00Z,CYXC 311900Z 07004KT 320V090 25SM FEW006 FEW015 OVC070 08/06 A2967 RMK SF1ST2AC6 SF TR SLP060 DENSITY ALT 3300FT
CYXE,2022-10-31T19:00:00Z,CYXE 311900Z 29011KT 15SM SCT120 BKN300 08/M07 A2966 RMK AC4CI2 SLP062
CYXH,2022-10-31T19:00:00Z,CYXH 311900Z 05006KT 30SM FEW040 BKN065 BKN080 BKN270 07/05 A2964 RMK CU1SC5AC1CI1 CU TR SLP051
CYXJ,2022-10-31T19:00:00Z,CYXJ 311900Z 21005KT 60SM BKN160 BKN240 03/M07 A2952 RMK AC6CI1 VIRGA SLP026
CYXL,2022-10-31T19:00:00Z,CYXL 311900Z 23012KT 15SM BKN210 12/01 A2958 RMK CS7 SLP032 DENSITY ALT 1700FT
CYXN,2022-10-31T19:00:00Z,CYXN 311900Z 05005KT 15SM OVC003 01/00 A2907 RMK ST8 WIND ESTD SLP847
CYXP,2022-10-31T19:00:00Z,CYXP 311900Z 31011G22KT 260V340 15SM DRSN VCSH FEW022 SCT027 M08/M13 A2960 RMK SC1SC2 SLP028
CYXQ,2022-10-31T19:00:00Z,CYXQ 311900Z 30004KT 8SM -SN SCT025 BKN050 M13/M16 A2973 RMK SC4SC4 /PCPN VRY LGT/ SLP124
CYXR,2022-10-31T19:00:00Z,CYXR 311900Z AUTO 21004KT 9SM FEW110 13/06 A2979 RMK SLP097 DENSITY ALT 900FT
CYXS,2022-10-31T19:37:00Z,CYXS 311937Z AUTO 16006KT 9SM CLR 02/M01 A2956 RMK SLP038
CYXT,2022-10-31T19:00:00Z,CYXT 311900Z VRB02KT 15SM FEW003 SCT008 BKN035 BKN100 03/01 A2966 RMK CF1CU3CU3AC1 CF TR SLP054
CYXU,2022-10-31T19:40:00Z,CYXU 311940Z 19006KT 2 1/2SM BR OVC002 14/14 A2981 RMK ST8 SLP100 DENSITY ALT 1200FT
CYXX,2022-10-31T19:00:00Z,CYXX 311900Z 19013G18KT 10SM FEW018TCU SCT037 BKN046 BKN060 BKN080 11/08 A2978 RMK TCU2CU1SC2SC1AC1 AC TR SLP087
CYXY,2022-10-31T19:00:00Z,CYXY 311900Z 34008KT 20SM -SN BKN016 OVC040 M05/M08 A2952 RMK SC7SC1 SLP042
CYXZ,2022-10-31T19:00:00Z,CYXZ 311900Z 23007G16KT 190V350 15SM FEW040 FEW250 10/07 A2977 RMK CU1CI1 CI TR SLP094
CYYB,2022-10-31T19:00:00Z,CYYB 311900Z 21007KT 30SM BKN130 13/03 A2982 RMK AC7 SLP105 DENSITY ALT 1500FT
CYYC,2022-10-31T19:00:00Z,CYYC 311900Z 18011KT 15SM OVC026 03/M04 A2964 RMK SC8 SLP072
CYYD,2022-10-31T19:00:00Z,CYYD 311900Z 26003KT 220V310 25SM FEW015 SCT070 02/M01 A2959 RMK SF2AC2 SLP039
CYYE,2022-10-31T19:00:00Z,CYYE 311900Z VRB02KT 10SM OVC008 M05/M07 A2962 RMK SC8 SLP058
CYYF,2022-10-31T19:00:00Z,CYYF 311900Z 17014G20KT 15SM FEW040 SCT080 SCT240 14/07 A2962 RMK CU2AC1CI1 SLP037 DENSITY ALT 1600FT
CYYG,2022-10-31T19:00:00Z,CYYG 311900Z 24007KT 15SM BKN250 16/01 A2996 RMK CI5 SLP148 DENSITY ALT 300FT
CYYH,2022-10-31T19:31:00Z,CYYH 311931Z 30014KT 1SM -SN DRSN SCT007 BKN015 OVC022 M15/M17 A2967 RMK SN2ST1SC3SC2 SLP052
CYYJ,2022-10-31T19:00:00Z,CYYJ 311900Z 25009G15KT 20SM BKN045 BKN100 BKN230 11/04 A2980 RMK SC5AC1CI1 SLP094
CYYL,2022-10-31T19:41:00Z,CYYL 311941Z AUTO 30017G23KT 9SM BKN025 OVC035 00/M03 A2935 RMK SLP960
CYYN,2022-10-31T19:00:00Z,CYYN 311900Z AUTO 09009KT 9SM -RA BKN044 BKN055 04/01 A2965 RMK ICE MISG SLP064
CYYQ,2022-10-31T19:00:00Z,CYYQ 311900Z 24008KT 15SM -RA SCT026 OVC055 01/M00 A2908 RMK SC3SC5 SLP850
CYYR,2022-10-31T19:00:00Z,CYYR 311900Z 30010G16KT 15SM BKN033 03/M03 A2987 RMK SC7 SLP119
CYYT,2022-10-31T19:00:00Z,CYYT 311900Z 26018G29KT 15SM SCT170 BKN230 12/06 A2980 RMK AC3CI3 SLP098
CYYU,2022-10-31T19:00:00Z,CYYU 311900Z 23006KT 190V270 15SM SCT050 BKN055 BKN060 14/06 A2972 RMK SC4SC1SC2 SLP075 DENSITY ALT 1100FT
CYYW,2022-10-31T19:00:00Z,CYYW 311900Z AUTO 21009G20KT 170V240 9SM CLR 15/M01 A2957 RMK SLP025 DENSITY ALT 1700FT
CYYY,2022-10-31T19:00:00Z,CYYY 311900Z 27006KT 30SM BKN270 11/03 A2992 RMK CI5 SLP137
CYYZ,2022-10-31T19:00:00Z,CYYZ 311900Z 13004KT 100V170 15SM OVC006 11/11 A2985 RMK SC8 SLP113
CYZE,2022-10-31T19:00:00Z,CYZE 311900Z AUTO 18008KT 9SM CLR 14/08 A2980 RMK SLP097 DENSITY ALT 800FT
CYZF,2022-10-31T19:35:00Z,CYZF 311935Z 08009KT 1 1/2SM -SN BKN025 OVC036 M10/M12 A2974 RMK SC6SC2 SLP091
CYZG,2022-10-31T19:00:00Z,CYZG 311900Z 17017KT 10SM -SN BKN018 OVC080 M07/M10 A2971 RMK SC7AC1 LAST STFD OB/NXT 011200Z SLP084
CYZH,2022-10-31T19:00:00Z,CYZH 311900Z AUTO 31004KT 250V350 9SM CLR 05/M07 A2958 RMK SLP040
CYZP,2022-10-31T19:00:00Z,CYZP 311900Z AUTO 19006KT 170V240 9SM FEW044 03/02 A2966 RMK SLP047
CYZR,2022-10-31T19:35:00Z,CYZR 311935Z AUTO 22005KT 6SM BR OVC007 16/15 A2979 RMK SLP089 DENSITY ALT 1000FT
CYZS,2022-10-31T19:33:00Z,CYZS 311933Z 09024G31KT 1/4SM SN BLSN VV013 M06/M07 A2951 RMK SN8 PRESFR SLP001
CYZT,2022-10-31T19:30:00Z,CYZT 311930Z 22009KT 20SM FEW018 BKN042 BKN090 07/04 A2981 RMK CU2SC3AC2 SLP096
CYZU,2022-10-31T19:00:00Z,CYZU 311900Z 19007KT 160V230 15SM SCT170 05/M09 A2959 RMK AC4 SLP050
CYZV,2022-10-31T19:00:00Z,CYZV 311900Z 09005KT 340V140 30SM BKN260 14/00 A2990 RMK CI7 SLP129
CYZW,2022-10-31T19:00:00Z,CYZW 311900Z 27003KT 20SM OVC017 M06/M08 A2948 RMK SC8 SLP025
CYZX,2022-10-31T19:00:00Z,CYZX 311900Z 24008KT 15SM BKN250 19/M02 A2999 RMK CI5 SLP155
CYZY,2022-10-31T19:32:00Z,CYZY 311932Z AUTO 15008KT 9SM SCT011 OVC030 M01/M02 A2952 RMK SLP031
CZBF,2022-10-31T19:00:00Z,CZBF 311900Z AUTO 05004KT 290V080 9SM CLR 18/04 A2992 RMK SLP136 DENSITY ALT 600FT
CZCP,2022-10-31T19:00:00Z,CZCP 311900Z AUTO 09011KT ////SM //// BKN011 OVC020 M13/M15 A2999
CZCR,2022-10-31T19:00:00Z,CZCR 311900Z AUTO 27009KT 16/04 RMK AO1 SLP128 T01630036 56008
CZDB,2022-10-31T19:00:00Z,CZDB 311900Z AUTO 24007KT 15/ RMK AO1 SLP162 T0147 56010
CZEL,2022-10-31T19:00:00Z,CZEL 311900Z AUTO 15006KT 11/11 RMK AO1 SLP110 T01140108 56018
CZEM,2022-10-31T19:00:00Z,CZEM 311900Z 13006KT 100V180 15SM BKN062 BKN180 10/00 A2976 RMK SC5AC2 SLP081
CZEV,2022-10-31T19:00:00Z,CZEV 311900Z AUTO 28002KT M12/M14 RMK AO1 SOG 09 3013 SLP197 T11151140
CZFA,2022-10-31T19:00:00Z,CZFA 311900Z 31009G15KT 6SM -SN FEW012 SCT020 BKN030 BKN060 OVC100 M07/M09 A2951 RMK ST1SC2SC2SC2AC1 VIS E 15 SLP042
CZFM,2022-10-31T19:00:00Z,CZFM 311900Z 00000KT 15SM -SN OVC030 M12/M15 A3010 RMK NS8 SLP198
CZFN,2022-10-31T19:26:00Z,CZFN 311926Z 29004KT 2SM -SHSN OVC035 M13/M15 A2994 RMK SN4SC4 SLP151
CZFS,2022-10-31T19:00:00Z,CZFS 311900Z AUTO 32010KT M05/M07 RMK AO1 5PAST HR SOG 13 3016 SLP071 P0002 T10541070 50005
CZHY,2022-10-31T19:00:00Z,CZHY 311900Z AUTO 26009KT M04/M05 RMK AO1 SOG 06 3010 SLP055 T10411053
CZKD,2022-10-31T19:00:00Z,CZKD 311900Z AUTO 27008G16KT 06/02 RMK AO1 PK WND 28017/1841 SLP911 T00570016 53003
CZMD,2022-10-31T19:00:00Z,CZMD 311900Z AUTO 22016G21KT 9SM CLR 12/01 A2931 RMK SLP937 DENSITY ALT 1500FT
CZMJ,2022-10-31T19:00:00Z,CZMJ 311900Z AUTO 32004KT 07/M04 RMK AO1 SLP083 T00691037 50001
CZMT,2022-10-31T19:15:00Z,CZMT 311915Z 18009KT 170V230 10SM -SHRA SCT025TCU BKN100 02/01 A2963 RMK TCU4AC3 SLP038
CZOL,2022-10-31T19:00:00Z,CZOL 311900Z AUTO 22004KT 07/M09 RMK AO1 T00681090
CZPC,2022-10-31T19:00:00Z,CZPC 311900Z AUTO 10004KT 080V140 9SM -RA BKN045 OVC060 04/03 A2965 RMK SLP061
CZPS,2022-10-31T19:00:00Z,CZPS 311900Z AUTO 22007KT 02/M01 RMK AO1 T00211009
CZRP,2022-10-31T19:00:00Z,CZRP 311900Z AUTO 33022KT M22/M24 RMK AO1 SOG 52 2011 PK WND 32027/1847 SLP065 T12241235
CZSJ,2022-10-31T19:00:00Z,CZSJ 311900Z AUTO 25013G23KT 190V290 9SM SCT160 13/01 A2935 RMK SLP950 DENSITY ALT 1600FT
CZSM,2022-10-31T19:00:00Z,CZSM 311900Z AUTO 05003KT M07/M10 RMK AO1 SOG 03 1018 SLP062 T10741101
CZSP,2022-10-31T19:00:00Z,CZSP 311900Z AUTO 27009KT 15/01 RMK AO1 SLP149 T01520006 53001
CZST,2022-10-31T19:00:00Z,CZST 311900Z 00000KT 3SM -RA BR BKN015 OVC075 03/02 A2966 RMK SC5AC3 SLP045
CZTB,2022-10-31T19:00:00Z,CZTB 311900Z AUTO 06007KT 10/05 RMK AO1 SLP071 T00950050 57025
CZUM,2022-10-31T19:00:00Z,CZUM 311900Z AUTO 32011G17KT 9SM BKN028 01/M04 A2989 RMK SLP146
CZVL,2022-10-31T19:00:00Z,CZVL 311900Z AUTO 19007KT 160V220 9SM CLR 07/M05 A2961 RMK SLP049
CZZJ,2022-10-31T19:00:00Z,CZZJ 311900Z AUTO 08005KT 02/M02 RMK AO1 SLP040 T00221023 58012
DAAE,2022-10-31T19:00:00Z,DAAE 311900Z 21004KT 8000 NSC 18/10 Q1020
DAAG,2022-10-31T19:30:00Z,DAAG 311930Z 26003KT CAVOK 18/13 Q1020
DAAJ,2022-10-31T19:00:00Z,DAAJ 311900Z 02010KT CAVOK 19/M02 Q1023
DAAP,2022-10-31T19:00:00Z,DAAP 311900Z 04006KT CAVOK 22/M01 Q1022
DAAS,2022-10-31T19:00:00Z,DAAS 311900Z 31004KT CAVOK 18/M02 Q1025
DAAT,2022-10-31T19:30:00Z,DAAT 311930Z VRB04KT CAVOK 20/M02 Q1025
DAAV,2022-10-31T19:00:00Z,DAAV 311900Z 19003KT 8000 NSC 17/13 Q1020
DAAY,2022-10-31T19:00:00Z,DAAY 311900Z 35004KT CAVOK 19/M03 Q1026
DABB,2022-10-31T19:30:00Z,DABB 311930Z 03003KT CAVOK 20/18 Q1020
DABC,2022-10-31T19:30:00Z,DABC 311930Z 19004KT CAVOK 17/03 Q1024
DABS,2022-10-31T19:00:00Z,DABS 311900Z 11006KT CAVOK 16/M08 Q1024
DABT,2022-10-31T19:00:00Z,DABT 311900Z 00000KT CAVOK 17/M02 Q1025
DAOB,2022-10-31T19:00:00Z,DAOB 311900Z 11003KT CAVOK 16/M03 Q1025
DAOF,2022-10-31T19:00:00Z,DAOF 311900Z 09005KT CAVOK 27/M04 Q1021
DAOI,2022-10-31T19:00:00Z,DAOI 311900Z 35004KT CAVOK 25/M02 Q1020
DAOL,2022-10-31T19:00:00Z,DAOL 311900Z 29004KT 8000 NSC 21/15 Q1020
DAON,2022-10-31T19:30:00Z,DAON 311930Z 36003KT CAVOK 19/17 Q1022
DAOO,2022-10-31T19:30:00Z,DAOO 311930Z 34004KT 8000 NSC 19/17 Q1020
DAOR,2022-10-31T19:00:00Z,DAOR 311900Z VRB02KT CAVOK 21/M05 Q1024
DAOV,2022-10-31T19:00:00Z,DAOV 311900Z 05003KT CAVOK 21/M01 Q1021
DAOY,2022-10-31T19:00:00Z,DAOY 311900Z VRB02KT CAVOK 17/M05 Q1027
DAUA,2022-10-31T19:00:00Z,DAUA 311900Z 35005KT CAVOK 23/M07 Q1019
DAUB,2022-10-31T19:00:00Z,DAUB 311900Z VRB02KT CAVOK 21/03 Q1022
DAUE,2022-10-31T19:00:00Z,DAUE 311900Z 06004KT CAVOK 23/M00 Q1024
DAUG,2022-10-31T19:00:00Z,DAUG 311900Z 00000KT CAVOK 22/M03 Q1024
DAUH,2022-10-31T19:00:00Z,DAUH 311900Z 05004KT CAVOK 24/05 Q1022
DAUI,2022-10-31T19:00:00Z,DAUI 311900Z 04008KT CAVOK 26/M06 Q1018
DAUK,2022-10-31T19:00:00Z,DAUK 311900Z 16004KT CAVOK 20/05 Q1022
DAUO,2022-10-31T19:00:00Z,DAUO 311900Z 18003KT CAVOK 22/06 Q1022
DAUT,2022-10-31T19:00:00Z,DAUT 311900Z 05010KT CAVOK 24/M03 Q1021
DAUU,2022-10-31T19:00:00Z,DAUU 311900Z 00000KT CAVOK 21/00 Q1021
DAUZ,2022-10-31T19:00:00Z,DAUZ 311900Z 09006KT CAVOK 21/M04 Q1022
DBBB,2022-10-31T19:00:00Z,DBBB 311900Z 20007KT 9999 FEW012 28/23 Q1010 NOSIG
DFFD,2022-10-31T19:00:00Z,DFFD 311900Z 05004KT 8000 NSC 29/11 Q1012 NOSIG
DFOO,2022-10-31T19:00:00Z,DFOO 311900Z 05005KT 8000 FEW026 26/17 Q1012
DGAA,2022-10-31T19:00:00Z,DGAA 311900Z 18004KT 9999 FEW012 27/24 Q1011 NOSIG
DIAP,2022-10-31T19:32:00Z,DIAP 311932Z 17003KT 130V300 9999 FEW011 BKN028 25/25 Q1011 RETS NOSIG
DIBK,2022-10-31T19:00:00Z,DIBK 311900Z 14002KT 8000 FEW013 FEW020CB 27/24 Q1012 NOSIG
DIYO,2022-10-31T19:00:00Z,DIYO 311900Z 00000KT 9999 TS SCT013 FEW020CB 26/24 Q1011 NOSIG
DNAA,2022-10-31T19:00:00Z,DNAA 311900Z 23002KT CAVOK 27/20 Q1013 NOSIG
DNIB,2022-10-31T19:00:00Z,DNIB 311900Z 14004KT 9999 FEW010 28/24 Q1012
DNIL,2022-10-31T19:00:00Z,DNIL 311900Z 02003KT 6000 FEW011 27/19 Q1011
DNKN,2022-10-31T19:00:00Z,DNKN 311900Z VRB02KT CAVOK 22/14 Q1016 NOSIG
DNMM,2022-10-31T19:00:00Z,DNMM 311900Z 22003KT 9999 FEW012 28/24 Q1011 NOSIG
DNMN,2022-10-31T19:00:00Z,DNMN 311900Z 30003KT 7000 NSC 29/19 Q1011
DNPO,2022-10-31T19:00:00Z,DNPO 311900Z 14003KT 9999 BKN008 26/23 Q1011 NOSIG
DNSO,2022-10-31T19:00:00Z,DNSO 311900Z 05005KT CAVOK 29/14 Q1014
DRRN,2022-10-31T19:00:00Z,DRRN 311900Z 11004KT 8000 NSC 32/04 Q1012 NOSIG
DTKA,2022-10-31T19:00:00Z,DTKA 311900Z 11005KT 9999 FEW020 19/14 Q1021 NOSIG
DTMB,2022-10-31T19:30:00Z,DTMB 311930Z 17004KT 9999 SCT023 22/15 Q1022
DTNH,2022-10-31T19:30:00Z,DTNH 311930Z 15007KT CAVOK 21/15 Q1021
DTTA,2022-10-31T19:30:00Z,DTTA 311930Z 12005KT 070V170 CAVOK 22/17 Q1022
DTTB,2022-10-31T19:00:00Z,DTTB 311900Z 06006KT 9999 FEW020 19/17 Q1021
DTTD,2022-10-31T19:00:00Z,DTTD 311900Z VRB01KT CAVOK 20/07 Q1024
DTTF,2022-10-31T19:00:00Z,DTTF 311900Z 20005KT 8000 NSC 20/11 Q1023 NOSIG
DTTG,2022-10-31T19:00:00Z,DTTG 311900Z 08005KT CAVOK 20/12 Q1023 NOSIG
DTTJ,2022-10-31T19:30:00Z,DTTJ 311930Z 10005KT CAVOK 21/13 Q1023 NOSIG
DTTK,2022-10-31T19:00:00Z,DTTK 311900Z VRB03KT CAVOK 23/12 Q1022
DTTL,2022-10-31T19:00:00Z,DTTL 311900Z VRB02KT 9999 FEW020 22/18 Q1022
DTTN,2022-10-31T19:00:00Z,DTTN 311900Z 04004KT CAVOK 20/06 Q1020
DTTR,2022-10-31T19:00:00Z,DTTR 311900Z AUTO 06006KT NCD 21/07 Q1024
DTTX,2022-10-31T19:00:00Z,DTTX 311900Z 15004KT 9999 FEW030 22/11 Q1022
DTTZ,2022-10-31T19:00:00Z,DTTZ 311900Z 28003KT CAVOK 21/10 Q1022
DXXX,2022-10-31T19:00:00Z,DXXX 311900Z 09005KT 060V120 9999 TS FEW012 FEW017CB 29/22 Q1011 BECMG NSW
EBAW,2022-10-31T19:20:00Z,EBAW 311920Z 14006KT CAVOK 15/11 Q1010 NOSIG
EBBE,2022-10-31T19:25:00Z,EBBE 311925Z AUTO 16009KT 9999 SCT210/// 17/11 Q1010 BLU
EBBL,2022-10-31T19:25:00Z,EBBL 311925Z AUTO VRB02KT 9999 NCD 14/10 Q1011 BLU
EBBR,2022-10-31T19:20:00Z,EBBR 311920Z 16007KT CAVOK 16/11 Q1010 NOSIG
EBCI,2022-10-31T19:20:00Z,EBCI 311920Z 16010KT CAVOK 16/10 Q1011 NOSIG
EBCV,2022-10-31T19:25:00Z,EBCV 311925Z AUTO 15012KT 9999 FEW095/// OVC150/// 17/12 Q1009 BLU
EBDT,2022-10-31T19:25:00Z,EBDT 311925Z AUTO 16006KT 9999 FEW240/// 14/11 Q1011 BLU
EBFN,2022-10-31T19:25:00Z,EBFN 311925Z AUTO 15010KT 9999 BKN160/// 16/13 Q1007 BLU
EBFS,2022-10-31T19:25:00Z,EBFS 311925Z AUTO 17009KT 9999 BKN150/// 16/11 Q1011 BLU
EBLB,2022-10-31T19:25:00Z,EBLB 311925Z AUTO 18006KT 9999 NCD 14/09 Q1014 BLU
EBLG,2022-10-31T19:20:00Z,EBLG 311920Z 16008KT CAVOK 16/09 Q1012 NOSIG
EBOS,2022-10-31T19:20:00Z,EBOS 311920Z 15012KT CAVOK 15/12 Q1008 TEMPO 4000 RA
EDAC,2022-10-31T19:20:00Z,EDAC 311920Z AUTO VRB01KT 6000 // BKN190/// 11/10 Q1017
EDBC,2022-10-31T19:20:00Z,EDBC 311920Z AUTO 13006KT 0250 R25/0300N // VV/// 12/12 Q1018
EDDB,2022-10-31T19:20:00Z,EDDB 311920Z AUTO 04003KT 4000 0500 R07L/0800D R07R/P2000N BCFG NSC 12/12 Q1019 TEMPO 1200 BCFG
EDDC,2022-10-31T19:20:00Z,EDDC 311920Z AUTO 11003KT CAVOK 14/11 Q1018 NOSIG
EDDE,2022-10-31T19:20:00Z,EDDE 311920Z AUTO VRB02KT 2500 BR NSC 13/12 Q1017 NOSIG
EDDF,2022-10-31T19:20:00Z,EDDF 311920Z AUTO 24005KT CAVOK 12/12 Q1016 NOSIG
EDDG,2022-10-31T19:20:00Z,EDDG 311920Z AUTO 12005KT 020V170 CAVOK 16/12 Q1013 NOSIG
EDDH,2022-10-31T19:20:00Z,EDDH 311920Z AUTO 11007KT 9999 BKN007 12/11 Q1017 NOSIG
EDDK,2022-10-31T19:20:00Z,EDDK 311920Z AUTO 13009KT CAVOK 16/11 Q1014 NOSIG
EDDL,2022-10-31T19:20:00Z,EDDL 311920Z AUTO 16008KT CAVOK 17/10 Q1013 NOSIG
EDDM,2022-10-31T19:20:00Z,EDDM 311920Z AUTO VRB01KT 0300 R08L/0275D R08R/0400N FG NCD 08/08 Q1017 NOSIG
EDDN,2022-10-31T19:20:00Z,EDDN 311920Z AUTO 11005KT 9999 0500 R28/1900N BCFG NSC 10/09 Q1017 TEMPO 0600 FG
EDDP,2022-10-31T19:20:00Z,EDDP 311920Z AUTO 06007KT 0900 0650 R08R/P2000N R08L/0800N FG NSC 12/12 Q1017 TEMPO 1500 BCFG
EDDR,2022-10-31T19:20:00Z,EDDR 311920Z AUTO 10004KT CAVOK 12/10 Q1016 NOSIG
EDDS,2022-10-31T19:20:00Z,EDDS 311920Z AUTO 26003KT 180V310 CAVOK 10/09 Q1016 NOSIG
EDDV,2022-10-31T19:20:00Z,EDDV 311920Z AUTO 11007KT 090V150 8000 NSC 14/13 Q1016 TEMPO 3500 BR BKN004
EDDW,2022-10-31T19:20:00Z,EDDW 311920Z AUTO 10009KT CAVOK 13/12 Q1015 NOSIG
EDFH,2022-10-31T19:20:00Z,EDFH 311920Z 14011KT CAVOK 11/11 Q1016
EDFM,2022-10-31T19:20:00Z,EDFM 311920Z VRB02KT CAVOK 13/12 Q1016
EDGS,2022-10-31T19:20:00Z,EDGS 311920Z AUTO 15007KT 9999 // NCD 12/10 Q1016
EDHI,2022-10-31T19:20:00Z,EDHI 311920Z AUTO 11005KT 080V150 8000 // OVC008/// 12/12 Q1017
EDHK,2022-10-31T19:20:00Z,EDHK 311920Z AUTO 10008KT 9999 // OVC008/// 11/11 Q1018
EDHL,2022-10-31T19:20:00Z,EDHL 311920Z 11006KT 080V160 9999 OVC009 13/11 Q1018
EDJA,2022-10-31T19:20:00Z,EDJA 311920Z 18003KT CAVOK 09/08 Q1018
EDLN,2022-10-31T19:20:00Z,EDLN 311920Z 13007KT CAVOK 16/11 Q1012
EDLP,2022-10-31T19:20:00Z,EDLP 311920Z 12008KT CAVOK 16/11 Q1015
EDLV,2022-10-31T19:20:00Z,EDLV 311920Z 14008KT CAVOK 16/11 Q1012
EDLW,2022-10-31T19:20:00Z,EDLW 311920Z 15007KT CAVOK 17/08 Q1013
EDMA,2022-10-31T19:20:00Z,EDMA 311920Z 07002KT 0150 R07/0250N FG VV/// 08/08 Q1018
EDMO,2022-10-31T19:20:00Z,EDMO 311920Z AUTO 21004KT 9999 // NCD 07/07 Q1018
EDNY,2022-10-31T19:20:00Z,EDNY 311920Z VRB01KT 0500 R24/0650D FG VV/// 07/07 Q1018
EDQM,2022-10-31T19:20:00Z,EDQM 311920Z AUTO VRB01KT 3500 // OVC180/// 12/10 Q1018
EDSB,2022-10-31T19:20:00Z,EDSB 311920Z 19002KT CAVOK 13/12 Q1016
EDTL,2022-10-31T19:20:00Z,EDTL 311920Z AUTO VRB01KT 9999 // NCD 11/09 Q1017
EDTY,2022-10-31T19:20:00Z,EDTY 311920Z AUTO 09005KT 4000 1800 // NCD 10/10 Q////
EDVE,2022-10-31T19:20:00Z,EDVE 311920Z AUTO 10009KT 4100 SCT004/// SCT130/// 14/13 Q1017
EDVK,2022-10-31T19:20:00Z,EDVK 311920Z 12007KT CAVOK 15/11 Q1015
EDWE,2022-10-31T19:20:00Z,EDWE 311920Z AUTO 09009KT 7000 // FEW009/// OVC120/// 13/12 Q1013
EDXW,2022-10-31T19:20:00Z,EDXW 311920Z AUTO 11010KT 9999 // BKN120/// 12/11 Q1016
EEEI,2022-10-31T18:50:00Z,EEEI 311850Z 20007KT 6000 -DZ BKN005 08/07 Q1017
EEKE,2022-10-31T19:20:00Z,EEKE 311920Z AUTO 24005KT 200V290 4100NDV -RA BR OVC005 10/10 Q1018
EEPU,2022-10-31T19:20:00Z,EEPU 311920Z AUTO 21008KT 9999 OVC010/// 09/08 Q1018
EETN,2022-10-31T19:20:00Z,EETN 311920Z 21007KT 8000 -DZ OVC006 08/07 Q1016 TEMPO 3000 RADZ BR
EETU,2022-10-31T19:20:00Z,EETU 311920Z AUTO 22004KT 9999 BKN064/// BKN076/// OVC098/// 05/03 Q1019
EFET,2022-10-31T19:20:00Z,EFET 311920Z AUTO 30002KT 4900 BR OVC002 M06/M06 Q1006
EFHA,2022-10-31T19:20:00Z,EFHA 311920Z AUTO 17005KT 130V200 2100 BR VV002 06/06 Q1012
EFHK,2022-10-31T19:20:00Z,EFHK 311920Z 20007KT 2500 -DZ BR OVC002 08/08 Q1015 TEMPO 0800 FG VV001
EFIV,2022-10-31T19:20:00Z,EFIV 311920Z AUTO 23007KT 9999 OVC005 M06/M07 Q1009
EFJO,2022-10-31T19:20:00Z,EFJO 311920Z AUTO 16003KT CAVOK M02/M03 Q1014
EFJY,2022-10-31T19:20:00Z,EFJY 311920Z AUTO 18003KT 6000 -SHRA OVC003 05/05 Q1012
EFKE,2022-10-31T19:20:00Z,EFKE 311920Z AUTO 11006KT 9999 -RA BKN004 OVC023 02/01 Q1009
EFKI,2022-10-31T19:20:00Z,EFKI 311920Z AUTO 18010KT 9999 OVC012 01/M00 Q1011
EFKK,2022-10-31T19:20:00Z,EFKK 311920Z AUTO 21008KT 5000 -SHRA OVC002 07/07 Q1009
EFKS,2022-10-31T19:20:00Z,EFKS 311920Z 07002KT 3000 BR BKN001 M04/M05 Q1010
EFKT,2022-10-31T19:20:00Z,EFKT 311920Z AUTO 14004KT 7000 OVC006 M01/M01 Q1007 REFZUP
EFKU,2022-10-31T19:20:00Z,EFKU 311920Z AUTO 18006KT 140V210 9999 -SHRA OVC007 //////CB 02/01 Q1013
EFLP,2022-10-31T19:20:00Z,EFLP 311920Z AUTO 17003KT 150V210 9999 -SHRA BKN015 //////CB 01/M01 Q1016
EFMA,2022-10-31T19:20:00Z,EFMA 311920Z 24003KT 200V280 9999 FEW005 10/10 Q1015
EFMI,2022-10-31T19:20:00Z,EFMI 311920Z AUTO 15003KT 110V200 9999 SHRA OVC007 //////CB 02/02 Q1014
EFOU,2022-10-31T19:20:00Z,EFOU 311920Z AUTO 14007KT 6000 -DZ OVC003 02/02 Q1009
EFPO,2022-10-31T19:20:00Z,EFPO 311920Z AUTO 24006KT 9999 VCSH SCT007 OVC025 //////CB 10/09 Q1013
EFRO,2022-10-31T19:20:00Z,EFRO 311920Z AUTO 16005KT 0650 R21/0900D FZFG VV002 M00/M00 Q1009
EFSA,2022-10-31T19:20:00Z,EFSA 311920Z AUTO 17005KT CAVOK 01/M02 Q1015
EFSI,2022-10-31T19:20:00Z,EFSI 311920Z AUTO 22006KT 190V260 9999 OVC005 08/08 Q1010
EFTP,2022-10-31T19:20:00Z,EFTP 311920Z AUTO 22007KT 1700 -DZ VV002 08/08 Q1013
EFTU,2022-10-31T19:20:00Z,EFTU 311920Z AUTO 23006KT 9999 OVC005 10/10 Q1014
EFUT,2022-10-31T19:20:00Z,EFUT 311920Z AUTO 17006KT 5000 -SHRA OVC003 //////CB 03/03 Q1015
EFVA,2022-10-31T19:20:00Z,EFVA 311920Z AUTO 25008KT 9999 BKN007 07/06 Q1010
EGAA,2022-10-31T19:20:00Z,EGAA 311920Z AUTO 14006KT 9999 SCT027 11/09 Q1000
EGAC,2022-10-31T19:20:00Z,EGAC 311920Z AUTO VRB01KT 9999 FEW023 11/10 Q1000
EGAE,2022-10-31T19:20:00Z,EGAE 311920Z VRB02KT 8000 -RA SCT011 BKN038 11/10 Q1000
EGBB,2022-10-31T19:20:00Z,EGBB 311920Z 11010KT 6000 -SHRA BKN014CB 13/12 Q1002 RESHRA
EGCC,2022-10-31T19:20:00Z,EGCC 311920Z AUTO 09006KT 060V130 9999 -RA //////CB 12/11 Q1003 TEMPO 4000 RA
EGCK,2022-10-31T19:20:00Z,EGCK 311920Z AUTO 11010KT 070V130 9999 NCD 15/09 Q0999
EGCN,2022-10-31T19:20:00Z,EGCN 311920Z 36002KT CAVOK 12/11 Q1005
EGDM,2022-10-31T19:20:00Z,EGDM 311920Z AUTO 16011KT 9999 // BKN009/// OVC075/// 15/14 Q1001
EGDR,2022-10-31T19:20:00Z,EGDR 311920Z AUTO 19020G32KT 3100 DZ OVC003/// 12/11 Q0994
EGDY,2022-10-31T19:20:00Z,EGDY 311920Z AUTO 14010KT 9999 BKN020/// SCT090/// BKN100/// 15/13 Q0999
EGFF,2022-10-31T19:20:00Z,EGFF 311920Z AUTO 11011KT 9999 BKN009/// OVC015/// //////CB 14/13 Q0999
EGGD,2022-10-31T19:20:00Z,EGGD 311920Z AUTO 09008KT 9000 SCT001/// BKN010/// //////CB 13/12 Q1000
EGGP,2022-10-31T19:20:00Z,EGGP 311920Z 09010KT 9000 -SHRA FEW033 SCT038 BKN044 12/11 Q1002
EGGW,2022-10-31T19:20:00Z,EGGW 311920Z AUTO 14011KT 7000 BKN006 OVC024 14/13 Q1003
EGHH,2022-10-31T19:20:00Z,EGHH 311920Z 16011KT 9999 -RA FEW016 16/14 Q1000
EGHI,2022-10-31T19:20:00Z,EGHI 311920Z 16007KT 100V200 9999 SHRA SCT012 BKN018 16/14 Q1001
EGHQ,2022-10-31T19:20:00Z,EGHQ 311920Z 16013KT 9000 -SHRA FEW007 SCT010 BKN035 13/12 Q0996 RERA
EGJB,2022-10-31T19:20:00Z,EGJB 311920Z 21019G29KT 9999 VCSH BKN017 15/12 Q1002
EGJJ,2022-10-31T19:20:00Z,EGJJ 311920Z 21013KT 9999 -SHRA FEW010 SCT018 15/14 Q1003
EGKA,2022-10-31T19:20:00Z,EGKA 311920Z 16015KT 9999 -SHRA FEW016 BKN042 16/12 Q1003
EGKB,2022-10-31T19:20:00Z,EGKB 311920Z 14010KT 9999 SCT005 14/13 Q1003
EGKK,2022-10-31T19:20:00Z,EGKK 311920Z 13007KT 9000 -SHRA FEW015 SCT035 16/14 Q1003
EGLC,2022-10-31T19:20:00Z,EGLC 311920Z AUTO 12009KT 9999 NCD 15/14 Q1003
EGLF,2022-10-31T19:20:00Z,EGLF 311920Z 14009KT 110V170 9999 -RA BKN017 16/14 Q1002
EGLL,2022-10-31T19:20:00Z,EGLL 311920Z AUTO 13009KT 9999 -RA SCT031 15/14 Q1003 TEMPO 4000 +SHRA BKN014
EGMC,2022-10-31T19:20:00Z,EGMC 311920Z 13011KT 9999 FEW006 16/14 Q1004
EGMD,2022-10-31T19:20:00Z,EGMD 311920Z AUTO 15018KT 9999 -RA NCD 17/15 Q1005
EGNH,2022-10-31T19:20:00Z,EGNH 311920Z 12013KT 9999 -RA SCT042 14/11 Q1003
EGNJ,2022-10-31T19:20:00Z,EGNJ 311920Z AUTO 10011KT 9999 BKN046/// 14/13 Q1005
EGNM,2022-10-31T19:20:00Z,EGNM 311920Z 11005KT 9999 -SHRA FEW012 SCT027 11/11 Q1005
EGNO,2022-10-31T18:50:00Z,EGNO 311850Z 12008KT CAVOK 13/10 Q1003
EGNR,2022-10-31T19:20:00Z,EGNR 311920Z 13005KT 100V160 9999 RA FEW015 SCT019 12/11 Q1002
EGNS,2022-10-31T19:20:00Z,EGNS 311920Z 12015KT 9999 FEW012 14/11 Q1001 NOSIG
EGNT,2022-10-31T19:20:00Z,EGNT 311920Z 12003KT 9999 FEW016 11/10 Q1005
EGNV,2022-10-31T19:20:00Z,EGNV 311920Z 08005KT 9999 FEW025 10/09 Q1005
EGNX,2022-10-31T19:20:00Z,EGNX 311920Z 08010KT 8000 RA FEW018 BKN021 12/12 Q1002 RERA
EGOM,2022-10-31T19:20:00Z,EGOM 311920Z AUTO 11007KT 9999 FEW017/// 10/08 Q1004
EGOP,2022-10-31T19:20:00Z,EGOP 311920Z AUTO 09007KT 9999 SCT013/// BKN061/// 13/12 Q0998
EGOS,2022-10-31T19:20:00Z,EGOS 311920Z 08007KT 9999 SCT009 OVC035 12/11 Q1001 TEMPO 6000 RA RMK GRN TEMPO GRN
EGOV,2022-10-31T19:20:00Z,EGOV 311920Z 09006KT CAVOK 13/09 Q1000 NOSIG RMK BLU BLU
EGPA,2022-10-31T19:20:00Z,EGPA 311920Z 18013KT 9999 FEW020 SCT040 13/11 Q1002
EGPB,2022-10-31T19:20:00Z,EGPB 311920Z 20014KT 9000 FEW011 12/11 Q1003 TEMPO SHRA
EGPC,2022-10-31T19:20:00Z,EGPC 311920Z 17013KT 9999 FEW038 13/11 Q1002
EGPD,2022-10-31T19:20:00Z,EGPD 311920Z AUTO 17014KT 9999 FEW008 SCT033 BKN045 12/11 Q1005
EGPE,2022-10-31T19:20:00Z,EGPE 311920Z 20009KT 9999 FEW020 SCT048 13/09 Q1002
EGPF,2022-10-31T19:20:00Z,EGPF 311920Z AUTO VRB02KT 9999 -RA SCT026/// BKN035/// BKN047/// //////CB 11/10 Q1003
EGPH,2022-10-31T19:20:00Z,EGPH 311920Z 16007KT CAVOK 14/09 Q1003
EGPI,2022-10-31T19:20:00Z,EGPI 311920Z AUTO 14007KT 9999 -RA FEW016/// 11/11 Q1000
EGPK,2022-10-31T19:20:00Z,EGPK 311920Z 15005KT 9999 -RA BKN025 13/11 Q1002
EGPL,2022-10-31T19:20:00Z,EGPL 311920Z AUTO 17005KT 9999 NCD 08/07 Q1000
EGPN,2022-10-31T19:20:00Z,EGPN 311920Z 19007KT 9999 FEW030 13/10 Q1004
EGPO,2022-10-31T19:20:00Z,EGPO 311920Z VRB01KT 9999 FEW010 SCT035 10/08 Q1000
EGPU,2022-10-31T19:20:00Z,EGPU 311920Z AUTO 17008KT 9999 FEW015/// 11/10 Q1000 REDZ
EGQK,2022-10-31T19:20:00Z,EGQK 311920Z AUTO 18006KT 9999 // FEW057/// BKN072/// 14/08 Q1002
EGQL,2022-10-31T18:50:00Z,EGQL 311850Z 20013KT CAVOK 14/10 Q1004 RMK BLU
EGQM,2022-10-31T18:50:00Z,EGQM 311850Z AUTO 15009KT 8000 BR FEW190/// 12/11 Q1005
EGQS,2022-10-31T19:20:00Z,EGQS 311920Z 18006KT CAVOK 13/08 Q1002 NOSIG RMK BLU BLU
EGSH,2022-10-31T19:20:00Z,EGSH 311920Z 13013KT 100V160 CAVOK 15/13 Q1006 NOSIG
EGSS,2022-10-31T19:20:00Z,EGSS 311920Z AUTO 12013KT 8000 BKN008 OVC013 15/14 Q1004
EGSY,2022-10-31T19:20:00Z,EGSY 311920Z AUTO 10010KT 8000 -DZ OVC006/// 14/13 Q0998
EGTE,2022-10-31T19:20:00Z,EGTE 311920Z 18016KT 9000 SCT020 15/13 Q0998
EGTK,2022-10-31T19:20:00Z,EGTK 311920Z 12008KT 9999 VCSH SCT010 BKN012 OVC020 13/13 Q1001
EGUB,2022-10-31T19:36:00Z,EGUB 311936Z 12012KT 9999 -RA FEW009 SCT024 BKN080 14/13 Q1001 TEMPO 4000 RA BKN010 RMK WHT TEMPO GRN
EGUL,2022-10-31T18:55:00Z,EGUL 311855Z AUTO 10013G18KT 9999 FEW050 14/14 A2967 RMK AO2 SLP051 T01440136 $
EGUN,2022-10-31T19:13:00Z,EGUN 311913Z COR 11016G22KT 9999 FEW050 BKN080 OVC130 14/14 A2965 RMK AO2A PRESFR SLP044 $ COR 1916
EGUW,2022-10-31T18:50:00Z,EGUW 311850Z 12011KT 9999 SCT009 BKN015 BKN120 14/13 Q1005 TEMPO 7000 RA SCT005 RMK GRN TEMPO YLO1
EGVA,2022-10-31T19:20:00Z,EGVA 311920Z AUTO 12011KT 9999 -RA BR SCT010 14/13 A2954 RMK AO2 SLP007 $
EGVN,2022-10-31T19:20:00Z,EGVN 311920Z AUTO 13010KT 9999 // OVC006/// 14/13 Q1001
EGVO,2022-10-31T19:20:00Z,EGVO 311920Z AUTO 15011KT 9999 -RA BKN010/// SCT027/// 15/14 Q1001
EGVP,2022-10-31T19:20:00Z,EGVP 311920Z AUTO 15010KT 9999 // OVC010/// 15/14 Q1001
EGWU,2022-10-31T19:20:00Z,EGWU 311920Z 13009KT 9999 -SHRA SCT011 BKN020 14/13 Q1003 TEMPO FEW011 BKN020 RMK GRN TEMPO WHT
EGXC,2022-10-31T18:50:00Z,EGXC 311850Z 09009KT 9999 BKN041 14/12 Q1005 RMK BLU
EGXE,2022-10-31T19:20:00Z,EGXE 311920Z AUTO 16007KT 9999 FEW076/// OVC096/// 13/11 Q1005
EGXP,2022-10-31T18:50:00Z,EGXP 311850Z AUTO 11009KT //// // ///////// 13/11 Q1004
EGXS,2022-10-31T18:50:00Z,EGXS 311850Z AUTO 11015KT 9999 BKN100/// BKN240/// 13/12 Q1005
EGXT,2022-10-31T19:20:00Z,EGXT 311920Z AUTO 11010KT 3900 RA FEW011/// OVC017/// 13/12 Q1003
EGXV,2022-10-31T19:20:00Z,EGXV 311920Z AUTO 09003KT 9999 BKN068/// SCT086/// 12/11 Q1005
EGXW,2022-10-31T19:20:00Z,EGXW 311920Z 09012KT 9999 BKN040 BKN120 13/12 Q1003 TEMPO 4000 SHRA SCT005 RMK BLU TEMPO YLO1
EGXZ,2022-10-31T19:20:00Z,EGXZ 311920Z AUTO 11009KT 9999 BKN059/// SCT095/// 12/11 Q1005
EGYD,2022-10-31T19:20:00Z,EGYD 311920Z AUTO 09012KT 9999 FEW038/// BKN047/// 13/12 Q1003
EGYE,2022-10-31T18:50:00Z,EGYE 311850Z AUTO 10013KT //// VV/// ///// Q////
EGYH,2022-10-31T19:20:00Z,EGYH 311920Z AUTO 11010KT 9999 OVC044/// 14/12 Q1004
EGYM,2022-10-31T19:20:00Z,EGYM 311920Z 11013KT 9999 FEW020 SCT040 BKN120 14/12 Q1004 TEMPO 6000 RA SCT010 RMK BLU TEMPO GRN
EGYP,2022-10-31T19:20:00Z,EGYP 311920Z 28025KT 9999 FEW028 OVC080 09/01 Q1010 TEMPO SCT014
EHAK,2022-10-31T19:25:00Z,EHAK 311925Z AUTO 15021KT 120V190 9999 SCT005/// SCT007/// BKN008/// 14/13 Q1011
EHAM,2022-10-31T19:25:00Z,EHAM 311925Z 12011KT CAVOK 15/13 Q1010 NOSIG
EHBK,2022-10-31T19:25:00Z,EHBK 311925Z AUTO 18011KT 9999 NSC 17/10 Q1012 NOSIG
EHDL,2022-10-31T19:25:00Z,EHDL 311925Z AUTO 14010KT 080V210 9999 OVC310 15/12 Q1011 BLU
EHDV,2022-10-31T19:25:00Z,EHDV 311925Z AUTO 14023KT 9999 NSC 15/12 Q1009
EHEH,2022-10-31T19:25:00Z,EHEH 311925Z AUTO 14005KT 9999 OVC250 14/11 Q1011 BLU NOSIG
EHFD,2022-10-31T19:25:00Z,EHFD 311925Z AUTO 12021KT 9999 NSC 14/13 Q1012
EHFS,2022-10-31T19:25:00Z,EHFS 311925Z AUTO 14013KT 9999 NSC 16/13 Q1008
EHGG,2022-10-31T19:25:00Z,EHGG 311925Z AUTO 09009KT 060V130 7000 NSC 14/12 Q1012 NOSIG
EHGR,2022-10-31T19:25:00Z,EHGR 311925Z AUTO 14007KT 9999 OVC250 14/12 Q1010 BLU
EHHW,2022-10-31T19:25:00Z,EHHW 311925Z AUTO 10019KT 080V140 9999 NSC 15/12 Q1012
EHJA,2022-10-31T19:25:00Z,EHJA 311925Z AUTO 13026KT 9999 NSC 15/13 Q1009
EHJR,2022-10-31T19:25:00Z,EHJR 311925Z AUTO 12023KT //// // ///////// 15/13 Q1009 RE// W16/H10
EHKD,2022-10-31T19:25:00Z,EHKD 311925Z AUTO 11009KT 070V150 9000 BR BKN340 14/12 Q1010 BLU NOSIG
EHKV,2022-10-31T19:25:00Z,EHKV 311925Z AUTO 13024KT 9999 NSC 16/13 Q1009
EHLE,2022-10-31T19:25:00Z,EHLE 311925Z AUTO 11007KT 8000 NSC 14/13 Q1011 NOSIG
EHLW,2022-10-31T19:25:00Z,EHLW 311925Z AUTO VRB12KT 9999 OVC130 14/12 Q1011 BLU
EHMA,2022-10-31T19:25:00Z,EHMA 311925Z AUTO 10019KT 9000 NSC 14/12 Q1012
EHMG,2022-10-31T19:25:00Z,EHMG 311925Z AUTO 12022KT 9999 NSC 15/12 Q1012
EHPG,2022-10-31T19:25:00Z,EHPG 311925Z AUTO 11023KT 9999 NSC 16/14 Q1008
EHQE,2022-10-31T19:25:00Z,EHQE 311925Z AUTO /////KT 9999 NSC 15/13 Q1009
EHRD,2022-10-31T19:25:00Z,EHRD 311925Z AUTO 13006KT 9999 NSC 15/13 Q1009 NOSIG
EHSA,2022-10-31T19:25:00Z,EHSA 311925Z AUTO 13021KT 8000 ///////// 16/14 Q1008 W16/H8
EHSC,2022-10-31T19:25:00Z,EHSC 311925Z AUTO 14020KT 9999 ///////// 16/14 Q1009 W16/H6
EHVK,2022-10-31T19:25:00Z,EHVK 311925Z AUTO 14007KT 120V180 9999 OVC310 15/11 Q1011 BLU
EHVL,2022-10-31T19:25:00Z,EHVL 311925Z AUTO 11017KT 9999 BKN140 14/12 Q1010 BLU
EHWO,2022-10-31T19:25:00Z,EHWO 311925Z AUTO 15005KT 110V190 9999 OVC220 16/12 Q1009 BLU
EICK,2022-10-31T19:30:00Z,EICK 311930Z 28010KT 9999 FEW005 SCT009 BKN070 09/08 Q1000 NOSIG
EIDL,2022-10-31T19:30:00Z,EIDL 311930Z 09004KT 9999 FEW040 10/09 Q0999
EIDW,2022-10-31T19:30:00Z,EIDW 311930Z 13006KT 100V170 7000 SCT015 BKN100 13/11 Q0999 NOSIG
EIME,2022-10-31T19:00:00Z,EIME 311900Z 13006KT 8000 FEW010 BKN026 13/10 Q0999
EINN,2022-10-31T19:30:00Z,EINN 311930Z 26007KT 9999 FEW005 SCT015 BKN040 10/09 Q1000 NOSIG
EISG,2022-10-31T19:30:00Z,EISG 311930Z 00000KT CAVOK 09/08 Q0999
EIWF,2022-10-31T19:30:00Z,EIWF 311930Z 33005KT 290V010 9999 -RA FEW006 10/10 Q0998
EKAH,2022-10-31T19:20:00Z,EKAH 311920Z AUTO 15001KT 0200 R10R/0550D R28L/0800N FG VV001 08/08 Q1019
EKBI,2022-10-31T19:20:00Z,EKBI 311920Z AUTO 13003KT 9999 BKN018/// 11/11 Q1018
EKCH,2022-10-31T19:20:00Z,EKCH 311920Z 15001KT 9000 BKN020 12/11 Q1020 NOSIG
EKEB,2022-10-31T19:20:00Z,EKEB 311920Z AUTO 11007KT 9999 BKN015/// 13/10 Q1017
EKKA,2022-10-31T19:21:00Z,EKKA 311921Z AUTO 14004KT 9999 BKN011/// 10/10 Q1018 TEMPO 4000 BR BKN012
EKRK,2022-10-31T19:20:00Z,EKRK 311920Z AUTO 17001KT 6000 BKN015/// 11/11 Q1019
EKRN,2022-10-31T19:20:00Z,EKRN 311920Z AUTO 18002KT 5000 OVC003/// 13/12 Q1020
EKRS,2022-10-31T19:20:00Z,EKRS 311920Z AUTO 09000KT 1600 BR FEW001/// BKN014/// 10/10 Q1019
EKSB,2022-10-31T19:20:00Z,EKSB 311920Z 14008KT 9999 BKN008 13/12 Q1018
EKSP,2022-10-31T19:20:00Z,EKSP 311920Z 13008KT 8000 FEW003 BKN005 11/11 Q1018
EKVD,2022-10-31T19:20:00Z,EKVD 311920Z AUTO 13005KT //// ///////// 12/11 Q////
EKVG,2022-10-31T19:20:00Z,EKVG 311920Z AUTO 22013KT 9999 OVC013/// 09/08 Q0994 RMK BKN010/// WIND SKEID VRB07G25KT
EKYT,2022-10-31T19:25:00Z,EKYT 311925Z AUTO 10005KT 4300 BR SCT020/// 09/09 Q1018
ELLX,2022-10-31T19:20:00Z,ELLX 311920Z 18004KT 130V210 CAVOK 14/10 Q1014 NOSIG
ENAL,2022-10-31T19:20:00Z,ENAL 311920Z 18007KT 9999 SCT059 12/08 Q1010
ENAN,2022-10-31T19:20:00Z,ENAN 311920Z 17013KT 6000 BKN005 06/05 Q1006
ENAT,2022-10-31T19:20:00Z,ENAT 311920Z 18007KT CAVOK 01/M02 Q1007 RMK WIND 700FT 17010KT
ENBL,2022-10-31T19:20:00Z,ENBL 311920Z 15002KT 9999 SCT030 BKN040 10/07 Q1012
ENBN,2022-10-31T19:20:00Z,ENBN 311920Z 22011KT 4000 SHRA SCT004 BKN006 10/10 Q1010
ENBO,2022-10-31T19:20:00Z,ENBO 311920Z 10013KT 8000 -DZ SCT004 BKN009 05/05 Q1008 TEMPO 22009KT 2000 RADZ BKN012
ENBR,2022-10-31T19:20:00Z,ENBR 311920Z 17012KT 9999 FEW015 OVC018 12/09 Q1013 TEMPO 17015G25KT RMK WIND 1200FT 15024KT
ENBS,2022-10-31T18:50:00Z,ENBS 311850Z 22011KT 170V240 9999 NSC 02/00 Q1006
ENBV,2022-10-31T19:20:00Z,ENBV 311920Z 00000KT 9999 FEW040 OVC050 03/01 Q1007
ENCN,2022-10-31T19:20:00Z,ENCN 311920Z 00000KT 8000 OVC003 11/11 Q1017
ENDR,2022-10-31T19:20:00Z,ENDR 311920Z AUTO 24025KT 9999NDV FEW024/// 11/09 Q1009 W///S4
ENDU,2022-10-31T19:20:00Z,ENDU 311920Z 00000KT 9000 RA VCFG FEW001 SCT005 BKN030 00/00 Q1007 RMK WIND 1100FT 20007KT WIND 2200FT 20007KT
ENEV,2022-10-31T19:20:00Z,ENEV 311920Z 21004KT 9999 OVC007 04/03 Q1008 RMK WIND 1400FT 21016KT
ENFB,2022-10-31T19:20:00Z,ENFB 311920Z AUTO 17042KT 8000NDV OVC008/// 12/10 Q1006 W///S4
ENFL,2022-10-31T19:20:00Z,ENFL 311920Z 17014KT 9999 FEW020 BKN029 13/08 Q1011
ENGC,2022-10-31T19:20:00Z,ENGC 311920Z 18037KT 9999 BKN009 11/10 Q1006 W10/S5
ENGM,2022-10-31T19:20:00Z,ENGM 311920Z VRB02KT 9999 7000SE FEW002 08/08 Q1015 TEMPO 4000 BR BKN006
ENHD,2022-10-31T19:20:00Z,ENHD 311920Z 16014KT 9999 SCT014 BKN018 12/10 Q1013
ENHE,2022-10-31T19:20:00Z,ENHE 311920Z 23021KT 4200 BR OVC009 10/09 Q1008 W///S3
ENHF,2022-10-31T19:20:00Z,ENHF 311920Z 27003KT CAVOK 04/02 Q1005 RMK WIND 1254FT 21009KT
ENHK,2022-10-31T19:20:00Z,ENHK 311920Z 17004KT CAVOK 05/01 Q1006
ENHM,2022-10-31T19:20:00Z,ENHM 311920Z AUTO 16032KT 9999NDV BKN013/// BKN016/// 12/12 Q1008 W12/S/
ENHV,2022-10-31T19:20:00Z,ENHV 311920Z AUTO 19012KT 9999 SCT040/// BKN160/// BKN190/// 04/01 Q1006
ENJS,2022-10-31T19:20:00Z,ENJS 311920Z 17031KT 9999 BKN014 12/11 Q1009 W11/S/
ENKB,2022-10-31T19:20:00Z,ENKB 311920Z 07005KT 9999 FEW051 SCT063 08/06 Q1010 RMK WIND 745FT 14010KT
ENKR,2022-10-31T19:20:00Z,ENKR 311920Z 18005KT 9999 FEW041 M02/M03 Q1008 RMK WIND 731FT 20011KT
ENLA,2022-10-31T19:20:00Z,ENLA 311920Z AUTO 16021KT 9999NDV BKN007/// BKN190/// 13/12 Q1010 W///S4
ENLE,2022-10-31T19:20:00Z,ENLE 311920Z 14021KT 9999 BKN016 13/12 Q1011 W13/S4
ENLK,2022-10-31T19:20:00Z,ENLK 311920Z 10003KT 9999 VCSH FEW008 SCT012 BKN020 08/08 Q1006
ENMH,2022-10-31T19:20:00Z,ENMH 311920Z AUTO 15007KT 120V260 9999 OVC051 05/02 Q1006
ENML,2022-10-31T19:20:00Z,ENML 311920Z 04005KT CAVOK 06/06 Q1010
ENMS,2022-10-31T19:20:00Z,ENMS 311920Z VRB03KT 9999 -DZ FEW007 BKN016 05/04 Q1010 RMK WIND 412FT 15004KT
ENNA,2022-10-31T19:20:00Z,ENNA 311920Z 18016KT CAVOK M01/M04 Q1007 RMK WIND 1800FT 23005KT
ENNE,2022-10-31T19:20:00Z,ENNE 311920Z AUTO 22024KT 8000NDV -RA BKN003/// 09/09 Q1007 W///S4
ENNM,2022-10-31T19:20:00Z,ENNM 311920Z 05006KT 9999 VCSH FEW008 SCT016 BKN023 06/05 Q1012
ENOA,2022-10-31T19:20:00Z,ENOA 311920Z 17036KT 8000 BKN008 12/10 Q1008 W///S5
ENOL,2022-10-31T19:20:00Z,ENOL 311920Z 12009KT CAVOK 08/06 Q1011 NOSIG
ENOV,2022-10-31T19:20:00Z,ENOV 311920Z 24007KT 190V340 9999 FEW040 BKN051 14/05 Q1011 RMK WIND RWY24 08008KT WIND 2090FT 15021KT
ENQA,2022-10-31T19:20:00Z,ENQA 311920Z AUTO 16036KT 9999NDV BKN011/// 11/10 Q1010 W16/S4
ENQC,2022-10-31T19:20:00Z,ENQC 311920Z AUTO 15032KT 9999NDV BKN010/// 12/10 Q1009 W///S4
ENQR,2022-10-31T19:20:00Z,ENQR 311920Z AUTO 15036KT 7000NDV BKN009/// 11/10 Q1005 W10/S5
ENRA,2022-10-31T19:20:00Z,ENRA 311920Z VRB01KT 6000 -DZ SCT010 BKN016 02/02 Q1011
ENRM,2022-10-31T19:20:00Z,ENRM 311920Z 23009KT 9999 VCSH FEW008 SCT012 10/09 Q1011
ENRO,2022-10-31T19:20:00Z,ENRO 311920Z VRB02KT CAVOK M01/M01 Q1013
ENRS,2022-10-31T19:20:00Z,ENRS 311920Z 22008KT 9999 VCSH FEW007 OVC019 09/10 Q1007
ENRY,2022-10-31T19:20:00Z,ENRY 311920Z AUTO 21007KT 9000NDV OVC003/// 11/10 Q1017
ENSB,2022-10-31T19:20:00Z,ENSB 311920Z 11005KT 050V160 9999 FEW030 BKN040 M01/M05 Q1001 RMK WIND 1400FT 13004KT
ENSD,2022-10-31T19:20:00Z,ENSD 311920Z 06009KT 9999 FEW030 BKN044 10/09 Q1012 RMK WIND RWY26 09005KT WIND 1140FT VRB03KT
ENSE,2022-10-31T19:20:00Z,ENSE 311920Z AUTO 17039KT 9000NDV OVC008/// 12/10 Q1006 W///S5
ENSF,2022-10-31T19:20:00Z,ENSF 311920Z AUTO /////KT 8000NDV BKN008/// ///// Q//// W///S4
ENSG,2022-10-31T19:20:00Z,ENSG 311920Z 00000KT 9999 BKN038 07/06 Q1013 RMK WIND 3806FT 18014KT
ENSH,2022-10-31T19:20:00Z,ENSH 311920Z 10004KT 3500 RA VV004 07/07 Q1008 RMK WIND 150FT 15003KT
ENSK,2022-10-31T19:20:00Z,ENSK 311920Z 14011KT 9999 VCSH FEW008 SCT012 BKN018 07/05 Q1007
ENSL,2022-10-31T19:20:00Z,ENSL 311920Z AUTO 19029KT 9999NDV BKN011/// 12/11 Q1008 W10/S4
ENSR,2022-10-31T19:20:00Z,ENSR 311920Z 18006KT 140V220 9999 -RA FEW012 BKN043 03/M00 Q1007 RMK WIND RWY32 17005KT WIND 1118FT 12006KT
ENSS,2022-10-31T19:20:00Z,ENSS 311920Z 23010KT 9999 FEW020 BKN047 03/01 Q1008 RMK WIND 0500FT /////KT
ENST,2022-10-31T19:20:00Z,ENST 311920Z 18012KT 9999 -DZ FEW004 SCT005 BKN007 09/09 Q1009 RMK WIND 300FT 19015KT
ENTC,2022-10-31T19:20:00Z,ENTC 311920Z 21011KT 9999 -SHRA SCT008 BKN034 04/03 Q1007 TEMPO 4000 RADZ BKN008 RMK WIND 2600FT 19012KT
ENTO,2022-10-31T19:20:00Z,ENTO 311920Z 21005KT 180V270 9999 SCT004 10/10 Q1017 TEMPO BKN004
ENUG,2022-10-31T19:20:00Z,ENUG 311920Z AUTO 23016KT 9999NDV OVC019/// 08/04 Q1004 W///S4
ENUN,2022-10-31T19:20:00Z,ENUN 311920Z AUTO 22020KT 1200NDV BR OVC003/// 09/09 Q1005 W09/S4
ENVA,2022-10-31T19:20:00Z,ENVA 311920Z VRB02KT 9999 BKN065 05/05 Q1012 NOSIG RMK WIND 670FT VRB02KT
ENVD,2022-10-31T19:20:00Z,ENVD 311920Z 21012KT 9999 FEW010 BKN038 03/00 Q1008
ENWV,2022-10-31T19:20:00Z,ENWV 311920Z AUTO 15023KT 9999NDV FEW012/// 13/13 Q1011 W///S3
ENZV,2022-10-31T19:20:00Z,ENZV 311920Z 15010KT 9999 FEW018 12/09 Q1014
EPBY,2022-10-31T19:30:00Z,EPBY 311930Z VRB02KT 0600 R26/1700D FG VV002 11/11 Q1020
EPGD,2022-10-31T19:30:00Z,EPGD 311930Z 29006KT 7000 OVC007 12/12 Q1020
EPKK,2022-10-31T19:30:00Z,EPKK 311930Z 31002KT CAVOK 11/10 Q1021
EPKT,2022-10-31T19:30:00Z,EPKT 311930Z 09004KT 4200 0500NW BCFG BR NSC 08/07 Q1020
EPLB,2022-10-31T19:30:00Z,EPLB 311930Z 11004KT 0050 FG VV001 09/09 Q1022
EPLL,2022-10-31T19:30:00Z,EPLL 311930Z 07004KT 0050 R25/0400N FG VV000 09/09 Q1020
EPMO,2022-10-31T19:30:00Z,EPMO 311930Z 21005KT 180V240 0900 R08/1000N FG VV001 12/12 Q1021
EPPO,2022-10-31T19:30:00Z,EPPO 311930Z 07004KT 0050 R28/0325N FG VV001 11/11 Q1020
EPRZ,2022-10-31T19:30:00Z,EPRZ 311930Z VRB01KT CAVOK 10/09 Q1021
EPSC,2022-10-31T19:30:00Z,EPSC 311930Z VRB02KT 2500 -DZ BR OVC002 12/12 Q1020
EPSY,2022-10-31T19:30:00Z,EPSY 311930Z 20002KT 2600 BR VV003 09/09 Q1021
EPWA,2022-10-31T19:30:00Z,EPWA 311930Z 17003KT 1400 1100W R33/1700U -DZ BR OVC002 12/12 Q1021 TEMPO 0800 FG
EPWR,2022-10-31T19:30:00Z,EPWR 311930Z VRB01KT 0800 R29/P2000N FG NSC 09/08 Q1020
EPZG,2022-10-31T19:30:00Z,EPZG 311930Z 04002KT 0400 R24/0300N FG SCT000 09/09 Q1019
ESCF,2022-10-31T19:20:00Z,ESCF 311920Z AUTO 20005KT 9999 NCD 09/08 Q1018
ESCM,2022-10-31T19:20:00Z,ESCM 311920Z AUTO 23006KT 9999 NCD 09/08 Q1016
ESDF,2022-10-31T19:20:00Z,ESDF 311920Z AUTO 00000KT 0350 0200// R01/1000VP2000D R19/0700V1900U FG FEW001/// OVC008/// 07/07 Q1020
ESGG,2022-10-31T19:20:00Z,ESGG 311920Z 17006KT 8000 FEW003 SCT004 BKN006 10/09 Q1019
ESGJ,2022-10-31T19:20:00Z,ESGJ 311920Z 25004KT 9999 BKN016 08/08 Q1019
ESGP,2022-10-31T19:20:00Z,ESGP 311920Z 18006KT 5000 BR OVC003 11/10 Q1019
ESGT,2022-10-31T19:20:00Z,ESGT 311920Z AUTO 20006KT 9999 OVC009/// 11/10 Q1018
ESIA,2022-10-31T19:20:00Z,ESIA 311920Z AUTO 20004KT 9999 NCD 08/07 Q1018
ESIB,2022-10-31T19:20:00Z,ESIB 311920Z AUTO 21008KT 9999 OVC012/// 11/10 Q1018
ESKM,2022-10-31T19:20:00Z,ESKM 311920Z AUTO 26003KT 9999 OVC024/// 09/08 Q1015
ESKN,2022-10-31T19:20:00Z,ESKN 311920Z 23003KT 8000 R08/1000N R26/1000N MIFG NSC 06/06 Q1017
ESKS,2022-10-31T19:20:00Z,ESKS 311920Z AUTO 19003KT 9999 FEW005/// BKN009/// OVC016/// 07/07 Q1015
ESMK,2022-10-31T19:20:00Z,ESMK 311920Z AUTO 00000KT 0300 R01/1200N R19/P2000D FG SCT012/// 08/08 Q1019
ESMQ,2022-10-31T19:20:00Z,ESMQ 311920Z AUTO 28003KT 0100 R16/0650N R34/0500N FG BKN001/// 06/06 Q1019
ESMS,2022-10-31T19:20:00Z,ESMS 311920Z VRB01KT 0150 R17/1100D R35/0700N FG FEW001 BKN020 11/11 Q1019
ESMT,2022-10-31T19:20:00Z,ESMT 311920Z AUTO 08002KT 0050 R01/0275N R19/0350N FG VV001 10/10 Q1019
ESMX,2022-10-31T19:20:00Z,ESMX 311920Z 22002KT 0250 R01/0450N R19/0450N FG VV002 10/10 Q1019
ESND,2022-10-31T19:20:00Z,ESND 311920Z AUTO VRB01KT 7000 NCD 01/00 Q1014
ESNG,2022-10-31T19:20:00Z,ESNG 311920Z 34003KT 9999 -FZDZ SCT010 OVC029 M01/// Q1007
ESNK,2022-10-31T19:20:00Z,ESNK 311920Z AUTO VRB03KT 9999 NCD 00/00 Q1013
ESNL,2022-10-31T19:20:00Z,ESNL 311920Z 33003KT 300V360 CAVOK M00/M01 Q1010
ESNN,2022-10-31T19:20:00Z,ESNN 311920Z AUTO 34003KT 0350 R16/1300N R34/P2000N BCFG NCD M00/M01 Q1013
ESNO,2022-10-31T19:20:00Z,ESNO 311920Z 28008KT CAVOK 02/01 Q1011
ESNQ,2022-10-31T19:20:00Z,ESNQ 311920Z AUTO 21003KT 190V250 8000 -FZRA FEW017/// OVC030/// M01/M02 Q1006 REFZUP
ESNS,2022-10-31T19:20:00Z,ESNS 311920Z AUTO 24006KT 9999 NCD 02/02 Q1008
ESNU,2022-10-31T19:20:00Z,ESNU 311920Z 28005KT CAVOK 03/01 Q1010
ESNV,2022-10-31T19:20:00Z,ESNV 311920Z AUTO VRB02KT 9999 NCD M01/M02 Q1011
ESNX,2022-10-31T19:20:00Z,ESNX 311920Z 29009KT 9999 BKN055 01/00 Q1007
ESNZ,2022-10-31T19:20:00Z,ESNZ 311920Z AUTO 20002KT 9999 NCD 04/04 Q1012
ESOE,2022-10-31T19:20:00Z,ESOE 311920Z 21007KT 9999 SCT021 11/10 Q1017
ESOH,2022-10-31T19:20:00Z,ESOH 311920Z AUTO VRB02KT 9999 OVC018/// 11/09 Q1016
ESOK,2022-10-31T19:20:00Z,ESOK 311920Z AUTO 19003KT 9999 BKN013/// ///// Q1017
ESOW,2022-10-31T19:20:00Z,ESOW 311920Z 23004KT CAVOK 10/08 Q1017
ESPA,2022-10-31T19:20:00Z,ESPA 311920Z 35005KT 9999 BKN012 02/02 Q1007
ESPE,2022-10-31T19:20:00Z,ESPE 311920Z AUTO VRB02KT 9999 SCT096/// BKN120/// M01/M02 Q1008
ESSA,2022-10-31T19:20:00Z,ESSA 311920Z 25008KT CAVOK 08/08 Q1016 NOSIG
ESSB,2022-10-31T19:20:00Z,ESSB 311920Z 24007KT 9999 FEW032 10/09 Q1016
ESSD,2022-10-31T19:20:00Z,ESSD 311920Z AUTO 28007KT 9999 OVC025/// 11/07 Q1015
ESSL,2022-10-31T19:20:00Z,ESSL 311920Z AUTO 21006KT 9999 NCD 10/08 Q1018
ESSP,2022-10-31T19:20:00Z,ESSP 311920Z AUTO 24005KT 9999 NCD 09/08 Q1018
ESST,2022-10-31T19:20:00Z,ESST 311920Z AUTO 22004KT 170V250 9999 OVC018/// 09/08 Q1016
ESSV,2022-10-31T19:20:00Z,ESSV 311920Z 20007KT 0150 R03/0750N R21/0700N FG VV002 10/10 Q1018
ESTA,2022-10-31T19:20:00Z,ESTA 311920Z 09003KT 1500 BR OVC015 10/10 Q1019
ESTL,2022-10-31T19:20:00Z,ESTL 311920Z AUTO 08003KT 0200 R29L/0650N FG FEW000/// 07/07 Q1019
ESUP,2022-10-31T19:20:00Z,ESUP 311920Z AUTO 00000KT 9999 OVC063/// M02/M02 Q1008
ESUT,2022-10-31T19:20:00Z,ESUT 311920Z AUTO VRB02KT 4600 BR FEW006/// SCT009/// OVC012/// 01/01 Q1009
ETAD,2022-10-31T18:55:00Z,ETAD 311855Z AUTO 09006KT 9999 CLR 13/09 A2996 RMK AO2 SLP137 T01250091
ETAR,2022-10-31T19:10:00Z,ETAR 311910Z 08004KT 9999 CLR 09/09 A3000 RMK AO2A SLP167 $
ETEB,2022-10-31T18:55:00Z,ETEB 311855Z AUTO 00000KT 9999 CLR 12/12 A3004 RMK AO2 SLP188 T01240115 $
ETGG,2022-10-31T19:20:00Z,ETGG 311920Z AUTO 14011KT 9999 // ////// 12/11 Q1017 ///
ETHA,2022-10-31T19:20:00Z,ETHA 311920Z AUTO 23005KT 9999 // ////// 09/08 Q1018 ///
ETHB,2022-10-31T19:20:00Z,ETHB 311920Z AUTO 16006KT 9999 // ////// 16/11 Q1014 ///
ETHC,2022-10-31T19:20:00Z,ETHC 311920Z AUTO 10008KT 4900 // ////// 14/13 Q1016 ///
ETHF,2022-10-31T19:20:00Z,ETHF 311920Z AUTO 31004KT 7000 // ////// 13/11 Q1016 ///
ETHL,2022-10-31T19:20:00Z,ETHL 311920Z AUTO 00000KT 0100 // ////// 10/10 Q1017 ///
ETHN,2022-10-31T19:20:00Z,ETHN 311920Z 13006KT 9999 FEW140 13/11 Q1016 BLU+
ETHS,2022-10-31T19:20:00Z,ETHS 311920Z 11009KT 4000 BR BKN002 13/12 Q1016 BLACKAMB
ETIC,2022-10-31T18:55:00Z,ETIC 311855Z AUTO 00000KT 9999 SCT190 10/10 A3003 RMK AO2 SLP180 T01040099 $
ETIH,2022-10-31T18:55:00Z,ETIH 311855Z AUTO 28003KT 9000 BR CLR 10/09 A3006 RMK AO2 SLP188 T00970086
ETIK,2022-10-31T19:25:00Z,ETIK 311925Z 00000KT 0200 R24/0200V0500 FG CLR 09/09 A3002 RMK AO2A SLP173 $
ETMN,2022-10-31T19:20:00Z,ETMN 311920Z 09008KT 5000 BR SCT004 BKN130 12/11 Q1015 WHT
ETNG,2022-10-31T18:50:00Z,ETNG 311850Z 09002KT CAVOK 13/10 Q1012 NOSIG
ETNH,2022-10-31T19:20:00Z,ETNH 311920Z AUTO 10007KT 6000 // ////// 11/10 Q1017 ///
ETNL,2022-10-31T19:20:00Z,ETNL 311920Z 09006KT 0400 R09/0700N FG VV000 12/12 Q1018 RED
ETNN,2022-10-31T19:20:00Z,ETNN 311920Z 13004KT 9999 FEW120 SCT340 14/10 Q1013 BLU+
ETNS,2022-10-31T19:20:00Z,ETNS 311920Z AUTO 09006KT 9999 // ////// 11/11 Q1017 ///
ETNT,2022-10-31T19:20:00Z,ETNT 311920Z AUTO 10008KT //// // ////// 13/13 Q1014 ///
ETNW,2022-10-31T19:20:00Z,ETNW 311920Z 12011KT 9999 FEW120 SCT140 BKN240 15/14 Q1015 BLU+
ETOU,2022-10-31T18:56:00Z,ETOU 311856Z 00000KT 9999 SCT150 14/11 A3001 RMK AO2A SLPNO RVRNO
ETSB,2022-10-31T19:20:00Z,ETSB 311920Z AUTO 16005KT //// // ////// 13/09 Q1015 ///
ETSH,2022-10-31T19:20:00Z,ETSH 311920Z 02001KT 6000 BCFG MIFG SCT130 BKN170 11/11 Q1018 WHT
ETSI,2022-10-31T19:20:00Z,ETSI 311920Z AUTO 07002KT 0050 // ////// 11/11 Q1017 ///
ETSL,2022-10-31T19:20:00Z,ETSL 311920Z AUTO 17003KT 0050 // ////// 07/07 Q1017 ///
ETSN,2022-10-31T19:20:00Z,ETSN 311920Z 00000KT 0100 FG VV000 11/11 Q1017 RED
ETWM,2022-10-31T19:20:00Z,ETWM 311920Z AUTO 09006KT //// // ////// 15/12 Q1013 ///
EVGA,2022-10-31T19:20:00Z,EVGA 311920Z 19004KT CAVOK 04/03 Q1020 NOSIG
EVLA,2022-10-31T19:20:00Z,EVLA 311920Z AUTO 14002KT 9999 OVC009/// 09/08 Q1019
EVRA,2022-10-31T19:20:00Z,EVRA 311920Z 18003KT 9999 BKN045 06/05 Q1020 NOSIG
EVVA,2022-10-31T19:20:00Z,EVVA 311920Z AUTO 23005KT 9999 OVC014 11/10 Q1019
EYKA,2022-10-31T19:20:00Z,EYKA 311920Z VRB01KT CAVOK 01/M00 Q1021
EYPA,2022-10-31T19:20:00Z,EYPA 311920Z VRB02KT 8000 OVC009 10/09 Q1020
EYSA,2022-10-31T19:20:00Z,EYSA 311920Z 19007KT CAVOK 06/04 Q1021 NOSIG
EYVI,2022-10-31T19:20:00Z,EYVI 311920Z 18002KT CAVOK 02/00 Q1022 TEMPO 1500 MIFG BR
FABL,2022-10-31T19:00:00Z,FABL 311900Z AUTO 18003KT //// R02///// // ///////// 18/04 Q1021
FACT,2022-10-31T19:00:00Z,FACT 311900Z 14012KT CAVOK 17/07 Q1019 NOSIG
FAGG,2022-10-31T19:00:00Z,FAGG 311900Z AUTO 10009KT 9999 // ////// 13/08 Q1026
FAHS,2022-10-31T19:00:00Z,FAHS 311900Z AUTO 16015G28KT //// // ////// 19/17 Q1023
FAJB,2022-10-31T19:00:00Z,FAJB 311900Z AUTO 10003KT //// // ////// 15/12 Q1024
FAKN,2022-10-31T19:00:00Z,FAKN 311900Z AUTO 10004KT //// // ////// 16/15 Q1026
FALA,2022-10-31T19:00:00Z,FALA 311900Z 09012KT CAVOK 17/13 Q1024 NOSIG
FALE,2022-10-31T19:00:00Z,FALE 311900Z 21007KT 9999 SCT045 16/14 Q1026 NOSIG
FALW,2022-10-31T19:00:00Z,FALW 311900Z AUTO 17006KT //// // ////// 18/07 Q1016
FAOR,2022-10-31T19:30:00Z,FAOR 311930Z 07010KT 9999 BKN008 14/12 Q1025 NOSIG
FAPE,2022-10-31T19:00:00Z,FAPE 311900Z 14005KT 110V170 9999 FEW014 SCT032 BKN045 13/12 Q1028 TEMPO -RA
FAPP,2022-10-31T19:00:00Z,FAPP 311900Z AUTO 06005KT //// // ////// 17/16 Q1025
FASI,2022-10-31T19:00:00Z,FASI 311900Z AUTO 13003KT //// // ////// 14/13 Q1028
FAUP,2022-10-31T19:00:00Z,FAUP 311900Z AUTO 21001KT //// // ////// 23/M00 Q1016
FAWB,2022-10-31T19:00:00Z,FAWB 311900Z AUTO 09006KT //// // ////// 17/15 Q1022
FAWK,2022-10-31T19:00:00Z,FAWK 311900Z AUTO 11008KT //// // ////// 16/13 Q1025
FBMN,2022-10-31T19:00:00Z,FBMN 311900Z 07005KT CAVOK 25/16 Q1016
FBPM,2022-10-31T19:00:00Z,FBPM 311900Z 11006KT 070V130 CAVOK 21/16 Q1019
FBSK,2022-10-31T19:00:00Z,FBSK 311900Z 08011KT 9999 FEW030CB SCT070 25/11 Q1017 NOSIG
FDBB,2022-10-31T19:00:00Z,FDBB 311900Z AUTO 22005KT //// // ////// 18/17 Q1022
FDMY,2022-10-31T19:00:00Z,FDMY 311900Z AUTO 27003KT //// // ////// 16/16 Q1034
FDPP,2022-10-31T19:00:00Z,FDPP 311900Z AUTO /////KT //// // ////// 13/M06 Q1023
FDST,2022-10-31T19:00:00Z,FDST 311900Z AUTO 03010KT //// // ////// 21/21 Q1023
FGSL,2022-10-31T19:00:00Z,FGSL 311900Z 21005KT 9999 FEW010 25/24 Q1012 NOSIG
FIMP,2022-10-31T19:00:00Z,FIMP 311900Z 07013KT 9999 SCT016 23/20 Q1021
FJDG,2022-10-31T18:55:00Z,FJDG 311855Z 36005KT 9999 FEW022 27/22 A2990 RMK SLP122 T02660220
FKKR,2022-10-31T19:00:00Z,FKKR 311900Z 04003KT 350V070 CAVOK 26/16 Q1011 NOSIG
FMCZ,2022-10-31T19:30:00Z,FMCZ 311930Z AUTO 01005KT 320V040 9999 FEW022 26/21 Q1015 NOSIG
FMEE,2022-10-31T19:30:00Z,FMEE 311930Z AUTO 13015KT 9999 FEW082/// BKN140/// 23/18 Q1020 TEMPO 4500 SHRA SCT020TCU
FMEP,2022-10-31T19:30:00Z,FMEP 311930Z AUTO 04003KT CAVOK 22/17 Q1019
FMMI,2022-10-31T19:30:00Z,FMMI 311930Z 07004KT 040V120 9999 FEW017 15/15 Q1023 NOSIG
FMMT,2022-10-31T19:00:00Z,FMMT 311900Z VRB01KT 9999 SCT017 22/20 Q1019 NOSIG
FMNM,2022-10-31T19:00:00Z,FMNM 311900Z VRB02KT 9999 FEW040 25/23 Q1015 NOSIG
FMSD,2022-10-31T19:00:00Z,FMSD 311900Z 08010KT 9999 VCTS FEW016CB 24/21 Q1016
FNCA,2022-10-31T19:00:00Z,FNCA 311900Z 18005KT 9999 FEW015 27/24 Q1009
FNLU,2022-10-31T19:00:00Z,FNLU 311900Z 18011KT 9999 FEW020 26/23 Q1008
FOOG,2022-10-31T19:30:00Z,FOOG 311930Z 22003KT 180V240 9999 SCT010 BKN023 27/26 Q1011
FSIA,2022-10-31T19:00:00Z,FSIA 311900Z 13014KT 9999 SCT020 25/23 Q1014 NOSIG
FTTA,2022-10-31T19:00:00Z,FTTA 311900Z 02005KT CAVOK 27/21 Q1011
FTTJ,2022-10-31T19:00:00Z,FTTJ 311900Z 32005KT 6000 NSC 29/11 Q1010 NOSIG
FWKI,2022-10-31T19:00:00Z,FWKI 311900Z 09015KT CAVOK 23/12 Q1018 NOSIG
FYGF,2022-10-31T19:00:00Z,FYGF 311900Z AUTO 35008G19KT //// // ////// 25/13 Q1019
FYLZ,2022-10-31T19:00:00Z,FYLZ 311900Z AUTO 20014KT //// // ////// 15/12 Q1013
FYWB,2022-10-31T19:00:00Z,FYWB 311900Z AUTO 30004KT //// // ////// 15/12 Q1014
FYWW,2022-10-31T19:00:00Z,FYWW 311900Z AUTO 24005KT //// // ////// 24/M01 Q1022
GABS,2022-10-31T19:30:00Z,GABS 311930Z 07004KT CAVOK 27/13 Q1013 NOSIG
GAMB,2022-10-31T19:00:00Z,GAMB 311900Z 34004KT CAVOK 28/18 Q1012
GBYD,2022-10-31T19:00:00Z,GBYD 311900Z 26006KT CAVOK 29/24 Q1010
GCFV,2022-10-31T19:30:00Z,GCFV 311930Z 01007KT 9999 FEW010 23/20 Q1019
GCGM,2022-10-31T19:30:00Z,GCGM 311930Z AUTO 09003KT CAVOK 22/19 Q1020 RMK R09/VRB02KT ARP/VRB01KT
GCHI,2022-10-31T19:30:00Z,GCHI 311930Z AUTO 36009KT 320V040 9999 SCT014 23/20 Q1020
GCLA,2022-10-31T19:30:00Z,GCLA 311930Z 01009KT 330V030 9999 SCT020 23/19 Q1021
GCLP,2022-10-31T19:30:00Z,GCLP 311930Z 01013KT 9999 FEW020 23/20 Q1020 NOSIG
GCRR,2022-10-31T19:30:00Z,GCRR 311930Z 36011KT CAVOK 24/19 Q1019
GCTS,2022-10-31T19:30:00Z,GCTS 311930Z 06005KT 010V080 9999 FEW020 22/19 Q1020 NOSIG
GCXO,2022-10-31T19:30:00Z,GCXO 311930Z 26008KT CAVOK 19/17 Q1022 NOSIG
GECE,2022-10-31T19:30:00Z,GECE 311930Z AUTO 22003KT 160V260 CAVOK 20/19 Q1020
GEML,2022-10-31T19:30:00Z,GEML 311930Z 29001KT CAVOK 21/17 Q1021
GGOV,2022-10-31T19:00:00Z,GGOV 311900Z VRB02KT 8000 FEW010 30/26 Q1010 NOSIG
GMAD,2022-10-31T19:30:00Z,GMAD 311930Z 14010KT CAVOK 26/M02 Q1019 NOSIG
GMAG,2022-10-31T19:00:00Z,GMAG 311900Z 04005KT CAVOK 27/M07 Q1019
GMAZ,2022-10-31T19:00:00Z,GMAZ 311900Z AUTO 16007KT CAVOK 23/M07 Q1024
GMFF,2022-10-31T19:30:00Z,GMFF 311930Z 25005KT CAVOK 22/01 Q1023 NOSIG
GMFK,2022-10-31T19:00:00Z,GMFK 311900Z 19004KT CAVOK 22/M08 Q1026 NOSIG
GMFM,2022-10-31T19:00:00Z,GMFM 311900Z 31007KT CAVOK 22/08 Q1023 NOSIG
GMFO,2022-10-31T19:30:00Z,GMFO 311930Z 32012KT CAVOK 19/13 Q1022 NOSIG
GMMB,2022-10-31T19:00:00Z,GMMB 311900Z AUTO 35003KT 310V020 9999NDV ////// 21/21 Q1022 NOSIG
GMMC,2022-10-31T19:00:00Z,GMMC 311900Z 02004KT 6000 NSC 22/19 Q1021
GMMD,2022-10-31T19:00:00Z,GMMD 311900Z 08008KT CAVOK 25/M01 Q1021 NOSIG
GMME,2022-10-31T19:30:00Z,GMME 311930Z 00000KT 5000 SCT010 SCT016 21/20 Q1020 NOSIG
GMMH,2022-10-31T19:00:00Z,GMMH 311900Z 01013KT 8000 NSC 23/15 Q1016 NOSIG
GMMI,2022-10-31T19:00:00Z,GMMI 311900Z AUTO VRB04KT //// ////// 22/17 Q1020 NOSIG
GMML,2022-10-31T19:00:00Z,GMML 311900Z 03009KT CAVOK 26/13 Q1018 NOSIG
GMMN,2022-10-31T19:30:00Z,GMMN 311930Z 03005KT 360V080 CAVOK 22/17 Q1021 NOSIG
GMMW,2022-10-31T19:00:00Z,GMMW 311900Z VRB02KT 5000 BKN012 20/16 Q1022 NOSIG
GMMX,2022-10-31T19:30:00Z,GMMX 311930Z 30004KT 260V340 9999 FEW100 26/03 Q1022 NOSIG
GMMZ,2022-10-31T19:00:00Z,GMMZ 311900Z 11004KT CAVOK 24/M08 Q1024 NOSIG
GMTA,2022-10-31T19:00:00Z,GMTA 311900Z VRB02KT 8000 FEW010 SCT080 BKN200 21/16 Q1021 NOSIG
GMTN,2022-10-31T19:00:00Z,GMTN 311900Z VRB01KT 6000 SCT020 BKN200 21/16 Q1020 NOSIG
GMTT,2022-10-31T19:30:00Z,GMTT 311930Z 26005KT 230V290 6000 NSC 20/18 Q1021 NOSIG
GOBD,2022-10-31T19:30:00Z,GOBD 311930Z 34007KT 7000 NSC 28/19 Q1011 NOSIG
GOGK,2022-10-31T19:00:00Z,GOGK 311900Z 00000KT CAVOK 29/26 Q1008
GOGS,2022-10-31T19:00:00Z,GOGS 311900Z 34004KT CAVOK 29/25 Q1010
GOOD,2022-10-31T19:00:00Z,GOOD 311900Z 12002KT CAVOK 32/22 Q1009
GOOY,2022-10-31T19:00:00Z,GOOY 311900Z 00000KT 7000 NSC 29/22 Q1010
GOSM,2022-10-31T19:00:00Z,GOSM 311900Z 00000KT CAVOK 30/22 Q1010
GOSP,2022-10-31T19:00:00Z,GOSP 311900Z 00000KT CAVOK 32/17 Q1010
GOSS,2022-10-31T19:00:00Z,GOSS 311900Z VRB04KT CAVOK 33/11 Q1010
GOTT,2022-10-31T19:00:00Z,GOTT 311900Z 20002KT CAVOK 29/22 Q1010
GQNO,2022-10-31T19:30:00Z,GQNO 311930Z 05007KT 8000 NSC 31/M02 Q1011 NOSIG
GQPP,2022-10-31T19:00:00Z,GQPP 311900Z 32011KT 6000 NSC 24/15 Q1014 NOSIG
GVAC,2022-10-31T19:00:00Z,GVAC 311900Z 04013KT 9000 FEW013 BKN200 27/21 Q1012 NOSIG
GVBA,2022-10-31T19:00:00Z,GVBA 311900Z 05009KT 9000 NSC 27/22 Q1012 NOSIG
GVNP,2022-10-31T19:00:00Z,GVNP 311900Z 02009KT 7000 NSC 28/21 Q1012 NOSIG
GVSV,2022-10-31T19:00:00Z,GVSV 311900Z 04015KT 8000 FEW017 BKN200 27/22 Q1013 NOSIG
HAAB,2022-10-31T19:00:00Z,HAAB 311900Z 06010KT 9999 FEW025 14/01 Q1028 NOSIG
HECA,2022-10-31T19:30:00Z,HECA 311930Z 08006KT 9999 SCT025 23/13 Q1016 NOSIG
HELX,2022-10-31T19:00:00Z,HELX 311900Z 31003KT CAVOK 24/07 Q1015 NOSIG
HESW,2022-10-31T19:00:00Z,HESW 311900Z 27007KT CAVOK 18/06 Q1018
HETR,2022-10-31T19:00:00Z,HETR 311900Z 00000KT CAVOK 24/11 Q1014
HKEL,2022-10-31T19:00:00Z,HKEL 311900Z 16009KT 9999 FEW016CB BKN080 18/11 Q1025
HKJK,2022-10-31T19:00:00Z,HKJK 311900Z 07012KT 9999 SCT021 20/15 Q1022 NOSIG
HKKI,2022-10-31T18:30:00Z,HKKI 311830Z 07003KT 9999 FEW020CB BKN080 22/16 Q1016
HKKT,2022-10-31T19:00:00Z,HKKT 311900Z 00000KT CAVOK 16/14
HKML,2022-10-31T19:00:00Z,HKML 311900Z 15007KT 9999 SCT021 26/23 Q1014
HKMO,2022-10-31T19:00:00Z,HKMO 311900Z 11009KT 9999 BKN023 26/23 Q1014 NOSIG
HKNI,2022-10-31T19:00:00Z,HKNI 311900Z 19001KT CAVOK 18/14
HKNW,2022-10-31T19:00:00Z,HKNW 311900Z 09011KT 9999 SCT021 20/10 Q1022
HRYR,2022-10-31T19:30:00Z,HRYR 311930Z 35008KT 9999 FEW026 SCT100 22/15 Q1019 NOSIG
HSSK,2022-10-31T19:00:00Z,HSSK 311900Z 34012KT CAVOK 33/06 Q1011 NOSIG
HTAR,2022-10-31T19:00:00Z,HTAR 311900Z 10018KT 9999 FEW032 22/15 Q1021 NOSIG
HTBU,2022-10-31T19:00:00Z,HTBU 311900Z 27010KT CAVOK 21/18 Q1014
HTDA,2022-10-31T19:00:00Z,HTDA 311900Z 11007KT 9999 SCT011 25/22 Q1015 NOSIG
HTDO,2022-10-31T19:00:00Z,HTDO 311900Z 09015KT 9999 FEW024 25/11 Q1018 NOSIG
HTIB,2022-10-31T19:00:00Z,HTIB 311900Z 11010KT CAVOK 28/07 Q1013
HTIR,2022-10-31T19:00:00Z,HTIR 311900Z 00000KT 9999 FEW020 20/11 Q1020
HTJN,2022-10-31T19:00:00Z,HTJN 311900Z AUTO 06806KT //// 23/12 Q1019
HTKA,2022-10-31T19:00:00Z,HTKA 311900Z 00000KT CAVOK 25/18 Q1012 NOSIG
HTKJ,2022-10-31T19:00:00Z,HTKJ 311900Z 09018KT 9999 SCT028 24/17 Q1017 NOSIG
HTMG,2022-10-31T19:00:00Z,HTMG 311900Z 09010KT 9999 FEW024 25/19 Q1015
HTMT,2022-10-31T19:00:00Z,HTMT 311900Z 05010KT 9999 FEW022 24/22 Q1016
HTMW,2022-10-31T19:00:00Z,HTMW 311900Z 00000KT 9999 FEW019 FEW020CB 21/18 Q1014 NOSIG
HTSO,2022-10-31T19:00:00Z,HTSO 311900Z 06006KT 9999 SKC 23/12 Q1019
HTSU,2022-10-31T19:00:00Z,HTSU 311900Z 00000KT CAVOK 21/08 Q1022
HTTB,2022-10-31T19:00:00Z,HTTB 311900Z 10010KT CAVOK 28/07 Q1016 NOSIG
HTZA,2022-10-31T19:00:00Z,HTZA 311900Z 09005KT 9999 FEW018 25/23 Q1014 NOSIG
HUEN,2022-10-31T19:00:00Z,HUEN 311900Z 33004KT CAVOK 22/20 Q1015 NOSIG
K04V,2022-10-31T19:35:00Z,K04V 311935Z AUTO 20004KT 10SM 11/M07 A3015 RMK AO2
K04W,2022-10-31T19:35:00Z,K04W 311935Z AUTO 23007KT 10SM CLR 17/00 A2980 RMK AO2
K05U,2022-10-31T19:35:00Z,K05U 311935Z AUTO 00000KT 10SM CLR 15/M06 A3010 RMK A01
K06C,2022-10-31T19:35:00Z,K06C 311935Z AUTO 34003KT 3SM OVC006 13/13 A2982 RMK AO2 T01290129
K06D,2022-10-31T19:35:00Z,K06D 311935Z AUTO 25008KT 10SM CLR 11/03 A2968 RMK AO2
K08D,2022-10-31T19:35:00Z,K08D 311935Z AUTO 26012KT 10SM CLR 15/01 A2972 RMK AO2
K0A0,2022-10-31T19:35:00Z,K0A0 311935Z AUTO VRB05KT 10SM CLR 20/M05 A3004 RMK AO2
K0A9,2022-10-31T19:35:00Z,K0A9 311935Z AUTO 06003KT 10SM SCT037 BKN044 BKN050 20/15 A2994 RMK A01
K0CO,2022-10-31T19:35:00Z,K0CO 311935Z AUTO 32016G25KT 10SM CLR M04/M11 A3023 RMK AO2
K0E0,2022-10-31T19:35:00Z,K0E0 311935Z AUTO 27005KT 10SM CLR 17/M10 A3010 RMK AO2 T01681103 TSNO
K0F2,2022-10-31T19:35:00Z,K0F2 311935Z AUTO 12004KT 10SM CLR 23/09 A3002 RMK AO2 P0003 T02310094
K0J4,2022-10-31T18:58:00Z,K0J4 311858Z AUTO 01007KT 10SM CLR 25/12 A3001 RMK AO2 SLP157 T02500117
K0R0,2022-10-31T19:35:00Z,K0R0 311935Z AUTO 28005KT 10SM SCT048 SCT055 25/12 A3003 RMK AO2
K0R4,2022-10-31T19:35:00Z,K0R4 311935Z AUTO 30003KT 10SM BKN048 24/11 A3000 RMK AO2 T02400109
K0S9,2022-10-31T19:35:00Z,K0S9 311935Z AUTO 29006KT 2SM -RA FEW026 FEW030 OVC045 10/07 A2981 RMK AO2
K0V4,2022-10-31T19:35:00Z,K0V4 311935Z AUTO 08006KT 7SM SCT029 SCT065 OVC100 16/15 A3001 RMK AO1
K0VG,2022-10-31T19:35:00Z,K0VG 311935Z AUTO 23010KT 10SM SCT021 BKN028 OVC065 18/15 A2996 RMK AO2
K10G,2022-10-31T19:35:00Z,K10G 311935Z AUTO 20009KT 10SM SCT030 SCT041 OVC065 18/12 A2987 RMK AO2
K11R,2022-10-31T19:35:00Z,K11R 311935Z AUTO 00000KT 10SM CLR 25/12 A3001 RMK AO2 T02490117
K12N,2022-10-31T18:54:00Z,K12N 311854Z AUTO 21005KT 17/10 A2999 RMK AO1 SLP157 T01720100
K13K,2022-10-31T19:35:00Z,K13K 311935Z AUTO 00000KT 10SM CLR 17/02 A2997 RMK AO2 T01660017
K14Y,2022-10-31T19:35:00Z,K14Y 311935Z AUTO 24009G15KT 10SM CLR 17/M01 A2980 RMK AO2
K15M,2022-10-31T19:35:00Z,K15M 311935Z AUTO VRB03KT 10SM BKN019 OVC028 17/15 A2998 RMK AO2 CIG 018V025 T01740153 $
K17J,2022-10-31T19:35:00Z,K17J 311935Z AUTO 29004KT 10SM OVC038 24/14 A2998 RMK AO2 T02420144
K18A,2022-10-31T19:35:00Z,K18A 311935Z AUTO 00000KT 10SM OVC005 17/16 A3000 RMK AO2 T01740161
K18H,2022-10-31T19:35:00Z,K18H 311935Z AUTO 06007KT 10SM FEW033 26/17 A2996 RMK A01
K19S,2022-10-31T19:35:00Z,K19S 311935Z AUTO 21014KT 10SM CLR 23/01 A2995 RMK AO2 T02290015
K1A5,2022-10-31T19:35:00Z,K1A5 311935Z AUTO 00000KT 10SM SCT045 BKN060 OVC070 21/13 A3000 RMK AO2 T02060127
K1A6,2022-10-31T19:35:00Z,K1A6 311935Z AUTO 16005KT 10SM OVC065 18/15 A2995 RMK AO2 T01840149
K1A9,2022-10-31T19:35:00Z,K1A9 311935Z AUTO 26006KT 10SM OVC049 21/11 A3000 RMK AO2 T02080110
K1AM,2022-10-31T18:55:00Z,K1AM 311855Z AUTO 24022G32KT 10SM CLR 16/01 A2971 RMK AO2 PK WND 24032/46 SLP056 T01590008 $
K1AW,2022-10-31T18:55:00Z,K1AW 311855Z AUTO 28013G18KT 10SM CLR 17/M10 A2996 RMK AO2 SLP110 T01651103 FZRANO $
K1BM,2022-10-31T18:55:00Z,K1BM 311855Z AUTO 26013G26KT 10SM BKN065 15/01 A2972 RMK AO2 PK WND 25031/35 SLP062 T01540008 $
K1BW,2022-10-31T18:55:00Z,K1BW 311855Z AUTO 28017G24KT 10SM CLR 16/M11 A2998 RMK AO2 SLP129 T01631113 FZRANO $
K1CM,2022-10-31T18:55:00Z,K1CM 311855Z AUTO 24013G22KT 10SM BKN070 17/00 A2974 RMK AO2 PK WND 26031/11 SLP058 T01650002 $
K1CW,2022-10-31T18:55:00Z,K1CW 311855Z AUTO 31016G24KT 10SM CLR 18/M11 A2993 RMK AO2 SLP115 T01811108 FZRANO $
K1D1,2022-10-31T19:35:00Z,K1D1 311935Z AUTO 24010G15KT 10SM CLR 21/M02 A2976 RMK AO2
K1DM,2022-10-31T18:55:00Z,K1DM 311855Z AUTO 26025G30KT 10SM BKN090 17/01 A2971 RMK AO2 PK WND 26034/00 SLP061 T01660007 $
K1DW,2022-10-31T18:55:00Z,K1DW 311855Z AUTO 29013G18KT 10SM CLR 17/M12 A2996 RMK AO2 SLP122 T01741123 FZRANO $
K1EM,2022-10-31T18:55:00Z,K1EM 311855Z AUTO 26024G34KT 10SM CLR 16/01 A2968 RMK AO2 PK WND 24034/38 SLP048 T01600005 $
K1EW,2022-10-31T18:55:00Z,K1EW 311855Z AUTO 07007KT 10SM CLR 17/M10 A2994 RMK AO2 SLP114 T01681100 FZRANO $
K1F0,2022-10-31T19:35:00Z,K1F0 311935Z AUTO 23005KT 10SM CLR 23/08 A3001 RMK AO2 T02270079
K1FM,2022-10-31T18:55:00Z,K1FM 311855Z AUTO 26017G26KT 10SM FEW065 16/01 A2968 RMK AO2 PK WND 26031/03 SLP045 T01550012 $
K1GM,2022-10-31T18:55:00Z,K1GM 311855Z AUTO 21013KT 10SM FEW060 15/02 A2966 RMK AO2 SLP047 T01470022 $
K1H2,2022-10-31T19:35:00Z,K1H2 311935Z AUTO 25010KT 10SM OVC014 15/13 A2989 RMK AO2 T01460125
K1HM,2022-10-31T18:55:00Z,K1HM 311855Z AUTO 28018G23KT 10SM BKN065 16/02 A2966 RMK AO2 PK WND 28030/01 SLP042 T01580022 $
K1HW,2022-10-31T18:55:00Z,K1HW 311855Z AUTO 32010KT 10SM CLR 18/M07 A2990 RMK AO2 SLP117 T01821073 FZRANO $
K1IM,2022-10-31T18:55:00Z,K1IM 311855Z AUTO 24020G26KT 10SM FEW060 17/03 A2968 RMK AO2 PK WND 23026/28 SLP047 T01690028 $
K1IW,2022-10-31T18:55:00Z,K1IW 311855Z AUTO 29014KT 10SM CLR 18/M08 A2993 RMK AO2 SLP130 T01811081 FZRANO $
K1JM,2022-10-31T18:55:00Z,K1JM 311855Z AUTO 23024G30KT 10SM CLR 16/01 A2966 RMK AO2 PK WND 22032/42 SLP042 T01580011 PWINO $
K1JW,2022-10-31T18:55:00Z,K1JW 311855Z AUTO 27010G15KT 10SM CLR 18/M11 A2992 RMK AO2 SLP111 T01761112 FZRANO $
K1K1,2022-10-31T19:35:00Z,K1K1 311935Z AUTO 27003KT 10SM CLR 20/M03 A2997 RMK AO2 T01961030
K1KM,2022-10-31T18:55:00Z,K1KM 311855Z AUTO 25024G30KT 10SM BKN200 17/M00 A2976 RMK AO2 PK WND 26034/37 SLP068 T01651003 $
K1LM,2022-10-31T18:55:00Z,K1LM 311855Z AUTO 25015KT 10SM SCT065 14/00 A2978 RMK AO2 SLP080 T01380004 $
K1M4,2022-10-31T18:56:00Z,K1M4 311856Z AUTO 21006KT 10SM BKN016 BKN023 OVC049 17/14 A3001 RMK AO2 SLP154 T01720144
K1M5,2022-10-31T19:35:00Z,K1M5 311935Z AUTO 22010KT 10SM SCT022 OVC065 18/14 A2992 RMK A01
K1MM,2022-10-31T18:55:00Z,K1MM 311855Z AUTO 24023G26KT 10SM CLR 15/M01 A2972 RMK AO2 PK WND 24032/00 SLP062 T01521006 $
K1MW,2022-10-31T18:55:00Z,K1MW 311855Z AUTO 22003KT 10SM M 18/M10 A2993 RMK AO2 SLP123 T01801099 FZRANO $
K1NM,2022-10-31T18:55:00Z,K1NM 311855Z AUTO 26025G32KT 10SM FEW140 BKN180 16/00 A2966 RMK AO2 PK WND 26032/50 SLP040 T01600001 $
K1OM,2022-10-31T18:55:00Z,K1OM 311855Z AUTO 25027G32KT 10SM CLR 16/02 A2965 RMK AO2 PK WND 27033/47 SLP040 T01630016 $
K1OW,2022-10-31T18:55:00Z,K1OW 311855Z AUTO 00000KT 10SM CLR 15/M09 A3008 RMK AO2 SLP167 T01491092 FZRANO $
K1P1,2022-10-31T19:35:00Z,K1P1 311935Z AUTO 17003KT 10SM CLR 18/01 A2994 RMK AO2 T01840005
K1R7,2022-10-31T19:35:00Z,K1R7 311935Z AUTO 00000KT 10SM SCT046 SCT055 23/18 A3002 RMK AO2 PWINO
K1R8,2022-10-31T19:35:00Z,K1R8 311935Z AUTO 00000KT 10SM BKN050 BKN055 22/13 A2999 RMK AO2
K1S3,2022-10-31T19:30:00Z,K1S3 311930Z AUTO 25012G22KT 10SM 19/M03 A2973 
K1S5,2022-10-31T19:35:00Z,K1S5 311935Z AUTO 00000KT 10SM OVC090 16/08 A2980 RMK AO2 T01620076
K1U7,2022-10-31T19:35:00Z,K1U7 311935Z AUTO 32004KT 10SM CLR 10/M03 A3009 RMK A01
K1V4,2022-10-31T18:54:00Z,K1V4 311854Z AUTO 17/M01 A2991 RMK AO1 SLP131 T01671006 PNO
K1V6,2022-10-31T19:35:00Z,K1V6 311935Z AUTO 28007KT 10SM CLR 20/M11 A2996 RMK AO2
K1YT,2022-10-31T19:05:00Z,K1YT 311905Z AUTO 21004KT 10SM -RA BKN065 OVC075 14/05 A2978 RMK AO2 RAB05 SLP087 $
K20U,2022-10-31T19:35:00Z,K20U 311935Z AUTO 23008KT 10SM CLR 15/M02 A2975 RMK AO2
K20V,2022-10-31T19:35:00Z,K20V 311935Z AUTO 00000KT 10SM CLR 09/M05 A3014 RMK AO2
K21D,2022-10-31T19:35:00Z,K21D 311935Z AUTO 22007KT 10SM CLR 17/M02 A2983 RMK AO2
K22N,2022-10-31T19:35:00Z,K22N 311935Z AUTO 00000KT 10SM -RA BKN021 OVC026 15/10 A3000 RMK AO2
K24A,2022-10-31T19:35:00Z,K24A 311935Z AUTO 19006G15KT 10SM SCT038 SCT044 SCT060 18/11 A3001 RMK AO2 T01810108
K24J,2022-10-31T19:35:00Z,K24J 311935Z AUTO 21004KT 10SM FEW047 FEW055 FEW110 29/18 A2994 RMK A01
K27K,2022-10-31T19:35:00Z,K27K 311935Z AUTO 21009KT 10SM SCT026 SCT042 OVC050 17/12 A2990 RMK AO1
K28J,2022-10-31T19:35:00Z,K28J 311935Z AUTO 00000KT 9SM BKN047 BKN055 BKN060 28/17 A2996 RMK AO2 TSNO
K2A0,2022-10-31T19:35:00Z,K2A0 311935Z AUTO 21007KT 10SM OVC060 20/14 A2995 RMK A01
K2C8,2022-10-31T19:35:00Z,K2C8 311935Z AUTO 28009G15KT 10SM CLR 15/04 A2963 RMK AO2
K2D5,2022-10-31T19:35:00Z,K2D5 311935Z AUTO 22010KT 9SM CLR 18/M01 A2975 RMK AO2
K2DP,2022-10-31T18:55:00Z,K2DP 311855Z AUTO 10005KT 10SM BKN070 23/14 A3003 RMK AO2 SLPNO T02290142 $
K2G2,2022-10-31T19:35:00Z,K2G2 311935Z AUTO 22008KT 10SM SCT011 BKN015 OVC027 17/16 A2990 RMK A01
K2G4,2022-10-31T19:35:00Z,K2G4 311935Z AUTO 23005KT 10SM BKN012 BKN050 OVC065 13/12 A2997 RMK AO1
K2G9,2022-10-31T19:35:00Z,K2G9 311935Z AUTO 23011G15KT 10SM OVC006 14/13 A2995 RMK AO2
K2IS,2022-10-31T19:35:00Z,K2IS 311935Z AUTO 06004KT 10SM SCT036 SCT044 BKN049 30/23 A2992 RMK AO2 T03010226
K2J3,2022-10-31T19:35:00Z,K2J3 311935Z AUTO 26004KT 10SM SCT025 SCT030 BKN060 25/20 A2997 RMK AO2 T02520204
K2J5,2022-10-31T19:35:00Z,K2J5 311935Z AUTO 24005KT 10SM SCT033 BKN042 BKN050 26/19 A2997 RMK AO2 T02610188
K2J9,2022-10-31T19:35:00Z,K2J9 311935Z AUTO 30007KT 10SM OVC037 27/17 A2998 RMK AO2
K2M2,2022-10-31T19:30:00Z,K2M2 311930Z AUTO 24005KT 10SM FEW020 SCT029 BKN043 17/14 A2996 RMK A01
K2P2,2022-10-31T19:35:00Z,K2P2 311935Z AUTO 19007KT 10SM BKN095 OVC110 13/06 A2978 RMK AO2 T01300055
K2R9,2022-10-31T19:35:00Z,K2R9 311935Z AUTO 09007KT 10SM SCT080 26/11 A2998 RMK AO2 T02630113
K2V5,2022-10-31T19:35:00Z,K2V5 311935Z AUTO 15005KT 10SM CLR 22/M09 A2993 RMK AO2
K2W6,2022-10-31T19:39:00Z,K2W6 311939Z AUTO 20005KT 10SM SCT028 SCT041 BKN095 20/13 A3002 RMK AO1
K2WX,2022-10-31T18:56:00Z,K2WX 311856Z AUTO 26016G22KT 19/M04 A2976 RMK AO1 SLP074 T01891039
K33N,2022-10-31T19:35:00Z,K33N 311935Z AUTO 18004KT 10SM BKN027 OVC038 20/14 A3000 RMK A01
K33V,2022-10-31T19:35:00Z,K33V 311935Z AUTO 21014G18KT 10SM CLR 08/M07 A3011 RMK AO1
K35A,2022-10-31T19:35:00Z,K35A 311935Z AUTO 36003KT 5SM HZ OVC004 16/ A3004 RMK A02 T0162////
K36K,2022-10-31T19:35:00Z,K36K 311935Z AUTO 24008KT 10SM CLR 21/M02 A2998 RMK AO2
K38S,2022-10-31T19:30:00Z,K38S 311930Z AUTO 20008KT 10SM 14/01 A2986 
K3AU,2022-10-31T19:35:00Z,K3AU 311935Z AUTO 27006KT 10SM CLR 20/M06 A2997 RMK AO2
K3D2,2022-10-31T19:35:00Z,K3D2 311935Z AUTO 16003KT 10SM CLR 16/06 A2978 RMK AO2 T01610059
K3F3,2022-10-31T19:35:00Z,K3F3 311935Z AUTO 23005KT 10SM CLR 25/10 A3003 RMK AO2 T02460104
K3I2,2022-10-31T19:35:00Z,K3I2 311935Z AUTO 20007KT 10SM SCT031 21/15 A2991 RMK AO2 T02090153
K3J7,2022-10-31T19:35:00Z,K3J7 311935Z AUTO 00000KT 10SM SCT008 BKN013 BKN021 22/19 A2997 RMK AO2
K3K3,2022-10-31T19:35:00Z,K3K3 311935Z AUTO 24003KT 10SM CLR 20/M02 A2996 RMK AO2
K3LF,2022-10-31T19:35:00Z,K3LF 311935Z AUTO 24007KT 1 1/2SM BR OVC004 12/12 A2990 RMK AO2 T01220121
K3N8,2022-10-31T19:35:00Z,K3N8 311935Z AUTO 21007KT 10SM CLR 15/00 A2972 RMK AO2 T01491004
K3R7,2022-10-31T19:35:00Z,K3R7 311935Z AUTO 33005KT 10SM CLR 25/11 A3000 RMK AO2 T02470108
K3S8,2022-10-31T19:35:00Z,K3S8 311935Z AUTO 00000KT 10SM BKN008 11/08 A3000 RMK AO2
K3U3,2022-10-31T19:30:00Z,K3U3 311930Z AUTO 19012G23KT 10SM 13/M01 A2986 
K40B,2022-10-31T19:16:00Z,K40B 311916Z AUTO VRB04KT 17/M02 A2991 RMK AO1 SLP137 T01731017 56017
K40U,2022-10-31T19:35:00Z,K40U 311935Z AUTO 10007KT 10SM CLR 13/M05 A3009 RMK AO2 T01291053
K41U,2022-10-31T19:35:00Z,K41U 311935Z AUTO 16004KT 10SM CLR 11/M04 A3012 RMK AO1 T01141040
K42J,2022-10-31T19:35:00Z,K42J 311935Z AUTO 24006G12KT 10SM FEW046 FEW060 30/16 A2995 RMK A01
K46D,2022-10-31T19:35:00Z,K46D 311935Z AUTO 28013KT 10SM CLR 17/01 A2973 RMK AO2
K46U,2022-10-31T19:35:00Z,K46U 311935Z AUTO VRB04KT 10SM CLR 10/M02 A3010 RMK A01
K48A,2022-10-31T19:35:00Z,K48A 311935Z AUTO 23007KT 10SM SCT034 BKN044 BKN050 27/19 A2997 RMK AO2 T02670188
K49A,2022-10-31T19:35:00Z,K49A 311935Z AUTO 28007KT 10SM SCT025 SCT030 BKN035 19/13 A3001 RMK AO2 T01900126
K4A6,2022-10-31T19:35:00Z,K4A6 311935Z AUTO 00000KT 10SM FEW027 FEW038 OVC049 18/15 A2999 RMK AO2
K4A9,2022-10-31T19:35:00Z,K4A9 311935Z AUTO 24008KT 10SM 19/13 A2998 RMK AO2 T01890126
K4F2,2022-10-31T19:35:00Z,K4F2 311935Z AUTO 27005KT 10SM CLR 25/09 A3000 RMK AO2 T02500093
K4I3,2022-10-31T19:35:00Z,K4I3 311935Z AUTO 21003KT 10SM BKN065 18/13 A2987 RMK AO2
K4M9,2022-10-31T19:35:00Z,K4M9 311935Z AUTO 30009KT 10SM SCT050 SCT055 19/13 A2994 RMK AO2 PWINO
K4MR,2022-10-31T18:55:00Z,K4MR 311855Z AUTO 23009KT 10SM CLR 19/03 A3002 RMK AO2 SLP117 T01880034 $
K4O4,2022-10-31T19:35:00Z,K4O4 311935Z AUTO VRB04KT 7SM CLR 23/08 A3000 RMK AO2
K4R5,2022-10-31T19:35:00Z,K4R5 311935Z AUTO 21004KT 10SM BKN110 17/00 A2976 RMK AO2 T01690002
K4S1,2022-10-31T19:35:00Z,K4S1 311935Z AUTO 22005KT 1SM BR VV007 11/10 A2999 RMK AO2
K4S2,2022-10-31T19:35:00Z,K4S2 311935Z AUTO 00000KT 10SM -RA SCT012 BKN042 OVC050 13/11 A2987 RMK AO2 P0001
K4V1,2022-10-31T19:10:00Z,K4V1 311910Z AUTO 29008KT 10SM CLR 19/M09 A3000 RMK AO2 T01891093
K54A,2022-10-31T19:35:00Z,K54A 311935Z AUTO 28009KT 10SM FEW031 FEW044 32/23 A2991 RMK AO2
K54J,2022-10-31T19:35:00Z,K54J 311935Z AUTO 00000KT 10SM SCT046 24/13 A2999 RMK AO2 T02420125
K57C,2022-10-31T19:35:00Z,K57C 311935Z AUTO 00000KT 10SM CLR 17/09 A2981 RMK AO2 T01710092
K5C1,2022-10-31T19:35:00Z,K5C1 311935Z AUTO 00000KT 10SM CLR 23/08 A3001 RMK AO1
K5H4,2022-10-31T19:35:00Z,K5H4 311935Z AUTO 25010KT 10SM CLR 15/02 A2971 RMK AO2
K5M9,2022-10-31T19:35:00Z,K5M9 311935Z AUTO 22005KT 5SM RA SCT023 BKN038 OVC046 16/13 A2991 RMK AO2 T01580131
K5R8,2022-10-31T19:35:00Z,K5R8 311935Z AUTO 01004KT 10SM CLR 24/12 A3001 RMK AO2 T02360117
K5SM,2022-10-31T19:35:00Z,K5SM 311935Z AUTO 23004KT 10SM CLR 01/M11 A3027 RMK AO2
K63S,2022-10-31T19:35:00Z,K63S 311935Z AUTO 00000KT 10SM FEW017 SCT028 BKN040 11/08 A2971 RMK A01
K65S,2022-10-31T19:35:00Z,K65S 311935Z AUTO 16006KT 9SM FEW009 BKN039 BKN044 09/08 A2971 RMK AO2
K66R,2022-10-31T19:35:00Z,K66R 311935Z AUTO 12005KT 10SM CLR 26/11 A3000 RMK AO2 T02560105
K6A1,2022-10-31T19:35:00Z,K6A1 311935Z AUTO 19008KT 180V250 10SM BKN036 BKN045 BKN050 24/15 A2998 RMK AO2 T02390154
K6A2,2022-10-31T19:35:00Z,K6A2 311935Z AUTO 24008KT 10SM SCT034 SCT040 BKN050 22/13 A2997 RMK AO2
K6B0,2022-10-31T19:35:00Z,K6B0 311935Z AUTO 17005KT 10SM CLR 15/05 A2993 RMK AO2 T01500053
K6B9,2022-10-31T19:35:00Z,K6B9 311935Z AUTO VRB04KT 10SM OVC042 17/08 A2990 RMK AO2
K6I2,2022-10-31T19:35:00Z,K6I2 311935Z AUTO 21008KT 8SM FEW027 BKN036 OVC055 17/13 A2992 RMK AO2
K6L4,2022-10-31T19:35:00Z,K6L4 311935Z AUTO VRB05KT 10SM FEW013 FEW060 18/17 A2993 RMK AO2
K6P9,2022-10-31T19:35:00Z,K6P9 311935Z AUTO 04003KT 10SM CLR 23/07 A3002 RMK AO2 T02300070
K6R6,2022-10-31T18:51:00Z,K6R6 311851Z AUTO 10010KT 21/11 A3003 RMK AO1 SLP147 T02110111
K6S0,2022-10-31T19:35:00Z,K6S0 311935Z AUTO 26025G31KT 10SM CLR 17/M01 A2981 RMK A01
K6S2,2022-10-31T19:35:00Z,K6S2 311935Z AUTO 00000KT 3SM UP BR SCT024 13/13 A2997 RMK AO2
K6S8,2022-10-31T19:25:00Z,K6S8 311925Z AUTO 22017G24KT 10SM 18/M03 A2978 RMK A01 LAUREL
K74V,2022-10-31T19:35:00Z,K74V 311935Z AUTO 08004KT 10SM 10/M04 A3014 RMK AO2
K79J,2022-10-31T18:56:00Z,K79J 311856Z AUTO 27006KT 10SM CLR 25/12 A2999 RMK AO2 SLP152 T02500122 $
K7BM,2022-10-31T19:35:00Z,K7BM 311935Z AUTO 00000KT 10SM CLR 10/M12 A3016 RMK AO2
K7L2,2022-10-31T19:35:00Z,K7L2 311935Z AUTO 26006KT 10SM CLR 17/M00 A2977 RMK AO2
K7N0,2022-10-31T18:56:00Z,K7N0 311856Z AUTO VRB05KT 10SM CLR 24/13 A3003 RMK AO2 SLP168 T02390133 PNO $
K7W4,2022-10-31T19:35:00Z,K7W4 311935Z AUTO 21003KT 10SM BKN029 BKN043 OVC090 19/14 A3002 RMK AO1 T01920135
K81R,2022-10-31T19:35:00Z,K81R 311935Z AUTO 26003KT 10SM CLR 23/09 A3003 RMK AO2 T02350086
K82C,2022-10-31T19:35:00Z,K82C 311935Z AUTO 27003KT 10SM CLR 19/06 A2980 RMK AO2 T01910062
K82V,2022-10-31T19:35:00Z,K82V 311935Z AUTO 21009G16KT 10SM CLR 18/M10 A2995 RMK AO2
K8A0,2022-10-31T19:35:00Z,K8A0 311935Z AUTO 26008KT 10SM BKN050 18/12 A2999 RMK AO2
K8A3,2022-10-31T19:35:00Z,K8A3 311935Z AUTO 23007G14KT 10SM FEW021 FEW028 OVC055 17/12 A2994 RMK A01
K8D3,2022-10-31T18:56:00Z,K8D3 311856Z AUTO 22012KT 21/M03 A2975 RMK AO1 SLP071 T02061028
K8T6,2022-10-31T19:35:00Z,K8T6 311935Z AUTO 11008G13KT 10SM BKN065 BKN080 OVC100 27/11 A2996 RMK AO2
K8W2,2022-10-31T19:35:00Z,K8W2 311935Z AUTO 00000KT 7SM SCT009 SCT030 OVC065 16/15 A2999 RMK AO1 P0004 T01550148
K96D,2022-10-31T19:35:00Z,K96D 311935Z AUTO 27012G22KT 10SM CLR 14/02 A2963 RMK AO2
K9A5,2022-10-31T19:35:00Z,K9A5 311935Z AUTO 27005KT 10SM SCT048 OVC050 20/10 A2998 RMK AO2 T02020097
K9D7,2022-10-31T18:55:00Z,K9D7 311855Z AUTO 25011KT 10SM CLR 12/02 A2969 RMK AO2 TSNO
K9L2,2022-10-31T18:55:00Z,K9L2 311855Z AUTO 00000KT 9SM CLR 18/M09 A3000 RMK AO2 SLP153 T01831088 $
K9MN,2022-10-31T19:35:00Z,K9MN 311935Z AUTO 28003KT 10SM CLR 18/02 A2984 RMK AO1 T01780019
K9S5,2022-10-31T18:55:00Z,K9S5 311855Z AUTO 21009G21KT 10SM 16/M01 A2986 RMK Three Forks 
K9V9,2022-10-31T19:35:00Z,K9V9 311935Z AUTO 30003KT 10SM CLR 19/M03 A2981 RMK AO2 T01871028
KAAA,2022-10-31T19:35:00Z,KAAA 311935Z AUTO 00000KT 3SM BR OVC004 14/14 A2986 RMK AO2 T01390139
KAAF,2022-10-31T18:53:00Z,KAAF 311853Z AUTO 29007KT 10SM CLR 27/20 A2997 RMK AO2 SLP148 T02670200
KAAO,2022-10-31T18:54:00Z,KAAO 311854Z AUTO VRB05KT 10SM CLR 19/M01 A2997 RMK AO2 SLP146 T01941006
KAAS,2022-10-31T19:35:00Z,KAAS 311935Z AUTO 23011KT 10SM SCT030 SCT036 OVC065 17/12 A2996 RMK AO1
KAAT,2022-10-31T18:55:00Z,KAAT 311855Z AUTO VRB03KT 9SM CLR 13/M03 A3000 RMK AO2 SLP156 T01281033
KABE,2022-10-31T18:58:00Z,KABE 311858Z 10003KT 10SM BKN029 BKN100 OVC110 16/11 A2999 RMK AO2 RAE54 P0000 T01560106
KABH,2022-10-31T18:55:00Z,KABH 311855Z AUTO 16005KT 10SM CLR 16/M08 A3002 RMK AO2 SLP152 T01571079
KABI,2022-10-31T18:52:00Z,KABI 311852Z 31006KT 10SM CLR 23/09 A3004 RMK AO2 SLP157 T02280089
KABQ,2022-10-31T18:52:00Z,KABQ 311852Z 29004KT 10SM CLR 15/M04 A3012 RMK AO2 SLP160 T01501039
KABR,2022-10-31T18:53:00Z,KABR 311853Z AUTO 18007KT 10SM CLR 17/M01 A2977 RMK AO2 SLP088 T01721006
KABY,2022-10-31T19:00:00Z,KABY 311900Z 25008KT 10SM OVC039 26/16 A2998 RMK AO2 T02560161
KACB,2022-10-31T19:35:00Z,KACB 311935Z AUTO 29004KT 10SM CLR 18/06 A2979 RMK AO2 T01770056
KACK,2022-10-31T18:53:00Z,KACK 311853Z 13007KT 10SM BKN043 BKN060 18/15 A3004 RMK AO2 SLP172 T01780150
KACP,2022-10-31T19:35:00Z,KACP 311935Z AUTO 00000KT 10SM SCT046 25/11 A3001 RMK AO2
KACQ,2022-10-31T19:35:00Z,KACQ 311935Z AUTO 24005KT 10SM CLR 16/01 A2985 RMK AO2
KACT,2022-10-31T18:51:00Z,KACT 311851Z 13005KT 10SM CLR 26/11 A3002 RMK AO2 SLP159 T02560111
KACV,2022-10-31T18:53:00Z,KACV 311853Z AUTO 00000KT 4SM HZ OVC015 14/09 A2999 RMK AO2 SLP162 T01390094
KACY,2022-10-31T18:54:00Z,KACY 311854Z 16007KT 10SM BKN034 BKN070 OVC095 19/12 A3001 RMK AO2 SLP160 T01940122
KADC,2022-10-31T19:35:00Z,KADC 311935Z AUTO 23011G16KT 10SM CLR 19/M08 A2975 RMK AO2 TSNO
KADG,2022-10-31T18:53:00Z,KADG 311853Z AUTO 23006KT 3SM -RA BR FEW008 BKN048 OVC065 16/16 A2982 RMK AO2 SLP099 P0003 T01610156
KADH,2022-10-31T19:35:00Z,KADH 311935Z AUTO 13004KT 10SM CLR 22/03 A3001 RMK AO2
KADM,2022-10-31T18:50:00Z,KADM 311850Z 00000KT 10SM CLR 22/06 A3002
KADS,2022-10-31T18:47:00Z,KADS 311847Z 28005KT 13SM SCT250 24/06 A3003
KADT,2022-10-31T19:35:00Z,KADT 311935Z AUTO 19006KT 10SM CLR 22/M06 A2997 RMK AO2 T02171063
KADU,2022-10-31T19:35:00Z,KADU 311935Z AUTO 25006KT 10SM SCT031 SCT048 BKN070 19/M03 A2990 RMK AO2 PWINO
KADW,2022-10-31T19:04:00Z,KADW 311904Z AUTO 18009KT 10SM SCT025 SCT090 SCT210 19/13 A2998 RMK AO2 RAB1857E04 SLP159 $
KAEG,2022-10-31T18:50:00Z,KAEG 311850Z 19004KT 10SM CLR 15/M05 A3012
KAEJ,2022-10-31T19:35:00Z,KAEJ 311935Z AUTO 21003KT 10SM 12/M14 A3009 RMK AO2 T01201140
KAEL,2022-10-31T19:35:00Z,KAEL 311935Z AUTO 20005KT 10SM CLR 17/02 A2984 RMK AO2
KAEX,2022-10-31T18:53:00Z,KAEX 311853Z VRB04KT 10SM CLR 24/11 A3000 RMK AO2 SLP160 T02440111
KAFF,2022-10-31T18:55:00Z,KAFF 311855Z AUTO 11005KT 9SM CLR 16/M13 A3000 RMK AO2 SLP136 T01571127
KAFJ,2022-10-31T18:56:00Z,KAFJ 311856Z AUTO 22008KT 10SM OVC011 17/15 A2994 RMK AO2 SLP139 T01670150
KAFK,2022-10-31T19:35:00Z,KAFK 311935Z AUTO 26007KT 10SM CLR 20/00 A2992 RMK AO2 T01991003
KAFN,2022-10-31T18:52:00Z,KAFN 311852Z AUTO 20009KT 10SM SCT120 17/07 A2998 RMK AO2 SLP160 T01720072
KAFO,2022-10-31T19:35:00Z,KAFO 311935Z AUTO 00000KT 10SM CLR 10/M02 A3010 RMK AO2
KAFP,2022-10-31T19:35:00Z,KAFP 311935Z AUTO 19005KT 10SM SCT024 SCT031 SCT120 25/18 A2998 RMK AO2 T02510182
KAFW,2022-10-31T18:53:00Z,KAFW 311853Z 00000KT 10SM SCT250 23/07 A3002 RMK AO2 SLP160 T02330067
KAGC,2022-10-31T18:53:00Z,KAGC 311853Z AUTO 19007KT 10SM OVC011 17/15 A2991 RMK AO2 SLP130 T01720150
KAGI,2022-10-31T19:35:00Z,KAGI 311935Z AUTO 06006KT 10SM CLR 27/14 A3000 RMK AO2 T02650140
KAGO,2022-10-31T19:35:00Z,KAGO 311935Z AUTO VRB04KT 10SM CLR 24/09 A2998 RMK A01
KAGS,2022-10-31T18:53:00Z,KAGS 311853Z 23006KT 10SM OVC018 25/19 A2997 RMK AO2 SLP147 T02500194 $
KAHN,2022-10-31T18:51:00Z,KAHN 311851Z 00000KT 10SM OVC005 19/17 A2998 RMK AO2 CIG 004V008 SLP150 T01890172
KAHQ,2022-10-31T19:35:00Z,KAHQ 311935Z AUTO 22006G10KT 10SM CLR 22/M01 A2989 RMK AO2 T02181015
KAIA,2022-10-31T18:53:00Z,KAIA 311853Z AUTO 27014G21KT 10SM CLR 18/M06 A2989 RMK AO2 SLP113 T01831056
KAID,2022-10-31T18:55:00Z,KAID 311855Z 22007KT 10SM OVC011 15/13 A2984
KAIG,2022-10-31T19:35:00Z,KAIG 311935Z AUTO 24004KT 10SM CLR 17/01 A2980 RMK AO2 T01710014
KAIK,2022-10-31T19:35:00Z,KAIK 311935Z AUTO 24009KT 10SM SCT018 BKN028 OVC037 24/20 A2999 RMK AO2 T02370195
KAIO,2022-10-31T19:35:00Z,KAIO 311935Z AUTO 30006KT 10SM CLR 19/01 A2988 RMK AO2
KAIT,2022-10-31T19:35:00Z,KAIT 311935Z AUTO 21010G14KT 10SM CLR 17/M02 A2976 RMK AO2
KAIZ,2022-10-31T18:56:00Z,KAIZ 311856Z AUTO 26010KT 10SM CLR 19/05 RMK AO2 SLPNO T01940050 $
KAJG,2022-10-31T19:35:00Z,KAJG 311935Z AUTO 27010KT 10SM SCT019 BKN023 OVC095 18/14 A2987 RMK AO2 P0001 T01760137
KAJO,2022-10-31T18:56:00Z,KAJO 311856Z AUTO 00000KT 10SM CLR 26/06 A2990 RMK AO2 SLP120 T02610061
KAJR,2022-10-31T19:35:00Z,KAJR 311935Z AUTO 00000KT 5SM BR OVC006 18/18 A2999 RMK AO2 T01760176
KAJZ,2022-10-31T19:35:00Z,KAJZ 311935Z AUTO 00000KT 10SM CLR 14/M03 A3012 RMK AO2 T01361030
KAKH,2022-10-31T19:38:00Z,KAKH 311938Z AUTO 00000KT 9SM BKN005 OVC013 16/16 A3000 RMK AO2 RAE05B26E37 P0001 T01610156
KAKO,2022-10-31T18:53:00Z,KAKO 311853Z AUTO 21010KT 10SM CLR 18/M06 A2997 RMK AO2 SLP122 T01781056
KAKQ,2022-10-31T18:54:00Z,KAKQ 311854Z AUTO 19005KT 10SM CLR 23/13 A3002 RMK AO2 SLP165 T02280133
KAKR,2022-10-31T18:54:00Z,KAKR 311854Z AUTO 21008KT 10SM BKN050 OVC065 19/13 A2985 RMK AO2 SLP106 T01940128
KALB,2022-10-31T18:51:00Z,KALB 311851Z 14005KT 10SM FEW160 BKN190 BKN250 17/07 A2996 RMK AO2 SLP146 T01670072
KALI,2022-10-31T18:53:00Z,KALI 311853Z AUTO 13009G17KT 10SM FEW045 OVC075 26/15 A2997 RMK AO2 SLP147 T02560150
KALK,2022-10-31T18:56:00Z,KALK 311856Z AUTO 07006G15KT 10SM CLR 21/M04 A3006 RMK AO2 SLP108 T02111044
KALM,2022-10-31T19:35:00Z,KALM 311935Z AUTO 21006KT 10SM CLR 20/M01 A3004 RMK AO2
KALN,2022-10-31T18:50:00Z,KALN 311850Z 27007KT 5SM BR OVC008 13/13 A2990
KALO,2022-10-31T18:54:00Z,KALO 311854Z 30005KT 10SM CLR 19/04 A2986 RMK AO2 SLP114 T01890039
KALS,2022-10-31T18:52:00Z,KALS 311852Z AUTO 00000KT 10SM CLR 11/M07 A3013 RMK AO2 SLP182 T01061072
KALW,2022-10-31T18:53:00Z,KALW 311853Z 17009KT 10SM OVC055 13/07 A2986 RMK AO2 RAE53 SLP112 P0001 T01280072
KALX,2022-10-31T19:35:00Z,KALX 311935Z AUTO 27006KT 10SM SCT035 BKN049 20/12 A3000 RMK AO2 T02000118
KAMA,2022-10-31T18:53:00Z,KAMA 311853Z 21012G21KT 10SM -RA CLR 21/03 A3002 RMK AO2 RAE27B45 SLP139 P0000 T02060033
KAMG,2022-10-31T18:53:00Z,KAMG 311853Z AUTO 18007KT 10SM FEW036 SCT065 28/19 A2996 RMK AO2 SLP143 T02830189
KAMN,2022-10-31T19:35:00Z,KAMN 311935Z AUTO 00000KT 5SM BR OVC008 15/13 A2981 RMK AO2 T01490126
KAMW,2022-10-31T18:53:00Z,KAMW 311853Z AUTO 28005KT 10SM CLR 18/02 A2988 RMK AO2 SLP117 T01830022
KANB,2022-10-31T18:53:00Z,KANB 311853Z AUTO 25011KT 10SM FEW032 OVC050 20/13 A3000 RMK AO2 SLP155 T02000128
KAND,2022-10-31T18:56:00Z,KAND 311856Z AUTO 07003KT 10SM OVC005 17/16 A2999 RMK AO2 SLP152 T01720156
KANE,2022-10-31T18:45:00Z,KANE 311845Z 23007KT 10SM SCT250 18/M02 A2982
KANJ,2022-10-31T18:55:00Z,KANJ 311855Z AUTO 14009KT 10SM FEW110 15/08 A2977 RMK AO2 SLP082 T01500078
KANK,2022-10-31T19:30:00Z,KANK 311930Z AUTO 21012G17KT 10SM CLR 15/M11 A3014 RMK AO1 T01511108
KANQ,2022-10-31T19:35:00Z,KANQ 311935Z AUTO 00000KT 10SM SCT014 BKN065 OVC080 16/15 A2979 RMK AO2
KANW,2022-10-31T19:35:00Z,KANW 311935Z AUTO 25008KT 10SM CLR 22/M07 A2983 RMK AO2 T02161075
KAOH,2022-10-31T18:53:00Z,KAOH 311853Z AUTO 22012KT 10SM FEW027 SCT032 OVC060 18/13 A2983 RMK AO2 SLP099 T01830128
KAOO,2022-10-31T18:53:00Z,KAOO 311853Z AUTO 19006KT 10SM OVC017 16/11 A2997 RMK AO2 SLP150 T01560106
KAPA,2022-10-31T18:53:00Z,KAPA 311853Z 15005KT 10SM FEW200 16/M12 A2999 RMK AO2 SLP130 T01561122
KAPC,2022-10-31T18:54:00Z,KAPC 311854Z 23004KT 6SM HZ CLR 16/11 A2996 RMK AO2 SLP135 T01610111
KAPF,2022-10-31T18:53:00Z,KAPF 311853Z 27009KT 10SM FEW050 29/26 A2993 RMK AO2 SLP132 T02890256 $
KAPG,2022-10-31T19:01:00Z,KAPG 311901Z 22007KT 10SM SCT020 OVC070 17/13 A2999 RMK SHRAE1758 SLP159
KAPN,2022-10-31T18:54:00Z,KAPN 311854Z AUTO 09005KT 10SM CLR 17/08 A2980 RMK AO2 SLP091 T01720078
KAPS,2022-10-31T19:36:00Z,KAPS 311936Z AUTO 29005KT 10SM BKN050 24/12 A3000 RMK AO2
KAQO,2022-10-31T19:35:00Z,KAQO 311935Z AUTO 35003KT 10SM CLR 24/08 A3001 RMK AO2
KAQP,2022-10-31T19:33:00Z,KAQP 311933Z AUTO 23006KT 10SM SCT090 20/M04 A2977 RMK AO2
KAQV,2022-10-31T18:57:00Z,KAQV 311857Z AUTO 10SM CLR 25/11 A3000 RMK AO2 SLP156 T02500111
KAQW,2022-10-31T18:52:00Z,KAQW 311852Z AUTO VRB05KT 10SM CLR 17/07 A2996 RMK AO2 SLP148 T01670072
KAQX,2022-10-31T19:35:00Z,KAQX 311935Z AUTO 15006KT 10SM FEW043 SCT050 BKN070 28/18 A2995 RMK AO2
KARA,2022-10-31T18:53:00Z,KARA 311853Z 27005KT 10SM FEW050 26/11 A3001 RMK AO2 SLP160 T02560106
KARB,2022-10-31T18:53:00Z,KARB 311853Z 21008KT 10SM OVC009 17/14 A2980 RMK AO2 CIG 006V013 SLP090 T01670139
KARG,2022-10-31T18:56:00Z,KARG 311856Z AUTO 28011KT 10SM SCT040 OVC050 20/11 A2994 RMK AO2 SLP140 T02000106
KARM,2022-10-31T19:35:00Z,KARM 311935Z AUTO 08005KT 10SM CLR 25/10 A3000 RMK AO2 T02540102 TSNO
KARR,2022-10-31T18:52:00Z,KARR 311852Z 01005KT 7SM OVC007 13/12 A2982 RMK AO2 RAE1754 CIG 006V011 SLP097 P0000 T01330122
KART,2022-10-31T18:56:00Z,KART 311856Z AUTO 25006KT 10SM -RA FEW060 SCT070 OVC095 15/07 A2991 RMK AO2 RAB38 SLP126 P0000 T01500072
KARV,2022-10-31T19:35:00Z,KARV 311935Z AUTO 25004KT 10SM CLR 16/M03 A2979 RMK AO2 T01611028
KARW,2022-10-31T19:35:00Z,KARW 311935Z AUTO 19007KT 10SM CLR 26/19 A2998 RMK AO2
KASD,2022-10-31T18:53:00Z,KASD 311853Z AUTO 23005KT 10SM CLR 24/14 A3001 RMK AO2 SLP161 T02440144
KASE,2022-10-31T18:53:00Z,KASE 311853Z 36005KT 10SM CLR 08/M06 A3015 RMK AO2 SLP164 T00781056
KASG,2022-10-31T18:48:00Z,KASG 311848Z 26007KT 10SM CLR 20/09 A2999
KASH,2022-10-31T18:56:00Z,KASH 311856Z VRB05KT 10SM CLR 19/09 A2997 RMK AO2 SLP153 T01940089 $
KASJ,2022-10-31T19:35:00Z,KASJ 311935Z AUTO 15003KT 10SM -RA BKN050 BKN070 BKN090 22/15 A3003 RMK AO2 T02200148
KASL,2022-10-31T19:35:00Z,KASL 311935Z AUTO VRB04KT 10SM CLR 24/08 A2998 RMK AO2 T02450078 TSNO $
KASN,2022-10-31T19:35:00Z,KASN 311935Z AUTO 25007KT 10SM OVC047 20/13 A3000 RMK AO2 T02000133
KAST,2022-10-31T18:55:00Z,KAST 311855Z AUTO 24004KT 4SM BR SCT044 BKN060 BKN080 12/11 A2991 RMK AO2 SLP128 T01220106
KASW,2022-10-31T19:35:00Z,KASW 311935Z AUTO 22005KT 7SM -RA SCT017 BKN036 OVC055 15/13 A2980 RMK AO2 T01550137
KASX,2022-10-31T18:53:00Z,KASX 311853Z AUTO 25007KT 10SM CLR 18/M01 A2979 RMK AO2 SLP093 T01831011
KATA,2022-10-31T19:35:00Z,KATA 311935Z AUTO 33005KT 10SM CLR 24/10 A2999 RMK AO2 SLP055 T02400097 $
KATL,2022-10-31T18:52:00Z,KATL 311852Z 24008KT 10SM FEW036 SCT065 SCT200 SCT250 23/13 A2997 RMK AO2 SLP142 TCU DSNT N NE T02330133
KATP,2022-10-31T19:35:00Z,KATP 311935Z AUTO 02008KT 10SM CLR 24/17 A3000 RMK A01
KATS,2022-10-31T19:35:00Z,KATS 311935Z AUTO 15007KT 10SM CLR 19/07 A3004 RMK AO2
KATT,2022-10-31T18:51:00Z,KATT 311851Z AUTO VRB03KT 10SM CLR 26/11 A3002 RMK AO2 SLP158 T02560111
KATW,2022-10-31T18:45:00Z,KATW 311845Z 00000KT 10SM CLR 17/05 A2979
KATY,2022-10-31T18:53:00Z,KATY 311853Z AUTO 20008KT 10SM CLR 18/02 A2978 RMK AO2 SLP090 T01830017
KAUG,2022-10-31T18:53:00Z,KAUG 311853Z AUTO 18007KT 160V240 10SM CLR 18/08 A2994 RMK AO2 SLP141 T01780078
KAUH,2022-10-31T19:35:00Z,KAUH 311935Z AUTO 21012KT 10SM CLR 21/M01 A2989 RMK AO2 T02121015
KAUM,2022-10-31T19:35:00Z,KAUM 311935Z AUTO 00000KT 10SM CLR 18/03 A2984 RMK AO2
KAUN,2022-10-31T19:35:00Z,KAUN 311935Z AUTO 25006KT 9SM CLR 18/02 A2996 RMK A01
KAUO,2022-10-31T18:56:00Z,KAUO 311856Z AUTO 22012KT 10SM SCT039 22/14 A3001 RMK AO2 SLP175 T02220139
KAUS,2022-10-31T18:53:00Z,KAUS 311853Z 15009KT 10SM FEW050 FEW200 SCT300 25/11 A3000 RMK AO2 SLP155 T02500111
KAVC,2022-10-31T19:35:00Z,KAVC 311935Z AUTO 17005KT 10SM SCT050 22/16 A3007 RMK AO2 T02180156
KAVK,2022-10-31T19:35:00Z,KAVK 311935Z AUTO 18008KT 10SM CLR 23/M01 A2997 RMK AO2 PWINO
KAVL,2022-10-31T19:39:00Z,KAVL 311939Z 19008KT 10SM SCT014 SCT060 18/14 A2999 RMK AO2 T01830139
KAVP,2022-10-31T18:54:00Z,KAVP 311854Z AUTO 00000KT 10SM SCT070 17/09 A2997 RMK AO2 SLP148 T01670094
KAVQ,2022-10-31T19:35:00Z,KAVQ 311935Z AUTO 00000KT 10SM CLR 25/M06 A2993 RMK AO2 T02521056
KAVX,2022-10-31T18:51:00Z,KAVX 311851Z AUTO VRB04KT 10SM CLR 23/12 A2996 RMK AO2 SLP118 T02280117
KAWG,2022-10-31T19:35:00Z,KAWG 311935Z AUTO 27009KT 6SM HZ CLR 20/05 A2985 RMK AO2
KAWM,2022-10-31T18:53:00Z,KAWM 311853Z AUTO 24004KT 10SM BKN050 21/12 A2995 RMK AO2 SLP138 T02060122
KAWO,2022-10-31T18:56:00Z,KAWO 311856Z AUTO 34006KT 10SM -RA OVC055 11/08 A2984 RMK AO2 RAB23 SLP110 P0000 T01060078
KAXA,2022-10-31T19:35:00Z,KAXA 311935Z AUTO 27009KT 7SM CLR 19/M01 A2984 RMK A01
KAXH,2022-10-31T19:35:00Z,KAXH 311935Z AUTO 00000KT 5SM HZ CLR 25/11 A3000 RMK AO2 T02540110
KAXN,2022-10-31T18:53:00Z,KAXN 311853Z AUTO 22009KT 10SM CLR 17/M02 A2980 RMK AO2 SLP098 T01671017
KAXS,2022-10-31T19:35:00Z,KAXS 311935Z AUTO 21005KT 10SM CLR 22/10 A3003 RMK AO2 T02210095
KAXV,2022-10-31T19:35:00Z,KAXV 311935Z AUTO 21012G17KT 10SM BKN023 BKN039 OVC045 17/12 A2984 RMK AO2
KAXX,2022-10-31T19:35:00Z,KAXX 311935Z AUTO 27012G15KT 10SM CLR 11/M07 A3013 RMK AO2 T01121074
KAYS,2022-10-31T19:35:00Z,KAYS 311935Z AUTO 25005KT 10SM SCT045 SCT050 SCT055 30/19 A2996 RMK AO2 T03000185
KAZC,2022-10-31T19:35:00Z,KAZC 311935Z AUTO 15008KT 100V170 10SM CLR 19/M06 A3011 RMK AO2
KAZE,2022-10-31T19:35:00Z,KAZE 311935Z AUTO 23005KT 10SM SCT034 SCT050 28/19 A2996 RMK AO2 T02780191
KAZO,2022-10-31T19:00:00Z,KAZO 311900Z 18005KT OVC008 15/14 A2981 RMK AO2 CIG 004V011 T01500139 $
KBAB,2022-10-31T18:55:00Z,KBAB 311855Z AUTO 30005KT 10SM CLR 19/05 A2995 RMK AO2 SLP145 T01930046 $
KBAC,2022-10-31T19:35:00Z,KBAC 311935Z AUTO 27010KT 10SM CLR 18/01 A2972 RMK AO2
KBAD,2022-10-31T18:55:00Z,KBAD 311855Z AUTO 22004KT 10SM CLR 24/11 A3000 RMK AO2 SLP162 T02440110
KBAF,2022-10-31T18:53:00Z,KBAF 311853Z 21010G16KT 10SM CLR 21/06 A2996 RMK AO2 SLP148 T02060061
KBAK,2022-10-31T18:55:00Z,KBAK 311855Z COR 24006KT 5SM BR SCT010 OVC016 15/14 A2986
KBAM,2022-10-31T19:35:00Z,KBAM 311935Z AUTO 06005KT 10SM CLR 16/M03 A3005 RMK AO1
KBAN,2022-10-31T18:52:00Z,KBAN 311852Z AUTO 00000KT 10SM CLR 12/M12 A3006 RMK AO2 SLP156 T01221122 $
KBAX,2022-10-31T19:35:00Z,KBAX 311935Z AUTO 00000KT 10SM BKN011 OVC033 15/15 A2980 RMK AO2 T01480148
KBAZ,2022-10-31T18:51:00Z,KBAZ 311851Z AUTO 11004KT 10SM CLR 26/12 A3000 RMK AO2 SLP152 T02560122
KBBB,2022-10-31T19:35:00Z,KBBB 311935Z AUTO 21007KT 10SM CLR 19/M02 A2979 RMK AO2
KBBD,2022-10-31T19:35:00Z,KBBD 311935Z AUTO 20007KT 090V220 10SM CLR 23/06 A3002 RMK AO2
KBBG,2022-10-31T18:46:00Z,KBBG 311846Z 26005KT 10SM CLR 19/07 A2999
KBBP,2022-10-31T19:35:00Z,KBBP 311935Z AUTO 00000KT 10SM SCT026 SCT050 SCT070 26/20 A2998 RMK AO2
KBBW,2022-10-31T18:53:00Z,KBBW 311853Z AUTO 22014G20KT 10SM CLR 22/M02 A2986 RMK AO2 SLP112 T02171017
KBCB,2022-10-31T19:35:00Z,KBCB 311935Z AUTO 00000KT 4SM -RA BKN002 OVC022 13/13 A3004 RMK AO2 T01300130
KBCE,2022-10-31T18:53:00Z,KBCE 311853Z AUTO 10SM CLR 11/M10 A3019 RMK AO2 SLP173 T01111100
KBCK,2022-10-31T19:35:00Z,KBCK 311935Z AUTO 33005KT 10SM CLR 19/04 A2981 RMK AO2 T01870042
KBCR,2022-10-31T18:58:00Z,KBCR 311858Z AUTO VRB03KT 10SM FEW046 26/15 A2999 RMK AO2 SLP112 T02560150
KBCT,2022-10-31T18:53:00Z,KBCT 311853Z 14010G15KT 090V160 10SM SCT025 30/24 A2994
KBDE,2022-10-31T18:53:00Z,KBDE 311853Z AUTO 23011KT 10SM CLR 17/00 A2965 RMK AO2 SLP045 T01670000
KBDG,2022-10-31T19:35:00Z,KBDG 311935Z AUTO 19007KT 150V230 10SM 13/M05 A3019 RMK AO1 T01261053
KBDH,2022-10-31T19:35:00Z,KBDH 311935Z AUTO 20006KT 10SM CLR 19/M02 A2983 RMK AO2
KBDL,2022-10-31T18:51:00Z,KBDL 311851Z 23012KT 10SM FEW050 FEW150 BKN220 BKN250 20/08 A2998 RMK AO2 SLP151 T02000078
KBDN,2022-10-31T19:30:00Z,KBDN 311930Z AUTO 22011KT 10SM CLR 14/04 A2992 RMK AO2
KBDR,2022-10-31T18:52:00Z,KBDR 311852Z 24005KT 10SM CLR 17/10 A3001 RMK AO2 SLP161 T01670100
KBDU,2022-10-31T19:35:00Z,KBDU 311935Z AUTO 00000KT 10SM CLR 19/M08 A2994 RMK AO2
KBEA,2022-10-31T19:35:00Z,KBEA 311935Z AUTO 06007KT 10SM SCT080 OVC095 26/09 A2996 RMK AO2 T02640085 PWINO
KBEC,2022-10-31T19:35:00Z,KBEC 311935Z AUTO 00000KT 10SM CLR 20/M02 A2996 RMK AO2 T01991016
KBED,2022-10-31T18:51:00Z,KBED 311851Z 20010KT 10SM SCT040 21/12 A2996 RMK AO2 SLP160 T02060117
KBEH,2022-10-31T19:03:00Z,KBEH 311903Z AUTO 31004KT 1SM RA BR BKN003 OVC008 14/13 A2980 RMK AO2 P0004 T01390133
KBFD,2022-10-31T18:53:00Z,KBFD 311853Z AUTO 21007KT 10SM OVC004 13/12 A2991 RMK AO2 RAB20E29 SLP131 P0000 T01330117
KBFF,2022-10-31T18:53:00Z,KBFF 311853Z AUTO 28013G21KT 10SM CLR 19/M06 A2991 RMK AO2 SLP115 T01941056
KBFI,2022-10-31T18:53:00Z,KBFI 311853Z 20010G16KT 10SM SCT016 BKN050 12/09 A2983 RMK AO2 SLP100 T01220089
KBFL,2022-10-31T18:54:00Z,KBFL 311854Z AUTO 00000KT 6SM HZ CLR 19/04 A2993 RMK AO2 SLP133 T01890039
KBFM,2022-10-31T18:53:00Z,KBFM 311853Z 13006KT 10SM FEW034 BKN050 23/14 A3002 RMK AO2 SLP165 T02330144
KBGD,2022-10-31T18:51:00Z,KBGD 311851Z AUTO 16010G21KT 10SM CLR 22/04 A3002 RMK AO2 SLP141 T02220044
KBGE,2022-10-31T19:35:00Z,KBGE 311935Z AUTO 27007KT 10SM SCT031 SCT060 25/16 A2998 RMK AO2 T02530161
KBGF,2022-10-31T19:35:00Z,KBGF 311935Z AUTO 26011KT 10SM BKN050 OVC055 18/13 A2996 RMK A01
KBGM,2022-10-31T18:53:00Z,KBGM 311853Z 20004KT 10SM FEW055 OVC070 14/08 A2994 RMK AO2 RAB41E50 SLP142 P0000 T01390083
KBGR,2022-10-31T18:53:00Z,KBGR 311853Z 17010KT 10SM FEW120 SCT200 17/08 A2993 RMK AO2 SLP135 T01720083
KBHB,2022-10-31T18:56:00Z,KBHB 311856Z AUTO 20011KT 10SM CLR 15/11 A2998 RMK AO2 SLP153 T01500111 PNO $
KBHC,2022-10-31T19:35:00Z,KBHC 311935Z AUTO 21006KT 10SM CLR 28/17 A2996 RMK AO2
KBHK,2022-10-31T18:51:00Z,KBHK 311851Z AUTO 26011G19KT 10SM CLR 17/M02 A2978 RMK AO2 SLP078 T01671017
KBHM,2022-10-31T18:53:00Z,KBHM 311853Z 23007KT 10SM FEW027 OVC050 19/13 A3001 RMK AO2 SLP159 T01940128
KBID,2022-10-31T18:56:00Z,KBID 311856Z AUTO 00000KT 10SM OVC012 16/13 A3003 RMK AO2 SLP168 T01560133
KBIE,2022-10-31T19:35:00Z,KBIE 311935Z AUTO 25006KT 10SM CLR 21/M01 A2992 RMK AO2 T02111009
KBIF,2022-10-31T18:55:00Z,KBIF 311855Z AUTO 26003KT 10SM CLR 21/01 A3003 RMK AO2 SLP126 T02050008 $
KBIH,2022-10-31T18:56:00Z,KBIH 311856Z AUTO 00000KT 10SM CLR 16/M09 A3004 RMK AO2 SLP156 T01611094
KBIJ,2022-10-31T19:35:00Z,KBIJ 311935Z AUTO 00000KT 10SM SCT043 BKN050 22/15 A2998 RMK AO2
KBIL,2022-10-31T18:53:00Z,KBIL 311853Z 23017G26KT 10SM SCT100 BKN250 18/M01 A2979 RMK AO2 PK WND 23029/1835 SLP077 ACSL ALQDS T01781011
KBIS,2022-10-31T18:52:00Z,KBIS 311852Z 00000KT 10SM CLR 14/00 A2976 RMK AO2 SLP086 T01390000
KBIV,2022-10-31T18:53:00Z,KBIV 311853Z AUTO 00000KT 10SM -RA OVC008 15/13 A2981 RMK AO2 RAB49 SLP095 P0000 T01500128
KBIX,2022-10-31T18:55:00Z,KBIX 311855Z AUTO 20007KT 10SM OVC055 23/14 A2999 RMK AO2 SLP159 T02310144
KBJC,2022-10-31T18:47:00Z,KBJC 311847Z 16007KT 10SM FEW150 18/M11 A2999
KBJI,2022-10-31T19:35:00Z,KBJI 311935Z AUTO 23007KT 10SM CLR 16/M01 A2971 RMK AO2 T01621007
KBJJ,2022-10-31T18:56:00Z,KBJJ 311856Z AUTO 23011KT 10SM FEW030 BKN048 OVC060 18/13 A2986 RMK AO2 SLP110 T01780128
KBKB,2022-10-31T18:52:00Z,KBKB 311852Z AUTO 00000KT 10SM CLR 25/12 A2999 RMK AO2 SLP182 T02500117
KBKD,2022-10-31T19:35:00Z,KBKD 311935Z AUTO 00000KT 7SM CLR 24/06 A3002 RMK AO2 T02400062
KBKE,2022-10-31T18:53:00Z,KBKE 311853Z AUTO 12012KT 10SM CLR 09/01 A2995 RMK AO2 SLP145 T00940006
KBKF,2022-10-31T18:58:00Z,KBKF 311858Z 20003KT 10SM FEW220 17/M12 A2997 RMK AO2A SLP115 T01701117
KBKL,2022-10-31T18:53:00Z,KBKL 311853Z 21008KT 10SM FEW034 BKN047 OVC070 21/14 A2982 RMK AO2 SLP094 T02110139
KBKS,2022-10-31T19:35:00Z,KBKS 311935Z AUTO 10007KT 9SM FEW035 OVC060 25/18 A2994 RMK AO2 SLP098 T02480180 $
KBKT,2022-10-31T19:35:00Z,KBKT 311935Z AUTO 18006KT 10SM BKN036 22/14 A3001 RMK AO1 T02150142
KBKV,2022-10-31T18:53:00Z,KBKV 311853Z 16003KT 10SM CLR 30/18 A2997 RMK AO2 SLP146 T03000183
KBKW,2022-10-31T19:23:00Z,KBKW 311923Z AUTO 13004KT 2 1/2SM -RA BR BKN013 OVC018 14/13 A2998 RMK AO2 RAB16 P0000 T01440133
KBKX,2022-10-31T18:56:00Z,KBKX 311856Z AUTO 20010KT 10SM CLR 18/02 A2981 RMK AO2 SLPNO T01830017
KBLF,2022-10-31T18:52:00Z,KBLF 311852Z AUTO 00000KT 10SM SCT008 OVC018 14/13 A3000 RMK AO2 RAE15 SLP145 P0000 T01390128
KBLH,2022-10-31T18:52:00Z,KBLH 311852Z AUTO 06005KT 10SM CLR 26/M03 A2992 RMK AO2 SLP127 T02611033 TSNO
KBLI,2022-10-31T18:53:00Z,KBLI 311853Z 17010KT 10SM FEW015 SCT030 SCT080 11/09 A2979 RMK AO2 RAB1756E15 SLP095 P0000 T01060094
KBLM,2022-10-31T18:56:00Z,KBLM 311856Z AUTO 22007KT 10SM BKN035 BKN120 20/12 A3002 RMK AO2 SLP164 T02000122
KBLU,2022-10-31T18:52:00Z,KBLU 311852Z AUTO 18005KT 10SM CLR 15/M03 A3008 RMK AO2 SLP129 T01501033
KBLV,2022-10-31T18:55:00Z,KBLV 311855Z 25009KT 10SM OVC012 14/12 A2989 RMK AO2A SLP124 T01400115 10147 20129 53002 CHINO RWY14R $
KBMC,2022-10-31T19:30:00Z,KBMC 311930Z AUTO 10SM CLR 13/M04 A3012 RMK AO1 T01311040
KBMG,2022-10-31T19:40:00Z,KBMG 311940Z 23009KT 10SM BKN013 BKN022 OVC090 16/13 A2986 RMK AO2 T01560133
KBMI,2022-10-31T18:56:00Z,KBMI 311856Z 31006KT 1 1/4SM -RA BR OVC003 13/13 A2985 RMK AO2 RAE33B54 SLP103 P0000 T01330133
KBML,2022-10-31T18:52:00Z,KBML 311852Z AUTO 34006KT 10SM CLR 18/M02 A2992 RMK AO2 SLP138 T01781017
KBMQ,2022-10-31T18:53:00Z,KBMQ 311853Z AUTO 00000KT 10SM CLR 23/07 A3004 RMK AO2 SLP163 T02330072 $
KBMT,2022-10-31T19:35:00Z,KBMT 311935Z AUTO 00000KT 10SM CLR 25/10 A3000 RMK AO2 T02450097
KBNA,2022-10-31T18:53:00Z,KBNA 311853Z 22005KT 10SM BKN022 OVC060 18/12 A2995 RMK AO2 SLP138 T01830122
KBNL,2022-10-31T19:35:00Z,KBNL 311935Z AUTO 19008KT 10SM SCT075 SCT095 28/18 A2996 RMK AO2
KBNO,2022-10-31T18:53:00Z,KBNO 311853Z AUTO 20005KT 10SM CLR 14/M02 A2999 RMK AO2 SLP151 T01441022
KBNW,2022-10-31T19:35:00Z,KBNW 311935Z AUTO VRB04G10KT 10SM CLR 18/01 A2990 RMK AO2
KBOI,2022-10-31T18:53:00Z,KBOI 311853Z 12010KT 10SM SCT120 16/00 A2997 RMK AO2 SLP142 T01610000
KBOK,2022-10-31T18:56:00Z,KBOK 311856Z AUTO 14003KT 10SM CLR 12/09 A3000 RMK AO2 SLP162 T01170094 $
KBOS,2022-10-31T18:54:00Z,KBOS 311854Z 21014KT 10SM FEW023 SCT034 BKN140 BKN250 20/12 A2998 RMK AO2 SLP152 T02000122
KBPG,2022-10-31T19:35:00Z,KBPG 311935Z AUTO 21003KT 10SM CLR 21/08 A3004 RMK AO2 T02060076
KBPI,2022-10-31T18:53:00Z,KBPI 311853Z AUTO VRB03KT 10SM CLR 10/M03 A3010 RMK AO2 SLP163 T01001033
KBPK,2022-10-31T18:53:00Z,KBPK 311853Z AUTO VRB05KT 10SM FEW095 20/08 A2995 RMK AO2 SLP138 T02000083 $
KBPT,2022-10-31T18:53:00Z,KBPT 311853Z 10004KT 10SM CLR 26/12 A3000 RMK AO2 SLP160 T02610117
KBQK,2022-10-31T19:35:00Z,KBQK 311935Z AUTO 14009KT 10SM CLR 27/19 A2997 RMK AO2 T02740193
KBQP,2022-10-31T19:35:00Z,KBQP 311935Z AUTO 28006KT 10SM SCT050 24/11 A3000 RMK AO2 T02410107
KBQX,2022-10-31T19:35:00Z,KBQX 311935Z AUTO 08007G13KT 030V100 10SM CLR 23/16 A3000 RMK A01
KBRD,2022-10-31T18:53:00Z,KBRD 311853Z AUTO 21009KT 10SM CLR 18/00 A2978 RMK AO2 SLP091 T01780000
KBRG,2022-10-31T19:35:00Z,KBRG 311935Z AUTO 00000KT 10SM CLR 17/M06 A3009 RMK AO2 T01651064
KBRL,2022-10-31T18:53:00Z,KBRL 311853Z AUTO VRB05KT 10SM CLR 18/07 A2986 RMK AO2 SLP112 T01780072
KBRO,2022-10-31T18:53:00Z,KBRO 311853Z 10014KT 10SM FEW040 OVC065 27/18 A2992 RMK AO2 SLP131 T02720183
KBRY,2022-10-31T19:35:00Z,KBRY 311935Z AUTO 22005KT 10SM BKN028 BKN037 OVC070 18/13 A2988 RMK AO2 RAE1856 CIG 026V032 P0000 T01840132
KBTA,2022-10-31T19:35:00Z,KBTA 311935Z AUTO 21007KT 10SM CLR 20/00 A2990 RMK AO2 T01950002
KBTL,2022-10-31T18:53:00Z,KBTL 311853Z 00000KT 9SM OVC006 16/13 A2981 RMK AO2 SLP094 T01560133
KBTM,2022-10-31T18:53:00Z,KBTM 311853Z AUTO 23016G26KT 10SM FEW065 13/M01 A2989 RMK AO2 PK WND 24026/1853 SLP101 T01331011
KBTN,2022-10-31T19:35:00Z,KBTN 311935Z AUTO 21011KT 8SM CLR 18/M03 A2974 RMK AO2
KBTP,2022-10-31T19:33:00Z,KBTP 311933Z AUTO 19003KT 10SM OVC007 16/15 A2991 RMK AO2 CIG 005V009 TSNO
KBTR,2022-10-31T18:53:00Z,KBTR 311853Z 27004KT 10SM BKN050 24/12 A3001 RMK AO2 SLP160 T02440122
KBTV,2022-10-31T18:54:00Z,KBTV 311854Z 20014G19KT 10SM BKN090 BKN150 17/03 A2992 RMK AO2 SLP132 T01720028
KBUF,2022-10-31T18:54:00Z,KBUF 311854Z 00000KT 10SM BKN028 BKN070 OVC200 16/11 A2985 RMK AO2 RAE01 SLP111 SHRA VC SW-NW-N AND DSNT NE-E P0000 T01560111 $
KBUR,2022-10-31T18:53:00Z,KBUR 311853Z VRB03KT 10SM CLR 27/M02 A2992 RMK AO2 SLP118 T02671017
KBUU,2022-10-31T19:35:00Z,KBUU 311935Z AUTO 00000KT 10SM SCT030 17/10 A2981 RMK AO2 T01660104 PWINO
KBUY,2022-10-31T19:22:00Z,KBUY 311922Z AUTO VRB04KT 10SM SCT023 BKN028 OVC046 21/16 A3000 RMK AO2 RAB1855E12 P0000 T02060161
KBVI,2022-10-31T19:35:00Z,KBVI 311935Z AUTO 21004KT 10SM OVC010 18/15 A2990 RMK AO2 T01750145
KBVN,2022-10-31T19:35:00Z,KBVN 311935Z AUTO 20013G16KT 10SM CLR 21/M01 A2985 RMK AO2 T02131015
KBVO,2022-10-31T18:53:00Z,KBVO 311853Z AUTO VRB06KT 10SM CLR 23/03 A2998 RMK AO2 SLP144 T02280033
KBVS,2022-10-31T19:35:00Z,KBVS 311935Z AUTO 26007KT 210V300 10SM OVC095 11/07 A2983 RMK A01
KBVU,2022-10-31T19:35:00Z,KBVU 311935Z AUTO 00000KT 10SM CLR 22/M06 A2999 RMK AO2
KBVX,2022-10-31T18:56:00Z,KBVX 311856Z AUTO 32005KT 10SM FEW047 20/10 A2996 RMK AO2 SLP143 T02000100
KBVY,2022-10-31T18:53:00Z,KBVY 311853Z 21014G19KT 10SM CLR 19/11 A2997 RMK AO2 SLP143 T01890111
KBWD,2022-10-31T19:15:00Z,KBWD 311915Z AUTO 28004KT 9SM CLR 23/08 A3003 RMK AO1
KBWG,2022-10-31T18:53:00Z,KBWG 311853Z AUTO 23011KT 10SM FEW022 OVC037 19/13 A2992 RMK AO2 SLP130 T01890133
KBWI,2022-10-31T18:54:00Z,KBWI 311854Z 21005KT 10SM BKN023 OVC055 19/14 A3000 RMK AO2 SLP156 T01940139
KBWP,2022-10-31T19:35:00Z,KBWP 311935Z AUTO 25011KT 10SM CLR 20/M03 A2973 RMK AO2
KBWW,2022-10-31T19:35:00Z,KBWW 311935Z AUTO 27014G20KT 10SM CLR 17/M03 A2977 RMK AO2
KBXA,2022-10-31T19:35:00Z,KBXA 311935Z AUTO 27006KT 10SM SCT049 26/11 A3000 RMK AO2 T02560111
KBXK,2022-10-31T19:35:00Z,KBXK 311935Z AUTO 12009KT 10SM CLR 25/M01 A2992 RMK A01
KBYG,2022-10-31T18:53:00Z,KBYG 311853Z AUTO 14010KT 10SM CLR 15/M06 A2986 RMK AO2 SLP090 T01501061
KBYI,2022-10-31T18:53:00Z,KBYI 311853Z AUTO 02003KT 10SM CLR 16/M01 A3004 RMK AO2 SLP160 T01611006
KBYL,2022-10-31T19:35:00Z,KBYL 311935Z AUTO 25006KT 10SM FEW033 SCT041 BKN060 18/12 A2995 RMK AO1
KBYS,2022-10-31T18:55:00Z,KBYS 311855Z AUTO 00000KT 10SM CLR 22/M10 A2998 RMK AO2 SLP137 T02181100 $
KBYY,2022-10-31T19:35:00Z,KBYY 311935Z AUTO 09007KT 10SM CLR 26/11 A2998 RMK AO2 T02580120
KC07,2022-10-31T19:35:00Z,KC07 311935Z AUTO 28008KT 250V310 10SM CLR 00/M05 A3021 RMK AO2
KC09,2022-10-31T19:35:00Z,KC09 311935Z AUTO 31004KT 7SM OVC005 13/13 A2981 RMK AO2 T01340134
KC29,2022-10-31T19:35:00Z,KC29 311935Z AUTO 31005KT 10SM CLR 19/03 A2982 RMK AO1 T01850030
KC35,2022-10-31T19:35:00Z,KC35 311935Z AUTO 30004KT 10SM CLR 18/04 A2980 RMK AO2 T01830042 PWINO
KC65,2022-10-31T19:35:00Z,KC65 311935Z AUTO 18004KT 6SM BR BKN021 OVC028 15/14 A2978 RMK A01
KC75,2022-10-31T19:35:00Z,KC75 311935Z AUTO 29005KT 7SM SCT015 15/13 A2984 RMK AO2 T01470132
KC99,2022-10-31T19:35:00Z,KC99 311935Z AUTO 31012G21KT 10SM CLR 02/M11 A3018 RMK AO2
KCAD,2022-10-31T19:35:00Z,KCAD 311935Z AUTO 24004KT 10SM CLR 19/06 A2978 RMK AO2 T01850058
KCAE,2022-10-31T18:56:00Z,KCAE 311856Z 19008KT 10SM FEW022 SCT060 BKN080 BKN160 26/19 A2997 RMK AO2 SLP145 T02560189
KCAG,2022-10-31T18:53:00Z,KCAG 311853Z AUTO 34003KT 10SM CLR 11/M04 A3013 RMK AO2 SLP203 T01111039
KCAK,2022-10-31T19:35:00Z,KCAK 311935Z 21010KT 10SM SCT024 BKN041 OVC060 18/13 A2987 RMK AO2 T01830133
KCAO,2022-10-31T18:55:00Z,KCAO 311855Z AUTO 19015G20KT 10SM CLR 19/M01 A3001 RMK AO2 PK WND 18026/1813 SLP126 T01891006
KCAR,2022-10-31T18:54:00Z,KCAR 311854Z AUTO VRB04KT 10SM CLR 17/M01 A2992 RMK AO2 SLP136 T01671006
KCAV,2022-10-31T19:35:00Z,KCAV 311935Z AUTO 27008KT 10SM CLR 18/01 A2986 RMK A01
KCBE,2022-10-31T19:35:00Z,KCBE 311935Z AUTO 20004KT 10SM OVC100 13/10 A3001 RMK AO2 T01350101
KCBG,2022-10-31T19:35:00Z,KCBG 311935Z AUTO 00000KT 10SM CLR 18/04 A2981 RMK AO2
KCBK,2022-10-31T19:35:00Z,KCBK 311935Z AUTO 24008KT 220V280 10SM CLR 22/M04 A2994 RMK AO2 T02171045
KCBM,2022-10-31T18:55:00Z,KCBM 311855Z 25007KT 10SM OVC060 21/14 A3000 RMK AO2A SLP241 ALSTG/SLP ESTMD T02100139 TSNO $
KCCA,2022-10-31T19:35:00Z,KCCA 311935Z AUTO 23007KT 200V270 10SM CLR 23/10 A2994 RMK AO2
KCCO,2022-10-31T19:35:00Z,KCCO 311935Z AUTO 30004KT 10SM BKN039 22/12 A2998 RMK AO2 T02180116
KCCR,2022-10-31T18:53:00Z,KCCR 311853Z 00000KT 10SM CLR 17/09 A2996 RMK AO2 SLP131 T01670089
KCCU,2022-10-31T19:35:00Z,KCCU 311935Z AUTO 29010KT 10SM CLR 03/M12 A3026 RMK AO2
KCCY,2022-10-31T19:35:00Z,KCCY 311935Z AUTO 27009KT 10SM CLR 17/02 A2985 RMK AO2
KCDA,2022-10-31T19:35:00Z,KCDA 311935Z AUTO 00000KT 10SM 14/01 A2994 RMK AO2 T01430008
KCDC,2022-10-31T18:53:00Z,KCDC 311853Z AUTO 34004KT 10SM CLR 12/M03 A3013 RMK AO2 SLP181 T01221033
KCDD,2022-10-31T19:34:00Z,KCDD 311934Z AUTO 22004KT 10SM CLR 16/M05 A2970 RMK AO2
KCDH,2022-10-31T19:35:00Z,KCDH 311935Z AUTO 24004KT 10SM CLR 24/15 A2998 RMK AO2
KCDI,2022-10-31T19:35:00Z,KCDI 311935Z AUTO 17005KT 10SM SCT023 BKN029 OVC075 20/15 A2988 RMK AO2 T01960153
KCDJ,2022-10-31T18:51:00Z,KCDJ 311851Z AUTO 00000KT 21/05 A2992 RMK AO1 SLP127 T02060050
KCDN,2022-10-31T19:35:00Z,KCDN 311935Z AUTO 21008G14KT 10SM SCT027 SCT041 BKN090 26/19 A2998 RMK AO2
KCDR,2022-10-31T18:53:00Z,KCDR 311853Z AUTO 31013G21KT 10SM CLR 18/M07 A2986 RMK AO2 SLP117 T01831067
KCDS,2022-10-31T18:53:00Z,KCDS 311853Z AUTO 18007KT 10SM CLR 22/08 A3004 RMK AO2 SLP156 T02170078
KCDW,2022-10-31T18:53:00Z,KCDW 311853Z 22007KT 10SM FEW029 BKN120 18/09 A3000 RMK AO2 SLP164 T01780094
KCEC,2022-10-31T18:56:00Z,KCEC 311856Z AUTO 19005KT 4SM HZ CLR 14/10 A3000 RMK AO2 SLP160 T01440100
KCEF,2022-10-31T18:55:00Z,KCEF 311855Z 21012KT 10SM FEW050 BKN150 BKN200 19/07 A2994 RMK AO2A SLPNO T01930074
KCEU,2022-10-31T19:07:00Z,KCEU 311907Z AUTO 00000KT 10SM OVC005 16/15 A3000 RMK AO2 T01610150
KCEW,2022-10-31T18:53:00Z,KCEW 311853Z AUTO VRB03KT 10SM CLR 24/13 A3000 RMK AO2 SLP157 T02440133
KCEY,2022-10-31T19:35:00Z,KCEY 311935Z AUTO 22016KT 10SM OVC041 17/14 A2993 RMK A01
KCEZ,2022-10-31T18:53:00Z,KCEZ 311853Z AUTO 21009KT 10SM CLR 13/M03 A3013 RMK AO2 SLP182 T01331033
KCFD,2022-10-31T19:35:00Z,KCFD 311935Z AUTO 14004KT 7SM CLR 24/12 A3003 RMK AO2 T02380116
KCFE,2022-10-31T19:35:00Z,KCFE 311935Z AUTO 23009KT 10SM CLR 18/M02 A2981 RMK AO2 LTG DSNT S
KCFJ,2022-10-31T19:35:00Z,KCFJ 311935Z AUTO 23011KT 10SM OVC014 14/09 A2984 RMK AO2 T01380090
KCFO,2022-10-31T18:47:00Z,KCFO 311847Z 23003KT 10SM SKC 18/M14 A2999
KCFS,2022-10-31T19:35:00Z,KCFS 311935Z AUTO 00000KT 10SM SCT007 BKN016 OVC032 15/13 A2979 RMK AO2 T01500126
KCFV,2022-10-31T18:52:00Z,KCFV 311852Z AUTO 24009KT 10SM CLR 22/05 A2996 RMK AO2 SLP140 T02220050
KCGC,2022-10-31T19:35:00Z,KCGC 311935Z AUTO 29008KT 10SM CLR 28/20 A2996 RMK AO2
KCGE,2022-10-31T19:35:00Z,KCGE 311935Z AUTO 20008KT 170V230 10SM FEW027 SCT070 20/14 A3002 RMK A01
KCGF,2022-10-31T18:45:00Z,KCGF 311845Z 20012KT 10SM SCT025 BKN065 19/13 A2983
KCGI,2022-10-31T18:53:00Z,KCGI 311853Z 26009KT 10SM OVC037 18/12 A2990 RMK AO2 SLP125 T01830122
KCGS,2022-10-31T19:35:00Z,KCGS 311935Z AUTO 19003KT 10SM BKN024 BKN030 OVC042 19/14 A3000 RMK AO2 T01890135
KCGZ,2022-10-31T18:56:00Z,KCGZ 311856Z AUTO 00000KT 10SM CLR 22/M01 A2997 RMK AO2 SLP142 T02221006 $
KCHA,2022-10-31T18:53:00Z,KCHA 311853Z 23007KT 10SM FEW032 SCT047 BKN055 BKN250 21/11 A2997 RMK AO2 SLP144 T02060111
KCHD,2022-10-31T18:47:00Z,KCHD 311847Z 2504KT 10SM CLR 22/02 A2996
KCHK,2022-10-31T19:30:00Z,KCHK 311930Z AUTO 25008KT 10SM CLR 23/09 A2997 RMK AO2 T02340085
KCHO,2022-10-31T18:53:00Z,KCHO 311853Z 21003KT 4SM SCT006 BKN018 OVC100 16/14 A3002
KCHS,2022-10-31T18:56:00Z,KCHS 311856Z 18014KT 10SM BKN035 BKN050 BKN120 27/19 A2999 RMK AO2 SLP154 T02670189 $
KCIC,2022-10-31T18:53:00Z,KCIC 311853Z 28006KT 10SM CLR 17/02 A2997
KCID,2022-10-31T18:52:00Z,KCID 311852Z 31007KT 7SM HZ CLR 18/06 A2985 RMK AO2 SLP110 T01830056
KCII,2022-10-31T19:25:00Z,KCII 311925Z AUTO 26023G32KT 10SM 17/01 A2965 RMK A01 
KCIN,2022-10-31T19:35:00Z,KCIN 311935Z AUTO 31007KT 10SM CLR 19/01 A2987 RMK AO2
KCIR,2022-10-31T19:35:00Z,KCIR 311935Z AUTO 27005KT 10SM BKN024 BKN033 OVC039 18/14 A2991 RMK AO2 T01810135
KCJR,2022-10-31T19:35:00Z,KCJR 311935Z AUTO 21005KT 10SM DZ SCT028 BKN055 OVC110 16/14 A3002 RMK AO2 P0002 T01610140
KCKB,2022-10-31T19:15:00Z,KCKB 311915Z 22004KT 3SM -RA BKN010 BKN022 OVC030 18/16 A2994 RMK AO2 RAB1857 P0003 T01830156
KCKC,2022-10-31T19:37:00Z,KCKC 311937Z AUTO 19008G14KT 10SM CLR 13/M01 A2972 RMK AO2
KCKF,2022-10-31T19:35:00Z,KCKF 311935Z AUTO 25004KT 10SM BKN032 BKN044 BKN060 27/18 A2997 RMK AO2 T02650179
KCKI,2022-10-31T19:35:00Z,KCKI 311935Z AUTO 19005KT 10SM SCT035 SCT046 BKN075 25/19 A2998 RMK AO2
KCKM,2022-10-31T19:35:00Z,KCKM 311935Z AUTO 25006KT 10SM FEW037 21/15 A2997 RMK A01
KCKN,2022-10-31T19:35:00Z,KCKN 311935Z 20011KT 10SM 18/M01 A2969 RMK AO2
KCKP,2022-10-31T19:35:00Z,KCKP 311935Z AUTO 22008KT 10SM CLR 20/M01 A2986 RMK AO2 T01951009
KCKV,2022-10-31T18:52:00Z,KCKV 311852Z AUTO 20007KT 10SM -RA FEW017 SCT035 OVC065 18/14 A2992 RMK AO2 RAB19 SLP130 P0000 T01780139 $
KCKZ,2022-10-31T19:35:00Z,KCKZ 311935Z AUTO 19005KT 10SM OVC023 17/13 A3001 RMK AO2
KCLE,2022-10-31T18:51:00Z,KCLE 311851Z 21014KT 10SM SCT033 OVC070 20/12 A2982 RMK AO2 SLP110 T02000122
KCLI,2022-10-31T19:35:00Z,KCLI 311935Z AUTO 22003KT 10SM CLR 18/05 A2980 RMK AO2 T01840052
KCLK,2022-10-31T19:35:00Z,KCLK 311935Z AUTO 20003KT 10SM CLR 22/03 A3001 RMK AO2
KCLL,2022-10-31T18:53:00Z,KCLL 311853Z 23003KT 10SM CLR 24/12 A3003 RMK AO2 SLP164 T02390122
KCLM,2022-10-31T18:53:00Z,KCLM 311853Z AUTO 30012G18KT 10SM SCT070 12/04 A2982 RMK AO2 SLP098 T01220044
KCLS,2022-10-31T19:35:00Z,KCLS 311935Z AUTO 21005KT 10SM FEW036 SCT043 SCT050 12/09 A2989 RMK AO2
KCLT,2022-10-31T19:39:00Z,KCLT 311939Z 32003KT 4SM -RA BR SCT003 BKN009 OVC065 17/16 A3000 RMK P0017 T01670161 $
KCLW,2022-10-31T19:35:00Z,KCLW 311935Z AUTO 30004KT 10SM CLR 28/20 A2996 RMK AO2
KCMA,2022-10-31T18:55:00Z,KCMA 311855Z 21004KT 10SM CLR 22/13 A2991 RMK AO2 SLP136 T02220128
KCMD,2022-10-31T19:35:00Z,KCMD 311935Z AUTO VRB06KT 10SM FEW022 OVC050 19/14 A3000 RMK AO2
KCMH,2022-10-31T18:51:00Z,KCMH 311851Z 21008KT 10SM BKN024 BKN040 OVC065 19/14 A2986 RMK AO2 SLP110 T01890139
KCMI,2022-10-31T18:53:00Z,KCMI 311853Z 23013KT 2SM BR OVC003 14/13 A2984 RMK AO2 SLP103 T01390133
KCMR,2022-10-31T19:35:00Z,KCMR 311935Z AUTO 27011KT 7SM CLR 16/M06 A3013 RMK AO2
KCMX,2022-10-31T18:53:00Z,KCMX 311853Z AUTO 26011KT 10SM CLR 15/02 A2976 RMK AO2 SLP082 T01500017
KCMY,2022-10-31T18:58:00Z,KCMY 311858Z AUTO 00000KT 8SM CLR 18/07 A2983 RMK AO2 SLP108 T01800066 $
KCNB,2022-10-31T19:35:00Z,KCNB 311935Z AUTO 23007KT 180V250 10SM CLR 22/M03 A2978 RMK AO2 T02151029
KCNC,2022-10-31T19:35:00Z,KCNC 311935Z AUTO 31009KT 10SM CLR 18/02 A2989 RMK AO2
KCNI,2022-10-31T19:35:00Z,KCNI 311935Z AUTO 30005KT 10SM SCT018 SCT027 BKN033 20/15 A2998 RMK AO2 T02010146
KCNK,2022-10-31T18:55:00Z,KCNK 311855Z AUTO 23006KT 10SM CLR 21/M01 A2995 RMK AO2 SLP137 T02061011
KCNM,2022-10-31T18:53:00Z,KCNM 311853Z AUTO 00000KT 10SM CLR 17/07 A3004 RMK AO2 SLP142 T01720067
KCNO,2022-10-31T18:53:00Z,KCNO 311853Z 00000KT 10SM SCT200 27/02 A2991 RMK AO2 SLP125 T02720017
KCNU,2022-10-31T18:52:00Z,KCNU 311852Z AUTO 29007KT 10SM CLR 23/05 A2996 RMK AO2 SLP139 T02280050
KCNW,2022-10-31T18:55:00Z,KCNW 311855Z 00000KT 10SM SKC 25/08 A3003
KCNY,2022-10-31T18:53:00Z,KCNY 311853Z AUTO 14006KT 10SM CLR 12/M01 A3011 RMK AO2 SLP189 T01171006
KCOD,2022-10-31T18:56:00Z,KCOD 311856Z AUTO 31008KT 280V360 10SM CLR 13/M03 A2992 RMK AO2 SLP112 T01281028
KCOE,2022-10-31T18:56:00Z,KCOE 311856Z AUTO 20006KT 10SM -RA OVC022 10/08 A2980 RMK AO2 RAB01 SLP108 T01000078 PNO $
KCOF,2022-10-31T18:55:00Z,KCOF 311855Z AUTO 07005KT 10SM CLR 28/27 A2994 RMK AO2 SLP143 T02750273 $
KCOM,2022-10-31T19:35:00Z,KCOM 311935Z AUTO 00000KT CLR 22/07 A3003 RMK AO2 T02170074 PWINO
KCON,2022-10-31T18:51:00Z,KCON 311851Z AUTO 14009KT 10SM CLR 19/04 A2995 RMK AO2 SLP142 T01940039
KCOQ,2022-10-31T19:35:00Z,KCOQ 311935Z AUTO 23009KT 192V262 10SM CLR 17/M04 A2975 RMK AO2 TSNO
KCOS,2022-10-31T18:54:00Z,KCOS 311854Z 18003KT 10SM FEW250 17/M09 A3003 RMK AO2 SLP142 T01671089
KCOT,2022-10-31T18:53:00Z,KCOT 311853Z AUTO 12010KT 10SM FEW049 SCT065 OVC085 26/14 A2997 RMK AO2 SLP143 T02610139
KCOU,2022-10-31T18:54:00Z,KCOU 311854Z 23008KT 10SM FEW032 19/10 A2992 RMK AO2 SLP128 T01890100
KCPC,2022-10-31T19:35:00Z,KCPC 311935Z AUTO 19007KT 10SM SCT060 SCT080 26/19 A3001 RMK AO2 T02600187
KCPF,2022-10-31T19:35:00Z,KCPF 311935Z AUTO 19004KT 10SM SCT009 SCT032 OVC065 17/16 A2994 RMK AO2
KCPK,2022-10-31T19:35:00Z,KCPK 311935Z AUTO 20004KT 23/13 A3002 RMK AO2 T02300130
KCPR,2022-10-31T18:53:00Z,KCPR 311853Z 22016G24KT 10SM CLR 14/M04 A2994 RMK AO2 PK WND 22026/1833 SLP120 T01441044
KCPT,2022-10-31T19:35:00Z,KCPT 311935Z AUTO 00000KT 10SM CLR 25/07 A3002 RMK A01
KCPU,2022-10-31T19:35:00Z,KCPU 311935Z AUTO 00000KT 10SM CLR 21/01 A2995 RMK AO2 T02070007
KCPW,2022-10-31T19:35:00Z,KCPW 311935Z AUTO 24008G15KT 10SM CLR 01/M08 A3032 RMK AO2
KCQB,2022-10-31T19:30:00Z,KCQB 311930Z AUTO 29006KT 10SM CLR 23/03 A2999 RMK AO2 T02290027
KCQC,2022-10-31T18:53:00Z,KCQC 311853Z AUTO 26009KT 10SM CLR 14/M06 A3013 RMK AO2 SLP153 T01391061
KCQF,2022-10-31T19:35:00Z,KCQF 311935Z AUTO 00000KT 10SM CLR 22/13 A3000 RMK AO2
KCQM,2022-10-31T19:35:00Z,KCQM 311935Z AUTO 23010G19KT 10SM SCT070 17/M03 A2970 RMK AO2
KCQT,2022-10-31T18:47:00Z,KCQT 311847Z AUTO VRB03KT 10SM CLR 23/11 A2992 RMK AO2 SLP129 T02280106
KCQW,2022-10-31T19:35:00Z,KCQW 311935Z AUTO 15004KT 10SM SCT023 SCT027 SCT120 26/19 A2997 RMK AO2 PWINO
KCQX,2022-10-31T18:52:00Z,KCQX 311852Z AUTO VRB03KT 10SM OVC024 16/13 A3005 RMK AO2 SLP175 T01610133
KCRE,2022-10-31T18:53:00Z,KCRE 311853Z 11010KT 10SM SCT038 23/19 A3001 RMK AO1 SLP163 T02280194
KCRG,2022-10-31T18:53:00Z,KCRG 311853Z 12009G14KT 10SM BKN030 29/22 A2997 RMK AO2 SLP148 T02940217
KCRP,2022-10-31T18:51:00Z,KCRP 311851Z 10012G20KT 10SM FEW029 SCT075 BKN085 OVC250 26/16 A2998 RMK AO2 SLP151 T02610161
KCRQ,2022-10-31T18:53:00Z,KCRQ 311853Z 24005KT 10SM CLR 22/09 A2990 RMK AO2 SLP121 T02220094
KCRS,2022-10-31T18:53:00Z,KCRS 311853Z AUTO 06003KT 10SM CLR 26/09 A3003 RMK AO2 SLP165 T02560094
KCRW,2022-10-31T18:54:00Z,KCRW 311854Z VRB04KT 10SM BKN020 OVC034 19/16 A2992 RMK AO2 SLP127 T01890156
KCRX,2022-10-31T19:35:00Z,KCRX 311935Z AUTO 24007G14KT 10SM BKN027 BKN035 OVC040 19/12 A2995 RMK AO2
KCSG,2022-10-31T18:51:00Z,KCSG 311851Z VRB05KT 10SM CLR 23/13 A2997 RMK AO2 SLP145 T02280133
KCSM,2022-10-31T18:53:00Z,KCSM 311853Z 23008KT 8SM CLR 21/06 A3002 RMK AO2 SLP154 T02060061 $
KCSQ,2022-10-31T19:35:00Z,KCSQ 311935Z AUTO 31007KT 10SM CLR 18/01 A2990 RMK AO2
KCSV,2022-10-31T18:53:00Z,KCSV 311853Z AUTO VRB05KT 10SM FEW029 OVC041 16/11 A2998 RMK AO2 SLP141 T01560106
KCTB,2022-10-31T18:56:00Z,KCTB 311856Z AUTO 26023G32KT 10SM CLR 13/03 A2966 RMK AO2 PK WND 28038/1801 SLP033 T01330028
KCTJ,2022-10-31T19:35:00Z,KCTJ 311935Z AUTO 28006KT 10SM BKN045 BKN050 20/11 A3002 RMK AO2 T02000106
KCTY,2022-10-31T19:35:00Z,KCTY 311935Z AUTO 26008KT 10SM BKN110 30/19 A2996 RMK AO2 T03020185
KCTZ,2022-10-31T19:35:00Z,KCTZ 311935Z AUTO 16003KT 10SM SCT033 SCT042 26/20 A3000 RMK AO2 T02570204
KCUB,2022-10-31T18:53:00Z,KCUB 311853Z AUTO 18008KT 150V220 10SM FEW031 FEW040 SCT055 26/19 A2998 RMK AO2 SLP151 T02610189
KCUH,2022-10-31T19:35:00Z,KCUH 311935Z AUTO 30009KT 10SM CLR 22/11 A2998 RMK AO2 T02230107
KCUL,2022-10-31T19:32:00Z,KCUL 311932Z AUTO 24008KT BKN016 BKN026 OVC035 18/14 A2988 RMK AO2 PWINO
KCUT,2022-10-31T18:53:00Z,KCUT 311853Z AUTO 24007KT 10SM CLR 14/M10 A2990 RMK AO2 SLP104 T01391100
KCVC,2022-10-31T19:35:00Z,KCVC 311935Z AUTO 00000KT 10SM SCT030 BKN035 OVC065 22/18 A2996 RMK AO2
KCVG,2022-10-31T18:52:00Z,KCVG 311852Z 21007KT 9SM SCT026 BKN034 OVC065 17/13 A2987 RMK AO2 SLP108 BINOVC W T01720128
KCVH,2022-10-31T19:35:00Z,KCVH 311935Z AUTO 00000KT 10SM CLR 16/08 A2995 RMK A01
KCVN,2022-10-31T18:56:00Z,KCVN 311856Z AUTO 20012KT 10SM CLR 20/03 A3006 RMK AO2 SLP160 T02000033
KCVO,2022-10-31T19:33:00Z,KCVO 311933Z AUTO 16003KT 10SM BKN010 OVC016 13/12 A2996 RMK AO2 RAB1857E33 CIG 005V013 P0001
KCVS,2022-10-31T18:55:00Z,KCVS 311855Z AUTO 21011KT 10SM CLR 20/02 A3004 RMK AO2 SLP142 T01950019 $
KCVX,2022-10-31T19:35:00Z,KCVX 311935Z AUTO 30005KT 10SM CLR 14/06 A2979 RMK AO2 T01420060
KCWA,2022-10-31T18:47:00Z,KCWA 311847Z 00000KT 10SM CLR 17/06 A2982
KCWC,2022-10-31T19:35:00Z,KCWC 311935Z AUTO 24004KT 10SM CLR 23/07 A3002 RMK AO2 T02340069
KCWF,2022-10-31T18:55:00Z,KCWF 311855Z 34004KT 10SM CLR 25/12 A3002
KCWI,2022-10-31T18:56:00Z,KCWI 311856Z AUTO 32006KT 10SM CLR 19/06 A2984 RMK AO2 SLP108 T01890056
KCWN,2022-10-31T18:55:00Z,KCWN 311855Z AUTO 10007KT 10SM CLR 16/M09 A3023 RMK AO2 SLP101 T01571093 $
KCWV,2022-10-31T19:35:00Z,KCWV 311935Z AUTO 25005KT 10SM SCT043 SCT050 SCT065 29/18 A2996 RMK AO2 T02930176
KCXE,2022-10-31T19:35:00Z,KCXE 311935Z AUTO 12003KT 10SM SCT033 SCT070 OVC100 20/16 A3001 RMK AO1 T02000156
KCXO,2022-10-31T18:53:00Z,KCXO 311853Z 21004KT 10SM SCT055 24/12 A3002 RMK AO2 SLP165 T02440117
KCXP,2022-10-31T19:35:00Z,KCXP 311935Z AUTO 00000KT 10SM CLR 12/M09 A3005 RMK AO2
KCXU,2022-10-31T19:35:00Z,KCXU 311935Z AUTO 31005KT 10SM OVC037 27/15 A2997 RMK AO1 T02680145
KCXW,2022-10-31T19:35:00Z,KCXW 311935Z AUTO 22008KT 10SM CLR 23/11 A2995 RMK A01
KCXY,2022-10-31T18:56:00Z,KCXY 311856Z 00000KT 10SM BKN021 OVC100 16/11 A2999 RMK AO2 RAB00E11 SLP158 P0000 T01610111
KCYD,2022-10-31T19:34:00Z,KCYD 311934Z AUTO 01003KT 10SM CLR 25/15 A3002 RMK A02 T02530154
KCYS,2022-10-31T18:53:00Z,KCYS 311853Z 28018G24KT 10SM CLR 16/M09 A2998 RMK AO2 SLP113 T01611089
KCZL,2022-10-31T19:35:00Z,KCZL 311935Z AUTO 27006KT 10SM SCT050 21/12 A2999 RMK AO2
KCZT,2022-10-31T19:35:00Z,KCZT 311935Z AUTO 14008KT 10SM SCT046 OVC075 24/11 A2995 RMK AO2
KD25,2022-10-31T19:35:00Z,KD25 311935Z AUTO 26005KT 10SM CLR 16/M03 A2979 RMK AO2 T01581031
KD39,2022-10-31T19:35:00Z,KD39 311935Z AUTO 23009KT 10SM OVC002 18/M01 A2979 RMK AO2 T01761013
KD50,2022-10-31T19:35:00Z,KD50 311935Z AUTO 25009KT 10SM CLR 15/01 A2969 RMK AO2
KD55,2022-10-31T19:35:00Z,KD55 311935Z AUTO 25010KT 10SM CLR 13/03 A2967 RMK AO2
KD57,2022-10-31T19:35:00Z,KD57 311935Z AUTO 26007KT 10SM CLR 17/M01 A2974 RMK AO2
KD60,2022-10-31T19:35:00Z,KD60 311935Z AUTO 25009KT 10SM CLR 14/01 A2971 RMK AO2
KD73,2022-10-31T19:35:00Z,KD73 311935Z AUTO 08004KT 10SM SCT008 BKN012 OVC042 20/19 A2997 RMK AO2 T02020193
KD95,2022-10-31T19:35:00Z,KD95 311935Z AUTO 00000KT 5SM BR OVC005 15/13 A2980 RMK AO2 T01470130
KDAA,2022-10-31T19:25:00Z,KDAA 311925Z AUTO 17006KT 10SM BKN028 BKN080 19/14 A2998 RMK AO2 SLP155 $
KDAB,2022-10-31T18:53:00Z,KDAB 311853Z 12006KT 10SM FEW050 FEW070 28/20 A2996 RMK AO2 SLP146 T02780200
KDAG,2022-10-31T18:50:00Z,KDAG 311850Z AUTO 00000KT 10SM CLR 22/M09 A2999 RMK AO2 SLP142 T02221089
KDAL,2022-10-31T18:53:00Z,KDAL 311853Z 30005KT 10SM FEW050 BKN250 24/07 A3002 RMK AO2 SLP161 T02440067 $
KDAN,2022-10-31T19:22:00Z,KDAN 311922Z AUTO 29005KT 10SM -RA BKN022 BKN032 OVC085 17/15 A3001 RMK AO2 RAB1856E08B15 P0000 T01670150
KDAW,2022-10-31T18:51:00Z,KDAW 311851Z AUTO 00000KT 10SM CLR 19/08 A2995 RMK AO2 SLP139 T01940083
KDAY,2022-10-31T18:56:00Z,KDAY 311856Z 22011KT 10SM SCT021 BKN060 OVC075 18/13 A2986 RMK AO2 CIG 044 RWY 6L SLP109 T01780128
KDBN,2022-10-31T19:35:00Z,KDBN 311935Z AUTO 26005KT 10SM BKN027 BKN038 OVC046 26/18 A2998 RMK AO2
KDBQ,2022-10-31T18:53:00Z,KDBQ 311853Z 31006KT 10SM CLR 19/06 A2985 RMK AO2 SLP108 T01890056
KDCA,2022-10-31T18:52:00Z,KDCA 311852Z 18009KT 10SM BKN024 BKN100 OVC200 19/14 A3000 RMK AO2 SLP158 T01890144
KDCM,2022-10-31T19:35:00Z,KDCM 311935Z AUTO 00000KT 3SM RA BKN003 BKN007 OVC024 17/17 A3000 RMK AO2 P0016
KDCU,2022-10-31T19:06:00Z,KDCU 311906Z AUTO 23006KT 10SM SCT025 BKN031 OVC065 19/13 A2998 RMK AO2 T01890133
KDCY,2022-10-31T19:35:00Z,KDCY 311935Z AUTO 25006KT 10SM SCT020 OVC032 17/13 A2987 RMK AO2 T01680130
KDDC,2022-10-31T18:52:00Z,KDDC 311852Z AUTO 21012G19KT 10SM CLR 22/01 A2997 RMK AO2 SLP138 T02220006
KDDH,2022-10-31T18:54:00Z,KDDH 311854Z AUTO 25007KT 10SM CLR 17/03 A2996 RMK AO2 SLP146 T01720028
KDEC,2022-10-31T18:54:00Z,KDEC 311854Z 25008KT 10SM OVC009 14/13 A2986 RMK AO2 SLP109 T01390133
KDED,2022-10-31T19:35:00Z,KDED 311935Z AUTO 13004KT 10SM CLR 30/19 A2996 RMK AO2 T03010186
KDEH,2022-10-31T19:35:00Z,KDEH 311935Z AUTO VRB04KT 10SM CLR 17/03 A2982 RMK AO2
KDEN,2022-10-31T18:53:00Z,KDEN 311853Z VRB04KT 10SM FEW220 18/M12 A2997 RMK AO2 SLP106 T01781122
KDEQ,2022-10-31T18:53:00Z,KDEQ 311853Z AUTO 21004KT 10SM 22/11 A2999 RMK AO2 SLP151 T02220106 $
KDET,2022-10-31T19:39:00Z,KDET 311939Z 22005KT 3SM HZ BKN009 OVC013 18/15 A2980 RMK AO2 CIG 008V011 T01780150
KDEW,2022-10-31T19:18:00Z,KDEW 311918Z AUTO 20008KT 10SM BKN018 BKN100 OVC110 11/07 A2976 RMK AO2 T01060072
KDFI,2022-10-31T19:35:00Z,KDFI 311935Z AUTO 21008KT 10SM BKN020 OVC080 18/14 A2981 RMK AO2 T01780139
KDFW,2022-10-31T18:53:00Z,KDFW 311853Z VRB03KT 10SM SCT250 24/08 A3001 RMK AO2 SLP158 T02390078
KDGW,2022-10-31T18:53:00Z,KDGW 311853Z AUTO 28014G21KT 10SM CLR 15/M05 A2993 RMK AO2 SLP128 T01501050
KDHN,2022-10-31T18:53:00Z,KDHN 311853Z VRB05KT 10SM CLR 24/14 A3001 RMK AO2 SLP158 T02440139
KDHT,2022-10-31T18:53:00Z,KDHT 311853Z AUTO 20012G24KT 10SM CLR 21/02 A3002 RMK AO2 SLP136 T02110017 $
KDIJ,2022-10-31T18:56:00Z,KDIJ 311856Z AUTO 19007KT 10SM SCT048 10/M02 A3012 RMK AO2 SLP194 T01001022
KDIK,2022-10-31T18:56:00Z,KDIK 311856Z AUTO 26007KT 10SM CLR 16/00 A2974 RMK AO2 SLP071 T01610000
KDKB,2022-10-31T19:35:00Z,KDKB 311935Z AUTO 00000KT 10SM OVC025 15/12 A2983 RMK AO2 T01540120
KDKK,2022-10-31T18:53:00Z,KDKK 311853Z AUTO 30008KT 10SM -RA OVC021 16/13 A2986 RMK AO2 RAB47 SLP112 P0000 T01560128
KDKR,2022-10-31T19:35:00Z,KDKR 311935Z AUTO 00000KT 10SM CLR 24/12 A3000 RMK AO2
KDKX,2022-10-31T19:35:00Z,KDKX 311935Z AUTO 26007G12KT 230V300 10SM 19/15 A2995 RMK A01
KDLF,2022-10-31T19:10:00Z,KDLF 311910Z AUTO 13011KT 10SM BKN030 BKN041 OVC210 23/16 A2995 RMK AO2 SLP136 $
KDLH,2022-10-31T18:55:00Z,KDLH 311855Z 25009KT 10SM CLR 17/M02 A2977 RMK AO2 SLP089 T01721017
KDLN,2022-10-31T18:53:00Z,KDLN 311853Z AUTO 20015G23KT 10SM FEW075 14/M01 A2990 RMK AO2 SLP105 T01441006
KDLO,2022-10-31T19:35:00Z,KDLO 311935Z AUTO 34005KT 10SM CLR 21/02 A2992 RMK AO2 T02070019
KDLS,2022-10-31T18:53:00Z,KDLS 311853Z AUTO 34005KT 10SM FEW020 SCT060 OVC080 16/11 A2987 RMK AO2 SLP113 T01560111
KDLZ,2022-10-31T19:35:00Z,KDLZ 311935Z AUTO 21010G16KT 10SM OVC065 17/12 A2987 RMK AO2
KDMA,2022-10-31T18:55:00Z,KDMA 311855Z AUTO 36004KT 10SM CLR 23/M02 A2996 RMK AO2 SLP162 T02301019 $
KDMH,2022-10-31T18:54:00Z,KDMH 311854Z AUTO 18/13 A3000 RMK AO1 SLP159 T01830133
KDMN,2022-10-31T18:53:00Z,KDMN 311853Z AUTO 10005KT 10SM CLR 21/M03 A3006 RMK AO2 SLP135 T02061028
KDMO,2022-10-31T18:53:00Z,KDMO 311853Z AUTO 25006KT 10SM CLR 20/05 A2994 RMK AO2 SLP135 T02000050
KDMW,2022-10-31T19:35:00Z,KDMW 311935Z AUTO 17004KT 10SM BKN017 BKN065 17/14 A2999 RMK AO2
KDNA,2022-10-31T19:35:00Z,KDNA 311935Z AUTO 00000KT 10SM CLR 21/M01 A3004 RMK AO2
KDNL,2022-10-31T18:53:00Z,KDNL 311853Z AUTO 20007KT 10SM SCT014 BKN027 OVC033 23/19 A2999 RMK AO2 SLP151 T02330194
KDNN,2022-10-31T19:35:00Z,KDNN 311935Z AUTO VRB04KT 10SM SCT036 OVC050 21/12 A2997 RMK AO2 T02050117
KDNS,2022-10-31T19:35:00Z,KDNS 311935Z AUTO 22010G16KT 10SM CLR 19/M01 A2989 RMK AO2
KDNV,2022-10-31T19:35:00Z,KDNV 311935Z AUTO 23009KT 5SM BR OVC003 14/13 A2984 RMK AO2 T01370130
KDOV,2022-10-31T19:29:00Z,KDOV 311929Z 11005KT 10SM FEW008 FEW015 OVC029 17/14 A3000 RMK AO2A SLP163
KDPA,2022-10-31T18:52:00Z,KDPA 311852Z 02005KT 6SM BR BKN006 OVC013 13/11 A2981 RMK AO2 RAE00 SLP096 P0000 T01330111
KDPG,2022-10-31T18:59:00Z,KDPG 311859Z 13004KT 40SM SCT350 15/M05 A3014 RMK SLP192 T01451046
KDPL,2022-10-31T19:35:00Z,KDPL 311935Z AUTO 17004KT 10SM SCT033 SCT041 BKN070 26/19 A3000 RMK AO2
KDQH,2022-10-31T19:35:00Z,KDQH 311935Z AUTO 20004KT 10SM SCT033 SCT039 SCT047 28/19 A2997 RMK AO2 T02780189
KDRA,2022-10-31T18:53:00Z,KDRA 311853Z AUTO 13006KT 10SM CLR 21/M09 A3002 RMK AO2 SLP139 T02111094
KDRI,2022-10-31T19:35:00Z,KDRI 311935Z AUTO VRB03KT 9SM CLR 24/12 A3002 RMK AO2 T02430118 $
KDRM,2022-10-31T19:35:00Z,KDRM 311935Z AUTO 15005KT 10SM CLR 16/05 A2979 RMK AO2 T01550052
KDRO,2022-10-31T18:53:00Z,KDRO 311853Z AUTO VRB05KT 10SM CLR 13/M03 A3014 RMK AO2 SLP188 T01281033
KDRT,2022-10-31T18:53:00Z,KDRT 311853Z AUTO 14011KT 10SM SCT029 23/16 A2997 RMK AO2 SLP145 T02330161
KDSF,2022-10-31T19:35:00Z,KDSF 311935Z AUTO VRB04KT 10SM CLR 26/16 A3000 RMK A01
KDSM,2022-10-31T18:54:00Z,KDSM 311854Z 29006KT 10SM SCT250 18/02 A2990 RMK AO2 SLP123 T01780022
KDSV,2022-10-31T18:54:00Z,KDSV 311854Z AUTO 15007KT 10SM FEW055 OVC095 19/11 A2988 RMK AO2 SLP126 T01890106
KDTA,2022-10-31T19:35:00Z,KDTA 311935Z AUTO 15008KT 10SM CLR 11/M05 A3012 RMK AO1
KDTL,2022-10-31T19:35:00Z,KDTL 311935Z AUTO 21013KT 10SM CLR 17/M01 A2974 RMK AO2
KDTN,2022-10-31T18:53:00Z,KDTN 311853Z AUTO 10SM CLR 24/12 A3001 RMK AO2 SLP161 T02390122
KDTO,2022-10-31T18:53:00Z,KDTO 311853Z 17005KT 10SM CLR 23/09 A3003 RMK AO2 SLP163 T02330089
KDTS,2022-10-31T18:53:00Z,KDTS 311853Z 24005KT 10SM CLR 25/15 A2999 RMK AO2 SLP155 T02500150
KDTW,2022-10-31T18:53:00Z,KDTW 311853Z 21009KT 10SM BKN008 OVC020 17/16 A2980 RMK AO2 SLP092 T01720156 $
KDUA,2022-10-31T19:35:00Z,KDUA 311935Z AUTO 00000KT 10SM CLR 25/02 A3003 RMK AO2
KDUB,2022-10-31T19:34:00Z,KDUB 311934Z AUTO 33017G24KT 10SM CLR 11/M04 A3001 RMK AO2
KDUC,2022-10-31T19:35:00Z,KDUC 311935Z AUTO 27007KT 10SM CLR 23/10 A3002 RMK AO2 T02250099
KDUH,2022-10-31T19:35:00Z,KDUH 311935Z AUTO 24004KT 10SM SCT060 OVC075 18/14 A2980 RMK AO2 T01800140
KDUJ,2022-10-31T19:01:00Z,KDUJ 311901Z AUTO 14003KT 3/4SM BR OVC002 13/12 A2992 RMK AO2 T01330122
KDUX,2022-10-31T19:35:00Z,KDUX 311935Z AUTO 17010KT 10SM CLR 20/01 A3000 RMK AO2 T02010007
KDVK,2022-10-31T19:30:00Z,KDVK 311930Z AUTO 23010KT 10SM SCT027 SCT039 OVC048 17/12 A2993 RMK AO2
KDVL,2022-10-31T18:56:00Z,KDVL 311856Z AUTO 24010KT 10SM CLR 13/02 A2970 RMK AO2 SLP076 T01330022
KDVN,2022-10-31T18:52:00Z,KDVN 311852Z AUTO 26006KT 10SM CLR 19/05 A2986 RMK AO2 SLP109 T01890050
KDVO,2022-10-31T19:35:00Z,KDVO 311935Z AUTO 22005KT 9SM CLR 16/11 A2995 RMK AO2
KDVP,2022-10-31T19:33:00Z,KDVP 311933Z AUTO 21012KT 10SM CLR 18/00 A2983 RMK AO2 T01821005
KDVT,2022-10-31T18:53:00Z,KDVT 311853Z 22006KT 10SM CLR 23/M02 A2996 RMK AO2 SLP129 T02281017
KDWA,2022-10-31T19:35:00Z,KDWA 311935Z AUTO 36003KT 10SM CLR 18/07 A2996 RMK AO2
KDWH,2022-10-31T18:53:00Z,KDWH 311853Z VRB04KT 10SM CLR 24/11 A3001 RMK AO2 SLP162 T02440111
KDWU,2022-10-31T18:56:00Z,KDWU 311856Z AUTO 21008KT 10SM FEW025 BKN060 OVC070 20/16 A2990 RMK AO2 SLP125 T02000156
KDWX,2022-10-31T19:30:00Z,KDWX 311930Z AUTO 10SM CLR 09/M08 A3013 RMK AO2 T00911084
KDXR,2022-10-31T18:53:00Z,KDXR 311853Z 23007KT 10SM BKN120 18/08 A3001 RMK AO2 SLP162 T01830078
KDXX,2022-10-31T19:35:00Z,KDXX 311935Z AUTO 21010KT 10SM CLR 22/M06 A2978 RMK AO2
KDYA,2022-10-31T19:35:00Z,KDYA 311935Z AUTO 26006KT 10SM SCT042 BKN049 OVC060 22/14 A2999 RMK AO2 T02150136
KDYB,2022-10-31T19:35:00Z,KDYB 311935Z AUTO 20006KT 10SM CLR 26/20 A2997 RMK AO2
KDYL,2022-10-31T19:03:00Z,KDYL 311903Z AUTO VRB05KT 10SM BKN024 17/11 A2999 RMK AO2 T01720106
KDYR,2022-10-31T19:35:00Z,KDYR 311935Z AUTO 23012KT 10SM SCT026 BKN038 OVC050 18/13 A2995 RMK AO2
KDYS,2022-10-31T18:55:00Z,KDYS 311855Z AUTO 00000KT 10SM FEW200 22/06 A3001 RMK AO2 SLP138 T02220060 RVRNO PWINO PNO FZRANO TSNO $
KDYT,2022-10-31T19:35:00Z,KDYT 311935Z AUTO 23009KT 10SM CLR 17/M00 A2975 RMK AO2
KDZB,2022-10-31T19:35:00Z,KDZB 311935Z AUTO 07003KT 7SM CLR 24/10 A3001 RMK AO2 T02410095
KDZJ,2022-10-31T19:35:00Z,KDZJ 311935Z AUTO 19006G14KT 10SM BKN036 BKN048 20/12 A2999 RMK AO2 T02010120
KE11,2022-10-31T19:35:00Z,KE11 311935Z AUTO 16009KT 10SM CLR 19/07 A3005 RMK AO2 T01910072
KE16,2022-10-31T19:35:00Z,KE16 311935Z AUTO 15005KT 10SM CLR 14/08 A2996 RMK AO2
KE38,2022-10-31T19:35:00Z,KE38 311935Z AUTO 04005KT 10SM OVC100 18/06 A3009 RMK AO2 T01830055
KE41,2022-10-31T19:35:00Z,KE41 311935Z AUTO 15007KT 10SM CLR 20/09 A3003 RMK AO2 T01980088
KE42,2022-10-31T19:35:00Z,KE42 311935Z AUTO 20012KT 10SM CLR 22/04 A2999 RMK AO2 T02150043
KEAN,2022-10-31T19:30:00Z,KEAN 311930Z AUTO 25012G20KT 10SM CLR 18/M06 A2992 RMK AO2 T01791059
KEAR,2022-10-31T18:56:00Z,KEAR 311856Z AUTO 20013KT 10SM CLR 21/M01 A2989 RMK AO2 SLP121 T02061011
KEAT,2022-10-31T18:55:00Z,KEAT 311855Z AUTO 00000KT 10SM CLR 14/06 A2975 RMK AO2 SLP072 T01390056
KEAU,2022-10-31T18:56:00Z,KEAU 311856Z 27008KT 10SM CLR 17/04 A2982 RMK AO2 SLP102 T01720039
KEBA,2022-10-31T19:35:00Z,KEBA 311935Z AUTO 00000KT 3SM BR OVC002 17/17 A2999 RMK AO2 T01750170
KEBG,2022-10-31T19:35:00Z,KEBG 311935Z AUTO 07011G16KT 10SM SCT036 OVC060 26/18 A2992 RMK AO2 T02580178 PWINO
KEBS,2022-10-31T19:30:00Z,KEBS 311930Z AUTO 31006G12KT 10SM CLR 18/00 A2985 RMK AO2
KECG,2022-10-31T18:54:00Z,KECG 311854Z 11005KT 10SM CLR 22/13 A3004 RMK AO2 SLP171 T02220133
KECP,2022-10-31T19:01:00Z,KECP 311901Z 22006KT 10SM FEW040 25/15 A2998 RMK AO1 T02500150
KECS,2022-10-31T19:35:00Z,KECS 311935Z AUTO 00000KT 10SM CLR 15/M11 A2989 RMK AO2
KECU,2022-10-31T19:35:00Z,KECU 311935Z AUTO 13006KT 10SM CLR 21/13 A3006 RMK AO2
KEDC,2022-10-31T19:35:00Z,KEDC 311935Z AUTO 17005KT 10SM CLR 24/10 A2999 RMK AO2
KEDE,2022-10-31T19:35:00Z,KEDE 311935Z AUTO 09003KT 10SM CLR 24/18 A3004 RMK AO2 T02360178
KEDN,2022-10-31T19:35:00Z,KEDN 311935Z AUTO 30003KT 10SM CLR 23/13 A2998 RMK AO2 T02310126
KEDU,2022-10-31T19:30:00Z,KEDU 311930Z AUTO 00000KT 10SM CLR 17/08 A2996 RMK AO1
KEDW,2022-10-31T18:55:00Z,KEDW 311855Z 00000KT 50SM BKN250 17/M07 A2999 RMK AO2A SLP150 T01731073
KEED,2022-10-31T18:56:00Z,KEED 311856Z AUTO 34011G18KT 10SM CLR 26/M04 A2995 RMK AO2 SLP118 T02561039
KEEN,2022-10-31T18:56:00Z,KEEN 311856Z AUTO 19006KT 10SM BKN120 18/08 A2997 RMK AO2 SLP154 T01830083 $
KEEO,2022-10-31T18:53:00Z,KEEO 311853Z AUTO 22003KT 10SM CLR 10/M04 A3013 RMK AO2 SLP185 T01001044
KEET,2022-10-31T18:53:00Z,KEET 311853Z AUTO VRB04KT 10SM FEW028 OVC050 20/13 A3000 RMK AO2 SLP154 T02000128
KEFD,2022-10-31T18:54:00Z,KEFD 311854Z 08006KT 10SM FEW040 25/11 A3000
KEFK,2022-10-31T19:35:00Z,KEFK 311935Z AUTO 21004KT 10SM CLR 16/00 A2992 RMK AO2 T01591002
KEFT,2022-10-31T19:35:00Z,KEFT 311935Z AUTO 00000KT 10SM CLR 18/04 A2981 RMK AO2 T01830035
KEGE,2022-10-31T18:56:00Z,KEGE 311856Z 00000KT 10SM CLR 06/M04 A3019 RMK AO2 SLP127 T00611044
KEGI,2022-10-31T18:55:00Z,KEGI 311855Z AUTO 28007KT 10SM CLR 24/13 A2998 RMK AO2 SLP152 T02440127 $
KEGT,2022-10-31T19:35:00Z,KEGT 311935Z AUTO 29006KT 10SM CLR 22/M02 A2997 RMK AO2 T02211018
KEHA,2022-10-31T19:35:00Z,KEHA 311935Z AUTO 21015G19KT 10SM CLR 23/00 A2998 RMK AO2 T02270001
KEHO,2022-10-31T19:35:00Z,KEHO 311935Z AUTO 00000KT 10SM BKN003 BKN017 OVC022 16/15 A3001 RMK AO2 T01550149
KEHR,2022-10-31T19:16:00Z,KEHR 311916Z AUTO 25014KT 6SM -RA BR FEW021 SCT027 OVC035 16/14 A2989 RMK AO2 P0000
KEIK,2022-10-31T19:35:00Z,KEIK 311935Z AUTO 13006KT 10SM CLR 19/M12 A2995 RMK AO2 T01871119 PWINO
KEKM,2022-10-31T19:35:00Z,KEKM 311935Z 00000KT 10SM FEW008 SCT013 BKN031 OVC080 16/16 A2981 RMK AO2 RAE1926 FEW V SCT P0000 T01610161
KEKN,2022-10-31T19:39:00Z,KEKN 311939Z AUTO 18005KT 10SM BKN029 OVC037 17/14 A2996 RMK AO2 RAE17 P0004 T01720144
KEKQ,2022-10-31T18:56:00Z,KEKQ 311856Z AUTO 25010KT 10SM OVC060 19/13 A2996 RMK AO2 SLP137 T01890133
KEKS,2022-10-31T19:35:00Z,KEKS 311935Z AUTO 18027KT 10SM OVC070 13/M01 A2996 RMK AO2
KEKX,2022-10-31T19:35:00Z,KEKX 311935Z AUTO 21008KT 10SM BKN024 BKN030 OVC070 17/13 A2991 RMK AO2 T01740133
KEKY,2022-10-31T18:56:00Z,KEKY 311856Z AUTO 24005KT 10SM FEW024 OVC050 20/14 A3001 RMK AO2 SLP009 T02000144
KELA,2022-10-31T19:35:00Z,KELA 311935Z AUTO 00000KT 10SM SCT055 27/11 A2999 RMK AO2 T02660110
KELD,2022-10-31T18:53:00Z,KELD 311853Z AUTO 23007KT 10SM CLR 23/12 A3000 RMK AO2 SLP155 T02280122
KELK,2022-10-31T19:35:00Z,KELK 311935Z AUTO 21009KT 9SM CLR 22/03 A3000 RMK AO2 SLP443 T02240034 $
KELM,2022-10-31T18:53:00Z,KELM 311853Z AUTO 15009KT 10SM FEW050 SCT060 OVC070 16/09 A2992 RMK AO2 SLP134 T01560094
KELN,2022-10-31T18:53:00Z,KELN 311853Z AUTO 30008KT 8SM -RA BKN055 OVC065 12/07 A2981 RMK AO2 SLP097 P0001 T01170072
KELO,2022-10-31T19:35:00Z,KELO 311935Z AUTO 25011KT 10SM CLR 16/M03 A2971 RMK AO2
KELP,2022-10-31T18:51:00Z,KELP 311851Z 01006KT 10SM FEW085 SCT180 BKN250 22/00 A3003 RMK AO2 SLP118 T02170000
KELY,2022-10-31T18:53:00Z,KELY 311853Z AUTO VRB03KT 10SM CLR 14/M07 A3012 RMK AO2 SLP168 T01391072
KELZ,2022-10-31T19:16:00Z,KELZ 311916Z AUTO VRB05KT 10SM BKN012 OVC020 14/11 A2992 RMK AO2 T01440111
KEMM,2022-10-31T19:35:00Z,KEMM 311935Z AUTO 29012G22KT 10SM CLR 09/M05 A3012 RMK AO2
KEMP,2022-10-31T18:53:00Z,KEMP 311853Z AUTO 29006KT 10SM CLR 20/01 A2996 RMK AO2 SLP143 T02000006
KEMT,2022-10-31T18:45:00Z,KEMT 311845Z 19006KT 10SM CLR 24/05 A2991
KEMV,2022-10-31T19:35:00Z,KEMV 311935Z AUTO 13005KT 10SM SCT065 23/14 A3003 RMK AO2 T02250141
KEND,2022-10-31T18:55:00Z,KEND 311855Z 14005KT 10SM CLR 21/01 A2997 RMK AO2A SLP147 T02120009 $
KENV,2022-10-31T18:56:00Z,KENV 311856Z AUTO 09007KT 10SM CLR 09/M05 A3012 RMK AO2 SLP206 T00891050
KENW,2022-10-31T18:53:00Z,KENW 311853Z 34005KT 8SM OVC019 16/11 A2982 RMK AO2 SLP098 T01560106
KEOE,2022-10-31T19:35:00Z,KEOE 311935Z AUTO 00000KT 7SM CLR 18/18 A3002 RMK AO2
KEOK,2022-10-31T19:35:00Z,KEOK 311935Z AUTO VRB05KT 10SM CLR 18/08 A2987 RMK A01
KEQA,2022-10-31T19:35:00Z,KEQA 311935Z AUTO 30005KT 10SM CLR 22/M03 A2996 RMK AO2
KEQY,2022-10-31T19:19:00Z,KEQY 311919Z AUTO 21010G16KT 10SM FEW018 BKN050 OVC065 23/18 A2998 RMK AO2 T02280183
KERI,2022-10-31T19:32:00Z,KERI 311932Z 19008KT 10SM SCT014 BKN060 OVC075 17/14 A2985 RMK AO2 T01720139
KERV,2022-10-31T19:35:00Z,KERV 311935Z AUTO 14006KT 10SM SCT060 25/08 A3002 RMK AO2 T02480081
KERY,2022-10-31T19:35:00Z,KERY 311935Z AUTO 20005KT 10SM CLR 15/05 A2978 RMK AO2 T01540053
KESC,2022-10-31T18:56:00Z,KESC 311856Z AUTO 17008KT 10SM CLR 14/06 A2978 RMK AO2 SLP091 T01440056 PNO $
KESF,2022-10-31T18:53:00Z,KESF 311853Z AUTO VRB03KT 10SM CLR 25/12 A3000 RMK AO2 SLP159 T02500122
KESN,2022-10-31T18:50:00Z,KESN 311850Z 18008KT 10SM OVC032 21/16 A3005
KEST,2022-10-31T18:52:00Z,KEST 311852Z AUTO 24009KT 10SM CLR 19/M01 A2985 RMK AO2 SLP112 T01891006
KETB,2022-10-31T19:35:00Z,KETB 311935Z AUTO 00000KT 10SM CLR 18/05 A2980 RMK AO2
KETC,2022-10-31T19:35:00Z,KETC 311935Z AUTO 14006KT 7SM 24/16 A3001 RMK AO2 T02430156
KETH,2022-10-31T19:33:00Z,KETH 311933Z AUTO 26005KT 10SM 20/M01 A2976 RMK AO2
KETN,2022-10-31T19:35:00Z,KETN 311935Z AUTO 12006KT 10SM CLR 23/08 A3002 RMK AO2 T02330075
KEUF,2022-10-31T18:58:00Z,KEUF 311858Z AUTO 25004KT 10SM CLR 24/14 A2998 RMK AO2 SLP150 T02440144
KEUG,2022-10-31T18:54:00Z,KEUG 311854Z 20008KT 7SM OVC020 14/10 A2997 RMK AO2 SLP148 VCSH T01440100
KEVB,2022-10-31T18:47:00Z,KEVB 311847Z 11008KT 10SM SCT030 28/22 A2997
KEVM,2022-10-31T19:35:00Z,KEVM 311935Z AUTO 23011KT 10SM CLR 17/00 A2973 RMK AO2 T01681004
KEVU,2022-10-31T19:35:00Z,KEVU 311935Z AUTO 34004KT 10SM CLR 20/02 A2992 RMK AO2 T02030028
KEVV,2022-10-31T19:19:00Z,KEVV 311919Z 25007KT 2 1/2SM R22/5500VP6000FT RA BR BKN014 BKN019 OVC034 16/14 A2989 RMK AO2 RAB02 P0002 T01610144 $
KEVW,2022-10-31T18:53:00Z,KEVW 311853Z AUTO 21012G17KT 10SM CLR 11/M06 A3014 RMK AO2 SLP178 T01061056
KEWB,2022-10-31T18:53:00Z,KEWB 311853Z 23007KT 10SM OVC014 17/14 A3001 RMK AO2 SLP163 T01670139
KEWK,2022-10-31T18:56:00Z,KEWK 311856Z AUTO VRB05KT 10SM CLR 20/M01 A2998 RMK AO2 SLP145 T02001011
KEWN,2022-10-31T18:54:00Z,KEWN 311854Z 16006KT 10SM FEW050 25/17 A3004 RMK AO2 SLP171 T02500167
KEWR,2022-10-31T18:51:00Z,KEWR 311851Z 23011KT 10SM BKN032 BKN130 BKN200 BKN250 19/11 A3000 RMK AO2 SLP159 T01940111
KEXX,2022-10-31T19:35:00Z,KEXX 311935Z AUTO 00000KT 5SM +RA BKN014 OVC019 18/18 A2998 RMK AO2 T01800180
KEYE,2022-10-31T19:33:00Z,KEYE 311933Z AUTO 22004KT 10SM -RA SCT015 BKN047 OVC070 16/14 A2983 RMK AO2 RAE03B19 P0001 T01560139
KEYF,2022-10-31T19:35:00Z,KEYF 311935Z AUTO 17006KT 10SM -RA SCT036 BKN043 BKN050 25/19 A2999 RMK AO2 T02510191
KEYW,2022-10-31T18:53:00Z,KEYW 311853Z 11008KT 10SM CLR 28/25 A2992 RMK AO2 SLP130 T02830250
KEZF,2022-10-31T19:35:00Z,KEZF 311935Z AUTO 21004KT 10SM SCT030 SCT120 20/13 A3000 RMK AO2 T02010134
KEZM,2022-10-31T19:35:00Z,KEZM 311935Z AUTO 23006KT 10SM SCT032 SCT044 BKN055 26/19 A2997 RMK AO2
KEZP,2022-10-31T19:35:00Z,KEZP 311935Z AUTO 08008KT 10SM SCT034 23/15 A3001 RMK A01
KEZS,2022-10-31T19:35:00Z,KEZS 311935Z AUTO 27007KT 10SM CLR 20/06 A2979 RMK AO2 T01970057
KEZZ,2022-10-31T19:35:00Z,KEZZ 311935Z AUTO 31005KT 10SM CLR 19/02 A2993 RMK AO2 T01930020
KF00,2022-10-31T19:35:00Z,KF00 311935Z AUTO 32003KT 10SM CLR 23/05 A3001 RMK AO2 T02340049
KF05,2022-10-31T19:35:00Z,KF05 311935Z AUTO 23004KT 10SM CLR 24/08 A3001 RMK AO2 T02400083
KF17,2022-10-31T19:35:00Z,KF17 311935Z AUTO 00000KT 10SM CLR 24/09 A3001 RMK AO2
KF44,2022-10-31T19:35:00Z,KF44 311935Z AUTO 27004KT 10SM CLR 24/10 A2999 RMK AO2
KF46,2022-10-31T19:35:00Z,KF46 311935Z AUTO 30005KT 10SM CLR 24/06 A3002 RMK AO2 T02370060
KF70,2022-10-31T19:35:00Z,KF70 311935Z AUTO 21004KT 10SM CLR 27/M05 A2991 RMK AO2
KFAF,2022-10-31T18:55:00Z,KFAF 311855Z 14005KT 9SM BKN090 21/14 A3000 RMK AO2A SLP162 T02110135 $
KFAM,2022-10-31T18:56:00Z,KFAM 311856Z AUTO 29008KT 10SM OVC019 16/11 A2992 RMK AO2 SLP138 T01560111
KFAR,2022-10-31T18:53:00Z,KFAR 311853Z 22012KT 10SM CLR 17/M02 A2973 RMK AO2 SLP071 T01721017
KFAT,2022-10-31T18:53:00Z,KFAT 311853Z 24004KT 10SM FEW080 OVC180 20/04 A2996 RMK AO2 SLP142 T02000044
KFAY,2022-10-31T18:53:00Z,KFAY 311853Z 17006KT 10SM SCT030 SCT038 SCT047 25/18 A3000 RMK AO2 SLP152 T02500183
KFBG,2022-10-31T18:55:00Z,KFBG 311855Z AUTO 15006KT 10SM SCT040 24/17 A2998 RMK AO2 RAB18E28DZB28E30 SLP154 P0000 T02390171
KFBL,2022-10-31T19:35:00Z,KFBL 311935Z AUTO 24006KT 10SM CLR 17/01 A2983 RMK AO2
KFCI,2022-10-31T18:56:00Z,KFCI 311856Z AUTO 16007KT 10SM BKN095 21/14 A3002 RMK AO2 SLP175 T02110139
KFCM,2022-10-31T18:53:00Z,KFCM 311853Z 23009KT 10SM CLR 17/M01 A2982 RMK AO2 SLP101 T01721006
KFCS,2022-10-31T18:55:00Z,KFCS 311855Z AUTO 00000KT 10SM CLR 17/M12 A2998 RMK AO2 SLP142 T01691117 $
KFDK,2022-10-31T18:47:00Z,KFDK 311847Z 00000KT 7SM BKN015 OVC025 15/14 A3000
KFDR,2022-10-31T18:53:00Z,KFDR 311853Z AUTO 19004KT 10SM CLR 23/11 A2999 RMK AO2 SLP144 T02280106 $
KFDW,2022-10-31T19:35:00Z,KFDW 311935Z AUTO 21005KT 10SM SCT022 BKN031 OVC055 23/18 A2998 RMK AO1
KFDY,2022-10-31T18:53:00Z,KFDY 311853Z AUTO 21009KT 10SM FEW028 SCT037 OVC060 18/13 A2982 RMK AO2 SLP093 T01830128
KFEP,2022-10-31T19:35:00Z,KFEP 311935Z AUTO 30004KT 10SM CLR 18/08 A2984 RMK AO2 T01820080
KFET,2022-10-31T19:35:00Z,KFET 311935Z AUTO 20007KT 10SM CLR 21/00 A2989 RMK AO2 T02140000
KFEW,2022-10-31T18:54:00Z,KFEW 311854Z 23006G12KT 10SM SCT150 16/M08 A3008 RMK SLPNO WND DATA ESTMD ALSTG ESTMD
KFFA,2022-10-31T19:35:00Z,KFFA 311935Z AUTO 11003KT 10SM BKN065 19/12 A3004 RMK AO2 T01920124
KFFC,2022-10-31T18:53:00Z,KFFC 311853Z AUTO 28005KT 10SM CLR 24/13 A2997 RMK AO2 SLP146 T02390128
KFFL,2022-10-31T19:35:00Z,KFFL 311935Z AUTO 30009KT 270V330 10SM CLR 19/03 A2987 RMK A01
KFFM,2022-10-31T19:35:00Z,KFFM 311935Z AUTO 20008KT 10SM CLR 19/01 A2974 RMK AO2
KFFO,2022-10-31T19:14:00Z,KFFO 311914Z 21010KT 10SM BKN024 BKN032 OVC070 18/14 A2982 RMK AO2A SLP099
KFFT,2022-10-31T18:53:00Z,KFFT 311853Z AUTO 19008KT 10SM FEW026 SCT037 OVC070 18/14 A2989 RMK AO2 SLP117 T01780139
KFFX,2022-10-31T19:35:00Z,KFFX 311935Z AUTO 00000KT 10SM SCT050 19/10 A2979 RMK AO2 T01880097
KFFZ,2022-10-31T18:54:00Z,KFFZ 311854Z 10SM CLR 24/M01 A2995 RMK AO2 SLP123 T02391006
KFGN,2022-10-31T19:35:00Z,KFGN 311935Z AUTO 23010KT 10SM CLR 13/02 A2962 RMK AO2
KFGX,2022-10-31T19:35:00Z,KFGX 311935Z AUTO 27010G17KT 250V320 10SM OVC060 18/12 A2991 RMK AO2 T01840116
KFHB,2022-10-31T19:35:00Z,KFHB 311935Z AUTO 14011KT 10SM CLR 27/22 A2997 RMK AO2
KFHR,2022-10-31T18:53:00Z,KFHR 311853Z AUTO VRB04KT 10SM SCT065 11/07 A2982 RMK AO2 SLP099 T01060067 $
KFHU,2022-10-31T19:21:00Z,KFHU 311921Z AUTO 11005KT 10SM CLR 21/M07 A3005 RMK AO2 SLP135 $
KFIG,2022-10-31T19:16:00Z,KFIG 311916Z AUTO 00000KT 3SM -RA BR FEW004 OVC010 11/10 A2995 RMK AO2 RAB10 P0000 T01110100
KFIN,2022-10-31T18:50:00Z,KFIN 311850Z 11005KT 10SM SCT042 SCT048 BKN050 27/21 A2997
KFIT,2022-10-31T18:52:00Z,KFIT 311852Z AUTO VRB04KT 10SM SCT120 20/07 A2997 RMK AO2 SLP152 T02000072
KFKA,2022-10-31T19:35:00Z,KFKA 311935Z AUTO 29003KT 10SM CLR 17/03 A2985 RMK AO2 T01700033
KFKL,2022-10-31T19:03:00Z,KFKL 311903Z AUTO 19007KT 1/2SM -RA FG OVC003 13/13 A2991 RMK AO2 P0000
KFKN,2022-10-31T19:35:00Z,KFKN 311935Z AUTO 16005KT 10SM CLR 23/13 A3003 RMK AO2 T02260126
KFKR,2022-10-31T19:35:00Z,KFKR 311935Z AUTO 26013KT 10SM SCT013 BKN018 OVC025 16/14 A2981 RMK AO2
KFKS,2022-10-31T19:35:00Z,KFKS 311935Z AUTO 00000KT 10SM CLR 15/08 A2980 RMK AO2 T01530076
KFLD,2022-10-31T18:53:00Z,KFLD 311853Z AUTO VRB04KT 10SM CLR 18/04 A2981 RMK AO2 SLP094 T01830044
KFLG,2022-10-31T18:57:00Z,KFLG 311857Z 10SM CLR 14/M07 A3016 RMK AO2 SLP169 T01441067
KFLL,2022-10-31T18:53:00Z,KFLL 311853Z 13011KT 10SM FEW022 30/23 A2992 RMK AO2 SLP131 T03000233 $
KFLO,2022-10-31T18:53:00Z,KFLO 311853Z VRB06KT 10SM FEW022 BKN070 BKN085 26/19 A2999 RMK AO2 SLP153 T02560194
KFLP,2022-10-31T18:56:00Z,KFLP 311856Z AUTO 23005KT 10SM CLR 21/10 A2996 RMK AO2 SLP141 T02110100
KFLY,2022-10-31T19:35:00Z,KFLY 311935Z AUTO 14004G14KT CLR 16/M08 A3004 RMK AO2 T01621084 PWINO
KFME,2022-10-31T19:39:00Z,KFME 311939Z AUTO 20005KT 10SM OVC024 18/12 A3002 RMK AO1
KFMM,2022-10-31T19:35:00Z,KFMM 311935Z AUTO 16006KT 10SM CLR 18/M08 A2994 RMK AO2
KFMN,2022-10-31T18:53:00Z,KFMN 311853Z 30003KT 10SM CLR 12/M04 A3012 RMK AO2 SLP190 T01221044
KFMY,2022-10-31T18:53:00Z,KFMY 311853Z 10SM CLR 33/22 A2991 RMK AO2 SLP131 T03280222
KFNB,2022-10-31T18:53:00Z,KFNB 311853Z AUTO 30004KT 10SM CLR 19/02 A2993 RMK AO2 SLP133 T01940022
KFNL,2022-10-31T18:56:00Z,KFNL 311856Z 16006KT 10SM CLR 17/M07 A2997 RMK AO2 SLP121 T01721067
KFNT,2022-10-31T18:53:00Z,KFNT 311853Z 29004KT 9SM BKN005 OVC009 14/13 A2981 RMK AO2 RAB00E17 CIG 004V008 SLP097 P0001 T01390133
KFOA,2022-10-31T19:35:00Z,KFOA 311935Z AUTO 25009KT 10SM OVC019 15/13 A2988 RMK AO2
KFOE,2022-10-31T18:53:00Z,KFOE 311853Z VRB04KT 10SM CLR 19/01 A2995 RMK AO2 SLP138 T01940011 PNO $
KFOK,2022-10-31T18:53:00Z,KFOK 311853Z 21006KT 10SM BKN035 18/12 A3003 RMK AO2 SLP169 T01830117
KFOT,2022-10-31T19:35:00Z,KFOT 311935Z AUTO 34005KT 10SM OVC023 14/10 A2998 RMK AO1
KFOZ,2022-10-31T19:33:00Z,KFOZ 311933Z AUTO 22010KT 10SM CLR 17/M01 A2976 RMK AO2
KFPK,2022-10-31T19:35:00Z,KFPK 311935Z AUTO 00000KT 5SM BR OVC007 14/13 A2979 RMK AO2 T01400128
KFPR,2022-10-31T18:53:00Z,KFPR 311853Z 10007KT 10SM SCT020 29/23 A2994 RMK AO2 SLP138 T02890233
KFPY,2022-10-31T19:35:00Z,KFPY 311935Z AUTO 23008KT 10SM SCT029 29/20 A2997 RMK AO2 T02910204 TSNO
KFQD,2022-10-31T19:35:00Z,KFQD 311935Z AUTO 00000KT 10SM OVC008 15/14 A3002 RMK AO2
KFRG,2022-10-31T18:53:00Z,KFRG 311853Z 22007KT 10SM CLR 17/10 A3002 RMK AO2 SLP164 T01720100 $
KFRH,2022-10-31T19:35:00Z,KFRH 311935Z AUTO 24004KT 10SM SCT010 BKN018 OVC047 A2988 RMK AO1
KFRI,2022-10-31T18:55:00Z,KFRI 311855Z AUTO 00000KT 10SM CLR 20/01 A2995 RMK AO2 SLP138 T01990008 FZRANO $
KFRM,2022-10-31T18:56:00Z,KFRM 311856Z AUTO 25007KT 10SM CLR 18/M02 A2985 RMK AO2 SLP115 T01831017
KFRR,2022-10-31T19:35:00Z,KFRR 311935Z AUTO 00000KT 7SM BKN043 BKN060 OVC090 14/13 A2998 RMK AO1 P0003
KFSD,2022-10-31T18:56:00Z,KFSD 311856Z 17007KT 10SM BKN250 19/01 A2982 RMK AO2 SLP104 T01890011
KFSE,2022-10-31T19:35:00Z,KFSE 311935Z AUTO 22013KT 10SM CLR 15/M02 A2972 RMK AO2
KFSI,2022-10-31T18:55:00Z,KFSI 311855Z AUTO 25005KT 10SM CLR 23/09 A2998 RMK AO2 SLP149 T02320092
KFSK,2022-10-31T19:35:00Z,KFSK 311935Z AUTO 29007KT 10SM CLR 23/06 A2994 RMK AO2 T02280058
KFSM,2022-10-31T18:53:00Z,KFSM 311853Z 26007KT 10SM CLR 23/06 A2998 RMK AO2 SLP150 T02280056
KFSO,2022-10-31T19:35:00Z,KFSO 311935Z AUTO 22003KT 10SM CLR 16/05 A2992 RMK AO2 T01580047
KFST,2022-10-31T18:53:00Z,KFST 311853Z AUTO 14013G21KT 10SM FEW120 21/08 A3002 RMK AO2 SLP130 T02060078
KFSW,2022-10-31T19:35:00Z,KFSW 311935Z AUTO 30005KT 10SM OVC001 18/07 A2986 RMK AO2
KFTK,2022-10-31T19:27:00Z,KFTK 311927Z AUTO 21009KT 10SM SCT022 BKN028 BKN048 OVC070 18/13 A2988 RMK AO2 CIG 028V070 SLP118 $
KFTN,2022-10-31T19:35:00Z,KFTN 311935Z AUTO 12005KT 10SM OVC050 23/13 A2998 RMK A01
KFTW,2022-10-31T18:53:00Z,KFTW 311853Z 17005KT 10SM CLR 24/08 A3002 RMK AO2 SLP161 T02390083 $
KFTY,2022-10-31T18:53:00Z,KFTY 311853Z 24007KT 10SM CLR 23/13 A2996 RMK AO2 SLP140 T02280128
KFUL,2022-10-31T18:53:00Z,KFUL 311853Z 19005KT 10SM CLR 24/11 A2990 RMK AO2 SLP123 T02390106
KFVE,2022-10-31T18:53:00Z,KFVE 311853Z AUTO 15007KT 10SM CLR 16/01 A2991 RMK AO2 SLP130 T01560006
KFVX,2022-10-31T19:35:00Z,KFVX 311935Z AUTO 00000KT 10SM RA SCT031 BKN100 OVC120 19/15 A3000 RMK AO2 T01910147
KFWA,2022-10-31T18:54:00Z,KFWA 311854Z 21011KT 10SM FEW018 BKN060 OVC080 17/14 A2982 RMK AO2 SLP096 T01720139
KFWB,2022-10-31T19:35:00Z,KFWB 311935Z AUTO 32008G15KT 10SM CLR 21/06 A2996 RMK AO2
KFWC,2022-10-31T19:35:00Z,KFWC 311935Z AUTO 22008KT BKN018 OVC024 16/13 A2987 RMK AO1 T01570125 PWINO
KFWN,2022-10-31T18:53:00Z,KFWN 311853Z AUTO VRB04KT 10SM FEW110 17/10 A2999 RMK AO2 SLP157 T01720100
KFWS,2022-10-31T18:47:00Z,KFWS 311847Z 11003KT 10SM CLR 25/07 A3005
KFWZ,2022-10-31T19:35:00Z,KFWZ 311935Z AUTO 24012KT 10SM CLR 08/M04 A3006 RMK AO2
KFXE,2022-10-31T18:53:00Z,KFXE 311853Z 10009KT 10SM SCT027 29/24 A2992 RMK AO2 SLP135 T02890239 $
KFXY,2022-10-31T19:35:00Z,KFXY 311935Z AUTO 28006KT 10SM CLR 17/00 A2985 RMK AO2
KFYE,2022-10-31T19:30:00Z,KFYE 311930Z AUTO 24009G15KT 220V280 10SM FEW038 OVC047 19/12 A2994 RMK A01
KFYG,2022-10-31T19:35:00Z,KFYG 311935Z AUTO 00000KT 6SM BR OVC027 15/15 A2991 RMK AO2
KFYJ,2022-10-31T19:35:00Z,KFYJ 311935Z AUTO 00000KT 1 3/4SM VV007 21/14 A3003 RMK AO1 VIS 1V4 T02080135
KFYM,2022-10-31T19:40:00Z,KFYM 311940Z AUTO VRB05G12KT 10SM FEW021 FEW026 OVC055 18/14 A2998 RMK A01
KFYV,2022-10-31T18:53:00Z,KFYV 311853Z 27007KT 230V290 10SM CLR 22/07 A2999 RMK AO2 SLP146 T02170072
KFZG,2022-10-31T19:35:00Z,KFZG 311935Z AUTO 27007KT 230V300 10SM SCT028 SCT035 BKN043 28/20 A2997 RMK AO2 T02790198
KFZY,2022-10-31T18:54:00Z,KFZY 311854Z AUTO VRB03KT 10SM FEW039 SCT049 BKN085 16/08 A2990 RMK AO2 SLP125 T01610078
KGAD,2022-10-31T18:56:00Z,KGAD 311856Z AUTO 22006KT 10SM FEW027 OVC055 19/14 A3000 RMK AO2 SLP160 P0003 T01940139 $
KGAG,2022-10-31T18:53:00Z,KGAG 311853Z AUTO 23011KT 10SM CLR 24/01 A2999 RMK AO2 SLP145 T02440006
KGAI,2022-10-31T18:56:00Z,KGAI 311856Z AUTO 15005KT 10SM BKN020 BKN060 OVC100 18/14 A3000 RMK AO2 SLP172 T01780139
KGAO,2022-10-31T19:35:00Z,KGAO 311935Z AUTO 00000KT 10SM SCT048 25/13 A3001 RMK AO2 T02450132
KGBD,2022-10-31T18:56:00Z,KGBD 311856Z AUTO 19004KT 10SM CLR 22/M03 A2997 RMK AO2 SLP145 T02221033
KGBG,2022-10-31T19:35:00Z,KGBG 311935Z AUTO 32004KT 10SM CLR 16/11 A2987 RMK AO2 T01560106
KGBK,2022-10-31T19:35:00Z,KGBK 311935Z AUTO VRB04KT 9SM SCT036 27/16 A2999 RMK A01
KGCC,2022-10-31T18:53:00Z,KGCC 311853Z AUTO 19009KT 10SM CLR 17/M05 A2985 RMK AO2 SLP107 T01671050 $
KGCD,2022-10-31T19:35:00Z,KGCD 311935Z AUTO 20012G17KT 10SM OVC110 14/01 A2991 RMK AO2 T01420006
KGCK,2022-10-31T18:54:00Z,KGCK 311854Z 21017G23KT 10SM CLR 22/02 A2995 RMK AO2 SLP132 T02220022
KGCM,2022-10-31T19:35:00Z,KGCM 311935Z AUTO 25006KT 10SM CLR 22/02 A2998 RMK AO2
KGCN,2022-10-31T18:54:00Z,KGCN 311854Z VRB05KT 10SM CLR 14/M08 A3016 RMK AO2 SLP180 T01441078
KGCY,2022-10-31T19:35:00Z,KGCY 311935Z AUTO 35006KT 10SM SCT022 BKN028 BKN036 19/14 A2994 RMK A01
KGDB,2022-10-31T19:35:00Z,KGDB 311935Z AUTO 18007KT 10SM CLR 21/00 A2981 RMK AO2 T02050001
KGDJ,2022-10-31T19:35:00Z,KGDJ 311935Z AUTO 03004KT 10SM CLR 23/06 A3003 RMK AO2 T02310056
KGDP,2022-10-31T18:51:00Z,KGDP 311851Z AUTO 06015KT 8SM CLR 16/03 A3010 RMK AO2 SLP143 T01610028
KGDV,2022-10-31T18:56:00Z,KGDV 311856Z AUTO 21012KT 10SM CLR 16/00 A2973 RMK AO2 SLP072 T01610000
KGED,2022-10-31T18:54:00Z,KGED 311854Z AUTO 21007KT 10SM CLR 22/14 A3001 RMK AO2 SLP160 T02170139
KGEG,2022-10-31T18:53:00Z,KGEG 311853Z 21015KT 10SM -RA FEW025 BKN050 OVC080 11/07 A2977 RMK AO2 SLP080 P0001 T01060072
KGEU,2022-10-31T18:58:00Z,KGEU 311858Z VRB04KT 10SM SKC 23/01 A2994
KGEV,2022-10-31T19:35:00Z,KGEV 311935Z AUTO 15003KT 7SM SCT003 OVC010 13/13 A3002 RMK AO2 P0001 T01270126
KGEY,2022-10-31T18:53:00Z,KGEY 311853Z AUTO 16005KT 10SM CLR 12/M04 A2991 RMK AO2 SLP130 T01221039
KGEZ,2022-10-31T19:39:00Z,KGEZ 311939Z AUTO 21010KT 10SM SCT007 BKN011 OVC028 17/15 A2984 RMK AO2 RAB1857E27 P0001 T01720150
KGFA,2022-10-31T18:55:00Z,KGFA 311855Z AUTO 24021G32KT 10SM CLR 16/02 A2969 RMK AO2 PK WND 23032/42 SLP056 T01590023 $
KGFK,2022-10-31T18:53:00Z,KGFK 311853Z 24012KT 10SM SCT210 BKN250 17/02 A2967 RMK AO2 SLP051 T01720017
KGFL,2022-10-31T18:53:00Z,KGFL 311853Z AUTO 19005KT 10SM CLR 16/06 A2994 RMK AO2 SLP144 T01560056
KGGE,2022-10-31T19:35:00Z,KGGE 311935Z AUTO 12007KT 10SM BKN033 BKN048 OVC095 25/20 A3000 RMK AO2
KGGF,2022-10-31T19:35:00Z,KGGF 311935Z AUTO 28020G25KT 10SM 20/M08 A2990 RMK AO2
KGGG,2022-10-31T18:53:00Z,KGGG 311853Z VRB05KT 10SM CLR 24/08 A3001 RMK AO2 SLP158 T02440083
KGGI,2022-10-31T19:35:00Z,KGGI 311935Z AUTO 29009KT 10SM CLR 19/03 A2988 RMK AO2 T01920027
KGGP,2022-10-31T19:35:00Z,KGGP 311935Z AUTO 24008KT 5SM RA OVC006 14/13 A2982 RMK AO2 P0005
KGGW,2022-10-31T18:53:00Z,KGGW 311853Z AUTO 22006KT 10SM CLR 17/02 A2968 RMK AO2 SLP053 T01670022
KGHB,2022-10-31T19:35:00Z,KGHB 311935Z AUTO 05006KT 10SM SCT034 SCT039 23/16 A3001 RMK A01
KGHG,2022-10-31T19:35:00Z,KGHG 311935Z AUTO 20008G14KT 10SM 17/14 A3000 RMK AO2
KGHW,2022-10-31T19:35:00Z,KGHW 311935Z AUTO 21012KT 10SM CLR 18/M02 A2979 RMK AO2
KGIC,2022-10-31T19:35:00Z,KGIC 311935Z AUTO 21011G24KT 10SM OVC075 15/01 A2984 RMK AO1
KGIF,2022-10-31T18:53:00Z,KGIF 311853Z AUTO 29004KT 10SM CLR A2997 RMK AO2 SLPNO $
KGJT,2022-10-31T18:53:00Z,KGJT 311853Z VRB03KT 10SM CLR 12/M01 A3013 RMK AO2 SLP185 T01171006
KGKJ,2022-10-31T19:29:00Z,KGKJ 311929Z AUTO 19004KT 7SM OVC006 14/13 A2989 RMK AO2 CIG 004V010 T01440133
KGKT,2022-10-31T19:35:00Z,KGKT 311935Z AUTO 30005KT 10SM BKN019 BKN024 OVC055 20/16 A2995 RMK A01
KGKY,2022-10-31T18:53:00Z,KGKY 311853Z 32005KT 10SM CLR 26/08 A3002 RMK AO2 SLP161 T02560078
KGLD,2022-10-31T18:53:00Z,KGLD 311853Z AUTO A2995 RMK AO2 SLPNO PWINO FZRANO $
KGLE,2022-10-31T19:35:00Z,KGLE 311935Z AUTO 00000KT 10SM CLR 22/08 A3003 RMK AO2 T02200082 PWINO
KGLH,2022-10-31T18:53:00Z,KGLH 311853Z 29006KT 10SM SCT038 23/13 A2998 RMK AO2 SLP158 T02330133
KGLR,2022-10-31T18:53:00Z,KGLR 311853Z AUTO 00000KT 10SM CLR 17/04 A2980 RMK AO2 SLP092 T01720039
KGLS,2022-10-31T18:52:00Z,KGLS 311852Z 11007KT 10SM CLR 23/13 A3003 RMK AO2 SLP167 T02330133
KGLW,2022-10-31T19:35:00Z,KGLW 311935Z AUTO 22006KT 10SM BKN021 OVC028 17/14 A2993 RMK AO2 T01720138
KGLX,2022-10-31T19:35:00Z,KGLX 311935Z AUTO 35006KT 10SM CLR 26/15 A3001 RMK A01
KGLY,2022-10-31T19:35:00Z,KGLY 311935Z AUTO 22006KT 10SM CLR 19/09 A2993 RMK AO2
KGMJ,2022-10-31T19:35:00Z,KGMJ 311935Z AUTO 22009KT 10SM CLR 15/M02 A2995 RMK AO2
KGMU,2022-10-31T18:53:00Z,KGMU 311853Z VRB04KT 10SM OVC005 16/14 A3001 RMK AO2 SLP159 T01610139
KGNA,2022-10-31T18:56:00Z,KGNA 311856Z AUTO 25010KT 09/04 A2975 RMK AO1 SLP080 T00940044
KGNB,2022-10-31T19:35:00Z,KGNB 311935Z AUTO 25004KT 10SM CLR 07/M08 A3016 RMK AO2 T00721083
KGNC,2022-10-31T19:35:00Z,KGNC 311935Z AUTO 15009KT 10SM CLR 20/04 A3008 RMK AO2 T02000041
KGNG,2022-10-31T19:35:00Z,KGNG 311935Z AUTO 00000KT 10SM CLR 16/M03 A3003 RMK AO2
KGNR,2022-10-31T18:56:00Z,KGNR 311856Z AUTO 11004KT 16/M03 A2991 RMK AO1 SLP132 T01611033
KGNT,2022-10-31T19:35:00Z,KGNT 311935Z AUTO 00000KT 10SM CLR 15/M08 A3014 RMK AO2 T01481082
KGNV,2022-10-31T18:53:00Z,KGNV 311853Z 13005KT 10SM SCT060 29/19 A2999 RMK AO2 SLP151 T02940189
KGOK,2022-10-31T18:53:00Z,KGOK 311853Z AUTO 26007KT 10SM CLR 21/02 A3000 RMK AO2 SLP159 T02060017
KGON,2022-10-31T18:56:00Z,KGON 311856Z 21006KT 10SM FEW029 BKN036 18/12 A3001 RMK AO2 SLP163 T01780122
KGOO,2022-10-31T19:35:00Z,KGOO 311935Z AUTO 00000KT 10SM CLR 19/01 A2998 RMK A01
KGOP,2022-10-31T19:35:00Z,KGOP 311935Z AUTO 10SM CLR 25/09 A3001 RMK AO2
KGOV,2022-10-31T18:58:00Z,KGOV 311858Z AUTO 21003KT 10SM SCT130 18/05 A2979 RMK AO2 SLP097 T01760052 $
KGPC,2022-10-31T19:35:00Z,KGPC 311935Z AUTO 24009KT 10SM BKN016 OVC022 16/13 A2984 RMK AO2 T01560130
KGPI,2022-10-31T18:55:00Z,KGPI 311855Z 21011G17KT 10SM OVC043 12/04 A2972 RMK AO2 SLP063 T01220044
KGPM,2022-10-31T18:50:00Z,KGPM 311850Z 00000KT 10SM SKC 24/07 A3004
KGPT,2022-10-31T18:53:00Z,KGPT 311853Z 17007KT 10SM BKN041 OVC050 23/15 A3000 RMK AO2 SLP159 T02280150
KGPZ,2022-10-31T18:56:00Z,KGPZ 311856Z AUTO 21008KT 10SM CLR 17/M01 A2976 RMK AO2 SLP087 T01671006
KGRB,2022-10-31T18:53:00Z,KGRB 311853Z VRB04KT 10SM CLR 19/06 A2979 RMK AO2 SLP090 T01890056
KGRD,2022-10-31T18:56:00Z,KGRD 311856Z AUTO 02004KT 1 1/4SM -RA BR OVC002 17/16 A3001 RMK AO2 RAB51 SLP158 P0001 T01670161
KGRF,2022-10-31T18:55:00Z,KGRF 311855Z 18009KT 10SM FEW070 SCT160 SCT190 11/08 A2985 RMK AO2A SLP112 T01100082 $
KGRI,2022-10-31T18:53:00Z,KGRI 311853Z 21012G21KT 180V260 10SM CLR 22/M03 A2989 RMK AO2 SLP127 T02221028
KGRK,2022-10-31T18:55:00Z,KGRK 311855Z AUTO 00000KT 10SM CLR 23/09 A2999 RMK AO2 SLP148 T02340094
KGRN,2022-10-31T19:35:00Z,KGRN 311935Z AUTO 29011KT 10SM CLR 17/M07 A2985 RMK AO2 T01741075
KGRR,2022-10-31T18:53:00Z,KGRR 311853Z 00000KT 4SM BR OVC005 14/12 A2981 RMK AO2 SLP097 T01390122 $
KGRY,2022-10-31T19:35:00Z,KGRY 311935Z AUTO 02008G13KT 10SM BKN032 22/16 A3001 RMK A01
KGSB,2022-10-31T18:55:00Z,KGSB 311855Z 15003KT 10SM FEW040 BKN065 BKN120 25/09 A2999 RMK AO2A SLP159 T02500085 $
KGSH,2022-10-31T18:53:00Z,KGSH 311853Z AUTO 22007KT 10SM 17/14 A2979 RMK AO2 RAE04 SLP087 P0000 T01720144 $
KGSO,2022-10-31T18:54:00Z,KGSO 311854Z 06004KT 7SM FEW012 BKN019 OVC024 16/15 A3000 RMK AO2 RAE45 SLP156 P0001 T01610150
KGSP,2022-10-31T18:53:00Z,KGSP 311853Z 03004KT 10SM OVC004 16/14 A3001 RMK AO2 SLP157 T01560139
KGTB,2022-10-31T19:25:00Z,KGTB 311925Z AUTO 00000KT 10SM -DZ OVC085 15/06 A2988 RMK AO2 DZB25 SLPNO
KGTF,2022-10-31T18:53:00Z,KGTF 311853Z 23022G32KT 10SM FEW055 16/03 A2970 RMK AO2 PK WND 23034/1821 SLP048 T01610033
KGTR,2022-10-31T18:56:00Z,KGTR 311856Z 25007KT 10SM BKN035 OVC060 21/14 A2999 RMK AO2 SLP162 T02060139
KGTU,2022-10-31T18:56:00Z,KGTU 311856Z 16005KT 10SM CLR 24/10 A3003 RMK AO2 SLP167 T02440100
KGUC,2022-10-31T18:56:00Z,KGUC 311856Z AUTO 25006KT 10SM CLR 07/M07 A3018 RMK AO2 SLP220 T00671067
KGUL,2022-10-31T19:35:00Z,KGUL 311935Z AUTO 09005KT 10SM FEW035 24/16 A2998 RMK A01
KGUP,2022-10-31T18:53:00Z,KGUP 311853Z AUTO VRB04KT 10SM CLR 14/M06 A3015 RMK AO2 SLP173 T01391056
KGUR,2022-10-31T18:55:00Z,KGUR 311855Z AUTO 27005KT 10SM CLR 18/M05 A2990 RMK AO2 SLP122 T01751051
KGUS,2022-10-31T19:36:00Z,KGUS 311936Z AUTO 24011KT 10SM FEW002 OVC006 15/14 A2979 RMK AO2 RAB1855E31DZB31E36 SLP090 PNO $
KGUY,2022-10-31T18:53:00Z,KGUY 311853Z AUTO 19014G24KT 10SM CLR 22/03 A2997 RMK AO2 SLP125 T02220028
KGVL,2022-10-31T19:37:00Z,KGVL 311937Z AUTO 00000KT 7SM BKN007 OVC014 18/16 A3000 RMK AO2 T01780156
KGVQ,2022-10-31T18:56:00Z,KGVQ 311856Z AUTO 10006KT 10SM OVC032 14/09 A2987 RMK AO2 SLP115 T01440094
KGVT,2022-10-31T19:35:00Z,KGVT 311935Z AUTO 29003KT 10SM CLR 24/07 A3001 RMK AO2 TSNO T02370067
KGVW,2022-10-31T19:30:00Z,KGVW 311930Z AUTO 07006KT 10SM CLR 22/15 A3002 RMK A01
KGWB,2022-10-31T19:35:00Z,KGWB 311935Z AUTO 00000KT 10SM SCT044 SCT065 BKN080 16/15 A2981 RMK AO2
KGWO,2022-10-31T18:53:00Z,KGWO 311853Z AUTO VRB06KT 10SM FEW032 SCT039 BKN050 22/13 A2999 RMK AO2 SLP153 T02170128
KGWR,2022-10-31T19:35:00Z,KGWR 311935Z AUTO 24012KT 10SM CLR 19/M02 A2974 RMK A01
KGWW,2022-10-31T19:35:00Z,KGWW 311935Z AUTO 00000KT 10SM SCT070 SCT080 25/16 A3001 RMK AO2 T02520161
KGXF,2022-10-31T18:55:00Z,KGXF 311855Z COR 04006KT 10SM CLR 24/M00 A2993 RMK AO2A SLP128 T02391004 FZRANO $ COR 1916
KGXY,2022-10-31T18:56:00Z,KGXY 311856Z 09005KT 10SM CLR 17/M04 A2997 RMK AO2 SLP150 T01721039 $
KGYB,2022-10-31T19:35:00Z,KGYB 311935Z AUTO 00000KT 10SM CLR 24/10 A3001 RMK AO2 T02400104
KGYF,2022-10-31T19:35:00Z,KGYF 311935Z AUTO 09017KT 10SM SCT033 25/17 A2994 RMK AO2 T02450171
KGYH,2022-10-31T18:47:00Z,KGYH 311847Z 07003KT 7SM OVC005 16/14 A3001
KGYI,2022-10-31T18:50:00Z,KGYI 311850Z 34003KT 10SM SKC 23/07 A3004
KGYL,2022-10-31T19:35:00Z,KGYL 311935Z AUTO 20007KT 10SM CLR 18/M02 A2982 RMK AO2 T01801021
KGYR,2022-10-31T18:47:00Z,KGYR 311847Z 09004KT 10SM SKC 21/02 A2996
KGZH,2022-10-31T18:53:00Z,KGZH 311853Z AUTO VRB04KT 10SM BKN048 23/12 A3001 RMK AO2 SLP159 T02330117
KGZL,2022-10-31T19:35:00Z,KGZL 311935Z AUTO 25005KT 10SM CLR 23/03 A2997 RMK AO2
KGZN,2022-10-31T19:20:00Z,KGZN 311920Z AUTO 00000KT 10SM FEW065 24/07 A3000 RMK AO2 LTG DSNT N AND S
KGZS,2022-10-31T19:35:00Z,KGZS 311935Z AUTO 21007KT 10SM FEW035 OVC055 19/14 A2996 RMK A01
KH71,2022-10-31T19:30:00Z,KH71 311930Z AUTO 25008KT 10SM CLR 23/06 A2996 RMK AO2
KHAE,2022-10-31T19:35:00Z,KHAE 311935Z AUTO 31005KT 10SM CLR 17/08 A2989 RMK AO2
KHAF,2022-10-31T19:35:00Z,KHAF 311935Z AUTO 17006KT 6SM BR CLR 13/12 A2996 RMK AO2
KHAI,2022-10-31T19:35:00Z,KHAI 311935Z AUTO 00000KT 4SM -DZ BKN006 BKN010 OVC027 15/14 A2981 RMK AO2 T01520144
KHAO,2022-10-31T18:53:00Z,KHAO 311853Z AUTO VRB04KT 10SM SCT030 OVC048 19/13 A2987 RMK AO2 SLP111 T01940128
KHBG,2022-10-31T18:53:00Z,KHBG 311853Z AUTO 31004KT 10SM SCT050 23/11 A3001 RMK AO2 SLP161 T02330111
KHBI,2022-10-31T19:35:00Z,KHBI 311935Z AUTO 17005KT 10SM OVC017 21/18 A3002 RMK AO2 T02100179
KHBR,2022-10-31T18:53:00Z,KHBR 311853Z AUTO 24013KT 10SM CLR 22/09 A3002 RMK AO2 SLP157 T02170089
KHBV,2022-10-31T19:30:00Z,KHBV 311930Z AUTO 10007G15KT 4SM HZ SCT033 BKN048 OVC055 21/17 A2998 RMK AO2 T02060167
KHCD,2022-10-31T19:35:00Z,KHCD 311935Z AUTO 19003KT 10SM CLR 19/M03 A2982 RMK AO2 T01861029
KHCO,2022-10-31T19:35:00Z,KHCO 311935Z AUTO 20010KT 10SM CLR 14/04 A2964 RMK AO2
KHCR,2022-10-31T19:35:00Z,KHCR 311935Z AUTO 00000KT 10SM CLR 11/M04 A3010 RMK AO2
KHDC,2022-10-31T19:39:00Z,KHDC 311939Z AUTO 03003KT 10SM BKN050 25/12 A3000 RMK AO2
KHDE,2022-10-31T19:35:00Z,KHDE 311935Z AUTO 22010KT 10SM CLR 20/M02 A2989 RMK AO2 T01981016
KHDL,2022-10-31T19:35:00Z,KHDL 311935Z AUTO 23005KT 10SM CLR 24/15 A2997 RMK AO2
KHDN,2022-10-31T18:56:00Z,KHDN 311856Z AUTO VRB04KT 10SM CLR 09/M06 A3015 RMK AO2 SLP200 T00891056
KHDO,2022-10-31T18:51:00Z,KHDO 311851Z AUTO 12004KT 10SM CLR 26/12 A3000 RMK AO2 SLP147 T02560122
KHEF,2022-10-31T19:16:00Z,KHEF 311916Z 21005KT 10SM -RA SCT022 BKN070 BKN085 18/13 A3001 RMK AO2 RAB16 P0000
KHEG,2022-10-31T19:35:00Z,KHEG 311935Z AUTO 16005KT 9SM FEW044 FEW055 SCT065 32/20 A2997 RMK AO2
KHEI,2022-10-31T18:53:00Z,KHEI 311853Z AUTO 26010KT 10SM CLR 18/M02 A2978 RMK AO2 SLP089 T01781017
KHEQ,2022-10-31T19:35:00Z,KHEQ 311935Z AUTO 27010KT 10SM CLR 23/M07 A2992 RMK AO2
KHEY,2022-10-31T18:55:00Z,KHEY 311855Z AUTO 00000KT 10SM CLR 24/14 A2995 RMK AO2 SLP142 T02360140
KHEZ,2022-10-31T18:56:00Z,KHEZ 311856Z AUTO 09003KT 10SM OVC042 22/12 A3003 RMK AO2 SLP167 T02220122
KHFD,2022-10-31T18:53:00Z,KHFD 311853Z 19010KT 10SM CLR 20/11 A2998 RMK AO2 SLP151 T02000106
KHFF,2022-10-31T18:55:00Z,KHFF 311855Z AUTO 17003KT 10SM SCT140 23/20 A2998 RMK AO2 RAE08 SLP153 P0001 T02250202 $
KHFJ,2022-10-31T19:35:00Z,KHFJ 311935Z AUTO 23007G14KT 10SM CLR 20/06 A2996 RMK AO2
KHFY,2022-10-31T19:35:00Z,KHFY 311935Z AUTO 25007KT 10SM OVC012 17/16 A2985 RMK AO2 T01700156
KHGR,2022-10-31T19:30:00Z,KHGR 311930Z 17005KT 10SM OVC013 14/12 A2998 RMK AO2 RAB03E24 P0001 T01440117
KHHF,2022-10-31T19:35:00Z,KHHF 311935Z AUTO 21006KT 10SM CLR 24/03 A2998 RMK AO2 T02400032
KHHG,2022-10-31T19:35:00Z,KHHG 311935Z AUTO 22006G16KT 10SM BKN017 BKN024 OVC050 16/14 A2980 RMK AO2 T01640140
KHHR,2022-10-31T18:53:00Z,KHHR 311853Z 30005KT 10SM CLR 23/14 A2991 RMK AO2 SLP128 T02330144 $
KHHV,2022-10-31T19:35:00Z,KHHV 311935Z AUTO 11013KT 10SM BKN090 27/16 A2994 RMK A01
KHHW,2022-10-31T19:34:00Z,KHHW 311934Z AUTO 00000KT 10SM CLR 22/04 A3000 RMK AO2
KHIB,2022-10-31T18:53:00Z,KHIB 311853Z AUTO VRB04G15KT 10SM CLR 16/M02 A2973 RMK AO2 SLP081 T01561017
KHIE,2022-10-31T18:52:00Z,KHIE 311852Z AUTO 32004KT 10SM CLR 16/00 A2993 RMK AO2 SLP144 T01560000
KHIF,2022-10-31T18:55:00Z,KHIF 311855Z AUTO 00000KT 10SM CLR 12/M03 A3010 RMK AO2 SLP177 T01221032
KHII,2022-10-31T19:35:00Z,KHII 311935Z AUTO 24003KT 10SM CLR 25/M04 A2992 RMK AO2
KHIO,2022-10-31T18:53:00Z,KHIO 311853Z 15006KT 7SM -RA BKN008 BKN015 OVC039 13/12 A2991 RMK AO2 SLP128 P0003 T01280122
KHJH,2022-10-31T19:35:00Z,KHJH 311935Z AUTO 22006KT 10SM CLR 21/00 A2992 RMK AO2 T02061002
KHJO,2022-10-31T18:53:00Z,KHJO 311853Z AUTO 00000KT 7SM CLR 19/06 A2996 RMK AO2 SLP146 T01940056
KHKA,2022-10-31T18:53:00Z,KHKA 311853Z AUTO 24008KT 10SM FEW024 BKN039 OVC055 19/12 A2994 RMK AO2 SLP136 T01890122 $
KHKS,2022-10-31T18:53:00Z,KHKS 311853Z 27006KT 10SM CLR 24/13 A3001 RMK AO2 SLP154 T02390128
KHKY,2022-10-31T19:10:00Z,KHKY 311910Z 05003KT 10SM BKN006 BKN009 OVC065 15/14 A3001 RMK AO2 T01500144
KHLB,2022-10-31T19:35:00Z,KHLB 311935Z AUTO VRB05KT 8SM SCT023 BKN035 BKN065 15/14 A2986 RMK A01
KHLC,2022-10-31T18:53:00Z,KHLC 311853Z AUTO 21010G15KT 10SM CLR 24/M03 A2993 RMK AO2 SLP129 T02391028
KHLG,2022-10-31T19:33:00Z,KHLG 311933Z 19006KT 10SM SCT024 SCT030 OVC045 17/14 A2991 RMK AO2 T01670144
KHLN,2022-10-31T18:53:00Z,KHLN 311853Z 17004KT 10SM OVC070 16/02 A2979 RMK AO2 SLP091 T01610022
KHLR,2022-10-31T18:55:00Z,KHLR 311855Z AUTO 16003KT 9SM FEW160 24/09 A3002 RMK AO2 SLP159 T02410085
KHLX,2022-10-31T19:35:00Z,KHLX 311935Z AUTO 20005KT 3SM DZ BKN003 OVC011 14/11 A3000 RMK AO2 P0003 T01350105
KHMN,2022-10-31T18:55:00Z,KHMN 311855Z AUTO 00000KT 10SM CLR 21/01 A3007 RMK AO2 SLP141 T02060009 $
KHMP,2022-10-31T19:35:00Z,KHMP 311935Z AUTO 22007KT 190V250 10SM SCT034 SCT043 22/15 A3000 RMK AO2 T02250147
KHMT,2022-10-31T19:35:00Z,KHMT 311935Z AUTO 23003KT 10SM CLR 27/M07 A2991 RMK AO2 T02731075
KHMZ,2022-10-31T19:35:00Z,KHMZ 311935Z AUTO 34005KT 10SM BKN040 OVC080 15/11 A2995 RMK AO2 T01520106
KHNB,2022-10-31T19:30:00Z,KHNB 311930Z AUTO 24006KT 9SM FEW008 SCT049 OVC060 16/14 A2989 RMK AO2 RAE24 P0001
KHND,2022-10-31T18:56:00Z,KHND 311856Z VRB05KT 10SM CLR 20/M06 A3005 RMK AO2 SLP181 T02001056
KHNR,2022-10-31T19:35:00Z,KHNR 311935Z AUTO 29010KT 8SM CLR 19/01 A2989 RMK A01
KHNZ,2022-10-31T19:35:00Z,KHNZ 311935Z AUTO 13005KT 10SM SCT025 SCT033 SCT050 19/14 A3002 RMK AO2 T01920139
KHOE,2022-10-31T19:35:00Z,KHOE 311935Z AUTO 18005KT 10SM SCT085 29/17 A2996 RMK AO2 T02940178
KHON,2022-10-31T18:55:00Z,KHON 311855Z AUTO 19006KT 10SM CLR 17/00 A2979 RMK AO2 SLP095 T01720000
KHOP,2022-10-31T19:32:00Z,KHOP 311932Z AUTO 21006KT 10SM SCT016 SCT020 BKN050 17/17 A2991 RMK AO2 DZB01E17 SLP129
KHOT,2022-10-31T18:53:00Z,KHOT 311853Z AUTO VRB05KT 10SM CLR 23/07 A2999 RMK AO2 SLP151 T02280072
KHOU,2022-10-31T18:53:00Z,KHOU 311853Z 08004KT 10SM FEW050 BKN250 25/11 A3000 RMK AO2 SLP165 T02500111
KHPN,2022-10-31T18:56:00Z,KHPN 311856Z VRB06KT 10SM BKN120 17/09 A3000 RMK AO2 SLP158 T01720094
KHPT,2022-10-31T19:35:00Z,KHPT 311935Z AUTO 27007KT 10SM CLR 18/M01 A2986 RMK AO2
KHQG,2022-10-31T19:35:00Z,KHQG 311935Z AUTO 22014G19KT 10SM CLR 23/01 A2995 RMK AO2 T02280008
KHQG,2022-10-31T19:35:00Z,KHQG 311935Z AUTO 22014G19KT 10SM CLR 23/01 A2995 RMK AO2 T02280008
KHQM,2022-10-31T18:53:00Z,KHQM 311853Z AUTO 25012KT 10SM FEW036 SCT060 SCT080 13/09 A2988 RMK AO2 RAE16 SLP123 P0000 T01330089
KHQU,2022-10-31T19:35:00Z,KHQU 311935Z AUTO 21004KT 10SM BKN013 BKN050 23/20 A2997 RMK AO2 T02300200
KHQZ,2022-10-31T18:50:00Z,KHQZ 311850Z 00000KT 10SM CLR 23/08 A3003
KHRF,2022-10-31T19:35:00Z,KHRF 311935Z AUTO 17014G20KT 10SM BKN060 OVC065 15/03 A2982 RMK AO2
KHRI,2022-10-31T18:53:00Z,KHRI 311853Z AUTO 22006KT 10SM OVC060 16/09 A2984 RMK AO2 SLP103 T01610089
KHRJ,2022-10-31T19:35:00Z,KHRJ 311935Z AUTO 17006KT 10SM SCT035 SCT043 BKN060 24/17 A3001 RMK AO2 T02420167
KHRL,2022-10-31T18:52:00Z,KHRL 311852Z 10013KT 10SM OVC055 27/18 A2993 RMK AO2 RAE1753 SLP135 P0000 T02670183
KHRO,2022-10-31T18:53:00Z,KHRO 311853Z AUTO 29007KT 10SM CLR 21/06 A2998 RMK AO2 SLP144 T02060061
KHRT,2022-10-31T18:55:00Z,KHRT 311855Z 25007KT 10SM FEW035 24/14 A2998 RMK AO2A SLP154 T02390143 $
KHRX,2022-10-31T19:35:00Z,KHRX 311935Z AUTO 23013G18KT 10SM CLR 22/02 A3003 RMK AO2 T02200024
KHSA,2022-10-31T18:47:00Z,KHSA 311847Z VRB05KT 10SM BKN055 23/13 A3001
KHSB,2022-10-31T19:41:00Z,KHSB 311941Z AUTO 26007KT 10SM SCT021 BKN027 OVC036 17/15 A2990 RMK AO2
KHSD,2022-10-31T19:35:00Z,KHSD 311935Z AUTO 25005KT 10SM CLR 22/01 A2999 RMK A01
KHSE,2022-10-31T18:51:00Z,KHSE 311851Z AUTO 04005KT 10SM SCT041 22/14 A3005 RMK AO2 SLP174 T02170144
KHSG,2022-10-31T19:30:00Z,KHSG 311930Z AUTO 10006KT 10SM CLR 16/M04 A2990 RMK AO2 T01551041
KHSI,2022-10-31T18:53:00Z,KHSI 311853Z AUTO 21012KT 10SM CLR 21/M02 A2991 RMK AO2 SLP125 T02061022 $
KHSP,2022-10-31T19:35:00Z,KHSP 311935Z AUTO 22015G21KT 10SM OVC005 A3004 RMK AO2
KHST,2022-10-31T18:55:00Z,KHST 311855Z AUTO 08009KT 10SM FEW021 29/24 A2991 RMK AO2 SLP132 T02930237
KHSV,2022-10-31T18:53:00Z,KHSV 311853Z 23010KT 10SM FEW030 OVC060 19/14 A2997 RMK AO2 SLP145 T01890144
KHTL,2022-10-31T18:53:00Z,KHTL 311853Z AUTO VRB05KT 10SM OVC100 17/08 A2980 RMK AO2 SLP094 T01670083
KHTS,2022-10-31T18:51:00Z,KHTS 311851Z VRB05KT 4SM RA FEW024 BKN040 OVC050 18/14 A2990 RMK AO2 RAB42 SLP121 P0000 T01830144
KHUA,2022-10-31T18:58:00Z,KHUA 311858Z 24006KT 7SM FEW030 OVC060 19/14 A2996 RMK SLPNO RVRNO $
KHUF,2022-10-31T19:32:00Z,KHUF 311932Z 25007KT 10SM FEW013 OVC019 16/13 A2985 RMK AO2 T01560128
KHUL,2022-10-31T18:53:00Z,KHUL 311853Z AUTO 00000KT 10SM CLR 18/M02 A2992 RMK AO2 SLP134 T01831022
KHUM,2022-10-31T18:47:00Z,KHUM 311847Z 35005KT 7SM SCT046 26/13 A3002
KHUT,2022-10-31T18:52:00Z,KHUT 311852Z VRB03KT 10SM CLR 20/M02 A2997 RMK AO2 SLP139 T02001017
KHVE,2022-10-31T19:35:00Z,KHVE 311935Z AUTO 00000KT 10SM CLR 14/M03 A3013 RMK AO2
KHVN,2022-10-31T18:53:00Z,KHVN 311853Z 17005KT 10SM OVC033 18/12 A3001 RMK AO2 SLP161 T01780117
KHVR,2022-10-31T18:53:00Z,KHVR 311853Z AUTO 26021G31KT 10SM BKN090 OVC100 18/03 A2963 RMK AO2 PK WND 25032/1835 SLP031 T01780028 $
KHVS,2022-10-31T19:35:00Z,KHVS 311935Z AUTO VRB05KT 10SM FEW030 FEW038 SCT045 26/19 A2998 RMK AO2
KHWD,2022-10-31T18:54:00Z,KHWD 311854Z 25005KT 8SM CLR 16/11 A2996 RMK AO2 SLP153 T01560111
KHWO,2022-10-31T18:53:00Z,KHWO 311853Z 12009KT 10SM CLR 30/22 A2993 RMK AO2 SLP136 T03000222 $
KHWV,2022-10-31T18:56:00Z,KHWV 311856Z AUTO 18007KT 10SM BKN033 17/10 A3002 RMK AO2 SLP166 T01720100
KHWY,2022-10-31T19:35:00Z,KHWY 311935Z AUTO 21005KT 7SM RA SCT060 OVC095 17/15 A3004 RMK AO2 T01650150
KHXD,2022-10-31T18:50:00Z,KHXD 311850Z 21009KT 10SM SCT080 27/20 A3000
KHYA,2022-10-31T19:26:00Z,KHYA 311926Z 18005KT 10SM BKN012 BKN018 OVC023 15/14 A3001 RMK AO2 RAE06 P0000 T01500144
KHYI,2022-10-31T19:17:00Z,KHYI 311917Z 16007KT 10SM FEW002 27/11 A3003 RMK AO2 $
KHYR,2022-10-31T18:53:00Z,KHYR 311853Z AUTO 22007KT 200V270 10SM CLR 16/M01 A2981 RMK AO2 SLP102 T01611011
KHYS,2022-10-31T18:56:00Z,KHYS 311856Z AUTO 20008G15KT 170V230 10SM CLR 21/M03 A2995 RMK AO2 SLP143 T02111028 $
KHYW,2022-10-31T19:35:00Z,KHYW 311935Z AUTO 15007KT 10SM SCT019 25/20 A3000 RMK AO2
KHYX,2022-10-31T19:35:00Z,KHYX 311935Z AUTO 00000KT 10SM OVC027 15/12 A2980 RMK AO2 T01500119
KHZD,2022-10-31T19:35:00Z,KHZD 311935Z AUTO 26006G12KT 10SM SCT026 OVC050 18/14 A2992 RMK A01
KHZE,2022-10-31T19:35:00Z,KHZE 311935Z AUTO 25008KT 10SM CLR 15/02 A2975 RMK AO2
KHZL,2022-10-31T19:35:00Z,KHZL 311935Z AUTO 14004KT 10SM OVC015 14/10 A3002 RMK AO2
KHZR,2022-10-31T19:35:00Z,KHZR 311935Z AUTO 03004KT 10SM CLR 25/12 A3000 RMK AO2 T02470120
KHZX,2022-10-31T19:35:00Z,KHZX 311935Z AUTO 21010KT 10SM CLR 16/00 A2977 RMK AO2
KI23,2022-10-31T19:35:00Z,KI23 311935Z AUTO 21010KT 10SM CLR 17/13 A2987 RMK AO1
KI35,2022-10-31T19:35:00Z,KI35 311935Z AUTO 23004KT 10SM SCT023 BKN039 OVC060 18/14 A2995 RMK AO2 T01770137
KI63,2022-10-31T19:35:00Z,KI63 311935Z AUTO 31008KT 10SM CLR 17/08 A2987 RMK AO2 T01650077
KI67,2022-10-31T19:35:00Z,KI67 311935Z AUTO 22012G15KT 10SM OVC046 19/12 A2986 RMK AO1
KI68,2022-10-31T19:35:00Z,KI68 311935Z AUTO 21010KT 10SM SCT024 SCT031 OVC075 18/14 A2987 RMK AO1 T01810138
KI69,2022-10-31T19:35:00Z,KI69 311935Z AUTO 22010KT 10SM SCT022 BKN026 OVC070 18/14 A2989 RMK AO2 T01780137
KI74,2022-10-31T19:35:00Z,KI74 311935Z AUTO 00000KT 10SM SCT021 SCT029 OVC070 16/15 A2986 RMK AO2
KI75,2022-10-31T19:35:00Z,KI75 311935Z AUTO 30003KT 7SM CLR 19/02 A2990 RMK AO2 T01900021
KIAB,2022-10-31T18:55:00Z,KIAB 311855Z AUTO 28006KT 10SM CLR 20/M00 A2995 RMK AO2 SLP140 T01971004 $
KIAD,2022-10-31T18:52:00Z,KIAD 311852Z AUTO 20010KT 10SM FEW024 SCT060 BKN100 BKN180 BKN250 18/13 A2999 RMK AO2 SLP155 T01830128 TSNO
KIAG,2022-10-31T19:31:00Z,KIAG 311931Z 21006KT 2 1/2SM RA BR BKN021 BKN049 OVC065 15/13 A2984 RMK AO2 VIS 1 3/4V5 RAB1858 P0002 T01500133
KIAH,2022-10-31T18:53:00Z,KIAH 311853Z 00000KT 10SM FEW050 BKN250 26/12 A3001 RMK AO2 SLP162 T02560117 $
KIBM,2022-10-31T19:35:00Z,KIBM 311935Z AUTO 29008G14KT 10SM CLR 18/M10 A2994 RMK AO2 T01801099
KICL,2022-10-31T19:35:00Z,KICL 311935Z AUTO VRB06KT 10SM CLR 20/M02 A2993 RMK AO2
KICR,2022-10-31T18:53:00Z,KICR 311853Z AUTO 00000KT CLR 21/M06 A2981 RMK AO2 SLP092 T02111056 $
KICT,2022-10-31T18:53:00Z,KICT 311853Z 34004KT 10SM FEW160 FEW220 21/M02 A2997 RMK AO2 SLP144 T02061017
KIDA,2022-10-31T18:53:00Z,KIDA 311853Z 21010G17KT 10SM CLR 13/M02 A3008 RMK AO2 SLP182 T01281017
KIDI,2022-10-31T19:35:00Z,KIDI 311935Z AUTO 22004KT 10SM BKN010 OVC015 16/16 A2996 RMK A01
KIDP,2022-10-31T19:35:00Z,KIDP 311935Z AUTO 00000KT 10SM CLR 22/03 A2996 RMK AO2 T02230029
KIEN,2022-10-31T18:52:00Z,KIEN 311852Z AUTO 27010G16KT 10SM CLR 16/M07 A2986 RMK AO2 SLP108 T01611072
KIER,2022-10-31T19:35:00Z,KIER 311935Z AUTO 28005KT 10SM CLR 25/10 A3001 RMK AO2 T02520103
KIFA,2022-10-31T19:35:00Z,KIFA 311935Z AUTO 29007KT 10SM CLR 19/02 A2988 RMK AO2 T01860018
KIFP,2022-10-31T18:51:00Z,KIFP 311851Z 35014KT 10SM CLR 25/M06 A2992
KIGM,2022-10-31T18:51:00Z,KIGM 311851Z AUTO 36004KT 10SM CLR 22/M06 A3004 RMK AO2 SLP123 T02221061
KIGQ,2022-10-31T19:35:00Z,KIGQ 311935Z AUTO 36005KT 3SM BR OVC004 13/13 A2981 RMK AO2 T01300130
KIIY,2022-10-31T19:35:00Z,KIIY 311935Z AUTO 35003KT 7SM OVC002 19/18 A2998 RMK AO2 T01870183
KIJD,2022-10-31T18:52:00Z,KIJD 311852Z AUTO 22013G19KT 10SM FEW034 19/11 A3000 RMK AO2 SLP158 T01890106
KIJX,2022-10-31T19:35:00Z,KIJX 311935Z AUTO 29007KT 10SM CLR 16/12 A2987 RMK AO2 T01590119
KIKK,2022-10-31T19:35:00Z,KIKK 311935Z AUTO 00000KT 5SM -RA BKN006 OVC011 15/14 A2982 RMK AO2 P0002 T01470139
KIKV,2022-10-31T19:35:00Z,KIKV 311935Z AUTO VRB06KT 10SM CLR 18/02 A2989 RMK AO2
KIKW,2022-10-31T19:35:00Z,KIKW 311935Z AUTO 24003KT 10SM BKN025 BKN029 OVC095 17/12 A2979 RMK AO2 T01690117
KILE,2022-10-31T18:56:00Z,KILE 311856Z AUTO 00000KT 10SM 24/10 A3003 RMK AO2 SLP160 T02390100 $
KILG,2022-10-31T18:51:00Z,KILG 311851Z 16007KT 10SM OVC022 18/13 A3002 RMK AO2 SLP164 T01780128
KILM,2022-10-31T18:53:00Z,KILM 311853Z 10010KT 10SM FEW050 24/19 A3002 RMK AO2 SLP165 T02390189
KILN,2022-10-31T18:54:00Z,KILN 311854Z AUTO 21010KT 9SM FEW020 OVC060 18/13 A2987 RMK AO2 SLP114 T01780133
KIML,2022-10-31T18:53:00Z,KIML 311853Z AUTO 30010G19KT 10SM CLR 21/M07 A2992 RMK AO2 SLP126 T02111072
KIMS,2022-10-31T19:35:00Z,KIMS 311935Z AUTO 21007KT 10SM BKN013 OVC018 16/16 A2990 RMK AO2 P0001
KIMT,2022-10-31T18:54:00Z,KIMT 311854Z AUTO 23007KT 10SM CLR 18/03 A2976 RMK AO2 SLP083 T01830033
KIND,2022-10-31T19:39:00Z,KIND 311939Z 22009KT 10SM -RA SCT014 OVC060 15/13 A2984 RMK AO2 P0003 T01500133
KINF,2022-10-31T19:35:00Z,KINF 311935Z AUTO 14004KT 7SM CLR 30/20 A2996 RMK AO2
KINJ,2022-10-31T19:35:00Z,KINJ 311935Z AUTO 18003KT 10SM CLR 25/10 A3000 RMK AO2 T02470098
KINK,2022-10-31T18:53:00Z,KINK 311853Z AUTO 16011G23KT 10SM CLR 21/07 A3002 RMK AO2 SLP135 T02110072
KINL,2022-10-31T18:54:00Z,KINL 311854Z AUTO 23007G18KT 10SM CLR 16/M01 A2965 RMK AO2 SLP049 T01611011 $
KINS,2022-10-31T18:55:00Z,KINS 311855Z AUTO 00000KT 10SM CLR 19/M09 A3003 RMK AO2 SLP147 T01891092
KINT,2022-10-31T18:54:00Z,KINT 311854Z 06004KT 2 1/2SM BR BKN003 OVC012 15/15 A3001 RMK AO2 RAE52 SLP160 P0002 T01500150
KINW,2022-10-31T18:56:00Z,KINW 311856Z AUTO VRB03KT 10SM CLR 14/M05 A3013 RMK AO2 SLP181 T01391050
KIOB,2022-10-31T19:35:00Z,KIOB 311935Z AUTO 24009G14KT 10SM OVC060 18/13 A2993 RMK AO2 PWINO
KIOW,2022-10-31T18:52:00Z,KIOW 311852Z AUTO 23003KT 10SM CLR 18/06 A2987 RMK AO2 SLP116 T01830061
KIPJ,2022-10-31T19:35:00Z,KIPJ 311935Z AUTO 00000KT 7SM -DZ BKN004 BKN008 OVC027 15/14 A3001 RMK AO2 T01450141
KIPL,2022-10-31T18:53:00Z,KIPL 311853Z AUTO 19004KT 10SM CLR 27/M04 A2989 RMK AO2 SLP121 T02721039
KIPT,2022-10-31T18:54:00Z,KIPT 311854Z 12006KT 10SM BKN037 BKN120 15/09 A2996 RMK AO2 SLP146 T01500089
KIRK,2022-10-31T18:55:00Z,KIRK 311855Z AUTO VRB03KT 10SM CLR 19/06 A2990 RMK AO2 SLP126 T01890061
KIRS,2022-10-31T19:35:00Z,KIRS 311935Z AUTO 00000KT 10SM SCT006 BKN050 OVC070 15/14 A2979 RMK AO2 T01520139 P0001
KISM,2022-10-31T18:56:00Z,KISM 311856Z 15006KT 10SM FEW055 30/19 A2997 RMK AO2 SLP147 T03000194 PNO $
KISO,2022-10-31T18:56:00Z,KISO 311856Z 20006KT 10SM BKN034 BKN050 26/18 A3002
KISP,2022-10-31T18:56:00Z,KISP 311856Z 20008KT 10SM SCT030 BKN130 BKN240 18/11 A3001 RMK AO2 SLP161 T01780106
KISQ,2022-10-31T19:35:00Z,KISQ 311935Z AUTO 19005KT 10SM CLR 12/07 A2978 RMK AO2 T01220066
KISW,2022-10-31T18:54:00Z,KISW 311854Z AUTO 28006KT 10SM CLR 18/06 A2982 RMK AO2 SLP101 T01780056
KITH,2022-10-31T18:56:00Z,KITH 311856Z 15009KT 10SM BKN050 16/09 A2993 RMK AO2 SLP136 T01560089
KITR,2022-10-31T18:53:00Z,KITR 311853Z AUTO VRB06KT 10SM CLR 19/M07 A2996 RMK AO2 SLP126 T01941067 $
KIUA,2022-10-31T19:35:00Z,KIUA 311935Z AUTO 12005KT 10SM OVC100 15/08 A2988 RMK AO2 T01500079
KIWA,2022-10-31T18:51:00Z,KIWA 311851Z 21006KT 10SM CLR 23/02 A2997
KIWD,2022-10-31T18:56:00Z,KIWD 311856Z AUTO 23006KT 10SM CLR 16/M02 A2978 RMK AO2 SLP091 T01611022
KIWI,2022-10-31T18:53:00Z,KIWI 311853Z AUTO 20006KT 10SM CLR 16/10 A2997 RMK AO2 SLP148 T01560100
KIXA,2022-10-31T19:35:00Z,KIXA 311935Z AUTO 14004KT 7SM SCT080 21/18 A3002 RMK AO2
KIXD,2022-10-31T18:53:00Z,KIXD 311853Z 30007KT 10SM CLR 19/03 A2995 RMK AO2 SLP138 T01940028
KIYA,2022-10-31T19:35:00Z,KIYA 311935Z AUTO 00000KT 10SM SCT050 26/09 A3000 RMK AO2 T02550090
KIZA,2022-10-31T19:35:00Z,KIZA 311935Z AUTO 27004KT 10SM CLR 20/02 A2991 RMK AO2
KIZG,2022-10-31T18:54:00Z,KIZG 311854Z AUTO 17005KT 10SM CLR 17/01 A2994 RMK AO2 SLP140 T01720011
KJAN,2022-10-31T18:54:00Z,KJAN 311854Z 32005KT 10SM FEW041 BKN055 22/12 A3000 RMK AO2 SLP157 T02220117
KJAQ,2022-10-31T19:35:00Z,KJAQ 311935Z AUTO 27004KT 10SM CLR 19/03 A2996 RMK AO1 T01850027
KJAS,2022-10-31T19:35:00Z,KJAS 311935Z AUTO 28005KT 9SM CLR 25/10 A3000 RMK AO2
KJAU,2022-10-31T19:35:00Z,KJAU 311935Z AUTO 24004KT 10SM FEW039 OVC060 20/12 A2998 RMK A01
KJAX,2022-10-31T18:56:00Z,KJAX 311856Z 20008KT 10SM FEW040 SCT060 BKN140 BKN250 29/19 A2995 RMK AO2 SLP143 T02940194
KJBR,2022-10-31T18:53:00Z,KJBR 311853Z AUTO 29008KT 10SM FEW036 BKN048 19/12 A2995 RMK AO2 SLP141 T01890117 $
KJCA,2022-10-31T19:35:00Z,KJCA 311935Z AUTO 07003KT 7SM BR OVC004 17/17 A2999 RMK AO2 T0170////
KJCT,2022-10-31T18:51:00Z,KJCT 311851Z AUTO 00000KT 10SM BKN060 23/12 A3003 RMK AO2 SLP145 T02280117
KJDD,2022-10-31T19:35:00Z,KJDD 311935Z AUTO 00000KT 10SM CLR 24/09 A3001 RMK AO2
KJDN,2022-10-31T18:48:00Z,KJDN 311848Z AUTO 26011KT 19/02 A2970 RMK AO1 SLP059 T01890022
KJEF,2022-10-31T18:53:00Z,KJEF 311853Z 30008KT 10SM CLR 20/10 A2991 RMK AO2 SLP119 T02000100 $
KJER,2022-10-31T18:53:00Z,KJER 311853Z AUTO 00000KT 10SM CLR 14/M03 A3004 RMK AO2 SLP167 T01441028
KJES,2022-10-31T19:35:00Z,KJES 311935Z AUTO 00000KT 10SM BKN046 BKN070 29/18 A2998 RMK AO2
KJFK,2022-10-31T18:51:00Z,KJFK 311851Z 20009KT 10SM FEW035 SCT120 BKN220 17/11 A3002 RMK AO2 SLP165 T01720106
KJFX,2022-10-31T19:35:00Z,KJFX 311935Z AUTO 00000KT 10SM SCT023 SCT033 OVC055 20/15 A2999 RMK AO2
KJFZ,2022-10-31T19:35:00Z,KJFZ 311935Z AUTO 00000KT 10SM BKN013 OVC020 16/15 A2999 RMK AO2 T01550146
KJHN,2022-10-31T19:35:00Z,KJHN 311935Z AUTO 27005KT 10SM CLR 22/M01 A2994 RMK AO2 T02151013
KJHW,2022-10-31T18:56:00Z,KJHW 311856Z AUTO 18008KT 10SM OVC007 13/12 A2989 RMK AO2 RAB36E47 SLP131 P0000 T01330122
KJKA,2022-10-31T18:58:00Z,KJKA 311858Z 24008KT 10SM FEW030 24/14 A3000
KJKJ,2022-10-31T19:35:00Z,KJKJ 311935Z AUTO 23007G16KT 10SM CLR 18/00 A2972 RMK AO2 TSNO
KJKL,2022-10-31T18:53:00Z,KJKL 311853Z AUTO VRB03KT 10SM FEW021 SCT036 OVC049 18/14 A2993 RMK AO2 RAB26E45 SLP127 P0000 T01780144
KJLN,2022-10-31T18:53:00Z,KJLN 311853Z 29006KT 10SM CLR 22/07 A2996 RMK AO2 SLP139 T02170067 $
KJMR,2022-10-31T19:35:00Z,KJMR 311935Z AUTO 23008KT 210V270 10SM CLR 17/M02 A2984 RMK AO2
KJMS,2022-10-31T18:56:00Z,KJMS 311856Z AUTO 27007KT 10SM CLR 18/01 A2972 RMK AO2 SLP070 T01780006
KJNX,2022-10-31T19:35:00Z,KJNX 311935Z AUTO 16003KT 10SM CLR 24/16 A3000 RMK AO2
KJOT,2022-10-31T19:35:00Z,KJOT 311935Z AUTO 36004KT 2 1/2SM -DZ BKN003 OVC018 15/14 A2982 RMK AO2 P0001 T01490143
KJPX,2022-10-31T19:35:00Z,KJPX 311935Z AUTO 22005KT 10SM OVC020 16/13 A3002 RMK AO2 T01610125
KJQF,2022-10-31T18:59:00Z,KJQF 311859Z 00000KT 3SM BR OVC009 19/300 A3005
KJRB,2022-10-31T18:56:00Z,KJRB 311856Z AUTO 24006KT A3002 RMK AO2 SLPNO FZRANO $
KJRO,2022-10-31T19:35:00Z,KJRO 311935Z AUTO 19008KT 10SM SCT025 OVC070 20/14 A2990 RMK AO2
KJSO,2022-10-31T19:35:00Z,KJSO 311935Z AUTO 23003KT 10SM CLR 24/11 A3003 RMK AO2 T02430107 TSNO
KJST,2022-10-31T19:33:00Z,KJST 311933Z AUTO 22009KT 10SM SCT006 BKN025 OVC065 15/14 A2994 RMK AO2 T01500144
KJSV,2022-10-31T19:35:00Z,KJSV 311935Z AUTO 23006KT 10SM CLR 23/03 A2997 RMK AO2
KJSY,2022-10-31T19:35:00Z,KJSY 311935Z AUTO 10SM CLR 16/M01 A2985 RMK AO2 T01561006 TSNO
KJTC,2022-10-31T19:35:00Z,KJTC 311935Z AUTO 03007KT 350V050 10SM CLR 16/M09 A3013 RMK AO2
KJVL,2022-10-31T18:45:00Z,KJVL 311845Z 32006KT 10SM SCT200 19/05 A2982
KJVW,2022-10-31T19:35:00Z,KJVW 311935Z AUTO 31006KT 10SM BKN060 23/12 A2999 RMK AO2
KJVY,2022-10-31T19:15:00Z,KJVY 311915Z AUTO 24008KT 10SM SCT042 18/15 A2988 RMK AO2
KJWG,2022-10-31T19:35:00Z,KJWG 311935Z AUTO 20008KT 10SM CLR 23/03 A3001 RMK AO2 T02260032
KJWN,2022-10-31T18:50:00Z,KJWN 311850Z 24008KT 10SM BKN020 19/14 A2992
KJWY,2022-10-31T19:35:00Z,KJWY 311935Z AUTO 00000KT 10SM CLR 24/10 A3002 RMK AO2 T02440095
KJXI,2022-10-31T19:35:00Z,KJXI 311935Z AUTO 10SM CLR 24/08 A3001 RMK AO2 T02350084
KJXN,2022-10-31T18:56:00Z,KJXN 311856Z 00000KT 10SM OVC008 16/16 A2980 RMK AO2 SLP093 T01560156 $
KJYG,2022-10-31T19:35:00Z,KJYG 311935Z AUTO 21005KT 10SM CLR 18/M04 A2982 RMK AO2 TSNO
KJYL,2022-10-31T19:35:00Z,KJYL 311935Z AUTO 23004KT 10SM BKN041 BKN046 OVC070 29/19 A2997 RMK AO2 T02910185
KJYM,2022-10-31T19:35:00Z,KJYM 311935Z AUTO 25003KT 10SM -DZ SCT011 BKN035 OVC045 15/14 A2981 RMK AO2 T01460137 P0001
KJYO,2022-10-31T19:35:00Z,KJYO 311935Z AUTO 00000KT 10SM SCT060 BKN090 OVC110 16/14 A3001 RMK AO2
KJYR,2022-10-31T19:35:00Z,KJYR 311935Z AUTO 19008KT 10SM CLR 21/M01 A2989 RMK AO2
KJZI,2022-10-31T19:35:00Z,KJZI 311935Z AUTO 22006KT 10SM BKN070 26/20 A2999 RMK AO2
KK62,2022-10-31T19:35:00Z,KK62 311935Z AUTO 21005KT 10SM SCT049 SCT060 OVC070 17/14 A2989 RMK AO2
KK70,2022-10-31T19:35:00Z,KK70 311935Z AUTO 08007KT 10SM CLR 30/26 A2991 RMK AO2
KK88,2022-10-31T19:35:00Z,KK88 311935Z AUTO 31005KT 10SM CLR 22/03 A2996 RMK AO1 T02150032
KKLS,2022-10-31T18:56:00Z,KKLS 311856Z AUTO 28003KT 10SM OVC045 12/10 A2993 RMK AO2 RAE32 SLP138 P0003 T01220100
KKNB,2022-10-31T19:35:00Z,KKNB 311935Z AUTO 00000KT 10SM CLR 19/M07 A3011 RMK A01
KKY8,2022-10-31T19:35:00Z,KKY8 311935Z AUTO 19006KT 10SM SCT027 BKN046 OVC075 19/17 A2988 RMK A01
KL08,2022-10-31T19:35:00Z,KL08 311935Z AUTO 13005KT 10SM CLR 28/M09 A2989 RMK AO2
KL18,2022-10-31T19:35:00Z,KL18 311935Z AUTO 22010KT 10SM CLR 28/M02 A2989 RMK AO2
KL35,2022-10-31T19:35:00Z,KL35 311935Z AUTO 09007KT 10SM CLR 14/M10 A3013 RMK AO2
KL52,2022-10-31T19:35:00Z,KL52 311935Z AUTO VRB05KT 2SM BR BKN003 12/12 A2993 RMK A01 VIS 1 1/4V4
KLAA,2022-10-31T18:53:00Z,KLAA 311853Z AUTO 00000KT 10SM CLR 19/M02 A2995 RMK AO2 SLP126 T01941017
KLAF,2022-10-31T18:54:00Z,KLAF 311854Z 24007KT 5SM -RA BR OVC007 14/13 A2982 RMK AO2 CIG 006V011 SLP095 P0000 T01440133
KLAL,2022-10-31T18:50:00Z,KLAL 311850Z 00000KT 10SM SCT065 BKN090 30/18 A2996
KLAM,2022-10-31T19:35:00Z,KLAM 311935Z AUTO 00000KT 10SM CLR 11/M07 A3013 RMK AO2 T01141073
KLAN,2022-10-31T18:53:00Z,KLAN 311853Z 27003KT 4SM BR OVC005 14/13 A2981 RMK AO2 SLP097 T01440128
KLAR,2022-10-31T18:53:00Z,KLAR 311853Z AUTO 24017G25KT 10SM CLR 11/M08 A3003 RMK AO2 PK WND 25029/1804 SLP138 T01111078
KLAS,2022-10-31T18:56:00Z,KLAS 311856Z 08006KT 10SM FEW250 21/M07 A3002 RMK AO2 SLP153 T02061067
KLAW,2022-10-31T18:53:00Z,KLAW 311853Z 20007KT 10SM CLR 23/10 A3001 RMK AO2 SLP160 T02280100
KLAX,2022-10-31T18:53:00Z,KLAX 311853Z 26009KT 9SM BCFG SCT000 SCT120 BKN250 19/16 A2992 RMK AO2 SLP130 VIS W 1/2 FG SCT000 T01940161 VISNO RWY24 $
KLBB,2022-10-31T18:53:00Z,KLBB 311853Z 19008KT 10SM FEW050 FEW170 SCT220 BKN250 20/07 A3005 RMK AO2 SLP148 T02000067
KLBE,2022-10-31T18:47:00Z,KLBE 311847Z 20008KT 10SM OVC012 17/16 A2993
KLBF,2022-10-31T18:53:00Z,KLBF 311853Z AUTO 25008KT 10SM CLR 20/M04 A2990 RMK AO2 SLP125 T02001044
KLBL,2022-10-31T18:56:00Z,KLBL 311856Z AUTO 21013G20KT 10SM CLR 23/02 A2998 RMK AO2 SLP143 T02280017
KLBO,2022-10-31T19:35:00Z,KLBO 311935Z AUTO 28010G16KT 10SM CLR 19/04 A2995 RMK AO2
KLBT,2022-10-31T18:56:00Z,KLBT 311856Z AUTO 17006KT 10SM SCT032 SCT043 BKN060 26/19 A2999 RMK AO2 RAB12E22 SLP154 P0000 T02610194 TSNO
KLBX,2022-10-31T18:53:00Z,KLBX 311853Z AUTO 07003KT 10SM CLR 26/12 A3001 RMK AO2 SLP160 T02560122
KLCG,2022-10-31T19:35:00Z,KLCG 311935Z AUTO 21011G14KT 10SM CLR 22/00 A2985 RMK AO2 T02171005
KLCH,2022-10-31T18:53:00Z,KLCH 311853Z 02007KT 10SM CLR 25/09 A3001 RMK AO2 SLP170 T02500094
KLCI,2022-10-31T18:56:00Z,KLCI 311856Z AUTO 27005KT 10SM CLR 17/06 A2994 RMK AO2 SLP140 T01670056
KLCK,2022-10-31T18:55:00Z,KLCK 311855Z AUTO 20010G17KT 10SM BKN027 OVC070 19/14 A2986 RMK AO2 T01900135
KLCQ,2022-10-31T19:35:00Z,KLCQ 311935Z AUTO 19004KT 10SM SCT120 28/17 A2995 RMK AO2
KLDJ,2022-10-31T19:35:00Z,KLDJ 311935Z AUTO 22003KT 10SM SCT031 SCT110 18/10 A2999 RMK AO2 T01810101
KLDM,2022-10-31T19:35:00Z,KLDM 311935Z AUTO 30006KT 10SM CLR 16/07 A2980 RMK AO2 T01550070
KLEB,2022-10-31T18:53:00Z,KLEB 311853Z 24005KT 10SM CLR 17/04 A2994 RMK AO2 SLP138 T01720039
KLEE,2022-10-31T18:53:00Z,KLEE 311853Z 14006KT 10SM CLR 30/19 A2997 RMK AO2 SLP148 T03000194
KLEW,2022-10-31T18:56:00Z,KLEW 311856Z AUTO 19006KT 10SM CLR 17/06 A2994 RMK AO2 SLP146 T01720056
KLEX,2022-10-31T18:54:00Z,KLEX 311854Z 22010KT 10SM OVC050 18/13 A2990 RMK AO2 SLP121 T01830128
KLFI,2022-10-31T19:34:00Z,KLFI 311934Z 15005KT 10SM FEW150 21/15 A3002 RMK SLP172 $
KLFK,2022-10-31T18:53:00Z,KLFK 311853Z AUTO 24005KT 10SM CLR 22/14 A3003 RMK AO2 SLP167 T02220139
KLFT,2022-10-31T18:53:00Z,KLFT 311853Z 32006KT 10SM BKN040 26/12 A3001 RMK AO2 SLP161 T02560122
KLGA,2022-10-31T18:51:00Z,KLGA 311851Z 22011KT 10SM FEW033 SCT120 BKN210 18/09 A3000 RMK AO2 SLP158 T01830089
KLGB,2022-10-31T18:53:00Z,KLGB 311853Z 17006KT 10SM CLR 23/14 A2991 RMK AO2 SLP128 T02280139
KLGC,2022-10-31T19:35:00Z,KLGC 311935Z AUTO 24006KT 10SM BKN043 BKN049 23/11 A2998 RMK AO2 T02330113
KLGD,2022-10-31T18:56:00Z,KLGD 311856Z AUTO 15012G18KT 10SM CLR 12/01 A2991 RMK AO2 SLP125 T01220006
KLGF,2022-10-31T18:55:00Z,KLGF 311855Z AUTO 16005KT M M CLR 25/M04 A2990 RMK AO2 SLP124 T02531041 RVRNO PWINO TSNO $
KLGU,2022-10-31T18:51:00Z,KLGU 311851Z AUTO 00000KT 10SM CLR 10/00 A3012 RMK AO2 SLP194 T01000000
KLHB,2022-10-31T19:35:00Z,KLHB 311935Z AUTO 15003KT 10SM CLR 25/12 A3002 RMK AO2 T02460118
KLHM,2022-10-31T19:35:00Z,KLHM 311935Z AUTO 30004KT 10SM CLR 19/05 A2993 RMK AO1
KLHQ,2022-10-31T18:53:00Z,KLHQ 311853Z AUTO 22010G18KT 10SM FEW035 OVC070 20/12 A2987 RMK AO2 SLP113 T02000122
KLHW,2022-10-31T18:55:00Z,KLHW 311855Z 16008KT 10SM BKN041 BKN055 29/19 A2993 RMK AO2A SLP138 T02880191 $
KLHX,2022-10-31T18:53:00Z,KLHX 311853Z AUTO 00000KT 10SM CLR 17/M04 A2998 RMK AO2 SLP125 T01671044
KLHZ,2022-10-31T19:35:00Z,KLHZ 311935Z AUTO 16004KT 10SM SCT060 22/15 A3003 RMK AO2
KLIC,2022-10-31T18:55:00Z,KLIC 311855Z AUTO 19008KT 10SM CLR 18/M07 A2999 RMK AO2 SLP132 T01781072
KLIT,2022-10-31T18:53:00Z,KLIT 311853Z 32007KT 10SM FEW040 BKN250 24/11 A2997 RMK AO2 SLP149 T02390111
KLJF,2022-10-31T19:35:00Z,KLJF 311935Z AUTO 23006KT 10SM CLR 18/M05 A2981 RMK AO2
KLKR,2022-10-31T19:35:00Z,KLKR 311935Z AUTO 20009KT 10SM SCT022 BKN026 OVC037 23/19 A2998 RMK AO2
KLKU,2022-10-31T19:35:00Z,KLKU 311935Z AUTO 00000KT 4SM -RA BR SCT075 BKN090 OVC110 16/16 A3002 RMK AO2 P0002 T01600156
KLKV,2022-10-31T18:53:00Z,KLKV 311853Z AUTO VRB05KT 10SM CLR 14/M03 A3002 RMK AO2 SLP172 T01391028
KLLJ,2022-10-31T18:55:00Z,KLLJ 311855Z AUTO 20011KT 10SM FEW075 BKN090 17/M02 A2996 RMK AO2 SLP111 T01671017
KLLQ,2022-10-31T18:53:00Z,KLLQ 311853Z AUTO 24008KT 10SM BKN034 BKN044 23/13 A2998 RMK AO2 SLP150 T02330133
KLMO,2022-10-31T19:35:00Z,KLMO 311935Z AUTO 14003KT 10SM CLR 21/M09 A2995 RMK AO2 T02091086
KLMT,2022-10-31T18:53:00Z,KLMT 311853Z COR 00000KT 10SM CLR 12/M02 A3000 RMK AO2 SLP155 T01171022
KLNA,2022-10-31T19:35:00Z,KLNA 311935Z AUTO 11011G14KT 10SM SCT020 SCT026 30/25 A2994 RMK AO2 T03010250 PNO
KLND,2022-10-31T18:53:00Z,KLND 311853Z AUTO 09005KT 10SM CLR 16/M06 A2995 RMK AO2 SLP122 T01611061
KLNK,2022-10-31T18:54:00Z,KLNK 311854Z 24008KT 10SM CLR 22/00 A2992 RMK AO2 SLP129 T02170000
KLNN,2022-10-31T19:35:00Z,KLNN 311935Z AUTO 25004KT 10SM SCT030 BKN034 OVC040 19/13 A2982 RMK AO1 T01900126
KLNP,2022-10-31T19:35:00Z,KLNP 311935Z AUTO 23008KT 10SM SCT027 BKN033 OVC040 16/12 A2999 RMK AO2
KLNQ,2022-10-31T19:35:00Z,KLNQ 311935Z AUTO 03003KT 10SM CLR 25/14 A3002 RMK AO2 T02500139
KLNR,2022-10-31T18:56:00Z,KLNR 311856Z AUTO 23006KT 10SM CLR 20/06 A2982 RMK AO2 SLP094 T02000056
KLNS,2022-10-31T18:53:00Z,KLNS 311853Z 19007KT 10SM OVC017 17/13 A3000 RMK AO2 RAE03 SLP159 P0000 T01670128
KLOL,2022-10-31T18:53:00Z,KLOL 311853Z AUTO 18005KT 10SM CLR 13/M07 A3005 RMK AO2 SLP179 T01331067
KLOM,2022-10-31T19:35:00Z,KLOM 311935Z AUTO 20008KT 10SM OVC023 17/13 A3001 RMK AO2 T01680126
KLOR,2022-10-31T18:55:00Z,KLOR 311855Z AUTO 25005KT 10SM CLR 24/13 A2998 RMK AO2 SLP134 T02420134
KLOT,2022-10-31T19:35:00Z,KLOT 311935Z AUTO 33005KT 2SM BR BKN003 14/14 A2982 RMK AO2
KLOU,2022-10-31T19:39:00Z,KLOU 311939Z 21007KT 10SM BKN026 OVC080 18/14 A2988 RMK AO2 T01780139
KLOZ,2022-10-31T18:53:00Z,KLOZ 311853Z AUTO 22008KT 10SM FEW029 SCT050 OVC060 18/12 A2994 RMK AO2 SLP132 T01780122 $
KLPC,2022-10-31T18:56:00Z,KLPC 311856Z AUTO 28005KT 10SM CLR 14/11 A2994 RMK AO2 SLP141 T01440106
KLPR,2022-10-31T18:53:00Z,KLPR 311853Z AUTO 22016KT 10SM SCT034 OVC070 19/13 A2984 RMK AO2 SLP102 T01940128
KLQK,2022-10-31T19:35:00Z,KLQK 311935Z AUTO 7SM OVC007 16/15 A3000 RMK AO2 T01600153
KLRD,2022-10-31T18:56:00Z,KLRD 311856Z 12016KT 10SM SCT037 BKN055 OVC070 25/16 A2996 RMK AO2 SLP144 T02500156
KLRF,2022-10-31T18:55:00Z,KLRF 311855Z 26004KT 10SM CLR 23/11 A2995 RMK AO2A SLP140 RVRNO TSNO $
KLRJ,2022-10-31T19:35:00Z,KLRJ 311935Z AUTO 20011KT 10SM CLR 20/00 A2983 RMK AO2
KLRO,2022-10-31T19:35:00Z,KLRO 311935Z AUTO 16005KT 9SM FEW110 26/22 A2998 RMK AO2
KLRU,2022-10-31T19:35:00Z,KLRU 311935Z AUTO 17003KT 10SM CLR 20/M03 A3005 RMK AO2 T02041032
KLRY,2022-10-31T19:35:00Z,KLRY 311935Z AUTO 32007KT 10SM CLR 22/01 A2995 RMK AO2
KLSE,2022-10-31T18:53:00Z,KLSE 311853Z 29004KT 10SM CLR 18/05 A2983 RMK AO2 SLP103 T01780050
KLSF,2022-10-31T18:55:00Z,KLSF 311855Z AUTO 26003KT 10SM CLR 25/14 A2995 RMK AO2 SLP146 T02460141 CHINO RWY15 $
KLSV,2022-10-31T18:55:00Z,KLSV 311855Z AUTO 08010KT 10SM CLR 24/M06 A2998 RMK AO2 SLP139 T02351056
KLTS,2022-10-31T18:55:00Z,KLTS 311855Z 19005KT 10SM CLR 20/10 A3000 RMK AO2A SLP155 T02030098 $
KLUA,2022-10-31T19:35:00Z,KLUA 311935Z AUTO 20006KT 7SM -RA SCT033 SCT040 OVC047 15/15 A2999 RMK AO2 P0008
KLUD,2022-10-31T19:35:00Z,KLUD 311935Z AUTO 21004KT 10SM CLR 23/07 A3002 RMK AO2 T02320065
KLUF,2022-10-31T18:55:00Z,KLUF 311855Z AUTO 00000KT 10SM CLR 24/M01 A2993 RMK AO2 SLP129 T02411010 $
KLUG,2022-10-31T19:35:00Z,KLUG 311935Z AUTO 23008G14KT 10SM OVC065 18/14 A2995 RMK A01
KLUK,2022-10-31T18:53:00Z,KLUK 311853Z 21012KT 10SM SCT028 OVC075 19/14 A2988 RMK AO2 RAB28E40 SLP114 P0000 T01890139
KLUL,2022-10-31T19:35:00Z,KLUL 311935Z AUTO 34005KT 10SM BKN048 OVC050 23/12 A3000 RMK A02 T02270117
KLUM,2022-10-31T19:35:00Z,KLUM 311935Z AUTO 27005KT 10SM CLR 18/07 A2982 RMK AO2 T01830073 PWINO
KLUV,2022-10-31T19:35:00Z,KLUV 311935Z AUTO 16012KT 10SM CLR 20/06 A3005 RMK AO2
KLUX,2022-10-31T19:35:00Z,KLUX 311935Z AUTO 00000KT 1 1/2SM BR OVC003 16/16 A3000 RMK AO2
KLVJ,2022-10-31T18:53:00Z,KLVJ 311853Z AUTO 10SM CLR 25/12 A3002 RMK AO2 SLP165 T02500117
KLVK,2022-10-31T18:53:00Z,KLVK 311853Z 28004KT 10SM CLR 16/09 A2995 RMK AO2 SLP139 T01610089
KLVL,2022-10-31T19:35:00Z,KLVL 311935Z AUTO 15004KT 10SM CLR 23/15 A3002 RMK AO1 T02250152
KLVM,2022-10-31T18:53:00Z,KLVM 311853Z AUTO 22029G39KT 10SM CLR 16/M01 A2980 RMK AO2 PK WND 22048/1756 SLP066 T01611006
KLVN,2022-10-31T19:35:00Z,KLVN 311935Z AUTO 24005KT 10SM CLR 18/M03 A2983 RMK AO2
KLVS,2022-10-31T18:53:00Z,KLVS 311853Z AUTO 21010KT 10SM CLR 15/M05 A3009 RMK AO2 SLP123 T01501050
KLWA,2022-10-31T19:35:00Z,KLWA 311935Z AUTO 33004KT 1 3/4SM BR OVC001 14/13 A2980 RMK AO2 T01400132
KLWB,2022-10-31T18:50:00Z,KLWB 311850Z 00000KT 2SM RA OVC005 13/13 A3002
KLWC,2022-10-31T18:52:00Z,KLWC 311852Z AUTO 31008KT 10SM CLR 21/02 A2994 RMK AO1 SLP136 T02110022
KLWD,2022-10-31T18:53:00Z,KLWD 311853Z AUTO 32005KT 10SM CLR 19/02 A2991 RMK AO2 SLP128 T01890022
KLWM,2022-10-31T18:54:00Z,KLWM 311854Z 20007KT 10SM CLR 19/11 A2998 RMK AO2 SLP152 T01940106
KLWS,2022-10-31T18:56:00Z,KLWS 311856Z 06006KT 10SM OVC055 12/08 A2984 RMK AO2 RAB1758E30 SLP106 P0001 T01220083
KLWT,2022-10-31T18:54:00Z,KLWT 311854Z AUTO 22022G29KT 10SM CLR 14/01 A2975 RMK AO2 PK WND 23040/1830 SLP062 T01440006
KLWV,2022-10-31T19:38:00Z,KLWV 311938Z AUTO 26011KT 2 1/2SM HZ BKN021 OVC028 17/13 A2987 RMK AO2 T01720128 $
KLXL,2022-10-31T19:35:00Z,KLXL 311935Z AUTO 23008KT 10SM CLR 17/M01 A2979 RMK AO2
KLXN,2022-10-31T19:35:00Z,KLXN 311935Z AUTO 20009KT 10SM CLR 22/M05 A2988 RMK AO2 T02201046
KLXT,2022-10-31T18:53:00Z,KLXT 311853Z AUTO 32008KT 10SM CLR 19/03 A2994 RMK AO2 SLP136 T01940033
KLXV,2022-10-31T18:53:00Z,KLXV 311853Z AUTO 32007KT 10SM CLR 07/M14 A3017 RMK AO2 SLP144 T00721139
KLXY,2022-10-31T19:35:00Z,KLXY 311935Z AUTO 24006KT 10SM CLR 26/10 A3000 RMK AO2 T02550103
KLYH,2022-10-31T19:29:00Z,KLYH 311929Z 00000KT 3SM -RA BR BKN003 OVC009 15/13 A3003 RMK AO2 P0004 T01500133
KLYO,2022-10-31T19:35:00Z,KLYO 311935Z AUTO 00000KT 10SM CLR 21/M03 A2995 RMK AO2 T02121033
KLYV,2022-10-31T19:35:00Z,KLYV 311935Z AUTO 20008KT 10SM CLR 18/00 A2983 RMK AO2
KLZU,2022-10-31T19:03:00Z,KLZU 311903Z 10003KT 3SM BR OVC003 18/17 A2998 RMK AO2
KLZZ,2022-10-31T19:15:00Z,KLZZ 311915Z AUTO 15003KT 10SM CLR 23/09 A2999 RMK AO2 T02280092
KM01,2022-10-31T19:35:00Z,KM01 311935Z AUTO 26004KT 10SM SCT031 OVC049 20/14 A2993 RMK AO2 T02010138 $
KM02,2022-10-31T19:35:00Z,KM02 311935Z AUTO 22008KT 10SM SCT021 BKN029 OVC065 17/13 A2993 RMK A01
KM04,2022-10-31T19:35:00Z,KM04 311935Z AUTO 24008KT 10SM FEW029 SCT044 OVC050 19/13 A2994 RMK A01
KM08,2022-10-31T19:35:00Z,KM08 311935Z AUTO 25006G13KT 10SM FEW028 BKN034 OVC050 19/13 A2994 RMK A01
KM19,2022-10-31T18:56:00Z,KM19 311856Z AUTO 30008KT 10SM SCT038 OVC046 21/11 A2996 RMK AO2 SLP143 T02060111
KM21,2022-10-31T19:35:00Z,KM21 311935Z AUTO 21009KT 10SM SCT020 SCT027 OVC065 18/14 A2991 RMK AO2 T01800142
KM30,2022-10-31T19:35:00Z,KM30 311935Z AUTO 24005KT 10SM SCT024 SCT033 OVC055 17/15 A2991 RMK AO2 T01710145
KM40,2022-10-31T19:35:00Z,KM40 311935Z AUTO VRB06G12KT 10SM FEW030 FEW034 OVC060 21/15 A2999 RMK AO2
KM54,2022-10-31T19:30:00Z,KM54 311930Z AUTO 24007KT 10SM SCT026 BKN036 OVC065 18/14 A2992 RMK A01
KM75,2022-10-31T19:35:00Z,KM75 311935Z AUTO 22004KT 10SM CLR 18/02 A2963 RMK A01
KM91,2022-10-31T19:30:00Z,KM91 311930Z AUTO 22007KT 9SM FEW019 SCT037 BKN042 18/14 A2992 RMK A01
KMAE,2022-10-31T18:53:00Z,KMAE 311853Z AUTO 21003KT 9SM CLR 18/07 A2996 RMK AO2 SLP142 T01780067
KMAF,2022-10-31T18:53:00Z,KMAF 311853Z 16008KT 10SM CLR 21/09 A3004 RMK AO2 SLP143 T02060089
KMAI,2022-10-31T18:53:00Z,KMAI 311853Z AUTO VRB03KT 10SM BKN040 BKN048 24/17 A2998 RMK AO1 SLP150 T02440167
KMAN,2022-10-31T19:35:00Z,KMAN 311935Z AUTO 16004KT 10SM CLR 17/01 A2995 RMK A01
KMAO,2022-10-31T19:35:00Z,KMAO 311935Z AUTO 15006KT 10SM SCT029 SCT034 SCT049 24/18 A2998 RMK AO2
KMAW,2022-10-31T19:35:00Z,KMAW 311935Z AUTO 26008KT 10SM BKN039 OVC047 18/12 A2994 RMK AO1
KMBG,2022-10-31T18:52:00Z,KMBG 311852Z AUTO 00000KT 10SM CLR 18/M02 A2975 RMK AO2 SLP078 T01781022
KMBL,2022-10-31T18:56:00Z,KMBL 311856Z AUTO 30008KT 10SM CLR 16/08 A2980 RMK AO2 SLP094 T01560083
KMBO,2022-10-31T19:35:00Z,KMBO 311935Z AUTO 28008KT 10SM CLR 23/14 A2999 RMK AO2
KMBS,2022-10-31T19:30:00Z,KMBS 311930Z 00000KT 10SM SCT028 BKN045 OVC100 16/12 A2981 RMK AO2 T01610117
KMBT,2022-10-31T19:35:00Z,KMBT 311935Z AUTO 24010KT 10SM SCT030 BKN060 OVC070 19/12 A2993 RMK A01
KMBY,2022-10-31T19:35:00Z,KMBY 311935Z AUTO 27008KT 10SM CLR 19/05 A2991 RMK AO2
KMCB,2022-10-31T18:53:00Z,KMCB 311853Z AUTO 23006KT 10SM FEW047 22/11 A3001 RMK AO2 SLP159 T02220111
KMCC,2022-10-31T19:35:00Z,KMCC 311935Z AUTO 33004KT 10SM CLR 19/06 A2994 RMK AO2
KMCD,2022-10-31T19:35:00Z,KMCD 311935Z AUTO 23003KT 10SM CLR 15/05 A2978 RMK AO2 T01490053
KMCE,2022-10-31T18:53:00Z,KMCE 311853Z AUTO VRB03KT 9SM CLR 19/05 A2995 RMK AO2 SLP141 T01940050
KMCF,2022-10-31T18:55:00Z,KMCF 311855Z AUTO 26006KT 10SM CLR 30/20 A2992 RMK AO2 SLP135 T02950195 FZRANO $
KMCI,2022-10-31T18:53:00Z,KMCI 311853Z VRB03KT 9SM SCT160 SCT200 21/02 A2993 RMK AO2 SLP132 T02060017
KMCJ,2022-10-31T19:35:00Z,KMCJ 311935Z AUTO VRB04G10KT 10SM CLR 25/09 A2998 RMK A01
KMCK,2022-10-31T18:53:00Z,KMCK 311853Z AUTO VRB06KT 10SM CLR 19/M06 A2992 RMK AO2 SLP133 T01941056
KMCN,2022-10-31T18:53:00Z,KMCN 311853Z 20005KT 10SM FEW026 SCT034 BKN075 26/19 A2996 RMK AO2 SLP141 T02560194
KMCO,2022-10-31T18:53:00Z,KMCO 311853Z 06005KT 10SM FEW060 FEW200 31/19 A2995 RMK AO2 SLP140 T03110189
KMCW,2022-10-31T18:53:00Z,KMCW 311853Z AUTO 29008KT 10SM CLR 17/00 A2988 RMK AO2 SLP116 T01720000
KMDD,2022-10-31T19:35:00Z,KMDD 311935Z AUTO 15011KT 10SM CLR 22/07 A3003 RMK AO2 T02230069
KMDH,2022-10-31T19:40:00Z,KMDH 311940Z 29008KT 10SM BKN022 OVC031 16/12 A2991 RMK AO2 T01560117
KMDS,2022-10-31T19:35:00Z,KMDS 311935Z AUTO 22011KT 10SM CLR 19/01 A2980 RMK AO2
KMDT,2022-10-31T18:56:00Z,KMDT 311856Z 00000KT 9SM BKN021 OVC100 16/11 A2999 RMK AO2 SLP155 T01560111
KMDW,2022-10-31T18:53:00Z,KMDW 311853Z 36006KT 6SM BR OVC009 16/12 A2981 RMK AO2 SLP092 T01560122
KMDZ,2022-10-31T19:35:00Z,KMDZ 311935Z AUTO 22004KT 10SM CLR 16/04 A2981 RMK AO2 T01630044 PWINO
KMEB,2022-10-31T18:52:00Z,KMEB 311852Z AUTO 17009KT 10SM FEW037 SCT050 BKN060 26/18 A3000 RMK AO2 SLP155 T02610183
KMEH,2022-10-31T18:56:00Z,KMEH 311856Z AUTO 00000KT 10SM BKN046 OVC060 13/04 A2989 RMK AO2 SLP118 T01280044
KMEI,2022-10-31T18:58:00Z,KMEI 311858Z 25007KT 10SM BKN055 23/12 A3000 RMK AO2 SLP155 T02280122
KMEM,2022-10-31T19:14:00Z,KMEM 311914Z 24008KT 10SM SCT023 BKN038 21/13 A2996 RMK AO2 T02060128
KMER,2022-10-31T18:50:00Z,KMER 311850Z 21004KT 7SM FEW037 FEW050 SCT090 21/04 A2995
KMEV,2022-10-31T19:35:00Z,KMEV 311935Z AUTO 00000KT 10SM CLR 13/M08 A3004 RMK AO2
KMEZ,2022-10-31T19:35:00Z,KMEZ 311935Z AUTO 00000KT 10SM 22/08 A2999 RMK AO2 T02180084
KMFD,2022-10-31T19:03:00Z,KMFD 311903Z AUTO 20009KT 10SM SCT025 SCT035 OVC060 18/13 A2986 RMK AO2 T01780128
KMFE,2022-10-31T18:53:00Z,KMFE 311853Z 09010KT 10SM OVC050 26/14 A2993 RMK AO2 SLP135 T02610144
KMFI,2022-10-31T18:54:00Z,KMFI 311854Z AUTO 30008KT 10SM CLR 18/07 A2981 RMK AO2 SLP099 T01780067
KMFR,2022-10-31T18:53:00Z,KMFR 311853Z 00000KT 10SM CLR 12/06 A2998 RMK AO2 SLP154 T01170056
KMGC,2022-10-31T19:35:00Z,KMGC 311935Z AUTO 33004KT 5SM -RA OVC003 13/12 A2980 RMK AO2
KMGE,2022-10-31T18:55:00Z,KMGE 311855Z 24009KT 10SM BKN033 BKN250 22/13 A2995 RMK AO2A SLP138 T02210134 $
KMGG,2022-10-31T19:35:00Z,KMGG 311935Z AUTO 20006KT 10SM CLR 18/M03 A2982 RMK AO2 T01821034
KMGJ,2022-10-31T18:54:00Z,KMGJ 311854Z AUTO 20011KT 10SM FEW120 16/09 A2997 RMK AO2 SLP149 T01610094
KMGM,2022-10-31T18:53:00Z,KMGM 311853Z 26008G18KT 10SM OVC050 22/12 A3000 RMK AO2 SLP158 T02220117 $
KMGN,2022-10-31T19:35:00Z,KMGN 311935Z AUTO 22004KT 10SM CLR 13/07 A2979 RMK AO2 T01400075
KMGR,2022-10-31T19:35:00Z,KMGR 311935Z AUTO 21005KT 10SM SCT033 SCT048 26/18 A2997 RMK AO2
KMGW,2022-10-31T19:18:00Z,KMGW 311918Z 23004KT 10SM OVC015 18/15 A2994 RMK AO2 T01780150
KMGY,2022-10-31T19:14:00Z,KMGY 311914Z AUTO 20012KT 10SM SCT024 BKN030 OVC075 19/13 A2985 RMK AO2 T01890133
KMHE,2022-10-31T18:53:00Z,KMHE 311853Z AUTO 20008KT 10SM CLR 19/M02 A2981 RMK AO2 SLP099 T01891017
KMHK,2022-10-31T18:52:00Z,KMHK 311852Z VRB06KT 10SM CLR 21/01 A2995 RMK AO2 SLP140 T02060006
KMHL,2022-10-31T19:35:00Z,KMHL 311935Z AUTO 28006KT 10SM CLR 19/06 A2993 RMK AO2
KMHP,2022-10-31T19:35:00Z,KMHP 311935Z AUTO 21005KT 10SM BKN039 BKN060 BKN070 27/19 A2996 RMK AO2 T02720193
KMHR,2022-10-31T19:35:00Z,KMHR 311935Z AUTO 00000KT 10SM CLR 18/05 A2993 RMK A01
KMHS,2022-10-31T18:56:00Z,KMHS 311856Z AUTO 00000KT 10SM CLR 16/M01 A2998 RMK AO2 SLP162 T01611011
KMHT,2022-10-31T18:53:00Z,KMHT 311853Z 20010KT 10SM BKN150 BKN250 20/06 A2994 RMK AO2 SLP154 T02000061
KMHV,2022-10-31T19:40:00Z,KMHV 311940Z AUTO 13003KT 10SM CLR 21/M09 A3000 RMK A01
KMIA,2022-10-31T18:53:00Z,KMIA 311853Z 10011KT 10SM SCT031 31/23 A2993 RMK AO2 SLP134 T03060228
KMIB,2022-10-31T18:55:00Z,KMIB 311855Z AUTO 29013KT 10SM CLR 14/02 A2967 RMK AO2 SLP056 T01430022 $
KMIC,2022-10-31T18:53:00Z,KMIC 311853Z 21008KT 10SM CLR 17/M02 A2981 RMK AO2 SLP099 T01721022
KMIE,2022-10-31T19:40:00Z,KMIE 311940Z 25011KT 10SM BKN016 OVC023 17/13 A2983 RMK AO2 RAE14 P0000 T01720133
KMIV,2022-10-31T19:02:00Z,KMIV 311902Z AUTO 18004KT 10SM BKN029 18/12 A3002 RMK AO2 T01780122 $
KMIW,2022-10-31T18:53:00Z,KMIW 311853Z AUTO VRB06KT 9SM CLR 18/02 A2987 RMK AO2 SLP118 T01830017
KMJD,2022-10-31T19:35:00Z,KMJD 311935Z AUTO 00000KT 10SM BKN041 BKN047 BKN055 24/14 A2999 RMK AO2
KMJQ,2022-10-31T19:35:00Z,KMJQ 311935Z AUTO 24008KT 10SM CLR 18/M01 A2985 RMK AO2
KMKC,2022-10-31T18:54:00Z,KMKC 311854Z 30006KT 10SM CLR 19/03 A2993 RMK AO2 SLP132 T01940028
KMKE,2022-10-31T18:52:00Z,KMKE 311852Z 11004KT 10SM SCT024 BKN034 BKN250 16/09 A2981 RMK AO2 SLP095 T01560089
KMKG,2022-10-31T18:55:00Z,KMKG 311855Z 00000KT 10SM SCT050 SCT250 18/12 A2980 RMK AO2 SLP090 T01780117
KMKJ,2022-10-31T19:35:00Z,KMKJ 311935Z AUTO 02003KT 10SM BKN005 OVC037 15/14 A3002 RMK AO2 T01450135
KMKL,2022-10-31T18:53:00Z,KMKL 311853Z 24009KT 10SM FEW022 OVC043 18/13 A2996 RMK AO2 SLP142 T01780133
KMKN,2022-10-31T19:35:00Z,KMKN 311935Z AUTO 19006KT 10SM CLR 27/10 A3003 RMK AO2 T02670099
KMKO,2022-10-31T18:53:00Z,KMKO 311853Z AUTO 25003KT 10SM CLR 22/04 A3001 RMK AO2 SLP159 T02220044
KMKS,2022-10-31T19:35:00Z,KMKS 311935Z AUTO 21005KT 10SM -RA SCT034 SCT047 SCT055 26/18 A2998 RMK AO2
KMKT,2022-10-31T18:56:00Z,KMKT 311856Z AUTO VRB05KT 10SM CLR 17/00 A2985 RMK AO2 SLP114 T01670000
KMKY,2022-10-31T18:56:00Z,KMKY 311856Z AUTO 21008KT 10SM CLR 32/21 A2993 RMK AO2 SLP133 T03170211 TSNO $
KMLB,2022-10-31T18:53:00Z,KMLB 311853Z 08007KT 10SM CLR 28/23 A2995 RMK AO2 SLP141 T02830228
KMLC,2022-10-31T18:53:00Z,KMLC 311853Z AUTO 00000KT 9SM CLR 22/03 A3001 RMK AO2 SLP157 T02170033
KMLE,2022-10-31T19:35:00Z,KMLE 311935Z AUTO 23006KT 10SM CLR 20/00 A2990 RMK AO2 T02010001
KMLF,2022-10-31T18:52:00Z,KMLF 311852Z AUTO VRB03KT 10SM CLR 12/M03 A3013 RMK AO2 SLP192 T01221028 TSNO $
KMLI,2022-10-31T18:52:00Z,KMLI 311852Z 00000KT 10SM CLR 19/07 A2984 RMK AO2 SLP106 T01890072
KMLJ,2022-10-31T19:35:00Z,KMLJ 311935Z AUTO VRB04KT 10SM FEW024 SCT028 BKN080 25/20 A2995 RMK AO2
KMLP,2022-10-31T19:29:00Z,KMLP 311929Z AUTO VRB06KT 1/4SM -RA FG OVC002 02/02 A2979 RMK AO2 P0005 T00220017
KMLS,2022-10-31T18:53:00Z,KMLS 311853Z AUTO 26015G21KT 10SM CLR 18/00 A2975 RMK AO2 SLP071 T01780000
KMLT,2022-10-31T18:53:00Z,KMLT 311853Z AUTO 09004KT 10SM CLR 17/04 A2994 RMK AO2 SLP144 T01720044
KMLU,2022-10-31T18:53:00Z,KMLU 311853Z 10SM BKN048 26/13 A3000 RMK AO2 SLP160 T02560128
KMMH,2022-10-31T19:34:00Z,KMMH 311934Z AUTO 00000KT 10SM CLR 11/M14 A3013 RMK AO2
KMMI,2022-10-31T19:35:00Z,KMMI 311935Z AUTO 25006KT 10SM FEW026 SCT040 BKN047 19/14 A2998 RMK A01
KMMK,2022-10-31T18:53:00Z,KMMK 311853Z AUTO 17011KT 10SM CLR 19/09 A2999 RMK AO2 SLP156 T01890094
KMML,2022-10-31T18:56:00Z,KMML 311856Z AUTO 21010KT 10SM CLR 20/01 A2981 RMK AO2 SLP099 T02000011
KMMT,2022-10-31T18:55:00Z,KMMT 311855Z AUTO 19007KT 10SM SCT022 BKN032 26/21 A2996 RMK AO2 SLP147 T02560208 $
KMMU,2022-10-31T18:50:00Z,KMMU 311850Z 24008KT 10SM BKN029 BKN250 20/14 A3001
KMNE,2022-10-31T19:35:00Z,KMNE 311935Z AUTO 22004KT 10SM CLR 24/14 A3000 RMK AO2 T02430143
KMNH,2022-10-31T19:35:00Z,KMNH 311935Z AUTO 19004KT 10SM CLR 14/M30 A3004 RMK AO2
KMNI,2022-10-31T19:35:00Z,KMNI 311935Z AUTO 19005KT 10SM SCT031 SCT120 26/18 A2997 RMK AO2
KMNM,2022-10-31T18:56:00Z,KMNM 311856Z AUTO 14004KT 9SM CLR 16/07 A2979 RMK AO2 SLP090 T01610067 PNO $
KMNV,2022-10-31T19:35:00Z,KMNV 311935Z AUTO 27010KT 10SM 19/14 A2996 RMK A01
KMNZ,2022-10-31T19:35:00Z,KMNZ 311935Z AUTO 14004KT 7SM CLR 25/08 A3002 RMK AO2 T02460082
KMOB,2022-10-31T18:56:00Z,KMOB 311856Z 26004KT 10SM BKN045 BKN250 23/11 A3001 RMK AO2 SLP160 T02330111
KMOD,2022-10-31T18:53:00Z,KMOD 311853Z 21003KT 8SM CLR 16/06 A2995 RMK AO2 SLP140 T01560061
KMOP,2022-10-31T19:35:00Z,KMOP 311935Z AUTO 00000KT 10SM SCT014 OVC100 15/11 A2979 RMK AO2 T01500113
KMOR,2022-10-31T19:35:00Z,KMOR 311935Z AUTO 29010G16KT 250V330 10SM SCT018 BKN041 OVC070 19/16 A2993 RMK A01
KMOT,2022-10-31T18:54:00Z,KMOT 311854Z 22009KT 10SM CLR 14/02 A2970 RMK AO2 SLP062 T01440022
KMOX,2022-10-31T19:35:00Z,KMOX 311935Z AUTO 19007KT 10SM CLR 18/M04 A2978 RMK AO2
KMPO,2022-10-31T19:32:00Z,KMPO 311932Z AUTO 22008KT 10SM BKN017 OVC110 12/09 A2999 RMK AO2 T01220094
KMPR,2022-10-31T19:35:00Z,KMPR 311935Z AUTO 31003KT 10SM CLR 21/M02 A2995 RMK AO2 T02081024
KMPV,2022-10-31T18:51:00Z,KMPV 311851Z AUTO 17007KT 10SM CLR 17/02 A2996 RMK AO2 SLP151 T01670022
KMPZ,2022-10-31T19:30:00Z,KMPZ 311930Z AUTO 29004KT 10SM CLR 19/10 A2987 RMK AO2
KMQB,2022-10-31T19:40:00Z,KMQB 311940Z AUTO 31006KT 10SM CLR A2989 RMK AO2
KMQI,2022-10-31T19:35:00Z,KMQI 311935Z AUTO 13003KT 10SM OVC065 20/13 A3005 RMK AO2 T02030125
KMQJ,2022-10-31T19:35:00Z,KMQJ 311935Z AUTO 22006KT 7SM BKN009 OVC014 15/15 A2984 RMK AO1
KMQS,2022-10-31T19:35:00Z,KMQS 311935Z AUTO VRB04KT 10SM OVC011 15/14 A3002 RMK AO2
KMQW,2022-10-31T19:35:00Z,KMQW 311935Z AUTO 00000KT 10SM OVC028 26/20 A2996 RMK AO2 T02560201
KMQY,2022-10-31T18:56:00Z,KMQY 311856Z 23007KT 10SM BKN024 BKN032 OVC065 18/14 A2996 RMK AO2 SLP150 T01830139
KMRB,2022-10-31T18:53:00Z,KMRB 311853Z 00000KT 6SM -RA BR SCT036 BKN090 OVC110 13/12 A2997 RMK AO2 RAB29 SLP151 P0002 T01280117
KMRC,2022-10-31T19:30:00Z,KMRC 311930Z AUTO 22009KT 10SM SCT023 BKN042 OVC060 18/16 A2994 RMK A01
KMRF,2022-10-31T18:56:00Z,KMRF 311856Z AUTO 13007KT 10SM FEW090 18/06 A3008 RMK AO2 SLP145 T01830056
KMRH,2022-10-31T18:58:00Z,KMRH 311858Z AUTO 09006KT 10SM SCT022 BKN038 OVC055 22/16 A3004 RMK AO2 SLP174 T02170161
KMRJ,2022-10-31T19:35:00Z,KMRJ 311935Z AUTO 00000KT 10SM CLR 18/02 A2982 RMK AO2
KMRN,2022-10-31T19:35:00Z,KMRN 311935Z AUTO 00000KT 10SM OVC006 15/14 A3004 RMK AO2 T01500140
KMRT,2022-10-31T19:35:00Z,KMRT 311935Z AUTO 23013KT 10SM SCT023 SCT046 OVC070 18/12 A2987 RMK AO2 T01750124
KMRY,2022-10-31T18:54:00Z,KMRY 311854Z 31006KT 9SM BKN008 13/10 A2998 RMK AO2 SLP163 T01280100
KMSL,2022-10-31T18:53:00Z,KMSL 311853Z AUTO 24009KT 6SM HZ BKN039 OVC065 19/14 A2997 RMK AO2 SLP145 T01940139
KMSN,2022-10-31T18:53:00Z,KMSN 311853Z VRB03KT 10SM SCT250 18/05 A2982 RMK AO2 SLP097 T01830050
KMSO,2022-10-31T18:53:00Z,KMSO 311853Z 24011G25KT 10SM BKN047 OVC060 15/04 A2982 RMK AO2 SLP094 T01500044
KMSP,2022-10-31T18:53:00Z,KMSP 311853Z 26006KT 10SM FEW250 17/M03 A2983 RMK AO2 SLP104 T01721028
KMSS,2022-10-31T18:53:00Z,KMSS 311853Z AUTO 32004KT 10SM CLR 16/05 A2992 RMK AO2 SLP134 T01610050
KMSV,2022-10-31T18:56:00Z,KMSV 311856Z AUTO 15003KT 10SM BKN100 16/09 A2998 RMK AO2 SLP156 T01560094
KMSY,2022-10-31T18:53:00Z,KMSY 311853Z 33005KT 10SM SCT037 SCT050 BKN250 24/14 A3002 RMK AO2 SLP167 T02390139
KMTC,2022-10-31T19:18:00Z,KMTC 311918Z 00000KT 2SM BR OVC007 16/15 A2977 RMK AO2A SLP086
KMTH,2022-10-31T18:53:00Z,KMTH 311853Z AUTO 09008KT 10SM CLR 31/24 A2990 RMK AO2 SLP125 T03110239
KMTJ,2022-10-31T18:53:00Z,KMTJ 311853Z AUTO VRB03KT 10SM CLR 11/M01 A3015 RMK AO2 SLP185 T01061011
KMTK,2022-10-31T19:40:00Z,KMTK 311940Z AUTO VRB04KT 10SM CLR 23/14 A3001 RMK A01
KMTN,2022-10-31T18:48:00Z,KMTN 311848Z 13005KT 10SM OVC022 17/14 A3003
KMTO,2022-10-31T19:20:00Z,KMTO 311920Z AUTO 24004KT 10SM OVC009 14/12 A2985 RMK AO2 T01390117
KMTP,2022-10-31T18:54:00Z,KMTP 311854Z AUTO 00000KT 17/15 A3003 RMK AO1 SLP168 T01670150
KMTV,2022-10-31T19:35:00Z,KMTV 311935Z AUTO 00000KT 7SM RA OVC017 14/12 A3003 RMK AO2 P0005 T01360124
KMTW,2022-10-31T18:56:00Z,KMTW 311856Z AUTO 13006KT 10SM CLR 17/06 A2981 RMK AO2 SLP095 T01670056
KMUI,2022-10-31T18:55:00Z,KMUI 311855Z 00000KT 7SM FEW015 OVC025 14/10 A2998 RMK AO2A RAE14 SLP157 T01390101
KMUO,2022-10-31T18:56:00Z,KMUO 311856Z AUTO 09014KT 10SM CLR 15/M01 A2997 RMK AO2 SLP151 T01471014 $
KMUT,2022-10-31T19:35:00Z,KMUT 311935Z AUTO 29009KT 10SM CLR 20/05 A2986 RMK AO2
KMVE,2022-10-31T19:35:00Z,KMVE 311935Z AUTO 19004KT 10SM CLR 19/00 A2979 RMK AO2
KMVH,2022-10-31T19:35:00Z,KMVH 311935Z AUTO 25013G20KT 10SM CLR 16/M00 A2975 RMK AO2 PWINO
KMVL,2022-10-31T18:54:00Z,KMVL 311854Z AUTO 00000KT 10SM CLR 17/00 A2992 RMK AO2 SLP135 T01720000
KMVN,2022-10-31T18:56:00Z,KMVN 311856Z AUTO 25009KT 10SM BKN019 OVC026 16/12 A2989 RMK AO2 SLP125 T01560117
KMVY,2022-10-31T18:53:00Z,KMVY 311853Z 17007KT 10SM BKN009 OVC014 17/16 A3003 RMK AO2 RAB07E22 SLP168 P0000 T01720156
KMWA,2022-10-31T18:45:00Z,KMWA 311845Z 25006KT 10SM SCT019 BKN025 OVC033 16/13 A2990
KMWC,2022-10-31T18:45:00Z,KMWC 311845Z 00000KT 10SM FEW029 17/06 A2982
KMWH,2022-10-31T18:52:00Z,KMWH 311852Z 24007KT 10SM FEW055 BKN070 OVC085 13/07 A2979 RMK AO2 RAB35E49 SLP087 P0000 T01330072
KMWK,2022-10-31T19:35:00Z,KMWK 311935Z AUTO 00000KT 5SM RA OVC007 14/13 A3003 RMK AO2 T01390134
KMWL,2022-10-31T18:53:00Z,KMWL 311853Z AUTO 09004KT 10SM CLR 24/08 A3002 RMK AO2 SLP156 T02390078
KMWM,2022-10-31T19:35:00Z,KMWM 311935Z AUTO 20008G14KT 10SM CLR 19/M02 A2982 RMK AO2
KMWN,2022-10-31T18:51:00Z,KMWN 311851Z 25025KT 90SM OVC080 08/M12 RMK VIRGA DSNT ALQDS BINOVC
KMWO,2022-10-31T19:35:00Z,KMWO 311935Z AUTO 22012KT 10SM SCT029 BKN048 OVC075 19/12 A2987 RMK AO2 T01870125
KMWT,2022-10-31T18:53:00Z,KMWT 311853Z AUTO 00000KT 10SM CLR 22/09 A2997 RMK AO2 SLP142 T02220089 $
KMXF,2022-10-31T18:55:00Z,KMXF 311855Z AUTO 28007KT 10SM OVC050 22/09 A2998 RMK AO2 SLP154 T02190087
KMYF,2022-10-31T18:53:00Z,KMYF 311853Z 28003KT 10SM CLR 26/04 A2990 RMK AO2 SLP123 T02610039
KMYJ,2022-10-31T19:35:00Z,KMYJ 311935Z AUTO 27003KT 10SM CLR 19/09 A2990 RMK AO2
KMYL,2022-10-31T18:51:00Z,KMYL 311851Z AUTO 18011KT 10SM SCT110 13/M02 A2997 RMK AO2 SLP133 T01281017
KMYP,2022-10-31T19:35:00Z,KMYP 311935Z AUTO 24016G21KT 10SM CLR 00/M08 A3034 RMK AO2
KMYR,2022-10-31T18:56:00Z,KMYR 311856Z 09010KT 9SM FEW031 22/21 A3002 RMK AO2 SLP166 T02220206
KMYV,2022-10-31T18:53:00Z,KMYV 311853Z AUTO VRB05KT 10SM CLR 18/05 A2997 RMK AO2 SLP151 T01830050 $
KMYZ,2022-10-31T19:30:00Z,KMYZ 311930Z AUTO 00000KT 10SM CLR 20/00 A2993 RMK AO2
KMZH,2022-10-31T19:35:00Z,KMZH 311935Z AUTO 20007KT 10SM CLR 18/00 A2977 RMK AO2
KMZJ,2022-10-31T19:35:00Z,KMZJ 311935Z AUTO 00000KT 10SM CLR 25/M04 A2995 RMK AO2
KMZZ,2022-10-31T19:35:00Z,KMZZ 311935Z AUTO 22010KT 10SM SCT015 BKN027 OVC044 16/14 A2983 RMK AO2 T01560143
KN03,2022-10-31T19:35:00Z,KN03 311935Z AUTO 17006KT 10SM BKN041 OVC050 15/08 A2992 RMK AO2
KN38,2022-10-31T19:35:00Z,KN38 311935Z AUTO 20008KT 10SM OVC012 11/09 A2993 RMK AO2
KN60,2022-10-31T18:52:00Z,KN60 311852Z AUTO 24011KT 14/04 A2973 RMK AO1 SLP074 T01390039
KNAK,2022-10-31T18:54:00Z,KNAK 311854Z AUTO 18010KT 10SM OVC032 18/13 A3001 RMK AO2 SLP163 T01780133
KNBC,2022-10-31T18:56:00Z,KNBC 311856Z 17007KT 10SM SCT010 BKN050 26/19 A2998 RMK AO2 RAB12E24 SLP153 P0000 T02610194
KNBG,2022-10-31T18:55:00Z,KNBG 311855Z 04004KT 10SM BKN046 BKN055 24/14 A3001 RMK AO2 SLP161 T02440139 $
KNBT,2022-10-31T19:11:00Z,KNBT 311911Z AUTO 08005KT 10SM BKN024 OVC043 23/16 A3004 RMK AO2 T02330161
KNCA,2022-10-31T18:56:00Z,KNCA 311856Z 12007KT 10SM FEW029 24/19 A3002 RMK AO2 SLP167 T02440194
KNDZ,2022-10-31T18:56:00Z,KNDZ 311856Z 30004KT 10SM SCT041 SCT250 23/13 A2999 RMK AO2 SLP143 T02280133 $
KNEL,2022-10-31T19:00:00Z,KNEL 311900Z AUTO 25004KT BKN040 OVC110 19/12 A2999 RMK AO2 SLP153 T01940117 $
KNEW,2022-10-31T18:53:00Z,KNEW 311853Z 32005KT 10SM CLR 23/16 A3003 RMK AO2 SLP161 T02280161
KNFE,2022-10-31T18:56:00Z,KNFE 311856Z AUTO 16005KT 10SM FEW110 22/13 A3003 RMK AO2 SLP171 T02220133
KNFG,2022-10-31T18:52:00Z,KNFG 311852Z VRB06KT 10SM SCT150 26/06 A2989 RMK AO2 SLP122 T02610056 $
KNFL,2022-10-31T18:56:00Z,KNFL 311856Z 00000KT 10SM SCT100 BKN170 BKN200 13/M07 A3005 RMK AO2 SLP144 T01331067 $
KNFW,2022-10-31T18:52:00Z,KNFW 311852Z 07004KT 10SM FEW050 SCT250 24/10 A3003 RMK AO2 SLP153 T02390106 $
KNGP,2022-10-31T18:56:00Z,KNGP 311856Z 09012KT 10SM FEW025 BKN070 OVC095 27/16 A2998 RMK AO2 SLP152 T02670156
KNGU,2022-10-31T18:59:00Z,KNGU 311859Z AUTO VRB06KT 10SM SCT030 BKN070 BKN200 23/14 A3004 RMK AO2 SLP172 T02280144 $
KNHK,2022-10-31T18:53:00Z,KNHK 311853Z 13007KT 10SM BKN045 BKN070 BKN130 19/14 A3002 RMK AO2 T01940139 $
KNID,2022-10-31T18:56:00Z,KNID 311856Z 00000KT 10SM FEW180 BKN250 21/M08 A3000 RMK AO2 SLP150 T02111083 $
KNIP,2022-10-31T18:53:00Z,KNIP 311853Z COR 17008KT 10SM FEW038 BKN100 BKN250 29/20 A2997 RMK AO2 SLP144 T02890200
KNJK,2022-10-31T18:56:00Z,KNJK 311856Z VRB05KT 10SM FEW250 29/M03 A2991 RMK AO2 SLP143 T02891028 $
KNJM,2022-10-31T18:57:00Z,KNJM 311857Z AUTO 10006KT 8SM BKN050 24/17 A3004 RMK AO2 SLP176 T02440167
KNJW,2022-10-31T18:57:00Z,KNJW 311857Z AUTO 26008KT 10SM FEW043 OVC055 21/12 A3002 RMK AO2 SLP080 T02110117
KNKT,2022-10-31T18:56:00Z,KNKT 311856Z 09006KT 10SM SCT025 BKN050 24/17 A3004 RMK AO2 SLP169 T02390172
KNKX,2022-10-31T18:55:00Z,KNKX 311855Z 25007KT 10SM SCT250 26/02 A2990 RMK AO2 SLP120 T02610017 $
KNLC,2022-10-31T18:56:00Z,KNLC 311856Z 29003KT 8SM BKN140 BKN210 19/06 A2996 RMK AO2 SLP144 RH/42 T01890056
KNMM,2022-10-31T18:56:00Z,KNMM 311856Z 30008KT 10SM FEW035 BKN050 BKN070 22/12 A3000 RMK AO2 SLP167 T02220117
KNOG,2022-10-31T18:56:00Z,KNOG 311856Z AUTO 10010KT 10SM FEW060 OVC070 25/14 A2999 RMK AO2 SLP136 T02500139 PNO $
KNOW,2022-10-31T19:35:00Z,KNOW 311935Z AUTO 31017G22KT 10SM BKN065 OVC075 11/08 A2982 RMK AO2 T01090076
KNOZ,2022-10-31T18:59:00Z,KNOZ 311859Z AUTO 14003KT 10SM CLR 28/M04 A2989 RMK AO2 SLP071 T02831044 $
KNPA,2022-10-31T18:56:00Z,KNPA 311856Z VRB04KT 10SM SCT045 BKN250 25/13 A2999 RMK AO2 SLP158 T02500128
KNQA,2022-10-31T18:50:00Z,KNQA 311850Z 24008KT 10SM SCT023 BKN038 OVC046 18/13 A2995
KNQI,2022-10-31T18:56:00Z,KNQI 311856Z 13013KT 10SM SCT046 OVC070 26/15 A2998 RMK AO2 SLP147 T02610150 $
KNQX,2022-10-31T18:53:00Z,KNQX 311853Z 10009KT 10SM FEW018 33/24 A2991 RMK AO2 SLP127 T03280244 $
KNRB,2022-10-31T18:52:00Z,KNRB 311852Z 13011KT 10SM SCT030 BKN140 BKN250 28/22 A2998 RMK AO2 SLP150 T02780222
KNRN,2022-10-31T19:35:00Z,KNRN 311935Z AUTO 25011G16KT 10SM CLR 25/M02 A2992 RMK AO2
KNRS,2022-10-31T18:53:00Z,KNRS 311853Z 25007KT 10SM BKN250 22/09 A2991 RMK AO2 SLP127 T02220089
KNSE,2022-10-31T18:56:00Z,KNSE 311856Z VRB06G16KT 10SM SCT043 SCT250 24/12 A2999 RMK AO2 SLP142 T02390122 PNO $
KNSI,2022-10-31T18:53:00Z,KNSI 311853Z 00000KT 10SM BKN220 20/14 A2992 RMK SLP125 T02000139
KNTD,2022-10-31T18:55:00Z,KNTD 311855Z 21006KT 7SM SCT230 BKN290 20/14 A2992 RMK AO2 SLP133 T02000139
KNTU,2022-10-31T18:56:00Z,KNTU 311856Z 12006KT 10SM FEW080 SCT200 BKN250 21/13 A3002 RMK AO2 SLP169 T02060133
KNUC,2022-10-31T18:56:00Z,KNUC 311856Z 23004KT 8SM FEW006 SCT140 BKN250 17/14 A2994 RMK AO2 SLPNO T01670144 $
KNUI,2022-10-31T18:53:00Z,KNUI 311853Z AUTO VRB04KT 10SM FEW045 22/13 A3001 RMK AO2 SLP162 T02170133
KNUQ,2022-10-31T19:35:00Z,KNUQ 311935Z AUTO 34004KT 7SM CLR 16/11 A2994 RMK AO2
KNUW,2022-10-31T18:53:00Z,KNUW 311853Z 29028G34KT 10SM SCT025 BKN040 BKN065 11/07 A2982 RMK AO2 PK WND 29042/1756 RAE29 SLP097 P0000 T01110067 VISNO $
KNXF,2022-10-31T18:56:00Z,KNXF 311856Z AUTO 10SM 21/07 A2990 RMK AO2 SLP210 T02110072 PWINO $
KNXP,2022-10-31T18:56:00Z,KNXP 311856Z AUTO 00000KT 10SM CLR 24/M10 A3005 RMK AO2 SLP147 T02441100 $
KNY0,2022-10-31T19:34:00Z,KNY0 311934Z AUTO 16004KT 10SM SCT050 14/04 A2995 RMK AO2
KNYC,2022-10-31T18:51:00Z,KNYC 311851Z AUTO VRB06KT 10SM FEW031 BKN120 18/10 A3003 RMK AO2 SLP159 T01780100 $
KNYG,2022-10-31T19:26:00Z,KNYG 311926Z 19004KT 10SM BKN029 OVC060 19/15 A3001 RMK AO2 RAB08E17 P0000 T01890150 $
KNYL,2022-10-31T18:57:00Z,KNYL 311857Z 02007KT 7SM CLR 27/M01 A2989 RMK AO2 SLP119 T02671006 $
KNZY,2022-10-31T18:52:00Z,KNZY 311852Z 20006KT 10SM SCT250 23/08 A2989 RMK AO2 SLP122 T02280078 $
KO05,2022-10-31T19:35:00Z,KO05 311935Z AUTO 00000KT 5SM HZ CLR 12/M05 A3004 RMK A01
KO22,2022-10-31T19:35:00Z,KO22 311935Z AUTO 00000KT 10SM CLR 20/00 A2995 RMK A01
KO32,2022-10-31T19:35:00Z,KO32 311935Z AUTO 25004KT 10SM FEW230 19/07 A2992 RMK AO2 T01930073 $
KO69,2022-10-31T19:35:00Z,KO69 311935Z AUTO VRB04KT 9SM CLR 15/10 A2995 RMK A01
KOAJ,2022-10-31T18:56:00Z,KOAJ 311856Z 11006KT 9SM OVC028 25/19 A3002 RMK AO2 SLP169 T02500189
KOAK,2022-10-31T18:53:00Z,KOAK 311853Z 20004KT 10SM BKN200 BKN250 15/11 A2996 RMK AO2 SLP146 T01500111
KOAR,2022-10-31T19:35:00Z,KOAR 311935Z AUTO 00000KT 10SM CLR M01/M06 A2996 RMK AO2 PWINO
KOBE,2022-10-31T19:35:00Z,KOBE 311935Z AUTO VRB04KT 10SM CLR 31/25 A2992 RMK AO2
KOCF,2022-10-31T18:51:00Z,KOCF 311851Z VRB03KT 10SM SCT047 BKN060 30/19 A2997 RMK AO2 SLP147 T03000194 PNO $
KOCH,2022-10-31T18:56:00Z,KOCH 311856Z AUTO 23006KT CLR 23/13 A3003 RMK AO2 RAB32RAEMM SLP171 P0000 T02280128 PWINO RVRNO $
KOCQ,2022-10-31T19:35:00Z,KOCQ 311935Z AUTO 17006KT 10SM CLR 17/07 A2978 RMK AO1 T01670069
KOCW,2022-10-31T19:15:00Z,KOCW 311915Z AUTO 00000KT 10SM SCT050 SCT070 24/16 A3003 RMK AO2 T02380159
KODO,2022-10-31T18:53:00Z,KODO 311853Z AUTO 15011KT 10SM CLR 20/08 A3006 RMK AO2 SLP149 T02000078
KODX,2022-10-31T18:53:00Z,KODX 311853Z AUTO 20010KT 10SM CLR 21/M02 A2986 RMK AO2 SLP115 T02111017
KOEB,2022-10-31T19:35:00Z,KOEB 311935Z AUTO 26004KT 5SM -DZ BKN007 BKN014 OVC060 15/14 A2981 RMK AO2 T01500142
KOEL,2022-10-31T19:35:00Z,KOEL 311935Z AUTO 21008KT 10SM CLR 22/M07 A2993 RMK AO1 T02231067
KOEO,2022-10-31T19:35:00Z,KOEO 311935Z AUTO 24006KT 10SM CLR 18/02 A2984 RMK AO2 T01820020
KOFF,2022-10-31T18:55:00Z,KOFF 311855Z 22004KT 10SM CLR 19/M01 A2993 RMK AO2A SLP140 T01931012 PWINO PNO FZRANO TSNO $
KOFK,2022-10-31T18:56:00Z,KOFK 311856Z AUTO 21013KT 10SM CLR 22/M02 A2986 RMK AO2 SLP112 T02171017
KOFP,2022-10-31T18:54:00Z,KOFP 311854Z AUTO 19005KT 10SM BKN030 BKN080 22/14 A3002 RMK AO2 SLP166 T02170139
KOGA,2022-10-31T19:35:00Z,KOGA 311935Z AUTO 29010G17KT 250V310 10SM CLR 21/M06 A2990 RMK AO2 T02111056
KOGB,2022-10-31T18:53:00Z,KOGB 311853Z AUTO 20010KT 10SM CLR 27/19 A2998 RMK AO2 SLP149 T02670189
KOGD,2022-10-31T18:53:00Z,KOGD 311853Z 23005KT 10SM CLR 14/M03 A3011 RMK AO2 SLP178 T01391028
KOGS,2022-10-31T19:35:00Z,KOGS 311935Z AUTO 21004KT 10SM BKN110 15/05 A2988 RMK AO2
KOIC,2022-10-31T19:35:00Z,KOIC 311935Z AUTO 18007KT 10SM OVC100 15/09 A2996 RMK AO2 T01520089
KOIN,2022-10-31T19:35:00Z,KOIN 311935Z AUTO 26008KT 10SM CLR 22/M02 A2995 RMK AO1 T02221017
KOJA,2022-10-31T19:35:00Z,KOJA 311935Z AUTO 24008KT 10SM CLR 23/05 A3000 RMK AO2 T02310049
KOJC,2022-10-31T18:53:00Z,KOJC 311853Z VRB05KT 10SM CLR 20/03 A2994 RMK AO2 SLP133 T02000033
KOKB,2022-10-31T18:52:00Z,KOKB 311852Z AUTO 23006KT 10SM CLR 24/10 A2989 RMK AO2 SLP122 T02390100
KOKC,2022-10-31T18:52:00Z,KOKC 311852Z 23005KT 10SM SCT250 22/03 A3001 RMK AO2 SLP156 T02170028
KOKK,2022-10-31T18:56:00Z,KOKK 311856Z AUTO 22013KT 10SM BKN015 OVC032 16/ A2982 RMK AO2 RAE1759B16E28 SLPNO T0161 PNO $
KOKM,2022-10-31T19:35:00Z,KOKM 311935Z AUTO 28005KT 10SM CLR 23/M02 A2998 RMK AO2 T02331022
KOKV,2022-10-31T19:35:00Z,KOKV 311935Z AUTO 00000KT 5SM RA SCT046 SCT070 OVC100 13/12 A2997 RMK AO2
KOKZ,2022-10-31T19:35:00Z,KOKZ 311935Z AUTO 22005KT 10SM BKN027 OVC035 24/19 A2996 RMK AO2 T02450188
KOLE,2022-10-31T19:35:00Z,KOLE 311935Z AUTO 21005KT 3SM BR OVC003 11/11 A2991 RMK AO2
KOLF,2022-10-31T18:53:00Z,KOLF 311853Z AUTO 00000KT 10SM CLR 14/02 A2969 RMK AO2 SLP062 T01440022 $
KOLG,2022-10-31T19:35:00Z,KOLG 311935Z AUTO 21008KT 10SM CLR 16/M05 A2979 RMK AO1
KOLM,2022-10-31T18:54:00Z,KOLM 311854Z 20007KT 10SM BKN027 11/09 A2988 RMK AO2 SLP117 T01110089
KOLU,2022-10-31T18:56:00Z,KOLU 311856Z AUTO 19012KT 10SM CLR 22/M01 A2990 RMK AO2 SLP127 T02171011
KOLV,2022-10-31T18:50:00Z,KOLV 311850Z 25009KT 10SM SCT028 SCT032 BKN041 20/12 A2996
KOLY,2022-10-31T19:35:00Z,KOLY 311935Z AUTO 24004KT 10SM BKN019 BKN024 OVC033 17/12 A2988 RMK AO2 T01660120
KOLZ,2022-10-31T19:35:00Z,KOLZ 311935Z AUTO 29007KT 9SM CLR 17/04 A2985 RMK A01
KOMA,2022-10-31T18:52:00Z,KOMA 311852Z 21007KT 10SM FEW250 19/01 A2991 RMK AO2 SLP127 T01890011
KOMH,2022-10-31T19:35:00Z,KOMH 311935Z AUTO 22004KT 10SM RA BKN022 BKN075 OVC110 14/14 A3003 RMK AO2 P0002
KOMK,2022-10-31T18:53:00Z,KOMK 311853Z AUTO 15012KT 10SM CLR 14/06 A2967 RMK AO2 SLP048 T01390061
KOMN,2022-10-31T18:50:00Z,KOMN 311850Z 05005KT 10SM SCT013 28/22 A2997
KONA,2022-10-31T19:35:00Z,KONA 311935Z AUTO 00000KT 10SM CLR 18/05 A2982 RMK AO2
KONL,2022-10-31T19:35:00Z,KONL 311935Z AUTO 17010KT 10SM CLR 22/M06 A2983 RMK AO2 T02161061
KONM,2022-10-31T19:35:00Z,KONM 311935Z AUTO 35006KT 10SM CLR 17/M06 A3007 RMK AO2 T01661059
KONO,2022-10-31T18:53:00Z,KONO 311853Z AUTO 00000KT 10SM CLR 11/01 A3001 RMK AO2 SLP171 T01110011
KONT,2022-10-31T18:53:00Z,KONT 311853Z 00000KT 10SM BKN270 27/M02 A2991 RMK AO2 SLP117 T02671017
KONX,2022-10-31T19:35:00Z,KONX 311935Z AUTO 10004KT 10SM SCT110 21/12 A3003 RMK AO2 T02070119
KONZ,2022-10-31T19:35:00Z,KONZ 311935Z AUTO 22004KT 1 1/4SM -RA BKN007 OVC010 15/12 A2980 RMK AO2 T01460118 P0001
KOOA,2022-10-31T19:35:00Z,KOOA 311935Z AUTO 28007KT 10SM CLR 20/11 A2988 RMK AO2 T01960105
KOPF,2022-10-31T18:53:00Z,KOPF 311853Z 11010KT 10SM FEW031 31/22 A2993 RMK AO2 SLP136 T03060222
KOPL,2022-10-31T19:35:00Z,KOPL 311935Z AUTO 00000KT 10SM CLR 25/11 A3000 RMK AO2 T02490105
KOPN,2022-10-31T19:35:00Z,KOPN 311935Z AUTO 22007KT 10SM SCT030 BKN043 OVC055 26/16 A2999 RMK AO2
KOQN,2022-10-31T19:35:00Z,KOQN 311935Z AUTO 16003KT 10SM OVC019 16/12 A3001 RMK AO2
KOQT,2022-10-31T19:33:00Z,KOQT 311933Z AUTO VRB03KT 10SM SCT019 SCT045 BKN065 19/15 A2996 RMK AO2 T01940150
KORB,2022-10-31T19:33:00Z,KORB 311933Z AUTO 22007G14KT 10SM CLR 17/00 A2967 RMK AO2
KORD,2022-10-31T19:21:00Z,KORD 311921Z 02003KT 2 1/2SM BR OVC005 14/12 A2981 RMK AO2 T01390117
KORE,2022-10-31T18:52:00Z,KORE 311852Z AUTO VRB04KT 10SM CLR 17/08 A2999 RMK AO2 SLP157 T01720078
KORF,2022-10-31T18:51:00Z,KORF 311851Z 16006KT 10SM CLR 22/14 A3002 RMK AO2 SLP166 T02220144
KORG,2022-10-31T19:35:00Z,KORG 311935Z AUTO 00000KT 10SM SCT050 26/12 A3002 RMK AO2 T02630115
KORH,2022-10-31T18:54:00Z,KORH 311854Z COR 22011KT 10SM CLR 18/10 A2998 RMK AO2 SLP154 T01780100
KORL,2022-10-31T18:53:00Z,KORL 311853Z COR 14005KT 10SM SCT046 SCT055 31/21 A2996 RMK AO2 SLP146 T03110206
KORS,2022-10-31T19:35:00Z,KORS 311935Z AUTO 20007G12KT 10SM FEW055 11/06 A2980 RMK AO2
KOSA,2022-10-31T19:35:00Z,KOSA 311935Z AUTO 20005KT 10SM CLR 23/09 A3001 RMK AO2 T02340093
KOSC,2022-10-31T19:35:00Z,KOSC 311935Z AUTO 10007KT 10SM SCT030 16/09 A2978 RMK AO2 T01620091
KOSH,2022-10-31T18:53:00Z,KOSH 311853Z VRB03KT 8SM CLR 17/07 A2980 RMK AO2 SLP092 T01670067
KOTG,2022-10-31T18:56:00Z,KOTG 311856Z AUTO 22012KT 10SM CLR 18/00 A2985 RMK AO2 SLP116 T01780000
KOTH,2022-10-31T18:56:00Z,KOTH 311856Z 14010KT 10SM OVC016 15/12 A2999 RMK AO2 SLP154 T01500117
KOTM,2022-10-31T18:53:00Z,KOTM 311853Z AUTO 27008KT 10SM CLR 18/07 A2988 RMK AO2 SLP119 T01780067
KOUN,2022-10-31T18:47:00Z,KOUN 311847Z 00000KT 10SM CLR 22/04 A3000
KOVE,2022-10-31T18:53:00Z,KOVE 311853Z AUTO 26003KT 10SM CLR 18/06 A2998 RMK AO2 SLP152 T01780056
KOVL,2022-10-31T19:35:00Z,KOVL 311935Z AUTO 21010KT 7SM CLR 19/M02 A2980 RMK AO2
KOVS,2022-10-31T18:53:00Z,KOVS 311853Z AUTO 29004KT 10SM CLR 19/06 A2983 RMK AO2 SLP104 T01890056
KOWA,2022-10-31T19:33:00Z,KOWA 311933Z AUTO 23005KT 10SM CLR 17/02 A2984 RMK AO2
KOWB,2022-10-31T18:56:00Z,KOWB 311856Z 23015G18KT 10SM SCT028 BKN047 OVC080 19/14 A2988 RMK AO2 SLP116 T01940139
KOWD,2022-10-31T18:53:00Z,KOWD 311853Z 22010KT 10SM BKN030 19/13 A2999 RMK AO2 SLP156 T01940128
KOWP,2022-10-31T19:35:00Z,KOWP 311935Z AUTO 25006KT 10SM CLR 24/02 A3000 RMK AO2 T02400018
KOWX,2022-10-31T19:35:00Z,KOWX 311935Z AUTO 23006G14KT 10SM OVC065 18/12 A2984 RMK AO1
KOXB,2022-10-31T18:53:00Z,KOXB 311853Z AUTO 19005KT 10SM 18/13 A3003 RMK AO2 SLP169 T01780133
KOXC,2022-10-31T18:51:00Z,KOXC 311851Z 18007KT 160V240 10SM BKN120 18/10 A3000 RMK AO2 SLP171 T01830100
KOXD,2022-10-31T19:35:00Z,KOXD 311935Z AUTO 22009KT 10SM BKN023 BKN033 OVC046 20/13 A2986 RMK AO2 T02000131
KOXI,2022-10-31T19:35:00Z,KOXI 311935Z AUTO 30005KT 10SM SCT008 BKN017 OVC030 15/15 A2979 RMK AO1
KOXR,2022-10-31T18:51:00Z,KOXR 311851Z 00000KT 10SM CLR 20/13 A2991 RMK AO2 SLP127 T02000133 $
KOXV,2022-10-31T19:35:00Z,KOXV 311935Z AUTO 29009KT 260V320 10SM CLR 18/01 A2988 RMK AO2
KOYM,2022-10-31T19:35:00Z,KOYM 311935Z AUTO 13003KT 5SM OVC003 12/11 A2996 RMK AO2 PWINO
KOZA,2022-10-31T19:35:00Z,KOZA 311935Z AUTO 17005G09KT 10SM SCT047 BKN065 22/08 A3002 RMK AO2
KOZR,2022-10-31T18:55:00Z,KOZR 311855Z AUTO 00000KT 10SM CLR 24/13 A2997 RMK AO2 SLP149 T02440130
KOZS,2022-10-31T19:35:00Z,KOZS 311935Z AUTO 30008KT 10SM CLR 20/04 A2994 RMK AO2
KOZW,2022-10-31T19:35:00Z,KOZW 311935Z AUTO 25003KT 10SM OVC005 15/14 A2980 RMK AO2 T01540141
KP08,2022-10-31T19:35:00Z,KP08 311935Z AUTO 26007KT 10SM CLR 23/00 A2994 RMK AO2
KP28,2022-10-31T18:56:00Z,KP28 311856Z AUTO 00000KT 21/M03 A2997 RMK AO1 SLP144 T02111028
KP53,2022-10-31T18:56:00Z,KP53 311856Z AUTO 04010KT 11/08 A2978 RMK AO1 SLP087 T01060083
KP58,2022-10-31T18:55:00Z,KP58 311855Z AUTO 04004KT 12/12 A2980 RMK AO1 SLP092 T01220117
KP59,2022-10-31T18:51:00Z,KP59 311851Z AUTO 36007KT 11/08 A2976 RMK AO1 SLP080 T01110083
KP60,2022-10-31T18:56:00Z,KP60 311856Z AUTO 04/M03 A3010 RMK AO1 SLP179 T00391028
KP68,2022-10-31T18:53:00Z,KP68 311853Z AUTO 00000KT 13/M05 A3011 RMK AO1 SLP169 T01281050
KP69,2022-10-31T18:52:00Z,KP69 311852Z AUTO 00000KT 08/07 A2991 RMK AO1 SLP133 T00830067
KP92,2022-10-31T18:59:00Z,KP92 311859Z AUTO 24006KT 22/16 A3000 RMK AO1 SLP159 T02170156
KPAE,2022-10-31T18:53:00Z,KPAE 311853Z VRB04KT 10SM OVC034 10/07 A2983 RMK AO2 RAE03 SLP104 P0000 T01000067
KPAH,2022-10-31T18:53:00Z,KPAH 311853Z VRB05KT 10SM FEW022 SCT030 BKN046 18/14 A2990 RMK AO2 RAB08E22 SLP123 P0000 T01780139 $
KPAM,2022-10-31T18:55:00Z,KPAM 311855Z 32007KT 10SM BKN041 24/15 A2998 RMK AO2A SLP155 T02430149 $
KPAN,2022-10-31T19:35:00Z,KPAN 311935Z AUTO 00000KT 3SM HZ CLR 18/M08 A3008 RMK AO2 PWINO TSNO
KPBF,2022-10-31T18:53:00Z,KPBF 311853Z AUTO 00000KT 10SM SCT041 23/11 A2998 RMK AO2 SLP149 T02280111
KPBG,2022-10-31T18:53:00Z,KPBG 311853Z AUTO 13007KT 10SM CLR 14/06 A2991 RMK AO2 SLP130 T01440061
KPBH,2022-10-31T19:35:00Z,KPBH 311935Z AUTO 24004KT 10SM CLR 17/00 A2979 RMK AO2 T01671005
KPBI,2022-10-31T18:53:00Z,KPBI 311853Z 14013KT 10SM SCT025 SCT100 SCT250 30/23 A2994 RMK AO2 SLP136 T03000233
KPBX,2022-10-31T19:35:00Z,KPBX 311935Z AUTO 23004KT 3SM BR SCT014 BKN036 OVC065 16/16 A2994 RMK AO2 T01560156
KPCD,2022-10-31T19:35:00Z,KPCD 311935Z AUTO 31004KT 10SM OVC021 15/13 A2991 RMK AO2 T01520129
KPCM,2022-10-31T19:35:00Z,KPCM 311935Z AUTO 10003KT 10SM OVC050 33/20 A2997 RMK AO2
KPCW,2022-10-31T19:35:00Z,KPCW 311935Z AUTO 23011G16KT 9SM FEW024 FEW030 OVC075 18/16 A2981 RMK AO2
KPCZ,2022-10-31T19:35:00Z,KPCZ 311935Z AUTO 26008KT 10SM CLR 20/04 A2980 RMK AO2 T01980036
KPDC,2022-10-31T19:35:00Z,KPDC 311935Z AUTO 00000KT 10SM CLR 18/05 A2983 RMK AO2 T01810046
KPDK,2022-10-31T18:53:00Z,KPDK 311853Z 00000KT 10SM BKN010 BKN032 OVC048 21/17 A2997 RMK AO2 SLP140 T02060167
KPDT,2022-10-31T18:53:00Z,KPDT 311853Z 29007KT 10SM FEW060 OVC075 14/08 A2987 RMK AO2 RAE10B34E45 SLP107 P0000 T01390078
KPDX,2022-10-31T18:53:00Z,KPDX 311853Z 20004KT 6SM -RA BR FEW015 SCT045 OVC065 13/12 A2993 RMK AO2 SLP134 P0003 T01330117
KPEA,2022-10-31T19:35:00Z,KPEA 311935Z AUTO 25006KT 10SM CLR 18/03 A2988 RMK AO2 T01780026
KPEO,2022-10-31T18:53:00Z,KPEO 311853Z AUTO 00000KT 10SM BKN060 OVC110 17/08 A2990 RMK AO2 SLP125 T01670083
KPEQ,2022-10-31T19:35:00Z,KPEQ 311935Z AUTO 12007KT 10SM CLR 22/08 A3000 RMK AO2 T02170080
KPEX,2022-10-31T19:35:00Z,KPEX 311935Z AUTO 21008KT 10SM CLR 18/M01 A2980 RMK AO2
KPEZ,2022-10-31T19:35:00Z,KPEZ 311935Z AUTO 10006KT 10SM BKN080 28/11 A2998 RMK AO2 T02830110
KPGD,2022-10-31T18:53:00Z,KPGD 311853Z 08003KT 10SM FEW075 32/20 A2994 RMK AO2 SLP136 T03220200
KPGV,2022-10-31T19:35:00Z,KPGV 311935Z AUTO 17004KT 10SM SCT045 BKN050 26/18 A3001 RMK AO2
KPHD,2022-10-31T18:53:00Z,KPHD 311853Z AUTO 16008KT 10SM FEW022 SCT028 BKN070 19/14 A2988 RMK AO2 SLP116 T01890144
KPHF,2022-10-31T18:54:00Z,KPHF 311854Z 19009KT 10SM CLR 22/13 A3003 RMK AO2 SLP168 T02170133
KPHL,2022-10-31T18:54:00Z,KPHL 311854Z 24006KT 10SM -RA BKN026 BKN070 OVC100 17/12 A3001 RMK AO2 RAB41 SLP163 P0000 T01720117 $
KPHN,2022-10-31T19:35:00Z,KPHN 311935Z AUTO 23004KT 10SM OVC006 16/14 A2979 RMK AO2
KPHP,2022-10-31T18:55:00Z,KPHP 311855Z AUTO 28003KT 10SM CLR 19/M03 A2981 RMK AO2 SLP097 T01891033
KPHT,2022-10-31T19:35:00Z,KPHT 311935Z AUTO 25010G17KT 9SM BKN024 OVC030 17/13 A2992 RMK A01
KPHX,2022-10-31T18:51:00Z,KPHX 311851Z 00000KT 10SM CLR 23/M01 A2994 RMK AO2 SLP126 T02331011
KPIA,2022-10-31T19:40:00Z,KPIA 311940Z 35007KT 10SM BKN015 16/12 A2985 RMK AO2 T01610117
KPIB,2022-10-31T18:56:00Z,KPIB 311856Z AUTO VRB05KT 10SM FEW044 SCT055 23/14 A3002 RMK AO2 SLP163 T02330139
KPIE,2022-10-31T18:53:00Z,KPIE 311853Z 00000KT 10SM CLR 29/19 A2996 RMK AO2 SLP145 T02940194
KPIH,2022-10-31T18:53:00Z,KPIH 311853Z 20011G22KT 10SM FEW060 15/M03 A3007 RMK AO2 SLP171 T01501028
KPIL,2022-10-31T18:53:00Z,KPIL 311853Z AUTO 09009KT 10SM OVC070 27/18 A2994 RMK AO2 SLP137 T02670183
KPIM,2022-10-31T19:35:00Z,KPIM 311935Z AUTO 25007KT 10SM SCT039 22/12 A2999 RMK AO2 T02200119
KPIR,2022-10-31T18:53:00Z,KPIR 311853Z AUTO 30006KT 10SM CLR 18/M03 A2980 RMK AO2 SLP094 T01831028
KPIT,2022-10-31T18:51:00Z,KPIT 311851Z 20007KT 10SM OVC012 17/14 A2990 RMK AO2 SLP132 T01670139
KPKB,2022-10-31T19:31:00Z,KPKB 311931Z 16007KT 10SM BKN016 BKN027 BKN080 19/16 A2991 RMK AO2 T01890161
KPKD,2022-10-31T18:53:00Z,KPKD 311853Z AUTO 23009KT 10SM CLR 17/M01 A2974 RMK AO2 SLP079 T01671006
KPKV,2022-10-31T19:35:00Z,KPKV 311935Z AUTO 13010KT 10SM CLR 27/13 A2999 RMK AO2 T02730134
KPLN,2022-10-31T18:54:00Z,KPLN 311854Z AUTO 15004KT 10SM CLR 18/04 A2979 RMK AO2 SLP092 T01780044
KPLR,2022-10-31T19:35:00Z,KPLR 311935Z AUTO 00000KT 10SM BKN050 OVC055 20/14 A3000 RMK A01
KPLU,2022-10-31T19:35:00Z,KPLU 311935Z AUTO 23006G11KT 10SM BKN060 BKN070 11/10 A2989 RMK AO2
KPMD,2022-10-31T18:53:00Z,KPMD 311853Z 00000KT 10SM CLR 20/M06 A3002 RMK AO2 SLP152 T02001061
KPMH,2022-10-31T19:35:00Z,KPMH 311935Z AUTO 17005KT 10SM SCT033 SCT039 OVC065 21/13 A2989 RMK AO2 T02100132
KPMP,2022-10-31T18:53:00Z,KPMP 311853Z 13012KT 10SM SCT025 31/23 A2993 RMK AO2 SLP134 T03060233
KPMU,2022-10-31T19:35:00Z,KPMU 311935Z AUTO 23006KT 10SM BKN033 BKN040 22/13 A2996 RMK AO2
KPMV,2022-10-31T19:35:00Z,KPMV 311935Z AUTO 23004KT 10SM CLR 20/00 A2991 RMK AO2 T02001005 PWINO
KPNA,2022-10-31T19:35:00Z,KPNA 311935Z AUTO 29011G16KT 10SM CLR 10/M03 A3008 RMK AO2
KPNC,2022-10-31T18:53:00Z,KPNC 311853Z AUTO VRB05KT 10SM CLR 22/M01 A2998 RMK AO2 SLP148 T02171006
KPNE,2022-10-31T18:54:00Z,KPNE 311854Z 17005KT 10SM BKN025 18/11 A3001 RMK AO2 SLP161 T01780111
KPNM,2022-10-31T19:35:00Z,KPNM 311935Z AUTO 20006KT 10SM CLR 18/M02 A2981 RMK AO2 TSNO
KPNS,2022-10-31T18:53:00Z,KPNS 311853Z 18003KT 10SM BKN045 23/13 A2999 RMK AO2 SLP158 T02330133
KPNT,2022-10-31T19:35:00Z,KPNT 311935Z AUTO 31008KT 10SM OVC008 14/14 A2984 RMK AO2 T01370137
KPOB,2022-10-31T18:55:00Z,KPOB 311855Z AUTO 18004KT 10SM FEW029 BKN038 BKN046 BKN150 24/16 A2999 RMK AO2 SLP157 T02360164 $
KPOC,2022-10-31T18:47:00Z,KPOC 311847Z 00000KT 10SM CLR A2993
KPOE,2022-10-31T18:55:00Z,KPOE 311855Z AUTO 00000KT 10SM CLR 24/11 A3000 RMK AO2 SLP160 T02370107
KPOF,2022-10-31T18:53:00Z,KPOF 311853Z AUTO 30008KT 10SM SCT036 OVC049 18/11 A2993 RMK AO2 SLP132 T01830106 $
KPOU,2022-10-31T18:53:00Z,KPOU 311853Z VRB03KT 10SM FEW110 17/09 A2998 RMK AO2 SLP147 T01720094
KPOV,2022-10-31T19:35:00Z,KPOV 311935Z AUTO 19004KT 10SM SCT026 SCT035 OVC055 18/12 A2985 RMK AO2 T01770117 PWINO
KPOY,2022-10-31T19:35:00Z,KPOY 311935Z AUTO 24013KT 10SM CLR 13/M05 A2988 RMK AO2
KPPA,2022-10-31T19:35:00Z,KPPA 311935Z AUTO 21012G18KT 10SM CLR 23/05 A3001 RMK AO2 T02270049
KPPF,2022-10-31T18:52:00Z,KPPF 311852Z AUTO 27009KT 10SM CLR 22/04 A2997 RMK AO2 SLP142 T02220039
KPPO,2022-10-31T19:35:00Z,KPPO 311935Z AUTO 00000KT 4SM +RA BKN006 BKN018 OVC055 14/14 A2980 RMK AO2 P0006 T01380138
KPPQ,2022-10-31T19:35:00Z,KPPQ 311935Z AUTO 30007G16KT 10SM SCT100 18/10 A2989 RMK AO2 T01750097
KPQI,2022-10-31T18:56:00Z,KPQI 311856Z AUTO 00000KT 10SM CLR 18/00 A2993 RMK AO2 SLP161 T01780000
KPQL,2022-10-31T18:53:00Z,KPQL 311853Z VRB03KT 10SM BKN044 OVC050 23/14 A3000 RMK AO2 SLP161 T02330144
KPRB,2022-10-31T18:53:00Z,KPRB 311853Z AUTO 00000KT 10SM CLR 14/04 A2998 RMK AO2 SLP150 T01440039 $
KPRC,2022-10-31T18:53:00Z,KPRC 311853Z VRB04KT 10SM CLR 17/M07 A3010 RMK AO2 SLP150 T01721067
KPRG,2022-10-31T19:35:00Z,KPRG 311935Z AUTO 23012KT 10SM OVC012 14/13 A2986 RMK AO2 T01430134
KPRN,2022-10-31T18:58:00Z,KPRN 311858Z AUTO 00000KT 10SM RA BKN044 20/11 A3000 RMK AO2 SLP106 T02000106 PNO $
KPRO,2022-10-31T19:35:00Z,KPRO 311935Z AUTO 29006KT 10SM CLR 20/M01 A2989 RMK AO2 T02001012
KPRS,2022-10-31T19:35:00Z,KPRS 311935Z AUTO 00000KT 10SM SCT120 23/10 A2997 RMK AO2 T02290098
KPRX,2022-10-31T18:56:00Z,KPRX 311856Z AUTO 00000KT 10SM CLR 22/08 A3002 RMK AO2 SLP165 T02220078
KPSC,2022-10-31T18:53:00Z,KPSC 311853Z 22016G22KT 10SM FEW065 BKN085 OVC110 17/08 A2982 RMK AO2 SLP096 T01720083
KPSF,2022-10-31T18:54:00Z,KPSF 311854Z AUTO 16006KT 10SM CLR 17/07 A2996 RMK AO2 SLP140 T01670072
KPSK,2022-10-31T19:35:00Z,KPSK 311935Z AUTO 14005KT 2 1/2SM +RA SCT005 BKN016 OVC033 14/14 A3000 RMK AO2 P0008 T01400140
KPSM,2022-10-31T18:55:00Z,KPSM 311855Z 20008KT 10SM FEW160 SCT200 BKN250 20/10 A2995 RMK AO2A SLP145 T02000098
KPSN,2022-10-31T19:35:00Z,KPSN 311935Z AUTO 28006KT 10SM CLR 25/11 A2999 RMK AO2
KPSO,2022-10-31T19:35:00Z,KPSO 311935Z AUTO 26004KT 10SM CLR 12/M06 A3014 RMK AO2 T01221060
KPSP,2022-10-31T18:53:00Z,KPSP 311853Z 00000KT 10SM CLR 31/M08 A2991 RMK AO2 SLP125 T03111078
KPSX,2022-10-31T18:53:00Z,KPSX 311853Z AUTO 10SM CLR 27/12 A2998 RMK AO2 SLP152 T02670117
KPTB,2022-10-31T19:35:00Z,KPTB 311935Z AUTO 00000KT 10SM CLR 22/13 A3001 RMK AO2 T02240131
KPTK,2022-10-31T18:53:00Z,KPTK 311853Z 19004KT 9SM OVC006 15/14 A2980 RMK AO2 SLP091 T01500139
KPTN,2022-10-31T18:56:00Z,KPTN 311856Z AUTO 10SM RMK AO2 SLPNO FZRANO $
KPTS,2022-10-31T19:35:00Z,KPTS 311935Z AUTO 25006KT 10SM CLR 21/07 A2993 RMK AO2 T02140074 PWINO
KPTT,2022-10-31T19:35:00Z,KPTT 311935Z AUTO 22007KT 10SM CLR 23/M06 A2996 RMK AO2 T02301059
KPTV,2022-10-31T18:56:00Z,KPTV 311856Z AUTO 36003KT 10SM CLR 22/04 A2995 RMK AO2 SLP139 T02220044
KPTW,2022-10-31T18:54:00Z,KPTW 311854Z AUTO VRB05KT 10SM OVC025 17/11 A3001 RMK AO2 SLP161 T01670111
KPUB,2022-10-31T18:53:00Z,KPUB 311853Z 22007KT 10SM CLR 19/M09 A2996 RMK AO2 SLP120 T01941089
KPUC,2022-10-31T18:53:00Z,KPUC 311853Z AUTO 17005KT 10SM CLR 11/M08 A3013 RMK AO2 SLP200 T01111083
KPUJ,2022-10-31T19:35:00Z,KPUJ 311935Z AUTO 29003KT 7SM BKN039 OVC046 21/11 A2998 RMK AO2
KPUW,2022-10-31T18:53:00Z,KPUW 311853Z AUTO 22009KT 3SM -RA BR BKN023 OVC030 09/08 A2986 RMK AO2 SLP116 P0003 T00940078
KPVB,2022-10-31T19:35:00Z,KPVB 311935Z AUTO 30005KT 10SM CLR 19/02 A2983 RMK AO1 T01860022
KPVC,2022-10-31T19:18:00Z,KPVC 311918Z AUTO 20007KT 10SM OVC008 16/14 A3003 RMK AO2
KPVD,2022-10-31T19:13:00Z,KPVD 311913Z 15011KT 10SM BKN026 BKN033 BKN150 BKN250 17/14 A3001 RMK AO2 T01670139
KPVF,2022-10-31T19:35:00Z,KPVF 311935Z AUTO 20004KT 10SM CLR 17/01 A2999 RMK AO1
KPVG,2022-10-31T18:56:00Z,KPVG 311856Z AUTO VRB03KT 10SM CLR 23/15 A3003 RMK AO2 SLP170 T02330150 PNO $
KPVJ,2022-10-31T19:35:00Z,KPVJ 311935Z AUTO 00000KT 10SM CLR 22/06 A3000 RMK AO2 T02230059
KPVU,2022-10-31T18:56:00Z,KPVU 311856Z 25004KT 10SM CLR 09/01 A3014 RMK AO2 SLP207 T00890006
KPVW,2022-10-31T19:30:00Z,KPVW 311930Z AUTO 21010KT 10SM CLR 20/04 A3003 RMK AO2 T01990041
KPWA,2022-10-31T18:53:00Z,KPWA 311853Z 19007KT 10SM CLR 22/03 A3001 RMK AO2 SLP156 T02170033
KPWC,2022-10-31T19:35:00Z,KPWC 311935Z AUTO 21009KT 190V250 10SM CLR 18/01 A2978 RMK AO2
KPWD,2022-10-31T19:35:00Z,KPWD 311935Z AUTO 21008KT 10SM CLR 16/01 A2966 RMK AO2
KPWG,2022-10-31T18:56:00Z,KPWG 311856Z AUTO 05004KT CLR 25/11 A3002 RMK AO2 SLP161 T02500111 PWINO $
KPWK,2022-10-31T18:59:00Z,KPWK 311859Z 33004KT 1 1/2SM BR OVC006 13/12 A2983 RMK AO2 T01330117
KPWM,2022-10-31T18:51:00Z,KPWM 311851Z 20012KT 10SM FEW150 BKN250 14/11 A2995 RMK AO2 SLP142 T01440106
KPWT,2022-10-31T18:56:00Z,KPWT 311856Z AUTO 20012G20KT 10SM CLR 10/09 A2982 RMK AO2 SLP101 T01000089
KPXE,2022-10-31T19:35:00Z,KPXE 311935Z AUTO 22009G15KT 10SM BKN030 BKN037 OVC065 26/18 A2997 RMK AO2 T02560185
KPYM,2022-10-31T19:10:00Z,KPYM 311910Z AUTO 21007KT 10SM OVC013 17/14 A3001 RMK AO2 T01670139
KPYX,2022-10-31T19:35:00Z,KPYX 311935Z AUTO 22013KT 10SM CLR 21/00 A2998 RMK AO2 T02140002
KPZQ,2022-10-31T19:35:00Z,KPZQ 311935Z AUTO 02004KT 7SM CLR 13/09 A2981 RMK AO2 T01290092
KPZZ,2022-10-31T19:35:00Z,KPZZ 311935Z AUTO 04006KT 9SM FEW026 22/16 A3002 RMK A01
KQAZ,2022-10-31T18:55:00Z,KQAZ 311855Z AUTO 11007KT 9999 CLR 26/M01 A3003 RMK AO2 SLP169 WND DATA ESTMD T02641009
KQBL,2022-10-31T18:55:00Z,KQBL 311855Z AUTO VRB03KT 10SM CLR 24/16 A3000 RMK AO2 SLP165 WND DATA ESTMD T02410155
KQD3,2022-10-31T18:55:00Z,KQD3 311855Z AUTO VRB03KT M M CLR 27/20 A2994 RMK AO2 SLP123 WND DATA ESTMD T02710204 $
KQDG,2022-10-31T19:00:00Z,KQDG 311900Z AUTO 23003KT 8000 BR FEW015 07/05 A3019 RMK AO2 SLP225
KQEI,2022-10-31T19:40:00Z,KQEI 311940Z AUTO 13001KT 9000 OVC003 06/05 A3020 RMK A02 TSNO
KQEJ,2022-10-31T19:40:00Z,KQEJ 311940Z AUTO 00000KT 9999 FEW120 SCT200 21/21 / RMK A02 TSNO
KQEN,2022-10-31T19:40:00Z,KQEN 311940Z AUTO 26008KT 9999 BKN080 OVC0100 / / RMK A02 TSNO
KQEP,2022-10-31T19:40:00Z,KQEP 311940Z AUTO 12002KT 6000 BKN180 08/07 A3022 RMK A02 TSNO
KQEQ,2022-10-31T19:40:00Z,KQEQ 311940Z AUTO 07002KT M0400 FG CLR 11/12 / RMK A02 TSNO
KQER,2022-10-31T19:30:00Z,KQER 311930Z AUTO 12001KT 8000 FEW026 05/05 A3017 RMK A02 TSNO
KQEV,2022-10-31T19:40:00Z,KQEV 311940Z AUTO 33003KT 3200 BR SCT010 07/07 A3018 RMK A02 TSNO
KQEW,2022-10-31T19:40:00Z,KQEW 311940Z AUTO 10001KT 8000 CLR 06/05 A3020 RMK A02 TSNO
KQEX,2022-10-31T19:40:00Z,KQEX 311940Z AUTO 35002KT 9000 CLR 08/07 A3013 RMK A02 TSNO
KQEY,2022-10-31T19:30:00Z,KQEY 311930Z AUTO 06001KT 9999 CLR 05/05 A2992 RMK A02 TSNO
KQFB,2022-10-31T19:40:00Z,KQFB 311940Z AUTO 31001KT 9000 BR CLR 06/05 A3024 RMK A02 TSNO
KQFT,2022-10-31T19:40:00Z,KQFT 311940Z AUTO 04001KT 8000 FEW004 BKN170 08/07 A3020 RMK A02 TSNO
KQFU,2022-10-31T19:40:00Z,KQFU 311940Z AUTO 13001KT M0400 FG CLR 10/10 A3024 RMK A02 TSNO
KQFV,2022-10-31T19:40:00Z,KQFV 311940Z AUTO 14001KT 9000 CLR 04/04 A3023 RMK A02 TSNO
KQFW,2022-10-31T19:40:00Z,KQFW 311940Z AUTO 28001KT 4800 FEW180 04/04 A3004 RMK A02 TSNO
KQFX,2022-10-31T19:40:00Z,KQFX 311940Z AUTO 06001KT 6000 BKN002 OVC011 18/16 / RMK A02 TSNO
KQHY,2022-10-31T18:55:00Z,KQHY 311855Z AUTO 22004KT 10SM CLR 24/16 A2999 RMK AO2 SLP162 T02420159
KQN3,2022-10-31T18:55:00Z,KQN3 311855Z AUTO 00000KT 9999 CLR 32/04 A2993 RMK AO2 SLP125 WND DATA ESTMD T03230044
KQRH,2022-10-31T18:55:00Z,KQRH 311855Z AUTO 00000KT 9999 CLR 27/21 A2989 RMK AO2 SLP124 WND DATA ESTMD T02730205
KQTZ,2022-10-31T18:55:00Z,KQTZ 311855Z 31003KT 9999 SCT140 25/08 A2983 RMK SLP098 WND DATA ESTMD ALSTG/SLP ESTMD
KQVF,2022-10-31T18:55:00Z,KQVF 311855Z AUTO 13005KT 9999 FEW015 BKN180 26/24 A2997 RMK AO2 SLP151 WND DATA ESTMD T02620236
KRAC,2022-10-31T18:53:00Z,KRAC 311853Z AUTO 03003KT 9SM OVC019 14/09 A2984 RMK AO2 SLP103 T01390089
KRAL,2022-10-31T18:53:00Z,KRAL 311853Z VRB03KT 10SM CLR 28/M03 A2990 RMK AO2 SLP111 T02781028
KRAP,2022-10-31T18:52:00Z,KRAP 311852Z 17004KT 10SM CLR 18/M08 A2984 RMK AO2 SLP102 T01831083
KRAS,2022-10-31T19:35:00Z,KRAS 311935Z AUTO 08010KT 10SM BKN080 OVC100 A2999 RMK AO2
KRAW,2022-10-31T19:35:00Z,KRAW 311935Z AUTO 31006KT 10SM CLR 18/06 A2994 RMK AO2
KRBD,2022-10-31T18:53:00Z,KRBD 311853Z VRB04KT 10SM CLR 24/08 A3002 RMK AO2 SLP161 T02390078
KRBG,2022-10-31T18:53:00Z,KRBG 311853Z AUTO 00000KT 10SM CLR 14/09 A2997 RMK AO2 SLP150 T01390094
KRBL,2022-10-31T18:54:00Z,KRBL 311854Z AUTO 00000KT 10SM CLR 21/03 A2996 RMK AO2 SLP141 T02110028
KRBO,2022-10-31T19:35:00Z,KRBO 311935Z AUTO 10SM SCT070 25/14 A2997 RMK AO2 T02520143
KRBW,2022-10-31T19:35:00Z,KRBW 311935Z AUTO 17008KT 10SM SCT035 SCT042 27/18 A2998 RMK AO2
KRCA,2022-10-31T19:32:00Z,KRCA 311932Z 00000KT 10SM CLR 19/M09 A2980 RMK SLP092 $
KRCE,2022-10-31T19:35:00Z,KRCE 311935Z AUTO 21005KT 10SM CLR 22/06 A2999 RMK AO2
KRCM,2022-10-31T19:35:00Z,KRCM 311935Z AUTO 25004KT 10SM CLR 20/05 A2993 RMK AO2
KRCR,2022-10-31T19:35:00Z,KRCR 311935Z AUTO 23009KT 9SM UP OVC005 15/15 A2980 RMK AO2
KRCV,2022-10-31T19:35:00Z,KRCV 311935Z AUTO 08006KT 10SM CLR 11/M07 A3013 RMK AO2 T01091068
KRCX,2022-10-31T19:35:00Z,KRCX 311935Z AUTO 21004KT 10SM CLR 18/05 A2982 RMK AO2 T01760049
KRCZ,2022-10-31T19:35:00Z,KRCZ 311935Z AUTO 20006KT 10SM CLR 24/19 A2999 RMK AO2 T02400187
KRDD,2022-10-31T18:53:00Z,KRDD 311853Z 00000KT 10SM CLR 21/03 A2994 RMK AO2 SLP135 T02060033
KRDG,2022-10-31T18:54:00Z,KRDG 311854Z 20006KT 10SM OVC025 17/13 A2998 RMK AO2 RAE25 SLP158 P0000 T01720128 $
KRDK,2022-10-31T19:35:00Z,KRDK 311935Z AUTO VRB04KT 10SM CLR 20/M00 A2991 RMK AO2
KRDM,2022-10-31T18:56:00Z,KRDM 311856Z 21011KT 10SM CLR 15/02 A2991 RMK AO2 SLP121 T01500022
KRDR,2022-10-31T18:56:00Z,KRDR 311856Z 22010KT 10SM BKN200 17/02 A2965 RMK AO2A SLPNO
KRDU,2022-10-31T18:51:00Z,KRDU 311851Z 14003KT 10SM FEW030 SCT055 SCT070 BKN150 OVC250 22/14 A3002 RMK AO2 SLP163 T02170144
KREG,2022-10-31T19:35:00Z,KREG 311935Z AUTO 33003KT 10SM SCT050 25/12 A2999 RMK AO2 T02470120
KREO,2022-10-31T18:52:00Z,KREO 311852Z AUTO 00000KT 17/M03 A2998 RMK AO1 SLP142 T01671033 $
KRFD,2022-10-31T18:54:00Z,KRFD 311854Z 00000KT 10SM SCT200 BKN250 18/09 A2983 RMK AO2 SLP103 T01780094
KRFI,2022-10-31T19:35:00Z,KRFI 311935Z AUTO 00000KT 10SM CLR 26/04 A3001 RMK AO2 T02620036
KRGA,2022-10-31T19:38:00Z,KRGA 311938Z AUTO 00000KT 10SM SCT029 SCT036 OVC060 18/13 A2993 RMK AO2
KRGK,2022-10-31T19:35:00Z,KRGK 311935Z AUTO 00000KT 10SM CLR 18/M01 A2981 RMK AO2
KRHP,2022-10-31T19:35:00Z,KRHP 311935Z AUTO 26007KT 10SM SCT035 BKN042 BKN050 20/12 A2997 RMK AO2 T02020117
KRHV,2022-10-31T18:53:00Z,KRHV 311853Z 00000KT 10SM HZ SCT035 BKN090 15/09 A2996
KRIC,2022-10-31T18:54:00Z,KRIC 311854Z 21007KT 10SM FEW055 BKN100 21/13 A3002 RMK AO2 SLP169 T02110133
KRIL,2022-10-31T18:53:00Z,KRIL 311853Z AUTO 00000KT 10SM CLR 10/M02 A3014 RMK AO2 SLP197 T01001022
KRIV,2022-10-31T18:55:00Z,KRIV 311855Z AUTO 17007KT 10SM CLR 27/M09 A2993 RMK AO2 SLP125 T02691087
KRIW,2022-10-31T18:53:00Z,KRIW 311853Z AUTO 17005KT 10SM CLR 13/M06 A2996 RMK AO2 SLP120 T01331056
KRKP,2022-10-31T18:53:00Z,KRKP 311853Z AUTO 10SM OVC095 27/16 A2998 RMK AO2 SLP154 T02670161
KRKR,2022-10-31T19:35:00Z,KRKR 311935Z AUTO 18006KT 10SM CLR 22/07 A2998 RMK AO2
KRKS,2022-10-31T18:54:00Z,KRKS 311854Z AUTO 25018KT 10SM CLR 11/M04 A3009 RMK AO2 PK WND 26030/1813 SLP166 T01111039
KRKW,2022-10-31T19:35:00Z,KRKW 311935Z AUTO 25007G13KT 220V310 10SM OVC049 18/10 A2996 RMK A01
KRLD,2022-10-31T19:35:00Z,KRLD 311935Z AUTO 20012G16KT 10SM OVC090 18/10 A2980 RMK AO2 T01770096
KRME,2022-10-31T18:53:00Z,KRME 311853Z 00000KT 10SM SCT055 BKN075 18/08 A2994 RMK AO2 SLP138 T01780078
KRMG,2022-10-31T18:53:00Z,KRMG 311853Z AUTO 23010G16KT 10SM OVC050 23/12 A2996 RMK AO2 SLP138 T02280122
KRMN,2022-10-31T19:35:00Z,KRMN 311935Z AUTO 20003KT 10SM -RA BKN027 BKN110 20/14 A3004 RMK AO2 T01970135
KRMY,2022-10-31T19:35:00Z,KRMY 311935Z AUTO 29003KT 10SM BKN010 OVC013 15/14 A2980 RMK AO2 T01530137
KRNC,2022-10-31T19:35:00Z,KRNC 311935Z AUTO 21006KT 10SM FEW029 FEW038 OVC060 18/13 A2995 RMK A01
KRND,2022-10-31T18:55:00Z,KRND 311855Z AUTO 00000KT 10SM CLR 26/09 A2998 RMK AO2 SLP147 T02550085
KRNH,2022-10-31T19:35:00Z,KRNH 311935Z AUTO 20007KT 10SM CLR 17/05 A2982 RMK AO2 T01700045
KRNM,2022-10-31T18:53:00Z,KRNM 311853Z 15004KT 10SM CLR 29/M05 A2992 RMK AO2 SLP121 T02891050
KRNO,2022-10-31T18:55:00Z,KRNO 311855Z 00000KT 10SM BKN200 BKN250 10/M07 A3005 RMK AO2 SLP161 T01001072
KRNP,2022-10-31T19:35:00Z,KRNP 311935Z AUTO 00000KT 4SM BR OVC003 14/12 A2981 RMK AO2 T01350123
KRNT,2022-10-31T18:53:00Z,KRNT 311853Z 18011G23KT 10SM CLR 13/08 A2981 RMK AO2 SLP101 T01330078
KRNV,2022-10-31T19:35:00Z,KRNV 311935Z AUTO 30008KT 10SM SCT037 BKN045 22/13 A2998 RMK AO2 T02230131 TSNO
KROA,2022-10-31T18:54:00Z,KROA 311854Z 13005KT 6SM -RA BR OVC004 14/13 A3004 RMK AO2 RAE18B31 SLP170 P0003 T01390128
KROC,2022-10-31T18:54:00Z,KROC 311854Z 00000KT 10SM SCT038 BKN046 OVC080 14/09 A2988 RMK AO2 RAE11 SLP125 P0000 T01390094
KROG,2022-10-31T18:58:00Z,KROG 311858Z 10SM CLR 21/07 A2999 RMK AO2 SLP147 T02060072 $
KROS,2022-10-31T19:42:00Z,KROS 311942Z AUTO 21006KT 10SM CLR 19/M01 A2981 RMK AO2
KROW,2022-10-31T18:51:00Z,KROW 311851Z VRB04KT 10SM CLR 19/05 A3004 RMK AO2 SLP134 T01890050 $
KROX,2022-10-31T19:35:00Z,KROX 311935Z AUTO 23012G18KT 10SM CLR 16/02 A2965 RMK AO2
KRPD,2022-10-31T19:35:00Z,KRPD 311935Z AUTO 20006KT 10SM CLR 17/04 A2982 RMK AO2 T01730037
KRPH,2022-10-31T19:35:00Z,KRPH 311935Z AUTO 00000KT 10SM CLR 23/05 A3000 RMK AO2 T02330047 $
KRPJ,2022-10-31T19:35:00Z,KRPJ 311935Z AUTO 29006KT 10SM CLR 16/12 A2983 RMK AO2 T01610116 TSNO
KRPX,2022-10-31T18:43:00Z,KRPX 311843Z AUTO 10SM 17/M01 A2969 RMK Roundup 
KRQB,2022-10-31T19:35:00Z,KRQB 311935Z AUTO 16005KT 10SM CLR 18/11 A2978 RMK AO2 T01800110
KRQE,2022-10-31T18:53:00Z,KRQE 311853Z AUTO VRB03KT 10SM CLR 14/M06 A3014 RMK AO2 SLP159 T01441056 $
KRQO,2022-10-31T19:35:00Z,KRQO 311935Z AUTO 21005KT 23/08 A3001 RMK AO2 PWINO T02290085
KRRL,2022-10-31T19:35:00Z,KRRL 311935Z AUTO 24004KT 10SM CLR 18/05 A2978 RMK AO2 T01790045 TSNO
KRRT,2022-10-31T19:35:00Z,KRRT 311935Z AUTO 24012G16KT 10SM CLR 15/04 A2964 RMK AO2
KRSL,2022-10-31T18:53:00Z,KRSL 311853Z AUTO 19006KT 10SM CLR 21/M03 A2994 RMK AO2 SLP137 T02111028
KRSN,2022-10-31T19:35:00Z,KRSN 311935Z AUTO VRB04KT 10SM CLR 24/12 A2999 RMK AO2 LTG DSNT SW T02380118
KRST,2022-10-31T18:54:00Z,KRST 311854Z 25007KT 10SM CLR 17/04 A2986 RMK AO2 SLP116 T01720039
KRSV,2022-10-31T19:35:00Z,KRSV 311935Z AUTO 23007G16KT 10SM SCT022 SCT026 OVC033 16/12 A2987 RMK AO2 T01620118
KRSW,2022-10-31T18:53:00Z,KRSW 311853Z 34005KT 10SM BKN038 32/22 A2992 RMK AO2 SLP129 T03220222
KRTN,2022-10-31T18:53:00Z,KRTN 311853Z AUTO 18008KT 150V210 10SM CLR 17/M04 A3004 RMK AO2 SLP134 T01671044
KRTS,2022-10-31T19:35:00Z,KRTS 311935Z AUTO 00000KT 10SM CLR 12/M09 A3005 RMK AO2
KRUE,2022-10-31T18:53:00Z,KRUE 311853Z AUTO 27007KT 10SM CLR 23/08 A2996 RMK AO2 SLP141 T02280083 $
KRUG,2022-10-31T19:35:00Z,KRUG 311935Z AUTO 29011KT 10SM CLR 13/02 A2969 RMK AO2
KRUQ,2022-10-31T19:35:00Z,KRUQ 311935Z AUTO 00000KT 1 3/4SM RA BKN003 BKN007 OVC010 16/15 A2999 RMK AO2 T01600154
KRUT,2022-10-31T18:56:00Z,KRUT 311856Z AUTO 03003KT 10SM SCT120 16/06 A2996 RMK AO2 SLP142 T01610061 $
KRVF,2022-10-31T19:35:00Z,KRVF 311935Z AUTO 19016G25KT 10SM CLR 17/M01 A2988 RMK AO2
KRVJ,2022-10-31T19:35:00Z,KRVJ 311935Z AUTO 25006KT 10SM SCT042 BKN065 BKN070 29/19 A2995 RMK AO2 T02880186
KRVL,2022-10-31T19:35:00Z,KRVL 311935Z AUTO 00000KT 10SM OVC022 14/09 A2997 RMK AO2
KRVS,2022-10-31T18:53:00Z,KRVS 311853Z 00000KT 10SM CLR 23/03 A2998 RMK AO2 SLP157 T02280033
KRWF,2022-10-31T18:53:00Z,KRWF 311853Z AUTO 17010KT 10SM CLR 19/M01 A2981 RMK AO2 SLP099 T01891006
KRWI,2022-10-31T18:53:00Z,KRWI 311853Z AUTO VRB04KT 10SM FEW060 BKN075 24/14 A3002 RMK AO2 SLP165 T02390139 $
KRWL,2022-10-31T18:53:00Z,KRWL 311853Z AUTO 23019G26KT 10SM CLR 09/M04 A3008 RMK AO2 PK WND 24029/1837 SLP157 T00891039
KRWV,2022-10-31T19:35:00Z,KRWV 311935Z AUTO 13004KT 10SM CLR 24/11 A3001 RMK AO2 T02380107
KRXE,2022-10-31T18:53:00Z,KRXE 311853Z AUTO 22011KT 10SM CLR 12/M02 A3008 RMK AO2 SLP180 T01221022
KRYM,2022-10-31T18:55:00Z,KRYM 311855Z AUTO 25009KT M M M M M RMK AO2 SLPNO RVRNO $
KRYN,2022-10-31T18:45:00Z,KRYN 311845Z 07004KT 10SM CLR 23/M03 A2997
KRYV,2022-10-31T19:35:00Z,KRYV 311935Z AUTO 24003KT 10SM CLR 18/04 A2981 RMK AO2 T01800042
KRYW,2022-10-31T19:35:00Z,KRYW 311935Z AUTO 14005KT 10SM CLR 25/07 A3001 RMK AO2 T02460073
KRYY,2022-10-31T18:50:00Z,KRYY 311850Z 26008KT 10SM BKN017 22/13 A2998 RMK AO2 SLP144 T02170128 $
KRZL,2022-10-31T19:35:00Z,KRZL 311935Z AUTO 26008KT 10SM OVC011 15/14 A2981 RMK AO2
KRZN,2022-10-31T19:35:00Z,KRZN 311935Z AUTO 25009KT 10SM CLR 17/M03 A2981 RMK AO2 T01721029
KRZR,2022-10-31T19:35:00Z,KRZR 311935Z AUTO 23008KT 200V270 10SM SCT035 BKN044 OVC060 20/14 A2995 RMK A01
KS21,2022-10-31T19:30:00Z,KS21 311930Z AUTO 20010KT 10SM FEW120 11/01 A2998 RMK AO2
KS24,2022-10-31T19:35:00Z,KS24 311935Z AUTO 22011G17KT 10SM OVC070 18/13 A2982 RMK AO2
KS25,2022-10-31T19:35:00Z,KS25 311935Z AUTO 22005KT 10SM CLR 15/02 A2972 RMK AO2
KS32,2022-10-31T19:35:00Z,KS32 311935Z AUTO 27014KT 10SM CLR 17/00 A2971 RMK AO2 TSNO
KS33,2022-10-31T19:35:00Z,KS33 311935Z AUTO 23008KT 10SM CLR 15/05 A2990 RMK AO2
KS34,2022-10-31T18:55:00Z,KS34 311855Z AUTO 00000KT 10SM 13/M20 A2981 RMK Plains 
KS39,2022-10-31T19:35:00Z,KS39 311935Z AUTO 22006KT 10SM CLR 15/03 A2990 RMK AO2
KS52,2022-10-31T19:35:00Z,KS52 311935Z AUTO 36003KT 10SM SCT070 BKN100 BKN120 10/05 A2969 RMK AO2 T01050050
KS71,2022-10-31T19:30:00Z,KS71 311930Z AUTO 24014G23KT 10SM 18/03 A2964 
KS85,2022-10-31T19:25:00Z,KS85 311925Z AUTO 16005KT 10SM CLR 18/01 A2966 RMK A01 Culbertson 
KSAA,2022-10-31T19:35:00Z,KSAA 311935Z AUTO 24013G21KT 10SM CLR 10/M05 A3009 RMK AO2
KSAC,2022-10-31T18:53:00Z,KSAC 311853Z VRB05KT 10SM CLR 17/08 A2996 RMK AO2 SLP144 T01670083
KSAD,2022-10-31T18:51:00Z,KSAD 311851Z AUTO 03003KT 10SM CLR 21/M02 A3001 RMK AO2 SLP132 T02111017
KSAF,2022-10-31T18:53:00Z,KSAF 311853Z 00000KT 10SM CLR 13/M04 A3011 RMK AO2 SLP153 T01331039
KSAN,2022-10-31T18:51:00Z,KSAN 311851Z VRB04KT 10SM FEW040 SCT250 25/09 A2991 RMK AO2 SLP129 T02500089
KSAR,2022-10-31T19:35:00Z,KSAR 311935Z AUTO 27008KT 10SM OVC014 14/12 A2992 RMK AO2 T01390115
KSAT,2022-10-31T18:51:00Z,KSAT 311851Z 15006KT 10SM FEW060 FEW110 BKN250 25/10 A3001 RMK AO2 SLP146 T02500100
KSAV,2022-10-31T18:53:00Z,KSAV 311853Z 18010KT 10SM FEW043 SCT120 SCT250 27/18 A2997 RMK AO2 SLP147 T02720183
KSAW,2022-10-31T18:46:00Z,KSAW 311846Z 28006KT 10SM CLR 17/05 A2977
KSAZ,2022-10-31T19:35:00Z,KSAZ 311935Z 21007KT 10SM 20/M04 A2976 RMK AO2
KSBA,2022-10-31T18:53:00Z,KSBA 311853Z 15003KT 9SM CLR 18/14 A2991 RMK AO2 SLP129 T01780144 $
KSBD,2022-10-31T18:51:00Z,KSBD 311851Z 33003KT 10SM SCT200 28/M07 A2992
KSBM,2022-10-31T18:53:00Z,KSBM 311853Z AUTO 00000KT 10SM CLR 19/06 A2980 RMK AO2 SLP093 T01890061
KSBN,2022-10-31T19:26:00Z,KSBN 311926Z 25006KT 4SM -RA BR SCT013 BKN020 OVC031 16/15 A2980 RMK AO2 P0004 T01560150
KSBO,2022-10-31T19:35:00Z,KSBO 311935Z AUTO 23006KT 10SM SCT033 SCT043 SCT049 27/20 A2998 RMK AO2
KSBP,2022-10-31T18:56:00Z,KSBP 311856Z 29004KT 10SM CLR 21/10 A2992 RMK AO2 SLP131 T02110100
KSBS,2022-10-31T19:35:00Z,KSBS 311935Z AUTO 28003KT 10SM CLR 09/M05 A3011 RMK AO1 T00881051
KSBY,2022-10-31T18:54:00Z,KSBY 311854Z 22006KT 10SM CLR 22/14 A3002 RMK AO2 SLP166 T02170144
KSCD,2022-10-31T19:35:00Z,KSCD 311935Z AUTO 23007KT 10SM OVC048 20/13 A3000 RMK AO2 T01990125
KSCK,2022-10-31T18:55:00Z,KSCK 311855Z 00000KT 10SM CLR 18/07 A2995 RMK AO2 SLP141 T01780067
KSCR,2022-10-31T19:35:00Z,KSCR 311935Z AUTO 00000KT 10SM BKN022 OVC026 20/20 A3001 RMK AO2 T02030195
KSDA,2022-10-31T19:35:00Z,KSDA 311935Z AUTO 00000KT 10SM CLR 20/00 A2990 RMK AO2
KSDB,2022-10-31T18:53:00Z,KSDB 311853Z AUTO 03007KT 10SM CLR 19/M08 A3008 RMK AO2 SLP139 T01941078 $
KSDC,2022-10-31T19:15:00Z,KSDC 311915Z AUTO 16003KT 10SM SCT036 OVC047 15/06 A2990 RMK AO2
KSDF,2022-10-31T18:56:00Z,KSDF 311856Z 23010KT 10SM FEW026 BKN045 OVC075 18/14 A2988 RMK AO2 RAB00E12 SLP116 P0000 T01830139
KSDL,2022-10-31T18:53:00Z,KSDL 311853Z 00000KT 10SM CLR 23/M02 A2997 RMK AO2 SLP132 T02331017
KSDM,2022-10-31T18:53:00Z,KSDM 311853Z 29006KT 10SM CLR 27/02 A2990 RMK AO2 SLP121 T02670022
KSDY,2022-10-31T18:56:00Z,KSDY 311856Z AUTO 20007KT 10SM CLR 13/02 A2972 RMK AO2 SLP077 T01280017 PNO $
KSEA,2022-10-31T18:53:00Z,KSEA 311853Z 20016G25KT 10SM SCT018 BKN030 BKN070 BKN150 11/07 A2982 RMK AO2 PK WND 21027/1823 SLP105 T01110072
KSEE,2022-10-31T18:47:00Z,KSEE 311847Z 00000KT 10SM SKC 27/M02 A2991
KSEG,2022-10-31T18:53:00Z,KSEG 311853Z AUTO 18009KT 10SM OVC024 14/09 A2998 RMK AO2 SLP154 T01440094
KSEM,2022-10-31T19:35:00Z,KSEM 311935Z AUTO 23006KT 10SM OVC048 21/11 A3000 RMK AO2
KSEP,2022-10-31T19:35:00Z,KSEP 311935Z AUTO 34003KT 10SM CLR 25/05 A3004 RMK AO2 T02470051
KSEQ,2022-10-31T18:55:00Z,KSEQ 311855Z AUTO 12004KT 10SM BKN250 BKN270 25/10 A2998 RMK AO2 SLP150 T02520102
KSET,2022-10-31T18:54:00Z,KSET 311854Z AUTO 29007KT 3SM BR OVC017 14/12 A2989 RMK AO2 SLP121 T01390122
KSEZ,2022-10-31T19:35:00Z,KSEZ 311935Z AUTO 24003KT 10SM 20/M03 A3007 RMK AO2
KSFB,2022-10-31T18:53:00Z,KSFB 311853Z 13007KT 100V170 10SM CLR 31/21 A2996 RMK AO2 SLP142 T03060206
KSFF,2022-10-31T18:53:00Z,KSFF 311853Z 22007KT 10SM -RA OVC055 12/08 A2979 RMK AO2 SLP084 P0001 T01220078
KSFM,2022-10-31T18:56:00Z,KSFM 311856Z AUTO 23009KT 10SM CLR 18/07 A2996 RMK AO2 SLP148 T01780072
KSFO,2022-10-31T18:56:00Z,KSFO 311856Z 04004KT 10SM FEW006 BKN180 16/11 A2995 RMK AO2 SLP142 T01560111
KSFQ,2022-10-31T19:35:00Z,KSFQ 311935Z AUTO 20007KT 10SM CLR 23/13 A3003 RMK AO2 T02320134
KSFY,2022-10-31T19:43:00Z,KSFY 311943Z AUTO 28006KT 10SM CLR 19/03 A2983 RMK AO2
KSFZ,2022-10-31T18:56:00Z,KSFZ 311856Z AUTO 22007KT 10SM BKN027 BKN032 18/12 A3000 RMK AO2 SLP161 T01780122
KSGF,2022-10-31T18:52:00Z,KSGF 311852Z VRB04KT 10SM BKN110 20/07 A2995 RMK AO2 SLP137 T02000072
KSGH,2022-10-31T19:17:00Z,KSGH 311917Z AUTO 22011KT 10SM BKN019 OVC070 18/15 A2986 RMK AO2
KSGJ,2022-10-31T18:56:00Z,KSGJ 311856Z 11008KT 10SM FEW080 27/23 A2998 RMK AO2 SLP152 T02720233
KSGR,2022-10-31T18:53:00Z,KSGR 311853Z 00000KT 10SM CLR 26/12 A3000 RMK AO2 SLP162 T02560122
KSGS,2022-10-31T19:35:00Z,KSGS 311935Z AUTO 22005KT 10SM CLR 18/M01 A2982 RMK AO2 T01801012
KSGT,2022-10-31T18:56:00Z,KSGT 311856Z AUTO 27010KT 10SM CLR 22/12 A2998 RMK AO2 SLP150 T02220117
KSGU,2022-10-31T18:56:00Z,KSGU 311856Z AUTO 00000KT 10SM CLR 16/M03 A3007 RMK AO2 SLP167 T01561028
KSHD,2022-10-31T19:35:00Z,KSHD 311935Z AUTO 00000KT 10SM -RA SCT003 BKN008 OVC028 13/13 A3003 RMK AO2 T01320130
KSHL,2022-10-31T19:35:00Z,KSHL 311935Z AUTO 21012KT 10SM CLR 19/M01 A2982 RMK AO2
KSHN,2022-10-31T18:53:00Z,KSHN 311853Z AUTO 23013G21KT 10SM CLR 12/08 A2983 RMK AO2 SLP101 T01220083
KSHR,2022-10-31T18:53:00Z,KSHR 311853Z AUTO 00000KT 10SM CLR 18/M02 A2983 RMK AO2 SLP095 T01831022
KSHV,2022-10-31T18:56:00Z,KSHV 311856Z VRB04KT 10SM FEW048 SCT290 26/12 A3000 RMK SLPNO
KSIF,2022-10-31T19:35:00Z,KSIF 311935Z AUTO 00000KT 4SM BR BKN003 OVC025 15/15 A3001 RMK AO2 P0003 T01460146
KSIK,2022-10-31T19:35:00Z,KSIK 311935Z AUTO 27008KT 10SM SCT027 BKN035 OVC042 18/12 A2992 RMK AO2
KSIY,2022-10-31T18:53:00Z,KSIY 311853Z AUTO 03003KT 10SM CLR 14/01 A2999 RMK AO2 SLP160 T01440011
KSJC,2022-10-31T18:53:00Z,KSJC 311853Z 00000KT 7SM FEW060 BKN085 OVC150 16/10 A2995 RMK AO2 SLP142 T01610100
KSJS,2022-10-31T19:35:00Z,KSJS 311935Z AUTO 27006KT 7SM -RA SCT035 SCT045 OVC055 17/17 A2993 RMK AO2 T01710169
KSJT,2022-10-31T18:51:00Z,KSJT 311851Z 34003KT 10SM CLR 21/10 A3004 RMK AO2 SLP160 T02110100
KSJX,2022-10-31T19:35:00Z,KSJX 311935Z AUTO 26007KT 10SM CLR 16/04 A2979 RMK AO2 T01600044
KSKA,2022-10-31T19:12:00Z,KSKA 311912Z 21014G20KT 10SM FEW043 SCT080 10/07 A2975 RMK AO2A RAE12 SLP290 $
KSKF,2022-10-31T18:55:00Z,KSKF 311855Z AUTO 10007KT 10SM CLR 26/10 A2997 RMK AO2 SLP145 T02570095 $
KSKX,2022-10-31T18:56:00Z,KSKX 311856Z AUTO 30004KT 10SM CLR 13/M07 A3014 RMK AO2 SLP195 T01281072
KSLB,2022-10-31T19:35:00Z,KSLB 311935Z AUTO 23009KT 10SM CLR 18/M01 A2986 RMK AO2
KSLC,2022-10-31T18:54:00Z,KSLC 311854Z 17008KT 10SM SCT230 14/M01 A3011 RMK AO2 SLP178 T01441011
KSLE,2022-10-31T19:03:00Z,KSLE 311903Z 18004KT 1 1/2SM -RA BR OVC006 12/11 A2994 RMK AO2 P0000 T01220111
KSLG,2022-10-31T18:56:00Z,KSLG 311856Z AUTO 30007KT 10SM CLR 21/07 A2999 RMK AO2 SLP150 T02060072
KSLH,2022-10-31T19:35:00Z,KSLH 311935Z AUTO 06003KT 10SM CLR 12/07 A2978 RMK AO2
KSLI,2022-10-31T18:55:00Z,KSLI 311855Z 20008KT 10SM FEW150 SCT200 BKN250 23/13 A2989 RMK AO2A SLP125 T02260134
KSLK,2022-10-31T18:51:00Z,KSLK 311851Z AUTO 25007KT 10SM CLR 16/01 A2992 RMK AO2 SLP139 T01560011
KSLN,2022-10-31T18:53:00Z,KSLN 311853Z 00000KT 10SM CLR 21/01 A2997 RMK AO2 SLP144 T02060011
KSLR,2022-10-31T19:35:00Z,KSLR 311935Z AUTO 35004KT 10SM CLR 23/06 A3003 RMK AO2 T02300059
KSMD,2022-10-31T19:35:00Z,KSMD 311935Z AUTO VRB06G12KT 10SM SCT018 BKN023 BKN035 17/15 A2981 RMK A01
KSME,2022-10-31T19:35:00Z,KSME 311935Z AUTO 24010KT 10SM OVC060 19/14 A2992 RMK AO2
KSMF,2022-10-31T18:53:00Z,KSMF 311853Z 33005KT 10SM OVC200 18/07 A2996 RMK AO2 SLP143 T01780072
KSMN,2022-10-31T18:56:00Z,KSMN 311856Z AUTO 20014G19KT 10SM OVC075 17/00 A2991 RMK AO2 WSHFT 1755 SLP824 T01720000
KSMO,2022-10-31T18:51:00Z,KSMO 311851Z VRB05KT 10SM CLR 21/13 A2992 RMK AO2 SLP130 FG BANK S - W T02060133
KSMP,2022-10-31T19:22:00Z,KSMP 311922Z AUTO 24010G28KT 100V290 5SM -RA BR BKN005 OVC012 04/03 A2979 RMK AO2 PK WND 22028/1919 P0004 T00440033
KSMQ,2022-10-31T18:53:00Z,KSMQ 311853Z AUTO 00000KT 10SM BKN031 17/11 A2998 RMK AO2 SLP154 T01720111
KSMS,2022-10-31T19:35:00Z,KSMS 311935Z AUTO 16010KT 10SM SCT034 SCT120 27/19 A2998 RMK AO2
KSMX,2022-10-31T18:51:00Z,KSMX 311851Z 31003KT 9SM FEW001 BKN200 14/10 A2995 RMK AO2 SLP143 T01440100 $
KSNA,2022-10-31T18:53:00Z,KSNA 311853Z 20008KT 10SM FEW020 FEW060 BKN190 24/09 A2991 RMK AO2 SLP126 T02390094
KSNC,2022-10-31T19:35:00Z,KSNC 311935Z AUTO 17006KT 10SM 17/12 A3001 RMK AO2
KSNH,2022-10-31T19:15:00Z,KSNH 311915Z AUTO 22006KT 6SM BR BKN023 BKN036 OVC049 18/15 A2995 RMK A01
KSNK,2022-10-31T19:35:00Z,KSNK 311935Z AUTO 18005KT 10SM CLR 20/07 A3005 RMK AO2 T01970074
KSNL,2022-10-31T19:35:00Z,KSNL 311935Z AUTO 28004KT 10SM CLR 22/M01 A2999 RMK AO2 T02221011
KSNS,2022-10-31T18:53:00Z,KSNS 311853Z VRB03KT 9SM CLR 14/10 A2997 RMK AO2 SLP157 T01390100
KSNT,2022-10-31T18:51:00Z,KSNT 311851Z AUTO VRB06G15KT 12/M01 A3004 RMK AO1 SLP121 T01221006
KSNY,2022-10-31T18:53:00Z,KSNY 311853Z AUTO 30012G24KT 10SM CLR 18/M08 A2993 RMK AO2 SLP130 T01831078
KSOA,2022-10-31T19:35:00Z,KSOA 311935Z AUTO 12006G11KT 10SM FEW050 SCT065 22/09 A3005 RMK AO2
KSOP,2022-10-31T19:25:00Z,KSOP 311925Z AUTO 14004KT 10SM SCT021 SCT060 22/19 A3001 RMK AO2 TSNO
KSOW,2022-10-31T19:35:00Z,KSOW 311935Z AUTO VRB04KT 10SM CLR 14/M07 A3014 RMK AO2
KSPA,2022-10-31T19:35:00Z,KSPA 311935Z AUTO 00000KT 10SM OVC006 16/14 A3000 RMK AO2
KSPB,2022-10-31T19:36:00Z,KSPB 311936Z AUTO 29005KT 9SM -RA FEW005 BKN030 OVC038 13/11 A2991 RMK AO2 P0001 T01280106
KSPD,2022-10-31T18:56:00Z,KSPD 311856Z AUTO 18006KT 20/M06 A2997 RMK AO1 SLP116 T02001056
KSPF,2022-10-31T19:35:00Z,KSPF 311935Z AUTO 31009KT 10SM CLR 18/M04 A2984 RMK AO2
KSPG,2022-10-31T18:53:00Z,KSPG 311853Z 08005KT 10SM SCT025 29/21 A2994 RMK AO2 SLP139 T02940211
KSPI,2022-10-31T18:52:00Z,KSPI 311852Z 28007KT 3SM BR OVC006 14/12 A2986 RMK AO2 SLP110 T01390122
KSPS,2022-10-31T18:52:00Z,KSPS 311852Z 25004KT 10SM CLR 24/07 A3001 RMK AO2 SLP155 T02390072
KSPW,2022-10-31T18:53:00Z,KSPW 311853Z AUTO 24010KT 10SM CLR 20/M02 A2986 RMK AO2 SLP118 T02001017
KSQI,2022-10-31T18:56:00Z,KSQI 311856Z AUTO 00000KT 10SM CLR 16/09 A2985 RMK AO2 SLP974 T01560089
KSRB,2022-10-31T19:35:00Z,KSRB 311935Z AUTO 25008G13KT 10SM SCT029 BKN050 OVC055 18/13 A2995 RMK A01
KSRC,2022-10-31T18:56:00Z,KSRC 311856Z AUTO VRB04KT 10SM CLR 22/11 A2996 RMK AO2 SLP145 T02170111
KSRE,2022-10-31T19:35:00Z,KSRE 311935Z AUTO VRB06KT 10SM CLR 22/02 A3000 RMK AO2
KSRQ,2022-10-31T18:53:00Z,KSRQ 311853Z 28011KT 10SM CLR 29/21 A2993 RMK AO2 SLP136 T02940211
KSRR,2022-10-31T19:35:00Z,KSRR 311935Z AUTO 00000KT 10SM 14/M05 A3013 RMK AO2
KSSC,2022-10-31T19:10:00Z,KSSC 311910Z AUTO 16007KT 10SM SCT030 BKN035 27/19 A2996 RMK AO2 SLP146 $
KSSF,2022-10-31T18:53:00Z,KSSF 311853Z 07005KT 10SM CLR 26/11 A2997 RMK AO2 SLP144 T02560111
KSSI,2022-10-31T18:53:00Z,KSSI 311853Z AUTO 16007KT 10SM FEW120 26/21 A2997 RMK AO2 SLP151 T02610211
KSTC,2022-10-31T18:53:00Z,KSTC 311853Z 23010KT 10SM CLR 18/M02 A2981 RMK AO2 SLP107 T01781017
KSTE,2022-10-31T19:35:00Z,KSTE 311935Z AUTO 25006KT 10SM CLR 19/02 A2981 RMK AO2 T01850021
KSTF,2022-10-31T19:35:00Z,KSTF 311935Z AUTO 28005KT 10SM FEW034 OVC060 21/14 A2997 RMK AO2
KSTJ,2022-10-31T18:53:00Z,KSTJ 311853Z 28006KT 10SM CLR 18/01 A2994 RMK AO2 SLP136 T01830011
KSTK,2022-10-31T19:35:00Z,KSTK 311935Z AUTO 17007KT 10SM CLR 20/M05 A2993 RMK AO2
KSTL,2022-10-31T19:01:00Z,KSTL 311901Z 27008KT 3SM -DZ BR SCT004 BKN009 OVC013 14/12 A2990 RMK AO2 P0000 T01390117 $
KSTP,2022-10-31T18:53:00Z,KSTP 311853Z 26007KT 10SM CLR 18/M02 A2984 RMK AO2 SLP103 T01781022
KSTS,2022-10-31T18:53:00Z,KSTS 311853Z AUTO 19006KT 10SM SCT004 11/09 A2997 RMK AO2 SLP141 T01110089
KSUA,2022-10-31T18:47:00Z,KSUA 311847Z 09012KT 7SM SCT015 BKN030 29/22 A2995
KSUN,2022-10-31T18:55:00Z,KSUN 311855Z 12008KT 10SM SKC 13/00 A3007
KSUS,2022-10-31T18:54:00Z,KSUS 311854Z 24005KT 10SM BKN006 OVC013 14/12 A2990 RMK AO2 SLP123 T01440122
KSUT,2022-10-31T19:35:00Z,KSUT 311935Z AUTO 07004KT 10SM BKN034 OVC050 25/19 A3003 RMK AO2 T02450194
KSUU,2022-10-31T18:55:00Z,KSUU 311855Z 02008KT 10SM BKN200 18/07 A2995 RMK AO2A SLP149 T01770074 $
KSUW,2022-10-31T19:35:00Z,KSUW 311935Z AUTO 24007KT 10SM CLR 18/M02 A2976 RMK AO2 T01781025
KSUX,2022-10-31T18:52:00Z,KSUX 311852Z 22011KT 10SM CLR 21/02 A2986 RMK AO2 SLP115 T02060017
KSUZ,2022-10-31T19:35:00Z,KSUZ 311935Z AUTO VRB05G12KT 9SM CLR 23/08 A2996 RMK A01
KSVC,2022-10-31T19:35:00Z,KSVC 311935Z AUTO 22003KT 10SM CLR 20/M02 A3008 RMK AO2 T02041019
KSVE,2022-10-31T19:35:00Z,KSVE 311935Z AUTO 00000KT 10SM CLR 04/M11 A3004 RMK AO2
KSVH,2022-10-31T19:35:00Z,KSVH 311935Z AUTO 00000KT 5SM DZ BKN003 BKN014 OVC055 14/14 A3000 RMK AO2 P0003 T01410135
KSVN,2022-10-31T18:55:00Z,KSVN 311855Z AUTO 15010G15KT 10SM FEW130 28/20 A2995 RMK AO2 SLP145 T02760204 $
KSWF,2022-10-31T18:45:00Z,KSWF 311845Z 24006KT 10SM SKC 17/10 A2998
KSWO,2022-10-31T18:53:00Z,KSWO 311853Z 29007KT 10SM CLR 23/02 A2999 RMK AO2 SLP150 T02330022
KSWW,2022-10-31T19:35:00Z,KSWW 311935Z AUTO 00000KT 10SM CLR 23/11 A3006 RMK AO2 T02260108
KSXK,2022-10-31T19:35:00Z,KSXK 311935Z AUTO 21013KT 10SM CLR 20/M01 A2982 RMK AO2
KSXS,2022-10-31T18:55:00Z,KSXS 311855Z AUTO 00000KT 10SM CLR 24/13 A2997 RMK AO2 SLP148 T02350128
KSXT,2022-10-31T18:56:00Z,KSXT 311856Z AUTO VRB03KT 10SM BKN110 12/04 A2999 RMK AO2 SLP134 T01170044
KSXU,2022-10-31T19:35:00Z,KSXU 311935Z AUTO 20013KT 10SM CLR 19/00 A3002 RMK AO2 T01941005
KSYF,2022-10-31T19:35:00Z,KSYF 311935Z AUTO 00000KT 10SM CLR 20/M08 A2993 RMK AO2 T02021085 PWINO
KSYI,2022-10-31T19:35:00Z,KSYI 311935Z AUTO 22008KT 10SM SCT050 SCT065 19/13 A2995 RMK A01
KSYM,2022-10-31T19:35:00Z,KSYM 311935Z AUTO 23008KT 10SM FEW049 OVC060 19/11 A2992 RMK AO2
KSYN,2022-10-31T19:35:00Z,KSYN 311935Z AUTO 23006KT 10SM CLR 18/00 A2983 RMK AO2 T01800000
KSYR,2022-10-31T18:54:00Z,KSYR 311854Z 00000KT 10SM OVC042 18/07 A2991 RMK AO2 SLP124 T01780072
KSZL,2022-10-31T18:55:00Z,KSZL 311855Z 25011KT 10SM SCT250 20/06 A2988 RMK AO2A SLP119 T01980062 $
KSZT,2022-10-31T19:35:00Z,KSZT 311935Z AUTO 24005KT 10SM OVC019 09/08 A2975 RMK AO2
KSZY,2022-10-31T19:35:00Z,KSZY 311935Z AUTO VRB05KT 10SM SCT037 OVC055 19/13 A2995 RMK A01
KT20,2022-10-31T19:35:00Z,KT20 311935Z AUTO 00000KT 10SM CLR 26/11 A2998 RMK AO2 T02620109
KT35,2022-10-31T19:35:00Z,KT35 311935Z AUTO 00000KT 10SM CLR 25/10 A3001 RMK AO2 T02540101
KT41,2022-10-31T19:35:00Z,KT41 311935Z AUTO 10SM CLR 25/13 A3000 RMK AO2 T02480130
KT69,2022-10-31T19:35:00Z,KT69 311935Z AUTO 11008G14KT 090V150 10SM CLR 26/14 A2997 RMK A01
KT70,2022-10-31T18:55:00Z,KT70 311855Z AUTO 36006KT 7SM SCT030 BKN036 BKN048 23/16 A2997 RMK AO2 SLP141 T02300163 $
KT74,2022-10-31T19:35:00Z,KT74 311935Z AUTO 18005KT 10SM CLR 25/11 A3000 RMK AO2 T02470106
KT78,2022-10-31T19:35:00Z,KT78 311935Z AUTO 00000KT 10SM CLR 25/10 A2999 RMK AO2
KT82,2022-10-31T19:35:00Z,KT82 311935Z AUTO 00000KT 10SM CLR 23/08 A3002 RMK AO2 T02340079
KT89,2022-10-31T19:35:00Z,KT89 311935Z AUTO 09003G10KT 10SM CLR 22/07 A2995 RMK A01
KTAD,2022-10-31T18:54:00Z,KTAD 311854Z AUTO VRB04KT 10SM 19/M07 A3001 RMK AO2 SLP121 T01891067
KTAN,2022-10-31T18:52:00Z,KTAN 311852Z AUTO A3001 RMK AO2 SLPNO PWINO FZRANO TSNO $
KTAZ,2022-10-31T19:35:00Z,KTAZ 311935Z AUTO 25006KT 3SM BR OVC006 13/13 A2987 RMK AO2 T01330126
KTBN,2022-10-31T18:55:00Z,KTBN 311855Z AUTO 28006KT 10SM CLR 20/04 A2993 RMK AO2 SLP134 T01970038 $
KTBR,2022-10-31T19:35:00Z,KTBR 311935Z AUTO 23004KT 10SM SCT043 BKN060 BKN075 29/17 A2996 RMK AO2 T02890168
KTBX,2022-10-31T19:35:00Z,KTBX 311935Z AUTO 10SM CLR 07/M07 A3007 RMK AO2
KTCC,2022-10-31T18:53:00Z,KTCC 311853Z AUTO 20010G14KT 10SM CLR 19/01 A3001 RMK AO2 SLP130 T01890011
KTCL,2022-10-31T18:53:00Z,KTCL 311853Z 24004KT 10SM FEW024 OVC060 21/15 A3000 RMK AO2 SLP156 T02110150
KTCM,2022-10-31T18:55:00Z,KTCM 311855Z AUTO 23010G17KT 10SM BKN060 BKN075 11/11 A2986 RMK AO2 SLP115 T01130107
KTCS,2022-10-31T18:53:00Z,KTCS 311853Z AUTO 00000KT 10SM CLR 18/M06 A3007 RMK AO2 SLP134 T01781056
KTCY,2022-10-31T19:35:00Z,KTCY 311935Z AUTO 34006KT 10SM CLR 18/09 A2994 RMK A01
KTDF,2022-10-31T19:35:00Z,KTDF 311935Z AUTO 18003KT 7SM RA BKN021 BKN033 OVC120 18/16 A3003 RMK AO2
KTDR,2022-10-31T18:55:00Z,KTDR 311855Z AUTO 30005KT 10SM OVC041 25/16 A2995 RMK AO2 SLP146 T02520163 $
KTDZ,2022-10-31T18:53:00Z,KTDZ 311853Z AUTO 22011KT 10SM OVC075 19/14 A2982 RMK AO2 SLP095 T01890144
KTEB,2022-10-31T18:51:00Z,KTEB 311851Z 22011G16KT 10SM FEW035 18/10 A2999 RMK AO2 SLP156 T01780100
KTEW,2022-10-31T19:35:00Z,KTEW 311935Z AUTO 00000KT 10SM OVC008 16/14 A2980 RMK AO2 T01620136
KTEX,2022-10-31T19:35:00Z,KTEX 311935Z AUTO 25007KT 10SM CLR 10/M16 A3020 RMK AO2
KTFP,2022-10-31T18:55:00Z,KTFP 311855Z AUTO 12010KT 10SM CLR 26/15 A2997 RMK AO2 T02580152
KTGI,2022-10-31T19:35:00Z,KTGI 311935Z AUTO 19003KT 10SM CLR 18/15 A3002 RMK AO1 T01830148
KTHA,2022-10-31T19:35:00Z,KTHA 311935Z AUTO 23009G14KT 10SM SCT027 SCT038 OVC055 18/12 A2996 RMK A01
KTHV,2022-10-31T18:53:00Z,KTHV 311853Z AUTO 21003KT 10SM OVC018 17/12 A2999 RMK AO2 SLP159 T01670122
KTIF,2022-10-31T19:35:00Z,KTIF 311935Z AUTO 00000KT 10SM CLR 21/M04 A2985 RMK AO2 T02091042
KTIK,2022-10-31T18:55:00Z,KTIK 311855Z AUTO 23003KT 10SM CLR 22/01 A2998 RMK AO2 SLP153 T02190010 $
KTIP,2022-10-31T19:35:00Z,KTIP 311935Z AUTO 25009KT 10SM -RA OVC004 13/13 A2983 RMK AO2 T01340132
KTIW,2022-10-31T18:53:00Z,KTIW 311853Z 21014G21KT 10SM FEW018 BKN070 11/08 A2986 RMK AO2 SLP110 T01110078
KTIX,2022-10-31T18:47:00Z,KTIX 311847Z 06004KT 7SM SCT030 BKN060 31/22 A2997
KTKC,2022-10-31T19:35:00Z,KTKC 311935Z AUTO 23011KT 10SM CLR 19/M01 A2980 RMK AO2
KTKI,2022-10-31T18:53:00Z,KTKI 311853Z 08004KT 10SM CLR 23/07 A3002 RMK AO2 SLP169 T02280072
KTKV,2022-10-31T19:35:00Z,KTKV 311935Z AUTO 28003KT 10SM CLR 18/01 A2979 RMK AO2 T01810005 PWINO
KTKX,2022-10-31T19:35:00Z,KTKX 311935Z AUTO 30009G14KT 7SM OVC046 20/12 A2992 RMK AO2 TSNO
KTLH,2022-10-31T18:53:00Z,KTLH 311853Z AUTO 27011KT 10SM SCT030 BKN042 OVC060 28/19 A2996 RMK AO2 SLP143 T02780194
KTMB,2022-10-31T18:53:00Z,KTMB 311853Z 11008KT 10SM FEW027 31/23 A2992 RMK AO2 SLP132 T03060233
KTME,2022-10-31T19:35:00Z,KTME 311935Z AUTO 00000KT 10SM CLR 26/12 A3001 RMK AO2
KTMK,2022-10-31T19:35:00Z,KTMK 311935Z AUTO 16004KT 10SM BKN045 BKN060 OVC090 13/11 A2995 RMK AO2 P0001
KTMT,2022-10-31T19:35:00Z,KTMT 311935Z AUTO 28004KT 10SM CLR 14/M07 A3007 RMK AO2 T01351070
KTNB,2022-10-31T19:10:00Z,KTNB 311910Z AUTO 17006KT 10SM OVC009 14/14 A3003 RMK AO2 T01360136
KTNU,2022-10-31T19:35:00Z,KTNU 311935Z AUTO 26006G12KT 10SM CLR 18/02 A2987 RMK A01
KTOB,2022-10-31T19:35:00Z,KTOB 311935Z AUTO 25007KT 10SM CLR 17/00 A2984 RMK AO2
KTOC,2022-10-31T19:35:00Z,KTOC 311935Z AUTO 00000KT 10SM OVC006 17/15 A3000 RMK AO2 T01660152
KTOI,2022-10-31T18:53:00Z,KTOI 311853Z AUTO 29008KT 10SM SCT042 26/13 A3000 RMK AO2 SLP153 T02560128
KTOL,2022-10-31T18:52:00Z,KTOL 311852Z 23009KT 10SM FEW045 SCT060 OVC070 18/14 A2981 RMK AO2 SLP093 T01830144 $
KTOP,2022-10-31T18:53:00Z,KTOP 311853Z VRB06KT 10SM CLR 21/01 A2994 RMK AO2 SLP136 T02060011
KTOR,2022-10-31T18:53:00Z,KTOR 311853Z AUTO 29013G23KT 10SM CLR 18/M04 A2990 RMK AO2 PK WND 29026/1811 SLP117 T01781039
KTPA,2022-10-31T18:53:00Z,KTPA 311853Z 25006KT 10SM FEW025 FEW160 29/20 A2996 RMK AO2 SLP145 T02890200
KTPH,2022-10-31T18:56:00Z,KTPH 311856Z AUTO 18004KT 10SM CLR 14/M07 A3011 RMK AO2 SLP169 T01391072
KTPL,2022-10-31T18:51:00Z,KTPL 311851Z AUTO 00000KT 10SM CLR 24/09 A3003 RMK AO2 SLP161 T02440094
KTQE,2022-10-31T18:54:00Z,KTQE 311854Z AUTO 21010KT 10SM CLR 21/00 A2989 RMK AO2 SLP116 T02110000
KTQH,2022-10-31T19:35:00Z,KTQH 311935Z AUTO 22004KT 10SM CLR 24/M01 A2999 RMK AO2
KTQK,2022-10-31T19:35:00Z,KTQK 311935Z AUTO 20011KT 10SM CLR 22/01 A2994 RMK AO2 T02220008
KTQV,2022-10-31T19:35:00Z,KTQV 311935Z AUTO VRB03KT 10SM FEW040 SCT085 20/14 A3001 RMK A01
KTRI,2022-10-31T18:53:00Z,KTRI 311853Z 00000KT 10SM SCT038 SCT055 BKN250 19/16 A2996 RMK AO2 SLP126 T01940156 $
KTRK,2022-10-31T18:50:00Z,KTRK 311850Z 00000KT 10SM CLR 08/M05 A3010
KTRL,2022-10-31T18:53:00Z,KTRL 311853Z AUTO 35006KT 10SM CLR 24/05 A3002 RMK AO2 SLP162 T02440050
KTRM,2022-10-31T18:52:00Z,KTRM 311852Z AUTO 14007KT 10SM CLR 29/03 A2988 RMK AO2 SLP120 T02890028
KTSP,2022-10-31T19:35:00Z,KTSP 311935Z AUTO 13013KT 10SM CLR 21/M09 A3004 RMK AO2
KTTA,2022-10-31T19:35:00Z,KTTA 311935Z AUTO 00000KT 7SM -RA SCT028 BKN035 OVC050 20/20 A3000 RMK AO2 T02010200
KTTD,2022-10-31T18:53:00Z,KTTD 311853Z 23006KT 6SM -RA FEW046 BKN065 OVC080 14/11 A2993 RMK AO2 SLP134 P0005 T01390111
KTTF,2022-10-31T19:35:00Z,KTTF 311935Z AUTO 24012KT 10SM BKN016 OVC022 18/15 A2980 RMK AO2 T01810147
KTTN,2022-10-31T18:53:00Z,KTTN 311853Z 19007KT 10SM FEW027 FEW035 BKN100 17/12 A2999 RMK AO2 SLP149 T01670117
KTTS,2022-10-31T18:55:00Z,KTTS 311855Z AUTO 07008KT 10SM CLR 28/20 A2994 RMK AO2 SLP143 T02780198 $
KTUL,2022-10-31T18:53:00Z,KTUL 311853Z 00000KT 10SM FEW250 23/03 A2999 RMK AO2 SLP150 T02280033
KTUP,2022-10-31T18:53:00Z,KTUP 311853Z 22007KT 10SM FEW036 OVC055 21/12 A2997 RMK AO2 SLP146 T02110122
KTUS,2022-10-31T18:53:00Z,KTUS 311853Z 00000KT 10SM CLR 24/M01 A2999 RMK AO2 SLP125 T02391011
KTVC,2022-10-31T18:53:00Z,KTVC 311853Z 03005KT 10SM FEW180 SCT250 18/07 A2978 RMK AO2 SLP086 T01780072
KTVF,2022-10-31T18:56:00Z,KTVF 311856Z AUTO 21011KT 10SM CLR 13/01 A2970 RMK AO2 SLP065 T01330006
KTVI,2022-10-31T19:35:00Z,KTVI 311935Z AUTO 22006KT 10SM SCT033 BKN043 BKN049 27/18 A2997 RMK AO2
KTVL,2022-10-31T18:53:00Z,KTVL 311853Z AUTO 10003KT 10SM CLR 12/M03 A3008 RMK AO2 SLP168 T01221033
KTVR,2022-10-31T18:53:00Z,KTVR 311853Z AUTO VRB03KT 10SM FEW060 24/14 A3001 RMK AO2 SLP169 T02390139
KTVY,2022-10-31T19:35:00Z,KTVY 311935Z AUTO 08004KT 10SM CLR 15/00 A3010 RMK AO2
KTWF,2022-10-31T18:53:00Z,KTWF 311853Z 09005KT 10SM CLR 15/01 A3004 RMK AO2 SLP150 T01500011
KTWM,2022-10-31T19:35:00Z,KTWM 311935Z AUTO 19009KT 10SM CLR 16/00 A2974 RMK AO2
KTWT,2022-10-31T19:35:00Z,KTWT 311935Z AUTO 27005KT 10SM SCT036 BKN055 OVC070 17/15 A2989 RMK AO2
KTXK,2022-10-31T18:53:00Z,KTXK 311853Z 32003KT 10SM CLR 24/11 A3001 RMK AO2 SLP158 T02390106
KTXW,2022-10-31T19:30:00Z,KTXW 311930Z AUTO 08008KT M1/4SM HZ BKN035 OVC050 26/18 A2992 RMK AO2 T02590180
KTYL,2022-10-31T19:35:00Z,KTYL 311935Z AUTO 03004KT 10SM CLR 16/M07 A3012 RMK AO2
KTYQ,2022-10-31T19:35:00Z,KTYQ 311935Z AUTO 22011KT 10SM BKN013 OVC020 16/14 A2983 RMK AO2 T01550136
KTYR,2022-10-31T18:53:00Z,KTYR 311853Z 00000KT 10SM CLR 24/11 A3002 RMK AO2 SLP160 T02440106
KTYS,2022-10-31T19:10:00Z,KTYS 311910Z 25013KT 10SM FEW017 SCT021 OVC032 19/14 A2994 RMK AO2 T01890139
KTZR,2022-10-31T18:47:00Z,KTZR 311847Z 22011KT 10SM BKN022 BKN027 OVC070 18/14 A2988
KU42,2022-10-31T19:35:00Z,KU42 311935Z AUTO 13005KT 10SM CLR 14/01 A3010 RMK AO1 T01360013
KU55,2022-10-31T19:35:00Z,KU55 311935Z AUTO 02003KT 10SM 11/M07 A3016 RMK A01
KU68,2022-10-31T19:35:00Z,KU68 311935Z AUTO 13012G17KT 10SM CLR 13/M06 A2989 RMK AO2
KUAO,2022-10-31T18:53:00Z,KUAO 311853Z 19010KT 4SM -RA BR BKN008 BKN060 OVC075 13/13 A2994 RMK AO2 SLP138 P0003 T01280128
KUBE,2022-10-31T19:35:00Z,KUBE 311935Z AUTO 24008KT 10SM CLR 17/03 A2981 RMK AO2
KUCP,2022-10-31T18:56:00Z,KUCP 311856Z AUTO VRB03KT 9SM OVC007 16/16 A2991 RMK AO2 SLP143 T01560156
KUCY,2022-10-31T19:35:00Z,KUCY 311935Z AUTO 23011KT 10SM FEW017 SCT037 OVC050 18/15 A2992 RMK A01
KUDG,2022-10-31T18:56:00Z,KUDG 311856Z AUTO 19007KT 10SM FEW025 26/20 A2999 RMK AO2 RAB00E13 SLP157 P0000 T02560200
KUES,2022-10-31T18:45:00Z,KUES 311845Z 00000KT 10SM CLR 17/08 A2982
KUGN,2022-10-31T18:55:00Z,KUGN 311855Z VRB04KT 10SM BKN017 OVC050 15/11 A2981 RMK AO2 SLP092 T01500106
KUIL,2022-10-31T18:53:00Z,KUIL 311853Z AUTO 27007KT 10SM SCT045 OVC050 10/08 A2986 RMK AO2 RAE05 SLP113 P0000 T01000083
KUIN,2022-10-31T18:54:00Z,KUIN 311854Z AUTO 32009KT 10SM CLR 16/08 A2988 RMK AO2 SLP117 T01610083
KUKF,2022-10-31T19:35:00Z,KUKF 311935Z AUTO 00000KT 10SM OVC005 13/13 A3005 RMK AO2
KUKI,2022-10-31T18:56:00Z,KUKI 311856Z AUTO 00000KT 10SM CLR 17/07 A2994 RMK AO2 SLP134 T01720067
KUKL,2022-10-31T19:35:00Z,KUKL 311935Z AUTO 24005KT 10SM CLR A2996 RMK AO2
KUKT,2022-10-31T19:35:00Z,KUKT 311935Z AUTO 22005KT 10SM OVC022 17/13 A3000 RMK A01
KULM,2022-10-31T19:35:00Z,KULM 311935Z AUTO 22005KT 10SM CLR 19/M04 A2982 RMK AO2
KULS,2022-10-31T19:35:00Z,KULS 311935Z AUTO 26009KT 10SM CLR 22/00 A2993 RMK AO2
KUMP,2022-10-31T19:35:00Z,KUMP 311935Z AUTO 24004KT 1 3/4SM BKN010 OVC016 16/16 A2984 RMK AO2 P0004 T01600155
KUNI,2022-10-31T19:35:00Z,KUNI 311935Z AUTO 20003KT 10SM OVC065 19/14 A2989 RMK AO2 T01930144
KUNO,2022-10-31T18:53:00Z,KUNO 311853Z AUTO 26006KT 10SM CLR 19/09 A2995 RMK AO2 SLP135 T01940089
KUNU,2022-10-31T19:35:00Z,KUNU 311935Z AUTO 24005KT 10SM CLR 17/05 A2981 RMK AO2 T01720050
KUNV,2022-10-31T18:53:00Z,KUNV 311853Z 21005KT 10SM OVC020 13/08 A2996
KUOX,2022-10-31T19:35:00Z,KUOX 311935Z AUTO 30008G14KT 10SM BKN035 OVC041 20/12 A2998 RMK AO2
KUSE,2022-10-31T19:35:00Z,KUSE 311935Z AUTO 24013KT 10SM SCT023 BKN030 OVC070 17/17 A2980 RMK AO2
KUTA,2022-10-31T19:35:00Z,KUTA 311935Z AUTO 28005KT 10SM BKN035 BKN045 21/14 A2996 RMK AO2 T02140135 $
KUTS,2022-10-31T18:53:00Z,KUTS 311853Z AUTO 00000KT 10SM CLR 24/12 A3002 RMK AO2 SLP162 T02440117
KUUU,2022-10-31T19:00:00Z,KUUU 311900Z AUTO 18007KT 10SM OVC014 15/13 A3002 RMK AO2 T01500133
KUVA,2022-10-31T19:35:00Z,KUVA 311935Z AUTO 11007KT 10SM SCT046 BKN080 25/13 A3000 RMK AO2 T02450127
KUXL,2022-10-31T19:35:00Z,KUXL 311935Z AUTO 32004KT 10SM CLR 25/12 A3001 RMK AO2 T02540115
KUYF,2022-10-31T19:35:00Z,KUYF 311935Z AUTO 21013KT 10SM SCT024 SCT029 OVC065 17/12 A2987 RMK AO2
KUZA,2022-10-31T19:20:00Z,KUZA 311920Z AUTO 29005KT 1 3/4SM -RA BR FEW006 BKN033 OVC043 18/17 A3000 RMK AO2 P0004 T01780172
KVAD,2022-10-31T18:55:00Z,KVAD 311855Z AUTO 21004KT 10SM BKN037 28/19 A2994 RMK AO2 SLP139 T02840187 $
KVAF,2022-10-31T19:35:00Z,KVAF 311935Z AUTO 07010KT 10SM FEW038 26/14 A2999 RMK A01
KVAY,2022-10-31T19:26:00Z,KVAY 311926Z AUTO 23004KT 10SM BKN029 BKN070 OVC095 18/12 A3000 RMK AO2 T01830117
KVBG,2022-10-31T18:55:00Z,KVBG 311855Z 00000KT 10SM FEW003 BKN200 13/11 A2996 RMK AO2A SLP149 T01270108
KVBT,2022-10-31T18:56:00Z,KVBT 311856Z AUTO 29008KT 10SM CLR 21/08 A3000 RMK AO2 SLP155 T02060078
KVCB,2022-10-31T18:53:00Z,KVCB 311853Z AUTO 35008KT 10SM CLR 18/06 A2997 RMK AO2 SLP148 T01830061
KVCT,2022-10-31T18:51:00Z,KVCT 311851Z 09006KT 10SM CLR 27/12 A2999 RMK AO2 SLP154 T02670122
KVCV,2022-10-31T19:35:00Z,KVCV 311935Z AUTO 00000KT 10SM CLR 22/M09 A3002 RMK AO2
KVDF,2022-10-31T19:35:00Z,KVDF 311935Z AUTO 00000KT 10SM CLR 31/20 A2995 RMK AO2
KVDI,2022-10-31T19:35:00Z,KVDI 311935Z AUTO 22008KT 10SM BKN035 BKN042 OVC060 29/19 A2997 RMK AO2
KVEL,2022-10-31T18:53:00Z,KVEL 311853Z AUTO 10SM CLR 11/M03 A3014 RMK AO2 SLP199 T01061028
KVER,2022-10-31T19:35:00Z,KVER 311935Z AUTO 28007KT 10SM CLR 19/07 A2992 RMK AO2 T01940066
KVES,2022-10-31T19:35:00Z,KVES 311935Z AUTO 26010G15KT 10SM SCT027 BKN038 OVC055 17/12 A2985 RMK AO2
KVGC,2022-10-31T19:35:00Z,KVGC 311935Z AUTO 16006KT 10SM BKN034 15/07 A2993 RMK AO2
KVGT,2022-10-31T18:53:00Z,KVGT 311853Z 14004KT 10SM CLR 21/M06 A3002 RMK AO2 SLP170 T02111061
KVHN,2022-10-31T19:35:00Z,KVHN 311935Z AUTO 00000KT 10SM CLR 20/04 A3005 RMK AO2 T02040036
KVIH,2022-10-31T18:53:00Z,KVIH 311853Z AUTO 29010KT 10SM FEW032 BKN090 18/09 A2993 RMK AO2 SLP129 T01780094
KVIS,2022-10-31T18:56:00Z,KVIS 311856Z AUTO 29003KT 10SM CLR 21/05 A2996 RMK AO2 SLP151 T02110050
KVJI,2022-10-31T19:35:00Z,KVJI 311935Z AUTO 00000KT 10SM SCT010 SCT029 BKN065 18/17 A2998 RMK AO2 T01800165
KVKS,2022-10-31T19:35:00Z,KVKS 311935Z AUTO 27006KT 10SM CLR 24/13 A2999 RMK A01
KVLD,2022-10-31T18:53:00Z,KVLD 311853Z 22004KT 10SM FEW041 SCT050 BKN065 29/19 A2996 RMK AO2 SLP150 T02890189
KVLL,2022-10-31T19:35:00Z,KVLL 311935Z AUTO 23003KT 10SM OVC007 15/13 A2982 RMK AO2 T01450132
KVNW,2022-10-31T19:35:00Z,KVNW 311935Z AUTO 23006KT 7SM SCT029 BKN044 OVC050 16/13 A2983 RMK AO2
KVNY,2022-10-31T18:51:00Z,KVNY 311851Z 11003KT 10SM CLR 27/00 A2991 RMK AO2 SLP119 T02720000
KVOA,2022-10-31T19:40:00Z,KVOA 311940Z AUTO 36004KT 10SM CLR 22/15 A3001 RMK A01
KVOK,2022-10-31T18:55:00Z,KVOK 311855Z 26003KT 10SM FEW200 19/05 A2980 RMK AO2A SLP098
KVPC,2022-10-31T19:35:00Z,KVPC 311935Z AUTO VRB04KT 10SM FEW041 BKN050 21/12 A2998 RMK AO2
KVPS,2022-10-31T18:55:00Z,KVPS 311855Z 00000KT 10SM CLR 24/16 A2996 RMK AO2A SLP152 T02350160 $
KVPZ,2022-10-31T18:56:00Z,KVPZ 311856Z AUTO 34004KT 10SM BKN006 OVC019 16/14 A2980 RMK AO2 CIG 004V010 SLP091 P0001 T01610139
KVQQ,2022-10-31T18:50:00Z,KVQQ 311850Z 21005KT 10SM BKN041 32/21 A2996
KVRB,2022-10-31T19:00:00Z,KVRB 311900Z 10009KT 10SM CLR 29/24 A2995 RMK AO2 T02940239
KVSF,2022-10-31T18:54:00Z,KVSF 311854Z AUTO 16004KT 10SM FEW120 17/06 A2995 RMK AO2 SLP146 T01720056
KVTA,2022-10-31T18:54:00Z,KVTA 311854Z AUTO 25012KT 10SM FEW042 OVC065 21/13 A2986 RMK AO2 SLP108 T02110128
KVTI,2022-10-31T19:35:00Z,KVTI 311935Z AUTO 29006KT 10SM CLR 20/03 A2986 RMK AO2 T02020030
KVTN,2022-10-31T18:52:00Z,KVTN 311852Z AUTO 10SM CLR 20/M05 A2984 RMK AO2 SLP108 T02001050
KVTP,2022-10-31T19:35:00Z,KVTP 311935Z AUTO 26011G16KT 10SM CLR 02/M09 A3017 RMK AO2
KVUJ,2022-10-31T19:35:00Z,KVUJ 311935Z AUTO 18006KT 10SM BKN017 BKN032 OVC100 22/18 A3002 RMK AO2 T02220181
KVUO,2022-10-31T19:12:00Z,KVUO 311912Z AUTO 00000KT 10SM -RA SCT009 SCT065 OVC080 13/12 A2993 RMK AO2 P0000 T01330117
KVVS,2022-10-31T19:35:00Z,KVVS 311935Z AUTO 22007KT 10SM OVC011 17/15 A2994 RMK AO2 T01700148
KVVV,2022-10-31T19:35:00Z,KVVV 311935Z 21004KT 10SM 21/M02 A2976 RMK AO2
KVWU,2022-10-31T19:35:00Z,KVWU 311935Z AUTO 25005KT 10SM CLR 13/03 A2969 RMK AO2
KVYS,2022-10-31T19:35:00Z,KVYS 311935Z AUTO 29006KT 10SM OVC020 16/12 A2983 RMK AO2 T01550121
KW22,2022-10-31T19:35:00Z,KW22 311935Z AUTO 00000KT 10SM 17/17 A2995 RMK AO2
KW29,2022-10-31T19:35:00Z,KW29 311935Z AUTO 17007KT 10SM BKN029 OVC060 19/14 A3001 RMK AO2 T01860138
KW31,2022-10-31T19:35:00Z,KW31 311935Z AUTO 00000KT 10SM SCT032 OVC038 21/15 A3001 RMK AO1 T02060150
KW43,2022-10-31T19:35:00Z,KW43 311935Z AUTO 23009KT 10SM CLR 17/M05 A2986 RMK AO2
KW78,2022-10-31T19:35:00Z,KW78 311935Z AUTO 19004KT 10SM OVC032 21/15 A3001 RMK AO1 T02070152
KW81,2022-10-31T19:35:00Z,KW81 311935Z AUTO 15006KT 10SM BKN033 BKN040 21/12 A3000 RMK AO1 T02110122
KW96,2022-10-31T19:35:00Z,KW96 311935Z AUTO 19004KT 10SM SCT095 22/14 A3001 RMK AO1 T02160136
KW99,2022-10-31T19:19:00Z,KW99 311919Z AUTO 00000KT 10SM BKN044 BKN060 OVC080 14/14 A2997 RMK AO2
KWAL,2022-10-31T18:54:00Z,KWAL 311854Z 17009KT 10SM OVC060 18/13 A3004 RMK AO2 SLP169 T01780128
KWBF,2022-10-31T19:35:00Z,KWBF 311935Z AUTO 00000KT 27/18 A3000 RMK A01
KWDG,2022-10-31T18:45:00Z,KWDG 311845Z 15007KT 10SM SCT120 21/05 A3000
KWDR,2022-10-31T19:35:00Z,KWDR 311935Z AUTO 00000KT 5SM BR OVC004 17/16 A3000 RMK AO2
KWHP,2022-10-31T18:55:00Z,KWHP 311855Z 13006KT 10SM SKC 25/M05 A2995 RMK OBSERVER PT.
KWJF,2022-10-31T18:56:00Z,KWJF 311856Z 08003KT 10SM CLR 21/M06 A3001 RMK AO2 SLP157 T02061061
KWLD,2022-10-31T18:54:00Z,KWLD 311854Z AUTO 28007KT 10SM CLR 22/01 A2999 RMK AO2 SLP150 T02170006
KWMC,2022-10-31T18:56:00Z,KWMC 311856Z AUTO 00000KT 10SM CLR 14/M05 A3005 RMK AO2 SLP165 T01391050
KWRB,2022-10-31T18:55:00Z,KWRB 311855Z AUTO 23009KT 10SM FEW033 25/20 A2995 RMK AO2 SLP142 T02530196
KWRI,2022-10-31T19:05:00Z,KWRI 311905Z AUTO 16004KT 10SM FEW030 19/12 A2998 RMK AO2 SLP152 $
KWRL,2022-10-31T18:53:00Z,KWRL 311853Z AUTO 07006KT 10SM CLR 15/M04 A2991 RMK AO2 SLP130 T01501039
KWST,2022-10-31T18:53:00Z,KWST 311853Z AUTO 23005KT 10SM BKN016 OVC024 17/13 A3002 RMK AO2 SLP163 T01720133
KWVI,2022-10-31T19:03:00Z,KWVI 311903Z AUTO 19003KT 10SM SCT007 12/09 A2997 RMK AO2 T01170094
KWVL,2022-10-31T18:56:00Z,KWVL 311856Z AUTO 21006KT 10SM CLR 18/08 A2991 RMK AO2 SLP157 T01780078
KWWD,2022-10-31T18:56:00Z,KWWD 311856Z AUTO 17007KT 10SM CLR 19/13 A3002 RMK AO2 SLP167 T01890133 $
KWWR,2022-10-31T19:35:00Z,KWWR 311935Z AUTO 24007KT 10SM CLR 23/01 A3000 RMK AO2
KX07,2022-10-31T19:35:00Z,KX07 311935Z AUTO 00000KT 10SM CLR 31/20 A2995 RMK A01
KX26,2022-10-31T19:35:00Z,KX26 311935Z AUTO 06009KT 10SM SCT023 BKN028 28/23 A2995 RMK AO2 T02810229
KX60,2022-10-31T19:35:00Z,KX60 311935Z AUTO 00000KT 10SM SCT050 OVC070 29/18 A2996 RMK AO2
KXBP,2022-10-31T19:35:00Z,KXBP 311935Z AUTO 09004KT 10SM CLR 24/07 A3003 RMK AO2 T02410071
KXER,2022-10-31T19:35:00Z,KXER 311935Z AUTO 36008KT 10SM 23/16 A2992 RMK A01
KXIF,2022-10-31T18:55:00Z,KXIF 311855Z AUTO 00000KT 6SM HZ SCT021 BKN027 14/12 A2997 RMK AO2 SLP154 T01410118 $
KXLL,2022-10-31T19:35:00Z,KXLL 311935Z AUTO 18004KT 10SM BKN024 OVC030 17/12 A3000 RMK AO2
KXMR,2022-10-31T18:55:00Z,KXMR 311855Z AUTO 08006KT 10SM CLR 28/23 A2994 RMK AO2 SLP142 T02820226 $
KXNA,2022-10-31T18:53:00Z,KXNA 311853Z 27009KT 10SM CLR 21/09 A2999 RMK AO2 SLP147 T02060089
KXNO,2022-10-31T19:26:00Z,KXNO 311926Z AUTO 16006KT 10SM BKN034 BKN046 27/27 A2997 RMK AO2 DZB17E26 SLP149 $
KXNX,2022-10-31T19:35:00Z,KXNX 311935Z AUTO 21005KT 10SM FEW028 SCT042 OVC065 19/15 A2996 RMK A01
KXSA,2022-10-31T19:35:00Z,KXSA 311935Z AUTO 17006KT 10SM BKN032 BKN055 21/15 A3002 RMK AO2 T02130150
KXVG,2022-10-31T19:33:00Z,KXVG 311933Z AUTO 20005KT 10SM CLR 18/M02 A2973 RMK AO2
KXWA,2022-10-31T18:51:00Z,KXWA 311851Z AUTO 23011KT 10SM CLR 14/02 A2971 RMK AO2 SLP074 T01440017
KY19,2022-10-31T19:35:00Z,KY19 311935Z AUTO 27005KT 10SM CLR 15/03 A2976 RMK AO2
KY23,2022-10-31T19:35:00Z,KY23 311935Z AUTO 20006KT 10SM CLR 18/03 A2981 RMK AO2 T01800029
KY31,2022-10-31T19:35:00Z,KY31 311935Z AUTO 30004KT 10SM CLR 18/09 A2978 RMK AO2 T01820085
KY49,2022-10-31T19:35:00Z,KY49 311935Z AUTO 22009KT 10SM CLR 16/M01 A2973 RMK AO2 T01581008
KY51,2022-10-31T19:35:00Z,KY51 311935Z AUTO 00000KT 10SM CLR 17/06 A2983 RMK AO1 T01710060
KY63,2022-10-31T19:35:00Z,KY63 311935Z AUTO 21009KT 10SM CLR 19/M01 A2977 RMK AO2 T01891007
KY70,2022-10-31T19:35:00Z,KY70 311935Z AUTO 00000KT 7SM OVC006 14/14 A2980 RMK AO2 T01390139
KYIP,2022-10-31T18:53:00Z,KYIP 311853Z AUTO A2980 RMK AO2 SLPNO PWINO TSNO $
KYKM,2022-10-31T18:53:00Z,KYKM 311853Z AUTO 02003KT 10SM BKN075 OVC110 14/07 A2981 RMK AO2 RAB1754E35 SLP093 P0000 T01440072
KYKN,2022-10-31T18:56:00Z,KYKN 311856Z AUTO 17008KT 10SM CLR 21/01 A2984 RMK AO2 SLP116 T02060006
KYNG,2022-10-31T19:23:00Z,KYNG 311923Z 20008KT 10SM BKN012 BKN034 OVC070 18/14 A2988 RMK AO2 T01780139
KZER,2022-10-31T19:35:00Z,KZER 311935Z AUTO 15005KT 7SM BKN007 OVC013 11/10 A3000 RMK AO2
KZPH,2022-10-31T19:35:00Z,KZPH 311935Z AUTO 32004KT 10SM SCT060 31/19 A2996 RMK A02 T03070185
KZZV,2022-10-31T18:53:00Z,KZZV 311853Z AUTO 20009KT 10SM FEW027 OVC070 19/14 A2988 RMK AO2 SLP115 T01940139
LATI,2022-10-31T19:20:00Z,LATI 311920Z VRB02KT CAVOK 15/11 Q1021 NOSIG
LBBG,2022-10-31T19:30:00Z,LBBG 311930Z AUTO 35002KT 9999 NCD 13/09 Q1022 NOSIG
LBGO,2022-10-31T19:30:00Z,LBGO 311930Z AUTO 08003KT 9999 NCD 08/06 Q1022 NOSIG
LBIA,2022-10-31T19:00:00Z,LBIA 311900Z 07002KT 9999 FEW100 14/08 Q1022
LBPD,2022-10-31T19:30:00Z,LBPD 311930Z AUTO 15007KT 9999 NCD 17/08 Q1022 NOSIG
LBPG,2022-10-31T19:00:00Z,LBPG 311900Z 30002KT 9999 SCT100 16/06 Q1022
LBPL,2022-10-31T19:00:00Z,LBPL 311900Z 19004KT 9999 SKC 15/08 Q1021
LBSF,2022-10-31T19:30:00Z,LBSF 311930Z 00000KT CAVOK 12/07 Q1024 NOSIG
LBWN,2022-10-31T19:30:00Z,LBWN 311930Z AUTO VRB02KT 9999 NCD 12/08 Q1022 NOSIG
LCEN,2022-10-31T19:20:00Z,LCEN 311920Z 28007KT 9999 FEW020 19/14 Q1015 NOSIG RMK RWY11 28005KT
LCLK,2022-10-31T19:30:00Z,LCLK 311930Z 30007KT 9999 FEW050 21/16 Q1014 NOSIG
LCPH,2022-10-31T19:30:00Z,LCPH 311930Z 01005KT 360V060 CAVOK 19/13 Q1015
LCRA,2022-10-31T19:20:00Z,LCRA 311920Z 29002KT 9999 FEW080 20/12 Q1014 NOSIG
LDDU,2022-10-31T19:30:00Z,LDDU 311930Z 10005KT 020V160 CAVOK 19/12 Q1021 NOSIG
LDOS,2022-10-31T19:30:00Z,LDOS 311930Z 06005KT 0150 FG VV001 10/10 Q1023
LDPL,2022-10-31T19:30:00Z,LDPL 311930Z 06003KT CAVOK 13/12 Q1021
LDSP,2022-10-31T19:30:00Z,LDSP 311930Z 26001KT CAVOK 17/12 Q1021 NOSIG
LDZA,2022-10-31T19:30:00Z,LDZA 311930Z 00000KT 0100 R04/0400N R22/0400N FG VV001 11/10 Q1022 NOSIG
LDZD,2022-10-31T19:30:00Z,LDZD 311930Z VRB01KT CAVOK 12/11 Q1021
LEAB,2022-10-31T19:30:00Z,LEAB 311930Z 21002KT CAVOK 17/08 Q1024 NOSIG
LEAG,2022-10-31T19:30:00Z,LEAG 311930Z AUTO VRB01KT CAVOK 20/18 Q1021
LEAL,2022-10-31T19:30:00Z,LEAL 311930Z 28003KT CAVOK 20/18 Q1020 NOSIG
LEAM,2022-10-31T19:30:00Z,LEAM 311930Z 23003KT 190V300 CAVOK 21/18 Q1020
LEAO,2022-10-31T19:30:00Z,LEAO 311930Z 00000KT 9999 FEW049 16/10 Q1022
LEAS,2022-10-31T19:30:00Z,LEAS 311930Z 28016KT 9999 SCT020 SCT045 15/12 Q1019 NOSIG
LEBA,2022-10-31T19:30:00Z,LEBA 311930Z 19003KT CAVOK 19/16 Q1021
LEBB,2022-10-31T19:38:00Z,LEBB 311938Z VRB01KT 8000 -RA SCT025 BKN040 16/15 Q1018 RERA TEMPO 3000 RA
LEBG,2022-10-31T19:30:00Z,LEBG 311930Z AUTO 21012KT 170V230 9999 BKN009 BKN013 13/11 Q1020
LEBL,2022-10-31T19:30:00Z,LEBL 311930Z 21005KT 170V250 9999 SCT016 BKN040 21/19 Q1020 NOSIG
LEBR,2022-10-31T19:30:00Z,LEBR 311930Z AUTO 12008KT 9000 NSC 17/16 Q1019
LEBT,2022-10-31T19:30:00Z,LEBT 311930Z AUTO VRB01KT CAVOK 19/16 Q1020
LEBZ,2022-10-31T19:30:00Z,LEBZ 311930Z 22006KT 190V250 9999 FEW018 SCT030 19/17 Q1020
LECH,2022-10-31T19:30:00Z,LECH 311930Z AUTO 22004KT 9000 NSC 18/16 Q1020
LECO,2022-10-31T19:30:00Z,LECO 311930Z 22007KT 9999 FEW025 13/11 Q1020 NOSIG
LEDA,2022-10-31T19:30:00Z,LEDA 311930Z AUTO 18007KT CAVOK 19/16 Q1020
LEGE,2022-10-31T19:30:00Z,LEGE 311930Z 20006KT 9999 SCT045 19/17 Q1019
LEGR,2022-10-31T19:30:00Z,LEGR 311930Z VRB01KT 9999 FEW110 19/09 Q1022
LEHC,2022-10-31T19:30:00Z,LEHC 311930Z AUTO 11003KT 060V150 9999 -RA SCT060 OVC070 15/14 Q1021
LEIB,2022-10-31T19:30:00Z,LEIB 311930Z 15002KT 9999 FEW016 20/18 Q1020 NOSIG
LEJR,2022-10-31T19:30:00Z,LEJR 311930Z 15003KT 8000 NSC 20/17 Q1020
LELC,2022-10-31T19:30:00Z,LELC 311930Z 25004KT 210V320 9999 FEW020 21/19 Q1020 NOSIG
LELL,2022-10-31T19:30:00Z,LELL 311930Z AUTO 19001KT 9000 FEW004 SCT038 19/18 Q1020
LELN,2022-10-31T19:30:00Z,LELN 311930Z 29010KT 250V330 9999 FEW050 10/07 Q1019
LELO,2022-10-31T19:30:00Z,LELO 311930Z AUTO VRB02KT 9999 SCT065 16/13 Q1018
LEMD,2022-10-31T19:30:00Z,LEMD 311930Z 18005KT 9999 SCT040 BKN070 16/12 Q1021 NOSIG
LEMG,2022-10-31T19:30:00Z,LEMG 311930Z 30007KT 270V340 CAVOK 20/16 Q1020 NOSIG
LEMH,2022-10-31T19:30:00Z,LEMH 311930Z 16006KT 9999 FEW018 21/18 Q1021
LEMI,2022-10-31T19:30:00Z,LEMI 311930Z VRB01KT 9999 FEW020 20/17 Q1021
LEMO,2022-10-31T19:30:00Z,LEMO 311930Z 24003KT CAVOK 19/14 Q1021 NOSIG
LEPA,2022-10-31T19:30:00Z,LEPA 311930Z VRB01KT 9000 FEW020 19/17 Q1020 NOSIG
LEPP,2022-10-31T19:30:00Z,LEPP 311930Z 08006KT 020V110 9999 SCT055 17/11 Q1018
LERS,2022-10-31T19:30:00Z,LERS 311930Z VRB02KT 9999 FEW017 19/18 Q1020
LERT,2022-10-31T19:30:00Z,LERT 311930Z 13005KT 8000 FEW010 20/19 Q1020 NOSIG
LESA,2022-10-31T19:30:00Z,LESA 311930Z AUTO VRB02KT 5000 RA SCT015 BKN022 14/13 Q1021
LESB,2022-10-31T19:30:00Z,LESB 311930Z AUTO VRB02KT CAVOK 20/17 Q1021
LESO,2022-10-31T19:31:00Z,LESO 311931Z 27004KT 220V360 9999 RA BKN023 OVC042 19/15 Q1018
LEST,2022-10-31T19:30:00Z,LEST 311930Z VRB02KT 9999 FEW020 11/10 Q1020 NOSIG
LETL,2022-10-31T19:30:00Z,LETL 311930Z AUTO 22011KT CAVOK 16/06 Q1023
LETO,2022-10-31T19:30:00Z,LETO 311930Z 20003KT 9999 SCT035 BKN069 15/12 Q1022 NOSIG
LETU,2022-10-31T19:30:00Z,LETU 311930Z AUTO 02005KT 9999 NSC 16/15 Q1019
LEVC,2022-10-31T19:30:00Z,LEVC 311930Z 29003KT CAVOK 20/17 Q1020 NOSIG
LEVD,2022-10-31T19:30:00Z,LEVD 311930Z 24004KT 9999 BKN012 13/12 Q1020
LEVS,2022-10-31T19:30:00Z,LEVS 311930Z AUTO 24007KT 220V280 9999 FEW035 SCT042 BKN069 15/12 Q1022
LEVT,2022-10-31T19:30:00Z,LEVT 311930Z 23006KT 9999 FEW055 BKN075 16/12 Q1018
LEVX,2022-10-31T19:30:00Z,LEVX 311930Z 00000KT 9999 BKN042 14/10 Q1021 NOSIG
LEXJ,2022-10-31T19:30:00Z,LEXJ 311930Z 29014KT 260V320 9999 SCT025 BKN035 17/13 Q1018
LEZG,2022-10-31T19:30:00Z,LEZG 311930Z VRB02KT 9999 FEW060 19/13 Q1019
LEZL,2022-10-31T19:30:00Z,LEZL 311930Z 14002KT CAVOK 19/15 Q1020 NOSIG
LFAC,2022-10-31T19:30:00Z,LFAC 311930Z AUTO 15008KT 9999 -RA ///CB 15/14 Q1006
LFAQ,2022-10-31T19:30:00Z,LFAQ 311930Z AUTO 18012KT 9999 -RA FEW024 BKN043 BKN054 16/14 Q1009
LFAT,2022-10-31T19:30:00Z,LFAT 311930Z AUTO 14015KT 9999 -RA SCT021/// BKN027/// BKN032/// //////CB 16/15 Q1005
LFBA,2022-10-31T19:30:00Z,LFBA 311930Z AUTO 15005KT 100V210 9999 -RA //////TCU 19/14 Q1015 BECMG 28010KT
LFBC,2022-10-31T19:30:00Z,LFBC 311930Z AUTO 27014KT 240V300 9999 FEW028/// OVC054/// ///CB 18/14 Q1016
LFBD,2022-10-31T19:30:00Z,LFBD 311930Z AUTO 26013KT 9999 -RA FEW030/// BKN060/// OVC092/// ///CB 18/15 Q1015 TEMPO 18010KT 4000 SHRA BECMG NSC
LFBE,2022-10-31T19:30:00Z,LFBE 311930Z AUTO 17006KT 9999 //////TCU 19/14 Q1014 TEMPO 20015G25KT SHRA BKN010 BKN030CB
LFBF,2022-10-31T19:00:00Z,LFBF 311900Z AUTO 10003KT CAVOK 20/16 Q1016
LFBG,2022-10-31T19:30:00Z,LFBG 311930Z AUTO 23011KT CAVOK 18/14 Q1014
LFBH,2022-10-31T19:30:00Z,LFBH 311930Z AUTO 24015KT 9999 BKN021 18/15 Q1012 BECMG 26020G37KT
LFBI,2022-10-31T19:30:00Z,LFBI 311930Z AUTO 21017KT 9999 FEW031 SCT054 BKN066 18/14 Q1012 TEMPO 20020G40KT 3000 SHRA BKN014 BKN025CB
LFBL,2022-10-31T19:30:00Z,LFBL 311930Z AUTO /////KT 9999 -RA ////// 16/13 Q1015
LFBM,2022-10-31T19:30:00Z,LFBM 311930Z AUTO 26014KT 9999 // NSC 20/13 Q1016
LFBO,2022-10-31T19:30:00Z,LFBO 311930Z AUTO 12006KT 9999 -RA NSC 20/16 Q1016 TEMPO SCT060TCU BKN090
LFBP,2022-10-31T19:30:00Z,LFBP 311930Z AUTO 25004KT 9999 FEW068/// BKN088/// BKN100/// ///TCU 19/12 Q1016 TEMPO 4000 RA BKN022
LFBT,2022-10-31T19:30:00Z,LFBT 311930Z AUTO VRB03KT 9999 BKN100/// OVC160/// //////TCU 18/10 Q1017 TEMPO BKN015
LFBU,2022-10-31T19:30:00Z,LFBU 311930Z AUTO 21011KT 190V250 9999 FEW019/// BKN076/// OVC098/// ///TCU 19/12 Q1014 TEMPO 22015G30KT 3000 SHRA SCT030CB
LFBX,2022-10-31T19:30:00Z,LFBX 311930Z AUTO VRB02KT 9999 //////TCU 18/14 Q1015
LFBY,2022-10-31T19:30:00Z,LFBY 311930Z AUTO 27004KT 240V320 9999 // ////// 18/15 Q1017
LFBZ,2022-10-31T19:30:00Z,LFBZ 311930Z AUTO 26009KT 9999 -RA BKN026/// BKN047/// OVC054/// ///TCU 18/16 Q1018 TEMPO VRB15G25KT TSRA BKN008 BKN030CB
LFCK,2022-10-31T19:30:00Z,LFCK 311930Z AUTO 10010KT 070V130 CAVOK 20/16 Q1017 TEMPO BKN035 SCT060CB
LFCR,2022-10-31T19:30:00Z,LFCR 311930Z AUTO 26004KT 230V290 9999 SCT046/// BKN056/// BKN072/// //////CB 17/14 Q1018 TEMPO SHRA
LFGA,2022-10-31T19:30:00Z,LFGA 311930Z AUTO VRB02KT CAVOK 12/10 Q1017
LFGJ,2022-10-31T19:30:00Z,LFGJ 311930Z AUTO 19011KT CAVOK 18/11 Q1015
LFHP,2022-10-31T19:00:00Z,LFHP 311900Z AUTO 18012KT 150V220 CAVOK 16/11 Q1018
LFJL,2022-10-31T19:30:00Z,LFJL 311930Z AUTO 14012KT CAVOK 16/10 Q1015 BECMG 22010KT
LFJR,2022-10-31T19:30:00Z,LFJR 311930Z AUTO 24019KT 9999 BKN029/// BKN036/// ///CB 18/13 Q1009
LFKB,2022-10-31T19:30:00Z,LFKB 311930Z AUTO 22003KT CAVOK 14/13 Q1023 NOSIG
LFKC,2022-10-31T19:30:00Z,LFKC 311930Z AUTO VRB03KT CAVOK 15/11 Q1023 NOSIG
LFKF,2022-10-31T19:30:00Z,LFKF 311930Z AUTO 05003KT CAVOK 10/09 Q1023 NOSIG
LFKJ,2022-10-31T19:30:00Z,LFKJ 311930Z AUTO 06005KT CAVOK 15/12 Q1023 NOSIG
LFKS,2022-10-31T19:30:00Z,LFKS 311930Z AUTO 27006KT 240V300 CAVOK 16/12 Q1023
LFLB,2022-10-31T19:30:00Z,LFLB 311930Z AUTO 12003KT CAVOK 11/10 Q1018 BECMG 22010KT
LFLC,2022-10-31T19:30:00Z,LFLC 311930Z AUTO 25017KT 200V280 9999 RA BKN048/// BKN064/// BKN092/// ///CB 19/12 Q1016 TEMPO 26020G35KT 2000 TSRA
LFLL,2022-10-31T19:30:00Z,LFLL 311930Z 16011KT 130V200 CAVOK 20/13 Q1016 NOSIG
LFLN,2022-10-31T19:30:00Z,LFLN 311930Z AUTO 18012KT 9999 -RA NSC 20/13 Q1015
LFLP,2022-10-31T19:30:00Z,LFLP 311930Z AUTO 06009KT CAVOK 13/11 Q1018 NOSIG
LFLS,2022-10-31T19:30:00Z,LFLS 311930Z AUTO 15004KT 120V180 CAVOK 15/11 Q1018 TEMPO 21015G25KT
LFLW,2022-10-31T19:30:00Z,LFLW 311930Z AUTO 19004KT 140V240 9999 FEW016/// SCT025/// BKN110/// ///CB 16/14 Q1018
LFLX,2022-10-31T19:30:00Z,LFLX 311930Z AUTO 19013KT CAVOK 18/13 Q1012 TEMPO 24020G35KT
LFLY,2022-10-31T19:30:00Z,LFLY 311930Z AUTO /////KT CAVOK 20/12 Q1016
LFMC,2022-10-31T19:30:00Z,LFMC 311930Z AUTO 07003KT 9999 ////// 17/15 Q1022
LFMD,2022-10-31T19:30:00Z,LFMD 311930Z AUTO 00000KT CAVOK 16/15 Q1022
LFMH,2022-10-31T19:30:00Z,LFMH 311930Z AUTO 19012KT CAVOK 19/12 Q1016
LFMI,2022-10-31T19:30:00Z,LFMI 311930Z AUTO 13014KT 9999 BKN026 BKN032 BKN047 21/17 Q1020 BECMG 15015G25KT
LFMK,2022-10-31T19:30:00Z,LFMK 311930Z AUTO 08009KT 060V120 9999 FEW016 BKN150 OVC200 20/17 Q1016
LFML,2022-10-31T19:30:00Z,LFML 311930Z AUTO 11012KT 9999 FEW025 BKN035 BKN048 21/16 Q1020 NOSIG
LFMN,2022-10-31T19:30:00Z,LFMN 311930Z 33004KT 9999 FEW015 SCT260 18/16 Q1022 NOSIG
LFMO,2022-10-31T19:30:00Z,LFMO 311930Z AUTO 14009KT 9999 FEW037/// BKN044/// BKN052/// //////TCU 21/14 Q1020 TEMPO 4000 TSRA BKN030CB
LFMP,2022-10-31T19:30:00Z,LFMP 311930Z AUTO 18015KT CAVOK 23/14 Q1015 BECMG 30008KT
LFMT,2022-10-31T19:30:00Z,LFMT 311930Z AUTO 14019KT 9999 BKN016/// BKN022/// BKN046/// ///CB 21/19 Q1019 TEMPO 14015G25KT 4000 RA OVC013 SCT030CB
LFMU,2022-10-31T19:30:00Z,LFMU 311930Z AUTO 14009KT 110V170 CAVOK 21/18 Q1017 BECMG OVC013
LFMV,2022-10-31T19:30:00Z,LFMV 311930Z AUTO 14012KT 100V160 9999 FEW032 BKN068 OVC150 21/14 Q1020 TEMPO 14015G25KT 4000 SHRA FEW080TCU
LFMY,2022-10-31T19:30:00Z,LFMY 311930Z AUTO 12005KT 080V160 9999 ////// 20/15 Q1021
LFOA,2022-10-31T19:30:00Z,LFOA 311930Z AUTO 17010KT 9999 //////TCU 17/15 Q1013
LFOB,2022-10-31T19:30:00Z,LFOB 311930Z AUTO 16013KT 9999 -RADZ FEW013/// OVC046/// ///TCU 16/15 Q1008 TEMPO 4000 RA BKN014 OVC040CB BECMG 18015G25KT
LFOE,2022-10-31T19:30:00Z,LFOE 311930Z AUTO 18017KT 9999 FEW019 SCT026 BKN035 17/14 Q1007 BECMG 20015G25KT
LFOH,2022-10-31T19:30:00Z,LFOH 311930Z AUTO 17011KT 140V200 9999 RA SCT012/// BKN017/// BKN060/// //////CB 16/14 Q1005
LFOJ,2022-10-31T19:30:00Z,LFOJ 311930Z AUTO 17015KT CAVOK 17/14 Q1009 TEMPO 22020G30KT 2000 SHRA BKN012 SCT040CB
LFOK,2022-10-31T19:30:00Z,LFOK 311930Z AUTO 19013KT 9999 -RA ///TCU 17/13 Q1013 TEMPO 4000 RA BECMG 18020G30KT
LFOP,2022-10-31T19:30:00Z,LFOP 311930Z AUTO 16016KT 9999 BKN012 BKN018 BKN032 15/14 Q1006 TEMPO 4000 RA BKN014 OVC040CB BECMG 18015G25KT
LFOT,2022-10-31T19:30:00Z,LFOT 311930Z AUTO 20014KT 9999 BKN035 BKN043 18/14 Q1010 TEMPO 24020G35KT BKN014
LFOV,2022-10-31T19:30:00Z,LFOV 311930Z AUTO 21010KT 9999 FEW023 SCT090 BKN130 14/13 Q1008
LFOZ,2022-10-31T19:30:00Z,LFOZ 311930Z AUTO 17011KT CAVOK 16/14 Q1011
LFPB,2022-10-31T19:30:00Z,LFPB 311930Z AUTO 16012KT CAVOK 17/15 Q1009 TEMPO 4000 RA SCT040TCU BECMG 20018G30KT
LFPG,2022-10-31T19:30:00Z,LFPG 311930Z 17013KT 9999 FEW020 BKN051 16/15 Q1010 NOSIG
LFPM,2022-10-31T19:30:00Z,LFPM 311930Z AUTO 15011KT 9999 //////TCU 16/15 Q1010
LFPN,2022-10-31T19:30:00Z,LFPN 311930Z AUTO 17012KT 9999 FEW013 BKN049 OVC058 16/14 Q1009 TEMPO 20020G35KT 4000 SHRA SCT020TCU
LFPO,2022-10-31T19:30:00Z,LFPO 311930Z 17010KT CAVOK 16/15 Q1010 NOSIG
LFPT,2022-10-31T19:30:00Z,LFPT 311930Z AUTO 17009KT CAVOK 16/15 Q1008
LFPV,2022-10-31T19:30:00Z,LFPV 311930Z AUTO 16012KT 9999 FEW011 BKN054 OVC100 16/14 Q1009 TEMPO 20015G35KT 2500 SHRA BKN025CB
LFQA,2022-10-31T19:30:00Z,LFQA 311930Z AUTO 20012KT 9999 -RA FEW044/// SCT070/// BKN090/// ///CB 16/14 Q1012
LFQB,2022-10-31T19:30:00Z,LFQB 311930Z AUTO 19006KT 9999 -RA //////TCU 17/13 Q1013
LFQQ,2022-10-31T19:30:00Z,LFQQ 311930Z AUTO 16013KT 9999 -RA FEW007/// SCT080/// BKN098/// ///TCU 16/13 Q1009 TEMPO 4000 RA BKN014 OVC040TCU BECMG 18015G25KT
LFRB,2022-10-31T19:30:00Z,LFRB 311930Z AUTO 25018KT 9999 BKN024 BKN031 12/09 Q1007 TEMPO 25025G45KT 3000 SHRA BKN005 BKN020CB
LFRC,2022-10-31T19:30:00Z,LFRC 311930Z AUTO 19014KT 9999 OVC011 14/13 Q1002
LFRD,2022-10-31T19:30:00Z,LFRD 311930Z AUTO 22018KT 9999 FEW025 BKN031 BKN038 14/12 Q1005 TEMPO 25020G45KT 3000 SHRA BKN008 BKN015CB
LFRG,2022-10-31T19:30:00Z,LFRG 311930Z AUTO 19012KT 150V210 5000 RA BR OVC006/// ///CB 15/14 Q1005 TEMPO SCT008 BKN030CB BECMG 20020G30KT
LFRH,2022-10-31T19:30:00Z,LFRH 311930Z AUTO 27024KT 9999 BKN027 BKN035 14/10 Q1009 TEMPO 4000 SHRA BKN008 SCT012CB BECMG 25015G30KT
LFRI,2022-10-31T19:30:00Z,LFRI 311930Z AUTO 25015G26KT 220V280 9999 OVC018 16/13 Q1011 NOSIG
LFRJ,2022-10-31T19:30:00Z,LFRJ 311930Z AUTO 24021KT 9999 SCT022 BKN028 BKN037 12/09 Q1006
LFRK,2022-10-31T19:30:00Z,LFRK 311930Z AUTO 19012KT 9999 -RA FEW019/// OVC094/// //////CB 15/14 Q1004 TEMPO 3000 SHRA BECMG 18020G30KT
LFRL,2022-10-31T19:30:00Z,LFRL 311930Z AUTO 26019G31KT 9999 FEW019 BKN026 BKN031 13/10 Q1007
LFRM,2022-10-31T19:30:00Z,LFRM 311930Z AUTO 18010KT 150V220 9999 SCT036/// BKN042/// //////CB 18/14 Q1008
LFRN,2022-10-31T19:30:00Z,LFRN 311930Z AUTO 23014KT 200V260 9999 BKN022 15/12 Q1007 TEMPO 24020G40KT 3000 SHRA BKN008 BKN015CB
LFRO,2022-10-31T19:30:00Z,LFRO 311930Z AUTO 24019KT 9999 BKN019 BKN024 BKN030 12/10 Q1005
LFRQ,2022-10-31T19:30:00Z,LFRQ 311930Z AUTO 26015KT 9999 BKN026 BKN033 13/09 Q1008 TEMPO 26020G40KT 3000 SHRA BKN004 BKN020CB
LFRS,2022-10-31T19:30:00Z,LFRS 311930Z AUTO 26010KT 9999 FEW017 BKN023 BKN035 15/13 Q1010 BECMG 25020G35KT
LFRT,2022-10-31T19:30:00Z,LFRT 311930Z AUTO 25022KT 9999 FEW014 SCT020 BKN026 13/09 Q1005
LFRV,2022-10-31T19:30:00Z,LFRV 311930Z AUTO 26012G28KT 220V290 9999 SCT021 BKN031 BKN037 13/10 Q1009
LFRZ,2022-10-31T19:30:00Z,LFRZ 311930Z AUTO 26018G29KT 9999 FEW022 BKN042 15/12 Q1009 BECMG 26025G42KT
LFSB,2022-10-31T19:30:00Z,LFSB 311930Z AUTO 17003KT CAVOK 12/11 Q1017 NOSIG
LFSD,2022-10-31T19:30:00Z,LFSD 311930Z AUTO 19007KT 150V220 CAVOK 18/12 Q1015
LFSG,2022-10-31T19:30:00Z,LFSG 311930Z AUTO VRB01KT CAVOK 13/10 Q1015
LFSI,2022-10-31T19:30:00Z,LFSI 311930Z AUTO 16010KT 130V190 CAVOK 19/12 Q1013
LFSL,2022-10-31T19:30:00Z,LFSL 311930Z AUTO 18003KT 150V220 9999 ///TCU 16/14 Q1016 TEMPO 20015G25KT 4000 SHRA BKN040CB
LFSN,2022-10-31T19:30:00Z,LFSN 311930Z AUTO 14005KT CAVOK 14/10 Q1015
LFSO,2022-10-31T19:30:00Z,LFSO 311930Z AUTO 15009KT CAVOK 17/10 Q1015
LFST,2022-10-31T19:30:00Z,LFST 311930Z AUTO 15003KT 120V190 8000 NSC 12/11 Q1016 TEMPO 4500 BR
LFSX,2022-10-31T19:30:00Z,LFSX 311930Z AUTO 08007KT CAVOK 14/11 Q1016
LFTH,2022-10-31T19:30:00Z,LFTH 311930Z AUTO 04003KT 9999 BKN026 BKN160 18/15 Q1022 NOSIG
LFTW,2022-10-31T19:30:00Z,LFTW 311930Z AUTO 14015KT 9999 -RADZ BKN013 BKN019 OVC049 20/18 Q1019
LFVP,2022-10-31T19:30:00Z,LFVP 311930Z AUTO 25019KT CAVOK 12/09 Q1012 NOSIG
LFYR,2022-10-31T19:30:00Z,LFYR 311930Z AUTO 19011KT 160V220 CAVOK 17/13 Q1011
LGAD,2022-10-31T18:50:00Z,LGAD 311850Z 00000KT 9999 FEW030 SCT080 18/14 Q1020
LGAL,2022-10-31T19:20:00Z,LGAL 311920Z 03006KT 9999 FEW030 15/10 Q1021
LGAV,2022-10-31T19:20:00Z,LGAV 311920Z 36005KT 9999 FEW030 20/08 Q1020 NOSIG
LGBL,2022-10-31T18:50:00Z,LGBL 311850Z 26004KT CAVOK 14/09 Q1021
LGEL,2022-10-31T19:20:00Z,LGEL 311920Z 36005KT 9999 FEW030 21/08 Q1020
LGHI,2022-10-31T18:50:00Z,LGHI 311850Z 36012KT 9999 FEW025 20/11 Q1017
LGIO,2022-10-31T19:20:00Z,LGIO 311920Z AUTO VRB02KT //// // ////// 13/07 Q1022 RE//
LGIR,2022-10-31T19:20:00Z,LGIR 311920Z 00000KT 9999 FEW025 16/13 Q1019 NOSIG
LGKL,2022-10-31T19:20:00Z,LGKL 311920Z 33004KT 9999 FEW025 SCT080 16/12 Q1020
LGKO,2022-10-31T19:20:00Z,LGKO 311920Z 34004KT CAVOK 20/12 Q1016
LGKP,2022-10-31T19:30:00Z,LGKP 311930Z AUTO 30015KT //// // ////// 18/14 Q1016 RE//
LGKR,2022-10-31T19:20:00Z,LGKR 311920Z 00000KT CAVOK 16/14 Q1019 NOSIG
LGKV,2022-10-31T19:20:00Z,LGKV 311920Z 00000KT 9999 FEW030 14/12 Q1021
LGKZ,2022-10-31T19:20:00Z,LGKZ 311920Z AUTO VRB03KT //// // ////// 15/04 Q1023 RE//
LGLM,2022-10-31T18:50:00Z,LGLM 311850Z 35003KT CAVOK 16/14 Q1020
LGMK,2022-10-31T19:20:00Z,LGMK 311920Z 01009KT 9999 FEW025 18/10 Q1018
LGMT,2022-10-31T19:20:00Z,LGMT 311920Z 34009KT 9999 SCT025 19/12 Q1019
LGPA,2022-10-31T19:20:00Z,LGPA 311920Z AUTO 35008KT //// -RA ////// 18/14 Q1018 RE//
LGPZ,2022-10-31T18:50:00Z,LGPZ 311850Z 00000KT CAVOK 15/13 Q1020
LGRP,2022-10-31T19:20:00Z,LGRP 311920Z 23009KT CAVOK 19/14 Q1015 NOSIG
LGRX,2022-10-31T18:50:00Z,LGRX 311850Z 00000KT CAVOK 17/14 Q1020
LGSA,2022-10-31T19:20:00Z,LGSA 311920Z 00000KT 9999 FEW020 14/12 Q1018
LGSM,2022-10-31T18:50:00Z,LGSM 311850Z 30002KT CAVOK 19/12 Q1016
LGSO,2022-10-31T19:20:00Z,LGSO 311920Z AUTO 34011KT 320V020 //// -RA ////// 20/12 Q1018 RE//
LGSR,2022-10-31T19:20:00Z,LGSR 311920Z 29005KT 9999 FEW025 18/12 Q1018
LGTS,2022-10-31T19:20:00Z,LGTS 311920Z 10007KT CAVOK 15/09 Q1021 NOSIG
LHBP,2022-10-31T19:30:00Z,LHBP 311930Z 11004KT 080V140 3400 -DZ BR OVC002 11/10 Q1024 BECMG 2800
LHDC,2022-10-31T19:15:00Z,LHDC 311915Z AUTO 06003KT 010V100 7000 OVC007 11/10 Q1024 NOSIG
LHKE,2022-10-31T19:15:00Z,LHKE 311915Z 11004KT 1500 BR OVC003 11/10 Q1024 NOSIG RMK AMB
LHPA,2022-10-31T19:15:00Z,LHPA 311915Z 16006KT 0800 R16/P1500 -DZ FG VV002 11/11 Q1022 NOSIG RMK AMB
LHPP,2022-10-31T19:21:00Z,LHPP 311921Z AUTO 11005KT 070V140 0350 R34/0450N FG VV001 11/11 Q1023
LHPR,2022-10-31T19:15:00Z,LHPR 311915Z AUTO 14007KT 8000 OVC003 11/10 Q1022
LHSM,2022-10-31T19:15:00Z,LHSM 311915Z AUTO 14002KT 1200 R16/P1500 BR BKN002 11/11 Q1022
LHSN,2022-10-31T19:15:00Z,LHSN 311915Z 13004KT 100V160 5000 BR OVC006 11/10 Q1024 TEMPO 3000 BR RMK YLO
LIBA,2022-10-31T18:55:00Z,LIBA 311855Z 27005KT CAVOK 16/10 Q1022 RMK SKC VIS MIN 9999 WIND THR11 28005KT WIND THR29 /////KT BLU
LIBC,2022-10-31T18:50:00Z,LIBC 311850Z 01003KT CAVOK 20/07 Q1021
LIBD,2022-10-31T19:20:00Z,LIBD 311920Z 22005KT CAVOK 13/11 Q1022
LIBF,2022-10-31T18:50:00Z,LIBF 311850Z 27003KT CAVOK 14/09 Q1022
LIBG,2022-10-31T18:50:00Z,LIBG 311850Z VRB02KT CAVOK 20/08 Q1020
LIBN,2022-10-31T18:55:00Z,LIBN 311855Z 35006KT CAVOK 17/16 Q1021 RMK SKC VIS MIN 9999 WIND THR14 35006KT WIND THR32 01005KT BLU
LIBP,2022-10-31T19:20:00Z,LIBP 311920Z AUTO 22004KT 9999 NCD 14/12 Q1023
LIBQ,2022-10-31T18:55:00Z,LIBQ 311855Z 05006KT 020V090 CAVOK 11/03 Q1028
LIBR,2022-10-31T19:20:00Z,LIBR 311920Z 33010KT CAVOK 20/17 Q1021
LIBV,2022-10-31T18:55:00Z,LIBV 311855Z 30002KT CAVOK 14/09 Q1022 RMK SKC VIS MIN 9999 WIND THR32 36005KT WIND THR14 36004KT BLU
LICA,2022-10-31T19:20:00Z,LICA 311920Z AUTO 07004KT 9999 SCT021/// 15/14 Q1023
LICB,2022-10-31T19:20:00Z,LICB 311920Z AUTO 10004KT 9999 NCD 15/12 Q1023
LICC,2022-10-31T19:20:00Z,LICC 311920Z 27005KT CAVOK 19/15 Q1022
LICD,2022-10-31T19:20:00Z,LICD 311920Z AUTO VRB01KT 9999 NCD 22/14 Q1023
LICF,2022-10-31T18:55:00Z,LICF 311855Z 03003KT CAVOK 20/15 Q1022 RMK SKC QUK / QUL / VIS MAR 12 KM MON INVIS NC VIS MIN 9999
LICG,2022-10-31T18:50:00Z,LICG 311850Z 13004KT CAVOK 18/15 Q1024
LICJ,2022-10-31T19:20:00Z,LICJ 311920Z 10003KT 030V130 CAVOK 19/14 Q1022
LICR,2022-10-31T19:20:00Z,LICR 311920Z AUTO 36013KT 9999 NCD 21/15 Q1022
LICT,2022-10-31T18:55:00Z,LICT 311855Z 34001KT CAVOK 17/16 Q1022 RMK SKC VIS MIN 9999 WIND THR13 09002KT BLU
LICZ,2022-10-31T18:55:00Z,LICZ 311855Z /////KT CAVOK 20/18 Q1021
LIEA,2022-10-31T19:20:00Z,LIEA 311920Z VRB01KT CAVOK 15/14 Q1023
LIEB,2022-10-31T18:55:00Z,LIEB 311855Z 29010KT CAVOK 19/16 Q1022 RMK FEW FEW200 QUK / QUL / VIS MAR 20 KM MON INVIS VIS MIN 9999
LIED,2022-10-31T18:55:00Z,LIED 311855Z 23002KT 9999 FEW030 18/17 Q1022 RMK SCT SCT200 VIS MIN 9999 WIND THR35 /////KT WIND THR17 30003KT BLU
LIEE,2022-10-31T19:20:00Z,LIEE 311920Z 13003KT 060V190 CAVOK 19/15 Q1023
LIEO,2022-10-31T19:20:00Z,LIEO 311920Z VRB01KT CAVOK 14/12 Q1023
LIMC,2022-10-31T19:20:00Z,LIMC 311920Z VRB02KT CAVOK 13/13 Q1022 NOSIG
LIME,2022-10-31T19:20:00Z,LIME 311920Z 01004KT CAVOK 15/10 Q1022 NOSIG
LIMF,2022-10-31T19:20:00Z,LIMF 311920Z 31004KT CAVOK 15/11 Q1022
LIMH,2022-10-31T18:55:00Z,LIMH 311855Z AUTO 19022KT //// M03/M07 Q1030
LIMJ,2022-10-31T19:20:00Z,LIMJ 311920Z 02005KT 9999 FEW015 18/16 Q1022
LIML,2022-10-31T19:20:00Z,LIML 311920Z 36003KT CAVOK 13/12 Q1022 NOSIG
LIMP,2022-10-31T18:50:00Z,LIMP 311850Z 19005KT 8000 NSC 15/12 Q1021
LIMU,2022-10-31T18:55:00Z,LIMU 311855Z 15005KT 9999 FEW020 18/15 Q1023 RMK SCT QUK / QUL / VIS MAR 25 KM VIS MIN 9999
LIMZ,2022-10-31T19:20:00Z,LIMZ 311920Z AUTO 24005KT 9999 NCD 13/10 Q1022
LIPA,2022-10-31T18:55:00Z,LIPA 311855Z 01005KT 9999 FEW080 16/15 Q1021 RMK FEW VIS MIN 9999 WIND THR05 /////KT WIND THR23 /////KT A3017 BLU
LIPB,2022-10-31T18:50:00Z,LIPB 311850Z 31003KT 270V330 CAVOK 10/09 Q1022
LIPC,2022-10-31T18:55:00Z,LIPC 311855Z 31002KT 6000 NSC 15/15 Q1021 RMK SCT SCT200 VIS MIN 6000 WIND THR11 34002KT WIND THR29 30002KT WHT
LIPE,2022-10-31T19:20:00Z,LIPE 311920Z VRB02KT CAVOK 15/11 Q1021
LIPH,2022-10-31T19:20:00Z,LIPH 311920Z VRB01KT CAVOK 15/13 Q1021
LIPI,2022-10-31T18:55:00Z,LIPI 311855Z 36001KT CAVOK 14/12 Q1021 RMK BKN BKN200 VIS MIN 9999 WIND THR06 03002KT WIND THR24 05002KT BLU
LIPL,2022-10-31T18:55:00Z,LIPL 311855Z 07004KT CAVOK 15/13 Q1020 RMK SKC VIS MIN 9999 WIND THR31 06003KT WIND THR13 03002KT BLU
LIPO,2022-10-31T19:20:00Z,LIPO 311920Z AUTO 01005KT 9999 NCD 15/12 Q1022
LIPQ,2022-10-31T19:20:00Z,LIPQ 311920Z AUTO 04002KT 9999 SCT220/// 12/12 Q1021
LIPR,2022-10-31T19:20:00Z,LIPR 311920Z AUTO 25003KT 7000 NCD 13/12 Q1021
LIPS,2022-10-31T18:55:00Z,LIPS 311855Z /////KT 6000 NSC 16/14 Q1021
LIPX,2022-10-31T19:20:00Z,LIPX 311920Z 35005KT CAVOK 14/11 Q1021
LIPY,2022-10-31T19:20:00Z,LIPY 311920Z AUTO 18002KT 9999 NCD 15/13 Q1022
LIPZ,2022-10-31T19:20:00Z,LIPZ 311920Z 22001KT 5000 BR NSC 15/15 Q1021 BECMG 3000 BR
LIQC,2022-10-31T18:55:00Z,LIQC 311855Z 00000KT CAVOK 18/16 Q1022 RMK SKC QUK / QUL / VIS MAR 20 KM VIS MIN 9999
LIQO,2022-10-31T18:55:00Z,LIQO 311855Z AUTO /////KT //// ///// Q////
LIRA,2022-10-31T19:20:00Z,LIRA 311920Z VRB02KT CAVOK 18/11 Q1022
LIRE,2022-10-31T18:55:00Z,LIRE 311855Z 02003KT CAVOK 17/15 Q1022 RMK SKC VIS MIN 9999 WIND THR13 02020KT WIND THR31 /////KT BLU
LIRF,2022-10-31T19:20:00Z,LIRF 311920Z 07004KT CAVOK 15/14 Q1022 NOSIG
LIRK,2022-10-31T18:55:00Z,LIRK 311855Z AUTO 19003KT //// 13/00 Q1033
LIRM,2022-10-31T18:55:00Z,LIRM 311855Z 33003KT CAVOK 16/13 Q1023 RMK SKC VIS MIN 9999 WIND THR06 35003KT BLU
LIRN,2022-10-31T19:20:00Z,LIRN 311920Z 09003KT CAVOK 18/11 Q1023 NOSIG
LIRP,2022-10-31T19:15:00Z,LIRP 311915Z VRB02KT 8000 NSC 15/15 Q1023 NOSIG
LIRQ,2022-10-31T19:20:00Z,LIRQ 311920Z 11003KT CAVOK 14/11 Q1023
LIRS,2022-10-31T18:55:00Z,LIRS 311855Z 02004KT CAVOK 14/12 Q1022 RMK SCT SCT200 VIS MIN 9999 WIND THR03 04003KT WIND THR21 04004KT BLU
LIRX,2022-10-31T18:55:00Z,LIRX 311855Z 30001KT CAVOK 18/08 Q1022 RMK FEW FEW200 VIS MIN 9999 VIS MAR 20 KM
LIRZ,2022-10-31T19:20:00Z,LIRZ 311920Z AUTO 35005KT 9999 NCD 13/10 Q1023
LIVC,2022-10-31T19:28:00Z,LIVC 311928Z AUTO 21025KT ///// 08/M04 Q1029
LIVD,2022-10-31T18:55:00Z,LIVD 311855Z AUTO VRB02KT //// 07/05 Q1026
LIVE,2022-10-31T18:55:00Z,LIVE 311855Z 15002KT CAVOK 10/03 Q1025 RMK SKC VIS MIN 9999
LIVF,2022-10-31T18:55:00Z,LIVF 311855Z 11002KT CAVOK 17/05 Q1022
LIVM,2022-10-31T18:55:00Z,LIVM 311855Z AUTO VRB01KT //// 18/15 Q1021
LIVP,2022-10-31T18:55:00Z,LIVP 311855Z 20015KT CAVOK 07/M04 Q1027
LIVR,2022-10-31T18:55:00Z,LIVR 311855Z 17009KT CAVOK 08/M01 Q1027 RMK SKC MON LIB VIS MIN 9999
LIVT,2022-10-31T18:55:00Z,LIVT 311855Z AUTO 06002KT //// 17/15 Q1021
LJCE,2022-10-31T19:30:00Z,LJCE 311930Z AUTO VRB01KT 0150 R09///// FG SCT002/// 11/10 Q1022
LJLJ,2022-10-31T19:30:00Z,LJLJ 311930Z VRB02KT 9999 MIFG NSC 10/10 Q1022 NOSIG
LJMB,2022-10-31T19:30:00Z,LJMB 311930Z VRB02KT 0200 R32/0600N FG VV002 11/11 Q1022
LJPZ,2022-10-31T19:30:00Z,LJPZ 311930Z 10004KT CAVOK 14/13 Q1022
LKCV,2022-10-31T19:30:00Z,LKCV 311930Z VRB02KT 0200 R31/0250N FG VV001 11/11 Q1019 NOSIG RMK RED RED
LKKB,2022-10-31T19:00:00Z,LKKB 311900Z 06004KT 0100 R24/0200N FG VV001 09/09 Q1019 NOSIG
LKKV,2022-10-31T19:00:00Z,LKKV 311900Z 09002KT CAVOK 10/08 Q1019
LKLN,2022-10-31T19:00:00Z,LKLN 311900Z AUTO VRB02KT 9999 FEW200 13/10 Q1019
LKMT,2022-10-31T19:30:00Z,LKMT 311930Z 22010KT 0400 R22/2000D R04/1700N FG VV002 09/09 Q1021 NOSIG
LKNA,2022-10-31T19:30:00Z,LKNA 311930Z 11006KT 0100 R30/0300 FG VV001 08/08 Q1021 NOSIG RMK RED RED
LKPD,2022-10-31T19:30:00Z,LKPD 311930Z 06003KT 0200 R27/0200D FG VV001 10/10 Q1019 NOSIG RMK RED RED
LKPR,2022-10-31T19:30:00Z,LKPR 311930Z 01003KT 0350 R24/0400D R30/0350N FG VV001 08/08 Q1019 NOSIG
LKTB,2022-10-31T19:30:00Z,LKTB 311930Z 14005KT 110V170 3200 -DZ BR OVC002 10/10 Q1021 NOSIG
LLBG,2022-10-31T19:20:00Z,LLBG 311920Z VRB03KT 9999 FEW035 22/15 Q1015 NOSIG
LLER,2022-10-31T18:50:00Z,LLER 311850Z 02013KT CAVOK 24/13 Q1014
LMML,2022-10-31T19:15:00Z,LMML 311915Z 30004KT CAVOK 18/14 Q1022 NOSIG
LOWG,2022-10-31T19:20:00Z,LOWG 311920Z AUTO 17004KT 0450 R16/0450N R34/0550N FG VV001 10/10 Q1022 NOSIG
LOWI,2022-10-31T19:20:00Z,LOWI 311920Z 27007KT 210V310 CAVOK 11/08 Q1020 NOSIG
LOWK,2022-10-31T19:20:00Z,LOWK 311920Z 32002KT CAVOK 11/11 Q1022 NOSIG
LOWL,2022-10-31T19:20:00Z,LOWL 311920Z AUTO 10010KT 5000 BR OVC001 10/10 Q1019 NOSIG
LOWS,2022-10-31T19:20:00Z,LOWS 311920Z AUTO 22003KT CAVOK 12/09 Q1018 NOSIG
LOWW,2022-10-31T19:20:00Z,LOWW 311920Z 14009KT 6000 -DZ SCT003 BKN004 11/10 Q1022 REDZ TEMPO DZ
LOXZ,2022-10-31T18:50:00Z,LOXZ 311850Z 31003KT 9999 FEW130 SCT270 07/05 Q1022
LPAZ,2022-10-31T19:30:00Z,LPAZ 311930Z 10006KT 9999 FEW032 15/11 Q1023
LPBJ,2022-10-31T19:00:00Z,LPBJ 311900Z 25004KT 9999 FEW018 18/16 Q1020
LPCS,2022-10-31T19:30:00Z,LPCS 311930Z 36009KT 9999 FEW008 SCT018 17/14 Q1020
LPFL,2022-10-31T19:30:00Z,LPFL 311930Z 25005KT 9999 FEW030 16/09 Q1022
LPFR,2022-10-31T19:30:00Z,LPFR 311930Z 29003KT 250V350 9999 FEW025 19/18 Q1020
LPHR,2022-10-31T19:30:00Z,LPHR 311930Z 01006KT 9999 FEW020 BKN045 16/11 Q1023
LPLA,2022-10-31T19:00:00Z,LPLA 311900Z /////KT 9999 FEW035 17/13 Q1023
LPMA,2022-10-31T19:30:00Z,LPMA 311930Z 24003KT 9999 SCT015 22/18 Q1022
LPMR,2022-10-31T19:00:00Z,LPMR 311900Z 34004KT 9999 FEW020 BKN028 17/14 Q1020
LPMT,2022-10-31T19:00:00Z,LPMT 311900Z 34006KT 320V020 9999 OVC020 18/16 Q1020
LPPD,2022-10-31T19:30:00Z,LPPD 311930Z 36004KT 9999 FEW025 14/10 Q1024
LPPR,2022-10-31T19:30:00Z,LPPR 311930Z 34005KT 310V020 CAVOK 14/12 Q1021
LPPS,2022-10-31T19:30:00Z,LPPS 311930Z 31005KT 9999 FEW015 22/18 Q1022
LPPT,2022-10-31T19:30:00Z,LPPT 311930Z 34007KT 9999 FEW016 BKN022 17/15 Q1020
LQBK,2022-10-31T19:30:00Z,LQBK 311930Z VRB01KT 6000 NSC 10/10 Q1022 NOSIG
LQMO,2022-10-31T19:00:00Z,LQMO 311900Z 16004KT CAVOK 14/09 Q1020
LQSA,2022-10-31T19:30:00Z,LQSA 311930Z 00000KT CAVOK 09/08 Q1025 NOSIG
LQTZ,2022-10-31T19:30:00Z,LQTZ 311930Z VRB01KT CAVOK 10/10 Q1022
LRAR,2022-10-31T19:30:00Z,LRAR 311930Z 05004KT 3800 BR FEW002 OVC004 11/10 Q1024
LRBC,2022-10-31T19:30:00Z,LRBC 311930Z 32004KT CAVOK 10/07 Q1023
LRBM,2022-10-31T19:30:00Z,LRBM 311930Z AUTO 07003KT 9999 BKN010/// 12/10 Q1024
LRBO,2022-10-31T19:00:00Z,LRBO 311900Z 36008KT 9999 SKC 14/09 Q1022 BLACK BLACK
LRBS,2022-10-31T19:30:00Z,LRBS 311930Z 00000KT CAVOK 12/09 Q1022 NOSIG
LRCK,2022-10-31T19:30:00Z,LRCK 311930Z 03008KT CAVOK 11/08 Q1022 NOSIG
LRCL,2022-10-31T19:30:00Z,LRCL 311930Z 13003KT 8000 OVC010 11/10 Q1024
LRCT,2022-10-31T19:00:00Z,LRCT 311900Z 30003KT 7000 OVC009 11/09 Q1025 GRN GRN
LRCV,2022-10-31T19:30:00Z,LRCV 311930Z 15003KT CAVOK 16/09 Q1021
LRFT,2022-10-31T19:00:00Z,LRFT 311900Z 11002KT 9999 SKC 12/08 Q1022 BLU BLU
LRIA,2022-10-31T19:30:00Z,LRIA 311930Z 24003KT CAVOK 09/07 Q1023
LROD,2022-10-31T19:30:00Z,LROD 311930Z AUTO 00000KT 6000 OVC007/// 11/10 Q1024
LROP,2022-10-31T19:30:00Z,LROP 311930Z 05002KT CAVOK 14/10 Q1022 NOSIG
LRSB,2022-10-31T19:30:00Z,LRSB 311930Z 26002KT 4000 BR NSC 07/06 Q1025
LRSM,2022-10-31T19:30:00Z,LRSM 311930Z AUTO 11003KT 9999 OVC010/// 12/10 Q1024
LRSV,2022-10-31T19:30:00Z,LRSV 311930Z 00000KT CAVOK 11/09 Q1023
LRTC,2022-10-31T19:30:00Z,LRTC 311930Z AUTO 36008KT 7000 NCD 10/01 Q1023
LRTM,2022-10-31T19:30:00Z,LRTM 311930Z AUTO 00000KT 7000 OVC012/// 12/10 Q1025
LRTR,2022-10-31T19:30:00Z,LRTR 311930Z 06005KT 4500 BR OVC003 10/10 Q1023
LRTZ,2022-10-31T19:00:00Z,LRTZ 311900Z 01004KT 9999 FEW050 14/10 Q1021 BLU BLU
LSGC,2022-10-31T19:20:00Z,LSGC 311920Z AUTO VRB03KT 9999 NSC 12/06 Q1019
LSGG,2022-10-31T19:20:00Z,LSGG 311920Z VRB01KT CAVOK 13/12 Q1018 NOSIG
LSGS,2022-10-31T19:20:00Z,LSGS 311920Z AUTO VRB03KT CAVOK 12/08 Q1020
LSMA,2022-10-31T19:20:00Z,LSMA 311920Z AUTO 20003KT 160V290 9999NDV OVC230 10/08 Q1019 RMK
LSMD,2022-10-31T19:20:00Z,LSMD 311920Z 00000KT 5000 MIFG NSC 12/11 Q1019 RMK WHT
LSME,2022-10-31T19:20:00Z,LSME 311920Z AUTO 00000KT 8000NDV BKN230 11/11 Q1019 RMK
LSMM,2022-10-31T19:20:00Z,LSMM 311920Z AUTO 29005KT 220V020 9999NDV FEW220 10/08 Q1019 RMK
LSMP,2022-10-31T19:20:00Z,LSMP 311920Z 00000KT 8000 NSC 11/10 Q1018 RMK BLU
LSZA,2022-10-31T19:20:00Z,LSZA 311920Z AUTO VRB03KT 9999 NSC 13/12 Q1023
LSZB,2022-10-31T19:20:00Z,LSZB 311920Z 12004KT CAVOK 11/10 Q1019
LSZC,2022-10-31T19:20:00Z,LSZC 311920Z AUTO 26004KT 220V290 9999 NSC 11/09 Q1019
LSZG,2022-10-31T19:20:00Z,LSZG 311920Z AUTO 33002KT 8000 NSC 09/09 Q1018
LSZH,2022-10-31T19:20:00Z,LSZH 311920Z 23002KT 4000 R14/P2000N R16/0900D R28/P2000N R34/P2000N BCFG VCFG NSC 10/10 Q1019 BECMG 1500
LSZL,2022-10-31T19:20:00Z,LSZL 311920Z AUTO 00000KT 9999NDV NCD 11/10 Q1022 RMK
LSZR,2022-10-31T19:20:00Z,LSZR 311920Z AUTO VRB02KT 0150 R10/0750N FG VV001 10/10 Q1018
LSZS,2022-10-31T19:20:00Z,LSZS 311920Z AUTO VRB02KT 9999 NCD 06/01 Q1026
LTAC,2022-10-31T19:20:00Z,LTAC 311920Z 02008KT CAVOK 09/02 Q1021 NOSIG RMK RWY21L 35006KT RWY03L 36006KT 310V020 RWY21R 02007KT
LTAE,2022-10-31T18:50:00Z,LTAE 311850Z 05004KT CAVOK 12/01 Q1020 NOSIG RMK RWY21 01008KT
LTAF,2022-10-31T19:20:00Z,LTAF 311920Z 07004KT CAVOK 19/14 Q1014 NOSIG RMK RWY23 08003KT SKC
LTAG,2022-10-31T19:20:00Z,LTAG 311920Z 05002KT CAVOK 19/11 Q1014 NOSIG RMK SKC
LTAI,2022-10-31T19:20:00Z,LTAI 311920Z 34006KT CAVOK 16/12 Q1016 NOSIG RMK RWY18C 34005KT RWY36R 33005KT RWY18L 33005KT
LTAJ,2022-10-31T19:20:00Z,LTAJ 311920Z 25004KT CAVOK 12/07 Q1016 NOSIG RMK RWY10 25004KT SKC
LTAN,2022-10-31T18:50:00Z,LTAN 311850Z 01004KT 9999 FEW040 SCT100 10/00 Q1020 NOSIG
LTAP,2022-10-31T19:20:00Z,LTAP 311920Z 29002KT 9999 FEW040 BKN100 10/03 Q1018 NOSIG RMK RWY23 00000KT
LTAR,2022-10-31T18:50:00Z,LTAR 311850Z 34006KT 9999 FEW040 SCT100 05/M06 Q1020
LTAT,2022-10-31T19:20:00Z,LTAT 311920Z 26008KT CAVOK 14/M02 Q1017 NOSIG RMK RWY03 26007KT
LTAU,2022-10-31T19:20:00Z,LTAU 311920Z 00000KT CAVOK 04/M00 Q1020 NOSIG RMK RWY07 VRB01KT
LTAY,2022-10-31T18:50:00Z,LTAY 311850Z 25004KT CAVOK 08/M03 Q1019
LTAZ,2022-10-31T19:20:00Z,LTAZ 311920Z 14004KT CAVOK 06/M04 Q1020 RMK RWY29 21005KT 140V220
LTBA,2022-10-31T19:20:00Z,LTBA 311920Z 02006KT CAVOK 15/13 Q1022 RMK RWY23 03005KT
LTBF,2022-10-31T18:50:00Z,LTBF 311850Z 36005KT CAVOK 15/07 Q1021 NOSIG
LTBH,2022-10-31T18:50:00Z,LTBH 311850Z 10007KT CAVOK 14/10 Q1021
LTBJ,2022-10-31T19:20:00Z,LTBJ 311920Z VRB01KT CAVOK 13/07 Q1017 NOSIG RMK RWY16 VRB02KT
LTBQ,2022-10-31T18:50:00Z,LTBQ 311850Z VRB02KT 9999 FEW034 SCT070 10/09 Q1022 NOSIG
LTBR,2022-10-31T19:20:00Z,LTBR 311920Z 14002KT CAVOK 09/06 Q1022 NOSIG RMK RWY07 12003KT
LTBS,2022-10-31T19:20:00Z,LTBS 311920Z 03004KT CAVOK 15/12 Q1016 NOSIG RMK RWY19 34005KT SKC
LTBU,2022-10-31T19:20:00Z,LTBU 311920Z 02005KT CAVOK 12/09 Q1022 RMK RWY22 35005KT
LTBY,2022-10-31T18:50:00Z,LTBY 311850Z 26010KT CAVOK 10/01 Q1021
LTCA,2022-10-31T18:50:00Z,LTCA 311850Z 26006KT CAVOK 08/02 Q1016 NOSIG
LTCB,2022-10-31T18:50:00Z,LTCB 311850Z 21005KT 9999 -SHRA FEW020CB BKN030 16/10 Q1019
LTCC,2022-10-31T19:20:00Z,LTCC 311920Z 32003KT CAVOK 09/09 Q1016 NOSIG RMK RWY16 VRB02KT SKC
LTCD,2022-10-31T18:50:00Z,LTCD 311850Z 28009KT CAVOK 10/M06 Q1017 NOSIG
LTCE,2022-10-31T19:20:00Z,LTCE 311920Z 22007KT 180V260 9999 FEW040 07/M07 Q1017 NOSIG RMK RWY08R 19006KT 160V240 RWY26R 22010KT RWY08L 22007KT 1CU040
LTCF,2022-10-31T18:50:00Z,LTCF 311850Z 14004KT 070V170 9999 FEW040 05/M04 Q1015
LTCG,2022-10-31T19:20:00Z,LTCG 311920Z VRB01KT 9999 -SHRA FEW020 BKN033 16/12 Q1019 NOSIG RMK RWY29 VRB01KT
LTCI,2022-10-31T19:16:00Z,LTCI 311916Z 27010KT 9999 SCT035 BKN080 12/05 Q1020 BECMG TL2020 12008KT RMK RWY21 25005KT 220V290 4CU035 6AC080
LTCJ,2022-10-31T19:20:00Z,LTCJ 311920Z 05005KT CAVOK 10/09 Q1016 NOSIG RMK RWY20 01004KT SKC
LTCN,2022-10-31T18:50:00Z,LTCN 311850Z 09006KT CAVOK 15/05 Q1016 NOSIG
LTCS,2022-10-31T19:20:00Z,LTCS 311920Z 36004KT CAVOK 12/07 Q1017 RMK RWY22 27004KT SKC
LTCT,2022-10-31T18:50:00Z,LTCT 311850Z 30011KT CAVOK 16/01 Q1012
LTCV,2022-10-31T18:50:00Z,LTCV 311850Z 24012KT CAVOK 16/05 Q1014
LTCW,2022-10-31T18:50:00Z,LTCW 311850Z VRB02KT 9000 SCT040 05/01 Q1018
LTDA,2022-10-31T18:50:00Z,LTDA 311850Z VRB01KT 7000 FEW040 SCT120 17/09 Q1015 NOSIG
LTFC,2022-10-31T19:20:00Z,LTFC 311920Z 36006KT CAVOK 11/00 Q1019 RMK RWY23 36005KT
LTFD,2022-10-31T18:50:00Z,LTFD 311850Z 07011KT CAVOK 18/08 Q1020
LTFE,2022-10-31T19:20:00Z,LTFE 311920Z 13003KT CAVOK 13/09 Q1017 NOSIG RMK RWY10 VRB01KT
LTFG,2022-10-31T18:50:00Z,LTFG 311850Z 10004KT 060V120 CAVOK 17/12 Q1016
LTFH,2022-10-31T18:50:00Z,LTFH 311850Z VRB01KT 9999 SCT030 BKN100 14/11 Q1019 TEMPO 30015G25KT
LTFJ,2022-10-31T19:20:00Z,LTFJ 311920Z 03008KT 350V050 9999 SCT045 14/14 Q1022 NOSIG RMK RWY24 02005KT
LTFM,2022-10-31T19:20:00Z,LTFM 311920Z 03004KT 6000 FEW005 15/14 Q1022 NOSIG RMK RWY17L 02002KT RWY34L 02004KT RWY16R 00000KT RWY36 04004KT RWY18 04004KT
LTFO,2022-10-31T18:50:00Z,LTFO 311850Z 17010KT 9999 -SHRA BKN035 BKN070 15/10 Q1018
LUKK,2022-10-31T19:30:00Z,LUKK 311930Z 31005KT CAVOK 05/02 Q1023 NOSIG
LWOH,2022-10-31T19:30:00Z,LWOH 311930Z 32006KT CAVOK 10/05 Q1024
LWSK,2022-10-31T19:30:00Z,LWSK 311930Z 27002KT CAVOK 13/09 Q1023 NOSIG
LXGB,2022-10-31T19:20:00Z,LXGB 311920Z AUTO 06002KT 7000 BR BKN180/// 20/17 Q1021
LYBE,2022-10-31T19:30:00Z,LYBE 311930Z 04004KT 1500 BR NSC 11/11 Q1023 BECMG FM2030 0400 FG
LYBT,2022-10-31T19:30:00Z,LYBT 311930Z 03003KT 5000 BR NSC 10/10 Q1023 BECMG FM2030 0300 FG
LYKV,2022-10-31T19:30:00Z,LYKV 311930Z 00000KT CAVOK 10/10 Q1023 NOSIG
LYNI,2022-10-31T19:30:00Z,LYNI 311930Z VRB01KT CAVOK 13/08 Q1023 NOSIG
LYPG,2022-10-31T19:30:00Z,LYPG 311930Z 00000KT CAVOK 16/10 Q1021 NOSIG
LYTV,2022-10-31T19:30:00Z,LYTV 311930Z AUTO VRB01KT CAVOK 12/11 Q1021
LYVR,2022-10-31T19:30:00Z,LYVR 311930Z AUTO VRB02KT 0400 R19/0450N R01/0450N -SHRA FG VV002 10/10 Q1024
LZIB,2022-10-31T19:30:00Z,LZIB 311930Z 07006KT 2900 -DZ BR BKN004 OVC006 11/10 Q1022 NOSIG
LZKZ,2022-10-31T19:30:00Z,LZKZ 311930Z 22003KT 180V240 7000 OVC005 10/10 Q1024 NOSIG
LZPP,2022-10-31T19:30:00Z,LZPP 311930Z 15006KT 120V190 8000 OVC006 11/10 Q1022
LZTT,2022-10-31T19:30:00Z,LZTT 311930Z VRB01KT 0300 R27/0400U FG SCT001 04/04 Q1023
LZZI,2022-10-31T19:30:00Z,LZZI 311930Z 26007KT 0900 R06/P2000N FG OVC002 10/09 Q1022
MBPV,2022-10-31T19:00:00Z,MBPV 311900Z 17008KT 9999 SCT015CB 30/24 Q1011
MDAB,2022-10-31T19:00:00Z,MDAB 311900Z 09008KT 9999 SCT020 BKN300 32/27 Q1013
MDBH,2022-10-31T19:00:00Z,MDBH 311900Z 13010KT 9999 FEW018CB SCT020 SCT080 31/26 Q1012 CB/SE
MDCY,2022-10-31T19:00:00Z,MDCY 311900Z 06010KT 8000 VCSH FEW018CB SCT020 SCT070 29/25 Q1011 CB/NE/SW/NW
MDJB,2022-10-31T19:00:00Z,MDJB 311900Z 36005KT 8000 -TSRA SCT012CB SCT014 BKN070 24/24 Q1012 CB/W/NW/N/NE OVER STATION
MDLR,2022-10-31T19:00:00Z,MDLR 311900Z 00000KT 7000 -RA BKN016 27/26 Q1011
MDPC,2022-10-31T19:00:00Z,MDPC 311900Z 11012KT 9999 SCT020 BKN070 29/23 Q1013
MDPP,2022-10-31T19:00:00Z,MDPP 311900Z 08012KT 9999 FEW020 31/26 Q1011
MDSD,2022-10-31T19:00:00Z,MDSD 311900Z 13012KT 9999 FEW018CB SCT20 BKN080 29/24 Q1012 CB/NE/E/SE
MDST,2022-10-31T19:00:00Z,MDST 311900Z 09008KT 9999 FEW018CB SCT020 SCT300 30/23 Q1011 CB/NW/N
MGCB,2022-10-31T19:00:00Z,MGCB 311900Z 02006KT 9999 SCT018 24/17 QFE 869.5
MGES,2022-10-31T19:00:00Z,MGES 311900Z 03008KT 9999 SCT020 27/15 QFE 908.4 FEW200
MGGT,2022-10-31T19:00:00Z,MGGT 311900Z 05012KT 9999 SCT020 24/13 Q1019 A3009
MGHT,2022-10-31T19:00:00Z,MGHT 311900Z 13004KT 9999 FEW026 SCT200 23/14
MGMM,2022-10-31T19:00:00Z,MGMM 311900Z 03004KT 9999 SCT020 32/22 Q1013 A2991
MGMT,2022-10-31T19:00:00Z,MGMT 311900Z 18004KT CAVOK 33/24
MGPB,2022-10-31T19:00:00Z,MGPB 311900Z 33006KT 9999 FEW020 30/22 Q1011 A2985
MGQZ,2022-10-31T19:00:00Z,MGQZ 311900Z 36012KT 9999 SCT020 22/11 QFE 770/7
MGRT,2022-10-31T19:00:00Z,MGRT 311900Z 20006KT 9999 SCT020TCU FEW25CB 32/22 Q1012 A2988 CB S/SW TCU NE/SE VOL. SANTA MARIA Y SANTIAGUITO EN ACTIVIDAD
MGSJ,2022-10-31T19:00:00Z,MGSJ 311900Z 15010KT 9999 SCT022TCU 32/24 Q1010 A2983 TCU SMC N
MGTU,2022-10-31T19:00:00Z,MGTU 311900Z 25004KT 9999 FEW018 33/20 FEW200
MGZA,2022-10-31T19:00:00Z,MGZA 311900Z 05008KT 9999 FEW025 32/20 QFE 985/8
MHCA,2022-10-31T19:00:00Z,MHCA 311900Z 00000KT 9999 SCT028TCU 30/20
MHCH,2022-10-31T19:00:00Z,MHCH 311900Z 15004KT 9999 FEW032 34/24
MHGS,2022-10-31T19:00:00Z,MHGS 311900Z 36004KT 9999 SCT052 29/16
MHLC,2022-10-31T19:00:00Z,MHLC 311900Z 36008KT 9999 SCT034TCU 29/22 Q1011 A2986 NOSIG
MHLE,2022-10-31T19:00:00Z,MHLE 311900Z 01006KT 9999 FEW024 21/12
MHLM,2022-10-31T19:00:00Z,MHLM 311900Z 06015KT 9999 FEW026 BKN080 28/20 Q1011 A2987 NOSIG
MHNO,2022-10-31T19:00:00Z,MHNO 311900Z 35004KT 9999 FEW040 28/17
MHPL,2022-10-31T19:00:00Z,MHPL 311900Z 36005KT 9999 SCT026TCU 30/24 Q1010
MHPR,2022-10-31T19:00:00Z,MHPR 311900Z 34010KT 9999 FEW048 29/17 Q1015 A2997 NOSIG
MHRO,2022-10-31T19:00:00Z,MHRO 311900Z 34004KT 8000 VCSH SCT024TCU FEW026CB 29/21 Q1011 A2986 NOSIG
MHSR,2022-10-31T19:00:00Z,MHSR 311900Z 03005KT 9999 SCT028TCU 26/15
MHTE,2022-10-31T19:00:00Z,MHTE 311900Z 34008KT 9999 SCT016TCU SCT200 29/23 Q1010 A2983
MHTG,2022-10-31T19:00:00Z,MHTG 311900Z 36016KT 9999 FEW034 26/15 Q1015 A2997 NOSIG
MHTR,2022-10-31T19:00:00Z,MHTR 311900Z 00000KT 9999 SCT025TCU 30/23
MHYR,2022-10-31T19:00:00Z,MHYR 311900Z 02008KT 9999 SCT024TCU 28/20
MKJP,2022-10-31T19:37:00Z,MKJP 311937Z 10028KT 9999 -SHRA BKN016 BKN018CB 26/23 Q1009
MKJS,2022-10-31T19:00:00Z,MKJS 311900Z 09008KT 9999 -RA FEW020 FEW022CB BKN048 28/24 Q1008 RETS
MMAA,2022-10-31T18:41:00Z,MMAA 311841Z 23007KT 6SM SCT080 29/24 A2982 RMK 8/030 HZY
MMAN,2022-10-31T18:40:00Z,MMAN 311840Z 00000KT 2SM BR BKN008 OVC012 19/19 A2999 RMK 60015 8/7// DZE25 OCNL DROPS
MMAS,2022-10-31T18:40:00Z,MMAS 311840Z 22013KT 10SM SKC 22/M05 A3016
MMBT,2022-10-31T18:40:00Z,MMBT 311840Z 00000KT 8SM FEW020 31/23 A2988 RMK 8/100 HZY
MMCB,2022-10-31T18:44:00Z,MMCB 311844Z 00000KT 7SM SKC 27/14 A3006 RMK DSNT MDT CU FRMG TCU 4TH QUAD NNE HZY AC CI
MMCE,2022-10-31T18:45:00Z,MMCE 311845Z 08006KT 7SM SKC 30/22 A2988 RMK HZY
MMCL,2022-10-31T18:44:00Z,MMCL 311844Z 18005KT 10SM SCT025 29/17 A2986 RMK 8/100
MMCM,2022-10-31T18:46:00Z,MMCM 311846Z 17007KT 7SM BKN020TCU 30/22 A2988 RMK 8/200
MMCN,2022-10-31T18:42:00Z,MMCN 311842Z 19006KT 10SM SKC 30/05 A2986 RMK HZY
MMCP,2022-10-31T18:41:00Z,MMCP 311841Z 09005KT 7SM SCT030TCU 31/21 A2989 RMK 8/200
MMCS,2022-10-31T18:53:00Z,MMCS 311853Z 00000KT 10SM SCT100 BKN250 21/00 A3005 RMK 8/032
MMCT,2022-10-31T18:47:00Z,MMCT 311847Z 00000KT 7SM SCT020 30/21 A2989 RMK 8/100 CI
MMCU,2022-10-31T18:40:00Z,MMCU 311840Z 00000KT 10SM FEW030 SCT080 21/02 A3005 RMK 8/170
MMCV,2022-10-31T19:41:00Z,MMCV 311941Z 11008KT 10SM SCT015 28/17 A2986 RMK 8/100
MMCZ,2022-10-31T18:42:00Z,MMCZ 311842Z 04008KT 8SM SCT015 30/20 A2989 RMK 8/500 CU
MMDO,2022-10-31T18:41:00Z,MMDO 311841Z 29004KT 10SM SKC 21/M07 A3010
MMEP,2022-10-31T18:44:00Z,MMEP 311844Z 00000KT 12SM SKC 28/14 A2998
MMGL,2022-10-31T18:40:00Z,MMGL 311840Z 24008KT 10SM SKC 26/01 A3011 RMK CU
MMGM,2022-10-31T18:52:00Z,MMGM 311852Z 22008KT 10SM SKC 27/15 A2984
MMHO,2022-10-31T18:40:00Z,MMHO 311840Z 16003KT 10SM SKC 28/02 A2991 RMK HZY
MMIA,2022-10-31T18:48:00Z,MMIA 311848Z 20006KT 8SM SKC 26/19 A2996 RMK HZY ISOL CU
MMIO,2022-10-31T19:40:00Z,MMIO 311940Z RTD 36005KT 10SM SKC 18/07 A3011
MMLM,2022-10-31T18:40:00Z,MMLM 311840Z 00000KT 10SM SKC 29/08 A2989 RMK HZY
MMLO,2022-10-31T18:41:00Z,MMLO 311841Z 00000KT 10SM SKC 24/05 A3021
MMLP,2022-10-31T18:44:00Z,MMLP 311844Z 33007KT 10SM FEW030 26/14 A2988 RMK 8/100
MMLT,2022-10-31T18:40:00Z,MMLT 311840Z 08010KT 10SM FEW050 26/18 A2987 RMK 8/100
MMMA,2022-10-31T18:43:00Z,MMMA 311843Z 10016KT 10SM BKN020 OVC065 27/18 A2994 RMK 8/15/
MMMD,2022-10-31T18:40:00Z,MMMD 311840Z 09006KT 7SM BKN020TCU 30/22 A2990 RMK 8/200 SC
MMML,2022-10-31T18:40:00Z,MMML 311840Z 35008KT 10SM FEW200 28/M08 A2991 RMK 8/002
MMMM,2022-10-31T18:40:00Z,MMMM 311840Z 01004KT 7SM BKN030 24/13 A3014 RMK 8/200 HZY
MMMT,2022-10-31T18:40:00Z,MMMT 311840Z 03010KT 7SM FEW010 BKN020TCU 27/23 A2986 RMK 8/200 HZY VC
MMMV,2022-10-31T18:46:00Z,MMMV 311846Z 00000KT 10SM SCT200 23/10 A2996 RMK 8/002
MMMX,2022-10-31T18:45:00Z,MMMX 311845Z 00000KT 6SM SCT025 BKN100 23/07 A3023 NOSIG RMK 8/130 HZY ISOL CI
MMMY,2022-10-31T18:40:00Z,MMMY 311840Z 00000KT 2 1/2SM -DZ BR SCT003 BKN008 OVC012 19/19 A2996 RMK 60015 8/6//
MMMZ,2022-10-31T18:42:00Z,MMMZ 311842Z 24006KT 13SM FEW030 29/18 A2986 RMK 8/500
MMNL,2022-10-31T18:40:00Z,MMNL 311840Z 15016KT 10SM SCT030 OVC080 29/15 A2998 RMK 8/57/
MMOX,2022-10-31T18:40:00Z,MMOX 311840Z 13005KT 10SM FEW030 24/05 A3012 RMK 8/100 HZY
MMPA,2022-10-31T18:43:00Z,MMPA 311843Z 09005KT 4SM BKN020 BKN070 OVC280 27/20 A2989 RMK 8/137 HZY BINOVC
MMPB,2022-10-31T18:46:00Z,MMPB 311846Z 19009KT 9SM FEW025 22/09 A3024 RMK 8/100 HZY
MMPN,2022-10-31T18:40:00Z,MMPN 311840Z 16006KT 6SM BKN030TCU 22/17 A3011 RMK 8/200 HZY
MMPQ,2022-10-31T18:40:00Z,MMPQ 311840Z 09010KT 8SM SCT040 30/23 A2975 RMK 8/100
MMPR,2022-10-31T18:44:00Z,MMPR 311844Z 22007KT 10SM SKC 29/21 A2985 RMK HZY SC-ARND
MMPS,2022-10-31T18:46:00Z,MMPS 311846Z 18005KT 12SM FEW015 30/20 A2984 RMK 8/100 HZY
MMQT,2022-10-31T18:40:00Z,MMQT 311840Z 30006KT 8SM SCT020 23/11 A3021 RMK 8/100
MMRX,2022-10-31T18:44:00Z,MMRX 311844Z 12010KT 10SM OVC040 26/14 A2993 RMK 8/4// OCNL DROPS
MMSD,2022-10-31T18:46:00Z,MMSD 311846Z 17009KT 10SM SCT040 28/15 A2989 RMK 8/200 CI
MMSL,2022-10-31T18:40:00Z,MMSL 311840Z 11014KT 10SM FEW040 27/18 A2992 RMK 8/100
MMSM,2022-10-31T18:48:00Z,MMSM 311848Z 06002KT 7SM SCT020 26/11 A3021 RMK 8/200 HZY CI
MMSP,2022-10-31T18:55:00Z,MMSP 311855Z 00000KT 10SM SKC 24/02 A3010 RMK CI
MMTC,2022-10-31T18:41:00Z,MMTC 311841Z 10005KT 8SM SKC 24/04 A3000 RMK HZY
MMTG,2022-10-31T18:44:00Z,MMTG 311844Z 24003KT 6SM SCT030 30/18 A2989 RMK 8/100 HZY
MMTJ,2022-10-31T18:42:00Z,MMTJ 311842Z 00000KT 10SM SCT200 27/M04 A2993 RMK 8/001 HZY
MMTM,2022-10-31T18:45:00Z,MMTM 311845Z 00000KT 10SM SCT015 28/21 A2989 RMK 8/100
MMTO,2022-10-31T18:43:00Z,MMTO 311843Z 20005KT 7SM BKN020 20/09 A3030 RMK 8/200 HZY
MMTP,2022-10-31T18:40:00Z,MMTP 311840Z 21010KT 10SM FEW030 31/25 A2981 RMK 8/100 HZY
MMUN,2022-10-31T18:40:00Z,MMUN 311840Z 12005KT 7SM SCT015 31/20 A2990 RMK 8/100
MMVA,2022-10-31T18:45:00Z,MMVA 311845Z 05011KT 8SM FEW015 SCT100 31/23 A2988 RMK 8/130
MMVR,2022-10-31T18:43:00Z,MMVR 311843Z 10007KT 6SM SCT012TCU 30/22 A2990 RMK 8/200 HZY
MMZC,2022-10-31T18:40:00Z,MMZC 311840Z E19010KT 10SM SKC 22/M07 A3015
MMZH,2022-10-31T18:42:00Z,MMZH 311842Z 22006KT 7SM SKC 32/24 A2984 RMK HZY AC ISOL CU
MMZO,2022-10-31T18:40:00Z,MMZO 311840Z 21010KT 12SM FEW020 29/25 A2992 RMK 8/100
MNBL,2022-10-31T19:00:00Z,MNBL 311900Z 04004KT 9999 BKN017 31/25 Q1009
MNCH,2022-10-31T19:00:00Z,MNCH 311900Z 18004KT 9999 SCT025 29/25 Q1009
MNJG,2022-10-31T19:00:00Z,MNJG 311900Z 00000KT 9999 BKN020 25/17 Q1010
MNJU,2022-10-31T19:00:00Z,MNJU 311900Z 09006KT 9999 SCT020 34/23 Q1009
MNMG,2022-10-31T19:00:00Z,MNMG 311900Z 07006KT 9999 FEW024 32/24 Q1008 A2978 NOSIG
MNPC,2022-10-31T19:00:00Z,MNPC 311900Z 32006KT 6000 VCRA BKN016TCU 30/26 Q1008 TCURA/NE/SW
MNRS,2022-10-31T19:00:00Z,MNRS 311900Z 10004KT 9999 FEW013CB 30/23 Q1009 CB/E/SE/S
MPBO,2022-10-31T19:00:00Z,MPBO 311900Z 02009KT 9999 FEW030 30/24 Q1008
MPDA,2022-10-31T19:00:00Z,MPDA 311900Z 18008KT 9999 SCT015 SCT100 28/24 Q1009
MPMG,2022-10-31T19:00:00Z,MPMG 311900Z 16007KT 9000 VCSH SCT018TCU 30/24 Q1008 TEMPO SHRA
MPPA,2022-10-31T19:00:00Z,MPPA 311900Z 13004KT 9999 FEW018TCU 30/25 Q1008
MPSM,2022-10-31T19:00:00Z,MPSM 311900Z 17007KT 9999 SCT020 30/24 Q1008
MPTO,2022-10-31T19:00:00Z,MPTO 311900Z 15008KT 9999 SCT018TCU 29/23 Q1009 TEMPO SCT018CB
MRLB,2022-10-31T19:00:00Z,MRLB 311900Z 33004KT 260V020 9999 FEW040 30/24 A2978
MRLM,2022-10-31T19:00:00Z,MRLM 311900Z 36013KT CAVOK 31/23 A2978
MROC,2022-10-31T19:00:00Z,MROC 311900Z 24010KT 200V280 9999 BKN040 26/20 A2996 NOSIG
MRPV,2022-10-31T19:00:00Z,MRPV 311900Z 29010KT 9999 FEW030TCU 25/18 A2996 NOSIG
MSAC,2022-10-31T18:50:00Z,MSAC 311850Z 22009KT 9999 SCT030 32/25 Q1009 A2981
MSLP,2022-10-31T18:50:00Z,MSLP 311850Z VRB03KT 9999 FEW037 33/21 Q1008 A2979 NOSIG
MSLU,2022-10-31T18:50:00Z,MSLU 311850Z 12002KT CAVOK 31/21 Q1008 A2977
MSSA,2022-10-31T18:50:00Z,MSSA 311850Z 07004KT 9999 FEW037 29/17 Q1015 A2998
MSSM,2022-10-31T18:50:00Z,MSSM 311850Z 00000KT 9999 FEW030 32/22 Q//// A////
MSSS,2022-10-31T18:50:00Z,MSSS 311850Z 36004KT 9999 FEW043 28/18 Q1013 A2993
MTPP,2022-10-31T19:00:00Z,MTPP 311900Z 30008KT 9999 SCT028TCU BKN060 30/24 Q1009 A2982 RMK:TCU/N
MUCC,2022-10-31T18:50:00Z,MUCC 311850Z 08013KT 9000 BKN018 31/25 Q1011
MUCF,2022-10-31T18:59:00Z,MUCF 311859Z AUTO 09007KT 050V160 34/24 Q1011
MUCL,2022-10-31T18:50:00Z,MUCL 311850Z 05008KT 010V080 9999 FEW020 31/23 Q1011
MUCM,2022-10-31T18:50:00Z,MUCM 311850Z 03015KT 9000 SCT025 30/23 Q1011
MUCU,2022-10-31T18:50:00Z,MUCU 311850Z 14009KT 100V170 9000 SCT020 30/24 Q1011
MUGM,2022-10-31T18:51:00Z,MUGM 311851Z 10012KT 10SM FEW030 SCT100 31/24 A2986 RMK AO2 SLP111 T03110244 $
MUHA,2022-10-31T18:50:00Z,MUHA 311850Z 06009KT 040V100 9000 SCT030 31/23 Q1012
MUHG,2022-10-31T18:50:00Z,MUHG 311850Z 10005KT 9000 FEW039TCU SCT045 31/23 Q1011
MUSC,2022-10-31T18:50:00Z,MUSC 311850Z 09014KT 9000 BKN020 30/23 Q1012
MUVR,2022-10-31T18:50:00Z,MUVR 311850Z 03011KT 360V060 9999 SCT020 30/24 Q1012
MWCB,2022-10-31T19:00:00Z,MWCB 311900Z 08010KT 9999 VCSH BKN016CB 29/24 Q1010 RESHRA
MWCR,2022-10-31T19:00:00Z,MWCR 311900Z 05010KT 9999 VCSH SCT016TCU 30/25 Q1009 REFC
MYGF,2022-10-31T19:00:00Z,MYGF 311900Z 14007KT 070V190 9999 FEW025 29/23 A2994
MYNN,2022-10-31T19:00:00Z,MYNN 311900Z 13011KT 9999 SCT025 30/23 A2993
MZBZ,2022-10-31T19:00:00Z,MZBZ 311900Z 07005KT 9999 FEW026 30/23 A2987 Q1011 NOSIG
NCRG,2022-10-31T19:30:00Z,NCRG 311930Z AUTO 11011KT 070V140 9999 BKN023/// BKN080/// 24/20 Q1017
NFFN,2022-10-31T19:00:00Z,NFFN 311900Z 13004KT 9999 FEW030 BKN300 23/21 Q1011 NOSIG
NFNA,2022-10-31T19:00:00Z,NFNA 311900Z 00000KT 9999 FEW020 SCT120 25/23 Q1010
NFTF,2022-10-31T19:00:00Z,NFTF 311900Z 07007KT 9999 SCT008 SCT015TCU 25/24 Q1014
NFTL,2022-10-31T19:00:00Z,NFTL 311900Z 08009KT 9999 SCT016TCU 25/22 Q1013
NFTV,2022-10-31T19:00:00Z,NFTV 311900Z 08005KT 9999 FEW016 BKN270 26/21 Q10123
NGFU,2022-10-31T19:00:00Z,NGFU 311900Z 0000KT 9999 FEW016CB SCT018TCU OVC100 27/24 Q1010 RERA
NGTA,2022-10-31T19:00:00Z,NGTA 311900Z 07004KT 9999 FEW020 SCT300 27/23 Q1009
NIUE,2022-10-31T19:00:00Z,NIUE 311900Z 08009KT 9999 SCT018 26/24 Q1013 
NLWW,2022-10-31T19:30:00Z,NLWW 311930Z 17003KT 9999 FEW015 SCT021 BKN056 26/25 Q1011 TEMPO 4000 SHRA BKN014 SCT018TCU
NSFA,2022-10-31T19:00:00Z,NSFA 311900Z 09006KT 9999 FEW020 SCT050 BKN180 25/24 Q1012
NTAA,2022-10-31T19:30:00Z,NTAA 311930Z 23007KT 9999 FEW023 BKN300 28/22 Q1014 NOSIG
NVSC,2022-10-31T19:00:00Z,NVSC 311900Z AUTO 00000KT //// // NCD 23/23 Q1009
NVSS,2022-10-31T19:00:00Z,NVSS 311900Z 29004KT 9999 SCT020 23/23 Q1008
NVVA,2022-10-31T19:00:00Z,NVVA 311900Z AUTO 02002KT //// // NCD 22/21 Q1010
NVVV,2022-10-31T19:00:00Z,NVVV 311900Z 13001KT 9999 SCT020 22/21 Q1009
NVVW,2022-10-31T19:00:00Z,NVVW 311900Z AUTO 17005KT //// // NCD 22/21 Q1009
NWWW,2022-10-31T19:30:00Z,NWWW 311930Z AUTO VRB02KT CAVOK 20/19 Q1010 NOSIG
NZAA,2022-10-31T19:30:00Z,NZAA 311930Z AUTO 18005KT 120V210 9999 SCT011/// 17/15 Q1013 NOSIG
NZCH,2022-10-31T19:30:00Z,NZCH 311930Z AUTO 02002KT 9999 NCD 12/11 Q1006 NOSIG
NZCM,2022-10-31T18:55:00Z,NZCM 311855Z AUTO 00000KT 9999 CLR M10/M15 A2892 RMK AO2 SLP799 T10951147
NZFX,2022-10-31T18:55:00Z,NZFX 311855Z 05006KT 9999 FEW015 SCT120 M22/M24 A2894 RMK SLP794 LSR10 GRID22006KT SDG/HDG
NZSP,2022-10-31T19:21:00Z,NZSP 311921Z 03013KT 3200 IC BLSN FEW000 SCT005 BKN040 M42/ A2830 RMK BLSN FEW000 CLN AIR 03013KT ALL WNDS GRID SDG/HDP
NZWN,2022-10-31T19:30:00Z,NZWN 311930Z AUTO 34013KT 9999 SCT022/// 16/11 Q1010 NOSIG
OBBI,2022-10-31T19:30:00Z,OBBI 311930Z 13009KT CAVOK 29/22 Q1014 NOSIG
OEAB,2022-10-31T19:00:00Z,OEAB 311900Z 00000KT CAVOK 16/14 Q1026 NOSIG
OEAH,2022-10-31T19:00:00Z,OEAH 311900Z 23003KT CAVOK 24/02 Q1014 NOSIG
OEAO,2022-10-31T19:00:00Z,OEAO 311900Z 00000KT CAVOK 27/07 Q1016 NOSIG
OEBA,2022-10-31T19:00:00Z,OEBA 311900Z 12006KT CAVOK 22/05 Q1022 NOSIG
OEBH,2022-10-31T19:00:00Z,OEBH 311900Z 11009KT CAVOK 23/04 Q1018 NOSIG
OEDF,2022-10-31T19:00:00Z,OEDF 311900Z 14007KT CAVOK 26/19 Q1013 NOSIG
OEDM,2022-10-31T19:00:00Z,OEDM 311900Z 12010KT CAVOK 23/M06 Q1018
OEDR,2022-10-31T19:00:00Z,OEDR 311900Z 09003KT CAVOK 27/20 Q1013
OEGN,2022-10-31T19:00:00Z,OEGN 311900Z 00000KT CAVOK 31/21 Q1012 NOSIG
OEGS,2022-10-31T19:00:00Z,OEGS 311900Z 15003KT CAVOK 23/05 Q1015
OEGT,2022-10-31T19:00:00Z,OEGT 311900Z 32013KT CAVOK 19/09 Q1015 NOSIG
OEHL,2022-10-31T19:00:00Z,OEHL 311900Z 21002KT CAVOK 23/04 Q1017
OEJB,2022-10-31T19:00:00Z,OEJB 311900Z AUTO 16005KT CAVOK 25/19 Q1013 NOSIG
OEJN,2022-10-31T19:00:00Z,OEJN 311900Z 34007KT CAVOK 30/23 Q1011 NOSIG
OEKJ,2022-10-31T19:00:00Z,OEKJ 311900Z 18010KT CAVOK 26/02 Q1019
OEMA,2022-10-31T19:00:00Z,OEMA 311900Z 31004KT CAVOK 31/09 Q1016 NOSIG
OEMN,2022-10-31T19:00:00Z,OEMN 311900Z 00000KT CAVOK 29/21 Q1014
OENG,2022-10-31T19:00:00Z,OENG 311900Z 03002KT CAVOK 22/M01 Q1020 NOSIG
OEPA,2022-10-31T19:00:00Z,OEPA 311900Z 19004KT CAVOK 27/14 Q1013 NOSIG
OEPS,2022-10-31T18:55:00Z,OEPS 311855Z 15006KT 9999 CLR 25/03 A3012 RMK A02A SLP167 WND DATA ESTMD T02510030 $
OERF,2022-10-31T19:00:00Z,OERF 311900Z 00000KT CAVOK 24/00 Q1013 NOSIG
OERK,2022-10-31T19:00:00Z,OERK 311900Z 18002KT CAVOK 25/04 Q1017 NOSIG
OERR,2022-10-31T19:00:00Z,OERR 311900Z 32008KT CAVOK 24/04 Q1014 NOSIG
OESH,2022-10-31T19:00:00Z,OESH 311900Z 07008KT CAVOK 25/05 Q1016 NOSIG
OESK,2022-10-31T19:00:00Z,OESK 311900Z 33008KT 9999 FEW040 25/07 Q1017 NOSIG
OETB,2022-10-31T19:00:00Z,OETB 311900Z 29003KT CAVOK 24/05 Q1016 NOSIG
OETF,2022-10-31T19:00:00Z,OETF 311900Z 31004KT 5000 HZ NSC 21/15 Q1022 NOSIG
OETR,2022-10-31T19:00:00Z,OETR 311900Z 27008KT CAVOK 18/10 Q1016 NOSIG
OEWD,2022-10-31T19:00:00Z,OEWD 311900Z 11008KT CAVOK 24/11 Q1016 NOSIG
OEWJ,2022-10-31T19:00:00Z,OEWJ 311900Z 35004KT CAVOK 27/17 Q1012 NOSIG
OEYN,2022-10-31T19:00:00Z,OEYN 311900Z 27006KT CAVOK 28/23 Q1010 NOSIG
OIAA,2022-10-31T19:00:00Z,OIAA 311900Z 14006KT 5000 HZ NSC 27/22 Q1012
OIAH,2022-10-31T19:00:00Z,OIAH 311900Z 12004KT 4000 BR SCT040TCU 23/20 Q1019
OIAM,2022-10-31T19:00:00Z,OIAM 311900Z 10006KT 4000 BR NSC 27/24 Q1012
OIAW,2022-10-31T19:30:00Z,OIAW 311930Z 15010KT 5000 HZ NSC 26/22 Q1011
OIBB,2022-10-31T19:00:00Z,OIBB 311900Z 09006KT CAVOK 28/21 Q1013 A2994
OIBJ,2022-10-31T19:00:00Z,OIBJ 311900Z AUTO VRB01KT //// // ////// 21/18 Q1018
OIBK,2022-10-31T19:00:00Z,OIBK 311900Z 29004KT 3000 HZ NSC 27/22 Q1014
OIBP,2022-10-31T19:00:00Z,OIBP 311900Z 00000KT 8000 NSC 25/22 Q1013 A2993
OICC,2022-10-31T19:00:00Z,OICC 311900Z 06010KT 9999 FEW040CB SCT045 BKN090 20/M01 Q1017 A3005
OICI,2022-10-31T19:00:00Z,OICI 311900Z 13010KT 9999 FEW040 SCT090 20/03 Q1019 A3011
OICK,2022-10-31T19:00:00Z,OICK 311900Z 27002KT 9999 SCT045 BKN090 20/03 Q1017
OICS,2022-10-31T19:00:00Z,OICS 311900Z 00000KT 9999 FEW035CB SCT040 13/09 Q1017 A3005
OIFM,2022-10-31T19:30:00Z,OIFM 311930Z 00000KT CAVOK 15/M03 Q1021 A3016
OIFS,2022-10-31T19:00:00Z,OIFS 311900Z 35004KT CAVOK 11/M04 Q1024
OIHH,2022-10-31T19:00:00Z,OIHH 311900Z 27002KT 9999 FEW035CB SCT040 10/04 Q1020 A3013
OIIE,2022-10-31T19:00:00Z,OIIE 311900Z 24006KT CAVOK 17/05 Q1017
OIII,2022-10-31T19:30:00Z,OIII 311930Z 24004KT 9999 FEW035CB BKN100 19/03 Q1017 A3004
OIIK,2022-10-31T19:00:00Z,OIIK 311900Z 05002KT 8000 FEW035 BKN090 11/10 Q1018 RESHRA
OIIP,2022-10-31T19:00:00Z,OIIP 311900Z 30014KT 9999 SCT040 BKN100 15/06 Q1017 A3004
OIKB,2022-10-31T19:30:00Z,OIKB 311930Z 36004KT 6000 NSC 25/21 Q1013 A2993
OIKK,2022-10-31T19:00:00Z,OIKK 311900Z 07006KT CAVOK 15/M03 Q1023 A3022
OIKQ,2022-10-31T19:00:00Z,OIKQ 311900Z 00000KT 6000 NSC 26/23 Q1013
OIMB,2022-10-31T19:00:00Z,OIMB 311900Z 12004KT CAVOK 12/M04 Q1021 A3017
OIMJ,2022-10-31T19:00:00Z,OIMJ 311900Z AUTO 34005KT //// // ////// 12/02 Q1017
OIMM,2022-10-31T19:30:00Z,OIMM 311930Z 00000KT CAVOK 13/07 Q1016 A3002
OIMN,2022-10-31T19:00:00Z,OIMN 311900Z 08004KT CAVOK 12/03 Q1016
OIMS,2022-10-31T19:00:00Z,OIMS 311900Z 03006KT CAVOK 13/03 Q1018
OING,2022-10-31T19:00:00Z,OING 311900Z 24008KT 9999 FEW030 BKN100 17/16 Q1011
OINN,2022-10-31T19:00:00Z,OINN 311900Z 18006KT 8000 FEW020CB SCT025 BKN090 21/14 Q1007 RETSRA
OINR,2022-10-31T19:00:00Z,OINR 311900Z 13004KT 9999 FEW025CB SCT030 BKN090 19/16 Q1007
OINZ,2022-10-31T19:00:00Z,OINZ 311900Z 06002KT 9999 SCT040 BKN090 17/16 Q1009
OISF,2022-10-31T19:00:00Z,OISF 311900Z 00000KT CAVOK 16/00 Q1022 A3018
OISL,2022-10-31T19:00:00Z,OISL 311900Z 00000KT CAVOK 18/05 Q1016 A3002
OISS,2022-10-31T19:30:00Z,OISS 311930Z 00000KT 8000 NSC 16/08 Q1022 A3019
OISY,2022-10-31T19:00:00Z,OISY 311900Z 08006KT CAVOK 14/10 Q1025
OITL,2022-10-31T19:00:00Z,OITL 311900Z 18008KT 9999 FEW035 12/06 Q1013
OITR,2022-10-31T19:00:00Z,OITR 311900Z 32004KT 9999 FEW040 06/01 Q1015
OITT,2022-10-31T19:30:00Z,OITT 311930Z 30004KT CAVOK 09/06 Q1016 A3001
OIYY,2022-10-31T19:30:00Z,OIYY 311930Z 00000KT CAVOK 19/01 Q1019
OIZB,2022-10-31T19:00:00Z,OIZB 311900Z 01006KT CAVOK 17/05 Q1017
OIZH,2022-10-31T19:00:00Z,OIZH 311900Z 28004KT CAVOK 15/M01 Q1022 A3019
OIZI,2022-10-31T19:00:00Z,OIZI 311900Z 04006KT CAVOK 24/05 Q1017
OJAI,2022-10-31T19:00:00Z,OJAI 311900Z 34004KT 5000 HZ FEW030 15/09 Q1018 NOSIG
OJAM,2022-10-31T19:00:00Z,OJAM 311900Z VRB02KT 5000 HZ FEW035 18/11 Q1018 NOSIG
OJAQ,2022-10-31T19:00:00Z,OJAQ 311900Z 36006KT CAVOK 24/11 Q1014 NOSIG
OKAS,2022-10-31T18:55:00Z,OKAS 311855Z 14010KT 9999 FEW200 26/14 A2988 RMK AO2A SLP111 $
OKBK,2022-10-31T19:00:00Z,OKBK 311900Z 18007KT 7000 NSC 25/18 Q1012 NOSIG
OLBA,2022-10-31T19:00:00Z,OLBA 311900Z 16005KT 8000 FEW032 23/16 Q1016 NOSIG
OMAA,2022-10-31T19:00:00Z,OMAA 311900Z 05004KT 8000 NSC 26/22 Q1014 NOSIG
OMAD,2022-10-31T19:00:00Z,OMAD 311900Z 35003KT 320V020 8000 NSC 28/22 Q1014 NOSIG
OMAL,2022-10-31T19:00:00Z,OMAL 311900Z 01006KT CAVOK 26/17 Q1016 NOSIG
OMDB,2022-10-31T19:00:00Z,OMDB 311900Z 34005KT 6000 NSC 29/23 Q1014 NOSIG
OMDW,2022-10-31T19:00:00Z,OMDW 311900Z 09004KT 5000 HZ NSC 24/21 Q1015 BECMG 4000
OMFJ,2022-10-31T19:00:00Z,OMFJ 311900Z 20003KT 7000 NSC 28/22 Q1014 A2995
OMRK,2022-10-31T19:00:00Z,OMRK 311900Z 16004KT 6000 NSC 22/21 Q1015 A2998
OMSJ,2022-10-31T19:00:00Z,OMSJ 311900Z 12003KT 5000 HZ NSC 24/20 Q1015 BECMG 3000 BR
OOAD,2022-10-31T18:50:00Z,OOAD 311850Z AUTO VRB02KT //// R31///// // NCD 28/11 Q1017 NOSIG
OODQ,2022-10-31T18:50:00Z,OODQ 311850Z AUTO 12005KT CAVOK ////// 25/21 Q1015 NOSIG RMK RH78? 0
OOKB,2022-10-31T18:50:00Z,OOKB 311850Z AUTO 29003KT 240V360 CAVOK 28/21 Q1014 NOSIG
OOMS,2022-10-31T18:50:00Z,OOMS 311850Z 00000KT CAVOK 26/21 Q1014 NOSIG
OOSA,2022-10-31T18:50:00Z,OOSA 311850Z 34004KT CAVOK 26/20 Q1015 NOSIG
OOSH,2022-10-31T18:50:00Z,OOSH 311850Z AUTO 25002KT //// ////// 27/23 Q1014 RMK 1010
OPFA,2022-10-31T18:55:00Z,OPFA 311855Z 00000KT 4000 FU NSC 22/16 Q1014 NOSIG
OPIS,2022-10-31T19:30:00Z,OPIS 311930Z 31005KT 4000 FU FEW040 SCT100 17/15 Q1017 TEMPO 30 00
OPKC,2022-10-31T19:30:00Z,OPKC 311930Z 26004KT 5000 FU NSC 24/22 Q1014 NOSIG
OPLA,2022-10-31T19:25:00Z,OPLA 311925Z 12004KT 3500 FU NSC 22/17 Q1014 BECMG 2500 RMK QFE988 A29.94
OPMT,2022-10-31T19:00:00Z,OPMT 311900Z 00000KT 2500 FU NSC 24/19 Q1012 NOSIG
OPPS,2022-10-31T19:30:00Z,OPPS 311930Z 18006KT 3600 -RA FEW030TCU SCT040 BKN100 22/15 Q10 17
OPSK,2022-10-31T19:00:00Z,OPSK 311900Z 00000KT 4000 HZ NSC 23/20 Q1011 NOSIG
OPST,2022-10-31T19:00:00Z,OPST 311900Z 05004KT 4000 FU FEW040 SCT100 21/16 Q1015 NOSIG 73%
ORBI,2022-10-31T19:00:00Z,ORBI 311900Z 29007KT CAVOK 25/08 Q1010 NOSIG
ORER,2022-10-31T19:00:00Z,ORER 311900Z 32006KT 9000 FEW040 SCT090 18/09 Q1014
ORNI,2022-10-31T19:00:00Z,ORNI 311900Z 28009KT 6000 FEW040 26/03 Q1010 
ORSU,2022-10-31T19:00:00Z,ORSU 311900Z 29004KT CAVOK 12/12 Q1016
OSDI,2022-10-31T19:00:00Z,OSDI 311900Z 23009KT CAVOK 16/05 Q1017
OSLK,2022-10-31T19:00:00Z,OSLK 311900Z 08005KT 9999 FEW026 21/15 Q1015
OTBD,2022-10-31T19:30:00Z,OTBD 311930Z 11004KT CAVOK 29/21 Q1014 NOSIG
OTBH,2022-10-31T18:55:00Z,OTBH 311855Z 00000KT 9999 CLR 27/23 A2996 RMK AO2A SLPNO ALSTG ESTMD T02700226 PWINO FZRANO TSNO CHINO RWY34 $
OTHH,2022-10-31T19:00:00Z,OTHH 311900Z AUTO 12007KT CAVOK 30/21 Q1014 NOSIG
PAAD,2022-10-31T19:35:00Z,PAAD 311935Z AUTO 11012KT 10SM OVC015 M10/M13 A3010 RMK AO2 T11051130
PAAK,2022-10-31T18:56:00Z,PAAK 311856Z AUTO 11018KT 10SM UP OVC010 A2993 RMK AO2 PK WND 11026/1845 UPB53 CIG 008V012 SLPNO P0000 FZRANO $
PAAQ,2022-10-31T18:53:00Z,PAAQ 311853Z 00000KT 10SM CLR M04/M12 A2970 RMK AO2 SLP063 T10441122 $
PABA,2022-10-31T19:40:00Z,PABA 311940Z AUTO 08015KT 2SM -SN BR OVC011 M09/M11 A3014 RMK AO2 VIS 1V5 FZRANO PNO $
PABE,2022-10-31T18:53:00Z,PABE 311853Z 25007KT 10SM CLR M10/M12 A3019 RMK AO2 SLP227 T11001117
PABI,2022-10-31T18:53:00Z,PABI 311853Z 26007KT 3SM -SN BKN030 OVC050 M12/M15 A2991 RMK AO2 SLP173 P0000 T11221150
PABL,2022-10-31T18:56:00Z,PABL 311856Z AUTO 15005KT 10SM OVC020 M07/M08 A3009 RMK AO2 SLP191 T10671083 FZRANO $
PABR,2022-10-31T18:53:00Z,PABR 311853Z 11015G20KT 4SM BR CLR M21/M23 A2999 RMK AO2 SLP157 T12111233
PABT,2022-10-31T18:53:00Z,PABT 311853Z 00000KT 10SM OVC075 M12/M15 A3001 RMK AO2 SLP185 T11221150
PABV,2022-10-31T18:56:00Z,PABV 311856Z AUTO 19003KT 10SM CLR M04/M12 A2975 RMK AO2 SLP080 T10441122 FZRANO
PACD,2022-10-31T18:53:00Z,PACD 311853Z 18004KT 10SM FEW024 M01/M01 A3026 RMK AO2 SLP248 T10111011
PACV,2022-10-31T18:53:00Z,PACV 311853Z 00000KT 10SM FEW070 BKN120 M03/M04 A2946 RMK AO2 SLP976 T10331044
PACZ,2022-10-31T18:55:00Z,PACZ 311855Z 12008KT 10SM CLR M05/M11 A3011 RMK AO2A SLP207
PADG,2022-10-31T18:58:00Z,PADG 311858Z 00000KT 10SM OVC009 M11/M12 A2999
PADK,2022-10-31T19:27:00Z,PADK 311927Z AUTO 12008KT FEW022 SCT027 OVC041 06/04 A2977 RMK AO2 P0001 PWINO $
PADL,2022-10-31T18:56:00Z,PADL 311856Z 29004KT 10SM CLR M05/M11 A3016 RMK AO2 SLP219 T10501111
PADM,2022-10-31T19:11:00Z,PADM 311911Z AUTO 00000KT 10SM BKN027 M10/M11 A3020 RMK AO2 FZRANO
PADQ,2022-10-31T18:53:00Z,PADQ 311853Z 28030G41KT 10SM CLR 00/M12 A2978 RMK AO2 PK WND 30043/1827 SLP086 T00001122
PADU,2022-10-31T18:56:00Z,PADU 311856Z 14010KT 10SM BKN038 OVC050 03/M01 A3022 RMK AO2 SLP237 T00331011
PAED,2022-10-31T18:56:00Z,PAED 311856Z 36006KT 10SM FEW042 BKN120 M04/M14 A2971 RMK AO2A SLP059 T10411143 $
PAEG,2022-10-31T18:53:00Z,PAEG 311853Z AUTO 00000KT 10SM SCT047 M16/M19 A2987 RMK AO2 SLP141 T11561189 TSNO
PAEH,2022-10-31T18:55:00Z,PAEH 311855Z 09003KT 10SM BKN046 M02/M07 A3021 RMK AO2A SLP241
PAEI,2022-10-31T18:55:00Z,PAEI 311855Z 00000KT 10SM -SN BKN025 BKN030 OVC035 M16/M18 A2995 RMK AO2A SLPNO PCPN VRY LGT
PAEL,2022-10-31T18:56:00Z,PAEL 311856Z 00000KT 15SM FEW009 FEW024 BKN032 OVC060 04/03 A2949 RMK SEA 0 SWELL 4 SW NOSPECI
PAEN,2022-10-31T18:53:00Z,PAEN 311853Z 01009KT 10SM OVC110 M04/M10 A2975 RMK AO2 SLP076 T10391100
PAFA,2022-10-31T18:53:00Z,PAFA 311853Z 00000KT 10SM -SN BKN065 OVC080 M16/M19 A2998 RMK AO2 SLP167 P0000 T11611189
PAFB,2022-10-31T19:09:00Z,PAFB 311909Z 00000KT 4SM -SN BR BKN070 OVC080 M17/M20 A2998 RMK AO2A SNE06SNB09 SLP173
PAFE,2022-10-31T18:56:00Z,PAFE 311856Z AUTO 10008KT 10SM SCT044 03/01 A2957 RMK AO2 SLP026 T00330011
PAFM,2022-10-31T18:56:00Z,PAFM 311856Z AUTO 00000KT M19/M21 A3012 RMK AO2 SLPNO T11891206 FZRANO
PAFR,2022-10-31T19:05:00Z,PAFR 311905Z AUTO 00000KT 8SM OVC036 M06/M10 A2968 RMK AO2 SLP062 VISNO RWY35 CHINO RWY35 $
PAFS,2022-10-31T19:01:00Z,PAFS 311901Z AUTO 00000KT 4SM -SN BR OVC055 M10/M11 A3002 RMK AO2 SLP180 P0000 T11001106 FZRANO
PAGA,2022-10-31T18:56:00Z,PAGA 311856Z AUTO 8SM OVC075 M11/M12 A3009 RMK AO2 SLP194 T11061122 FZRANO $
PAGK,2022-10-31T18:53:00Z,PAGK 311853Z AUTO 32006KT 10SM OVC100 M09/M16 A2966 RMK AO2 SLP089 T10891161 TSNO
PAGL,2022-10-31T19:33:00Z,PAGL 311933Z AUTO 04003KT 8SM BKN009 M10/M11 A3013 RMK AO2 PWINO FZRANO $
PAGN,2022-10-31T18:56:00Z,PAGN 311856Z AUTO 09003KT 10SM FEW031 SCT047 03/02 A2957 RMK AO2 SLP001 T00330022
PAGS,2022-10-31T18:56:00Z,PAGS 311856Z AUTO 13005KT 10SM OVC047 04/02 A2953 RMK AO2 RAB07E54 SLP000 P0000 T00440022
PAGY,2022-10-31T18:53:00Z,PAGY 311853Z AUTO 30003KT 10SM OVC055 03/M01 A2956 RMK AO2 SLP008 T00331011 TSNO
PAHL,2022-10-31T18:56:00Z,PAHL 311856Z AUTO 00000KT 10SM OVC065 M11/M12 A3007 RMK AO2 SLP190 T11061122 FZRANO
PAHN,2022-10-31T19:18:00Z,PAHN 311918Z AUTO 29004KT 2 1/2SM -SN BR OVC012 01/01 A2956 RMK AO2 RAE00SNB00 P0001 T00110006 TSNO
PAHO,2022-10-31T18:53:00Z,PAHO 311853Z 02005KT 10SM SCT070 BKN085 M02/M12 A2974 RMK AO2 SLP073 T10171117
PAHX,2022-10-31T19:02:00Z,PAHX 311902Z AUTO 23003KT 10SM CLR M07/M08 A3011 RMK AO2 SLP197 T10721078 FZRANO
PAHY,2022-10-31T19:42:00Z,PAHY 311942Z AUTO 11010KT 6SM -SN BR BKN012 03/01 A2958 RMK AO2 RAE20UPB01E08B31E34SNB20E31B34 P0001 $
PAIG,2022-10-31T18:56:00Z,PAIG 311856Z AUTO 24009KT 10SM SCT050 M08/M11 A3009 RMK AO2 SLP198 T10781111 FZRANO $
PAIK,2022-10-31T18:56:00Z,PAIK 311856Z AUTO 00000KT 10SM CLR M19/M21 A3013 RMK AO2 SLP209 T11891206 FZRANO
PAIL,2022-10-31T18:53:00Z,PAIL 311853Z 30012G20KT 10SM OVC043 M05/M08 A3001 RMK AO2 SLP165 T10501083 $
PAIM,2022-10-31T18:55:00Z,PAIM 311855Z AUTO 00000KT 10SM -SHSN OVC070 M12/M12 A2996 RMK AO2 SHSNB1755 SLP185 T11161124
PAIN,2022-10-31T19:33:00Z,PAIN 311933Z AUTO 36007KT 6SM -SN SCT020 OVC034 M12/M15 A2987 RMK AO2 P0000 FZRANO
PAIW,2022-10-31T18:56:00Z,PAIW 311856Z AUTO 33010KT 10SM FEW024 BKN038 OVC050 M04/M08 A3015 RMK AO2 SLP210 T10391078 FZRANO
PAJN,2022-10-31T18:53:00Z,PAJN 311853Z 08008KT 10SM -RA FEW024 OVC042 03/01 A2955 RMK AO2 SLP005 P0001 T00280011
PAJZ,2022-10-31T18:56:00Z,PAJZ 311856Z AUTO 28005KT 8SM CLR M08/M12 A3015 RMK AO2 SLP217 T10831117 FZRANO $
PAKF,2022-10-31T18:56:00Z,PAKF 311856Z AUTO 00000KT 10SM OVC055 A3026 RMK AO2 SLPNO FZRANO $
PAKH,2022-10-31T18:56:00Z,PAKH 311856Z AUTO 10SM SCT035 A3000 RMK AO2 SLPNO FZRANO TSNO $
PAKI,2022-10-31T18:56:00Z,PAKI 311856Z AUTO 12007KT 10SM CLR M08/M08 A3020 RMK AO2 SLP230 T10781078 FZRANO PNO $
PAKK,2022-10-31T18:56:00Z,PAKK 311856Z AUTO 00000KT 10SM BKN006 OVC023 M09/M10 A3005 RMK AO2 SNE20 SLP188 P0000 T10891100 FZRANO
PAKN,2022-10-31T18:54:00Z,PAKN 311854Z 29011KT 10SM CLR M06/M10 A3009 RMK AO2 SLP192 T10561100
PAKP,2022-10-31T18:56:00Z,PAKP 311856Z AUTO 17003KT 10SM OVC048 M14/M16 A2988 RMK AO2 SLP193 T11391161 FZRANO
PAKT,2022-10-31T18:53:00Z,PAKT 311853Z 13010KT 10SM FEW031 BKN046 BKN070 04/02 A2962 RMK AO2 RAB21E43 SLP029 HARBOR WIND 10010KT P0000 T00390017
PAKU,2022-10-31T18:46:00Z,PAKU 311846Z 14006KT 10SM R06/P6000FT SKC M23/M25 A3008
PAKV,2022-10-31T18:53:00Z,PAKV 311853Z AUTO 22003KT 10SM OVC049 M12/M14 A3011 RMK AO2 SLP200 T11171139 TSNO $
PAKW,2022-10-31T19:23:00Z,PAKW 311923Z AUTO 16008KT 10SM FEW023 BKN040 OVC065 04/01 A2955 RMK AO2 RAE21 P0000 T00390011 TSNO $
PALG,2022-10-31T18:56:00Z,PALG 311856Z AUTO 00000KT 8SM CLR M11/M12 A3016 RMK AO2 SLP217 T11111122 FZRANO
PALH,2022-10-31T18:53:00Z,PALH 311853Z 36007KT 10SM BKN120 M04/M14 A2975 RMK AO2 SLP074 T10441139
PALJ,2022-10-31T18:58:00Z,PALJ 311858Z 00000KT 30SM BKN060 M05/M08 A2995 RMK EST PASS OPN NOSPECI
PALP,2022-10-31T18:50:00Z,PALP 311850Z 13004KT 10SM SKC M19/M22 A3008
PALU,2022-10-31T19:23:00Z,PALU 311923Z AUTO 27020G24KT 10SM SCT023 BKN075 M02/M07 A2996 RMK AO2 PK WND 28029/1900 SLP145
PAMB,2022-10-31T18:56:00Z,PAMB 311856Z AUTO 28012KT 8SM CLR M05/M12 A3016 RMK AO2 SLP216 T10501117 FZRANO $
PAMD,2022-10-31T19:40:00Z,PAMD 311940Z AUTO 32009KT 10SM -RA SCT024 BKN029 OVC037 04/01 A2947 RMK AO2 PNO $
PAMH,2022-10-31T19:29:00Z,PAMH 311929Z AUTO 00000KT 3SM -SN BR OVC034 M10/M12 A2999 RMK AO2 P0000 FZRANO
PAMK,2022-10-31T18:56:00Z,PAMK 311856Z AUTO 33005KT 10SM SCT035 M04/M06 A3012 RMK AO2 SLP201 T10391061 FZRANO
PAMR,2022-10-31T18:53:00Z,PAMR 311853Z 33005KT 10SM BKN060 BKN120 M03/M15 A2973 RMK AO2 SLP071 T10331150
PANC,2022-10-31T18:53:00Z,PANC 311853Z 35007KT 10SM OVC120 M04/M13 A2973 RMK AO2 SLP072 T10441133
PANI,2022-10-31T19:31:00Z,PANI 311931Z AUTO 29007KT 10SM SCT019 OVC038 M08/M10 A3019 RMK AO2 FZRANO $
PANN,2022-10-31T18:53:00Z,PANN 311853Z AUTO 00000KT 8SM OVC080 M12/M14 A2998 RMK AO2 SLP163 T11221144 TSNO
PANV,2022-10-31T18:56:00Z,PANV 311856Z AUTO 23005KT 10SM BKN028 M08/M08 A3007 RMK AO2 SLP314 T10781083 FZRANO TSNO
PANW,2022-10-31T18:56:00Z,PANW 311856Z AUTO 28011KT 10SM CLR M08/M12 A3011 RMK AO2 SLP205 T10781122 FZRANO
PAOH,2022-10-31T18:56:00Z,PAOH 311856Z AUTO 09003KT 10SM FEW028 BKN033 OVC040 04/03 A2952 RMK AO2 SLP997 T00390033
PAOM,2022-10-31T18:53:00Z,PAOM 311853Z 33003KT 9SM CLR M13/M16 A3012 RMK AO2 SLP199 T11331156
PAOO,2022-10-31T18:56:00Z,PAOO 311856Z AUTO 00000KT CLR M06/M07 A3020 RMK AO2 SLP233 T10611067 PWINO FZRANO TSNO $
PAOR,2022-10-31T18:53:00Z,PAOR 311853Z 31011KT 4SM -SN BKN038 BKN050 OVC080 M12/M15 A2976 RMK AO2 SLP130 P0000 T11221150
PAOT,2022-10-31T19:14:00Z,PAOT 311914Z 12013KT 10SM SCT015 OVC043 M11/M11 A3007 RMK AO2 T11061111 $
PAOU,2022-10-31T18:56:00Z,PAOU 311856Z AUTO 32010KT 10SM OVC050 02/M04 A3025 RMK AO2 SLP245 T00221044 FZRANO PNO $
PAPB,2022-10-31T19:05:00Z,PAPB 311905Z AUTO 21018G23KT FEW012 BKN022 OVC050 03/ A3004 RMK AO2 RAE1855 P0000 T0033 TSNO $
PAPG,2022-10-31T18:56:00Z,PAPG 311856Z VRB06KT 10SM CLR 02/01 A2959 RMK AO2 RAE09SNE09 SLP022 P0000 T00220006
PAPH,2022-10-31T18:56:00Z,PAPH 311856Z AUTO 33014KT 10SM SCT037 OVC048 01/M05 A3022 RMK AO2 SLP235 T00061050 FZRANO
PAPM,2022-10-31T18:56:00Z,PAPM 311856Z AUTO 09006KT 10SM CLR A3023 RMK AO2 SLPNO FZRANO PNO $
PAPO,2022-10-31T18:56:00Z,PAPO 311856Z AUTO 26021KT 10SM BKN037 M03/M08 A3001 RMK AO2 PK WND 26028/1809 SNB1759E18 SLP160 T10281083 FZRANO PNO $
PAPT,2022-10-31T18:45:00Z,PAPT 311845Z 35010 G21KT 25SM SCT060 SCT100 M09/M09 A2970 RMK NO SPECI
PAQH,2022-10-31T18:56:00Z,PAQH 311856Z AUTO 09005KT 10SM CLR M11/M12 A3022 RMK AO2 SLP234 T11111122 PWINO FZRANO
PAQT,2022-10-31T19:19:00Z,PAQT 311919Z AUTO 00000KT 3SM HZ CLR M21/M24 A3010 RMK AO2 T12061239 TSNO $
PARC,2022-10-31T18:56:00Z,PARC 311856Z AUTO 03004KT 10SM CLR M20/M22 A2989 RMK AO2 SLP199 T12001222 FZRANO
PARS,2022-10-31T19:06:00Z,PARS 311906Z AUTO 26005KT 10SM BKN027 A3015 RMK AO2 FZRANO $
PART,2022-10-31T19:10:00Z,PART 1 OF 2 METAR 
PARY,2022-10-31T18:56:00Z,PARY 311856Z AUTO 00000KT 10SM OVC075 M10/M12 A3001 RMK AO2 SLP180 T11001122 FZRANO
PASA,2022-10-31T18:56:00Z,PASA 311856Z AUTO 15008KT 10SM FEW020 BKN036 M06/M08 A3010 RMK AO2 SLP194 T10561083 FZRANO
PASC,2022-10-31T18:53:00Z,PASC 311853Z 00000KT 10SM CLR M20/M22 A3008 RMK AO2 SLP188 T12001217 $
PASD,2022-10-31T18:56:00Z,PASD 311856Z 28005KT 10SM FEW028 BKN050 BKN100 02/M04 A3027 RMK AO2 SLP252 T00221039 $
PASH,2022-10-31T18:56:00Z,PASH 311856Z AUTO 32016KT 9SM FEW032 M02/M07 A3011 RMK AO2 SNB38E49 SLP195 T10221072 FZRANO PNO $
PASI,2022-10-31T18:53:00Z,PASI 311853Z 12006KT 10SM FEW035 05/M01 A2949
PASK,2022-10-31T18:56:00Z,PASK 311856Z AUTO 06007KT 10SM OVC014 M13/M14 A3012 RMK AO2 SLP198 T11281139 FZRANO
PASM,2022-10-31T18:56:00Z,PASM 311856Z AUTO 21003KT 10SM OVC032 M07/M08 A3016 RMK AO2 SLP226 T10671083 FZRANO
PASN,2022-10-31T18:53:00Z,PASN 311853Z AUTO 18018KT 10SM SCT017 BKN046 OVC070 03/01 A3002 RMK AO2 PK WND 19026/1757 SLP168 T00330011 TSNO
PASO,2022-10-31T18:53:00Z,PASO 311853Z AUTO 02012KT 10SM FEW055 M01/M08 A2972 RMK AO2 SLP066 T10061078 TSNO
PASV,2022-10-31T19:29:00Z,PASV 311929Z AUTO 36010KT 320V040 1SM -SN BR OVC003 M10/M11 A2993 RMK AO2 SLP181
PASX,2022-10-31T18:56:00Z,PASX 311856Z AUTO 00000KT 10SM OVC110 M06/M08 A2977 RMK AO2 SLP088 T10611078 FZRANO
PASY,2022-10-31T18:58:00Z,PASY 311858Z 34021KT 7SM BKN046 BKN055 04/M00 A2985 RMK AO2A SLP110 ALSTG/SLP ESTMD WND DATA ESTMD T00401001 PNO $
PATA,2022-10-31T18:52:00Z,PATA 311852Z 06003KT 10SM FEW060 OVC080 M07/M12 A3001 RMK AO2 SLP170 T10721122 $
PATC,2022-10-31T19:05:00Z,PATC 311905Z 01012KT 10SM SCT047 M05/M09 A3010 RMK AO2A SLP201
PATE,2022-10-31T18:56:00Z,PATE 311856Z AUTO 00000KT 10SM BKN039 M07/M08 A3011 RMK AO2 SLP204 T10721083 FZRANO
PATK,2022-10-31T18:53:00Z,PATK 311853Z 03003KT 10SM FEW070 BKN080 OVC100 M04/M14 A2972 RMK AO2 SLP070 T10441144
PATL,2022-10-31T19:11:00Z,PATL 311911Z AUTO 00000KT 10SM BKN029 M10/M11 A3003 RMK AO2 SLP196 TSNO $
PATO,2022-10-31T18:53:00Z,PATO 311853Z AUTO 29010G23KT 10SM OVC070 M04/M12 A2966 RMK AO2 SLP045 T10391122 TSNO
PATQ,2022-10-31T18:56:00Z,PATQ 311856Z AUTO 14008KT 10SM CLR M21/M23 A2997 RMK AO2 SLP156 T12061228 FZRANO TSNO
PAUN,2022-10-31T18:56:00Z,PAUN 311856Z AUTO 12007KT 10SM CLR M15/M17 A3012 RMK AO2 SNB04E15 SLP203 P0000 T11501167 FZRANO
PAUT,2022-10-31T19:35:00Z,PAUT 311935Z AUTO 19009KT 10SM SCT050 SCT120 03/00 A3021 RMK AO2
PAVA,2022-10-31T19:17:00Z,PAVA 311917Z AUTO 14009KT 10SM FEW001 M09/M10 A3016 RMK AO2 FZRANO
PAVC,2022-10-31T18:56:00Z,PAVC 311856Z AUTO VRB04KT 10SM CLR 01/M02 A3029 RMK AO2 SLP258 T00111017 FZRANO PNO $
PAVD,2022-10-31T18:56:00Z,PAVD 311856Z VRB05KT 10SM FEW090 BKN110 BKN200 A2960 RMK AO2 SLPNO M03/M09 $
PAWD,2022-10-31T18:53:00Z,PAWD 311853Z AUTO 33025G39KT 10SM OVC110 M02/M16 A2962 RMK AO2 PK WND 32041/1801 SLP029 T10171156 TSNO $
PAWG,2022-10-31T18:56:00Z,PAWG 311856Z 10006KT 10SM FEW010 SCT045 BKN080 04/01 A2959 RMK AO2 SLP021 T00440011
PAWI,2022-10-31T18:53:00Z,PAWI 311853Z AUTO 14010KT 10SM CLR M18/M21 A2992 RMK AO2 SNB20E33 SLP134 P0000 T11831211 TSNO
PAWM,2022-10-31T18:56:00Z,PAWM 311856Z AUTO 28003KT 8SM CLR M07/M07 A3010 RMK AO2 SLP198 T10721072 FZRANO PNO $
PAWN,2022-10-31T18:56:00Z,PAWN 311856Z AUTO 36004KT 9SM -SN SCT011 BKN028 OVC044 M13/M14 A3010 RMK AO2 SLP207 P0000 T11281144 FZRANO
PAWS,2022-10-31T18:56:00Z,PAWS 311856Z AUTO 30003KT 10SM SCT120 M06/M13 A2972 RMK AO2 SLP073 T10561128 FZRANO
PAYA,2022-10-31T18:53:00Z,PAYA 311853Z AUTO 08007KT 10SM -RA OVC026 02/01 A2947 RMK AO2 SLP979 P0001 T00170006 TSNO $
PAZK,2022-10-31T18:56:00Z,PAZK 311856Z AUTO 01006KT 9SM -SN OVC022 M13/M14 A2953 RMK AO2 SLP077 P0000 T11281144 FZRANO
PFEL,2022-10-31T18:56:00Z,PFEL 311856Z AUTO 00000KT 10SM CLR M08/M09 A3008 RMK AO2 SLP191 T10831094 FZRANO
PFKT,2022-10-31T18:56:00Z,PFKT 311856Z AUTO 34008KT 10SM FEW040 M06/M08 A3013 RMK AO2 SNB07E25 SLP204 P0000 T10611078 FZRANO
PFNO,2022-10-31T18:56:00Z,PFNO 311856Z AUTO 06008KT 8SM OVC008 M15/M17 A3011 RMK AO2 SLP284 T11501167 FZRANO
PFSH,2022-10-31T18:56:00Z,PFSH 311856Z AUTO 10007KT 10SM CLR M11/M12 A3011 RMK AO2 SLP197 T11111117 FZRANO
PFYU,2022-10-31T18:56:00Z,PFYU 311856Z 04004KT 10SM CLR M18/M19 A3001 RMK AO2 SLP179 T11781194
PGSN,2022-10-31T18:54:00Z,PGSN 311854Z 09006KT 10SM FEW017 FEW055 SCT070 28/25 A2982 RMK AO2 SLP119 P0001 T02780250 $
PGUA,2022-10-31T19:10:00Z,PGUA 311910Z AUTO 12008KT 10SM BKN012 26/24 A2983 RMK AO2 CIG 011 RWY24L SLP092 $
PGUM,2022-10-31T18:54:00Z,PGUM 311854Z 11004KT 10SM FEW018 FEW042 27/26 A2983 RMK AO2 RAB43E52 SLP092 P0000 T02670256
PHBK,2022-10-31T18:51:00Z,PHBK 311851Z AUTO 26003KT 10SM CLR 28/18 A3004 RMK AO2 SLP174 T02780178
PHHI,2022-10-31T19:05:00Z,PHHI 311905Z AUTO 07006KT 10SM SCT024 25/17 A3008 RMK AO2 SLP176 $
PHJR,2022-10-31T18:53:00Z,PHJR 311853Z 05006KT 10SM CLR 28/19 A3005 RMK AO2 SLP182 T02780194
PHKO,2022-10-31T18:53:00Z,PHKO 311853Z 16004KT 10SM CLR 28/21 A3000 RMK AO2 SLP159 T02830211
PHLI,2022-10-31T18:53:00Z,PHLI 311853Z 05014KT 10SM CLR 27/22 A3008 RMK AO2 SLP182 T02720217
PHMK,2022-10-31T18:54:00Z,PHMK 311854Z 04011G20KT 10SM FEW023 27/21 A3006 RMK AO2 SLP180 T02670211
PHNG,2022-10-31T18:57:00Z,PHNG 311857Z 07010KT 10SM FEW025 A3003 RMK AO2 SLP166 $
PHNL,2022-10-31T18:53:00Z,PHNL 311853Z 07012KT 10SM FEW025 SCT040 28/21 A3004 RMK AO2 SLP172 T02780206
PHNY,2022-10-31T19:37:00Z,PHNY 311937Z AUTO 01007KT 070V060 10SM BKN025 26/20 A3010 RMK AO2 $
PHOG,2022-10-31T18:54:00Z,PHOG 311854Z 04014KT 10SM SCT030 30/20 A3004 RMK AO2 SLP178 T03000200
PHSF,2022-10-31T18:58:00Z,PHSF 311858Z AUTO 14011KT 10SM CLR 18/09 A3036 RMK AO2 SLP168 T01790091 $
PHTO,2022-10-31T19:19:00Z,PHTO 311919Z 26004KT 10SM -RA BKN023 BKN032 OVC060 25/21 A3006 RMK AO2 P0000 T02500211
PKWA,2022-10-31T19:40:00Z,PKWA 311940Z AUTO 05008KT 10SM SCT026 27/25 A2981 RMK AO2 T02710246
PLCH,2022-10-31T19:00:00Z,PLCH 311900Z 11008KT 9999 FEW020 28/23 Q1010
PMDY,2022-10-31T19:37:00Z,PMDY 311937Z AUTO 09009KT 10SM BKN023 25/21 A3011 RMK AO2 TSNO
PPIZ,2022-10-31T19:21:00Z,PPIZ 311921Z AUTO 18019KT 3SM -SN BR FEW013 SCT040 BKN050 M04/M04 A2990 RMK AO2 PK WND 19026/1902 P0000 FZRANO
PTKK,2022-10-31T18:51:00Z,PTKK 311851Z 05006KT 15SM FEW014 SCT280 28/24 A2976 RMK SLP079 T02830242
PWAK,2022-10-31T18:55:00Z,PWAK 311855Z AUTO 05010KT 9999 SCT060 27/24 A2987 RMK AO2 SLP121 T02690235 $
RCKH,2022-10-31T19:00:00Z,RCKH 311900Z 31005KT 280V340 5000 -RA FEW009 SCT015 BKN070 22/21 Q1004 NOSIG RMK A2966 RA AMT 0.4MM
RCMQ,2022-10-31T19:00:00Z,RCMQ 311900Z 01022G32KT 9999 -RA SCT008 BKN025 BKN050 20/17 Q1006 RMK A2971 AWOS R36 N/A
RCNN,2022-10-31T19:30:00Z,RCNN 311930Z 33009KT 8000 -RA FEW010 BKN020 BKN040 20/18 Q1005 RMK A2969
RCSS,2022-10-31T19:00:00Z,RCSS 311900Z 11005KT 080V140 9999 -RA FEW010 BKN020 BKN040 20/19 Q1012 NOSIG RMK A2991 RA AMT 0.4MM
RCTP,2022-10-31T19:30:00Z,RCTP 311930Z 05016KT 9999 -RA FEW006 BKN011 BKN025 21/20 Q1012 NOSIG RMK A2990
RJAA,2022-10-31T19:30:00Z,RJAA 311930Z AUTO 30004KT 270V330 9999 NSC 10/08 Q1024 NOSIG RMK A3026
RJAH,2022-10-31T19:00:00Z,RJAH 311900Z 01004KT 9999 FEW030 SCT/// 07/07 Q1024
RJBB,2022-10-31T19:30:00Z,RJBB 311930Z AUTO 07010KT 9999 SCT050 BKN090 BKN110 17/14 Q1019 NOSIG
RJCC,2022-10-31T19:30:00Z,RJCC 311930Z 14009KT 9999 -SHRA FEW015 SCT025 BKN040 10/08 Q1026 RMK 1ST015 3CU025 7CU040 A3030
RJDB,2022-10-31T19:00:00Z,RJDB 311900Z AUTO 03010KT 9999 NSC 18/12 Q1018
RJFF,2022-10-31T19:30:00Z,RJFF 311930Z AUTO VRB01KT 9999 NSC 14/11 Q1018 BECMG 15005KT RMK A3008
RJFR,2022-10-31T19:00:00Z,RJFR 311900Z 34005KT CAVOK 15/12 Q1019
RJGG,2022-10-31T19:30:00Z,RJGG 311930Z AUTO 04005KT 9999 NSC 16/10 Q1021 NOSIG
RJKA,2022-10-31T19:00:00Z,RJKA 311900Z AUTO 08014KT 9999 -RA FEW013 SCT041 BKN060 22/19 Q1012
RJKI,2022-10-31T19:00:00Z,RJKI 311900Z AUTO 08007KT 9999 -RA FEW015 SCT029 BKN034 20/18 Q1012
RJNK,2022-10-31T19:00:00Z,RJNK 311900Z 16002KT 9999 FEW030 BKN050 12/10 Q1020
RJOH,2022-10-31T19:00:00Z,RJOH 311900Z 19003KT 9999 FEW050 BKN/// 10/10 Q1019
RJOI,2022-10-31T18:56:00Z,RJOI 311856Z 31006KT 9999 FEW030 FEW055 BKN240 14/07 A3010 RMK AO2 SLP193 T01440072
RJOO,2022-10-31T19:00:00Z,RJOO 311900Z AUTO 08011KT 9999 -RA FEW030 SCT048 BKN050 //////TCU 16/12 Q1020 RMK A3013 TCU 25KM SW MOV NE
RJOS,2022-10-31T19:00:00Z,RJOS 311900Z 29004KT 9999 FEW015 BKN030 BKN050 15/12 Q1019
RJSM,2022-10-31T19:00:00Z,RJSM 311900Z 22005KT 9999 FEW030 08/05 Q1026
RJTT,2022-10-31T19:30:00Z,RJTT 311930Z 35011KT 9999 FEW030 SCT100 BKN/// 14/09 Q1025 NOSIG RMK 1CU030 4AC100 A3027
RJTY,2022-10-31T18:55:00Z,RJTY 311855Z AUTO 33003KT 10SM OVC095 11/07 A3030 RMK AO2 SLP264 T01050068 $
RKJB,2022-10-31T19:00:00Z,RKJB 311900Z AUTO 11003KT 3600 BR NCD 09/08 Q1022
RKJK,2022-10-31T19:34:00Z,RKJK 311934Z 10004KT M1/8SM R36/0700V0800FT FG VV000 09/09 A3019 RMK SLP228
RKNY,2022-10-31T19:00:00Z,RKNY 311900Z AUTO 25006KT 9999 NCD 14/07 Q1020
RKPC,2022-10-31T19:00:00Z,RKPC 311900Z 03002KT 9999 FEW030 15/11 Q1021 NOSIG
RKPK,2022-10-31T19:00:00Z,RKPK 311900Z 03005KT 9000 FEW040 11/09 Q1022
RKSG,2022-10-31T18:55:00Z,RKSG 311855Z 00000KT 2SM BR FEW100 10/09 A3018 RMK AO2A SLP223 T00960094 TSNO $
RKSI,2022-10-31T19:30:00Z,RKSI 311930Z 14002KT 3500 BR SCT020 11/11 Q1022 NOSIG
RKSM,2022-10-31T19:00:00Z,RKSM 311900Z 20001KT 4800 BR FEW015 BKN130 09/08 A3021
RKSO,2022-10-31T18:55:00Z,RKSO 311855Z 08003KT 1 1/4SM BR FEW001 08/08 A3020 RMK AO2A SLP230 T00820082 TSNO CHINO RWY09 $
RKSP,2022-10-31T18:43:00Z,RKSP 311843Z 29006KT 3200 BR OVC010 13/12 A3020 RMK CIG010
RKSS,2022-10-31T19:00:00Z,RKSS 311900Z 25001KT 1200 0200SE R32L/1100N R32R/0375U PRFG NSC 07/07 Q1023 NOSIG
RKTE,2022-10-31T19:08:00Z,RKTE 311908Z 19004KT 8000 BR FEW009 06/05 A3018
RKTI,2022-10-31T18:40:00Z,RKTI 311840Z 02002KT 0800 R36/1200 FG BKN002 06/06 A3020 RMK CIG002
RKTN,2022-10-31T19:00:00Z,RKTN 311900Z 11001KT CAVOK 07/05 Q1023
RKTU,2022-10-31T19:00:00Z,RKTU 311900Z 15001KT CAVOK 06/05 Q1023
ROAH,2022-10-31T19:30:00Z,ROAH 311930Z AUTO 04016KT 9000 -RA FEW007 BKN010 OVC035 22/21 Q1009 RMK A2981
RODN,2022-10-31T19:12:00Z,RODN 311912Z 04010KT 4SM RA BR BKN017 OVC033 22/21 A2980 RMK AO2A RAE00RAB04 SLP097 $
ROIG,2022-10-31T19:30:00Z,ROIG 311930Z AUTO 03024G36KT 2500 RA BR BKN005 BKN007 OVC012 //////TCU 23/23 Q1007 RMK A2975 RI007 TCU 10KM NW MOV N
ROMD,2022-10-31T19:00:00Z,ROMD 311900Z AUTO 05008KT 9999 BKN010 OVC018 25/24 Q1010
RORK,2022-10-31T19:00:00Z,RORK 311900Z AUTO 05019KT 4900 -RA BR SCT007 BKN008 BKN010 24/23 Q1010
RORY,2022-10-31T19:00:00Z,RORY 311900Z AUTO 07015G25KT 8000 -RA FEW009 SCT010 BKN029 22/21 Q1011
ROTM,2022-10-31T18:56:00Z,ROTM 311856Z 05010G17KT 8000 -SHRA BKN007 BKN012 OVC040 22/20 A2980 RMK DZE50SHRAB50 SLP090 P0003 T02220204
ROYN,2022-10-31T19:00:00Z,ROYN 311900Z AUTO 04031KT 1200 UP BKN008 OVC010 23/// Q1009
RPLB,2022-10-31T19:00:00Z,RPLB 311900Z 18012KT 8000 -RA SCT018 OVC070 27/25 Q1005 RMK A2968
RPLC,2022-10-31T19:00:00Z,RPLC 311900Z 19004KT 5000 HZ SCT020 BKN300 25/25 Q1005 RERA RMK A2968
RPLL,2022-10-31T19:00:00Z,RPLL 311900Z 13004KT 100V160 9999 FEW025 SCT300 25/24 Q1005 NOSIG RMK A2968
RPMD,2022-10-31T19:00:00Z,RPMD 311900Z VRB02KT 9999 FEW016 SCT090 26/26 Q1008 RMK A2977
RPVM,2022-10-31T19:00:00Z,RPVM 311900Z 00000KT 9999 FEW020 SCT300 26/24 Q1009 RMK A2980
SAAR,2022-10-31T19:00:00Z,SAAR 311900Z 20014KT 160V240 CAVOK 19/M03 Q1029 RMK PP000
SABE,2022-10-31T19:00:00Z,SABE 311900Z 19007G17KT 140V240 CAVOK 16/00 Q1028 NOSIG RMK PP000
SACO,2022-10-31T19:00:00Z,SACO 311900Z 17014KT 9999 FEW030 17/M13 Q1031 NOSIG RMK PP000
SADF,2022-10-31T19:00:00Z,SADF 311900Z 20012KT CAVOK 17/00 Q1028 RMK PP000
SAEZ,2022-10-31T19:00:00Z,SAEZ 311900Z 18008G20KT CAVOK 16/M00 Q1028 NOSIG RMK PP000
SAME,2022-10-31T19:00:00Z,SAME 311900Z 36005G15KT CAVOK 17/M010 Q1031
SANT,2022-10-31T19:00:00Z,SANT 311900Z 23012KT 200V290 9000 FEW080 BKN110 19/M03 Q1030 RMK PP000
SAOC,2022-10-31T19:00:00Z,SAOC 311900Z 18012G25KT CAVOK 17/M07 Q1031
SARC,2022-10-31T19:00:00Z,SARC 311900Z 18020KT 9999 BKN018 SCT100 20/01 Q1024
SARE,2022-10-31T19:00:00Z,SARE 311900Z 18019KT CAVOK 19/02 Q1025 RMK PP///
SARI,2022-10-31T19:00:00Z,SARI 311900Z VRB07G17KT 8000 -DZ BKN008 OVC011 14/13 Q1016 RMK PP999
SARL,2022-10-31T19:00:00Z,SARL 311900Z 18020G33KT 9999 BKN020 18/04 Q1024
SARP,2022-10-31T19:00:00Z,SARP 311900Z 16013KT 9999 -RA NSC 11/05 Q1023
SASA,2022-10-31T19:00:00Z,SASA 311900Z 08008KT 040V140 9999 OVC068 12/M06 Q1029 PP000
SASJ,2022-10-31T19:00:00Z,SASJ 311900Z 17009KT 140V210 9999 SCT045 OVC100 17/M05 Q1028 RMK PP000
SAVC,2022-10-31T19:00:00Z,SAVC 311900Z 08011KT CAVOK 19/M00 Q1023 RMK PP000
SAWE,2022-10-31T19:00:00Z,SAWE 311900Z 29032KT 9999 -DZ FEW040 12/03 Q1006 RMK PP999
SAWG,2022-10-31T19:41:00Z,SAWG 311941Z 27027G41KT CAVOK 18/M03 Q1011
SAWH,2022-10-31T19:00:00Z,SAWH 311900Z 24018G28KT 9999 -RA FEW025 BKN035 09/04 Q1002 RMK PP999
SAZM,2022-10-31T19:00:00Z,SAZM 311900Z 20010KT 170V250 9999 SCT030 BKN042 12/05 Q1028 RMK PP///
SAZN,2022-10-31T19:00:00Z,SAZN 311900Z 32008KT CAVOK 21/M13 Q1029
SAZS,2022-10-31T19:00:00Z,SAZS 311900Z 29007KT CAVOK 17/M09 Q1029 RMK PP///
SBAF,2022-10-31T19:00:00Z,SBAF 311900Z 23013KT 9999 SCT048 27/23 Q1007
SBAN,2022-10-31T19:00:00Z,SBAN 311900Z 16004KT 9999 BKN035 FEW040TCU SCT100 27/18 Q1013
SBAR,2022-10-31T19:00:00Z,SBAR 311900Z 09014KT 9999 FEW023 28/22 Q1010
SBAT,2022-10-31T19:00:00Z,SBAT 311900Z 36016G26KT 9999 SHRA TS BKN030 FEW035CB 29/23 Q1008
SBAX,2022-10-31T19:00:00Z,SBAX 311900Z 27009KT 8000 -RA SCT006 OVC030 19/19 Q1014 RERA
SBBE,2022-10-31T19:00:00Z,SBBE 311900Z 34012KT 9999 SCT040 BKN070 31/25 Q1008
SBBG,2022-10-31T19:15:00Z,SBBG 311915Z 21014KT 9999 SCT030 18/06 Q1023
SBBH,2022-10-31T19:00:00Z,SBBH 311900Z 20003KT 9999 SCT040 SCT100 25/20 Q1013 RETS
SBBI,2022-10-31T19:00:00Z,SBBI 311900Z 11005G15KT 9999 SCT010 FEW030TCU BKN070 20/17 Q1011
SBBQ,2022-10-31T19:00:00Z,SBBQ 311900Z 35007KT 320V020 4000 -TSRA SCT008 FEW020CB BKN025 20/18 Q1016 RERA
SBBR,2022-10-31T19:00:00Z,SBBR 311900Z 30005KT 250V330 9999 FEW040 FEW045TCU BKN100 28/18 Q1013
SBBU,2022-10-31T19:00:00Z,SBBU 311900Z 12008KT 9999 SCT025 BKN070 23/21 Q1009
SBBV,2022-10-31T19:27:00Z,SBBV 311927Z 06005KT 8000 VCSH BKN030 FEW035TCU BKN070 25/23 Q1008 RETS RETSRA RESHRA
SBBW,2022-10-31T19:00:00Z,SBBW 311900Z 27008KT 9999 FEW007 BKN080 OVC090 23/23 Q1011 RETS
SBCA,2022-10-31T19:00:00Z,SBCA 311900Z 20010G20KT 8000 3000SW -DZ SCT002 BKN004 BKN012 15/14 Q1014
SBCB,2022-10-31T19:00:00Z,SBCB 311900Z 15005KT 9999 FEW025 30/21 Q1007
SBCC,2022-10-31T19:00:00Z,SBCC 311900Z 29010KT 9999 SCT025 32/22 Q1007
SBCF,2022-10-31T19:00:00Z,SBCF 311900Z VRB02KT 9999 VCSH BKN030 FEW035TCU BKN080 27/20 Q1013
SBCG,2022-10-31T19:06:00Z,SBCG 311906Z 21017KT 3000 -DZ BR BKN008 BKN017 BKN100 19/18 Q1012
SBCH,2022-10-31T19:00:00Z,SBCH 311900Z 20010KT 7000 -RA BKN004 OVC020 13/13 Q1016
SBCJ,2022-10-31T19:00:00Z,SBCJ 311900Z 02003KT 7000 FEW030 30/22 Q1012
SBCO,2022-10-31T19:00:00Z,SBCO 311900Z 17013KT 4500 RA BKN013 OVC025 14/12 Q1019
SBCP,2022-10-31T19:00:00Z,SBCP 311900Z 11012KT 9999 -RA SCT020 BKN090 26/24 Q1007 RERA
SBCR,2022-10-31T19:15:00Z,SBCR 311915Z 23018G32KT 200V260 4000 -DZ BKN008 OVC016 15/13 Q1015
SBCT,2022-10-31T19:25:00Z,SBCT 311925Z 09009KT 060V120 3000 -RA SCT012 BKN030 FEW050TCU BKN070 19/17 Q1012
SBCX,2022-10-31T19:00:00Z,SBCX 311900Z 21012KT 4000 1500SE -RA BCFG OVC001 09/// Q1018
SBCY,2022-10-31T19:00:00Z,SBCY 311900Z 14005KT 9999 FEW025TCU SCT030 BKN100 24/23 Q1009 RETS
SBCZ,2022-10-31T19:00:00Z,SBCZ 311900Z 36007KT 9999 BKN035 33/23 Q1007
SBDN,2022-10-31T19:00:00Z,SBDN 311900Z 14004KT CAVOK 26/20 Q1007
SBEG,2022-10-31T19:00:00Z,SBEG 311900Z 01007KT 340V050 9999 SCT020 FEW025TCU 35/23 Q1006
SBES,2022-10-31T19:00:00Z,SBES 311900Z 22007KT 170V250 9999 FEW025 FEW030TCU 29/21 Q1007
SBFI,2022-10-31T19:10:00Z,SBFI 311910Z 21010KT 9999 -TSRA BKN011 BKN020 //////CB 14/12 Q1016
SBFL,2022-10-31T19:00:00Z,SBFL 311900Z 19024G37KT 9999 SCT030 BKN060 20/15 Q1010
SBFN,2022-10-31T19:32:00Z,SBFN 311932Z AUTO 18006KT 140V240 9999 FEW018 27/23 Q1011
SBFS,2022-10-31T19:00:00Z,SBFS 311900Z 03010KT 9999 FEW025 28/26 Q1007
SBFZ,2022-10-31T19:00:00Z,SBFZ 311900Z 10012KT CAVOK 29/22 Q1009
SBGL,2022-10-31T19:35:00Z,SBGL 311935Z 32015G25KT 2000 TSRA SCT005 SCT020 SCT025CB OVC060 24/23 Q1009
SBGM,2022-10-31T19:00:00Z,SBGM 311900Z 29010KT 9999 SCT046 35/22 Q1006
SBGO,2022-10-31T19:00:00Z,SBGO 311900Z 24007KT 9999 FEW040 FEW045TCU BKN100 30/19 Q1011
SBGR,2022-10-31T19:00:00Z,SBGR 311900Z 20002KT 9999 SCT035 OVC070 22/20 Q1012
SBGW,2022-10-31T19:00:00Z,SBGW 311900Z VRB02KT 9999 FEW025 SCT035 FEW040TCU BKN100 22/21 Q1011
SBHT,2022-10-31T19:00:00Z,SBHT 311900Z 03005KT 9999 SCT030 33/24 Q1007
SBIH,2022-10-31T19:00:00Z,SBIH 311900Z 06007KT 9999 3000NE FEW020 33/25 Q1006
SBIL,2022-10-31T19:00:00Z,SBIL 311900Z 07004KT 9999 SCT025 BKN060 28/25 Q1011
SBIP,2022-10-31T19:00:00Z,SBIP 311900Z AUTO 01009KT CAVOK 27/17 Q1010
SBIZ,2022-10-31T19:00:00Z,SBIZ 311900Z 01003KT 9999 SCT030 FEW035TCU 38/21 Q1006
SBJE,2022-10-31T19:00:00Z,SBJE 311900Z 04018KT CAVOK 32/22 Q1008
SBJP,2022-10-31T19:00:00Z,SBJP 311900Z 09010KT 050V130 9999 FEW030 28/21 Q1011
SBJR,2022-10-31T19:00:00Z,SBJR 311900Z 18005KT 9999 SCT030 FEW035TCU SCT040 28/23 Q1007
SBJU,2022-10-31T19:00:00Z,SBJU 311900Z 18002KT CAVOK 35/13 Q1011
SBJV,2022-10-31T19:00:00Z,SBJV 311900Z 13014KT 9000 BKN010 BKN040 23/21 Q1008
SBKG,2022-10-31T19:00:00Z,SBKG 311900Z 07013KT 9999 FEW030 30/18 Q1012
SBKP,2022-10-31T19:00:00Z,SBKP 311900Z 21006KT 9999 VCSH SCT020 FEW050TCU BKN100 24/20 Q1011
SBLB,2022-10-31T19:00:00Z,SBLB 311900Z AUTO 02032KT 9999 NCD 25/22 Q1008 W/////
SBLO,2022-10-31T19:00:00Z,SBLO 311900Z 07001KT 9999 BKN025 26/19 Q1009
SBLS,2022-10-31T19:00:00Z,SBLS 311900Z 12003KT 050V150 9999 SCT023 BKN080 26/21 Q1013
SBMA,2022-10-31T19:00:00Z,SBMA 311900Z 35005KT 9999 SCT023 FEW025TCU 37/21 Q1006
SBME,2022-10-31T19:00:00Z,SBME 311900Z 18007KT 9999 FEW030 29/23 Q1006
SBMG,2022-10-31T19:00:00Z,SBMG 311900Z 22010KT 9999 SCT015 BKN035 23/19 Q1009
SBMK,2022-10-31T19:00:00Z,SBMK 311900Z 09006KT 9999 FEW040 FEW045TCU SCT100 26/21 Q1011
SBMN,2022-10-31T19:00:00Z,SBMN 311900Z VRB07KT 9999 SCT020 FEW025TCU 36/24 Q1006
SBMO,2022-10-31T19:00:00Z,SBMO 311900Z 09011KT 9999 FEW033 28/21 Q1011
SBMQ,2022-10-31T19:00:00Z,SBMQ 311900Z 07012KT 9999 FEW030 32/24 Q1009
SBMS,2022-10-31T19:00:00Z,SBMS 311900Z 04017KT 9999 FEW030 34/18 Q1007
SBMT,2022-10-31T19:00:00Z,SBMT 311900Z 29002KT 9999 SCT029 BKN049 BKN080 22/18 Q1012
SBNF,2022-10-31T19:00:00Z,SBNF 311900Z 16008KT 9999 FEW020 BKN040 22/18 Q1009
SBNT,2022-10-31T19:00:00Z,SBNT 311900Z 11012KT 9999 FEW035 28/20 Q1010
SBOI,2022-10-31T19:00:00Z,SBOI 311900Z 05008KT 9999 SCT040 32/23 Q1009
SBPA,2022-10-31T19:00:00Z,SBPA 311900Z 17012G23KT 4500 -RA OVC036 14/12 Q1019 RERA
SBPB,2022-10-31T19:00:00Z,SBPB 311900Z 11019KT CAVOK 31/25 Q1007
SBPF,2022-10-31T19:00:00Z,SBPF 311900Z 19012KT 170V230 4000 -RA BKN004 OVC010 10/10 Q1018
SBPJ,2022-10-31T19:00:00Z,SBPJ 311900Z 05006KT 9999 FEW030 FEW035TCU SCT100 34/21 Q1007
SBPK,2022-10-31T19:00:00Z,SBPK 311900Z 24018KT 9999 SCT030 BKN060 16/04 Q1022
SBPL,2022-10-31T19:00:00Z,SBPL 311900Z 09005KT 9999 FEW040 35/17 Q1009
SBPP,2022-10-31T19:00:00Z,SBPP 311900Z 18014KT 1000 DZ BKN001 OVC070 13/13 Q1016
SBPR,2022-10-31T19:00:00Z,SBPR 311900Z 12002KT 9999 SCT030 BKN080 23/21 Q1014
SBPS,2022-10-31T19:00:00Z,SBPS 311900Z 05007KT 8000 -RA SCT020 BKN040 BKN100 25/23 Q1012
SBPV,2022-10-31T19:00:00Z,SBPV 311900Z 35005KT 9999 SCT040 FEW045TCU 33/23 Q1006
SBRB,2022-10-31T19:00:00Z,SBRB 311900Z 31007KT 9999 VCSH SCT027 FEW033TCU 35/23 Q1006
SBRF,2022-10-31T19:00:00Z,SBRF 311900Z 12007KT 050V150 9999 FEW025 28/21 Q1011
SBRJ,2022-10-31T19:30:00Z,SBRJ 311930Z 14016G34KT 9000 TS SCT020 FEW030CB BKN040 OVC100 28/23 Q1007
SBRP,2022-10-31T19:00:00Z,SBRP 311900Z 08003KT 4500 -TSRA BKN030 FEW033CB OVC070 22/22 Q1010 RERA
SBSC,2022-10-31T19:00:00Z,SBSC 311900Z 16012KT 8000 TS SCT010 BKN025 FEW030CB OVC070 26/23 Q1008
SBSG,2022-10-31T19:00:00Z,SBSG 311900Z 16012KT 130V210 CAVOK 30/19 Q1010
SBSJ,2022-10-31T19:00:00Z,SBSJ 311900Z 11002KT 9999 FEW011 BKN070 24/21 Q1011
SBSL,2022-10-31T19:00:00Z,SBSL 311900Z 04016KT 9999 FEW030 32/22 Q1008
SBSM,2022-10-31T19:00:00Z,SBSM 311900Z 28003KT 9999 FEW025 BKN040 BKN070 12/07 Q1023
SBSN,2022-10-31T19:00:00Z,SBSN 311900Z 09011KT 9999 SCT020 33/25 Q1007
SBSP,2022-10-31T19:00:00Z,SBSP 311900Z 17006KT 110V220 9999 FEW009 SCT026 BKN046 20/18 Q1012
SBSR,2022-10-31T19:00:00Z,SBSR 311900Z 00000KT 9999 FEW020TCU SCT025 BKN070 22/22 Q1008 RETS
SBST,2022-10-31T19:00:00Z,SBST 311900Z 34002KT 9999 -DZ FEW010 SCT030 OVC040 25/21 Q1008
SBSV,2022-10-31T19:00:00Z,SBSV 311900Z 09013KT 9999 FEW020 28/24 Q1011
SBTA,2022-10-31T19:00:00Z,SBTA 311900Z 10003KT 070V130 9999 FEW045 SCT100 23/20 Q1010
SBTD,2022-10-31T19:00:00Z,SBTD 311900Z 23020KT 7000 FEW003 BKN005 16/16 Q1012
SBTE,2022-10-31T19:00:00Z,SBTE 311900Z 18005KT 9999 FEW040 38/16 Q1005
SBTF,2022-10-31T19:00:00Z,SBTF 311900Z 11006KT 9999 SCT023 35/26 Q1006
SBTT,2022-10-31T19:00:00Z,SBTT 311900Z 13003KT 9999 SCT030 32/24 Q1007
SBTU,2022-10-31T19:00:00Z,SBTU 311900Z AUTO 16008KT 130V200 //// // FEW043/// 32/22 Q1009
SBUA,2022-10-31T19:00:00Z,SBUA 311900Z 01007KT 340V050 9999 SCT035 FEW040TCU 33/24 Q1006
SBUF,2022-10-31T19:00:00Z,SBUF 311900Z 19005KT 9999 FEW025 37/11 Q1009
SBUL,2022-10-31T19:00:00Z,SBUL 311900Z 28007KT 9999 -RA FEW020 SCT025 BKN100 22/17 Q1013 RETS
SBUR,2022-10-31T19:00:00Z,SBUR 311900Z 34010KT 9999 -RA SCT040 22/21 Q1012 RETS
SBUY,2022-10-31T19:00:00Z,SBUY 311900Z 15006KT 9999 SCT030 33/25 Q1005
SBVH,2022-10-31T19:00:00Z,SBVH 311900Z 30009KT 9999 FEW030 31/20 Q1010
SBVT,2022-10-31T19:00:00Z,SBVT 311900Z 05017KT 9999 FEW025 SCT100 28/23 Q1008
SBYS,2022-10-31T19:00:00Z,SBYS 311900Z 11003KT 070V160 9999 BKN011 SCT045 23/21 Q1011
SCAP,2022-10-31T19:00:00Z,SCAP 311900Z AUTO 22009KT 180V270 9999 ////// 20/M04 Q1032
SCAR,2022-10-31T19:00:00Z,SCAR 311900Z 21012KT CAVOK 19/12 Q1014
SCAT,2022-10-31T19:00:00Z,SCAT 311900Z 30009KT 260V010 CAVOK 18/10 Q1015
SCBA,2022-10-31T19:00:00Z,SCBA 311900Z 30027KT CAVOK 16/M02 Q1025
SCCF,2022-10-31T19:00:00Z,SCCF 311900Z 27019KT CAVOK 22/M14 Q1024
SCCH,2022-10-31T19:00:00Z,SCCH 311900Z 21016KT CAVOK 26/01 Q1020
SCCI,2022-10-31T19:00:00Z,SCCI 311900Z 29028G42KT 9999 -SHRA SCT030 BKN080 11/04 Q1008 NOSIG
SCCY,2022-10-31T19:00:00Z,SCCY 311900Z VRB07KT 9999 FEW040 18/M02 Q1028
SCDA,2022-10-31T19:00:00Z,SCDA 311900Z 22016KT CAVOK 19/12 Q1014
SCEL,2022-10-31T19:00:00Z,SCEL 311900Z 18010KT 130V210 CAVOK 28/M05 Q1013 NOSIG
SCFA,2022-10-31T19:00:00Z,SCFA 311900Z 20011KT CAVOK 17/10 Q1014 NOSIG
SCGE,2022-10-31T19:00:00Z,SCGE 311900Z 17014KT CAVOK 25/04 Q1023
SCIC,2022-10-31T19:00:00Z,SCIC 311900Z 19009KT CAVOK 31/M16 Q1014
SCIE,2022-10-31T19:00:00Z,SCIE 311900Z 16015KT CAVOK 26/M04 Q1021
SCIP,2022-10-31T19:00:00Z,SCIP 311900Z 11014KT 9999 -SHRA BKN035 21/17 Q1020 NOSIG
SCIR,2022-10-31T19:00:00Z,SCIR 311900Z 13014G24KT 4000 HZ SCT015 14/09 Q1029
SCJO,2022-10-31T19:00:00Z,SCJO 311900Z 19010KT 150V240 CAVOK 17/06 Q1030
SCMK,2022-10-31T19:00:00Z,SCMK 311900Z 12005KT CAVOK 15/06 Q1033
SCON,2022-10-31T19:00:00Z,SCON 311900Z AUTO 21004KT 180V250 CAVOK 14/05 Q1033
SCPD,2022-10-31T19:00:00Z,SCPD 311900Z 18011KT 140V220 CAVOK 27/M01 Q1014
SCPQ,2022-10-31T19:00:00Z,SCPQ 311900Z 13006KT 090V190 CAVOK 14/06 Q1032
SCQP,2022-10-31T19:00:00Z,SCQP 311900Z 17010KT CAVOK 21/08 Q1026
SCRD,2022-10-31T19:00:00Z,SCRD 311900Z 35007KT 270V030 CAVOK 23/04 Q1016
SCRG,2022-10-31T19:00:00Z,SCRG 311900Z 23012KT CAVOK 29/M04 Q1015
SCRM,2022-10-31T19:00:00Z,SCRM 311900Z 29022KT 0600 FZFG OVC003 M01/M01 Q0971 NOSIG
SCSE,2022-10-31T19:00:00Z,SCSE 311900Z 27011KT CAVOK 17/10 Q1015
SCSN,2022-10-31T19:00:00Z,SCSN 311900Z 32005KT 260V050 CAVOK 21/08 Q1014
SCTB,2022-10-31T19:00:00Z,SCTB 311900Z 22009KT CAVOK 27/M08 Q1015
SCTN,2022-10-31T19:00:00Z,SCTN 311900Z 18014KT 150V210 CAVOK 12/07 Q1033
SCVD,2022-10-31T19:00:00Z,SCVD 311900Z 17006KT CAVOK 19/07 Q1028
SCVM,2022-10-31T19:00:00Z,SCVM 311900Z 35007KT 290V020 CAVOK 21/04 Q1014
SECA,2022-10-31T19:00:00Z,SECA 311900Z 24008KT 9999 FEW040 34/12 Q1011 RMK A2988
SECO,2022-10-31T19:00:00Z,SECO 311900Z 29001KT 9999 SCT020 BKN100 30/23 Q1009 RMK A2979
SEGS,2022-10-31T19:00:00Z,SEGS 311900Z 21011KT 9999 FEW020 25/17 Q1012 RMK A2990
SEGU,2022-10-31T19:00:00Z,SEGU 311900Z 15010KT 9999 FEW026 28/19 Q1008 NOSIG RMK A2979
SEGZ,2022-10-31T19:00:00Z,SEGZ 311900Z 10005KT 9999 FEW026 30/21 Q1009
SEJD,2022-10-31T19:00:00Z,SEJD 311900Z 11006KT 9999 SCT020 BKN300 29/26 Q1009 RMK A2982
SELT,2022-10-31T19:00:00Z,SELT 311900Z 15006KT 9999 SCT040 21/05 Q1024
SEMC,2022-10-31T19:00:00Z,SEMC 311900Z 02012KT 340V070 9999 SCT033 26/18 Q1013 RMK A992
SEMT,2022-10-31T19:00:00Z,SEMT 311900Z 28013KT 9999 SCT020 SCT200 28/21 Q1009 RMK A2981
SEQM,2022-10-31T19:00:00Z,SEQM 311900Z 34015KT 310V010 9999 SCT030 24/09 Q1021 NOSIG RMK A3016
SERB,2022-10-31T19:00:00Z,SERB 311900Z 06012KT 9999 BKN040 24/12 Q1023
SERO,2022-10-31T19:00:00Z,SERO 311900Z 32005KT 9999 FEW013 OVC023 25/19 Q1010
SESA,2022-10-31T19:00:00Z,SESA 311900Z 22009KT 9999 SCT010 OVC013 21/18 Q1010 RMK A2988
SESM,2022-10-31T19:00:00Z,SESM 311900Z 09006KT 050V120 9999 VCSH BKN023 BKN100 24/21 Q1013 RMK A2993
SEST,2022-10-31T19:00:00Z,SEST 311900Z 16011KT 9999 BKN020 SCT080 22/19 Q1010 RMK A2983
SETN,2022-10-31T19:00:00Z,SETN 311900Z 29012KT 250V320 9999 FEW026 28/23 Q1008 RMK A2979
SETU,2022-10-31T19:00:00Z,SETU 311900Z 06008KT 9999 SCT020 SCT080 20/07 Q1027
SGAS,2022-10-31T19:00:00Z,SGAS 311900Z 21026KT 9999 FEW027 BKN070 15/12 Q1023
SGES,2022-10-31T19:00:00Z,SGES 311900Z 21028KT 9999 OVC008 14/13 Q1016
SKAR,2022-10-31T19:00:00Z,SKAR 311900Z 18005KT 9999 BKN023 28/18 Q1015 RMK A2998
SKBG,2022-10-31T19:00:00Z,SKBG 311900Z 31005KT 9999 SCT017 SCT270 25/18 Q1013 RMK A2992
SKBO,2022-10-31T19:00:00Z,SKBO 311900Z 28010KT 270V340 9000 VCSH SCT020TCU 20/11 Q1023 NOSIG RMK TCUVCSH/SE A3021
SKBQ,2022-10-31T19:00:00Z,SKBQ 311900Z 12006KT 090V150 9999 FEW015 32/22 Q1008 NOSIG RMK A2978
SKCC,2022-10-31T19:00:00Z,SKCC 311900Z 01008KT 9999 SCT023 30/22 Q1009 RMK A2981
SKCG,2022-10-31T19:00:00Z,SKCG 311900Z 25007KT 200V290 9999 SCT017 BKN200 31/24 Q1008 RMK A2977
SKCL,2022-10-31T19:00:00Z,SKCL 311900Z VRB04KT 9999 SCT030 30/18 Q1011 BECMG 32010KT
SKEJ,2022-10-31T19:00:00Z,SKEJ 311900Z 25004KT 9999 FEW017 33/21 Q1007 RMK A2975
SKIB,2022-10-31T19:00:00Z,SKIB 311900Z 07007KT 9999 FEW020 27/19 Q1015 RMK A2998
SKIP,2022-10-31T19:00:00Z,SKIP 311900Z 36007KT 9999 SCT020 18/09 Q1025 RMK A3025
SKLC,2022-10-31T19:00:00Z,SKLC 311900Z 00000KT 9999 SCT025 32/23 Q1008 RMK A2977
SKLT,2022-10-31T19:00:00Z,SKLT 311900Z VRB02KT 9999 SCT020 33/23 Q1006 RMK A2972
SKMD,2022-10-31T19:00:00Z,SKMD 311900Z 02013KT 9999 FEW040 28/14 Q1015 RMK A2999
SKMR,2022-10-31T19:00:00Z,SKMR 311900Z 18004KT 9999 SCT020 SCT200 32/22 Q1008 RMK A2976
SKMZ,2022-10-31T19:00:00Z,SKMZ 311900Z 30011KT 9000 BKN050TCU 20/13 Q1023 RMK TCUE A3022
SKNV,2022-10-31T19:00:00Z,SKNV 311900Z 02005KT 9999 SCT035TCU 32/19 Q1008 RMK TCUE/SE A2978
SKPC,2022-10-31T19:00:00Z,SKPC 311900Z 01006KT 9999 FEW020 BKN070 32/24 Q1006 RMK A2971
SKPE,2022-10-31T19:00:00Z,SKPE 311900Z 22005KT 9999 SCT020TCU 27/17 Q1014 RMK TCUNE/E A2996
SKPS,2022-10-31T19:00:00Z,SKPS 311900Z VRB07KT 9999 SCT023 24/16 Q1016 RMK A3002
SKPV,2022-10-31T19:00:00Z,SKPV 311900Z 27004KT 9999 FEW017 SCT100 BKN200 30/24 Q1009 RMK A2981
SKRG,2022-10-31T19:00:00Z,SKRG 311900Z 08010KT 9999 SCT020TCU 21/14 Q1022 NOSIG RMK TCUSW/NW A3019
SKRH,2022-10-31T19:00:00Z,SKRH 311900Z 28008KT 9999 FEW015 BKN200 30/24 Q1008 RMK A2978
SKSM,2022-10-31T19:00:00Z,SKSM 311900Z 31008KT 9999 FEW017TCU SCT200 33/25 Q1009 RMK TCUE A2983
SKSP,2022-10-31T19:00:00Z,SKSP 311900Z 30006KT 260V350 9999 FEW018 SCT090 29/24 Q1008 RMK A2979
SKUC,2022-10-31T19:00:00Z,SKUC 311900Z 02003KT 9999 SCT020 30/25 Q1008 RMK A2978
SKUI,2022-10-31T19:00:00Z,SKUI 311900Z 00000KT 9999 BKN030 30/23 Q1007 RMK A2975
SKVP,2022-10-31T19:00:00Z,SKVP 311900Z 24005KT 170V260 9999 FEW015 SCT200 32/18 Q1010 RMK A2984
SKVV,2022-10-31T19:00:00Z,SKVV 311900Z 08007KT 9999 BKN020 30/22 Q1009 RMK A2982
SLAL,2022-10-31T19:00:00Z,SLAL 311900Z 03013KT 9999 BKN020 SCT200 14/08 Q1025
SLCA,2022-10-31T19:00:00Z,SLCA 311900Z 18010KT 8000 OVC070 17/M01 Q1025
SLCB,2022-10-31T19:00:00Z,SLCB 311900Z 01015KT 330V110 9999 FEW033 FEW036CB SCT200 27/04 Q1014
SLCO,2022-10-31T19:08:00Z,SLCO 311908Z 31008KT 6000 -TSRA FEW025 FEW027CB SCT200 27/25 Q1006
SLCP,2022-10-31T19:00:00Z,SLCP 311900Z 18025G35KT 9999 OVC015 14/08 Q1020
SLET,2022-10-31T19:00:00Z,SLET 311900Z 16016G28KT 6000 -RA BKN025 OVC070 13/08 Q1017
SLJE,2022-10-31T19:00:00Z,SLJE 311900Z 18015KT 9999 OVC015 14/09 Q1022
SLLP,2022-10-31T19:00:00Z,SLLP 311900Z 28013G23KT 240V320 9999 FEW020 19/M02 Q1031
SLMG,2022-10-31T19:00:00Z,SLMG 311900Z 14015KT 8000 VCSH BKN008 FEW020CB OVC070 19/17 Q1007
SLOR,2022-10-31T19:00:00Z,SLOR 311900Z 27012KT 240V300 9999 FEW023 FEW025CB 22/M03 Q1029
SLPS,2022-10-31T19:00:00Z,SLPS 311900Z 24008KT 6000 BKN012 BKN070 17/14 Q1021
SLRB,2022-10-31T19:00:00Z,SLRB 311900Z 00000KT 5000 -DZ OVC006 12/11 Q1023
SLRI,2022-10-31T19:00:00Z,SLRI 311900Z 34007KT 8000 VCSH SCT017 FEW020CB 35/23 Q1007
SLRQ,2022-10-31T19:00:00Z,SLRQ 311900Z 14008KT 8000 VCSH BKN017 FEW020CB BKN200 30/26 Q1006
SLRY,2022-10-31T19:00:00Z,SLRY 311900Z 16006KT 7000 VCSH BKN015 FEW023CB OVC070 29/25 Q1008
SLSA,2022-10-31T19:00:00Z,SLSA 311900Z 18015G25KT 6000 TS VCSH BKN007 FEW020CB OVC070 16/15 Q1010
SLSV,2022-10-31T19:00:00Z,SLSV 311900Z 18020G30KT 9999 SCT015 OVC070 16/11 Q1015
SLTJ,2022-10-31T19:00:00Z,SLTJ 311900Z 16006KT 9999 BKN027 OVC070 07/M02 Q1027
SLTR,2022-10-31T19:00:00Z,SLTR 311900Z 13020G31KT 6000 -TSRA BKN007 FEW020CB OVC070 15/13 Q1014
SLVR,2022-10-31T19:00:00Z,SLVR 311900Z 18022G34KT 5000 -RA BKN025 OVC070 13/07 Q1018
SLYA,2022-10-31T19:00:00Z,SLYA 311900Z 22015KT 9999 OVC070 18/02 Q1024
SMJP,2022-10-31T19:00:00Z,SMJP 311900Z 08004KT 9999 SCT010 SCT015CB 28/25 Q1009 NOSIG
SMZO,2022-10-31T19:00:00Z,SMZO 311900Z 14005KT 9999 -SHRA FEW015CB 28/25 Q1009 NOSIG
SOCA,2022-10-31T19:30:00Z,SOCA 311930Z AUTO 07012KT 9999 BKN019 BKN026 BKN036 30/25 Q1010 TEMPO 3000 SHRA SCT015 BKN020CB BECMG VRB02KT
SPCL,2022-10-31T19:00:00Z,SPCL 311900Z 33009KT 9999 BKN020 33/24 Q1006 RMK BIRD HAZARD RWY 02/20 PP000
SPEO,2022-10-31T19:00:00Z,SPEO 311900Z 19016KT 9999 FEW017 20/14 Q1013 RMK PP000
SPGM,2022-10-31T19:00:00Z,SPGM 311900Z 01002KT 9999 FEW030 32/21 Q1009 RMK PP000
SPHI,2022-10-31T19:00:00Z,SPHI 311900Z 19015KT 160V220 9999 FEW017 21/13 Q1012 RMK BIRD HAZARD RWY 19/01 PP000
SPHO,2022-10-31T19:00:00Z,SPHO 311900Z VRB07KT 9999 FEW050 28/M06 Q1019 RMK PP000
SPHY,2022-10-31T19:00:00Z,SPHY 311900Z /////KT CAVOK 19/06 Q1029 RMK BIRD HAZARD RWY03/21 PP000
SPJC,2022-10-31T19:00:00Z,SPJC 311900Z 24007KT 200V280 9999 OVC017 18/12 Q1014 NOSIG RMK BIRD HAZARDS RWY 16 PP000
SPJI,2022-10-31T19:00:00Z,SPJI 311900Z 22005KT 9999 SCT022 34/25 Q1014 RMK PP000
SPJL,2022-10-31T19:00:00Z,SPJL 311900Z 08005KT 360V170 CAVOK 21/M20 Q1028 RMK PP000
SPJR,2022-10-31T19:30:00Z,SPJR 311930Z 18008KT 9999 FEW027 24/00 Q1022
SPLO,2022-10-31T19:00:00Z,SPLO 311900Z 16010KT CAVOK 21/14 Q1014 RMK PP000
SPME,2022-10-31T19:00:00Z,SPME 311900Z 28004KT 9999 SCT020 27/21 Q1009 RMK BIRD HAZARD RWY 32/14 PP000
SPMS,2022-10-31T19:00:00Z,SPMS 311900Z 06006KT 9999 FEW020 33/25 Q1007 RMK BIRD HAZARD RWY 09/27 PP000
SPNC,2022-10-31T19:00:00Z,SPNC 311900Z 06015KT 9999 FEW040 30/13 Q1014 RMK PP000
SPPY,2022-10-31T19:00:00Z,SPPY 311900Z 32010KT 9999 FEW015 24/08 Q1023 RMK PP000
SPQT,2022-10-31T19:00:00Z,SPQT 311900Z 03005KT 280V080 9999 BKN020 34/24 Q1006 NOSIG RMK BIRD HAZARD RWY 06/24 PP000
SPQU,2022-10-31T19:00:00Z,SPQU 311900Z 26011KT 220V300 CAVOK 19/M04 Q1024 NOSIG RMK PP000
SPRU,2022-10-31T19:00:00Z,SPRU 311900Z 18013KT 9999 FEW050 18/13 Q1013 RMK PP000
SPSO,2022-10-31T19:00:00Z,SPSO 311900Z 29010KT 9999 FEW010 18/14 Q1013 RMK BIRD HAZARD RWY 22/04 PP000
SPST,2022-10-31T19:00:00Z,SPST 311900Z 03012KT 9999 SCT020 35/22 Q1005 RMK BIRD HAZARD RWY 17/35 PP000
SPTN,2022-10-31T19:00:00Z,SPTN 311900Z 23009KT 180V2620 9999 FEW028 21/11 Q1014 RMK PP000
SPTU,2022-10-31T19:00:00Z,SPTU 311900Z 29004KT 260V320 9999 SCT025 BKN100 29/24 Q1005 RMK BIRD HAZARD RWY 01/19 PP000
SPYL,2022-10-31T19:00:00Z,SPYL 311900Z 18019KT 5000 DU NSC 22/15 Q1010 RMK BIRD HAZARD RWY 17/35 PP000
SPZO,2022-10-31T19:30:00Z,SPZO 311930Z 01012KT 340V050 9999 SCT050 23/M04 Q1023 NOSIG RMK BIRD HAZARD RWY 10/28
SUAA,2022-10-31T19:00:00Z,SUAA 311900Z /////KT 9999 BKN030 14/04 Q1027
SUCA,2022-10-31T19:00:00Z,SUCA 311900Z 22014KT 9999 FEW020 17/01 Q1027
SULS,2022-10-31T19:00:00Z,SULS 311900Z 20015KT 9999 -SHRA BKN036 SCT060 14/03 Q1026
SUMU,2022-10-31T19:00:00Z,SUMU 311900Z 19014KT 9999 BKN033 14/04 Q1027 TEMPO 18018G28KT SHRA
SUSO,2022-10-31T19:00:00Z,SUSO 311900Z 22015KT 9999 BKN023 16/03 Q1026
SVBC,2022-10-31T19:00:00Z,SVBC 311900Z 00000KTS 5000 -TSRA BKN013CBS 25/// Q1009
SVCS,2022-10-31T19:00:00Z,SVCS 311900Z 06008KT 9999 SCT060 ///// Q1813
SVMI,2022-10-31T19:00:00Z,SVMI 311900Z 09006KT 9999 FEW016 SCT100 BKN300 31/25 Q1012
SVVA,2022-10-31T19:00:00Z,SVVA 311900Z /////KT 9999 SCT016 31/19 Q1010
SYCJ,2022-10-31T19:00:00Z,"SYCJ 311900Z 08014KT 9999 FEW022CB SCT024 32/24 Q1008 NOSIG RMK CB SE, W-N"
SYEC,2022-10-31T19:00:00Z,SYEC 311900Z 08010KT 9999 FEW018CB 30/24 Q1008 NOSIG RMK CB W-ESE
TAPA,2022-10-31T19:00:00Z,TAPA 311900Z 09008KT 040V140 9999 VCSH SCT020 28/24 Q1012 NOSIG
TBPB,2022-10-31T19:00:00Z,TBPB 311900Z 11016KT 9999 SCT018 30/25 Q1009 NOSIG
TDCF,2022-10-31T19:00:00Z,TDCF 311900Z 12007KT 9999 FEW019 FEW///CB 31/21 Q1010
TDPD,2022-10-31T19:00:00Z,TDPD 311900Z 13008KT 9999 BKN017 29/25 Q1012
TFFF,2022-10-31T19:30:00Z,TFFF 311930Z AUTO 11014KT 9999 FEW026 BKN033 30/24 Q1011
TFFR,2022-10-31T19:30:00Z,TFFR 311930Z AUTO 13011KT 100V160 CAVOK 30/24 Q1011
TGPY,2022-10-31T19:00:00Z,TGPY 311900Z 09016KT 9999 SCT018 30/26 Q1009 NOSIG
TIST,2022-10-31T18:53:00Z,TIST 311853Z 14008KT 10SM CLR 31/24 A2989 RMK AO2 SLP123 T03060239
TISX,2022-10-31T18:53:00Z,TISX 311853Z 10008KT 10SM FEW023 SCT035 30/23 A2990 RMK AO2 SLP125 T03000233 PNO
TJBQ,2022-10-31T18:50:00Z,TJBQ 311850Z 00000KT 10SM TS BKN032 BKN055 OVC090 27/24 A2992 RMK LTG DSNT E AND SE TSB42
TJIG,2022-10-31T18:45:00Z,TJIG 311845Z 10005KT 8SM SCT018 SCT030 BKN070 29/24 A2989
TJNR,2022-10-31T18:53:00Z,TJNR 311853Z AUTO 11008KT 10SM FEW025 29/24 A2991 RMK AO2 SLP129 T02940239
TJSJ,2022-10-31T18:56:00Z,TJSJ 311856Z 08008KT 10SM FEW023 SCT065 BKN085 29/25 A2990 RMK AO2 RAE06B25E50 SLP122 P0000 T02890250
TKPK,2022-10-31T19:00:00Z,TKPK 311900Z 06005KT 9999 FEW018 SCT038 29/25 Q1012
TLPC,2022-10-31T19:00:00Z,TLPC 311900Z 10011KT 9999 FEW027 30/25 Q1911 NOSIG
TLPL,2022-10-31T19:00:00Z,TLPL 311900Z 10017KT 9999 FEW028 30/25 Q1010 NOSIG
TNCA,2022-10-31T19:00:00Z,TNCA 311900Z 11013KT 9999 BKN018 29/24 Q1009 NOSIG
TNCB,2022-10-31T18:55:00Z,TNCB 311855Z 09009KT 9999 SCT016 SCT025 27/26 Q1009
TNCC,2022-10-31T19:00:00Z,TNCC 311900Z 12014KT 4000 SHRA SCT012CB SCT030 24/23 Q1009 BECMG 10010KT 9999 NSW FEW012CB BKN014
TNCE,2022-10-31T18:55:00Z,TNCE 311855Z AUTO 09010KT 050V140 //// // ///////// 30/25 Q1012 RE//
TNCM,2022-10-31T19:00:00Z,TNCM 311900Z 12009KT 9999 FEW018 SCT040 30/24 Q1014 NOSIG 
TQPF,2022-10-31T19:00:00Z,TQPF 311900Z 13010KT 9999 FEW018 SCT038 29/24 Q1013
TRPG,2022-10-31T19:00:00Z,TRPG 311900Z 09014KT 9999 FEW015 29/25 Q1015
TTCP,2022-10-31T19:00:00Z,TTCP 311900Z 11008KT 9999 FEW022 30/25 Q1009 NOSIG
TTPP,2022-10-31T19:00:00Z,TTPP 311900Z 10008KT 9999 SCT024 31/24 Q1009 NOSIG
TUPJ,2022-10-31T19:00:00Z,TUPJ 311900Z 12004KT 10SM FEW019 29/26 A2991 RMK Q1012 VIS16KM
TVSA,2022-10-31T19:00:00Z,TVSA 311900Z 07010KT 9999 SCT020 29/25 Q1010 NOSIG 
TXKF,2022-10-31T18:55:00Z,TXKF 311855Z 34015G25KT 9999 FEW028 26/20 Q1012 
UAAA,2022-10-31T19:30:00Z,UAAA 311930Z 15002MPS 3900 BR FEW100 03/01 Q1024 NOSIG
UACC,2022-10-31T19:30:00Z,UACC 311930Z 19003MPS CAVOK M01/M02 Q1021 NOSIG RMK QFE735/0980
UADD,2022-10-31T19:30:00Z,UADD 311930Z 16002MPS 5000 BR NSC 03/02 Q1021 NOSIG RMK QFE709/0945
UAII,2022-10-31T19:33:00Z,UAII 311933Z 00000MPS 2900 BR NSC 06/04 Q1020 NOSIG RMK QFE727/0970
UAIT,2022-10-31T19:30:00Z,UAIT 311930Z 07005MPS CAVOK 05/03 Q1021 NOSIG RMK QFE741/0988
UAKK,2022-10-31T19:30:00Z,UAKK 311930Z 21004MPS 9999 BKN033 02/01 Q1023 NOSIG RMK QFE720/0960
UAOO,2022-10-31T19:00:00Z,UAOO 311900Z 12003MPS CAVOK 02/M01 Q1020 NOSIG RMK QFE753/1004
UARR,2022-10-31T19:00:00Z,UARR 311900Z 35004MPS 9999 OVC031CB 02/01 Q1000 NOSIG RMK QFE746/0995
UASK,2022-10-31T19:00:00Z,UASK 311900Z 32001MPS 9999 SCT011 OVC023CB 03/02 Q1026 NOSIG RMK QFE744/0992
UASP,2022-10-31T19:30:00Z,UASP 311930Z 20001MPS CAVOK M01/M02 Q1024 NOSIG RMK QFE757/1009
UATE,2022-10-31T19:30:00Z,UATE 311930Z 21002MPS 180V240 8000 NSC 12/11 Q1007 NOSIG RMK QFE754/1005
UATG,2022-10-31T19:30:00Z,UATG 311930Z 23009MPS 5000 -SHRA BR SCT008 OVC033CB 10/09 Q1002 NOSIG RMK QFE754/1005
UATT,2022-10-31T19:30:00Z,UATT 311930Z 20008MPS 9999 BKN016 09/08 Q1002 NOSIG RMK QFE732/0976
UAUU,2022-10-31T19:30:00Z,UAUU 311930Z 14007MPS 9999 BKN003 OVC040 02/01 Q1009 NOSIG RMK QBB090 QFE740/0987
UBBB,2022-10-31T19:30:00Z,UBBB 311930Z 14006KT CAVOK 12/11 Q1007 NOSIG
UBBF,2022-10-31T19:30:00Z,UBBF 311930Z AUTO 30010KT 9999 // ///////// 12/03 Q1009
UBBG,2022-10-31T19:30:00Z,UBBG 311930Z 28016KT 9999 SCT100 15/01 Q1011 NOSIG
UBBL,2022-10-31T19:00:00Z,UBBL 311900Z 00000KT 5000 BR NSC 11/11 Q1009 NOSIG RMK MT OP
UBBN,2022-10-31T19:30:00Z,UBBN 311930Z 01008KT 9999 FEW046 SCT100 10/02 Q1011 NOSIG RMK MT OP QFE684
UBBQ,2022-10-31T19:00:00Z,UBBQ 311900Z 00000KT 9999 NSC 08/02 Q1009 NOSIG RMK MT OP
UBBY,2022-10-31T19:00:00Z,UBBY 311900Z 32012KT 9999 BKN100 16/02 Q1013 NOSIG RMK MT OP
UBBZ,2022-10-31T19:30:00Z,UBBZ 311930Z AUTO 00000KT 9999 // ///////// 14/07 Q1011
UBEE,2022-10-31T19:00:00Z,UBEE 311900Z 31015KT CAVOK 17/02 Q1009 NOSIG
UCFL,2022-10-31T19:00:00Z,UCFL 311900Z 03004MPS 9999 SCT026CB 04/M04 Q1023 R07/CLRD95
UCFM,2022-10-31T19:30:00Z,UCFM 311930Z 09003MPS 2200 BR NSC 03/03 Q1022 R08/0///95 NOSIG
UCFO,2022-10-31T19:30:00Z,UCFO 311930Z 18002MPS 150V220 4500 BR NSC 06/04 Q1022 R12/0///95 NOSIG
UDSG,2022-10-31T19:30:00Z,UDSG 311930Z 23006KT 9999 FEW049 08/M02 Q1015 R02/////// NOSIG
UDYZ,2022-10-31T19:30:00Z,UDYZ 311930Z VRB02KT 9999 NSC 10/00 Q1012 R09/010070 NOSIG
UEEE,2022-10-31T19:30:00Z,UEEE 311930Z 32003MPS 9999 SCT024 M15/M18 Q1019 R23L/450155 NOSIG RMK QFE755
UERP,2022-10-31T19:00:00Z,UERP 311900Z 19003MPS CAVOK M16/M17 Q1016 R35/890235 RMK QFE718
UERR,2022-10-31T19:00:00Z,UERR 311900Z 30003MPS 9999 SCT020CB M10/M14 Q1022 R25/490340 NOSIG RMK QFE735/0980
UGAM,2022-10-31T19:30:00Z,UGAM 311930Z AUTO VRB02KT //// ////// 07/07 Q1016
UGKO,2022-10-31T19:30:00Z,UGKO 311930Z AUTO 36006KT 9999 -RA FEW022/// SCT028/// BKN170/// 11/10 Q1016 NOSIG
UGMS,2022-10-31T19:30:00Z,UGMS 311930Z AUTO VRB02KT //// ////// 01/01 Q1017
UGSB,2022-10-31T19:30:00Z,UGSB 311930Z 24013G23KT 7000 -SHRA SCT014 BKN025CB 14/13 Q1018 NOSIG
UGTB,2022-10-31T19:30:00Z,UGTB 311930Z 31019KT CAVOK 13/04 Q1012 NOSIG
UHBB,2022-10-31T19:00:00Z,UHBB 311900Z 20004MPS 9999 SCT033CB 00/M03 Q1005 R36/290250 NOSIG RMK QFE736/0981
UHHH,2022-10-31T19:30:00Z,UHHH 311930Z 15004MPS 9999 SCT040CB 04/02 Q1016 R23R/290045 NOSIG RMK QFE756/1008
UHMA,2022-10-31T19:00:00Z,UHMA 311900Z 35006MPS 9000 -SN FEW004 SCT020 M19/M21 Q1017 R01/////// NOSIG RMK TDZ R01/35006G08MPS END R01/34005G07MPS QBB130 QFE759/1012
UHMM,2022-10-31T19:00:00Z,UHMM 311900Z 00000MPS 9999 NSC M27/M30 Q1026 RMK QFE754 R28/09003MPS
UHPP,2022-10-31T19:30:00Z,UHPP 311930Z 01002MPS CAVOK M06/M12 Q1023 R34L/110065 NOSIG RMK QFE764/1018
UHSS,2022-10-31T19:30:00Z,UHSS 311930Z 19001MPS 9999 BKN012 06/05 Q1024 R01/70D NOSIG RMK MT OBSC QFE767/1023
UHWW,2022-10-31T19:30:00Z,UHWW 311930Z 34002MPS 9999 -SHRA SCT006 BKN023CB 09/09 Q1019 R25L/290060 NOSIG RMK QFE763
UIAA,2022-10-31T19:30:00Z,UIAA 311930Z 29004MPS 9999 NSC M11/M15 Q1020 R29/490160 NOSIG RMK QFE706/0942
UIBB,2022-10-31T19:30:00Z,UIBB 311930Z AUTO 08002MPS 9999 // NCD M11/M15 Q1027 RMK QFE727/0969
UIII,2022-10-31T19:30:00Z,UIII 311930Z 09002MPS CAVOK M13/M15 Q1026 R12/CLRD60 NOSIG RMK QFE727/0970
UIUU,2022-10-31T19:30:00Z,UIUU 311930Z VRB01MPS 9999 FEW040 M13/M15 Q1025 R26/CLRD60 NOSIG RMK QFE725/0966
ULAA,2022-10-31T19:30:00Z,ULAA 311930Z 00000MPS 9999 FEW026 00/M00 Q1010 R26/190065 NOSIG RMK QFE756/1008
ULLI,2022-10-31T19:30:00Z,ULLI 311930Z 24001MPS CAVOK 00/M03 Q1018 R28L/090060 NOSIG
ULMM,2022-10-31T19:30:00Z,ULMM 311930Z 00000MPS 9999 BKN021 M00/M00 Q1010 R31/690153 NOSIG RMK QFE750
ULOO,2022-10-31T19:30:00Z,ULOO 311930Z 15001MPS 5000 BR NSC M01/M01 Q1020 R01/090060 NOSIG RMK QFE760
ULPB,2022-10-31T19:00:00Z,ULPB 311900Z AUTO 17002MPS 9999 // NCD M02/M04 Q1015 RMK QFE757/1010
ULWC,2022-10-31T19:30:00Z,ULWC 311930Z 32004MPS 9000 -SHSNRA BKN010 OVC020CB 00/M01 Q1012 R21/690150 NOSIG RMK QFE749/0999
UMGG,2022-10-31T19:00:00Z,UMGG 311900Z 28005MPS CAVOK 01/M03 Q1020 NOSIG
UMII,2022-10-31T19:00:00Z,UMII 311900Z 30003MPS CAVOK 02/M02 Q1019 NOSIG
UMIO,2022-10-31T19:30:00Z,UMIO 311930Z 31002MPS CAVOK 01/M03 Q1020 NOSIG RMK QFE747/0996
UMKK,2022-10-31T19:30:00Z,UMKK 311930Z 15002MPS 120V190 9000 BKN009 OVC013 11/11 Q1020 R24/95D NOSIG RMK QFE764/1018
UMMS,2022-10-31T19:30:00Z,UMMS 311930Z 32003MPS CAVOK 01/M01 Q1021 NOSIG
UNAA,2022-10-31T19:30:00Z,UNAA 311930Z 00000MPS 8000 NSC M05/M07 Q1024 R02/150060 NOSIG RMK QFE745
UNBB,2022-10-31T19:30:00Z,UNBB 311930Z 27006MPS 2300 R24/P2000N BR SCT003 BKN017CB M00/M01 Q1022 R24/290245 NOSIG RMK QFE744
UNEE,2022-10-31T19:30:00Z,UNEE 311930Z 18002MPS 9999 OVC009 M00/M01 Q1021 R23/120155 NOSIG RMK QFE742
UNKL,2022-10-31T19:30:00Z,UNKL 311930Z 00000MPS CAVOK M12/M13 Q1024 R29/CLRD65 NOSIG RMK QFE742
UNNT,2022-10-31T19:30:00Z,UNNT 311930Z 27002MPS CAVOK M07/M08 Q1023 R07/150060 R16/150060 NOSIG RMK QFE757/1009
UNOO,2022-10-31T19:30:00Z,UNOO 311930Z 15002MPS 8000 NSC M06/M06 Q1020 R25/190055 NOSIG RMK QFE757
UNTT,2022-10-31T19:30:00Z,UNTT 311930Z 00000MPS CAVOK M07/M07 Q1021 R21/////// NOSIG RMK QFE751
UNWW,2022-10-31T19:30:00Z,UNWW 311930Z 16002MPS 9999 BKN012 OVC023CB 00/00 Q1022 R19/290250 NOSIG RMK QFE739
UOOO,2022-10-31T19:00:00Z,UOOO 311900Z 21013MPS 9000 -SN BLSN OVC012 M04/M05 Q1010 R19/410530 NOSIG RMK QFE741/0989
URKA,2022-10-31T19:30:00Z,URKA 311930Z 02003MPS 9999 SCT041 07/03 Q1018 R04/010070 NOSIG RMK QFE760/1013
URKK,2022-10-31T19:30:00Z,URKK 311930Z 33004MPS 300V020 9999 SCT/// 06/01 Q1018 R23L/290060 NOSIG RMK QFE760
URMG,2022-10-31T19:30:00Z,URMG 311930Z 35008MPS 9999 BKN048 12/09 Q1010 R08/090070 NOSIG RMK QFE743/0990
URML,2022-10-31T19:30:00Z,URML 311930Z 27005MPS 9999 NSC 12/06 Q1008 R14/01//70 NOSIG RMK QFE756/1008
URMM,2022-10-31T19:30:00Z,URMM 311930Z 32006MPS 9999 OVC015CB 05/02 Q1014 WS R30 R30/290250 NOSIG RMK MT OBSC QFE732/0977
URMN,2022-10-31T19:00:00Z,URMN 311900Z 25002MPS 9999 SCT025CB OVC071 10/05 Q1010 R24/////// TEMPO 34008G15MPS RMK QFE721
URMO,2022-10-31T19:30:00Z,URMO 311930Z 00000MPS 9999 SCT034 07/05 Q1011 R09/010070 NOSIG RMK QFE715/0954
URMT,2022-10-31T19:30:00Z,URMT 311930Z 33007MPS 9999 SCT013 BKN028CB 03/01 Q1013 R25/290155 NOSIG RMK QFE721
URRP,2022-10-31T19:30:00Z,URRP 311930Z 31005MPS CAVOK 02/M02 Q1015 R05/CLRD70 NOSIG RMK QFE757/1009
URSS,2022-10-31T19:30:00Z,URSS 311930Z 05003MPS 030V100 9999 -SHRA OVC040CB 12/11 Q1015 WS ALL RWY R02/210260 R06/210260 NOSIG RMK R06/09003MPS MT OBSC QFE760
URWA,2022-10-31T19:30:00Z,URWA 311930Z 28010MPS 9999 BKN012CB 08/06 Q1005 R27/290055 NOSIG RMK QFE756/1008
URWI,2022-10-31T19:30:00Z,URWI 311930Z AUTO 30009MPS 9999 // ///064/// 03/M02 Q1010
URWW,2022-10-31T19:30:00Z,URWW 311930Z 29006MPS CAVOK M00/M02 Q1007 R24/290051 TEMPO OVC004
USCC,2022-10-31T19:30:00Z,USCC 311930Z 14005MPS 2000 R09/P2000D BR FU VV001 02/02 Q1003 R09/290045 NOSIG RMK QBB050 QFE732
USCM,2022-10-31T19:30:00Z,USCM 311930Z 16009MPS 2800 -DZ BR VV002 06/06 Q0999 R18/290155 TEMPO 15016MPS 0300 DZ FG RMK QBB060 QFE712
USDA,2022-10-31T19:30:00Z,USDA 311930Z AUTO 20010MPS 8000 ///018/// M03/M04 Q0997 RMK QFE747/0996
USHH,2022-10-31T19:30:00Z,USHH 311930Z 16004G09MPS 9999 -SHSN BKN008CB M02/M02 Q1008 R06/490537 TEMPO 0500 +SHSN BKN003 OVC010CB
USNN,2022-10-31T19:30:00Z,USNN 311930Z 17005MPS CAVOK M05/M06 Q1016 R21/0///65 NOSIG RMK QFE757
USPP,2022-10-31T19:30:00Z,USPP 311930Z 25006MPS 9999 -RASN SCT007 OVC014 02/00 Q0998 R21/290250 TEMPO 30005G11MPS RMK QFE738
USRR,2022-10-31T19:30:00Z,USRR 311930Z 17004MPS 130V210 CAVOK M02/M05 Q1011 R07/CLRD60 NOSIG RMK QFE754
USSS,2022-10-31T19:30:00Z,USSS 311930Z 14005MPS 7000 OVC002 03/03 Q1001 R08R/290050 R08L/590232 TEMPO 3100 BR VV002 RMK QFE731/0975
USTR,2022-10-31T19:30:00Z,USTR 311930Z 18005MPS 9999 -DZ OVC007 02/01 Q1007 R21/CLRD65 R12/CLRD65 TEMPO BKN003 BKN016CB
UTAA,2022-10-31T19:00:00Z,UTAA 311900Z 00000KT 6000 NSC 12/11 Q1011 R88/70D NOSIG
UTAK,2022-10-31T19:00:00Z,UTAK 311900Z 17008KT CAVOK 16/11 Q1009 R16R/CLRD70 NOSIG
UTAM,2022-10-31T19:00:00Z,UTAM 311900Z 11006KT 6000 NSC 14/06 Q1015 R88/CLRD70 NOSIG
UTAT,2022-10-31T19:00:00Z,UTAT 311900Z 13008KT 9999 BKN050 13/07 Q1014 R08/CLRD70 NOSIG
UTAV,2022-10-31T19:00:00Z,UTAV 311900Z 11012KT CAVOK 13/02 Q1016 R13/CLRD70 NOSIG
UTDD,2022-10-31T19:30:00Z,UTDD 311930Z 01001MPS 9999 NSC 11/08 Q1021 R09/D NOSIG RMK QFE697/0929
UTDK,2022-10-31T19:30:00Z,UTDK 311930Z 05002MPS 9999 NSC 13/09 Q1020 R01/09//70 RMK QFE707/0943
UTDL,2022-10-31T19:30:00Z,UTDL 311930Z 07008MPS 9999 NSC 12/09 Q1021 R08/CLRD70 NOSIG RMK QFE726/0969
UTDT,2022-10-31T19:30:00Z,UTDT 311930Z 18001MPS 5000 BR FEW130 11/10 Q1018 R35/////// RMK QFE724/0965
UTFF,2022-10-31T19:30:00Z,UTFF 311930Z VRB02KT 5000 BR NSC 08/06 Q1023 R18/CLRD70
UTFN,2022-10-31T19:30:00Z,UTFN 311930Z 32006KT 9000 NSC 10/04 Q1022 R28/CLRD70 NOSIG
UTNN,2022-10-31T19:30:00Z,UTNN 311930Z 12010KT CAVOK 13/06 Q1014 R33/CLRD60 NOSIG
UTNU,2022-10-31T19:30:00Z,UTNU 311930Z 12010KT CAVOK 11/06 Q1015 R13/CLRD70 NOSIG
UTSA,2022-10-31T19:30:00Z,UTSA 311930Z 10008KT 6000 NSC 10/06 Q1018 R07/CLRD70 NOSIG
UTSB,2022-10-31T19:30:00Z,UTSB 311930Z 08004KT CAVOK 08/03 Q1017 R01/CLRD70 NOSIG
UTSK,2022-10-31T19:30:00Z,UTSK 311930Z 09002KT CAVOK 12/04 Q1018 R16/CLRD70
UTSS,2022-10-31T19:30:00Z,UTSS 311930Z 12006KT 9999 NSC 08/06 Q1018 R09/CLRD70 NOSIG
UTST,2022-10-31T19:30:00Z,UTST 311930Z 02006KT CAVOK 13/10 Q1018 R25/CLRD70 NOSIG
UTTT,2022-10-31T19:30:00Z,UTTT 311930Z VRB02KT 4000 BR NSC 10/07 Q1020 R08L/CLRD70 NOSIG
UUBC,2022-10-31T19:30:00Z,UUBC 311930Z AUTO 34007MPS 9999 // ///020/// 02/M01 Q1013 RMK QFE743/0990
UUBP,2022-10-31T19:30:00Z,UUBP 311930Z AUTO 30005MPS 9999 NCD 01/M03 Q1016 RMK QFE743/0991
UUBW,2022-10-31T19:30:00Z,UUBW 311930Z 31008MPS 9999 BKN017 02/M01 Q1010 R30/010060 NOSIG
UUDD,2022-10-31T19:30:00Z,UUDD 311930Z 33010MPS 9999 BKN017 02/M02 Q1010 R32L/190050 NOSIG
UUDL,2022-10-31T19:30:00Z,UUDL 311930Z 33005MPS 9999 OVC011 02/01 Q1008 R23/290245 NOSIG RMK QFE747
UUEE,2022-10-31T19:30:00Z,UUEE 311930Z 31007MPS 9999 OVC013 01/M02 Q1011 R24L/150051 R24C/150051 NOSIG
UUMO,2022-10-31T19:30:00Z,UUMO 311930Z 34006MPS 9999 BKN018 02/M01 Q1011 R25/CLRD60 NOSIG RMK QFE743/0991
UUOB,2022-10-31T19:30:00Z,UUOB 311930Z 31004MPS CAVOK 00/M03 Q1015 R29/010070 NOSIG
UUOK,2022-10-31T19:30:00Z,UUOK 311930Z AUTO 31006MPS 9999 // ///////// 00/M03 Q1014 RMK QFE742/0989
UUOL,2022-10-31T19:30:00Z,UUOL 311930Z 31008MPS 9999 BKN020 01/00 Q1008 R15/290150 NOSIG
UUOO,2022-10-31T19:30:00Z,UUOO 311930Z 31008G13MPS 9999 -SN OVC017 02/M01 Q1010 R30/010070 NOSIG RMK QFE744
UUWW,2022-10-31T19:30:00Z,UUWW 311930Z 33007MPS 9999 BKN016 01/M02 Q1011 R24/190045 NOSIG
UUYY,2022-10-31T19:30:00Z,UUYY 311930Z 01003MPS 9999 BKN006 BKN020CB 02/01 Q1000 R36/29//51 NOSIG RMK QFE741/0988
UWGG,2022-10-31T19:30:00Z,UWGG 311930Z 33004MPS 9999 -SN OVC007 01/01 Q1001 R36R/290050 NOSIG
UWKD,2022-10-31T19:30:00Z,UWKD 311930Z 26003MPS 9999 OVC030 00/M01 Q0999 R29/250055 NOSIG RMK QFE738/0984
UWKE,2022-10-31T19:30:00Z,UWKE 311930Z 21003MPS 9999 OVC018 M00/M01 Q0999 R21/090070 NOSIG RMK QFE733/0977
UWKS,2022-10-31T19:30:00Z,UWKS 311930Z 24004MPS 9999 OVC020CB M00/M01 Q0998 R24/690348 NOSIG RMK QFE735
UWLL,2022-10-31T19:30:00Z,UWLL 311930Z 27003MPS CAVOK 01/M02 Q1000 R20/090065 NOSIG RMK QFE740/0987
UWLW,2022-10-31T19:00:00Z,UWLW 311900Z 27003MPS 9999 OVC026 02/M02 Q1000 R20/CLRD60 NOSIG RMK QFE745/0993
UWOO,2022-10-31T19:30:00Z,UWOO 311930Z 29003MPS 9999 -RA OVC012 06/05 Q0998 R26/290356 NOSIG RMK QFE738/0985
UWOR,2022-10-31T19:00:00Z,UWOR 311900Z 18008MPS 8000 -RA OVC006 08/08 Q1003 R25/290155 NOSIG RMK QBB190 QFE729/0972
UWPS,2022-10-31T19:30:00Z,UWPS 311930Z 27004MPS 9999 BKN018 00/M02 Q1001 R20/CLRD60 NOSIG RMK QFE733
UWSG,2022-10-31T19:30:00Z,UWSG 311930Z 28004MPS CAVOK M01/M02 Q1003 R26/CLRD70 NOSIG RMK QFE749/0999
UWUU,2022-10-31T19:30:00Z,UWUU 311930Z 31002MPS 9999 -RA OVC014 01/01 Q0999 R32L/290344 NOSIG
UWWW,2022-10-31T19:30:00Z,UWWW 311930Z 28002MPS 9999 SCT033 01/M03 Q1000 R33/CLRD60 NOSIG RMK QFE740/0986
VAAH,2022-10-31T19:30:00Z,VAAH 311930Z 00000KT 4000 HZ NSC 21/16 Q1013 NOSIG
VABB,2022-10-31T19:30:00Z,VABB 311930Z 09003KT 3500 FU NSC 25/15 Q1011 NOSIG
VAID,2022-10-31T18:30:00Z,VAID 311830Z 00000KT 4000 HZ NSC 18/10 Q1017 NOSIG
VANP,2022-10-31T19:30:00Z,VANP 311930Z 00000KT 3000 HZ NSC 20/17 Q1015 NOSIG
VCBI,2022-10-31T19:10:00Z,VCBI 311910Z VRB01KT 9999 SCT016 25/24 Q1010 NOSIG
VDPP,2022-10-31T19:30:00Z,VDPP 311930Z 35002KT 9000 FEW017 26/22 Q1008
VEBS,2022-10-31T19:30:00Z,VEBS 311930Z 32001KT 3000 HZ FEW020 22/22 Q1013 NOSIG
VECC,2022-10-31T19:30:00Z,VECC 311930Z 31003KT 3200 HZ NSC 25/20 Q1012 NOSIG
VEGT,2022-10-31T19:00:00Z,VEGT 311900Z 00000KT 3000 BR FEW020 22/22 Q1013 NOSIG
VEGY,2022-10-31T19:00:00Z,VEGY 311900Z 00000KT 2000 BR NSC 20/17 Q1015
VEPT,2022-10-31T19:30:00Z,VEPT 311930Z 27003KT 2500 BR FEW100 24/20 Q1012 NOSIG
VERC,2022-10-31T19:00:00Z,VERC 311900Z 00000KT 3000 HZ NSC 19/16 Q1016 NOSIG
VGHS,2022-10-31T19:30:00Z,VGHS 311930Z 33004KT 3500 HZ NSC 28/22 Q1012 NOSIG
VHHH,2022-10-31T19:30:00Z,VHHH 311930Z 01018KT 9999 FEW030 24/12 Q1007 NOSIG
VIAR,2022-10-31T19:00:00Z,VIAR 311900Z 08005KT 1200 R34/2000 BR FEW030 SCT100 22/19 Q1014 NOSIG
VIDP,2022-10-31T19:30:00Z,VIDP 311930Z 00000KT 1500 R28/P2000 R29/P2000 BR NSC 22/19 Q1015 NOSIG
VIJP,2022-10-31T19:30:00Z,VIJP 311930Z VRB02KT 2500 FU NSC 21/14 Q1016 NOSIG
VILK,2022-10-31T19:30:00Z,VILK 311930Z 00000KT 2500 BR NSC 20/19 Q1013 NOSIG
VMMC,2022-10-31T19:30:00Z,VMMC 311930Z 36023KT 9999 FEW045 24/16 Q1006 NOSIG
VNKT,2022-10-31T19:30:00Z,VNKT 311930Z 00000KT 7000 FEW015 14/12 Q1021 NOSIG
VOBL,2022-10-31T19:30:00Z,VOBL 311930Z 35005KT 5000 BR FEW012 SCT080 19/17 Q1016 NOSIG
VOCB,2022-10-31T19:00:00Z,VOCB 311900Z 00000KT 4000 BR FEW012 SCT080 25/21 Q1013 NOSIG
VOCI,2022-10-31T19:30:00Z,VOCI 311930Z 00000KT 3000 BR SCT012 BKN080 24/24 Q1011 NOSIG
VOCL,2022-10-31T19:30:00Z,VOCL 311930Z 15004KT 4000 BR FEW012 FEW025CB BKN080 23/22 Q1010 NOSIG
VOGO,2022-10-31T18:30:00Z,VOGO 311830Z 08004KT 6000 NSC 25/22 Q1011 NOSIG
VOHS,2022-10-31T19:30:00Z,VOHS 311930Z 09005KT 5000 BR FEW020 19/18 Q1015 NOSIG
VOKN,2022-10-31T19:00:00Z,VOKN 311900Z 09004KT 3500 BR SCT012 BKN080 27/25 Q1010 TEMPO 3000 BR
VOMD,2022-10-31T19:00:00Z,VOMD 311900Z 06002KT 4000 BR NSC 25/22 Q1011 NOSIG
VOML,2022-10-31T19:00:00Z,VOML 311900Z 00000KT 6000 NSC 26/23 Q1010 NOSIG
VOMM,2022-10-31T19:30:00Z,VOMM 311930Z 03004KT 2200 -TSRA SCT018 FEW025CB BKN080 25/24 Q1011 NOSIG
VOTR,2022-10-31T19:30:00Z,VOTR 311930Z VRB02KT 3000 HZ SCT016 BKN100 26/23 Q1010 NOSIG
VOTV,2022-10-31T19:30:00Z,VOTV 311930Z 00000KT 3000 BR SCT012 FEW025CB BKN080 25/24 Q1011 NOSIG
VOVZ,2022-10-31T19:00:00Z,VOVZ 311900Z VRB02KT 4500 BR NSC 26/22 Q1012 NOSIG
VRMG,2022-10-31T19:00:00Z,"VRMG 311900Z 28011KT 9000 SCT016 FEW017CB BKN110 26/25 Q1012 CB NE,S TEMPO 5000 SHRA"
VRMH,2022-10-31T19:00:00Z,VRMH 311900Z 24008KT 9999 FEW019 27/23 Q1012
VRMM,2022-10-31T19:00:00Z,VRMM 311900Z 23009KT 9999 FEW018TCU BKN280 28/25 Q1012 NOSIG
VTBD,2022-10-31T19:30:00Z,VTBD 311930Z 08003KT 9999 FEW020 26/21 Q1010 NOSIG
VTBS,2022-10-31T19:30:00Z,VTBS 311930Z 10004KT 8000 FEW020 26/21 Q1010 NOSIG
VTBU,2022-10-31T19:30:00Z,VTBU 311930Z 36006KT 4000 BR NSC 25/18 Q1010 NOSIG
VTCC,2022-10-31T19:30:00Z,VTCC 311930Z 07003KT 360V140 9999 FEW035 22/20 Q1013 NOSIG
VTCT,2022-10-31T19:00:00Z,VTCT 311900Z 00000KT 9999 FEW045 21/21 Q1014 NOSIG
VTSG,2022-10-31T19:00:00Z,VTSG 311900Z VRB01KT 5000 BR FEW020 OVC060 25/25 Q1010 NOSIG
VTSP,2022-10-31T19:30:00Z,VTSP 311930Z 00000KT 9999 FEW020 SCT100 25/25 Q1009 NOSIG
VTSS,2022-10-31T19:30:00Z,VTSS 311930Z 00000KT 9999 FEW020 BKN100 25/24 Q1009 NOSIG
VTUK,2022-10-31T19:00:00Z,VTUK 311900Z 11003KT 070V130 8000 NSC 23/18 Q1013 NOSIG
VTUU,2022-10-31T19:00:00Z,VTUU 311900Z 06005KT 9000 NSC 20/19 Q1012 NOSIG
VVCI,2022-10-31T19:30:00Z,VVCI 311930Z 31005KT CAVOK 21/14 Q1013 NOSIG
VVCR,2022-10-31T19:30:00Z,VVCR 311930Z 31003KT 8000 FEW015 23/21 Q1009 NOSIG
VVCT,2022-10-31T18:30:00Z,VVCT 311830Z VRB02KT 9999 FEW015 25/23 Q1008 NOSIG
VVDN,2022-10-31T19:30:00Z,VVDN 311930Z 30004KT 270V340 9999 FEW015 24/17 Q1011 NOSIG
VVNB,2022-10-31T19:30:00Z,VVNB 311930Z VRB01KT CAVOK 21/14 Q1015 NOSIG
VVPB,2022-10-31T19:30:00Z,VVPB 311930Z 28004KT 8000 FEW015 BKN060 23/19 Q1012 NOSIG
VVTS,2022-10-31T19:30:00Z,VVTS 311930Z 33004KT 9999 FEW020 26/24 Q1008 NOSIG
VYYY,2022-10-31T19:30:00Z,VYYY 311930Z 21003KT 7000 FEW016 27/24 Q1010 NOSIG
WAAA,2022-10-31T19:30:00Z,WAAA 311930Z 09002KT 8000 FEW019 25/24 Q1008 NOSIG
WABB,2022-10-31T19:30:00Z,WABB 311930Z VRB02KT 9999 FEW018 26/26 Q1008 NOSIG
WADD,2022-10-31T19:30:00Z,WADD 311930Z VRB01KT 9999 FEW017 25/23 Q1009 NOSIG
WADL,2022-10-31T19:30:00Z,WADL 311930Z 00000KT 7000 SCT016 24/23 Q1009 NOSIG
WAHS,2022-10-31T19:30:00Z,WAHS 311930Z AUTO 25001KT 7000 FEW055 25/23 Q1008
WAJJ,2022-10-31T19:30:00Z,WAJJ 311930Z 30004KT 9999 FEW012 24/22 Q1008 NOSIG
WALL,2022-10-31T19:30:00Z,WALL 311930Z 25004KT 9000 SCT018 27/24 Q1007 NOSIG
WAMM,2022-10-31T19:30:00Z,WAMM 311930Z VRB01KT 9999 SCT021 23/23 Q1007 NOSIG
WAOO,2022-10-31T19:30:00Z,WAOO 311930Z AUTO 29001KT 7000 NCD 25/25 Q1007
WAPP,2022-10-31T19:30:00Z,WAPP 311930Z 34005KT 9999 FEW018 25/24 Q1007 NOSIG
WAQQ,2022-10-31T18:30:00Z,WAQQ 311830Z 05004KT 6000 -TSRA FEW014CB BKN015 24/24 Q1008 NOSIG
WARR,2022-10-31T19:00:00Z,WARR 311900Z 34003KT 8000 FEW020 26/25 Q1008 NOSIG
WBGB,2022-10-31T19:00:00Z,WBGB 311900Z 20003KT 120V250 6000 -RA FEW002 SCT016 24/24 Q1010 RETSRA
WBGG,2022-10-31T19:30:00Z,WBGG 311930Z VRB02KT 9999 FEW020 25/24 Q1009 NOSIG
WBGR,2022-10-31T19:00:00Z,WBGR 311900Z VRB03KT 9999 SCT014 25/24 Q1009
WBGS,2022-10-31T19:00:00Z,WBGS 311900Z 32008KT 280V350 3000 +TSRA FEW005 FEW015CB SCT016 23/23 Q1010
WBGY,2022-10-31T19:00:00Z,WBGY 311900Z AUTO 00000KT //// // ////// 24/24 Q1009
WBKK,2022-10-31T19:30:00Z,WBKK 311930Z 19007KT 7000 -RA FEW013 SCT035 24/24 Q1008 RERA NOSIG
WBKL,2022-10-31T19:00:00Z,WBKL 311900Z VRB06KT 1000 +RA SCT007 BKN030 25/24 Q1009
WBKS,2022-10-31T19:00:00Z,WBKS 311900Z 24003KT 200V270 9999 FEW014 SCT035 25/24 Q1007
WBKT,2022-10-31T19:00:00Z,WBKT 311900Z 22003KT 9999 FEW009 SCT033 24/24 Q1007
WBKW,2022-10-31T19:00:00Z,WBKW 311900Z VRB03KT 7000 -RA FEW015 FEW016CB SCT027 24/23 Q1009 RETSRA
WBSB,2022-10-31T19:30:00Z,WBSB 311930Z 19005KT 8000 -RA FEW003 BKN150 24/24 Q1009 NOSIG
WIBB,2022-10-31T19:30:00Z,WIBB 311930Z AUTO 27002KT 9999 -RA SCT050 BKN070 BKN075 24/24 Q1007
WIDD,2022-10-31T19:30:00Z,WIDD 311930Z 00000KT 9999 FEW014 27/26 Q1010 NOSIG
WIII,2022-10-31T19:30:00Z,WIII 311930Z VRB03KT 9000 FEW022 25/23 Q1009 NOSIG
WIMM,2022-10-31T19:30:00Z,WIMM 311930Z 26007KT 230V290 4000 BR BKN017 24/24 Q1009 NOSIG
WIOO,2022-10-31T19:30:00Z,WIOO 311930Z AUTO VRB02KT 9999 FEW140 25/25 Q1008
WIPP,2022-10-31T19:00:00Z,WIPP 311900Z 14003KT 4000 HZ SCT010 25/24 Q1008
WMAU,2022-10-31T19:00:00Z,WMAU 311900Z 30004KT 230V330 8000 SCT025 27/25 Q1008
WMBA,2022-10-31T19:00:00Z,WMBA 311900Z 00000KT 9000 FEW031 25/24 Q1009
WMKA,2022-10-31T19:00:00Z,WMKA 311900Z VRB02KT 8000 FEW012 25/24 Q1009
WMKB,2022-10-31T19:00:00Z,WMKB 311900Z 07004KT 8000 FEW024 25/24 Q1009 NOSIG
WMKC,2022-10-31T19:00:00Z,WMKC 311900Z VRB02KT 9999 FEW020 24/24 Q1009
WMKD,2022-10-31T19:00:00Z,WMKD 311900Z 00000KT 8000 FEW005 FEW017CB 25/24 Q1008 NOSIG
WMKE,2022-10-31T19:00:00Z,WMKE 311900Z AUTO 00000KT //// // ////// 25/24 Q1008
WMKI,2022-10-31T19:00:00Z,WMKI 311900Z 04004KT 010V090 8000 FEW027 26/23 Q1009
WMKJ,2022-10-31T19:00:00Z,WMKJ 311900Z 00000KT 9999 FEW012 26/25 Q1008
WMKK,2022-10-31T19:30:00Z,WMKK 311930Z 00000KT 9999 SCT030 26/24 Q1009 NOSIG
WMKL,2022-10-31T19:00:00Z,WMKL 311900Z 07004KT 020V110 9999 FEW026 26/24 Q1009
WMKM,2022-10-31T19:00:00Z,WMKM 311900Z 02004KT 320V080 9999 FEW017CB 26/24 Q1009
WMKN,2022-10-31T19:00:00Z,WMKN 311900Z VRB02KT 9999 FEW020 25/24 Q1009
WMKP,2022-10-31T19:30:00Z,WMKP 311930Z 00000KT 7000 FEW025 26/25 Q1009 NOSIG
WMSA,2022-10-31T19:00:00Z,WMSA 311900Z 00000KT 9999 TS FEW017CB 26/25 Q1009
WSAP,2022-10-31T19:00:00Z,WSAP 311900Z 34003KT 9999 FEW018CB BKN150 27/24 Q1009
WSSL,2022-10-31T19:00:00Z,WSSL 311900Z 35003KT 310V020 CAVOK 27/25 Q1008
WSSS,2022-10-31T19:30:00Z,WSSS 311930Z 32005KT 280V340 9999 FEW018 BKN160 27/25 Q1008 NOSIG
YABA,2022-10-31T18:35:00Z,YABA 311835Z AUTO 21006KT 9999 // SCT008 BKN016 OVC022 11/11 Q1024
YAMB,2022-10-31T19:30:00Z,YAMB 311930Z AUTO 07004KT 9999 -RA SCT042 SCT061 BKN074 19/18 Q1001 RERA
YBAS,2022-10-31T19:30:00Z,YBAS 311930Z AUTO 24005KT 9999 // NCD 09/M01 Q1015 RF00.0/000.2
YBBN,2022-10-31T19:30:00Z,YBBN 311930Z 35007KT 9000 RA NSC 22/20 Q1002
YBCG,2022-10-31T19:30:00Z,YBCG 311930Z AUTO 33014KT 9999 -SHRA SCT059 SCT090 BKN115 21/18 Q1001 RESHRA
YBCS,2022-10-31T19:30:00Z,YBCS 311930Z AUTO 29002KT 9999 // BKN036 27/23 Q1007
YBHM,2022-10-31T19:30:00Z,YBHM 311930Z AUTO 34016KT //// // SCT020 BKN115 27/24 Q1006
YBLN,2022-10-31T19:30:00Z,YBLN 311930Z AUTO 21004KT 9999 // ////// 10/10 Q1025 RF00.0/000.0
YBMA,2022-10-31T19:30:00Z,YBMA 311930Z AUTO 17011KT 9999 // NCD 22/13 Q1010 RF00.0/000.6
YBRK,2022-10-31T19:30:00Z,YBRK 311930Z AUTO 05008KT 9999 // BKN105 24/21 Q1003 RF00.0/000.4 DL-SW/DL-W
YBRM,2022-10-31T19:30:00Z,YBRM 311930Z AUTO 13013KT 9999 // NCD 24/02 Q1011 RF00.0/000.0
YBTL,2022-10-31T19:30:00Z,YBTL 311930Z AUTO 36010KT 9999 // SCT017 BKN029 28/25 Q1006
YBWW,2022-10-31T19:30:00Z,YBWW 311930Z AUTO 34006KT 9999 // SCT017 BKN022 BKN069 18/17 Q1001
YCAS,2022-10-31T19:30:00Z,YCAS 311930Z AUTO 35019G31KT //// // ////// 22/18 Q0997
YCBP,2022-10-31T19:30:00Z,YCBP 311930Z AUTO 26032G42KT 9999 // SCT041 BKN053 13/07 Q1006
YCDU,2022-10-31T19:30:00Z,YCDU 311930Z AUTO 22026G36KT 9999 // BKN042 OVC049 12/05 Q1005
YCFS,2022-10-31T19:30:00Z,YCFS 311930Z AUTO 21009KT 2000 +RA SCT006 SCT018 BKN029 21/19 Q0996
YCIN,2022-10-31T19:30:00Z,YCIN 311930Z AUTO 14015KT 9999 // NCD 24/M04 Q1010 RF00.0/000.0
YEML,2022-10-31T19:30:00Z,YEML 311930Z AUTO 35008KT 9999 TS BKN026 BKN031 OVC048 25/23 Q1004
YESP,2022-10-31T19:30:00Z,YESP 311930Z AUTO 20016KT 6000 -SHRA BKN004 OVC008 13/12 Q1020
YFRT,2022-10-31T19:30:00Z,YFRT 311930Z AUTO 26017KT 9999 // SCT013 SCT018 BKN032 11/09 Q1015
YGEL,2022-10-31T19:30:00Z,YGEL 311930Z AUTO 14009KT 9999 // NCD 10/08 Q1024 RF00.0/000.0
YGFN,2022-10-31T19:30:00Z,YGFN 311930Z AUTO 33008KT 6000 +RA ////// 22/21 Q0997
YGLA,2022-10-31T19:30:00Z,YGLA 311930Z AUTO 36010KT 9999 // BKN017 BKN025 BKN033 25/21 Q1004
YGTH,2022-10-31T19:30:00Z,YGTH 311930Z AUTO 27011KT 9999 // BKN012 09/08 Q0995
YHID,2022-10-31T19:30:00Z,YHID 311930Z AUTO 12003KT 9999 // NCD 26/// Q1007 RF00.0/000.0
YLEC,2022-10-31T19:17:00Z,YLEC 311917Z AUTO 29018G28KT 9999 // OVC039 11/05 Q1001
YMAV,2022-10-31T19:30:00Z,YMAV 311930Z AUTO 31009KT 9999 // NCD 07/05 Q0989 RF00.0/002.4
YMAY,2022-10-31T19:07:00Z,YMAY 311907Z AUTO 28016KT 9999 // SCT014 BKN049 BKN063 10/10 Q0990
YMHB,2022-10-31T19:30:00Z,YMHB 311930Z 31007KT 9999 FEW040 08/04 Q0983
YMLT,2022-10-31T19:30:00Z,YMLT 311930Z AUTO 00000KT 9999 // NCD 04/04 Q0983 RF00.0/001.6
YMML,2022-10-31T19:30:00Z,YMML 311930Z 30007KT 9999 FEW020 BKN040 08/06 Q0990
YMOR,2022-10-31T19:35:00Z,YMOR 311935Z AUTO 30014KT 8000 // SCT017 SCT030 SCT064 12/11 Q1003
YNAR,2022-10-31T19:30:00Z,YNAR 311930Z AUTO 27013G24KT 9999 // BKN014 BKN027 10/08 Q0994
YOLD,2022-10-31T19:30:00Z,YOLD 311930Z AUTO 27024G34KT 9999 // SCT030 BKN036 OVC043 12/08 Q1002
YPAD,2022-10-31T19:34:00Z,YPAD 311934Z 26018G30KT 9999 VCSH FEW034CB SCT035 10/06 Q0993 REGS
YPCC,2022-10-31T19:30:00Z,YPCC 311930Z AUTO 12010KT 9999 // SCT028 BKN039 BKN044 26/20 Q1012
YPDN,2022-10-31T19:30:00Z,YPDN 311930Z AUTO 27005KT 9999 // NCD 28/25 Q1008
YPEA,2022-10-31T19:30:00Z,YPEA 311930Z AUTO 00000KT 9999 // NCD 07/05 Q1025
YPGV,2022-10-31T19:30:00Z,YPGV 311930Z AUTO 31007KT 9999 // NCD 26/24 Q1007 RF00.0/000.0
YPJT,2022-10-31T19:30:00Z,YPJT 311930Z AUTO 17004KT 9999 // NCD 07/05 Q1025 RF00.0/000.0
YPKG,2022-10-31T19:30:00Z,YPKG 311930Z AUTO 20006KT 9999 // NCD 07/05 Q1022 RF00.0/000.0
YPKU,2022-10-31T19:30:00Z,YPKU 311930Z AUTO 17007KT 9999 // NCD 28/15 Q1008 RF00.0/000.0
YPLM,2022-10-31T19:30:00Z,YPLM 311930Z AUTO 23008KT 9999 // NCD 13/M02 Q1016 RF00.0////./
YPMQ,2022-10-31T18:30:00Z,YPMQ 311830Z AUTO 00000KT 3800 // SCT071 BKN095 OVC120 20/19 Q0994
YPPD,2022-10-31T19:30:00Z,YPPD 311930Z AUTO 15007KT 9999 // NCD 15/M07 Q1015 RF00.0/000.0
YPPH,2022-10-31T19:30:00Z,YPPH 311930Z 15005KT CAVOK 06/04 Q1025
YPTN,2022-10-31T19:30:00Z,YPTN 311930Z AUTO 33007KT 9999 // NCD 27/20 Q1007 RF00.0/000.0
YPWR,2022-10-31T19:30:00Z,YPWR 311930Z AUTO 25022KT 9999 // SCT045 SCT064 BKN078 10/08 Q1001
YPXM,2022-10-31T19:30:00Z,YPXM 311930Z AUTO 12011KT 9999 // BKN019 BKN025 OVC032 24/20 Q1012
YRMD,2022-10-31T19:27:00Z,YRMD 311927Z AUTO 20017KT 9999 -SHRA SCT008 SCT015 BKN024 21/20 Q1009 RESHRA
YSCB,2022-10-31T19:30:00Z,YSCB 311930Z AUTO 32015KT 9999 // SCT032 09/06 Q0990
YSDU,2022-10-31T19:30:00Z,YSDU 311930Z AUTO 28012KT 9999 // SCT027 BKN032 12/10 Q0998
YSNF,2022-10-31T19:30:00Z,YSNF 311930Z AUTO 06006KT 9999 // ////// 18/15 Q1013 RF00.0/000.0
YSNW,2022-10-31T19:31:00Z,YSNW 311931Z 30015G26KT 9999 FEW032 SCT044 15/07 Q0989
YSRI,2022-10-31T19:30:00Z,YSRI 311930Z AUTO 31009KT 9999 // NCD 18/08 Q0992 RF00.0/001.0
YSSY,2022-10-31T19:30:00Z,YSSY 311930Z 30021KT 9999 FEW042 SCT070 BKN190 20/07 Q0990
YSTW,2022-10-31T19:30:00Z,YSTW 311930Z AUTO 35013KT 9999 -RA SCT017 SCT036 OVC110 14/13 Q0999 RERA
YSWG,2022-10-31T19:30:00Z,YSWG 311930Z AUTO 29015KT 9999 // BKN015 OVC019 10/09 Q0992
YWHA,2022-10-31T19:20:00Z,YWHA 311920Z AUTO 26015KT 9999 -RA SCT017 SCT025 BKN040 08/07 Q0998
YWLM,2022-10-31T19:30:00Z,YWLM 311930Z AUTO 33014KT 9999 // SCT050 SCT069 BKN088 19/15 Q0991
ZBAA,2022-10-31T19:30:00Z,ZBAA 311930Z 17001MPS CAVOK 01/M05 Q1027 NOSIG
ZBAD,2022-10-31T19:30:00Z,ZBAD 311930Z 27002MPS CAVOK 00/M04 Q1027 NOSIG
ZBHH,2022-10-31T19:00:00Z,ZBHH 311900Z 07003MPS CAVOK M05/M09 Q1025 NOSIG
ZBSJ,2022-10-31T19:00:00Z,ZBSJ 311900Z 30001MPS 6000 NSC 04/03 Q1026 NOSIG
ZBTJ,2022-10-31T19:30:00Z,ZBTJ 311930Z 01002MPS CAVOK 07/M04 Q1027 NOSIG
ZBYN,2022-10-31T19:30:00Z,ZBYN 311930Z 14002MPS 110V180 CAVOK 01/M03 Q1025 NOSIG
ZGGG,2022-10-31T19:30:00Z,ZGGG 311930Z 01008MPS CAVOK 22/12 Q1010 NOSIG
ZGHA,2022-10-31T19:00:00Z,ZGHA 311900Z 01002MPS CAVOK 14/10 Q1020 NOSIG
ZGKL,2022-10-31T19:00:00Z,ZGKL 311900Z 35003MPS CAVOK 15/09 Q1018 NOSIG
ZGNN,2022-10-31T19:00:00Z,ZGNN 311900Z 35004MPS CAVOK 20/11 Q1015 NOSIG
ZGOW,2022-10-31T19:00:00Z,ZGOW 311900Z 02004MPS 9999 SCT050 21/17 Q1008 NOSIG
ZGSZ,2022-10-31T19:00:00Z,ZGSZ 311900Z 01010MPS CAVOK 24/12 Q1008 NOSIG
ZHCC,2022-10-31T19:00:00Z,ZHCC 311900Z 00000MPS 2500 BR NSC 09/09 Q1025 NOSIG
ZHHH,2022-10-31T19:00:00Z,ZHHH 311900Z 03002MPS 7000 NSC 12/09 Q1022 NOSIG
ZJHK,2022-10-31T19:00:00Z,ZJHK 311900Z 35006MPS CAVOK 23/14 Q1010 NOSIG
ZJSY,2022-10-31T19:00:00Z,ZJSY 311900Z 32002MPS CAVOK 20/16 Q1009 NOSIG
ZLLL,2022-10-31T19:00:00Z,ZLLL 311900Z 33002MPS CAVOK 01/M02 Q1020 NOSIG
ZLXY,2022-10-31T19:00:00Z,ZLXY 311900Z VRB01MPS 6000 NSC 08/07 Q1022 NOSIG
ZMCK,2022-10-31T19:30:00Z,ZMCK 311930Z 08004MPS 9999 BKN100 M07/M12 Q1020 NOSIG RMK QFE649.4 65 NT
ZMUB,2022-10-31T19:00:00Z,ZMUB 311900Z VRB01MPS 9999 BKN100 M13/M15 Q1021 NOSIG RMK QFE658.3 82 NT
ZPPP,2022-10-31T19:00:00Z,ZPPP 311900Z 05002MPS CAVOK 05/05 Q1028 NOSIG
ZSAM,2022-10-31T19:00:00Z,ZSAM 311900Z 04009MPS CAVOK 22/16 Q1011 NOSIG
ZSFZ,2022-10-31T19:00:00Z,ZSFZ 311900Z 02007MPS 9999 -RA OVC033 19/15 Q1015 NOSIG
ZSHC,2022-10-31T19:30:00Z,ZSHC 311930Z 35003MPS CAVOK 16/13 Q1022 NOSIG
ZSNB,2022-10-31T19:00:00Z,ZSNB 311900Z 33003MPS CAVOK 17/14 Q1021 NOSIG
ZSNJ,2022-10-31T19:00:00Z,ZSNJ 311900Z 00000MPS 5000 BR NSC 13/12 Q1023 NOSIG
ZSOF,2022-10-31T19:00:00Z,ZSOF 311900Z 06001MPS 2300 BR NSC 13/12 Q1023 NOSIG
ZSPD,2022-10-31T19:30:00Z,ZSPD 311930Z 01006MPS CAVOK 17/13 Q1021 NOSIG
ZSQD,2022-10-31T19:00:00Z,ZSQD 311900Z 29002MPS 5000 BR NSC 10/08 Q1025 NOSIG
ZSSS,2022-10-31T19:30:00Z,ZSSS 311930Z 36003MPS CAVOK 13/12 Q1022 NOSIG
ZUCK,2022-10-31T19:00:00Z,ZUCK 311900Z 02002MPS 8000 NSC 15/13 Q1023 NOSIG
ZUGY,2022-10-31T19:00:00Z,ZUGY 311900Z 05002MPS 9999 SCT036 10/09 Q1024 NOSIG
ZUTF,2022-10-31T19:00:00Z,ZUTF 311900Z 00000MPS 5000 BR NSC 12/11 Q1022 NOSIG
ZUUU,2022-10-31T19:00:00Z,ZUUU 311900Z 20001MPS 6000 NSC 14/13 Q1022 NOSIG
ZWSH,2022-10-31T19:00:00Z,ZWSH 311900Z AUTO VRB03MPS 9999 // ///////// 08/M03 Q1020
ZWWW,2022-10-31T19:30:00Z,ZWWW 311930Z 11001MPS CAVOK 05/M02 Q1026 NOSIG
ZYCC,2022-10-31T19:00:00Z,ZYCC 311900Z 25003MPS CAVOK M00/M10 Q1022 NOSIG
ZYHB,2022-10-31T19:00:00Z,ZYHB 311900Z 23007MPS CAVOK M00/M05 Q1018 NOSIG
ZYTL,2022-10-31T19:30:00Z,ZYTL 311930Z 36003MPS 320V060 CAVOK 10/M01 Q1025 NOSIG
ZYTX,2022-10-31T19:30:00Z,ZYTX 311930Z VRB01MPS CAVOK 03/M06 Q1026 NOSIG
