{"station_id": ["ANYN", "BGBW", "BGGH", "BGJN", "BGKK", "BGSF", "BGTL", "BIAR", "BIEG", "BIGR", "BIHN", "BIHU", "BIKF", "BIRK", "BIVM", "CAHR", "CBAR", "CBBC", "CERM", "CFOX", "CMFM", "CMGB", "CPBT", "CPEH", "CPFI", "CPIN", "CPIR", "CPRO", "CPRY", "CPST", "CPSV", "CTCK", "CTNK", "CTRA", "CWAE", "CWAF", "CWAJ", "CWAQ", "CWAR", "CWAV", "CWBA", "CWBK", "CWBO", "CWBS", "CWBT", "CWBU", "CWBV", "CWBY", "CWBZ", "CWCF", "CWCI", "CWCJ", "CWCO", "CWCT", "CWDA", "CWDC", "CWDJ", "CWDK", "CWDM", "CWDO", "CWDQ", "CWDT", "CWDV", "CWDZ", "CWEB", "CWEE", "CWEF", "CWEH", "CWEK", "CWEL", "CWEP", "CWEQ", "CWER", "CWEU", "CWEW", "CWEZ", "CWFD", "CWFF", "CWFJ", "CWFQ", "CWGB", "CWGD", "CWGH", "CWGL", "CWGM", "CWGR", "CWGT", "CWGW", "CWGY", "CWHI", "CWHL", "CWHO", "CWHP", "CWHQ", "CWHT", "CWHV", "CWID", "CWIG", "CWII", "CWIJ", "CWIK", "CWIL", "CWIP", "CWIS", "CWIT", "CWIW", "CWIX", "CWIZ", "CWJB", "CWJC", "CWJD", "CWJH", "CWJI", "CWJO", "CWJR", "CWJT", "CWJU", "CWJV", "CWJW", "CWJX", "CWKD", "CWKH", "CWKK", "CWKM", "CWKO", "CWKP", "CWKX", "CWLB", "CWLC", "CWLE", "CWLI", "CWLM", "CWLS", "CWLX", "CWLY", "CWME", "CWMJ", "CWMM", "CWMQ", "CWMT", "CWMZ", "CWNC", "CWND", "CWNE", "CWNH", "CWNK", "CWNM", "CWNP", "CWNQ", "CWNZ", "CWOB", "CWOC", "CWOD", "CWOE", "CWOY", "CWPC", "CWPD", "CWPE", "CWPF", "CWPK", "CWPO", "CWPR", "CWPX", "CWPZ", "CWQH", "CWQK", "CWQO", "CWQP", "CWQR", "CWQS", "CWQV", "CWRA", "CWRH", "CWRJ", "CWRK", "CWRM", "CWRN", "CWRO", "CWRT", "CWRU", "CWRX", "CWRY", "CWRZ", "CWSA", "CWSD", "CWSF", "CWSG", "CWSK", "CWSL", "CWSP", "CWSR", "CWSS", "CWST", "CWSW", "CWTA", "CWTG", "CWTN", "CWTT", "CWTY", "CWUS", "CWUW", "CWUX", "CWVF", "CWVH", "CWVI", "CWVN", "CWVP", "CWVQ", "CWVT", "CWWA", "CWWB", "CWWE", "CWWF", "CWWK", "CWWL", "CWWS", "CWWZ", "CWXA", "CWXC", "CWXI", "CWXL", "CWYJ", "CWYL", "CWYY", "CWZA", "CWZG", "CWZL", "CWZN", "CWZO", "CWZQ", "CWZW", "CXAF", "CXAG", "CXAJ", "CXAK", "CXAT", "CXBA", "CXBI", "CXBK", "CXBO", "CXBR", "CXBW", "CXCA", "CXCD", "CXCK", "CXCP", "CXCS", "CXDB", "CXDE", "CXDI", "CXDK", "CXDW", "CXEA", "CXEC", "CXEG", "CXET", "CXFM", "CXFR", "CXGH", "CXHA", "CXHD", "CXHM", "CXHP", "CXHR", "CXIB", "CXKA", "CXKE", "CXKI", "CXKM", "CXKT", "CXLB", "CXLL", "CXMD", "CXMG", "CXMI", "CXMM", "CXMO", "CXMY", "CXNM", "CXNP", "CXOL", "CXOX", "CXOY", "CXPA", "CXPC", "CXPL", "CXRB", "CXRH", "CXRL", "CXSC", "CXSE", "CXSH", "CXSL", "CXSP", "CXTD", "CXTH", "CXTN", "CXTO", "CXTP", "CXTV", "CXVM", "CXVN", "CXVW", "CXWM", "CXWN", "CXYH", "CXZC", "CXZV", "CYAB", "CYAH", "CYAM", "CYAS", "CYAT", "CYAW", "CYAY", "CYAZ", "CYBB", "CYBC", "CYBD", "CYBG", "CYBK", "CYBL", "CYBQ", "CYBR", "CYBU", "CYBV", "CYBW", "CYBX", "CYCA", "CYCB", "CYCD", "CYCG", "CYCK", "CYCO", "CYCP", "CYCQ", "CYCS", "CYCX", "CYCY", "CYDA", "CYDB", "CYDC", "CYDF", "CYDL", "CYDN", "CYDP", "CYDQ", "CYED", "CYEG", "CYEK", "CYEN", "CYER", "CYET", "CYEV", "CYFB", "CYFC", "CYFO", "CYFR", "CYFS", "CYFT", "CYGE", "CYGH", "CYGK", "CYGL", "CYGP", "CYGR", "CYGT", "CYGV", "CYGW", "CYGX", "CYHA", "CYHD", "CYHE", "CYHI", "CYHK", "CYHM", "CYHU", "CYHY", "CYHZ", "CYIK", "CYIN", "CYIO", "CYIV", "CYJF", "CYJT", "CYKA", "CYKF", "CYKG", "CYKJ", "CYKL", "CYKO", "CYKQ", "CYKY", "CYLC", "CYLD", "CYLH", "CYLJ", "CYLK", "CYLL", "CYLT", "CYLU", "CYLW", "CYMA", "CYMH", "CYMJ", "CYMM", "CYMO", "CYMT", "CYMU", "CYMX", "CYNA", "CYND", "CYNE", "CYNM", "CYOC", "CYOD", "CYOJ", "CYOO", "CYOW", "CYOY", "CYPA", "CYPC", "CYPD", "CYPE", "CYPG", "CYPH", "CYPL", "CYPO", "CYPQ", "CYPR", "CYPW", "CYPX", "CYPY", "CYQA", "CYQB", "CYQD", "CYQF", "CYQG", "CYQH", "CYQI", "CYQK", "CYQL", "CYQM", "CYQQ", "CYQR", "CYQT", "CYQU", "CYQV", "CYQW", "CYQX", "CYQY", "CYQZ", "CYRA", "CYRB", "CYRJ", "CYRL", "CYRQ", "CYRT", "CYRV", "CYSB", "CYSC", "CYSF", "CYSJ", "CYSK", "CYSM", "CYSN", "CYSP", "CYSY", "CYTE", "CYTH", "CYTL", "CYTQ", "CYTR", "CYTS", "CYTZ", "CYUA", "CYUB", "CYUL", "CYUS", "CYUT", "CYUX", "CYUY", "CYVC", "CYVL", "CYVM", "CYVO", "CYVP", "CYVQ", "CYVR", "CYVT", "CYVV", "CYWE", "CYWG", "CYWH", "CYWJ", "CYWK", "CYWL", "CYWY", "CYXC", "CYXE", "CYXH", "CYXJ", "CYXL", "CYXN", "CYXP", "CYXR", "CYXS", "CYXT", "CYXU", "CYXX", "CYXY", "CYXZ", "CYYB", "CYYC", "CYYD", "CYYE", "CYYF", "CYYG", "CYYH", "CYYJ", "CYYL", "CYYN", "CYYQ", "CYYR", "CYYT", "CYYU", "CYYW", "CYYY", "CYYZ", "CYZE", "CYZF", "CYZG", "CYZH", "CYZP", "CYZR", "CYZS", "CYZT", "CYZU", "CYZV", "CYZX", "CYZY", "CZBF", "CZCP", "CZCR", "CZDB", "CZEL", "CZEM", "CZEV", "CZFA", "CZFM", "CZFN", "CZFS", "CZHY", "CZKD", "CZMD", "CZMJ", "CZMT", "CZOL", "CZPC", "CZPS", "CZRP", "CZSJ", "CZSM", "CZSP", "CZST", "CZTB", "CZUM", "CZVL", "CZZJ", "DAAD", "DAAE", "DAAG", "DAAJ", "DAAP", "DAAS", "DAAT", "DAAV", "DAAY", "DABB", "DABC", "DABS", "DABT", "DAFH", "DAOB", "DAOF", "DAOI", "DAOL", "DAON", "DAOO", "DAOR", "DAOV", "DAOY", "DATM", "DAUA", "DAUB", "DAUE", "DAUG", "DAUH", "DAUI", "DAUK", "DAUL", "DAUO", "DAUT", "DAUU", "DAUZ", "DBBB", "DFFD", "DFOO", "DGAA", "DIAP", "DIBK", "DIYO", "DNAA", "DNEN", "DNJO", "DNKN", "DNKT", "DNMM", "DNYO", "DRRM", "DRRN", "DRRT", "DRZA", "DRZR", "DTKA", "DTMB", "DTNH", "DTTA", "DTTB", "DTTD", "DTTF", "DTTG", "DTTJ", "DTTK", "DTTL", "DTTN", "DTTR", "DTTX", "DTTZ", "DXNG", "DXSK", "DXXX", "EBAW", "EBBE", "EBBL", "EBBR", "EBCI", "EBCV", "EBDT", "EBFN", "EBFS", "EBLB", "EBLG", "EBOS", "EDAC", "EDAH", "EDBC", "EDDB", "EDDC", "EDDE", "EDDF", "EDDG", "EDDH", "EDDK", "EDDL", "EDDM", "EDDN", "EDDP", "EDDR", "EDDS", "EDDV", "EDDW", "EDFH", "EDFM", "EDGS", "EDHI", "EDHK", "EDHL", "EDJA", "EDLN", "EDLP", "EDLV", "EDLW", "EDMA", "EDMO", "EDNY", "EDQM", "EDSB", "EDTL", "EDTY", "EDVE", "EDVK", "EDXW", "EEEI", "EEKA", "EEKE", "EEPU", "EETN", "EETU", "EFET", "EFHA", "EFHK", "EFIV", "EFJO", "EFJY", "EFKE", "EFKI", "EFKK", "EFKS", "EFKT", "EFKU", "EFLP", "EFMA", "EFMI", "EFOU", "EFPO", "EFRO", "EFSA", "EFSI", "EFTP", "EFTU", "EFUT", "EFVA", "EGAA", "EGAC", "EGAE", "EGBB", "EGBJ", "EGCC", "EGCK", "EGCN", "EGDM", "EGDR", "EGDY", "EGEC", "EGEO", "EGFF", "EGGD", "EGGP", "EGGW", "EGHC", "EGHE", "EGHH", "EGHI", "EGHQ", "EGJA", "EGJB", "EGJJ", "EGKA", "EGKB", "EGKK", "EGLC", "EGLF", "EGLL", "EGMC", "EGMD", "EGNH", "EGNJ", "EGNM", "EGNO", "EGNR", "EGNS", "EGNT", "EGNV", "EGNX", "EGOM", "EGOP", "EGOS", "EGOV", "EGOW", "EGPA", "EGPB", "EGPC", "EGPD", "EGPE", "EGPF", "EGPH", "EGPI", "EGPK", "EGPL", "EGPN", "EGPO", "EGPU", "EGQA", "EGQK", "EGQL", "EGQM", "EGQS", "EGSC", "EGSH", "EGSS", "EGSY", "EGTC", "EGTE", "EGTK", "EGUB", "EGUL", "EGUN", "EGUW", "EGVA", "EGVN", "EGVO", "EGVP", "EGWC", "EGWU", "EGXC", "EGXE", "EGXP", "EGXS", "EGXT", "EGXV", "EGXW", "EGXZ", "EGYD", "EGYE", "EGYH", "EGYM", "EGYP", "EHAK", "EHAM", "EHBK", "EHDL", "EHDV", "EHEH", "EHFD", "EHFS", "EHGG", "EHGR", "EHHW", "EHJA", "EHJR", "EHKD", "EHKV", "EHLE", "EHLW", "EHMA", "EHMG", "EHPG", "EHQE", "EHRD", "EHSA", "EHSC", "EHVK", "EHVL", "EHWO", "EICK", "EIDL", "EIDW", "EIKN", "EIKY", "EIME", "EINN", "EISG", "EIWF", "EKAH", "EKBI", "EKCH", "EKEB", "EKKA", "EKOD", "EKRK", "EKRN", "EKRS", "EKSB", "EKSP", "EKVD", "EKVG", "EKYT", "ELLX", "ENAL", "ENAN", "ENAT", "ENBL", "ENBN", "ENBO", "ENBR", "ENBS", "ENBV", "ENCN", "ENDR", "ENDU", "ENEV", "ENFB", "ENFL", "ENGC", "ENGM", "ENHD", "ENHE", "ENHF", "ENHK", "ENHM", "ENJS", "ENKB", "ENKR", "ENLA", "ENLE", "ENLK", "ENMH", "ENML", "ENMS", "ENNA", "ENNE", "ENNM", "ENNO", "ENOA", "ENOL", "ENOV", "ENQA", "ENQC", "ENQR", "ENRA", "ENRM", "ENRO", "ENRS", "ENRY", "ENSB", "ENSD", "ENSE", "ENSF", "ENSG", "ENSK", "ENSL", "ENSO", "ENSR", "ENSS", "ENST", "ENTC", "ENTO", "ENUG", "ENUN", "ENVA", "ENVD", "ENWV", "ENZV", "EPBY", "EPGD", "EPKK", "EPKT", "EPLB", "EPLL", "EPMO", "EPPO", "EPRA", "EPRZ", "EPSC", "EPSY", "EPWA", "EPWR", "EPZG", "ESCF", "ESCM", "ESDF", "ESGG", "ESGJ", "ESGP", "ESGT", "ESIA", "ESIB", "ESKM", "ESKN", "ESKS", "ESMK", "ESMQ", "ESMS", "ESMT", "ESMX", "ESND", "ESNG", "ESNK", "ESNL", "ESNN", "ESNO", "ESNQ", "ESNS", "ESNU", "ESNV", "ESNX", "ESNZ", "ESOE", "ESOH", "ESOK", "ESOW", "ESPA", "ESPE", "ESSA", "ESSB", "ESSD", "ESSL", "ESSP", "ESST", "ESSV", "ESTA", "ESTL", "ESUP", "ESUT", "ETAD", "ETAR", "ETEB", "ETGG", "ETHA", "ETHB", "ETHC", "ETHF", "ETHL", "ETHN", "ETHS", "ETIC", "ETIH", "ETIK", "ETMN", "ETNG", "ETNH", "ETNL", "ETNN", "ETNS", "ETNT", "ETNW", "ETOU", "ETSB", "ETSH", "ETSI", "ETSL", "ETSN", "ETWM", "EVGA", "EVLA", "EVRA", "EVVA", "EYKA", "EYPA", "EYSA", "EYVI", "FABL", "FACT", "FAEL", "FAGG", "FAHS", "FAIR", "FAJB", "FAKM", "FAKN", "FALA", "FALE", "FALW", "FAMM", "FAOR", "FAPE", "FAPP", "FASI", "FAUP", "FAUT", "FAWB", "FAWK", "FBMN", "FBPM", "FBSK", "FGBT", "FGSL", "FIMP", "FJDG", "FMCZ", "FMEE", "FMEP", "FMMI", "FMMS", "FMMT", "FMNA", "FMNM", "FMNN", "FMSD", "FNCA", "FNCT", "FNGI", "FNHU", "FNKU", "FNMO", "FNSO", "FNUB", "FNUE", "FOGM", "FOGO", "FOGR", "FOOG", "FOOK", "FOOL", "FOON", "FOOR", "FSIA", "FTTA", "FTTD", "FWCL", "FWKI", "FYGF", "FYKM", "FYLZ", "FYWB", "FYWE", "FYWH", "FYWW", "GABS", "GAKD", "GAMB", "GBYD", "GCFV", "GCGM", "GCHI", "GCLA", "GCLP", "GCRR", "GCTS", "GCXO", "GECE", "GEML", "GGOV", "GMAD", "GMAG", "GMAT", "GMAZ", "GMFB", "GMFF", "GMFK", "GMFM", "GMFO", "GMMB", "GMMC", "GMMD", "GMME", "GMMH", "GMMI", "GMML", "GMMN", "GMMW", "GMMX", "GMMZ", "GMTA", "GMTN", "GMTT", "GOBD", "GOGG", "GOGK", "GOGS", "GOOD", "GOOG", "GOOK", "GOOY", "GOSM", "GOSP", "GOSS", "GOTK", "GOTT", "GQNO", "GQPP", "HEAT", "HEAX", "HEBA", "HEBL", "HECP", "HEGN", "HEIS", "HELX", "HEMA", "HEMM", "HEPS", "HESG", "HESH", "HESN", "HESW", "HETR", "HKEL", "HKGA", "HKJK", "HKMO", "HKNI", "HKNK", "HKNW", "HKWJ", "HRYR", "HRZA", "HSSK", "HTDA", "HTJN", "HTKJ", "HTMW", "HTZA", "HUEN", "K04V", "K04W", "K05U", "K06C", "K06D", "K08D", "K0A0", "K0A9", "K0CO", "K0E0", "K0F2", "K0J4", "K0R0", "K0R4", "K0S9", "K0V4", "K0VG", "K10G", "K11R", "K12N", "K13K", "K14Y", "K15M", "K17J", "K18A", "K18H", "K19S", "K1A5", "K1A6", "K1A9", "K1AM", "K1AW", "K1BM", "K1BW", "K1CM", "K1CW", "K1D1", "K1DM", "K1DW", "K1EM", "K1EW", "K1F0", "K1FM", "K1GM", "K1H2", "K1HM", "K1HW", "K1IM", "K1IW", "K1JM", "K1JW", "K1K1", "K1KM", "K1LM", "K1M4", "K1M5", "K1MM", "K1MW", "K1NM", "K1OM", "K1OW", "K1P1", "K1R7", "K1R8", "K1S3", "K1S5", "K1U7", "K1V4", "K1V6", "K1YT", "K20U", "K20V", "K21D", "K22N", "K24A", "K24J", "K27K", "K28J", "K2A0", "K2C8", "K2D5", "K2DP", "K2G2", "K2G4", "K2G9", "K2IS", "K2J3", "K2J5", "K2J9", "K2M2", "K2P2", "K2R9", "K2V5", "K2W6", "K2WX", "K33N", "K33V", "K35A", "K36K", "K38S", "K3AU", "K3D2", "K3F3", "K3I2", "K3J7", "K3K3", "K3LF", "K3N8", "K3R7", "K3S8", "K3U3", "K40B", "K40U", "K41U", "K42J", "K46D", "K46U", "K48A", "K49A", "K4A6", "K4A9", "K4F2", "K4I3", "K4M9", "K4MR", "K4O4", "K4R5", "K4S1", "K4S2", "K4V1", "K54A", "K54J", "K57C", "K5C1", "K5H4", "K5M9", "K5R8", "K5SM", "K63S", "K65S", "K66R", "K6A1", "K6A2", "K6B0", "K6B9", "K6I2", "K6L4", "K6P9", "K6R6", "K6S0", "K6S2", "K6S8", "K74V", "K77S", "K79J", "K7BM", "K7L2", "K7N0", "K7W4", "K81R", "K82C", "K82V", "K8A0", "K8A3", "K8D3", "K8T6", "K8W2", "K96D", "K9A5", "K9D7", "K9L2", "K9MN", "K9S5", "K9V9", "KAAA", "KAAF", "KAAO", "KAAS", "KAAT", "KABE", "KABH", "KABI", "KABQ", "KABR", "KABY", "KACB", "KACK", "KACP", "KACQ", "KACT", "KACV", "KACY", "KADC", "KADG", "KADH", "KADM", "KADS", "KADT", "KADU", "KADW", "KAEG", "KAEJ", "KAEL", "KAEX", "KAFF", "KAFJ", "KAFK", "KAFN", "KAFO", "KAFP", "KAFW", "KAGC", "KAGI", "KAGO", "KAGS", "KAHN", "KAHQ", "KAIA", "KAID", "KAIG", "KAIK", "KAIO", "KAIT", "KAIZ", "KAJG", "KAJO", "KAJR", "KAJZ", "KAKH", "KAKO", "KAKQ", "KAKR", "KALB", "KALI", "KALK", "KALM", "KALN", "KALO", "KALS", "KALW", "KALX", "KAMA", "KAMG", "KAMN", "KAMW", "KANB", "KAND", "KANE", "KANJ", "KANK", "KANQ", "KANW", "KAOH", "KAOO", "KAPA", "KAPC", "KAPF", "KAPG", "KAPN", "KAPS", "KAQO", "KAQP", "KAQV", "KAQW", "KAQX", "KARA", "KARB", "KARG", "KARM", "KARR", "KART", "KARV", "KARW", "KASD", "KASE", "KASG", "KASH", "KASJ", "KASL", "KASN", "KAST", "KASW", "KASX", "KATA", "KATL", "KATP", "KATS", "KATT", "KATW", "KATY", "KAUG", "KAUH", "KAUM", "KAUN", "KAUO", "KAUS", "KAUW", "KAVC", "KAVK", "KAVL", "KAVP", "KAVQ", "KAVX", "KAWG", "KAWM", "KAWO", "KAXA", "KAXH", "KAXN", "KAXS", "KAXV", "KAXX", "KAYS", "KAZC", "KAZE", "KAZO", "KBAB", "KBAC", "KBAD", "KBAF", "KBAK", "KBAM", "KBAN", "KBAX", "KBAZ", "KBBB", "KBBD", "KBBG", "KBBP", "KBBW", "KBCB", "KBCE", "KBCK", "KBCR", "KBCT", "KBDE", "KBDG", "KBDH", "KBDL", "KBDN", "KBDR", "KBDU", "KBEA", "KBEC", "KBED", "KBEH", "KBFD", "KBFF", "KBFI", "KBFL", "KBFM", "KBGD", "KBGE", "KBGF", "KBGM", "KBGR", "KBHB", "KBHC", "KBHK", "KBHM", "KBID", "KBIE", "KBIF", "KBIH", "KBIJ", "KBIL", "KBIS", "KBIV", "KBIX", "KBJC", "KBJI", "KBJJ", "KBKB", "KBKD", "KBKE", "KBKF", "KBKL", "KBKS", "KBKT", "KBKV", "KBKW", "KBKX", "KBLF", "KBLH", "KBLI", "KBLM", "KBLU", "KBLV", "KBMC", "KBMG", "KBMI", "KBML", "KBMQ", "KBMT", "KBNA", "KBNL", "KBNO", "KBNW", "KBOI", "KBOK", "KBOS", "KBOW", "KBPG", "KBPI", "KBPK", "KBPT", "KBQK", "KBQP", "KBQX", "KBRD", "KBRG", "KBRL", "KBRO", "KBRY", "KBTA", "KBTL", "KBTM", "KBTN", "KBTP", "KBTR", "KBTV", "KBUF", "KBUR", "KBUU", "KBUY", "KBVI", "KBVN", "KBVO", "KBVS", "KBVU", "KBVX", "KBVY", "KBWG", "KBWI", "KBWP", "KBWW", "KBXA", "KBXK", "KBYG", "KBYI", "KBYL", "KBYS", "KBYY", "KBZN", "KC07", "KC09", "KC29", "KC35", "KC65", "KC75", "KC83", "KC99", "KCAD", "KCAE", "KCAG", "KCAK", "KCAO", "KCAR", "KCAV", "KCBE", "KCBG", "KCBK", "KCBM", "KCCA", "KCCB", "KCCO", "KCCR", "KCCU", "KCCY", "KCDA", "KCDC", "KCDD", "KCDH", "KCDI", "KCDJ", "KCDN", "KCDR", "KCDS", "KCDW", "KCEC", "KCEF", "KCEU", "KCEW", "KCEY", "KCEZ", "KCFD", "KCFE", "KCFJ", "KCFO", "KCFS", "KCFV", "KCGC", "KCGE", "KCGF", "KCGI", "KCGS", "KCGZ", "KCHA", "KCHD", "KCHK", "KCHS", "KCIC", "KCID", "KCII", "KCIN", "KCIR", "KCIU", "KCJR", "KCKB", "KCKC", "KCKF", "KCKI", "KCKM", "KCKN", "KCKP", "KCKV", "KCKZ", "KCLE", "KCLI", "KCLK", "KCLL", "KCLM", "KCLS", "KCLT", "KCLW", "KCMA", "KCMD", "KCMH", "KCMI", "KCMR", "KCMX", "KCMY", "KCNB", "KCNC", "KCNI", "KCNK", "KCNM", "KCNO", "KCNU", "KCNW", "KCNY", "KCOD", "KCOE", "KCOF", "KCOM", "KCON", "KCOQ", "KCOS", "KCOT", "KCOU", "KCPC", "KCPF", "KCPK", "KCPR", "KCPT", "KCPU", "KCPW", "KCQB", "KCQC", "KCQF", "KCQM", "KCQT", "KCQW", "KCQX", "KCRE", "KCRG", "KCRP", "KCRQ", "KCRS", "KCRW", "KCRX", "KCSG", "KCSM", "KCSQ", "KCSV", "KCTB", "KCTJ", "KCTY", "KCTZ", "KCUB", "KCUH", "KCUL", "KCUT", "KCVC", "KCVG", "KCVH", "KCVN", "KCVO", "KCVS", "KCVX", "KCWA", "KCWC", "KCWF", "KCWI", "KCWN", "KCWV", "KCXE", "KCXO", "KCXP", "KCXU", "KCXW", "KCXY", "KCYD", "KCYS", "KCZL", "KCZT", "KD07", "KD25", "KD39", "KD50", "KD55", "KD57", "KD60", "KD73", "KD95", "KDAA", "KDAG", "KDAL", "KDAN", "KDAW", "KDAY", "KDBN", "KDBQ", "KDCA", "KDCM", "KDCU", "KDCY", "KDDC", "KDDH", "KDEC", "KDED", "KDEH", "KDEN", "KDEQ", "KDET", "KDEW", "KDFI", "KDFW", "KDGW", "KDHN", "KDHT", "KDIJ", "KDIK", "KDKB", "KDKK", "KDKR", "KDKX", "KDLF", "KDLH", "KDLL", "KDLN", "KDLO", "KDLS", "KDLZ", "KDMA", "KDMH", "KDMN", "KDMO", "KDMW", "KDNA", "KDNL", "KDNN", "KDNS", "KDNV", "KDOV", "KDPA", "KDPG", "KDPL", "KDQH", "KDRA", "KDRI", "KDRM", "KDRO", "KDRT", "KDSF", "KDSM", "KDSV", "KDTA", "KDTL", "KDTN", "KDTO", "KDTS", "KDTW", "KDUA", "KDUB", "KDUC", "KDUH", "KDUJ", "KDUX", "KDVK", "KDVL", "KDVN", "KDVO", "KDVP", "KDVT", "KDWA", "KDWH", "KDWU", "KDWX", "KDXR", "KDXX", "KDYA", "KDYB", "KDYL", "KDYR", "KDYS", "KDYT", "KDZB", "KDZJ", "KE11", "KE16", "KE38", "KE41", "KE42", "KEAN", "KEAR", "KEAT", "KEAU", "KEBA", "KEBG", "KEBS", "KECG", "KECP", "KECS", "KECU", "KEDC", "KEDE", "KEDN", "KEDU", "KEDW", "KEED", "KEEN", "KEEO", "KEET", "KEFK", "KEFT", "KEGE", "KEGI", "KEGT", "KEHA", "KEHO", "KEHR", "KEIK", "KEKM", "KEKN", "KEKQ", "KEKS", "KEKX", "KEKY", "KELA", "KELD", "KELK", "KELM", "KELN", "KELO", "KELP", "KELY", "KELZ", "KEMM", "KEMP", "KEMT", "KEMV", "KEND", "KENV", "KENW", "KEOE", "KEOK", "KEPH", "KEQA", "KEQY", "KERI", "KERV", "KERY", "KESC", "KESF", "KESN", "KEST", "KETB", "KETC", "KETH", "KETN", "KEUF", "KEUG", "KEVB", "KEVM", "KEVU", "KEVV", "KEVW", "KEWB", "KEWK", "KEWN", "KEWR", "KEXX", "KEYE", "KEYF", "KEYW", "KEZF", "KEZM", "KEZP", "KEZS", "KEZZ", "KF00", "KF05", "KF17", "KF44", "KF46", "KF70", "KFAF", "KFAM", "KFAR", "KFAT", "KFAY", "KFBG", "KFBL", "KFCI", "KFCM", "KFCS", "KFDK", "KFDR", "KFDW", "KFDY", "KFEP", "KFET", "KFEW", "KFFA", "KFFC", "KFFL", "KFFM", "KFFO", "KFFT", "KFFX", "KFFZ", "KFGN", "KFGX", "KFHB", "KFHR", "KFHU", "KFIG", "KFIN", "KFIT", "KFKA", "KFKL", "KFKN", "KFKR", "KFKS", "KFLD", "KFLG", "KFLL", "KFLO", "KFLP", "KFLY", "KFME", "KFMH", "KFMM", "KFMN", "KFMY", "KFNB", "KFNL", "KFNT", "KFOA", "KFOD", "KFOE", "KFOK", "KFOT", "KFOZ", "KFPK", "KFPR", "KFPY", "KFQD", "KFRG", "KFRH", "KFRI", "KFRM", "KFRR", "KFSD", "KFSE", "KFSI", "KFSK", "KFSM", "KFSO", "KFST", "KFSW", "KFTK", "KFTN", "KFTW", "KFTY", "KFUL", "KFVE", "KFVX", "KFWA", "KFWB", "KFWC", "KFWN", "KFWS", "KFWZ", "KFXE", "KFXY", "KFYE", "KFYG", "KFYJ", "KFYV", "KFZG", "KFZY", "KGAD", "KGAF", "KGAG", "KGAI", "KGAO", "KGBD", "KGBG", "KGBK", "KGCC", "KGCD", "KGCK", "KGCM", "KGCN", "KGCY", "KGDB", "KGDJ", "KGDP", "KGDV", "KGED", "KGEG", "KGEU", "KGEV", "KGEY", "KGEZ", "KGFA", "KGFK", "KGFL", "KGGE", "KGGF", "KGGG", "KGGI", "KGGP", "KGGW", "KGHB", "KGHG", "KGHW", "KGIC", "KGIF", "KGJT", "KGKJ", "KGKT", "KGKY", "KGLD", "KGLE", "KGLH", "KGLR", "KGLS", "KGLW", "KGLX", "KGLY", "KGMJ", "KGMU", "KGNA", "KGNB", "KGNC", "KGNG", "KGNR", "KGNT", "KGNV", "KGOK", "KGON", "KGOO", "KGOP", "KGOV", "KGPC", "KGPH", "KGPI", "KGPM", "KGPT", "KGPZ", "KGRB", "KGRD", "KGRF", "KGRI", "KGRK", "KGRN", "KGRR", "KGRY", "KGSB", "KGSH", "KGSO", "KGSP", "KGTB", "KGTF", "KGTR", "KGTU", "KGUC", "KGUL", "KGUP", "KGUR", "KGUS", "KGUY", "KGVL", "KGVQ", "KGVT", "KGVW", "KGWB", "KGWO", "KGWR", "KGWW", "KGXF", "KGXY", "KGYB", "KGYF", "KGYH", "KGYI", "KGYL", "KGYR", "KGYY", "KGZH", "KGZL", "KGZN", "KGZS", "KH71", "KHAE", "KHAF", "KHAI", "KHAO", "KHBG", "KHBI", "KHBR", "KHBV", "KHCD", "KHCO", "KHCR", "KHDC", "KHDE", "KHDL", "KHDN", "KHDO", "KHEF", "KHEG", "KHEI", "KHEQ", "KHEY", "KHEZ", "KHFD", "KHFF", "KHFJ", "KHFY", "KHGR", "KHHF", "KHHG", "KHHR", "KHHV", "KHHW", "KHIB", "KHIE", "KHIF", "KHII", "KHIO", "KHJH", "KHJO", "KHKA", "KHKS", "KHKY", "KHLB", "KHLC", "KHLG", "KHLN", "KHLR", "KHLX", "KHMN", "KHMP", "KHMT", "KHMZ", "KHNB", "KHND", "KHNR", "KHNZ", "KHOB", "KHOE", "KHON", "KHOP", "KHOT", "KHOU", "KHPN", "KHPT", "KHQG", "KHQG", "KHQM", "KHQU", "KHQZ", "KHRF", "KHRI", "KHRJ", "KHRL", "KHRO", "KHRT", "KHRX", "KHSA", "KHSB", "KHSD", "KHSE", "KHSG", "KHSI", "KHSP", "KHST", "KHSV", "KHTL", "KHTS", "KHUA", "KHUF", "KHUL", "KHUM", "KHUT", "KHVE", "KHVN", "KHVR", "KHVS", "KHWD", "KHWO", "KHWV", "KHWY", "KHXD", "KHYA", "KHYI", "KHYR", "KHYS", "KHYW", "KHYX", "KHZD", "KHZE", "KHZL", "KHZR", "KHZX", "KHZY", "KI23", "KI35", "KI63", "KI67", "KI68", "KI69", "KI74", "KI75", "KIAB", "KIAD", "KIAG", "KIAH", "KIBM", "KICL", "KICR", "KICT", "KIDA", "KIDI", "KIDP", "KIEN", "KIER", "KIFA", "KIFP", "KIGM", "KIGQ", "KIIY", "KIJD", "KIJX", "KIKK", "KIKV", "KIKW", "KILE", "KILG", "KILM", "KILN", "KIML", "KIMS", "KIMT", "KIND", "KINF", "KINJ", "KINK", "KINL", "KINS", "KINT", "KINW", "KIOB", "KIOW", "KIPJ", "KIPL", "KIPT", "KIRK", "KIRS", "KISM", "KISO", "KISP", "KISQ", "KISW", "KITH", "KITR", "KIUA", "KIWA", "KIWD", "KIWI", "KIXA", "KIXD", "KIYA", "KIZA", "KIZG", "KJAC", "KJAN", "KJAQ", "KJAS", "KJAX", "KJBR", "KJCA", "KJCT", "KJDD", "KJDN", "KJEF", "KJER", "KJES", "KJFK", "KJFX", "KJFZ", "KJHN", "KJHW", "KJKA", "KJKJ", "KJKL", "KJLN", "KJMR", "KJMS", "KJNX", "KJOT", "KJPX", "KJQF", "KJRB", "KJRO", "KJST", "KJSV", "KJSY", "KJTC", "KJVL", "KJVW", "KJVY", "KJWG", "KJWN", "KJWY", "KJXI", "KJXN", "KJYG", "KJYL", "KJYM", "KJYO", "KJYR", "KJZI", "KK62", "KK70", "KK88", "KKLS", "KKNB", "KKY8", "KL08", "KL18", "KL35", "KL52", "KLAA", "KLAF", "KLAL", "KLAM", "KLAN", "KLAR", "KLAS", "KLAW", "KLAX", "KLBB", "KLBE", "KLBF", "KLBL", "KLBO", "KLBT", "KLBX", "KLCG", "KLCH", "KLCI", "KLCK", "KLCQ", "KLDJ", "KLDM", "KLEB", "KLEE", "KLEW", "KLEX", "KLFI", "KLFK", "KLFT", "KLGA", "KLGB", "KLGC", "KLGD", "KLGF", "KLGU", "KLHB", "KLHM", "KLHQ", "KLHW", "KLHX", "KLHZ", "KLIC", "KLIT", "KLJF", "KLKR", "KLKU", "KLKV", "KLLJ", "KLLQ", "KLMO", "KLMT", "KLNA", "KLND", "KLNK", "KLNL", "KLNN", "KLNP", "KLNQ", "KLNR", "KLNS", "KLOL", "KLOM", "KLOR", "KLOT", "KLOU", "KLOZ", "KLPC", "KLPR", "KLQK", "KLRD", "KLRF", "KLRJ", "KLRO", "KLRU", "KLRY", "KLSE", "KLSF", "KLSV", "KLTS", "KLUA", "KLUD", "KLUF", "KLUG", "KLUK", "KLUL", "KLUM", "KLUV", "KLUX", "KLVJ", "KLVK", "KLVL", "KLVM", "KLVN", "KLVS", "KLWA", "KLWB", "KLWC", "KLWD", "KLWM", "KLWS", "KLWT", "KLWV", "KLXL", "KLXN", "KLXT", "KLXV", "KLYH", "KLYO", "KLYV", "KLZU", "KLZZ", "KM01", "KM02", "KM04", "KM08", "KM19", "KM21", "KM25", "KM30", "KM40", "KM54", "KM75", "KM91", "KMAE", "KMAF", "KMAI", "KMAN", "KMAO", "KMAW", "KMBG", "KMBL", "KMBO", "KMBS", "KMBT", "KMBY", "KMCB", "KMCC", "KMCD", "KMCE", "KMCF", "KMCI", "KMCJ", "KMCK", "KMCN", "KMCO", "KMCW", "KMDD", "KMDH", "KMDS", "KMDT", "KMDW", "KMDZ", "KMEB", "KMEH", "KMEI", "KMEM", "KMER", "KMEV", "KMEZ", "KMFD", "KMFE", "KMFI", "KMFR", "KMGC", "KMGE", "KMGG", "KMGJ", "KMGM", "KMGN", "KMGR", "KMGW", "KMGY", "KMHE", "KMHK", "KMHL", "KMHP", "KMHR", "KMHS", "KMHT", "KMIA", "KMIB", "KMIC", "KMIE", "KMIV", "KMIW", "KMJD", "KMJQ", "KMKC", "KMKE", "KMKG", "KMKJ", "KMKL", "KMKN", "KMKO", "KMKS", "KMKT", "KMKY", "KMLB", "KMLC", "KMLE", "KMLF", "KMLI", "KMLJ", "KMLP", "KMLS", "KMLT", "KMLU", "KMMH", "KMMI", "KMMK", "KMML", "KMMT", "KMMU", "KMNE", "KMNH", "KMNI", "KMNM", "KMNV", "KMNZ", "KMOB", "KMOD", "KMOP", "KMOR", "KMOT", "KMOX", "KMPO", "KMPR", "KMPV", "KMPZ", "KMQB", "KMQI", "KMQJ", "KMQS", "KMQW", "KMQY", "KMRB", "KMRC", "KMRF", "KMRH", "KMRJ", "KMRN", "KMRT", "KMRY", "KMSL", "KMSN", "KMSO", "KMSP", "KMSS", "KMSV", "KMSY", "KMTC", "KMTH", "KMTJ", "KMTK", "KMTN", "KMTO", "KMTP", "KMTV", "KMTW", "KMUI", "KMUO", "KMUT", "KMVE", "KMVH", "KMVL", "KMVN", "KMVY", "KMWA", "KMWC", "KMWH", "KMWK", "KMWL", "KMWM", "KMWN", "KMWO", "KMWT", "KMXF", "KMYF", "KMYJ", "KMYL", "KMYP", "KMYR", "KMYV", "KMYZ", "KMZH", "KMZJ", "KMZZ", "KN03", "KN38", "KN60", "KNAK", "KNBC", "KNBG", "KNBT", "KNCA", "KNDZ", "KNEL", "KNEW", "KNFE", "KNFG", "KNFL", "KNFW", "KNGP", "KNGU", "KNHK", "KNID", "KNIP", "KNJK", "KNJM", "KNJW", "KNKT", "KNKX", "KNLC", "KNMM", "KNOG", "KNOW", "KNOZ", "KNPA", "KNQA", "KNQI", "KNQX", "KNRB", "KNRN", "KNRS", "KNSE", "KNSI", "KNTD", "KNTU", "KNUC", "KNUI", "KNUQ", "KNUW", "KNXF", "KNXP", "KNY0", "KNYC", "KNYG", "KNYL", "KNZY", "KO05", "KO22", "KO32", "KO69", "KOAJ", "KOAK", "KOAR", "KOBE", "KOCF", "KOCH", "KOCQ", "KOCW", "KODO", "KODX", "KOEB", "KOEL", "KOEO", "KOFF", "KOFK", "KOFP", "KOGA", "KOGB", "KOGD", "KOGS", "KOIC", "KOIN", "KOJA", "KOJC", "KOKB", "KOKC", "KOKK", "KOKM", "KOKV", "KOKZ", "KOLE", "KOLF", "KOLG", "KOLM", "KOLU", "KOLV", "KOLY", "KOLZ", "KOMA", "KOMH", "KOMK", "KOMN", "KONA", "KONL", "KONM", "KONO", "KONP", "KONT", "KONX", "KONZ", "KOOA", "KOPF", "KOPL", "KOPN", "KOQN", "KOQT", "KORB", "KORD", "KORE", "KORF", "KORG", "KORH", "KORL", "KORS", "KOSA", "KOSC", "KOSH", "KOSU", "KOTG", "KOTH", "KOTM", "KOUN", "KOVE", "KOVL", "KOVS", "KOWA", "KOWB", "KOWD", "KOWP", "KOWX", "KOXB", "KOXC", "KOXD", "KOXI", "KOXR", "KOXV", "KOYM", "KOZA", "KOZR", "KOZS", "KOZW", "KP08", "KP28", "KP53", "KP58", "KP59", "KP60", "KP68", "KP69", "KP92", "KPAE", "KPAH", "KPAM", "KPAN", "KPAO", "KPBF", "KPBG", "KPBH", "KPBI", "KPBX", "KPCD", "KPCM", "KPCW", "KPCZ", "KPDC", "KPDK", "KPDT", "KPDX", "KPEA", "KPEO", "KPEQ", "KPEX", "KPEZ", "KPGD", "KPGV", "KPHD", "KPHF", "KPHL", "KPHN", "KPHP", "KPHT", "KPHX", "KPIA", "KPIB", "KPIE", "KPIH", "KPIL", "KPIM", "KPIR", "KPIT", "KPKB", "KPKD", "KPKV", "KPLN", "KPLR", "KPLU", "KPMD", "KPMH", "KPMP", "KPMU", "KPMV", "KPNA", "KPNC", "KPNE", "KPNM", "KPNS", "KPNT", "KPOB", "KPOC", "KPOE", "KPOF", "KPOU", "KPOV", "KPOY", "KPPA", "KPPF", "KPPO", "KPPQ", "KPQI", "KPQL", "KPRB", "KPRC", "KPRG", "KPRN", "KPRO", "KPRS", "KPRX", "KPSC", "KPSF", "KPSK", "KPSM", "KPSN", "KPSO", "KPSP", "KPSX", "KPTB", "KPTD", "KPTK", "KPTN", "KPTS", "KPTT", "KPTV", "KPTW", "KPUB", "KPUC", "KPUJ", "KPUW", "KPVB", "KPVC", "KPVD", "KPVF", "KPVG", "KPVJ", "KPVU", "KPVW", "KPWA", "KPWC", "KPWD", "KPWG", "KPWK", "KPWM", "KPWT", "KPXE", "KPYM", "KPYX", "KPZQ", "KPZZ", "KQAZ", "KQBL", "KQD3", "KQDG", "KQEI", "KQEJ", "KQEN", "KQEP", "KQEQ", "KQER", "KQEV", "KQEW", "KQEX", "KQEY", "KQFB", "KQFT", "KQFU", "KQFV", "KQFW", "KQFX", "KQHY", "KQN3", "KQRH", "KQTZ", "KQVF", "KRAC", "KRAL", "KRAP", "KRAS", "KRAW", "KRBD", "KRBG", "KRBL", "KRBO", "KRBW", "KRCA", "KRCE", "KRCM", "KRCR", "KRCV", "KRCX", "KRCZ", "KRDD", "KRDG", "KRDK", "KRDM", "KRDR", "KRDU", "KREG", "KREO", "KRFD", "KRFI", "KRGA", "KRGK", "KRHI", "KRHP", "KRHV", "KRIC", "KRIL", "KRIV", "KRIW", "KRKP", "KRKR", "KRKS", "KRKW", "KRLD", "KRME", "KRMG", "KRMN", "KRMY", "KRNC", "KRND", "KRNH", "KRNM", "KRNO", "KRNP", "KRNT", "KRNV", "KROA", "KROC", "KROG", "KROS", "KROW", "KROX", "KRPD", "KRPH", "KRPJ", "KRQB", "KRQE", "KRRL", "KRRT", "KRSL", "KRSN", "KRST", "KRSV", "KRSW", "KRTN", "KRTS", "KRUE", "KRUG", "KRUQ", "KRUT", "KRVF", "KRVJ", "KRVL", "KRVS", "KRWF", "KRWI", "KRWL", "KRWV", "KRXE", "KRYM", "KRYN", "KRYV", "KRYW", "KRYY", "KRZL", "KRZN", "KRZR", "KS21", "KS24", "KS25", "KS32", "KS33", "KS39", "KS52", "KS71", "KS85", "KSAA", "KSAC", "KSAD", "KSAF", "KSAN", "KSAR", "KSAT", "KSAV", "KSAW", "KSAZ", "KSBA", "KSBD", "KSBM", "KSBN", "KSBO", "KSBP", "KSBS", "KSBY", "KSCD", "KSCH", "KSCK", "KSCR", "KSDA", "KSDB", "KSDC", "KSDF", "KSDL", "KSDM", "KSDY", "KSEA", "KSEE", "KSEG", "KSEM", "KSEP", "KSEQ", "KSET", "KSEZ", "KSFB", "KSFF", "KSFM", "KSFO", "KSFQ", "KSFY", "KSFZ", "KSGF", "KSGH", "KSGJ", "KSGR", "KSGS", "KSGT", "KSGU", "KSHD", "KSHL", "KSHN", "KSHR", "KSHV", "KSIF", "KSIK", "KSIY", "KSJC", "KSJS", "KSJT", "KSJX", "KSKA", "KSKF", "KSKX", "KSLB", "KSLC", "KSLE", "KSLG", "KSLH", "KSLI", "KSLK", "KSLN", "KSLR", "KSMD", "KSME", "KSMF", "KSMN", "KSMO", "KSMP", "KSMQ", "KSMS", "KSMX", "KSNA", "KSNC", "KSNH", "KSNK", "KSNL", "KSNS", "KSNT", "KSNY", "KSOA", "KSOP", "KSOW", "KSPA", "KSPB", "KSPD", "KSPF", "KSPG", "KSPI", "KSPS", "KSPW", "KSQI", "KSQL", "KSRB", "KSRC", "KSRE", "KSRQ", "KSRR", "KSSC", "KSSF", "KSSI", "KSTC", "KSTE", "KSTF", "KSTJ", "KSTK", "KSTL", "KSTP", "KSTS", "KSUA", "KSUE", "KSUN", "KSUS", "KSUT", "KSUU", "KSUW", "KSUX", "KSUZ", "KSVC", "KSVE", "KSVH", "KSVN", "KSWF", "KSWO", "KSWW", "KSXK", "KSXS", "KSXT", "KSXU", "KSYF", "KSYI", "KSYM", "KSYN", "KSYR", "KSZL", "KSZT", "KSZY", "KT20", "KT35", "KT41", "KT69", "KT70", "KT74", "KT78", "KT82", "KT89", "KTAD", "KTAN", "KTAZ", "KTBN", "KTBR", "KTBX", "KTCC", "KTCL", "KTCM", "KTCS", "KTCY", "KTDF", "KTDR", "KTDZ", "KTEB", "KTEW", "KTEX", "KTFP", "KTGI", "KTHA", "KTHV", "KTIF", "KTIK", "KTIP", "KTIW", "KTIX", "KTKC", "KTKI", "KTKV", "KTKX", "KTLH", "KTMB", "KTME", "KTMK", "KTMT", "KTNB", "KTNU", "KTOA", "KTOB", "KTOC", "KTOI", "KTOL", "KTOP", "KTOR", "KTPA", "KTPH", "KTPL", "KTQE", "KTQH", "KTQK", "KTQV", "KTRI", "KTRK", "KTRL", "KTRM", "KTSP", "KTTA", "KTTD", "KTTF", "KTTN", "KTTS", "KTUL", "KTUP", "KTUS", "KTVC", "KTVF", "KTVI", "KTVL", "KTVR", "KTVY", "KTWF", "KTWM", "KTWT", "KTXK", "KTXW", "KTYL", "KTYQ", "KTYR", "KTYS", "KTZR", "KU42", "KU55", "KU68", "KUAO", "KUBE", "KUCP", "KUCY", "KUDG", "KUES", "KUGN", "KUIL", "KUIN", "KUKF", "KUKI", "KUKL", "KUKT", "KULM", "KULS", "KUMP", "KUNI", "KUNO", "KUNU", "KUNV", "KUOX", "KUSE", "KUTA", "KUTS", "KUUU", "KUVA", "KUXL", "KUYF", "KUZA", "KVAD", "KVAF", "KVAY", "KVBG", "KVBT", "KVCB", "KVCT", "KVCV", "KVDF", "KVDI", "KVEL", "KVER", "KVES", "KVGC", "KVGT", "KVHN", "KVIH", "KVIS", "KVJI", "KVKS", "KVLD", "KVLL", "KVNW", "KVNY", "KVOA", "KVOK", "KVPC", "KVPS", "KVPZ", "KVQQ", "KVRB", "KVSF", "KVTA", "KVTI", "KVTN", "KVTP", "KVUJ", "KVUO", "KVVS", "KVVV", "KVWU", "KVYS", "KW13", "KW22", "KW29", "KW31", "KW43", "KW63", "KW75", "KW78", "KW81", "KW96", "KW99", "KWAL", "KWBF", "KWDG", "KWDR", "KWHP", "KWJF", "KWLD", "KWMC", "KWRB", "KWRI", "KWRL", "KWST", "KWVI", "KWVL", "KWWD", "KWWR", "KX07", "KX26", "KX60", "KXBP", "KXER", "KXIF", "KXLL", "KXMR", "KXNA", "KXNO", "KXNX", "KXSA", "KXVG", "KXWA", "KY19", "KY23", "KY31", "KY49", "KY50", "KY51", "KY63", "KY70", "KYIP", "KYKM", "KYKN", "KYNG", "KZER", "KZPH", "KZZV", "LATI", "LBBG", "LBGO", "LBIA", "LBPD", "LBPG", "LBPL", "LBSF", "LBWB", "LBWN", "LCEN", "LCLK", "LCPH", "LCRA", "LDDU", "LDOS", "LDPL", "LDRI", "LDSP", "LDZA", "LDZD", "LEAB", "LEAG", "LEAL", "LEAM", "LEAO", "LEAS", "LEBA", "LEBB", "LEBG", "LEBL", "LEBR", "LEBT", "LEBZ", "LECH", "LECO", "LECV", "LEDA", "LEGE", "LEGR", "LEGT", "LEHC", "LEIB", "LEJR", "LELC", "LELL", "LELN", "LELO", "LEMD", "LEMG", "LEMH", "LEMI", "LEMO", "LEPA", "LEPP", "LERI", "LERS", "LERT", "LESA", "LESB", "LESO", "LEST", "LESU", "LETL", "LETO", "LETU", "LEVC", "LEVD", "LEVS", "LEVT", "LEVX", "LEXJ", "LEZG", "LEZL", "LFAC", "LFAQ", "LFAT", "LFBA", "LFBC", "LFBD", "LFBE", "LFBF", "LFBG", "LFBH", "LFBI", "LFBL", "LFBM", "LFBO", "LFBT", "LFBU", "LFBX", "LFBY", "LFBZ", "LFCK", "LFCR", "LFGA", "LFGJ", "LFHP", "LFJL", "LFJR", "LFKB", "LFKC", "LFKF", "LFKJ", "LFKS", "LFLB", "LFLC", "LFLH", "LFLL", "LFLN", "LFLP", "LFLS", "LFLU", "LFLV", "LFLW", "LFLX", "LFLY", "LFMC", "LFMD", "LFMH", "LFMI", "LFMK", "LFML", "LFMN", "LFMO", "LFMP", "LFMT", "LFMU", "LFMV", "LFMY", "LFOA", "LFOB", "LFOE", "LFOH", "LFOJ", "LFOK", "LFOP", "LFOT", "LFOV", "LFOZ", "LFPB", "LFPG", "LFPM", "LFPN", "LFPO", "LFPT", "LFPV", "LFQA", "LFQB", "LFQG", "LFQQ", "LFRB", "LFRC", "LFRD", "LFRG", "LFRH", "LFRI", "LFRJ", "LFRK", "LFRL", "LFRM", "LFRN", "LFRO", "LFRQ", "LFRS", "LFRT", "LFRU", "LFRV", "LFRZ", "LFSB", "LFSD", "LFSG", "LFSI", "LFSL", "LFSM", "LFSN", "LFSO", "LFST", "LFSX", "LFTH", "LFTW", "LFVP", "LFYR", "LGAD", "LGAL", "LGAV", "LGBL", "LGEL", "LGHI", "LGIO", "LGIR", "LGKC", "LGKF", "LGKL", "LGKO", "LGKP", "LGKR", "LGKV", "LGKZ", "LGLM", "LGMK", "LGMT", "LGPA", "LGPZ", "LGRP", "LGRX", "LGSA", "LGSK", "LGSM", "LGSO", "LGSR", "LGTS", "LGZA", "LHBP", "LHDC", "LHKE", "LHPA", "LHPP", "LHPR", "LHSM", "LHSN", "LIBA", "LIBC", "LIBD", "LIBF", "LIBG", "LIBN", "LIBP", "LIBQ", "LIBR", "LIBV", "LIBY", "LICA", "LICB", "LICC", "LICD", "LICF", "LICG", "LICJ", "LICR", "LICT", "LICZ", "LIEA", "LIEB", "LIED", "LIEE", "LIEO", "LIMA", "LIMC", "LIME", "LIMF", "LIMG", "LIMH", "LIMJ", "LIMK", "LIML", "LIMN", "LIMP", "LIMS", "LIMU", "LIMV", "LIMW", "LIMY", "LIMZ", "LIPA", "LIPB", "LIPC", "LIPE", "LIPF", "LIPH", "LIPI", "LIPK", "LIPL", "LIPO", "LIPQ", "LIPR", "LIPS", "LIPX", "LIPY", "LIPZ", "LIQC", "LIQN", "LIQO", "LIRA", "LIRE", "LIRF", "LIRG", "LIRH", "LIRI", "LIRK", "LIRL", "LIRM", "LIRN", "LIRP", "LIRQ", "LIRS", "LIRT", "LIRU", "LIRV", "LIRX", "LIRZ", "LIVC", "LIVD", "LIVE", "LIVF", "LIVM", "LIVO", "LIVP", "LIVR", "LIVT", "LJCE", "LJLJ", "LJMB", "LJPZ", "LKCV", "LKKB", "LKKU", "LKKV", "LKLN", "LKMT", "LKNA", "LKPD", "LKPR", "LKTB", "LLBG", "LLER", "LLHA", "LLIB", "LMML", "LOAN", "LOAV", "LOWG", "LOWI", "LOWK", "LOWL", "LOWS", "LOWW", "LOXZ", "LPAR", "LPAZ", "LPBJ", "LPCS", "LPFL", "LPFR", "LPHR", "LPLA", "LPMA", "LPMR", "LPMT", "LPOV", "LPPD", "LPPR", "LPPS", "LPPT", "LPST", "LQBK", "LQMO", "LQSA", "LQTZ", "LRAR", "LRBC", "LRBM", "LRBO", "LRBS", "LRCK", "LRCL", "LRCV", "LRFT", "LRIA", "LROD", "LROP", "LRSB", "LRSM", "LRSV", "LRTC", "LRTM", "LRTR", "LRTZ", "LSGC", "LSGG", "LSGS", "LSMA", "LSMD", "LSME", "LSMM", "LSMP", "LSZA", "LSZB", "LSZC", "LSZG", "LSZH", "LSZL", "LSZR", "LSZS", "LTAC", "LTAE", "LTAF", "LTAG", "LTAI", "LTAJ", "LTAN", "LTAP", "LTAR", "LTAT", "LTAU", "LTAY", "LTAZ", "LTBA", "LTBD", "LTBF", "LTBH", "LTBJ", "LTBQ", "LTBR", "LTBS", "LTBU", "LTBY", "LTCA", "LTCB", "LTCC", "LTCD", "LTCE", "LTCF", "LTCG", "LTCI", "LTCJ", "LTCN", "LTCO", "LTCR", "LTCS", "LTCT", "LTCV", "LTCW", "LTDA", "LTFB", "LTFC", "LTFD", "LTFE", "LTFG", "LTFH", "LTFJ", "LTFM", "LTFO", "LUKK", "LXGB", "LYBE", "LYBT", "LYKV", "LYNI", "LYPG", "LYTV", "LYVR", "LZIB", "LZKZ", "LZPP", "LZTT", "LZZI", "MBGT", "MDAB", "MDBH", "MDCY", "MDJB", "MDLR", "MDPC", "MDPP", "MDSD", "MDST", "MGCB", "MGES", "MGHT", "MGMM", "MGMT", "MGPB", "MGQZ", "MGRT", "MGSJ", "MGTU", "MGZA", "MHCH", "MHGS", "MHLC", "MHLE", "MHLM", "MHNO", "MHPL", "MHRO", "MHSR", "MHTG", "MHTR", "MHYR", "MKJP", "MKJS", "MMBT", "MMCE", "MMCL", "MMCM", "MMCP", "MMCT", "MMCV", "MMCZ", "MMDO", "MMIA", "MMIO", "MMLO", "MMMD", "MMML", "MMMT", "MMMV", "MMMX", "MMPE", "MMPQ", "MMPR", "MMPS", "MMSM", "MMSP", "MMTG", "MMTJ", "MMTM", "MMTO", "MMTP", "MMUN", "MMVA", "MMVR", "MMZH", "MNBL", "MNCH", "MNJG", "MNJU", "MNMG", "MNPC", "MNRS", "MPBO", "MPDA", "MPMG", "MPPA", "MPSM", "MPTO", "MRLM", "MSAC", "MSLP", "MSLU", "MSSA", "MSSS", "MTPP", "MUCC", "MUCF", "MUCL", "MUCM", "MUCU", "MUGM", "MUHA", "MUHG", "MUSC", "MUVR", "MWCB", "MWCR", "MYGF", "MYNN", "MZBZ", "NCRG", "NGTA", "NIUE", "NLWW", "NSFA", "NSTU", "NTAA", "NVSC", "NVVV", "NWWW", "NZAA", "NZCH", "NZCM", "NZFX", "NZSP", "NZWN", "OBBI", "OEAB", "OEAH", "OEAO", "OEBA", "OEBH", "OEDF", "OEDM", "OEDR", "OEGN", "OEGS", "OEGT", "OEHL", "OEJB", "OEJN", "OEKJ", "OEKM", "OEMA", "OEMN", "OENG", "OEPA", "OEPS", "OERF", "OERK", "OERR", "OESH", "OESK", "OETB", "OETF", "OETR", "OEWD", "OEWJ", "OEYN", "OIAA", "OIAG", "OIAH", "OIAM", "OIAW", "OIBA", "OIBB", "OIBH", "OIBJ", "OIBK", "OIBL", "OIBP", "OIBQ", "OIBS", "OIBV", "OICC", "OICI", "OICK", "OICS", "OIFM", "OIFS", "OIGG", "OIHH", "OIHM", "OIIE", "OIII", "OIIK", "OIIP", "OIKB", "OIKK", "OIKQ", "OIMB", "OIMJ", "OIMM", "OIMN", "OIMS", "OIMT", "OINE", "OING", "OINN", "OINR", "OINZ", "OISF", "OISL", "OISR", "OISS", "OISY", "OITL", "OITM", "OITP", "OITR", "OITT", "OITZ", "OIYY", "OIZB", "OIZH", "OIZI", "OIZJ", "OJAI", "OKAS", "OMAA", "OMAD", "OMAL", "OMDB", "OMDW", "OMFJ", "OMRK", "OMSJ", "OOAD", "OODQ", "OOKB", "OOMS", "OOSA", "OOSH", "OPFA", "OPIS", "OPLA", "OPMT", "OPPS", "OPSK", "ORBI", "OTBD", "OTBH", "OTHH", "PAAD", "PAAK", "PAAQ", "PABA", "PABE", "PABI", "PABL", "PABR", "PABT", "PABV", "PACD", "PACV", "PACZ", "PADG", "PADK", "PADL", "PADM", "PADQ", "PADU", "PAED", "PAEG", "PAEH", "PAEI", "PAEN", "PAFA", "PAFB", "PAFE", "PAFM", "PAFR", "PAFS", "PAGA", "PAGK", "PAGL", "PAGN", "PAGS", "PAGY", "PAHL", "PAHN", "PAHO", "PAHX", "PAHY", "PAIG", "PAIK", "PAIL", "PAIM", "PAIN", "PAIW", "PAJN", "PAJZ", "PAKF", "PAKH", "PAKI", "PAKK", "PAKN", "PAKP", "PAKT", "PAKU", "PAKV", "PAKW", "PAKX", "PALG", "PALH", "PALP", "PALU", "PAMB", "PAMD", "PAMH", "PAMK", "PAMR", "PANA", "PANC", "PANI", "PANN", "PANV", "PANW", "PAOH", "PAOM", "PAOO", "PAOR", "PAOT", "PAOU", "PAPB", "PAPG", "PAPH", "PAPM", "PAPO", "PAQH", "PAQT", "PARC", "PARS", "PART", "PARY", "PASA", "PASC", "PASD", "PASH", "PASI", "PASK", "PASM", "PASN", "PASO", "PASV", "PASX", "PASY", "PATA", "PATC", "PATE", "PATK", "PATL", "PATO", "PATQ", "PAUN", "PAUT", "PAVA", "PAVC", "PAVD", "PAWD", "PAWG", "PAWI", "PAWM", "PAWN", "PAWS", "PAYA", "PAZK", "PFCL", "PFEL", "PFKT", "PFKW", "PFNO", "PFSH", "PFWS", "PFYU", "PGSN", "PGUA", "PGUM", "PHBK", "PHHI", "PHJR", "PHKO", "PHLI", "PHMK", "PHNG", "PHNL", "PHNY", "PHOG", "PHSF", "PHTO", "PKMR", "PKWA", "PLCH", "PMDY", "PPIZ", "PTRO", "PTYA", "PWAK", "RCKH", "RCMQ", "RCNN", "RCSS", "RCTP", "RJAA", "RJAH", "RJAW", "RJBB", "RJCC", "RJDB", "RJFF", "RJFR", "RJGG", "RJKA", "RJKI", "RJNK", "RJOH", "RJOI", "RJOO", "RJOS", "RJSM", "RJTT", "RJTY", "RKJB", "RKJK", "RKNY", "RKPC", "RKPK", "RKSG", "RKSI", "RKSM", "RKSO", "RKSS", "RKTN", "RKTU", "ROAH", "RODN", "ROIG", "ROMD", "RORK", "RORY", "ROTM", "ROYN", "RPLB", "RPLC", "RPLI", "RPLL", "RPMD", "RPMZ", "RPVD", "RPVM", "RPVP", "SAAR", "SABE", "SACO", "SADF", "SAEZ", "SAME", "SANT", "SAOC", "SARC", "SARE", "SARF", "SARI", "SARL", "SARP", "SASA", "SASJ", "SAVC", "SAWE", "SAWG", "SAWH", "SAZM", "SAZN", "SAZS", "SBAF", "SBAN", "SBAT", "SBAX", "SBBG", "SBBH", "SBBI", "SBBQ", "SBBR", "SBBU", "SBBW", "SBCA", "SBCC", "SBCF", "SBCG", "SBCH", "SBCJ", "SBCO", "SBCP", "SBCR", "SBCT", "SBCX", "SBCY", "SBCZ", "SBDN", "SBES", "SBFI", "SBFL", "SBFN", "SBFS", "SBGL", "SBGM", "SBGO", "SBGR", "SBGW", "SBHT", "SBIH", "SBIL", "SBIP", "SBIZ", "SBJE", "SBJP", "SBJR", "SBJU", "SBJV", "SBKG", "SBKP", "SBLB", "SBLO", "SBLS", "SBMA", "SBME", "SBMG", "SBMK", "SBMQ", "SBMS", "SBMT", "SBNF", "SBNM", "SBNT", "SBOI", "SBPA", "SBPB", "SBPF", "SBPG", "SBPJ", "SBPK", "SBPL", "SBPP", "SBPR", "SBRB", "SBRJ", "SBRP", "SBSC", "SBSJ", "SBSM", "SBSN", "SBSP", "SBSR", "SBST", "SBTA", "SBTE", "SBTF", "SBTT", "SBTU", "SBUA", "SBUF", "SBUL", "SBUR", "SBUY", "SBVH", "SBVT", "SBYS", "SCAP", "SCAR", "SCAT", "SCBA", "SCCF", "SCCH", "SCCI", "SCCY", "SCDA", "SCFA", "SCGE", "SCGZ", "SCIC", "SCIE", "SCIP", "SCIR", "SCJO", "SCMK", "SCNT", "SCON", "SCPD", "SCPQ", "SCQP", "SCRD", "SCRG", "SCRM", "SCSE", "SCSN", "SCTB", "SCTE", "SCTN", "SCVD", "SECA", "SECO", "SECU", "SEGS", "SEGU", "SEGZ", "SEJD", "SELT", "SEMC", "SEMT", "SENL", "SEQM", "SERB", "SERO", "SESA", "SESM", "SEST", "SETN", "SETU", "SFAL", "SGCO", "SKAR", "SKBG", "SKBO", "SKBQ", "SKCC", "SKCG", "SKCL", "SKEJ", "SKIB", "SKIP", "SKLC", "SKLT", "SKMD", "SKMR", "SKMZ", "SKNV", "SKPC", "SKPE", "SKPS", "SKPV", "SKRG", "SKRH", "SKSM", "SKSP", "SKUC", "SKUI", "SKVP", "SKVV", "SLAL", "SLCA", "SLCB", "SLCO", "SLCP", "SLET", "SLJE", "SLLP", "SLMG", "SLOR", "SLPO", "SLPS", "SLRB", "SLRI", "SLRQ", "SLRY", "SLSA", "SLSV", "SLTJ", "SLTR", "SLVM", "SLVR", "SLYA", "SOCA", "SPCL", "SPEO", "SPGM", "SPHI", "SPHO", "SPHY", "SPJI", "SPJL", "SPJR", "SPLO", "SPME", "SPMS", "SPNC", "SPPY", "SPQT", "SPQU", "SPRU", "SPSO", "SPST", "SPTN", "SPTU", "SPYL", "SPZO", "SUAA", "SUDU", "SULS", "SUMU", "SVBC", "SVBI", "SVBM", "SVBS", "SVCB", "SVCJ", "SVCS", "SVFM", "SVGD", "SVGU", "SVJM", "SVLO", "SVMC", "SVMG", "SVMI", "SVMT", "SVPA", "SVPR", "SVSR", "SVVG", "SYCJ", "SYEC", "SYKM", "SYLT", "SYMB", "TAPA", "TBPB", "TDCF", "TDPD", "TFFF", "TFFR", "TGPY", "TIST", "TISX", "TJBQ", "TJIG", "TJNR", "TJSJ", "TKPK", "TKPN", "TLPC", "TLPL", "TNCB", "TNCC", "TNCE", "TNCM", "TQPF", "TRPG", "TTCP", "TTPP", "TVSA", "TXKF", "UAAA", "UACC", "UACK", "UADD", "UAII", "UAIT", "UAKD", "UAKK", "UAOO", "UARR", "UASK", "UASP", "UATE", "UATG", "UATT", "UAUU", "UBBB", "UBBF", "UBBG", "UBBN", "UBBY", "UBBZ", "UCFL", "UCFM", "UCFO", "UDSG", "UDYZ", "UEEE", "UERP", "UERR", "UGAM", "UGKO", "UGMS", "UGSB", "UGTB", "UHBB", "UHHH", "UHMA", "UHMM", "UHPP", "UHSS", "UHWW", "UIAA", "UIBB", "UIII", "UIUU", "ULAA", "ULLI", "ULMM", "ULOO", "ULPB", "ULWC", "UMGG", "UMII", "UMIO", "UMKK", "UMMS", "UNAA", "UNBB", "UNEE", "UNKL", "UNNT", "UNOO", "UNTT", "UNWW", "UOOO", "URKA", "URKK", "URMG", "URML", "URMM", "URMN", "URMO", "URMT", "URRP", "URSS", "URWA", "URWI", "URWW", "USCC", "USCM", "USDA", "USHH", "USNN", "USPP", "USRR", "USSS", "USTR", "UTAA", "UTAK", "UTAM", "UTAT", "UTAV", "UTDD", "UTDK", "UTDL", "UTDT", "UTFF", "UTFN", "UTNN", "UTNU", "UTO8", "UTSA", "UTSB", "UTSK", "UTSS", "UTST", "UTTT", "UUBC", "UUBP", "UUBW", "UUDD", "UUDL", "UUEE", "UUMO", "UUOB", "UUOK", "UUOL", "UUOO", "UUWW", "UUYY", "UWGG", "UWKD", "UWKE", "UWKS", "UWLL", "UWLW", "UWOO", "UWOR", "UWPS", "UWSG", "UWUU", "UWWW", "VAAH", "VABB", "VABO", "VABP", "VAID", "VAJB", "VANP", "VARK", "VASU", "VAUD", "VCBI", "VCRI", "VDPP", "VDSR", "VDSV", "VEBN", "VEBS", "VECC", "VEGT", "VEGY", "VEPT", "VERC", "VERP", "VGEG", "VGHS", "VHHH", "VIAR", "VIDP", "VIJP", "VILK", "VMMC", "VOBG", "VOBL", "VOBZ", "VOCB", "VOCI", "VOCL", "VOGO", "VOHB", "VOHS", "VOHY", "VOKN", "VOMD", "VOML", "VOMM", "VOPB", "VORY", "VOTP", "VOTR", "VOTV", "VOVZ", "VRMG", "VRMH", "VRMM", "VTBD", "VTBS", "VTBU", "VTCC", "VTCT", "VTPP", "VTSB", "VTSF", "VTSG", "VTSM", "VTSP", "VTSS", "VTUI", "VTUK", "VTUU", "VVCI", "VVCR", "VVCT", "VVDN", "VVNB", "VVPB", "VVPQ", "VVTS", "VYYY", "WAAA", "WABB", "WADD", "WADL", "WAHS", "WAJJ", "WALL", "WAMM", "WAOO", "WAPP", "WAQQ", "WARR", "WBGB", "WBGG", "WBGR", "WBGS", "WBGY", "WBKK", "WBKL", "WBKS", "WBKT", "WBKW", "WBSB", "WIBB", "WIDD", "WIEE", "WIMM", "WIOO", "WIPP", "WMAU", "WMBA", "WMKA", "WMKB", "WMKC", "WMKD", "WMKE", "WMKI", "WMKJ", "WMKK", "WMKL", "WMKM", "WMKN", "WMKP", "WMSA", "WSAP", "WSSL", "WSSS", "YABA", "YAMB", "YBAS", "YBBN", "YBCG", "YBCS", "YBHM", "YBLN", "YBMA", "YBRK", "YBRM", "YBTL", "YBUD", "YBWW", "YCBA", "YCBB", "YCDU", "YCFS", "YCIN", "YEML", "YFRT", "YGEL", "YGLA", "YGTH", "YHID", "YLIS", "YLRE", "YMAV", "YMAY", "YMDG", "YMER", "YMHB", "YMLT", "YMML", "YMOR", "YPAD", "YPCC", "YPDN", "YPEA", "YPGV", "YPJT", "YPKG", "YPKU", "YPLM", "YPPD", "YPPH", "YPTN", "YPWR", "YPXM", "YSCB", "YSDU", "YSNF", "YSNW", "YSRI", "YSSY", "YSTW", "YSWG", "YWGT", "YWHA", "YWLM", "ZBAA", "ZBAD", "ZBHH", "ZBSJ", "ZBTJ", "ZBYN", "ZGGG", "ZGHA", "ZGKL", "ZGNN", "ZGOW", "ZGSZ", "ZHCC", "ZHHH", "ZJHK", "ZJSY", "ZLLL", "ZLXY", "ZPPP", "ZSAM", "ZSFZ", "ZSHC", "ZSJN", "ZSNB", "ZSNJ", "ZSOF", "ZSPD", "ZSQD", "ZSSS", "ZUCK", "ZUGY", "ZUTF", "ZUUU", "ZWSH", "ZWWW", "ZYCC", "ZYHB", "ZYTL", "ZYTX"], "observation_time": ["2022-10-31T15:00:00Z", "2022-10-31T15:50:00Z", "2022-10-31T15:50:00Z", "2022-10-31T15:50:00Z", "2022-10-31T15:50:00Z", "2022-10-31T15:50:00Z", "2022-10-31T15:55:00Z", "2022-10-31T15:00:00Z", "2022-10-31T15:00:00Z", "2022-10-31T15:34:00Z", "2022-10-31T15:00:00Z", "2022-10-31T15:00:00Z", "2022-10-31T15:30:00Z", "2022-10-31T15:00:00Z", "2022-10-31T15:50:00Z", "2022-10-31T15:00:00Z", "2022-10-31T15:00:00Z", "2022-10-31T15:53:00Z", "2022-10-31T15:00:00Z", "2022-10-31T15:06:00Z", "2022-10-31T15:00:00Z", "2022-10-31T15:00:00Z", "2022-10-31T15:00:00Z", "2022-10-31T15:00:00Z", "2022-10-31T15:00:00Z", "2022-10-31T15:48:00Z", "2022-10-31T15:00:00Z", "2022-10-31T15:00:00Z", "2022-10-31T15:00:00Z", "2022-10-31T15:00:00Z", "2022-10-31T15:00:00Z", "2022-10-31T15:00:00Z", "2022-10-31T15:00:00Z", "2022-10-31T15:00:00Z", "2022-10-31T15:00:00Z", "2022-10-31T15:00:00Z", "2022-10-31T15:00:00Z", "2022-10-31T15:00:00Z", "2022-10-31T15:00:00Z", "2022-10-31T15:00:00Z", "2022-10-31T15:00:00Z", "2022-10-31T15:00:00Z", "2022-10-31T15:00:00Z", "2022-10-31T15:00:00Z", "2022-10-31T15:00:00Z", "2022-10-31T15:00:00Z", "2022-10-31T15:00:00Z", "2022-10-31T15:00:00Z", "2022-10-31T15:00:00Z", "2022-10-31T15:00:00Z", "2022-10-31T15:00:00Z", "2022-10-31T15:00:00Z", "2022-10-31T15:00:00Z", "2022-10-31T15:00:00Z", "2022-10-31T15:00:00Z", "2022-10-31T15:00:00Z", "2022-10-31T15:00:00Z", "2022-10-31T15:00:00Z", "2022-10-31T15:00:00Z", "2022-10-31T15:00:00Z", "2022-10-31T15:00:00Z", "2022-10-31T15:00:00Z", "2022-10-31T15:00:00Z", "2022-10-31T15:00:00Z", "2022-10-31T15:00:00Z", "2022-10-31T15:00:00Z", "2022-10-31T15:00:00Z", "2022-10-31T15:00:00Z", "2022-10-31T15:00:00Z", "2022-10-31T15:00:00Z", "2022-10-31T15:00:00Z", "2022-10-31T15:00:00Z", "2022-10-31T15:00:00Z", "2022-10-31T15:00:00Z", "2022-10-31T15:00:00Z", "2022-10-31T15:00:00Z", "2022-10-31T15:00:00Z", "2022-10-31T15:00:00Z", "2022-10-31T15:00:00Z", "2022-10-31T15:00:00Z", "2022-10-31T15:00:00Z", "2022-10-31T15:00:00Z", "2022-10-31T15:00:00Z", "2022-10-31T15:00:00Z", "2022-10-31T15:00:00Z", "2022-10-31T15:00:00Z", "2022-10-31T15:00:00Z", "2022-10-31T15:00:00Z", "2022-10-31T15:00:00Z", "2022-10-31T15:00:00Z", "2022-10-31T15:00:00Z", "2022-10-31T15:00:00Z", "2022-10-31T15:00:00Z", "2022-10-31T15:00:00Z", "2022-10-31T15:00:00Z", "2022-10-31T15:00:00Z", "2022-10-31T15:00:00Z", "2022-10-31T15:00:00Z", "2022-10-31T15:00:00Z", "2022-10-31T15:00:00Z", "2022-10-31T15:00:00Z", "2022-10-31T15:00:00Z", "2022-10-31T15:00:00Z", "2022-10-31T15:00:00Z", "2022-10-31T15:00:00Z", "2022-10-31T15:00:00Z", "2022-10-31T15:00:00Z", "2022-10-31T15:00:00Z", "2022-10-31T15:00:00Z", "2022-10-31T15:00:00Z", "2022-10-31T15:00:00Z", "2022-10-31T15:00:00Z", "2022-10-31T15:00:00Z", "2022-10-31T15:00:00Z", "2022-10-31T15:00:00Z", "2022-10-31T15:00:00Z", "2022-10-31T15:00:00Z", "2022-10-31T15:00:00Z", "2022-10-31T15:00:00Z", "2022-10-31T15:00:00Z", "2022-10-31T15:00:00Z", "2022-10-31T15:00:00Z", "2022-10-31T15:00:00Z", "2022-10-31T15:46:00Z", "2022-10-31T15:00:00Z", "2022-10-31T15:40:00Z", "2022-10-31T15:00:00Z", "2022-10-31T15:00:00Z", "2022-10-31T15:00:00Z", "2022-10-31T15:00:00Z", "2022-10-31T15:00:00Z", "2022-10-31T15:00:00Z", "2022-10-31T15:00:00Z", "2022-10-31T15:00:00Z", "2022-10-31T15:00:00Z", "2022-10-31T15:00:00Z", "2022-10-31T15:00:00Z", "2022-10-31T15:00:00Z", "2022-10-31T15:00:00Z", "2022-10-31T15:00:00Z", "2022-10-31T15:00:00Z", "2022-10-31T15:00:00Z", "2022-10-31T15:00:00Z", "2022-10-31T15:00:00Z", "2022-10-31T15:00:00Z", "2022-10-31T15:00:00Z", "2022-10-31T15:00:00Z", "2022-10-31T15:00:00Z", "2022-10-31T15:00:00Z", "2022-10-31T15:00:00Z", "2022-10-31T15:28:00Z", "2022-10-31T15:00:00Z", "2022-10-31T15:00:00Z", "2022-10-31T15:00:00Z", "2022-10-31T15:00:00Z", "2022-10-31T15:00:00Z", "2022-10-31T15:00:00Z", "2022-10-31T15:00:00Z", "2022-10-31T15:45:00Z", "2022-10-31T15:00:00Z", "2022-10-31T15:00:00Z", "2022-10-31T15:00:00Z", "2022-10-31T15:00:00Z", "2022-10-31T15:00:00Z", "2022-10-31T15:00:00Z", "2022-10-31T15:00:00Z", "2022-10-31T15:00:00Z", "2022-10-31T15:00:00Z", "2022-10-31T15:00:00Z", "2022-10-31T15:00:00Z", "2022-10-31T15:00:00Z", "2022-10-31T15:00:00Z", "2022-10-31T15:00:00Z", "2022-10-31T15:00:00Z", "2022-10-31T15:00:00Z", "2022-10-31T15:00:00Z", "2022-10-31T15:00:00Z", "2022-10-31T15:00:00Z", "2022-10-31T15:00:00Z", "2022-10-31T15:00:00Z", "2022-10-31T15:23:00Z", "2022-10-31T15:00:00Z", "2022-10-31T15:00:00Z", "2022-10-31T15:00:00Z", "2022-10-31T15:00:00Z", "2022-10-31T15:00:00Z", "2022-10-31T15:00:00Z", "2022-10-31T15:00:00Z", "2022-10-31T15:00:00Z", "2022-10-31T15:00:00Z", "2022-10-31T15:00:00Z", "2022-10-31T15:00:00Z", "2022-10-31T15:00:00Z", "2022-10-31T15:00:00Z", "2022-10-31T15:00:00Z", "2022-10-31T15:00:00Z", "2022-10-31T15:00:00Z", "2022-10-31T15:00:00Z", "2022-10-31T15:00:00Z", "2022-10-31T15:00:00Z", "2022-10-31T15:00:00Z", "2022-10-31T15:00:00Z", "2022-10-31T15:00:00Z", "2022-10-31T15:01:00Z", "2022-10-31T15:00:00Z", "2022-10-31T15:00:00Z", "2022-10-31T15:00:00Z", "2022-10-31T15:00:00Z", "2022-10-31T15:00:00Z", "2022-10-31T15:00:00Z", "2022-10-31T15:00:00Z", "2022-10-31T15:00:00Z", "2022-10-31T15:00:00Z", "2022-10-31T15:00:00Z", "2022-10-31T15:00:00Z", "2022-10-31T15:00:00Z", "2022-10-31T15:00:00Z", "2022-10-31T15:00:00Z", "2022-10-31T15:00:00Z", "2022-10-31T15:00:00Z", "2022-10-31T15:00:00Z", "2022-10-31T15:00:00Z", "2022-10-31T15:00:00Z", "2022-10-31T15:00:00Z", "2022-10-31T15:00:00Z", "2022-10-31T15:00:00Z", "2022-10-31T15:00:00Z", "2022-10-31T15:00:00Z", "2022-10-31T15:00:00Z", "2022-10-31T15:00:00Z", "2022-10-31T15:00:00Z", "2022-10-31T15:00:00Z", "2022-10-31T15:00:00Z", "2022-10-31T15:00:00Z", "2022-10-31T15:00:00Z", "2022-10-31T15:00:00Z", "2022-10-31T15:00:00Z", "2022-10-31T15:00:00Z", "2022-10-31T15:00:00Z", "2022-10-31T15:00:00Z", "2022-10-31T15:00:00Z", "2022-10-31T15:00:00Z", "2022-10-31T15:00:00Z", "2022-10-31T15:00:00Z", "2022-10-31T15:00:00Z", "2022-10-31T15:00:00Z", "2022-10-31T15:00:00Z", "2022-10-31T15:00:00Z", "2022-10-31T15:00:00Z", "2022-10-31T15:00:00Z", "2022-10-31T15:00:00Z", "2022-10-31T15:00:00Z", "2022-10-31T15:00:00Z", "2022-10-31T15:00:00Z", "2022-10-31T15:00:00Z", "2022-10-31T15:00:00Z", "2022-10-31T15:00:00Z", "2022-10-31T15:00:00Z", "2022-10-31T15:00:00Z", "2022-10-31T15:00:00Z", "2022-10-31T15:00:00Z", "2022-10-31T15:00:00Z", "2022-10-31T15:00:00Z", "2022-10-31T15:00:00Z", "2022-10-31T15:00:00Z", "2022-10-31T15:00:00Z", "2022-10-31T15:00:00Z", "2022-10-31T15:00:00Z", "2022-10-31T15:00:00Z", "2022-10-31T15:00:00Z", "2022-10-31T15:00:00Z", "2022-10-31T15:00:00Z", "2022-10-31T15:00:00Z", "2022-10-31T15:00:00Z", "2022-10-31T15:00:00Z", "2022-10-31T15:00:00Z", "2022-10-31T15:00:00Z", "2022-10-31T15:00:00Z", "2022-10-31T15:00:00Z", "2022-10-31T15:00:00Z", "2022-10-31T15:00:00Z", "2022-10-31T15:00:00Z", "2022-10-31T15:00:00Z", "2022-10-31T15:00:00Z", "2022-10-31T15:00:00Z", "2022-10-31T15:00:00Z", "2022-10-31T15:00:00Z", "2022-10-31T15:00:00Z", "2022-10-31T15:00:00Z", "2022-10-31T15:00:00Z", "2022-10-31T15:00:00Z", "2022-10-31T15:00:00Z", "2022-10-31T15:00:00Z", "2022-10-31T15:00:00Z", "2022-10-31T15:00:00Z", "2022-10-31T15:00:00Z", "2022-10-31T15:00:00Z", "2022-10-31T15:00:00Z", "2022-10-31T15:00:00Z", "2022-10-31T15:00:00Z", "2022-10-31T15:00:00Z", "2022-10-31T15:00:00Z", "2022-10-31T15:00:00Z", "2022-10-31T15:00:00Z", "2022-10-31T15:00:00Z", "2022-10-31T15:00:00Z", "2022-10-31T15:00:00Z", "2022-10-31T15:00:00Z", "2022-10-31T15:00:00Z", "2022-10-31T15:00:00Z", "2022-10-31T15:00:00Z", "2022-10-31T15:00:00Z", "2022-10-31T15:00:00Z", "2022-10-31T15:00:00Z", "2022-10-31T15:53:00Z", "2022-10-31T15:00:00Z", "2022-10-31T15:00:00Z", "2022-10-31T15:00:00Z", "2022-10-31T15:00:00Z", "2022-10-31T15:00:00Z", "2022-10-31T15:52:00Z", "2022-10-31T15:00:00Z", "2022-10-31T15:33:00Z", "2022-10-31T15:00:00Z", "2022-10-31T15:00:00Z", "2022-10-31T15:00:00Z", "2022-10-31T15:10:00Z", "2022-10-31T15:00:00Z", "2022-10-31T15:29:00Z", "2022-10-31T15:00:00Z", "2022-10-31T15:14:00Z", "2022-10-31T15:00:00Z", "2022-10-31T15:12:00Z", "2022-10-31T15:00:00Z", "2022-10-31T15:00:00Z", "2022-10-31T15:00:00Z", "2022-10-31T15:00:00Z", "2022-10-31T15:00:00Z", "2022-10-31T15:00:00Z", "2022-10-31T15:00:00Z", "2022-10-31T15:00:00Z", "2022-10-31T15:00:00Z", "2022-10-31T15:00:00Z", "2022-10-31T15:00:00Z", "2022-10-31T15:00:00Z", "2022-10-31T15:00:00Z", "2022-10-31T15:00:00Z", "2022-10-31T15:00:00Z", "2022-10-31T15:00:00Z", "2022-10-31T15:00:00Z", "2022-10-31T15:00:00Z", "2022-10-31T15:00:00Z", "2022-10-31T15:00:00Z", "2022-10-31T15:00:00Z", "2022-10-31T15:00:00Z", "2022-10-31T15:00:00Z", "2022-10-31T15:00:00Z", "2022-10-31T15:40:00Z", "2022-10-31T15:45:00Z", "2022-10-31T15:00:00Z", "2022-10-31T15:00:00Z", "2022-10-31T15:00:00Z", "2022-10-31T15:00:00Z", "2022-10-31T15:47:00Z", "2022-10-31T15:00:00Z", "2022-10-31T15:00:00Z", "2022-10-31T15:28:00Z", "2022-10-31T15:00:00Z", "2022-10-31T15:17:00Z", "2022-10-31T15:00:00Z", "2022-10-31T15:00:00Z", "2022-10-31T15:00:00Z", "2022-10-31T15:18:00Z", "2022-10-31T15:00:00Z", "2022-10-31T15:52:00Z", "2022-10-31T15:00:00Z", "2022-10-31T15:00:00Z", "2022-10-31T15:41:00Z", "2022-10-31T15:00:00Z", "2022-10-31T15:00:00Z", "2022-10-31T15:00:00Z", "2022-10-31T15:14:00Z", "2022-10-31T15:00:00Z", "2022-10-31T15:00:00Z", "2022-10-31T15:00:00Z", "2022-10-31T15:00:00Z", "2022-10-31T15:00:00Z", "2022-10-31T15:00:00Z", "2022-10-31T15:56:00Z", "2022-10-31T15:00:00Z", "2022-10-31T15:00:00Z", "2022-10-31T15:00:00Z", "2022-10-31T15:00:00Z", "2022-10-31T15:00:00Z", "2022-10-31T15:00:00Z", "2022-10-31T15:00:00Z", "2022-10-31T15:00:00Z", "2022-10-31T15:00:00Z", "2022-10-31T15:00:00Z", "2022-10-31T15:00:00Z", "2022-10-31T15:25:00Z", "2022-10-31T15:00:00Z", "2022-10-31T15:00:00Z", "2022-10-31T15:46:00Z", "2022-10-31T15:00:00Z", "2022-10-31T15:00:00Z", "2022-10-31T15:00:00Z", "2022-10-31T15:00:00Z", "2022-10-31T15:00:00Z", "2022-10-31T15:00:00Z", "2022-10-31T15:00:00Z", "2022-10-31T15:00:00Z", "2022-10-31T15:00:00Z", "2022-10-31T15:00:00Z", "2022-10-31T15:00:00Z", "2022-10-31T15:00:00Z", "2022-10-31T15:00:00Z", "2022-10-31T15:49:00Z", "2022-10-31T15:00:00Z", "2022-10-31T15:00:00Z", "2022-10-31T15:00:00Z", "2022-10-31T15:44:00Z", "2022-10-31T15:00:00Z", "2022-10-31T15:00:00Z", "2022-10-31T15:00:00Z", "2022-10-31T15:00:00Z", "2022-10-31T15:00:00Z", "2022-10-31T15:00:00Z", "2022-10-31T15:00:00Z", "2022-10-31T15:52:00Z", "2022-10-31T15:32:00Z", "2022-10-31T15:00:00Z", "2022-10-31T15:39:00Z", "2022-10-31T15:00:00Z", "2022-10-31T15:00:00Z", "2022-10-31T15:00:00Z", "2022-10-31T15:54:00Z", "2022-10-31T15:12:00Z", "2022-10-31T15:00:00Z", "2022-10-31T15:00:00Z", "2022-10-31T15:00:00Z", "2022-10-31T15:00:00Z", "2022-10-31T15:00:00Z", "2022-10-31T15:00:00Z", "2022-10-31T15:00:00Z", "2022-10-31T15:00:00Z", "2022-10-31T15:00:00Z", "2022-10-31T15:00:00Z", "2022-10-31T15:00:00Z", "2022-10-31T15:00:00Z", "2022-10-31T15:00:00Z", "2022-10-31T15:00:00Z", "2022-10-31T15:19:00Z", "2022-10-31T15:00:00Z", "2022-10-31T15:00:00Z", "2022-10-31T15:00:00Z", "2022-10-31T15:00:00Z", "2022-10-31T15:00:00Z", "2022-10-31T15:00:00Z", "2022-10-31T15:13:00Z", "2022-10-31T15:00:00Z", "2022-10-31T15:42:00Z", "2022-10-31T15:00:00Z", "2022-10-31T15:49:00Z", "2022-10-31T15:00:00Z", "2022-10-31T15:37:00Z", "2022-10-31T15:00:00Z", "2022-10-31T15:48:00Z", "2022-10-31T15:00:00Z", "2022-10-31T15:46:00Z", "2022-10-31T15:00:00Z", "2022-10-31T15:00:00Z", "2022-10-31T15:49:00Z", "2022-10-31T15:00:00Z", "2022-10-31T15:56:00Z", "2022-10-31T15:00:00Z", "2022-10-31T15:00:00Z", "2022-10-31T15:00:00Z", "2022-10-31T15:00:00Z", "2022-10-31T15:00:00Z", "2022-10-31T15:00:00Z", "2022-10-31T15:00:00Z", "2022-10-31T15:00:00Z", "2022-10-31T15:00:00Z", "2022-10-31T15:00:00Z", "2022-10-31T15:00:00Z", "2022-10-31T15:10:00Z", "2022-10-31T15:00:00Z", "2022-10-31T15:00:00Z", "2022-10-31T15:00:00Z", "2022-10-31T15:00:00Z", "2022-10-31T15:00:00Z", "2022-10-31T15:00:00Z", "2022-10-31T15:52:00Z", "2022-10-31T15:00:00Z", "2022-10-31T15:00:00Z", "2022-10-31T15:00:00Z", "2022-10-31T15:34:00Z", "2022-10-31T15:00:00Z", "2022-10-31T15:00:00Z", "2022-10-31T15:45:00Z", "2022-10-31T15:00:00Z", "2022-10-31T15:00:00Z", "2022-10-31T15:00:00Z", "2022-10-31T15:00:00Z", "2022-10-31T15:38:00Z", "2022-10-31T15:00:00Z", "2022-10-31T15:00:00Z", "2022-10-31T15:16:00Z", "2022-10-31T15:47:00Z", "2022-10-31T15:00:00Z", "2022-10-31T15:00:00Z", "2022-10-31T15:00:00Z", "2022-10-31T15:00:00Z", "2022-10-31T15:24:00Z", "2022-10-31T15:00:00Z", "2022-10-31T15:00:00Z", "2022-10-31T15:00:00Z", "2022-10-31T15:00:00Z", "2022-10-31T15:00:00Z", "2022-10-31T15:55:00Z", "2022-10-31T15:00:00Z", "2022-10-31T15:00:00Z", "2022-10-31T15:38:00Z", "2022-10-31T15:00:00Z", "2022-10-31T15:00:00Z", "2022-10-31T15:00:00Z", "2022-10-31T15:00:00Z", "2022-10-31T15:34:00Z", "2022-10-31T15:08:00Z", "2022-10-31T15:14:00Z", "2022-10-31T15:00:00Z", "2022-10-31T15:00:00Z", "2022-10-31T15:32:00Z", "2022-10-31T15:42:00Z", "2022-10-31T15:54:00Z", "2022-10-31T15:20:00Z", "2022-10-31T15:00:00Z", "2022-10-31T15:00:00Z", "2022-10-31T15:00:00Z", "2022-10-31T15:47:00Z", "2022-10-31T15:00:00Z", "2022-10-31T15:32:00Z", "2022-10-31T15:00:00Z", "2022-10-31T15:00:00Z", "2022-10-31T15:00:00Z", "2022-10-31T15:00:00Z", "2022-10-31T15:00:00Z", "2022-10-31T15:00:00Z", "2022-10-31T15:00:00Z", "2022-10-31T15:24:00Z", "2022-10-31T15:00:00Z", "2022-10-31T15:00:00Z", "2022-10-31T15:00:00Z", "2022-10-31T15:00:00Z", "2022-10-31T15:00:00Z", "2022-10-31T15:00:00Z", "2022-10-31T15:00:00Z", "2022-10-31T15:00:00Z", "2022-10-31T15:00:00Z", "2022-10-31T15:00:00Z", "2022-10-31T15:00:00Z", "2022-10-31T15:00:00Z", "2022-10-31T15:00:00Z", "2022-10-31T15:54:00Z", "2022-10-31T15:00:00Z", "2022-10-31T15:00:00Z", "2022-10-31T15:00:00Z", "2022-10-31T15:00:00Z", "2022-10-31T15:00:00Z", "2022-10-31T15:00:00Z", "2022-10-31T15:30:00Z", "2022-10-31T15:00:00Z", "2022-10-31T15:00:00Z", "2022-10-31T15:00:00Z", "2022-10-31T15:30:00Z", "2022-10-31T15:00:00Z", "2022-10-31T15:00:00Z", "2022-10-31T15:30:00Z", "2022-10-31T15:30:00Z", "2022-10-31T15:00:00Z", "2022-10-31T15:00:00Z", "2022-10-31T15:00:00Z", "2022-10-31T15:00:00Z", "2022-10-31T15:00:00Z", "2022-10-31T15:00:00Z", "2022-10-31T15:00:00Z", "2022-10-31T15:30:00Z", "2022-10-31T15:30:00Z", "2022-10-31T15:00:00Z", "2022-10-31T15:00:00Z", "2022-10-31T15:00:00Z", "2022-10-31T15:00:00Z", "2022-10-31T15:00:00Z", "2022-10-31T15:00:00Z", "2022-10-31T15:00:00Z", "2022-10-31T15:00:00Z", "2022-10-31T15:00:00Z", "2022-10-31T15:00:00Z", "2022-10-31T15:00:00Z", "2022-10-31T15:00:00Z", "2022-10-31T15:00:00Z", "2022-10-31T15:00:00Z", "2022-10-31T15:00:00Z", "2022-10-31T15:00:00Z", "2022-10-31T15:00:00Z", "2022-10-31T15:00:00Z", "2022-10-31T15:00:00Z", "2022-10-31T15:00:00Z", "2022-10-31T15:54:00Z", "2022-10-31T15:00:00Z", "2022-10-31T15:00:00Z", "2022-10-31T15:00:00Z", "2022-10-31T15:00:00Z", "2022-10-31T15:00:00Z", "2022-10-31T15:00:00Z", "2022-10-31T15:00:00Z", "2022-10-31T15:00:00Z", "2022-10-31T15:00:00Z", "2022-10-31T15:00:00Z", "2022-10-31T15:00:00Z", "2022-10-31T15:00:00Z", "2022-10-31T15:00:00Z", "2022-10-31T15:00:00Z", "2022-10-31T15:00:00Z", "2022-10-31T15:30:00Z", "2022-10-31T15:30:00Z", "2022-10-31T15:30:00Z", "2022-10-31T15:00:00Z", "2022-10-31T15:00:00Z", "2022-10-31T15:00:00Z", "2022-10-31T15:00:00Z", "2022-10-31T15:00:00Z", "2022-10-31T15:00:00Z", "2022-10-31T15:00:00Z", "2022-10-31T15:00:00Z", "2022-10-31T15:00:00Z", "2022-10-31T15:00:00Z", "2022-10-31T15:00:00Z", "2022-10-31T15:00:00Z", "2022-10-31T15:00:00Z", "2022-10-31T15:00:00Z", "2022-10-31T15:50:00Z", "2022-10-31T15:25:00Z", "2022-10-31T15:25:00Z", "2022-10-31T15:50:00Z", "2022-10-31T15:50:00Z", "2022-10-31T15:25:00Z", "2022-10-31T15:25:00Z", "2022-10-31T15:25:00Z", "2022-10-31T15:25:00Z", "2022-10-31T15:25:00Z", "2022-10-31T15:50:00Z", "2022-10-31T15:50:00Z", "2022-10-31T15:50:00Z", "2022-10-31T15:50:00Z", "2022-10-31T15:50:00Z", "2022-10-31T15:50:00Z", "2022-10-31T15:50:00Z", "2022-10-31T15:50:00Z", "2022-10-31T15:50:00Z", "2022-10-31T15:50:00Z", "2022-10-31T15:50:00Z", "2022-10-31T15:50:00Z", "2022-10-31T15:50:00Z", "2022-10-31T15:50:00Z", "2022-10-31T15:50:00Z", "2022-10-31T15:50:00Z", "2022-10-31T15:50:00Z", "2022-10-31T15:50:00Z", "2022-10-31T15:50:00Z", "2022-10-31T15:50:00Z", "2022-10-31T15:50:00Z", "2022-10-31T15:50:00Z", "2022-10-31T15:50:00Z", "2022-10-31T15:50:00Z", "2022-10-31T15:50:00Z", "2022-10-31T15:50:00Z", "2022-10-31T15:50:00Z", "2022-10-31T15:50:00Z", "2022-10-31T15:50:00Z", "2022-10-31T15:50:00Z", "2022-10-31T15:50:00Z", "2022-10-31T15:50:00Z", "2022-10-31T15:50:00Z", "2022-10-31T15:50:00Z", "2022-10-31T15:50:00Z", "2022-10-31T15:50:00Z", "2022-10-31T15:50:00Z", "2022-10-31T15:50:00Z", "2022-10-31T15:50:00Z", "2022-10-31T15:50:00Z", "2022-10-31T15:50:00Z", "2022-10-31T15:50:00Z", "2022-10-31T15:50:00Z", "2022-10-31T15:50:00Z", "2022-10-31T15:50:00Z", "2022-10-31T15:50:00Z", "2022-10-31T15:50:00Z", "2022-10-31T15:50:00Z", "2022-10-31T15:50:00Z", "2022-10-31T15:50:00Z", "2022-10-31T15:50:00Z", "2022-10-31T15:50:00Z", "2022-10-31T15:50:00Z", "2022-10-31T15:50:00Z", "2022-10-31T15:50:00Z", "2022-10-31T15:50:00Z", "2022-10-31T15:50:00Z", "2022-10-31T15:50:00Z", "2022-10-31T15:50:00Z", "2022-10-31T15:50:00Z", "2022-10-31T15:50:00Z", "2022-10-31T15:50:00Z", "2022-10-31T15:50:00Z", "2022-10-31T15:50:00Z", "2022-10-31T15:50:00Z", "2022-10-31T15:50:00Z", "2022-10-31T15:50:00Z", "2022-10-31T15:50:00Z", "2022-10-31T15:50:00Z", "2022-10-31T15:50:00Z", "2022-10-31T15:50:00Z", "2022-10-31T15:50:00Z", "2022-10-31T15:50:00Z", "2022-10-31T15:50:00Z", "2022-10-31T15:50:00Z", "2022-10-31T15:50:00Z", "2022-10-31T15:50:00Z", "2022-10-31T15:50:00Z", "2022-10-31T15:50:00Z", "2022-10-31T15:50:00Z", "2022-10-31T15:50:00Z", "2022-10-31T15:50:00Z", "2022-10-31T15:50:00Z", "2022-10-31T15:50:00Z", "2022-10-31T15:50:00Z", "2022-10-31T15:50:00Z", "2022-10-31T15:50:00Z", "2022-10-31T15:50:00Z", "2022-10-31T15:50:00Z", "2022-10-31T15:50:00Z", "2022-10-31T15:50:00Z", "2022-10-31T15:20:00Z", "2022-10-31T15:50:00Z", "2022-10-31T15:50:00Z", "2022-10-31T15:50:00Z", "2022-10-31T15:50:00Z", "2022-10-31T15:50:00Z", "2022-10-31T15:50:00Z", "2022-10-31T15:50:00Z", "2022-10-31T15:50:00Z", "2022-10-31T15:50:00Z", "2022-10-31T15:50:00Z", "2022-10-31T15:50:00Z", "2022-10-31T15:50:00Z", "2022-10-31T15:50:00Z", "2022-10-31T15:50:00Z", "2022-10-31T15:50:00Z", "2022-10-31T15:50:00Z", "2022-10-31T15:50:00Z", "2022-10-31T15:50:00Z", "2022-10-31T15:50:00Z", "2022-10-31T15:50:00Z", "2022-10-31T15:50:00Z", "2022-10-31T15:20:00Z", "2022-10-31T15:20:00Z", "2022-10-31T15:20:00Z", "2022-10-31T15:50:00Z", "2022-10-31T15:50:00Z", "2022-10-31T15:50:00Z", "2022-10-31T15:50:00Z", "2022-10-31T15:50:00Z", "2022-10-31T15:50:00Z", "2022-10-31T15:50:00Z", "2022-10-31T15:50:00Z", "2022-10-31T15:50:00Z", "2022-10-31T15:50:00Z", "2022-10-31T15:50:00Z", "2022-10-31T15:50:00Z", "2022-10-31T15:50:00Z", "2022-10-31T15:50:00Z", "2022-10-31T15:20:00Z", "2022-10-31T14:50:00Z", "2022-10-31T15:20:00Z", "2022-10-31T15:50:00Z", "2022-10-31T15:50:00Z", "2022-10-31T15:50:00Z", "2022-10-31T15:50:00Z", "2022-10-31T15:50:00Z", "2022-10-31T15:50:00Z", "2022-10-31T15:50:00Z", "2022-10-31T15:50:00Z", "2022-10-31T15:50:00Z", "2022-10-31T15:50:00Z", "2022-10-31T15:50:00Z", "2022-10-31T15:55:00Z", "2022-10-31T15:55:00Z", "2022-10-31T15:50:00Z", "2022-10-31T15:54:00Z", "2022-10-31T15:50:00Z", "2022-10-31T15:50:00Z", "2022-10-31T15:50:00Z", "2022-10-31T14:50:00Z", "2022-10-31T15:50:00Z", "2022-10-31T15:50:00Z", "2022-10-31T15:50:00Z", "2022-10-31T14:50:00Z", "2022-10-31T14:50:00Z", "2022-10-31T15:50:00Z", "2022-10-31T15:20:00Z", "2022-10-31T15:21:00Z", "2022-10-31T15:20:00Z", "2022-10-31T15:50:00Z", "2022-10-31T15:50:00Z", "2022-10-31T15:20:00Z", "2022-10-31T15:50:00Z", "2022-10-31T15:20:00Z", "2022-10-31T15:25:00Z", "2022-10-31T15:55:00Z", "2022-10-31T15:55:00Z", "2022-10-31T15:55:00Z", "2022-10-31T15:25:00Z", "2022-10-31T15:55:00Z", "2022-10-31T15:25:00Z", "2022-10-31T15:25:00Z", "2022-10-31T15:55:00Z", "2022-10-31T15:55:00Z", "2022-10-31T15:25:00Z", "2022-10-31T15:25:00Z", "2022-10-31T15:25:00Z", "2022-10-31T15:55:00Z", "2022-10-31T15:25:00Z", "2022-10-31T15:55:00Z", "2022-10-31T15:55:00Z", "2022-10-31T15:25:00Z", "2022-10-31T15:25:00Z", "2022-10-31T15:25:00Z", "2022-10-31T15:25:00Z", "2022-10-31T15:55:00Z", "2022-10-31T15:25:00Z", "2022-10-31T15:25:00Z", "2022-10-31T15:55:00Z", "2022-10-31T15:55:00Z", "2022-10-31T15:55:00Z", "2022-10-31T15:30:00Z", "2022-10-31T15:30:00Z", "2022-10-31T15:30:00Z", "2022-10-31T15:30:00Z", "2022-10-31T15:30:00Z", "2022-10-31T15:00:00Z", "2022-10-31T15:30:00Z", "2022-10-31T15:00:00Z", "2022-10-31T15:30:00Z", "2022-10-31T15:50:00Z", "2022-10-31T15:50:00Z", "2022-10-31T15:50:00Z", "2022-10-31T15:50:00Z", "2022-10-31T15:50:00Z", "2022-10-31T15:50:00Z", "2022-10-31T15:50:00Z", "2022-10-31T15:50:00Z", "2022-10-31T15:50:00Z", "2022-10-31T15:50:00Z", "2022-10-31T15:50:00Z", "2022-10-31T15:50:00Z", "2022-10-31T15:50:00Z", "2022-10-31T15:50:00Z", "2022-10-31T15:50:00Z", "2022-10-31T15:50:00Z", "2022-10-31T15:50:00Z", "2022-10-31T15:50:00Z", "2022-10-31T15:50:00Z", "2022-10-31T15:50:00Z", "2022-10-31T15:50:00Z", "2022-10-31T15:50:00Z", "2022-10-31T15:50:00Z", "2022-10-31T15:50:00Z", "2022-10-31T15:50:00Z", "2022-10-31T15:50:00Z", "2022-10-31T15:50:00Z", "2022-10-31T15:50:00Z", "2022-10-31T15:50:00Z", "2022-10-31T15:50:00Z", "2022-10-31T15:50:00Z", "2022-10-31T15:50:00Z", "2022-10-31T15:50:00Z", "2022-10-31T15:50:00Z", "2022-10-31T15:50:00Z", "2022-10-31T15:50:00Z", "2022-10-31T15:50:00Z", "2022-10-31T15:50:00Z", "2022-10-31T15:50:00Z", "2022-10-31T15:50:00Z", "2022-10-31T15:50:00Z", "2022-10-31T15:50:00Z", "2022-10-31T15:50:00Z", "2022-10-31T15:50:00Z", "2022-10-31T15:50:00Z", "2022-10-31T15:50:00Z", "2022-10-31T15:50:00Z", "2022-10-31T15:50:00Z", "2022-10-31T15:20:00Z", "2022-10-31T15:50:00Z", "2022-10-31T15:50:00Z", "2022-10-31T15:50:00Z", "2022-10-31T15:50:00Z", "2022-10-31T15:50:00Z", "2022-10-31T15:50:00Z", "2022-10-31T15:50:00Z", "2022-10-31T15:50:00Z", "2022-10-31T15:50:00Z", "2022-10-31T15:50:00Z", "2022-10-31T15:50:00Z", "2022-10-31T15:50:00Z", "2022-10-31T15:50:00Z", "2022-10-31T15:50:00Z", "2022-10-31T15:50:00Z", "2022-10-31T15:50:00Z", "2022-10-31T15:50:00Z", "2022-10-31T15:50:00Z", "2022-10-31T15:50:00Z", "2022-10-31T15:50:00Z", "2022-10-31T15:50:00Z", "2022-10-31T15:50:00Z", "2022-10-31T15:50:00Z", "2022-10-31T15:50:00Z", "2022-10-31T15:50:00Z", "2022-10-31T15:50:00Z", "2022-10-31T15:50:00Z", "2022-10-31T15:50:00Z", "2022-10-31T15:50:00Z", "2022-10-31T15:50:00Z", "2022-10-31T15:50:00Z", "2022-10-31T15:30:00Z", "2022-10-31T15:30:00Z", "2022-10-31T15:30:00Z", "2022-10-31T15:30:00Z", "2022-10-31T15:30:00Z", "2022-10-31T15:30:00Z", "2022-10-31T15:30:00Z", "2022-10-31T15:30:00Z", "2022-10-31T15:00:00Z", "2022-10-31T15:30:00Z", "2022-10-31T15:30:00Z", "2022-10-31T15:30:00Z", "2022-10-31T15:30:00Z", "2022-10-31T15:30:00Z", "2022-10-31T15:30:00Z", "2022-10-31T15:50:00Z", "2022-10-31T15:50:00Z", "2022-10-31T15:50:00Z", "2022-10-31T15:50:00Z", "2022-10-31T15:50:00Z", "2022-10-31T15:50:00Z", "2022-10-31T15:50:00Z", "2022-10-31T15:50:00Z", "2022-10-31T15:50:00Z", "2022-10-31T15:50:00Z", "2022-10-31T15:50:00Z", "2022-10-31T15:50:00Z", "2022-10-31T15:50:00Z", "2022-10-31T15:50:00Z", "2022-10-31T15:50:00Z", "2022-10-31T15:50:00Z", "2022-10-31T15:50:00Z", "2022-10-31T15:50:00Z", "2022-10-31T15:50:00Z", "2022-10-31T15:50:00Z", "2022-10-31T15:50:00Z", "2022-10-31T15:50:00Z", "2022-10-31T15:50:00Z", "2022-10-31T15:50:00Z", "2022-10-31T15:50:00Z", "2022-10-31T15:50:00Z", "2022-10-31T15:50:00Z", "2022-10-31T15:50:00Z", "2022-10-31T15:50:00Z", "2022-10-31T15:50:00Z", "2022-10-31T15:50:00Z", "2022-10-31T15:50:00Z", "2022-10-31T15:50:00Z", "2022-10-31T15:50:00Z", "2022-10-31T15:50:00Z", "2022-10-31T15:50:00Z", "2022-10-31T15:50:00Z", "2022-10-31T15:50:00Z", "2022-10-31T15:50:00Z", "2022-10-31T15:50:00Z", "2022-10-31T15:50:00Z", "2022-10-31T15:50:00Z", "2022-10-31T15:50:00Z", "2022-10-31T15:50:00Z", "2022-10-31T15:50:00Z", "2022-10-31T15:50:00Z", "2022-10-31T15:55:00Z", "2022-10-31T14:55:00Z", "2022-10-31T14:55:00Z", "2022-10-31T15:20:00Z", "2022-10-31T15:20:00Z", "2022-10-31T15:20:00Z", "2022-10-31T15:20:00Z", "2022-10-31T15:20:00Z", "2022-10-31T15:20:00Z", "2022-10-31T15:20:00Z", "2022-10-31T15:20:00Z", "2022-10-31T15:50:00Z", "2022-10-31T14:55:00Z", "2022-10-31T14:55:00Z", "2022-10-31T15:20:00Z", "2022-10-31T15:50:00Z", "2022-10-31T15:20:00Z", "2022-10-31T15:20:00Z", "2022-10-31T15:20:00Z", "2022-10-31T15:20:00Z", "2022-10-31T15:20:00Z", "2022-10-31T15:20:00Z", "2022-10-31T14:56:00Z", "2022-10-31T15:20:00Z", "2022-10-31T15:20:00Z", "2022-10-31T15:20:00Z", "2022-10-31T15:20:00Z", "2022-10-31T15:20:00Z", "2022-10-31T15:20:00Z", "2022-10-31T15:50:00Z", "2022-10-31T15:50:00Z", "2022-10-31T15:50:00Z", "2022-10-31T15:50:00Z", "2022-10-31T15:50:00Z", "2022-10-31T15:50:00Z", "2022-10-31T15:50:00Z", "2022-10-31T15:50:00Z", "2022-10-31T15:00:00Z", "2022-10-31T15:00:00Z", "2022-10-31T15:00:00Z", "2022-10-31T15:00:00Z", "2022-10-31T15:00:00Z", "2022-10-31T14:45:00Z", "2022-10-31T15:00:00Z", "2022-10-31T15:00:00Z", "2022-10-31T15:00:00Z", "2022-10-31T15:00:00Z", "2022-10-31T15:00:00Z", "2022-10-31T15:00:00Z", "2022-10-31T15:00:00Z", "2022-10-31T15:30:00Z", "2022-10-31T15:00:00Z", "2022-10-31T15:00:00Z", "2022-10-31T15:00:00Z", "2022-10-31T15:00:00Z", "2022-10-31T15:00:00Z", "2022-10-31T15:00:00Z", "2022-10-31T15:00:00Z", "2022-10-31T15:00:00Z", "2022-10-31T15:00:00Z", "2022-10-31T15:00:00Z", "2022-10-31T15:00:00Z", "2022-10-31T15:00:00Z", "2022-10-31T15:00:00Z", "2022-10-31T15:55:00Z", "2022-10-31T15:30:00Z", "2022-10-31T15:30:00Z", "2022-10-31T15:30:00Z", "2022-10-31T15:30:00Z", "2022-10-31T15:00:00Z", "2022-10-31T15:00:00Z", "2022-10-31T15:00:00Z", "2022-10-31T15:00:00Z", "2022-10-31T15:00:00Z", "2022-10-31T15:00:00Z", "2022-10-31T15:00:00Z", "2022-10-31T15:00:00Z", "2022-10-31T15:00:00Z", "2022-10-31T15:00:00Z", "2022-10-31T15:00:00Z", "2022-10-31T15:00:00Z", "2022-10-31T15:00:00Z", "2022-10-31T15:00:00Z", "2022-10-31T15:00:00Z", "2022-10-31T15:00:00Z", "2022-10-31T15:00:00Z", "2022-10-31T15:00:00Z", "2022-10-31T15:30:00Z", "2022-10-31T15:00:00Z", "2022-10-31T15:00:00Z", "2022-10-31T15:00:00Z", "2022-10-31T15:00:00Z", "2022-10-31T15:00:00Z", "2022-10-31T15:00:00Z", "2022-10-31T15:00:00Z", "2022-10-31T15:00:00Z", "2022-10-31T15:00:00Z", "2022-10-31T15:00:00Z", "2022-10-31T15:00:00Z", "2022-10-31T15:00:00Z", "2022-10-31T15:00:00Z", "2022-10-31T15:00:00Z", "2022-10-31T15:00:00Z", "2022-10-31T15:00:00Z", "2022-10-31T15:30:00Z", "2022-10-31T15:00:00Z", "2022-10-31T15:00:00Z", "2022-10-31T15:00:00Z", "2022-10-31T15:30:00Z", "2022-10-31T15:30:00Z", "2022-10-31T15:30:00Z", "2022-10-31T15:30:00Z", "2022-10-31T15:30:00Z", "2022-10-31T15:30:00Z", "2022-10-31T15:30:00Z", "2022-10-31T15:30:00Z", "2022-10-31T15:30:00Z", "2022-10-31T15:30:00Z", "2022-10-31T15:00:00Z", "2022-10-31T15:30:00Z", "2022-10-31T15:00:00Z", "2022-10-31T15:00:00Z", "2022-10-31T15:00:00Z", "2022-10-31T15:00:00Z", "2022-10-31T15:30:00Z", "2022-10-31T15:00:00Z", "2022-10-31T15:00:00Z", "2022-10-31T15:30:00Z", "2022-10-31T15:00:00Z", "2022-10-31T15:00:00Z", "2022-10-31T15:00:00Z", "2022-10-31T15:30:00Z", "2022-10-31T15:00:00Z", "2022-10-31T15:00:00Z", "2022-10-31T15:00:00Z", "2022-10-31T15:30:00Z", "2022-10-31T15:00:00Z", "2022-10-31T15:30:00Z", "2022-10-31T15:00:00Z", "2022-10-31T15:00:00Z", "2022-10-31T15:00:00Z", "2022-10-31T15:30:00Z", "2022-10-31T15:30:00Z", "2022-10-31T15:00:00Z", "2022-10-31T15:00:00Z", "2022-10-31T15:00:00Z", "2022-10-31T15:00:00Z", "2022-10-31T15:00:00Z", "2022-10-31T15:00:00Z", "2022-10-31T15:00:00Z", "2022-10-31T15:00:00Z", "2022-10-31T15:00:00Z", "2022-10-31T15:00:00Z", "2022-10-31T15:00:00Z", "2022-10-31T15:00:00Z", "2022-10-31T15:30:00Z", "2022-10-31T15:00:00Z", "2022-10-31T15:00:00Z", "2022-10-31T15:00:00Z", "2022-10-31T15:00:00Z", "2022-10-31T15:00:00Z", "2022-10-31T15:00:00Z", "2022-10-31T15:00:00Z", "2022-10-31T15:00:00Z", "2022-10-31T15:00:00Z", "2022-10-31T15:00:00Z", "2022-10-31T15:00:00Z", "2022-10-31T15:00:00Z", "2022-10-31T15:00:00Z", "2022-10-31T15:00:00Z", "2022-10-31T15:00:00Z", "2022-10-31T15:00:00Z", "2022-10-31T15:00:00Z", "2022-10-31T15:00:00Z", "2022-10-31T15:00:00Z", "2022-10-31T15:30:00Z", "2022-10-31T15:30:00Z", "2022-10-31T15:00:00Z", "2022-10-31T15:00:00Z", "2022-10-31T15:00:00Z", "2022-10-31T15:00:00Z", "2022-10-31T15:00:00Z", "2022-10-31T15:00:00Z", "2022-10-31T15:00:00Z", "2022-10-31T15:00:00Z", "2022-10-31T15:00:00Z", "2022-10-31T15:00:00Z", "2022-10-31T15:00:00Z", "2022-10-31T15:00:00Z", "2022-10-31T15:30:00Z", "2022-10-31T15:35:00Z", "2022-10-31T15:55:00Z", "2022-10-31T15:55:00Z", "2022-10-31T15:35:00Z", "2022-10-31T15:55:00Z", "2022-10-31T15:55:00Z", "2022-10-31T15:55:00Z", "2022-10-31T15:55:00Z", "2022-10-31T15:55:00Z", "2022-10-31T15:55:00Z", "2022-10-31T15:55:00Z", "2022-10-31T14:58:00Z", "2022-10-31T15:55:00Z", "2022-10-31T15:35:00Z", "2022-10-31T15:55:00Z", "2022-10-31T15:55:00Z", "2022-10-31T15:55:00Z", "2022-10-31T15:55:00Z", "2022-10-31T15:55:00Z", "2022-10-31T15:54:00Z", "2022-10-31T15:35:00Z", "2022-10-31T15:55:00Z", "2022-10-31T15:55:00Z", "2022-10-31T15:35:00Z", "2022-10-31T15:35:00Z", "2022-10-31T15:35:00Z", "2022-10-31T15:35:00Z", "2022-10-31T15:55:00Z", "2022-10-31T15:35:00Z", "2022-10-31T15:55:00Z", "2022-10-31T15:55:00Z", "2022-10-31T15:55:00Z", "2022-10-31T15:55:00Z", "2022-10-31T15:55:00Z", "2022-10-31T15:55:00Z", "2022-10-31T15:55:00Z", "2022-10-31T15:35:00Z", "2022-10-31T15:55:00Z", "2022-10-31T15:55:00Z", "2022-10-31T15:55:00Z", "2022-10-31T15:55:00Z", "2022-10-31T15:30:00Z", "2022-10-31T15:55:00Z", "2022-10-31T15:55:00Z", "2022-10-31T15:35:00Z", "2022-10-31T15:55:00Z", "2022-10-31T15:55:00Z", "2022-10-31T15:55:00Z", "2022-10-31T15:55:00Z", "2022-10-31T15:55:00Z", "2022-10-31T15:55:00Z", "2022-10-31T15:55:00Z", "2022-10-31T15:55:00Z", "2022-10-31T15:55:00Z", "2022-10-31T15:56:00Z", "2022-10-31T15:55:00Z", "2022-10-31T15:55:00Z", "2022-10-31T15:55:00Z", "2022-10-31T15:55:00Z", "2022-10-31T15:55:00Z", "2022-10-31T15:55:00Z", "2022-10-31T15:55:00Z", "2022-10-31T15:55:00Z", "2022-10-31T15:35:00Z", "2022-10-31T15:45:00Z", "2022-10-31T15:55:00Z", "2022-10-31T15:35:00Z", "2022-10-31T15:54:00Z", "2022-10-31T15:55:00Z", "2022-10-31T15:55:00Z", "2022-10-31T15:55:00Z", "2022-10-31T15:35:00Z", "2022-10-31T15:55:00Z", "2022-10-31T15:55:00Z", "2022-10-31T15:55:00Z", "2022-10-31T15:55:00Z", "2022-10-31T15:55:00Z", "2022-10-31T15:55:00Z", "2022-10-31T15:55:00Z", "2022-10-31T15:55:00Z", "2022-10-31T15:55:00Z", "2022-10-31T15:55:00Z", "2022-10-31T15:55:00Z", "2022-10-31T15:35:00Z", "2022-10-31T15:35:00Z", "2022-10-31T15:35:00Z", "2022-10-31T15:35:00Z", "2022-10-31T15:35:00Z", "2022-10-31T15:55:00Z", "2022-10-31T15:50:00Z", "2022-10-31T15:55:00Z", "2022-10-31T15:35:00Z", "2022-10-31T15:35:00Z", "2022-10-31T15:39:00Z", "2022-10-31T15:56:00Z", "2022-10-31T15:55:00Z", "2022-10-31T15:35:00Z", "2022-10-31T15:55:00Z", "2022-10-31T15:55:00Z", "2022-10-31T15:45:00Z", "2022-10-31T15:55:00Z", "2022-10-31T15:55:00Z", "2022-10-31T15:35:00Z", "2022-10-31T15:55:00Z", "2022-10-31T15:55:00Z", "2022-10-31T15:35:00Z", "2022-10-31T15:55:00Z", "2022-10-31T15:55:00Z", "2022-10-31T15:55:00Z", "2022-10-31T15:55:00Z", "2022-10-31T15:45:00Z", "2022-10-31T15:16:00Z", "2022-10-31T15:35:00Z", "2022-10-31T15:35:00Z", "2022-10-31T15:55:00Z", "2022-10-31T15:55:00Z", "2022-10-31T15:55:00Z", "2022-10-31T15:35:00Z", "2022-10-31T15:35:00Z", "2022-10-31T15:55:00Z", "2022-10-31T15:35:00Z", "2022-10-31T15:35:00Z", "2022-10-31T15:55:00Z", "2022-10-31T15:55:00Z", "2022-10-31T15:55:00Z", "2022-10-31T15:35:00Z", "2022-10-31T15:55:00Z", "2022-10-31T15:35:00Z", "2022-10-31T15:55:00Z", "2022-10-31T15:30:00Z", "2022-10-31T15:55:00Z", "2022-10-31T15:55:00Z", "2022-10-31T15:35:00Z", "2022-10-31T15:35:00Z", "2022-10-31T15:55:00Z", "2022-10-31T15:35:00Z", "2022-10-31T15:35:00Z", "2022-10-31T15:35:00Z", "2022-10-31T15:35:00Z", "2022-10-31T15:55:00Z", "2022-10-31T15:35:00Z", "2022-10-31T15:35:00Z", "2022-10-31T15:55:00Z", "2022-10-31T15:55:00Z", "2022-10-31T15:55:00Z", "2022-10-31T15:35:00Z", "2022-10-31T15:55:00Z", "2022-10-31T15:35:00Z", "2022-10-31T15:51:00Z", "2022-10-31T15:35:00Z", "2022-10-31T15:55:00Z", "2022-10-31T15:40:00Z", "2022-10-31T15:35:00Z", "2022-10-31T15:55:00Z", "2022-10-31T14:56:00Z", "2022-10-31T15:35:00Z", "2022-10-31T15:55:00Z", "2022-10-31T15:56:00Z", "2022-10-31T15:55:00Z", "2022-10-31T15:35:00Z", "2022-10-31T15:55:00Z", "2022-10-31T15:55:00Z", "2022-10-31T15:35:00Z", "2022-10-31T15:55:00Z", "2022-10-31T15:56:00Z", "2022-10-31T15:35:00Z", "2022-10-31T15:55:00Z", "2022-10-31T15:55:00Z", "2022-10-31T15:35:00Z", "2022-10-31T15:55:00Z", "2022-10-31T15:55:00Z", "2022-10-31T15:55:00Z", "2022-10-31T14:55:00Z", "2022-10-31T15:35:00Z", "2022-10-31T15:35:00Z", "2022-10-31T15:53:00Z", "2022-10-31T15:54:00Z", "2022-10-31T15:55:00Z", "2022-10-31T15:55:00Z", "2022-10-31T15:51:00Z", "2022-10-31T15:55:00Z", "2022-10-31T15:52:00Z", "2022-10-31T15:52:00Z", "2022-10-31T15:53:00Z", "2022-10-31T15:53:00Z", "2022-10-31T15:55:00Z", "2022-10-31T15:53:00Z", "2022-10-31T15:55:00Z", "2022-10-31T15:55:00Z", "2022-10-31T15:51:00Z", "2022-10-31T15:53:00Z", "2022-10-31T15:54:00Z", "2022-10-31T15:56:00Z", "2022-10-31T15:53:00Z", "2022-10-31T15:35:00Z", "2022-10-31T15:50:00Z", "2022-10-31T15:47:00Z", "2022-10-31T15:35:00Z", "2022-10-31T15:35:00Z", "2022-10-31T15:55:00Z", "2022-10-31T15:47:00Z", "2022-10-31T15:55:00Z", "2022-10-31T15:55:00Z", "2022-10-31T15:53:00Z", "2022-10-31T15:55:00Z", "2022-10-31T15:56:00Z", "2022-10-31T15:35:00Z", "2022-10-31T15:52:00Z", "2022-10-31T15:35:00Z", "2022-10-31T15:55:00Z", "2022-10-31T15:53:00Z", "2022-10-31T15:53:00Z", "2022-10-31T15:55:00Z", "2022-10-31T15:55:00Z", "2022-10-31T15:53:00Z", "2022-10-31T15:51:00Z", "2022-10-31T15:35:00Z", "2022-10-31T15:53:00Z", "2022-10-31T15:55:00Z", "2022-10-31T15:55:00Z", "2022-10-31T15:55:00Z", "2022-10-31T15:35:00Z", "2022-10-31T15:55:00Z", "2022-10-31T15:56:00Z", "2022-10-31T15:35:00Z", "2022-10-31T15:56:00Z", "2022-10-31T15:35:00Z", "2022-10-31T15:35:00Z", "2022-10-31T15:54:00Z", "2022-10-31T15:53:00Z", "2022-10-31T15:54:00Z", "2022-10-31T15:54:00Z", "2022-10-31T15:51:00Z", "2022-10-31T15:53:00Z", "2022-10-31T14:56:00Z", "2022-10-31T15:55:00Z", "2022-10-31T15:50:00Z", "2022-10-31T15:54:00Z", "2022-10-31T15:52:00Z", "2022-10-31T15:53:00Z", "2022-10-31T15:55:00Z", "2022-10-31T15:53:00Z", "2022-10-31T15:53:00Z", "2022-10-31T15:55:00Z", "2022-10-31T15:53:00Z", "2022-10-31T15:53:00Z", "2022-10-31T15:54:00Z", "2022-10-31T15:47:00Z", "2022-10-31T15:55:00Z", "2022-10-31T15:30:00Z", "2022-10-31T15:55:00Z", "2022-10-31T15:55:00Z", "2022-10-31T14:53:00Z", "2022-10-31T15:53:00Z", "2022-10-31T15:53:00Z", "2022-10-31T15:54:00Z", "2022-10-31T15:53:00Z", "2022-10-31T14:58:00Z", "2022-10-31T15:54:00Z", "2022-10-31T15:36:00Z", "2022-10-31T15:35:00Z", "2022-10-31T15:53:00Z", "2022-10-31T14:57:00Z", "2022-10-31T15:52:00Z", "2022-10-31T15:55:00Z", "2022-10-31T15:53:00Z", "2022-10-31T15:53:00Z", "2022-10-31T15:56:00Z", "2022-10-31T15:55:00Z", "2022-10-31T15:52:00Z", "2022-10-31T14:56:00Z", "2022-10-31T15:55:00Z", "2022-10-31T15:55:00Z", "2022-10-31T15:53:00Z", "2022-10-31T15:53:00Z", "2022-10-31T15:48:00Z", "2022-10-31T15:56:00Z", "2022-10-31T15:55:00Z", "2022-10-31T15:35:00Z", "2022-10-31T15:55:00Z", "2022-10-31T15:55:00Z", "2022-10-31T15:35:00Z", "2022-10-31T15:53:00Z", "2022-10-31T15:55:00Z", "2022-10-31T15:52:00Z", "2022-10-31T15:35:00Z", "2022-10-31T15:55:00Z", "2022-10-31T15:51:00Z", "2022-10-31T15:45:00Z", "2022-10-31T15:53:00Z", "2022-10-31T15:53:00Z", "2022-10-31T15:35:00Z", "2022-10-31T15:55:00Z", "2022-10-31T15:35:00Z", "2022-10-31T15:56:00Z", "2022-10-31T15:53:00Z", "2022-10-31T15:54:00Z", "2022-10-31T15:55:00Z", "2022-10-31T15:55:00Z", "2022-10-31T15:54:00Z", "2022-10-31T15:54:00Z", "2022-10-31T15:35:00Z", "2022-10-31T15:51:00Z", "2022-10-31T15:35:00Z", "2022-10-31T15:53:00Z", "2022-10-31T15:56:00Z", "2022-10-31T15:35:00Z", "2022-10-31T15:55:00Z", "2022-10-31T15:53:00Z", "2022-10-31T15:55:00Z", "2022-10-31T15:55:00Z", "2022-10-31T15:35:00Z", "2022-10-31T15:35:00Z", "2022-10-31T15:55:00Z", "2022-10-31T15:35:00Z", "2022-10-31T15:53:00Z", "2022-10-31T15:55:00Z", "2022-10-31T15:55:00Z", "2022-10-31T15:55:00Z", "2022-10-31T15:53:00Z", "2022-10-31T15:45:00Z", "2022-10-31T15:55:00Z", "2022-10-31T15:52:00Z", "2022-10-31T15:35:00Z", "2022-10-31T15:51:00Z", "2022-10-31T15:55:00Z", "2022-10-31T15:35:00Z", "2022-10-31T15:47:00Z", "2022-10-31T15:35:00Z", "2022-10-31T15:53:00Z", "2022-10-31T15:55:00Z", "2022-10-31T15:53:00Z", "2022-10-31T15:55:00Z", "2022-10-31T14:58:00Z", "2022-10-31T15:53:00Z", "2022-10-31T15:53:00Z", "2022-10-31T15:35:00Z", "2022-10-31T15:55:00Z", "2022-10-31T15:51:00Z", "2022-10-31T15:50:00Z", "2022-10-31T15:52:00Z", "2022-10-31T15:55:00Z", "2022-10-31T15:55:00Z", "2022-10-31T15:35:00Z", "2022-10-31T15:51:00Z", "2022-10-31T15:53:00Z", "2022-10-31T15:53:00Z", "2022-10-31T15:53:00Z", "2022-10-31T15:53:00Z", "2022-10-31T15:54:00Z", "2022-10-31T15:53:00Z", "2022-10-31T15:51:00Z", "2022-10-31T15:35:00Z", "2022-10-31T15:55:00Z", "2022-10-31T15:53:00Z", "2022-10-31T15:53:00Z", "2022-10-31T15:56:00Z", "2022-10-31T15:35:00Z", "2022-10-31T15:51:00Z", "2022-10-31T15:53:00Z", "2022-10-31T15:56:00Z", "2022-10-31T15:35:00Z", "2022-10-31T14:55:00Z", "2022-10-31T14:56:00Z", "2022-10-31T15:35:00Z", "2022-10-31T15:53:00Z", "2022-10-31T15:52:00Z", "2022-10-31T15:53:00Z", "2022-10-31T15:55:00Z", "2022-10-31T15:48:00Z", "2022-10-31T15:35:00Z", "2022-10-31T15:51:00Z", "2022-10-31T15:52:00Z", "2022-10-31T15:55:00Z", "2022-10-31T15:53:00Z", "2022-10-31T14:58:00Z", "2022-10-31T15:53:00Z", "2022-10-31T15:55:00Z", "2022-10-31T15:55:00Z", "2022-10-31T15:53:00Z", "2022-10-31T15:51:00Z", "2022-10-31T15:35:00Z", "2022-10-31T15:52:00Z", "2022-10-31T15:52:00Z", "2022-10-31T15:53:00Z", "2022-10-31T15:56:00Z", "2022-10-31T15:52:00Z", "2022-10-31T15:55:00Z", "2022-10-31T15:30:00Z", "2022-10-31T15:53:00Z", "2022-10-31T15:56:00Z", "2022-10-31T15:52:00Z", "2022-10-31T15:53:00Z", "2022-10-31T15:35:00Z", "2022-10-31T15:53:00Z", "2022-10-31T15:55:00Z", "2022-10-31T15:53:00Z", "2022-10-31T15:55:00Z", "2022-10-31T15:53:00Z", "2022-10-31T15:56:00Z", "2022-10-31T15:54:00Z", "2022-10-31T15:45:00Z", "2022-10-31T15:35:00Z", "2022-10-31T15:53:00Z", "2022-10-31T14:53:00Z", "2022-10-31T15:53:00Z", "2022-10-31T15:35:00Z", "2022-10-31T15:35:00Z", "2022-10-31T15:35:00Z", "2022-10-31T15:53:00Z", "2022-10-31T15:55:00Z", "2022-10-31T15:53:00Z", "2022-10-31T15:53:00Z", "2022-10-31T15:55:00Z", "2022-10-31T15:55:00Z", "2022-10-31T15:53:00Z", "2022-10-31T15:53:00Z", "2022-10-31T15:55:00Z", "2022-10-31T15:56:00Z", "2022-10-31T15:53:00Z", "2022-10-31T15:54:00Z", "2022-10-31T15:54:00Z", "2022-10-31T15:53:00Z", "2022-10-31T15:35:00Z", "2022-10-31T15:54:00Z", "2022-10-31T15:55:00Z", "2022-10-31T15:35:00Z", "2022-10-31T15:53:00Z", "2022-10-31T15:35:00Z", "2022-10-31T15:55:00Z", "2022-10-31T15:56:00Z", "2022-10-31T15:53:00Z", "2022-10-31T15:53:00Z", "2022-10-31T15:54:00Z", "2022-10-31T15:55:00Z", "2022-10-31T15:55:00Z", "2022-10-31T15:55:00Z", "2022-10-31T15:55:00Z", "2022-10-31T15:53:00Z", "2022-10-31T15:53:00Z", "2022-10-31T15:35:00Z", "2022-10-31T15:55:00Z", "2022-10-31T15:35:00Z", "2022-10-31T14:56:00Z", "2022-10-31T15:55:00Z", "2022-10-31T15:55:00Z", "2022-10-31T15:55:00Z", "2022-10-31T15:35:00Z", "2022-10-31T15:35:00Z", "2022-10-31T15:35:00Z", "2022-10-31T15:55:00Z", "2022-10-31T15:31:00Z", "2022-10-31T15:55:00Z", "2022-10-31T15:21:00Z", "2022-10-31T15:53:00Z", "2022-10-31T15:51:00Z", "2022-10-31T14:55:00Z", "2022-10-31T15:54:00Z", "2022-10-31T15:35:00Z", "2022-10-31T15:35:00Z", "2022-10-31T15:55:00Z", "2022-10-31T15:35:00Z", "2022-10-31T15:40:00Z", "2022-10-31T15:55:00Z", "2022-10-31T14:55:00Z", "2022-10-31T15:35:00Z", "2022-10-31T15:53:00Z", "2022-10-31T15:35:00Z", "2022-10-31T15:55:00Z", "2022-10-31T15:55:00Z", "2022-10-31T15:53:00Z", "2022-10-31T15:35:00Z", "2022-10-31T15:55:00Z", "2022-10-31T15:55:00Z", "2022-10-31T15:51:00Z", "2022-10-31T15:55:00Z", "2022-10-31T15:53:00Z", "2022-10-31T15:53:00Z", "2022-10-31T15:53:00Z", "2022-10-31T15:15:00Z", "2022-10-31T14:55:00Z", "2022-10-31T15:54:00Z", "2022-10-31T15:53:00Z", "2022-10-31T15:55:00Z", "2022-10-31T15:53:00Z", "2022-10-31T15:35:00Z", "2022-10-31T15:55:00Z", "2022-10-31T15:55:00Z", "2022-10-31T14:47:00Z", "2022-10-31T15:35:00Z", "2022-10-31T15:52:00Z", "2022-10-31T15:55:00Z", "2022-10-31T15:35:00Z", "2022-10-31T15:45:00Z", "2022-10-31T15:53:00Z", "2022-10-31T15:35:00Z", "2022-10-31T15:56:00Z", "2022-10-31T15:53:00Z", "2022-10-31T14:47:00Z", "2022-10-31T15:30:00Z", "2022-10-31T14:56:00Z", "2022-10-31T15:15:00Z", "2022-10-31T15:52:00Z", "2022-10-31T15:40:00Z", "2022-10-31T15:35:00Z", "2022-10-31T15:55:00Z", "2022-10-31T15:56:00Z", "2022-10-31T15:55:00Z", "2022-10-31T15:53:00Z", "2022-10-31T15:55:00Z", "2022-10-31T15:35:00Z", "2022-10-31T15:55:00Z", "2022-10-31T15:55:00Z", "2022-10-31T15:35:00Z", "2022-10-31T15:35:00Z", "2022-10-31T15:33:00Z", "2022-10-31T15:55:00Z", "2022-10-31T15:51:00Z", "2022-10-31T15:55:00Z", "2022-10-31T15:55:00Z", "2022-10-31T15:53:00Z", "2022-10-31T15:53:00Z", "2022-10-31T15:55:00Z", "2022-10-31T14:52:00Z", "2022-10-31T15:55:00Z", "2022-10-31T15:55:00Z", "2022-10-31T15:35:00Z", "2022-10-31T15:51:00Z", "2022-10-31T15:53:00Z", "2022-10-31T15:55:00Z", "2022-10-31T15:53:00Z", "2022-10-31T14:58:00Z", "2022-10-31T15:55:00Z", "2022-10-31T15:35:00Z", "2022-10-31T15:35:00Z", "2022-10-31T15:55:00Z", "2022-10-31T15:53:00Z", "2022-10-31T15:53:00Z", "2022-10-31T15:52:00Z", "2022-10-31T14:55:00Z", "2022-10-31T15:53:00Z", "2022-10-31T15:56:00Z", "2022-10-31T15:56:00Z", "2022-10-31T15:55:00Z", "2022-10-31T15:35:00Z", "2022-10-31T15:51:00Z", "2022-10-31T15:55:00Z", "2022-10-31T15:54:00Z", "2022-10-31T15:53:00Z", "2022-10-31T15:54:00Z", "2022-10-31T15:35:00Z", "2022-10-31T15:55:00Z", "2022-10-31T15:55:00Z", "2022-10-31T15:53:00Z", "2022-10-31T15:55:00Z", "2022-10-31T15:35:00Z", "2022-10-31T15:35:00Z", "2022-10-31T15:35:00Z", "2022-10-31T15:53:00Z", "2022-10-31T15:35:00Z", "2022-10-31T15:36:00Z", "2022-10-31T15:47:00Z", "2022-10-31T15:55:00Z", "2022-10-31T15:52:00Z", "2022-10-31T15:53:00Z", "2022-10-31T15:53:00Z", "2022-10-31T15:51:00Z", "2022-10-31T15:53:00Z", "2022-10-31T15:53:00Z", "2022-10-31T15:54:00Z", "2022-10-31T15:55:00Z", "2022-10-31T15:51:00Z", "2022-10-31T15:53:00Z", "2022-10-31T15:55:00Z", "2022-10-31T14:53:00Z", "2022-10-31T14:56:00Z", "2022-10-31T15:35:00Z", "2022-10-31T15:35:00Z", "2022-10-31T15:55:00Z", "2022-10-31T15:53:00Z", "2022-10-31T15:35:00Z", "2022-10-31T15:36:00Z", "2022-10-31T15:53:00Z", "2022-10-31T15:55:00Z", "2022-10-31T15:52:00Z", "2022-10-31T15:55:00Z", "2022-10-31T15:56:00Z", "2022-10-31T15:56:00Z", "2022-10-31T15:55:00Z", "2022-10-31T15:55:00Z", "2022-10-31T15:47:00Z", "2022-10-31T15:55:00Z", "2022-10-31T15:54:00Z", "2022-10-31T15:56:00Z", "2022-10-31T14:55:00Z", "2022-10-31T15:35:00Z", "2022-10-31T15:55:00Z", "2022-10-31T15:53:00Z", "2022-10-31T15:55:00Z", "2022-10-31T15:55:00Z", "2022-10-31T15:55:00Z", "2022-10-31T15:20:00Z", "2022-10-31T15:33:00Z", "2022-10-31T15:53:00Z", "2022-10-31T15:55:00Z", "2022-10-31T15:35:00Z", "2022-10-31T14:56:00Z", "2022-10-31T15:55:00Z", "2022-10-31T15:55:00Z", "2022-10-31T15:55:00Z", "2022-10-31T15:55:00Z", "2022-10-31T15:55:00Z", "2022-10-31T15:55:00Z", "2022-10-31T15:35:00Z", "2022-10-31T15:55:00Z", "2022-10-31T15:55:00Z", "2022-10-31T15:50:00Z", "2022-10-31T15:53:00Z", "2022-10-31T15:53:00Z", "2022-10-31T15:51:00Z", "2022-10-31T15:20:00Z", "2022-10-31T15:35:00Z", "2022-10-31T15:53:00Z", "2022-10-31T15:52:00Z", "2022-10-31T15:55:00Z", "2022-10-31T15:53:00Z", "2022-10-31T15:35:00Z", "2022-10-31T15:52:00Z", "2022-10-31T14:54:00Z", "2022-10-31T15:54:00Z", "2022-10-31T15:35:00Z", "2022-10-31T15:55:00Z", "2022-10-31T15:53:00Z", "2022-10-31T15:53:00Z", "2022-10-31T15:53:00Z", "2022-10-31T15:53:00Z", "2022-10-31T15:53:00Z", "2022-10-31T15:53:00Z", "2022-10-31T15:53:00Z", "2022-10-31T15:53:00Z", "2022-10-31T15:53:00Z", "2022-10-31T15:56:00Z", "2022-10-31T14:56:00Z", "2022-10-31T15:35:00Z", "2022-10-31T15:53:00Z", "2022-10-31T15:35:00Z", "2022-10-31T15:55:00Z", "2022-10-31T15:55:00Z", "2022-10-31T15:55:00Z", "2022-10-31T15:55:00Z", "2022-10-31T15:53:00Z", "2022-10-31T15:35:00Z", "2022-10-31T15:53:00Z", "2022-10-31T15:55:00Z", "2022-10-31T15:55:00Z", "2022-10-31T15:54:00Z", "2022-10-31T15:53:00Z", "2022-10-31T15:53:00Z", "2022-10-31T15:35:00Z", "2022-10-31T15:55:00Z", "2022-10-31T15:53:00Z", "2022-10-31T15:55:00Z", "2022-10-31T15:35:00Z", "2022-10-31T15:35:00Z", "2022-10-31T15:55:00Z", "2022-10-31T15:52:00Z", "2022-10-31T15:00:00Z", "2022-10-31T15:35:00Z", "2022-10-31T15:35:00Z", "2022-10-31T15:53:00Z", "2022-10-31T15:55:00Z", "2022-10-31T15:55:00Z", "2022-10-31T15:53:00Z", "2022-10-31T15:53:00Z", "2022-10-31T15:35:00Z", "2022-10-31T15:54:00Z", "2022-10-31T15:54:00Z", "2022-10-31T15:55:00Z", "2022-10-31T15:55:00Z", "2022-10-31T15:53:00Z", "2022-10-31T15:53:00Z", "2022-10-31T15:53:00Z", "2022-10-31T15:53:00Z", "2022-10-31T15:55:00Z", "2022-10-31T15:37:00Z", "2022-10-31T15:35:00Z", "2022-10-31T15:55:00Z", "2022-10-31T15:53:00Z", "2022-10-31T15:35:00Z", "2022-10-31T15:30:00Z", "2022-10-31T15:56:00Z", "2022-10-31T15:52:00Z", "2022-10-31T15:35:00Z", "2022-10-31T15:53:00Z", "2022-10-31T15:53:00Z", "2022-10-31T15:35:00Z", "2022-10-31T15:53:00Z", "2022-10-31T15:56:00Z", "2022-10-31T15:30:00Z", "2022-10-31T14:53:00Z", "2022-10-31T15:55:00Z", "2022-10-31T15:55:00Z", "2022-10-31T15:55:00Z", "2022-10-31T15:54:00Z", "2022-10-31T15:56:00Z", "2022-10-31T15:55:00Z", "2022-10-31T15:55:00Z", "2022-10-31T15:55:00Z", "2022-10-31T15:35:00Z", "2022-10-31T15:35:00Z", "2022-10-31T15:35:00Z", "2022-10-31T15:35:00Z", "2022-10-31T15:35:00Z", "2022-10-31T15:35:00Z", "2022-10-31T15:30:00Z", "2022-10-31T15:56:00Z", "2022-10-31T15:55:00Z", "2022-10-31T14:56:00Z", "2022-10-31T15:35:00Z", "2022-10-31T15:35:00Z", "2022-10-31T15:35:00Z", "2022-10-31T15:54:00Z", "2022-10-31T15:53:00Z", "2022-10-31T15:55:00Z", "2022-10-31T15:35:00Z", "2022-10-31T15:35:00Z", "2022-10-31T15:55:00Z", "2022-10-31T15:55:00Z", "2022-10-31T15:55:00Z", "2022-10-31T15:55:00Z", "2022-10-31T14:56:00Z", "2022-10-31T15:56:00Z", "2022-10-31T15:53:00Z", "2022-10-31T15:53:00Z", "2022-10-31T15:55:00Z", "2022-10-31T15:55:00Z", "2022-10-31T15:56:00Z", "2022-10-31T15:55:00Z", "2022-10-31T15:35:00Z", "2022-10-31T15:35:00Z", "2022-10-31T15:55:00Z", "2022-10-31T15:56:00Z", "2022-10-31T15:55:00Z", "2022-10-31T15:55:00Z", "2022-10-31T15:51:00Z", "2022-10-31T15:56:00Z", "2022-10-31T15:55:00Z", "2022-10-31T15:55:00Z", "2022-10-31T15:56:00Z", "2022-10-31T15:35:00Z", "2022-10-31T15:53:00Z", "2022-10-31T15:55:00Z", "2022-10-31T15:53:00Z", "2022-10-31T15:53:00Z", "2022-10-31T15:55:00Z", "2022-10-31T15:51:00Z", "2022-10-31T14:53:00Z", "2022-10-31T14:56:00Z", "2022-10-31T15:35:00Z", "2022-10-31T15:53:00Z", "2022-10-31T15:45:00Z", "2022-10-31T15:55:00Z", "2022-10-31T14:55:00Z", "2022-10-31T15:56:00Z", "2022-10-31T15:53:00Z", "2022-10-31T15:55:00Z", "2022-10-31T15:35:00Z", "2022-10-31T15:53:00Z", "2022-10-31T15:35:00Z", "2022-10-31T15:53:00Z", "2022-10-31T15:51:00Z", "2022-10-31T15:55:00Z", "2022-10-31T15:35:00Z", "2022-10-31T15:56:00Z", "2022-10-31T15:53:00Z", "2022-10-31T15:50:00Z", "2022-10-31T15:52:00Z", "2022-10-31T15:55:00Z", "2022-10-31T15:35:00Z", "2022-10-31T15:53:00Z", "2022-10-31T15:35:00Z", "2022-10-31T15:16:00Z", "2022-10-31T15:54:00Z", "2022-10-31T15:47:00Z", "2022-10-31T15:55:00Z", "2022-10-31T15:55:00Z", "2022-10-31T15:54:00Z", "2022-10-31T15:53:00Z", "2022-10-31T15:53:00Z", "2022-10-31T15:56:00Z", "2022-10-31T15:54:00Z", "2022-10-31T15:51:00Z", "2022-10-31T15:55:00Z", "2022-10-31T15:53:00Z", "2022-10-31T15:55:00Z", "2022-10-31T15:53:00Z", "2022-10-31T15:55:00Z", "2022-10-31T15:55:00Z", "2022-10-31T15:35:00Z", "2022-10-31T15:55:00Z", "2022-10-31T15:35:00Z", "2022-10-31T15:35:00Z", "2022-10-31T15:55:00Z", "2022-10-31T15:55:00Z", "2022-10-31T15:55:00Z", "2022-10-31T15:55:00Z", "2022-10-31T15:55:00Z", "2022-10-31T15:55:00Z", "2022-10-31T15:56:00Z", "2022-10-31T15:53:00Z", "2022-10-31T15:53:00Z", "2022-10-31T15:53:00Z", "2022-10-31T15:55:00Z", "2022-10-31T15:55:00Z", "2022-10-31T15:56:00Z", "2022-10-31T15:53:00Z", "2022-10-31T15:55:00Z", "2022-10-31T15:47:00Z", "2022-10-31T15:53:00Z", "2022-10-31T15:55:00Z", "2022-10-31T15:53:00Z", "2022-10-31T15:35:00Z", "2022-10-31T15:55:00Z", "2022-10-31T14:58:00Z", "2022-10-31T15:55:00Z", "2022-10-31T15:53:00Z", "2022-10-31T15:35:00Z", "2022-10-31T15:55:00Z", "2022-10-31T15:55:00Z", "2022-10-31T15:53:00Z", "2022-10-31T15:55:00Z", "2022-10-31T14:54:00Z", "2022-10-31T15:55:00Z", "2022-10-31T15:55:00Z", "2022-10-31T15:35:00Z", "2022-10-31T15:53:00Z", "2022-10-31T15:55:00Z", "2022-10-31T15:54:00Z", "2022-10-31T15:50:00Z", "2022-10-31T15:52:00Z", "2022-10-31T15:55:00Z", "2022-10-31T15:56:00Z", "2022-10-31T15:55:00Z", "2022-10-31T15:35:00Z", "2022-10-31T15:55:00Z", "2022-10-31T15:53:00Z", "2022-10-31T14:57:00Z", "2022-10-31T15:53:00Z", "2022-10-31T15:53:00Z", "2022-10-31T15:56:00Z", "2022-10-31T15:55:00Z", "2022-10-31T15:38:00Z", "2022-10-31T15:45:00Z", "2022-10-31T15:35:00Z", "2022-10-31T15:53:00Z", "2022-10-31T15:53:00Z", "2022-10-31T15:53:00Z", "2022-10-31T15:56:00Z", "2022-10-31T15:53:00Z", "2022-10-31T15:35:00Z", "2022-10-31T15:56:00Z", "2022-10-31T15:53:00Z", "2022-10-31T14:53:00Z", "2022-10-31T15:55:00Z", "2022-10-31T15:53:00Z", "2022-10-31T15:55:00Z", "2022-10-31T15:53:00Z", "2022-10-31T15:35:00Z", "2022-10-31T15:35:00Z", "2022-10-31T15:53:00Z", "2022-10-31T15:55:00Z", "2022-10-31T15:55:00Z", "2022-10-31T15:56:00Z", "2022-10-31T15:55:00Z", "2022-10-31T14:56:00Z", "2022-10-31T15:55:00Z", "2022-10-31T15:55:00Z", "2022-10-31T15:35:00Z", "2022-10-31T15:53:00Z", "2022-10-31T15:55:00Z", "2022-10-31T15:53:00Z", "2022-10-31T15:35:00Z", "2022-10-31T15:55:00Z", "2022-10-31T15:55:00Z", "2022-10-31T15:53:00Z", "2022-10-31T15:53:00Z", "2022-10-31T15:53:00Z", "2022-10-31T15:53:00Z", "2022-10-31T15:55:00Z", "2022-10-31T15:54:00Z", "2022-10-31T15:55:00Z", "2022-10-31T15:35:00Z", "2022-10-31T15:53:00Z", "2022-10-31T15:51:00Z", "2022-10-31T15:35:00Z", "2022-10-31T15:53:00Z", "2022-10-31T15:35:00Z", "2022-10-31T15:55:00Z", "2022-10-31T15:55:00Z", "2022-10-31T15:35:00Z", "2022-10-31T15:53:00Z", "2022-10-31T15:35:00Z", "2022-10-31T15:54:00Z", "2022-10-31T15:56:00Z", "2022-10-31T15:55:00Z", "2022-10-31T15:53:00Z", "2022-10-31T15:56:00Z", "2022-10-31T15:35:00Z", "2022-10-31T15:56:00Z", "2022-10-31T15:35:00Z", "2022-10-31T15:35:00Z", "2022-10-31T15:53:00Z", "2022-10-31T15:35:00Z", "2022-10-31T15:54:00Z", "2022-10-31T15:35:00Z", "2022-10-31T15:54:00Z", "2022-10-31T15:55:00Z", "2022-10-31T15:35:00Z", "2022-10-31T15:55:00Z", "2022-10-31T15:51:00Z", "2022-10-31T15:56:00Z", "2022-10-31T15:54:00Z", "2022-10-31T15:53:00Z", "2022-10-31T15:50:00Z", "2022-10-31T15:35:00Z", "2022-10-31T15:53:00Z", "2022-10-31T15:53:00Z", "2022-10-31T15:55:00Z", "2022-10-31T15:53:00Z", "2022-10-31T15:53:00Z", "2022-10-31T15:55:00Z", "2022-10-31T15:35:00Z", "2022-10-31T15:53:00Z", "2022-10-31T15:35:00Z", "2022-10-31T15:35:00Z", "2022-10-31T15:53:00Z", "2022-10-31T15:35:00Z", "2022-10-31T15:35:00Z", "2022-10-31T15:55:00Z", "2022-10-31T15:35:00Z", "2022-10-31T15:53:00Z", "2022-10-31T15:53:00Z", "2022-10-31T15:53:00Z", "2022-10-31T15:55:00Z", "2022-10-31T15:53:00Z", "2022-10-31T15:53:00Z", "2022-10-31T15:35:00Z", "2022-10-31T15:53:00Z", "2022-10-31T15:53:00Z", "2022-10-31T15:52:00Z", "2022-10-31T15:35:00Z", "2022-10-31T15:35:00Z", "2022-10-31T15:55:00Z", "2022-10-31T15:35:00Z", "2022-10-31T15:53:00Z", "2022-10-31T15:56:00Z", "2022-10-31T15:35:00Z", "2022-10-31T15:35:00Z", "2022-10-31T15:55:00Z", "2022-10-31T15:56:00Z", "2022-10-31T15:55:00Z", "2022-10-31T15:53:00Z", "2022-10-31T15:53:00Z", "2022-10-31T15:52:00Z", "2022-10-31T15:50:00Z", "2022-10-31T15:35:00Z", "2022-10-31T14:58:00Z", "2022-10-31T15:35:00Z", "2022-10-31T15:55:00Z", "2022-10-31T15:55:00Z", "2022-10-31T14:50:00Z", "2022-10-31T15:53:00Z", "2022-10-31T15:56:00Z", "2022-10-31T15:53:00Z", "2022-10-31T15:54:00Z", "2022-10-31T15:55:00Z", "2022-10-31T15:53:00Z", "2022-10-31T15:55:00Z", "2022-10-31T15:55:00Z", "2022-10-31T15:53:00Z", "2022-10-31T15:35:00Z", "2022-10-31T15:34:00Z", "2022-10-31T15:53:00Z", "2022-10-31T15:54:00Z", "2022-10-31T15:53:00Z", "2022-10-31T15:55:00Z", "2022-10-31T15:53:00Z", "2022-10-31T15:56:00Z", "2022-10-31T15:56:00Z", "2022-10-31T15:56:00Z", "2022-10-31T15:35:00Z", "2022-10-31T15:53:00Z", "2022-10-31T15:55:00Z", "2022-10-31T15:39:00Z", "2022-10-31T15:53:00Z", "2022-10-31T15:53:00Z", "2022-10-31T15:56:00Z", "2022-10-31T15:35:00Z", "2022-10-31T15:35:00Z", "2022-10-31T15:35:00Z", "2022-10-31T15:53:00Z", "2022-10-31T15:55:00Z", "2022-10-31T15:55:00Z", "2022-10-31T15:55:00Z", "2022-10-31T15:56:00Z", "2022-10-31T15:55:00Z", "2022-10-31T15:35:00Z", "2022-10-31T15:47:00Z", "2022-10-31T15:50:00Z", "2022-10-31T15:55:00Z", "2022-10-31T15:47:00Z", "2022-10-31T15:45:00Z", "2022-10-31T15:53:00Z", "2022-10-31T15:35:00Z", "2022-10-31T15:40:00Z", "2022-10-31T15:55:00Z", "2022-10-31T15:55:00Z", "2022-10-31T15:55:00Z", "2022-10-31T15:55:00Z", "2022-10-31T15:55:00Z", "2022-10-31T15:53:00Z", "2022-10-31T15:53:00Z", "2022-10-31T15:55:00Z", "2022-10-31T15:53:00Z", "2022-10-31T15:30:00Z", "2022-10-31T15:35:00Z", "2022-10-31T15:55:00Z", "2022-10-31T15:35:00Z", "2022-10-31T15:36:00Z", "2022-10-31T15:35:00Z", "2022-10-31T15:35:00Z", "2022-10-31T15:56:00Z", "2022-10-31T15:51:00Z", "2022-10-31T15:56:00Z", "2022-10-31T15:35:00Z", "2022-10-31T15:53:00Z", "2022-10-31T15:35:00Z", "2022-10-31T15:55:00Z", "2022-10-31T15:56:00Z", "2022-10-31T15:53:00Z", "2022-10-31T15:55:00Z", "2022-10-31T15:55:00Z", "2022-10-31T15:55:00Z", "2022-10-31T15:53:00Z", "2022-10-31T15:55:00Z", "2022-10-31T15:35:00Z", "2022-10-31T15:53:00Z", "2022-10-31T15:35:00Z", "2022-10-31T15:34:00Z", "2022-10-31T15:53:00Z", "2022-10-31T15:52:00Z", "2022-10-31T15:55:00Z", "2022-10-31T15:35:00Z", "2022-10-31T15:53:00Z", "2022-10-31T15:35:00Z", "2022-10-31T15:53:00Z", "2022-10-31T15:53:00Z", "2022-10-31T15:53:00Z", "2022-10-31T15:53:00Z", "2022-10-31T15:55:00Z", "2022-10-31T15:53:00Z", "2022-10-31T15:53:00Z", "2022-10-31T15:53:00Z", "2022-10-31T15:55:00Z", "2022-10-31T15:55:00Z", "2022-10-31T15:55:00Z", "2022-10-31T15:35:00Z", "2022-10-31T15:35:00Z", "2022-10-31T15:35:00Z", "2022-10-31T15:56:00Z", "2022-10-31T15:56:00Z", "2022-10-31T15:35:00Z", "2022-10-31T15:55:00Z", "2022-10-31T15:50:00Z", "2022-10-31T15:55:00Z", "2022-10-31T15:55:00Z", "2022-10-31T15:55:00Z", "2022-10-31T15:53:00Z", "2022-10-31T15:53:00Z", "2022-10-31T14:56:00Z", "2022-10-31T15:35:00Z", "2022-10-31T15:35:00Z", "2022-10-31T15:35:00Z", "2022-10-31T15:53:00Z", "2022-10-31T15:35:00Z", "2022-10-31T15:50:00Z", "2022-10-31T15:45:00Z", "2022-10-31T15:53:00Z", "2022-10-31T15:55:00Z", "2022-10-31T15:52:00Z", "2022-10-31T15:53:00Z", "2022-10-31T15:55:00Z", "2022-10-31T15:55:00Z", "2022-10-31T15:47:00Z", "2022-10-31T15:02:00Z", "2022-10-31T15:55:00Z", "2022-10-31T15:51:00Z", "2022-10-31T15:30:00Z", "2022-10-31T14:53:00Z", "2022-10-31T15:55:00Z", "2022-10-31T15:23:00Z", "2022-10-31T15:53:00Z", "2022-10-31T15:53:00Z", "2022-10-31T15:51:00Z", "2022-10-31T14:58:00Z", "2022-10-31T15:53:00Z", "2022-10-31T15:53:00Z", "2022-10-31T14:47:00Z", "2022-10-31T15:52:00Z", "2022-10-31T15:35:00Z", "2022-10-31T15:53:00Z", "2022-10-31T15:53:00Z", "2022-10-31T15:55:00Z", "2022-10-31T15:54:00Z", "2022-10-31T15:53:00Z", "2022-10-31T14:56:00Z", "2022-10-31T15:55:00Z", "2022-10-31T15:50:00Z", "2022-10-31T15:42:00Z", "2022-10-31T15:56:00Z", "2022-10-31T15:53:00Z", "2022-10-31T15:56:00Z", "2022-10-31T15:55:00Z", "2022-10-31T15:35:00Z", "2022-10-31T15:55:00Z", "2022-10-31T15:55:00Z", "2022-10-31T15:55:00Z", "2022-10-31T15:35:00Z", "2022-10-31T15:55:00Z", "2022-10-31T15:53:00Z", "2022-10-31T15:55:00Z", "2022-10-31T15:55:00Z", "2022-10-31T15:35:00Z", "2022-10-31T15:55:00Z", "2022-10-31T15:55:00Z", "2022-10-31T15:55:00Z", "2022-10-31T15:35:00Z", "2022-10-31T15:35:00Z", "2022-10-31T15:55:00Z", "2022-10-31T15:52:00Z", "2022-10-31T15:53:00Z", "2022-10-31T15:53:00Z", "2022-10-31T15:35:00Z", "2022-10-31T15:35:00Z", "2022-10-31T15:53:00Z", "2022-10-31T15:53:00Z", "2022-10-31T15:53:00Z", "2022-10-31T15:55:00Z", "2022-10-31T15:35:00Z", "2022-10-31T15:52:00Z", "2022-10-31T15:55:00Z", "2022-10-31T15:55:00Z", "2022-10-31T15:50:00Z", "2022-10-31T15:51:00Z", "2022-10-31T15:55:00Z", "2022-10-31T15:35:00Z", "2022-10-31T15:52:00Z", "2022-10-31T15:35:00Z", "2022-10-31T15:35:00Z", "2022-10-31T15:35:00Z", "2022-10-31T15:55:00Z", "2022-10-31T15:56:00Z", "2022-10-31T15:51:00Z", "2022-10-31T15:53:00Z", "2022-10-31T15:54:00Z", "2022-10-31T15:53:00Z", "2022-10-31T15:55:00Z", "2022-10-31T15:54:00Z", "2022-10-31T15:54:00Z", "2022-10-31T15:55:00Z", "2022-10-31T15:55:00Z", "2022-10-31T15:53:00Z", "2022-10-31T15:54:00Z", "2022-10-31T15:55:00Z", "2022-10-31T15:54:00Z", "2022-10-31T14:56:00Z", "2022-10-31T15:55:00Z", "2022-10-31T15:52:00Z", "2022-10-31T15:55:00Z", "2022-10-31T15:53:00Z", "2022-10-31T15:54:00Z", "2022-10-31T15:55:00Z", "2022-10-31T15:55:00Z", "2022-10-31T15:56:00Z", "2022-10-31T15:56:00Z", "2022-10-31T14:56:00Z", "2022-10-31T15:55:00Z", "2022-10-31T15:54:00Z", "2022-10-31T15:56:00Z", "2022-10-31T15:53:00Z", "2022-10-31T15:55:00Z", "2022-10-31T15:55:00Z", "2022-10-31T15:56:00Z", "2022-10-31T15:53:00Z", "2022-10-31T15:55:00Z", "2022-10-31T15:53:00Z", "2022-10-31T15:55:00Z", "2022-10-31T15:35:00Z", "2022-10-31T15:54:00Z", "2022-10-31T15:56:00Z", "2022-10-31T15:54:00Z", "2022-10-31T15:55:00Z", "2022-10-31T15:35:00Z", "2022-10-31T14:56:00Z", "2022-10-31T15:53:00Z", "2022-10-31T15:35:00Z", "2022-10-31T15:51:00Z", "2022-10-31T15:35:00Z", "2022-10-31T15:48:00Z", "2022-10-31T15:53:00Z", "2022-10-31T15:53:00Z", "2022-10-31T15:35:00Z", "2022-10-31T15:51:00Z", "2022-10-31T15:55:00Z", "2022-10-31T15:55:00Z", "2022-10-31T15:35:00Z", "2022-10-31T15:56:00Z", "2022-10-31T15:56:00Z", "2022-10-31T15:55:00Z", "2022-10-31T15:53:00Z", "2022-10-31T15:53:00Z", "2022-10-31T15:55:00Z", "2022-10-31T14:56:00Z", "2022-10-31T15:55:00Z", "2022-10-31T15:35:00Z", "2022-10-31T15:55:00Z", "2022-10-31T15:50:00Z", "2022-10-31T14:56:00Z", "2022-10-31T15:55:00Z", "2022-10-31T15:54:00Z", "2022-10-31T15:35:00Z", "2022-10-31T15:35:00Z", "2022-10-31T15:55:00Z", "2022-10-31T15:45:00Z", "2022-10-31T15:55:00Z", "2022-10-31T15:35:00Z", "2022-10-31T15:55:00Z", "2022-10-31T15:50:00Z", "2022-10-31T15:55:00Z", "2022-10-31T15:55:00Z", "2022-10-31T15:34:00Z", "2022-10-31T15:55:00Z", "2022-10-31T15:55:00Z", "2022-10-31T15:55:00Z", "2022-10-31T15:55:00Z", "2022-10-31T15:35:00Z", "2022-10-31T15:55:00Z", "2022-10-31T15:35:00Z", "2022-10-31T15:55:00Z", "2022-10-31T15:35:00Z", "2022-10-31T15:56:00Z", "2022-10-31T15:35:00Z", "2022-10-31T15:55:00Z", "2022-10-31T15:55:00Z", "2022-10-31T15:55:00Z", "2022-10-31T15:55:00Z", "2022-10-31T15:55:00Z", "2022-10-31T15:53:00Z", "2022-10-31T15:54:00Z", "2022-10-31T15:50:00Z", "2022-10-31T15:35:00Z", "2022-10-31T15:53:00Z", "2022-10-31T15:53:00Z", "2022-10-31T14:56:00Z", "2022-10-31T15:53:00Z", "2022-10-31T15:53:00Z", "2022-10-31T15:53:00Z", "2022-10-31T15:45:00Z", "2022-10-31T15:53:00Z", "2022-10-31T15:56:00Z", "2022-10-31T15:55:00Z", "2022-10-31T15:56:00Z", "2022-10-31T15:53:00Z", "2022-10-31T15:55:00Z", "2022-10-31T15:53:00Z", "2022-10-31T15:56:00Z", "2022-10-31T14:55:00Z", "2022-10-31T15:35:00Z", "2022-10-31T15:55:00Z", "2022-10-31T15:55:00Z", "2022-10-31T15:53:00Z", "2022-10-31T15:53:00Z", "2022-10-31T15:56:00Z", "2022-10-31T15:54:00Z", "2022-10-31T15:55:00Z", "2022-10-31T15:53:00Z", "2022-10-31T15:53:00Z", "2022-10-31T15:51:00Z", "2022-10-31T15:53:00Z", "2022-10-31T15:35:00Z", "2022-10-31T15:56:00Z", "2022-10-31T15:55:00Z", "2022-10-31T15:51:00Z", "2022-10-31T15:35:00Z", "2022-10-31T15:35:00Z", "2022-10-31T15:53:00Z", "2022-10-31T14:55:00Z", "2022-10-31T15:53:00Z", "2022-10-31T15:55:00Z", "2022-10-31T15:55:00Z", "2022-10-31T15:53:00Z", "2022-10-31T15:55:00Z", "2022-10-31T15:55:00Z", "2022-10-31T15:55:00Z", "2022-10-31T15:53:00Z", "2022-10-31T15:55:00Z", "2022-10-31T15:53:00Z", "2022-10-31T15:35:00Z", "2022-10-31T15:53:00Z", "2022-10-31T15:35:00Z", "2022-10-31T15:53:00Z", "2022-10-31T14:54:00Z", "2022-10-31T15:55:00Z", "2022-10-31T15:35:00Z", "2022-10-31T15:55:00Z", "2022-10-31T15:55:00Z", "2022-10-31T14:56:00Z", "2022-10-31T15:53:00Z", "2022-10-31T15:53:00Z", "2022-10-31T15:35:00Z", "2022-10-31T15:55:00Z", "2022-10-31T15:35:00Z", "2022-10-31T15:53:00Z", "2022-10-31T15:53:00Z", "2022-10-31T15:56:00Z", "2022-10-31T15:53:00Z", "2022-10-31T15:55:00Z", "2022-10-31T15:56:00Z", "2022-10-31T14:56:00Z", "2022-10-31T15:35:00Z", "2022-10-31T15:55:00Z", "2022-10-31T15:55:00Z", "2022-10-31T15:55:00Z", "2022-10-31T15:53:00Z", "2022-10-31T15:55:00Z", "2022-10-31T15:55:00Z", "2022-10-31T15:55:00Z", "2022-10-31T15:35:00Z", "2022-10-31T15:55:00Z", "2022-10-31T15:55:00Z", "2022-10-31T15:55:00Z", "2022-10-31T15:53:00Z", "2022-10-31T15:35:00Z", "2022-10-31T15:55:00Z", "2022-10-31T15:35:00Z", "2022-10-31T15:55:00Z", "2022-10-31T15:53:00Z", "2022-10-31T15:53:00Z", "2022-10-31T15:55:00Z", "2022-10-31T15:53:00Z", "2022-10-31T15:35:00Z", "2022-10-31T15:53:00Z", "2022-10-31T15:55:00Z", "2022-10-31T15:50:00Z", "2022-10-31T15:52:00Z", "2022-10-31T15:53:00Z", "2022-10-31T15:54:00Z", "2022-10-31T14:56:00Z", "2022-10-31T15:54:00Z", "2022-10-31T15:53:00Z", "2022-10-31T15:55:00Z", "2022-10-31T15:35:00Z", "2022-10-31T15:53:00Z", "2022-10-31T15:53:00Z", "2022-10-31T15:54:00Z", "2022-10-31T15:55:00Z", "2022-10-31T15:55:00Z", "2022-10-31T15:56:00Z", "2022-10-31T15:35:00Z", "2022-10-31T15:35:00Z", "2022-10-31T15:55:00Z", "2022-10-31T15:55:00Z", "2022-10-31T15:55:00Z", "2022-10-31T15:56:00Z", "2022-10-31T15:55:00Z", "2022-10-31T15:55:00Z", "2022-10-31T15:55:00Z", "2022-10-31T15:55:00Z", "2022-10-31T15:50:00Z", "2022-10-31T15:55:00Z", "2022-10-31T15:55:00Z", "2022-10-31T15:53:00Z", "2022-10-31T15:53:00Z", "2022-10-31T15:53:00Z", "2022-10-31T15:55:00Z", "2022-10-31T15:55:00Z", "2022-10-31T15:55:00Z", "2022-10-31T15:52:00Z", "2022-10-31T15:56:00Z", "2022-10-31T15:55:00Z", "2022-10-31T15:53:00Z", "2022-10-31T15:55:00Z", "2022-10-31T15:55:00Z", "2022-10-31T15:53:00Z", "2022-10-31T15:55:00Z", "2022-10-31T15:55:00Z", "2022-10-31T15:53:00Z", "2022-10-31T15:55:00Z", "2022-10-31T15:53:00Z", "2022-10-31T15:55:00Z", "2022-10-31T15:53:00Z", "2022-10-31T15:53:00Z", "2022-10-31T15:53:00Z", "2022-10-31T15:53:00Z", "2022-10-31T15:35:00Z", "2022-10-31T15:52:00Z", "2022-10-31T15:55:00Z", "2022-10-31T15:04:00Z", "2022-10-31T15:53:00Z", "2022-10-31T15:55:00Z", "2022-10-31T15:52:00Z", "2022-10-31T14:56:00Z", "2022-10-31T14:58:00Z", "2022-10-31T15:54:00Z", "2022-10-31T15:15:00Z", "2022-10-31T15:55:00Z", "2022-10-31T15:55:00Z", "2022-10-31T15:52:00Z", "2022-10-31T14:53:00Z", "2022-10-31T15:54:00Z", "2022-10-31T15:53:00Z", "2022-10-31T15:35:00Z", "2022-10-31T15:55:00Z", "2022-10-31T15:55:00Z", "2022-10-31T15:54:00Z", "2022-10-31T15:53:00Z", "2022-10-31T15:55:00Z", "2022-10-31T15:35:00Z", "2022-10-31T15:53:00Z", "2022-10-31T15:53:00Z", "2022-10-31T15:53:00Z", "2022-10-31T15:52:00Z", "2022-10-31T15:55:00Z", "2022-10-31T15:35:00Z", "2022-10-31T15:55:00Z", "2022-10-31T15:56:00Z", "2022-10-31T15:53:00Z", "2022-10-31T15:53:00Z", "2022-10-31T15:55:00Z", "2022-10-31T15:53:00Z", "2022-10-31T15:53:00Z", "2022-10-31T15:54:00Z", "2022-10-31T15:53:00Z", "2022-10-31T15:35:00Z", "2022-10-31T15:35:00Z", "2022-10-31T15:54:00Z", "2022-10-31T15:52:00Z", "2022-10-31T15:55:00Z", "2022-10-31T15:55:00Z", "2022-10-31T15:53:00Z", "2022-10-31T15:55:00Z", "2022-10-31T15:53:00Z", "2022-10-31T15:15:00Z", "2022-10-31T15:56:00Z", "2022-10-31T15:56:00Z", "2022-10-31T15:53:00Z", "2022-10-31T15:53:00Z", "2022-10-31T15:35:00Z", "2022-10-31T15:52:00Z", "2022-10-31T15:52:00Z", "2022-10-31T15:35:00Z", "2022-10-31T15:53:00Z", "2022-10-31T15:53:00Z", "2022-10-31T15:53:00Z", "2022-10-31T15:53:00Z", "2022-10-31T15:34:00Z", "2022-10-31T15:55:00Z", "2022-10-31T15:53:00Z", "2022-10-31T15:56:00Z", "2022-10-31T15:55:00Z", "2022-10-31T14:55:00Z", "2022-10-31T15:55:00Z", "2022-10-31T15:35:00Z", "2022-10-31T15:55:00Z", "2022-10-31T15:56:00Z", "2022-10-31T15:55:00Z", "2022-10-31T15:55:00Z", "2022-10-31T14:56:00Z", "2022-10-31T15:53:00Z", "2022-10-31T15:35:00Z", "2022-10-31T15:55:00Z", "2022-10-31T15:54:00Z", "2022-10-31T15:55:00Z", "2022-10-31T15:53:00Z", "2022-10-31T15:35:00Z", "2022-10-31T15:51:00Z", "2022-10-31T15:30:00Z", "2022-10-31T15:38:00Z", "2022-10-31T15:35:00Z", "2022-10-31T15:55:00Z", "2022-10-31T15:35:00Z", "2022-10-31T15:35:00Z", "2022-10-31T15:56:00Z", "2022-10-31T15:53:00Z", "2022-10-31T15:50:00Z", "2022-10-31T15:56:00Z", "2022-10-31T15:22:00Z", "2022-10-31T15:55:00Z", "2022-10-31T15:55:00Z", "2022-10-31T15:35:00Z", "2022-10-31T15:54:00Z", "2022-10-31T15:53:00Z", "2022-10-31T15:53:00Z", "2022-10-31T15:53:00Z", "2022-10-31T15:53:00Z", "2022-10-31T15:53:00Z", "2022-10-31T15:56:00Z", "2022-10-31T15:53:00Z", "2022-10-31T15:56:00Z", "2022-10-31T15:53:00Z", "2022-10-31T15:53:00Z", "2022-10-31T15:40:00Z", "2022-10-31T14:54:00Z", "2022-10-31T15:53:00Z", "2022-10-31T15:54:00Z", "2022-10-31T15:55:00Z", "2022-10-31T15:56:00Z", "2022-10-31T15:46:00Z", "2022-10-31T15:56:00Z", "2022-10-31T15:55:00Z", "2022-10-31T15:55:00Z", "2022-10-31T15:55:00Z", "2022-10-31T15:54:00Z", "2022-10-31T15:56:00Z", "2022-10-31T15:53:00Z", "2022-10-31T15:45:00Z", "2022-10-31T14:45:00Z", "2022-10-31T15:52:00Z", "2022-10-31T15:35:00Z", "2022-10-31T15:53:00Z", "2022-10-31T15:55:00Z", "2022-10-31T14:50:00Z", "2022-10-31T15:35:00Z", "2022-10-31T15:53:00Z", "2022-10-31T15:55:00Z", "2022-10-31T15:53:00Z", "2022-10-31T15:55:00Z", "2022-10-31T15:51:00Z", "2022-10-31T15:35:00Z", "2022-10-31T15:56:00Z", "2022-10-31T15:53:00Z", "2022-10-31T15:30:00Z", "2022-10-31T15:55:00Z", "2022-10-31T15:35:00Z", "2022-10-31T15:35:00Z", "2022-10-31T15:35:00Z", "2022-10-31T15:55:00Z", "2022-10-31T15:52:00Z", "2022-10-31T15:54:00Z", "2022-10-31T15:56:00Z", "2022-10-31T15:55:00Z", "2022-10-31T15:10:00Z", "2022-10-31T14:56:00Z", "2022-10-31T14:56:00Z", "2022-10-31T15:00:00Z", "2022-10-31T15:53:00Z", "2022-10-31T15:56:00Z", "2022-10-31T15:52:00Z", "2022-10-31T15:56:00Z", "2022-10-31T15:52:00Z", "2022-10-31T15:56:00Z", "2022-10-31T14:59:00Z", "2022-10-31T14:52:00Z", "2022-10-31T15:56:00Z", "2022-10-31T15:53:00Z", "2022-10-31T15:56:00Z", "2022-10-31T14:57:00Z", "2022-10-31T14:57:00Z", "2022-10-31T15:13:00Z", "2022-10-31T15:55:00Z", "2022-10-31T15:56:00Z", "2022-10-31T15:56:00Z", "2022-10-31T15:56:00Z", "2022-10-31T15:35:00Z", "2022-10-31T14:59:00Z", "2022-10-31T14:56:00Z", "2022-10-31T15:50:00Z", "2022-10-31T15:56:00Z", "2022-10-31T15:53:00Z", "2022-10-31T15:52:00Z", "2022-10-31T15:35:00Z", "2022-10-31T15:53:00Z", "2022-10-31T14:56:00Z", "2022-10-31T14:53:00Z", "2022-10-31T14:55:00Z", "2022-10-31T15:56:00Z", "2022-10-31T15:56:00Z", "2022-10-31T15:53:00Z", "2022-10-31T15:55:00Z", "2022-10-31T15:53:00Z", "2022-10-31T15:56:00Z", "2022-10-31T15:56:00Z", "2022-10-31T15:37:00Z", "2022-10-31T15:51:00Z", "2022-10-31T15:56:00Z", "2022-10-31T15:57:00Z", "2022-10-31T15:52:00Z", "2022-10-31T15:55:00Z", "2022-10-31T15:55:00Z", "2022-10-31T15:55:00Z", "2022-10-31T15:55:00Z", "2022-10-31T15:56:00Z", "2022-10-31T15:53:00Z", "2022-10-31T15:55:00Z", "2022-10-31T15:35:00Z", "2022-10-31T15:51:00Z", "2022-10-31T15:56:00Z", "2022-10-31T15:55:00Z", "2022-10-31T15:35:00Z", "2022-10-31T15:53:00Z", "2022-10-31T15:53:00Z", "2022-10-31T15:55:00Z", "2022-10-31T15:55:00Z", "2022-10-31T15:55:00Z", "2022-10-31T15:55:00Z", "2022-10-31T14:56:00Z", "2022-10-31T15:54:00Z", "2022-10-31T15:35:00Z", "2022-10-31T15:53:00Z", "2022-10-31T15:53:00Z", "2022-10-31T15:35:00Z", "2022-10-31T15:55:00Z", "2022-10-31T15:55:00Z", "2022-10-31T15:55:00Z", "2022-10-31T15:53:00Z", "2022-10-31T15:52:00Z", "2022-10-31T15:52:00Z", "2022-10-31T15:56:00Z", "2022-10-31T15:35:00Z", "2022-10-31T15:55:00Z", "2022-10-31T15:35:00Z", "2022-10-31T15:35:00Z", "2022-10-31T15:53:00Z", "2022-10-31T15:55:00Z", "2022-10-31T15:54:00Z", "2022-10-31T15:56:00Z", "2022-10-31T15:50:00Z", "2022-10-31T15:35:00Z", "2022-10-31T15:35:00Z", "2022-10-31T15:52:00Z", "2022-10-31T15:55:00Z", "2022-10-31T15:53:00Z", "2022-10-31T14:50:00Z", "2022-10-31T15:35:00Z", "2022-10-31T15:35:00Z", "2022-10-31T15:55:00Z", "2022-10-31T15:53:00Z", "2022-10-31T15:15:00Z", "2022-10-31T15:53:00Z", "2022-10-31T15:35:00Z", "2022-10-31T15:55:00Z", "2022-10-31T15:35:00Z", "2022-10-31T15:53:00Z", "2022-10-31T15:35:00Z", "2022-10-31T15:35:00Z", "2022-10-31T15:35:00Z", "2022-10-31T15:53:00Z", "2022-10-31T15:53:00Z", "2022-10-31T15:51:00Z", "2022-10-31T15:52:00Z", "2022-10-31T15:51:00Z", "2022-10-31T15:35:00Z", "2022-10-31T15:54:00Z", "2022-10-31T15:53:00Z", "2022-10-31T15:55:00Z", "2022-10-31T15:35:00Z", "2022-10-31T15:55:00Z", "2022-10-31T15:53:00Z", "2022-10-31T14:50:00Z", "2022-10-31T15:56:00Z", "2022-10-31T15:56:00Z", "2022-10-31T15:53:00Z", "2022-10-31T15:48:00Z", "2022-10-31T15:53:00Z", "2022-10-31T15:55:00Z", "2022-10-31T15:53:00Z", "2022-10-31T15:53:00Z", "2022-10-31T15:56:00Z", "2022-10-31T15:53:00Z", "2022-10-31T15:35:00Z", "2022-10-31T15:35:00Z", "2022-10-31T15:53:00Z", "2022-10-31T15:51:00Z", "2022-10-31T15:55:00Z", "2022-10-31T15:55:00Z", "2022-10-31T15:51:00Z", "2022-10-31T15:55:00Z", "2022-10-31T15:55:00Z", "2022-10-31T15:30:00Z", "2022-10-31T15:55:00Z", "2022-10-31T15:55:00Z", "2022-10-31T15:55:00Z", "2022-10-31T15:55:00Z", "2022-10-31T14:56:00Z", "2022-10-31T15:56:00Z", "2022-10-31T14:55:00Z", "2022-10-31T15:51:00Z", "2022-10-31T15:56:00Z", "2022-10-31T15:53:00Z", "2022-10-31T15:52:00Z", "2022-10-31T14:59:00Z", "2022-10-31T15:53:00Z", "2022-10-31T15:53:00Z", "2022-10-31T15:55:00Z", "2022-10-31T15:55:00Z", "2022-10-31T15:47:00Z", "2022-10-31T15:53:00Z", "2022-10-31T15:53:00Z", "2022-10-31T15:55:00Z", "2022-10-31T15:53:00Z", "2022-10-31T15:35:00Z", "2022-10-31T15:35:00Z", "2022-10-31T15:55:00Z", "2022-10-31T15:55:00Z", "2022-10-31T15:55:00Z", "2022-10-31T15:55:00Z", "2022-10-31T15:53:00Z", "2022-10-31T15:53:00Z", "2022-10-31T15:53:00Z", "2022-10-31T15:35:00Z", "2022-10-31T15:53:00Z", "2022-10-31T15:35:00Z", "2022-10-31T15:55:00Z", "2022-10-31T15:35:00Z", "2022-10-31T15:53:00Z", "2022-10-31T15:55:00Z", "2022-10-31T15:53:00Z", "2022-10-31T15:54:00Z", "2022-10-31T15:54:00Z", "2022-10-31T15:35:00Z", "2022-10-31T15:55:00Z", "2022-10-31T15:55:00Z", "2022-10-31T15:51:00Z", "2022-10-31T15:54:00Z", "2022-10-31T15:56:00Z", "2022-10-31T15:53:00Z", "2022-10-31T15:53:00Z", "2022-10-31T15:53:00Z", "2022-10-31T15:35:00Z", "2022-10-31T15:53:00Z", "2022-10-31T15:51:00Z", "2022-10-31T15:53:00Z", "2022-10-31T15:53:00Z", "2022-10-31T15:55:00Z", "2022-10-31T15:54:00Z", "2022-10-31T15:55:00Z", "2022-10-31T15:35:00Z", "2022-10-31T15:53:00Z", "2022-10-31T15:35:00Z", "2022-10-31T15:53:00Z", "2022-10-31T15:35:00Z", "2022-10-31T15:35:00Z", "2022-10-31T15:35:00Z", "2022-10-31T15:53:00Z", "2022-10-31T15:54:00Z", "2022-10-31T15:55:00Z", "2022-10-31T15:53:00Z", "2022-10-31T15:35:00Z", "2022-10-31T15:55:00Z", "2022-10-31T15:47:00Z", "2022-10-31T15:55:00Z", "2022-10-31T15:53:00Z", "2022-10-31T15:53:00Z", "2022-10-31T15:55:00Z", "2022-10-31T15:35:00Z", "2022-10-31T15:35:00Z", "2022-10-31T15:52:00Z", "2022-10-31T15:35:00Z", "2022-10-31T15:35:00Z", "2022-10-31T15:56:00Z", "2022-10-31T15:53:00Z", "2022-10-31T15:53:00Z", "2022-10-31T15:53:00Z", "2022-10-31T15:35:00Z", "2022-10-31T14:58:00Z", "2022-10-31T15:55:00Z", "2022-10-31T15:35:00Z", "2022-10-31T15:56:00Z", "2022-10-31T15:53:00Z", "2022-10-31T15:54:00Z", "2022-10-31T15:35:00Z", "2022-10-31T15:55:00Z", "2022-10-31T15:35:00Z", "2022-10-31T15:35:00Z", "2022-10-31T15:53:00Z", "2022-10-31T15:53:00Z", "2022-10-31T15:55:00Z", "2022-10-31T15:55:00Z", "2022-10-31T15:53:00Z", "2022-10-31T15:56:00Z", "2022-10-31T15:55:00Z", "2022-10-31T15:35:00Z", "2022-10-31T15:56:00Z", "2022-10-31T15:54:00Z", "2022-10-31T15:53:00Z", "2022-10-31T15:53:00Z", "2022-10-31T15:55:00Z", "2022-10-31T15:53:00Z", "2022-10-31T15:55:00Z", "2022-10-31T15:56:00Z", "2022-10-31T15:51:00Z", "2022-10-31T15:55:00Z", "2022-10-31T15:56:00Z", "2022-10-31T15:55:00Z", "2022-10-31T15:56:00Z", "2022-10-31T15:30:00Z", "2022-10-31T15:53:00Z", "2022-10-31T15:55:00Z", "2022-10-31T15:35:00Z", "2022-10-31T15:56:00Z", "2022-10-31T15:52:00Z", "2022-10-31T15:51:00Z", "2022-10-31T15:56:00Z", "2022-10-31T15:35:00Z", "2022-10-31T15:52:00Z", "2022-10-31T15:55:00Z", "2022-10-31T15:55:00Z", "2022-10-31T15:35:00Z", "2022-10-31T15:55:00Z", "2022-10-31T14:55:00Z", "2022-10-31T15:55:00Z", "2022-10-31T15:55:00Z", "2022-10-31T15:50:00Z", "2022-10-31T15:50:00Z", "2022-10-31T15:50:00Z", "2022-10-31T15:50:00Z", "2022-10-31T15:50:00Z", "2022-10-31T15:50:00Z", "2022-10-31T15:50:00Z", "2022-10-31T15:50:00Z", "2022-10-31T15:10:00Z", "2022-10-31T15:50:00Z", "2022-10-31T15:50:00Z", "2022-10-31T15:50:00Z", "2022-10-31T15:50:00Z", "2022-10-31T15:50:00Z", "2022-10-31T15:50:00Z", "2022-10-31T15:50:00Z", "2022-10-31T14:55:00Z", "2022-10-31T14:55:00Z", "2022-10-31T15:55:00Z", "2022-10-31T14:55:00Z", "2022-10-31T15:55:00Z", "2022-10-31T15:53:00Z", "2022-10-31T15:53:00Z", "2022-10-31T15:52:00Z", "2022-10-31T15:35:00Z", "2022-10-31T15:55:00Z", "2022-10-31T15:53:00Z", "2022-10-31T15:53:00Z", "2022-10-31T15:54:00Z", "2022-10-31T15:35:00Z", "2022-10-31T15:35:00Z", "2022-10-31T15:55:00Z", "2022-10-31T15:55:00Z", "2022-10-31T15:55:00Z", "2022-10-31T15:35:00Z", "2022-10-31T15:35:00Z", "2022-10-31T15:55:00Z", "2022-10-31T15:55:00Z", "2022-10-31T15:53:00Z", "2022-10-31T15:54:00Z", "2022-10-31T15:35:00Z", "2022-10-31T14:56:00Z", "2022-10-31T14:55:00Z", "2022-10-31T15:51:00Z", "2022-10-31T15:35:00Z", "2022-10-31T15:52:00Z", "2022-10-31T15:54:00Z", "2022-10-31T15:55:00Z", "2022-10-31T15:37:00Z", "2022-10-31T15:55:00Z", "2022-10-31T15:53:00Z", "2022-10-31T15:55:00Z", "2022-10-31T14:47:00Z", "2022-10-31T15:54:00Z", "2022-10-31T15:53:00Z", "2022-10-31T15:55:00Z", "2022-10-31T15:53:00Z", "2022-10-31T15:53:00Z", "2022-10-31T15:35:00Z", "2022-10-31T15:54:00Z", "2022-10-31T15:55:00Z", "2022-10-31T15:55:00Z", "2022-10-31T15:53:00Z", "2022-10-31T15:53:00Z", "2022-10-31T15:55:00Z", "2022-10-31T15:55:00Z", "2022-10-31T15:55:00Z", "2022-10-31T15:55:00Z", "2022-10-31T15:55:00Z", "2022-10-31T15:53:00Z", "2022-10-31T15:55:00Z", "2022-10-31T15:55:00Z", "2022-10-31T15:53:00Z", "2022-10-31T15:55:00Z", "2022-10-31T15:54:00Z", "2022-10-31T15:54:00Z", "2022-10-31T15:30:00Z", "2022-10-31T15:42:00Z", "2022-10-31T15:51:00Z", "2022-10-31T15:55:00Z", "2022-10-31T15:55:00Z", "2022-10-31T15:55:00Z", "2022-10-31T15:35:00Z", "2022-10-31T15:55:00Z", "2022-10-31T15:53:00Z", "2022-10-31T15:55:00Z", "2022-10-31T15:55:00Z", "2022-10-31T15:53:00Z", "2022-10-31T15:55:00Z", "2022-10-31T15:54:00Z", "2022-10-31T15:35:00Z", "2022-10-31T15:53:00Z", "2022-10-31T15:53:00Z", "2022-10-31T15:55:00Z", "2022-10-31T15:53:00Z", "2022-10-31T15:55:00Z", "2022-10-31T15:55:00Z", "2022-10-31T15:56:00Z", "2022-10-31T15:35:00Z", "2022-10-31T15:35:00Z", "2022-10-31T15:55:00Z", "2022-10-31T15:53:00Z", "2022-10-31T15:53:00Z", "2022-10-31T15:53:00Z", "2022-10-31T15:53:00Z", "2022-10-31T15:35:00Z", "2022-10-31T15:53:00Z", "2022-10-31T15:55:00Z", "2022-10-31T14:45:00Z", "2022-10-31T15:55:00Z", "2022-10-31T15:35:00Z", "2022-10-31T15:50:00Z", "2022-10-31T15:55:00Z", "2022-10-31T15:55:00Z", "2022-10-31T15:50:00Z", "2022-10-31T15:30:00Z", "2022-10-31T15:55:00Z", "2022-10-31T15:55:00Z", "2022-10-31T15:55:00Z", "2022-10-31T15:35:00Z", "2022-10-31T15:55:00Z", "2022-10-31T15:35:00Z", "2022-10-31T15:45:00Z", "2022-10-31T15:40:00Z", "2022-10-31T15:35:00Z", "2022-10-31T15:53:00Z", "2022-10-31T15:51:00Z", "2022-10-31T15:53:00Z", "2022-10-31T15:51:00Z", "2022-10-31T15:55:00Z", "2022-10-31T15:51:00Z", "2022-10-31T15:53:00Z", "2022-10-31T15:47:00Z", "2022-10-31T15:55:00Z", "2022-10-31T15:53:00Z", "2022-10-31T15:53:00Z", "2022-10-31T15:53:00Z", "2022-10-31T15:54:00Z", "2022-10-31T15:35:00Z", "2022-10-31T14:56:00Z", "2022-10-31T15:35:00Z", "2022-10-31T15:54:00Z", "2022-10-31T15:55:00Z", "2022-10-31T15:45:00Z", "2022-10-31T15:55:00Z", "2022-10-31T15:55:00Z", "2022-10-31T15:35:00Z", "2022-10-31T15:53:00Z", "2022-10-31T15:55:00Z", "2022-10-31T15:07:00Z", "2022-10-31T15:53:00Z", "2022-10-31T15:53:00Z", "2022-10-31T15:56:00Z", "2022-10-31T15:53:00Z", "2022-10-31T15:47:00Z", "2022-10-31T15:53:00Z", "2022-10-31T15:55:00Z", "2022-10-31T15:55:00Z", "2022-10-31T15:55:00Z", "2022-10-31T15:54:00Z", "2022-10-31T15:55:00Z", "2022-10-31T15:53:00Z", "2022-10-31T15:53:00Z", "2022-10-31T15:56:00Z", "2022-10-31T14:56:00Z", "2022-10-31T15:55:00Z", "2022-10-31T15:23:00Z", "2022-10-31T15:56:00Z", "2022-10-31T15:52:00Z", "2022-10-31T15:56:00Z", "2022-10-31T15:56:00Z", "2022-10-31T15:53:00Z", "2022-10-31T15:55:00Z", "2022-10-31T15:56:00Z", "2022-10-31T15:56:00Z", "2022-10-31T15:55:00Z", "2022-10-31T15:35:00Z", "2022-10-31T15:53:00Z", "2022-10-31T15:53:00Z", "2022-10-31T14:56:00Z", "2022-10-31T15:55:00Z", "2022-10-31T15:55:00Z", "2022-10-31T15:53:00Z", "2022-10-31T15:53:00Z", "2022-10-31T15:35:00Z", "2022-10-31T15:51:00Z", "2022-10-31T15:55:00Z", "2022-10-31T15:55:00Z", "2022-10-31T15:55:00Z", "2022-10-31T15:56:00Z", "2022-10-31T15:35:00Z", "2022-10-31T15:54:00Z", "2022-10-31T14:56:00Z", "2022-10-31T15:56:00Z", "2022-10-31T15:55:00Z", "2022-10-31T15:55:00Z", "2022-10-31T15:51:00Z", "2022-10-31T15:53:00Z", "2022-10-31T15:35:00Z", "2022-10-31T15:35:00Z", "2022-10-31T15:35:00Z", "2022-10-31T15:53:00Z", "2022-10-31T15:56:00Z", "2022-10-31T15:51:00Z", "2022-10-31T15:56:00Z", "2022-10-31T15:53:00Z", "2022-10-31T15:55:00Z", "2022-10-31T15:51:00Z", "2022-10-31T15:53:00Z", "2022-10-31T15:55:00Z", "2022-10-31T15:45:00Z", "2022-10-31T15:55:00Z", "2022-10-31T15:35:00Z", "2022-10-31T15:53:00Z", "2022-10-31T15:51:00Z", "2022-10-31T15:53:00Z", "2022-10-31T15:35:00Z", "2022-10-31T15:56:00Z", "2022-10-31T15:55:00Z", "2022-10-31T15:55:00Z", "2022-10-31T15:53:00Z", "2022-10-31T15:56:00Z", "2022-10-31T15:55:00Z", "2022-10-31T15:53:00Z", "2022-10-31T15:52:00Z", "2022-10-31T15:52:00Z", "2022-10-31T15:53:00Z", "2022-10-31T15:56:00Z", "2022-10-31T14:47:00Z", "2022-10-31T15:55:00Z", "2022-10-31T15:56:00Z", "2022-10-31T15:55:00Z", "2022-10-31T15:53:00Z", "2022-10-31T15:55:00Z", "2022-10-31T15:55:00Z", "2022-10-31T15:53:00Z", "2022-10-31T15:53:00Z", "2022-10-31T15:53:00Z", "2022-10-31T15:35:00Z", "2022-10-31T15:55:00Z", "2022-10-31T15:53:00Z", "2022-10-31T15:35:00Z", "2022-10-31T15:51:00Z", "2022-10-31T15:53:00Z", "2022-10-31T15:53:00Z", "2022-10-31T15:47:00Z", "2022-10-31T15:56:00Z", "2022-10-31T15:50:00Z", "2022-10-31T15:54:00Z", "2022-10-31T15:35:00Z", "2022-10-31T15:55:00Z", "2022-10-31T15:55:00Z", "2022-10-31T15:52:00Z", "2022-10-31T15:55:00Z", "2022-10-31T15:55:00Z", "2022-10-31T15:55:00Z", "2022-10-31T15:55:00Z", "2022-10-31T15:55:00Z", "2022-10-31T14:55:00Z", "2022-10-31T15:53:00Z", "2022-10-31T15:55:00Z", "2022-10-31T15:35:00Z", "2022-10-31T15:55:00Z", "2022-10-31T15:56:00Z", "2022-10-31T15:55:00Z", "2022-10-31T15:55:00Z", "2022-10-31T15:55:00Z", "2022-10-31T15:55:00Z", "2022-10-31T15:55:00Z", "2022-10-31T15:54:00Z", "2022-10-31T14:55:00Z", "2022-10-31T15:55:00Z", "2022-10-31T15:55:00Z", "2022-10-31T15:35:00Z", "2022-10-31T15:35:00Z", "2022-10-31T15:30:00Z", "2022-10-31T15:55:00Z", "2022-10-31T15:55:00Z", "2022-10-31T15:35:00Z", "2022-10-31T15:35:00Z", "2022-10-31T15:55:00Z", "2022-10-31T15:55:00Z", "2022-10-31T15:54:00Z", "2022-10-31T15:52:00Z", "2022-10-31T15:35:00Z", "2022-10-31T15:55:00Z", "2022-10-31T15:35:00Z", "2022-10-31T15:35:00Z", "2022-10-31T15:53:00Z", "2022-10-31T15:53:00Z", "2022-10-31T15:55:00Z", "2022-10-31T15:53:00Z", "2022-10-31T15:35:00Z", "2022-10-31T15:55:00Z", "2022-10-31T15:55:00Z", "2022-10-31T15:53:00Z", "2022-10-31T15:51:00Z", "2022-10-31T15:55:00Z", "2022-10-31T15:35:00Z", "2022-10-31T15:15:00Z", "2022-10-31T15:55:00Z", "2022-10-31T15:55:00Z", "2022-10-31T15:53:00Z", "2022-10-31T15:35:00Z", "2022-10-31T15:55:00Z", "2022-10-31T15:35:00Z", "2022-10-31T15:53:00Z", "2022-10-31T15:47:00Z", "2022-10-31T15:55:00Z", "2022-10-31T15:53:00Z", "2022-10-31T15:55:00Z", "2022-10-31T15:55:00Z", "2022-10-31T15:53:00Z", "2022-10-31T15:53:00Z", "2022-10-31T15:55:00Z", "2022-10-31T15:35:00Z", "2022-10-31T15:35:00Z", "2022-10-31T15:30:00Z", "2022-10-31T15:55:00Z", "2022-10-31T15:47:00Z", "2022-10-31T15:55:00Z", "2022-10-31T15:35:00Z", "2022-10-31T15:53:00Z", "2022-10-31T15:52:00Z", "2022-10-31T15:53:00Z", "2022-10-31T15:53:00Z", "2022-10-31T15:53:00Z", "2022-10-31T14:56:00Z", "2022-10-31T15:51:00Z", "2022-10-31T15:54:00Z", "2022-10-31T15:55:00Z", "2022-10-31T15:35:00Z", "2022-10-31T15:55:00Z", "2022-10-31T15:53:00Z", "2022-10-31T15:45:00Z", "2022-10-31T15:53:00Z", "2022-10-31T15:52:00Z", "2022-10-31T15:55:00Z", "2022-10-31T15:35:00Z", "2022-10-31T15:53:00Z", "2022-10-31T15:55:00Z", "2022-10-31T15:53:00Z", "2022-10-31T15:55:00Z", "2022-10-31T15:53:00Z", "2022-10-31T15:53:00Z", "2022-10-31T15:53:00Z", "2022-10-31T15:53:00Z", "2022-10-31T15:56:00Z", "2022-10-31T15:35:00Z", "2022-10-31T15:53:00Z", "2022-10-31T15:53:00Z", "2022-10-31T15:55:00Z", "2022-10-31T15:53:00Z", "2022-10-31T15:55:00Z", "2022-10-31T15:55:00Z", "2022-10-31T15:53:00Z", "2022-10-31T15:30:00Z", "2022-10-31T15:35:00Z", "2022-10-31T15:35:00Z", "2022-10-31T15:53:00Z", "2022-10-31T15:53:00Z", "2022-10-31T15:45:00Z", "2022-10-31T15:55:00Z", "2022-10-31T15:55:00Z", "2022-10-31T15:55:00Z", "2022-10-31T15:53:00Z", "2022-10-31T15:15:00Z", "2022-10-31T15:56:00Z", "2022-10-31T15:55:00Z", "2022-10-31T15:56:00Z", "2022-10-31T15:45:00Z", "2022-10-31T15:55:00Z", "2022-10-31T15:53:00Z", "2022-10-31T15:54:00Z", "2022-10-31T15:35:00Z", "2022-10-31T14:56:00Z", "2022-10-31T15:35:00Z", "2022-10-31T15:55:00Z", "2022-10-31T15:55:00Z", "2022-10-31T15:35:00Z", "2022-10-31T15:35:00Z", "2022-10-31T15:35:00Z", "2022-10-31T15:53:00Z", "2022-10-31T15:55:00Z", "2022-10-31T15:53:00Z", "2022-10-31T15:55:00Z", "2022-10-31T15:55:00Z", "2022-10-31T15:55:00Z", "2022-10-31T15:53:00Z", "2022-10-31T15:53:00Z", "2022-10-31T15:55:00Z", "2022-10-31T15:55:00Z", "2022-10-31T15:35:00Z", "2022-10-31T15:54:00Z", "2022-10-31T15:55:00Z", "2022-10-31T15:35:00Z", "2022-10-31T15:54:00Z", "2022-10-31T15:55:00Z", "2022-10-31T15:56:00Z", "2022-10-31T15:53:00Z", "2022-10-31T15:51:00Z", "2022-10-31T15:55:00Z", "2022-10-31T15:55:00Z", "2022-10-31T15:35:00Z", "2022-10-31T15:53:00Z", "2022-10-31T15:55:00Z", "2022-10-31T15:35:00Z", "2022-10-31T15:55:00Z", "2022-10-31T15:53:00Z", "2022-10-31T15:35:00Z", "2022-10-31T15:53:00Z", "2022-10-31T15:56:00Z", "2022-10-31T15:55:00Z", "2022-10-31T15:35:00Z", "2022-10-31T15:53:00Z", "2022-10-31T15:55:00Z", "2022-10-31T15:55:00Z", "2022-10-31T15:51:00Z", "2022-10-31T15:40:00Z", "2022-10-31T15:55:00Z", "2022-10-31T15:35:00Z", "2022-10-31T15:55:00Z", "2022-10-31T15:51:00Z", "2022-10-31T15:50:00Z", "2022-10-31T15:53:00Z", "2022-10-31T15:54:00Z", "2022-10-31T15:54:00Z", "2022-10-31T15:55:00Z", "2022-10-31T15:52:00Z", "2022-10-31T15:55:00Z", "2022-10-31T15:35:00Z", "2022-10-31T15:53:00Z", "2022-10-31T15:35:00Z", "2022-10-31T15:55:00Z", "2022-10-31T15:55:00Z", "2022-10-31T15:35:00Z", "2022-10-31T15:55:00Z", "2022-10-31T15:35:00Z", "2022-10-31T15:35:00Z", "2022-10-31T15:55:00Z", "2022-10-31T15:35:00Z", "2022-10-31T15:55:00Z", "2022-10-31T15:55:00Z", "2022-10-31T15:55:00Z", "2022-10-31T15:55:00Z", "2022-10-31T15:55:00Z", "2022-10-31T15:42:00Z", "2022-10-31T15:54:00Z", "2022-10-31T15:35:00Z", "2022-10-31T15:45:00Z", "2022-10-31T15:35:00Z", "2022-10-31T15:50:00Z", "2022-10-31T14:56:00Z", "2022-10-31T15:54:00Z", "2022-10-31T14:56:00Z", "2022-10-31T15:55:00Z", "2022-10-31T14:55:00Z", "2022-10-31T15:53:00Z", "2022-10-31T15:53:00Z", "2022-10-31T15:53:00Z", "2022-10-31T15:56:00Z", "2022-10-31T15:56:00Z", "2022-10-31T15:35:00Z", "2022-10-31T15:55:00Z", "2022-10-31T15:35:00Z", "2022-10-31T15:55:00Z", "2022-10-31T15:35:00Z", "2022-10-31T15:35:00Z", "2022-10-31T15:55:00Z", "2022-10-31T15:55:00Z", "2022-10-31T15:55:00Z", "2022-10-31T15:53:00Z", "2022-10-31T15:55:00Z", "2022-10-31T15:55:00Z", "2022-10-31T15:55:00Z", "2022-10-31T15:53:00Z", "2022-10-31T15:51:00Z", "2022-10-31T15:55:00Z", "2022-10-31T15:55:00Z", "2022-10-31T15:55:00Z", "2022-10-31T15:55:00Z", "2022-10-31T15:56:00Z", "2022-10-31T15:55:00Z", "2022-10-31T15:55:00Z", "2022-10-31T15:55:00Z", "2022-10-31T15:53:00Z", "2022-10-31T15:53:00Z", "2022-10-31T15:56:00Z", "2022-10-31T15:51:00Z", "2022-10-31T15:35:00Z", "2022-10-31T15:35:00Z", "2022-10-31T15:53:00Z", "2022-10-31T15:50:00Z", "2022-10-31T15:30:00Z", "2022-10-31T15:30:00Z", "2022-10-31T15:00:00Z", "2022-10-31T15:30:00Z", "2022-10-31T15:00:00Z", "2022-10-31T15:00:00Z", "2022-10-31T15:30:00Z", "2022-10-31T15:00:00Z", "2022-10-31T15:30:00Z", "2022-10-31T15:20:00Z", "2022-10-31T15:30:00Z", "2022-10-31T15:30:00Z", "2022-10-31T15:50:00Z", "2022-10-31T15:30:00Z", "2022-10-31T15:30:00Z", "2022-10-31T15:30:00Z", "2022-10-31T15:30:00Z", "2022-10-31T15:30:00Z", "2022-10-31T15:30:00Z", "2022-10-31T15:30:00Z", "2022-10-31T15:30:00Z", "2022-10-31T15:30:00Z", "2022-10-31T15:30:00Z", "2022-10-31T15:30:00Z", "2022-10-31T15:30:00Z", "2022-10-31T15:30:00Z", "2022-10-31T15:30:00Z", "2022-10-31T15:30:00Z", "2022-10-31T15:48:00Z", "2022-10-31T15:30:00Z", "2022-10-31T15:30:00Z", "2022-10-31T15:30:00Z", "2022-10-31T15:30:00Z", "2022-10-31T15:30:00Z", "2022-10-31T15:30:00Z", "2022-10-31T15:30:00Z", "2022-10-31T15:30:00Z", "2022-10-31T15:30:00Z", "2022-10-31T15:30:00Z", "2022-10-31T15:30:00Z", "2022-10-31T15:30:00Z", "2022-10-31T15:30:00Z", "2022-10-31T15:30:00Z", "2022-10-31T15:30:00Z", "2022-10-31T15:30:00Z", "2022-10-31T15:30:00Z", "2022-10-31T15:30:00Z", "2022-10-31T15:30:00Z", "2022-10-31T15:30:00Z", "2022-10-31T15:30:00Z", "2022-10-31T15:30:00Z", "2022-10-31T15:30:00Z", "2022-10-31T15:30:00Z", "2022-10-31T15:30:00Z", "2022-10-31T15:30:00Z", "2022-10-31T15:30:00Z", "2022-10-31T15:30:00Z", "2022-10-31T15:30:00Z", "2022-10-31T15:30:00Z", "2022-10-31T15:30:00Z", "2022-10-31T15:30:00Z", "2022-10-31T15:30:00Z", "2022-10-31T15:30:00Z", "2022-10-31T15:30:00Z", "2022-10-31T15:30:00Z", "2022-10-31T15:30:00Z", "2022-10-31T15:30:00Z", "2022-10-31T15:30:00Z", "2022-10-31T15:30:00Z", "2022-10-31T15:30:00Z", "2022-10-31T15:30:00Z", "2022-10-31T15:30:00Z", "2022-10-31T15:30:00Z", "2022-10-31T15:30:00Z", "2022-10-31T15:30:00Z", "2022-10-31T15:30:00Z", "2022-10-31T15:30:00Z", "2022-10-31T15:30:00Z", "2022-10-31T15:30:00Z", "2022-10-31T15:30:00Z", "2022-10-31T15:30:00Z", "2022-10-31T15:30:00Z", "2022-10-31T15:30:00Z", "2022-10-31T15:30:00Z", "2022-10-31T15:30:00Z", "2022-10-31T15:30:00Z", "2022-10-31T15:30:00Z", "2022-10-31T15:30:00Z", "2022-10-31T15:30:00Z", "2022-10-31T15:30:00Z", "2022-10-31T15:30:00Z", "2022-10-31T15:30:00Z", "2022-10-31T15:30:00Z", "2022-10-31T15:30:00Z", "2022-10-31T15:30:00Z", "2022-10-31T15:30:00Z", "2022-10-31T15:30:00Z", "2022-10-31T15:30:00Z", "2022-10-31T15:30:00Z", "2022-10-31T15:30:00Z", "2022-10-31T15:30:00Z", "2022-10-31T15:30:00Z", "2022-10-31T15:30:00Z", "2022-10-31T15:30:00Z", "2022-10-31T15:30:00Z", "2022-10-31T15:30:00Z", "2022-10-31T15:30:00Z", "2022-10-31T15:30:00Z", "2022-10-31T15:30:00Z", "2022-10-31T15:30:00Z", "2022-10-31T15:30:00Z", "2022-10-31T15:30:00Z", "2022-10-31T15:30:00Z", "2022-10-31T15:30:00Z", "2022-10-31T15:30:00Z", "2022-10-31T15:30:00Z", "2022-10-31T15:30:00Z", "2022-10-31T15:30:00Z", "2022-10-31T15:30:00Z", "2022-10-31T15:30:00Z", "2022-10-31T15:30:00Z", "2022-10-31T15:30:00Z", "2022-10-31T15:30:00Z", "2022-10-31T15:30:00Z", "2022-10-31T15:30:00Z", "2022-10-31T15:30:00Z", "2022-10-31T15:30:00Z", "2022-10-31T15:30:00Z", "2022-10-31T15:30:00Z", "2022-10-31T15:30:00Z", "2022-10-31T15:30:00Z", "2022-10-31T15:30:00Z", "2022-10-31T15:30:00Z", "2022-10-31T15:30:00Z", "2022-10-31T15:30:00Z", "2022-10-31T15:30:00Z", "2022-10-31T15:30:00Z", "2022-10-31T15:30:00Z", "2022-10-31T15:30:00Z", "2022-10-31T15:30:00Z", "2022-10-31T15:30:00Z", "2022-10-31T15:30:00Z", "2022-10-31T15:30:00Z", "2022-10-31T15:30:00Z", "2022-10-31T15:30:00Z", "2022-10-31T15:30:00Z", "2022-10-31T15:30:00Z", "2022-10-31T15:30:00Z", "2022-10-31T15:30:00Z", "2022-10-31T15:30:00Z", "2022-10-31T15:30:00Z", "2022-10-31T15:30:00Z", "2022-10-31T15:30:00Z", "2022-10-31T15:30:00Z", "2022-10-31T15:30:00Z", "2022-10-31T15:30:00Z", "2022-10-31T15:30:00Z", "2022-10-31T15:30:00Z", "2022-10-31T15:30:00Z", "2022-10-31T15:30:00Z", "2022-10-31T15:30:00Z", "2022-10-31T15:30:00Z", "2022-10-31T15:30:00Z", "2022-10-31T15:30:00Z", "2022-10-31T15:30:00Z", "2022-10-31T15:30:00Z", "2022-10-31T15:30:00Z", "2022-10-31T15:30:00Z", "2022-10-31T15:30:00Z", "2022-10-31T15:30:00Z", "2022-10-31T15:30:00Z", "2022-10-31T15:30:00Z", "2022-10-31T15:30:00Z", "2022-10-31T15:30:00Z", "2022-10-31T15:30:00Z", "2022-10-31T15:30:00Z", "2022-10-31T15:30:00Z", "2022-10-31T15:30:00Z", "2022-10-31T15:30:00Z", "2022-10-31T15:30:00Z", "2022-10-31T15:30:00Z", "2022-10-31T15:30:00Z", "2022-10-31T15:50:00Z", "2022-10-31T15:50:00Z", "2022-10-31T15:50:00Z", "2022-10-31T15:50:00Z", "2022-10-31T15:50:00Z", "2022-10-31T15:50:00Z", "2022-10-31T15:50:00Z", "2022-10-31T15:50:00Z", "2022-10-31T15:50:00Z", "2022-10-31T15:50:00Z", "2022-10-31T15:50:00Z", "2022-10-31T15:50:00Z", "2022-10-31T15:50:00Z", "2022-10-31T15:50:00Z", "2022-10-31T15:50:00Z", "2022-10-31T15:50:00Z", "2022-10-31T15:50:00Z", "2022-10-31T15:50:00Z", "2022-10-31T15:50:00Z", "2022-10-31T15:50:00Z", "2022-10-31T15:50:00Z", "2022-10-31T15:50:00Z", "2022-10-31T15:50:00Z", "2022-10-31T15:50:00Z", "2022-10-31T15:50:00Z", "2022-10-31T15:50:00Z", "2022-10-31T15:50:00Z", "2022-10-31T15:20:00Z", "2022-10-31T15:50:00Z", "2022-10-31T15:50:00Z", "2022-10-31T15:30:00Z", "2022-10-31T15:15:00Z", "2022-10-31T15:45:00Z", "2022-10-31T15:15:00Z", "2022-10-31T15:33:00Z", "2022-10-31T15:15:00Z", "2022-10-31T15:15:00Z", "2022-10-31T15:45:00Z", "2022-10-31T14:55:00Z", "2022-10-31T14:50:00Z", "2022-10-31T15:50:00Z", "2022-10-31T14:50:00Z", "2022-10-31T14:50:00Z", "2022-10-31T14:55:00Z", "2022-10-31T15:50:00Z", "2022-10-31T14:55:00Z", "2022-10-31T15:50:00Z", "2022-10-31T14:55:00Z", "2022-10-31T14:55:00Z", "2022-10-31T15:50:00Z", "2022-10-31T15:50:00Z", "2022-10-31T15:50:00Z", "2022-10-31T15:50:00Z", "2022-10-31T14:55:00Z", "2022-10-31T14:50:00Z", "2022-10-31T15:50:00Z", "2022-10-31T15:50:00Z", "2022-10-31T14:55:00Z", "2022-10-31T14:55:00Z", "2022-10-31T15:50:00Z", "2022-10-31T14:55:00Z", "2022-10-31T14:55:00Z", "2022-10-31T15:50:00Z", "2022-10-31T15:50:00Z", "2022-10-31T14:50:00Z", "2022-10-31T15:50:00Z", "2022-10-31T15:50:00Z", "2022-10-31T15:50:00Z", "2022-10-31T14:50:00Z", "2022-10-31T14:55:00Z", "2022-10-31T15:50:00Z", "2022-10-31T14:55:00Z", "2022-10-31T15:50:00Z", "2022-10-31T14:55:00Z", "2022-10-31T14:50:00Z", "2022-10-31T14:55:00Z", "2022-10-31T14:55:00Z", "2022-10-31T14:55:00Z", "2022-10-31T14:50:00Z", "2022-10-31T14:55:00Z", "2022-10-31T15:50:00Z", "2022-10-31T14:55:00Z", "2022-10-31T15:50:00Z", "2022-10-31T14:55:00Z", "2022-10-31T15:50:00Z", "2022-10-31T14:55:00Z", "2022-10-31T15:50:00Z", "2022-10-31T14:55:00Z", "2022-10-31T15:50:00Z", "2022-10-31T14:55:00Z", "2022-10-31T15:50:00Z", "2022-10-31T15:50:00Z", "2022-10-31T15:50:00Z", "2022-10-31T14:55:00Z", "2022-10-31T15:50:00Z", "2022-10-31T15:50:00Z", "2022-10-31T15:50:00Z", "2022-10-31T14:55:00Z", "2022-10-31T14:50:00Z", "2022-10-31T14:55:00Z", "2022-10-31T15:50:00Z", "2022-10-31T14:55:00Z", "2022-10-31T15:50:00Z", "2022-10-31T14:55:00Z", "2022-10-31T14:55:00Z", "2022-10-31T14:50:00Z", "2022-10-31T14:55:00Z", "2022-10-31T14:55:00Z", "2022-10-31T14:55:00Z", "2022-10-31T15:50:00Z", "2022-10-31T15:45:00Z", "2022-10-31T15:50:00Z", "2022-10-31T14:55:00Z", "2022-10-31T14:55:00Z", "2022-10-31T14:50:00Z", "2022-10-31T14:55:00Z", "2022-10-31T14:55:00Z", "2022-10-31T15:50:00Z", "2022-10-31T14:55:00Z", "2022-10-31T14:55:00Z", "2022-10-31T14:55:00Z", "2022-10-31T14:55:00Z", "2022-10-31T14:55:00Z", "2022-10-31T14:55:00Z", "2022-10-31T14:55:00Z", "2022-10-31T14:55:00Z", "2022-10-31T14:55:00Z", "2022-10-31T15:30:00Z", "2022-10-31T15:30:00Z", "2022-10-31T15:30:00Z", "2022-10-31T15:30:00Z", "2022-10-31T15:30:00Z", "2022-10-31T15:00:00Z", "2022-10-31T15:00:00Z", "2022-10-31T15:30:00Z", "2022-10-31T15:00:00Z", "2022-10-31T15:30:00Z", "2022-10-31T15:30:00Z", "2022-10-31T15:30:00Z", "2022-10-31T15:30:00Z", "2022-10-31T15:30:00Z", "2022-10-31T15:50:00Z", "2022-10-31T15:50:00Z", "2022-10-31T15:50:00Z", "2022-10-31T15:50:00Z", "2022-10-31T15:45:00Z", "2022-10-31T15:00:00Z", "2022-10-31T15:00:00Z", "2022-10-31T15:50:00Z", "2022-10-31T15:50:00Z", "2022-10-31T15:50:00Z", "2022-10-31T15:50:00Z", "2022-10-31T15:50:00Z", "2022-10-31T15:50:00Z", "2022-10-31T15:50:00Z", "2022-10-31T15:00:00Z", "2022-10-31T15:30:00Z", "2022-10-31T15:00:00Z", "2022-10-31T15:30:00Z", "2022-10-31T15:30:00Z", "2022-10-31T15:30:00Z", "2022-10-31T15:30:00Z", "2022-10-31T15:00:00Z", "2022-10-31T15:30:00Z", "2022-10-31T15:00:00Z", "2022-10-31T15:00:00Z", "2022-10-31T15:00:00Z", "2022-10-31T15:30:00Z", "2022-10-31T15:30:00Z", "2022-10-31T15:30:00Z", "2022-10-31T15:30:00Z", "2022-10-31T15:00:00Z", "2022-10-31T15:30:00Z", "2022-10-31T15:00:00Z", "2022-10-31T15:30:00Z", "2022-10-31T15:30:00Z", "2022-10-31T15:30:00Z", "2022-10-31T15:30:00Z", "2022-10-31T15:30:00Z", "2022-10-31T15:00:00Z", "2022-10-31T15:30:00Z", "2022-10-31T15:30:00Z", "2022-10-31T15:30:00Z", "2022-10-31T15:30:00Z", "2022-10-31T15:00:00Z", "2022-10-31T15:30:00Z", "2022-10-31T15:30:00Z", "2022-10-31T15:30:00Z", "2022-10-31T15:30:00Z", "2022-10-31T15:30:00Z", "2022-10-31T15:30:00Z", "2022-10-31T15:30:00Z", "2022-10-31T15:30:00Z", "2022-10-31T15:30:00Z", "2022-10-31T15:00:00Z", "2022-10-31T15:50:00Z", "2022-10-31T15:50:00Z", "2022-10-31T15:50:00Z", "2022-10-31T15:50:00Z", "2022-10-31T15:50:00Z", "2022-10-31T15:50:00Z", "2022-10-31T15:50:00Z", "2022-10-31T15:50:00Z", "2022-10-31T15:50:00Z", "2022-10-31T15:50:00Z", "2022-10-31T15:50:00Z", "2022-10-31T15:50:00Z", "2022-10-31T15:50:00Z", "2022-10-31T15:50:00Z", "2022-10-31T15:50:00Z", "2022-10-31T15:50:00Z", "2022-10-31T15:20:00Z", "2022-10-31T14:50:00Z", "2022-10-31T15:20:00Z", "2022-10-31T15:20:00Z", "2022-10-31T15:20:00Z", "2022-10-31T15:20:00Z", "2022-10-31T14:50:00Z", "2022-10-31T15:20:00Z", "2022-10-31T14:50:00Z", "2022-10-31T15:20:00Z", "2022-10-31T15:20:00Z", "2022-10-31T14:50:00Z", "2022-10-31T15:20:00Z", "2022-10-31T15:20:00Z", "2022-10-31T14:50:00Z", "2022-10-31T14:50:00Z", "2022-10-31T14:50:00Z", "2022-10-31T15:20:00Z", "2022-10-31T14:50:00Z", "2022-10-31T15:20:00Z", "2022-10-31T15:20:00Z", "2022-10-31T15:20:00Z", "2022-10-31T14:50:00Z", "2022-10-31T14:50:00Z", "2022-10-31T14:50:00Z", "2022-10-31T15:20:00Z", "2022-10-31T14:50:00Z", "2022-10-31T15:20:00Z", "2022-10-31T14:50:00Z", "2022-10-31T15:20:00Z", "2022-10-31T15:40:00Z", "2022-10-31T15:20:00Z", "2022-10-31T14:50:00Z", "2022-10-31T14:50:00Z", "2022-10-31T14:50:00Z", "2022-10-31T15:20:00Z", "2022-10-31T14:50:00Z", "2022-10-31T14:50:00Z", "2022-10-31T14:50:00Z", "2022-10-31T14:50:00Z", "2022-10-31T14:50:00Z", "2022-10-31T15:20:00Z", "2022-10-31T14:50:00Z", "2022-10-31T15:20:00Z", "2022-10-31T14:50:00Z", "2022-10-31T14:50:00Z", "2022-10-31T15:20:00Z", "2022-10-31T15:20:00Z", "2022-10-31T14:50:00Z", "2022-10-31T15:30:00Z", "2022-10-31T15:50:00Z", "2022-10-31T15:30:00Z", "2022-10-31T15:30:00Z", "2022-10-31T15:30:00Z", "2022-10-31T15:30:00Z", "2022-10-31T15:30:00Z", "2022-10-31T15:30:00Z", "2022-10-31T15:30:00Z", "2022-10-31T15:30:00Z", "2022-10-31T15:30:00Z", "2022-10-31T15:30:00Z", "2022-10-31T15:30:00Z", "2022-10-31T15:30:00Z", "2022-10-31T15:00:00Z", "2022-10-31T15:00:00Z", "2022-10-31T15:00:00Z", "2022-10-31T15:00:00Z", "2022-10-31T15:00:00Z", "2022-10-31T15:00:00Z", "2022-10-31T15:00:00Z", "2022-10-31T15:00:00Z", "2022-10-31T15:00:00Z", "2022-10-31T15:00:00Z", "2022-10-31T15:00:00Z", "2022-10-31T15:00:00Z", "2022-10-31T15:00:00Z", "2022-10-31T15:00:00Z", "2022-10-31T15:00:00Z", "2022-10-31T15:00:00Z", "2022-10-31T15:00:00Z", "2022-10-31T15:00:00Z", "2022-10-31T15:00:00Z", "2022-10-31T15:00:00Z", "2022-10-31T15:00:00Z", "2022-10-31T15:00:00Z", "2022-10-31T15:00:00Z", "2022-10-31T15:00:00Z", "2022-10-31T15:00:00Z", "2022-10-31T15:00:00Z", "2022-10-31T15:00:00Z", "2022-10-31T15:00:00Z", "2022-10-31T15:00:00Z", "2022-10-31T15:00:00Z", "2022-10-31T15:00:00Z", "2022-10-31T15:00:00Z", "2022-10-31T15:00:00Z", "2022-10-31T15:45:00Z", "2022-10-31T15:00:00Z", "2022-10-31T15:04:00Z", "2022-10-31T15:51:00Z", "2022-10-31T14:52:00Z", "2022-10-31T15:40:00Z", "2022-10-31T15:50:00Z", "2022-10-31T15:46:00Z", "2022-10-31T15:40:00Z", "2022-10-31T15:41:00Z", "2022-10-31T14:45:00Z", "2022-10-31T14:46:00Z", "2022-10-31T14:52:00Z", "2022-10-31T14:45:00Z", "2022-10-31T15:42:00Z", "2022-10-31T15:44:00Z", "2022-10-31T15:40:00Z", "2022-10-31T14:53:00Z", "2022-10-31T14:45:00Z", "2022-10-31T14:57:00Z", "2022-10-31T15:40:00Z", "2022-10-31T14:48:00Z", "2022-10-31T14:52:00Z", "2022-10-31T15:43:00Z", "2022-10-31T14:47:00Z", "2022-10-31T15:40:00Z", "2022-10-31T14:48:00Z", "2022-10-31T14:53:00Z", "2022-10-31T15:20:00Z", "2022-10-31T15:40:00Z", "2022-10-31T15:41:00Z", "2022-10-31T15:42:00Z", "2022-10-31T15:24:00Z", "2022-10-31T14:49:00Z", "2022-10-31T15:00:00Z", "2022-10-31T15:00:00Z", "2022-10-31T15:00:00Z", "2022-10-31T15:00:00Z", "2022-10-31T15:00:00Z", "2022-10-31T15:00:00Z", "2022-10-31T15:00:00Z", "2022-10-31T15:00:00Z", "2022-10-31T15:00:00Z", "2022-10-31T15:00:00Z", "2022-10-31T15:00:00Z", "2022-10-31T15:00:00Z", "2022-10-31T15:00:00Z", "2022-10-31T15:00:00Z", "2022-10-31T14:50:00Z", "2022-10-31T15:50:00Z", "2022-10-31T14:50:00Z", "2022-10-31T14:50:00Z", "2022-10-31T14:50:00Z", "2022-10-31T15:00:00Z", "2022-10-31T14:50:00Z", "2022-10-31T14:50:00Z", "2022-10-31T14:50:00Z", "2022-10-31T14:51:00Z", "2022-10-31T14:50:00Z", "2022-10-31T15:51:00Z", "2022-10-31T14:50:00Z", "2022-10-31T14:50:00Z", "2022-10-31T14:50:00Z", "2022-10-31T14:50:00Z", "2022-10-31T15:00:00Z", "2022-10-31T15:00:00Z", "2022-10-31T15:00:00Z", "2022-10-31T15:00:00Z", "2022-10-31T15:00:00Z", "2022-10-31T15:30:00Z", "2022-10-31T15:00:00Z", "2022-10-31T15:00:00Z", "2022-10-31T15:30:00Z", "2022-10-31T15:00:00Z", "2022-10-31T14:50:00Z", "2022-10-31T15:30:00Z", "2022-10-31T15:00:00Z", "2022-10-31T15:00:00Z", "2022-10-31T15:30:00Z", "2022-10-31T15:30:00Z", "2022-10-31T15:30:00Z", "2022-10-31T15:55:00Z", "2022-10-31T15:55:00Z", "2022-10-31T15:50:00Z", "2022-10-31T15:30:00Z", "2022-10-31T15:30:00Z", "2022-10-31T15:00:00Z", "2022-10-31T15:00:00Z", "2022-10-31T15:00:00Z", "2022-10-31T15:00:00Z", "2022-10-31T15:00:00Z", "2022-10-31T15:00:00Z", "2022-10-31T15:00:00Z", "2022-10-31T15:00:00Z", "2022-10-31T15:00:00Z", "2022-10-31T15:00:00Z", "2022-10-31T15:00:00Z", "2022-10-31T15:00:00Z", "2022-10-31T15:00:00Z", "2022-10-31T15:00:00Z", "2022-10-31T15:00:00Z", "2022-10-31T15:00:00Z", "2022-10-31T15:00:00Z", "2022-10-31T15:00:00Z", "2022-10-31T15:00:00Z", "2022-10-31T15:00:00Z", "2022-10-31T15:55:00Z", "2022-10-31T15:00:00Z", "2022-10-31T15:00:00Z", "2022-10-31T15:00:00Z", "2022-10-31T15:00:00Z", "2022-10-31T15:00:00Z", "2022-10-31T15:00:00Z", "2022-10-31T15:00:00Z", "2022-10-31T15:00:00Z", "2022-10-31T15:00:00Z", "2022-10-31T15:00:00Z", "2022-10-31T15:00:00Z", "2022-10-31T15:00:00Z", "2022-10-31T15:00:00Z", "2022-10-31T15:00:00Z", "2022-10-31T15:00:00Z", "2022-10-31T15:30:00Z", "2022-10-31T15:00:00Z", "2022-10-31T15:00:00Z", "2022-10-31T15:00:00Z", "2022-10-31T15:00:00Z", "2022-10-31T15:00:00Z", "2022-10-31T15:00:00Z", "2022-10-31T15:00:00Z", "2022-10-31T15:00:00Z", "2022-10-31T15:00:00Z", "2022-10-31T15:00:00Z", "2022-10-31T15:30:00Z", "2022-10-31T15:00:00Z", "2022-10-31T15:00:00Z", "2022-10-31T15:00:00Z", "2022-10-31T15:30:00Z", "2022-10-31T15:00:00Z", "2022-10-31T15:30:00Z", "2022-10-31T15:00:00Z", "2022-10-31T15:00:00Z", "2022-10-31T15:30:00Z", "2022-10-31T15:30:00Z", "2022-10-31T15:00:00Z", "2022-10-31T15:00:00Z", "2022-10-31T15:30:00Z", "2022-10-31T15:00:00Z", "2022-10-31T15:00:00Z", "2022-10-31T15:00:00Z", "2022-10-31T15:00:00Z", "2022-10-31T15:30:00Z", "2022-10-31T15:00:00Z", "2022-10-31T15:00:00Z", "2022-10-31T15:00:00Z", "2022-10-31T15:00:00Z", "2022-10-31T15:00:00Z", "2022-10-31T15:00:00Z", "2022-10-31T15:00:00Z", "2022-10-31T15:00:00Z", "2022-10-31T15:00:00Z", "2022-10-31T15:00:00Z", "2022-10-31T15:00:00Z", "2022-10-31T15:30:00Z", "2022-10-31T15:00:00Z", "2022-10-31T15:00:00Z", "2022-10-31T15:00:00Z", "2022-10-31T15:00:00Z", "2022-10-31T15:00:00Z", "2022-10-31T15:30:00Z", "2022-10-31T15:00:00Z", "2022-10-31T15:30:00Z", "2022-10-31T15:00:00Z", "2022-10-31T15:00:00Z", "2022-10-31T15:00:00Z", "2022-10-31T15:00:00Z", "2022-10-31T15:00:00Z", "2022-10-31T15:55:00Z", "2022-10-31T15:00:00Z", "2022-10-31T15:00:00Z", "2022-10-31T15:00:00Z", "2022-10-31T15:00:00Z", "2022-10-31T15:00:00Z", "2022-10-31T15:00:00Z", "2022-10-31T15:00:00Z", "2022-10-31T15:00:00Z", "2022-10-31T14:50:00Z", "2022-10-31T14:50:00Z", "2022-10-31T14:50:00Z", "2022-10-31T14:50:00Z", "2022-10-31T14:50:00Z", "2022-10-31T14:50:00Z", "2022-10-31T15:00:00Z", "2022-10-31T15:00:00Z", "2022-10-31T15:55:00Z", "2022-10-31T15:30:00Z", "2022-10-31T15:30:00Z", "2022-10-31T15:00:00Z", "2022-10-31T15:00:00Z", "2022-10-31T15:30:00Z", "2022-10-31T14:55:00Z", "2022-10-31T15:00:00Z", "2022-10-31T15:55:00Z", "2022-10-31T15:56:00Z", "2022-10-31T15:53:00Z", "2022-10-31T15:52:00Z", "2022-10-31T15:53:00Z", "2022-10-31T15:53:00Z", "2022-10-31T15:56:00Z", "2022-10-31T15:53:00Z", "2022-10-31T15:53:00Z", "2022-10-31T15:56:00Z", "2022-10-31T15:53:00Z", "2022-10-31T15:53:00Z", "2022-10-31T15:55:00Z", "2022-10-31T15:05:00Z", "2022-10-31T15:56:00Z", "2022-10-31T15:56:00Z", "2022-10-31T15:56:00Z", "2022-10-31T15:53:00Z", "2022-10-31T15:56:00Z", "2022-10-31T14:56:00Z", "2022-10-31T15:53:00Z", "2022-10-31T15:55:00Z", "2022-10-31T15:55:00Z", "2022-10-31T15:53:00Z", "2022-10-31T15:53:00Z", "2022-10-31T15:55:00Z", "2022-10-31T15:56:00Z", "2022-10-31T15:56:00Z", "2022-10-31T15:55:00Z", "2022-10-31T15:01:00Z", "2022-10-31T15:56:00Z", "2022-10-31T14:53:00Z", "2022-10-31T15:56:00Z", "2022-10-31T15:56:00Z", "2022-10-31T15:56:00Z", "2022-10-31T15:53:00Z", "2022-10-31T15:56:00Z", "2022-10-31T15:54:00Z", "2022-10-31T15:53:00Z", "2022-10-31T15:02:00Z", "2022-10-31T15:56:00Z", "2022-10-31T15:56:00Z", "2022-10-31T15:56:00Z", "2022-10-31T15:53:00Z", "2022-10-31T15:55:00Z", "2022-10-31T15:56:00Z", "2022-10-31T15:56:00Z", "2022-10-31T15:53:00Z", "2022-10-31T15:56:00Z", "2022-10-31T15:56:00Z", "2022-10-31T15:56:00Z", "2022-10-31T15:56:00Z", "2022-10-31T15:56:00Z", "2022-10-31T15:54:00Z", "2022-10-31T15:56:00Z", "2022-10-31T14:53:00Z", "2022-10-31T15:45:00Z", "2022-10-31T15:53:00Z", "2022-10-31T15:53:00Z", "2022-10-31T15:55:00Z", "2022-10-31T15:56:00Z", "2022-10-31T15:53:00Z", "2022-10-31T15:45:00Z", "2022-10-31T15:55:00Z", "2022-10-31T15:56:00Z", "2022-10-31T14:51:00Z", "2022-10-31T15:56:00Z", "2022-10-31T15:56:00Z", "2022-10-31T15:53:00Z", "2022-10-31T15:56:00Z", "2022-10-31T15:53:00Z", "2022-10-31T15:56:00Z", "2022-10-31T15:53:00Z", "2022-10-31T15:56:00Z", "2022-10-31T15:56:00Z", "2022-10-31T15:56:00Z", "2022-10-31T15:53:00Z", "2022-10-31T15:56:00Z", "2022-10-31T15:53:00Z", "2022-10-31T15:53:00Z", "2022-10-31T15:56:00Z", "2022-10-31T15:53:00Z", "2022-10-31T15:56:00Z", "2022-10-31T15:56:00Z", "2022-10-31T15:56:00Z", "2022-10-31T15:56:00Z", "2022-10-31T15:56:00Z", "2022-10-31T15:53:00Z", "2022-10-31T15:56:00Z", "2022-10-31T15:56:00Z", "2022-10-31T15:10:00Z", "2022-10-31T15:56:00Z", "2022-10-31T15:56:00Z", "2022-10-31T15:53:00Z", "2022-10-31T15:56:00Z", "2022-10-31T15:56:00Z", "2022-10-31T15:53:00Z", "2022-10-31T15:56:00Z", "2022-10-31T15:56:00Z", "2022-10-31T15:53:00Z", "2022-10-31T15:53:00Z", "2022-10-31T14:55:00Z", "2022-10-31T15:56:00Z", "2022-10-31T14:59:00Z", "2022-10-31T15:52:00Z", "2022-10-31T15:15:00Z", "2022-10-31T15:56:00Z", "2022-10-31T15:53:00Z", "2022-10-31T14:55:00Z", "2022-10-31T15:53:00Z", "2022-10-31T15:56:00Z", "2022-10-31T15:56:00Z", "2022-10-31T15:55:00Z", "2022-10-31T15:56:00Z", "2022-10-31T15:56:00Z", "2022-10-31T15:56:00Z", "2022-10-31T15:53:00Z", "2022-10-31T14:55:00Z", "2022-10-31T15:53:00Z", "2022-10-31T15:56:00Z", "2022-10-31T15:56:00Z", "2022-10-31T15:56:00Z", "2022-10-31T15:53:00Z", "2022-10-31T15:56:00Z", "2022-10-31T15:56:00Z", "2022-10-31T15:56:00Z", "2022-10-31T15:56:00Z", "2022-10-31T15:56:00Z", "2022-10-31T15:56:00Z", "2022-10-31T15:56:00Z", "2022-10-31T15:56:00Z", "2022-10-31T15:56:00Z", "2022-10-31T15:54:00Z", "2022-10-31T15:55:00Z", "2022-10-31T15:54:00Z", "2022-10-31T15:51:00Z", "2022-10-31T15:55:00Z", "2022-10-31T15:53:00Z", "2022-10-31T15:53:00Z", "2022-10-31T15:53:00Z", "2022-10-31T15:54:00Z", "2022-10-31T15:57:00Z", "2022-10-31T15:53:00Z", "2022-10-31T15:56:00Z", "2022-10-31T15:54:00Z", "2022-10-31T14:58:00Z", "2022-10-31T15:53:00Z", "2022-10-31T15:54:00Z", "2022-10-31T15:40:00Z", "2022-10-31T15:00:00Z", "2022-10-31T15:56:00Z", "2022-10-31T15:56:00Z", "2022-10-31T15:50:00Z", "2022-10-31T14:51:00Z", "2022-10-31T15:55:00Z", "2022-10-31T15:30:00Z", "2022-10-31T15:10:00Z", "2022-10-31T15:30:00Z", "2022-10-31T15:30:00Z", "2022-10-31T15:30:00Z", "2022-10-31T15:30:00Z", "2022-10-31T15:00:00Z", "2022-10-31T15:00:00Z", "2022-10-31T15:30:00Z", "2022-10-31T15:30:00Z", "2022-10-31T15:00:00Z", "2022-10-31T15:30:00Z", "2022-10-31T15:00:00Z", "2022-10-31T15:30:00Z", "2022-10-31T15:00:00Z", "2022-10-31T15:00:00Z", "2022-10-31T15:00:00Z", "2022-10-31T15:00:00Z", "2022-10-31T14:56:00Z", "2022-10-31T15:00:00Z", "2022-10-31T15:00:00Z", "2022-10-31T15:00:00Z", "2022-10-31T15:30:00Z", "2022-10-31T14:55:00Z", "2022-10-31T15:35:00Z", "2022-10-31T15:55:00Z", "2022-10-31T15:00:00Z", "2022-10-31T15:00:00Z", "2022-10-31T15:00:00Z", "2022-10-31T14:55:00Z", "2022-10-31T15:30:00Z", "2022-10-31T15:00:00Z", "2022-10-31T15:55:00Z", "2022-10-31T15:00:00Z", "2022-10-31T15:00:00Z", "2022-10-31T15:00:00Z", "2022-10-31T15:30:00Z", "2022-10-31T15:55:00Z", "2022-10-31T15:00:00Z", "2022-10-31T15:00:00Z", "2022-10-31T15:00:00Z", "2022-10-31T15:00:00Z", "2022-10-31T14:56:00Z", "2022-10-31T15:00:00Z", "2022-10-31T15:00:00Z", "2022-10-31T15:00:00Z", "2022-10-31T15:00:00Z", "2022-10-31T15:00:00Z", "2022-10-31T15:00:00Z", "2022-10-31T15:00:00Z", "2022-10-31T15:00:00Z", "2022-10-31T15:00:00Z", "2022-10-31T15:00:00Z", "2022-10-31T15:00:00Z", "2022-10-31T15:00:00Z", "2022-10-31T15:00:00Z", "2022-10-31T15:00:00Z", "2022-10-31T15:00:00Z", "2022-10-31T15:00:00Z", "2022-10-31T15:00:00Z", "2022-10-31T15:00:00Z", "2022-10-31T15:00:00Z", "2022-10-31T15:00:00Z", "2022-10-31T15:00:00Z", "2022-10-31T15:00:00Z", "2022-10-31T15:24:00Z", "2022-10-31T15:00:00Z", "2022-10-31T15:00:00Z", "2022-10-31T15:00:00Z", "2022-10-31T15:44:00Z", "2022-10-31T15:00:00Z", "2022-10-31T15:00:00Z", "2022-10-31T15:00:00Z", "2022-10-31T15:00:00Z", "2022-10-31T15:00:00Z", "2022-10-31T15:00:00Z", "2022-10-31T15:00:00Z", "2022-10-31T15:00:00Z", "2022-10-31T15:00:00Z", "2022-10-31T15:00:00Z", "2022-10-31T15:00:00Z", "2022-10-31T15:00:00Z", "2022-10-31T15:00:00Z", "2022-10-31T15:00:00Z", "2022-10-31T15:34:00Z", "2022-10-31T15:00:00Z", "2022-10-31T15:00:00Z", "2022-10-31T15:00:00Z", "2022-10-31T15:00:00Z", "2022-10-31T15:00:00Z", "2022-10-31T15:20:00Z", "2022-10-31T15:00:00Z", "2022-10-31T15:00:00Z", "2022-10-31T15:00:00Z", "2022-10-31T15:00:00Z", "2022-10-31T15:20:00Z", "2022-10-31T15:00:00Z", "2022-10-31T15:00:00Z", "2022-10-31T15:00:00Z", "2022-10-31T15:00:00Z", "2022-10-31T15:00:00Z", "2022-10-31T15:00:00Z", "2022-10-31T15:00:00Z", "2022-10-31T15:00:00Z", "2022-10-31T15:00:00Z", "2022-10-31T15:00:00Z", "2022-10-31T15:00:00Z", "2022-10-31T15:00:00Z", "2022-10-31T15:00:00Z", "2022-10-31T15:00:00Z", "2022-10-31T15:00:00Z", "2022-10-31T15:00:00Z", "2022-10-31T15:00:00Z", "2022-10-31T15:00:00Z", "2022-10-31T15:00:00Z", "2022-10-31T15:00:00Z", "2022-10-31T15:00:00Z", "2022-10-31T15:00:00Z", "2022-10-31T15:00:00Z", "2022-10-31T15:00:00Z", "2022-10-31T15:00:00Z", "2022-10-31T15:00:00Z", "2022-10-31T15:00:00Z", "2022-10-31T15:00:00Z", "2022-10-31T15:00:00Z", "2022-10-31T15:00:00Z", "2022-10-31T15:00:00Z", "2022-10-31T15:00:00Z", "2022-10-31T15:00:00Z", "2022-10-31T15:00:00Z", "2022-10-31T15:00:00Z", "2022-10-31T15:00:00Z", "2022-10-31T15:00:00Z", "2022-10-31T15:00:00Z", "2022-10-31T15:00:00Z", "2022-10-31T15:00:00Z", "2022-10-31T15:00:00Z", "2022-10-31T15:00:00Z", "2022-10-31T15:00:00Z", "2022-10-31T15:00:00Z", "2022-10-31T15:00:00Z", "2022-10-31T15:20:00Z", "2022-10-31T15:00:00Z", "2022-10-31T15:00:00Z", "2022-10-31T15:30:00Z", "2022-10-31T15:00:00Z", "2022-10-31T15:00:00Z", "2022-10-31T15:00:00Z", "2022-10-31T15:30:00Z", "2022-10-31T15:00:00Z", "2022-10-31T15:09:00Z", "2022-10-31T15:00:00Z", "2022-10-31T15:00:00Z", "2022-10-31T15:36:00Z", "2022-10-31T15:00:00Z", "2022-10-31T15:00:00Z", "2022-10-31T15:00:00Z", "2022-10-31T15:00:00Z", "2022-10-31T15:00:00Z", "2022-10-31T15:00:00Z", "2022-10-31T15:00:00Z", "2022-10-31T15:00:00Z", "2022-10-31T15:00:00Z", "2022-10-31T15:00:00Z", "2022-10-31T15:00:00Z", "2022-10-31T15:00:00Z", "2022-10-31T15:00:00Z", "2022-10-31T15:00:00Z", "2022-10-31T15:00:00Z", "2022-10-31T15:00:00Z", "2022-10-31T15:00:00Z", "2022-10-31T15:00:00Z", "2022-10-31T15:00:00Z", "2022-10-31T15:00:00Z", "2022-10-31T15:00:00Z", "2022-10-31T15:00:00Z", "2022-10-31T15:00:00Z", "2022-10-31T15:00:00Z", "2022-10-31T15:00:00Z", "2022-10-31T15:00:00Z", "2022-10-31T15:00:00Z", "2022-10-31T15:00:00Z", "2022-10-31T15:00:00Z", "2022-10-31T15:00:00Z", "2022-10-31T15:00:00Z", "2022-10-31T15:00:00Z", "2022-10-31T15:00:00Z", "2022-10-31T15:00:00Z", "2022-10-31T15:00:00Z", "2022-10-31T15:00:00Z", "2022-10-31T15:00:00Z", "2022-10-31T15:00:00Z", "2022-10-31T15:00:00Z", "2022-10-31T15:00:00Z", "2022-10-31T15:00:00Z", "2022-10-31T15:00:00Z", "2022-10-31T15:00:00Z", "2022-10-31T15:00:00Z", "2022-10-31T15:00:00Z", "2022-10-31T15:00:00Z", "2022-10-31T15:00:00Z", "2022-10-31T15:00:00Z", "2022-10-31T15:00:00Z", "2022-10-31T15:00:00Z", "2022-10-31T15:00:00Z", "2022-10-31T15:00:00Z", "2022-10-31T15:00:00Z", "2022-10-31T15:00:00Z", "2022-10-31T15:00:00Z", "2022-10-31T15:00:00Z", "2022-10-31T15:00:00Z", "2022-10-31T15:00:00Z", "2022-10-31T15:00:00Z", "2022-10-31T15:00:00Z", "2022-10-31T15:00:00Z", "2022-10-31T15:00:00Z", "2022-10-31T15:00:00Z", "2022-10-31T15:00:00Z", "2022-10-31T15:00:00Z", "2022-10-31T15:00:00Z", "2022-10-31T14:50:00Z", "2022-10-31T15:00:00Z", "2022-10-31T15:00:00Z", "2022-10-31T15:00:00Z", "2022-10-31T15:00:00Z", "2022-10-31T15:00:00Z", "2022-10-31T15:00:00Z", "2022-10-31T15:00:00Z", "2022-10-31T15:00:00Z", "2022-10-31T15:00:00Z", "2022-10-31T15:00:00Z", "2022-10-31T15:00:00Z", "2022-10-31T15:00:00Z", "2022-10-31T15:00:00Z", "2022-10-31T15:00:00Z", "2022-10-31T15:00:00Z", "2022-10-31T15:00:00Z", "2022-10-31T15:00:00Z", "2022-10-31T15:00:00Z", "2022-10-31T15:00:00Z", "2022-10-31T15:00:00Z", "2022-10-31T15:00:00Z", "2022-10-31T15:00:00Z", "2022-10-31T15:00:00Z", "2022-10-31T15:00:00Z", "2022-10-31T15:00:00Z", "2022-10-31T15:00:00Z", "2022-10-31T15:00:00Z", "2022-10-31T15:00:00Z", "2022-10-31T15:00:00Z", "2022-10-31T15:00:00Z", "2022-10-31T15:00:00Z", "2022-10-31T15:00:00Z", "2022-10-31T15:00:00Z", "2022-10-31T15:00:00Z", "2022-10-31T15:00:00Z", "2022-10-31T15:00:00Z", "2022-10-31T15:00:00Z", "2022-10-31T15:00:00Z", "2022-10-31T15:00:00Z", "2022-10-31T15:00:00Z", "2022-10-31T15:00:00Z", "2022-10-31T15:00:00Z", "2022-10-31T15:00:00Z", "2022-10-31T15:00:00Z", "2022-10-31T15:00:00Z", "2022-10-31T15:00:00Z", "2022-10-31T15:00:00Z", "2022-10-31T15:00:00Z", "2022-10-31T15:00:00Z", "2022-10-31T15:00:00Z", "2022-10-31T15:12:00Z", "2022-10-31T15:00:00Z", "2022-10-31T15:30:00Z", "2022-10-31T15:00:00Z", "2022-10-31T15:00:00Z", "2022-10-31T15:00:00Z", "2022-10-31T15:00:00Z", "2022-10-31T15:00:00Z", "2022-10-31T15:00:00Z", "2022-10-31T15:00:00Z", "2022-10-31T15:00:00Z", "2022-10-31T15:30:00Z", "2022-10-31T15:00:00Z", "2022-10-31T15:00:00Z", "2022-10-31T15:00:00Z", "2022-10-31T15:00:00Z", "2022-10-31T15:00:00Z", "2022-10-31T15:00:00Z", "2022-10-31T15:00:00Z", "2022-10-31T15:00:00Z", "2022-10-31T15:00:00Z", "2022-10-31T15:00:00Z", "2022-10-31T15:00:00Z", "2022-10-31T15:00:00Z", "2022-10-31T15:00:00Z", "2022-10-31T15:30:00Z", "2022-10-31T15:00:00Z", "2022-10-31T15:00:00Z", "2022-10-31T15:00:00Z", "2022-10-31T15:31:00Z", "2022-10-31T15:03:00Z", "2022-10-31T15:03:00Z", "2022-10-31T15:03:00Z", "2022-10-31T15:03:00Z", "2022-10-31T15:03:00Z", "2022-10-31T15:03:00Z", "2022-10-31T15:03:00Z", "2022-10-31T15:03:00Z", "2022-10-31T15:03:00Z", "2022-10-31T15:03:00Z", "2022-10-31T15:03:00Z", "2022-10-31T15:03:00Z", "2022-10-31T15:03:00Z", "2022-10-31T15:03:00Z", "2022-10-31T15:03:00Z", "2022-10-31T15:03:00Z", "2022-10-31T15:03:00Z", "2022-10-31T15:03:00Z", "2022-10-31T15:03:00Z", "2022-10-31T15:00:00Z", "2022-10-31T15:00:00Z", "2022-10-31T15:00:00Z", "2022-10-31T15:00:00Z", "2022-10-31T15:00:00Z", "2022-10-31T15:00:00Z", "2022-10-31T15:00:00Z", "2022-10-31T15:00:00Z", "2022-10-31T15:00:00Z", "2022-10-31T15:00:00Z", "2022-10-31T15:30:00Z", "2022-10-31T15:30:00Z", "2022-10-31T15:00:00Z", "2022-10-31T15:53:00Z", "2022-10-31T15:53:00Z", "2022-10-31T15:50:00Z", "2022-10-31T15:45:00Z", "2022-10-31T15:53:00Z", "2022-10-31T14:56:00Z", "2022-10-31T15:00:00Z", "2022-10-31T15:00:00Z", "2022-10-31T15:00:00Z", "2022-10-31T15:00:00Z", "2022-10-31T14:55:00Z", "2022-10-31T15:00:00Z", "2022-10-31T14:55:00Z", "2022-10-31T15:00:00Z", "2022-10-31T15:00:00Z", "2022-10-31T15:00:00Z", "2022-10-31T15:00:00Z", "2022-10-31T15:00:00Z", "2022-10-31T15:00:00Z", "2022-10-31T15:55:00Z", "2022-10-31T15:30:00Z", "2022-10-31T15:30:00Z", "2022-10-31T15:30:00Z", "2022-10-31T15:30:00Z", "2022-10-31T15:30:00Z", "2022-10-31T15:30:00Z", "2022-10-31T15:30:00Z", "2022-10-31T15:30:00Z", "2022-10-31T15:00:00Z", "2022-10-31T15:30:00Z", "2022-10-31T15:00:00Z", "2022-10-31T15:30:00Z", "2022-10-31T15:30:00Z", "2022-10-31T15:45:00Z", "2022-10-31T15:30:00Z", "2022-10-31T15:30:00Z", "2022-10-31T15:30:00Z", "2022-10-31T15:30:00Z", "2022-10-31T15:30:00Z", "2022-10-31T15:30:00Z", "2022-10-31T15:00:00Z", "2022-10-31T15:30:00Z", "2022-10-31T15:00:00Z", "2022-10-31T15:30:00Z", "2022-10-31T15:30:00Z", "2022-10-31T15:30:00Z", "2022-10-31T15:30:00Z", "2022-10-31T15:30:00Z", "2022-10-31T15:00:00Z", "2022-10-31T15:00:00Z", "2022-10-31T15:30:00Z", "2022-10-31T15:30:00Z", "2022-10-31T15:30:00Z", "2022-10-31T15:30:00Z", "2022-10-31T15:30:00Z", "2022-10-31T15:00:00Z", "2022-10-31T15:30:00Z", "2022-10-31T15:00:00Z", "2022-10-31T15:00:00Z", "2022-10-31T15:00:00Z", "2022-10-31T15:30:00Z", "2022-10-31T15:30:00Z", "2022-10-31T15:30:00Z", "2022-10-31T15:30:00Z", "2022-10-31T15:30:00Z", "2022-10-31T15:30:00Z", "2022-10-31T15:30:00Z", "2022-10-31T15:30:00Z", "2022-10-31T15:30:00Z", "2022-10-31T15:30:00Z", "2022-10-31T15:30:00Z", "2022-10-31T15:30:00Z", "2022-10-31T15:30:00Z", "2022-10-31T15:00:00Z", "2022-10-31T15:30:00Z", "2022-10-31T15:30:00Z", "2022-10-31T15:30:00Z", "2022-10-31T15:30:00Z", "2022-10-31T15:30:00Z", "2022-10-31T15:30:00Z", "2022-10-31T15:30:00Z", "2022-10-31T15:30:00Z", "2022-10-31T15:30:00Z", "2022-10-31T15:30:00Z", "2022-10-31T15:30:00Z", "2022-10-31T15:00:00Z", "2022-10-31T15:30:00Z", "2022-10-31T15:30:00Z", "2022-10-31T15:30:00Z", "2022-10-31T15:30:00Z", "2022-10-31T15:30:00Z", "2022-10-31T15:00:00Z", "2022-10-31T15:30:00Z", "2022-10-31T15:30:00Z", "2022-10-31T15:30:00Z", "2022-10-31T15:30:00Z", "2022-10-31T15:30:00Z", "2022-10-31T15:30:00Z", "2022-10-31T15:30:00Z", "2022-10-31T15:30:00Z", "2022-10-31T15:30:00Z", "2022-10-31T15:30:00Z", "2022-10-31T15:30:00Z", "2022-10-31T15:30:00Z", "2022-10-31T15:30:00Z", "2022-10-31T15:30:00Z", "2022-10-31T15:30:00Z", "2022-10-31T15:30:00Z", "2022-10-31T15:00:00Z", "2022-10-31T15:00:00Z", "2022-10-31T15:00:00Z", "2022-10-31T15:00:00Z", "2022-10-31T15:00:00Z", "2022-10-31T15:30:00Z", "2022-10-31T15:30:00Z", "2022-10-31T15:30:00Z", "2022-10-31T15:30:00Z", "2022-10-31T15:30:00Z", "2022-10-31T15:30:00Z", "2022-10-31T15:30:00Z", "2022-10-31T15:30:00Z", "2022-10-31T15:18:21Z", "2022-10-31T15:30:00Z", "2022-10-31T15:30:00Z", "2022-10-31T15:30:00Z", "2022-10-31T15:30:00Z", "2022-10-31T15:30:00Z", "2022-10-31T15:30:00Z", "2022-10-31T15:30:00Z", "2022-10-31T15:30:00Z", "2022-10-31T15:30:00Z", "2022-10-31T15:30:00Z", "2022-10-31T15:30:00Z", "2022-10-31T15:30:00Z", "2022-10-31T15:30:00Z", "2022-10-31T15:30:00Z", "2022-10-31T15:30:00Z", "2022-10-31T15:30:00Z", "2022-10-31T15:30:00Z", "2022-10-31T15:30:00Z", "2022-10-31T15:30:00Z", "2022-10-31T15:30:00Z", "2022-10-31T15:30:00Z", "2022-10-31T15:30:00Z", "2022-10-31T15:30:00Z", "2022-10-31T15:30:00Z", "2022-10-31T15:00:00Z", "2022-10-31T15:30:00Z", "2022-10-31T15:00:00Z", "2022-10-31T15:30:00Z", "2022-10-31T15:30:00Z", "2022-10-31T15:30:00Z", "2022-10-31T15:30:00Z", "2022-10-31T15:30:00Z", "2022-10-31T15:30:00Z", "2022-10-31T15:00:00Z", "2022-10-31T15:30:00Z", "2022-10-31T15:30:00Z", "2022-10-31T15:00:00Z", "2022-10-31T15:30:00Z", "2022-10-31T15:00:00Z", "2022-10-31T15:30:00Z", "2022-10-31T15:31:00Z", "2022-10-31T15:10:00Z", "2022-10-31T15:10:00Z", "2022-10-31T15:30:00Z", "2022-10-31T15:30:00Z", "2022-10-31T15:30:00Z", "2022-10-31T15:30:00Z", "2022-10-31T15:30:00Z", "2022-10-31T15:30:00Z", "2022-10-31T15:30:00Z", "2022-10-31T15:00:00Z", "2022-10-31T15:30:00Z", "2022-10-31T15:30:00Z", "2022-10-31T15:30:00Z", "2022-10-31T15:00:00Z", "2022-10-31T15:30:00Z", "2022-10-31T15:30:00Z", "2022-10-31T15:30:00Z", "2022-10-31T15:30:00Z", "2022-10-31T15:30:00Z", "2022-10-31T15:30:00Z", "2022-10-31T15:30:00Z", "2022-10-31T15:00:00Z", "2022-10-31T15:30:00Z", "2022-10-31T15:30:00Z", "2022-10-31T15:30:00Z", "2022-10-31T15:30:00Z", "2022-10-31T15:30:00Z", "2022-10-31T15:00:00Z", "2022-10-31T15:30:00Z", "2022-10-31T15:30:00Z", "2022-10-31T15:30:00Z", "2022-10-31T15:30:00Z", "2022-10-31T15:00:00Z", "2022-10-31T15:30:00Z", "2022-10-31T15:30:00Z", "2022-10-31T15:00:00Z", "2022-10-31T15:30:00Z", "2022-10-31T15:30:00Z", "2022-10-31T15:30:00Z", "2022-10-31T15:30:00Z", "2022-10-31T15:00:00Z", "2022-10-31T15:00:00Z", "2022-10-31T15:00:00Z", "2022-10-31T15:00:00Z", "2022-10-31T15:30:00Z", "2022-10-31T15:30:00Z", "2022-10-31T15:30:00Z", "2022-10-31T15:30:00Z", "2022-10-31T15:00:00Z", "2022-10-31T15:00:00Z", "2022-10-31T15:00:00Z", "2022-10-31T15:00:00Z", "2022-10-31T15:00:00Z", "2022-10-31T15:00:00Z", "2022-10-31T15:30:00Z", "2022-10-31T15:30:00Z", "2022-10-31T15:00:00Z", "2022-10-31T15:00:00Z", "2022-10-31T15:00:00Z", "2022-10-31T15:30:00Z", "2022-10-31T15:30:00Z", "2022-10-31T15:30:00Z", "2022-10-31T15:30:00Z", "2022-10-31T15:30:00Z", "2022-10-31T15:30:00Z", "2022-10-31T15:30:00Z", "2022-10-31T15:30:00Z", "2022-10-31T15:30:00Z", "2022-10-31T15:30:00Z", "2022-10-31T15:30:00Z", "2022-10-31T15:30:00Z", "2022-10-31T15:30:00Z", "2022-10-31T15:30:00Z", "2022-10-31T15:30:00Z", "2022-10-31T15:30:00Z", "2022-10-31T15:30:00Z", "2022-10-31T15:30:00Z", "2022-10-31T15:30:00Z", "2022-10-31T15:30:00Z", "2022-10-31T15:30:00Z", "2022-10-31T15:00:00Z", "2022-10-31T15:30:00Z", "2022-10-31T15:00:00Z", "2022-10-31T15:00:00Z", "2022-10-31T15:00:00Z", "2022-10-31T15:30:00Z", "2022-10-31T15:00:00Z", "2022-10-31T15:00:00Z", "2022-10-31T15:00:00Z", "2022-10-31T15:00:00Z", "2022-10-31T15:30:00Z", "2022-10-31T15:30:00Z", "2022-10-31T15:30:00Z", "2022-10-31T15:30:00Z", "2022-10-31T15:30:00Z", "2022-10-31T15:30:00Z", "2022-10-31T15:30:00Z", "2022-10-31T15:00:00Z", "2022-10-31T15:00:00Z", "2022-10-31T15:00:00Z", "2022-10-31T15:00:00Z", "2022-10-31T15:00:00Z", "2022-10-31T15:00:00Z", "2022-10-31T15:00:00Z", "2022-10-31T15:00:00Z", "2022-10-31T15:00:00Z", "2022-10-31T15:30:00Z", "2022-10-31T15:00:00Z", "2022-10-31T15:00:00Z", "2022-10-31T15:00:00Z", "2022-10-31T15:30:00Z", "2022-10-31T15:00:00Z", "2022-10-31T15:00:00Z", "2022-10-31T15:00:00Z", "2022-10-31T15:30:00Z", "2022-10-31T15:22:00Z", "2022-10-31T15:30:00Z", "2022-10-31T15:30:00Z", "2022-10-31T15:30:00Z", "2022-10-31T15:30:00Z", "2022-10-31T15:30:00Z", "2022-10-31T15:30:00Z", "2022-10-31T15:30:00Z", "2022-10-31T15:30:00Z", "2022-10-31T15:30:00Z", "2022-10-31T15:30:00Z", "2022-10-31T15:45:00Z", "2022-10-31T15:30:00Z", "2022-10-31T15:30:00Z", "2022-10-31T15:10:00Z", "2022-10-31T15:30:00Z", "2022-10-31T15:50:00Z", "2022-10-31T15:37:00Z", "2022-10-31T15:30:00Z", "2022-10-31T15:32:00Z", "2022-10-31T15:30:00Z", "2022-10-31T15:30:00Z", "2022-10-31T15:30:00Z", "2022-10-31T14:55:00Z", "2022-10-31T15:30:00Z", "2022-10-31T15:00:00Z", "2022-10-31T15:30:00Z", "2022-10-31T15:30:00Z", "2022-10-31T15:57:00Z", "2022-10-31T15:35:00Z", "2022-10-31T15:32:00Z", "2022-10-31T15:30:00Z", "2022-10-31T15:30:00Z", "2022-10-31T15:30:00Z", "2022-10-31T15:32:00Z", "2022-10-31T15:30:00Z", "2022-10-31T15:30:00Z", "2022-10-31T15:30:00Z", "2022-10-31T15:30:00Z", "2022-10-31T15:30:00Z", "2022-10-31T15:30:00Z", "2022-10-31T15:30:00Z", "2022-10-31T15:30:00Z", "2022-10-31T15:30:00Z", "2022-10-31T15:30:00Z", "2022-10-31T15:30:00Z", "2022-10-31T15:30:00Z", "2022-10-31T15:30:00Z", "2022-10-31T15:42:00Z", "2022-10-31T15:54:00Z", "2022-10-31T15:49:00Z", "2022-10-31T15:30:00Z", "2022-10-31T15:30:00Z", "2022-10-31T15:30:00Z", "2022-10-31T15:30:00Z", "2022-10-31T15:50:00Z", "2022-10-31T15:35:00Z", "2022-10-31T15:30:00Z", "2022-10-31T15:20:00Z", "2022-10-31T15:30:00Z", "2022-10-31T15:30:00Z", "2022-10-31T15:30:00Z", "2022-10-31T15:00:00Z", "2022-10-31T15:00:00Z", "2022-10-31T15:30:00Z", "2022-10-31T15:30:00Z", "2022-10-31T15:30:00Z", "2022-10-31T15:00:00Z", "2022-10-31T15:00:00Z", "2022-10-31T15:00:00Z", "2022-10-31T15:00:00Z", "2022-10-31T15:00:00Z", "2022-10-31T15:00:00Z", "2022-10-31T15:00:00Z", "2022-10-31T15:00:00Z", "2022-10-31T15:00:00Z", "2022-10-31T15:00:00Z", "2022-10-31T15:00:00Z", "2022-10-31T15:00:00Z", "2022-10-31T15:00:00Z", "2022-10-31T15:00:00Z", "2022-10-31T15:30:00Z", "2022-10-31T15:45:00Z", "2022-10-31T15:00:00Z", "2022-10-31T15:00:00Z", "2022-10-31T15:00:00Z", "2022-10-31T15:30:00Z", "2022-10-31T15:00:00Z", "2022-10-31T15:30:00Z", "2022-10-31T15:00:00Z", "2022-10-31T15:00:00Z", "2022-10-31T15:00:00Z", "2022-10-31T15:00:00Z", "2022-10-31T15:00:00Z", "2022-10-31T15:30:00Z", "2022-10-31T15:00:00Z", "2022-10-31T15:00:00Z", "2022-10-31T15:30:00Z", "2022-10-31T15:30:00Z"], "raw_text": ["ANYN 311500Z VRB02KT 9999 FEW020 27/24 Q1009", "BGBW 311550Z 00000KT 9999 FEW035 BKN100 M03/M10 Q0985", "BGGH 311550Z 02004KT 5000 -SN BKN013 M01/M02 Q0989", "BGJN 311550Z 14005KT 9999 FEW240 M06/M10 Q0991", "BGKK 311550Z AUTO 08015KT 9999NDV BKN019/// 02/M03 Q0983", "BGSF 311550Z AUTO 23004KT 9999NDV BKN075/// M05/M07 Q0991", "BGTL 311555Z AUTO 11005KT 9999 CLR M16/M22 A2929 RMK AO2 SLP908 T11571217 TSNO $", "BIAR 311500Z VRB02KT 9999 FEW052 05/02 Q0982", "BIEG 311500Z 01005KT 350V070 9999 RA SCT030 BKN037 OVC060 08/06 Q0983", "BIGR 311534Z 10009KT 9999 FEW100 SCT200 06/03 Q0983", "BIHN 311500Z 10014KT 5000 RADZ BR SCT008 BKN012 OVC018 09/08 Q0980", "BIHU 311500Z 13007KT 9999 FEW068 BKN100 07/02 Q0982", "BIKF 311530Z 09015KT 9999 VCSH BKN012 BKN018 07/06 Q0979", "BIRK 311500Z 09012KT 9999 VCSH FEW008 SCT034 BKN140 08/04 Q0979", "BIVM 311550Z 24017KT 7000 VCSH BKN012 06/05 Q0981", "CAHR 311500Z AUTO 26009KT 14/04 RMK AO1 SLP151 T01420039 50000", "CBAR 311500Z AUTO 01008KT ////SM OVC016 M12/M14 A2998", "CBBC 311553Z AUTO 15003KT 9SM -RA SCT039 BKN055 OVC072 03/02 A2974 RMK SLP074", "CERM 311500Z AUTO 11002KT 11/02 RMK AO1 SLP158 T01130019 58002", "CFOX 311506Z AUTO ///// ////SM FEW003 SCT032 BKN044 M12/M14 A2953", "CMFM 311500Z AUTO 00000KT 09/02 RMK AO1 SLP161 T00850023 58002", "CMGB 311500Z AUTO 21004KT 14/00 RMK AO1 SLP156 T01420000 58005", "CPBT 311500Z AUTO 33004KT 01/M00 RMK AO1 T00101001", "CPEH 311500Z AUTO 00000KT 02/M01 RMK AO1 T00221007", "CPFI 311500Z AUTO 03002KT 02/01 RMK AO1 T00190006", "CPIN 311548Z AUTO 01010KT ////SM SCT003 BKN012 OVC016 ///// A////", "CPIR 311500Z AUTO 01009KT 02/M00 RMK AO1 T00241001", "CPRO 311500Z AUTO 00000KT M03/M03 RMK AO1 T10291030", "CPRY 311500Z AUTO 31002KT 01/00 RMK AO1 T00140000", "CPST 311500Z AUTO 03004KT 01/M02 RMK AO1 T00101015", "CPSV 311500Z AUTO 03008KT 04/01 RMK AO1 T00440010", "CTCK 311500Z AUTO 22005KT 14/04 RMK AO1 SLP146 T01370035 58002", "CTNK 311500Z AUTO 27001KT 06/03 RMK AO1 SLP144 T00620026 58005", "CTRA 311500Z AUTO 20004KT 06/01 RMK AO1 SLP046 T00610008 56013", "CWAE 311500Z 18003KT 15SM -RA OVC010 05/05 A2962 RMK SC8 WIND ESTD SLP039", "CWAF 311500Z AUTO 21009KT 08/06 RMK AO1 T00800056", "CWAJ 311500Z AUTO 16007KT RMK AO1 58002", "CWAQ 311500Z AUTO 29003KT 04/01 RMK AO1 SLP076 T00410009 51001", "CWAR 311500Z AUTO 18022KT 12/09 RMK AO1 PK WND 18026/1456 SLP134 T01240087 58022", "CWAV 311500Z AUTO 13005KT 01/M02 RMK AO1 SLP071 T00061023 53001", "CWBA 311500Z AUTO 19005KT 08/06 RMK AO1 T00810057", "CWBK 311500Z AUTO 23005KT 14/06 RMK AO1 SLP161 T01350057 56004", "CWBO 311500Z AUTO 01005KT 01/M02 RMK AO1 SLP072 T00051024 53005", "CWBS 311500Z AUTO 11001KT 09/05 RMK AO1 T00880053", "CWBT 311500Z AUTO 27006KT 09/04 RMK AO1 SLP100 T00850038 53014", "CWBU 311500Z AUTO 27011G16KT 03/M02 RMK AO1 SLP018 T00281024 52023", "CWBV 311500Z AUTO 25017KT 14/09 RMK AO1 PK WND 25020/1459 SLP164 T01370086 56006", "CWBY 311500Z AUTO 28015G21KT 11/03 RMK AO1 PK WND 30021/1457 SLP108 T01140026 51015", "CWBZ 311500Z AUTO 24007KT 16/02 RMK AO1 SLP147 T01580015 58002", "CWCF 311500Z AUTO 22008KT 06/02 RMK AO1 SLP978 T00610017 53001", "CWCI 311500Z AUTO 16006KT 08/07 RMK AO1 SLP102 T00750069 58003", "CWCJ 311500Z AUTO 04002KT 01/M00 RMK AO1 SLP104 T00131004 58008", "CWCO 311500Z AUTO 16004KT 11/08 RMK AO1 SLP124 T01140075 58002", "CWCT 311500Z AUTO 28009KT 02/M02 RMK AO1 SLP077 T00151024 53004", "CWDA 311500Z AUTO 17011G16KT 11/ RMK AO1 PK WND 25017/1414 T0108", "CWDC 311500Z AUTO 02007KT M10/M13 RMK AO1 SOG 02 2040 SLP018 T11011133", "CWDJ 311500Z AUTO 26005KT 01/M01 RMK AO1 SLP077 T00141013 53018", "CWDK 311500Z AUTO 33007KT 01/00 RMK AO1 SLP078 T00100000 53015", "CWDM 311500Z AUTO 27012G18KT 12/04 RMK AO1 PK WND 27025/1415 SLP045 T01170044 55014", "CWDO 311500Z AUTO 22017G25KT 09/04 RMK AO1 PK WND 22025/1404 SLP055 T00850044 58036", "CWDQ 311500Z AUTO 33004KT 08/03 RMK AO1 SOG 01 8007 SLP155 T00810027", "CWDT 311500Z AUTO 26002KT RMK AO1 50005", "CWDV 311500Z AUTO 21005KT 07/M01 RMK AO1 SLP082 T00741012 58012", "CWDZ 311500Z AUTO 31003KT 03/M02 RMK AO1 SLP075 T00281018 53002", "CWEB 311500Z AUTO 00030KT 08/07 RMK AO1 0002 SLP081 T00770073 50006", "CWEE 311500Z AUTO 05/02 RMK AO1 SLP140 T00490024 58003", "CWEF 311500Z AUTO 25030G35KT 12/08 RMK AO1 PK WND 25035/1451 SLP108 T01150083 58015", "CWEH 311500Z AUTO 24002KT 05/01 RMK AO1 SLP056 T00480007 55006", "CWEK 311500Z AUTO 15022KT 05/ RMK AO1 PK WND 16025/1444 SLP004 T0045 58006", "CWEL 311500Z AUTO 29007KT 10/08 RMK AO1 6PAST HR 5002 PK WND 11019/1401 SLP062 P0002 T00950075 50008", "CWEP 311500Z AUTO 20007KT 15/09 RMK AO1 SLP149 T01490092 57002", "CWEQ 311500Z AUTO 22009KT 04/M00 RMK AO1 PK WND 24017/1411 SLP010 T00351002 51025", "CWER 311500Z AUTO 21009KT RMK AO1", "CWEU 311500Z 27007KT 250V340 15SM IC FEW090 M24/M27 A2964 RMK AC1 AC TR SLP053", "CWEW 311500Z AUTO 20001KT 10/04 RMK AO1 SLP158 T01040040 58005", "CWEZ 311500Z AUTO 21014KT 10/09 RMK AO1 4PAST HR 6023 SLP054 P0002 T00980094 50050", "CWFD 311500Z AUTO 36003KT ////SM ////// M12/M13 A2922", "CWFF 311500Z AUTO 26010KT 03/M02 RMK AO1 SLP032 T00311015 53018", "CWFJ 311500Z AUTO 36009KT 04/01 RMK AO1 PK WND 36018/1446 T00410006", "CWFQ 311500Z AUTO 21004KT 13/M01 RMK AO1 SLP154 T01291014 58004", "CWGB 311500Z AUTO 12001KT 09/ RMK AO1 6PAST HR 7006 SLP053 P0002 T0088 50016", "CWGD 311500Z AUTO 12006KT 12/11 RMK AO1 3PAST HR 8008 SLP113 P0001 T01160109 50009", "CWGH 311500Z AUTO 20006KT 14/07 RMK AO1 SLP144 T01420071 58005", "CWGL 311500Z AUTO 14006KT 08/06 RMK AO1 SLP123 T00750056 51007", "CWGM 311500Z AUTO 23021G28KT 06/03 RMK AO1 PK WND 24031/1417 SLP033 T00600033 53011", "CWGR 311500Z AUTO 25017KT 13/05 RMK AO1 PK WND 25023/1443 SLP126 T01260052 50002", "CWGT 311500Z AUTO 17009KT 10/08 RMK AO1 PK WND 13019/1404 SLP058 T00960083 56008", "CWGW 311500Z AUTO 19002KT 06/05 RMK AO1 7PAST HR 3004 SLP064 P0007 T00570046 50049", "CWGY 311500Z AUTO 27007KT 03/M03 RMK AO1 SLP069 T00321034 55001", "CWHI 311500Z AUTO 30006KT 02/M02 RMK AO1 T00181015", "CWHL 311500Z AUTO 11009KT 03/02 RMK AO1 4PAST HR 0002 PK WND 16019/1412 SLP039 P0005 T00290016 50018", "CWHO 311500Z AUTO 00032KT 03/M04 RMK AO1 SLP045 T00321039 51017", "CWHP 311500Z AUTO 23016KT 10/07 RMK AO1 PK WND 24019/1435 SLP090 T00960066 51004", "CWHQ 311500Z AUTO 13002KT 10/01 RMK AO1 T01030011", "CWHT 311500Z AUTO 33006KT M07/M12 RMK AO1 SLP030 T10671118 52018", "CWHV 311500Z AUTO 13003KT 06/M01 RMK AO1 SLP161 T00641014 58007", "CWID 311500Z AUTO 00000KT M08/M10 RMK AO1 SLP055 T10831097 51012", "CWIG 311500Z AUTO 23010G15KT RMK AO1", "CWII 311500Z AUTO 22021KT 07/02 RMK AO1 PK WND 21026/1403 SLP006 T00650016 55001", "CWIJ 311500Z AUTO 07004KT M20/M22 RMK AO1 SOG 07 3010 SLP122 T11971220", "CWIK 311500Z AUTO 28008KT 04/M00 RMK AO1 SLP056 T00421002 52017", "CWIL 311500Z AUTO ///// ////SM OVC011 ///// A////", "CWIP 311500Z AUTO 31004KT 11/01 RMK AO1 T01070009", "CWIS 311500Z AUTO 21003KT 11/01 RMK AO1 SLP157 T01110009 50001", "CWIT 311500Z AUTO 13003KT 13/01 RMK AO1 SLP149 T01270010 58004", "CWIW 311500Z AUTO 28009KT 04/M02 RMK AO1 SLP057 T00421023 53011", "CWIX 311500Z AUTO 00000KT 08/05 RMK AO1 SLP146 T00800049 50007", "CWIZ 311500Z AUTO 18008KT 13/04 RMK AO1 T01320035", "CWJB 311500Z AUTO 34008KT 11/02 RMK AO1 T01090016", "CWJC 311500Z AUTO 02029G36KT M13/M15 RMK AO1 PK WND 02036/1453 SLP945 T11281147 53024", "CWJD 311500Z AUTO 27008KT 06/01 RMK AO1 SLP965 T00600013 53017", "CWJH 311500Z AUTO 29009G17KT 02/M00 RMK AO1 2PAST HR 3027 PK WND 33020/1447 SLP948 P0001 T00221004 50002", "CWJI 311500Z AUTO 26003KT 04/M00 RMK AO1 SLP074 T00371003 52006", "CWJO 311500Z AUTO 05003KT 10/04 RMK AO1 SLP150 T01020039 58002", "CWJR 311500Z AUTO 33003KT 08/07 RMK AO1 7PAST HR 1012 SLP079 P0003 T00780068 50028", "CWJT 311500Z AUTO 00000KT 07/04 RMK AO1 SLP151 T00730044 58005", "CWJU 311500Z AUTO 27015G21KT 05/03 RMK AO1 PK WND 25028/1442 SLP017 T00480026 58003", "CWJV 311500Z AUTO 08003KT 05/04 RMK AO1 SLP054 T00480041 58011", "CWJW 311500Z AUTO 10003KT M00/M01 RMK AO1 SLP057 T10031011 58003", "CWJX 311500Z AUTO 00000KT 01/M02 RMK AO1 SLP069 T00111024 53004", "CWKD 311500Z AUTO 05/M02 RMK AO1 SLP150 T00461018 51009", "CWKH 311500Z AUTO 08/08 RMK AO1 4PAST HR 6012 SLP055 P0002 T00780077 50060", "CWKK 311500Z AUTO 19006KT 08/ RMK AO1 SLP088 T0076 58011", "CWKM 311546Z AUTO 14010KT ////SM FEW019 OVC025 M14/M18 A3008", "CWKO 311500Z AUTO 36004KT 05/M00 RMK AO1 SLP076 T00521003 55002", "CWKP 311540Z AUTO 06003KT 350V070 ////SM OVC009 M14/M16 A2984", "CWKX 311500Z AUTO 25001KT M06/M07 RMK AO1 SOG 02 3005 SLP013 T10611072", "CWLB 311500Z AUTO 25007KT M01/ RMK AO1 SLP042 T1010 53010", "CWLC 311500Z AUTO 14017KT 04/02 RMK AO1 PK WND 15026/1427 T00430020", "CWLE 311500Z AUTO 19007KT 02/M01 RMK AO1 SLP076 T00181011 53009", "CWLI 311500Z AUTO 35006KT ////SM OVC016 M12/M15 A3000", "CWLM 311500Z AUTO 20006KT 09/09 RMK AO1 0PAST HR 5009 SLP068 P0004 T00930089 50020", "CWLS 311500Z AUTO 17005KT 10/09 RMK AO1 6007 SLP126 T00980088 50032", "CWLX 311500Z AUTO ///// ////SM ////// M16/M18 A2955", "CWLY 311500Z AUTO 20010G26KT 9SM -RA OVC066 08/05 A2962 RMK SLP038", "CWME 311500Z AUTO 17007KT 04/02 RMK AO1 0002 SLP075 T00350021 50008", "CWMJ 311500Z AUTO 14002KT 08/02 RMK AO1 SLP143 T00840016 58004", "CWMM 311500Z AUTO 07003KT 09/08 RMK AO1 9PAST HR 8020 SLP066 P0004 T00870083 50048", "CWMQ 311500Z AUTO 11002KT 05/02 RMK AO1 SLP057 T00500021 55002", "CWMT 311500Z AUTO 05002KT M10/M12 RMK AO1 1PAST HR SOG 06 3014 SLP065 P0000 T11041119 50001", "CWMZ 311500Z AUTO 17010KT 11/ RMK AO1 SLP127 T0113 58003", "CWNC 311500Z AUTO 09002KT 11/08 RMK AO1 4PAST HR 1006 SLP145 P0002 T01100075 50004", "CWND 311500Z AUTO 02009KT M12/M14 RMK AO1 SLP155 T11241144 53012", "CWNE 311500Z AUTO 24019KT 11/06 RMK AO1 PK WND 23024/1401 SLP138 T01100055 51002", "CWNH 311500Z AUTO 19005KT 12/M00 RMK AO1 SLP152 T01211002 58001", "CWNK 311500Z AUTO 24011KT 08/01 RMK AO1 SLP035 T00770014 55000", "CWNM 311500Z AUTO 25004KT 07/07 RMK AO1 2PAST HR 8005 SLP080 P0001 T00730073 50041", "CWNP 311500Z AUTO 14007KT 06/04 RMK AO1 8014 SLP067 T00560037 50003", "CWNQ 311500Z AUTO 22002KT 11/02 RMK AO1 SLP154 T01070015 58003", "CWNZ 311500Z AUTO 21003KT 07/03 RMK AO1 SLP095 T00690031 58013", "CWOB 311528Z AUTO 03020G28KT ////SM OVC003 M03/M03 A2943", "CWOC 311500Z AUTO 30011G19KT 11/01 RMK AO1 PK WND 27019/1421 SLP126 T01120011 55001", "CWOD 311500Z AUTO 02001KT 07/04 RMK AO1 SLP150 T00720037 50001", "CWOE 311500Z AUTO 21004KT 08/01 RMK AO1 SLP048 T00780013 55004", "CWOY 311500Z AUTO 27006KT 04/M02 RMK AO1 SLP050 T00411015 52017", "CWPC 311500Z AUTO 14007KT 11/10 RMK AO1 PK WND 20017/1416 SLP148 T01100101 58001", "CWPD 311500Z AUTO 18001KT 09/02 RMK AO1 SLP144 T00900018 58003", "CWPE 311500Z AUTO 27005KT 13/10 RMK AO1 SLP172 T01300097 58002", "CWPF 311545Z AUTO 21009G16KT 11/08 RMK AO1 SLP072 T01090075 53001", "CWPK 311500Z AUTO 00000KT 07/03 RMK AO1 SLP147 T00650034 58007", "CWPO 311500Z AUTO 23007KT 04/01 RMK AO1 SLP065 T00410009 53005", "CWPR 311500Z AUTO 33002KT 04/02 RMK AO1 SOG 01 8012 SLP063 T00370024", "CWPX 311500Z AUTO 33020KT ////SM //// OVC002 M24/M27 A2977", "CWPZ 311500Z AUTO 17001KT M02/M03 RMK AO1 4PAST HR 0000 SLP035 P0002 T10171026 50010", "CWQH 311500Z AUTO 06002KT 07/02 RMK AO1 SLP163 T00730022 58010", "CWQK 311500Z AUTO 24023G31KT 11/ RMK AO1 PK WND 24031/1458 SLP063 T0109 55015", "CWQO 311500Z AUTO 23014KT 08/03 RMK AO1 T00770028", "CWQP 311500Z AUTO 36001KT 13/09 RMK AO1 PK WND 36019/1412 SLP147 T01280092 58001", "CWQR 311500Z AUTO 27023KT 07/03 RMK AO1 PK WND 27028/1428 T00670033", "CWQS 311500Z AUTO 25005KT 05/01 RMK AO1 PK WND 29017/1430 SLP036 T00500008 58003", "CWQV 311500Z AUTO 27005KT 08/04 RMK AO1 T00810041", "CWRA 311500Z AUTO 00024KT 13/08 RMK AO1 SLP147 T01270080 58013", "CWRH 311500Z AUTO 29037G46KT ////SM ////// ///// A2946", "CWRJ 311500Z AUTO 29006KT 03/M02 RMK AO1 SLP059 T00331018 55000", "CWRK 311500Z AUTO 22001KT 07/03 RMK AO1 SLP146 T00720031 55001", "CWRM 311500Z AUTO 18006KT M00/00 RMK AO1 3PAST HR 8002 SLP049 P0001 T10020000 50020", "CWRN 311500Z AUTO 22015G22KT 14/06 RMK AO1 PK WND 21023/1426 SLP158 T01370062 56012", "CWRO 311500Z AUTO 20010KT 02/ RMK AO1 SLP030 T0018 58003", "CWRT 311500Z AUTO 16001KT 04/04 RMK AO1 2PAST HR 3005 SLP058 P0009 T00410039 50042", "CWRU 311500Z AUTO 01009KT 06/ RMK AO1 4PAST HR 3007 PK WND 34019/1401 SLP083 P0002 T0055 50016", "CWRX 311523Z AUTO ///// ////SM BKN027 OVC032 M13/M16 A2955", "CWRY 311500Z AUTO 26007KT 07/02 RMK AO1 SLP051 T00660023 55000", "CWRZ 311500Z AUTO 24009KT 08/04 RMK AO1 SLP117 T00750043 51010", "CWSA 311500Z AUTO 23012KT 9SM CLR 15/12 A3007 RMK SLP184", "CWSD 311500Z AUTO 25011KT 12/04 RMK AO1 SLP154 T01220039 51001", "CWSF 311500Z AUTO 28013G20KT 10/03 RMK AO1 PK WND 29022/1401 SLP123 T01010028 52021", "CWSG 311500Z AUTO 09/04 RMK AO1 24 1014 SLP140 T00890037", "CWSK 311500Z AUTO 14005KT 09/08 RMK AO1 2PAST HR 6016 SLP048 P0009 T00900075 50065", "CWSL 311500Z AUTO 18003KT 04/04 RMK AO1 8011 SLP056 T00420040 50002", "CWSP 311500Z AUTO 29015KT 10/09 RMK AO1 2PAST HR 5006 PK WND 28020/1445 SLP070 P0005 T00970089 50030", "CWSR 311500Z AUTO 25011KT 02/M08 RMK AO1 PK WND 25020/1402 SLP036 T00241079 51016", "CWSS 311500Z AUTO 22002KT 12/07 RMK AO1 SLP170 T01160071 58007", "CWST 311500Z AUTO 25005KT 13/M00 RMK AO1 SLP150 T01301001 50002", "CWSW 311500Z 00000KT 4SM -RA FEW008 OVC026 06/06 A2966 RMK SF2ST6 SLP064 DENSITY ALT 3900FT", "CWTA 311500Z AUTO 15004KT 14/01 RMK AO1 SLP150 T01390007 58004", "CWTG 311500Z AUTO 25009KT 08/04 RMK AO1 SLP135 T00760041 51012", "CWTN 311500Z AUTO 26004KT 12/03 RMK AO1 SLP154 T01170034 58002", "CWTT 311500Z AUTO 22003KT 10/02 RMK AO1 T00960020", "CWTY 311500Z AUTO 07003KT 09/04 RMK AO1 SLP159 T00890036 58004", "CWUS 311500Z AUTO 33002KT 08/01 RMK AO1 SLP061 T00760012 56008", "CWUW 311500Z AUTO 29015KT ////SM FEW007 M20/M22 A2940", "CWUX 311500Z AUTO 06003KT 10/03 RMK AO1 SLP152 T00950030 58006", "CWVF 311500Z AUTO 17014KT 10/09 RMK AO1 PK WND 14019/1400 T01010094", "CWVH 311501Z AUTO 28005KT ////SM BKN003 BKN007 OVC018 M13/M14 A2996", "CWVI 311500Z AUTO 24008KT M00/M06 RMK AO1 SLP061 T10031057 53006", "CWVN 311500Z AUTO 23004KT 06/02 RMK AO1 SLP065 T00570015 55001", "CWVP 311500Z AUTO 26004KT 07/M00 RMK AO1 SLP046 T00721001 56005", "CWVQ 311500Z AUTO 17002KT 13/M00 RMK AO1 SLP151 T01341001 58005", "CWVT 311500Z AUTO 33010KT 02/M03 RMK AO1 PK WND 32019/1436 SLP027 T00161029 53030", "CWWA 311500Z AUTO 04001KT 08/08 RMK AO1 3PAST HR 6017 SLP065 P0005 T00830081 50037", "CWWB 311500Z AUTO 05004KT 08/07 RMK AO1 SLP137 T00750072 58003", "CWWE 311500Z AUTO 21009KT 15/09 RMK AO1 SLP188 T01490089 58005", "CWWF 311500Z AUTO 30007KT 04/01 RMK AO1 SLP069 T00440005 52014", "CWWK 311500Z AUTO 14002KT 09/08 RMK AO1 6PAST HR 6023 SLP065 P0002 T00930084 50038", "CWWL 311500Z AUTO 23014KT 06/01 RMK AO1 PK WND 23018/1458 SLP043 T00620009 58001", "CWWS 311500Z AUTO 25012G17KT 07/03 RMK AO1 PK WND 23020/1406 SLP958 T00680028 55000", "CWWZ 311500Z AUTO 01004KT 10/09 RMK AO1 0000 SLP139 T00970088 50028", "CWXA 311500Z AUTO 00036KT 01/M01 RMK AO1 2PAST HR 5003 SLP079 P0001 T00051007 50002", "CWXC 311500Z AUTO 19003KT 10/03 RMK AO1 SLP148 T00960029 58002", "CWXI 311500Z AUTO 23028G34KT 10/08 RMK AO1 PK WND 22035/1430 SLP009 T01020078 58031", "CWXL 311500Z AUTO 19001KT 05/02 RMK AO1 SLP055 T00520023 53002", "CWYJ 311500Z AUTO 18004KT 09/09 RMK AO1 1PAST HR 5011 SLP069 P0004 T00850091 50022", "CWYL 311500Z AUTO 28011G16KT M00/M01 RMK AO1 3PAST HR SOG 05 8003 SLP049 P0001 T10011007 50003", "CWYY 311500Z AUTO 18003KT 09/08 RMK AO1 SLP060 T00920079 56013", "CWZA 311500Z AUTO 19003KT 08/08 RMK AO1 9PAST HR 5017 SLP070 P0011 T00820079 50049", "CWZG 311500Z AUTO 22004KT 01/M00 RMK AO1 8004 SLP048 T00111004 50003", "CWZL 311500Z AUTO 22003KT 03/02 RMK AO1 SLP056 T00330017 56003", "CWZN 311500Z AUTO 22021KT 12/09 RMK AO1 PK WND 22025/1426 SLP121 T01200089 58026", "CWZO 311500Z AUTO 21015KT RMK AO1 PK WND 18019/1420", "CWZQ 311500Z AUTO 22014G19KT 14/07 RMK AO1 PK WND 20019/1437 SLP153 T01360066 55000", "CWZW 311500Z AUTO 03003KT M08/M10 RMK AO1 SOG 05 3011 SLP004 T10791096", "CXAF 311500Z AUTO 27006KT M04/M08 RMK AO1 T10371081", "CXAG 311500Z AUTO 23008KT M05/M08 RMK AO1 T10521079", "CXAJ 311500Z AUTO 23007KT M04/M08 RMK AO1 T10371080", "CXAK 311500Z AUTO 22003KT 02/M03 RMK AO1 T00241032", "CXAT 311500Z AUTO 07005KT M15/M18 RMK AO1 SOG 08 1005 SLP963 T11511183", "CXBA 311500Z AUTO 25004KT 03/M05 RMK AO1 T00301049", "CXBI 311500Z AUTO 16004KT 08/06 RMK AO1 2PAST HR 0002 SLP144 P0001 T00790061 50002", "CXBK 311500Z AUTO 28009KT 04/01 RMK AO1 SOG 01 1016 SLP074 T00390009", "CXBO 311500Z AUTO 23002KT 11/02 RMK AO1 T01130024", "CXBR 311500Z AUTO 04004KT RMK AO1", "CXBW 311500Z AUTO 01006KT 02/01 RMK AO1 T00210009", "CXCA 311500Z AUTO 09001KT 01/01 RMK AO1 SLP102 T00050014 56006", "CXCD 311500Z AUTO 26002KT M05/M09 RMK AO1 T10521087", "CXCK 311500Z AUTO 30005KT M07/M10 RMK AO1 SOG 06 1022 SLP029 T10701097 50002", "CXCP 311500Z AUTO 35008KT M00/M01 RMK AO1 T10041006", "CXCS 311500Z AUTO 27008KT 03/M04 RMK AO1 T00261037", "CXDB 311500Z AUTO 27005KT 06/01 RMK AO1 T00570011", "CXDE 311500Z AUTO 33012KT M10/M12 RMK AO1 SOG 11 3016 SLP085 T11021121", "CXDI 311500Z AUTO 18005KT 13/11 RMK AO1 8006 SLP125 T01260113 50019", "CXDK 311500Z AUTO M06/M10 RMK AO1 SOG 08 1014 SLP049 T10611097", "CXDW 311500Z AUTO 25017G22KT 07/M00 RMK AO1 PK WND 26024/1431 SLP036 T00711002 55002", "CXEA 311500Z AUTO 22003KT 07/M00 RMK AO1 SLP017 T00661004 57010", "CXEC 311500Z AUTO 25002KT M01/M06 RMK AO1 SLP061 T10131060 53004", "CXEG 311500Z AUTO 20006KT M05/M06 RMK AO1 SLP067 T10471061 53003", "CXET 311500Z AUTO 16005KT 08/08 RMK AO1 0PAST HR 8001 SLP135 P0004 T00840075 50033", "CXFM 311500Z AUTO 18004KT 05/02 RMK AO1 T00490021", "CXFR 311500Z AUTO 16001KT M08/M11 RMK AO1 T10801106", "CXGH 311500Z AUTO 24012KT 07/01 RMK AO1 SLP006 T00730012 56001", "CXHA 311500Z AUTO 19008KT 15/14 RMK AO1 0000 SLP109 T01470138 50004", "CXHD 311500Z AUTO 25006KT M00/M04 RMK AO1 T10041041", "CXHM 311500Z AUTO 00000KT 08/07 RMK AO1 9PAST HR 8003 SLP137 P0004 T00810074 50018", "CXHP 311500Z AUTO 23008KT M02/M09 RMK AO1 T10171091", "CXHR 311500Z AUTO 34005KT 01/M02 RMK AO1 T00121022", "CXIB 311500Z AUTO 25009G17KT 18/01 RMK AO1 PK WND 24018/1449 SLP123 T01820006 56011", "CXKA 311500Z AUTO 20003KT 07/04 RMK AO1 SLP101 T00680039 58011", "CXKE 311500Z AUTO 20004KT 13/05 RMK AO1 SLP144 T01250052 58005", "CXKI 311500Z AUTO 00015KT 07/05 RMK AO1 SLP122 T00720047 58004", "CXKM 311500Z AUTO 28006KT 02/M06 RMK AO1 T00221055", "CXKT 311500Z AUTO 29003KT 13/07 RMK AO1 SLP170 T01290066 58009", "CXLB 311500Z AUTO 23006KT 14/08 RMK AO1 SLP184 T01430083 58005", "CXLL 311500Z AUTO 03002KT M06/M08 RMK AO1 SOG 18 1012 SLP059 T10621076", "CXMD 311500Z AUTO 25012G17KT 07/M00 RMK AO1 PK WND 27019/1421 SLP041 T00731001 55000", "CXMG 311500Z AUTO 36003KT M06/M07 RMK AO1 T10611068", "CXMI 311500Z AUTO 24006KT 14/06 RMK AO1 SLP180 T01440064 58006", "CXMM 311500Z AUTO 28005KT M01/M03 RMK AO1 SLP025 T10071027 53014", "CXMO 311500Z AUTO 31005KT 01/M00 RMK AO1 T00121001", "CXMY 311500Z AUTO 14/04 RMK AO1 T01370042", "CXNM 311500Z AUTO 26018G26KT 12/02 RMK AO1 PK WND 27026/1452 T01190016", "CXNP 311500Z AUTO 20006KT 13/09 RMK AO1 2PAST HR 0000 SLP161 P0001 T01340093 50002", "CXOL 311500Z AUTO 11001KT 01/01 RMK AO1 T00060006", "CXOX 311500Z AUTO 27008G16KT 03/M05 RMK AO1 SLP986 T00321050 53023", "CXOY 311500Z AUTO 32004KT 02/M04 RMK AO1 T00181039", "CXPA 311500Z AUTO 06003KT M09/M12 RMK AO1 T10911119", "CXPC 311500Z AUTO 10/06 RMK AO1 SLP128 T01040056 58004", "CXPL 311500Z AUTO 33005KT M00/M00 RMK AO1 T10031003", "CXRB 311500Z AUTO 36012KT M24/M27 RMK AO1 SOG 03 6003 SLP999 T12401270", "CXRH 311500Z AUTO 23013G22KT 12/07 RMK AO1 PK WND 25028/1414 SLP074 T01160070 56014", "CXRL 311500Z AUTO 25009KT M02/M08 RMK AO1 T10201075", "CXSC 311500Z AUTO 07004KT 03/M01 RMK AO1 T00251007", "CXSE 311500Z AUTO 34019G24KT M16/M18 RMK AO1 SOG 05 3002 PK WND 33025/1413 SLP056 T11591180", "CXSH 311500Z AUTO 10002KT 09/02 RMK AO1 SLP157 T00920017 58003", "CXSL 311500Z AUTO 29003KT M03/M08 RMK AO1 T10291075", "CXSP 311500Z AUTO 23006KT M03/M07 RMK AO1 T10271068", "CXTD 311500Z AUTO 23009KT 14/01 RMK AO1 PK WND 21017/1400 SLP172 T01360006 55006", "CXTH 311500Z AUTO 25008KT M00/M05 RMK AO1 T10011052", "CXTN 311500Z AUTO 08006KT M20/M23 RMK AO1 SOG 22 3009 SLP150 T11951226", "CXTO 311500Z AUTO 11/09 RMK AO1 1PAST HR 8001 SLP139 P0000 T01080088 50015", "CXTP 311500Z AUTO 23011KT 12/05 RMK AO1 PK WND 22022/1417 SLP101 T01180053 58026", "CXTV 311500Z AUTO 30005KT M12/M13 RMK AO1 SOG 09 3010 SLP176 T11151131", "CXVM 311500Z AUTO 26006KT 01/M06 RMK AO1 T00141055", "CXVN 311500Z AUTO 31002KT 08/07 RMK AO1 9PAST HR 8001 SLP139 P0004 T00770069 50034", "CXVW 311500Z AUTO 20007KT M03/M10 RMK AO1 SLP041 T10251097 56001", "CXWM 311500Z AUTO 20003KT 02/00 RMK AO1 T00150000", "CXWN 311500Z AUTO 23006KT 07/M00 RMK AO1 SLP027 T00661001 55003", "CXYH 311500Z AUTO 03001KT M07/M08 RMK AO1 SLP047 T10711082 51015", "CXZC 311500Z AUTO 14002KT 07/02 RMK AO1 SLP100 T00740015 58018", "CXZV 311500Z AUTO 32008KT 11/M01 RMK AO1 1018 SLP117 T01051008 50002", "CYAB 311500Z 06004KT 5SM -SN OVC020 M15/M18 A2940 RMK NS8 CIG EST SLP961", "CYAH 311500Z AUTO 15004KT 9SM OVC015 03/M00 A2990 RMK SLP142", "CYAM 311500Z 08006KT 8SM BKN120 BKN140 BKN220 11/08 A2984 RMK AC5AC1CI1 SLP112", "CYAS 311500Z 30015KT 15SM SCT045 M05/M09 A2980 RMK SC3 SLP103", "CYAT 311500Z AUTO 18005KT 9SM CLR 04/M00 A2976 RMK SLP081", "CYAW 311500Z 24008KT 15SM BKN250 14/07 A3007 RMK CI6 DENSITY ALT -19FT SLP184", "CYAY 311553Z AUTO 23019G32KT 9SM -RA BKN018 OVC060 10/07 A2957 RMK SLP016", "CYAZ 311500Z 30006KT 5SM -SHRA BR OVC030 08/07 A2977 RMK CU8 SLP085", "CYBB 311500Z 22014KT 15SM OVC020 M17/M19 A2969 RMK SC8 SLP059", "CYBC 311500Z AUTO 33005KT 310V020 9SM CLR 12/03 A2994 RMK SLP140", "CYBD 311500Z 27003KT 4SM -RA BR FEW009 SCT017 BKN030 OVC050 03/02 A2972 RMK SF1SC3SC3SC2 SF TR WIND ESTD SLP069", "CYBG 311500Z 10004KT 25SM FEW180 SCT250 11/02 A2996 RMK AC1CI4 CC ASOCTD SLP153", "CYBK 311552Z CCA 01023KT 3/4SM -SN BLSN OVC026 M14/M16 A2951 RMK SC8 SLP998", "CYBL 311500Z VRB02KT 20SM R12/5500VP6000FT/D MIFG SCT035 BKN090 04/04 A2971 RMK SC3AC2 SLP066", "CYBQ 311533Z AUTO /////KT 9SM SCT025 OVC029 01/01 A2909 RMK PCPN 0.8MM PAST HR WIND MISG SLP870", "CYBR 311500Z 25011KT 15SM SCT180 BKN250 04/01 A2962 RMK AC3CI4 SLP051", "CYBU 311500Z AUTO 25010KT 9SM CLR A2954 RMK T MISG DP MISG DENSITY ALT MISG", "CYBV 311500Z 24008KT 15SM FEW150 SCT280 06/02 A2944 RMK AC1CI3 AC TR SLP980", "CYBW 311510Z AUTO 07004KT 060V130 9SM -SN FEW018 BKN024 OVC033 00/M01 A2967 RMK SLP093", "CYBX 311500Z 26019G24KT 15SM BKN008 OVC012 09/07 A2959 RMK SC5SC3 SLP023", "CYCA 311529Z AUTO 03011KT 5/8SM -SN VV005 00/M00 A2957 RMK ICE SLP017", "CYCB 311500Z 28009KT 15SM FEW010 BKN110 M24/M28 A2984 RMK SC2AC3 SLP113", "CYCD 311514Z VRB02KT 10SM FEW008 SCT035 BKN079 08/07 A2971 RMK SF1SC3AC3 SF TR SLP062", "CYCG 311500Z 00000KT 15SM FEW001 FEW006 FEW025 SCT090 BKN160 07/07 A2975 RMK SF1SF1CF1AC2AC3 SF TR LOW CIG S VIS S 5 SLP085", "CYCK 311512Z AUTO 19011KT 9SM SCT015 14/13 A2986 RMK SLP113 DENSITY ALT 800FT", "CYCO 311500Z 24007KT 230V300 15SM -SN FEW003 SCT014 OVC030 M19/M21 A2993 RMK ST1ST4SC4 ST TR MIFG N SLP139", "CYCP 311500Z 00000KT 3SM BR BKN005 BKN032 03/03 A2965 RMK SF5SC2 VIS SW 6 SLP063", "CYCQ 311500Z 34002KT 35SM FEW040 FEW120 SCT180 BKN200 M06/M09 A2954 RMK SC1AC1AC2CI3 SC TR GND FROST SLP036", "CYCS 311500Z 07025G32KT 1/2SM SN DRSN OVC007 M01/M02 A2933 RMK SN4SC4 SLP935", "CYCX 311500Z 24005KT 15SM BKN200 BKN230 12/04 A3001 RMK CI5CI1 DENSITY ALT -185FT CI TR SLP164", "CYCY 311500Z 28004KT 15SM FEW017 FEW031 FEW048 BKN140 BKN180 M12/M14 A2932 RMK SF1SC1SC1AC5AC1 SF TR SC TR SC TR SLP933", "CYDA 311500Z VRB02KT 10SM -SN OVC035 M13/M15 A2968 RMK SC8 SLP086", "CYDB 311500Z 29013KT 10SM OVC037 M13/M16 A2954 RMK SC8 SLP065", "CYDC 311500Z 00000KT 15SM FEW020 BKN071 04/02 A2969 RMK CU1AC7 CU TR SLP066", "CYDF 311500Z 23023G31KT 15SM FEW028 13/05 A2975 RMK SC2 SLP077 DENSITY ALT 100FT", "CYDL 311500Z AUTO 00000KT 9SM BKN060 OVC076 M06/M07 A2943 RMK SLP997", "CYDN 311500Z AUTO 26016G24KT 9SM FEW220 07/01 A2954 RMK SLP015", "CYDP 311500Z 30023G30KT 15SM FEW037 SCT130 03/M03 A2966 RMK SC1AC4 SC TR G32 PAST HR SLP048", "CYDQ 311500Z AUTO 04003KT 9SM CLR M06/M08 A2955 RMK SLP042", "CYED 311500Z 22005KT 15SM SCT150 M03/M07 A2965 RMK AC4 DENSITY ALT 724FT SLP069", "CYEG 311500Z 21007KT 20SM BKN140 M05/M06 A2965 RMK AC5 SLP071", "CYEK 311500Z 23005KT 15SM OVC005 00/00 RMK SC8 ALTM 2909 WIND EST VIA CYQB DENSITY ALT MISG", "CYEN 311500Z AUTO 25009KT 9SM FEW220 05/01 A2970 RMK SLP077", "CYER 311500Z AUTO 17009G15KT 9SM BKN081 OVC095 05/M00 A2942 RMK PRESFR SLP964", "CYET 311500Z AUTO VRB02KT 9SM BKN110 OVC130 M02/M06 A2960 RMK SLP060", "CYEV 311500Z 30003KT 260V330 15SM -SN OVC025 M14/M15 A3003 RMK SC8 SLP180", "CYFB 311500Z 33020G27KT 30SM DRSN BKN026 BKN050 M08/M12 A2970 RMK SC6SC1 SLP062", "CYFC 311500Z AUTO 22006KT 9SM SCT200 11/04 A3001 RMK SLP167", "CYFO 311500Z 25011KT 15SM FEW140 05/M01 A2938 RMK AC1 AC TR SLP961", "CYFR 311540Z 07005KT 15SM FEW015 SCT055 BKN082 M09/M11 A2964 RMK SC1SC3AC4 SC TR SLP053", "CYFS 311545Z 32006KT 4SM -SN OVC008 M06/M07 A2965 RMK SC8 CIG RAG SLP056", "CYFT 311500Z 31012KT 15SM BKN025 OVC090 02/M03 A2964 RMK SC5AS3 SLP043", "CYGE 311500Z 15008KT 12SM SCT019 BKN051 BKN070 05/03 A2965 RMK SC3SC3AS1 PCPN N SLP061", "CYGH 311500Z 30007KT 9SM -SN FEW018 BKN040 M17/M20 A2994 RMK SC2SC5 SLP151", "CYGK 311500Z 18014KT 15SM BKN140 BKN250 12/08 A2997 RMK AC7CI1 CI TR VIRGA SLP154", "CYGL 311547Z 16006KT 15SM BKN006 OVC013 03/02 A2987 RMK SF6SC2 SLP128", "CYGP 311500Z 28008KT 260V340 15SM SCT150 BKN300 13/02 A2987 RMK AS3CI2 SLP118", "CYGR 311500Z 26019KT 20SM FEW230 BKN280 13/05 A2990 RMK CI2CI4 SLP128", "CYGT 311528Z 29012KT 5SM -SN SCT021 BKN034 OVC071 M15/M18 A2957 RMK SC4SC3AC1 SLP022", "CYGV 311500Z AUTO 26014KT 9SM CLR 10/04 A2978 RMK SLP089", "CYGW 311517Z AUTO 17008KT 9SM SCT017 BKN025 05/03 A2982 RMK SLP101", "CYGX 311500Z 16005KT 120V200 15SM BKN018 02/M02 A2917 RMK SC7 PRESFR SLP889", "CYHA 311500Z 32021G30KT 15SM OVC025 M02/M06 A2976 RMK SC8 SLP081", "CYHD 311500Z AUTO 21008G15KT 9SM CLR 06/M00 A2962 RMK SLP049", "CYHE 311518Z AUTO 10006KT 7SM -RA FEW007 OVC046 07/07 A2973 RMK PCPN 0.5MM PAST HR SLP071", "CYHI 311500Z 06007KT 15SM FEW035 FEW085 M21/M24 A2995 RMK SC1AC1 SC TR AC TR SLP149", "CYHK 311552Z AUTO 31008KT 9SM -SN OVC016 M16/M18 A2973 RMK SLP076", "CYHM 311500Z 08004KT 3/4SM R12/P6000FT/D BR OVC002 10/09 A2991 RMK FG5ST3 SLP134", "CYHU 311500Z AUTO 19008KT 9SM CLR 14/03 A2997 RMK SLP152", "CYHY 311541Z 30007KT 2 1/2SM -FZDZ -SHGS BR BKN006 OVC008 M04/M04 A2963 RMK ST6ST2 SLP048", "CYHZ 311500Z CCA 22007KT 15SM BKN210 BKN250 12/07 A3004 RMK CS5CI2 CS ASOCTD HALO SLP179", "CYIK 311500Z 14009KT 15SM BKN028 M05/M09 A2974 RMK SC7 SLP077", "CYIN 311500Z AUTO 14006KT 9SM CLR M00/M03 A2955 RMK SLP028", "CYIO 311514Z 27007KT 8SM -SN BKN015 OVC021 M13/M15 A2939 RMK ST5SC3 SLP963", "CYIV 311500Z AUTO 21003KT 170V250 9SM CLR 05/M00 A2934 RMK SLP947", "CYJF 311500Z 06006KT 15SM FEW011 FEW080 SCT100 SCT130 M07/M09 A2963 RMK ST1AC1AC1AC1 VIS NE 7/AS ASOCTD SLP051", "CYJT 311500Z 24021G30KT 15SM FEW030 SCT220 12/08 A2983 RMK SC1CI3 SC TR SLP104", "CYKA 311500Z VRB02KT 40SM SCT160 05/00 A2963 RMK AC4 SLP042", "CYKF 311500Z AUTO 08005KT 3/4SM -RA BR OVC004 09/09 A2990 RMK PCPN 0.5MM PAST HR SLP132", "CYKG 311500Z 32013KT 15SM -SN OVC024 M05/M09 A2974 RMK SC8 SLP087", "CYKJ 311556Z AUTO 31011G18KT 4SM -SN BKN010 BKN015 OVC027 M01/M01 A2937 RMK SLP975", "CYKL 311500Z AUTO 31013G21KT 9SM OVC020 M03/M05 A2984 RMK SLP136", "CYKO 311500Z 14016KT 15SM BKN018 M02/M06 A2976 RMK SC7 SLP080", "CYKQ 311500Z 14006KT 15SM BKN250 06/01 A2986 RMK CI5 SLP116", "CYKY 311500Z 29004KT 15SM OVC060 02/M02 A2967 RMK SC8 SLP069", "CYLC 311500Z 32016KT 15SM DRSN SCT025 M08/M13 A2974 RMK SC3 SLP076", "CYLD 311500Z 19005KT 15SM SCT230 BKN250 08/04 A2983 RMK CC3CI2 SLP119", "CYLH 311500Z AUTO 19009G16KT 9SM BKN130 06/M03 A2961 RMK SLP043", "CYLJ 311500Z 25011KT 15SM FEW130 FEW170 SCT210 01/M06 A2958 RMK AC1AC1CI2 AC TR SLP037", "CYLK 311500Z 09006KT 060V120 20SM -SHSN BKN013 BKN110 M12/M14 A2970 RMK SC7AC1 VIS 15 N-NW VC SHSN N-NW CIG RAG CLRG FM SE SLP076", "CYLL 311500Z 27010KT 15SM BKN110 02/M07 A2962 RMK AC7 SLP056", "CYLT 311500Z 29007KT 15SM FEW030 M23/M26 A2970 RMK SC2 SLP064", "CYLU 311525Z 31016KT 12SM VCSH FEW010 SCT018 BKN029 M01/M03 A2977 RMK ST2SC2SC3 SLP088", "CYLW 311500Z AUTO VRB02KT 9SM CLR 04/02 A2967 RMK SLP059", "CYMA 311500Z 01010G15KT 15SM -SN OVC040 M08/M12 A2955 RMK SC8 SLP048", "CYMH 311546Z AUTO 24019G26KT 9SM -RA SCT030 BKN036 OVC060 10/05 A2950 RMK SLP992", "CYMJ 311500Z 28007KT 15SM BKN120 BKN210 04/01 A2969 RMK AC5CI2 SLP072", "CYMM 311500Z AUTO 27006KT 9SM CLR M00/M03 A2955 RMK SLP026", "CYMO 311500Z AUTO 13005KT 9SM CLR 07/01 A2982 RMK SLP099", "CYMT 311500Z AUTO 07004KT 050V120 9SM CLR 07/01 A2991 RMK SLP142", "CYMU 311500Z CCA 15008KT 15SM SCT020 BKN190 M00/M03 A2984 RMK SC3AS4 SLP111", "CYMX 311500Z VRB02KT 30SM SCT180 BKN240 10/04 A2997 RMK AC4CS3 SLP153", "CYNA 311500Z AUTO 27015G24KT 9SM CLR 07/05 A2975 RMK SLP076", "CYND 311500Z 09006KT 15SM SCT160 BKN240 09/02 A2995 RMK AC4CI3 SLP147", "CYNE 311500Z AUTO 25005KT 220V280 9SM FEW160 06/02 A2933 RMK SLP943", "CYNM 311500Z AUTO 13005KT 9SM FEW047 OVC066 04/02 A2986 RMK SLP126", "CYOC 311500Z 24003KT 35SM IC FEW033 M21/M23 A2996 RMK SC1 SC TR FROIN SLP177", "CYOD 311500Z 23009KT 15SM FEW140 M01/M06 A2961 RMK AC1 DENSITY ALT 483FT SLP048", "CYOJ 311500Z 04002KT 15SM FEW022 BKN030 M02/M02 A2957 RMK SC1SC6 SLP037", "CYOO 311549Z AUTO 07003KT 6SM -RA BR SCT020 BKN027 OVC040 09/08 A2994 RMK SLP144", "CYOW 311500Z 19006KT 15SM BKN170 11/05 A2995 RMK AC7 SLP147", "CYOY 311500Z 16003KT 15SM FEW170 BKN240 11/02 A2999 RMK AC1CI4 DENSITY ALT 191FT SLP160", "CYPA 311500Z 27010KT 15SM FEW130 SCT250 02/M04 A2959 RMK AC1CI2 SLP042", "CYPC 311544Z 12003KT 15SM OVC022 M11/M16 A2997 RMK SC8 SLP151", "CYPD 311500Z AUTO 26011KT 9SM FEW230 15/M00 A2999 RMK SLP160 DENSITY ALT 400FT", "CYPE 311500Z 20007KT 15SM FEW180 M07/M10 A2955 RMK AC1 AC TR SLP039", "CYPG 311500Z 24017G22KT 15SM SCT160 BKN220 08/01 A2958 RMK AC3CI4 CONTRAILS SLP025", "CYPH 311500Z AUTO 18007G15KT 9SM OVC025 01/M03 A2978 RMK SLP087", "CYPL 311500Z AUTO 19014G21KT 9SM FEW150 07/M02 A2957 RMK SLP031", "CYPO 311500Z AUTO 19010G16KT 9SM SCT100 BKN120 BKN140 05/M02 A2958 RMK SLP021", "CYPQ 311500Z AUTO 00000KT 9SM -RA FEW081 OVC097 08/05 A2994 RMK SLP147", "CYPR 311552Z AUTO 12008KT 6SM -RA BR FEW013 OVC023 02/01 A2965 RMK PCPN 1.0MM PAST HR SLP044", "CYPW 311532Z 28007KT 15SM FEW008 BKN015 BKN042 08/08 A2970 RMK SF1SC5SC1 VIS N-E 3 LO CLD BR SLP063", "CYPX 311500Z AUTO 17014G19KT 9SM OVC025 M02/M07 A2980 RMK SLP096", "CYPY 311539Z AUTO 32008KT 290V360 9SM -SN OVC050 M02/M06 A2956 RMK SLP028", "CYQA 311500Z AUTO 13003KT 9SM BKN130 OVC150 09/03 A2990 RMK SLP135", "CYQB 311500Z 27004KT 240V320 30SM FEW180 SCT240 09/03 A2999 RMK AC1CI2 SLP161", "CYQD 311500Z AUTO 25014G22KT 9SM FEW150 04/M00 A2942 RMK SLP974", "CYQF 311554Z AUTO 20006KT 9SM OVC048 01/M01 A2968 RMK SLP088", "CYQG 311512Z AUTO 19007KT 6SM BR OVC005 15/15 A2985 RMK SLP110 DENSITY ALT 900FT", "CYQH 311500Z 04005KT 350V050 30SM FEW100 M11/M12 A2942 RMK AC1 SLP007", "CYQI 311500Z 24007KT 15SM SCT190 BKN230 15/11 A3009 RMK AC3CI2 SLP194", "CYQK 311500Z 21013KT 20SM SCT240 07/01 A2961 RMK CI4 SLP042", "CYQL 311500Z 35006KT 40SM FEW060 BKN120 BKN230 01/M01 A2966 RMK SC1AS4CI2 PRESRR SLP069", "CYQM 311500Z 23009G15KT 15SM BKN210 12/04 A3000 RMK CI7 SLP162", "CYQQ 311500Z 32004KT 15SM FEW012 FEW030 08/07 A2971 RMK SC1SC1 SLP063", "CYQR 311500Z 25004KT 15SM SCT140 BKN210 01/M00 A2969 RMK AC3CS4 SLP079", "CYQT 311500Z 21004KT 20SM FEW260 03/M01 A2981 RMK CI1 SLP107", "CYQU 311500Z 15004KT 25SM SCT200 M06/M10 A2958 RMK CI3 SLP052", "CYQV 311500Z AUTO 26010KT 9SM FEW240 02/M01 A2959 RMK SLP044", "CYQW 311500Z AUTO 27008KT 9SM BKN110 BKN130 04/M05 A2966 RMK SLP066", "CYQX 311500Z 22017G22KT 20SM FEW020 SCT110 BKN200 12/05 A2979 RMK CF1AC4CI1 CF TR SLP095", "CYQY 311500Z 24013G19KT 15SM BKN250 16/01 A2994 RMK CI6 SLP143 DENSITY ALT 400FT", "CYQZ 311500Z AUTO 00000KT 9SM OVC100 M02/M03 A2960 RMK SLP054", "CYRA 311519Z 10003KT 070V140 5SM -SN VV032 M10/M13 A2969 RMK SN8 SNW CVR/MUCH LOOSE SLP075", "CYRB 311500Z 34010KT 15SM IC SCT040 M24/M27 A2950 RMK SC4 SLP004", "CYRJ 311500Z 00000KT 40SM SCT190 BKN230 12/03 A2995 RMK AS3CI4 SLP149", "CYRL 311500Z 19006KT 15SM FEW240 06/M00 A2953 RMK CI1 SLP016", "CYRQ 311500Z AUTO 21003KT 110V240 9SM CLR 10/04 A2998 RMK SLP155", "CYRT 311500Z 08017G30KT 1/2SM -SN BLSN OVC004 M01/M01 A2919 RMK BLSN4SC4 SLP889", "CYRV 311500Z AUTO 27002KT 9SM OVC017 06/06 A2969 RMK SLP066", "CYSB 311513Z VRB02KT 6SM BR SCT002 BKN120 08/08 A2988 RMK ST4AC3 SLP129", "CYSC 311500Z AUTO VRB02KT 9SM SCT200 07/00 A2999 RMK SLP165", "CYSF 311542Z AUTO 32008KT 9SM -SN SCT021 SCT055 M09/M12 A2948 RMK SLP006", "CYSJ 311500Z 22007KT 200V260 15SM FEW008 FEW190 BKN230 13/07 A3003 RMK SF1AC1CI5 SF TR SLP172", "CYSK 311549Z 14014KT 7SM -DZ BKN011 03/02 A2974 RMK SC7 SLP074", "CYSM 311500Z CCA 04005KT 3SM -SN OVC012 M06/M08 A2959 RMK SC8 CIG VRB 009-015 SLP036", "CYSN 311537Z 10004KT 10SM -RA SCT014 BKN032 BKN068 12/11 A2991 RMK SC4SC2AC2 SLP131", "CYSP 311500Z 00000KT 15SM FEW085 SCT220 05/04 A2979 RMK AS1CC2 SLP105", "CYSY 311548Z 02010KT 10SM IC FEW005 FEW012 SCT036 M22/M24 A3005 RMK ST1SC1SC3 ST TR SLP190", "CYTE 311500Z VRB02KT 15SM -SN OVC026 M07/M12 A2974 RMK SC8 SLP077", "CYTH 311546Z 22003KT 15SM FEW040 SCT100 BKN220 01/00 A2922 RMK SC2AC2CI1 SLP910", "CYTL 311500Z AUTO 19010KT 9SM BKN096 06/M01 A2944 RMK SLP982", "CYTQ 311500Z 29014G21KT 15SM FEW028 M02/M08 A2986 RMK SC2 SLP117", "CYTR 311549Z 22003KT 10SM -RA SCT055 BKN100 OVC140 12/08 A2995 RMK SC4AC3AC1 DENSITY ALT 134FT SLP144", "CYTS 311500Z 19005KT 15SM FEW060 SCT180 BKN240 08/04 A2984 RMK SC1AC3CI3 SLP116", "CYTZ 311556Z AUTO 06012KT 3SM -RA BR SCT015 OVC028 10/09 A2991 RMK SLP133", "CYUA 311500Z AUTO 22007KT ////SM OVC028 M13/M15 A3004", "CYUB 311500Z 02008KT 10SM -SN OVC018 M11/M14 A3003 RMK SC8 SLP173", "CYUL 311500Z 15003KT 30SM BKN180 OVC250 13/M00 A2997 RMK CS7CI1 SLP151", "CYUS 311500Z AUTO 01013KT ////SM //// OVC020 M16/M20 A2969", "CYUT 311500Z 02007KT 15SM BKN150 M18/M21 A2974 RMK AC6 SLP075", "CYUX 311500Z 28015KT 10SM DRSN SCT055 M17/M19 A2964 RMK SC3 SLP039", "CYUY 311500Z 20007KT 15SM BKN140 BKN200 BKN240 07/05 A2988 RMK AC5CI1CC1 SLP132", "CYVC 311500Z 27010G19KT 15SM FEW070 03/M04 A2946 RMK AC1 SLP993", "CYVL 311500Z AUTO 36010G16KT 9SM CLR M18/M20 A2983 RMK SLP138", "CYVM 311500Z 20008KT 15SM FEW090 BKN110 BKN250 M10/M13 A2943 RMK AC1AC4CC2 SLP969", "CYVO 311500Z 18004KT 15SM BKN130 OVC150 07/05 A2988 RMK AC7AS1 SLP135", "CYVP 311510Z 31014G20KT 15SM SCT031 SCT082 M00/M08 A2987 RMK SC3AC1 SLP119", "CYVQ 311500Z 29015G22KT 20SM -SN DRSN SCT032 OVC075 M15/M17 A2990 RMK SC3AC5 SLP135", "CYVR 311500Z 10003KT 6SM -RA BR FEW005 BKN007 OVC020 09/09 A2971 RMK SC2SC4SC2 SLP063", "CYVT 311500Z AUTO 33012G19KT 9SM FEW020 OVC050 02/M03 A2951 RMK SLP013", "CYVV 311500Z 15005KT 100V170 15SM BKN060 BKN100 11/06 A2987 RMK SC6AC1 SLP121", "CYWE 311500Z AUTO 08011KT 9SM OVC050 M14/M17 A2967 RMK ICE MISG SLP088", "CYWG 311500Z 23011G16KT 15SM FEW160 BKN250 07/01 A2958 RMK AC1CI6 AC TR SLP027", "CYWH 311552Z 23019G24KT 15SM FEW005 SCT040 BKN220 10/09 A2975 RMK SF2SC1CI3 PRESRR SLP077", "CYWJ 311500Z 32012KT 15SM -SN BKN055 BKN065 M10/M12 A2971 RMK SC5SC2 SLP084", "CYWK 311500Z 31010G16KT 290V350 15SM SCT023 04/M03 A2984 RMK CU4 SLP129", "CYWL 311500Z 14005KT 15SM BKN050 BKN100 M00/M05 A2958 RMK SC5AC2 SLP047", "CYWY 311534Z 31009KT 3SM -SN BR SCT013 BKN065 OVC085 M09/M11 A2976 RMK SC3SC3AS2 SLP093", "CYXC 311500Z 26004KT 200V280 25SM FEW005 FEW020 BKN035 OVC100 04/03 A2971 RMK SF1SC1SC4AC2 SLP075", "CYXE 311500Z 21006KT 15SM BKN094 04/M05 A2964 RMK AC7 SLP059", "CYXH 311545Z CCA 04005KT 15SM -SHRA OVC065 06/01 A2966 RMK SC8 CVCTV CLD EMBD SLP060", "CYXJ 311500Z 20005KT 15SM BKN160 M02/M07 A2953 RMK AC6 SLP033", "CYXL 311500Z 20010G15KT 170V230 15SM BKN240 07/M00 A2963 RMK CI5 SLP054", "CYXN 311500Z 27010KT 4SM -SN OVC006 00/M00 A2914 RMK ST8 WIND ESTD SLP870", "CYXP 311500Z 27011G18KT 15SM VCSH FEW014 BKN021 BKN110 M05/M09 A2950 RMK ST2SC4AC1 SLP995", "CYXR 311538Z AUTO 14002KT 9SM OVC086 07/06 A2986 RMK SLP124", "CYXS 311500Z AUTO 35004KT 9SM FEW048 BKN066 M03/M05 A2957 RMK SLP045", "CYXT 311500Z 25003KT 8SM FEW002 BKN013 BKN030 BKN100 01/M00 A2965 RMK SF1CF4SC1AC1 SLP050", "CYXU 311516Z 14007KT 3SM BR OVC003 12/12 A2988 RMK ST8 SLP124", "CYXX 311547Z 36003KT 5SM -RA BR FEW003 FEW009 OVC025 08/08 A2971 RMK SF1SF1SC6 SLP063", "CYXY 311500Z 35003KT 310V020 15SM -SN FEW006 OVC014 M05/M06 A2942 RMK SF1SC7 SLP006", "CYXZ 311500Z 00000KT 12SM FEW150 FEW250 07/05 A2982 RMK AC1CI2 AC TR SLP111", "CYYB 311500Z 13005KT 30SM BKN130 OVC220 08/04 A2988 RMK AC6CI2 SLP125", "CYYC 311500Z 09004KT 10SM OVC038 01/M02 A2968 RMK SC8 SLP082", "CYYD 311524Z 22002KT 15SM SCT024 OVC140 M01/M02 A2956 RMK SC4AC3 SLP031", "CYYE 311500Z 00000KT 15SM SCT068 BKN170 M09/M10 A2957 RMK AC3AC3 SLP044", "CYYF 311500Z 18012KT 15SM FEW040 FEW050 BKN160 10/06 A2968 RMK SC1SC2AC5 SC TR SLP056 DENSITY ALT 1200FT", "CYYG 311500Z 24011KT 15SM FEW100 BKN220 14/06 A2997 RMK AC2CI4 SLP151", "CYYH 311500Z 28013KT 12SM -SN FEW006 BKN017 OVC027 M15/M18 A2967 RMK ST2SC3SC3 CIG RAG SLP054", "CYYJ 311500Z CCA 16003KT 110V190 15SM -RA FEW007 SCT012 BKN064 OVC100 09/09 A2971 RMK SF1SC4SC2AC2 SF TR SLP062", "CYYL 311555Z AUTO 30012G18KT 9SM OVC008 02/01 A2923 RMK SLP920", "CYYN 311500Z AUTO 21004KT 160V250 9SM FEW066 BKN100 BKN120 01/M00 A2967 RMK ICE MISG SLP070", "CYYQ 311500Z 23010KT 15SM SCT055 OVC084 M01/M03 A2916 RMK SC4AC4 SLP878", "CYYR 311538Z 34012G17KT 15SM FEW007 FEW014 BKN023 BKN039 03/01 A2971 RMK SF1SF2SC4SC1 PRESRR SH DIST SE SLP065", "CYYT 311500Z 26017G26KT 15SM FEW160 FEW230 12/05 A2990 RMK AC1CI1 AC TR SLP132", "CYYU 311500Z 21003KT 15SM SCT230 06/04 A2980 RMK CI3 SLP101", "CYYW 311500Z AUTO 20005KT 9SM CLR 06/M02 A2969 RMK SLP072", "CYYY 311500Z 25011G16KT 30SM SCT240 13/02 A2996 RMK CI3 SLP147", "CYYZ 311534Z CCA 10005KT 1 1/2SM -RA BR BKN003 BKN010 OVC040 10/10 A2991 RMK ST5ST2SC1 SLP136", "CYZE 311508Z AUTO 16005KT 100V170 9SM FEW006 13/10 A2986 RMK SLP118", "CYZF 311514Z 08009KT 1 1/2SM -SN BKN016 OVC038 M11/M13 A2968 RMK SC6SC2 SLP071", "CYZG 311500Z 22011KT 10SM -SN BKN018 M07/M11 A2975 RMK SC7 SLP096", "CYZH 311500Z AUTO 26007KT 9SM CLR 00/M08 A2957 RMK SLP038", "CYZP 311532Z AUTO 22005KT 9SM -RA BKN023 BKN044 BKN096 02/01 A2967 RMK SLP050", "CYZR 311542Z AUTO 15003KT 6SM BR OVC005 14/14 A2984 RMK SLP109 DENSITY ALT 700FT", "CYZS 311554Z 08013KT 3/4SM -SN DRSN VV018 M10/M11 A2964 RMK SN8 SLP047", "CYZT 311520Z 26003KT 15SM SCT020 BKN063 04/03 A2978 RMK SC3SC2 SLP086", "CYZU 311500Z 24007KT 15SM FEW140 M03/M10 A2961 RMK AC2 SLP060", "CYZV 311500Z 33010G20KT 30SM FEW035 SCT240 12/M00 A2987 RMK SC1CI3 SC TR SLP120", "CYZX 311500Z 23008KT 15SM BKN250 13/08 A3005 RMK CI6 SLP175", "CYZY 311547Z AUTO 16005KT 9SM -SN OVC038 M00/M05 A2955 RMK SLP039", "CZBF 311500Z AUTO 24007KT 9SM CLR 12/01 A2995 RMK SLP146", "CZCP 311532Z AUTO 05010KT 010V080 ////SM //// FEW008 BKN015 OVC019 M13/M16 A2994", "CZCR 311500Z AUTO 26007KT 14/02 RMK AO1 SLP139 T01360015 50002", "CZDB 311500Z AUTO 06001KT 08/ RMK AO1 SLP179 T0084 58005", "CZEL 311500Z AUTO 12003KT 09/08 RMK AO1 1PAST HR 8002 SLP137 P0000 T00850080 50021", "CZEM 311500Z 15006KT 110V170 15SM SCT240 06/02 A2988 RMK CI4 SLP121", "CZEV 311500Z AUTO 31003KT M14/M15 RMK AO1 SOG 09 3013 SLP181 T11381153", "CZFA 311500Z 31007G15KT 2SM -SN FEW010 BKN035 OVC070 M06/M07 A2940 RMK SC2SC4AC2 PCPN VRY LGT VIS RDCD BY LW CLDS SLP004", "CZFM 311500Z 33003KT 10SM -SN OVC020 M13/M16 A3005 RMK SC8 SLP182", "CZFN 311524Z 32007KT 260V340 3/4SM -SHSN OVC028 M12/M15 A2985 RMK SN6SC2 SLP120", "CZFS 311500Z AUTO 29005KT M06/M07 RMK AO1 3PAST HR SOG 11 3011 SLP052 P0001 T10601073 50005", "CZHY 311500Z AUTO 32007KT M03/M04 RMK AO1 SOG 06 1013 SLP042 T10251044", "CZKD 311500Z AUTO 25005KT 02/01 RMK AO1 SLP905 T00190005 55014", "CZMD 311500Z AUTO 21013G19KT 9SM SCT150 06/M01 A2941 RMK SLP973", "CZMJ 311500Z AUTO 28007KT 03/M00 RMK AO1 SLP080 T00251004 51013", "CZMT 311500Z 19005KT 15SM SCT060 BKN140 02/01 A2963 RMK SC4AC3 SLP036", "CZOL 311500Z AUTO 24003KT M00/M06 RMK AO1 T10041055", "CZPC 311500Z AUTO 14007KT 100V170 9SM -RA BKN050 OVC076 03/01 A2965 RMK SLP060", "CZPS 311500Z AUTO 22010KT 00/M02 RMK AO1 T00001016", "CZRP 311500Z AUTO 34020KT M21/M22 RMK AO1 SOG 52 3004 PK WND 34026/1408 SLP054 T12061215", "CZSJ 311500Z AUTO 21006KT 160V250 9SM FEW100 SCT120 SCT140 BKN170 07/M01 A2941 RMK SLP971", "CZSM 311500Z AUTO 02003KT M06/M08 RMK AO1 SOG 03 1028 SLP033 T10641078 50002", "CZSP 311500Z AUTO 25012G18KT 16/06 RMK AO1 PK WND 25018/1451 SLP146 T01580056 56002", "CZST 311554Z VRB02KT 6SM -RA BR FEW007 BKN050 OVC060 01/01 A2964 RMK SC1SC4SC3 SLP039", "CZTB 311500Z AUTO 24003KT 03/M01 RMK AO1 SLP108 T00311009 56003", "CZUM 311500Z AUTO 32012G19KT 9SM BKN026 02/M02 A2978 RMK SLP108", "CZVL 311500Z AUTO 23007KT 9SM OVC150 M02/M06 A2963 RMK SLP059", "CZZJ 311500Z AUTO 13001KT M02/M07 RMK AO1 SLP059 T10181074 53003", "DAAD 311500Z VRB02KT 8000 NSC 25/06 Q1023", "DAAE 311500Z 09005KT 8000 NSC 23/17 Q1019", "DAAG 311530Z 04005KT CAVOK 27/13 Q1019", "DAAJ 311500Z 06011KT CAVOK 25/M03 Q1021", "DAAP 311500Z 03006KT CAVOK 28/M02 Q1020", "DAAS 311500Z 26004KT CAVOK 25/M09 Q1023", "DAAT 311530Z 28008KT CAVOK 25/M05 Q1022", "DAAV 311500Z 36004KT 330V030 7000 NSC 24/13 Q1019", "DAAY 311500Z 20008KT CAVOK 26/M07 Q1025", "DABB 311530Z 04011KT CAVOK 23/12 Q1019", "DABC 311530Z 01007KT CAVOK 26/02 Q1022", "DABS 311500Z 36005KT CAVOK 25/// Q1023", "DABT 311500Z 28007KT CAVOK 27/M03 Q1023", "DAFH 311500Z 22008KT CAVOK 26/M02 Q1024", "DAOB 311500Z 09003KT CAVOK 27/// Q1023", "DAOF 311500Z 07008KT CAVOK 31/M04 Q1020", "DAOI 311500Z 20004KT CAVOK 31/M05 Q1019", "DAOL 311500Z 33004KT 8000 NSC 32/09 Q1018", "DAON 311530Z 33009KT CAVOK 26/14 Q1018", "DAOO 311530Z 33008KT CAVOK 25/18 Q1017", "DAOR 311500Z 27006KT 9999 FEW033 27/M03 Q1023", "DAOV 311500Z 02005KT CAVOK 32/// Q1019", "DAOY 311500Z 24004KT CAVOK 24/M07 Q1025", "DATM 311500Z 06009KT 030V090 CAVOK 33/M02 Q1016", "DAUA 311500Z 01015KT CAVOK 31/// Q1018", "DAUB 311500Z VRB02KT CAVOK 28/04 Q1020", "DAUE 311500Z 06005KT CAVOK 28/00 Q1022", "DAUG 311500Z VRB03KT CAVOK 27/M02 Q1023", "DAUH 311500Z 01003KT CAVOK 28/04 Q1021", "DAUI 311500Z 09010KT CAVOK 32/M04 Q1016", "DAUK 311500Z 22003KT CAVOK 29/04 Q1021", "DAUL 311500Z 22010KT CAVOK 27/04 Q1022", "DAUO 311500Z 27003KT 200V330 CAVOK 28/05 Q1021", "DAUT 311500Z 07014KT CAVOK 30/M04 Q1019", "DAUU 311500Z 00000KT CAVOK 28/01 Q1020", "DAUZ 311500Z 05004KT CAVOK 26/M02 Q1021", "DBBB 311500Z 16008KT 130V190 9999 TS SCT012 FEW020CB 30/24 Q1009 NOSIG", "DFFD 311500Z 09009KT 030V140 CAVOK 36/09 Q1010 NOSIG", "DFOO 311500Z 08006KT 040V120 9999 FEW026 34/11 Q1011", "DGAA 311500Z 15007KT 110V190 9999 FEW015 FEW030CB 28/24 Q1009 NOSIG", "DIAP 311554Z 05007KT 020V080 6000 -TSRA BKN012 FEW020CB BKN025 29/25 Q1009 TEMPO 4000 TSRA", "DIBK 311500Z 10006KT 9999 BKN016 32/21 Q1010 NOSIG", "DIYO 311500Z 10006KT 9999 FEW016 32/23 Q1009 NOSIG", "DNAA 311500Z 11007KT 7000 NSC 34/14 Q1010 NOSIG", "DNEN 311500Z 06004KT 9999 FEW015 33/21 Q1009 NOSIG", "DNJO 311500Z 08011KT CAVOK 27/08 Q1017", "DNKN 311500Z 04009KT CAVOK 32/10 Q1014 NOSIG", "DNKT 311500Z 11007KT CAVOK 33/09 Q1013", "DNMM 311500Z 19004KT 9999 BKN013 FEW020CB 29/24 Q1010 NOSIG", "DNYO 311500Z 03013KT 9000 NSC 34/13 Q1011", "DRRM 311500Z 08012KT CAVOK 34/07 Q1011", "DRRN 311500Z 09010KT CAVOK 36/01 Q1011 NOSIG", "DRRT 311500Z 14008KT CAVOK 34/04 Q1012", "DRZA 311500Z 10012KT CAVOK 32/06 Q1014", "DRZR 311500Z 02008KT CAVOK 34/05 Q1013", "DTKA 311500Z 28003KT 230V320 9999 FEW020 25/18 Q1019 NOSIG", "DTMB 311530Z 11011KT 9999 SCT023 26/15 Q1020", "DTNH 311530Z 10015KT CAVOK 25/18 Q1020", "DTTA 311530Z 03008KT 360V070 CAVOK 25/18 Q1020", "DTTB 311500Z 05015KT CAVOK 25/18 Q1020", "DTTD 311500Z 06004KT 330V130 CAVOK 25/05 Q1022", "DTTF 311500Z 22007KT 200V270 8000 NSC 25/11 Q1022 NOSIG", "DTTG 311500Z VRB02KT 9999 FEW020 27/12 Q1021 NOSIG", "DTTJ 311500Z 06007KT 030V100 CAVOK 25/12 Q1021 NOSIG", "DTTK 311500Z VRB03KT 9999 FEW023 29/10 Q1020", "DTTL 311500Z VRB02KT 9999 FEW020 25/18 Q1021", "DTTN 311500Z 07002KT 9999 FEW020 29/03 Q1018", "DTTR 311500Z 01006KT 330V050 CAVOK 26/09 Q1022", "DTTX 311500Z 18008KT 150V210 9999 FEW030 25/14 Q1021", "DTTZ 311500Z 27004KT 220V320 CAVOK 27/11 Q1020", "DXNG 311500Z 10006KT 9999 FEW010 33/15 Q1011", "DXSK 311500Z 08008KT 9999 FEW016 BKN260 34/23 Q////", "DXXX 311500Z 18008KT 140V210 9999 FEW016 FEW020CB 31/25 Q1009 NOSIG", "EBAW 311550Z 10006KT CAVOK 15/12 Q1012 NOSIG", "EBBE 311525Z AUTO 12005KT 9999 NCD 18/12 Q1012 BLU", "EBBL 311525Z AUTO 09003KT 9999 SCT110/// 17/13 Q1013 BLU", "EBBR 311550Z 12006KT CAVOK 16/13 Q1012 NOSIG", "EBCI 311550Z 16008KT 130V200 CAVOK 17/10 Q1012 NOSIG", "EBCV 311525Z AUTO 15005KT 9999 NCD 18/12 Q1011 BLU", "EBDT 311525Z AUTO 11005KT 9999 FEW110/// 18/14 Q1012 BLU", "EBFN 311525Z AUTO 10007KT 9999 BKN130/// 15/13 Q1010 BLU", "EBFS 311525Z AUTO 17010KT 9999 SCT100/// BKN110/// OVC130/// 17/11 Q1013 BLU", "EBLB 311525Z AUTO 16009KT 9999 NCD 16/08 Q1015 BLU", "EBLG 311550Z 17009KT 140V210 CAVOK 18/09 Q1013 NOSIG", "EBOS 311550Z 11006KT CAVOK 14/12 Q1011 NOSIG", "EDAC 311550Z 03002KT CAVOK 15/13 Q1019", "EDAH 311550Z VRB02KT 4300 1800E BR OVC003 14/14 Q1020", "EDBC 311550Z AUTO 10006KT 0200 R25/0225N // VV/// 13/13 Q1019", "EDDB 311550Z AUTO VRB02KT CAVOK 15/13 Q1019 NOSIG", "EDDC 311550Z AUTO 07004KT CAVOK 15/11 Q1019 NOSIG", "EDDE 311550Z AUTO 05003KT 010V080 CAVOK 15/13 Q1018 NOSIG", "EDDF 311550Z AUTO VRB02KT CAVOK 16/13 Q1017 NOSIG", "EDDG 311550Z AUTO 08003KT 020V120 CAVOK 16/13 Q1015 NOSIG", "EDDH 311550Z AUTO 09007KT CAVOK 13/11 Q1018 NOSIG", "EDDK 311550Z AUTO 13010KT CAVOK 18/11 Q1015 NOSIG", "EDDL 311550Z AUTO 15009KT 120V190 CAVOK 19/11 Q1014 NOSIG", "EDDM 311550Z AUTO 03003KT CAVOK 15/13 Q1018 NOSIG", "EDDN 311550Z AUTO 35002KT CAVOK 16/14 Q1017 NOSIG", "EDDP 311550Z AUTO 04005KT 5000 2000 R08L/1000U BR NSC 14/13 Q1019 TEMPO 2000 BR", "EDDR 311550Z AUTO 11003KT 9999 -SHRA FEW///TCU 15/12 Q1016 NOSIG", "EDDS 311550Z AUTO 09001KT CAVOK 15/12 Q1017 NOSIG", "EDDV 311550Z AUTO 09007KT CAVOK 14/13 Q1018 NOSIG", "EDDW 311550Z AUTO 11005KT 7000 NSC 14/13 Q1017 NOSIG", "EDFH 311550Z 15009KT 130V200 CAVOK 14/11 Q1016", "EDFM 311550Z 04004KT 3700 NSC 17/14 Q1017", "EDGS 311550Z 12011KT CAVOK 14/10 Q1017", "EDHI 311550Z AUTO 09005KT 060V130 9999 // BKN150/// OVC180/// 13/13 Q1018", "EDHK 311550Z 15005KT 9999 SCT007 11/11 Q1019", "EDHL 311550Z 11004KT 070V170 9999 OVC010 14/12 Q1019", "EDJA 311550Z 09003KT CAVOK 17/12 Q1018", "EDLN 311550Z 13008KT CAVOK 18/12 Q1014", "EDLP 311550Z 12007KT 090V150 CAVOK 17/12 Q1016", "EDLV 311550Z 10005KT 070V130 CAVOK 16/13 Q1013", "EDLW 311550Z 04001KT CAVOK 17/14 Q1015", "EDMA 311550Z 03004KT 4000 BR NSC 12/11 Q1018", "EDMO 311550Z 04003KT CAVOK 17/10 Q1018", "EDNY 311550Z 26003KT 0200 R24/0200N FG VV/// 10/10 Q1018", "EDQM 311550Z 03003KT CAVOK 15/12 Q1019", "EDSB 311550Z 28007KT 250V310 CAVOK 16/12 Q1016", "EDTL 311550Z VRB02KT CAVOK 15/13 Q1016", "EDTY 311550Z 13004KT CAVOK 17/12 Q1017", "EDVE 311550Z 08005KT CAVOK 15/13 Q1018", "EDVK 311550Z 13002KT CAVOK 16/12 Q1017", "EDXW 311550Z 16008KT 5000 BR 12/11 Q1018", "EEEI 311550Z 19007KT 9999 OVC015 09/05 Q1018 BECMG OVC012", "EEKA 311550Z 20005KT 140V230 5000 -RA BROVC007 10/08 Q1017", "EEKE 311550Z 23005KT 190V290 9999 OVC010 10/09 Q1018", "EEPU 311550Z AUTO 21006KT 9999 OVC018/// 08/07 Q1019", "EETN 311550Z 20006KT 9999 BKN019 OVC049 07/05 Q1017 TEMPO 5000 RA", "EETU 311550Z AUTO 00000KT 9999 NCD 01/M01 Q1019", "EFET 311550Z AUTO 05003KT 9999 FEW005 M07/M07 Q1006", "EFHA 311550Z AUTO 17007KT 9999 -SHRA OVC005 //////CB 05/04 Q1013", "EFHK 311550Z 19008KT 9999 -RA FEW009 BKN039 08/07 Q1016 BECMG BKN009", "EFIV 311550Z AUTO 24005KT 9999 NSC M06/M07 Q1008", "EFJO 311550Z AUTO 18003KT CAVOK M01/M03 Q1015", "EFJY 311550Z AUTO 18004KT 9999 -RA BKN010 OVC023 03/02 Q1013", "EFKE 311550Z AUTO 14007KT 9999 OVC006 03/02 Q1009", "EFKI 311550Z 15005KT CAVOK M00/M03 Q1012", "EFKK 311550Z AUTO 16007KT 9999 OVC003 05/05 Q1010", "EFKS 311550Z AUTO VRB02KT 1600 0700 R30/P2000U BCFG FEW002 SCT004 M03/M03 Q1011", "EFKT 311550Z 19008KT 1000 R34/1000D FZFG VV002 M03/M03 Q1008", "EFKU 311550Z AUTO 16006KT CAVOK 02/M02 Q1014", "EFLP 311550Z AUTO 18003KT CAVOK 01/M04 Q1016", "EFMA 311550Z AUTO 22005KT CAVOK 10/09 Q1015", "EFMI 311550Z AUTO VRB02KT CAVOK 01/M02 Q1015", "EFOU 311550Z AUTO 15006KT CAVOK 00/M00 Q1010", "EFPO 311550Z AUTO 22006KT 190V250 3300 BR //////CB 09/09 Q1013", "EFRO 311550Z AUTO 13008KT 0600 R21/0800 FG VV002 00/00 Q1009", "EFSA 311550Z 15003KT CAVOK 00/M03 Q1016", "EFSI 311550Z AUTO 18008KT 5000 OVC002 06/06 Q1011", "EFTP 311550Z AUTO 19008KT 9999 OVC005 06/06 Q1013", "EFTU 311550Z AUTO 22008KT 5000 OVC003 09/09 Q1015", "EFUT 311550Z AUTO 18006KT CAVOK 02/M01 Q1016", "EFVA 311550Z AUTO 21009KT 9000 OVC003 08/08 Q1010", "EGAA 311550Z AUTO 16008KT 9999 -RA SCT035/// SCT042/// //////CB 12/10 Q1002 RERA", "EGAC 311550Z AUTO 20009KT 170V230 1700 +RA FEW010/// OVC043/// //////CB 12/11 Q1002", "EGAE 311550Z 22003KT 150V260 9999 -RA FEW008 SCT048 12/11 Q1001", "EGBB 311550Z 14009KT 9999 FEW025 14/11 Q1007", "EGBJ 311550Z 11005KT 070V140 9999 VCSH FEW018 SCT034 16/12 Q1005", "EGCC 311550Z AUTO 13004KT 070V200 9999 NCD 14/10 Q1007", "EGCK 311550Z VRB06KT 9999 FEW038 15/09 Q1003", "EGCN 311550Z 13007KT 9999 FEW024 14/11 Q1009", "EGDM 311550Z 10008KT 9999 BKN016 BKN040 13/13 Q1005 RMK WHT", "EGDR 311550Z 11012KT 9999 SHRA FEW006 SCT008 BKN040 14/13 Q0999 TEMPO 3000 SHRA SCT004 RMK GRN TEMPO YLO2", "EGDY 311550Z 09011KT 9999 FEW011 BKN045 14/13 Q1003 TEMPO 3000 +SHRA SCT007 BKN050CB RMK BLU TEMPO YLO1", "EGEC 311550Z 17011KT 9999 -RA FEW045 13/11 Q1002", "EGEO 311550Z 19005KT 160V220 9999 VCSH SCT016 BKN021 13/11 Q1002", "EGFF 311550Z AUTO 11014KT 9999 NCD 14/12 Q1003", "EGGD 311550Z 09011KT 8000 RA FEW024/// SCT042/// //////TCU 12/11 Q1004", "EGGP 311550Z 11007KT 090V150 9999 FEW030 14/12 Q1006", "EGGW 311550Z AUTO 11009KT 9999 FEW038 BKN045 14/12 Q1008", "EGHC 311550Z 14018KT 7000 -RA FEW007 BKN040 14/13 Q0999", "EGHE 311550Z 13021KT 8000 VCSH FEW008 SCT010 15/14 Q0997", "EGHH 311550Z 11008KT 9999 -RA BKN010 15/14 Q1004", "EGHI 311520Z 11006KT 070V150 4000 SHRA SCT012 BKN038 15/12 Q1006", "EGHQ 311550Z 14015KT 9000 -SHRA BKN010CB 15/13 Q1000", "EGJA 311550Z 17020KT 9999 -SHRA BKN010 15/14 Q1003 RESHRA", "EGJB 311550Z 15013G24KT 9999 -SHRA FEW006 SCT009 15/14 Q1003", "EGJJ 311550Z 16018KT 9999 -SHRA FEW006 BKN009 15/14 Q1004", "EGKA 311550Z 09012KT 9999 FEW033 16/14 Q1006", "EGKB 311550Z 11008KT 9999 FEW035 14/11 Q1008", "EGKK 311550Z 10007KT 9999 -SHRA FEW020 15/13 Q1007", "EGLC 311550Z AUTO 09009KT 9999 FEW038 16/11 Q1008", "EGLF 311550Z 09009KT 9999 VCSH BKN040 15/11 Q1006", "EGLL 311550Z AUTO 10008KT 9999 BKN041 15/11 Q1007 TEMPO SHRA", "EGMC 311550Z 10008KT 9999 -RA FEW018 BKN042 15/13 Q1008", "EGMD 311550Z 08012KT CAVOK 16/15 Q1008", "EGNH 311550Z 16009KT 9999 FEW015 14/11 Q1006", "EGNJ 311550Z 14008KT 9999 FEW020 15/13 Q1009", "EGNM 311550Z 12006KT 070V160 9999 SCT019 SCT024 12/10 Q1008", "EGNO 311550Z 13006KT 090V160 9999 FEW022 14/11 Q1006", "EGNR 311550Z 15011KT 9999 FEW017 14/11 Q1006", "EGNS 311550Z 17011KT 9999 FEW020 14/11 Q1003 NOSIG", "EGNT 311550Z 21004KT 160V270 9999 FEW017 14/11 Q1007", "EGNV 311550Z 16007KT 9999 FEW040 13/10 Q1008", "EGNX 311550Z 12008KT 9999 FEW025 14/10 Q1007", "EGOM 311520Z AUTO 17010KT 9999 SCT036/// 12/09 Q1006", "EGOP 311520Z AUTO 12013KT 9999 NCD 15/10 Q1003", "EGOS 311520Z 12008KT 9999 SCT025 BKN150 15/11 Q1006 NOSIG RMK BLU BLU", "EGOV 311550Z 12008KT 9999 FEW028 BKN140 14/10 Q1003 NOSIG RMK BLU BLU", "EGOW 311550Z 14011KT 9999 FEW020 14/11 Q1006 RMK BLU", "EGPA 311550Z 16013KT 9999 VCSH SCT045 13/11 Q1001", "EGPB 311550Z 19016KT 9999 FEW010 12/11 Q1003", "EGPC 311550Z 15013KT 9999 FEW040 13/10 Q1001", "EGPD 311550Z AUTO 17016KT 9999 FEW010 SCT038 12/11 Q1004", "EGPE 311550Z 20011KT 9999 VCSH FEW020 BKN045 15/09 Q1001", "EGPF 311550Z AUTO 17012KT 9999 SCT029/// BKN045/// //////CB 15/11 Q1003", "EGPH 311550Z 19010KT 9999 FEW029 15/10 Q1004", "EGPI 311550Z 18006KT 9999 FEW014 11/10 Q1001", "EGPK 311550Z 17010KT 9999 -RA FEW028 BKN035 14/11 Q1003", "EGPL 311550Z 23009KT 9999 VCSH FEW018 SCT040 11/09 Q0999", "EGPN 311550Z 23010KT 9999 FEW030 14/10 Q1004", "EGPO 311550Z 20011KT 9999 -RA FEW008 SCT022 BKN041 12/10 Q0999", "EGPU 311520Z AUTO 20012KT 9999 -RA NCD 11/10 Q1000", "EGQA 311450Z 15016KT 9999 FEW030 OVC180 16/// Q1000 RMK BLU", "EGQK 311520Z AUTO 19007KT 9999 SCT120/// 16/09 Q1001", "EGQL 311550Z 20016KT CAVOK 14/10 Q1003 RMK BLU", "EGQM 311550Z AUTO 15015KT 9999 BKN150/// 13/11 Q1006", "EGQS 311550Z 15009KT 9999 FEW035 SCT050 BKN160 14/10 Q1001 NOSIG RMK BLU", "EGSC 311550Z 13005KT 9999 FEW022 15/12 Q1008", "EGSH 311550Z 12008KT 9999 SCT045 15/13 Q1010", "EGSS 311550Z AUTO 11009KT 9999 BKN040 14/12 Q1009", "EGSY 311550Z 11012KT 9999 FEW018 SCT022 15/12 Q1003", "EGTC 311550Z 11008KT 9999 SCT043 15/11 Q1007", "EGTE 311550Z 10013KT 9999 -RA BKN010 15/13 Q1002", "EGTK 311550Z 08005KT 9999 VCSH BKN041 OVC048 14/12 Q1006", "EGUB 311550Z 11008KT 9999 BKN039 15/11 Q1006 TEMPO 5000 RA SCT015 RMK BLU TEMPO WHT", "EGUL 311555Z AUTO 08005KT 9999 SCT085 15/13 A2978 RMK AO2 SLP088 T01520125 $", "EGUN 311555Z 11010G15KT 9999 SCT090 OVC200 15/13 A2978 RMK AO2A SLP088 T01490134 $", "EGUW 311550Z 11008KT 9999 FEW010 BKN120 14/12 Q1009 TEMPO SCT007 RMK BLU TEMPO GRN", "EGVA 311554Z 06006KT 9999 FEW033 BKN048 14/13 A2968 RMK AO2A SLPNO T01440131 $", "EGVN 311550Z 09006KT 9999 FEW042 BKN044 15/11 Q1006 TEMPO 6000 -RA SCT020 RMK BLU TEMPO WHT", "EGVO 311550Z 10009KT 9999 FEW020 BKN040 BKN110 15/11 Q1006 TEMPO 5000 -SHRA SCT012 RMK BLU TEMPO GRN", "EGVP 311550Z 10008KT 9999 -RA SCT017 BKN030 14/12 Q1005 TEMPO 7000 RA RMK WHT TEMPO WHT", "EGWC 311450Z 15009KT 9999 FEW010 SCT015 15/10 Q1008 RMK WHT", "EGWU 311550Z 11009KT 9999 BKN039 BKN120 16/11 Q1007 BECMG BKN015 RMK BLU BECMG WHT", "EGXC 311550Z 15006KT 9999 FEW025 SCT090 BKN250 15/12 Q1009 TEMPO 7000 -SHRA RMK BLU TEMPO WHT", "EGXE 311550Z 14008KT 9999 FEW023 SCT045 BKN250 14/11 Q1008 NOSIG RMK BLU BLU", "EGXP 311450Z AUTO 14007KT //// // ///////// 15/12 Q1009", "EGXS 311450Z AUTO 12009KT 9999 NCD 14/12 Q1010 RERA", "EGXT 311550Z 12006KT CAVOK 15/11 Q1008 RMK BLU", "EGXV 311520Z AUTO 15006KT 9999 NCD 14/11 Q1009", "EGXW 311521Z 15009KT 9999 FEW022 BKN250 15/12 Q1009 NOSIG RMK BLU BLU", "EGXZ 311520Z AUTO 14010KT 9999 SCT029/// 14/11 Q1008", "EGYD 311550Z 15009KT 9999 FEW026 BKN090 14/11 Q1008 NOSIG RMK BLU BLU", "EGYE 311550Z 12009KT 9999 FEW026 BKN250 ///// Q1007 RMK BLU", "EGYH 311520Z 16007KT CAVOK 15/11 Q1009 RMK BLU", "EGYM 311550Z 12009KT 9999 VCSH BKN045 SCT100 15/11 Q1009 TEMPO SCT016 RMK BLU TEMPO WHT", "EGYP 311520Z 27021KT 9999 SCT035 11/02 Q1012 NOSIG", "EHAK 311525Z AUTO 17018KT 9999 FEW007/// 14/13 Q1014", "EHAM 311555Z 08009KT CAVOK 15/13 Q1013 NOSIG", "EHBK 311555Z AUTO 11006KT 9999 NCD 16/13 Q1013 NOSIG", "EHDL 311555Z AUTO 09004KT 010V170 9999 OVC100 16/13 Q1013 BLU", "EHDV 311525Z AUTO 17018KT 140V210 9999 FEW009/// 15/13 Q1013", "EHEH 311555Z AUTO VRB04KT 9999 NCD 16/13 Q1012 BLU NOSIG", "EHFD 311525Z AUTO 16013KT 9999 FEW006/// SCT008/// 14/13 Q1015", "EHFS 311525Z AUTO 08010KT 8000 NSC 16/14 Q1011", "EHGG 311555Z AUTO 08006KT 9999 NSC 14/12 Q1015 NOSIG", "EHGR 311555Z AUTO 11007KT 060V130 9999 NCD 16/13 Q1012 BLU", "EHHW 311525Z AUTO 14009KT 9999 NCD 14/12 Q1016", "EHJA 311525Z AUTO 15014KT 9999 FEW009/// SCT011/// 15/13 Q1013", "EHJR 311525Z AUTO 15016KT //// // ///////// 15/13 Q1013 RE// W16/H10", "EHKD 311555Z AUTO 10008KT 080V140 9999 SCT088 BKN099 OVC110 15/12 Q1013 BLU NOSIG", "EHKV 311525Z AUTO /////KT //// // NSC 15/13 Q1013", "EHLE 311555Z AUTO 08006KT 050V110 9999 NSC 15/13 Q1013 NOSIG", "EHLW 311555Z AUTO 10008KT 010V170 9999 SCT095 OVC100 15/11 Q1014 BLU", "EHMA 311525Z AUTO 11014KT 9999 NSC 15/12 Q1015", "EHMG 311525Z AUTO 14013KT 9999 NCD 15/12 Q1015", "EHPG 311525Z AUTO 10014KT 9000 NSC 16/14 Q1012", "EHQE 311525Z AUTO /////KT 9999 NSC 16/13 Q1013", "EHRD 311555Z AUTO 09008KT 6000 NSC 15/15 Q1012 NOSIG", "EHSA 311525Z AUTO 08015KT 9000 ///////// 16/14 Q1011 W16/H6", "EHSC 311525Z AUTO 09015KT 7000 ///////// 16/14 Q1012 W16/H5", "EHVK 311555Z AUTO 08005KT 9999 FEW120 15/13 Q1013 BLU", "EHVL 311555Z AUTO 11012KT 9999 OVC110 14/12 Q1014 BLU", "EHWO 311555Z AUTO 08005KT 8000 BR OVC130 16/14 Q1011 BLU", "EICK 311530Z 18005KT 150V270 5000 RA BKN005 SCT014 BKN025 11/10 Q0999 TEMPO 3000", "EIDL 311530Z 19006KT 160V220 9999 -RA FEW035 11/09 Q1000", "EIDW 311530Z 18014G26KT 150V220 9999 -RA FEW009 SCT020 BKN050 13/10 Q1002 NOSIG", "EIKN 311530Z 15002KT 9999 BKN003 SCT036 OVC070 10/10 Q1000 NOSIG", "EIKY 311530Z VRB01KT 9999 -RA FEW014 OVC025 10/09 Q1000", "EIME 311500Z 18009KT 9999 -RA FEW018 SCT045 BKN060 15/10 Q1002", "EINN 311530Z 33003KT 8000 -RA FEW005 OVC050 10/09 Q1000 NOSIG", "EISG 311500Z VRB03KT 9999 FEW013 SCT039 11/10 Q1000", "EIWF 311530Z 16012KT 110V200 4000 +RA SCT006 BKN012 12/12 Q1000", "EKAH 311550Z AUTO 14001KT 9999 NCD 13/12 Q1019", "EKBI 311550Z AUTO 17002KT 9999 FEW027/// 13/12 Q1018", "EKCH 311550Z AUTO 26004KT 9999 BKN021/// 12/10 Q1020 NOSIG", "EKEB 311550Z AUTO 17006KT 9999 BKN013/// 13/12 Q1018", "EKKA 311550Z AUTO 18004KT 9999 SCT021/// 13/11 Q1018 NOSIG", "EKOD 311550Z 16004KT 9999 FEW020 SCT140 13/12 Q1019", "EKRK 311550Z AUTO 00000KT 9999 BR FEW018/// 12/10 Q1020", "EKRN 311550Z AUTO 29001KT 5000 OVC004/// 13/12 Q1020", "EKRS 311550Z AUTO 23002KT 9999 SCT010/// 12/12 Q1019", "EKSB 311550Z 17002KT 9999 SCT020 BKN220 14/11 Q1018", "EKSP 311550Z 18001KT 9999 BKN019 13/10 Q1019 TEMPO BKN008", "EKVD 311550Z 19003KT 9999 FEW020 14/12 Q////", "EKVG 311550Z AUTO 18017KT 9999 OVC008/// 10/09 Q0993 RMK BKN010/// BKN022/// WIND SKEID VRB16G34KT", "EKYT 311550Z AUTO 14003KT 9999 SCT200/// 12/11 Q1018 NOSIG", "ELLX 311550Z 13006KT 110V170 CAVOK 16/10 Q1015 NOSIG", "ENAL 311550Z 19008KT 9999 FEW051 13/08 Q1010", "ENAN 311550Z 18008KT 9999 -DZ SCT010 BKN019 05/04 Q1006", "ENAT 311550Z 21005KT CAVOK 01/M03 Q1007 RMK WIND 700FT 18009KT", "ENBL 311550Z 18005KT 9999 VCSH FEW008 SCT018 BKN025 10/08 Q1012", "ENBN 311550Z 07007KT 9999 VCSH FEW005 SCT015 BKN025 08/08 Q1009", "ENBO 311550Z 11012KT 8000 -DZ FEW004 BKN012 05/04 Q1008 TEMPO 4000 RADZ BKN006", "ENBR 311550Z 17014KT 9999 SCT019 BKN023 12/09 Q1013 NOSIG RMK WIND 1200FT 15019KT", "ENBS 311550Z 19010KT 9999 -RA FEW022 BKN031 OVC043 02/01 Q1006", "ENBV 311550Z 24010KT CAVOK 04/01 Q1007", "ENCN 311550Z 19004KT 9999 FEW019 BKN024 12/10 Q1017", "ENDR 311550Z AUTO 23027KT 9999NDV FEW014/// BKN065/// 10/10 Q1008 W///S4", "ENDU 311550Z 11002KT 7000 -RA FEW020 SCT030 BKN040 00/M00 Q1007 TEMPO RA RMK WIND 1100FT 19008KT WIND 2200FT 21007KT", "ENEV 311550Z 18003KT 9999 DZ SCT024 BKN031 04/03 Q1007 RMK WIND 1400FT 22012KT", "ENFB 311550Z AUTO 17037KT 9000NDV BKN009/// 12/10 Q1006 W///S4", "ENFL 311550Z 16017KT 9999 VCSH FEW013 SCT023 BKN028 13/09 Q1011", "ENGC 311550Z 18032KT 7000 FEW008 11/10 Q1006 W10/S4", "ENGM 311550Z 10003KT 040V150 9999 FEW011 SCT016 10/09 Q1015 NOSIG", "ENHD 311550Z 16013KT 9999 BKN011 BKN016 12/09 Q1013", "ENHE 311550Z 23023KT 0300 FG VV002 10/10 Q1007 W///S4", "ENHF 311550Z 00000KT CAVOK 03/01 Q1005 RMK WIND 1254FT 21005KT", "ENHK 311550Z 12006KT CAVOK 06/02 Q1006", "ENHM 311550Z AUTO 16022KT 7000NDV FEW008/// BKN010/// 11/11 Q1008 W12/S/", "ENJS 311550Z 17028KT 7000 SCT006 11/11 Q1010 W11/S/", "ENKB 311550Z 06004KT 010V100 9999 BKN059 10/07 Q1010 RMK WIND 745FT 14004KT", "ENKR 311550Z 16003KT 130V190 9999 BKN046 00/M01 Q1008 RMK WIND 731FT 24008KT", "ENLA 311550Z AUTO 16026KT 9999NDV NCD 13/12 Q1010 W///S4", "ENLE 311550Z 16024KT 9999 BKN005 13/12 Q1012 W13/S4", "ENLK 311550Z 18012KT 2000 +RA FEW003 SCT004 BKN007 07/07 Q1006", "ENMH 311550Z AUTO 20007KT 160V220 9999 SCT053 03/02 Q1006", "ENML 311550Z 06004KT 030V100 9999 FEW040 SCT065 09/08 Q1010", "ENMS 311550Z 00000KT 9999 -RADZ FEW005 BKN022 03/02 Q1010 RMK WIND 412FT VRB01KT", "ENNA 311550Z 18009KT CAVOK M01/M04 Q1007 RMK WIND 1800FT 15003KT", "ENNE 311550Z 20020KT 0250 FG VV002 10/10 Q1005 W///S4", "ENNM 311520Z 05013KT 9999 FEW016 SCT023 BKN033 05/04 Q1011", "ENNO 311550Z VRB02KT 9999 SCT057 08/07 Q1015", "ENOA 311550Z 17032KT 5000 BKN004 11/10 Q1008 W///S4", "ENOL 311550Z 10005KT 9999 VCSH FEW010 BKN040 08/07 Q1011 NOSIG", "ENOV 311550Z VRB05KT 9999 FEW035 BKN049 13/07 Q1011 RMK WIND RWY24 VRB06KT WIND 2090FT 15020KT", "ENQA 311550Z AUTO 17033KT 9999NDV FEW008/// SCT044/// 11/10 Q1010 W16/S4", "ENQC 311550Z AUTO 16031KT 9999NDV BKN008/// 11/10 Q1009 W///S4", "ENQR 311550Z AUTO 16030KT 6000NDV SCT008/// 11/10 Q1006 W10/S4", "ENRA 311550Z 00000KT 9999 -DZ FEW004 SCT011 BKN014 02/02 Q1010", "ENRM 311550Z AUTO 13005KT 4300 SCT008 BKN012 OVC016 08/08 Q1010 RERA", "ENRO 311550Z AUTO 23006KT 9999 NCD 05/03 Q1012", "ENRS 311550Z AUTO 22012KT 4000 BR FEW006 SCT009 BKN014 09/10 Q1006", "ENRY 311550Z 20007KT CAVOK 11/10 Q1016", "ENSB 311550Z 11010KT 9999 SCT040 BKN070 M03/M06 Q1002 RMK WIND 1400FT 12009KT", "ENSD 311550Z 05004KT 020V080 9999 FEW020 SCT034 BKN044 11/09 Q1011 RMK WIND RWY26 00000KT WIND 1140FT VRB03KT", "ENSE 311550Z AUTO 18034KT 8000NDV SCT008/// BKN220/// 12/11 Q1006 W///S4", "ENSF 311550Z AUTO /////KT 8000NDV BKN009/// ///// Q//// W///S4", "ENSG 311550Z VRB02KT 9999 VCSH FEW/// BKN035 08/07 Q1013 RMK WIND 3806FT 19013KT", "ENSK 311550Z 14013KT 9999 RA FEW010 SCT019 BKN024 06/05 Q1006", "ENSL 311550Z AUTO 19029KT 8000NDV OVC006/// 12/11 Q1009 W10/S4", "ENSO 311550Z 17013KT 9999 FEW013 BKN017 12/11 Q1014", "ENSR 311550Z AUTO 16012KT 9999 OVC092/// 03/M02 Q1006 RMK WIND RWY32 15011KT WIND 1118FT 14010KT", "ENSS 311550Z AUTO 23008KT 9999 FEW028 SCT048 01/M01 Q1008 RMK WIND 0500FT /////KT", "ENST 311550Z VRB03KT 9000 -RADZ SCT005 BKN008 07/06 Q1009 RMK WIND 300FT VRB05KT", "ENTC 311550Z 19009KT 9999 -SHRA SCT025 BKN040 04/02 Q1007 TEMPO RA RMK WIND 2600FT 24008KT", "ENTO 311550Z 19009KT CAVOK 11/10 Q1016 NOSIG", "ENUG 311550Z AUTO 26009KT 2500NDV -DZ BR OVC007/// 07/05 Q1004 W///S4", "ENUN 311550Z AUTO 21017KT 5000NDV OVC004/// 10/09 Q1004 W09/S4", "ENVA 311550Z 09004KT 080V140 9999 VCSH FEW010 BKN061 07/06 Q1011 NOSIG RMK WIND 670FT 15008KT", "ENVD 311550Z 23004KT 160V290 9999 FEW015 BKN051 03/03 Q1007", "ENWV 311550Z AUTO 17025KT 9999NDV SCT007/// 13/13 Q1013 W///S3", "ENZV 311550Z 16011KT 9999 FEW014 BKN022 12/10 Q1014", "EPBY 311530Z 22003KT 190V270 0200 R26/0500N FG VV001 11/11 Q1020", "EPGD 311530Z 32006KT 4500 BR OVC002 12/11 Q1019", "EPKK 311530Z VRB01KT CAVOK 17/12 Q1020", "EPKT 311530Z 29002KT CAVOK 15/11 Q1021", "EPLB 311530Z 07004KT 9000 NSC 10/10 Q1022", "EPLL 311530Z 05003KT 4000 MIFG BR NSC 14/13 Q1020", "EPMO 311530Z 16003KT 2200 MIFG BR BKN006 13/13 Q1020", "EPPO 311530Z 28002KT CAVOK 15/14 Q1020", "EPRA 311500Z 14005KT 0200 FG OVC002 12/12 Q1021", "EPRZ 311530Z VRB01KT CAVOK 15/12 Q1021", "EPSC 311530Z 32004KT 280V350 1200 R31/1700U BR OVC001 12/12 Q1020", "EPSY 311530Z 15004KT 120V180 3800 BR OVC003 09/09 Q1021", "EPWA 311530Z 20003KT 170V230 4000 BR BKN003 12/12 Q1021 TEMPO 2000 BR", "EPWR 311530Z 31001KT CAVOK 15/12 Q1020", "EPZG 311530Z 00000KT 9999 MIFG NSC 15/15 Q1020", "ESCF 311550Z AUTO 24006KT 9999 FEW028/// 13/10 Q1018", "ESCM 311550Z AUTO 22006KT 9999 NCD 10/10 Q1015", "ESDF 311550Z 01001KT 9999 OVC015 13/13 Q1019", "ESGG 311550Z 24005KT 9999 FEW003 SCT006 BKN009 11/10 Q1019", "ESGJ 311550Z 23004KT 9999 FEW022 10/09 Q1018", "ESGP 311550Z AUTO 18005KT 2400 BR BKN002/// OVC003/// 12/10 Q1018", "ESGT 311550Z 22007KT 9999 SCT029 12/10 Q1018", "ESIA 311550Z AUTO 21004KT 9999 OVC035/// 11/10 Q1018", "ESIB 311550Z 22007KT 9999 FEW017 SCT035 12/10 Q1017", "ESKM 311550Z AUTO VRB02KT 9999 OVC025/// 10/09 Q1014", "ESKN 311550Z 23005KT CAVOK 09/08 Q1017", "ESKS 311550Z AUTO 29003KT 260V320 9999 BKN007/// OVC009/// 07/07 Q1014", "ESMK 311550Z 27002KT 9999 BKN026 13/12 Q1019", "ESMQ 311550Z 24003KT 9999 SCT014 13/11 Q1019", "ESMS 311550Z 26003KT 3000 BR BKN020 13/13 Q1020", "ESMT 311550Z 19003KT 0250 R01/1100N R19/1000N FG VV002 11/11 Q1020", "ESMX 311550Z 22006KT 9000 SCT004 11/11 Q1019", "ESND 311550Z 24006KT 210V280 CAVOK 08/05 Q1012", "ESNG 311550Z AUTO 20003KT 9999 BKN072/// M05/// Q1006", "ESNK 311550Z 32003KT 9999 FEW035 02/02 Q1011", "ESNL 311550Z 00000KT 9999 OVC008 00/M00 Q1008", "ESNN 311550Z AUTO 34003KT 0400 R16/P2000N R34/1900D BR NCD 01/01 Q1011", "ESNO 311550Z AUTO 24006KT 9999 NCD 03/03 Q1009", "ESNQ 311550Z AUTO VRB03KT 9999 FEW053/// SCT086/// M04/M04 Q1005", "ESNS 311550Z 24006KT 2000 OVC003 05/05 Q1008", "ESNU 311550Z AUTO 23004KT 190V250 9999 OVC010/// 05/05 Q1009", "ESNV 311550Z AUTO 18003KT 2100 FEW003/// SCT084/// OVC110/// ///// Q1009", "ESNX 311550Z VRB01KT 9999 BKN048 OVC072 M00/M00 Q1006", "ESNZ 311550Z VRB02KT 9999 BCFG NSC 03/03 Q1011", "ESOE 311550Z 23009KT 200V260 CAVOK 13/10 Q1016", "ESOH 311550Z AUTO VRB03KT 9999 SCT025/// 10/09 Q1015", "ESOK 311550Z AUTO 23005KT 9999 NCD ///// Q1016", "ESOW 311550Z 21008KT 9999 BKN034 13/10 Q1016", "ESPA 311550Z 16007KT 9999 -RA BKN004 06/05 Q1007 RERA", "ESPE 311550Z AUTO 32002KT 9999 SCT025/// BKN072/// OVC086/// M01/M01 Q1008 REFZRA", "ESSA 311550Z 22008KT CAVOK 10/09 Q1015 NOSIG", "ESSB 311550Z 23005KT 9999 FEW035 11/10 Q1016", "ESSD 311550Z 24007KT 9999 FEW025 11/08 Q1014", "ESSL 311550Z 22004KT 9999 FEW026 12/09 Q1018", "ESSP 311550Z AUTO 20002KT 9999 NCD 10/09 Q1017", "ESST 311550Z AUTO 00000KT 9999 FEW018/// SCT025/// 07/06 Q1015", "ESSV 311550Z 22005KT 9999 BKN011 11/11 Q1018", "ESTA 311550Z 00000KT 0700 R14/P1500N R32/P1500N FG VV002 11/11 Q1020", "ESTL 311550Z AUTO 00000KT 9999 FEW018/// 12/12 Q1020", "ESUP 311550Z AUTO 06002KT 9999 SCT110/// M04/M04 Q1007", "ESUT 311550Z AUTO 28003KT 4000 -DZ FEW008/// BKN018/// OVC023/// 00/00 Q1008 REDZ REUP", "ETAD 311555Z AUTO 11006KT 9999 CLR 15/10 A2997 RMK AO2 SLP139 T01480102 $", "ETAR 311455Z AUTO 08004KT 9999 CLR 18/13 A3000 RMK AO2 SLP162 T01750130 57025", "ETEB 311455Z AUTO 09004KT 9999 CLR 17/12 A3005 RMK AO2 SLP185 T01660121 57020 $", "ETGG 311520Z AUTO 17005KT 9999 // ////// 14/11 Q1018 ///", "ETHA 311520Z AUTO 03002KT 9999 // ////// 17/09 Q1018 ///", "ETHB 311520Z AUTO 08005KT 9999 // ////// 16/13 Q1017 ///", "ETHC 311520Z AUTO 08005KT 9999 // ////// 14/12 Q1018 ///", "ETHF 311520Z 10003KT 9999 FEW040 BKN130 17/12 Q1017 BLU BLU", "ETHL 311520Z 05001KT 9999 FEW160 16/12 Q1018 BLU+", "ETHN 311520Z 08003KT 9999 BKN150 16/14 Q1017 BLU", "ETHS 311520Z AUTO 11007KT 6000 // ////// 14/12 Q1018 ///", "ETIC 311550Z AUTO 00000KT 1800 HZ CLR 16/14 A3004 RMK AO2 VIS 1600V3000 SLP178 $", "ETIH 311455Z AUTO 00000KT 9999 CLR 16/12 A3008 RMK AO2 SLP189 T01600120 57017", "ETIK 311455Z 04003KT 8000 BR BKN150 15/15 A3005 RMK AO2A SLP179 T01520150 57020", "ETMN 311520Z 11005KT 6000 SCT006 BKN130 12/12 Q1018 WHT", "ETNG 311550Z 11008KT CAVOK 17/12 Q1013 NOSIG", "ETNH 311520Z AUTO VRB03KT 8000 // ////// 13/11 Q1018 ///", "ETNL 311520Z 35001KT 0700 R27/1400D FG OVC001 13/13 Q1020 RED", "ETNN 311520Z 11005KT 9999 SCT120 BKN210 17/11 Q1014 BLU+", "ETNS 311520Z AUTO 04003KT 9999 // ////// 12/12 Q1018 ///", "ETNT 311520Z AUTO 11004KT //// // ////// 14/13 Q1017 ///", "ETNW 311520Z 10009KT 9999 FEW130 BKN150 BKN210 15/14 Q1017 BLU", "ETOU 311456Z 12002KT 9999 BKN160 18/13 A3004 RMK AO2A SLPNO RVRNO", "ETSB 311520Z AUTO 12005KT //// // ////// 15/10 Q1016 ///", "ETSH 311520Z 02002KT 9999 OVC190 15/14 Q1019 BLU", "ETSI 311520Z AUTO VRB02KT 0100 // ////// 12/12 Q1018 ///", "ETSL 311520Z AUTO 36002KT 9999 // ////// 17/13 Q1018 ///", "ETSN 311520Z 11002KT 0150 R27/0350N FG VV000 12/12 Q1018 RED", "ETWM 311520Z AUTO 07004KT //// // ////// 15/12 Q1015 ///", "EVGA 311550Z 19003KT CAVOK 04/03 Q1020 NOSIG", "EVLA 311550Z AUTO 18003KT 9999 FEW015/// BKN039/// 10/08 Q1020", "EVRA 311550Z 20002KT CAVOK 05/04 Q1020 NOSIG", "EVVA 311550Z AUTO 22005KT 9999 OVC015 11/10 Q1019", "EYKA 311550Z 00000KT CAVOK 04/01 Q1021", "EYPA 311550Z 20003KT 9999 BKN037 09/09 Q1020", "EYSA 311550Z 20004KT CAVOK 05/02 Q1021 NOSIG", "EYVI 311550Z 24002KT CAVOK 05/M00 Q1021 NOSIG", "FABL 311500Z 24010KT 9999 FEW040 26/03 Q1018 NOSIG", "FACT 311500Z 16024KT CAVOK 22/09 Q1018 NOSIG", "FAEL 311500Z 20008KT 160V240 3600 RA BKN027 14/13 Q1025", "FAGG 311500Z 12012KT 9999 FEW035 16/09 Q1024", "FAHS 311500Z AUTO 17012G22KT //// // ////// 22/17 Q1019", "FAIR 311445Z 20008KT 9999 TSRA BKN025 SCT045CB 19/11 Q1021", "FAJB 311500Z AUTO 25001KT //// // ////// 16/13 Q1020", "FAKM 311500Z 20004KT CAVOK 28/04 Q1016", "FAKN 311500Z AUTO 15004KT //// // ////// 17/15 Q1022", "FALA 311500Z VRB04KT 9999 VCTS FEW030 FEW040CB 17/14 Q1020 NOSIG", "FALE 311500Z 13006KT 090V180 3000 RA BKN004 OVC014 16/14 Q1024 TEMPO 5000 -RA", "FALW 311500Z AUTO 19017KT //// // ////// 25/06 Q1015", "FAMM 311500Z 18009KT 9999 FEW030 BKN080 29/M00 Q1018 NOSIG", "FAOR 311530Z 35004KT 310V070 9999 FEW040TCU 19/08 Q1021 NOSIG", "FAPE 311500Z 15012KT 120V180 9999 FEW018 16/11 Q1025 NOSIG", "FAPP 311500Z 07007KT 7000 -RA FEW025 BKN120 19/17 Q1022 NOSIG", "FASI 311500Z AUTO 04008G21KT //// // ////// 17/12 Q1024", "FAUP 311500Z 20009KT 9999 SCT050 FEW100 30/M00 Q1014 NOSIG", "FAUT 311500Z 17006KT 5000 BR BKN010 12/10 Q1024", "FAWB 311500Z AUTO 15011KT //// // ////// 18/15 Q1018", "FAWK 311500Z AUTO 17008KT //// // ////// 19/12 Q1022", "FBMN 311500Z 03004KT CAVOK 31/14 Q1013", "FBPM 311500Z 20006KT 170V230 9999 FEW030CB BKN070 29/14 Q1015", "FBSK 311500Z 26006KT 230V310 9999 FEW030 FEW035CB SCT070 32/11 Q1014 NOSIG", "FGBT 311500Z 00000KT 9999 BKN010 FEW020CB 28/26 Q1008", "FGSL 311500Z 24009KT 9999 SCT010 FEW020CB 29/26 Q1009 NOSIG", "FIMP 311500Z 01007KT 9999 VCSH SCT015 23/19 Q1020", "FJDG 311555Z VRB03KT 9999 FEW020 28/22 A2990 RMK SLP122 T02750221", "FMCZ 311530Z AUTO 02006KT CAVOK 26/21 Q1015 NOSIG", "FMEE 311530Z AUTO 12014KT 9999 OVC074/// 23/18 Q1019 TEMPO 2500 SHRA SCT025TCU", "FMEP 311530Z AUTO 14006KT 9999 FEW041/// SCT078/// ///TCU 24/19 Q1020", "FMMI 311530Z 08008KT 9999 SCT020CB 19/13 Q1021 NOSIG", "FMMS 311500Z 11004KT 9999 FEW020 25/21 Q1017", "FMMT 311500Z 09004KT 060V140 9999 SCT017 25/20 Q1017 NOSIG", "FMNA 311500Z 14012KT 9999 FEW020 25/17 Q1014", "FMNM 311500Z 34009KT 9999 FEW020 27/21 Q1013 NOSIG", "FMNN 311500Z 23004KT 9999 FEW020 SCT100 27/// Q1014", "FMSD 311500Z 08025G35KT 9999 FEW016CB 27/21 Q1012", "FNCA 311500Z 25007KT 9999 FEW015 FEW016CB 30/23 Q1008", "FNCT 311500Z 27010KT 9999 FEW015 SCT100 26/22 Q1008", "FNGI 311500Z 34008KT 9999 SCT020 29/13 Q1013", "FNHU 311500Z VRB03KT 9999 SCT020 FEW026CB BKN070 18/16 Q1019", "FNKU 311500Z 00000KT 9999 BKN040 25/14 Q1016", "FNMO 311500Z 22012KT 9999 FEW///CB 25/21 Q1008", "FNSO 311500Z 26010KT 9999 SCT010 FEW013CB 30/24 Q////", "FNUB 311500Z 08008KT 9999 SCT025 26/12 Q1021", "FNUE 311500Z 00000KT 9999 SCT031 SCT060 25/22 Q1017", "FOGM 311500Z 24004KT 9999 TS BKN015TCU FEW020CB 34/23 Q////", "FOGO 311500Z /////KT 9999 FEW015 BKN050 29/23 Q////", "FOGR 311500Z /////KT 9999 SCT013TCU 34/24 Q////", "FOOG 311530Z 20010KT 9999 SCT010 FEW020CB BKN040 29/25 Q1008", "FOOK 311500Z /////KT 9000 SCT012TCU BKN020 FEW020CB 29/24 Q////", "FOOL 311500Z 25006KT 220V290 9999 TS SCT012 FEW020CB SCT033 28/25 Q1008 NOSIG", "FOON 311500Z VRB02KT 9999 BKN020 FEW023CB 34/22 Q1010", "FOOR 311500Z /////KT 9999 SCT008 32/24 Q////", "FSIA 311500Z 14011KT 9999 FEW022 26/23 Q1013 NOSIG", "FTTA 311500Z 05006KT 9999 FEW040 35/20 Q1009", "FTTD 311500Z 02006KT CAVOK 36/// Q1010", "FWCL 311500Z 09010KT 9999 FEW030 33/11 Q1013 NOSIG", "FWKI 311500Z 07013KT CAVOK 29/10 Q1016 NOSIG", "FYGF 311500Z 06002KT 9999 FEW040TCU 34/02 Q1016", "FYKM 311500Z 21003KT 9999 SCT030CB 34/12 Q1010", "FYLZ 311500Z AUTO 21019KT //// // ////// 21/13 Q1011", "FYWB 311500Z 28008KT CAVOK 23/12 Q1012", "FYWE 311500Z 28008KT CAVOK 31/M07 Q1019", "FYWH 311500Z 07004KT CAVOK 31/M02 Q1019 NOSIG", "FYWW 311500Z 29003KT CAVOK 31/M04 Q1018", "GABS 311530Z 08009KT 040V120 CAVOK 35/09 Q1011 NOSIG", "GAKD 311500Z 10010KT 8000 NSC 37/09 Q1010", "GAMB 311500Z 10008KT CAVOK 36/08 Q1011", "GBYD 311500Z VRB02KT 9999 SCT013 35/25 Q1009", "GCFV 311530Z 04008KT CAVOK 25/21 Q1018", "GCGM 311530Z 23010KT 200V260 CAVOK 24/19 Q1019 RMK R09/24006KT 170V300 ARP/24008KT 160V280", "GCHI 311530Z 05010KT 9999 FEW025 24/20 Q1019", "GCLA 311530Z 07004KT 030V110 CAVOK 25/19 Q1019", "GCLP 311530Z 03015KT 9999 FEW020 25/20 Q1018 NOSIG", "GCRR 311530Z 07015KT CAVOK 25/21 Q1018", "GCTS 311530Z 10014KT 9999 FEW020 25/19 Q1019 NOSIG", "GCXO 311530Z 12005KT 090V170 CAVOK 23/17 Q1021 NOSIG", "GECE 311530Z AUTO 24003KT CAVOK 20/18 Q1019", "GEML 311530Z 05005KT 010V080 CAVOK 23/18 Q1019", "GGOV 311500Z 08004KT 040V120 8000 SCT010 35/22 Q1009 NOSIG", "GMAD 311530Z 27015KT CAVOK 33/M05 Q1017 NOSIG", "GMAG 311500Z 19004KT 150V270 CAVOK 34/M09 Q1018 NOSIG", "GMAT 311500Z 34010KT CAVOK 31/06 Q1017 NOSIG", "GMAZ 311500Z AUTO VRB04KT CAVOK 28/M06 Q1023", "GMFB 311500Z 25006KT 210V290 CAVOK 26/M06 Q1024 NOSIG", "GMFF 311530Z 34008KT 9999 FEW033 BKN200 29/M03 Q1020 NOSIG", "GMFK 311500Z 20008KT 160V230 CAVOK 27/M09 Q1025 NOSIG", "GMFM 311500Z 32010KT 290V350 CAVOK 30/04 Q1020 NOSIG", "GMFO 311530Z 33011KT CAVOK 29/14 Q1019 NOSIG", "GMMB 311500Z 32010KT 270V350 5000 NSC 24/16 Q1020 NOSIG", "GMMC 311500Z 02004KT 6000 NSC 25/19 Q1019", "GMMD 311500Z 22005KT CAVOK 31/M04 Q1020 NOSIG", "GMME 311530Z 35005KT 300V020 5000 NSC 23/21 Q1018 NOSIG", "GMMH 311500Z 01014KT CAVOK 27/12 Q1015 NOSIG", "GMMI 311500Z AUTO VRB04G08KT 9999NDV ////// 31/07 Q1018 NOSIG", "GMML 311500Z 34010KT CAVOK 31/10Q1017 NOSIG", "GMMN 311530Z 34011KT CAVOK 26/15 Q1020 NOSIG", "GMMW 311500Z 06008KT 030V090 6000 NSC 24/15 Q1018 NOSIG", "GMMX 311530Z 30008KT 260V350 9999 FEW100 32/00 Q1019 NOSIG", "GMMZ 311500Z 18004KT CAVOK 27/M09 Q1023 NOSIG", "GMTA 311500Z 34006KT 290V010 8000 NSC 23/16 Q1019 NOSIG", "GMTN 311500Z 08005KT 030V110 8000 SCT023 BKN200 23/18 Q1019 NOSIG", "GMTT 311530Z 26005KT 8000 NSC 22/15 Q1019 NOSIG", "GOBD 311530Z 24008KT 210V270 8000 NSC 34/15 Q1009 NOSIG", "GOGG 311500Z 06004KT CAVOK 36/25 Q1009", "GOGK 311500Z 08006KT CAVOK 26/24 Q1007", "GOGS 311500Z VRB04KT 9999 FEW013 33/25 Q1009", "GOOD 311500Z 18006KT 9999 FEW013 38/19 Q1009", "GOOG 311500Z 07004KT CAVOK 39/18 Q1007", "GOOK 311500Z 00000KT CAVOK 37/21 Q1009", "GOOY 311500Z 32004KT 8000 NSC 32/24 Q1009", "GOSM 311500Z 14002KT CAVOK 39/12 Q1009", "GOSP 311500Z 08002KT CAVOK 39/16 Q1010", "GOSS 311500Z VRB02KT CAVOK 39/16 Q1009", "GOTK 311500Z 04006KT 9999 FEW015 36/18 Q1009", "GOTT 311500Z 04004KT CAVOK 37/16 Q1009", "GQNO 311530Z 09009KT 050V140 8000 NSC 38/M04 Q1010 NOSIG", "GQPP 311500Z 16004KT 120V210 6000 NSC 36/06 Q1013 NOSIG", "HEAT 311500Z 36015KT CAVOK 26/08 Q1017 NOSIG", "HEAX 311500Z 33004KT 9999 SCT020 25/15 Q1015 NOSIG", "HEBA 311500Z 34005KT 9999 FEW020 23/14 Q1014 NOSIG", "HEBL 311500Z 34007KT CAVOK 29/18 Q1013 NOSIG", "HECP 311500Z 36005KT 9999 SCT025 25/09 Q1015 NOSIG", "HEGN 311500Z 34013KT CAVOK 27/13 Q1013 NOSIG", "HEIS 311500Z 36008KT 9999 SCT025 26/15 Q1015", "HELX 311500Z 33005KT CAVOK 28/09 Q1013 NOSIG", "HEMA 311500Z 36009KT CAVOK 27/19 Q1013 NOSIG", "HEMM 311500Z 30010KT 9999 SCT020 22/15 Q1016 NOSIG", "HEPS 311500Z 35006KT CAVOK 25/20 Q1015 NOSIG", "HESG 311500Z 32010KT CAVOK 27/06 Q1013 NOSIG", "HESH 311500Z 01008KT 9999 FEW020 27/17 Q1012 NOSIG", "HESN 311500Z 36007KT CAVOK 30/08 Q1011 NOSIG", "HESW 311500Z 27010KT 9999 SCT025 24/10 Q1016", "HETR 311500Z 31013KT CAVOK 27/15 Q1013", "HKEL 311500Z 26004KT 9999 FEW021CB BKN022 19/12 Q1022", "HKGA 311500Z 14025KT 9999 TS FEW028CB SCT029 BKN080 29/21 Q1011", "HKJK 311530Z 06014KT 9999 FEW025CB SCT026 24/12 Q1020 NOSIG", "HKMO 311530Z 10007KT 9999 BKN024 26/22 Q1012 NOSIG", "HKNI 311500Z 30001KT 9999 FEW022CB BKN023 23/12", "HKNK 311500Z 15010KT 9999 FEW022CB BKN023 21/11", "HKNW 311500Z 09010KT 9999 SCT026 25/08 1019", "HKWJ 311500Z 11006KT 9999 FEW032CB FEW036 33/17 Q1008", "HRYR 311500Z 33004KT 9999 FEW023CB SCT025 25/15 Q1016 NOSIG", "HRZA 311500Z 22004KT 9999 TS FEW023CB BKN025 22/15 Q1017 NOSIG", "HSSK 311500Z 34009KT CAVOK 36/09 Q1009 NOSIG", "HTDA 311500Z 11010KT 9999 FEW019 27/22 Q1013 NOSIG", "HTJN 311500Z AUTO 03508KT 353V082 //// 29/10 Q1017", "HTKJ 311500Z 09010KT 9999 SCT038 31/13 Q1014 NOSIG", "HTMW 311500Z 32015KT 9999 FEW023 26/21 Q1012 NOSIG", "HTZA 311500Z 10013KT 9999 FEW024 28/22 Q1012 NOSIG", "HUEN 311530Z 14008KT CAVOK 25/19 Q1014 NOSIG", "K04V 311535Z AUTO 29011KT 10SM CLR 03/M07 A3023 RMK AO2", "K04W 311555Z AUTO 19003KT 10SM CLR 10/02 A2986 RMK AO2", "K05U 311555Z AUTO 00000KT 10SM CLR 03/M06 A3018 RMK A01", "K06C 311535Z AUTO 00000KT 3SM OVC002 12/12 A2983 RMK AO2 T01240124", "K06D 311555Z AUTO 24012KT 10SM CLR 07/02 A2968 RMK AO2", "K08D 311555Z AUTO 25007KT 10SM CLR 07/01 A2974 RMK AO2", "K0A0 311555Z AUTO 34012KT 10SM CLR 14/M04 A3010 RMK AO2", "K0A9 311555Z AUTO 00000KT 9SM FEW028 BKN033 OVC041 17/16 A3003 RMK A01", "K0CO 311555Z AUTO 34016G21KT 10SM CLR M07/M15 A3026 RMK AO2", "K0E0 311555Z AUTO 00000KT 10SM CLR 06/00 A3017 RMK AO2 T00621005 TSNO", "K0F2 311555Z AUTO 00000KT 10SM CLR 18/11 A3007 RMK AO2 T01750114", "K0J4 311458Z AUTO VRB05KT 10SM CLR 21/14 A3007 RMK AO2 SLP178 T02110139 51015", "K0R0 311555Z AUTO 32005KT 9SM CLR 23/14 A3009 RMK AO2", "K0R4 311535Z AUTO 27003KT 10SM CLR 21/14 A3007 RMK AO2 T02110142", "K0S9 311555Z AUTO 30008G17KT 8SM -RA BKN008 BKN014 OVC055 10/10 A2977 RMK AO2", "K0V4 311555Z AUTO 17005KT 10SM SCT012 OVC022 16/13 A3009 RMK AO1", "K0VG 311555Z AUTO 00000KT 10SM SCT005 SCT010 BKN017 16/16 A3002 RMK AO2", "K10G 311555Z AUTO 19007KT 5SM BR OVC004 15/15 A2993 RMK AO2", "K11R 311555Z AUTO 00000KT 10SM CLR 21/15 A3008 RMK AO2 T02050152", "K12N 311554Z AUTO 18005KT 16/09 A3007 RMK AO1 SLP183 T01560094", "K13K 311535Z AUTO 28009KT 10SM CLR 14/05 A3001 RMK AO2 T01440049", "K14Y 311555Z AUTO 20006KT 10SM CLR 08/01 A2984 RMK AO2", "K15M 311555Z AUTO 00000KT 2SM -RA BR OVC005 15/15 A3002 RMK AO2 VIS 1V5 CIG 003V007 P0003 T01510151 $", "K17J 311535Z AUTO 34003KT 10SM OVC032 20/15 A3004 RMK AO2 T02040149", "K18A 311535Z AUTO 03003KT 5SM BR OVC003 14/14 A3006 RMK AO2 T01430140", "K18H 311535Z AUTO 05007KT 9SM BKN095 25/17 A3002 RMK A01", "K19S 311535Z AUTO 22005KT 7SM CLR 13/M01 A3004 RMK AO2 T01351015", "K1A5 311555Z AUTO 00000KT 10SM SCT009 BKN041 17/15 A3008 RMK AO2 T01720148", "K1A6 311535Z AUTO 16006KT 10SM OVC008 16/15 A3001 RMK AO2 T01590151", "K1A9 311555Z AUTO 25004KT 10SM CLR 20/14 A3005 RMK AO2 T01950140", "K1AM 311555Z AUTO 23018G26KT 10SM BKN240 14/01 A2973 RMK AO2 SLP063 T01350005 $", "K1AW 311555Z AUTO 27015KT 10SM CLR 12/M09 A3001 RMK AO2 SLP147 T01171088 FZRANO $", "K1BM 311555Z AUTO 24019G25KT 10SM CLR 13/00 A2974 RMK AO2 PK WND 25028/06 SLP069 T01340004 $", "K1BW 311555Z AUTO 28010KT 10SM CLR 10/M09 A3003 RMK AO2 SLP163 T00961095 FZRANO $", "K1CM 311555Z AUTO 19012KT 10SM FEW070 SCT100 12/00 A2977 RMK AO2 SLP081 T01200004 $", "K1CW 311555Z AUTO 32011KT 10SM CLR 12/M09 A2998 RMK AO2 SLP140 T01191092 FZRANO $", "K1D1 311535Z AUTO 13004KT 10SM CLR 10/03 A2984 RMK AO2", "K1DM 311555Z AUTO 25027G32KT 10SM FEW220 14/01 A2970 RMK AO2 PK WND 24035/27 SLP061 T01370007 $", "K1DW 311555Z AUTO 28011KT 10SM CLR 11/M07 A3001 RMK AO2 SLP148 T01141074 FZRANO $", "K1EM 311555Z AUTO 24018G22KT 10SM FEW200 BKN240 13/01 A2970 RMK AO2 SLP062 T01280005 $", "K1EW 311555Z AUTO 09011KT 10SM CLR 12/M09 A2999 RMK AO2 SLP143 T01191092 FZRANO $", "K1F0 311530Z AUTO 22003KT 10SM CLR 13/10 A3007 RMK AO2 T01320096", "K1FM 311555Z AUTO 26016G26KT 10SM FEW055 12/01 A2967 RMK AO2 PK WND 28026/52 SLP049 T01200010 $", "K1GM 311555Z AUTO 19021G28KT 10SM CLR 09/02 A2967 RMK AO2 PK WND 19032/14 SLP059 T00890020 $", "K1H2 311535Z AUTO 21006KT 10SM OVC012 13/12 A2990 RMK AO2 T01300121", "K1HM 311555Z AUTO 28021G31KT 10SM CLR 12/02 A2966 RMK AO2 PK WND 28038/13 SLP052 T01180020 $", "K1HW 311555Z AUTO 29015KT 10SM CLR 13/M06 A2995 RMK AO2 SLP138 T01261064 FZRANO $", "K1IM 311555Z AUTO 23020G27KT 10SM CLR 13/02 A2971 RMK AO2 PK WND 23027/47 SLP064 T01310023 $", "K1IW 311555Z AUTO 29013KT 10SM CLR 14/M06 A2996 RMK AO2 SLP133 T01411062 FZRANO $", "K1JM 311555Z AUTO 20028G35KT 10SM CLR 11/01 A2966 RMK AO2 PK WND 20035/49 SLP052 T01140013 PWINO $", "K1JW 311555Z AUTO 28009G17KT 10SM CLR 15/M09 A2996 RMK AO2 SLP132 T01531089 FZRANO $", "K1K1 311555Z AUTO 31004KT 10SM CLR 14/01 A3002 RMK AO2 T01400014", "K1KM 311555Z AUTO 26019KT 10SM BKN140 OVC170 09/M01 A2979 RMK AO2 SLP090 T00911011 $", "K1LM 311555Z AUTO 25003KT 10SM BKN100 OVC230 10/M01 A2982 RMK AO2 SLP100 T00961009 $", "K1M4 311556Z AUTO 23008KT 10SM BKN007 OVC013 16/14 A3005 RMK AO2 CIG 006V010 SLP167 T01560144", "K1M5 311555Z AUTO 21008KT 190V250 10SM FEW013 SCT024 BKN029 17/15 A2995 RMK A01", "K1MM 311555Z AUTO 25024G31KT 10SM CLR 13/M00 A2975 RMK AO2 PK WND 24037/10 SLP077 T01291004 $", "K1MW 311555Z AUTO 24005KT 10SM M 10/M08 A2999 RMK AO2 SLP152 T01001077 FZRANO $", "K1NM 311555Z AUTO 28008KT 10SM SCT210 12/00 A2970 RMK AO2 SLP064 T01200001 $", "K1OM 311555Z AUTO 23024G31KT 10SM CLR 14/01 A2968 RMK AO2 PK WND 23031/47 SLP056 T01360006 $", "K1OW 311555Z AUTO 29008KT 10SM CLR 12/M09 A3013 RMK AO2 SLP190 T01241087 FZRANO $", "K1P1 311555Z AUTO 00000KT 10SM CLR 12/02 A3001 RMK AO2 T01210016", "K1R7 311555Z AUTO 28005KT 10SM CLR 21/20 A3008 RMK AO2 PWINO", "K1R8 311535Z AUTO VRB05KT 10SM CLR 20/15 A3006 RMK AO2", "K1S3 311545Z AUTO 00000KT 10SM 11/M01 A2980 ", "K1S5 311555Z AUTO 13003KT 10SM OVC090 14/08 A2981 RMK AO2 T01410081", "K1U7 311535Z AUTO 10008KT 10SM CLR 01/01 A3016 RMK A01", "K1V4 311554Z AUTO 11/M01 A2999 RMK AO1 SLP159 T01061006 PNO", "K1V6 311555Z AUTO 29016KT 10SM CLR 12/M06 A3005 RMK AO2", "K1YT 311555Z AUTO 00000KT 10SM OVC070 11/05 A2977 RMK AO2 SLP086 T01120053 $", "K20U 311555Z AUTO 23011KT 10SM CLR 08/M02 A2980 RMK AO2", "K20V 311535Z AUTO 00000KT 10SM CLR M03/M05 A3026 RMK AO2", "K21D 311555Z AUTO 00000KT 10SM CLR 10/03 A2988 RMK AO2", "K22N 311555Z AUTO 00000KT 10SM OVC012 10/06 A3009 RMK AO2", "K24A 311555Z AUTO 00000KT 1/2SM FG BKN001 OVC021 15/15 A3007 RMK AO2 VIS 1/4V5 P0001 T01470146", "K24J 311555Z AUTO 15008KT 10SM CLR 27/21 A3002 RMK A01", "K27K 311555Z AUTO 21007KT 10SM BKN012 OVC033 16/14 A2995 RMK AO1", "K28J 311555Z AUTO 15006KT 9SM SCT022 BKN027 OVC060 25/20 A3003 RMK AO2 TSNO", "K2A0 311555Z AUTO 24006KT 10SM SCT008 BKN014 BKN047 17/17 A3000 RMK A01", "K2C8 311555Z AUTO 26010KT 10SM CLR 10/02 A2965 RMK AO2", "K2D5 311555Z AUTO 20014KT 9SM CLR 07/M00 A2979 RMK AO2", "K2DP 311555Z AUTO 06005KT 10SM CLR 22/14 A3009 RMK AO2 SLPNO T02200141 $", "K2G2 311555Z AUTO 23007G13KT 10SM OVC006 15/15 A2994 RMK A01", "K2G4 311535Z AUTO 21006KT 1 1/4SM BKN003 OVC006 12/12 A3003 RMK AO1", "K2G9 311535Z AUTO 22007KT 10SM BKN012 BKN060 OVC085 14/13 A3000 RMK AO2 P0001", "K2IS 311535Z AUTO 08009KT 10SM SCT019 BKN028 BKN035 28/23 A3000 RMK AO2 T02780230", "K2J3 311535Z AUTO 17004KT 7SM BR OVC004 20/20 A3005 RMK AO2 T02030197", "K2J5 311535Z AUTO 16008KT 10SM OVC006 20/19 A3005 RMK AO2 T02020191", "K2J9 311555Z AUTO VRB05KT 10SM OVC022 24/18 A3005 RMK AO2", "K2M2 311550Z AUTO VRB04KT 10SM FEW011 SCT015 BKN020 16/14 A2999 RMK A01", "K2P2 311555Z AUTO 24005KT 10SM SCT100 BKN120 13/07 A2983 RMK AO2 T01260066", "K2R9 311535Z AUTO 00000KT 10SM CLR 20/16 A3007 RMK AO2 T01960158", "K2V5 311535Z AUTO 30006KT 10SM CLR 10/M06 A3001 RMK AO2", "K2W6 311539Z AUTO 19005KT 10SM SCT027 OVC070 17/12 A3010 RMK AO1", "K2WX 311556Z AUTO 24006KT 12/M03 A2980 RMK AO1 SLP099 T01171033 ", "K33N 311555Z AUTO 19005KT 9SM SCT024 SCT030 18/13 A3008 RMK A01", "K33V 311535Z AUTO 18008KT 10SM CLR 00/M05 A3019 RMK AO1", "K35A 311555Z AUTO 15003KT 1 3/4SM BR OVC004 16/ A3007 RMK A02 VIS 1 1/4V2 1/2 T0162////", "K36K 311555Z AUTO 21010KT 10SM CLR 14/M03 A3005 RMK AO2", "K38S 311545Z AUTO 17009G18KT 10SM 11/00 A2990 ", "K3AU 311555Z AUTO 29005KT 10SM CLR 15/00 A3003 RMK AO2", "K3D2 311555Z AUTO 00000KT 10SM CLR 14/06 A2983 RMK AO2 T01370056", "K3F3 311535Z AUTO 20003KT 10SM CLR 19/15 A3010 RMK AO2 T01890153", "K3I2 311555Z AUTO 18004KT 10SM BKN016 BKN038 19/17 A2997 RMK AO2 T01850173", "K3J7 311555Z AUTO 19005KT 5SM -RA OVC004 18/18 A3004 RMK AO2", "K3K3 311535Z AUTO 28008KT 10SM CLR 07/M06 A3004 RMK AO2", "K3LF 311555Z AUTO 25008KT 5SM BR OVC004 12/12 A2989 RMK AO2 T01210120", "K3N8 311555Z AUTO 20012KT 10SM CLR 09/00 A2976 RMK AO2 T00941001", "K3R7 311555Z AUTO 34004KT 10SM CLR 21/14 A3007 RMK AO2 T02100143", "K3S8 311555Z AUTO 00000KT 1/2SM BR OVC003 06/06 A3008 RMK AO2", "K3U3 311545Z AUTO 18014G22KT 10SM 11/M01 A2990 ", "K40B 311516Z AUTO VRB02KT 13/M02 A2999 RMK AO1 SLP173 T01331022 58003", "K40U 311535Z AUTO 04003KT 10SM CLR 01/M06 A3018 RMK AO2 T00111059", "K41U 311535Z AUTO 00000KT 10SM CLR M03/M05 A3022 RMK AO1 T10291047", "K42J 311555Z AUTO VRB06KT 10SM CLR 27/23 A3003 RMK A01", "K46D 311555Z AUTO 24009G15KT 10SM CLR 10/M00 A2977 RMK AO2", "K46U 311555Z AUTO 00000KT 10SM CLR 01/M03 A3019 RMK A01", "K48A 311535Z AUTO 17006KT 10SM OVC005 21/20 A3004 RMK AO2 T02130204", "K49A 311535Z AUTO 21006KT 10SM OVC011 17/15 A3006 RMK AO2 T01710150", "K4A6 311555Z AUTO 23004KT 10SM FEW013 SCT017 BKN023 17/17 A3003 RMK AO2", "K4A9 311535Z AUTO 22005KT 10SM 17/14 A3002 RMK AO2 T01750143", "K4F2 311535Z AUTO 10SM CLR 19/14 A3006 RMK AO2 T01860137", "K4I3 311555Z AUTO 18010G14KT 10SM BKN012 OVC017 17/15 A2992 RMK AO2", "K4M9 311555Z AUTO 31009KT 10SM 16/14 A2996 RMK AO2 PWINO", "K4MR 311555Z AUTO 21003KT 10SM CLR 13/05 A3006 RMK AO2 SLP134 T01270054 $", "K4O4 311535Z AUTO VRB03KT 1/4SM UP FG BKN003 14/14 A3006 RMK AO2", "K4R5 311555Z AUTO 00000KT 10SM OVC110 10/05 A2983 RMK AO2 T00970050", "K4S1 311535Z AUTO 00000KT 1/2SM -RA OVC001 10/09 A3003 RMK AO2", "K4S2 311555Z AUTO 00000KT 10SM -DZ SCT043 OVC049 11/10 A2987 RMK AO2", "K4V1 311530Z AUTO 26017G21KT 10SM CLR 13/M05 A3008 RMK AO2 T01321052", "K54A 311555Z AUTO 07008KT 050V110 10SM CLR 29/23 A2998 RMK AO2", "K54J 311555Z AUTO 34005KT 10SM CLR 21/13 A3006 RMK AO2 T02140129", "K57C 311535Z AUTO 32004KT 10SM OVC028 12/10 A2985 RMK AO2 T01160101", "K5C1 311535Z AUTO 18003KT 10SM CLR 18/12 A3008 RMK AO1", "K5H4 311555Z AUTO 25011KT 10SM CLR 09/M03 A2975 RMK AO2", "K5M9 311535Z AUTO 21003KT 10SM BKN009 OVC014 16/14 A2992 RMK AO2 T01600138", "K5R8 311535Z AUTO 00000KT 10SM CLR 17/16 A3009 RMK AO2 T01680155", "K5SM 311535Z AUTO 00000KT 10SM CLR M02/M11 A3030 RMK AO2", "K63S 311535Z AUTO 00000KT 10SM FEW015 OVC028 08/07 A2976 RMK A01", "K65S 311555Z AUTO VRB04G10KT 5SM -RA BR BKN007 BKN016 OVC021 08/08 A2974 RMK AO2", "K66R 311535Z AUTO 00000KT 10SM CLR 20/15 A3009 RMK AO2 T01980147", "K6A1 311535Z AUTO 24006KT 10SM BKN012 BKN020 OVC028 21/19 A3004 RMK AO2 T02100185", "K6A2 311555Z AUTO 19004KT 10SM SCT013 SCT021 BKN029 20/20 A3003 RMK AO2", "K6B0 311555Z AUTO 18004KT 10SM CLR 13/02 A3001 RMK AO2 T01310024", "K6B9 311555Z AUTO 20006KT 10SM FEW100 14/07 A2997 RMK AO2", "K6I2 311535Z AUTO 20006KT 10SM BKN017 OVC055 16/15 A2996 RMK AO2", "K6L4 311555Z AUTO VRB03KT 10SM BKN005 BKN010 OVC021 16/16 A3000 RMK AO2", "K6P9 311535Z AUTO 00000KT 10SM CLR 20/09 A3008 RMK AO2 T02010089", "K6R6 311551Z AUTO 07004KT 16/09 A3006 RMK AO1 SLP161 T01560094", "K6S0 311535Z AUTO 27013KT 10SM BKN075 09/M02 A2988 RMK A01", "K6S2 311555Z AUTO VRB06KT 10SM OVC006 12/12 A2999 RMK AO2 P0001", "K6S8 311540Z AUTO 24008KT 10SM 09/M03 A2985 RMK A01 LAUREL", "K74V 311535Z AUTO 00000KT 10SM 03/M05 A3022 RMK AO2", "K77S 311555Z AUTO 16005KT 10SM OVC032 12/12 A3000 RMK A01", "K79J 311456Z AUTO 32003KT 10SM CLR 20/14 A3005 RMK AO2 SLP172 60000 T02000139 51009", "K7BM 311535Z AUTO 00000KT 10SM CLR 03/M16 A3021 RMK AO2", "K7L2 311555Z AUTO 29004KT 10SM CLR 10/M03 A2982 RMK AO2", "K7N0 311556Z AUTO 00000KT 10SM FEW029 SCT048 23/14 A3008 RMK AO2 SLP185 T02280139 PNO $", "K7W4 311555Z AUTO 23003KT 10SM SCT032 BKN080 OVC110 16/14 A3009 RMK AO1 P0001 T01550140", "K81R 311535Z AUTO 00000KT 10SM CLR 15/12 A3010 RMK AO2 T01520123", "K82C 311555Z AUTO 29003KT 10SM CLR 12/06 A2986 RMK AO2 T01210060", "K82V 311555Z AUTO 23004KT 10SM CLR 11/M07 A3002 RMK AO2", "K8A0 311535Z AUTO 23004KT 10SM SCT011 OVC046 16/13 A3004 RMK AO2", "K8A3 311555Z AUTO 22008G14KT 10SM SCT013 SCT018 OVC048 15/13 A2998 RMK A01", "K8D3 311556Z AUTO 23012KT 17/M01 A2979 RMK AO1 SLP089 T01671006", "K8T6 311535Z AUTO 00000KT 10SM CLR 22/17 A3004 RMK AO2", "K8W2 311555Z AUTO 00000KT 10SM SCT009 BKN070 OVC100 15/15 A3004 RMK AO1 T01530147", "K96D 311555Z AUTO 25010G19KT 10SM CLR 10/01 A2964 RMK AO2", "K9A5 311535Z AUTO 24004KT 10SM SCT006 SCT041 OVC050 16/16 A3004 RMK AO2 T01600160", "K9D7 311555Z AUTO 26013KT 10SM CLR 08/02 A2971 RMK AO2 TSNO", "K9L2 311555Z AUTO 00000KT 10SM CLR 07/M13 A3004 RMK AO2 SLP172 T00671130 $", "K9MN 311555Z AUTO 00000KT 10SM CLR 11/03 A2990 RMK AO1 T01060032", "K9S5 311455Z AUTO 20008KT 10SM 09/M02 A2989 RMK Three Forks ", "K9V9 311535Z AUTO 25004KT 10SM CLR 07/M02 A2987 RMK AO2 T00741016", "KAAA 311535Z AUTO 00000KT 4SM RA OVC002 13/13 A2986 RMK AO2 T01320132", "KAAF 311553Z AUTO 35007KT 10SM CLR 23/18 A3003 RMK AO2 SLP167 T02330183", "KAAO 311554Z AUTO 30006KT 10SM CLR 14/02 A3002 RMK AO2 SLP163 T01440017", "KAAS 311555Z AUTO 21007KT 10SM BKN012 OVC017 16/14 A3000 RMK AO1", "KAAT 311555Z AUTO 00000KT 4SM HZ CLR M01/M06 A3008 RMK AO2 SLP195 T10111061", "KABE 311551Z 00000KT 10SM OVC120 13/09 A3007 RMK AO2 SLP183 T01330089", "KABH 311555Z AUTO 07003KT 10SM CLR 13/M05 A3007 RMK AO2 SLP170 T01311050", "KABI 311552Z 00000KT 10SM CLR 18/11 A3008 RMK AO2 SLP172 T01780111", "KABQ 311552Z VRB04KT 10SM FEW250 08/M04 A3017 RMK AO2 SLP187 T00831039", "KABR 311553Z AUTO 19008KT 10SM CLR 09/01 A2982 RMK AO2 SLP109 T00940011", "KABY 311553Z VRB04KT 10SM BKN012 BKN018 OVC026 24/19 A3004 RMK AO2 SLP170 T02390194", "KACB 311555Z AUTO 00000KT 10SM SCT120 13/07 A2986 RMK AO2 T01340071", "KACK 311553Z 17005KT 10SM SCT026 19/15 A3008 RMK AO2 SLP186 T01890150", "KACP 311555Z AUTO 00000KT 10SM CLR 21/14 A3007 RMK AO2", "KACQ 311555Z AUTO 00000KT 10SM CLR 07/01 A2992 RMK AO2", "KACT 311551Z 00000KT 10SM CLR 20/13 A3007 RMK AO2 SLP179 T02000128", "KACV 311553Z AUTO 00000KT 10SM CLR 08/07 A3003 RMK AO2 SLP175 T00830072", "KACY 311554Z 22008KT 10SM CLR 19/10 A3009 RMK AO2 SLP189 T01890100", "KADC 311556Z AUTO 22008KT 10SM CLR 14/M01 A2979 RMK AO2 TSNO", "KADG 311553Z AUTO 25004KT 4SM BR OVC003 14/14 A2985 RMK AO2 RAB1456E07 SLP112 P0001 T01440144", "KADH 311535Z AUTO 35003KT 10SM CLR 15/06 A3007 RMK AO2", "KADM 311550Z 00000KT 10SM CLR 10/09 A3007", "KADS 311547Z 00000KT 13SM SKC 19/11 A3007", "KADT 311535Z AUTO 23006KT 10SM CLR 10/M05 A3005 RMK AO2 T01021048", "KADU 311535Z AUTO 31003KT 10SM SCT041 SCT060 SCT100 12/03 A2994 RMK AO2", "KADW 311555Z AUTO 18008KT 10SM FEW070 FEW200 17/12 A3004 RMK AO2 DZB17E27 SLP179 P0000 T01650118 $", "KAEG 311547Z 34008KT 10SM CLR 11/M06 A3016", "KAEJ 311555Z AUTO 00000KT 10SM 04/M08 A3018 RMK AO2 T00421084", "KAEL 311555Z AUTO 00000KT 10SM CLR 12/04 A2990 RMK AO2", "KAEX 311553Z 00000KT 10SM CLR 22/14 A3005 RMK AO2 SLP179 T02220144", "KAFF 311555Z AUTO 03003KT 10SM CLR 11/M08 A3006 RMK AO2 SLP163 T01071076", "KAFJ 311556Z AUTO 19007KT 10SM OVC007 16/14 A2998 RMK AO2 SLP153 T01560144", "KAFK 311535Z AUTO 00000KT 10SM CLR 11/02 A2997 RMK AO2 T01120020", "KAFN 311552Z AUTO 22009G15KT 180V260 10SM CLR 15/07 A3004 RMK AO2 SLP182 T01500072", "KAFO 311535Z AUTO 00000KT 10SM CLR M01/M03 A3017 RMK AO2", "KAFP 311555Z AUTO 15004KT 10SM -RA SCT042 20/16 A3006 RMK AO2 T01960160", "KAFW 311553Z 00000KT 10SM BKN250 17/11 A3006 RMK AO2 SLP176 T01720106", "KAGC 311553Z 18006KT 5SM BR OVC006 14/13 A2996 RMK AO2 CIG 005V008 SLP150 T01390128", "KAGI 311555Z AUTO 04006KT 10SM CLR 25/14 A3005 RMK AO2 T02510144", "KAGO 311555Z AUTO VRB05KT 10SM CLR 19/13 A3003 RMK A01", "KAGS 311553Z VRB05KT 10SM BKN007 OVC012 20/19 A3003 RMK AO2 CIG 004V010 SLP169 T02000189 $", "KAHN 311551Z 36003KT 4SM BR OVC004 16/15 A3004 RMK AO2 SLP172 T01610150", "KAHQ 311535Z AUTO 00000KT 10SM CLR 11/01 A2996 RMK AO2 T01120010", "KAIA 311553Z AUTO 27011KT 10SM CLR 10/M04 A2995 RMK AO2 SLP144 T01001039", "KAID 311555Z 18008KT 7SM OVC013 15/13 A2987", "KAIG 311555Z AUTO 00000KT 10SM CLR 13/06 A2985 RMK AO2 T01260055", "KAIK 311555Z AUTO 16008KT 10SM OVC006 21/19 A3005 RMK AO2 T02080188", "KAIO 311535Z AUTO 00000KT 9SM CLR 10/08 A2994 RMK AO2", "KAIT 311555Z AUTO 21007KT 10SM CLR 13/00 A2981 RMK AO2", "KAIZ 311556Z AUTO 29008KT 270V330 10SM CLR 16/11 RMK AO2 SLPNO T01560106 $", "KAJG 311535Z AUTO 25008KT 10SM OVC023 16/14 A2989 RMK AO2 T01550141", "KAJO 311556Z AUTO 00000KT 10SM CLR 12/08 A2996 RMK AO2 SLP141 T01220083", "KAJR 311535Z AUTO 05003KT 7SM OVC004 15/15 A3005 RMK AO2 T01520152", "KAJZ 311535Z AUTO 00000KT 10SM CLR 02/M02 A3022 RMK AO2 T00241022", "KAKH 311554Z AUTO VRB03KT 2 1/2SM -RA BR OVC004 15/15 A3006 RMK AO2 RAE05B47 SLP176 P0000 T01500150", "KAKO 311553Z AUTO 24010KT 10SM CLR 10/M05 A3002 RMK AO2 SLP154 T01001050", "KAKQ 311554Z AUTO VRB03KT 10SM FEW038 SCT048 BKN055 18/13 A3010 RMK AO2 SLP195 T01830128", "KAKR 311554Z AUTO 21010KT 2 1/2SM HZ OVC004 17/14 A2991 RMK AO2 SLP125 T01670139", "KALB 311551Z 14005KT 10SM SCT170 BKN250 13/06 A3004 RMK AO2 SLP172 T01280056", "KALI 311553Z AUTO 11007KT 10SM FEW085 25/16 A3002 RMK AO2 SLP165 T02500161", "KALK 311456Z AUTO 10SM CLR 09/M02 A3009 RMK AO2 SLP132 T00941017 53011 $", "KALM 311555Z AUTO 00000KT 8SM CLR 13/02 A3009 RMK AO2", "KALN 311550Z 28007KT 6SM BR OVC008 13/12 A2990", "KALO 311554Z 31004KT 10SM CLR 12/06 A2990 RMK AO2 SLP127 T01220061", "KALS 311552Z AUTO 00000KT 10SM CLR 03/M06 A3020 RMK AO2 SLP209 T00281061", "KALW 311553Z 18005KT 10SM OVC060 12/07 A2986 RMK AO2 SLP111 T01220067", "KALX 311555Z AUTO 26007KT 230V300 10SM CLR 20/14 A3004 RMK AO2 T01990136", "KAMA 311553Z 21006KT 10SM CLR 16/07 A3008 RMK AO2 SLP158 T01610067", "KAMG 311553Z AUTO 17009KT 10SM BKN020 BKN027 26/21 A3003 RMK AO2 SLP166 T02560206", "KAMN 311555Z AUTO 00000KT 1 1/4SM BR OVC004 12/11 A2985 RMK AO2 T01180110", "KAMW 311553Z AUTO 36003KT 10SM CLR 12/03 A2992 RMK AO2 SLP133 T01220033", "KANB 311553Z AUTO 23007KT 10SM CLR 20/14 A3004 RMK AO2 SLP168 T02000139", "KAND 311554Z AUTO 02003KT 3SM -RA BR BKN004 OVC015 16/14 A3005 RMK AO2 P0006", "KANE 311547Z 00000KT 10SM CLR 12/01 A2987", "KANJ 311555Z AUTO 00000KT 10SM BKN120 11/08 A2984 RMK AO2 SLP107 T01060083", "KANK 311530Z AUTO 33006KT 10SM CLR 03/M08 A3025 RMK AO1 T00301080", "KANQ 311555Z AUTO 00000KT 6SM BR OVC004 15/15 A2983 RMK AO2", "KANW 311555Z AUTO 28006KT 10SM CLR 13/M05 A2990 RMK AO2 T01281046", "KAOH 311453Z AUTO 20008G16KT 9SM SCT008 BKN012 OVC038 17/15 A2987 RMK AO2 RAB20E29 SLP111 P0000 60000 T01720150 50004", "KAOO 311553Z AUTO 18003KT 10SM -RA FEW030 OVC100 11/08 A3002 RMK AO2 SLP169 P0001 T01110083", "KAPA 311553Z 24008KT 10SM FEW200 11/M08 A3005 RMK AO2 SLP165 T01061083", "KAPC 311554Z 01006KT 5SM HZ OVC008 12/09 A2999 RMK AO2 SLP146 T01220094", "KAPF 311553Z 07008KT 10SM FEW028 29/24 A2997 RMK AO2 SLP147 T02940244 $", "KAPG 311458Z 20005KT 10SM SCT007 BKN025 15/13 A3006 RMK AO2A SLP183 T01530128 58003 $", "KAPN 311554Z AUTO 18004KT 10SM CLR 15/07 A2986 RMK AO2 SLP115 T01500072", "KAPS 311536Z AUTO 00000KT 10SM SCT044 19/16 A3008 RMK AO2", "KAQO 311535Z AUTO 00000KT 10SM CLR 17/11 A3008 RMK AO2", "KAQP 311553Z AUTO 00000KT 10SM 10/01 A2985 RMK AO2", "KAQV 311457Z AUTO 00000KT 8SM CLR 19/16 A3005 RMK AO2 SLP174 T01890156 53023", "KAQW 311552Z AUTO 11006KT 10SM CLR 14/07 A3002 RMK AO2 SLP171 T01440072", "KAQX 311555Z AUTO 17006G11KT 10SM CLR 25/20 A3003 RMK AO2", "KARA 311553Z 31006KT 10SM CLR 23/13 A3006 RMK AO2 SLP180 T02330133", "KARB 311553Z 00000KT 4SM -RA BR OVC003 14/13 A2984 RMK AO2 SLP105 P0008 T01390128", "KARG 311556Z AUTO 29009KT 10SM FEW018 BKN048 18/12 A2997 RMK AO2 SLP148 T01780117", "KARM 311555Z AUTO 00000KT 10SM CLR 21/15 A3008 RMK AO2 T02120148 TSNO", "KARR 311552Z 35005KT 1 1/2SM BR OVC004 12/12 A2984 RMK AO2 SLP105 T01220117", "KART 311456Z AUTO 19005KT 10SM CLR 14/06 A2995 RMK AO2 SLP145 T01390056 58006", "KARV 311555Z AUTO 00000KT 10SM CLR 11/05 A2984 RMK AO2 T01100054", "KARW 311555Z AUTO 22005KT 10SM SCT027 26/19 A3004 RMK AO2", "KASD 311553Z AUTO 00000KT 10SM FEW050 23/15 A3006 RMK AO2 SLP180 T02280150", "KASE 311553Z 35003KT 10SM CLR 01/M07 A3020 RMK AO2 SLP205 T00111067", "KASG 311548Z 20004KT 8SM CLR 13/13 A3003", "KASH 311556Z 23007G14KT 180V280 10SM CLR 17/10 A3004 RMK AO2 SLP177 T01720100 $", "KASJ 311555Z AUTO 20004KT 10SM OVC050 19/14 A3011 RMK AO2 T01920135", "KASL 311535Z AUTO 00000KT 10SM CLR 17/15 A3005 RMK AO2 T01700146 TSNO $", "KASN 311555Z AUTO 00000KT 10SM SCT008 SCT012 BKN050 17/16 A3005 RMK AO2 T01720157", "KAST 311555Z AUTO 28007KT 6SM -RA BR FEW005 BKN010 OVC032 12/11 A2989 RMK AO2 WSHFT 1518 SLP120 P0009 T01220111", "KASW 311535Z AUTO 00000KT 10SM BKN006 OVC011 14/14 A2984 RMK AO2 P0003 T01450145", "KASX 311553Z AUTO 25007KT 10SM CLR 12/04 A2985 RMK AO2 SLP114 T01170044", "KATA 311555Z AUTO VRB03KT 10SM CLR 20/14 A3004 RMK AO2 SLP072 T01970140 $", "KATL 311552Z 20004KT 8SM SCT007 BKN016 BKN028 BKN200 19/18 A3002 RMK AO2 SLP162 T01890178 $", "KATP 311535Z AUTO 36009G14KT 10SM FEW085 24/17 A3005 RMK A01", "KATS 311555Z AUTO 01007KT 10SM CLR 12/05 A3011 RMK AO2", "KATT 311551Z AUTO VRB03KT 10SM CLR 18/12 A3008 RMK AO2 SLP180 T01830122", "KATW 311545Z 29005KT 10SM CLR 13/07 A2984", "KATY 311553Z AUTO 16006KT 10SM CLR 09/01 A2984 RMK AO2 SLP115 T00890011", "KAUG 311553Z AUTO 17007KT 140V210 10SM CLR 16/03 A3000 RMK AO2 SLP160 T01560033", "KAUH 311535Z AUTO 23004KT 10SM CLR 11/02 A2996 RMK AO2 T01130023", "KAUM 311555Z AUTO 00000KT 10SM CLR 11/04 A2990 RMK AO2", "KAUN 311535Z AUTO 09007KT 10SM CLR 14/M01 A3001 RMK A01", "KAUO 311556Z AUTO VRB04KT 10SM CLR 20/13 A3006 RMK AO2 SLP195 T02000133", "KAUS 311553Z 18006KT 10SM SCT200 BKN300 22/14 A3006 RMK AO2 SLP175 T02170139", "KAUW 311554Z AUTO 28003KT 10SM CLR 13/05 A2984 RMK AO2 SLP112 T01280050", "KAVC 311555Z AUTO 19006KT 10SM BKN070 20/14 A3015 RMK AO2 T01960140", "KAVK 311555Z AUTO 00000KT 10SM CLR 14/01 A3005 RMK AO2 PWINO", "KAVL 311554Z 15005KT 2SM -RA BR BKN003 BKN024 OVC031 13/12 A3007 RMK AO2 SLP172 P0002 T01280122", "KAVP 311554Z AUTO VRB05KT 10SM FEW035 FEW070 BKN110 14/08 A3005 RMK AO2 SLP175 T01390083", "KAVQ 311535Z AUTO 13007KT 10SM CLR 14/M02 A2999 RMK AO2 T01361021", "KAVX 311551Z AUTO 00000KT 10SM CLR 24/M03 A2997 RMK AO2 SLP121 T02391033", "KAWG 311535Z AUTO 00000KT 9SM CLR 13/08 A2989 RMK AO2", "KAWM 311553Z AUTO 24006KT 10SM OVC013 16/13 A2998 RMK AO2 SLP150 T01610133", "KAWO 311556Z AUTO 15016KT 10SM OVC015 12/11 A2976 RMK AO2 RAE31 SLP083 P0001 T01220106", "KAXA 311535Z AUTO 00000KT 10SM CLR 10/04 A2991 RMK A01", "KAXH 311555Z AUTO 00000KT 10SM CLR 23/14 A3008 RMK AO2 T02250138", "KAXN 311553Z AUTO 21009KT 10SM CLR 11/M01 A2984 RMK AO2 SLP114 T01111006", "KAXS 311555Z AUTO 00000KT 10SM CLR 13/09 A3009 RMK AO2 T01340088", "KAXV 311555Z AUTO 20011G17KT 10SM BKN013 BKN021 OVC070 17/15 A2987 RMK AO2", "KAXX 311535Z AUTO 00000KT 10SM CLR 00/M03 A3022 RMK AO2 T10051030", "KAYS 311535Z AUTO 19007KT 10SM SCT020 27/24 A3003 RMK AO2 T02670239", "KAZC 311555Z AUTO 14003KT 10SM CLR 08/M03 A3018 RMK AO2", "KAZE 311535Z AUTO 19004KT 10SM OVC011 23/21 A3003 RMK AO2 T02330205", "KAZO 311553Z 00000KT 1/2SM R35/4000VP6000FT FG OVC002 14/13 A2984 RMK AO2 SLP107 T01390133 $", "KBAB 311555Z AUTO 00000KT 10SM CLR 14/03 A2998 RMK AO2 SLP155 T01380030 $", "KBAC 311555Z AUTO 24007KT 10SM CLR 11/M01 A2977 RMK AO2", "KBAD 311555Z AUTO 32003KT 10SM CLR 20/13 A3005 RMK AO2 SLP179 T01990126", "KBAF 311553Z 17005KT 10SM CLR 14/08 A3004 RMK AO2 SLP175 T01440083", "KBAK 311545Z 18010KT 10SM SCT011 BKN036 OVC070 15/14 A2989 RMK RA E12", "KBAM 311555Z AUTO 00000KT 10SM CLR 01/M08 A3015 RMK AO1", "KBAN 311552Z AUTO 00000KT 10SM CLR M03/M13 A3012 RMK AO2 SLP205 T10281128 $", "KBAX 311535Z AUTO 15003KT 10SM SCT005 SCT021 OVC040 A2985 RMK AO2", "KBAZ 311551Z AUTO 23006KT 10SM CLR 23/14 A3005 RMK AO2 SLP171 T02330144", "KBBB 311555Z AUTO 20004KT 10SM CLR 09/00 A2986 RMK AO2", "KBBD 311535Z AUTO 00000KT 10SM CLR 16/10 A3009 RMK AO2", "KBBG 311547Z 23006KT 9SM SCT009 SCT090 14/14 A3000", "KBBP 311535Z AUTO 13006KT 10SM CLR 21/17 A3006 RMK AO2", "KBBW 311553Z AUTO 21006KT 10SM CLR 13/M03 A2992 RMK AO2 SLP137 T01281028", "KBCB 311555Z AUTO 00000KT 10SM RA BKN008 OVC013 12/12 A3011 RMK AO2 P0006 T01170117", "KBCE 311553Z AUTO 30005KT 10SM CLR 02/M05 A3022 RMK AO2 SLP199 T00221050", "KBCK 311555Z AUTO 26003KT 10SM CLR 12/06 A2988 RMK AO2 T01160055", "KBCR 311458Z AUTO 01003KT 10SM OVC038 21/16 A3005 RMK AO2 SLP133 T02060161 53014", "KBCT 311553Z 13008KT 10SM SCT030 31/24 A2999", "KBDE 311553Z AUTO 23009G17KT 10SM CLR 11/M01 A2968 RMK AO2 SLP061 T01061006", "KBDG 311535Z AUTO 00000KT 10SM 07/M06 A3024 RMK AO1 T00671059", "KBDH 311555Z AUTO 20004KT 10SM CLR 12/02 A2990 RMK AO2", "KBDL 311551Z 17005KT 10SM FEW040 BKN150 BKN250 17/09 A3005 RMK AO2 SLP177 T01720089", "KBDN 311550Z AUTO 21010KT 10SM CLR 11/M00 A2997 RMK AO2", "KBDR 311552Z 17006KT 10SM CLR 15/11 A3008 RMK AO2 SLP186 T01500111", "KBDU 311555Z AUTO 00000KT 10SM CLR 10/M06 A3002 RMK AO2", "KBEA 311555Z AUTO 11006KT 10SM CLR 22/14 A3004 RMK AO2 T02210137", "KBEC 311535Z AUTO 30005KT 10SM CLR 13/01 A3002 RMK AO2 T01270011", "KBED 311551Z 21010KT 180V250 10SM SCT037 17/11 A3004 RMK AO2 SLP186 T01720106", "KBEH 311553Z AUTO 12003KT 1SM BR OVC002 14/13 A2982 RMK AO2 SLP099 T01440133", "KBFD 311553Z AUTO 17004KT 10SM FEW018 OVC075 12/08 A2998 RMK AO2 RAB1455E37 SLP151 P0001 T01220083", "KBFF 311553Z AUTO 00000KT 10SM CLR 09/M05 A2998 RMK AO2 SLP150 T00891050", "KBFI 311553Z 17014G21KT 10SM BKN020 BKN029 OVC070 12/11 A2979 RMK AO2 SLP087 T01220106", "KBFL 311554Z AUTO 00000KT 6SM HZ CLR 14/01 A2997 RMK AO2 SLP147 T01440011", "KBFM 311553Z 13005KT 10SM CLR 22/14 A3007 RMK AO2 SLP183 T02170144", "KBGD 311551Z AUTO 16003KT 10SM CLR 14/05 A3009 RMK AO2 SLP170 T01440050", "KBGE 311535Z AUTO 26005KT 10SM SCT023 BKN038 OVC060 24/18 A3004 RMK AO2 T02360176", "KBGF 311555Z AUTO 22004KT 10SM OVC050 17/14 A3000 RMK A01", "KBGM 311553Z 21006KT 10SM BKN070 12/07 A3000 RMK AO2 SLP163 T01170072", "KBGR 311553Z 20007KT 10SM FEW120 SCT250 15/06 A3001 RMK AO2 SLP160 T01500056", "KBHB 311556Z AUTO 19014KT 10SM CLR 15/10 A3002 RMK AO2 SLP168 T01500100 PNO $", "KBHC 311535Z AUTO 18007KT 10SM BKN015 OVC020 25/20 A3004 RMK AO2", "KBHK 311551Z AUTO 24011KT 10SM CLR 11/M02 A2982 RMK AO2 SLP101 T01061022", "KBHM 311553Z 25005KT 10SM FEW024 BKN044 OVC050 17/14 A3006 RMK AO2 SLP173 T01720139", "KBID 311556Z AUTO 20004KT 7SM OVC011 14/13 A3009 RMK AO2 SLP190 T01440128", "KBIE 311535Z AUTO 29004KT 10SM CLR 10/03 A2999 RMK AO2 T01000033", "KBIF 311455Z AUTO 26007KT 10SM CLR 11/M00 A3005 RMK AO2 SLP144 T01111004 52013 $", "KBIH 311456Z AUTO 31004KT 10SM CLR 01/M09 A3010 RMK AO2 SLP186 T00061094 55001", "KBIJ 311535Z AUTO 00000KT 10SM OVC035 21/15 A3004 RMK AO2", "KBIL 311553Z 24016KT 10SM FEW110 SCT200 09/M03 A2984 RMK AO2 SLP102 ACSL DSNT SW-NE T00891033", "KBIS 311552Z 00000KT 10SM CLR 08/M01 A2979 RMK AO2 SLP101 T00831011", "KBIV 311553Z AUTO 19003KT 3SM BR OVC003 13/13 A2984 RMK AO2 SLP105 T01330128", "KBIX 311555Z AUTO 00000KT 10SM CLR 21/16 A3004 RMK AO2 SLP175 T02100155", "KBJC 311548Z 16005KT 10SM FEW150 10/M05 A3004", "KBJI 311535Z AUTO 00000KT 10SM CLR 08/01 A2976 RMK AO2 T00830005", "KBJJ 311551Z AUTO 20006KT 7SM OVC006 16/14 A2992 RMK AO2 CIG 004V009", "KBKB 311552Z AUTO 00000KT 10SM CLR 23/14 A3004 RMK AO2 RAB21E30 SLP199 P0000 T02280139", "KBKD 311555Z AUTO 00000KT 7SM CLR 21/10 A3007 RMK AO2 T02050097", "KBKE 311553Z AUTO 21006KT 10SM CLR 08/01 A2997 RMK AO2 SLP151 T00780011", "KBKF 311458Z 20007KT 10SM FEW140 FEW220 07/M05 A3004 RMK AO2A SLP159 T00681055 53007", "KBKL 311553Z 17008KT 10SM SCT012 BKN060 BKN075 18/14 A2988 RMK AO2 SLP116 T01780144", "KBKS 311555Z AUTO 07005KT 10SM BKN070 OVC090 22/18 A3000 RMK AO2 SLP121 T02220176 $", "KBKT 311555Z AUTO 19005KT 10SM BKN038 OVC045 19/13 A3010 RMK AO1 T01870130", "KBKV 311553Z VRB04KT 10SM CLR 28/20 A3003 RMK AO2 SLP167 T02830200", "KBKW 311551Z AUTO 14006KT 1 1/2SM -RA BR BKN025 BKN030 OVC036 13/13 A3004 RMK AO2 SLP162 P0005 T01330128", "KBKX 311535Z AUTO 16007KT 3SM HZ 08/01 A2987 RMK AO2 RAB1457RAEMM P0000 $", "KBLF 311552Z AUTO 00000KT 1 1/2SM -RA BR FEW006 BKN033 OVC046 13/12 A3006 RMK AO2 RAB15 SLP162 P0003 T01330122", "KBLH 311552Z AUTO 00000KT 10SM CLR 17/M01 A2996 RMK AO2 SLP142 T01721006 TSNO", "KBLI 311553Z 18012G21KT 10SM -RA BKN032 OVC044 12/11 A2971 RMK AO2 SLP066 P0003 T01170111", "KBLM 311556Z AUTO 24006KT 10SM CLR 18/12 A3009 RMK AO2 SLP189 T01780117", "KBLU 311552Z AUTO 00000KT 10SM CLR 11/M03 A3011 RMK AO2 SLP147 T01061028", "KBLV 311555Z 23006KT 5SM BR OVC009 14/12 A2988 RMK AO2A OVC V BKN SLP121 T01410123 CHINO RWY14R $", "KBMC 311530Z AUTO 10SM CLR 02/M02 A3018 RMK AO1 T00201017", "KBMG 311553Z 20007KT 1 1/2SM -RA BR OVC006 15/14 A2987 RMK AO2 SLP113 P0003 T01500139", "KBMI 311556Z 00000KT 1SM R20/P6000FT RA BR BKN004 BKN024 OVC033 13/13 A2985 RMK AO2 SLP104 P0014 T01280128", "KBML 311552Z AUTO 34004KT 10SM CLR 14/M01 A2998 RMK AO2 SLP162 T01441006", "KBMQ 311553Z AUTO 20004KT 10SM CLR 19/12 A3010 RMK AO2 SLP184 T01940117 $", "KBMT 311535Z AUTO 00000KT 10SM CLR 20/14 A3007 RMK AO2 T02020137", "KBNA 311553Z 21006KT 10SM BKN015 BKN045 BKN060 17/13 A2999 RMK AO2 SLP152 T01720128", "KBNL 311555Z AUTO 15007KT 10SM FEW007 SCT013 22/19 A3004 RMK AO2", "KBNO 311553Z AUTO 00000KT 10SM CLR 04/M03 A3003 RMK AO2 SLP183 T00391028", "KBNW 311555Z AUTO 34005KT 10SM CLR 12/03 A2994 RMK AO2", "KBOI 311553Z 00000KT 10SM BKN070 05/01 A3005 RMK AO2 SLP180 T00500006", "KBOK 311556Z AUTO 16003KT 10SM CLR 07/07 A3004 RMK AO2 SLP174 T00720072 $", "KBOS 311554Z 26012KT 10SM FEW025 SCT040 BKN250 17/11 A3006 RMK AO2 SLP178 T01720111", "KBOW 311545Z 10005KT 10SM SCT023 28/22 A3003", "KBPG 311535Z AUTO 00000KT 10SM CLR 16/08 A3009 RMK AO2 T01570077", "KBPI 311553Z AUTO 27003KT 10SM CLR 01/M05 A3013 RMK AO2 SLP201 T00111050", "KBPK 311453Z AUTO 33004KT 10SM FEW011 15/12 A2997 RMK AO2 SLP144 T01500117 51014", "KBPT 311553Z 29003KT 10SM CLR 23/14 A3006 RMK AO2 SLP178 T02280144", "KBQK 311535Z AUTO 14010KT 10SM SCT024 27/20 A3004 RMK AO2 T02710196", "KBQP 311535Z AUTO 24006KT 10SM CLR 20/13 A3005 RMK AO2 T01990134", "KBQX 311535Z AUTO 08007KT 040V110 10SM CLR 23/15 A3007 RMK A01", "KBRD 311553Z AUTO 20006KT 10SM CLR 11/00 A2982 RMK AO2 SLP108 T01110000", "KBRG 311555Z AUTO 00000KT 10SM CLR 10/M06 A3017 RMK AO2 T00981064", "KBRL 311553Z AUTO 31005KT 7SM CLR 12/08 A2988 RMK AO2 SLP119 T01220078", "KBRO 311553Z 11010KT 10SM OVC060 26/17 A2999 RMK AO2 SLP152 T02610172", "KBRY 311555Z AUTO 20008KT 10SM FEW014 SCT025 18/15 A2992 RMK AO2 FEW V SCT T01810146", "KBTA 311555Z AUTO 27004KT 10SM CLR 12/02 A2996 RMK AO2 T01150020", "KBTL 311553Z 00000KT 1/4SM R23/1800V2400FT FG VV002 14/13 A2984 RMK AO2 SLP106 T01390133", "KBTM 311553Z AUTO 10SM OVC065 08/M01 A2992 RMK AO2 SLP114 T00831006", "KBTN 311555Z AUTO 19011KT 10SM CLR 12/M01 A2980 RMK AO2", "KBTP 311556Z AUTO 16004KT 8SM OVC003 12/12 A2997 RMK AO2 RAE26 SLP156 P0000 T01220122 TSNO", "KBTR 311553Z VRB05KT 10SM FEW037 23/14 A3007 RMK AO2 SLP180 T02330139", "KBTV 311554Z 19010KT 10SM FEW070 SCT110 BKN240 16/01 A2999 RMK AO2 SLP156 T01560011", "KBUF 311554Z 15007KT 9SM -RA BKN013 BKN037 OVC050 12/11 A2993 RMK AO2 SLP137 P0003 T01170106 $", "KBUR 311553Z 00000KT 10SM CLR 18/M01 A2994 RMK AO2 SLP126 T01781006", "KBUU 311535Z AUTO 36004KT 10SM OVC026 13/11 A2985 RMK AO2 T01270107 PWINO", "KBUY 311554Z AUTO 14006KT 10SM BKN021 OVC035 19/14 A3007 RMK AO2 SLP177 T01940144", "KBVI 311555Z AUTO 17004KT 2SM BR OVC002 15/13 A2995 RMK AO2 T01450130", "KBVN 311535Z AUTO 13003KT 10SM CLR 08/02 A2993 RMK AO2 T00840023", "KBVO 311553Z AUTO VRB04KT 10SM CLR 17/08 A3003 RMK AO2 SLP162 T01720083", "KBVS 311535Z AUTO 11006KT 10SM BKN012 BKN020 OVC070 11/11 A2974 RMK A01", "KBVU 311555Z AUTO 19003KT 10SM CLR 15/M07 A3006 RMK AO2", "KBVX 311556Z AUTO VRB04KT 10SM FEW018 17/12 A2999 RMK AO2 SLP156 T01720122", "KBVY 311553Z 22008KT 10SM CLR 17/11 A3004 RMK AO2 SLP168 T01670106", "KBWG 311553Z AUTO 23009KT 10SM BKN018 OVC024 19/14 A2995 RMK AO2 SLP137 T01890139", "KBWI 311554Z 22004KT 5SM -RA BR SCT014 BKN025 OVC050 16/13 A3007 RMK AO2 RAE17B44 SLP181 P0001 T01560133 $", "KBWP 311555Z AUTO 20007KT 10SM CLR 11/00 A2978 RMK AO2", "KBWW 311555Z AUTO 27012KT 10SM CLR 10/M02 A2981 RMK AO2", "KBXA 311555Z AUTO 29004KT 10SM SCT030 BKN038 BKN047 22/14 A3008 RMK AO2 T02190143", "KBXK 311555Z AUTO 35005KT 10SM CLR 16/M00 A2999 RMK A01", "KBYG 311553Z AUTO 17008KT 10SM CLR 13/M07 A2989 RMK AO2 SLP100 T01331067", "KBYI 311553Z AUTO 08003KT 10SM CLR 07/M01 A3009 RMK AO2 SLP186 T00721006", "KBYL 311535Z AUTO 00000KT 10SM FEW018 SCT023 OVC037 16/15 A2999 RMK AO1", "KBYS 311555Z AUTO 00000KT 8SM CLR 10/M10 A3001 RMK AO2 SLP154 T00961100 $", "KBYY 311535Z AUTO 00000KT 10SM CLR 22/14 A3007 RMK AO2 T02190145", "KBZN 311456Z 08005KT 10SM OVC070 05/01 A2991 RMK AO2 SLP140 T00500006 55005", "KC07 311555Z AUTO 25004KT 10SM CLR M01/M07 A3025 RMK AO2", "KC09 311555Z AUTO 00000KT 1/2SM FG OVC001 13/13 A2983 RMK AO2 T01300130", "KC29 311555Z AUTO 00000KT 10SM CLR 15/07 A2986 RMK AO1 T01460069", "KC35 311535Z AUTO 00000KT 10SM CLR 09/05 A2987 RMK AO2 T00940053 PWINO", "KC65 311535Z AUTO VRB05KT 2SM BR 15/15 A2982 RMK A01", "KC75 311535Z AUTO 33004KT 2 1/2SM OVC005 12/12 A2985 RMK AO2 T01230123 PWINO", "KC83 311555Z AUTO 00000KT 10SM CLR 12/08 A2999 RMK AO2", "KC99 311531Z AUTO 31012G19KT 10SM CLR M02/M16 A3021 RMK AO2", "KCAD 311555Z AUTO 00000KT 10SM CLR 13/06 A2984 RMK AO2 T01280061", "KCAE 311521Z 13005KT 2 1/2SM BR OVC003 17/16 A3005 RMK AO2 T01720161", "KCAG 311553Z AUTO 00000KT 10SM CLR M01/M03 A3021 RMK AO2 SLP252 T10061033", "KCAK 311551Z 21012KT 2SM BR OVC003 16/14 A2992 RMK AO2 SFC VIS 3 SLP131 T01560139", "KCAO 311455Z AUTO 25009KT 10SM CLR 10/01 A3007 RMK AO2 SLP158 T01000006 53005", "KCAR 311554Z AUTO VRB03KT 10SM CLR 14/00 A2997 RMK AO2 SLP155 T01440000", "KCAV 311535Z AUTO 00000KT 10SM CLR 09/04 A2992 RMK A01", "KCBE 311535Z AUTO 00000KT 10SM -RA SCT017 BKN070 OVC085 09/07 A3009 RMK AO2 T00860068", "KCBG 311555Z AUTO 00000KT 10SM CLR 12/01 A2986 RMK AO2", "KCBK 311535Z AUTO 25009KT 10SM CLR 14/M04 A3002 RMK AO2 T01361039", "KCBM 311540Z 22005KT 10SM FEW012 SCT026 BKN032 BKN065 18/15 A3005 RMK AO2A SLP258 ALSTG/SLP ESTMD TSNO $", "KCCA 311555Z AUTO 00000KT 10SM CLR 16/14 A3001 RMK AO2", "KCCB 311455Z AUTO 06003KT 10SM CLR 18/M05 A2994 RMK AO2", "KCCO 311535Z AUTO 00000KT 10SM SCT014 SCT024 BKN050 20/16 A3003 RMK AO2 T01980162", "KCCR 311553Z 00000KT 10SM CLR 11/08 A2999 RMK AO2 SLP140 T01110083", "KCCU 311535Z AUTO 00000KT 10SM CLR M01/M21 A3028 RMK AO2", "KCCY 311555Z AUTO 00000KT 9SM CLR 11/06 A2990 RMK AO2", "KCDA 311555Z AUTO 11004KT 10SM 10/M02 A3001 RMK AO2 T00971025", "KCDC 311553Z AUTO 00000KT 10SM CLR 04/M02 A3019 RMK AO2 SLP212 T00441017", "KCDD 311535Z AUTO 19005KT 10SM CLR 09/M02 A2976 RMK AO2", "KCDH 311555Z AUTO 35003KT 8SM CLR 19/16 A3004 RMK AO2", "KCDI 311555Z AUTO 21006KT 10SM OVC007 16/15 A2994 RMK AO2 T01640151", "KCDJ 311551Z AUTO VRB04KT 17/06 A2995 RMK AO1 SLP138 T01720061", "KCDN 311555Z AUTO 00000KT 9SM BKN011 BKN028 BKN037 20/18 A3006 RMK AO2", "KCDR 311553Z AUTO 25007KT 10SM CLR 11/M06 A2993 RMK AO2 SLP149 T01111061", "KCDS 311553Z AUTO 36003KT 10SM CLR 16/07 A3008 RMK AO2 SLP177 T01560067", "KCDW 311553Z 24005KT 10SM CLR 14/08 A3009 RMK AO2 SLP193 T01440083", "KCEC 311515Z AUTO 00000KT 3SM BR CLR 07/06 A3004 RMK AO2 T00670056", "KCEF 311455Z 24006KT 10SM FEW040 BKN150 BKN250 13/08 A3005 RMK AO2A SLPNO T01290076", "KCEU 311554Z AUTO 04004KT 2 1/2SM -RA BR BKN004 BKN011 OVC017 14/14 A3006 RMK AO2 SLP176 P0001 T01440139", "KCEW 311553Z AUTO 32006KT 10SM CLR 23/13 A3006 RMK AO2 SLP177 T02280133", "KCEY 311555Z AUTO 22008KT 8SM BKN013 BKN024 OVC036 16/15 A2995 RMK A01", "KCEZ 311553Z AUTO 00000KT 10SM CLR 04/M03 A3018 RMK AO2 SLP207 T00441033", "KCFD 311535Z AUTO 30003KT 10SM CLR 18/14 A3009 RMK AO2 T01830136", "KCFE 311555Z AUTO 00000KT 10SM CLR 11/02 A2987 RMK AO2", "KCFJ 311555Z AUTO 22010G16KT 10SM OVC007 14/11 A2985 RMK AO2 T01370109", "KCFO 311447Z 21008KT 10SM SKC 08/M08 A3005", "KCFS 311535Z AUTO 00000KT 4SM BR SCT002 BKN010 OVC075 12/11 A2985 RMK AO2 T01170105", "KCFV 311552Z AUTO 25004KT 10SM CLR 18/07 A3000 RMK AO2 SLP156 T01780072", "KCGC 311555Z AUTO 23003KT 10SM CLR 27/19 A3003 RMK AO2", "KCGE 311535Z AUTO VRB07G12KT 10SM SCT060 BKN070 19/14 A3010 RMK A01", "KCGF 311545Z 20011KT 10SM OVC009 16/14 A2989", "KCGI 311553Z 28009KT 10SM BKN008 BKN022 OVC049 16/13 A2992 RMK AO2 SLP131 T01610133", "KCGS 311535Z AUTO 21003KT 10SM -RA BKN024 BKN029 OVC049 16/13 A3008 RMK AO2 T01550132", "KCGZ 311556Z AUTO 17005KT 10SM CLR 14/01 A3000 RMK AO2 SLP155 T01440006 $", "KCHA 311553Z 18006KT 10SM SCT011 BKN048 OVC055 18/16 A3002 RMK AO2 SLP161 BINOVC T01780156 $", "KCHD 311447Z 05005KT 10SM CLR 11/04 A2997", "KCHK 311530Z AUTO 00000KT 10SM CLR 12/08 A3004 RMK AO2 T01190083", "KCHS 311456Z 12006KT 10SM FEW010 SCT035 BKN120 25/21 A3005 RMK AO2 SLP176 T02500206 51007 $", "KCIC 311515Z AUTO 05005KT 10SM CLR 14/01 A3000 RMK AO1", "KCID 311552Z 33008KT 5SM HZ CLR 13/07 A2989 RMK AO2 SLP123 T01280067", "KCII 311540Z AUTO 22021G28KT 10SM 13/01 A2966 RMK A01 ", "KCIN 311535Z AUTO 29004KT 10SM CLR 12/05 A2993 RMK AO2", "KCIR 311555Z AUTO 27005KT 10SM BKN008 OVC017 17/15 A2992 RMK AO2 T01650152", "KCIU 311556Z AUTO 14006KT 10SM FEW120 11/07 A2985 RMK AO2 SLP111 T01110072", "KCJR 311555Z AUTO 20005KT 10SM SCT029 SCT044 OVC110 17/12 A3008 RMK AO2 T01710118", "KCKB 311553Z 19005KT 10SM BKN013 OVC019 18/15 A2999 RMK AO2 RAE20 SLP146 P0001 T01780150", "KCKC 311555Z AUTO 20006KT 10SM CLR 10/01 A2978 RMK AO2", "KCKF 311535Z AUTO 20006KT 7SM BKN006 OVC012 21/20 A3005 RMK AO2 T02140195", "KCKI 311555Z AUTO 16005KT 10SM SCT013 23/18 A3006 RMK AO2", "KCKM 311555Z AUTO 24006KT 10SM BKN015 BKN020 17/16 A3002 RMK A01", "KCKN 311535Z 19009KT 10SM 07/M02 A2974 RMK AO2", "KCKP 311535Z AUTO 00000KT 10SM CLR 07/00 A2994 RMK AO2 T00660003", "KCKV 311533Z AUTO 22007KT 9SM OVC010 17/14 A2995 RMK AO2 CIG 009V014 T01720139", "KCKZ 311555Z AUTO 18005KT 10SM CLR 14/12 A3008 RMK AO2", "KCLE 311551Z 20013KT 8SM -RA BKN012 OVC021 17/14 A2987 RMK AO2 RAB49 SLP129 P0000 T01720139", "KCLI 311555Z AUTO 00000KT 10SM CLR 12/07 A2987 RMK AO2 T01250073", "KCLK 311555Z AUTO 00000KT 10SM CLR 12/03 A3007 RMK AO2", "KCLL 311553Z 27005KT 10SM CLR 21/13 A3007 RMK AO2 SLP179 T02110133", "KCLM 311553Z AUTO 30012G20KT 10SM OVC060 11/07 A2977 RMK AO2 PK WND 31027/1504 RAE21 SLP083 P0002 T01060067", "KCLS 311555Z AUTO 18010KT 6SM -RA SCT031 BKN040 OVC055 12/11 A2985 RMK AO2", "KCLT 311452Z 12005KT 8SM BKN008 OVC011 16/14 A3007 RMK SLP177 60001 T01560139 51001 $", "KCLW 311555Z AUTO 00000KT 10SM SCT028 27/20 A3002 RMK AO2", "KCMA 311555Z AUTO 10004KT 10SM CLR 15/05 A2993 RMK AO2 SLP142 T01500050", "KCMD 311535Z AUTO 20007KT 9SM OVC055 17/16 A3004 RMK AO2", "KCMH 311551Z 19012G17KT 10SM BKN018 BKN025 OVC034 18/15 A2991 RMK AO2 SLP126 T01780150", "KCMI 311553Z 23012KT 1/2SM R32R/P6000FT BR OVC002 13/13 A2984 RMK AO2 SFC VIS 1 3/4 SLP105 T01330133", "KCMR 311555Z AUTO 00000KT 10SM CLR 08/M07 A3018 RMK AO2", "KCMX 311553Z AUTO 25004KT 10SM CLR 13/05 A2980 RMK AO2 SLP098 T01280050", "KCMY 311458Z AUTO 00000KT 9SM CLR 07/05 A2989 RMK AO2 SLP131 T00670053 51004 $", "KCNB 311555Z AUTO 23010G15KT 10SM CLR 15/01 A2986 RMK AO2 T01460005", "KCNC 311535Z AUTO 30005KT 10SM CLR 12/07 A2993 RMK AO2", "KCNI 311535Z AUTO 15004KT 10SM OVC003 15/14 A3005 RMK AO2 T01460144", "KCNK 311555Z AUTO 28005KT 10SM CLR 13/02 A3000 RMK AO2 SLP158 T01330022", "KCNM 311553Z AUTO 34006KT 10SM CLR 14/04 A3008 RMK AO2 SLP159 T01390044", "KCNO 311553Z 00000KT 10SM SCT200 16/07 A2996 RMK AO2 SLP142 T01560067", "KCNU 311552Z AUTO 29006KT 10SM CLR 18/07 A3000 RMK AO2 SLP154 T01780067", "KCNW 311455Z 00000KT 10SM SKC 15/14 A3007", "KCNY 311553Z AUTO 14006KT 10SM CLR 07/00 A3015 RMK AO2 SLP210 T00670000", "KCOD 311556Z AUTO 24012G31KT 10SM CLR 12/M03 A2993 RMK AO2 PK WND 22031/1547 SLP116 T01171028", "KCOE 311556Z AUTO 21011KT 10SM OVC024 10/07 A2980 RMK AO2 RAB14E37 SLP108 T01000067 PNO $", "KCOF 311555Z AUTO 05005KT 10SM M 28/27 A2999 RMK AO2 SLP160 T02750273 $", "KCOM 311535Z AUTO 00000KT CLR 18/10 A3008 RMK AO2 T01750098 PWINO", "KCON 311551Z AUTO 10SM CLR 16/03 A3002 RMK AO2 SLP168 T01560033", "KCOQ 311555Z AUTO 21005KT 10SM CLR 12/M01 A2980 RMK AO2 TSNO", "KCOS 311554Z 34004KT 10SM FEW250 14/M08 A3007 RMK AO2 SLP149 T01391083", "KCOT 311553Z AUTO 10006KT 10SM CLR 24/14 A3003 RMK AO2 SLP161 T02390144", "KCOU 311554Z 28005KT 10SM FEW100 17/12 A2993 RMK AO2 SLP133 T01670117", "KCPC 311535Z AUTO 10005KT 10SM CLR 24/18 A3009 RMK AO2 T02350180", "KCPF 311555Z AUTO 22003KT 10SM -RA OVC014 16/15 A2999 RMK AO2", "KCPK 311555Z AUTO 12003KT 18/13 A3011 RMK AO2 T01820126", "KCPR 311553Z 21017KT 10SM CLR 07/M05 A3000 RMK AO2 PK WND 21026/1537 SLP149 T00721050", "KCPT 311555Z AUTO 00000KT 10SM CLR 19/12 A3008 RMK A01", "KCPU 311535Z AUTO 00000KT 10SM CLR 10/01 A3000 RMK AO2 T01010006", "KCPW 311535Z AUTO 27007KT 10SM CLR M02/M11 A3034 RMK AO2", "KCQB 311535Z AUTO 31004KT 10SM CLR 17/04 A3005 RMK AO2 T01690042", "KCQC 311553Z AUTO 27007KT 10SM CLR 10/M01 A3017 RMK AO2 SLP176 T01001011", "KCQF 311535Z AUTO 20003KT 10SM CLR 20/13 A3007 RMK AO2", "KCQM 311536Z AUTO 21006KT 10SM CLR 11/M02 A2976 RMK AO2", "KCQT 311547Z AUTO 00000KT 10SM CLR 17/05 A2994 RMK AO2 SLP136 T01720050", "KCQW 311555Z AUTO 15004KT 9SM FEW028 FEW034 SCT044 21/18 A3005 RMK AO2 PWINO", "KCQX 311552Z AUTO VRB03KT 10SM OVC023 17/14 A3009 RMK AO2 SLP192 T01670139", "KCRE 311553Z 09009KT 10SM CLR 22/19 A3007 RMK AO1 SLP184 T02170189", "KCRG 311553Z 14008KT 10SM SCT024 BKN041 28/21 A3003 RMK AO2 SLP169 T02780211", "KCRP 311551Z 09011G22KT 10SM FEW028 FEW070 FEW200 BKN250 26/17 A3002 RMK AO2 SLP164 T02610167", "KCRQ 311553Z AUTO 00000KT 10SM CLR 19/07 A2992 RMK AO2 SLP129 T01940072", "KCRS 311553Z AUTO 00000KT 10SM CLR 21/12 A3007 RMK AO2 SLP181 T02060122", "KCRW 311554Z 04003KT 2SM BR SCT006 BKN012 OVC025 17/16 A2998 RMK AO2 RAE17 SLP146 P0002 T01670161 $", "KCRX 311555Z AUTO 23007KT 10SM BKN013 OVC019 17/14 A2999 RMK AO2", "KCSG 311551Z 27006KT 10SM FEW024 OVC050 21/17 A3003 RMK AO2 SLP165 T02060167", "KCSM 311553Z 18004KT 10SM CLR 15/07 A3006 RMK AO2 SLP173 T01500072", "KCSQ 311555Z AUTO 32005KT 9SM CLR 13/05 A2994 RMK AO2", "KCSV 311453Z AUTO VRB05KT 10SM OVC040 14/13 A3002 RMK AO2 SLP157 T01390133 51012", "KCTB 311456Z AUTO 24016G25KT 10SM CLR 10/02 A2966 RMK AO2 SLP040 T01000017 56009", "KCTJ 311535Z AUTO 00000KT 10SM SCT009 BKN014 OVC030 17/15 A3008 RMK AO2 T01690153", "KCTY 311535Z AUTO 16006KT 10SM CLR 27/21 A3003 RMK AO2 T02680206", "KCTZ 311555Z AUTO 12004KT 10SM OVC060 21/18 A3009 RMK AO2 T02110177", "KCUB 311553Z AUTO VRB03KT 6SM BR OVC004 18/17 A3005 RMK AO2 SLP175 T01830172", "KCUH 311535Z AUTO 26003KT 10SM CLR 15/12 A3003 RMK AO2 T01540115", "KCUL 311536Z AUTO 26007KT BKN022 OVC039 16/14 A2990 RMK AO2 PWINO", "KCUT 311553Z AUTO 00000KT 10SM CLR 11/M10 A2993 RMK AO2 SLP124 T01061100", "KCVC 311555Z AUTO 00000KT 5SM BR OVC003 17/17 A3003 RMK AO2", "KCVG 311552Z 22008KT 8SM FEW014 BKN027 OVC040 17/14 A2991 RMK AO2 CIG 014 36R SLP122 T01670144", "KCVH 311555Z AUTO 00000KT M1/4SM FG OVC001 08/07 A3002 RMK A01", "KCVN 311556Z AUTO 23009KT 10SM CLR 14/06 A3011 RMK AO2 SLP185 T01440061", "KCVO 311556Z AUTO 19007KT 10SM OVC020 12/09 A2998 RMK AO2 SLP152 T01220094", "KCVS 311555Z AUTO 24004KT 10SM CLR 13/07 A3010 RMK AO2 SLP169 T01320074 $", "KCVX 311555Z AUTO 00000KT 10SM CLR 11/08 A2985 RMK AO2 T01070075", "KCWA 311547Z 00000KT 10SM CLR 13/06 A2986", "KCWC 311555Z AUTO 00000KT 10SM CLR 16/10 A3008 RMK AO2 T01600098", "KCWF 311554Z 31004KT 10SM CLR 22/14 A3007", "KCWI 311556Z AUTO 30004KT 6SM BR CLR 08/08 A2988 RMK AO2 SLP124 T00830083", "KCWN 311455Z AUTO 35004KT 10SM CLR 11/M08 A3001 RMK AO2 PRESRR SLP036 T01071080 53080 $", "KCWV 311535Z AUTO 23004KT 7SM SCT006 SCT013 23/21 A3005 RMK AO2 T02340207", "KCXE 311555Z AUTO 15006KT 10SM BKN048 18/13 A3009 RMK AO1 T01800132", "KCXO 311553Z 00000KT 10SM CLR 20/14 A3008 RMK AO2 SLP185 T02000139", "KCXP 311555Z AUTO 00000KT 10SM CLR 00/M09 A3014 RMK AO2", "KCXU 311555Z AUTO 21003KT 10SM SCT010 BKN024 24/19 A3003 RMK AO1 T02390186", "KCXW 311555Z AUTO 25005KT 10SM FEW015 18/14 A3001 RMK A01", "KCXY 311520Z 06004KT 8SM SCT012 14/09 A3007 RMK AO2 T01390094", "KCYD 311533Z AUTO 36005KT 1 1/2SM HZ SCT001 SCT026 26/16 A3007 RMK A02 VIS 3/4V5 T02590158", "KCYS 311553Z 28011G20KT 10SM CLR 12/M09 A3002 RMK AO2 SLP133 T01221094", "KCZL 311555Z AUTO 22003KT 7SM BKN007 BKN017 BKN027 17/16 A3005 RMK AO2", "KCZT 311535Z AUTO 14005KT 10SM CLR 20/14 A3003 RMK AO2", "KD07 311456Z AUTO 28010KT 08/M04 A2984 RMK AO1 SLP116 T00831039 53002 $", "KD25 311555Z AUTO 22003KT 10SM CLR 09/07 A2984 RMK AO2 T00860074", "KD39 311555Z AUTO 22006KT 10SM OVC002 12/00 A2985 RMK AO2 T01151001", "KD50 311555Z AUTO 24010KT 10SM CLR 10/01 A2971 RMK AO2", "KD55 311555Z AUTO 25011KT 10SM CLR 08/04 A2968 RMK AO2", "KD57 311555Z AUTO 26005KT 10SM CLR 09/M02 A2977 RMK AO2", "KD60 311555Z AUTO 24010KT 10SM CLR 07/01 A2974 RMK AO2", "KD73 311535Z AUTO 00000KT 3 1/2SM -RA BR OVC002 16/ A3005 RMK AO2 P0001 T0161////", "KD95 311555Z AUTO 00000KT 7SM OVC003 14/12 A2984 RMK AO2 T01370119 P0001", "KDAA 311555Z AUTO 00000KT 10SM FEW075 FEW095 16/13 A3005 RMK AO2 SLP179 T01620133 $", "KDAG 311550Z AUTO 28007KT 10SM CLR 13/M09 A3003 RMK AO2 SLP157 T01281089", "KDAL 311553Z 00000KT 9SM SCT170 BKN250 19/11 A3006 RMK AO2 SLP175 T01890111 $", "KDAN 311553Z AUTO 00000KT 10SM FEW031 19/12 A3007 RMK AO2 SLP176 T01890122", "KDAW 311551Z AUTO VRB06KT 10SM CLR 17/07 A3002 RMK AO2 SLP163 T01720067", "KDAY 311520Z 21010KT 10SM BKN011 OVC017 17/14 A2990 RMK AO2 T01670144", "KDBN 311535Z AUTO 00000KT 3SM BR OVC005 21/20 A3006 RMK AO2", "KDBQ 311553Z 34007KT 10SM CLR 14/07 A2988 RMK AO2 SLP120 T01440067", "KDCA 311552Z 18006KT 10SM FEW009 SCT024 OVC070 17/13 A3007 RMK AO2 RAB06E18DZB31E41 SLP183 P0000 T01670133", "KDCM 311555Z AUTO 16005KT 7SM OVC003 17/17 A3006 RMK AO2", "KDCU 311553Z AUTO 20006KT 10SM FEW011 OVC065 17/14 A3001 RMK AO2 SLP159 T01720144", "KDCY 311535Z AUTO 20007KT 3SM BR OVC005 15/15 A2988 RMK AO2 T01500150", "KDDC 311552Z AUTO 21005KT 9SM CLR 14/M01 A3003 RMK AO2 SLP167 T01391011", "KDDH 311454Z AUTO 18008KT 10SM CLR 15/05 A3004 RMK AO2 SLP174 T01500050 58005", "KDEC 311554Z 25009KT 7SM OVC004 13/13 A2986 RMK AO2 SLP109 T01330133", "KDED 311535Z AUTO 12006KT 10SM SCT027 SCT048 SCT055 28/21 A3004 RMK AO2 T02760210", "KDEH 311555Z AUTO 00000KT 10SM CLR 11/06 A2987 RMK AO2", "KDEN 311553Z 22008KT 10SM FEW150 FEW220 11/M06 A3003 RMK AO2 SLP143 T01111061", "KDEQ 311553Z AUTO 00000KT 1/4SM FG VV002 13/12 A3004 RMK AO2 SLP169 T01280122", "KDET 311553Z 00000KT 1 3/4SM BR OVC004 16/14 A2985 RMK AO2 RAB29E43 SLP107 P0000 T01560139", "KDEW 311553Z AUTO 18009KT 10SM OVC017 10/06 A2978 RMK AO2 SLP085 T01000061", "KDFI 311553Z AUTO 20008KT 2SM -RA BR BKN005 BKN011 OVC018 16/15 A2985 RMK AO2 RAB26 SLP107 P0007 T01610150", "KDFW 311553Z 00000KT 10SM BKN250 18/11 A3005 RMK AO2 SLP171 T01830106", "KDGW 311553Z AUTO 00000KT 10SM CLR 10/M06 A2998 RMK AO2 SLP149 T01001061 $", "KDHN 311553Z 33004KT 10SM OVC043 21/17 A3007 RMK AO2 SLP179 T02060167", "KDHT 311553Z AUTO 22005KT 10SM CLR 16/03 A3008 RMK AO2 SLP157 T01560033 $", "KDIJ 311556Z AUTO 16009KT 10SM CLR 06/M03 A3015 RMK AO2 SLP222 T00611028", "KDIK 311456Z AUTO 26007KT 10SM CLR 06/M02 A2977 RMK AO2 SLP094 T00561017 53003", "KDKB 311535Z AUTO 35004KT 2 1/2SM BR OVC005 11/11 A2985 RMK AO2 T01130113", "KDKK 311553Z AUTO VRB03KT 10SM FEW043 BKN050 BKN070 15/12 A2991 RMK AO2 RAB10E43 SLP129 P0000 T01500117", "KDKR 311535Z AUTO 00000KT 10SM CLR 17/15 A3007 RMK AO2", "KDKX 311555Z AUTO 29003KT 10SM 18/16 A3000 RMK A01", "KDLF 311555Z 13006KT 10SM SCT220 19/14 A3002 RMK AO2A SLP160 T01920142 $", "KDLH 311555Z 24009KT 10SM CLR 13/00 A2981 RMK AO2 SLP104 T01330000", "KDLL 311555Z AUTO 00000KT 10SM CLR 10/05 A2986 RMK AO2 T01040054", "KDLN 311553Z AUTO 21010KT 10SM FEW065 07/M01 A2995 RMK AO2 SLP132 T00671006", "KDLO 311535Z AUTO 00000KT 10SM CLR 06/01 A2999 RMK AO2 T00580010", "KDLS 311553Z AUTO 00000KT 10SM SCT018 SCT024 OVC046 14/09 A2987 RMK AO2 SLP116 T01390094", "KDLZ 311555Z AUTO 19012KT 10SM SCT014 BKN020 OVC065 17/14 A2990 RMK AO2", "KDMA 311555Z AUTO 18006KT 10SM CLR 15/M02 A3000 RMK AO2 SLP179 T01531017 $", "KDMH 311554Z AUTO 16/12 A3008 RMK AO1 SLP185 P0001 T01610122 ", "KDMN 311553Z AUTO 07004KT 10SM CLR 13/M01 A3009 RMK AO2 SLP150 T01331006", "KDMO 311553Z AUTO 29006KT 10SM CLR 16/08 A2996 RMK AO2 SLP143 T01610083", "KDMW 311535Z AUTO 21007KT 5SM -RA SCT013 BKN020 OVC050 14/13 A3008 RMK AO2", "KDNA 311555Z AUTO 00000KT 10SM CLR 15/01 A3009 RMK AO2", "KDNL 311553Z AUTO 18005KT 5SM BR OVC003 19/18 A3005 RMK AO2 CIG 002V006 SLP172 T01890183", "KDNN 311555Z AUTO VRB03KT 8SM OVC007 16/15 A3003 RMK AO2 CIG 004V009 T01630153", "KDNS 311535Z AUTO 00000KT 07/07 A2996 RMK AO2", "KDNV 311535Z AUTO 22008KT 5SM BR OVC003 14/13 A2984 RMK AO2 P0001 T01400133", "KDOV 311555Z AUTO 20005KT 10SM FEW026 SCT100 18/11 A3007 RMK AO2 VIS 2 1/2 RWY14 VIS 2 1/2 RWY19 SLP186 T01790110", "KDPA 311552Z 36006KT 1SM R02L/P6000FT BR OVC003 13/12 A2983 RMK AO2 SLP103 T01280117", "KDPG 311500Z 12003KT 50SM FEW350 M01/M06 A3020 RMK SLP231 T10061065 53002", "KDPL 311535Z AUTO 09003KT 7SM BKN037 OVC065 21/16 A3011 RMK AO2", "KDQH 311535Z AUTO 19005KT 10SM OVC008 23/20 A3006 RMK AO2 T02270201", "KDRA 311553Z AUTO 06004KT 10SM CLR 15/M09 A3007 RMK AO2 SLP157 T01501094", "KDRI 311555Z AUTO 00000KT 7SM CLR 20/15 A3009 RMK AO2 T02020152 $", "KDRM 311555Z AUTO 12004KT 10SM CLR 12/08 A2985 RMK AO2 T01150076", "KDRO 311553Z AUTO VRB03KT 10SM CLR 04/M04 A3018 RMK AO2 SLP223 T00391039", "KDRT 311553Z AUTO 11007KT 10SM CLR 18/13 A3004 RMK AO2 SLP168 T01830133", "KDSF 311535Z AUTO 00000KT 10SM OVC036 24/16 A3006 RMK A01", "KDSM 311554Z 00000KT 10SM FEW150 BKN250 12/04 A2994 RMK AO2 SLP139 T01170044 $", "KDSV 311554Z AUTO 13004KT 10SM FEW055 SCT070 SCT110 15/07 A2995 RMK AO2 SLP153 T01500067", "KDTA 311555Z AUTO 00000KT 10SM CLR 02/M02 A3019 RMK AO1", "KDTL 311555Z AUTO 22010G15KT 10SM CLR 11/M00 A2978 RMK AO2", "KDTN 311553Z AUTO VRB03KT 10SM CLR 19/14 A3006 RMK AO2 SLP177 T01940139", "KDTO 311553Z 00000KT 10SM CLR 17/12 A3007 RMK AO2 SLP180 T01720117", "KDTS 311553Z 01005KT 10SM CLR 24/14 A3004 RMK AO2 SLP173 T02440139", "KDTW 311553Z 21003KT 2SM BR OVC003 14/14 A2985 RMK AO2 SFC VIS 2 1/2 RAE50 SLP108 P0001 T01440139 $", "KDUA 311555Z AUTO 32003KT 10SM CLR 20/10 A3007 RMK AO2", "KDUB 311537Z AUTO 34015KT 10SM CLR 05/M06 A3004 RMK AO2", "KDUC 311535Z AUTO 18003KT 10SM CLR 15/10 A3008 RMK AO2 T01510103", "KDUH 311555Z AUTO 21004KT 1 1/4SM BR OVC005 16/15 A2985 RMK AO2 T01590150", "KDUJ 311553Z AUTO 12007KT 2 1/2SM BR FEW005 BKN017 OVC022 11/09 A2997 RMK AO2 SLP153 T01060089", "KDUX 311535Z AUTO 22008KT 10SM CLR 15/04 A3008 RMK AO2 T01450038", "KDVK 311530Z AUTO 00000KT 10SM BKN014 BKN019 OVC055 16/14 A2997 RMK AO2", "KDVL 311556Z AUTO 25011KT 10SM CLR 09/01 A2972 RMK AO2 SLP085 T00940011", "KDVN 311552Z AUTO 31003KT 8SM CLR 11/06 A2989 RMK AO2 SLP121 T01060061", "KDVO 311535Z AUTO 00000KT 10SM OVC007 11/10 A2999 RMK AO2", "KDVP 311553Z AUTO 20006KT 10SM CLR 12/00 A2990 RMK AO2 T01220000", "KDVT 311553Z 00000KT 10SM CLR 17/M02 A2998 RMK AO2 SLP140 T01721017", "KDWA 311535Z AUTO 01005KT 10SM CLR 09/06 A3001 RMK AO2", "KDWH 311553Z 00000KT 10SM CLR 22/14 A3007 RMK AO2 SLP183 T02220139 $", "KDWU 311556Z AUTO 19006KT 10SM BKN013 OVC020 18/18 A2996 RMK AO2 SLP145 T01830178", "KDWX 311530Z AUTO 10SM CLR M08/M11 A3022 RMK AO2 T10771107", "KDXR 311453Z 25008KT 10SM CLR 15/08 A3008 RMK AO2 SLP187 T01500083 58004", "KDXX 311555Z AUTO 21006KT 10SM CLR 13/02 A2986 RMK AO2", "KDYA 311555Z AUTO 21004KT 7SM OVC050 19/16 A3005 RMK AO2 T01880156", "KDYB 311555Z AUTO 17007KT 10SM CLR 25/22 A3004 RMK AO2", "KDYL 311554Z AUTO 22005KT 10SM FEW028 14/11 A3007 RMK AO2 SLP184 T01440106", "KDYR 311556Z AUTO 24008KT 10SM BKN015 OVC041 17/16 A2997 RMK AO2 SLP153 T01720161", "KDYS 311555Z 00000KT 10SM CLR 17/09 A3005 RMK AO2A SLP156 T01680085", "KDYT 311555Z AUTO 21010KT 10SM CLR 10/01 A2981 RMK AO2", "KDZB 311555Z AUTO 10SM CLR 20/12 A3008 RMK AO2 T01980118", "KDZJ 311535Z AUTO 15003KT 10SM OVC020 17/15 A3006 RMK AO2 T01660145", "KE11 311535Z AUTO 13003KT 10SM CLR 15/07 A3010 RMK AO2 T01520073", "KE16 311535Z AUTO 00000KT 7SM CLR 08/07 A3002 RMK AO2", "KE38 311535Z AUTO 00000KT 10SM SCT120 14/06 A3014 RMK AO2 T01370061", "KE41 311535Z AUTO 17007KT 10SM CLR 15/08 A3009 RMK AO2 T01500080", "KE42 311535Z AUTO 21007KT 10SM CLR 12/04 A3007 RMK AO2 T01160044", "KEAN 311530Z AUTO 26014G21KT 10SM CLR 12/M07 A2999 RMK AO2 T01161067", "KEAR 311556Z AUTO 21008KT 10SM CLR 11/00 A2996 RMK AO2 SLP148 T01110000", "KEAT 311555Z AUTO 26004KT 10SM OVC095 10/06 A2978 RMK AO2 RAB1456E08 SLP083 P0000 T01000061", "KEAU 311456Z 00000KT 4SM BR CLR 05/04 A2987 RMK AO2 SLP121 I3000 T00500039 53004", "KEBA 311535Z AUTO 00000KT 7SM -RA OVC004 16/16 A3005 RMK AO2 P0001 T01590156", "KEBG 311535Z AUTO 07005KT 10SM OVC060 24/18 A3000 RMK AO2 T02360178 PWINO", "KEBS 311535Z AUTO 31007KT 10SM CLR 11/04 A2991 RMK AO2", "KECG 311554Z 00000KT 10SM OVC050 19/14 A3012 RMK AO2 SLP198 T01940139", "KECP 311553Z 35005KT 10SM OVC038 22/15 A3004 RMK AO1 SLP182 T02170150", "KECS 311555Z AUTO 15003KT 10SM CLR 06/M09 A2995 RMK AO2", "KECU 311535Z AUTO 14011KT 10SM FEW008 18/13 A3013 RMK AO2", "KEDC 311535Z AUTO 00000KT 10SM CLR 18/13 A3006 RMK AO2", "KEDE 311555Z AUTO 11005KT 10SM SCT048 OVC060 20/16 A3012 RMK AO2 T02010155", "KEDN 311555Z AUTO 31004KT 10SM CLR 20/13 A3005 RMK AO2 T02000131", "KEDU 311555Z AUTO 35003KT 10SM CLR 09/07 A3000 RMK AO1", "KEDW 311555Z 00000KT 90SM SCT250 06/M12 A3003 RMK AO2A SLP169 CONTRAILS T00621119", "KEED 311456Z AUTO 33007KT 10SM CLR 19/M04 A2998 RMK AO2 SLP130 T01891044 51012", "KEEN 311556Z AUTO 17005KT 10SM CLR 14/05 A3003 RMK AO2 SLP177 T01390050 $", "KEEO 311553Z AUTO VRB03KT 10SM CLR 02/M05 A3020 RMK AO2 SLP232 T00171050", "KEET 311553Z AUTO 21004KT 8SM FEW028 OVC050 18/14 A3004 RMK AO2 SLP170 T01780144", "KEFK 311555Z AUTO 15004KT 10SM CLR 15/M04 A2999 RMK AO2 T01531042", "KEFT 311555Z AUTO 04006KT 10SM CLR 14/06 A2986 RMK AO2 T01350056", "KEGE 311556Z 00000KT 10SM CLR M02/M04 A3027 RMK AO2 SLP152 T10171044", "KEGI 311555Z AUTO 31008KT 10SM CLR 22/13 A3004 RMK AO2 SLP172 T02200128 $", "KEGT 311535Z AUTO 31005KT 10SM CLR 14/03 A3004 RMK AO2 T01410029", "KEHA 311535Z AUTO 24011KT 10SM CLR 16/01 A3006 RMK AO2 T01570008", "KEHO 311555Z AUTO 33004KT 1 1/2SM +RA OVC003 14/14 A3007 RMK AO2 P0005 T01350135", "KEHR 311556Z AUTO 21008KT 9SM OVC009 16/15 A2991 RMK AO2 RAB13E42 CIG 007V012 SLP129 P0000 T01610150", "KEIK 311555Z AUTO 00000KT 10SM CLR 10/M03 A3003 RMK AO2 T00951031 PWINO", "KEKM 311555Z 16003KT 6SM -RA BR OVC002 14/14 A2984 RMK AO2 CIG 001V003 P0000 T01420142", "KEKN 311551Z AUTO 00000KT 10SM BKN023 BKN030 OVC050 16/13 A3002 RMK AO2 SLP170 T01560133", "KEKQ 311556Z AUTO 21009KT 10SM BKN018 BKN025 OVC055 17/15 A3000 RMK AO2 SLP151 T01720150", "KEKS 311555Z AUTO 16018G25KT 10SM OVC070 07/M01 A3002 RMK AO2", "KEKX 311555Z AUTO 21011KT 10SM SCT014 BKN019 OVC029 17/14 A2994 RMK AO2 T01730142", "KEKY 311556Z AUTO 18003KT 10SM OVC050 17/16 A3005 RMK AO2 SLP025 T01720156", "KELA 311535Z AUTO 00000KT 10SM CLR 22/14 A3007 RMK AO2 T02210142", "KELD 311553Z AUTO VRB04KT 10SM CLR 19/14 A3005 RMK AO2 SLP173 T01890139", "KELK 311555Z AUTO 20003KT 10SM CLR 16/05 A3007 RMK AO2 SLP465 T01590054 $", "KELM 311553Z 00000KT 10SM CLR 12/06 A2999 RMK AO2 SLP160 T01170061", "KELN 311553Z AUTO 30007KT 10SM OVC065 11/05 A2980 RMK AO2 SLP092 T01110050", "KELO 311555Z AUTO 22007KT 10SM CLR 11/M02 A2977 RMK AO2", "KELP 311551Z 02011KT 10SM FEW180 FEW220 BKN250 15/00 A3007 RMK AO2 SLP137 T01500000", "KELY 311453Z AUTO 17009KT 10SM CLR M03/M07 A3018 RMK AO2 SLP233 T10331072 55003", "KELZ 311456Z AUTO 00000KT 10SM -RA SCT028 BKN049 OVC100 12/07 A2999 RMK AO2 RAB29 SLP158 P0000 60000 T01220067 58005", "KEMM 311535Z AUTO 10007KT 10SM CLR 00/M05 A3018 RMK AO2", "KEMP 311553Z AUTO 29007KT 10SM CLR 13/04 A3000 RMK AO2 SLP159 T01330044", "KEMT 311545Z 00000KT 10SM CLR 15/04 A2994", "KEMV 311555Z AUTO 18005KT 10SM SCT055 BKN100 19/13 A3012 RMK AO2 T01850132", "KEND 311455Z AUTO 28004KT 10SM CLR 10/04 A3001 RMK AO2 SLP165 T01030044 52015 $", "KENV 311556Z AUTO 11004KT 10SM CLR 05/M05 A3016 RMK AO2 SLP221 T00501050", "KENW 311553Z 35005KT 2SM HZ OVC014 13/11 A2985 RMK AO2 SLP109 T01330106", "KEOE 311555Z AUTO 17005KT 5SM BR OVC003 18/17 A3007 RMK AO2", "KEOK 311535Z AUTO 32004KT 10SM FEW100 13/11 A2990 RMK A01", "KEPH 311553Z AUTO 00000KT 10SM FEW080 OVC100 10/07 A2977 RMK AO2 SLP081 T01000067", "KEQA 311535Z AUTO 32003KT 10SM CLR 14/03 A3001 RMK AO2", "KEQY 311553Z AUTO VRB03KT 10SM OVC007 18/16 A3006 RMK AO2 RAB12E25 SLP185 P0000 T01830161", "KERI 311551Z 17015KT 10SM -RA FEW014 SCT027 OVC048 15/12 A2990 RMK AO2 RAB30E40B51 SLP125 P0000 T01500117", "KERV 311555Z AUTO 00000KT 10SM CLR 16/11 A3008 RMK AO2 T01560107", "KERY 311535Z AUTO 19003KT 10SM CLR 12/06 A2983 RMK AO2 T01210056", "KESC 311556Z AUTO 00000KT 10SM CLR 13/07 A2983 RMK AO2 SLP108 T01330067 PNO $", "KESF 311553Z AUTO VRB03KT 10SM CLR 22/14 A3006 RMK AO2 SLP177 T02220139", "KESN 311550Z 21006KT 10SM SCT031 BKN037 BKN060 17/14 A3013", "KEST 311552Z AUTO 28006KT 10SM CLR 14/01 A2990 RMK AO2 SLP132 T01390011", "KETB 311555Z AUTO 08004KT 10SM CLR 14/06 A2985 RMK AO2", "KETC 311535Z AUTO 15004KT 7SM 19/14 A3011 RMK AO2 T01940144", "KETH 311553Z AUTO 19007KT 10SM 12/01 A2982 RMK AO2", "KETN 311535Z AUTO 00000KT 10SM CLR 18/11 A3008 RMK AO2 T01840113", "KEUF 311516Z AUTO 31004KT 10SM SCT008 OVC043 21/17 A3005 RMK AO2 T02060172", "KEUG 311554Z 17010KT 10SM SCT045 BKN090 BKN170 12/09 A2999 RMK AO2 SLP156 T01220094", "KEVB 311547Z 13005KT 10SM SCT016 27/22 A3003", "KEVM 311555Z AUTO 22005KT 10SM CLR 09/01 A2980 RMK AO2 T00850008", "KEVU 311555Z AUTO 32005KT 10SM CLR 14/07 A2995 RMK AO2 T01460072", "KEVV 311554Z 22008KT 5SM BR OVC009 16/15 A2991 RMK AO2 RAB33E48 SLP125 P0000 T01610150 $", "KEVW 311553Z AUTO 21007KT 10SM CLR 02/M06 A3019 RMK AO2 SLP217 T00221061", "KEWB 311553Z 18006KT 10SM OVC018 16/14 A3007 RMK AO2 SLP183 T01560144 $", "KEWK 311556Z AUTO 27004KT 10SM CLR 15/03 A3003 RMK AO2 SLP163 T01500028", "KEWN 311554Z 08004KT 10SM FEW035 SCT055 22/14 A3011 RMK AO2 SLP197 T02170144", "KEWR 311551Z 26008KT 10SM SCT140 BKN240 17/10 A3008 RMK AO2 SLP186 T01670100", "KEXX 311555Z AUTO 17003KT 10SM OVC012 17/17 A3007 RMK AO2 P0001 T01670167", "KEYE 311553Z AUTO 19007KT 7SM OVC008 15/14 A2985 RMK AO2 CIG 007V011 SLP106 T01500144", "KEYF 311555Z AUTO 06004KT 10SM SCT047 OVC065 22/17 A3009 RMK AO2 T02220171", "KEYW 311553Z 11009KT 10SM CLR 28/24 A2998 RMK AO2 SLP151 T02830244", "KEZF 311555Z AUTO 21005KT 10SM SCT024 SCT039 19/12 A3006 RMK AO2 T01880118", "KEZM 311555Z AUTO 21004KT 10SM OVC010 22/20 A3004 RMK AO2", "KEZP 311535Z AUTO 07008KT 10SM FEW037 23/14 A3007 RMK A01", "KEZS 311555Z AUTO 00000KT 10SM CLR 13/08 A2985 RMK AO2 T01320079", "KEZZ 311535Z AUTO 32004KT 10SM CLR 14/06 A2997 RMK AO2 T01360055", "KF00 311535Z AUTO 00000KT 10SM CLR 17/13 A3007 RMK AO2 T01660134", "KF05 311555Z AUTO 00000KT 10SM CLR 15/12 A3007 RMK AO2 T01540121", "KF17 311555Z AUTO 29004KT 10SM CLR 21/12 A3008 RMK AO2", "KF44 311555Z AUTO 00000KT 10SM CLR 20/12 A3005 RMK AO2", "KF46 311555Z AUTO 00000KT 10SM CLR 18/12 A3007 RMK AO2 T01810123", "KF70 311555Z AUTO 01003KT 10SM CLR 15/00 A2997 RMK AO2", "KFAF 311555Z 18006KT 10SM FEW045 BKN055 BKN070 17/13 A3009 RMK AO2A SLP193 T01700127 $", "KFAM 311556Z AUTO 26005KT 10SM OVC017 14/11 A2993 RMK AO2 SLP143 T01390106", "KFAR 311553Z 19010KT 10SM CLR 09/M02 A2976 RMK AO2 SLP085 T00891017 $", "KFAT 311553Z 09003KT 10SM SCT120 BKN180 15/04 A2999 RMK AO2 SLP153 T01500039", "KFAY 311553Z 10004KT 10SM FEW065 21/16 A3007 RMK AO2 SLP178 T02110156", "KFBG 311555Z AUTO 11004KT 10SM FEW060 SCT170 22/16 A3006 RMK AO2 SLP181 T02150156", "KFBL 311555Z AUTO 20004KT 10SM CLR 08/03 A2989 RMK AO2", "KFCI 311556Z AUTO 20006KT 10SM -RA OVC037 18/13 A3010 RMK AO2 RAB49 SLP201 P0000 T01780133", "KFCM 311553Z 21003KT 7SM CLR 09/01 A2987 RMK AO2 SLP120 T00940011", "KFCS 311555Z AUTO 35007KT 10SM CLR 12/M09 A3004 RMK AO2 SLP168 T01161094 $", "KFDK 311547Z 00000KT 5SM BR BKN007 OVC010 12/12 A3007", "KFDR 311553Z AUTO 00000KT 10SM CLR 16/11 A3004 RMK AO2 SLP163 T01610106 $", "KFDW 311555Z AUTO 15007KT 5SM BR OVC003 17/17 A3005 RMK AO1", "KFDY 311553Z AUTO 20010KT 9SM SCT013 SCT027 OVC041 18/16 A2986 RMK AO2 SLP105 P0001 T01780161", "KFEP 311535Z AUTO 00000KT 7SM CLR 12/10 A2988 RMK AO2 T01160096", "KFET 311555Z AUTO 00000KT 10SM CLR 12/02 A2996 RMK AO2 T01150021", "KFEW 311458Z 22010G15KT 10SM SCT150 09/M09 A3007 RMK SLPNO WND DATA ESTMD ALSTG ESTMD", "KFFA 311555Z AUTO 00000KT 10SM CLR 18/13 A3011 RMK AO2 T01840134", "KFFC 311553Z AUTO 24005KT 10SM FEW016 SCT023 BKN036 22/17 A3002 RMK AO2 SLP164 T02170172", "KFFL 311535Z AUTO 30004KT 8SM CLR 12/07 A2990 RMK A01", "KFFM 311555Z AUTO 18009KT 10SM CLR 12/01 A2979 RMK AO2", "KFFO 311555Z 19011KT 10SM BKN014 OVC022 17/14 A2987 RMK AO2A SLP116 T01680144", "KFFT 311553Z AUTO 19012G17KT 10SM BKN014 OVC065 18/15 A2992 RMK AO2 SLP128 T01780150", "KFFX 311555Z AUTO 00000KT 10SM SCT023 SCT034 OVC042 14/09 A2984 RMK AO2 T01420087", "KFFZ 311454Z 00000KT 10SM CLR 16/M02 A2997 RMK AO2 SLP134 T01611017 53014", "KFGN 311555Z AUTO 23011KT 10SM CLR 08/00 A2965 RMK AO2", "KFGX 311555Z AUTO 23010KT 10SM BKN015 BKN020 OVC065 18/15 A2996 RMK AO2 T01760146", "KFHB 311535Z AUTO 14008KT 10SM CLR 26/22 A3004 RMK AO2", "KFHR 311553Z AUTO 21012G20KT 2 1/2SM -RA BR BKN009 OVC015 11/09 A2975 RMK AO2 RAB11 SLP075 P0004 T01060094 $", "KFHU 311555Z AUTO 10003KT 10SM CLR 16/M03 A3010 RMK AO2 SLP159 T01561029 $", "KFIG 311554Z AUTO 06003KT 10SM 09/07 A3001 RMK AO2 RAE02B35E53 SLP168 T00890072 $", "KFIN 311550Z 08005KT 10SM SCT020 SCT025 27/22 A3003", "KFIT 311552Z AUTO VRB06KT 10SM FEW032 18/08 A3005 RMK AO2 SLP178 T01780078", "KFKA 311555Z AUTO 00000KT 7SM CLR 12/05 A2989 RMK AO2 T01240052", "KFKL 311556Z AUTO 17007KT 10SM -RA OVC003 11/11 A2995 RMK AO2 SLP148 P0000 T01110111", "KFKN 311555Z AUTO 12003KT 10SM SCT039 OVC050 19/12 A3011 RMK AO2 T01880121", "KFKR 311535Z AUTO 20008KT 9SM OVC012 16/15 A2983 RMK AO2", "KFKS 311555Z AUTO 00000KT 10SM SCT120 14/08 A2985 RMK AO2 T01350078", "KFLD 311553Z AUTO 05003KT 10SM CLR 14/05 A2985 RMK AO2 SLP109 T01440050", "KFLG 311457Z AUTO 00000KT 10SM CLR 02/M06 A3017 RMK AO2 SLP197 T00221056 53007", "KFLL 311553Z 12008KT 10SM FEW025 FEW080 FEW250 29/24 A2998 RMK AO2 SLP150 T02940239 $", "KFLO 311553Z 13009KT 10SM FEW029 23/18 A3006 RMK AO2 SLP178 T02280183", "KFLP 311556Z AUTO VRB04KT 10SM FEW019 17/12 A2999 RMK AO2 SLP152 T01720122", "KFLY 311555Z AUTO 07005KT CLR 12/M08 A3010 RMK AO2 T01231084 PWINO", "KFME 311538Z AUTO 00000KT 4SM SCT011 BKN025 OVC055 15/13 A3010 RMK AO1", "KFMH 311545Z 20007KT 10SM SCT008 BKN013 OVC024 16/14 A3008", "KFMM 311535Z AUTO 26008KT 10SM CLR 06/M05 A3003 RMK AO2", "KFMN 311553Z 09006KT 10SM CLR 04/M06 A3017 RMK AO2 SLP214 T00441056", "KFMY 311553Z VRB06KT 10SM SCT028 31/23 A2998 RMK AO2 SLP153 T03060228", "KFNB 311553Z AUTO 32005KT 10SM CLR 13/03 A2997 RMK AO2 SLP148 T01330033", "KFNL 311556Z 19005KT 10SM CLR 09/M06 A3002 RMK AO2 SLP153 T00891061", "KFNT 311553Z 14003KT 5SM BR OVC004 14/13 A2984 RMK AO2 RAE1456 SLP106 P0000 T01390128", "KFOA 311535Z AUTO 23007KT 10SM SCT012 BKN016 OVC035 15/13 A2990 RMK AO2", "KFOD 311556Z AUTO 28003KT 10SM CLR 12/03 A2993 RMK AO2 SLP153 T01170033", "KFOE 311553Z 30009KT 10SM CLR 16/04 A2999 RMK AO2 SLP152 T01610044 PNO", "KFOK 311453Z 20005KT 10SM FEW008 BKN030 17/14 A3010 RMK AO2 RAE11 SLP193 P0000 60001 T01670139 58003", "KFOT 311555Z AUTO 12006KT 8SM OVC024 09/09 A3003 RMK AO1", "KFOZ 311553Z AUTO 21008KT 10SM CLR 12/01 A2980 RMK AO2", "KFPK 311555Z AUTO 00000KT 4SM BR OVC003 13/12 A2983 RMK AO2 T01250120", "KFPR 311553Z 09012KT 10SM BKN022 BKN028 29/23 A3000 RMK AO2 SLP157 T02890228", "KFPY 311535Z AUTO 15005KT 10SM SCT120 27/21 A3003 RMK AO2 T02720205 TSNO", "KFQD 311535Z AUTO 00000KT 1 1/2SM +RA BKN003 BKN009 OVC019 12/12 A3009 RMK AO2 P0020", "KFRG 311553Z VRB04KT 10SM CLR 17/11 A3008 RMK AO2 SLP185 T01720106", "KFRH 311555Z AUTO 22007KT 191V251 7SM OVC008 A2990 RMK AO1", "KFRI 311555Z AUTO 21004KT 10SM CLR 12/04 A3000 RMK AO2 SLP158 T01210043 FZRANO $", "KFRM 311556Z AUTO 27003KT 10SM CLR 12/02 A2991 RMK AO2 SLP140 T01170022", "KFRR 311555Z AUTO 00000KT 10SM OVC100 13/10 A3004 RMK AO1", "KFSD 311456Z 00000KT 10SM FEW250 06/01 A2989 RMK AO2 SLP132 T00560006 53002", "KFSE 311555Z AUTO 19012KT 10SM CLR 08/M02 A2976 RMK AO2", "KFSI 311555Z AUTO 17003KT 10SM CLR 16/08 A3004 RMK AO2 SLP170 T01570075", "KFSK 311535Z AUTO 27005KT 10SM SCT120 14/08 A2999 RMK AO2 T01390083", "KFSM 311553Z 26005KT 10SM CLR 17/13 A3003 RMK AO2 SLP167 T01670133", "KFSO 311555Z AUTO 22003KT 10SM CLR 14/02 A2998 RMK AO2 T01420020", "KFST 311553Z AUTO 15005KT 10SM CLR 15/07 A3006 RMK AO2 SLP150 T01500072", "KFSW 311535Z AUTO 31006KT 10SM OVC001 12/09 A2989 RMK AO2", "KFTK 311555Z AUTO 19006KT 10SM M 16/15 A2991 RMK AO2 SLP128 T01640149 $", "KFTN 311555Z AUTO 11007KT 10SM CLR 21/15 A3004 RMK A01", "KFTW 311553Z 00000KT 7SM CLR 17/12 A3006 RMK AO2 SLP175 T01720117 $", "KFTY 311553Z 00000KT 1/2SM FG BKN002 OVC035 18/17 A3002 RMK AO2 RAB34E50 SLP162 P0000 T01780172", "KFUL 311553Z 08005KT 10SM SCT250 17/07 A2992 RMK AO2 SLP131 T01720067", "KFVE 311553Z AUTO 24005KT 10SM CLR 14/M01 A2996 RMK AO2 SLP148 T01441006", "KFVX 311555Z AUTO 18008KT 10SM SCT024 BKN065 OVC120 18/12 A3008 RMK AO2 T01800120", "KFWA 311554Z 22010KT 10SM BKN015 BKN021 BKN080 17/14 A2985 RMK AO2 SLP108 T01670144 $", "KFWB 311555Z AUTO 24007KT 9SM BKN006 BKN010 15/13 A2999 RMK AO2", "KFWC 311535Z AUTO 00000KT OVC010 14/13 A2989 RMK AO1 T01420130 PWINO", "KFWN 311553Z AUTO 21007KT 10SM CLR 14/09 A3007 RMK AO2 SLP184 T01440094", "KFWS 311551Z 00000KT 10SM CLR 20/12 A3008", "KFWZ 311535Z AUTO 23003KT 10SM CLR 03/M07 A3008 RMK AO2", "KFXE 311553Z 12008KT 10SM SCT026 SCT032 28/24 A2998 RMK AO2 SLP154 T02830239 $", "KFXY 311535Z AUTO 24003KT 10SM CLR 10/03 A2990 RMK AO2", "KFYE 311555Z AUTO 22009KT 10SM FEW020 OVC031 17/13 A2997 RMK A01", "KFYG 311555Z AUTO 28006KT 5SM BR OVC013 13/13 A2991 RMK AO2", "KFYJ 311535Z AUTO 00000KT 10SM BKN070 BKN095 17/13 A3012 RMK AO1 T01740131", "KFYV 311553Z 20006KT 10SM CLR 15/12 A3002 RMK AO2 SLP161 T01500117", "KFZG 311535Z AUTO 21006KT 10SM OVC015 24/20 A3004 RMK AO2 T02420196", "KFZY 311554Z AUTO VRB04KT 10SM FEW110 14/07 A2995 RMK AO2 SLP144 T01390067", "KGAD 311556Z AUTO 22005KT 10SM FEW010 OVC055 17/16 A3004 RMK AO2 SLP174 P0001 T01720156 $", "KGAF 311555Z AUTO 24011KT 9SM CLR 10/01 A2969 RMK AO2", "KGAG 311553Z AUTO 25004KT 10SM CLR 16/00 A3005 RMK AO2 SLP170 T01560000", "KGAI 311556Z AUTO 14/12 RMK AO2 RAE10B26E46 SLPNO P0000 T01440122 PWINO $", "KGAO 311535Z AUTO 34003KT 10SM CLR 23/16 A3008 RMK AO2 T02270160", "KGBD 311556Z AUTO 26004KT 10SM CLR 14/M01 A3003 RMK AO2 SLP170 T01391011", "KGBG 311535Z AUTO 31005KT 7SM SCT120 12/10 A2989 RMK AO2 T01180103", "KGBK 311535Z AUTO VRB06KT 9SM SCT037 25/15 A3004 RMK A01", "KGCC 311553Z AUTO 23012KT 10SM CLR 11/M06 A2989 RMK AO2 SLP117 T01061056 $", "KGCD 311535Z AUTO 21010G14KT 10SM BKN100 OVC110 12/01 A2997 RMK AO2 T01180011", "KGCK 311554Z 22009KT 10SM CLR 14/M01 A3002 RMK AO2 SLP160 T01391011", "KGCM 311535Z AUTO 25003KT 10SM CLR 14/09 A3004 RMK AO2", "KGCN 311554Z 05014KT 10SM CLR 10/M07 A3019 RMK AO2 SLP196 T01001072", "KGCY 311555Z AUTO 20003KT 10SM FEW036 SCT044 BKN080 18/14 A3001 RMK A01", "KGDB 311535Z AUTO 17005KT 10SM CLR 10/04 A2989 RMK AO2 T01000035", "KGDJ 311555Z AUTO 00000KT 10SM CLR 16/12 A3009 RMK AO2 T01550122", "KGDP 311551Z AUTO 06016KT 9SM CLR 14/04 A3012 RMK AO2 SLP155 T01390044", "KGDV 311556Z AUTO 17006KT 10SM CLR 05/00 A2979 RMK AO2 SLP099 T00500000", "KGED 311554Z AUTO 18006KT 10SM BKN024 19/13 A3009 RMK AO2 SLP189 T01940128", "KGEG 311553Z 21012KT 10SM FEW025 SCT055 BKN090 09/06 A2977 RMK AO2 SLP082 T00940056", "KGEU 311550Z 00000KT 10SM SKC 17/02 A2997", "KGEV 311535Z AUTO 00000KT 1/2SM +DZ OVC003 11/11 A3008 RMK AO2 P0001 T01100109", "KGEY 311553Z AUTO 00000KT 10SM CLR 01/M04 A2996 RMK AO2 SLP165 T00111039", "KGEZ 311553Z AUTO 19009KT 9SM -RA FEW010 BKN022 OVC046 17/15 A2987 RMK AO2 RAB31 SLP111 T01720150 PNO", "KGFA 311555Z AUTO 21015KT 10SM CLR 12/02 A2971 RMK AO2 SLP069 T01200022 $", "KGFK 311553Z 25009KT 10SM BKN250 12/M01 A2971 RMK AO2 SLP067 T01171006", "KGFL 311553Z AUTO 18006KT 10SM CLR 12/04 A3002 RMK AO2 SLP171 T01220044", "KGGE 311555Z AUTO 12008KT 10SM BKN010 OVC033 23/20 A3007 RMK AO2", "KGGF 311535Z AUTO 28012KT 10SM 11/M06 A2997 RMK AO2", "KGGG 311553Z VRB03KT 10SM CLR 19/13 A3006 RMK AO2 SLP175 T01940133", "KGGI 311535Z AUTO 00000KT 10SM CLR 13/08 A2992 RMK AO2 T01320080", "KGGP 311535Z AUTO 19007KT 10SM SCT012 SCT020 OVC027 15/13 A2984 RMK AO2", "KGGW 311553Z AUTO 15008KT 10SM CLR 10/04 A2971 RMK AO2 SLP068 T01000039", "KGHB 311535Z AUTO 02006KT 10SM FEW038 23/14 A3006 RMK A01", "KGHG 311535Z AUTO 20007KT 10SM 16/13 A3007 RMK AO2", "KGHW 311555Z AUTO 21008KT 10SM CLR 11/01 A2985 RMK AO2", "KGIC 311535Z AUTO 21016G26KT 10SM SCT055 OVC070 12/00 A2988 RMK AO1", "KGIF 311553Z AUTO A3003 RMK AO2 SLPNO PWINO $", "KGJT 311553Z 15009KT 10SM CLR 07/M01 A3018 RMK AO2 SLP207 T00671011", "KGKJ 311553Z AUTO VRB04KT 2SM BR OVC003 12/12 A2993 RMK AO2 SLP135 T01220117", "KGKT 311555Z AUTO 00000KT 10SM OVC006 17/16 A3000 RMK A01", "KGKY 311553Z 00000KT 10SM CLR 21/10 A3007 RMK AO2 SLP176 T02110100", "KGLD 311553Z AUTO A3001 RMK AO2 SLPNO PWINO FZRANO $", "KGLE 311535Z AUTO 00000KT 10SM CLR 17/10 A3008 RMK AO2 T01700103", "KGLH 311553Z 26007KT 10SM CLR 19/14 A3004 RMK AO2 SLP177 T01940144", "KGLR 311553Z AUTO 16006KT 10SM BKN120 15/05 A2985 RMK AO2 SLP114 T01500050", "KGLS 311552Z 35007KT 10SM CLR 23/14 A3008 RMK AO2 SLP185 T02280139", "KGLW 311535Z AUTO 22007KT 10SM OVC012 17/15 A2996 RMK AO2 T01680149", "KGLX 311535Z AUTO VRB06G11KT 10SM FEW027 27/16 A3007 RMK A01", "KGLY 311555Z AUTO 25004KT 10SM SCT110 14/10 A2996 RMK AO2", "KGMJ 311535Z AUTO 23004KT 9SM CLR 08/02 A3001 RMK AO2", "KGMU 311553Z 02009KT 3SM -RA BR FEW004 OVC010 14/13 A3006 RMK AO2 SLP176 P0016 T01440128", "KGNA 311556Z AUTO 22003KT 08/05 A2980 RMK AO1 SLP097 T00780050 ", "KGNB 311535Z AUTO 00000KT 10SM CLR M03/M06 A3024 RMK AO2 T10331058", "KGNC 311535Z AUTO 00000KT 10SM CLR 14/08 A3014 RMK AO2 T01390075", "KGNG 311555Z AUTO 08010KT 10SM CLR 05/00 A3011 RMK AO2", "KGNR 311556Z AUTO 07005KT 16/M06 A2996 RMK AO1 SLP151 T01561056 ", "KGNT 311555Z AUTO 35004KT 10SM CLR 03/M06 A3021 RMK AO2 T00331061", "KGNV 311553Z 14007KT 10SM CLR 27/21 A3005 RMK AO2 SLP174 T02720206", "KGOK 311553Z AUTO 26003KT 10SM 13/06 A3005 RMK AO2 SLP178 T01280061", "KGON 311552Z 19004KT 10SM OVC030 17/13 A3008 RMK AO2", "KGOO 311550Z AUTO 00000KT 10SM CLR 15/M03 A3003 RMK A01", "KGOP 311535Z AUTO 10SM CLR 19/11 A3009 RMK AO2", "KGOV 311458Z AUTO 00000KT 10SM SCT110 11/06 A2985 RMK AO2 SLP120 T01050056 58001 $", "KGPC 311535Z AUTO 21009KT 10SM OVC007 15/14 A2986 RMK AO2 T01500140", "KGPH 311555Z AUTO 32004KT 10SM CLR 15/05 A2996 RMK AO2", "KGPI 311555Z 17009KT 10SM OVC041 11/04 A2973 RMK AO2 SLP068 T01110039", "KGPM 311450Z 00000KT 10SM SKC 17/10 A3008", "KGPT 311553Z 18003KT 10SM FEW028 23/14 A3005 RMK AO2 SLP175 T02280144", "KGPZ 311556Z AUTO 21006KT 10SM CLR 11/01 A2980 RMK AO2 SLP103 T01110006", "KGRB 311553Z 27004KT 10SM CLR 16/07 A2985 RMK AO2 SLP110 T01610072", "KGRD 311554Z AUTO 27007KT 4SM -RA BR BKN004 BKN008 OVC031 17/17 A3006 RMK AO2 P0020", "KGRF 311555Z 15011KT 10SM -RA FEW026 BKN034 11/10 A2979 RMK AO2A SLP092 P0007 T01140100 $", "KGRI 311553Z 22006KT 10SM CLR 16/M01 A2995 RMK AO2 SLP149 T01611006", "KGRK 311555Z AUTO 25008KT 10SM CLR 21/11 A3004 RMK AO2 SLP167 T02100105", "KGRN 311555Z AUTO 26009KT 10SM CLR 11/M06 A2991 RMK AO2 T01101064", "KGRR 311553Z 00000KT 2SM BR OVC004 12/11 A2985 RMK AO2 SLP109 T01220111 $", "KGRY 311535Z AUTO 04007G12KT 340V070 10SM BKN029 OVC037 23/16 A3006 RMK A01", "KGSB 311534Z COR AUTO 06004KT 10SM BKN055 20/15 A3008 RMK AO2 RAB34 SLP189 $ COR 1549", "KGSH 311553Z AUTO 20007KT 1 3/4SM RA BR 15/14 A2983 RMK AO2 RAB22 SLP102 P0003 T01500139 $", "KGSO 311554Z 18005KT 10SM FEW009 BKN017 OVC040 17/14 A3007 RMK AO2 SLP176 T01720139", "KGSP 311553Z 01005KT 2 1/2SM -RA BR BKN003 OVC022 13/13 A3006 RMK AO2 SLP175 P0047 T01330128", "KGTB 311555Z AUTO 15006KT 10SM OVC140 13/05 A2994 RMK AO2 SLPNO T01270046", "KGTF 311553Z 21015G26KT 10SM BKN070 13/02 A2973 RMK AO2 PK WND 20027/1540 SLP064 T01280022", "KGTR 311556Z 24004KT 10SM OVC014 18/16 A3004 RMK AO2 SLP179 T01830156", "KGTU 311556Z 00000KT 10SM CLR 18/12 A3009 RMK AO2 SLP190 T01830122", "KGUC 311556Z AUTO 00000KT 10SM CLR M02/M06 A3026 RMK AO2 SLP266 T10221061 FZRANO", "KGUL 311535Z AUTO 00000KT 10SM FEW034 23/15 A3005 RMK A01", "KGUP 311553Z AUTO 00000KT 10SM CLR 04/M05 A3019 RMK AO2 SLP208 T00441050", "KGUR 311555Z AUTO 28016G19KT 10SM CLR 11/M06 A2996 RMK AO2 SLP151 T01091065", "KGUS 311539Z 21007KT 7SM SCT015 BKN009 BKN023 BKN031 OVC080 16/15 A2982 RMK CIG 015V023 BKN023 V OVC SLP100 PNO $", "KGUY 311553Z AUTO 21007KT 10SM CLR 17/01 A3004 RMK AO2 SLP150 T01670011", "KGVL 311553Z AUTO 08005KT 7SM OVC003 15/14 A3006 RMK AO2 SLP172 T01500139", "KGVQ 311556Z AUTO 00000KT 8SM -RA BKN016 OVC034 13/10 A2994 RMK AO2 RAB18 SLP141 P0000 T01280100", "KGVT 311535Z AUTO 00000KT 10SM CLR 17/12 A3007 RMK AO2 TSNO T01660125", "KGVW 311535Z AUTO 04007KT 10SM CLR 22/15 A3007 RMK A01", "KGWB 311535Z AUTO 20007KT 7SM BKN004 BKN009 OVC014 15/15 A2985 RMK AO2 P0004", "KGWO 311553Z AUTO 25006KT 10SM BKN015 OVC022 19/14 A3004 RMK AO2 SLP169 T01940144", "KGWR 311555Z AUTO 22012KT 10SM CLR 10/00 A2979 RMK A01", "KGWW 311555Z AUTO 14003KT 10SM SCT046 SCT070 21/15 A3011 RMK AO2 T02090149", "KGXF 311555Z 03003KT 10SM CLR 16/M01 A2997 RMK AO2A SLP143 T01611010 FZRANO $", "KGXY 311556Z 00000KT 10SM CLR 07/M04 A3004 RMK AO2 SLP189 T00671044 $", "KGYB 311555Z AUTO 00000KT 10SM CLR 22/13 A3008 RMK AO2 T02170133", "KGYF 311535Z AUTO 08007KT 10SM OVC090 24/17 A3002 RMK AO2 T02420169", "KGYH 311547Z 02006KT 2SM -RA BR BKN003 OVC009 14/13 A3006", "KGYI 311550Z 00000KT 10SM SKC 17/10 A3008", "KGYL 311555Z AUTO 23003KT 7SM CLR 10/00 A2988 RMK AO2 T01030000", "KGYR 311547Z 04003KT 10SM SKC 12/02 A2998", "KGYY 311545Z 00000KT 1 1/2SM BR OVC003 14/14 A2983", "KGZH 311553Z AUTO VRB03KT 10SM CLR 21/14 A3006 RMK AO2 SLP176 T02110139", "KGZL 311535Z AUTO 00000KT 10SM CLR 15/12 A3002 RMK AO2", "KGZN 311540Z AUTO 00000KT 10SM CLR 21/08 A3006 RMK AO2", "KGZS 311555Z AUTO 20007KT 10SM BKN017 BKN028 OVC060 17/15 A2999 RMK A01", "KH71 311555Z AUTO 00000KT 10SM CLR 15/11 A3002 RMK AO2", "KHAE 311555Z AUTO 30007KT 7SM OVC036 13/11 A2991 RMK AO2", "KHAF 311555Z AUTO 15005KT 4SM BR OVC009 12/12 A2999 RMK AO2", "KHAI 311555Z AUTO 00000KT 3SM BR OVC002 14/14 A2984 RMK AO2 T01410136", "KHAO 311553Z AUTO VRB05KT 10SM OVC039 18/14 A2992 RMK AO2 SLP129 T01780144", "KHBG 311553Z AUTO 31004KT 10SM BKN035 OVC044 22/13 A3007 RMK AO2 SLP180 T02170133", "KHBI 311555Z AUTO 10005KT 10SM SCT018 BKN025 BKN031 20/14 A3009 RMK AO2 T02000144", "KHBR 311553Z AUTO 14006KT 10SM CLR 14/08 A3007 RMK AO2 SLP178 T01440078", "KHBV 311530Z AUTO 11006KT 10SM SCT065 OVC080 20/15 A3004 RMK AO2 T02020150", "KHCD 311535Z AUTO 24003KT 10SM CLR 11/00 A2989 RMK AO2 T01080001", "KHCO 311555Z AUTO 20007KT 10SM CLR 08/02 A2966 RMK AO2", "KHCR 311535Z AUTO 00000KT 10SM CLR 00/M03 A3021 RMK AO2", "KHDC 311536Z AUTO 00000KT 10SM CLR 21/16 A3008 RMK AO2", "KHDE 311535Z AUTO 24005KT 10SM CLR 09/M01 A2997 RMK AO2 T00941007", "KHDL 311535Z AUTO 31003KT 10SM OVC037 20/18 A3004 RMK AO2", "KHDN 311556Z AUTO 11006KT 10SM CLR 02/M04 A3021 RMK AO2 SLP237 T00171044 FZRANO", "KHDO 311551Z AUTO 07005KT 10SM CLR 21/14 A3006 RMK AO2 SLP171 T02060139", "KHEF 311556Z 20008KT 10SM SCT110 17/13 A3006 RMK AO2 SLP185 T01720128", "KHEG 311535Z AUTO VRB06KT 10SM FEW023 29/21 A3006 RMK AO2", "KHEI 311553Z AUTO 26008KT 10SM CLR 12/M03 A2982 RMK AO2 SLP107 T01171028", "KHEQ 311535Z AUTO 25005KT 10SM CLR 12/M05 A3000 RMK AO2", "KHEY 311555Z AUTO 28003KT 10SM SCT050 21/15 A3002 RMK AO2 SLP166 T02130151", "KHEZ 311556Z AUTO 18003KT 10SM CLR 21/13 A3008 RMK AO2 SLP185 T02110128", "KHFD 311553Z 19006KT 10SM FEW012 SCT060 18/10 A3006 RMK AO2 SLP177 T01780100", "KHFF 311555Z AUTO 17006KT 10SM SCT055 SCT070 BKN160 21/17 A3004 RMK AO2 SLP174 T02130167 $", "KHFJ 311555Z AUTO 23007KT 10SM SCT004 12/12 A3000 RMK AO2", "KHFY 311555Z AUTO 19010KT 10SM SCT010 OVC017 16/15 A2988 RMK AO2 T01630152", "KHGR 311553Z 00000KT 6SM -RA BR FEW049 OVC110 12/10 A3004 RMK AO2 SLP183 P0001 T01170100", "KHHF 311555Z AUTO 00000KT 10SM CLR 12/06 A3007 RMK AO2 T01240055", "KHHG 311535Z AUTO 22006KT 10SM BKN013 OVC017 16/16 A2984 RMK AO2 T01600158", "KHHR 311553Z 00000KT 9SM CLR 17/09 A2994 RMK AO2 SLP136 T01720094 $", "KHHV 311535Z AUTO 10009KT 10SM FEW036 OVC080 26/15 A3001 RMK A01", "KHHW 311534Z AUTO 00000KT 10SM CLR 16/12 A3006 RMK AO2", "KHIB 311553Z AUTO 00000KT 10SM CLR 07/01 A2979 RMK AO2 SLP102 T00720006", "KHIE 311552Z AUTO 28003KT 10SM CLR 12/M02 A3000 RMK AO2 SLP167 T01221022", "KHIF 311555Z AUTO 11015KT 10SM CLR 05/M04 A3014 RMK AO2 SLP197 T00511042", "KHII 311535Z AUTO 00000KT 10SM CLR 17/M05 A2997 RMK AO2", "KHIO 311553Z 16006KT 7SM -RA BKN009 BKN070 OVC085 12/11 A2991 RMK AO2 SLP127 P0006 T01170111", "KHJH 311535Z AUTO 00000KT 10SM CLR 11/03 A3000 RMK AO2 T01050034", "KHJO 311553Z AUTO 07006KT 7SM CLR 11/05 A2999 RMK AO2 SLP156 T01060050", "KHKA 311553Z AUTO 24009KT 10SM BKN011 BKN019 OVC036 17/14 A2996 RMK AO2 SLP143 T01670139 $", "KHKS 311553Z 29005KT 10SM SCT060 21/14 A3006 RMK AO2 SLP172 T02060144", "KHKY 311553Z VRB03KT 1 1/2SM +RA BR OVC004 13/13 A3008 RMK AO2 RAB37 SLP173 P0009 T01330133", "KHLB 311555Z AUTO 19008KT 10SM BKN016 BKN038 OVC070 16/13 A2989 RMK A01", "KHLC 311553Z AUTO 28006KT 10SM CLR 14/M03 A3001 RMK AO2 SLP162 T01391028", "KHLG 311553Z 21007KT 10SM OVC005 16/14 A2995 RMK AO2 SLP143 T01560139", "KHLN 311553Z 19010KT 10SM BKN060 BKN080 13/00 A2981 RMK AO2 SLP098 T01280000", "KHLR 311555Z AUTO 23004KT 9SM CLR 21/11 A3008 RMK AO2 SLP180 T02050111", "KHLX 311555Z AUTO 17003KT 10SM OVC003 12/09 A3007 RMK AO2 P0003 T01190090", "KHMN 311555Z AUTO 00000KT 10SM CLR 10/00 A3011 RMK AO2 SLP167 T00970000 $", "KHMP 311535Z AUTO 23008KT 10SM BKN008 OVC018 21/19 A3006 RMK AO2 T02070186", "KHMT 311535Z AUTO 00000KT 10SM CLR 12/M02 A2998 RMK AO2 T01221016", "KHMZ 311535Z AUTO 00000KT 4SM -SN BKN030 BKN036 OVC095 07/07 A3003 RMK AO2 P0001 T00710067", "KHNB 311556Z AUTO 20008KT 6SM -RA BR OVC006 16/15 A2991 RMK AO2 CIG 004V009 SLP127 P0001 T01560150", "KHND 311556Z 00000KT 10SM CLR 15/M04 A3009 RMK AO2 SLP197 T01501039", "KHNR 311535Z AUTO 00000KT 6SM HZ CLR 09/06 A2995 RMK A01", "KHNZ 311555Z AUTO 14006KT 10SM CLR 19/13 A3009 RMK AO2 T01850133", "KHOB 311550Z 14007KT 10SM SKC 15/06 A3010", "KHOE 311555Z AUTO 14007KT 10SM OVC014 25/20 A3004 RMK AO2 T02500208", "KHON 311555Z AUTO 19003KT 10SM CLR 08/00 A2985 RMK AO2 SLP116 T00830000", "KHOP 311555Z AUTO 22011KT 10SM OVC010 17/16 A2993 RMK AO2 SLP136 T01650163", "KHOT 311553Z AUTO 27005KT 10SM CLR 17/13 A3003 RMK AO2 SLP167 T01720128", "KHOU 311553Z 00000KT 10SM BKN250 23/12 A3007 RMK AO2 SLP186 T02330122", "KHPN 311456Z 27005KT 10SM CLR 16/09 A3007 RMK AO2 SLP185 T01560094 58004", "KHPT 311535Z AUTO 00000KT 10SM CLR 12/03 A2991 RMK AO2", "KHQG 311535Z AUTO 20008KT 10SM CLR 16/00 A3004 RMK AO2 T01610000", "KHQG 311535Z AUTO 20008KT 10SM CLR 16/00 A3004 RMK AO2 T01610000", "KHQM 311553Z AUTO 29006KT 10SM BKN055 12/09 A2986 RMK AO2 SLP115 T01170094", "KHQU 311535Z AUTO 22003KT 2SM -RA BR OVC003 18/18 A3005 RMK AO2 T01820178", "KHQZ 311550Z 00000KT 7SM CLR 18/12 A3007", "KHRF 311545Z AUTO 17009KT 10SM BKN055 OVC065 13/02 A2987 RMK AO2 Hamilton ", "KHRI 311553Z AUTO 20003KT 10SM BKN080 BKN100 13/08 A2985 RMK AO2 SLP108 T01280083", "KHRJ 311555Z AUTO 13004KT 10SM CLR 21/15 A3009 RMK AO2 T02090150", "KHRL 311552Z 11013KT 10SM OVC060 26/19 A2998 RMK AO2 SLP152 T02610189", "KHRO 311553Z AUTO 26007KT 10SM CLR 16/11 A2999 RMK AO2 SLP151 T01610111", "KHRT 311555Z 03004KT 10SM CLR 22/14 A3004 RMK AO2A SLP174 T02220135 $", "KHRX 311555Z AUTO 22005KT 10SM CLR 14/07 A3010 RMK AO2 T01400066", "KHSA 311547Z COR VRB05KT 10SM SCT049 22/14 A3006", "KHSB 311502Z AUTO 23003KT 7SM SCT005 OVC019 15/15 A2991 RMK AO2", "KHSD 311555Z AUTO 00000KT 10SM CLR 16/05 A3005 RMK A01", "KHSE 311551Z AUTO 07004KT 10SM CLR 22/14 A3010 RMK AO2 SLP193 T02170139", "KHSG 311530Z AUTO 00000KT 10SM CLR 07/M02 A2997 RMK AO2 T00651024", "KHSI 311453Z AUTO 22004KT 10SM CLR 07/01 A2997 RMK AO2 SLP156 T00720006 53005", "KHSP 311555Z AUTO 21008G14KT 10SM DZ OVC004 A3010 RMK AO2 P0005", "KHST 311523Z 07005KT 10SM SCT019 SCT040 29/24 A2997 RMK SLP152", "KHSV 311553Z 18004KT 9SM FEW007 BKN055 BKN250 17/15 A3001 RMK AO2 SLP158 T01670150", "KHTL 311553Z AUTO 24003KT 10SM CLR 14/06 A2985 RMK AO2 SLP113 T01440061", "KHTS 311551Z 21005KT 10SM SCT008 BKN017 OVC031 17/16 A2997 RMK AO2 SLP143 T01720156", "KHUA 311458Z 20003KT 5SM BR SCT038 OVC050 17/15 A3001 RMK SLPNO RVRNO $", "KHUF 311553Z 21007KT 10SM BKN014 OVC020 17/14 A2986 RMK AO2 SLP109 T01670144", "KHUL 311553Z AUTO 26004KT 10SM CLR 16/01 A2998 RMK AO2 SLP156 T01560011", "KHUM 311447Z 00000KT 7SM CLR 19/18 A3007", "KHUT 311552Z 30004KT 10SM CLR 12/01 A3003 RMK AO2 SLP161 T01220006", "KHVE 311535Z AUTO 00000KT 10SM CLR 02/M02 A3020 RMK AO2", "KHVN 311553Z 16007KT 10SM CLR 17/13 A3008 RMK AO2 SLP184 T01670128", "KHVR 311553Z AUTO 22016KT 10SM OVC095 12/02 A2966 RMK AO2 PK WND 22026/1530 SLP045 T01220022 $", "KHVS 311555Z AUTO 17007KT 10SM FEW012 FEW050 20/17 A3006 RMK AO2", "KHWD 311554Z 07004KT 10SM CLR 12/10 A2998 RMK AO2 SLP161 T01220100", "KHWO 311553Z 13010KT 10SM CLR 30/22 A2999 RMK AO2 SLP155 T03000222 $", "KHWV 311456Z AUTO 18004KT 10SM BKN025 17/10 A3010 RMK AO2 SLP191 T01670100 58000", "KHWY 311555Z AUTO 22004KT 10SM RA SCT026 SCT065 OVC110 17/13 A3010 RMK AO2 T01700133", "KHXD 311550Z 18006KT 10SM FEW075 25/21 A3005", "KHYA 311542Z 18007KT 10SM FEW007 BKN021 OVC048 16/14 A3007 RMK AO2 T01610144", "KHYI 311556Z 22004KT 10SM CLR 16/13 A3009 RMK AO2 SLPNO T01600130 $", "KHYR 311553Z AUTO 00000KT 10SM CLR 10/05 A2986 RMK AO2 SLP120 T01000050", "KHYS 311556Z AUTO 24005KT 10SM CLR 14/M03 RMK AO2 SLPNO T01441028 $", "KHYW 311555Z AUTO 12004KT 10SM CLR 23/20 A3007 RMK AO2", "KHYX 311535Z AUTO 00000KT 7SM OVC028 12/10 A2984 RMK AO2 T01160097", "KHZD 311555Z AUTO 23006KT 10SM BKN014 BKN023 OVC028 17/15 A2995 RMK A01", "KHZE 311555Z AUTO 26008KT 10SM CLR 09/00 A2979 RMK AO2", "KHZL 311555Z AUTO 15003KT 10SM BKN100 13/08 A3008 RMK AO2", "KHZR 311535Z AUTO 30003KT 10SM CLR 22/15 A3007 RMK AO2 T02200147", "KHZX 311555Z AUTO 21005KT 7SM CLR 11/03 A2982 RMK AO2", "KHZY 311553Z AUTO 17007KT 5SM -RA BR OVC008 14/12 A2992 RMK AO2 RAB08E29B46 SLP130 P0000 T01440122", "KI23 311555Z AUTO 21010KT 10SM SCT017 SCT025 SCT065 17/14 A2991 RMK AO1", "KI35 311555Z AUTO 00000KT 10SM BKN005 OVC020 16/16 A3001 RMK AO2 T01560156", "KI63 311535Z AUTO 29006KT 5SM -DZ OVC024 11/11 A2988 RMK AO2 P0001 T01080107", "KI67 311555Z AUTO 19008KT 10SM BKN014 OVC037 17/14 A2990 RMK AO1", "KI68 311555Z AUTO 20006KT 10SM SCT012 BKN020 BKN027 17/15 A2991 RMK AO1 T01700151", "KI69 311555Z AUTO 18006KT 10SM OVC010 17/15 A2992 RMK AO2 T01670146", "KI74 311535Z AUTO 21005KT 10SM BKN011 OVC016 16/15 A2990 RMK AO2", "KI75 311535Z AUTO 33004KT 10SM CLR 13/05 A2994 RMK AO2 T01250054", "KIAB 311555Z AUTO 30006KT 10SM CLR 14/01 A3000 RMK AO2 SLP159 T01400013 $", "KIAD 311552Z 18007KT 10SM FEW030 BKN080 16/11 A3005 RMK AO2 SLP176 T01610111", "KIAG 311553Z 12003KT 8SM BKN011 BKN045 OVC060 12/11 A2992 RMK AO2 RAB09E42 SLP137 P0002 T01220111", "KIAH 311553Z 29003KT 10SM BKN250 22/14 A3007 RMK AO2 SLP183 T02170139 $", "KIBM 311535Z AUTO 27012G15KT 10SM CLR 11/M07 A3001 RMK AO2 T01101067", "KICL 311535Z AUTO 00000KT 10SM CLR 11/06 A2997 RMK AO2", "KICR 311553Z AUTO 23006KT CLR 14/M04 A2987 RMK AO2 SLP117 T01391039 $", "KICT 311553Z 31004KT 10SM FEW200 14/02 A3003 RMK AO2 SLP164 T01440022", "KIDA 311553Z 00000KT 10SM CLR 06/M01 A3013 RMK AO2 SLP209 T00561011", "KIDI 311555Z AUTO 00000KT 10SM OVC013 13/13 A3001 RMK A01", "KIDP 311535Z AUTO 00000KT 10SM CLR 17/08 A3001 RMK AO2 T01700076", "KIEN 311552Z AUTO 26012KT 10SM CLR 11/M07 A2991 RMK AO2 SLP141 T01061067", "KIER 311555Z AUTO 28003KT 10SM CLR 24/14 A3006 RMK AO2 T02390143", "KIFA 311555Z AUTO 30005KT 10SM CLR 12/05 A2993 RMK AO2 T01180052", "KIFP 311550Z 01018KT 20SM CLR 21/M05 A2997", "KIGM 311551Z AUTO 04005KT 10SM CLR 14/M05 A3009 RMK AO2 SLP147 T01441050", "KIGQ 311555Z AUTO 00000KT 3/4SM BR OVC002 14/14 A2983 RMK AO2 T01380138", "KIIY 311535Z AUTO 18004KT 5SM BR OVC002 18/18 A3004 RMK AO2 T01790178", "KIJD 311552Z AUTO 21004KT 10SM FEW027 16/10 A3009 RMK AO2 SLP190 T01560100", "KIJX 311535Z AUTO 29009KT 2 1/2SM OVC003 12/12 A2988 RMK AO2 P0002 T01150115", "KIKK 311535Z AUTO 36003KT 1SM BR OVC003 14/13 A2983 RMK AO2 T01410133", "KIKV 311535Z AUTO 28004KT 10SM CLR 11/05 A2994 RMK AO2", "KIKW 311555Z AUTO 00000KT 7SM OVC029 12/11 A2985 RMK AO2 T01220107", "KILE 311556Z AUTO 25006KT 10SM 21/12 A3008 RMK AO2 SLP178 T02110117 $", "KILG 311551Z 16005KT 10SM SCT010 BKN027 OVC110 16/13 A3009 RMK AO2 SLP189 T01610128", "KILM 311553Z 09007KT 10SM FEW021 SCT031 24/18 A3009 RMK AO2 SLP187 T02440183", "KILN 311554Z AUTO 20011KT 9SM SCT014 OVC065 17/14 A2991 RMK AO2 SLP129 T01670144", "KIML 311553Z AUTO 29009KT 10SM CLR 13/M05 A2998 RMK AO2 SLP155 T01281050", "KIMS 311555Z AUTO 19006KT 10SM BKN013 OVC036 16/16 A2993 RMK AO2", "KIMT 311554Z AUTO 00000KT 10SM CLR 13/05 A2982 RMK AO2 SLP103 T01280050", "KIND 311554Z 20010KT 5SM -DZ BR FEW008 OVC012 15/14 A2986 RMK AO2 DZB23 SLP109 P0000 T01500139", "KINF 311555Z AUTO 00000KT 7SM SCT022 26/21 A3004 RMK AO2", "KINJ 311555Z AUTO 00000KT 10SM CLR 20/13 A3006 RMK AO2 T02030131", "KINK 311553Z AUTO 13009KT 10SM CLR 16/07 A3006 RMK AO2 SLP154 T01610072", "KINL 311554Z AUTO 21010G18KT 10SM CLR 10/00 A2969 RMK AO2 SLP068 T01000000", "KINS 311555Z AUTO 00000KT 10SM CLR 09/M11 A3009 RMK AO2 SLP172 T00891106", "KINT 311554Z 00000KT 10SM -RA OVC009 16/14 A3009 RMK AO2 RAB44 CIG 007V013 SLP183 P0000 T01560139", "KINW 311456Z AUTO 12004KT 10SM CLR 02/M05 A3017 RMK AO2 SLP212 T00171050 53012", "KIOB 311555Z AUTO 22005KT 10SM BKN011 OVC014 17/15 A2997 RMK AO2 PWINO", "KIOW 311552Z AUTO 32004KT 10SM CLR 13/07 A2991 RMK AO2 SLP129 T01330067", "KIPJ 311555Z AUTO 00000KT 5SM BR OVC004 14/14 A3007 RMK AO2 T01440140", "KIPL 311553Z AUTO 22003KT 10SM CLR 19/M02 A2992 RMK AO2 SLP132 T01891022", "KIPT 311554Z 00000KT 10SM FEW017 BKN100 BKN120 13/08 A3003 RMK AO2 SLP171 T01280083", "KIRK 311555Z AUTO 33006KT 10SM CLR 14/08 A2992 RMK AO2 SLP135 T01440078", "KIRS 311555Z AUTO 00000KT 2 1/2SM BR OVC003 14/13 A2983 RMK AO2 T01400127", "KISM 311556Z VRB04KT 10SM SCT022 28/22 A3003 RMK AO2 SLP169 T02780217 PNO $", "KISO 311556Z 13003KT 10SM OVC050 22/15 A3011", "KISP 311456Z 24004KT 10SM BKN026 BKN140 17/11 A3007 RMK AO2 SLP183 T01720106 58011", "KISQ 311555Z AUTO 20004KT 10SM CLR 13/06 A2983 RMK AO2 T01250062", "KISW 311554Z AUTO VRB03KT 10SM CLR 12/06 A2987 RMK AO2 SLP119 T01220061", "KITH 311556Z 15008KT 10SM FEW070 14/07 A2999 RMK AO2 SLP157 T01390072", "KITR 311553Z AUTO 28007KT 5SM HZ CLR 13/M04 A3003 RMK AO2 SLP157 T01281039", "KIUA 311555Z AUTO 12003KT 10SM OVC045 14/07 A2996 RMK AO2 T01430073", "KIWA 311555Z 13006KT 10SM CLR 16/02 A2999", "KIWD 311556Z AUTO 22005KT 10SM CLR 12/04 A2984 RMK AO2 SLP112 T01170039", "KIWI 311553Z AUTO 21010KT 10SM CLR 16/08 A3003 RMK AO2 SLP169 T01560078", "KIXA 311555Z AUTO 11003KT 7SM SCT029 SCT033 BKN047 18/16 A3011 RMK AO2", "KIXD 311553Z 28009KT 10SM CLR 16/05 A2998 RMK AO2 SLP147 T01610050", "KIYA 311555Z AUTO 30003KT CLR 24/12 A3008 RMK AO2 T02370116 PWINO", "KIZA 311535Z AUTO 00000KT 10SM CLR 06/06 A2996 RMK AO2", "KIZG 311554Z AUTO 00000KT 10SM CLR 14/01 A2999 RMK AO2 SLP158 T01390011", "KJAC 311556Z 00000KT 10SM CLR 01/M04 A3014 RMK AO2 SLP227 T00111039", "KJAN 311554Z 23004KT 10SM BKN055 19/14 A3006 RMK AO2 SLP175 T01940144", "KJAQ 311555Z AUTO 00000KT 10SM CLR 15/01 A3000 RMK AO1 T01510011", "KJAS 311535Z AUTO 00000KT 7SM CLR 19/16 A3006 RMK AO2", "KJAX 311456Z 14007KT 10SM FEW020 FEW060 SCT170 27/21 A3003 RMK AO2 SLP169 T02720211 50008", "KJBR 311553Z AUTO 27009KT 10SM BKN014 17/13 A2997 RMK AO2 SLP148 T01670128 $", "KJCA 311535Z AUTO 05005KT 4SM -RA BR OVC004 15/ A3005 RMK AO2 P0001 T0147////", "KJCT 311551Z AUTO 00000KT 10SM CLR 16/09 A3009 RMK AO2 SLP168 T01560094", "KJDD 311535Z AUTO 00000KT 10SM CLR 18/14 A3007 RMK AO2", "KJDN 311548Z AUTO 00000KT 11/01 A2974 RMK AO1 SLP084 T01060011", "KJEF 311553Z 29005KT 10SM CLR 16/12 A2993 RMK AO2 SLP126 T01610117 $", "KJER 311553Z AUTO 12004KT 10SM CLR 08/M02 A3009 RMK AO2 SLP190 T00831017", "KJES 311535Z AUTO 00000KT 10SM SCT024 26/20 A3006 RMK AO2", "KJFK 311551Z 20007KT 10SM FEW045 SCT140 BKN250 16/10 A3009 RMK AO2 SLP188 T01610100", "KJFX 311555Z AUTO 00000KT 3SM BR SCT007 SCT014 OVC060 17/16 A3003 RMK AO2", "KJFZ 311555Z AUTO 00000KT 10SM OVC004 14/14 A3005 RMK AO2 P0001 T01420141", "KJHN 311535Z AUTO 30004KT 10SM CLR 12/M03 A3002 RMK AO2 T01211032", "KJHW 311556Z AUTO 18008KT 10SM SCT011 BKN021 OVC029 12/10 A2995 RMK AO2 RAB08E34 SLP149 P0000 T01220100", "KJKA 311556Z 00000KT 10SM CLR 22/14 A3005", "KJKJ 311555Z AUTO 20008KT 10SM CLR 08/M01 A2978 RMK AO2 TSNO", "KJKL 311553Z AUTO VRB03KT 10SM FEW007 BKN011 OVC016 17/15 A2998 RMK AO2 SLP145 T01720150", "KJLN 311553Z 23009KT 10SM SCT110 16/09 A3000 RMK AO2 SLP155 T01610089", "KJMR 311555Z AUTO 20003KT 10SM CLR 10/02 A2989 RMK AO2", "KJMS 311456Z AUTO 24008KT 10SM CLR 08/M02 A2975 RMK AO2 SLP083 T00831022 55001", "KJNX 311555Z AUTO 13005KT 10SM SCT065 22/15 A3009 RMK AO2", "KJOT 311535Z AUTO 00000KT 4SM BR BKN004 OVC013 15/15 A2983 RMK AO2 T01530146", "KJPX 311555Z AUTO 19003KT 10SM OVC007 15/15 A3008 RMK AO2 T01540150", "KJQF 311550Z 00000KT 4SM BR OVC007 17/15 A3009", "KJRB 311456Z AUTO 21004KT 10SM CLR A3010 RMK AO2 PK WND 26045/1427 SLPNO 6//// FZRANO $", "KJRO 311555Z AUTO 20007KT 10SM SCT015 BKN070 18/15 A2996 RMK AO2", "KJST 311554Z AUTO 24004KT 4SM BR SCT007 OVC012 11/11 A2999 RMK AO2 RAE45 SLP160 P0000 T01060106", "KJSV 311535Z AUTO 00000KT 10SM CLR 15/11 A3003 RMK AO2", "KJSY 311535Z AUTO 10SM SCT048 SCT055 OVC110 08/02 A2993 RMK AO2 T00830022 TSNO", "KJTC 311555Z AUTO 14004KT 9SM CLR 08/M06 A3019 RMK AO2", "KJVL 311545Z VRB03KT 10SM SCT039 BKN200 13/08 A2985", "KJVW 311555Z AUTO 26004KT 10SM BKN060 20/20 A3006 RMK AO2", "KJVY 311535Z AUTO 23008KT 10SM SCT014 SCT020 OVC032 17/15 A2992 RMK AO2", "KJWG 311555Z AUTO 00000KT 10SM CLR 15/06 A3008 RMK AO2 T01470056", "KJWN 311550Z 22007KT 10SM BKN016 17/14 A2995", "KJWY 311555Z AUTO 00000KT 10SM CLR 20/13 A3008 RMK AO2 T02040134", "KJXI 311555Z AUTO 10SM CLR 19/12 A3006 RMK AO2 P0001 T01860124", "KJXN 311534Z 00000KT 7SM OVC003 13/13 A2983 RMK AO2 RAE11 P0000 T01280128 $", "KJYG 311555Z AUTO 00000KT 10SM CLR 11/02 A2989 RMK AO2 TSNO", "KJYL 311555Z AUTO 19005KT 10SM CLR 25/20 A3005 RMK AO2 T02540203", "KJYM 311555Z AUTO 00000KT 4SM BR OVC002 14/13 A2984 RMK AO2 T01380129 P0002", "KJYO 311555Z AUTO 18005KT 10SM OVC100 13/12 A3008 RMK AO2", "KJYR 311535Z AUTO 00000KT 10SM CLR 11/03 A2996 RMK AO2", "KJZI 311555Z AUTO 19007KT 10SM SCT031 SCT038 BKN043 26/21 A3005 RMK AO2", "KK62 311535Z AUTO 19006KT 10SM BKN009 BKN013 OVC060 15/ A2993 RMK AO2", "KK70 311555Z AUTO 08007KT 10SM FEW024 FEW033 30/26 A2997 RMK AO2", "KK88 311535Z AUTO 26005KT 10SM OVC100 15/07 A3001 RMK AO1 T01480069", "KKLS 311556Z AUTO 15007KT 10SM -RA SCT009 BKN030 OVC042 A2991 RMK AO2 SLPNO P0007 FZRANO", "KKNB 311535Z AUTO 36009KT 10SM CLR 08/M05 A3018 RMK A01", "KKY8 311555Z AUTO 19010G15KT 9SM BKN012 BKN017 17/17 A2991 RMK A01 P0001", "KL08 311555Z AUTO 00000KT 10SM CLR 17/M04 A2994 RMK AO2", "KL18 311555Z AUTO 00000KT 10SM CLR 19/M01 A2995 RMK AO2", "KL35 311555Z AUTO 00000KT 10SM CLR 01/M10 A3019 RMK AO2", "KL52 311555Z AUTO 09005KT M1/4SM FG OVC002 08/08 A2996 RMK A01", "KLAA 311553Z AUTO 27008KT 10SM CLR 08/M05 A3002 RMK AO2 SLP164 T00831050", "KLAF 311554Z 21006KT 1 3/4SM -RA BR OVC006 15/14 A2982 RMK AO2 SLP097 P0001 T01500139", "KLAL 311550Z 13006KT 10SM BKN027 28/20 A3003", "KLAM 311535Z AUTO 00000KT 10SM CLR 05/M06 A3019 RMK AO2 T00491058", "KLAN 311553Z 00000KT 3/4SM R28L/4500VP6000FT BR OVC002 13/12 A2984 RMK AO2 SLP108 T01280117", "KLAR 311553Z AUTO 24015KT 10SM CLR 07/M09 A3007 RMK AO2 SLP156 T00721089", "KLAS 311456Z 00000KT 10SM FEW250 13/M06 A3005 RMK AO2 SLP163 T01331056 53004", "KLAW 311553Z 00000KT 10SM CLR 16/08 A3007 RMK AO2 SLP180 T01610083", "KLAX 311553Z 11003KT 10SM FEW007 SCT140 BKN250 17/11 A2994 RMK AO2 SLP136 T01720111 VISNO RWY24 $", "KLBB 311553Z 00000KT 10SM FEW220 SCT250 16/09 A3010 RMK AO2 SLP165 T01560089", "KLBE 311545Z 00000KT 10SM OVC014 13/13 A2998", "KLBF 311553Z AUTO 27009KT 10SM CLR 10/M04 A2996 RMK AO2 SLP153 T01001039", "KLBL 311556Z AUTO 21008KT 10SM CLR 17/01 A3005 RMK AO2 SLP168 T01720006", "KLBO 311555Z AUTO 28007KT 10SM OVC095 14/11 A2998 RMK AO2", "KLBT 311556Z AUTO 14006KT 10SM BKN070 23/18 A3007 RMK AO2 SLP180 T02330178 TSNO $", "KLBX 311553Z AUTO 08004KT 10SM CLR 24/13 A3007 RMK AO2 SLP181 T02390128", "KLCG 311555Z AUTO 00000KT 10SM CLR 12/05 A2992 RMK AO2 T01230052", "KLCH 311553Z VRB03KT 10SM CLR 22/14 A3007 RMK AO2 SLP190 T02170144", "KLCI 311556Z AUTO 21011KT 10SM CLR 15/01 A3001 RMK AO2 SLP166 T01500011", "KLCK 311455Z AUTO 18010KT 10SM BKN010 OVC070 17/16 A2992 RMK AO2 T01730157", "KLCQ 311535Z AUTO 14006KT 10SM BKN012 BKN016 25/21 A3004 RMK AO2", "KLDJ 311555Z AUTO 27004KT 10SM CLR 16/09 A3009 RMK AO2 T01580092", "KLDM 311555Z AUTO 00000KT 10SM CLR 14/07 A2984 RMK AO2 T01430073", "KLEB 311553Z 33003KT 10SM CLR 13/03 A3001 RMK AO2 SLP165 T01330028", "KLEE 311553Z 17005KT 10SM CLR 28/21 A3004 RMK AO2 SLP171 T02780211", "KLEW 311556Z AUTO 14005KT 10SM CLR 15/03 A3000 RMK AO2 SLP165 T01500033", "KLEX 311554Z 20009KT 10SM FEW015 OVC055 17/14 A2995 RMK AO2 SLP136 T01720139", "KLFI 311555Z 16003KT 10SM BKN060 19/14 A3010 RMK AO2A SLP199 T01850138 $", "KLFK 311553Z AUTO 32005KT 10SM CLR 19/13 A3007 RMK AO2 SLP180 T01890133", "KLFT 311553Z 00000KT 10SM CLR 24/14 A3007 RMK AO2 SLP181 T02390139", "KLGA 311551Z 21007KT 10SM SCT140 BKN250 17/08 A3007 RMK AO2 SLP183 T01670083 $", "KLGB 311553Z 00000KT 10SM CLR 17/09 A2993 RMK AO2 SLP136 T01670089", "KLGC 311535Z AUTO 27004KT 10SM SCT030 BKN055 20/15 A3004 RMK AO2 T01950153", "KLGD 311556Z AUTO 17013KT 10SM FEW095 11/00 A2994 RMK AO2 PK WND 19026/1510 RAB04E27 SLP136 P0000 T01110000", "KLGF 311555Z AUTO 00000KT 9SM CLR 15/M04 A2994 RMK AO2 SLP138 T01541045 TSNO $", "KLGU 311551Z AUTO 00000KT 10SM CLR 03/M01 A3017 RMK AO2 SLP224 T00281006", "KLHB 311535Z AUTO 00000KT 10SM CLR 17/14 A3009 RMK AO2 T01680140", "KLHM 311535Z AUTO 00000KT 10SM CLR 09/04 A2999 RMK AO1", "KLHQ 311553Z AUTO 21011G17KT 10SM FEW015 BKN029 OVC043 19/15 A2992 RMK AO2 SLP130 T01890150", "KLHW 311455Z 00000KT 10SM FEW003 23/22 A3002 RMK AO2A SLP169 T02280216 50007 $", "KLHX 311553Z AUTO 30005KT 10SM CLR 09/M04 A3005 RMK AO2 SLP153 T00941039", "KLHZ 311555Z AUTO 14004KT 10SM CLR 20/14 A3011 RMK AO2", "KLIC 311555Z AUTO 31004KT 10SM CLR 13/M06 A3004 RMK AO2 SLP160 T01281061", "KLIT 311553Z 34007KT 10SM FEW030 BKN250 20/12 A3002 RMK AO2 SLP166 T02000117", "KLJF 311555Z AUTO 24004KT 10SM CLR 12/M01 A2987 RMK AO2", "KLKR 311555Z AUTO 15004KT 9SM OVC006 19/17 A3006 RMK AO2", "KLKU 311555Z AUTO 21005KT 10SM SCT005 BKN023 OVC100 14/ A3009 RMK AO2 P0002 T0142////", "KLKV 311553Z AUTO 00000KT 10SM CLR M01/M03 A3009 RMK AO2 SLP217 T10061028 FZRANO", "KLLJ 311555Z AUTO 00000KT 10SM CLR 07/M03 A3003 RMK AO2 SLP153 T00671028", "KLLQ 311553Z AUTO 25006KT 10SM SCT047 18/14 A3004 RMK AO2 SLP171 T01780144", "KLMO 311535Z AUTO 00000KT 10SM CLR 10/M04 A3004 RMK AO2 T00991038", "KLMT 311553Z 00000KT 10SM CLR 02/M02 A3005 RMK AO2 SLP183 T00221022", "KLNA 311535Z AUTO 11007KT 10SM CLR 29/24 A3000 RMK AO2 T02880237 PNO", "KLND 311553Z AUTO 10004KT 10SM CLR 06/M07 A2999 RMK AO2 SLP146 T00561067", "KLNK 311454Z 18003KT 10SM CLR 07/01 A2998 RMK AO2 SLP155 T00720011 51007", "KLNL 311555Z AUTO 26004KT 10SM CLR 13/05 A2984 RMK AO2 T01250051", "KLNN 311535Z AUTO 21006KT 10SM OVC012 16/13 A2989 RMK AO1 T01630133", "KLNP 311555Z AUTO 17006KT 7SM OVC015 14/13 A3004 RMK AO2", "KLNQ 311555Z AUTO 33004KT 10SM CLR 23/16 A3008 RMK AO2 T02330162", "KLNR 311456Z AUTO 26004KT 10SM CLR 08/04 A2988 RMK AO2 SLP115 T00780044 50003", "KLNS 311553Z 19005KT 10SM BKN011 BKN100 15/12 A3007 RMK AO2 SLP182 T01500117", "KLOL 311553Z AUTO 13004KT 10SM CLR 01/M11 A3010 RMK AO2 SLP205 T00111106", "KLOM 311535Z AUTO 21005KT 10SM BKN027 OVC120 14/12 A3009 RMK AO2 T01370118", "KLOR 311555Z AUTO 29006KT 10SM CLR 21/13 A3004 RMK AO2 SLP155 T02140130", "KLOT 311535Z AUTO 00000KT 1 1/4SM BR BKN003 OVC008 14/14 A2984 RMK AO2", "KLOU 311553Z 22009KT 10SM FEW017 SCT025 OVC035 17/14 A2992 RMK AO2 SLP128 T01720139", "KLOZ 311553Z AUTO 21007KT 10SM OVC040 17/15 A2998 RMK AO2 SLP147 T01670150", "KLPC 311556Z AUTO 07004KT 10SM BKN003 08/08 A2997 RMK AO2 SLP149 T00830083", "KLPR 311553Z AUTO 21006KT 6SM BR OVC011 17/15 A2989 RMK AO2 SLP119 T01670150", "KLQK 311555Z AUTO 3SM -RA BKN005 OVC012 14/14 A3005 RMK AO2 P0009 T01400140", "KLRD 311556Z 11007KT 10SM OVC048 22/16 A3001 RMK AO2 SLP162 T02170156", "KLRF 311456Z 29007KT 10SM FEW180 17/13 A3000 RMK AO2A SLPNO RVRNO TSNO $", "KLRJ 311535Z AUTO 19005KT 10SM CLR 07/04 A2992 RMK AO2", "KLRO 311555Z AUTO 15006KT 9SM SCT030 26/22 A3005 RMK AO2", "KLRU 311555Z AUTO 34010KT 10SM CLR 14/M04 A3010 RMK AO2 T01421044", "KLRY 311555Z AUTO 28004KT 10SM CLR 17/07 A2999 RMK AO2", "KLSE 311553Z 16004KT 7SM CLR 09/06 A2988 RMK AO2 SLP121 T00940056", "KLSF 311555Z AUTO 26006KT 10SM BKN016 BKN055 21/17 A3002 RMK AO2 CIG 016V055 BKN016 V SCT SLP169 T02130171 CHINO RWY15 $", "KLSV 311555Z AUTO 00000KT 10SM CLR 15/M05 A3004 RMK AO2 SLP163 T01501049", "KLTS 311555Z 00000KT 10SM CLR 15/08 A3005 RMK AO2A SLP173 T01450080 $", "KLUA 311535Z AUTO 00000KT 10SM SCT035 SCT049 OVC090 15/13 A3004 RMK AO2", "KLUD 311555Z AUTO 00000KT 10SM CLR 17/11 A3007 RMK AO2 T01740107", "KLUF 311555Z AUTO 00000KT 10SM CLR 18/02 A2997 RMK AO2 SLP144 T01830022 $", "KLUG 311555Z AUTO 22011KT 10SM BKN023 OVC065 17/14 A2999 RMK A01", "KLUK 311553Z 20010KT 10SM BKN015 OVC070 18/15 A2992 RMK AO2 SLP129 T01780150", "KLUL 311535Z AUTO 32003KT 10SM SCT048 21/13 A3006 RMK A02 T02060132", "KLUM 311555Z AUTO 00000KT 10SM CLR 09/09 A2987 RMK AO2 T00940088 PWINO", "KLUV 311535Z AUTO 00000KT 10SM CLR 16/07 A3010 RMK AO2", "KLUX 311555Z AUTO 00000KT 1 1/4SM +RA OVC003 16/16 A3005 RMK AO2 P0034", "KLVJ 311553Z AUTO 36003KT 10SM CLR 23/13 A3008 RMK AO2 SLP186 T02280133", "KLVK 311553Z 10003KT 10SM CLR 11/07 A2998 RMK AO2 SLP151 T01060067", "KLVL 311555Z AUTO 15005KT 10SM BKN023 BKN050 BKN065 20/14 A3011 RMK AO1 T01970140", "KLVM 311553Z AUTO 21034G44KT 10SM CLR 11/M02 A2984 RMK AO2 PK WND 21047/1524 SLP090 T01111017", "KLVN 311535Z AUTO 00000KT 10SM CLR 11/01 A2989 RMK AO2", "KLVS 311553Z AUTO 24005KT 10SM CLR 10/M03 A3015 RMK AO2 SLP159 T01001028", "KLWA 311555Z AUTO 00000KT 1 1/2SM BR OVC002 14/13 A2982 RMK AO2 T01400132", "KLWB 311550Z 01004KT 2SM RA SCT001 BKN009 OVC026 11/11 A3006", "KLWC 311552Z AUTO 31007KT 10SM CLR 16/05 A2998 RMK AO1 SLP150 T01560050", "KLWD 311553Z AUTO 36006KT 10SM CLR 14/05 A2994 RMK AO2 SLP138 T01440050", "KLWM 311554Z 22010KT 10SM FEW030 17/09 A3005 RMK AO2 SLP178 T01670094", "KLWS 311456Z 02003KT 10SM OVC070 10/07 A2983 RMK AO2 RAE09 SLP105 P0000 60000 T01000072 56008", "KLWT 311554Z AUTO 23032G42KT 10SM CLR 13/00 A2976 RMK AO2 PK WND 24044/1535 SLP064 T01280000", "KLWV 311553Z AUTO 23009KT 10SM OVC023 15/13 A2989 RMK AO2 SLP120 T01500133 $", "KLXL 311555Z AUTO 20005KT 10SM CLR 10/01 A2984 RMK AO2", "KLXN 311535Z AUTO 27003KT 10SM CLR 10/M01 A2996 RMK AO2 T00961013", "KLXT 311553Z AUTO 30005KT 10SM CLR 16/06 A2996 RMK AO2 SLP144 T01610061", "KLXV 311553Z AUTO 01005KT 10SM CLR 01/M11 A3022 RMK AO2 SLP183 T00111106", "KLYH 311554Z 18006KT 4SM -RA BR BKN013 BKN046 OVC070 14/12 A3009 RMK AO2 RAB43 SLP186 P0002 T01440122", "KLYO 311555Z AUTO 30004KT 10SM CLR 13/M01 A3003 RMK AO2 T01271008", "KLYV 311555Z AUTO 17003KT 10SM CLR 06/00 A2990 RMK AO2", "KLZU 311556Z 06005KT 1 1/2SM BR OVC002 15/15 A3004 RMK AO2 SLP179 T01500150", "KLZZ 311535Z AUTO 28003KT 10SM CLR 19/12 A3005 RMK AO2 T01940118", "KM01 311535Z AUTO 22007KT 8SM OVC007 15/15 A2997 RMK AO2 CIG 007V009 T01550152 $", "KM02 311555Z AUTO 21008G13KT 10SM 15/14 A2996 RMK A01", "KM04 311555Z AUTO 22009KT 10SM FEW014 FEW019 OVC041 17/15 A2997 RMK A01", "KM08 311555Z AUTO 23006G13KT 10SM BKN019 OVC025 18/14 A2997 RMK A01", "KM19 311556Z AUTO 30012KT 10SM SCT018 17/13 A2999 RMK AO2 SLP153 T01720128", "KM21 311555Z AUTO 22009KT 10SM OVC014 17/14 A2994 RMK AO2 T01660139", "KM25 311555Z AUTO 23006KT 10SM SCT015 OVC032 16/13 A2995 RMK AO2 PWINO", "KM30 311555Z AUTO 24005KT 10SM OVC015 17/15 A2993 RMK AO2 P0001 T01650146", "KM40 311555Z AUTO 23006KT 9SM OVC010 17/16 A3004 RMK AO2", "KM54 311550Z AUTO 20009KT 10SM SCT013 BKN022 OVC065 17/15 A2996 RMK A01", "KM75 311555Z AUTO 00000KT 10SM CLR 11/03 A2968 RMK A01", "KM91 311555Z AUTO 20009KT 7SM SCT012 BKN031 OVC065 16/15 A2995 RMK A01", "KMAE 311553Z AUTO 09004KT 10SM CLR 13/03 A2999 RMK AO2 SLP153 T01330033", "KMAF 311553Z 15006KT 10SM CLR 16/08 A3008 RMK AO2 SLP161 T01560083", "KMAI 311553Z AUTO 30003KT 10SM OVC033 21/17 A3003 RMK AO1 SLP169 T02060172", "KMAN 311555Z AUTO 13004KT 9SM CLR 05/00 A3006 RMK A01", "KMAO 311555Z AUTO 14007KT 10SM CLR 23/17 A3007 RMK AO2", "KMAW 311555Z AUTO 31009KT 2SM -RA SCT004 BKN009 OVC019 15/13 A2996 RMK AO1 P0002", "KMBG 311552Z AUTO 18003KT 10SM CLR 09/M01 A2980 RMK AO2 SLP098 T00941011", "KMBL 311556Z AUTO 00000KT 10SM CLR 15/07 A2984 RMK AO2 SLP108 T01500072", "KMBO 311555Z AUTO 25005KT 10SM BKN060 20/16 A3005 RMK AO2", "KMBS 311553Z 05003KT 6SM BR OVC030 13/11 A2986 RMK AO2 SLP112 T01280106", "KMBT 311555Z AUTO 21009KT 10SM BKN018 BKN025 OVC060 18/14 A2997 RMK A01", "KMBY 311555Z AUTO 30005KT 10SM CLR 15/08 A2993 RMK AO2", "KMCB 311553Z AUTO 10SM CLR 21/11 A3007 RMK AO2 SLP178 T02110111", "KMCC 311555Z AUTO 00000KT 10SM 13/05 A2999 RMK AO2", "KMCD 311555Z AUTO 00000KT 10SM CLR 11/06 A2985 RMK AO2 T01130062", "KMCE 311553Z AUTO 00000KT 10SM CLR 14/03 A2998 RMK AO2 SLP151 T01390028", "KMCF 311555Z AUTO 18004KT 10SM CLR 28/21 A2998 RMK AO2 SLP155 T02760209 FZRANO $", "KMCI 311553Z 31008KT 10SM FEW110 SCT160 SCT200 16/04 A2996 RMK AO2 SLP143 T01610044", "KMCJ 311555Z AUTO 00000KT 10SM CLR 21/13 A3006 RMK A01", "KMCK 311553Z AUTO 27007KT 10SM CLR 09/M06 A2998 RMK AO2 SLP160 T00891056", "KMCN 311553Z 21005KT 10SM BKN008 OVC011 21/20 A3002 RMK AO2 SLP163 T02110200", "KMCO 311553Z 00000KT 10SM SCT024 28/21 A3002 RMK AO2 SLP163 T02780206", "KMCW 311553Z AUTO 29003KT 10SM CLR 11/03 A2991 RMK AO2 SLP130 T01110033", "KMDD 311535Z AUTO 14005KT 10SM CLR 15/07 A3009 RMK AO2 T01550071", "KMDH 311552Z 26007KT 5SM BR FEW007 OVC020 14/13 A2991 RMK AO2 RAB1458E11 SLP127 P0000 T01390133", "KMDS 311555Z AUTO 18007KT 10SM CLR 09/04 A2987 RMK AO2", "KMDT 311504Z 14003KT 5SM BR SCT005 BKN090 12/09 A3007 RMK AO2 T01170094", "KMDW 311553Z 03004KT 3/4SM R31C/4000VP6000FT BR OVC002 14/13 A2983 RMK AO2 SLP099 T01440128", "KMDZ 311555Z AUTO 28003KT 10SM CLR 11/06 A2986 RMK AO2 T01090059 PWINO", "KMEB 311552Z AUTO 14004KT 10SM FEW039 OVC060 22/16 A3008 RMK AO2 SLP182 T02220161", "KMEH 311456Z AUTO 00000KT 10SM -RA OVC055 09/05 A2991 RMK AO2 RAB32 SLP127 P0000 60000 T00940050 55005", "KMEI 311458Z VRB04KT 10SM CLR 19/14 A3004 RMK AO2 SLP171 T01940144 51017", "KMEM 311554Z 24008KT 10SM BKN009 BKN015 OVC040 16/14 A2999 RMK AO2 SLP154 BKN009 V SCT T01560139", "KMER 311515Z AUTO 00000KT 10SM CLR 09/07 A2997 RMK AO1", "KMEV 311555Z AUTO 00000KT 10SM CLR M00/M09 A3012 RMK AO2", "KMEZ 311555Z AUTO 00000KT 10SM 17/10 A3004 RMK AO2 T01720099", "KMFD 311552Z 19011KT 10SM BKN012 BKN019 BKN035 17/14 A2990 RMK AO2 RAE03 SLP122 P0001 T01720144", "KMFE 311453Z 10009KT 10SM OVC060 24/18 A2998", "KMFI 311554Z AUTO 30005KT 10SM CLR 13/06 A2986 RMK AO2 SLP115 T01330061", "KMFR 311553Z AUTO 01003KT 9SM CLR 05/03 A3004 RMK AO2 SLP174 T00500033", "KMGC 311535Z AUTO 00000KT 2SM -RA OVC003 13/13 A2983 RMK AO2", "KMGE 311555Z 09003KT 3/4SM BR OVC002 16/16 A3001 RMK AO2A SLP161 P0000 T01640162 RVRNO $", "KMGG 311555Z AUTO 22003KT 10SM CLR 12/01 A2988 RMK AO2 T01200007", "KMGJ 311554Z AUTO 22010KT 10SM CLR 13/09 A3005 RMK AO2 SLP179 T01330089", "KMGM 311553Z 22005KT 10SM CLR 21/14 A3005 RMK AO2 SLP173 T02110139 $", "KMGN 311555Z AUTO 00000KT 10SM CLR 12/06 A2985 RMK AO2 T01230065", "KMGR 311535Z AUTO 23005KT 10SM BKN010 22/20 A3004 RMK AO2", "KMGW 311553Z VRB05KT 10SM OVC013 17/15 A2999 RMK AO2 RAB01E42 SLP151 P0002 T01670150", "KMGY 311553Z AUTO 22011KT 10SM BKN012 BKN018 OVC024 17/14 A2990 RMK AO2 SLP121 T01670144", "KMHE 311553Z AUTO 19006KT 10SM CLR 09/01 A2987 RMK AO2 SLP121 T00940006", "KMHK 311552Z VRB03KT 10SM CLR 14/03 A3001 RMK AO2 SLP160 T01390028", "KMHL 311555Z AUTO 29006KT 10SM CLR 14/08 A2995 RMK AO2", "KMHP 311535Z AUTO 21003KT 10SM BKN010 BKN014 22/ A3004 RMK AO2 T0217////", "KMHR 311555Z AUTO 00000KT 10SM CLR 12/04 A2997 RMK A01", "KMHS 311556Z AUTO 00000KT 10SM CLR 03/M01 A3004 RMK AO2 SLP196 T00331006 ", "KMHT 311553Z 20006KT 10SM FEW150 BKN250 16/07 A3002 RMK AO2 SLP179 T01610072", "KMIA 311553Z 11007KT 10SM SCT027 BKN085 BKN200 31/23 A2998 RMK AO2 SLP153 T03060233", "KMIB 311555Z AUTO 27013KT 10SM CLR 09/01 A2969 RMK AO2 SLP065 T00890011 $", "KMIC 311553Z 00000KT 10SM CLR 12/01 A2987 RMK AO2 SLP117 T01170011", "KMIE 311553Z 22010G18KT 10SM BKN016 BKN025 OVC060 17/13 A2986 RMK AO2 SLP104 T01720133", "KMIV 311554Z AUTO 15004KT 10SM OVC026 17/12 A3009 RMK AO2 SLP186 T01720122 $", "KMIW 311553Z AUTO 31003KT 10SM CLR 12/06 A2991 RMK AO2 SLP131 T01170056", "KMJD 311535Z AUTO VRB04KT 10SM SCT050 20/16 A3006 RMK AO2", "KMJQ 311535Z AUTO 23003KT 10SM CLR 10/01 A2991 RMK AO2", "KMKC 311554Z 32005KT 10SM CLR 16/06 A2996 RMK AO2 SLP143 T01560061", "KMKE 311552Z 31004KT 8SM OVC025 13/09 A2985 RMK AO2 SLP108 T01330094", "KMKG 311555Z 35003KT 10SM BKN027 16/11 A2984 RMK AO2 SLP105 T01560106", "KMKJ 311555Z AUTO 03004KT 10SM OVC003 12/12 A3009 RMK AO2 T01170115", "KMKL 311553Z 26009KT 10SM OVC017 17/14 A2998 RMK AO2 SLP148 T01720139", "KMKN 311555Z AUTO 00000KT 10SM CLR 20/14 A3008 RMK AO2 T02030143", "KMKO 311553Z AUTO 06003KT 10SM CLR 17/08 A3005 RMK AO2 SLP172 T01720083", "KMKS 311515Z AUTO 14005KT 10SM SCT012 23/20 A3005 RMK AO2", "KMKT 311556Z AUTO 22003KT 10SM CLR 09/01 A2990 RMK AO2 SLP133 T00940006", "KMKY 311556Z AUTO 14008KT 110V190 10SM FEW030 30/21 A2998 RMK AO2 SLP153 T03000211 TSNO $", "KMLB 311553Z 14005KT 10SM CLR 28/22 A3001 RMK AO2 SLP160 T02780217", "KMLC 311553Z AUTO 00000KT 9SM FEW110 16/09 A3005 RMK AO2 SLP173 T01560089", "KMLE 311535Z AUTO 00000KT 10SM CLR 10/02 A2996 RMK AO2 T01000021", "KMLF 311552Z AUTO 20005KT 10SM CLR 02/M03 A3018 RMK AO2 SLP223 T00221033", "KMLI 311552Z 27004KT 7SM CLR 12/08 A2986 RMK AO2 SLP114 T01220078", "KMLJ 311535Z AUTO 00000KT 9SM OVC005 20/20 A3003 RMK AO2", "KMLP 311553Z AUTO VRB06G18KT 1/2SM -RA FG VV002 02/02 A2982 RMK AO2 SLP057 P0006 T00220022", "KMLS 311553Z AUTO 16006KT 10SM CLR 07/M01 A2980 RMK AO2 SLP098 T00671006", "KMLT 311553Z AUTO 00000KT 10SM CLR 12/05 A3001 RMK AO2 SLP168 T01220050", "KMLU 311553Z 26005KT 10SM CLR 22/13 A3006 RMK AO2 SLP178 T02170133", "KMMH 311534Z AUTO 00000KT 10SM CLR M03/M14 A3019 RMK AO2", "KMMI 311555Z AUTO 25004KT 10SM OVC008 17/16 A3003 RMK A01", "KMMK 311553Z AUTO 19007KT 10SM CLR 18/09 A3006 RMK AO2 SLP179 T01780089", "KMML 311556Z AUTO 22008KT 10SM CLR 14/02 A2987 RMK AO2 SLP123 T01390017", "KMMT 311555Z 14007KT 3SM BR OVC003 19/18 A3003 RMK AO2A SLP171 T01850183 $", "KMMU 311455Z 00000KT 10SM BKN250 15/12 A3009", "KMNE 311555Z AUTO 00000KT 10SM CLR 19/16 A3006 RMK AO2 T01880156", "KMNH 311535Z AUTO 00000KT 10SM CLR 08/M23 A3011 RMK AO2", "KMNI 311555Z AUTO 24006KT 10SM SCT008 SCT013 BKN031 22/19 A3006 RMK AO2", "KMNM 311556Z AUTO 31006KT 10SM CLR 13/06 A2985 RMK AO2 SLP111 T01280061 PNO $", "KMNV 311555Z AUTO 24007KT 10SM 18/17 A3000 RMK A01", "KMNZ 311555Z AUTO 00000KT 10SM CLR 21/11 A3008 RMK AO2 T02090111", "KMOB 311456Z 27003KT 10SM FEW060 BKN250 20/15 A3006 RMK AO2 SLP179 T02000150 53017", "KMOD 311553Z 00000KT 10SM CLR 10/06 A2997 RMK AO2 SLP149 T01000056", "KMOP 311535Z AUTO 00000KT 10SM SCT016 OVC038 11/09 A2984 RMK AO2 T01090087", "KMOR 311555Z AUTO 15003KT 10SM OVC004 16/16 A3000 RMK A01", "KMOT 311554Z 22010KT 10SM CLR 10/01 A2972 RMK AO2 SLP070 T01000011", "KMOX 311555Z AUTO 17007KT 10SM 09/00 A2984 RMK AO2", "KMPO 311553Z AUTO 20009KT 10SM SCT015 SCT020 OVC110 11/08 A3005 RMK AO2 SLP186 T01110083", "KMPR 311535Z AUTO 30004KT 10SM CLR 13/03 A3002 RMK AO2 T01270028", "KMPV 311551Z AUTO 02004KT 10SM CLR 13/00 A3003 RMK AO2 SLP175 T01330000", "KMPZ 311530Z AUTO 32004KT 10SM CLR 12/11 A2990 RMK AO2", "KMQB 311538Z AUTO 31006KT 10SM OVC100 A2990 RMK AO2", "KMQI 311535Z AUTO 05004KT 10SM CLR 19/13 A3013 RMK AO2 T01890129", "KMQJ 311555Z AUTO 20008KT 170V230 10SM OVC011 15/15 A2987 RMK AO1", "KMQS 311535Z AUTO VRB05KT 10SM BKN012 BKN021 15/13 A3009 RMK AO2", "KMQW 311535Z AUTO 20007KT 10SM OVC010 22/21 A3004 RMK AO2 T02220210", "KMQY 311556Z VRB05KT 10SM BKN015 BKN022 OVC065 17/14 A2999 RMK AO2 SLP162 T01720144", "KMRB 311553Z 00000KT 8SM FEW004 SCT040 BKN100 11/09 A3004 RMK AO2 RAE1458B16E47 SLP175 P0001 T01110094", "KMRC 311550Z AUTO 21008KT 8SM FEW015 SCT026 BKN037 17/16 A2997 RMK A01", "KMRF 311556Z AUTO 11005KT 10SM FEW110 16/04 A3011 RMK AO2 SLP156 T01560044", "KMRH 311522Z AUTO 07007KT 10SM BKN031 22/17 A3010 RMK AO2 T02220167", "KMRJ 311555Z AUTO 33004KT 10SM CLR 13/05 A2986 RMK AO2", "KMRN 311555Z AUTO 00000KT 1 1/2SM +RA BKN002 OVC007 14/13 A3011 RMK AO2 P0034 T01360132", "KMRT 311535Z AUTO 23009KT 10SM BKN012 BKN023 OVC070 17/15 A2991 RMK AO2 T01710147", "KMRY 311554Z 25003KT 7SM OVC004 11/10 A3001 RMK AO2 SLP174 T01060100 $", "KMSL 311553Z AUTO 23006KT 10SM FEW013 BKN019 OVC035 17/14 A3001 RMK AO2 SLP158 T01720144", "KMSN 311553Z 00000KT 10SM BKN250 13/07 A2985 RMK AO2 SLP112 T01330067", "KMSO 311553Z 10SM BKN045 OVC055 13/04 A2985 RMK AO2 SLP106 T01280039", "KMSP 311553Z 00000KT 10SM FEW250 09/02 A2988 RMK AO2 SLP122 T00940022", "KMSS 311553Z AUTO 19004KT 10SM CLR 14/04 A2996 RMK AO2 SLP148 T01440039", "KMSV 311556Z AUTO VRB04KT 10SM CLR 14/08 A3005 RMK AO2 SLP180 T01390078", "KMSY 311553Z VRB03KT 10SM FEW020 FEW050 SCT250 22/15 A3007 RMK AO2 SLP185 T02220150", "KMTC 311556Z 15006KT 7/8SM R19/P6000FT -DZ BR OVC003 14/14 A2982 RMK AO2A SLP104 P0001 T01410136", "KMTH 311553Z AUTO VRB05KT 10SM SCT020 32/24 A2997 RMK AO2 SLP147 T03170239 $", "KMTJ 311553Z AUTO 19003KT 10SM CLR 04/M02 A3020 RMK AO2 SLP212 T00391022", "KMTK 311540Z AUTO VRB04KT 10SM FEW018 22/16 A3007 RMK A01", "KMTN 311454Z 00000KT 10SM OVC007 15/14 A3010", "KMTO 311553Z AUTO 22007KT 7SM OVC004 13/12 A2986 RMK AO2 CIG 003V006 SLP111 T01280117", "KMTP 311554Z AUTO 00000KT 15/14 A3010 RMK AO1 SLP191 T01500144", "KMTV 311555Z AUTO 00000KT 10SM OVC007 14/12 A3011 RMK AO2 T01350121", "KMTW 311556Z AUTO 00000KT 10SM CLR 15/06 A2985 RMK AO2 SLP110 T01500056", "KMUI 311546Z 00000KT 7SM OVC008 12/09 A3006 RMK AO2A SLP184", "KMUO 311556Z AUTO 08011KT 10SM CLR 07/M01 A3003 RMK AO2 SLP178 T00671007 $", "KMUT 311555Z AUTO 33007KT 3SM HZ CLR 14/09 A2989 RMK AO2", "KMVE 311555Z AUTO 00000KT 10SM CLR 10/02 A2986 RMK AO2", "KMVH 311555Z AUTO 00000KT 10SM CLR 09/M00 A2978 RMK AO2 PWINO", "KMVL 311554Z AUTO 00000KT 10SM CLR 14/M01 A2999 RMK AO2 SLP161 T01391006", "KMVN 311556Z AUTO 25007KT 10SM FEW011 BKN025 OVC030 15/13 A2990 RMK AO2 SLP128 T01500128", "KMVY 311553Z 19008KT 10SM SCT011 BKN022 BKN026 18/15 A3008 RMK AO2 SLP187 T01830150", "KMWA 311545Z 25008KT 7SM BKN008 OVC012 16/16 A2990", "KMWC 311445Z 00000KT 10SM OVC029 11/06 A2986", "KMWH 311552Z 26004KT 10SM OVC090 11/07 A2977 RMK AO2 SLP083 T01110067", "KMWK 311535Z AUTO 00000KT 5SM -DZ OVC003 13/13 A3010 RMK AO2 T01310127", "KMWL 311553Z AUTO 00000KT 10SM CLR 18/12 A3006 RMK AO2 SLP174 T01780122", "KMWM 311555Z AUTO 19003KT 10SM CLR 12/01 A2989 RMK AO2", "KMWN 311450Z 25016KT 110SM SCT090 SCT160 BKN200 BKN220 08/M13 RMK", "KMWO 311535Z AUTO 21008KT 10SM OVC012 17/16 A2991 RMK AO2 T01670157", "KMWT 311553Z AUTO VRB04KT 10SM CLR 18/11 A3001 RMK AO2 SLP158 T01780111", "KMXF 311555Z AUTO 27005KT 10SM CLR 21/12 A3002 RMK AO2 SLP167 T02070116", "KMYF 311553Z 02003KT 10SM CLR 18/03 A2993 RMK AO2 SLP132 T01830028", "KMYJ 311555Z AUTO 33006KT 10SM 13/11 A2992 RMK AO2", "KMYL 311551Z AUTO 00000KT 10SM SCT100 SCT110 07/M01 A3001 RMK AO2 SLP158 T00721011", "KMYP 311535Z AUTO 27010KT 10SM CLR M04/M13 A3037 RMK AO2", "KMYR 311556Z 09007KT 10SM SCT007 22/20 A3008 RMK AO2 SLP185 T02220200", "KMYV 311553Z AUTO 05003KT 10SM CLR 13/05 A2999 RMK AO2 SLP160 T01330050", "KMYZ 311530Z AUTO 00000KT 10SM CLR 09/02 A3000 RMK AO2", "KMZH 311555Z AUTO 23003KT 10SM CLR 09/01 A2984 RMK AO2", "KMZJ 311535Z AUTO VRB04KT 10SM CLR 12/M00 A3002 RMK AO2", "KMZZ 311535Z AUTO 20011G16KT 10SM BKN013 OVC021 16/15 A2986 RMK AO2 T01550149", "KN03 311535Z AUTO 15007KT 10SM CLR 12/06 A3000 RMK AO2", "KN38 311555Z AUTO 20007KT 10SM BKN100 10/07 A2999 RMK AO2", "KN60 311552Z AUTO 27010KT 10/03 A2975 RMK AO1 SLP086 T01000028", "KNAK 311554Z AUTO 16004KT 10SM FEW018 BKN028 OVC055 17/13 A3007 RMK AO2 RAE23 SLP185 P0000 T01720133", "KNBC 311556Z 17004KT 10SM SCT010 BKN060 25/22 A3004 RMK AO2 SLP173 T02500217", "KNBG 311555Z VRB04KT 7SM SCT030 BKN250 22/16 A3007 RMK AO2 SLP180 T02220156 $", "KNBT 311510Z AUTO 07006KT 10SM BKN029 22/16 A3011 RMK AO2 T02220156", "KNCA 311456Z 00000KT 10SM CLR 20/16 A3011 RMK AO2 SLP197 T02000161 51009", "KNDZ 311456Z 30004KT 10SM FEW250 20/14 A3005 RMK AO2 SLP163 T02000144 51017 $", "KNEL 311500Z AUTO VRB04KT CLR 16/11 A3008 RMK AO2 SLP184 T01610106 50001 $", "KNEW 311553Z 29004KT 7SM CLR 21/17 A3008 RMK AO2 SLP178 T02060167", "KNFE 311556Z AUTO 16005KT 10SM BKN055 BKN070 OVC085 21/14 A3011 RMK AO2 SLP198 T02060139", "KNFG 311552Z 07003KT 10SM CLR 13/03 A2993 RMK AO2 SLP135 T01330033 $", "KNFL 311556Z 00000KT 10SM SCT150 BKN220 05/M07 A3009 RMK AO2 SLP157 T00501072 $ ", "KNFW 311552Z 30008KT 10SM BKN250 16/12 A3007 RMK AO2 SLP167 T01610122 $", "KNGP 311556Z 11012KT 10SM FEW025 FEW080 BKN250 BKN300 27/17 A3003 RMK AO2 SLP167 T02720167 ", "KNGU 311459Z VRB03KT 10SM SCT030 BKN070 BKN200 19/13 A3013 RMK AO2 SLP204 T01890128 51008 $", "KNHK 311452Z COR VRB05KT 10SM FEW003 FEW033 BKN060 BKN075 18/12 A3011 RMK AO2 SLP195 T01830122 51007", "KNID 311556Z 00000KT 10SM BKN250 11/M10 A3003 RMK AO2 SLP168 T01061100 $", "KNIP 311553Z 19006KT 10SM SCT030 SCT250 27/21 A3004 RMK AO2 SLP167 T02670211", "KNJK 311556Z 00000KT 10SM FEW250 19/M03 A2994 RMK AO2 SLP153 T01941028 $", "KNJM 311457Z AUTO 11004KT 8SM BKN024 22/16 A3011 RMK AO2 SLP201 T02220161 50003 $", "KNJW 311457Z AUTO 24007KT 10SM SCT014 OVC055 18/13 A3007 RMK AO2 SLP096 T01830133 51018", "KNKT 311513Z 10SM BKN029 22/16 A3012 RMK AO2 T02170161", "KNKX 311555Z 06004KT 10SM CLR 18/08 A2993 RMK AO2 SLP131 T01830078 $ ", "KNLC 311556Z 00000KT 9SM BKN170 BKN200 11/01 A2999 RMK AO2 SLP156 RH/52 T01060011 ", "KNMM 311556Z 27008KT 10SM FEW010 OVC055 20/14 A3005 RMK AO2 SLP184 T02000139 ", "KNOG 311556Z AUTO 08009KT 10SM CLR 24/16 A3004 RMK AO2 SLP152 T02390156 PNO $ ", "KNOW 311535Z AUTO 28014G19KT 10SM SCT033 SCT050 OVC070 10/08 A2975 RMK AO2 P0002 T00960081", "KNOZ 311459Z AUTO 33008KT 10SM CLR 15/M05 A2992 RMK AO2 SLP084 T01501050 53009 $", "KNPA 311456Z 31004KT 10SM SCT250 21/15 A3005 RMK AO2 SLP178 T02060150 51017", "KNQA 311550Z 23010KT 10SM OVC009 16/15 A2997", "KNQI 311556Z 12010KT 10SM OVC085 25/17 A3002 RMK AO2 SLP162 T02500167 $ ", "KNQX 311553Z 10007KT 10SM FEW018 32/24 A2997 RMK AO2 SLP148 T03220239 $ ", "KNRB 311552Z 15007KT 10SM SCT030 SCT200 28/23 A3004 RMK AO2 SLP170 T02780228", "KNRN 311535Z AUTO 26006KT 10SM CLR 12/M02 A3001 RMK AO2", "KNRS 311553Z 06003KT 7SM FEW006 BKN250 18/11 A2993 RMK AO2 SLP133 T01830111", "KNSE 311456Z VRB04KT 10SM FEW050 SCT250 21/14 A3006 RMK AO2 SLP163 6//// T02060139 51017 PNO $", "KNSI 311453Z 00000KT 10SM SCT140 BKN220 14/08 A2992 RMK SLP126 T01390083 53002", "KNTD 311455Z 06004KT 8SM FEW190 FEW250 09/06 A2993 RMK AO2 SLP136 T00890061 53007 $", "KNTU 311556Z 12005KT 10SM SCT065 BKN080 19/13 A3011 RMK AO2 SLP197 T01890133 ", "KNUC 311556Z 24005KT 7SM BKN006 BKN250 17/16 A2996 RMK AO2 SLP141 T01670156 $ ", "KNUI 311553Z AUTO 20005KT 10SM OVC065 19/13 A3009 RMK AO2 SLP188 T01940128", "KNUQ 311555Z AUTO 00000KT 7SM CLR 12/10 A2998 RMK AO2", "KNUW 311553Z 22006KT 10SM -RA BKN010 OVC025 12/11 A2979 RMK AO2 PRESRR SLP087 P0000 T01170106 VISNO $", "KNXF 311556Z AUTO 10SM 17/12 A2993 RMK AO2 SLP220 T01720117 PWINO $ ", "KNXP 311556Z AUTO 09004KT CLR 15/M09 A3009 RMK AO2 SLP166 T01501089 $ ", "KNY0 311537Z AUTO 00000KT 10SM CLR 11/03 A3003 RMK AO2", "KNYC 311551Z AUTO 00000KT 10SM CLR 16/09 A3010 RMK AO2 SLP183 T01610089 $", "KNYG 311556Z 16009KT 9SM SCT100 18/13 A3007 RMK AO2 SLP184 T01780133 $", "KNYL 311557Z 03007KT 7SM CLR 19/M02 A2994 RMK AO2 SLP135 T01891017 ", "KNZY 311552Z 05004KT 10SM SCT250 18/12 A2992 RMK AO2 SLP131 T01830122 $", "KO05 311555Z AUTO 00000KT 4SM HZ CLR 02/M07 A3010 RMK A01", "KO22 311555Z AUTO 00000KT 10SM CLR 11/04 A3000 RMK A01", "KO32 311555Z AUTO 00000KT 10SM CLR 13/04 A2997 RMK AO2 T01300044 $", "KO69 311555Z AUTO 00000KT 3SM BR OVC005 09/09 A3000 RMK A01", "KOAJ 311556Z 12004KT 10SM SCT035 BKN075 23/17 A3010 RMK AO2 SLP194 T02280167", "KOAK 311553Z 10004KT 10SM FEW008 BKN012 BKN230 13/11 A2999 RMK AO2 SLP154 T01280106", "KOAR 311555Z AUTO 00000KT 1/4SM FZFG OVC003 M07/M09 A3000 RMK AO2", "KOBE 311535Z AUTO VRB06G12KT 10SM SCT024 29/25 A2999 RMK AO2", "KOCF 311551Z 19006KT 10SM BKN025 BKN035 BKN045 27/22 A3004 RMK AO2 SLP171 T02720217 PNO $", "KOCH 311556Z AUTO 29004KT 10SM CLR 21/14 A3008 RMK AO2 SLP189 T02060139", "KOCQ 311555Z AUTO 00000KT 10SM CLR 14/07 A2984 RMK AO1 T01350071", "KOCW 311535Z AUTO 00000KT 10SM BKN049 BKN095 20/14 A3012 RMK AO2 T02010138", "KODO 311553Z AUTO 17011KT 10SM CLR 17/07 A3010 RMK AO2 SLP163 T01720072", "KODX 311553Z AUTO 00000KT 10SM CLR 08/02 A2992 RMK AO2 SLP144 T00830017", "KOEB 311555Z AUTO 00000KT 7SM BKN002 OVC011 14/14 A2983 RMK AO2 T01440138", "KOEL 311555Z AUTO 25012KT 10SM CLR 16/M07 A3001 RMK AO1 T01631066", "KOEO 311555Z AUTO 00000KT 10SM CLR 08/08 A2991 RMK AO2 T00790078", "KOFF 311555Z 30005KT 10SM CLR 11/02 A2998 RMK AO2A SLP159 T01140022 PWINO PNO FZRANO TSNO $", "KOFK 311456Z AUTO 00000KT 10SM CLR 07/03 A2992 RMK AO2 SLP141 T00670028 55001", "KOFP 311554Z AUTO 21007KT 10SM BKN037 OVC044 18/13 A3010 RMK AO2 SLP192 T01830128", "KOGA 311535Z AUTO 25007KT 10SM CLR 07/M04 A2998 RMK AO2 T00661045", "KOGB 311553Z AUTO 14005KT 9SM BKN005 OVC010 21/20 A3005 RMK AO2 CIG 004V008 SLP173 T02110200", "KOGD 311553Z 16006KT 10SM CLR 07/M03 A3016 RMK AO2 SLP201 T00721033", "KOGS 311535Z AUTO VRB04KT 10SM CLR 14/04 A2993 RMK AO2", "KOIC 311555Z AUTO 18008KT 10SM CLR 13/07 A3003 RMK AO2 T01280072", "KOIN 311555Z AUTO 26005KT 10SM CLR 13/M02 A3003 RMK AO1 T01311018", "KOJA 311555Z AUTO 00000KT 10SM CLR 16/06 A3007 RMK AO2 T01580062", "KOJC 311553Z 29004KT 10SM CLR 16/06 A2996 RMK AO2 SLP142 T01560056", "KOKB 311552Z AUTO 00000KT 10SM CLR 14/05 A2992 RMK AO2 SLP132 T01390050", "KOKC 311552Z 00000KT 10SM SCT250 16/06 A3006 RMK AO2 SLP173 T01560061", "KOKK 311556Z AUTO 21012KT 10SM SCT015 BKN055 OVC085 17/17 A2985 RMK AO2 SLPNO T01720172 PNO $", "KOKM 311535Z AUTO 22005KT 10SM CLR 15/04 A3004 RMK AO2 T01520037", "KOKV 311555Z AUTO 00000KT 10SM OVC100 11/10 A3003 RMK AO2", "KOKZ 311535Z AUTO 18004KT 2 1/2SM BR OVC002 20/20 A3004 RMK AO2 VIS 2V4 T02010196", "KOLE 311535Z AUTO 21007KT 10SM SCT048 BKN060 OVC120 11/06 A2997 RMK AO2", "KOLF 311553Z AUTO 09003KT CLR 06/01 A2975 RMK AO2 SLP089 T00560011 $", "KOLG 311555Z AUTO 00000KT 10SM CLR 06/03 A2985 RMK AO1", "KOLM 311554Z 20009KT 3SM -RA BR BKN007 BKN018 OVC043 12/11 A2982 RMK AO2 SLP099 P0015 T01170111", "KOLU 311556Z AUTO 00000KT 10SM CLR 11/02 A2996 RMK AO2 SLP153 T01060017", "KOLV 311550Z 21008KT 10SM BKN012 OVC017 17/15 A2998", "KOLY 311535Z AUTO 25007KT 10SM BKN011 OVC016 14/14 A2990 RMK AO2 T01420136", "KOLZ 311535Z AUTO 36004KT 9SM CLR 11/07 A2989 RMK A01", "KOMA 311552Z 00000KT 10SM SCT250 10/03 A2996 RMK AO2 SLP148 T01000028", "KOMH 311555Z AUTO 19007KT 10SM SCT016 BKN027 OVC110 14/12 A3010 RMK AO2 P0001", "KOMK 311553Z AUTO 17008KT 10SM SCT095 10/07 A2972 RMK AO2 SLP065 T01000072", "KOMN 311450Z 10003KT 7SM BKN013 27/27 A3004", "KONA 311535Z AUTO 00000KT 10SM CLR 08/05 A2989 RMK AO2", "KONL 311535Z AUTO 21005KT 10SM CLR 10/M01 A2990 RMK AO2 T01011009", "KONM 311555Z AUTO 36010KT 10SM CLR 10/M05 A3015 RMK AO2 T00961053", "KONO 311553Z AUTO 00000KT 7SM CLR 04/01 A3006 RMK AO2 SLP191 T00390006", "KONP 311515Z AUTO 20017G23KT 1 1/4SM -RA OVC004 12/11 A2998 RMK AO2 P0001", "KONT 311553Z 00000KT 10SM FEW200 SCT250 18/01 A2995 RMK AO2 SLP132 T01780011", "KONX 311535Z AUTO 00000KT 10SM OVC065 19/11 A3013 RMK AO2 T01900114", "KONZ 311555Z AUTO 18004KT 2SM -DZ OVC003 14/11 A2984 RMK AO2 T01360109 P0001", "KOOA 311535Z AUTO 32005KT 10SM CLR 13/11 A2992 RMK AO2 T01330105", "KOPF 311553Z 11010KT 10SM SCT012 BKN055 30/22 A2999 RMK AO2 SLP155 T03000217", "KOPL 311535Z AUTO 36003KT 10SM CLR 22/14 A3007 RMK AO2 T02150139", "KOPN 311535Z AUTO 20007KT 10SM BKN009 BKN016 OVC043 24/19 A3004 RMK AO2", "KOQN 311535Z AUTO 21003KT 10SM BKN026 OVC110 15/12 A3008 RMK AO2", "KOQT 311553Z AUTO VRB03KT 10SM OVC008 16/15 A3002 RMK AO2 RAE12 CIG 007V013 SLP160 P0000 T01610150", "KORB 311553Z AUTO 22009G15KT 200V260 10SM CLR 11/00 A2973 RMK AO2", "KORD 311551Z 02007KT 2 1/2SM BR OVC004 13/12 A2983 RMK AO2 SLP101 T01330117", "KORE 311552Z AUTO 22009KT 10SM CLR 15/07 A3005 RMK AO2 SLP180 T01500072", "KORF 311551Z 12004KT 10SM SCT047 OVC060 19/14 A3011 RMK AO2 SLP194 T01940139", "KORG 311535Z AUTO 01003KT 10SM CLR 23/17 A3009 RMK AO2 T02260166", "KORH 311554Z 22015KT 10SM CLR 16/09 A3005 RMK AO2 SLP177 T01610094", "KORL 311553Z 00000KT 10SM SCT028 BKN034 BKN042 28/21 A3002 RMK AO2 SLP169 T02780211", "KORS 311555Z AUTO 19011G17KT 6SM -RA BR FEW007 BKN022 OVC030 11/11 A2972 RMK AO2", "KOSA 311535Z AUTO 33003KT 10SM CLR 17/14 A3006 RMK AO2 T01680137", "KOSC 311555Z AUTO 00000KT 10SM SCT036 BKN090 15/08 A2986 RMK AO2 T01540082", "KOSH 311553Z 00000KT 8SM CLR 14/07 A2984 RMK AO2 SLP107 T01390067", "KOSU 311450Z 20010KT 10SM SCT010 BKN015 BKN020 18/16 A2991 RMK AO2", "KOTG 311556Z AUTO 21007KT 10SM CLR 13/00 A2991 RMK AO2 SLP137 T01330000", "KOTH 311556Z 14010KT 10SM OVC018 11/10 A3003 RMK AO2 SLP169 T01110100", "KOTM 311553Z AUTO 30003KT 9SM CLR 13/07 A2991 RMK AO2 SLP129 T01330072", "KOUN 311548Z 29004KT 10SM CLR 16/04 A3004", "KOVE 311553Z AUTO 14005KT 10SM CLR 14/04 A3000 RMK AO2 SLP162 T01440039", "KOVL 311555Z AUTO 22005KT 10SM CLR 11/01 A2987 RMK AO2", "KOVS 311553Z AUTO 23003KT 10SM CLR 10/06 A2988 RMK AO2 SLP124 T01000061", "KOWA 311553Z AUTO 00000KT 10SM CLR 09/03 A2989 RMK AO2", "KOWB 311556Z 22010KT 9SM OVC011 17/16 A2991 RMK AO2 SLP130 T01670156", "KOWD 311553Z 24007KT 10SM OVC027 18/12 A3006 RMK AO2 SLP179 T01780122", "KOWP 311535Z AUTO 00000KT 10SM CLR 16/08 A3005 RMK AO2 T01610084", "KOWX 311535Z AUTO 21010KT 10SM SCT010 BKN014 OVC034 18/15 A2987 RMK AO1", "KOXB 311553Z AUTO 13005KT 10SM 17/12 A3011 RMK AO2 SLP194 T01720122", "KOXC 311551Z 27006KT 10SM CLR 14/09 A3008 RMK AO2 SLP199 T01440089", "KOXD 311555Z AUTO 20006KT 10SM BKN013 BKN022 OVC029 18/15 A2990 RMK AO2 T01830146", "KOXI 311555Z AUTO 20004KT 5SM BKN006 BKN014 OVC038 15/14 A2982 RMK AO1", "KOXR 311551Z 01004KT 10SM CLR 15/05 A2993 RMK AO2 SLP134 T01500050 $", "KOXV 311555Z AUTO 31004KT 10SM CLR 12/06 A2992 RMK AO2", "KOYM 311555Z AUTO 00000KT 10SM SCT028 BKN036 OVC043 12/08 A3001 RMK AO2 PWINO", "KOZA 311530Z AUTO 14005KT 10SM CLR 17/08 A3010 RMK AO2", "KOZR 311555Z AUTO 30007KT 10SM CLR 22/13 A3004 RMK AO2 SLP173 T02150134", "KOZS 311555Z AUTO 26009KT 10SM CLR 15/10 A2997 RMK AO2", "KOZW 311555Z AUTO 15003KT 7SM OVC003 14/14 A2984 RMK AO2 T01420138 P0001", "KP08 311555Z AUTO 00000KT 10SM CLR 17/02 A2999 RMK AO2", "KP28 311456Z AUTO 34003KT 08/00 A3004 RMK AO1 SLP173 T00780000 53011", "KP53 311556Z AUTO 36005KT 11/07 A2981 RMK AO1 SLP097 T01060072", "KP58 311455Z AUTO 16006KT 12/12 A2985 RMK AO1 SLP110 60006 T01220117 56003", "KP59 311551Z AUTO 00000KT 12/06 A2980 RMK AO1 SLP094 T01220056", "KP60 311556Z AUTO VRB03KT 00/M03 A3013 RMK AO1 SLP210 T00001033 ", "KP68 311553Z AUTO 00000KT 02/M06 A3015 RMK AO1 SLP208 T00171061", "KP69 311552Z AUTO 30003KT 07/06 A2995 RMK AO1 SLP147 P0002 T00720061", "KP92 311459Z AUTO 30003KT 19/16 A3006 RMK AO1 SLP179 T01940161 52020", "KPAE 311553Z 18018G28KT 10SM BKN007 OVC015 12/10 A2976 RMK AO2 PK WND 19028/1544 SLP077 T01170100", "KPAH 311553Z VRB03KT 10SM OVC015 17/14 A2992 RMK AO2 SLP128 T01720139 $", "KPAM 311555Z 02005KT 10SM SCT035 BKN043 22/17 A3003 RMK AO2A RAB02E23 SLP172 T02210166 $", "KPAN 311555Z AUTO 00000KT 10SM CLR 13/M06 A3013 RMK AO2 PWINO TSNO", "KPAO 311547Z 15003KT 7SM BR BKN055 11/10 A2999", "KPBF 311553Z AUTO 31004KT 10SM CLR 19/13 A3002 RMK AO2 SLP164 T01940128", "KPBG 311553Z AUTO 13009KT 10SM CLR 13/03 A2998 RMK AO2 SLP152 T01280033", "KPBH 311555Z AUTO 00000KT 10SM CLR 09/05 A2985 RMK AO2 T00930052", "KPBI 311553Z 13009KT 10SM SCT021 SCT050 SCT250 29/23 A2999 RMK AO2 SLP156 T02890233", "KPBX 311535Z AUTO 00000KT 10SM BKN003 OVC027 16/16 A2999 RMK AO2 T01590159", "KPCD 311535Z AUTO 31007KT 250V330 10SM BKN015 BKN045 OVC080 16/14 A2991 RMK AO2 T01600139", "KPCM 311555Z AUTO 17007KT 10SM SCT029 SCT036 30/22 A3004 RMK AO2", "KPCW 311555Z AUTO 21007KT 10SM BKN013 BKN021 OVC060 17/17 A2985 RMK AO2", "KPCZ 311555Z AUTO 00000KT 10SM CLR 14/07 A2986 RMK AO2 T01400066", "KPDC 311555Z AUTO 00000KT 10SM CLR 09/05 A2989 RMK AO2 T00870052", "KPDK 311553Z 00000KT 1/4SM FG OVC002 16/16 A3003 RMK AO2 SLP167 T01560156", "KPDT 311553Z 06003KT 10SM OVC060 12/07 A2987 RMK AO2 SLP108 T01170072", "KPDX 311553Z 20014KT 6SM -RA BR FEW014 SCT029 OVC050 13/11 A2991 RMK AO2 SLP128 P0004 T01280111", "KPEA 311535Z AUTO 30004KT 10SM CLR 11/06 A2992 RMK AO2 T01120057", "KPEO 311553Z AUTO 21008KT 10SM OVC040 13/06 A2998 RMK AO2 SLP152 T01280061", "KPEQ 311535Z AUTO 06004KT 10SM CLR 13/07 A3006 RMK AO2 T01290065", "KPEX 311555Z AUTO 21004KT 10SM CLR 12/01 A2987 RMK AO2", "KPEZ 311535Z AUTO 05003KT 10SM CLR 19/15 A3007 RMK AO2 T01910147", "KPGD 311553Z 10008KT 10SM SCT028 30/22 A3001 RMK AO2 SLP159 T03000222", "KPGV 311555Z AUTO 00000KT 10SM BKN048 OVC060 21/16 A3011 RMK AO2", "KPHD 311553Z AUTO 21006KT 10SM OVC009 16/14 A2994 RMK AO2 CIG 006V012 SLP137 T01610144", "KPHF 311554Z 17004KT 10SM OVC060 18/13 A3011 RMK AO2 SLP196 T01780133", "KPHL 311554Z 19003KT 10SM BKN029 BKN130 16/13 A3008 RMK AO2 SLP186 T01560128 $", "KPHN 311535Z AUTO 00000KT 3SM DZ OVC002 14/13 A2985 RMK AO2", "KPHP 311555Z AUTO 26011KT 10SM CLR 10/M04 A2987 RMK AO2 SLP119 T01001039", "KPHT 311555Z AUTO 22009KT 10SM SCT012 SCT018 OVC032 17/16 A2995 RMK A01", "KPHX 311551Z 11006KT 10SM CLR 18/02 A2996 RMK AO2 SLP133 T01830022", "KPIA 311554Z 33004KT 1SM R04/P6000FT -RA BR OVC003 13/12 A2986 RMK AO2 RAE00B48 SLP111 P0000 T01280117", "KPIB 311556Z AUTO VRB04KT 10SM FEW031 SCT046 21/13 A3008 RMK AO2 SLP183 T02110133", "KPIE 311553Z 04006KT 10SM FEW024 26/23 A3002 RMK AO2 SLP164 T02610233", "KPIH 311553Z 01005KT 10SM CLR 07/M02 A3012 RMK AO2 SLP199 T00721022", "KPIL 311553Z AUTO 10010KT 10SM OVC060 26/19 A3000 RMK AO2 SLP157 T02610189", "KPIM 311535Z AUTO 27006KT 10SM BKN012 OVC023 20/17 A3004 RMK AO2 T01980165", "KPIR 311553Z AUTO 23005KT 10SM CLR 08/M03 A2984 RMK AO2 SLP111 T00831033", "KPIT 311551Z 17004KT 10SM OVC007 13/13 A2995 RMK AO2 DZB15E38 SLP150 P0000 T01330128", "KPKB 311553Z 19005KT 10SM OVC010 17/15 A2997 RMK AO2 CIG 008V013 SLP145 T01670150", "KPKD 311553Z AUTO 22006KT 10SM CLR 11/01 A2978 RMK AO2 SLP094 T01110006", "KPKV 311555Z AUTO 06005KT 10SM CLR 22/18 A3006 RMK AO2 T02190175", "KPLN 311554Z AUTO 00000KT 10SM CLR 11/06 A2986 RMK AO2 SLP115 T01110061", "KPLR 311555Z AUTO 00000KT 10SM FEW009 OVC050 18/16 A3005 RMK A01", "KPLU 311535Z AUTO 17005KT 4SM -DZ BKN028 BKN035 OVC055 12/12 A2983 RMK AO2", "KPMD 311553Z 32003KT 10SM CLR 10/M06 A3005 RMK AO2 SLP170 T01001061", "KPMH 311535Z AUTO 15003KT 10SM BKN014 BKN020 OVC070 19/15 A2995 RMK AO2 T01910152", "KPMP 311553Z 10008KT 10SM FEW019 FEW060 30/23 A2998 RMK AO2 SLP154 T03000233", "KPMU 311535Z AUTO 25007KT 10SM FEW016 SCT024 BKN029 17/13 A3001 RMK AO2", "KPMV 311535Z AUTO 32005KT 10SM CLR 11/02 A2996 RMK AO2 T01100024", "KPNA 311535Z AUTO 00000KT 10SM SCT050 00/M05 A3014 RMK AO2", "KPNC 311553Z AUTO VRB03KT 10SM CLR 15/06 A3003 RMK AO2 SLP163 T01500056", "KPNE 311554Z 21003KT 10SM SCT030 BKN120 16/11 A3009 RMK AO2 SLP189 T01560106", "KPNM 311555Z AUTO 00000KT 10SM CLR 11/02 A2987 RMK AO2 TSNO", "KPNS 311553Z 28003KT 10SM CLR 23/13 A3005 RMK AO2 SLP178 T02280133", "KPNT 311535Z AUTO 31005KT 1SM BR OVC002 14/14 A2984 RMK AO2 T01350135", "KPOB 311555Z AUTO 15003KT 10SM SCT060 OVC160 21/15 A3007 RMK AO2 SLP185 T02100149 $", "KPOC 311547Z 00000KT 10SM CLR A2996", "KPOE 311555Z AUTO 00000KT 10SM CLR 21/13 A3006 RMK AO2 LTG DSNT S SLP181 T02140133", "KPOF 311553Z AUTO 30006KT 10SM FEW015 SCT035 OVC055 16/13 A2994 RMK AO2 SLP137 T01560128", "KPOU 311553Z 24008KT 10SM CLR 16/09 A3005 RMK AO2 SLP173 T01560089", "KPOV 311555Z AUTO 19003KT 5SM OVC005 15/13 A2991 RMK AO2 T01460126 PWINO", "KPOY 311535Z AUTO 16006KT 10SM CLR 07/M06 A2991 RMK AO2", "KPPA 311535Z AUTO 25006KT 10SM CLR 16/06 A3009 RMK AO2 T01590055", "KPPF 311552Z AUTO 29004KT 10SM FEW110 17/06 A3001 RMK AO2 SLP158 T01720061", "KPPO 311535Z AUTO 00000KT 2 1/2SM -RA OVC003 14/14 A2983 RMK AO2 P0001 T01370137", "KPPQ 311535Z AUTO 31006KT 4SM OVC004 12/12 A2990 RMK AO2 T01160116", "KPQI 311556Z AUTO VRB05KT 10SM CLR 15/01 A2998 RMK AO2 SLP181 T01500006", "KPQL 311553Z VRB05KT 10SM FEW026 23/16 A3006 RMK AO2 SLP179 T02330156", "KPRB 311553Z AUTO 00000KT 10SM CLR 07/01 A3002 RMK AO2 SLP164 T00720011 $", "KPRC 311553Z 00000KT 10SM CLR 09/M06 A3014 RMK AO2 SLP169 T00941056", "KPRG 311535Z AUTO 23009KT 10SM BKN006 OVC011 14/14 A2987 RMK AO2 T01410141", "KPRN 311458Z AUTO 00000KT 10SM CLR 18/14 A3004 RMK AO2 SLP121 T01780144 51016 $", "KPRO 311555Z AUTO 32003KT 10SM CLR 12/03 A2993 RMK AO2 T01180028", "KPRS 311535Z AUTO 00000KT 10SM SCT120 18/09 A3005 RMK AO2 T01760089", "KPRX 311556Z AUTO VRB03KT 10SM CLR 17/13 A3007 RMK AO2 SLP179 T01720133", "KPSC 311553Z 21012G21KT 10SM OVC075 16/08 A2982 RMK AO2 SLP097 T01560078", "KPSF 311554Z AUTO 23011G17KT 10SM CLR 13/07 A3002 RMK AO2 SLP161 T01330067", "KPSK 311535Z AUTO 00000KT 7SM -DZ OVC005 12/12 A3007 RMK AO2 T01200120", "KPSM 311555Z 22005KT 10SM FEW200 BKN250 17/09 A3002 RMK AO2A SLP169 T01690088", "KPSN 311535Z AUTO 29004KT 8SM CLR 20/13 A3005 RMK AO2", "KPSO 311535Z AUTO 00000KT 10SM CLR 03/M05 A3020 RMK AO2 T00281049", "KPSP 311553Z 03003KT 10SM CLR 22/M04 A2995 RMK AO2 SLP139 T02171044", "KPSX 311553Z AUTO 06005KT 10SM CLR 23/14 A3006 RMK AO2 SLP177 T02330139", "KPTB 311555Z AUTO 00000KT 10SM CLR 18/13 A3011 RMK AO2 T01750126", "KPTD 311555Z AUTO 23009KT 10SM CLR 16/03 A2995 RMK AO2", "KPTK 311553Z 14003KT 1 1/4SM BR OVC003 13/13 A2984 RMK AO2 SLP107 T01280128", "KPTN 311556Z AUTO 35005KT 10SM CLR 22/16 A3008 RMK AO2 SLP187 T02220156 $", "KPTS 311555Z AUTO 26006KT 10SM CLR 16/09 A2998 RMK AO2 T01550093 PWINO", "KPTT 311535Z AUTO 31003KT 10SM CLR 14/00 A3004 RMK AO2 T01381001", "KPTV 311556Z AUTO 35003KT 10SM CLR 14/04 A3001 RMK AO2 SLP160 T01390039", "KPTW 311554Z AUTO 23005KT 9SM BKN027 BKN120 15/11 A3009 RMK AO2 SLP189 T01500111", "KPUB 311553Z 29007KT 10SM CLR 11/M06 A3004 RMK AO2 SLP161 T01061056", "KPUC 311553Z AUTO 00000KT 10SM CLR 07/M08 A3016 RMK AO2 SLP211 T00671078", "KPUJ 311555Z AUTO 26004KT 5SM BR SCT008 BKN012 BKN019 17/17 A3003 RMK AO2", "KPUW 311553Z AUTO 19011KT 10SM OVC037 11/07 A2986 RMK AO2 SLP115 T01060067", "KPVB 311555Z AUTO 31004KT 10SM CLR 13/06 A2987 RMK AO1 T01320061", "KPVC 311556Z AUTO 20008KT 10SM SCT021 BKN033 OVC041 16/13 A3009 RMK AO2 SLP187 T01610128", "KPVD 311551Z 17006KT 10SM FEW014 OVC023 16/13 A3008 RMK AO2 SLP186 T01560128", "KPVF 311555Z AUTO 09005KT 10SM CLR 13/00 A3004 RMK AO1", "KPVG 311556Z AUTO VRB03KT 10SM BKN045 OVC070 19/13 A3012 RMK AO2 SLP202 T01940133 PNO $", "KPVJ 311555Z AUTO 00000KT 10SM CLR 14/07 A3006 RMK AO2 T01400074", "KPVU 311556Z 00000KT 10SM SCT200 04/M02 A3021 RMK AO2 SLP231 T00441017", "KPVW 311530Z AUTO 00000KT 10SM CLR 14/07 A3009 RMK AO2 T01430074", "KPWA 311553Z 00000KT 10SM CLR 16/06 A3006 RMK AO2 SLP175 T01560056", "KPWC 311555Z AUTO 20005KT 10SM CLR 12/02 A2983 RMK AO2", "KPWD 311535Z AUTO 15003KT 10SM CLR 05/01 A2972 RMK AO2", "KPWG 311556Z AUTO 00000KT CLR 20/12 A3008 RMK AO2 SLP182 T02000122 PWINO $", "KPWK 311552Z 36007KT 1SM BR OVC003 13/12 A2985 RMK AO2 SLP108 T01280117", "KPWM 311551Z 22008KT 10SM BKN250 15/07 A3001 RMK AO2 SLP163 T01500067", "KPWT 311556Z AUTO 19013G18KT 10SM OVC005 12/12 A2977 RMK AO2 RAE41 CIG 004V009 SLP086 P0001 T01170117", "KPXE 311535Z AUTO 22008KT 10SM SCT008 BKN013 OVC020 21/20 A3004 RMK AO2 T02140203", "KPYM 311552Z AUTO VRB04KT 10SM OVC016 16/12 A3007 RMK AO2 SLP186 T01560122", "KPYX 311555Z AUTO 22006KT 10SM CLR 13/02 A3006 RMK AO2 T01340018", "KPZQ 311555Z AUTO 00000KT 10SM CLR 13/08 A2987 RMK AO2 T01300076", "KPZZ 311535Z AUTO 04007KT 8SM CLR 22/15 A3007 RMK A01", "KQAZ 311555Z AUTO 11007KT 070V160 9999 CLR 31/M02 A2997 RMK AO2 SLP148 WND DATA ESTMD T03091022", "KQBL 311455Z AUTO 36003KT 10SM CLR 21/14 A3006 RMK AO2 SLP185 WND DATA ESTMD T02070140 52017", "KQD3 311555Z AUTO 09006KT M M CLR 28/20 A2990 RMK AO2 SLP110 WND DATA ESTMD T02820201 $", "KQDG 311555Z AUTO 22003KT 9999 BKN037 10/07 A3020 RMK AO2 SLPNO T01000067", "KQEI 311550Z AUTO 27001KT 9999 CLR 06/06 A3022 RMK A02 TSNO", "KQEJ 311550Z AUTO 00000KT 9999 CLR 21/21 / RMK A02 TSNO", "KQEN 311550Z AUTO 26004KT 3200 BR BKN090 / / RMK A02 TSNO", "KQEP 311550Z AUTO 00000KT 9000 CLR 09/08 A3025 RMK A02 TSNO", "KQEQ 311550Z AUTO 15002KT 2000 BR CLR 11/12 / RMK A02 TSNO", "KQER 311550Z AUTO 13001KT 9999 SCT050 06/05 A3019 RMK A02 TSNO", "KQEV 311550Z AUTO 00000KT 4800 CLR 08/07 A3020 RMK A02 TSNO", "KQEW 311550Z AUTO 15002KT 9999 CLR 07/06 A3023 RMK A02 TSNO", "KQEX 311510Z AUTO 03002KT 9999 CLR 10/08 A3016 RMK A02 TSNO", "KQEY 311550Z AUTO 23001KT 9999 CLR 08/06 A2994 RMK A02 TSNO", "KQFB 311550Z AUTO 01001KT 9999 CLR 08/06 A3027 RMK A02 TSNO", "KQFT 311550Z AUTO 00000KT 9999 OVC110 09/07 A3022 RMK A02 TSNO", "KQFU 311550Z AUTO 08001KT 4000 BR BKN110 09/09 A3027 RMK A02 TSNO", "KQFV 311550Z AUTO 27001KT 9999 CLR 05/05 A3026 RMK A02 TSNO", "KQFW 311550Z AUTO 00000KT 4800 FEW110 04/04 A3007 RMK A02 TSNO", "KQFX 311550Z AUTO 11002KT 6000 CLR 18/16 / RMK A02 TSNO", "KQHY 311455Z AUTO 03003KT 10SM CLR 21/14 A3005 RMK AO2 SLP182 T02070143 52016", "KQN3 311455Z AUTO VRB05G10KT 9999 CLR 37/03 A2987 RMK AO2 SLP104 WND DATA ESTMD T03650033", "KQRH 311555Z AUTO VRB05KT 9999 CLR 28/21 A2986 RMK AO2 SLP114 WND DATA ESTMD T02800210", "KQTZ 311455Z 33002KT 9999 BKN140 30/09 A2979 RMK SLP087 WND DATA ESTMD ALSTG/SLP ESTMD 53002", "KQVF 311555Z AUTO 14008KT 100V160 9999 FEW017 BKN170 27/23 A2993 RMK AO2 SLP138 WND DATA ESTMD T02650234", "KRAC 311553Z AUTO 05003KT 7SM OVC018 13/09 A2986 RMK AO2 SLP114 T01330094", "KRAL 311553Z 06003KT 10SM CLR 16/M01 A2995 RMK AO2 SLP127 T01611006", "KRAP 311552Z 28005KT 10SM CLR 13/M08 A2987 RMK AO2 SLP126 T01331078", "KRAS 311535Z AUTO 09009KT 10SM CLR A3005 RMK AO2", "KRAW 311555Z AUTO 28004KT 10SM SCT110 14/09 A2997 RMK AO2", "KRBD 311553Z 00000KT 10SM CLR 21/12 A3006 RMK AO2 SLP174 T02060117", "KRBG 311553Z AUTO 00000KT 10SM CLR 12/10 A3003 RMK AO2 SLP167 T01220100", "KRBL 311554Z AUTO 33004KT 10SM CLR 11/02 A3001 RMK AO2 SLP160 T01110017", "KRBO 311535Z AUTO 10SM CLR 25/16 A3002 RMK AO2 T02510162", "KRBW 311535Z AUTO 19006KT 10SM SCT014 SCT025 BKN050 23/21 A3007 RMK AO2", "KRCA 311555Z AUTO 23003KT 10SM CLR 12/M08 A2984 RMK AO2 SLP114 T01211079 $", "KRCE 311555Z AUTO 00000KT 10SM CLR 14/06 A3005 RMK AO2", "KRCM 311555Z AUTO 25005KT 10SM CLR 14/06 A2996 RMK AO2", "KRCR 311535Z AUTO VRB06KT 10SM SCT009 BKN014 OVC075 16/15 A2983 RMK AO2", "KRCV 311535Z AUTO 29007KT 10SM CLR 03/M08 A3021 RMK AO2 T00331076", "KRCX 311555Z AUTO 00000KT 10SM CLR 09/08 A2988 RMK AO2 T00940080", "KRCZ 311555Z AUTO 13005KT 10SM SCT017 SCT035 21/17 A3007 RMK AO2 T02140167", "KRDD 311553Z 00000KT 10SM CLR 10/02 A3000 RMK AO2 SLP157 T01000017", "KRDG 311554Z 00000KT 10SM SCT015 BKN019 BKN095 15/11 A3006 RMK AO2 SLP186 T01500106 $", "KRDK 311535Z AUTO 30003KT 10SM CLR 11/04 A2996 RMK AO2", "KRDM 311456Z 13003KT 10SM CLR 12/00 A2993 RMK AO2 SLP131 T01170000 58004", "KRDR 311455Z COR 21005KT 10SM BKN250 10/M01 A2968 RMK AO2A SLPNO COR 1549", "KRDU 311551Z 17006KT 10SM FEW032 SCT055 BKN160 BKN250 22/15 A3008 RMK AO2 SLP185 T02170150", "KREG 311535Z AUTO 00000KT 10SM CLR 22/16 A3007 RMK AO2 T02210159", "KREO 311552Z AUTO 06005KT 06/M05 A3004 RMK AO1 SLP177 T00611050 $", "KRFD 311554Z 33004KT 8SM SCT044 OVC250 14/09 A2986 RMK AO2 SLP113 T01390094", "KRFI 311555Z AUTO 00000KT 10SM CLR 21/10 A3008 RMK AO2 T02100101", "KRGA 311537Z AUTO 00000KT 10SM BKN016 OVC026 17/15 A2998 RMK AO2", "KRGK 311555Z AUTO 00000KT 10SM CLR 08/03 A2987 RMK AO2", "KRHI 311553Z AUTO 23003KT 10SM CLR 12/04 A2985 RMK AO2 SLP118 T01170044", "KRHP 311555Z AUTO 28003KT 10SM SCT018 BKN025 OVC031 17/14 A3004 RMK AO2 T01710142", "KRHV 311447Z 00000KT 10SM SKC 11/08 A3000", "KRIC 311554Z 21005KT 10SM FEW025 SCT030 BKN035 19/13 A3009 RMK AO2 SLP194 T01890128", "KRIL 311553Z AUTO 00000KT 10SM CLR 02/M02 A3021 RMK AO2 SLP236 T00171022", "KRIV 311555Z AUTO 00000KT 10SM CLR 14/00 A2997 RMK AO2 SLP142 T01410000", "KRIW 311553Z AUTO 20005KT 10SM CLR 06/M07 A3001 RMK AO2 SLP152 T00611072", "KRKP 311553Z AUTO 06009KT 10SM CLR 26/17 A3004 RMK AO2 SLP172 T02560172", "KRKR 311535Z AUTO 21005KT 10SM SCT001 12/12 A3005 RMK AO2", "KRKS 311554Z AUTO 24016KT 10SM CLR 04/M06 A3014 RMK AO2 PK WND 24027/1531 SLP199 T00391061", "KRKW 311555Z AUTO VRB05G11KT 10SM SCT008 OVC050 16/14 A3000 RMK A01", "KRLD 311555Z AUTO 23013G22KT 10SM OVC080 17/09 A2981 RMK AO2 T01710086", "KRME 311553Z 14007KT 10SM CLR 14/07 A3000 RMK AO2 SLP157 T01390067", "KRMG 311553Z AUTO 10SM SCT004 BKN008 OVC045 18/16 A3002 RMK AO2 CIG 006V012 SLP159 T01780161", "KRMN 311555Z AUTO 20007KT 10SM SCT024 SCT090 20/12 A3010 RMK AO2 T01960124", "KRMY 311555Z AUTO 00000KT 5SM BR OVC003 14/13 A2984 RMK AO2 T01360131", "KRNC 311555Z AUTO VRB05KT 10SM FEW015 OVC050 17/14 A2999 RMK A01", "KRND 311555Z AUTO 18005KT 10SM CLR 21/14 A3004 RMK AO2 SLP168 T02140141", "KRNH 311555Z AUTO 00000KT 10SM CLR 09/07 A2987 RMK AO2 T00900073", "KRNM 311553Z 00000KT 10SM CLR 19/M01 A2996 RMK AO2 SLP135 T01891006", "KRNO 311555Z 00000KT 10SM SCT200 BKN250 03/M06 A3011 RMK AO2 SLP187 T00331061", "KRNP 311555Z AUTO 00000KT 3SM BR OVC003 13/12 A2984 RMK AO2 T01290116", "KRNT 311553Z 18009KT 10SM FEW021 BKN030 OVC035 13/10 A2980 RMK AO2 SLP095 T01330100", "KRNV 311555Z AUTO 27004KT 10SM BKN013 18/14 A3004 RMK AO2 T01760143 TSNO", "KROA 311554Z 11003KT 3SM -RA BR OVC005 13/12 A3009 RMK AO2 RAB05 SLP188 P0011 T01330122", "KROC 311554Z 23005KT 10SM SCT048 BKN085 OVC120 13/06 A2996 RMK AO2 RAB35E47 SLP148 P0000 T01280056", "KROG 311530Z 6SM SCT003 13/11 A3003 RMK AO2 $", "KROS 311542Z AUTO 14003KT 10SM SCT070 SCT095 11/04 A2987 RMK AO2", "KROW 311551Z 02005KT 10SM CLR 12/05 A3009 RMK AO2 SLP156 T01220050 $", "KROX 311555Z AUTO 22010KT 10SM CLR 09/01 A2967 RMK AO2", "KRPD 311555Z AUTO 00000KT 10SM CLR 08/07 A2988 RMK AO2 T00790068", "KRPH 311555Z AUTO 00000KT 10SM CLR 16/11 A3006 RMK AO2 T01610115 $", "KRPJ 311535Z AUTO 35006KT 7SM SCT008 OVC018 13/12 A2986 RMK AO2 T01250119 TSNO", "KRQB 311555Z AUTO 00000KT 10SM OVC031 14/09 A2984 RMK AO2 T01400085", "KRQE 311553Z AUTO 00000KT 10SM CLR 04/M04 A3019 RMK AO2 SLP189 T00441044", "KRRL 311555Z AUTO 00000KT 10SM CLR 11/05 A2985 RMK AO2 T01060054 TSNO", "KRRT 311555Z AUTO 21010KT 10SM 09/02 A2966 RMK AO2", "KRSL 311553Z AUTO 24004KT 10SM CLR 12/M01 A3000 RMK AO2 SLP164 T01171011", "KRSN 311555Z AUTO 00000KT 10SM CLR 21/14 A3005 RMK AO2 T02050139", "KRST 311554Z 30005KT 10SM CLR 12/05 A2990 RMK AO2 SLP130 T01170050", "KRSV 311535Z AUTO 22006KT 10SM -RA SCT013 BKN019 OVC065 15/14 A2988 RMK AO2 T01500137", "KRSW 311553Z 12007KT 10SM BKN024 BKN031 29/23 A2998 RMK AO2 SLP150 T02890233", "KRTN 311553Z AUTO 08004KT 10SM CLR 07/M01 A3011 RMK AO2 SLP168 T00721006", "KRTS 311555Z AUTO 00000KT 9SM CLR 00/M10 A3012 RMK AO2", "KRUE 311553Z AUTO 31006KT 10SM CLR 18/12 A3001 RMK AO2 SLP155 T01830122", "KRUG 311555Z AUTO 27010KT 10SM CLR 09/02 A2971 RMK AO2", "KRUQ 311555Z AUTO 00000KT 10SM -RA OVC010 16/14 A3007 RMK AO2 T01560136", "KRUT 311556Z AUTO 01003KT 10SM CLR 14/03 A3001 RMK AO2 SLP160 T01440028 $", "KRVF 311535Z AUTO 17007G14KT 110V200 10SM BKN070 OVC075 09/M00 A2995 RMK AO2", "KRVJ 311535Z AUTO 17009KT 10SM BKN015 23/20 A3004 RMK AO2 T02340199", "KRVL 311555Z AUTO 00000KT 9SM SCT049 BKN055 OVC065 11/07 A3004 RMK AO2", "KRVS 311553Z 00000KT 10SM CLR 17/08 A3003 RMK AO2 SLP175 T01670083", "KRWF 311553Z AUTO 18003KT 10SM CLR 12/02 A2988 RMK AO2 SLP120 T01170017", "KRWI 311553Z AUTO VRB04KT 10SM FEW060 21/13 A3011 RMK AO2 SLP194 T02060133 $", "KRWL 311553Z AUTO 24019G28KT 10SM CLR 06/M06 A3013 RMK AO2 PK WND 23028/1548 SLP177 T00561056", "KRWV 311535Z AUTO 29003KT 10SM CLR 19/14 A3007 RMK AO2 T01950137", "KRXE 311553Z AUTO 18005KT 10SM CLR 06/M02 A3013 RMK AO2 SLP206 T00611017", "KRYM 311555Z AUTO 22004KT 10SM CLR 09/01 A2982 RMK AO2 SLP111 T00920011 $", "KRYN 311445Z 10006KT 10SM CLR 09/M01 A2999", "KRYV 311555Z AUTO 00000KT 10SM CLR 13/05 A2986 RMK AO2 T01330051", "KRYW 311535Z AUTO 27004KT 10SM CLR 17/10 A3009 RMK AO2 T01720104", "KRYY 311550Z VRB03KT 2SM BR OVC002 16/16 A3004 RMK AO2 SLP166 T01560156 $", "KRZL 311555Z AUTO 19005KT 10SM SCT012 OVC018 15/15 A2983 RMK AO2", "KRZN 311555Z AUTO 00000KT 10SM CLR 11/01 A2986 RMK AO2 T01130014", "KRZR 311550Z AUTO VRB05KT 10SM BKN010 OVC014 17/17 A3000 RMK A01", "KS21 311530Z AUTO 18012KT 10SM OVC035 02/M02 A3004 RMK AO2", "KS24 311555Z AUTO 20008KT 10SM FEW010 BKN055 BKN065 17/15 A2986 RMK AO2", "KS25 311555Z AUTO 22006KT 10SM CLR 06/01 A2977 RMK AO2", "KS32 311555Z AUTO 26012KT 10SM CLR 12/M01 A2975 RMK AO2 TSNO", "KS33 311535Z AUTO 21011KT 10SM CLR 13/04 A2993 RMK AO2", "KS39 311555Z AUTO 18006KT 10SM CLR 12/03 A2994 RMK AO2", "KS52 311535Z AUTO 00000KT 10SM -RA SCT070 SCT095 OVC110 05/04 A2975 RMK AO2 T00480041", "KS71 311545Z AUTO 06005KT 10SM 08/02 A2969 ", "KS85 311540Z AUTO 00000KT 10SM CLR 06/02 A2974 RMK A01 Culbertson ", "KSAA 311535Z AUTO 15009KT 10SM CLR 03/M05 A3014 RMK AO2", "KSAC 311553Z 00000KT 10SM CLR 11/07 A2999 RMK AO2 SLP154 T01110072", "KSAD 311551Z AUTO 00000KT 10SM CLR 13/M01 A3005 RMK AO2 SLP154 T01281011", "KSAF 311553Z 36014KT 10SM CLR 07/M05 A3016 RMK AO2 SLP189 T00671050", "KSAN 311551Z 00000KT 10SM FEW010 SCT250 18/08 A2994 RMK AO2 SLP137 T01830083", "KSAR 311555Z AUTO 25004KT 10SM BKN008 OVC017 13/13 A2992 RMK AO2 T01340126", "KSAT 311551Z VRB03KT 10SM BKN250 21/13 A3006 RMK AO2 SLP166 T02110128", "KSAV 311553Z 18012KT 10SM SCT027 BKN140 BKN170 BKN250 27/18 A3003 RMK AO2 SLP170 T02720183", "KSAW 311547Z 00000KT 10SM CLR 12/05 A2981", "KSAZ 311555Z 20005KT 7SM 12/01 A2981 RMK AO2", "KSBA 311553Z 00000KT 10SM CLR 14/09 A2992 RMK AO2 SLP132 T01390089 $", "KSBD 311553Z 00000KT 10SM CLR 17/M06 A2996", "KSBM 311553Z AUTO 00000KT 10SM CLR 16/06 A2984 RMK AO2 SLP107 T01560056", "KSBN 311554Z 11004KT 3/4SM R27L/5000VP6000FT -RA BR OVC003 14/14 A2984 RMK AO2 RAB47 SLP104 P0001 T01440139", "KSBO 311535Z AUTO 19004KT 10SM OVC006 21/21 A3006 RMK AO2", "KSBP 311456Z 00000KT 8SM SCT002 07/06 A2995 RMK AO2 SLP141 T00670061 55001", "KSBS 311535Z AUTO 00000KT 10SM CLR M02/M04 A3020 RMK AO1 T10201040", "KSBY 311554Z 20007KT 10SM CLR 20/13 A3009 RMK AO2 SLP192 T02000128", "KSCD 311555Z AUTO 25006KT 10SM OVC049 19/15 A3005 RMK AO2 T01890149", "KSCH 311545Z 15003KT 15SM CLR 14/03 A3003", "KSCK 311555Z 00000KT 9SM CLR 12/06 A2998 RMK AO2 SLP152 T01170056", "KSCR 311555Z AUTO 12005KT 10SM CLR 20/15 A3008 RMK AO2 T01980151", "KSDA 311535Z AUTO VRB03KT 8SM CLR 11/04 A2995 RMK AO2", "KSDB 311553Z AUTO 06004KT 10SM 17/M09 A3010 RMK AO2 SLP150 T01721089 $", "KSDC 311555Z AUTO 14004KT 10SM OVC065 14/06 A2996 RMK AO2", "KSDF 311507Z 22009KT 10SM BKN015 BKN060 BKN250 18/14 A2991 RMK AO2 T01780144", "KSDL 311553Z 00000KT 10SM CLR 16/01 A2999 RMK AO2 SLP141 T01610006", "KSDM 311553Z 16003KT 10SM CLR 21/M03 A2993 RMK AO2 SLP132 T02061028 $", "KSDY 311556Z AUTO 19010KT 10SM CLR 07/01 A2977 RMK AO2 SLP097 T00670011 PNO $", "KSEA 311553Z 18012G22KT 10SM SCT015 BKN026 OVC120 12/10 A2980 RMK AO2 SLP096 T01170100", "KSEE 311547Z 00000KT 10SM SKC 13/06 A2995", "KSEG 311553Z AUTO 22004KT 10SM FEW018 BKN120 13/09 A3005 RMK AO2 SLP179 T01330089", "KSEM 311555Z AUTO 24004KT 10SM OVC049 19/16 A3004 RMK AO2", "KSEP 311555Z AUTO 00000KT 10SM CLR 20/11 A3010 RMK AO2 T02000106", "KSEQ 311555Z AUTO 17005KT 10SM CLR 22/14 A3004 RMK AO2 SLP171 T02200136", "KSET 311554Z AUTO 30005KT 10SM OVC010 14/12 A2989 RMK AO2 CIG 009V012 SLP119 T01390117", "KSEZ 311555Z AUTO 12004KT 10SM 13/M04 A3012 RMK AO2", "KSFB 311553Z VRB03KT 10SM FEW025 SCT032 28/21 A3002 RMK AO2 SLP164 T02780211", "KSFF 311553Z 20005KT 10SM BKN025 BKN060 11/06 A2979 RMK AO2 SLP087 T01110061", "KSFM 311556Z AUTO 23006G15KT 10SM CLR 17/07 A3002 RMK AO2 SLP171 T01670067", "KSFO 311456Z 00000KT 10SM FEW006 BKN180 11/09 A2998 RMK AO2 SLP151 T01110094 56005", "KSFQ 311555Z AUTO 00000KT 10SM OVC044 19/13 A3013 RMK AO2 T01880134", "KSFY 311523Z AUTO 00000KT 5SM BR CLR 09/07 A2987 RMK AO2", "KSFZ 311556Z AUTO 25009KT 10SM BKN017 BKN025 OVC035 16/12 A3007 RMK AO2 SLP185 T01610117", "KSGF 311552Z 31007KT 10SM FEW110 16/11 A2997 RMK AO2 SLP146 T01610106", "KSGH 311556Z AUTO 22010KT 10SM BKN013 OVC021 17/ A2991 RMK AO2 SLP126 T0167", "KSGJ 311556Z 13008KT 10SM SCT015 26/23 A3004 RMK AO2 SLP173 T02610233", "KSGR 311553Z 00000KT 10SM CLR 23/13 A3007 RMK AO2 SLP183 T02280133", "KSGS 311555Z AUTO 00000KT 10SM CLR 11/03 A2987 RMK AO2 T01070030", "KSGT 311556Z AUTO 30006KT 10SM CLR 18/14 A3002 RMK AO2 SLP166 T01830139", "KSGU 311556Z AUTO 19004KT 10SM CLR 10/M03 A3014 RMK AO2 SLP193 T01001033", "KSHD 311555Z AUTO 19007KT 10SM SCT022 OVC028 16/12 A3008 RMK AO2 T01600122", "KSHL 311535Z AUTO 00000KT CLR 08/02 A2990 RMK AO2", "KSHN 311553Z AUTO 22016G22KT 10SM SCT016 SCT043 SCT050 12/11 A2978 RMK AO2 PK WND 23027/1508 RAE30 SLP085 P0002 T01220106", "KSHR 311553Z AUTO 00000KT 10SM CLR 08/01 A2987 RMK AO2 SLP129 T00830006", "KSHV 311456Z 29005KT 9SM FEW240 FEW280 18/14 A3004 RMK SLPNO", "KSIF 311555Z AUTO 00000KT 10SM OVC008 15/13 A3008 RMK AO2 T01450133", "KSIK 311555Z AUTO 23006KT 10SM SCT012 SCT018 BKN024 16/15 A2993 RMK AO2", "KSIY 311553Z AUTO 00000KT 10SM CLR 03/M04 A3006 RMK AO2 SLP195 T00281039", "KSJC 311553Z 15005KT 4SM HZ SCT005 BKN007 OVC100 12/09 A2999 RMK AO2 SLP154 T01220094", "KSJS 311535Z AUTO 21003KT 7SM SCT011 SCT022 OVC026 17/17 A2999 RMK AO2 T01700170", "KSJT 311551Z 00000KT 10SM CLR 17/09 A3008 RMK AO2 SLP177 T01720089", "KSJX 311555Z AUTO 27005KT 10SM CLR 17/05 A2984 RMK AO2 T01660052", "KSKA 311555Z 20011KT 10SM OVC085 09/06 A2975 RMK AO2A SLP290 T00850058 $", "KSKF 311555Z AUTO 13005KT 10SM FEW190 21/14 A3003 RMK AO2 SLP166 T02130135 $", "KSKX 311556Z AUTO 32003KT 10SM CLR 06/M06 A3020 RMK AO2 SLP228 T00561056", "KSLB 311535Z AUTO 26005KT 10SM CLR 12/01 A2993 RMK AO2", "KSLC 311554Z 15007KT 10SM FEW230 08/M01 A3016 RMK AO2 SLP202 T00831006", "KSLE 311456Z 17010KT 10SM -RA OVC026 13/09 A2993 RMK AO2 RAE00B54 SLP136 P0000 60000 T01330094 56012", "KSLG 311556Z AUTO 20005KT 2 1/2SM BR OVC002 11/11 A3004 RMK AO2 VIS 2V4 SLP168 T01110111", "KSLH 311555Z AUTO 00000KT 10SM CLR 10/07 A2984 RMK AO2", "KSLI 311555Z 00000KT 10SM FEW020 SCT150 BKN200 16/10 A2990 RMK AO2A SLP128 T01630097", "KSLK 311551Z AUTO VRB04KT 10SM CLR 13/01 A2997 RMK AO2 SLP158 T01280006", "KSLN 311553Z 35003KT 10SM CLR 13/03 A3002 RMK AO2 SLP166 T01330033", "KSLR 311535Z AUTO 00000KT 10SM CLR 16/14 A3008 RMK AO2 T01580136", "KSMD 311535Z AUTO 19007KT 10SM OVC011 16/16 A2985 RMK A01", "KSME 311535Z AUTO 22004KT 7SM FEW013 FEW020 OVC055 17/17 A2996 RMK AO2", "KSMF 311553Z 32004KT 10SM BKN230 11/06 A2999 RMK AO2 SLP154 T01110056", "KSMN 311556Z AUTO 34003KT 10SM CLR 04/00 A2998 RMK AO2 SLP848 T00390000", "KSMO 311551Z 00000KT 10SM CLR 17/06 A2994 RMK AO2 SLP137 T01720056", "KSMP 311556Z AUTO VRB03KT 1/2SM RA FG VV002 04/03 A2980 RMK AO2 SLP095 P0011 T00440033", "KSMQ 311553Z AUTO VRB03KT 10SM FEW040 15/10 A3007 RMK AO2 SLP182 T01500100", "KSMS 311555Z AUTO 16007KT 8SM OVC007 21/19 A3007 RMK AO2", "KSMX 311551Z 00000KT 6SM BR SCT001 08/08 A2996 RMK AO2 SLP150 T00780078 $", "KSNA 311553Z VRB03KT 10SM FEW040 SCT080 SCT140 18/12 A2993 RMK AO2 SLP133 T01780117", "KSNC 311555Z AUTO VRB06KT 10SM FEW026 SCT039 18/12 A3007 RMK AO2", "KSNH 311545Z AUTO 20007KT 10SM OVC008 17/15 A2998 RMK A01", "KSNK 311555Z AUTO 00000KT 10SM CLR 15/08 A3009 RMK AO2 T01510078", "KSNL 311535Z AUTO 00000KT 10SM CLR 15/05 A3006 RMK AO2 T01490049", "KSNS 311553Z 12004KT 4SM BR OVC004 10/08 A3000 RMK AO2 SLP169 T01000083 $", "KSNT 311551Z AUTO 34003KT 01/M02 A3011 RMK AO1 SLP170 T00111017", "KSNY 311553Z AUTO 30012KT 10SM CLR 13/M06 A2998 RMK AO2 SLP153 T01281061", "KSOA 311535Z AUTO 00000KT 10SM CLR 17/10 A3012 RMK AO2", "KSOP 311556Z AUTO 15005KT 10SM BKN048 BKN055 20/16 A3009 RMK AO2 SLP191 T02000156 TSNO", "KSOW 311555Z AUTO 31004KT 9SM CLR 06/M06 A3019 RMK AO2", "KSPA 311555Z AUTO 03005KT 3SM +RA BKN004 BKN011 OVC016 13/12 A3005 RMK AO2 P0033", "KSPB 311553Z AUTO 00000KT 10SM -RA BKN015 OVC080 12/12 A2990 RMK AO2 SLP126 P0002 T01220117", "KSPD 311556Z AUTO 26007KT 16/M02 A3003 RMK AO1 SLP143 T01611022", "KSPF 311555Z AUTO 25003KT 10SM CLR 12/M07 A2989 RMK AO2", "KSPG 311553Z 00000KT 10SM CLR 27/24 A3000 RMK AO2 SLP159 T02670239", "KSPI 311552Z 25007KT 4SM -RA BR BKN004 OVC070 12/11 A2986 RMK AO2 SLP111 P0010 T01220111", "KSPS 311552Z 00000KT 10SM BKN250 17/11 A3006 RMK AO2 SLP174 T01670106", "KSPW 311553Z AUTO 25004KT 10SM CLR 13/M01 A2992 RMK AO2 SLP138 T01331006", "KSQI 311556Z AUTO 33006KT 8SM CLR 12/11 A2986 RMK AO2 SLP978 T01220111", "KSQL 311447Z 00000KT 10SM BKN180 10/09 A2999", "KSRB 311555Z AUTO 19009KT 10SM SCT013 OVC049 16/15 A2999 RMK A01", "KSRC 311556Z AUTO VRB03KT 10SM SCT021 18/12 A3001 RMK AO2 SLP161 T01780122", "KSRE 311555Z AUTO VRB04KT 10SM CLR 18/04 A3005 RMK AO2", "KSRQ 311553Z 15004KT 10SM CLR 29/19 A2999 RMK AO2 SLP154 T02940194", "KSRR 311555Z AUTO 00000KT 10SM 09/00 A3018 RMK AO2", "KSSC 311555Z 15005KT 6SM BR OVC006 20/18 A3005 RMK AO2A SLP177 T01980176 $", "KSSF 311553Z 15006KT 10SM CLR 23/14 A3004 RMK AO2 SLP167 T02330139", "KSSI 311553Z AUTO 13007KT 10SM CLR 27/20 A3003 RMK AO2 SLP171 T02670200", "KSTC 311553Z 19004KT 10SM CLR 10/01 A2986 RMK AO2 SLP127 T01000011", "KSTE 311535Z AUTO 00000KT 10SM CLR 14/04 A2986 RMK AO2 T01420038", "KSTF 311555Z AUTO VRB03KT 10SM SCT015 SCT021 OVC060 18/15 A3002 RMK AO2", "KSTJ 311553Z 31004KT 10SM CLR 13/04 A2997 RMK AO2 SLP149 T01330044", "KSTK 311535Z AUTO 16005KT 10SM CLR 04/M05 A3001 RMK AO2", "KSTL 311551Z 28007KT 10SM OVC010 14/11 A2990 RMK AO2 SLP122 T01390106 $", "KSTP 311553Z 00000KT 5SM HZ CLR 09/04 A2988 RMK AO2 SLP121 T00940039", "KSTS 311553Z AUTO 00000KT 1/4SM FG VV002 08/08 A2998 RMK AO2 SLP147 T00780078", "KSUA 311547Z 12010KT 10SM VCSH BKN020 28/23 A3002", "KSUE 311556Z AUTO 29003KT 10SM CLR 14/06 A2985 RMK AO2 SLP108 T01440061", "KSUN 311550Z 29006KT 10SM SKC 03/M01 A3013", "KSUS 311554Z 28008KT 10SM BKN009 OVC014 13/11 A2989 RMK AO2 SLP122 T01330111", "KSUT 311535Z AUTO 08006KT 10SM SCT011 BKN021 25/20 A3009 RMK AO2 T02480200", "KSUU 311555Z 36004KT 10SM BKN200 10/07 A2998 RMK AO2A SLP159 T00950073 $", "KSUW 311555Z AUTO 22006KT 10SM CLR 10/00 A2983 RMK AO2 T01000001", "KSUX 311552Z 13006KT 10SM CLR 08/03 A2994 RMK AO2 SLP143 T00830028", "KSUZ 311555Z AUTO 33006KT 9SM CLR 18/13 A3002 RMK A01", "KSVC 311555Z AUTO 00000KT 10SM CLR 15/M01 A3012 RMK AO2 T01541007", "KSVE 311555Z AUTO 25003KT 7SM CLR 00/M08 A3010 RMK AO2", "KSVH 311555Z AUTO 00000KT 5SM RA OVC007 14/13 A3007 RMK AO2 P0001 T01350125", "KSVN 311555Z AUTO 17008G15KT 10SM FEW026 27/20 A3001 RMK AO2 SLP165 T02720203 $", "KSWF 311455Z 24010KT 10SM SCT060 14/09 A3006", "KSWO 311553Z 33005KT 10SM CLR 18/06 A3004 RMK AO2 SLP166 T01830061", "KSWW 311555Z AUTO 22003KT 10SM CLR 17/11 A3011 RMK AO2 T01690112", "KSXK 311535Z AUTO 16005KT 10SM CLR 08/03 A2991 RMK AO2", "KSXS 311555Z AUTO 35007KT 10SM CLR 21/13 A3003 RMK AO2 SLP168 T02090131", "KSXT 311556Z AUTO 16003KT 10SM BKN110 09/05 A3002 RMK AO2 SLP149 T00890050 ", "KSXU 311555Z AUTO 00000KT 10SM CLR 11/01 A3010 RMK AO2 T01130007", "KSYF 311555Z AUTO 23006KT 10SM CLR 10/M05 A3000 RMK AO2 T01001054 PWINO", "KSYI 311555Z AUTO 21009KT 10SM BKN016 BKN025 18/15 A2999 RMK A01", "KSYM 311555Z AUTO 20007KT 10SM SCT015 BKN028 OVC065 18/15 A2997 RMK AO2", "KSYN 311555Z AUTO 23003KT 7SM CLR 10/04 A2989 RMK AO2 T00950037", "KSYR 311554Z 08004KT 10SM SCT120 BKN150 OVC180 15/07 A2997 RMK AO2 SLP146 T01500067", "KSZL 311455Z 28004KT 10SM BKN140 BKN200 14/07 A2989 RMK AO2A SLP124 T01410072 52015 $", "KSZT 311555Z AUTO 25003KT 3SM -RA OVC021 08/07 A2976 RMK AO2", "KSZY 311555Z AUTO 00000KT 10SM OVC008 16/15 A2998 RMK A01", "KT20 311535Z AUTO 00000KT 10SM CLR 21/15 A3007 RMK AO2 T02080149", "KT35 311535Z AUTO 00000KT 10SM CLR 17/14 A3008 RMK AO2 T01690135", "KT41 311530Z AUTO 10SM CLR 22/13 A3008 RMK AO2 T02200133", "KT69 311555Z AUTO VRB05KT 10SM FEW070 23/17 A3003 RMK A01", "KT70 311555Z AUTO 35008KT 7SM OVC012 20/16 A3003 RMK AO2 SLP161 T01950155 $", "KT74 311535Z AUTO 00000KT 10SM CLR 17/14 A3007 RMK AO2 T01750142", "KT78 311535Z AUTO 00000KT 10SM CLR 18/16 A3007 RMK AO2", "KT82 311555Z AUTO 00000KT 10SM CLR 17/11 A3009 RMK AO2 T01710110", "KT89 311555Z AUTO 14004KT 10SM CLR 19/07 A3002 RMK A01", "KTAD 311554Z AUTO 26011KT 10SM CLR 11/M03 A3007 RMK AO2 SLP158 T01111033", "KTAN 311552Z AUTO A3007 RMK AO2 SLPNO PWINO FZRANO TSNO $", "KTAZ 311535Z AUTO 23007KT 2SM BR OVC002 13/12 A2987 RMK AO2 T01250122", "KTBN 311555Z AUTO 25006KT 10SM CLR 16/09 A2995 RMK AO2 SLP142 T01570094 $", "KTBR 311535Z AUTO 18003KT 10SM BKN007 BKN011 22/20 A3005 RMK AO2 T02240195", "KTBX 311535Z AUTO 10SM CLR 04/M10 A3010 RMK AO2", "KTCC 311553Z AUTO 24004KT 10SM CLR 11/04 A3007 RMK AO2 SLP165 T01060044", "KTCL 311553Z 25004KT 6SM HZ FEW009 OVC060 18/16 A3004 RMK AO2 SLP171 T01830156", "KTCM 311555Z AUTO 18013KT 10SM -RA FEW040 SCT049 BKN065 11/11 A2980 RMK AO2 RAE33RAB41 PRESFR SLP095 P0004 T01130113", "KTCS 311553Z AUTO 01003KT 10SM CLR 12/M03 A3012 RMK AO2 SLP155 T01221028", "KTCY 311535Z AUTO 32004KT 9SM CLR 12/11 A2998 RMK A01", "KTDF 311555Z AUTO 15004KT 10SM CLR 19/13 A3010 RMK AO2", "KTDR 311555Z AUTO 02007KT 10SM BKN038 OVC045 24/18 A3000 RMK AO2 SLP163 T02410176 $", "KTDZ 311553Z AUTO 21009KT 10SM SCT011 OVC020 18/16 A2986 RMK AO2 SLP109 T01780156", "KTEB 311551Z 21003KT 10SM CLR 15/09 A3007 RMK AO2 SLP182 T01500089", "KTEW 311555Z AUTO 00000KT 7SM OVC004 15/13 A2984 RMK AO2 T01450131", "KTEX 311535Z AUTO 11003KT 10SM CLR 02/M07 A3024 RMK AO2", "KTFP 311515Z AUTO 12010G14KT 10SM CLR 26/16 A3002 RMK AO2 T02610156", "KTGI 311555Z AUTO 20005KT 10SM BKN080 OVC085 17/15 A3010 RMK AO1 T01740148", "KTHA 311555Z AUTO 18009KT 10SM SCT048 OVC055 16/15 A2999 RMK A01", "KTHV 311553Z AUTO VRB05KT 10SM OVC029 16/11 A3006 RMK AO2 RAB17E44 SLP181 P0000 T01610106", "KTIF 311535Z AUTO 27008KT 10SM CLR 09/M04 A2993 RMK AO2 T00871043", "KTIK 311555Z AUTO 30005KT 10SM CLR 16/03 A3002 RMK AO2 VIS 5/8 RWY13 SLP169 T01620029 $", "KTIP 311535Z AUTO 23007KT 2 1/2SM RA OVC002 13/13 A2984 RMK AO2 P0012 T01330132", "KTIW 311553Z 19015G23KT 10SM BKN030 BKN070 BKN080 12/11 A2980 RMK AO2 PK WND 19029/1526 RAE41 SLP092 P0000 T01170106", "KTIX 311547Z 07005KT 7SM SCT038 SCT065 29/23 A3003", "KTKC 311555Z AUTO 21009KT 10SM CLR 14/M01 A2987 RMK AO2", "KTKI 311553Z VRB03KT 10SM CLR 18/12 A3006 RMK AO2 SLP183 T01780117", "KTKV 311555Z AUTO 00000KT 10SM CLR 11/06 A2985 RMK AO2 T01140055 PWINO", "KTKX 311555Z AUTO 25007KT 6SM BR SCT012 BKN020 OVC026 16/16 A2995 RMK AO2 TSNO", "KTLH 311553Z COR 00000KT 10SM BKN009 24/21 A3003 RMK AO2 SLP167 T02390206", "KTMB 311553Z 14005KT 10SM FEW027 SCT039 SCT047 29/23 A2998 RMK AO2 SLP151 T02940233", "KTME 311555Z AUTO 00000KT 10SM CLR 22/15 A3009 RMK AO2", "KTMK 311535Z AUTO 15005KT 5SM -RA SCT007 BKN023 OVC050 13/12 A2994 RMK AO2 P0003", "KTMT 311535Z AUTO 00000KT 10SM CLR M05/M12 A3018 RMK AO2 T10481118", "KTNB 311530Z AUTO 20006KT 2SM +RA SCT006 OVC012 13/13 A3009 RMK AO2 P0010 T01260126", "KTNU 311555Z AUTO 29005KT 10SM CLR 13/07 A2991 RMK A01", "KTOA 311547Z 00000KT 0SM VV000 16/16 A2994 FG", "KTOB 311555Z AUTO 00000KT 10SM CLR 12/04 A2989 RMK AO2", "KTOC 311535Z AUTO 06004KT 10SM OVC004 15/14 A3006 RMK AO2 T01480141", "KTOI 311553Z AUTO 31007KT 10SM CLR 23/13 A3005 RMK AO2 SLP173 T02280128", "KTOL 311552Z 23007KT 2 1/2SM R25/6000VP6000FT -RA BR OVC006 17/16 A2985 RMK AO2 RAB23 CIG 003V009 SLP106 P0000 T01670156 $", "KTOP 311553Z 27007KT 10SM CLR 16/05 A2999 RMK AO2 SLP152 T01560050", "KTOR 311553Z AUTO 28005KT 10SM CLR 09/M05 A2996 RMK AO2 SLP149 T00891050", "KTPA 311553Z 25004KT 10SM FEW025 FEW160 29/21 A3002 RMK AO2 SLP165 T02890206", "KTPH 311456Z AUTO 36006KT 10SM CLR 01/M09 A3015 RMK AO2 SLP196 T00061094 55001", "KTPL 311551Z AUTO 23007KT 10SM CLR 22/12 A3008 RMK AO2 SLP177 T02170122", "KTQE 311554Z AUTO VRB03KT 10SM CLR 12/02 A2995 RMK AO2 SLP141 T01170017", "KTQH 311555Z AUTO 00000KT 10SM CLR 17/13 A3004 RMK AO2", "KTQK 311535Z AUTO 24008KT 10SM CLR 14/M02 A3003 RMK AO2 T01361020", "KTQV 311555Z AUTO 00000KT 10SM CLR 20/14 A3008 RMK A01", "KTRI 311553Z 00000KT 3SM BR BKN005 OVC034 16/15 A3003 RMK AO2 SFC VIS 6 RAE04 SLP153 P0000 T01610150 $", "KTRK 311545Z 00000KT 10SM CLR M03/M08 A3016", "KTRL 311553Z AUTO 00000KT 10SM CLR 19/12 A3006 RMK AO2 SLP175 T01940122", "KTRM 311552Z AUTO 31003KT 10SM CLR 18/01 A2991 RMK AO2 SLP130 T01780011", "KTSP 311555Z AUTO 10005KT 9SM CLR 10/M08 A3009 RMK AO2", "KTTA 311535Z AUTO 14005KT 10SM SCT055 20/14 A3008 RMK AO2 T01950136", "KTTD 311553Z 23008KT 3SM -RA SCT012 BKN024 OVC034 13/11 A2993 RMK AO2 SLP135 P0005 T01280106", "KTTF 311555Z AUTO 19004KT 4SM BR OVC004 16/15 A2984 RMK AO2 T01600152", "KTTN 311553Z 20005KT 10SM BKN031 15/12 A3008 RMK AO2 SLP179 T01500117", "KTTS 311555Z AUTO 09006KT 10SM FEW055 28/20 A3000 RMK AO2 SLP163 T02750198 $", "KTUL 311553Z 00000KT 10SM FEW250 17/08 A3003 RMK AO2 SLP165 T01670083", "KTUP 311553Z 24004KT 10SM OVC012 18/14 A3001 RMK AO2 SLP161 T01780139", "KTUS 311553Z 16008KT 120V190 10SM CLR 14/M01 A3003 RMK AO2 SLP144 T01441011 $", "KTVC 311553Z 31003KT 10SM BKN120 15/08 A2984 RMK AO2 SLP105 T01500078", "KTVF 311556Z AUTO 21011KT 10SM CLR 08/00 A2973 RMK AO2 SLP078 T00830000", "KTVI 311535Z AUTO 23004KT 10SM OVC009 22/19 A3005 RMK AO2", "KTVL 311553Z AUTO 18003KT 10SM CLR M03/M08 A3013 RMK AO2 SLP209 T10281083", "KTVR 311553Z AUTO VRB03KT 10SM CLR 22/15 A3006 RMK AO2 SLP186 T02170150", "KTVY 311555Z AUTO 19011G15KT 10SM CLR 08/00 A3017 RMK AO2", "KTWF 311553Z 20010KT 10SM CLR 13/M03 A3007 RMK AO2 SLP161 T01281028", "KTWM 311555Z AUTO 21005KT 10SM CLR 13/01 A2979 RMK AO2", "KTWT 311555Z AUTO 21006KT 10SM BKN016 OVC023 17/14 A2991 RMK AO2", "KTXK 311553Z 33006KT 10SM CLR 20/13 A3005 RMK AO2 SLP173 T02000133", "KTXW 311530Z AUTO 11009KT 1SM HZ OVC060 25/18 A2999 RMK AO2 VIS 1/2V5 T02460181", "KTYL 311535Z AUTO 00000KT 10SM CLR 05/M07 A3019 RMK AO2", "KTYQ 311535Z AUTO 20011KT 7SM OVC008 15/14 A2986 RMK AO2 T01480138", "KTYR 311553Z 00000KT 10SM CLR 20/12 A3006 RMK AO2 SLP174 T02000122", "KTYS 311553Z 00000KT 10SM BKN007 BKN012 OVC250 18/16 A2999 RMK AO2 SLP151 T01780156 $", "KTZR 311545Z 21009KT 10SM BKN015 BKN029 OVC070 18/16 A2992", "KU42 311555Z AUTO 16008KT 10SM CLR 07/01 A3017 RMK AO1 T00730010", "KU55 311555Z AUTO 00000KT 10SM M01/M06 A3025 RMK A01", "KU68 311555Z AUTO 10003KT 10SM CLR 07/M05 A2994 RMK AO2", "KUAO 311553Z 20007KT 2 1/2SM -RA BR BKN008 OVC018 12/12 A2995 RMK AO2 RAE22B44 SLP140 P0002 T01220117", "KUBE 311515Z AUTO 00000KT 10SM CLR 07/07 A2986 RMK AO2", "KUCP 311556Z AUTO 15007KT 9SM OVC005 13/13 A2995 RMK AO2 SLP158 T01280128", "KUCY 311555Z AUTO 24010KT 10SM FEW020 OVC035 18/14 A2993 RMK A01", "KUDG 311556Z AUTO 15006KT 10SM FEW031 SCT055 20/17 A3007 RMK AO2 SLP182 T02000172", "KUES 311545Z 00000KT 10SM OVC030 12/07 A2986", "KUGN 311555Z 01004KT 3SM BR OVC004 12/11 A2984 RMK AO2 SLP103 T01220106", "KUIL 311553Z AUTO 00000KT 10SM FEW017 SCT025 OVC032 09/08 A2983 RMK AO2 SLP102 T00890083", "KUIN 311554Z AUTO 31009KT 8SM BKN038 OVC110 13/11 A2990 RMK AO2 RAE1459 SLP123 P0000 T01280106", "KUKF 311535Z AUTO 08003KT 10SM OVC004 12/12 A3013 RMK AO2 P0001", "KUKI 311456Z AUTO 00000KT 10SM CLR 07/04 A2999 RMK AO2 SLP153 T00670044 58004", "KUKL 311535Z AUTO 30006KT 10SM CLR A3000 RMK AO2", "KUKT 311555Z AUTO VRB05KT 10SM CLR 15/12 A3007 RMK A01", "KULM 311555Z AUTO 00000KT 10SM CLR 10/M01 A2988 RMK AO2", "KULS 311535Z AUTO 23006KT 10SM CLR 11/M03 A3002 RMK AO2", "KUMP 311535Z AUTO 21006KT 7SM OVC010 16/16 A2986 RMK AO2 T01560155", "KUNI 311535Z AUTO 19005KT 10SM OVC012 17/17 A2995 RMK AO2 T01720168", "KUNO 311553Z AUTO 28007KT 10SM FEW021 BKN049 17/11 A2997 RMK AO2 SLP143 T01670106", "KUNU 311555Z AUTO 00000KT 10SM CLR 13/06 A2986 RMK AO2 T01270057", "KUNV 311553Z 00000KT 10SM OVC050 11/07 A3003", "KUOX 311555Z AUTO 23007KT 210V280 10SM FEW020 SCT030 BKN038 18/13 A3002 RMK AO2", "KUSE 311555Z AUTO 23004KT 7SM OVC005 16/16 A2984 RMK AO2", "KUTA 311555Z AUTO 24007KT 10SM OVC012 17/15 A3001 RMK AO2 CIG 011V017 T01730152 $", "KUTS 311553Z AUTO VRB03KT 10SM CLR 22/13 A3007 RMK AO2 SLP179 T02170133", "KUUU 311553Z AUTO 16005KT 5SM -RA BR FEW007 OVC017 14/13 A3008 RMK AO2 RAE03B32 SLP184 P0000 T01390128", "KUVA 311555Z AUTO 00000KT 10SM SCT022 19/14 A3008 RMK AO2 T01910137", "KUXL 311555Z AUTO 00000KT 10SM CLR 22/16 A3008 RMK AO2 T02230155", "KUYF 311535Z AUTO 21013KT 10SM OVC013 17/15 A2991 RMK AO2", "KUZA 311554Z AUTO VRB05KT 6SM BR OVC005 17/16 A3005 RMK AO2 SLP173 T01720161", "KVAD 311555Z AUTO 18006KT 10SM SCT016 25/20 A3002 RMK AO2 SLP166 T02540197 $", "KVAF 311535Z AUTO 04010KT 10SM CLR 26/13 A3005 RMK A01", "KVAY 311554Z AUTO VRB03KT 10SM BKN028 17/12 A3008 RMK AO2 SLP186 T01720117 PWINO", "KVBG 311555Z 15003KT 10SM SCT003 BKN200 08/08 A2997 RMK AO2A SLP153 T00790079", "KVBT 311556Z AUTO VRB03KT 7SM OVC002 13/11 A3004 RMK AO2 RAE05 SLP172 P0003 T01280111", "KVCB 311553Z AUTO 01004KT 10SM CLR 11/06 A3000 RMK AO2 SLP159 T01110056", "KVCT 311551Z 06004KT 10SM CLR 22/16 A3006 RMK AO2 SLP178 T02170161", "KVCV 311555Z AUTO 15006KT 10SM CLR 12/M08 A3008 RMK AO2", "KVDF 311555Z AUTO 17004KT 10SM SCT030 30/22 A3002 RMK AO2", "KVDI 311535Z AUTO 21005KT 10SM OVC007 22/21 A3005 RMK AO2", "KVEL 311553Z AUTO 00000KT 10SM CLR 05/M04 A3019 RMK AO2 SLP225 T00501039", "KVER 311555Z AUTO 28005KT 10SM CLR 15/12 A2994 RMK AO2 T01520122", "KVES 311535Z AUTO 20008KT 10SM OVC012 16/16 A2988 RMK AO2", "KVGC 311555Z AUTO 15009KT 10SM CLR 12/06 A3000 RMK AO2", "KVGT 311553Z 13003KT 10SM CLR 16/M06 A3006 RMK AO2 SLP186 T01561056", "KVHN 311535Z AUTO 00000KT 10SM CLR 14/03 A3011 RMK AO2 T01440031", "KVIH 311553Z AUTO 27008KT 10SM SCT008 BKN050 14/12 A2994 RMK AO2 SLP136 T01390122", "KVIS 311556Z AUTO 08005KT 10SM CLR 13/04 A2999 RMK AO2 SLP164 T01330044", "KVJI 311555Z AUTO 00000KT 4SM BR BKN004 OVC029 16/14 A3004 RMK AO2 P0003 T01550142", "KVKS 311535Z AUTO 25006KT 10SM CLR 21/16 A3005 RMK A01", "KVLD 311553Z 17006KT 10SM SCT020 27/20 A3003 RMK AO2 SLP174 T02720200 $", "KVLL 311555Z AUTO 00000KT 4SM RA OVC003 09/09 A2986 RMK AO2 T00930090", "KVNW 311555Z AUTO 22011KT 5SM BR SCT010 SCT014 OVC070 17/15 A2986 RMK AO2", "KVNY 311551Z 26003KT 10SM CLR 17/01 A2993 RMK AO2 SLP129 T01720006", "KVOA 311540Z AUTO 02007KT 10SM SCT040 22/14 A3006 RMK A01", "KVOK 311555Z 27003KT 10SM FEW250 13/06 A2985 RMK AO2A SLP117", "KVPC 311535Z AUTO 11005KT 10SM OVC006 18/17 A3003 RMK AO2", "KVPS 311555Z AUTO 30003KT 10SM CLR 23/14 A3002 RMK AO2 SLP172 T02250138 $", "KVPZ 311551Z AUTO 06003KT 3SM BR OVC003 16/14 A2983 RMK AO2 RAE06 P0004", "KVQQ 311550Z 16005KT 10SM BKN025 30/24 A3003", "KVRB 311553Z 09010KT 10SM BKN020 29/24 A3001 RMK AO2 SLP161 T02890239", "KVSF 311554Z AUTO 00000KT 10SM CLR 12/02 A3003 RMK AO2 SLP172 T01220017", "KVTA 311554Z AUTO 22008KT 10SM SCT016 SCT022 OVC032 19/14 A2991 RMK AO2 SLP126 T01940144", "KVTI 311555Z AUTO 30006KT 10SM CLR 13/07 A2990 RMK AO2 T01320070", "KVTN 311552Z AUTO 23008KT 10SM CLR 09/M05 A2990 RMK AO2 SLP140 T00891050", "KVTP 311555Z AUTO 26011G17KT 10SM CLR M01/M08 A3020 RMK AO2", "KVUJ 311535Z AUTO 15004KT 10SM OVC015 19/16 A3011 RMK AO2 T01920155", "KVUO 311553Z AUTO 4SM -RA BR BKN060 OVC075 13/11 A2993 RMK AO2 SLP133 P0004 T01280111", "KVVS 311535Z AUTO 22004KT 10SM -RA OVC016 15/14 A2999 RMK AO2 T01510144", "KVVV 311555Z 16004KT 10SM 09/02 A2983 RMK AO2", "KVWU 311555Z AUTO 22005KT 10SM CLR 11/01 A2972 RMK AO2", "KVYS 311535Z AUTO 36006KT 5SM BR OVC004 13/12 A2985 RMK AO2 T01270121", "KW13 311555Z AUTO 10SM OVC026 15/12 A3007 RMK AO1 T01500120", "KW22 311535Z AUTO 21009KT 10SM BKN014 OVC055 17/17 A3000 RMK AO2", "KW29 311535Z AUTO 20007KT 180V240 10SM OVC029 17/14 A3010 RMK AO2 P0001 T01670142", "KW31 311555Z AUTO 18003KT 10SM BKN031 OVC040 18/13 A3009 RMK AO1 T01820134", "KW43 311535Z AUTO 21005KT 10SM CLR 06/M06 A2990 RMK AO2", "KW63 311555Z AUTO 14003KT 10SM SCT032 SCT049 18/14 A3008 RMK AO1", "KW75 311555Z AUTO 21006KT 10SM SCT060 OVC080 18/13 A3011 RMK AO1 T01770130", "KW78 311555Z AUTO 17003KT 10SM SCT021 SCT031 SCT037 20/13 A3009 RMK AO1 T01960126", "KW81 311555Z AUTO 15003KT 10SM SCT014 BKN036 OVC042 16/11 A3009 RMK AO1 T01640112", "KW96 311555Z AUTO 19003KT 10SM SCT038 SCT049 BKN065 18/13 A3010 RMK AO1 T01810125", "KW99 311542Z AUTO 00000KT 10SM SCT005 BKN046 OVC080 11/11 A3005 RMK AO2", "KWAL 311554Z 12005KT 10SM FEW070 19/13 A3010 RMK AO2 SLP191 T01940128", "KWBF 311535Z AUTO 00000KT 10SM 25/18 A3005 RMK A01", "KWDG 311545Z 35004KT 10SM SCT120 15/05 A3004", "KWDR 311535Z AUTO 00000KT 2 1/2SM -DZ OVC002 15/13 A3007 RMK AO2", "KWHP 311550Z 33005KT 10SM SKC 21/M01 A2997 RMK OBSERVER HT", "KWJF 311456Z 00000KT 10SM CLR 05/M08 A3004 RMK AO2 SLP176 T00501083 53002", "KWLD 311554Z AUTO 33005KT 10SM CLR 15/04 A3004 RMK AO2 SLP169 T01500039", "KWMC 311456Z AUTO 00000KT 10SM CLR M05/M11 A3011 RMK AO2 SLP210 T10501106 55002 $", "KWRB 311555Z AUTO 19007KT 10SM BKN011 BKN017 22/22 A3002 RMK AO2 SLP166 T02160216", "KWRI 311455Z 22005KT 10SM BKN080 17/11 A3009 RMK A02A SLP188 60000 58006", "KWRL 311553Z AUTO 00000KT 10SM CLR 06/M04 A2996 RMK AO2 SLP160 T00611039", "KWST 311553Z AUTO VRB04KT 10SM SCT009 OVC020 16/14 A3008 RMK AO2 RAB02E20 SLP186 P0000 T01560144", "KWVI 311553Z AUTO 06003KT 1SM BR OVC002 08/08 A3000 RMK AO2 SLP159 T00830083", "KWVL 311556Z AUTO 18007KT 10SM CLR 14/04 A2997 RMK AO2 SLP178 T01390044", "KWWD 311556Z AUTO 28004KT 10SM FEW028 19/13 A3009 RMK AO2 SLP193 T01890128 $", "KWWR 311535Z AUTO 23003KT 10SM CLR 13/00 A3008 RMK AO2", "KX07 311555Z AUTO 00000KT 10SM SCT027 SCT033 SCT038 28/22 A3002 RMK A01", "KX26 311535Z AUTO 06007KT 10SM SCT021 SCT027 SCT037 28/23 A3002 RMK AO2 T02770233", "KX60 311555Z AUTO 21007KT 10SM SCT022 27/21 A3004 RMK AO2", "KXBP 311535Z AUTO 00000KT 10SM CLR 16/12 A3010 RMK AO2 T01550116", "KXER 311535Z AUTO 00000KT 10SM 23/15 A2998 RMK A01", "KXIF 311555Z AUTO 00000KT 8SM FEW037 12/10 A3003 RMK AO2 RAE02RAB06E27 SLP175 P0001 T01160102 $", "KXLL 311555Z AUTO 24003KT 10SM SCT110 15/11 A3008 RMK AO2", "KXMR 311555Z AUTO 08006KT 10SM M 27/23 A3000 RMK AO2 SLP162 T02730233 $", "KXNA 311553Z 21006KT 9SM FEW003 13/12 A3003 RMK AO2 SLP163 T01280122", "KXNO 311555Z AUTO 12005KT 10SM OVC006 20/20 A3005 RMK AO2 CIG 004V006 SLP177 T02030203 $", "KXNX 311555Z AUTO VRB06KT 10SM BKN013 BKN028 OVC065 17/16 A2999 RMK A01", "KXSA 311555Z AUTO 15006KT 10SM BKN033 19/14 A3010 RMK AO2 T01870139", "KXVG 311553Z AUTO 21005KT 10SM CLR 11/M01 A2978 RMK AO2", "KXWA 311551Z AUTO 22009KT 10SM CLR 07/01 A2973 RMK AO2 SLP090 T00670006", "KY19 311555Z AUTO 25010KT 10SM CLR 08/01 A2979 RMK AO2", "KY23 311555Z AUTO 00000KT 10SM CLR 08/08 A2987 RMK AO2 T00770077", "KY31 311555Z AUTO 00000KT 10SM OVC024 14/07 A2985 RMK AO2 T01370072", "KY49 311555Z AUTO 24009G15KT 10SM CLR 10/M01 A2978 RMK AO2 T01031006", "KY50 311556Z AUTO 00000KT 10SM CLR 14/07 A2986 RMK AO2 SLP112 T01440067 $", "KY51 311555Z AUTO 00000KT 10SM CLR 12/08 A2987 RMK AO1 T01170081", "KY63 311555Z AUTO 19010KT 10SM CLR 10/01 A2983 RMK AO2 T01020013", "KY70 311555Z AUTO 00000KT 1/4SM FG OVC002 12/12 A2984 RMK AO2 T01150115", "KYIP 311553Z 00000KT 5SM BR OVC003 14/13 A2985 RMK AO2 RAB13E45 SLP105 P0004 T01440133 $", "KYKM 311553Z AUTO 00000KT 10SM OVC070 11/07 A2981 RMK AO2 SLP095 T01060067", "KYKN 311556Z AUTO 18004KT 10SM CLR 09/03 A2990 RMK AO2 SLP144 T00890028", "KYNG 311551Z 17007KT 10SM OVC005 14/12 A2993 RMK AO2 SLP135 T01390122", "KZER 311535Z AUTO 19006KT 10SM SCT004 SCT110 11/09 A3006 RMK AO2", "KZPH 311535Z AUTO 14005KT 10SM SCT027 28/21 A3004 RMK A02 T02790206", "KZZV 311553Z AUTO 20006KT 10SM OVC009 17/16 A2993 RMK AO2 CIG 004V013 SLP133 T01720156", "LATI 311550Z 33011KT CAVOK 21/13 Q1019 NOSIG", "LBBG 311530Z 11006KT 9999 FEW045 17/12 Q1021 NOSIG", "LBGO 311530Z AUTO 27004KT 9999 NCD 17/09 Q1020 NOSIG", "LBIA 311500Z 04006KT 9999 FEW060 SCT100 22/07 Q1020", "LBPD 311530Z AUTO 11004KT 9999 OVC150/// 23/08 Q1020 NOSIG", "LBPG 311500Z 36008KT 9999 BKN100 24/07 Q1020", "LBPL 311500Z 27004KT 9999 FEW100 24/11 Q1020", "LBSF 311530Z 04005KT CAVOK 20/07 Q1022 NOSIG", "LBWB 311500Z 18002KT 9999 FEW040 16/11 Q1020", "LBWN 311530Z 09004KT CAVOK 18/10 Q1020 NOSIG", "LCEN 311520Z 29010KT 9999 SCT020 22/15 Q1014 NOSIG RMK RWY11 29009KT", "LCLK 311530Z 01007KT 9999 FEW045 23/15 Q1014 NOSIG", "LCPH 311530Z 32010KT 9999 FEW030TCU 22/15 Q1014", "LCRA 311550Z 27011KT 9999 FEW080 23/15 Q1013 NOSIG", "LDDU 311530Z VRB02KT CAVOK 21/14 Q1020 NOSIG", "LDOS 311530Z 07005KT 2000 BR NSC 12/11 Q1022", "LDPL 311530Z 28003KT CAVOK 20/14 Q1021 NOSIG", "LDRI 311530Z 34001KT CAVOK 20/12 Q1021", "LDSP 311530Z 24004KT CAVOK 22/15 Q1020 NOSIG", "LDZA 311530Z VRB02KT 0300 R04/0550D R22/0550N FG VV002 13/12 Q1021 BECMG 0100 VV001", "LDZD 311530Z 28005KT CAVOK 21/16 Q1021 NOSIG", "LEAB 311530Z 33007KT CAVOK 21/09 Q1021 NOSIG", "LEAG 311530Z AUTO 05006KT 020V080 CAVOK 20/17 Q1020", "LEAL 311530Z 11006KT 070V160 9999 SCT023 22/18 Q1018 NOSIG", "LEAM 311530Z 22005KT 190V280 CAVOK 23/19 Q1018", "LEAO 311530Z 27005KT 9999 -RA SCT040 20/09 Q1021", "LEAS 311530Z 29019G29KT 260V320 9999 FEW010 17/13 Q1013 NOSIG", "LEBA 311530Z 06003KT 320V110 CAVOK 21/15 Q1018", "LEBB 311530Z 21012G25KT 150V260 9999 SCT060 24/12 Q1012 NOSIG", "LEBG 311548Z 20014KT 9999 BKN032 13/11 Q1017", "LEBL 311530Z 13003KT 080V160 9999 FEW025 SCT035 21/19 Q1019 NOSIG", "LEBR 311530Z AUTO 15008KT 110V200 8000 RA FEW034 BKN040 OVC069 17/15 Q1018", "LEBT 311530Z AUTO 12005KT 080V150 CAVOK 22/17 Q1018", "LEBZ 311530Z 18006KT 140V210 7000 -RA FEW022 20/18 Q1018", "LECH 311530Z AUTO 18006KT 150V220 CAVOK 20/16 Q1019", "LECO 311530Z 30007KT 240V010 9999 SCT018 17/12 Q1016 TEMPO 3000 RA BKN010", "LECV 311530Z VRB02KT 9999 -RA SCT020 SCT040 12/12 Q1020", "LEDA 311530Z 15007KT 120V190 CAVOK 22/14 Q1018", "LEGE 311530Z 19016KT 9999 FEW040 22/17 Q1018", "LEGR 311530Z 27006KT 230V300 CAVOK 24/06 Q1021", "LEGT 311530Z 20003KT 9999 -DZ SCT049 17/11 Q1020", "LEHC 311530Z 10009KT CAVOK 19/14 Q1019", "LEIB 311530Z 17005KT 120V200 9999 SCT018 23/19 Q1018 NOSIG", "LEJR 311530Z 18005KT 080V230 CAVOK 23/14 Q1018", "LELC 311530Z 12005KT 080V160 9999 SCT022 23/19 Q1018 NOSIG", "LELL 311530Z 18006KT 140V210 9000 SCT025 BKN040 22/17 Q1019", "LELN 311530Z 22012KT 9999 -RA FEW005 BKN010 13/13 Q1015 RERA", "LELO 311530Z VRB02KT 9999 FEW040 BKN067 18/13 Q1015", "LEMD 311530Z 16006KT 120V210 9999 SCT060 BKN080 16/13 Q1020 REDZ TEMPO RA", "LEMG 311530Z 11004KT 070V140 9999 FEW030 21/17 Q1019 NOSIG", "LEMH 311530Z 17010KT 140V200 9999 SCT020 BKN025 22/19 Q1020", "LEMI 311530Z 15007KT 9999 FEW020 22/17 Q1019", "LEMO 311530Z VRB01KT CAVOK 23/14 Q1019 NOSIG", "LEPA 311530Z 18007KT 140V210 9999 FEW028 25/18 Q1019 NOSIG", "LEPP 311530Z 16014G25KT 120V200 9999 FEW045 20/10 Q1016", "LERI 311530Z VRB03KT CAVOK 25/16 Q1018 NOSIG", "LERS 311530Z 20006KT 160V230 9999 SCT020 22/18 Q1019", "LERT 311530Z 20008KT 120V240 CAVOK 21/18 Q1019 NOSIG", "LESA 311530Z 23014KT 9999 FEW017 SCT030 BKN040 15/12 Q1017", "LESB 311530Z AUTO 22009KT CAVOK 24/18 Q1019", "LESO 311530Z 19011KT 9999 FEW065 24/13 Q1012", "LEST 311530Z 31007KT 280V340 9999 FEW025 15/10 Q1016 NOSIG", "LESU 311530Z 21006KT 180V240 9999 FEW034 BKN090 17/12 Q1020", "LETL 311530Z AUTO 20010KT CAVOK 18/07 Q1021", "LETO 311530Z 18006KT 9999 -DZ SCT065 15/13 Q1020 TEMPO RA", "LETU 311530Z AUTO 16008G28KT 120V220 9999 NSC 20/11 Q1018", "LEVC 311530Z 15004KT 120V190 9999 FEW025 22/17 Q1018 NOSIG", "LEVD 311530Z 21015KT 9999 FEW008 BKN015 BKN026 15/13 Q1017", "LEVS 311530Z 17005KT 140V200 9999 -RA FEW030 BKN065 16/11 Q1020", "LEVT 311530Z 23009G20KT 200V260 9999 BKN050 19/10 Q1015", "LEVX 311530Z 31006KT 240V350 9999 BKN025 FEW030TCU 16/12 Q1016 NOSIG", "LEXJ 311530Z 32014KT 280V010 9999 FEW050 BKN060 20/14 Q1012", "LEZG 311530Z 34003KT 290V010 9999 -RA FEW085 21/16 Q1017", "LEZL 311530Z 18001KT CAVOK 23/15 Q1018 NOSIG", "LFAC 311530Z AUTO 11011KT CAVOK 16/13 Q1009", "LFAQ 311530Z AUTO 14010KT CAVOK 17/13 Q1010 NOSIG", "LFAT 311530Z AUTO 13008KT CAVOK 17/14 Q1009 NOSIG", "LFBA 311530Z AUTO 29005KT 9999 -RA //////TCU 20/17 Q1014 TEMPO 28015G35KT -TSRA SCT060CB BKN080", "LFBC 311530Z AUTO 17006KT CAVOK 19/15 Q1011 NOSIG", "LFBD 311530Z AUTO 17008KT 9999 NSC 19/15 Q1011 TEMPO 20015G25KT 3000 TSRA BKN020CB", "LFBE 311530Z AUTO 19007KT 9999 -RA //////TCU 20/14 Q1013 TEMPO 20015G25KT 3000 TSRA BKN010 BKN030CB", "LFBF 311530Z AUTO 15007KT 110V200 CAVOK 23/14 Q1013", "LFBG 311530Z AUTO 15014KT CAVOK 19/15 Q1010 TEMPO 16015G25KT 2000 SHRA BKN030CB", "LFBH 311530Z AUTO 17016KT CAVOK 19/15 Q1008 TEMPO 21025G40KT 3000 SHRA BKN025CB", "LFBI 311530Z AUTO 16012KT 9999 -RA NSC 17/15 Q1010 TEMPO 3000 SHRA BKN014 BKN025CB BECMG 20016G30KT", "LFBL 311530Z AUTO /////KT 9999 -RA ////// 18/14 Q1013", "LFBM 311530Z AUTO 14005KT 9999 // NSC 20/14 Q1012", "LFBO 311530Z AUTO 14010KT 9999 ///TCU 23/14 Q1013 TEMPO 14015G25KT BECMG NSC", "LFBT 311530Z AUTO 23003KT 9999 BKN100/// OVC130/// //////TCU 20/11 Q1014 TEMPO 28015G25KT SCT035CB", "LFBU 311530Z AUTO 15011KT 9999 -RA ///TCU 18/15 Q1011 TEMPO 22015G30KT 3000 SHRA SCT030CB", "LFBX 311530Z AUTO 21005KT 170V250 9999 -RA //////TCU 20/14 Q1014", "LFBY 311530Z AUTO 18006KT 150V210 9999 // ////// 20/14 Q1012", "LFBZ 311530Z AUTO 20008KT 160V240 CAVOK 23/13 Q1012 TEMPO 20015G25KT TSRA BKN008 BKN030CB", "LFCK 311530Z AUTO 12022KT CAVOK 21/15 Q1014 BECMG 13025G35KT", "LFCR 311530Z AUTO 14019KT 9999 ////// 19/13 Q1015", "LFGA 311530Z AUTO 34004KT CAVOK 17/12 Q1016", "LFGJ 311530Z AUTO 16008KT CAVOK 19/13 Q1016 TEMPO 19015G30KT", "LFHP 311530Z AUTO 17012G25KT 140V210 CAVOK 17/11 Q1018", "LFJL 311530Z AUTO 14012KT CAVOK 17/11 Q1015 NOSIG", "LFJR 311530Z AUTO 17008KT 9999 SCT042 BKN052 OVC064 17/15 Q1008", "LFKB 311530Z AUTO 11003KT CAVOK 21/15 Q1022 NOSIG", "LFKC 311530Z AUTO 31004KT 280V340 CAVOK 22/15 Q1021 NOSIG", "LFKF 311530Z AUTO 20004KT 170V230 CAVOK 21/14 Q1022 NOSIG", "LFKJ 311530Z AUTO 20004KT 170V250 CAVOK 22/15 Q1021 NOSIG", "LFKS 311530Z AUTO 16003KT CAVOK 21/15 Q1022", "LFLB 311530Z AUTO VRB03KT CAVOK 18/13 Q1018 NOSIG", "LFLC 311530Z AUTO 17015KT 9999 FEW064 SCT140 BKN210 23/11 Q1013 BECMG 18015G28KT", "LFLH 311530Z AUTO 18011KT CAVOK 21/11 Q1015", "LFLL 311530Z 18009KT CAVOK 22/11 Q1017 NOSIG", "LFLN 311530Z AUTO 15012KT CAVOK 21/12 Q1014 TEMPO 18015G25KT", "LFLP 311530Z AUTO 24005KT 200V270 CAVOK 19/13 Q1018 NOSIG", "LFLS 311530Z AUTO 28005KT 220V330 CAVOK 20/11 Q1018 TEMPO 21015G25KT", "LFLU 311530Z AUTO 19012KT 9999 FEW070 BKN080 21/12 Q1017", "LFLV 311530Z AUTO 16008KT CAVOK 22/12 Q1013", "LFLW 311530Z AUTO 14015KT CAVOK 19/12 Q1016 TEMPO 15015G27KT 3000 RA BKN020 SCT030CB", "LFLX 311530Z AUTO 20009KT 9999 -RA //////TCU 20/14 Q1012 TEMPO 22020G33KT 2500 TSRA SCT030CB", "LFLY 311530Z AUTO 18015KT CAVOK 21/12 Q1017 TEMPO 18015G30KT", "LFMC 311530Z AUTO 13007KT 9999 ////// 22/15 Q1021", "LFMD 311530Z AUTO 17004KT 100V230 CAVOK 21/17 Q1021 TEMPO BKN010", "LFMH 311530Z AUTO 18013G23KT 150V270 CAVOK 21/12 Q1016", "LFMI 311530Z AUTO 14014KT 9999 BKN032 BKN048 OVC058 22/16 Q1019 BECMG 15015G25KT", "LFMK 311530Z AUTO 08020KT CAVOK 21/17 Q1014 TEMPO 09020G30KT", "LFML 311530Z AUTO 14012KT 9999 BKN050 22/16 Q1020 NOSIG", "LFMN 311530Z 10004KT CAVOK 20/16 Q1022 NOSIG", "LFMO 311530Z AUTO 18009KT 150V210 9999 SCT068 22/14 Q1019 TEMPO 4000 TSRA BKN030CB", "LFMP 311530Z AUTO 18015KT CAVOK 24/14 Q1014 TEMPO 18017G30KT", "LFMT 311530Z AUTO 13018KT 9999 SCT021/// BKN041/// BKN049/// ///CB 21/19 Q1019 TEMPO 14015G25KT OVC013", "LFMU 311530Z AUTO 12014KT 9999 OVC013 22/19 Q1017 TEMPO OVC008 BECMG 12015G25KT", "LFMV 311530Z AUTO 16011KT 9999 BKN062 22/13 Q1019 NOSIG", "LFMY 311530Z AUTO 16010KT 9999 ////// 22/15 Q1020", "LFOA 311530Z AUTO 13005KT CAVOK 21/14 Q1012", "LFOB 311530Z AUTO 15008KT CAVOK 18/13 Q1010 TEMPO 4000 RA BKN014 OVC040 BECMG 18015G25KT", "LFOE 311530Z AUTO 16008KT 9999 FEW024 OVC210 18/14 Q1009 TEMPO 18020G30KT 2000 TSRA BKN015CB", "LFOH 311530Z AUTO 14009KT CAVOK 18/14 Q1007 BECMG 18015G25KT", "LFOJ 311530Z AUTO 15009KT 9999 //////TCU 20/14 Q1009 TEMPO 22020G30KT 2000 SHRA BKN012 SCT040CB", "LFOK 311530Z AUTO 16011KT CAVOK 18/13 Q1013 NOSIG", "LFOP 311530Z AUTO 15013KT 9999 SCT024 SCT220 17/13 Q1009 TEMPO 4000 RA BKN014 OVC040 BECMG 18015G25KT", "LFOT 311530Z AUTO 19010KT 9999 -RA FEW044/// SCT058/// BKN072/// ///TCU 17/15 Q1010 TEMPO 19015G25KT 4000 SHRA SCT040CB", "LFOV 311530Z AUTO 18012KT 9999 FEW032 SCT076 BKN110 17/15 Q1007", "LFOZ 311530Z AUTO 13008KT CAVOK 20/13 Q1011", "LFPB 311530Z AUTO 14009KT CAVOK 19/14 Q1010 TEMPO 4000 SHRA BKN014 SCT030TCU", "LFPG 311530Z 16009KT CAVOK 19/14 Q1011 NOSIG", "LFPM 311530Z AUTO 16009KT CAVOK 19/14 Q1011", "LFPN 311530Z AUTO 16009KT CAVOK 19/13 Q1010 TEMPO 17020G35KT 2000 TSRA BKN030CB", "LFPO 311530Z 15008KT 9999 FEW032 BKN200 20/14 Q1011 TEMPO 17015G30KT 4000 RA SCT030TCU", "LFPT 311530Z AUTO 15008KT CAVOK 19/14 Q1010", "LFPV 311530Z AUTO 16008KT 130V190 CAVOK 19/13 Q1011 TEMPO 22020G35KT 1500 TSRA BKN025CB", "LFQA 311530Z AUTO 13007KT CAVOK 18/13 Q1012", "LFQB 311530Z AUTO 16007KT CAVOK 20/12 Q1013", "LFQG 311530Z AUTO 12007KT CAVOK 20/14 Q1012", "LFQQ 311530Z AUTO 11006KT CAVOK 17/14 Q1010 BECMG 18015G25KT", "LFRB 311530Z AUTO 20021KT 8000 -RA BKN007/// BKN016/// BKN025/// ///CB 14/14 Q1002 TEMPO 16020G30KT 3000 SHRA", "LFRC 311530Z AUTO 16011KT 9999 BKN017 BKN130 15/14 Q1005 TEMPO 4000 SHRA BKN008 BKN030CB", "LFRD 311530Z AUTO 19006KT 140V270 9000 -RA BKN014/// BKN020/// BKN028/// //////CB 16/15 Q1005 TEMPO 3000 SHRA BKN008 BKN015CB BECMG 17015G30KT", "LFRG 311530Z AUTO 15008KT CAVOK 17/15 Q1008 TEMPO 3000 SHRA SCT008 BKN030CB", "LFRH 311530Z AUTO 21016KT 5000 -RA BR BKN006/// BKN013/// BKN022/// //////CB 15/15 Q1004 TEMPO SHRA BECMG 22020G40KT", "LFRI 311530Z AUTO 17011KT CAVOK 17/15 Q1007 TEMPO 3000 SHRA BKN010 BKN020CB BECMG 18015G25KT", "LFRJ 311530Z AUTO 18012KT 7000 2900 RA FEW015/// SCT025/// BKN050/// //////CB 15/14 Q1001", "LFRK 311530Z AUTO 14008KT CAVOK 17/14 Q1006 TEMPO 3000 SHRA SCT008 BKN030CB", "LFRL 311530Z AUTO 20017KT 9999 -RA BKN006/// OVC011/// //////CB 14/14 Q1002", "LFRM 311530Z AUTO 18010G20KT 140V220 9999 -RA FEW020/// BKN041/// BKN049/// //////CB 17/15 Q1009 TEMPO 3000 SHRA BKN012 BKN020CB", "LFRN 311530Z AUTO 21012KT 9999 -RA FEW030/// SCT038/// BKN049/// //////CB 15/13 Q1006 TEMPO 15015G25KT 3000 SHRA BKN008 BKN015CB", "LFRO 311530Z AUTO 15009KT 9999 BKN024/// BKN034/// OVC082/// //////CB 16/13 Q1002", "LFRQ 311530Z AUTO 22011KT 180V260 5000 RA BR BKN006/// OVC012/// //////TCU 14/14 Q1003 TEMPO TSRA BKN008 BKN020CB BECMG 20020G35KT", "LFRS 311530Z AUTO 19008KT 9999 SCT021/// BKN026/// OVC033/// //////TCU 16/15 Q1006 TEMPO 22025G42KT 3000 SHRA BKN012 BKN020CB", "LFRT 311530Z AUTO 16007KT 120V190 9999 SCT020 BKN062 BKN100 16/14 Q1003", "LFRU 311530Z AUTO 17006KT 130V220 9999 FEW020/// SCT058/// BKN076/// ///TCU 16/13 Q1002", "LFRV 311530Z AUTO 19013G29KT 160V240 5000 -RA BR SCT008/// BKN014/// OVC024/// ///CB 15/14 Q1005", "LFRZ 311530Z AUTO 21013KT 9999 SCT036/// BKN052/// BKN070/// //////TCU 17/14 Q1006 TEMPO 21025G45KT 3000 SHRA BKN012 BKN020CB", "LFSB 311530Z AUTO 35006KT CAVOK 17/13 Q1016 NOSIG", "LFSD 311530Z AUTO 15004KT CAVOK 19/13 Q1015", "LFSG 311530Z AUTO 19008KT CAVOK 18/10 Q1016", "LFSI 311530Z AUTO 15007KT CAVOK 19/12 Q1014", "LFSL 311530Z AUTO VRB02KT 9999 -RA ///CB 21/15 Q1014 TEMPO 20015G25KT 3000 TSRA", "LFSM 311530Z AUTO 26004KT CAVOK 19/12 Q1017", "LFSN 311530Z AUTO 13005KT CAVOK 18/13 Q1016", "LFSO 311530Z AUTO 17012KT CAVOK 19/09 Q1016", "LFST 311530Z AUTO 33002KT CAVOK 16/13 Q1016 NOSIG", "LFSX 311530Z AUTO VRB02KT CAVOK 18/14 Q1016", "LFTH 311530Z AUTO 10008KT CAVOK 21/17 Q1021 NOSIG", "LFTW 311530Z AUTO 14012KT 9999 BKN022/// BKN029/// BKN036/// ///TCU 21/16 Q1019 TEMPO 4000 RA BKN012 BECMG 15015G25KT", "LFVP 311530Z AUTO 22022KT CAVOK 14/09 Q1014 NOSIG", "LFYR 311530Z AUTO 20011KT 170V230 9999 +RA FEW013/// BKN052/// BKN076/// //////CB 19/14 Q1011", "LGAD 311550Z 00000KT 9999 FEW030 21/14 Q1018", "LGAL 311550Z 02003KT 9999 FEW030 21/12 Q1019", "LGAV 311550Z 05008KT 9999 FEW030 21/09 Q1019 NOSIG", "LGBL 311550Z 00000KT 9999 FEW035 18/13 Q1020", "LGEL 311550Z 35006KT 9999 FEW030 23/09 Q1018", "LGHI 311550Z 36006KT CAVOK 20/09 Q1015", "LGIO 311550Z 12003KT 9999 FEW040 21/07 Q1020", "LGIR 311550Z 30009KT 9999 FEW025 19/13 Q1018 NOSIG", "LGKC 311550Z 09005KT 010V110 CAVOK 19/16 Q1019", "LGKF 311550Z 00000KT CAVOK 22/18 Q1018", "LGKL 311550Z VRB03KT 9999 FEW025 18/14 Q1018", "LGKO 311550Z 31010KT CAVOK 22/12 Q1015", "LGKP 311550Z 31020KT 9999 FEW020 19/14 Q1016", "LGKR 311550Z 00000KT CAVOK 22/16 Q1017 NOSIG", "LGKV 311550Z 18004KT 9999 FEW030 18/13 Q1019", "LGKZ 311550Z AUTO VRB02KT //// // ////// 17/03 Q1022 RE//", "LGLM 311550Z 00000KT 9999 FEW018 18/13 Q1019", "LGMK 311550Z 01012KT CAVOK 18/12 Q1017", "LGMT 311550Z 31008KT 9999 FEW025 21/11 Q1017", "LGPA 311550Z AUTO 01009KT //// -RA ////// 18/10 Q1017 RE//", "LGPZ 311550Z 00000KT CAVOK 19/14 Q1018", "LGRP 311550Z 22010KT CAVOK 20/13 Q1014 NOSIG", "LGRX 311550Z 00000KT 9999 FEW070 20/15 Q1018", "LGSA 311550Z 00000KT 9999 FEW020 18/14 Q1017", "LGSK 311550Z 36005KT 9999 FEW018 SCT025 19/11 Q1018", "LGSM 311550Z 00000KT CAVOK 20/14 Q1015", "LGSO 311550Z 36016KT 9999 FEW016 19/10 Q1018", "LGSR 311520Z 33008KT CAVOK 20/12 Q1017", "LGTS 311550Z VRB03KT CAVOK 21/09 Q1019 NOSIG", "LGZA 311550Z 00000KT 9999 FEW030 21/17 Q1018", "LHBP 311530Z 08005KT 030V120 5000 -DZ BR OVC004 11/10 Q1023 NOSIG", "LHDC 311515Z AUTO VRB02KT 9000 OVC007 12/10 Q1024 NOSIG", "LHKE 311545Z 09004KT 2500 BR OVC003 11/10 Q1023 NOSIG RMK YLO", "LHPA 311515Z 11002KT 1000 R16/P1500 BR OVC002 11/11 Q1022 BECMG 0800 FG RMK AMB", "LHPP 311533Z AUTO 10006KT 0900 R34/P1500 FG OVC001 12/12 Q1022", "LHPR 311515Z AUTO 12006KT 5000 BR OVC003 11/11 Q1022 NOSIG", "LHSM 311515Z AUTO 00000KT 0650 R16/0900N FG VV002 11/11 Q1022 NOSIG", "LHSN 311545Z 10004KT 070V140 6000 OVC008 12/10 Q1023 BECMG 5000 BR RMK GRN", "LIBA 311455Z 28006KT CAVOK 25/11 Q1021 RMK SKC VIS MIN 9999 WIND THR11 28008KT WIND THR29 /////KT BLU", "LIBC 311450Z 02009KT CAVOK 25/07 Q1020", "LIBD 311550Z 30002KT CAVOK 20/14 Q1021", "LIBF 311450Z 33009KT CAVOK 25/09 Q1021", "LIBG 311450Z 35008KT 330V030 CAVOK 26/11 Q1019", "LIBN 311455Z 35009KT CAVOK 21/17 Q1020 RMK FEW FEW200 VIS MIN 9999 WIND THR14 34010KT WIND THR32 36011KT BLU", "LIBP 311550Z AUTO 03004KT 9999 -RA NCD 19/15 Q1022", "LIBQ 311455Z 06005KT 020V090 CAVOK 13/02 Q1027", "LIBR 311550Z 33011KT 9999 FEW010 20/18 Q1020", "LIBV 311455Z 32006KT CAVOK 22/06 Q1021 RMK SKC VIS MIN 9999 WIND THR32 35003KT WIND THR14 34006KT BLU", "LIBY 311455Z 02007KT CAVOK 23/17 Q1018 RMK FEW FEW200 QUK 3 QUL 1 N VIS MAR 15 KM VIS MIN 9999", "LICA 311550Z AUTO 25004KT 9999 NCD 20/16 Q1022", "LICB 311550Z AUTO 26003KT 9999 NCD 21/08 Q1022", "LICC 311550Z 06006KT CAVOK 22/16 Q1020", "LICD 311550Z AUTO 25004KT 9999 NCD 23/14 Q1022", "LICF 311455Z 01004KT 9999 FEW040 22/11 Q1021 RMK FEW QUK 1 QUL 0 VIS MAR 20 KM MON E CIME INC NC MON W LIB NC VIS MIN 9999", "LICG 311450Z 07005KT 9999 FEW020 21/17 Q1022", "LICJ 311550Z 04010KT CAVOK 21/15 Q1021", "LICR 311550Z AUTO 36012KT 9999 NCD 21/16 Q1021", "LICT 311455Z 36008KT CAVOK 24/19 Q1021 RMK SKC VIS MIN 9999 WIND THR13 02009KT BLU", "LICZ 311455Z /////KT CAVOK 25/08 Q1019 RMK SKC VIS MIN 9999 WIND THR28 09007KT WIND THR10 08008KT A3012 BLU", "LIEA 311550Z 29003KT 260V320 CAVOK 22/15 Q1021", "LIEB 311455Z 15004KT CAVOK 25/15 Q1021 RMK FEW FEW200 QUK 2 QUL 0 VIS MAR 30 KM MON LIB VIS MIN 9999", "LIED 311455Z 14008KT 9999 FEW025 23/14 Q1022 RMK SCT SCT200 VIS MIN 9999 WIND THR35 /////KT WIND THR17 15007KT BLU", "LIEE 311550Z 18007KT CAVOK 22/15 Q1021", "LIEO 311550Z 08005KT CAVOK 22/14 Q1021", "LIMA 311450Z VRB02KT CAVOK 22/09 Q1021", "LIMC 311550Z VRB01KT CAVOK 20/14 Q1021 NOSIG", "LIME 311550Z 23003KT CAVOK 22/11 Q1021 NOSIG", "LIMF 311550Z 36002KT 9999 FEW100 21/11 Q1021", "LIMG 311450Z 07006KT 040V100 9999 FEW020 21/16 Q1022", "LIMH 311455Z AUTO 22010G21KT //// M02/M06 Q1030", "LIMJ 311550Z 24004KT 9999 FEW015 SCT030 20/17 Q1021", "LIMK 311455Z 00000KT CAVOK 21/14 Q1022 RMK FEW FEW100 VAL S FOSCHIA VIS MIN 9999", "LIML 311550Z 15002KT CAVOK 22/12 Q1020 NOSIG", "LIMN 311455Z /////KT CAVOK 23/13 Q1021", "LIMP 311450Z VRB01KT 9999 FEW030 23/12 Q1021", "LIMS 311455Z 00000KT CAVOK 23/16 Q1020 RMK FEW FEW240 VIS MIN 9999 WIND THR30 00000KT BLU", "LIMU 311455Z 10004KT 9999 SCT020 21/17 Q1024 RMK BKN SCT200 QUK 1 QUL 1 SE VIS MAR 20 KM VIS MIN 9999", "LIMV 311455Z /////KT CAVOK 17/14 Q1023", "LIMW 311450Z AUTO 25005KT 200V290 9999 NCD 21/08 Q1020", "LIMY 311455Z 32005KT CAVOK 21/12 Q1021", "LIMZ 311550Z AUTO 33003KT 310V010 9999 NCD 20/11 Q1021", "LIPA 311455Z 12004KT CAVOK 22/15 Q1021 RMK SCT SCT200 VIS MIN 9999 WIND THR05 /////KT WIND THR23 /////KT A3016 BLU", "LIPB 311550Z VRB02KT CAVOK 17/11 Q1021", "LIPC 311455Z 08004KT CAVOK 21/16 Q1022 RMK SCT SCT220 VIS MIN 9999 WIND THR11 09004KT WIND THR29 09004KT BLU", "LIPE 311550Z 05003KT CAVOK 23/12 Q1021", "LIPF 311455Z 00000KT CAVOK 22/13 Q1021 RMK FEW FEW200 VIS MIN 9999", "LIPH 311550Z 15002KT CAVOK 21/15 Q1020", "LIPI 311455Z 17002KT CAVOK 22/15 Q1020 RMK BKN BKN200 VIS MIN 9999 WIND THR06 19002KT WIND THR24 17501KT BLU", "LIPK 311550Z 09004KT CAVOK 22/12 Q1021", "LIPL 311455Z 24002KT CAVOK 23/12 Q1020 RMK FEW FEW200 VIS MIN 9999 WIND THR31 20004KT WIND THR13 23002KT BLU", "LIPO 311550Z AUTO 21002KT 9999 NCD 22/12 Q1020", "LIPQ 311550Z AUTO 14002KT 9999 NCD 19/14 Q1021", "LIPR 311550Z VRB02KT CAVOK 19/15 Q1021", "LIPS 311455Z /////KT CAVOK 25/15 Q1020", "LIPX 311550Z 13004KT 9000 NSC 21/12 Q1020", "LIPY 311550Z AUTO 06003KT 9999 NCD 18/16 Q1021", "LIPZ 311550Z 16003KT 7000 NSC 19/16 Q1021 NOSIG", "LIQC 311455Z 00000KT CAVOK 20/17 Q1022 RMK SKC QUK 1 QUL 0 VIS MAR 20 KM VIS MIN 9999", "LIQN 311450Z VRB01KT CAVOK 25/07 Q1023", "LIQO 311455Z AUTO /////KT //// ///// Q////", "LIRA 311550Z 28004KT CAVOK 22/13 Q1022", "LIRE 311455Z 28008KT CAVOK 22/18 Q1021 RMK SKC VIS MIN 9999 WIND THR13 30007KT WIND THR31 /////KT BLU", "LIRF 311550Z 28004KT CAVOK 20/15 Q1021 NOSIG", "LIRG 311455Z 28004KT CAVOK 26/05 Q1022 RMK SKC MON NE LIB NC VIS MIN 9999 BLU", "LIRH 311455Z 20002KT CAVOK 25/10 Q1022 RMK SKC MON LIB NC VIS MIN 9999 WIND THR16 19002KT BLU", "LIRI 311450Z 26003KT 230V300 CAVOK 22/14 Q1021", "LIRK 311455Z AUTO 28005KT //// 17/01 Q1033", "LIRL 311455Z 24006KT CAVOK 25/17 Q1021 RMK SKC MON LIB NC VIS MIN 9999 WIND THR12 /////KT WIND THR30 25006KT BLU", "LIRM 311455Z 20005KT CAVOK 23/05 Q1021 RMK SKC VIS MIN 9999 WIND THR06 24006KT BLU", "LIRN 311550Z 24003KT CAVOK 21/16 Q1021 NOSIG", "LIRP 311545Z 28005KT CAVOK 22/15 Q1022 NOSIG", "LIRQ 311550Z VRB01KT CAVOK 21/13 Q1021", "LIRS 311455Z 22005KT CAVOK 21/18 Q1022 RMK SCT SCT200 VIS MIN 9999 WIND THR03 23006KT WIND THR21 22005KT BLU", "LIRT 311455Z 11005KT CAVOK 19/03 Q1025", "LIRU 311450Z 23004KT 200V260 CAVOK 26/13 Q1021", "LIRV 311455Z 24005KT CAVOK 23/10 Q1023 RMK SKC MON E SE LIB NC VIS MIN 9999 WIND THR04 ///// KT BLU", "LIRX 311455Z 23002KT CAVOK 22/11 Q1022 RMK SCT SCT200 VIS MIN 9999 VIS MAR 20 KM", "LIRZ 311550Z AUTO 15003KT 9999 NCD 22/10 Q1022", "LIVC 311455Z AUTO 21008KT 100V230 //// 12/M01 Q1030", "LIVD 311455Z VRB02KT CAVOK 15/09 Q1025 RMK BKN FEW100 BKN230 VIS MIN 9999", "LIVE 311455Z 22005KT 9999 SCT050 15/05 Q1025 RMK BKN SCT180 VIS MIN 9999", "LIVF 311455Z 00000KT CAVOK 21/07 Q1022", "LIVM 311455Z 11004KT CAVOK 23/15 Q1021 RMK BKN BKN180 QUK 1 QUL 0 VIS MAR 12 KM VIS MIN 9999", "LIVO 311455Z 00000KT CAVOK 19/10 Q1022 RMK BKN BKN200 VIS MIN 9999", "LIVP 311455Z 19011KT CAVOK 11/M02 Q1028", "LIVR 311455Z 18006KT CAVOK 12/M00 Q1027 RMK SCT SCT200 MON LIB VIS MIN 9999", "LIVT 311455Z AUTO VRB01KT //// 20/16 Q1021", "LJCE 311530Z 08005KT CAVOK 16/13 Q1021 RMK BLU", "LJLJ 311530Z 28002KT CAVOK 16/14 Q1021 NOSIG", "LJMB 311530Z 13005KT CAVOK 13/11 Q1021", "LJPZ 311530Z VRB01KT CAVOK 19/16 Q1021", "LKCV 311530Z VRB02KT 0100 R31/0250N FG VV001 11/11 Q1020 NOSIG RMK RED RED", "LKKB 311500Z 03004KT 0100 R24/0225N FG VV001 10/10 Q1020 NOSIG", "LKKU 311500Z VRB01KT 4500 BR OVC004 11/10 Q1022", "LKKV 311530Z VRB02KT CAVOK 14/09 Q1020", "LKLN 311500Z AUTO 03003KT 360V070 CAVOK 17/12 Q1019", "LKMT 311530Z 23007KT 0600 R22/P2000N R04/1900N FG OVC002 10/09 Q1021 NOSIG", "LKNA 311530Z 12004KT 090V150 0200 R30/0150 FG VV001 09/09 Q1021 NOSIG RMK RED RED", "LKPD 311530Z 13002KT 0200 R27/0250N FG VV001 11/11 Q1021 NOSIG RMK RED RED", "LKPR 311530Z 02004KT 5000 BR NSC 12/12 Q1020 TEMPO 3000 BR", "LKTB 311530Z 12004KT 090V150 3500 BR OVC002 10/10 Q1022 NOSIG", "LLBG 311550Z 34005KT 9999 FEW035 24/15 Q1015 NOSIG", "LLER 311550Z 01012KT CAVOK 27/11 Q1013", "LLHA 311550Z 31006KT CAVOK 25/16 Q1014", "LLIB 311550Z AUTO 31010KT 9999 FEW050 22/13 Q1015", "LMML 311545Z 35008KT 9999 FEW030 22/16 Q1022 NOSIG", "LOAN 311500Z 10003KT 0300 FG VV001", "LOAV 311500Z VRB02KT 0900 FG VV005 11/11", "LOWG 311550Z 17005KT CAVOK 13/11 Q1021 NOSIG", "LOWI 311550Z 24003KT 190V280 CAVOK 16/09 Q1019 WS R26 NOSIG", "LOWK 311550Z 05002KT CAVOK 15/12 Q1022 NOSIG", "LOWL 311550Z AUTO 12004KT 6000 0250W R26/P1500U BCFG SCT001 12/11 Q1019 TEMPO 0500 BKN001", "LOWS 311550Z VRB02KT CAVOK 16/12 Q1018 NOSIG", "LOWW 311550Z 17007KT 3600 BR SCT001 BKN002 11/11 Q1022 BECMG 2500 BCFG TEMPO BKN001", "LOXZ 311550Z VRB02KT 9999 FEW150 14/11 Q1021 NOSIG", "LPAR 311500Z 30009KT 270V330 9999 FEW020 SCT040 21/17 Q1017", "LPAZ 311530Z 13007KT 100V160 9999 FEW026 19/11 Q1022", "LPBJ 311500Z 24009KT 9999 SCT016 SCT030 20/17 Q1018", "LPCS 311530Z 34010KT 9999 3000NW VCSH FEW004 SCT010 BKN018 19/17 Q1018", "LPFL 311530Z 24006KT 180V290 9999 FEW030 20/09 Q1021", "LPFR 311530Z 21008KT 5000 RA FEW004 SCT016 BKN020 21/20 Q1018", "LPHR 311530Z 21006KT 110V280 9999 FEW025 19/10 Q1022", "LPLA 311500Z /////KT 9999 FEW035 20/12 Q1022", "LPMA 311530Z 14003KT 9999 SCT015 BKN030 23/18 Q1020", "LPMR 311500Z 34006KT 9999 FEW010 SCT015 BKN028 18/15 Q1017", "LPMT 311500Z 25010KT 9999 FEW026 SCT037 21/17 Q1017", "LPOV 311500Z 33008KT 300V360 9999 FEW006 SCT020 18/14 Q1016", "LPPD 311530Z 25004KT 9999 FEW025 18/10 Q1023", "LPPR 311530Z 30008KT 270V340 9999 SCT022 18/14 Q1017", "LPPS 311530Z 31007KT 280V340 9999 FEW015 23/18 Q1020", "LPPT 311530Z 31007KT 280V340 9999 SCT012 SCT020 19/17 Q1018", "LPST 311500Z 33008KT 6000 -DZ BKN008 BKN016 18/16 Q1017", "LQBK 311530Z 30003KT CAVOK 17/14 Q1021 NOSIG", "LQMO 311500Z 26002KT CAVOK 28/08 Q1019", "LQSA 311530Z VRB02KT CAVOK 18/08 Q1023 NOSIG", "LQTZ 311530Z VRB01KT CAVOK 20/12 Q1021", "LRAR 311530Z 06004KT 4500 BR OVC007 11/10 Q1023", "LRBC 311530Z 30004KT 270V350 CAVOK 14/09 Q1021", "LRBM 311530Z VRB02KT 9999 OVC010 12/10 Q1024", "LRBO 311500Z 09004KT 9999 SKC 20/10 Q1020 BLACK BLACK", "LRBS 311530Z 00000KT CAVOK 20/10 Q1021 NOSIG", "LRCK 311530Z 32007KT CAVOK 17/10 Q1020 NOSIG", "LRCL 311530Z 04003KT 010V070 7000 BKN012 12/09 Q1023", "LRCV 311530Z 19004KT CAVOK 21/08 Q1020", "LRFT 311500Z 36002KT 9999 SCT050 20/10 Q1020 BLU BLU", "LRIA 311530Z 34006KT CAVOK 12/07 Q1021", "LROD 311530Z 29002KT 5000 BR OVC009 12/10 Q1023", "LROP 311530Z 27002KT CAVOK 18/10 Q1020 NOSIG", "LRSB 311530Z 24004KT 8000 NSC 11/10 Q1023", "LRSM 311530Z 05002KT 9999 OVC010 12/10 Q1024", "LRSV 311530Z 01005KT CAVOK 13/09 Q1021", "LRTC 311530Z 34010KT CAVOK 16/04 Q1020", "LRTM 311530Z 07003KT 9000 BKN014 BKN035 12/10 Q1023", "LRTR 311530Z 31003KT 4000 BR SCT005 OVC006 11/11 Q1023", "LRTZ 311500Z 01006KT 9999 FEW050 19/10 Q1020 BLU BLU", "LSGC 311550Z VRB01KT CAVOK 15/07 Q1019", "LSGG 311550Z 22004KT 200V260 CAVOK 18/12 Q1018 NOSIG", "LSGS 311550Z 27007KT CAVOK 17/09 Q1018", "LSMA 311550Z AUTO 00000KT 9999NDV NCD 14/10 Q1017 RMK", "LSMD 311550Z AUTO 00000KT 9999NDV NCD 16/12 Q1017 RMK", "LSME 311550Z 08002KT CAVOK 15/15 Q1017 RMK BLU", "LSMM 311550Z AUTO 28005KT 230V330 9999NDV NCD 12/08 Q1018 RMK", "LSMP 311550Z AUTO 00000KT 9999NDV NCD 16/12 Q1018 RMK", "LSZA 311550Z VRB01KT CAVOK 17/12 Q1021", "LSZB 311550Z 29006KT CAVOK 17/13 Q1018", "LSZC 311550Z VRB01KT CAVOK 14/11 Q1017", "LSZG 311550Z 23004KT CAVOK 16/14 Q1017", "LSZH 311550Z 35003KT CAVOK 14/11 Q1017 NOSIG", "LSZL 311550Z AUTO 27002KT 9999NDV NCD 18/11 Q1021 RMK", "LSZR 311550Z 31003KT 0150 R10/0200N FG VV001 10/10 Q1018 RMK N", "LSZS 311550Z 22009KT CAVOK 12/01 Q1025 RMK T TL170", "LTAC 311520Z 22005KT 9999 FEW040 SCT100 14/M02 Q1019 NOSIG RMK RWY21L 19004KT RWY03L 20004KT RWY21R 21004KT", "LTAE 311450Z 30006KT 9999 FEW040 15/M01 Q1019 NOSIG RMK RWY21 25004KT", "LTAF 311520Z 23006KT 9999 FEW035 23/14 Q1013 NOSIG RMK RWY23 25006KT 2CU035", "LTAG 311520Z 22006KT CAVOK 24/11 Q1012 NOSIG RMK 2AC100", "LTAI 311520Z 19003KT CAVOK 21/13 Q1014 NOSIG RMK RWY18C 21003KT 160V260 RWY36R 20004KT 180V240 RWY18L 20004KT", "LTAJ 311520Z 00000KT 9999 FEW040 SCT100 17/09 Q1016 NOSIG RMK RWY10 00000KT 1CU040 3AC100", "LTAN 311450Z 02007KT 9999 FEW030 SCT100 14/01 Q1019 NOSIG", "LTAP 311520Z 03003KT 350V050 9999 FEW040 SCT100 13/03 Q1017 NOSIG RMK RWY23 05008KT", "LTAR 311450Z 32010KT 9999 FEW040 09/M13 Q1020", "LTAT 311520Z 32005KT 9999 FEW040 SCT100 14/03 Q1016 NOSIG RMK RWY03 VRB02KT", "LTAU 311520Z 00000KT CAVOK 12/00 Q1018 NOSIG RMK RWY07 30002KT", "LTAY 311450Z 27007KT CAVOK 17/M02 Q1017", "LTAZ 311520Z VRB02KT CAVOK 13/M03 Q1018 RMK RWY29 32004KT", "LTBA 311520Z 02009KT CAVOK 18/10 Q1020 RMK RWY23 02010KT", "LTBD 311450Z 25006KT CAVOK 23/06 Q1014", "LTBF 311450Z 35009KT CAVOK 18/08 Q1019 NOSIG", "LTBH 311450Z 06011KT CAVOK 19/11 Q1019", "LTBJ 311520Z 36011KT CAVOK 20/05 Q1015 NOSIG RMK RWY16 02009KT", "LTBQ 311450Z 14002KT CAVOK 13/10 Q1021 NOSIG", "LTBR 311520Z VRB01KT CAVOK 16/05 Q1020 NOSIG RMK RWY07 02005KT", "LTBS 311520Z 27004KT 230V290 CAVOK 22/11 Q1014 NOSIG RMK RWY19 24005KT SKC", "LTBU 311520Z 03009KT CAVOK 16/10 Q1021 RMK RWY22 02008KT", "LTBY 311450Z 33008KT CAVOK 15/01 Q1019", "LTCA 311450Z VRB02KT 9999 FEW035 14/05 Q1016 NOSIG", "LTCB 311450Z 22003KT 9999 BKN035 16/10 Q1018 RESHRA", "LTCC 311520Z 03003KT 9999 SCT040 BKN100 14/11 Q1016 NOSIG RMK RWY16 00000KT 3CU040 5AC100", "LTCD 311450Z 24006KT CAVOK 14/M01 Q1016 NOSIG", "LTCE 311520Z 28007KT 230V300 9999 FEW040 08/M04 Q1017 NOSIG RMK RWY08R 29004KT 230V350 RWY26R 28008KT RWY08L 29006KT 260V360 1CU040", "LTCF 311450Z 26005KT 200V320 9999 FEW040 09/M04 Q1015", "LTCG 311520Z 19004KT 9999 SCT035 16/12 Q1018 NOSIG RMK RWY29 18004KT", "LTCI 311540Z 18004KT 9999 -SHRA SCT040 BKN080 11/03 Q1021 NOSIG RMK RWY21 19003KT 140V250 3CU040 5AC080", "LTCJ 311520Z 00000KT 9999 FEW040 SCT100 13/11 Q1016 NOSIG RMK RWY20 VRB02KT 2CU040 4AC100", "LTCN 311450Z 33008KT 9999 FEW040 SCT100 22/05 Q1015 NOSIG", "LTCO 311450Z 23016KT 9999 FEW040 12/00 Q1016", "LTCR 311450Z 36008KT 320V030 9999 FEW040 SCT100 20/08 Q1015", "LTCS 311520Z 04003KT CAVOK 14/10 Q1017 RMK RWY22 15002KT SKC", "LTCT 311450Z 00000KT 9999 FEW040 14/01 Q1013", "LTCV 311450Z 27010KT CAVOK 18/05 Q1015", "LTCW 311450Z VRB04KT 9000 FEW040 12/01 Q1018", "LTDA 311450Z 14004KT 8000 FEW040 SCT120 24/10 Q1013 NOSIG", "LTFB 311450Z 26008KT CAVOK 19/12 Q1016", "LTFC 311520Z 20005KT 180V250 9999 FEW040 17/02 Q1017 RMK RWY23 22005KT 190V280", "LTFD 311450Z 06017KT CAVOK 22/09 Q1017", "LTFE 311520Z 21005KT CAVOK 19/12 Q1015 NOSIG RMK RWY10 24006KT 200V270", "LTFG 311450Z 23003KT 9999 FEW030 23/15 Q1015", "LTFH 311450Z 18003KT 160V230 9999 -SHRA SCT033 BKN080 15/12 Q1018 NOSIG", "LTFJ 311520Z 03008KT CAVOK 17/11 Q1020 NOSIG RMK RWY24 03007KT", "LTFM 311520Z 03006KT CAVOK 16/13 Q1021 NOSIG RMK RWY17L 01005KT RWY34L 01006KT RWY16R 02004KT RWY36 03006KT RWY18 03004KT", "LTFO 311450Z 19006KT 9999 SCT025 BKN100 17/12 Q1017", "LUKK 311530Z 32006KT CAVOK 13/05 Q1020 NOSIG", "LXGB 311550Z 05002KT 9999 FEW011 OVC200 21/17 Q1020 NOSIG RMK BLU BLU", "LYBE 311530Z 04005KT 010V070 3500 BR NSC 15/13 Q1022 NOSIG", "LYBT 311530Z 02003KT 7000 NSC 14/13 Q1023 NOSIG", "LYKV 311530Z VRB01KT CAVOK 20/09 Q1022 NOSIG", "LYNI 311530Z VRB01KT CAVOK 21/07 Q1022 NOSIG", "LYPG 311530Z 27003KT CAVOK 22/12 Q1020 NOSIG", "LYTV 311530Z 32002KT CAVOK 21/14 Q1020 NOSIG", "LYVR 311530Z AUTO 04003KT 020V080 4000 -SHRA BR FEW007/// 11/11 Q1023", "LZIB 311530Z 09003KT 060V130 9000 BKN003 OVC004 10/10 Q1022 TEMPO OVC002", "LZKZ 311530Z 02002KT 6000 OVC006 11/10 Q1024 NOSIG", "LZPP 311530Z 15006KT 130V190 9999 OVC005 11/10 Q1022", "LZTT 311530Z VRB02KT CAVOK 11/08 Q1022 NOSIG", "LZZI 311530Z 28007KT CAVOK 11/09 Q1021", "MBGT 311500Z 08010KT 9999 SCT015 30/23 Q1015", "MDAB 311500Z 00000KT 9999 SCT018 SCT300 29/26 Q1015", "MDBH 311500Z 09010KT 9999 FEW020CB FEW022 SCT300 31/26 Q1014 CB/SE", "MDCY 311500Z 10008KT 9999 FEW020 SCT300 28/24 Q1013", "MDJB 311500Z 06004KT 9999 SCT018 30/24 Q1014 NOSIG", "MDLR 311500Z 09010KT 8000 VCSH BKN018 30/25 Q1013", "MDPC 311500Z 12012KT 9999 SCT020 SCT070 29/25 Q1014", "MDPP 311500Z 00000KT 9999 FEW018 27/23 Q1013", "MDSD 311500Z 11010KT 9999 FEW018CB SCT020 29/25 Q1014 CB/SE", "MDST 311500Z 13006KT 9999 SCT020 SCT300 29/23 Q1014", "MGCB 311500Z CORR 00000KT 9999 SCT018 19/16 QFE 871.5", "MGES 311500Z 03004KT 9999 SCT016 SCT200 22/16 QFE 910.2", "MGHT 311500Z 00000KT 9999 FEW024 18/13 FEW200", "MGMM 311500Z 03004KT CAVOK 27/23 Q1016 A3000", "MGMT 311500Z 00000KT CAVOK 31/20 FEW070", "MGPB 311500Z 00000KT 9999 FEW018 28/23 Q1013 A2991", "MGQZ 311500Z CORR 00000KT CAVOK 17/09 QFE 773.0 FEW200", "MGRT 311500Z 00000KT CAVOK 28/22 Q1014 A2994 SCT200 VOL. SANTA MARIA Y SANTIAGUITO EN ACTIVIDAD", "MGSJ 311500Z 00000KT CAVOK 31/23 Q1013 A2991 FEW200", "MGTU 311500Z 00000KT CAVOK 28/24 FEW200", "MGZA 311500Z 00000KT 9999 SCT017 BKN200 25/21 QFE 990.0", "MHCH 311500Z 36008KT 9999 FEW030 30/22", "MHGS 311500Z 00000KT 9999 FEW052 21/16", "MHLC 311500Z 23003KT 9999 FEW036 28/20 Q1014 A2995 NOSIG", "MHLE 311500Z 01006KT 9999 FEW024 18/12", "MHLM 311500Z 25005KT 9999 FEW026 25/21 Q1014 A2996 NOSIG", "MHNO 311500Z 02004KT 9999 FEW040 24/17", "MHPL 311500Z 36007KT 9999 BKN024TCU SCT080 28/23 Q1009", "MHRO 311500Z 08003KT 9999 SCT023TCU 28/21 Q1014 A2995 NOSIG", "MHSR 311500Z 03004KT 9999 SCT025 20/17", "MHTG 311500Z 36010KT 9999 FEW034 22/15 Q1019 A3009 NOSIG", "MHTR 311500Z 00000KT 9999 SCT025TCU 29/24", "MHYR 311500Z 25004KT 9999 SCT022 21/18", "MKJP 311545Z 12019G30KT 1000 +SHRA VCSH BKN016 BKN018CB 26/24 Q1011", "MKJS 311500Z 08017KT 9999 FEW022 30/23 Q1010", "MMBT 311504Z RTD 00000KT 9SM SKC 30/21 A2992", "MMCE 311551Z 13007KT 7SM SKC 28/23 A2994 RMK HZY", "MMCL 311452Z 06004KT 10SM FEW015 22/17 A2990 RMK SLP123 972 8/500", "MMCM 311540Z 00000KT 7SM SCT030 BKN100 29/23 A2996 RMK 8/130", "MMCP 311550Z 10005KT 7SM FEW015 29/23 A2996 RMK 8/100 HZY", "MMCT 311546Z 17006KT 7SM FEW020 27/23 A2996 RMK 8/100 CI", "MMCV 311540Z 17011KT 10SM BKN050 23/16 A2997 RMK 8/500", "MMCZ 311541Z 08007KT 8SM FEW015 29/24 A2995 RMK 8/100 SC", "MMDO 311445Z 15003KT 10SM SKC 09/M02 A3018 RMK SLP115 52010 978 HZY", "MMIA 311446Z 00000KT 8SM SKC 22/20 A3001 RMK HZY", "MMIO 311452Z 00000KT 5SM SKC 11/03 A3015", "MMLO 311445Z 00000KT 10SM SKC 17/06 A3028 RMK SLP142 52020 969 CI", "MMMD 311542Z 11008KT 7SM BKN015 28/22 A2998 RMK 8/100", "MMML 311544Z 36002KT 10SM SKC 19/M02 A2993 RMK RTS", "MMMT 311540Z 36008KT 6SM FEW009 BKN020 BKN080 24/23 A2992 RMK 8/510 LWR VIS HZY VC", "MMMV 311453Z 00000KT 10SM BKN080 BKN200 16/10 A3000 RMK 8/072", "MMMX 311445Z 08007KT 7SM FEW220 16/10 A3030 NOSIG RMK SLP102 52013 973 8/002 HZY", "MMPE 311457Z RTD 01005KT 10SM SKC 14/04 A2991 RMK RTS", "MMPQ 311540Z 09010KT 8SM FEW030 FEW100 28/22 A2983 RMK 8/180", "MMPR 311448Z 03005KT 15SM SKC 23/19 A2989 RMK SLP118 5//// 974", "MMPS 311452Z 05008KT 12SM SKC 27/21 A2988 RMK HZY", "MMSM 311543Z 00000KT 7SM FEW220 20/12 A3029 RMK 8/002 HZY CU ARND STN", "MMSP 311447Z 00000KT 5SM SCT015 13/09 A3021 RMK SLP125 52004 963 8/600 HZY CI", "MMTG 311540Z 36003KT 5SM FEW015 FEW300 26/19 A2998 RMK 8/101 VISY VRB FU HZ", "MMTJ 311448Z 13006KT 10SM SKC 16/00 A2994 RMK SLP152 57005 955 HZY ISOL CI", "MMTM 311453Z E30008KT 5SM SCT004 OVC008 22/21 A2996 RMK SLP146 52012 982 8/7// BINOVC -DZE43 -DZ OCNL", "MMTO 311520Z 00000KT 3SM HZ FEW015 16/10 A3036 RMK 8/500", "MMTP 311540Z 00000KT 10SM FEW020 30/25 A2987 RMK 8/100 HZY", "MMUN 311541Z 08005KT 7SM SCT015 29/20 A2996 RMK 8/100", "MMVA 311542Z 00000KT 7SM SCT070 30/22 A2994 RMK 8/030 HZY", "MMVR 311524Z 00000KT 5SM SCT020 27/23 A2997 RMK 8/500 HZY ISOL AC", "MMZH 311449Z 00000KT 7SM SKC 27/22 A2987 RMK SLP115 5//// 965 HZY AC", "MNBL 311500Z 36004KT 9999 SCT018 29/25 Q1011", "MNCH 311500Z 00000KT 9999 FEW025 28/23 Q1012", "MNJG 311500Z 09004KT 9999 SCT020 22/16 Q1014", "MNJU 311500Z 09004KT 9999 FEW020 30/22 Q1011", "MNMG 311500Z 11004KT 9999 FEW021 29/22 Q1012 A2989 1AC070 1CI300 NOSIG", "MNPC 311500Z 36006KT 5000 DZ FEW014CB BKN016TCU 26/24 Q1011 CBRA/SW TCURA/N/NE/SE/SW", "MNRS 311500Z 00000KT 9999 FEW013 30/24 Q1011", "MPBO 311500Z 27006KT 9999 FEW020 SCT090 28/25 Q1012", "MPDA 311500Z 09004KT 9999 SCT018 SCT090 27/23 Q1012", "MPMG 311500Z VRB01KT 9999 SCT020 29/24 Q1011 NOSIG", "MPPA 311500Z 18005KT 9999 FEW018 29/24 Q1011", "MPSM 311500Z 22003KT 9999 SCT020 SCT080 30/24 Q1011", "MPTO 311500Z 11005KT 9999 SCT018 28/24 Q1011 NOSIG", "MRLM 311500Z 29005KT CAVOK 30/20 A2987", "MSAC 311450Z 10005KT 9999 FEW030 30/17 Q1010 A2984", "MSLP 311550Z 03006KT 360V070 CAVOK 31/20 Q1011 A2988 NOSIG", "MSLU 311450Z 00000KT CAVOK 28/22 Q1011 A2988", "MSSA 311450Z 06003KT CAVOK 26/18 Q1017 A3006", "MSSS 311450Z 33007KT CAVOK 24/19 Q1016 A3002", "MTPP 311500Z 14007KT 1300V200 9999 FEW026 31/22 Q1012 A2989", "MUCC 311450Z 07011KT 040V100 9000 BKN018CB 30/25 Q1014", "MUCF 311450Z 08007KT 040V140 9999 FEW025 30/24 Q1015", "MUCL 311450Z 05008KT 020V090 9000 FEW020 29/25 Q1014", "MUCM 311451Z 05011KT 9000 BKN018 28/25 Q1014", "MUCU 311450Z 13007KT 100V160 9000 FEW020 30/23 Q1013", "MUGM 311551Z 09011KT 10SM FEW030 FEW060 32/23 A2991 RMK AO2 SLP128 T03170233 $", "MUHA 311450Z 09006KT 050V130 9000 FEW025 29/20 Q1015", "MUHG 311450Z 09010KT 060V120 9999 SCT020 30/23 Q1013", "MUSC 311450Z 09007KT 050V120 9000 SCT020 29/23 Q1015", "MUVR 311450Z 08007KT 050V110 9999 SCT020 29/23 Q1015", "MWCB 311500Z 08006KT 9999 SCT016 30/25 Q1012", "MWCR 311500Z 05012KT 9999 VCSH FEW014CB 31/25 Q1012", "MYGF 311500Z 30005KT 9999 VCSH FEW025 BKN040 BKN120 26/23 A3002", "MYNN 311500Z 11009KT 9999 SCT025 29/23 A3001", "MZBZ 311500Z 33004KT 9999 FEW018 27/24 A2996 Q1014 NOSIG", "NCRG 311530Z AUTO 09012KT 9999 SCT022/// BKN095/// 24/20 Q1016", "NGTA 311500 07005KT 9999 FEW020 27/23 Q1008", "NIUE 311500Z 09004KT 9999 SCT018 24/23 Q1011", "NLWW 311530Z AUTO 00000KT 9999 FEW020/// SCT074/// OVC130/// 25/24 Q1009 TEMPO 2000 TSRA BKN008 BKN015CB", "NSFA 311500Z 10005KT 9999 FEW020 25/24 Q1009", "NSTU 311450Z VRB05KT 10SM SCT023 25/24 A2982 RMK SLP100 8/100 T02450240 56007", "NTAA 311530Z VRB03KT 9999 FEW023 SCT130 23/20 Q1013 NOSIG", "NVSC 311500Z 00000KT 9999 SCT020 24/24 Q1007", "NVVV 311500Z 08002KT 9999 FEW020 22/22 Q1008", "NWWW 311530Z AUTO VRB02KT CAVOK 19/19 Q1009 NOSIG", "NZAA 311530Z AUTO 20006KT 9999 FEW040/// OVC050/// 16/15 Q1011 NOSIG", "NZCH 311530Z AUTO 31001KT 0800 R02/P2000N R20/P2000N FG NCD 07/06 Q1005 BECMG 9999 NSW TEMPO 0500 FG", "NZCM 311555Z AUTO 05003KT 9999 CLR M13/M16 A2895 RMK AO2 SLP808 T11311157", "NZFX 311555Z 00000KT 1200 FEW015 M24/M27 A2896 RMK SLP802 LSR10 SDG/HDP", "NZSP 311550Z 04013KT 1200 IC BLSN SCT008 OVC040 M41/ A2833 RMK CLN AIR 03016KT ALL WNDS GRID SDG/HDP", "NZWN 311530Z AUTO 36016KT 9999 FEW023/// 14/11 Q1008 NOSIG", "OBBI 311530Z 10006KT CAVOK 29/19 Q1014 NOSIG", "OEAB 311500Z 19008KT 9999 FEW020 19/12 Q1024 NOSIG", "OEAH 311500Z 00000KT CAVOK 32/02 Q1013 NOSIG", "OEAO 311500Z 22013KT 9999 SCT040 31/05 Q1014 NOSIG", "OEBA 311500Z 09012KT CAVOK 26/05 Q1020 NOSIG", "OEBH 311500Z 09008KT CAVOK 27/03 Q1016 NOSIG", "OEDF 311500Z 09007KT CAVOK 31/11 Q1012 NOSIG", "OEDM 311500Z 12009KT CAVOK 29/M03 Q1017", "OEDR 311500Z 08006KT CAVOK 30/20 Q1012", "OEGN 311500Z 24006KT CAVOK 32/22 Q1010 NOSIG", "OEGS 311500Z 13002KT CAVOK 30/07 Q1014", "OEGT 311500Z 30009KT CAVOK 25/05 Q1014 NOSIG", "OEHL 311500Z 18006KT CAVOK 29/06 Q1016", "OEJB 311500Z AUTO 16005KT CAVOK 30/19 Q1013 NOSIG", "OEJN 311500Z 31008KT 8000 NSC 31/23 Q1010 NOSIG", "OEKJ 311500Z 20005KT CAVOK 30/01 Q1018", "OEKM 311500Z 23008KT CAVOK 20/12 Q1024 NOSIG", "OEMA 311500Z 27010KT CAVOK 35/02 Q1014 NOSIG", "OEMN 311500Z 26005KT 9999 FEW040 31/19 Q1013", "OENG 311500Z 09006KT CAVOK 26/00 Q1019 NOSIG", "OEPA 311500Z 19004KT CAVOK 32/16 Q1013 NOSIG", "OEPS 311555Z 14006KT 9999 CLR 28/03 A3011 RMK A02A SLP169 WND DATA ESTMD T02840031 $", "OERF 311500Z 32010KT CAVOK 30/00 Q1011 NOSIG", "OERK 311500Z 11004KT CAVOK 30/02 Q1017 NOSIG", "OERR 311500Z 30005KT 9000 NSC 29/03 Q1012 NOSIG", "OESH 311500Z 05010KT CAVOK 30/04 Q1015 NOSIG", "OESK 311500Z 26008KT CAVOK 28/07 Q1017 NOSIG", "OETB 311500Z 00000KT 9999 FEW040 27/07 Q1013 NOSIG", "OETF 311500Z 30010KT 9999 FEW030 25/13 Q1021 NOSIG", "OETR 311500Z 25008KT CAVOK 23/09 Q1015 NOSIG", "OEWD 311500Z 10006KT CAVOK 29/12 Q1015", "OEWJ 311500Z 32014KT CAVOK 28/21 Q1011 NOSIG", "OEYN 311500Z 27014KT CAVOK 31/22 Q1009 NOSIG", "OIAA 311500Z 19006KT CAVOK 29/13 Q1011", "OIAG 311500Z 19008KT 8000 NSC 30/19 Q1013", "OIAH 311500Z 28006KT 7000 SCT040 26/20 Q1018", "OIAM 311500Z 16010KT 9999 FEW040 29/22 Q1012", "OIAW 311530Z 16002KT CAVOK 28/12 Q1011", "OIBA 311500Z 30006KT 4000 HZ NSC 29/22 Q1012", "OIBB 311500Z 17006KT 7000 NSC 28/20 Q1013 A2992 NOSIG", "OIBH 311500Z 21006KT 4000 HZ FEW035 28/24 Q1012 A2990", "OIBJ 311500Z AUTO 22004KT //// // ////// 24/20 Q1018", "OIBK 311500Z 28006KT 3000 HZ NSC 28/21 Q1013 NOSIG", "OIBL 311500Z 26004KT 3000 HZ NSC 28/22 Q1013", "OIBP 311500Z 00000KT 3000 BR NSC 28/25 Q1013 A2992", "OIBQ 311500Z 00000KT 4000 HZ NSC 29/22 Q1013 A2992", "OIBS 311500Z 29004KT 1200 HZ NSC 29/22 Q1014", "OIBV 311500Z 00000KT 1500 HZ NSC 28/23 Q1013", "OICC 311530Z 20012KT 9000 -SHRA SCT040CB BKN100 21/M03 Q1019 A3009", "OICI 311500Z 13008KT 9999 BKN045 SCT090 22/02 Q1019 A3010", "OICK 311500Z 21006KT 9999 FEW040CB SCT045 BKN090 24/02 Q1018", "OICS 311500Z 00000KT 9999 FEW035CB SCT040 BKN090 15/07 Q1019 A3011 RESHRA", "OIFM 311530Z 16004KT CAVOK 19/M00 Q1021 A3015", "OIFS 311500Z 08004KT 9999 FEW040 15/M04 Q1024", "OIGG 311530Z 25004KT 8000 FEW090 BKN180 17/16 Q1010", "OIHH 311500Z 03008KT 9999 FEW035CB SCT040 14/04 Q1020 A3014", "OIHM 311500Z AUTO 20004KT //// // ////// 18/M02 Q1021", "OIIE 311530Z 28010KT 9999 FEW040 SCT200 20/04 Q1017", "OIII 311530Z 27010KT 9999 FEW035CB SCT100 21/02 Q1017 A3005", "OIIK 311500Z 11004KT 9999 FEW030CB SCT035 OVC090 14/10 Q1019", "OIIP 311500Z 35008KT 9999 FEW030CB SCT035 BKN100 16/06 Q1016 A3002", "OIKB 311530Z 24004KT 6000 NSC 29/22 Q1013 A2994", "OIKK 311500Z 02004KT 9999 FEW040 21/M00 Q1022 A3020", "OIKQ 311500Z 24006KT 6000 NSC 28/23 Q1013 NOSIG", "OIMB 311500Z 29006KT CAVOK 19/M02 Q1021 A3015", "OIMJ 311500Z 18004KT CAVOK 15/01 Q1017", "OIMM 311530Z 21004KT CAVOK 16/08 Q1018 A3007", "OIMN 311500Z 00000KT CAVOK 15/03 Q1016", "OIMS 311500Z 00000KT CAVOK 18/04 Q1018", "OIMT 311500Z AUTO 09004KT //// // ////// 23/02 Q1015", "OINE 311500Z 09004KT CAVOK 20/11 Q1010", "OING 311500Z 00000KT CAVOK 18/16 Q1012 NOSIG", "OINN 311500Z 02004KT 9999 FEW020CB SCT027 BKN180 18/16 Q1010", "OINR 311500Z 31004KT 9999 SCT040CB BKN160 18/15 Q1009", "OINZ 311500Z 12004KT CAVOK 17/15 Q1011", "OISF 311500Z 23006KT CAVOK 22/M02 Q1021 A3015", "OISL 311500Z 28006KT CAVOK 27/04 Q1016 A3001 NOSIG", "OISR 311500Z 29006KT 2000 HZ NSC 27/21 Q1015 A3000 NOSIG", "OISS 311530Z 29004KT 7000 NSC 21/07 Q1021 A3018", "OISY 311500Z 14008KT 9999 FEW100 18/06 Q1024", "OITL 311500Z 22019KT 9999 FEW030 SCT080 14/06 Q1014 NOSIG", "OITM 311500Z 16010KT 8000 FEW040 13/08 Q1016", "OITP 311500Z 21004KT CAVOK 14/09 Q1009", "OITR 311500Z 31002KT 9999 FEW035CB FEW040 08/02 Q1015", "OITT 311530Z VRB02KT 9999 FEW032 13/05 Q1016 A3002", "OITZ 311500Z 24016KT 7000 -RA FEW020 SCT035CB BKN080 11/07 Q1018 A3007", "OIYY 311530Z 22004KT 9999 SCT100 23/02 Q1019", "OIZB 311500Z 26004KT CAVOK 22/05 Q1017", "OIZH 311500Z 00000KT CAVOK 21/01 Q1021 A3018 NOSIG", "OIZI 311500Z 28004KT CAVOK 30/07 Q1016", "OIZJ 311500Z 27006KT 6000 NSC 27/24 Q1012", "OJAI 311500Z 28009KT 5000 HZ SCT030 20/11 Q1017 NOSIG", "OKAS 311555Z 12010KT 9999 FEW200 29/13 A2988 RMK AO2A SLP112 $", "OMAA 311500Z 33009KT 8000 NSC 29/22 Q1013 NOSIG", "OMAD 311500Z 35006KT CAVOK 30/22 Q1014 NOSIG", "OMAL 311500Z 33013KT 8000 NSC 31/18 Q1015 NOSIG", "OMDB 311500Z 34007KT 8000 NSC 30/22 Q1014 NOSIG", "OMDW 311500Z 33008KT 7000 NSC 28/21 Q1015 NOSIG", "OMFJ 311500Z 11002KT 6000 NSC 29/23 Q1014 A2995", "OMRK 311500Z 32004KT 6000 NSC 27/23 Q1014 A2996", "OMSJ 311500Z 34005KT 7000 NSC 28/21 Q1014 NOSIG", "OOAD 311450Z AUTO 16006KT //// R31///// // NCD 31/12 Q1016 NOSIG", "OODQ 311450Z AUTO 11007KT CAVOK ////// 27/22 Q1015 NOSIG RMK RH74? 0", "OOKB 311450Z 03005KT CAVOK 29/22 Q1013 NOSIG", "OOMS 311450Z 08003KT CAVOK 29/22 Q1013 NOSIG", "OOSA 311450Z 14006KT CAVOK 28/21 Q1014 NOSIG", "OOSH 311450Z AUTO 14004KT //// ////// 29/23 Q1013 RMK 1009", "OPFA 311500Z 00000KT 4000 FU NSC 25/17 Q1012 NOSIG", "OPIS 311500Z 00000KT 5000 FU FEW040 SCT100 19/15 Q1015 NOSIG", "OPLA 311555Z 12006KT 4000 FU NSC 24/18 Q1013 NOSIG RMK QFE988 A29.93", "OPMT 311530Z 00000KT 2500 FU NSC 27/19 Q1011 NOSIG", "OPPS 311530Z 23004KT 1800 HZ FEW030TCU SCT040 SCT100 21/16 Q101 6", "OPSK 311500Z 00000KT 4000 HZ NSC 27/21 Q1009 NOSIG", "ORBI 311500Z 28005KT 230V290 9999 SCT030 30/09 Q1009 NOSIG", "OTBD 311530Z AUTO 14006KT CAVOK 30/22 Q1014 NOSIG", "OTBH 311455Z 10007KT 9999 CLR 30/22 A2993 RMK AO2A SLPNO ALSTG ESTMD T02970224 PWINO FZRANO TSNO CHINO RWY34 $", "OTHH 311500Z 13009KT CAVOK 31/20 Q1014 NOSIG", "PAAD 311555Z AUTO 11008KT 10SM OVC021 M14/M17 A3005 RMK AO2 T11381170", "PAAK 311556Z AUTO 12016KT 10SM SCT020 BKN034 OVC045 A3006 RMK AO2 SLPNO FZRANO $", "PAAQ 311553Z 00000KT 10SM FEW120 M04/M12 A2963 RMK AO2 SLP039 T10441122 $", "PABA 311552Z AUTO 07020KT 9SM -SN OVC009 M09/M11 A3008 RMK AO2 CIG 003V011 SLP191 T10891106 FZRANO PNO $", "PABE 311553Z AUTO 25009KT 10SM CLR M11/M12 A3018 RMK AO2 SLP222 T11111122 TSNO", "PABI 311553Z 280/08KT 7SM -SN BKN018 OVC045 M12/M15 A2986 IC RMK AO2 SLP154 IC VC P0000 T11221150", "PABL 311556Z AUTO 17005KT 10SM OVC015 M08/M09 A3005 RMK AO2 SLP177 T10781089 FZRANO $", "PABR 311553Z 11012KT 3SM BR BKN011 M19/M21 A2997 RMK AO2 SLP151 T11891211", "PABT 311553Z 00000KT 10SM FEW050 OVC075 M12/M14 A2997 RMK AO2 SLP169 T11221144 $", "PABV 311556Z AUTO 22003KT 10SM OVC065 M04/M12 A2968 RMK AO2 SLP058 T10441122 FZRANO", "PACD 311553Z AUTO 30008KT 10SM BKN021 BKN027 OVC033 02/00 A3028 RMK AO2 SLP254 T00170000 TSNO", "PACV 311553Z 00000KT 10SM SCT100 M03/M04 A2938 RMK AO2 SLP949 T10331039", "PACZ 311555Z 00000KT 10SM BKN041 M03/M09 A3013 RMK AO2A SLP212", "PADG 311505Z 00000KT 10SM OVC013 M11/M12 A2993", "PADK 311556Z AUTO 14013KT BKN016 OVC021 06/04 A2995 RMK AO2 SLP141 P0001 T00610044 PWINO $", "PADL 311556Z 28010KT 10SM CLR M07/M12 A3012 RMK AO2 SLP205 T10721117", "PADM 311556Z AUTO 13003KT 10SM BKN037 M07/M09 A3017 RMK AO2 SLP223 T10721094 FZRANO", "PADQ 311553Z 29028G38KT 10SM CLR M01/M12 A2973 RMK AO2 PK WND 28043/1457 SLP067 T10061117", "PADU 311556Z 16004KT 10SM CLR 03/M02 A3029 RMK AO2 SLP262 T00281017", "PAED 311456Z 01004KT 10SM SCT055 OVC110 M04/M13 A2963 RMK AO2A SLP032 T10431132 52024 $", "PAEG 311553Z AUTO 00000KT 10SM BKN048 M21/M24 A2981 RMK AO2 SLP123 T12111244 TSNO", "PAEH 311555Z 35007KT 310V020 10SM -SHSN OVC029 M01/M05 A3021 RMK AO2A SLP239", "PAEI 311555Z AUTO M 10SM OVC049 M17/M20 A2990 RMK AO2 SLP145 T11731197 TSNO $", "PAEN 311553Z 02008KT 10SM BKN070 OVC085 M04/M09 A2968 RMK AO2 SLP055 T10391094", "PAFA 311553Z 00000KT 10SM -SN SCT060 BKN075 M18/M22 A2994 RMK AO2 SNB22 SLP152 P0000 T11831222", "PAFB 311555Z 00000KT 9SM -SN BKN055 OVC070 M20/M23 A2993 RMK AO2A SNB50 SLP157 P0000 T12021227", "PAFE 311556Z AUTO 09006KT 10SM SCT031 01/00 A2955 RMK AO2 SLP018 T00110000 FZRANO", "PAFM 311556Z AUTO 00000KT 10SM CLR M18/M21 A3007 RMK AO2 SLP194 T11831206 FZRANO", "PAFR 311555Z AUTO 00000KT 10SM OVC035 M06/M11 A2962 RMK AO2 SLP041 T10611107 VISNO RWY35 CHINO RWY35 $", "PAFS 311501Z AUTO 25003KT 5SM -SN BR FEW028 BKN043 OVC050 M11/M11 A2996 RMK AO2 SLP158 P0000 60001 T11061111 53015 FZRANO", "PAGA 311556Z AUTO 10SM OVC060 M11/M13 A3004 RMK AO2 SLP177 T11111128 FZRANO $", "PAGK 311453Z AUTO 01006KT 10SM OVC100 M10/M15 A2956 RMK AO2 SLP058 T11001150 53023 TSNO", "PAGL 311556Z AUTO 02003KT 10SM CLR M11/M11 A3008 RMK AO2 SLP183 T11061111 PWINO FZRANO $", "PAGN 311556Z AUTO 09003KT 10SM FEW038 02/02 A2952 RMK AO2 SLP985 T00220022 FZRANO", "PAGS 311556Z AUTO 13008KT 10SM SCT013 BKN040 OVC060 04/02 A2947 RMK AO2 SLP978 T00390022", "PAGY 311553Z AUTO 00000KT 10SM OVC060 02/02 A2946 RMK AO2 SLP978 T00170017 TSNO", "PAHL 311556Z AUTO 00000KT 10SM OVC060 M10/M11 A3002 RMK AO2 SNB13E24 SLP173 P0000 T11001111 FZRANO", "PAHN 311554Z AUTO 12003KT 8SM -RA BKN007 OVC013 01/01 A2948 RMK AO2 RAB25SNE25 SLP983 P0002 T00110006 TSNO", "PAHO 311553Z 01008KT 10SM OVC100 M02/M11 A2967 RMK AO2 SLP048 T10221106", "PAHX 311502Z AUTO 17003KT 10SM CLR M09/M09 A3005 RMK AO2 SLP178 60000 T10891094 51009 FZRANO", "PAHY 311556Z AUTO 12012G21KT 10SM -RA BKN038 OVC055 03/01 A2956 RMK AO2 RAB26UPB35E40 SLP007 P0000 T00280011 $", "PAIG 311556Z AUTO 26010KT 10SM SCT048 M06/M09 A3004 RMK AO2 SLP182 T10611094 FZRANO $", "PAIK 311556Z AUTO 30004KT 10SM BKN007 M19/M21 A3009 RMK AO2 SLP194 T11891206 FZRANO", "PAIL 311553Z 33010G23KT 10SM OVC030 M05/M09 A2996 RMK AO2 SNE1454 SLP150 P0000 T10501089 $", "PAIM 311555Z AUTO 00000KT 10SM OVC070 M12/M13 A2992 RMK AO2 SLP168 T11161127", "PAIN 311556Z AUTO 00000KT 9SM -SN OVC022 M12/M16 A2980 RMK AO2 SLP140 P0000 T11171156 FZRANO", "PAIW 311556Z AUTO 34010KT 10SM FEW025 SCT030 OVC041 M03/M07 A3012 RMK AO2 SLP200 T10331072 FZRANO", "PAJN 311553Z 09011KT 5SM -SNRA BR FEW004 BKN028 OVC040 01/00 A2949 RMK AO2 SLP987 P0006 T00060000", "PAJZ 311556Z AUTO 31012G22KT 9SM CLR M05/M11 A3011 RMK AO2 SLP204 T10501106 FZRANO $", "PAKF 311556Z AUTO 22003KT 10SM BKN036 OVC060 A3029 RMK AO2 SLPNO FZRANO $", "PAKH 311556Z AUTO 10SM FEW035 A2995 RMK AO2 SLPNO FZRANO TSNO $", "PAKI 311556Z AUTO 00000KT 4SM BR BKN055 M06/M06 A3021 RMK AO2 SLP233 T10611061 FZRANO PNO $", "PAKK 311556Z AUTO 00000KT 10SM BKN020 OVC043 M09/M10 A3002 RMK AO2 SLP175 T10941100 FZRANO", "PAKN 311554Z AUTO 32007KT 10SM CLR M08/M11 A3007 RMK AO2 SLP183 T10831111 TSNO", "PAKP 311556Z AUTO 00000KT 10SM SCT041 M16/M18 A2983 RMK AO2 SLP183 T11611183 FZRANO", "PAKT 311453Z 14008KT 10SM -RA SCT025 SCT039 BKN050 02/01 A2960 RMK AO2 RAB45 SLP025 HARBOR WIND 12013KT P0000 60000 T00220006 51002", "PAKU 311545Z 11007KT 10SM R06/P6000FT SKC M24/M25 A3005", "PAKV 311553Z AUTO 00000KT 10SM OVC045 M12/M13 A3005 RMK AO2 SLP182 T11171128 TSNO $", "PAKW 311553Z AUTO 16003KT 10SM CLR 02/00 A2953 RMK AO2 SLP999 T00170000 TSNO $", "PAKX 311555Z AUTO 30004KT 10SM SCT034 SCT041 OVC060 M05/M10 A2992 RMK AO2", "PALG 311556Z AUTO VRB03KT 10SM CLR M12/M14 A3012 RMK AO2 SLP205 T11221139 FZRANO", "PALH 311553Z 36007KT 10SM OVC110 M04/M14 A2968 RMK AO2 SLP053 T10441144", "PALP 311545Z 18004KT 10SM SKC M20/M23 A3004", "PALU 311555Z AUTO 29020KT 10SM FEW026 SCT060 M01/M06 A2990 RMK AO2 PK WND 29030/1531 SHSNB1414E1547 SLP123 T10111064", "PAMB 311556Z AUTO 28009KT 9SM CLR M06/M12 A3014 RMK AO2 SLP209 T10561122 FZRANO $", "PAMD 311451Z AUTO 33010KT 10SM BKN120 03/M02 A2936 RMK AO2 SLP928 6//// T00331022 53020 PNO $", "PAMH 311556Z AUTO 00000KT 9SM -SN OVC055 M12/M13 A2994 RMK AO2 SLP149 P0000 T11171128 FZRANO", "PAMK 311556Z AUTO 32010KT 10SM OVC024 M03/M05 A3008 RMK AO2 SNE06 SLP187 P0000 T10281050 FZRANO", "PAMR 311553Z 33006KT 10SM BKN060 OVC080 M04/M14 A2967 RMK AO2 SLP050 T10391144", "PANA 311556Z AUTO 28004KT 10SM CLR M11/M13 A3019 RMK AO2 SLP222 T11111128 FZRANO TSNO $", "PANC 311553Z 36010KT 10SM OVC110 M04/M14 A2967 RMK AO2 SLP051 T10441139", "PANI 311556Z AUTO 29004KT 10SM CLR M09/M11 A3016 RMK AO2 SLP205 T10891106 FZRANO $", "PANN 311553Z AUTO 00000KT 10SM SCT010 OVC055 M13/M14 A2993 RMK AO2 SLP148 T11281144 TSNO", "PANV 311556Z AUTO 28007KT 10SM CLR M08/M08 A3003 RMK AO2 SLP297 T10781083 FZRANO TSNO", "PANW 311556Z AUTO 31009KT 10SM CLR M09/M13 A3008 RMK AO2 SLP198 T10941128 FZRANO", "PAOH 311556Z AUTO 00000KT 10SM BKN040 OVC060 01/01 A2947 RMK AO2 SLP979 T00110006 FZRANO", "PAOM 311553Z 27003KT 10SM CLR M11/M13 A3008 RMK AO2 SLP185 T11111133", "PAOO 311556Z AUTO 00000KT OVC036 M07/M07 A3021 RMK AO2 SLP238 T10671072 PWINO FZRANO TSNO $", "PAOR 311553Z 31011KT 8SM -SN OVC050 M13/M15 A2969 RMK AO2 SNB16 SLP106 P0000 T11281150 $", "PAOT 311553Z 09009KT 10SM BKN004 OVC016 M11/M11 A3002 RMK AO2 SLP165 I1000 T11111111 $", "PAOU 311556Z AUTO 30013KT 10SM SCT037 OVC049 02/M05 A3026 RMK AO2 UPB29E45 SLP248 T00221050 FZRANO PNO $", "PAPB 311553Z AUTO 19010KT BKN065 03/ A3013 RMK AO2 SLP191 T0033 TSNO $", "PAPG 311556Z 26003KT 10SM -RASN FEW016 SCT021 BKN031 00/M01 A2957 RMK AO2 SLP016 P0000 T00001006", "PAPH 311556Z AUTO 33015KT 10SM CLR M01/M07 A3021 RMK AO2 SLP232 T10061067 FZRANO", "PAPM 311556Z AUTO 01006KT 10SM CLR A3022 RMK AO2 SLPNO FZRANO PNO $", "PAPO 311556Z AUTO 28022KT 5SM -SN FEW023 M02/M06 A2996 RMK AO2 PK WND 28032/1524 UPB41E43SNE41B49 SLP145 T10221056 FZRANO PNO $", "PAQH 311556Z AUTO 33003KT 10SM CLR M08/M09 A3022 RMK AO2 SLP233 T10781089 PWINO FZRANO", "PAQT 311553Z AUTO 16004KT 10SM CLR M20/M23 A3005 RMK AO2 SLP178 T12001233 TSNO $", "PARC 311556Z AUTO 00000KT 10SM CLR M21/M23 A2985 RMK AO2 SLP186 T12061228 FZRANO", "PARS 311556Z AUTO 28006KT 10SM SCT030 OVC038 A3011 RMK AO2 SLPNO FZRANO $", "PART 1 OF 2 METAR ", "PARY 311556Z AUTO 00000KT 10SM OVC050 M10/M12 A2995 RMK AO2 SLP162 T11001122 FZRANO", "PASA 311556Z AUTO 16007KT 10SM OVC040 M07/M10 A3013 RMK AO2 SLP204 T10671100 FZRANO", "PASC 311553Z 00000KT 10SM CLR M22/M24 A3004 RMK AO2 SLP176 T12221244 $", "PASD 311556Z 32012KT 10SM SCT047 02/M03 A3027 RMK AO2 SLP251 T00221028 $", "PASH 311556Z AUTO 32020KT 9SM OVC034 M02/M07 A3006 RMK AO2 PK WND 32026/1521 SLP180 T10171067 FZRANO PNO $", "PASI 311553Z 10006KT 10SM FEW039 FEW120 03/00 A2946", "PASK 311556Z AUTO 08006KT 10SM OVC016 M14/M16 A3008 RMK AO2 SLP182 T11391156 FZRANO", "PASM 311556Z AUTO 25006KT 10SM FEW032 M09/M10 A3014 RMK AO2 SLP217 T10891100 FZRANO", "PASN 311553Z AUTO 18012KT 10SM FEW016 SCT030 SCT036 03/01 A3010 RMK AO2 RAE1457B24E25SNB14E26 SLP193 P0001 T00280006 TSNO", "PASO 311553Z AUTO 01010G17KT 10SM BKN055 M01/M07 A2966 RMK AO2 SLP044 T10061067 TSNO", "PASV 311455Z AUTO 33011KT 1 1/4SM -SN BR OVC003 M10/M11 A2987 RMK AO2 SNB1255 SLP163 P0000 60000 T10981110 51011", "PASX 311556Z AUTO 00000KT 10SM FEW065 M07/M08 A2971 RMK AO2 SLP069 T10721083 FZRANO", "PASY 311459Z 35012KT 7SM BKN044 OVC055 05/03 RMK AO2A SLP120 ALSTG/SLP ESTMD WND DATA ESTMD T00450033 RVRNO PNO $", "PATA 311552Z 00000KT 10SM FEW040 OVC075 M09/M12 A2996 RMK AO2 SLP152 T10891122 $", "PATC 311515Z AUTO 36013KT 10SM -SN FEW025 BKN032 M05/M07 A3008 RMK AO2 SLP191", "PATE 311556Z AUTO 31011KT 9SM FEW034 OVC050 M04/M06 A3007 RMK AO2 SNE55 SLP191 P0000 T10441056 FZRANO", "PATK 311553Z 00000KT 10SM FEW110 M06/M14 A2964 RMK AO2 SLP045 T10561144", "PATL 311455Z AUTO VRB03KT 10SM OVC065 M09/M10 A2996 RMK AO2 PK WND 030135/1438 SHSNB1334E1404 SLP172 T10911105 51015 TSNO $", "PATO 311553Z AUTO 29010G21KT 10SM BKN040 BKN080 OVC110 M04/M11 A2958 RMK AO2 PK WND 29026/1514 SLP018 T10391111 TSNO", "PATQ 311556Z AUTO 11006KT 10SM CLR M21/M23 A2994 RMK AO2 SNB27E50 SLP147 P0000 T12111233 FZRANO TSNO", "PAUN 311556Z AUTO 00000KT 10SM BKN026 M12/M13 A3008 RMK AO2 SLP189 T11171128 FZRANO", "PAUT 311555Z AUTO 00000KT 10SM OVC050 02/00 A3029 RMK AO2", "PAVA 311556Z AUTO 00000KT 10SM BKN046 M08/M08 A3018 RMK AO2 SLP224 T10781083 FZRANO", "PAVC 311556Z AUTO 26004KT 10SM SCT036 OVC060 02/M02 A3030 RMK AO2 SLP261 T00171022 FZRANO PNO $", "PAVD 311556Z 15004KT 10SM SCT080 BKN110 BKN200 A2952 RMK AO2 SLPNO M03/M09 $", "PAWD 311553Z AUTO 33021G40KT 10SM SCT100 M02/M14 A2955 RMK AO2 PK WND 33040/1544 SLP005 T10221144 TSNO $", "PAWG 311455Z 10008KT 10SM FEW010 SCT030 BKN060 03/01 A2957", "PAWI 311553Z AUTO 13007KT 10SM CLR M18/M20 A2990 RMK AO2 SLP127 T11781200 TSNO $", "PAWM 311556Z AUTO 32005KT 9SM OVC016 M06/M07 A3006 RMK AO2 SLP186 T10611067 FZRANO PNO $", "PAWN 311556Z AUTO 01004KT 10SM OVC010 M14/M16 A3006 RMK AO2 SNE29 SLP192 P0000 T11441161 FZRANO", "PAWS 311556Z AUTO 30004KT 10SM SCT120 M07/M11 A2965 RMK AO2 SLP047 T10721106 FZRANO", "PAYA 311553Z AUTO 08005KT 10SM -RA OVC032 01/01 A2939 RMK AO2 SLP953 P0001 T00110006 TSNO $", "PAZK 311556Z AUTO 01006KT 9SM -SN OVC020 M13/M14 A2946 RMK AO2 SLP051 P0000 T11281144 FZRANO", "PFCL 311556Z AUTO 29013KT 10SM CLR A3013 RMK AO2 SLPNO FZRANO TSNO $", "PFEL 311556Z AUTO 00000KT 10SM CLR M08/M10 A3003 RMK AO2 SLP174 T10831100 FZRANO", "PFKT 311556Z AUTO 31008KT 10SM FEW055 M06/M07 A3010 RMK AO2 SNE11 SLP194 P0000 T10611072 FZRANO", "PFKW 311556Z AUTO 25006KT 10SM CLR M12/M13 A3017 RMK AO2 SLP216 T11171128 FZRANO", "PFNO 311556Z AUTO 06005KT 9SM OVC009 M14/M16 A3007 RMK AO2 CIG 006V011 SLP270 T11441161 FZRANO", "PFSH 311556Z AUTO 10003KT 10SM CLR M11/M12 A3008 RMK AO2 SLP186 T11111122 FZRANO", "PFWS 311556Z AUTO 31014G20KT 10SM CLR M04/M08 A3011 RMK AO2 SLP241 T10441083 FZRANO", "PFYU 311556Z 02005KT 10SM CLR M14/M18 A2995 RMK AO2 SLP160 T11441178", "PGSN 311554Z 10007KT 10SM FEW020 28/25 A2983 RMK AO2 RAE15 SLP124 P0000 T02780250 $", "PGUA 311555Z AUTO 12008KT 10SM M 26/24 A2984 RMK AO2 SLP095 T02640236 $", "PGUM 311554Z 10005KT 10SM CLR 27/26 A2984 RMK AO2 SLP095 T02720256", "PHBK 311551Z AUTO 08004KT 10SM CLR 22/16 A3000 RMK AO2 SLP161 T02170156", "PHHI 311555Z AUTO 32004KT 10SM FEW022 21/16 A3003 RMK AO2 SLP160 T02060160 $", "PHJR 311553Z 05004KT 10SM FEW032 23/19 A3001 RMK AO2 SLP169 T02330189", "PHKO 311553Z COR 10005KT 10SM FEW050 24/19 A2996 RMK AO2 SLP145 T02390189 TSNO", "PHLI 311553Z 05016KT 10SM FEW024 SCT035 BKN060 25/22 A3003 RMK AO2 SLP167 T02500217 $", "PHMK 311554Z 03008KT 10SM CLR 24/20 A3001 RMK AO2 SLP165 T02390200", "PHNG 311557Z 06009KT 10SM SCT022 A2999 RMK AO2 SLP152 $ ", "PHNL 311553Z 00000KT 10SM FEW025 FEW038 24/20 A3000 RMK AO2 SLP157 T02440200 $", "PHNY 311556Z AUTO 08007KT 10SM CLR 21/19 A3005 RMK AO2 SLP156 T02110189 $", "PHOG 311554Z 04010KT 10SM CLR 25/20 A3000 RMK AO2 SLP163 T02500200 $", "PHSF 311458Z AUTO 09009KT 10SM CLR 08/02 A3031 RMK AO2 SLP163 T00770022 56006 $", "PHTO 311553Z 24007KT 10SM BKN035 21/18 A3000 RMK AO2 SLP158 T02060178", "PKMR 311554Z VRB03KT 15SM FEW015 SCT050 SCT120 OVC300 27/23 A2977 RMK SLP081 T02670234", "PKWA 311540Z AUTO 02005KT 10SM SCT016 SCT065 27/24 A2978 RMK AO2 T02700240", "PLCH 311500Z 10005KT 9999 FEW020 SCT040 26/23 Q1008", "PMDY 311556Z AUTO 09008KT 10SM FEW020 24/21 A3008 RMK AO2 SLP186 T02390206 TSNO", "PPIZ 311556Z AUTO 14013KT 9SM -SN SCT009 OVC015 M07/M08 A2986 RMK AO2 SNB51 SLP116 P0000 T10671083 FZRANO", "PTRO 311550Z 14003KT 13SM SCT014CB BKN280 24/23 A2978 RMK CB ALQDS", "PTYA 311451Z 00000KT 12SM SCT016 BKN300 26/26 A2982 RMK MDT CU N SLP100 8/201 T02640256 403080264 50002", "PWAK 311555Z AUTO 05005KT 9999 FEW020 SCT028 BKN036 BKN045 26/24 A2985 RMK AO2 RAB39E51 SLP114 P0000 T02610237 $", "RCKH 311530Z 36007KT 320V040 5000 -RA FEW008 SCT015 BKN050 22/21 Q1005 NOSIG RMK A2969", "RCMQ 311510Z 01022G32KT 9999 -RA SCT008 BKN025 BKN050 20/18 Q1007 RMK A2976 AWOS R36 N/A", "RCNN 311530Z 01014KT 9000 -RA FEW008 BKN020 BKN040 21/19 Q1005 RMK A2969", "RCSS 311530Z 13003KT 100V160 6000 -RA FEW010 BKN018 BKN030 20/19 Q1014 NOSIG RMK A2997", "RCTP 311530Z 08013KT 5000 RA FEW005 BKN012 BKN030 19/19 Q1014 NOSIG RMK A2996", "RJAA 311530Z AUTO 36008KT 9999 NCD 12/09 Q1024 NOSIG RMK A3026", "RJAH 311500Z 36004KT 9999 FEW030 07/07 Q1025", "RJAW 311500Z 12012KT 9999 SCT015 SCT/// 25/23 Q1013 RMK 3CU015 A2992 WIND BY EQPT/25", "RJBB 311530Z AUTO 07007KT 9999 NSC 18/13 Q1020 NOSIG", "RJCC 311530Z 13005KT 9999 FEW020 SCT030 BKN050 10/08 Q1027 RMK 1CU020 3CU030 7CU050 A3033", "RJDB 311500Z AUTO 06009KT 020V110 9999 FEW034 SCT240 18/12 Q1020", "RJFF 311530Z AUTO 13003KT 9999 NSC 14/11 Q1020 NOSIG RMK A3012", "RJFR 311500Z 33004KT 9999 FEW030 BKN/// 16/12 Q1020", "RJGG 311530Z AUTO 09008KT 9999 FEW037 BKN048 OVC050 18/07 Q1023 NOSIG", "RJKA 311500Z AUTO 06015KT 7000 -RA FEW012 SCT014 BKN100 //////TCU 24/22 Q1013", "RJKI 311500Z AUTO 07010KT 9999 -RA FEW012 SCT080 BKN110 //////TCU 23/21 Q1013", "RJNK 311500Z 09002KT 9999 BKN050 SCT080 13/10 Q1022", "RJOH 311500Z 17003KT 9999 FEW050 BKN/// 11/10 Q1021", "RJOI 311456Z 31005KT 9999 FEW030 BKN250 14/08 A3013 RMK AO2 SLP203 T01440078 402170144 58010", "RJOO 311500Z AUTO 06011KT 9999 FEW046 OVC060 18/12 Q1021 RMK A3016", "RJOS 311500Z 28006KT 9999 FEW015 SCT030 BKN050 15/11 Q1020", "RJSM 311500Z 23003KT 9999 FEW020 09/07 Q1027", "RJTT 311530Z 36010KT 9999 FEW030 SCT/// 15/10 Q1025 NOSIG RMK 1CU030 A3027", "RJTY 311455Z AUTO 33004KT 10SM CLR 10/06 A3034 RMK AO2 SLP278 T00970057 401860055 58005 $", "RKJB 311535Z AUTO 09004KT 5000 BR NCD 10/09 Q1023", "RKJK 311555Z 35005KT 4SM BR CLR 10/10 A3020 RMK AO2A SLP231 T01020100", "RKNY 311500Z AUTO 25004KT 9999 NCD 11/08 Q1022", "RKPC 311500Z 12005KT 9999 FEW030 15/11 Q1022 NOSIG", "RKPK 311500Z 03003KT CAVOK 13/08 Q1023", "RKSG 311455Z 00000KT 4SM BR FEW014 SCT130 10/10 A3022 RMK AO2A SLP237 T01020100 402020081 52004 TSNO $", "RKSI 311530Z 31004KT 9000 NSC 13/11 Q1023 NOSIG", "RKSM 311500Z 18001KT 6000 BR FEW110 11/09 A3024", "RKSO 311555Z 00000KT 2SM BR CLR 09/09 A3024 RMK AO2A SLP244 T00900090 TSNO CHINO RWY09 $", "RKSS 311500Z 31003KT 2000 0600NW PRFG NSC 09/09 Q1023 NOSIG", "RKTN 311500Z 08001KT CAVOK 10/07 Q1024", "RKTU 311500Z 10001KT CAVOK 08/06 Q1024", "ROAH 311530Z AUTO 02013KT 9999 -RA FEW042 SCT045 BKN050 24/21 Q1011 RMK A2986", "RODN 311555Z 03012KT 8SM -RA BKN050 23/21 A2983 RMK AO2A SLP107 P0004 T02280209 $", "ROIG 311500Z AUTO 05026KT 0600 R04/1300V1800D +RA FG SCT002 BKN007 BKN011 24/24 Q1008", "ROMD 311500Z AUTO 06005KT 030V110 9999 FEW027 SCT100 BKN140 24/23 Q1011", "RORK 311500Z AUTO 08009KT 9999 FEW029 SCT100 BKN150 25/23 Q1011", "RORY 311500Z AUTO 05017G28KT 9999 -RA FEW017 SCT080 BKN090 23/21 Q1011", "ROTM 311456Z 04007G16KT 9999 -SHRA BKN007 BKN012 OVC040 22/20 A2983 RMK DZE50SHRAB50 SLP101 P0003 60005 T02180200 402340218 52007", "ROYN 311500Z AUTO 04031KT 1600 UP NCD 23/// Q1010", "RPLB 311500Z 16013KT 9999 SCT018 BKN080 27/25 Q1006 RERA RMK A2971", "RPLC 311500Z 18012KT 4000 -RA SCT015 OVC090 25/25 Q1006 RMK A2971", "RPLI 311500Z VRB02KT 9999 FEW018 BKN100 26/25 Q1003 NOSIG RMK A2962", "RPLL 311500Z 15005KT 110V190 9999 FEW023 BKN100 25/23 Q1006 NOSIG RMK A2971", "RPMD 311500Z 33003KT 300V360 9999 FEW016 SCT290 28/27 Q1009 RMK A2980", "RPMZ 311500Z 04006KT 9999 FEW017 SCT300 27/25 Q1009 RMK A2980", "RPVD 311500Z 25004KT 9999 FEW015 26/22 Q1008 RMK A2977", "RPVM 311500Z 00000KT 9999 FEW020 SCT300 27/24 Q1009 RMK A2980", "RPVP 311500Z 27004KT 9999 FEW019 BKN240 26/24 Q1008 RMK A2977", "SAAR 311500Z 20019KT CAVOK 16/M00 Q1031 RMK PP000", "SABE 311500Z 20010KT 140V280 9999 SCT045 15/01 Q1029 NOSIG RMK PP000", "SACO 311500Z 16014G25KT 130V190 9999 FEW045 15/M06 Q1034 NOSIG RMK PP000", "SADF 311500Z 19013KT 150V250 CAVOK 15/01 Q1029 RMK PP000", "SAEZ 311500Z 21010KT 180V250 CAVOK 15/M00 Q1029 NOSIG RMK PP000", "SAME 311500Z 36008KT 9999 FEW045 14/M10 Q1035", "SANT 311500Z 18009KT 160V220 9000 FEW070 OVC090 17/M04 Q1032 RMK PP000", "SAOC 311500Z 20013G25KT CAVOK 14/M14 Q1034", "SARC 311500Z 18023KT 9999 FEW018 BKN100 17/04 Q1025", "SARE 311500Z 17020KT 9999 FEW025 18/05 Q1026 RMK PP///", "SARF 311500Z 23023G32KT CAVOK 15/05 Q1023", "SARI 311500Z VRB07G17KT 5000 -DZ BR BKN005 OVC015 15/15 Q1015 RMK PP999", "SARL 311524Z 20024G37KT 9999 BKN015 BKN100 16/05 Q1025", "SARP 311500Z 16016KT 9999 OVC010 13/10 Q1021", "SASA 311500Z VRB07KT 9999 FEW050 BKN070 13/M06 Q1031 PP000", "SASJ 311500Z 17013KT 140V200 9999 SCT050 BKN100 15/M05 Q1031 RMK PP000", "SAVC 311544Z 28012KT 240V310 CAVOK 19/M06 Q1026", "SAWE 311500Z 29031KT 9999 BKN043 11/01 Q1008 RMK PP000", "SAWG 311500Z 27019KT CAVOK 13/M04 Q1016", "SAWH 311500Z 23017KT 9999 -DZ BKN040 BKN100 10/03 Q1003 RMK PP999", "SAZM 311500Z 20013KT 170V240 9999 SCT041 SCT048 FEW060TCU 12/04 Q1028 RMK PP/// RESHRA", "SAZN 311500Z 02002KT CAVOK 18/M08 Q1033", "SAZS 311500Z 36005KT CAVOK 12/M06 Q1032 RMK PP///", "SBAF 311500Z 23012KT 9999 FEW025 SCT100 29/25 Q1008", "SBAN 311500Z 30004KT 9999 FEW020 FEW025TCU BKN100 25/20 Q1018", "SBAT 311500Z 27004KT 9999 FEW030 33/24 Q1012", "SBAX 311500Z 32005KT 9999 BKN020 BKN030 26/21 Q1014", "SBBG 311500Z 18020KT 9999 FEW030 OVC100 16/05 Q1022", "SBBH 311500Z 35003KT 4000 -RA BKN010 BKN020 OVC100 23/19 Q1016", "SBBI 311500Z 02003KT 330V060 4000 -RA BR FEW005 BKN012 BKN100 19/16 Q1015", "SBBQ 311500Z 01001KT 9999 BKN022 FEW030TCU 25/19 Q1017", "SBBR 311534Z 22005KT 6000 2500E -TSRA FEW020 SCT030 FEW035CB BKN100 21/19 Q1016", "SBBU 311500Z 16008KT 9999 FEW008 SCT033 22/20 Q1011", "SBBW 311500Z 27006KT 9999 TS VCSH SCT015 FEW020CB SCT080 BKN090 28/24 Q1014 RESHRA", "SBCA 311500Z 26007KT 9999 SCT006 BKN012 BKN030 20/18 Q1014", "SBCC 311500Z 31007KT 9999 FEW030 SCT100 30/21 Q1013", "SBCF 311500Z 01002KT 9000 BKN009 BKN040 OVC070 23/19 Q1016", "SBCG 311520Z 14010KT 110V180 9999 SCT008 BKN026 FEW050TCU BKN100 23/20 Q1013 RETS", "SBCH 311500Z 20003KT 5000 1800W -RA BR BCFG SCT005 BKN020 OVC100 19/18 Q1013", "SBCJ 311500Z 03004KT 6000 SCT023 29/22 Q1016", "SBCO 311500Z 19009KT 160V230 2500 RA SCT007 BKN011 OVC016 16/14 Q1017", "SBCP 311500Z 33010KT 9999 FEW020 31/20 Q1008", "SBCR 311520Z 23021G38KT 190V250 3000 -DZ BR BKN008 OVC013 16/14 Q1015", "SBCT 311500Z 35003KT 9000 -RA BKN010 BKN070 19/18 Q1014", "SBCX 311500Z 21016KT 5000 2000SE -RA BCFG BKN002 OVC004 11/// Q1016", "SBCY 311500Z 22004KT 9999 SCT030 BKN100 28/21 Q1012", "SBCZ 311500Z 35008KT 9999 BKN025 31/25 Q1011", "SBDN 311500Z 15014KT 9999 BKN009 BKN060 23/21 Q1012", "SBES 311500Z 22013KT 9999 FEW025 32/21 Q1008", "SBFI 311500Z 22013KT 9999 BKN007 OVC018 15/14 Q1015", "SBFL 311500Z 17016KT 9999 SCT035 25/18 Q1009", "SBFN 311500Z AUTO 18007KT 140V220 9999 SCT019 30/23 Q1011", "SBFS 311500Z 04010KT CAVOK 30/26 Q1008", "SBGL 311500Z 24010KT CAVOK 33/22 Q1007", "SBGM 311500Z 35011KT 9999 SCT036 33/22 Q1011", "SBGO 311500Z 30006KT 280V340 9999 FEW040 FEW045TCU BKN100 28/21 Q1015", "SBGR 311500Z 30003KT 9999 SCT013 OVC100 21/20 Q1013 RERA", "SBGW 311500Z 24005KT 9999 BKN035 28/20 Q1011", "SBHT 311500Z 07007KT 9999 BKN025 31/25 Q1011", "SBIH 311500Z 06005KT 8000 FEW015 FEW025TCU 34/26 Q1010", "SBIL 311500Z 06008KT 8000 VCSH SCT019 BKN050 28/25 Q1013", "SBIP 311500Z AUTO 05003KT 360V090 9999 -RA OVC009 25/21 Q1013", "SBIZ 311500Z 13002KT 9999 SCT025 35/23 Q1009", "SBJE 311500Z 03014KT 9999 SCT020 36/22 Q1009", "SBJP 311500Z 07010KT 040V100 9999 BKN030 31/21 Q1012", "SBJR 311500Z 16009KT 9999 FEW025 BKN100 30/24 Q1008", "SBJU 311500Z 00000KT 9999 SCT022 33/16 Q1014", "SBJV 311500Z 02003KT 9999 FEW020 26/21 Q1009", "SBKG 311500Z 11011KT 9999 FEW030 31/16 Q1013", "SBKP 311500Z 17006KT 130V200 7000 -RA SCT004 BKN030 OVC100 21/20 Q1012", "SBLB 311500Z AUTO 02032KT 9999 NCD 25/22 Q1010 W/////", "SBLO 311500Z 18003KT 9999 SCT015 BKN100 21/19 Q1013", "SBLS 311500Z VRB02KT 9999 BKN011 OVC090 23/21 Q1016", "SBMA 311500Z 34003KT 9999 BKN020 35/22 Q1010", "SBME 311500Z 33008KT 260V060 9999 FEW030 40/20 Q1006", "SBMG 311500Z 13007KT 110V170 9999 -RA FEW010 SCT035 BKN090 21/19 Q1011", "SBMK 311500Z VRB04KT 9999 FEW030 BKN100 29/18 Q1015", "SBMQ 311500Z 07014KT 9999 SCT020 34/24 Q1011", "SBMS 311500Z 04011KT 9999 FEW030 38/18 Q1010", "SBMT 311500Z 30005KT 9999 BKN021 21/20 Q1013", "SBNF 311500Z 12005KT 9999 FEW020 23/20 Q1009", "SBNM 311500Z 18018KT 5000 -RA BR BKN010 OVC070 11/11 Q1018 RERA", "SBNT 311500Z 13012KT 100V160 9999 FEW035 30/18 Q1011", "SBOI 311500Z 05005KT 9999 SCT030 31/25 Q1012", "SBPA 311500Z 19010G20KT 150V220 3500 RA SCT008 OVC011 16/15 Q1017", "SBPB 311500Z 11018KT CAVOK 33/25 Q1009", "SBPF 311500Z 18010G20KT 160V220 5000 RA BKN004 OVC010 12/11 Q1015", "SBPG 311500Z 30003KT 9999 BKN020 OVC070 20/18 Q1013", "SBPJ 311520Z 25004KT 9999 TS VCSH SCT030 FEW035CB 35/22 Q1010", "SBPK 311500Z 21015G25KT 9999 BKN030 OVC050 15/06 Q1021", "SBPL 311500Z 13007KT 9999 SCT030 BKN080 33/19 Q1012", "SBPP 311530Z 18020KT 9999 OVC005 14/14 Q1016", "SBPR 311500Z 04005KT 9999 4000SE RA BKN018 OVC080 22/21 Q1017", "SBRB 311500Z 34009KT 9999 SCT021 33/23 Q1011", "SBRJ 311500Z 17015KT 9999 FEW030 30/23 Q1007", "SBRP 311530Z 24010G20KT 9999 TS VCSH SCT027 FEW030CB OVC080 25/20 Q1010", "SBSC 311500Z 16010KT 9999 SCT025 BKN070 28/23 Q1008", "SBSJ 311509Z 24005KT 3000 TSRA BR FEW006 BKN012 FEW030CB BKN050 21/21 Q1013", "SBSM 311500Z 18005KT 120V240 6000 -RA BKN011 OVC025 10/09 Q1022", "SBSN 311500Z 10014KT 9999 SCT020 31/25 Q1011", "SBSP 311536Z 09006KT 9999 SCT040 BKN080 22/18 Q1013", "SBSR 311500Z 30008KT 240V330 9999 SCT030 BKN070 28/20 Q1011", "SBST 311500Z VRB02KT 9999 -DZ FEW023 BKN033 BKN050 27/22 Q1008", "SBTA 311500Z 09003KT 010V170 9999 VCSH SCT014 25/21 Q1011", "SBTE 311500Z 06006KT CAVOK 37/18 Q1009", "SBTF 311500Z 05011KT 9999 SCT018 33/25 Q1010", "SBTT 311500Z 09006KT 9999 SCT025 31/24 Q1011", "SBTU 311500Z AUTO VRB07KT //// // FEW037/// 31/22 Q1012", "SBUA 311500Z 06004KT 350V130 9999 SCT033 32/24 Q1010", "SBUF 311500Z 18005KT CAVOK 34/14 Q1012", "SBUL 311500Z 01006KT 4000 -TSRA BKN026 FEW035CB SCT100 20/18 Q1015", "SBUR 311500Z 29014KT 9999 SCT040 FEW045TCU 30/17 Q1013 RESHRA", "SBUY 311500Z 36005KT 9999 FEW025 SCT100 31/24 Q1009", "SBVH 311500Z 30008KT 9999 FEW015 BKN100 26/23 Q1015", "SBVT 311500Z 03014KT 9999 FEW045 29/22 Q1010", "SBYS 311500Z 18012KT 2000 RA BKN008 BKN017 22/21 Q1012", "SCAP 311500Z AUTO 27006KT 200V360 9999 ////// 13/02 Q1036", "SCAR 311500Z 21012KT CAVOK 19/11 Q1015", "SCAT 311500Z VRB04KT 9999 FEW018 18/10 Q1016", "SCBA 311500Z 30024KT CAVOK 11/M01 Q1027", "SCCF 311500Z 25011KT 200V290 CAVOK 19/M19 Q1026", "SCCH 311500Z 20009KT CAVOK 19/03 Q1023", "SCCI 311500Z 30024G36KT 9999 FEW045 BKN080 09/02 Q1011 NOSIG", "SCCY 311500Z VRB04KT CAVOK 12/M00 Q1030", "SCDA 311500Z 23012KT CAVOK 18/11 Q1016", "SCFA 311500Z 21007KT 9999 FEW023 17/10 Q1016 NOSIG", "SCGE 311500Z 18014KT CAVOK 17/02 Q1027", "SCGZ 311500Z 27015KT 9999 VCSH FEW050 SCT076 BKN100 10/M00 Q1003", "SCIC 311500Z 25011KT CAVOK 23/M01 Q1016", "SCIE 311500Z 16020KT CAVOK 20/M04 Q1024", "SCIP 311500Z 30005KT 220V340 9999 SCT020 21/16 Q1020 NOSIG", "SCIR 311500Z 11025G35KT 4000 HZ SCT015 12/08 Q1030", "SCJO 311500Z 21010KT 170V240 9999 BKN025 12/05 Q1032", "SCMK 311500Z 15007KT CAVOK 12/04 Q1035", "SCNT 311500Z 28032G42KT 260V320 9999 SCT050 13/01 Q1017", "SCON 311500Z AUTO VRB06KT CAVOK 11/06 Q1035", "SCPD 311500Z 25004KT 200V320 CAVOK 19/01 Q1016", "SCPQ 311500Z 20012KT 9999 FEW022 11/05 Q1034", "SCQP 311500Z 14008KT 100V170 CAVOK 15/06 Q1030", "SCRD 311500Z 34007KT CAVOK 18/05 Q1017", "SCRG 311500Z 21010KT CAVOK 20/M04 Q1017", "SCRM 311500Z 36021KT 0300 SN FZFG OVC003 M02/M02 Q0979 NOSIG", "SCSE 311500Z 28010KT CAVOK 16/10 Q1016", "SCSN 311500Z 24012KT CAVOK 16/01 Q1016", "SCTB 311500Z 20003KT CAVOK 20/M01 Q1017", "SCTE 311500Z 17013KT 140V210 9999 BKN027 11/05 Q1034 NOSIG", "SCTN 311500Z 20011KT CAVOK 10/07 Q1034", "SCVD 311500Z 17006KT CAVOK 15/04 Q1031", "SECA 311500Z 28002KT 9999 FEW040 24/13 Q1018 RMK A3008", "SECO 311500Z 31003KT 9999 SCT016 BKN100 27/23 Q1012 RMK A2988", "SECU 311500Z 03003KT 9999 FEW030 16/05 Q1026", "SEGS 311500Z 14013KT 9999 SCT013 BKN020 23/17 Q1014 RMK A2996", "SEGU 311500Z 18005KT 080V240 9999 BKN026 26/19 Q1012 NOSIG RMK A2990", "SEGZ 311500Z 00000KT 9999 FEW026 26/21 Q1015", "SEJD 311500Z 00000KT 2000 -RA SCT006 BKN023 OVC080 22/22 Q1013 RERA RMK A2994", "SELT 311500Z 18003KT 9999 FEW026 14/03 Q1030", "SEMC 311500Z 06005KT 9999 SCT026 24/18 Q1017 RMK A3004", "SEMT 311500Z 29006KT 9999 BKN020 24/20 Q1013 RMK A2993", "SENL 311500Z 27004KT 9999 VCSH SCT020 BKN100 26/24 Q1013 RMK A2992", "SEQM 311500Z VRB03KT 9999 FEW030 SCT300 19/07 Q1026 NOSIG RMK A3031", "SERB 311500Z 06005KT 9999 SCT040 17/10 Q1028", "SERO 311500Z 31003KT 9999 FEW013 OVC020 23/18 Q1013", "SESA 311500Z 20010KT 9999 SCT008 OVC013 21/18 Q1014 RMK A2994", "SESM 311500Z 18003KT 090V250 9999 SCT026 BKN100 23/20 Q1016 RMK A3002", "SEST 311500Z 18010KT 9999 BKN020 20/18 Q1012 RMK A2989", "SETN 311500Z 28005KT 9999 FEW026 28/22 Q1012 RMK A2989", "SETU 311500Z 10003KT 9999 FEW020 15/06 Q1031", "SFAL 31450Z 24017KT 9999 FEW024 08/04 Q1012", "SGCO 311500Z 18010G20KT 2000 DZBR OVC005 15/13 Q1019", "SKAR 311500Z 29003KT 9999 SCT025 24/18 R1019 RMK A3012", "SKBG 311500Z 15003KT 9999 FEW017 24/16 Q1016 RMK A3002", "SKBO 311500Z 34003KT 9999 FEW020 17/10 Q1027 NOSIG RMK A3033", "SKBQ 311500Z VRB02KT 9999 FEW015 BKN200 29/24 Q1012 RMK A2989", "SKCC 311500Z VRB03KT 9999 FEW023 30/20 Q1013 RMK A2993", "SKCG 311500Z 18009KT 130V210 9999 SCT017TCU SCT200 30/24 Q1011 RMK A2986", "SKCL 311500Z VRB03KT 9000 SCT025 26/20 Q1016 NOSIG RMK HZ A3002", "SKEJ 311500Z 27003KT 9999 SCT008 28/23 Q1011 RMK A2987", "SKIB 311500Z 11004KT 9999 SCT020 24/20 Q1019 RMK A3011", "SKIP 311500Z 00000KT 9999 FEW020 15/10 Q1029 RMK A3040", "SKLC 311500Z 19006KT 9999 SCT020 29/24 Q1011 RMK A2988", "SKLT 311500Z 36004KT 9999 BKN017 32/24 Q1010 RMK A2983", "SKMD 311500Z 36008KT 9999 FEW035 24/16 Q1020 RMK A3014", "SKMR 311500Z VRB04KT 9999 SCT020 SCT200 29/23 Q1011 RMK A2987", "SKMZ 311500Z 28005KT 8000 VCFG BKN030 19/16 Q1026 RMK VCFG/W A3031", "SKNV 311500Z 04009KT 9999 SCT025 29/20 Q1013 RMK/A2994", "SKPC 311500Z 07008KT 040V100 9999 SCT017 29/25 Q1011 RMK A2986", "SKPE 311500Z 28004KT 9999 SCT020 24/17 Q1018 RMK A3007", "SKPS 311500Z 33005KT 9999 FEW023 20/15 Q1021 RMK A3015", "SKPV 311500Z 00000KT 9999 FEW017 SCT070 BKN200 28/24 Q1012 RMK A2987", "SKRG 311500Z 12010KT 9999 SCT020 19/12 Q1026 NOSIG RMK A3029", "SKRH 311500Z 14008KT 9999 FEW015 BKN200 31/22 Q1011 RMK A2987", "SKSM 311500Z 20005KT 9999 FEW020 SCT200 31/21 Q1013 RMK A2992", "SKSP 311500Z VRB02KT 9999 FEW014 BKN080 28/24 Q1011 REDZ RMK A2987", "SKUC 311500Z 07004KT 9999 SCT020 30/24 Q1012 RMK A2990", "SKUI 311500Z 15003KT 9999 BKN025 27/23 Q1011 RMK A2987", "SKVP 311500Z 23004KT 170V290 9999 FEW015 SCT200 29/22 Q1014 RMK A2995", "SKVV 311500Z 09004KT 9999 SCT020 28/23 Q1014 RMK A2994", "SLAL 311500Z 02015KT 9999 FEW020 FEW030CB 17/08 Q1026", "SLCA 311500Z 18010KT 8000 OVC070 18/M01 Q1027", "SLCB 311500Z 25004KT 9999 FEW033 26/06 Q1020", "SLCO 311500Z 34010KT 9999 BKN018 32/25 Q1010", "SLCP 311500Z 18040G50KT 9999 BKN010 OVC070 14/12 Q1020", "SLET 311500Z 16024G40KT 5000 -TSRA BKN025 FEW030CB OVC070 14/08 Q1019", "SLJE 311500Z 18015G28KT 9999 OVC012 14/11 Q1022", "SLLP 311500Z 24006KT 9999 FEW015 16/M07 Q1036", "SLMG 311500Z 32008KT 9999 FEW017 SCT080 31/24 Q1008", "SLOR 311500Z 18005KT 9999 FEW020 15/M01 Q1033", "SLPO 311500Z 36010KT 9999 FEW017 15/01 Q1033", "SLPS 311500Z 24010KT 6000 BKN012 19/16 Q1011", "SLRB 311500Z 18010KT 8000 -DZ OVC006 15/14 Q1024", "SLRI 311500Z 03010KT 9999 SCT017 33/24 Q1011", "SLRQ 311500Z 32004KT 9999 SCT017 BKN200 28/26 Q1007", "SLRY 311500Z 36008KT 9999 BKN012 BKN080 28/24 Q1009", "SLSA 311500Z 34007KT 9999 SCT017 BKN080 30/24 Q1010", "SLSV 311500Z 18020KT 9999 OVC012 16/14 Q1016", "SLTJ 311500Z 14010KT 9999 BKN027 OVC070 08/M02 Q1028", "SLTR 311500Z 16015G25KT 1000 +TSRA BKN005 FEW020CB OVC070 17/17 Q1014", "SLVM 311500Z 18015G27KT 9999 OVC070 18/01 Q1028", "SLVR 311512Z 18024G35KT 2800 -TSRA BKN020 FEW030CB OVC070 13/08 Q1018", "SLYA 311500Z 20010G22KT 9999 OVC070 17/02 Q1027", "SOCA 311530Z AUTO 05012KT 9999 BKN023 BKN037 BKN044 31/25 Q1012 TEMPO 3000 SHRA BKN020TCU", "SPCL 311500Z 35009KT 9999 BKN020 31/24 Q1010 RMK BIRD HAZARD RWY 02/20 PP000", "SPEO 311500Z 20008KT 9999 BKN015 18/14 Q1016 RMK PP000", "SPGM 311500Z 02003KT 9999 FEW030 28/21 Q1013 RMK PP000", "SPHI 311500Z 17007KT 140V210 9999 OVC015 18/14 Q1016 RMK BIRD HAZARD RWY 19/01 PP000", "SPHO 311500Z 17003KT 100V270 9999 FEW030 21/00 Q1026 RMK PP000", "SPHY 311500Z /////KT CAVOK 15/02 Q1034 RMK BIRD HAZARD RWY03/21 PP000", "SPJI 311500Z 19007KT 9999 FEW019 BKN080 28/24 Q1019 RMK PP000", "SPJL 311500Z VRB03KT CAVOK 16/M15 Q1034 RMK PP000", "SPJR 311530Z VRB03KT CAVOK 21/M04 Q1026", "SPLO 311500Z 17008KT 9999 FEW030 20/14 Q1015 RMK PP000", "SPME 311500Z 28006KT 9999 BKN017 24/20 Q1013 RMK BIRD HAZARD RWY 32/14 TX25.9/TN19.0 PP000", "SPMS 311500Z 34004KT 9999 SCT020 31/25 Q1010 RMK BIRD HAZARD RWY 09/27 PP000", "SPNC 311500Z 11005KT 9999 FEW040 26/09 Q1019 RMK PP000", "SPPY 311500Z 34004KT CAVOK 18/08 Q1027 RMK PP000", "SPQT 311500Z 03009KT 350V060 9999 SCT012 32/28 Q1010 NOSIG RMK BIRD HAZARD RWY 06/24 PP000", "SPQU 311500Z 27008KT 230V290 CAVOK 17/M07 Q1026 NOSIG RMK PP000", "SPRU 311500Z 17008KT 7000 BCFG OVC013 17/13 Q1016 RMK PP000", "SPSO 311500Z 34005KT 290V010 8000 OVC013 17/14 Q1015 RMK BR BIRD HAZARD RWY 22/04 PP000", "SPST 311500Z 30010KT 9999 SCT020 33/22 Q1009 RMK BIRD HAZARD RWY 17/35 PP000", "SPTN 311500Z 20007KT CAVOK 19/11 Q1016 RMK PP000", "SPTU 311500Z 33005KT 280V020 9999 FEW012 BKN100 28/25 Q1009 RMK BIRD HAZARD RWY 01/19 PP000", "SPYL 311500Z 16013KT CAVOK 21/15 Q1014 RMK BIRD HAZARD RWY 17/35 PP000", "SPZO 311530Z VRB04KT 9999 NSC 19/00 Q1028 NOSIG RMK BIRD HAZARD RWY 10/28", "SUAA 311500Z /////KT 9999 BKN027 14/05 Q1027", "SUDU 311500Z 20012KT 9999 BKN023 15/05 Q1026", "SULS 311500Z 20016KT 9999 BKN040 15/02 Q1025", "SUMU 311531Z 19015KT 9999 FEW033TCU BKN040 14/07 Q1026 TEMPO 18018G28KT SHRA", "SVBC 311503Z AUTO 25002KT NCD 29/26 Q1013", "SVBI 311503Z AUTO 02005KT NCD 28/22 Q1017", "SVBM 311503Z AUTO NIL", "SVBS 311503Z AUTO 11007KT NCD 27/// Q1015", "SVCB 311503Z AUTO 05007KT NCD 30/22 Q1012", "SVCJ 311503Z AUTO NIL", "SVCS 311503Z AUTO 05003KT NCD ///48 Q1017", "SVFM 311503Z AUTO 00000KT NCD ///// Q////", "SVGD 311503Z AUTO 00003KT NCD 28/23 Q1014", "SVGU 311503Z AUTO NIL", "SVJM 311503Z AUTO 27004KT NCD 27/22 Q1014", "SVLO 311503Z AUTO NIL", "SVMC 311503Z AUTO NIL", "SVMG 311503Z AUTO 10013KT NCD 29/25 Q1013", "SVMI 311503Z AUTO 08007KT NCD 30/21 Q1013", "SVMT 311503Z AUTO 08007KT NCD 28/28 Q1013", "SVPA 311503Z AUTO NIL", "SVPR 311503Z AUTO 12006KT NCD 29/20 Q1014", "SVSR 311503Z AUTO NIL", "SVVG 311500Z /////KT 9999 SC030 31/23 Q1011", "SYCJ 311500Z 06018KT 9999 FEW020CB SCT022 31/23 Q1011 NOSIG RMK CB NE", "SYEC 311500Z 07006KT 9000 -SHRA FEW015CB SCT016 BKN090 26/25 Q1012 NOSIG CB NNW-NNE", "SYKM 311500Z 08008KT 9999 SCT018 SCT038 BKN090 29/23 Q//// NOSIG", "SYLT 311500Z 09012KT 9999 BKN026 30/23 Q//// NOSIG", "SYMB 311500Z 09004KT 9999 VCSH BKN018 BKN090 28/25 Q//// NOSIG RMK VCSH ALQDS", "TAPA 311500Z 09010KT 060V130 9999 BKN020 30/24 Q1014 NOSIG", "TBPB 311500Z 11016KT 9999 FEW020 31/25 Q1012 NOSIG", "TDCF 311500Z 14005KT 9999 FEW017 31/22 Q1012", "TDPD 311500Z 13009KT 9999 SCT015 30/25 Q1014", "TFFF 311530Z AUTO 12017KT 9999 SCT028 31/26 Q1013", "TFFR 311530Z AUTO 13015KT 9999 BKN027 BKN034 30/24 Q1013", "TGPY 311500Z 08022KT 9999 FEW018 30/26 Q1012 NOSIG", "TIST 311553Z 14010KT 10SM CLR 31/24 A2995 RMK AO2 SLP141 T03060244", "TISX 311553Z 11009KT 10SM SCT021 31/25 A2996 RMK AO2 SLP144 T03110250 PNO $ ", "TJBQ 311550Z 07008KT 10SM CLR 30/23 A2996 RMK LTG DSNT S", "TJIG 311545Z 10010KT 10SM SCT040 SCT080 29/24 A2995", "TJNR 311553Z AUTO 07006KT 10SM SCT021 SCT060 30/25 A2997 RMK AO2 SLP148 T03000250", "TJSJ 311456Z 10005KT 10SM SCT027 SCT075 29/24 A2997 RMK AO2 SLP147 T02940244 50007", "TKPK 311500Z 08011KT 9999 FEW020 SCT042 31/24 Q1014", "TKPN 311500Z 09010KT 9999 SCT021 SCT050 30/26 Q1014", "TLPC 311500Z 11014KT 9999 FEW026 30/24 Q1013 NOSIG", "TLPL 311500Z 11021KT 9999 FEW028 31/25 Q1013 NOSIG", "TNCB 311455Z 11011KT 070V170 9999 +RA SCT014 BKN018 25/25 Q1012", "TNCC 311500Z 13005KT 5000 +RA SCT002 BKN017 24/23 Q1012 TEMPO 13010G25KT 5000 +RA SCT017TCU BKN020", "TNCE 311455Z AUTO 11011KT 070V150 //// // ///////// 31/24 Q1014 RE//", "TNCM 311500Z 11008KT 9999 SCT017 BKN038 30/25 Q1016 NOSIG ", "TQPF 311500Z 12012KT 9999 -RA SCT017 BKN040 29/25 Q1015", "TRPG 311500Z 10017KT 9999 FEW017 29/25 Q1016", "TTCP 311500Z 10013KT 9999 VCSH SCT016 29/25 Q1012 VCSH W", "TTPP 311500Z 10014KT 060V160 9999 VCSH FEW022 31/24 Q1012 NOSIG", "TVSA 311500Z 08009KT 9999 SCT020 29/25 Q1013 NOSIG ", "TXKF 311555Z 33014KT 9999 VCSH FEW019 SCT045 24/22 Q1012 ", "UAAA 311530Z 00000MPS 5000 BR SCT050CB BKN100 06/0 Q1024 NOSIG", "UACC 311530Z 18004MPS CAVOK M01/M02 Q1021 NOSIG RMK QFE734/0979", "UACK 311530Z 17005MPS CAVOK M04/M07 Q1017 NOSIG RMK QFE739/0986", "UADD 311530Z 00000MPS 9999 NSC 06/04 Q1023 NOSIG RMK QFE710/0947", "UAII 311530Z 07002MPS CAVOK 09/05 Q1022 NOSIG RMK QFE731/0975", "UAIT 311530Z 07004MPS CAVOK 06/04 Q1023 NOSIG RMK QFE742/0990", "UAKD 311530Z 19006MPS 9999 OVC016 03/M01 Q1022 NOSIG RMK QFE733/0978", "UAKK 311530Z 22002MPS 9999 BKN009 BKN020 02/01 Q1023 NOSIG RMK QFE720/0960", "UAOO 311500Z 11004MPS CAVOK 04/M01 Q1021 NOSIG RMK QFE754/1006", "UARR 311530Z 23004MPS 9000 -SHRA OVC014CB 04/03 Q1000 TEMPO 0500 FG VV003 RMK QFE746/0995", "UASK 311500Z 26003MPS 9999 -SHRA BKN026CB OVC046 05/03 Q1024 NOSIG RMK QFE742/0990", "UASP 311530Z 18002MPS 9999 BKN034 00/M03 Q1023 NOSIG RMK QFE756/1008", "UATE 311530Z VRB01MPS CAVOK 14/10 Q1008 NOSIG RMK QFE754/1006", "UATG 311545Z 21009MPS 5000 BR SCT010 BKN033CB 11/09 Q1004 NOSIG RMK QFE755/1006", "UATT 311530Z 18007MPS 9999 SCT014CB OVC031 09/08 Q1003 NOSIG RMK QFE733/0977", "UAUU 311530Z 14008MPS 9999 BKN004 OVC033 01/01 Q1009 NOSIG RMK QBB130 QFE741/0988", "UBBB 311530Z 25004KT CAVOK 15/11 Q1010 NOSIG", "UBBF 311530Z AUTO 30008KT 9999 // NSC 13/06 Q1011", "UBBG 311530Z 21006KT 9999 FEW100 14/00 Q1011 NOSIG", "UBBN 311530Z VRB02KT 9999 FEW046 BKN100 14/05 Q1012 NOSIG RMK MT OP QFE684", "UBBY 311500Z 01006KT 9999 SCT100 16/M00 Q1013 NOSIG RMK MT OP", "UBBZ 311530Z AUTO 33006KT 9999 // ///////// 16/07 Q1012", "UCFL 311500Z 32002MPS 9999 SCT026CB BKN100 04/M01 Q1023 R07/CLRD95", "UCFM 311530Z 10002MPS 9999 3700E BR NSC 04/03 Q1024 R08/0///95 NOSIG", "UCFO 311530Z VRB01MPS 2100 BR FU NSC 08/06 Q1024 R12/0///95 NOSIG", "UDSG 311530Z 27007KT 9999 FEW049 09/M01 Q1015 R02/CLRD70 NOSIG", "UDYZ 311530Z 02003KT 9999 NSC 12/01 Q1013 R09/010070 NOSIG", "UEEE 311530Z 32003MPS 9999 FEW050CB M16/M18 Q1019 R23L/450155 NOSIG RMK QFE756", "UERP 311500Z 20002MPS CAVOK M16/M17 Q1016 R35/890235 RMK QFE718", "UERR 311500Z 27004MPS 9999 -SHSN BKN023CB M09/M11 Q1021 R25/490340 NOSIG RMK QFE735/0980", "UGAM 311530Z AUTO 10003KT 060V170 //// ////// 09/09 Q1017", "UGKO 311530Z 27004KT 250V330 9999 -RA SCT033 OVC054 13/11 Q1016 NOSIG", "UGMS 311530Z AUTO VRB01KT //// ////// 02/02 Q1018", "UGSB 311530Z 14006KT 9999 -SHRA SCT025 BKN052 14/11 Q1017 NOSIG", "UGTB 311530Z 30017KT CAVOK 15/02 Q1013 NOSIG", "UHBB 311500Z 18005MPS 7000 FEW010 SCT033CB 02/01 Q1005 R36/290250 NOSIG RMK QBB300 QFE736/0981", "UHHH 311530Z 16003MPS 9999 -SHRA SCT024CB 05/03 Q1017 R23R/290045 NOSIG RMK QFE757/1009", "UHMA 311500Z 34005MPS CAVOK M23/M25 Q1019 R01/////// NOSIG RMK TDZ R01/34005G06MPS END R01/36007G09MPS QFE760/1014", "UHMM 311500Z 10001MPS 9999 NSC M26/M29 Q1026 RMK QFE755 R28/08003MPS", "UHPP 311500Z 01005MPS CAVOK M05/M12 Q1022 R34L/CLRD65 NOSIG RMK QFE763/1017", "UHSS 311530Z 13003MPS 9999 BKN009 BKN026 07/06 Q1026 R19/70D NOSIG RMK MT OBSC QFE768/1024", "UHWW 311530Z 13004MPS 9999 -SHRA SCT010 BKN030CB 09/08 Q1021 R25L/290060 NOSIG RMK QFE765", "UIAA 311530Z AUTO 29004MPS 9999 NCD M09/M15 Q1020 RMK QFE706/0942", "UIBB 311530Z AUTO 06002MPS 9999 // NSC M11/M14 Q1027 RMK QFE727/0969", "UIII 311530Z 07002MPS 030V110 9999 OVC029 M09/M11 Q1025 R12/CLRD60 NOSIG RMK QFE726/0969", "UIUU 311530Z VRB01MPS 9999 NSC M11/M14 Q1025 R26/CLRD60 NOSIG RMK QFE724/0966", "ULAA 311530Z 33002MPS 300V010 9999 BKN021 02/00 Q1008 R26/190065 NOSIG RMK QFE755/1006", "ULLI 311530Z 27002MPS CAVOK 01/M05 Q1017 R88/090060 NOSIG", "ULMM 311530Z 00000MPS 9999 BKN008 00/00 Q1010 R31/690153 NOSIG RMK OBST OBSC QFE750", "ULOO 311530Z 30001MPS CAVOK 04/M00 Q1019 R01/090060 NOSIG RMK QFE760", "ULPB 311530Z 25002MPS 230V290 CAVOK M01/M04 Q1015 R19/190055 NOSIG RMK QFE757/1010", "ULWC 311530Z 32002G07MPS 9000 -SHRA BKN008 OVC016CB 01/00 Q1009 R21/690150 NOSIG RMK QFE747/0996", "UMGG 311530Z 31004MPS CAVOK 04/M03 Q1018 NOSIG", "UMII 311500Z 31003MPS CAVOK 04/M02 Q1017 NOSIG", "UMIO 311530Z 31002MPS CAVOK 02/M03 Q1018 NOSIG RMK QFE746/0995", "UMKK 311530Z 12002MPS 9000 BKN016 11/10 Q1020 R24/CLRD95 NOSIG RMK QFE764/1018", "UMMS 311530Z 30003MPS CAVOK 04/M01 Q1020 NOSIG", "UNAA 311530Z 27001MPS 8000 NSC M03/M06 Q1024 R02/150060 NOSIG RMK QFE745", "UNBB 311530Z 23004MPS 9999 SCT007 BKN017 00/M01 Q1020 R24/290245 NOSIG RMK QFE742", "UNEE 311530Z 12003MPS CAVOK M01/M05 Q1020 R23/120155 NOSIG RMK QFE742", "UNKL 311530Z 00000MPS CAVOK M09/M10 Q1024 R11/CLRD65 NOSIG RMK QFE742", "UNNT 311530Z 35001MPS 9999 SCT012 BKN045 M01/M05 Q1020 R25/150060 R16/150060 NOSIG RMK QFE755/1007", "UNOO 311530Z 17003MPS 3600 BR BKN002 M04/M04 Q1020 R25/190055 NOSIG RMK QBB060 OBST OBSC QFE757", "UNTT 311530Z 08001MPS CAVOK M06/M07 Q1020 R21/////// NOSIG RMK QFE750", "UNWW 311530Z 28002MPS 8000 SCT040CB 00/M01 Q1020 R19/290250 NOSIG RMK QFE738", "UOOO 311500Z 21012MPS 8000 -SN BLSN OVC013 M04/M05 Q1010 R19/410530 NOSIG RMK QFE741/0988", "URKA 311530Z 33006MPS 9999 SCT059 11/07 Q1015 R22/010070 TEMPO 34010G17MPS RMK QFE756/1008", "URKK 311530Z 28009MPS 9999 BKN024CB 12/07 Q1014 R23L/CLRD70 TEMPO 29012G19MPS RMK QFE757", "URMG 311530Z 07004MPS CAVOK 13/06 Q1007 R08/090070 NOSIG RMK QFE741/0988", "URML 311530Z 19003MPS 9999 NSC 10/07 Q1008 R14/01//70 NOSIG RMK QFE756/1008", "URMM 311530Z 30007MPS 9999 -SHRA BKN025CB 12/08 Q1009 R30/290150 NOSIG RMK QFE729/0972", "URMN 311500Z 26002MPS 9999 FEW/// 10/04 Q1008 R24/010070 NOSIG RMK QFE719", "URMO 311530Z 08003MPS 9999 SCT130 09/05 Q1008 R09/010070 NOSIG RMK QFE712/0950", "URMT 311530Z 30010G17MPS 6000 -SHRA SCT013 BKN025CB 09/07 Q1008 R25/290155 NOSIG RMK QFE717", "URRP 311530Z 35006MPS 9999 FEW/// SCT064CB 03/M00 Q1011 R05/290053 TEMPO 33013G18MPS 0800 +SHRA SCT003 BKN020CB RMK QFE754/1005", "URSS 311530Z 13004MPS 9999 -SHRA OVC040CB 13/10 Q1015 WS ALL RWY R02/290060 R06/290060 NOSIG RMK R06/14004G07MPS MT OBSC QFE760", "URWA 311530Z 27006MPS 9999 BKN041 10/08 Q1005 R27/290055 NOSIG RMK QFE755/1007", "URWI 311530Z AUTO 32006MPS 9999 // ///018/// 05/02 Q1006", "URWW 311530Z 31005MPS CAVOK 02/M01 Q1004 R24/290051 TEMPO 1000 SHSN BKN003 BKN016CB", "USCC 311530Z 16005MPS 4400 BR FU OVC004 03/03 Q1003 R09/290042 TEMPO 1200 BR OVC002 RMK QBB120 QFE732", "USCM 311530Z 15008MPS 0400 R18/1000U DZ FG VV001 05/05 Q1000 R18/290055 TEMPO 15013MPS RMK QBB030 QFE713", "USDA 311530Z AUTO 20010MPS 9999 NCD M01/M02 Q0997 RMK QFE746/0995", "USHH 311530Z 15005MPS 1700 R06/1700U SHSN BKN007CB M03/M03 Q1008 R06/010060 TEMPO 0500 +SHSN BKN003 OVC010CB", "USNN 311530Z 17005MPS CAVOK M04/M06 Q1017 R21/0///65 NOSIG RMK QFE758", "USPP 311530Z 12003MPS 100V160 9999 BKN005 OVC013 04/03 Q0996 R21/290250 TEMPO 1100 -RA BR BKN003 RMK QBB160 QFE736", "USRR 311530Z 16005MPS 130V200 CAVOK M03/M06 Q1013 R07/CLRD60 NOSIG RMK QFE755", "USSS 311530Z 15005MPS 9999 OVC007 03/02 Q1001 R08R/290050 R08L/590232 TEMPO BKN005 RMK QFE731/0975", "USTR 311530Z 17006MPS 9999 SCT008 BKN023CB 01/M00 Q1007 R21/CLRD65 R12/CLRD65 TEMPO 2100 -SHSNRA SCT005 BKN016CB", "UTAA 311500Z 00000KT 5000 BR NSC 15/13 Q1014 R88/70D NOSIG", "UTAK 311500Z 18008KT CAVOK 16/09 Q1011 R16R/CLRD70 NOSIG", "UTAM 311500Z 09006KT 6000 NSC 16/04 Q1017 R88/CLRD70 NOSIG", "UTAT 311500Z 12006KT 9999 BKN050 14/08 Q1017 R08/CLRD70 NOSIG", "UTAV 311500Z 06006KT CAVOK 13/02 Q1018 R13/CLRD70 NOSIG", "UTDD 311530Z 08004MPS 9999 BKN100 13/07 Q1021 R09/D NOSIG RMK QFE697/0930", "UTDK 311530Z 04003MPS 010V080 9999 NSC 16/12 Q1020 R01/09//70 RMK QFE707/0943", "UTDL 311530Z 08007MPS 9999 NSC 12/10 Q1022 R08/CLRD70 NOSIG RMK QFE727/0970", "UTDT 311530Z VRB01MPS 8000 FEW130 15/13 Q1018 R35/////// RMK QFE724/0965", "UTFF 311530Z 16004KT 6000 NSC 09/07 Q1024 R18/CLRD70", "UTFN 311530Z 33004KT 7000 NSC 11/07 Q1024 R28/CLRD70 NOSIG", "UTNN 311530Z 10004KT CAVOK 11/04 Q1017 R33/CLRD60 NOSIG", "UTNU 311530Z 12006KT CAVOK 13/07 Q1017 R13/CLRD70 NOSIG", "UTO8 M M M 128/-15/-17/2201/M/ SOG 03 2004 87MM", "UTSA 311530Z 08006KT 7000 NSC 09/02 Q1019 R07/CLRD70 NOSIG", "UTSB 311530Z 03002KT CAVOK 11/04 Q1019 R01/CLRD70 NOSIG", "UTSK 311530Z 04004KT CAVOK 15/04 Q1019 R16/CLRD70", "UTSS 311530Z 14008KT 9999 NSC 11/08 Q1020 R09/70D NOSIG", "UTST 311530Z 33004KT CAVOK 16/10 Q1019 R25/CLRD70 NOSIG", "UTTT 311530Z 06004KT 350V090 CAVOK 12/07 Q1022 R08L/CLRD70 NOSIG", "UUBC 311530Z 30008MPS 9999 BKN035 03/M02 Q1010 R31/CLRD60 NOSIG RMK QFE741/0988", "UUBP 311530Z AUTO 28004MPS 9999 ///033 01/M04 Q1015 RMK QFE743/0991", "UUBW 311530Z 30010G15MPS 9999 BKN019 03/M00 Q1007 R30/010060 NOSIG", "UUDD 311530Z 33012MPS 9999 BKN019 03/M01 Q1007 R32L/190050 NOSIG", "UUDL 311530Z 33005MPS 9999 -RA OVC009 02/02 Q1004 R23/290245 NOSIG RMK QFE745", "UUEE 311530Z 31008G14MPS 9999 -SN SCT014 02/M00 Q1008 R24L/150051 R24C/150051 NOSIG", "UUMO 311530Z 32009G14MPS 9999 BKN018 03/M01 Q1008 R25/CLRD60 NOSIG RMK QFE741/0988", "UUOB 311530Z 34006MPS 9999 BKN035 03/M03 Q1014 R29/010070 NOSIG", "UUOK 311530Z 31007MPS 9999 OVC041 03/M03 Q1013 R30/090060 NOSIG RMK QFE741/0989", "UUOL 311530Z 30005MPS 9999 BKN028 02/M02 Q1007 R33/090060 NOSIG", "UUOO 311530Z 31008MPS 9999 OVC045 02/M02 Q1009 R30/190060 NOSIG RMK QFE743", "UUWW 311530Z 31008G14MPS 9999 BKN016 02/M02 Q1009 RMK WS R24 R24/190045 TEMPO 30010G17MPS", "UUYY 311530Z 01002MPS 9999 FEW011 BKN018CB 01/01 Q0999 R36/29//51 NOSIG RMK QFE740/0987", "UWGG 311530Z 28003MPS 8000 -SN OVC005 00/00 Q0998 R36R/290050 NOSIG", "UWKD 311530Z 27005MPS 9999 OVC026 01/M02 Q0997 R29/290050 NOSIG RMK QFE737/0983", "UWKE 311530Z 24007MPS 9999 BKN043 M00/M02 Q0997 R21/090070 NOSIG RMK QFE731/0975", "UWKS 311530Z 25004MPS 9999 OVC010CB M00/M01 Q0997 R24/690348 TEMPO 0800 +SHSN VV002 RMK QFE733", "UWLL 311530Z 27002MPS 9999 BKN046 01/M02 Q0999 R20/090065 NOSIG RMK QFE739/0986", "UWLW 311500Z 27003MPS 9999 OVC049 02/M02 Q0999 R20/120055 NOSIG RMK QFE744/0992", "UWOO 311530Z VRB01MPS 9000 -SHRA OVC024CB 06/06 Q0999 R26/290356 NOSIG RMK QFE739/0985", "UWOR 311500Z 18007MPS 9999 OVC014 08/07 Q1004 R25/290055 NOSIG RMK QFE730/0973", "UWPS 311530Z 27005MPS 9999 BKN019 00/M02 Q1000 R20/120060 NOSIG RMK QFE732", "UWSG 311530Z 29004MPS 270V330 CAVOK 03/M03 Q1002 R26/CLRD70 NOSIG RMK QFE749/0998", "UWUU 311530Z 31006MPS 9999 -SHRA SCT006 OVC013CB 02/02 Q0998 R32L/290344 NOSIG RMK QBB180", "UWWW 311530Z 28002MPS 240V310 9999 SCT033 02/M04 Q0999 R33/CLRD60 NOSIG RMK QFE739/0985", "VAAH 311530Z VRB03KT 4000 FU NSC 25/16 Q1013 NOSIG", "VABB 311530Z 35006KT 3500 FU NSC 29/14 Q1012 NOSIG", "VABO 311500Z 07003KT 6000 NSC 27/16 Q1013 NOSIG", "VABP 311530Z 07002KT 4000 HZ NSC 22/09 Q1017 NOSIG", "VAID 311530Z 07003KT 5000 HZ NSC 21/10 Q1017 NOSIG", "VAJB 311500Z 09003KT 3500 HZ NSC 22/13 Q1016 NOSIG", "VANP 311530Z 00000KT 4000 HZ NSC 20/15 Q1016 NOSIG", "VARK 311500Z 09003KT 6000 NSC 27/12 Q1013 NOSIG", "VASU 311530Z 00000KT 6000 NSC 25/15 Q1013 NOSIG", "VAUD 311531Z 25003KT 5000 HZ NSC 20/12 Q1017 NOSIG", "VCBI 311510Z 04005KT 360V090 9999 VCTS SCT016 FEW019CB 27/24 Q1010 NOSIG RMK CB SE/S", "VCRI 311510Z 00000KT 9999 VCTS SCT018 FEW020 CB 28/26 Q1010 NOSIG RMK E/SE/W", "VDPP 311530Z VRB02KT 9000 FEW017 27/22 Q1010", "VDSR 311530Z 36007KT 9000 SCT015 25/21 Q1010", "VDSV 311530Z 07003KT 9000 SCT015 26/24 Q1010", "VEBN 311530Z 00000KT 3000 BR FEW025 23/20 Q1014 NOSIG", "VEBS 311530Z 00000KT 3000 HZ FEW020 24/23 Q1015 NOSIG", "VECC 311530Z 30003KT 3500 HZ NSC 27/20 Q1012 NOSIG", "VEGT 311530Z 00000KT 3000 BR FEW020 24/23 Q1013 NOSIG", "VEGY 311500Z 00000KT 3000 HZ SCT020 22/17 Q1014", "VEPT 311530Z 25003KT 4000 HZ NSC 25/20 Q1012 NOSIG", "VERC 311530Z 00000KT 4000 HZ NSC 21/16 Q1017 NOSIG", "VERP 311530Z 07004KT 4000 HZ NSC 23/19 Q1015 NOSIG", "VGEG 311500Z 32007KT 4000 HZ NSC 29/26 Q1011 NOSIG", "VGHS 311530Z 00000KT 3500 HZ NSC 28/20 Q1012 NOSIG", "VHHH 311530Z 02019KT 9999 FEW030 26/11 Q1009 NOSIG", "VIAR 311530Z 09005KT 1500 R34/2000 BR FEW100 22/19 Q1014 NOSIG", "VIDP 311530Z 00000KT 1800 R28/P2000 R29/P2000 FU NSC 23/16 Q1015 NOSIG", "VIJP 311530Z VRB02KT 2500 FU NSC 24/14 Q1017 NOSIG", "VILK 311530Z 00000KT 2500 BR NSC 22/21 Q1014 NOSIG", "VMMC 311530Z 36021KT 9999 FEW040 25/17 Q1008 NOSIG", "VOBG 311500Z 04005KT 6000 FEW012 SCT080 22/16 Q1017 NOSIG", "VOBL 311530Z 01004KT 6000 NSC 22/16 Q1017 NOSIG", "VOBZ 311530Z VRB02KT 3000 BR SCT018 OVC080 26/23 Q1012 NOSIG", "VOCB 311530Z VRB03KT 5000 HZ FEW012 SCT080 26/20 Q1013 NOSIG", "VOCI 311530Z 24002KT 4000 TS SCT012 FEW025CB OVC080 24/24 Q1011 NOSIG", "VOCL 311530Z 10003KT 3000 -TSRA FEW006 SCT012 FEW025CB BKN080 24/21 Q1011 NOSIG", "VOGO 311500Z 04004KT 6000 NSC 28/22 Q1011 NOSIG", "VOHB 311530Z 11004KT 6000 NSC 24/15 Q1015", "VOHS 311530Z 06007KT 5000 BR FEW020 22/18 Q1016 NOSIG", "VOHY 311530Z 05005KT 5000 HZ NSC 22/15 Q1016 NOSIG", "VOKN 311530Z VRB02KT 3500 BR FEW012 FEW025TCU SCT080 29/25 Q1011 NOSIG", "VOMD 311500Z 06004KT 5000 HZ NSC 26/22 Q1011 NOSIG", "VOML 311530Z 00000KT 6000 NSC 28/22 Q1011 NOSIG", "VOMM 311530Z 04008KT 2000 -TSRA SCT018 FEW025CB BKN080 25/24 Q1012 NOSIG", "VOPB 311500Z 07003KT 5000 BR SCT014 SCT220 27/23 Q1011 NOSIG", "VORY 311530Z 03005KT 6000 FEW020 BKN090 26/25 Q1012 NOSIG", "VOTP 311530Z 09005KT 4000 HZ FEW020 SCT080 25/21 Q1013 NOSIG", "VOTR 311530Z 03005KT 3000 HZ SCT016 BKN100 27/22 Q1011 NOSIG", "VOTV 311530Z 21004KT 2000 TSRA SCT008 SCT012 FEW025CB OVC080 25/24 Q1012 NOSIG", "VOVZ 311500Z 06004KT 4000 HZ NSC 27/22 Q1013 NOSIG", "VRMG 311500Z 31007KT 9999 FEW017TCU BKN260 27/24 Q1012 TEMPO 5000 SHRA", "VRMH 311500Z 26005KT 9999 FEW019 28/23 Q1011", "VRMM 311500Z 23011KT 9999 FEW017 FEW018CB BKN280 27/24 Q1012 CB ENE NOSIG", "VTBD 311530Z 05005KT 9999 FEW020 27/21 Q1012 NOSIG", "VTBS 311530Z 07008KT 8000 FEW020 29/20 Q1011 NOSIG", "VTBU 311530Z 01006KT 5000 HZ NSC 26/19 Q1011 NOSIG", "VTCC 311530Z VRB02KT 9999 FEW035 24/20 Q1014 NOSIG", "VTCT 311500Z 00000KT 9999 FEW045 23/22 Q1015 NOSIG", "VTPP 311500Z 00000KT CAVOK 25/25 Q1012 NOSIG", "VTSB 311500Z 00000KT 8000 FEW020 26/25 Q1011 NOSIG", "VTSF 311500Z 34003KT 280V020 9999 FEW016TCU SCT022 27/27 Q1010 NOSIG", "VTSG 311500Z VRB02KT 6000 FEW020 BKN080 25/24 Q1011 NOSIG", "VTSM 311500Z 00000KT 9999 FEW020 28/24 Q1011 NOSIG", "VTSP 311530Z 34002KT 9999 FEW020 SCT050 25/24 Q1011 NOSIG", "VTSS 311530Z 00000KT 9999 FEW020 SCT100 25/24 Q1010 NOSIG", "VTUI 311500Z 12005KT 9999 FEW035 24/17 Q1013 NOSIG", "VTUK 311500Z 10002KT 9000 NSC 23/20 Q1014 NOSIG", "VTUU 311500Z 05007KT 9000 NSC 23/20 Q1013 NOSIG", "VVCI 311530Z 33004KT CAVOK 23/13 Q1014 NOSIG", "VVCR 311530Z VRB01KT 8000 FEW015 25/23 Q1011 NOSIG", "VVCT 311530Z 30001KT 9999 FEW015 24/24 Q1010 NOSIG", "VVDN 311530Z 34012KT 9999 FEW015 SCT060 26/17 Q1013 NOSIG", "VVNB 311530Z VRB03KT CAVOK 24/13 Q1016 NOSIG", "VVPB 311530Z 28007KT 8000 SCT015 BKN060 24/19 Q1014 NOSIG", "VVPQ 311530Z VRB01KT 9999 FEW017 25/23 Q1010 NOSIG", "VVTS 311530Z VRB01KT 9999 SCT020 28/26 Q1010 NOSIG", "VYYY 311530Z 23004KT 7000 FEW016 28/25 Q1011 NOSIG", "WAAA 311530Z 11002KT 8000 FEW019 26/24 Q1009 NOSIG", "WABB 311530Z 02003KT 020V250 9999 FEW018 27/26 Q1009 NOSIG", "WADD 311530Z VRB01KT 9999 SCT017 26/23 Q1010 NOSIG", "WADL 311530Z 03002KT 7000 SCT016 25/23 Q1011 NOSIG", "WAHS 311530Z AUTO 25001KT 6000 BKN049 OVC060 27/24 Q1009", "WAJJ 311530Z 32003KT 9000 -RA FEW013 24/22 Q1006 NOSIG", "WALL 311530Z 20005KT 9000 SCT020 29/25 Q1008 NOSIG", "WAMM 311530Z VRB01KT 9999 SCT021 24/23 Q1008 NOSIG", "WAOO 311530Z AUTO VRB01KT 9999 BKN210 26/23 Q1008 NOSIG", "WAPP 311530Z 01004KT 9999 FEW018CB 26/24 Q1009 NOSIG RMK CB TO NW", "WAQQ 311530Z 12003KT 8000 FEW015B SCT015 29/26 Q1008 NOSIG RMK CB TO N METAR WAYY NIL", "WARR 311530Z VRB02KT 8000 SCT020 28/25 Q1009 NOSIG", "WBGB 311500Z 26003KT 210V330 5000 TSRA FEW005 FEW015CB SCT016 25/25 Q1011", "WBGG 311530Z VRB03KT 9999 SCT020 26/24 Q1010 NOSIG", "WBGR 311500Z VRB08KT 9999 SCT014 FEW015CB 27/23 Q1011", "WBGS 311500Z 00000KT 9999 FEW005 SCT017 25/25 Q1010", "WBGY 311500Z AUTO VRB02KT //// // ////// 25/24 Q1010", "WBKK 311530Z 18004KT 140V230 9999 -RA FEW013 SCT035 26/25 Q1009 NOSIG", "WBKL 311500Z 25003KT 190V320 8000 -RA FEW010 SCT030 26/25 Q1010", "WBKS 311500Z VRB03KT 5000 RA FEW007 SCT030 24/24 Q1010", "WBKT 311500Z 25006KT 210V300 8000 -RA FEW013 SCT032 25/24 Q1009 RERA", "WBKW 311500Z VRB02KT 9999 FEW016 26/25 Q1009", "WBSB 311530Z 23008KT 6000 -TSRA FEW004 SCT012 FEW015CB BKN150 25/25 Q1011 TEMPO 5000 TSRA", "WIBB 311530Z 00000KT 6000 BKN012 28/25 Q1009", "WIDD 311530Z 02005KT 9999 FEW014 28/25 Q1012 NOSIG", "WIEE 311530Z 06001KT 9999 SCT020 25/25 Q1011 NOSIG", "WIMM 311530Z 30004KT 4000 -TSRA FEW015CB BKN016 24/24 Q1011 NOSIG RMK CB OVER THE FIELD", "WIOO 311530Z 03003KT 6000 SCT012 25/24 Q1010 NOSIG", "WIPP 311530Z 00000KT 8000 FEW010 26/24 Q1010 NOSIG", "WMAU 311500Z 00000KT 9000 -RA SCT025 27/25 Q1011", "WMBA 311500Z VRB01KT 9000 FEW031 27/25 Q1010", "WMKA 311500Z 00000KT 9000 FEW012 25/24 Q1011", "WMKB 311500Z VRB02KT 8000 -RA FEW010 SCT023 26/25 Q1010 NOSIG", "WMKC 311500Z 00000KT 9999 -RA FEW010 25/25 Q1011", "WMKD 311500Z 30018G29KT 260V320 8000 -TSRA FEW016CB SCT024 24/23 Q1011 TEMPO 4000 TSRA", "WMKE 311500Z AUTO VRB01KT //// // ////// 26/25 Q1011", "WMKI 311500Z 04005KT 360V080 8000 FEW025 27/23 Q1011", "WMKJ 311500Z VRB03KT 9999 FEW022 26/25 Q1010", "WMKK 311530Z VRB02KT 9999 FEW010 SCT030 27/24 Q1010 NOSIG", "WMKL 311500Z VRB02KT 9999 FEW026 26/25 Q1011", "WMKM 311500Z 00000KT 9999 FEW028 27/24 Q1011", "WMKN 311500Z VRB02KT 9000 -RA SCT020 25/25 Q1011 RERA", "WMKP 311530Z 00000KT 6000 -RA FEW012 SCT024 26/25 Q1011 NOSIG", "WMSA 311500Z VRB02KT 9999 FEW026 28/24 Q1011", "WSAP 311500Z 02005KT 9999 FEW018 SCT160 28/24 Q1010", "WSSL 311500Z 01004KT 330V030 CAVOK 27/24 Q1010", "WSSS 311530Z 34005KT 9999 FEW018 SCT160 27/24 Q1010 NOSIG", "YABA 311522Z AUTO 22011KT 9999 // SCT015 SCT020 BKN025 12/10 Q1025", "YAMB 311530Z AUTO 02006KT 9999 // SCT077 SCT120 25/15 Q1000", "YBAS 311530Z AUTO 21008KT 9999 // NCD 15/M01 Q1014 RF00.0/000.2", "YBBN 311530Z 02016KT 9999 -RA NSC 24/20 Q1001", "YBCG 311530Z AUTO 36016KT 9999 -RA SCT069 SCT100 23/20 Q1000", "YBCS 311530Z AUTO 31003KT 9999 // SCT024 OVC035 28/23 Q1006", "YBHM 311530Z AUTO 36012KT //// // BKN020 27/24 Q1006 RF00.0/000.0", "YBLN 311530Z AUTO 20004KT 9999 // ////// 11/11 Q1027 RF00.0/000.0", "YBMA 311530Z AUTO 18015KT 9999 // NCD 26/17 Q1008 RF00.0/000.6", "YBRK 311530Z AUTO 03006KT 9999 // NCD 24/21 Q1005 RF00.0/000.0", "YBRM 311530Z AUTO 14012KT 9999 // NCD 27/05 Q1011 RF00.0/000.0", "YBTL 311545Z AUTO 36010KT 9999 // SCT015 BKN018 BKN029 28/25 Q1006", "YBUD 311530Z AUTO 36009KT 9999 // OVC009 OVC014 24/23 Q1005", "YBWW 311530Z AUTO 35009KT 9999 // OVC100 OVC120 21/18 Q1002", "YCBA 311510Z AUTO 27015G26KT 9999 // SCT037 OVC070 15/09 Q0997", "YCBB 311530Z AUTO 32018G29KT 9999 -SHRA SCT054 SCT069 BKN095 15/13 Q0996", "YCDU 311550Z AUTO 27024G42KT 4600 RA BKN014 BKN025 BKN042 11/10 Q1002", "YCFS 311537Z AUTO 36017G27KT 9999 // NCD 25/19 Q0994 RF00.0/000.0", "YCIN 311530Z AUTO 15009KT 9999 // NCD 26/01 Q1010 RF00.0/000.0", "YEML 311532Z AUTO 06013KT 9999 VCTS -SHRA SCT022 SCT100 24/24 Q1002 RETS", "YFRT 311530Z AUTO 26020KT 9999 // SCT031 SCT043 BKN054 13/08 Q1014", "YGEL 311530Z AUTO 14012KT 9999 // NCD 14/09 Q1025 RF00.0/000.0", "YGLA 311530Z AUTO 36006KT 9999 // BKN015 BKN020 OVC029 25/22 Q1006", "YGTH 311455Z AUTO 27011KT 9999 // SCT009 OVC067 12/12 Q0992", "YHID 311530Z AUTO 11006KT 9999 // NCD 27/// Q1007 RF00.0/000.0", "YLIS 311500Z AUTO 36008KT 9999 // SCT083 SCT115 23/21 Q0998", "YLRE 311530Z AUTO 20017KT 6000 // SCT019 BKN037 BKN077 20/18 Q1006", "YMAV 311530Z AUTO 28010KT 9999 // OVC087 09/07 Q0988 RF00.0/001.0", "YMAY 311557Z AUTO 29010KT 9999 // SCT016 OVC059 12/11 Q0988", "YMDG 311535Z AUTO 33018G28KT 9999 -RA BKN020 BKN030 OVC049 17/16 Q0992 RERA", "YMER 311532Z AUTO 22005KT 190V270 5000 RA BKN024 BKN039 OVC072 14/14 Q0983", "YMHB 311530Z AUTO 28012KT 9999 // NCD 10/04 Q0982 RF00.0/000.0", "YMLT 311530Z AUTO 34004KT 9999 // NCD 05/04 Q0983 RF00.0/001.6", "YMML 311530Z 28009KT CAVOK 09/07 Q0989", "YMOR 311532Z AUTO 25017KT 1600 TS SCT012 SCT022 BKN031 18/17 Q0998", "YPAD 311530Z 29015KT 9999 -SHRA FEW018 SCT026 BKN052 10/06 Q0993", "YPCC 311530Z AUTO 11009KT 9999 // SCT029 SCT038 26/21 Q1013", "YPDN 311530Z AUTO 26007KT 9999 // NCD 29/25 Q1008", "YPEA 311530Z AUTO 16006KT 9999 // NCD 11/07 Q1025", "YPGV 311530Z AUTO 33005KT 9999 // NCD 27/24 Q1008 RF00.0/000.0", "YPJT 311530Z AUTO 18008KT 9999 // NCD 12/07 Q1026 RF00.0/000.0", "YPKG 311530Z AUTO 21007KT 9999 // NCD 11/05 Q1022 RF00.0/000.0", "YPKU 311530Z AUTO 01008KT 9999 // NCD 27/23 Q1007 RF00.0/000.0", "YPLM 311530Z AUTO 21009KT 9999 // NCD 16/M06 Q1016 RF00.0////./", "YPPD 311530Z AUTO 14009KT 9999 // NCD 22/M10 Q1015 RF00.0/000.0", "YPPH 311530Z 19010KT CAVOK 12/07 Q1026", "YPTN 311530Z AUTO 31010KT 9999 // NCD 30/17 Q1008 RF00.0/000.0", "YPWR 311530Z AUTO 30021KT 9999 // SCT038 BKN045 OVC091 11/06 Q1002", "YPXM 311542Z AUTO 13011KT 9999 // BKN011 BKN020 OVC029 22/21 Q1013", "YSCB 311554Z AUTO 29020KT 9999 -SHRA SCT031 BKN047 BKN056 14/10 Q0987", "YSDU 311549Z AUTO 28022G33KT 5000 UP SCT012 BKN024 OVC057 14/12 Q0995", "YSNF 311530Z AUTO 00000KT 9999 // ////// 14/13 Q1012 RF00.0/000.0", "YSNW 311530Z AUTO 30021G35KT 9999 // SCT065 21/14 Q0984", "YSRI 311530Z AUTO 36011KT 9999 // NCD 22/19 Q0987 RF00.0/001.0", "YSSY 311530Z 33019KT 9999 FEW040 SCT160 BKN245 23/16 Q0986", "YSTW 311550Z AUTO 31018G28KT 2700 SHRA SCT013 SCT020 BKN025 17/16 Q0997", "YSWG 311535Z AUTO 27014KT 9999 // SCT010 SCT020 BKN033 12/10 Q0989", "YWGT 311530Z AUTO 29004KT 260V330 //// // BKN014 BKN071 11/11 Q0988", "YWHA 311520Z AUTO 30011KT 9999 -RA SCT016 BKN055 BKN064 10/09 Q0997", "YWLM 311530Z AUTO 32013KT 9999 // OVC100 21/18 Q0991 RERA RF00.0/007.6", "ZBAA 311530Z VRB01MPS CAVOK 03/M06 Q1028 NOSIG", "ZBAD 311530Z VRB01MPS CAVOK 03/M04 Q1027 NOSIG", "ZBHH 311500Z 05002MPS CAVOK M03/M07 Q1027 NOSIG", "ZBSJ 311500Z 07001MPS CAVOK 06/01 Q1026 NOSIG", "ZBTJ 311530Z 32003MPS CAVOK 10/M06 Q1027 NOSIG", "ZBYN 311530Z 10002MPS CAVOK 04/M03 Q1026 NOSIG", "ZGGG 311530Z 36009MPS CAVOK 24/12 Q1012 NOSIG", "ZGHA 311500Z 02002MPS CAVOK 15/09 Q1022 NOSIG", "ZGKL 311500Z 04006MPS CAVOK 21/08 Q1019 NOSIG", "ZGNN 311500Z 36003MPS CAVOK 22/11 Q1016 NOSIG", "ZGOW 311500Z 02002MPS 9999 FEW020 BKN050 21/18 Q1011 NOSIG", "ZGSZ 311500Z 02008MPS CAVOK 26/11 Q1010 NOSIG", "ZHCC 311500Z 00000MPS 2800 BR NSC 12/09 Q1025 NOSIG", "ZHHH 311500Z 01002MPS 340V040 8000 NSC 16/09 Q1023 NOSIG", "ZJHK 311500Z 34007MPS CAVOK 24/15 Q1011 NOSIG", "ZJSY 311500Z VRB01MPS CAVOK 22/16 Q1011 NOSIG", "ZLLL 311500Z 32003MPS CAVOK 03/M00 Q1023 NOSIG", "ZLXY 311500Z VRB01MPS 6000 NSC 10/10 Q1024 NOSIG", "ZPPP 311500Z 04005MPS CAVOK 08/06 Q1030 NOSIG", "ZSAM 311500Z 04008MPS 9999 -RA FEW033 22/17 Q1013 NOSIG", "ZSFZ 311500Z 02006MPS 9999 OVC033 19/15 Q1016 NOSIG", "ZSHC 311530Z 05002MPS CAVOK 15/12 Q1022 NOSIG", "ZSJN 311545Z VRB01MPS 1600 PRFG BR SCT030 07/07 Q1026 NOSIG", "ZSNB 311500Z 34002MPS CAVOK 18/14 Q1022 NOSIG", "ZSNJ 311500Z 02002MPS CAVOK 17/14 Q1023 NOSIG", "ZSOF 311500Z 03002MPS 5000 BR NSC 15/12 Q1024 NOSIG", "ZSPD 311530Z 03005MPS CAVOK 17/12 Q1022 NOSIG", "ZSQD 311500Z 35003MPS 2800 BR NSC 12/10 Q1025 BECMG TL1600 3500", "ZSSS 311530Z 03002MPS 010V080 CAVOK 16/12 Q1022 NOSIG", "ZUCK 311500Z 00000MPS CAVOK 17/13 Q1024 NOSIG", "ZUGY 311500Z 01002MPS 9999 SCT026 11/10 Q1026 NOSIG", "ZUTF 311500Z 22001MPS 8000 NSC 14/13 Q1024 NOSIG", "ZUUU 311500Z 21001MPS CAVOK 16/14 Q1024 NOSIG", "ZWSH 311500Z AUTO 34002MPS 9000 // ///////// 10/M03 Q1020", "ZWWW 311530Z 03002MPS CAVOK 06/M03 Q1026 NOSIG", "ZYCC 311500Z 30004MPS 270V340 9999 SCT030 06/M05 Q1021 NOSIG", "ZYHB 311500Z 25007MPS CAVOK 03/M03 Q1018 NOSIG", "ZYTL 311530Z 00000MPS 5000 BR SCT033 08/06 Q1024 NOSIG", "ZYTX 311530Z 32004MPS CAVOK 08/M04 Q1025 NOSIG"]}