station_id, observation_time,raw_text
AGGH,2023-04-25T21:00:00Z,AGGH 252100Z 18002KT 9999 FEW017 SCT300 27/24 Q1009
AGGM,2023-04-25T21:00:00Z,AGGM 252100Z 00000KT 9999 FEW017 SCT100 28/25 Q1009
AYMH,2023-04-25T21:00:00Z,AYMH 252100Z VRB03KT 5000M FG BKN005 16/16 Q1020
AYNZ,2023-04-25T21:00:00Z,AYNZ 252100Z 34003KT 9999 BKN020 OVC090 26/22 Q1009
AYPY,2023-04-25T21:00:00Z,AYPY 252100Z VRB03KT 9999 HZ FEW030 24/23 Q1008
BGBW,2023-04-25T20:50:00Z,BGBW 252050Z 23007KT 9999 FEW045 SCT120 BKN160 07/M01 Q1029
BGGH,2023-04-25T20:50:00Z,BGGH 252050Z 20019KT 9999 FEW005 BKN067 01/00 Q1027
BGJN,2023-04-25T20:50:00Z,BGJN 252050Z AUTO 19003KT 7000NDV -SN BKN005/// OVC013/// 01/00 Q1024
BGKK,2023-04-25T20:50:00Z,BGKK 252050Z AUTO 26005KT 9999NDV NCD M00/M05 Q1032
BGSF,2023-04-25T20:50:00Z,BGSF 252050Z AUTO 05005KT 9999NDV FEW007/// BKN036/// BKN041/// OVC048/// 02/01 Q1026
BGTL,2023-04-25T20:55:00Z,BGTL 252055Z 00000KT 2800 -SN BKN004 OVC020 M05/M08 A3025 RMK AO2 CIG 003 RWY26 SLP230 60003 TSNO $
BIAR,2023-04-25T21:00:00Z,BIAR 252100Z 31007KT 280V350 9999 -RASN SCT025 OVC056 M00/M06 Q1029
BIEG,2023-04-25T21:00:00Z,BIEG 252100Z 02009KT 8000 -SHSN BR FEW010 SCT025 OVC050 M02/M04 Q1029
BIKF,2023-04-25T21:00:00Z,BIKF 252100Z 01005KT 9999 VCSH SCT011 BKN017 BKN031 02/01 Q1025
BIRK,2023-04-25T21:00:00Z,BIRK 252100Z 13004KT 090V160 9999 -SHRA FEW020 BKN048 BKN066 04/00 Q1026
BKPR,2023-04-25T21:00:00Z,BKPR 252100Z VRB01KT 9999 BKN050 09/08 Q1008 NOSIG
CAHR,2023-04-25T21:00:00Z,CAHR 252100Z AUTO 01005KT 04/02 RMK AO1 SLP251 T00440021 53003
CBBC,2023-04-25T21:20:00Z,CBBC 252120Z AUTO 19007KT 150V240 9SM BKN038 OVC046 10/05 A3023 RMK SLP239
CERM,2023-04-25T21:00:00Z,CERM 252100Z AUTO 07002KT 08/03 RMK AO1 SLP240 T00750032 55002
CMFM,2023-04-25T21:00:00Z,CMFM 252100Z AUTO 09002KT 03/02 RMK AO1 SOG 29 3003 SLP222 T00340017
CMGB,2023-04-25T21:00:00Z,CMGB 252100Z AUTO 13004KT 07/04 RMK AO1 4PAST HR 3005 SLP214 P0005 T00650043 50014
CPIN,2023-04-25T21:00:00Z,CPIN 252100Z AUTO 05012KT ////SM ////// ///// A////
CTCK,2023-04-25T21:00:00Z,CTCK 252100Z AUTO 23005KT 10/M02 RMK AO1 SLP208 T01021024 56001
CTNK,2023-04-25T21:00:00Z,CTNK 252100Z AUTO 22003KT 06/M00 RMK AO1 5002 SLP200 T00641001 50003
CTRA,2023-04-25T21:00:00Z,CTRA 252100Z AUTO 36003KT 06/M08 RMK AO1 SLP269 T00641079 58010
CWAE,2023-04-25T21:00:00Z,CWAE 252100Z 18002KT 15SM FEW008TCU BKN140 12/01 A3018 RMK TCU1AC7 TCU TR WIND EST SLP230
CWAF,2023-04-25T21:00:00Z,CWAF 252100Z AUTO 05013KT 05/02 RMK AO1 PK WND 05017/2023 T00460015
CWAJ,2023-04-25T21:00:00Z,CWAJ 252100Z AUTO 10002KT RMK AO1 56004
CWAQ,2023-04-25T21:00:00Z,CWAQ 252100Z AUTO 17016G23KT 14/M03 RMK AO1 PK WND 14024/2008 SLP180 T01411026 56010
CWAR,2023-04-25T21:00:00Z,CWAR 252100Z AUTO 35014KT 04/M00 RMK AO1 PK WND 35020/2027 SLP210 T00401004 53004
CWAV,2023-04-25T21:00:00Z,CWAV 252100Z AUTO 26012G20KT 16/M07 RMK AO1 PK WND 26020/2050 SLP112 T01571070 56010
CWBA,2023-04-25T21:00:00Z,CWBA 252100Z AUTO 34005KT 05/01 RMK AO1 T00540014 50002
CWBK,2023-04-25T21:00:00Z,CWBK 252100Z AUTO 09005KT 05/03 RMK AO1 SLP251 T00490028 55002
CWBO,2023-04-25T21:00:00Z,CWBO 252100Z AUTO 26005KT 19/00 RMK AO1 SLP111 T01870000 57016
CWBS,2023-04-25T21:00:00Z,CWBS 252100Z AUTO 11009KT 08/04 RMK AO1 PK WND 14018/2039 T00770036
CWBT,2023-04-25T21:00:00Z,CWBT 252100Z AUTO 18002KT 06/00 RMK AO1 SLP264 T00580000 55000
CWBU,2023-04-25T21:00:00Z,CWBU 252100Z AUTO 15014G20KT 09/M04 RMK AO1 PK WND 15023/2022 SLP182 T00911036 58019
CWBV,2023-04-25T21:00:00Z,CWBV 252100Z AUTO 17008KT 06/02 RMK AO1 SLP230 T00590021 55000
CWBY,2023-04-25T21:00:00Z,CWBY 252100Z AUTO 22004KT 07/00 RMK AO1 SLP261 T00710000 50000
CWBZ,2023-04-25T21:00:00Z,CWBZ 252100Z AUTO 27004KT 11/02 RMK AO1 SLP210 T01100021 56002
CWCF,2023-04-25T21:00:00Z,CWCF 252100Z AUTO 29005KT 05/M08 RMK AO1 SLP271 T00521075 58011
CWCJ,2023-04-25T21:00:00Z,CWCJ 252100Z AUTO 03005KT 04/M04 RMK AO1 SOG 02 3003 SLP253 T00401043
CWCO,2023-04-25T21:00:00Z,CWCO 252100Z AUTO 01004KT 05/02 RMK AO1 SLP212 T00520021 53002
CWCT,2023-04-25T21:00:00Z,CWCT 252100Z AUTO 27010G15KT 15/02 RMK AO1 SLP121 T01450018 57014
CWDA,2023-04-25T21:00:00Z,CWDA 252100Z AUTO 00006KT 03/ RMK AO1 T0032
CWDC,2023-04-25T21:00:00Z,CWDC 252100Z AUTO 17007KT 07/M01 RMK AO1 SOG 02 6007 SLP121 T00731009
CWDJ,2023-04-25T21:00:00Z,CWDJ 252100Z AUTO 16019G26KT 09/M01 RMK AO1 PK WND 16028/2031 SLP202 T00931009 58009
CWDK,2023-04-25T21:00:00Z,CWDK 252100Z AUTO 27017G24KT 16/M02 RMK AO1 PK WND 25026/2018 SLP133 T01551019 55003
CWDM,2023-04-25T21:00:00Z,CWDM 252100Z AUTO 07007KT 09/M03 RMK AO1 SLP258 T00881033 56003
CWDO,2023-04-25T21:00:00Z,CWDO 252100Z AUTO 01016KT M01/M01 RMK AO1 PK WND 02020/2026 SLP240 T10101010 53004
CWDQ,2023-04-25T21:00:00Z,CWDQ 252100Z AUTO 12001KT 06/04 RMK AO1 SLP221 T00640038 53009
CWDV,2023-04-25T21:00:00Z,CWDV 252100Z AUTO 03004KT 05/M09 RMK AO1 SOG 11 7006 SLP260 T00451090
CWDZ,2023-04-25T21:00:00Z,CWDZ 252100Z AUTO 30006KT 19/M03 RMK AO1 SLP102 T01911033 56014
CWEF,2023-04-25T21:00:00Z,CWEF 252100Z AUTO 31009KT 04/01 RMK AO1 SLP237 T00360013 56002
CWEH,2023-04-25T21:00:00Z,CWEH 252100Z AUTO 23011KT 14/02 RMK AO1 PK WND 24018/2001 SLP137 T01440019 57011
CWEL,2023-04-25T21:00:00Z,CWEL 252100Z AUTO 36003KT 10/07 RMK AO1 SLP251 T01040071 58002
CWEP,2023-04-25T21:00:00Z,CWEP 252100Z AUTO 34006KT 03/02 RMK AO1 SLP255 T00250017 55001
CWEQ,2023-04-25T21:00:00Z,CWEQ 252100Z AUTO 12003KT 11/M07 RMK AO1 SLP226 T01101072 58018
CWER,2023-04-25T21:00:00Z,CWER 252100Z AUTO 06022KT RMK AO1 PK WND 06028/2026
CWEU,2023-04-25T21:00:00Z,CWEU 252100Z 12014KT 15SM SCT080 BKN120 OVC200 M19/M24 A3028 RMK AS3AS2CS3 SLP270
CWEW,2023-04-25T21:00:00Z,CWEW 252100Z AUTO 25008KT 10/03 RMK AO1 SLP219 T00990032 53007
CWEZ,2023-04-25T21:00:00Z,CWEZ 252100Z AUTO 11003KT 11/07 RMK AO1 SLP249 T01110072 50000
CWFF,2023-04-25T21:00:00Z,CWFF 252100Z AUTO 16019G26KT 09/M01 RMK AO1 PK WND 17027/2003 SLP173 T00861009 56021
CWFJ,2023-04-25T21:00:00Z,CWFJ 252100Z AUTO 26016G25KT 14/M04 RMK AO1 PK WND 27026/2037 T01351035
CWFQ,2023-04-25T21:00:00Z,CWFQ 252100Z AUTO 34005KT 09/02 RMK AO1 SLP210 T00920020 53004
CWGB,2023-04-25T21:00:00Z,CWGB 252100Z AUTO 03004KT 11/ RMK AO1 SLP249 T0106 56004
CWGD,2023-04-25T21:00:00Z,CWGD 252100Z AUTO 27005KT 06/M01 RMK AO1 SLP220 T00621013 55000
CWGH,2023-04-25T21:00:00Z,CWGH 252100Z AUTO 21004KT 10/M00 RMK AO1 SLP216 T01021002 55001
CWGL,2023-04-25T21:00:00Z,CWGL 252100Z AUTO 19006KT 05/01 RMK AO1 SLP195 T00460010 50000
CWGM,2023-04-25T21:00:00Z,CWGM 252100Z AUTO 25019G26KT 11/M04 RMK AO1 PK WND 27032/2009 SLP151 T01111044 56002
CWGR,2023-04-25T21:00:00Z,CWGR 252100Z AUTO 10005KT 06/01 RMK AO1 SLP251 T00550010 57001
CWGT,2023-04-25T21:00:00Z,CWGT 252100Z AUTO 13002KT 15/10 RMK AO1 SLP254 T01540102 58005
CWGY,2023-04-25T21:00:00Z,CWGY 252100Z AUTO 26006KT 17/01 RMK AO1 SOG 01 6019 SLP108 T01670006
CWHL,2023-04-25T21:00:00Z,CWHL 252100Z AUTO 14013KT 08/04 RMK AO1 SLP201 T00840044 58004
CWHO,2023-04-25T21:00:00Z,CWHO 252100Z AUTO 00003KT 02/M00 RMK AO1 SLP280 T00221001 53001
CWHP,2023-04-25T21:00:00Z,CWHP 252100Z AUTO 04007KT 00/M00 RMK AO1 SLP254 T00001003 57002
CWHQ,2023-04-25T21:00:00Z,CWHQ 252100Z AUTO 10005KT 08/06 RMK AO1 3PAST HR M P0001 T00830057 50003
CWHT,2023-04-25T21:00:00Z,CWHT 252100Z AUTO 26010G16KT 04/M07 RMK AO1 SOG 11 7003 PK WND 25017/2048 SLP149 T00361067
CWHV,2023-04-25T21:00:00Z,CWHV 252100Z AUTO 12007KT 09/03 RMK AO1 SLP210 T00930033 57005
CWID,2023-04-25T21:00:00Z,CWID 252100Z AUTO 04004KT 07/M00 RMK AO1 SLP093 T00681002 53009
CWIG,2023-04-25T21:00:00Z,CWIG 252100Z AUTO 03011G16KT RMK AO1 PK WND 02018/2003
CWII,2023-04-25T21:00:00Z,CWII 252100Z AUTO 34005KT 02/M04 RMK AO1 SLP268 T00221035 58011
CWIJ,2023-04-25T21:00:00Z,CWIJ 252100Z AUTO 09012KT M04/M05 RMK AO1 SOG 78 8004 SLP194 T10421053
CWIK,2023-04-25T21:00:00Z,CWIK 252100Z AUTO 16012KT 09/M03 RMK AO1 PK WND 15019/2044 SLP228 T00881026 57013
CWIL,2023-04-25T21:00:00Z,CWIL 252100Z AUTO ///// ////SM SCT065 BKN070 BKN110 M07/M09 A3029
CWIP,2023-04-25T21:00:00Z,CWIP 252100Z AUTO 13004KT 07/01 RMK AO1 T00730005
CWIS,2023-04-25T21:00:00Z,CWIS 252100Z AUTO 07002KT 01/M00 RMK AO1 3PAST HR SOG 84 3004 SLP235 P0005 T00071003 50020
CWIT,2023-04-25T21:00:00Z,CWIT 252100Z AUTO 26003KT 07/04 RMK AO1 2002 SLP216 T00740035 50012
CWIW,2023-04-25T21:00:00Z,CWIW 252100Z AUTO 17026G31KT 11/02 RMK AO1 PK WND 18033/2043 SLP168 T01100016 57015
CWIZ,2023-04-25T21:00:00Z,CWIZ 252100Z AUTO 29007KT 09/03 RMK AO1 T00890031
CWJB,2023-04-25T21:00:00Z,CWJB 252100Z AUTO 07/05 RMK AO1 T00700054
CWJC,2023-04-25T21:00:00Z,CWJC 252100Z AUTO 14021KT M02/M05 RMK AO1 SOG 01 6011 PK WND 14031/2038 SLP243 T10151054
CWJD,2023-04-25T21:00:00Z,CWJD 252100Z AUTO 09007KT 07/M06 RMK AO1 PK WND 11017/2011 SLP254 T00681063 56014
CWJH,2023-04-25T21:00:00Z,CWJH 252100Z AUTO 16004KT 09/M06 RMK AO1 SOG 03 8018 PK WND 15018/2019 SLP190 T00911058
CWJI,2023-04-25T21:00:00Z,CWJI 252100Z AUTO 17011G18KT 12/M01 RMK AO1 PK WND 18022/2034 SLP174 T01191012 58006
CWJO,2023-04-25T21:00:00Z,CWJO 252100Z AUTO 09006KT 10/02 RMK AO1 PK WND 13018/2021 SLP214 T01040017
CWJR,2023-04-25T21:00:00Z,CWJR 252100Z AUTO 20009G17KT 16/03 RMK AO1 PK WND 23020/2002 SLP189 T01620029 58011
CWJT,2023-04-25T21:00:00Z,CWJT 252100Z AUTO 12002KT 08/06 RMK AO1 SLP211 T00800061 51008
CWJU,2023-04-25T21:00:00Z,CWJU 252100Z AUTO 10006KT 09/03 RMK AO1 SLP175 T00920034 57023
CWJV,2023-04-25T21:00:00Z,CWJV 252100Z AUTO 28003KT 15/01 RMK AO1 SLP199 T01540010 58009
CWJW,2023-04-25T21:00:00Z,CWJW 252100Z AUTO 16005KT 13/M08 RMK AO1 SOG 01 8002 PK WND 14017/2000 SLP135 T01301078
CWJX,2023-04-25T21:00:00Z,CWJX 252100Z AUTO 22011G18KT 19/M02 RMK AO1 SOG 01 7019 PK WND 25021/2043 SLP098 T01901018
CWKG,2023-04-25T21:00:00Z,CWKG 252100Z AUTO 15004KT 11/02 RMK AO1 SLP232 T01060017 53005
CWKH,2023-04-25T21:00:00Z,CWKH 252100Z AUTO 11/04 RMK AO1 SLP239 T01090043 50000
CWKM,2023-04-25T21:00:00Z,CWKM 252100Z AUTO 10022G30KT ////SM BKN002 M18/M21 A3018
CWKO,2023-04-25T21:00:00Z,CWKO 252100Z AUTO 16015KT 13/M04 RMK AO1 PK WND 17023/2025 SLP181 T01261037 57005
CWKX,2023-04-25T21:00:00Z,CWKX 252100Z AUTO 21006KT 03/M09 RMK AO1 SOG 08 8001 SLP187 T00321094
CWLB,2023-04-25T21:00:00Z,CWLB 252100Z AUTO 02005KT 05/02 RMK AO1 PK WND 33023/2002 SLP134 T00450017 53013
CWLC,2023-04-25T21:00:00Z,CWLC 252100Z AUTO 13015KT 07/04 RMK AO1 PK WND 13018/2025 T00700040
CWLE,2023-04-25T21:00:00Z,CWLE 252100Z AUTO 19019G25KT 16/M00 RMK AO1 SOG 01 7017 PK WND 19027/2023 SLP135 T01571001
CWLM,2023-04-25T21:00:00Z,CWLM 252100Z AUTO 21010KT 11/06 RMK AO1 SLP251 T01050061 50000
CWLP,2023-04-25T21:00:00Z,CWLP 252100Z AUTO 15012KT 09/04 RMK AO1 SLP246 T00850035 58007
CWLS,2023-04-25T21:00:00Z,CWLS 252100Z AUTO 31009G15KT 07/M06 RMK AO1 SLP208 T00701062 53001
CWLX,2023-04-25T21:00:00Z,CWLX 252100Z AUTO ///// ////SM ////// M03/M05 A3029
CWME,2023-04-25T21:00:00Z,CWME 252100Z AUTO 22006KT 10/03 RMK AO1 SLP236 T01010027 58008
CWMJ,2023-04-25T21:00:00Z,CWMJ 252100Z AUTO 20008KT 09/M03 RMK AO1 SLP204 T00901034 51001
CWMM,2023-04-25T21:00:00Z,CWMM 252100Z AUTO 13003KT 14/04 RMK AO1 1PAST HR 8007 SLP252 P0000 T01350044 50001
CWMQ,2023-04-25T21:00:00Z,CWMQ 252100Z AUTO 20008KT 18/02 RMK AO1 PK WND 20018/2045 SLP118 T01770024 56014
CWMT,2023-04-25T21:00:00Z,CWMT 252100Z AUTO 01006KT 06/M02 RMK AO1 SLP117 T00551024 53001
CWNC,2023-04-25T21:00:00Z,CWNC 252100Z AUTO 22013KT 06/03 RMK AO1 SLP215 T00550033 55002
CWND,2023-04-25T21:00:00Z,CWND 252100Z AUTO 12011KT M19/M22 RMK AO1 SLP231 T11941221 58008
CWNE,2023-04-25T21:00:00Z,CWNE 252100Z AUTO 08010KT 02/02 RMK AO1 SLP253 T00150017 53004
CWNH,2023-04-25T21:00:00Z,CWNH 252100Z AUTO 01006KT 07/03 RMK AO1 SLP236 T00670029 56003
CWNK,2023-04-25T21:00:00Z,CWNK 252100Z AUTO 17008KT 08/M05 RMK AO1 SLP267 T00821047 57008
CWNM,2023-04-25T21:00:00Z,CWNM 252100Z AUTO 26006KT 17/02 RMK AO1 SLP185 T01680019 56011
CWNP,2023-04-25T21:00:00Z,CWNP 252100Z AUTO 28002KT 17/01 RMK AO1 SLP184 T01720010 58011
CWNQ,2023-04-25T21:00:00Z,CWNQ 252100Z AUTO 15003KT 10/04 RMK AO1 SLP213 T01040043 53001
CWNZ,2023-04-25T21:00:00Z,CWNZ 252100Z AUTO 34009G15KT 01/M04 RMK AO1 SOG 10 6003 SLP249 T00091037
CWOB,2023-04-25T21:00:00Z,CWOB 252100Z AUTO 13002KT ////SM ////// 07/00 A3032
CWOC,2023-04-25T21:00:00Z,CWOC 252100Z AUTO 09006KT 02/02 RMK AO1 SLP252 T00150015 53001
CWOD,2023-04-25T21:00:00Z,CWOD 252100Z AUTO 13009KT 09/04 RMK AO1 SLP218 T00870037 53002
CWOE,2023-04-25T21:00:00Z,CWOE 252100Z AUTO 11013G20KT 17/M01 RMK AO1 PK WND 12020/2054 SLP131 T01711011 56016
CWOY,2023-04-25T21:00:00Z,CWOY 252100Z AUTO 16020G28KT 10/M02 RMK AO1 PK WND 16028/2055 SLP189 T00971015 58017
CWPD,2023-04-25T21:00:00Z,CWPD 252100Z AUTO 06002KT 03/01 RMK AO1 SLP208 T00330011 53005
CWPE,2023-04-25T21:00:00Z,CWPE 252100Z AUTO 12005KT 07/04 RMK AO1 SLP241 T00690039 56003
CWPF,2023-04-25T21:15:00Z,CWPF 252115Z AUTO 16007KT 10/06 RMK AO1 SLP247 T00950060 58003
CWPO,2023-04-25T21:00:00Z,CWPO 252100Z AUTO 16009KT 07/M02 RMK AO1 SOG 13 8008 SLP271 T00711020
CWPR,2023-04-25T21:00:00Z,CWPR 252100Z AUTO 32009KT 15/M03 RMK AO1 SLP198 T01501031 56010
CWPZ,2023-04-25T21:00:00Z,CWPZ 252100Z AUTO 28007KT 08/M05 RMK AO1 SLP202 T00761050 50001
CWQH,2023-04-25T21:00:00Z,CWQH 252100Z AUTO 22007KT 06/04 RMK AO1 4PAST HR 3008 SLP220 P0005 T00550042 50014
CWQK,2023-04-25T21:00:00Z,CWQK 252100Z AUTO 23011KT 09/05 RMK AO1 SLP250 T00870053 58003
CWQO,2023-04-25T21:00:00Z,CWQO 252100Z AUTO 04009KT 04/02 RMK AO1 T00430022
CWQP,2023-04-25T21:00:00Z,CWQP 252100Z AUTO 20012KT 06/02 RMK AO1 PK WND 20017/2000 SLP223 T00610024 58003
CWQR,2023-04-25T21:00:00Z,CWQR 252100Z AUTO 26004KT 05/02 RMK AO1 T00480016
CWQS,2023-04-25T21:00:00Z,CWQS 252100Z AUTO 14009KT 08/04 RMK AO1 SLP165 T00820043 58022
CWQV,2023-04-25T21:00:00Z,CWQV 252100Z AUTO 09012KT 07/ RMK AO1 T0070
CWRA,2023-04-25T21:00:00Z,CWRA 252100Z AUTO 01/01 RMK AO1 SLP192 T00050008 53004
CWRJ,2023-04-25T21:00:00Z,CWRJ 252100Z AUTO 19012G19KT 18/M02 RMK AO1 PK WND 20021/2005 SLP107 T01841022 58023
CWRK,2023-04-25T21:00:00Z,CWRK 252100Z AUTO 20004KT 08/M03 RMK AO1 SLP198 T00811031 50000
CWRM,2023-04-25T21:00:00Z,CWRM 252100Z AUTO 26011G18KT 16/M07 RMK AO1 SOG 01 6012 PK WND 28021/2035 SLP083 T01631070
CWRN,2023-04-25T21:00:00Z,CWRN 252100Z AUTO 12008KT 04/02 RMK AO1 SLP246 T00400019 55002
CWRO,2023-04-25T21:00:00Z,CWRO 252100Z AUTO 15018KT 10/ RMK AO1 PK WND 15023/2043 SLP192 T0100 58012
CWRT,2023-04-25T21:00:00Z,CWRT 252100Z AUTO 28011G21KT 11/M03 RMK AO1 PK WND 29027/2030 SLP171 T01081032 55007
CWRU,2023-04-25T21:00:00Z,CWRU 252100Z AUTO 16017KT 08/ RMK AO1 PK WND 16021/2050 SLP246 T0076 58001
CWRY,2023-04-25T21:00:00Z,CWRY 252100Z AUTO 28014G20KT 17/M03 RMK AO1 SOG 09 6013 PK WND 28022/2027 SLP129 T01731033
CWRZ,2023-04-25T21:00:00Z,CWRZ 252100Z AUTO 04004KT 04/02 RMK AO1 SLP255 T00390015 58002
CWSA,2023-04-25T21:00:00Z,CWSA 252100Z AUTO 03007KT 9SM 05/02 A3023 RMK CLD MISG SLP239
CWSD,2023-04-25T21:00:00Z,CWSD 252100Z AUTO 18004KT 07/02 RMK AO1 SLP250 T00670021 51003
CWSF,2023-04-25T21:00:00Z,CWSF 252100Z AUTO 09010G17KT 04/02 RMK AO1 PK WND 07018/2022 SLP247 T00350016 55004
CWSG,2023-04-25T21:00:00Z,CWSG 252100Z AUTO 06008KT 06/02 RMK AO1 SLP254 T00570017 56002
CWSK,2023-04-25T21:00:00Z,CWSK 252100Z AUTO 18007KT 15/06 RMK AO1 SLP234 T01540058 58013
CWSP,2023-04-25T21:00:00Z,CWSP 252100Z AUTO 29018KT 10/04 RMK AO1 PK WND 29022/2038 SLP248 T00990044 58005
CWSR,2023-04-25T21:00:00Z,CWSR 252100Z AUTO 15010KT 09/01 RMK AO1 SLP134 T00850011 56014
CWSS,2023-04-25T21:00:00Z,CWSS 252100Z AUTO 12001KT 08/03 RMK AO1 SLP243 T00770033 55001
CWST,2023-04-25T21:00:00Z,CWST 252100Z AUTO 04007KT 06/04 RMK AO1 PK WND 03017/2001 SLP230 T00590038 53001
CWSW,2023-04-25T21:00:00Z,CWSW 252100Z 17011G23KT 130V200 20SM SCT060 OVC200 12/M03 A2999 RMK SC4CS4 SLP167 DENSITY ALT 4300FT
CWTA,2023-04-25T21:00:00Z,CWTA 252100Z AUTO 26004KT 08/02 RMK AO1 SLP215 T00820019 50007
CWTG,2023-04-25T21:00:00Z,CWTG 252100Z AUTO 06013KT 04/02 RMK AO1 SLP254 T00410017 58002
CWTN,2023-04-25T21:00:00Z,CWTN 252100Z AUTO 06005KT 07/05 RMK AO1 4PAST HR 3004 PK WND 09019/2022 SLP229 P0002 T00670050 50008
CWTT,2023-04-25T21:00:00Z,CWTT 252100Z AUTO 20002KT 07/01 RMK AO1 T00680010
CWTY,2023-04-25T21:00:00Z,CWTY 252100Z AUTO 10004KT 08/03 RMK AO1 SLP217 T00800034 53001
CWUS,2023-04-25T21:00:00Z,CWUS 252100Z AUTO 13005KT 16/M01 RMK AO1 SLP196 T01581011 56014
CWUW,2023-04-25T21:00:00Z,CWUW 252100Z AUTO 21003KT ////SM OVC003 M02/M02 A3019
CWUX,2023-04-25T21:00:00Z,CWUX 252100Z AUTO 10010G15KT 11/01 RMK AO1 PK WND 08017/2022 SLP219 T01090014 55000
CWVF,2023-04-25T21:00:00Z,CWVF 252100Z AUTO 17006KT 11/07 RMK AO1 T01070066
CWVI,2023-04-25T21:00:00Z,CWVI 252100Z AUTO 33024G31KT 07/03 RMK AO1 PK WND 32034/2037 SLP133 T00700031 53002
CWVN,2023-04-25T21:00:00Z,CWVN 252100Z AUTO 19017KT 16/M02 RMK AO1 PK WND 18027/2014 SLP146 T01581015 56016
CWVP,2023-04-25T21:00:00Z,CWVP 252100Z AUTO 25008KT 13/M01 RMK AO1 PK WND 24021/2026 SLP129 T01321006 56012
CWVQ,2023-04-25T21:00:00Z,CWVQ 252100Z AUTO 00000KT 08/03 RMK AO1 SLP218 T00790031 50007
CWVT,2023-04-25T21:00:00Z,CWVT 252100Z AUTO 13009G16KT 10/M00 RMK AO1 SLP120 T00991004 56020
CWVU,2023-04-25T21:00:00Z,CWVU 252100Z AUTO 33005KT 07/04 RMK AO1 SLP238 T00680037 53004
CWWA,2023-04-25T21:00:00Z,CWWA 252100Z AUTO 19002KT 12/06 RMK AO1 SLP252 T01200063 58002
CWWB,2023-04-25T21:00:00Z,CWWB 252100Z AUTO 19009KT 08/01 RMK AO1 SLP221 T00780011 53008
CWWE,2023-04-25T21:00:00Z,CWWE 252100Z AUTO 12010KT 07/02 RMK AO1 SLP248 T00730015 53003
CWWF,2023-04-25T21:00:00Z,CWWF 252100Z AUTO 18009KT 07/M02 RMK AO1 SOG 02 8012 SLP212 T00741023
CWWK,2023-04-25T21:00:00Z,CWWK 252100Z AUTO 24003KT 13/06 RMK AO1 SLP258 T01310059 58003
CWWL,2023-04-25T21:00:00Z,CWWL 252100Z AUTO 14020KT 08/06 RMK AO1 PK WND 14025/2046 SLP199 T00770055 58011
CWWS,2023-04-25T21:00:00Z,CWWS 252100Z AUTO 23005KT 05/M06 RMK AO1 SOG 33 7013 SLP269 T00481057
CWWZ,2023-04-25T21:00:00Z,CWWZ 252100Z AUTO 25015KT 08/03 RMK AO1 PK WND 25019/2050 SLP220 T00750029 51007
CWXA,2023-04-25T21:00:00Z,CWXA 252100Z AUTO 00025KT 12/M06 RMK AO1 SLP163 T01181063 50002
CWXC,2023-04-25T21:00:00Z,CWXC 252100Z AUTO 13006KT 09/01 RMK AO1 SLP213 T00920009 53003
CWXI,2023-04-25T21:00:00Z,CWXI 252100Z AUTO 08013G19KT 05/M00 RMK AO1 PK WND 07020/2041 SLP256 T00461003 53004
CWXL,2023-04-25T21:00:00Z,CWXL 252100Z AUTO 26014G20KT 18/00 RMK AO1 PK WND 27020/2037 SLP120 T01840000 56017
CWYJ,2023-04-25T21:00:00Z,CWYJ 252100Z AUTO 08005KT 12/06 RMK AO1 SLP252 T01170061 50000
CWYY,2023-04-25T21:00:00Z,CWYY 252100Z AUTO 18004KT 18/M01 RMK AO1 SLP193 T01811007 58014
CWZA,2023-04-25T21:00:00Z,CWZA 252100Z AUTO 21006KT 14/07 RMK AO1 SLP247 T01390066 57006
CWZG,2023-04-25T21:00:00Z,CWZG 252100Z AUTO 23012G22KT 10/M04 RMK AO1 PK WND 22023/2026 SLP141 T01041043 58010
CWZL,2023-04-25T21:00:00Z,CWZL 252100Z AUTO 15021KT 07/06 RMK AO1 PK WND 15025/2051 SLP190 T00710059 58018
CWZN,2023-04-25T21:00:00Z,CWZN 252100Z AUTO 03006KT 06/M02 RMK AO1 SLP213 T00611019 53004
CWZO,2023-04-25T21:00:00Z,CWZO 252100Z AUTO 18009KT RMK AO1
CWZQ,2023-04-25T21:00:00Z,CWZQ 252100Z AUTO 33010KT 05/02 RMK AO1 SLP247 T00530023 56001
CWZW,2023-04-25T21:00:00Z,CWZW 252100Z AUTO 18005KT 05/M12 RMK AO1 SOG 31 0004 SLP167 T00491115
CXAT,2023-04-25T21:00:00Z,CXAT 252100Z AUTO 28004KT M17/M23 RMK AO1 3PAST HR SOG 10 0002 SLP313 P0001 T11691230 50003
CXBI,2023-04-25T21:00:00Z,CXBI 252100Z AUTO 30007KT 07/M01 RMK AO1 SLP213 T00651007 56004
CXBK,2023-04-25T21:00:00Z,CXBK 252100Z AUTO 15020G25KT 09/02 RMK AO1 SOG 02 6011 PK WND 14027/2045 SLP199 T00850023
CXBO,2023-04-25T21:00:00Z,CXBO 252100Z AUTO 09011KT 07/05 RMK AO1 T00710049 50002
CXCA,2023-04-25T21:00:00Z,CXCA 252100Z AUTO 35007KT 04/M06 RMK AO1 SOG 01 6001 PK WND 01018/2026 SLP270 T00371064
CXCK,2023-04-25T21:00:00Z,CXCK 252100Z AUTO 15008KT 04/M05 RMK AO1 SOG 41 0001 SLP139 T00431053
CXDE,2023-04-25T21:00:00Z,CXDE 252100Z AUTO 31008KT M09/M17 RMK AO1 SOG 34 0001 SLP212 T10901168
CXDI,2023-04-25T21:00:00Z,CXDI 252100Z AUTO 22006KT 05/03 RMK AO1 4PAST HR 0005 SLP225 P0002 T00490027 50010
CXDK,2023-04-25T21:00:00Z,CXDK 252100Z AUTO 01/M05 RMK AO1 SLP157 T00141046 51004
CXDW,2023-04-25T21:00:00Z,CXDW 252100Z AUTO 19008KT 07/M05 RMK AO1 SOG 02 8006 SLP269 T00661047
CXEA,2023-04-25T21:00:00Z,CXEA 252100Z AUTO 17002KT 06/M00 RMK AO1 SLP264 T00631001 58012
CXEC,2023-04-25T21:00:00Z,CXEC 252100Z AUTO 33014G22KT 10/01 RMK AO1 3009 PK WND 00027/2042 SLP124 T01010008 50003
CXEG,2023-04-25T21:00:00Z,CXEG 252100Z AUTO 36019G25KT 11/02 RMK AO1 PK WND 00025/2051 SLP126 T01060015 53009
CXET,2023-04-25T21:00:00Z,CXET 252100Z AUTO 01005KT 06/01 RMK AO1 5001 SLP210 T00550007 50004
CXGH,2023-04-25T21:00:00Z,CXGH 252100Z AUTO 04004KT 01/M02 RMK AO1 SLP266 T00131021 58012
CXHA,2023-04-25T21:00:00Z,CXHA 252100Z AUTO 25004KT 05/03 RMK AO1 7PAST HR 8004 SLP221 P0003 T00510028 50023
CXHM,2023-04-25T21:00:00Z,CXHM 252100Z AUTO 24005KT 08/01 RMK AO1 SLP221 T00830012 51008
CXIB,2023-04-25T21:00:00Z,CXIB 252100Z AUTO 08003KT 05/M00 RMK AO1 SLP240 T00541004 55000
CXKA,2023-04-25T21:00:00Z,CXKA 252100Z AUTO 36008KT M00/M01 RMK AO1 2PAST HR SOG 02 3004 SLP233 P0001 T10011014 50013
CXKE,2023-04-25T21:00:00Z,CXKE 252100Z AUTO 22005KT 10/M02 RMK AO1 SLP211 T01011015 56002
CXKI,2023-04-25T21:00:00Z,CXKI 252100Z AUTO 30002KT 02/M01 RMK AO1 SLP195 T00221013 51006
CXKT,2023-04-25T21:00:00Z,CXKT 252100Z AUTO 07005KT 09/02 RMK AO1 SLP236 T00910024 55001
CXLB,2023-04-25T21:00:00Z,CXLB 252100Z AUTO 13013KT 06/02 RMK AO1 SLP242 T00620019 53002
CXLL,2023-04-25T21:00:00Z,CXLL 252100Z AUTO M01/M09 RMK AO1 SOG 27 1011 SLP176 T10051089
CXMD,2023-04-25T21:00:00Z,CXMD 252100Z AUTO 17007KT 07/M05 RMK AO1 SLP265 T00711051 57007
CXMI,2023-04-25T21:00:00Z,CXMI 252100Z AUTO 18009KT 07/01 RMK AO1 SLP242 T00650010 53004
CXMM,2023-04-25T21:00:00Z,CXMM 252100Z AUTO 26006KT 06/02 RMK AO1 PK WND 29023/2000 SLP115 T00570016 50010
CXMY,2023-04-25T21:00:00Z,CXMY 252100Z AUTO 08/M00 RMK AO1 T00801004
CXNM,2023-04-25T21:00:00Z,CXNM 252100Z AUTO 35005KT 04/M01 RMK AO1 SOG 85 T00391009
CXNP,2023-04-25T21:00:00Z,CXNP 252100Z AUTO 33007KT 07/03 RMK AO1 SLP244 T00660029 53004
CXOX,2023-04-25T21:00:00Z,CXOX 252100Z AUTO 12010KT 04/01 RMK AO1 7PAST HR 8017 SLP163 P0003 T00390005 50016
CXPC,2023-04-25T21:00:00Z,CXPC 252100Z AUTO 04/02 RMK AO1 SLP214 T00390018 53007
CXRB,2023-04-25T21:00:00Z,CXRB 252100Z AUTO 19015KT M20/M24 RMK AO1 PK WND 19019/2027 SLP278 T12001236 58008
CXRH,2023-04-25T21:00:00Z,CXRH 252100Z AUTO 26003KT 07/02 RMK AO1 SLP243 T00710023 55004
CXSE,2023-04-25T21:00:00Z,CXSE 252100Z AUTO 28015KT M23/M27 RMK AO1 SOG 22 1017 PK WND 28019/2030 SLP286 T12321272
CXSH,2023-04-25T21:00:00Z,CXSH 252100Z AUTO 08005KT 09/03 RMK AO1 3003 SLP215 T00890032 50022
CXTD,2023-04-25T21:00:00Z,CXTD 252100Z AUTO 02007KT 05/01 RMK AO1 SLP258 T00530013 55001
CXTN,2023-04-25T21:00:00Z,CXTN 252100Z AUTO 11014KT M15/M20 RMK AO1 SOG 42 1004 PK WND 10017/2056 SLP245 T11471199
CXTO,2023-04-25T21:00:00Z,CXTO 252100Z AUTO 09/M01 RMK AO1 SLP209 T00871007 53001
CXTP,2023-04-25T21:00:00Z,CXTP 252100Z AUTO 35005KT 01/01 RMK AO1 7PAST HR 3005 SLP224 P0003 T00100008 50013
CXTV,2023-04-25T21:00:00Z,CXTV 252100Z AUTO 08006KT M19/M22 RMK AO1 SOG 46 8006 SLP262 T11891220
CXVN,2023-04-25T21:00:00Z,CXVN 252100Z AUTO 24013G19KT 08/01 RMK AO1 3006 PK WND 24022/2030 SLP223 T00800014 50003
CXWN,2023-04-25T21:00:00Z,CXWN 252100Z AUTO 24004KT 10/M06 RMK AO1 SLP263 T01041055 58008
CXYH,2023-04-25T21:00:00Z,CXYH 252100Z AUTO 31002KT 01/M07 RMK AO1 2PAST HR 0005 SLP155 P0005 T00091067
CXZC,2023-04-25T21:00:00Z,CXZC 252100Z AUTO 33006KT M01/M02 RMK AO1 8PAST HR SOG 12 1003 SLP232 P0003 T10121024 50022
CXZV,2023-04-25T21:00:00Z,CXZV 252100Z AUTO 14006KT 07/M00 RMK AO1 SLP260 T00661002 55000
CYAH,2023-04-25T21:00:00Z,CYAH 252100Z AUTO 15010G16KT 100V160 9SM CLR 14/M03 A3009 RMK SLP204
CYAM,2023-04-25T21:00:00Z,CYAM 252100Z 30018KT 20SM FEW021 FEW038 FEW250 03/M02 A3018 RMK SC1SC1CI1 SC TR CI TR SLP230
CYAT,2023-04-25T21:20:00Z,CYAT 252120Z AUTO 01009G15KT 5SM -SN FEW024 OVC039 00/M03 A3028 RMK SLP257
CYAW,2023-04-25T21:00:00Z,CYAW 252100Z 20009KT 15SM FEW030 BKN240 06/M00 A3025 RMK SC1CI4 DENSITY ALT -1166FT SLP247
CYAY,2023-04-25T21:11:00Z,CYAY 252111Z AUTO 03011KT 9SM SCT009 OVC016 02/M00 A3034 RMK SLP278
CYAZ,2023-04-25T21:00:00Z,CYAZ 252100Z 23009KT 15SM FEW034 FEW074 SCT240 11/04 A3029 RMK CU1AC1CC2 CU TR CONTRAILS SLP258
CYBB,2023-04-25T21:00:00Z,CYBB 252100Z 05004KT 15SM FEW200 M15/M19 A3049 RMK CI1 SLP329
CYBC,2023-04-25T21:00:00Z,CYBC 252100Z AUTO 11009KT 9SM CLR 04/02 A3028 RMK SLP256
CYBD,2023-04-25T21:00:00Z,CYBD 252100Z 23015G20KT 15SM FEW065 FEW150 FEW160 SCT260 13/M00 A3017 RMK CU1AC1AC1CC1 CU TR SLP219
CYBG,2023-04-25T21:00:00Z,CYBG 252100Z 08019KT 25SM SCT045 BKN100 10/02 A3016 RMK SC4AC1 DENSITY ALT -208FT SLP220
CYBK,2023-04-25T21:00:00Z,CYBK 252100Z 11005KT 20SM FEW010 FEW200 M11/M14 A3044 RMK SC1CS1 SC TR SLP313
CYBL,2023-04-25T21:00:00Z,CYBL 252100Z 11005KT 060V130 30SM FEW020 BKN040 BKN130 11/06 A3026 RMK CU2SC3AC2 SLP252
CYBQ,2023-04-25T21:00:00Z,CYBQ 252100Z AUTO 12010KT 9SM CLR 04/M07 A3023 RMK SLP262
CYBR,2023-04-25T21:00:00Z,CYBR 252100Z 13007KT 110V170 15SM FEW040 SCT250 09/M03 A3022 RMK SC1CI4 SC TR SLP256
CYBU,2023-04-25T21:00:00Z,CYBU 252100Z AUTO 13014G21KT 9SM FEW050 BKN089 09/M02 A3003 RMK SLP187
CYBV,2023-04-25T21:00:00Z,CYBV 252100Z 30006KT 15SM FEW260 06/M07 A3028 RMK CI2 CONTRAILS LAST STFD OBS/NEXT 261200UTC SLP270
CYBW,2023-04-25T21:00:00Z,CYBW 252100Z AUTO 27015G21KT 9SM BKN210 OVC240 14/M06 A2986 RMK SLP138 DENSITY ALT 4900FT
CYBX,2023-04-25T21:00:00Z,CYBX 252100Z 08016G24KT 15SM FEW015 OVC250 04/M00 A3033 RMK SC1CI7 SLP274
CYCA,2023-04-25T21:00:00Z,CYCA 252100Z AUTO 06008KT 9SM CLR 04/00 A3038 RMK SLP290
CYCB,2023-04-25T21:14:00Z,CYCB 252114Z 07013KT 2SM -SN BR BKN007 OVC035 M13/M16 A3027 RMK FG1SF4SC3 SLP257
CYCD,2023-04-25T21:00:00Z,CYCD 252100Z 01004KT 360V070 20SM SCT033 BKN140 BKN230 12/07 A3026 RMK CU4AC1CI2 SLP250
CYCG,2023-04-25T21:00:00Z,CYCG 252100Z 17011KT 15SM FEW055 SCT080 BKN220 17/02 A3006 RMK CU1AC2CI3 SLP189 DENSITY ALT 2100FT
CYCK,2023-04-25T21:00:00Z,CYCK 252100Z AUTO 20006KT 8SM -RA BKN012 BKN018 04/02 A3017 RMK SLP226
CYCO,2023-04-25T21:14:00Z,CYCO 252114Z 04009KT 1SM -SN OVC034 M14/M17 A3022 RMK SN3SC6 VIS VRB 1/2-1 1/2 SLP239
CYCP,2023-04-25T21:00:00Z,CYCP 252100Z 20008KT 15SM BKN080 BKN250 12/M01 A3002 RMK CU6CI1 CI TR SLP184
CYCQ,2023-04-25T21:12:00Z,CYCQ 252112Z 26009G26KT 210V290 35SM FEW055CB BKN064TCU OVC220 07/M08 A2994 RMK CB2TCU5CI1 CB S MOV E CB W MOV SE PCPN DIST SE+S+W PRESRR SLP165
CYCS,2023-04-25T21:00:00Z,CYCS 252100Z 01007KT 15SM BKN017 BKN240 M08/M11 A3045 RMK SC6CI1 SLP315
CYCX,2023-04-25T21:00:00Z,CYCX 252100Z 07005KT 030V100 15SM OVC020 08/03 A3025 RMK SC8 DENSITY ALT -956FT CIG EST SLP246
CYCY,2023-04-25T21:00:00Z,CYCY 252100Z 32021KT 15SM -SG DRSN FEW011 OVC031 M07/M08 A3036 RMK SF1SC7 SLP286
CYDA,2023-04-25T21:00:00Z,CYDA 252100Z VRB06KT 15SM -SN BKN056 M03/M09 A2990 RMK SC7 SLP157
CYDB,2023-04-25T21:00:00Z,CYDB 252100Z 11015G24KT 15SM FEW045 FEW055 SCT090 SCT200 02/M07 A2976 RMK CU1CF1AC2CI1 CF TR CI TR SLP128
CYDC,2023-04-25T21:00:00Z,CYDC 252100Z 35004KT 260V070 25SM FEW060 BKN270 16/M02 A3010 RMK CF1CI6 CF TR CONTRAILS SLP199 DENSITY ALT 2800FT
CYDF,2023-04-25T21:00:00Z,CYDF 252100Z 05014KT 15SM BKN220 07/M01 A3027 RMK CI5 SLP254
CYDL,2023-04-25T21:00:00Z,CYDL 252100Z AUTO 22006KT 180V240 9SM CLR 03/M10 A2996 RMK SLP172
CYDN,2023-04-25T21:00:00Z,CYDN 252100Z AUTO 36005KT 340V060 9SM CLR 10/M01 A3020 RMK SLP244
CYDP,2023-04-25T21:00:00Z,CYDP 252100Z VRB02KT 15SM FEW240 FEW270 05/01 A3035 RMK CS1CC1 CS TR CC TR SLP281
CYDQ,2023-04-25T21:00:00Z,CYDQ 252100Z AUTO 26023G32KT 9SM FEW071 09/M09 A2988 RMK SLP145
CYED,2023-04-25T21:00:00Z,CYED 252100Z 33018G25KT 15SM FEW030 BKN070 BKN240 10/03 A2986 RMK SC2AC3CI1 DENSITY ALT 2356FT SLP131
CYEG,2023-04-25T21:15:00Z,CYEG 252115Z 35019G28KT 20SM -SHRA BKN041 BKN051 10/02 A2986 RMK SC5SC2 CVCTV CLD EMBD SLP130
CYEK,2023-04-25T21:00:00Z,CYEK 252100Z 10004KT 15SM OVC005 M06/M06 A3041 RMK SC8 SLP301
CYEN,2023-04-25T21:00:00Z,CYEN 252100Z AUTO 14015G23KT 9SM CLR 11/M03 A3011 RMK SLP219
CYER,2023-04-25T21:00:00Z,CYER 252100Z AUTO 04006KT 9SM OVC008 M02/M04 A3043 RMK SLP309
CYET,2023-04-25T21:00:00Z,CYET 252100Z AUTO 31011G16KT 260V330 9SM SCT055 SCT072 11/M04 A2984 RMK SLP131 DENSITY ALT 3400FT
CYEV,2023-04-25T21:00:00Z,CYEV 252100Z 07005KT 030V100 15SM FEW160 FEW240 M15/M22 A3025 RMK AC1CS1 AC TR SLP255
CYFB,2023-04-25T21:00:00Z,CYFB 252100Z 27003KT 1/4SM R34/0900V1100FT/N FZFG OVC002 M01/M01 A3041 RMK ST8 SLP304
CYFC,2023-04-25T21:06:00Z,CYFC 252106Z AUTO 11004KT 9SM OVC024 08/03 A3025 RMK SLP246
CYFO,2023-04-25T21:00:00Z,CYFO 252100Z 15011G18KT 15SM OVC100 07/M05 A3014 RMK AC8 SLP223
CYFR,2023-04-25T21:00:00Z,CYFR 252100Z 11005KT 10SM -RA OVC010 05/04 A2971 RMK SC8 SLP073
CYFS,2023-04-25T21:14:00Z,CYFS 252114Z 34014G24KT 2SM -SN BKN032 OVC045 M04/M08 A2997 RMK SC7SC1 SLP165
CYGE,2023-04-25T21:00:00Z,CYGE 252100Z CCA 13007KT 20SM SCT080 OVC210 15/M04 A2998 RMK AC4CI4 CU ASOCTD CC ASOCTD SLP164 DENSITY ALT 3200FT
CYGH,2023-04-25T21:00:00Z,CYGH 252100Z VRB02KT 25SM FEW020 FEW080 FEW240 M09/M17 A3018 RMK SC1AC1CI1 SC TR CI TR SLP231
CYGK,2023-04-25T21:00:00Z,CYGK 252100Z 20014KT 15SM FEW040TCU SCT080 BKN250 06/02 A3018 RMK TCU1AC2CI4 SLP226
CYGL,2023-04-25T21:00:00Z,CYGL 252100Z 35005KT 290V030 15SM SCT050 BKN160 BKN240 09/02 A3011 RMK SC4AC2CI1 SLP210
CYGP,2023-04-25T21:00:00Z,CYGP 252100Z 09009KT 15SM BKN220 07/01 A3028 RMK CI5 CONTRAILS SLP257
CYGR,2023-04-25T21:00:00Z,CYGR 252100Z 09005KT 20SM FEW010 SCT280 06/01 A3027 RMK SC1CI3 SC TR SLP252
CYGV,2023-04-25T21:00:00Z,CYGV 252100Z AUTO 16004KT 110V190 9SM CLR 08/M01 A3029 RMK SLP261
CYGW,2023-04-25T21:00:00Z,CYGW 252100Z AUTO 01008G17KT 340V040 9SM OVC006 00/M00 A3025 RMK SLP246
CYGX,2023-04-25T21:00:00Z,CYGX 252100Z VRB10KT 15SM SKC 04/M06 A3032 RMK SLP281
CYHA,2023-04-25T21:00:00Z,CYHA 252100Z 06004KT 15SM FEW250 02/M02 A3039 RMK CI1 LAST STFD OBS/NEXT 261200UTC SLP294
CYHD,2023-04-25T21:00:00Z,CYHD 252100Z AUTO VRB05KT 9SM SCT060 06/M09 A3027 RMK SLP276
CYHE,2023-04-25T21:00:00Z,CYHE 252100Z AUTO 28014G21KT 260V320 9SM CLR 16/04 A3022 RMK SLP238
CYHK,2023-04-25T21:00:00Z,CYHK 252100Z 18010KT 15SM BKN090 BKN220 M12/M15 A3040 RMK AC6CC1 CC TR SLP304
CYHM,2023-04-25T21:00:00Z,CYHM 252100Z 22012G18KT 15SM SCT017 BKN041 OVC056 06/03 A3016 RMK CU4SC2SC2 SLP222
CYHU,2023-04-25T21:00:00Z,CYHU 252100Z AUTO 26013G18KT 9SM CLR 10/03 A3015 RMK SLP214
CYHY,2023-04-25T21:00:00Z,CYHY 252100Z 01005KT 320V060 4SM -SN BKN004 OVC015 02/M01 A2974 RMK ST7SC1 SLP084
CYHZ,2023-04-25T21:00:00Z,CYHZ 252100Z 17011KT 15SM FEW040 BKN250 07/M01 A3022 RMK SC1CI4 SLP239
CYIN,2023-04-25T21:00:00Z,CYIN 252100Z AUTO VRB04KT 9SM FEW071 12/M05 A3004 RMK SLP193 DENSITY ALT 4200FT
CYIO,2023-04-25T21:00:00Z,CYIO 252100Z 22008KT 12SM BKN007 OVC009 M10/M10 A3040 RMK ST7ST1 SLP304
CYIV,2023-04-25T21:00:00Z,CYIV 252100Z AUTO 35003KT 9SM CLR 07/M10 A3028 RMK SLP271
CYJF,2023-04-25T21:00:00Z,CYJF 252100Z 05009G15KT 360V070 15SM SCT031 BKN050 BKN070 01/M05 A2997 RMK SC3SC3AC1 SLP162
CYJT,2023-04-25T21:00:00Z,CYJT 252100Z 06011G17KT 15SM FEW015 SCT240 13/M03 A3021 RMK SC1CI3 SC TR CONTRAILS SLP232
CYKA,2023-04-25T21:00:00Z,CYKA 252100Z 14003KT 110V190 40SM FEW090 OVC200 16/M03 A3007 RMK CF1CS7 SLP190 DENSITY ALT 1400FT
CYKF,2023-04-25T21:00:00Z,CYKF 252100Z AUTO 22010KT 9SM BKN048 OVC060 08/M02 A3012 RMK SLP211
CYKG,2023-04-25T21:00:00Z,CYKG 252100Z 00000KT 15SM FEW070 01/M03 A3035 RMK AC1 LAST STFD OBS/NXT OBS 261200 UTC SLP293
CYKJ,2023-04-25T21:00:00Z,CYKJ 252100Z AUTO 16015G22KT 9SM OVC045 07/M02 A2992 RMK SLP158
CYKL,2023-04-25T21:00:00Z,CYKL 252100Z AUTO 14010G15KT 100V160 8SM SCT160 SCT250 14/M02 A3022 RMK SLP260
CYKP,2023-04-25T21:00:00Z,CYKP 252100Z AUTO 35011G17KT 320V040 9SM FEW033 OVC071 02/M06 A3030 RMK SLP276
CYKY,2023-04-25T21:00:00Z,CYKY 252100Z 02009G15KT 15SM VCSH SCT060TCU BKN090 16/06 A2980 RMK TCU4AC3 TCU ALQDS SLP106 DENSITY ALT 3100FT
CYLA,2023-04-25T21:00:00Z,CYLA 252100Z 03007KT 15SM BKN250 01/01 A3035 RMK CS5 LAST STFD OBS/ NXT 261200Z SLP283
CYLD,2023-04-25T21:00:00Z,CYLD 252100Z 36006KT 320V030 15SM -SN OVC012 02/M00 A3012 RMK SC8 SLP228
CYLJ,2023-04-25T21:00:00Z,CYLJ 252100Z 24011KT 15SM -SHRA BKN052 OVC086 13/01 A2982 RMK SC6AC2 CVCTV CLD EMBD SLP113 DENSITY ALT 1900FT
CYLK,2023-04-25T21:24:00Z,CYLK 252124Z 11008KT 25SM -RA OVC023 05/01 A2982 RMK SC8 VIS 15 E SLP113
CYLL,2023-04-25T21:00:00Z,CYLL 252100Z 17007KT 150V260 15SM SCT100 BKN270 14/01 A2981 RMK AC3CI2 SLP113 DENSITY ALT 2800FT
CYLT,2023-04-25T21:00:00Z,CYLT 252100Z 36002KT 10SM IC FEW090 M18/M21 A3035 RMK AS1 SLP281
CYLU,2023-04-25T21:00:00Z,CYLU 252100Z 32003KT 15SM SCT240 10/02 A3033 RMK CI3 LAST STFD OBS/NEXT 261200 UTC SLP275
CYLW,2023-04-25T21:00:00Z,CYLW 252100Z AUTO 14003KT 100V240 9SM CLR 16/M01 A3009 RMK SLP198 DENSITY ALT 1700FT
CYMA,2023-04-25T21:00:00Z,CYMA 252100Z 02009KT 310V050 20SM BKN032 M02/M10 A2990 RMK SC7 SLP164
CYMH,2023-04-25T21:00:00Z,CYMH 252100Z AUTO /////KT 9SM OVC018 02/00 A3037 RMK SLP287
CYMJ,2023-04-25T21:00:00Z,CYMJ 252100Z 12021KT 15SM FEW090 BKN130 BKN270 13/02 A2999 RMK AC2AC3CI2 DENSITY ALT 2138FT VIRGA SLP171
CYMM,2023-04-25T21:05:00Z,CYMM 252105Z AUTO 26006KT 9SM -RA FEW023 OVC044 06/02 A2981 RMK SLP113
CYMO,2023-04-25T21:14:00Z,CYMO 252114Z AUTO 32009KT 1SM -SN FEW007 OVC015 M01/M03 A3019 RMK SLP224
CYMT,2023-04-25T21:00:00Z,CYMT 252100Z AUTO 10010KT 9SM FEW022 SCT031 BKN043 BKN060 07/04 A3010 RMK SLP210
CYMU,2023-04-25T21:00:00Z,CYMU 252100Z 07014KT 15SM FEW010 BKN050 05/02 A3025 RMK SF1SC4 LAST STFD OBS/NEXT 261200Z SLP250
CYMX,2023-04-25T21:00:00Z,CYMX 252100Z 23003KT 090V250 25SM BKN045 BKN092 BKN250 08/02 A3016 RMK SC5AC1CI1 SLP220
CYNA,2023-04-25T21:00:00Z,CYNA 252100Z AUTO 22006KT 210V270 9SM CLR 05/M00 A3030 RMK SLP264
CYND,2023-04-25T21:00:00Z,CYND 252100Z 19006KT 170V250 15SM SCT052 BKN240 11/M02 A3013 RMK CU3CI3 SLP208
CYNE,2023-04-25T21:00:00Z,CYNE 252100Z AUTO 22010G15KT 180V280 9SM CLR 07/M08 A3028 RMK SLP269
CYNM,2023-04-25T21:00:00Z,CYNM 252100Z AUTO 31007KT 9SM OVC020 05/03 A3007 RMK SLP198
CYOD,2023-04-25T21:00:00Z,CYOD 252100Z 22009KT 15SM SCT047 BKN100 BKN160 14/02 A2980 RMK SC3AC3AC1 DENSITY ALT 2324FT SLP105
CYOJ,2023-04-25T21:00:00Z,CYOJ 252100Z 30007KT 280V340 10SM -SHRA BKN018 OVC024 05/04 A2970 RMK SC6SC2 CVCTV CLD EMBD SLP074
CYOO,2023-04-25T21:00:00Z,CYOO 252100Z AUTO 20008G15KT 9SM BKN055 OVC072 08/M00 A3014 RMK SLP212
CYOW,2023-04-25T21:00:00Z,CYOW 252100Z 21010G17KT 15SM BKN049 BKN080 10/M02 A3014 RMK CU6AC1 SLP211
CYOY,2023-04-25T21:00:00Z,CYOY 252100Z 08005KT 060V120 6SM -RA BR SCT006 OVC016 07/05 A3017 RMK SF4SC4 DENSITY ALT -503FT SLP224
CYPA,2023-04-25T21:00:00Z,CYPA 252100Z 14019KT 15SM -SHRA BKN051 OVC100 09/00 A2997 RMK SC7AC1 CVCTV CLD EMBD PRESFR SLP167
CYPC,2023-04-25T21:00:00Z,CYPC 252100Z 28003KT 15SM FEW006 FEW210 M20/M23 A3033 RMK ST1CI2 ST TR SLP274
CYPD,2023-04-25T21:00:00Z,CYPD 252100Z AUTO 27008KT 9SM OVC033 07/M00 A3022 RMK SLP239
CYPE,2023-04-25T21:16:00Z,CYPE 252116Z 27019G29KT 15SM BKN055 10/M09 A2981 RMK CU5 SLP116
CYPG,2023-04-25T21:00:00Z,CYPG 252100Z 17009KT 130V220 15SM SCT053 SCT210 10/M04 A3027 RMK CU3CI1 DENSITY ALT 86FT SLP263
CYPH,2023-04-25T21:00:00Z,CYPH 252100Z AUTO 01010KT 9SM FEW010 M00/M03 A3035 RMK SLP283
CYPL,2023-04-25T21:00:00Z,CYPL 252100Z AUTO VRB03KT 9SM OVC048 03/M08 A3030 RMK SLP285
CYPO,2023-04-25T21:00:00Z,CYPO 252100Z AUTO 34007KT 320V040 9SM OVC031 00/M06 A3039 RMK SLP297
CYPQ,2023-04-25T21:09:00Z,CYPQ 252109Z AUTO 20011KT 180V250 9SM -RA BKN037 BKN048 OVC060 06/01 A3014 RMK SLP213
CYPR,2023-04-25T21:00:00Z,CYPR 252100Z AUTO 18008KT 130V200 9SM FEW025 OVC060 09/04 A3013 RMK SLP205
CYPW,2023-04-25T21:00:00Z,CYPW 252100Z 28008KT 240V300 25SM FEW024 FEW038 BKN140 BKN220 BKN250 12/07 A3027 RMK CU2SC1AC3CC1CI1 SC TR CC TR CONTRAILS SLP254
CYPX,2023-04-25T21:00:00Z,CYPX 252100Z AUTO 32006KT 9SM BKN009 OVC081 M01/M03 A3038 RMK SLP291
CYPY,2023-04-25T21:00:00Z,CYPY 252100Z AUTO 18009KT 140V210 9SM FEW150 12/02 A2971 RMK SLP072
CYQA,2023-04-25T21:00:00Z,CYQA 252100Z AUTO 28009KT 240V320 9SM BKN028 OVC032 05/01 A3011 RMK SLP208
CYQB,2023-04-25T21:00:00Z,CYQB 252100Z 08011G16KT 15SM -RA BKN010 BKN022 BKN041 07/06 A3018 RMK SC5SC1SC1 SLP224
CYQD,2023-04-25T21:00:00Z,CYQD 252100Z AUTO 13021G27KT 9SM CLR 07/M05 A3016 RMK SLP229
CYQF,2023-04-25T21:00:00Z,CYQF 252100Z AUTO 31012G21KT 9SM FEW096 BKN200 16/M08 A2982 RMK SLP112 DENSITY ALT 3900FT
CYQG,2023-04-25T21:17:00Z,CYQG 252117Z AUTO 00000KT 9SM OVC012 05/02 A3017 RMK RVR MISG SLP225
CYQH,2023-04-25T21:00:00Z,CYQH 252100Z 25016KT 210V310 40SM FEW032 BKN053 BKN080 04/M06 A2991 RMK CF1CU4AC1 TCU ASOCTD/VIRGA ALQDS SLP162
CYQI,2023-04-25T21:00:00Z,CYQI 252100Z 02007KT 310V040 15SM OVC030 08/03 A3022 RMK SC8 SLP238
CYQK,2023-04-25T21:00:00Z,CYQK 252100Z 21004KT 120V240 15SM SCT055 06/M08 A3028 RMK SC4 SLP275
CYQL,2023-04-25T21:00:00Z,CYQL 252100Z 26028G37KT 60SM FEW080 FEW170 BKN270 17/M03 A2988 RMK AC1AC1CI6 AC TR SLP128 DENSITY ALT 4000FT
CYQM,2023-04-25T21:00:00Z,CYQM 252100Z 06005KT 15SM OVC021 05/02 A3026 RMK SC8 SLP250
CYQQ,2023-04-25T21:00:00Z,CYQQ 252100Z 11007KT 20SM FEW035 BKN140 12/05 A3027 RMK SC1AC5 DENSITY ALT -527FT SLP251
CYQR,2023-04-25T21:00:00Z,CYQR 252100Z 15023KT 15SM FEW140 FEW200 BKN260 09/00 A3007 RMK AC1CI1CI4 SLP205
CYQT,2023-04-25T21:00:00Z,CYQT 252100Z 01007KT 330V040 20SM BKN050 05/M06 A3028 RMK SC7 SLP266
CYQU,2023-04-25T21:00:00Z,CYQU 252100Z 28031G37KT 25SM VCSH SCT065TCU BKN240 10/M07 A2988 RMK TCU4CI1 SLP144
CYQV,2023-04-25T21:00:00Z,CYQV 252100Z AUTO 17010G21KT 9SM FEW110 09/M03 A3013 RMK SLP225
CYQW,2023-04-25T21:00:00Z,CYQW 252100Z AUTO 10014G19KT 9SM BKN096 BKN110 12/04 A2986 RMK SLP129 DENSITY ALT 2000FT
CYQX,2023-04-25T21:14:00Z,CYQX 252114Z 36013KT 4SM -SN BR BKN003 OVC007 00/00 A3023 RMK ST7ST1 CIG VRB 002-004 SLP246
CYQY,2023-04-25T21:00:00Z,CYQY 252100Z 02007KT 15SM BKN240 07/M01 A3023 RMK CI6 SLP243
CYQZ,2023-04-25T21:00:00Z,CYQZ 252100Z AUTO 32011KT 300V030 9SM BKN086 13/M05 A3007 RMK SLP199
CYRA,2023-04-25T21:00:00Z,CYRA 252100Z 34015KT 15SM BKN098 M02/M06 A2991 RMK AS7 SLP147
CYRB,2023-04-25T21:00:00Z,CYRB 252100Z 18017KT 4SM IC DRSN BKN039 M20/M23 A3032 RMK SC7 SLP280
CYRJ,2023-04-25T21:00:00Z,CYRJ 252100Z VRB02KT 25SM BKN051 07/06 A3015 RMK SC7 SLP218
CYRL,2023-04-25T21:00:00Z,CYRL 252100Z 29004KT 15SM FEW050 06/M11 A3028 RMK SC2 SLP278
CYRQ,2023-04-25T21:00:00Z,CYRQ 252100Z AUTO 14006KT 130V200 9SM FEW038 OVC091 10/02 A3015 RMK SLP213
CYRT,2023-04-25T21:00:00Z,CYRT 252100Z 06006KT 020V080 15SM BKN008 OVC250 M07/M08 A3043 RMK SC7CI1 SLP311
CYRV,2023-04-25T21:00:00Z,CYRV 252100Z AUTO VRB02KT 9SM OVC076 14/M01 A3007 RMK SLP193
CYSB,2023-04-25T21:00:00Z,CYSB 252100Z 36008KT 310V030 15SM -SHSN SCT009 BKN014 OVC038 03/01 A3008 RMK SF3CU3SC2 SLP205
CYSC,2023-04-25T21:00:00Z,CYSC 252100Z AUTO 12006KT 9SM -RA OVC028 07/05 A3014 RMK SLP218
CYSF,2023-04-25T21:00:00Z,CYSF 252100Z AUTO 14014G24KT 110V170 9SM FEW110 12/M04 A2991 RMK SLP143
CYSJ,2023-04-25T21:00:00Z,CYSJ 252100Z 08004KT 010V150 15SM BKN020 BKN160 08/03 A3023 RMK SC6AC1 SLP244
CYSK,2023-04-25T21:00:00Z,CYSK 252100Z 01015KT 15SM BKN008 M01/M03 A3033 RMK SF5 SLP275
CYSM,2023-04-25T21:00:00Z,CYSM 252100Z 14009KT 100V160 15SM BKN035 OVC110 11/02 A2969 RMK SC7AC1 SLP067
CYSN,2023-04-25T21:00:00Z,CYSN 252100Z 26018G23KT 15SM BKN046 OVC070 08/M00 A3016 RMK SC7AC1 SLP219
CYSP,2023-04-25T21:00:00Z,CYSP 252100Z 03008G18KT 340V060 15SM SCT031 BKN045 BKN052 OVC240 03/M04 A3022 RMK SC3SC2SC1CI2 LAST STFD OBS/NEXT 261200UTC SLP254
CYTE,2023-04-25T21:16:00Z,CYTE 252116Z AUTO 20005KT 180V250 9SM BKN010 OVC029 M00/M02 A3035 RMK SLP283
CYTH,2023-04-25T21:00:00Z,CYTH 252100Z VRB05KT 15SM FEW210 09/M08 A3024 RMK CI1 SLP257
CYTL,2023-04-25T21:10:00Z,CYTL 252110Z AUTO 17004KT 8SM OVC060 04/M07 A3034 RMK SLP290
CYTR,2023-04-25T21:00:00Z,CYTR 252100Z 21012KT 15SM FEW040 SCT095 OVC250 08/01 A3016 RMK SC2AC1CI5 DENSITY ALT -725FT LTNG DTCTRS REP STRIKES 15 NM N QUAD SLP216
CYTS,2023-04-25T21:00:00Z,CYTS 252100Z 35010KT 3SM -SN OVC026 00/M01 A3012 RMK SC8 SLP219
CYTZ,2023-04-25T21:22:00Z,CYTZ 252122Z AUTO 20020KT 9SM -RA SCT055 BKN080 07/03 A3015 RMK SLP212
CYUA,2023-04-25T21:00:00Z,CYUA 252100Z AUTO 12011KT ////SM NCD ///// A////
CYUB,2023-04-25T21:00:00Z,CYUB 252100Z 12008KT 15SM BKN010 M18/M21 A3031 RMK SC7 SLP266
CYUL,2023-04-25T21:00:00Z,CYUL 252100Z 28004KT 200V350 15SM FEW040 SCT078 BKN110 09/04 A3016 RMK CU1AC3AC4 CU TR SLP218
CYUT,2023-04-25T21:00:00Z,CYUT 252100Z 35012KT 15SM FEW250 M11/M14 A3045 RMK CC1 SLP317
CYUX,2023-04-25T21:00:00Z,CYUX 252100Z 34013KT 10SM DRSN FEW005 FEW100 M09/M12 A3044 RMK SF1AC1 SF TR SLP311
CYUY,2023-04-25T21:06:00Z,CYUY 252106Z 13008KT 4SM -SHSN BKN010 OVC022 02/01 A3008 RMK SC5CU3 SLP203
CYVC,2023-04-25T21:00:00Z,CYVC 252100Z 10011KT 15SM -SHRA SCT027 OVC050 04/01 A2998 RMK SC4SC4 CVCTV CLD EMBD SLP173
CYVL,2023-04-25T21:00:00Z,CYVL 252100Z AUTO 35012KT 9SM -SN CLR M13/M16 A3009 RMK SLP224
CYVM,2023-04-25T21:00:00Z,CYVM 252100Z 36004KT 15SM FEW024 OVC032 M02/M05 A3032 RMK SC1SC7 SLP271
CYVO,2023-04-25T21:00:00Z,CYVO 252100Z 17012KT 15SM -SHRA SCT033 BKN060 05/M01 A3006 RMK CU3SC3 SLP199
CYVP,2023-04-25T21:00:00Z,CYVP 252100Z 03008KT 15SM BKN230 07/01 A3031 RMK CI6 SLP270
CYVQ,2023-04-25T21:00:00Z,CYVQ 252100Z 28011G16KT 30SM FEW045 FEW220 FEW250 M08/M15 A3017 RMK SC1CC1CI1 SC TR SLP227
CYVR,2023-04-25T21:00:00Z,CYVR 252100Z 23009G16KT 30SM FEW040 FEW055 FEW180 SCT210 12/08 A3026 RMK CU2SC1AC1CI2 SC TR AC TR SLP250
CYVT,2023-04-25T21:00:00Z,CYVT 252100Z AUTO 14011G16KT 9SM FEW100 SCT140 11/01 A2980 RMK SLP108
CYVV,2023-04-25T21:00:00Z,CYVV 252100Z 28007KT 240V300 15SM BKN020 04/00 A3014 RMK SC6 SLP218
CYWA,2023-04-25T21:00:00Z,CYWA 252100Z 11008KT 10SM FEW045 BKN065 OVC075 07/02 A3011 RMK SC2SC4AC2 DENSITY ALT -589FT SLP201
CYWE,2023-04-25T21:00:00Z,CYWE 252100Z AUTO 06009G15KT 9SM CLR 02/M04 A2985 RMK ICE MISG SLP140
CYWG,2023-04-25T21:00:00Z,CYWG 252100Z VRB08KT 15SM BKN055 09/M04 A3027 RMK SC5 SLP265
CYWH,2023-04-25T21:00:00Z,CYWH 252100Z 17007KT 15SM FEW030 BKN220 11/05 A3027 RMK SC2CI4 SLP252
CYWJ,2023-04-25T21:00:00Z,CYWJ 252100Z 29009KT 270V340 15SM SCT024 SCT080 M09/M16 A3008 RMK SC1AC2 SLP210
CYWK,2023-04-25T21:00:00Z,CYWK 252100Z 15003KT 100V200 15SM SCT150 11/M05 A3020 RMK AC3 SLP252
CYWL,2023-04-25T21:00:00Z,CYWL 252100Z 27011G16KT 220V290 15SM FEW060 BKN230 12/M10 A3005 RMK CU1CI6 SLP194 DENSITY ALT 3400FT
CYXC,2023-04-25T21:00:00Z,CYXC 252100Z 36003KT 45SM SCT075 BKN240 15/M04 A3001 RMK AC4CI3 SLP174 DENSITY ALT 3800FT
CYXE,2023-04-25T21:00:00Z,CYXE 252100Z 17017G23KT 15SM SCT065 BKN090 OVC300 16/01 A2988 RMK SC3AC2CI3 SLP134 DENSITY ALT 2300FT
CYXH,2023-04-25T21:00:00Z,CYXH 252100Z 23015G//KT 30SM BKN080 OVC270 19/M01 A2984 RMK CU5CI3 WIND EST SLP109 DENSITY ALT 3500FT
CYXJ,2023-04-25T21:00:00Z,CYXJ 252100Z 26020G30KT 50SM SCT071 BKN240 09/M09 A2986 RMK CU4CI1 SLP138
CYXL,2023-04-25T21:00:00Z,CYXL 252100Z 28005KT 230V340 15SM FEW050 06/M08 A3028 RMK CF1 SLP276
CYXN,2023-04-25T21:00:00Z,CYXN 252100Z 07009KT 15SM OVC005 M07/M08 A3043 RMK ST8 SLP307
CYXP,2023-04-25T21:00:00Z,CYXP 252100Z 25012KT 15SM FEW004 SCT015 OVC027 01/M00 A3034 RMK ST2SC2SC4 SLP279
CYXQ,2023-04-25T21:00:00Z,CYXQ 252100Z 05013G19KT 30SM SCT080 OVC250 02/M07 A2975 RMK AC3CI5 SLP122
CYXR,2023-04-25T21:00:00Z,CYXR 252100Z AUTO 29005KT 250V330 9SM FEW017 SCT024 BKN033 OVC044 03/M02 A3009 RMK SLP203
CYXS,2023-04-25T21:00:00Z,CYXS 252100Z AUTO 28014G21KT 9SM BKN091 09/M07 A3006 RMK SLP203
CYXT,2023-04-25T21:00:00Z,CYXT 252100Z 17013G21KT 20SM VCSH FEW020 SCT042 SCT120 BKN230 08/03 A3015 RMK CF1CU2AC1CS3 SH SW SLP219
CYXU,2023-04-25T21:00:00Z,CYXU 252100Z 23011KT 10SM -SHRA SCT017TCU OVC030 05/03 A3015 RMK TCU4SC4 VIS LWR W-NW SLP221
CYXX,2023-04-25T21:00:00Z,CYXX 252100Z VRB03KT 25SM SCT030 BKN039 BKN190 13/06 A3026 RMK CU3SC3CS1 SLP249
CYXY,2023-04-25T21:00:00Z,CYXY 252100Z 19010G15KT 150V230 40SM FEW055 05/M08 A2986 RMK CU2 SLP148
CYXZ,2023-04-25T21:00:00Z,CYXZ 252100Z 36006KT 320V050 12SM BKN027 OVC044 04/M03 A3018 RMK SC6SC2 SLP238
CYYB,2023-04-25T21:00:00Z,CYYB 252100Z 19006KT 30SM BKN015 BKN090 04/01 A3007 RMK CU6AC1 SLP199
CYYC,2023-04-25T21:00:00Z,CYYC 252100Z 28017G24KT 40SM BKN230 BKN300 15/M08 A2985 RMK CC5CI2 SLP129 DENSITY ALT 4600FT
CYYD,2023-04-25T21:00:00Z,CYYD 252100Z 22004KT 200V330 25SM SCT055 BKN070 08/M05 A3007 RMK SC3AC2 SLP200
CYYE,2023-04-25T21:00:00Z,CYYE 252100Z 33010KT 30SM SCT050 SCT250 08/M04 A2989 RMK SC3CI1 SLP141
CYYF,2023-04-25T21:00:00Z,CYYF 252100Z 19005KT 120V210 15SM FEW080 BKN230 17/M01 A3009 RMK AC1CI7 AC TR SLP196 DENSITY ALT 1400FT
CYYG,2023-04-25T21:00:00Z,CYYG 252100Z 01010KT 15SM SCT014 BKN034 OVC100 05/02 A3025 RMK CU3SC4AC1 SLP248
CYYH,2023-04-25T21:00:00Z,CYYH 252100Z 14007KT 15SM FEW040 FEW060 SCT120 SCT210 M13/M15 A3044 RMK SC1SC2AC2CI1 SC TR CI TR SLP313
CYYJ,2023-04-25T21:00:00Z,CYYJ 252100Z 10008KT 090V150 30SM FEW040 FEW055 FEW110 SCT250 12/05 A3026 RMK CU1SC1AC1CI2 SC TR SLP250
CYYL,2023-04-25T21:00:00Z,CYYL 252100Z AUTO 15014G21KT 9SM CLR 08/M07 A3012 RMK SLP221
CYYN,2023-04-25T21:00:00Z,CYYN 252100Z AUTO 20015G23KT 9SM FEW096 16/02 A2988 RMK ICE MISG SLP130 DENSITY ALT 3600FT
CYYQ,2023-04-25T21:00:00Z,CYYQ 252100Z 07007KT 15SM FEW250 M05/M07 A3039 RMK CI1 CI TR SLP298
CYYR,2023-04-25T21:00:00Z,CYYR 252100Z 05011KT 15SM SCT250 11/M02 A3030 RMK CI4 DENSITY ALT -614FT CONTRAILS SLP263
CYYT,2023-04-25T21:09:00Z,CYYT 252109Z 02013G24KT 1SM R16/4000VP6000FT/U -SN BR OVC001 M00/M00 A3011 RMK FG4ST4 SLP206
CYYU,2023-04-25T21:00:00Z,CYYU 252100Z 34007KT 1SM -SN FEW007 SCT010 BKN015 OVC020 00/M01 A3017 RMK SN3SC2SC2SC2SC2 SLP231
CYYW,2023-04-25T21:00:00Z,CYYW 252100Z AUTO VRB03KT 9SM OVC055 05/M08 A3027 RMK SLP270
CYYY,2023-04-25T21:00:00Z,CYYY 252100Z 04012KT 15SM BKN055 06/00 A3025 RMK SC6 SLP248
CYYZ,2023-04-25T21:00:00Z,CYYZ 252100Z 24013KT 15SM BKN080 10/M01 A3013 RMK AC7 SLP209
CYZE,2023-04-25T21:00:00Z,CYZE 252100Z AUTO 26008KT 9SM FEW029 SCT034 06/01 A3012 RMK SLP209
CYZF,2023-04-25T21:00:00Z,CYZF 252100Z 06010KT 15SM FEW055 BKN250 06/M03 A2978 RMK SC1CS6 SLP099
CYZG,2023-04-25T21:00:00Z,CYZG 252100Z 22006KT 15SM FEW014 BKN047 01/M02 A3034 RMK SF2SC5 LST STFD OB/ NXT 261200Z SLP297
CYZH,2023-04-25T21:12:00Z,CYZH 252112Z AUTO 31013G20KT 9SM FEW055 BKN094 OVC110 07/M04 A2982 RMK SLP116
CYZP,2023-04-25T21:06:00Z,CYZP 252106Z AUTO 14020KT 9SM BKN023 OVC029 08/06 A3006 RMK SLP182
CYZR,2023-04-25T21:00:00Z,CYZR 252100Z AUTO 20008KT 9SM FEW020 BKN031 BKN038 OVC049 06/02 A3016 RMK SLP220
CYZS,2023-04-25T21:00:00Z,CYZS 252100Z 09010KT 6SM -SN SCT007 OVC019 M03/M06 A3036 RMK ST4SC4 SLP288
CYZT,2023-04-25T21:00:00Z,CYZT 252100Z 09006KT 20SM -RA SCT042 OVC058 10/05 A3025 RMK SC3ST5 SLP248
CYZU,2023-04-25T21:00:00Z,CYZU 252100Z 33016G21KT 280V340 15SM FEW060 SCT087 BKN240 11/M06 A2985 RMK CU1AC3CI2 SLP128 DENSITY ALT 2900FT
CYZV,2023-04-25T21:00:00Z,CYZV 252100Z 15008KT 30SM FEW090 FEW210 BKN240 08/00 A3029 RMK AC1CI2CI5 AC TR SLP263
CYZW,2023-04-25T21:00:00Z,CYZW 252100Z 15006KT 100V200 25SM BKN055 04/M11 A2991 RMK CU6 SLP165
CYZX,2023-04-25T21:00:00Z,CYZX 252100Z 01010G15KT 15SM FEW250 11/03 A3021 RMK CI2 DENSITY ALT -553FT SLP233
CYZY,2023-04-25T21:00:00Z,CYZY 252100Z AUTO 25015G21KT 9SM BKN086 07/M11 A2998 RMK SLP180
CZBF,2023-04-25T21:00:00Z,CZBF 252100Z AUTO 05005KT 020V090 9SM CLR 07/02 A3026 RMK SLP253
CZCR,2023-04-25T21:00:00Z,CZCR 252100Z AUTO 08010KT 05/02 RMK AO1 SLP244 T00500023 55001
CZDB,2023-04-25T21:00:00Z,CZDB 252100Z AUTO 28006KT 11/02 RMK AO1 SLP234 T01120018 55004
CZEL,2023-04-25T21:00:00Z,CZEL 252100Z AUTO 25012KT 08/M04 RMK AO1 SLP210 T00771035 54000
CZEV,2023-04-25T21:00:00Z,CZEV 252100Z AUTO 08005KT M16/M23 RMK AO1 SOG 52 8009 SLP259 T11551226
CZFA,2023-04-25T21:00:00Z,CZFA 252100Z 27007KT 230V340 30SM SCT060 07/M06 A2983 RMK CU4 SLP137
CZFM,2023-04-25T21:00:00Z,CZFM 252100Z VRB02KT 35SM SCT100 OVC260 M13/M21 A3025 RMK AS4CS4 SLP250
CZFS,2023-04-25T21:00:00Z,CZFS 252100Z AUTO 33014G21KT M04/M08 RMK AO1 PK WND 33023/2020 SLP162 T10411082 51019
CZHY,2023-04-25T21:00:00Z,CZHY 252100Z AUTO 01008KT 01/M00 RMK AO1 SLP080 T00131001 53008
CZKD,2023-04-25T21:00:00Z,CZKD 252100Z AUTO 12004KT 07/M08 RMK AO1 SOG 29 8013 SLP268 T00701084
CZMD,2023-04-25T21:00:00Z,CZMD 252100Z AUTO 06006KT 050V190 9SM OVC055 05/M07 A3032 RMK SLP285
CZMJ,2023-04-25T21:00:00Z,CZMJ 252100Z AUTO 13019KT 13/04 RMK AO1 SOG 01 8014 PK WND 12023/2034 SLP181 T01290037
CZMT,2023-04-25T21:00:00Z,CZMT 252100Z 15013G21KT 15SM BKN030 OVC120 09/03 A3008 RMK SC6AC2 SLP187
CZPC,2023-04-25T21:00:00Z,CZPC 252100Z AUTO 25028KT 9SM SCT190 SCT220 12/M03 A2993 RMK SLP151 DENSITY ALT 4500FT
CZSJ,2023-04-25T21:00:00Z,CZSJ 252100Z AUTO 14003KT 090V180 9SM SCT055 06/M08 A3030 RMK SLP280
CZSM,2023-04-25T21:00:00Z,CZSM 252100Z AUTO 14006KT 11/02 RMK AO1 SLP070 T01090023 57007
CZSP,2023-04-25T21:00:00Z,CZSP 252100Z AUTO 05008KT 03/01 RMK AO1 SLP250 T00330013 55002
CZST,2023-04-25T21:00:00Z,CZST 252100Z 25005KT 190V280 12SM SCT055 OVC075 07/01 A3017 RMK SC3AC5 SLP218
CZTB,2023-04-25T21:00:00Z,CZTB 252100Z AUTO 00000KT 05/M06 RMK AO1 SOG 02 7001 SLP266 T00541057
CZUM,2023-04-25T21:00:00Z,CZUM 252100Z AUTO 06009KT 9SM CLR 12/M03 A3023 RMK SLP256
CZVL,2023-04-25T21:00:00Z,CZVL 252100Z AUTO 32016G22KT 9SM FEW086 10/01 A2986 RMK SLP129
CZZJ,2023-04-25T21:00:00Z,CZZJ 252100Z AUTO 30008G15KT 11/M04 RMK AO1 SLP130 T01081042 58009
DAAG,2023-04-25T21:00:00Z,DAAG 252100Z 00000KT CAVOK 17/10 Q1015
DAAS,2023-04-25T21:00:00Z,DAAS 252100Z 14004KT CAVOK 17/M02 Q1020
DAAT,2023-04-25T21:00:00Z,DAAT 252100Z 22005KT 200V260 CAVOK 27/M07 Q1016
DABB,2023-04-25T21:00:00Z,DABB 252100Z 27004KT 240V300 CAVOK 15/12 Q1015
DABC,2023-04-25T21:00:00Z,DABC 252100Z VRB02KT CAVOK 17/05 Q1018
DABS,2023-04-25T21:00:00Z,DABS 252100Z 09005KT 9999 SCT033 19/M00 Q1018
DAOB,2023-04-25T21:00:00Z,DAOB 252100Z 28004KT CAVOK 18/M05 Q1020
DAOI,2023-04-25T21:00:00Z,DAOI 252100Z VRB02KT CAVOK 26/M05 Q1015
DAON,2023-04-25T21:00:00Z,DAON 252100Z VRB02KT CAVOK 21/05 Q1015
DAOO,2023-04-25T21:00:00Z,DAOO 252100Z VRB02KT 9999 FEW033 21/06 Q1014
DAUA,2023-04-25T21:00:00Z,DAUA 252100Z 36010KT CAVOK 28/M02 Q1013
DAUB,2023-04-25T21:00:00Z,DAUB 252100Z 29004KT CAVOK 29/// Q1012
DAUG,2023-04-25T21:00:00Z,DAUG 252100Z 28005KT CAVOK 29/01 Q1015
DAUH,2023-04-25T21:00:00Z,DAUH 252100Z 16005KT CAVOK 29/M01 Q1013
DBBB,2023-04-25T21:00:00Z,DBBB 252100Z 20007KT 9999 SCT012 30/26 Q1010 NOSIG
DFFD,2023-04-25T21:00:00Z,DFFD 252100Z 34004KT CAVOK 34/14 Q1008 NOSIG
DFOO,2023-04-25T21:00:00Z,DFOO 252100Z 00000KT CAVOK 29/23 Q1009
DGAA,2023-04-25T21:00:00Z,DGAA 252100Z 19009KT 9999 FEW020 29/25 Q1010 NOSIG
DIAP,2023-04-25T21:11:00Z,DIAP 252111Z 26004KT 9999 FEW011 27/27 Q1010 RETS NOSIG
DIBK,2023-04-25T21:00:00Z,DIBK 252100Z 24008KT 8000 TS FEW013 FEW020CB 27/21 Q1011 NOSIG
DIYO,2023-04-25T21:00:00Z,DIYO 252100Z 18006KT 8000 TS FEW020CB 26/22 Q1011 NOSIG
DNKN,2023-04-25T21:00:00Z,DNKN 252100Z 00000KT CAVOK 30/19 Q1011 NOSIG
DNMM,2023-04-25T21:00:00Z,DNMM 252100Z 25007KT 7000 TS FEW009 FEW020CB 25/23 Q1012 NOSIG
DRRN,2023-04-25T21:00:00Z,DRRN 252100Z 28004KT 9000 NSC 37/00 Q1007 NOSIG
DTKA,2023-04-25T21:00:00Z,DTKA 252100Z 00000KT 9999 FEW020 14/09 Q1015 NOSIG
DTMB,2023-04-25T21:00:00Z,DTMB 252100Z 20003KT 9999 FEW023 20/10 Q1014
DTNH,2023-04-25T21:00:00Z,DTNH 252100Z 33001KT CAVOK 16/12 Q1015 NOSIG
DTTA,2023-04-25T21:00:00Z,DTTA 252100Z 15002KT 9999 FEW026 18/14 Q1014
DTTB,2023-04-25T21:00:00Z,DTTB 252100Z VRB02KT CAVOK 17/11 Q1014
DTTD,2023-04-25T21:00:00Z,DTTD 252100Z AUTO 05003KT 360V100 NCD 25/06 Q1015
DTTF,2023-04-25T21:00:00Z,DTTF 252100Z 07013KT 9999 BKN030 23/07 Q1015 NOSIG
DTTG,2023-04-25T21:00:00Z,DTTG 252100Z 05012KT CAVOK 21/16 Q1013 NOSIG
DTTJ,2023-04-25T21:00:00Z,DTTJ 252100Z 08004KT 9999 FEW030 21/13 Q1014 NOSIG
DTTK,2023-04-25T21:00:00Z,DTTK 252100Z VRB02KT 9999 FEW023 22/06 Q1015
DTTL,2023-04-25T21:00:00Z,DTTL 252100Z 20004KT 140V240 CAVOK 18/15 Q1014
DTTN,2023-04-25T21:00:00Z,DTTN 252100Z ///04KT 8000 FEW020 22/06 Q1014
DTTX,2023-04-25T21:00:00Z,DTTX 252100Z 10003KT 9999 SCT030 20/13 Q1015
DTTZ,2023-04-25T21:00:00Z,DTTZ 252100Z 22009KT 8000 NSC 29/05 Q1012
DXSK,2023-04-25T21:00:00Z,DXSK 252100Z 28004KT 8000 RATS SCT013 FEW016CB BKN120 24/21 Q////
DXXX,2023-04-25T21:00:00Z,DXXX 252100Z 21006KT 9999 TS FEW013 FEW020CB 29/26 Q1011 BECMG NSW
EBAW,2023-04-25T21:20:00Z,EBAW 252120Z AUTO 34005KT 9999 // VV/// 05/00 Q1019
EBBE,2023-04-25T20:55:00Z,EBBE 252055Z 31003KT 9999 SKC 04/M00 Q1019 BLU BLU
EBBL,2023-04-25T20:55:00Z,EBBL 252055Z VRB01KT 9999 SKC 04/00 Q1019 BLU BLU
EBBR,2023-04-25T21:20:00Z,EBBR 252120Z 33004KT CAVOK 03/00 Q1019 NOSIG
EBCI,2023-04-25T21:20:00Z,EBCI 252120Z 35003KT CAVOK 04/M01 Q1019 NOSIG
EBCV,2023-04-25T20:55:00Z,EBCV 252055Z AUTO 36004KT 9999 FEW085/// SCT100/// BKN110/// 04/01 Q1019 BLU
EBDT,2023-04-25T20:55:00Z,EBDT 252055Z 32006KT 9999 SKC 04/M00 Q1019 BLU BLU
EBFN,2023-04-25T21:10:00Z,EBFN 252110Z VRB02KT 9999 FEW030 05/02 Q1020 BLU FCST CANCEL
EBFS,2023-04-25T20:55:00Z,EBFS 252055Z 36003KT 9999 FEW060 04/M01 Q1018 BLU BLU
EBLB,2023-04-25T21:08:00Z,EBLB 252108Z AUTO VRB01KT 9999 BKN024/// 01/M00 Q1017 WHT
EBLG,2023-04-25T21:20:00Z,EBLG 252120Z VRB02KT CAVOK 04/M00 Q1019 NOSIG
EBOS,2023-04-25T21:20:00Z,EBOS 252120Z 07002KT 9999 FEW035 05/M01 Q1020 NOSIG
EDAC,2023-04-25T21:20:00Z,EDAC 252120Z AUTO 30003KT 270V330 9999 // SCT041/// BKN050/// OVC087/// 05/01 Q1014
EDAH,2023-04-25T21:20:00Z,EDAH 252120Z AUTO 26014KT 9999 // NCD 05/01 Q1009
EDBC,2023-04-25T21:20:00Z,EDBC 252120Z AUTO 27009KT 9999 // SCT089/// 04/01 Q1014
EDDB,2023-04-25T21:20:00Z,EDDB 252120Z AUTO 26006KT 9999 SCT045 04/00 Q1012 NOSIG
EDDC,2023-04-25T21:20:00Z,EDDC 252120Z AUTO 29007KT 260V320 CAVOK 05/M01 Q1013
EDDE,2023-04-25T21:20:00Z,EDDE 252120Z AUTO 29009KT CAVOK 04/01 Q1015
EDDF,2023-04-25T21:20:00Z,EDDF 252120Z AUTO 22004KT CAVOK 04/M00 Q1017 NOSIG
EDDG,2023-04-25T21:20:00Z,EDDG 252120Z AUTO 28004KT CAVOK 04/01 Q1017 NOSIG
EDDH,2023-04-25T21:20:00Z,EDDH 252120Z AUTO 29008KT 250V340 9999 FEW020 SCT049 05/02 Q1013 NOSIG
EDDK,2023-04-25T21:20:00Z,EDDK 252120Z AUTO 34002KT 9999 FEW048 04/00 Q1018 NOSIG
EDDL,2023-04-25T21:20:00Z,EDDL 252120Z AUTO VRB02KT CAVOK 04/00 Q1018 NOSIG
EDDM,2023-04-25T21:20:00Z,EDDM 252120Z AUTO 26004KT 9999 -RA SCT033 06/05 Q1016 NOSIG
EDDN,2023-04-25T21:20:00Z,EDDN 252120Z AUTO 30004KT 9999 FEW042 BKN049 07/01 Q1016
EDDP,2023-04-25T21:20:00Z,EDDP 252120Z AUTO 29011G21KT 9999 FEW043 06/01 Q1014 NOSIG
EDDR,2023-04-25T21:20:00Z,EDDR 252120Z AUTO 35004KT CAVOK 05/M00 Q1017
EDDS,2023-04-25T21:20:00Z,EDDS 252120Z AUTO 28004KT 9999 -RA SCT039 BKN048 06/04 Q1016
EDDV,2023-04-25T21:20:00Z,EDDV 252120Z AUTO 27005KT CAVOK 04/00 Q1015
EDDW,2023-04-25T21:20:00Z,EDDW 252120Z AUTO 28009KT 9999 FEW032 04/01 Q1015
EDFH,2023-04-25T21:20:00Z,EDFH 252120Z 31003KT 270V340 CAVOK 04/M01 Q1017
EDFM,2023-04-25T21:20:00Z,EDFM 252120Z AUTO 31006KT 9999 // OVC086/// 09/M00 Q1017
EDGS,2023-04-25T21:20:00Z,EDGS 252120Z AUTO 32005KT 9999 // SCT043/// BKN058/// 02/M01 Q1015
EDHI,2023-04-25T21:20:00Z,EDHI 252120Z AUTO 28009KT 260V320 9999 // SCT019/// BKN032/// BKN047/// 04/02 Q1014
EDHK,2023-04-25T21:20:00Z,EDHK 252120Z AUTO 28009KT 9999 // FEW030/// 04/01 Q1012
EDHL,2023-04-25T21:20:00Z,EDHL 252120Z AUTO 27006KT 240V300 9999 // SCT027/// BKN036/// 04/01 Q1013
EDJA,2023-04-25T21:20:00Z,EDJA 252120Z AUTO 21008KT 9999 // SCT040/// OVC060/// 04/03 Q1016
EDLN,2023-04-25T21:20:00Z,EDLN 252120Z AUTO VRB02KT 9999 // NCD 03/M00 Q1018
EDLP,2023-04-25T21:20:00Z,EDLP 252120Z 27003KT 240V300 CAVOK 03/M01 Q1017
EDLV,2023-04-25T21:20:00Z,EDLV 252120Z 28003KT CAVOK 04/01 Q1018
EDLW,2023-04-25T21:20:00Z,EDLW 252120Z AUTO 24002KT 9999 // FEW075/// 03/M01 Q1017
EDMA,2023-04-25T21:20:00Z,EDMA 252120Z AUTO 31007KT 9999 // BKN029/// BKN036/// OVC055/// 05/04 Q1016
EDMO,2023-04-25T21:20:00Z,EDMO 252120Z AUTO 21005KT 9999 // SCT024/// OVC029/// 05/04 Q1016
EDNY,2023-04-25T21:20:00Z,EDNY 252120Z AUTO VRB02KT 9999 FEW042/// BKN059/// OVC073/// 06/06 Q1016
EDQM,2023-04-25T21:20:00Z,EDQM 252120Z AUTO 27004KT 9999 // SCT063/// OVC079/// 02/M01 Q1014
EDSB,2023-04-25T21:20:00Z,EDSB 252120Z AUTO 23006KT 190V250 4100 SCT007/// BKN036/// OVC053/// 07/04 Q1017
EDTL,2023-04-25T21:20:00Z,EDTL 252120Z AUTO 33002KT 9999 // FEW013/// BKN025/// OVC031/// 07/07 Q1018
EDTY,2023-04-25T21:20:00Z,EDTY 252120Z AUTO 23003KT 9999 // OVC084/// 05/03 Q1016
EDVE,2023-04-25T21:20:00Z,EDVE 252120Z AUTO 28006KT 9999 SCT041/// BKN050/// 04/00 Q1015
EDVK,2023-04-25T21:20:00Z,EDVK 252120Z AUTO 26005KT 9999 // SCT048/// BKN083/// 04/01 Q1016
EDWE,2023-04-25T21:20:00Z,EDWE 252120Z AUTO 29005KT 9999 // FEW031/// SCT046/// 05/01 Q1016
EDXW,2023-04-25T21:20:00Z,EDXW 252120Z AUTO 32020KT 9999 // SCT026/// BKN033/// 06/01 Q1012
EEEI,2023-04-25T20:50:00Z,EEEI 252050Z AUTO VRB02KT CAVOK 10/05 Q1002
EEKE,2023-04-25T21:20:00Z,EEKE 252120Z AUTO 26004KT 190V330 9999NDV SCT025 06/04 Q1003
EEPU,2023-04-25T21:20:00Z,EEPU 252120Z AUTO 20003KT 9999 NCD 08/05 Q1002
EETN,2023-04-25T21:20:00Z,EETN 252120Z 12005KT CAVOK 11/03 Q1002 NOSIG
EETU,2023-04-25T21:20:00Z,EETU 252120Z AUTO 14005KT 9999 SCT100/// 12/03 Q1003
EFET,2023-04-25T21:20:00Z,EFET 252120Z AUTO 05008KT CAVOK M02/M08 Q1012
EFHA,2023-04-25T21:20:00Z,EFHA 252120Z AUTO 14005KT CAVOK 09/04 Q1002
EFHK,2023-04-25T21:20:00Z,EFHK 252120Z 05006KT CAVOK 10/04 Q1002 NOSIG
EFIV,2023-04-25T21:20:00Z,EFIV 252120Z AUTO 04006KT CAVOK M02/M08 Q1015
EFJO,2023-04-25T21:20:00Z,EFJO 252120Z AUTO 12004KT CAVOK 05/03 Q1006
EFJY,2023-04-25T21:20:00Z,EFJY 252120Z AUTO VRB01KT CAVOK 04/04 Q1003
EFKE,2023-04-25T21:20:00Z,EFKE 252120Z AUTO 09012KT 9000 -SNRA OVC009 //////CB 01/M00 Q1006 RESHRA
EFKI,2023-04-25T21:20:00Z,EFKI 252120Z AUTO 09011KT 9999 OVC004 01/00 Q1007
EFKK,2023-04-25T21:20:00Z,EFKK 252120Z AUTO 17003KT 1800 1400 R01/P2000U BR FEW002 04/04 Q1002
EFKS,2023-04-25T21:20:00Z,EFKS 252120Z AUTO 09010KT 050V120 9999 -SN FEW007 OVC029 M02/M04 Q1010
EFKT,2023-04-25T21:20:00Z,EFKT 252120Z AUTO 05010KT CAVOK 01/M09 Q1010
EFKU,2023-04-25T21:20:00Z,EFKU 252120Z AUTO 10005KT CAVOK 02/01 Q1006
EFLP,2023-04-25T21:20:00Z,EFLP 252120Z AUTO 09004KT CAVOK 09/01 Q1005
EFMA,2023-04-25T21:20:00Z,EFMA 252120Z AUTO 13005KT 1300 R21/1500U BCFG VV002 06/06 Q1001
EFMI,2023-04-25T21:20:00Z,EFMI 252120Z AUTO VRB02KT CAVOK 04/03 Q1004
EFOU,2023-04-25T21:20:00Z,EFOU 252120Z AUTO 10018KT 9999 -SNRA SCT005 BKN020 //////CB 02/01 Q1005 RESHRA
EFPO,2023-04-25T21:20:00Z,EFPO 252120Z AUTO 30003KT 270V330 9999 -SHRA OVC003 //////CB 07/06 Q1002
EFRO,2023-04-25T21:20:00Z,EFRO 252120Z AUTO 08014KT 6000 -SN SCT004 OVC026 M01/M02 Q1008
EFSA,2023-04-25T21:20:00Z,EFSA 252120Z AUTO VRB01KT 2000 BCFG NCD 03/03 Q1005
EFSI,2023-04-25T21:20:00Z,EFSI 252120Z AUTO 13003KT 1000 R32/2000N SHRA FEW020 //////CB 07/07 Q1002
EFTP,2023-04-25T21:20:00Z,EFTP 252120Z AUTO VRB01KT CAVOK 06/05 Q1002
EFTU,2023-04-25T21:20:00Z,EFTU 252120Z AUTO VRB01KT 4100 1000 R26/P2000D BR NSC 07/07 Q1002
EFUT,2023-04-25T21:20:00Z,EFUT 252120Z AUTO 11007KT CAVOK 09/02 Q1004
EFVA,2023-04-25T21:20:00Z,EFVA 252120Z AUTO 19004KT 9999 -SHRA OVC003 07/06 Q1002
EGAA,2023-04-25T21:20:00Z,EGAA 252120Z AUTO 11003KT 9999 SCT043 06/03 Q1018
EGAC,2023-04-25T21:20:00Z,EGAC 252120Z AUTO 06003KT 9999 BKN046 08/03 Q1018
EGBB,2023-04-25T21:20:00Z,EGBB 252120Z 19002KT CAVOK 07/01 Q1019
EGCC,2023-04-25T21:20:00Z,EGCC 252120Z AUTO 07003KT 9999 NCD 06/M01 Q1019 NOSIG
EGCK,2023-04-25T21:20:00Z,EGCK 252120Z AUTO 04005KT 9999 NCD 07/02 Q1018
EGDM,2023-04-25T20:50:00Z,EGDM 252050Z AUTO 20003KT 9999 OVC170/// 05/01 Q1019
EGDR,2023-04-25T20:50:00Z,EGDR 252050Z 08015KT 9999 -RA FEW025 BKN030 OVC050 08/05 Q1016 TEMPO 7000 -RA SCT014 RMK BLU TEMPO GRN
EGDY,2023-04-25T20:50:00Z,EGDY 252050Z 10002KT 9999 FEW040 BKN180 06/01 Q1018 NOSIG RMK BLU BLU
EGEC,2023-04-25T21:20:00Z,EGEC 252120Z AUTO 10002KT //// // ///////// ///// Q////
EGFF,2023-04-25T21:20:00Z,EGFF 252120Z AUTO 18005KT 150V210 9999 NCD 07/02 Q1018
EGGD,2023-04-25T21:20:00Z,EGGD 252120Z AUTO 18004KT 9999 NCD 06/01 Q1018
EGGP,2023-04-25T21:20:00Z,EGGP 252120Z 04005KT CAVOK 07/M02 Q1019
EGGW,2023-04-25T21:20:00Z,EGGW 252120Z AUTO 13003KT 9999 NCD 04/M02 Q1019
EGHH,2023-04-25T21:20:00Z,EGHH 252120Z 07003KT CAVOK 05/01 Q1019
EGHQ,2023-04-25T21:20:00Z,EGHQ 252120Z AUTO 11011KT 9999 NCD 07/00 Q1017
EGJB,2023-04-25T20:50:00Z,EGJB 252050Z 09013KT 9999 FEW045 08/02 Q1017
EGJJ,2023-04-25T21:20:00Z,EGJJ 252120Z AUTO 09015KT 9999 NCD 08/03 Q1017
EGKB,2023-04-25T21:20:00Z,EGKB 252120Z 15007KT CAVOK 05/01 Q1019
EGKK,2023-04-25T21:20:00Z,EGKK 252120Z 12002KT CAVOK 06/01 Q1019
EGLC,2023-04-25T21:20:00Z,EGLC 252120Z AUTO 15005KT 9999 NCD 08/02 Q1020
EGLF,2023-04-25T21:20:00Z,EGLF 252120Z AUTO 19003KT 9999 NCD 07/01 Q1019
EGLL,2023-04-25T21:20:00Z,EGLL 252120Z AUTO 18006KT 9999 NCD 08/00 Q1019
EGMD,2023-04-25T21:20:00Z,EGMD 252120Z AUTO 10008KT 9999 NCD 07/03 Q1020
EGNJ,2023-04-25T21:20:00Z,EGNJ 252120Z AUTO VRB02KT //// // ///////// 03/01 Q1020
EGNM,2023-04-25T21:20:00Z,EGNM 252120Z 11009KT CAVOK 04/M01 Q1019
EGNS,2023-04-25T20:50:00Z,EGNS 252050Z 03006KT CAVOK 06/01 Q1018
EGNT,2023-04-25T21:20:00Z,EGNT 252120Z 21002KT CAVOK 02/M00 Q1019
EGNV,2023-04-25T20:50:00Z,EGNV 252050Z 13003KT CAVOK 03/M01 Q1020
EGNX,2023-04-25T21:20:00Z,EGNX 252120Z 11009KT CAVOK 06/01 Q1019
EGOM,2023-04-25T20:50:00Z,EGOM 252050Z AUTO 11008KT 9999 OVC042/// 04/M02 Q1018
EGOP,2023-04-25T20:50:00Z,EGOP 252050Z AUTO 12005KT 9999 OVC059/// 09/01 Q1018
EGOS,2023-04-25T20:50:00Z,EGOS 252050Z AUTO 22001KT 9999 FEW063/// OVC190/// 05/M00 Q1018
EGOV,2023-04-25T20:50:00Z,EGOV 252050Z AUTO 05007KT 9999 OVC170/// 07/00 Q1018
EGPA,2023-04-25T21:20:00Z,EGPA 252120Z AUTO 32008KT 9999 NCD 03/M01 Q1018
EGPB,2023-04-25T21:20:00Z,EGPB 252120Z AUTO 36007KT 9999 FEW022/// 02/M01 Q1017
EGPC,2023-04-25T21:20:00Z,EGPC 252120Z AUTO 27009KT 9999 SCT049/// 01/M01 Q1019
EGPD,2023-04-25T21:20:00Z,EGPD 252120Z AUTO 29003KT 260V330 9999 NCD 02/M02 Q1019
EGPE,2023-04-25T21:20:00Z,EGPE 252120Z AUTO 02004KT 9999 FEW043/// 03/M01 Q1020
EGPF,2023-04-25T21:20:00Z,EGPF 252120Z AUTO 24007KT 9999 NCD 02/M02 Q1019
EGPH,2023-04-25T21:20:00Z,EGPH 252120Z VRB01KT CAVOK 05/00 Q1018
EGPI,2023-04-25T20:50:00Z,EGPI 252050Z AUTO 09003KT 9999 NCD 02/M02 Q1019
EGPK,2023-04-25T21:20:00Z,EGPK 252120Z 08003KT 9999 FEW035 04/M01 Q1019
EGPL,2023-04-25T21:20:00Z,EGPL 252120Z AUTO 05008KT 9999 NCD 03/00 Q1020
EGPN,2023-04-25T21:20:00Z,EGPN 252120Z VRB02KT 9999 FEW035 06/M01 Q1019
EGPO,2023-04-25T21:20:00Z,EGPO 252120Z AUTO 32002KT 9999 NCD 02/M02 Q1020
EGQA,2023-04-25T20:50:00Z,EGQA 252050Z AUTO 36008KT 9999 SCT053/// 02/M03 Q1020
EGQK,2023-04-25T20:50:00Z,EGQK 252050Z AUTO 34010KT 9999 OVC066/// 04/M02 Q1020
EGQL,2023-04-25T20:50:00Z,EGQL 252050Z 14004KT CAVOK 06/00 Q1019 RMK BLU
EGQM,2023-04-25T20:50:00Z,EGQM 252050Z AUTO 24003KT 9999 OVC066/// 03/M01 Q1019
EGQS,2023-04-25T20:50:00Z,EGQS 252050Z 36012KT 9999 FEW033 04/M01 Q1019 NOSIG RMK BLU BLU
EGSH,2023-04-25T21:20:00Z,EGSH 252120Z 17001KT CAVOK 04/01 Q1020 NOSIG
EGSS,2023-04-25T21:20:00Z,EGSS 252120Z AUTO 13007KT 110V280 9999 NCD 06/02 Q1020
EGSY,2023-04-25T21:20:00Z,EGSY 252120Z AUTO 16003KT 110V220 9999 NCD 08/02 Q1018
EGTE,2023-04-25T21:20:00Z,EGTE 252120Z 06003KT CAVOK 07/02 Q1018
EGTK,2023-04-25T21:20:00Z,EGTK 252120Z 03002KT CAVOK 06/00 Q1019
EGUB,2023-04-25T20:50:00Z,EGUB 252050Z AUTO 09007KT 9999 OVC060/// 04/01 Q1019
EGUL,2023-04-25T20:55:00Z,EGUL 252055Z AUTO 08004KT 9999 CLR 05/02 A3011 RMK AO2 SLP200 T00500022 52013 $
EGUN,2023-04-25T20:55:00Z,EGUN 252055Z 08006KT 9999 FEW065 SCT250 05/03 A3011 RMK AO2A SLP200 T00510030 52012 $
EGUW,2023-04-25T20:50:00Z,EGUW 252050Z AUTO 13002KT 9999 BKN028/// 05/02 Q1020
EGVA,2023-04-25T20:55:00Z,EGVA 252055Z AUTO 02004KT 9999 BKN060 07/02 A3006 RMK AO2 SLP184 T00690018 53007 FZRANO $
EGVN,2023-04-25T20:50:00Z,EGVN 252050Z 04003KT CAVOK 06/M01 Q1018 NOSGI RMK BLU NOSGI BLU
EGVO,2023-04-25T20:50:00Z,EGVO 252050Z 21004KT CAVOK 06/01 Q1019 NOSIG RMK BLU BLU
EGVP,2023-04-25T20:50:00Z,EGVP 252050Z 18002KT CAVOK 06/01 Q1019 NOSIG RMK BLU BLU
EGWC,2023-04-25T20:50:00Z,EGWC 252050Z AUTO 02002KT //// ///////// ///// Q////
EGWU,2023-04-25T20:50:00Z,EGWU 252050Z 15003KT CAVOK 06/M01 Q1019 NOSIG RMK BLU BLU
EGXC,2023-04-25T20:50:00Z,EGXC 252050Z 09005KT CAVOK 04/00 Q1020 RMK BLU
EGXE,2023-04-25T20:50:00Z,EGXE 252050Z AUTO 04001KT 9999 FEW055/// BKN072/// 04/M00 Q1019
EGXS,2023-04-25T20:50:00Z,EGXS 252050Z AUTO 09005KT 9999 NCD 06/M01 Q1020
EGXT,2023-04-25T20:50:00Z,EGXT 252050Z AUTO 08006KT 9999 NCD 05/01 Q1019
EGXV,2023-04-25T20:50:00Z,EGXV 252050Z AUTO 17001KT 9999 BKN072/// 02/M00 Q1019
EGXW,2023-04-25T20:50:00Z,EGXW 252050Z 10006KT CAVOK 04/00 Q1019 NOSIG RMK BLU BLU
EGXZ,2023-04-25T20:50:00Z,EGXZ 252050Z AUTO 11003KT 9999 FEW060/// OVC072/// 04/00 Q1020
EGYD,2023-04-25T20:50:00Z,EGYD 252050Z AUTO 09005KT 9999 NCD 03/M00 Q1019
EGYE,2023-04-25T20:50:00Z,EGYE 252050Z AUTO 11007KT //// ///////// ///// Q////
EGYH,2023-04-25T20:50:00Z,EGYH 252050Z AUTO 11008KT 9999 NCD 03/M00 Q1020
EGYM,2023-04-25T20:50:00Z,EGYM 252050Z 10004KT 9999 FEW040 04/M01 Q1020
EGYP,2023-04-25T20:50:00Z,EGYP 252050Z 27012KT 9999 SCT022 BKN030 08/04 Q1006 NOSIG
EHAK,2023-04-25T20:55:00Z,EHAK 252055Z AUTO 33024KT 9999 FEW022/// SCT027/// 06/01 Q1016
EHAM,2023-04-25T20:55:00Z,EHAM 252055Z 31003KT 270V020 9999 FEW028 05/02 Q1019 NOSIG
EHBK,2023-04-25T20:55:00Z,EHBK 252055Z AUTO 33004KT CAVOK 05/00 Q1018 NOSIG
EHDL,2023-04-25T20:55:00Z,EHDL 252055Z AUTO 27003KT 9999 NCD 03/02 Q1018 BLU
EHDV,2023-04-25T20:55:00Z,EHDV 252055Z AUTO 32018KT 9999 FEW020/// SCT029/// 06/// Q1018
EHEH,2023-04-25T20:59:00Z,EHEH 252059Z AUTO 32003KT 280V360 9999 NCD 04/00 Q1019 BLU
EHFD,2023-04-25T20:55:00Z,EHFD 252055Z AUTO 30024KT 9999 FEW026/// 06/M00 Q1015
EHFS,2023-04-25T20:55:00Z,EHFS 252055Z AUTO 33003KT 9999 FEW031/// 06/01 Q1019
EHGG,2023-04-25T20:55:00Z,EHGG 252055Z AUTO 25006KT CAVOK 03/01 Q1017 NOSIG
EHGR,2023-04-25T20:55:00Z,EHGR 252055Z AUTO 31003KT 250V330 9999 NCD 04/M00 Q1019 BLU
EHHW,2023-04-25T20:55:00Z,EHHW 252055Z AUTO 33015KT 280V350 9999 FEW026/// SCT029/// 06/01 Q1016
EHJA,2023-04-25T20:55:00Z,EHJA 252055Z AUTO 32019KT 9999 SCT024/// SCT033/// 06/M00 Q1018
EHJR,2023-04-25T20:55:00Z,EHJR 252055Z AUTO 31013KT 280V340 //// // ///////// 06/02 Q1019 RE// W09/H25
EHKD,2023-04-25T20:55:00Z,EHKD 252055Z AUTO 31010KT 260V340 9999 OVC062 06/02 Q1018 BLU
EHKV,2023-04-25T20:55:00Z,EHKV 252055Z AUTO 35019KT 9999 FEW023 SCT036 06/00 Q1019
EHLE,2023-04-25T20:55:00Z,EHLE 252055Z AUTO 30008KT 9999 FEW043 06/01 Q1018
EHLW,2023-04-25T20:55:00Z,EHLW 252055Z AUTO 26005KT 230V310 9999 NCD 04/01 Q1017 BLU
EHMA,2023-04-25T20:55:00Z,EHMA 252055Z AUTO 31020KT 9999 FEW023 SCT030 06/00 Q1016
EHMG,2023-04-25T20:55:00Z,EHMG 252055Z AUTO 31019KT 9999 FEW029 SCT033 07/M00 Q1018
EHPG,2023-04-25T20:55:00Z,EHPG 252055Z AUTO 34012KT 270V080 9999 FEW027 SCT034 07/00 Q1019
EHRD,2023-04-25T20:55:00Z,EHRD 252055Z AUTO VRB02KT 9999 NSC 03/02 Q1019 NOSIG
EHSA,2023-04-25T20:55:00Z,EHSA 252055Z AUTO 34012KT 9999 ///////// 07/01 Q1019 W08/H14
EHSC,2023-04-25T20:55:00Z,EHSC 252055Z AUTO 34012KT 9999 ///////// 07/01 Q1020 W10/H13
EHVK,2023-04-25T20:55:00Z,EHVK 252055Z AUTO 30003KT 270V350 9999 NCD 05/00 Q1018 BLU
EHVL,2023-04-25T21:11:00Z,EHVL 252111Z AUTO 32015KT 9999 FEW027 06/M00 Q1018 BLU
EHWO,2023-04-25T20:55:00Z,EHWO 252055Z AUTO 05001KT 9999 NCD 02/M00 Q1019 BLU
EICK,2023-04-25T21:00:00Z,EICK 252100Z 12013KT 9999 SCT017 SCT040 BKN070 08/05 Q1015 NOSIG
EIDW,2023-04-25T21:00:00Z,EIDW 252100Z 14007KT 9999 FEW017 BKN060 08/01 Q1018 NOSIG
EIME,2023-04-25T21:00:00Z,EIME 252100Z 10006KT CAVOK 07/03 Q1017
EINN,2023-04-25T21:00:00Z,EINN 252100Z 12008KT 9999 FEW030 SCT050 BKN060 09/05 Q1016 NOSIG
EISG,2023-04-25T21:00:00Z,EISG 252100Z 12006KT 9999 FEW046 SCT050 BKN060 09/02 Q1017
EIWF,2023-04-25T21:00:00Z,EIWF 252100Z 12007KT 090V150 CAVOK 08/04 Q1017
EKAH,2023-04-25T21:20:00Z,EKAH 252120Z AUTO 27016KT 9999 NCD 05/01 Q1006
EKBI,2023-04-25T21:20:00Z,EKBI 252120Z AUTO 29015KT 9999 SCT033/// 04/M02 Q1009
EKCH,2023-04-25T21:20:00Z,EKCH 252120Z AUTO 27018KT 9999 NCD 06/M01 Q1006 TEMPO 28017G28KT
EKEB,2023-04-25T21:20:00Z,EKEB 252120Z AUTO 30016KT 9999 FEW046/// 05/M00 Q1010
EKKA,2023-04-25T21:20:00Z,EKKA 252120Z AUTO 29015KT 9999 BKN030/// 05/M00 Q1008
EKRK,2023-04-25T21:20:00Z,EKRK 252120Z AUTO 28010KT 9999 BKN043/// 06/M02 Q1006
EKRN,2023-04-25T21:20:00Z,EKRN 252120Z AUTO 27014KT 9999 FEW035/// OVC054/// 07/03 Q1006
EKRS,2023-04-25T21:20:00Z,EKRS 252120Z AUTO 29009KT 200V340 9999 OVC045/// 06/02 Q1007
EKSB,2023-04-25T21:20:00Z,EKSB 252120Z AUTO 28009KT 250V310 9999 FEW033/// 05/01 Q1010
EKSP,2023-04-25T21:20:00Z,EKSP 252120Z 29014KT 9999 FEW035 SCT046 04/M00 Q1010
EKVD,2023-04-25T21:20:00Z,EKVD 252120Z AUTO 29011KT //// ///////// 04/00 Q1010
EKVG,2023-04-25T21:20:00Z,EKVG 252120Z AUTO 34010KT 4800 -SN BKN016/// M00/M03 Q1021 RMK BKN021/// WIND SKEID 35010KT 330V030
EKYT,2023-04-25T21:20:00Z,EKYT 252120Z AUTO 29012KT 270V330 9999 FEW042/// 06/01 Q1004
ELLX,2023-04-25T21:20:00Z,ELLX 252120Z 33004KT 290V350 CAVOK 03/00 Q1017 NOSIG
ENAL,2023-04-25T20:50:00Z,ENAL 252050Z 01006KT 9999 -DZ SCT016 BKN021 02/00 Q1008
ENAN,2023-04-25T21:20:00Z,ENAN 252120Z 07016KT CAVOK 02/M08 Q1013
ENAT,2023-04-25T21:20:00Z,ENAT 252120Z 23003KT 210V270 9999 FEW030 M03/M08 Q1017 RMK WIND 700FT 16006KT
ENBL,2023-04-25T21:20:00Z,ENBL 252120Z 34006KT 310V030 9999 SCT035 M00/M03 Q1006
ENBN,2023-04-25T21:20:00Z,ENBN 252120Z AUTO 02005KT 9999NDV -RA OVC017/// 01/M02 Q1007
ENBO,2023-04-25T21:20:00Z,ENBO 252120Z 07008KT 9999 BKN014 01/M02 Q1010
ENBR,2023-04-25T21:20:00Z,ENBR 252120Z 34013KT 9999 FEW035 04/M02 Q1008 RMK WIND 1200FT 33029KT
ENBS,2023-04-25T21:20:00Z,ENBS 252120Z AUTO 28014KT 9999 SCT033/// M01/M04 Q1015
ENBV,2023-04-25T20:50:00Z,ENBV 252050Z 29010KT 9999 FEW012 BKN045 01/M00 Q1016
ENCN,2023-04-25T21:20:00Z,ENCN 252120Z 31007KT 280V350 CAVOK 05/M04 Q1005
ENDR,2023-04-25T21:20:00Z,ENDR 252120Z AUTO 36022KT 9999NDV -SHRA SCT008/// SCT010/// BKN035/// 02/00 Q1007 W///S4
ENDU,2023-04-25T21:20:00Z,ENDU 252120Z 09006KT 060V130 CAVOK 00/M10 Q1013 RMK WIND 1100FT 08009KT WIND 2200FT 10013KT
ENEV,2023-04-25T21:20:00Z,ENEV 252120Z 28003KT 240V010 9999 FEW066 SCT078 SCT092 02/M09 Q1012 RMK WIND 1400FT 09013KT
ENFB,2023-04-25T21:20:00Z,ENFB 252120Z AUTO 34018KT 9999NDV FEW020/// 04/00 Q1012 W///S4
ENFL,2023-04-25T21:20:00Z,ENFL 252120Z AUTO 34012KT 310V020 9999NDV -SHRA FEW015/// SCT062/// 02/M00 Q1009
ENGC,2023-04-25T20:50:00Z,ENGC 252050Z 36023KT 9999 VCSH FEW015CB SCT025 04/M01 Q1012 W04/S5
ENGM,2023-04-25T21:20:00Z,ENGM 252120Z 36004KT 9999 -SNRA SCT028 BKN060 01/M01 Q1001
ENHD,2023-04-25T21:20:00Z,ENHD 252120Z AUTO 33021G32KT 9999 SCT029/// 05/M02 Q1009
ENHE,2023-04-25T20:50:00Z,ENHE 252050Z 05021KT 9999 FEW020 SCT040 BKN070 02/M02 Q1009 W///S4
ENHF,2023-04-25T21:20:00Z,ENHF 252120Z 00000KT 9999 BKN034 M00/M04 Q1016 RMK WIND 1254FT 22003KT
ENHK,2023-04-25T21:20:00Z,ENHK 252120Z AUTO VRB01KT 9999 NCD M02/M06 Q1016
ENHM,2023-04-25T21:20:00Z,ENHM 252120Z AUTO 34028KT //// FEW025/// SCT052/// 04/04 Q1012 W07/S/
ENHV,2023-04-25T21:20:00Z,ENHV 252120Z AUTO VRB03KT 9999 OVC046/// 02/M04 Q1016
ENJS,2023-04-25T21:20:00Z,ENJS 252120Z 34019KT 9999 SCT020 03/M01 Q1013 W07/S/
ENKB,2023-04-25T21:20:00Z,ENKB 252120Z AUTO 36003KT 310V040 9999 -RA SCT008/// BKN010/// BKN029/// 01/M01 Q1007 RMK WIND 745FT 02010KT
ENKR,2023-04-25T21:20:00Z,ENKR 252120Z 29003KT 9999 BKN036 M02/M05 Q1016 RMK WIND 731FT 25004KT
ENLA,2023-04-25T21:20:00Z,ENLA 252120Z AUTO 30022KT 9999NDV FEW030/// 06/M01 Q1013 W///S5
ENLE,2023-04-25T20:50:00Z,ENLE 252050Z 29026KT 9999 VCSH SCT020TCU 05/M01 Q1014 W08/S5
ENLK,2023-04-25T21:20:00Z,ENLK 252120Z 04012KT CAVOK 02/M08 Q1011
ENMH,2023-04-25T21:20:00Z,ENMH 252120Z 27005KT 240V300 5000 -SN VV015 01/M01 Q1016
ENML,2023-04-25T21:20:00Z,ENML 252120Z 31003KT 240V030 9999 -SHRA SCT016 BKN068 01/00 Q1007
ENMS,2023-04-25T21:20:00Z,ENMS 252120Z AUTO 35004KT 9999 -SN BKN029/// M00/M01 Q1007 RMK WIND 412FT 00000KT
ENNA,2023-04-25T21:20:00Z,ENNA 252120Z AUTO VRB03KT 9999 NCD M04/M07 Q1017 RMK WIND 1800FT 31004KT
ENNE,2023-04-25T21:20:00Z,ENNE 252120Z AUTO 03025KT 9999NDV FEW043/// SCT120/// 04/M06 Q1008 W///S4
ENNM,2023-04-25T21:20:00Z,ENNM 252120Z AUTO 03002KT 9000 -SN NCD 00/M01 Q1006
ENOA,2023-04-25T21:20:00Z,ENOA 252120Z 34022KT 9999 FEW020CB 04/01 Q1011 W///S4
ENOL,2023-04-25T20:50:00Z,ENOL 252050Z 05004KT 9999 FEW010 SCT025 BKN070 01/M00 Q1006 TEMPO 2000 SNRA VV010
ENOV,2023-04-25T21:20:00Z,ENOV 252120Z 20006KT 140V250 5000 -SHRASN FEW003 SCT012TCU BKN025 01/M00 Q1008 RMK WIND RWY24 VRB02KT WIND 2090FT 32015KT
ENQA,2023-04-25T21:20:00Z,ENQA 252120Z AUTO 36023KT 9999NDV SCT024/// 04/M01 Q1010 W09/S5
ENQC,2023-04-25T21:20:00Z,ENQC 252120Z AUTO 33021KT 9999NDV SCT026/// 05/M01 Q1010 W///S5
ENQR,2023-04-25T21:20:00Z,ENQR 252120Z AUTO 01012KT 9999NDV -SHRASN BKN017/// 02/00 Q1012 W08/S4
ENRA,2023-04-25T21:20:00Z,ENRA 252120Z AUTO 09005KT 050V160 9999 -SN FEW015/// BKN029/// M00/M02 Q1008
ENRM,2023-04-25T21:20:00Z,ENRM 252120Z AUTO 04004KT 9999 FEW013/// SCT040/// OVC068/// 00/M00 Q1006
ENRS,2023-04-25T21:20:00Z,ENRS 252120Z AUTO 07015KT 9999 FEW048/// 04/M05 Q1010
ENRY,2023-04-25T21:20:00Z,ENRY 252120Z 32008KT 9999 BKN088 03/M01 Q1002
ENSB,2023-04-25T20:50:00Z,ENSB 252050Z 13003KT CAVOK M07/M10 Q1025 RMK WIND 1400FT 12008KT
ENSD,2023-04-25T21:20:00Z,ENSD 252120Z AUTO 29006KT 210V360 9999 FEW011/// BKN021/// OVC028/// 02/M00 Q1008 RMK WIND RWY26 28008KT WIND 1140FT VRB09KT
ENSE,2023-04-25T21:20:00Z,ENSE 252120Z AUTO 01021KT //// BKN015/// 02/M01 Q1012 W///S/
ENSF,2023-04-25T21:20:00Z,ENSF 252120Z AUTO 34020KT 9999NDV FEW019/// ///// Q//// W///S4
ENSG,2023-04-25T21:20:00Z,ENSG 252120Z AUTO 30004KT 9999 -SN NCD 01/M05 Q1003 RMK WIND 3806FT 30017KT
ENSH,2023-04-25T21:20:00Z,ENSH 252120Z AUTO 03012KT 360V060 9999 NCD 03/M08 Q1011 RMK WIND 0150FT 04010KT
ENSK,2023-04-25T21:20:00Z,ENSK 252120Z AUTO 04007KT 9999 NCD 02/M09 Q1012
ENSL,2023-04-25T21:20:00Z,ENSL 252120Z AUTO 31029KT 9999NDV FEW020/// SCT036/// 05/00 Q1014 W04/S4
ENSR,2023-04-25T21:20:00Z,ENSR 252120Z AUTO VRB01KT 9999 NCD M03/M07 Q1016 RMK WIND RWY32 VRB03KT WIND 1118FT /////KT
ENSS,2023-04-25T21:20:00Z,ENSS 252120Z AUTO 28009KT 9999 NCD M02/M04 Q1016 RMK WIND 0500FT 30009KT
ENST,2023-04-25T21:20:00Z,ENST 252120Z 04008KT 9999 -RASN FEW010 SCT018 BKN030 00/M02 Q1008 RMK WIND 300FT 06009KT
ENTC,2023-04-25T21:20:00Z,ENTC 252120Z 06006KT CAVOK M01/M08 Q1015 RMK WIND 2600FT 10015KT
ENTO,2023-04-25T21:20:00Z,ENTO 252120Z 31005KT CAVOK 02/M01 Q1002
ENUG,2023-04-25T21:20:00Z,ENUG 252120Z AUTO VRB01KT 9999NDV OVC041/// 02/M05 Q1016 W///S4
ENUN,2023-04-25T21:20:00Z,ENUN 252120Z AUTO 04020KT 020V080 9999NDV -SHRASN BKN017/// BKN091/// 03/M01 Q1011 W06/S4
ENVA,2023-04-25T21:20:00Z,ENVA 252120Z VRB03KT 9999 -RASN FEW003 BKN011 01/M00 Q1005 RMK WIND 670FT 34003KT
ENVD,2023-04-25T21:20:00Z,ENVD 252120Z VRB03KT 9999 FEW048 M02/M06 Q1016
ENWV,2023-04-25T21:20:00Z,ENWV 252120Z AUTO 31026KT 9999NDV BKN027/// 05/M01 Q1014 W///S5
ENZV,2023-04-25T21:20:00Z,ENZV 252120Z 33018KT 9999 SCT029 05/M01 Q1009
EPBY,2023-04-25T21:00:00Z,EPBY 252100Z 25005KT CAVOK 04/M00 Q1009
EPGD,2023-04-25T21:00:00Z,EPGD 252100Z 25007KT CAVOK 05/M01 Q1007
EPKK,2023-04-25T21:00:00Z,EPKK 252100Z 27005KT CAVOK 04/02 Q1009
EPKT,2023-04-25T21:00:00Z,EPKT 252100Z 31009KT 9999 FEW035 07/03 Q1009
EPLB,2023-04-25T21:00:00Z,EPLB 252100Z 30015KT 260V320 9999 -RA SCT011 BKN040 07/06 Q1005
EPLL,2023-04-25T21:00:00Z,EPLL 252100Z 29008KT 9999 BKN040 BKN046 08/04 Q1009
EPMO,2023-04-25T21:00:00Z,EPMO 252100Z 28006KT 5000 -RA BR FEW010 BKN027 08/08 Q1007
EPPO,2023-04-25T21:00:00Z,EPPO 252100Z 27008KT CAVOK 07/00 Q1010
EPRZ,2023-04-25T21:00:00Z,EPRZ 252100Z 29007KT 9999 -RA BKN007 OVC026 06/06 Q1007
EPSC,2023-04-25T21:00:00Z,EPSC 252100Z 26007KT CAVOK 05/M00 Q1009
EPSY,2023-04-25T21:00:00Z,EPSY 252100Z 34007KT 8000 -RA SCT007 BKN012 OVC025 06/04 Q1007
EPWA,2023-04-25T21:00:00Z,EPWA 252100Z 29007KT 9999 -RA BKN034 08/07 Q1007 NOSIG
EPWR,2023-04-25T21:00:00Z,EPWR 252100Z 27005KT 250V320 CAVOK 04/01 Q1012
ESCF,2023-04-25T21:20:00Z,ESCF 252120Z AUTO 26005KT 9999 SCT017/// OVC032/// 06/04 Q1000
ESCM,2023-04-25T21:20:00Z,ESCM 252120Z AUTO 02006KT 9999 -RA VV006 03/03 Q1001
ESDF,2023-04-25T21:20:00Z,ESDF 252120Z AUTO 23002KT 9999 BKN022/// BKN028/// OVC058/// 06/05 Q1003
ESGG,2023-04-25T21:20:00Z,ESGG 252120Z 23003KT CAVOK 02/01 Q1002
ESGJ,2023-04-25T21:20:00Z,ESGJ 252120Z 24007KT 9999 BKN019 04/02 Q1001
ESGP,2023-04-25T21:20:00Z,ESGP 252120Z AUTO 28004KT 9999 FEW059/// BKN084/// 04/00 Q1003
ESGT,2023-04-25T21:20:00Z,ESGT 252120Z 29009KT 260V320 9999 BKN016 03/00 Q1002
ESIA,2023-04-25T21:20:00Z,ESIA 252120Z 24008KT 9999 OVC012 05/03 Q1000
ESIB,2023-04-25T21:20:00Z,ESIB 252120Z AUTO 27011KT 9999 OVC011/// 04/03 Q1001
ESKM,2023-04-25T21:20:00Z,ESKM 252120Z AUTO 03004KT 9999 -RASN OVC010/// 01/01 Q1001
ESKN,2023-04-25T21:20:00Z,ESKN 252120Z 15002KT 6000 BKN003 05/05 Q1000
ESKS,2023-04-25T21:20:00Z,ESKS 252120Z AUTO 01006KT 3700 -SN SCT006/// OVC028/// M01/M02 Q0999
ESMK,2023-04-25T21:20:00Z,ESMK 252120Z AUTO 26010KT 9999 OVC032/// 06/03 Q1004
ESMQ,2023-04-25T21:20:00Z,ESMQ 252120Z AUTO 22004KT 9999 OVC060/// 07/05 Q1002
ESMS,2023-04-25T21:20:00Z,ESMS 252120Z 28014KT 9999 FEW044 06/M01 Q1005
ESMT,2023-04-25T21:20:00Z,ESMT 252120Z AUTO 28004KT 260V320 9999 DZ SCT032/// BKN041/// OVC048/// 06/05 Q1003 RERA
ESMX,2023-04-25T21:20:00Z,ESMX 252120Z 22008KT 9999 SCT012 BKN015 BKN064 06/05 Q1002
ESND,2023-04-25T21:20:00Z,ESND 252120Z AUTO 01004KT 340V050 9999 OVC011/// M01/M02 Q1001
ESNG,2023-04-25T21:20:00Z,ESNG 252120Z AUTO 05007KT 0750 R30/P1500N SN VV005 M02/M03 Q1009
ESNK,2023-04-25T21:20:00Z,ESNK 252120Z AUTO 34005KT 9999 OVC010/// ///// Q1002
ESNL,2023-04-25T21:20:00Z,ESNL 252120Z AUTO 32006KT 3100 -RASN FEW005/// BKN008/// OVC010/// M01/M01 Q1003
ESNN,2023-04-25T21:20:00Z,ESNN 252120Z AUTO 32005KT 9999 BKN018/// BKN021/// OVC025/// 01/M01 Q1002
ESNO,2023-04-25T21:20:00Z,ESNO 252120Z AUTO 33007KT 2600 BR OVC004/// 00/00 Q1001
ESNQ,2023-04-25T21:20:00Z,ESNQ 252120Z AUTO 06010KT 1200 R03/P2000N R21/P2000N -SN VV013 M04/M06 Q1010
ESNS,2023-04-25T21:20:00Z,ESNS 252120Z AUTO 02009KT 4600 BR OVC002/// 00/00 Q1003
ESNU,2023-04-25T21:20:00Z,ESNU 252120Z VRB03KT 1900 DZ OVC003 01/00 Q1002
ESNV,2023-04-25T21:20:00Z,ESNV 252120Z AUTO 01004KT 340V050 8000 OVC013/// M02/M03 Q1003
ESNX,2023-04-25T21:20:00Z,ESNX 252120Z AUTO 03008KT 3700 -SN FEW009/// SCT017/// OVC022/// M02/M03 Q1004
ESNZ,2023-04-25T21:20:00Z,ESNZ 252120Z AUTO 02004KT 9999 OVC012/// M02/M02 Q1002
ESOE,2023-04-25T21:20:00Z,ESOE 252120Z 26004KT 220V280 2000 DZ VV004 06/05 Q1000
ESOH,2023-04-25T21:20:00Z,ESOH 252120Z AUTO 32003KT 280V350 5000 -RA OVC005/// 02/02 Q0999
ESOK,2023-04-25T21:20:00Z,ESOK 252120Z AUTO 13006KT 1300 R03/P1500N R21/P1500N -RA OVC001/// 04/04 Q0998 REUP
ESOW,2023-04-25T21:20:00Z,ESOW 252120Z AUTO 04007KT 9000 OVC003/// 05/04 Q1000
ESPA,2023-04-25T21:20:00Z,ESPA 252120Z 05007KT 020V080 8000 -RASN BKN006 00/00 Q1006
ESPE,2023-04-25T21:20:00Z,ESPE 252120Z AUTO 06008KT 9999 -FZRASN BKN011/// OVC033/// M01/M01 Q1006
ESSA,2023-04-25T21:20:00Z,ESSA 252120Z 14006KT 8000 OVC005 06/05 Q1000 BECMG 3000 BR BKN004
ESSB,2023-04-25T21:20:00Z,ESSB 252120Z AUTO 12007KT 6000 OVC003/// 05/05 Q1000
ESSD,2023-04-25T21:20:00Z,ESSD 252120Z AUTO 06006KT 9999 OVC003/// 01/01 Q1000
ESSL,2023-04-25T21:20:00Z,ESSL 252120Z AUTO 28009KT 9999 SCT032/// BKN088/// 06/03 Q1000
ESSP,2023-04-25T21:20:00Z,ESSP 252120Z AUTO 25008KT 9999 OVC092/// 07/05 Q1000
ESST,2023-04-25T21:20:00Z,ESST 252120Z AUTO 33004KT 2300 -SN VV015 01/00 Q1000
ESSV,2023-04-25T21:20:00Z,ESSV 252120Z AUTO 18008KT 9999 FEW012/// OVC021/// 06/05 Q1001
ESTA,2023-04-25T21:20:00Z,ESTA 252120Z AUTO 27014KT 9999 OVC021/// 07/03 Q1004
ESTL,2023-04-25T21:20:00Z,ESTL 252120Z AUTO 26011KT 9999 OVC029/// 06/03 Q1004
ESUP,2023-04-25T21:20:00Z,ESUP 252120Z AUTO 07009KT 030V090 0700 R11/P2000D -SN VV009 ///// Q1010
ESUT,2023-04-25T21:20:00Z,ESUT 252120Z AUTO VRB03KT 4700 -RASN FEW017/// OVC048/// M02/M05 Q1005
ETAD,2023-04-25T20:55:00Z,ETAD 252055Z 00000KT 9999 BKN070 05/M00 A3002 RMK AO2A SLP164 T00471001 52013
ETAR,2023-04-25T20:55:00Z,ETAR 252055Z AUTO 00000KT 9999 OVC075 06/02 A3003 RMK AO2 SLP178 T00570016 52014
ETEB,2023-04-25T20:55:00Z,ETEB 252055Z AUTO 30004KT 9999 BKN065 05/M00 A2998 RMK AO2 SLP175 T00541004 52017 $
ETGG,2023-04-25T20:20:00Z,ETGG 252020Z AUTO 31019KT 9999 // ////// 05/02 Q1011 ///
ETHA,2023-04-25T20:20:00Z,ETHA 252020Z AUTO 26006KT 9999 // ////// 03/02 Q1015 ///
ETHB,2023-04-25T20:20:00Z,ETHB 252020Z 28006KT 9999 FEW035 04/00 Q1016 BLU+BLU+
ETHC,2023-04-25T20:20:00Z,ETHC 252020Z 26004KT 9999 FEW032 05/M00 Q1015 BLU+BLU+ TEMPO GRN
ETHF,2023-04-25T20:20:00Z,ETHF 252020Z 29007KT 9999 BKN050 04/01 Q1016 BLU BLU
ETHL,2023-04-25T20:20:00Z,ETHL 252020Z 04003KT 9999 FEW018 BKN035 06/03 Q1016 BLU BLU TEMPO GRN
ETHN,2023-04-25T20:20:00Z,ETHN 252020Z 31003KT 9999 SCT040 SCT070 05/00 Q1015 BLU+
ETHS,2023-04-25T20:20:00Z,ETHS 252020Z 29007KT 9999 FEW030 SCT070 04/M00 Q1014 BLACKBLU+
ETIC,2023-04-25T20:55:00Z,ETIC 252055Z AUTO 30003KT 9999 OVC049 06/M00 A2994 RMK AO2 SLP150 T00621003 52017 $
ETIH,2023-04-25T20:59:00Z,ETIH 252059Z AUTO 26003KT 9999 FEW036 FEW046 05/01 A2997 RMK AO2 DZE59 SLP159 $
ETIK,2023-04-25T20:55:00Z,ETIK 252055Z AUTO 33005KT 9999 SCT044 BKN070 06/02 A3000 RMK AO2 SLP167 T00570016 52020 FZRANO
ETMN,2023-04-25T20:20:00Z,ETMN 252020Z 31013KT 9999 SCT020CB 05/01 Q1014 BLU+BLU+ TEMPO WHT
ETNG,2023-04-25T20:50:00Z,ETNG 252050Z 29003KT CAVOK 06/01 Q1018
ETNH,2023-04-25T20:20:00Z,ETNH 252020Z 28008KT 9999 VCSH FEW015CB 04/02 Q1012 BLU+
ETNL,2023-04-25T20:20:00Z,ETNL 252020Z 26011KT 9999 FEW071 05/01 Q1010 BLU+BLU TEMPO WHT
ETNN,2023-04-25T20:20:00Z,ETNN 252020Z 29004KT 9999 SCT050 06/M00 Q1018 BLU+
ETNS,2023-04-25T20:20:00Z,ETNS 252020Z AUTO 28009KT 9000 // ////// 04/01 Q1011 ///
ETNT,2023-04-25T20:20:00Z,ETNT 252020Z 27005KT 9999 FEW020 03/01 Q1015 BLACKBLU+
ETNW,2023-04-25T20:20:00Z,ETNW 252020Z 31008KT 9999 FEW035 SCT070 06/01 Q1015 BLU+
ETOU,2023-04-25T20:55:00Z,ETOU 252055Z 33003KT 9999 CLR 05/M01 A3004 RMK AO2A SLP178 T00461052 52017
ETSB,2023-04-25T20:20:00Z,ETSB 252020Z AUTO 32006KT //// // ////// 04/M01 Q1016 ///
ETSH,2023-04-25T20:20:00Z,ETSH 252020Z 28005KT 9999 SCT050 BKN080 06/M01 Q1013 BLU
ETSI,2023-04-25T20:20:00Z,ETSI 252020Z AUTO 25005KT 7000 // ////// 07/04 Q1015 ///
ETSL,2023-04-25T20:30:00Z,ETSL 252030Z 27003KT 9999 FEW020 SCT045 BKN080 05/03 Q1016 BLU FCST CNL
ETSN,2023-04-25T20:20:00Z,ETSN 252020Z 28005KT 9999 BKN045 07/04 Q1015 BLU
ETWM,2023-04-25T20:20:00Z,ETWM 252020Z AUTO 33003KT //// // ////// 04/00 Q1017 ///
EVGA,2023-04-25T21:20:00Z,EVGA 252120Z AUTO 23004KT 190V280 9999 -RA FEW040/// 11/09 Q1003
EVLA,2023-04-25T21:20:00Z,EVLA 252120Z AUTO 23008KT 9999 FEW014/// 06/04 Q1005
EVRA,2023-04-25T21:20:00Z,EVRA 252120Z 33006KT 9999 BKN005 SCT048CB 09/08 Q1004 NOSIG
EVVA,2023-04-25T21:20:00Z,EVVA 252120Z AUTO 21008KT 9999 SCT008 OVC055 06/05 Q1004
EYKA,2023-04-25T21:20:00Z,EYKA 252120Z 29006KT 250V330 9999 OVC005 09/07 Q1004
EYPA,2023-04-25T21:20:00Z,EYPA 252120Z 24005KT 190V340 CAVOK 06/04 Q1006
EYSA,2023-04-25T21:20:00Z,EYSA 252120Z 31006KT 9999 OVC023 07/05 Q1005 NOSIG
EYVI,2023-04-25T21:20:00Z,EYVI 252120Z 36003KT 340V050 CAVOK 09/08 Q1003 NOSIG
FABL,2023-04-25T21:00:00Z,FABL 252100Z AUTO 21003KT 190V260 //// R02///// // ///////// 10/07 Q1022
FACT,2023-04-25T21:00:00Z,FACT 252100Z 22007KT CAVOK 16/14 Q1017 NOSIG
FAGG,2023-04-25T21:00:00Z,FAGG 252100Z AUTO 11006KT 9999 R29///// // BKN030/// 17/13 Q1018
FAHS,2023-04-25T21:00:00Z,FAHS 252100Z AUTO 17007KT //// // ////// 23/19 Q1019
FAJB,2023-04-25T21:00:00Z,FAJB 252100Z AUTO 00000KT //// // ////// 14/10 Q1024
FAKM,2023-04-25T21:00:00Z,FAKM 252100Z AUTO 00000KT //// // ////// 13/08 Q1020
FAKN,2023-04-25T21:00:00Z,FAKN 252100Z AUTO 07006KT //// // ////// 20/18 Q1023
FALA,2023-04-25T21:00:00Z,FALA 252100Z AUTO 20004KT //// // ////// 15/11 Q1024
FALE,2023-04-25T21:00:00Z,FALE 252100Z 20003KT 9999 BKN035 21/19 Q1018 NOSIG
FALW,2023-04-25T21:00:00Z,FALW 252100Z AUTO 21003KT //// // ////// 14/11 Q1016
FAOR,2023-04-25T21:00:00Z,FAOR 252100Z 30007KT CAVOK 19/11 Q1025 NOSIG
FAPE,2023-04-25T21:00:00Z,FAPE 252100Z VRB01KT 9000 SCT012 OVC029 18/17 Q1018 NOSIG
FAPN,2023-04-25T21:00:00Z,FAPN 252100Z AUTO 23003KT //// // ////// 15/12 Q1021
FAPP,2023-04-25T21:00:00Z,FAPP 252100Z AUTO 22001KT //// // ////// 18/12 Q1024
FAUP,2023-04-25T21:00:00Z,FAUP 252100Z AUTO 30004KT //// // ////// 17/06 Q1019
FAVV,2023-04-25T21:00:00Z,FAVV 252100Z AUTO 00000KT //// // ////// 16/11 Q1025
FBMN,2023-04-25T21:00:00Z,FBMN 252100Z VRB02KT 7000 NSC 21/13 Q1018
FBPM,2023-04-25T21:00:00Z,FBPM 252100Z 06004KT CAVOK 22/10 Q1019
FBSK,2023-04-25T21:00:00Z,FBSK 252100Z 23004KT CAVOK 15/13 Q1020 NOSIG
FDMY,2023-04-25T21:00:00Z,FDMY 252100Z AUTO 00000KT //// // ////// 21/19 Q1030
FGSL,2023-04-25T21:00:00Z,FGSL 252100Z VRB02KT 9999 FEW010 24/24 Q1010 NOSIG
FIMP,2023-04-25T21:00:00Z,FIMP 252100Z 34005KT 9999 VCSH SCT015 BKN050 24/23 Q1013
FJDG,2023-04-25T20:55:00Z,FJDG 252055Z 16008KT 9999 FEW018 SCT090 BKN230 27/25 A2977 RMK SLP078 8/192 T02730250 57017
FMCZ,2023-04-25T21:00:00Z,FMCZ 252100Z AUTO 21011KT 9999 SCT025 BKN037 28/24 Q1011 NOSIG
FMEE,2023-04-25T21:00:00Z,FMEE 252100Z AUTO 20005KT CAVOK 23/22 Q1012 NOSIG
FMEP,2023-04-25T21:00:00Z,FMEP 252100Z AUTO 03005KT 9999 BKN031 BKN098 25/21 Q1012
FMMI,2023-04-25T21:00:00Z,FMMI 252100Z 13004KT 100V160 9999 FEW017 SCT20 17/16 Q1018 NOSIG
FNLU,2023-04-25T21:00:00Z,FNLU 252100Z VRB03KT 9999 FEW020 BKN080 27/25 Q1010
FOOG,2023-04-25T21:00:00Z,FOOG 252100Z VRB02KT 9999 FEW010 25/24 Q1009
FQCH,2023-04-25T21:00:00Z,FQCH 252100Z /////KT 9999 FEW015 20/19 Q1021
FQLC,2023-04-25T21:00:00Z,FQLC 252100Z 09005KT CAVOK 16/12 Q1021
FQNP,2023-04-25T21:00:00Z,FQNP 252100Z 19006KT 9999 SCT020 22/20 Q1016
FQPB,2023-04-25T21:00:00Z,FQPB 252100Z 22008KT 9999 FEW020 26/23 Q1013
FQQL,2023-04-25T21:00:00Z,FQQL 252100Z 00000KT 9999 BKN018 23/20 Q1016 REDZ
FQTT,2023-04-25T21:00:00Z,FQTT 252100Z VRB04KT 9999 FEW020 21/18 Q1015
FQXA,2023-04-25T21:00:00Z,FQXA 252100Z 08004KT CAVOK 22/21 Q1018
FSIA,2023-04-25T21:00:00Z,FSIA 252100Z 14004KT 110V180 9999 FEW022 28/24 Q1009 NOSIG
FTTA,2023-04-25T21:00:00Z,FTTA 252100Z 23004KT CAVOK 32/19 Q1007
FTTJ,2023-04-25T21:00:00Z,FTTJ 252100Z 31002KT 7000 NSC 32/06 Q1006 NOSIG
FVRG,2023-04-25T21:00:00Z,FVRG 252100Z 09003KT CAVOK 14/05 Q1023 NOSIG
FYGF,2023-04-25T21:00:00Z,FYGF 252100Z AUTO 28002KT //// // ////// 17/13 Q1022
FYKM,2023-04-25T21:00:00Z,FYKM 252100Z AUTO 10003KT //// // ////// 20/11 Q1017
FYKT,2023-04-25T21:00:00Z,FYKT 252100Z AUTO 06007KT //// // ////// 21/09 Q1019
FYLZ,2023-04-25T21:00:00Z,FYLZ 252100Z AUTO 20004KT //// // ////// 14/13 Q1012
FYOA,2023-04-25T21:00:00Z,FYOA 252100Z AUTO 36002KT //// // ////// 23/15 Q1014
FYWB,2023-04-25T21:00:00Z,FYWB 252100Z AUTO 36010KT //// // ////// 18/14 Q1011
FYWW,2023-04-25T21:00:00Z,FYWW 252100Z AUTO 11003KT //// // ////// 20/13 Q1023
GABS,2023-04-25T21:00:00Z,GABS 252100Z 06005KT CAVOK 33/04 Q1009 NOSIG
GAKD,2023-04-25T21:00:00Z,GAKD 252100Z 08006KT CAVOK 35/10 Q1008
GAMB,2023-04-25T21:00:00Z,GAMB 252100Z 01002KT CAVOK 33/07 Q1008
GANR,2023-04-25T21:00:00Z,GANR 252100Z 02008KT CAVOK 35/05 Q1010
GBYD,2023-04-25T21:00:00Z,GBYD 262100Z 33010KT CAVOK 23/20 1010
GCFV,2023-04-25T21:00:00Z,GCFV 252100Z 24003KT 9999 FEW026 21/18 Q1014
GCGM,2023-04-25T21:00:00Z,GCGM 252100Z AUTO 24006KT CAVOK 19/15 Q1015 RMK R09/25004KT ARP/25005KT 210V270
GCHI,2023-04-25T21:00:00Z,GCHI 252100Z AUTO 34015KT 9999 BKN023 20/15 Q1015
GCLA,2023-04-25T21:00:00Z,GCLA 252100Z AUTO 03007KT 350V080 9999 BKN023 21/16 Q1016
GCLP,2023-04-25T21:00:00Z,GCLP 252100Z 36012KT 9999 FEW030 21/15 Q1015 NOSIG
GCRR,2023-04-25T21:00:00Z,GCRR 252100Z 10004KT 9999 BKN020 20/18 Q1014
GCTS,2023-04-25T21:00:00Z,GCTS 252100Z 13005KT 080V170 9999 BKN025 20/16 Q1015 NOSIG
GCXO,2023-04-25T21:00:00Z,GCXO 252100Z 29011KT 9999 BKN004 15/14 Q1016 NOSIG
GECE,2023-04-25T21:00:00Z,GECE 252100Z AUTO VRB01KT CAVOK 22/12 Q1014
GEML,2023-04-25T21:00:00Z,GEML 252100Z AUTO VRB01KT CAVOK 20/10 Q1014
GGOV,2023-04-25T21:00:00Z,GGOV 252100Z 28005KT 250V330 8000 NSC 28/19 Q1009 NOSIG
GLRB,2023-04-25T21:00:00Z,GLRB 252100Z /////KT 8000 -RA FEW006 BKN016 FEW024CB 28/25 Q//// TEMPORA RMK CB/NE-E
GMAD,2023-04-25T21:00:00Z,GMAD 252100Z 26005KT 8000 SCT008 19/18 Q1014 NOSIG
GMFF,2023-04-25T21:00:00Z,GMFF 252100Z 20006KT 9999 ////// 21/00 Q1017 NOSIG
GMFK,2023-04-25T21:00:00Z,GMFK 252100Z 32012KT 9999 FEW036 SCT100 28/02 Q1019 NOSIG
GMFM,2023-04-25T21:00:00Z,GMFM 252100Z 27004KT 200V290 CAVOK 22/11 Q1016 NOSIG
GMFO,2023-04-25T21:00:00Z,GMFO 252100Z 22005KT CAVOK 20/03 Q1017 NOSIG
GMMB,2023-04-25T21:00:00Z,GMMB 252100Z AUTO 08006KT 9999 NSC 19/10 Q1014 NOSIG
GMME,2023-04-25T21:00:00Z,GMME 252100Z 00000KT 6000 NSC 15/10 Q1013 NOSIG
GMMH,2023-04-25T21:00:00Z,GMMH 252100Z 02014KT 8000 NSC 20/17 Q1012 NOSIG
GMMI,2023-04-25T21:00:00Z,GMMI 252100Z AUTO 26004KT 8000 NSC 19/// Q1013 NOSIG
GMML,2023-04-25T21:00:00Z,GMML 252100Z 34008KT 8000 NSC 19/19 Q1014 NOSIG
GMMN,2023-04-25T21:00:00Z,GMMN 252100Z 04008KT CAVOK 22/13 Q1014 NOSIG
GMMW,2023-04-25T21:00:00Z,GMMW 252100Z 22004KT CAVOK 19/07 Q1015 NOSIG
GMMX,2023-04-25T21:00:00Z,GMMX 252100Z 04004KT 300V110 9999 FEW030 32/06 Q1014 NOSIG
GMMZ,2023-04-25T21:00:00Z,GMMZ 252100Z VRB02KT 9999 FEW040 27/M02 Q1019 NOSIG
GMTA,2023-04-25T21:00:00Z,GMTA 252100Z 18004KT CAVOK 23/12 Q1014 NOSIG
GMTN,2023-04-25T21:00:00Z,GMTN 252100Z VRB01KT CAVOK 18/12 Q1014 NOSIG
GMTT,2023-04-25T21:00:00Z,GMTT 252100Z VRB01KT CAVOK 21/10 Q1014 NOSIG
GOBD,2023-04-25T21:00:00Z,GOBD 252100Z 33014KT 9999 FEW010 22/20 Q1011 NOSIG
GOGG,2023-04-25T21:00:00Z,GOGG 252100Z 36004KT CAVOK 25/22 Q1011
GOGK,2023-04-25T21:00:00Z,GOGK 252100Z 00000KT CAVOK 33/19 Q1006
GOOD,2023-04-25T21:00:00Z,GOOD 252100Z 34010KT CAVOK 28/17 Q1010
GOOG,2023-04-25T21:00:00Z,GOOG 252100Z 32007KT CAVOK 36/14 Q1005
GOOK,2023-04-25T21:00:00Z,GOOK 252100Z 28008KT CAVOK 29/21 Q1009
GOOY,2023-04-25T21:00:00Z,GOOY 252100Z 28012KT 9999 FEW013 22/21 Q1011
GOSM,2023-04-25T21:00:00Z,GOSM 252100Z 00000KT CAVOK 35/11 Q1007
GOSP,2023-04-25T21:00:00Z,GOSP 252100Z 32004KT CAVOK 34/20 Q1008
GOSS,2023-04-25T21:00:00Z,GOSS 252100Z 34014KT 290V010 CAVOK 21/20 Q1011
GOTK,2023-04-25T21:00:00Z,GOTK 252100Z 00000KT CAVOK 36/13 Q1007
GOTT,2023-04-25T21:00:00Z,GOTT 252100Z 30004KT CAVOK 37/15 Q1007
GQNO,2023-04-25T21:00:00Z,GQNO 252100Z 32013KT 8000 NSC 20/17 Q1011 NOSIG
GQPP,2023-04-25T21:00:00Z,GQPP 252100Z 35012KT 7000 NSC 19/17 Q1013 NOSIG
GUCY,2023-04-25T21:00:00Z,GUCY 252100Z 30006KT CAVOK 29/23 Q1011 NOSIG
GVAC,2023-04-25T21:00:00Z,GVAC 252100Z 03010KT 9999 SCT013 22/16 Q1014 NOSIG
GVNP,2023-04-25T21:00:00Z,GVNP 252100Z 01013KT 9999 FEW016 23/17 Q1013 NOSIG
GVSV,2023-04-25T21:00:00Z,GVSV 252100Z 06014KT 9999 FEW024 23/16 Q1014 NOSIG
HAAB,2023-04-25T21:00:00Z,HAAB 252100Z 09003KT 9999 SCT025 16/12 Q1026
HDAM,2023-04-25T21:00:00Z,HDAM 252100Z 140/05KT 9999 FEW023 29/22 Q1008
HECA,2023-04-25T21:00:00Z,HECA 252100Z 07006KT CAVOK 21/09 Q1014 NOSIG
HESW,2023-04-25T21:00:00Z,HESW 252100Z 01017KT CAVOK 22/12 Q1013
HETR,2023-04-25T21:00:00Z,HETR 252100Z 35018KT CAVOK 26/M05 Q1009
HKEL,2023-04-25T21:00:00Z,HKEL 252100Z 17003KT 9999 RA FEW013 FEW018CB BKN080 15/14 Q1026
HKJK,2023-04-25T21:00:00Z,HKJK 252100Z 36003KT 9999 BKN019 18/17 Q1022 NOSIG
HRYR,2023-04-25T21:00:00Z,HRYR 252100Z 28003KT 9999 SCT025 BKN100 21/18 Q1020 RERA NOSIG
HTAR,2023-04-25T21:00:00Z,HTAR 252100Z 10005KT 9999 BKN025 FEW026CB 20/18 Q1021 NOSIG
HTBU,2023-04-25T21:00:00Z,HTBU 252100Z 00000KT 9999 FEW016 FEW018CB BKN080 20/18 Q1017
HTDA,2023-04-25T21:00:00Z,HTDA 252100Z 21005KT 9999 TS FEW012 FEW014CB 25/24 Q1012 NOSIG
HTDO,2023-04-25T21:00:00Z,HTDO 252100Z 08008KT 9999 FEW024 22/19 Q1017 NOSIG
HTIR,2023-04-25T21:00:00Z,HTIR 252100Z 00000KT 9999 FEW022 FEW024CB 20/15 Q1020
HTKA,2023-04-25T21:00:00Z,HTKA 252100Z 00000KT 9999 FEW019 FEW020CB 22/21 Q1014 NOSIG
HTKJ,2023-04-25T21:00:00Z,HTKJ 252100Z 00000KT 9999 FEW024CB BKN025 22/21 Q1017 NOSIG
HTMG,2023-04-25T21:00:00Z,HTMG 252100Z 00000KT 9999 SCT023 23/22 Q1013
HTMT,2023-04-25T21:00:00Z,HTMT 252100Z 18010KT 9999 FEW021 23/22 Q1013 NOSIG
HTMU,2023-04-25T21:00:00Z,HTMU 252100Z 00000KT 9999 FEW014 FEW016CB BKN080 20/19 Q1018
HTSO,2023-04-25T21:00:00Z,HTSO 252100Z 00000KT 9999 FEW019 FEW020CB 20/18 Q1019
HTSU,2023-04-25T21:00:00Z,HTSU 252100Z 00000KT 9999 FEW020 FEW021CB 17/15 Q1024
HTTB,2023-04-25T21:00:00Z,HTTB 252100Z 00000KT 9999 FEW020 FEW021CB 21/19 Q1018 NOSIG
HUEN,2023-04-25T21:00:00Z,HUEN 252100Z 36007KT 9999 FEW019 FEW022CB 21/20 Q1018
K04V,2023-04-25T21:08:00Z,K04V 252108Z AUTO 30020G29KT 10SM 05/00 A2988 RMK AO2 LTG DSNT E
K04W,2023-04-25T20:59:00Z,K04W 252059Z AUTO 01006KT 10SM BKN055 09/M06 A3026 RMK AO2
K05U,2023-04-25T21:10:00Z,K05U 252110Z AUTO 34006G13KT 10SM 14/M09 A3014 RMK A01
K06C,2023-04-25T21:15:00Z,K06C 252115Z AUTO 06008KT 020V090 10SM BKN031 OVC038 07/02 A3019 RMK AO2 T00720018
K08D,2023-04-25T21:15:00Z,K08D 252115Z AUTO 16012G18KT 10SM CLR 12/M07 A3012 RMK AO2
K0A0,2023-04-25T21:15:00Z,K0A0 252115Z AUTO 23017G26KT 10SM CLR 27/M09 A2978 RMK AO2
K0A9,2023-04-25T21:15:00Z,K0A9 252115Z AUTO 35003G10KT 9SM CLR 17/M03 A3010 RMK AO2
K0CO,2023-04-25T21:15:00Z,K0CO 252115Z AUTO 25007G16KT 171V001 BKN003 OVC008 M06/M07 A2997 RMK AO2 PWINO
K0E0,2023-04-25T21:15:00Z,K0E0 252115Z AUTO 20013G27KT 10SM SCT065 BKN075 OVC090 17/M05 A2986 RMK AO2 T01681050
K0F2,2023-04-25T21:15:00Z,K0F2 252115Z AUTO 10SM OVC032 20/13 A2989 RMK AO2 T01970125
K0J4,2023-04-25T20:58:00Z,K0J4 252058Z AUTO 00000KT 10SM BKN055 28/12 A2997 RMK AO2 SLP144 T02780122 58014
K0R0,2023-04-25T21:15:00Z,K0R0 252115Z AUTO 04006KT 10SM CLR 26/11 A2998 RMK AO2
K0S9,2023-04-25T21:15:00Z,K0S9 252115Z AUTO 11008KT 050V140 10SM BKN028 13/07 A3027 RMK AO2
K0V4,2023-04-25T21:15:00Z,K0V4 252115Z AUTO 13003KT 10SM CLR 16/03 A3015 RMK AO1
K0VG,2023-04-25T21:15:00Z,K0VG 252115Z AUTO VRB03KT 10SM FEW120 18/M04 A3012 RMK AO2
K10G,2023-04-25T21:15:00Z,K10G 252115Z AUTO 22007KT 10SM BKN070 11/M05 A3013 RMK AO2
K12N,2023-04-25T20:54:00Z,K12N 252054Z AUTO 00000KT 14/M04 A3015 RMK AO1 SLP215 T01391044 55001
K13K,2023-04-25T21:15:00Z,K13K 252115Z AUTO 15007KT 10SM SCT080 SCT095 16/06 A3003 RMK AO2 T01590061
K14Y,2023-04-25T21:15:00Z,K14Y 252115Z AUTO 01006KT 10SM SCT060 08/M06 A3025 RMK AO2
K15M,2023-04-25T21:15:00Z,K15M 252115Z AUTO 00000KT 1 1/2SM HZ FEW150 19/M03 A3006 RMK AO2 T01941026 $
K17J,2023-04-25T21:15:00Z,K17J 252115Z AUTO 04005KT 10SM OVC050 27/12 A2995 RMK AO2 LTG DSNT S T02720124
K18A,2023-04-25T21:15:00Z,K18A 252115Z AUTO 02005KT 10SM SCT075 OVC095 17/07 A3016 RMK AO2 T01710075
K18H,2023-04-25T21:15:00Z,K18H 252115Z AUTO 09013KT 6SM HZ CLR 28/22 A2984 RMK A01
K19S,2023-04-25T21:15:00Z,K19S 252115Z AUTO 10017KT 5SM HZ OVC004 08/ A2991 RMK AO2 T0077////
K1A5,2023-04-25T21:10:00Z,K1A5 252110Z AUTO 15003KT 10SM SCT065 OVC075 16/04 A3012 RMK AO2 T01570042
K1A6,2023-04-25T21:15:00Z,K1A6 252115Z AUTO 33004KT 10SM CLR 18/M01 A3012 RMK AO2 T01781014
K1A9,2023-04-25T21:15:00Z,K1A9 252115Z AUTO 00000KT 10SM CLR 25/06 A2999 RMK AO2 T02480063
K1AM,2023-04-25T20:55:00Z,K1AM 252055Z AUTO 29012KT 10SM FEW210 14/02 A2996 RMK AO2 SLP156 T01400016 57009 $
K1BM,2023-04-25T20:55:00Z,K1BM 252055Z AUTO 29013G22KT 10SM SCT075 15/02 A2997 RMK AO2 SLP153 T01490021 55005 $
K1BN,2023-04-25T20:55:00Z,K1BN 252055Z AUTO 17011G18KT 10SM CLR 10/M07 A3015 RMK AO2 SLP231 T01041069 57008 $
K1BW,2023-04-25T20:55:00Z,K1BW 252055Z AUTO 11011KT 10SM -DZ BKN007 OVC013 06/05 A2998 RMK AO2 RAE46DZB46 SLP156 P0009 60020 T00590045 52007 $
K1CM,2023-04-25T20:55:00Z,K1CM 252055Z AUTO 24015KT 10SM BKN060 OVC080 12/03 A2999 RMK AO2 SLP161 T01200032 53002 $
K1CN,2023-04-25T20:55:00Z,K1CN 252055Z AUTO 16011KT 10SM CLR 11/M06 A3015 RMK AO2 SLP231 T01071058 57009 $
K1CW,2023-04-25T20:55:00Z,K1CW 252055Z AUTO 15012KT 10SM -RA OVC016 07/05 A2996 RMK AO2 RAB05 OVC V BKN SLP144 P0002 60002 T00740052 52007 $
K1D1,2023-04-25T21:15:00Z,K1D1 252115Z AUTO 10008KT 10SM CLR 10/M05 A3023 RMK AO2
K1DM,2023-04-25T20:55:00Z,K1DM 252055Z AUTO 00000KT 10SM BKN060 16/01 A2996 RMK AO2 SLP157 T01580008 57010 $
K1EM,2023-04-25T20:55:00Z,K1EM 252055Z AUTO 26006KT 10SM BKN055 16/02 A2995 RMK AO2 SLP145 T01630023 57008 $
K1EN,2023-04-25T20:55:00Z,K1EN 252055Z AUTO 15012KT 10SM CLR 10/M07 A2991 RMK AO2 SLP156 T00981074 57009 $
K1EW,2023-04-25T20:55:00Z,K1EW 252055Z AUTO 30016KT 10SM -RA BKN007 OVC011 06/05 A2991 RMK AO2 LTG DSNT S RAE41RAB46 SLP131 P0003 60006 T00610049 53005 $
K1F0,2023-04-25T21:15:00Z,K1F0 252115Z AUTO 13011KT 10SM OVC031 17/10 A2992 RMK AO2 T01740100
K1FW,2023-04-25T20:55:00Z,K1FW 252055Z AUTO 13013KT 10SM -RA OVC017 07/06 A2993 RMK AO2 RAE04DZB04E26DZB30E43RAB43 SLP134 P0001 60001 T00670060 52008 $
K1GM,2023-04-25T20:55:00Z,K1GM 252055Z AUTO 20016G25KT 10SM CLR 14/00 M RMK AO2 SLPNO T01370000 $
K1GN,2023-04-25T20:55:00Z,K1GN 252055Z AUTO 17013G19KT 10SM CLR 11/M08 A3011 RMK AO2 SLP225 T01061081 57009 $
K1H2,2023-04-25T21:15:00Z,K1H2 252115Z AUTO 00000KT 10SM BKN090 18/03 A3009 RMK AO2 T01790033
K1HM,2023-04-25T20:55:00Z,K1HM 252055Z AUTO 27011KT 10SM CLR 16/M02 A2993 RMK AO2 SLP142 T01601025 57013 $
K1HN,2023-04-25T20:55:00Z,K1HN 252055Z AUTO 02012G17KT 10SM CLR 12/M08 A3011 RMK AO2 SLP217 T01221083 57012 $
K1HW,2023-04-25T20:55:00Z,K1HW 252055Z AUTO 15019KT 10SM OVC030 11/04 A2992 RMK AO2 SLP131 T01110041 50006 $
K1IM,2023-04-25T20:55:00Z,K1IM 252055Z AUTO 23014KT 10SM CLR 16/03 A2995 RMK AO2 SLP154 T01560034 57010 $
K1IN,2023-04-25T20:55:00Z,K1IN 252055Z AUTO 17012KT 10SM CLR 11/M06 A3011 RMK AO2 SLP220 T01061058 57011 $
K1IW,2023-04-25T20:55:00Z,K1IW 252055Z AUTO 13021KT 10SM OVC027 11/04 A2992 RMK AO2 SLP126 T01050035 51005 $
K1JM,2023-04-25T20:55:00Z,K1JM 252055Z AUTO 22019G26KT 10SM CLR 16/M02 A2993 RMK AO2 PK WND 21026/51 SLP148 T01571023 57015 $
K1JN,2023-04-25T20:55:00Z,K1JN 252055Z AUTO 16012KT 10SM CLR 10/M06 A3012 RMK AO2 SLP225 T01031057 57011 $
K1JW,2023-04-25T20:55:00Z,K1JW 252055Z AUTO 12013KT 10SM -RA OVC019 08/05 M RMK AO2 RAE09RAB11E29DZB29E32RAB32 SLPNO P0002 60004 T00760049 $
K1KM,2023-04-25T20:55:00Z,K1KM 252055Z AUTO 16005KT 10SM OVC090 15/M01 A2997 RMK AO2 SLP155 60000 T01451008 58002 $
K1KN,2023-04-25T21:07:00Z,K1KN 252107Z AUTO 19014G20KT 10SM CLR 09/M05 A3012 RMK AO2 WSHFT 03 SLP224 $
K1LN,2023-04-25T20:55:00Z,K1LN 252055Z AUTO 19014KT 10SM CLR 10/M02 A3013 RMK AO2 SLP222 T01011016 57013 $
K1M4,2023-04-25T20:56:00Z,K1M4 252056Z AUTO 36005KT 10SM FEW080 BKN110 19/02 A3008 RMK AO2 SLP178 T01940022 58015
K1MM,2023-04-25T20:55:00Z,K1MM 252055Z AUTO 10005KT 10SM FEW055 FEW070 14/03 A2996 RMK AO2 SLP158 T01400029 57005 $
K1MW,2023-04-25T20:55:00Z,K1MW 252055Z AUTO 12022G26KT 10SM BKN018 BKN026 OVC039 10/05 A2990 RMK AO2 PK WND 12029/08 LTG DSNT SW RAB24E33DZB33E37RAB37E46DZB46E49 SLP120 P0000 60000 T00990051 53001 $
K1NW,2023-04-25T20:55:00Z,K1NW 252055Z AUTO 13017G24KT 10SM BKN023 OVC030 09/05 A2988 RMK AO2 LTG DSNT SW RAE1958DZB1958E05 BKN V OVC SLP108 P0000 60000 T00910045 55000 $
K1OM,2023-04-25T20:55:00Z,K1OM 252055Z AUTO 15008KT 10SM SCT060 BKN080 16/05 A2993 RMK AO2 SLP143 T01610045 57009 $
K1ON,2023-04-25T20:55:00Z,K1ON 252055Z AUTO 18013G18KT 10SM CLR 10/M04 M RMK AO2 SLPNO T01041044 $
K1OW,2023-04-25T20:55:00Z,K1OW 252055Z AUTO 09018KT 1/4SM -RA FG VV003 06/05 A3002 RMK AO2 LTG DSNT S RAE34DZB39E43RAB43 SLP168 P0006 60030 T00550048 50003 RVRNO $
K1P1,2023-04-25T21:15:00Z,K1P1 252115Z AUTO 00000KT 2 1/2SM +RA SCT024 OVC030 07/05 A3016 RMK AO2 VIS 2V3 P0004 T00720048
K1R7,2023-04-25T21:15:00Z,K1R7 252115Z AUTO 00000KT 10SM CLR 24/11 A2999 RMK AO2 PWINO
K1R8,2023-04-25T21:15:00Z,K1R8 252115Z AUTO 01005KT 10SM FEW065 FEW080 FEW090 25/13 A2994 RMK AO2
K1S3,2023-04-25T20:45:00Z,K1S3 252045Z AUTO 17004KT 10SM 16/M03 A2998 
K1S5,2023-04-25T21:15:00Z,K1S5 252115Z AUTO 20006KT 10SM CLR 19/04 A3013 RMK AO2 T01890037
K1U7,2023-04-25T21:15:00Z,K1U7 252115Z AUTO 34018KT 10SM OVC031 03/M00 A3006 RMK A01
K1V4,2023-04-25T20:54:00Z,K1V4 252054Z AUTO 08/04 A3013 RMK AO1 SLP206 T00830044 53004
K1V6,2023-04-25T21:15:00Z,K1V6 252115Z AUTO 08004KT 10SM OVC032 08/05 A2985 RMK AO2 LTG DSNT E
K1YT,2023-04-25T20:55:00Z,K1YT 252055Z AUTO 25005KT 10SM CLR 17/M01 A3009 RMK AO2 SLP195 T01691008 57017 $
K20U,2023-04-25T21:15:00Z,K20U 252115Z AUTO 15020G25KT 10SM FEW070 12/00 A3007 RMK AO2
K20V,2023-04-25T21:15:00Z,K20V 252115Z AUTO 32009G19KT 304V004 10SM BKN075 BKN085 BKN110 09/M02 A2986 RMK AO2
K21D,2023-04-25T21:15:00Z,K21D 252115Z AUTO 06004G08KT 10SM BKN055 07/M05 A3025 RMK AO2
K22N,2023-04-25T21:15:00Z,K22N 252115Z AUTO 24004KT 10SM SCT080 13/M07 A3018 RMK AO2
K24A,2023-04-25T21:05:00Z,K24A 252105Z AUTO 17005KT 10SM -DZ BKN060 OVC070 12/03 A3011 RMK AO2 T01240033
K24J,2023-04-25T21:15:00Z,K24J 252115Z AUTO 00000KT 10SM CLR 27/15 A2993 RMK A01
K28J,2023-04-25T21:15:00Z,K28J 252115Z AUTO 09010G17KT 10SM FEW045 FEW110 23/14 A2994 RMK AO2
K2A0,2023-04-25T21:15:00Z,K2A0 252115Z AUTO 09005KT 10SM CLR 19/02 A3007 RMK A01
K2C8,2023-04-25T21:15:00Z,K2C8 252115Z AUTO 18004G10KT 10SM FEW048 08/M03 A3028 RMK AO2
K2D5,2023-04-25T21:15:00Z,K2D5 252115Z AUTO 11008G14KT 10SM CLR 09/M04 A3023 RMK AO2
K2DP,2023-04-25T20:55:00Z,K2DP 252055Z AUTO 05009KT 10SM CLR 18/07 A3014 RMK AO2 SLPNO T01760065 57005 $
K2G2,2023-04-25T21:15:00Z,K2G2 252115Z AUTO VRB05KT 10SM BKN085 BKN110 12/M04 A3013 RMK A01
K2G4,2023-04-25T21:15:00Z,K2G4 252115Z AUTO VRB06G12KT 10SM SCT095 10/M08 A3011 RMK AO2
K2G9,2023-04-25T21:15:00Z,K2G9 252115Z AUTO 00000KT 10SM OVC110 10/M05 A3011 RMK AO2
K2I0,2023-04-25T21:15:00Z,K2I0 252115Z AUTO 11003KT 10SM CLR 20/M02 A3011 RMK AO2 T02031021
K2IS,2023-04-25T21:15:00Z,K2IS 252115Z AUTO 24009KT 10SM SCT050 SCT070 30/19 A2986 RMK AO2 LTG DSNT NW T03020186
K2J3,2023-04-25T21:15:00Z,K2J3 252115Z AUTO 07006KT 10SM BKN060 BKN070 OVC080 23/13 A3003 RMK AO2 T02300127
K2J5,2023-04-25T21:15:00Z,K2J5 252115Z AUTO 08006KT 10SM SCT032 OVC050 21/14 A3004 RMK AO2 T02060141
K2J9,2023-04-25T21:15:00Z,K2J9 252115Z AUTO VRB04KT 10SM BKN047 OVC055 24/17 A2996 RMK AO2 LTG DSNT S AND SW
K2M2,2023-04-25T21:15:00Z,K2M2 252115Z AUTO VRB06G12KT 10SM CLR 19/M00 A3005 RMK A01
K2P2,2023-04-25T21:15:00Z,K2P2 252115Z AUTO 01014G18KT 10SM CLR 05/M02 A3022 RMK AO2 T00521020
K2R9,2023-04-25T21:15:00Z,K2R9 252115Z AUTO 15012G16KT 10SM SCT027 BKN034 BKN050 25/20 A2983 RMK AO2 T02490202
K2V5,2023-04-25T21:15:00Z,K2V5 252115Z AUTO 07008KT 10SM OVC028 08/08 A2995 RMK AO2
K2V6,2023-04-25T21:19:00Z,K2V6 252119Z AUTO 09012KT 5SM -DZ SCT011 OVC020 06/05 A2993 RMK AO2
K2W6,2023-04-25T21:09:00Z,K2W6 252109Z AUTO 07005KT 10SM SCT065 BKN080 13/01 A3020 RMK AO1
K2WX,2023-04-25T20:56:00Z,K2WX 252056Z AUTO 15019G26KT 08/01 A3004 RMK AO1 PK WND 13026/2050 SLP191 T00830006 56006
K33N,2023-04-25T21:15:00Z,K33N 252115Z AUTO VRB04KT 10SM CLR 15/M02 A3018 RMK A01
K33V,2023-04-25T21:15:00Z,K33V 252115Z AUTO 32012G19KT 10SM SCT047 07/M03 A2992 RMK AO1
K35A,2023-04-25T21:15:00Z,K35A 252115Z AUTO 06004KT 10SM OVC075 18/07 A3014 RMK A02 T01790069
K38S,2023-04-25T21:15:00Z,K38S 252115Z AUTO 00000KT 10SM 09/03 A3015 
K3AU,2023-04-25T21:15:00Z,K3AU 252115Z AUTO 16009KT 10SM SCT055 BKN065 OVC110 12/05 A3003 RMK AO2
K3D2,2023-04-25T21:15:00Z,K3D2 252115Z AUTO 36007KT 10SM OVC050 05/M04 A3021 RMK AO2 T00521037
K3F3,2023-04-25T21:15:00Z,K3F3 252115Z AUTO 13006KT 10SM OVC060 22/12 A2999 RMK AO2 T02180115
K3K3,2023-04-25T21:15:00Z,K3K3 252115Z AUTO 10014KT 10SM OVC008 08/07 A2990 RMK AO2
K3L4,2023-04-25T21:15:00Z,K3L4 252115Z AUTO 07008KT 10SM BKN033 24/18 A2991 RMK A01
K3N8,2023-04-25T21:15:00Z,K3N8 252115Z AUTO 00000KT 10SM OVC060 08/M05 A3025 RMK AO2 T00821049
K3R7,2023-04-25T21:15:00Z,K3R7 252115Z AUTO 10009KT 10SM SCT040 BKN080 24/14 A2993 RMK AO2 T02400139
K3S8,2023-04-25T21:15:00Z,K3S8 252115Z AUTO 00000KT 10SM CLR 21/03 A3011 RMK AO2
K3T5,2023-04-25T21:15:00Z,K3T5 252115Z AUTO 14005KT 10SM FEW026 BKN041 BKN050 25/21 A2984 RMK AO2 T02490213
K3U3,2023-04-25T21:15:00Z,K3U3 252115Z AUTO 23005KT 10SM 09/M01 A3012 
K40B,2023-04-25T21:16:00Z,K40B 252116Z AUTO VRB06KT 06/03 A3019 RMK AO1 SLP235 T00620033 52003 60000
K40U,2023-04-25T21:15:00Z,K40U 252115Z AUTO 33011G17KT 10SM BKN039 BKN050 08/M02 A3001 RMK AO2 T00761021
K41U,2023-04-25T21:15:00Z,K41U 252115Z AUTO 13004KT 10SM SCT031 BKN039 OVC045 06/M02 A3007 RMK AO1 T00571024
K42J,2023-04-25T21:15:00Z,K42J 252115Z AUTO 08008KT 10SM CLR 22/20 A2994 RMK A01
K46D,2023-04-25T21:15:00Z,K46D 252115Z AUTO 12011KT 10SM CLR 08/M02 A3024 RMK AO2
K46U,2023-04-25T21:15:00Z,K46U 252115Z AUTO 32011KT 10SM BKN041 08/01 A3006 RMK A01
K48A,2023-04-25T21:15:00Z,K48A 252115Z AUTO 03005KT 10SM CLR 25/14 A3000 RMK AO2 T02480136
K49A,2023-04-25T21:15:00Z,K49A 252115Z AUTO 33003KT 10SM OVC080 19/05 A3005 RMK AO2
K4A6,2023-04-25T21:15:00Z,K4A6 252115Z AUTO 00000KT 10SM CLR 19/03 A3005 RMK AO2
K4A9,2023-04-25T21:15:00Z,K4A9 252115Z AUTO 02004KT 10SM BKN090 20/01 A3004 RMK AO2 T01960014
K4BM,2023-04-25T21:15:00Z,K4BM 252115Z AUTO 01004KT 1/4SM OVC001 M02/M03 A2997 RMK AO2 PWINO
K4F2,2023-04-25T21:15:00Z,K4F2 252115Z AUTO 08004KT 10SM BKN050 OVC095 21/12 A2995 RMK AO2 T02120123
K4I3,2023-04-25T21:15:00Z,K4I3 252115Z AUTO 22006KT 10SM SCT070 11/M03 A3014 RMK AO2
K4M9,2023-04-25T21:15:00Z,K4M9 252115Z AUTO 05007KT 9SM CLR 19/04 A3008 RMK AO2 PWINO
K4MR,2023-04-25T20:55:00Z,K4MR 252055Z 19017G22KT 10SM FEW120 23/M02 A2974 RMK AO2A RAB08E20 SLP007 P0000 60000 T02331016 $
K4O4,2023-04-25T21:15:00Z,K4O4 252115Z AUTO 07010G15KT 8SM OVC055 14/09 A3000 RMK AO2
K4R5,2023-04-25T21:15:00Z,K4R5 252115Z AUTO 11005KT 10SM SCT024 SCT029 BKN110 05/M01 A3030 RMK AO2 T00471012
K4S1,2023-04-25T21:15:00Z,K4S1 252115Z AUTO 36013G20KT 5SM HZ CLR 14/10 A3006 RMK AO2
K4S2,2023-04-25T21:15:00Z,K4S2 252115Z AUTO 35005KT 10SM CLR 18/04 A3014 RMK AO2
K4U6,2023-04-25T21:10:00Z,K4U6 252110Z AUTO 14013G18KT 10SM 15/02 A2999 RMK A01 Circle 
K4V0,2023-04-25T21:15:00Z,K4V0 252115Z AUTO 06009G15KT 030V100 10SM SCT046 BKN060 11/00 A2993 RMK AO2 T01070000
K4V1,2023-04-25T21:15:00Z,K4V1 252115Z AUTO 02013KT 10SM BKN016 BKN043 OVC090 11/07 A2984 RMK AO2 T01090066
K54A,2023-04-25T21:15:00Z,K54A 252115Z AUTO 23009G16KT 10SM FEW070 29/21 A2990 RMK AO2
K54J,2023-04-25T21:15:00Z,K54J 252115Z AUTO 22004KT 10SM SCT055 SCT085 BKN100 25/15 A2995 RMK AO2 T02510147
K57C,2023-04-25T21:15:00Z,K57C 252115Z AUTO 04004KT 10SM SCT039 BKN047 OVC050 07/M02 A3020 RMK AO2 T00681017
K5A6,2023-04-25T21:15:00Z,K5A6 252115Z AUTO 03008KT 10SM 19/05 A3003 RMK AO2 T01860050
K5C1,2023-04-25T21:15:00Z,K5C1 252115Z AUTO 14003KT 10SM BKN023 OVC032 22/18 A2985 RMK AO1
K5H4,2023-04-25T21:15:00Z,K5H4 252115Z AUTO 15009KT 10SM CLR 09/M03 A3022 RMK AO2
K5R8,2023-04-25T21:15:00Z,K5R8 252115Z AUTO 09005KT 10SM BKN070 24/13 A2994 RMK AO2 T02350129
K5SM,2023-04-25T21:15:00Z,K5SM 252115Z AUTO 29005G15KT 1 1/2SM -SN OVC002 M05/M06 A3000 RMK AO2 LTG DSNT SE
K5T9,2023-04-25T21:15:00Z,K5T9 252115Z AUTO 14010KT 110V170 10SM CLR 28/17 A2977 RMK A01
K63S,2023-04-25T21:15:00Z,K63S 252115Z AUTO 00000G12KT 10SM CLR 16/01 A3010 RMK A01
K65S,2023-04-25T21:15:00Z,K65S 252115Z AUTO 19010G16KT 10SM SCT065 15/00 A3009 RMK AO2
K66R,2023-04-25T21:15:00Z,K66R 252115Z AUTO 14005KT 10SM BKN028 BKN085 26/20 A2985 RMK AO2 T02580196
K6A1,2023-04-25T21:15:00Z,K6A1 252115Z AUTO 00000KT 10SM BKN060 OVC100 24/09 A3002 RMK AO2 T02400091
K6A2,2023-04-25T21:15:00Z,K6A2 252115Z AUTO 00000KT 10SM BKN065 BKN090 22/06 A3002 RMK AO2
K6B0,2023-04-25T21:15:00Z,K6B0 252115Z AUTO 13004KT 10SM SCT046 BKN060 OVC070 09/02 A3016 RMK AO2 T00910015
K6B9,2023-04-25T21:15:00Z,K6B9 252115Z AUTO 03006KT 10SM CLR 08/01 A3017 RMK AO2
K6I2,2023-04-25T21:15:00Z,K6I2 252115Z AUTO 00000KT 10SM CLR 19/M01 A3012 RMK AO2
K6L4,2023-04-25T21:15:00Z,K6L4 252115Z AUTO 17004KT 10SM CLR 16/M06 A3012 RMK AO2
K6P9,2023-04-25T21:15:00Z,K6P9 252115Z AUTO 13008KT 10SM OVC016 19/15 A2986 RMK AO2 T01860154
K6R3,2023-04-25T21:15:00Z,K6R3 252115Z AUTO 00000KT 10SM CLR 22/17 A2989 RMK AO2 T02210166 TSNO
K6S0,2023-04-25T21:15:00Z,K6S0 252115Z AUTO 27017KT 10SM FEW090 16/01 A3001 RMK A01
K6S2,2023-04-25T21:15:00Z,K6S2 252115Z AUTO 34011G19KT 10SM CLR 13/09 A3018 RMK AO2
K6S8,2023-04-25T21:10:00Z,K6S8 252110Z AUTO VRB06G18KT 10SM 17/M01 A2999 RMK A01 LAUREL
K77S,2023-04-25T21:15:00Z,K77S 252115Z AUTO 33008KT 300V360 9SM 16/09 A3016 RMK A01
K79J,2023-04-25T20:56:00Z,K79J 252056Z AUTO 04003KT 10SM FEW050 29/12 A2996 RMK AO2 SLP140 T02890122 58018
K7BM,2023-04-25T21:15:00Z,K7BM 252115Z AUTO 10003KT 1/4SM FG OVC002 00/00 A2991 RMK AO2 LTG DSNT E
K7L2,2023-04-25T21:15:00Z,K7L2 252115Z AUTO 16010KT 10SM CLR 11/M07 A3019 RMK AO2
K7W4,2023-04-25T21:15:00Z,K7W4 252115Z AUTO 10SM SCT065 16/01 A3017 RMK AO1 T01550009
K7W6,2023-04-25T21:05:00Z,K7W6 252105Z AUTO 04013G16KT 10SM CLR 18/06 A3015 RMK AO2 T01830062
K81R,2023-04-25T21:15:00Z,K81R 252115Z AUTO 15008G15KT 10SM SCT023 BKN033 OVC050 22/16 A2986 RMK AO2 T02230160
K82C,2023-04-25T21:15:00Z,K82C 252115Z AUTO 06004KT 10SM BKN055 OVC070 09/M04 A3020 RMK AO2 T00861037
K8A0,2023-04-25T21:10:00Z,K8A0 252110Z AUTO 00000KT 10SM CLR 18/03 A3006 RMK AO2
K8A3,2023-04-25T21:15:00Z,K8A3 252115Z AUTO 02008G13KT 10SM CLR 18/M03 A3008 RMK A01
K8B0,2023-04-25T21:15:00Z,K8B0 252115Z AUTO 15006KT 10SM FEW015 SCT024 BKN029 06/04 A3015 RMK AO2
K8D3,2023-04-25T20:56:00Z,K8D3 252056Z AUTO 11011G15KT 11/M04 A3022 RMK AO1 SLP245 T01111044 58007
K8T6,2023-04-25T21:15:00Z,K8T6 252115Z AUTO 21003KT 3SM -RA BR FEW006 BKN043 OVC050 23/23 A2982 RMK AO2
K8W2,2023-04-25T21:15:00Z,K8W2 252115Z AUTO 00000KT 10SM CLR 15/M03 A3014 RMK AO1 T01501030
K96D,2023-04-25T21:15:00Z,K96D 252115Z AUTO 19005G13KT 10SM CLR 07/M06 A3028 RMK AO2
K9A5,2023-04-25T21:15:00Z,K9A5 252115Z AUTO 06004KT 10SM OVC100 19/03 A3007 RMK AO2 T01880029
K9D7,2023-04-25T21:15:00Z,K9D7 252115Z AUTO 18007G16KT 10SM CLR 08/M03 A3025 RMK AO2 TSNO
K9L2,2023-04-25T20:55:00Z,K9L2 252055Z AUTO 03006KT M M M M M RMK AO2 SLPNO RVRNO $
K9MN,2023-04-25T21:15:00Z,K9MN 252115Z AUTO 02005KT 10SM CLR 10/M07 A3020 RMK AO1 T00961073
K9S9,2023-04-25T20:55:00Z,K9S9 252055Z AUTO 00000KT 10SM CLR 17/00 A3017 RMK AO2 PWINO
K9V9,2023-04-25T21:15:00Z,K9V9 252115Z AUTO 09009G14KT 10SM BKN100 13/M02 A3013 RMK AO2 T01341023
KA39,2023-04-25T21:15:00Z,KA39 252115Z AUTO 29012G18KT 250V320 10SM CLR 31/02 A2978 RMK AO2
KAAA,2023-04-25T21:15:00Z,KAAA 252115Z AUTO 00000KT 10SM OVC060 15/06 A3010 RMK AO2
KAAF,2023-04-25T20:53:00Z,KAAF 252053Z AUTO 11005KT 10SM CLR 24/18 A2993 RMK AO2 SLP135 T02440183 56016
KAAO,2023-04-25T20:54:00Z,KAAO 252054Z AUTO 16011KT 10SM SCT027 BKN036 OVC055 12/07 A3003 RMK AO2 SLP173 T01220067 58006
KAAS,2023-04-25T21:15:00Z,KAAS 252115Z AUTO 00000KT 10SM CLR 18/00 A3016 RMK AO1
KAAT,2023-04-25T20:55:00Z,KAAT 252055Z AUTO 6SM HZ CLR 17/M04 A3012 RMK AO2 SLP185 T01721039 58013
KABE,2023-04-25T20:51:00Z,KABE 252051Z 23006KT 10SM CLR 13/M04 A3016 RMK AO2 SLP215 T01331044 55004
KABH,2023-04-25T21:00:00Z,KABH 252100Z AUTO 12007KT 10SM SCT018 SCT023 BKN060 OVC075 08/03 A2989 RMK AO2 LTG DSNT N AND SW SLP118
KABQ,2023-04-25T20:52:00Z,KABQ 252052Z 26023G37KT 10SM SCT110 BKN140 BKN250 23/M07 A2979 RMK AO2 PK WND 25057/2005 RAB17E21 SLP022 BLDU SE P0000 60000 T02281067 55025
KABR,2023-04-25T20:53:00Z,KABR 252053Z AUTO 09009G16KT 10SM CLR 11/M03 A3021 RMK AO2 SLP240 T01111028 57005
KABY,2023-04-25T20:53:00Z,KABY 252053Z VRB04KT 10SM BKN055 28/12 A2998 RMK AO2 SLP149 T02780122 58018
KACB,2023-04-25T21:15:00Z,KACB 252115Z AUTO 25005KT 10SM OVC032 06/M01 A3019 RMK AO2 T00611013
KACJ,2023-04-25T21:15:00Z,KACJ 252115Z AUTO VRB03KT 10SM SCT070 24/10 A2999 RMK AO2 T02380103
KACK,2023-04-25T20:53:00Z,KACK 252053Z 19006KT 10SM FEW004 09/06 A3015 RMK AO2 SLP211 T00890061 53006
KACQ,2023-04-25T21:15:00Z,KACQ 252115Z AUTO 02011G15KT 10SM CLR 09/M05 A3022 RMK AO2
KACT,2023-04-25T21:01:00Z,KACT 252101Z 14009KT 10SM BKN026 BKN033 OVC080 21/16 A2988 RMK AO2 T02110156
KACV,2023-04-25T20:53:00Z,KACV 252053Z AUTO 29006KT 10SM CLR 13/09 A3004 RMK AO2 SLP177 T01280089 58010
KACY,2023-04-25T20:54:00Z,KACY 252054Z 31010G19KT 10SM SCT075 15/M02 A3017 RMK AO2 SLP215 T01501022 53003
KACZ,2023-04-25T21:05:00Z,KACZ 252105Z AUTO 09004KT 10SM BKN080 OVC120 20/05 A3011 RMK AO2 T02040048
KADC,2023-04-25T21:15:00Z,KADC 252115Z AUTO 00000KT 10SM SCT060 09/M08 A3024 RMK AO2 TSNO
KADF,2023-04-25T20:56:00Z,KADF 252056Z AUTO 34005KT 10SM OVC060 12/10 A3009 RMK AO2 SLP188 60000 T01220100 55006
KADG,2023-04-25T21:06:00Z,KADG 252106Z AUTO 34005KT 10SM OVC015 06/03 A3016 RMK AO2 T00610028
KADH,2023-04-25T21:15:00Z,KADH 252115Z AUTO 11010G15KT 11/10 A2999 RMK AO2 PWINO
KADM,2023-04-25T20:50:00Z,KADM 252050Z 08010KT 10SM OVC033 17/10 A2993
KADS,2023-04-25T20:47:00Z,KADS 252047Z 11010G15KT 13SM SCT032 SCT044 OVC060 22/12 A2991
KADT,2023-04-25T21:10:00Z,KADT 252110Z AUTO 12014KT 10SM BKN022 BKN029 OVC036 12/06 A3003 RMK AO2 T01170059
KADU,2023-04-25T21:15:00Z,KADU 252115Z AUTO 07009G16KT 040V120 10SM SCT004 BKN022 OVC090 16/M02 A3010 RMK AO2 PWINO
KADW,2023-04-25T20:55:00Z,KADW 252055Z AUTO 27004KT 10SM FEW070 SCT200 14/M02 A3016 RMK AO2 SLP221 T01441017 55006
KAEG,2023-04-25T20:50:00Z,KAEG 252050Z 25030G38KT 10SM SCT100 21/M06 A2982
KAEJ,2023-04-25T21:15:00Z,KAEJ 252115Z AUTO 00000KT 3SM -SN OVC003 01/00 A2989 RMK AO2 T00070000
KAEL,2023-04-25T21:15:00Z,KAEL 252115Z AUTO 03006KT 10SM CLR 10/M07 A3019 RMK AO2
KAEX,2023-04-25T20:53:00Z,KAEX 252053Z 07003KT 10SM -RA FEW080 OVC100 22/13 A2995 RMK AO2 RAB00E26B43 SLP147 P0000 60000 T02170133 58020
KAFF,2023-04-25T21:11:00Z,KAFF 252111Z 16012KT 10SM -SHRA FEW026 BKN034 06/02 A2989 RMK AO2A SLP103
KAFJ,2023-04-25T20:56:00Z,KAFJ 252056Z AUTO 26006KT 10SM SCT075 BKN100 13/M04 A3016 RMK AO2 SLP219 T01281044 56015
KAFK,2023-04-25T21:15:00Z,KAFK 252115Z AUTO 19003KT 10SM BKN055 17/04 A3007 RMK AO2 T01650042
KAFN,2023-04-25T20:52:00Z,KAFN 252052Z AUTO 29007KT 10SM BKN100 12/M01 A3013 RMK AO2 SLP214 T01221006 51007
KAFO,2023-04-25T21:10:00Z,KAFO 252110Z AUTO 36005KT 10SM OVC025 03/M02 A3007 RMK AO2
KAFP,2023-04-25T21:09:00Z,KAFP 252109Z AUTO 00000KT 10SM SCT085 BKN100 17/07 A3012 RMK AO2 T01710073
KAFW,2023-04-25T20:53:00Z,KAFW 252053Z 14010KT 10SM FEW037 BKN080 BKN250 21/13 A2988 RMK AO2 SLP110 T02110133 58023
KAGC,2023-04-25T20:53:00Z,KAGC 252053Z 25007KT 10SM FEW065 13/M04 A3013 RMK AO2 SLP213 T01281044 58015
KAGI,2023-04-25T21:15:00Z,KAGI 252115Z AUTO 07013KT 10SM SCT016 27/19 A2988 RMK AO2 T02740188
KAGO,2023-04-25T21:15:00Z,KAGO 252115Z AUTO 05004KT 10SM OVC065 18/09 A2999 RMK A01
KAGS,2023-04-25T20:53:00Z,KAGS 252053Z 09004KT 10SM OVC070 23/08 A3002 RMK AO2 SLP164 T02280078 57011
KAHN,2023-04-25T20:51:00Z,KAHN 252051Z 05005KT 10SM FEW055 OVC100 21/08 A3006 RMK AO2 SLP177 T02060083 58008
KAHQ,2023-04-25T21:15:00Z,KAHQ 252115Z AUTO 11006KT 10SM BKN050 17/03 A3007 RMK AO2 T01720032
KAIA,2023-04-25T20:53:00Z,KAIA 252053Z AUTO 13017G23KT 10SM FEW047 OVC060 14/02 A2997 RMK AO2 PK WND 14026/2011 SLP141 T01440022 53005
KAIG,2023-04-25T21:15:00Z,KAIG 252115Z AUTO 35008KT 10SM BKN060 06/M05 A3020 RMK AO2 T00601047
KAIK,2023-04-25T21:15:00Z,KAIK 252115Z AUTO 09006KT 10SM BKN070 OVC080 22/08 A3005 RMK AO2 T02180077
KAIO,2023-04-25T21:15:00Z,KAIO 252115Z AUTO VRB05G13KT 10SM CLR 15/04 A3009 RMK AO2
KAIT,2023-04-25T21:15:00Z,KAIT 252115Z AUTO 05009KT 10SM BKN060 07/M07 A3026 RMK AO2
KAIZ,2023-04-25T20:56:00Z,KAIZ 252056Z AUTO 11008KT 10SM CLR 19/M01 RMK AO2 SLPNO T01941011 $
KAJG,2023-04-25T21:15:00Z,KAJG 252115Z AUTO 22010KT 10SM CLR 20/00 A3009 RMK AO2 T02020000
KAJO,2023-04-25T20:56:00Z,KAJO 252056Z AUTO VRB05KT 10SM CLR 22/13 A2989 RMK AO2 SLP116 6//// T02170128 58015
KAJR,2023-04-25T21:15:00Z,KAJR 252115Z AUTO 12003KT 7SM BKN065 BKN080 OVC110 18/06 A3008 RMK AO2 T01790061
KAJZ,2023-04-25T21:15:00Z,KAJZ 252115Z AUTO 11008KT 10SM SCT023 SCT055 SCT070 09/03 A2992 RMK AO2 T00900026
KAKH,2023-04-25T20:54:00Z,KAKH 252054Z AUTO 00000KT 10SM FEW075 OVC100 17/07 A3011 RMK AO2 SLP196 T01720067 58004
KAKO,2023-04-25T21:00:00Z,KAKO 252100Z AUTO 11023G28KT 10SM BKN007 BKN012 OVC020 07/06 A2991 RMK AO2 PK WND 12028/2058 T00670056 TSNO
KAKQ,2023-04-25T20:54:00Z,KAKQ 252054Z AUTO 09003KT 10SM CLR 16/04 A3017 RMK AO2 SLP216 T01610039 56007 PWINO
KAKR,2023-04-25T20:54:00Z,KAKR 252054Z AUTO 27004KT 10SM BKN055 OVC070 12/M06 A3014 RMK AO2 SLP210 T01171061 58006
KALB,2023-04-25T20:51:00Z,KALB 252051Z 00000KT 10SM -DZ OVC070 11/M01 A3019 RMK AO2 SLP224 P0000 60000 T01061006 52003
KALI,2023-04-25T20:53:00Z,KALI 252053Z AUTO 14008KT 8SM -RA SCT039 BKN047 OVC060 24/23 A2982 RMK AO2 SLP095 P0000 60000 T02390228 58019
KALK,2023-04-25T20:56:00Z,KALK 252056Z AUTO 25016G31KT 10SM CLR 26/M06 A2993 RMK AO2 PK WND 25031/2052 SLP048 T02561056 57014
KALM,2023-04-25T21:15:00Z,KALM 252115Z AUTO 22015KT 10SM FEW120 26/M05 A2979 RMK AO2
KALN,2023-04-25T20:50:00Z,KALN 252050Z 33010KT 10SM BKN075 19/03 A3008
KALO,2023-04-25T20:54:00Z,KALO 252054Z 01006KT 10SM CLR 14/M03 A3015 RMK AO2 SLP215 T01441033 58006
KALS,2023-04-25T20:52:00Z,KALS 252052Z AUTO 20026G38KT 10SM FEW075 BKN095 15/M05 A2979 RMK AO2 PK WND 21045/2021 WSHFT 2024 SLP031 T01501050 55008
KALW,2023-04-25T20:53:00Z,KALW 252053Z 00000KT 10SM CLR 16/03 A3015 RMK AO2 SLP212 T01560028 58020
KAMA,2023-04-25T20:53:00Z,KAMA 252053Z 16019G26KT 10SM CLR 22/08 A2978 RMK AO2 PK WND 17029/2014 SLP052 T02170083 56025
KAMG,2023-04-25T20:53:00Z,KAMG 252053Z AUTO 12007KT 10SM SCT050 BKN060 BKN080 24/16 A2996 RMK AO2 SLP145 T02440161 56013
KAMN,2023-04-25T21:15:00Z,KAMN 252115Z AUTO 00000KT 10SM SCT070 OVC080 11/M06 A3014 RMK AO2 T01101064
KAMW,2023-04-25T20:53:00Z,KAMW 252053Z AUTO 35008KT 10SM CLR 15/M02 A3013 RMK AO2 SLP204 T01501022 58009
KANB,2023-04-25T20:53:00Z,KANB 252053Z AUTO 23003KT 10SM BKN100 22/05 A3003 RMK AO2 SLP168 T02220050 58014
KAND,2023-04-25T20:56:00Z,KAND 252056Z AUTO 08005KT 10SM FEW060 BKN090 BKN110 18/06 A3009 RMK AO2 RAB13E22 SLP185 P0000 60000 T01830061 56009
KANE,2023-04-25T20:45:00Z,KANE 252045Z 08006KT 10SM BKN055 09/M05 A3024
KANJ,2023-04-25T20:55:00Z,KANJ 252055Z AUTO 31011G18KT 10SM CLR 04/M01 A3016 RMK AO2 SLP219 T00441011 53005
KANK,2023-04-25T21:10:00Z,KANK 252110Z AUTO 00000KT 5SM OVC003 02/02 A2998 RMK AO1 T00210015
KANQ,2023-04-25T21:15:00Z,KANQ 252115Z AUTO 01005KT 10SM BKN015 OVC020 06/04 A3014 RMK AO2
KANW,2023-04-25T21:15:00Z,KANW 252115Z AUTO 10013G19KT 10SM OVC050 15/02 A3004 RMK AO2 T01500020
KAOH,2023-04-25T20:53:00Z,KAOH 252053Z AUTO 22011KT 10SM OVC055 11/M01 A3012 RMK AO2 SLP202 T01111006 58005
KAOO,2023-04-25T20:53:00Z,KAOO 252053Z AUTO 00000KT 10SM CLR 12/M05 A3015 RMK AO2 SLP217 T01221050 56006
KAPA,2023-04-25T20:53:00Z,KAPA 252053Z 35007KT 10SM -RA BKN047 BKN060 OVC075 10/00 A2985 RMK AO2 LTG DSNT NW RAB42 SLP086 OCNL LTGICCG DSNT NW P0000 60000 T01000000 53006
KAPF,2023-04-25T20:53:00Z,KAPF 252053Z 22014KT 10SM CLR 29/20 A2988 RMK AO2 SLP117 T02940200 58012
KAPN,2023-04-25T21:02:00Z,KAPN 252102Z AUTO 00000KT 4SM RA BR OVC016 04/02 A3016 RMK AO2 P0002 T00390017
KAPS,2023-04-25T21:16:00Z,KAPS 252116Z AUTO 09009KT 10SM SCT120 25/14 A2995 RMK AO2
KAPY,2023-04-25T21:15:00Z,KAPY 252115Z AUTO 16009KT 10SM SCT040 SCT046 29/18 A2979 RMK AO2 T02880178 TSNO
KAQO,2023-04-25T21:15:00Z,KAQO 252115Z AUTO 13009KT 10SM FEW017 SCT024 OVC055 22/16 A2986 RMK AO2
KAQP,2023-04-25T21:13:00Z,KAQP 252113Z AUTO 10007KT 10SM 11/M08 A3022 RMK AO2
KAQV,2023-04-25T20:57:00Z,KAQV 252057Z AUTO 07004KT 9SM -RA FEW065 OVC100 19/14 A2994 RMK AO2 SLP139 P0001 60001 T01890139 58018
KAQW,2023-04-25T20:52:00Z,KAQW 252052Z AUTO VRB04KT 10SM OVC048 11/01 A3016 RMK AO2 SLP217 60000 T01060006 53005
KAQX,2023-04-25T21:15:00Z,KAQX 252115Z AUTO 00000KT 3/4SM RA BKN003 BKN023 OVC041 17/15 A3005 RMK AO2
KARA,2023-04-25T20:53:00Z,KARA 252053Z 08005KT 10SM FEW100 26/14 A2993 RMK AO2 SLP135 T02560144 58018
KARB,2023-04-25T21:14:00Z,KARB 252114Z 00000KT 9SM SCT013 OVC024 05/02 A3016 RMK AO2 T00500017
KARG,2023-04-25T21:14:00Z,KARG 252114Z AUTO 10009KT 7SM CLR 19/01 A3008 RMK AO2
KARM,2023-04-25T21:15:00Z,KARM 252115Z AUTO 14011KT 10SM SCT029 BKN050 OVC065 26/22 A2987 RMK AO2 T02610217 TSNO
KARR,2023-04-25T20:52:00Z,KARR 252052Z 03012KT 8SM BKN027 BKN037 08/02 A3017 RMK AO2 SLP219 T00830017 50004
KART,2023-04-25T20:56:00Z,KART 252056Z AUTO 25010KT 10SM SCT085 08/02 A3018 RMK AO2 SLP223 T00830017 53001
KARV,2023-04-25T21:15:00Z,KARV 252115Z AUTO 01009KT 10SM SCT037 OVC043 03/M05 A3023 RMK AO2 T00331052
KARW,2023-04-25T21:15:00Z,KARW 252115Z AUTO 09011G16KT 10SM -RA SCT034 BKN045 OVC090 19/13 A3005 RMK AO2
KASD,2023-04-25T20:53:00Z,KASD 252053Z AUTO 07005KT 10SM SCT050 27/16 A2993 RMK AO2 SLP135 T02720156 58021
KASE,2023-04-25T20:53:00Z,KASE 252053Z 02008KT 1SM -SN BR FEW005 BKN008 OVC012 00/M01 A2990 RMK AO2 SLP105 P0002 60002 T00001011 53010
KASG,2023-04-25T20:48:00Z,KASG 252048Z 23005KT 10SM BKN044 OVC049 15/08 A3007
KASH,2023-04-25T20:56:00Z,KASH 252056Z 30006KT 10SM SCT065 BKN080 OVC100 13/02 A3014 RMK AO2 SLP210 T01330017 53001
KASJ,2023-04-25T21:05:00Z,KASJ 252105Z AUTO 00000KT 10SM SCT060 SCT075 18/04 A3015 RMK AO2 T01790039
KASL,2023-04-25T21:15:00Z,KASL 252115Z AUTO 13003KT 10SM FEW060 21/11 A2993 RMK AO2 T02140114 $
KASN,2023-04-25T21:15:00Z,KASN 252115Z AUTO 29005KT 10SM CLR 23/05 A3004 RMK AO2 T02250045
KAST,2023-04-25T20:55:00Z,KAST 252055Z AUTO 33010KT 10SM CLR 13/06 A3026 RMK AO2 SLP246 T01280061 56009
KASW,2023-04-25T21:15:00Z,KASW 252115Z AUTO 36006KT 10SM BKN022 BKN035 OVC050 08/03 A3013 RMK AO2 T00860034
KASX,2023-04-25T20:53:00Z,KASX 252053Z AUTO 36010KT 10SM OVC060 05/M01 A3030 RMK AO2 SLP272 T00501011 53001
KATA,2023-04-25T21:15:00Z,KATA 252115Z AUTO 06006KT 10SM FEW070 SCT095 BKN110 18/10 A2996 RMK AO2 SLP046 T01810104 $
KATL,2023-04-25T20:52:00Z,KATL 252052Z 22005KT 10SM SCT070 BKN095 BKN250 22/06 A3003 RMK AO2 SLP166 ACC N-E W-NW T02170061 58013
KATP,2023-04-25T21:20:00Z,KATP 252120Z AUTO 08016KT 5SM HZ CLR 24/21 A2988 RMK A01
KATS,2023-04-25T21:15:00Z,KATS 252115Z AUTO VRB14G20KT 10SM CLR 28/M01 A2974 RMK AO2
KATT,2023-04-25T20:51:00Z,KATT 252051Z AUTO 00000KT 10SM FEW025 BKN049 OVC070 21/20 A2987 RMK AO2 RAB12E27 SLP109 P0000 60000 T02110200 56022
KATW,2023-04-25T20:45:00Z,KATW 252045Z 35005KT 10SM BKN050 BKN065 08/M04 A3018
KATY,2023-04-25T20:53:00Z,KATY 252053Z AUTO 12007KT 10SM CLR 09/M06 A3019 RMK AO2 SLP237 T00941056 57004
KAUG,2023-04-25T21:05:00Z,KAUG 252105Z AUTO 14007KT 10SM OVC008 07/04 A3022 RMK AO2 CIG 007V011 T00670044
KAUH,2023-04-25T21:15:00Z,KAUH 252115Z AUTO 12007KT 10SM OVC060 16/04 A3005 RMK AO2 T01580036
KAUM,2023-04-25T21:16:00Z,KAUM 252116Z AUTO 01007G15KT 10SM CLR 10/M04 A3018 RMK AO2
KAUN,2023-04-25T21:15:00Z,KAUN 252115Z AUTO 29006G12KT 10SM CLR 24/05 A2993 RMK A01
KAUO,2023-04-25T20:53:00Z,KAUO 252053Z AUTO VRB03KT 10SM CLR 23/09 A3002 RMK AO2 SLP157 6//// T02330089 58016 PNO $
KAUS,2023-04-25T20:53:00Z,KAUS 252053Z 03007KT 10SM SCT021 BKN030 OVC044 22/19 A2986 RMK AO2 SLP104 T02220189 56023
KAUW,2023-04-25T20:54:00Z,KAUW 252054Z AUTO 33009KT 10SM OVC060 08/M06 A3019 RMK AO2 SLP239 T00781061 56001
KAVC,2023-04-25T21:15:00Z,KAVC 252115Z AUTO 02003KT 10SM CLR 17/06 A3021 RMK AO2 T01680060
KAVK,2023-04-25T21:25:00Z,KAVK 252125Z AUTO 11016KT 6SM BR BKN008 OVC012 09/09 A2996 RMK AO2 PWINO
KAVL,2023-04-25T20:54:00Z,KAVL 252054Z 17007KT 10SM -RA BKN055 OVC070 15/02 A3012 RMK AO2 RAB50 SLP193 P0000 60000 T01500022 55001
KAVP,2023-04-25T20:54:00Z,KAVP 252054Z 10SM BKN070 12/M04 A3017 RMK AO2 SLP218 60000 T01221044 55003
KAVQ,2023-04-25T21:15:00Z,KAVQ 252115Z AUTO 26014G18KT 10SM 32/M06 A2977 RMK AO2 T03201059
KAVX,2023-04-25T20:51:00Z,KAVX 252051Z AUTO 00000KT 5SM BR OVC002 14/12 A2993 RMK AO2 SLP128 T01440122 58005
KAWG,2023-04-25T21:15:00Z,KAWG 252115Z AUTO 07008KT 10SM FEW055 14/02 A3011 RMK AO2
KAWM,2023-04-25T20:53:00Z,KAWM 252053Z AUTO VRB04KT 10SM CLR 19/M01 A3006 RMK AO2 RAB25E43 SLP175 P0000 60000 T01941011 58018
KAWO,2023-04-25T20:56:00Z,KAWO 252056Z AUTO 35006KT 10SM OVC034 14/07 A3027 RMK AO2 SLP254 T01390067 58007
KAXA,2023-04-25T21:15:00Z,KAXA 252115Z AUTO VRB05G16KT 10SM CLR 12/M06 A3016 RMK A01
KAXH,2023-04-25T21:15:00Z,KAXH 252115Z AUTO 13009KT 10SM 25/18 A2989 RMK AO2 T02470184 PWINO
KAXN,2023-04-25T20:53:00Z,KAXN 252053Z AUTO 06009G16KT 10SM BKN060 08/M07 A3025 RMK AO2 SLP259 T00831067 56006
KAXS,2023-04-25T21:20:00Z,KAXS 252120Z AUTO 06014G23KT 10SM SCT046 BKN060 BKN075 19/13 A2985 RMK AO2 T01920125
KAXV,2023-04-25T21:15:00Z,KAXV 252115Z AUTO 24011KT 10SM BKN060 OVC080 12/M01 A3010 RMK AO2
KAXX,2023-04-25T21:15:00Z,KAXX 252115Z AUTO 24008G21KT 220V280 10SM SCT050 SCT065 11/M04 A2988 RMK AO2 T01121036
KAYS,2023-04-25T21:15:00Z,KAYS 252115Z AUTO 11011G16KT 070V130 10SM SCT030 SCT043 BKN060 25/17 A2997 RMK AO2 T02510173
KAZC,2023-04-25T21:15:00Z,KAZC 252115Z AUTO 33014G31KT 10SM CLR 18/M06 A3000 RMK AO2
KAZE,2023-04-25T21:15:00Z,KAZE 252115Z AUTO 08011G18KT 10SM SCT050 SCT080 BKN120 22/17 A2999 RMK AO2 T02170167
KAZO,2023-04-25T20:53:00Z,KAZO 252053Z 36009KT 10SM FEW023 OVC034 07/01 A3016 RMK AO2 SLP221 T00720006 57002
KBAB,2023-04-25T20:55:00Z,KBAB 252055Z AUTO 34013KT 10SM FEW180 28/04 A2987 RMK AO2 SLP117 T02780041 57014 $
KBAC,2023-04-25T21:15:00Z,KBAC 252115Z AUTO 10008KT 10SM CLR 08/M04 A3024 RMK AO2
KBAD,2023-04-25T20:55:00Z,KBAD 252055Z AUTO 12008KT 10SM BKN065 22/11 A2996 RMK AO2 SLP149 T02230111 57023
KBAF,2023-04-25T20:53:00Z,KBAF 252053Z 24008KT 210V300 10SM OVC090 14/M01 A3013 RMK AO2 SLP206 60000 T01391011 55000
KBAK,2023-04-25T20:45:00Z,KBAK 252045Z 35006KT 10SM SCT065 OVC075 14/M02 A3011
KBAM,2023-04-25T21:15:00Z,KBAM 252115Z AUTO 33009KT 10SM CLR 14/M05 A3016 RMK AO1
KBAN,2023-04-25T20:52:00Z,KBAN 252052Z AUTO 23004KT 10SM CLR 11/M06 A3013 RMK AO2 SLP178 T01111056 55003 $
KBAX,2023-04-25T21:15:00Z,KBAX 252115Z AUTO 31004KT 10SM SCT060 OVC070 09/M02 A3013 RMK AO2 T00891016
KBAZ,2023-04-25T20:51:00Z,KBAZ 252051Z AUTO 15004KT 10SM SCT023 BKN070 25/19 A2983 RMK AO2 SLP094 60000 T02500194 56028
KBBB,2023-04-25T21:16:00Z,KBBB 252116Z AUTO 08005G08KT 10SM CLR 09/M06 A3025 RMK AO2
KBBD,2023-04-25T21:15:00Z,KBBD 252115Z AUTO 16015G21KT 10SM FEW030 BKN036 BKN043 24/14 A2983 RMK AO2
KBBG,2023-04-25T20:45:00Z,KBBG 252045Z 11008KT 10SM OVC050 15/04 A3008
KBBP,2023-04-25T21:15:00Z,KBBP 252115Z AUTO 08006KT 10SM OVC075 19/07 A3011 RMK AO2
KBBW,2023-04-25T20:53:00Z,KBBW 252053Z AUTO 10010KT 10SM FEW044 OVC055 15/03 A3003 RMK AO2 SLP173 T01500033 56004
KBCB,2023-04-25T21:15:00Z,KBCB 252115Z AUTO 00000KT 10SM OVC110 14/M04 A3016 RMK AO2 T01401042
KBCE,2023-04-25T20:53:00Z,KBCE 252053Z AUTO 31021G30KT 10SM CLR 07/M04 A3003 RMK AO2 PK WND 31034/2036 SLP104 T00671044 53006
KBCK,2023-04-25T21:15:00Z,KBCK 252115Z AUTO 35004KT 10SM OVC065 09/M05 A3021 RMK AO2 T00871052
KBCR,2023-04-25T20:58:00Z,KBCR 252058Z AUTO 34007KT 10SM CLR 28/14 A2994 RMK AO2 SLP098 T02830139 58018 $
KBCT,2023-04-25T20:53:00Z,KBCT 252053Z 17008G16KT 10SM SCT030 31/21 A2987
KBDE,2023-04-25T20:53:00Z,KBDE 252053Z AUTO 03003KT 10SM BKN060 09/M06 A3028 RMK AO2 SLP268 T00941061 58008
KBDG,2023-04-25T21:15:00Z,KBDG 252115Z AUTO 29016G26KT 10SM 11/M10 A2995 RMK AO1 T01101101
KBDH,2023-04-25T21:15:00Z,KBDH 252115Z AUTO 07011KT 10SM CLR 10/M06 A3027 RMK AO2
KBDL,2023-04-25T20:51:00Z,KBDL 252051Z 25008KT 210V280 10SM BKN070 BKN095 15/M01 A3013 RMK AO2 SLP204 T01501006 53001
KBDN,2023-04-25T21:15:00Z,KBDN 252115Z AUTO 32008KT 10SM CLR 19/M07 A3012 RMK AO2
KBDR,2023-04-25T20:52:00Z,KBDR 252052Z 18009KT 10SM BKN095 14/02 A3014 RMK AO2 SLP207 T01390022 55001 $
KBDU,2023-04-25T21:15:00Z,KBDU 252115Z AUTO 36012G24KT 10SM SCT043 OVC060 09/01 A2987 RMK AO2 LTG DSNT E AND W
KBEA,2023-04-25T21:15:00Z,KBEA 252115Z AUTO 11008KT 10SM SCT022 SCT029 OVC055 25/21 A2983 RMK AO2 T02450205
KBEC,2023-04-25T21:15:00Z,KBEC 252115Z AUTO 15010KT 10SM SCT037 OVC044 11/07 A3003 RMK AO2 T01130066
KBED,2023-04-25T20:51:00Z,KBED 252051Z 11011KT 10SM SCT080 OVC095 12/06 A3012 RMK AO2 SLP214 60000 T01220056 53005
KBEH,2023-04-25T20:53:00Z,KBEH 252053Z AUTO 33007KT 280V010 10SM BKN014 BKN022 07/02 A3018 RMK AO2 SLP223 T00670022 53004
KBFD,2023-04-25T20:53:00Z,KBFD 252053Z AUTO 00000KT 10SM OVC070 09/M06 A3012 RMK AO2 SLP215 T00891056 56007
KBFF,2023-04-25T20:53:00Z,KBFF 252053Z AUTO 14014G19KT 10SM OVC030 12/06 A2996 RMK AO2 RAE11 SLP139 P0000 60000 T01170056 53007
KBFI,2023-04-25T20:53:00Z,KBFI 252053Z VRB03KT 10SM BKN031 13/06 A3026 RMK AO2 SLP248 T01280056 58007
KBFL,2023-04-25T20:54:00Z,KBFL 252054Z 35008KT 10SM CLR 28/07 A2989 RMK AO2 SLP115 T02780067 58016
KBFM,2023-04-25T20:53:00Z,KBFM 252053Z 15006KT 10SM CLR 26/13 A2996 RMK AO2 SLP146 T02610128 58018
KBFR,2023-04-25T21:15:00Z,KBFR 252115Z AUTO 25007KT 10SM SCT100 17/M02 A3009 RMK AO2
KBGD,2023-04-25T20:51:00Z,KBGD 252051Z AUTO 13011G21KT 10SM SCT050 22/08 A2979 RMK AO2 SLP061 T02220083 58027
KBGE,2023-04-25T21:15:00Z,KBGE 252115Z AUTO 04007KT 360V070 10SM SCT050 BKN070 27/15 A2995 RMK AO2 LTG DSNT SW T02670146
KBGF,2023-04-25T21:15:00Z,KBGF 252115Z AUTO 25004KT 10SM CLR 19/01 A3004 RMK A01
KBGM,2023-04-25T20:53:00Z,KBGM 252053Z AUTO VRB03KT 10SM OVC070 09/M06 A3014 RMK AO2 SLP216 T00941056 56008
KBGR,2023-04-25T20:53:00Z,KBGR 252053Z 15006KT 10SM -RA OVC014 07/04 A3023 RMK AO2 RAB1959 SLP239 P0000 60000 T00670044 53006
KBHB,2023-04-25T20:56:00Z,KBHB 252056Z AUTO 11005KT 10SM OVC012 06/03 A3025 RMK AO2 SLP247 T00560033 53009
KBHC,2023-04-25T21:15:00Z,KBHC 252115Z AUTO 08012KT 7SM RA BKN043 OVC048 18/16 A3000 RMK AO2 LTG DSNT SE
KBHK,2023-04-25T20:51:00Z,KBHK 252051Z AUTO 13020G24KT 10SM CLR 11/01 A3004 RMK AO2 PK WND 13028/2006 SLP184 T01110011 58009
KBHM,2023-04-25T20:53:00Z,KBHM 252053Z VRB04KT 10SM BKN100 BKN150 23/04 A3006 RMK AO2 SLP174 T02280039 58012
KBID,2023-04-25T20:56:00Z,KBID 252056Z AUTO 22008KT 10SM CLR 12/06 A3016 RMK AO2 SLP215 T01220056 53003
KBIE,2023-04-25T21:15:00Z,KBIE 252115Z AUTO 12004KT 10SM OVC060 16/05 A3005 RMK AO2 T01640049
KBIF,2023-04-25T20:56:00Z,KBIF 252056Z 24015G24KT 10SM 29/M06 A2981 RMK A02A PK WND 25030/2030 ALSTG WND DATA ESTMD SLPNO $
KBIH,2023-04-25T20:56:00Z,KBIH 252056Z AUTO 34010KT 24/M08 A2999 RMK AO2 SLP114 6//// T02441083 58016 PNO $
KBIJ,2023-04-25T21:15:00Z,KBIJ 252115Z AUTO 08004KT 10SM BKN055 26/12 A2996 RMK AO2
KBIL,2023-04-25T20:53:00Z,KBIL 252053Z 00000KT 10SM FEW075 FEW240 16/M01 A2999 RMK AO2 SLP150 T01611011 58004
KBIS,2023-04-25T20:52:00Z,KBIS 252052Z 16010G19KT 10SM CLR 12/M06 A3017 RMK AO2 SLP231 T01221056 56008
KBIV,2023-04-25T20:53:00Z,KBIV 252053Z AUTO 30010KT 10SM SCT060 08/01 A3018 RMK AO2 SLP226 T00780011 50001
KBIX,2023-04-25T20:55:00Z,KBIX 252055Z AUTO 17009KT 10SM CLR 24/17 A2994 RMK AO2 SLP142 T02370167 57017
KBJC,2023-04-25T20:59:00Z,KBJC 252059Z 35021G30KT 10SM -TSRA SCT039 OVC048 10/02 A2986 RMK OCNL LGT ICCG
KBJI,2023-04-25T21:15:00Z,KBJI 252115Z AUTO 10007KT 10SM OVC060 08/M08 A3025 RMK AO2 T00791077
KBJJ,2023-04-25T20:56:00Z,KBJJ 252056Z AUTO 18007G17KT 140V250 10SM BKN060 OVC070 10/M01 A3014 RMK AO2 SLP213 T01001011 58012
KBKB,2023-04-25T20:52:00Z,KBKB 252052Z AUTO VRB04KT 10SM SCT110 23/12 A2992 RMK AO2 SLP159 T02330122 58021
KBKD,2023-04-25T21:15:00Z,KBKD 252115Z AUTO 14009G14KT 10SM BKN031 BKN043 OVC050 23/15 A2983 RMK AO2 T02250152
KBKE,2023-04-25T20:53:00Z,KBKE 252053Z AUTO 31007G15KT 260V360 10SM CLR 15/00 A3014 RMK AO2 SLP209 T01500000 56013
KBKF,2023-04-25T21:18:00Z,KBKF 252118Z 21026G30KT 1 1/2SM +TSRAGR BKN010 OVC020 09/03 A2982 RMK AO2A SLP069
KBKL,2023-04-25T20:53:00Z,KBKL 252053Z 01008KT 10SM OVC065 07/03 A3016 RMK AO2 RAB01E16 SLP219 P0000 60000 T00720028 58007
KBKN,2023-04-25T21:15:00Z,KBKN 252115Z AUTO 08006KT RA BKN017 BKN023 09/09 A3004 RMK AO2
KBKS,2023-04-25T21:15:00Z,KBKS 252115Z AUTO 12010KT 1/2SM HZ FEW020 SCT036 BKN045 26/22 A2979 RMK AO2 SLP050 T02580224 $
KBKT,2023-04-25T21:15:00Z,KBKT 252115Z AUTO 09003KT 10SM BKN055 16/04 A3016 RMK AO1 T01580043
KBKV,2023-04-25T20:53:00Z,KBKV 252053Z 27010KT 10SM CLR 29/20 A2990 RMK AO2 LTG DSNT SE AND S SLP124 T02890200 56012
KBKW,2023-04-25T20:51:00Z,KBKW 252051Z AUTO VRB04KT 10SM CLR 13/M07 A3012 RMK AO2 SLP209 T01331072 58009
KBKX,2023-04-25T20:56:00Z,KBKX 252056Z AUTO 09006KT 10SM CLR 10/M07 A3019 RMK AO2 SLP250 T01001067 58001
KBLF,2023-04-25T20:52:00Z,KBLF 252052Z AUTO 30006KT 10SM SCT100 13/M07 A3013 RMK AO2 SLP204 T01281072 55003
KBLI,2023-04-25T20:53:00Z,KBLI 252053Z 19004KT 10SM SCT035 13/07 A3027 RMK AO2 SLP256 T01280067 58003
KBLM,2023-04-25T20:56:00Z,KBLM 252056Z AUTO 15006KT 10SM OVC065 12/04 A3018 RMK AO2 SLP221 T01220044 53004
KBLU,2023-04-25T20:52:00Z,KBLU 252052Z AUTO 07007KT 040V110 10SM CLR 17/M09 A3009 RMK AO2 SLP133 T01671089 50006
KBLV,2023-04-25T20:55:00Z,KBLV 252055Z COR 27006KT 10SM FEW075 BKN095 19/03 A3006 RMK AO2 SLP182 T01900032 57011 $ COR 2117
KBMC,2023-04-25T21:10:00Z,KBMC 252110Z AUTO 00000KT 10SM OVC050 08/00 A3010 RMK AO1 T00801001
KBMG,2023-04-25T20:53:00Z,KBMG 252053Z 29009KT 10SM BKN070 OVC090 17/01 A3009 RMK AO2 SLP190 T01670006 56010
KBMI,2023-04-25T20:56:00Z,KBMI 252056Z 36009G15KT 10SM FEW041 BKN080 16/06 A3011 RMK AO2 SLP195 T01560056 56002
KBML,2023-04-25T20:52:00Z,KBML 252052Z AUTO 00000KT 10SM OVC026 08/03 A3014 RMK AO2 SLP216 T00780028 53006
KBMQ,2023-04-25T21:20:00Z,KBMQ 252120Z AUTO 15005KT 10SM BKN016 OVC021 21/17 A2988 RMK AO2 T02060172
KBMT,2023-04-25T21:15:00Z,KBMT 252115Z AUTO 07005KT 10SM BKN027 24/16 A2991 RMK AO2 T02370163
KBNA,2023-04-25T20:53:00Z,KBNA 252053Z 10009KT 10SM FEW250 21/M02 A3010 RMK AO2 SLP189 T02061022 58016 $
KBNL,2023-04-25T21:15:00Z,KBNL 252115Z AUTO 12006KT 10SM BKN065 OVC080 21/08 A3005 RMK AO2
KBNO,2023-04-25T20:53:00Z,KBNO 252053Z AUTO 25008KT 10SM CLR 14/M02 A3016 RMK AO2 SLP215 T01391017 58012 $
KBOI,2023-04-25T20:53:00Z,KBOI 252053Z 29010G20KT 10SM CLR 17/01 A3009 RMK AO2 PK WND 26028/2020 SLP185 T01720006 58008
KBOK,2023-04-25T20:56:00Z,KBOK 252056Z AUTO 27007KT 10SM CLR 22/07 A3003 RMK AO2 SLP169 T02170067 58019
KBOS,2023-04-25T20:54:00Z,KBOS 252054Z 10013KT 10SM FEW013 SCT032 BKN100 11/06 A3015 RMK AO2 SLP210 T01060056 53008
KBOW,2023-04-25T20:50:00Z,KBOW 252050Z 24010KT 8SM SCT050 24/20 A2990 RMK TS IN VICINITY LTG DSNT ALQDS
KBPC,2023-04-25T21:15:00Z,KBPC 252115Z AUTO 17012G18KT 10SM SCT046 21/08 A2980 RMK AO2
KBPG,2023-04-25T21:15:00Z,KBPG 252115Z AUTO 21013G16KT 10SM CLR 28/05 A2976 RMK AO2 T02810045
KBPI,2023-04-25T20:53:00Z,KBPI 252053Z AUTO 09007KT 10SM SCT042 09/M01 A2999 RMK AO2 SLP118 T00941011 53015
KBPK,2023-04-25T20:53:00Z,KBPK 252053Z AUTO 19007KT 10SM CLR 17/01 A3007 RMK AO2 SLP179 T01670011
KBPT,2023-04-25T20:53:00Z,KBPT 252053Z 07010KT 10SM FEW027 24/17 A2991 RMK AO2 SLP127 T02440167 58016
KBQK,2023-04-25T21:15:00Z,KBQK 252115Z AUTO 08013KT 10SM BKN090 BKN120 22/16 A3000 RMK AO2 T02220158
KBQP,2023-04-25T21:15:00Z,KBQP 252115Z AUTO 08004KT 10SM SCT070 21/06 A3001 RMK AO2 T02100059
KBRD,2023-04-25T20:53:00Z,KBRD 252053Z AUTO 03010KT 10SM FEW060 08/M07 A3026 RMK AO2 SLP260 T00781072 58008
KBRG,2023-04-25T21:15:00Z,KBRG 252115Z AUTO 26015G27KT 10SM SCT120 24/M07 A2978 RMK AO2 T02381070
KBRL,2023-04-25T20:53:00Z,KBRL 252053Z AUTO 35006G14KT 10SM FEW038 FEW080 14/06 A3012 RMK AO2 SLP201 T01440056 58002
KBRO,2023-04-25T20:53:00Z,KBRO 252053Z 20005KT 10SM -RA SCT024 OVC039 24/22 A2980 RMK AO2 RAB03 SLP091 P0005 60020 T02390222 58012 $
KBRY,2023-04-25T21:15:00Z,KBRY 252115Z AUTO 05004KT 10SM CLR 18/M01 A3008 RMK AO2 T01841011
KBTA,2023-04-25T21:15:00Z,KBTA 252115Z AUTO 09008KT 7SM CLR 17/02 A3008 RMK AO2 T01710024
KBTL,2023-04-25T21:17:00Z,KBTL 252117Z 00000KT 10SM SCT023 SCT031 07/01 A3016 RMK AO2 T00720011
KBTM,2023-04-25T21:06:00Z,KBTM 252106Z AUTO 03007KT 10SM OVC030 07/01 A3012 RMK AO2 T00720006
KBTN,2023-04-25T21:15:00Z,KBTN 252115Z AUTO VRB06G15KT 8SM CLR 09/M05 A3021 RMK AO2
KBTP,2023-04-25T20:56:00Z,KBTP 252056Z AUTO VRB06KT 10SM BKN065 12/M03 A3014 RMK AO2 SLP222 T01171028 56013 TSNO $
KBTR,2023-04-25T20:53:00Z,KBTR 252053Z 01004KT 10SM FEW110 27/13 A2994 RMK AO2 SLP137 T02720128 58021
KBTV,2023-04-25T20:54:00Z,KBTV 252054Z 22007KT 10SM FEW030 SCT070 SCT085 12/01 A3015 RMK AO2 SLP212 60000 T01170006 53001
KBUF,2023-04-25T20:54:00Z,KBUF 252054Z 27010G17KT 10SM FEW030 OVC080 09/M05 A3016 RMK AO2 SLP217 T00941050 56001
KBUR,2023-04-25T20:53:00Z,KBUR 252053Z 19008KT 150V220 10SM CLR 22/12 A2988 RMK AO2 SLP108 T02170117 58012
KBUU,2023-04-25T21:15:00Z,KBUU 252115Z AUTO 07006KT 10SM BKN041 OVC050 07/M02 A3021 RMK AO2 T00671017 PWINO
KBUY,2023-04-25T20:54:00Z,KBUY 252054Z AUTO 01004KT 10SM FEW060 18/06 A3013 RMK AO2 SLP201 T01780061 56005
KBVI,2023-04-25T21:15:00Z,KBVI 252115Z AUTO 22008KT 10SM OVC070 13/M05 A3014 RMK AO2 T01261055
KBVN,2023-04-25T21:15:00Z,KBVN 252115Z AUTO 11009KT OVC060 17/02 A3005 RMK AO2 T01650019
KBVO,2023-04-25T20:53:00Z,KBVO 252053Z AUTO 00000KT 5SM -RA BR FEW065 OVC080 11/09 A3007 RMK AO2 RAB21 SLP178 P0002 60002 T01110089 56010
KBVS,2023-04-25T21:15:00Z,KBVS 252115Z AUTO VRB04KT 10SM BKN030 BKN036 13/08 A3027 RMK A01
KBVU,2023-04-25T21:15:00Z,KBVU 252115Z AUTO 03012G20KT 10SM CLR 26/M13 A2990 RMK AO2
KBVX,2023-04-25T20:56:00Z,KBVX 252056Z AUTO 06007KT 10SM CLR 18/03 A3008 RMK AO2 SLPNO T01780033 56018
KBVY,2023-04-25T21:02:00Z,KBVY 252102Z 13009KT 10SM BKN024 BKN029 OVC095 10/06 A3016 RMK AO2 T01000061
KBWD,2023-04-25T20:55:00Z,KBWD 252055Z AUTO 16012G16KT 10SM SCT025 BKN033 OVC049 22/15 A2985 RMK AO1
KBWG,2023-04-25T20:53:00Z,KBWG 252053Z AUTO VRB03KT 10SM CLR 19/01 A3011 RMK AO2 SLP195 T01890006 58013
KBWI,2023-04-25T20:54:00Z,KBWI 252054Z 23004KT 10SM FEW075 BKN200 BKN250 14/M02 A3018 RMK AO2 SLP220 T01441017 55001
KBWP,2023-04-25T21:15:00Z,KBWP 252115Z AUTO 10007KT 10SM BKN060 10/M04 A3024 RMK AO2
KBWW,2023-04-25T21:15:00Z,KBWW 252115Z AUTO 15018G23KT 10SM FEW032 FEW049 OVC070 08/01 A3008 RMK AO2
KBXA,2023-04-25T21:15:00Z,KBXA 252115Z AUTO 33003KT 10SM SCT055 27/13 A2995 RMK AO2 T02670128
KBXK,2023-04-25T21:15:00Z,KBXK 252115Z AUTO 24013G21KT 210V280 10SM CLR 31/04 A2975 RMK A01
KBYG,2023-04-25T20:53:00Z,KBYG 252053Z AUTO VRB06KT 10SM SCT050 13/M01 A2998 RMK AO2 SLP139 T01281006 58001
KBYI,2023-04-25T20:53:00Z,KBYI 252053Z AUTO 29008G18KT 10SM CLR 14/M02 A3008 RMK AO2 SLP176 60000 T01391022 58003
KBYL,2023-04-25T21:15:00Z,KBYL 252115Z AUTO 07005KT 10SM CLR 17/M02 A3011 RMK AO1
KBYS,2023-04-25T20:55:00Z,KBYS 252055Z AUTO 36012G18KT 10SM FEW280 26/M11 A2987 RMK AO2 SLP093 T02631106 57007 $
KBYY,2023-04-25T21:15:00Z,KBYY 252115Z AUTO 13009KT 10SM SCT022 OVC070 24/19 A2988 RMK AO2 T02440192
KBZN,2023-04-25T20:56:00Z,KBZN 252056Z 00000KT 10SM FEW027 OVC038 10/03 A3010 RMK AO2 SLP202 T01000028 58003
KC09,2023-04-25T21:15:00Z,KC09 252115Z AUTO 03007KT 010V070 10SM 10/02 A3016 RMK AO2 T00990021
KC29,2023-04-25T21:15:00Z,KC29 252115Z AUTO 12003KT 10SM SCT045 OVC060 08/M01 A3020 RMK AO1 T00821006
KC35,2023-04-25T21:15:00Z,KC35 252115Z AUTO 10003KT 10SM OVC065 08/M03 A3019 RMK AO2 T00821033 PWINO
KC62,2023-04-25T21:15:00Z,KC62 252115Z AUTO 01007KT 10SM BKN016 OVC023 07/05 A3013 RMK AO2 T00730052
KC65,2023-04-25T21:15:00Z,KC65 252115Z AUTO 36009KT 10SM SCT024 OVC031 08/03 A3013 RMK A01
KC75,2023-04-25T21:15:00Z,KC75 252115Z AUTO 02007KT 310V050 10SM CLR 13/06 A3013 RMK AO2 T01280059
KC83,2023-04-25T21:15:00Z,KC83 252115Z AUTO 33007G13KT 10SM CLR 27/02 A2990 RMK AO2
KC99,2023-04-25T21:15:00Z,KC99 252115Z AUTO 11004KT M1/4SM VCTS OVC001 M03/M03 A2996 RMK AO2 LTG DSNT E AND SE
KCAD,2023-04-25T21:15:00Z,KCAD 252115Z AUTO 36008KT 10SM OVC048 06/M02 A3014 RMK AO2 T00581021
KCAE,2023-04-25T20:56:00Z,KCAE 252056Z 11009KT 10SM SCT037 BKN080 21/08 A3006 RMK AO2 SLP177 T02110078 56010
KCAG,2023-04-25T20:53:00Z,KCAG 252053Z AUTO 23007KT 10SM SCT023 BKN037 OVC044 07/01 A2994 RMK AO2 SLP133 T00720011 52001
KCAK,2023-04-25T20:51:00Z,KCAK 252051Z 24009KT 10SM BKN060 OVC080 11/M02 A3014 RMK AO2 SLP213 T01061022 56008
KCAO,2023-04-25T21:19:00Z,KCAO 252119Z AUTO 19009G30KT 10SM -TSRA BKN050 BKN065 OVC080 12/04 A2980 RMK AO2 PK WND 25030/2111 WSHFT 2059 LTG DSNT N AND S RAB03 PRESFR P0003 T01220044
KCAR,2023-04-25T20:54:00Z,KCAR 252054Z AUTO 13005KT 10SM OVC026 08/03 A3021 RMK AO2 SLP238 T00830028 55002
KCAV,2023-04-25T21:15:00Z,KCAV 252115Z AUTO 05009G14KT 10SM CLR 13/M05 A3016 RMK A01
KCBE,2023-04-25T21:05:00Z,KCBE 252105Z AUTO 24006KT 10SM SCT090 16/M04 A3017 RMK AO2 T01581043
KCBF,2023-04-25T21:15:00Z,KCBF 252115Z AUTO 06009G17KT 10SM FEW055 17/00 A3006 RMK AO2
KCBG,2023-04-25T21:15:00Z,KCBG 252115Z AUTO 04003KT 10SM SCT060 09/M03 A3025 RMK AO2
KCBK,2023-04-25T21:15:00Z,KCBK 252115Z AUTO 10014KT 10SM BKN010 OVC017 09/07 A2997 RMK AO2 T00910072
KCBM,2023-04-25T20:55:00Z,KCBM 252055Z AUTO 34008KT 10SM SCT090 19/04 A3001 RMK AO2 SLP165 T01890035 57018 $
KCCA,2023-04-25T21:15:00Z,KCCA 252115Z AUTO 13004KT 10SM SCT050 OVC055 17/06 A3007 RMK AO2
KCCB,2023-04-25T21:15:00Z,KCCB 252115Z AUTO 23010KT 200V270 10SM CLR 19/11 A2989 RMK AO2
KCCO,2023-04-25T21:15:00Z,KCCO 252115Z AUTO 32003KT 10SM CLR 23/05 A3002 RMK AO2 T02280045
KCCR,2023-04-25T20:53:00Z,KCCR 252053Z 32006KT 10SM CLR 27/06 A2990 RMK AO2 SLP113 T02670061 58017
KCCU,2023-04-25T21:15:00Z,KCCU 252115Z AUTO 09008G18KT 070V130 10SM SCT022 SCT046 BKN050 01/M05 A2995 RMK AO2
KCCY,2023-04-25T21:15:00Z,KCCY 252115Z AUTO 36008KT 10SM CLR 11/M04 A3016 RMK AO2
KCDA,2023-04-25T21:15:00Z,KCDA 252115Z AUTO 33003KT 10SM 07/02 A3015 RMK AO2 T00690023 PWINO
KCDC,2023-04-25T20:53:00Z,KCDC 252053Z AUTO 36015G23KT 10SM CLR 12/M04 A3005 RMK AO2 PK WND 01027/2042 SLP142 T01171039 51000
KCDD,2023-04-25T21:15:00Z,KCDD 252115Z AUTO 00000KT 10SM OVC050 05/M09 A3032 RMK AO2
KCDH,2023-04-25T21:15:00Z,KCDH 252115Z AUTO 02007KT 8SM BKN065 OVC080 16/11 A3003 RMK AO2
KCDI,2023-04-25T21:15:00Z,KCDI 252115Z AUTO 00000KT 10SM BKN060 BKN070 OVC090 13/M03 A3014 RMK AO2 T01291030
KCDJ,2023-04-25T20:51:00Z,KCDJ 252051Z AUTO 00000KT 19/04 A3008 RMK AO1 SLP182 T01940039 58012
KCDN,2023-04-25T21:15:00Z,KCDN 252115Z AUTO 06008KT 10SM SCT070 SCT120 21/05 A3009 RMK AO2
KCDR,2023-04-25T20:53:00Z,KCDR 252053Z AUTO 06015G23KT 10SM SCT055 BKN070 14/03 A2998 RMK AO2 SLP156 T01390033 56001
KCDS,2023-04-25T20:53:00Z,KCDS 252053Z AUTO 16009G20KT 120V180 10SM BKN060 23/11 A2982 RMK AO2 SLP080 T02330106 58020
KCDW,2023-04-25T20:53:00Z,KCDW 252053Z 00000KT 10SM BKN080 14/M06 A3016 RMK AO2 SLP217 T01391056 55000
KCEC,2023-04-25T20:56:00Z,KCEC 252056Z AUTO 34009KT 5SM HZ CLR 14/09 A3005 RMK AO2 SLP176 T01440094 56013
KCEF,2023-04-25T20:55:00Z,KCEF 252055Z 26009KT 10SM SCT070 BKN095 15/M02 A3010 RMK AO2A SLP200 T01501016 56001
KCEU,2023-04-25T20:54:00Z,KCEU 252054Z AUTO 12004KT 10SM OVC080 16/07 A3010 RMK AO2 RAB20E44 SLP190 P0000 60000 T01610072 55005
KCEW,2023-04-25T20:53:00Z,KCEW 252053Z AUTO 01003KT 10SM OVC065 27/13 A2996 RMK AO2 SLP142 T02720133 58015
KCEY,2023-04-25T21:15:00Z,KCEY 252115Z AUTO 04008KT 10SM CLR 19/M00 A3009 RMK A01
KCEZ,2023-04-25T20:53:00Z,KCEZ 252053Z AUTO VRB03G15KT 10SM FEW033 FEW100 11/00 A2988 RMK AO2 SLP082 60000 T01060000 50013
KCFD,2023-04-25T21:15:00Z,KCFD 252115Z AUTO 12005KT 10SM BKN028 BKN040 BKN060 23/17 A2989 RMK AO2 T02310168
KCFE,2023-04-25T21:15:00Z,KCFE 252115Z AUTO 04007KT 010V080 10SM SCT060 08/M04 A3024 RMK AO2
KCFJ,2023-04-25T21:15:00Z,KCFJ 252115Z AUTO 21007KT 10SM CLR 14/M01 A3009 RMK AO2 T01401012
KCFO,2023-04-25T20:47:00Z,KCFO 252047Z 16014G19KT 10SM SCT049 BKN055 OVC085 15/00 A2983
KCFS,2023-04-25T21:15:00Z,KCFS 252115Z AUTO 00000KT 10SM OVC075 09/M05 A3014 RMK AO2 T00931051
KCFV,2023-04-25T20:52:00Z,KCFV 252052Z AUTO 19007KT 10SM OVC048 15/08 A3004 RMK AO2 SLP170 T01500078 56008
KCGC,2023-04-25T21:15:00Z,KCGC 252115Z AUTO 27009KT 10SM CLR 27/20 A2992 RMK AO2
KCGE,2023-04-25T21:05:00Z,KCGE 252105Z AUTO VRB06KT 10SM CLR 15/M00 A3019 RMK A01
KCGF,2023-04-25T20:45:00Z,KCGF 252045Z 35008KT 10SM -DZ BKN036 06/02 A3018
KCGI,2023-04-25T20:53:00Z,KCGI 252053Z 00000KT 10SM CLR 20/01 A3009 RMK AO2 SLP187 T02000006 56016
KCGS,2023-04-25T21:10:00Z,KCGS 252110Z AUTO 30004KT 10SM CLR 15/M01 A3019 RMK AO2 T01481014
KCGZ,2023-04-25T20:56:00Z,KCGZ 252056Z AUTO 28012G24KT 10SM CLR 31/02 A2977 RMK AO2 SLP067 6//// T03110022 58020 PNO $
KCHA,2023-04-25T20:53:00Z,KCHA 252053Z 09005KT 10SM FEW100 SCT130 SCT250 20/03 A3008 RMK AO2 SLP182 T02000028 58014
KCHD,2023-04-25T20:50:00Z,KCHD 252050Z 27007G15KT 10SM CLR 31/01 A2976
KCHK,2023-04-25T21:15:00Z,KCHK 252115Z AUTO 08011KT 10SM SCT015 OVC022 12/09 A2991 RMK AO2 T01190090
KCHO,2023-04-25T20:53:00Z,KCHO 252053Z 16007KT 10SM FEW070 17/M01 A3015 RMK AO2 SLP209 T01671006 57005
KCHS,2023-04-25T20:56:00Z,KCHS 252056Z 09009KT 10SM FEW030 SCT060 SCT080 23/11 A3006 RMK AO2 SLP178 T02330106 58011
KCIC,2023-04-25T20:47:00Z,KCIC 252047Z 30011KT 10SM CLR 27/02 A2993
KCID,2023-04-25T20:52:00Z,KCID 252052Z 01005KT 10SM FEW060 13/M01 A3014 RMK AO2 SLP210 T01331011 57002
KCIN,2023-04-25T21:15:00Z,KCIN 252115Z AUTO 07010G18KT 10SM FEW100 15/M02 A3010 RMK AO2
KCIR,2023-04-25T21:15:00Z,KCIR 252115Z AUTO 06003KT 10SM CLR 20/00 A3010 RMK AO2 T02010004
KCIU,2023-04-25T20:56:00Z,KCIU 252056Z AUTO 33016KT 10SM FEW030 04/M04 A3017 RMK AO2 SLP223 T00391039 53004
KCJR,2023-04-25T21:15:00Z,KCJR 252115Z AUTO 00000KT 10SM CLR 17/M01 A3017 RMK AO2 T01651015
KCKB,2023-04-25T20:53:00Z,KCKB 252053Z VRB06KT 10SM CLR 15/M04 A3012 RMK AO2 SLP198 T01501044 56016
KCKC,2023-04-25T21:15:00Z,KCKC 252115Z AUTO 14005KT 10SM OVC050 03/M08 A3024 RMK AO2
KCKF,2023-04-25T21:15:00Z,KCKF 252115Z AUTO 35003KT 10SM BKN060 BKN070 BKN085 26/12 A2999 RMK AO2 T02580120
KCKI,2023-04-25T21:15:00Z,KCKI 252115Z AUTO 13009KT 10SM CLR 22/05 A3009 RMK AO2
KCKM,2023-04-25T21:15:00Z,KCKM 252115Z AUTO 04006KT 10SM CLR 17/05 A3007 RMK A01
KCKN,2023-04-25T21:15:00Z,KCKN 252115Z AUTO 30005KT 10SM BKN060 10/M06 A3026 RMK AO2
KCKP,2023-04-25T21:15:00Z,KCKP 252115Z AUTO 07009KT 030V100 10SM SCT095 14/M03 A3013 RMK AO2 T01441026
KCKV,2023-04-25T20:52:00Z,KCKV 252052Z AUTO 07007KT 10SM CLR 20/01 A3010 RMK AO2 SLP190 T02000006 58015
KCKZ,2023-04-25T21:15:00Z,KCKZ 252115Z AUTO 29003G15KT 10SM CLR 13/M05 A3018 RMK AO2
KCLE,2023-04-25T20:51:00Z,KCLE 252051Z 03006KT 10SM OVC060 08/02 A3014 RMK AO2 RAE24 SLP229 P0000 60000 T00780022 58006
KCLI,2023-04-25T21:15:00Z,KCLI 252115Z AUTO 03003KT 10SM OVC070 08/M06 A3021 RMK AO2 T00811059
KCLK,2023-04-25T21:15:00Z,KCLK 252115Z AUTO 09012KT 5SM BR OVC006 11/10 A2992 RMK AO2
KCLL,2023-04-25T20:53:00Z,KCLL 252053Z 11006KT 10SM FEW028 SCT036 SCT065 24/17 A2987 RMK AO2 SLP111 T02440167 58023
KCLM,2023-04-25T21:17:00Z,KCLM 252117Z AUTO 32008G14KT 10SM BKN025 12/04 A3029 RMK AO2 T01220044
KCLS,2023-04-25T21:15:00Z,KCLS 252115Z AUTO 34003KT 10SM CLR 15/07 A3025 RMK AO2
KCLT,2023-04-25T20:52:00Z,KCLT 252052Z 00000KT 10SM BKN065 BKN110 OVC250 18/04 A3011 RMK AO2 SLP211 T01830039 58003
KCLW,2023-04-25T21:15:00Z,KCLW 252115Z AUTO 30008G15KT 10SM CLR 26/20 A2991 RMK AO2 PWINO
KCMA,2023-04-25T20:55:00Z,KCMA 252055Z 22006KT 7SM BKN021 18/12 A2991 RMK AO2 SLP135 T01830122 58010
KCMD,2023-04-25T21:15:00Z,KCMD 252115Z AUTO 00000KT 10SM CLR 19/01 A3007 RMK AO2
KCMH,2023-04-25T20:51:00Z,KCMH 252051Z VRB05KT 10SM SCT075 BKN100 OVC250 13/M02 A3013 RMK AO2 SLP209 T01281022 56013
KCMI,2023-04-25T20:53:00Z,KCMI 252053Z 31010KT 10SM SCT046 BKN070 BKN090 16/04 A3009 RMK AO2 SLP190 T01560039 58007
KCMR,2023-04-25T21:15:00Z,KCMR 252115Z AUTO 29018G24KT 10SM CLR 18/M15 A2998 RMK AO2
KCMX,2023-04-25T20:53:00Z,KCMX 252053Z AUTO 35010G19KT 10SM CLR 05/M04 A3026 RMK AO2 SLP259 T00501044 50003
KCMY,2023-04-25T20:55:00Z,KCMY 252055Z AUTO 00000KT 10SM OVC070 10/M04 A3019 RMK AO2 SLP235 T00961040 55002 FZRANO $
KCNB,2023-04-25T21:15:00Z,KCNB 252115Z AUTO 07005KT 10SM CLR 11/M07 A3022 RMK AO2 T01071067
KCNC,2023-04-25T21:15:00Z,KCNC 252115Z AUTO 05009KT 10SM FEW050 FEW055 15/04 A3009 RMK AO2
KCNI,2023-04-25T21:15:00Z,KCNI 252115Z AUTO 06004KT 10SM OVC060 19/07 A3006 RMK AO2 T01890073
KCNK,2023-04-25T20:55:00Z,KCNK 252055Z AUTO 13009KT 10SM OVC050 16/06 A3004 RMK AO2 SLP171 T01560056 56003
KCNM,2023-04-25T20:53:00Z,KCNM 252053Z AUTO 24007G17KT 10SM CLR 28/M06 A2972 RMK AO2 SLP022 T02831061 58032
KCNO,2023-04-25T20:53:00Z,KCNO 252053Z 30005G15KT 10SM FEW040 21/12 A2990 RMK AO2 SLP119 T02110117 58014
KCNU,2023-04-25T20:52:00Z,KCNU 252052Z AUTO 14012G16KT 10SM SCT050 BKN100 18/06 A3004 RMK AO2 SLP169 T01780061 56010
KCNW,2023-04-25T20:55:00Z,KCNW 252055Z 14007KT 10SM BKN033 23/16 A2989
KCNY,2023-04-25T20:53:00Z,KCNY 252053Z AUTO 27008G16KT 10SM SCT075 SCT090 12/M08 A2989 RMK AO2 SLP103 T01171078 53005
KCOD,2023-04-25T20:56:00Z,KCOD 252056Z AUTO 34015G21KT 10SM FEW065 15/M02 A2998 RMK AO2 SLP132 T01501022 53003
KCOE,2023-04-25T20:56:00Z,KCOE 252056Z AUTO 26015G19KT 10SM CLR 15/02 A3015 RMK AO2 SLP228 6//// T01500017 58012 PNO $
KCOM,2023-04-25T21:15:00Z,KCOM 252115Z AUTO 12011G16KT 10SM SCT029 OVC038 23/15 A2983 RMK AO2 T02260145
KCON,2023-04-25T20:51:00Z,KCON 252051Z AUTO 28006KT 10SM -RA FEW044 OVC055 11/04 A3015 RMK AO2 RAB44 SLP211 P0000 60000 T01060039 53010
KCOQ,2023-04-25T21:15:00Z,KCOQ 252115Z AUTO 07006KT 10SM OVC060 06/M07 A3025 RMK AO2 TSNO
KCOS,2023-04-25T21:07:00Z,KCOS 252107Z 31007KT 270V350 5SM RA SCT015 BKN023 OVC032 05/02 A2992 RMK AO2 P0000 T00500017
KCOT,2023-04-25T20:53:00Z,KCOT 252053Z AUTO 16010KT 10SM FEW038 SCT045 BKN070 28/18 A2980 RMK AO2 SLP084 T02830183 58023
KCOU,2023-04-25T20:54:00Z,KCOU 252054Z 12004KT 10SM BKN080 19/03 A3007 RMK AO2 SLP182 T01890033 58014
KCPC,2023-04-25T21:05:00Z,KCPC 252105Z AUTO 09005KT 10SM SCT070 21/04 A3012 RMK AO2 T02050041
KCPF,2023-04-25T21:15:00Z,KCPF 252115Z AUTO 00000KT 10SM CLR 17/M03 A3012 RMK AO2
KCPK,2023-04-25T21:15:00Z,KCPK 252115Z AUTO 10008KT 10SM BKN060 OVC070 14/03 A3018 RMK AO2 T01440029
KCPR,2023-04-25T20:53:00Z,KCPR 252053Z 05014KT 10SM FEW028 OVC037 08/03 A2995 RMK AO2 SLP134 60002 T00780028 52017
KCPS,2023-04-25T20:53:00Z,KCPS 252053Z 00000KT 10SM FEW080 BKN100 20/03 A3007 RMK AO2 SLP183 T02000033 56011
KCPT,2023-04-25T21:15:00Z,KCPT 252115Z AUTO 12010KT 9SM OVC025 21/15 A2988 RMK A01
KCPW,2023-04-25T21:15:00Z,KCPW 252115Z AUTO 27021G32KT 7SM SCT048 BKN055 M01/M10 A2995 RMK AO2 LTG DSNT NE
KCQB,2023-04-25T21:15:00Z,KCQB 252115Z AUTO 11009KT 7SM DZ OVC004 09/09 A2999 RMK AO2 T00920087
KCQC,2023-04-25T20:53:00Z,KCQC 252053Z AUTO 29016G26KT 10SM FEW070 OVC100 14/M05 A2988 RMK AO2 PK WND 25040/2042 WSHFT 2035 SLP061 T01391050 56018
KCQF,2023-04-25T21:15:00Z,KCQF 252115Z AUTO 20003KT 10SM CLR 23/16 A2996 RMK AO2
KCQM,2023-04-25T21:17:00Z,KCQM 252117Z AUTO 00000KT 10SM CLR 04/M09 A3028 RMK AO2
KCQT,2023-04-25T21:10:00Z,KCQT 252110Z AUTO 00000KT 10SM BKN029 21/13 A2990 RMK AO2 T02060128 $
KCQW,2023-04-25T21:15:00Z,KCQW 252115Z AUTO VRB06KT 10SM SCT080 SCT100 20/05 A3011 RMK AO2
KCQX,2023-04-25T21:00:00Z,KCQX 252100Z AUTO 06006KT 5SM BR BKN003 11/08 A3016 RMK AO2 CIG 002V007 T01060083
KCRE,2023-04-25T20:53:00Z,KCRE 252053Z 10010KT 10SM CLR 20/09 A3009 RMK AO1 SLP189 T02000089 56010
KCRG,2023-04-25T20:53:00Z,KCRG 252053Z 09011KT 10SM CLR 24/17 A2996 RMK AO2 SLP143 T02390172 58015
KCRP,2023-04-25T20:51:00Z,KCRP 252051Z 14010KT 10SM SCT022 BKN030 OVC085 26/22 A2982 RMK AO2 SLP097 T02610217 57020
KCRQ,2023-04-25T20:53:00Z,KCRQ 252053Z 25007KT 10SM BKN016 OVC023 17/12 A2990 RMK AO2 SLP125 T01670122 58006
KCRS,2023-04-25T20:53:00Z,KCRS 252053Z AUTO 12008KT 10SM SCT065 OVC085 21/14 A2992 RMK AO2 SLP128 T02110139 58022
KCRW,2023-04-25T20:54:00Z,KCRW 252054Z VRB03KT 10SM FEW250 16/M05 A3011 RMK AO2 SLP198 T01611050 56018
KCRX,2023-04-25T21:15:00Z,KCRX 252115Z AUTO 00000G10KT 10SM CLR 20/M02 A3005 RMK AO2
KCSG,2023-04-25T20:51:00Z,KCSG 252051Z 00000KT 10SM BKN060 24/10 A2999 RMK AO2 SLP152 T02390100 58014
KCSM,2023-04-25T20:53:00Z,KCSM 252053Z 09013KT 3SM BR OVC003 12/11 A2989 RMK AO2 SLP116 T01170106 58013
KCSQ,2023-04-25T21:15:00Z,KCSQ 252115Z AUTO VRB06G13KT 10SM BKN047 15/04 A3009 RMK AO2
KCSV,2023-04-25T20:53:00Z,KCSV 252053Z AUTO 10008KT 10SM CLR 17/M04 A3010 RMK AO2 SLP188 T01671039 58012
KCTB,2023-04-25T20:56:00Z,KCTB 252056Z AUTO 25025G35KT 10SM CLR 16/M03 A2993 RMK AO2 PK WND 23037/2038 SLP134 T01561028 57012
KCTJ,2023-04-25T21:15:00Z,KCTJ 252115Z AUTO 27004KT 10SM SCT070 SCT100 21/05 A3007 RMK AO2 T02100046
KCTY,2023-04-25T21:15:00Z,KCTY 252115Z AUTO 08003KT 10SM SCT040 SCT049 BKN085 25/19 A2993 RMK AO2
KCTZ,2023-04-25T21:05:00Z,KCTZ 252105Z AUTO 00000KT 10SM BKN120 21/06 A3012 RMK AO2 T02050060
KCUB,2023-04-25T20:53:00Z,KCUB 252053Z AUTO VRB04KT 10SM OVC065 21/06 A3008 RMK AO2 SLP183 T02110061 56008
KCUH,2023-04-25T21:15:00Z,KCUH 252115Z AUTO 10006KT 7SM RA OVC008 09/09 A2998 RMK AO2 P0002 T00910086
KCUL,2023-04-25T21:16:00Z,KCUL 252116Z AUTO 25007KT 10SM CLR 20/00 A3010 RMK AO2
KCUT,2023-04-25T20:53:00Z,KCUT 252053Z AUTO 09010KT 10SM CLR 07/M01 A3004 RMK AO2 SLP176 T00671006 51012
KCVC,2023-04-25T21:15:00Z,KCVC 252115Z AUTO 11005KT 10SM SCT048 SCT065 BKN095 21/10 A3003 RMK AO2
KCVG,2023-04-25T20:52:00Z,KCVG 252052Z VRB04KT 10SM BKN080 BKN110 16/00 A3011 RMK AO2 SLP196 T01610000 56014
KCVH,2023-04-25T21:15:00Z,KCVH 252115Z AUTO 00000KT 10SM CLR 24/11 A2992 RMK A01
KCVN,2023-04-25T20:56:00Z,KCVN 252056Z AUTO 22014G18KT 10SM FEW095 24/M01 A2978 RMK AO2 SLP057 T02441006 56026
KCVO,2023-04-25T20:56:00Z,KCVO 252056Z AUTO 06008KT 10SM CLR 17/07 A3019 RMK AO2 SLP224 T01720067 57021
KCVS,2023-04-25T20:55:00Z,KCVS 252055Z 26012G18KT 10SM FEW110 24/M04 A2978 RMK AO2A PK WND 26037/33 SLP042 VIRGA W-SW T02351038 57020 $
KCVX,2023-04-25T21:15:00Z,KCVX 252115Z AUTO 31008KT 10SM SCT033 OVC042 05/00 A3020 RMK AO2 T00501002
KCWA,2023-04-25T20:47:00Z,KCWA 252047Z 30007KT 7SM OVC060 08/M05 A3021
KCWC,2023-04-25T21:15:00Z,KCWC 252115Z AUTO 16013G19KT 10SM BKN033 OVC065 22/14 A2986 RMK AO2 T02150135
KCWF,2023-04-25T20:46:00Z,KCWF 252046Z 10007KT 10SM CLR 23/14 A2994
KCWI,2023-04-25T20:56:00Z,KCWI 252056Z AUTO 07009KT 10SM BKN045 11/02 A3017 RMK AO2 SLP223 T01110017 58002
KCWN,2023-04-25T20:55:00Z,KCWN 252055Z AUTO 19006KT 9SM VCTS RA OVC017 05/02 A2990 RMK AO2 RAB1958 SLP016 P0010 60010 T00470021 53014 $
KCWV,2023-04-25T21:15:00Z,KCWV 252115Z AUTO 12004KT 7SM -RA BKN060 BKN070 OVC090 19/18 A3004 RMK AO2 T01900176
KCXE,2023-04-25T21:15:00Z,KCXE 252115Z AUTO 00000KT 10SM SCT050 17/04 A3015 RMK AO1 T01700042
KCXO,2023-04-25T20:53:00Z,KCXO 252053Z 05007KT 10SM FEW038 22/17 A2989 RMK AO2 SLP121 T02170167 58023
KCXP,2023-04-25T21:15:00Z,KCXP 252115Z AUTO VRB06G14KT 10SM CLR 17/M07 A3013 RMK AO2
KCXU,2023-04-25T21:15:00Z,KCXU 252115Z AUTO 00000KT 10SM CLR 23/12 A2996 RMK AO1 T02260119
KCXW,2023-04-25T21:15:00Z,KCXW 252115Z AUTO 18007KT 9SM FEW048 FEW075 FEW110 17/ A3006 RMK A01
KCXY,2023-04-25T20:56:00Z,KCXY 252056Z 02003KT 10SM FEW075 13/M04 A3018 RMK AO2 SLP223 T01331039 55005
KCYD,2023-04-25T21:15:00Z,KCYD 252115Z AUTO 07012KT 7SM SCT010 23/20 A2994 RMK A02 T02260202
KCYS,2023-04-25T21:03:00Z,KCYS 252103Z 07009KT 10SM BKN014 BKN019 OVC110 07/03 A2993 RMK AO2 T00720028
KCZL,2023-04-25T21:15:00Z,KCZL 252115Z AUTO 02003KT 10SM OVC100 21/03 A3006 RMK AO2
KCZT,2023-04-25T21:15:00Z,KCZT 252115Z AUTO 10SM SCT046 BKN055 27/16 A2979 RMK AO2
KD07,2023-04-25T20:56:00Z,KD07 252056Z AUTO 10014KT 03/01 A3012 RMK AO1 SLP226 60007 T00280006 58008
KD25,2023-04-25T21:15:00Z,KD25 252115Z AUTO 36005KT 10SM OVC040 03/M06 A3025 RMK AO2 T00291061
KD39,2023-04-25T21:15:00Z,KD39 252115Z AUTO 08005KT 10SM SCT060 SCT075 08/M06 A3025 RMK AO2 T00841064
KD55,2023-04-25T21:15:00Z,KD55 252115Z AUTO 12010KT 10SM CLR 06/M01 A3026 RMK AO2
KD57,2023-04-25T21:15:00Z,KD57 252115Z AUTO 16013G18KT 10SM CLR 12/M10 A3012 RMK AO2
KD60,2023-04-25T21:15:00Z,KD60 252115Z AUTO 16012G17KT 10SM CLR 12/M07 A3011 RMK AO2
KD73,2023-04-25T21:15:00Z,KD73 252115Z AUTO 07008KT 010V080 10SM SCT050 BKN070 21/09 A3005 RMK AO2 T02120093
KD95,2023-04-25T21:15:00Z,KD95 252115Z AUTO 19004KT 10SM SCT047 SCT055 OVC070 07/02 A3015 RMK AO2 T00650019 P0001
KDAA,2023-04-25T20:55:00Z,KDAA 252055Z AUTO 17005KT 10SM SCT070 15/M00 A3016 RMK AO2 SLP216 T01531005 56006
KDAB,2023-04-25T20:53:00Z,KDAB 252053Z 06012KT 10SM FEW019 FEW023 SCT046 BKN150 24/18 A2994 RMK AO2 SLP137 CB DSNT NW T02440178 56016
KDAG,2023-04-25T20:50:00Z,KDAG 252050Z AUTO 01012G19KT 10SM CLR 30/M11 A2986 RMK AO2 SLP087 T03001111 58015
KDAL,2023-04-25T20:53:00Z,KDAL 252053Z 16009G17KT 10SM FEW033 SCT047 OVC065 21/12 A2990 RMK AO2 SLP121 BINOVC T02110122 $
KDAN,2023-04-25T20:53:00Z,KDAN 252053Z AUTO 00000KT 10SM FEW120 17/03 A3014 RMK AO2 SLP200 T01670033 58007
KDAW,2023-04-25T21:12:00Z,KDAW 252112Z AUTO 06005KT 5SM -RA BR SCT009 BKN024 OVC047 08/07 A3017 RMK AO2 P0002 T00830067
KDAY,2023-04-25T20:56:00Z,KDAY 252056Z 21008KT 10SM SCT045 BKN110 14/M01 A3013 RMK AO2 SLP204 T01441011 58012 VISNO RWY 6L $
KDBN,2023-04-25T21:15:00Z,KDBN 252115Z AUTO 10006KT 10SM SCT046 SCT060 BKN090 24/12 A3003 RMK AO2
KDBQ,2023-04-25T20:53:00Z,KDBQ 252053Z 03008KT 10SM FEW047 10/M01 A3018 RMK AO2 SLP225 T01001011 50001
KDCA,2023-04-25T20:52:00Z,KDCA 252052Z 17006KT 10SM SCT070 BKN220 15/01 A3019 RMK AO2 SLP222 T01500006 55005 $
KDCM,2023-04-25T20:35:00Z,KDCM 252035Z AUTO 00000KT 10SM BKN090 16/07 A3012 RMK AO2 LTG DSNT SE
KDCU,2023-04-25T20:53:00Z,KDCU 252053Z AUTO 25006KT 10SM CLR 21/00 A3007 RMK AO2 SLP180 T02060000 58013
KDCY,2023-04-25T21:15:00Z,KDCY 252115Z AUTO 24006KT 10SM CLR 18/M01 A3010 RMK AO2 T01761006
KDDC,2023-04-25T20:52:00Z,KDDC 252052Z AUTO 10015KT 6SM -RA BR OVC005 08/07 A2995 RMK AO2 RAB1958 SLP140 P0000 60000 T00780067 58000
KDDH,2023-04-25T20:54:00Z,KDDH 252054Z AUTO 31007KT 10SM FEW048 BKN055 OVC095 11/M02 A3016 RMK AO2 SLP217 T01061017 53005
KDEC,2023-04-25T20:54:00Z,KDEC 252054Z 26005KT 10SM OVC075 16/05 A3009 RMK AO2 SLP189 T01610050 58007
KDED,2023-04-25T21:10:00Z,KDED 252110Z AUTO 03009KT 10SM CLR 25/15 A2994 RMK AO2 LTG DSNT SW T02470155
KDEH,2023-04-25T21:15:00Z,KDEH 252115Z AUTO VRB06KT 10SM FEW055 10/M03 A3017 RMK AO2
KDEN,2023-04-25T21:18:00Z,KDEN 252118Z 36020G26KT 10SM TS BKN080CB BKN095 BKN120 BKN200 13/04 A2981 RMK TORNADO E2058 AO2 PK WND 35028/2103 LTG DSNT W-NE TSB12 OCNL LTGICCG S-SW TS S-SW MOV N T01280044
KDEQ,2023-04-25T20:53:00Z,KDEQ 252053Z AUTO 9SM -RA OVC065 14/08 A3002 RMK AO2 LTG DSNT N RAB53 SLP164 P0000 60000 T01390083 58006
KDET,2023-04-25T20:53:00Z,KDET 252053Z 00000KT 7SM -RA BKN013 OVC017 06/02 A3017 RMK AO2 SLP223 P0000 60005 T00560017 58002
KDEW,2023-04-25T20:53:00Z,KDEW 252053Z AUTO 23014G18KT 10SM FEW055 15/01 A3013 RMK AO2 PK WND 20028/2000 SLP208 T01500011 58013
KDFI,2023-04-25T20:53:00Z,KDFI 252053Z AUTO 36006KT 9SM OVC050 06/03 A3014 RMK AO2 SLP213 60002 T00610033 50001
KDFW,2023-04-25T20:53:00Z,KDFW 252053Z 13011KT 10SM BKN034 BKN043 BKN060 21/13 A2989 RMK AO2 SLP117 T02110133 58020
KDGW,2023-04-25T21:11:00Z,KDGW 252111Z AUTO 16009G19KT 10SM -RA OVC028 08/04 A2999 RMK AO2 RAB2058 P0000 T00780044
KDHN,2023-04-25T20:53:00Z,KDHN 252053Z VRB03KT 10SM FEW090 26/13 A2999 RMK AO2 SLP151 T02610128 58018
KDHT,2023-04-25T20:53:00Z,KDHT 252053Z AUTO 15009G18KT 10SM CLR 21/05 A2976 RMK AO2 SLP043 T02110050 56026
KDIJ,2023-04-25T21:16:00Z,KDIJ 252116Z AUTO 08007KT 10SM FEW028 04/01 A3009 RMK AO2
KDIK,2023-04-25T20:56:00Z,KDIK 252056Z AUTO 15015G23KT 10SM BKN075 12/M04 A3008 RMK AO2 SLP201 T01221044 58008
KDKK,2023-04-25T20:53:00Z,KDKK 252053Z AUTO 27010G19KT 10SM OVC050 08/02 A3020 RMK AO2 SLP233 T00830017 53008
KDKR,2023-04-25T21:15:00Z,KDKR 252115Z AUTO VRB04G12KT 10SM BKN060 22/17 A2991 RMK AO2
KDKX,2023-04-25T21:15:00Z,KDKX 252115Z AUTO VRB04G11KT 10SM CLR 20/M01 A3008 RMK A01
KDLF,2023-04-25T20:55:00Z,KDLF 252055Z AUTO 12010KT 10SM FEW040 25/16 A2977 RMK AO2 SLP072 T02530161 57024 $
KDLH,2023-04-25T20:55:00Z,KDLH 252055Z 11009KT 10SM OVC049 03/M04 A3027 RMK AO2 SLP272 T00331044 53000
KDLL,2023-04-25T21:15:00Z,KDLL 252115Z AUTO 10006KT 10SM SCT047 OVC060 10/M01 A3020 RMK AO2 T01021009
KDLN,2023-04-25T20:53:00Z,KDLN 252053Z AUTO VRB03KT 10SM BKN035 08/01 A3009 RMK AO2 SLP185 T00830011 58005
KDLO,2023-04-25T21:15:00Z,KDLO 252115Z AUTO 32007KT 10SM CLR 24/04 A2990 RMK AO2 T02440038
KDLP,2023-04-25T21:15:00Z,KDLP 252115Z AUTO 07010KT 10SM FEW025 23/19 A2985 RMK A01
KDLS,2023-04-25T20:53:00Z,KDLS 252053Z AUTO 00000KT 10SM CLR 18/04 A3014 RMK AO2 SLP206 T01830044 58024
KDLZ,2023-04-25T21:15:00Z,KDLZ 252115Z AUTO 24004KT 10SM OVC065 10/M02 A3014 RMK AO2
KDMA,2023-04-25T20:55:00Z,KDMA 252055Z 23012G19KT 10SM CLR 30/M07 A2980 RMK AO2A SLP053 T02971066 57017 RVRNO $
KDMH,2023-04-25T20:54:00Z,KDMH 252054Z AUTO 16/M05 A3019 RMK AO1 SLP222 T01561050 55002
KDMN,2023-04-25T20:53:00Z,KDMN 252053Z AUTO 25015G27KT 10SM CLR 27/M07 A2984 RMK AO2 PK WND 27030/2028 SLP040 T02721067 57026
KDMO,2023-04-25T20:53:00Z,KDMO 252053Z AUTO 10010KT 10SM BKN070 20/03 A3007 RMK AO2 SLP179 T02000028 58016
KDMW,2023-04-25T21:05:00Z,KDMW 252105Z AUTO 00000KT 10SM SCT070 15/M03 A3018 RMK AO2
KDNA,2023-04-25T21:15:00Z,KDNA 252115Z AUTO 26018G24KT 8SM CLR 28/M06 A2982 RMK AO2
KDNL,2023-04-25T20:53:00Z,KDNL 252053Z AUTO 05006KT 10SM BKN075 23/08 A3004 RMK AO2 SLP169 T02280078 56012
KDNN,2023-04-25T21:15:00Z,KDNN 252115Z AUTO 04005KT 10SM BKN110 OVC140 19/05 A3006 RMK AO2 T01890054
KDNV,2023-04-25T21:15:00Z,KDNV 252115Z AUTO 30010KT 10SM -RA BKN046 OVC050 14/06 A3010 RMK AO2 T01380059
KDOV,2023-04-25T20:55:00Z,KDOV 252055Z AUTO 31003KT 10SM CLR 15/M04 A3017 RMK AO2 SLP220 T01531036 58001
KDPA,2023-04-25T21:13:00Z,KDPA 252113Z 05009KT 10SM SCT027 OVC035 07/01 A3018 RMK AO2 T00720006
KDPG,2023-04-25T20:50:00Z,KDPG 252050Z 03009KT 40SM FEW055 BKN070 11/M01 A3010 RMK SH DSNT NE SLP175 T01131015 54000
KDPL,2023-04-25T21:05:00Z,KDPL 252105Z AUTO 00000KT 10SM BKN070 BKN120 20/05 A3012 R
KDQH,2023-04-25T21:15:00Z,KDQH 252115Z AUTO 02005KT 10SM BKN110 26/13 A2998 RMK AO2 T02590129
KDRA,2023-04-25T20:53:00Z,KDRA 252053Z AUTO 03010G22KT 360V070 10SM CLR 23/M11 A2997 RMK AO2 PK WND 04028/2030 SLP110 T02331106 56015
KDRI,2023-04-25T21:15:00Z,KDRI 252115Z AUTO 07004KT 10SM OVC080 22/15 A2995 RMK AO2 T02200154 $
KDRM,2023-04-25T21:15:00Z,KDRM 252115Z AUTO 29004KT 10SM SCT037 OVC060 07/M01 A3014 RMK AO2 T00651006
KDRO,2023-04-25T20:53:00Z,KDRO 252053Z AUTO 28020G32KT 10SM CLR 14/M03 A2980 RMK AO2 PK WND 27043/1956 SLP055 60000 T01441033 55005
KDRT,2023-04-25T20:53:00Z,KDRT 252053Z AUTO 11011KT 10SM FEW040 28/16 A2978 RMK AO2 SLP077 T02780156 58026
KDSF,2023-04-25T21:20:00Z,KDSF 252120Z AUTO 03015KT 9SM SCT017 SCT021 SCT026 26/20 A2992 RMK A01
KDSM,2023-04-25T20:54:00Z,KDSM 252054Z 01008KT 10SM FEW075 FEW100 16/00 A3012 RMK AO2 SLP200 T01560000 58011
KDSV,2023-04-25T20:54:00Z,KDSV 252054Z AUTO 00000KT 10SM BKN065 OVC080 11/M03 A3015 RMK AO2 RAB36E45 SLP224 P0000 60000 T01061033 56006
KDTA,2023-04-25T21:15:00Z,KDTA 252115Z AUTO 36007G16KT 10SM OVC055 10/M03 A3007 RMK AO1
KDTL,2023-04-25T21:15:00Z,KDTL 252115Z AUTO 04005G11KT 10SM BKN060 09/M07 A3025 RMK AO2
KDTN,2023-04-25T20:53:00Z,KDTN 252053Z 150/07KT 10SM FEW100 22/11 A2997
KDTO,2023-04-25T20:53:00Z,KDTO 252053Z 11009KT 10SM BKN036 BKN045 21/12 A2990 RMK AO2 SLP119 T02110122 56022
KDTS,2023-04-25T20:53:00Z,KDTS 252053Z VRB05KT 10SM CLR 24/18 A2995 RMK AO2 SLP141 T02440178 58015
KDTW,2023-04-25T20:53:00Z,KDTW 252053Z 02004KT 10SM OVC011 05/02 A3017 RMK AO2 RAE49 SLP223 P0001 60005 T00500022 56004 $
KDUA,2023-04-25T21:15:00Z,KDUA 252115Z AUTO 09012KT 10SM OVC037 17/08 A2996 RMK AO2
KDUB,2023-04-25T21:16:00Z,KDUB 252116Z AUTO 17010G14KT 10SM CLR 09/M03 A3000 RMK AO2
KDUC,2023-04-25T21:15:00Z,KDUC 252115Z AUTO 09011KT 10SM OVC031 18/11 A2990 RMK AO2 T01790112
KDUG,2023-04-25T20:56:00Z,KDUG 252056Z AUTO 10SM CLR 27/M06 A2988 RMK AO2 PK WND 22034/2023 SLP056 T02671056 58020 TSNO
KDUH,2023-04-25T21:15:00Z,KDUH 252115Z AUTO 36003KT 7SM -RA SCT006 BKN024 OVC032 05/04 A3016 RMK AO2 T00510039
KDUJ,2023-04-25T20:53:00Z,KDUJ 252053Z AUTO 21007KT 170V240 10SM OVC060 11/M04 A3013 RMK AO2 SLP214 T01061039 56007
KDUX,2023-04-25T21:15:00Z,KDUX 252115Z AUTO 12009G17KT 10SM CLR 23/06 A2976 RMK AO2 T02290057
KDVK,2023-04-25T21:10:00Z,KDVK 252110Z AUTO 00000KT 10SM CLR 17/00 A3013 RMK AO2
KDVL,2023-04-25T20:56:00Z,KDVL 252056Z AUTO 13009KT 10SM CLR 07/M03 A3025 RMK AO2 SLP275 T00721033 58008
KDVN,2023-04-25T20:52:00Z,KDVN 252052Z AUTO 02008KT 10SM SCT044 11/01 A3018 RMK AO2 SLP219 T01110011 50003
KDVO,2023-04-25T21:15:00Z,KDVO 252115Z AUTO 35011KT 9SM CLR 28/11 A2990 RMK AO2
KDVP,2023-04-25T21:13:00Z,KDVP 252113Z AUTO 06011G15KT 10SM CLR 10/M13 A3020 RMK AO2 T00981126
KDVT,2023-04-25T20:53:00Z,KDVT 252053Z 26011G19KT 10SM CLR 29/04 A2977 RMK AO2 SLP059 T02940039 58022
KDWA,2023-04-25T21:10:00Z,KDWA 252110Z AUTO 33010G17KT 10SM CLR 28/02 A2990 RMK AO2
KDWH,2023-04-25T20:53:00Z,KDWH 252053Z AUTO 09012G17KT 10SM FEW035 26/17 A2986 RMK AO2 SLP109 T02610172 58025
KDWU,2023-04-25T20:56:00Z,KDWU 252056Z AUTO 00000KT 10SM SCT085 18/01 A3013 RMK AO2 SLP205 T01780011 56018
KDWX,2023-04-25T21:15:00Z,KDWX 252115Z AUTO 32007KT 10SM BKN033 BKN038 08/00 A2998 RMK AO2 T00820002
KDXR,2023-04-25T20:53:00Z,KDXR 252053Z VRB06KT 10SM BKN060 BKN075 OVC090 13/M01 A3015 RMK AO2 SLP212 T01331006 53003
KDXX,2023-04-25T21:15:00Z,KDXX 252115Z AUTO 08006KT 10SM CLR 11/M07 A3024 RMK AO2
KDYA,2023-04-25T21:15:00Z,KDYA 252115Z AUTO 36003KT 10SM BKN095 23/07 A3000 RMK AO2 T02260068
KDYB,2023-04-25T21:15:00Z,KDYB 252115Z AUTO 09008KT 050V130 9SM FEW055 FEW070 SCT120 23/10 A3006 RMK AO2
KDYL,2023-04-25T20:54:00Z,KDYL 252054Z AUTO 25007KT 10SM FEW075 14/M06 A3016 RMK AO2 SLP214 T01391056 58004
KDYR,2023-04-25T20:56:00Z,KDYR 252056Z AUTO VRB03KT 10SM CLR 19/04 A3009 RMK AO2 SLP194 T01940039 58016
KDYS,2023-04-25T20:55:00Z,KDYS 252055Z AUTO 15016G23KT 10SM BKN047 BKN055 24/12 A2977 RMK AO2 SLP049 T02420122 57024
KDYT,2023-04-25T21:15:00Z,KDYT 252115Z AUTO 02005KT 10SM OVC065 03/M01 A3030 RMK AO2
KDZB,2023-04-25T21:15:00Z,KDZB 252115Z AUTO 17004KT 10SM BKN014 OVC055 21/17 A2988 RMK AO2 T02100166
KDZJ,2023-04-25T21:15:00Z,KDZJ 252115Z AUTO 11005KT 10SM OVC070 17/04 A3008 RMK AO2 T01690039
KE11,2023-04-25T21:15:00Z,KE11 252115Z AUTO 26003KT 10SM CLR 28/03 A2979 RMK AO2 T02790033
KE16,2023-04-25T21:15:00Z,KE16 252115Z AUTO 34006KT 10SM CLR 25/07 A2993 RMK AO2 PWINO PNO
KE38,2023-04-25T21:15:00Z,KE38 252115Z AUTO 30009G16KT 10SM CLR 28/M06 A2992 RMK AO2 T02751065
KE41,2023-04-25T21:15:00Z,KE41 252115Z AUTO 19006KT 10SM CLR 27/07 A2980 RMK AO2 T02710067
KE42,2023-04-25T21:15:00Z,KE42 252115Z AUTO 08014KT 10SM SCT030 BKN037 17/12 A2982 RMK AO2 T01680121
KEAN,2023-04-25T21:10:00Z,KEAN 252110Z AUTO 35006KT 10SM -DZ SCT007 BKN032 OVC038 07/06 A2997 RMK AO2 T00720057
KEAR,2023-04-25T20:56:00Z,KEAR 252056Z AUTO 13016KT 10SM FEW045 OVC055 14/04 A3004 RMK AO2 SLP177 T01440039 58000
KEAT,2023-04-25T20:55:00Z,KEAT 252055Z AUTO VRB05KT 10SM CLR 16/M01 A3011 RMK AO2 SLP197 T01611011 58014
KEAU,2023-04-25T20:56:00Z,KEAU 252056Z VRB03KT 10SM BKN060 09/M07 A3022 RMK AO2 SLP242 T00891067 56003
KEBA,2023-04-25T21:15:00Z,KEBA 252115Z AUTO 06005KT 10SM SCT090 BKN120 20/09 A3007 RMK AO2 T02030088
KEBG,2023-04-25T21:15:00Z,KEBG 252115Z AUTO 08007KT 10SM SCT015 SCT033 SCT043 27/22 A2980 RMK AO2 T02690219
KEBS,2023-04-25T21:15:00Z,KEBS 252115Z AUTO 05007G14KT 10SM CLR 14/M06 A3013 RMK AO2
KECG,2023-04-25T20:54:00Z,KECG 252054Z AUTO 07012KT 10SM CLR 17/06 A3017 RMK AO2 SLP217 T01670056 56004
KECP,2023-04-25T20:53:00Z,KECP 252053Z 31005KT 10SM SCT030 BKN070 26/17 A2993 RMK AO1 LTG DSNT E RAB13E52 SLP148 P0000 60000 T02560167 58012
KECS,2023-04-25T21:15:00Z,KECS 252115Z AUTO 17014G17KT 10SM CLR 11/00 A3002 RMK AO2
KECU,2023-04-25T21:15:00Z,KECU 252115Z AUTO 17012KT 10SM FEW027 BKN036 BKN043 23/14 A2990 RMK AO2
KEDC,2023-04-25T20:55:00Z,KEDC 252055Z AUTO 09004KT 9SM BKN020 BKN026 BKN042 21/20 A2985 RMK AO2 P0001
KEDE,2023-04-25T21:10:00Z,KEDE 252110Z AUTO 09009KT 10SM CLR 18/10 A3017 RMK AO2 T01750098
KEDJ,2023-04-25T21:15:00Z,KEDJ 252115Z AUTO 22009KT 10SM 11/M02 A3013 RMK A01
KEDN,2023-04-25T20:35:00Z,KEDN 252035Z AUTO 00000KT 10SM SCT050 BKN095 24/13 A2997 RMK AO2 T02400133 PWINO
KEDU,2023-04-25T21:15:00Z,KEDU 252115Z AUTO 34010G14KT 10SM CLR 27/00 A2989 RMK AO1
KEDW,2023-04-25T20:55:00Z,KEDW 252055Z 02003KT 50SM FEW250 28/M03 A2987 RMK AO2A SLP094 T02761033 57014
KEED,2023-04-25T20:56:00Z,KEED 252056Z AUTO 35020G28KT 10SM CLR 31/M06 A2981 RMK AO2 PK WND 02032/2010 SLP064 T03061056 58005
KEEN,2023-04-25T20:56:00Z,KEEN 252056Z AUTO 28003KT 10SM SCT090 BKN110 12/02 RMK AO2 RAB03E16 SLPNO P0000 60000 T01170017 $
KEEO,2023-04-25T20:53:00Z,KEEO 252053Z AUTO 01007KT 10SM BKN034 06/01 A2994 RMK AO2 SLP124 T00610006 52004
KEET,2023-04-25T20:53:00Z,KEET 252053Z AUTO 00000KT 10SM CLR 22/06 A3002 RMK AO2 SLP163 T02220061 58015
KEFD,2023-04-25T20:54:00Z,KEFD 252054Z 12010KT 10SM SCT050 25/17 A2988
KEFK,2023-04-25T21:15:00Z,KEFK 252115Z AUTO 00000KT 10SM SCT038 BKN050 OVC065 09/02 A3015 RMK AO2 T00900020
KEFT,2023-04-25T21:15:00Z,KEFT 252115Z AUTO 03007KT 10SM SCT038 SCT044 BKN060 08/M01 A3018 RMK AO2 T00771006
KEGE,2023-04-25T20:56:00Z,KEGE 252056Z 26011G14KT 10SM BKN055 BKN075 08/M01 A2989 RMK AO2 SLP041 T00781011 55000
KEGI,2023-04-25T20:55:00Z,KEGI 252055Z AUTO 29003KT 10SM BKN080 27/14 A2993 RMK AO2 SLP135 T02700137 57015 $
KEGT,2023-04-25T21:15:00Z,KEGT 252115Z AUTO 12009KT 5SM -RA BR SCT009 BKN050 OVC070 09/08 A3004 RMK AO2 P0001 T00920083
KEGV,2023-04-25T21:15:00Z,KEGV 252115Z AUTO 36008KT 10SM OVC042 04/M07 A3022 RMK AO2 T00391071
KEHA,2023-04-25T21:15:00Z,KEHA 252115Z AUTO 08020G23KT 10SM SCT017 BKN022 OVC033 15/10 A2985 RMK AO2 T01510097
KEHO,2023-04-25T21:05:00Z,KEHO 252105Z AUTO 14003KT 10SM SCT060 OVC100 17/04 A3011 RMK AO2 T01730038
KEHR,2023-04-25T20:56:00Z,KEHR 252056Z AUTO 00000KT 10SM CLR 19/M01 A3011 RMK AO2 SLP197 T01891011 58016
KEIK,2023-04-25T21:15:00Z,KEIK 252115Z AUTO 01013G25KT 10SM RA SCT032 BKN038 OVC070 08/03 A2987 RMK AO2 LTG DSNT W THRU NE T00800025
KEKE,2023-04-25T21:15:00Z,KEKE 252115Z AUTO 04018KT 10SM FEW013 23/20 A2983 RMK A01
KEKM,2023-04-25T21:15:00Z,KEKM 252115Z 03007KT 9SM BKN020 OVC025 06/05 A3016 RMK AO2 CIG 016V024 BKN V OVC T00620046 $
KEKN,2023-04-25T20:51:00Z,KEKN 252051Z AUTO 00000KT 10SM CLR 14/M05 A3010 RMK AO2 SLP209 T01441050 58013
KEKO,2023-04-25T20:56:00Z,KEKO 252056Z AUTO 24007KT 10SM CLR 14/M06 A3011 RMK AO2 SLP184 T01391056 55004
KEKQ,2023-04-25T20:56:00Z,KEKQ 252056Z AUTO 02007KT 10SM CLR 18/M01 A3013 RMK AO2 SLP201 60002 T01781006 57013
KEKS,2023-04-25T21:15:00Z,KEKS 252115Z AUTO 33007KT 10SM SCT029 BKN038 BKN047 10/03 A3013 RMK AO2
KEKX,2023-04-25T21:15:00Z,KEKX 252115Z AUTO 08003KT 10SM SCT120 18/00 A3011 RMK AO2 T01761003
KEKY,2023-04-25T20:56:00Z,KEKY 252056Z AUTO VRB03KT 10SM FEW090 23/04 A3004 RMK AO2 SLP021 T02280044 58012
KELA,2023-04-25T21:15:00Z,KELA 252115Z AUTO 10SM BKN028 OVC036 26/20 A2985 RMK AO2 T02550202
KELD,2023-04-25T20:53:00Z,KELD 252053Z AUTO 09011KT 10SM OVC065 19/07 A3001 RMK AO2 SLP160 T01890072 58020
KELK,2023-04-25T21:15:00Z,KELK 252115Z AUTO 08014KT 5SM BR OVC002 11/11 A2988 RMK AO2 SLP404 T01120112 $
KELM,2023-04-25T20:53:00Z,KELM 252053Z 19007KT 10SM BKN070 OVC090 12/M03 A3014 RMK AO2 SLP213 T01171028 56010
KELN,2023-04-25T20:53:00Z,KELN 252053Z AUTO 00000KT 10SM CLR 17/02 A3012 RMK AO2 SLP200 T01720022 56013
KELO,2023-04-25T21:15:00Z,KELO 252115Z AUTO 00000KT 10SM OVC050 04/M10 A3028 RMK AO2
KELP,2023-04-25T20:51:00Z,KELP 252051Z 24015G24KT 10SM FEW130 29/M06 A2981 RMK AO2 PK WND 25033/2030 SLP022 T02891056 58024
KELZ,2023-04-25T20:56:00Z,KELZ 252056Z AUTO 23007KT 210V270 10SM OVC080 08/M08 A3013 RMK AO2 SLP220 T00831078 58003
KEMM,2023-04-25T21:15:00Z,KEMM 252115Z AUTO 26014KT 10SM SCT020 03/M01 A3003 RMK AO2 TSNO
KEMP,2023-04-25T20:53:00Z,KEMP 252053Z AUTO 13009G19KT 10SM BKN095 18/03 A3002 RMK AO2 SLP164 T01830033 58015
KEMT,2023-04-25T20:45:00Z,KEMT 252045Z 20007G14KT 10SM FEW031 22/13 A2989
KEMV,2023-04-25T21:15:00Z,KEMV 252115Z AUTO 02003KT 10SM CLR 17/05 A3017 RMK AO2 T01660046
KEND,2023-04-25T20:55:00Z,KEND 252055Z AUTO 10013KT 5SM -RA BR BKN004 OVC070 08/08 A2996 RMK AO2 SLP149 P0037 60125 T00840079 58004 $
KENL,2023-04-25T21:15:00Z,KENL 252115Z AUTO 26007KT 10SM SCT070 BKN100 20/06 A3008 RMK AO2 T01980060
KENV,2023-04-25T20:56:00Z,KENV 252056Z AUTO 32009G21KT 10SM CLR 16/M06 A3007 RMK AO2 WSHFT 2029 SLP176 T01561056 56003
KENW,2023-04-25T20:53:00Z,KENW 252053Z 03009KT 10SM SCT035 09/M01 A3020 RMK AO2 SLP233 T00891006 50001
KEOE,2023-04-25T21:15:00Z,KEOE 252115Z AUTO 05006KT 10SM SCT055 SCT110 20/06 A3011 RMK AO2
KEOK,2023-04-25T21:15:00Z,KEOK 252115Z AUTO 04008KT 10SM FEW043 BKN110 16/06 A3010 RMK A01
KEPH,2023-04-25T20:53:00Z,KEPH 252053Z AUTO 19006G15KT 10SM CLR 17/03 A3013 RMK AO2 SLP203 T01720028 58012
KEQA,2023-04-25T21:15:00Z,KEQA 252115Z AUTO 16009KT 10SM SCT037 BKN065 OVC095 15/06 A3003 RMK AO2
KEQY,2023-04-25T20:53:00Z,KEQY 252053Z AUTO 20003KT 10SM FEW055 BKN075 OVC090 17/07 A3011 RMK AO2 RAB10E36 SLP206 P0000 60000 T01720072 58002
KERI,2023-04-25T20:51:00Z,KERI 252051Z 33004KT 10SM FEW047 OVC060 06/01 A3019 RMK AO2 SLP230 T00610006 51006
KERV,2023-04-25T21:15:00Z,KERV 252115Z AUTO 18009KT 10SM BKN023 BKN029 OVC060 22/17 A2985 RMK AO2 T02190168
KERY,2023-04-25T21:15:00Z,KERY 252115Z AUTO 34009KT 10SM OVC026 04/M02 A3019 RMK AO2 T00351022
KESC,2023-04-25T20:56:00Z,KESC 252056Z AUTO 35009KT 10SM SCT041 06/M04 A3023 RMK AO2 SLP246 T00611039 53006
KESF,2023-04-25T20:53:00Z,KESF 252053Z AUTO 00000KT 10SM FEW055 SCT080 OVC110 22/13 A2996 RMK AO2 SLP144 T02220133 58016
KESN,2023-04-25T20:50:00Z,KESN 252050Z 00000KT 10SM SCT065 14/M01 A3023
KEST,2023-04-25T20:52:00Z,KEST 252052Z AUTO 04009G18KT 10SM CLR 12/M07 A3018 RMK AO2 SLP229 T01171072 56003
KETB,2023-04-25T21:15:00Z,KETB 252115Z AUTO 11007KT 10SM OVC065 06/M01 A3020 RMK AO2
KETC,2023-04-25T21:00:00Z,KETC 252100Z AUTO 07005KT 7SM CLR 20/05 A3014 RMK AO2 T01950048
KETH,2023-04-25T20:53:00Z,KETH 252053Z AUTO 08008G14KT 10SM SCT060 09/M04 A3026 RMK AO2
KETN,2023-04-25T21:10:00Z,KETN 252110Z AUTO 14010G16KT 10SM SCT025 BKN033 OVC060 20/15 A2984 RMK AO2 T02040153
KEUF,2023-04-25T20:58:00Z,KEUF 252058Z AUTO 00000KT 10SM SCT060 26/11 A2998 RMK AO2 SLP149 T02610111 58017
KEUG,2023-04-25T20:54:00Z,KEUG 252054Z 36010KT 10SM FEW025 FEW250 17/09 A3018 RMK AO2 SLP221 T01670089 58020
KEUL,2023-04-25T20:56:00Z,KEUL 252056Z AUTO 29007G18KT 10SM CLR 17/01 A3011 RMK AO2 SLP198 T01670006 56010
KEVB,2023-04-25T20:50:00Z,KEVB 252050Z 07010KT 10SM FEW020 SCT060 24/18 A2993
KEVM,2023-04-25T21:15:00Z,KEVM 252115Z AUTO 00000KT 10SM BKN050 05/M07 A3028 RMK AO2 T00501068
KEVU,2023-04-25T21:15:00Z,KEVU 252115Z AUTO 00000KT 10SM CLR 18/05 A3006 RMK AO2 T01870050
KEVV,2023-04-25T20:54:00Z,KEVV 252054Z 00000KT 10SM CLR 19/M01 A3011 RMK AO2 SLP196 T01891011 56016 $
KEVW,2023-04-25T21:09:00Z,KEVW 252109Z AUTO 31008G16KT 5SM -SN BR OVC009 00/M02 A3006 RMK AO2 P0000 T00001022
KEWB,2023-04-25T20:53:00Z,KEWB 252053Z 14012KT 10SM OVC055 12/07 A3013 RMK AO2 SLP201 T01170067 53005
KEWK,2023-04-25T20:56:00Z,KEWK 252056Z AUTO 16010G17KT 10SM FEW037 SCT065 OVC085 13/07 A3004 RMK AO2 SLP171 T01280072 58006
KEWN,2023-04-25T20:54:00Z,KEWN 252054Z 08004KT 10SM CLR 20/04 A3014 RMK AO2 SLP204 T02000039 56008
KEWR,2023-04-25T20:51:00Z,KEWR 252051Z 26011G15KT 10SM FEW060 BKN085 16/M02 A3015 RMK AO2 SLP209 T01611022 55000
KEXX,2023-04-25T21:10:00Z,KEXX 252110Z AUTO 00000KT 10SM OVC065 18/04 A3013 RMK AO2 T01750039
KEYE,2023-04-25T20:53:00Z,KEYE 252053Z AUTO 24006KT 10SM OVC055 14/02 A3010 RMK AO2 SLP195 T01390022 58007
KEYF,2023-04-25T21:10:00Z,KEYF 252110Z AUTO 00000KT 10SM BKN095 OVC120 20/05 A3012 RMK AO2 T02030048
KEYW,2023-04-25T20:53:00Z,KEYW 252053Z 17007KT 10SM CLR 27/22 A2990 RMK AO2 SLP129 T02670222 56014
KEZF,2023-04-25T21:15:00Z,KEZF 252115Z AUTO 20006KT 10SM OVC070 16/M01 A3016 RMK AO2 T01621011
KEZM,2023-04-25T21:15:00Z,KEZM 252115Z AUTO 01004KT 10SM SCT050 BKN070 OVC110 24/14 A3000 RMK AO2
KEZS,2023-04-25T21:15:00Z,KEZS 252115Z AUTO 06003KT 10SM BKN055 OVC080 09/M04 A3020 RMK AO2 T00881039
KEZZ,2023-04-25T21:15:00Z,KEZZ 252115Z AUTO 00000KT 10SM BKN075 18/04 A3008 RMK AO2 T01770042
KF00,2023-04-25T21:15:00Z,KF00 252115Z AUTO 10012G16KT 10SM BKN033 18/11 A2994 RMK AO2 T01780109
KF05,2023-04-25T21:15:00Z,KF05 252115Z AUTO 19014G19KT 10SM BKN042 BKN060 OVC080 24/13 A2982 RMK AO2 T02420126
KF17,2023-04-25T21:15:00Z,KF17 252115Z AUTO 17008KT 10SM OVC110 22/11 A2996 RMK AO2
KF44,2023-04-25T21:15:00Z,KF44 252115Z AUTO 13006KT 10SM OVC075 21/13 A2991 RMK AO2
KF46,2023-04-25T21:15:00Z,KF46 252115Z AUTO 14006KT 10SM SCT032 BKN060 21/13 A2991 RMK AO2 T02110125
KF70,2023-04-25T21:15:00Z,KF70 252115Z AUTO 00000KT 10SM CLR 20/11 A2989 RMK AO2
KFAF,2023-04-25T20:55:00Z,KFAF 252055Z AUTO 09006KT 10SM FEW170 15/02 A3016 RMK AO2 SLP217 T01510023 57006 $
KFAM,2023-04-25T20:56:00Z,KFAM 252056Z AUTO 00000KT 10SM CLR 19/M02 A3008 RMK AO2 SLP195 T01941017 56015
KFAR,2023-04-25T20:53:00Z,KFAR 252053Z 07004KT 10SM OVC060 10/M04 A3026 RMK AO2 SLP255 T01001039 56007
KFAT,2023-04-25T20:53:00Z,KFAT 252053Z VRB03KT 10SM FEW100 BKN200 BKN250 26/08 A2990 RMK AO2 SLP124 MTNS OBSC HZ DSNT N-E-S T02560083 58011
KFAY,2023-04-25T20:53:00Z,KFAY 252053Z 00000KT 10SM BKN110 20/06 A3011 RMK AO2 SLP189 T02000056 $
KFBG,2023-04-25T20:55:00Z,KFBG 252055Z AUTO 08004KT 10SM SCT070 BKN110 19/05 A3009 RMK AO2 SLP192 T01940054 57009 $
KFBL,2023-04-25T21:15:00Z,KFBL 252115Z AUTO 35009KT 322V022 10SM CLR 10/M06 A3021 RMK AO2
KFCI,2023-04-25T20:56:00Z,KFCI 252056Z AUTO 19005KT 10SM BKN070 16/03 A3017 RMK AO2 SLP228 T01610033 56008
KFCM,2023-04-25T20:53:00Z,KFCM 252053Z 03008KT 340V050 10SM FEW060 09/M05 A3023 RMK AO2 SLP243 T00941050 58004
KFCS,2023-04-25T21:18:00Z,KFCS 252118Z AUTO 07003KT 3SM -RA BR FEW005 FEW010 SCT014 OVC027 06/04 A2986 RMK AO2 PRESFR SLP120 $
KFDR,2023-04-25T20:53:00Z,KFDR 252053Z AUTO 18013G18KT 10SM SCT033 BKN055 23/13 A2980 RMK AO2 SLP079 T02330128 56021
KFDW,2023-04-25T21:15:00Z,KFDW 252115Z AUTO 09006KT 10SM BKN060 21/05 A3008 RMK AO1
KFDY,2023-04-25T20:53:00Z,KFDY 252053Z AUTO 22009KT 10SM OVC050 11/01 A3012 RMK AO2 SLP200 T01110006 56004
KFEP,2023-04-25T21:15:00Z,KFEP 252115Z AUTO 06008KT 10SM SCT042 BKN055 10/03 A3020 RMK AO2 T00980029
KFET,2023-04-25T21:15:00Z,KFET 252115Z AUTO 10009G16KT 10SM BKN055 17/04 A3008 RMK AO2 T01710041
KFEW,2023-04-25T20:58:00Z,KFEW 252058Z 09010KT 10SM BKN014 OVC020 07/03 A2993 RMK SLPNO WND DATA ESTMD ALSTG ESTMD $
KFFA,2023-04-25T21:15:00Z,KFFA 252115Z AUTO 06006KT 10SM CLR 14/05 A3017 RMK AO2 T01440049
KFFC,2023-04-25T20:53:00Z,KFFC 252053Z AUTO VRB03KT 10SM FEW070 23/05 A3002 RMK AO2 SLP164 T02280050 58013
KFFL,2023-04-25T21:15:00Z,KFFL 252115Z AUTO 11004KT 10SM SCT048 SCT055 14/01 A3011 RMK A01
KFFM,2023-04-25T21:15:00Z,KFFM 252115Z AUTO 01003KT 10SM SCT065 09/M06 A3024 RMK AO2
KFFO,2023-04-25T20:55:00Z,KFFO 252055Z 23007KT 10SM SCT070 OVC110 14/M02 A3009 RMK AO2A SLP196 T01431018 57013
KFFT,2023-04-25T20:53:00Z,KFFT 252053Z AUTO 13004KT 10SM CLR 18/M01 A3011 RMK AO2 SLP195 T01781011 57018
KFFX,2023-04-25T21:15:00Z,KFFX 252115Z AUTO 35008KT 10SM SCT050 BKN060 09/M01 A3015 RMK AO2 T00891007
KFFZ,2023-04-25T20:54:00Z,KFFZ 252054Z VRB06G18KT 10SM CLR 30/03 A2976 RMK AO2 SLP056 T03000028 58021
KFGN,2023-04-25T21:15:00Z,KFGN 252115Z AUTO 18007KT 10SM CLR 02/M04 A3030 RMK AO2
KFGX,2023-04-25T21:15:00Z,KFGX 252115Z AUTO 30008KT 10SM CLR 16/M02 A3013 RMK AO2 T01631020
KFHB,2023-04-25T21:15:00Z,KFHB 252115Z AUTO 08015KT 10SM SCT100 23/20 A2998 RMK AO2 LTG DSNT SW
KFHR,2023-04-25T20:53:00Z,KFHR 252053Z AUTO 17005KT 10SM CLR 13/05 A3029 RMK AO2 SLP256 T01280050 50002
KFHU,2023-04-25T20:55:00Z,KFHU 252055Z AUTO 26012G23KT 10SM CLR 26/M08 A2993 RMK AO2 SLP077 T02581082 57013
KFIG,2023-04-25T20:54:00Z,KFIG 252054Z AUTO 00000KT 10SM BKN070 11/M06 A3015 RMK AO2 SLP220 T01061056 56006
KFIN,2023-04-25T20:50:00Z,KFIN 252050Z 08012KT 10SM SCT120 23/18 A2995
KFIT,2023-04-25T20:52:00Z,KFIT 252052Z AUTO 36005KT 10SM BKN075 OVC090 14/M01 A3013 RMK AO2 RAB09E25 SLP206 P0000 60000 T01391006 53004
KFKL,2023-04-25T20:56:00Z,KFKL 252056Z AUTO 27005KT 10SM OVC060 09/M03 A3015 RMK AO2 SLP222 T00891033 56005
KFKN,2023-04-25T21:15:00Z,KFKN 252115Z AUTO 08009KT 10SM SCT075 16/03 A3017 RMK AO2 T01630032
KFKR,2023-04-25T21:15:00Z,KFKR 252115Z AUTO 29006G13KT 10SM SCT055 BKN065 14/02 A3007 RMK AO2
KFKS,2023-04-25T21:15:00Z,KFKS 252115Z AUTO 36008KT 10SM CLR 06/M01 A3021 RMK AO2 T00631011
KFLD,2023-04-25T20:53:00Z,KFLD 252053Z AUTO 05007KT 10SM SCT065 09/M04 A3020 RMK AO2 SLP233 T00891044 55002
KFLG,2023-04-25T20:57:00Z,KFLG 252057Z 26016G30KT 10SM FEW100 17/M08 A2994 RMK AO2 PK WND 26032/2022 SLP072 T01721083 56005
KFLL,2023-04-25T20:53:00Z,KFLL 252053Z 18006G17KT 10SM SCT032 28/21 A2986
KFLO,2023-04-25T20:53:00Z,KFLO 252053Z 06008KT 10SM CLR 22/04 A3010 RMK AO2 SLP189 T02170039 58006 $
KFLP,2023-04-25T20:56:00Z,KFLP 252056Z AUTO VRB06KT 10SM FEW065 17/04 A3008 RMK AO2 SLP182 T01720039 58015
KFLY,2023-04-25T21:15:00Z,KFLY 252115Z AUTO 26014G19KT 10SM BKN021 BKN030 OVC050 05/01 A2992 RMK AO2 LTG DSNT N T00540008
KFME,2023-04-25T21:09:00Z,KFME 252109Z AUTO 30006KT 10SM CLR 14/M01 A3021 RMK AO1
KFMH,2023-04-25T20:45:00Z,KFMH 252045Z 16007KT 10SM BKN065 12/06 A3014
KFMM,2023-04-25T21:15:00Z,KFMM 252115Z AUTO 09021G26KT 10SM OVC015 09/06 A2990 RMK AO2 LTG DSNT S AND SW
KFMN,2023-04-25T20:53:00Z,KFMN 252053Z 28025G32KT 10SM CLR 17/M05 A2978 RMK AO2 PK WND 29036/2036 SLP051 T01721050 55001
KFMY,2023-04-25T20:53:00Z,KFMY 252053Z 26014G22KT 10SM CLR 30/20 A2987 RMK AO2 SLP117 T03000200 58011
KFNB,2023-04-25T20:53:00Z,KFNB 252053Z AUTO 08007KT 10SM FEW055 SCT070 19/06 A3005 RMK AO2 SLP173 T01890061 58015
KFNL,2023-04-25T21:07:00Z,KFNL 252107Z 08016G22KT 10SM OVC032 12/03 A2988 RMK AO2 WSHFT 2047 LTG DSNT SE AND S
KFNT,2023-04-25T20:53:00Z,KFNT 252053Z 00000KT 10SM FEW027 SCT049 OVC060 08/01 A3015 RMK AO2 SLP218 T00780011 56002
KFOA,2023-04-25T21:15:00Z,KFOA 252115Z AUTO 35007KT 10SM SCT070 SCT090 18/05 A3009 RMK AO2
KFOD,2023-04-25T20:56:00Z,KFOD 252056Z AUTO 05008KT 10SM CLR 14/M05 A3016 RMK AO2 SLP231 T01391050 58005
KFOE,2023-04-25T20:53:00Z,KFOE 252053Z 13008KT 10SM BKN075 19/04 A3004 RMK AO2 SLP170 T01890044 56014
KFOK,2023-04-25T20:53:00Z,KFOK 252053Z 23004KT 10SM OVC080 13/07 A3017 RMK AO2 SLPNO T01280067 55002 $
KFOZ,2023-04-25T21:13:00Z,KFOZ 252113Z AUTO 00000KT 10SM CLR 07/M08 A3031 RMK AO2
KFPK,2023-04-25T21:15:00Z,KFPK 252115Z AUTO 00000KT 10SM SCT026 SCT031 06/00 A3014 RMK AO2 T00580002
KFPR,2023-04-25T21:15:00Z,KFPR 252115Z 00000KT 10SM VCTS -RA SCT031 BKN100 23/20 A2988 RMK AO2 LTG DSNT S-W TSE09 P0001 T02280200
KFPY,2023-04-25T21:15:00Z,KFPY 252115Z AUTO 00000KT 10SM CLR 27/17 A2993 RMK AO2 T02710168
KFQD,2023-04-25T21:05:00Z,KFQD 252105Z AUTO 17004KT 10SM OVC110 17/03 A3012 RMK AO2
KFRG,2023-04-25T20:53:00Z,KFRG 252053Z 33007KT 10SM SCT065 SCT085 14/01 A3015 RMK AO2 SLP209 T01440006 55001
KFRH,2023-04-25T21:15:00Z,KFRH 252115Z AUTO 25006KT 10SM CLR 17/M03 A3010 RMK AO1
KFRI,2023-04-25T20:55:00Z,KFRI 252055Z AUTO 10007KT 10SM FEW050 BKN075 18/05 A3003 RMK AO2 SLP167 T01820054 57009 $
KFSD,2023-04-25T20:56:00Z,KFSD 252056Z 10011KT 10SM FEW090 SCT250 14/M04 A3015 RMK AO2 SLP219 T01441039 58005
KFSE,2023-04-25T21:15:00Z,KFSE 252115Z AUTO 36005KT 10SM CLR 08/M05 A3026 RMK AO2
KFSI,2023-04-25T20:55:00Z,KFSI 252055Z AUTO 05009KT 10SM OVC021 16/11 A2986 RMK AO2 SLP108 T01590113 55014 FZRANO $
KFSK,2023-04-25T21:15:00Z,KFSK 252115Z AUTO 14010KT 10SM SCT060 18/04 A3004 RMK AO2 T01810039
KFSM,2023-04-25T20:53:00Z,KFSM 252053Z 11004KT 6SM -RA BR FEW060 OVC080 11/09 A3008 RMK AO2 SLP186 P0007 60010 T01110094 58006
KFST,2023-04-25T20:53:00Z,KFST 252053Z AUTO 34009KT 10SM CLR 29/M01 A2979 RMK AO2 SLP046 T02891011 57028 $
KFSW,2023-04-25T21:15:00Z,KFSW 252115Z AUTO 07004KT 10SM 14/06 A3011 RMK AO2
KFTK,2023-04-25T20:55:00Z,KFTK 252055Z AUTO 26006KT 10SM CLR 18/M00 A3009 RMK AO2 SLP193 T01841004 57014
KFTN,2023-04-25T21:15:00Z,KFTN 252115Z AUTO VRB05G14KT 10SM SCT044 27/16 A2981 RMK A01
KFTW,2023-04-25T20:53:00Z,KFTW 252053Z 15011G19KT 10SM FEW036 SCT048 BKN055 22/14 A2988 RMK AO2 SLP112 T02170144 58021 $
KFTY,2023-04-25T20:53:00Z,KFTY 252053Z 23003KT 10SM BKN075 BKN090 22/06 A3003 RMK AO2 SLP164 T02170056 56014
KFUL,2023-04-25T20:53:00Z,KFUL 252053Z 18006KT 10SM BKN028 21/13 A2989 RMK AO2 SLP119 T02110128 58011
KFVE,2023-04-25T20:53:00Z,KFVE 252053Z AUTO 15005KT 10SM OVC024 07/02 A3021 RMK AO2 SLP235 6//// T00720017
KFVX,2023-04-25T21:15:00Z,KFVX 252115Z AUTO 00000KT 10SM CLR 16/02 A3015 RMK AO2 T01610021
KFWA,2023-04-25T20:54:00Z,KFWA 252054Z 01010KT 10SM SCT048 OVC060 10/03 A3011 RMK RAB06E47 SLPNO
KFWB,2023-04-25T21:15:00Z,KFWB 252115Z AUTO 12004G10KT 10SM BKN050 OVC055 16/05 A3006 RMK AO2
KFWC,2023-04-25T21:15:00Z,KFWC 252115Z AUTO 21007KT 10SM CLR 19/03 A3008 RMK AO1 T01930031
KFWN,2023-04-25T20:53:00Z,KFWN 252053Z AUTO VRB04KT 10SM BKN080 14/M03 A3016 RMK AO2 SLP215 T01391033 55001
KFWS,2023-04-25T20:50:00Z,KFWS 252050Z 14009G14KT 10SM SCT027 SCT042 BKN060 21/14 A2991
KFXE,2023-04-25T20:53:00Z,KFXE 252053Z 13006KT 10SM FEW045 SCT065 SCT080 29/21 A2986 RMK AO2 SLP114 6//// T02890211 56019 PNO
KFXY,2023-04-25T21:15:00Z,KFXY 252115Z AUTO 35007G14KT 10SM CLR 11/M06 A3018 RMK AO2
KFYE,2023-04-25T21:15:00Z,KFYE 252115Z AUTO VRB04KT 10SM CLR 20/M05 A3004 RMK A01
KFYG,2023-04-25T21:15:00Z,KFYG 252115Z AUTO 21004G12KT 10SM CLR 21/03 A3006 RMK AO2
KFYJ,2023-04-25T21:15:00Z,KFYJ 252115Z AUTO 00000KT 10SM SCT070 SCT080 14/03 A3019 RMK AO1 T01440031
KFYM,2023-04-25T21:15:00Z,KFYM 252115Z AUTO 13005KT 10SM CLR 19/M00 A3007 RMK A01
KFYV,2023-04-25T20:53:00Z,KFYV 252053Z 20011KT 10SM CLR 14/06 A3006 RMK AO2 SLP178 T01440056 58001
KFZG,2023-04-25T21:15:00Z,KFZG 252115Z AUTO 07003KT 10SM SCT055 SCT075 BKN100 25/14 A2998 RMK AO2 T02500141
KFZY,2023-04-25T20:54:00Z,KFZY 252054Z AUTO 23006KT 10SM BKN090 09/M01 A3019 RMK AO2 SLP226 60000 T00941011 58001
KGAD,2023-04-25T20:56:00Z,KGAD 252056Z AUTO 19003KT 10SM CLR 21/01 A3006 RMK AO2 SLP181 6//// T02060006 58014 PNO $
KGAF,2023-04-25T21:15:00Z,KGAF 252115Z AUTO VRB06KT 9SM CLR 08/M04 A3029 RMK AO2
KGAG,2023-04-25T21:00:00Z,KGAG 252100Z AUTO 09011KT 5SM -RA BR OVC004 10/09 A2990 RMK AO2 P0000 T01000089
KGAI,2023-04-25T20:56:00Z,KGAI 252056Z AUTO 32005KT 10SM CLR 13/M03 A3019 RMK AO2 SLP241 T01281028 55002
KGAO,2023-04-25T21:15:00Z,KGAO 252115Z AUTO 09007KT 10SM CLR 26/18 A2995 RMK AO2 T02570178
KGBD,2023-04-25T21:11:00Z,KGBD 252111Z AUTO 10010KT 10SM -RA BKN011 OVC017 09/08 A3002 RMK AO2 P0000
KGBG,2023-04-25T21:15:00Z,KGBG 252115Z AUTO 36008KT 10SM SCT038 SCT050 14/06 A3014 RMK AO2 T01400060 TSNO
KGCC,2023-04-25T20:53:00Z,KGCC 252053Z AUTO 00000KT 10SM BKN050 BKN120 11/05 A2999 RMK AO2 SLP146 60010 T01060050 56002
KGCD,2023-04-25T21:15:00Z,KGCD 252115Z AUTO 33005KT 10SM CLR 14/M02 A3015 RMK AO2 T01391019
KGCK,2023-04-25T21:06:00Z,KGCK 252106Z 10015KT 2 1/2SM BR OVC005 07/07 A2992 RMK AO2 RAE03 P0000 T00720072
KGCM,2023-04-25T21:15:00Z,KGCM 252115Z AUTO 13009KT 10SM -RA SCT055 BKN080 13/11 A3004 RMK AO2
KGCN,2023-04-25T20:54:00Z,KGCN 252054Z 34010G18KT 300V010 10SM CLR 16/M12 A2998 RMK AO2 PK WND 35030/2043 SLP107 T01561117 53003
KGCY,2023-04-25T21:15:00Z,KGCY 252115Z AUTO VRB06KT 10SM CLR 17/M08 A3009 RMK A01
KGDA,2023-04-25T21:15:00Z,KGDA 252115Z AUTO 00000KT 10SM CLR 19/00 A3010 RMK AO2 T01931001 PWINO
KGDB,2023-04-25T21:15:00Z,KGDB 252115Z AUTO 02009G14KT 10SM CLR 11/M05 A3024 RMK AO2 T01101047
KGDJ,2023-04-25T21:15:00Z,KGDJ 252115Z AUTO 12008KT 10SM BKN029 OVC035 21/14 A2988 RMK AO2 T02050141
KGDP,2023-04-25T20:51:00Z,KGDP 252051Z AUTO 23025G46KT 6SM HZ 26/M06 A2988 RMK AO2 PK WND 24046/2042 SLPNO T02561056
KGDV,2023-04-25T20:56:00Z,KGDV 252056Z AUTO 13014G25KT 10SM SCT040 13/02 A3004 RMK AO2 SLP183 T01280022 56009 TSNO
KGED,2023-04-25T20:54:00Z,KGED 252054Z AUTO 28007KT 10SM BKN075 16/M01 A3018 RMK AO2 SLP220 T01561011 55001
KGEG,2023-04-25T20:53:00Z,KGEG 252053Z 23012G18KT 10SM SCT050 BKN250 14/01 A3015 RMK AO2 SLP211 T01440011 58008
KGEU,2023-04-25T20:51:00Z,KGEU 252051Z 23013G20KT 10SM FEW100 31/04 A2973
KGEV,2023-04-25T21:05:00Z,KGEV 252105Z AUTO 13005KT 10SM SCT120 12/00 A3013 RMK AO2 T01161001
KGEY,2023-04-25T20:53:00Z,KGEY 252053Z AUTO 34014G19KT 10SM FEW080 SCT100 BKN120 19/M02 A2987 RMK AO2 PK WND 34026/2039 WSHFT 2010 LTG DSNT SE SLP098 T01941022 55000
KGEZ,2023-04-25T20:53:00Z,KGEZ 252053Z AUTO 29007KT 10SM OVC070 14/01 A3011 RMK AO2 SLP198 60000 T01390006 58007
KGFA,2023-04-25T20:55:00Z,KGFA 252055Z AUTO 25017KT 10SM FEW240 18/04 A2997 RMK AO2 SLP156 T01840042 57011 $
KGFK,2023-04-25T20:53:00Z,KGFK 252053Z VRB03KT 10SM BKN055 08/M04 A3027 RMK AO2 SLP262 T00831044 56006 $
KGFL,2023-04-25T20:53:00Z,KGFL 252053Z AUTO 21008KT 10SM SCT065 OVC085 11/M02 A3015 RMK AO2 SLP215 60000 T01111017 55003
KGGE,2023-04-25T21:15:00Z,KGGE 252115Z AUTO 07012G15KT 10SM CLR 20/11 A3010 RMK AO2
KGGF,2023-04-25T21:15:00Z,KGGF 252115Z AUTO 12018G23KT 10SM OVC035 12/05 A2996 RMK AO2
KGGG,2023-04-25T20:53:00Z,KGGG 252053Z 14009KT 10SM SCT060 OVC080 21/11 A2994 RMK AO2 SLP137 T02110106 56022
KGGI,2023-04-25T21:15:00Z,KGGI 252115Z AUTO 04007KT 10SM CLR 16/M02 A3013 RMK AO2 T01581025
KGGP,2023-04-25T21:15:00Z,KGGP 252115Z AUTO 01007G14KT 10SM BKN046 OVC055 11/03 A3011 RMK AO2
KGGW,2023-04-25T20:53:00Z,KGGW 252053Z AUTO 16015G21KT 10SM SCT100 17/M01 A2999 RMK AO2 SLP161 T01671011 56012
KGHG,2023-04-25T21:15:00Z,KGHG 252115Z AUTO 11005KT 10SM BKN090 11/06 A3015 RMK AO2
KGHW,2023-04-25T21:15:00Z,KGHW 252115Z AUTO 02004KT 10SM SCT050 09/M07 A3025 RMK AO2
KGIC,2023-04-25T21:15:00Z,KGIC 252115Z AUTO 00000KT 10SM SCT049 12/00 A3017 RMK AO1
KGIF,2023-04-25T20:53:00Z,KGIF 252053Z AUTO 24011G18KT 10SM -RA SCT046 BKN090 OVC110 25/21 A2989 RMK AO2 LTG DSNT ALQDS RAB27 SLP120 P0000 60000 T02500206 55015
KGJT,2023-04-25T21:12:00Z,KGJT 252112Z 36017G22KT 10SM -RA SCT046 BKN060 OVC100 09/03 A2990 RMK AO2 WSHFT 2052 RAB10 P0000 T00940033
KGKJ,2023-04-25T20:53:00Z,KGKJ 252053Z AUTO VRB05KT 10SM OVC055 08/M02 A3014 RMK AO2 SLP217 T00831017 55000
KGKT,2023-04-25T21:15:00Z,KGKT 252115Z AUTO 04007KT 360V070 10SM CLR 19/01 A3008 RMK A01
KGKY,2023-04-25T20:53:00Z,KGKY 252053Z 14010KT 10SM SCT031 OVC047 21/13 A2990 RMK AO2 SLP119 T02110128 56017
KGLD,2023-04-25T21:08:00Z,KGLD 252108Z AUTO 10014KT 2SM -RA BR BKN006 OVC012 08/07 A2993 RMK AO2 CIG 004V008 P0001 T00780072
KGLE,2023-04-25T21:15:00Z,KGLE 252115Z AUTO 15010KT 10SM SCT032 OVC085 21/12 A2992 RMK AO2 T02110116 PWINO
KGLH,2023-04-25T20:53:00Z,KGLH 252053Z 06008KT 10SM OVC080 21/04 A3002 RMK AO2 SLP171 T02110039 58020
KGLR,2023-04-25T20:53:00Z,KGLR 252053Z AUTO 31006KT 10SM OVC033 06/M03 A3014 RMK AO2 SLP219 T00561033 53005
KGLS,2023-04-25T20:52:00Z,KGLS 252052Z 07011KT 10SM BKN021 BKN030 25/21 A2990 RMK AO2 SLP126 T02500206 58012
KGLW,2023-04-25T21:15:00Z,KGLW 252115Z AUTO 00000KT 10SM CLR 18/01 A3011 RMK AO2 T01840005
KGLY,2023-04-25T21:15:00Z,KGLY 252115Z AUTO 18008KT 10SM FEW085 21/00 A3004 RMK AO2
KGMJ,2023-04-25T21:15:00Z,KGMJ 252115Z AUTO VRB04KT 10SM SCT043 OVC060 17/07 A3003 RMK AO2
KGMU,2023-04-25T20:53:00Z,KGMU 252053Z 08005KT 10SM FEW060 OVC090 18/04 A3010 RMK AO2 SLP191 T01780044 58008
KGNA,2023-04-25T20:56:00Z,KGNA 252056Z AUTO 23003KT 02/00 A3030 RMK AO1 SLP271 T00220000 53001
KGNB,2023-04-25T21:15:00Z,KGNB 252115Z AUTO 01004KT 10SM BKN100 OVC120 08/M09 A2987 RMK AO2 LTG DSNT E T00791092
KGNC,2023-04-25T21:10:00Z,KGNC 252110Z AUTO 25008KT 10SM CLR 27/03 A2982 RMK AO2 T02660032
KGNG,2023-04-25T21:20:00Z,KGNG 252120Z AUTO 24011G16KT 10SM CLR 15/M02 A3012 RMK AO2
KGNR,2023-04-25T20:56:00Z,KGNR 252056Z AUTO 15005KT 04/03 A3016 RMK AO1 SLP228 P0001 60005 T00440033 53004
KGNT,2023-04-25T21:15:00Z,KGNT 252115Z AUTO 26017G26KT 10SM SCT040 SCT050 BKN080 15/M01 A2990 RMK AO2 T01501013
KGNV,2023-04-25T21:22:00Z,KGNV 252122Z 06008KT 1 3/4SM +TSRA BKN048 BKN060 OVC075 22/18 A2996 RMK AO2 LTG DSNT SE AND S RAB2055 TSB00 P0005 T02220183
KGOK,2023-04-25T21:12:00Z,KGOK 252112Z AUTO 35006KT 7SM -RA BKN009 OVC013 09/08 A2999 RMK AO2 CIG 007V011 PRESRR P0000 T00940083
KGON,2023-04-25T20:56:00Z,KGON 252056Z 21009KT 10SM CLR 14/05 A3014 RMK AO2 SLP206 T01390050 53000
KGOO,2023-04-25T21:15:00Z,KGOO 252115Z AUTO 28009KT 260V320 10SM CLR 23/03 A2997 RMK A01
KGOP,2023-04-25T21:15:00Z,KGOP 252115Z AUTO 14007KT 10SM OVC020 21/16 A2987 RMK AO2
KGOV,2023-04-25T20:55:00Z,KGOV 252055Z AUTO 33010KT 9SM BKN037 OVC046 07/M02 A3014 RMK AO2 SLP224 T00711024 55000 $
KGPC,2023-04-25T21:15:00Z,KGPC 252115Z AUTO 25004KT 10SM OVC085 14/03 A3010 RMK AO2 T01420035
KGPH,2023-04-25T20:55:00Z,KGPH 252055Z AUTO 10007KT 10SM BKN070 18/01 A3007 RMK AO2
KGPI,2023-04-25T20:55:00Z,KGPI 252055Z 15011KT 10SM SCT080 13/02 A3006 RMK AO2 SLP190 T01330017 56012
KGPM,2023-04-25T20:50:00Z,KGPM 252050Z 15010KT 10SM OVC050 20/11 A2992
KGPT,2023-04-25T20:53:00Z,KGPT 252053Z 13011KT 10SM CLR 25/17 A2995 RMK AO2 SLP140 T02500172 58017
KGPZ,2023-04-25T20:56:00Z,KGPZ 252056Z AUTO VRB03KT 10SM OVC060 07/M07 A3029 RMK AO2 SLP273 T00671072 58006
KGRB,2023-04-25T20:53:00Z,KGRB 252053Z AUTO 08006KT 10SM OVC065 09/M02 A3020 RMK AO2 SLP234 T00891017 58002
KGRD,2023-04-25T20:56:00Z,KGRD 252056Z AUTO 04007KT 10SM SCT110 19/08 A3008 RMK AO2 SLP185 T01940083 58012
KGRF,2023-04-25T20:55:00Z,KGRF 252055Z 00000KT 10SM SCT035 13/05 A3023 RMK AO2A SLP242 T01340045 57006 $
KGRI,2023-04-25T20:53:00Z,KGRI 252053Z 12010KT 10SM BKN050 OVC060 16/03 A3006 RMK AO2 SLP187 T01560033 56003
KGRK,2023-04-25T20:55:00Z,KGRK 252055Z AUTO 13007KT 7SM OVC013 19/16 A2988 RMK AO2 SLP113 T01910156 57015
KGRN,2023-04-25T21:15:00Z,KGRN 252115Z AUTO 12011KT 10SM SCT046 BKN050 OVC060 15/00 A3000 RMK AO2 T01481001
KGRR,2023-04-25T20:53:00Z,KGRR 252053Z 18003KT 10SM FEW034 BKN060 BKN080 08/M01 A3015 RMK AO2 RAB10E22 SLP217 P0000 60000 T00781006 56006
KGRY,2023-04-25T21:10:00Z,KGRY 252110Z AUTO 07016KT 10SM FEW015 22/19 A2990 RMK A01
KGSB,2023-04-25T20:55:00Z,KGSB 252055Z 03006KT 10SM BKN070 BKN250 21/05 A3009 RMK AO2A SLP193 WND DATA ESTMD T02100045 55008 $
KGSH,2023-04-25T20:53:00Z,KGSH 252053Z AUTO 36010KT 10SM BKN020 OVC025 08/04 A3014 RMK AO2 SLP210 60001 T00780039 53001
KGSO,2023-04-25T20:54:00Z,KGSO 252054Z VRB05KT 10SM FEW060 BKN160 OVC250 17/04 A3013 RMK AO2 SLP199 T01720039 55004
KGSP,2023-04-25T20:53:00Z,KGSP 252053Z 15005KT 10SM OVC090 17/04 A3011 RMK AO2 SLP194 T01720039 56007
KGTB,2023-04-25T21:04:00Z,KGTB 252104Z AUTO 24013KT 9SM SCT065 BKN085 09/M05 A3014 RMK AO2 WSHFT 2056 SLP211
KGTF,2023-04-25T20:53:00Z,KGTF 252053Z 22016G28KT 10SM CLR 17/03 A2998 RMK AO2 PK WND 21028/2052 SLP153 T01670028 56011
KGTR,2023-04-25T20:56:00Z,KGTR 252056Z 06003KT 10SM BKN110 21/03 A3005 RMK AO2 SLPNO T02110033 58018
KGTU,2023-04-25T20:56:00Z,KGTU 252056Z 14006KT FEW023 SCT028 OVC043 22/17 A2989 RMK AO2 SLP119 T02170167 58019 $
KGUC,2023-04-25T20:56:00Z,KGUC 252056Z AUTO 24011KT 10SM SCT013 BKN039 OVC055 04/01 A2987 RMK AO2 RAB13E36 SLP101 P0000 60001 T00390006 53001
KGUP,2023-04-25T20:53:00Z,KGUP 252053Z AUTO 29025G38KT 10SM SCT085 BKN110 17/M04 A2984 RMK AO2 PK WND 28047/2036 RAB12E21B45E53 SLP023 P0000 60000 T01721044 55012
KGUR,2023-04-25T21:20:00Z,KGUR 252120Z AUTO 00000KT 4SM -RA BR FEW013 SCT025 OVC031 07/07 A2996 RMK AO2 SLP164
KGUS,2023-04-25T20:55:00Z,KGUS 252055Z AUTO 25011KT 10SM BKN050 BKN085 14/02 A3007 RMK AO2 SLP189 T01390015 57006 TSNO $
KGUY,2023-04-25T20:53:00Z,KGUY 252053Z AUTO 14008KT 10SM FEW034 OVC043 17/08 A2980 RMK AO2 SLP068 T01720083 58012
KGVE,2023-04-25T21:15:00Z,KGVE 252115Z AUTO 20005KT 10SM CLR 16/00 A3016 RMK AO1 T01570004
KGVL,2023-04-25T20:53:00Z,KGVL 252053Z AUTO 05007KT 10SM OVC065 18/06 A3008 RMK AO2 SLP182 T01830061 58007
KGVQ,2023-04-25T20:56:00Z,KGVQ 252056Z AUTO 27011G19KT 10SM FEW075 09/M06 A3015 RMK AO2 SLP217 T00941061 55000
KGVT,2023-04-25T21:15:00Z,KGVT 252115Z AUTO 12009KT 10SM OVC060 20/12 A2992 RMK AO2 TSNO T02050117
KGVW,2023-04-25T21:20:00Z,KGVW 252120Z AUTO 09011KT 8SM BKN020 OVC024 23/19 A2991 RMK A01
KGWB,2023-04-25T21:15:00Z,KGWB 252115Z AUTO 04006KT 10SM BKN046 BKN055 06/03 A3014 RMK AO2
KGWO,2023-04-25T20:53:00Z,KGWO 252053Z AUTO 03010KT 10SM BKN100 22/06 A3002 RMK AO2 SLP165 T02220056 58018
KGWR,2023-04-25T21:15:00Z,KGWR 252115Z AUTO 09008KT 060V150 10SM CLR 09/M02 A3023 RMK A01
KGWW,2023-04-25T21:20:00Z,KGWW 252120Z AUTO 00000KT 10SM SCT070 20/04 A3013 RMK AO2 T02030040
KGXA,2023-04-25T20:55:00Z,KGXA 252055Z AUTO 10007KT 10SM FEW160 26/M06 A2990 RMK AO2 SLP098 WND DATA ESTMD T02551061 57011
KGXF,2023-04-25T20:55:00Z,KGXF 252055Z AUTO 22013G20KT 9SM CLR 32/01 A2975 RMK AO2 SLP063 T03210012 57017 FZRANO $
KGXY,2023-04-25T20:56:00Z,KGXY 252056Z 03016G23KT 8SM -RA SCT027 OVC036 07/06 A2990 RMK AO2 PK WND 02026/2003 LTG DSNT SE-SW TSE18B21E36 SLP127 P0001 60003 T00720056 53008
KGYB,2023-04-25T21:15:00Z,KGYB 252115Z AUTO 00000KT 10SM BKN028 OVC038 22/18 A2987 RMK AO2 T02240181
KGYF,2023-04-25T21:15:00Z,KGYF 252115Z AUTO 12008KT 10SM BKN014 BKN020 OVC075 A2981 RMK AO2 PWINO
KGYH,2023-04-25T20:47:00Z,KGYH 252047Z 07006KT 10SM SCT060 BKN080 16/07 A3011
KGYI,2023-04-25T20:50:00Z,KGYI 252050Z 10008KT 7SM CLR 19/10 A2995
KGYL,2023-04-25T21:15:00Z,KGYL 252115Z AUTO 02008KT 10SM CLR 09/M05 A3023 RMK AO2 T00851054
KGYR,2023-04-25T20:47:00Z,KGYR 252047Z 25008G19KT 10SM FEW100 FEW250 31/05 A2976
KGYY,2023-04-25T20:45:00Z,KGYY 252045Z 36017KT 10SM OVC012 06/02 A3012
KGZH,2023-04-25T20:53:00Z,KGZH 252053Z AUTO 35005KT 10SM CLR 27/11 A2997 RMK AO2 SLP145 T02670111 58017
KGZL,2023-04-25T21:15:00Z,KGZL 252115Z AUTO 11008KT 3SM -RA BR BKN011 10/09 A3004 RMK AO2
KGZN,2023-04-25T21:00:00Z,KGZN 252100Z AUTO 18013KT 10SM FEW027 SCT048 OVC055 21/15 A2983 RMK AO2
KGZS,2023-04-25T21:15:00Z,KGZS 252115Z AUTO 07006KT 10SM CLR 19/M03 A3005 RMK A01
KHAE,2023-04-25T21:15:00Z,KHAE 252115Z AUTO 01005KT 10SM SCT060 BKN070 18/03 A3008 RMK AO2
KHAF,2023-04-25T21:15:00Z,KHAF 252115Z AUTO 31014KT 4SM HZ CLR 14/10 A2996 RMK AO2
KHAI,2023-04-25T21:15:00Z,KHAI 252115Z AUTO 03006KT 10SM SCT013 BKN018 OVC034 07/02 A3017 RMK AO2 T00690022
KHAO,2023-04-25T20:53:00Z,KHAO 252053Z AUTO 26004KT 10SM FEW060 BKN070 BKN085 16/M01 A3014 RMK AO2 SLP208 T01561011 56014
KHBG,2023-04-25T20:53:00Z,KHBG 252053Z AUTO 00000KT 10SM CLR 26/10 A2998 RMK AO2 SLP148 T02610100 58021
KHBI,2023-04-25T21:05:00Z,KHBI 252105Z AUTO 00000KT 10SM SCT055 BKN080 BKN110 18/05 A3014 RMK AO2 T01770046
KHBR,2023-04-25T20:53:00Z,KHBR 252053Z AUTO 10018KT 8SM BKN012 BKN021 17/12 A2987 RMK AO2 SLP107 T01670117 58015
KHBV,2023-04-25T21:15:00Z,KHBV 252115Z AUTO 18006KT 10SM SCT034 BKN046 27/19 A2981 RMK AO2 T02720189
KHCD,2023-04-25T21:15:00Z,KHCD 252115Z AUTO 03008KT 350V050 10SM CLR 09/M05 A3024 RMK AO2 T00931052
KHCO,2023-04-25T21:15:00Z,KHCO 252115Z AUTO 00000KT 10SM SCT060 09/M05 A3027 RMK AO2
KHCR,2023-04-25T21:15:00Z,KHCR 252115Z AUTO 03009KT 10SM SCT031 OVC045 06/M02 A3004 RMK AO2
KHDC,2023-04-25T21:15:00Z,KHDC 252115Z AUTO 03003KT 10SM SCT065 25/13 A2994 RMK AO2 T02530134
KHDE,2023-04-25T21:15:00Z,KHDE 252115Z AUTO 12013KT 10SM SCT038 OVC046 13/04 A3002 RMK AO2 T01290041
KHDL,2023-04-25T21:15:00Z,KHDL 252115Z AUTO VRB06KT 10SM BKN055 27/12 A2995 RMK AO2
KHDN,2023-04-25T21:12:00Z,KHDN 252112Z AUTO VRB06KT 10SM BKN033 07/M01 A2994 RMK AO2
KHDO,2023-04-25T20:51:00Z,KHDO 252051Z AUTO VRB03KT 10SM FEW027 SCT033 OVC060 24/18 A2983 RMK AO2 SLP090 T02440178 58021
KHEF,2023-04-25T20:56:00Z,KHEF 252056Z 20007KT 10SM CLR 16/M01 A3018 RMK AO2 SLP226 T01561006 56005
KHEG,2023-04-25T21:15:00Z,KHEG 252115Z AUTO 07009KT 10SM CLR 23/16 A2997 RMK AO2 LTG DSNT W
KHEI,2023-04-25T20:53:00Z,KHEI 252053Z AUTO 13012G21KT 10SM OVC045 08/00 A3013 RMK AO2 SLP220 T00780000 58004
KHEQ,2023-04-25T21:15:00Z,KHEQ 252115Z AUTO 12013KT 10SM OVC026 12/05 A2996 RMK AO2
KHEY,2023-04-25T20:55:00Z,KHEY 252055Z AUTO 00000KT 10SM FEW080 26/13 A2993 RMK AO2 LTG DSNT S SLP135 T02580133 57018
KHEZ,2023-04-25T20:56:00Z,KHEZ 252056Z AUTO 35007KT 330V040 10SM CLR 23/13 A2998 RMK AO2 SLP151 T02330133 58015
KHFD,2023-04-25T20:53:00Z,KHFD 252053Z 29009KT 10SM OVC095 14/01 A3014 RMK AO2 SLP206 T01440006 53003
KHFF,2023-04-25T20:55:00Z,KHFF 252055Z AUTO 17005KT 10SM FEW065 BKN110 19/06 A3010 RMK AO2 SLP195 T01890064 56001 $
KHFJ,2023-04-25T21:15:00Z,KHFJ 252115Z AUTO 13006KT 10SM OVC055 15/05 A3005 RMK AO2
KHFY,2023-04-25T21:15:00Z,KHFY 252115Z AUTO 25012G16KT 10SM BKN050 BKN060 OVC070 14/04 A3013 RMK AO2 T01390044
KHGR,2023-04-25T20:53:00Z,KHGR 252053Z 31009KT 10SM CLR 14/M03 A3018 RMK AO2 SLP231 T01441033 56005 $
KHHF,2023-04-25T21:15:00Z,KHHF 252115Z AUTO 12011KT 10SM SCT025 SCT031 OVC048 18/12 A2983 RMK AO2 T01770116
KHHG,2023-04-25T21:15:00Z,KHHG 252115Z AUTO 35008G15KT 10SM SCT044 BKN050 BKN090 10/05 A3011 RMK AO2 T00960051
KHHR,2023-04-25T20:53:00Z,KHHR 252053Z 26010KT 10SM BKN021 OVC028 21/12 A2990 RMK AO2 SLP125 T02060117 58008
KHHW,2023-04-25T21:15:00Z,KHHW 252115Z AUTO 08007KT 7SM -RA 12/09 A2998 RMK AO2
KHIB,2023-04-25T20:53:00Z,KHIB 252053Z AUTO VRB04KT 10SM BKN055 05/M11 A3027 RMK AO2 SLP268 60000 T00501106 56007
KHIE,2023-04-25T20:52:00Z,KHIE 252052Z AUTO 06007KT 10SM FEW070 OVC100 09/05 A3013 RMK AO2 SLP212 60018 T00940050 50000
KHIF,2023-04-25T21:10:00Z,KHIF 252110Z AUTO 00000KT 10SM SCT024 OVC034 06/00 A3007 RMK AO2 SLP176
KHII,2023-04-25T21:15:00Z,KHII 252115Z AUTO 33021G31KT 10SM CLR 31/M07 A2977 RMK AO2
KHIO,2023-04-25T20:53:00Z,KHIO 252053Z VRB03KT 10SM CLR 16/07 A3021 RMK AO2 SLP229 T01560072 56016
KHJH,2023-04-25T21:15:00Z,KHJH 252115Z AUTO 13008G14KT 10SM OVC050 15/04 A3005 RMK AO2 T01530040
KHJO,2023-04-25T20:53:00Z,KHJO 252053Z AUTO 00000KT 10SM CLR 26/09 A2990 RMK AO2 SLP127 T02610094 58013 $
KHKA,2023-04-25T20:53:00Z,KHKA 252053Z AUTO 07008KT 10SM CLR 19/01 A3007 RMK AO2 SLP183 T01940011 58017 $
KHKS,2023-04-25T20:55:00Z,KHKS 252055Z AUTO 09006KT 10SM SKC 23/08 A2999
KHKY,2023-04-25T20:53:00Z,KHKY 252053Z VRB03KT 10SM CLR 18/04 A3011 RMK AO2 SLP185 T01780039 56006
KHLB,2023-04-25T21:15:00Z,KHLB 252115Z AUTO 31006KT 10SM BKN070 BKN110 14/M02 A3011 RMK A01
KHLC,2023-04-25T20:53:00Z,KHLC 252053Z AUTO 14010KT 10SM -RA OVC022 12/06 A3001 RMK AO2 RAB49 SLP161 P0000 60000 T01170061 53001
KHLG,2023-04-25T20:53:00Z,KHLG 252053Z 27004KT 10SM FEW070 BKN095 13/M04 A3013 RMK AO2 SLP211 T01281039 56014
KHLN,2023-04-25T20:53:00Z,KHLN 252053Z 24012G23KT 10SM CLR 14/01 A3007 RMK AO2 SLP193 T01390011 58004
KHLR,2023-04-25T20:55:00Z,KHLR 252055Z AUTO 13006KT 7SM OVC017 20/16 A2989 RMK AO2 LTG DSNT NE SLP116 T02010157 57016
KHLX,2023-04-25T21:15:00Z,KHLX 252115Z AUTO 17003KT 10SM SCT110 12/00 A3013 RMK AO2 T01211001
KHMN,2023-04-25T20:55:00Z,KHMN 252055Z AUTO 20014G24KT 10SM FEW120 27/M06 A2981 RMK AO2 SLP034 T02711059 57029 $
KHMP,2023-04-25T21:15:00Z,KHMP 252115Z AUTO 27005KT 10SM BKN070 23/06 A3005 RMK AO2 T02260061
KHMT,2023-04-25T21:15:00Z,KHMT 252115Z AUTO 15003KT 10SM CLR 21/12 A2988 RMK AO2 T02150125
KHMZ,2023-04-25T21:15:00Z,KHMZ 252115Z AUTO 14003KT 10SM BKN085 12/M06 A3014 RMK AO2 T01191059
KHNB,2023-04-25T20:56:00Z,KHNB 252056Z AUTO 31007KT 10SM CLR 18/02 A3011 RMK AO2 SLP197 T01830017 58016
KHND,2023-04-25T20:56:00Z,KHND 252056Z 02015G19KT 10SM CLR 25/M08 A2993 RMK AO2 SLP128 T02501083 58012
KHNR,2023-04-25T21:15:00Z,KHNR 252115Z AUTO 09011KT 10SM CLR 16/02 A3010 RMK A01
KHNZ,2023-04-25T21:15:00Z,KHNZ 252115Z AUTO 06003KT 10SM SCT050 16/04 A3014 RMK AO2 T01580043
KHOB,2023-04-25T20:50:00Z,KHOB 252050Z 21008G18KT 10SM FEW085 27/M03 A2979
KHOE,2023-04-25T21:15:00Z,KHOE 252115Z AUTO 03004KT 10SM SCT050 SCT065 SCT100 26/13 A2995 RMK AO2 T02630140
KHON,2023-04-25T20:55:00Z,KHON 252055Z AUTO 09008KT 10SM CLR 12/M04 A3017 RMK AO2 SLP224 T01221044 58004
KHOP,2023-04-25T20:55:00Z,KHOP 252055Z AUTO 06004KT 10SM CLR 18/01 A3009 RMK AO2 SLP192 T01840014 57014
KHOT,2023-04-25T20:53:00Z,KHOT 252053Z AUTO 00000KT 2 1/2SM RA OVC049 13/09 A3009 RMK AO2 RAE06B47 SLP186 P0001 60003 T01280094 55006
KHOU,2023-04-25T20:53:00Z,KHOU 252053Z 11009G17KT 10SM SCT028 SCT050 BKN180 26/17 A2988 RMK AO2 SLP123 T02560172 58014
KHPN,2023-04-25T20:56:00Z,KHPN 252056Z 30007KT 10SM BKN090 13/00 A3015 RMK AO2 SLP210 T01330000 53004
KHPT,2023-04-25T21:15:00Z,KHPT 252115Z AUTO 05004KT 10SM CLR 13/M05 A3015 RMK AO2
KHQG,2023-04-25T21:15:00Z,KHQG 252115Z AUTO 10016G21KT 1/2SM FG OVC002 10/09 A2986 RMK AO2 T00950091
KHQG,2023-04-25T21:15:00Z,KHQG 252115Z AUTO 10016G21KT 1/2SM FG OVC002 10/09 A2986 RMK AO2 T00950091
KHQM,2023-04-25T21:21:00Z,KHQM 252121Z AUTO 26015KT 10SM SCT030 13/07 A3025 RMK AO2 T01330072
KHQU,2023-04-25T21:15:00Z,KHQU 252115Z AUTO 03006KT 10SM SCT100 23/10 A3003 RMK AO2 T02260105
KHQZ,2023-04-25T20:50:00Z,KHQZ 252050Z 12008G15KT 10SM SCT033 BKN065 22/13 A2992
KHRF,2023-04-25T21:15:00Z,KHRF 252115Z AUTO 19005KT 10SM OVC050 12/M00 A3013 RMK AO2
KHRI,2023-04-25T20:53:00Z,KHRI 252053Z AUTO 00000KT 10SM CLR 18/04 A3015 RMK AO2 SLP208 T01830039 56025
KHRJ,2023-04-25T21:05:00Z,KHRJ 252105Z AUTO 00000KT 10SM SCT070 SCT085 20/05 A3013 RMK AO2 T01960049
KHRL,2023-04-25T20:52:00Z,KHRL 252052Z 00000KT 10SM BKN010 BKN043 OVC050 24/24 A2981 RMK AO2 RAE28 SLP093 P0003 60015 T02440239 58013
KHRO,2023-04-25T20:53:00Z,KHRO 252053Z AUTO 11008KT 10SM OVC047 15/04 A3007 RMK AO2 SLP178 T01500039 56010
KHRT,2023-04-25T20:55:00Z,KHRT 252055Z 19007KT 10SM SCT090 24/17 A2994 RMK AO2A SLP140 T02370169 57016 $
KHRX,2023-04-25T21:15:00Z,KHRX 252115Z AUTO 20015KT 10SM SCT070 BKN085 BKN120 24/06 A2975 RMK AO2 LTG DSNT E T02350062
KHSA,2023-04-25T20:50:00Z,KHSA 252050Z 14010KT 10SM CLR 26/15 A2994
KHSB,2023-04-25T21:15:00Z,KHSB 252115Z AUTO 00000KT 10SM CLR 19/05 A3010 RMK AO2 T01920052
KHSD,2023-04-25T21:15:00Z,KHSD 252115Z AUTO 10007KT 3SM BR OVC013 10/09 A2996 RMK A01
KHSE,2023-04-25T20:51:00Z,KHSE 252051Z AUTO 05010G18KT 10SM CLR 17/10 A3014 RMK AO2 SLP207 T01720100 58006 $
KHSG,2023-04-25T21:15:00Z,KHSG 252115Z AUTO 34006G15KT 10SM SCT070 SCT080 BKN100 16/M01 A2994 RMK AO2 T01571015
KHSI,2023-04-25T20:53:00Z,KHSI 252053Z AUTO 13010G18KT 10SM FEW047 OVC055 15/04 A3005 RMK AO2 SLP178 T01500039 55001
KHSP,2023-04-25T21:15:00Z,KHSP 252115Z AUTO 17008KT 10SM CLR 10/M04 A3013 RMK AO2 T00991039
KHST,2023-04-25T20:55:00Z,KHST 252055Z AUTO 17006KT 10SM FEW036 29/20 A2988 RMK AO2 SLP122 T02900199 57016
KHSV,2023-04-25T20:53:00Z,KHSV 252053Z 00000KT 10SM BKN250 21/00 A3005 RMK AO2 SLP175 T02060000 58014
KHTH,2023-04-25T21:15:00Z,KHTH 252115Z AUTO 34011KT 10SM CLR 17/M06 A3012 RMK A01
KHTL,2023-04-25T20:53:00Z,KHTL 252053Z AUTO 01006KT 10SM BKN038 OVC046 07/M01 A3014 RMK AO2 SLP217 T00671011 58001
KHTS,2023-04-25T20:51:00Z,KHTS 252051Z 18007KT 10SM CLR 17/M03 A3012 RMK AO2 SLP202 T01721028 56016
KHUA,2023-04-25T20:55:00Z,KHUA 252055Z AUTO 17003KT 10SM BKN150 BKN170 20/M01 A3005 RMK AO2 SLP176 T01981008 57013
KHUF,2023-04-25T20:53:00Z,KHUF 252053Z 36005KT 10SM -RA FEW038 BKN070 OVC090 14/04 A3010 RMK AO2 RAB48 SLP195 P0000 60000 T01390044 58007
KHUL,2023-04-25T20:53:00Z,KHUL 252053Z AUTO 13005KT 10SM OVC021 08/02 A3022 RMK AO2 SLP238 T00780022 53000
KHUM,2023-04-25T20:50:00Z,KHUM 252050Z 07006KT 7SM SCT033 26/17 A2995
KHUT,2023-04-25T20:52:00Z,KHUT 252052Z 14012KT 10SM OVC020 11/07 A3002 RMK AO2 SLP160 T01110067 58004
KHVC,2023-04-25T21:15:00Z,KHVC 252115Z AUTO VRB04KT 10SM CLR 20/01 A3009 RMK AO2
KHVE,2023-04-25T21:15:00Z,KHVE 252115Z AUTO 33018G21KT 10SM SCT060 BKN075 BKN100 13/M07 A2995 RMK AO2
KHVN,2023-04-25T20:53:00Z,KHVN 252053Z 17007KT 10SM BKN090 13/05 A3015 RMK AO2 SLP209 T01330050 53002
KHVR,2023-04-25T20:53:00Z,KHVR 252053Z AUTO 26011G20KT 10SM FEW070 SCT090 19/01 A2991 RMK AO2 PK WND 23027/2020 SLP133 T01940011 56016
KHVS,2023-04-25T21:15:00Z,KHVS 252115Z AUTO 07007KT 10SM FEW110 20/04 A3010 RMK AO2
KHWD,2023-04-25T20:54:00Z,KHWD 252054Z 28007KT 10SM CLR 23/08 A2992 RMK AO2 SLP141 T02280083 58015
KHWO,2023-04-25T20:53:00Z,KHWO 252053Z 16010KT 10SM 30/20 A2988 RMK AO2 SLP118 T03000200 56018 $
KHWV,2023-04-25T20:56:00Z,KHWV 252056Z AUTO 20005KT 10SM BKN085 12/03 A3017 RMK AO2 SLP215 60003 T01220033 53002
KHWY,2023-04-25T21:15:00Z,KHWY 252115Z AUTO 18003KT 10SM SCT070 17/M03 A3017 RMK AO2 T01661031
KHXD,2023-04-25T20:50:00Z,KHXD 252050Z 06007G18KT 10SM SCT080 21/14 A3005
KHYA,2023-04-25T20:56:00Z,KHYA 252056Z VRB06KT 10SM SCT020 11/07 A3014 RMK AO2 SLP207 T01110072 53005
KHYI,2023-04-25T21:04:00Z,KHYI 252104Z 04007KT 10SM BKN026 OVC034 24/19 A2985 RMK AO2
KHYR,2023-04-25T20:53:00Z,KHYR 252053Z AUTO 04006KT 10SM OVC055 06/M06 A3027 RMK AO2 SLP265 T00561061 50001
KHYS,2023-04-25T20:56:00Z,KHYS 252056Z AUTO 13012KT 10SM -RA BKN018 OVC026 10/07 A3002 RMK AO2 RAB50 SLP169 P0000 60000 T01000067 51004 $
KHYW,2023-04-25T21:15:00Z,KHYW 252115Z AUTO 00000KT 10SM CLR 21/06 A3010 RMK AO2
KHYX,2023-04-25T21:15:00Z,KHYX 252115Z AUTO 15004KT 10SM BKN060 OVC075 09/00 A3014 RMK AO2 T00931005
KHZE,2023-04-25T21:15:00Z,KHZE 252115Z AUTO 15009G15KT 10SM CLR 13/M07 A3015 RMK AO2
KHZL,2023-04-25T21:15:00Z,KHZL 252115Z AUTO 00000KT SCT060 10/M06 A3019 RMK AO2 PWINO
KHZR,2023-04-25T21:10:00Z,KHZR 252110Z AUTO 35005KT 10SM OVC080 24/13 A2996 RMK AO2 T02370127
KHZX,2023-04-25T21:15:00Z,KHZX 252115Z AUTO 04006KT 10SM BKN060 07/M06 A3026 RMK AO2
KHZY,2023-04-25T20:53:00Z,KHZY 252053Z AUTO VRB05KT 10SM -RA BKN039 OVC048 07/M01 A3019 RMK AO2 RAB46 SLP229 P0000 60000 T00671011 51006
KI16,2023-04-25T21:15:00Z,KI16 252115Z AUTO 10SM CLR 17/M07 A3017 RMK AO2 T01711069
KI19,2023-04-25T21:15:00Z,KI19 252115Z AUTO 27007G12KT 240V300 10SM BKN070 BKN100 13/M03 A3012 RMK AO2
KI23,2023-04-25T21:15:00Z,KI23 252115Z AUTO 21005KT 10SM SCT090 13/M06 A3011 RMK AO1
KI35,2023-04-25T21:18:00Z,KI35 252118Z AUTO 00000KT 10SM SCT120 19/M03 A3011 RMK AO2
KI63,2023-04-25T21:15:00Z,KI63 252115Z AUTO 35008KT 10SM SCT044 17/07 A3009 RMK AO2 T01650070
KI67,2023-04-25T21:15:00Z,KI67 252115Z AUTO 13003KT 10SM OVC075 15/M01 A3012 RMK AO1
KI68,2023-04-25T21:15:00Z,KI68 252115Z AUTO 23009G15KT 10SM 14/00 A3013 RMK AO1 T01420000
KI69,2023-04-25T21:15:00Z,KI69 252115Z AUTO 24007KT 10SM OVC075 16/M01 A3012 RMK AO2 T01581006
KI74,2023-04-25T21:15:00Z,KI74 252115Z AUTO 20005KT 10SM SCT060 BKN075 BKN120 11/00 A3013 RMK AO2
KI75,2023-04-25T21:15:00Z,KI75 252115Z AUTO 04007KT 7SM CLR 16/04 A3010 RMK AO2 T01630041
KI95,2023-04-25T21:15:00Z,KI95 252115Z AUTO 23014G21KT 10SM OVC060 11/M02 A3011 RMK A01
KIAB,2023-04-25T21:05:00Z,KIAB 252105Z AUTO 18012KT 10SM SCT020 OVC034 11/07 A3000 RMK AO2 SLP164 $
KIAD,2023-04-25T20:52:00Z,KIAD 252052Z 31006KT 10SM BKN070 15/M02 A3018 RMK AO2 SLP219 T01501022 55005
KIAG,2023-04-25T20:53:00Z,KIAG 252053Z 28008KT 10SM BKN065 OVC080 09/01 A3016 RMK AO2 SLP222 T00940006 53003
KIAH,2023-04-25T20:53:00Z,KIAH 252053Z 09011KT 10SM SCT038 BKN170 BKN250 24/17 A2987 RMK AO2 SLP115 T02440172 58022
KIBM,2023-04-25T21:15:00Z,KIBM 252115Z AUTO 11015G19KT 10SM OVC009 06/05 A2995 RMK AO2 T00610046
KICR,2023-04-25T20:53:00Z,KICR 252053Z AUTO 09019G25KT 10SM BKN060 15/M01 A3009 RMK AO2 SLP196 T01501006 55005
KICT,2023-04-25T21:04:00Z,KICT 252104Z 15008KT 10SM -RA SCT019 OVC030 11/08 A3002 RMK AO2 P0000 T01060078
KIDA,2023-04-25T20:53:00Z,KIDA 252053Z 33007G14KT 10SM BKN050 OVC060 13/02 A3005 RMK AO2 SLP169 T01330022 53000
KIDI,2023-04-25T21:15:00Z,KIDI 252115Z AUTO 21006KT 10SM FEW120 12/M04 A3017 RMK A01
KIDP,2023-04-25T21:15:00Z,KIDP 252115Z AUTO 20010KT 10SM BKN045 OVC110 14/08 A3004 RMK AO2 T01450077
KIEN,2023-04-25T20:52:00Z,KIEN 252052Z AUTO 10009KT 10SM BKN049 OVC060 14/03 A3001 RMK AO2 SLP164 T01390028 50001
KIER,2023-04-25T21:15:00Z,KIER 252115Z AUTO 08007KT 10SM BKN065 OVC120 24/13 A2996 RMK AO2 LTG DSNT N T02390129
KIFA,2023-04-25T21:15:00Z,KIFA 252115Z AUTO 04006KT 10SM CLR 13/M03 A3016 RMK AO2 T01311030
KIFP,2023-04-25T20:50:00Z,KIFP 252050Z 36018KT 10SM CLR 29/M08 A2980
KIGM,2023-04-25T20:51:00Z,KIGM 252051Z AUTO 36019G30KT 10SM CLR 23/M09 A2992 RMK AO2 PK WND 02030/2043 SLP075 T02331089 58003
KIGQ,2023-04-25T21:15:00Z,KIGQ 252115Z AUTO 05013G16KT 10SM OVC017 06/01 A3019 RMK AO2 T00570012
KIIB,2023-04-25T21:15:00Z,KIIB 252115Z AUTO 08005KT 10SM SCT055 11/M02 A3018 RMK AO2 T01081024
KIIY,2023-04-25T21:15:00Z,KIIY 252115Z AUTO 14003KT 10SM SCT060 SCT110 22/10 A3005 RMK AO2 T02150102
KIJD,2023-04-25T20:52:00Z,KIJD 252052Z AUTO VRB03KT 10SM BKN065 OVC080 16/00 A3012 RMK AO2 SLP202 T01560000 50002
KIJX,2023-04-25T21:15:00Z,KIJX 252115Z AUTO 34009G14KT 10SM SCT110 18/04 A3009 RMK AO2 T01810043
KIKG,2023-04-25T21:15:00Z,KIKG 252115Z AUTO 11010KT 10SM SCT045 BKN065 OVC080 25/22 A2981 RMK AO2 T02510222
KIKK,2023-04-25T21:15:00Z,KIKK 252115Z AUTO 02014KT 10SM CLR 11/02 A3015 RMK AO2 T01070017 PWINO
KIKV,2023-04-25T21:15:00Z,KIKV 252115Z AUTO VRB05G14KT 10SM CLR 15/M01 A3012 RMK AO2
KIKW,2023-04-25T21:15:00Z,KIKW 252115Z AUTO 28005KT 10SM BKN060 OVC080 10/M04 A3013 RMK AO2 T00951041
KILE,2023-04-25T20:56:00Z,KILE 252056Z AUTO 16007KT 10SM OVC019 21/17 A2989 RMK AO2 SLP114 T02060167 58017
KILG,2023-04-25T20:51:00Z,KILG 252051Z 29007KT 10SM CLR 14/M02 A3019 RMK AO2 SLP222 T01441022 55002 $
KILM,2023-04-25T20:53:00Z,KILM 252053Z 08010KT 10SM BKN110 22/02 A3011 RMK AO2 SLP195 T02170017 55011
KILN,2023-04-25T20:54:00Z,KILN 252054Z AUTO 25007KT 10SM BKN070 BKN090 13/M02 A3012 RMK AO2 SLP213 T01331022 58014
KIML,2023-04-25T20:53:00Z,KIML 252053Z AUTO 13017G29KT 10SM OVC034 12/04 A2997 RMK AO2 PK WND 13029/2014 SLP156 T01170039 50001
KIMM,2023-04-25T21:15:00Z,KIMM 252115Z AUTO VRB05KT 10SM BKN046 OVC055 A2986 RMK AO2
KIMS,2023-04-25T21:15:00Z,KIMS 252115Z AUTO 26011G14KT 10SM SCT080 18/M01 A3012 RMK AO2
KIMT,2023-04-25T20:54:00Z,KIMT 252054Z AUTO VRB06KT 10SM OVC045 06/M05 A3020 RMK AO2 SLP240 T00611050 50000
KIND,2023-04-25T20:54:00Z,KIND 252054Z 25014G22KT 10SM BKN055 BKN110 OVC250 14/02 A3011 RMK AO2 RAB15E31 SLP198 P0000 60000 T01390022 56006
KINF,2023-04-25T21:15:00Z,KINF 252115Z AUTO 07008KT 10SM SCT044 SCT050 26/20 A2992 RMK AO2 LTG DSNT E
KINJ,2023-04-25T21:15:00Z,KINJ 252115Z AUTO 12007KT 10SM BKN028 BKN039 OVC048 21/16 A2988 RMK AO2 T02100155
KINK,2023-04-25T20:53:00Z,KINK 252053Z AUTO 21005KT 10SM CLR 28/M02 A2976 RMK AO2 SLP039 T02831017 58027 $
KINL,2023-04-25T20:54:00Z,KINL 252054Z AUTO 32005KT 10SM FEW060 07/M07 A3028 RMK AO2 SLP271 T00671067 58008
KINS,2023-04-25T20:55:00Z,KINS 252055Z AUTO 01011KT 10SM CLR 23/M13 A2996 RMK AO2 SLP109 T02291131 58013 $
KINT,2023-04-25T20:54:00Z,KINT 252054Z 08005KT 10SM CLR 17/02 A3014 RMK AO2 SLP203 T01720022 57005
KINW,2023-04-25T20:56:00Z,KINW 252056Z AUTO 26027G42KT 10SM BKN095 BKN110 23/M01 A2982 RMK AO2 PK WND 25042/2055 RAB47E56 SLP040 P0000 60000 T02281011 56014
KIOB,2023-04-25T21:15:00Z,KIOB 252115Z AUTO 29003KT 10SM CLR 16/00 A3014 RMK AO2 PWINO
KIOW,2023-04-25T20:52:00Z,KIOW 252052Z AUTO 06005KT 10SM BKN055 13/01 A3016 RMK AO2 SLP215 T01280011 50000
KIPJ,2023-04-25T21:05:00Z,KIPJ 252105Z AUTO 00000KT 10SM BKN100 BKN120 18/05 A3012 RMK AO2 T01750047
KIPL,2023-04-25T20:53:00Z,KIPL 252053Z AUTO VRB03KT 10SM CLR 31/07 A2973 RMK AO2 SLP070 6//// T03060067 58017
KIPT,2023-04-25T20:54:00Z,KIPT 252054Z 25005KT 10SM SCT085 13/M05 A3016 RMK AO2 SLP214 T01331050 55008
KIRK,2023-04-25T20:55:00Z,KIRK 252055Z AUTO 04007KT 10SM FEW055 BKN080 18/06 A3009 RMK AO2 SLP193 T01780061 57008
KIRS,2023-04-25T21:15:00Z,KIRS 252115Z AUTO 01006KT 10SM SCT018 OVC026 06/01 A3015 RMK AO2 T00580007
KISM,2023-04-25T21:15:00Z,KISM 252115Z 09019G24KT 10SM VCTS SCT028 26/20 A2986 RMK AO2 LTG DSNT ALQDS TSB09 PRESFR PNO $
KISO,2023-04-25T20:56:00Z,KISO 252056Z 01004KT 10SM SCT080 21/04 A3013
KISP,2023-04-25T20:56:00Z,KISP 252056Z 17006KT 10SM SCT045 SCT060 BKN085 12/03 A3015 RMK AO2 RAE02 SLP211 P0000 60000 T01220033 53003
KISQ,2023-04-25T21:15:00Z,KISQ 252115Z AUTO 34012G16KT 10SM OVC027 04/M04 A3021 RMK AO2 T00391040
KISW,2023-04-25T20:54:00Z,KISW 252054Z AUTO 02005KT 10SM OVC065 08/M05 A3021 RMK AO2 SLP241 T00831050 56001
KITH,2023-04-25T20:56:00Z,KITH 252056Z 32005KT 10SM SCT070 11/M03 A3016 RMK AO2 SLP223 T01061028 56006
KITR,2023-04-25T21:11:00Z,KITR 252111Z AUTO 10015KT 1SM BR OVC002 07/06 A2992 RMK AO2 T00720061
KIUA,2023-04-25T21:15:00Z,KIUA 252115Z AUTO 10006KT 10SM BKN065 OVC075 09/02 A3016 RMK AO2 T00870023
KIWA,2023-04-25T20:47:00Z,KIWA 252047Z 28011G18KT 10SM CLR 30/03 A2978
KIWD,2023-04-25T20:56:00Z,KIWD 252056Z AUTO 04008KT 10SM OVC050 03/M06 A3028 RMK AO2 SLP272 T00331061 52002
KIWI,2023-04-25T20:53:00Z,KIWI 252053Z AUTO 10006KT 10SM OVC009 06/04 A3023 RMK AO2 RAE25 CIG 007V012 SLP237 P0004 60006 T00610044 53004
KIXA,2023-04-25T21:10:00Z,KIXA 252110Z AUTO 00000KT 10SM SCT060 17/08 A3014 RMK AO2
KIXD,2023-04-25T20:53:00Z,KIXD 252053Z 14010KT 10SM BKN070 18/03 A3006 RMK AO2 SLP174 T01830028 56013
KIYA,2023-04-25T21:15:00Z,KIYA 252115Z AUTO 07004KT SCT039 BKN110 25/13 A2993 RMK AO2 T02510128 PWINO
KIZA,2023-04-25T21:15:00Z,KIZA 252115Z AUTO VRB05KT 10SM CLR 22/13 A2990 RMK AO2
KIZG,2023-04-25T20:54:00Z,KIZG 252054Z AUTO 11008KT 5SM -RA BR FEW008 BKN017 OVC042 07/07 A3018 RMK AO2 RAB19 SLP222 P0003 60003 T00720067 53004
KJAC,2023-04-25T20:56:00Z,KJAC 252056Z 00000KT 10SM CLR 10/M02 A2998 RMK AO2 SLP153 T01001017 53004
KJAN,2023-04-25T20:54:00Z,KJAN 252054Z 01005KT 10SM FEW110 24/08 A2999 RMK AO2 SLP152 T02390078 58018 $
KJAQ,2023-04-25T21:15:00Z,KJAQ 252115Z AUTO 32007KT 10SM CLR 24/03 A2993 RMK AO1 T02350031
KJAS,2023-04-25T21:15:00Z,KJAS 252115Z AUTO VRB03KT 8SM BKN065 21/16 A2993 RMK AO2
KJAU,2023-04-25T21:00:00Z,KJAU 252100Z AUTO 07006KT 10SM CLR 17/M05 A3014 RMK A01
KJAX,2023-04-25T20:56:00Z,KJAX 252056Z 06014G20KT 10SM FEW040 SCT080 BKN110 BKN250 23/18 A2995 RMK AO2 SLP142 T02330178 58013
KJBR,2023-04-25T20:53:00Z,KJBR 252053Z AUTO 04006KT 10SM CLR 19/01 A3009 RMK AO2 SLP188 T01890011 56015 $
KJCA,2023-04-25T21:15:00Z,KJCA 252115Z AUTO 04008KT 10SM SCT055 BKN110 19/07 A3008 RMK AO2 T01870073
KJDN,2023-04-25T20:48:00Z,KJDN 252048Z AUTO 12008KT 17/M01 A2998 RMK AO1 SLP158 T01671006 57010
KJEF,2023-04-25T20:53:00Z,KJEF 252053Z 06004KT 10SM CLR 21/01 A3007 RMK AO2 SLP170 T02060011 58015 $
KJER,2023-04-25T20:53:00Z,KJER 252053Z AUTO 24009G19KT 200V280 10SM CLR 13/M02 A3010 RMK AO2 SLP190 T01331022 58003
KJES,2023-04-25T21:15:00Z,KJES 252115Z AUTO 13007KT 10SM SCT031 BKN048 OVC110 23/15 A3002 RMK AO2
KJFK,2023-04-25T20:51:00Z,KJFK 252051Z 19009KT 10SM FEW065 BKN085 BKN250 12/03 A3016 RMK AO2 SLP214 T01220033 53001 $
KJFX,2023-04-25T21:15:00Z,KJFX 252115Z AUTO VRB05KT 10SM BKN095 21/04 A3005 RMK AO2
KJFZ,2023-04-25T21:15:00Z,KJFZ 252115Z AUTO 17003KT 10SM OVC100 14/M05 A3014 RMK AO2 T01401052
KJHW,2023-04-25T20:56:00Z,KJHW 252056Z AUTO 30012KT 10SM BKN040 OVC047 06/M02 A3016 RMK AO2 SLP233 6//// T00561017 53003 PNO $
KJKA,2023-04-25T20:56:00Z,KJKA 252056Z 14006G21KT 10SM FEW045 24/17 A2995
KJKJ,2023-04-25T21:15:00Z,KJKJ 252115Z AUTO 00000KT 10SM OVC060 09/M04 A3027 RMK AO2 TSNO
KJKL,2023-04-25T20:53:00Z,KJKL 252053Z AUTO 00000KT 10SM CLR 17/M02 A3012 RMK AO2 SLP200 T01721022 58014
KJLN,2023-04-25T20:53:00Z,KJLN 252053Z COR 10007KT 10SM BKN055 16/06 A3005 RMK AO2 SLP175 T01610056 58007
KJMR,2023-04-25T21:15:00Z,KJMR 252115Z AUTO 00000KT 10SM SCT060 08/M07 A3029 RMK AO2
KJMS,2023-04-25T20:56:00Z,KJMS 252056Z AUTO 10005G16KT 10SM CLR 10/M04 A3023 RMK AO2 SLP250 T01001039 56007
KJNX,2023-04-25T21:10:00Z,KJNX 252110Z AUTO 05004KT 10SM SCT065 21/05 A3011 RMK AO2
KJOT,2023-04-25T21:15:00Z,KJOT 252115Z AUTO 04013KT 10SM OVC033 09/03 A3019 RMK AO2 T00930026
KJPX,2023-04-25T21:15:00Z,KJPX 252115Z AUTO 19006KT 10SM SCT028 BKN070 13/04 A3015 RMK AO2 T01260040 FZRANO
KJQF,2023-04-25T20:50:00Z,KJQF 252050Z 06004KT 10SM BKN060 OVC085 18/05 A3014
KJRB,2023-04-25T20:56:00Z,KJRB 252056Z AUTO 23003KT 10SM OVC070 14/01 A3017 RMK AO2 SLP215 6//// T01390011 55000 PNO $
KJRO,2023-04-25T21:15:00Z,KJRO 252115Z AUTO 32004KT 10SM BKN090 17/M01 A3014 RMK AO2
KJSO,2023-04-25T21:15:00Z,KJSO 252115Z AUTO 11003KT 10SM OVC055 19/13 A2995 RMK AO2 T01900130 TSNO
KJST,2023-04-25T20:54:00Z,KJST 252054Z AUTO 00000KT 10SM BKN110 10/M05 A3012 RMK AO2 SLP213 T01001050 58006
KJSV,2023-04-25T21:15:00Z,KJSV 252115Z AUTO 11008KT 8SM -DZ FEW006 SCT010 BKN095 11/11 A3005 RMK AO2
KJSY,2023-04-25T21:15:00Z,KJSY 252115Z AUTO 08005KT 10SM CLR 14/M03 A3016 RMK AO2 T01361027 TSNO
KJTC,2023-04-25T21:15:00Z,KJTC 252115Z AUTO 24031G41KT 10SM CLR 19/M06 A2993 RMK AO2
KJVL,2023-04-25T20:45:00Z,KJVL 252045Z 08008KT 10SM BKN045 OVC060 09/00 A3020
KJVW,2023-04-25T21:15:00Z,KJVW 252115Z AUTO 00000KT 10SM CLR 25/07 A2998 RMK AO2
KJVY,2023-04-25T21:15:00Z,KJVY 252115Z AUTO 25003KT 10SM CLR 18/00 A3010 RMK AO2 PWINO
KJWG,2023-04-25T21:15:00Z,KJWG 252115Z AUTO 07012KT 1 1/2SM DZ BR OVC004 09/09 A2998 RMK AO2 T00920086
KJWN,2023-04-25T20:50:00Z,KJWN 252050Z 06011KT 10SM CLR 20/M02 A3007
KJWY,2023-04-25T21:15:00Z,KJWY 252115Z AUTO 16004KT 10SM BKN048 OVC060 20/14 A2993 RMK AO2 T01960137
KJXN,2023-04-25T21:17:00Z,KJXN 252117Z 00000KT 10SM BKN014 BKN019 OVC024 06/02 A3016 RMK AO2 T00610017
KJYG,2023-04-25T21:17:00Z,KJYG 252117Z AUTO 06008KT 10SM 10/M08 A3020 RMK AO2
KJYL,2023-04-25T21:15:00Z,KJYL 252115Z AUTO 12004KT 10SM -RA SCT039 BKN090 OVC100 18/17 A3005 RMK AO2 T01840169
KJYM,2023-04-25T21:15:00Z,KJYM 252115Z AUTO 36004KT 10SM BKN016 OVC024 04/04 A3014 RMK AO2 T00430035
KJYO,2023-04-25T21:15:00Z,KJYO 252115Z AUTO 00000KT 10SM CLR 14/00 A3020 RMK AO2
KJYR,2023-04-25T21:15:00Z,KJYR 252115Z AUTO 13008KT 10SM OVC055 15/04 A3006 RMK AO2
KJZI,2023-04-25T21:15:00Z,KJZI 252115Z AUTO 06013KT 10SM FEW090 21/14 A3006 RMK AO2
KJZP,2023-04-25T21:15:00Z,KJZP 252115Z AUTO 12008KT 10SM OVC060 18/05 A3007 RMK AO2 T01840053
KK62,2023-04-25T21:15:00Z,KK62 252115Z AUTO 27005KT 10SM CLR 17/M01 A3011 RMK AO2
KK70,2023-04-25T21:10:00Z,KK70 252110Z AUTO 15007KT 10SM CLR 29/24 A2987 RMK AO2
KK82,2023-04-25T21:15:00Z,KK82 252115Z AUTO 12016KT 10SM OVC045 14/05 A3003 RMK AO2 T01420053
KK88,2023-04-25T21:15:00Z,KK88 252115Z AUTO 14008KT 10SM CLR 17/04 A3004 RMK AO1 T01730037
KKLS,2023-04-25T20:56:00Z,KKLS 252056Z AUTO 33009KT CLR 17/04 A3023 RMK AO2 SLP241 T01670044 56016 PWINO $
KKNB,2023-04-25T21:15:00Z,KKNB 252115Z AUTO 04007G13KT 10SM CLR 18/M11 A2998 RMK A01
KKY8,2023-04-25T21:15:00Z,KKY8 252115Z AUTO 23003KT 10SM CLR 19/00 A3011 RMK A01
KL08,2023-04-25T21:15:00Z,KL08 252115Z AUTO 11008KT 070V180 10SM CLR 33/01 A2975 RMK AO2
KL18,2023-04-25T21:15:00Z,KL18 252115Z AUTO 23006KT 10SM BKN021 18/13 A2990 RMK AO2
KL35,2023-04-25T21:15:00Z,KL35 252115Z AUTO 07011G14KT 10SM CLR 16/M07 A3008 RMK AO2
KLAA,2023-04-25T20:53:00Z,KLAA 252053Z AUTO 7SM OVC006 09/07 A2986 RMK AO2 SLP100 T00890067 56001
KLAF,2023-04-25T20:54:00Z,KLAF 252054Z 10SM FEW060 BKN095 15/03 A3008 RMK AO2 SLP188 T01500033 58012
KLAL,2023-04-25T20:48:00Z,KLAL 252048Z 18003KT 10SM -RA SCT026 BKN075 23/19 A2990 RMK LTG DSNT N THROUGH SE
KLAM,2023-04-25T21:15:00Z,KLAM 252115Z AUTO 21014G21KT 9SM FEW014 SCT024 SCT030 BKN042 BKN049 OVC060 08/01 A2987 RMK AO2 PK WND 22037/2055 WSHFT 2047 LTG DSNT NE AND S RAB2102E2111 FEW V SCT PRESFR P0000 T00790012 $
KLAN,2023-04-25T20:53:00Z,KLAN 252053Z VRB03KT 10SM FEW027 BKN033 08/00 A3016 RMK AO2 SLP219 T00830000 56006 $
KLAR,2023-04-25T20:53:00Z,KLAR 252053Z AUTO 35019KT 10SM SCT026 BKN036 BKN049 08/01 A2992 RMK AO2 PK WND 34026/2009 RAB34E47 SLP081 P0000 60000 T00830011 51015
KLAS,2023-04-25T20:56:00Z,KLAS 252056Z 33009KT 10SM CLR 26/M10 A2991 RMK AO2 SLP108 T02561100 56011
KLAW,2023-04-25T20:53:00Z,KLAW 252053Z 100/12KT 10SM SCT031 BKN043 OVC060 19/13 A2987
KLAX,2023-04-25T20:53:00Z,KLAX 252053Z 24012KT 10SM FEW014 FEW030 19/13 A2991 RMK AO2 SLP127 T01890128 58006 $
KLBB,2023-04-25T20:53:00Z,KLBB 252053Z 18012G16KT 10SM FEW055 SCT250 23/09 A2980 RMK AO2 SLP055 CB DSNT N MOV E TCU DSNT W T02330089 56027
KLBE,2023-04-25T20:47:00Z,KLBE 252047Z VRB06KT 20SM FEW070 12/M04 A3014
KLBF,2023-04-25T20:53:00Z,KLBF 252053Z AUTO 13011KT 10SM OVC043 14/04 A3001 RMK AO2 SLP163 T01390044 52002
KLBL,2023-04-25T20:56:00Z,KLBL 252056Z AUTO 11014G18KT 3SM BR OVC002 09/09 A2989 RMK AO2 SLP117 T00940094 56007
KLBO,2023-04-25T21:15:00Z,KLBO 252115Z AUTO 16005G08KT 10SM SCT075 20/M03 A3006 RMK AO2
KLBT,2023-04-25T20:56:00Z,KLBT 252056Z AUTO 06005KT 10SM OVC080 20/07 A3011 RMK AO2 SLP195 T02000072 56005
KLBX,2023-04-25T20:53:00Z,KLBX 252053Z AUTO 11008KT 10SM FEW021 BKN040 OVC055 23/18 A2989 RMK AO2 SLP122 T02330183 56008
KLCG,2023-04-25T21:15:00Z,KLCG 252115Z AUTO 07010G19KT 10SM CLR 17/00 A3009 RMK AO2 T01661003
KLCH,2023-04-25T20:53:00Z,KLCH 252053Z 08005KT 10SM CLR 24/15 A2993 RMK AO2 SLP142 T02440150 58021
KLCI,2023-04-25T20:56:00Z,KLCI 252056Z AUTO 08010KT 10SM FEW085 09/05 A3014 RMK AO2 RAB02E24 SLP210 P0000 60000 T00940050 53002
KLCK,2023-04-25T20:55:00Z,KLCK 252055Z AUTO 21005KT 10SM SCT110 15/M02 A3013 RMK AO2 T01451025
KLCQ,2023-04-25T21:15:00Z,KLCQ 252115Z AUTO 08006KT 10SM SCT060 SCT095 22/18 A2995 RMK AO2 LTG DSNT NE
KLDM,2023-04-25T21:15:00Z,KLDM 252115Z AUTO 35014G20KT 10SM CLR 07/M04 A3019 RMK AO2 T00721037
KLEB,2023-04-25T20:53:00Z,KLEB 252053Z 25005KT 10SM SCT046 BKN060 BKN120 12/01 A3013 RMK AO2 SLP204 T01220006 53002
KLEE,2023-04-25T21:02:00Z,KLEE 252102Z 07003KT 10SM -RA BKN030 BKN070 OVC095 21/21 A2994 RMK AO2 LTG DSNT E-S TSE2056 P0001 T02110206
KLEW,2023-04-25T20:56:00Z,KLEW 252056Z AUTO 11008KT 7SM -RA OVC007 06/06 A3021 RMK AO2 CIG 004V010 SLP238 6//// T00610056 53005 PNO $
KLEX,2023-04-25T20:54:00Z,KLEX 252054Z 00000KT 10SM CLR 18/M02 A3012 RMK AO2 SLP199 T01781017 56014
KLFI,2023-04-25T20:55:00Z,KLFI 252055Z COR 08008KT 10SM BKN170 SCT200 14/03 A3018 RMK AO2A SLP226 T01430034 55006 $ COR 2056
KLFK,2023-04-25T20:53:00Z,KLFK 252053Z AUTO 12008KT 10SM SCT060 BKN080 BKN095 21/14 A2994 RMK AO2 SLP135 60000 T02110139 58024
KLFT,2023-04-25T20:53:00Z,KLFT 252053Z 05005KT 10SM BKN043 BKN110 27/16 A2994 RMK AO2 SLP136 T02670156 58019
KLGA,2023-04-25T20:51:00Z,KLGA 252051Z 03004KT 10SM FEW060 BKN090 14/M01 A3015 RMK AO2 SLP208 T01391011 53000
KLGB,2023-04-25T20:53:00Z,KLGB 252053Z 22008KT 10SM OVC026 18/12 A2990 RMK AO2 SLP126 T01830117 58008
KLGC,2023-04-25T21:15:00Z,KLGC 252115Z AUTO 00000KT 10SM SCT110 24/05 A3001 RMK AO2 T02370051
KLGD,2023-04-25T20:56:00Z,KLGD 252056Z AUTO VRB05KT 10SM CLR 15/M02 A3015 RMK AO2 SLP212 T01501017 56016
KLGF,2023-04-25T20:55:00Z,KLGF 252055Z AUTO 36004KT M M CLR 31/05 A2975 RMK AO2 SLP072 T03060051 57014 RVRNO PWINO TSNO $
KLGU,2023-04-25T20:51:00Z,KLGU 252051Z AUTO 00000KT 10SM OVC045 05/02 A3010 RMK AO2 SLP192 60002 T00500017 53010
KLHB,2023-04-25T21:15:00Z,KLHB 252115Z AUTO 09005KT 10SM BKN027 OVC048 24/17 A2989 RMK AO2 T02350170
KLHM,2023-04-25T21:15:00Z,KLHM 252115Z AUTO 34011G15KT 10SM CLR 27/05 A2987 RMK AO1
KLHQ,2023-04-25T20:53:00Z,KLHQ 252053Z AUTO 32003KT 10SM OVC090 13/M01 A3014 RMK AO2 SLP209 T01331011 56011
KLHW,2023-04-25T20:55:00Z,KLHW 252055Z 04008KT 6SM -RA SCT030 BKN040 18/16 A2999 RMK AO2A RAB34 SLP158 P0000 60001 T01840160 57005 $
KLHX,2023-04-25T20:53:00Z,KLHX 252053Z AUTO 07023G30KT 10SM FEW023 SCT029 13/07 A2980 RMK AO2 PK WND 08030/2048 SLP064 T01330072 56012
KLHZ,2023-04-25T21:15:00Z,KLHZ 252115Z AUTO 00000KT 10SM SCT055 SCT065 SCT090 17/06 A3015 RMK AO2
KLIC,2023-04-25T20:55:00Z,KLIC 252055Z AUTO 13014G20KT 10SM OVC007 08/04 A2988 RMK AO2 CIG 004V011 SLP097 T00780044 55000
KLIT,2023-04-25T20:53:00Z,KLIT 252053Z VRB06KT 10SM SCT060 OVC085 17/06 A3007 RMK AO2 RAB49E53 SLP183 P0000 60000 T01720061 58016
KLJF,2023-04-25T21:15:00Z,KLJF 252115Z AUTO 06009KT 10SM SCT060 09/M07 A3024 RMK AO2
KLKR,2023-04-25T21:15:00Z,KLKR 252115Z AUTO 04003KT 10SM OVC075 18/08 A3011 RMK AO2
KLKU,2023-04-25T21:15:00Z,KLKU 252115Z AUTO 26003KT 10SM SCT070 15/00 A3017 RMK AO2 T01510003
KLKV,2023-04-25T20:53:00Z,KLKV 252053Z AUTO VRB05KT 7SM CLR 16/M03 A3015 RMK AO2 SLP207 T01611033 58009
KLLJ,2023-04-25T20:55:00Z,KLLJ 252055Z AUTO 03003KT 10SM OVC055 12/M02 A3009 RMK AO2 SLP172 T01221022 56007
KLLN,2023-04-25T21:15:00Z,KLLN 252115Z AUTO 16006G16KT 10SM FEW070 24/07 A2979 RMK AO2
KLLQ,2023-04-25T20:53:00Z,KLLQ 252053Z AUTO 03006KT 10SM OVC060 17/08 A3004 RMK AO2 SLP169 T01720083 58017
KLMO,2023-04-25T21:15:00Z,KLMO 252115Z AUTO 36015G23KT 10SM SCT016 SCT023 SCT110 10/04 A2989 RMK AO2 T01040038
KLMS,2023-04-25T21:15:00Z,KLMS 252115Z AUTO 02006G11KT 10SM FEW120 20/05 A3006 RMK AO2
KLMT,2023-04-25T20:53:00Z,KLMT 252053Z VRB06KT 10SM CLR 17/M02 A3013 RMK AO2 SLP192 T01721022 58015
KLNA,2023-04-25T21:15:00Z,KLNA 252115Z AUTO 14011KT 10SM CLR 30/22 A2988 RMK AO2 LTG DSNT N T02970216
KLNC,2023-04-25T21:15:00Z,KLNC 252115Z AUTO 16007KT 10SM SCT048 BKN060 OVC070 21/13 A2991 RMK AO2 T02080130
KLND,2023-04-25T20:53:00Z,KLND 252053Z AUTO 12006KT 10SM BKN032 BKN041 OVC060 08/03 A2998 RMK AO2 RAB04E27 SLP137 P0000 60000 T00830033 53012
KLNK,2023-04-25T20:54:00Z,KLNK 252054Z 15007KT 10SM OVC060 17/04 A3007 RMK AO2 SLP183 T01720044 58007
KLNL,2023-04-25T21:15:00Z,KLNL 252115Z AUTO 35010KT 10SM OVC044 05/M07 A3024 RMK AO2 T00451070
KLNN,2023-04-25T21:15:00Z,KLNN 252115Z AUTO 03007KT 10SM BKN050 OVC060 06/02 A3018 RMK AO1 T00550016
KLNP,2023-04-25T21:15:00Z,KLNP 252115Z AUTO 00000KT 10SM OVC100 13/M05 A3014 RMK AO2
KLNQ,2023-04-25T21:15:00Z,KLNQ 252115Z AUTO 04007KT 10SM SCT011 24/19 A2996 RMK AO2 T02400189
KLNR,2023-04-25T20:56:00Z,KLNR 252056Z AUTO 22003KT 10SM OVC065 09/M02 A3020 RMK AO2 SLP225 T00891022 56001
KLNS,2023-04-25T20:53:00Z,KLNS 252053Z VRB06KT 10SM FEW070 14/M02 A3018 RMK AO2 SLP221 T01391017 55005
KLOL,2023-04-25T20:53:00Z,KLOL 252053Z AUTO VRB03KT 10SM CLR 16/M07 A3012 RMK AO2 SLP188 T01611072 58009
KLOM,2023-04-25T21:15:00Z,KLOM 252115Z AUTO 32004KT 10SM SCT075 14/M04 A3018 RMK AO2 T01421037
KLOR,2023-04-25T20:55:00Z,KLOR 252055Z AUTO 04003KT 10SM BKN060 BKN090 26/14 A2995 RMK AO2 LTG DSNT S SLP124 T02560138 57018
KLOT,2023-04-25T20:45:00Z,KLOT 252045Z 02016G23KT 10SM BKN028 OVC034 08/03 A3018
KLOU,2023-04-25T20:53:00Z,KLOU 252053Z 00000KT 10SM CLR 18/00 A3010 RMK AO2 SLP194 T01780000 56019
KLOZ,2023-04-25T20:53:00Z,KLOZ 252053Z AUTO 14003KT 10SM CLR 17/M01 A3012 RMK AO2 SLP199 T01671011 58013
KLPR,2023-04-25T20:53:00Z,KLPR 252053Z AUTO 00000KT 10SM BKN046 OVC055 08/02 A3016 RMK AO2 RAE1957 SLP218 P0000 60000 T00830017 58004
KLQK,2023-04-25T21:15:00Z,KLQK 252115Z AUTO 14003KT 10SM OVC080 17/06 A3010 RMK AO2 T01700064
KLRD,2023-04-25T20:56:00Z,KLRD 252056Z 15010KT 10SM BKN040 28/18 A2979 RMK AO2 SLP084 T02830178 58028
KLRF,2023-04-25T20:55:00Z,KLRF 252055Z AUTO 11004KT 10SM FEW050 BKN140 BKN200 18/07 A3004 RMK AO2 SLP175 T01820070 57016 PWINO $
KLRJ,2023-04-25T21:15:00Z,KLRJ 252115Z AUTO 04012KT 10SM CLR 14/M03 A3010 RMK AO2
KLRO,2023-04-25T21:15:00Z,KLRO 252115Z AUTO VRB04G13KT 9SM FEW120 22/14 A3006 RMK AO2
KLRU,2023-04-25T21:15:00Z,KLRU 252115Z AUTO 27018G29KT 10SM CLR 29/M04 A2983 RMK AO2 T02891038
KLRY,2023-04-25T21:15:00Z,KLRY 252115Z AUTO 16009KT 10SM SCT075 21/00 A3006 RMK AO2
KLSE,2023-04-25T20:53:00Z,KLSE 252053Z 28006G15KT 10SM BKN060 11/M05 A3021 RMK AO2 SLP237 T01111050 58002
KLSF,2023-04-25T20:55:00Z,KLSF 252055Z 29005KT 10SM FEW055 SCT200 24/11 A2996 RMK AO2A SLP150 T02440113 57017 $
KLSV,2023-04-25T20:55:00Z,KLSV 252055Z AUTO 02018KT 10SM CLR 27/M12 A2987 RMK AO2 SLP096 T02691119 57013 $
KLTS,2023-04-25T20:55:00Z,KLTS 252055Z AUTO 06015KT 10SM BKN045 OVC055 19/13 A2981 RMK AO2 SLP088 T01940129 50008
KLUA,2023-04-25T21:15:00Z,KLUA 252115Z AUTO 00000KT 10SM CLR 14/M01 A3014 RMK AO2
KLUD,2023-04-25T21:15:00Z,KLUD 252115Z AUTO 14007KT 10SM SCT031 SCT038 SCT060 21/12 A2989 RMK AO2 T02060120
KLUF,2023-04-25T20:55:00Z,KLUF 252055Z AUTO 22013G22KT 10SM FEW200 31/04 A2973 RMK AO2 SLP054 T03070036 57022
KLUG,2023-04-25T21:15:00Z,KLUG 252115Z AUTO 02009KT 10SM CLR 19/M03 A3006 RMK A01
KLUK,2023-04-25T20:53:00Z,KLUK 252053Z 00000KT 10SM BKN090 15/M01 A3013 RMK AO2 SLP202 T01501006 56016
KLUL,2023-04-25T21:15:00Z,KLUL 252115Z AUTO 00000KT 10SM CLR 25/07 A2997 RMK A02 T02510069
KLUM,2023-04-25T21:15:00Z,KLUM 252115Z 06003G17KT 10SM BKN065 11/M09 A3023 RMK AO2 T01081091 PWINO
KLUV,2023-04-25T21:15:00Z,KLUV 252115Z AUTO 25010G15KT 10SM SCT095 SCT120 26/06 A2979 RMK AO2
KLUX,2023-04-25T21:15:00Z,KLUX 252115Z AUTO 05005KT 10SM OVC065 18/06 A3009 RMK AO2
KLVJ,2023-04-25T20:53:00Z,KLVJ 252053Z AUTO 13011G17KT 10SM BKN031 26/17 A2990 RMK AO2 SLP125 T02610172 58013
KLVK,2023-04-25T20:53:00Z,KLVK 252053Z VRB05KT 10SM CLR 27/02 A2990 RMK AO2 SLP123 T02670017 58016
KLVL,2023-04-25T21:15:00Z,KLVL 252115Z AUTO 04003KT 10SM CLR 18/06 A3016 RMK AO1 T01800060
KLVM,2023-04-25T20:53:00Z,KLVM 252053Z AUTO 25017KT 10SM BKN090 13/02 A3003 RMK AO2 SLP162 T01330017 53000
KLVS,2023-04-25T20:53:00Z,KLVS 252053Z AUTO 24033G48KT 10SM FEW110 17/M06 A2984 RMK AO2 PK WND 23048/2051 SLP020 T01671061 55014
KLWA,2023-04-25T21:15:00Z,KLWA 252115Z AUTO 36010G15KT 10SM SCT015 06/03 A3018 RMK AO2 T00620028
KLWB,2023-04-25T20:51:00Z,KLWB 252051Z 23007KT 10SM CLR 13/M04 A3012
KLWC,2023-04-25T20:52:00Z,KLWC 252052Z AUTO 11012KT 8SM SCT070 19/02 A3005 RMK AO1 SLP172 T01890022 56012
KLWD,2023-04-25T20:53:00Z,KLWD 252053Z AUTO VRB04KT 10SM FEW050 BKN110 17/04 A3008 RMK AO2 SLP189 T01720044 56010
KLWM,2023-04-25T20:54:00Z,KLWM 252054Z 11006KT 10SM -RA SCT039 OVC095 12/06 A3016 RMK AO2 RAB51 PRESRR SLP214 P0000 60002 T01170056 53010
KLWS,2023-04-25T20:56:00Z,KLWS 252056Z 28005KT 10SM CLR 18/03 A3015 RMK AO2 SLP209 T01780028 58016
KLWT,2023-04-25T20:54:00Z,KLWT 252054Z AUTO 23003KT 10SM CLR 13/01 A2999 RMK AO2 SLP158 T01330011 56006
KLWV,2023-04-25T20:53:00Z,KLWV 252053Z AUTO 25008KT 10SM FEW110 19/03 A3009 RMK AO2 SLP190 T01890028 58014
KLXL,2023-04-25T21:15:00Z,KLXL 252115Z AUTO 00000KT 10SM CLR 07/M06 A3025 RMK AO2
KLXN,2023-04-25T21:15:00Z,KLXN 252115Z AUTO 11010KT 10SM SCT043 14/05 A3003 RMK AO2 T01370045
KLXT,2023-04-25T20:53:00Z,KLXT 252053Z AUTO 16007KT 10SM FEW070 19/03 A3006 RMK AO2 SLP177 T01890028 56014
KLXV,2023-04-25T21:14:00Z,KLXV 252114Z AUTO 22006KT 10SM SCT023 BKN029 OVC050 01/M03 A2987 RMK AO2 T00061028
KLXY,2023-04-25T21:15:00Z,KLXY 252115Z AUTO 09005KT 10SM SCT028 BKN034 BKN049 22/16 A2988 RMK AO2 T02230158
KLYO,2023-04-25T21:15:00Z,KLYO 252115Z AUTO 12011KT 10SM OVC022 11/06 A3002 RMK AO2 T01080061
KLYV,2023-04-25T21:15:00Z,KLYV 252115Z AUTO 14006KT 10SM CLR 11/M05 A3017 RMK AO2
KLZU,2023-04-25T20:56:00Z,KLZU 252056Z 07007KT 10SM BKN055 OVC070 19/08 A3005 RMK AO2 SLP186 T01890083 58008
KLZZ,2023-04-25T20:55:00Z,KLZZ 252055Z AUTO 17008KT 10SM OVC016 20/17 A2986 RMK AO2 T02020166
KM01,2023-04-25T21:15:00Z,KM01 252115Z AUTO 00000KT 9SM CLR 21/M02 A3003 RMK AO2 T02061024 $
KM02,2023-04-25T21:15:00Z,KM02 252115Z AUTO 07004KT 10SM CLR 19/M03 A3006 RMK A01
KM04,2023-04-25T21:10:00Z,KM04 252110Z AUTO VRB05G11KT 10SM CLR 20/01 A3006 RMK A01
KM08,2023-04-25T21:15:00Z,KM08 252115Z AUTO VRB04G12KT 10SM CLR 20/M05 A3004 RMK A01
KM19,2023-04-25T20:56:00Z,KM19 252056Z AUTO 02007KT 10SM CLR 17/04 A3009 RMK AO2 SLP187 6//// T01720039 58016 PNO $
KM21,2023-04-25T21:15:00Z,KM21 252115Z AUTO 35004KT 10SM CLR 19/00 A3010 RMK AO2 T01941004
KM25,2023-04-25T21:15:00Z,KM25 252115Z AUTO 00000KT 10SM CLR 20/00 A3010 RMK AO2 PWINO
KM30,2023-04-25T21:15:00Z,KM30 252115Z AUTO 17003KT 10SM CLR 19/M01 A3010 RMK AO2 T01941014
KM40,2023-04-25T21:15:00Z,KM40 252115Z AUTO VRB04KT 10SM FEW022 FEW085 FEW120 20/04 A3006 RMK AO2
KM75,2023-04-25T21:15:00Z,KM75 252115Z AUTO 19010KT 10SM CLR 18/02 A2993 RMK A01
KM91,2023-04-25T21:10:00Z,KM91 252110Z AUTO 04007G13KT 10SM CLR 19/M00 A3008 RMK A01
KMAF,2023-04-25T20:53:00Z,KMAF 252053Z 8SM CLR 28/06 A2978 RMK AO2 SLP046 T02780056 58022 $
KMAI,2023-04-25T20:53:00Z,KMAI 252053Z AUTO 02010KT 10SM CLR 28/14 A2993 RMK AO1 LTG DSNT S AND SW SLP134 T02780139 58018
KMAN,2023-04-25T21:15:00Z,KMAN 252115Z AUTO 28011G17KT 10SM CLR 17/00 A3011 RMK A01
KMAO,2023-04-25T21:15:00Z,KMAO 252115Z AUTO 10SM CLR 21/M03 A3010 RMK AO2
KMAW,2023-04-25T21:15:00Z,KMAW 252115Z AUTO 06003KT 10SM CLR 20/M01 A3010 RMK AO1
KMBG,2023-04-25T20:52:00Z,KMBG 252052Z AUTO 17010KT 10SM BKN060 OVC070 11/M05 A3014 RMK AO2 SLP219 T01061050 58005
KMBL,2023-04-25T20:56:00Z,KMBL 252056Z AUTO 33012G18KT 10SM SCT050 07/M02 A3020 RMK AO2 SLP233 T00671022 53000
KMBO,2023-04-25T21:15:00Z,KMBO 252115Z AUTO VRB05KT 10SM CLR 23/08 A2998 RMK AO2
KMBS,2023-04-25T20:53:00Z,KMBS 252053Z 23004KT 10SM OVC085 09/M06 A3014 RMK AO2 SLP212 T00941056 56004
KMBT,2023-04-25T21:15:00Z,KMBT 252115Z AUTO 05008KT 10SM CLR 19/M03 A3006 RMK A01
KMBY,2023-04-25T21:15:00Z,KMBY 252115Z AUTO 29004KT 10SM SCT075 18/01 A3008 RMK AO2
KMCB,2023-04-25T20:53:00Z,KMCB 252053Z AUTO VRB03KT 10SM CLR 24/10 A2996 RMK AO2 SLP142 T02440100 56021
KMCC,2023-04-25T21:15:00Z,KMCC 252115Z AUTO 33011KT 10SM CLR 28/01 A2987 RMK AO2
KMCD,2023-04-25T21:15:00Z,KMCD 252115Z AUTO 33005KT 10SM SCT023 SCT028 OVC033 03/03 A3017 RMK AO2 T00260026 P0001
KMCE,2023-04-25T20:53:00Z,KMCE 252053Z AUTO 34007KT 10SM CLR 26/05 A2989 RMK AO2 SLP122 T02610050 58011
KMCF,2023-04-25T20:55:00Z,KMCF 252055Z AUTO 26008KT 10SM CLR 28/20 A2985 RMK AO2 SLP111 60019 T02810196 57012 FZRANO $
KMCI,2023-04-25T20:53:00Z,KMCI 252053Z 12010G15KT 10SM BKN055 BKN200 19/06 A3005 RMK AO2 SLP174 T01940056 56012
KMCJ,2023-04-25T21:15:00Z,KMCJ 252115Z AUTO 13010G18KT 090V160 7SM BKN033 OVC060 25/17 A2986 RMK A01
KMCK,2023-04-25T20:53:00Z,KMCK 252053Z AUTO 12015G23KT 10SM OVC036 13/05 A2999 RMK AO2 SLP160 T01280050 53003
KMCN,2023-04-25T20:53:00Z,KMCN 252053Z 00000KT 10SM FEW050 25/12 A3000 RMK AO2 SLP157 T02500117 58012
KMCO,2023-04-25T21:22:00Z,KMCO 252122Z 06016KT 10SM -TSRA FEW022 SCT040CB SCT075 BKN150 BKN250 24/19 A2988 RMK AO2 LTG DSNT SW-NW RAB08 TSB20 OCNL LTGICCG SW-NW TS SW-NW MOV E P0000 T02440194
KMCW,2023-04-25T20:53:00Z,KMCW 252053Z AUTO 05006G16KT 10SM CLR 11/M06 A3018 RMK AO2 SLP225 T01111061 58005
KMCZ,2023-04-25T21:05:00Z,KMCZ 252105Z AUTO 06003KT 10SM BKN065 BKN085 20/05 A3014 RMK AO2 T01950055
KMDD,2023-04-25T21:15:00Z,KMDD 252115Z AUTO 26010KT 10SM 28/03 A2978 RMK AO2 T02800033
KMDH,2023-04-25T20:52:00Z,KMDH 252052Z 06006KT 10SM CLR 20/01 A3010 RMK AO2 SLP190 T02000011 56015
KMDQ,2023-04-25T21:15:00Z,KMDQ 252115Z AUTO 10SM CLR 19/01 A3005 RMK A02 T01880007
KMDS,2023-04-25T21:15:00Z,KMDS 252115Z AUTO 07011G17KT 10SM CLR 11/M05 A3016 RMK AO2
KMDT,2023-04-25T20:56:00Z,KMDT 252056Z 27003KT 10SM BKN070 13/M03 A3018 RMK AO2 SLP222 T01331033 55006
KMDW,2023-04-25T20:53:00Z,KMDW 252053Z 02014KT 10SM BKN022 07/01 A3019 RMK AO2 SLP228 T00720006 51009
KMDZ,2023-04-25T21:15:00Z,KMDZ 252115Z AUTO 01008KT 10SM OVC060 06/M04 A3021 RMK AO2 T00601044 PWINO
KMEB,2023-04-25T20:52:00Z,KMEB 252052Z AUTO 15006KT 10SM OVC095 20/06 A3012 RMK AO2 SLP199 T02000056 56004
KMEH,2023-04-25T20:56:00Z,KMEH 252056Z AUTO VRB03KT 10SM CLR 12/01 A3015 RMK AO2 SLP222 T01170006 58010
KMEI,2023-04-25T20:58:00Z,KMEI 252058Z 01005KT 10SM FEW100 24/08 A3000 RMK AO2 SLP155 T02440083 58021
KMEM,2023-04-25T20:54:00Z,KMEM 252054Z VRB03KT 10SM FEW200 BKN250 19/M01 A3006 RMK AO2 SLP178 T01941006 56018 $
KMEV,2023-04-25T21:15:00Z,KMEV 252115Z AUTO 34008KT 10SM CLR 17/M04 A3011 RMK AO2
KMEZ,2023-04-25T21:15:00Z,KMEZ 252115Z AUTO 05005KT 1SM +RA BR VV013 09/09 A3007 RMK AO2 P0015 T00870087
KMFD,2023-04-25T20:52:00Z,KMFD 252052Z 22009KT 10SM OVC060 10/M02 A3013 RMK AO2 SLP212 T01001022 56009
KMFE,2023-04-25T20:53:00Z,KMFE 252053Z 15003KT 10SM FEW033 28/20 A2980 RMK AO2 SLP089 T02830200 58023
KMFI,2023-04-25T20:54:00Z,KMFI 252054Z AUTO 36005KT 10SM OVC055 07/M05 A3020 RMK AO2 SLP240 T00721050 56002
KMFR,2023-04-25T20:53:00Z,KMFR 252053Z COR 32007KT 10SM CLR 20/02 A3008 RMK AO2 SLP182 T02000022 57029
KMGC,2023-04-25T21:15:00Z,KMGC 252115Z AUTO 36010G15KT 320V020 10SM OVC013 05/02 A3019 RMK AO2
KMGE,2023-04-25T20:55:00Z,KMGE 252055Z 00000KT 10SM SCT070 BKN120 BKN250 21/04 A3002 RMK AO2A SLP165 T02100041 57012 $
KMGG,2023-04-25T21:15:00Z,KMGG 252115Z AUTO 04009KT 10SM BKN060 09/M07 A3025 RMK AO2 T00941074
KMGJ,2023-04-25T20:54:00Z,KMGJ 252054Z AUTO 34008KT 310V010 10SM OVC080 12/M04 A3014 RMK AO2 SLP209 T01221039 53001
KMGM,2023-04-25T20:53:00Z,KMGM 252053Z 23004KT 10SM CLR 26/09 A3000 RMK AO2 SLP156 T02560094 58017
KMGN,2023-04-25T21:15:00Z,KMGN 252115Z AUTO 26005KT 10SM OVC036 03/00 A3018 RMK AO2 T00390004
KMGR,2023-04-25T21:15:00Z,KMGR 252115Z AUTO 34006KT 10SM FEW055 OVC100 26/14 A2995 RMK AO2 T02610142
KMGW,2023-04-25T20:53:00Z,KMGW 252053Z VRB04KT 10SM BKN100 14/M06 A3014 RMK AO2 SLP209 T01441056 58014
KMGY,2023-04-25T20:53:00Z,KMGY 252053Z AUTO 26009G18KT 10SM FEW070 SCT100 14/M03 A3012 RMK AO2 SLP201 T01391033 58014
KMHE,2023-04-25T20:53:00Z,KMHE 252053Z AUTO 09008KT 10SM BKN095 14/M04 A3015 RMK AO2 SLP215 T01441039 58006
KMHK,2023-04-25T20:52:00Z,KMHK 252052Z 12007KT 10SM BKN055 OVC075 18/06 A3004 RMK AO2 SLP170 T01830056 56010
KMHL,2023-04-25T21:15:00Z,KMHL 252115Z AUTO 07007KT 10SM SCT070 18/03 A3007 RMK AO2
KMHP,2023-04-25T21:15:00Z,KMHP 252115Z AUTO 09006KT 3 1/2SM RA BR SCT017 BKN065 OVC080 18/ A3004 RMK AO2 P0004 T0177////
KMHR,2023-04-25T21:15:00Z,KMHR 252115Z AUTO 32012KT 10SM CLR 28/01 A2986 RMK A01
KMHS,2023-04-25T20:56:00Z,KMHS 252056Z AUTO VRB04KT 10SM CLR 19/M03 A3009 RMK AO2 SLP194 T01891028 58007
KMHT,2023-04-25T21:00:00Z,KMHT 252100Z 35007KT 10SM -RA SCT035 BKN050 BKN085 12/04 A3013 RMK AO2 GRE2059 P0000 T01220039
KMHV,2023-04-25T21:00:00Z,KMHV 252100Z AUTO 01006KT 10SM CLR 27/M03 A2991 RMK AO2
KMIA,2023-04-25T20:53:00Z,KMIA 252053Z 14010KT 10SM FEW028 FEW060 FEW250 29/22 A2988 RMK AO2 SLP118 T02890217 56017 $
KMIB,2023-04-25T20:55:00Z,KMIB 252055Z AUTO 17010G17KT 10SM CLR 11/M05 A3014 RMK AO2 SLP228 T01121053 57013 $
KMIC,2023-04-25T20:53:00Z,KMIC 252053Z VRB04KT 10SM SCT060 09/M06 A3024 RMK AO2 SLP247 T00941056 56003
KMIE,2023-04-25T20:53:00Z,KMIE 252053Z 25008G18KT 10SM FEW060 FEW075 14/00 A3010 RMK AO2 SLP191 T01440000 57010
KMIO,2023-04-25T21:10:00Z,KMIO 252110Z AUTO 20005KT 10SM OVC047 15/08 A3004 RMK AO2
KMIV,2023-04-25T20:54:00Z,KMIV 252054Z AUTO VRB04KT 10SM CLR 14/M02 A3018 RMK AO2 PK WND 26027/2027 SLP217 T01441022 53002
KMIW,2023-04-25T20:53:00Z,KMIW 252053Z AUTO 02007KT 10SM CLR 14/M04 A3014 RMK AO2 SLP208 T01441039 57006
KMJQ,2023-04-25T21:15:00Z,KMJQ 252115Z AUTO 09006KT 10SM CLR 11/M09 A3019 RMK AO2
KMKC,2023-04-25T20:54:00Z,KMKC 252054Z 10004KT 10SM SCT070 19/03 A3005 RMK AO2 SLP173 T01890028 56014
KMKE,2023-04-25T20:52:00Z,KMKE 252052Z 06010KT 10SM FEW032 FEW045 07/00 A3021 RMK AO2 SLP235 T00670000 50003
KMKG,2023-04-25T20:55:00Z,KMKG 252055Z 29012KT 10SM BKN055 12/M01 A3016 RMK AO2 SLP215 T01171006 56009
KMKJ,2023-04-25T21:15:00Z,KMKJ 252115Z AUTO 32005KT 10SM OVC110 14/M06 A3015 RMK AO2 T01401059
KMKL,2023-04-25T20:53:00Z,KMKL 252053Z 09007KT 050V110 10SM CLR 21/M01 A3007 RMK AO2 SLP181 T02061011 56019
KMKN,2023-04-25T21:15:00Z,KMKN 252115Z AUTO 15009G15KT 10SM 21/16 A2986 RMK AO2 T02050160
KMKO,2023-04-25T21:03:00Z,KMKO 252103Z AUTO 12011KT 4SM -RA BR FEW007 BKN012 OVC070 10/09 A3005 RMK AO2 P0002 T01000094
KMKS,2023-04-25T21:15:00Z,KMKS 252115Z AUTO 09006KT 10SM OVC120 21/08 A3007 RMK AO2
KMKT,2023-04-25T20:56:00Z,KMKT 252056Z AUTO 03008KT 10SM CLR 09/M06 A3022 RMK AO2 SLP244 T00941061 58007
KMLC,2023-04-25T21:14:00Z,KMLC 252114Z AUTO 10010G18KT 10SM -RA FEW009 BKN034 OVC041 11/09 A2998 RMK AO2 RAB01 P0000 T01060089
KMLE,2023-04-25T21:15:00Z,KMLE 252115Z AUTO 11005KT 10SM BKN050 17/03 A3008 RMK AO2 T01650033
KMLF,2023-04-25T20:52:00Z,KMLF 252052Z AUTO 36015G28KT 10SM SCT065 12/M04 A3005 RMK AO2 PK WND 34028/2045 SLP151 T01221044 57001
KMLI,2023-04-25T20:52:00Z,KMLI 252052Z 02006KT 10SM FEW044 13/03 A3016 RMK AO2 SLP213 T01280028 51006
KMLJ,2023-04-25T21:15:00Z,KMLJ 252115Z AUTO 00000KT 10SM FEW070 OVC095 23/13 A3001 RMK AO2
KMLP,2023-04-25T20:53:00Z,KMLP 252053Z AUTO VRB04KT 10SM FEW019 BKN033 OVC040 05/M01 A3014 RMK AO2 SLP172 T00501006 52003
KMLS,2023-04-25T20:53:00Z,KMLS 252053Z AUTO 20004KT 10SM CLR 14/01 A2999 RMK AO2 SLP158 T01440006 58011
KMLT,2023-04-25T20:53:00Z,KMLT 252053Z AUTO 13004KT 10SM FEW009 OVC013 07/06 A3023 RMK AO2 RAB29E39 SLP245 P0000 60000 T00670056 53003
KMLU,2023-04-25T20:53:00Z,KMLU 252053Z 08003KT 10SM OVC075 22/08 A3001 RMK AO2 SLP160 T02220083 58019
KMMH,2023-04-25T21:15:00Z,KMMH 252115Z AUTO 00000KT 10SM CLR 13/M12 A3016 RMK AO2 T01331124
KMMI,2023-04-25T21:15:00Z,KMMI 252115Z AUTO 09006KT 10SM CLR 18/01 A3009 RMK A01
KMMK,2023-04-25T20:53:00Z,KMMK 252053Z AUTO 00000KT 10SM BKN070 OVC085 14/M01 A3014 RMK AO2 SLP207 60000 T01391011 53002
KMML,2023-04-25T20:56:00Z,KMML 252056Z AUTO 11004KT 10SM CLR 09/M06 A3022 RMK AO2 SLP248 T00941061 56005
KMMT,2023-04-25T20:55:00Z,KMMT 252055Z AUTO 07008KT 10SM BKN070 OVC130 M A3005 RMK AO2 SLPNO ALSTG ESTMD 57009 $
KMMU,2023-04-25T20:45:00Z,KMMU 252045Z 33004KT 10SM BKN085 15/M02 A3016
KMMV,2023-04-25T20:53:00Z,KMMV 252053Z AUTO 36005KT 10SM CLR 16/06 A3020 RMK AO2 SLP226 T01610061 57017
KMNE,2023-04-25T21:17:00Z,KMNE 252117Z AUTO 10004KT 10SM OVC060 22/12 A2998 RMK AO2
KMNH,2023-04-25T21:15:00Z,KMNH 252115Z AUTO 00000KT 10SM BKN050 BKN065 OVC090 06/00 A2991 RMK AO2 LTG DSNT E THRU S
KMNI,2023-04-25T21:15:00Z,KMNI 252115Z AUTO 13004KT 10SM OVC070 20/06 A3008 RMK AO2
KMNM,2023-04-25T20:57:00Z,KMNM 252057Z AUTO 09008KT 10SM OVC055 05/M03 A3023 RMK AO2 SLP260 6//// T00501028 53002 PNO $
KMNN,2023-04-25T20:53:00Z,KMNN 252053Z AUTO 25009KT 8SM OVC060 11/M03 A3013 RMK AO2 SLP210 T01111028 56009
KMNV,2023-04-25T21:15:00Z,KMNV 252115Z AUTO VRB05G11KT 10SM 18/02 A3008 RMK A01
KMNZ,2023-04-25T21:15:00Z,KMNZ 252115Z AUTO 15010KT 7SM OVC018 21/18 A2987 RMK AO2 T02090178
KMOB,2023-04-25T20:56:00Z,KMOB 252056Z VRB03KT 10SM SCT055 SCT085 SCT150 27/12 A2996 RMK AO2 SLP142 T02720117 58019
KMOD,2023-04-25T20:53:00Z,KMOD 252053Z 32014KT 10SM CLR 27/03 A2989 RMK AO2 SLP120 T02670028 58014
KMOP,2023-04-25T21:15:00Z,KMOP 252115Z AUTO 33004KT 10SM BKN075 10/M05 A3013 RMK AO2 T00971048
KMOT,2023-04-25T20:54:00Z,KMOT 252054Z 12014G21KT 10SM CLR 12/M06 A3016 RMK AO2 SLP229 T01221061 56011
KMOX,2023-04-25T21:15:00Z,KMOX 252115Z AUTO 07008G19KT 10SM 09/M07 A3024 RMK AO2
KMPO,2023-04-25T20:53:00Z,KMPO 252053Z AUTO VRB03KT 10SM CLR 09/M06 A3014 RMK AO2 SLP217 T00891061 55001
KMPR,2023-04-25T21:15:00Z,KMPR 252115Z AUTO 15012KT 10SM BKN026 OVC075 13/07 A3002 RMK AO2 T01310071
KMPV,2023-04-25T21:23:00Z,KMPV 252123Z AUTO VRB03KT 1 3/4SM RA BR FEW010 BKN021 OVC026 06/03 A3020 RMK AO2 P0005 T00560033
KMPZ,2023-04-25T21:15:00Z,KMPZ 252115Z AUTO 01005KT 10SM SCT046 13/03 A3013 RMK AO2
KMQB,2023-04-25T21:15:00Z,KMQB 252115Z AUTO 36009KT 10SM OVC080 15/05 A3013 RMK AO2 T01500047
KMQI,2023-04-25T21:10:00Z,KMQI 252110Z AUTO 08010KT 10SM CLR 15/05 A3018 RMK AO2 T01500052
KMQJ,2023-04-25T21:15:00Z,KMQJ 252115Z AUTO 26008KT 10SM OVC055 15/04 A3011 RMK AO1
KMQS,2023-04-25T21:15:00Z,KMQS 252115Z AUTO 24007KT 10SM CLR 12/M05 A3019 RMK AO2
KMQW,2023-04-25T21:15:00Z,KMQW 252115Z AUTO 05004KT 10SM CLR 29/15 A2999 RMK AO2 T02900150
KMQY,2023-04-25T20:56:00Z,KMQY 252056Z 09007KT 10SM CLR 21/M02 A3009 RMK AO2 SLP196 T02111017 56019
KMRB,2023-04-25T20:53:00Z,KMRB 252053Z 11010G15KT 10SM CLR 14/M03 A3016 RMK AO2 SLP214 T01391028 56007
KMRC,2023-04-25T21:10:00Z,KMRC 252110Z AUTO 07009KT 10SM CLR 20/M03 A3005 RMK A01
KMRF,2023-04-25T20:56:00Z,KMRF 252056Z AUTO 23014G20KT 10SM CLR 26/M06 A2992 RMK AO2 SLP078 T02611061 58016
KMRH,2023-04-25T20:58:00Z,KMRH 252058Z AUTO 06009KT 10SM CLR 19/08 A3013 RMK AO2 SLP202 T01940083 55005
KMRJ,2023-04-25T21:15:00Z,KMRJ 252115Z AUTO 01004KT 10SM SCT045 OVC050 07/M06 A3021 RMK AO2 PWINO
KMRN,2023-04-25T21:05:00Z,KMRN 252105Z AUTO 09005KT 10SM SCT070 SCT120 19/04 A3012 RMK AO2 T01870035
KMRT,2023-04-25T20:59:00Z,KMRT 252059Z AUTO 23007KT 10SM OVC065 11/M02 A3014 RMK AO1
KMRY,2023-04-25T20:54:00Z,KMRY 252054Z 34005KT 8SM CLR 13/09 A2996 RMK AO2 SLP157 T01280089 58007
KMSL,2023-04-25T20:53:00Z,KMSL 252053Z AUTO 05003KT 10SM CLR 20/M01 A3006 RMK AO2 SLP178 T02001011 58017
KMSN,2023-04-25T20:53:00Z,KMSN 252053Z 00000KT 10SM -RA SCT041 BKN050 OVC060 08/M02 A3019 RMK AO2 RAB50 SLP230 P0000 60000 T00781017 51002
KMSO,2023-04-25T20:53:00Z,KMSO 252053Z 20006KT 10SM OVC060 13/02 A3011 RMK AO2 SLP200 T01330017 55012
KMSP,2023-04-25T20:53:00Z,KMSP 252053Z 36006G19KT 10SM SCT060 09/M06 A3024 RMK AO2 SLP246 T00941056 58003
KMSS,2023-04-25T20:53:00Z,KMSS 252053Z AUTO 21005KT 10SM BKN070 BKN080 11/M02 A3016 RMK AO2 SLP216 T01061017 56002
KMSV,2023-04-25T20:56:00Z,KMSV 252056Z AUTO 30006KT 10SM FEW065 09/M05 A3016 RMK AO2 SLP223 T00891050 53001
KMSY,2023-04-25T20:53:00Z,KMSY 252053Z 04009KT 10SM FEW036 SCT150 BKN250 26/16 A2994 RMK AO2 SLP143 T02560156 58016
KMTC,2023-04-25T20:56:00Z,KMTC 252056Z 17005KT 3SM BR BKN009 OVC036 04/03 A3016 RMK AO2A DZE23 SLP223 P0001 60005 T00440027 58002 $
KMTH,2023-04-25T20:53:00Z,KMTH 252053Z AUTO 17005KT 10SM CLR 29/21 A2988 RMK AO2 SLP118 T02890211 56016
KMTJ,2023-04-25T21:05:00Z,KMTJ 252105Z AUTO 11004KT 10SM BKN019 OVC036 04/01 A2995 RMK AO2 RAE01 P0000 T00440011
KMTK,2023-04-25T21:15:00Z,KMTK 252115Z AUTO 00000G10KT 10SM BKN017 24/20 A2993 RMK A01
KMTN,2023-04-25T20:55:00Z,KMTN 252055Z 13005KT 10SM SCT075 14/02 A3020
KMTO,2023-04-25T20:53:00Z,KMTO 252053Z AUTO 33005KT 10SM OVC100 16/04 A3009 RMK AO2 SLP190 60000 T01560039 56009
KMTP,2023-04-25T20:54:00Z,KMTP 252054Z AUTO VRB06KT 13/05 A3016 RMK AO1 SLP214 T01330050 53001
KMTV,2023-04-25T21:15:00Z,KMTV 252115Z AUTO 12003KT 10SM CLR 15/M01 A3017 RMK AO2 T01541007
KMTW,2023-04-25T20:56:00Z,KMTW 252056Z AUTO 14011KT 10SM FEW020 BKN060 06/01 A3022 RMK AO2 SLP237 T00560011 58003
KMUI,2023-04-25T20:55:00Z,KMUI 252055Z 35005KT 10SM SCT065 SCT250 15/M07 A3020 RMK SLPNO WND DATA ESTMD ALSTG ESTMD 56003
KMUO,2023-04-25T20:55:00Z,KMUO 252055Z 32014G22KT 10SM FEW050 FEW120 FEW200 16/M01 A3007 RMK AO2A SLP182 T01591008 58005
KMUT,2023-04-25T21:15:00Z,KMUT 252115Z AUTO 07010G17KT 10SM FEW048 FEW055 13/03 A3015 RMK AO2
KMVE,2023-04-25T21:15:00Z,KMVE 252115Z AUTO 04010G14KT 10SM CLR 09/M05 A3023 RMK AO2
KMVH,2023-04-25T21:20:00Z,KMVH 252120Z AUTO 11005KT 10SM FEW060 FEW085 13/M00 A3001 RMK AO2 PWINO
KMVL,2023-04-25T20:54:00Z,KMVL 252054Z AUTO 36005KT 10SM FEW029 09/02 A3015 RMK AO2 SLP215 60001 T00940022 51005
KMVN,2023-04-25T20:56:00Z,KMVN 252056Z AUTO VRB06G16KT 10SM SCT070 20/04 A3009 RMK AO2 SLP194 T02000039 56016
KMVY,2023-04-25T20:53:00Z,KMVY 252053Z 16008KT 10SM BKN070 13/08 A3015 RMK AO2 SLP210 T01330083 53007
KMWA,2023-04-25T20:45:00Z,KMWA 252045Z 00000KT 20SM CLR 19/01 A3010
KMWC,2023-04-25T20:45:00Z,KMWC 252045Z 07007KT 10SM SCT040 07/M01 A3021
KMWH,2023-04-25T20:52:00Z,KMWH 252052Z 15013G18KT 10SM CLR 17/02 A3014 RMK AO2 SLP209 T01670022 58010
KMWK,2023-04-25T21:05:00Z,KMWK 252105Z AUTO 00000KT 10SM CLR 16/01 A3016 RMK AO2 T01550009
KMWL,2023-04-25T20:53:00Z,KMWL 252053Z AUTO 16012KT 10SM OVC028 22/14 A2986 RMK AO2 SLP101 T02170139 58018
KMWM,2023-04-25T21:15:00Z,KMWM 252115Z AUTO 04008KT 10SM CLR 10/M08 A3019 RMK AO2
KMWN,2023-04-25T20:51:00Z,KMWN 252051Z 20009KT 1/16SM -SN FZFG VV000 M03/M03 RMK VRY LGT ICG
KMWO,2023-04-25T21:15:00Z,KMWO 252115Z AUTO 23009KT 10SM SCT070 SCT090 SCT110 14/M02 A3014 RMK AO2 T01441024
KMWT,2023-04-25T21:15:00Z,KMWT 252115Z AUTO 27003KT 1 3/4SM RA BR FEW006 OVC047 11/09 A3008 RMK AO2 PRESRR P0008 T01110094
KMXF,2023-04-25T20:55:00Z,KMXF 252055Z AUTO 22006KT 10SM CLR 25/03 A2997 RMK AO2 SLP151 T02540033 57017
KMYF,2023-04-25T20:53:00Z,KMYF 252053Z VRB06KT 10SM BKN025 18/11 A2991 RMK AO2 SLP124 T01830111 58008
KMYJ,2023-04-25T21:15:00Z,KMYJ 252115Z AUTO 22003KT 10SM BKN090 18/03 A3007 RMK AO2
KMYL,2023-04-25T20:51:00Z,KMYL 252051Z AUTO 33009KT 10SM CLR 09/M02 A3010 RMK AO2 SLP199 T00891017 55004
KMYR,2023-04-25T20:56:00Z,KMYR 252056Z 08007KT 040V140 10SM FEW120 20/11 A3010 RMK AO2 SLP192 T02000106 56009
KMYV,2023-04-25T20:53:00Z,KMYV 252053Z AUTO 32012G20KT 10SM CLR 28/03 A2988 RMK AO2 SLP122 T02830033 58015
KMYZ,2023-04-25T21:15:00Z,KMYZ 252115Z AUTO 14003KT 10SM OVC060 15/05 A3006 RMK AO2
KMZH,2023-04-25T21:15:00Z,KMZH 252115Z AUTO 03004KT 10SM SCT060 07/M07 A3026 RMK AO2
KMZZ,2023-04-25T21:15:00Z,KMZZ 252115Z AUTO 27008KT 10SM SCT055 SCT090 13/00 A3011 RMK AO2 T01280003
KN03,2023-04-25T21:15:00Z,KN03 252115Z AUTO 36005KT 10SM SCT050 BKN065 08/M01 A3016 RMK AO2
KN38,2023-04-25T21:15:00Z,KN38 252115Z AUTO 00000KT 10SM BKN070 BKN080 08/M06 A3013 RMK AO2
KN60,2023-04-25T20:52:00Z,KN60 252052Z AUTO 13009G15KT 12/M07 A3015 RMK AO1 SLP228 60001 T01171072 58010
KN79,2023-04-25T21:15:00Z,KN79 252115Z AUTO 00000KT 9SM CLR 12/M06 A3017 RMK AO2 T01161055
KNAK,2023-04-25T20:54:00Z,KNAK 252054Z AUTO 14008KT 10SM BKN080 14/03 A3019 RMK AO2 SLP223 T01390028 55004 $
KNBC,2023-04-25T20:56:00Z,KNBC 252056Z 08007G14KT 10SM OVC095 21/13 A3005 RMK AO2 SLP177 T02060133 58007
KNBG,2023-04-25T20:55:00Z,KNBG 252055Z 07006KT 10SM SCT029 SCT130 BKN250 25/17 A2994 RMK AO2 SLP138 T02500172 58016 $
KNBT,2023-04-25T20:51:00Z,KNBT 252051Z AUTO 07013KT 10SM CLR 22/09 A3013 RMK AO2 SLP208 T02170094 56008
KNCA,2023-04-25T20:56:00Z,KNCA 252056Z AUTO 13008G18KT 10SM OVC100 A3011 RMK AO2 SLP200 $
KNDZ,2023-04-25T20:56:00Z,KNDZ 252056Z VRB03KT 10SM SCT060 SCT100 BKN250 27/14 A2994 RMK AO2 SLP126 T02720139 58018 $
KNEL,2023-04-25T21:00:00Z,KNEL 252100Z AUTO 30008KT OVC070 14/M02 A3015 RMK AO2 SLP209 T01391022 56002 $
KNEW,2023-04-25T20:53:00Z,KNEW 252053Z 12009KT 10SM CLR 25/16 A2995 RMK AO2 SLP135 T02500161 58018
KNFE,2023-04-25T20:56:00Z,KNFE 252056Z AUTO 09009KT 10SM CLR 16/02 A3019 RMK AO2 SLP224 T01560017 55001
KNFG,2023-04-25T20:52:00Z,KNFG 252052Z 27007KT 10SM BKN016 OVC023 19/13 A2991 RMK AO2 SLP126 T01890133 58009
KNFL,2023-04-25T20:56:00Z,KNFL 252056Z VRB05G15KT 10SM SCT200 BKN240 16/M09 A3013 RMK AO2 SLP169 T01611094 56006
KNFW,2023-04-25T20:52:00Z,KNFW 252052Z 18014G17KT 7SM BKN033 BKN250 22/13 A2989 RMK AO2 SLP105 T02170133 58021 CHINO S VISNO S $
KNGP,2023-04-25T20:56:00Z,KNGP 252056Z 11014KT 10SM FEW015 BKN060 OVC090 27/22 A2983 RMK AO2 SLP100 T2 SET T02720222 58019
KNHK,2023-04-25T20:52:00Z,KNHK 252052Z COR 09008KT 10SM SCT075 SCT280 16/01 A3019 RMK AO2 SLP223 T01560011 56005 $
KNID,2023-04-25T20:56:00Z,KNID 252056Z AUTO 08007KT 10SM CLR 29/M06 A2988 RMK AO2 SLP102 T02891061 58015 $
KNIP,2023-04-25T20:53:00Z,KNIP 252053Z 08010KT 10SM SCT045 BKN070 BKN100 BKN250 24/16 A2995 RMK AO2 SLP137 CB DSNT W VCSH W T2 SET T02390161 58014
KNJK,2023-04-25T20:56:00Z,KNJK 252056Z 33005KT 10SM CLR 33/06 A2976 RMK AO2 SLP091 T03280061 58018 $
KNJM,2023-04-25T20:57:00Z,KNJM 252057Z AUTO 10012G19KT 8SM SCT120 22/06 A3013 RMK AO2 SLP205 T02220056 55006
KNJW,2023-04-25T20:57:00Z,KNJW 252057Z AUTO 00000KT 10SM CLR 22/06 A3005 RMK AO2 SLP090 T02170056 56018
KNKT,2023-04-25T20:56:00Z,KNKT 252056Z 05010G19KT 10SM CLR 19/07 A3014 RMK AO2 SLP203 T01940072 55005
KNKX,2023-04-25T20:55:00Z,KNKX 252055Z 26007KT 10SM BKN023 OVC029 17/12 A2990 RMK AO2 SLP122 T01720117 58007
KNLC,2023-04-25T20:56:00Z,KNLC 252056Z 36010G16KT 10SM BKN270 28/07 A2990 RMK AO2 SLP125 RH/26 T02780072 58014
KNMM,2023-04-25T20:56:00Z,KNMM 252056Z 08007KT 10SM BKN100 23/07 A3001 RMK AO2 SLP171 T02280067 58021
KNOW,2023-04-25T21:10:00Z,KNOW 252110Z AUTO 31006KT 10SM SCT027 11/07 A3029 RMK AO2 T01090071
KNOZ,2023-04-25T20:59:00Z,KNOZ 252059Z AUTO VRB06KT 10SM CLR 31/07 A2977 RMK AO2 SLP029 T03110067 58014
KNPA,2023-04-25T20:56:00Z,KNPA 252056Z 15009KT 10SM CLR 24/17 A2994 RMK AO2 SLP142 T02390167 58018 $
KNQA,2023-04-25T20:50:00Z,KNQA 252050Z 08004KT 10SM CLR 19/M03 A3006
KNQI,2023-04-25T20:56:00Z,KNQI 252056Z 12009KT 10SM SCT025 BKN044 27/21 A2982 RMK AO2 SLP093 T02670211 58020 $
KNQX,2023-04-25T20:53:00Z,KNQX 252053Z 18006KT 10SM BKN250 27/23 A2989 RMK AO2 SLP121 T02670233 56014 $
KNRB,2023-04-25T20:52:00Z,KNRB 252052Z 06013KT 10SM SCT040 BKN100 BKN250 24/19 A2997 RMK AO2 SLP146 T02440189 58012 $
KNRN,2023-04-25T21:15:00Z,KNRN 252115Z AUTO 14012G16KT 10SM OVC034 12/05 A3004 RMK AO2
KNRS,2023-04-25T20:53:00Z,KNRS 252053Z 25011KT 10SM SCT027 18/13 A2993 RMK AO2 SLP134 T01780128 58005
KNSE,2023-04-25T20:56:00Z,KNSE 252056Z 36004KT 10SM SCT055 SCT150 BKN250 27/14 A2994 RMK AO2 SLP126 T02720144 58018
KNSI,2023-04-25T21:22:00Z,KNSI 252122Z 34009KT 10SM SCT009 SCT012 15/11 A2992 RMK AO2 T01500111 $
KNTD,2023-04-25T20:55:00Z,KNTD 252055Z 26008KT 7SM FEW016 OVC021 18/14 A2992 RMK AO2 SLP133 T01780139 58007 $
KNTU,2023-04-25T20:56:00Z,KNTU 252056Z 09009KT 10SM FEW050 BKN180 14/02 A3019 RMK AO2 SLP224 T01390022 55003
KNUC,2023-04-25T20:56:00Z,KNUC 252056Z 26006KT 7SM SCT009 BKN014 BKN020 15/12 A2994 RMK AO2 SLP136 T01500122 58004 $
KNUI,2023-04-25T20:53:00Z,KNUI 252053Z AUTO 08007KT 10SM CLR 15/02 A3018 RMK AO2 SLP220 T01500017 56006
KNUQ,2023-04-25T21:15:00Z,KNUQ 252115Z AUTO 35010KT 10SM CLR 23/06 A2992 RMK AO2
KNUW,2023-04-25T20:53:00Z,KNUW 252053Z COR 28007KT 10SM SCT033 SCT120 BKN200 11/07 A3029 RMK AO2 SLP260 T01060067 58001 VISNO $
KNXF,2023-04-25T20:56:00Z,KNXF 252056Z AUTO 24007KT 9SM 17/14 A2991 RMK AO2 SLP213 T01720139 58007 $
KNXP,2023-04-25T20:56:00Z,KNXP 252056Z AUTO 36014G20KT 10SM CLR 29/01 A2992 RMK AO2 SLP097 T02890006 58011
KNY0,2023-04-25T21:14:00Z,KNY0 252114Z AUTO 29009KT 10SM OVC075 08/M02 A3017 RMK AO2
KNYC,2023-04-25T20:51:00Z,KNYC 252051Z AUTO VRB03KT 10SM BKN065 OVC085 15/M01 A3017 RMK AO2 SLP208 T01501011 55001 $
KNYG,2023-04-25T20:56:00Z,KNYG 252056Z 15005KT 9SM CLR 16/02 A3019 RMK AO2 SLP223 T01560022 58008
KNYL,2023-04-25T20:57:00Z,KNYL 252057Z VRB05KT 7SM CLR 31/07 A2975 RMK AO2 SLP071 T03060072
KNZY,2023-04-25T20:52:00Z,KNZY 252052Z 21009KT 10SM SCT028 18/13 A2991 RMK AO2 SLP127 T01780133 58007 $
KO05,2023-04-25T21:15:00Z,KO05 252115Z AUTO 11008KT 10SM CLR 14/M03 A3011 RMK A01
KO22,2023-04-25T21:15:00Z,KO22 252115Z AUTO 25005G10KT 10SM CLR 24/03 A2993 RMK A01
KO32,2023-04-25T21:15:00Z,KO32 252115Z AUTO VRB03KT 10SM CLR 26/11 A2989 RMK AO2 T02640108 $
KO69,2023-04-25T21:15:00Z,KO69 252115Z AUTO 8/44000008G14KT 10SM CLR 22/09 A2993 RMK A01
KO86,2023-04-25T21:15:00Z,KO86 252115Z AUTO VRB05G13KT 10SM 26/M08 A3000 RMK A01
KOAJ,2023-04-25T20:56:00Z,KOAJ 252056Z 12005KT 10SM BKN075 OVC100 20/03 A3012 RMK AO2 SLP202 T02000033 55009
KOAK,2023-04-25T20:53:00Z,KOAK 252053Z 26006KT 10SM SCT250 22/08 A2994 RMK AO2 SLP136 T02220083 58018
KOAR,2023-04-25T21:15:00Z,KOAR 252115Z AUTO 28010KT 7SM CLR 13/09 A2995 RMK AO2 PWINO
KOBE,2023-04-25T21:15:00Z,KOBE 252115Z AUTO 15006KT 10SM CLR 28/22 A2985 RMK AO2
KOCF,2023-04-25T20:51:00Z,KOCF 252051Z 09009G16KT 10SM BKN060 24/20 A2993 RMK AO2 LTG DSNT N AND SE TSE22 SLP136 60016 T02440200 50000 $
KOCH,2023-04-25T20:56:00Z,KOCH 252056Z AUTO 10008KT 9SM OVC070 20/14 A2995 RMK AO2 SLP144 T02000139 58025 PWINO $
KOCQ,2023-04-25T20:55:00Z,KOCQ 252055Z AUTO 08004KT 10SM OVC060 06/M01 A3022 RMK AO1 T00601015
KOCW,2023-04-25T21:05:00Z,KOCW 252105Z AUTO 08003KT 10SM OVC065 19/05 A3014 RMK AO2 T01870050
KODO,2023-04-25T20:53:00Z,KODO 252053Z AUTO 27007KT 10SM CLR 28/03 A2979 RMK AO2 SLP050 T02780033 56023
KODX,2023-04-25T20:53:00Z,KODX 252053Z AUTO 16009KT 10SM BKN050 16/03 A3004 RMK AO2 SLP181 T01560028 55003
KOEB,2023-04-25T21:15:00Z,KOEB 252115Z AUTO 35006KT 7SM OVC017 06/03 A3015 RMK AO2 T00560025
KOEL,2023-04-25T21:15:00Z,KOEL 252115Z AUTO 13014KT 4SM BR SCT006 OVC011 08/07 A2997 RMK AO1 T00830065
KOEO,2023-04-25T21:15:00Z,KOEO 252115Z AUTO 03012G15KT 10SM SCT055 09/M01 A3028 RMK AO2 T00911015
KOFK,2023-04-25T20:56:00Z,KOFK 252056Z AUTO 11010G20KT 10SM CLR 17/00 A3007 RMK AO2 SLP185 T01720000 56007
KOFP,2023-04-25T20:54:00Z,KOFP 252054Z AUTO 36003KT 10SM BKN070 17/02 A3018 RMK AO2 SLP220 T01670017 56008
KOGA,2023-04-25T21:15:00Z,KOGA 252115Z AUTO 13013KT 10SM BKN040 OVC046 13/04 A2998 RMK AO2 T01290042
KOGB,2023-04-25T20:53:00Z,KOGB 252053Z AUTO 04007KT 10SM FEW032 SCT055 OVC075 19/13 A3007 RMK AO2 RAB26E50 SLP180 P0002 60002 T01940128 55007
KOGD,2023-04-25T20:55:00Z,KOGD 252055Z 32003KT 10SM OVC055 07/01 A3009
KOGS,2023-04-25T21:15:00Z,KOGS 252115Z AUTO 21009G15KT 10SM SCT060 11/M04 A3013 RMK AO2
KOIC,2023-04-25T21:15:00Z,KOIC 252115Z AUTO 00000KT 10SM OVC080 08/M03 A3019 RMK AO2 T00791026
KOIN,2023-04-25T21:15:00Z,KOIN 252115Z AUTO 13012KT 10SM BKN028 OVC034 11/06 A3004 RMK AO1 T01140064
KOJA,2023-04-25T21:15:00Z,KOJA 252115Z AUTO 09009KT 5SM -RA BR OVC005 10/10 A2993 RMK AO2 T01040096
KOJC,2023-04-25T20:53:00Z,KOJC 252053Z 12011KT 10SM SCT070 18/02 A3005 RMK AO2 SLP172 T01780022 56013
KOKB,2023-04-25T20:52:00Z,KOKB 252052Z AUTO 26007KT 10SM FEW016 OVC027 18/13 A2990 RMK AO2 SLP125 T01780128 56007
KOKC,2023-04-25T20:52:00Z,KOKC 252052Z 12010KT 10SM OVC013 10/08 A2996 RMK AO2 SLP143 T01000083 56005
KOKK,2023-04-25T20:56:00Z,KOKK 252056Z AUTO 25010KT 10SM BKN080 BKN090 14/01 A3011 RMK AO2 SLP197 6//// T01390006 58008 PNO $
KOKM,2023-04-25T21:15:00Z,KOKM 252115Z AUTO 11010KT 5SM -RA OVC008 10/10 A3003 RMK AO2 P0002 T00960096
KOKV,2023-04-25T21:15:00Z,KOKV 252115Z AUTO 12004KT 10SM CLR 13/M02 A3015 RMK AO2
KOKZ,2023-04-25T21:15:00Z,KOKZ 252115Z AUTO 01005KT 10SM BKN080 OVC095 24/12 A3001 RMK AO2 T02430117
KOLE,2023-04-25T20:55:00Z,KOLE 252055Z AUTO 26003KT 10SM SCT060 OVC075 07/M06 A3012 RMK AO2
KOLF,2023-04-25T20:53:00Z,KOLF 252053Z AUTO 15010KT 10SM FEW110 17/00 A3001 RMK AO2 SLP170 T01670000 56015
KOLG,2023-04-25T21:15:00Z,KOLG 252115Z AUTO 04007KT 10SM SCT042 OVC050 05/M06 A3027 RMK AO1
KOLM,2023-04-25T20:54:00Z,KOLM 252054Z 08006KT 10SM FEW036 14/06 A3025 RMK AO2 SLP246 T01390056 58007
KOLS,2023-04-25T20:54:00Z,KOLS 252054Z AUTO 28010G19KT 10SM CLR 28/M06 A2991 RMK AO2 SLP067 T02781061 56013
KOLU,2023-04-25T20:56:00Z,KOLU 252056Z AUTO 11010KT 10SM BKN055 17/03 A3007 RMK AO2 SLP187 6//// T01720028 56007
KOLV,2023-04-25T20:50:00Z,KOLV 252050Z 15005KT 10SM CLR 20/M03 A3006
KOLY,2023-04-25T21:10:00Z,KOLY 252110Z AUTO 27006KT 10SM SCT065 19/01 A3009 RMK AO2 T01900014 PWINO
KOLZ,2023-04-25T21:15:00Z,KOLZ 252115Z AUTO 05006G12KT 020V080 10SM FEW060 11/M03 A3017 RMK A01
KOMA,2023-04-25T20:52:00Z,KOMA 252052Z 08008KT 10SM FEW060 SCT250 17/03 A3008 RMK AO2 SLP185 T01720028 58011
KOMH,2023-04-25T21:15:00Z,KOMH 252115Z AUTO 19006KT 10SM SCT075 15/00 A3018 RMK AO2
KOMK,2023-04-25T20:53:00Z,KOMK 252053Z AUTO 19009KT 10SM CLR 18/00 A3010 RMK AO2 SLP194 T01830000 57017
KOMN,2023-04-25T20:50:00Z,KOMN 252050Z 07010KT 7SM SCT023 23/20 A2994
KONA,2023-04-25T21:15:00Z,KONA 252115Z AUTO 12003KT 10SM SCT065 10/M05 A3022 RMK AO2
KONL,2023-04-25T21:15:00Z,KONL 252115Z AUTO 11011G16KT 10SM SCT050 16/00 A3007 RMK AO2 T01590003
KONM,2023-04-25T21:15:00Z,KONM 252115Z AUTO 16013G18KT 10SM CLR 26/M09 A2975 RMK AO2 T02601087
KONO,2023-04-25T20:53:00Z,KONO 252053Z AUTO 28014G20KT 10SM CLR 18/01 A3012 RMK AO2 SLP201 T01830006 58013
KONP,2023-04-25T21:20:00Z,KONP 252120Z AUTO 33016G21KT 10SM CLR 12/07 A3022 RMK AO2
KONT,2023-04-25T20:53:00Z,KONT 252053Z 24007KT 10SM FEW250 19/12 A2989 RMK AO2 SLP115 T01940117 58011
KONX,2023-04-25T21:05:00Z,KONX 252105Z AUTO 06006KT CLR 15/04 A3019 RMK AO2 T01450036 PWINO
KONZ,2023-04-25T21:15:00Z,KONZ 252115Z AUTO 30005KT 10SM OVC012 06/05 A3016 RMK AO2 T00600054 P0001
KOOA,2023-04-25T21:15:00Z,KOOA 252115Z AUTO 09005KT 10SM BKN080 16/01 A3011 RMK AO2 T01590005
KOPF,2023-04-25T20:53:00Z,KOPF 252053Z 16013KT 10SM SCT043 SCT050 28/20 A2988 RMK AO2 SLP118 60000 T02830200 56018
KOPL,2023-04-25T21:15:00Z,KOPL 252115Z AUTO 02009KT 10SM SCT100 22/16 A2994 RMK AO2 T02230159
KOPN,2023-04-25T21:15:00Z,KOPN 252115Z AUTO 00000KT 10SM SCT055 SCT075 SCT085 22/05 A3002 RMK AO2
KOQN,2023-04-25T21:15:00Z,KOQN 252115Z AUTO 31004KT 10SM SCT075 13/M05 A3018 RMK AO2
KOQT,2023-04-25T20:53:00Z,KOQT 252053Z AUTO VRB04KT 10SM CLR 18/M02 A3010 RMK AO2 SLP194 T01831017 56015
KOQU,2023-04-25T20:50:00Z,KOQU 252050Z AUTO 18017KT 10SM SCT065 SCT085 15/05 A3014
KORB,2023-04-25T21:13:00Z,KORB 252113Z AUTO 09005KT 10SM BKN060 07/M08 A3026 RMK AO2
KORD,2023-04-25T20:51:00Z,KORD 252051Z 03014G19KT 10SM SCT023 BKN039 07/00 A3018 RMK AO2 SLP224 T00720000 50006 $
KORE,2023-04-25T20:52:00Z,KORE 252052Z AUTO 30006KT 10SM BKN080 12/01 A3015 RMK AO2 SLP212 60000 T01170006 53002
KORF,2023-04-25T20:51:00Z,KORF 252051Z 05008G16KT 10SM CLR 15/02 A3018 RMK AO2 SLP218 T01500017 56005
KORG,2023-04-25T21:15:00Z,KORG 252115Z AUTO 07009KT 10SM SCT030 BKN075 25/16 A2993 RMK AO2 T02460159
KORH,2023-04-25T20:54:00Z,KORH 252054Z 25008KT 10SM BKN075 OVC090 12/M01 A3012 RMK AO2 SLP205 T01221011 53004
KORK,2023-04-25T21:15:00Z,KORK 252115Z AUTO 10008KT 10SM FEW110 16/06 A3004 RMK AO2
KORL,2023-04-25T20:53:00Z,KORL 252053Z 07016KT 10SM SCT031 26/19 A2990 RMK AO2 LTG DSNT W AND NW SLP130 T02560189 58010
KORS,2023-04-25T21:15:00Z,KORS 252115Z AUTO 36005KT 10SM FEW031 12/06 A3027 RMK AO2
KOSA,2023-04-25T21:15:00Z,KOSA 252115Z AUTO 07007KT 10SM OVC065 18/12 A2996 RMK AO2 T01790116
KOSC,2023-04-25T21:15:00Z,KOSC 252115Z AUTO 07008KT 10SM BKN055 BKN065 BKN080 06/M01 A3015 RMK AO2 T00621010
KOSH,2023-04-25T20:53:00Z,KOSH 252053Z 07008KT 10SM SCT050 OVC060 08/M03 A3020 RMK AO2 SLP234 T00781028 56005
KOSU,2023-04-25T20:53:00Z,KOSU 252053Z 21006KT 10SM OVC070 13/M03 A3013 RMK AO2 SLP206 T01331028 57015
KOTG,2023-04-25T20:56:00Z,KOTG 252056Z AUTO 07006G15KT 10SM CLR 10/M07 A3019 RMK AO2 SLP238 6//// T01001072 56004 PNO $
KOTH,2023-04-25T20:56:00Z,KOTH 252056Z 35021KT 10SM CLR 13/09 A3016 RMK AO2 PK WND 35026/2018 SLP214 T01330089 58015
KOTM,2023-04-25T20:53:00Z,KOTM 252053Z AUTO VRB04KT 10SM SCT050 14/03 A3011 RMK AO2 SLP198 T01440033 58007
KOUN,2023-04-25T20:45:00Z,KOUN 252045Z 09011G17KT 10SM OVC012 11/08 A2995
KOVE,2023-04-25T20:53:00Z,KOVE 252053Z AUTO 30011G19KT 10SM CLR 28/04 A2990 RMK AO2 SLP125 T02830044 56016
KOVL,2023-04-25T21:15:00Z,KOVL 252115Z AUTO 05011KT 10SM CLR 09/M05 A3022 RMK AO2
KOVS,2023-04-25T20:53:00Z,KOVS 252053Z AUTO VRB04KT 10SM BKN060 12/M03 A3021 RMK AO2 SLP233 T01171028 58003
KOWA,2023-04-25T21:13:00Z,KOWA 252113Z AUTO 03006KT 10SM CLR 10/M05 A3020 RMK AO2
KOWB,2023-04-25T20:56:00Z,KOWB 252056Z 00000KT 10SM CLR 18/01 A3011 RMK AO2 SLP197 T01830006 56018
KOWD,2023-04-25T20:53:00Z,KOWD 252053Z 09005KT 10SM SCT043 BKN065 OVC085 14/05 A3013 RMK AO2 SLP204 T01390050 53008
KOWI,2023-04-25T21:15:00Z,KOWI 252115Z AUTO 14009G15KT 110V170 10SM FEW075 21/02 A3002 RMK AO2 PWINO
KOWP,2023-04-25T20:35:00Z,KOWP 252035Z AUTO 13008KT 5SM VCTS SCT010 SCT025 BKN035 12/10 A3006 RMK AO2 LTG DSNT W P0002 T01150103
KOWX,2023-04-25T21:15:00Z,KOWX 252115Z AUTO 01010KT 7SM OVC050 10/03 A3013 RMK AO1
KOXC,2023-04-25T20:51:00Z,KOXC 252051Z COR 00000KT 10SM BKN085 12/M01 A3015 RMK AO2 SLP224 T01221011 53001 $
KOXD,2023-04-25T21:15:00Z,KOXD 252115Z AUTO 00000KT 10SM SCT060 SCT070 OVC090 16/M06 A3012 RMK AO2 T01561057
KOXI,2023-04-25T21:15:00Z,KOXI 252115Z AUTO 04011G16KT 10SM SCT027 BKN031 OVC038 10/02 A3014 RMK AO1
KOXR,2023-04-25T20:51:00Z,KOXR 252051Z 26009KT 9SM OVC018 17/14 A2991 RMK AO2 SLP129 T01720139 58007
KOXV,2023-04-25T21:15:00Z,KOXV 252115Z AUTO VRB03G11KT 10SM SCT080 15/M00 A3011 RMK AO2
KOYM,2023-04-25T21:15:00Z,KOYM 252115Z AUTO 26004KT 10SM OVC065 09/M05 A3017 RMK AO2 PWINO
KOZA,2023-04-25T21:15:00Z,KOZA 252115Z AUTO 21009G19KT 10SM CLR 26/09 A2983 RMK AO2
KOZR,2023-04-25T20:55:00Z,KOZR 252055Z AUTO 32003KT 10SM CLR 26/12 A2995 RMK AO2 SLP143 T02610118 58015
KOZS,2023-04-25T21:15:00Z,KOZS 252115Z AUTO 13005KT 10SM SCT080 18/00 A3006 RMK AO2
KOZW,2023-04-25T21:15:00Z,KOZW 252115Z AUTO 00000KT 10SM SCT020 BKN026 06/02 A3016 RMK AO2 T00570016
KP08,2023-04-25T21:15:00Z,KP08 252115Z AUTO 25011KT 10SM CLR 32/00 A2976 RMK AO2
KP28,2023-04-25T20:56:00Z,KP28 252056Z AUTO 13013G20KT 09/08 A2998 RMK AO1 SLP153 60024 T00890083 56008 $
KP52,2023-04-25T21:15:00Z,KP52 252115Z AUTO 28014G22KT 10SM BKN110 27/M03 A2979 RMK AO2
KP53,2023-04-25T20:56:00Z,KP53 252056Z AUTO 34012G24KT 01/M03 A3025 RMK AO1 SLP251 T00111028 51005
KP58,2023-04-25T20:55:00Z,KP58 252055Z AUTO 12011KT 05/02 A3015 RMK AO1 SLP218 T00500017 53005
KP59,2023-04-25T20:51:00Z,KP59 252051Z AUTO 04006KT 03/M03 A3028 RMK AO1 SLP262 T00281028 50003
KP60,2023-04-25T20:56:00Z,KP60 252056Z AUTO 00000KT 08/M06 A3006 RMK AO1 SLP151 T00831061 51008
KP68,2023-04-25T20:53:00Z,KP68 252053Z AUTO 35007KT 13/M08 A3011 RMK AO1 SLP166 T01281078 58007
KP69,2023-04-25T20:52:00Z,KP69 252052Z AUTO 00000KT 16/03 A3016 RMK AO1 SLP214 T01610033 56011
KPAE,2023-04-25T20:53:00Z,KPAE 252053Z 27009KT 10SM CLR 12/05 A3027 RMK AO2 SLP251 T01170050 58005
KPAH,2023-04-25T20:53:00Z,KPAH 252053Z 09003KT 10SM CLR 21/M01 A3009 RMK AO2 SLP188 T02061011 56015
KPAM,2023-04-25T20:55:00Z,KPAM 252055Z AUTO 27008KT 10SM CLR 25/18 A2994 RMK AO2 SLP142 T02450179 58007 $
KPAN,2023-04-25T21:15:00Z,KPAN 252115Z AUTO 22019KT 10SM FEW080 21/M01 A2992 RMK AO2 PWINO TSNO
KPAO,2023-04-25T20:47:00Z,KPAO 252047Z 01008KT 10SM FEW200 21/12 A2993
KPBF,2023-04-25T20:53:00Z,KPBF 252053Z AUTO 06009KT 10SM FEW060 BKN090 OVC100 16/07 A3006 RMK AO2 SLP178 60002 T01610072 58017
KPBG,2023-04-25T20:53:00Z,KPBG 252053Z AUTO 09005KT 10SM FEW050 BKN085 09/01 A3015 RMK AO2 SLP212 60001 T00940011 55002
KPBH,2023-04-25T21:15:00Z,KPBH 252115Z AUTO 02007KT 10SM OVC048 04/M05 A3024 RMK AO2 T00371052
KPBI,2023-04-25T20:53:00Z,KPBI 252053Z 16010KT 10SM SCT050 SCT075 BKN100 28/21 A2987 RMK AO2 SLP115 CB DSNT N-NE T02830206 58016
KPBX,2023-04-25T21:15:00Z,KPBX 252115Z AUTO 00000KT 10SM CLR 16/M04 A3013 RMK AO2 T01551041
KPCD,2023-04-25T21:15:00Z,KPCD 252115Z AUTO 04004KT 10SM CLR 20/04 A3007 RMK AO2 T02030039
KPCM,2023-04-25T21:15:00Z,KPCM 252115Z AUTO 00000KT 10SM -RA SCT035 BKN075 OVC110 24/21 A2992 RMK AO2 P0001
KPCW,2023-04-25T21:15:00Z,KPCW 252115Z AUTO 05008KT 4SM -RA BKN026 BKN033 06/06 A3015 RMK AO2
KPCZ,2023-04-25T21:15:00Z,KPCZ 252115Z AUTO 01005KT 10SM BKN055 OVC065 09/M05 A3021 RMK AO2 T00901053
KPDC,2023-04-25T21:15:00Z,KPDC 252115Z AUTO 22005KT 10SM SCT050 10/M02 A3020 RMK AO2 T00971016
KPDK,2023-04-25T20:53:00Z,KPDK 252053Z 23004KT 10SM SCT065 BKN080 20/08 A3004 RMK AO2 SLP170 T02000083 58012
KPDT,2023-04-25T20:53:00Z,KPDT 252053Z AUTO 00000KT 10SM CLR 17/04 A3015 RMK AO2 SLP206 T01670039 58022
KPDX,2023-04-25T20:53:00Z,KPDX 252053Z 27008KT 10SM FEW020 BKN250 16/04 A3022 RMK AO2 SLP232 T01610039 56015
KPEA,2023-04-25T21:15:00Z,KPEA 252115Z AUTO 04006KT 10SM BKN075 BKN090 15/00 A3011 RMK AO2 T01521001
KPEO,2023-04-25T20:53:00Z,KPEO 252053Z AUTO VRB05KT 10SM BKN060 OVC075 08/02 A3017 RMK AO2 SLP222 60000 T00830017 58002
KPEQ,2023-04-25T21:15:00Z,KPEQ 252115Z AUTO 10003KT 10SM CLR 30/01 A2975 RMK AO2 T02960010
KPEX,2023-04-25T21:15:00Z,KPEX 252115Z AUTO 09004KT 10SM SCT055 09/M06 A3025 RMK AO2
KPEZ,2023-04-25T21:15:00Z,KPEZ 252115Z AUTO 16014G18KT 10SM SCT034 BKN043 BKN048 27/19 A2981 RMK AO2 T02740185
KPGA,2023-04-25T20:53:00Z,KPGA 252053Z AUTO 31011G19KT 10SM CLR 19/M09 A2990 RMK AO2 SLP077 T01941089 58003
KPGD,2023-04-25T20:53:00Z,KPGD 252053Z 25015G23KT 10SM CLR 29/21 A2989 RMK AO2 LTG DSNT N SLP119 T02890206 58013
KPGV,2023-04-25T21:05:00Z,KPGV 252105Z AUTO 06004KT 10SM OVC070 20/02 A3013 RMK AO2
KPHD,2023-04-25T20:53:00Z,KPHD 252053Z AUTO 22007KT 10SM OVC075 13/M04 A3015 RMK AO2 SLP214 T01281039 56009
KPHF,2023-04-25T20:54:00Z,KPHF 252054Z 07009KT 10SM CLR 14/03 A3019 RMK AO2 SLP221 T01390033 56006
KPHL,2023-04-25T20:54:00Z,KPHL 252054Z VRB03KT 10SM BKN075 BKN240 BKN300 13/M03 A3018 RMK AO2 SLP219 T01331028 55003
KPHN,2023-04-25T21:07:00Z,KPHN 252107Z AUTO 18006KT 10SM BKN020 BKN075 OVC090 07/01 A3016 RMK AO2
KPHP,2023-04-25T20:55:00Z,KPHP 252055Z AUTO 09019KT 10SM SCT060 13/M01 A3009 RMK AO2 PK WND 08028/2027 SLP194 T01281006 56004
KPHT,2023-04-25T21:15:00Z,KPHT 252115Z AUTO 05010KT 10SM CLR 20/00 A3007 RMK A01
KPHX,2023-04-25T20:51:00Z,KPHX 252051Z 25009G22KT 10SM FEW120 32/04 A2974 RMK AO2 SLP053 T03220039 58021
KPIB,2023-04-25T20:56:00Z,KPIB 252056Z AUTO 09004KT 10SM CLR 25/10 A2999 RMK AO2 SLP153 6//// T02500100 58022
KPIH,2023-04-25T20:53:00Z,KPIH 252053Z 30011KT 10SM BKN055 13/01 A3007 RMK AO2 SLP175 T01330011 56002
KPIL,2023-04-25T20:53:00Z,KPIL 252053Z AUTO 09012KT 10SM BKN048 BKN080 26/23 A2980 RMK AO2 SLP092 T02560228 58013
KPIM,2023-04-25T21:15:00Z,KPIM 252115Z AUTO 34005KT 10SM SCT060 24/08 A3001 RMK AO2 T02420075
KPIR,2023-04-25T20:53:00Z,KPIR 252053Z AUTO 11012KT 10SM OVC100 08/02 A3013 RMK AO2 SLP214 60000 T00780017 58003
KPIT,2023-04-25T20:51:00Z,KPIT 252051Z 15006KT 10SM FEW070 BKN110 BKN250 12/M06 A3013 RMK AO2 SLP217 T01171056 56015
KPJC,2023-04-25T21:15:00Z,KPJC 252115Z AUTO 00000KT 10SM BKN070 BKN120 12/M04 A3014 RMK AO2
KPKB,2023-04-25T20:53:00Z,KPKB 252053Z 26006KT 10SM SCT085 15/M06 A3013 RMK AO2 SLP206 T01501056 56016
KPKD,2023-04-25T20:53:00Z,KPKD 252053Z AUTO VRB04KT 10SM FEW065 08/M08 A3024 RMK AO2 SLP260 T00781083 58008
KPKV,2023-04-25T21:15:00Z,KPKV 252115Z AUTO 12014KT 10SM SCT055 SCT080 26/21 A2986 RMK AO2 T02550210
KPLN,2023-04-25T20:54:00Z,KPLN 252054Z AUTO 33012KT 10SM OVC034 06/M02 A3018 RMK AO2 SLP228 60000 T00611022 53005
KPLR,2023-04-25T21:15:00Z,KPLR 252115Z AUTO 05006KT 10SM CLR 22/04 A3004 RMK A01
KPLU,2023-04-25T21:15:00Z,KPLU 252115Z AUTO 00000KT 10SM BKN034 14/05 A3025 RMK AO2
KPMD,2023-04-25T20:53:00Z,KPMD 252053Z VRB03G16KT 10SM CLR 28/M05 A2990 RMK AO2 SLP101 T02781050 58012
KPMH,2023-04-25T21:15:00Z,KPMH 252115Z AUTO 17004KT 10SM SCT095 SCT120 17/M07 A3013 RMK AO2 T01651069
KPMP,2023-04-25T21:20:00Z,KPMP 252120Z 17010G19KT 10SM SCT050 SCT060 28/21 A2987 RMK AO2 WSHFT 2106 T02780206
KPMU,2023-04-25T21:10:00Z,KPMU 252110Z AUTO 00000KT 10SM CLR 17/05 A3007 RMK AO2
KPMV,2023-04-25T21:15:00Z,KPMV 252115Z AUTO 12007KT 10SM OVC060 17/04 A3006 RMK AO2 T01650037
KPNA,2023-04-25T21:15:00Z,KPNA 252115Z AUTO 10008KT 10SM SCT060 05/01 A3001 RMK AO2
KPNC,2023-04-25T20:53:00Z,KPNC 252053Z AUTO 12007KT 3SM RA BR FEW009 OVC020 10/08 A3004 RMK AO2 SLP171 6//// T01000083 53002 PNO $
KPNE,2023-04-25T20:54:00Z,KPNE 252054Z 32008KT 10SM SCT070 15/M02 A3018 RMK AO2 SLP220 T01501017 55002
KPNM,2023-04-25T21:15:00Z,KPNM 252115Z AUTO 04003G10KT 10SM SCT055 09/M07 A3026 RMK AO2
KPNS,2023-04-25T20:53:00Z,KPNS 252053Z 17010KT 10SM CLR 26/17 A2995 RMK AO2 SLP142 T02610167 58017
KPNT,2023-04-25T21:15:00Z,KPNT 252115Z AUTO 36011G18KT 10SM SCT060 BKN070 13/02 A3014 RMK AO2 T01310021
KPO1,2023-04-25T21:20:00Z,KPO1 252120Z AUTO 17017G22KT 10SM CLR 16/01 A3002 RMK AO2
KPOB,2023-04-25T20:55:00Z,KPOB 252055Z AUTO 07004KT 10SM SCT080 OVC120 19/05 A3010 RMK AO2 SLP196 T01920053 57009 $
KPOC,2023-04-25T20:47:00Z,KPOC 252047Z 27006KT 10SM CLR 20/12 A2991
KPOE,2023-04-25T20:55:00Z,KPOE 252055Z AUTO 12007KT 9SM SCT100 23/13 A2993 RMK AO2 SLP136 T02300126 58021
KPOF,2023-04-25T20:53:00Z,KPOF 252053Z AUTO 10003KT 10SM CLR 19/00 A3009 RMK AO2 SLP189 T01890000 56016
KPOU,2023-04-25T20:53:00Z,KPOU 252053Z 02004KT 10SM FEW060 13/01 RMK AO2 SLPNO T01330011 $
KPOV,2023-04-25T21:15:00Z,KPOV 252115Z AUTO 00000KT 10SM SCT037 BKN050 OVC055 09/M03 A3014 RMK AO2 T00901032 PWINO
KPOY,2023-04-25T21:15:00Z,KPOY 252115Z AUTO 33019G28KT 10SM CLR 15/M05 A2996 RMK AO2
KPPA,2023-04-25T21:15:00Z,KPPA 252115Z AUTO 15015G20KT 10SM 21/11 A2981 RMK AO2 T02100110
KPPF,2023-04-25T20:52:00Z,KPPF 252052Z AUTO 15003KT 10SM BKN048 OVC055 16/06 A3005 RMK AO2 SLP174 T01610056 58009
KPPO,2023-04-25T21:15:00Z,KPPO 252115Z AUTO 35010G14KT 10SM BKN022 08/05 A3016 RMK AO2 T00810048
KPPQ,2023-04-25T21:15:00Z,KPPQ 252115Z AUTO 34007KT 10SM BKN110 18/06 A3009 RMK AO2 T01770058
KPQI,2023-04-25T20:56:00Z,KPQI 252056Z AUTO 16007KT 10SM OVC027 09/03 A3022 RMK AO2 SLP264 T00890033 55003
KPQL,2023-04-25T20:53:00Z,KPQL 252053Z VRB05KT 10SM CLR 26/17 A2995 RMK AO2 SLP143 T02560172 $
KPRB,2023-04-25T20:53:00Z,KPRB 252053Z AUTO VRB04KT 10SM CLR 25/05 A2991 RMK AO2 SLP125 6//// T02500050 58016
KPRC,2023-04-25T20:53:00Z,KPRC 252053Z 24020G31KT 10SM FEW080 23/M02 A2991 RMK AO2 PK WND 25029/2039 SLP056 T02281022 58008
KPRG,2023-04-25T21:15:00Z,KPRG 252115Z AUTO 00000KT 10SM SCT110 16/05 A3011 RMK AO2 T01550047
KPRN,2023-04-25T20:58:00Z,KPRN 252058Z AUTO 03003KT 10SM CLR 24/09 A2998 RMK AO2 SLP098 T02390094 58015
KPRO,2023-04-25T21:15:00Z,KPRO 252115Z AUTO 06006KT 10SM CLR 16/M02 A3011 RMK AO2 T01611025
KPRS,2023-04-25T21:15:00Z,KPRS 252115Z AUTO 26008KT 10SM CLR 31/02 A2981 RMK AO2 T03050015
KPRX,2023-04-25T20:56:00Z,KPRX 252056Z AUTO 08011KT 10SM -RA BKN047 OVC060 14/10 A2998 RMK AO2 RAB56 SLP150 P0000 60000 T01440100 58016
KPSC,2023-04-25T20:53:00Z,KPSC 252053Z 20013KT 10SM CLR 19/02 A3015 RMK AO2 SLP208 T01940017 58021
KPSF,2023-04-25T20:54:00Z,KPSF 252054Z AUTO 31009KT 10SM SCT043 BKN085 09/M01 A3013 RMK AO2 SLP206 T00941011 53006
KPSK,2023-04-25T21:15:00Z,KPSK 252115Z AUTO 08003KT 10SM BKN110 13/M01 A3013 RMK AO2 T01311010
KPSM,2023-04-25T20:55:00Z,KPSM 252055Z 05010KT 10SM BKN015 BKN080 10/06 A3016 RMK AO2A SLP216 T01030059 53008
KPSN,2023-04-25T21:15:00Z,KPSN 252115Z AUTO 12007KT 10SM OVC070 21/15 A2989 RMK AO2
KPSO,2023-04-25T21:15:00Z,KPSO 252115Z AUTO 27020G27KT 10SM CLR 12/M08 A2982 RMK AO2 T01241084
KPSP,2023-04-25T20:53:00Z,KPSP 252053Z VRB05KT 10SM CLR 36/M03 A2976 RMK AO2 WSHFT 2005 SLP073 T03561033 56019
KPSX,2023-04-25T21:23:00Z,KPSX 252123Z AUTO 11012KT 10SM BKN022 BKN027 25/20 A2985 RMK AO2 T02500200
KPTB,2023-04-25T21:15:00Z,KPTB 252115Z AUTO 00000KT 10SM CLR 16/04 A3017 RMK AO2 T01590036
KPTD,2023-04-25T21:15:00Z,KPTD 252115Z AUTO 22008G16KT 10SM FEW055 FEW065 FEW080 10/M03 A3015 RMK AO2
KPTK,2023-04-25T21:22:00Z,KPTK 252122Z 18005KT 10SM FEW007 BKN013 OVC021 05/02 A3015 RMK AO2 T00500017
KPTS,2023-04-25T21:15:00Z,KPTS 252115Z AUTO 12006KT 10SM OVC050 16/06 A3003 RMK AO2 T01630058 PWINO
KPTT,2023-04-25T21:15:00Z,KPTT 252115Z AUTO 13011G16KT 10SM OVC011 09/09 A2999 RMK AO2 T00930090
KPTV,2023-04-25T20:56:00Z,KPTV 252056Z AUTO 27006KT 10SM CLR 26/09 A2991 RMK AO2 SLPNO T02610089 58017
KPTW,2023-04-25T20:54:00Z,KPTW 252054Z AUTO VRB03KT 10SM CLR 13/M06 A3018 RMK AO2 SLP220 T01281056 55004
KPUB,2023-04-25T21:15:00Z,KPUB 252115Z 35017KT 1 1/2SM R08R/5000VP6000FT +TSRA BKN020 BKN028 OVC048 08/05 A2987 RMK AO2 LTG DSNT SE AND SW TSB04 P0004 T00830050
KPUJ,2023-04-25T21:15:00Z,KPUJ 252115Z AUTO 30003KT 10SM BKN070 OVC095 21/04 A3004 RMK AO2
KPUW,2023-04-25T20:53:00Z,KPUW 252053Z AUTO 00000KT 10SM FEW048 13/02 A3018 RMK AO2 SLP223 T01280017 58010
KPVB,2023-04-25T21:15:00Z,KPVB 252115Z AUTO 03004KT 10SM OVC050 09/M05 A3019 RMK AO1 T00851050
KPVC,2023-04-25T20:56:00Z,KPVC 252056Z AUTO 07007KT 10SM CLR 12/08 A3016 RMK AO2 SLP213 T01170078 53002
KPVD,2023-04-25T20:51:00Z,KPVD 252051Z 17007KT 10SM BKN085 14/03 A3013 RMK AO2 SLP203 T01440028 51002
KPVE,2023-04-25T21:15:00Z,KPVE 252115Z AUTO 07007G13KT 040V110 10SM CLR 20/M07 A3006 RMK A01
KPVF,2023-04-25T21:15:00Z,KPVF 252115Z AUTO 29010KT 10SM CLR 22/04 A2996 RMK AO1
KPVG,2023-04-25T20:56:00Z,KPVG 252056Z AUTO 10SM CLR 17/02 A3018 RMK AO2 SLP221 T01670017 56005 $
KPVJ,2023-04-25T21:15:00Z,KPVJ 252115Z AUTO 11011G16KT 10SM BKN028 BKN100 15/08 A2991 RMK AO2 T01540084
KPVU,2023-04-25T20:56:00Z,KPVU 252056Z 32013KT 10SM OVC047 07/01 A3010 RMK AO2 SLP190 T00670006 53011
KPVW,2023-04-25T21:15:00Z,KPVW 252115Z AUTO 19012G17KT 10SM CLR 21/08 A2979 RMK AO2 T02100080
KPWA,2023-04-25T20:53:00Z,KPWA 252053Z 13009KT 10SM -RA OVC012 10/08 A2996 RMK AO2 RAB17 SLP142 P0002 60002 T01000078 56004
KPWC,2023-04-25T21:15:00Z,KPWC 252115Z AUTO 01003KT 10SM SCT060 07/M06 A3028 RMK AO2
KPWD,2023-04-25T21:15:00Z,KPWD 252115Z AUTO 17014G21KT 10SM CLR 14/M03 A3005 RMK AO2
KPWG,2023-04-25T20:56:00Z,KPWG 252056Z AUTO 13008KT 10SM OVC023 22/17 A2989 RMK AO2 SLP118 T02170167 58019
KPWK,2023-04-25T20:52:00Z,KPWK 252052Z 05009G18KT 10SM FEW029 07/M01 A3021 RMK AO2 SLP234 T00721006 50005
KPWM,2023-04-25T20:51:00Z,KPWM 252051Z 09013KT 3/4SM BR OVC005 06/06 A3020 RMK AO2 SLP228 T00610056 53006
KPWT,2023-04-25T20:56:00Z,KPWT 252056Z AUTO VRB03KT 10SM FEW033 13/06 A3027 RMK AO2 SLP255 T01280061 58005
KPXE,2023-04-25T21:15:00Z,KPXE 252115Z AUTO 27004KT 10SM SCT055 SCT065 25/10 A3000 RMK AO2 T02470105
KPYM,2023-04-25T20:52:00Z,KPYM 252052Z AUTO 14007KT 10SM OVC090 14/04 A3013 RMK AO2 SLP207 T01390044 53003
KPYX,2023-04-25T21:15:00Z,KPYX 252115Z AUTO 09014KT 1/4SM OVC002 10/09 A2984 RMK AO2 T00970089
KPZQ,2023-04-25T21:15:00Z,KPZQ 252115Z AUTO 32007KT 10SM SCT028 BKN048 OVC050 04/02 A3017 RMK AO2 T00440018
KQAZ,2023-04-25T20:55:00Z,KQAZ 252055Z 29004KT 9000 HZ SCT170 34/M02 A2979 RMK AO2A SLP079 WND DATA ESTMD T03371022 52014
KQBL,2023-04-25T20:55:00Z,KQBL 252055Z AUTO VRB04KT 10SM FEW095 23/18 A2996 RMK AO2 SLPNO WND DATA ESTMD T02260176 57016
KQBR,2023-04-25T20:55:00Z,KQBR 252055Z AUTO VRB01KT 10SM OVC032 07/01 A3011 RMK AO2 SLP185 WND DATA ESTMD T00720007 52009
KQD3,2023-04-25T20:55:00Z,KQD3 252055Z AUTO 00000KT 9999 CLR 29/25 A2977 RMK AO2 SLP066 WND DATA ESTMD T02880245 50002
KQDG,2023-04-25T21:16:00Z,KQDG 252116Z AUTO 15007KT 9999 -RA FEW045 BKN080 OVC095 10/09 A2976 RMK AO2 RAE12RAB16 SLP080
KQEJ,2023-04-25T21:20:00Z,KQEJ 252120Z AUTO 35001KT 9999 BKN055 06/06 A2980 RMK A02 TSNO
KQEN,2023-04-25T21:20:00Z,KQEN 252120Z AUTO 26008G16KT 9999 FEW017 03/01 A2977 RMK A02 TSNO
KQEP,2023-04-25T21:20:00Z,KQEP 252120Z AUTO 21002KT 9999 BKN017 09/06 A2987 RMK A02 TSNO
KQEQ,2023-04-25T21:20:00Z,KQEQ 252120Z AUTO 19005KT 6000 -SHRA BKN015 OVC033 09/09 A2986 RMK A02 TSNO
KQER,2023-04-25T21:10:00Z,KQER 252110Z AUTO 16003KT 9999 OVC024 08/05 A2977 RMK A02 TSNO
KQEV,2023-04-25T21:20:00Z,KQEV 252120Z AUTO 07001KT 3200 BR SCT007 06/06 A2987 RMK A02 TSNO
KQEW,2023-04-25T21:20:00Z,KQEW 252120Z AUTO 23003KT 9000 HZ FEW030 BKN085 08/05 A2988 RMK A02 TSNO
KQEX,2023-04-25T21:20:00Z,KQEX 252120Z AUTO 03002KT 6000 CLR 10/03 / RMK A02 TSNO
KQEY,2023-04-25T21:20:00Z,KQEY 252120Z AUTO 03001KT M0400 FG CLR 04/04 A2962 RMK A02 TSNO
KQFB,2023-04-25T21:20:00Z,KQFB 252120Z AUTO 29001KT M0400 FG CLR 04/04 A2996 RMK A02 TSNO
KQFT,2023-04-25T21:20:00Z,KQFT 252120Z AUTO 18002KT 4800 HZ OVC023 09/06 A2984 RMK A02 TSNO
KQFU,2023-04-25T21:20:00Z,KQFU 252120Z AUTO 17004KT 9000 OVC015 09/07 A2986 RMK A02 TSNO
KQFV,2023-04-25T21:20:00Z,KQFV 252120Z AUTO 05002KT 9999 OVC025 07/04 A2983 RMK A02 TSNO
KQFX,2023-04-25T21:20:00Z,KQFX 252120Z AUTO 12001KT 2400 BR FEW002 BKN020 07/07 A2986 RMK A02 TSNO
KQHY,2023-04-25T20:55:00Z,KQHY 252055Z AUTO 22006KT 10SM SCT095 23/18 A2996 RMK AO2 SLP152 T02320178 57015
KQN3,2023-04-25T20:55:00Z,KQN3 252055Z 00000KT 9999 FEW160 38/02 A2977 RMK SLP060 WND DATA ESTMD T03760019 52012
KQOA,2023-04-25T21:06:00Z,KQOA 252106Z 08010KT 4800 VCTS FU BKN085 35/16 A2981 RMK AO2A TS 5NE MOV N SLP045
KQRH,2023-04-25T20:55:00Z,KQRH 252055Z AUTO VRB03KT 9999 CLR 29/25 A2972 RMK AO2 SLP067 WND DATA ESTMD T02930249 403410284 50002
KQTZ,2023-04-25T20:55:00Z,KQTZ 252055Z 03003KT 9999 SKC 23/07 A2984 RMK SLP101 56002
KQVF,2023-04-25T20:55:00Z,KQVF 252055Z AUTO 00000KT 9999 FEW090 BKN200 26/25 A2986 RMK AO2 SLP114 WND DATA ESTMD T02570250 402840229 50003
KRAC,2023-04-25T20:53:00Z,KRAC 252053Z AUTO 03011KT 10SM CLR 07/00 A3023 RMK AO2 SLP241 T00720000 51004
KRAL,2023-04-25T20:53:00Z,KRAL 252053Z 26009KT 10SM CLR 21/11 A2988 RMK AO2 SLP107 T02110111 58009
KRAP,2023-04-25T20:52:00Z,KRAP 252052Z 09008KT 10SM SCT037 SCT048 12/02 A3006 RMK AO2 SLP193 T01220022 58002
KRAS,2023-04-25T21:15:00Z,KRAS 252115Z AUTO 09010KT 10SM OVC080 24/22 A2984 RMK AO2 T02450217
KRAW,2023-04-25T21:15:00Z,KRAW 252115Z AUTO 15007KT 110V170 10SM SCT090 20/M01 A3005 RMK AO2
KRBD,2023-04-25T21:00:00Z,KRBD 252100Z 15009KT 10SM BKN049 BKN060 OVC085 20/13 A2989 RMK AO2 T02000133
KRBG,2023-04-25T20:53:00Z,KRBG 252053Z AUTO 02004KT 10SM CLR 17/04 A3014 RMK AO2 SLP209 T01670044 58021
KRBL,2023-04-25T20:54:00Z,KRBL 252054Z AUTO 35012G21KT 10SM CLR 28/M01 A2994 RMK AO2 SLP136 T02781006 56015
KRBO,2023-04-25T21:15:00Z,KRBO 252115Z AUTO 13010KT 10SM SCT021 BKN050 OVC065 26/22 A2982 RMK AO2 T02550215
KRBW,2023-04-25T21:15:00Z,KRBW 252115Z AUTO 11008KT 10SM SCT044 SCT050 SCT120 21/11 A3006 RMK AO2
KRCA,2023-04-25T20:55:00Z,KRCA 252055Z AUTO 12006KT 10SM SCT036 BKN150 BKN180 11/01 A3004 RMK AO2 SLP188 T01130012 58001 $
KRCE,2023-04-25T21:15:00Z,KRCE 252115Z AUTO 10009KT 3SM -RA FEW007 BKN014 BKN018 10/09 A2995 RMK AO2
KRCM,2023-04-25T21:15:00Z,KRCM 252115Z AUTO 09007G14KT 10SM BKN070 19/02 A3005 RMK AO2
KRCR,2023-04-25T21:15:00Z,KRCR 252115Z AUTO 02009KT 10SM BKN032 OVC040 10/05 A3012 RMK AO2
KRCV,2023-04-25T21:15:00Z,KRCV 252115Z AUTO 27008G15KT 10SM SCT090 11/M06 A2981 RMK AO2 LTG DSNT E T01121061
KRCX,2023-04-25T21:15:00Z,KRCX 252115Z AUTO 36006KT 10SM OVC050 06/M01 A3026 RMK AO2 T00621012
KRCZ,2023-04-25T21:15:00Z,KRCZ 252115Z AUTO 13004KT 10SM UP CLR 18/08 A3011 RMK AO2 T01800075
KRDD,2023-04-25T20:53:00Z,KRDD 252053Z 35012KT 10SM CLR 27/M01 A2993 RMK AO2 SLP129 T02721006 56017
KRDG,2023-04-25T20:54:00Z,KRDG 252054Z 31004KT 10SM CLR 13/M04 A3017 RMK AO2 SLP223 T01331044 55003
KRDK,2023-04-25T21:15:00Z,KRDK 252115Z AUTO 14007G16KT 10SM FEW055 17/04 A3007 RMK AO2
KRDM,2023-04-25T20:56:00Z,KRDM 252056Z VRB05KT 10SM CLR 18/M03 A3013 RMK AO2 SLP204 T01831028 56018
KRDR,2023-04-25T20:58:00Z,KRDR 252058Z 00000KT 10SM SCT055 10/M04 A3025 RMK SLP258 57007
KRDU,2023-04-25T20:51:00Z,KRDU 252051Z 12005KT 10SM SCT048 BKN070 BKN250 20/07 A3012 RMK AO2 SLP198 T02000067 56009
KREG,2023-04-25T21:15:00Z,KREG 252115Z AUTO 11006KT 10SM BKN110 26/15 A2994 RMK AO2 T02570152
KREO,2023-04-25T20:52:00Z,KREO 252052Z AUTO 03006KT 14/M04 A3014 RMK AO1 SLP210 T01441044 58009
KRFD,2023-04-25T20:54:00Z,KRFD 252054Z 03006KT 10SM BKN037 BKN060 09/M01 A3020 RMK AO2 SLP232 T00941006 53001
KRFI,2023-04-25T20:35:00Z,KRFI 252035Z AUTO 15006KT 10SM BKN070 BKN085 OVC090 22/08 A2997 RMK AO2 LTG DSNT N T02230082
KRGA,2023-04-25T21:15:00Z,KRGA 252115Z AUTO 00000KT 10SM CLR 18/00 A3014 RMK AO2
KRGK,2023-04-25T21:15:00Z,KRGK 252115Z AUTO 03004KT 10SM SCT060 10/M07 A3021 RMK AO2
KRHI,2023-04-25T20:53:00Z,KRHI 252053Z AUTO VRB05KT 10SM OVC040 03/M05 A3023 RMK AO2 SLP258 T00331050 53004
KRHP,2023-04-25T21:10:00Z,KRHP 252110Z AUTO 33003KT 10SM OVC080 17/01 A3006 RMK AO2 T01740009
KRHV,2023-04-25T20:47:00Z,KRHV 252047Z 32007KT 10SM SCT080 24/09 A2992
KRIC,2023-04-25T20:54:00Z,KRIC 252054Z 26005KT 10SM SCT070 SCT160 BKN200 OVC300 17/01 A3016 RMK AO2 SLP219 T01670011 56007
KRID,2023-04-25T21:15:00Z,KRID 252115Z AUTO 27011KT 10SM BKN060 OVC070 12/M01 A3013 RMK AO2
KRIL,2023-04-25T20:53:00Z,KRIL 252053Z AUTO 00000KT 10SM OVC075 07/01 A2992 RMK AO2 SLP124 T00670011 53002
KRIV,2023-04-25T20:55:00Z,KRIV 252055Z AUTO 28005KT 10SM FEW190 22/12 A2988 RMK AO2 SLP111 T02240123 57010
KRIW,2023-04-25T20:53:00Z,KRIW 252053Z AUTO 16010G18KT 10SM BKN060 BKN085 09/04 A2998 RMK AO2 WSHFT 2036 RAB1957E25 SLP130 P0000 60000 T00940039 53017
KRKD,2023-04-25T20:56:00Z,KRKD 252056Z AUTO 09008KT 10SM OVC008 06/04 A3023 RMK AO2 RAE1957 CIG 006V011 SLP238 60001 T00560044 53003
KRKP,2023-04-25T20:53:00Z,KRKP 252053Z AUTO 12013KT 7SM BKN065 BKN085 26/21 A2984 RMK AO2 SLP105 T02560211 56017
KRKR,2023-04-25T21:15:00Z,KRKR 252115Z AUTO 06003KT 5SM VCTSRA SCT060 OVC085 09/07 A3006 RMK AO2 P0003 LTG DSNT S
KRKS,2023-04-25T20:54:00Z,KRKS 252054Z AUTO 29006KT 3SM -SN BR FEW006 BKN012 OVC037 02/01 A3001 RMK AO2 SLP168 P0000 60000 T00170011 51017
KRKW,2023-04-25T21:15:00Z,KRKW 252115Z AUTO 07009G14KT 030V090 10SM CLR 17/M07 A3008 RMK A01
KRLD,2023-04-25T21:15:00Z,KRLD 252115Z AUTO 16008G17KT 130V200 10SM CLR 21/01 A3014 RMK AO2 T02070012
KRME,2023-04-25T20:53:00Z,KRME 252053Z 27005KT 10SM FEW060 10/M03 A3019 RMK AO2 SLP224 60000 T01001033 55006
KRMG,2023-04-25T20:53:00Z,KRMG 252053Z AUTO 06003KT 8SM OVC110 21/02 A3004 RMK AO2 SLP167 T02110017 58013
KRMN,2023-04-25T21:15:00Z,KRMN 252115Z AUTO 02005KT 10SM BKN070 19/01 A3017 RMK AO2 T01870006
KRMY,2023-04-25T21:15:00Z,KRMY 252115Z AUTO 05003KT 10SM SCT015 OVC027 05/02 A3016 RMK AO2 T00520018
KRNC,2023-04-25T21:15:00Z,KRNC 252115Z AUTO VRB04G13KT 10SM CLR 18/M01 A3007 RMK A01
KRND,2023-04-25T21:20:00Z,KRND 252120Z AUTO 11006KT 10SM SCT024 BKN038 BKN045 25/20 A2979 RMK AO2 SLP082
KRNH,2023-04-25T21:15:00Z,KRNH 252115Z AUTO 05008KT 10SM BKN050 08/M01 A3024 RMK AO2 T00841009
KRNM,2023-04-25T20:56:00Z,KRNM 252056Z 00000KT 6SM HZ FEW030 19/12 A2990 RMK AO2 T01940117
KRNO,2023-04-25T20:55:00Z,KRNO 252055Z 10007KT 10SM FEW250 18/M06 A3011 RMK AO2 SLP166 T01831056 56007
KRNP,2023-04-25T21:15:00Z,KRNP 252115Z AUTO 13004KT 10SM SCT070 08/00 A3014 RMK AO2 T00830001
KRNT,2023-04-25T20:53:00Z,KRNT 252053Z 33007KT 10SM CLR 14/06 A3026 RMK AO2 SLP250 T01390061 58008
KROA,2023-04-25T20:54:00Z,KROA 252054Z 15005KT 10SM OVC130 15/M01 A3016 RMK AO2 SLP212 T01501011 56005
KROC,2023-04-25T20:54:00Z,KROC 252054Z 08005KT 10SM SCT070 SCT100 BKN200 08/02 A3017 RMK AO2 SLP224 60003 T00830022 56006
KROG,2023-04-25T20:58:00Z,KROG 252058Z 21008KT 10SM OVC043 14/06 A3006 RMK AO2 SLP176 T01440056 58006
KROS,2023-04-25T21:15:00Z,KROS 252115Z AUTO 00000KT 10SM BKN060 10/M05 A3026 RMK AO2 T00991046
KROW,2023-04-25T20:51:00Z,KROW 252051Z AUTO 10SM CLR 28/00 A2974 RMK AO2 RAB09E19 SLP017 P0000 60000 T02780000 57027
KROX,2023-04-25T21:15:00Z,KROX 252115Z AUTO 00000KT 10SM BKN060 08/M05 A3028 RMK AO2
KRPD,2023-04-25T21:15:00Z,KRPD 252115Z AUTO 01012G15KT 10SM OVC060 08/M02 A3026 RMK AO2 T00751020
KRPH,2023-04-25T21:15:00Z,KRPH 252115Z AUTO 12008KT 9SM SCT023 OVC032 20/15 A2984 RMK AO2 T01950153 $
KRPJ,2023-04-25T21:15:00Z,KRPJ 252115Z AUTO 03008KT 10SM SCT029 SCT035 BKN049 09/03 A3018 RMK AO2 T00880026 TSNO
KRPX,2023-04-25T20:42:00Z,KRPX 252042Z AUTO 10SM 16/M01 A2990 RMK Roundup 
KRQB,2023-04-25T21:15:00Z,KRQB 252115Z AUTO 03008KT 10SM OVC060 08/M04 A3014 RMK AO2 T00801038
KRQE,2023-04-25T20:53:00Z,KRQE 252053Z AUTO 25028G39KT 10SM SCT110 17/M11 A2982 RMK AO2 PK WND 24044/2028 SLP016 T01721111 56015
KRQO,2023-04-25T21:15:00Z,KRQO 252115Z AUTO 11011KT 10/09 A2995 RMK AO2 PWINO T01020095
KRRT,2023-04-25T21:15:00Z,KRRT 252115Z AUTO 07009KT 10SM CLR 06/M04 A3030 RMK AO2
KRSL,2023-04-25T20:53:00Z,KRSL 252053Z AUTO 15013KT 10SM OVC024 12/06 A3001 RMK AO2 SLP165 T01170061 53004
KRSN,2023-04-25T21:15:00Z,KRSN 252115Z AUTO 07007KT 10SM FEW100 22/08 A2997 RMK AO2 T02220084 $
KRSP,2023-04-25T20:54:00Z,KRSP 252054Z AUTO 22007KT 160V310 10SM CLR 17/M05 A3016 RMK AO2 SLP221 T01671050 55003 $
KRST,2023-04-25T20:54:00Z,KRST 252054Z 03005KT 10SM CLR 09/M04 A3020 RMK AO2 SLP239 T00941044 58001
KRSW,2023-04-25T20:53:00Z,KRSW 252053Z 26012G20KT 10SM CLR 29/20 A2988 RMK AO2 SLP115 T02890200 58010
KRTN,2023-04-25T20:53:00Z,KRTN 252053Z AUTO 27023G40KT 10SM FEW055 SCT075 OVC095 14/M04 A2981 RMK AO2 PK WND 27049/2041 WSHFT 2024 LTG DSNT N SLP049 60000 T01391039 55005
KRTS,2023-04-25T21:15:00Z,KRTS 252115Z AUTO 00000G11KT 10SM CLR 15/M11 A3015 RMK AO2
KRUE,2023-04-25T20:53:00Z,KRUE 252053Z AUTO 16003KT 10SM OVC100 16/06 A3007 RMK AO2 SLP178 T01560061 56009
KRUG,2023-04-25T21:15:00Z,KRUG 252115Z AUTO 15008G14KT 130V190 10SM CLR 09/M03 A3020 RMK AO2
KRUQ,2023-04-25T21:05:00Z,KRUQ 252105Z AUTO 05003KT 10SM SCT060 BKN110 18/05 A3012 RMK AO2 T01750045
KRUT,2023-04-25T20:56:00Z,KRUT 252056Z AUTO 33004KT 10SM FEW060 08/02 A3015 RMK AO2 RAE04 SLP212 P0000 60005 T00830022 51003 $
KRVF,2023-04-25T21:10:00Z,KRVF 252110Z AUTO VRB05KT 10SM BKN075 11/02 A3011 RMK AO2
KRVJ,2023-04-25T21:15:00Z,KRVJ 252115Z AUTO 09012G16KT 10SM -RA SCT035 SCT055 OVC090 19/18 A3002 RMK AO2 P0002 T01860178
KRVL,2023-04-25T21:15:00Z,KRVL 252115Z AUTO 20008KT 10SM BKN080 BKN090 14/M04 A3016 RMK AO2
KRVS,2023-04-25T20:53:00Z,KRVS 252053Z 10009KT 6SM -RA BR BKN010 OVC015 10/08 A3004 RMK AO2 CIG 009V012 SLP175 P0005 60012 T01000083 58014
KRWF,2023-04-25T20:53:00Z,KRWF 252053Z AUTO 03008KT 10SM CLR 10/M05 A3022 RMK AO2 SLP242 T01001050 58008
KRWI,2023-04-25T20:53:00Z,KRWI 252053Z AUTO 31003KT 10SM CLR 19/04 A3013 RMK AO2 SLP204 T01940039 56010
KRWL,2023-04-25T20:53:00Z,KRWL 252053Z AUTO 31009G20KT 10SM FEW026 07/M01 A2997 RMK AO2 SLP127 T00721006 51010
KRWV,2023-04-25T21:15:00Z,KRWV 252115Z AUTO 12004KT 10SM -RA BKN040 OVC048 22/18 A2988 RMK AO2 T02200180
KRXE,2023-04-25T20:53:00Z,KRXE 252053Z AUTO VRB06KT 10SM FEW050 14/01 A3003 RMK AO2 SLP161 T01390006 53001
KRYN,2023-04-25T21:15:00Z,KRYN 252115Z AUTO 25015G21KT 10SM CLR 31/M08 A2979 RMK AO2
KRYW,2023-04-25T21:15:00Z,KRYW 252115Z AUTO 15003KT 10SM SCT017 BKN032 OVC055 21/17 A2988 RMK AO2 T02090171
KRYY,2023-04-25T20:50:00Z,KRYY 252050Z 00000KT 10SM BKN075 OVC090 21/05 A3005 RMK AO2 SLP171 T02060050 58010 $
KRZL,2023-04-25T21:15:00Z,KRZL 252115Z AUTO 34012G15KT 10SM CLR 12/02 A3013 RMK AO2
KRZN,2023-04-25T21:15:00Z,KRZN 252115Z AUTO 09007KT 10SM BKN055 07/M07 A3026 RMK AO2 T00691073
KRZR,2023-04-25T21:15:00Z,KRZR 252115Z AUTO VRB04G10KT 10SM BKN120 19/02 A3006 RMK A01
KRZT,2023-04-25T21:15:00Z,KRZT 252115Z AUTO 35004KT 10SM OVC080 13/M04 A3013 RMK AO2 PWINO
KS21,2023-04-25T21:15:00Z,KS21 252115Z AUTO VRB06KT 10SM CLR 16/M09 A3018 RMK AO2
KS24,2023-04-25T21:15:00Z,KS24 252115Z AUTO 34005KT 10SM FEW037 SCT045 BKN060 09/03 A3014 RMK AO2
KS25,2023-04-25T21:15:00Z,KS25 252115Z AUTO 14012G23KT 10SM CLR 14/M04 A3008 RMK AO2
KS32,2023-04-25T21:15:00Z,KS32 252115Z AUTO 11006KT 10SM CLR 09/M04 A3025 RMK AO2 TSNO
KS33,2023-04-25T21:15:00Z,KS33 252115Z AUTO 36004KT 10SM CLR A3016 RMK AO2
KS39,2023-04-25T21:15:00Z,KS39 252115Z AUTO 05007KT 10SM CLR 17/M03 A3014 RMK AO2
KS52,2023-04-25T21:15:00Z,KS52 252115Z AUTO 13005KT 10SM SCT080 BKN100 OVC120 19/M04 A3008 RMK AO2 T01871040
KS71,2023-04-25T21:15:00Z,KS71 252115Z AUTO 24010G16KT 10SM 19/02 A2993 
KS85,2023-04-25T21:10:00Z,KS85 252110Z AUTO 14013KT 10SM 16/M00 A3002 RMK A01 Culbertson 
KSAA,2023-04-25T21:15:00Z,KSAA 252115Z AUTO 34009KT 10SM BKN039 OVC050 07/M01 A2996 RMK AO2
KSAC,2023-04-25T20:53:00Z,KSAC 252053Z 33012KT 10SM CLR 28/03 A2988 RMK AO2 SLP118 T02780028 58015
KSAD,2023-04-25T20:51:00Z,KSAD 252051Z AUTO 30011G28KT 270V330 10SM CLR 30/M03 A2978 RMK AO2 PK WND 30028/2043 SLP037 T03001033 58026
KSAF,2023-04-25T21:17:00Z,KSAF 252117Z 36007KT 10SM VCTS BKN095 13/01 A2984 RMK AO2 LTG DSNT W AND NW T01330006
KSAN,2023-04-25T20:51:00Z,KSAN 252051Z 20009KT 10SM SCT022 BKN029 19/12 A2992 RMK AO2 SLP133 T01940122 58008
KSAR,2023-04-25T21:15:00Z,KSAR 252115Z AUTO 20005KT 10SM CLR 19/02 A3010 RMK AO2 T01900023
KSAT,2023-04-25T20:51:00Z,KSAT 252051Z 17007KT 10SM FEW029 BKN039 OVC065 24/18 A2984 RMK AO2 SLP088 60000 T02440183 58026
KSAV,2023-04-25T20:53:00Z,KSAV 252053Z 07007KT 9SM -RA SCT055 BKN075 OVC100 20/16 A3003 RMK AO2 RAB1958 SLP167 CB DSNT SW P0002 60002 T02000156 58005
KSAW,2023-04-25T20:46:00Z,KSAW 252046Z 02014G19KT 10SM SCT021 BKN035 02/M04 A3023
KSAZ,2023-04-25T21:15:00Z,KSAZ 252115Z AUTO 06003KT 10SM SCT065 09/M08 A3024 RMK AO2
KSBA,2023-04-25T20:53:00Z,KSBA 252053Z 22008KT 9SM SCT022 17/12 A2992 RMK AO2 SLP133 T01720117 58003
KSBD,2023-04-25T21:00:00Z,KSBD 252100Z 25004KT 7SM CLR 22/10 A2989
KSBM,2023-04-25T20:53:00Z,KSBM 252053Z AUTO 08010KT 10SM FEW060 07/01 A3021 RMK AO2 SLP234 T00720006 55001
KSBN,2023-04-25T20:54:00Z,KSBN 252054Z 02009KT 10SM SCT021 OVC028 08/03 A3016 RMK AO2 SLP218 T00780033 53003
KSBO,2023-04-25T21:15:00Z,KSBO 252115Z AUTO 15013G17KT 10SM BKN050 BKN085 BKN110 21/15 A3004 RMK AO2
KSBP,2023-04-25T20:56:00Z,KSBP 252056Z 31018KT 10SM CLR 19/11 A2990 RMK AO2 SLP124 T01890111 56013
KSBS,2023-04-25T21:15:00Z,KSBS 252115Z AUTO 20004KT 10SM SCT047 05/M01 A2991 RMK AO1 T00541006
KSBY,2023-04-25T20:54:00Z,KSBY 252054Z 24003KT 10SM BKN065 BKN080 15/01 A3019 RMK AO2 SLP223 T01500011 55000
KSCD,2023-04-25T21:15:00Z,KSCD 252115Z AUTO 30004KT 10SM SCT110 22/07 A3003 RMK AO2 T02210067
KSCH,2023-04-25T20:55:00Z,KSCH 252055Z 00000KT 15SM SCT060 BKN085 A3018 RMK TEMP AND DP MISSING
KSCK,2023-04-25T20:55:00Z,KSCK 252055Z 29010KT 10SM CLR 27/06 A2989 RMK AO2 SLP120 T02720061 58013
KSCR,2023-04-25T21:05:00Z,KSCR 252105Z AUTO 01003KT 10SM SCT080 BKN090 19/06 A3012 RMK AO2 T01920056
KSCX,2023-04-25T21:15:00Z,KSCX 252115Z AUTO VRB06KT 10SM CLR 18/M06 A3009 RMK A01
KSDA,2023-04-25T21:15:00Z,KSDA 252115Z AUTO VRB03KT 9SM BKN060 18/05 A3005 RMK AO2
KSDB,2023-04-25T20:51:00Z,KSDB 252051Z AUTO 08009G21KT 10SM CLR 22/M01 A3001 RMK AO2 SLP117 T02221006 58002 PWINO $
KSDC,2023-04-25T21:15:00Z,KSDC 252115Z AUTO 09003KT 5SM -RA BKN019 BKN028 OVC055 05/01 A3021 RMK AO2 P0001
KSDF,2023-04-25T20:56:00Z,KSDF 252056Z 23004KT 10SM FEW100 18/M01 A3010 RMK AO2 SLP192 T01831011 56019
KSDL,2023-04-25T20:53:00Z,KSDL 252053Z 21010G18KT 10SM CLR 29/04 A2978 RMK AO2 SLP062 T02940039 56020
KSDY,2023-04-25T20:56:00Z,KSDY 252056Z AUTO 16013G22KT 10SM CLR 16/00 A3006 RMK AO2 SLP191 T01560000 58014
KSEA,2023-04-25T20:53:00Z,KSEA 252053Z 33005KT 10SM SCT029 BKN250 13/06 A3026 RMK AO2 SLP254 T01280056 58005
KSEE,2023-04-25T20:56:00Z,KSEE 252056Z 27008G14KT 10SM FEW027 21/11 A2990
KSEF,2023-04-25T21:15:00Z,KSEF 252115Z AUTO 27013G17KT 10SM -RA SCT060 BKN080 24/23 A2989 RMK AO2 LTG DSNT ALQDS T02380231
KSEG,2023-04-25T20:53:00Z,KSEG 252053Z AUTO VRB03KT 10SM BKN080 13/M04 A3017 RMK AO2 SLP220 T01331039 55008
KSEM,2023-04-25T21:15:00Z,KSEM 252115Z AUTO 35004KT 10SM CLR 25/07 A2999 RMK AO2
KSEP,2023-04-25T21:15:00Z,KSEP 252115Z AUTO 13008KT 10SM OVC019 19/15 A2990 RMK AO2 T01890145
KSEQ,2023-04-25T20:55:00Z,KSEQ 252055Z AUTO 13004KT 10SM BKN023 BKN029 BKN075 24/20 A2981 RMK AO2 SLP092 T02430196 57028
KSET,2023-04-25T20:54:00Z,KSET 252054Z AUTO 34007KT 10SM OVC100 20/04 A3006 RMK AO2 SLP178 T02000039 58010 $
KSEZ,2023-04-25T21:15:00Z,KSEZ 252115Z AUTO 23013G22KT 200V260 10SM BKN110 22/M01 A2985 RMK AO2
KSFB,2023-04-25T21:00:00Z,KSFB 252100Z 09011KT 10SM SCT043 BKN050 24/18 A2992 RMK AO2 LTG DSNT SW AND W T02390183
KSFF,2023-04-25T20:53:00Z,KSFF 252053Z COR 24007KT 210V270 10SM SCT050 16/02 A3015 RMK AO2 SLP208 T01560017 58012
KSFM,2023-04-25T21:15:00Z,KSFM 252115Z AUTO 08005KT 3SM -RA BR OVC005 07/07 A3020 RMK AO2 CIG 004V007 P0000
KSFO,2023-04-25T20:56:00Z,KSFO 252056Z 29012KT 10SM BKN250 24/07 A2992 RMK AO2 SLP133 T02390072 58016
KSFQ,2023-04-25T21:15:00Z,KSFQ 252115Z AUTO 10007KT 10SM SCT060 17/06 A3018 RMK AO2 T01700058
KSFZ,2023-04-25T20:56:00Z,KSFZ 252056Z AUTO 26004KT 10SM FEW070 SCT095 15/M01 A3012 RMK AO2 SLP202 T01501011 55001
KSGF,2023-04-25T20:52:00Z,KSGF 252052Z 11011G16KT 10SM SCT060 18/04 A3004 RMK AO2 SLP171 T01830039 56015
KSGH,2023-04-25T20:56:00Z,KSGH 252056Z AUTO 24005KT 10SM BKN065 OVC110 13/M02 A3013 RMK AO2 SLP209 T01281017 58009
KSGJ,2023-04-25T20:56:00Z,KSGJ 252056Z 08010KT 10SM 23/18 A2998 RMK AO2 SLP150 T02330183 55012 $
KSGR,2023-04-25T20:53:00Z,KSGR 252053Z 12007KT 10SM BKN034 BKN042 26/18 A2987 RMK AO2 SLP117 T02610183 58016
KSGS,2023-04-25T21:15:00Z,KSGS 252115Z AUTO 02005KT 10SM BKN060 09/M06 A3023 RMK AO2 T00901058
KSGT,2023-04-25T20:56:00Z,KSGT 252056Z AUTO 09009KT 10SM CLR 18/04 A3007 RMK AO2 SLP183 T01780044 58018
KSGU,2023-04-25T20:56:00Z,KSGU 252056Z AUTO 35006KT 10SM CLR 21/M06 A2995 RMK AO2 SLP116 T02061061 56007
KSHD,2023-04-25T21:15:00Z,KSHD 252115Z AUTO 17004KT 10SM CLR 15/M01 A3016 RMK AO2 T01471013
KSHL,2023-04-25T21:15:00Z,KSHL 252115Z AUTO 06009G15KT 040V100 10SM CLR 13/M08 A3013 RMK AO2
KSHM,2023-04-25T20:55:00Z,KSHM 252055Z AUTO 15010KT 10SM VCTS -RA BKN045 OVC060 08/03 A2986 RMK AO2 RAB21E30DZB30E46RAB46 TSB03E18 SLP104 P0000 60000 T00790030 53009 $
KSHN,2023-04-25T20:53:00Z,KSHN 252053Z AUTO 00000KT 10SM BKN043 14/04 A3023 RMK AO2 SLP241 T01390044 58007
KSHR,2023-04-25T20:53:00Z,KSHR 252053Z AUTO VRB03KT 10SM BKN080 16/M01 A2998 RMK AO2 SLP148 T01611006 58005
KSHV,2023-04-25T20:56:00Z,KSHV 252056Z 09008KT 10SM BKN095 23/11 A2996 RMK SLPNO
KSIF,2023-04-25T21:05:00Z,KSIF 252105Z AUTO 00000KT 10SM CLR 17/02 A3014 RMK AO2 T01700018
KSIK,2023-04-25T21:15:00Z,KSIK 252115Z AUTO 00000KT 10SM CLR 21/01 A3009 RMK AO2
KSIY,2023-04-25T20:53:00Z,KSIY 252053Z AUTO 00000KT 10SM CLR 21/01 A3009 RMK AO2 SLP195 T02060006 58023
KSJC,2023-04-25T20:53:00Z,KSJC 252053Z 34007KT 10SM FEW080 BKN110 OVC160 24/08 A2991 RMK AO2 SLP129 T02440083 58015
KSJS,2023-04-25T21:15:00Z,KSJS 252115Z AUTO 00000KT 10SM CLR 17/M03 A3014 RMK AO2 T01671027
KSJX,2023-04-25T21:15:00Z,KSJX 252115Z AUTO 35004KT 10SM BKN025 BKN030 OVC035 05/00 A3021 RMK AO2 T00450000
KSKA,2023-04-25T20:55:00Z,KSKA 252055Z 24007G16KT 10SM CLR 14/01 A3013 RMK AO2A SLP205 T01400013 58007 $
KSKF,2023-04-25T21:15:00Z,KSKF 252115Z AUTO 00000KT 10SM FEW035 FEW048 SCT065 BKN080 25/20 A2979 RMK AO2 PRESFR SLP083 $
KSKX,2023-04-25T20:56:00Z,KSKX 252056Z AUTO 27016G22KT 10SM CLR 15/M03 A2986 RMK AO2 PK WND 25029/2013 WSHFT 2006 SLP075 60000 T01501033 56011
KSLB,2023-04-25T21:15:00Z,KSLB 252115Z AUTO 05010KT 10SM CLR 13/M05 A3013 RMK AO2
KSLC,2023-04-25T20:54:00Z,KSLC 252054Z 35003KT 10SM BKN029 OVC035 07/02 A3010 RMK AO2 RAE54 SLP186 P0001 60001 T00720017 51009
KSLE,2023-04-25T20:56:00Z,KSLE 252056Z 36007KT 340V040 10SM CLR 17/06 A3019 RMK AO2 SLP222 T01720061 56017
KSLG,2023-04-25T20:56:00Z,KSLG 252056Z AUTO 18011KT 10SM SCT047 13/06 A3006 RMK AO2 SLP177 T01330056 58005
KSLH,2023-04-25T21:15:00Z,KSLH 252115Z AUTO 32008G14KT 7SM SCT033 BKN040 OVC048 04/03 A3017 RMK AO2
KSLI,2023-04-25T20:55:00Z,KSLI 252055Z 22009KT 9SM BKN028 19/14 A2988 RMK AO2A SLP121 T01930139 57010
KSLK,2023-04-25T20:51:00Z,KSLK 252051Z AUTO 21007KT 10SM BKN036 BKN046 OVC070 06/M01 A3012 RMK AO2 SLP213 T00611011 50003
KSLN,2023-04-25T20:53:00Z,KSLN 252053Z 13011KT 10SM BKN040 OVC047 15/07 A3003 RMK AO2 SLP169 T01500067 56007
KSLO,2023-04-25T21:15:00Z,KSLO 252115Z AUTO 36006KT 10SM OVC100 18/07 A3009 RMK AO2 T01750066
KSLR,2023-04-25T21:15:00Z,KSLR 252115Z AUTO 08010KT 10SM SCT049 SCT060 SCT090 19/11 A2996 RMK AO2 T01900108
KSMD,2023-04-25T21:15:00Z,KSMD 252115Z AUTO 34008KT 10SM SCT055 BKN065 BKN095 10/04 A3013 RMK A01
KSME,2023-04-25T21:15:00Z,KSME 252115Z AUTO 03005KT 10SM CLR 18/M01 A3010 RMK AO2
KSMF,2023-04-25T20:53:00Z,KSMF 252053Z 34015KT 10SM SCT250 29/01 A2987 RMK AO2 SLP115 T02890011 58016
KSMN,2023-04-25T20:56:00Z,KSMN 252056Z AUTO 17003KT 10SM CLR 14/M01 A3010 RMK AO2 SLP883 T01391006 58014
KSMO,2023-04-25T20:51:00Z,KSMO 252051Z 23010KT 10SM CLR 18/11 A2990 RMK AO2 SLP125 T01830111 58008
KSMP,2023-04-25T20:56:00Z,KSMP 252056Z AUTO VRB06KT 10SM CLR 09/01 A3018 RMK AO2 SLP227 T00940011 58001
KSMQ,2023-04-25T20:53:00Z,KSMQ 252053Z AUTO 32003KT 10SM BKN080 15/M03 A3014 RMK AO2 SLP209 T01501033 55002
KSMS,2023-04-25T21:15:00Z,KSMS 252115Z AUTO VRB06G11KT 10SM BKN070 22/07 A3009 RMK AO2
KSMX,2023-04-25T20:51:00Z,KSMX 252051Z 29009KT 7SM SCT200 17/11 A2993 RMK AO2 SLP137 T01670106 58006
KSNA,2023-04-25T20:53:00Z,KSNA 252053Z 20009G17KT 10SM FEW028 BKN039 19/13 A2990 RMK AO2 SLP125 T01940128 58010 $
KSNC,2023-04-25T21:15:00Z,KSNC 252115Z AUTO 18007KT 10SM CLR 15/M03 A3014 RMK AO2
KSNH,2023-04-25T21:05:00Z,KSNH 252105Z AUTO VRB04G12KT 10SM CLR 20/M05 A3004 RMK A01
KSNK,2023-04-25T21:15:00Z,KSNK 252115Z AUTO 16011G14KT 10SM SCT060 SCT075 25/10 A2978 RMK AO2 T02500100
KSNS,2023-04-25T20:53:00Z,KSNS 252053Z 31011KT 9SM CLR 19/09 A2994 RMK AO2 SLP146 T01940089 56012 $
KSNT,2023-04-25T20:51:00Z,KSNT 252051Z AUTO 35005KT 08/M04 A3011 RMK AO1 SLP159 T00831044 55001
KSNY,2023-04-25T20:53:00Z,KSNY 252053Z AUTO 14020G25KT 10SM OVC027 10/03 A2994 RMK AO2 PK WND 14027/2038 SLP135 T01000028 51005
KSOA,2023-04-25T21:15:00Z,KSOA 252115Z AUTO 16009G16KT 10SM 26/12 A2986 RMK AO2
KSOP,2023-04-25T20:56:00Z,KSOP 252056Z AUTO 09004KT 10SM SCT060 BKN120 19/06 A3012 RMK AO2 SLP205 T01890061 56005 TSNO
KSOW,2023-04-25T21:15:00Z,KSOW 252115Z AUTO 24021G31KT 10SM FEW075 FEW090 SCT110 20/M04 A2993 RMK AO2
KSPA,2023-04-25T21:15:00Z,KSPA 252115Z AUTO 00000KT 10SM SCT042 BKN075 OVC090 16/05 A3011 RMK AO2
KSPB,2023-04-25T20:53:00Z,KSPB 252053Z AUTO 05004KT 10SM CLR 17/07 A3021 RMK AO2 SLP229 T01670072 56018
KSPD,2023-04-25T20:56:00Z,KSPD 252056Z AUTO 06013KT 11/07 A2984 RMK AO1 SLP079 T01060072 55001
KSPF,2023-04-25T21:15:00Z,KSPF 252115Z AUTO 10014KT 10SM SCT080 10/02 A3002 RMK AO2
KSPG,2023-04-25T20:53:00Z,KSPG 252053Z 31010G18KT 10SM SCT028 27/21 A2988 RMK AO2 LTG DSNT NE SLP117 T02670211 58011
KSPI,2023-04-25T20:52:00Z,KSPI 252052Z 36005KT 10SM SCT100 17/04 A3010 RMK AO2 SLP193 T01670039 58003
KSPK,2023-04-25T21:15:00Z,KSPK 252115Z AUTO 32011G17KT 10SM FEW023 OVC044 06/02 A3009 RMK AO2
KSPS,2023-04-25T20:52:00Z,KSPS 252052Z AUTO 16014KT 10SM BKN080 22/14 A2985 RMK AO2 SLP099 T02220139 56018 $
KSPW,2023-04-25T20:53:00Z,KSPW 252053Z AUTO 02008KT 10SM CLR 13/M07 A3017 RMK AO2 SLP223 T01331067 56006
KSQI,2023-04-25T20:56:00Z,KSQI 252056Z AUTO 07006KT 10SM FEW038 OVC048 12/02 A3018 RMK AO2 SLP085 T01170022 51002
KSQL,2023-04-25T20:47:00Z,KSQL 252047Z 32006KT 10SM CLR 25/03 A2993
KSRB,2023-04-25T21:15:00Z,KSRB 252115Z AUTO 00000KT 10SM CLR 19/M04 A3007 RMK AO2
KSRC,2023-04-25T20:56:00Z,KSRC 252056Z AUTO 11007KT 10SM SCT049 19/06 A3008 RMK AO2 SLP185 T01940061 58015
KSRE,2023-04-25T21:15:00Z,KSRE 252115Z AUTO 10011G18KT 10SM BKN007 OVC011 10/09 A2997 RMK AO2
KSRQ,2023-04-25T20:53:00Z,KSRQ 252053Z 26011KT 10SM CLR 27/21 A2988 RMK AO2 LTG DSNT E SLP116 T02720206 58010
KSRR,2023-04-25T21:15:00Z,KSRR 252115Z AUTO 25019G26KT 10SM 20/M09 A2991 RMK AO2
KSSC,2023-04-25T20:55:00Z,KSSC 252055Z 04009KT 10SM BKN070 BKN130 22/06 A3006 RMK AO2A SLP180 T02180061 58007 $
KSSF,2023-04-25T20:53:00Z,KSSF 252053Z 10003KT 10SM SCT030 BKN037 BKN075 26/19 A2981 RMK AO2 SLP086 60000 T02560189 58025 $
KSSI,2023-04-25T20:53:00Z,KSSI 252053Z AUTO 07012KT 10SM CLR 24/17 A2999 RMK AO2 LTG DSNT W SLP156 T02390167 56015
KSTC,2023-04-25T20:53:00Z,KSTC 252053Z 05004KT 10SM BKN060 09/M07 A3025 RMK AO2 SLP260 T00891067 56007
KSTE,2023-04-25T21:15:00Z,KSTE 252115Z AUTO 01005KT 10SM OVC055 08/M09 A3021 RMK AO2 T00831094
KSTF,2023-04-25T21:15:00Z,KSTF 252115Z AUTO VRB05G12KT 10SM FEW100 20/04 A3002 RMK AO2
KSTJ,2023-04-25T20:53:00Z,KSTJ 252053Z 00000KT 10SM OVC070 18/04 A3006 RMK AO2 SLP177 T01830039 56013
KSTK,2023-04-25T21:15:00Z,KSTK 252115Z AUTO 10015G20KT 10SM SCT024 BKN028 OVC044 10/05 A2993 RMK AO2
KSTL,2023-04-25T20:51:00Z,KSTL 252051Z 33007KT 290V360 10SM FEW070 SCT100 SCT250 21/03 A3008 RMK AO2 SLP182 T02110028 58011 $
KSTP,2023-04-25T20:53:00Z,KSTP 252053Z 05007G18KT 10SM BKN060 09/M04 A3025 RMK AO2 SLP246 T00941039 56005
KSTS,2023-04-25T20:53:00Z,KSTS 252053Z 21007KT 10SM CLR 28/08 A2990 RMK AO2 SLP119 T02780078 58018
KSUA,2023-04-25T20:47:00Z,KSUA 252047Z 11012KT 7SM VCTS SCT012 BKN020 27/16 A2990
KSUE,2023-04-25T20:56:00Z,KSUE 252056Z AUTO 01010KT 10SM BKN055 07/M04 A3022 RMK AO2 SLP240 T00671039 53002
KSUN,2023-04-25T20:47:00Z,KSUN 252047Z 23011KT 10SM SKC 11/M01 A3010
KSUS,2023-04-25T20:54:00Z,KSUS 252054Z 22003KT 10SM BKN090 20/02 A3006 RMK AO2 SLP179 T02000022 58012
KSUT,2023-04-25T21:10:00Z,KSUT 252110Z AUTO 07011G15KT 10SM CLR 21/07 A3011 RMK AO2 T02050071
KSUU,2023-04-25T20:55:00Z,KSUU 252055Z AUTO 00000KT 10SM CLR 28/04 A2988 RMK AO2 SLP125 T02800036 57016
KSUW,2023-04-25T21:15:00Z,KSUW 252115Z AUTO 04008KT 10SM OVC065 06/M03 A3030 RMK AO2 T00591032
KSUX,2023-04-25T20:52:00Z,KSUX 252052Z 10009G17KT 10SM FEW100 16/01 A3011 RMK AO2 SLP201 T01560006 56009
KSUZ,2023-04-25T21:15:00Z,KSUZ 252115Z AUTO 08007KT 10SM BKN049 BKN100 15/07 A3007 RMK A01
KSVC,2023-04-25T21:15:00Z,KSVC 252115Z AUTO 26017G26KT 10SM CLR 25/M05 A2989 RMK AO2 T02511052
KSVE,2023-04-25T21:15:00Z,KSVE 252115Z AUTO 14009KT 10SM CLR 17/M02 A3012 RMK AO2
KSVH,2023-04-25T21:05:00Z,KSVH 252105Z AUTO 00000KT 10SM CLR 18/03 A3012 RMK AO2 T01760033
KSVN,2023-04-25T20:55:00Z,KSVN 252055Z AUTO 08010KT 10SM -RA BKN060 OVC090 19/16 A3000 RMK AO2 RAB11E27DZB31E34RAB34 SLP162 P0001 60001 T01930157 57007 $
KSWF,2023-04-25T20:45:00Z,KSWF 252045Z 29010KT 10SM BKN070 13/M02 A3014
KSWO,2023-04-25T20:53:00Z,KSWO 252053Z 10009KT 4SM RA BR BKN007 OVC012 10/09 A3000 RMK AO2 CIG 005V010 SLP157 P0017 60044 T01000089 56005
KSWW,2023-04-25T21:15:00Z,KSWW 252115Z AUTO 19011KT 10SM SCT050 26/11 A2981 RMK AO2 T02580112
KSXK,2023-04-25T21:15:00Z,KSXK 252115Z AUTO 06007G18KT 10SM CLR 14/M05 A3012 RMK AO2
KSXS,2023-04-25T20:55:00Z,KSXS 252055Z AUTO 00000KT 9SM FEW050 26/13 A2994 RMK AO2 SLP138 T02610129 57017
KSXT,2023-04-25T20:56:00Z,KSXT 252056Z AUTO VRB03KT 10SM CLR 14/04 A3013 RMK AO2 RAB34E44 SLP191 P0000 60000 T01440044 57005
KSXU,2023-04-25T21:15:00Z,KSXU 252115Z AUTO 26008KT 220V290 10SM SCT120 24/M06 A2973 RMK AO2 T02411059
KSYF,2023-04-25T21:15:00Z,KSYF 252115Z AUTO 11015KT 10SM OVC016 10/05 A2996 RMK AO2 T00960053 PWINO
KSYI,2023-04-25T21:15:00Z,KSYI 252115Z AUTO 09009G14KT 10SM CLR 19/M01 A3006 RMK A01
KSYM,2023-04-25T21:15:00Z,KSYM 252115Z AUTO VRB04G10KT 10SM CLR 17/M04 A3013 RMK AO2
KSYN,2023-04-25T21:15:00Z,KSYN 252115Z AUTO 04007G14KT 10SM SCT060 10/M05 A3022 RMK AO2 T00971048
KSYR,2023-04-25T20:54:00Z,KSYR 252054Z VRB05KT 10SM FEW034 SCT060 BKN090 09/M01 A3020 RMK AO2 SLP226 60000 T00941011 53003
KSZL,2023-04-25T20:55:00Z,KSZL 252055Z 09008KT 10SM BKN070 19/03 A3004 RMK AO2A SLP174 T01900032 57016 $
KSZT,2023-04-25T21:15:00Z,KSZT 252115Z AUTO 26006KT 10SM SCT055 15/00 A3012 RMK AO2
KSZY,2023-04-25T21:15:00Z,KSZY 252115Z AUTO 14009KT 10SM 20/M06 A3005 RMK A01
KT20,2023-04-25T21:15:00Z,KT20 252115Z AUTO 14012KT 10SM BKN029 OVC037 26/20 A2983 RMK AO2 T02580203
KT35,2023-04-25T21:15:00Z,KT35 252115Z AUTO 13005KT 10SM OVC029 23/17 A2987 RMK AO2 T02260172
KT41,2023-04-25T21:15:00Z,KT41 252115Z AUTO 13014KT 10SM CLR 25/18 A2989 RMK AO2 T02470181
KT69,2023-04-25T21:15:00Z,KT69 252115Z AUTO 16011KT 7SM FEW019 BKN050 BKN055 25/22 A2982 RMK A01
KT70,2023-04-25T20:55:00Z,KT70 252055Z AUTO 16009KT 10SM BKN039 26/16 A2979 RMK AO2 SLP077 T02640163 57028 $
KT74,2023-04-25T21:15:00Z,KT74 252115Z AUTO 13008KT 10SM SCT023 OVC030 22/18 A2987 RMK AO2 T02170175
KT78,2023-04-25T21:15:00Z,KT78 252115Z AUTO 08006G12KT 10SM BKN033 BKN042 24/18 A2989 RMK AO2
KT82,2023-04-25T21:15:00Z,KT82 252115Z AUTO 16005KT 10SM SCT014 BKN032 OVC050 20/17 A2986 RMK AO2 T02040167
KT89,2023-04-25T21:15:00Z,KT89 252115Z AUTO VRB04G10KT 10SM CLR 32/M06 A2976 RMK A01
KTAD,2023-04-25T21:16:00Z,KTAD 252116Z AUTO VRB03KT 10SM FEW043 SCT060 OVC080 15/03 A2978 RMK AO2 LTG DSNT S RAE11 P0000 T01500028
KTAN,2023-04-25T20:52:00Z,KTAN 252052Z AUTO 16006KT 10SM -RA BKN045 BKN050 OVC070 13/05 A3014 RMK AO2 RAB40 SLP205 P0001 60001 T01330050 53009
KTAZ,2023-04-25T21:15:00Z,KTAZ 252115Z AUTO 34006KT 10SM CLR 16/04 A3009 RMK AO2 T01630035
KTBN,2023-04-25T20:55:00Z,KTBN 252055Z AUTO 10006KT 10SM CLR 19/M02 A3005 RMK AO2 SLP176 T01931018 57014
KTBR,2023-04-25T21:15:00Z,KTBR 252115Z AUTO 12004KT 10SM SCT032 BKN050 OVC095 19/16 A3004 RMK AO2 T01880156 PWINO
KTBX,2023-04-25T21:15:00Z,KTBX 252115Z AUTO 10SM SCT060 BKN070 BKN080 08/M03 A3008 RMK AO2
KTCC,2023-04-25T20:53:00Z,KTCC 252053Z AUTO 26018G25KT 10SM FEW120 24/M04 A2970 RMK AO2 SLP012 60002 T02391044 56027
KTCL,2023-04-25T20:53:00Z,KTCL 252053Z 02006KT 10SM OVC095 23/05 A3003 RMK AO2 SLP168 T02280050 58017
KTCM,2023-04-25T20:55:00Z,KTCM 252055Z AUTO 31007KT 10SM SCT034 15/06 A3025 RMK AO2 SLP248 T01460057 58006 $
KTCS,2023-04-25T20:53:00Z,KTCS 252053Z AUTO 26021G31KT 10SM CLR 27/M11 A2979 RMK AO2 PK WND 22032/2042 WSHFT 2013 SLP011 T02721111 56025
KTCY,2023-04-25T21:15:00Z,KTCY 252115Z AUTO 33008G15KT 10SM CLR 26/02 A2990 RMK A01
KTDF,2023-04-25T21:05:00Z,KTDF 252105Z AUTO 06003KT 10SM CLR 16/05 A3016 RMK AO2
KTDR,2023-04-25T20:55:00Z,KTDR 252055Z AUTO 25006KT 10SM CLR 26/20 A2991 RMK AO2 LTG DSNT NE SLP132 T02560195 58008 $
KTDZ,2023-04-25T20:53:00Z,KTDZ 252053Z AUTO 02004KT 7SM SCT041 OVC049 07/04 A3016 RMK AO2 RAE43 SLP219 P0000 60001 T00720039 56002
KTEB,2023-04-25T20:51:00Z,KTEB 252051Z 25007KT 10SM BKN070 OVC080 14/M01 A3014 RMK AO2 RAB42E50 SLP205 P0000 60000 T01391006 55001
KTEW,2023-04-25T21:15:00Z,KTEW 252115Z AUTO 20004KT 10SM OVC020 06/02 A3016 RMK AO2 T00580016
KTEX,2023-04-25T21:15:00Z,KTEX 252115Z AUTO 27015KT 1/4SM +SN OVC005 M02/M03 A2995 RMK AO2
KTFP,2023-04-25T20:35:00Z,KTFP 252035Z AUTO 12014KT 10SM SCT015 SCT060 26/21 A2982 RMK AO2 T02590212
KTGI,2023-04-25T21:15:00Z,KTGI 252115Z AUTO 31003KT 10SM CLR 15/00 A3020 RMK AO1 T01450004
KTHA,2023-04-25T21:15:00Z,KTHA 252115Z AUTO 07007KT 10SM CLR 18/M00 A3005 RMK A01
KTHV,2023-04-25T20:53:00Z,KTHV 252053Z AUTO 30006KT 10SM CLR 14/M03 A3018 RMK AO2 SLP224 T01391028 55005
KTIF,2023-04-25T21:15:00Z,KTIF 252115Z AUTO 13012G18KT 10SM BKN050 15/03 A3003 RMK AO2 T01530025
KTIK,2023-04-25T20:55:00Z,KTIK 252055Z AUTO 12010KT 10SM OVC010 10/10 A2992 RMK AO2 RAB21E22DZB22E23RAB23E31DZB31E32RAB32E33 OVC V BKN SLP139 P0000 60000 T01000098 57009 $
KTIP,2023-04-25T21:15:00Z,KTIP 252115Z AUTO 00000KT 10SM SCT055 SCT070 BKN080 16/05 A3009 RMK AO2 T01550050
KTIW,2023-04-25T20:53:00Z,KTIW 252053Z 16005KT 10SM SCT028 12/05 A3027 RMK AO2 SLP252 T01220050 58003
KTIX,2023-04-25T20:47:00Z,KTIX 252047Z 06015KT 7SM SCT015 27/20 A2993
KTKC,2023-04-25T21:15:00Z,KTKC 252115Z AUTO VRB06G17KT 10SM CLR 10/M05 A3020 RMK AO2
KTKI,2023-04-25T20:53:00Z,KTKI 252053Z 12009G16KT 10SM SCT048 19/12 A2991 RMK AO2 SLP132 T01940117 58024
KTKV,2023-04-25T21:15:00Z,KTKV 252115Z AUTO 36005KT 10SM OVC046 05/M05 A3024 RMK AO2 T00451052 PWINO
KTKX,2023-04-25T21:15:00Z,KTKX 252115Z AUTO 08007KT 8SM CLR 20/00 A3007 RMK AO2
KTLH,2023-04-25T20:53:00Z,KTLH 252053Z 00000KT 10SM BKN045 BKN100 28/15 A2992 RMK AO2 SLP130 CB DSNT SE AND SW-NW MOV E T02780150 57019
KTMA,2023-04-25T21:15:00Z,KTMA 252115Z AUTO 33009KT 9SM SCT060 BKN090 26/14 A2998 RMK AO2 T02620138 $
KTMB,2023-04-25T20:53:00Z,KTMB 252053Z 22007KT 10SM FEW070 30/19 A2988 RMK AO2 SLP117 T03000189 56017
KTME,2023-04-25T21:15:00Z,KTME 252115Z AUTO 13013KT 8SM 26/19 A2986 RMK AO2
KTMT,2023-04-25T21:15:00Z,KTMT 252115Z AUTO 35005G14KT 10SM CLR 13/M09 A3014 RMK AO2 T01301087
KTNB,2023-04-25T20:55:00Z,KTNB 252055Z AUTO 19004KT 10SM CLR 13/M02 A3013 RMK AO2 T01331017
KTNU,2023-04-25T21:15:00Z,KTNU 252115Z AUTO 04004G12KT 10SM CLR 15/M01 A3011 RMK A01
KTOA,2023-04-25T20:48:00Z,KTOA 252048Z 27010KT 10SM SCT011 BKN030 19/13 A2991
KTOB,2023-04-25T21:15:00Z,KTOB 252115Z AUTO 01007KT 350V060 10SM CLR 09/M06 A3020 RMK AO2
KTOC,2023-04-25T21:15:00Z,KTOC 252115Z AUTO 12006KT 10SM SCT049 BKN090 OVC110 18/06 A3010 RMK AO2 T01770063
KTOI,2023-04-25T20:53:00Z,KTOI 252053Z AUTO 01009KT 10SM CLR 27/11 A2999 RMK AO2 SLP150 T02720111 58017
KTOL,2023-04-25T20:52:00Z,KTOL 252052Z 33004KT 7SM -RA FEW027 OVC040 07/04 A3015 RMK AO2 SLP217 P0002 60008 T00670039 55002
KTOP,2023-04-25T20:53:00Z,KTOP 252053Z 17007KT 10SM FEW060 BKN080 19/04 A3004 RMK AO2 SLP170 T01890039 56011
KTOR,2023-04-25T21:14:00Z,KTOR 252114Z AUTO 17012KT 1 3/4SM -RA BR SCT006 BKN012 OVC019 08/07 A2997 RMK AO2 P0001 T00780067
KTPA,2023-04-25T20:53:00Z,KTPA 252053Z 27011KT 10SM FEW034 FEW080 28/19 A2989 RMK AO2 LTG DSNT NE AND E SLP122 CB DSNT NE-SE T02830194 58010
KTPF,2023-04-25T21:15:00Z,KTPF 252115Z AUTO 30008KT 7SM BKN110 29/20 A2990 RMK AO2
KTPH,2023-04-25T20:56:00Z,KTPH 252056Z AUTO 10SM CLR 18/M08 A3007 RMK AO2 SLP136 T01781083 56011
KTPL,2023-04-25T20:51:00Z,KTPL 252051Z AUTO 13008KT OVC025 21/17 A2989 RMK AO2 SLP115 T02110167 56018 PWINO RVRNO $
KTQE,2023-04-25T20:54:00Z,KTQE 252054Z AUTO 08013G19KT 10SM CLR 18/01 A3009 RMK AO2 SLP187 T01780011 56010
KTQH,2023-04-25T21:15:00Z,KTQH 252115Z AUTO 11006KT 7SM -RA SCT029 BKN044 OVC075 10/07 A3005 RMK AO2
KTQK,2023-04-25T21:15:00Z,KTQK 252115Z AUTO 11014KT 10SM OVC008 08/07 A2995 RMK AO2 T00800070
KTQV,2023-04-25T21:15:00Z,KTQV 252115Z AUTO VRB06KT 10SM FEW050 BKN060 18/06 A3013 RMK A01
KTRI,2023-04-25T20:53:00Z,KTRI 252053Z 00000KT 10SM BKN170 18/M04 A3011 RMK AO2 SLP186 T01781039 58005
KTRK,2023-04-25T20:48:00Z,KTRK 252048Z 34010KT 10SM FEW250 13/M04 A3014
KTRL,2023-04-25T20:53:00Z,KTRL 252053Z AUTO 12008G14KT 10SM FEW085 21/12 A2991 RMK AO2 SLP125 T02110122 58027
KTRM,2023-04-25T20:52:00Z,KTRM 252052Z AUTO VRB06KT 9SM CLR 34/03 A2971 RMK AO2 SLP064 T03440033 58023 $
KTSP,2023-04-25T21:15:00Z,KTSP 252115Z AUTO 31013KT 9SM CLR 20/06 A3000 RMK AO2
KTTA,2023-04-25T21:05:00Z,KTTA 252105Z AUTO 10006KT 10SM CLR 19/06 A3012 RMK AO2 T01870055
KTTD,2023-04-25T20:53:00Z,KTTD 252053Z 30006KT 10SM CLR 17/07 A3020 RMK AO2 SLP227 T01720067 56019 $
KTTF,2023-04-25T21:15:00Z,KTTF 252115Z AUTO 28003KT 7SM -DZ BKN010 OVC023 05/04 A3016 RMK AO2 T00520035
KTTN,2023-04-25T20:53:00Z,KTTN 252053Z 28004KT 10SM BKN075 13/M02 A3016 RMK AO2 SLP208 T01331017 58000
KTUL,2023-04-25T21:03:00Z,KTUL 252103Z 12007KT 10SM -RA FEW012 BKN026 OVC033 11/10 A3004 RMK AO2 P0000 T01060100
KTUP,2023-04-25T20:53:00Z,KTUP 252053Z 09005KT 10SM FEW100 19/00 A3006 RMK AO2 SLP177 60001 T01940000 58018
KTUS,2023-04-25T20:53:00Z,KTUS 252053Z 27009G14KT 10SM CLR 29/M04 A2983 RMK AO2 SLP057 T02941044 58015
KTVC,2023-04-25T20:53:00Z,KTVC 252053Z 03006KT 10SM FEW036 BKN048 07/M01 A3018 RMK AO2 SLP228 T00721006 50001
KTVF,2023-04-25T20:56:00Z,KTVF 252056Z AUTO VRB03KT 10SM OVC060 07/M06 A3028 RMK AO2 SLP270 T00721061 56005
KTVI,2023-04-25T21:15:00Z,KTVI 252115Z AUTO 00000KT 10SM BKN055 OVC065 26/13 A2995 RMK AO2
KTVK,2023-04-25T21:15:00Z,KTVK 252115Z AUTO 02004G10KT 10SM FEW039 FEW049 16/04 A3011 RMK AO2
KTVL,2023-04-25T20:53:00Z,KTVL 252053Z AUTO VRB05KT 10SM CLR 12/M03 A3014 RMK AO2 SLP185 T01221033 53002
KTVR,2023-04-25T20:53:00Z,KTVR 252053Z AUTO VRB03KT 10SM CLR 24/09 A2999 RMK AO2 SLP162 T02440089 58023
KTVY,2023-04-25T21:15:00Z,KTVY 252115Z AUTO 09004KT 10SM OVC050 10/00 A3011 RMK AO2
KTWF,2023-04-25T20:53:00Z,KTWF 252053Z AUTO 29011G25KT 10SM CLR 14/M02 A3010 RMK AO2 SLP176 T01391017 58003
KTWM,2023-04-25T21:15:00Z,KTWM 252115Z AUTO 17006KT 10SM OVC060 03/M03 A3028 RMK AO2
KTWT,2023-04-25T21:15:00Z,KTWT 252115Z AUTO 29007KT 10SM CLR 20/01 A3011 RMK AO2
KTXK,2023-04-25T20:53:00Z,KTXK 252053Z 07007KT 10SM OVC060 19/08 A3000 RMK AO2 RAB03E13 SLP157 P0000 60000 T01890083 58017 $
KTXW,2023-04-25T21:15:00Z,KTXW 252115Z AUTO 07009KT 10SM SCT013 SCT031 OVC070 27/22 A2980 RMK AO2 T02720223
KTYL,2023-04-25T21:15:00Z,KTYL 252115Z AUTO 26019G32KT 10SM CLR 21/M03 A2988 RMK AO2
KTYQ,2023-04-25T21:15:00Z,KTYQ 252115Z AUTO 25010G14KT 10SM SCT050 14/02 A3010 RMK AO2 T01410024
KTYR,2023-04-25T20:53:00Z,KTYR 252053Z 15008KT 10SM BKN055 OVC070 21/12 A2994 RMK AO2 SLP132 T02110117 58019
KTYS,2023-04-25T20:53:00Z,KTYS 252053Z 05008G17KT 10SM FEW050 SCT150 BKN250 19/01 A3008 RMK AO2 SLP183 T01890011 58012
KTZR,2023-04-25T20:55:00Z,KTZR 252055Z 26007KT 10SM OVC075 13/M03 A3013
KU42,2023-04-25T21:15:00Z,KU42 252115Z AUTO 02008KT 10SM BKN039 OVC045 07/04 A3011 RMK AO1 T00700037
KU55,2023-04-25T21:15:00Z,KU55 252115Z AUTO 33021G28KT 10SM CLR 08/M07 A3007 RMK A01
KU64,2023-04-25T21:15:00Z,KU64 252115Z AUTO 31019G25KT 10SM BKN070 BKN090 BKN110 07/M11 A2991 RMK AO2 T00661108 $
KU68,2023-04-25T21:15:00Z,KU68 252115Z AUTO 02020G23KT 10SM CLR 18/M03 A2993 RMK AO2
KU69,2023-04-25T21:15:00Z,KU69 252115Z AUTO 27013G22KT 10SM BKN060 OVC070 11/M04 A2994 RMK A01
KUAO,2023-04-25T20:53:00Z,KUAO 252053Z 32004KT 10SM CLR 16/07 A3021 RMK AO2 SLP229 T01610067 56017
KUBE,2023-04-25T21:15:00Z,KUBE 252115Z AUTO 01004KT 10SM OVC050 06/M02 A3025 RMK AO2
KUCP,2023-04-25T20:56:00Z,KUCP 252056Z AUTO 16005KT 10SM OVC065 11/M03 A3015 RMK AO2 SLP232 T01061028 56010
KUCY,2023-04-25T21:15:00Z,KUCY 252115Z AUTO 05004G14KT 10SM CLR 20/01 A3006 RMK A01
KUDG,2023-04-25T20:56:00Z,KUDG 252056Z AUTO 08007KT 10SM BKN080 BKN110 21/05 A3011 RMK AO2 SLP199 T02110050 58004
KUES,2023-04-25T20:45:00Z,KUES 252045Z 06005KT 10SM SCT040 OVC046 05/M03 A3021
KUGN,2023-04-25T20:51:00Z,KUGN 252051Z 03010KT 10SM FEW030 07/00 A3020 RMK AO2 SLP233 T00720000 51003
KUIL,2023-04-25T20:53:00Z,KUIL 252053Z AUTO VRB06KT 10SM BKN028 13/06 A3028 RMK AO2 SLP252 T01280056 58006
KUIN,2023-04-25T20:54:00Z,KUIN 252054Z AUTO 01009KT 10SM FEW049 BKN090 18/07 A3009 RMK AO2 SLP187 T01780067 58007
KUKF,2023-04-25T21:05:00Z,KUKF 252105Z AUTO 00000KT 10SM CLR 16/01 A3017 RMK AO2
KUKI,2023-04-25T20:56:00Z,KUKI 252056Z AUTO 00000KT 10SM CLR 27/03 A2991 RMK AO2 SLP122 T02720028 57022
KUKL,2023-04-25T21:15:00Z,KUKL 252115Z AUTO 14014G18KT 10SM SCT070 18/00 A3003 RMK AO2 T01840000
KUKT,2023-04-25T21:15:00Z,KUKT 252115Z AUTO VRB03KT 10SM CLR 14/M05 A3017 RMK A01
KULM,2023-04-25T21:15:00Z,KULM 252115Z AUTO 02009KT 10SM CLR 09/M07 A3022 RMK AO2
KULS,2023-04-25T21:10:00Z,KULS 252110Z AUTO 10014KT 3SM BR OVC004 08/08 A2988 RMK AO2
KUMP,2023-04-25T21:15:00Z,KUMP 252115Z AUTO 24010G14KT 10SM SCT050 BKN090 16/04 A3010 RMK AO2 T01550036
KUNI,2023-04-25T21:15:00Z,KUNI 252115Z AUTO 19005KT 7SM BKN090 BKN110 15/M06 A3013 RMK AO2 T01501058
KUNO,2023-04-25T20:53:00Z,KUNO 252053Z AUTO 15008KT 10SM CLR 17/00 A3007 RMK AO2 SLP181 T01720000 58013
KUNU,2023-04-25T21:15:00Z,KUNU 252115Z AUTO 03003KT 10SM BKN050 OVC065 07/M03 A3020 RMK AO2 T00741028
KUNV,2023-04-25T20:53:00Z,KUNV 252053Z 00000KT 10SM BKN075 11/M05 A3015
KUOX,2023-04-25T21:15:00Z,KUOX 252115Z AUTO 00000KT 10SM FEW075 18/01 A3008 RMK AO2
KUSE,2023-04-25T21:15:00Z,KUSE 252115Z AUTO 01005KT 10SM -DZ FEW013 FEW033 06/06 A3014 RMK AO2
KUTA,2023-04-25T21:15:00Z,KUTA 252115Z AUTO 00000KT 9SM CLR 20/06 A3007 RMK AO2 T01960057 $
KUTS,2023-04-25T20:53:00Z,KUTS 252053Z AUTO 10005KT 9SM SCT050 23/17 A2990 RMK AO2 SLP122 T02330167 58022
KUUU,2023-04-25T20:53:00Z,KUUU 252053Z AUTO 21008KT 180V250 10SM SCT075 13/03 A3014 RMK AO2 SLP204 T01330028 53002
KUUV,2023-04-25T21:15:00Z,KUUV 252115Z AUTO 25004KT 10SM CLR 20/01 A3008 RMK AO2
KUVA,2023-04-25T21:15:00Z,KUVA 252115Z AUTO 00000KT 10SM BKN035 OVC041 25/18 A2983 RMK AO2 T02450177
KUXL,2023-04-25T21:15:00Z,KUXL 252115Z AUTO 06007KT 10SM SCT035 25/16 A2993 RMK AO2 T02480160
KUYF,2023-04-25T21:15:00Z,KUYF 252115Z AUTO 26010G14KT 10SM SCT075 BKN085 OVC110 12/M06 A3013 RMK AO2
KUZA,2023-04-25T20:54:00Z,KUZA 252054Z AUTO VRB05KT 10SM OVC090 17/06 A3012 RMK AO2 SLP197 T01720056 55002
KVAD,2023-04-25T20:55:00Z,KVAD 252055Z AUTO 35006KT 10SM FEW180 FEW210 27/14 A2993 RMK AO2 SLP136 T02680138 57017 $
KVAY,2023-04-25T20:54:00Z,KVAY 252054Z AUTO 32003KT 10SM BKN070 14/M01 A3017 RMK AO2 SLP217 T01391011 55000
KVBG,2023-04-25T20:55:00Z,KVBG 252055Z 29005KT 6SM BR OVC007 13/10 A2996 RMK AO2A SLP149 T01250102 50000
KVBT,2023-04-25T20:56:00Z,KVBT 252056Z AUTO 21007KT 10SM OVC045 14/06 A3007 RMK AO2 SLP182 T01440061 56006
KVBW,2023-04-25T21:15:00Z,KVBW 252115Z AUTO 16005KT 10SM CLR 15/M01 A3013 RMK AO1 T01471012
KVCB,2023-04-25T20:53:00Z,KVCB 252053Z AUTO 36009KT 10SM CLR 29/01 A2990 RMK AO2 SLP124 T02940006 58015
KVCT,2023-04-25T21:02:00Z,KVCT 252102Z 14014KT 10SM SCT023 BKN030 OVC090 24/21 A2985 RMK AO2 T02440206
KVCV,2023-04-25T21:10:00Z,KVCV 252110Z AUTO 35011G17KT 10SM CLR 27/M09 A2993 RMK AO2
KVDF,2023-04-25T21:15:00Z,KVDF 252115Z AUTO 28003KT 10SM SCT039 BKN046 BKN055 28/23 A2990 RMK AO2
KVDI,2023-04-25T21:15:00Z,KVDI 252115Z AUTO 12008KT 10SM BKN018 BKN030 BKN044 21/17 A3002 RMK AO2
KVEL,2023-04-25T20:53:00Z,KVEL 252053Z AUTO 07013G23KT 10SM CLR 12/M02 A2993 RMK AO2 SLP113 T01171022 53005
KVER,2023-04-25T21:15:00Z,KVER 252115Z AUTO 16003KT 10SM CLR 20/05 A3007 RMK AO2 T02020045
KVES,2023-04-25T21:10:00Z,KVES 252110Z AUTO 26010KT 10SM OVC060 12/M03 A3011 RMK AO2
KVGC,2023-04-25T21:15:00Z,KVGC 252115Z AUTO 29003KT 10SM BKN080 07/M01 A3017 RMK AO2
KVGT,2023-04-25T20:53:00Z,KVGT 252053Z 34013G19KT 10SM CLR 27/M10 A2990 RMK AO2 PK WND 31027/2019 SLP121 T02671100 58006
KVHN,2023-04-25T21:15:00Z,KVHN 252115Z AUTO 25013G21KT 220V280 10SM CLR 28/M06 A2985 RMK AO2 T02841059
KVIH,2023-04-25T20:53:00Z,KVIH 252053Z AUTO 12004KT 10SM CLR 19/01 A3007 RMK AO2 SLP178 T01940006 58016
KVIS,2023-04-25T20:56:00Z,KVIS 252056Z AUTO VRB03KT 10SM CLR 25/10 A2991 RMK AO2 SLP134 T02500100 58014
KVJI,2023-04-25T21:15:00Z,KVJI 252115Z AUTO 36003KT 10SM SCT120 14/M09 A3012 RMK AO2 T01441088
KVKS,2023-04-25T21:15:00Z,KVKS 252115Z AUTO 00000G10KT 10SM FEW120 24/09 A2996 RMK A01
KVKY,2023-04-25T21:15:00Z,KVKY 252115Z AUTO 07015KT 10SM CLR A2996 RMK A01
KVLD,2023-04-25T20:53:00Z,KVLD 252053Z 03005KT 10SM SCT060 28/14 A2994 RMK AO1 SLP143 T02830144 58017
KVLL,2023-04-25T21:15:00Z,KVLL 252115Z AUTO 00000KT 10SM BKN012 OVC023 05/02 A3018 RMK AO2 T00500022
KVNC,2023-04-25T21:15:00Z,KVNC 252115Z AUTO 26009G17KT 10SM CLR 28/22 A2990 RMK AO2
KVNW,2023-04-25T21:15:00Z,KVNW 252115Z AUTO 34006G14KT 10SM OVC060 11/00 A3011 RMK AO2
KVNY,2023-04-25T20:51:00Z,KVNY 252051Z 15007KT 10SM CLR 24/12 A2987 RMK AO2 SLP109 T02390122 58011
KVOA,2023-04-25T21:15:00Z,KVOA 252115Z AUTO 05014KT 10SM FEW013 BKN024 OVC028 22/19 A2995 RMK A01
KVOK,2023-04-25T20:55:00Z,KVOK 252055Z 01006KT 10SM BKN060 09/M04 A3019 RMK AO2A SLP235 T00861042 53001
KVPC,2023-04-25T21:15:00Z,KVPC 252115Z AUTO 29005KT 10SM SCT110 21/04 A3004 RMK AO2
KVPS,2023-04-25T20:55:00Z,KVPS 252055Z 21008KT 10SM SCT090 24/17 A2995 RMK AO2A SLP149 T02410173 57015 $
KVPZ,2023-04-25T21:04:00Z,KVPZ 252104Z AUTO 01011KT 10SM FEW020 07/02 A3016 RMK AO2 T00720017
KVQQ,2023-04-25T20:50:00Z,KVQQ 252050Z 06009KT 10SM BKN040 24/17 A2995
KVRB,2023-04-25T21:09:00Z,KVRB 252109Z 19010KT 10SM FEW032 BKN095 BKN110 23/21 A2988 RMK AO2 LTG DSNT S AND SW RAE05 P0000 T02330211
KVSF,2023-04-25T20:54:00Z,KVSF 252054Z AUTO 21006KT 10SM BKN070 OVC085 10/03 A3015 RMK AO2 SLP216 60000 T01000028 53001
KVTA,2023-04-25T20:54:00Z,KVTA 252054Z AUTO 25008KT 10SM BKN080 13/M02 A3013 RMK AO2 SLP207 T01281017 56013
KVTI,2023-04-25T21:15:00Z,KVTI 252115Z AUTO 02008KT 360V060 10SM CLR 15/M02 A3015 RMK AO2 T01461019
KVTN,2023-04-25T20:52:00Z,KVTN 252052Z AUTO 09011G21KT 10SM BKN050 OVC060 15/02 A3005 RMK AO2 SLP180 T01500017 57001
KVTP,2023-04-25T21:15:00Z,KVTP 252115Z AUTO 22007G14KT 180V260 7SM SCT030 BKN050 OVC090 02/M05 A2992 RMK AO2
KVUJ,2023-04-25T21:05:00Z,KVUJ 252105Z AUTO 00000KT 10SM SCT055 BKN065 OVC085 19/07 A3016 RMK AO2 T01850065
KVVS,2023-04-25T21:10:00Z,KVVS 252110Z AUTO 19003KT 10SM OVC100 13/M04 A3014 RMK AO2 T01301038
KVVV,2023-04-25T21:15:00Z,KVVV 252115Z AUTO 09008KT 026V106 10SM CLR 09/M04 A3023 RMK AO2
KVWU,2023-04-25T21:15:00Z,KVWU 252115Z AUTO 00000KT 10SM BKN065 08/M06 A3027 RMK AO2
KVYS,2023-04-25T21:15:00Z,KVYS 252115Z AUTO 03010G15KT 10SM SCT033 OVC040 10/02 A3017 RMK AO2 T01040022
KW13,2023-04-25T21:15:00Z,KW13 252115Z AUTO 15009KT 10SM CLR 14/00 A3014 RMK AO1 T01371001
KW22,2023-04-25T21:15:00Z,KW22 252115Z AUTO 32004KT 10SM CLR 17/M08 A3011 RMK AO2
KW29,2023-04-25T21:05:00Z,KW29 252105Z AUTO 16007KT 140V240 10SM CLR 15/00 A3019 RMK AO2 T01500005
KW31,2023-04-25T21:15:00Z,KW31 252115Z AUTO 00000KT 10SM BKN050 M37/M44 A3015 RMK AO1 T13691443
KW40,2023-04-25T21:05:00Z,KW40 252105Z AUTO 02004KT 10SM SCT070 SCT120 20/06 A3012 RMK AO2 T02010059
KW43,2023-04-25T21:15:00Z,KW43 252115Z AUTO 10016G20KT 10SM SCT120 12/03 A3002 RMK AO2
KW63,2023-04-25T21:15:00Z,KW63 252115Z AUTO 00000KT 10SM CLR 17/07 A3015 RMK AO1
KW75,2023-04-25T21:15:00Z,KW75 252115Z AUTO 10004KT 10SM CLR 14/02 A3019 RMK AO1 T01360022
KW78,2023-04-25T21:15:00Z,KW78 252115Z AUTO 00000KT 10SM CLR 17/03 A3015 RMK AO1 T01670032
KW81,2023-04-25T21:15:00Z,KW81 252115Z AUTO 00000KT 10SM CLR 15/01 A3015 RMK AO1 T01490009
KWAL,2023-04-25T20:54:00Z,KWAL 252054Z AUTO 17008KT 10SM SCT070 14/03 A3020 RMK AO2 SLP223 T01440033 55000
KWDG,2023-04-25T20:50:00Z,KWDG 252050Z 09013KT 5SM RA BKN006 OVC042 09/09 A3000
KWDR,2023-04-25T21:15:00Z,KWDR 252115Z AUTO 00000KT 10SM SCT060 BKN075 19/06 A3007 RMK AO2
KWJF,2023-04-25T20:56:00Z,KWJF 252056Z 07009KT 10SM CLR 29/M02 A2990 RMK AO2 SLP107 T02891017 58009
KWLD,2023-04-25T20:54:00Z,KWLD 252054Z AUTO 13006KT 6SM RA BR BKN029 BKN039 OVC049 10/08 A3005 RMK AO2 RAB23 SLP177 P0003 60003 T01000083 58005
KWMC,2023-04-25T20:56:00Z,KWMC 252056Z AUTO VRB03KT 10SM CLR 15/M06 A3014 RMK AO2 SLP192 T01501061 57008
KWRB,2023-04-25T20:55:00Z,KWRB 252055Z AUTO 02005KT 10SM CLR 25/12 A2999 RMK AO2 SLP157 T02540122 57013
KWRI,2023-04-25T20:55:00Z,KWRI 252055Z AUTO 31006KT 10SM CLR 14/M01 A3016 RMK AO2 SLP213 T01391013 $
KWRL,2023-04-25T20:53:00Z,KWRL 252053Z AUTO 00000KT 10SM FEW060 OVC080 16/M02 A2990 RMK AO2 LTG DSNT NE SLP114 T01611017 53002
KWST,2023-04-25T20:53:00Z,KWST 252053Z AUTO 18007KT 10SM CLR 13/06 A3015 RMK AO2 SLP209 T01330061 53002
KWVI,2023-04-25T20:53:00Z,KWVI 252053Z AUTO 21005KT 10SM CLR 20/09 A2994 RMK AO2 SLP139 T02000094 58010
KWVL,2023-04-25T20:56:00Z,KWVL 252056Z AUTO 11003KT 10SM OVC009 06/05 A3019 RMK AO2 RAE47 CIG 008V014 SLP255 P0000 60002 T00610050 53002
KWWD,2023-04-25T20:56:00Z,KWWD 252056Z AUTO 32007KT 10SM FEW070 14/00 A3019 RMK AO2 SLP225 T01440000 55001 $
KWWR,2023-04-25T21:15:00Z,KWWR 252115Z AUTO 09015KT 3SM -RA OVC003 08/07 A2994 RMK AO2
KX07,2023-04-25T21:15:00Z,KX07 252115Z AUTO 10006KT 1 1/4SM BR SCT005 SCT027 BKN038 21/21 A2990 RMK A01
KX26,2023-04-25T21:10:00Z,KX26 252110Z AUTO 08005KT 10SM -RA SCT050 SCT075 BKN095 25/19 A2990 RMK AO2 TSNO
KX60,2023-04-25T21:15:00Z,KX60 252115Z AUTO 15006KT 10SM BKN041 OVC050 24/18 A2992 RMK AO2 T02410184
KXBP,2023-04-25T21:10:00Z,KXBP 252110Z AUTO 17009KT 10SM SCT039 BKN048 OVC070 20/13 A2990 RMK AO2 T02020127
KXLL,2023-04-25T21:15:00Z,KXLL 252115Z AUTO 00000KT 10SM CLR 13/M04 A3019 RMK AO2
KXNA,2023-04-25T20:53:00Z,KXNA 252053Z 18008KT 10SM OVC049 15/06 A3005 RMK AO2 SLP173 T01500056 58005
KXNO,2023-04-25T20:55:00Z,KXNO 252055Z AUTO 11010KT 10SM -DZ BKN100 BKN120 23/03 A3006 RMK AO2 SLP181 P0000 60000 T02290029 57010 $
KXNX,2023-04-25T21:15:00Z,KXNX 252115Z AUTO 00000KT 10SM CLR 20/M03 A3011 RMK A01
KXSA,2023-04-25T21:15:00Z,KXSA 252115Z AUTO 10005KT 10SM BKN065 15/02 A3019 RMK AO2 T01530022
KXVG,2023-04-25T21:13:00Z,KXVG 252113Z AUTO 05006KT 10SM CLR 07/M08 A3026 RMK AO2
KXWA,2023-04-25T20:51:00Z,KXWA 252051Z AUTO 17013G23KT 10SM CLR 14/M03 A3007 RMK AO2 SLP205 T01391028 58013
KY19,2023-04-25T21:15:00Z,KY19 252115Z AUTO 17015G20KT 10SM CLR 11/M04 A3016 RMK AO2
KY23,2023-04-25T21:15:00Z,KY23 252115Z AUTO 01007KT 10SM OVC060 08/M03 A3024 RMK AO2 T00811032
KY31,2023-04-25T21:15:00Z,KY31 252115Z AUTO 29015G20KT 10SM SCT042 OVC050 07/00 A3013 RMK AO2 T00660001
KY49,2023-04-25T21:15:00Z,KY49 252115Z AUTO 10005KT 10SM CLR 06/M08 A3026 RMK AO2 T00631080
KY50,2023-04-25T20:56:00Z,KY50 252056Z AUTO 35006KT 10SM OVC055 08/M04 A3021 RMK AO2 SLP237 6//// T00781044 56001 $
KY51,2023-04-25T21:15:00Z,KY51 252115Z AUTO 06004KT 10SM BKN050 08/M02 A3019 RMK AO1 T00801022
KY63,2023-04-25T21:15:00Z,KY63 252115Z AUTO 03004KT 10SM SCT060 12/M05 A3025 RMK AO2 T01181055
KY70,2023-04-25T21:15:00Z,KY70 252115Z AUTO 00000KT 10SM BKN070 09/M02 A3014 RMK AO2 T00851024
KYIP,2023-04-25T20:53:00Z,KYIP 252053Z 36003KT 10SM OVC014 05/02 A3017 RMK AO2 RAE07 SLP220 P0000 60002 T00500017 55003
KYKM,2023-04-25T20:53:00Z,KYKM 252053Z AUTO VRB04KT 10SM CLR 17/00 A3013 RMK AO2 SLP204 T01720000 56018
KYKN,2023-04-25T20:56:00Z,KYKN 252056Z AUTO 09011G16KT 9SM CLR 14/M02 A3012 RMK AO2 SLP215 T01391017 58011
KYNG,2023-04-25T20:51:00Z,KYNG 252051Z 24011KT 10SM -RA FEW038 OVC055 10/M02 A3015 RMK AO2 RAB39 SLP218 P0000 60000 T01001022 55003
KZER,2023-04-25T21:15:00Z,KZER 252115Z AUTO 28007KT 10SM BKN060 11/M06 A3017 RMK AO2
KZPH,2023-04-25T21:15:00Z,KZPH 252115Z AUTO 18007KT 10SM BKN042 BKN055 OVC110 25/18 A2990 RMK A02 LTG DSNT NE T02490184
KZZV,2023-04-25T20:53:00Z,KZZV 252053Z AUTO 35003KT 10SM OVC075 13/M03 A3013 RMK AO2 SLP208 T01281033 56011
LATI,2023-04-25T21:20:00Z,LATI 252120Z 12008KT 9999 FEW035CB SCT053 BKN075 15/10 Q1007 NOSIG
LBBG,2023-04-25T21:00:00Z,LBBG 252100Z AUTO 24004KT 9999 -RA NSC 13/11 Q1006 NOSIG
LBGO,2023-04-25T21:00:00Z,LBGO 252100Z AUTO 10003KT 9999 FEW063/// BKN190/// 08/08 Q1006
LBIA,2023-04-25T21:00:00Z,LBIA 252100Z 36004KT 9999 BKN100 12/12 Q1006
LBPD,2023-04-25T21:00:00Z,LBPD 252100Z AUTO 28007KT 9999 BKN079/// OVC099/// 13/11 Q1006
LBPG,2023-04-25T21:00:00Z,LBPG 252100Z 31006KT 9999 OVC050 13/10 Q1007
LBPL,2023-04-25T21:00:00Z,LBPL 252100Z 27004KT 9999 SCT056 BKN100 13/09 Q1007
LBSF,2023-04-25T21:00:00Z,LBSF 252100Z AUTO 30006KT 9999 BKN070/// 09/06 Q1008 NOSIG
LBWN,2023-04-25T21:00:00Z,LBWN 252100Z AUTO 01004KT 9000 NSC 11/10 Q1006 TEMPO 5000 BR
LCEN,2023-04-25T20:50:00Z,LCEN 252050Z 32004KT 9999 FEW020 15/12 Q1013 NOSIG RMK RWY11 33005KT
LCLK,2023-04-25T21:00:00Z,LCLK 252100Z 28004KT 230V300 CAVOK 16/13 Q1013 NOSIG
LCPH,2023-04-25T21:00:00Z,LCPH 252100Z 02007KT CAVOK 14/10 Q1013 NOSIG
LCRA,2023-04-25T20:50:00Z,LCRA 252050Z 30005KT CAVOK 16/11 Q1012 NOSIG
LDDU,2023-04-25T21:00:00Z,LDDU 252100Z 10005KT 070V130 9999 -RA VCTS FEW025CB 14/10 Q1007 TEMPO 31010KT 3000 TSRA
LDOS,2023-04-25T21:00:00Z,LDOS 252100Z 36005KT CAVOK 10/06 Q1008
LDPL,2023-04-25T21:00:00Z,LDPL 252100Z 32008KT CAVOK 10/07 Q1010
LDRI,2023-04-25T21:00:00Z,LDRI 252100Z 00000KT CAVOK 08/07 Q1010
LDSP,2023-04-25T21:00:00Z,LDSP 252100Z 01005KT CAVOK 11/09 Q1006 NOSIG
LDZA,2023-04-25T21:00:00Z,LDZA 252100Z 10005KT 060V140 CAVOK 11/07 Q1010 NOSIG
LDZD,2023-04-25T21:00:00Z,LDZD 252100Z 31004KT 250V020 9999 SCT028 BKN060 09/09 Q1009
LEAB,2023-04-25T21:00:00Z,LEAB 252100Z 26004KT CAVOK 19/02 Q1017 NOSIG
LEAG,2023-04-25T21:00:00Z,LEAG 252100Z AUTO VRB01KT CAVOK 21/16 Q1014
LEAL,2023-04-25T21:00:00Z,LEAL 252100Z VRB02KT CAVOK 19/16 Q1013 NOSIG
LEAM,2023-04-25T21:00:00Z,LEAM 252100Z AUTO 12002KT CAVOK 19/16 Q1014
LEAO,2023-04-25T21:00:00Z,LEAO 252100Z 26005KT 230V290 CAVOK 21/03 Q1017
LEAS,2023-04-25T21:00:00Z,LEAS 252100Z 29003KT 240V310 9999 FEW010 BKN040 17/16 Q1017 NOSIG
LEBA,2023-04-25T21:00:00Z,LEBA 252100Z AUTO VRB01KT CAVOK 20/09 Q1014
LEBB,2023-04-25T21:00:00Z,LEBB 252100Z 12003KT 070V160 9999 SCT032 BKN047 16/15 Q1017 NOSIG
LEBG,2023-04-25T21:00:00Z,LEBG 252100Z AUTO 05010KT 020V080 CAVOK 14/11 Q1018
LEBL,2023-04-25T21:21:00Z,LEBL 252121Z 03005KT 310V070 9999 FEW012 16/14 Q1015 NOSIG
LEBR,2023-04-25T21:00:00Z,LEBR 252100Z AUTO 34008KT 9999 NSC 19/10 Q1016
LEBT,2023-04-25T21:00:00Z,LEBT 252100Z AUTO VRB02KT CAVOK 17/09 Q1014
LECH,2023-04-25T21:00:00Z,LECH 252100Z AUTO 00000KT CAVOK 18/09 Q1015
LECO,2023-04-25T21:00:00Z,LECO 252100Z 19009KT 9999 BKN020 16/14 Q1017 NOSIG
LEDA,2023-04-25T21:00:00Z,LEDA 252100Z AUTO 24008KT CAVOK 20/09 Q1013
LEGE,2023-04-25T21:00:00Z,LEGE 252100Z 29002KT 9999 BKN050 14/13 Q1016
LEGR,2023-04-25T21:00:00Z,LEGR 252100Z 21005KT CAVOK 20/02 Q1017
LEHC,2023-04-25T21:00:00Z,LEHC 252100Z AUTO 26006KT CAVOK 19/07 Q1015
LEIB,2023-04-25T21:00:00Z,LEIB 252100Z VRB01KT CAVOK 17/15 Q1013 NOSIG
LEJR,2023-04-25T21:00:00Z,LEJR 252100Z VRB02KT CAVOK 20/12 Q1014
LELC,2023-04-25T21:00:00Z,LELC 252100Z VRB02KT CAVOK 20/13 Q1013 NOSIG
LELL,2023-04-25T21:00:00Z,LELL 252100Z AUTO VRB01KT CAVOK 16/12 Q1016
LELN,2023-04-25T21:00:00Z,LELN 252100Z AUTO 28005KT 250V320 CAVOK 17/09 Q1018
LELO,2023-04-25T21:00:00Z,LELO 252100Z AUTO 30003KT 240V350 9999 OVC044 18/10 Q1017
LEMD,2023-04-25T21:00:00Z,LEMD 252100Z 34004KT 310V030 CAVOK 22/04 Q1016 NOSIG
LEMG,2023-04-25T21:00:00Z,LEMG 252100Z 00000KT CAVOK 19/13 Q1014 NOSIG
LEMH,2023-04-25T21:00:00Z,LEMH 252100Z 07005KT 020V080 9999 FEW006 16/15 Q1015
LEMI,2023-04-25T21:00:00Z,LEMI 252100Z AUTO 24007KT CAVOK 24/07 Q1013
LEPA,2023-04-25T21:00:00Z,LEPA 252100Z 26002KT CAVOK 17/15 Q1014 NOSIG
LEPP,2023-04-25T21:00:00Z,LEPP 252100Z 34007KT 9999 FEW037 15/10 Q1017
LERS,2023-04-25T21:00:00Z,LERS 252100Z 05004KT 9999 SCT010 16/14 Q1015
LERT,2023-04-25T21:00:00Z,LERT 252100Z 31008KT CAVOK 21/15 Q1014 NOSIG
LESA,2023-04-25T21:00:00Z,LESA 252100Z AUTO VRB02KT CAVOK 15/09 Q1018
LESB,2023-04-25T21:00:00Z,LESB 252100Z AUTO 22004KT CAVOK 17/15 Q1015
LESO,2023-04-25T21:00:00Z,LESO 252100Z AUTO VRB02KT 9999 OVC038 16/15 Q1017
LEST,2023-04-25T21:00:00Z,LEST 252100Z 23005KT 200V290 5000 BR OVC002 14/14 Q1018 NOSIG
LETL,2023-04-25T21:00:00Z,LETL 252100Z AUTO 36007KT CAVOK 17/04 Q1018
LETO,2023-04-25T21:00:00Z,LETO 252100Z VRB02KT CAVOK 18/05 Q1016 NOSIG
LETU,2023-04-25T21:00:00Z,LETU 252100Z AUTO 32007KT 9999 NSC 19/12 Q1017
LEVC,2023-04-25T21:00:00Z,LEVC 252100Z 11003KT CAVOK 19/14 Q1013 NOSIG
LEVD,2023-04-25T21:00:00Z,LEVD 252100Z AUTO 26009KT CAVOK 17/09 Q1017
LEVS,2023-04-25T21:00:00Z,LEVS 252100Z AUTO 25005KT CAVOK 20/05 Q1017
LEVT,2023-04-25T21:00:00Z,LEVT 252100Z 35003KT 330V040 8000 -RA FEW032 BKN070 14/13 Q1018
LEVX,2023-04-25T21:00:00Z,LEVX 252100Z 36003KT 330V040 9999 OVC018 15/13 Q1018 NOSIG
LEXJ,2023-04-25T21:00:00Z,LEXJ 252100Z 10003KT 070V140 9999 BKN045 16/15 Q1017
LEZG,2023-04-25T21:00:00Z,LEZG 252100Z 27009KT CAVOK 21/11 Q1015
LEZL,2023-04-25T21:00:00Z,LEZL 252100Z 25004KT CAVOK 26/08 Q1014 NOSIG
LFAQ,2023-04-25T21:00:00Z,LFAQ 252100Z AUTO 02005KT CAVOK 03/01 Q1019
LFAT,2023-04-25T21:00:00Z,LFAT 252100Z AUTO 07007KT CAVOK 05/02 Q1019
LFBA,2023-04-25T21:00:00Z,LFBA 252100Z AUTO 12004KT 4300 -DZ BR FEW010 OVC014 12/12 Q1017
LFBC,2023-04-25T21:00:00Z,LFBC 252100Z AUTO 24007KT 4000 -DZ BR BKN005 OVC010 14/14 Q1016 TEMPO 2000 RADZ
LFBD,2023-04-25T21:00:00Z,LFBD 252100Z AUTO VRB03KT 3000 -DZ BR BKN003 BKN008 OVC014 13/13 Q1016 TEMPO DZ
LFBE,2023-04-25T21:00:00Z,LFBE 252100Z AUTO VRB02KT 9999 -RADZ OVC030 11/10 Q1017
LFBG,2023-04-25T21:00:00Z,LFBG 252100Z AUTO 17004KT 140V200 9999 -DZ OVC036 12/09 Q1016 TEMPO 4000 -RA
LFBH,2023-04-25T21:00:00Z,LFBH 252100Z AUTO 15009KT 9999 BKN031 OVC040 12/09 Q1015 TEMPO 2500 -DZRA BKN003
LFBI,2023-04-25T21:00:00Z,LFBI 252100Z AUTO 05002KT CAVOK 12/05 Q1016 NOSIG
LFBL,2023-04-25T21:00:00Z,LFBL 252100Z AUTO 03004KT CAVOK 10/05 Q1016 TEMPO BKN014
LFBM,2023-04-25T21:00:00Z,LFBM 252100Z AUTO 24005KT 9999 FEW013 SCT023 BKN031 14/14 Q1017 TEMPO 4500 -RA BKN004
LFBO,2023-04-25T21:00:00Z,LFBO 252100Z AUTO 20005KT 180V240 9999 OVC016 12/11 Q1017 TEMPO 4000 -RADZ BKN005
LFBP,2023-04-25T21:00:00Z,LFBP 252100Z AUTO 26005KT 9999 BKN047/// BKN056/// BKN068/// //////TCU 16/13 Q1017 BECMG BKN030
LFBT,2023-04-25T21:00:00Z,LFBT 252100Z AUTO 28005KT 250V320 9999 BKN056 BKN068 OVC100 15/13 Q1017 TEMPO 4000 -RADZ BKN007
LFBU,2023-04-25T21:00:00Z,LFBU 252100Z AUTO 14002KT 9999 OVC047/// ///TCU 12/08 Q1016 BECMG OVC009
LFBX,2023-04-25T21:00:00Z,LFBX 252100Z AUTO 00000KT 9999 OVC049/// //////CB 11/09 Q1017
LFBY,2023-04-25T21:00:00Z,LFBY 252100Z AUTO VRB02KT 9999 // ////// 16/14 Q1017
LFBZ,2023-04-25T21:00:00Z,LFBZ 252100Z AUTO 21001KT 9999 OVC036 16/14 Q1017 NOSIG
LFCK,2023-04-25T21:00:00Z,LFCK 252100Z AUTO 15005KT 9999 OVC026 11/10 Q1018 TEMPO 4000 -RADZ BKN007
LFCR,2023-04-25T21:00:00Z,LFCR 252100Z AUTO VRB02KT 9999 OVC046 08/05 Q1017 NOSIG
LFGA,2023-04-25T21:00:00Z,LFGA 252100Z AUTO VRB02KT 9999 FEW019 SCT044 OVC056 08/06 Q1017
LFGJ,2023-04-25T21:00:00Z,LFGJ 252100Z AUTO 36006KT CAVOK 07/04 Q1017
LFJL,2023-04-25T21:00:00Z,LFJL 252100Z AUTO 31003KT 9999 NCD 06/02 Q1018 NOSIG
LFJR,2023-04-25T21:00:00Z,LFJR 252100Z AUTO 08008KT 9999 SCT044 BKN074 OVC086 12/07 Q1016
LFKB,2023-04-25T21:00:00Z,LFKB 252100Z AUTO 24004KT 110V270 CAVOK 14/09 Q1010 NOSIG
LFKC,2023-04-25T21:00:00Z,LFKC 252100Z AUTO 16010KT CAVOK 17/06 Q1010
LFKF,2023-04-25T21:00:00Z,LFKF 252100Z AUTO 22010KT 9999 FEW034 BKN230 15/10 Q1012 NOSIG
LFKJ,2023-04-25T21:00:00Z,LFKJ 252100Z AUTO 05005KT CAVOK 13/10 Q1012 NOSIG
LFKS,2023-04-25T21:00:00Z,LFKS 252100Z AUTO 25004KT CAVOK 15/09 Q1010
LFLB,2023-04-25T21:00:00Z,LFLB 252100Z AUTO VRB03KT CAVOK 07/05 Q1016
LFLC,2023-04-25T21:00:00Z,LFLC 252100Z AUTO 36003KT CAVOK 11/04 Q1016 NOSIG
LFLL,2023-04-25T21:00:00Z,LFLL 252100Z 02003KT CAVOK 10/03 Q1016 NOSIG
LFLN,2023-04-25T21:00:00Z,LFLN 252100Z AUTO 13003KT CAVOK 07/04 Q1017
LFLP,2023-04-25T21:00:00Z,LFLP 252100Z AUTO 32003KT CAVOK 08/04 Q1016
LFLS,2023-04-25T21:00:00Z,LFLS 252100Z AUTO 05005KT 020V090 CAVOK 09/01 Q1016
LFLW,2023-04-25T21:00:00Z,LFLW 252100Z AUTO VRB02KT CAVOK 09/06 Q1017
LFLX,2023-04-25T21:00:00Z,LFLX 252100Z AUTO 05007KT CAVOK 10/06 Q1016 NOSIG
LFLY,2023-04-25T21:00:00Z,LFLY 252100Z AUTO 33005KT CAVOK 08/03 Q1016 NOSIG
LFMC,2023-04-25T21:00:00Z,LFMC 252100Z AUTO VRB04KT 9999 ////// 17/M01 Q1011
LFMD,2023-04-25T21:00:00Z,LFMD 252100Z AUTO VRB02KT CAVOK 14/04 Q1010 NOSIG
LFMH,2023-04-25T21:00:00Z,LFMH 252100Z AUTO 02002KT CAVOK 08/03 Q1016
LFMI,2023-04-25T21:00:00Z,LFMI 252100Z AUTO 32008KT CAVOK 15/01 Q1013 TEMPO 34015G25KT
LFMK,2023-04-25T21:00:00Z,LFMK 252100Z AUTO 25006KT 230V290 9999 OVC022 13/10 Q1017
LFML,2023-04-25T21:00:00Z,LFML 252100Z AUTO 29012KT 9999 FEW013 16/03 Q1013 NOSIG
LFMN,2023-04-25T21:00:00Z,LFMN 252100Z VRB02KT CAVOK 16/09 Q1010 BECMG 34010KT
LFMO,2023-04-25T21:00:00Z,LFMO 252100Z AUTO 36011KT CAVOK 15/02 Q1014 NOSIG
LFMP,2023-04-25T21:00:00Z,LFMP 252100Z AUTO 34006KT 300V050 9999 FEW030 SCT098 16/11 Q1015 NOSIG
LFMT,2023-04-25T21:00:00Z,LFMT 252100Z AUTO 31004KT CAVOK 14/03 Q1015 NOSIG
LFMU,2023-04-25T21:00:00Z,LFMU 252100Z AUTO 31010KT CAVOK 16/04 Q1015
LFMV,2023-04-25T21:00:00Z,LFMV 252100Z AUTO 34012KT CAVOK 16/01 Q1013
LFMY,2023-04-25T21:00:00Z,LFMY 252100Z AUTO 35006KT CAVOK 15/01 Q1013
LFOA,2023-04-25T21:00:00Z,LFOA 252100Z AUTO 06008KT CAVOK 09/06 Q1017 NOSIG
LFOB,2023-04-25T21:00:00Z,LFOB 252100Z AUTO 04006KT 010V070 CAVOK 04/02 Q1018 NOSIG
LFOE,2023-04-25T21:00:00Z,LFOE 252100Z AUTO 09004KT CAVOK 08/02 Q1018 NOSIG
LFOH,2023-04-25T21:00:00Z,LFOH 252100Z AUTO 08008KT CAVOK 07/02 Q1018
LFOJ,2023-04-25T21:00:00Z,LFOJ 252100Z AUTO 07004KT CAVOK 07/04 Q1017 NOSIG
LFOK,2023-04-25T21:00:00Z,LFOK 252100Z AUTO 04004KT CAVOK 06/03 Q1018 NOSIG
LFOP,2023-04-25T21:00:00Z,LFOP 252100Z AUTO 04007KT CAVOK 05/03 Q1018
LFOT,2023-04-25T21:00:00Z,LFOT 252100Z AUTO 07006KT CAVOK 10/07 Q1017 NOSIG
LFOV,2023-04-25T21:00:00Z,LFOV 252100Z AUTO 10006KT 9999 -RA BKN045 OVC070 10/06 Q1016
LFOZ,2023-04-25T21:00:00Z,LFOZ 252100Z AUTO 06004KT CAVOK 06/04 Q1018
LFPB,2023-04-25T21:00:00Z,LFPB 252100Z AUTO 03004KT CAVOK 07/03 Q1018 NOSIG
LFPG,2023-04-25T21:00:00Z,LFPG 252100Z 07004KT CAVOK 07/02 Q1018 NOSIG
LFPM,2023-04-25T21:00:00Z,LFPM 252100Z AUTO 06004KT CAVOK 06/03 Q1018
LFPN,2023-04-25T21:00:00Z,LFPN 252100Z AUTO 11002KT CAVOK 06/03 Q1018
LFPO,2023-04-25T21:00:00Z,LFPO 252100Z 07002KT CAVOK 07/03 Q1018 NOSIG
LFPT,2023-04-25T21:00:00Z,LFPT 252100Z AUTO 06003KT CAVOK 05/03 Q1018
LFPV,2023-04-25T21:00:00Z,LFPV 252100Z AUTO 08005KT CAVOK 06/03 Q1018 NOSIG
LFQA,2023-04-25T21:00:00Z,LFQA 252100Z AUTO 35003KT CAVOK 02/02 Q1018
LFQB,2023-04-25T21:00:00Z,LFQB 252100Z AUTO 00000KT CAVOK 03/01 Q1018
LFQQ,2023-04-25T21:00:00Z,LFQQ 252100Z AUTO 03004KT CAVOK 05/01 Q1019 NOSIG
LFRB,2023-04-25T21:00:00Z,LFRB 252100Z AUTO 16009KT 9999 OVC033 10/05 Q1014 TEMPO 4000 -RADZ BECMG OVC005
LFRC,2023-04-25T21:00:00Z,LFRC 252100Z AUTO 10008KT 9999 FEW045 SCT120 BKN140 07/02 Q1018
LFRD,2023-04-25T21:00:00Z,LFRD 252100Z AUTO 08007KT 9999 OVC041 10/06 Q1016 TEMPO 4000 -RA
LFRG,2023-04-25T21:00:00Z,LFRG 252100Z AUTO 08006KT 050V110 CAVOK 07/03 Q1018
LFRH,2023-04-25T21:00:00Z,LFRH 252100Z AUTO 13012KT 9999 SCT023 OVC032 11/07 Q1015 TEMPO 3000 RADZ BECMG BKN008 OVC013
LFRI,2023-04-25T21:00:00Z,LFRI 252100Z AUTO 12005KT 9999 OVC036/// //////TCU 11/07 Q1015 BECMG BKN007
LFRJ,2023-04-25T21:00:00Z,LFRJ 252100Z AUTO 13006KT 9999 OVC039 11/07 Q1015 BECMG 4000 RADZ OVC012
LFRK,2023-04-25T21:00:00Z,LFRK 252100Z AUTO 09006KT CAVOK 08/04 Q1018
LFRL,2023-04-25T21:00:00Z,LFRL 252100Z AUTO 12010KT 090V170 9999 OVC030 10/06 Q1014 BECMG BKN004
LFRM,2023-04-25T21:00:00Z,LFRM 252100Z AUTO 08008KT 060V120 9999 BKN048 OVC100 11/06 Q1017 NOSIG
LFRN,2023-04-25T21:00:00Z,LFRN 252100Z AUTO 11007KT 9999 BKN041 OVC070 12/07 Q1016 TEMPO 4000 -RA
LFRO,2023-04-25T21:00:00Z,LFRO 252100Z AUTO 09007KT 050V120 9999 BKN046 OVC056 10/06 Q1015
LFRQ,2023-04-25T21:00:00Z,LFRQ 252100Z AUTO 13014KT 9999 BKN019 OVC027 10/07 Q1014 TEMPO 4000 -RADZ BECMG OVC004
LFRS,2023-04-25T21:00:00Z,LFRS 252100Z AUTO 13005KT 100V180 9999 BKN043 OVC050 11/07 Q1015 BECMG BKN009
LFRT,2023-04-25T21:00:00Z,LFRT 252100Z AUTO 08003KT 9999 BKN030 OVC039 10/07 Q1015
LFRV,2023-04-25T21:00:00Z,LFRV 252100Z AUTO 11003KT 9999 BKN029 OVC037 10/07 Q1015
LFRZ,2023-04-25T21:00:00Z,LFRZ 252100Z AUTO 14008KT 9999 SCT043 OVC052 12/09 Q1015 BECMG BKN013
LFSB,2023-04-25T21:00:00Z,LFSB 252100Z AUTO VRB02KT 9999 FEW037 SCT094 07/07 Q1017 TEMPO 3000 BR
LFSD,2023-04-25T21:00:00Z,LFSD 252100Z AUTO 33005KT CAVOK 06/04 Q1017
LFSG,2023-04-25T21:00:00Z,LFSG 252100Z AUTO 00000KT CAVOK 04/04 Q1017
LFSI,2023-04-25T21:00:00Z,LFSI 252100Z AUTO 09002KT CAVOK 04/03 Q1018
LFSL,2023-04-25T21:00:00Z,LFSL 252100Z AUTO 00000KT 9999 //////TCU 11/06 Q1017
LFSN,2023-04-25T21:00:00Z,LFSN 252100Z AUTO 00000KT CAVOK 07/06 Q1018
LFSO,2023-04-25T21:00:00Z,LFSO 252100Z AUTO 00000KT CAVOK 05/04 Q1017 NOSIG
LFST,2023-04-25T21:00:00Z,LFST 252100Z AUTO 03004KT 9999 -RA FEW010 SCT016 BKN025 07/05 Q1018 NOSIG
LFSX,2023-04-25T21:00:00Z,LFSX 252100Z AUTO 29001KT 9999 ////// 05/03 Q1017
LFTH,2023-04-25T21:00:00Z,LFTH 252100Z AUTO 34007KT CAVOK 16/M07 Q1011 NOSIG
LFTW,2023-04-25T21:00:00Z,LFTW 252100Z AUTO 35008KT CAVOK 14/02 Q1014
LFVP,2023-04-25T21:00:00Z,LFVP 252100Z AUTO 33009KT CAVOK 07/00 Q1021 NOSIG
LFYR,2023-04-25T21:00:00Z,LFYR 252100Z AUTO 06004KT CAVOK 11/06 Q1017
LGAD,2023-04-25T21:20:00Z,LGAD 252120Z VRB03KT 9999 FEW025 14/13 Q1010
LGAL,2023-04-25T21:20:00Z,LGAL 252120Z 00000KT 9999 FEW020 13/11 Q1006
LGAV,2023-04-25T21:20:00Z,LGAV 252120Z 28011KT CAVOK 18/06 Q1008 NOSIG
LGBL,2023-04-25T20:50:00Z,LGBL 252050Z 33007KT 9999 FEW030 15/07 Q1007
LGEL,2023-04-25T21:20:00Z,LGEL 252120Z 00000KT 9999 FEW025 19/07 Q1008
LGHI,2023-04-25T20:50:00Z,LGHI 252050Z 21008KT 9999 FEW025 16/13 Q1008
LGIO,2023-04-25T21:20:00Z,LGIO 252120Z AUTO VRB02KT //// // ////// 08/06 Q1010 RE//
LGIR,2023-04-25T21:20:00Z,LGIR 252120Z 16007KT 9999 FEW020 15/10 Q1011 NOSIG
LGKL,2023-04-25T21:20:00Z,LGKL 252120Z AUTO VRB01KT //// // ////// 12/10 Q1011 RE//
LGKO,2023-04-25T21:20:00Z,LGKO 252120Z 18007KT 9999 FEW018 16/13 Q1011
LGKP,2023-04-25T21:00:00Z,LGKP 252100Z AUTO 00000KT //// // ////// 16/14 Q1011 RERA
LGKR,2023-04-25T21:20:00Z,LGKR 252120Z 00000KT 9999 FEW012 SCT017 15/14 Q1008 NOSIG
LGKZ,2023-04-25T21:20:00Z,LGKZ 252120Z AUTO VRB02KT //// // ////// 10/01 Q1008 RE//
LGLM,2023-04-25T20:50:00Z,LGLM 252050Z 19003KT 9999 FEW020 17/14 Q1005
LGMK,2023-04-25T20:20:00Z,LGMK 252020Z 20008KT 9999 FEW018 17/12 Q1009
LGMT,2023-04-25T20:50:00Z,LGMT 252050Z 21011KT 9999 FEW020 18/14 Q1008
LGPZ,2023-04-25T20:50:00Z,LGPZ 252050Z 00000KT 9999 FEW025 15/12 Q1009 RMK FEW080 SCT180 BLU
LGRP,2023-04-25T21:20:00Z,LGRP 252120Z VRB02KT 9999 FEW018 17/09 Q1011 NOSIG
LGRX,2023-04-25T20:50:00Z,LGRX 252050Z 21005KT 9999 FEW025 15/14 Q1010 RMK FEW080 FEW180 BLU
LGSA,2023-04-25T21:20:00Z,LGSA 252120Z 26007KT 9999 FEW020 SCT080 16/13 Q1010
LGSM,2023-04-25T20:50:00Z,LGSM 252050Z 17006KT 9999 SCT025 17/12 Q1010
LGSO,2023-04-25T21:20:00Z,LGSO 252120Z AUTO 24017KT //// // ////// 17/13 Q1008 RE//
LGSR,2023-04-25T20:50:00Z,LGSR 252050Z 24017KT 9999 SCT025 17/16 Q1010
LGTS,2023-04-25T21:20:00Z,LGTS 252120Z 35005KT 320V020 9999 FEW035 16/12 Q1006 NOSIG
LHBP,2023-04-25T21:00:00Z,LHBP 252100Z 33004KT CAVOK 08/05 Q1008 NOSIG
LHDC,2023-04-25T20:45:00Z,LHDC 252045Z AUTO 33006KT 300V010 CAVOK 09/06 Q1007 NOSIG
LHKE,2023-04-25T20:45:00Z,LHKE 252045Z 32002KT CAVOK 08/04 Q1008 NOSIG RMK BLU
LHPA,2023-04-25T20:45:00Z,LHPA 252045Z 32010KT CAVOK 09/05 Q1010 NOSIG RMK BLU
LHPP,2023-04-25T20:45:00Z,LHPP 252045Z AUTO 36006KT CAVOK 10/05 Q1009
LHPR,2023-04-25T20:45:00Z,LHPR 252045Z AUTO 30009KT CAVOK 07/05 Q1010
LHSM,2023-04-25T20:45:00Z,LHSM 252045Z AUTO 33006KT CAVOK 09/05 Q1011
LHSN,2023-04-25T21:15:00Z,LHSN 252115Z 26004KT CAVOK 07/06 Q1007 NOSIG RMK BLU
LIBA,2023-04-25T20:55:00Z,LIBA 252055Z 28007KT 9999 FEW030 13/10 Q1009 RMK BKN SCT100 VIS MIN 9999 WIND THR11 /////KT WIND THR29 /////KT BLU
LIBD,2023-04-25T21:20:00Z,LIBD 252120Z 28015KT CAVOK 16/11 Q1007
LIBF,2023-04-25T20:50:00Z,LIBF 252050Z 29007KT 9999 BKN030 13/11 Q1010
LIBN,2023-04-25T20:55:00Z,LIBN 252055Z 23005KT CAVOK 15/14 Q1008 RMK SKC VIS MIN 9999 WIND THR14 25008KT WIND THR32 23006KT BLU
LIBP,2023-04-25T21:20:00Z,LIBP 252120Z AUTO VRB02KT 9999 NCD 11/09 Q1011
LIBQ,2023-04-25T20:55:00Z,LIBQ 252055Z AUTO 26008KT //// 06/05 Q1010
LIBR,2023-04-25T21:20:00Z,LIBR 252120Z 25013KT CAVOK 16/11 Q1007
LIBV,2023-04-25T20:55:00Z,LIBV 252055Z 26003KT CAVOK 14/09 Q1007 RMK BKN SCT060 BKN070 VIS MIN 9999 WIND THR32 26004KT WIND THR14 28005KT BLU
LICA,2023-04-25T21:20:00Z,LICA 252120Z AUTO 24011KT 9999 BKN012/// BKN058/// 17/16 Q1010
LICB,2023-04-25T21:20:00Z,LICB 252120Z AUTO 06002KT 9999 NCD 12/11 Q1013
LICC,2023-04-25T21:20:00Z,LICC 252120Z 26008KT CAVOK 15/13 Q1011
LICD,2023-04-25T21:20:00Z,LICD 252120Z AUTO 23003KT 9999 NCD 18/14 Q1014
LICJ,2023-04-25T21:20:00Z,LICJ 252120Z 20012KT CAVOK 18/10 Q1012
LICR,2023-04-25T21:20:00Z,LICR 252120Z AUTO 03009KT 9999 SCT230/// 17/08 Q1012
LICT,2023-04-25T20:55:00Z,LICT 252055Z 22003KT CAVOK 15/13 Q1013 RMK FEW FEW150 VIS MIN 9999 WIND THR13 25005KT BLU
LICZ,2023-04-25T20:55:00Z,LICZ 252055Z /////KT CAVOK 17/16 Q1010 RMK SKC VIS MIN 9999 WIND THR28 25010KT WIND THR10 26009KT A2986 BLU
LIEA,2023-04-25T21:20:00Z,LIEA 252120Z VRB03KT 9999 SCT013 16/15 Q1014
LIEB,2023-04-25T20:55:00Z,LIEB 252055Z 29011KT CAVOK 19/08 Q1010 RMK SKC QUK / QUL / VIS MAR 20 KM MON INVIS VIS MIN 9999
LIED,2023-04-25T20:55:00Z,LIED 252055Z 27002KT CAVOK 15/14 Q1013 RMK SKC VIS MIN 9999 WIND THR35 /////KT WIND THR17 35002KT BLU
LIEE,2023-04-25T21:20:00Z,LIEE 252120Z 02007KT CAVOK 16/13 Q1014
LIEO,2023-04-25T21:20:00Z,LIEO 252120Z 27020KT CAVOK 18/10 Q1012
LIMC,2023-04-25T21:20:00Z,LIMC 252120Z 09006KT CAVOK 11/07 Q1012 NOSIG
LIME,2023-04-25T21:20:00Z,LIME 252120Z AUTO 02004KT 9999 NCD 08/07 Q1012
LIMF,2023-04-25T21:20:00Z,LIMF 252120Z 36003KT 310V030 CAVOK 13/M05 Q1011
LIMH,2023-04-25T20:55:00Z,LIMH 252055Z AUTO 03025KT //// M11/M29 Q1011
LIMJ,2023-04-25T21:20:00Z,LIMJ 252120Z VRB01KT 9999 SCT025 15/13 Q1011
LIML,2023-04-25T21:20:00Z,LIML 252120Z 05006KT CAVOK 11/08 Q1012 NOSIG
LIMP,2023-04-25T20:50:00Z,LIMP 252050Z VRB03KT CAVOK 08/07 Q1011
LIMZ,2023-04-25T21:20:00Z,LIMZ 252120Z AUTO 26004KT 220V280 9999 NCD 10/03 Q1011
LIPB,2023-04-25T20:50:00Z,LIPB 252050Z VRB01KT 9999 FEW070 10/04 Q1012
LIPC,2023-04-25T20:55:00Z,LIPC 252055Z 22003KT CAVOK 09/08 Q1012 RMK SKC VIS MIN 9999 WIND THR11 23003KT WIND THR29 24002KT BLU
LIPE,2023-04-25T21:20:00Z,LIPE 252120Z 23003KT CAVOK 10/07 Q1011
LIPH,2023-04-25T21:20:00Z,LIPH 252120Z AUTO 22005KT 9999 NCD 09/08 Q1011
LIPI,2023-04-25T20:55:00Z,LIPI 252055Z 16001KT CAVOK 08/07 Q1010 RMK SKC VIS MIN 9999 WIND THR06 18002KT WIND THR24 15001KT BLU
LIPK,2023-04-25T20:50:00Z,LIPK 252050Z 00000KT CAVOK 08/05 Q1011
LIPL,2023-04-25T20:55:00Z,LIPL 252055Z 02003KT CAVOK 09/09 Q1010 RMK SKC VIS MIN 9999 WIND THR31 03004KT WIND THR13 01003KT BLU
LIPO,2023-04-25T21:20:00Z,LIPO 252120Z AUTO 01006KT 9999 NCD 10/08 Q1012
LIPQ,2023-04-25T21:20:00Z,LIPQ 252120Z AUTO VRB01KT 9999 NCD 09/09 Q1011
LIPR,2023-04-25T21:20:00Z,LIPR 252120Z AUTO 20002KT 9999 SCT150/// 08/07 Q1011
LIPS,2023-04-25T20:55:00Z,LIPS 252055Z 24002KT CAVOK 08/06 Q1011 RMK SKC VIS MIN 9999 WIND THR26 18002KT WIND THR08 19001KT BLU
LIPX,2023-04-25T21:20:00Z,LIPX 252120Z 34004KT 310V010 CAVOK 09/07 Q1012
LIPY,2023-04-25T21:20:00Z,LIPY 252120Z AUTO 20004KT 9999 NCD 09/08 Q1011
LIPZ,2023-04-25T21:20:00Z,LIPZ 252120Z 24007KT CAVOK 11/08 Q1011 NOSIG
LIQC,2023-04-25T20:55:00Z,LIQC 252055Z 26006KT 9999 BKN025 15/14 Q1010 RMK BKN QUK / QUL / VIS MAR 15 KM VIS MIN 9999
LIRA,2023-04-25T21:20:00Z,LIRA 252120Z VRB01KT CAVOK 14/10 Q1009
LIRE,2023-04-25T20:55:00Z,LIRE 252055Z 36004KT CAVOK 13/11 Q1010 RMK SKC VIS MIN 9999 WIND THR13 35004KT WIND THR31 /////KT BLU
LIRF,2023-04-25T21:20:00Z,LIRF 252120Z 32005KT CAVOK 12/10 Q1009 NOSIG
LIRK,2023-04-25T20:55:00Z,LIRK 252055Z AUTO /////KT //// 02/M01 Q1018
LIRM,2023-04-25T20:55:00Z,LIRM 252055Z 20005KT 9999 SCT030 14/13 Q1009 RMK SCT VIS MIN 9999 WIND THR06 23005KT BLU
LIRN,2023-04-25T21:20:00Z,LIRN 252120Z 24004KT 200V270 9999 BKN075 15/13 Q1009 NOSIG
LIRP,2023-04-25T21:15:00Z,LIRP 252115Z VRB03KT CAVOK 09/09 Q1011 NOSIG
LIRQ,2023-04-25T21:20:00Z,LIRQ 252120Z 12003KT CAVOK 10/09 Q1011
LIRS,2023-04-25T20:55:00Z,LIRS 252055Z 08004KT CAVOK 13/12 Q1010 RMK SKC VIS MIN 9999 WIND THR03 VRB01KT WIND THR21 09001KT BLU
LIRZ,2023-04-25T21:20:00Z,LIRZ 252120Z AUTO 35003KT 310V030 9999 BKN100/// 10/08 Q1011
LIVC,2023-04-25T20:55:00Z,LIVC 252055Z AUTO /////KT //// M01/M03 Q1012
LIVD,2023-04-25T20:55:00Z,LIVD 252055Z AUTO VRB02KT //// 02/M03 Q1013
LIVE,2023-04-25T20:55:00Z,LIVE 252055Z 03006G17KT CAVOK 02/M03 Q1012 RMK SKC VIS MIN 9999
LIVF,2023-04-25T20:55:00Z,LIVF 252055Z 21004KT CAVOK 07/03 Q1010
LIVM,2023-04-25T20:55:00Z,LIVM 252055Z AUTO /////KT //// ///// Q////
LIVP,2023-04-25T20:55:00Z,LIVP 252055Z 35012KT CAVOK M03/M07 Q1010
LIVR,2023-04-25T20:55:00Z,LIVR 252055Z 29005KT CAVOK M01/M11 Q1010 RMK SKC MON LIB VIS MIN 9999
LIVT,2023-04-25T20:55:00Z,LIVT 252055Z AUTO VRB02KT //// 11/09 Q1011
LJCE,2023-04-25T21:00:00Z,LJCE 252100Z AUTO 05004KT 360V090 9999 -RA NSC 11/05 Q1011
LJLJ,2023-04-25T21:00:00Z,LJLJ 252100Z 28001KT 9999 FEW060 SCT085 BKN180 07/05 Q1010 NOSIG
LJMB,2023-04-25T21:00:00Z,LJMB 252100Z AUTO 35001KT 9999 NSC 08/07 Q1011
LJPZ,2023-04-25T21:00:00Z,LJPZ 252100Z AUTO 12005KT 9999 NCD 08/07 Q1011
LKCV,2023-04-25T21:00:00Z,LKCV 252100Z 29009KT CAVOK 06/02 Q1013 NOSIG RMK BLU BLU
LKKB,2023-04-25T21:00:00Z,LKKB 252100Z 26007KT CAVOK 06/00 Q1013
LKKV,2023-04-25T21:00:00Z,LKKV 252100Z 28005KT 240V310 CAVOK 03/M04 Q1013
LKLN,2023-04-25T21:00:00Z,LKLN 252100Z AUTO VRB02KT 9999 FEW060 OVC069 07/M00 Q1014
LKMT,2023-04-25T21:00:00Z,LKMT 252100Z 33009KT 290V360 CAVOK 08/03 Q1011 NOSIG
LKNA,2023-04-25T21:00:00Z,LKNA 252100Z 30010KT CAVOK 04/01 Q1012 RMK BLU
LKPD,2023-04-25T21:00:00Z,LKPD 252100Z 28008KT CAVOK 07/01 Q1013 RMK BLACK
LKPR,2023-04-25T21:00:00Z,LKPR 252100Z 25006KT CAVOK 03/M00 Q1013 NOSIG
LKTB,2023-04-25T21:00:00Z,LKTB 252100Z 30007KT CAVOK 08/01 Q1011 NOSIG
LLBG,2023-04-25T21:20:00Z,LLBG 252120Z VRB02KT CAVOK 16/12 Q1014 NOSIG
LMML,2023-04-25T21:15:00Z,LMML 252115Z 28008KT CAVOK 16/10 Q1014 NOSIG
LOWG,2023-04-25T21:20:00Z,LOWG 252120Z AUTO 04003KT 9999 FEW070 07/01 Q1011 NOSIG
LOWI,2023-04-25T21:20:00Z,LOWI 252120Z AUTO 10003KT 070V130 9999 -RA FEW022 BKN026 06/04 Q1016
LOWK,2023-04-25T21:20:00Z,LOWK 252120Z 29004KT 250V350 9999 FEW080 07/04 Q1012 NOSIG
LOWL,2023-04-25T21:20:00Z,LOWL 252120Z AUTO 28006KT 9999 FEW020 SCT044 06/04 Q1015
LOWS,2023-04-25T21:20:00Z,LOWS 252120Z AUTO 18006KT 9999 -RA FEW022 BKN026 06/05 Q1016
LOWW,2023-04-25T21:20:00Z,LOWW 252120Z 30009KT CAVOK 09/05 Q1012 NOSIG
LOXZ,2023-04-25T20:50:00Z,LOXZ 252050Z VRB02KT 9999 FEW060 BKN070 07/01 Q1012
LPAZ,2023-04-25T21:00:00Z,LPAZ 252100Z 17008KT 0900 R18/1400D -DZ FG VV002 18/18 Q1010
LPBJ,2023-04-25T21:00:00Z,LPBJ 252100Z 30008KT CAVOK 21/10 Q1016
LPCS,2023-04-25T21:00:00Z,LPCS 252100Z 01015KT CAVOK 16/13 Q1017
LPFR,2023-04-25T21:00:00Z,LPFR 252100Z 28003KT 250V310 CAVOK 21/16 Q1014
LPHR,2023-04-25T21:00:00Z,LPHR 252100Z 21007KT 9999 FEW006 17/16 Q1006
LPLA,2023-04-25T21:00:00Z,LPLA 252100Z /////KT 9999 FEW012 SCT023 19/15 Q1008
LPMA,2023-04-25T21:00:00Z,LPMA 252100Z VRB03KT 9999 FEW016 19/14 Q1016
LPMR,2023-04-25T21:00:00Z,LPMR 252100Z 36004KT CAVOK 15/13 Q1018
LPMT,2023-04-25T21:00:00Z,LPMT 252100Z 34006KT CAVOK 18/13 Q1017
LPPD,2023-04-25T21:00:00Z,LPPD 252100Z 17006KT 140V200 0800 0400NW FG VV001 18/17 Q1009
LPPR,2023-04-25T21:00:00Z,LPPR 252100Z 33004KT CAVOK 15/14 Q1018
LPPS,2023-04-25T21:00:00Z,LPPS 252100Z 09004KT 010V150 9999 FEW015 18/15 Q1017
LPPT,2023-04-25T21:00:00Z,LPPT 252100Z 33011KT CAVOK 17/13 Q1017
LQBK,2023-04-25T21:00:00Z,LQBK 252100Z 28007KT 240V310 9999 -RA SCT045 12/10 Q1009 NOSIG
LQMO,2023-04-25T21:00:00Z,LQMO 252100Z VRB03KT 9999 FEW036 BKN076 11/10 Q1006
LQSA,2023-04-25T21:00:00Z,LQSA 252100Z VRB02KT 8000 RA FEW020 SCT030 BKN040 09/09 Q1008
LQTZ,2023-04-25T21:00:00Z,LQTZ 252100Z VRB02KT 9999 SCT045 10/09 Q1007
LRAR,2023-04-25T21:00:00Z,LRAR 252100Z 27002KT 9999 MIFG NSC 07/07 Q1007
LRBC,2023-04-25T21:00:00Z,LRBC 252100Z 17007KT 9999 FEW060 11/09 Q1002
LRBM,2023-04-25T21:00:00Z,LRBM 252100Z AUTO 26010KT 9999 -RA FEW004/// BKN006/// BKN008/// 08/08 Q1004
LRBS,2023-04-25T21:00:00Z,LRBS 252100Z 23007KT CAVOK 11/08 Q1004 NOSIG
LRCK,2023-04-25T21:00:00Z,LRCK 252100Z 21007KT CAVOK 11/10 Q1005 NOSIG
LRCL,2023-04-25T21:00:00Z,LRCL 252100Z 28010KT 9999 -RA FEW017 OVC049 09/07 Q1004
LRCV,2023-04-25T21:00:00Z,LRCV 252100Z 28010KT CAVOK 09/07 Q1004
LRIA,2023-04-25T21:00:00Z,LRIA 252100Z 11009KT 9999 RA BKN040 11/10 Q1003
LROD,2023-04-25T21:00:00Z,LROD 252100Z AUTO 31002KT 9999 BKN050/// 08/07 Q1007
LROP,2023-04-25T21:00:00Z,LROP 252100Z 22009KT CAVOK 10/09 Q1004 NOSIG
LRSB,2023-04-25T21:00:00Z,LRSB 252100Z 31003KT 9999 SCT060 10/05 Q1004
LRSM,2023-04-25T21:00:00Z,LRSM 252100Z AUTO 32011KT 9999 -RA FEW009/// OVC019/// 08/07 Q1004
LRSV,2023-04-25T21:00:00Z,LRSV 252100Z 13005KT 9999 FEW010 12/11 Q1002
LRTC,2023-04-25T21:00:00Z,LRTC 252100Z AUTO 14009KT 7000 BKN075/// BKN180/// 12/10 Q1005 RERA
LRTM,2023-04-25T21:00:00Z,LRTM 252100Z 24004KT 8000 SHRA BKN010 SCT022CB BKN030 10/09 Q1004
LRTR,2023-04-25T21:00:00Z,LRTR 252100Z VRB02KT 8000 0450N R11/0550N BCFG NSC 07/07 Q1007
LSGC,2023-04-25T21:20:00Z,LSGC 252120Z AUTO 27001KT 9999 FEW009 02/02 Q1016
LSGG,2023-04-25T21:20:00Z,LSGG 252120Z VRB02KT CAVOK 07/02 Q1016 NOSIG
LSGS,2023-04-25T21:20:00Z,LSGS 252120Z AUTO VRB01KT CAVOK 08/01 Q1016
LSMD,2023-04-25T21:20:00Z,LSMD 252120Z AUTO VRB02KT 7000NDV SHRASN FEW010 BKN012 OVC024 06/04 Q1017 RMK
LSMM,2023-04-25T20:50:00Z,LSMM 252050Z AUTO 11006KT 9999NDV BKN077 BKN098 05/05 Q1017 RMK
LSMP,2023-04-25T21:20:00Z,LSMP 252120Z AUTO 00000KT 9999NDV NCD 06/04 Q1016 RMK
LSZA,2023-04-25T21:20:00Z,LSZA 252120Z AUTO 36006KT 320V070 CAVOK 11/M02 Q1012
LSZB,2023-04-25T21:20:00Z,LSZB 252120Z AUTO VRB02KT 9999 FEW046 04/04 Q1016
LSZC,2023-04-25T21:20:00Z,LSZC 252120Z AUTO VRB02KT 9999 OVC044 07/05 Q1017
LSZG,2023-04-25T21:20:00Z,LSZG 252120Z AUTO VRB03KT 9999 SCT046 06/04 Q1016
LSZH,2023-04-25T21:20:00Z,LSZH 252120Z 15004KT 100V200 9999 -SHRA FEW012 SCT050 BKN075 07/05 Q1017 RESHRA NOSIG
LSZR,2023-04-25T21:20:00Z,LSZR 252120Z AUTO 13003KT 100V170 9999 FEW050 OVC070 06/06 Q1017
LSZS,2023-04-25T21:20:00Z,LSZS 252120Z AUTO 00000KT 9999 FEW040 BKN045 BKN050 M00/M05 Q1013
LTAC,2023-04-25T20:50:00Z,LTAC 252050Z VRB02KT 9999 SCT040 BKN100 10/05 Q1011 NOSIG RMK RWY21L 30003KT 270V360 RWY03L 31004KT RWY21R 31004KT
LTAE,2023-04-25T20:50:00Z,LTAE 252050Z 07003KT 9999 SCT035 BKN100 09/06 Q1011 RESHRA NOSIG RMK RWY21 12003KT
LTAF,2023-04-25T20:50:00Z,LTAF 252050Z 15001KT 9999 SCT035 16/14 Q1013 NOSIG RMK RWY23 00000KT 4CU035
LTAG,2023-04-25T20:50:00Z,LTAG 252050Z 06004KT 9999 FEW035 SCT200 13/10 Q1013 NOSIG RMK 2CU035 4CI200
LTAI,2023-04-25T20:50:00Z,LTAI 252050Z 05006KT 9999 BKN030 17/14 Q1013 NOSIG RMK RWY18C 05005KT RWY36R 03004KT RWY18L 04003KT
LTAJ,2023-04-25T20:50:00Z,LTAJ 252050Z 00000KT CAVOK 12/06 Q1013 NOSIG RMK RWY10 31004KT 3CI200
LTAN,2023-04-25T20:50:00Z,LTAN 252050Z 18006KT 9999 FEW035 SCT100 11/05 Q1013 NOSIG
LTAP,2023-04-25T20:50:00Z,LTAP 252050Z 29004KT 9999 FEW040 BKN100 10/07 Q1010 NOSIG RMK RWY23 34002KT
LTAR,2023-04-25T20:50:00Z,LTAR 252050Z 20008KT 9999 SCT035 SCT100 06/01 Q1014
LTAT,2023-04-25T20:50:00Z,LTAT 252050Z VRB02KT CAVOK 08/04 Q1014 NOSIG RMK RWY03 23003KT
LTAU,2023-04-25T20:50:00Z,LTAU 252050Z 00000KT 9999 SCT040 BKN080 10/07 Q1013 NOSIG RMK RWY07 26006KT
LTAY,2023-04-25T20:50:00Z,LTAY 252050Z 22010KT 9999 FEW035 SCT100 13/04 Q1012 NOSIG
LTAZ,2023-04-25T20:50:00Z,LTAZ 252050Z 14005KT 9999 SCT040 SCT100 10/07 Q1013 RMK RWY29 13004KT
LTBA,2023-04-25T20:50:00Z,LTBA 252050Z VRB02KT 9999 -TSRA FEW015CB BKN028 BKN080 15/11 Q1008 RESHRA RMK RWY23 VRB01KT
LTBD,2023-04-25T20:50:00Z,LTBD 252050Z 00000KT 9999 FEW040 SCT100 BKN200 14/12 Q1011
LTBF,2023-04-25T20:50:00Z,LTBF 252050Z 18006KT 9999 FEW035 SCT100 15/10 Q1009 NOSIG
LTBH,2023-04-25T20:50:00Z,LTBH 252050Z 23007KT 180V250 9999 FEW035 SCT100 BKN200 17/11 Q1007
LTBJ,2023-04-25T20:50:00Z,LTBJ 252050Z 18006KT 9999 SCT035 BKN100 14/12 Q1009 NOSIG RMK RWY16 20008KT
LTBQ,2023-04-25T20:50:00Z,LTBQ 252050Z 09004KT 340V140 9999 SCT036 BKN090 13/11 Q1009 RESHRA NOSIG
LTBR,2023-04-25T20:50:00Z,LTBR 252050Z VRB02KT 9999 SCT035 BKN090 12/11 Q1009 NOSIG RMK RWY07 VRB02KT
LTBS,2023-04-25T20:50:00Z,LTBS 252050Z 02006KT 9999 FEW030 BKN180 13/12 Q1012 NOSIG RMK RWY19 36004KT 1CU030 5CI180
LTBU,2023-04-25T20:50:00Z,LTBU 252050Z 16005KT 9999 FEW040 SCT080 14/10 Q1007 RMK RWY22 16004KT
LTBY,2023-04-25T20:50:00Z,LTBY 252050Z VRB02KT 9999 BKN040 10/07 Q1010
LTCA,2023-04-25T20:50:00Z,LTCA 252050Z VRB05KT CAVOK 08/06 Q1014 NOSIG
LTCB,2023-04-25T20:50:00Z,LTCB 252050Z 00000KT CAVOK 10/09 Q1010 NOSIG
LTCC,2023-04-25T20:50:00Z,LTCC 252050Z VRB02KT CAVOK 10/04 Q1013 NOSIG RMK RWY16 00000KT SKC
LTCD,2023-04-25T20:50:00Z,LTCD 252050Z VRB01KT CAVOK 07/02 Q1015 NOSIG
LTCE,2023-04-25T20:50:00Z,LTCE 252050Z 22002KT CAVOK 06/M03 Q1017 NOSIG RMK RWY08R VRB01KT RWY26R 20004KT RWY08L VRB01KT 2AC080
LTCF,2023-04-25T20:50:00Z,LTCF 252050Z 21007KT 9999 FEW035 05/02 Q1016 NOSIG
LTCG,2023-04-25T20:50:00Z,LTCG 252050Z 00000KT CAVOK 14/06 Q1012 NOSIG RMK RWY29 00000KT
LTCI,2023-04-25T20:50:00Z,LTCI 252050Z 00000KT 9999 SCT030 07/02 Q1020 NOSIG
LTCJ,2023-04-25T20:50:00Z,LTCJ 252050Z 33003KT 300V360 CAVOK 12/09 Q1013 NOSIG RMK RWY20 VRB02KT SKC
LTCN,2023-04-25T20:50:00Z,LTCN 252050Z 23006KT CAVOK 14/09 Q1013
LTCP,2023-04-25T20:50:00Z,LTCP 252050Z 07010KT 9999 FEW035 13/05 Q1013
LTCS,2023-04-25T20:50:00Z,LTCS 252050Z 16004KT CAVOK 14/02 Q1014 RMK RWY22 14006KT SKC
LTCT,2023-04-25T20:50:00Z,LTCT 252050Z 00000KT 9999 -SHRA FEW040 BKN080 16/04 Q1014
LTCV,2023-04-25T20:50:00Z,LTCV 252050Z 24009KT CAVOK 10/07 Q1014
LTCW,2023-04-25T20:50:00Z,LTCW 252050Z 12003KT 9999 FEW030 06/03 Q1018
LTDA,2023-04-25T20:50:00Z,LTDA 252050Z 24006KT 220V340 9999 FEW035 16/08 Q1013 NOSIG
LTFC,2023-04-25T20:50:00Z,LTFC 252050Z 04003KT 010V070 9999 SCT035 09/05 Q1013 RMK RWY23 03005KT
LTFD,2023-04-25T20:50:00Z,LTFD 252050Z 29004KT 9999 SCT035 SCT100 15/13 Q1008
LTFE,2023-04-25T20:50:00Z,LTFE 252050Z VRB01KT 9999 FEW035 BKN100 14/12 Q1011 NOSIG RMK RWY10 VRB01KT
LTFG,2023-04-25T20:50:00Z,LTFG 252050Z 12006KT 9999 FEW025 14/11 Q1013
LTFH,2023-04-25T20:50:00Z,LTFH 252050Z 15002KT 3300 1600NW BR SCT003 10/10 Q1010 NOSIG
LTFJ,2023-04-25T20:50:00Z,LTFJ 252050Z 31006KT 270V040 9999 BKN035 BKN090 16/10 Q1008 NOSIG RMK RWY24 30004KT 240V350
LTFM,2023-04-25T20:50:00Z,LTFM 252050Z 18011KT 9999 FEW040 BKN100 15/09 Q1007 NOSIG RMK RWY17L 18012KT RWY34L 18011KT RWY16R 17013KT RWY36 18012KT RWY18 18013KT
LTFO,2023-04-25T20:50:00Z,LTFO 252050Z 19003KT CAVOK 12/06 Q1012
LUKK,2023-04-25T21:00:00Z,LUKK 252100Z 14006KT 9999 OVC009 11/09 Q1004 TEMPO BKN006
LWSK,2023-04-25T21:00:00Z,LWSK 252100Z VRB02KT 9999 FEW090 11/08 Q1008 NOSIG
LXGB,2023-04-25T20:50:00Z,LXGB 252050Z AUTO 36001KT 9999 NCD 20/16 Q1014
LYBE,2023-04-25T21:00:00Z,LYBE 252100Z 29003KT CAVOK 10/06 Q1007 NOSIG
LYBT,2023-04-25T21:00:00Z,LYBT 252100Z 32001KT CAVOK 08/07 Q1008 NOSIG
LYKV,2023-04-25T21:00:00Z,LYKV 252100Z 36002KT CAVOK 09/09 Q1008 NOSIG
LYNI,2023-04-25T21:00:00Z,LYNI 252100Z VRB01KT 9999 MIFG FEW047 09/08 Q1008 NOSIG
LYPG,2023-04-25T21:00:00Z,LYPG 252100Z 11003KT 080V140 9999 FEW034 14/09 Q1006 NOSIG
LYTV,2023-04-25T21:00:00Z,LYTV 252100Z AUTO VRB01KT CAVOK 13/12 Q1007
LYVR,2023-04-25T21:00:00Z,LYVR 252100Z AUTO 10002KT 6000 1000 R19/P2000N R01/P2000N NSC 07/07 Q1008
LZIB,2023-04-25T21:00:00Z,LZIB 252100Z 31011KT 9999 FEW049 09/05 Q1011 NOSIG
LZKZ,2023-04-25T21:00:00Z,LZKZ 252100Z 02006KT CAVOK 07/04 Q1007 NOSIG
LZPP,2023-04-25T21:00:00Z,LZPP 252100Z AUTO 36007KT 9999 09/05 Q1010
LZTT,2023-04-25T21:00:00Z,LZTT 252100Z VRB03KT 9999 FEW033 02/01 Q1006
LZZI,2023-04-25T21:00:00Z,LZZI 252100Z VRB02KT 9999 BKN052 08/05 Q1009
MBPV,2023-04-25T21:00:00Z,MBPV 252100Z 00000KT 9999 SCT015 26/21 Q1012
MDAB,2023-04-25T21:00:00Z,MDAB 252100Z 09008KT 9999 SCT022 31/23 Q1011
MDBH,2023-04-25T21:00:00Z,MDBH 252100Z 13008KT 9999 FEW022 BKN080 29/21 Q1012
MDCY,2023-04-25T21:00:00Z,MDCY 252100Z 08012KT 9999 FEW019 28/22 Q1010
MDJB,2023-04-25T21:00:00Z,MDJB 252100Z 18010KT 9999 FEW020 30/22 Q1012
MDLR,2023-04-25T21:00:00Z,MDLR 252100Z 17006KT 9999 FEW020 29/25 Q1011
MDPC,2023-04-25T21:00:00Z,MDPC 252100Z 10010KT 9999 FEW025 28/22 Q1012
MDPP,2023-04-25T21:00:00Z,MDPP 252100Z 09010KT 9999 SCT020 28/23 Q1011
MDSD,2023-04-25T21:00:00Z,MDSD 252100Z 22008KT 9999 FEW024 30/22 Q1012
MDST,2023-04-25T21:00:00Z,MDST 252100Z 12005KT 050V150 9999 SCT026 33/20 Q1010
MGCB,2023-04-25T21:00:00Z,MGCB 252100Z 05008KT 9999 SCT018 28/20 QFE 868.5
MGES,2023-04-25T21:00:00Z,MGES 252100Z 00000KT 9000 BKN022TCU 33/16 QFE 906.8 HZ FEW090 FEW200 TCU ENE/SE/WNW
MGGT,2023-04-25T21:00:00Z,MGGT 252100Z 18010KT 7000 TSRA BKN020 FEW024CB 26/18 Q1018 A3006 HZ CB/TS NE/ENE/E
MGHT,2023-04-25T21:00:00Z,MGHT 252100Z 00000KT 8000 TS SCT028 SCT032CB SCT090 27/15 HZ CB/TS N/W/NW
MGMM,2023-04-25T21:00:00Z,MGMM 252100Z 32004KT 9000 FEW020 36/22 Q1009 A2980 HZ
MGMT,2023-04-25T21:00:00Z,MGMT 252100Z 18004KT CAVOK 34/24
MGPB,2023-04-25T21:00:00Z,MGPB 252100Z 03006KT 5000 HZ SKC 33/26 Q1007 A2974
MGQZ,2023-04-25T21:00:00Z,MGQZ 252100Z 00000KT 8000 TS VCSH BKN020 FEW025CB 17/14 QFE 772.3 CB/TS/PCPN NNE
MGRT,2023-04-25T21:00:00Z,MGRT 252100Z 27008KT 9999 FEW020 35/22 Q1010 A2983 VOL. STA. MARIA Y SANTIAGUITO EN ACTIVIDAD
MGTU,2023-04-25T21:00:00Z,MGTU 252100Z 36004KT 9000 FEW018 35/20 HZ
MGZA,2023-04-25T21:00:00Z,MGZA 252100Z 00000KT 9000 FEW025 SCT200 39/14 QFE 981.6 HZ
MHCA,2023-04-25T21:00:00Z,MHCA 252100Z 08008KT 3000 FU SCT030 33/21 Q1011
MHCH,2023-04-25T21:00:00Z,MHCH 252100Z 25005KT 9999 FEW034 38/21
MHGS,2023-04-25T21:00:00Z,MHGS 252100Z 36006KT 7000 SCT048TCU 34/16
MHLE,2023-04-25T21:00:00Z,MHLE 252100Z 20006KT 9999 SCT022TCU FEW024CB 24/17
MHLM,2023-04-25T21:00:00Z,MHLM 252100Z 06012KT 5000 FU FEW030 33/24 Q1007 A2974 NOSIG
MHNO,2023-04-25T21:00:00Z,MHNO 252100Z 18006KT 9999 FEW040TCU 31/21
MHPL,2023-04-25T21:00:00Z,MHPL 252100Z 00000KT 9999 SCT026TCU 31/26 Q1010
MHPR,2023-04-25T21:20:00Z,MHPR 252120Z 09014KT 5000 FU SCT048TCU FEW050CB 34/15 Q1011 A2987 NOSIG
MHRO,2023-04-25T21:00:00Z,MHRO 252100Z VRB04KT 8000 FEW026 32/23 Q1009 A2980 NOSIG
MHSR,2023-04-25T21:00:00Z,MHSR 252100Z 34005KT 5000 FU FEW034TCU FEW035CB 33/13
MHTE,2023-04-25T21:00:00Z,MHTE 252100Z 01006KT 7000 FEW026 32/26 Q1007
MHTG,2023-04-25T21:00:00Z,MHTG 252100Z 08002KT 6000 FEW040TCU 31/13 Q1014 A2994 NOSIG
MHTR,2023-04-25T21:00:00Z,MHTR 252100Z 27003KT 6000 FEW024TCU 31/25
MHYR,2023-04-25T21:00:00Z,MHYR 252100Z 09005KT 8000 SCT026TCU 35/19
MKJP,2023-04-25T21:00:00Z,MKJP 252100Z 16012KT 9999 FEW022CB 29/20 Q1011
MKJS,2023-04-25T21:00:00Z,MKJS 252100Z 06009KT 9999 FEW022 29/19 Q1011
MMAA,2023-04-25T20:47:00Z,MMAA 252047Z 23009KT 5SM FEW015 FEW300 30/22 A2978 RMK SLP086 57026 961 8/102 HZY FU NE
MMAN,2023-04-25T20:40:00Z,MMAN 252040Z 14010KT 8SM SKC 25/16 A2984 RMK SLP/// 5//// 9// HZY ISOL SC
MMAS,2023-04-25T20:42:00Z,MMAS 252042Z 24012KT 10SM SKC 26/M22 A3009 RMK ISOL CI
MMBT,2023-04-25T20:43:00Z,MMBT 252043Z 18010KT 10SM BKN220 31/23 A2983 RMK 8/002
MMCB,2023-04-25T20:42:00Z,MMCB 252042Z 23010G20KT 8SM BKN250 35/01 A2993 RMK 8/008 CU SC HZY
MMCE,2023-04-25T20:40:00Z,MMCE 252040Z 01010KT 7SM SKC 30/23 A2978 RMK SLP081 57027 960 HZY
MMCL,2023-04-25T20:46:00Z,MMCL 252046Z 19011KT 10SM SKC 31/17 A2984 RMK SLP104 57016 904 ISOL CI
MMCM,2023-04-25T20:41:00Z,MMCM 252041Z 12013KT 7SM SCT020 31/22 A2982 RMK SLP099 5//// 903 8/500 HZY
MMCN,2023-04-25T20:45:00Z,MMCN 252045Z 20008KT 10SM BKN200 29/12 A2981 RMK SLP095 8/008 FULYR SW HZY
MMCP,2023-04-25T20:40:00Z,MMCP 252040Z 30010KT 6SM FEW030 SCT300 32/23 A2979 RMK SLP075 57024 956 8/101 HZY
MMCS,2023-04-25T20:45:00Z,MMCS 252045Z 26016KT 10SM SKC 28/M05 A2984 RMK SLP006 57025 959
MMCT,2023-04-25T20:50:00Z,MMCT 252050Z 18005KT 8SM SCT025 36/19 A2976 RMK 8/100 MDT CU CI
MMCU,2023-04-25T20:58:00Z,MMCU 252058Z 27006KT 10SM SKC 29/M14 A2989 RMK SLP023 57035 953
MMCV,2023-04-25T20:46:00Z,MMCV 252046Z 30005KT 8SM BKN015 27/17 A2981 RMK SLP/// 57021 992 8/100 HZY
MMCZ,2023-04-25T20:49:00Z,MMCZ 252049Z 14010KT 8SM FEW015 31/23 A2984 RMK SLP110 55016 910 8/500
MMDO,2023-04-25T20:40:00Z,MMDO 252040Z 29002KT 10SM OVC200 28/M16 A3005 RMK SLP017 57025 907 8/007
MMEP,2023-04-25T20:47:00Z,MMEP 252047Z 34012KT 10SM BKN250 31/13 A2998 RMK SLP141 57014 905 8/008 HZY
MMGL,2023-04-25T20:46:00Z,MMGL 252046Z 30015KT 10SM SCT300 30/M12 A3007 RMK SLP055 57033 912 8/002
MMGM,2023-04-25T20:40:00Z,MMGM 252040Z 20015KT 10SM BKN200 27/19 A2978 RMK 8/008
MMHO,2023-04-25T20:40:00Z,MMHO 252040Z 19011KT 10SM SKC 34/03 A2983 RMK SLP098 57021 907 HZY
MMIA,2023-04-25T20:46:00Z,MMIA 252046Z 25012KT 6SM BKN200 30/21 A3001 RMK 8/009 HZY
MMIO,2023-04-25T20:47:00Z,MMIO 252047Z 27005KT 10SM SKC 29/10 A3004 RMK CI
MMLM,2023-04-25T20:40:00Z,MMLM 252040Z 21013KT 10SM BKN220 28/11 A2986 RMK SLP112 8/008 HZY
MMLO,2023-04-25T20:40:00Z,MMLO 252040Z 31010KT 10SM BKN250 30/M16 A3014 RMK SLP056 57018 903 8/008
MMLP,2023-04-25T20:42:00Z,MMLP 252042Z 22008KT 10SM FEW200 29/05 A2987 RMK SLP113 57012 911 8/002
MMLT,2023-04-25T20:40:00Z,MMLT 252040Z 07010KT 10SM BKN200 26/14 A2981 RMK SLP095 8/008
MMMA,2023-04-25T20:40:00Z,MMMA 252040Z 03003KT 9SM BKN017CB OVC080 25/24 A2982 RMK SLP097 57014 990 8/36/ OCNL DROPS HZY
MMMD,2023-04-25T20:47:00Z,MMMD 252047Z 25010KT 7SM BKN020TCU 38/17 A2976 RMK SLP085 57021 967 8/200 HZY CI
MMML,2023-04-25T20:50:00Z,MMML 252050Z 29005KT 10SM SKC 31/03 A2975 RMK SLP075 57020 903
MMMM,2023-04-25T20:45:00Z,MMMM 252045Z 24009KT 8SM SCT300 32/00 A3008 RMK SLP034 57022 902 8/002 CU
MMMT,2023-04-25T20:41:00Z,MMMT 252041Z 36010KT 6SM BKN020 BKN040 27/26 A2974 RMK SLP071 57023 987 8/600 VCHZ
MMMX,2023-04-25T20:53:00Z,MMMX 252053Z 27006KT 10SM FEW025 SCT200 28/M05 A3016 NOSIG RMK SLP002 57020 953 8/202 HZY
MMMY,2023-04-25T20:41:00Z,MMMY 252041Z 14009KT 15SM SCT040 25/16 A2981 RMK SLP/// 5//// 9// 8/500
MMMZ,2023-04-25T20:43:00Z,MMMZ 252043Z 26007KT 15SM SKC 29/17 A2987 RMK SLP100 57013 958 ISOL CI
MMNL,2023-04-25T20:41:00Z,MMNL 252041Z 17011KT 10SM BKN030 27/18 A2980 RMK SLP075 57033 992 8/500
MMOX,2023-04-25T20:44:00Z,MMOX 252044Z 00000KT 5SM SCT030TCU BKN210 30/05 A3003 RMK SLP067 57007 951 8/208 FU HZ
MMPA,2023-04-25T20:43:00Z,MMPA 252043Z 00000KT 6SM OVC020 27/21 A2977 RMK SLP054 57022 990 8/8// HZY
MMPB,2023-04-25T20:42:00Z,MMPB 252042Z 16014KT 9SM FEW025 SCT230 26/02 A3018 RMK 8/102 HZY
MMPN,2023-04-25T20:41:00Z,MMPN 252041Z 20008KT 7SM BKN280 26/11 A3008 RMK 8/001 HZY CU
MMPQ,2023-04-25T20:41:00Z,MMPQ 252041Z 00000KT 6SM SCT030 34/24 A2965 RMK 8/100 HZY
MMPR,2023-04-25T20:40:00Z,MMPR 252040Z 22011KT 13SM BKN250 27/20 A2987 RMK SLP111 57011 914 8/008
MMPS,2023-04-25T20:45:00Z,MMPS 252045Z 25008KT 12SM FEW020 SCT100 30/22 A2982 RMK 8/110 HZY
MMQT,2023-04-25T20:51:00Z,MMQT 252051Z 27007G28KT 12SM BKN270 28/M07 A3015 RMK 8/008
MMRX,2023-04-25T20:40:00Z,MMRX 252040Z 08004KT 7SM SCT030 SCT280 29/19 A2980 RMK SLP141 57023 993 8/502 HZY
MMSD,2023-04-25T20:40:00Z,MMSD 252040Z 15014KT 10SM SKC 28/07 A2986 RMK SLP098 57011 907
MMSL,2023-04-25T20:46:00Z,MMSL 252046Z 24012KT 10SM SKC 28/12 A2991 RMK AC
MMSM,2023-04-25T20:46:00Z,MMSM 252046Z 28008KT 220V340 8SM FEW020 SCT220 27/M02 A3015 RMK 8/102 HZY MDT CU E S
MMSP,2023-04-25T20:40:00Z,MMSP 252040Z 27007G17KT 12SM BKN230 29/M23 A3005 RMK SLP052 57006 909 8/008
MMTC,2023-04-25T20:40:00Z,MMTC 252040Z 09006KT 10SM SKC 31/M04 A2990 RMK SLP032 55033 904
MMTG,2023-04-25T20:52:00Z,MMTG 252052Z 06009KT 6SM FEW300 38/10 A2975 RMK SLP035 56040 977 8/002 FU HZ
MMTJ,2023-04-25T20:42:00Z,MMTJ 252042Z 25005KT 8SM BKN020 18/13 A2993 RMK SLP153 54000 905 8/500 HZY
MMTM,2023-04-25T20:44:00Z,MMTM 252044Z E07010KT 10SM BKN220 27/21 A2978 RMK SLP084 57016 990 8/008
MMTO,2023-04-25T20:45:00Z,MMTO 252045Z 31011KT 8SM FEW200 24/M07 A3027 RMK SLP041 57022 930 8/001 CU
MMTP,2023-04-25T20:40:00Z,MMTP 252040Z 23010KT 8SM SKC 33/23 A2979 RMK SLP111 57018 957 HZY
MMUN,2023-04-25T20:40:00Z,MMUN 252040Z 13016KT 7SM FEW015 30/22 A2984 RMK SLP108 57016 907 8/100 CI
MMVA,2023-04-25T20:44:00Z,MMVA 252044Z 07007KT 5SM SCT017 BKN100 32/23 A2977 RMK SLP080 57027 973 8/120 HZY
MMVR,2023-04-25T20:43:00Z,MMVR 252043Z 12009KT 6SM FEW012 SCT030 30/23 A2977 RMK SLP072 57023 988 8/800 HZY ISOL CI
MMZC,2023-04-25T20:42:00Z,MMZC 252042Z E22012KT 10SM SKC 25/M23 A3011
MMZH,2023-04-25T20:42:00Z,MMZH 252042Z 23010KT 7SM FEW250 32/21 A2982 RMK SLP089 57027 957 8/002 HZY
MMZO,2023-04-25T20:40:00Z,MMZO 252040Z 25015KT 12SM FEW020 SCT250 28/22 A2984 RMK 8/104
MNBL,2023-04-25T21:00:00Z,MNBL 252100Z 11004KT 9999 FEW025 SCT090 30/23 Q1010
MNCH,2023-04-25T21:00:00Z,MNCH 252100Z 18004KT 9999 SCT025 SCT300 33/24 Q1008 TCU/N/NE
MNJG,2023-04-25T21:00:00Z,MNJG 252100Z 03004KT 5000 SCT014 31/16 Q1009 FU
MNJU,2023-04-25T21:00:00Z,MNJU 252100Z 18006KT 9999 SCT020 35/20 Q1009
MNMG,2023-04-25T21:00:00Z,MNMG 252100Z 10014KT 5000 FEW025TCU SCT300 35/21 Q1007 A2976 5KM/S/SW/W POR FU EL RESTO DE CUADTES 8KM 1AC070 NOSIG
MNPC,2023-04-25T21:00:00Z,MNPC 252100Z 11006KT 7000 FEW016 30/25 Q1009 HZ
MNRS,2023-04-25T21:00:00Z,MNRS 252100Z 00000KT 3000 +FU FEW020CB BKN200 32/22 Q1008 CB/E
MPBO,2023-04-25T21:00:00Z,MPBO 252100Z 04007KT 9999 FEW020 29/25 Q1009
MPDA,2023-04-25T21:00:00Z,MPDA 252100Z 20008KT 160V240 9000 VCSH FEW015TCU 31/24 Q1008
MPMG,2023-04-25T21:00:00Z,MPMG 252100Z 31013KT 9999 FEW018CB SCT090 33/18 Q1008 NOSIG
MPPA,2023-04-25T21:00:00Z,MPPA 252100Z 33008KT 9999 FEW018 33/19 Q1008
MPSM,2023-04-25T21:00:00Z,MPSM 252100Z 10006KT 9999 FEW025 30/20 Q1008
MPTO,2023-04-25T21:00:00Z,MPTO 252100Z 19008KT 9999 SCT018TCU SCT090 32/21 Q1010 TEMPO SCT016CB
MRLB,2023-04-25T21:00:00Z,MRLB 252100Z 28010KT CAVOK 34/23 A2975
MRLM,2023-04-25T21:00:00Z,MRLM 252100Z 09008KT 9999 FEW030 SCT240 30/24 A2983
MROC,2023-04-25T21:00:00Z,MROC 252100Z 36004KT 320V030 9999 -RA FEW025 BKN060 24/18 A2995 NOSIG
MRPV,2023-04-25T21:00:00Z,MRPV 252100Z VRB02KT 9999 FEW030 BKN120 25/15 A2998 RESHRA NOSIG
MSAC,2023-04-25T20:50:00Z,MSAC 252050Z 23010KT 9999 FEW030 35/23 Q1006 A2973
MSLP,2023-04-25T20:50:00Z,MSLP 252050Z 23008KT 170V260 9999 FEW033 32/24 Q1008 A2978 NOSIG
MSSA,2023-04-25T20:50:00Z,MSSA 252050Z 16002KT 9999 FEW037 35/17 Q1014 A2996
MSSM,2023-04-25T20:50:00Z,MSSM 252050Z 16005KT 8000 37/21 Q1006 A2973
MTPP,2023-04-25T21:00:00Z,MTPP 252100Z 13012KT 9999 SCT026 SCT050 30/19 Q1011 A2985
MUCC,2023-04-25T20:50:00Z,MUCC 252050Z 08014KT 9000 FEW020 29/22 Q1011
MUCF,2023-04-25T20:59:00Z,MUCF 252059Z AUTO 20010KT 160V230 29/22 Q1012
MUCL,2023-04-25T20:50:00Z,MUCL 252050Z 18009KT 140V220 9000 FEW020 29/21 Q1012
MUCM,2023-04-25T20:51:00Z,MUCM 252051Z 22008KT 180V280 9000 SCT036 33/13 Q1011
MUCU,2023-04-25T20:50:00Z,MUCU 252050Z 19006KT 150V230 9000 SCT020 28/21 Q1012
MUGM,2023-04-25T20:51:00Z,MUGM 252051Z 15010KT 10SM FEW030 FEW250 29/22 A2988 RMK AO2 SLP119 SHRA DSNT NE T02890217 56016 $
MUHA,2023-04-25T20:50:00Z,MUHA 252050Z 11007KT 080V150 9000 BKN030 27/20 Q1013
MUHG,2023-04-25T20:50:00Z,MUHG 252050Z VRB04KT 9000 FEW042 33/15 Q1011
MUSC,2023-04-25T21:07:00Z,MUSC 252107Z 23008KT 190V270 3000 -RA BKN018 22/21 Q1013
MUVR,2023-04-25T20:50:00Z,MUVR 252050Z 24006KT 200V270 9000 FEW018CB SCT020 28/20 Q1013
MWCB,2023-04-25T21:00:00Z,MWCB 252100Z 15004KT 9999 FEW022 29/21 Q1012
MWCR,2023-04-25T21:00:00Z,MWCR 252100Z 13007KT 9999 FEW018 30/22 Q1011
MYCB,2023-04-25T21:00:00Z,MYCB 252100Z AUTO /////KT ///V/// //// R09///// // SCT034 ///// A////
MYGF,2023-04-25T21:00:00Z,MYGF 252100Z 16009KT 9999 FEW015CB SCT020 BKN120 27/21 A2991
MYNN,2023-04-25T21:00:00Z,MYNN 252100Z 17010KT 9999 SCT025 BKN150 28/21 A2993
MYSM,2023-04-25T21:00:00Z,MYSM 252100Z AUTO 12009KT 9999 SCT028/// 27/20 A2993
MZBZ,2023-04-25T21:00:00Z,MZBZ 252100Z 08008KT 9999 FEW026 31/24 A2981 Q1009 NOSIG RMK HZ
NCAI,2023-04-25T21:00:00Z,NCAI 252100Z AUTO NIL
NCAT,2023-04-25T21:00:00Z,NCAT 252100Z AUTO NIL
NCMG,2023-04-25T21:00:00Z,NCMG 252100Z AUTO NIL
NCMH,2023-04-25T21:00:00Z,NCMH 252100Z AUTO NIL
NCMK,2023-04-25T21:00:00Z,NCMK 252100Z AUTO NIL
NCMR,2023-04-25T21:00:00Z,NCMR 252100Z AUTO 07007KT //// ////// ///// Q1012
NCNS,2023-04-25T21:00:00Z,NCNS 252100Z AUTO NIL
NCPK,2023-04-25T21:00:00Z,NCPK 252100Z AUTO NIL
NCPL,2023-04-25T21:00:00Z,NCPL 252100Z AUTO NIL
NCPY,2023-04-25T21:00:00Z,NCPY 252100Z AUTO NIL
NCRG,2023-04-25T21:00:00Z,NCRG 252100Z AUTO 05006KT 9999 NCD 29/22 Q1014
NCRK,2023-04-25T21:00:00Z,NCRK 252100Z AUTO NIL
NCSW,2023-04-25T21:00:00Z,NCSW 252100Z AUTO NIL
NFFN,2023-04-25T21:00:00Z,NFFN 252100Z 00000KT 9999 FEW030 28/22 Q1012 NOSIG
NFNA,2023-04-25T21:00:00Z,NFNA 252100Z 35004KT 9999 SCT024 28/25 Q1012
NFNS,2023-04-25T21:00:00Z,NFNS 252100Z 36004KT 9999 FEW030 28/23 Q1012
NFTF,2023-04-25T21:00:00Z,NFTF 252100Z 11010KT 9999 FEW017 SCT290 27/22 Q1015
NFTL,2023-04-25T21:00:00Z,NFTL 252100Z 12009KT 9999 SCT017TCU 27/23 Q1013
NFTV,2023-04-25T21:00:00Z,NFTV 252100Z 14006KT 9999 SCT017 SCT300 26/22 Q1013
NGFU,2023-04-25T21:00:00Z,NGFU 252100Z 14010KT 9999 FEW016CB FEW018TCU SCT020 BKN300 30/27 Q1010
NGTA,2023-04-25T21:00:00Z,NGTA 252100Z 08004KT 9999 FEW019 BKN300 29/25 Q1010
NIUE,2023-04-25T21:00:00Z,NIUE 252100Z AUTO 10008KT NCD 27/23 Q1014
NLWW,2023-04-25T21:00:00Z,NLWW 252100Z 06006KT 030V100 9999 FEW023 31/25 Q1011 TEMPO 4000 SHRA BKN018 FEW020CB
NSFA,2023-04-25T21:00:00Z,NSFA 252100Z 21005KT 9999 FEW026 BKN270 30/24 Q1011
NSTU,2023-04-25T20:50:00Z,NSTU 252050Z VRB05KT 12SM FEW021 SCT100 BKN220 29/27 A2987 RMK SLP117 8/178 T02910269 52010
NTAA,2023-04-25T21:00:00Z,NTAA 252100Z 06008KT 9999 FEW020 SCT170 BKN210 28/24 Q1014 TEMPO 3000 SHRA FEW011CB SCT015 BKN040
NVSC,2023-04-25T21:00:00Z,NVSC 252100Z 00000KT 9999 FEW020 SCT300 28/26 Q1009
NVSG,2023-04-25T21:00:00Z,NVSG 252100Z VRB01KT 9999 SCT020 BKN040 27/24 Q1010
NVSS,2023-04-25T21:00:00Z,NVSS 252100Z VRB01KT 9999 FEW025 SCT300 28/24 Q1009
NVVV,2023-04-25T21:00:00Z,NVVV 252100Z VRB01KT 9999 FEW020 26/24 Q1010
NVVW,2023-04-25T21:00:00Z,NVVW 252100Z 09003KT 9999 SCT020 27/25 Q1010
NWWW,2023-04-25T21:00:00Z,NWWW 252100Z AUTO 16002KT 9999 BKN070 BKN084 OVC100 22/21 Q1011 TEMPO 4500 SHRA FEW020CB BKN025
NZAA,2023-04-25T21:00:00Z,NZAA 252100Z AUTO 24014KT 9999 FEW032/// BKN050/// 19/12 Q1020
NZCH,2023-04-25T21:00:00Z,NZCH 252100Z AUTO 27005KT 9999 BKN038/// 10/08 Q1016
NZCM,2023-04-25T20:56:00Z,NZCM 252056Z AUTO 04018G29KT 020V090 2300 HZ OVC027 M25/M30 A2947 RMK AO2 SLP986 T12471301
NZWN,2023-04-25T21:00:00Z,NZWN 252100Z AUTO 18020KT 9999 -RA SCT022/// BKN029/// OVC047/// 12/09 Q1016
OBBI,2023-04-25T21:00:00Z,OBBI 252100Z 31010KT CAVOK 25/19 Q1007 NOSIG
OEAB,2023-04-25T21:00:00Z,OEAB 252100Z 00000KT CAVOK 14/09 Q1023 NOSIG
OEAH,2023-04-25T21:00:00Z,OEAH 252100Z 00000KT CAVOK 24/12 Q1008 NOSIG
OEAO,2023-04-25T21:00:00Z,OEAO 252100Z 31008KT CAVOK 26/00 Q1011 NOSIG
OEBA,2023-04-25T21:00:00Z,OEBA 252100Z 20004KT 9999 FEW030 17/13 Q1019 NOSIG
OEBH,2023-04-25T21:00:00Z,OEBH 252100Z 19005KT CAVOK 19/19 Q1015 NOSIG
OEDF,2023-04-25T21:00:00Z,OEDF 252100Z 00000KT CAVOK 23/18 Q1008 NOSIG
OEDM,2023-04-25T21:00:00Z,OEDM 252100Z 08010KT 9999 SCT040 19/15 Q1012
OEDR,2023-04-25T21:00:00Z,OEDR 252100Z VRB03KT CAVOK 23/18 Q1007
OEGN,2023-04-25T21:00:00Z,OEGN 252100Z 35004KT CAVOK 32/20 Q1007 NOSIG
OEGS,2023-04-25T21:00:00Z,OEGS 252100Z 05006KT 9999 SCT040 20/16 Q1012
OEGT,2023-04-25T21:00:00Z,OEGT 252100Z 30010KT CAVOK 17/03 Q1013 NOSIG
OEHL,2023-04-25T21:00:00Z,OEHL 252100Z 04004KT 9999 SCT045 18/12 Q1015 TEMPO 5000 TSRA
OEJN,2023-04-25T21:00:00Z,OEJN 252100Z 32007KT CAVOK 28/21 Q1007 NOSIG
OEKJ,2023-04-25T21:00:00Z,OEKJ 252100Z 10009KT 7000 FEW040 27/10 Q1012
OEKM,2023-04-25T21:00:00Z,OEKM 252100Z 00000KT CAVOK 15/10 Q1023 NOSIG
OEMA,2023-04-25T21:00:00Z,OEMA 252100Z 32008KT CAVOK 29/M03 Q1012 NOSIG
OEMN,2023-04-25T21:00:00Z,OEMN 252100Z 01002KT CAVOK 31/17 Q1010
OENG,2023-04-25T21:00:00Z,OENG 252100Z 33004KT 9999 SCT030 SCT090 24/13 Q1016 NOSIG
OEPA,2023-04-25T21:00:00Z,OEPA 252100Z 08006KT 9999 SCT035 26/11 Q1010 NOSIG
OEPS,2023-04-25T20:55:00Z,OEPS 252055Z 09007KT 9999 CLR 26/12 A2990 RMK AO2A SLP105 WND DATA ESTMD T02630115 50005
OERF,2023-04-25T21:00:00Z,OERF 252100Z 18006KT 9999 SCT040 25/05 Q1010 NOSIG
OERK,2023-04-25T21:00:00Z,OERK 252100Z 11005KT 9000 FEW040 BKN080 26/10 Q1013 TEMPO 5000 TSRA
OERR,2023-04-25T21:00:00Z,OERR 252100Z 00000KT CAVOK 22/M07 Q1011 NOSIG
OESH,2023-04-25T21:00:00Z,OESH 252100Z 06006KT 5000 DU NSC 30/10 Q1010 NOSIG
OESK,2023-04-25T21:00:00Z,OESK 252100Z 22005KT CAVOK 22/06 Q1015 NOSIG
OETB,2023-04-25T21:00:00Z,OETB 252100Z 35015KT 8000 NSC 22/M10 Q1012 NOSIG
OETF,2023-04-25T21:00:00Z,OETF 252100Z 32005KT CAVOK 18/14 Q1018 NOSIG
OETR,2023-04-25T21:00:00Z,OETR 252100Z 28008KT CAVOK 17/M11 Q1013 NOSIG
OEWD,2023-04-25T21:00:00Z,OEWD 252100Z 35010KT 4000 RA SCT040 BKN080 23/16 Q1012 RERA
OEWJ,2023-04-25T21:00:00Z,OEWJ 252100Z 33007KT CAVOK 24/17 Q1008 NOSIG
OEYN,2023-04-25T21:00:00Z,OEYN 252100Z 30006KT CAVOK 28/13 Q1005 NOSIG
OIAA,2023-04-25T21:00:00Z,OIAA 252100Z 30008KT CAVOK 25/07 Q1008
OIAH,2023-04-25T21:00:00Z,OIAH 252100Z 00000KT CAVOK 17/10 Q1012
OIAM,2023-04-25T21:00:00Z,OIAM 252100Z 30008KT CAVOK 24/09 Q1007
OIAW,2023-04-25T21:00:00Z,OIAW 252100Z 29006KT CAVOK 26/07 Q1007
OIBB,2023-04-25T21:00:00Z,OIBB 252100Z 36006KT CAVOK 26/17 Q1007 A2975
OIBJ,2023-04-25T21:00:00Z,OIBJ 252100Z AUTO VRB01KT //// // ////// 20/09 Q1012
OIBK,2023-04-25T21:00:00Z,OIBK 252100Z 29004KT 7000 NSC 24/22 Q1006
OIBL,2023-04-25T21:00:00Z,OIBL 252100Z 10004KT 4000 BR NSC 24/21 Q1006
OIBP,2023-04-25T21:00:00Z,OIBP 252100Z 00000KT CAVOK 24/16 Q1005 A2970
OICC,2023-04-25T21:00:00Z,OICC 252100Z 29006KT CAVOK 11/07 Q1016 A3002
OICI,2023-04-25T21:00:00Z,OICI 252100Z 11002KT CAVOK 12/06 Q1017 A3004
OICK,2023-04-25T21:00:00Z,OICK 252100Z 16004KT CAVOK 12/11 Q1015
OICS,2023-04-25T21:00:00Z,OICS 252100Z 00000KT CAVOK 09/05 Q1016 A3001
OIFM,2023-04-25T21:00:00Z,OIFM 252100Z 24004KT CAVOK 10/06 Q1017 A3004
OIFS,2023-04-25T21:00:00Z,OIFS 252100Z 01004KT 9999 FEW040 05/01 Q1019
OIGG,2023-04-25T21:00:00Z,OIGG 252100Z 00000KT CAVOK 16/16 Q1011
OIHH,2023-04-25T21:00:00Z,OIHH 252100Z 14004KT 9999 FEW040 08/05 Q1017 A3004
OIIE,2023-04-25T21:00:00Z,OIIE 252100Z 30014KT 9999 -SHRA FEW030CB SCT035 BKN100 18/08 Q1012
OIII,2023-04-25T21:00:00Z,OIII 252100Z 29008KT 9999 FEW040 SCT100 19/05 Q1013 A2992
OIIP,2023-04-25T21:00:00Z,OIIP 252100Z 27006KT 7000 RA BKN040 OVC080 15/08 Q1013 A2992
OIKB,2023-04-25T21:00:00Z,OIKB 252100Z 36004KT 5000 HZ NSC 25/20 Q1007 A2976
OIKK,2023-04-25T21:00:00Z,OIKK 252100Z 00000KT 9999 SCT040 16/01 Q1016 A3002
OIKQ,2023-04-25T21:00:00Z,OIKQ 252100Z 04006KT 6000 NSC 25/20 Q1007
OIMB,2023-04-25T21:00:00Z,OIMB 252100Z 10006KT CAVOK 16/M05 Q1015 A2999
OIMJ,2023-04-25T21:00:00Z,OIMJ 252100Z AUTO 36007KT //// // ////// 17/10 Q1013
OIMM,2023-04-25T21:00:00Z,OIMM 252100Z 20006KT CAVOK 21/05 Q1014 A2996
OIMN,2023-04-25T21:00:00Z,OIMN 252100Z 27004KT CAVOK 16/10 Q1014
OIMT,2023-04-25T21:00:00Z,OIMT 252100Z AUTO 31006KT //// // ////// 25/04 Q1009
OINE,2023-04-25T21:00:00Z,OINE 252100Z 00000KT 9999 SCT030 BKN100 17/13 Q1012
OING,2023-04-25T21:00:00Z,OING 252100Z 21004KT 6000 -RA FEW020 SCT030 OVC080 17/15 Q1014
OINN,2023-04-25T21:00:00Z,OINN 252100Z 13002KT 8000 SCT018 FEW020CB BKN090 17/16 Q1011
OINR,2023-04-25T21:00:00Z,OINR 252100Z 32002KT 9999 FEW020CB BKN025 OVC080 17/16 Q1011
OISF,2023-04-25T21:00:00Z,OISF 252100Z 03004KT CAVOK 16/03 Q1014 A2997
OISL,2023-04-25T21:00:00Z,OISL 252100Z 00000KT CAVOK 22/07 Q1009 A2982
OISS,2023-04-25T21:00:00Z,OISS 252100Z 30004KT CAVOK 16/05 Q1015 A2999
OISY,2023-04-25T21:00:00Z,OISY 252100Z 00000KT CAVOK 10/04 Q1019
OITL,2023-04-25T21:00:00Z,OITL 252100Z 04004KT 0400 R15/0700D FG OVC002 10/10 Q1015
OITM,2023-04-25T21:00:00Z,OITM 252100Z 10004KT CAVOK 09/02 Q1015
OITP,2023-04-25T21:00:00Z,OITP 252100Z 13010KT CAVOK 14/13 Q1011
OITR,2023-04-25T21:00:00Z,OITR 252100Z 27006KT CAVOK 07/04 Q1014 A2995
OITT,2023-04-25T21:00:00Z,OITT 252100Z 01008KT 9999 FEW030 FEW032CB 13/05 Q1015 A3000
OIYY,2023-04-25T21:00:00Z,OIYY 252100Z 28004KT 9999 FEW035 18/09 Q1015
OIZB,2023-04-25T21:00:00Z,OIZB 252100Z 27004KT CAVOK 25/M00 Q1008
OIZH,2023-04-25T21:00:00Z,OIZH 252100Z 09006KT CAVOK 19/02 Q1015 A3000
OIZI,2023-04-25T21:00:00Z,OIZI 252100Z 26004KT CAVOK 22/08 Q1012
OIZJ,2023-04-25T21:00:00Z,OIZJ 252100Z 11012KT 6000 NSC 26/23 Q1008
OJAI,2023-04-25T21:00:00Z,OJAI 252100Z 31006KT 5000 HZ NSC 11/07 Q1015 NOSIG
OJAM,2023-04-25T21:00:00Z,OJAM 252100Z 00000KT CAVOK 14/09 Q1015 NOSIG
OJAQ,2023-04-25T21:00:00Z,OJAQ 252100Z 34010KT CAVOK 22/M02 Q1012 NOSIG
OKAS,2023-04-25T20:55:00Z,OKAS 252055Z AUTO 01006KT 9999 CLR 25/05 A2981 RMK AO2 SLP090 T02530049 403370219 50000 FZRANO $
OKKK,2023-04-25T21:00:00Z,OKKK 252100Z 00000KT CAVOK 24/14 Q1008 NOSIG
OLBA,2023-04-25T21:00:00Z,OLBA 252100Z 28003KT 9999 FEW026 17/13 Q1015 NOSIG
OMAA,2023-04-25T21:00:00Z,OMAA 252100Z 07006KT 050V110 CAVOK 27/12 Q1006 NOSIG
OMAD,2023-04-25T21:00:00Z,OMAD 252100Z 07004KT 040V100 CAVOK 27/15 Q1006 NOSIG
OMAL,2023-04-25T21:00:00Z,OMAL 252100Z 08005KT 050V130 CAVOK 28/10 Q1008 NOSIG
OMDB,2023-04-25T21:00:00Z,OMDB 252100Z 09005KT 030V130 CAVOK 29/11 Q1006 NOSIG
OMDW,2023-04-25T21:00:00Z,OMDW 252100Z 10005KT CAVOK 24/12 Q1008 NOSIG
OMFJ,2023-04-25T21:00:00Z,OMFJ 252100Z 07003KT 050V110 8000 FEW025 26/23 Q1008 A2977
OMRK,2023-04-25T21:00:00Z,OMRK 252100Z 11007KT CAVOK 26/11 Q1007 A2975
OMSJ,2023-04-25T21:00:00Z,OMSJ 252100Z 12005KT CAVOK 25/11 Q1007 WS ALL RWY NOSIG
OOAD,2023-04-25T20:50:00Z,OOAD 252050Z AUTO 10005KT //// R31///// // NCD 22/19 Q1010 NOSIG
OODQ,2023-04-25T20:50:00Z,OODQ 252050Z AUTO 10006KT 070V140 9999 OVC007 26/26 Q1009 NOSIG RMK RH100? 0
OOKB,2023-04-25T20:50:00Z,OOKB 252050Z AUTO 15006KT 110V180 CAVOK 30/13 Q1007 NOSIG
OOMS,2023-04-25T20:50:00Z,OOMS 252050Z 15007KT 090V180 CAVOK 30/15 Q1007 NOSIG
OOSA,2023-04-25T20:50:00Z,OOSA 252050Z 22006KT 9999 SCT025 29/24 Q1008 NOSIG
OOSH,2023-04-25T20:50:00Z,OOSH 252050Z AUTO VRB03KT //// ////// 27/23 Q1007 RMK 1003
OPFA,2023-04-25T20:55:00Z,OPFA 252055Z 00000KT 4000 FU NSC 24/15 Q1008 NOSIG
OPIS,2023-04-25T21:00:00Z,OPIS 252100Z 23005KT 6000 FEW040 SCT100 20/12 Q1011 NOSIG
OPKC,2023-04-25T21:00:00Z,OPKC 252100Z 31008KT 6000 NSC 28/13 Q1008 NOSIG
OPLA,2023-04-25T21:25:00Z,OPLA 252125Z 00000KT 4000 FU NSC 25/14 Q1008 NOSIG RMK QFE982 A29.77
OPMT,2023-04-25T21:00:00Z,OPMT 252100Z 13004KT 4000 HZ NSC 28/10 Q1007 NOSIG
OPNH,2023-04-25T21:00:00Z,OPNH 252100Z 00000KT 6000 SCT100 27/16 Q1006
OPPS,2023-04-25T21:00:00Z,OPPS 252100Z 23006KT 6000 HZ FEW040 SCT100 24/08 Q1013
OPSK,2023-04-25T21:00:00Z,OPSK 252100Z 00000KT 4000 HZ SCT100 26/15 Q1005 NOSIG
OPST,2023-04-25T21:00:00Z,OPST 252100Z 00000KT 4000 FU NSC 24/14 Q1009 NOSIG 53%
ORBI,2023-04-25T21:00:00Z,ORBI 252100Z 05005KT CAVOK 25/06 Q1010 NOSIG
ORER,2023-04-25T21:00:00Z,ORER 252100Z VRB02KT 9000 NSC 16/07 Q1014
ORMM,2023-04-25T21:00:00Z,ORMM 252100Z 30005KT CAVOK 23/10 Q1009 NOSIG
ORNI,2023-04-25T21:00:00Z,ORNI 252100Z 00000KT 8000 NSC 24/09 Q1010
ORSU,2023-04-25T21:00:00Z,ORSU 252100Z 30006KT CAVOK 08/07 Q1016
OSAP,2023-04-25T21:00:00Z,OSAP 252100Z 30006KT CAVOK 15/06 Q1014
OSDI,2023-04-25T21:00:00Z,OSDI 252100Z 21008KT CAVOK 15/06 Q1014
OSKL,2023-04-25T21:00:00Z,OSKL 252100Z 34006KT 9999 11/07 Q1012
OSLK,2023-04-25T21:00:00Z,OSLK 252100Z 06004KT CAVOK 13/12 Q1014
OTBD,2023-04-25T21:00:00Z,OTBD 252100Z AUTO 33006KT 300V360 CAVOK 28/18 Q1007 NOSIG
OTBH,2023-04-25T20:56:00Z,OTBH 252056Z 33007KT 9999 CLR 25/17 A2973 Q1006 RMK SLP068 T02540165 403750221 50001 FZRANO $
OTHH,2023-04-25T21:00:00Z,OTHH 252100Z AUTO 33008KT CAVOK 26/19 Q1007 NOSIG
PAAD,2023-04-25T21:15:00Z,PAAD 252115Z AUTO 09005KT 5SM OVC006 M21/M23 A3020 RMK AO2 T12101231 PWINO
PAAQ,2023-04-25T20:53:00Z,PAAQ 252053Z 12012G20KT 10SM BKN110 07/M06 A2975 RMK AO2 SLP077 T00721061 58002
PABA,2023-04-25T20:57:00Z,PABA 252057Z AUTO 03004KT 9SM OVC006 M18/M21 A3022 RMK AO2 SNE54 CIG 004V009 FZRANO PNO $
PABE,2023-04-25T20:53:00Z,PABE 252053Z 05008KT 10SM FEW041 M01/M08 A2952 RMK AO2 SLP999 6//// T10061083 56005 PNO $
PABI,2023-04-25T20:53:00Z,PABI 252053Z 11019KT 10SM FEW050 FEW110 FEW200 M02/M10 A2977 RMK AO2 SLP109 T10171100 58004
PABL,2023-04-25T20:56:00Z,PABL 252056Z AUTO 07012KT 10SM OVC050 M04/M11 A2984 RMK AO2 SLP108 T10391106 58010 FZRANO
PABR,2023-04-25T20:53:00Z,PABR 252053Z 00000KT 10SM CLR M13/M14 A3019 RMK AO2 SLP224 60001 T11281144 56010 $
PABV,2023-04-25T20:56:00Z,PABV 252056Z AUTO 00000KT 10SM BKN100 04/M02 A2975 RMK AO2 SLP079 T00391022 58005
PACD,2023-04-25T20:53:00Z,PACD 252053Z 18010KT 10SM -RA BKN025 BKN030 OVC036 04/01 A2940 RMK AO2 RAB25 SLP956 P0000 60000 T00440006 $
PACM,2023-04-25T20:56:00Z,PACM 252056Z AUTO 00000KT CLR M05/M12 A2962 RMK AO2 SLP026 T10501117 56005 PWINO FZRANO $
PACV,2023-04-25T21:08:00Z,PACV 252108Z 11010G16KT 3SM RA BR OVC016 02/01 A2991 RMK AO2 P0003 I1000 T00220006
PACZ,2023-04-25T20:55:00Z,PACZ 252055Z AUTO 06008KT 10SM BKN080 M06/M13 A2953 RMK AO2 SLP011 T10601133 56004
PADG,2023-04-25T20:59:00Z,PADG 252059Z 10013KT 15SM BKN100 M06/M10 A2986
PADK,2023-04-25T20:56:00Z,PADK 252056Z AUTO 36011KT SCT035 SCT042 BKN050 04/M01 A2955 RMK AO2 SLP006 T00441006 58019 PWINO $
PADL,2023-04-25T20:56:00Z,PADL 252056Z 03009KT 1 1/2SM -SN BR OVC008 M01/M02 A2950 RMK AO2 SLP992 P0000 60001 T10061017 56002
PADM,2023-04-25T20:56:00Z,PADM 252056Z AUTO 02018KT 10SM FEW044 SCT100 M01/M06 A2960 RMK AO2 SLP028 T10061061 56006 FZRANO
PADQ,2023-04-25T21:09:00Z,PADQ 252109Z 11013KT 10SM BKN010 BKN036 BKN045 04/02 A2956 RMK AO2 T00440022
PADU,2023-04-25T20:56:00Z,PADU 252056Z 23014KT 10SM -RASN BKN020 BKN027 OVC035 04/00 A2951 RMK AO2 SLP997 P0000 60003 T00390000 53007
PAED,2023-04-25T20:55:00Z,PAED 252055Z 00000KT 10SM VCSH FEW045 SCT065 BKN100 OVC120 05/M03 A2971 RMK AO2A SLP058 T00451031 58001
PAEG,2023-04-25T20:53:00Z,PAEG 252053Z AUTO 07008KT 10SM OVC050 M04/M14 A2988 RMK AO2 SLP137 T10441139 58018 TSNO
PAEH,2023-04-25T20:55:00Z,PAEH 252055Z AUTO 07015KT 040V110 6SM -RASN FEW007 OVC045 M01/M01 A2942 RMK AO2 RAB1945E2024SNB2024E2049 SLP974 T10141014 53005
PAEI,2023-04-25T20:55:00Z,PAEI 252055Z AUTO 35007KT 10SM CLR 00/M10 A2975 RMK AO2 SLP086 T00001103 57011 $
PAEL,2023-04-25T20:47:00Z,PAEL 252047Z 09010KT 15SM SCT025 OVC050 05/00 A3004 RMK SPB E03012KT SEA 0 SWELL 2 SW NOSPECI
PAEN,2023-04-25T20:53:00Z,PAEN 252053Z 07006KT 10SM SCT070 OVC110 04/M03 A2970 RMK AO2 SLP060 T00391028 58003
PAFA,2023-04-25T20:53:00Z,PAFA 252053Z 01003KT 10SM FEW110 FEW200 01/M12 A2980 RMK AO2 SLP099 T00111117 58008
PAFB,2023-04-25T20:55:00Z,PAFB 252055Z 06008KT 10SM FEW100 SCT200 00/M11 A2979 RMK AO2A SLP100 T00021109 57009 CHINO RWY25R $
PAFE,2023-04-25T21:18:00Z,PAFE 252118Z AUTO 16004KT 10SM FEW019 BKN034 OVC055 06/03 A3010 RMK AO2 RAE13 P0000 $
PAFM,2023-04-25T20:56:00Z,PAFM 252056Z AUTO 09008KT 10SM CLR M06/M16 A2994 RMK AO2 SLP149 T10561161 58012 FZRANO
PAFR,2023-04-25T20:55:00Z,PAFR 252055Z AUTO 22006KT 9SM OVC120 04/M04 A2973 RMK AO2 SLP077 T00401040 58003 $
PAFS,2023-04-25T21:01:00Z,PAFS 252101Z AUTO 06009KT 10SM CLR M01/M11 A2969 RMK AO2 SLP064 T10111106 58002 FZRANO
PAGK,2023-04-25T20:53:00Z,PAGK 252053Z AUTO 14016G29KT 10SM CLR 04/M04 A2978 RMK AO2 PK WND 17029/2044 SLP112 T00391044 56008 TSNO
PAGL,2023-04-25T20:56:00Z,PAGL 252056Z AUTO 06007KT 10SM CLR M03/M09 A2973 RMK AO2 SLP062 T10281089 58001 FZRANO
PAGN,2023-04-25T20:56:00Z,PAGN 252056Z AUTO 35003KT 10SM BKN015 BKN022 OVC032 05/03 A3008 RMK AO2 RAB1958E46 SLP176 P0001 60001 T00500028 57001
PAGS,2023-04-25T20:56:00Z,PAGS 252056Z AUTO 12010KT 10SM FEW029 SCT041 OVC050 07/01 A3007 RMK AO2 SLP182 T00670006 57003
PAGY,2023-04-25T20:53:00Z,PAGY 252053Z AUTO 20010KT 10SM OVC065 07/M02 A3005 RMK AO2 SLP174 T00671017 50006 TSNO
PAHC,2023-04-25T20:56:00Z,PAHC 252056Z AUTO 03007KT 340V050 10SM OVC055 M02/M09 A2962 RMK AO2 SLP034 T10221089 58003 FZRANO
PAHL,2023-04-25T20:56:00Z,PAHL 252056Z AUTO 06011G18KT 10SM CLR M05/M14 A2985 RMK AO2 SLP115 T10501139 58004 FZRANO
PAHN,2023-04-25T20:54:00Z,PAHN 252054Z AUTO 13010KT OVC060 07/00 A3005 RMK AO2 SLP179 T00720000 58001 TSNO
PAHO,2023-04-25T20:53:00Z,PAHO 252053Z 09008KT 10SM FEW026 SCT033 BKN041 04/01 A2968 RMK AO2 SLP053 T00440011 55002
PAHX,2023-04-25T21:02:00Z,PAHX 252102Z AUTO 03014KT 10SM OVC049 M03/M09 A2967 RMK AO2 SLP046 T10281089 58003 FZRANO
PAHY,2023-04-25T20:56:00Z,PAHY 252056Z AUTO 14010G17KT 10SM FEW030 SCT035 OVC046 07/00 A3008 RMK AO2 SLP183 60000 T00720000 58016 $
PAIG,2023-04-25T20:56:00Z,PAIG 252056Z AUTO 08014G19KT 10SM OVC070 03/M01 A2952 RMK AO2 SLP006 60000 T00281011 56007 $
PAIL,2023-04-25T20:53:00Z,PAIL 252053Z 08012G19KT 10SM BKN040 OVC070 02/M01 A2959 RMK AO2 SLPNO 6//// T00221011 55002 $
PAIM,2023-04-25T20:55:00Z,PAIM 252055Z AUTO 06012G19KT 350V100 10SM CLR M09/M17 A2982 RMK AO2 PK WND 04028/2018 SLP133 T10871171 57002
PAIN,2023-04-25T20:56:00Z,PAIN 252056Z AUTO 18007KT 150V210 10SM CLR 04/M08 A2969 RMK AO2 SLP085 T00391083 58001
PAIW,2023-04-25T20:56:00Z,PAIW 252056Z AUTO 06020G24KT 9SM CLR M11/M14 A2984 RMK AO2 SLP107 T11061144 58004 FZRANO
PAJC,2023-04-25T21:12:00Z,PAJC 252112Z AUTO VRB03KT 10SM SCT026 OVC037 06/00 A2946 RMK AO2 PNO $
PAJN,2023-04-25T20:53:00Z,PAJN 252053Z 12011G17KT 10SM FEW014 BKN050 OVC065 06/02 A3007 RMK AO2 SLP183 60000 T00560017 51001 $
PAJZ,2023-04-25T21:14:00Z,PAJZ 252114Z AUTO 12020KT 4SM -SN BR OVC007 01/M01 A2958 RMK AO2 P0000 FZRANO $
PAKF,2023-04-25T20:56:00Z,PAKF 252056Z AUTO 20008KT 10SM OVC037 A2941 RMK AO2 SLPNO 60000 53000 FZRANO $
PAKH,2023-04-25T20:56:00Z,PAKH 252056Z AUTO 10SM UP OVC009 03/02 A2951 RMK AO2 RAE44UPB44 SLP993 P0000 60000 T00280022 55003 TSNO $
PAKI,2023-04-25T20:56:00Z,PAKI 252056Z AUTO 10SM CLR M02/M05 A2950 RMK AO2 SLP993 T10221050 55001 FZRANO $
PAKN,2023-04-25T20:54:00Z,PAKN 252054Z 12009KT 10SM OVC050 05/M02 A2946 RMK AO2 SLP976 T00501017 55002
PAKP,2023-04-25T20:56:00Z,PAKP 252056Z AUTO 04008KT 10SM CLR M18/M23 A2986 RMK AO2 SLP200 60000 T11831233 58002 FZRANO
PAKT,2023-04-25T20:53:00Z,PAKT 252053Z 13013KT 10SM FEW035 BKN055 08/01 A3013 RMK AO2 SLP204 HARBOR WIND 11010KT 60000 T00780006 58007
PAKU,2023-04-25T20:45:00Z,PAKU 252045Z 27003KT 10SM R24/P6000FT SCT007 M20/M22 A3020
PAKV,2023-04-25T20:53:00Z,PAKV 252053Z AUTO 06012KT 10SM OVC100 M05/M13 A2981 RMK AO2 SLP098 T10501133 58004 TSNO
PAKW,2023-04-25T20:53:00Z,PAKW 252053Z AUTO VRB05KT 8SM -RA SCT036 BKN043 OVC050 08/03 A3007 RMK AO2 RAB44 SLP182 P0001 60001 T00780028 58011 TSNO
PAKX,2023-04-25T21:15:00Z,PAKX 252115Z AUTO 07009G15KT 10SM SCT055 05/M03 A2956 RMK AO2
PALG,2023-04-25T20:56:00Z,PALG 252056Z AUTO 09006KT 10SM BKN031 OVC043 M01/M07 A2956 RMK AO2 SLP014 T10061067 58000 FZRANO
PALH,2023-04-25T20:53:00Z,PALH 252053Z AUTO 26005KT 10SM FEW120 04/M04 A2974 RMK AO2 SLP073 T00391044 58002 TSNO
PALP,2023-04-25T20:50:00Z,PALP 252050Z VRB02KT 5SM SCT002 BKN006 BKN010 M17/M20 A3022
PALU,2023-04-25T20:55:00Z,PALU 252055Z 08017KT 10SM FEW017 M09/M12 A3009 RMK AO2A SLP189 57010 BWC LOW
PAMB,2023-04-25T21:16:00Z,PAMB 252116Z AUTO 04014KT 3/4SM -SN BR OVC004 M01/M02 A2948 RMK AO2 P0000 FZRANO $
PAMC,2023-04-25T20:53:00Z,PAMC 252053Z AUTO A2970 RMK AO2 SLPNO 58007 PWINO FZRANO TSNO $
PAMD,2023-04-25T21:10:00Z,PAMD 252110Z AUTO 12019G22KT 6SM -RA BR BKN009 OVC020 03/03 A2983 RMK AO2 CIG 007V013 PNO $
PAMH,2023-04-25T20:56:00Z,PAMH 252056Z AUTO 07006KT CLR M04/M12 A2977 RMK AO2 SLP088 T10391117 58003 PWINO FZRANO $
PAMK,2023-04-25T20:56:00Z,PAMK 252056Z AUTO 06016KT 10SM CLR M03/M08 A2966 RMK AO2 SLP046 T10281083 58003 FZRANO
PAMM,2023-04-25T20:56:00Z,PAMM 252056Z AUTO 10004KT 10SM BKN040 OVC055 08/01 A3014 RMK AO2 SLP302 60000 T00830011 58009 $
PAMO,2023-04-25T20:56:00Z,PAMO 252056Z AUTO 08013KT 10SM CLR M04/M09 A2957 RMK AO2 SLP022 T10391089 57005 FZRANO
PAMR,2023-04-25T20:53:00Z,PAMR 252053Z 26006KT 10SM SCT110 03/M04 A2973 RMK AO2 SLP070 T00331044 58001
PAMY,2023-04-25T20:56:00Z,PAMY 252056Z AUTO 04009KT 10SM CLR M01/M05 A3029 RMK AO2 SLP257 60000 T10111050 51213 FZRANO
PANA,2023-04-25T20:56:00Z,PANA 252056Z AUTO 07006KT 10SM SCT036 00/M07 A2952 RMK AO2 SLP995 T00001067 56004 FZRANO TSNO $
PANC,2023-04-25T20:53:00Z,PANC 252053Z 25006KT 10SM SCT120 03/M03 A2974 RMK AO2 SLP072 T00281028 $
PANI,2023-04-25T20:56:00Z,PANI 252056Z AUTO 11010G15KT 10SM CLR 01/M06 A2962 RMK AO2 SLP022 T00111056 56007 FZRANO $
PANV,2023-04-25T21:16:00Z,PANV 252116Z AUTO 05014G19KT 10SM -SN BKN025 OVC031 M03/M10 A2962 RMK AO2 SNB14 P0000 FZRANO TSNO
PANW,2023-04-25T21:15:00Z,PANW 252115Z AUTO 10013G19KT 2SM -SN BR OVC005 01/00 A2952 RMK AO2 VIS 1 3/4V4 P0000 FZRANO
PAOH,2023-04-25T20:56:00Z,PAOH 252056Z AUTO 06006KT 10SM FEW021 BKN034 OVC055 06/02 A3005 RMK AO2 RAB10E40 SLP178 P0000 60000 T00560017 58002
PAOM,2023-04-25T20:53:00Z,PAOM 252053Z 05012KT 10SM CLR M04/M10 A2971 RMK AO2 SLP060 T10441100 57005
PAOO,2023-04-25T21:06:00Z,PAOO 252106Z AUTO SCT025 OVC038 M01/M07 A2954 RMK AO2 PWINO FZRANO TSNO $
PAOR,2023-04-25T20:53:00Z,PAOR 252053Z 11010KT 10SM OVC100 00/M08 A2978 RMK AO2 SLP119 T00001078 58003 PNO
PAOT,2023-04-25T20:53:00Z,PAOT 252053Z 08017KT 10SM CLR M07/M12 A2988 RMK AO2 SLP119 T10671117 58009
PAOU,2023-04-25T20:56:00Z,PAOU 252056Z AUTO 14012KT 10SM SCT029 BKN036 BKN044 04/00 A2942 RMK AO2 SLP964 6//// T00440000 55004 PNO $
PAPG,2023-04-25T21:05:00Z,PAPG 252105Z 12008KT 10SM FEW008 SCT022 BKN043 06/02 A3012 RMK AO2
PAPH,2023-04-25T20:56:00Z,PAPH 252056Z AUTO 26011KT 10SM SCT008 SCT027 04/02 A2946 RMK AO2 UPB1957E05RAB05E26 SLP976 P0000 60000 T00440022 51008
PAPM,2023-04-25T20:56:00Z,PAPM 252056Z AUTO 05015KT 9SM -SN OVC020 M01/M02 A2945 RMK AO2 SLP976 P0000 60000 T10061022 55000 FZRANO
PAPN,2023-04-25T21:13:00Z,PAPN 252113Z AUTO 29004KT 7SM -RA BKN014 OVC035 04/02 A2944 RMK AO2 P0000
PAPO,2023-04-25T20:56:00Z,PAPO 252056Z AUTO 05025G28KT 6SM HZ CLR M07/M12 A2997 RMK AO2 PK WND 04029/2056 UPB12E16SNB00E12B16E53 SLP147 P0000 60000 T10671122 56015 FZRANO
PAPT,2023-04-25T20:47:00Z,PAPT 252047Z 19015KT 7SM BRK040 OVC100 01/M02 A2964 RMK NO SPECI
PAQT,2023-04-25T20:53:00Z,PAQT 252053Z AUTO 22003KT 10SM OVC006 M18/M20 A3021 RMK AO2 SLP233 T11831200 58009 TSNO PNO
PARC,2023-04-25T20:56:00Z,PARC 252056Z AUTO 32005KT 10SM CLR M10/M22 A2991 RMK AO2 SLP201 T11001217 56010 FZRANO
PARY,2023-04-25T20:56:00Z,PARY 252056Z AUTO 08018G22KT 10SM CLR M05/M14 A2977 RMK AO2 SLP099 T10501139 58005 FZRANO
PASC,2023-04-25T20:53:00Z,PASC 252053Z 23009KT 10SM SCT005 M21/M24 A3020 RMK AO2 SLP229 T12111244 58009
PASD,2023-04-25T20:58:00Z,PASD 252058Z 22009KT 10SM SCT020 BKN029 BKN039 04/M01 A2948 RMK AO2 $
PASI,2023-04-25T20:53:00Z,PASI 252053Z 22007KT 10SM FEW030 BKN043 OVC055 07/02 A3003 RMK AO2 SLP169 T00720017 55000 $
PASK,2023-04-25T20:56:00Z,PASK 252056Z AUTO 07020KT 10SM CLR M06/M12 A2990 RMK AO2 SLP124 T10611122 58006 FZRANO
PASM,2023-04-25T20:56:00Z,PASM 252056Z AUTO 08010KT 10SM BKN032 M03/M09 A2958 RMK AO2 SLP028 T10331089 56005 FZRANO
PASN,2023-04-25T20:53:00Z,PASN 252053Z AUTO 35012KT 9SM OVC022 M04/M08 A2950 RMK AO2 SNB15E47 SLP991 P0000 60000 T10391078 53002 TSNO
PASO,2023-04-25T21:00:00Z,PASO 252100Z AUTO 01004KT 10SM -RA BKN011 BKN019 OVC025 04/03 A2966 RMK AO2 P0000 T00440028 TSNO
PASX,2023-04-25T20:56:00Z,PASX 252056Z AUTO 08006KT 10SM SCT070 04/M01 A2972 RMK AO2 SLP071 T00391011 58002
PASY,2023-04-25T20:55:00Z,PASY 252055Z 30011KT 7SM FEW044 FEW070 BKN220 03/M02 A2970 RMK AO2A SLP057 WND DATA ESTMD T00261020 51002 PNO FZRANO $
PATA,2023-04-25T20:52:00Z,PATA 252052Z 10010KT 10SM CLR M05/M15 A2986 RMK AO2 SLP119 T10501150 58006
PATC,2023-04-25T20:55:00Z,PATC 252055Z AUTO 03025KT 4SM BR FEW080 M13/M15 A2977 RMK AO2 PK WND 03028/2051 SLP089 T11301152 56014
PATE,2023-04-25T20:56:00Z,PATE 252056Z AUTO 10016KT 10SM CLR M06/M11 A2975 RMK AO2 SLP082 T10611106 55008 FZRANO
PATG,2023-04-25T21:04:00Z,PATG 252104Z AUTO 03006KT 2 1/2SM -SN BR OVC019 01/M01 A2948 RMK AO2 VIS 1 3/4V4 P0000 FZRANO
PATK,2023-04-25T20:53:00Z,PATK 252053Z 00000KT 10SM BKN065 07/M08 A2975 RMK AO2 SLP079 T00671078 50000
PATL,2023-04-25T20:55:00Z,PATL 252055Z AUTO 00000KT 10SM CLR M04/M12 A2968 RMK AO2 SLP074 T10361124 57006 TSNO $
PATO,2023-04-25T20:53:00Z,PATO 252053Z AUTO 12016G34KT 070V150 1 1/2SM -SN OVC013 02/M01 A2978 RMK AO2 PK WND 07038/2020 RAB06E44SNE06B44 SLP086 P0010 60018 T00221006 56004 TSNO
PATQ,2023-04-25T20:56:00Z,PATQ 252056Z AUTO 00000KT 8SM CLR M12/M14 A3019 RMK AO2 SLP228 60000 T11171144 58009 FZRANO TSNO
PAUN,2023-04-25T20:56:00Z,PAUN 252056Z AUTO 08020KT 10SM CLR M03/M10 A2971 RMK AO2 PK WND 09027/2032 SLP064 60000 T10281100 50001 FZRANO
PAVC,2023-04-25T20:56:00Z,PAVC 252056Z AUTO 28019G25KT 9SM -RA OVC017 03/01 A2945 RMK AO2 RAB34 SLP974 P0000 60000 T00280011 56003
PAVD,2023-04-25T20:56:00Z,PAVD 252056Z COR 26003KT 7SM -RA SCT024 BKN037 OVC050 03/M01 A2997 RMK AO2 RAB47SNE47 SLP144 PCPN VRY LGT P0000 60000 T00281011 58001 $
PAWD,2023-04-25T20:53:00Z,PAWD 252053Z AUTO 00000KT 1/2SM SN FG VV007 01/M01 A2977 RMK AO2 SLP079 P0007 60021 T00061011 58001 TSNO
PAWG,2023-04-25T20:56:00Z,PAWG 252056Z 11008KT 10SM FEW025 SCT045 BKN070 07/01 A3013
PAWI,2023-04-25T20:53:00Z,PAWI 252053Z AUTO 00000KT 10SM FEW002 M15/M17 A3018 RMK AO2 UPE21 SLP220 T11501172 57012 TSNO
PAWM,2023-04-25T20:56:00Z,PAWM 252056Z AUTO VRB06KT 8SM CLR M02/M12 A2971 RMK AO2 SLP065 T10171117 58005 FZRANO
PAWN,2023-04-25T20:56:00Z,PAWN 252056Z AUTO 00000KT 10SM CLR M03/M14 RMK AO2 SLPNO T10331139 FZRANO $
PAWS,2023-04-25T20:56:00Z,PAWS 252056Z AUTO 08008KT 10SM OVC085 06/M07 A2975 RMK AO2 SLP081 T00611067 58003
PAYA,2023-04-25T20:53:00Z,PAYA 252053Z AUTO 14007KT 10SM BKN036 OVC044 06/M01 A3000 RMK AO2 SLP159 T00561011 55005 TSNO
PAZK,2023-04-25T21:21:00Z,PAZK 252121Z AUTO 01007KT 10SM FEW008 M03/M08 A2970 RMK AO2 FZRANO
PFCL,2023-04-25T20:13:00Z,PFCL 252013Z AUTO 07013KT 2SM -SN BR OVC011 M01/M01 A2948 RMK AO2 P0000 FZRANO TSNO
PFEL,2023-04-25T20:56:00Z,PFEL 252056Z AUTO 03013G18KT 10SM CLR M03/M12 A2972 RMK AO2 SLP067 T10331117 58003 FZRANO
PFKT,2023-04-25T20:56:00Z,PFKT 252056Z AUTO 06018KT 10SM CLR A2978 RMK AO2 PK WND 03030/2007 SLPNO 51003 FZRANO $
PFKW,2023-04-25T20:56:00Z,PFKW 252056Z AUTO 08008KT 10SM SCT060 01/M07 A2951 RMK AO2 SLP993 T00061067 56007 FZRANO
PFNO,2023-04-25T20:56:00Z,PFNO 252056Z AUTO 06015KT 10SM CLR M06/M14 A2990 RMK AO2 SLP212 T10561144 58010 FZRANO $
PFSH,2023-04-25T20:56:00Z,PFSH 252056Z AUTO 01012KT 10SM CLR M06/M09 A2972 RMK AO2 SLP065 T10561089 56008 FZRANO
PFWS,2023-04-25T20:56:00Z,PFWS 252056Z AUTO 11008KT 10SM BKN042 OVC050 03/M02 A2950 RMK AO2 SLP033 T00281017 55001
PFYU,2023-04-25T20:56:00Z,PFYU 252056Z 05009KT 10SM BKN095 M07/M17 A3001 RMK AO2 SLP182 T10671172 58006
PGRO,2023-04-25T20:50:00Z,PGRO 252050Z 08012KT 7SM VCSH BKN014 BKN100 26/23 A2981 RMK VCSH SW
PGSN,2023-04-25T20:54:00Z,PGSN 252054Z 08015KT 10SM FEW015 FEW022 27/25 A2985 RMK AO2 RAB00E11 SLP128 P0000 60002 T02670250 51012 $
PGUA,2023-04-25T21:10:00Z,PGUA 252110Z AUTO 08016G20KT 10SM BKN009 OVC014 26/24 A2984 RMK AO2 CIG 007 RWY24L SLP095 $
PGUM,2023-04-25T21:19:00Z,PGUM 252119Z 07015KT 10SM SCT017 BKN025 27/25 A2984 RMK AO2 RAE02 P0000 T02720250
PHBK,2023-04-25T20:51:00Z,PHBK 252051Z AUTO 01014G19KT 10SM CLR 28/18 A3003 RMK AO2 SLP171 T02780183 58002
PHHI,2023-04-25T21:20:00Z,PHHI 252120Z AUTO 35011KT 10SM BKN014 BKN020 BKN028 OVC034 24/20 A3006 RMK AO2 CIG 014V026 BKN014 V SCT SLP171 $
PHJR,2023-04-25T20:53:00Z,PHJR 252053Z 35010KT 10SM BKN038 28/19 A3004 RMK AO2 SLP179 T02830194 58002
PHKO,2023-04-25T20:53:00Z,PHKO 252053Z 24007KT 10SM FEW050 27/19 A3004 RMK AO2 SLP171 T02720194 50003
PHLI,2023-04-25T20:53:00Z,PHLI 252053Z 04014KT 10SM SCT033 OVC043 24/18 A3008 RMK AO2 SLP184 T02440183 51004
PHMK,2023-04-25T21:02:00Z,PHMK 252102Z 02005KT 6SM -RA SCT010 OVC017 22/21 A3006 RMK AO2 RAB2057 P0000 T02220211
PHNG,2023-04-25T20:57:00Z,PHNG 252057Z 03012KT 10SM BKN025 29/22 A3003 RMK AO2 SLP162 T02890217 50001 $
PHNL,2023-04-25T20:53:00Z,PHNL 252053Z 02009G16KT 10SM FEW023 SCT031 SCT040 28/21 A3003 RMK AO2 SLP169 T02780206 55002
PHNY,2023-04-25T21:23:00Z,PHNY 252123Z AUTO 00000KT 1 3/4SM +RA BR BKN008 OVC011 21/21 A3010 RMK AO2 CIG 005V009 P0008
PHOG,2023-04-25T20:54:00Z,PHOG 252054Z 03010KT 10SM SCT040 BKN055 28/19 A3003 RMK AO2 SLP175 T02780194 50001 $
PHSF,2023-04-25T20:55:00Z,PHSF 252055Z AUTO 25006KT 10SM CLR 19/11 A3035 RMK AO2 SLP169 T01930113 50000 $
PHTO,2023-04-25T20:53:00Z,PHTO 252053Z 08009KT 10SM CLR 28/19 A3004 RMK AO2 SLP170 T02830189 58002
PKMR,2023-04-25T20:55:00Z,PKMR 252055Z 06008KT 14SM -RA SCT014 BKN045 BKN110 OVC130 25/23 A2989 RMK SHRAB07E29RAB29 SLP124 60019 8/87/ T02530231 52024
PKWA,2023-04-25T21:20:00Z,PKWA 252120Z AUTO 07020KT 10SM SCT023 SCT042 28/23 A2988 RMK AO2 T02750232 TSNO
PLCH,2023-04-25T21:00:00Z,PLCH 252100Z 08005KT 9999 FEW018TCU SCT020 29/26 Q1010
PMDY,2023-04-25T20:56:00Z,PMDY 252056Z AUTO 10SM 22/13 A3024 RMK AO2 SLP240 T02170128 51003 TSNO $
PPIZ,2023-04-25T20:56:00Z,PPIZ 252056Z AUTO 04014KT 10SM CLR M17/M21 A3017 RMK AO2 SLP220 T11671206 58008 FZRANO
PTKK,2023-04-25T20:52:00Z,PTKK 252052Z VRB04KT 15SM FEW013 BKN120 OVC280 28/25 A2980 RMK SLP093 8/171 T02830253 52015
PTRO,2023-04-25T20:50:00Z,PTRO 252050Z 01004KT 14SM SCT015 BKN110 BKN290 25/24 A2979 
PTTP,2023-04-25T20:54:00Z,PTTP 262054Z 10003KT 15SM SCT018 SCT300 29/25 A2984 RMK SLP105 8/101 T02900249 52017
PTYA,2023-04-25T20:53:00Z,PTYA 252053Z VRB06KT 12SM FEW016TCU BKN300 26/25 A2978 RMK TCU E SLP084 8/201 T02610253 52010
PWAK,2023-04-25T21:05:00Z,PWAK 252105Z AUTO 06013KT 8SM BKN020 27/21 A3004 RMK AO2 SLP179
RCKH,2023-04-25T21:00:00Z,RCKH 252100Z 01005KT 4000 BR SCT010 BKN025 BKN050 23/20 Q1010 NOSIG RMK A2985
RCMQ,2023-04-25T21:00:00Z,RCMQ 252100Z 36009KT 8000 FEW006 SCT030 BKN050 18/17 Q1012 NOSIG RMK A2991
RCNN,2023-04-25T21:00:00Z,RCNN 252100Z 36006KT 6000 FEW010 BKN060 21/18 Q1011 NOSIG RMK A2987
RCSS,2023-04-25T21:00:00Z,RCSS 252100Z 09006KT 9999 -RA FEW010 BKN032 BKN040 18/16 Q1014 NOSIG RMK A2997
RCTP,2023-04-25T21:00:00Z,RCTP 252100Z 05016KT 9999 -RA FEW006 BKN012 BKN020 18/17 Q1014 NOSIG RMK A2996
RJAA,2023-04-25T21:00:00Z,RJAA 252100Z 13003KT 8000 -RA FEW005 SCT030 BKN040 14/13 Q1013 NOSIG
RJAH,2023-04-25T21:00:00Z,RJAH 252100Z 02003KT 3000 -SHRA BR FEW008 BKN015 12/12 Q1013
RJBB,2023-04-25T21:00:00Z,RJBB 252100Z 07006KT 9999 -SHRA FEW020 SCT040 BKN050 15/14 Q1004 TEMPO 3000 SHRA BR BECMG 19022G33KT
RJCC,2023-04-25T21:00:00Z,RJCC 252100Z 14023G34KT 5000 SHRA BR FEW006 BKN010 BKN015 08/07 Q1009
RJCO,2023-04-25T21:00:00Z,RJCO 252100Z 16022KT 9000 -SHRA FEW010 BKN015 BKN020 08/07 Q1010
RJDB,2023-04-25T21:00:00Z,RJDB 252100Z AUTO 32003KT 280V360 9999 OVC041 12/10 Q1011
RJFF,2023-04-25T21:00:00Z,RJFF 252100Z 32009KT 9999 -SHRA FEW003 SCT015 BKN025 13/11 Q1010 NOSIG
RJFK,2023-04-25T21:00:00Z,RJFK 252100Z 31013KT 9999 FEW010 SCT015 BKN140 13/11 Q1009
RJFM,2023-04-25T21:00:00Z,RJFM 252100Z AUTO 26018KT 9999 FEW047 OVC130 //////TCU 16/14 Q1006
RJFR,2023-04-25T21:00:00Z,RJFR 252100Z 32010KT 290V350 9999 -SHRA FEW006 SCT020 BKN030 13/10 Q1010
RJGG,2023-04-25T21:00:00Z,RJGG 252100Z 11024KT 5000 -SHRA BR FEW004 BKN006 BKN015 14/14 Q1008 TEMPO 14028G38KT 3000 SHRA BR FEW004 BKN005
RJKA,2023-04-25T21:00:00Z,RJKA 252100Z AUTO 33008KT 300V010 9999 RA FEW008 SCT022 BKN050 18/17 Q1010
RJKI,2023-04-25T21:00:00Z,RJKI 252100Z AUTO 33017KT 9999 -RA FEW009 SCT017 BKN020 19/17 Q1011
RJNK,2023-04-25T21:00:00Z,RJNK 252100Z 36011KT 9999 -SHRA FEW015 SCT030 BKN050 13/11 Q1005
RJOH,2023-04-25T21:00:00Z,RJOH 252100Z 24003KT 220V280 9999 -SHRA FEW006 BKN015 OVC025 11/11 Q1008
RJOI,2023-04-25T20:56:00Z,RJOI 252056Z 27005KT 10SM FEW010 BKN025 BKN070 14/12 A2978 RMK AO2 SLP083 60001 T01390117 53022
RJOK,2023-04-25T21:00:00Z,RJOK 252100Z AUTO 20015KT 9999 -RA FEW006 BKN010 OVC013 //////TCU 19/19 Q1004
RJOO,2023-04-25T21:00:00Z,RJOO 252100Z AUTO 08008KT 9999 -RA NSC 16/15 Q1004
RJOS,2023-04-25T21:00:00Z,RJOS 252100Z 16022KT 2000 -SHRA BR SCT005 BKN008 OVC012 17/17 Q1004
RJSM,2023-04-25T21:00:00Z,RJSM 252100Z 13007KT 9999 -RA FEW008 SCT045 OVC080 10/07 Q1008
RJTR,2023-04-25T20:50:00Z,RJTR 252050Z AUTO 29003KT 5SM -RA BR OVC015 11/11 A2991 RMK AO2 LTG DSNT S RAE03RAB04E14RAB50 SLP131 $
RJTT,2023-04-25T21:00:00Z,RJTT 252100Z 09008KT 9999 -RA FEW015 BKN030 BKN050 15/13 Q1012 NOSIG
RJTY,2023-04-25T21:10:00Z,RJTY 252110Z 00000KT 4SM -DZ SCT004 OVC011 12/11 A2992 RMK AO2A SLP136
RKJB,2023-04-25T21:00:00Z,RKJB 252100Z 28003KT 210V340 9999 SCT015 10/07 Q1014 NOSIG
RKJK,2023-04-25T21:15:00Z,RKJK 252115Z 22008KT 4SM BR OVC014 10/10 A2990 RMK AO2A SLP130 $
RKNN,2023-04-25T20:12:00Z,RKNN 252012Z 25008KT 9999 FEW050 10/00 A2980
RKNW,2023-04-25T20:23:00Z,RKNW 252023Z 23004KT 4800 BR BKN020 BKN060 08/06 A2986 RMK CIG020
RKNY,2023-04-25T21:00:00Z,RKNY 252100Z 28009G21KT 180V320 CAVOK 10/02 Q1008 NOSIG
RKPC,2023-04-25T21:00:00Z,RKPC 252100Z 21007KT 9999 FEW030 08/05 Q1015 NOSIG
RKPK,2023-04-25T21:00:00Z,RKPK 252100Z 34003KT 9000 FEW030 08/06 Q1012
RKSG,2023-04-25T20:55:00Z,RKSG 252055Z 21003KT 5SM BR SCT022 BKN055 09/06 A2988 RMK AO2A SLP117 WND DATA ESTMD T00920056 $
RKSI,2023-04-25T21:00:00Z,RKSI 252100Z 26011KT 9999 SCT012 BKN015 09/06 Q1011 NOSIG
RKSM,2023-04-25T21:00:00Z,RKSM 252100Z 22006KT 9999 BKN020 BKN030 10/06 A2986
RKSO,2023-04-25T21:10:00Z,RKSO 252110Z 22008KT 8SM BKN017 BKN025 OVC060 09/09 A2986 RMK AO2A SLP115 $
RKSS,2023-04-25T21:00:00Z,RKSS 252100Z 24006KT 200V290 9999 FEW015 BKN025 10/07 Q1011 NOSIG
RKTE,2023-04-25T21:02:00Z,RKTE 252102Z 17003KT 4400 BR FEW010 BKN022 BKN060 05/05 A2987 RMK CIG022
RKTN,2023-04-25T21:00:00Z,RKTN 252100Z 28001KT 8000 FEW030 05/05 Q1012
RKTP,2023-04-25T20:31:00Z,RKTP 252031Z 22007KT 9999 BKN012 BKN025 10/08 A2990 RMK CIG012
RKTU,2023-04-25T21:00:00Z,RKTU 252100Z 25006KT 1600 BR FEW005 BKN060 05/05 Q1012
ROAH,2023-04-25T21:00:00Z,ROAH 252100Z 35015KT 9999 -SHRA FEW007 BKN009 BKN013 20/19 Q1012
RODE,2023-04-25T20:59:00Z,RODE 252059Z AUTO 34011KT -RA SCT011 OVC020 20/19 A2991 RMK AO2 RAE00B32 SLP170 P0000 60000 T02000194 53006 $
RODN,2023-04-25T20:55:00Z,RODN 252055Z 33004KT 10SM SCT005 OVC012 19/17 A2989 RMK AO2A SLPNO RVRNO ALSTG ESTMD $
ROIG,2023-04-25T21:00:00Z,ROIG 252100Z AUTO 03011KT 9999 BKN014 OVC020 21/19 Q1012
ROMD,2023-04-25T21:00:00Z,ROMD 252100Z AUTO 24003KT 9999 FEW030 22/21 Q1011
ROMY,2023-04-25T21:00:00Z,ROMY 252100Z AUTO 02011KT 9999 SCT013 OVC016 21/19 Q1012
RORK,2023-04-25T21:00:00Z,RORK 252100Z AUTO 26004KT 9999 SCT040 22/20 Q1011
RORS,2023-04-25T21:00:00Z,RORS 252100Z AUTO 02017KT 9999 OVC016 21/19 Q1012
RORT,2023-04-25T21:00:00Z,RORT 252100Z AUTO 01011KT 350V050 9999 -RA BKN014 OVC021 22/19 Q1012
RORY,2023-04-25T21:00:00Z,RORY 252100Z AUTO 34014KT 9999 FEW008 BKN010 BKN024 20/19 Q1012
ROTM,2023-04-25T20:56:00Z,ROTM 252056Z 36011KT 9999 VCSH BKN005 OVC011 19/19 A2990 RMK SHRAE22 CIG 003V008 SLP112 P0001 60001 T01940194 52005
ROYN,2023-04-25T21:00:00Z,ROYN 252100Z AUTO 02023KT 9999 BKN007 BKN009 BKN010 21/20 Q1013
RPLB,2023-04-25T21:00:00Z,RPLB 252100Z 05006KT 020V090 9999 FEW020 BKN080 27/23 Q1009 NOSIG RMK A2980
RPLC,2023-04-25T21:00:00Z,RPLC 252100Z 32001KT 8000 SCT020 BKN100 27/22 Q1009 NOSIG RMK A2980
RPLI,2023-04-25T21:00:00Z,RPLI 252100Z VRB02KT 9999 FEW018 25/22 Q1008 NOSIG RMK A2977
RPLL,2023-04-25T21:00:00Z,RPLL 252100Z VRB02KT 9999 FEW025 SCT100 28/23 Q1009 NOSIG RMK A2980
RPMD,2023-04-25T21:00:00Z,RPMD 252100Z VRB02KT 9999 FEW016 BKN260 25/25 Q1009 RMK A2980
RPMZ,2023-04-25T21:00:00Z,RPMZ 252100Z 00000KT 9999 FEW016CB SCT300 25/23 Q1008 RMK A2977 CB/LTNG NE
RPVD,2023-04-25T21:00:00Z,"RPVD 252100Z 29004KT 9999 SCT015TCU BKN070 27/25 Q1008 RMK A2977 TCU E,SE"
RPVM,2023-04-25T21:00:00Z,RPVM 252100Z 36005KT 9999 FEW020 SCT300 27/24 Q1009 NOSIG RMK A2980
RPVP,2023-04-25T21:00:00Z,RPVP 252100Z 21004KT 9999 FEW019 27/24 Q1008 RMK A2977
SAAR,2023-04-25T21:00:00Z,SAAR 252100Z 02004KT CAVOK 20/17 Q1012 RMK PP000
SABE,2023-04-25T21:00:00Z,SABE 252100Z VRB02KT 9999 FEW049TCU BKN100 19/16 Q1013 NOSIG RMK PP000
SACO,2023-04-25T21:00:00Z,SACO 252100Z 13004KT 090V160 9999 FEW045 23/10 Q1013 NOSIG RMK PP000
SADF,2023-04-25T21:00:00Z,SADF 252100Z 09005KT 9999 FEW050TCU SCT100 20/16 Q1012 RMK PP000
SAEZ,2023-04-25T21:00:00Z,SAEZ 252100Z 20003KT 8000 -RA BKN020 BKN060 18/18 Q1012 NOSIG RMK PP001
SAME,2023-04-25T21:00:00Z,SAME 252100Z 02009KT CAVOK 26/07 Q1011
SANT,2023-04-25T21:00:00Z,SANT 252100Z 09003KT 070V140 CAVOK 24/15 Q1013 RMK PP000
SAOC,2023-04-25T21:00:00Z,SAOC 252100Z 05005KT CAVOK 23/12 Q1012
SARC,2023-04-25T21:00:00Z,SARC 252100Z 16004KT 8000 FEW030 21/16 Q1013
SARE,2023-04-25T21:00:00Z,SARE 252100Z 14004KT 120V180 CAVOK 23/15 Q1013 RMK PP///
SARF,2023-04-25T21:00:00Z,SARF 252100Z 23007KT CAVOK 23/17 Q1012
SARI,2023-04-25T21:18:00Z,SARI 252118Z 19003KT 100V250 5000 -TSRA SCT006 FEW050CB OVC058 18/17 Q1015
SARL,2023-04-25T21:00:00Z,SARL 252100Z 27008KT CAVOK 22/16 Q1012
SARP,2023-04-25T21:00:00Z,SARP 252100Z 36004KT 9999 SCT015 BKN100 21/20 Q1013
SASA,2023-04-25T21:00:00Z,SASA 252100Z 05008KT CAVOK 22/13 Q1016 RMK PP000
SASJ,2023-04-25T21:00:00Z,SASJ 252100Z 06006KT 030V090 CAVOK 21/16 Q1016 RMK PP000
SAVC,2023-04-25T21:00:00Z,SAVC 252100Z 08006KT 9999 FEW020 BKN100 13/10 Q1014 RMK PP000
SAWE,2023-04-25T21:00:00Z,SAWE 252100Z 30013KT CAVOK 07/M00 Q1007 RMK PP000
SAWG,2023-04-25T21:00:00Z,SAWG 252100Z 23009KT CAVOK 10/M01 Q1011
SAWH,2023-04-25T21:00:00Z,SAWH 252100Z VRB02KT 9999 FEW032 SCT040 BKN070 06/01 Q1003 RMK PP000
SAZM,2023-04-25T21:00:00Z,SAZM 252100Z 07004KT 0500 R13/0700 BCFG BKN002 16/16 Q1013 RMK PP///
SAZN,2023-04-25T21:00:00Z,SAZN 252100Z 29005KT CAVOK 22/08 Q1010
SAZS,2023-04-25T21:00:00Z,SAZS 252100Z 26008KT 9000 SHRA SCT035 SCT050 OVC200 11/06 Q1013 RMK PP///
SBAF,2023-04-25T21:00:00Z,SBAF 252100Z 00000KT CAVOK 24/22 Q1017
SBAN,2023-04-25T21:00:00Z,SBAN 252100Z 07004KT 9999 VCSH SCT030 FEW040TCU 23/18 Q1020 RESHRA
SBAR,2023-04-25T21:00:00Z,SBAR 252100Z 14007KT 6000 -RA SCT008 BKN016 OVC030 23/23 Q1014
SBAU,2023-04-25T21:00:00Z,SBAU 252100Z 12010KT 9999 FEW020 SCT080 23/18 Q1015
SBAX,2023-04-25T21:00:00Z,SBAX 252100Z 13004KT 9999 SCT035 24/14 Q1020
SBBE,2023-04-25T21:00:00Z,SBBE 252100Z 07007KT 9999 FEW012 SCT025 BKN100 27/24 Q1010 RERA
SBBG,2023-04-25T21:00:00Z,SBBG 252100Z AUTO 04006KT CAVOK 19/17 Q1013
SBBH,2023-04-25T21:00:00Z,SBBH 252100Z 10006KT CAVOK 24/14 Q1020
SBBI,2023-04-25T21:00:00Z,SBBI 252100Z 02003KT CAVOK 18/15 Q1020
SBBR,2023-04-25T21:00:00Z,SBBR 252100Z 11009KT 9999 SCT040 FEW045TCU 24/15 Q1019
SBBU,2023-04-25T21:00:00Z,SBBU 252100Z 24001KT 9999 FEW035 SCT100 23/18 Q1018
SBBV,2023-04-25T21:00:00Z,SBBV 252100Z 25004KT 9999 -RA BKN006 FEW035TCU OVC100 23/23 Q1012
SBBW,2023-04-25T21:00:00Z,SBBW 252100Z /////KT 9999 SCT020 28/23 Q1014
SBCA,2023-04-25T21:00:00Z,SBCA 252100Z 04016KT 9999 SCT030 BKN080 22/16 Q1015
SBCB,2023-04-25T21:00:00Z,SBCB 252100Z 08013KT 9999 FEW030 24/22 Q1018
SBCF,2023-04-25T21:00:00Z,SBCF 252100Z 09009KT 9999 FEW045 SCT100 24/15 Q1020
SBCG,2023-04-25T21:00:00Z,SBCG 252100Z 01008KT 9999 FEW030 SCT100 26/21 Q1013
SBCH,2023-04-25T21:00:00Z,SBCH 252100Z 10005KT 9999 SCT015 BKN080 19/19 Q1016
SBCJ,2023-04-25T21:00:00Z,SBCJ 252100Z 00000KT 9999 SCT030 25/21 Q1015
SBCO,2023-04-25T21:00:00Z,SBCO 252100Z VRB02KT 9999 -RA FEW040 BKN090 23/19 Q1014
SBCP,2023-04-25T21:00:00Z,SBCP 252100Z 16006KT CAVOK 24/22 Q1018
SBCR,2023-04-25T21:00:00Z,SBCR 252100Z 32002KT 9999 FEW030 26/21 Q1011
SBCT,2023-04-25T21:00:00Z,SBCT 252100Z 05004KT 9999 FEW005 SCT083 18/14 Q1020
SBCX,2023-04-25T21:00:00Z,SBCX 252100Z 23002KT 9999 FEW040 SCT080 19/15 Q1018
SBCY,2023-04-25T21:00:00Z,SBCY 252100Z 12005KT 9999 FEW020 SCT100 24/22 Q1012
SBCZ,2023-04-25T21:00:00Z,SBCZ 252100Z 07006KT 9999 VCSH BKN025 OVC100 26/23 Q1011
SBDN,2023-04-25T21:00:00Z,SBDN 252100Z 06006KT CAVOK 23/19 Q1015
SBEG,2023-04-25T21:00:00Z,SBEG 252100Z 29004KT 9999 FEW020 BKN100 27/25 Q1011
SBES,2023-04-25T21:00:00Z,SBES 252100Z 08007KT 9999 FEW040 23/21 Q1018
SBFI,2023-04-25T21:15:00Z,SBFI 252115Z 19005KT 6000 -TSRA SCT014 OVC020 //////CB 18/18 Q1015 RERA
SBFL,2023-04-25T21:00:00Z,SBFL 252100Z 11004KT 9999 FEW035 22/20 Q1017
SBFN,2023-04-25T21:13:00Z,SBFN 252113Z AUTO 12002KT 9999 FEW028 24/24 Q1013
SBFS,2023-04-25T21:00:00Z,SBFS 252100Z 09003KT 9999 SCT015 25/22 Q1018
SBFZ,2023-04-25T21:00:00Z,SBFZ 252100Z 09007KT CAVOK 29/24 Q1011
SBGL,2023-04-25T21:00:00Z,SBGL 252100Z 14008KT 9999 FEW020 BKN100 24/20 Q1017
SBGO,2023-04-25T21:08:00Z,SBGO 252108Z 13016G27KT 9000 2000SE TSRA SCT020 SCT050 SCT053CB BKN080 22/19 Q1018
SBGR,2023-04-25T21:00:00Z,SBGR 252100Z 14005KT 5000 HZ NSC 23/17 Q1020
SBGW,2023-04-25T21:00:00Z,SBGW 252100Z 03004KT 9999 FEW025 23/16 Q1019
SBHT,2023-04-25T21:00:00Z,SBHT 252100Z 18001KT 9999 FEW030 30/26 Q1009
SBIH,2023-04-25T21:00:00Z,SBIH 252100Z 18005KT 9999 FEW020 FEW025TCU 31/24 Q1008
SBIL,2023-04-25T21:00:00Z,SBIL 252100Z 15005KT 9999 FEW025 27/24 Q1016
SBIP,2023-04-25T21:00:00Z,SBIP 252100Z AUTO VRB01KT CAVOK 23/16 Q1018
SBJE,2023-04-25T21:00:00Z,SBJE 252100Z 24002KT 9999 SCT015 BKN070 30/25 Q1010
SBJP,2023-04-25T21:00:00Z,SBJP 252100Z 13008KT 9999 FEW040 BKN100 27/25 Q1013
SBJR,2023-04-25T21:00:00Z,SBJR 252100Z 12007KT 9999 FEW020 25/21 Q1017
SBJU,2023-04-25T21:00:00Z,SBJU 252100Z 16004KT 9999 FEW020 28/22 Q1015
SBJV,2023-04-25T21:00:00Z,SBJV 252100Z 01002KT 9999 SCT025 BKN070 22/20 Q1017
SBKG,2023-04-25T21:00:00Z,SBKG 252100Z 10006KT 9999 FEW015 SCT020 BKN080 24/22 Q1015
SBKP,2023-04-25T21:00:00Z,SBKP 252100Z 21006KT 150V230 9999 FEW045 25/15 Q1019
SBLB,2023-04-25T21:00:00Z,SBLB 252100Z AUTO 12014KT 9999 NCD 26/22 Q1018 W///S4
SBLE,2023-04-25T21:00:00Z,SBLE 252100Z AUTO 03004KT CAVOK 25/19 Q1016
SBLO,2023-04-25T21:00:00Z,SBLO 252100Z 08005KT CAVOK 23/18 Q1017
SBLS,2023-04-25T21:00:00Z,SBLS 252100Z 13006KT 9999 SCT045 SCT100 23/15 Q1021
SBMA,2023-04-25T21:00:00Z,SBMA 252100Z 29003KT 9999 FEW025 FEW030TCU 29/25 Q1010
SBME,2023-04-25T21:00:00Z,SBME 252100Z 09007KT 9999 SCT020 26/23 Q1018
SBMG,2023-04-25T21:00:00Z,SBMG 252100Z 05009KT CAVOK 23/17 Q1014
SBMK,2023-04-25T21:00:00Z,SBMK 252100Z 09008KT CAVOK 26/14 Q1018
SBMN,2023-04-25T21:00:00Z,SBMN 252100Z 30006KT 9999 SCT020 FEW025TCU BKN100 28/23 Q1011
SBMO,2023-04-25T21:00:00Z,SBMO 252100Z 08003KT 9999 VCSH BKN009 BKN016 OVC080 25/24 Q1014
SBMQ,2023-04-25T21:00:00Z,SBMQ 252100Z 10007KT 9999 FEW023 BKN075 27/25 Q1009
SBMS,2023-04-25T21:00:00Z,SBMS 252100Z 18008KT 5000 TSRA SCT015 FEW030CB BKN090 25/23 Q1011
SBMT,2023-04-25T21:00:00Z,SBMT 252100Z 16006KT 7000 FEW049 21/17 Q1020
SBMY,2023-04-25T21:00:00Z,SBMY 252100Z AUTO VRB02KT CAVOK 31/23 Q1010
SBNF,2023-04-25T21:00:00Z,SBNF 252100Z 06007KT 9999 FEW020 22/18 Q1016
SBNM,2023-04-25T21:00:00Z,SBNM 252100Z 06006KT 9999 FEW010 SCT025 BKN080 18/18 Q1014 RETS
SBNT,2023-04-25T21:00:00Z,SBNT 252100Z 12006KT 9999 FEW020 SCT090 26/24 Q1012
SBOI,2023-04-25T21:00:00Z,SBOI 252100Z 09001KT 9999 SCT013 BKN030 OVC048 25/24 Q1011
SBPA,2023-04-25T21:00:00Z,SBPA 252100Z 15002KT 9999 FEW040 BKN100 25/17 Q1014
SBPB,2023-04-25T21:00:00Z,SBPB 252100Z 10011KT 9999 FEW020 BKN100 ///// Q1009
SBPF,2023-04-25T21:00:00Z,SBPF 252100Z 02002KT 9999 SCT030 SCT080 21/17 Q1017
SBPJ,2023-04-25T21:00:00Z,SBPJ 252100Z 25003KT 9999 FEW040 30/22 Q1012
SBPK,2023-04-25T21:00:00Z,SBPK 252100Z 08004KT 9999 FEW040 24/20 Q1014
SBPL,2023-04-25T21:00:00Z,SBPL 252100Z 20004KT 9999 FEW035 30/17 Q1013
SBPP,2023-04-25T21:00:00Z,SBPP 252100Z 00000KT 8000 -RA BKN018 BKN080 21/19 Q1016
SBPS,2023-04-25T21:00:00Z,SBPS 252100Z 10004KT CAVOK 25/23 Q1015
SBPV,2023-04-25T21:00:00Z,SBPV 252100Z 01003KT 9999 FEW030 FEW035TCU 29/23 Q1010
SBRB,2023-04-25T21:00:00Z,SBRB 252100Z 08005KT 9999 FEW030 28/25 Q1010
SBRF,2023-04-25T21:00:00Z,SBRF 252100Z 18008KT 5000 -RA FEW013 SCT022 BKN050 27/24 Q1012
SBRJ,2023-04-25T21:00:00Z,SBRJ 252100Z 11009KT 9999 FEW018 SCT100 25/22 Q1017
SBRP,2023-04-25T21:00:00Z,SBRP 252100Z 14005KT CAVOK 26/15 Q1017
SBSC,2023-04-25T21:00:00Z,SBSC 252100Z 13005KT CAVOK 25/21 Q1017
SBSG,2023-04-25T21:00:00Z,SBSG 252100Z 13006KT 9999 FEW020 FEW025TCU 27/24 Q1012
SBSJ,2023-04-25T21:00:00Z,SBSJ 252100Z 14003KT CAVOK 23/17 Q1019
SBSL,2023-04-25T21:00:00Z,SBSL 252100Z 07004KT 9999 FEW030 FEW035TCU SCT100 28/25 Q1010
SBSM,2023-04-25T21:00:00Z,SBSM 252100Z 08007KT 4500 -TSRA BR FEW007 BKN030 FEW035CB OVC100 17/17 Q1015 RERA
SBSN,2023-04-25T21:00:00Z,SBSN 252100Z 18002KT 9999 TS FEW016 FEW020CB 27/25 Q1009
SBSP,2023-04-25T21:00:00Z,SBSP 252100Z 17007KT 140V200 9999 FEW025 20/17 Q1021
SBSR,2023-04-25T21:00:00Z,SBSR 252100Z 19005KT 9999 FEW030 SCT070 23/17 Q1017
SBST,2023-04-25T21:00:00Z,SBST 252100Z 13003KT 9999 SCT027 23/19 Q1017
SBSV,2023-04-25T21:00:00Z,SBSV 252100Z 12008KT 9999 SCT020 28/23 Q1014
SBTA,2023-04-25T21:00:00Z,SBTA 252100Z 00000KT 9999 FEW040 22/17 Q1018
SBTE,2023-04-25T21:00:00Z,SBTE 252100Z 14006KT 9999 FEW030 32/22 Q1009
SBTF,2023-04-25T21:00:00Z,SBTF 252100Z 31007KT 9999 SCT035 BKN100 25/23 Q1010
SBTT,2023-04-25T21:00:00Z,SBTT 252100Z 11005KT 9999 SCT020 29/22 Q1010
SBTU,2023-04-25T21:00:00Z,SBTU 252100Z AUTO 02004KT 350V050 9999 // FEW100/// 28/24 Q1011
SBUL,2023-04-25T21:00:00Z,SBUL 252100Z 04006KT 9999 SCT030 23/16 Q1019
SBUR,2023-04-25T21:00:00Z,SBUR 252100Z 10006KT CAVOK 26/16 Q1019
SBUY,2023-04-25T21:00:00Z,SBUY 252100Z 30002KT 9999 FEW020 27/24 Q1009
SBVH,2023-04-25T21:00:00Z,SBVH 252100Z 33004KT 9999 FEW030 28/21 Q1013
SBVT,2023-04-25T21:00:00Z,SBVT 252100Z 17009KT 9999 FEW010 SCT030 BKN070 25/22 Q1018
SBYS,2023-04-25T21:00:00Z,SBYS 252100Z 15002KT CAVOK 25/18 Q1018
SCAP,2023-04-25T21:00:00Z,SCAP 252100Z 00000KT 9999 -DZ FEW001 OVC040 11/10 Q1016
SCAR,2023-04-25T21:00:00Z,SCAR 252100Z 22009KT CAVOK 22/16 Q1012
SCAS,2023-04-25T21:00:00Z,SCAS 252100Z 25008KT 9999 SCT015 BKN100 11/08 Q1014
SCAT,2023-04-25T21:00:00Z,SCAT 252100Z 25006KT 220V280 9999 SCT013 OVC017 16/13 Q1015
SCBA,2023-04-25T21:00:00Z,SCBA 252100Z 29006KT 9999 FEW040 SCT100 BKN200 11/04 Q1012
SCCC,2023-04-25T21:00:00Z,SCCC 252100Z 00000KT CAVOK 12/01 Q1013
SCCF,2023-04-25T21:00:00Z,SCCF 252100Z 27018KT CAVOK 22/M04 Q1025
SCCH,2023-04-25T21:00:00Z,SCCH 252100Z VRB02KT 2500 HZ FEW040 BKN080 13/11 Q1016
SCCI,2023-04-25T21:00:00Z,SCCI 252100Z 31015KT 9999 BKN049 SCT070 08/01 Q1009 NOSIG
SCDA,2023-04-25T21:00:00Z,SCDA 252100Z 21013KT CAVOK 22/14 Q1013
SCEL,2023-04-25T21:00:00Z,SCEL 252100Z 16012KT CAVOK 23/08 Q1013 NOSIG
SCFT,2023-04-25T21:00:00Z,SCFT 252100Z 00000KT 4000 RA BKN002 OVC020 11/11 Q1013
SCGE,2023-04-25T21:00:00Z,SCGE 252100Z 09003KT 5000 HZ SCT010 BKN020 OVC070 15/11 Q1017
SCIC,2023-04-25T21:00:00Z,SCIC 252100Z 20005KT 6000 NSC 18/10 Q1014
SCIE,2023-04-25T21:00:00Z,SCIE 252100Z VRB02KT 9999 FEW016 BKN180 15/11 Q1016
SCIP,2023-04-25T21:00:00Z,SCIP 252100Z 12015KT 9999 SCT035 BKN060 24/15 Q1015 NOSIG
SCIR,2023-04-25T21:00:00Z,SCIR 252100Z 31012KT 9999 OVC013 19/16 Q////
SCJO,2023-04-25T21:00:00Z,SCJO 252100Z 03009KT 360V060 9999 OVC030 13/12 Q1013
SCMK,2023-04-25T21:00:00Z,SCMK 252100Z 18008KT 9999 BKN046 10/10 Q1013
SCNT,2023-04-25T21:00:00Z,SCNT 252100Z 29015KT 9999 FEW050 09/M01 Q1010
SCON,2023-04-25T21:00:00Z,SCON 252100Z 00000KT 2000 -RA SCT005 OVC015 10/10 Q1013
SCPD,2023-04-25T21:00:00Z,SCPD 252100Z 19010KT CAVOK 26/06 Q1014
SCPQ,2023-04-25T21:00:00Z,SCPQ 252100Z 01004KT 5000 -RA OVC004 12/11 Q1012
SCQP,2023-04-25T21:00:00Z,SCQP 252100Z 05003KT 9999 OVC039 13/12 Q1015
SCRD,2023-04-25T21:00:00Z,SCRD 252100Z 25004KT CAVOK 15/11 Q1016
SCRG,2023-04-25T21:00:00Z,SCRG 252100Z 19012KT 6000 NSC 21/09 Q1016
SCRM,2023-04-25T21:00:00Z,SCRM 252100Z 25019KT 8000 BKN020 M01/M04 Q0984 NOSIG
SCSE,2023-04-25T21:00:00Z,SCSE 252100Z 29008KT 260V320 9999 BKN009 14/12 Q1014
SCSN,2023-04-25T21:00:00Z,SCSN 252100Z 21004KT 120V270 1500 BR OVC005 13/13 Q1016
SCTB,2023-04-25T21:00:00Z,SCTB 252100Z 24006KT 7000 NSC 24/08 Q1015
SCTE,2023-04-25T21:00:00Z,SCTE 252100Z 03008KT 7000 -RA SCT006 BKN050 OVC090 13/13 Q1013 NOSIG
SCTN,2023-04-25T21:00:00Z,SCTN 252100Z 01006KT 4000 -RA SCT020 OVC050 13/13 Q1012
SCVD,2023-04-25T21:00:00Z,SCVD 252100Z 08002KT 9999 FEW010 BKN015 OVC043 13/13 Q1015
SCVM,2023-04-25T21:00:00Z,SCVM 252100Z 32005KT 280V350 9999 OVC011 13/11 Q1016
SECA,2023-04-25T21:00:00Z,SECA 252100Z 12008KT 9999 BKN040 27/14 Q1015 RMK A2997
SECO,2023-04-25T21:00:00Z,SECO 252100Z 18004KT 9999 FEW026 BKN100 27/24 Q1009 RM A2981
SECU,2023-04-25T21:00:00Z,SECU 252100Z 14006KT 9999 BKN040 SCT100 17/11 Q1024
SEGS,2023-04-25T21:00:00Z,SEGS 252100Z 10008KT 060V120 9999 FEW030 29/23 Q1011 RMK A2986
SEGU,2023-04-25T21:00:00Z,SEGU 252100Z 15004KT 9999 FEW023 SCT030 BKN100 30/24 Q1007 NOSIG RMK A2975
SEGZ,2023-04-25T21:00:00Z,SEGZ 252100Z 13003KT 9999 SCT020 SCT100 28/24 Q1014
SEJD,2023-04-25T21:00:00Z,SEJD 252100Z 12002KT 9999 4000E FEW016CB SCT023 26/22 Q1010 RMK A2985
SELT,2023-04-25T21:00:00Z,SELT 252100Z 02004KT 350V080 9999 SCT030 SCT100 17/08 Q1027
SEMC,2023-04-25T21:00:00Z,SEMC 252100Z 17008KT 9999 SCT026 BKN200 27/18 Q1014 RMK A2996
SEMT,2023-04-25T21:00:00Z,SEMT 252100Z 27007KT 9999 FEW020 30/22 Q1009 RMK A2980
SENL,2023-04-25T21:00:00Z,SENL 252100Z 17003KT 9999 FEW023 BKN100 28/23 Q1011 RMK A2986
SEQM,2023-04-25T21:00:00Z,SEQM 252100Z 35009KT 9999 VCSH FEW030TCU SCT033 BKN300 20/13 Q1023 NOSIG RMK A3022
SERB,2023-04-25T21:00:00Z,SERB 252100Z 09012KT 9999 BKN040 BKN100 19/13 Q1026
SERO,2023-04-25T21:00:00Z,SERO 252100Z 29009KT 9999 FEW013 BKN080 31/23 Q1008
SESA,2023-04-25T21:00:00Z,SESA 252100Z 26006KT CAVOK 29/23 Q1009 RMK A2980
SESM,2023-04-25T21:00:00Z,SESM 252100Z 16006KT 130V230 9999 SCT026 BKN130 25/19 Q1014 RMK A2995
SEST,2023-04-25T21:00:00Z,SEST 252100Z 20006KT 9999 FEW020 SCT230 29/25 Q1008 RMK A2978
SETN,2023-04-25T21:00:00Z,SETN 252100Z 31004KT 280V350 9999 SCT026 SCT300 30/26 Q1008 RMK A2978
SETU,2023-04-25T21:00:00Z,SETU 252100Z 06007KT 9999 SCT020 BKN080 15/10 Q1029 RETS
SGAS,2023-04-25T21:00:00Z,SGAS 252100Z 00000KT 9999 FEW008 BKN015 BKN070 20/19 Q1013 RERA
SGEN,2023-04-25T21:00:00Z,SGEN 252100Z 05006KT 9999 OVC020 20/19Q1014
SGES,2023-04-25T21:00:00Z,SGES 252100Z 24007KT 4000 TSRA BKN010 OVC020 FEW040CB 18/18 Q1014
SKAR,2023-04-25T21:00:00Z,SKAR 252100Z 22006KT 9999 TS VCSH FEW020CB BKN025 29/18 Q1014 RMK CB VCSH/NE A2994
SKBG,2023-04-25T21:00:00Z,SKBG 252100Z 33005KT 9999 SCT013 26/21 Q1013 RMK A2993
SKBO,2023-04-25T21:00:00Z,SKBO 252100Z 23008KT 180V270 9999 VCSH SCT020 BKN080 14/12 Q1025 REDZ NOSIG RMK VCSH/SW A3028
SKBQ,2023-04-25T21:00:00Z,SKBQ 252100Z 01009KT 320V050 9999 FEW015 32/21 Q1008 NOSIG RMK A2979
SKCC,2023-04-25T21:00:00Z,SKCC 252100Z 01008KT 9999 SCT018 29/22 Q1011 RMK A2987
SKCG,2023-04-25T21:00:00Z,SKCG 252100Z 34015KT 9999 FEW015 30/24 Q1009 RMK A2979
SKCL,2023-04-25T21:00:00Z,SKCL 252100Z 04006KT 9999 SCT030CB SCT090 30/19 Q1012 NOSIG RMK CB/SW A2988
SKEJ,2023-04-25T21:00:00Z,SKEJ 252100Z 06004KT 9999 FEW015 SCT200 33/22 Q1006 RMK A2973
SKIB,2023-04-25T21:00:00Z,SKIB 252100Z 04005KT 9999 VCSH BKN030TCU BKN110 25/22 Q1016 RMK TCU/N/S VCSH N/SW A3000
SKIP,2023-04-25T21:00:00Z,SKIP 252100Z 08004KT 9999 TS FEW012CB BKN016 15/10 Q1027 RERA RMK CB/E/W A3034
SKLC,2023-04-25T21:00:00Z,SKLC 252100Z 35012KT 310V010 9999 FEW025TCU SCT300 31/25 Q1007 RMK TCU/E A2976
SKLT,2023-04-25T21:00:00Z,SKLT 252100Z 09004KT 9999 FEW020 SCT200 30/23 Q1009 RMK A2980
SKMD,2023-04-25T21:00:00Z,SKMD 252100Z 19017KT 9999 VCSH FEW025 BKN030CB 20/15 Q1018 RETS RMK CB/SE/N A3007
SKMR,2023-04-25T21:00:00Z,SKMR 252100Z 33012KT 290V010 9999 SCT020 34/23 Q1007 RMK A2973
SKMZ,2023-04-25T21:00:00Z,SKMZ 252100Z 10006KT 8000 -DZ VCFG BKN020 17/16 Q1024 RMK VCFG/W A3026
SKNV,2023-04-25T21:00:00Z,SKNV 252100Z 05005KT 9999 FEW035 BKN200 31/21 Q1009 RMK A2981
SKPC,2023-04-25T21:00:00Z,SKPC 252100Z 11003KT 9999 NSC 29/23 Q1009 RMK A2981
SKPE,2023-04-25T21:00:00Z,SKPE 252100Z 09014KT 8000 TS BKN013CB SCT070 24/16 Q1015 RMK CB/E/SE/W A2998
SKPS,2023-04-25T21:00:00Z,SKPS 252100Z 16009KT 9999 SCT020 BKN080 21/15 Q1018 RMK A3006
SKPV,2023-04-25T21:00:00Z,SKPV 252100Z 12006KT 9999 FEW017 33/27 Q1011 RMK A2986
SKRG,2023-04-25T21:00:00Z,SKRG 252100Z 22006KT 9999 TS SCT018CB BKN030 17/14 Q1024 NOSIG RMK CB TS/W A3023
SKRH,2023-04-25T21:00:00Z,SKRH 252100Z 04010KT 010V070 9999 SCT020 29/24 Q1008 RMK A2979
SKSM,2023-04-25T21:00:00Z,SKSM 252100Z 35010KT 9999 FEW020 32/22 Q1009 RMK A2981
SKSP,2023-04-25T21:00:00Z,SKSP 252100Z 12006KT 020V170 9999 FEW018 30/21 Q1011 RMK A2986
SKUC,2023-04-25T21:00:00Z,SKUC 252100Z 08003KT 9999 BKN020 24/23 Q1011 RMK A2985
SKUI,2023-04-25T21:00:00Z,SKUI 252100Z 31007KT 9999 SCT030 34/24 Q1006 RMK A2973
SKVP,2023-04-25T21:00:00Z,SKVP 252100Z 29004KT 250V350 9999 FEW020 SCT200 33/21 Q1009 RMK A2982
SKVV,2023-04-25T21:00:00Z,SKVV 252100Z 32004KT 7000 -DZ BKN015 SCT090 24/22 Q1011 RMK A2988
SLAL,2023-04-25T21:00:00Z,SLAL 252100Z 36010KT 9999 FEW023 19/04 Q1026
SLCB,2023-04-25T21:00:00Z,SLCB 252100Z 22004KT 9999 FEW036 28/M03 Q1019
SLCO,2023-04-25T21:00:00Z,SLCO 252100Z VRB02KT 9999 FEW015 FEW020CB BKN080 24/24 Q1010
SLET,2023-04-25T21:00:00Z,SLET 252100Z 31005KT 9999 SCT020 25/20 Q1011
SLLP,2023-04-25T21:00:00Z,SLLP 252100Z 12009KT 9999 FEW020 SCT200 15/M07 Q1036
SLSA,2023-04-25T21:00:00Z,SLSA 252100Z 35006KT 9999 FEW017 BKN200 29/23 Q1009
SLSV,2023-04-25T21:00:00Z,SLSV 252100Z 34005KT 9999 FEW017 30/24 Q1010
SLTJ,2023-04-25T21:00:00Z,SLTJ 252100Z 15008KT 9999 NSC 21/11 Q1018
SLTR,2023-04-25T21:00:00Z,SLTR 252100Z 31006KT 9999 FEW020 SCT200 31/24 Q1010
SLVR,2023-04-25T21:00:00Z,SLVR 252100Z VRB02KT 9999 SCT020 26/21 Q1011
SMJP,2023-04-25T21:00:00Z,SMJP 252100Z 36007KT 3000 +TSRA SCT001 SCT010CB BKN015 25/25 Q1010 NOSIG
SMZO,2023-04-25T21:00:00Z,SMZO 252100Z 04006KT 7000 -SHRA SCT010 FEW012CB SCT022 28/24 Q1010 TEMPO TL2120 2000 +TSRA
SOCA,2023-04-25T21:00:00Z,SOCA 252100Z AUTO 35003KT 300V030 9999 FEW007/// BKN046/// ///TCU 26/24 Q1010 TEMPO 3000 SHRA
SPCL,2023-04-25T21:00:00Z,SPCL 252100Z 16004KT 9999 BKN022 BKN100 30/23 Q1010 RMK BIRD HAZARD RWY 02/20 PP000
SPEO,2023-04-25T21:00:00Z,SPEO 252100Z 20014KT 9999 FEW050 25/21 Q1009 RMK PP000
SPHI,2023-04-25T21:00:00Z,SPHI 252100Z 18013KT 9999 SCT035 BKN080 26/21 Q1009 RMK BIRD HAZARD RWY 19/01 PP000
SPHO,2023-04-25T21:00:00Z,SPHO 252100Z 14007KT 100V170 9999 FEW050TCU BKN100 24/05 Q1024 RMK PP000
SPJC,2023-04-25T21:00:00Z,SPJC 252100Z 17012KT CAVOK 26/20 Q1010 NOSIG RMK BIRD HAZARD RWY 16 PP000
SPJE,2023-04-25T21:00:00Z,SPJE 252100Z 35004KT 9999 VCSH SCT040 BKN090 26/23 Q1013 RMK BIRD HAZARD RWY 16/34 TX29.0 PP000
SPJJ,2023-04-25T21:00:00Z,SPJJ 252100Z 10011G22KT 9999 FEW040TCU 18/// Q1029 RMK PP000
SPJL,2023-04-25T21:00:00Z,SPJL 252100Z /////KT 9999 NSC 17/M04 Q1033 RMK WIND RWY12 10006KT PP000
SPLO,2023-04-25T21:00:00Z,SPLO 252100Z 15013KT CAVOK 23/19 Q1012 RMK TX28.2 PP000
SPME,2023-04-25T21:00:00Z,SPME 252100Z 28008KT 9999 SCT013 SCT027 30/25 Q1008 RMK BIRD HAZARD RWY 32/14 PP000
SPMS,2023-04-25T21:00:00Z,SPMS 252100Z 07003KT 9999 FEW015 SCT070 29/23 Q1010 RMK BIRD HAZARD RWY 09/27 PP000
SPNC,2023-04-25T21:00:00Z,SPNC 252100Z 07009KT 9999 FEW040 27/12 Q1018 RMK PP000
SPPY,2023-04-25T21:00:00Z,SPPY 252100Z 10009KT 9999 SCT015TCU BKN040 14/12 Q1026 RMK TX17.0 PP000
SPQT,2023-04-25T21:00:00Z,SPQT 252100Z 27002KT 9999 SCT017 29/25 Q1009 NOSIG RMK PP000
SPQU,2023-04-25T21:00:00Z,SPQU 252100Z 26009KT 220V290 CAVOK 17/09 Q1026 NOSIG RMK PP000
SPRU,2023-04-25T21:00:00Z,SPRU 252100Z 15010KT 8000 VCFG BKN070 25/20 Q1009 RMK PP000
SPSO,2023-04-25T21:00:00Z,SPSO 252100Z 25010KT CAVOK 25/19 Q1011 RMK BIRD HAZARD RWY 22/04 PP000
SPST,2023-04-25T21:00:00Z,SPST 252100Z 18003KT 9999 VCSH SCT015 SCT020 BKN080 25/25 Q1010 RMK PP001
SPTN,2023-04-25T21:00:00Z,SPTN 252100Z 22008KT CAVOK 21/14 Q1014 RMK PP000
SPTU,2023-04-25T21:00:00Z,SPTU 252100Z VRB02KT 9999 FEW025 31/22 Q1009 RMK BIRD HAZARD RWY 01/19 PP000
SPUR,2023-04-25T21:00:00Z,SPUR 252100Z 21011KT 9999 BKN025 31/23 Q1008 RMK BIRD HAZARD RWY 19/01 PP000
SPYL,2023-04-25T21:00:00Z,SPYL 252100Z 25009KT CAVOK 28/23 Q1009 RMK BIRD HAZARD RWY 17/35 PP000
SUAA,2023-04-25T21:00:00Z,SUAA 252100Z VRB02KT 9999 FEW011 FEW016TCU 21/17 Q1012
SUCA,2023-04-25T21:00:00Z,SUCA 252100Z VRB02KT 9999 FEW040CB SCT080 BKN200 18/17 Q1012
SULS,2023-04-25T21:00:00Z,SULS 252100Z VRB03KT 9999 VCSH FEW026 FEW040TCU SCT070 20/18 Q1012
SUMU,2023-04-25T21:00:00Z,SUMU 252100Z 13005KT 9999 TS VCSH FEW020 FEW040CB SCT080 21/19 Q1012 TEMPO TS
SUSO,2023-04-25T21:00:00Z,SUSO 252100Z 25003KT 9999 FEW020 FEW033TCU SCT070 20/18 Q1012
SVMG,2023-04-25T21:00:00Z,SVMG 252100Z 11015KT 9999 SCT030 OVC060 ///// Q1011
SVMI,2023-04-25T21:00:00Z,SVMI 252100Z 09006KT 9999 SCT016 BKN080 35/27 Q1013
SVVA,2023-04-25T21:00:00Z,SVVA 252100Z /////KT 9999 SCT016 30/20 Q1011
SYCJ,2023-04-25T21:00:00Z,SYCJ 252100Z 27004KT 9999 -SHRA SCT015CB SCT016 BKN036 27/25 Q1011 NOSIG RMK CB E-WNW
SYLT,2023-04-25T21:00:00Z,SYLT 252100Z 27012KT 9999 BKN014 OVC100 25/24 Q//// RERA NOSIG
TAPA,2023-04-25T21:00:00Z,TAPA 252100Z 10006KT 040V150 9999 VCSH BKN018 27/23 Q1012 NOSIG
TBPB,2023-04-25T21:00:00Z,TBPB 252100Z 19005KT 9999 -RA BKN012 BKN036 24/23 Q1012 NOSIG
TDCF,2023-04-25T21:00:00Z,TDCF 252100Z 22002KT 9999 FEW018TCU SCT042 29/21 Q1011
TDPD,2023-04-25T21:00:00Z,TDPD 252100Z 09004KT 9999 BKN017 27/24 Q1013
TFFF,2023-04-25T21:00:00Z,TFFF 252100Z AUTO 11004KT 070V140 9999 FEW046/// BKN072/// ///TCU 28/23 Q1012 TEMPO VRB15KT 2500 SHRA FEW010CB BKN018TCU
TFFR,2023-04-25T21:00:00Z,TFFR 252100Z AUTO 02007KT 350V050 9999 BKN026/// BKN032/// ///CB 25/23 Q1012 TEMPO 3000 SHRA
TGPY,2023-04-25T21:00:00Z,TGPY 252100Z 10015KT 9999 FEW017 SCT035 27/24 Q1012 NOSIG
TIST,2023-04-25T20:53:00Z,TIST 252053Z VRB06KT 10SM FEW032 28/21 A2990 RMK AO2 SLP126 T02830211 56012
TISX,2023-04-25T20:53:00Z,TISX 252053Z 12005KT 10SM BKN025 OVC033 27/22 A2992 RMK AO2 SLP129 T02670217 56007
TJBQ,2023-04-25T20:50:00Z,TJBQ 252050Z 02005KT 10SM SCT036 28/21 A2993
TJIG,2023-04-25T20:45:00Z,TJIG 252045Z 09008KT 10SM SCT030 SCT070 28/21 A2990
TJNR,2023-04-25T20:53:00Z,TJNR 252053Z AUTO 05005KT 10SM CLR 28/21 A2992 RMK AO2 SLP131 T02780211 56010
TJPS,2023-04-25T21:15:00Z,TJPS 252115Z AUTO 15006KT A2989 RMK AO2 PWINO TSNO
TJSJ,2023-04-25T20:56:00Z,TJSJ 252056Z 06013KT 10SM FEW046 SCT060 BKN085 27/20 A2990 RMK AO2 SLP125 T02720200 56009
TKPK,2023-04-25T21:00:00Z,TKPK 252100Z 00000KT 9999 -SHRA BKN018 26/23 Q1013
TLPC,2023-04-25T21:00:00Z,TLPC 252100Z 00000KT 8000 -SHRA FEW008 SCT014 BKN042 25/24 Q1013 TEMPO FM2130 5000 RA
TLPL,2023-04-25T21:00:00Z,TLPL 252100Z 17012KT 5000 -RA FEW007 BKN040 26/23 Q1013 TEMPO 5000 RA
TNCA,2023-04-25T21:00:00Z,TNCA 252100Z 08011KT 9999 FEW030 31/23 Q1010 NOSIG
TNCB,2023-04-25T20:55:00Z,TNCB 252055Z 10010KT 050V150 9999 FEW018 30/23 Q1010
TNCC,2023-04-25T21:00:00Z,TNCC 252100Z 08010KT CAVOK 29/23 Q1010 NOSIG
TNCE,2023-04-25T20:55:00Z,TNCE 252055Z AUTO 05007KT 010V080 //// // ///////// 28/22 Q1013 RE//
TNCM,2023-04-25T21:00:00Z,TNCM 252100Z 10003KT 050V160 9999 VCSH BKN016 28/22 Q1014 NOSIG RMK VCSH SE
TQPF,2023-04-25T21:00:00Z,TQPF 252100Z 07006KT 9999 SCT017 26/23 Q1013
TRPG,2023-04-25T21:00:00Z,TRPG 252100Z 00000KT 9999 -SHRA SCT019 27/24 Q1014
TTCP,2023-04-25T21:00:00Z,TTCP 252100Z 06004KT 9999 -RA SCT014 25/24 Q1012
TTPP,2023-04-25T21:00:00Z,TTPP 252100Z 00000KT 9999 VCSH FEW012 26/23 Q1012 NOSIG RMK VCSH-NE/S
TUPJ,2023-04-25T21:00:00Z,TUPJ 252100Z VRB03KT 10SM FEW024 27/20 A2992 RMK Q1013 VIS 16KM
TVSA,2023-04-25T21:00:00Z,TVSA 252100Z 17005KT 8000 -SHRA BKN012 BKN032 25/24 Q1012 NOSIG 
TXKF,2023-04-25T20:55:00Z,TXKF 252055Z 26008KT 9999 -RA FEW013 FEW047 BKN100 OVC130 19/17 Q1018 
UAAA,2023-04-25T21:00:00Z,UAAA 252100Z 21002MPS 190V260 9999 FEW100 07/03 Q1023 NOSIG
UACC,2023-04-25T21:00:00Z,UACC 252100Z 26003MPS CAVOK 09/02 Q1026 NOSIG RMK QFE738/0984
UADD,2023-04-25T21:00:00Z,UADD 252100Z 04004MPS 9999 NSC 12/04 Q1017 NOSIG RMK QFE706/0941
UAII,2023-04-25T21:00:00Z,UAII 252100Z 07005MPS CAVOK 17/04 Q1013 NOSIG RMK QFE724/0966
UAIT,2023-04-25T21:00:00Z,UAIT 252100Z 08015MPS CAVOK 16/00 Q1014 NOSIG RMK QFE736/0981
UAKK,2023-04-25T21:00:00Z,UAKK 252100Z 26001MPS CAVOK 05/M01 Q1027 NOSIG RMK QFE723/0964
UAOO,2023-04-25T21:00:00Z,UAOO 252100Z 09009MPS CAVOK 15/M02 Q1019 NOSIG RMK QFE753/1004
UARR,2023-04-25T21:00:00Z,UARR 252100Z 13006MPS 9999 -SHRA SCT050CB 15/08 Q1013 NOSIG RMK QFE756/1008
UASK,2023-04-25T21:00:00Z,UASK 252100Z 11002MPS 9999 SCT080 01/M05 Q1025 NOSIG RMK QFE743/0991
UASP,2023-04-25T21:00:00Z,UASP 252100Z 20001MPS CAVOK 03/02 Q1022 NOSIG RMK QFE755/1007
UATE,2023-04-25T21:00:00Z,UATE 252100Z 30004MPS 260V340 9999 SCT050CB 14/12 Q1011 NOSIG RMK QFE757/1009
UATG,2023-04-25T21:00:00Z,UATG 252100Z 14005MPS 3600 HZ BKN033CB 21/06 Q1009 NOSIG RMK QFE759/1012
UATT,2023-04-25T21:00:00Z,UATT 252100Z 12006MPS CAVOK 15/02 Q1021 NOSIG RMK QFE746/0994
UAUU,2023-04-25T21:00:00Z,UAUU 252100Z 19002MPS CAVOK 07/01 Q1025 NOSIG RMK QFE753/1004
UBBB,2023-04-25T21:00:00Z,UBBB 252100Z 30006KT 9999 FEW060CB 15/12 Q1014 NOSIG
UBBF,2023-04-25T21:00:00Z,UBBF 252100Z AUTO 30008KT 9999 // ///////// 14/09 Q1013
UBBG,2023-04-25T21:00:00Z,UBBG 252100Z 00000KT 9999 SCT100 15/09 Q1013 NOSIG
UBBL,2023-04-25T21:00:00Z,UBBL 252100Z 15005KT 9999 BKN060 15/15 Q1014 NOSIG RMK MT OP
UBBN,2023-04-25T21:00:00Z,UBBN 252100Z 32006KT 9999 SCT040CB BKN090 15/08 Q1013 NOSIG RMK MT OP QFE685
UBBQ,2023-04-25T21:00:00Z,UBBQ 252100Z 09003KT 9999 NSC 12/10 Q1014 NOSIG RMK MT PT OBSC
UBBY,2023-04-25T21:00:00Z,UBBY 252100Z 13008KT 9999 FEW100 14/08 Q1017 NOSIG RMK MT OP
UBBZ,2023-04-25T20:30:00Z,UBBZ 252030Z AUTO 30004KT 9999 // ///081/// 17/10 Q1015
UCFL,2023-04-25T21:00:00Z,UCFL 252100Z VRB01MPS 9999 SCT026CB BKN100 05/M03 Q1023
UCFM,2023-04-25T21:00:00Z,UCFM 252100Z 06007MPS CAVOK 12/01 Q1019 TEMPO 05008G13MPS
UCFO,2023-04-25T21:00:00Z,UCFO 252100Z VRB01MPS 9999 FEW050CB 16/07 Q1013 NOSIG
UDSG,2023-04-25T21:00:00Z,UDSG 252100Z 15004KT 9999 NSC 06/03 Q1016 NOSIG
UDYZ,2023-04-25T21:00:00Z,UDYZ 252100Z 00000KT 9999 FEW046 14/04 Q1014 NOSIG
UEEE,2023-04-25T21:00:00Z,UEEE 252100Z 09002MPS 9999 SCT040 M05/M05 Q1011 R05/190155 NOSIG RMK QFE749
UERP,2023-04-25T21:00:00Z,UERP 252100Z 01004MPS 8000 -SHSN BKN016CB OVC100 M05/M07 Q1005 R35/490350 NOSIG RMK QFE709
UERR,2023-04-25T21:00:00Z,UERR 252100Z 33002MPS 9999 -SHSN SCT026CB M04/M05 Q1002 R25/590234 NOSIG RMK QFE721/0961
UGAM,2023-04-25T21:00:00Z,UGAM 252100Z AUTO VRB02KT //// ////// 06/05 Q1016
UGKO,2023-04-25T21:00:00Z,UGKO 252100Z 07007KT CAVOK 12/09 Q1012 NOSIG
UGMS,2023-04-25T21:00:00Z,UGMS 252100Z AUTO VRB01KT //// ////// 01/M00 Q1019
UGSB,2023-04-25T21:00:00Z,UGSB 252100Z 14010KT CAVOK 14/08 Q1012 NOSIG
UGTB,2023-04-25T21:00:00Z,UGTB 252100Z 32020KT CAVOK 15/04 Q1014 NOSIG
UHBB,2023-04-25T21:00:00Z,UHBB 252100Z 24002MPS CAVOK M03/M12 Q1009 R36/090060 NOSIG RMK QFE739/0985
UHHH,2023-04-25T21:00:00Z,UHHH 252100Z 25007MPS CAVOK 02/00 Q1005 R88/190050 NOSIG RMK QFE747/0997
UHMA,2023-04-25T21:00:00Z,UHMA 252100Z 33004MPS CAVOK M09/M14 Q1015 R01/70D NOSIG RMK MID 35003MPS END R01/03003MPS QFE757/1010
UHMD,2023-04-25T21:00:00Z,UHMD 252100Z 03009MPS CAVOK M04/M12 Q1009 RMK QFE756/1008
UHMM,2023-04-25T21:00:00Z,UHMM 252100Z 22001MPS 9999 FEW040 03/M04 Q1016 R10/70D NOSIG RMK QFE747 R28/00000MPS
UHPP,2023-04-25T21:00:00Z,UHPP 252100Z VRB01MPS 9999 FEW040 BKN087 04/M04 Q1011 R34L/CLRD65 NOSIG RMK MT OBSC QFE755/1007
UHSS,2023-04-25T21:00:00Z,UHSS 252100Z 00000MPS 9999 SCT040CB 03/01 Q1012 R19/70D NOSIG RMK QFE758/1010
UHWW,2023-04-25T21:00:00Z,UHWW 252100Z 01002MPS 4800 -SHRA SCT011 BKN026CB 05/04 Q1008 R25L/290065 NOSIG RMK QFE755
UIAA,2023-04-25T21:00:00Z,UIAA 252100Z 00000MPS 9999 NSC M08/M11 Q1002 R29/CLRD70 NOSIG RMK QFE693/0925
UIBB,2023-04-25T21:00:00Z,UIBB 252100Z AUTO 29007MPS 9999 // ///023/// M03/M05 Q1011 RMK QFE715/0954
UIII,2023-04-25T21:00:00Z,UIII 252100Z 30010MPS 3300 -SHSN OVC005CB 00/M01 Q1007 R30/CLRD60 NOSIG RMK QBB160 QFE711/0948
UIUU,2023-04-25T21:00:00Z,UIUU 252100Z 27002MPS 9999 NSC M03/M09 Q1002 R26/CLRD60 NOSIG RMK QFE708/0944
ULAA,2023-04-25T21:00:00Z,ULAA 252100Z 09003MPS 9999 SCT026CB 02/M02 Q1016 R08/290060 NOSIG RMK QFE761/1014
ULLI,2023-04-25T21:00:00Z,ULLI 252100Z 15002MPS CAVOK 12/02 Q1006 R10R/090060 NOSIG
ULMM,2023-04-25T21:00:00Z,ULMM 252100Z 17003MPS CAVOK M07/M10 Q1017 R31/090070 NOSIG RMK QFE755
ULOO,2023-04-25T21:00:00Z,ULOO 252100Z 09002MPS CAVOK 07/04 Q1005 R19/090060 NOSIG RMK QFE749
ULPB,2023-04-25T21:00:00Z,ULPB 252100Z AUTO 00000MPS 9999 // NCD 02/01 Q1009 RMK QFE753/1004
UMGG,2023-04-25T21:00:00Z,UMGG 252100Z 14005MPS CAVOK 12/07 Q1006 NOSIG
UMIO,2023-04-25T21:00:00Z,UMIO 252100Z 14002MPS CAVOK 08/05 Q1005 NOSIG RMK QFE736/0982
UMKK,2023-04-25T21:00:00Z,UMKK 252100Z 27003MPS 9999 OVC032 06/02 Q1007 R24/95D NOSIG RMK QFE754/1006
UMMS,2023-04-25T21:00:00Z,UMMS 252100Z VRB01MPS CAVOK 07/05 Q1004 NOSIG
UNAA,2023-04-25T21:00:00Z,UNAA 252100Z 20003MPS CAVOK M03/M07 Q1021 R02/CLRD64 NOSIG RMK QFE743
UNBB,2023-04-25T21:00:00Z,UNBB 252100Z 21003MPS 9000 -SHSNRA BKN017CB 02/01 Q1020 R24/290150 NOSIG RMK QFE743
UNEE,2023-04-25T21:00:00Z,UNEE 252100Z 23004MPS CAVOK M01/M06 Q1017 R23/CLRD60 NOSIG RMK QFE740
UNKL,2023-04-25T21:00:00Z,UNKL 252100Z 24003MPS 9000 -SHSN SCT026CB M03/M06 Q1017 R29/CLRD65 NOSIG RMK QFE737
UNNT,2023-04-25T21:00:00Z,UNNT 252100Z VRB01MPS 9999 OVC026 02/00 Q1019 R25/290160 R16/290160 NOSIG RMK QFE754/1006
UNOO,2023-04-25T21:00:00Z,UNOO 252100Z 25003MPS CAVOK 09/M02 Q1020 R25/CLRD60 NOSIG RMK QFE757
UNTT,2023-04-25T21:00:00Z,UNTT 252100Z 21002MPS CAVOK M01/M06 Q1017 R21/////// NOSIG RMK QFE748
UNWW,2023-04-25T21:00:00Z,UNWW 252100Z 14002MPS 9999 SCT040CB 00/M06 Q1019 R19/220250 NOSIG RMK QFE737
UOOO,2023-04-25T21:00:00Z,UOOO 252100Z 31005MPS 1800 R19/1900N -SHSN BR BKN003 BKN015CB M01/M01 Q1010 R19/19//60 NOSIG RMK QFE741/0989
URKA,2023-04-25T21:00:00Z,URKA 252100Z 15004MPS CAVOK 08/07 Q1012 R22/010070 NOSIG RMK QFE754/1006
URKK,2023-04-25T21:00:00Z,URKK 252100Z 15003MPS CAVOK 09/07 Q1013 R05R/CLRD70 NOSIG RMK QFE757
URMG,2023-04-25T21:00:00Z,URMG 252100Z 14002MPS 080V200 9999 BKN063 14/10 Q1014 R26/090070 NOSIG RMK QFE745/0994
URML,2023-04-25T21:00:00Z,URML 252100Z 24004MPS 9999 NSC 12/09 Q1013 R32/01//70 NOSIG RMK QFE760/1013
URMM,2023-04-25T21:00:00Z,URMM 252100Z 19001MPS 9000 2800SE BR BKN031 09/09 Q1014 R30/290250 NOSIG RMK QFE732/0976
URMN,2023-04-25T21:00:00Z,URMN 252100Z 15001MPS 9999 BKN040 13/10 Q1013 R24/////// NOSIG RMK QFE723
URMO,2023-04-25T21:00:00Z,URMO 252100Z AUTO 12002MPS 9999 // ///////// 06/05 Q1014 RMK QFE717/0956
URMT,2023-04-25T21:00:00Z,URMT 252100Z 00000MPS 9999 SCT044 10/04 Q1014 R25/010070 NOSIG RMK QFE722
URRP,2023-04-25T21:00:00Z,URRP 252100Z 25005MPS 9999 FEW008 SCT045 11/11 Q1011 R23/290057 TEMPO 0300 FG SCT002 SCT020CB RMK QFE750/1001
URSS,2023-04-25T21:00:00Z,URSS 252100Z 04004MPS 9999 NSC 10/08 Q1013 R02/010070 R06/010070 NOSIG RMK R06/33001MPS QFE758
URWA,2023-04-25T21:00:00Z,URWA 252100Z 29002MPS 9000 NSC 12/11 Q1013 R27/190060 NOSIG RMK QFE761/1015
URWI,2023-04-25T21:00:00Z,URWI 252100Z AUTO 29006MPS 9999 // ///////// 09/05 Q1013
URWW,2023-04-25T21:00:00Z,URWW 252100Z 20007MPS 9999 BKN012 11/08 Q1009 R23/010070 TEMPO 1000 BR BKN002
USCC,2023-04-25T21:00:00Z,USCC 252100Z 23001MPS 3700 FU NSC 10/M01 Q1022 R27/000060 TEMPO 2000 FU RMK QFE746
USCM,2023-04-25T21:00:00Z,USCM 252100Z 16004MPS 9999 NSC 10/M00 Q1023 R36/090060 NOSIG RMK QFE729
USDA,2023-04-25T21:00:00Z,USDA 252100Z AUTO 19007MPS 9999 ///032/// ///042/// M06/M07 Q1009 RMK QFE756/1008
USHH,2023-04-25T21:00:00Z,USHH 252100Z 02002MPS CAVOK 02/M04 Q1017 R24/010060 TEMPO 1000 BR BKN003
USNN,2023-04-25T21:00:00Z,USNN 252100Z 15003MPS CAVOK M00/M03 Q1015 R21/0///65 NOSIG RMK QFE756
USPP,2023-04-25T21:00:00Z,USPP 252100Z VRB01MPS CAVOK 10/M00 Q1019 R21/090060 NOSIG RMK QFE753
USRR,2023-04-25T21:00:00Z,USRR 252100Z 34001MPS 7000 1000SW BR FEW001 M05/M05 Q1015 R25/290055 NOSIG RMK QBB040 QFE756
USSS,2023-04-25T21:00:00Z,USSS 252100Z 00000MPS CAVOK 04/00 Q1022 R26R/010060 NOSIG RMK QFE745/0994
USTR,2023-04-25T21:00:00Z,USTR 252100Z 25004MPS CAVOK 12/M02 Q1020 R21/090065 R30/////99 NOSIG
UTAA,2023-04-25T21:00:00Z,UTAA 252100Z 12006KT 080V150 9999 NSC 22/03 Q1008 R88/CLRD70 NOSIG
UTAK,2023-04-25T21:00:00Z,UTAK 252100Z 31010KT CAVOK 14/10 Q1012 R16R/CLRD70 NOSIG
UTAM,2023-04-25T21:00:00Z,UTAM 252100Z 02004KT 6000 NSC 19/05 Q1010 R88/CLRD70 NOSIG
UTAT,2023-04-25T21:00:00Z,UTAT 252100Z 10010KT CAVOK 17/00 Q1013 R08/CLRD70 NOSIG
UTAV,2023-04-25T21:00:00Z,UTAV 252100Z 36006KT CAVOK 19/03 Q1010 R31/CLRD70 NOSIG
UTDD,2023-04-25T21:00:00Z,UTDD 252100Z VRB01MPS 9999 FEW110 18/08 Q1012 R09/D NOSIG RMK QFE691/0921
UTDK,2023-04-25T21:00:00Z,UTDK 252100Z 02006MPS 9999 NSC 19/10 Q1011 R01/09//70 RMK QFE701/0935
UTDL,2023-04-25T21:00:00Z,UTDL 252100Z 25004MPS 9999 NSC 17/07 Q1012 R26/CLRD70 NOSIG RMK QFE721/0962
UTDT,2023-04-25T21:00:00Z,UTDT 252100Z VRB01MPS 9999 SCT100 18/11 Q1008 R35/CLRD70 RMK QFE717/0956
UTFF,2023-04-25T21:00:00Z,UTFF 252100Z 15006KT 9999 NSC 18/08 Q1012 R18/CLRD70
UTFN,2023-04-25T21:00:00Z,UTFN 252100Z 34006KT 9999 NSC 19/03 Q1011 R28/CLRD70 NOSIG
UTNN,2023-04-25T21:00:00Z,UTNN 252100Z 05008KT CAVOK 18/M06 Q1014 R33/CLRD60 NOSIG
UTNU,2023-04-25T21:00:00Z,UTNU 252100Z 07006KT CAVOK 15/01 Q1013 R31/CLRD70 NOSIG
UTO8,2023-04-25T21:21:00Z,UTO8 M M M 159/05/-08/2707+16/M/ PK WND 2721 2008Z SOG 16 1005 64MM
UTSA,2023-04-25T21:00:00Z,UTSA 252100Z 03008KT 9999 NSC 16/03 Q1011 R07/CLRD70 NOSIG
UTSB,2023-04-25T21:00:00Z,UTSB 252100Z 36006KT CAVOK 18/05 Q1010 R01/CLRD70 NOSIG
UTSK,2023-04-25T21:00:00Z,UTSK 252100Z 04002KT CAVOK 18/08 Q1008 R16/CLRD70
UTSS,2023-04-25T21:00:00Z,UTSS 252100Z 12014KT 9999 NSC 16/05 Q1012 R09/CLRD70 NOSIG
UTST,2023-04-25T21:00:00Z,UTST 252100Z 09002KT CAVOK 19/08 Q1008 R25/CLRD70 NOSIG
UTTT,2023-04-25T21:00:00Z,UTTT 252100Z 06008KT CAVOK 17/08 Q1012 R08R/CLRD70 NOSIG
UUBC,2023-04-25T21:00:00Z,UUBC 252100Z VRB01MPS 9999 -SHRA BKN058CB 11/09 Q1005 R13/CLRD60 NOSIG RMK QFE736/0981
UUBP,2023-04-25T21:00:00Z,UUBP 252100Z AUTO 09002MPS 9999 NCD 11/04 Q1006 NOSIG RMK QFE737/0983
UUBW,2023-04-25T21:00:00Z,UUBW 252100Z 01002MPS 9999 -RA OVC016 11/10 Q1005 R30/290050 NOSIG
UUDD,2023-04-25T21:00:00Z,UUDD 252100Z 36003MPS 9999 -RA SCT019 11/08 Q1005 R14R/290042 NOSIG
UUDL,2023-04-25T21:00:00Z,UUDL 252100Z 08003MPS 9999 -RA NSC 11/10 Q1009 R23/010060 NOSIG RMK QFE748
UUEE,2023-04-25T21:00:00Z,UUEE 252100Z 07003MPS CAVOK 13/06 Q1006 R06R/CLRD62 R06C/CLRD62 NOSIG
UUMO,2023-04-25T21:00:00Z,UUMO 252100Z 34001MPS 9000 -RA NSC 10/09 Q1005 R07/290050 NOSIG RMK QFE739/0986
UUOB,2023-04-25T21:00:00Z,UUOB 252100Z 28002MPS 9000 NSC 09/07 Q1007 R29/010070 NOSIG
UUOK,2023-04-25T21:00:00Z,UUOK 252100Z AUTO 23002MPS 9999 // 07/05 Q1006 RMK QFE737/0983
UUOL,2023-04-25T21:00:00Z,UUOL 252100Z AUTO 33002MPS 4500 -RA ///006 10/10 Q1002
UUOO,2023-04-25T21:00:00Z,UUOO 252100Z 26003MPS 8000 -DZ OVC005 10/10 Q1003 R30/290150 NOSIG RMK QFE739
UUWW,2023-04-25T21:00:00Z,UUWW 252100Z VRB01MPS CAVOK 11/08 Q1005 R06/290050 NOSIG
UUYY,2023-04-25T21:00:00Z,UUYY 252100Z 02003MPS CAVOK 08/03 Q1015 R36/61D NOSIG RMK QFE752/1003
UWGG,2023-04-25T21:00:00Z,UWGG 252100Z 12004MPS 090V160 8000 -RA OVC010 12/12 Q1008 R18L/290050 NOSIG
UWKD,2023-04-25T21:00:00Z,UWKD 252100Z 07005MPS 9000 -RA NSC 12/10 Q1014 R11/2/0050 NOSIG RMK QFE751/1001
UWKE,2023-04-25T21:00:00Z,UWKE 252100Z 10003MPS CAVOK 14/05 Q1016 R03/190060 NOSIG RMK QFE746/0994
UWKS,2023-04-25T21:00:00Z,UWKS 252100Z 11006MPS 4200 -SHRA OVC009CB 11/11 Q1013 R06/290257 NOSIG RMK QFE745
UWLL,2023-04-25T21:00:00Z,UWLL 252100Z 11006MPS 9999 -RA OVC005 11/11 Q1012 R20/290250 NOSIG RMK QFE749/0998
UWLW,2023-04-25T21:00:00Z,UWLW 252100Z 10004MPS 9999 -RA OVC049 12/11 Q1013 R02/290250 NOSIG RMK QFE753/1004
UWOO,2023-04-25T21:00:00Z,UWOO 252100Z 13005MPS CAVOK 15/03 Q1020 R08/CLRD60 NOSIG RMK QFE754/1006
UWOR,2023-04-25T21:00:00Z,UWOR 252100Z 17003MPS CAVOK 08/05 Q1023 R25/CLRD60 NOSIG RMK QFE744/0992
UWPS,2023-04-25T21:00:00Z,UWPS 252100Z 14007MPS 7000 -RA BKN015 12/11 Q1007 R20/290555 NOSIG RMK QFE737
UWSG,2023-04-25T21:00:00Z,UWSG 252100Z 16005MPS 8000 OVC006 12/11 Q1008 R08/290160 NOSIG RMK QFE753/1005
UWUU,2023-04-25T21:00:00Z,UWUU 252100Z 11003MPS CAVOK 12/01 Q1020 R14R/0///60 NOSIG
UWWW,2023-04-25T21:00:00Z,UWWW 252100Z 10003MPS 9999 -SHRA SCT033CB 12/10 Q1014 R15/290050 NOSIG RMK QFE749/0999
VAAH,2023-04-25T21:00:00Z,VAAH 252100Z 00000KT 4000 FU FEW080 27/15 Q1005 NOSIG
VAAU,2023-04-25T21:00:00Z,VAAU 252100Z 00000KT 6000 SCT020 25/18 Q1009 NOSIG
VABB,2023-04-25T21:00:00Z,VABB 252100Z 19005KT 3500 BR SCT020 28/25 Q1007 NOSIG
VABP,2023-04-25T21:00:00Z,VABP 252100Z 02004KT 6000 FEW100 25/07 Q1010 NOSIG
VANP,2023-04-25T21:00:00Z,VANP 252100Z 14007KT 3000 HZ SCT020 BKN100 25/20 Q1011 NOSIG
VCBI,2023-04-25T21:10:00Z,VCBI 252110Z VRB01KT 9999 FEW016 SCT030 24/24 Q1007 NOSIG
VCRI,2023-04-25T21:10:00Z,VCRI 252110Z VRB02KT 9999 SCT018 FEW020CB 25/25 Q1007 NOSIG
VDPP,2023-04-25T21:00:00Z,VDPP 252100Z 27005KT 240V320 9000 SCT015 BKN040 26/23 Q1007
VDSR,2023-04-25T21:00:00Z,VDSR 252100Z 12012KT 9000 SCT015 FEW017CB SCT040 27/24 Q1008 RMK CB:NE
VDSV,2023-04-25T21:00:00Z,VDSV 252100Z 06004KT 8000 -RA SCT015 FEW017CB SCT040 24/23 Q1008 RMK CB:S/SW
VEBN,2023-04-25T20:30:00Z,VEBN 252030Z 00000KT 2000 BR FEW100 23/21 Q1008 NOSIG
VEBS,2023-04-25T21:00:00Z,VEBS 252100Z 21005KT 3500 HZ SCT018 BKN100 25/25 Q1009 NOSIG
VECC,2023-04-25T21:00:00Z,VECC 252100Z 25003KT 3200 HZ FEW020 SCT100 28/24 Q1007 NOSIG
VEGY,2023-04-25T21:00:00Z,VEGY 252100Z 00000KT 3500 BR FEW100 23/19 Q1008
VEPT,2023-04-25T21:00:00Z,VEPT 252100Z 09002KT 3000 HZ FEW018 SCT100 26/19 Q1008 NOSIG
VERC,2023-04-25T21:00:00Z,VERC 252100Z 23005KT 3000 BR SCT020 SCT100 22/19 Q1012 NOSIG
VGHS,2023-04-25T21:00:00Z,VGHS 252100Z 29003KT 3500 HZ SCT100 28/22 Q1008 NOSIG
VHHH,2023-04-25T21:00:00Z,VHHH 252100Z 35010KT 9999 FEW015 SCT035 19/15 Q1014 NOSIG
VIAR,2023-04-25T21:00:00Z,VIAR 252100Z 00000KT 4000 HZ FEW100 23/13 Q1008 NOSIG
VIDP,2023-04-25T21:00:00Z,VIDP 252100Z 00000KT 2500 HZ FEW100 25/12 Q1009 NOSIG
VIJP,2023-04-25T21:00:00Z,VIJP 252100Z 07006KT 4000 HZ FEW100 26/10 Q1010 NOSIG
VILK,2023-04-25T21:00:00Z,VILK 252100Z VRB02KT 4000 HZ FEW100 22/19 Q1008 NOSIG
VIUT,2023-04-25T20:30:00Z,VIUT 252030Z VRB01KT 6000 FEW100 BKN250 26/03 Q1007 NOSIG
VMMC,2023-04-25T21:00:00Z,VMMC 252100Z 34015KT 9999 FEW018 SCT033 18/14 Q1014 NOSIG
VNKT,2023-04-25T21:00:00Z,VNKT 252100Z VRB02KT 7000 FEW015 12/10 Q1018 NOSIG
VOBL,2023-04-25T21:00:00Z,VOBL 252100Z 14006KT 6000 FEW015 24/20 Q1013 NOSIG
VOCB,2023-04-25T21:00:00Z,VOCB 252100Z 18004KT 4000 BR FEW012 SCT080 24/23 Q1010 NOSIG
VOCI,2023-04-25T21:00:00Z,VOCI 252100Z 00000KT 3500 BR SCT015 SCT080 26/25 Q1008 NOSIG
VOCL,2023-04-25T21:00:00Z,VOCL 252100Z 05002KT 5000 BR FEW015 SCT080 24/22 Q1008 NOSIG
VOHS,2023-04-25T21:00:00Z,VOHS 252100Z 09013KT 3000 TSRA SCT015 FEW030CB BKN080 21/19 Q1013 NOSIG
VOKN,2023-04-25T21:00:00Z,VOKN 252100Z 12005KT 4000 BR FEW012 SCT080 27/24 Q1008 NOSIG
VOMD,2023-04-25T21:00:00Z,VOMD 252100Z 00000KT 5000 HZ SCT0020 26/23 Q1008 NOSIG
VOML,2023-04-25T21:00:00Z,VOML 252100Z 05004KT 6000 SCT015 26/23 Q1008 NOSIG
VOMM,2023-04-25T21:00:00Z,VOMM 252100Z 10003KT 6000 SCT020 SCT100 30/27 Q1008 NOSIG
VOTR,2023-04-25T21:00:00Z,VOTR 252100Z VRB02KT 3000 BR FEW016 SCT100 27/25 Q1008 NOSIG
VOTV,2023-04-25T21:00:00Z,VOTV 252100Z 09004KT 3000 BR FEW015 SCT080 29/24 Q1007 NOSIG
VRMG,2023-04-25T21:00:00Z,"VRMG 252100Z 26015KT 9000 TS SCT017 FEW018CB BKN250 28/25 Q1008 RETS CB SW,W,NW TEMPO 4000 TSRA"
VRMH,2023-04-25T21:00:00Z,VRMH 252100Z 33005KT 9999 FEW018 29/25 Q1008
VRMM,2023-04-25T21:00:00Z,"VRMM 252100Z 32007KT 9999 TS FEW017 FEW018CB BKN280 30/26 Q1008 RETS CB ENE,W TEMPO 4000 TSRA"
VTBD,2023-04-25T21:00:00Z,VTBD 252100Z 03003KT 010V180 9000 FEW020 SCT030 25/24 Q1007 NOSIG
VTBS,2023-04-25T21:00:00Z,VTBS 252100Z 00000KT 9999 FEW020 26/23 Q1007 NOSIG
VTBU,2023-04-25T21:00:00Z,VTBU 252100Z 01004KT 6000 FEW020 27/25 Q1007 NOSIG
VTCC,2023-04-25T21:00:00Z,VTCC 252100Z 22002KT 9000 FEW035 27/19 Q1007 NOSIG
VTCT,2023-04-25T21:00:00Z,VTCT 252100Z 29005KT 9000 -TSRA FEW018CB SCT045 28/18 Q1008 NOSIG
VTSG,2023-04-25T21:00:00Z,VTSG 252100Z VRB01KT 5000 BR FEW030 25/24 Q1007 NOSIG
VTSP,2023-04-25T21:00:00Z,VTSP 252100Z VRB01KT 9999 FEW020 25/24 Q1006 NOSIG
VTSS,2023-04-25T21:00:00Z,VTSS 252100Z 00000KT 9999 FEW020 24/23 Q1006 NOSIG
VTUK,2023-04-25T21:00:00Z,VTUK 252100Z VRB01KT 9000 NSC 27/22 Q1009 NOSIG
VTUU,2023-04-25T21:00:00Z,VTUU 252100Z 06005KT 9000 NSC 27/22 Q1008 NOSIG
VVCI,2023-04-25T21:00:00Z,VVCI 252100Z 30005KT 9999 FEW032 20/18 Q1014 NOSIG
VVCR,2023-04-25T21:00:00Z,VVCR 252100Z 36005KT 9999 FEW015 27/22 Q1010 NOSIG
VVCT,2023-04-25T21:00:00Z,VVCT 252100Z 09005KT 9999 FEW015 27/25 Q1008 NOSIG
VVDN,2023-04-25T21:00:00Z,VVDN 252100Z 23002KT 8000 SCT015 SCT050 27/24 Q1011 NOSIG
VVNB,2023-04-25T21:00:00Z,VVNB 252100Z 29003KT 6000 NSC 20/19 Q1014 NOSIG
VVPB,2023-04-25T21:00:00Z,VVPB 252100Z 36004KT 8000 SCT013 SCT040 26/25 Q1011 NOSIG
VVPQ,2023-04-25T21:00:00Z,VVPQ 252100Z VRB03KT 9000 SCT015 24/23 Q1008 NOSIG
VVTS,2023-04-25T21:00:00Z,VVTS 252100Z 13007KT 9999 FEW020 29/25 Q1008 NOSIG
VVVD,2023-04-25T21:00:00Z,VVVD 252100Z AUTO 10001KT 9999 BKN072/// 20/19 Q1014 NOSIG
VYYY,2023-04-25T21:00:00Z,VYYY 252100Z 25009KT 6000 FEW020 28/27 Q1005 NOSIG
WAAA,2023-04-25T21:00:00Z,WAAA 252100Z 13002KT 8000 FEW019 24/21 Q1007 NOSIG
WABB,2023-04-25T21:00:00Z,WABB 252100Z 10006KT 170V100 9999 SCT018 26/25 Q1009 NOSIG
WADD,2023-04-25T21:00:00Z,WADD 252100Z 06006KT 9000 -RA FEW014CB BKN015 26/25 Q1008 RETS TEMPO TL2200 9000 -RA
WADL,2023-04-25T21:00:00Z,WADL 252100Z 08002KT 8000 SCT016 25/24 Q1009 NOSIG
WAHS,2023-04-25T21:00:00Z,WAHS 252100Z 00000KT 6000 SCT014 26/25 Q1007 NOSIG
WAJJ,2023-04-25T21:00:00Z,WAJJ 252100Z 14002KT 9999 FEW010 26/23 Q1009 NOSIG
WALL,2023-04-25T21:00:00Z,WALL 252100Z 00000KT 9000 FEW020 24/24 Q1007 NOSIG
WAMM,2023-04-25T21:00:00Z,WAMM 252100Z VRB01KT 9999 SCT020 24/23 Q1008 NOSIG METAR 
WAOO,2023-04-25T21:00:00Z,WAOO 252100Z AUTO 10003KT 9999 FEW060 FEW230 25/25 Q1006
WAPP,2023-04-25T21:00:00Z,WAPP 252100Z 36005KT 9999 FEW017 25/24 Q1007 NOSIG
WAQQ,2023-04-25T21:00:00Z,WAQQ 252100Z 01003KT 8000 FEW015CB BKN015 26/25 Q1007 RESHRA
WARR,2023-04-25T21:00:00Z,WARR 252100Z 11006KT 7000 FEW020 28/25 Q1007 NOSIG
WATT,2023-04-25T21:00:00Z,WATT 252100Z 13005KT 7000 -RA SCT017 BKN070 25/25 Q1008 NOSIG
WAYY,2023-04-25T21:00:00Z,WAYY 252100Z 34002KT 6000 -RA SCT015 24/24 Q1009 NOSIG
WBGB,2023-04-25T21:00:00Z,WBGB 252100Z VRB01KT 9999 FEW016 25/25 Q1007
WBGG,2023-04-25T21:00:00Z,WBGG 252100Z VRB02KT 9999 FEW020 25/23 Q1007 NOSIG
WBGR,2023-04-25T21:00:00Z,WBGR 252100Z VRB02KT 9999 SCT016 25/24 Q1006
WBGS,2023-04-25T21:00:00Z,WBGS 252100Z VRB02KT 9999 FEW008 SCT018 25/24 Q1007
WBGY,2023-04-25T21:00:00Z,WBGY 252100Z AUTO 00000KT //// // ////// 25/25 Q1007
WBKK,2023-04-25T21:00:00Z,WBKK 252100Z 11004KT 9999 FEW015 25/24 Q1006 NOSIG
WBKL,2023-04-25T21:00:00Z,WBKL 252100Z 00000KT 9999 FEW013 26/25 Q1006
WBKS,2023-04-25T21:00:00Z,WBKS 252100Z VRB02KT 9999 FEW015 27/25 Q1007
WBKT,2023-04-25T21:00:00Z,WBKT 252100Z 13004KT 080V210 9999 FEW015 28/26 Q1007
WBKW,2023-04-25T21:00:00Z,WBKW 252100Z VRB01KT 9999 FEW017 24/23 Q1007
WBSB,2023-04-25T21:00:00Z,WBSB 252100Z 19002KT 9999 FEW005 FEW015CB BKN300 26/26 Q1007 NOSIG
WIBB,2023-04-25T21:00:00Z,WIBB 252100Z AUTO 22001KT 9999 FEW017 25/25 Q1005
WIDD,2023-04-25T21:00:00Z,WIDD 252100Z 28001KT 9999 FEW014 26/25 Q1008 NOSIG
WIEE,2023-04-25T21:00:00Z,WIEE 252100Z AUTO VRB01KT 9999 BKN050 BKN250 OVC280 25/24 Q1006 NOSIG
WIII,2023-04-25T21:00:00Z,WIII 252100Z 20004KT 5000 HZ FEW020 26/25 Q1007 NOSIG
WIMM,2023-04-25T21:00:00Z,WIMM 252100Z 19003KT 5000 HZ SCT018 26/25 Q1007 NOSIG
WIOO,2023-04-25T21:00:00Z,WIOO 252100Z AUTO 06001KT 9999 FEW019 25/24 Q1006
WIPP,2023-04-25T21:00:00Z,WIPP 252100Z 20003KT 5000 HZ SCT010 26/25 Q1007 NOSIG
WMAU,2023-04-25T21:00:00Z,WMAU 252100Z 23005KT 6000 FEW002 SCT025 25/24 Q1007
WMBA,2023-04-25T21:00:00Z,WMBA 252100Z 00000KT 8000 FEW031 25/24 Q1006
WMKB,2023-04-25T21:00:00Z,WMKB 252100Z VRB02KT 7000 FEW024 25/24 Q1006 NOSIG
WMKC,2023-04-25T21:00:00Z,WMKC 252100Z VRB02KT 9999 FEW017CB 27/25 Q1007
WMKD,2023-04-25T21:00:00Z,WMKD 252100Z 00000KT 9999 FEW025 26/25 Q1007 NOSIG
WMKE,2023-04-25T21:00:00Z,WMKE 252100Z AUTO 00000KT //// // ////// 26/25 Q1007
WMKI,2023-04-25T21:00:00Z,WMKI 252100Z VRB02KT 8000 FEW026 25/24 Q1007
WMKJ,2023-04-25T21:00:00Z,WMKJ 252100Z VRB02KT 3000 BR FEW003 25/24 Q1006
WMKK,2023-04-25T21:00:00Z,WMKK 252100Z VRB01KT 9000 FEW010 25/24 Q1007 NOSIG
WMKL,2023-04-25T21:00:00Z,WMKL 252100Z VRB02KT 9999 FEW025 27/25 Q1006
WMKM,2023-04-25T21:00:00Z,WMKM 252100Z VRB01KT 8000 FEW008 24/24 Q1007
WMKN,2023-04-25T21:00:00Z,WMKN 252100Z VRB02KT 9999 FEW022 26/25 Q1007
WMKP,2023-04-25T21:00:00Z,WMKP 252100Z 00000KT 8000 FEW025 27/26 Q1006 NOSIG
WMSA,2023-04-25T21:00:00Z,WMSA 252100Z VRB02KT 7000 FEW005 25/24 Q1007
WSAP,2023-04-25T21:00:00Z,WSAP 252100Z 02003KT 9999 FEW016 BKN300 27/24 Q1007
WSSL,2023-04-25T21:00:00Z,WSSL 252100Z VRB02KT 9999 FEW018 BKN300 26/25 Q1006
WSSS,2023-04-25T21:00:00Z,WSSS 252100Z 34003KT 300V360 7000 FEW018 BKN300 26/25 Q1006 NOSIG
YAMB,2023-04-25T21:00:00Z,YAMB 252100Z 31004KT 9999 FEW020 BKN060 15/14 Q1023 RF00.0/000.6
YBAS,2023-04-25T21:00:00Z,YBAS 252100Z AUTO /////KT 9999 // NCD 14/09 Q1016 RF00.0/000.0
YBBN,2023-04-25T21:00:00Z,YBBN 252100Z 22009KT 9999 VCSH FEW008 BKN058 17/16 Q1023 RF00/0/001/4
YBCG,2023-04-25T21:00:00Z,YBCG 252100Z AUTO 20008KT 9999 // BKN036 BKN046 BKN058 18/16 Q1024
YBCS,2023-04-25T21:00:00Z,YBCS 252100Z AUTO 17008KT 9999 // SCT033 BKN041 OVC048 23/21 Q1014
YBHM,2023-04-25T21:22:00Z,YBHM 252122Z AUTO 15021KT 9999 -SHRA BKN010 BKN041 BKN052 21/20 Q1017
YBLN,2023-04-25T21:00:00Z,YBLN 252100Z AUTO 25008KT 9999 // SCT057 14/10 Q1011 RF00.0/018.2
YBMA,2023-04-25T21:00:00Z,YBMA 252100Z AUTO 09006KT 9999 // SCT087 18/12 Q1016 RF00.0/000.0
YBRK,2023-04-25T21:00:00Z,YBRK 252100Z AUTO 13008KT 9999 // NCD 19/13 Q1019 RF00.0/000.0
YBRM,2023-04-25T21:09:00Z,YBRM 252109Z AUTO 00000KT 9999 // NCD 19/19 Q1010 RF00/0/000/0
YBSU,2023-04-25T21:00:00Z,YBSU 252100Z AUTO 19013KT 9999 -SHRA SCT023 BKN032 BKN041 18/16 Q1022
YBTL,2023-04-25T21:00:00Z,YBTL 252100Z AUTO 20007KT 9999 // NCD 22/18 Q1016 RF00.0/000.0
YBWW,2023-04-25T21:00:00Z,YBWW 252100Z AUTO 14005KT 9999 // SCT018 BKN039 11/10 Q1024
YCFS,2023-04-25T21:00:00Z,YCFS 252100Z AUTO 24009KT 9999 // OVC063 17/15 Q1026 RF00.0/002.0
YCIN,2023-04-25T21:00:00Z,YCIN 252100Z AUTO 16005KT 9999 // NCD 20/18 Q1010 RF00.0/000.0
YFRT,2023-04-25T21:00:00Z,YFRT 252100Z AUTO 35013KT 9999 -RA OVC096 16/15 Q1009 RF00.2/003.4
YGEL,2023-04-25T21:00:00Z,YGEL 252100Z AUTO 20007KT 9999 // BKN052 16/10 Q1016 RF00.0/001.2
YGLA,2023-04-25T21:00:00Z,YGLA 252100Z AUTO 15009KT 9999 // NCD 20/14 Q1019 RF00.0/000.0
YHID,2023-04-25T21:00:00Z,YHID 252100Z AUTO 13011KT 9999 // BKN016 BKN025 OVC032 28/25 Q1009
YMAV,2023-04-25T21:00:00Z,YMAV 252100Z AUTO 00000KT 9999 // NCD 07/07 Q1024 RF00.0/000.0
YMHB,2023-04-25T21:00:00Z,YMHB 252100Z 34009KT CAVOK 14/06 Q1023
YMLT,2023-04-25T21:00:00Z,YMLT 252100Z AUTO 18004KT 0100 FG OVC001 07/06 Q1025 RF00.2/000.4
YMML,2023-04-25T21:00:00Z,YMML 252100Z 01010KT CAVOK 13/10 Q1025
YPAD,2023-04-25T21:00:00Z,YPAD 252100Z 03015KT CAVOK 22/09 Q1018
YPCC,2023-04-25T21:00:00Z,YPCC 252100Z AUTO 14015KT 9999 // BKN025 BKN033 OVC040 26/23 Q1009
YPDN,2023-04-25T21:00:00Z,YPDN 252100Z 10005KT 9999 FEW013 25/23 Q1009
YPEA,2023-04-25T21:00:00Z,YPEA 252100Z AUTO 06004KT 9999 -SHRA BKN034 BKN058 BKN100 14/12 Q1013
YPGV,2023-04-25T21:00:00Z,YPGV 252100Z AUTO 14005KT 9999 // SCT070 SCT100 OVC120 24/23 Q1010
YPJT,2023-04-25T21:00:00Z,YPJT 252100Z AUTO 15005KT 9999 // SCT037 SCT043 BKN049 13/11 Q1013
YPKG,2023-04-25T21:00:00Z,YPKG 252100Z AUTO 31008KT 9999 // NCD 10/06 Q1011 RF00.0/003.4
YPKU,2023-04-25T21:00:00Z,YPKU 252100Z AUTO 00000KT 9999 // ////// 22/20 Q1010 RF00.0////./
YPLM,2023-04-25T21:00:00Z,YPLM 252100Z AUTO 21009KT 9999 // NCD 14/08 Q1015 RF00.0/000.0
YPPD,2023-04-25T21:00:00Z,YPPD 252100Z AUTO 00000KT 9999 // SCT110 25/25 Q1011 RF00.0/000.0
YPPH,2023-04-25T20:30:00Z,YPPH 252030Z 08005KT 9999 FEW018 13/12 Q1012
YPTN,2023-04-25T21:00:00Z,YPTN 252100Z AUTO 13004KT 9999 // NCD 24/22 Q1011 RF00.0/000.0
YPWR,2023-04-25T21:00:00Z,YPWR 252100Z AUTO 04011KT 9999 // NCD 19/07 Q1017 RF00.0/000.0
YSCB,2023-04-25T21:00:00Z,YSCB 252100Z AUTO 36001KT 9999 // BKN025 05/05 Q1029 RF00.0/000.0
YSDU,2023-04-25T21:00:00Z,YSDU 252100Z AUTO 14008KT 9999 // NCD 10/09 Q1027 RF00.0/000.0
YSNF,2023-04-25T21:00:00Z,YSNF 252100Z AUTO 11010KT 9999 // BKN045 OVC053 19/12 Q1023
YSRI,2023-04-25T21:00:00Z,YSRI 252100Z AUTO 00000KT 0200 // OVC002 12/12 Q1028 RF00.0/000.2
YSSY,2023-04-25T21:00:00Z,YSSY 252100Z 30005KT 9999 FEW030 15/13 Q1028 HZ
YSTW,2023-04-25T21:00:00Z,YSTW 252100Z AUTO 14006KT 9999 // NCD 10/08 Q1027 RF00.0/000.0
YWLM,2023-04-25T21:00:00Z,YWLM 252100Z 31005KT 9999 SCT030 11/11 Q1027
ZBAA,2023-04-25T21:00:00Z,ZBAA 252100Z 00000MPS CAVOK 00/M04 Q1017 NOSIG
ZBAD,2023-04-25T21:00:00Z,ZBAD 252100Z 24003MPS CAVOK M00/M05 Q1017 NOSIG
ZBHH,2023-04-25T21:00:00Z,ZBHH 252100Z 07002MPS CAVOK M00/M10 Q1013 NOSIG
ZBSJ,2023-04-25T21:00:00Z,ZBSJ 252100Z 31002MPS CAVOK 04/01 Q1018 NOSIG
ZBTJ,2023-04-25T21:00:00Z,ZBTJ 252100Z 22001MPS CAVOK 06/05 Q1017 NOSIG
ZBYN,2023-04-25T21:00:00Z,ZBYN 252100Z VRB01MPS CAVOK 02/M02 Q1016 NOSIG
ZGGG,2023-04-25T21:00:00Z,ZGGG 252100Z 32004MPS 9999 FEW030 15/13 Q1016 NOSIG
ZGHA,2023-04-25T21:00:00Z,ZGHA 252100Z 07001MPS 0900 R18R/0500N R18L/0450N FG NSC 09/08 Q1019 BECMG TL2140 0400
ZGKL,2023-04-25T21:00:00Z,ZGKL 252100Z 02002MPS CAVOK 11/11 Q1017 NOSIG
ZGNN,2023-04-25T21:00:00Z,ZGNN 252100Z 00000MPS CAVOK 18/15 Q1015 NOSIG
ZGOW,2023-04-25T21:00:00Z,ZGOW 252100Z 01004MPS 9999 OVC040 18/14 Q1014 NOSIG
ZGSZ,2023-04-25T21:00:00Z,ZGSZ 252100Z 36006MPS 9999 FEW020 BKN050 18/14 Q1014 NOSIG
ZHCC,2023-04-25T21:00:00Z,ZHCC 252100Z 28001MPS CAVOK 08/07 Q1016 NOSIG
ZHHH,2023-04-25T21:00:00Z,ZHHH 252100Z VRB01MPS CAVOK 11/10 Q1018 NOSIG
ZJHK,2023-04-25T21:00:00Z,ZJHK 252100Z 05005MPS 9999 BKN014 BKN023 22/19 Q1013 NOSIG
ZJSY,2023-04-25T21:00:00Z,ZJSY 252100Z VRB01MPS 9999 BKN050 25/23 Q1011 NOSIG
ZLLL,2023-04-25T21:00:00Z,ZLLL 252100Z 32004MPS CAVOK 04/M02 Q1014 NOSIG
ZLXY,2023-04-25T21:00:00Z,ZLXY 252100Z 24002MPS 6000 NSC 09/09 Q1014 NOSIG
ZMCK,2023-04-25T21:00:00Z,ZMCK 252100Z 07005MPS 9999 SCT100 02/M12 Q1001 NOSIG RMK QFE636.9 36 NT
ZMUB,2023-04-25T21:00:00Z,ZMUB 252100Z VRB01MPS 9999 SCT100 M04/M10 Q1001 NOSIG RMK QFE645.1 62 NT
ZPPP,2023-04-25T21:00:00Z,ZPPP 252100Z 36004MPS 9999 SCT030 11/07 Q1021 NOSIG
ZSAM,2023-04-25T21:00:00Z,ZSAM 252100Z 08004MPS 4000 -RA BR BKN006 OVC017 17/17 Q1014 BECMG TL2250 BKN010 OVC020
ZSFZ,2023-04-25T21:00:00Z,ZSFZ 252100Z 01003MPS 7000 SCT010 OVC023 16/15 Q1016 NOSIG
ZSHC,2023-04-25T21:00:00Z,ZSHC 252100Z 21001MPS CAVOK 13/11 Q1018 NOSIG
ZSNB,2023-04-25T21:00:00Z,ZSNB 252100Z 29002MPS 260V330 6000 NSC 14/10 Q1018 NOSIG
ZSNJ,2023-04-25T21:00:00Z,ZSNJ 252100Z 29001MPS 2500 BR FEW033 09/09 Q1018 BECMG TL2250 3000
ZSOF,2023-04-25T21:00:00Z,ZSOF 252100Z 16003MPS 4000 BR NSC 09/08 Q1017 BECMG TL2230 2500
ZSPD,2023-04-25T21:00:00Z,ZSPD 252100Z 30003MPS 240V320 CAVOK 15/10 Q1017 NOSIG
ZSQD,2023-04-25T21:00:00Z,ZSQD 252100Z 34002MPS CAVOK 07/04 Q1017 NOSIG
ZSSS,2023-04-25T21:00:00Z,ZSSS 252100Z 32003MPS 290V350 CAVOK 15/10 Q1018 NOSIG
ZUCK,2023-04-25T21:00:00Z,ZUCK 252100Z 35003MPS CAVOK 15/11 Q1017 NOSIG
ZUGY,2023-04-25T21:00:00Z,ZUGY 252100Z 02002MPS 9999 BKN043 08/07 Q1019 NOSIG
ZUTF,2023-04-25T21:00:00Z,ZUTF 252100Z 13002MPS CAVOK 16/11 Q1015 NOSIG
ZUUU,2023-04-25T21:00:00Z,ZUUU 252100Z VRB01MPS CAVOK 17/11 Q1015 NOSIG
ZWSH,2023-04-25T21:00:00Z,ZWSH 252100Z VRB02MPS 9999 BKN040 FEW040CB 18/M07 Q1013 NOSIG
ZWWW,2023-04-25T21:00:00Z,ZWWW 252100Z 24002MPS CAVOK 11/05 Q1023 NOSIG
ZYCC,2023-04-25T21:00:00Z,ZYCC 252100Z VRB01MPS 3000 BR SCT007 BKN030 M01/M02 Q1013 NOSIG
ZYHB,2023-04-25T21:00:00Z,ZYHB 252100Z 19001MPS 6000 NSC M05/M05 Q1012 NOSIG
ZYTL,2023-04-25T21:00:00Z,ZYTL 252100Z 32003MPS 280V010 CAVOK 06/01 Q1016 NOSIG
ZYTX,2023-04-25T21:00:00Z,ZYTX 252100Z 35003MPS 320V020 9999 BKN020 03/M00 Q1015 NOSIG
