No errors
No warnings
396 ms
data source=metars
4978 results
raw_text,station_id,observation_time,latitude,longitude,temp_c,dewpoint_c,wind_dir_degrees,wind_speed_kt,wind_gust_kt,visibility_statute_mi,altim_in_hg,sea_level_pressure_mb,corrected,auto,auto_station,maintenance_indicator_on,no_signal,lightning_sensor_off,freezing_rain_sensor_off,present_weather_sensor_off,wx_string,sky_cover,cloud_base_ft_agl,sky_cover,cloud_base_ft_agl,sky_cover,cloud_base_ft_agl,sky_cover,cloud_base_ft_agl,flight_category,three_hr_pressure_tendency_mb,maxT_c,minT_c,maxT24hr_c,minT24hr_c,precip_in,pcp3hr_in,pcp6hr_in,pcp24hr_in,snow_in,vert_vis_ft,metar_type,elevation_m
CYIV 241937Z AUTO 07012G23KT 010V090 6SM -RA BR FEW009 BKN036 OVC071 02/02 A2921 RMK PCPN 2.8MM PAST HR SLP905,CYIV,2022-10-24T19:37:00Z,53.85,-94.65,2.0,2.0,70,12,23,6.0,29.208662,990.5,,TRUE,,,,,,,-RA BR,FEW,900,BKN,3600,OVC,7100,,,VFR,,,,,,,,,,,,SPECI,234.0
PFNO 241936Z AUTO 12014KT 3SM -SN BR OVC026 M02/M03 A2987 RMK AO2 P0000 FZRANO,PFNO,2022-10-24T19:36:00Z,66.82,-161.02,-2.0,-3.0,120,14,,3.0,29.870079,,,TRUE,TRUE,,,,TRUE,,-SN BR,OVC,2600,,,,,,,MVFR,,,,,,0.005,,,,,,SPECI,14.0
PAKH 241936Z AUTO 9SM SCT025 BKN032 OVC041 A2999 RMK AO2 UPB1857E27 P0000 FZRANO TSNO $,PAKH,2022-10-24T19:36:00Z,56.93,-154.18,,,,,,9.0,29.991142,,,TRUE,TRUE,TRUE,,TRUE,TRUE,,,SCT,2500,BKN,3200,OVC,4100,,,VFR,,,,,,0.005,,,,,,SPECI,15.0
PAIG 241936Z AUTO 23008KT 10SM OVC006 01/01 A2998 RMK AO2 CIG 004V008 FZRANO $,PAIG,2022-10-24T19:36:00Z,59.32,-155.9,1.0,1.0,230,8,,10.0,29.97933,,,TRUE,TRUE,TRUE,,,TRUE,,,OVC,600,,,,,,,IFR,,,,,,,,,,,,SPECI,24.0
KOTM 241936Z AUTO 18005KT 6SM -RA BR OVC027 19/18 A2965 RMK AO2 RAB01 P0009 T01940178,KOTM,2022-10-24T19:36:00Z,41.1,-92.45,19.4,17.8,180,5,,6.0,29.648623,,,TRUE,TRUE,,,,,,-RA BR,OVC,2700,,,,,,,MVFR,,,,,,0.09,,,,,,SPECI,254.0
KCQM 241936Z AUTO 22010G16KT 10SM SCT075 15/06 A2944 RMK AO2,KCQM,2022-10-24T19:36:00Z,47.82,-92.68,15.0,6.0,220,10,16,10.0,29.438976,,,TRUE,TRUE,,,,,,,SCT,7500,,,,,,,VFR,,,,,,,,,,,,SPECI,406.0
KAUM 241936Z AUTO 28006KT 10SM SCT110 12/06 A2967 RMK AO2,KAUM,2022-10-24T19:36:00Z,43.67,-92.92,12.0,6.0,280,6,,10.0,29.66929,,,TRUE,TRUE,,,,,,,SCT,11000,,,,,,,VFR,,,,,,,,,,,,METAR,376.0
CYQD 241936Z AUTO 35014G30KT 1 3/4SM -SN BKN012 OVC017 M01/M02 A2951 RMK SLP008,CYQD,2022-10-24T19:36:00Z,53.97,-101.08,-1.0,-2.0,350,14,30,1.75,29.509842,1000.8,,TRUE,,,,,,,-SN,BKN,1200,OVC,1700,,,,,IFR,,,,,,,,,,,,SPECI,268.0
CYPL 241936Z AUTO 15015G23KT 7SM -RA OVC004 14/14 A2934 RMK PRESFR SLP943 DENSITY ALT 2200FT,CYPL,2022-10-24T19:36:00Z,51.43,-90.22,14.0,14.0,150,15,23,7.0,29.338583,994.3,,TRUE,,,,,,,-RA,OVC,400,,,,,,,LIFR,,,,,,,,,,,,SPECI,390.0
CYNE 241936Z AUTO 01009G23KT 340V040 3SM -SN -UP OVC016 00/00 A2930 RMK PCPN 1.5MM PAST HR SLP936,CYNE,2022-10-24T19:36:00Z,53.97,-97.83,0.0,0.0,10,9,23,3.0,29.300198,993.6,,TRUE,,,,,,,-SN UP,OVC,1600,,,,,,,MVFR,,,,,,,,,,,,SPECI,220.0
YFRT 241935Z AUTO 17015KT 9999 TS SCT014 13/11 Q1007 RF00.0/000.4 TS,YFRT,2022-10-24T19:35:00Z,-30.83,128.12,13.0,11.0,170,15,,6.21,29.734253,,,TRUE,,,,,,,TS TS,SCT,1400,,,,,,,VFR,,,,,,,,,,,,SPECI,159.0
PGSN 241935Z 08008KT 10SM FEW017 FEW026 SCT033 27/23 A2983 RMK AO2 RAE1856B23E32 P0000 T02670233 $,PGSN,2022-10-24T19:35:00Z,15.12,145.72,26.7,23.3,80,8,,10.0,29.828741,,,,TRUE,TRUE,,,,,,FEW,1700,FEW,2600,SCT,3300,,,VFR,,,,,,0.005,,,,,,SPECI,65.0
PAUT 241935Z AUTO 22013KT 7SM -RA SCT034 BKN047 OVC070 10/08 A3023 RMK AO2,PAUT,2022-10-24T19:35:00Z,54.13,-165.6,10.0,8.0,220,13,,7.0,30.230314,,,TRUE,TRUE,,,,,,-RA,SCT,3400,BKN,4700,OVC,7000,,,VFR,,,,,,,,,,,,METAR,25.0
PAKX 241935Z AUTO 00000KT 10SM BKN022 OVC041 01/00 A2990 RMK AO2,PAKX,2022-10-24T19:35:00Z,60.2,-154.32,1.0,0.0,0,0,,10.0,29.899607,,,TRUE,TRUE,,,,,,,BKN,2200,OVC,4100,,,,,MVFR,,,,,,,,,,,,METAR,88.0
PAKP 241935Z AUTO 19009KT 10SM SCT011 M12/M14 A2984 RMK AO2 SNB13E22 P0000 FZRANO,PAKP,2022-10-24T19:35:00Z,68.13,-151.73,-12.0,-14.0,190,9,,10.0,29.840551,,,TRUE,TRUE,,,,TRUE,,,SCT,1100,,,,,,,VFR,,,,,,0.005,,,,,,SPECI,649.0
PAHC 241935Z AUTO 20003KT 2SM -SN BR BKN007 BKN030 OVC046 M01/M01 A2997 RMK AO2 VIS 1V4 P0000 FZRANO $,PAHC,2022-10-24T19:35:00Z,62.18,-159.78,-1.0,-1.0,200,3,,2.0,29.970472,,,TRUE,TRUE,TRUE,,,TRUE,,-SN BR,BKN,700,BKN,3000,OVC,4600,,,IFR,,,,,,0.005,,,,,,SPECI,21.0
PAAD 241935Z AUTO 13009KT 7SM OVC003 M10/M11 A3000 RMK AO2 T11031111,PAAD,2022-10-24T19:35:00Z,70.13,-146.28,-10.3,-11.1,130,9,,7.0,30.0,,,TRUE,TRUE,,,,,,,OVC,300,,,,,,,LIFR,,,,,,,,,,,,METAR,8.0
KY70 241935Z AUTO 18012G17KT 10SM CLR 25/10 A2993 RMK AO2 T02460100,KY70,2022-10-24T19:35:00Z,42.93,-85.07,24.6,10.0,180,12,17,10.0,29.929134,,,TRUE,TRUE,,,,,,,CLR,,,,,,,,VFR,,,,,,,,,,,,METAR,247.0
KY63 241935Z AUTO 24021G24KT 10SM OVC030 08/02 A2957 RMK AO2 T00750016,KY63,2022-10-24T19:35:00Z,45.98,-96.0,7.5,1.6,240,21,24,10.0,29.568897,,,TRUE,TRUE,,,,,,,OVC,3000,,,,,,,MVFR,,,,,,,,,,,,METAR,367.0
KY51 241935Z AUTO 17011G15KT 10SM OVC029 20/16 A2967 RMK AO1 T01970164,KY51,2022-10-24T19:35:00Z,43.58,-90.9,19.7,16.4,170,11,15,10.0,29.66929,,,TRUE,TRUE,,,,,,,OVC,2900,,,,,,,MVFR,,,,,,,,,,,,SPECI,390.0
KY23 241935Z AUTO 23009KT 10SM -RA BKN027 OVC034 16/12 A2964 RMK AO2 T01560119,KY23,2022-10-24T19:35:00Z,45.3,-91.63,15.6,11.9,230,9,,10.0,29.639763,,,TRUE,TRUE,,,,,,-RA,BKN,2700,OVC,3400,,,,,MVFR,,,,,,,,,,,,METAR,322.0
KY19 241935Z AUTO 30021G27KT 10SM OVC015 00/00 A2955 RMK AO2,KY19,2022-10-24T19:35:00Z,46.77,-100.9,0.0,0.0,300,21,27,10.0,29.551182,,,TRUE,TRUE,,,,,,,OVC,1500,,,,,,,MVFR,,,,,,,,,,,,METAR,591.0
KXSA 241935Z AUTO 00000KT 10SM OVC020 17/15 A3012 RMK AO2 T01720150,KXSA,2022-10-24T19:35:00Z,37.87,-76.9,17.2,15.0,0,0,,10.0,30.121063,,,TRUE,TRUE,,,,,,,OVC,2000,,,,,,,MVFR,,,,,,,,,,,,METAR,41.0
KXNX 241935Z AUTO 17010G16KT 10SM CLR 25/04 A3004 RMK A01,KXNX,2022-10-24T19:35:00Z,36.38,-86.42,25.0,4.0,170,10,16,10.0,30.041338,,,TRUE,TRUE,,,,,,,CLR,,,,,,,,VFR,,,,,,,,,,,,METAR,178.0
KX60 241935Z AUTO 07006KT 10SM SCT050 28/15 A3007 RMK AO2,KX60,2022-10-24T19:35:00Z,29.35,-82.47,28.0,15.0,70,6,,10.0,30.070866,,,TRUE,TRUE,,,,,,,SCT,5000,,,,,,,VFR,,,,,,,,,,,,METAR,21.0
KX07 241935Z AUTO 05006KT 10SM SCT043 BKN070 29/19 A3003 RMK A01,KX07,2022-10-24T19:35:00Z,27.9,-81.62,29.0,19.0,50,6,,10.0,30.029528,,,TRUE,TRUE,,,,,,,SCT,4300,BKN,7000,,,,,VFR,,,,,,,,,,,,SPECI,36.0
KW96 241935Z AUTO 04005KT 10SM OVC025 20/13 A3010 RMK AO1 T01950132,KW96,2022-10-24T19:35:00Z,37.5,-77.12,19.5,13.2,40,5,,10.0,30.100393,,,TRUE,TRUE,,,,,,,OVC,2500,,,,,,,MVFR,,,,,,,,,,,,SPECI,35.0
KW81 241935Z AUTO 03003KT 10SM CLR 22/09 A3010 RMK AO1 T02170090,KW81,2022-10-24T19:35:00Z,37.18,-78.1,21.7,9.0,30,3,,10.0,30.100393,,,TRUE,TRUE,,,,,,,CLR,,,,,,,,VFR,,,,,,,,,,,,SPECI,121.0
KW78 241935Z AUTO 25003KT 10SM CLR 23/09 A3010 RMK AO1 T02340091,KW78,2022-10-24T19:35:00Z,36.7,-78.85,23.4,9.1,250,3,,10.0,30.100393,,,TRUE,TRUE,,,,,,,CLR,,,,,,,,VFR,,,,,,,,,,,,SPECI,120.0
KW75 241935Z AUTO 32005KT 10SM OVC015 16/13 A3011 RMK AO1 T01600130,KW75,2022-10-24T19:35:00Z,37.6,-76.45,16.0,13.0,320,5,,10.0,30.109253,,,TRUE,TRUE,,,,,,,OVC,1500,,,,,,,MVFR,,,,,,,,,,,,SPECI,8.0
KW63 241935Z AUTO 35004KT 10SM CLR 22/12 A3010 RMK AO1,KW63,2022-10-24T19:35:00Z,36.6,-78.55,22.0,12.0,350,4,,10.0,30.100393,,,TRUE,TRUE,,,,,,,CLR,,,,,,,,VFR,,,,,,,,,,,,METAR,126.0
KW31 241935Z AUTO 36004KT 10SM CLR 22/11 A3010 RMK AO1 T02230109,KW31,2022-10-24T19:35:00Z,36.95,-78.18,22.3,10.9,360,4,,10.0,30.100393,,,TRUE,TRUE,,,,,,,CLR,,,,,,,,VFR,,,,,,,,,,,,SPECI,159.0
KW13 241935Z AUTO 7SM CLR 21/08 A3012 RMK AO1 T02110081,KW13,2022-10-24T19:35:00Z,38.08,-78.95,21.1,8.1,,,,7.0,30.121063,,,TRUE,TRUE,,,,,,,CLR,,,,,,,,VFR,,,,,,,,,,,,SPECI,440.0
KVWU 241935Z AUTO 21013G22KT 10SM OVC029 11/05 A2941 RMK AO2,KVWU,2022-10-24T19:35:00Z,48.15,-94.52,11.0,5.0,210,13,22,10.0,29.409449,,,TRUE,TRUE,,,,,,,OVC,2900,,,,,,,MVFR,,,,,,,,,,,,SPECI,359.0
KVVV 241935Z 25015G22KT 10SM 08/01 A2960 RMK AO2,KVVV,2022-10-24T19:35:00Z,45.3,-96.42,8.0,1.0,250,15,22,10.0,29.601377,,,,TRUE,,,,,,,,,,,,,,,,,,,,,,,,,,,METAR,334.0
KVTI 241935Z AUTO 28012KT 10SM OVC031 19/14 A2964 RMK AO2 T01930140,KVTI,2022-10-24T19:35:00Z,42.22,-92.02,19.3,14.0,280,12,,10.0,29.639763,,,TRUE,TRUE,,,,,,,OVC,3100,,,,,,,VFR,,,,,,,,,,,,METAR,256.0
KVNW 241935Z AUTO 18009KT 10SM CLR 23/06 A3002 RMK AO2,KVNW,2022-10-24T19:35:00Z,40.87,-84.62,23.0,6.0,180,9,,10.0,30.02067,,,TRUE,TRUE,,,,,,,CLR,,,,,,,,VFR,,,,,,,,,,,,SPECI,238.0
KVLL 241935Z AUTO 17010G16KT 10SM CLR 24/05 A3005 RMK AO2 T02430049,KVLL,2022-10-24T19:35:00Z,42.55,-83.18,24.3,4.9,170,10,16,10.0,30.050198,,,TRUE,TRUE,,,,,,,CLR,,,,,,,,VFR,,,,,,,,,,,,SPECI,214.0
KVJI 241935Z AUTO 00000KT 10SM CLR 26/00 A3013 RMK AO2 T02570000,KVJI,2022-10-24T19:35:00Z,36.68,-82.03,25.7,0.0,0,0,,10.0,30.129921,,,TRUE,TRUE,,,,,,,CLR,,,,,,,,VFR,,,,,,,,,,,,SPECI,636.0
KVGC 241935Z AUTO 16007KT 10SM SCT013 16/12 A3015 RMK AO2,KVGC,2022-10-24T19:35:00Z,42.85,-75.57,16.0,12.0,160,7,,10.0,30.15059,,,TRUE,TRUE,,,,,,,SCT,1300,,,,,,,VFR,,,,,,,,,,,,METAR,346.0
KVER 241935Z AUTO 18010KT 4SM RA SCT045 OVC055 20/19 A2969 RMK AO2 P0019 T01980193,KVER,2022-10-24T19:35:00Z,38.95,-92.68,19.8,19.3,180,10,,4.0,29.68996,,,TRUE,TRUE,,,,,,RA,SCT,4500,OVC,5500,,,,,MVFR,,,,,,0.19,,,,,,SPECI,209.0
KVDF 241935Z AUTO 10005KT 10SM SCT050 BKN070 31/20 A3004 RMK AO2,KVDF,2022-10-24T19:35:00Z,28.02,-82.33,31.0,20.0,100,5,,10.0,30.041338,,,TRUE,TRUE,,,,,,,SCT,5000,BKN,7000,,,,,VFR,,,,,,,,,,,,METAR,5.0
KVCV 241935Z AUTO 02006G11KT 10SM CLR 14/M13 A3028 RMK AO2,KVCV,2022-10-24T19:35:00Z,34.58,-117.38,14.0,-13.0,20,6,11,10.0,30.280512,,,TRUE,TRUE,,,,,,,CLR,,,,,,,,VFR,,,,,,,,,,,,METAR,871.0
KUXL 241935Z AUTO 15018KT 10SM SCT032 SCT080 29/20 A2988 RMK AO2 T02890195,KUXL,2022-10-24T19:35:00Z,30.13,-93.38,28.9,19.5,150,18,,10.0,29.878937,,,TRUE,TRUE,,,,,,,SCT,3200,SCT,8000,,,,,VFR,,,,,,,,,,,,METAR,2.0
KUVA 241935Z AUTO 12005KT 100V160 10SM SCT035 29/21 A2972 RMK AO2 T02940206,KUVA,2022-10-24T19:35:00Z,29.22,-99.75,29.4,20.6,120,5,,10.0,29.719488,,,TRUE,TRUE,,,,,,,SCT,3500,,,,,,,VFR,,,,,,,,,,,,METAR,285.0
KUTA 241935Z AUTO 17016G22KT 10SM CLR 28/14 A2989 RMK AO2 T02810145 $,KUTA,2022-10-24T19:35:00Z,34.68,-90.35,28.1,14.5,170,16,22,10.0,29.890747,,,TRUE,TRUE,TRUE,,,,,,CLR,,,,,,,,VFR,,,,,,,,,,,,SPECI,58.0
KUSE 241935Z AUTO 20011KT 10SM CLR 25/05 A3001 RMK AO2,KUSE,2022-10-24T19:35:00Z,41.62,-84.13,25.0,5.0,200,11,,10.0,30.008858,,,TRUE,TRUE,,,,,,,CLR,,,,,,,,VFR,,,,,,,,,,,,METAR,237.0
KUOX 241935Z AUTO 17009G16KT 140V230 10SM FEW045 24/14 A2995 RMK AO2 PWINO,KUOX,2022-10-24T19:35:00Z,34.38,-89.53,24.0,14.0,170,9,16,10.0,29.949802,,,TRUE,TRUE,,,,,TRUE,,FEW,4500,,,,,,,VFR,,,,,,,,,,,,SPECI,123.0
KUNU 241935Z AUTO 16013KT 10SM CLR 20/13 A2977 RMK AO2 T02030130,KUNU,2022-10-24T19:35:00Z,43.42,-88.7,20.3,13.0,160,13,,10.0,29.769686,,,TRUE,TRUE,,,,,,,CLR,,,,,,,,VFR,,,,,,,,,,,,SPECI,281.0
KULM 241935Z AUTO 23012KT 10SM CLR 09/01 A2969 RMK AO2,KULM,2022-10-24T19:35:00Z,44.32,-94.5,9.0,1.0,230,12,,10.0,29.68996,,,TRUE,TRUE,,,,,,,CLR,,,,,,,,VFR,,,,,,,,,,,,SPECI,305.0
KUKT 241935Z AUTO 04004KT 2SM BR OVC005 15/15 A3013 RMK A01,KUKT,2022-10-24T19:35:00Z,40.43,-75.38,15.0,15.0,40,4,,2.0,30.129921,,,TRUE,TRUE,,,,,,BR,OVC,500,,,,,,,IFR,,,,,,,,,,,,METAR,156.0
KUCY 241935Z AUTO 18017KT 10SM CLR 27/07 A2991 RMK A01,KUCY,2022-10-24T19:35:00Z,36.38,-88.98,27.0,7.0,180,17,,10.0,29.911417,,,TRUE,TRUE,,,,,,,CLR,,,,,,,,VFR,,,,,,,,,,,,METAR,97.0
KUBE 241935Z AUTO 20008KT 10SM -RA SCT034 BKN047 OVC100 13/13 A2963 RMK AO2 P0003,KUBE,2022-10-24T19:35:00Z,45.5,-91.98,13.0,13.0,200,8,,10.0,29.630905,,,TRUE,TRUE,,,,,,-RA,SCT,3400,BKN,4700,OVC,10000,,,VFR,,,,,,0.03,,,,,,METAR,376.0
KU55 241935Z AUTO 31007KT 10SM 02/M06 A3024 RMK A01,KU55,2022-10-24T19:35:00Z,37.85,-112.38,2.0,-6.0,310,7,,10.0,30.239174,,,TRUE,TRUE,,,,,,,,,,,,,,,,,,,,,,,,,,,METAR,2060.0
KU42 241935Z AUTO 00000KT 10SM BKN043 05/M01 A3022 RMK AO1 T00451011,KU42,2022-10-24T19:35:00Z,40.62,-111.98,4.5,-1.1,0,0,,10.0,30.221457,,,TRUE,TRUE,,,,,,,BKN,4300,,,,,,,VFR,,,,,,,,,,,,SPECI,1399.0
KTWT 241935Z AUTO 19014KT 10SM CLR 26/06 A2995 RMK AO2,KTWT,2022-10-24T19:35:00Z,37.55,-87.95,26.0,6.0,190,14,,10.0,29.949802,,,TRUE,TRUE,,,,,,,CLR,,,,,,,,VFR,,,,,,,,,,,,SPECI,113.0
KTWM 241935Z AUTO 20011G21KT 10SM CLR 19/08 A2950 RMK AO2,KTWM,2022-10-24T19:35:00Z,47.05,-91.75,19.0,8.0,200,11,21,10.0,29.500984,,,TRUE,TRUE,,,,,,,CLR,,,,,,,,VFR,,,,,,,,,,,,METAR,331.0
KTVY 241935Z AUTO 11006KT 10SM CLR 06/M01 A3023 RMK AO2,KTVY,2022-10-24T19:35:00Z,40.62,-112.35,6.0,-1.0,110,6,,10.0,30.230314,,,TRUE,TRUE,,,,,,,CLR,,,,,,,,VFR,,,,,,,,,,,,METAR,1310.0
KTTF 241935Z AUTO 16008KT 120V190 10SM CLR 24/07 A3002 RMK AO2 T02350072,KTTF,2022-10-24T19:35:00Z,41.93,-83.42,23.5,7.2,160,8,,10.0,30.02067,,,TRUE,TRUE,,,,,,,CLR,,,,,,,,VFR,,,,,,,,,,,,SPECI,186.0
KTSP 241935Z AUTO 13009KT 8SM CLR 14/M12 A3026 RMK AO2,KTSP,2022-10-24T19:35:00Z,35.13,-118.43,14.0,-12.0,130,9,,8.0,30.259842,,,TRUE,TRUE,,,,,,,CLR,,,,,,,,VFR,,,,,,,,,,,,SPECI,1209.0
KTQV 241935Z AUTO 00000KT 10SM CLR 24/10 A3010 RMK A01,KTQV,2022-10-24T19:35:00Z,36.0,-78.93,24.0,10.0,0,0,,10.0,30.100393,,,TRUE,TRUE,,,,,,,CLR,,,,,,,,VFR,,,,,,,,,,,,METAR,230.0
KTQH 241935Z AUTO 33012KT 1 1/4SM HZ BKN009 OVC017 16/13 A2971 RMK AO2,KTQH,2022-10-24T19:35:00Z,35.93,-95.0,16.0,13.0,330,12,,1.25,29.71063,,,TRUE,TRUE,,,,,,HZ,BKN,900,OVC,1700,,,,,IFR,,,,,,,,,,,,METAR,265.0
KTOB 241935Z AUTO 29006KT 10SM RA SCT025 SCT090 11/06 A2963 RMK AO2,KTOB,2022-10-24T19:35:00Z,44.02,-92.82,11.0,6.0,290,6,,10.0,29.630905,,,TRUE,TRUE,,,,,,RA,SCT,2500,SCT,9000,,,,,VFR,,,,,,,,,,,,SPECI,394.0
KTME 241935Z AUTO 18014G24KT 9SM OVC037 28/20 A2978 RMK AO2,KTME,2022-10-24T19:35:00Z,29.8,-95.9,28.0,20.0,180,14,24,9.0,29.778543,,,TRUE,TRUE,,,,,,,OVC,3700,,,,,,,VFR,,,,,,,,,,,,SPECI,49.0
KTKX 241935Z AUTO 18015G24KT 9SM BKN055 26/14 A2988 RMK AO2 TSNO,KTKX,2022-10-24T19:35:00Z,36.22,-90.03,26.0,14.0,180,15,24,9.0,29.878937,,,TRUE,TRUE,,,TRUE,,,,BKN,5500,,,,,,,VFR,,,,,,,,,,,,SPECI,73.0
KTKV 241935Z AUTO 00000KT 10SM OVC018 17/14 A2968 RMK AO2 T01710140 PWINO,KTKV,2022-10-24T19:35:00Z,45.47,-89.82,17.1,14.0,0,0,,10.0,29.681103,,,TRUE,TRUE,,,,,TRUE,,OVC,1800,,,,,,,MVFR,,,,,,,,,,,,METAR,449.0
KTHA 241935Z AUTO 19007G12KT 10SM CLR 24/05 A3004 RMK A01,KTHA,2022-10-24T19:35:00Z,35.38,-86.25,24.0,5.0,190,7,12,10.0,30.041338,,,TRUE,TRUE,,,,,,,CLR,,,,,,,,VFR,,,,,,,,,,,,METAR,333.0
KTGI 241935Z AUTO 33011G15KT 10SM BKN011 OVC018 17/14 A3010 RMK AO1 T01650143,KTGI,2022-10-24T19:35:00Z,37.82,-75.98,16.5,14.3,330,11,15,10.0,30.100393,,,TRUE,TRUE,,,,,,,BKN,1100,OVC,1800,,,,,MVFR,,,,,,,,,,,,SPECI,1.0
KTEW 241935Z AUTO 18007G16KT 130V210 10SM CLR 25/08 A2999 RMK AO2 T02470078,KTEW,2022-10-24T19:35:00Z,42.57,-84.42,24.7,7.8,180,7,16,10.0,29.991142,,,TRUE,TRUE,,,,,,,CLR,,,,,,,,VFR,,,,,,,,,,,,METAR,281.0
KTDF 241935Z AUTO 34004KT 10SM CLR 22/08 A3012 RMK AO2,KTDF,2022-10-24T19:35:00Z,36.28,-78.98,22.0,8.0,340,4,,10.0,30.121063,,,TRUE,TRUE,,,,,,,CLR,,,,,,,,VFR,,,,,,,,,,,,METAR,180.0
KTCY 241935Z AUTO 35007KT 330V030 10SM CLR 19/M02 A3022 RMK A01,KTCY,2022-10-24T19:35:00Z,37.68,-121.43,19.0,-2.0,350,7,,10.0,30.221457,,,TRUE,TRUE,,,,,,,CLR,,,,,,,,VFR,,,,,,,,,,,,METAR,51.0
KT89 241935Z AUTO 28021G27KT 10SM CLR 30/M02 A2977 RMK A01,KT89,2022-10-24T19:35:00Z,29.27,-103.68,30.0,-2.0,280,21,27,10.0,29.769686,,,TRUE,TRUE,,,,,,,CLR,,,,,,,,VFR,,,,,,,,,,,,METAR,801.0
KT78 241935Z AUTO 17011G22KT 140V200 10SM OVC065 28/19 A2980 RMK AO2,KT78,2022-10-24T19:35:00Z,30.08,-94.7,28.0,19.0,170,11,22,10.0,29.799213,,,TRUE,TRUE,,,,,,,OVC,6500,,,,,,,VFR,,,,,,,,,,,,METAR,21.0
KT69 241935Z AUTO 18016G22KT 9SM SCT032 SCT040 31/24 A2972 RMK A01,KT69,2022-10-24T19:35:00Z,28.03,-97.55,31.0,24.0,180,16,22,9.0,29.719488,,,TRUE,TRUE,,,,,,,SCT,3200,SCT,4000,,,,,VFR,,,,,,,,,,,,SPECI,15.0
KSZY 241935Z AUTO 17009G17KT 140V200 10SM CLR 24/12 A2996 RMK A01,KSZY,2022-10-24T19:35:00Z,35.2,-88.5,24.0,12.0,170,9,17,10.0,29.958662,,,TRUE,TRUE,,,,,,,CLR,,,,,,,,VFR,,,,,,,,,,,,METAR,184.0
KSZT 241935Z AUTO 22006KT 10SM -RA OVC011 03/02 A2990 RMK AO2,KSZT,2022-10-24T19:35:00Z,48.3,-116.57,3.0,2.0,220,6,,10.0,29.899607,,,TRUE,TRUE,,,,,,-RA,OVC,1100,,,,,,,MVFR,,,,,,,,,,,,METAR,649.0
KSYN 241935Z AUTO 23009KT 10SM -RA SCT028 SCT036 SCT085 11/07 A2968 RMK AO2 T01120069,KSYN,2022-10-24T19:35:00Z,44.47,-93.02,11.2,6.9,230,9,,10.0,29.681103,,,TRUE,TRUE,,,,,,-RA,SCT,2800,SCT,3600,SCT,8500,,,VFR,,,,,,,,,,,,METAR,280.0
KSYM 241935Z AUTO 17006KT 10SM CLR 25/01 A3009 RMK AO2,KSYM,2022-10-24T19:35:00Z,38.22,-83.58,25.0,1.0,170,6,,10.0,30.088583,,,TRUE,TRUE,,,,,,,CLR,,,,,,,,VFR,,,,,,,,,,,,SPECI,307.0
KSYI 241935Z AUTO 20013KT 10SM CLR 25/03 A3003 RMK A01,KSYI,2022-10-24T19:35:00Z,35.57,-86.45,25.0,3.0,200,13,,10.0,30.029528,,,TRUE,TRUE,,,,,,,CLR,,,,,,,,VFR,,,,,,,,,,,,METAR,244.0
KSYF 241935Z AUTO 33016G25KT 10SM CLR 11/M06 A2983 RMK AO2 T01131060 PWINO,KSYF,2022-10-24T19:35:00Z,39.77,-101.8,11.3,-6.0,330,16,25,10.0,29.828741,,,TRUE,TRUE,,,,,TRUE,,CLR,,,,,,,,VFR,,,,,,,,,,,,METAR,1041.0
KSXU 241935Z AUTO 36014G23KT 10SM SCT032 SCT047 OVC055 06/02 A2979 RMK AO2 T00620022,KSXU,2022-10-24T19:35:00Z,34.93,-104.65,6.2,2.2,360,14,23,10.0,29.790354,,,TRUE,TRUE,,,,,,,SCT,3200,SCT,4700,OVC,5500,,,VFR,,,,,,,,,,,,METAR,1465.0
KSWW 241935Z AUTO 20011KT 10SM CLR 25/13 A2974 RMK AO2 T02450133,KSWW,2022-10-24T19:35:00Z,32.47,-100.47,24.5,13.3,200,11,,10.0,29.740158,,,TRUE,TRUE,,,,,,,CLR,,,,,,,,VFR,,,,,,,,,,,,METAR,718.0
KSVH 241935Z AUTO 30003KT 10SM CLR 23/08 A3012 RMK AO2 T02330082,KSVH,2022-10-24T19:35:00Z,35.75,-80.95,23.3,8.2,300,3,,10.0,30.121063,,,TRUE,TRUE,,,,,,,CLR,,,,,,,,VFR,,,,,,,,,,,,METAR,286.0
KSVE 241935Z AUTO 14004KT 10SM CLR M14/M26 A3025 RMK AO2,KSVE,2022-10-24T19:35:00Z,40.37,-120.57,-14.0,-26.0,140,4,,10.0,30.250984,,,TRUE,TRUE,,,,,,,CLR,,,,,,,,VFR,,,,,,,,,,,,SPECI,1263.0
KSVC 241935Z AUTO 30021G29KT 10SM CLR 12/M05 A3007 RMK AO2 T01171046,KSVC,2022-10-24T19:35:00Z,32.63,-108.15,11.7,-4.6,300,21,29,10.0,30.070866,,,TRUE,TRUE,,,,,,,CLR,,,,,,,,VFR,,,,,,,,,,,,METAR,1638.0
KSUZ 241935Z AUTO 18021G26KT 10SM FEW055 BKN065 BKN080 28/15 A2980 RMK A01,KSUZ,2022-10-24T19:35:00Z,34.58,-92.48,28.0,15.0,180,21,26,10.0,29.799213,,,TRUE,TRUE,,,,,,,FEW,5500,BKN,6500,BKN,8000,,,VFR,,,,,,,,,,,,SPECI,114.0
KSUW 241935Z AUTO 22011G26KT 10SM CLR 20/06 A2952 RMK AO2 T01960064,KSUW,2022-10-24T19:35:00Z,46.68,-92.1,19.6,6.4,220,11,26,10.0,29.518702,,,TRUE,TRUE,,,,,,,CLR,,,,,,,,VFR,,,,,,,,,,,,SPECI,205.0
KSTF 241935Z AUTO 16015G22KT 10SM FEW047 27/15 A2995 RMK AO2,KSTF,2022-10-24T19:35:00Z,33.43,-88.85,27.0,15.0,160,15,22,10.0,29.949802,,,TRUE,TRUE,,,,,,,FEW,4700,,,,,,,VFR,,,,,,,,,,,,SPECI,99.0
KSRR 241935Z AUTO 29025G34KT 10SM -RA 03/M03 A2991 RMK AO2,KSRR,2022-10-24T19:35:00Z,33.47,-105.52,3.0,-3.0,290,25,34,10.0,29.911417,,,TRUE,TRUE,,,,,,-RA,,,,,,,,,,,,,,,,,,,,,METAR,2063.0
KSRB 241935Z AUTO 21005KT 10SM CLR 24/06 A3005 RMK A01,KSRB,2022-10-24T19:35:00Z,36.05,-85.53,24.0,6.0,210,5,,10.0,30.050198,,,TRUE,TRUE,,,,,,,CLR,,,,,,,,VFR,,,,,,,,,,,,METAR,303.0
KSPF 241935Z AUTO 28020G30KT 10SM SCT033 02/M04 A2975 RMK AO2,KSPF,2022-10-24T19:35:00Z,44.47,-103.78,2.0,-4.0,280,20,30,10.0,29.749016,,,TRUE,TRUE,,,,,,,SCT,3300,,,,,,,VFR,,,,,,,,,,,,SPECI,1191.0
KSPA 241935Z AUTO 00000KT 7SM CLR 23/03 A3012 RMK AO2,KSPA,2022-10-24T19:35:00Z,34.92,-81.95,23.0,3.0,0,0,,7.0,30.121063,,,TRUE,TRUE,,,,,,,CLR,,,,,,,,VFR,,,,,,,,,,,,SPECI,242.0
KSOW 241935Z AUTO 35015G20KT 10SM CLR 06/M09 A3017 RMK AO2,KSOW,2022-10-24T19:35:00Z,34.27,-110.0,6.0,-9.0,350,15,20,10.0,30.171259,,,TRUE,TRUE,,,,,,,CLR,,,,,,,,VFR,,,,,,,,,,,,METAR,1954.0
KSNK 241935Z AUTO 25016G23KT 10SM SCT080 BKN095 BKN120 23/08 A2970 RMK AO2 T02320075,KSNK,2022-10-24T19:35:00Z,32.7,-100.95,23.2,7.5,250,16,23,10.0,29.698818,,,TRUE,TRUE,,,,,,,SCT,8000,BKN,9500,BKN,12000,,,VFR,,,,,,,,,,,,METAR,738.0
KSNC 241935Z AUTO 00000KT 9SM OVC001 15/15 A3018 RMK AO2,KSNC,2022-10-24T19:35:00Z,41.38,-72.5,15.0,15.0,0,0,,9.0,30.180119,,,TRUE,TRUE,,,,,,,OVC,100,,,,,,,LIFR,,,,,,,,,,,,METAR,114.0
KSMS 241935Z AUTO VRB05KT 10SM CLR 24/10 A3012 RMK AO2,KSMS,2022-10-24T19:35:00Z,34.0,-80.37,24.0,10.0,0,5,,10.0,30.121063,,,TRUE,TRUE,,,,,,,CLR,,,,,,,,VFR,,,,,,,,,,,,METAR,53.0
KSMP 241935Z AUTO 27009G27KT 200V340 10SM SCT004 BKN007 OVC012 03/02 A2987 RMK AO2 PK WND 19031/1922 T00330022 ,KSMP,2022-10-24T19:35:00Z,47.28,-121.33,3.3,2.2,270,9,27,10.0,29.870079,,,TRUE,TRUE,,,,,,,SCT,400,BKN,700,OVC,1200,,,IFR,,,,,,,,,,,,SPECI,1206.0
KSLO 241935Z AUTO 17016G21KT 10SM SCT055 OVC065 26/11 A2989 RMK AO2 T02580111,KSLO,2022-10-24T19:35:00Z,38.65,-88.97,25.8,11.1,170,16,21,10.0,29.890747,,,TRUE,TRUE,,,,,,,SCT,5500,OVC,6500,,,,,VFR,,,,,,,,,,,,METAR,173.0
KSLH 241935Z AUTO 06005KT 10SM CLR 19/13 A2987 RMK AO2,KSLH,2022-10-24T19:35:00Z,45.65,-84.52,19.0,13.0,60,5,,10.0,29.870079,,,TRUE,TRUE,,,,,,,CLR,,,,,,,,VFR,,,,,,,,,,,,SPECI,193.0
KSKF 241935Z AUTO 14010KT 9SM SCT034 SCT046 BKN180 30/21 A2968 RMK AO2 PRESFR SLP043 $,KSKF,2022-10-24T19:35:00Z,29.38,-98.57,30.0,21.0,140,10,,9.0,29.681103,1004.3,,TRUE,TRUE,TRUE,,,,,,SCT,3400,SCT,4600,BKN,18000,,,VFR,,,,,,,,,,,,SPECI,214.0
KSKA 241935Z 18012G18KT 10SM BKN009 OVC028 04/02 A2987 RMK AO2A CIG 007V009 CIG 008 RWY05 SLP389 $,KSKA,2022-10-24T19:35:00Z,47.62,-117.67,4.0,2.0,180,12,18,10.0,29.870079,1038.9,,,TRUE,TRUE,,,,,,BKN,900,OVC,2800,,,,,IFR,,,,,,,,,,,,SPECI,754.0
KSJX 241935Z AUTO 17006KT 10SM CLR 20/13 A2983 RMK AO2 T01980125,KSJX,2022-10-24T19:35:00Z,45.7,-85.57,19.8,12.5,170,6,,10.0,29.828741,,,TRUE,TRUE,,,,,,,CLR,,,,,,,,VFR,,,,,,,,,,,,SPECI,202.0
KSIK 241935Z AUTO 16011G20KT 10SM SCT070 26/12 A2990 RMK AO2,KSIK,2022-10-24T19:35:00Z,36.9,-89.57,26.0,12.0,160,11,20,10.0,29.899607,,,TRUE,TRUE,,,,,,,SCT,7000,,,,,,,VFR,,,,,,,,,,,,SPECI,95.0
KSHD 241935Z AUTO 00000KT 10SM CLR 22/10 A3013 RMK AO2 T02160101,KSHD,2022-10-24T19:35:00Z,38.27,-78.9,21.6,10.1,0,0,,10.0,30.129921,,,TRUE,TRUE,,,,,,,CLR,,,,,,,,VFR,,,,,,,,,,,,METAR,360.0
KSGS 241935Z AUTO 22008KT 10SM -RA OVC090 12/06 A2967 RMK AO2 T01240060,KSGS,2022-10-24T19:35:00Z,44.87,-93.03,12.4,6.0,220,8,,10.0,29.66929,,,TRUE,TRUE,,,,,,-RA,OVC,9000,,,,,,,VFR,,,,,,,,,,,,METAR,250.0
KSFQ 241935Z AUTO 04005KT 10SM SCT021 20/15 A3011 RMK AO2 T02000145,KSFQ,2022-10-24T19:35:00Z,36.68,-76.6,20.0,14.5,40,5,,10.0,30.109253,,,TRUE,TRUE,,,,,,,SCT,2100,,,,,,,VFR,,,,,,,,,,,,METAR,19.0
KSEZ 241935Z AUTO 34005G08KT 10SM 13/M08 A3015 RMK AO2,KSEZ,2022-10-24T19:35:00Z,34.85,-111.78,13.0,-8.0,340,5,8,10.0,30.15059,,,TRUE,TRUE,,,,,,,,,,,,,,,,,,,,,,,,,,,METAR,1455.0
KSEP 241935Z AUTO 12006KT 10SM BKN007 BKN070 OVC085 17/16 A2976 RMK AO2 T01660160,KSEP,2022-10-24T19:35:00Z,32.22,-98.17,16.6,16.0,120,6,,10.0,29.760826,,,TRUE,TRUE,,,,,,,BKN,700,BKN,7000,OVC,8500,,,IFR,,,,,,,,,,,,METAR,399.0
KSEM 241935Z AUTO 17007KT 080V210 10SM BKN055 27/12 A3004 RMK AO2,KSEM,2022-10-24T19:35:00Z,32.35,-86.98,27.0,12.0,170,7,,10.0,30.041338,,,TRUE,TRUE,,,,,,,BKN,5500,,,,,,,VFR,,,,,,,,,,,,METAR,48.0
KSDC 241935Z AUTO 07004KT 10SM CLR 19/06 A3014 RMK AO2,KSDC,2022-10-24T19:35:00Z,43.23,-77.12,19.0,6.0,70,4,,10.0,30.138779,,,TRUE,TRUE,,,,,,,CLR,,,,,,,,VFR,,,,,,,,,,,,METAR,127.0
KSCX 241935Z AUTO 22007KT 10SM CLR 24/03 A3008 RMK A01,KSCX,2022-10-24T19:35:00Z,36.45,-84.58,24.0,3.0,220,7,,10.0,30.079725,,,TRUE,TRUE,,,,,,,CLR,,,,,,,,VFR,,,,,,,,,,,,METAR,462.0
KSCR 241935Z AUTO 04003KT 10SM CLR 24/07 A3011 RMK AO2 T02420071,KSCR,2022-10-24T19:35:00Z,35.7,-79.5,24.2,7.1,40,3,,10.0,30.109253,,,TRUE,TRUE,,,,,,,CLR,,,,,,,,VFR,,,,,,,,,,,,METAR,182.0
KSCD 241935Z AUTO 18004KT 10SM BKN110 26/09 A3009 RMK AO2 T02590091,KSCD,2022-10-24T19:35:00Z,33.17,-86.3,25.9,9.1,180,4,,10.0,30.088583,,,TRUE,TRUE,,,,,,,BKN,11000,,,,,,,VFR,,,,,,,,,,,,METAR,164.0
KSAZ 241935Z 21014G19KT 10SM 09/02 A2957 RMK AO2,KSAZ,2022-10-24T19:35:00Z,46.37,-94.8,9.0,2.0,210,14,19,10.0,29.568897,,,,TRUE,,,,,,,,,,,,,,,,,,,,,,,,,,,METAR,391.0
KSAR 241935Z AUTO 16009G21KT 10SM SCT060 SCT070 SCT080 23/12 A2988 RMK AO2 T02340122,KSAR,2022-10-24T19:35:00Z,38.15,-89.7,23.4,12.2,160,9,21,10.0,29.878937,,,TRUE,TRUE,,,,,,,SCT,6000,SCT,7000,SCT,8000,,,VFR,,,,,,,,,,,,METAR,162.0
KS39 241935Z AUTO 04006KT 2 1/2SM -RA FEW027 SCT031 BKN041 07/05 A3002 RMK AO2,KS39,2022-10-24T19:35:00Z,44.28,-120.9,7.0,5.0,40,6,,2.5,30.02067,,,TRUE,TRUE,,,,,,-RA,FEW,2700,SCT,3100,BKN,4100,,,IFR,,,,,,,,,,,,METAR,987.0
KS32 241935Z AUTO 26023G31KT 9SM OVC011 05/05 A2940 RMK AO2 TSNO,KS32,2022-10-24T19:35:00Z,47.42,-98.1,5.0,5.0,260,23,31,9.0,29.40059,,,TRUE,TRUE,,,TRUE,,,,OVC,1100,,,,,,,MVFR,,,,,,,,,,,,METAR,435.0
KS25 241935Z AUTO 31017G29KT 10SM OVC011 M00/M00 A2963 RMK AO2,KS25,2022-10-24T19:35:00Z,47.8,-103.25,0.0,0.0,310,17,29,10.0,29.630905,,,TRUE,TRUE,,,,,,,OVC,1100,,,,,,,MVFR,,,,,,,,,,,,METAR,632.0
KS24 241935Z AUTO 20010KT 10SM CLR 25/06 A3004 RMK AO2,KS24,2022-10-24T19:35:00Z,,,25.0,6.0,200,10,,10.0,30.041338,,,TRUE,TRUE,,,,,,,CLR,,,,,,,,VFR,,,,,,,,,,,,METAR,
KS21 241935Z AUTO 17016KT 3SM BR OVC014 07/06 A3008 RMK AO2,KS21,2022-10-24T19:35:00Z,43.88,-121.45,7.0,6.0,170,16,,3.0,30.079725,,,TRUE,TRUE,,,,,,BR,OVC,1400,,,,,,,MVFR,,,,,,,,,,,,METAR,1269.0
KRZT 241935Z AUTO 13007KT 10SM CLR 23/01 A3007 RMK AO2 PWINO,KRZT,2022-10-24T19:35:00Z,39.43,-83.02,23.0,1.0,130,7,,10.0,30.070866,,,TRUE,TRUE,,,,,TRUE,,CLR,,,,,,,,VFR,,,,,,,,,,,,METAR,217.0
KRZR 241935Z AUTO 22008KT 10SM CLR 25/06 A3006 RMK A01,KRZR,2022-10-24T19:35:00Z,35.22,-84.8,25.0,6.0,220,8,,10.0,30.059055,,,TRUE,TRUE,,,,,,,CLR,,,,,,,,VFR,,,,,,,,,,,,METAR,259.0
KRZN 241935Z AUTO 24008KT 10SM RA CLR 15/07 A2960 RMK AO2 T01470068,KRZN,2022-10-24T19:35:00Z,45.82,-92.37,14.7,6.8,240,8,,10.0,29.601377,,,TRUE,TRUE,,,,,,RA,CLR,,,,,,,,VFR,,,,,,,,,,,,METAR,301.0
KRZL 241935Z AUTO 17011KT 10SM CLR 23/11 A2992 RMK AO2,KRZL,2022-10-24T19:35:00Z,40.95,-87.18,23.0,11.0,170,11,,10.0,29.920275,,,TRUE,TRUE,,,,,,,CLR,,,,,,,,VFR,,,,,,,,,,,,METAR,210.0
KRYV 241935Z AUTO 16008G16KT 10SM SCT050 21/12 A2976 RMK AO2 T02080117,KRYV,2022-10-24T19:35:00Z,43.17,-88.72,20.8,11.7,160,8,16,10.0,29.760826,,,TRUE,TRUE,,,,,,,SCT,5000,,,,,,,VFR,,,,,,,,,,,,METAR,249.0
KRVL 241935Z AUTO 13005KT 6SM HZ OVC022 18/13 A3013 RMK AO2,KRVL,2022-10-24T19:35:00Z,40.68,-77.63,18.0,13.0,130,5,,6.0,30.129921,,,TRUE,TRUE,,,,,,HZ,OVC,2200,,,,,,,MVFR,,,,,,,,,,,,METAR,250.0
KRVF 241935Z AUTO 14017KT 10SM CLR 05/M06 A2995 RMK AO2,KRVF,2022-10-24T19:35:00Z,45.53,-112.3,5.0,-6.0,140,17,,10.0,29.949802,,,TRUE,TRUE,,,,,,,CLR,,,,,,,,VFR,,,,,,,,,,,,METAR,1445.0
KRUQ 241935Z AUTO 26004KT 10SM CLR 22/09 A3012 RMK AO2 T02150092,KRUQ,2022-10-24T19:35:00Z,35.65,-80.52,21.5,9.2,260,4,,10.0,30.121063,,,TRUE,TRUE,,,,,,,CLR,,,,,,,,VFR,,,,,,,,,,,,METAR,231.0
KRUG 241935Z AUTO 31024G32KT 2 1/2SM -RA FEW016 01/01 A2940 RMK AO2,KRUG,2022-10-24T19:35:00Z,48.38,-100.02,1.0,1.0,310,24,32,2.5,29.40059,,,TRUE,TRUE,,,,,,-RA,FEW,1600,,,,,,,IFR,,,,,,,,,,,,METAR,469.0
KRTS 241935Z AUTO 00000KT 10SM CLR 10/M11 A3026 RMK AO2,KRTS,2022-10-24T19:35:00Z,39.67,-119.88,10.0,-11.0,0,0,,10.0,30.259842,,,TRUE,TRUE,,,,,,,CLR,,,,,,,,VFR,,,,,,,,,,,,METAR,1537.0
KRRL 241935Z AUTO 19009G14KT 10SM OVC026 18/14 A2968 RMK AO2 T01810140 TSNO,KRRL,2022-10-24T19:35:00Z,45.2,-89.72,18.1,14.0,190,9,14,10.0,29.681103,,,TRUE,TRUE,,,TRUE,,,,OVC,2600,,,,,,,MVFR,,,,,,,,,,,,SPECI,397.0
KRQB 241935Z AUTO 18012G18KT 10SM CLR 23/12 A2990 RMK AO2 T02270123,KRQB,2022-10-24T19:35:00Z,43.72,-85.5,22.7,12.3,180,12,18,10.0,29.899607,,,TRUE,TRUE,,,,,,,CLR,,,,,,,,VFR,,,,,,,,,,,,METAR,282.0
KRPH 241935Z AUTO VRB03KT 10SM SCT022 BKN100 19/14 A2971 RMK AO2 T01930143 $,KRPH,2022-10-24T19:35:00Z,33.12,-98.55,19.3,14.3,0,3,,10.0,29.71063,,,TRUE,TRUE,TRUE,,,,,,SCT,2200,BKN,10000,,,,,VFR,,,,,,,,,,,,METAR,341.0
KRPD 241935Z AUTO 21007KT 10SM -DZ OVC027 14/12 A2964 RMK AO2 P0001 T01400121,KRPD,2022-10-24T19:35:00Z,45.42,-91.77,14.0,12.1,210,7,,10.0,29.639763,,,TRUE,TRUE,,,,,,-DZ,OVC,2700,,,,,,,MVFR,,,,,,0.01,,,,,,METAR,334.0
KROX 241935Z AUTO 20020G38KT 10SM OVC023 09/05 A2929 RMK AO2,KROX,2022-10-24T19:35:00Z,48.85,-95.7,9.0,5.0,200,20,38,10.0,29.291338,,,TRUE,TRUE,,,,,,,OVC,2300,,,,,,,MVFR,,,,,,,,,,,,METAR,320.0
KRNV 241935Z AUTO 16015G22KT 10SM SCT060 A2989 RMK AO2 TSNO,KRNV,2022-10-24T19:35:00Z,33.77,-90.75,,,160,15,22,10.0,29.890747,,,TRUE,TRUE,,,TRUE,,,,SCT,6000,,,,,,,VFR,,,,,,,,,,,,METAR,42.0
KRNP 241935Z AUTO 16010G18KT 10SM CLR 25/04 A2997 RMK AO2 T02520044,KRNP,2022-10-24T19:35:00Z,43.0,-84.13,25.2,4.4,160,10,18,10.0,29.970472,,,TRUE,TRUE,,,,,,,CLR,,,,,,,,VFR,,,,,,,,,,,,METAR,224.0
KRNH 241935Z AUTO 21009KT 10SM -DZ SCT035 BKN070 OVC100 12/10 A2965 RMK AO2 T01200101,KRNH,2022-10-24T19:35:00Z,45.15,-92.53,12.0,10.1,210,9,,10.0,29.648623,,,TRUE,TRUE,,,,,,-DZ,SCT,3500,BKN,7000,OVC,10000,,,VFR,,,,,,,,,,,,METAR,302.0
KRNC 241935Z AUTO 24006KT 10SM CLR 25/04 A3004 RMK A01,KRNC,2022-10-24T19:35:00Z,35.7,-85.85,25.0,4.0,240,6,,10.0,30.041338,,,TRUE,TRUE,,,,,,,CLR,,,,,,,,VFR,,,,,,,,,,,,METAR,310.0
KRMY 241935Z AUTO 16008G14KT 10SM CLR 23/12 A2997 RMK AO2 T02300117,KRMY,2022-10-24T19:35:00Z,42.25,-84.95,23.0,11.7,160,8,14,10.0,29.970472,,,TRUE,TRUE,,,,,,,CLR,,,,,,,,VFR,,,,,,,,,,,,METAR,285.0
KRMN 241935Z AUTO 08004KT 10SM OVC028 20/13 A3015 RMK AO2 T02030133,KRMN,2022-10-24T19:35:00Z,38.4,-77.45,20.3,13.3,80,4,,10.0,30.15059,,,TRUE,TRUE,,,,,,,OVC,2800,,,,,,,MVFR,,,,,,,,,,,,METAR,50.0
KRLD 241935Z AUTO 20015G21KT 10SM BKN085 OVC110 12/06 A2992 RMK AO2 T01150055,KRLD,2022-10-24T19:35:00Z,46.3,-119.3,11.5,5.5,200,15,21,10.0,29.920275,,,TRUE,TRUE,,,,,,,BKN,8500,OVC,11000,,,,,VFR,,,,,,,,,,,,METAR,118.0
KRHP 241935Z AUTO 26007KT 10SM CLR 25/02 A3011 RMK AO2 T02530016,KRHP,2022-10-24T19:35:00Z,35.18,-83.85,25.3,1.6,260,7,,10.0,30.109253,,,TRUE,TRUE,,,,,,,CLR,,,,,,,,VFR,,,,,,,,,,,,METAR,515.0
KRGK 241935Z AUTO 26003KT 10SM SCT050 BKN095 13/07 A2966 RMK AO2,KRGK,2022-10-24T19:35:00Z,44.58,-92.48,13.0,7.0,260,3,,10.0,29.660433,,,TRUE,TRUE,,,,,,,SCT,5000,BKN,9500,,,,,VFR,,,,,,,,,,,,METAR,238.0
KRFI 241935Z AUTO 15012G25KT 10SM BKN025 OVC035 27/17 A2977 RMK AO2 T02650166,KRFI,2022-10-24T19:35:00Z,32.15,-94.85,26.5,16.6,150,12,25,10.0,29.769686,,,TRUE,TRUE,,,,,,,BKN,2500,OVC,3500,,,,,MVFR,,,,,,,,,,,,METAR,133.0
KRCZ 241935Z AUTO 30005KT 10SM CLR 24/12 A3010 RMK AO2 T02350117,KRCZ,2022-10-24T19:35:00Z,34.88,-79.77,23.5,11.7,300,5,,10.0,30.100393,,,TRUE,TRUE,,,,,,,CLR,,,,,,,,VFR,,,,,,,,,,,,METAR,110.0
KRCX 241935Z AUTO 17011G16KT 7SM -RA BKN012 BKN043 OVC095 18/18 A2964 RMK AO2 P0002 T01770177,KRCX,2022-10-24T19:35:00Z,45.5,-91.0,17.7,17.7,170,11,16,7.0,29.639763,,,TRUE,TRUE,,,,,,-RA,BKN,1200,BKN,4300,OVC,9500,,,MVFR,,,,,,0.02,,,,,,METAR,373.0
KRCM 241935Z AUTO 31013G23KT 2 1/2SM RA SCT006 OVC020 12/11 A2969 RMK AO2 P0011,KRCM,2022-10-24T19:35:00Z,38.78,-93.8,12.0,11.0,310,13,23,2.5,29.68996,,,TRUE,TRUE,,,,,,RA,SCT,600,OVC,2000,,,,,IFR,,,,,,0.11,,,,,,METAR,242.0
KRCE 241935Z AUTO 36010KT 10SM OVC013 14/11 A2975 RMK AO2,KRCE,2022-10-24T19:35:00Z,35.48,-97.82,14.0,11.0,360,10,,10.0,29.749016,,,TRUE,TRUE,,,,,,,OVC,1300,,,,,,,MVFR,,,,,,,,,,,,METAR,412.0
KRAW 241935Z AUTO 18009KT 7SM -RA OVC007 18/17 A2968 RMK AO2 P0014,KRAW,2022-10-24T19:35:00Z,38.35,-93.35,18.0,17.0,180,9,,7.0,29.681103,,,TRUE,TRUE,,,,,,-RA,OVC,700,,,,,,,IFR,,,,,,0.14,,,,,,METAR,285.0
KPZQ 241935Z AUTO 14009KT 10SM CLR 22/11 A2989 RMK AO2 T02210111,KPZQ,2022-10-24T19:35:00Z,45.4,-83.82,22.1,11.1,140,9,,10.0,29.890747,,,TRUE,TRUE,,,,,,,CLR,,,,,,,,VFR,,,,,,,,,,,,METAR,199.0
KPYX 241935Z AUTO 01013G20KT 10SM SCT040 BKN045 OVC065 10/01 A2981 RMK AO2 T00980011,KPYX,2022-10-24T19:35:00Z,36.42,-100.75,9.8,1.1,10,13,20,10.0,29.811024,,,TRUE,TRUE,,,,,,,SCT,4000,BKN,4500,OVC,6500,,,VFR,,,,,,,,,,,,METAR,890.0
KPWD 241935Z AUTO 32022G32KT 10SM BKN009 OVC012 00/M01 A2963 RMK AO2,KPWD,2022-10-24T19:35:00Z,48.78,-104.52,0.0,-1.0,320,22,32,10.0,29.630905,,,TRUE,TRUE,,,,,,,BKN,900,OVC,1200,,,,,IFR,,,,,,,,,,,,METAR,690.0
KPWC 241935Z AUTO 19013G21KT 10SM BKN029 10/04 A2956 RMK AO2,KPWC,2022-10-24T19:35:00Z,46.72,-94.38,10.0,4.0,190,13,21,10.0,29.56004,,,TRUE,TRUE,,,,,,,BKN,2900,,,,,,,MVFR,,,,,,,,,,,,METAR,394.0
KPVJ 241935Z AUTO 36003KT 10SM OVC011 14/13 A2975 RMK AO2 T01390134,KPVJ,2022-10-24T19:35:00Z,34.72,-97.22,13.9,13.4,360,3,,10.0,29.749016,,,TRUE,TRUE,,,,,,,OVC,1100,,,,,,,MVFR,,,,,,,,,,,,METAR,287.0
KPVF 241935Z AUTO 21005KT 10SM CLR 19/M08 A3024 RMK AO1,KPVF,2022-10-24T19:35:00Z,38.72,-120.75,19.0,-8.0,210,5,,10.0,30.239174,,,TRUE,TRUE,,,,,,,CLR,,,,,,,,VFR,,,,,,,,,,,,METAR,788.0
KPVB 241935Z AUTO 16017G20KT 10SM BKN060 BKN065 21/15 A2971 RMK AO1 T02130147,KPVB,2022-10-24T19:35:00Z,42.68,-90.43,21.3,14.7,160,17,20,10.0,29.71063,,,TRUE,TRUE,,,,,,,BKN,6000,BKN,6500,,,,,VFR,,,,,,,,,,,,METAR,311.0
KPUJ 241935Z AUTO 15005KT 7SM CLR 24/07 A3011 RMK AO2,KPUJ,2022-10-24T19:35:00Z,33.92,-84.93,24.0,7.0,150,5,,7.0,30.109253,,,TRUE,TRUE,,,,,,,CLR,,,,,,,,VFR,,,,,,,,,,,,METAR,385.0
KPTS 241935Z AUTO 32008G16KT 1SM OVC005 12/12 A2970 RMK AO2 P0003 T01210120 PWINO,KPTS,2022-10-24T19:35:00Z,37.45,-94.73,12.1,12.0,320,8,16,1.0,29.698818,,,TRUE,TRUE,,,,,TRUE,,OVC,500,,,,,,,IFR,,,,,,0.03,,,,,,METAR,286.0
KPTD 241935Z AUTO 01006KT 10SM CLR 22/05 A3015 RMK AO2,KPTD,2022-10-24T19:35:00Z,44.68,-74.95,22.0,5.0,10,6,,10.0,30.15059,,,TRUE,TRUE,,,,,,,CLR,,,,,,,,VFR,,,,,,,,,,,,METAR,144.0
KPTB 241935Z AUTO 32004KT 10SM SCT035 23/13 A3010 RMK AO2 T02250125,KPTB,2022-10-24T19:35:00Z,37.17,-77.52,22.5,12.5,320,4,,10.0,30.100393,,,TRUE,TRUE,,,,,,,SCT,3500,,,,,,,VFR,,,,,,,,,,,,SPECI,56.0
KPSK 241935Z AUTO 00000KT 10SM CLR 22/04 A3014 RMK AO2 T02200044,KPSK,2022-10-24T19:35:00Z,37.13,-80.67,22.0,4.4,0,0,,10.0,30.138779,,,TRUE,TRUE,,,,,,,CLR,,,,,,,,VFR,,,,,,,,,,,,METAR,629.0
KPRS 241935Z AUTO 26016G21KT 10SM CLR 28/03 A2983 RMK AO2 T02760033,KPRS,2022-10-24T19:35:00Z,29.63,-104.35,27.6,3.3,260,16,21,10.0,29.828741,,,TRUE,TRUE,,,,,,,CLR,,,,,,,,VFR,,,,,,,,,,,,METAR,890.0
KPRO 241935Z AUTO 34009KT 5SM RA BKN048 OVC055 10/07 A2972 RMK AO2 P0007 T00950068,KPRO,2022-10-24T19:35:00Z,41.83,-94.17,9.5,6.8,340,9,,5.0,29.719488,,,TRUE,TRUE,,,,,,RA,BKN,4800,OVC,5500,,,,,MVFR,,,,,,0.07,,,,,,METAR,308.0
KPOV 241935Z AUTO 15005KT 10SM CLR 25/03 A3008 RMK AO2 T02460026 PWINO,KPOV,2022-10-24T19:35:00Z,41.22,-81.25,24.6,2.6,150,5,,10.0,30.079725,,,TRUE,TRUE,,,,,TRUE,,CLR,,,,,,,,VFR,,,,,,,,,,,,METAR,363.0
KPNM 241935Z AUTO 20009G16KT 10SM 12/04 A2964 RMK AO2 TSNO,KPNM,2022-10-24T19:35:00Z,45.53,-93.6,12.0,4.0,200,9,16,10.0,29.639763,,,TRUE,TRUE,,,TRUE,,,,,,,,,,,,,,,,,,,,,,,,METAR,298.0
KPLR 241935Z AUTO 22006KT 10SM CLR 26/08 A3008 RMK A01,KPLR,2022-10-24T19:35:00Z,33.57,-86.25,26.0,8.0,220,6,,10.0,30.079725,,,TRUE,TRUE,,,,,,,CLR,,,,,,,,VFR,,,,,,,,,,,,METAR,145.0
KPKV 241935Z AUTO 17018G24KT 10SM OVC032 29/21 A2977 RMK AO2 T02850207,KPKV,2022-10-24T19:35:00Z,28.65,-96.68,28.5,20.7,170,18,24,10.0,29.769686,,,TRUE,TRUE,,,,,,,OVC,3200,,,,,,,VFR,,,,,,,,,,,,METAR,8.0
KPHT 241935Z AUTO 18015KT 10SM CLR 25/06 A2994 RMK A01,KPHT,2022-10-24T19:35:00Z,36.33,-88.38,25.0,6.0,180,15,,10.0,29.940945,,,TRUE,TRUE,,,,,,,CLR,,,,,,,,VFR,,,,,,,,,,,,METAR,172.0
KPGV 241935Z AUTO 03005KT 10SM CLR 22/15 A3009 RMK AO2,KPGV,2022-10-24T19:35:00Z,35.63,-77.4,22.0,15.0,30,5,,10.0,30.088583,,,TRUE,TRUE,,,,,,,CLR,,,,,,,,VFR,,,,,,,,,,,,METAR,6.0
KPEX 241935Z AUTO 22014G20KT 10SM CLR 08/01 A2964 RMK AO2,KPEX,2022-10-24T19:35:00Z,45.37,-94.73,8.0,1.0,220,14,20,10.0,29.639763,,,TRUE,TRUE,,,,,,,CLR,,,,,,,,VFR,,,,,,,,,,,,METAR,359.0
KPDC 241935Z AUTO 15008KT 10SM BKN038 BKN055 BKN065 21/14 A2965 RMK AO2 T02100137,KPDC,2022-10-24T19:35:00Z,43.02,-91.12,21.0,13.7,150,8,,10.0,29.648623,,,TRUE,TRUE,,,,,,,BKN,3800,BKN,5500,BKN,6500,,,VFR,,,,,,,,,,,,SPECI,201.0
KPCZ 241935Z AUTO 17008KT 10SM SCT050 SCT070 21/14 A2973 RMK AO2 T02120142,KPCZ,2022-10-24T19:35:00Z,44.33,-89.02,21.2,14.2,170,8,,10.0,29.731298,,,TRUE,TRUE,,,,,,,SCT,5000,SCT,7000,,,,,VFR,,,,,,,,,,,,METAR,248.0
KPCW 241935Z AUTO 19011G16KT 10SM CLR 25/06 A3003 RMK AO2,KPCW,2022-10-24T19:35:00Z,41.52,-82.87,25.0,6.0,190,11,16,10.0,30.029528,,,TRUE,TRUE,,,,,,,CLR,,,,,,,,VFR,,,,,,,,,,,,METAR,179.0
KPCM 241935Z AUTO 12005KT 10SM CLR 31/19 A3005 RMK AO2,KPCM,2022-10-24T19:35:00Z,28.0,-82.17,31.0,19.0,120,5,,10.0,30.050198,,,TRUE,TRUE,,,,,,,CLR,,,,,,,,VFR,,,,,,,,,,,,METAR,43.0
KPBH 241935Z AUTO 18010G16KT 10SM -DZ OVC012 16/16 A2963 RMK AO2 P0001 T01630163,KPBH,2022-10-24T19:35:00Z,45.7,-90.4,16.3,16.3,180,10,16,10.0,29.630905,,,TRUE,TRUE,,,,,,-DZ,OVC,1200,,,,,,,MVFR,,,,,,0.01,,,,,,SPECI,445.0
KPAN 241935Z AUTO 36011G17KT 10SM CLR 11/M14 A3016 RMK AO2 PWINO TSNO,KPAN,2022-10-24T19:35:00Z,34.25,-111.33,11.0,-14.0,360,11,17,10.0,30.159449,,,TRUE,TRUE,,,TRUE,,TRUE,,CLR,,,,,,,,VFR,,,,,,,,,,,,METAR,1575.0
KP08 241935Z AUTO VRB03G11KT 10SM CLR 18/M05 A3013 RMK AO2,KP08,2022-10-24T19:35:00Z,32.93,-111.43,18.0,-5.0,0,3,11,10.0,30.129921,,,TRUE,TRUE,,,,,,,CLR,,,,,,,,VFR,,,,,,,,,,,,METAR,477.0
KOZW 241935Z AUTO 18013G18KT 10SM CLR 25/06 A3000 RMK AO2 T02480059,KOZW,2022-10-24T19:35:00Z,42.62,-83.98,24.8,5.9,180,13,18,10.0,30.0,,,TRUE,TRUE,,,,,,,CLR,,,,,,,,VFR,,,,,,,,,,,,METAR,288.0
KOZS 241935Z AUTO 16013G19KT 10SM -RA OVC021 20/15 A2973 RMK AO2,KOZS,2022-10-24T19:35:00Z,37.97,-92.68,20.0,15.0,160,13,19,10.0,29.731298,,,TRUE,TRUE,,,,,,-RA,OVC,2100,,,,,,,MVFR,,,,,,,,,,,,METAR,321.0
KOXV 241935Z AUTO 31013KT 1 1/2SM +RA SCT004 BKN007 OVC023 11/10 A2970 RMK AO2,KOXV,2022-10-24T19:35:00Z,41.28,-93.12,11.0,10.0,310,13,,1.5,29.698818,,,TRUE,TRUE,,,,,,+RA,SCT,400,BKN,700,OVC,2300,,,IFR,,,,,,,,,,,,METAR,280.0
KOXI 241935Z AUTO 16012G16KT 10SM CLR 23/10 A2992 RMK AO1,KOXI,2022-10-24T19:35:00Z,41.33,-86.67,23.0,10.0,160,12,16,10.0,29.920275,,,TRUE,TRUE,,,,,,,CLR,,,,,,,,VFR,,,,,,,,,,,,METAR,208.0
KOXD 241935Z AUTO 00000KT 10SM CLR 25/00 A3003 RMK AO2 T02511003,KOXD,2022-10-24T19:35:00Z,39.5,-84.78,25.1,-0.3,0,0,,10.0,30.029528,,,TRUE,TRUE,,,,,,,CLR,,,,,,,,VFR,,,,,,,,,,,,METAR,317.0
KOWD 241935Z VRB06KT 1 3/4SM -TSRA BR OVC003 16/15 A3021 RMK AO2 RAB29 TSB34 P0009 T01560150,KOWD,2022-10-24T19:35:00Z,42.18,-71.17,15.6,15.0,0,6,,1.75,30.209646,,,,TRUE,,,,,,-TSRA BR,OVC,300,,,,,,,LIFR,,,,,,0.09,,,,,,SPECI,14.0
KOVL 241935Z AUTO 23012G16KT 10SM CLR 09/00 A2966 RMK AO2,KOVL,2022-10-24T19:35:00Z,44.78,-95.03,9.0,0.0,230,12,16,10.0,29.660433,,,TRUE,TRUE,,,,,,,CLR,,,,,,,,VFR,,,,,,,,,,,,METAR,329.0
KOSC 241935Z AUTO 17011G17KT 10SM CLR 24/07 A2996 RMK AO2 T02360074,KOSC,2022-10-24T19:35:00Z,44.45,-83.4,23.6,7.4,170,11,17,10.0,29.958662,,,TRUE,TRUE,,,,,,,CLR,,,,,,,,VFR,,,,,,,,,,,,METAR,191.0
KORS 241935Z AUTO 18009KT 10SM FEW050 14/09 A2990 RMK AO2,KORS,2022-10-24T19:35:00Z,48.7,-122.92,14.0,9.0,180,9,,10.0,29.899607,,,TRUE,TRUE,,,,,,,FEW,5000,,,,,,,VFR,,,,,,,,,,,,METAR,7.0
KONZ 241935Z AUTO 15009KT 10SM CLR 22/01 A3003 RMK AO2 T02200011,KONZ,2022-10-24T19:35:00Z,42.1,-83.15,22.0,1.1,150,9,,10.0,30.029528,,,TRUE,TRUE,,,,,,,CLR,,,,,,,,VFR,,,,,,,,,,,,METAR,179.0
KONM 241935Z AUTO 31018G25KT 10SM SCT065 SCT075 BKN085 10/M05 A2998 RMK AO2 T01031051,KONM,2022-10-24T19:35:00Z,34.02,-106.9,10.3,-5.1,310,18,25,10.0,29.97933,,,TRUE,TRUE,,,,,,,SCT,6500,SCT,7500,BKN,8500,,,VFR,,,,,,,,,,,,METAR,1467.0
KOMH 241935Z AUTO 01005KT 10SM CLR 22/12 A3011 RMK AO2,KOMH,2022-10-24T19:35:00Z,38.25,-78.05,22.0,12.0,10,5,,10.0,30.109253,,,TRUE,TRUE,,,,,,,CLR,,,,,,,,VFR,,,,,,,,,,,,METAR,136.0
KOLG 241935Z AUTO 21010G18KT 10SM SCT110 17/05 A2957 RMK AO1,KOLG,2022-10-24T19:35:00Z,46.3,-91.82,17.0,5.0,210,10,18,10.0,29.568897,,,TRUE,TRUE,,,,,,,SCT,11000,,,,,,,VFR,,,,,,,,,,,,METAR,334.0
KOKV 241935Z AUTO 07003KT 7SM BKN039 20/12 A3009 RMK AO2,KOKV,2022-10-24T19:35:00Z,39.13,-78.15,20.0,12.0,70,3,,7.0,30.088583,,,TRUE,TRUE,,,,,,,BKN,3900,,,,,,,VFR,,,,,,,,,,,,METAR,213.0
KOJA 241935Z AUTO 06011KT 10SM SCT016 BKN043 OVC060 14/10 A2975 RMK AO2 T01440097,KOJA,2022-10-24T19:35:00Z,35.55,-98.67,14.4,9.7,60,11,,10.0,29.749016,,,TRUE,TRUE,,,,,,,SCT,1600,BKN,4300,OVC,6000,,,VFR,,,,,,,,,,,,METAR,490.0
KOIN 241935Z AUTO 34020G33KT 10SM CLR 13/M04 A2983 RMK AO1 T01341042,KOIN,2022-10-24T19:35:00Z,39.83,-100.53,13.4,-4.2,340,20,33,10.0,29.828741,,,TRUE,TRUE,,,,,,,CLR,,,,,,,,VFR,,,,,,,,,,,,METAR,810.0
KOIC 241935Z AUTO 18004KT 10SM OVC011 15/13 A3018 RMK AO2 T01500131,KOIC,2022-10-24T19:35:00Z,42.57,-75.52,15.0,13.1,180,4,,10.0,30.180119,,,TRUE,TRUE,,,,,,,OVC,1100,,,,,,,MVFR,,,,,,,,,,,,SPECI,311.0
KOEO 241935Z AUTO 21008KT 10SM -RA OVC090 13/10 A2967 RMK AO2 T01300095,KOEO,2022-10-24T19:35:00Z,45.32,-92.7,13.0,9.5,210,8,,10.0,29.66929,,,TRUE,TRUE,,,,,,-RA,OVC,9000,,,,,,,VFR,,,,,,,,,,,,METAR,269.0
KOEB 241935Z AUTO 16010G16KT 10SM CLR 24/11 A2998 RMK AO2 T02400108,KOEB,2022-10-24T19:35:00Z,41.92,-85.05,24.0,10.8,160,10,16,10.0,29.97933,,,TRUE,TRUE,,,,,,,CLR,,,,,,,,VFR,,,,,,,,,,,,METAR,291.0
KOCQ 241935Z AUTO 16010G15KT 10SM CLR 17/13 A2974 RMK AO1 T01700130,KOCQ,2022-10-24T19:35:00Z,44.87,-87.92,17.0,13.0,160,10,15,10.0,29.740158,,,TRUE,TRUE,,,,,,,CLR,,,,,,,,VFR,,,,,,,,,,,,METAR,181.0
KOAR 241935Z AUTO 00000KT 10SM CLR A3021 RMK AO2,KOAR,2022-10-24T19:35:00Z,36.67,-121.77,,,0,0,,10.0,30.209646,,,TRUE,TRUE,,,,,,,CLR,,,,,,,,VFR,,,,,,,,,,,,METAR,41.0
KO69 241935Z AUTO 27006KT 10SM CLR 22/M02 A3021 RMK A01,KO69,2022-10-24T19:35:00Z,38.25,-122.6,22.0,-2.0,270,6,,10.0,30.209646,,,TRUE,TRUE,,,,,,,CLR,,,,,,,,VFR,,,,,,,,,,,,METAR,26.0
KO32 241935Z AUTO 17007KT 130V190 10SM CLR 20/M00 A3021 RMK AO2 T01981001 $,KO32,2022-10-24T19:35:00Z,36.67,-119.45,19.8,-0.1,170,7,,10.0,30.209646,,,TRUE,TRUE,TRUE,,,,,,CLR,,,,,,,,VFR,,,,,,,,,,,,METAR,117.0
KO22 241935Z AUTO 22005KT 10SM CLR 19/M06 A3022 RMK A01,KO22,2022-10-24T19:35:00Z,38.03,-120.42,19.0,-6.0,220,5,,10.0,30.221457,,,TRUE,TRUE,,,,,,,CLR,,,,,,,,VFR,,,,,,,,,,,,METAR,637.0
KO05 241935Z AUTO 10004KT 10SM CLR 10/M07 A3025 RMK A01,KO05,2022-10-24T19:35:00Z,40.28,-121.23,10.0,-7.0,100,4,,10.0,30.250984,,,TRUE,TRUE,,,,,,,CLR,,,,,,,,VFR,,,,,,,,,,,,METAR,1380.0
KNUQ 241935Z AUTO 32004KT 10SM CLR 22/M04 A3021 RMK AO2,KNUQ,2022-10-24T19:35:00Z,37.4,-122.05,22.0,-4.0,320,4,,10.0,30.209646,,,TRUE,TRUE,,,,,,,CLR,,,,,,,,VFR,,,,,,,,,,,,SPECI,9.0
KN38 241935Z AUTO VRB06KT 10SM OVC027 17/13 A3014 RMK AO2,KN38,2022-10-24T19:35:00Z,41.73,-77.4,17.0,13.0,0,6,,10.0,30.138779,,,TRUE,TRUE,,,,,,,OVC,2700,,,,,,,MVFR,,,,,,,,,,,,METAR,576.0
KMZH 241935Z AUTO 22012G20KT 10SM CLR 14/05 A2956 RMK AO2,KMZH,2022-10-24T19:35:00Z,46.42,-92.8,14.0,5.0,220,12,20,10.0,29.56004,,,TRUE,TRUE,,,,,,,CLR,,,,,,,,VFR,,,,,,,,,,,,METAR,331.0
KMYJ 241935Z AUTO 15013G21KT 10SM BKN031 BKN060 22/16 A2972 RMK AO2,KMYJ,2022-10-24T19:35:00Z,39.15,-91.82,22.0,16.0,150,13,21,10.0,29.719488,,,TRUE,TRUE,,,,,,,BKN,3100,BKN,6000,,,,,VFR,,,,,,,,,,,,SPECI,249.0
KMWM 241935Z AUTO 22012KT 10SM CLR 08/00 A2969 RMK AO2,KMWM,2022-10-24T19:35:00Z,43.9,-95.1,8.0,0.0,220,12,,10.0,29.68996,,,TRUE,TRUE,,,,,,,CLR,,,,,,,,VFR,,,,,,,,,,,,METAR,427.0
KMVH 241935Z AUTO 30013G20KT 10SM CLR 06/M07 A2975 RMK AO2 PWINO,KMVH,2022-10-24T19:35:00Z,46.83,-108.93,6.0,-7.0,300,13,20,10.0,29.749016,,,TRUE,TRUE,,,,,TRUE,,CLR,,,,,,,,VFR,,,,,,,,,,,,METAR,1352.0
KMVE 241935Z AUTO 25010G21KT 10SM CLR 08/01 A2965 RMK AO2,KMVE,2022-10-24T19:35:00Z,44.97,-95.72,8.0,1.0,250,10,21,10.0,29.648623,,,TRUE,TRUE,,,,,,,CLR,,,,,,,,VFR,,,,,,,,,,,,METAR,319.0
KMUT 241935Z AUTO 16016G21KT 10SM BKN035 BKN055 23/16 A2967 RMK AO2,KMUT,2022-10-24T19:35:00Z,41.37,-91.15,23.0,16.0,160,16,21,10.0,29.66929,,,TRUE,TRUE,,,,,,,BKN,3500,BKN,5500,,,,,VFR,,,,,,,,,,,,METAR,166.0
KMTV 241935Z AUTO 00000KT 10SM CLR 24/02 A3014 RMK AO2 T02440021,KMTV,2022-10-24T19:35:00Z,36.63,-80.02,24.4,2.1,0,0,,10.0,30.138779,,,TRUE,TRUE,,,,,,,CLR,,,,,,,,VFR,,,,,,,,,,,,METAR,276.0
KMRN 241935Z AUTO 00000KT 10SM CLR 25/06 A3016 RMK AO2 T02510057,KMRN,2022-10-24T19:35:00Z,35.82,-81.62,25.1,5.7,0,0,,10.0,30.159449,,,TRUE,TRUE,,,,,,,CLR,,,,,,,,VFR,,,,,,,,,,,,SPECI,375.0
KMRJ 241935Z AUTO 16011G15KT 10SM SCT030 BKN050 OVC065 20/12 A2972 RMK AO2,KMRJ,2022-10-24T19:35:00Z,42.88,-90.23,20.0,12.0,160,11,15,10.0,29.719488,,,TRUE,TRUE,,,,,,,SCT,3000,BKN,5000,OVC,6500,,,VFR,,,,,,,,,,,,METAR,350.0
KMQJ 241935Z AUTO 16007G16KT 10SM CLR 23/09 A2999 RMK AO1,KMQJ,2022-10-24T19:35:00Z,39.85,-85.9,23.0,9.0,160,7,16,10.0,29.991142,,,TRUE,TRUE,,,,,,,CLR,,,,,,,,VFR,,,,,,,,,,,,METAR,262.0
KMOR 241935Z AUTO 00000KT 10SM CLR 24/03 A3009 RMK A01,KMOR,2022-10-24T19:35:00Z,36.18,-83.37,24.0,3.0,0,0,,10.0,30.088583,,,TRUE,TRUE,,,,,,,CLR,,,,,,,,VFR,,,,,,,,,,,,METAR,393.0
KMNZ 241935Z AUTO 10006KT 10SM BKN029 OVC034 19/17 A2976 RMK AO2 T01910172,KMNZ,2022-10-24T19:35:00Z,31.67,-98.15,19.1,17.2,100,6,,10.0,29.760826,,,TRUE,TRUE,,,,,,,BKN,2900,OVC,3400,,,,,MVFR,,,,,,,,,,,,METAR,397.0
KMNV 241935Z AUTO 00000G10KT 10SM 26/05 A3008 RMK A01,KMNV,2022-10-24T19:35:00Z,35.55,-84.38,26.0,5.0,0,0,10,10.0,30.079725,,,TRUE,TRUE,,,,,,,,,,,,,,,,,,,,,,,,,,,METAR,306.0
KMNI 241935Z AUTO 01005KT 10SM CLR 22/10 A3012 RMK AO2,KMNI,2022-10-24T19:35:00Z,33.58,-80.22,22.0,10.0,10,5,,10.0,30.121063,,,TRUE,TRUE,,,,,,,CLR,,,,,,,,VFR,,,,,,,,,,,,METAR,29.0
KMNE 241935Z AUTO 14007G15KT 090V170 10SM BKN060 OVC085 26/19 A2984 RMK AO2 T02630188,KMNE,2022-10-24T19:35:00Z,32.65,-93.3,26.3,18.8,140,7,15,10.0,29.840551,,,TRUE,TRUE,,,,,,,BKN,6000,OVC,8500,,,,,VFR,,,,,,,,,,,,METAR,84.0
KMMI 241935Z AUTO VRB03KT 10SM CLR 25/06 A3010 RMK A01,KMMI,2022-10-24T19:35:00Z,35.4,-84.57,25.0,6.0,0,3,,10.0,30.100393,,,TRUE,TRUE,,,,,,,CLR,,,,,,,,VFR,,,,,,,,,,,,METAR,252.0
KMKO 241935Z AUTO 34009KT 1 1/4SM +RA BR SCT008 BKN029 OVC060 14/13 A2975 RMK AO2 P0026 T01390133,KMKO,2022-10-24T19:35:00Z,35.65,-95.37,13.9,13.3,340,9,,1.25,29.749016,,,TRUE,TRUE,,,,,,+RA BR,SCT,800,BKN,2900,OVC,6000,,,IFR,,,,,,0.26,,,,,,SPECI,184.0
KMKN 241935Z AUTO 13006KT 10SM SCT013 BKN046 BKN050 21/20 A2975 RMK AO2 T02080198,KMKN,2022-10-24T19:35:00Z,31.92,-98.6,20.8,19.8,130,6,,10.0,29.749016,,,TRUE,TRUE,,,,,,,SCT,1300,BKN,4600,BKN,5000,,,VFR,,,,,,,,,,,,METAR,428.0
KMKJ 241935Z AUTO 00000KT 10SM CLR 23/02 A3017 RMK AO2 T02340015,KMKJ,2022-10-24T19:35:00Z,36.88,-81.33,23.4,1.5,0,0,,10.0,30.171259,,,TRUE,TRUE,,,,,,,CLR,,,,,,,,VFR,,,,,,,,,,,,METAR,777.0
KMIO 241935Z AUTO 33016G21KT 2 1/2SM RA FEW003 FEW009 SCT023 13/13 A2970 RMK AO2,KMIO,2022-10-24T19:35:00Z,36.92,-94.88,13.0,13.0,330,16,21,2.5,29.698818,,,TRUE,TRUE,,,,,,RA,FEW,300,FEW,900,SCT,2300,,,IFR,,,,,,,,,,,,METAR,245.0
KMHL 241935Z AUTO 15011KT 3SM +RA BKN008 BKN012 OVC022 18/18 A2967 RMK AO2 P0001,KMHL,2022-10-24T19:35:00Z,39.1,-93.2,18.0,18.0,150,11,,3.0,29.66929,,,TRUE,TRUE,,,,,,+RA,BKN,800,BKN,1200,OVC,2200,,,IFR,,,,,,0.01,,,,,,METAR,236.0
KMGN 241935Z AUTO 18004KT 10SM CLR 22/12 A2986 RMK AO2 T02200128,KMGN,2022-10-24T19:35:00Z,45.43,-84.92,22.0,12.8,180,4,,10.0,29.861221,,,TRUE,TRUE,,,,,,,CLR,,,,,,,,VFR,,,,,,,,,,,,METAR,205.0
KMGG 241935Z AUTO 20005KT 10SM CLR 11/03 A2967 RMK AO2 T01120028 PWINO,KMGG,2022-10-24T19:35:00Z,45.23,-93.98,11.2,2.8,200,5,,10.0,29.66929,,,TRUE,TRUE,,,,,TRUE,,CLR,,,,,,,,VFR,,,,,,,,,,,,METAR,310.0
KMEZ 241935Z AUTO 14008KT 080V220 10SM FEW060 BKN110 BKN130 24/16 A2973 RMK AO2 T02390163,KMEZ,2022-10-24T19:35:00Z,34.55,-94.2,23.9,16.3,140,8,,10.0,29.731298,,,TRUE,TRUE,,,,,,,FEW,6000,BKN,11000,BKN,13000,,,VFR,,,,,,,,,,,,METAR,320.0
KMEV 241935Z AUTO VRB04KT 10SM CLR 10/M11 A3026 RMK AO2,KMEV,2022-10-24T19:35:00Z,38.98,-119.75,10.0,-11.0,0,4,,10.0,30.259842,,,TRUE,TRUE,,,,,,,CLR,,,,,,,,VFR,,,,,,,,,,,,METAR,1437.0
KMDZ 241935Z AUTO 17011KT 10SM OVC026 17/17 A2967 RMK AO2 T01650165 PWINO,KMDZ,2022-10-24T19:35:00Z,45.1,-90.3,16.5,16.5,170,11,,10.0,29.66929,,,TRUE,TRUE,,,,,TRUE,,OVC,2600,,,,,,,MVFR,,,,,,,,,,,,METAR,446.0
KMDS 241935Z AUTO 26018G24KT 10SM CLR 08/M01 A2965 RMK AO2,KMDS,2022-10-24T19:35:00Z,44.02,-97.08,8.0,-1.0,260,18,24,10.0,29.648623,,,TRUE,TRUE,,,,,,,CLR,,,,,,,,VFR,,,,,,,,,,,,METAR,524.0
KMCJ 241935Z AUTO 16018G28KT 120V190 6SM HZ SCT035 BKN045 OVC050 26/20 A2977 RMK A01,KMCJ,2022-10-24T19:35:00Z,29.72,-95.4,26.0,20.0,160,18,28,6.0,29.769686,,,TRUE,TRUE,,,,,,HZ,SCT,3500,BKN,4500,OVC,5000,,,VFR,,,,,,,,,,,,SPECI,70.0
KMCD 241935Z AUTO 09009G14KT 10SM CLR 12/09 A2988 RMK AO2 T01170086,KMCD,2022-10-24T19:35:00Z,45.85,-84.63,11.7,8.6,90,9,14,10.0,29.878937,,,TRUE,TRUE,,,,,,,CLR,,,,,,,,VFR,,,,,,,,,,,,METAR,228.0
KMCC 241935Z AUTO 00000KT 10SM CLR 19/M05 A3020 RMK AO2,KMCC,2022-10-24T19:35:00Z,38.67,-121.4,19.0,-5.0,0,0,,10.0,30.200787,,,TRUE,TRUE,,,,,,,CLR,,,,,,,,VFR,,,,,,,,,,,,SPECI,21.0
KMBY 241935Z AUTO 17011G17KT 10SM -RA SCT030 21/16 A2968 RMK AO2,KMBY,2022-10-24T19:35:00Z,39.47,-92.43,21.0,16.0,170,11,17,10.0,29.681103,,,TRUE,TRUE,,,,,,-RA,SCT,3000,,,,,,,VFR,,,,,,,,,,,,METAR,263.0
KMBT 241935Z AUTO 18010G16KT 160V220 10SM CLR 26/04 A3001 RMK A01,KMBT,2022-10-24T19:35:00Z,35.88,-86.38,26.0,4.0,180,10,16,10.0,30.008858,,,TRUE,TRUE,,,,,,,CLR,,,,,,,,VFR,,,,,,,,,,,,METAR,187.0
KMBO 241935Z AUTO VRB05G12KT 9SM SCT055 27/14 A2994 RMK AO2,KMBO,2022-10-24T19:35:00Z,32.43,-90.1,27.0,14.0,0,5,12,9.0,29.940945,,,TRUE,TRUE,,,,,,,SCT,5500,,,,,,,VFR,,,,,,,,,,,,METAR,98.0
KMAW 241935Z AUTO 17015G20KT 10SM OVC050 26/12 A2990 RMK AO1,KMAW,2022-10-24T19:35:00Z,36.6,-90.0,26.0,12.0,170,15,20,10.0,29.899607,,,TRUE,TRUE,,,,,,,OVC,5000,,,,,,,VFR,,,,,,,,,,,,METAR,88.0
KMAO 241935Z AUTO 27005KT 10SM CLR 19/12 A3013 RMK AO2,KMAO,2022-10-24T19:35:00Z,34.18,-79.33,19.0,12.0,270,5,,10.0,30.129921,,,TRUE,TRUE,,,,,,,CLR,,,,,,,,VFR,,,,,,,,,,,,METAR,27.0
KMAN 241935Z AUTO 13007KT 10SM CLR 10/M03 A3015 RMK A01,KMAN,2022-10-24T19:35:00Z,43.58,-116.52,10.0,-3.0,130,7,,10.0,30.15059,,,TRUE,TRUE,,,,,,,CLR,,,,,,,,VFR,,,,,,,,,,,,METAR,773.0
KM91 241935Z AUTO 15011KT 120V180 10SM CLR 26/04 A2998 RMK A01,KM91,2022-10-24T19:35:00Z,36.53,-86.92,26.0,4.0,150,11,,10.0,29.97933,,,TRUE,TRUE,,,,,,,CLR,,,,,,,,VFR,,,,,,,,,,,,METAR,214.0
KM75 241935Z AUTO 00000KT 10SM CLR 02/M00 A2973 RMK A01,KM75,2022-10-24T19:35:00Z,48.37,-107.92,2.0,0.0,0,0,,10.0,29.731298,,,TRUE,TRUE,,,,,,,CLR,,,,,,,,VFR,,,,,,,,,,,,METAR,687.0
KM40 241935Z AUTO 15010G18KT 130V190 10SM CLR 26/14 A2998 RMK AO2,KM40,2022-10-24T19:35:00Z,33.87,-88.48,26.0,14.0,150,10,18,10.0,29.97933,,,TRUE,TRUE,,,,,,,CLR,,,,,,,,VFR,,,,,,,,,,,,METAR,68.0
KM30 241935Z AUTO 16009G18KT 130V200 10SM CLR 27/M01 A2992 RMK AO2 T02671007,KM30,2022-10-24T19:35:00Z,37.18,-88.75,26.7,-0.7,160,9,18,10.0,29.920275,,,TRUE,TRUE,,,,,,,CLR,,,,,,,,VFR,,,,,,,,,,,,METAR,116.0
KM25 241935Z AUTO 17011G19KT 10SM CLR 27/03 A2995 RMK AO2 PWINO,KM25,2022-10-24T19:35:00Z,36.77,-88.58,27.0,3.0,170,11,19,10.0,29.949802,,,TRUE,TRUE,,,,,TRUE,,CLR,,,,,,,,VFR,,,,,,,,,,,,SPECI,157.0
KM21 241935Z AUTO 17011G21KT 10SM CLR 26/05 A2997 RMK AO2 T02630048,KM21,2022-10-24T19:35:00Z,37.22,-87.15,26.3,4.8,170,11,21,10.0,29.970472,,,TRUE,TRUE,,,,,,,CLR,,,,,,,,VFR,,,,,,,,,,,,METAR,127.0
KM08 241935Z AUTO 16012G19KT 140V210 10SM CLR 25/14 A2994 RMK A01,KM08,2022-10-24T19:35:00Z,35.22,-89.05,25.0,14.0,160,12,19,10.0,29.940945,,,TRUE,TRUE,,,,,,,CLR,,,,,,,,VFR,,,,,,,,,,,,METAR,149.0
KM04 241935Z AUTO 18008G15KT 140V210 10SM CLR 24/15 A2992 RMK A01,KM04,2022-10-24T19:35:00Z,35.58,-89.58,24.0,15.0,180,8,15,10.0,29.920275,,,TRUE,TRUE,,,,,,,CLR,,,,,,,,VFR,,,,,,,,,,,,METAR,83.0
KM02 241935Z AUTO 19007G16KT 140V200 10SM 27/05 A2998 RMK A01,KM02,2022-10-24T19:35:00Z,36.13,-87.43,27.0,5.0,190,7,16,10.0,29.97933,,,TRUE,TRUE,,,,,,,,,,,,,,,,,,,,,,,,,,,METAR,268.0
KM01 241935Z AUTO 16013KT 9SM BKN040 25/16 A2989 RMK AO2 T02490165 $,KM01,2022-10-24T19:35:00Z,35.2,-90.05,24.9,16.5,160,13,,9.0,29.890747,,,TRUE,TRUE,TRUE,,,,,,BKN,4000,,,,,,,VFR,,,,,,,,,,,,METAR,69.0
KLYV 241935Z AUTO 27016G19KT 10SM CLR 07/M01 A2970 RMK AO2,KLYV,2022-10-24T19:35:00Z,43.62,-96.22,7.0,-1.0,270,16,19,10.0,29.698818,,,TRUE,TRUE,,,,,,,CLR,,,,,,,,VFR,,,,,,,,,,,,METAR,435.0
KLYO 241935Z AUTO 34017KT 10SM SCT100 12/02 A2977 RMK AO2 T01190020,KLYO,2022-10-24T19:35:00Z,38.35,-98.23,11.9,2.0,340,17,,10.0,29.769686,,,TRUE,TRUE,,,,,,,SCT,10000,,,,,,,VFR,,,,,,,,,,,,METAR,515.0
KLXY 241935Z AUTO 16010G18KT 10SM OVC032 23/21 A2973 RMK AO2 T02300206,KLXY,2022-10-24T19:35:00Z,31.63,-96.52,23.0,20.6,160,10,18,10.0,29.731298,,,TRUE,TRUE,,,,,,,OVC,3200,,,,,,,VFR,,,,,,,,,,,,METAR,164.0
KLXL 241935Z AUTO 22012G21KT 10SM CLR 10/03 A2961 RMK AO2,KLXL,2022-10-24T19:35:00Z,45.95,-94.33,10.0,3.0,220,12,21,10.0,29.610237,,,TRUE,TRUE,,,,,,,CLR,,,,,,,,VFR,,,,,,,,,,,,METAR,335.0
KLWA 241935Z AUTO 16006G15KT 10SM CLR 23/11 A2990 RMK AO2 T02310114,KLWA,2022-10-24T19:35:00Z,42.35,-86.25,23.1,11.4,160,6,15,10.0,29.899607,,,TRUE,TRUE,,,,,,,CLR,,,,,,,,VFR,,,,,,,,,,,,METAR,199.0
KLVL 241935Z AUTO 07004KT 10SM CLR 24/14 A3010 RMK AO1 T02380138,KLVL,2022-10-24T19:35:00Z,36.78,-77.8,23.8,13.8,70,4,,10.0,30.100393,,,TRUE,TRUE,,,,,,,CLR,,,,,,,,VFR,,,,,,,,,,,,METAR,98.0
KLUX 241935Z AUTO 00000KT 10SM CLR 23/04 A3012 RMK AO2,KLUX,2022-10-24T19:35:00Z,34.5,-81.95,23.0,4.0,0,0,,10.0,30.121063,,,TRUE,TRUE,,,,,,,CLR,,,,,,,,VFR,,,,,,,,,,,,METAR,213.0
KLUM 241935Z AUTO 21008KT 7SM OVC028 15/13 A2968 RMK AO2 P0001 T01470134 PWINO,KLUM,2022-10-24T19:35:00Z,44.9,-91.87,14.7,13.4,210,8,,7.0,29.681103,,,TRUE,TRUE,,,,,TRUE,,OVC,2800,,,,,,,MVFR,,,,,,0.01,,,,,,METAR,271.0
KLUG 241935Z AUTO 15009KT 10SM CLR 26/03 A3001 RMK A01,KLUG,2022-10-24T19:35:00Z,35.52,-86.8,26.0,3.0,150,9,,10.0,30.008858,,,TRUE,TRUE,,,,,,,CLR,,,,,,,,VFR,,,,,,,,,,,,METAR,218.0
KLRY 241935Z AUTO 33009KT 5SM RA BKN005 OVC010 12/11 A2975 RMK AO2 P0006,KLRY,2022-10-24T19:35:00Z,38.62,-94.35,12.0,11.0,330,9,,5.0,29.749016,,,TRUE,TRUE,,,,,,RA,BKN,500,OVC,1000,,,,,IFR,,,,,,0.06,,,,,,METAR,272.0
KLRU 241935Z AUTO 30013G25KT 10SM BKN080 BKN090 13/M05 A3002 RMK AO2 T01251054,KLRU,2022-10-24T19:35:00Z,32.28,-106.92,12.5,-5.4,300,13,25,10.0,30.02067,,,TRUE,TRUE,,,,,,,BKN,8000,BKN,9000,,,,,VFR,,,,,,,,,,,,METAR,1355.0
KLRO 241935Z AUTO 00000KT 9SM CLR 24/11 A3010 RMK AO2,KLRO,2022-10-24T19:35:00Z,32.9,-79.78,24.0,11.0,0,0,,9.0,30.100393,,,TRUE,TRUE,,,,,,,CLR,,,,,,,,VFR,,,,,,,,,,,,METAR,3.0
KLQK 241935Z AUTO 10SM CLR 24/03 A3012 RMK AO2 T02410034,KLQK,2022-10-24T19:35:00Z,34.82,-82.7,24.1,3.4,,,,10.0,30.121063,,,TRUE,TRUE,,,,,,,CLR,,,,,,,,VFR,,,,,,,,,,,,SPECI,291.0
KLNQ 241935Z AUTO 15008KT 10SM CLR 31/18 A2999 RMK AO2 T03090180,KLNQ,2022-10-24T19:35:00Z,29.35,-89.43,30.9,18.0,150,8,,10.0,29.991142,,,TRUE,TRUE,,,,,,,CLR,,,,,,,,VFR,,,,,,,,,,,,METAR,1.0
KLNP 241935Z AUTO 15004KT 10SM CLR 21/02 A3016 RMK AO2,KLNP,2022-10-24T19:35:00Z,36.98,-82.52,21.0,2.0,150,4,,10.0,30.159449,,,TRUE,TRUE,,,,,,,CLR,,,,,,,,VFR,,,,,,,,,,,,METAR,817.0
KLNL 241935Z AUTO 17009G16KT 140V200 10SM OVC016 18/14 A2969 RMK AO2 T01750137,KLNL,2022-10-24T19:35:00Z,46.15,-89.22,17.5,13.7,170,9,16,10.0,29.68996,,,TRUE,TRUE,,,,,,,OVC,1600,,,,,,,MVFR,,,,,,,,,,,,METAR,517.0
KLNC 241935Z AUTO 36007KT 7SM DZ BKN037 OVC047 17/16 A2977 RMK AO2 P0001 T01710160,KLNC,2022-10-24T19:35:00Z,32.58,-96.72,17.1,16.0,360,7,,7.0,29.769686,,,TRUE,TRUE,,,,,,DZ,BKN,3700,OVC,4700,,,,,VFR,,,,,,0.01,,,,,,METAR,152.0
KLNA 241935Z AUTO 05007KT 10SM CLR 29/20 A3002 RMK AO2 T02900203 PNO,KLNA,2022-10-24T19:35:00Z,26.6,-80.08,29.0,20.3,50,7,,10.0,30.02067,,,TRUE,TRUE,,,,,,,CLR,,,,,,,,VFR,,,,,,,,,,,,METAR,3.0
KLKU 241935Z AUTO 04006KT 10SM CLR 22/13 A3010 RMK AO2 T02250129,KLKU,2022-10-24T19:35:00Z,38.02,-77.97,22.5,12.9,40,6,,10.0,30.100393,,,TRUE,TRUE,,,,,,,CLR,,,,,,,,VFR,,,,,,,,,,,,METAR,146.0
KLKR 241935Z AUTO 27003KT 10SM CLR 23/09 A3013 RMK AO2,KLKR,2022-10-24T19:35:00Z,34.72,-80.85,23.0,9.0,270,3,,10.0,30.129921,,,TRUE,TRUE,,,,,,,CLR,,,,,,,,VFR,,,,,,,,,,,,METAR,166.0
KLJF 241935Z AUTO 23006KT 10SM CLR 09/01 A2965 RMK AO2,KLJF,2022-10-24T19:35:00Z,45.1,-94.52,9.0,1.0,230,6,,10.0,29.648623,,,TRUE,TRUE,,,,,,,CLR,,,,,,,,VFR,,,,,,,,,,,,METAR,347.0
KLHZ 241935Z AUTO 01004KT 10SM CLR 22/13 A3012 RMK AO2,KLHZ,2022-10-24T19:35:00Z,36.02,-78.33,22.0,13.0,10,4,,10.0,30.121063,,,TRUE,TRUE,,,,,,,CLR,,,,,,,,VFR,,,,,,,,,,,,SPECI,104.0
KLDM 241935Z AUTO 17012G17KT 10SM CLR 22/12 A2983 RMK AO2 T02230121,KLDM,2022-10-24T19:35:00Z,43.97,-86.4,22.3,12.1,170,12,17,10.0,29.828741,,,TRUE,TRUE,,,,,,,CLR,,,,,,,,VFR,,,,,,,,,,,,METAR,194.0
KLDJ 241935Z AUTO 06005KT 3SM BR OVC006 15/14 A3014 RMK AO2 T01530142,KLDJ,2022-10-24T19:35:00Z,40.62,-74.25,15.3,14.2,60,5,,3.0,30.138779,,,TRUE,TRUE,,,,,,BR,OVC,600,,,,,,,IFR,,,,,,,,,,,,METAR,6.0
KLCI 241935Z AUTO 05003KT 3SM RA BR SCT020 BKN047 OVC085 14/14 A3025 RMK AO2 P0014,KLCI,2022-10-24T19:35:00Z,43.57,-71.42,14.0,14.0,50,3,,3.0,30.250984,,,TRUE,TRUE,,,,,,RA BR,SCT,2000,BKN,4700,OVC,8500,,,MVFR,,,,,,0.14,,,,,,SPECI,166.0
KLCG 241935Z AUTO 30012G16KT 10SM CLR 10/M03 A2972 RMK AO2 T00981031,KLCG,2022-10-24T19:35:00Z,42.25,-96.98,9.8,-3.1,300,12,16,10.0,29.719488,,,TRUE,TRUE,,,,,,,CLR,,,,,,,,VFR,,,,,,,,,,,,METAR,434.0
KLBO 241935Z AUTO 16014G25KT 123V183 10SM OVC018 20/15 A2975 RMK AO2,KLBO,2022-10-24T19:35:00Z,37.65,-92.65,20.0,15.0,160,14,25,10.0,29.749016,,,TRUE,TRUE,,,,,,,OVC,1800,,,,,,,MVFR,,,,,,,,,,,,METAR,399.0
KLAR 241935Z AUTO 27015G22KT 9SM FEW016 BKN032 OVC041 01/M08 A2989 RMK AO2 SNB17E34 P0000 T00111083,KLAR,2022-10-24T19:35:00Z,41.32,-105.67,1.1,-8.3,270,15,22,9.0,29.890747,,,TRUE,TRUE,,,,,,,FEW,1600,BKN,3200,OVC,4100,,,VFR,,,,,,0.005,,,,,,SPECI,2217.0
KL52 241935Z AUTO VRB05KT 9SM CLR 20/04 A3018 RMK A01,KL52,2022-10-24T19:35:00Z,35.1,-120.62,20.0,4.0,0,5,,9.0,30.180119,,,TRUE,TRUE,,,,,,,CLR,,,,,,,,VFR,,,,,,,,,,,,METAR,3.0
KL35 241935Z AUTO 10007KT 10SM CLR 09/M20 A3028 RMK AO2,KL35,2022-10-24T19:35:00Z,34.27,-116.85,9.0,-20.0,100,7,,10.0,30.280512,,,TRUE,TRUE,,,,,,,CLR,,,,,,,,VFR,,,,,,,,,,,,METAR,2062.0
KL18 241935Z AUTO 01004KT 10SM CLR 23/M06 A3014 RMK AO2,KL18,2022-10-24T19:35:00Z,33.35,-117.25,23.0,-6.0,10,4,,10.0,30.138779,,,TRUE,TRUE,,,,,,,CLR,,,,,,,,VFR,,,,,,,,,,,,METAR,215.0
KL08 241935Z AUTO 11012KT 10SM CLR 23/M13 A3017 RMK AO2,KL08,2022-10-24T19:35:00Z,33.27,-116.32,23.0,-13.0,110,12,,10.0,30.171259,,,TRUE,TRUE,,,,,,,CLR,,,,,,,,VFR,,,,,,,,,,,,METAR,156.0
KKY8 241935Z AUTO 15010G18KT 9SM CLR 26/09 A2997 RMK A01,KKY8,2022-10-24T19:35:00Z,37.95,-86.87,26.0,9.0,150,10,18,9.0,29.970472,,,TRUE,TRUE,,,,,,,CLR,,,,,,,,VFR,,,,,,,,,,,,METAR,124.0
KK70 241935Z AUTO 04007G15KT 360V080 10SM BKN049 BKN060 BKN085 29/22 A2998 RMK AO2,KK70,2022-10-24T19:35:00Z,25.32,-80.28,29.0,22.0,40,7,15,10.0,29.97933,,,TRUE,TRUE,,,,,,,BKN,4900,BKN,6000,BKN,8500,,,VFR,,,,,,,,,,,,METAR,20.0
KJZI 241935Z AUTO 31007KT 10SM CLR 25/11 A3010 RMK AO2,KJZI,2022-10-24T19:35:00Z,32.7,-80.0,25.0,11.0,310,7,,10.0,30.100393,,,TRUE,TRUE,,,,,,,CLR,,,,,,,,VFR,,,,,,,,,,,,METAR,5.0
KJYO 241935Z AUTO 02004KT 10SM OVC026 20/15 A3013 RMK AO2,KJYO,2022-10-24T19:35:00Z,39.07,-77.57,20.0,15.0,20,4,,10.0,30.129921,,,TRUE,TRUE,,,,,,,OVC,2600,,,,,,,MVFR,,,,,,,,,,,,SPECI,112.0
KJYM 241935Z AUTO 19008G14KT 10SM CLR 22/08 A3001 RMK AO2 T02210081,KJYM,2022-10-24T19:35:00Z,41.92,-84.58,22.1,8.1,190,8,14,10.0,30.008858,,,TRUE,TRUE,,,,,,,CLR,,,,,,,,VFR,,,,,,,,,,,,METAR,357.0
KJYL 241935Z AUTO 00000KT 10SM CLR 26/07 A3012 RMK AO2 T02580070,KJYL,2022-10-24T19:35:00Z,32.65,-81.6,25.8,7.0,0,0,,10.0,30.121063,,,TRUE,TRUE,,,,,,,CLR,,,,,,,,VFR,,,,,,,,,,,,METAR,54.0
KJYG 241935Z AUTO 24012KT 10SM -RA CLR 09/01 A2970 RMK AO2,KJYG,2022-10-24T19:35:00Z,43.98,-94.55,9.0,1.0,240,12,,10.0,29.698818,,,TRUE,TRUE,,,,,,-RA,CLR,,,,,,,,VFR,,,,,,,,,,,,METAR,323.0
KJXI 241935Z AUTO 14009G16KT 10SM BKN026 BKN035 BKN060 24/18 A2975 RMK AO2 T02400178,KJXI,2022-10-24T19:35:00Z,32.7,-94.95,24.0,17.8,140,9,16,10.0,29.749016,,,TRUE,TRUE,,,,,,,BKN,2600,BKN,3500,BKN,6000,,,MVFR,,,,,,,,,,,,SPECI,130.0
KJWY 241935Z AUTO 36005KT 3SM +RA SCT009 BKN031 OVC039 17/16 A2978 RMK AO2 P0002 T01660156,KJWY,2022-10-24T19:35:00Z,32.45,-96.92,16.6,15.6,360,5,,3.0,29.778543,,,TRUE,TRUE,,,,,,+RA,SCT,900,BKN,3100,OVC,3900,,,MVFR,,,,,,0.02,,,,,,METAR,211.0
KJWG 241935Z AUTO 02009KT 10SM OVC010 13/10 A2979 RMK AO2 T01290103,KJWG,2022-10-24T19:35:00Z,35.87,-98.42,12.9,10.3,20,9,,10.0,29.790354,,,TRUE,TRUE,,,,,,,OVC,1000,,,,,,,MVFR,,,,,,,,,,,,METAR,469.0
KJTC 241935Z AUTO 31016G23KT 10SM FEW047 FEW100 05/M07 A3014 RMK AO2,KJTC,2022-10-24T19:35:00Z,34.13,-109.32,5.0,-7.0,310,16,23,10.0,30.138779,,,TRUE,TRUE,,,,,,,FEW,4700,FEW,10000,,,,,VFR,,,,,,,,,,,,METAR,2148.0
KJSY 241935Z AUTO 10SM -DZ SCT036 OVC044 00/M01 A2999 RMK AO2 T00031013 TSNO,KJSY,2022-10-24T19:35:00Z,45.35,-117.25,0.3,-1.3,,,,10.0,29.991142,,,TRUE,TRUE,,,TRUE,,,-DZ,SCT,3600,OVC,4400,,,,,VFR,,,,,,,,,,,,METAR,1256.0
KJSO 241935Z AUTO 19016G22KT 10SM SCT026 BKN045 OVC050 25/20 A2977 RMK AO2 T02450195 TSNO,KJSO,2022-10-24T19:35:00Z,31.87,-95.22,24.5,19.5,190,16,22,10.0,29.769686,,,TRUE,TRUE,,,TRUE,,,,SCT,2600,BKN,4500,OVC,5000,,,VFR,,,,,,,,,,,,METAR,204.0
KJRO 241935Z AUTO 18004KT 10SM CLR 25/03 A3008 RMK AO2,KJRO,2022-10-24T19:35:00Z,,,25.0,3.0,180,4,,10.0,30.079725,,,TRUE,TRUE,,,,,,,CLR,,,,,,,,VFR,,,,,,,,,,,,METAR,
KJPX 241935Z AUTO 06006KT 4SM BR OVC002 15/15 A3016 RMK AO2 P0002 T01530153,KJPX,2022-10-24T19:35:00Z,40.95,-72.25,15.3,15.3,60,6,,4.0,30.159449,,,TRUE,TRUE,,,,,,BR,OVC,200,,,,,,,LIFR,,,,,,0.02,,,,,,METAR,10.0
KJMR 241935Z AUTO 22011G16KT 10SM SCT120 13/04 A2964 RMK AO2,KJMR,2022-10-24T19:35:00Z,45.88,-93.27,13.0,4.0,220,11,16,10.0,29.639763,,,TRUE,TRUE,,,,,,,SCT,12000,,,,,,,VFR,,,,,,,,,,,,METAR,301.0
KJKJ 241935Z AUTO 23018G26KT 10SM OVC031 08/02 A2949 RMK AO2 TSNO,KJKJ,2022-10-24T19:35:00Z,46.83,-96.67,8.0,2.0,230,18,26,10.0,29.489174,,,TRUE,TRUE,,,TRUE,,,,OVC,3100,,,,,,,VFR,,,,,,,,,,,,METAR,280.0
KJHN 241935Z AUTO 35020G27KT 10SM CLR 13/M07 A2983 RMK AO2 T01261068,KJHN,2022-10-24T19:35:00Z,37.58,-101.73,12.6,-6.8,350,20,27,10.0,29.828741,,,TRUE,TRUE,,,,,,,CLR,,,,,,,,VFR,,,,,,,,,,,,METAR,1013.0
KJFZ 241935Z AUTO 00000KT 10SM CLR 21/00 A3015 RMK AO2 T02140004,KJFZ,2022-10-24T19:35:00Z,37.07,-81.8,21.4,0.4,0,0,,10.0,30.15059,,,TRUE,TRUE,,,,,,,CLR,,,,,,,,VFR,,,,,,,,,,,,METAR,809.0
KJFX 241935Z AUTO VRB04G11KT 10SM CLR 26/08 A3004 RMK AO2,KJFX,2022-10-24T19:35:00Z,33.9,-87.32,26.0,8.0,0,4,11,10.0,30.041338,,,TRUE,TRUE,,,,,,,CLR,,,,,,,,VFR,,,,,,,,,,,,METAR,144.0
KJAU 241935Z AUTO VRB05KT 10SM CLR 22/04 A3013 RMK A01,KJAU,2022-10-24T19:35:00Z,36.33,-84.17,22.0,4.0,0,5,,10.0,30.129921,,,TRUE,TRUE,,,,,,,CLR,,,,,,,,VFR,,,,,,,,,,,,METAR,350.0
KJAQ 241935Z AUTO 21003KT 10SM CLR 17/M04 A3022 RMK AO1 T01721042,KJAQ,2022-10-24T19:35:00Z,38.37,-120.8,17.2,-4.2,210,3,,10.0,30.221457,,,TRUE,TRUE,,,,,,,CLR,,,,,,,,VFR,,,,,,,,,,,,SPECI,518.0
KIXA 241935Z AUTO 00000KT 10SM 21/16 A3010 RMK AO2,KIXA,2022-10-24T19:35:00Z,36.33,-77.63,21.0,16.0,0,0,,10.0,30.100393,,,TRUE,TRUE,,,,,,,,,,,,,,,,,,,,,,,,,,,SPECI,43.0
KIWI 241935Z AUTO 00000KT 1SM -RA BR SCT004 BKN011 OVC075 16/15 A3025 RMK AO2 RAB1854 P0030 T01610150,KIWI,2022-10-24T19:35:00Z,43.97,-69.72,16.1,15.0,0,0,,1.0,30.250984,,,TRUE,TRUE,,,,,,-RA BR,SCT,400,BKN,1100,OVC,7500,,,IFR,,,,,,0.3,,,,,,SPECI,16.0
KIUA 241935Z AUTO 11004KT 1/4SM HZ BKN042 23/12 A3013 RMK AO2 T02270121,KIUA,2022-10-24T19:35:00Z,42.92,-77.33,22.7,12.1,110,4,,0.25,30.129921,,,TRUE,TRUE,,,,,,HZ,BKN,4200,,,,,,,LIFR,,,,,,,,,,,,METAR,248.0
KISQ 241935Z AUTO 17006KT 10SM CLR 13/11 A2981 RMK AO2 T01310105,KISQ,2022-10-24T19:35:00Z,45.97,-86.17,13.1,10.5,170,6,,10.0,29.811024,,,TRUE,TRUE,,,,,,,CLR,,,,,,,,VFR,,,,,,,,,,,,METAR,206.0
KIRS 241935Z AUTO 18011KT 10SM CLR 23/09 A2996 RMK AO2 T02250092,KIRS,2022-10-24T19:35:00Z,41.8,-85.43,22.5,9.2,180,11,,10.0,29.958662,,,TRUE,TRUE,,,,,,,CLR,,,,,,,,VFR,,,,,,,,,,,,METAR,282.0
KIPJ 241935Z AUTO 00000KT 10SM CLR 23/09 A3013 RMK AO2 T02320089,KIPJ,2022-10-24T19:35:00Z,35.48,-81.17,23.2,8.9,0,0,,10.0,30.129921,,,TRUE,TRUE,,,,,,,CLR,,,,,,,,VFR,,,,,,,,,,,,SPECI,266.0
KIOB 241935Z AUTO 17005KT 10SM CLR 24/04 A3009 RMK AO2 PWINO,KIOB,2022-10-24T19:35:00Z,38.05,-83.98,24.0,4.0,170,5,,10.0,30.088583,,,TRUE,TRUE,,,,,TRUE,,CLR,,,,,,,,VFR,,,,,,,,,,,,METAR,301.0
KINJ 241935Z AUTO 03009KT 10SM SCT009 SCT028 OVC033 17/17 A2975 RMK AO2 P0002 T01740174,KINJ,2022-10-24T19:35:00Z,32.08,-97.1,17.4,17.4,30,9,,10.0,29.749016,,,TRUE,TRUE,,,,,,,SCT,900,SCT,2800,OVC,3300,,,VFR,,,,,,0.02,,,,,,METAR,208.0
KINF 241935Z AUTO 04005KT 7SM SCT042 28/18 A3006 RMK AO2,KINF,2022-10-24T19:35:00Z,28.8,-82.32,28.0,18.0,40,5,,7.0,30.059055,,,TRUE,TRUE,,,,,,,SCT,4200,,,,,,,VFR,,,,,,,,,,,,METAR,14.0
KIKW 241935Z AUTO 17011G17KT 10SM CLR 26/11 A2994 RMK AO2 T02550107,KIKW,2022-10-24T19:35:00Z,43.67,-84.27,25.5,10.7,170,11,17,10.0,29.940945,,,TRUE,TRUE,,,,,,,CLR,,,,,,,,VFR,,,,,,,,,,,,METAR,190.0
KIGQ 241935Z AUTO 17015G21KT 10SM CLR 24/13 A2986 RMK AO2 T02350130,KIGQ,2022-10-24T19:35:00Z,41.53,-87.53,23.5,13.0,170,15,21,10.0,29.861221,,,TRUE,TRUE,,,,,,,CLR,,,,,,,,VFR,,,,,,,,,,,,METAR,187.0
KIFA 241935Z AUTO 29007KT 10SM RA SCT029 SCT050 OVC070 11/09 A2970 RMK AO2 P0001 T01140086,KIFA,2022-10-24T19:35:00Z,42.47,-93.27,11.4,8.6,290,7,,10.0,29.698818,,,TRUE,TRUE,,,,,,RA,SCT,2900,SCT,5000,OVC,7000,,,VFR,,,,,,0.01,,,,,,METAR,344.0
KIER 241935Z AUTO 17016G21KT 10SM BKN047 SCT070 OVC085 29/17 A2985 RMK AO2 T02880170,KIER,2022-10-24T19:35:00Z,31.73,-93.1,28.8,17.0,170,16,21,10.0,29.84941,,,TRUE,TRUE,,,,,,,BKN,4700,SCT,7000,OVC,8500,,,VFR,,,,,,,,,,,,METAR,35.0
KIDI 241935Z AUTO 00000KT 9SM CLR 22/13 A3014 RMK A01,KIDI,2022-10-24T19:35:00Z,40.63,-79.1,22.0,13.0,0,0,,9.0,30.138779,,,TRUE,TRUE,,,,,,,CLR,,,,,,,,VFR,,,,,,,,,,,,METAR,425.0
KI69 241935Z AUTO 15005KT 10SM CLR 24/04 A3006 RMK AO2 T02410039,KI69,2022-10-24T19:35:00Z,39.08,-84.22,24.1,3.9,150,5,,10.0,30.059055,,,TRUE,TRUE,,,,,,,CLR,,,,,,,,VFR,,,,,,,,,,,,METAR,238.0
KI67 241935Z AUTO 19006KT 10SM CLR 23/04 A3002 RMK AO1,KI67,2022-10-24T19:35:00Z,39.25,-84.78,23.0,4.0,190,6,,10.0,30.02067,,,TRUE,TRUE,,,,,,,CLR,,,,,,,,VFR,,,,,,,,,,,,METAR,177.0
KI35 241935Z AUTO 00000KT 10SM CLR 23/02 A3011 RMK AO2 T02300023,KI35,2022-10-24T19:35:00Z,36.87,-83.37,23.0,2.3,0,0,,10.0,30.109253,,,TRUE,TRUE,,,,,,,CLR,,,,,,,,VFR,,,,,,,,,,,,METAR,467.0
KI23 241935Z AUTO 17010KT 10SM CLR 24/03 A3006 RMK AO1,KI23,2022-10-24T19:35:00Z,39.57,-83.42,24.0,3.0,170,10,,10.0,30.059055,,,TRUE,TRUE,,,,,,,CLR,,,,,,,,VFR,,,,,,,,,,,,METAR,298.0
KHZL 241935Z AUTO 00000KT 2 1/2SM BR OVC003 14/13 A3018 RMK AO2,KHZL,2022-10-24T19:35:00Z,40.98,-76.0,14.0,13.0,0,0,,2.5,30.180119,,,TRUE,TRUE,,,,,,BR,OVC,300,,,,,,,LIFR,,,,,,,,,,,,METAR,481.0
KHZE 241935Z AUTO 31022G30KT 9SM -DZ OVC013 01/00 A2957 RMK AO2,KHZE,2022-10-24T19:35:00Z,47.28,-101.58,1.0,0.0,310,22,30,9.0,29.568897,,,TRUE,TRUE,,,,,,-DZ,OVC,1300,,,,,,,MVFR,,,,,,,,,,,,METAR,542.0
KHZD 241935Z AUTO 17012G18KT 10SM CLR 25/09 A2994 RMK A01,KHZD,2022-10-24T19:35:00Z,36.08,-88.47,25.0,9.0,170,12,18,10.0,29.940945,,,TRUE,TRUE,,,,,,,CLR,,,,,,,,VFR,,,,,,,,,,,,METAR,147.0
KHYW 241935Z AUTO 30005KT 10SM OVC013 17/14 A3012 RMK AO2,KHYW,2022-10-24T19:35:00Z,33.83,-79.12,17.0,14.0,300,5,,10.0,30.121063,,,TRUE,TRUE,,,,,,,OVC,1300,,,,,,,MVFR,,,,,,,,,,,,METAR,10.0
KHYA 241935Z 34006KT 2SM BR OVC002 15/14 A3019 RMK AO2 LTG DSNT N RAB05E18 P0000 T01500144,KHYA,2022-10-24T19:35:00Z,41.67,-70.27,15.0,14.4,340,6,,2.0,30.188976,,,,TRUE,,,,,,BR,OVC,200,,,,,,,LIFR,,,,,,0.005,,,,,,SPECI,11.0
KHWY 241935Z AUTO 03009KT 10SM BKN031 22/12 A3014 RMK AO2 T02150121,KHWY,2022-10-24T19:35:00Z,38.58,-77.72,21.5,12.1,30,9,,10.0,30.138779,,,TRUE,TRUE,,,,,,,BKN,3100,,,,,,,VFR,,,,,,,,,,,,METAR,93.0
KHSP 241935Z AUTO 12004KT 5SM HZ CLR 19/02 A3021 RMK AO2 T01920017,KHSP,2022-10-24T19:35:00Z,37.95,-79.82,19.2,1.7,120,4,,5.0,30.209646,,,TRUE,TRUE,,,,,,HZ,CLR,,,,,,,,MVFR,,,,,,,,,,,,METAR,1148.0
KHSD 241935Z AUTO 36007KT 10SM 14/11 A2975 RMK A01,KHSD,2022-10-24T19:35:00Z,35.6,-97.72,14.0,11.0,360,7,,10.0,29.749016,,,TRUE,TRUE,,,,,,,,,,,,,,,,,,,,,,,,,,,METAR,358.0
KHRX 241935Z AUTO 33014KT 10SM RA SCT003 BKN009 OVC015 09/08 A2978 RMK AO2 LTG DSNT E AND W T00870079,KHRX,2022-10-24T19:35:00Z,34.87,-102.33,8.7,7.9,330,14,,10.0,29.778543,,,TRUE,TRUE,,,,,,RA,SCT,300,BKN,900,OVC,1500,,,IFR,,,,,,,,,,,,METAR,1153.0
KHRJ 241935Z AUTO 00000KT 10SM CLR 23/13 A3011 RMK AO2 T02340126,KHRJ,2022-10-24T19:35:00Z,35.38,-78.73,23.4,12.6,0,0,,10.0,30.109253,,,TRUE,TRUE,,,,,,,CLR,,,,,,,,VFR,,,,,,,,,,,,METAR,55.0
KHRF 241935Z AUTO 18016G22KT 10SM SCT065 BKN075 OVC085 09/M07 A2989 RMK AO2,KHRF,2022-10-24T19:35:00Z,46.25,-114.13,9.0,-7.0,180,16,22,10.0,29.890747,,,TRUE,TRUE,,,,,,,SCT,6500,BKN,7500,OVC,8500,,,VFR,,,,,,,,,,,,METAR,1112.0
KHQG 241935Z AUTO 02014KT 10SM CLR 12/M03 A2983 RMK AO2 T01151033,KHQG,2022-10-24T19:35:00Z,37.17,-101.37,11.5,-3.3,20,14,,10.0,29.828741,,,TRUE,TRUE,,,,,,,CLR,,,,,,,,VFR,,,,,,,,,,,,METAR,956.0
KHQG 241935Z AUTO 02014KT 10SM CLR 12/M03 A2983 RMK AO2 T01151033,KHQG,2022-10-24T19:35:00Z,37.17,-101.37,11.5,-3.3,20,14,,10.0,29.828741,,,TRUE,TRUE,,,,,,,CLR,,,,,,,,VFR,,,,,,,,,,,,METAR,956.0
KHOE 241935Z AUTO 05003KT 10SM CLR 26/10 A3010 RMK AO2 T02660103,KHOE,2022-10-24T19:35:00Z,31.05,-82.78,26.6,10.3,50,3,,10.0,30.100393,,,TRUE,TRUE,,,,,,,CLR,,,,,,,,VFR,,,,,,,,,,,,METAR,56.0
KHNZ 241935Z AUTO 00000KT 10SM CLR 22/10 A3011 RMK AO2 T02160099,KHNZ,2022-10-24T19:35:00Z,36.37,-78.53,21.6,9.9,0,0,,10.0,30.109253,,,TRUE,TRUE,,,,,,,CLR,,,,,,,,VFR,,,,,,,,,,,,SPECI,158.0
KHMT 241935Z AUTO 21003KT 10SM CLR 21/M04 A3016 RMK AO2 T02121042,KHMT,2022-10-24T19:35:00Z,33.73,-117.02,21.2,-4.2,210,3,,10.0,30.159449,,,TRUE,TRUE,,,,,,,CLR,,,,,,,,VFR,,,,,,,,,,,,METAR,462.0
KHLX 241935Z AUTO 00000KT 10SM CLR 21/M09 A3016 RMK AO2 T02121093,KHLX,2022-10-24T19:35:00Z,36.77,-80.82,21.2,-9.3,0,0,,10.0,30.159449,,,TRUE,TRUE,,,,,,,CLR,,,,,,,,VFR,,,,,,,,,,,,METAR,819.0
KHLB 241935Z AUTO 16008KT 10SM CLR 23/06 A3002 RMK A01,KHLB,2022-10-24T19:35:00Z,39.35,-85.27,23.0,6.0,160,8,,10.0,30.02067,,,TRUE,TRUE,,,,,,,CLR,,,,,,,,VFR,,,,,,,,,,,,METAR,297.0
KHHF 241935Z AUTO 05012G16KT 10SM BKN022 OVC028 12/06 A2976 RMK AO2 LTG DSNT SW T01160061,KHHF,2022-10-24T19:35:00Z,35.9,-100.4,11.6,6.1,50,12,16,10.0,29.760826,,,TRUE,TRUE,,,,,,,BKN,2200,OVC,2800,,,,,MVFR,,,,,,,,,,,,METAR,729.0
KHFY 241935Z AUTO 16011G16KT 10SM CLR 24/10 A2998 RMK AO2 T02430097,KHFY,2022-10-24T19:35:00Z,39.63,-86.08,24.3,9.7,160,11,16,10.0,29.97933,,,TRUE,TRUE,,,,,,,CLR,,,,,,,,VFR,,,,,,,,,,,,METAR,250.0
KHFJ 241935Z AUTO 16015G21KT 5SM -DZ OVC013 18/18 A2968 RMK AO2,KHFJ,2022-10-24T19:35:00Z,36.9,-94.02,18.0,18.0,160,15,21,5.0,29.681103,,,TRUE,TRUE,,,,,,-DZ,OVC,1300,,,,,,,MVFR,,,,,,,,,,,,METAR,398.0
KHEG 241935Z AUTO 08006KT 10SM FEW040 28/15 A3011 RMK AO2,KHEG,2022-10-24T19:35:00Z,30.28,-81.8,28.0,15.0,80,6,,10.0,30.109253,,,TRUE,TRUE,,,,,,,FEW,4000,,,,,,,VFR,,,,,,,,,,,,METAR,25.0
KHCO 241935Z AUTO 21014KT 1 3/4SM BR OVC006 08/08 A2921 RMK AO2,KHCO,2022-10-24T19:35:00Z,48.75,-96.93,8.0,8.0,210,14,,1.75,29.208662,,,TRUE,TRUE,,,,,,BR,OVC,600,,,,,,,IFR,,,,,,,,,,,,METAR,250.0
KHBI 241935Z AUTO 33005KT 10SM CLR 23/08 A3013 RMK AO2 T02250075,KHBI,2022-10-24T19:35:00Z,35.65,-79.9,22.5,7.5,330,5,,10.0,30.129921,,,TRUE,TRUE,,,,,,,CLR,,,,,,,,VFR,,,,,,,,,,,,METAR,199.0
KHAI 241935Z AUTO 16008KT 10SM CLR 23/11 A2995 RMK AO2 T02280109,KHAI,2022-10-24T19:35:00Z,41.97,-85.6,22.8,10.9,160,8,,10.0,29.949802,,,TRUE,TRUE,,,,,,,CLR,,,,,,,,VFR,,,,,,,,,,,,METAR,250.0
KHAF 241935Z AUTO 32010KT 8SM CLR 16/12 A3023 RMK AO2,KHAF,2022-10-24T19:35:00Z,37.52,-122.5,16.0,12.0,320,10,,8.0,30.230314,,,TRUE,TRUE,,,,,,,CLR,,,,,,,,VFR,,,,,,,,,,,,METAR,11.0
KHAE 241935Z AUTO 15014G20KT 10SM SCT031 SCT040 OVC050 23/15 A2971 RMK AO2,KHAE,2022-10-24T19:35:00Z,39.73,-91.45,23.0,15.0,150,14,20,10.0,29.71063,,,TRUE,TRUE,,,,,,,SCT,3100,SCT,4000,OVC,5000,,,VFR,,,,,,,,,,,,METAR,230.0
KH71 241935Z AUTO 35011G17KT 1 1/4SM RA 14/12 A2971 RMK AO2,KH71,2022-10-24T19:35:00Z,36.22,-95.33,14.0,12.0,350,11,17,1.25,29.71063,,,TRUE,TRUE,,,,,,RA,,,,,,,,,,,,,,,,,,,,,METAR,190.0
KGZS 241935Z AUTO 16014KT 10SM CLR 25/04 A3001 RMK A01,KGZS,2022-10-24T19:35:00Z,35.15,-87.05,25.0,4.0,160,14,,10.0,30.008858,,,TRUE,TRUE,,,,,,,CLR,,,,,,,,VFR,,,,,,,,,,,,METAR,198.0
KGYL 241935Z AUTO 22009KT 5SM HZ CLR 10/02 A2968 RMK AO2 T01030023,KGYL,2022-10-24T19:35:00Z,44.77,-94.08,10.3,2.3,220,9,,5.0,29.681103,,,TRUE,TRUE,,,,,,HZ,CLR,,,,,,,,MVFR,,,,,,,,,,,,METAR,304.0
KGYB 241935Z AUTO 17004KT 7SM -RA SCT028 BKN035 BKN050 24/22 A2975 RMK AO2 P0003 T02440217,KGYB,2022-10-24T19:35:00Z,30.17,-96.98,24.4,21.7,170,4,,7.0,29.749016,,,TRUE,TRUE,,,,,,-RA,SCT,2800,BKN,3500,BKN,5000,,,VFR,,,,,,0.03,,,,,,METAR,140.0
KGWW 241935Z AUTO 35003KT 10SM CLR 23/13 A3010 RMK AO2 T02330130,KGWW,2022-10-24T19:35:00Z,35.47,-77.97,23.3,13.0,350,3,,10.0,30.100393,,,TRUE,TRUE,,,,,,,CLR,,,,,,,,VFR,,,,,,,,,,,,SPECI,40.0
KGWR 241935Z AUTO 25021G26KT 10SM OVC030 07/01 A2952 RMK A01,KGWR,2022-10-24T19:35:00Z,46.22,-97.65,7.0,1.0,250,21,26,10.0,29.518702,,,TRUE,TRUE,,,,,,,OVC,3000,,,,,,,MVFR,,,,,,,,,,,,METAR,381.0
KGRN 241935Z AUTO 30019G29KT 10SM OVC027 03/M03 A2980 RMK AO2 T00311031,KGRN,2022-10-24T19:35:00Z,42.8,-102.17,3.1,-3.1,300,19,29,10.0,29.799213,,,TRUE,TRUE,,,,,,,OVC,2700,,,,,,,MVFR,,,,,,,,,,,,METAR,1080.0
KGNT 241935Z AUTO 30020G28KT 10SM BKN047 BKN050 05/M06 A3007 RMK AO2 T00491057,KGNT,2022-10-24T19:35:00Z,35.17,-107.9,4.9,-5.7,300,20,28,10.0,30.070866,,,TRUE,TRUE,,,,,,,BKN,4700,BKN,5000,,,,,VFR,,,,,,,,,,,,SPECI,1988.0
KGNG 241935Z AUTO 27011KT 10SM CLR 07/M04 A3019 RMK AO2,KGNG,2022-10-24T19:35:00Z,42.92,-114.77,7.0,-4.0,270,11,,10.0,30.188976,,,TRUE,TRUE,,,,,,,CLR,,,,,,,,VFR,,,,,,,,,,,,METAR,1128.0
KGLY 241935Z AUTO 17011G16KT 1 1/4SM -RA BR BKN008 BKN013 OVC021 19/19 A2965 RMK AO2,KGLY,2022-10-24T19:35:00Z,38.35,-93.68,19.0,19.0,170,11,16,1.25,29.648623,,,TRUE,TRUE,,,,,,-RA BR,BKN,800,BKN,1300,OVC,2100,,,IFR,,,,,,,,,,,,METAR,247.0
KGKT 241935Z AUTO 31004KT 10SM CLR 25/05 A3009 RMK A01,KGKT,2022-10-24T19:35:00Z,35.85,-83.53,25.0,5.0,310,4,,10.0,30.088583,,,TRUE,TRUE,,,,,,,CLR,,,,,,,,VFR,,,,,,,,,,,,METAR,305.0
KGHW 241935Z AUTO 21015G19KT 10SM CLR 08/02 A2961 RMK AO2,KGHW,2022-10-24T19:35:00Z,45.63,-95.32,8.0,2.0,210,15,19,10.0,29.610237,,,TRUE,TRUE,,,,,,,CLR,,,,,,,,VFR,,,,,,,,,,,,METAR,423.0
KGGE 241935Z AUTO 34005KT 10SM CLR 22/11 A3011 RMK AO2,KGGE,2022-10-24T19:35:00Z,33.32,-79.32,22.0,11.0,340,5,,10.0,30.109253,,,TRUE,TRUE,,,,,,,CLR,,,,,,,,VFR,,,,,,,,,,,,METAR,9.0
KGDJ 241935Z AUTO 12008KT 10SM -RA BKN006 BKN047 OVC070 17/16 A2974 RMK AO2 P0002 T01660160,KGDJ,2022-10-24T19:35:00Z,32.45,-97.82,16.6,16.0,120,8,,10.0,29.740158,,,TRUE,TRUE,,,,,,-RA,BKN,600,BKN,4700,OVC,7000,,,IFR,,,,,,0.02,,,,,,METAR,235.0
KGCY 241935Z AUTO 00000KT 10SM CLR 23/02 A3010 RMK A01,KGCY,2022-10-24T19:35:00Z,36.2,-82.82,23.0,2.0,0,0,,10.0,30.100393,,,TRUE,TRUE,,,,,,,CLR,,,,,,,,VFR,,,,,,,,,,,,METAR,488.0
KGAO 241935Z AUTO 13009G15KT 10SM OVC070 28/19 A2998 RMK AO2 T02760191,KGAO,2022-10-24T19:35:00Z,29.45,-90.27,27.6,19.1,130,9,15,10.0,29.97933,,,TRUE,TRUE,,,,,,,OVC,7000,,,,,,,VFR,,,,,,,,,,,,METAR,0.0
KGAF 241935Z AUTO 29019KT 1SM BR BKN005 OVC009 07/07 A2926 RMK AO2,KGAF,2022-10-24T19:35:00Z,48.4,-97.37,7.0,7.0,290,19,,1.0,29.258858,,,TRUE,TRUE,,,,,,BR,BKN,500,OVC,900,,,,,IFR,,,,,,,,,,,,SPECI,250.0
KFYE 241935Z AUTO 16006G17KT 10SM FEW042 24/14 A2992 RMK A01,KFYE,2022-10-24T19:35:00Z,35.2,-89.38,24.0,14.0,160,6,17,10.0,29.920275,,,TRUE,TRUE,,,,,,,FEW,4200,,,,,,,VFR,,,,,,,,,,,,METAR,133.0
KFWB 241935Z AUTO 17009G19KT 120V240 10SM OVC024 21/17 A2972 RMK AO2,KFWB,2022-10-24T19:35:00Z,36.7,-93.4,21.0,17.0,170,9,19,10.0,29.719488,,,TRUE,TRUE,,,,,,,OVC,2400,,,,,,,MVFR,,,,,,,,,,,,METAR,392.0
KFVX 241935Z AUTO 01003KT 10SM CLR 24/09 A3009 RMK AO2 T02360094,KFVX,2022-10-24T19:35:00Z,37.35,-78.43,23.6,9.4,10,3,,10.0,30.088583,,,TRUE,TRUE,,,,,,,CLR,,,,,,,,VFR,,,,,,,,,,,,METAR,129.0
KFTN 241935Z AUTO 21009G14KT 10SM CLR 33/19 A2970 RMK A01,KFTN,2022-10-24T19:35:00Z,28.22,-100.02,33.0,19.0,210,9,14,10.0,29.698818,,,TRUE,TRUE,,,,,,,CLR,,,,,,,,VFR,,,,,,,,,,,,METAR,236.0
KFSO 241935Z AUTO 00000KT 10SM CLR 19/15 A3019 RMK AO2 T01940146,KFSO,2022-10-24T19:35:00Z,44.93,-73.1,19.4,14.6,0,0,,10.0,30.188976,,,TRUE,TRUE,,,,,,,CLR,,,,,,,,VFR,,,,,,,,,,,,METAR,70.0
KFSE 241935Z AUTO 20026G38KT 10SM OVC023 07/02 A2942 RMK AO2,KFSE,2022-10-24T19:35:00Z,47.58,-95.77,7.0,2.0,200,26,38,10.0,29.421259,,,TRUE,TRUE,,,,,,,OVC,2300,,,,,,,MVFR,,,,,,,,,,,,METAR,389.0
KFRR 241935Z AUTO 09005KT 7SM CLR 22/12 A3009 RMK AO1,KFRR,2022-10-24T19:35:00Z,38.92,-78.25,22.0,12.0,90,5,,7.0,30.088583,,,TRUE,TRUE,,,,,,,CLR,,,,,,,,VFR,,,,,,,,,,,,SPECI,213.0
KFRH 241935Z AUTO 17008KT 10SM CLR 24/05 A2998 RMK AO1,KFRH,2022-10-24T19:35:00Z,38.5,-86.63,24.0,5.0,170,8,,10.0,29.97933,,,TRUE,TRUE,,,,,,,CLR,,,,,,,,VFR,,,,,,,,,,,,SPECI,241.0
KFPK 241935Z AUTO 18014G19KT 10SM CLR 24/11 A2996 RMK AO2 T02360113,KFPK,2022-10-24T19:35:00Z,42.57,-84.82,23.6,11.3,180,14,19,10.0,29.958662,,,TRUE,TRUE,,,,,,,CLR,,,,,,,,VFR,,,,,,,,,,,,METAR,269.0
KFLY 241935Z AUTO 00000KT SCT060 07/M11 A2988 RMK AO2 T00671109 PWINO,KFLY,2022-10-24T19:35:00Z,38.95,-104.57,6.7,-10.9,0,0,,,29.878937,,,TRUE,TRUE,,,,,TRUE,,SCT,6000,,,,,,,,,,,,,,,,,,,METAR,2096.0
KFKS 241935Z AUTO 16010G17KT 10SM CLR 21/12 A2983 RMK AO2 T02070116,KFKS,2022-10-24T19:35:00Z,44.63,-86.2,20.7,11.6,160,10,17,10.0,29.828741,,,TRUE,TRUE,,,,,,,CLR,,,,,,,,VFR,,,,,,,,,,,,METAR,189.0
KFKN 241935Z AUTO 30003KT 10SM BKN031 22/13 A3009 RMK AO2 T02220133,KFKN,2022-10-24T19:35:00Z,36.7,-76.9,22.2,13.3,300,3,,10.0,30.088583,,,TRUE,TRUE,,,,,,,BKN,3100,,,,,,,VFR,,,,,,,,,,,,METAR,9.0
KFKA 241935Z AUTO 29007KT 7SM SCT006 SCT010 SCT015 11/09 A2967 RMK AO2 T01090086,KFKA,2022-10-24T19:35:00Z,43.68,-92.17,10.9,8.6,290,7,,7.0,29.66929,,,TRUE,TRUE,,,,,,,SCT,600,SCT,1000,SCT,1500,,,VFR,,,,,,,,,,,,METAR,388.0
KFGX 241935Z AUTO 22006KT 10SM CLR 24/04 A3008 RMK AO2 T02430043,KFGX,2022-10-24T19:35:00Z,38.55,-83.75,24.3,4.3,220,6,,10.0,30.079725,,,TRUE,TRUE,,,,,,,CLR,,,,,,,,VFR,,,,,,,,,,,,METAR,279.0
KFFX 241935Z AUTO 15005KT 10SM CLR 24/12 A2987 RMK AO2 T02430123,KFFX,2022-10-24T19:35:00Z,43.43,-86.0,24.3,12.3,150,5,,10.0,29.870079,,,TRUE,TRUE,,,,,,,CLR,,,,,,,,VFR,,,,,,,,,,,,METAR,234.0
KFFM 241935Z AUTO 24019G23KT 10SM OVC031 08/02 A2953 RMK AO2,KFFM,2022-10-24T19:35:00Z,46.28,-96.15,8.0,2.0,240,19,23,10.0,29.530512,,,TRUE,TRUE,,,,,,,OVC,3100,,,,,,,VFR,,,,,,,,,,,,METAR,362.0
KFFA 241935Z AUTO 00000KT 10SM OVC007 15/14 A3010 RMK AO2 T01510141,KFFA,2022-10-24T19:35:00Z,36.02,-75.67,15.1,14.1,0,0,,10.0,30.100393,,,TRUE,TRUE,,,,,,,OVC,700,,,,,,,IFR,,,,,,,,,,,,METAR,2.0
KFDW 241935Z AUTO 00000KT 10SM CLR 23/07 A3013 RMK AO1,KFDW,2022-10-24T19:35:00Z,34.32,-81.12,23.0,7.0,0,0,,10.0,30.129921,,,TRUE,TRUE,,,,,,,CLR,,,,,,,,VFR,,,,,,,,,,,,SPECI,174.0
KFBL 241935Z AUTO 23006KT 10SM -RA SCT060 SCT090 11/07 A2969 RMK AO2,KFBL,2022-10-24T19:35:00Z,44.33,-93.32,11.0,7.0,230,6,,10.0,29.68996,,,TRUE,TRUE,,,,,,-RA,SCT,6000,SCT,9000,,,,,VFR,,,,,,,,,,,,METAR,318.0
KF70 241935Z AUTO 06003KT 10SM CLR 21/M05 A3016 RMK AO2,KF70,2022-10-24T19:35:00Z,33.57,-117.13,21.0,-5.0,60,3,,10.0,30.159449,,,TRUE,TRUE,,,,,,,CLR,,,,,,,,VFR,,,,,,,,,,,,METAR,406.0
KF46 241935Z AUTO 01006KT 4SM +RA BKN006 OVC013 17/17 A2977 RMK AO2 P0001 T01700170,KF46,2022-10-24T19:35:00Z,32.93,-96.43,17.0,17.0,10,6,,4.0,29.769686,,,TRUE,TRUE,,,,,,+RA,BKN,600,OVC,1300,,,,,IFR,,,,,,0.01,,,,,,METAR,175.0
KF44 241935Z AUTO 18007KT 4SM -RA SCT013 BKN020 OVC028 22/21 A2972 RMK AO2 P0005,KF44,2022-10-24T19:35:00Z,32.17,-95.83,22.0,21.0,180,7,,4.0,29.719488,,,TRUE,TRUE,,,,,,-RA,SCT,1300,BKN,2000,OVC,2800,,,MVFR,,,,,,0.05,,,,,,METAR,137.0
KF17 241935Z AUTO 15011G18KT 10SM BKN038 OVC047 26/17 A2982 RMK AO2,KF17,2022-10-24T19:35:00Z,31.83,-94.15,26.0,17.0,150,11,18,10.0,29.819881,,,TRUE,TRUE,,,,,,,BKN,3800,OVC,4700,,,,,VFR,,,,,,,,,,,,METAR,93.0
KF05 241935Z AUTO 00000KT 10SM SCT027 SCT032 19/12 A2973 RMK AO2 T01900117,KF05,2022-10-24T19:35:00Z,34.23,-99.28,19.0,11.7,0,0,,10.0,29.731298,,,TRUE,TRUE,,,,,,,SCT,2700,SCT,3200,,,,,VFR,,,,,,,,,,,,METAR,384.0
KEZS 241935Z AUTO 19006KT 10SM OVC048 22/15 A2973 RMK AO2 T02180149,KEZS,2022-10-24T19:35:00Z,44.78,-88.57,21.8,14.9,190,6,,10.0,29.731298,,,TRUE,TRUE,,,,,,,OVC,4800,,,,,,,VFR,,,,,,,,,,,,SPECI,247.0
KEZM 241935Z AUTO 00000KT 10SM CLR 26/09 A3011 RMK AO2,KEZM,2022-10-24T19:35:00Z,32.22,-83.13,26.0,9.0,0,0,,10.0,30.109253,,,TRUE,TRUE,,,,,,,CLR,,,,,,,,VFR,,,,,,,,,,,,METAR,86.0
KEZF 241935Z AUTO 02005KT 10SM OVC028 20/13 A3009 RMK AO2 T01960130,KEZF,2022-10-24T19:35:00Z,38.27,-77.45,19.6,13.0,20,5,,10.0,30.088583,,,TRUE,TRUE,,,,,,,OVC,2800,,,,,,,MVFR,,,,,,,,,,,,SPECI,26.0
KEYF 241935Z AUTO 36003KT 10SM CLR 24/13 A3010 RMK AO2 T02440126,KEYF,2022-10-24T19:35:00Z,34.6,-78.58,24.4,12.6,360,3,,10.0,30.100393,,,TRUE,TRUE,,,,,,,CLR,,,,,,,,VFR,,,,,,,,,,,,METAR,39.0
KEXX 241935Z AUTO 00000KT 10SM CLR 23/10 A3011 RMK AO2 T02310099,KEXX,2022-10-24T19:35:00Z,35.78,-80.3,23.1,9.9,0,0,,10.0,30.109253,,,TRUE,TRUE,,,,,,,CLR,,,,,,,,VFR,,,,,,,,,,,,METAR,221.0
KEVU 241935Z AUTO 34007KT 7SM -RA BKN009 OVC021 10/08 A2973 RMK AO2 P0002 T01000089,KEVU,2022-10-24T19:35:00Z,40.35,-94.92,10.0,8.9,340,7,,7.0,29.731298,,,TRUE,TRUE,,,,,,-RA,BKN,900,OVC,2100,,,,,IFR,,,,,,0.02,,,,,,SPECI,351.0
KETB 241935Z AUTO 17011G16KT 10SM CLR 21/12 A2978 RMK AO2,KETB,2022-10-24T19:35:00Z,43.42,-88.13,21.0,12.0,170,11,16,10.0,29.778543,,,TRUE,TRUE,,,,,,,CLR,,,,,,,,VFR,,,,,,,,,,,,SPECI,269.0
KERV 241935Z AUTO 17012G16KT 10SM BKN033 28/20 A2974 RMK AO2 T02820195,KERV,2022-10-24T19:35:00Z,29.98,-99.08,28.2,19.5,170,12,16,10.0,29.740158,,,TRUE,TRUE,,,,,,,BKN,3300,,,,,,,VFR,,,,,,,,,,,,METAR,483.0
KEOE 241935Z AUTO 00000KT 10SM CLR 23/04 A3015 RMK AO2,KEOE,2022-10-24T19:35:00Z,34.32,-81.63,23.0,4.0,0,0,,10.0,30.15059,,,TRUE,TRUE,,,,,,,CLR,,,,,,,,VFR,,,,,,,,,,,,SPECI,166.0
KEMV 241935Z AUTO 32003KT 10SM CLR 23/14 A3011 RMK AO2 T02260137,KEMV,2022-10-24T19:35:00Z,36.68,-77.48,22.6,13.7,320,3,,10.0,30.109253,,,TRUE,TRUE,,,,,,,CLR,,,,,,,,VFR,,,,,,,,,,,,METAR,35.0
KELO 241935Z AUTO 20017G24KT 10SM CLR 19/07 A2944 RMK AO2,KELO,2022-10-24T19:35:00Z,47.82,-91.83,19.0,7.0,200,17,24,10.0,29.438976,,,TRUE,TRUE,,,,,,,CLR,,,,,,,,VFR,,,,,,,,,,,,METAR,438.0
KELK 241935Z AUTO 06013KT 10SM OVC048 15/09 A2973 RMK AO2 SLP358 T01530087 $,KELK,2022-10-24T19:35:00Z,35.43,-99.4,15.3,8.7,60,13,,10.0,29.731298,1035.8,,TRUE,TRUE,TRUE,,,,,,OVC,4800,,,,,,,VFR,,,,,,,,,,,,SPECI,603.0
KEKX 241935Z AUTO 16011KT 10SM CLR 25/03 A3002 RMK AO2 T02450029,KEKX,2022-10-24T19:35:00Z,37.68,-85.92,24.5,2.9,160,11,,10.0,30.02067,,,TRUE,TRUE,,,,,,,CLR,,,,,,,,VFR,,,,,,,,,,,,METAR,234.0
KEKM 241935Z 17008KT 7SM CLR 23/12 A2995 RMK AO2 T02260118,KEKM,2022-10-24T19:35:00Z,41.72,-86.0,22.6,11.8,170,8,,7.0,29.949802,,,,TRUE,,,,,,,CLR,,,,,,,,VFR,,,,,,,,,,,,SPECI,236.0
KEIK 241935Z AUTO 12003KT 10SM CLR 10/M14 A2985 RMK AO2 T01021140 PWINO,KEIK,2022-10-24T19:35:00Z,40.02,-105.05,10.2,-14.0,120,3,,10.0,29.84941,,,TRUE,TRUE,,,,,TRUE,,CLR,,,,,,,,VFR,,,,,,,,,,,,METAR,1551.0
KEHO 241935Z AUTO 00000KT 10SM CLR 23/05 A3013 RMK AO2 T02290052,KEHO,2022-10-24T19:35:00Z,35.25,-81.6,22.9,5.2,0,0,,10.0,30.129921,,,TRUE,TRUE,,,,,,,CLR,,,,,,,,VFR,,,,,,,,,,,,METAR,261.0
KEGV 241935Z AUTO 21005KT 10SM OVC019 17/13 A2968 RMK AO2 T01680132,KEGV,2022-10-24T19:35:00Z,45.93,-89.27,16.8,13.2,210,5,,10.0,29.681103,,,TRUE,TRUE,,,,,,,OVC,1900,,,,,,,MVFR,,,,,,,,,,,,METAR,499.0
KEFT 241935Z AUTO 19015G21KT 10SM OVC048 21/13 A2974 RMK AO2 T02110129,KEFT,2022-10-24T19:35:00Z,42.62,-89.6,21.1,12.9,190,15,21,10.0,29.740158,,,TRUE,TRUE,,,,,,,OVC,4800,,,,,,,VFR,,,,,,,,,,,,SPECI,332.0
KEFK 241935Z AUTO 00000KT 10SM OVC031 19/12 A3023 RMK AO2 T01860124,KEFK,2022-10-24T19:35:00Z,44.88,-72.23,18.6,12.4,0,0,,10.0,30.230314,,,TRUE,TRUE,,,,,,,OVC,3100,,,,,,,VFR,,,,,,,,,,,,SPECI,282.0
KEDU 241935Z AUTO 01004KT 10SM CLR 20/M03 A3021 RMK AO1,KEDU,2022-10-24T19:35:00Z,38.53,-121.78,20.0,-3.0,10,4,,10.0,30.209646,,,TRUE,TRUE,,,,,,,CLR,,,,,,,,VFR,,,,,,,,,,,,METAR,20.0
KEDN 241935Z AUTO 00000KT 10SM CLR 26/10 A3006 RMK AO2 T02630100,KEDN,2022-10-24T19:35:00Z,31.3,-85.9,26.3,10.0,0,0,,10.0,30.059055,,,TRUE,TRUE,,,,,,,CLR,,,,,,,,VFR,,,,,,,,,,,,METAR,103.0
KEDJ 241935Z AUTO 18008G13KT 10SM CLR 23/05 A3006 RMK A01,KEDJ,2022-10-24T19:35:00Z,40.37,-83.82,23.0,5.0,180,8,13,10.0,30.059055,,,TRUE,TRUE,,,,,,,CLR,,,,,,,,VFR,,,,,,,,,,,,SPECI,341.0
KEDE 241935Z AUTO 02003KT 10SM OVC016 19/16 A3012 RMK AO2 T01870163,KEDE,2022-10-24T19:35:00Z,36.03,-76.57,18.7,16.3,20,3,,10.0,30.121063,,,TRUE,TRUE,,,,,,,OVC,1600,,,,,,,MVFR,,,,,,,,,,,,METAR,4.0
KECS 241935Z AUTO 31022G31KT 10SM SCT032 OVC041 02/M04 A2982 RMK AO2,KECS,2022-10-24T19:35:00Z,43.88,-104.32,2.0,-4.0,310,22,31,10.0,29.819881,,,TRUE,TRUE,,,,,,,SCT,3200,OVC,4100,,,,,VFR,,,,,,,,,,,,METAR,1273.0
KDZB 241935Z AUTO 19011G16KT 160V220 7SM BKN033 BKN044 OVC050 29/19 A2972 RMK AO2 T02890189,KDZB,2022-10-24T19:35:00Z,30.53,-98.37,28.9,18.9,190,11,16,7.0,29.719488,,,TRUE,TRUE,,,,,,,BKN,3300,BKN,4400,OVC,5000,,,VFR,,,,,,,,,,,,METAR,329.0
KDYT 241935Z AUTO 20022G27KT 10SM CLR 19/07 A2950 RMK AO2,KDYT,2022-10-24T19:35:00Z,46.72,-92.03,19.0,7.0,200,22,27,10.0,29.500984,,,TRUE,TRUE,,,,,,,CLR,,,,,,,,VFR,,,,,,,,,,,,METAR,185.0
KDYB 241935Z AUTO 32004KT 10SM CLR 24/08 A3010 RMK AO2,KDYB,2022-10-24T19:35:00Z,33.07,-80.28,24.0,8.0,320,4,,10.0,30.100393,,,TRUE,TRUE,,,,,,,CLR,,,,,,,,VFR,,,,,,,,,,,,SPECI,15.0
KDYA 241935Z AUTO 13006KT 10SM BKN047 BKN060 26/15 A3002 RMK AO2 T02550146,KDYA,2022-10-24T19:35:00Z,32.47,-87.95,25.5,14.6,130,6,,10.0,30.02067,,,TRUE,TRUE,,,,,,,BKN,4700,BKN,6000,,,,,VFR,,,,,,,,,,,,SPECI,33.0
KDXX 241935Z AUTO 24011KT 10SM CLR 09/01 A2964 RMK AO2,KDXX,2022-10-24T19:35:00Z,44.98,-96.18,9.0,1.0,240,11,,10.0,29.639763,,,TRUE,TRUE,,,,,,,CLR,,,,,,,,VFR,,,,,,,,,,,,METAR,327.0
KDWA 241935Z AUTO 35006KT 10SM CLR 21/M04 A3022 RMK AO2,KDWA,2022-10-24T19:35:00Z,38.58,-121.85,21.0,-4.0,350,6,,10.0,30.221457,,,TRUE,TRUE,,,,,,,CLR,,,,,,,,VFR,,,,,,,,,,,,METAR,28.0
KDUH 241935Z AUTO 18009KT 130V190 10SM CLR 25/04 A3002 RMK AO2 T02460036,KDUH,2022-10-24T19:35:00Z,41.73,-83.65,24.6,3.6,180,9,,10.0,30.02067,,,TRUE,TRUE,,,,,,,CLR,,,,,,,,VFR,,,,,,,,,,,,SPECI,203.0
KDUA 241935Z AUTO 05003KT 10SM RA SCT060 BKN070 OVC080 15/14 A2975 RMK AO2,KDUA,2022-10-24T19:35:00Z,33.95,-96.4,15.0,14.0,50,3,,10.0,29.749016,,,TRUE,TRUE,,,,,,RA,SCT,6000,BKN,7000,OVC,8000,,,VFR,,,,,,,,,,,,METAR,209.0
KDTL 241935Z AUTO 23017G31KT 10SM OVC023 07/02 A2950 RMK AO2,KDTL,2022-10-24T19:35:00Z,46.82,-95.88,7.0,2.0,230,17,31,10.0,29.500984,,,TRUE,TRUE,,,,,,,OVC,2300,,,,,,,MVFR,,,,,,,,,,,,SPECI,425.0
KDTA 241935Z AUTO 16009KT 10SM CLR 04/M03 A3026 RMK AO1,KDTA,2022-10-24T19:35:00Z,39.38,-112.5,4.0,-3.0,160,9,,10.0,30.259842,,,TRUE,TRUE,,,,,,,CLR,,,,,,,,VFR,,,,,,,,,,,,METAR,1452.0
KDRM 241935Z AUTO 15010G19KT 10SM CLR 15/09 A2992 RMK AO2 T01540091,KDRM,2022-10-24T19:35:00Z,46.0,-83.75,15.4,9.1,150,10,19,10.0,29.920275,,,TRUE,TRUE,,,,,,,CLR,,,,,,,,VFR,,,,,,,,,,,,METAR,201.0
KDRI 241935Z AUTO 18016G22KT 9SM SCT060 OVC080 29/16 A2987 RMK AO2 PK WND 17028/1854 T02890165 $,KDRI,2022-10-24T19:35:00Z,30.83,-93.33,28.9,16.5,180,16,22,9.0,29.870079,,,TRUE,TRUE,TRUE,,,,,,SCT,6000,OVC,8000,,,,,VFR,,,,,,,,,,,,SPECI,59.0
KDNN 241935Z AUTO 14005KT 10SM CLR 26/07 A3009 RMK AO2 T02550074,KDNN,2022-10-24T19:35:00Z,34.72,-84.87,25.5,7.4,140,5,,10.0,30.088583,,,TRUE,TRUE,,,,,,,CLR,,,,,,,,VFR,,,,,,,,,,,,SPECI,216.0
KDNA 241935Z AUTO 28024G34KT 10SM CLR 15/M08 A3000 RMK AO2,KDNA,2022-10-24T19:35:00Z,31.88,-106.7,15.0,-8.0,280,24,34,10.0,30.0,,,TRUE,TRUE,,,,,,,CLR,,,,,,,,VFR,,,,,,,,,,,,SPECI,1254.0
KDLZ 241935Z AUTO 17008KT 7SM CLR 22/04 A3008 RMK AO2,KDLZ,2022-10-24T19:35:00Z,40.28,-83.12,22.0,4.0,170,8,,7.0,30.079725,,,TRUE,TRUE,,,,,,,CLR,,,,,,,,VFR,,,,,,,,,,,,METAR,287.0
KDLL 241935Z AUTO 18008G16KT 10SM SCT034 BKN050 BKN075 20/14 A2972 RMK AO2 T02000137,KDLL,2022-10-24T19:35:00Z,43.52,-89.77,20.0,13.7,180,8,16,10.0,29.719488,,,TRUE,TRUE,,,,,,,SCT,3400,BKN,5000,BKN,7500,,,VFR,,,,,,,,,,,,SPECI,297.0
KDKX 241935Z AUTO 13003KT 10SM 25/03 A3009 RMK A01,KDKX,2022-10-24T19:35:00Z,35.97,-83.87,25.0,3.0,130,3,,10.0,30.088583,,,TRUE,TRUE,,,,,,,,,,,,,,,,,,,,,,,,,,,METAR,253.0
KDEH 241935Z AUTO 29007G13KT 250V330 9SM -RA OVC020 17/14 A2965 RMK AO2,KDEH,2022-10-24T19:35:00Z,43.27,-91.73,17.0,14.0,290,7,13,9.0,29.648623,,,TRUE,TRUE,,,,,,-RA,OVC,2000,,,,,,,MVFR,,,,,,,,,,,,METAR,348.0
KDCM 241935Z AUTO 00000KT 10SM CLR 22/07 A3014 RMK AO2,KDCM,2022-10-24T19:35:00Z,34.78,-81.2,22.0,7.0,0,0,,10.0,30.138779,,,TRUE,TRUE,,,,,,,CLR,,,,,,,,VFR,,,,,,,,,,,,METAR,191.0
KD95 241935Z AUTO 18013G19KT 10SM CLR 24/M01 A3001 RMK AO2 T02421006,KD95,2022-10-24T19:35:00Z,43.07,-83.27,24.2,-0.6,180,13,19,10.0,30.008858,,,TRUE,TRUE,,,,,,,CLR,,,,,,,,VFR,,,,,,,,,,,,SPECI,253.0
KD60 241935Z AUTO 31024G33KT 5SM BR OVC007 M02/M01 A2957 RMK AO2,KD60,2022-10-24T19:35:00Z,48.38,-102.9,-2.0,-1.0,310,24,33,5.0,29.568897,,,TRUE,TRUE,,,,,,BR,OVC,700,,,,,,,IFR,,,,,,,,,,,,SPECI,682.0
KD57 241935Z AUTO 31022G35KT 4SM -SN BKN015 BKN021 M00/M03 A2957 RMK AO2,KD57,2022-10-24T19:35:00Z,46.82,-101.87,0.0,-3.0,310,22,35,4.0,29.568897,,,TRUE,TRUE,,,,,,-SN,BKN,1500,BKN,2100,,,,,MVFR,,,,,,,,,,,,SPECI,636.0
KD55 241935Z AUTO 29019KT 1 3/4SM BR BKN007 OVC013 04/04 A2929 RMK AO2,KD55,2022-10-24T19:35:00Z,48.75,-98.4,4.0,4.0,290,19,,1.75,29.291338,,,TRUE,TRUE,,,,,,BR,BKN,700,OVC,1300,,,,,IFR,,,,,,,,,,,,METAR,488.0
KD50 241935Z AUTO 32024KT 10SM OVC008 M01/M02 A2958 RMK AO2,KD50,2022-10-24T19:35:00Z,48.93,-103.3,-1.0,-2.0,320,24,,10.0,29.58071,,,TRUE,TRUE,,,,,,,OVC,800,,,,,,,IFR,,,,,,,,,,,,METAR,591.0
KD25 241935Z AUTO 18008G15KT 10SM DZ OVC017 17/15 A2964 RMK AO2 T01700147,KD25,2022-10-24T19:35:00Z,46.12,-89.88,17.0,14.7,180,8,15,10.0,29.639763,,,TRUE,TRUE,,,,,,DZ,OVC,1700,,,,,,,MVFR,,,,,,,,,,,,METAR,490.0
KCZL 241935Z AUTO 17005KT 10SM CLR 26/09 A3011 RMK AO2,KCZL,2022-10-24T19:35:00Z,34.47,-84.93,26.0,9.0,170,5,,10.0,30.109253,,,TRUE,TRUE,,,,,,,CLR,,,,,,,,VFR,,,,,,,,,,,,METAR,197.0
KCXU 241935Z AUTO 00000KT 10SM CLR 28/09 A3008 RMK AO1 T02770085,KCXU,2022-10-24T19:35:00Z,31.22,-84.23,27.7,8.5,0,0,,10.0,30.079725,,,TRUE,TRUE,,,,,,,CLR,,,,,,,,VFR,,,,,,,,,,,,METAR,48.0
KCXP 241935Z AUTO 00000KT 10SM CLR 10/M11 A3028 RMK AO2,KCXP,2022-10-24T19:35:00Z,39.18,-119.73,10.0,-11.0,0,0,,10.0,30.280512,,,TRUE,TRUE,,,,,,,CLR,,,,,,,,VFR,,,,,,,,,,,,METAR,1431.0
KCXE 241935Z AUTO 00000KT 10SM CLR 23/11 A3010 RMK AO1 T02250106,KCXE,2022-10-24T19:35:00Z,36.78,-78.5,22.5,10.6,0,0,,10.0,30.100393,,,TRUE,TRUE,,,,,,,CLR,,,,,,,,VFR,,,,,,,,,,,,METAR,154.0
KCWC 241935Z AUTO 11003KT 10SM BKN017 17/12 A2975 RMK AO2 T01690122,KCWC,2022-10-24T19:35:00Z,33.85,-98.48,16.9,12.2,110,3,,10.0,29.749016,,,TRUE,TRUE,,,,,,,BKN,1700,,,,,,,MVFR,,,,,,,,,,,,METAR,304.0
KCVX 241935Z AUTO 16006KT 10SM CLR 20/13 A2984 RMK AO2 T02020130,KCVX,2022-10-24T19:35:00Z,45.3,-85.27,20.2,13.0,160,6,,10.0,29.840551,,,TRUE,TRUE,,,,,,,CLR,,,,,,,,VFR,,,,,,,,,,,,SPECI,196.0
KCVH 241935Z AUTO 00000KT 10SM CLR 20/M01 A3022 RMK A01,KCVH,2022-10-24T19:35:00Z,36.9,-121.42,20.0,-1.0,0,0,,10.0,30.221457,,,TRUE,TRUE,,,,,,,CLR,,,,,,,,VFR,,,,,,,,,,,,METAR,68.0
KCVC 241935Z AUTO 21003KT 10SM CLR 24/08 A3012 RMK AO2,KCVC,2022-10-24T19:35:00Z,33.63,-83.85,24.0,8.0,210,3,,10.0,30.121063,,,TRUE,TRUE,,,,,,,CLR,,,,,,,,VFR,,,,,,,,,,,,METAR,240.0
KCTZ 241935Z AUTO 04003KT 10SM CLR 25/13 A3010 RMK AO2 T02470133,KCTZ,2022-10-24T19:35:00Z,34.98,-78.37,24.7,13.3,40,3,,10.0,30.100393,,,TRUE,TRUE,,,,,,,CLR,,,,,,,,VFR,,,,,,,,,,,,SPECI,43.0
KCSQ 241935Z AUTO 36008KT 3SM RA SCT037 SCT048 BKN055 09/08 A2970 RMK AO2,KCSQ,2022-10-24T19:35:00Z,41.02,-94.37,9.0,8.0,360,8,,3.0,29.698818,,,TRUE,TRUE,,,,,,RA,SCT,3700,SCT,4800,BKN,5500,,,MVFR,,,,,,,,,,,,METAR,394.0
KCRX 241935Z AUTO 16013G21KT 10SM CLR 25/12 A2996 RMK AO2,KCRX,2022-10-24T19:35:00Z,34.92,-88.6,25.0,12.0,160,13,21,10.0,29.958662,,,TRUE,TRUE,,,,,,,CLR,,,,,,,,VFR,,,,,,,,,,,,METAR,128.0
KCQW 241935Z AUTO 31006KT 10SM CLR 24/10 A3010 RMK AO2 PWINO,KCQW,2022-10-24T19:35:00Z,34.72,-79.95,24.0,10.0,310,6,,10.0,30.100393,,,TRUE,TRUE,,,,,TRUE,,CLR,,,,,,,,VFR,,,,,,,,,,,,METAR,67.0
KCPT 241935Z AUTO 07008KT 6SM BR FEW002 FEW006 BKN036 17/17 A2975 RMK A01,KCPT,2022-10-24T19:35:00Z,32.35,-97.43,17.0,17.0,70,8,,6.0,29.749016,,,TRUE,TRUE,,,,,,BR,FEW,200,FEW,600,BKN,3600,,,VFR,,,,,,,,,,,,SPECI,260.0
KCPK 241935Z AUTO 34003KT 16/12 A3011 RMK AO2 T01640123,KCPK,2022-10-24T19:35:00Z,36.67,-76.32,16.4,12.3,340,3,,,30.109253,,,TRUE,TRUE,,,,,,,,,,,,,,,,,,,,,,,,,,,SPECI,4.0
KCPF 241935Z AUTO 00000KT 10SM CLR 26/01 A3009 RMK AO2,KCPF,2022-10-24T19:35:00Z,37.38,-83.27,26.0,1.0,0,0,,10.0,30.088583,,,TRUE,TRUE,,,,,,,CLR,,,,,,,,VFR,,,,,,,,,,,,METAR,382.0
KCOQ 241935Z AUTO 20011G16KT 10SM CLR 15/06 A2953 RMK AO2 TSNO,KCOQ,2022-10-24T19:35:00Z,46.7,-92.5,15.0,6.0,200,11,16,10.0,29.530512,,,TRUE,TRUE,,,TRUE,,,,CLR,,,,,,,,VFR,,,,,,,,,,,,METAR,390.0
KCNB 241935Z AUTO 22012G19KT 10SM CLR 09/00 A2965 RMK AO2 T00900001,KCNB,2022-10-24T19:35:00Z,44.73,-96.27,9.0,0.1,220,12,19,10.0,29.648623,,,TRUE,TRUE,,,,,,,CLR,,,,,,,,VFR,,,,,,,,,,,,SPECI,363.0
KCMR 241935Z AUTO VRB04KT 10SM CLR 07/M11 A3019 RMK AO2,KCMR,2022-10-24T19:35:00Z,35.3,-112.2,7.0,-11.0,0,4,,10.0,30.188976,,,TRUE,TRUE,,,,,,,CLR,,,,,,,,VFR,,,,,,,,,,,,SPECI,2039.0
KCLW 241935Z AUTO 34007KT 10SM CLR 26/18 A3004 RMK AO2,KCLW,2022-10-24T19:35:00Z,27.98,-82.75,26.0,18.0,340,7,,10.0,30.041338,,,TRUE,TRUE,,,,,,,CLR,,,,,,,,VFR,,,,,,,,,,,,METAR,21.0
KCLS 241935Z AUTO 15010KT 10SM FEW029 BKN048 BKN070 11/09 A3003 RMK AO2,KCLS,2022-10-24T19:35:00Z,46.68,-122.98,11.0,9.0,150,10,,10.0,30.029528,,,TRUE,TRUE,,,,,,,FEW,2900,BKN,4800,BKN,7000,,,VFR,,,,,,,,,,,,SPECI,52.0
KCLK 241935Z AUTO 07007KT 10SM SCT022 BKN044 OVC055 15/09 A2976 RMK AO2,KCLK,2022-10-24T19:35:00Z,35.53,-98.93,15.0,9.0,70,7,,10.0,29.760826,,,TRUE,TRUE,,,,,,,SCT,2200,BKN,4400,OVC,5500,,,VFR,,,,,,,,,,,,SPECI,489.0
KCLI 241935Z AUTO 19012KT 10SM OVC048 21/14 A2974 RMK AO2 T02060138,KCLI,2022-10-24T19:35:00Z,44.62,-88.73,20.6,13.8,190,12,,10.0,29.740158,,,TRUE,TRUE,,,,,,,OVC,4800,,,,,,,VFR,,,,,,,,,,,,METAR,248.0
KCKZ 241935Z AUTO 03005KT 1 1/2SM BR OVC004 15/15 A3014 RMK AO2,KCKZ,2022-10-24T19:35:00Z,40.38,-75.28,15.0,15.0,30,5,,1.5,30.138779,,,TRUE,TRUE,,,,,,BR,OVC,400,,,,,,,LIFR,,,,,,,,,,,,METAR,160.0
KCKM 241935Z AUTO 16017G22KT 10SM CLR 28/12 A2989 RMK A01,KCKM,2022-10-24T19:35:00Z,34.3,-90.52,28.0,12.0,160,17,22,10.0,29.890747,,,TRUE,TRUE,,,,,,,CLR,,,,,,,,VFR,,,,,,,,,,,,SPECI,52.0
KCKI 241935Z AUTO 03004KT 10SM CLR 21/11 A3012 RMK AO2,KCKI,2022-10-24T19:35:00Z,33.72,-79.85,21.0,11.0,30,4,,10.0,30.121063,,,TRUE,TRUE,,,,,,,CLR,,,,,,,,VFR,,,,,,,,,,,,METAR,19.0
KCJR 241935Z AUTO 09004KT 10SM BKN038 22/13 A3011 RMK AO2 T02190130,KCJR,2022-10-24T19:35:00Z,38.53,-77.87,21.9,13.0,90,4,,10.0,30.109253,,,TRUE,TRUE,,,,,,,BKN,3800,,,,,,,VFR,,,,,,,,,,,,SPECI,90.0
KCIR 241935Z AUTO 20011G16KT 10SM CLR 27/09 A2991 RMK AO2 T02660090,KCIR,2022-10-24T19:35:00Z,37.07,-89.22,26.6,9.0,200,11,16,10.0,29.911417,,,TRUE,TRUE,,,,,,,CLR,,,,,,,,VFR,,,,,,,,,,,,METAR,96.0
KCGC 241935Z AUTO 35004KT 10SM CLR 28/16 A3005 RMK AO2,KCGC,2022-10-24T19:35:00Z,28.87,-82.57,28.0,16.0,350,4,,10.0,30.050198,,,TRUE,TRUE,,,,,,,CLR,,,,,,,,VFR,,,,,,,,,,,,METAR,3.0
KCFJ 241935Z AUTO 18014G18KT 10SM CLR 23/07 A2994 RMK AO2 T02320071,KCFJ,2022-10-24T19:35:00Z,39.98,-86.92,23.2,7.1,180,14,18,10.0,29.940945,,,TRUE,TRUE,,,,,,,CLR,,,,,,,,VFR,,,,,,,,,,,,SPECI,243.0
KCFE 241935Z AUTO 22012G18KT 10SM CLR 11/04 A2966 RMK AO2,KCFE,2022-10-24T19:35:00Z,45.17,-93.85,11.0,4.0,220,12,18,10.0,29.660433,,,TRUE,TRUE,,,,,,,CLR,,,,,,,,VFR,,,,,,,,,,,,METAR,292.0
KCEY 241935Z AUTO 17012G18KT 10SM CLR 26/02 A2995 RMK A01,KCEY,2022-10-24T19:35:00Z,36.67,-88.37,26.0,2.0,170,12,18,10.0,29.949802,,,TRUE,TRUE,,,,,,,CLR,,,,,,,,VFR,,,,,,,,,,,,SPECI,172.0
KCDN 241935Z AUTO 29006KT 10SM CLR 24/08 A3012 RMK AO2,KCDN,2022-10-24T19:35:00Z,34.28,-80.57,24.0,8.0,290,6,,10.0,30.121063,,,TRUE,TRUE,,,,,,,CLR,,,,,,,,VFR,,,,,,,,,,,,SPECI,90.0
KCDI 241935Z AUTO 08003KT 7SM CLR 24/08 A3008 RMK AO2 T02420077,KCDI,2022-10-24T19:35:00Z,39.97,-81.58,24.2,7.7,80,3,,7.0,30.079725,,,TRUE,TRUE,,,,,,,CLR,,,,,,,,VFR,,,,,,,,,,,,METAR,241.0
KCDH 241935Z AUTO 16014G23KT 9SM FEW050 29/17 A2980 RMK AO2,KCDH,2022-10-24T19:35:00Z,33.62,-92.77,29.0,17.0,160,14,23,9.0,29.799213,,,TRUE,TRUE,,,,,,,FEW,5000,,,,,,,VFR,,,,,,,,,,,,METAR,38.0
KCDA 241935Z AUTO 15003KT 10SM 18/12 A3024 RMK AO2 T01810117,KCDA,2022-10-24T19:35:00Z,44.57,-72.02,18.1,11.7,150,3,,10.0,30.239174,,,TRUE,TRUE,,,,,,,,,,,,,,,,,,,,,,,,,,,METAR,357.0
KCCY 241935Z AUTO 29007KT 4SM -RA OVC024 11/11 A2969 RMK AO2,KCCY,2022-10-24T19:35:00Z,43.07,-92.62,11.0,11.0,290,7,,4.0,29.68996,,,TRUE,TRUE,,,,,,-RA,OVC,2400,,,,,,,MVFR,,,,,,,,,,,,METAR,340.0
KCCB 241935Z AUTO VRB04KT 10SM CLR 20/M04 A3016 RMK AO2,KCCB,2022-10-24T19:35:00Z,34.12,-117.68,20.0,-4.0,0,4,,10.0,30.159449,,,TRUE,TRUE,,,,,,,CLR,,,,,,,,VFR,,,,,,,,,,,,METAR,440.0
KCCA 241935Z AUTO 16010G19KT 10SM SCT070 BKN090 25/15 A2980 RMK AO2,KCCA,2022-10-24T19:35:00Z,35.6,-92.45,25.0,15.0,160,10,19,10.0,29.799213,,,TRUE,TRUE,,,,,,,SCT,7000,BKN,9000,,,,,VFR,,,,,,,,,,,,SPECI,152.0
KCBG 241935Z AUTO 00000KT 10SM CLR 13/03 A2964 RMK AO2,KCBG,2022-10-24T19:35:00Z,45.57,-93.27,13.0,3.0,0,0,,10.0,29.639763,,,TRUE,TRUE,,,,,,,CLR,,,,,,,,VFR,,,,,,,,,,,,METAR,285.0
KCAD 241935Z AUTO 17009G14KT 10SM CLR 21/12 A2989 RMK AO2 T02050115,KCAD,2022-10-24T19:35:00Z,44.27,-85.42,20.5,11.5,170,9,14,10.0,29.890747,,,TRUE,TRUE,,,,,,,CLR,,,,,,,,VFR,,,,,,,,,,,,METAR,397.0
KC83 241935Z AUTO 35009KT 10SM CLR 21/M03 A3021 RMK AO2,KC83,2022-10-24T19:35:00Z,37.83,-121.62,21.0,-3.0,350,9,,10.0,30.209646,,,TRUE,TRUE,,,,,,,CLR,,,,,,,,VFR,,,,,,,,,,,,METAR,16.0
KC29 241935Z AUTO 19011KT 10SM BKN050 BKN065 22/14 A2974 RMK AO1 T02210143,KC29,2022-10-24T19:35:00Z,43.12,-89.53,22.1,14.3,190,11,,10.0,29.740158,,,TRUE,TRUE,,,,,,,BKN,5000,BKN,6500,,,,,VFR,,,,,,,,,,,,METAR,282.0
KC09 241935Z AUTO 17015G23KT 10SM BKN060 25/14 A2980 RMK AO2 T02460140,KC09,2022-10-24T19:35:00Z,41.43,-88.42,24.6,14.0,170,15,23,10.0,29.799213,,,TRUE,TRUE,,,,,,,BKN,6000,,,,,,,VFR,,,,,,,,,,,,METAR,179.0
KC07 241935Z AUTO 29010G20KT 240V310 OVC001 A2999 RMK AO2 PWINO,KC07,2022-10-24T19:35:00Z,40.35,-106.7,,,290,10,20,,29.991142,,,TRUE,TRUE,,,,,TRUE,,OVC,100,,,,,,,,,,,,,,,,,,,METAR,3224.0
KBXK 241935Z AUTO VRB05KT 10SM CLR 19/M07 A3014 RMK A01,KBXK,2022-10-24T19:35:00Z,33.42,-112.68,19.0,-7.0,0,5,,10.0,30.138779,,,TRUE,TRUE,,,,,,,CLR,,,,,,,,VFR,,,,,,,,,,,,METAR,303.0
KBXA 241935Z AUTO 18008KT 10SM CLR 31/15 A2997 RMK AO2 T03070147,KBXA,2022-10-24T19:35:00Z,30.82,-89.87,30.7,14.7,180,8,,10.0,29.970472,,,TRUE,TRUE,,,,,,,CLR,,,,,,,,VFR,,,,,,,,,,,,METAR,35.0
KBWW 241935Z AUTO 31026G34KT 10SM OVC014 00/M00 A2963 RMK AO2,KBWW,2022-10-24T19:35:00Z,46.17,-103.3,0.0,0.0,310,26,34,10.0,29.630905,,,TRUE,TRUE,,,,,,,OVC,1400,,,,,,,MVFR,,,,,,,,,,,,METAR,911.0
KBWP 241935Z AUTO 25025G31KT 10SM OVC029 08/01 A2953 RMK AO2,KBWP,2022-10-24T19:35:00Z,46.25,-96.62,8.0,1.0,250,25,31,10.0,29.530512,,,TRUE,TRUE,,,,,,,OVC,2900,,,,,,,MVFR,,,,,,,,,,,,METAR,294.0
KBVU 241935Z AUTO 35012KT 10SM CLR 16/M10 A3025 RMK AO2,KBVU,2022-10-24T19:35:00Z,35.95,-114.87,16.0,-10.0,350,12,,10.0,30.250984,,,TRUE,TRUE,,,,,,,CLR,,,,,,,,VFR,,,,,,,,,,,,METAR,654.0
KBVI 241935Z AUTO 13004KT 10SM CLR 25/04 A3010 RMK AO2 T02470043,KBVI,2022-10-24T19:35:00Z,40.77,-80.37,24.7,4.3,130,4,,10.0,30.100393,,,TRUE,TRUE,,,,,,,CLR,,,,,,,,VFR,,,,,,,,,,,,METAR,387.0
KBTA 241935Z AUTO 32003KT 10SM -RA SCT037 SCT050 BKN090 08/06 A2972 RMK AO2 P0001 T00760055,KBTA,2022-10-24T19:35:00Z,41.42,-96.12,7.6,5.5,320,3,,10.0,29.719488,,,TRUE,TRUE,,,,,,-RA,SCT,3700,SCT,5000,BKN,9000,,,VFR,,,,,,0.01,,,,,,METAR,400.0
KBRY 241935Z AUTO 14008KT 10SM FEW310 27/02 A2999 RMK AO2 T02690025,KBRY,2022-10-24T19:35:00Z,37.82,-85.5,26.9,2.5,140,8,,10.0,29.991142,,,TRUE,TRUE,,,,,,,FEW,31000,,,,,,,VFR,,,,,,,,,,,,METAR,192.0
KBRG 241935Z AUTO 32025G33KT 10SM BKN065 09/M07 A2998 RMK AO2 LTG DSNT E T00921074,KBRG,2022-10-24T19:35:00Z,34.65,-106.83,9.2,-7.4,320,25,33,10.0,29.97933,,,TRUE,TRUE,,,,,,,BKN,6500,,,,,,,VFR,,,,,,,,,,,,METAR,1585.0
KBNW 241935Z AUTO 31010KT 4SM RA FEW028 SCT065 BKN095 10/08 A2974 RMK AO2,KBNW,2022-10-24T19:35:00Z,42.03,-93.83,10.0,8.0,310,10,,4.0,29.740158,,,TRUE,TRUE,,,,,,RA,FEW,2800,SCT,6500,BKN,9500,,,MVFR,,,,,,,,,,,,METAR,350.0
KBNL 241935Z AUTO 02004KT 10SM CLR 25/06 A3012 RMK AO2,KBNL,2022-10-24T19:35:00Z,33.25,-81.38,25.0,6.0,20,4,,10.0,30.121063,,,TRUE,TRUE,,,,,,,CLR,,,,,,,,VFR,,,,,,,,,,,,SPECI,76.0
KBKT 241935Z AUTO 03004KT 10SM CLR 23/12 A3010 RMK AO1 T02250124,KBKT,2022-10-24T19:35:00Z,37.07,-77.95,22.5,12.4,30,4,,10.0,30.100393,,,TRUE,TRUE,,,,,,,CLR,,,,,,,,VFR,,,,,,,,,,,,METAR,134.0
KBKS 241935Z AUTO 15014KT 9SM FEW042 33/23 A2969 RMK AO2 SLP014 T03340226 $,KBKS,2022-10-24T19:35:00Z,27.2,-98.12,33.4,22.6,150,14,,9.0,29.68996,1001.4,,TRUE,TRUE,TRUE,,,,,,FEW,4200,,,,,,,VFR,,,,,,,,,,,,METAR,34.0
KBKD 241935Z AUTO 00000KT 10SM BKN021 OVC090 22/16 A2973 RMK AO2 T02160156,KBKD,2022-10-24T19:35:00Z,32.72,-98.88,21.6,15.6,0,0,,10.0,29.731298,,,TRUE,TRUE,,,,,,,BKN,2100,OVC,9000,,,,,MVFR,,,,,,,,,,,,METAR,383.0
KBGF 241935Z AUTO 19013KT 10SM CLR 24/05 A3005 RMK A01,KBGF,2022-10-24T19:35:00Z,35.18,-86.07,24.0,5.0,190,13,,10.0,30.050198,,,TRUE,TRUE,,,,,,,CLR,,,,,,,,VFR,,,,,,,,,,,,METAR,295.0
KBEA 241935Z AUTO 17014G19KT 10SM BKN040 BKN046 31/20 A2971 RMK AO2 T03050195,KBEA,2022-10-24T19:35:00Z,28.37,-97.78,30.5,19.5,170,14,19,10.0,29.71063,,,TRUE,TRUE,,,,,,,BKN,4000,BKN,4600,,,,,VFR,,,,,,,,,,,,METAR,83.0
KBDU 241935Z AUTO 24005KT 10SM CLR 11/M13 A2984 RMK AO2,KBDU,2022-10-24T19:35:00Z,40.03,-105.23,11.0,-13.0,240,5,,10.0,29.840551,,,TRUE,TRUE,,,,,,,CLR,,,,,,,,VFR,,,,,,,,,,,,METAR,1614.0
KBDL 241935Z 03007KT 9SM -RA FEW005 OVC012 14/13 A3018 RMK AO2 RAB15 P0001 T01390128,KBDL,2022-10-24T19:35:00Z,41.93,-72.68,13.9,12.8,30,7,,9.0,30.180119,,,,TRUE,,,,,,-RA,FEW,500,OVC,1200,,,,,MVFR,,,,,,0.01,,,,,,SPECI,52.0
KBDH 241935Z AUTO 23013G20KT 10SM SCT100 09/01 A2968 RMK AO2,KBDH,2022-10-24T19:35:00Z,45.12,-95.13,9.0,1.0,230,13,20,10.0,29.681103,,,TRUE,TRUE,,,,,,,SCT,10000,,,,,,,VFR,,,,,,,,,,,,METAR,341.0
KBCB 241935Z AUTO 00000KT 10SM CLR 23/05 A3017 RMK AO2 T02290045,KBCB,2022-10-24T19:35:00Z,37.22,-80.42,22.9,4.5,0,0,,10.0,30.171259,,,TRUE,TRUE,,,,,,,CLR,,,,,,,,VFR,,,,,,,,,,,,METAR,642.0
KBAM 241935Z AUTO 23009G14KT 10SM CLR 10/M06 A3026 RMK AO1,KBAM,2022-10-24T19:35:00Z,40.6,-116.87,10.0,-6.0,230,9,14,10.0,30.259842,,,TRUE,TRUE,,,,,,,CLR,,,,,,,,VFR,,,,,,,,,,,,METAR,1381.0
KBAC 241935Z AUTO 25021G27KT 10SM BKN017 BKN022 OVC031 05/02 A2946 RMK AO2,KBAC,2022-10-24T19:35:00Z,46.93,-98.02,5.0,2.0,250,21,27,10.0,29.459646,,,TRUE,TRUE,,,,,,,BKN,1700,BKN,2200,OVC,3100,,,MVFR,,,,,,,,,,,,METAR,423.0
KAZC 241935Z AUTO 00000KT 10SM CLR 10/M05 A3023 RMK AO2,KAZC,2022-10-24T19:35:00Z,36.97,-113.02,10.0,-5.0,0,0,,10.0,30.230314,,,TRUE,TRUE,,,,,,,CLR,,,,,,,,VFR,,,,,,,,,,,,METAR,1476.0
KAXV 241935Z AUTO 18010KT 10SM CLR 23/03 A3003 RMK AO2,KAXV,2022-10-24T19:35:00Z,40.5,-84.3,23.0,3.0,180,10,,10.0,30.029528,,,TRUE,TRUE,,,,,,,CLR,,,,,,,,VFR,,,,,,,,,,,,METAR,278.0
KAXS 241935Z AUTO 05009KT 10SM BKN024 BKN030 OVC038 18/11 A2976 RMK AO2 T01760106,KAXS,2022-10-24T19:35:00Z,34.7,-99.33,17.6,10.6,50,9,,10.0,29.760826,,,TRUE,TRUE,,,,,,,BKN,2400,BKN,3000,OVC,3800,,,MVFR,,,,,,,,,,,,METAR,433.0
KAXH 241935Z AUTO 18007G19KT 10SM SCT035 OVC043 27/19 A2981 RMK AO2 T02720193,KAXH,2022-10-24T19:35:00Z,29.52,-95.48,27.2,19.3,180,7,19,10.0,29.811024,,,TRUE,TRUE,,,,,,,SCT,3500,OVC,4300,,,,,VFR,,,,,,,,,,,,METAR,18.0
KAVQ 241935Z AUTO 33007KT 10SM CLR 17/M04 A3013 RMK AO2 T01741043,KAVQ,2022-10-24T19:35:00Z,32.4,-111.22,17.4,-4.3,330,7,,10.0,30.129921,,,TRUE,TRUE,,,,,,,CLR,,,,,,,,VFR,,,,,,,,,,,,METAR,618.0
KAVP 241935Z 04005KT 10SM OVC009 16/14 A3014 RMK AO2 CIG 006V012 T01610144,KAVP,2022-10-24T19:35:00Z,41.33,-75.72,16.1,14.4,40,5,,10.0,30.138779,,,,TRUE,,,,,,,OVC,900,,,,,,,IFR,,,,,,,,,,,,SPECI,290.0
KAVK 241935Z AUTO 02014KT 10SM OVC021 12/08 A2978 RMK AO2 PWINO,KAVK,2022-10-24T19:35:00Z,36.77,-98.67,12.0,8.0,20,14,,10.0,29.778543,,,TRUE,TRUE,,,,,TRUE,,OVC,2100,,,,,,,MVFR,,,,,,,,,,,,METAR,450.0
KAVC 241935Z AUTO 00000KT 10SM CLR 23/14 A3015 RMK AO2 T02340138,KAVC,2022-10-24T19:35:00Z,36.68,-78.05,23.4,13.8,0,0,,10.0,30.15059,,,TRUE,TRUE,,,,,,,CLR,,,,,,,,VFR,,,,,,,,,,,,METAR,119.0
KATS 241935Z AUTO VRB06KT 10SM FEW075 SCT085 11/08 A2987 RMK AO2,KATS,2022-10-24T19:35:00Z,32.85,-104.47,11.0,8.0,0,6,,10.0,29.870079,,,TRUE,TRUE,,,,,,,FEW,7500,SCT,8500,,,,,VFR,,,,,,,,,,,,METAR,1073.0
KATA 241935Z AUTO 15013G19KT 10SM FEW035 BKN090 BKN140 26/19 A2974 RMK AO2 SLP972 T02600187 $,KATA,2022-10-24T19:35:00Z,33.1,-94.2,26.0,18.7,150,13,19,10.0,29.740158,997.2,,TRUE,TRUE,TRUE,,,,,,FEW,3500,BKN,9000,BKN,14000,,,VFR,,,,,,,,,,,,METAR,85.0
KASN 241935Z AUTO 15004KT 10SM CLR 26/08 A3009 RMK AO2 T02600076,KASN,2022-10-24T19:35:00Z,33.57,-86.05,26.0,7.6,150,4,,10.0,30.088583,,,TRUE,TRUE,,,,,,,CLR,,,,,,,,VFR,,,,,,,,,,,,METAR,159.0
KASJ 241935Z AUTO 31005KT 10SM CLR 21/14 A3010 RMK AO2 T02120137,KASJ,2022-10-24T19:35:00Z,36.28,-77.17,21.2,13.7,310,5,,10.0,30.100393,,,TRUE,TRUE,,,,,,,CLR,,,,,,,,VFR,,,,,,,,,,,,METAR,20.0
KARW 241935Z AUTO 00000KT 10SM CLR 23/08 A3011 RMK AO2,KARW,2022-10-24T19:35:00Z,32.42,-80.63,23.0,8.0,0,0,,10.0,30.109253,,,TRUE,TRUE,,,,,,,CLR,,,,,,,,VFR,,,,,,,,,,,,METAR,2.0
KARV 241935Z AUTO 19016G21KT 10SM OVC018 17/14 A2967 RMK AO2 T01730142,KARV,2022-10-24T19:35:00Z,45.92,-89.72,17.3,14.2,190,16,21,10.0,29.66929,,,TRUE,TRUE,,,,,,,OVC,1800,,,,,,,MVFR,,,,,,,,,,,,METAR,494.0
KARM 241935Z AUTO 16021G25KT 10SM OVC034 27/19 A2978 RMK AO2 T02710192 TSNO,KARM,2022-10-24T19:35:00Z,29.25,-96.15,27.1,19.2,160,21,25,10.0,29.778543,,,TRUE,TRUE,,,TRUE,,,,OVC,3400,,,,,,,VFR,,,,,,,,,,,,METAR,29.0
KAQX 241935Z AUTO 00000KT 10SM CLR 25/07 A3010 RMK AO2,KAQX,2022-10-24T19:35:00Z,32.98,-81.27,25.0,7.0,0,0,,10.0,30.100393,,,TRUE,TRUE,,,,,,,CLR,,,,,,,,VFR,,,,,,,,,,,,METAR,48.0
KANW 241935Z AUTO 30015G23KT 10SM SCT055 09/M07 A2974 RMK AO2 T00921070,KANW,2022-10-24T19:35:00Z,42.57,-100.0,9.2,-7.0,300,15,23,10.0,29.740158,,,TRUE,TRUE,,,,,,,SCT,5500,,,,,,,VFR,,,,,,,,,,,,METAR,788.0
KANQ 241935Z AUTO 19010G18KT 10SM CLR 24/11 A2998 RMK AO2,KANQ,2022-10-24T19:35:00Z,41.63,-85.08,24.0,11.0,190,10,18,10.0,29.97933,,,TRUE,TRUE,,,,,,,CLR,,,,,,,,VFR,,,,,,,,,,,,METAR,299.0
KAMN 241935Z AUTO 16010G18KT 10SM CLR 25/10 A2994 RMK AO2 T02500095,KAMN,2022-10-24T19:35:00Z,43.32,-84.68,25.0,9.5,160,10,18,10.0,29.940945,,,TRUE,TRUE,,,,,,,CLR,,,,,,,,VFR,,,,,,,,,,,,METAR,228.0
KALX 241935Z AUTO 12007KT 10SM CLR 25/10 A3009 RMK AO2 T02470098,KALX,2022-10-24T19:35:00Z,32.92,-85.97,24.7,9.8,120,7,,10.0,30.088583,,,TRUE,TRUE,,,,,,,CLR,,,,,,,,VFR,,,,,,,,,,,,METAR,198.0
KALM 241935Z AUTO 30016G22KT 10SM BKN060 BKN070 12/00 A2996 RMK AO2,KALM,2022-10-24T19:35:00Z,32.83,-105.98,12.0,0.0,300,16,22,10.0,29.958662,,,TRUE,TRUE,,,,,,,BKN,6000,BKN,7000,,,,,VFR,,,,,,,,,,,,METAR,1267.0
KAIT 241935Z AUTO 20008G22KT 10SM SCT032 11/04 A2956 RMK AO2,KAIT,2022-10-24T19:35:00Z,46.53,-93.67,11.0,4.0,200,8,22,10.0,29.56004,,,TRUE,TRUE,,,,,,,SCT,3200,,,,,,,VFR,,,,,,,,,,,,METAR,367.0
KAIK 241935Z AUTO 06003KT 10SM CLR 24/07 A3012 RMK AO2 T02400067,KAIK,2022-10-24T19:35:00Z,33.65,-81.68,24.0,6.7,60,3,,10.0,30.121063,,,TRUE,TRUE,,,,,,,CLR,,,,,,,,VFR,,,,,,,,,,,,METAR,155.0
KAIG 241935Z AUTO 16012G16KT 10SM OVC041 18/14 A2972 RMK AO2 T01820142,KAIG,2022-10-24T19:35:00Z,45.15,-89.12,18.2,14.2,160,12,16,10.0,29.719488,,,TRUE,TRUE,,,,,,,OVC,4100,,,,,,,VFR,,,,,,,,,,,,METAR,462.0
KAGO 241935Z AUTO 18018G23KT 10SM BKN049 OVC060 27/16 A2979 RMK A01,KAGO,2022-10-24T19:35:00Z,33.23,-93.22,27.0,16.0,180,18,23,10.0,29.790354,,,TRUE,TRUE,,,,,,,BKN,4900,OVC,6000,,,,,VFR,,,,,,,,,,,,METAR,91.0
KAGI 241935Z AUTO 15023KT 10SM CLR 27/21 A2988 RMK AO2 T02750208,KAGI,2022-10-24T19:35:00Z,27.55,-92.45,27.5,20.8,150,23,,10.0,29.878937,,,TRUE,TRUE,,,,,,,CLR,,,,,,,,VFR,,,,,,,,,,,,METAR,41.0
KAFP 241935Z AUTO 33006KT 10SM CLR 23/07 A3011 RMK AO2 T02340074,KAFP,2022-10-24T19:35:00Z,35.02,-80.08,23.4,7.4,330,6,,10.0,30.109253,,,TRUE,TRUE,,,,,,,CLR,,,,,,,,VFR,,,,,,,,,,,,METAR,91.0
KAEJ 241935Z AUTO 32017G28KT 10SM 03/M14 A2994 RMK AO2 T00281137,KAEJ,2022-10-24T19:35:00Z,38.82,-106.12,2.8,-13.7,320,17,28,10.0,29.940945,,,TRUE,TRUE,,,,,,,,,,,,,,,,,,,,,,,,,,,METAR,2420.0
KACQ 241935Z AUTO 24007KT 10SM -RA SCT038 BKN065 OVC090 08/06 A2970 RMK AO2 P0001,KACQ,2022-10-24T19:35:00Z,44.07,-93.55,8.0,6.0,240,7,,10.0,29.698818,,,TRUE,TRUE,,,,,,-RA,SCT,3800,BKN,6500,OVC,9000,,,VFR,,,,,,0.01,,,,,,METAR,339.0
KACP 241935Z AUTO 16005KT 10SM SCT041 BKN060 OVC070 28/17 A2988 RMK AO2,KACP,2022-10-24T19:35:00Z,30.75,-92.68,28.0,17.0,160,5,,10.0,29.878937,,,TRUE,TRUE,,,,,,,SCT,4100,BKN,6000,OVC,7000,,,VFR,,,,,,,,,,,,METAR,31.0
KACJ 241935Z AUTO 00000KT 10SM CLR 26/09 A3009 RMK AO2 T02570093,KACJ,2022-10-24T19:35:00Z,32.12,-84.18,25.7,9.3,0,0,,10.0,30.088583,,,TRUE,TRUE,,,,,,,CLR,,,,,,,,VFR,,,,,,,,,,,,METAR,140.0
KACB 241935Z AUTO 18007KT 10SM CLR 23/13 A2985 RMK AO2 T02260126,KACB,2022-10-24T19:35:00Z,44.98,-85.2,22.6,12.6,180,7,,10.0,29.84941,,,TRUE,TRUE,,,,,,,CLR,,,,,,,,VFR,,,,,,,,,,,,METAR,189.0
KAAS 241935Z AUTO 19009KT 10SM CLR 26/04 A3009 RMK AO1,KAAS,2022-10-24T19:35:00Z,37.35,-85.32,26.0,4.0,190,9,,10.0,30.088583,,,TRUE,TRUE,,,,,,,CLR,,,,,,,,VFR,,,,,,,,,,,,METAR,270.0
K96D 241935Z AUTO 30009G15KT 9SM BKN014 BKN020 04/04 A2928 RMK AO2,K96D,2022-10-24T19:35:00Z,48.93,-97.9,4.0,4.0,300,9,15,9.0,29.279528,,,TRUE,TRUE,,,,,,,BKN,1400,BKN,2000,,,,,MVFR,,,,,,,,,,,,METAR,290.0
K8W2 241935Z AUTO 06004KT 10SM CLR 24/06 A3009 RMK AO1 T02440057,K8W2,2022-10-24T19:35:00Z,38.65,-78.7,24.4,5.7,60,4,,10.0,30.088583,,,TRUE,TRUE,,,,,,,CLR,,,,,,,,VFR,,,,,,,,,,,,SPECI,295.0
K8A3 241935Z AUTO 20008KT 10SM CLR 25/03 A3004 RMK A01,K8A3,2022-10-24T19:35:00Z,36.42,-85.32,25.0,3.0,200,8,,10.0,30.041338,,,TRUE,TRUE,,,,,,,CLR,,,,,,,,VFR,,,,,,,,,,,,METAR,413.0
K82V 241935Z AUTO 32024G31KT 10SM SCT048 SCT075 BKN110 06/M07 A2987 RMK AO2,K82V,2022-10-24T19:35:00Z,41.15,-104.13,6.0,-7.0,320,24,31,10.0,29.870079,,,TRUE,TRUE,,,,,,,SCT,4800,SCT,7500,BKN,11000,,,VFR,,,,,,,,,,,,METAR,1563.0
K82C 241935Z AUTO 19011G21KT 10SM SCT032 SCT060 BKN090 22/15 A2969 RMK AO2 T02160148,K82C,2022-10-24T19:35:00Z,43.83,-90.13,21.6,14.8,190,11,21,10.0,29.68996,,,TRUE,TRUE,,,,,,,SCT,3200,SCT,6000,BKN,9000,,,VFR,,,,,,,,,,,,METAR,273.0
K7W6 241935Z AUTO 35004KT 10SM OVC008 16/16 A3011 RMK AO2 T01570157,K7W6,2022-10-24T19:35:00Z,35.55,-75.95,15.7,15.7,350,4,,10.0,30.109253,,,TRUE,TRUE,,,,,,,OVC,800,,,,,,,IFR,,,,,,,,,,,,METAR,1.0
K7W4 241935Z AUTO 31003KT 10SM SCT034 22/13 A3010 RMK AO1 T02220133,K7W4,2022-10-24T19:35:00Z,37.97,-77.75,22.2,13.3,310,3,,10.0,30.100393,,,TRUE,TRUE,,,,,,,SCT,3400,,,,,,,VFR,,,,,,,,,,,,METAR,115.0
K7L2 241935Z AUTO 29022G27KT 10SM BKN017 OVC023 02/M00 A2959 RMK AO2,K7L2,2022-10-24T19:35:00Z,46.22,-100.25,2.0,0.0,290,22,27,10.0,29.589567,,,TRUE,TRUE,,,,,,,BKN,1700,OVC,2300,,,,,MVFR,,,,,,,,,,,,METAR,541.0
K77S 241935Z AUTO 26006KT 6SM BR BKN011 BKN018 OVC023 12/12 A3014 RMK A01,K77S,2022-10-24T19:35:00Z,43.93,-123.0,12.0,12.0,260,6,,6.0,30.138779,,,TRUE,TRUE,,,,,,BR,BKN,1100,BKN,1800,OVC,2300,,,MVFR,,,,,,,,,,,,SPECI,161.0
K6S2 241935Z AUTO 20008G14KT 7SM BKN003 OVC011 12/12 A3016 RMK AO2,K6S2,2022-10-24T19:35:00Z,43.98,-124.12,12.0,12.0,200,8,14,7.0,30.159449,,,TRUE,TRUE,,,,,,,BKN,300,OVC,1100,,,,,LIFR,,,,,,,,,,,,METAR,16.0
K6S0 241935Z AUTO 27041G47KT 10SM CLR 06/M07 A2976 RMK A01,K6S0,2022-10-24T19:35:00Z,45.8,-109.97,6.0,-7.0,270,41,47,10.0,29.760826,,,TRUE,TRUE,,,,,,,CLR,,,,,,,,VFR,,,,,,,,,,,,METAR,1364.0
K6L4 241935Z AUTO VRB04KT 10SM CLR 24/03 A3010 RMK AO2,K6L4,2022-10-24T19:35:00Z,37.85,-81.92,24.0,3.0,0,4,,10.0,30.100393,,,TRUE,TRUE,,,,,,,CLR,,,,,,,,VFR,,,,,,,,,,,,METAR,504.0
K6B9 241935Z AUTO 01006KT 9SM FEW036 20/11 A3013 RMK AO2,K6B9,2022-10-24T19:35:00Z,42.92,-76.43,20.0,11.0,10,6,,9.0,30.129921,,,TRUE,TRUE,,,,,,,FEW,3600,,,,,,,VFR,,,,,,,,,,,,METAR,306.0
K6B0 241935Z AUTO 00000KT 10SM OVC031 17/14 A3020 RMK AO2 T01680136,K6B0,2022-10-24T19:35:00Z,43.98,-73.1,16.8,13.6,0,0,,10.0,30.200787,,,TRUE,TRUE,,,,,,,OVC,3100,,,,,,,VFR,,,,,,,,,,,,METAR,149.0
K6A2 241935Z AUTO 14003KT 10SM CLR 25/08 A3012 RMK AO2,K6A2,2022-10-24T19:35:00Z,33.23,-84.27,25.0,8.0,140,3,,10.0,30.121063,,,TRUE,TRUE,,,,,,,CLR,,,,,,,,VFR,,,,,,,,,,,,METAR,290.0
K65S 241935Z AUTO 18007G13KT 140V230 10SM FEW043 FEW049 FEW060 05/02 A2986 RMK AO2,K65S,2022-10-24T19:35:00Z,48.73,-116.3,5.0,2.0,180,7,13,10.0,29.861221,,,TRUE,TRUE,,,,,,,FEW,4300,FEW,4900,FEW,6000,,,VFR,,,,,,,,,,,,METAR,708.0
K63S 241935Z AUTO 00000KT 10SM OVC022 05/02 A2988 RMK A01,K63S,2022-10-24T19:35:00Z,48.53,-117.88,5.0,2.0,0,0,,10.0,29.878937,,,TRUE,TRUE,,,,,,,OVC,2200,,,,,,,MVFR,,,,,,,,,,,,METAR,571.0
K5T9 241935Z AUTO VRB03KT 9SM CLR 31/21 A2966 RMK A01,K5T9,2022-10-24T19:35:00Z,28.85,-100.52,31.0,21.0,0,3,,9.0,29.660433,,,TRUE,TRUE,,,,,,,CLR,,,,,,,,VFR,,,,,,,,,,,,METAR,269.0
K5H4 241935Z AUTO 31022G32KT 9SM -UP FEW014 BKN022 BKN028 02/M10 A2945 RMK AO2,K5H4,2022-10-24T19:35:00Z,47.78,-99.93,2.0,-10.0,310,22,32,9.0,29.450787,,,TRUE,TRUE,,,,,,UP,FEW,1400,BKN,2200,BKN,2800,,,MVFR,,,,,,,,,,,,METAR,490.0
K54J 241935Z AUTO 00000KT 10SM CLR 27/11 A3006 RMK AO2 T02720111,K54J,2022-10-24T19:35:00Z,30.73,-86.15,27.2,11.1,0,0,,10.0,30.059055,,,TRUE,TRUE,,,,,,,CLR,,,,,,,,VFR,,,,,,,,,,,,METAR,87.0
K54A 241935Z AUTO 09008KT 10SM FEW044 FEW055 31/20 A3000 RMK AO2,K54A,2022-10-24T19:35:00Z,26.85,-82.25,31.0,20.0,90,8,,10.0,30.0,,,TRUE,TRUE,,,,,,,FEW,4400,FEW,5500,,,,,VFR,,,,,,,,,,,,METAR,2.0
K4V0 241935Z AUTO 22007KT 200V260 10SM OVC047 05/M04 A3012 RMK AO2 T00521043,K4V0,2022-10-24T19:35:00Z,40.1,-108.77,5.2,-4.3,220,7,,10.0,30.121063,,,TRUE,TRUE,,,,,,,OVC,4700,,,,,,,VFR,,,,,,,,,,,,METAR,1602.0
K4S2 241935Z AUTO 30006KT 10SM -DZ SCT013 SCT023 OVC036 09/08 A2999 RMK AO2,K4S2,2022-10-24T19:35:00Z,45.68,-121.55,9.0,8.0,300,6,,10.0,29.991142,,,TRUE,TRUE,,,,,,-DZ,SCT,1300,SCT,2300,OVC,3600,,,VFR,,,,,,,,,,,,METAR,183.0
K4S1 241935Z AUTO 17017G25KT 4SM HZ SCT019 BKN027 13/10 A3021 RMK AO2,K4S1,2022-10-24T19:35:00Z,42.42,-124.42,13.0,10.0,170,17,25,4.0,30.209646,,,TRUE,TRUE,,,,,,HZ,SCT,1900,BKN,2700,,,,,MVFR,,,,,,,,,,,,METAR,7.0
K4R5 241935Z AUTO 20010G19KT 150V240 10SM SCT043 BKN050 OVC065 22/15 A2952 RMK AO2 T02200145,K4R5,2022-10-24T19:35:00Z,46.78,-90.77,22.0,14.5,200,10,19,10.0,29.518702,,,TRUE,TRUE,,,,,,,SCT,4300,BKN,5000,OVC,6500,,,VFR,,,,,,,,,,,,METAR,195.0
K4M9 241935Z AUTO 17014G19KT 10SM SCT065 25/16 A2987 RMK AO2 PWINO,K4M9,2022-10-24T19:35:00Z,36.4,-90.65,25.0,16.0,170,14,19,10.0,29.870079,,,TRUE,TRUE,,,,,TRUE,,SCT,6500,,,,,,,VFR,,,,,,,,,,,,METAR,86.0
K4A6 241935Z AUTO VRB06KT 10SM CLR 25/09 A3006 RMK AO2,K4A6,2022-10-24T19:35:00Z,34.68,-86.0,25.0,9.0,0,6,,10.0,30.059055,,,TRUE,TRUE,,,,,,,CLR,,,,,,,,VFR,,,,,,,,,,,,METAR,191.0
K46U 241935Z AUTO 30011G18KT 10SM BKN038 BKN044 01/M05 A3014 RMK A01,K46U,2022-10-24T19:35:00Z,43.18,-111.05,1.0,-5.0,300,11,18,10.0,30.138779,,,TRUE,TRUE,,,,,,,BKN,3800,BKN,4400,,,,,VFR,,,,,,,,,,,,METAR,1718.0
K46D 241935Z AUTO 29020G27KT 2 1/2SM BR BKN010 OVC016 03/02 A2945 RMK AO2,K46D,2022-10-24T19:35:00Z,47.45,-99.15,3.0,2.0,290,20,27,2.5,29.450787,,,TRUE,TRUE,,,,,,BR,BKN,1000,OVC,1600,,,,,IFR,,,,,,,,,,,,METAR,488.0
K42J 241935Z AUTO VRB05KT 10SM CLR 27/09 A3007 RMK A01,K42J,2022-10-24T19:35:00Z,29.85,-82.05,27.0,9.0,0,5,,10.0,30.070866,,,TRUE,TRUE,,,,,,,CLR,,,,,,,,VFR,,,,,,,,,,,,METAR,57.0
K41U 241935Z AUTO 17008KT 10SM SCT036 BKN042 OVC050 04/M03 A3022 RMK AO1 T00361035,K41U,2022-10-24T19:35:00Z,39.33,-111.6,3.6,-3.5,170,8,,10.0,30.221457,,,TRUE,TRUE,,,,,,,SCT,3600,BKN,4200,OVC,5000,,,VFR,,,,,,,,,,,,METAR,1676.0
K3S8 241935Z AUTO 32003KT 10SM BKN009 OVC014 09/07 A3027 RMK AO2,K3S8,2022-10-24T19:35:00Z,42.5,-123.4,9.0,7.0,320,3,,10.0,30.268702,,,TRUE,TRUE,,,,,,,BKN,900,OVC,1400,,,,,IFR,,,,,,,,,,,,METAR,339.0
K3N8 241935Z AUTO 21020G28KT 10SM OVC025 07/02 A2945 RMK AO2 T00710019,K3N8,2022-10-24T19:35:00Z,47.25,-95.92,7.1,1.9,210,20,28,10.0,29.450787,,,TRUE,TRUE,,,,,,,OVC,2500,,,,,,,MVFR,,,,,,,,,,,,METAR,379.0
K3LF 241935Z AUTO 17022G26KT 10SM BKN040 BKN050 BKN070 23/13 A2985 RMK AO2 T02270133,K3LF,2022-10-24T19:35:00Z,39.17,-89.67,22.7,13.3,170,22,26,10.0,29.84941,,,TRUE,TRUE,,,,,,,BKN,4000,BKN,5000,BKN,7000,,,VFR,,,,,,,,,,,,METAR,207.0
K3J7 241935Z AUTO 08003KT 10SM CLR 25/07 A3012 RMK AO2,K3J7,2022-10-24T19:35:00Z,33.6,-83.13,25.0,7.0,80,3,,10.0,30.121063,,,TRUE,TRUE,,,,,,,CLR,,,,,,,,VFR,,,,,,,,,,,,METAR,207.0
K3AU 241935Z AUTO 36008KT 10SM OVC009 09/07 A2975 RMK AO2,K3AU,2022-10-24T19:35:00Z,37.67,-97.08,9.0,7.0,360,8,,10.0,29.749016,,,TRUE,TRUE,,,,,,,OVC,900,,,,,,,IFR,,,,,,,,,,,,METAR,403.0
K35A 241935Z AUTO 05005KT 10SM CLR 24/06 A3016 RMK A02 T02400065,K35A,2022-10-24T19:35:00Z,34.68,-81.63,24.0,6.5,50,5,,10.0,30.159449,,,TRUE,TRUE,,,,,,,CLR,,,,,,,,VFR,,,,,,,,,,,,METAR,186.0
K33N 241935Z AUTO 34005KT 3/4SM BR OVC004 15/15 A3010 RMK A01,K33N,2022-10-24T19:35:00Z,39.22,-75.6,15.0,15.0,340,5,,0.75,30.100393,,,TRUE,TRUE,,,,,,BR,OVC,400,,,,,,,LIFR,,,,,,,,,,,,METAR,17.0
K2P2 241935Z AUTO 19012G20KT 10SM CLR 13/11 A2978 RMK AO2 T01260108,K2P2,2022-10-24T19:35:00Z,45.38,-86.92,12.6,10.8,190,12,20,10.0,29.778543,,,TRUE,TRUE,,,,,,,CLR,,,,,,,,VFR,,,,,,,,,,,,METAR,182.0
K2M2 241935Z AUTO 20009G19KT 10SM CLR 24/04 A3001 RMK A01,K2M2,2022-10-24T19:35:00Z,35.23,-87.25,24.0,4.0,200,9,19,10.0,30.008858,,,TRUE,TRUE,,,,,,,CLR,,,,,,,,VFR,,,,,,,,,,,,METAR,286.0
K2J9 241935Z AUTO VRB05KT 10SM SCT055 29/14 A3008 RMK AO2,K2J9,2022-10-24T19:35:00Z,30.6,-84.55,29.0,14.0,0,5,,10.0,30.079725,,,TRUE,TRUE,,,,,,,SCT,5500,,,,,,,VFR,,,,,,,,,,,,METAR,62.0
K2G2 241935Z AUTO 00000KT 3SM HZ CLR 23/02 A3009 RMK A01,K2G2,2022-10-24T19:35:00Z,,,23.0,2.0,0,0,,3.0,30.088583,,,TRUE,TRUE,,,,,,HZ,CLR,,,,,,,,MVFR,,,,,,,,,,,,METAR,
K2D5 241935Z AUTO 25022G28KT 9SM OVC028 07/M01 A2952 RMK AO2,K2D5,2022-10-24T19:35:00Z,46.17,-98.08,7.0,-1.0,250,22,28,9.0,29.518702,,,TRUE,TRUE,,,,,,,OVC,2800,,,,,,,MVFR,,,,,,,,,,,,METAR,407.0
K2C8 241935Z AUTO 30013KT 1SM BR BKN008 OVC013 05/05 A2926 RMK AO2,K2C8,2022-10-24T19:35:00Z,48.78,-97.63,5.0,5.0,300,13,,1.0,29.258858,,,TRUE,TRUE,,,,,,BR,BKN,800,OVC,1300,,,,,IFR,,,,,,,,,,,,METAR,271.0
K2A0 241935Z AUTO 25005KT 10SM CLR 25/08 A3007 RMK A01,K2A0,2022-10-24T19:35:00Z,35.48,-84.93,25.0,8.0,250,5,,10.0,30.070866,,,TRUE,TRUE,,,,,,,CLR,,,,,,,,VFR,,,,,,,,,,,,METAR,219.0
K28J 241935Z AUTO 10006KT 10SM BKN050 25/13 A3008 RMK AO2 TSNO,K28J,2022-10-24T19:35:00Z,29.65,-81.68,25.0,13.0,100,6,,10.0,30.079725,,,TRUE,TRUE,,,TRUE,,,,BKN,5000,,,,,,,VFR,,,,,,,,,,,,METAR,9.0
K27K 241935Z AUTO 15010KT 10SM CLR 24/02 A3005 RMK AO1,K27K,2022-10-24T19:35:00Z,38.23,-84.43,24.0,2.0,150,10,,10.0,30.050198,,,TRUE,TRUE,,,,,,,CLR,,,,,,,,VFR,,,,,,,,,,,,METAR,283.0
K24J 241935Z AUTO 00000KT 10SM 28/10 A3007 RMK A01,K24J,2022-10-24T19:35:00Z,30.3,-83.03,28.0,10.0,0,0,,10.0,30.070866,,,TRUE,TRUE,,,,,,,,,,,,,,,,,,,,,,,,,,,METAR,30.0
K24A 241935Z AUTO 00000KT 10SM CLR 23/M02 A3015 RMK AO2 T02301017,K24A,2022-10-24T19:35:00Z,35.32,-83.2,23.0,-1.7,0,0,,10.0,30.15059,,,TRUE,TRUE,,,,,,,CLR,,,,,,,,VFR,,,,,,,,,,,,METAR,864.0
K22N 241935Z AUTO 00000KT 1 1/2SM BR OVC008 15/13 A3015 RMK AO2,K22N,2022-10-24T19:35:00Z,40.8,-75.77,15.0,13.0,0,0,,1.5,30.15059,,,TRUE,TRUE,,,,,,BR,OVC,800,,,,,,,IFR,,,,,,,,,,,,METAR,159.0
K21D 241935Z AUTO 21011KT 10SM -RA SCT044 BKN065 OVC090 12/07 A2967 RMK AO2,K21D,2022-10-24T19:35:00Z,45.0,-92.85,12.0,7.0,210,11,,10.0,29.66929,,,TRUE,TRUE,,,,,,-RA,SCT,4400,BKN,6500,OVC,9000,,,VFR,,,,,,,,,,,,METAR,281.0
K20U 241935Z AUTO 30027G38KT 10SM BKN016 OVC025 01/M01 A2967 RMK AO2,K20U,2022-10-24T19:35:00Z,46.93,-103.98,1.0,-1.0,300,27,38,10.0,29.66929,,,TRUE,TRUE,,,,,,,BKN,1600,OVC,2500,,,,,MVFR,,,,,,,,,,,,METAR,839.0
K1V6 241935Z AUTO 11011KT 10SM CLR 10/M02 A2988 RMK AO2,K1V6,2022-10-24T19:35:00Z,38.43,-105.1,10.0,-2.0,110,11,,10.0,29.878937,,,TRUE,TRUE,,,,,,,CLR,,,,,,,,VFR,,,,,,,,,,,,METAR,1658.0
K1U7 241935Z AUTO 31012KT 10SM SCT032 02/M03 A3013 RMK A01,K1U7,2022-10-24T19:35:00Z,42.25,-111.33,2.0,-3.0,310,12,,10.0,30.129921,,,TRUE,TRUE,,,,,,,SCT,3200,,,,,,,VFR,,,,,,,,,,,,METAR,1808.0
K1S5 241935Z AUTO 09006KT 10SM OVC110 12/07 A2991 RMK AO2 T01210065,K1S5,2022-10-24T19:35:00Z,46.33,-119.97,12.1,6.5,90,6,,10.0,29.911417,,,TRUE,TRUE,,,,,,,OVC,11000,,,,,,,VFR,,,,,,,,,,,,SPECI,228.0
K1R7 241935Z AUTO 15008G15KT 10SM SCT055 28/17 A2995 RMK AO2 PWINO,K1R7,2022-10-24T19:35:00Z,31.6,-90.42,28.0,17.0,150,8,15,10.0,29.949802,,,TRUE,TRUE,,,,,TRUE,,SCT,5500,,,,,,,VFR,,,,,,,,,,,,METAR,142.0
K1P1 241935Z AUTO 00000KT 10SM BKN016 OVC026 17/13 A3024 RMK AO2 T01680131,K1P1,2022-10-24T19:35:00Z,43.78,-71.75,16.8,13.1,0,0,,10.0,30.239174,,,TRUE,TRUE,,,,,,,BKN,1600,OVC,2600,,,,,MVFR,,,,,,,,,,,,METAR,155.0
K1M5 241935Z AUTO 17015KT 10SM CLR 25/04 A3001 RMK A01,K1M5,2022-10-24T19:35:00Z,36.6,-86.48,25.0,4.0,170,15,,10.0,30.008858,,,TRUE,TRUE,,,,,,,CLR,,,,,,,,VFR,,,,,,,,,,,,METAR,239.0
K1K1 241935Z AUTO 03004KT 10SM OVC007 09/08 A2976 RMK AO2 T00920077,K1K1,2022-10-24T19:35:00Z,37.77,-97.12,9.2,7.7,30,4,,10.0,29.760826,,,TRUE,TRUE,,,,,,,OVC,700,,,,,,,IFR,,,,,,,,,,,,METAR,411.0
K1D1 241935Z AUTO 25018KT 10SM CLR 09/01 A2961 RMK AO2,K1D1,2022-10-24T19:35:00Z,45.23,-96.57,9.0,1.0,250,18,,10.0,29.610237,,,TRUE,TRUE,,,,,,,CLR,,,,,,,,VFR,,,,,,,,,,,,METAR,341.0
K1A9 241935Z AUTO 00000KT 10SM CLR 26/10 A3006 RMK AO2 T02600104,K1A9,2022-10-24T19:35:00Z,32.43,-86.52,26.0,10.4,0,0,,10.0,30.059055,,,TRUE,TRUE,,,,,,,CLR,,,,,,,,VFR,,,,,,,,,,,,METAR,65.0
K1A5 241935Z AUTO 00000KT 10SM CLR 25/M02 A3015 RMK AO2 T02511018,K1A5,2022-10-24T19:35:00Z,35.22,-83.42,25.1,-1.8,0,0,,10.0,30.15059,,,TRUE,TRUE,,,,,,,CLR,,,,,,,,VFR,,,,,,,,,,,,SPECI,611.0
K15M 241935Z AUTO 14007KT 10SM FEW250 SCT290 24/11 A2999 RMK AO2 T02440114 $,K15M,2022-10-24T19:35:00Z,34.77,-88.17,24.4,11.4,140,7,,10.0,29.991142,,,TRUE,TRUE,TRUE,,,,,,FEW,25000,SCT,29000,,,,,VFR,,,,,,,,,,,,METAR,192.0
K14Y 241935Z AUTO 22014G23KT 10SM SCT025 07/01 A2960 RMK AO2,K14Y,2022-10-24T19:35:00Z,45.9,-94.87,7.0,1.0,220,14,23,10.0,29.601377,,,TRUE,TRUE,,,,,,,SCT,2500,,,,,,,VFR,,,,,,,,,,,,METAR,404.0
K10G 241935Z AUTO 15008KT 10SM CLR 23/03 A3009 RMK AO2,K10G,2022-10-24T19:35:00Z,,,23.0,3.0,150,8,,10.0,30.088583,,,TRUE,TRUE,,,,,,,CLR,,,,,,,,VFR,,,,,,,,,,,,SPECI,
K0VG 241935Z AUTO 00000KT 1 1/4SM HZ CLR 23/02 A3012 RMK AO2,K0VG,2022-10-24T19:35:00Z,36.65,-83.22,23.0,2.0,0,0,,1.25,30.121063,,,TRUE,TRUE,,,,,,HZ,CLR,,,,,,,,IFR,,,,,,,,,,,,METAR,426.0
K0S9 241935Z AUTO 11007KT 10SM SCT026 BKN033 BKN065 14/10 A2994 RMK AO2,K0S9,2022-10-24T19:35:00Z,48.05,-122.82,14.0,10.0,110,7,,10.0,29.940945,,,TRUE,TRUE,,,,,,,SCT,2600,BKN,3300,BKN,6500,,,VFR,,,,,,,,,,,,METAR,33.0
K0R0 241935Z AUTO 16011G18KT 10SM FEW055 30/15 A2998 RMK AO2,K0R0,2022-10-24T19:35:00Z,31.3,-89.82,30.0,15.0,160,11,18,10.0,29.97933,,,TRUE,TRUE,,,,,,,FEW,5500,,,,,,,VFR,,,,,,,,,,,,METAR,76.0
K0F2 241935Z AUTO 00000KT 10SM OVC006 16/14 A2974 RMK AO2 T01630142,K0F2,2022-10-24T19:35:00Z,33.6,-97.78,16.3,14.2,0,0,,10.0,29.740158,,,TRUE,TRUE,,,,,,,OVC,600,,,,,,,IFR,,,,,,,,,,,,METAR,330.0
K0E0 241935Z AUTO 32017G21KT 10SM SCT020 SCT026 BKN060 04/M01 A2991 RMK AO2 T00411011 TSNO,K0E0,2022-10-24T19:35:00Z,34.98,-106.0,4.1,-1.1,320,17,21,10.0,29.911417,,,TRUE,TRUE,,,TRUE,,,,SCT,2000,SCT,2600,BKN,6000,,,VFR,,,,,,,,,,,,METAR,1887.0
K0A9 241935Z AUTO 00000KT 10SM CLR 24/04 A3010 RMK A01,K0A9,2022-10-24T19:35:00Z,36.37,-82.17,24.0,4.0,0,0,,10.0,30.100393,,,TRUE,TRUE,,,,,,,CLR,,,,,,,,VFR,,,,,,,,,,,,METAR,479.0
K0A0 241935Z AUTO 32026G35KT 10SM CLR 12/M05 A3000 RMK AO2,K0A0,2022-10-24T19:35:00Z,32.98,-106.97,12.0,-5.0,320,26,35,10.0,30.0,,,TRUE,TRUE,,,,,,,CLR,,,,,,,,VFR,,,,,,,,,,,,METAR,1401.0
K08D 241935Z AUTO 31022G32KT 9SM -RA M01/M01 A2953 RMK AO2,K08D,2022-10-24T19:35:00Z,48.3,-102.4,-1.0,-1.0,310,22,32,9.0,29.530512,,,TRUE,TRUE,,,,,,-RA,,,,,,,,,,,,,,,,,,,,,METAR,683.0
K06D 241935Z AUTO 31019G31KT 10SM BKN013 BKN017 BKN024 01/01 A2935 RMK AO2,K06D,2022-10-24T19:35:00Z,48.88,-99.62,1.0,1.0,310,19,31,10.0,29.350393,,,TRUE,TRUE,,,,,,,BKN,1300,BKN,1700,BKN,2400,,,MVFR,,,,,,,,,,,,METAR,554.0
K04W 241935Z AUTO 21011G22KT 10SM CLR 13/05 A2960 RMK AO2,K04W,2022-10-24T19:35:00Z,46.02,-92.9,13.0,5.0,210,11,22,10.0,29.601377,,,TRUE,TRUE,,,,,,,CLR,,,,,,,,VFR,,,,,,,,,,,,METAR,310.0
EHKD 241935Z AUTO 22013KT 180V250 9999 SCT017 SCT046 15/13 Q1006 WHT NOSIG,EHKD,2022-10-24T19:35:00Z,52.92,4.77,15.0,13.0,220,13,,6.21,29.704725,,,TRUE,,,TRUE,,,,,SCT,1700,SCT,4600,,,,,VFR,,,,,,,,,,,,SPECI,1.0
CYFS 241935Z 35007KT 1SM -SN FEW008 OVC030 M03/M04 A2985 RMK SF2SC6 SLP123,CYFS,2022-10-24T19:35:00Z,61.75,-121.22,-3.0,-4.0,350,7,,1.0,29.84941,1012.3,,,,,,,,,-SN,FEW,800,OVC,3000,,,,,IFR,,,,,,,,,,,,SPECI,174.0
YTRE 241934Z AUTO 28002KT 9999 // SCT001 15/15 Q1005,YTRE,2022-10-24T19:34:00Z,-31.88,152.52,15.0,15.0,280,2,,6.21,29.675198,,,TRUE,,,,,,,,SCT,100,,,,,,,VFR,,,,,,,,,,,,SPECI,8.0
KSXT 241934Z AUTO 21010KT 1/4SM FG VV002 06/06 A3019 RMK AO2 T00560056 ,KSXT,2022-10-24T19:34:00Z,42.6,-123.37,5.6,5.6,210,10,,0.25,30.188976,,,TRUE,TRUE,,,,,,FG,OVX,0,,,,,,,LIFR,,,,,,,,,,,200,SPECI,1151.0
KSWO 241934Z 34005KT 10SM BKN008 OVC015 14/12 A2973 RMK AO2 CIG 006V012 T01390122,KSWO,2022-10-24T19:34:00Z,36.17,-97.08,13.9,12.2,340,5,,10.0,29.731298,,,,TRUE,,,,,,,BKN,800,OVC,1500,,,,,IFR,,,,,,,,,,,,SPECI,293.0
KSPB 241934Z AUTO 00000KT 10SM FEW007 SCT060 BKN090 11/09 A3006 RMK AO2 T01110094,KSPB,2022-10-24T19:34:00Z,45.77,-122.87,11.1,9.4,0,0,,10.0,30.059055,,,TRUE,TRUE,,,,,,,FEW,700,SCT,6000,BKN,9000,,,VFR,,,,,,,,,,,,SPECI,15.0
KPWT 241934Z AUTO 00000KT 10SM BKN005 10/09 A2996 RMK AO2 CIG 002V008,KPWT,2022-10-24T19:34:00Z,47.5,-122.77,10.0,9.0,0,0,,10.0,29.958662,,,TRUE,TRUE,,,,,,,BKN,500,,,,,,,IFR,,,,,,,,,,,,SPECI,143.0
KPWA 241934Z 35008KT 10SM FEW008 BKN012 BKN017 14/11 A2975 RMK AO2 T01440111,KPWA,2022-10-24T19:34:00Z,35.53,-97.65,14.4,11.1,350,8,,10.0,29.749016,,,,TRUE,,,,,,,FEW,800,BKN,1200,BKN,1700,,,MVFR,,,,,,,,,,,,SPECI,390.0
KORF 241934Z 02004KT 10SM OVC016 16/13 A3011 RMK AO2 T01610133,KORF,2022-10-24T19:34:00Z,36.9,-76.2,16.1,13.3,20,4,,10.0,30.109253,,,,TRUE,,,,,,,OVC,1600,,,,,,,MVFR,,,,,,,,,,,,SPECI,5.0
KNGU 241934Z 28003KT 10SM OVC016 17/13 A3013 RMK AO2 T01670128 $,KNGU,2022-10-24T19:34:00Z,36.93,-76.27,16.7,12.8,280,3,,10.0,30.129921,,,,TRUE,TRUE,,,,,,OVC,1600,,,,,,,MVFR,,,,,,,,,,,,METAR,3.0
KNBT 241934Z AUTO 01006KT 10SM OVC009 19/14 A3011 RMK AO2 T01940144,KNBT,2022-10-24T19:34:00Z,35.02,-76.47,19.4,14.4,10,6,,10.0,30.109253,,,TRUE,TRUE,,,,,,,OVC,900,,,,,,,IFR,,,,,,,,,,,,METAR,5.0
KIWD 241934Z AUTO 18013G17KT 10SM OVC028 19/15 A2959 RMK AO2,KIWD,2022-10-24T19:34:00Z,46.52,-90.12,19.0,15.0,180,13,17,10.0,29.589567,,,TRUE,TRUE,,,,,,,OVC,2800,,,,,,,MVFR,,,,,,,,,,,,SPECI,373.0
KHYR 241934Z AUTO 22013G30KT 10SM -RA BKN028 BKN037 OVC048 17/11 A2960 RMK AO2 PK WND 22030/1930 RAB06 P0001 T01670111,KHYR,2022-10-24T19:34:00Z,46.02,-91.45,16.7,11.1,220,13,30,10.0,29.601377,,,TRUE,TRUE,,,,,,-RA,BKN,2800,BKN,3700,OVC,4800,,,MVFR,,,,,,0.01,,,,,,SPECI,369.0
KBKE 241934Z AUTO 11010KT 1 3/4SM -SN BR OVC018 01/M01 A3007 RMK AO2 P0001 T00111006,KBKE,2022-10-24T19:34:00Z,44.85,-117.82,1.1,-0.6,110,10,,1.75,30.070866,,,TRUE,TRUE,,,,,,-SN BR,OVC,1800,,,,,,,IFR,,,,,,0.01,,,,,,SPECI,1025.0
CYQZ 241934Z AUTO 16007KT 9SM -RA OVC042 06/01 A2964 RMK SLP058,CYQZ,2022-10-24T19:34:00Z,53.02,-122.52,6.0,1.0,160,7,,9.0,29.639763,1005.8,,TRUE,,,,,,,-RA,OVC,4200,,,,,,,VFR,,,,,,,,,,,,SPECI,548.0
YCOM 241933Z AUTO 02005KT //// // SCT012 SCT021 OVC066 ///// Q1006,YCOM,2022-10-24T19:33:00Z,-36.3,148.97,,,20,5,,,29.704725,,,TRUE,,,,,,,,SCT,1200,SCT,2100,OVC,6600,,,,,,,,,,,,,,,SPECI,930.0
YAYE 241933Z AUTO 27015KT 260V050 9999 // SCT094 OVC120 24/08 Q1008,YAYE,2022-10-24T19:33:00Z,-25.18,130.98,24.0,8.0,270,15,,6.21,29.763779,,,TRUE,,,,,,,,SCT,9400,OVC,12000,,,,,VFR,,,,,,,,,,,,SPECI,489.0
PAKV 241933Z AUTO 00000KT 1SM -SN BR BKN007 OVC026 M03/M04 A2996 RMK AO2 P0000 T10331044 TSNO,PAKV,2022-10-24T19:33:00Z,64.33,-158.72,-3.3,-4.4,0,0,,1.0,29.958662,,,TRUE,TRUE,,,TRUE,,,-SN BR,BKN,700,OVC,2600,,,,,IFR,,,,,,0.005,,,,,,SPECI,53.0
KXVG 241933Z AUTO 20015G21KT 164V224 10SM SCT030 10/03 A2950 RMK AO2,KXVG,2022-10-24T19:33:00Z,46.98,-94.2,10.0,3.0,200,15,21,10.0,29.500984,,,TRUE,TRUE,,,,,,,SCT,3000,,,,,,,VFR,,,,,,,,,,,,SPECI,407.0
KPRX 241933Z AUTO 33017G21KT 2 1/2SM +RA BR FEW008 SCT012 OVC023 17/16 A2974 RMK AO2 RAB30 P0010,KPRX,2022-10-24T19:33:00Z,33.63,-95.45,17.0,16.0,330,17,21,2.5,29.740158,,,TRUE,TRUE,,,,,,+RA BR,FEW,800,SCT,1200,OVC,2300,,,IFR,,,,,,0.1,,,,,,SPECI,165.0
KOWA 241933Z AUTO 25010KT 10SM -RA SCT047 SCT070 BKN100 11/07 A2967 RMK AO2,KOWA,2022-10-24T19:33:00Z,44.12,-93.25,11.0,7.0,250,10,,10.0,29.66929,,,TRUE,TRUE,,,,,,-RA,SCT,4700,SCT,7000,BKN,10000,,,VFR,,,,,,,,,,,,METAR,345.0
KORB 241933Z AUTO 20011G18KT 10SM CLR 16/08 A2940 RMK AO2,KORB,2022-10-24T19:33:00Z,48.02,-92.87,16.0,8.0,200,11,18,10.0,29.40059,,,TRUE,TRUE,,,,,,,CLR,,,,,,,,VFR,,,,,,,,,,,,METAR,407.0
KGED 241933Z AUTO VRB05KT 2 1/2SM BR OVC004 17/16 A3008 RMK AO2 CIG 003V008 T01670156,KGED,2022-10-24T19:33:00Z,38.68,-75.37,16.7,15.6,0,5,,2.5,30.079725,,,TRUE,TRUE,,,,,,BR,OVC,400,,,,,,,LIFR,,,,,,,,,,,,SPECI,15.0
KFOZ 241933Z AUTO 20015G28KT 10SM BKN031 12/06 A2950 RMK AO2,KFOZ,2022-10-24T19:33:00Z,47.77,-93.65,12.0,6.0,200,15,28,10.0,29.500984,,,TRUE,TRUE,,,,,,,BKN,3100,,,,,,,VFR,,,,,,,,,,,,METAR,412.0
KETH 241933Z AUTO 24013G21KT 10SM 10/01 A2959 RMK AO2,KETH,2022-10-24T19:33:00Z,45.78,-96.55,10.0,1.0,240,13,21,10.0,29.589567,,,TRUE,TRUE,,,,,,,,,,,,,,,,,,,,,,,,,,,METAR,309.0
KEEN 241933Z AUTO 00000KT 10SM BKN005 BKN011 OVC027 13/13 A3022 RMK AO2 RAE33 CIG 003V009 P0001 $,KEEN,2022-10-24T19:33:00Z,42.88,-72.27,13.0,13.0,0,0,,10.0,30.221457,,,TRUE,TRUE,TRUE,,,,,,BKN,500,BKN,1100,OVC,2700,,,IFR,,,,,,0.01,,,,,,SPECI,143.0
KDVP 241933Z AUTO 25016G19KT 10SM BKN110 07/M01 A2967 RMK AO2 T00671012,KDVP,2022-10-24T19:33:00Z,43.98,-95.78,6.7,-1.2,250,16,19,10.0,29.66929,,,TRUE,TRUE,,,,,,,BKN,11000,,,,,,,VFR,,,,,,,,,,,,METAR,493.0
KDOV 241933Z 31006KT 5SM BR OVC006 15/15 A3008 RMK AO2A TWR VIS 1/2 DZB02E09RAB09E27DZB27E30 CIG 004 RWY14 CIG 004 RWY19 SLP190,KDOV,2022-10-24T19:33:00Z,39.12,-75.47,15.0,15.0,310,6,,5.0,30.079725,1019.0,,,TRUE,,,,,,BR,OVC,600,,,,,,,IFR,,,,,,,,,,,,SPECI,6.0
KBID 241933Z AUTO 05008KT 1/2SM FG OVC002 14/14 A3018 RMK AO2,KBID,2022-10-24T19:33:00Z,41.17,-71.58,14.0,14.0,50,8,,0.5,30.180119,,,TRUE,TRUE,,,,,,FG,OVC,200,,,,,,,LIFR,,,,,,,,,,,,SPECI,32.0
KART 241933Z AUTO 23008KT 3SM HZ BKN040 18/08 A3013 RMK AO2 T01830078,KART,2022-10-24T19:33:00Z,43.98,-76.03,18.3,7.8,230,8,,3.0,30.129921,,,TRUE,TRUE,,,,,,HZ,BKN,4000,,,,,,,MVFR,,,,,,,,,,,,SPECI,100.0
KAQP 241933Z AUTO 27014G22KT 10SM SCT085 09/01 A2962 RMK AO2,KAQP,2022-10-24T19:33:00Z,45.22,-96.0,9.0,1.0,270,14,22,10.0,29.619095,,,TRUE,TRUE,,,,,,,SCT,8500,,,,,,,VFR,,,,,,,,,,,,METAR,312.0
CYHY 241933Z 08008KT 3/4SM -SN BKN009 OVC019 M02/M03 A2976 RMK SC5SC3 SLP094,CYHY,2022-10-24T19:33:00Z,60.83,-115.77,-2.0,-3.0,80,8,,0.75,29.760826,1009.4,,,,,,,,,-SN,BKN,900,OVC,1900,,,,,LIFR,,,,,,,,,,,,SPECI,159.0
CYHK 241933Z AUTO 27011G16KT 9SM -SN OVC010 M09/M10 A2992 RMK SLP140,CYHK,2022-10-24T19:33:00Z,68.62,-95.85,-9.0,-10.0,270,11,16,9.0,29.920275,1014.0,,TRUE,,,,,,,-SN,OVC,1000,,,,,,,MVFR,,,,,,,,,,,,SPECI,36.0
CWKP 241933Z AUTO 30007KT ////SM BKN020 OVC048 M11/M12 A2990,CWKP,2022-10-24T19:33:00Z,69.67,-121.67,-11.0,-12.0,300,7,,,29.899607,,,TRUE,,,,,,,,BKN,2000,OVC,4800,,,,,,,,,,,,,,,,,SPECI,322.0
CBBC 241933Z AUTO 31004KT 200V330 9SM -RA SCT044 SCT055 BKN097 10/06 A2984 RMK SLP109,CBBC,2022-10-24T19:33:00Z,52.18,-128.15,10.0,6.0,310,4,,9.0,29.840551,1010.9,,TRUE,,,,,,,-RA,SCT,4400,SCT,5500,BKN,9700,,,VFR,,,,,,,,,,,,SPECI,36.0
PAWN 241932Z AUTO 16010KT 2 1/2SM -SN BR OVC006 M02/M02 A2984 RMK AO2 CIG 004V009 P0000 FZRANO,PAWN,2022-10-24T19:32:00Z,67.57,-162.98,-2.0,-2.0,160,10,,2.5,29.840551,,,TRUE,TRUE,,,,TRUE,,-SN BR,OVC,600,,,,,,,IFR,,,,,,0.005,,,,,,SPECI,26.0
PANI 241932Z AUTO 29005KT 5SM -SN BR BKN023 BKN030 OVC035 00/M01 A3004 RMK AO2 P0000 FZRANO $,PANI,2022-10-24T19:32:00Z,61.58,-159.53,0.0,-1.0,290,5,,5.0,30.041338,,,TRUE,TRUE,TRUE,,,TRUE,,-SN BR,BKN,2300,BKN,3000,OVC,3500,,,MVFR,,,,,,0.005,,,,,,SPECI,21.0
PAJZ 241932Z AUTO 00000KT 8SM -RA FEW003 SCT043 OVC060 01/00 A3003 RMK AO2 UPB14E32RAB32SNE14 P0000 FZRANO $,PAJZ,2022-10-24T19:32:00Z,59.73,-157.27,1.0,0.0,0,0,,8.0,30.029528,,,TRUE,TRUE,TRUE,,,TRUE,,-RA,FEW,300,SCT,4300,OVC,6000,,,VFR,,,,,,0.005,,,,,,SPECI,80.0
PAEH 241932Z AUTO 00000KT 10SM BKN023 02/01 A3012 RMK AO2 SLP205,PAEH,2022-10-24T19:32:00Z,58.65,-162.07,2.0,1.0,0,0,,10.0,30.121063,1020.5,,TRUE,TRUE,,,,,,,BKN,2300,,,,,,,MVFR,,,,,,,,,,,,SPECI,101.0
PAAK 241932Z AUTO 22007G22KT 180V270 9SM OVC011 A3029 RMK AO2 FZRANO $,PAAK,2022-10-24T19:32:00Z,52.22,-174.2,,,220,7,22,9.0,30.28937,,,TRUE,TRUE,TRUE,,,TRUE,,,OVC,1100,,,,,,,MVFR,,,,,,,,,,,,SPECI,11.0
KVBT 241932Z AUTO 17012G18KT 5SM +RA BR BKN015 OVC022 19/18 A2971 RMK AO2 RAB18 P0005,KVBT,2022-10-24T19:32:00Z,36.35,-94.22,19.0,18.0,170,12,18,5.0,29.71063,,,TRUE,TRUE,,,,,,+RA BR,BKN,1500,OVC,2200,,,,,MVFR,,,,,,0.05,,,,,,SPECI,390.0
KMSV 241932Z AUTO 08006KT 1 3/4SM BR OVC004 14/14 A3017 RMK AO2 VIS 1 1/4V4 RAE25 CIG 002V007 P0001,KMSV,2022-10-24T19:32:00Z,41.7,-74.78,14.0,14.0,80,6,,1.75,30.171259,,,TRUE,TRUE,,,,,,BR,OVC,400,,,,,,,LIFR,,,,,,0.01,,,,,,SPECI,427.0
KGFL 241932Z AUTO 30005KT 7SM -RA OVC032 15/14 A3019 RMK AO2 P0003 T01500139,KGFL,2022-10-24T19:32:00Z,43.33,-73.62,15.0,13.9,300,5,,7.0,30.188976,,,TRUE,TRUE,,,,,,-RA,OVC,3200,,,,,,,VFR,,,,,,0.03,,,,,,SPECI,99.0
KCVO 241932Z AUTO 16008KT 10SM -RA FEW020 BKN027 OVC044 12/11 A3012 RMK AO2 P0000,KCVO,2022-10-24T19:32:00Z,44.5,-123.28,12.0,11.0,160,8,,10.0,30.121063,,,TRUE,TRUE,,,,,,-RA,FEW,2000,BKN,2700,OVC,4400,,,MVFR,,,,,,0.005,,,,,,SPECI,75.0
CYRL 241932Z 19015G36KT 100V260 5SM -TSRA BR BKN009 BKN020CB 14/12 A2916 RMK FG1SF4CB2 CB E MOV NE PRESRR SLP882 DENSITY ALT 2400FT,CYRL,2022-10-24T19:32:00Z,51.07,-93.78,14.0,12.0,190,15,36,5.0,29.161417,988.2,,,,,,,,,-TSRA BR,BKN,900,BKN,2000,,,,,IFR,,,,,,,,,,,,SPECI,370.0
CYDL 241932Z AUTO 36005KT 290V030 3SM -SN BKN015 BKN023 OVC038 M02/M04 A2955 RMK SLP032,CYDL,2022-10-24T19:32:00Z,58.42,-130.02,-2.0,-4.0,360,5,,3.0,29.551182,1003.2,,TRUE,,,,,,,-SN,BKN,1500,BKN,2300,OVC,3800,,,MVFR,,,,,,,,,,,,SPECI,804.0
YMAV 241931Z AUTO 00000KT 6000 DZ SCT031 OVC038 15/15 Q1004,YMAV,2022-10-24T19:31:00Z,-38.03,144.48,15.0,15.0,0,0,,3.73,29.64567,,,TRUE,,,,,,,DZ,SCT,3100,OVC,3800,,,,,MVFR,,,,,,,,,,,,SPECI,11.0
KNYC 241931Z AUTO 05007KT 1 3/4SM BR OVC005 15/14 A3017 RMK AO2 T01500139 $,KNYC,2022-10-24T19:31:00Z,40.78,-73.97,15.0,13.9,50,7,,1.75,30.171259,,,TRUE,TRUE,TRUE,,,,,BR,OVC,500,,,,,,,IFR,,,,,,,,,,,,SPECI,33.0
KMLT 241931Z AUTO 36005KT 1 1/2SM RA BR OVC012 12/12 A3032 RMK AO2 P0005 T01220117,KMLT,2022-10-24T19:31:00Z,45.65,-68.7,12.2,11.7,360,5,,1.5,30.318897,,,TRUE,TRUE,,,,,,RA BR,OVC,1200,,,,,,,IFR,,,,,,0.05,,,,,,SPECI,121.0
KMLP 241931Z AUTO VRB03KT 1/4SM SN FZFG VV001 M04/M05 A2982 RMK AO2 P0003 T10391050,KMLP,2022-10-24T19:31:00Z,47.45,-115.67,-3.9,-5.0,0,3,,0.25,29.819881,,,TRUE,TRUE,,,,,,SN FZFG,OVX,0,,,,,,,LIFR,,,,,,0.03,,,,,100,SPECI,1837.0
KHEI 241931Z AUTO 30021G32KT 4SM -SN BR BKN014 OVC019 01/M02 A2963 RMK AO2 PK WND 30034/1903 P0000 T00061017,KHEI,2022-10-24T19:31:00Z,46.02,-102.65,0.6,-1.7,300,21,32,4.0,29.630905,,,TRUE,TRUE,,,,,,-SN BR,BKN,1400,OVC,1900,,,,,MVFR,,,,,,0.005,,,,,,SPECI,824.0
KGDP 241931Z AUTO 24030G44KT 9SM SCT012 SCT020 OVC080 06/03 A2986 RMK AO2 PK WND 24048/1919 T00560028,KGDP,2022-10-24T19:31:00Z,31.83,-104.82,5.6,2.8,240,30,44,9.0,29.861221,,,TRUE,TRUE,,,,,,,SCT,1200,SCT,2000,OVC,8000,,,VFR,,,,,,,,,,,,METAR,1664.0
KCON 241931Z AUTO 00000KT 10SM -RA SCT005 OVC028 14/14 A3024 RMK AO2 RAE15B25 P0003 T01440139,KCON,2022-10-24T19:31:00Z,43.2,-71.5,14.4,13.9,0,0,,10.0,30.239174,,,TRUE,TRUE,,,,,,-RA,SCT,500,OVC,2800,,,,,MVFR,,,,,,0.03,,,,,,SPECI,102.0
KBRO 241931Z 18019G26KT 10SM BKN027 BKN036 OVC048 31/23 A2977 RMK AO2 PK WND 18028/1854 T03060228,KBRO,2022-10-24T19:31:00Z,25.92,-97.42,30.6,22.8,180,19,26,10.0,29.769686,,,,TRUE,,,,,,,BKN,2700,BKN,3600,OVC,4800,,,MVFR,,,,,,,,,,,,SPECI,6.0
KAUG 241931Z AUTO 01005KT 3SM -RA BR OVC003 14/13 A3026 RMK AO2 RAB1858 P0003 T01440133,KAUG,2022-10-24T19:31:00Z,44.32,-69.8,14.4,13.3,10,5,,3.0,30.259842,,,TRUE,TRUE,,,,,,-RA BR,OVC,300,,,,,,,LIFR,,,,,,0.03,,,,,,SPECI,107.0
KAMA 241931Z 01019G24KT 2 1/2SM RA BR FEW006 SCT018 OVC042 07/06 A2978 RMK AO2 SFC VIS 3 LTG DSNT E AND SE P0022 T00720061,KAMA,2022-10-24T19:31:00Z,35.22,-101.72,7.2,6.1,10,19,24,2.5,29.778543,,,,TRUE,,,,,,RA BR,FEW,600,SCT,1800,OVC,4200,,,IFR,,,,,,0.22,,,,,,SPECI,1102.0
CYHZ 241931Z 12006KT 080V150 12SM BKN013 OVC027 17/13 A3034 RMK SC5SC3 SLP278,CYHZ,2022-10-24T19:31:00Z,44.87,-63.5,17.0,13.0,120,6,,12.0,30.339567,1027.8,,,,,,,,,,BKN,1300,OVC,2700,,,,,MVFR,,,,,,,,,,,,SPECI,136.0
ZYTX 241930Z 13002MPS CAVOK 05/M05 Q1025 NOSIG,ZYTX,2022-10-24T19:30:00Z,41.63,123.48,5.0,-5.0,130,4,,6.21,30.265747,,,,,,TRUE,,,,,CAVOK,,,,,,,,VFR,,,,,,,,,,,,METAR,56.0
ZYTL 241930Z 04001MPS CAVOK 07/04 Q1026 NOSIG,ZYTL,2022-10-24T19:30:00Z,38.97,121.55,7.0,4.0,40,2,,6.21,30.295275,,,,,,TRUE,,,,,CAVOK,,,,,,,,VFR,,,,,,,,,,,,METAR,33.0
ZWWW 241930Z 25001MPS CAVOK 06/01 Q1025 NOSIG,ZWWW,2022-10-24T19:30:00Z,43.9,87.47,6.0,1.0,250,2,,6.21,30.265747,,,,,,TRUE,,,,,CAVOK,,,,,,,,VFR,,,,,,,,,,,,METAR,654.0
ZSSS 241930Z 04002MPS CAVOK 15/09 Q1026 NOSIG,ZSSS,2022-10-24T19:30:00Z,31.2,121.33,15.0,9.0,40,4,,6.21,30.295275,,,,,,TRUE,,,,,CAVOK,,,,,,,,VFR,,,,,,,,,,,,METAR,2.0
ZSPD 241930Z 02004MPS CAVOK 16/09 Q1025 NOSIG,ZSPD,2022-10-24T19:30:00Z,31.15,121.8,16.0,9.0,20,8,,6.21,30.265747,,,,,,TRUE,,,,,CAVOK,,,,,,,,VFR,,,,,,,,,,,,METAR,4.0
ZSHC 241930Z 06003MPS CAVOK 15/11 Q1025 NOSIG,ZSHC,2022-10-24T19:30:00Z,30.22,120.43,15.0,11.0,60,6,,6.21,30.265747,,,,,,TRUE,,,,,CAVOK,,,,,,,,VFR,,,,,,,,,,,,METAR,8.0
ZMCK 241930Z 31009MPS 9999 SCT033 BKN100 00/M03 Q1016 NOSIG RMK QFE646.7 77 NT,ZMCK,2022-10-24T19:30:00Z,47.65,106.82,0.0,-3.0,310,17,,6.21,30.0,,,,,,TRUE,,,,,SCT,3300,BKN,10000,,,,,VFR,,,,,,,,,,,,METAR,1366.0
ZGGG 241930Z 09003MPS CAVOK 23/20 Q1017 NOSIG,ZGGG,2022-10-24T19:30:00Z,23.4,113.3,23.0,20.0,90,6,,6.21,30.029528,,,,,,TRUE,,,,,CAVOK,,,,,,,,VFR,,,,,,,,,,,,METAR,11.0
ZBYN 241930Z 09001MPS CAVOK 06/01 Q1023 NOSIG,ZBYN,2022-10-24T19:30:00Z,37.73,112.63,6.0,1.0,90,2,,6.21,30.206694,,,,,,TRUE,,,,,CAVOK,,,,,,,,VFR,,,,,,,,,,,,METAR,778.0
ZBTJ 241930Z 16002MPS 4000 BR NSC 09/07 Q1022 NOSIG,ZBTJ,2022-10-24T19:30:00Z,39.12,117.35,9.0,7.0,160,4,,2.49,30.177166,,,,,,TRUE,,,,BR,CLR,,,,,,,,IFR,,,,,,,,,,,,METAR,4.0
ZBAD 241930Z 36003MPS 6000 NSC 07/05 Q1022 NOSIG,ZBAD,2022-10-24T19:30:00Z,39.5,116.42,7.0,5.0,360,6,,3.73,30.177166,,,,,,TRUE,,,,,CLR,,,,,,,,MVFR,,,,,,,,,,,,METAR,25.0
ZBAA 241930Z 36002MPS CAVOK 05/05 Q1022 NOSIG,ZBAA,2022-10-24T19:30:00Z,40.07,116.6,5.0,5.0,360,4,,6.21,30.177166,,,,,,TRUE,,,,,CAVOK,,,,,,,,VFR,,,,,,,,,,,,METAR,31.0
YWLM 241930Z AUTO 33006KT 9999 // NCD 16/16 Q1005 RF00.0/005.6,YWLM,2022-10-24T19:30:00Z,-32.8,151.83,16.0,16.0,330,6,,6.21,29.675198,,,TRUE,,,,,,,,CLR,,,,,,,,VFR,,,,,,,,,,,,SPECI,7.0
YWHA 241930Z AUTO 28004KT 240V300 9999 // OVC015 14/12 Q1008,YWHA,2022-10-24T19:30:00Z,-33.07,137.52,14.0,12.0,280,4,,6.21,29.763779,,,TRUE,,,,,,,,OVC,1500,,,,,,,MVFR,,,,,,,,,,,,SPECI,12.0
YSTW 241930Z AUTO 33007KT 9999 // OVC100 17/15 Q1008 RF00.0/000.0,YSTW,2022-10-24T19:30:00Z,-31.08,150.85,17.0,15.0,330,7,,6.21,29.763779,,,TRUE,,,,,,,,OVC,10000,,,,,,,VFR,,,,,,,,,,,,SPECI,404.0
YSSY 241930Z 30005KT 9999 VCFG FEW003 BKN017 BKN300 19/18 Q1004,YSSY,2022-10-24T19:30:00Z,-33.95,151.17,19.0,18.0,300,5,,6.21,29.64567,,,,,,,,,,VCFG,FEW,300,BKN,1700,BKN,30000,,,MVFR,,,,,,,,,,,,METAR,3.0
YSRI 241930Z AUTO 05003KT 9999 // NCD 16/16 Q1004 RF00.0/003.8,YSRI,2022-10-24T19:30:00Z,-33.6,150.77,16.0,16.0,50,3,,6.21,29.64567,,,TRUE,,,,,,,,CLR,,,,,,,,VFR,,,,,,,,,,,,METAR,19.0
YSNW 241930Z 00000KT 3100 -SHRA BKN004 18/18 Q1004,YSNW,2022-10-24T19:30:00Z,-34.95,150.53,18.0,18.0,0,0,,1.93,29.64567,,,,,,,,,,-SHRA,BKN,400,,,,,,,LIFR,,,,,,,,,,,,SPECI,109.0
YSNF 241930Z AUTO 06012KT 9999 // SCT022 BKN041 19/15 Q1020,YSNF,2022-10-24T19:30:00Z,-29.03,167.93,19.0,15.0,60,12,,6.21,30.11811,,,TRUE,,,,,,,,SCT,2200,BKN,4100,,,,,VFR,,,,,,,,,,,,METAR,113.0
YSDU 241930Z AUTO 00000KT 9999 // NCD 14/13 Q1006 RF00.0/001.6,YSDU,2022-10-24T19:30:00Z,-32.22,148.57,14.0,13.0,0,0,,6.21,29.704725,,,TRUE,,,,,,,,CLR,,,,,,,,VFR,,,,,,,,,,,,METAR,285.0
YSCB 241930Z AUTO 00000KT 9999 // OVC016 15/15 Q1006 RF00/0/002/6,YSCB,2022-10-24T19:30:00Z,-35.3,149.18,15.0,15.0,0,0,,6.21,29.704725,,,TRUE,,,,,,,,OVC,1600,,,,,,,MVFR,,,,,,,,,,,,METAR,577.0
YPXM 241930Z AUTO 14006KT 9999 // OVC014 22/22 Q1012 RF00/0/094/4,YPXM,2022-10-24T19:30:00Z,-10.45,105.68,22.0,22.0,140,6,,6.21,29.88189,,,TRUE,,,,,,,,OVC,1400,,,,,,,MVFR,,,,,,,,,,,,METAR,262.0
YPWR 241930Z AUTO 20004KT 9999 // NCD 11/11 Q1009 RF00.0/000.0,YPWR,2022-10-24T19:30:00Z,-31.15,136.82,11.0,11.0,200,4,,6.21,29.793306,,,TRUE,,,,,,,,CLR,,,,,,,,VFR,,,,,,,,,,,,METAR,169.0
YPTN 241930Z AUTO 32005KT 9999 // OVC017 26/24 Q1006 RF00.0/000.0,YPTN,2022-10-24T19:30:00Z,-14.52,132.38,26.0,24.0,320,5,,6.21,29.704725,,,TRUE,,,,,,,,OVC,1700,,,,,,,MVFR,,,,,,,,,,,,METAR,135.0
YPPH 241930Z 21007KT 9999 FEW037 13/11 Q1014,YPPH,2022-10-24T19:30:00Z,-31.93,115.98,13.0,11.0,210,7,,6.21,29.940945,,,,,,,,,,,FEW,3700,,,,,,,VFR,,,,,,,,,,,,METAR,16.0
YPPD 241930Z AUTO 26011KT 9999 // NCD 21/18 Q1007 RF00.0/000.2,YPPD,2022-10-24T19:30:00Z,-20.37,118.62,21.0,18.0,260,11,,6.21,29.734253,,,TRUE,,,,,,,,CLR,,,,,,,,VFR,,,,,,,,,,,,METAR,6.0
YPLM 241930Z AUTO 20013KT 9999 // NCD 16/10 Q1012 RF00.0/000.0,YPLM,2022-10-24T19:30:00Z,-22.23,114.08,16.0,10.0,200,13,,6.21,29.88189,,,TRUE,,,,,,,,CLR,,,,,,,,VFR,,,,,,,,,,,,METAR,5.0
YPKU 241930Z AUTO 00000KT 9999 // NCD 27/25 Q1005 RF00.0/000.0,YPKU,2022-10-24T19:30:00Z,-15.77,128.7,27.0,25.0,0,0,,6.21,29.675198,,,TRUE,,,,,,,,CLR,,,,,,,,VFR,,,,,,,,,,,,SPECI,42.0
YPKG 241930Z AUTO 26008KT 9999 // NCD 13/09 Q1008 RF00.0/000.0,YPKG,2022-10-24T19:30:00Z,-30.78,121.45,13.0,9.0,260,8,,6.21,29.763779,,,TRUE,,,,,,,,CLR,,,,,,,,VFR,,,,,,,,,,,,SPECI,372.0
YPJT 241930Z AUTO 19007KT //// // ////// 13/11 Q1014 RF00.0/000.0,YPJT,2022-10-24T19:30:00Z,-32.1,115.88,13.0,11.0,190,7,,,29.940945,,,TRUE,,,,,,,,,,,,,,,,,,,,,,,,,,,,METAR,29.0
YPGV 241930Z AUTO 34006KT 9999 // NCD 27/24 Q1007 RF00.0/000.0,YPGV,2022-10-24T19:30:00Z,-12.27,136.82,27.0,24.0,340,6,,6.21,29.734253,,,TRUE,,,,,,,,CLR,,,,,,,,VFR,,,,,,,,,,,,SPECI,53.0
YPEA 241930Z AUTO 00000KT 9999 // SCT013 11/09 Q1013,YPEA,2022-10-24T19:30:00Z,-31.67,116.02,11.0,9.0,0,0,,6.21,29.911417,,,TRUE,,,,,,,,SCT,1300,,,,,,,VFR,,,,,,,,,,,,METAR,38.0
YPDN 241930Z AUTO 31013KT 9999 // NCD 29/24 Q1007,YPDN,2022-10-24T19:30:00Z,-12.42,130.9,29.0,24.0,310,13,,6.21,29.734253,,,TRUE,,,,,,,,CLR,,,,,,,,VFR,,,,,,,,,,,,METAR,32.0
YPCC 241930Z AUTO 11010KT 9999 // SCT023 SCT047 26/22 Q1011,YPCC,2022-10-24T19:30:00Z,-12.18,96.83,26.0,22.0,110,10,,6.21,29.852362,,,TRUE,,,,,,,,SCT,2300,SCT,4700,,,,,VFR,,,,,,,,,,,,METAR,3.0
YPAD 241930Z 28008KT 7000 +DZ FEW004 OVC008 14/13 Q1006 RF00/0/000/8,YPAD,2022-10-24T19:30:00Z,-34.95,138.52,14.0,13.0,280,8,,4.35,29.704725,,,,,,,,,,+DZ,FEW,400,OVC,800,,,,,IFR,,,,,,,,,,,,METAR,2.0
YNAR 241930Z AUTO 13004KT 9999 // BKN013 OVC100 14/14 Q1005,YNAR,2022-10-24T19:30:00Z,-34.7,146.52,14.0,14.0,130,4,,6.21,29.675198,,,TRUE,,,,,,,,BKN,1300,OVC,10000,,,,,MVFR,,,,,,,,,,,,SPECI,142.0
YMTG 241930Z AUTO 12004KT 4600 BR OVC002 13/13 Q1005,YMTG,2022-10-24T19:30:00Z,-37.75,140.78,13.0,13.0,120,4,,2.86,29.675198,,,TRUE,,,,,,,BR,OVC,200,,,,,,,LIFR,,,,,,,,,,,,SPECI,65.0
YMML 241930Z 28005KT 4500 -DZ BKN003 SCT016 BKN041 14/14 Q1004,YMML,2022-10-24T19:30:00Z,-37.67,144.82,14.0,14.0,280,5,,2.8,29.64567,,,,,,,,,,-DZ,BKN,300,SCT,1600,BKN,4100,,,LIFR,,,,,,,,,,,,SPECI,115.0
YMLT 241930Z AUTO 16011KT 9999 // SCT067 OVC079 13/12 Q1013,YMLT,2022-10-24T19:30:00Z,-41.53,147.2,13.0,12.0,160,11,,6.21,29.911417,,,TRUE,,,,,,,,SCT,6700,OVC,7900,,,,,VFR,,,,,,,,,,,,SPECI,167.0
YMIA 241930Z AUTO 27005KT 9999 // BKN005 OVC011 15/15 Q1003,YMIA,2022-10-24T19:30:00Z,-34.23,142.08,15.0,15.0,270,5,,6.21,29.616142,,,TRUE,,,,,,,,BKN,500,OVC,1100,,,,,IFR,,,,,,,,,,,,SPECI,53.0
YMHB 241930Z 17005KT 9999 VCSH FEW001 SCT018 BKN080 13/13 Q1016,YMHB,2022-10-24T19:30:00Z,-42.83,147.52,13.0,13.0,170,5,,6.21,30.0,,,,,,,,,,VCSH,FEW,100,SCT,1800,BKN,8000,,,VFR,,,,,,,,,,,,SPECI,2.0
YMER 241930Z AUTO 07011KT 5000 -SHRA BKN010 BKN017 OVC022 18/17 Q1006,YMER,2022-10-24T19:30:00Z,-36.92,149.9,18.0,17.0,70,11,,3.11,29.704725,,,TRUE,,,,,,,-SHRA,BKN,1000,BKN,1700,OVC,2200,,,MVFR,,,,,,,,,,,,SPECI,2.0
YMEN 241930Z AUTO 28006KT 4500 -SHRA SCT005 BKN029 BKN041 15/15 Q1004 RESHRA,YMEN,2022-10-24T19:30:00Z,-37.72,144.9,15.0,15.0,280,6,,2.8,29.64567,,,TRUE,,,,,,,-SHRA,SCT,500,BKN,2900,BKN,4100,,,IFR,,,,,,,,,,,,SPECI,86.0
YMDG 241930Z AUTO 00000KT 9999 // BKN008 OVC094 15/15 Q1007 RESHRA,YMDG,2022-10-24T19:30:00Z,-32.57,149.62,15.0,15.0,0,0,,6.21,29.734253,,,TRUE,,,,,,,,BKN,800,OVC,9400,,,,,IFR,,,,,,,,,,,,SPECI,470.0
YLHI 241930Z AUTO 06022KT 3600 BR OVC005 20/19 Q1012 RF00.0/003.8,YLHI,2022-10-24T19:30:00Z,-31.53,159.07,20.0,19.0,60,22,,2.24,29.88189,,,TRUE,,,,,,,BR,OVC,500,,,,,,,IFR,,,,,,,,,,,,METAR,2.0
YHID 241930Z AUTO 14005KT 9999 // SCT018 BKN028 26/17 Q1009,YHID,2022-10-24T19:30:00Z,-10.58,142.3,26.0,17.0,140,5,,6.21,29.793306,,,TRUE,,,,,,,,SCT,1800,BKN,2800,,,,,MVFR,,,,,,,,,,,,METAR,5.0
YGLA 241930Z AUTO 29002KT 9999 // NCD 20/19 Q1008 RF00.0/003.4,YGLA,2022-10-24T19:30:00Z,-23.87,151.22,20.0,19.0,290,2,,6.21,29.763779,,,TRUE,,,,,,,,CLR,,,,,,,,VFR,,,,,,,,,,,,METAR,17.0
YGEL 241930Z AUTO 20008KT 9999 // SCT037 SCT047 SCT052 16/10 Q1014,YGEL,2022-10-24T19:30:00Z,-28.8,114.7,16.0,10.0,200,8,,6.21,29.940945,,,TRUE,,,,,,,,SCT,3700,SCT,4700,SCT,5200,,,VFR,,,,,,,,,,,,METAR,32.0
YCIN 241930Z AUTO 32004KT 9999 // NCD 22/21 Q1007 RF00.0/000.0,YCIN,2022-10-24T19:30:00Z,-17.58,123.83,22.0,21.0,320,4,,6.21,29.734253,,,TRUE,,,,,,,,CLR,,,,,,,,VFR,,,,,,,,,,,,SPECI,83.0
YCFS 241930Z AUTO 33006KT 9999 // NCD 21/17 Q1005 RF00.0/004.2,YCFS,2022-10-24T19:30:00Z,-30.32,153.12,21.0,17.0,330,6,,6.21,29.675198,,,TRUE,,,,,,,,CLR,,,,,,,,VFR,,,,,,,,,,,,METAR,2.0
YBWW 241930Z AUTO 02008KT 010V070 9999 VCTS SCT075 OVC100 OVC125 17/15 Q1010,YBWW,2022-10-24T19:30:00Z,-27.55,151.8,17.0,15.0,20,8,,6.21,29.822834,,,TRUE,,,,,,,VCTS,SCT,7500,OVC,10000,OVC,12500,,,VFR,,,,,,,,,,,,METAR,460.0
YBUD 241930Z AUTO 25011KT 9999 TS SCT008 BKN115 21/21 Q1009,YBUD,2022-10-24T19:30:00Z,-24.9,152.32,21.0,21.0,250,11,,6.21,29.793306,,,TRUE,,,,,,,TS,SCT,800,BKN,11500,,,,,VFR,,,,,,,,,,,,SPECI,30.0
YBTL 241930Z AUTO 34005KT 300V360 9999 // BKN018 BKN027 BKN115 27/25 Q1009,YBTL,2022-10-24T19:30:00Z,-19.25,146.75,27.0,25.0,340,5,,6.21,29.793306,,,TRUE,,,,,,,,BKN,1800,BKN,2700,BKN,11500,,,MVFR,,,,,,,,,,,,METAR,4.0
YBRM 241930Z AUTO 27009KT 9999 // SCT025 26/21 Q1007 RF00.0/000.0,YBRM,2022-10-24T19:30:00Z,-17.93,122.23,26.0,21.0,270,9,,6.21,29.734253,,,TRUE,,,,,,,,SCT,2500,,,,,,,VFR,,,,,,,,,,,,METAR,11.0
YBRK 241930Z AUTO 30004KT 9999 // NCD 20/19 Q1008 RF00.0////./,YBRK,2022-10-24T19:30:00Z,-23.37,150.47,20.0,19.0,300,4,,6.21,29.763779,,,TRUE,,,,,,,,CLR,,,,,,,,VFR,,,,,,,,,,,,METAR,10.0
YBMA 241930Z AUTO 18008KT 9999 // NCD 25/08 Q1009 RF00.0/000.0,YBMA,2022-10-24T19:30:00Z,-20.67,139.48,25.0,8.0,180,8,,6.21,29.793306,,,TRUE,,,,,,,,CLR,,,,,,,,VFR,,,,,,,,,,,,METAR,346.0
YBLN 241930Z AUTO 21007KT 9999 // SCT045 13/11 Q1014 RF00.0/000.6,YBLN,2022-10-24T19:30:00Z,-33.68,115.4,13.0,11.0,210,7,,6.21,29.940945,,,TRUE,,,,,,,,SCT,4500,,,,,,,VFR,,,,,,,,,,,,METAR,17.0
YBHM 241930Z AUTO 32011KT 9999 // BKN016 BKN020 BKN033 26/24 Q1010,YBHM,2022-10-24T19:30:00Z,-20.35,148.95,26.0,24.0,320,11,,6.21,29.822834,,,TRUE,,,,,,,,BKN,1600,BKN,2000,BKN,3300,,,MVFR,,,,,,,,,,,,SPECI,4.0
YBCS 241930Z AUTO 33004KT 9999 // NCD 26/24 Q1008,YBCS,2022-10-24T19:30:00Z,-16.87,145.75,26.0,24.0,330,4,,6.21,29.763779,,,TRUE,,,,,,,,CLR,,,,,,,,VFR,,,,,,,,,,,,METAR,2.0
YBCG 241930Z AUTO 01009KT 9999 -SHRA SCT077 SCT099 BKN110 21/16 Q1006,YBCG,2022-10-24T19:30:00Z,-28.17,153.5,21.0,16.0,10,9,,6.21,29.704725,,,TRUE,,,,,,,-SHRA,SCT,7700,SCT,9900,BKN,11000,,,VFR,,,,,,,,,,,,METAR,5.0
YBBN 241930Z 29005KT 9999 FEW035 BKN120 20/17 Q1008,YBBN,2022-10-24T19:30:00Z,-27.38,153.13,20.0,17.0,290,5,,6.21,29.763779,,,,,,,,,,,FEW,3500,BKN,12000,,,,,VFR,,,,,,,,,,,,METAR,3.0
YBAS 241930Z AUTO 08009KT 9999 // NCD 19/08 Q1008 RF00.0/000.0,YBAS,2022-10-24T19:30:00Z,-23.8,133.9,19.0,8.0,80,9,,6.21,29.763779,,,TRUE,,,,,,,,CLR,,,,,,,,VFR,,,,,,,,,,,,METAR,549.0
YAMB 241930Z AUTO 32007KT 9999 // SCT110 19/17 Q1009,YAMB,2022-10-24T19:30:00Z,-27.63,152.72,19.0,17.0,320,7,,6.21,29.793306,,,TRUE,,,,,,,,SCT,11000,,,,,,,VFR,,,,,,,,,,,,SPECI,26.0
WSSS 241930Z VRB02KT 9999 FEW018 BKN160 27/24 Q1010 NOSIG,WSSS,2022-10-24T19:30:00Z,1.37,103.97,27.0,24.0,0,2,,6.21,29.822834,,,,,,TRUE,,,,,FEW,1800,BKN,16000,,,,,VFR,,,,,,,,,,,,METAR,17.0
VYYY 241930Z 17002KT 6000 BKN017 FEW020CB BKN110 26/25 Q1009,VYYY,2022-10-24T19:30:00Z,16.9,96.13,26.0,25.0,170,2,,3.73,29.793306,,,,,,,,,,,BKN,1700,FEW,2000,BKN,11000,,,MVFR,,,,,,,,,,,,METAR,31.0
VVTS 241930Z VRB02KT 8000 SCT017 BKN050 25/24 Q1010 NOSIG,VVTS,2022-10-24T19:30:00Z,10.82,106.67,25.0,24.0,0,2,,4.97,29.822834,,,,,,TRUE,,,,,SCT,1700,BKN,5000,,,,,MVFR,,,,,,,,,,,,METAR,10.0
VVPQ 241930Z 00000KT 9999 SCT015 SCT040 26/25 Q1009 NOSIG,VVPQ,2022-10-24T19:30:00Z,10.23,103.97,26.0,25.0,0,0,,6.21,29.793306,,,,,,TRUE,,,,,SCT,1500,SCT,4000,,,,,VFR,,,,,,,,,,,,METAR,8.0
VVPB 241930Z 21002KT 6000 SCT013 BKN040 24/23 Q1012 NOSIG,VVPB,2022-10-24T19:30:00Z,16.38,107.7,24.0,23.0,210,2,,3.73,29.88189,,,,,,TRUE,,,,,SCT,1300,BKN,4000,,,,,MVFR,,,,,,,,,,,,METAR,15.0
VVNB 241930Z 16004KT 120V180 CAVOK 25/21 Q1015 NOSIG,VVNB,2022-10-24T19:30:00Z,21.22,105.8,25.0,21.0,160,4,,6.21,29.970472,,,,,,TRUE,,,,,CAVOK,,,,,,,,VFR,,,,,,,,,,,,METAR,6.0
VVDN 241930Z 00000KT 6000 FEW015 BKN050 25/23 Q1011 NOSIG,VVDN,2022-10-24T19:30:00Z,16.03,108.2,25.0,23.0,0,0,,3.73,29.852362,,,,,,TRUE,,,,,FEW,1500,BKN,5000,,,,,MVFR,,,,,,,,,,,,METAR,7.0
VVCT 241930Z VRB02KT 8000 SCT013 BKN040 24/24 Q1010 NOSIG,VVCT,2022-10-24T19:30:00Z,10.08,105.72,24.0,24.0,0,2,,4.97,29.822834,,,,,,TRUE,,,,,SCT,1300,BKN,4000,,,,,MVFR,,,,,,,,,,,,METAR,6.0
VVCR 241930Z VRB01KT 9999 FEW015 25/23 Q1010 NOSIG,VVCR,2022-10-24T19:30:00Z,12.0,109.22,25.0,23.0,0,1,,6.21,29.822834,,,,,,TRUE,,,,,FEW,1500,,,,,,,VFR,,,,,,,,,,,,METAR,12.0
VVCI 241930Z VRB02KT CAVOK 25/22 Q1015 NOSIG,VVCI,2022-10-24T19:30:00Z,20.82,106.73,25.0,22.0,0,2,,6.21,29.970472,,,,,,TRUE,,,,,CAVOK,,,,,,,,VFR,,,,,,,,,,,,METAR,6.0
VTSS 241930Z 00000KT 9999 FEW020 SCT028 BKN100 25/25 Q1011 NOSIG,VTSS,2022-10-24T19:30:00Z,6.92,100.38,25.0,25.0,0,0,,6.21,29.852362,,,,,,TRUE,,,,,FEW,2000,SCT,2800,BKN,10000,,,VFR,,,,,,,,,,,,METAR,28.0
VTSP 241930Z VRB01KT 9999 FEW020 24/23 Q1010 NOSIG,VTSP,2022-10-24T19:30:00Z,8.12,98.32,24.0,23.0,0,1,,6.21,29.822834,,,,,,TRUE,,,,,FEW,2000,,,,,,,VFR,,,,,,,,,,,,METAR,12.0
VTCC 241930Z 34003KT 9999 BKN035 25/22 Q1013 NOSIG,VTCC,2022-10-24T19:30:00Z,18.77,98.97,25.0,22.0,340,3,,6.21,29.911417,,,,,,TRUE,,,,,BKN,3500,,,,,,,VFR,,,,,,,,,,,,METAR,308.0
VTBU 241930Z 01003KT 2000 BR FEW020 25/22 Q1011 NOSIG,VTBU,2022-10-24T19:30:00Z,12.68,101.0,25.0,22.0,10,3,,1.24,29.852362,,,,,,TRUE,,,,BR,FEW,2000,,,,,,,IFR,,,,,,,,,,,,METAR,12.0
VTBS 241930Z VRB02KT 8000 FEW020 SCT070 29/23 Q1010 NOSIG,VTBS,2022-10-24T19:30:00Z,13.68,100.75,29.0,23.0,0,2,,4.97,29.822834,,,,,,TRUE,,,,,FEW,2000,SCT,7000,,,,,MVFR,,,,,,,,,,,,METAR,1.0
VTBD 241930Z 00000KT 7000 FEW020 27/27 Q1011 NOSIG,VTBD,2022-10-24T19:30:00Z,13.92,100.6,27.0,27.0,0,0,,4.35,29.852362,,,,,,TRUE,,,,,FEW,2000,,,,,,,MVFR,,,,,,,,,,,,METAR,6.0
VOTV 241930Z 00000KT 2000 BR FEW015 SCT080 27/24 Q1010 NOSIG,VOTV,2022-10-24T19:30:00Z,8.48,76.92,27.0,24.0,0,0,,1.24,29.822834,,,,,,TRUE,,,,BR,FEW,1500,SCT,8000,,,,,IFR,,,,,,,,,,,,METAR,9.0
VOMM 241930Z 25003KT 1500 BR FU FEW020 26/21 Q1009 BECMG 3000 BR FU,VOMM,2022-10-24T19:30:00Z,13.0,80.17,26.0,21.0,250,3,,0.93,29.793306,,,,,,,,,,BR FU,FEW,2000,,,,,,,LIFR,,,,,,,,,,,,METAR,7.0
VOML 241930Z 00000KT 6000 NSC 23/20 Q1010 NOSIG,VOML,2022-10-24T19:30:00Z,12.97,74.88,23.0,20.0,0,0,,3.73,29.822834,,,,,,TRUE,,,,,CLR,,,,,,,,MVFR,,,,,,,,,,,,METAR,100.0
VOHS 241930Z VRB04KT 4000 HZ FEW020 18/14 Q1013 TEMPO 3000,VOHS,2022-10-24T19:30:00Z,17.23,78.43,18.0,14.0,0,4,,2.49,29.911417,,,,,,,,,,HZ,FEW,2000,,,,,,,IFR,,,,,,,,,,,,METAR,607.0
VOGO 241930Z 07003KT 6000 NSC 25/21 Q1010 NOSIG,VOGO,2022-10-24T19:30:00Z,15.38,73.83,25.0,21.0,70,3,,3.73,29.822834,,,,,,TRUE,,,,,CLR,,,,,,,,MVFR,,,,,,,,,,,,METAR,56.0
VOCL 241930Z 05002KT 6000 FEW012 SCT090 24/22 Q1010 NOSIG,VOCL,2022-10-24T19:30:00Z,11.13,75.95,24.0,22.0,50,2,,3.73,29.822834,,,,,,TRUE,,,,,FEW,1200,SCT,9000,,,,,MVFR,,,,,,,,,,,,METAR,104.0
VOCB 241930Z 22006KT 4000 BR FEW012 SCT080 24/23 Q1012 NOSIG,VOCB,2022-10-24T19:30:00Z,11.02,77.03,24.0,23.0,220,6,,2.49,29.88189,,,,,,TRUE,,,,BR,FEW,1200,SCT,8000,,,,,IFR,,,,,,,,,,,,METAR,394.0
VOBL 241930Z 33005KT 6000 NSC 20/10 Q1015 NOSIG,VOBL,2022-10-24T19:30:00Z,13.2,77.7,20.0,10.0,330,5,,3.73,29.970472,,,,,,TRUE,,,,,CLR,,,,,,,,MVFR,,,,,,,,,,,,METAR,908.0
VNKT 241930Z 13003KT 8000 FEW020 15/12 Q1013 NOSIG,VNKT,2022-10-24T19:30:00Z,27.68,85.37,15.0,12.0,130,3,,4.97,29.911417,,,,,,TRUE,,,,,FEW,2000,,,,,,,MVFR,,,,,,,,,,,,METAR,1334.0
VILK 241930Z 00000KT 2500 BR NSC 21/19 Q1006 NOSIG,VILK,2022-10-24T19:30:00Z,26.75,80.88,21.0,19.0,0,0,,1.55,29.704725,,,,,,TRUE,,,,BR,CLR,,,,,,,,IFR,,,,,,,,,,,,METAR,121.0
VIJP 241930Z 00000KT 1800 FU NSC 20/13 Q1011 NOSIG,VIJP,2022-10-24T19:30:00Z,26.82,75.8,20.0,13.0,0,0,,1.12,29.852362,,,,,,TRUE,,,,FU,CLR,,,,,,,,IFR,,,,,,,,,,,,METAR,383.0
VIDP 241930Z 00000KT 3000 HZ NSC 22/11 Q1009 NOSIG,VIDP,2022-10-24T19:30:00Z,28.57,77.12,22.0,11.0,0,0,,1.86,29.793306,,,,,,TRUE,,,,HZ,CLR,,,,,,,,IFR,,,,,,,,,,,,METAR,236.0
VIAR 241930Z 00000KT 3000 BR NSC 17/17 Q1009 NOSIG,VIAR,2022-10-24T19:30:00Z,31.7,74.8,17.0,17.0,0,0,,1.86,29.793306,,,,,,TRUE,,,,BR,CLR,,,,,,,,IFR,,,,,,,,,,,,METAR,226.0
VHHH 241930Z 10012KT CAVOK 23/16 Q1017 NOSIG,VHHH,2022-10-24T19:30:00Z,22.32,113.92,23.0,16.0,100,12,,6.21,30.029528,,,,,,TRUE,,,,,CAVOK,,,,,,,,VFR,,,,,,,,,,,,METAR,9.0
VGHS 241930Z 30022KT 2200 RA BKN008 OVC080 21/20 Q0996 NOSIG,VGHS,2022-10-24T19:30:00Z,23.85,90.4,21.0,20.0,300,22,,1.37,29.409449,,,,,,TRUE,,,,RA,BKN,800,OVC,8000,,,,,IFR,,,,,,,,,,,,METAR,11.0
VEPT 241930Z 17003KT 2500 BR SCT100 24/21 Q1005 NOSIG,VEPT,2022-10-24T19:30:00Z,25.6,85.08,24.0,21.0,170,3,,1.55,29.675198,,,,,,TRUE,,,,BR,SCT,10000,,,,,,,IFR,,,,,,,,,,,,METAR,53.0
VECC 241930Z 32007KT 3500 HZ FEW018 BKN100 23/19 Q1004 NOSIG,VECC,2022-10-24T19:30:00Z,22.65,88.43,23.0,19.0,320,7,,2.17,29.64567,,,,,,TRUE,,,,HZ,FEW,1800,BKN,10000,,,,,IFR,,,,,,,,,,,,METAR,11.0
VABB 241930Z 10005KT 2500 HZ NSC 26/21 Q1010 NOSIG,VABB,2022-10-24T19:30:00Z,19.1,72.87,26.0,21.0,100,5,,1.55,29.822834,,,,,,TRUE,,,,HZ,CLR,,,,,,,,IFR,,,,,,,,,,,,METAR,14.0
VAAH 241930Z 02005KT 4000 FU NSC 23/15 Q1009 NOSIG,VAAH,2022-10-24T19:30:00Z,23.07,72.63,23.0,15.0,20,5,,2.49,29.793306,,,,,,TRUE,,,,FU,CLR,,,,,,,,IFR,,,,,,,,,,,,METAR,52.0
UWWW 241930Z 23004MPS 9999 -RA OVC012 06/05 Q1008 R15/290150 NOSIG RMK QFE744/0993,UWWW,2022-10-24T19:30:00Z,53.5,50.17,6.0,5.0,230,8,,6.21,29.763779,,,,,,TRUE,,,,-RA,OVC,1200,,,,,,,MVFR,,,,,,,,,,,,SPECI,124.0
UWUU 241930Z 19007MPS 9999 -RA OVC020 04/02 Q1008 R14R/290246 NOSIG,UWUU,2022-10-24T19:30:00Z,54.57,55.87,4.0,2.0,190,14,,6.21,29.763779,,,,,,TRUE,,,,-RA,OVC,2000,,,,,,,MVFR,,,,,,,,,,,,SPECI,137.0
UWSG 241930Z 27002MPS 1900 1300SE R26/P2000D BR BKN005 OVC012 08/07 Q1009 R26/290158 TEMPO 1000 BR BKN004 RMK QFE754/1006,UWSG,2022-10-24T19:30:00Z,51.72,46.17,8.0,7.0,270,4,,1.18,29.793306,,,,,,,,,,BR,BKN,500,OVC,1200,,,,,IFR,,,,,,,,,,,,METAR,31.0
UWPS 241930Z 34005MPS 9999 BKN013 03/01 Q1011 R02/290255 NOSIG RMK QFE739,UWPS,2022-10-24T19:30:00Z,54.12,45.2,3.0,1.0,340,10,,6.21,29.852362,,,,,,TRUE,,,,,BKN,1300,,,,,,,MVFR,,,,,,,,,,,,METAR,206.0
UWOO 241930Z 19004MPS CAVOK 06/00 Q1014 R08/CLRD65 NOSIG RMK QFE750/1000,UWOO,2022-10-24T19:30:00Z,51.8,55.47,6.0,0.0,190,8,,6.21,29.940945,,,,,,TRUE,,,,,CAVOK,,,,,,,,VFR,,,,,,,,,,,,SPECI,90.0
UWLL 241930Z 32007MPS 9999 BKN034 06/04 Q1009 R02/290250 NOSIG RMK QFE744/0993,UWLL,2022-10-24T19:30:00Z,54.27,48.23,6.0,4.0,320,14,,6.21,29.793306,,,,,,TRUE,,,,,BKN,3400,,,,,,,VFR,,,,,,,,,,,,SPECI,119.0
UWKS 241930Z 31002MPS 9999 SCT016 01/M01 Q1009 R24/290355 NOSIG RMK QFE743,UWKS,2022-10-24T19:30:00Z,56.08,47.35,1.0,-1.0,310,4,,6.21,29.793306,,,,,,TRUE,,,,,SCT,1600,,,,,,,VFR,,,,,,,,,,,,METAR,165.0
UWKE 241930Z 31006MPS 9999 -RA SCT011 OVC046 04/04 Q1005 R21/210355 NOSIG RMK QFE737/0983,UWKE,2022-10-24T19:30:00Z,55.57,52.08,4.0,4.0,310,12,,6.21,29.675198,,,,,,TRUE,,,,-RA,SCT,1100,OVC,4600,,,,,VFR,,,,,,,,,,,,SPECI,193.0
UWKD 241930Z 33005MPS CAVOK 02/M00 Q1008 R29/2/0050 NOSIG RMK QFE745/0993,UWKD,2022-10-24T19:30:00Z,55.62,49.28,2.0,0.0,330,10,,6.21,29.763779,,,,,,TRUE,,,,,CAVOK,,,,,,,,VFR,,,,,,,,,,,,SPECI,114.0
UWGG 241930Z 29003MPS CAVOK M01/M04 Q1012 R36R/190055 NOSIG,UWGG,2022-10-24T19:30:00Z,56.23,43.78,-1.0,-4.0,290,6,,6.21,29.88189,,,,,,TRUE,,,,,CAVOK,,,,,,,,VFR,,,,,,,,,,,,SPECI,73.0
UUYY 241930Z 29002MPS 260V340 9999 SCT010 BKN021CB 00/M00 Q1000 R18/29//51 NOSIG RMK QFE742/0989,UUYY,2022-10-24T19:30:00Z,61.65,50.83,0.0,0.0,290,4,,6.21,29.52756,,,,,,TRUE,,,,,SCT,1000,BKN,2100,,,,,MVFR,,,,,,,,,,,,SPECI,107.0
UUWW 241930Z 27002MPS CAVOK 01/M04 Q1016 R24/000065 NOSIG,UUWW,2022-10-24T19:30:00Z,55.6,37.27,1.0,-4.0,270,4,,6.21,30.0,,,,,,TRUE,,,,,CAVOK,,,,,,,,VFR,,,,,,,,,,,,SPECI,195.0
UUOO 241930Z 28003MPS CAVOK 06/04 Q1016 R30/190060 NOSIG RMK QFE749,UUOO,2022-10-24T19:30:00Z,51.82,39.23,6.0,4.0,280,6,,6.21,30.0,,,,,,TRUE,,,,,CAVOK,,,,,,,,VFR,,,,,,,,,,,,SPECI,154.0
UUOL 241930Z 32003MPS CAVOK 05/03 Q1016 R15/190055 NOSIG,UUOL,2022-10-24T19:30:00Z,52.7,39.53,5.0,3.0,320,6,,6.21,30.0,,,,,,TRUE,,,,,CAVOK,,,,,,,,VFR,,,,,,,,,,,,METAR,176.0
UUOK 241930Z 33002MPS 9999 BKN038 08/06 Q1017 R30/090060 NOSIG RMK QFE744/0992,UUOK,2022-10-24T19:30:00Z,51.75,36.28,8.0,6.0,330,4,,6.21,30.029528,,,,,,TRUE,,,,,BKN,3800,,,,,,,VFR,,,,,,,,,,,,METAR,203.0
UUOB 241930Z 27002MPS 9999 BKN035 08/06 Q1018 R29/010070 NOSIG,UUOB,2022-10-24T19:30:00Z,50.65,36.58,8.0,6.0,270,4,,6.21,30.059055,,,,,,TRUE,,,,,BKN,3500,,,,,,,VFR,,,,,,,,,,,,METAR,218.0
UUMO 241930Z 26001MPS CAVOK M01/M01 Q1016 R25/CLRD60 NOSIG RMK QFE747/0996,UUMO,2022-10-24T19:30:00Z,55.52,37.5,-1.0,-1.0,260,2,,6.21,30.0,,,,,,TRUE,,,,,CAVOK,,,,,,,,VFR,,,,,,,,,,,,METAR,167.0
UUEE 241930Z 30002MPS CAVOK 01/M03 Q1016 R24L/CLRD62 R24C/CLRD62 NOSIG,UUEE,2022-10-24T19:30:00Z,55.97,37.42,1.0,-3.0,300,4,,6.21,30.0,,,,,,TRUE,,,,,CAVOK,,,,,,,,VFR,,,,,,,,,,,,SPECI,186.0
UUDL 241930Z 31002MPS 9999 BKN031 03/M02 Q1014 R23/010060 NOSIG RMK QFE752,UUDL,2022-10-24T19:30:00Z,57.57,40.17,3.0,-2.0,310,4,,6.21,29.940945,,,,,,TRUE,,,,,BKN,3100,,,,,,,VFR,,,,,,,,,,,,METAR,88.0
UUDD 241930Z 30003MPS CAVOK 01/M03 Q1016 R32L/CLRD60 NOSIG,UUDD,2022-10-24T19:30:00Z,55.4,37.9,1.0,-3.0,300,6,,6.21,30.0,,,,,,TRUE,,,,,CAVOK,,,,,,,,VFR,,,,,,,,,,,,SPECI,165.0
UUBW 241930Z 00000MPS CAVOK 01/M02 Q1016 R30/010060 NOSIG,UUBW,2022-10-24T19:30:00Z,55.55,38.15,1.0,-2.0,0,0,,6.21,30.0,,,,,,TRUE,,,,,CAVOK,,,,,,,,VFR,,,,,,,,,,,,METAR,111.0
UUBP 241930Z AUTO 34002MPS 9999 ///032 ///037 07/04 Q1018 RMK QFE745/0993,UUBP,2022-10-24T19:30:00Z,53.22,34.18,7.0,4.0,340,4,,6.21,30.059055,,,TRUE,,,,,,,,,,,,,,,,,,,,,,,,,,,,SPECI,197.0
UUBC 241930Z AUTO 00000MPS 9999 // ///////// M01/M01 Q1017 RMK QFE746/0994,UUBC,2022-10-24T19:30:00Z,54.55,36.37,-1.0,-1.0,0,0,,6.21,30.029528,,,TRUE,,,,,,,,,,,,,,,,,,,,,,,,,,,,METAR,198.0
UTNU 241930Z 10004KT CAVOK 08/00 Q1017 R31/CLRD70 NOSIG,UTNU,2022-10-24T19:30:00Z,41.58,60.63,8.0,0.0,100,4,,6.21,30.029528,,,,,,TRUE,,,,,CAVOK,,,,,,,,VFR,,,,,,,,,,,,SPECI,97.0
UTDT 241930Z 36002MPS 8000 SCT043CB BKN110 14/13 Q1018 R35/29//50 RMK QFE724/0965,UTDT,2022-10-24T19:30:00Z,37.87,68.87,14.0,13.0,360,4,,4.97,30.059055,,,,,,,,,,,SCT,4300,BKN,11000,,,,,MVFR,,,,,,,,,,,,METAR,443.0
UTDL 241930Z 00000MPS 0600 0350W R26/P2000U FG VV003 10/10 Q1019 R26/29//50 NOSIG RMK QBB100 QFE726/0969,UTDL,2022-10-24T19:30:00Z,40.22,69.7,10.0,10.0,0,0,,0.37,30.088583,,,,,,TRUE,,,,FG,OVX,0,,,,,,,LIFR,,,,,,,,,,,300,SPECI,436.0
UTDK 241930Z 01005MPS 9999 SCT066CB BKN089 14/12 Q1020 R01/29//50 RMK QFE707/0943,UTDK,2022-10-24T19:30:00Z,37.98,69.8,14.0,12.0,10,10,,6.21,30.11811,,,,,,,,,,,SCT,6600,BKN,8900,,,,,VFR,,,,,,,,,,,,METAR,675.0
UTDD 241930Z 08003MPS 9999 FEW046CB 12/09 Q1020 R09/29//50 NOSIG RMK QFE697/0929,UTDD,2022-10-24T19:30:00Z,38.53,68.82,12.0,9.0,80,6,,6.21,30.11811,,,,,,TRUE,,,,,FEW,4600,,,,,,,VFR,,,,,,,,,,,,SPECI,785.0
USTR 241930Z 22008MPS 9999 SCT019CB 02/M01 Q1007 R21/CLRD65 R30/CLRD65 TEMPO 21014MPS,USTR,2022-10-24T19:30:00Z,57.18,65.32,2.0,-1.0,220,16,,6.21,29.734253,,,,,,,,,,,SCT,1900,,,,,,,VFR,,,-1.4,,,,,,,,,SPECI,93.0
USSS 241930Z 21007MPS 9999 BKN017 03/01 Q1005 R26R/010060 R26L/010060 NOSIG RMK QFE733/0977,USSS,2022-10-24T19:30:00Z,56.75,60.78,3.0,1.0,210,14,,6.21,29.675198,,,,,,TRUE,,,,,BKN,1700,,,,,,,MVFR,,,,,,,,,,,,SPECI,222.0
USRR 241930Z 21006MPS 9999 SCT038CB 02/M04 Q1002 R25/510250 NOSIG RMK QFE746,USRR,2022-10-24T19:30:00Z,61.33,73.42,2.0,-4.0,210,12,,6.21,29.586615,,,,,,TRUE,,,,,SCT,3800,,,,,,,VFR,,,,,,,,,,,,SPECI,52.0
USPP 241930Z 29005MPS 250V320 9000 -RASN BKN009 03/02 Q1000 R21/290350 TEMPO 1100 SNRA OVC004 RMK QFE740,USPP,2022-10-24T19:30:00Z,57.92,56.02,3.0,2.0,290,10,,5.59,29.52756,,,,,,,,,,-RA -SN,BKN,900,,,,,,,IFR,,,,,,,,,,,,SPECI,120.0
USNN 241930Z 22006MPS CAVOK 02/M04 Q1005 R21/32//60 NOSIG RMK QFE749,USNN,2022-10-24T19:30:00Z,60.95,76.48,2.0,-4.0,220,12,,6.21,29.675198,,,,,,TRUE,,,,,CAVOK,,,,,,,,VFR,,,,,,,,,,,,SPECI,52.0
USHH 241930Z 19006MPS 3900 -SHSN BKN021CB 01/M00 Q0999 R24/290050 TEMPO 1000 SHSN BKN005 OVC010CB,USHH,2022-10-24T19:30:00Z,61.03,69.08,1.0,0.0,190,12,,2.42,29.498032,,,,,,,,,,-SHSN,BKN,2100,,,,,,,IFR,,,,,,,,,,,,METAR,46.0
USDA 241930Z AUTO 32005MPS 9999 NCD M03/M04 Q0995 RMK QFE745/0993,USDA,2022-10-24T19:30:00Z,71.2,72.05,-3.0,-4.0,320,10,,6.21,29.379921,,,TRUE,,,,,,,,CLR,,,,,,,,VFR,,,,,,,,,,,,METAR,5.0
USCM 241930Z 19006MPS 9999 OVC017CB 02/M01 Q1012 R18/090060 TEMPO 18013MPS 2000 SHRASN BKN007CB RMK QFE721,USCM,2022-10-24T19:30:00Z,53.4,58.75,2.0,-1.0,190,12,,6.21,29.88189,,,,,,,,,,,OVC,1700,,,,,,,MVFR,,,,,,,,,,,,METAR,425.0
USCC 241930Z 20007MPS 3300 -SHSNRA BKN030CB 02/02 Q1009 R27/290042 NOSIG RMK QFE737,USCC,2022-10-24T19:30:00Z,55.3,61.5,2.0,2.0,200,14,,2.05,29.793306,,,,,,TRUE,,,,-SHSN -SHRA,BKN,3000,,,,,,,IFR,,,,,,,,,,,,SPECI,227.0
URWW 241930Z 31009MPS 9999 BKN006 OVC020 09/08 Q1012 R24/290058 TEMPO 0300 FG OVC002 RMK OBST OBSC,URWW,2022-10-24T19:30:00Z,48.78,44.33,9.0,8.0,310,17,,6.21,29.88189,,,,,,,,,,,BKN,600,OVC,2000,,,,,IFR,,,,,,,,,,,,SPECI,131.0
URWI 241930Z AUTO 29011MPS 9000 // ///010/// 09/06 Q1016,URWI,2022-10-24T19:30:00Z,46.37,44.33,9.0,6.0,290,21,,5.59,30.0,,,TRUE,,,,,,,,,,,,,,,,,,,,,,,,,,,,SPECI,145.0
URWA 241930Z 25007MPS 9999 SCT008 BKN027CB 11/10 Q1013 R27/290050 TEMPO 1500 SHRA BKN005 BKN020CB RMK QFE761/1015,URWA,2022-10-24T19:30:00Z,46.28,47.98,11.0,10.0,250,14,,6.21,29.911417,,,,,,,,,,,SCT,800,BKN,2700,,,,,MVFR,,,,,,,,,,,,SPECI,-19.0
URSS 241930Z 04004MPS 9999 OVC080 12/10 Q1022 R02/290060 R06/290060 NOSIG RMK R06/03001MPS QFE765,URSS,2022-10-24T19:30:00Z,43.45,39.92,12.0,10.0,40,8,,6.21,30.177166,,,,,,TRUE,,,,,OVC,8000,,,,,,,VFR,,,,,,,,,,,,SPECI,4.0
URRP 241930Z 31003MPS 9999 FEW/// 10/10 Q1019 R23/CLRD70 TEMPO 3000 BR BKN005 RMK QFE756/1008,URRP,2022-10-24T19:30:00Z,47.5,39.92,10.0,10.0,310,6,,6.21,30.088583,,,,,,,,,,,,,,,,,,,,,,,,,,,,,,,METAR,73.0
URMT 241930Z 29008MPS 9999 BKN020 09/06 Q1020 R25/010070 NOSIG RMK QFE726,URMT,2022-10-24T19:30:00Z,45.12,42.12,9.0,6.0,290,16,,6.21,30.11811,,,,,,TRUE,,,,,BKN,2000,,,,,,,MVFR,,,,,,,,,,,,SPECI,448.0
URMO 241930Z AUTO VRB01MPS 9999 // ///058/// 09/06 Q1020 RMK QFE721/0962,URMO,2022-10-24T19:30:00Z,43.2,44.6,9.0,6.0,0,2,,6.21,30.11811,,,TRUE,,,,,,,,,,,,,,,,,,,,,,,,,,,,METAR,505.0
URMM 241930Z 27009G14MPS 9999 OVC027 12/06 Q1021 R30/090070 NOSIG RMK QFE737/0983,URMM,2022-10-24T19:30:00Z,44.22,43.07,12.0,6.0,270,17,27,6.21,30.147638,,,,,,TRUE,,,,,OVC,2700,,,,,,,MVFR,,,,,,,,,,,,SPECI,318.0
URML 241930Z 29002MPS 250V330 9999 FEW052CB 14/07 Q1018 R32/01//70 NOSIG RMK QFE763/1017,URML,2022-10-24T19:30:00Z,42.82,47.65,14.0,7.0,290,4,,6.21,30.059055,,,,,,TRUE,,,,,FEW,5200,,,,,,,VFR,,,,,,,,,,,,SPECI,4.0
URMG 241930Z 33010MPS 9999 BKN041 14/07 Q1019 R26/090070 NOSIG RMK QFE750/1000,URMG,2022-10-24T19:30:00Z,43.38,45.7,14.0,7.0,330,19,,6.21,30.088583,,,,,,TRUE,,,,,BKN,4100,,,,,,,VFR,,,,,,,,,,,,METAR,160.0
URKK 241930Z 23003MPS CAVOK 12/09 Q1022 R23L/CLRD70 NOSIG RMK QFE763,URKK,2022-10-24T19:30:00Z,45.03,39.15,12.0,9.0,230,6,,6.21,30.177166,,,,,,TRUE,,,,,CAVOK,,,,,,,,VFR,,,,,,,,,,,,SPECI,29.0
URKA 241930Z 14003MPS 9999 SCT044 10/09 Q1022 R22/010070 NOSIG RMK QFE762/1016,URKA,2022-10-24T19:30:00Z,45.0,37.35,10.0,9.0,140,6,,6.21,30.177166,,,,,,TRUE,,,,,SCT,4400,,,,,,,VFR,,,,,,,,,,,,SPECI,41.0
UNWW 241930Z 00000MPS CAVOK M04/M06 Q1029 R19/210255 NOSIG RMK QFE745,UNWW,2022-10-24T19:30:00Z,53.82,86.88,-4.0,-6.0,0,0,,6.21,30.383858,,,,,,TRUE,,,,,CAVOK,,,,,,,,VFR,,,,,,,,,,,,SPECI,307.0
UNTT 241930Z 22006MPS 9999 FEW030 M02/M06 Q1023 R21/////// NOSIG RMK QFE752,UNTT,2022-10-24T19:30:00Z,56.38,85.22,-2.0,-6.0,220,12,,6.21,30.206694,,,,,,TRUE,,,,,FEW,3000,,,,,,,VFR,,,,,,,,,,,,METAR,179.0
UNOO 241930Z 21006MPS CAVOK M01/M05 Q1021 R25/190055 NOSIG RMK QFE757,UNOO,2022-10-24T19:30:00Z,54.97,73.32,-1.0,-5.0,210,12,,6.21,30.147638,,,,,,TRUE,,,,,CAVOK,,,,,,,,VFR,,,,,,,,,,,,SPECI,85.0
UNNT 241930Z 19005MPS 9999 SCT040 M00/M05 Q1026 R25/120065 R34/290150 NOSIG RMK QFE759/1012,UNNT,2022-10-24T19:30:00Z,55.02,82.65,0.0,-5.0,190,10,,6.21,30.295275,,,,,,TRUE,,,,,SCT,4000,,,,,,,VFR,,,,,,,,,,,,SPECI,106.0
UNKL 241930Z 24004MPS 9999 SCT042 M00/M07 Q1025 R29/320140 NOSIG RMK QFE743,UNKL,2022-10-24T19:30:00Z,56.17,92.48,0.0,-7.0,240,8,,6.21,30.265747,,,,,,TRUE,,,,,SCT,4200,,,,,,,VFR,,,,,,,,,,,,SPECI,278.0
UNEE 241930Z 21005MPS 9999 SCT033 M01/M06 Q1026 R23/CLRD60 NOSIG RMK QFE747,UNEE,2022-10-24T19:30:00Z,55.27,86.1,-1.0,-6.0,210,10,,6.21,30.295275,,,,,,TRUE,,,,,SCT,3300,,,,,,,VFR,,,,,,,,,,,,SPECI,261.0
UNBB 241930Z 18003MPS CAVOK M02/M05 Q1028 R24/CLRD60 NOSIG RMK QFE749,UNBB,2022-10-24T19:30:00Z,53.37,83.53,-2.0,-5.0,180,6,,6.21,30.35433,,,,,,TRUE,,,,,CAVOK,,,,,,,,VFR,,,,,,,,,,,,SPECI,249.0
UNAA 241930Z 00000MPS CAVOK M06/M08 Q1030 R20/CLRD65 NOSIG RMK QFE749,UNAA,2022-10-24T19:30:00Z,53.75,91.4,-6.0,-8.0,0,0,,6.21,30.413385,,,,,,TRUE,,,,,CAVOK,,,,,,,,VFR,,,,,,,,,,,,SPECI,249.0
UMMS 241930Z 12003MPS 9999 OVC005 08/07 Q1016 NOSIG RMK QBB160,UMMS,2022-10-24T19:30:00Z,53.88,28.03,8.0,7.0,120,6,,6.21,30.0,,,,,,TRUE,,,,,OVC,500,,,,,,,IFR,,,,,,,,,,,,SPECI,196.0
UMKK 241930Z 16003MPS 140V200 2100 R24/P2000D -DZ BR OVC004 13/13 Q1011 R24/290095 NOSIG RMK QBB120 OBST OBSC QFE757/1009,UMKK,2022-10-24T19:30:00Z,54.88,20.57,13.0,13.0,160,6,,1.3,29.852362,,,,,,TRUE,,,,-DZ BR,OVC,400,,,,,,,LIFR,,,,,,,,,,,,SPECI,6.0
UMIO 241930Z 17001MPS CAVOK 05/04 Q1017 NOSIG RMK QFE745/0994,UMIO,2022-10-24T19:30:00Z,54.43,30.3,5.0,4.0,170,2,,6.21,30.029528,,,,,,TRUE,,,,,CAVOK,,,,,,,,VFR,,,,,,,,,,,,METAR,189.0
ULWC 241930Z 27002MPS 9999 BKN026 M00/M02 Q1015 R21/110060 NOSIG RMK QFE751/1001,ULWC,2022-10-24T19:30:00Z,59.28,38.02,0.0,-2.0,270,4,,6.21,29.970472,,,,,,TRUE,,,,,BKN,2600,,,,,,,MVFR,,,,,,,,,,,,METAR,113.0
ULOO 241930Z 09001MPS 8000 SCT027 M02/M02 Q1016 R19/090060 NOSIG RMK QFE758,ULOO,2022-10-24T19:30:00Z,57.78,28.4,-2.0,-2.0,90,2,,4.97,30.0,,,,,,TRUE,,,,,SCT,2700,,,,,,,MVFR,,,,,,,,,,,,SPECI,46.0
ULMM 241930Z 18001MPS CAVOK M01/M01 Q1012 R31/690056 NOSIG RMK QFE752,ULMM,2022-10-24T19:30:00Z,68.78,32.75,-1.0,-1.0,180,2,,6.21,29.88189,,,,,,TRUE,,,,,CAVOK,,,,,,,,VFR,,,,,,,,,,,,SPECI,79.0
ULLI 241930Z 29002MPS CAVOK M01/M05 Q1017 R28R/090060 NOSIG,ULLI,2022-10-24T19:30:00Z,59.8,30.27,-1.0,-5.0,290,4,,6.21,30.029528,,,,,,TRUE,,,,,CAVOK,,,,,,,,VFR,,,,,,,,,,,,SPECI,25.0
ULAA 241930Z 32002MPS CAVOK 00/00 Q1010 R26/190065 NOSIG RMK QFE756/1008,ULAA,2022-10-24T19:30:00Z,64.6,40.72,0.0,0.0,320,4,,6.21,29.822834,,,,,,TRUE,,,,,CAVOK,,,,,,,,VFR,,,,,,,,,,,,SPECI,10.0
UIUU 241930Z 33003MPS 300V360 9999 SCT050CB 00/M09 Q1025 R26/CLRD60 NOSIG RMK QFE724/0965,UIUU,2022-10-24T19:30:00Z,51.8,107.45,0.0,-9.0,330,6,,6.21,30.265747,,,,,,TRUE,,,,,SCT,5000,,,,,,,VFR,,,,,,,,,,,,SPECI,508.0
UIII 241930Z 30003MPS CAVOK M03/M07 Q1029 R30/CLRD60 NOSIG RMK QFE726/0968,UIII,2022-10-24T19:30:00Z,52.27,104.37,-3.0,-7.0,300,6,,6.21,30.383858,,,,,,TRUE,,,,,CAVOK,,,,,,,,VFR,,,,,,,,,,,,SPECI,480.0
UIBB 241930Z AUTO 23003MPS 200V260 9999 // NCD M04/M07 Q1024 RMK QFE725/0967,UIBB,2022-10-24T19:30:00Z,56.37,101.7,-4.0,-7.0,230,6,,6.21,30.236221,,,TRUE,,,,,,,,CLR,,,,,,,,VFR,,,,,,,,,,,,SPECI,485.0
UIAA 241930Z 28003MPS 9999 SCT036CB 03/M04 Q1015 R29/CLRD70 NOSIG RMK QFE702/0937,UIAA,2022-10-24T19:30:00Z,52.02,113.32,3.0,-4.0,280,6,,6.21,29.970472,,,,,,TRUE,,,,,SCT,3600,,,,,,,VFR,,,,,,,,,,,,SPECI,650.0
UHWW 241930Z VRB01MPS 9999 NSC M06/M07 Q1029 R25L/0///70 NOSIG RMK QFE770,UHWW,2022-10-24T19:30:00Z,43.4,132.15,-6.0,-7.0,0,2,,6.21,30.383858,,,,,,TRUE,,,,,CLR,,,,,,,,VFR,,,,,,,,,,,,METAR,11.0
UHSS 241930Z 00000MPS 9999 NSC M05/M06 Q1024 R01/CLRD70 NOSIG RMK QFE767/1023,UHSS,2022-10-24T19:30:00Z,46.88,142.72,-5.0,-6.0,0,0,,6.21,30.236221,,,,,,TRUE,,,,,CLR,,,,,,,,VFR,,,,,,,,,,,,METAR,14.0
UHPP 241930Z VRB01MPS CAVOK M07/M09 Q1011 R34L/CLRD65 NOSIG RMK QFE754/1006,UHPP,2022-10-24T19:30:00Z,53.17,158.45,-7.0,-9.0,0,2,,6.21,29.852362,,,,,,TRUE,,,,,CAVOK,,,,,,,,VFR,,,,,,,,,,,,METAR,33.0
UHHH 241930Z 27005MPS CAVOK 01/M07 Q1024 R23R/090060 NOSIG RMK QFE761/1015,UHHH,2022-10-24T19:30:00Z,48.52,135.18,1.0,-7.0,270,10,,6.21,30.236221,,,,,,TRUE,,,,,CAVOK,,,,,,,,VFR,,,,,,,,,,,,METAR,74.0
UGTB 241930Z 32020KT CAVOK 13/08 Q1019 NOSIG,UGTB,2022-10-24T19:30:00Z,41.67,44.95,13.0,8.0,320,20,,6.21,30.088583,,,,,,TRUE,,,,,CAVOK,,,,,,,,VFR,,,,,,,,,,,,METAR,468.0
UGSB 241930Z 21013KT 170V240 9999 -SHRA SCT015 BKN023CB 15/14 Q1024 NOSIG,UGSB,2022-10-24T19:30:00Z,41.62,41.6,15.0,14.0,210,13,,6.21,30.236221,,,,,,TRUE,,,,-SHRA,SCT,1500,BKN,2300,,,,,MVFR,,,,,,,,,,,,METAR,32.0
UGMS 241930Z AUTO VRB02KT //// ////// 04/04 Q1024,UGMS,2022-10-24T19:30:00Z,43.05,42.75,4.0,4.0,0,2,,,30.236221,,,TRUE,,,,,,,,,,,,,,,,,,,,,,,,,,,,METAR,1442.0
UGKO 241930Z VRB02KT 9999 -SHRA SCT020CB OVC050 12/11 Q1022 NOSIG,UGKO,2022-10-24T19:30:00Z,42.18,42.48,12.0,11.0,0,2,,6.21,30.177166,,,,,,TRUE,,,,-SHRA,SCT,2000,OVC,5000,,,,,VFR,,,,,,,,,,,,METAR,44.0
UGAM 241930Z AUTO VRB01KT //// ////// 09/09 Q1022,UGAM,2022-10-24T19:30:00Z,42.53,43.13,9.0,9.0,0,1,,,30.177166,,,TRUE,,,,,,,,,,,,,,,,,,,,,,,,,,,,METAR,544.0
UEEE 241930Z 30005MPS 9999 SCT040CB 01/M04 Q0999 R23L/550237 NOSIG RMK QFE741,UEEE,2022-10-24T19:30:00Z,62.08,129.77,1.0,-4.0,300,10,,6.21,29.498032,,,,,,TRUE,,,,,SCT,4000,,,,,,,VFR,,,,,,,,,,,,METAR,106.0
UDYZ 241930Z VRB01KT 6000 SCT046 08/06 Q1021 R09/010070 NOSIG,UDYZ,2022-10-24T19:30:00Z,40.15,44.4,8.0,6.0,0,1,,3.73,30.147638,,,,,,TRUE,,,,,SCT,4600,,,,,,,MVFR,,,,,,,,,,,,METAR,851.0
UDSG 241930Z 11003KT 9999 SCT049 06/01 Q1023 R02/////// NOSIG,UDSG,2022-10-24T19:30:00Z,40.75,43.87,6.0,1.0,110,3,,6.21,30.206694,,,,,,TRUE,,,,,SCT,4900,,,,,,,VFR,,,,,,,,,,,,METAR,1515.0
UCFO 241930Z 06002MPS 1000 R12/P1500N BR BKN033CB 10/09 Q1020 R12/2///95 NOSIG,UCFO,2022-10-24T19:30:00Z,40.6,72.8,10.0,9.0,60,4,,0.62,30.11811,,,,,,TRUE,,,,BR,BKN,3300,,,,,,,LIFR,,,,,,,,,,,,METAR,881.0
UCFM 241930Z 28001MPS 9999 SCT066 05/04 Q1019 R08/0///95 NOSIG,UCFM,2022-10-24T19:30:00Z,43.07,74.48,5.0,4.0,280,2,,6.21,30.088583,,,,,,TRUE,,,,,SCT,6600,,,,,,,VFR,,,,,,,,,,,,METAR,632.0
UBBZ 241930Z AUTO 28004KT 9999 // ///////// 11/08 Q1019,UBBZ,2022-10-24T19:30:00Z,,,11.0,8.0,280,4,,6.21,30.088583,,,TRUE,,,,,,,,,,,,,,,,,,,,,,,,,,,,METAR,
UBBN 241930Z 01008KT 9999 NSC 09/06 Q1019 NOSIG RMK MT OP QFE689,UBBN,2022-10-24T19:30:00Z,39.18,45.45,9.0,6.0,10,8,,6.21,30.088583,,,,,,TRUE,,,,,CLR,,,,,,,,VFR,,,,,,,,,,,,SPECI,857.0
UBBG 241930Z 28008KT 9999 SCT100 13/05 Q1018 NOSIG,UBBG,2022-10-24T19:30:00Z,40.73,46.32,13.0,5.0,280,8,,6.21,30.059055,,,,,,TRUE,,,,,SCT,10000,,,,,,,VFR,,,,,,,,,,,,METAR,333.0
UBBF 241930Z AUTO 31010KT 9999 // ///////// 11/07 Q1018,UBBF,2022-10-24T19:30:00Z,39.6,47.2,11.0,7.0,310,10,,6.21,30.059055,,,TRUE,,,,,,,,,,,,,,,,,,,,,,,,,,,,METAR,370.0
UBBB 241930Z 33012KT 9999 FEW017 17/13 Q1017 NOSIG,UBBB,2022-10-24T19:30:00Z,40.47,50.07,17.0,13.0,330,12,,6.21,30.029528,,,,,,TRUE,,,,,FEW,1700,,,,,,,VFR,,,,,,,,,,,,METAR,94.0
UAUU 241930Z 16006MPS 130V190 CAVOK 00/M03 Q1017 NOSIG RMK QFE746/0995,UAUU,2022-10-24T19:30:00Z,53.2,63.55,0.0,-3.0,160,12,,6.21,30.029528,,,,,,TRUE,,,,,CAVOK,,,,,,,,VFR,,,,,,,,,,,,METAR,177.0
UATT 241930Z 15003MPS CAVOK 02/M02 Q1016 NOSIG RMK QFE742/0990,UATT,2022-10-24T19:30:00Z,50.25,57.2,2.0,-2.0,150,6,,6.21,30.0,,,,,,TRUE,,,,,CAVOK,,,,,,,,VFR,,,,,,,,,,,,SPECI,217.0
UATG 241930Z 16005MPS 9999 BKN033CB 10/04 Q1012 NOSIG RMK QFE761/1015,UATG,2022-10-24T19:30:00Z,47.12,51.83,10.0,4.0,160,10,,6.21,29.88189,,,,,,TRUE,,,,,BKN,3300,,,,,,,VFR,,,,,,,,,,,,SPECI,-23.0
UATE 241930Z 26002MPS 9999 -SHRA SCT033CB 12/09 Q1016 NOSIG RMK QFE760/1014,UATE,2022-10-24T19:30:00Z,43.87,51.1,12.0,9.0,260,4,,6.21,30.0,,,,,,TRUE,,,,-SHRA,SCT,3300,,,,,,,VFR,,,,,,,,,,,,SPECI,21.0
UASP 241930Z 16002MPS CAVOK M06/M09 Q1027 NOSIG RMK QFE758/1011,UASP,2022-10-24T19:30:00Z,52.2,77.07,-6.0,-9.0,160,4,,6.21,30.324802,,,,,,TRUE,,,,,CAVOK,,,,,,,,VFR,,,,,,,,,,,,METAR,122.0
UARR 241930Z 17004MPS 9999 -SHRA BKN041CB 06/04 Q1011 NOSIG RMK QFE755/1007,UARR,2022-10-24T19:30:00Z,51.15,51.53,6.0,4.0,170,8,,6.21,29.852362,,,,,,TRUE,,,,-SHRA,BKN,4100,,,,,,,VFR,,,,,,,,,,,,SPECI,33.0
UAKK 241930Z 09002MPS 060V120 CAVOK M14/M16 Q1025 NOSIG RMK QFE721/0962,UAKK,2022-10-24T19:30:00Z,49.68,73.35,-14.0,-16.0,90,4,,6.21,30.265747,,,,,,TRUE,,,,,CAVOK,,,,,,,,VFR,,,,,,,,,,,,METAR,532.0
UAIT 241930Z 08004MPS 9999 SCT046CB 09/03 Q1018 NOSIG RMK QFE739/0986,UAIT,2022-10-24T19:30:00Z,43.32,68.55,9.0,3.0,80,8,,6.21,30.059055,,,,,,TRUE,,,,,SCT,4600,,,,,,,VFR,,,,,,,,,,,,METAR,301.0
UAII 241930Z 07001MPS 1500 R28/P2000 SHRA BR BKN003 OVC024CB 11/10 Q1019 NOSIG RMK QBB100 QFE727/0969,UAII,2022-10-24T19:30:00Z,42.37,69.48,11.0,10.0,70,2,,0.93,30.088583,,,,,,TRUE,,,,SHRA BR,BKN,300,OVC,2400,,,,,LIFR,,,,,,,,,,,,METAR,410.0
UADD 241930Z 00000MPS 5000 BR SCT002 OVC050 06/06 Q1019 NOSIG RMK QBB070 MT OBSC QFE707/0943,UADD,2022-10-24T19:30:00Z,42.85,71.3,6.0,6.0,0,0,,3.11,30.088583,,,,,,TRUE,,,,BR,SCT,200,OVC,5000,,,,,MVFR,,,,,,,,,,,,METAR,663.0
UACC 241930Z 20003MPS CAVOK M07/M10 Q1024 NOSIG RMK QFE737/0983,UACC,2022-10-24T19:30:00Z,51.02,71.47,-7.0,-10.0,200,6,,6.21,30.236221,,,,,,TRUE,,,,,CAVOK,,,,,,,,VFR,,,,,,,,,,,,SPECI,354.0
UAAA 241930Z VRB01MPS 9999 BKN050CB OVC100 07/03 Q1019 NOSIG,UAAA,2022-10-24T19:30:00Z,43.35,77.03,7.0,3.0,0,2,,6.21,30.088583,,,,,,TRUE,,,,,BKN,5000,OVC,10000,,,,,VFR,,,,,,,,,,,,METAR,673.0
TFFR 241930Z AUTO 07007KT 9999 FEW022/// SCT049/// BKN056/// ///CB 29/25 Q1011 TEMPO 4000 SHRA,TFFR,2022-10-24T19:30:00Z,16.27,-61.53,29.0,25.0,70,7,,6.21,29.852362,,,TRUE,,,,,,,,FEW,2200,SCT,4900,BKN,5600,,,VFR,,,,,,,,,,,,METAR,6.0
TFFF 241930Z AUTO 10009KT 9999 SCT021/// ///CB 30/25 Q1011 TEMPO 4000 SHRA BECMG SCT025 SCT030,TFFF,2022-10-24T19:30:00Z,14.6,-61.0,30.0,25.0,100,9,,6.21,29.852362,,,TRUE,,,,,,,,SCT,2100,,,,,,,VFR,,,,,,,,,,,,METAR,3.0
SPZO 241930Z VRB12KT 9999 SCT050 SCT100 22/02 Q1026 RETS NOSIG RMK BIRD HAZARD RWY 10/28,SPZO,2022-10-24T19:30:00Z,-13.55,-71.93,22.0,2.0,0,12,,6.21,30.295275,,,,,,TRUE,,,,,SCT,5000,SCT,10000,,,,,VFR,,,,,,,,,,,,SPECI,3249.0
SPJR 241930Z 14006KT 120V180 9999 VCSH SCT020 OVC047 18/11 Q1025,SPJR,2022-10-24T19:30:00Z,-7.13,-78.48,18.0,11.0,140,6,,6.21,30.265747,,,,,,,,,,VCSH,SCT,2000,OVC,4700,,,,,VFR,,,,,,,,,,,,METAR,2622.0
SOCA 241930Z AUTO 07010KT 040V100 CAVOK 31/24 Q1008 NOSIG,SOCA,2022-10-24T19:30:00Z,4.82,-52.37,31.0,24.0,70,10,,6.21,29.763779,,,TRUE,,,TRUE,,,,,CAVOK,,,,,,,,VFR,,,,,,,,,,,,METAR,7.0
SKBQ 241930Z 28005KT 210V020 9999 TC VCSH SCT015CB SCT100 29/23 Q1009 NOSIG RMK CB VCSH/NW/N A2982,SKBQ,2022-10-24T19:30:00Z,10.87,-74.77,29.0,23.0,280,5,,6.21,29.793306,,,,,,TRUE,,,,VCSH,SCT,1500,SCT,10000,,,,,VFR,,,,,,,,,,,,SPECI,23.0
RKSI 241930Z 05006KT CAVOK 07/02 Q1027 NOSIG,RKSI,2022-10-24T19:30:00Z,37.47,126.45,7.0,2.0,50,6,,6.21,30.324802,,,,,,TRUE,,,,,CAVOK,,,,,,,,VFR,,,,,,,,,,,,METAR,7.0
PAHX 241930Z AUTO 29003KT 1 1/2SM -SN BR FEW007 BKN025 OVC037 M02/M02 A2996 RMK AO2 P0001 FZRANO,PAHX,2022-10-24T19:30:00Z,62.7,-159.57,-2.0,-2.0,290,3,,1.5,29.958662,,,TRUE,TRUE,,,,TRUE,,-SN BR,FEW,700,BKN,2500,OVC,3700,,,IFR,,,,,,0.01,,,,,,SPECI,20.0
OTBD 241930Z 04001KT CAVOK 28/20 Q1012 NOSIG,OTBD,2022-10-24T19:30:00Z,25.25,51.57,28.0,20.0,40,1,,6.21,29.88189,,,,,,TRUE,,,,,CAVOK,,,,,,,,VFR,,,,,,,,,,,,METAR,13.0
OPMT 241930Z 00000KT 4000 FU NSC 23/17 Q1009 NOSIG,OPMT,2022-10-24T19:30:00Z,30.2,71.42,23.0,17.0,0,0,,2.49,29.793306,,,,,,TRUE,,,,FU,CLR,,,,,,,,IFR,,,,,,,,,,,,METAR,122.0
OPKC 241930Z 23006KT 6000 NSC 26/22 Q1011 NOSIG,OPKC,2022-10-24T19:30:00Z,24.9,67.13,26.0,22.0,230,6,,3.73,29.852362,,,,,,TRUE,,,,,CLR,,,,,,,,MVFR,,,,,,,,,,,,METAR,20.0
OPIS 241930Z 18004KT 5000 FU NSC 15/10 Q1011 NOSIG,OPIS,2022-10-24T19:30:00Z,33.55,72.83,15.0,10.0,180,4,,3.11,29.852362,,,,,,TRUE,,,,FU,CLR,,,,,,,,MVFR,,,,,,,,,,,,METAR,542.0
OIYY 241930Z 19006KT 8000 NSC 20/M04 Q1019,OIYY,2022-10-24T19:30:00Z,31.9,54.28,20.0,-4.0,190,6,,4.97,30.088583,,,,,,,,,,,CLR,,,,,,,,MVFR,,,,,,,,,,,,METAR,1226.0
OITT 241930Z 01006KT 9999 FEW032 SCT080 10/05 Q1021 A3017,OITT,2022-10-24T19:30:00Z,38.13,46.23,10.0,5.0,10,6,,6.21,30.147638,,,,,,,,,,,FEW,3200,SCT,8000,,,,,VFR,,,,,,,,,,,,METAR,1353.0
OITR 241930Z 28006KT 6000 NSC 06/06 Q1020,OITR,2022-10-24T19:30:00Z,37.67,45.07,6.0,6.0,280,6,,3.73,30.11811,,,,,,,,,,,CLR,,,,,,,,MVFR,,,,,,,,,,,,METAR,1312.0
OISS 241930Z 00000KT CAVOK 17/04 Q1021 A3017,OISS,2022-10-24T19:30:00Z,29.53,52.58,17.0,4.0,0,0,,6.21,30.147638,,,,,,,,,,,CAVOK,,,,,,,,VFR,,,,,,,,,,,,METAR,1484.0
OIMM 241930Z 21006KT CAVOK 14/07 Q1017 A3006,OIMM,2022-10-24T19:30:00Z,36.23,59.63,14.0,7.0,210,6,,6.21,30.029528,,,,,,,,,,,CAVOK,,,,,,,,VFR,,,,,,,,,,,,METAR,995.0
OIKB 241930Z VRB02KT 7000 NSC 26/20 Q1011 A2986,OIKB,2022-10-24T19:30:00Z,27.22,56.37,26.0,20.0,0,2,,4.35,29.852362,,,,,,,,,,,CLR,,,,,,,,MVFR,,,,,,,,,,,,METAR,6.0
OIII 241930Z 30014KT 9999 FEW030CB SCT035 BKN090 21/02 Q1018 A3008,OIII,2022-10-24T19:30:00Z,35.68,51.3,21.0,2.0,300,14,,6.21,30.059055,,,,,,,,,,,FEW,3000,SCT,3500,BKN,9000,,,VFR,,,,,,,,,,,,METAR,1182.0
OIIE 241930Z 29014KT 9999 -SHRA FEW035CB SCT040 OVC100 20/04 Q1018,OIIE,2022-10-24T19:30:00Z,35.42,51.15,20.0,4.0,290,14,,6.21,30.059055,,,,,,,,,,-SHRA,FEW,3500,SCT,4000,OVC,10000,,,VFR,,,,,,,,,,,,METAR,993.0
OIFM 241930Z 25004KT CAVOK 11/M12 Q1021 A3017,OIFM,2022-10-24T19:30:00Z,32.75,51.87,11.0,-12.0,250,4,,6.21,30.147638,,,,,,,,,,,CAVOK,,,,,,,,VFR,,,,,,,,,,,,METAR,1539.0
OIAW 241930Z 00000KT 7000 NSC 22/11 Q1011,OIAW,2022-10-24T19:30:00Z,31.33,48.77,22.0,11.0,0,0,,4.35,29.852362,,,,,,,,,,,CLR,,,,,,,,MVFR,,,,,,,,,,,,METAR,25.0
OBBI 241930Z 10004KT CAVOK 29/22 Q1012 NOSIG,OBBI,2022-10-24T19:30:00Z,26.27,50.63,29.0,22.0,100,4,,6.21,29.88189,,,,,,TRUE,,,,,CAVOK,,,,,,,,VFR,,,,,,,,,,,,METAR,6.0
NZWN 241930Z AUTO 15014KT 9999 BKN080/// OVC100/// 11/04 Q1031 NOSIG,NZWN,2022-10-24T19:30:00Z,-41.32,174.8,11.0,4.0,150,14,,6.21,30.442913,,,TRUE,,,TRUE,,,,,BKN,8000,OVC,10000,,,,,VFR,,,,,,,,,,,,METAR,12.0
NZCH 241930Z AUTO 19001KT 9999 NCD 07/04 Q1032 NOSIG,NZCH,2022-10-24T19:30:00Z,-43.48,172.52,7.0,4.0,190,1,,6.21,30.47244,,,TRUE,,,TRUE,,,,,CLR,,,,,,,,VFR,,,,,,,,,,,,METAR,36.0
NZAA 241930Z AUTO 14005KT 9999 OVC035/// 14/12 Q1025 NOSIG,NZAA,2022-10-24T19:30:00Z,-37.02,174.8,14.0,12.0,140,5,,6.21,30.265747,,,TRUE,,,TRUE,,,,,OVC,3500,,,,,,,VFR,,,,,,,,,,,,METAR,7.0
NWWW 241930Z AUTO 07010KT 020V110 CAVOK 24/18 Q1012 NOSIG,NWWW,2022-10-24T19:30:00Z,-22.02,166.22,24.0,18.0,70,10,,6.21,29.88189,,,TRUE,,,TRUE,,,,,CAVOK,,,,,,,,VFR,,,,,,,,,,,,METAR,16.0
NTAA 241930Z 06015KT 9999 FEW023 SCT260 28/23 Q1012 NOSIG,NTAA,2022-10-24T19:30:00Z,-17.55,-149.62,28.0,23.0,60,15,,6.21,29.88189,,,,,,TRUE,,,,,FEW,2300,SCT,26000,,,,,VFR,,,,,,,,,,,,METAR,2.0
NCRG 241930Z AUTO 33016KT 4400 HZ BKN013/// 24/23 Q1006,NCRG,2022-10-24T19:30:00Z,-21.2,-159.82,24.0,23.0,330,16,,2.73,29.704725,,,TRUE,,,,,,,HZ,BKN,1300,,,,,,,IFR,,,,,,,,,,,,METAR,7.0
LZZI 241930Z VRB02KT 2200 BR FEW004 OVC013 13/13 Q1017,LZZI,2022-10-24T19:30:00Z,49.23,18.62,13.0,13.0,0,2,,1.37,30.029528,,,,,,,,,,BR,FEW,400,OVC,1300,,,,,IFR,,,,,,,,,,,,METAR,311.0
LZTT 241930Z VRB01KT 9999 FEW030 BKN083 09/09 Q1017,LZTT,2022-10-24T19:30:00Z,49.07,20.25,9.0,9.0,0,1,,6.21,30.029528,,,,,,,,,,,FEW,3000,BKN,8300,,,,,VFR,,,,,,,,,,,,METAR,693.0
LZPP 241930Z 28004KT 2500 -RA BR FEW010 SCT018 14/13 Q1017,LZPP,2022-10-24T19:30:00Z,48.62,17.83,14.0,13.0,280,4,,1.55,30.029528,,,,,,,,,,-RA BR,FEW,1000,SCT,1800,,,,,IFR,,,,,,,,,,,,METAR,160.0
LZKZ 241930Z 34003KT 9999 OVC017 14/11 Q1017 TEMPO OVC013,LZKZ,2022-10-24T19:30:00Z,48.67,21.23,14.0,11.0,340,3,,6.21,30.029528,,,,,,,,,,,OVC,1700,,,,,,,MVFR,,,,,,,,,,,,SPECI,227.0
LZIB 241930Z VRB01KT 2500 BR -RA FEW007 OVC024 15/14 Q1017 NOSIG,LZIB,2022-10-24T19:30:00Z,48.17,17.22,15.0,14.0,0,1,,1.55,30.029528,,,,,,TRUE,,,,BR -RA,FEW,700,OVC,2400,,,,,IFR,,,,,,,,,,,,METAR,129.0
LYVR 241930Z AUTO VRB01KT CAVOK 17/11 Q1018,LYVR,2022-10-24T19:30:00Z,45.13,21.32,17.0,11.0,0,1,,6.21,30.059055,,,TRUE,,,,,,,,CAVOK,,,,,,,,VFR,,,,,,,,,,,,METAR,82.0
LYTV 241930Z AUTO 00000KT CAVOK 13/12 Q1021,LYTV,2022-10-24T19:30:00Z,42.4,18.72,13.0,12.0,0,0,,6.21,30.147638,,,TRUE,,,,,,,,CAVOK,,,,,,,,VFR,,,,,,,,,,,,METAR,3.0
LYPG 241930Z 07002KT CAVOK 16/13 Q1021 NOSIG,LYPG,2022-10-24T19:30:00Z,42.37,19.25,16.0,13.0,70,2,,6.21,30.147638,,,,,,TRUE,,,,,CAVOK,,,,,,,,VFR,,,,,,,,,,,,METAR,32.0
LYNI 241930Z 11005KT CAVOK 15/12 Q1019 NOSIG,LYNI,2022-10-24T19:30:00Z,43.33,21.85,15.0,12.0,110,5,,6.21,30.088583,,,,,,TRUE,,,,,CAVOK,,,,,,,,VFR,,,,,,,,,,,,METAR,197.0
LYKV 241930Z 00000KT CAVOK 13/13 Q1019 NOSIG,LYKV,2022-10-24T19:30:00Z,43.82,20.58,13.0,13.0,0,0,,6.21,30.088583,,,,,,TRUE,,,,,CAVOK,,,,,,,,VFR,,,,,,,,,,,,METAR,209.0
LYBT 241930Z 00000KT CAVOK 14/14 Q1018 NOSIG,LYBT,2022-10-24T19:30:00Z,44.93,20.25,14.0,14.0,0,0,,6.21,30.059055,,,,,,TRUE,,,,,CAVOK,,,,,,,,VFR,,,,,,,,,,,,METAR,78.0
LYBE 241930Z 14005KT CAVOK 15/11 Q1018 NOSIG,LYBE,2022-10-24T19:30:00Z,44.82,20.28,15.0,11.0,140,5,,6.21,30.059055,,,,,,TRUE,,,,,CAVOK,,,,,,,,VFR,,,,,,,,,,,,METAR,93.0
LWSK 241930Z 00000KT CAVOK 12/10 Q1021 NOSIG,LWSK,2022-10-24T19:30:00Z,41.97,21.63,12.0,10.0,0,0,,6.21,30.147638,,,,,,TRUE,,,,,CAVOK,,,,,,,,VFR,,,,,,,,,,,,METAR,232.0
LUKK 241930Z 23006KT 190V250 CAVOK 14/09 Q1018 NOSIG,LUKK,2022-10-24T19:30:00Z,46.93,28.93,14.0,9.0,230,6,,6.21,30.059055,,,,,,TRUE,,,,,CAVOK,,,,,,,,VFR,,,,,,,,,,,,METAR,102.0
LRTR 241930Z 10006KT CAVOK 12/12 Q1018,LRTR,2022-10-24T19:30:00Z,45.82,21.33,12.0,12.0,100,6,,6.21,30.059055,,,,,,,,,,,CAVOK,,,,,,,,VFR,,,,,,,,,,,,METAR,104.0
LRTM 241930Z AUTO 09006KT 5000 BR NCD 11/10 Q1019,LRTM,2022-10-24T19:30:00Z,46.47,24.42,11.0,10.0,90,6,,3.11,30.088583,,,TRUE,,,,,,,BR,CLR,,,,,,,,MVFR,,,,,,,,,,,,METAR,289.0
LRTC 241930Z AUTO 14007KT 7000 NCD 13/09 Q1020,LRTC,2022-10-24T19:30:00Z,45.07,28.72,13.0,9.0,140,7,,4.35,30.11811,,,TRUE,,,,,,,,CLR,,,,,,,,MVFR,,,,,,,,,,,,METAR,52.0
LRSV 241930Z 26007KT CAVOK 16/11 Q1017,LRSV,2022-10-24T19:30:00Z,47.68,26.35,16.0,11.0,260,7,,6.21,30.029528,,,,,,,,,,,CAVOK,,,,,,,,VFR,,,,,,,,,,,,METAR,406.0
LRSM 241930Z AUTO 12005KT 9999 FEW031/// SCT044/// OVC055/// 16/12 Q1017,LRSM,2022-10-24T19:30:00Z,47.7,22.88,16.0,12.0,120,5,,6.21,30.029528,,,TRUE,,,,,,,,FEW,3100,SCT,4400,OVC,5500,,,VFR,,,,,,,,,,,,METAR,123.0
LRSB 241930Z AUTO 28003KT 8000 NCD 11/09 Q1019,LRSB,2022-10-24T19:30:00Z,45.78,24.08,11.0,9.0,280,3,,4.97,30.088583,,,TRUE,,,,,,,,CLR,,,,,,,,MVFR,,,,,,,,,,,,METAR,442.0
LROP 241930Z 00000KT CAVOK 12/09 Q1019 NOSIG,LROP,2022-10-24T19:30:00Z,44.57,26.1,12.0,9.0,0,0,,6.21,30.088583,,,,,,TRUE,,,,,CAVOK,,,,,,,,VFR,,,,,,,,,,,,METAR,92.0
LROD 241930Z AUTO 22007KT 9999 NCD 15/13 Q1018,LROD,2022-10-24T19:30:00Z,47.03,21.88,15.0,13.0,220,7,,6.21,30.059055,,,TRUE,,,,,,,,CLR,,,,,,,,VFR,,,,,,,,,,,,METAR,132.0
LRIA 241930Z AUTO 09003KT 9999 SCT120/// 15/07 Q1018,LRIA,2022-10-24T19:30:00Z,47.17,27.62,15.0,7.0,90,3,,6.21,30.059055,,,TRUE,,,,,,,,SCT,12000,,,,,,,VFR,,,,,,,,,,,,METAR,71.0
LRCV 241930Z 04002KT CAVOK 13/08 Q1019,LRCV,2022-10-24T19:30:00Z,44.32,23.88,13.0,8.0,40,2,,6.21,30.088583,,,,,,,,,,,CAVOK,,,,,,,,VFR,,,,,,,,,,,,METAR,192.0
LRCL 241930Z 23001KT 8000 NSC 09/08 Q1018,LRCL,2022-10-24T19:30:00Z,46.78,23.68,9.0,8.0,230,1,,4.97,30.059055,,,,,,,,,,,CLR,,,,,,,,MVFR,,,,,,,,,,,,METAR,313.0
LRCK 241930Z 17007KT 8000 MIFG NSC 11/10 Q1020 NOSIG,LRCK,2022-10-24T19:30:00Z,44.37,28.48,11.0,10.0,170,7,,4.97,30.11811,,,,,,TRUE,,,,MIFG,CLR,,,,,,,,MVFR,,,,,,,,,,,,METAR,108.0
LRBS 241930Z 00000KT CAVOK 11/08 Q1019 NOSIG,LRBS,2022-10-24T19:30:00Z,44.5,26.08,11.0,8.0,0,0,,6.21,30.088583,,,,,,TRUE,,,,,CAVOK,,,,,,,,VFR,,,,,,,,,,,,METAR,91.0
LRBM 241930Z AUTO 08003KT 9999 FEW041/// BKN049/// BKN075/// 15/12 Q1018,LRBM,2022-10-24T19:30:00Z,47.67,23.47,15.0,12.0,80,3,,6.21,30.059055,,,TRUE,,,,,,,,FEW,4100,BKN,4900,BKN,7500,,,VFR,,,,,,,,,,,,METAR,180.0
LRBC 241930Z 17001KT CAVOK 13/06 Q1018,LRBC,2022-10-24T19:30:00Z,46.52,26.92,13.0,6.0,170,1,,6.21,30.059055,,,,,,,,,,,CAVOK,,,,,,,,VFR,,,,,,,,,,,,METAR,183.0
LRAR 241930Z 15004KT CAVOK 14/12 Q1017,LRAR,2022-10-24T19:30:00Z,46.18,21.27,14.0,12.0,150,4,,6.21,30.029528,,,,,,,,,,,CAVOK,,,,,,,,VFR,,,,,,,,,,,,METAR,102.0
LQTZ 241930Z VRB01KT CAVOK 11/11 Q1018,LQTZ,2022-10-24T19:30:00Z,44.47,18.73,11.0,11.0,0,1,,6.21,30.059055,,,,,,,,,,,CAVOK,,,,,,,,VFR,,,,,,,,,,,,METAR,242.0
LQSA 241930Z VRB03KT CAVOK 13/09 Q1021 NOSIG,LQSA,2022-10-24T19:30:00Z,43.82,18.32,13.0,9.0,0,3,,6.21,30.147638,,,,,,TRUE,,,,,CAVOK,,,,,,,,VFR,,,,,,,,,,,,METAR,505.0
LQBK 241930Z 16002KT CAVOK 13/13 Q1017 NOSIG,LQBK,2022-10-24T19:30:00Z,44.93,17.3,13.0,13.0,160,2,,6.21,30.029528,,,,,,TRUE,,,,,CAVOK,,,,,,,,VFR,,,,,,,,,,,,METAR,114.0
LPPT 241930Z 16008KT CAVOK 19/16 Q1015,LPPT,2022-10-24T19:30:00Z,38.77,-9.13,19.0,16.0,160,8,,6.21,29.970472,,,,,,,,,,,CAVOK,,,,,,,,VFR,,,,,,,,,,,,METAR,98.0
LPPS 241930Z 22013KT 9999 FEW015 22/17 Q1013,LPPS,2022-10-24T19:30:00Z,33.07,-16.35,22.0,17.0,220,13,,6.21,29.911417,,,,,,,,,,,FEW,1500,,,,,,,VFR,,,,,,,,,,,,METAR,89.0
LPPR 241930Z 13007KT 090V150 9999 FEW040 18/16 Q1015,LPPR,2022-10-24T19:30:00Z,41.23,-8.68,18.0,16.0,130,7,,6.21,29.970472,,,,,,,,,,,FEW,4000,,,,,,,VFR,,,,,,,,,,,,METAR,64.0
LPPD 241930Z VRB02KT 9999 FEW020 BKN045 17/13 Q1012,LPPD,2022-10-24T19:30:00Z,37.73,-25.68,17.0,13.0,0,2,,6.21,29.88189,,,,,,,,,,,FEW,2000,BKN,4500,,,,,VFR,,,,,,,,,,,,METAR,62.0
LPMA 241930Z 25008KT 200V290 9999 SCT015 SCT060 21/17 Q1013,LPMA,2022-10-24T19:30:00Z,32.7,-16.77,21.0,17.0,250,8,,6.21,29.911417,,,,,,,,,,,SCT,1500,SCT,6000,,,,,VFR,,,,,,,,,,,,METAR,54.0
LPHR 241930Z 31006KT 270V330 9999 FEW020 BKN040 18/12 Q1013,LPHR,2022-10-24T19:30:00Z,38.52,-28.72,18.0,12.0,310,6,,6.21,29.911417,,,,,,,,,,,FEW,2000,BKN,4000,,,,,VFR,,,,,,,,,,,,METAR,39.0
LPFR 241930Z 03003KT 9999 FEW012 20/17 Q1016,LPFR,2022-10-24T19:30:00Z,37.02,-7.97,20.0,17.0,30,3,,6.21,30.0,,,,,,,,,,,FEW,1200,,,,,,,VFR,,,,,,,,,,,,METAR,3.0
LPCS 241930Z 15007KT 9999 FEW016 SCT028 18/16 Q1015,LPCS,2022-10-24T19:30:00Z,38.73,-9.35,18.0,16.0,150,7,,6.21,29.970472,,,,,,,,,,,FEW,1600,SCT,2800,,,,,VFR,,,,,,,,,,,,METAR,99.0
LPAZ 241930Z 28012KT 9999 SCT023 SCT042 17/15 Q1012,LPAZ,2022-10-24T19:30:00Z,36.97,-25.17,17.0,15.0,280,12,,6.21,29.88189,,,,,,,,,,,SCT,2300,SCT,4200,,,,,VFR,,,,,,,,,,,,METAR,96.0
LKTB 241930Z 28011KT 3000 -RA BR FEW049 13/13 Q1017 NOSIG,LKTB,2022-10-24T19:30:00Z,49.15,16.68,13.0,13.0,280,11,,1.86,30.029528,,,,,,TRUE,,,,-RA BR,FEW,4900,,,,,,,IFR,,,,,,,,,,,,METAR,233.0
LKPR 241930Z 23018KT CAVOK 14/12 Q1015 NOSIG,LKPR,2022-10-24T19:30:00Z,50.1,14.27,14.0,12.0,230,18,,6.21,29.970472,,,,,,TRUE,,,,,CAVOK,,,,,,,,VFR,,,,,,,,,,,,METAR,364.0
LKPD 241930Z 08002KT CAVOK 13/13 Q1016 NOSIG RMK BLU BLU,LKPD,2022-10-24T19:30:00Z,50.02,15.73,13.0,13.0,80,2,,6.21,30.0,,,,,,TRUE,,,,,CAVOK,,,,,,,,VFR,,,,,,,,,,,,SPECI,226.0
LKNA 241930Z 23005KT 8000 BKN011 OVC110 13/12 Q1017 NOSIG RMK GRN GRN,LKNA,2022-10-24T19:30:00Z,49.17,16.12,13.0,12.0,230,5,,4.97,30.029528,,,,,,TRUE,,,,,BKN,1100,OVC,11000,,,,,MVFR,,,,,,,,,,,,SPECI,460.0
LKMT 241930Z 23010KT 9999 BKN043 14/13 Q1016 TEMPO RA,LKMT,2022-10-24T19:30:00Z,49.68,18.12,14.0,13.0,230,10,,6.21,30.0,,,,,,,,,,,BKN,4300,,,,,,,VFR,,,,,,,,,,,,SPECI,251.0
LKCV 241930Z VRB02KT CAVOK 13/12 Q1016 NOSIG RMK BLU BLU,LKCV,2022-10-24T19:30:00Z,49.93,15.38,13.0,12.0,0,2,,6.21,30.0,,,,,,TRUE,,,,,CAVOK,,,,,,,,VFR,,,,,,,,,,,,SPECI,234.0
LJPZ 241930Z 11008KT CAVOK 18/15 Q1018,LJPZ,2022-10-24T19:30:00Z,45.47,13.62,18.0,15.0,110,8,,6.21,30.059055,,,,,,,,,,,CAVOK,,,,,,,,VFR,,,,,,,,,,,,METAR,2.0
LJMB 241930Z 26007KT 220V340 CAVOK 19/13 Q1018,LJMB,2022-10-24T19:30:00Z,46.47,15.67,19.0,13.0,260,7,,6.21,30.059055,,,,,,,,,,,CAVOK,,,,,,,,VFR,,,,,,,,,,,,METAR,263.0
LJLJ 241930Z 18002KT 9999 BKN040 17/14 Q1018 NOSIG,LJLJ,2022-10-24T19:30:00Z,46.22,14.47,17.0,14.0,180,2,,6.21,30.059055,,,,,,TRUE,,,,,BKN,4000,,,,,,,VFR,,,,,,,,,,,,METAR,363.0
LJCE 241930Z AUTO 00000KT 9999 NSC 15/12 Q1018,LJCE,2022-10-24T19:30:00Z,45.9,15.52,15.0,12.0,0,0,,6.21,30.059055,,,TRUE,,,,,,,,CLR,,,,,,,,VFR,,,,,,,,,,,,METAR,153.0
LHBP 241930Z 10004KT 060V120 4000 BR NSC 13/12 Q1017 NOSIG,LHBP,2022-10-24T19:30:00Z,47.43,19.27,13.0,12.0,100,4,,2.49,30.029528,,,,,,TRUE,,,,BR,CLR,,,,,,,,IFR,,,,,,,,,,,,METAR,141.0
LGKP 241930Z AUTO 30009KT //// // ////// 20/16 Q1018 RE//,LGKP,2022-10-24T19:30:00Z,35.42,27.15,20.0,16.0,300,9,,,30.059055,,,TRUE,,,,,,,,,,,,,,,,,,,,,,,,,,,,METAR,20.0
LFYR 241930Z AUTO 21003KT CAVOK 15/12 Q1016,LFYR,2022-10-24T19:30:00Z,47.32,1.68,15.0,12.0,210,3,,6.21,30.0,,,TRUE,,,,,,,,CAVOK,,,,,,,,VFR,,,,,,,,,,,,METAR,83.0
LFVP 241930Z AUTO 17004KT CAVOK 15/10 Q1028 NOSIG,LFVP,2022-10-24T19:30:00Z,46.77,-56.18,15.0,10.0,170,4,,6.21,30.35433,,,TRUE,,,TRUE,,,,,CAVOK,,,,,,,,VFR,,,,,,,,,,,,METAR,5.0
LFTW 241930Z AUTO 05002KT 9000 NSC 19/18 Q1017,LFTW,2022-10-24T19:30:00Z,43.75,4.42,19.0,18.0,50,2,,5.59,30.029528,,,TRUE,,,,,,,,CLR,,,,,,,,VFR,,,,,,,,,,,,METAR,91.0
LFTH 241930Z AUTO 00000KT 4800 BR BKN004 BKN024 BKN190 20/17 Q1017 TEMPO 11010KT SCT015 OVC250 BECMG 9999 NSW,LFTH,2022-10-24T19:30:00Z,43.1,6.15,20.0,17.0,0,0,,2.98,30.029528,,,TRUE,,,,,,,BR,BKN,400,BKN,2400,BKN,19000,,,LIFR,,-1.0,,,,,,,,,,SPECI,3.0
LFSX 241930Z AUTO VRB02KT 9999 ///CB 12/10 Q1017,LFSX,2022-10-24T19:30:00Z,47.77,6.35,12.0,10.0,0,2,,6.21,30.029528,,,TRUE,,,,,,,,,,,,,,,,,,,,,,,,,,,,SPECI,266.0
LFST 241930Z AUTO VRB02KT 9999 ///CB 13/11 Q1016 TEMPO SHRA BECMG SCT050 BKN090,LFST,2022-10-24T19:30:00Z,48.53,7.63,13.0,11.0,0,2,,6.21,30.0,,,TRUE,,,,,,,,,,,,,,,,,,,,,,,,,,,,SPECI,149.0
LFSO 241930Z AUTO 19008KT CAVOK 11/10 Q1016,LFSO,2022-10-24T19:30:00Z,48.57,5.97,11.0,10.0,190,8,,6.21,30.0,,,TRUE,,,,,,,,CAVOK,,,,,,,,VFR,,,,,,,,,,,,METAR,328.0
LFSN 241930Z AUTO 11008KT 090V150 CAVOK 11/10 Q1016,LFSN,2022-10-24T19:30:00Z,48.68,6.22,11.0,10.0,110,8,,6.21,30.0,,,TRUE,,,,,,,,CAVOK,,,,,,,,VFR,,,,,,,,,,,,METAR,214.0
LFSL 241930Z AUTO 00000KT CAVOK 13/10 Q1018 NOSIG,LFSL,2022-10-24T19:30:00Z,45.03,1.48,13.0,10.0,0,0,,6.21,30.059055,,,TRUE,,,TRUE,,,,,CAVOK,,,,,,,,VFR,,,,,,,,,,,,METAR,300.0
LFSI 241930Z AUTO 18004KT CAVOK 13/11 Q1015,LFSI,2022-10-24T19:30:00Z,48.62,4.9,13.0,11.0,180,4,,6.21,29.970472,,,TRUE,,,,,,,,CAVOK,,,,,,,,VFR,,,,,,,,,,,,METAR,136.0
LFSG 241930Z AUTO 16002KT CAVOK 11/09 Q1016,LFSG,2022-10-24T19:30:00Z,48.33,6.07,11.0,9.0,160,2,,6.21,30.0,,,TRUE,,,,,,,,CAVOK,,,,,,,,VFR,,,,,,,,,,,,METAR,320.0
LFSD 241930Z AUTO 24004KT 9999 ////// 16/11 Q1017,LFSD,2022-10-24T19:30:00Z,47.27,5.08,16.0,11.0,240,4,,6.21,30.029528,,,TRUE,,,,,,,,,,,,,,,,,,,,,,,,,,,,SPECI,218.0
LFSB 241930Z AUTO 14005KT 090V190 CAVOK 15/12 Q1017 TEMPO SHRA FEW050CB BKN080,LFSB,2022-10-24T19:30:00Z,47.6,7.52,15.0,12.0,140,5,,6.21,30.029528,,,TRUE,,,,,,,,CAVOK,,,,,,,,VFR,,,,,,,,,,,,SPECI,262.0
LFRZ 241930Z AUTO 23009KT 9999 SCT017 SCT023 16/14 Q1014 TEMPO 4500 SHRA BKN025CB,LFRZ,2022-10-24T19:30:00Z,47.32,-2.17,16.0,14.0,230,9,,6.21,29.940945,,,TRUE,,,,,,,,SCT,1700,SCT,2300,,,,,VFR,,,,,,,,,,,,SPECI,2.0
LFRV 241930Z AUTO 21005KT 180V250 9999 BKN010 OVC015 15/14 Q1013,LFRV,2022-10-24T19:30:00Z,47.72,-2.72,15.0,14.0,210,5,,6.21,29.911417,,,TRUE,,,,,,,,BKN,1000,OVC,1500,,,,,MVFR,,,,,,,,,,,,METAR,132.0
LFRU 241930Z AUTO 22007KT CAVOK 14/12 Q1012,LFRU,2022-10-24T19:30:00Z,48.6,-3.82,14.0,12.0,220,7,,6.21,29.88189,,,TRUE,,,,,,,,CAVOK,,,,,,,,VFR,,,,,,,,,,,,METAR,85.0
LFRT 241930Z AUTO 24007KT 9999 -DZ BKN014 BKN024 BKN032 14/12 Q1012,LFRT,2022-10-24T19:30:00Z,48.53,-2.85,14.0,12.0,240,7,,6.21,29.88189,,,TRUE,,,,,,,-DZ,BKN,1400,BKN,2400,BKN,3200,,,MVFR,,,,,,,,,,,,METAR,134.0
LFRS 241930Z AUTO 22007KT 9999 FEW013 15/14 Q1015 TEMPO 4500 SHRA BKN030CB,LFRS,2022-10-24T19:30:00Z,47.17,-1.6,15.0,14.0,220,7,,6.21,29.970472,,,TRUE,,,,,,,,FEW,1300,,,,,,,VFR,,,,,,,,,,,,SPECI,26.0
LFRQ 241930Z AUTO 21007KT 9999 FEW012 SCT017 OVC060 14/14 Q1012 TEMPO 4000 SHRA BKN012TCU,LFRQ,2022-10-24T19:30:00Z,47.97,-4.17,14.0,14.0,210,7,,6.21,29.88189,,,TRUE,,,,,,,,FEW,1200,SCT,1700,OVC,6000,,,VFR,,,,,,,,,,,,SPECI,94.0
LFRO 241930Z AUTO 21006KT 9999 FEW017 13/12 Q1012,LFRO,2022-10-24T19:30:00Z,48.75,-3.47,13.0,12.0,210,6,,6.21,29.88189,,,TRUE,,,,,,,,FEW,1700,,,,,,,VFR,,,,,,,,,,,,METAR,86.0
LFRN 241930Z AUTO 20006KT CAVOK 14/13 Q1013 NOSIG,LFRN,2022-10-24T19:30:00Z,48.07,-1.73,14.0,13.0,200,6,,6.21,29.911417,,,TRUE,,,TRUE,,,,,CAVOK,,,,,,,,VFR,,,,,,,,,,,,METAR,35.0
LFRM 241930Z AUTO 20005KT 170V230 9999 FEW018 15/13 Q1015 NOSIG,LFRM,2022-10-24T19:30:00Z,47.95,0.2,15.0,13.0,200,5,,6.21,29.970472,,,TRUE,,,TRUE,,,,,FEW,1800,,,,,,,VFR,,,,,,,,,,,,METAR,51.0
LFRL 241930Z AUTO 21008KT 9999 SCT013 14/13 Q1012 TEMPO 3000 SHRA SCT020TCU,LFRL,2022-10-24T19:30:00Z,48.27,-4.43,14.0,13.0,210,8,,6.21,29.88189,,,TRUE,,,,,,,,SCT,1300,,,,,,,VFR,,,,,,,,,,,,METAR,80.0
LFRK 241930Z AUTO 22008KT 9999 FEW040/// ///CB 14/12 Q1012 TEMPO 3000 SHRA BECMG SCT020,LFRK,2022-10-24T19:30:00Z,49.17,-0.45,14.0,12.0,220,8,,6.21,29.88189,,,TRUE,,,,,,,,FEW,4000,,,,,,,VFR,,,,,,,,,,,,SPECI,66.0
LFRJ 241930Z AUTO 21007KT 9999 BKN010 BKN015 BKN020 13/13 Q1012,LFRJ,2022-10-24T19:30:00Z,48.52,-4.15,13.0,13.0,210,7,,6.21,29.88189,,,TRUE,,,,,,,,BKN,1000,BKN,1500,BKN,2000,,,MVFR,,,,,,,,,,,,METAR,109.0
LFRI 241930Z AUTO 22007KT 9999 FEW017 SCT023 16/13 Q1016 NOSIG,LFRI,2022-10-24T19:30:00Z,46.7,-1.37,16.0,13.0,220,7,,6.21,30.0,,,TRUE,,,TRUE,,,,,FEW,1700,SCT,2300,,,,,VFR,,,,,,,,,,,,METAR,89.0
LFRH 241930Z AUTO 23010KT 9999 FEW014 OVC062 15/14 Q1013 TEMPO SHRA BKN012 OVC020TCU,LFRH,2022-10-24T19:30:00Z,47.77,-3.45,15.0,14.0,230,10,,6.21,29.911417,,,TRUE,,,,,,,,FEW,1400,OVC,6200,,,,,VFR,,,,,,,,,,,,SPECI,46.0
LFRG 241930Z AUTO 21007KT 9999 FEW031/// BKN039/// BKN060/// ///CB 14/12 Q1012 TEMPO 3000 SHRA BECMG SCT020,LFRG,2022-10-24T19:30:00Z,49.37,0.15,14.0,12.0,210,7,,6.21,29.88189,,,TRUE,,,,,,,,FEW,3100,BKN,3900,BKN,6000,,,VFR,,,,,,,,,,,,SPECI,146.0
LFRD 241930Z AUTO 21008KT CAVOK 14/12 Q1012 NOSIG,LFRD,2022-10-24T19:30:00Z,48.58,-2.07,14.0,12.0,210,8,,6.21,29.88189,,,TRUE,,,TRUE,,,,,CAVOK,,,,,,,,VFR,,,,,,,,,,,,METAR,56.0
LFRC 241930Z AUTO 24009KT 9999 SCT019 BKN170 13/12 Q1011,LFRC,2022-10-24T19:30:00Z,49.63,-1.47,13.0,12.0,240,9,,6.21,29.852362,,,TRUE,,,,,,,,SCT,1900,BKN,17000,,,,,VFR,,,,,,,,,,,,METAR,137.0
LFRB 241930Z AUTO 22009KT 9999 BKN008 BKN012 14/13 Q1012 TEMPO 4000 SHRA BKN012TCU,LFRB,2022-10-24T19:30:00Z,48.45,-4.42,14.0,13.0,220,9,,6.21,29.88189,,,TRUE,,,,,,,,BKN,800,BKN,1200,,,,,IFR,,,,,,,,,,,,SPECI,91.0
LFQQ 241930Z AUTO 21009KT 9999 SCT026/// BKN035/// BKN094/// ///TCU 15/13 Q1010 TEMPO 22017G27KT 1200 TSRAGS BKN013CB,LFQQ,2022-10-24T19:30:00Z,50.57,3.1,15.0,13.0,210,9,,6.21,29.822834,,,TRUE,,,,,,,,SCT,2600,BKN,3500,BKN,9400,,,VFR,,,,,,,,,,,,SPECI,43.0
LFQB 241930Z AUTO 21010KT 9999 FEW041 SCT072 14/12 Q1015,LFQB,2022-10-24T19:30:00Z,48.32,4.02,14.0,12.0,210,10,,6.21,29.970472,,,TRUE,,,,,,,,FEW,4100,SCT,7200,,,,,VFR,,,,,,,,,,,,METAR,107.0
LFQA 241930Z AUTO 21009KT CAVOK 14/12 Q1014,LFQA,2022-10-24T19:30:00Z,49.2,4.15,14.0,12.0,210,9,,6.21,29.940945,,,TRUE,,,,,,,,CAVOK,,,,,,,,VFR,,,,,,,,,,,,METAR,92.0
LFPV 241930Z AUTO 23009KT CAVOK 15/12 Q1014 NOSIG,LFPV,2022-10-24T19:30:00Z,48.77,2.2,15.0,12.0,230,9,,6.21,29.940945,,,TRUE,,,TRUE,,,,,CAVOK,,,,,,,,VFR,,,,,,,,,,,,METAR,171.0
LFPT 241930Z AUTO 23009KT CAVOK 15/12 Q1013,LFPT,2022-10-24T19:30:00Z,49.1,2.03,15.0,12.0,230,9,,6.21,29.911417,,,TRUE,,,,,,,,CAVOK,,,,,,,,VFR,,,,,,,,,,,,METAR,91.0
LFPO 241930Z 22009KT CAVOK 15/13 Q1014 NOSIG,LFPO,2022-10-24T19:30:00Z,48.72,2.38,15.0,13.0,220,9,,6.21,29.940945,,,,,,TRUE,,,,,CAVOK,,,,,,,,VFR,,,,,,,,,,,,METAR,88.0
LFPN 241930Z AUTO 22011KT CAVOK 15/12 Q1014 TEMPO BKN013,LFPN,2022-10-24T19:30:00Z,48.75,2.12,15.0,12.0,220,11,,6.21,29.940945,,,TRUE,,,,,,,,CAVOK,,,,,,,,VFR,,,,,,,,,,,,SPECI,152.0
LFPM 241930Z AUTO 22010KT CAVOK 14/13 Q1014,LFPM,2022-10-24T19:30:00Z,48.62,2.67,14.0,13.0,220,10,,6.21,29.940945,,,TRUE,,,,,,,,CAVOK,,,,,,,,VFR,,,,,,,,,,,,METAR,91.0
LFPG 241930Z 22013KT CAVOK 16/12 Q1013 NOSIG,LFPG,2022-10-24T19:30:00Z,49.02,2.53,16.0,12.0,220,13,,6.21,29.911417,,,,,,TRUE,,,,,CAVOK,,,,,,,,VFR,,,,,,,,,,,,METAR,107.0
LFPB 241930Z AUTO 22010KT CAVOK 16/12 Q1013 NOSIG,LFPB,2022-10-24T19:30:00Z,48.97,2.42,16.0,12.0,220,10,,6.21,29.911417,,,TRUE,,,TRUE,,,,,CAVOK,,,,,,,,VFR,,,,,,,,,,,,METAR,50.0
LFOZ 241930Z AUTO 18004KT CAVOK 13/12 Q1015,LFOZ,2022-10-24T19:30:00Z,47.9,2.17,13.0,12.0,180,4,,6.21,29.970472,,,TRUE,,,,,,,,CAVOK,,,,,,,,VFR,,,,,,,,,,,,METAR,121.0
LFOV 241930Z AUTO 20007KT CAVOK 14/12 Q1014,LFOV,2022-10-24T19:30:00Z,48.03,-0.75,14.0,12.0,200,7,,6.21,29.940945,,,TRUE,,,,,,,,CAVOK,,,,,,,,VFR,,,,,,,,,,,,METAR,99.0
LFOT 241930Z AUTO 22005KT 9999 FEW029 15/12 Q1015 NOSIG,LFOT,2022-10-24T19:30:00Z,47.43,0.72,15.0,12.0,220,5,,6.21,29.970472,,,TRUE,,,TRUE,,,,,FEW,2900,,,,,,,VFR,,,,,,,,,,,,METAR,107.0
LFOP 241930Z AUTO 20007KT 9999 FEW037 13/11 Q1012 NOSIG,LFOP,2022-10-24T19:30:00Z,49.37,1.17,13.0,11.0,200,7,,6.21,29.88189,,,TRUE,,,TRUE,,,,,FEW,3700,,,,,,,VFR,,,,,,,,,,,,METAR,149.0
LFOK 241930Z AUTO 21012KT 9999 FEW030 13/12 Q1015 NOSIG,LFOK,2022-10-24T19:30:00Z,48.78,4.15,13.0,12.0,210,12,,6.21,29.970472,,,TRUE,,,TRUE,,,,,FEW,3000,,,,,,,VFR,,,,,,,,,,,,METAR,166.0
LFOJ 241930Z AUTO 22008KT 9999 FEW033 14/12 Q1015 NOSIG,LFOJ,2022-10-24T19:30:00Z,47.98,1.75,14.0,12.0,220,8,,6.21,29.970472,,,TRUE,,,TRUE,,,,,FEW,3300,,,,,,,VFR,,,,,,,,,,,,METAR,122.0
LFOH 241930Z AUTO 24013KT 7000 -RA SCT018/// BKN031/// BKN040/// ///CB 14/13 Q1011,LFOH,2022-10-24T19:30:00Z,49.52,0.08,14.0,13.0,240,13,,4.35,29.852362,,,TRUE,,,,,,,-RA,SCT,1800,BKN,3100,BKN,4000,,,MVFR,,,,,,,,,,,,SPECI,87.0
LFOE 241930Z AUTO /////KT CAVOK 14/13 Q1013,LFOE,2022-10-24T19:30:00Z,49.02,1.22,14.0,13.0,,,,6.21,29.911417,,,TRUE,,,,,,,,CAVOK,,,,,,,,VFR,,,,,,,,,,,,SPECI,132.0
LFOB 241930Z AUTO 22008KT 9999 FEW026 BKN140 BKN160 15/12 Q1012 TEMPO 2000 SHRA BKN013CB,LFOB,2022-10-24T19:30:00Z,49.47,2.12,15.0,12.0,220,8,,6.21,29.88189,,,TRUE,,,,,,,,FEW,2600,BKN,14000,BKN,16000,,,VFR,,,,,,,,,,,,SPECI,99.0
LFOA 241930Z AUTO 21005KT CAVOK 15/12 Q1017,LFOA,2022-10-24T19:30:00Z,47.05,2.63,15.0,12.0,210,5,,6.21,30.029528,,,TRUE,,,,,,,,CAVOK,,,,,,,,VFR,,,,,,,,,,,,METAR,174.0
LFMY 241930Z AUTO 00000KT CAVOK 20/17 Q1017,LFMY,2022-10-24T19:30:00Z,43.6,5.1,20.0,17.0,0,0,,6.21,30.029528,,,TRUE,,,,,,,,CAVOK,,,,,,,,VFR,,,,,,,,,,,,METAR,57.0
LFMV 241930Z AUTO VRB01KT CAVOK 19/17 Q1017 NOSIG,LFMV,2022-10-24T19:30:00Z,43.9,4.9,19.0,17.0,0,1,,6.21,30.029528,,,TRUE,,,TRUE,,,,,CAVOK,,,,,,,,VFR,,,,,,,,,,,,METAR,33.0
LFMU 241930Z AUTO 34004KT CAVOK 20/18 Q1017 NOSIG,LFMU,2022-10-24T19:30:00Z,43.32,3.35,20.0,18.0,340,4,,6.21,30.029528,,,TRUE,,,TRUE,,,,,CAVOK,,,,,,,,VFR,,,,,,,,,,,,METAR,14.0
LFMT 241930Z AUTO 01004KT CAVOK 19/18 Q1017 NOSIG,LFMT,2022-10-24T19:30:00Z,43.57,3.97,19.0,18.0,10,4,,6.21,30.029528,,,TRUE,,,TRUE,,,,,CAVOK,,,,,,,,VFR,,,,,,,,,,,,METAR,1.0
LFMP 241930Z AUTO 24001KT CAVOK 20/16 Q1017 NOSIG,LFMP,2022-10-24T19:30:00Z,42.73,2.87,20.0,16.0,240,1,,6.21,30.029528,,,TRUE,,,TRUE,,,,,CAVOK,,,,,,,,VFR,,,,,,,,,,,,METAR,41.0
LFMO 241930Z AUTO 05003KT CAVOK 18/17 Q1017 NOSIG,LFMO,2022-10-24T19:30:00Z,44.13,4.87,18.0,17.0,50,3,,6.21,30.029528,,,TRUE,,,TRUE,,,,,CAVOK,,,,,,,,VFR,,,,,,,,,,,,METAR,56.0
LFMN 241930Z 32005KT 9999 FEW007 20/18 Q1017 NOSIG,LFMN,2022-10-24T19:30:00Z,43.65,7.2,20.0,18.0,320,5,,6.21,30.029528,,,,,,TRUE,,,,,FEW,700,,,,,,,VFR,,,,,,,,,,,,METAR,4.0
LFML 241930Z AUTO 11007KT CAVOK 22/18 Q1016 TEMPO FEW008 BKN014,LFML,2022-10-24T19:30:00Z,43.45,5.22,22.0,18.0,110,7,,6.21,30.0,,,TRUE,,,,,,,,CAVOK,,,,,,,,VFR,,,,,,,,,,,,SPECI,20.0
LFMK 241930Z AUTO 25003KT 220V300 9999 BKN074 OVC190 20/11 Q1017,LFMK,2022-10-24T19:30:00Z,43.22,2.32,20.0,11.0,250,3,,6.21,30.029528,,,TRUE,,,,,,,,BKN,7400,OVC,19000,,,,,VFR,,,,,,,,,,,,METAR,124.0
LFMI 241930Z AUTO 11004KT CAVOK 22/19 Q1016 TEMPO BKN008,LFMI,2022-10-24T19:30:00Z,43.52,4.93,22.0,19.0,110,4,,6.21,30.0,,,TRUE,,,,,,,,CAVOK,,,,,,,,VFR,,,,,,,,,,,,METAR,20.0
LFMH 241930Z AUTO 17004KT CAVOK 14/09 Q1018,LFMH,2022-10-24T19:30:00Z,45.52,4.28,14.0,9.0,170,4,,6.21,30.059055,,,TRUE,,,,,,,,CAVOK,,,,,,,,VFR,,,,,,,,,,,,METAR,400.0
LFMD 241930Z AUTO VRB02KT 9000 NSC 18/17 Q1017 TEMPO BKN008,LFMD,2022-10-24T19:30:00Z,43.53,6.95,18.0,17.0,0,2,,5.59,30.029528,,,TRUE,,,,,,,,CLR,,,,,,,,VFR,,,,,,,,,,,,SPECI,2.0
LFMC 241930Z AUTO 08001KT 9999 ////// 19/17 Q1017,LFMC,2022-10-24T19:30:00Z,43.37,6.38,19.0,17.0,80,1,,6.21,30.029528,,,TRUE,,,,,,,,,,,,,,,,,,,,,,,,,,,,METAR,79.0
LFLY 241930Z AUTO 13005KT 100V160 CAVOK 16/14 Q1018 NOSIG,LFLY,2022-10-24T19:30:00Z,45.72,4.95,16.0,14.0,130,5,,6.21,30.059055,,,TRUE,,,TRUE,,,,,CAVOK,,,,,,,,VFR,,,,,,,,,,,,METAR,197.0
LFLX 241930Z AUTO 17008KT CAVOK 13/12 Q1017 NOSIG,LFLX,2022-10-24T19:30:00Z,46.87,1.73,13.0,12.0,170,8,,6.21,30.029528,,,TRUE,,,TRUE,,,,,CAVOK,,,,,,,,VFR,,,,,,,,,,,,METAR,157.0
LFLW 241930Z AUTO 09006KT CAVOK 12/10 Q1020,LFLW,2022-10-24T19:30:00Z,44.88,2.42,12.0,10.0,90,6,,6.21,30.11811,,,TRUE,,,,,,,,CAVOK,,,,,,,,VFR,,,,,,,,,,,,METAR,638.0
LFLS 241930Z AUTO 09009KT 9999 VCTS ///CB 15/14 Q1018,LFLS,2022-10-24T19:30:00Z,45.37,5.32,15.0,14.0,90,9,,6.21,30.059055,,,TRUE,,,,,,,VCTS,,,,,,,,,,,,,,,,,,,,,SPECI,386.0
LFLP 241930Z AUTO 05005KT 9999 FEW013/// BKN064/// OVC094/// ///TCU 13/12 Q1020,LFLP,2022-10-24T19:30:00Z,45.92,6.1,13.0,12.0,50,5,,6.21,30.11811,,,TRUE,,,,,,,,FEW,1300,BKN,6400,OVC,9400,,,VFR,,,,,,,,,,,,METAR,460.0
LFLN 241930Z AUTO 23003KT CAVOK 13/10 Q1018,LFLN,2022-10-24T19:30:00Z,46.42,4.02,13.0,10.0,230,3,,6.21,30.059055,,,TRUE,,,,,,,,CAVOK,,,,,,,,VFR,,,,,,,,,,,,METAR,238.0
LFLL 241930Z 15011KT CAVOK 16/14 Q1018 NOSIG,LFLL,2022-10-24T19:30:00Z,45.72,5.07,16.0,14.0,150,11,,6.21,30.059055,,,,,,TRUE,,,,,CAVOK,,,,,,,,VFR,,,,,,,,,,,,METAR,234.0
LFLC 241930Z AUTO 22005KT 9999 FEW064 13/08 Q1018 NOSIG,LFLC,2022-10-24T19:30:00Z,45.78,3.17,13.0,8.0,220,5,,6.21,30.059055,,,TRUE,,,TRUE,,,,,FEW,6400,,,,,,,VFR,,,,,,,,,,,,METAR,325.0
LFLB 241930Z AUTO 27003KT 170V310 9999 -TSRA FEW005/// BKN024/// BKN042/// ///CB 15/15 Q1019,LFLB,2022-10-24T19:30:00Z,45.63,5.87,15.0,15.0,270,3,,6.21,30.088583,,,TRUE,,,,,,,-TSRA,FEW,500,BKN,2400,BKN,4200,,,MVFR,,,,,,,,,,,,SPECI,234.0
LFKS 241930Z AUTO VRB03KT 9999 FEW010 18/15 Q1019,LFKS,2022-10-24T19:30:00Z,41.92,9.4,18.0,15.0,0,3,,6.21,30.088583,,,TRUE,,,,,,,,FEW,1000,,,,,,,VFR,,,,,,,,,,,,METAR,22.0
LFKJ 241930Z AUTO 03006KT CAVOK 18/10 Q1019 NOSIG,LFKJ,2022-10-24T19:30:00Z,41.92,8.8,18.0,10.0,30,6,,6.21,30.088583,,,TRUE,,,TRUE,,,,,CAVOK,,,,,,,,VFR,,,,,,,,,,,,METAR,9.0
LFKF 241930Z AUTO VRB02KT CAVOK 14/11 Q1020 NOSIG,LFKF,2022-10-24T19:30:00Z,41.5,9.08,14.0,11.0,0,2,,6.21,30.11811,,,TRUE,,,TRUE,,,,,CAVOK,,,,,,,,VFR,,,,,,,,,,,,METAR,15.0
LFKC 241930Z AUTO 22007KT CAVOK 26/03 Q1017 NOSIG,LFKC,2022-10-24T19:30:00Z,42.52,8.8,26.0,3.0,220,7,,6.21,30.029528,,,TRUE,,,TRUE,,,,,CAVOK,,,,,,,,VFR,,,,,,,,,,,,METAR,38.0
LFKB 241930Z AUTO 20003KT 3600 BR SCT013 18/17 Q1019 BECMG 9999 NSW,LFKB,2022-10-24T19:30:00Z,42.55,9.48,18.0,17.0,200,3,,2.24,30.088583,,,TRUE,,,,,,,BR,SCT,1300,,,,,,,IFR,,,,,,,,,,,,SPECI,7.0
LFJR 241930Z AUTO 20008KT 9999 FEW019 SCT044 BKN050 15/13 Q1015,LFJR,2022-10-24T19:30:00Z,47.57,-0.32,15.0,13.0,200,8,,6.21,29.970472,,,TRUE,,,,,,,,FEW,1900,SCT,4400,BKN,5000,,,VFR,,,,,,,,,,,,METAR,50.0
LFJL 241930Z AUTO 20008KT CAVOK 13/09 Q1015 TEMPO 4000 SHRA SCT030CB,LFJL,2022-10-24T19:30:00Z,48.97,6.25,13.0,9.0,200,8,,6.21,29.970472,,,TRUE,,,,,,,,CAVOK,,,,,,,,VFR,,,,,,,,,,,,SPECI,259.0
LFGJ 241930Z AUTO 22002KT 9999 ///CB 15/13 Q1017,LFGJ,2022-10-24T19:30:00Z,47.05,5.43,15.0,13.0,220,2,,6.21,30.029528,,,TRUE,,,,,,,,,,,,,,,,,,,,,,,,,,,,SPECI,191.0
LFGA 241930Z AUTO 20005KT CAVOK 13/10 Q1017,LFGA,2022-10-24T19:30:00Z,48.1,7.35,13.0,10.0,200,5,,6.21,30.029528,,,TRUE,,,,,,,,CAVOK,,,,,,,,VFR,,,,,,,,,,,,METAR,191.0
LFCR 241930Z AUTO 16002KT CAVOK 12/09 Q1020 NOSIG,LFCR,2022-10-24T19:30:00Z,44.4,2.47,12.0,9.0,160,2,,6.21,30.11811,,,TRUE,,,TRUE,,,,,CAVOK,,,,,,,,VFR,,,,,,,,,,,,METAR,576.0
LFCK 241930Z AUTO VRB03KT CAVOK 16/11 Q1019 NOSIG,LFCK,2022-10-24T19:30:00Z,43.55,2.28,16.0,11.0,0,3,,6.21,30.088583,,,TRUE,,,TRUE,,,,,CAVOK,,,,,,,,VFR,,,,,,,,,,,,METAR,223.0
LFBZ 241930Z AUTO VRB02KT CAVOK 18/09 Q1017 NOSIG,LFBZ,2022-10-24T19:30:00Z,43.47,-1.53,18.0,9.0,0,2,,6.21,30.029528,,,TRUE,,,TRUE,,,,,CAVOK,,,,,,,,VFR,,,,,,,,,,,,METAR,70.0
LFBY 241930Z AUTO VRB01KT 9999 // ////// 16/12 Q1017,LFBY,2022-10-24T19:30:00Z,43.68,-1.07,16.0,12.0,0,1,,6.21,30.029528,,,TRUE,,,,,,,,,,,,,,,,,,,,,,,,,,,,METAR,32.0
LFBX 241930Z AUTO 00000KT CAVOK 12/10 Q1018,LFBX,2022-10-24T19:30:00Z,45.2,0.82,12.0,10.0,0,0,,6.21,30.059055,,,TRUE,,,,,,,,CAVOK,,,,,,,,VFR,,,,,,,,,,,,METAR,97.0
LFBU 241930Z AUTO VRB02KT CAVOK 14/11 Q1018 NOSIG,LFBU,2022-10-24T19:30:00Z,45.72,0.22,14.0,11.0,0,2,,6.21,30.059055,,,TRUE,,,TRUE,,,,,CAVOK,,,,,,,,VFR,,,,,,,,,,,,METAR,124.0
LFBT 241930Z AUTO 18003KT CAVOK 13/09 Q1019 NOSIG,LFBT,2022-10-24T19:30:00Z,43.18,0.0,13.0,9.0,180,3,,6.21,30.088583,,,TRUE,,,TRUE,,,,,CAVOK,,,,,,,,VFR,,,,,,,,,,,,METAR,359.0
LFBP 241930Z AUTO 11005KT CAVOK 15/10 Q1018 NOSIG,LFBP,2022-10-24T19:30:00Z,43.38,-0.42,15.0,10.0,110,5,,6.21,30.059055,,,TRUE,,,TRUE,,,,,CAVOK,,,,,,,,VFR,,,,,,,,,,,,METAR,182.0
LFBO 241930Z AUTO 33002KT CAVOK 19/10 Q1018 NOSIG,LFBO,2022-10-24T19:30:00Z,43.62,1.37,19.0,10.0,330,2,,6.21,30.059055,,,TRUE,,,TRUE,,,,,CAVOK,,,,,,,,VFR,,,,,,,,,,,,METAR,150.0
LFBM 241930Z AUTO 04002KT 9999 // NSC 14/10 Q1018,LFBM,2022-10-24T19:30:00Z,43.92,-0.5,14.0,10.0,40,2,,6.21,30.059055,,,TRUE,,,,,,,,CLR,,,,,,,,VFR,,,,,,,,,,,,SPECI,56.0
LFBL 241930Z AUTO 21003KT CAVOK 13/11 Q1018 NOSIG,LFBL,2022-10-24T19:30:00Z,45.87,1.17,13.0,11.0,210,3,,6.21,30.059055,,,TRUE,,,TRUE,,,,,CAVOK,,,,,,,,VFR,,,,,,,,,,,,METAR,402.0
LFBI 241930Z AUTO 22007KT CAVOK 13/11 Q1017 NOSIG,LFBI,2022-10-24T19:30:00Z,46.58,0.32,13.0,11.0,220,7,,6.21,30.029528,,,TRUE,,,TRUE,,,,,CAVOK,,,,,,,,VFR,,,,,,,,,,,,METAR,117.0
LFBH 241930Z AUTO 23010KT 9999 BKN019 BKN070 17/14 Q1016 NOSIG,LFBH,2022-10-24T19:30:00Z,46.18,-1.2,17.0,14.0,230,10,,6.21,30.0,,,TRUE,,,TRUE,,,,,BKN,1900,BKN,7000,,,,,MVFR,,,,,,,,,,,,METAR,18.0
LFBG 241930Z AUTO 00000KT CAVOK 14/12 Q1017,LFBG,2022-10-24T19:30:00Z,45.67,-0.32,14.0,12.0,0,0,,6.21,30.029528,,,TRUE,,,,,,,,CAVOK,,,,,,,,VFR,,,,,,,,,,,,METAR,28.0
LFBE 241930Z AUTO 08003KT CAVOK 12/10 Q1018 NOSIG,LFBE,2022-10-24T19:30:00Z,44.82,0.52,12.0,10.0,80,3,,6.21,30.059055,,,TRUE,,,TRUE,,,,,CAVOK,,,,,,,,VFR,,,,,,,,,,,,METAR,49.0
LFBD 241930Z AUTO 00000KT CAVOK 14/12 Q1018 NOSIG,LFBD,2022-10-24T19:30:00Z,44.82,-0.7,14.0,12.0,0,0,,6.21,30.059055,,,TRUE,,,TRUE,,,,,CAVOK,,,,,,,,VFR,,,,,,,,,,,,METAR,48.0
LFBC 241930Z AUTO 35002KT CAVOK 14/12 Q1017,LFBC,2022-10-24T19:30:00Z,44.52,-1.12,14.0,12.0,350,2,,6.21,30.029528,,,TRUE,,,,,,,,CAVOK,,,,,,,,VFR,,,,,,,,,,,,METAR,22.0
LFBA 241930Z AUTO 12001KT CAVOK 14/09 Q1018 NOSIG,LFBA,2022-10-24T19:30:00Z,44.17,0.6,14.0,9.0,120,1,,6.21,30.059055,,,TRUE,,,TRUE,,,,,CAVOK,,,,,,,,VFR,,,,,,,,,,,,METAR,68.0
LFAT 241930Z AUTO 26011KT 230V290 9999 BKN020/// ///TCU 16/13 Q1010,LFAT,2022-10-24T19:30:00Z,50.52,1.62,16.0,13.0,260,11,,6.21,29.822834,,,TRUE,,,,,,,,BKN,2000,,,,,,,MVFR,,,,,,,,,,,,SPECI,2.0
LFAQ 241930Z AUTO 22012KT 9999 FEW037 BKN043 BKN050 14/12 Q1011,LFAQ,2022-10-24T19:30:00Z,49.97,2.7,14.0,12.0,220,12,,6.21,29.852362,,,TRUE,,,,,,,,FEW,3700,BKN,4300,BKN,5000,,,VFR,,,,,,,,,,,,METAR,107.0
LFAC 241930Z AUTO 24010KT 9999 -RA SCT016/// SCT024/// BKN036/// ///CB 14/13 Q1009,LFAC,2022-10-24T19:30:00Z,50.97,1.95,14.0,13.0,240,10,,6.21,29.793306,,,TRUE,,,,,,,-RA,SCT,1600,SCT,2400,BKN,3600,,,VFR,,,,,,,,,,,,METAR,3.0
LEZL 241930Z 04001KT CAVOK 21/17 Q1016 NOSIG,LEZL,2022-10-24T19:30:00Z,37.42,-5.9,21.0,17.0,40,1,,6.21,30.0,,,,,,TRUE,,,,,CAVOK,,,,,,,,VFR,,,,,,,,,,,,METAR,26.0
LEZG 241930Z 14003KT CAVOK 20/11 Q1019,LEZG,2022-10-24T19:30:00Z,41.67,-1.02,20.0,11.0,140,3,,6.21,30.088583,,,,,,,,,,,CAVOK,,,,,,,,VFR,,,,,,,,,,,,METAR,245.0
LEXJ 241930Z 24003KT 200V280 CAVOK 17/15 Q1016,LEXJ,2022-10-24T19:30:00Z,43.42,-3.82,17.0,15.0,240,3,,6.21,30.0,,,,,,,,,,,CAVOK,,,,,,,,VFR,,,,,,,,,,,,METAR,1.0
LEVX 241930Z 21005KT 180V240 9999 -RA BKN016 16/15 Q1015 TEMPO 3000 RA BR,LEVX,2022-10-24T19:30:00Z,42.23,-8.62,16.0,15.0,210,5,,6.21,29.970472,,,,,,,,,,-RA,BKN,1600,,,,,,,MVFR,,,,,,,,,,,,SPECI,253.0
LEVT 241930Z VRB02KT 9999 FEW070 13/07 Q1019,LEVT,2022-10-24T19:30:00Z,42.87,-2.72,13.0,7.0,0,2,,6.21,30.088583,,,,,,,,,,,FEW,7000,,,,,,,VFR,,,,,,,,,,,,METAR,501.0
LEVS 241930Z 01003KT 320V050 CAVOK 15/11 Q1020,LEVS,2022-10-24T19:30:00Z,40.37,-3.78,15.0,11.0,10,3,,6.21,30.11811,,,,,,,,,,,CAVOK,,,,,,,,VFR,,,,,,,,,,,,METAR,683.0
LEVD 241930Z 18004KT CAVOK 13/09 Q1020,LEVD,2022-10-24T19:30:00Z,41.72,-4.85,13.0,9.0,180,4,,6.21,30.11811,,,,,,,,,,,CAVOK,,,,,,,,VFR,,,,,,,,,,,,METAR,844.0
LEVC 241930Z VRB01KT CAVOK 21/15 Q1018 NOSIG,LEVC,2022-10-24T19:30:00Z,39.5,-0.47,21.0,15.0,0,1,,6.21,30.059055,,,,,,TRUE,,,,,CAVOK,,,,,,,,VFR,,,,,,,,,,,,METAR,58.0
LETU 241930Z AUTO 12004KT 9999 NSC 18/08 Q1019,LETU,2022-10-24T19:30:00Z,,,18.0,8.0,120,4,,6.21,30.088583,,,TRUE,,,,,,,,CLR,,,,,,,,VFR,,,,,,,,,,,,METAR,
LETL 241930Z AUTO 20002KT CAVOK 16/09 Q1022,LETL,2022-10-24T19:30:00Z,40.42,-1.22,16.0,9.0,200,2,,6.21,30.177166,,,TRUE,,,,,,,,CAVOK,,,,,,,,VFR,,,,,,,,,,,,METAR,1024.0
LEST 241930Z 19010KT 9999 SCT018 SCT025 15/13 Q1015 NOSIG,LEST,2022-10-24T19:30:00Z,42.88,-8.42,15.0,13.0,190,10,,6.21,29.970472,,,,,,TRUE,,,,,SCT,1800,SCT,2500,,,,,VFR,,,,,,,,,,,,METAR,363.0
LESO 241930Z VRB03KT CAVOK 17/12 Q1017,LESO,2022-10-24T19:30:00Z,43.35,-1.8,17.0,12.0,0,3,,6.21,30.029528,,,,,,,,,,,CAVOK,,,,,,,,VFR,,,,,,,,,,,,METAR,3.0
LESB 241930Z AUTO 33004KT CAVOK 21/18 Q1019,LESB,2022-10-24T19:30:00Z,39.6,2.7,21.0,18.0,330,4,,6.21,30.088583,,,TRUE,,,,,,,,CAVOK,,,,,,,,VFR,,,,,,,,,,,,METAR,48.0
LESA 241930Z 16002KT CAVOK 13/09 Q1020,LESA,2022-10-24T19:30:00Z,40.95,-5.5,13.0,9.0,160,2,,6.21,30.11811,,,,,,,,,,,CAVOK,,,,,,,,VFR,,,,,,,,,,,,METAR,788.0
LERT 241930Z VRB02KT CAVOK 19/17 Q1016 NOSIG,LERT,2022-10-24T19:30:00Z,36.63,-6.33,19.0,17.0,0,2,,6.21,30.0,,,,,,TRUE,,,,,CAVOK,,,,,,,,VFR,,,,,,,,,,,,METAR,27.0
LERS 241930Z 01001KT 9000 FEW015 19/19 Q1018,LERS,2022-10-24T19:30:00Z,41.13,1.17,19.0,19.0,10,1,,5.59,30.059055,,,,,,,,,,,FEW,1500,,,,,,,VFR,,,,,,,,,,,,METAR,68.0
LEPP 241930Z 15005KT 100V190 CAVOK 17/07 Q1019,LEPP,2022-10-24T19:30:00Z,42.77,-1.65,17.0,7.0,150,5,,6.21,30.088583,,,,,,,,,,,CAVOK,,,,,,,,VFR,,,,,,,,,,,,METAR,448.0
LEPA 241930Z VRB02KT 7000 FEW025 21/19 Q1019 NOSIG,LEPA,2022-10-24T19:30:00Z,39.55,2.73,21.0,19.0,0,2,,4.35,30.088583,,,,,,TRUE,,,,,FEW,2500,,,,,,,MVFR,,,,,,,,,,,,METAR,8.0
LEMO 241930Z 01004KT CAVOK 19/15 Q1016 NOSIG,LEMO,2022-10-24T19:30:00Z,37.17,-5.62,19.0,15.0,10,4,,6.21,30.0,,,,,,TRUE,,,,,CAVOK,,,,,,,,VFR,,,,,,,,,,,,METAR,82.0
LEMI 241930Z 26004KT CAVOK 21/09 Q1018,LEMI,2022-10-24T19:30:00Z,37.8,-1.12,21.0,9.0,260,4,,6.21,30.059055,,,,,,,,,,,CAVOK,,,,,,,,VFR,,,,,,,,,,,,METAR,193.0
LEMH 241930Z 23008KT 200V260 9999 FEW014 BKN020 22/21 Q1019,LEMH,2022-10-24T19:30:00Z,39.87,4.22,22.0,21.0,230,8,,6.21,30.088583,,,,,,,,,,,FEW,1400,BKN,2000,,,,,MVFR,,,,,,,,,,,,METAR,82.0
LEMG 241930Z 00000KT CAVOK 20/15 Q1018 NOSIG,LEMG,2022-10-24T19:30:00Z,36.67,-4.47,20.0,15.0,0,0,,6.21,30.059055,,,,,,TRUE,,,,,CAVOK,,,,,,,,VFR,,,,,,,,,,,,METAR,5.0
LEMD 241930Z 36002KT CAVOK 16/12 Q1020 NOSIG,LEMD,2022-10-24T19:30:00Z,40.45,-3.57,16.0,12.0,360,2,,6.21,30.11811,,,,,,TRUE,,,,,CAVOK,,,,,,,,VFR,,,,,,,,,,,,METAR,589.0
LELO 241930Z AUTO 00000KT CAVOK 15/09 Q1019,LELO,2022-10-24T19:30:00Z,42.45,-2.32,15.0,9.0,0,0,,6.21,30.088583,,,TRUE,,,,,,,,CAVOK,,,,,,,,VFR,,,,,,,,,,,,METAR,352.0
LELN 241930Z AUTO 18005KT 150V210 9999 SCT024 BKN032 BKN050 13/10 Q1019,LELN,2022-10-24T19:30:00Z,42.58,-5.65,13.0,10.0,180,5,,6.21,30.088583,,,TRUE,,,,,,,,SCT,2400,BKN,3200,BKN,5000,,,VFR,,,,,,,,,,,,METAR,911.0
LELC 241930Z 21003KT CAVOK 21/19 Q1018 NOSIG,LELC,2022-10-24T19:30:00Z,37.77,-0.8,21.0,19.0,210,3,,6.21,30.059055,,,,,,TRUE,,,,,CAVOK,,,,,,,,VFR,,,,,,,,,,,,METAR,3.0
LEJR 241930Z 30003KT CAVOK 20/15 Q1016,LEJR,2022-10-24T19:30:00Z,36.75,-6.07,20.0,15.0,300,3,,6.21,30.0,,,,,,,,,,,CAVOK,,,,,,,,VFR,,,,,,,,,,,,METAR,25.0
LEIB 241930Z VRB01KT CAVOK 21/19 Q1018 NOSIG,LEIB,2022-10-24T19:30:00Z,38.87,1.38,21.0,19.0,0,1,,6.21,30.059055,,,,,,TRUE,,,,,CAVOK,,,,,,,,VFR,,,,,,,,,,,,METAR,4.0
LEHC 241930Z AUTO 00000KT CAVOK 15/10 Q1020,LEHC,2022-10-24T19:30:00Z,42.08,-0.32,15.0,10.0,0,0,,6.21,30.11811,,,TRUE,,,,,,,,CAVOK,,,,,,,,VFR,,,,,,,,,,,,METAR,540.0
LEGR 241930Z 26004KT 230V290 CAVOK 22/00 Q1019,LEGR,2022-10-24T19:30:00Z,37.18,-3.78,22.0,0.0,260,4,,6.21,30.088583,,,,,,,,,,,CAVOK,,,,,,,,VFR,,,,,,,,,,,,METAR,560.0
LEGE 241930Z 24004KT 210V290 CAVOK 20/11 Q1017,LEGE,2022-10-24T19:30:00Z,41.9,2.77,20.0,11.0,240,4,,6.21,30.029528,,,,,,,,,,,CAVOK,,,,,,,,VFR,,,,,,,,,,,,METAR,140.0
LEDA 241930Z AUTO 21003KT CAVOK 17/14 Q1019,LEDA,2022-10-24T19:30:00Z,41.73,0.53,17.0,14.0,210,3,,6.21,30.088583,,,TRUE,,,,,,,,CAVOK,,,,,,,,VFR,,,,,,,,,,,,METAR,352.0
LECO 241930Z 15006KT 080V210 9999 FEW030 18/14 Q1014 NOSIG,LECO,2022-10-24T19:30:00Z,43.3,-8.37,18.0,14.0,150,6,,6.21,29.940945,,,,,,TRUE,,,,,FEW,3000,,,,,,,VFR,,,,,,,,,,,,METAR,80.0
LECH 241930Z AUTO 09004KT 9000 NSC 19/16 Q1019,LECH,2022-10-24T19:30:00Z,40.2,0.07,19.0,16.0,90,4,,5.59,30.088583,,,TRUE,,,,,,,,CLR,,,,,,,,VFR,,,,,,,,,,,,METAR,360.0
LEBT 241930Z AUTO 36005KT CAVOK 19/13 Q1018,LEBT,2022-10-24T19:30:00Z,39.58,-0.45,19.0,13.0,360,5,,6.21,30.059055,,,TRUE,,,,,,,,CAVOK,,,,,,,,VFR,,,,,,,,,,,,METAR,50.0
LEBR 241930Z AUTO 10009KT 9999 NSC 19/08 Q1019,LEBR,2022-10-24T19:30:00Z,42.2,-1.43,19.0,8.0,100,9,,6.21,30.088583,,,TRUE,,,,,,,,CLR,,,,,,,,VFR,,,,,,,,,,,,METAR,347.0
LEBL 241930Z 25005KT CAVOK 21/19 Q1018 NOSIG,LEBL,2022-10-24T19:30:00Z,41.28,2.07,21.0,19.0,250,5,,6.21,30.059055,,,,,,TRUE,,,,,CAVOK,,,,,,,,VFR,,,,,,,,,,,,METAR,2.0
LEBG 241930Z AUTO 19005KT CAVOK 12/07 Q1020,LEBG,2022-10-24T19:30:00Z,42.37,-3.62,12.0,7.0,190,5,,6.21,30.11811,,,TRUE,,,,,,,,CAVOK,,,,,,,,VFR,,,,,,,,,,,,METAR,892.0
LEBB 241930Z 08003KT 040V110 CAVOK 18/11 Q1017 NOSIG,LEBB,2022-10-24T19:30:00Z,43.28,-2.92,18.0,11.0,80,3,,6.21,30.029528,,,,,,TRUE,,,,,CAVOK,,,,,,,,VFR,,,,,,,,,,,,METAR,38.0
LEBA 241930Z AUTO 00000KT CAVOK 19/16 Q1017,LEBA,2022-10-24T19:30:00Z,37.85,-4.83,19.0,16.0,0,0,,6.21,30.029528,,,TRUE,,,,,,,,CAVOK,,,,,,,,VFR,,,,,,,,,,,,METAR,88.0
LEAS 241930Z VRB02KT 9999 FEW080 16/14 Q1015 NOSIG,LEAS,2022-10-24T19:30:00Z,43.57,-6.03,16.0,14.0,0,2,,6.21,29.970472,,,,,,TRUE,,,,,FEW,8000,,,,,,,VFR,,,,,,,,,,,,METAR,120.0
LEAO 241930Z 11003KT CAVOK 17/12 Q1019,LEAO,2022-10-24T19:30:00Z,38.95,-3.73,17.0,12.0,110,3,,6.21,30.088583,,,,,,,,,,,CAVOK,,,,,,,,VFR,,,,,,,,,,,,METAR,621.0
LEAM 241930Z 35003KT 300V050 CAVOK 23/09 Q1017,LEAM,2022-10-24T19:30:00Z,36.85,-2.37,23.0,9.0,350,3,,6.21,30.029528,,,,,,,,,,,CAVOK,,,,,,,,VFR,,,,,,,,,,,,METAR,16.0
LEAL 241930Z 04003KT 010V090 CAVOK 22/20 Q1018 NOSIG,LEAL,2022-10-24T19:30:00Z,38.27,-0.55,22.0,20.0,40,3,,6.21,30.059055,,,,,,TRUE,,,,,CAVOK,,,,,,,,VFR,,,,,,,,,,,,METAR,26.0
LEAG 241930Z AUTO 00000KT CAVOK 22/17 Q1018,LEAG,2022-10-24T19:30:00Z,36.12,-5.45,22.0,17.0,0,0,,6.21,30.059055,,,TRUE,,,,,,,,CAVOK,,,,,,,,VFR,,,,,,,,,,,,METAR,4.0
LEAB 241930Z 16005KT CAVOK 16/09 Q1021 NOSIG,LEAB,2022-10-24T19:30:00Z,38.95,-1.85,16.0,9.0,160,5,,6.21,30.147638,,,,,,TRUE,,,,,CAVOK,,,,,,,,VFR,,,,,,,,,,,,METAR,704.0
LDZD 241930Z 13003KT CAVOK 13/12 Q1020 NOSIG,LDZD,2022-10-24T19:30:00Z,44.1,15.33,13.0,12.0,130,3,,6.21,30.11811,,,,,,TRUE,,,,,CAVOK,,,,,,,,VFR,,,,,,,,,,,,METAR,82.0
LDZA 241930Z 24005KT CAVOK 16/12 Q1017 NOSIG,LDZA,2022-10-24T19:30:00Z,45.72,16.07,16.0,12.0,240,5,,6.21,30.029528,,,,,,TRUE,,,,,CAVOK,,,,,,,,VFR,,,,,,,,,,,,METAR,103.0
LDSP 241930Z 24001KT CAVOK 18/13 Q1020 NOSIG,LDSP,2022-10-24T19:30:00Z,43.53,16.3,18.0,13.0,240,1,,6.21,30.11811,,,,,,TRUE,,,,,CAVOK,,,,,,,,VFR,,,,,,,,,,,,METAR,16.0
LDRI 241930Z 16005KT 120V190 9999 FEW025 BKN035 19/16 Q1019,LDRI,2022-10-24T19:30:00Z,45.22,14.57,19.0,16.0,160,5,,6.21,30.088583,,,,,,,,,,,FEW,2500,BKN,3500,,,,,VFR,,,,,,,,,,,,METAR,80.0
LDPL 241930Z 11004KT 090V160 9999 BKN010 19/17 Q1019 NOSIG,LDPL,2022-10-24T19:30:00Z,44.88,13.92,19.0,17.0,110,4,,6.21,30.088583,,,,,,TRUE,,,,,BKN,1000,,,,,,,MVFR,,,,,,,,,,,,METAR,63.0
LDOS 241930Z 09002KT CAVOK 14/13 Q1017,LDOS,2022-10-24T19:30:00Z,45.47,18.82,14.0,13.0,90,2,,6.21,30.029528,,,,,,,,,,,CAVOK,,,,,,,,VFR,,,,,,,,,,,,METAR,82.0
LDDU 241930Z 09005KT 070V130 CAVOK 18/11 Q1021 NOSIG,LDDU,2022-10-24T19:30:00Z,42.57,18.27,18.0,11.0,90,5,,6.21,30.147638,,,,,,TRUE,,,,,CAVOK,,,,,,,,VFR,,,,,,,,,,,,METAR,156.0
LCPH 241930Z 01005KT CAVOK 20/14 Q1017,LCPH,2022-10-24T19:30:00Z,34.72,32.47,20.0,14.0,10,5,,6.21,30.029528,,,,,,,,,,,CAVOK,,,,,,,,VFR,,,,,,,,,,,,METAR,8.0
LCLK 241930Z 30006KT 260V320 CAVOK 20/14 Q1016 NOSIG,LCLK,2022-10-24T19:30:00Z,34.87,33.62,20.0,14.0,300,6,,6.21,30.0,,,,,,TRUE,,,,,CAVOK,,,,,,,,VFR,,,,,,,,,,,,METAR,2.0
LBWN 241930Z AUTO 36003KT 9999 NCD 12/08 Q1020 NOSIG,LBWN,2022-10-24T19:30:00Z,43.22,27.82,12.0,8.0,360,3,,6.21,30.11811,,,TRUE,,,TRUE,,,,,CLR,,,,,,,,VFR,,,,,,,,,,,,METAR,74.0
LBSF 241930Z AUTO 13003KT 070V170 9999 NCD 12/08 Q1022 NOSIG,LBSF,2022-10-24T19:30:00Z,42.65,23.37,12.0,8.0,130,3,,6.21,30.177166,,,TRUE,,,TRUE,,,,,CLR,,,,,,,,VFR,,,,,,,,,,,,METAR,592.0
LBPD 241930Z AUTO 26004KT 9999 NCD 14/06 Q1020,LBPD,2022-10-24T19:30:00Z,42.05,24.85,14.0,6.0,260,4,,6.21,30.11811,,,TRUE,,,,,,,,CLR,,,,,,,,VFR,,,,,,,,,,,,METAR,182.0
LBGO 241930Z AUTO 09006KT 9999 NCD 09/09 Q1020,LBGO,2022-10-24T19:30:00Z,43.15,25.72,9.0,9.0,90,6,,6.21,30.11811,,,TRUE,,,,,,,,CLR,,,,,,,,VFR,,,,,,,,,,,,METAR,84.0
LBBG 241930Z AUTO 05008KT 9999 NCD 15/12 Q1020 NOSIG,LBBG,2022-10-24T19:30:00Z,42.57,27.52,15.0,12.0,50,8,,6.21,30.11811,,,TRUE,,,TRUE,,,,,CLR,,,,,,,,VFR,,,,,,,,,,,,METAR,41.0
KWRI 241930Z 02007KT 1 1/2SM BR OVC002 16/16 A3010 RMK AO2A TWR VIS 1 SLP192 $,KWRI,2022-10-24T19:30:00Z,40.02,-74.58,16.0,16.0,20,7,,1.5,30.100393,1019.2,,,TRUE,TRUE,,,,,BR,OVC,200,,,,,,,LIFR,,,,,,,,,,,,METAR,35.0
KSNH 241930Z AUTO 17013KT 140V200 10SM CLR 26/10 A2996 RMK A01,KSNH,2022-10-24T19:30:00Z,35.17,-88.22,26.0,10.0,170,13,,10.0,29.958662,,,TRUE,TRUE,,,,,,,CLR,,,,,,,,VFR,,,,,,,,,,,,METAR,142.0
KS71 241930Z AUTO 00000KT 10SM 04/03 A2976 ,KS71,2022-10-24T19:30:00Z,48.6,-109.25,4.0,3.0,0,0,,10.0,29.760826,,,TRUE,,,,,,,,,,,,,,,,,,,,,,,,,,,,METAR,736.0
KS59 241930Z AUTO 17003KT 10SM 06/01 A2983 ,KS59,2022-10-24T19:30:00Z,48.28,-115.48,6.0,1.0,170,3,,10.0,29.828741,,,TRUE,,,,,,,,,,,,,,,,,,,,,,,,,,,,METAR,793.0
KRKW 241930Z AUTO 13007KT 080V160 10SM CLR 22/06 A3010 RMK A01,KRKW,2022-10-24T19:30:00Z,35.92,-84.68,22.0,6.0,130,7,,10.0,30.100393,,,TRUE,TRUE,,,,,,,CLR,,,,,,,,VFR,,,,,,,,,,,,METAR,505.0
KQFX 241930Z AUTO 09001KT 9999 FEW001 18/16 / RMK A02 TSNO,KQFX,2022-10-24T19:30:00Z,,,18.0,16.0,90,1,,6.21,,,,TRUE,TRUE,,,TRUE,,,,FEW,100,,,,,,,VFR,,,,,,,,,,,,METAR,
KQFW 241930Z AUTO 03001KT 6000 CLR 00/M00 A3019 RMK A02 TSNO,KQFW,2022-10-24T19:30:00Z,,,0.0,0.0,30,1,,3.73,30.188976,,,TRUE,TRUE,,,TRUE,,,,CLR,,,,,,,,MVFR,,,,,,,,,,,,METAR,
KQFV 241930Z AUTO 25001KT 9999 CLR M01/M01 A3038 RMK A02 TSNO,KQFV,2022-10-24T19:30:00Z,,,-1.0,-1.0,250,1,,6.21,30.380905,,,TRUE,TRUE,,,TRUE,,,,CLR,,,,,,,,VFR,,,,,,,,,,,,METAR,
KQFU 241930Z AUTO 00000KT 9999 CLR 02/M00 A3039 RMK A02 TSNO,KQFU,2022-10-24T19:30:00Z,,,2.0,0.0,0,0,,6.21,30.389763,,,TRUE,TRUE,,,TRUE,,,,CLR,,,,,,,,VFR,,,,,,,,,,,,METAR,
KQFT 241930Z AUTO 03001KT 9999 CLR 04/03 A3034 RMK A02 TSNO,KQFT,2022-10-24T19:30:00Z,,,4.0,3.0,30,1,,6.21,30.339567,,,TRUE,TRUE,,,TRUE,,,,CLR,,,,,,,,VFR,,,,,,,,,,,,METAR,
KQFB 241930Z AUTO 19001KT 9999 CLR 05/03 A3034 RMK A02 TSNO,KQFB,2022-10-24T19:30:00Z,,,5.0,3.0,190,1,,6.21,30.339567,,,TRUE,TRUE,,,TRUE,,,,CLR,,,,,,,,VFR,,,,,,,,,,,,METAR,
KQEY 241930Z AUTO 12001KT 9999 CLR 01/M01 A3002 RMK A02 TSNO,KQEY,2022-10-24T19:30:00Z,,,1.0,-1.0,120,1,,6.21,30.02067,,,TRUE,TRUE,,,TRUE,,,,CLR,,,,,,,,VFR,,,,,,,,,,,,METAR,
KQEX 241930Z AUTO 04004KT 9999 CLR 05/03 A3023 RMK A02 TSNO,KQEX,2022-10-24T19:30:00Z,,,5.0,3.0,40,4,,6.21,30.230314,,,TRUE,TRUE,,,TRUE,,,,CLR,,,,,,,,VFR,,,,,,,,,,,,METAR,
KQEW 241930Z AUTO 36001KT 9999 // CLR 03/01 A3030 RMK A02 TSNO,KQEW,2022-10-24T19:30:00Z,,,3.0,1.0,360,1,,6.21,30.301182,,,TRUE,TRUE,,,TRUE,,,,CLR,,,,,,,,VFR,,,,,,,,,,,,METAR,
KQEV 241930Z AUTO 26001KT 9999 CLR 01/01 A3030 RMK A02 TSNO,KQEV,2022-10-24T19:30:00Z,,,1.0,1.0,260,1,,6.21,30.301182,,,TRUE,TRUE,,,TRUE,,,,CLR,,,,,,,,VFR,,,,,,,,,,,,METAR,
KQER 241930Z AUTO 30001KT 9999 CLR 01/M00 A3032 RMK A02 TSNO,KQER,2022-10-24T19:30:00Z,,,1.0,0.0,300,1,,6.21,30.318897,,,TRUE,TRUE,,,TRUE,,,,CLR,,,,,,,,VFR,,,,,,,,,,,,METAR,
KQEQ 241930Z AUTO 06003KT 9999 CLR 03/01 A3039 RMK A02 TSNO,KQEQ,2022-10-24T19:30:00Z,,,3.0,1.0,60,3,,6.21,30.389763,,,TRUE,TRUE,,,TRUE,,,,CLR,,,,,,,,VFR,,,,,,,,,,,,METAR,
KQEP 241930Z AUTO 00000KT 9999 CLR 03/01 A3036 RMK A02 TSNO,KQEP,2022-10-24T19:30:00Z,,,3.0,1.0,0,0,,6.21,30.360237,,,TRUE,TRUE,,,TRUE,,,,CLR,,,,,,,,VFR,,,,,,,,,,,,METAR,
KQEN 241930Z AUTO 10002KT 9999 // BKN029 OVC048 / / RMK A02 TSNO,KQEN,2022-10-24T19:30:00Z,,,,,100,2,,6.21,,,,TRUE,TRUE,,,TRUE,,,,BKN,2900,OVC,4800,,,,,MVFR,,,,,,,,,,,,METAR,
KQEJ 241930Z AUTO 19001KT 9999 // FEW002 21/21 / RMK A02 TSNO,KQEJ,2022-10-24T19:30:00Z,,,21.0,21.0,190,1,,6.21,,,,TRUE,TRUE,,,TRUE,,,,FEW,200,,,,,,,VFR,,,,,,,,,,,,METAR,
KQEI 241930Z AUTO 15001KT 9999 BKN005 02/01 A3035 RMK A02 TSNO,KQEI,2022-10-24T19:30:00Z,,,2.0,1.0,150,1,,6.21,30.351377,,,TRUE,TRUE,,,TRUE,,,,BKN,500,,,,,,,IFR,,,,,,,,,,,,METAR,
KPVD 241930Z 36006KT 10SM BKN004 OVC009 14/14 A3020 RMK AO2 TSB1854E11 RAE25 TS MOV N P0002 T01440139,KPVD,2022-10-24T19:30:00Z,41.72,-71.43,14.4,13.9,360,6,,10.0,30.200787,,,,TRUE,,,,,,,BKN,400,OVC,900,,,,,LIFR,,,,,,0.02,,,,,,SPECI,15.0
KPIL 241930Z AUTO 16021G28KT 10SM -RA SCT027 BKN032 BKN042 30/23 A2975 RMK AO2 PK WND 17028/1928 P0000 T03000233,KPIL,2022-10-24T19:30:00Z,26.17,-97.33,30.0,23.3,160,21,28,10.0,29.749016,,,TRUE,TRUE,,,,,,-RA,SCT,2700,BKN,3200,BKN,4200,,,VFR,,,,,,0.005,,,,,,SPECI,5.0
KORH 241930Z 06007KT 1/4SM R11/1200V1800FT -RA FG VV002 13/13 A3020 RMK AO2 P0001 T01280128,KORH,2022-10-24T19:30:00Z,42.27,-71.87,12.8,12.8,60,7,,0.25,30.200787,,,,TRUE,,,,,,-RA FG,OVX,0,,,,,,,LIFR,,,,,,0.01,,,,,200,SPECI,306.0
KORE 241930Z AUTO 34004KT 10SM -RA FEW006 OVC014 14/13 A3021 RMK AO2 RAE11B28 P0000 T01390128,KORE,2022-10-24T19:30:00Z,42.57,-72.28,13.9,12.8,340,4,,10.0,30.209646,,,TRUE,TRUE,,,,,,-RA,FEW,600,OVC,1400,,,,,MVFR,,,,,,0.005,,,,,,SPECI,165.0
KMRC 241930Z AUTO 16009G16KT 130V200 9SM CLR 26/03 A2999 RMK A01,KMRC,2022-10-24T19:30:00Z,35.55,-87.18,26.0,3.0,160,9,16,9.0,29.991142,,,TRUE,TRUE,,,,,,,CLR,,,,,,,,VFR,,,,,,,,,,,,METAR,205.0
KMIW 241930Z AUTO 31009KT 1 3/4SM +RA BR OVC024 11/09 A2970 RMK AO2 P0006 T01060089,KMIW,2022-10-24T19:30:00Z,42.12,-92.92,10.6,8.9,310,9,,1.75,29.698818,,,TRUE,TRUE,,,,,,+RA BR,OVC,2400,,,,,,,IFR,,,,,,0.06,,,,,,SPECI,296.0
KM54 241930Z AUTO 21009KT 10SM CLR 25/05 A3000 RMK A01,KM54,2022-10-24T19:30:00Z,36.18,-86.32,25.0,5.0,210,9,,10.0,30.0,,,TRUE,TRUE,,,,,,,CLR,,,,,,,,VFR,,,,,,,,,,,,METAR,168.0
KGRK 241930Z AUTO 01011KT 10SM SCT014 19/17 A2971 RMK AO2 RAE00 SLP052,KGRK,2022-10-24T19:30:00Z,31.07,-97.83,19.0,17.0,10,11,,10.0,29.71063,1005.2,,TRUE,TRUE,,,,,,,SCT,1400,,,,,,,VFR,,,,,,,,,,,,METAR,311.0
KGOO 241930Z AUTO 00000KT 7SM CLR 17/M09 A3022 RMK A01,KGOO,2022-10-24T19:30:00Z,39.22,-121.0,17.0,-9.0,0,0,,7.0,30.221457,,,TRUE,TRUE,,,,,,,CLR,,,,,,,,VFR,,,,,,,,,,,,METAR,950.0
KFOT 241930Z AUTO 13005KT 9SM OVC025 14/07 A3027 RMK AO1,KFOT,2022-10-24T19:30:00Z,40.55,-124.13,14.0,7.0,130,5,,9.0,30.268702,,,TRUE,TRUE,,,,,,,OVC,2500,,,,,,,MVFR,,,,,,,,,,,,METAR,118.0
KEKS 241930Z AUTO 18015KT 10SM FEW120 00/M06 A2999 RMK AO2,KEKS,2022-10-24T19:30:00Z,45.27,-111.65,0.0,-6.0,180,15,,10.0,29.991142,,,TRUE,TRUE,,,,,,,FEW,12000,,,,,,,VFR,,,,,,,,,,,,METAR,1636.0
KCXW 241930Z AUTO 17016G25KT 10SM FEW049 FEW055 27/15 A2978 RMK A01,KCXW,2022-10-24T19:30:00Z,35.02,-92.55,27.0,15.0,170,16,25,10.0,29.778543,,,TRUE,TRUE,,,,,,,FEW,4900,FEW,5500,,,,,VFR,,,,,,,,,,,,METAR,84.0
KBIX 241930Z AUTO 13013KT 10SM BKN023 BKN028 BKN075 27/19 A2999 RMK AO2 CIG 023V075 SLP158,KBIX,2022-10-24T19:30:00Z,30.42,-88.92,27.0,19.0,130,13,,10.0,29.991142,1015.8,,TRUE,TRUE,,,,,,,BKN,2300,BKN,2800,BKN,7500,,,MVFR,,,,,,,,,,,,METAR,4.0
K3U3 241930Z AUTO 20011G18KT 10SM 07/M08 A2989 ,K3U3,2022-10-24T19:30:00Z,46.15,-112.87,7.0,-8.0,200,11,18,10.0,29.890747,,,TRUE,,,,,,,,,,,,,,,,,,,,,,,,,,,,METAR,1534.0
K38S 241930Z AUTO 15014G19KT 10SM 07/M06 A2989 ,K38S,2022-10-24T19:30:00Z,46.38,-112.77,7.0,-6.0,150,14,19,10.0,29.890747,,,TRUE,,,,,,,,,,,,,,,,,,,,,,,,,,,,METAR,1430.0
K36K 241930Z AUTO 35021KT 10SM CLR 13/M06 A2985 RMK AO2,K36K,2022-10-24T19:30:00Z,37.97,-101.25,13.0,-6.0,350,21,,10.0,29.84941,,,TRUE,TRUE,,,,,,,CLR,,,,,,,,VFR,,,,,,,,,,,,METAR,938.0
K1S3 241930Z AUTO 28007KT 10SM 06/M01 A2978 ,K1S3,2022-10-24T19:30:00Z,46.27,-106.62,6.0,-1.0,280,7,,10.0,29.778543,,,TRUE,,,,,,,,,,,,,,,,,,,,,,,,,,,,METAR,831.0
K05U 241930Z AUTO VRB04KT 10SM 03/M07 A3029 RMK A01,K05U,2022-10-24T19:30:00Z,39.6,-116.0,3.0,-7.0,0,4,,10.0,30.28937,,,TRUE,TRUE,,,,,,,,,,,,,,,,,,,,,,,,,,,METAR,1813.0
HSSK 241930Z 34014KT CAVOK 30/M01 Q1013 NOSIG,HSSK,2022-10-24T19:30:00Z,15.58,32.55,30.0,-1.0,340,14,,6.21,29.911417,,,,,,TRUE,,,,,CAVOK,,,,,,,,VFR,,,,,,,,,,,,METAR,380.0
HRYR 241930Z 32008KT 9999 FEW025 SCT100 22/15 Q1019 NOSIG,HRYR,2022-10-24T19:30:00Z,-1.97,30.13,22.0,15.0,320,8,,6.21,30.088583,,,,,,TRUE,,,,,FEW,2500,SCT,10000,,,,,VFR,,,,,,,,,,,,METAR,1493.0
HECA 241930Z 01008KT 9999 BKN025 22/15 Q1017 NOSIG,HECA,2022-10-24T19:30:00Z,30.12,31.4,22.0,15.0,10,8,,6.21,30.029528,,,,,,TRUE,,,,,BKN,2500,,,,,,,MVFR,,,,,,,,,,,,METAR,68.0
GMTT 241930Z 09006KT CAVOK 23/17 Q1016 NOSIG,GMTT,2022-10-24T19:30:00Z,35.72,-5.9,23.0,17.0,90,6,,6.21,30.0,,,,,,TRUE,,,,,CAVOK,,,,,,,,VFR,,,,,,,,,,,,METAR,19.0
GMMX 241930Z VRB02KT CAVOK 28/04 Q1017 NOSIG,GMMX,2022-10-24T19:30:00Z,31.62,-8.03,28.0,4.0,0,2,,6.21,30.029528,,,,,,TRUE,,,,,CAVOK,,,,,,,,VFR,,,,,,,,,,,,METAR,465.0
GMMN 241930Z 09004KT CAVOK 25/03 Q1017 NOSIG,GMMN,2022-10-24T19:30:00Z,33.37,-7.58,25.0,3.0,90,4,,6.21,30.029528,,,,,,TRUE,,,,,CAVOK,,,,,,,,VFR,,,,,,,,,,,,METAR,196.0
GMME 241930Z 00000KT 5000 NSC 18/09 Q1015 NOSIG,GMME,2022-10-24T19:30:00Z,34.05,-6.77,18.0,9.0,0,0,,3.11,29.970472,,,,,,TRUE,,,,,CLR,,,,,,,,MVFR,,,,,,,,,,,,METAR,84.0
GMFO 241930Z 18010KT CAVOK 25/M01 Q1020 NOSIG,GMFO,2022-10-24T19:30:00Z,34.78,-1.92,25.0,-1.0,180,10,,6.21,30.11811,,,,,,TRUE,,,,,CAVOK,,,,,,,,VFR,,,,,,,,,,,,METAR,452.0
GMFF 241930Z 20007KT CAVOK 21/01 Q1020 NOSIG,GMFF,2022-10-24T19:30:00Z,33.92,-4.97,21.0,1.0,200,7,,6.21,30.11811,,,,,,TRUE,,,,,CAVOK,,,,,,,,VFR,,,,,,,,,,,,METAR,575.0
GMAD 241930Z 00000KT CAVOK 29/05 Q1014 NOSIG,GMAD,2022-10-24T19:30:00Z,30.32,-9.42,29.0,5.0,0,0,,6.21,29.940945,,,,,,TRUE,,,,,CAVOK,,,,,,,,VFR,,,,,,,,,,,,METAR,66.0
GLRB 241930Z 00000KT 9999 SCT012 FEW023CB 26/24 Q1011 NOSIG RMK CB/NE-SE,GLRB,2022-10-24T19:30:00Z,6.25,-10.35,26.0,24.0,0,0,,6.21,29.852362,,,,,,TRUE,,,,,SCT,1200,FEW,2300,,,,,VFR,,,,,,,,,,,,METAR,12.0
GEML 241930Z AUTO 30004KT 260V340 CAVOK 23/16 Q1018,GEML,2022-10-24T19:30:00Z,35.27,-2.95,23.0,16.0,300,4,,6.21,30.059055,,,TRUE,,,,,,,,CAVOK,,,,,,,,VFR,,,,,,,,,,,,METAR,48.0
GECE 241930Z AUTO VRB02KT CAVOK 21/19 Q1017,GECE,2022-10-24T19:30:00Z,35.88,-5.3,21.0,19.0,0,2,,6.21,30.029528,,,TRUE,,,,,,,,CAVOK,,,,,,,,VFR,,,,,,,,,,,,METAR,2.0
GCXO 241930Z 27005KT 230V290 CAVOK 17/16 Q1018 NOSIG,GCXO,2022-10-24T19:30:00Z,28.48,-16.35,17.0,16.0,270,5,,6.21,30.059055,,,,,,TRUE,,,,,CAVOK,,,,,,,,VFR,,,,,,,,,,,,METAR,623.0
GCTS 241930Z 08006KT 9999 FEW030 22/18 Q1016 NOSIG,GCTS,2022-10-24T19:30:00Z,28.05,-16.57,22.0,18.0,80,6,,6.21,30.0,,,,,,TRUE,,,,,FEW,3000,,,,,,,VFR,,,,,,,,,,,,METAR,59.0
GCRR 241930Z VRB04KT 9999 FEW020 24/19 Q1015,GCRR,2022-10-24T19:30:00Z,28.95,-13.58,24.0,19.0,0,4,,6.21,29.970472,,,,,,,,,,,FEW,2000,,,,,,,VFR,,,,,,,,,,,,METAR,9.0
GCLP 241930Z 01011KT CAVOK 23/19 Q1015 NOSIG,GCLP,2022-10-24T19:30:00Z,27.92,-15.38,23.0,19.0,10,11,,6.21,29.970472,,,,,,TRUE,,,,,CAVOK,,,,,,,,VFR,,,,,,,,,,,,METAR,16.0
GCLA 241930Z VRB02KT 9999 FEW030 23/17 Q1015,GCLA,2022-10-24T19:30:00Z,28.62,-17.75,23.0,17.0,0,2,,6.21,29.970472,,,,,,,,,,,FEW,3000,,,,,,,VFR,,,,,,,,,,,,METAR,20.0
GCHI 241930Z AUTO 34007KT 300V010 9999 OVC023 22/17 Q1015,GCHI,2022-10-24T19:30:00Z,27.82,-17.88,22.0,17.0,340,7,,6.21,29.970472,,,TRUE,,,,,,,,OVC,2300,,,,,,,MVFR,,,,,,,,,,,,METAR,21.0
GCGM 241930Z AUTO VRB02KT 9999 BKN019 21/19 Q1016 RMK R09/VRB02KT ARP/VRB01KT,GCGM,2022-10-24T19:30:00Z,28.03,-17.22,21.0,19.0,0,2,,6.21,30.0,,,TRUE,,,,,,,,BKN,1900,,,,,,,MVFR,,,,,,,,,,,,METAR,217.0
GCFV 241930Z 31009KT 9999 FEW020 24/19 Q1014,GCFV,2022-10-24T19:30:00Z,28.43,-13.87,24.0,19.0,310,9,,6.21,29.940945,,,,,,,,,,,FEW,2000,,,,,,,VFR,,,,,,,,,,,,METAR,11.0
FOOG 241930Z 19009KT 9999 SCT010 BKN030 27/24 Q1012,FOOG,2022-10-24T19:30:00Z,-0.7,8.75,27.0,24.0,190,9,,6.21,29.88189,,,,,,,,,,,SCT,1000,BKN,3000,,,,,MVFR,,,,,,,,,,,,METAR,4.0
FMMI 241930Z VRB02KT 9999 FEW017 BKN020 17/14 Q1022 NOSIG,FMMI,2022-10-24T19:30:00Z,-18.8,47.47,17.0,14.0,0,2,,6.21,30.177166,,,,,,TRUE,,,,,FEW,1700,BKN,2000,,,,,MVFR,,,,,,,,,,,,METAR,1269.0
FMEP 241930Z AUTO 01005KT CAVOK 22/16 Q1019,FMEP,2022-10-24T19:30:00Z,-21.32,55.42,22.0,16.0,10,5,,6.21,30.088583,,,TRUE,,,,,,,,CAVOK,,,,,,,,VFR,,,,,,,,,,,,METAR,21.0
FMEE 241930Z AUTO 15007KT 9999 SCT074/// BKN140/// 22/18 Q1019 TEMPO 4000 SHRA SCT021TCU,FMEE,2022-10-24T19:30:00Z,-20.88,55.52,22.0,18.0,150,7,,6.21,30.088583,,,TRUE,,,,,,,,SCT,7400,BKN,14000,,,,,VFR,,,,,,,,,,,,METAR,20.0
FMCZ 241930Z AUTO 01006KT 9999 FEW023 SCT032 26/23 Q1015 BECMG 08010KT,FMCZ,2022-10-24T19:30:00Z,-12.8,45.27,26.0,23.0,10,6,,6.21,29.970472,,,TRUE,,,,,,,,FEW,2300,SCT,3200,,,,,VFR,,,,,,,,,,,,METAR,7.0
FAOR 241930Z 33006KT 300V360 CAVOK 14/10 Q1023 NOSIG,FAOR,2022-10-24T19:30:00Z,-26.13,28.23,14.0,10.0,330,6,,6.21,30.206694,,,,,,TRUE,,,,,CAVOK,,,,,,,,VFR,,,,,,,,,,,,METAR,1684.0
ETHL 241930Z 25006KT 9999 FEW070 SCT160 11/10 Q1018 BLU+FCST CNL,ETHL,2022-10-24T19:30:00Z,48.22,9.92,11.0,10.0,250,6,,6.21,30.059055,,,,,,,,,,,FEW,7000,SCT,16000,,,,,VFR,,,,,,,,,,,,SPECI,536.0
EPZG 241930Z 21005KT CAVOK 14/12 Q1012,EPZG,2022-10-24T19:30:00Z,52.13,15.77,14.0,12.0,210,5,,6.21,29.88189,,,,,,,,,,,CAVOK,,,,,,,,VFR,,,,,,,,,,,,METAR,59.0
EPWR 241930Z 18003KT CAVOK 15/13 Q1014,EPWR,2022-10-24T19:30:00Z,51.1,16.88,15.0,13.0,180,3,,6.21,29.940945,,,,,,,,,,,CAVOK,,,,,,,,VFR,,,,,,,,,,,,METAR,118.0
EPWA 241930Z 15003KT 9999 2100E MIFG NSC 12/12 Q1013 TEMPO 2000 BR,EPWA,2022-10-24T19:30:00Z,52.17,20.97,12.0,12.0,150,3,,6.21,29.911417,,,,,,,,,,MIFG,CLR,,,,,,,,VFR,,,,,,,,,,,,METAR,107.0
EPSY 241930Z 17004KT 0150 R01/0600N FG OVC001 12/12 Q1012,EPSY,2022-10-24T19:30:00Z,53.47,20.93,12.0,12.0,170,4,,0.09,29.88189,,,,,,,,,,FG,OVC,100,,,,,,,LIFR,,,,,,,,,,,,METAR,136.0
EPSC 241930Z 17004KT CAVOK 14/12 Q1009,EPSC,2022-10-24T19:30:00Z,53.58,14.9,14.0,12.0,170,4,,6.21,29.793306,,,,,,,,,,,CAVOK,,,,,,,,VFR,,,,,,,,,,,,METAR,47.0
EPRZ 241930Z 21007KT CAVOK 13/10 Q1015,EPRZ,2022-10-24T19:30:00Z,50.1,22.02,13.0,10.0,210,7,,6.21,29.970472,,,,,,,,,,,CAVOK,,,,,,,,VFR,,,,,,,,,,,,METAR,206.0
EPPO 241930Z 20004KT 9999 -SHRA BKN059CB 16/12 Q1012,EPPO,2022-10-24T19:30:00Z,52.42,16.83,16.0,12.0,200,4,,6.21,29.88189,,,,,,,,,,-SHRA,BKN,5900,,,,,,,VFR,,,,,,,,,,,,METAR,87.0
EPMO 241930Z 18007KT CAVOK 12/12 Q1012,EPMO,2022-10-24T19:30:00Z,52.45,20.65,12.0,12.0,180,7,,6.21,29.88189,,,,,,,,,,,CAVOK,,,,,,,,VFR,,,,,,,,,,,,METAR,102.0
EPLL 241930Z 21004KT 170V240 CAVOK 15/13 Q1013,EPLL,2022-10-24T19:30:00Z,51.72,19.4,15.0,13.0,210,4,,6.21,29.911417,,,,,,,,,,,CAVOK,,,,,,,,VFR,,,,,,,,,,,,METAR,176.0
EPLB 241930Z 26003KT CAVOK 13/12 Q1014,EPLB,2022-10-24T19:30:00Z,51.23,22.72,13.0,12.0,260,3,,6.21,29.940945,,,,,,,,,,,CAVOK,,,,,,,,VFR,,,,,,,,,,,,METAR,206.0
EPKT 241930Z 22006KT CAVOK 14/12 Q1015,EPKT,2022-10-24T19:30:00Z,50.47,19.08,14.0,12.0,220,6,,6.21,29.970472,,,,,,,,,,,CAVOK,,,,,,,,VFR,,,,,,,,,,,,METAR,296.0
EPKK 241930Z VRB01KT CAVOK 13/12 Q1015,EPKK,2022-10-24T19:30:00Z,50.07,19.8,13.0,12.0,0,1,,6.21,29.970472,,,,,,,,,,,CAVOK,,,,,,,,VFR,,,,,,,,,,,,METAR,237.0
EPGD 241930Z 23006KT 8000 NSC 13/12 Q1009,EPGD,2022-10-24T19:30:00Z,54.37,18.47,13.0,12.0,230,6,,4.97,29.793306,,,,,,,,,,,CLR,,,,,,,,MVFR,,,,,,,,,,,,METAR,136.0
EPBY 241930Z 22008KT CAVOK 15/13 Q1011,EPBY,2022-10-24T19:30:00Z,53.1,18.0,15.0,13.0,220,8,,6.21,29.852362,,,,,,,,,,,CAVOK,,,,,,,,VFR,,,,,,,,,,,,METAR,66.0
EIWF 241930Z 25007KT 200V310 CAVOK 12/11 Q1004,EIWF,2022-10-24T19:30:00Z,52.18,-7.08,12.0,11.0,250,7,,6.21,29.64567,,,,,,,,,,,CAVOK,,,,,,,,VFR,,,,,,,,,,,,METAR,26.0
EINN 241930Z 22007KT 9999 FEW010 FEW018CB SCT026 12/11 Q1002 NOSIG,EINN,2022-10-24T19:30:00Z,52.7,-8.92,12.0,11.0,220,7,,6.21,29.586615,,,,,,TRUE,,,,,FEW,1000,FEW,1800,SCT,2600,,,VFR,,,,,,,,,,,,METAR,20.0
EIDW 241930Z 22007KT 170V270 9999 FEW018 12/10 Q1001 NOSIG,EIDW,2022-10-24T19:30:00Z,53.42,-6.28,12.0,10.0,220,7,,6.21,29.557087,,,,,,TRUE,,,,,FEW,1800,,,,,,,VFR,,,,,,,,,,,,METAR,75.0
EIDL 241930Z 24011KT 9999 FEW019 12/10 Q0998,EIDL,2022-10-24T19:30:00Z,55.05,-8.33,12.0,10.0,240,11,,6.21,29.468504,,,,,,,,,,,FEW,1900,,,,,,,VFR,,,,,,,,,,,,METAR,2.0
EICK 241930Z 24006KT 9999 FEW016 10/09 Q1004 NOSIG,EICK,2022-10-24T19:30:00Z,51.85,-8.47,10.0,9.0,240,6,,6.21,29.64567,,,,,,TRUE,,,,,FEW,1600,,,,,,,VFR,,,,,,,,,,,,METAR,158.0
DTTJ 241930Z 13008KT CAVOK 23/13 Q1023 NOSIG,DTTJ,2022-10-24T19:30:00Z,33.87,10.77,23.0,13.0,130,8,,6.21,30.206694,,,,,,TRUE,,,,,CAVOK,,,,,,,,VFR,,,,,,,,,,,,METAR,3.0
DTTA 241930Z 01003KT CAVOK 21/15 Q1021,DTTA,2022-10-24T19:30:00Z,36.85,10.22,21.0,15.0,10,3,,6.21,30.147638,,,,,,,,,,,CAVOK,,,,,,,,VFR,,,,,,,,,,,,METAR,4.0
DTNH 241930Z 36005KT CAVOK 20/17 Q1021,DTNH,2022-10-24T19:30:00Z,36.07,10.43,20.0,17.0,360,5,,6.21,30.147638,,,,,,,,,,,CAVOK,,,,,,,,VFR,,,,,,,,,,,,METAR,1.0
DTMB 241930Z 17003KT CAVOK 23/11 Q1021,DTMB,2022-10-24T19:30:00Z,35.77,10.75,23.0,11.0,170,3,,6.21,30.147638,,,,,,,,,,,CAVOK,,,,,,,,VFR,,,,,,,,,,,,METAR,1.0
DIAP 241930Z 23008KT 9999 FEW010 27/26 Q1012 NOSIG,DIAP,2022-10-24T19:30:00Z,5.25,-3.92,27.0,26.0,230,8,,6.21,29.88189,,,,,,TRUE,,,,,FEW,1000,,,,,,,VFR,,,,,,,,,,,,METAR,4.0
DAOO 241930Z 01004KT CAVOK 22/06 Q1018,DAOO,2022-10-24T19:30:00Z,35.62,-0.62,22.0,6.0,10,4,,6.21,30.059055,,,,,,,,,,,CAVOK,,,,,,,,VFR,,,,,,,,,,,,METAR,87.0
DAON 241930Z VRB02KT CAVOK 23/03 Q1019,DAON,2022-10-24T19:30:00Z,35.02,-1.47,23.0,3.0,0,2,,6.21,30.088583,,,,,,,,,,,CAVOK,,,,,,,,VFR,,,,,,,,,,,,METAR,245.0
DABC 241930Z VRB02KT CAVOK 18/00 Q1025,DABC,2022-10-24T19:30:00Z,36.27,6.62,18.0,0.0,0,2,,6.21,30.265747,,,,,,,,,,,CAVOK,,,,,,,,VFR,,,,,,,,,,,,METAR,686.0
DABB 241930Z VRB01KT CAVOK 21/16 Q1021,DABB,2022-10-24T19:30:00Z,36.82,7.82,21.0,16.0,0,1,,6.21,30.147638,,,,,,,,,,,CAVOK,,,,,,,,VFR,,,,,,,,,,,,METAR,3.0
DAAT 241930Z 20003KT CAVOK 20/M06 Q1026,DAAT,2022-10-24T19:30:00Z,22.82,5.47,20.0,-6.0,200,3,,6.21,30.295275,,,,,,,,,,,CAVOK,,,,,,,,VFR,,,,,,,,,,,,METAR,1376.0
DAAG 241930Z VRB01KT CAVOK 22/06 Q1020,DAAG,2022-10-24T19:30:00Z,36.68,3.22,22.0,6.0,0,1,,6.21,30.11811,,,,,,,,,,,CAVOK,,,,,,,,VFR,,,,,,,,,,,,METAR,18.0
CPIN 241930Z AUTO 27006KT ////SM BKN020 OVC029 ///// A////,CPIN,2022-10-24T19:30:00Z,,,,,270,6,,,,,,TRUE,,,,,,,,BKN,2000,OVC,2900,,,,,,,,,,,,,,,,,SPECI,
BKPR 241930Z VRB01KT CAVOK 13/09 Q1021 NOSIG,BKPR,2022-10-24T19:30:00Z,42.58,21.03,13.0,9.0,0,1,,6.21,30.147638,,,,,,TRUE,,,,,CAVOK,,,,,,,,VFR,,,,,,,,,,,,METAR,545.0
BIKF 241930Z 05006KT 9999 FEW040 SCT065 BKN085 06/03 Q0998,BIKF,2022-10-24T19:30:00Z,63.98,-22.6,6.0,3.0,50,6,,6.21,29.468504,,,,,,,,,,,FEW,4000,SCT,6500,BKN,8500,,,VFR,,,,,,,,,,,,METAR,49.0
PABL 241929Z AUTO 28007KT 3SM -SN BR OVC012 00/M01 A2990 RMK AO2 P0000 FZRANO $,PABL,2022-10-24T19:29:00Z,65.98,-161.15,0.0,-1.0,280,7,,3.0,29.899607,,,TRUE,TRUE,TRUE,,,TRUE,,-SN BR,OVC,1200,,,,,,,MVFR,,,,,,0.005,,,,,,SPECI,7.0
KSTJ 241929Z 33009KT 6SM -RA BR SCT008 SCT048 OVC075 09/09 A2974 RMK AO2 P0005 T00940094,KSTJ,2022-10-24T19:29:00Z,39.77,-94.92,9.4,9.4,330,9,,6.0,29.740158,,,,TRUE,,,,,,-RA BR,SCT,800,SCT,4800,OVC,7500,,,VFR,,,,,,0.05,,,,,,SPECI,247.0
KSFZ 241929Z AUTO 36005KT 1 1/4SM -RA BR OVC003 13/13 A3021 RMK AO2 TSE28 P0005,KSFZ,2022-10-24T19:29:00Z,41.92,-71.5,13.0,13.0,360,5,,1.25,30.209646,,,TRUE,TRUE,,,,,,-RA BR,OVC,300,,,,,,,LIFR,,,,,,0.05,,,,,,SPECI,129.0
KMEH 241929Z AUTO 00000KT 2SM RA BR OVC014 02/02 A2998 RMK AO2 P0005 T00220017,KMEH,2022-10-24T19:29:00Z,45.52,-118.42,2.2,1.7,0,0,,2.0,29.97933,,,TRUE,TRUE,,,,,,RA BR,OVC,1400,,,,,,,IFR,,,,,,0.05,,,,,,METAR,1138.0
KHRO 241929Z AUTO 15019G26KT 10SM SCT029 OVC034 22/15 A2976 RMK AO2 PK WND 15029/1908 RAB16E29 P0000 T02170150,KHRO,2022-10-24T19:29:00Z,36.27,-93.15,21.7,15.0,150,19,26,10.0,29.760826,,,TRUE,TRUE,,,,,,,SCT,2900,OVC,3400,,,,,VFR,,,,,,0.005,,,,,,SPECI,417.0
KFST 241929Z AUTO 30031G46KT 7SM BKN023 BKN034 OVC110 21/05 A2981 RMK AO2 PK WND 30046/1923 T02060050,KFST,2022-10-24T19:29:00Z,30.92,-102.92,20.6,5.0,300,31,46,7.0,29.811024,,,TRUE,TRUE,,,,,,,BKN,2300,BKN,3400,OVC,11000,,,MVFR,,,,,,,,,,,,SPECI,917.0
KEMP 241929Z AUTO 10SM -RA BKN005 BKN010 OVC095 11/09 A2972 RMK AO2 CIG 005V008 P0003 T01060094,KEMP,2022-10-24T19:29:00Z,38.33,-96.2,10.6,9.4,,,,10.0,29.719488,,,TRUE,TRUE,,,,,,-RA,BKN,500,BKN,1000,OVC,9500,,,IFR,,,,,,0.03,,,,,,SPECI,366.0
KCNU 241929Z AUTO 01006KT 6SM -RA BR FEW005 BKN055 OVC080 12/11 A2972 RMK AO2 P0004 T01220111 $,KCNU,2022-10-24T19:29:00Z,37.67,-95.48,12.2,11.1,10,6,,6.0,29.719488,,,TRUE,TRUE,TRUE,,,,,-RA BR,FEW,500,BKN,5500,OVC,8000,,,VFR,,,,,,0.04,,,,,,SPECI,301.0
KCEF 241929Z 36007KT 5SM BR BKN005 OVC013 13/13 A3015 RMK AO2A PRESFR SLP216,KCEF,2022-10-24T19:29:00Z,42.2,-72.52,13.0,13.0,360,7,,5.0,30.15059,1021.6,,,TRUE,,,,,,BR,BKN,500,OVC,1300,,,,,IFR,,,,,,,,,,,,METAR,72.0
KBGD 241929Z AUTO 34016G26KT 5SM RA BR FEW023 BKN029 OVC034 08/06 A2984 RMK AO2 PK WND 34026/1928 LTG DSNT S P0012 T00780056,KBGD,2022-10-24T19:29:00Z,35.7,-101.4,7.8,5.6,340,16,26,5.0,29.840551,,,TRUE,TRUE,,,,,,RA BR,FEW,2300,BKN,2900,OVC,3400,,,MVFR,,,,,,0.12,,,,,,SPECI,928.0
YBWP 241928Z AUTO 09004KT 9999 // NCD 23/21 Q1009,YBWP,2022-10-24T19:28:00Z,-12.68,141.92,23.0,21.0,90,4,,6.21,29.793306,,,TRUE,,,,,,,,CLR,,,,,,,,VFR,,,,,,,,,,,,SPECI,21.0
PAPB 241928Z AUTO 13017KT 2SM -RA BKN005 OVC009 06/ A3002 RMK AO2 P0001 T0061 TSNO $,PAPB,2022-10-24T19:28:00Z,56.58,-169.67,6.1,,130,17,,2.0,30.02067,,,TRUE,TRUE,TRUE,,TRUE,,,-RA,BKN,500,OVC,900,,,,,IFR,,,,,,0.01,,,,,,SPECI,33.0
PANV 241928Z AUTO 22003KT 2SM -SN BR OVC009 M02/M02 A2993 RMK AO2 VIS 1 1/2V3 P0000 FZRANO TSNO,PANV,2022-10-24T19:28:00Z,62.65,-160.18,-2.0,-2.0,220,3,,2.0,29.929134,,,TRUE,TRUE,,,TRUE,TRUE,,-SN BR,OVC,900,,,,,,,IFR,,,,,,0.005,,,,,,SPECI,91.0
KPUW 241928Z AUTO 13009KT 3SM -SN BR FEW013 OVC021 01/01 A2996 RMK AO2 P0004 T00110011,KPUW,2022-10-24T19:28:00Z,46.75,-117.12,1.1,1.1,130,9,,3.0,29.958662,,,TRUE,TRUE,,,,,,-SN BR,FEW,1300,OVC,2100,,,,,MVFR,,,,,,0.04,,,,,,SPECI,774.0
KOCH 241928Z AUTO 15017G21KT 10SM BKN025 BKN070 26/21 A2979 RMK AO2,KOCH,2022-10-24T19:28:00Z,31.57,-94.72,26.0,21.0,150,17,21,10.0,29.790354,,,TRUE,TRUE,,,,,,,BKN,2500,BKN,7000,,,,,MVFR,,,,,,,,,,,,SPECI,105.0
KLXT 241928Z AUTO 32009KT 5SM -RA BR BKN007 OVC041 11/11 A2972 RMK AO2 P0003 T01060106,KLXT,2022-10-24T19:28:00Z,38.97,-94.37,10.6,10.6,320,9,,5.0,29.719488,,,TRUE,TRUE,,,,,,-RA BR,BKN,700,OVC,4100,,,,,IFR,,,,,,0.03,,,,,,SPECI,306.0
KHIF 241928Z AUTO 24010KT 10SM BKN036 05/M04 A3019 RMK AO2 WSHFT 27 SLP225,KHIF,2022-10-24T19:28:00Z,41.12,-111.97,5.0,-4.0,240,10,,10.0,30.188976,1022.5,,TRUE,TRUE,,,,,,,BKN,3600,,,,,,,VFR,,,,,,,,,,,,SPECI,1461.0
KFWN 241928Z AUTO 03005KT 4SM BR BKN005 OVC009 14/13 A3016 RMK AO2 RAB10E23 P0000 T01440133,KFWN,2022-10-24T19:28:00Z,41.2,-74.63,14.4,13.3,30,5,,4.0,30.159449,,,TRUE,TRUE,,,,,,BR,BKN,500,OVC,900,,,,,IFR,,,,,,0.005,,,,,,SPECI,129.0
KFRI 241928Z AUTO 35003KT 10SM OVC010 10/08 A2977 RMK AO2 RAE14DZB14E28 PRESFR SLP075 FZRANO $,KFRI,2022-10-24T19:28:00Z,39.05,-96.77,10.0,8.0,350,3,,10.0,29.769686,1007.5,,TRUE,TRUE,TRUE,,,TRUE,,,OVC,1000,,,,,,,MVFR,,,,,,,,,,,,SPECI,232.0
KDDH 241928Z AUTO 21003KT 10SM BKN021 BKN042 OVC070 17/13 A3019 RMK AO2 RAE19 P0003 T01720128,KDDH,2022-10-24T19:28:00Z,42.9,-73.25,17.2,12.8,210,3,,10.0,30.188976,,,TRUE,TRUE,,,,,,,BKN,2100,BKN,4200,OVC,7000,,,MVFR,,,,,,0.03,,,,,,SPECI,241.0
KDAL 241928Z VRB04KT 4SM RA BR FEW008 SCT017 OVC047 17/17 A2975 RMK AO2 P0008 T01720167,KDAL,2022-10-24T19:28:00Z,32.85,-96.85,17.2,16.7,0,4,,4.0,29.749016,,,,TRUE,,,,,,RA BR,FEW,800,SCT,1700,OVC,4700,,,MVFR,,,,,,0.08,,,,,,SPECI,148.0
KCDW 241928Z 05004KT 1 3/4SM BR OVC006 16/14 A3015 RMK AO2 T01560139,KCDW,2022-10-24T19:28:00Z,40.88,-74.28,15.6,13.9,50,4,,1.75,30.15059,,,,TRUE,,,,,,BR,OVC,600,,,,,,,IFR,,,,,,,,,,,,SPECI,52.0
KCDR 241928Z AUTO 29016G33KT 1/2SM SN FG VV010 01/M01 A2986 RMK AO2 PK WND 28033/1921 P0001 T00061011,KCDR,2022-10-24T19:28:00Z,42.83,-103.1,0.6,-1.1,290,16,33,0.5,29.861221,,,TRUE,TRUE,,,,,,SN FG,OVX,0,,,,,,,LIFR,,,,,,0.01,,,,,1000,SPECI,1002.0
KALB 241928Z 00000KT 2SM -RA BR BKN006 BKN012 OVC024 14/13 A3020 RMK AO2 SFC VIS 2 1/2 PCPN VRY LGT P0000 T01440128,KALB,2022-10-24T19:28:00Z,42.75,-73.8,14.4,12.8,0,0,,2.0,30.200787,,,,TRUE,,,,,,-RA BR,BKN,600,BKN,1200,OVC,2400,,,IFR,,,,,,0.005,,,,,,SPECI,82.0
CYKF 241928Z AUTO 15007KT 7SM CLR 21/07 A3009 RMK SLP188 DENSITY ALT 1800FT,CYKF,2022-10-24T19:28:00Z,43.47,-80.38,21.0,7.0,150,7,,7.0,30.088583,1018.8,,TRUE,,,,,,,,CLR,,,,,,,,VFR,,,,,,,,,,,,SPECI,312.0
CYIO 241928Z 28017G22KT 2SM -SN DRSN BKN017 OVC023 M10/M12 A2980 RMK SC5SC3 SLP102,CYIO,2022-10-24T19:28:00Z,72.68,-77.97,-10.0,-12.0,280,17,22,2.0,29.799213,1010.2,,,,,,,,,-SN DRSN,BKN,1700,OVC,2300,,,,,IFR,,,,,,,,,,,,SPECI,61.0
CWSA 241928Z AUTO 06009KT 9SM FEW019 SCT030 OVC066 15/14 A3035 RMK SLP280,CWSA,2022-10-24T19:28:00Z,43.93,-60.0,15.0,14.0,60,9,,9.0,30.351377,1028.0,,TRUE,,,,,,,,FEW,1900,SCT,3000,OVC,6600,,,VFR,,,,,,,,,,,,SPECI,4.0
YKRY 241927Z AUTO 20010KT 9999 VCTS SCT073 BKN087 BKN100 17/17 Q1011 RETS,YKRY,2022-10-24T19:27:00Z,-26.57,151.83,17.0,17.0,200,10,,6.21,29.852362,,,TRUE,,,,,,,VCTS,SCT,7300,BKN,8700,BKN,10000,,,VFR,,,,,,,,,,,,SPECI,435.0
KMLC 241927Z AUTO 35008KT 4SM RA BR FEW050 SCT070 OVC090 14/13 A2972 RMK AO2 PRESFR P0018 T01440133,KMLC,2022-10-24T19:27:00Z,34.88,-95.78,14.4,13.3,350,8,,4.0,29.719488,,,TRUE,TRUE,,,,,,RA BR,FEW,5000,SCT,7000,OVC,9000,,,MVFR,,,,,,0.18,,,,,,SPECI,231.0
CZFN 241927Z 00000KT 10SM SCT010 BKN015 BKN120 M04/M06 A2996 RMK ST3ST3AC1 SLP157,CZFN,2022-10-24T19:27:00Z,64.92,-125.57,-4.0,-6.0,0,0,,10.0,29.958662,1015.7,,,,,,,,,,SCT,1000,BKN,1500,BKN,12000,,,MVFR,,,,,,,,,,,,SPECI,135.0
CYZY 241927Z AUTO 14006KT 9SM -RA SCT009 OVC014 03/02 A2953 RMK SLP026,CYZY,2022-10-24T19:27:00Z,55.3,-123.13,3.0,2.0,140,6,,9.0,29.530512,1002.6,,TRUE,,,,,,,-RA,SCT,900,OVC,1400,,,,,MVFR,,,,,,,,,,,,SPECI,694.0
CYPW 241927Z 12005KT 20SM FEW012 BKN020 OVC060 10/08 A2989 RMK SF1SC6SC2 SF TR LWR VIS N-NE 4 LOW CLD BR SLP125,CYPW,2022-10-24T19:27:00Z,49.83,-124.5,10.0,8.0,120,5,,20.0,29.890747,1012.5,,,,,,,,,,FEW,1200,BKN,2000,OVC,6000,,,MVFR,,,,,,,,,,,,SPECI,122.0
CYCG 241927Z 19005KT 10SM -RA FEW005 FEW018 FEW026 BKN033 05/05 A2987 RMK CF1CF1SC2SC5 CF TR CF TR CIG VRB 029-037 CIG LWR S SLP129,CYCG,2022-10-24T19:27:00Z,49.28,-117.63,5.0,5.0,190,5,,10.0,29.870079,1012.9,,,,,,,,,-RA,FEW,500,FEW,1800,FEW,2600,BKN,3300,VFR,,,,,,,,,,,,SPECI,487.0
CYAW 241927Z 09007KT 12SM SCT009 OVC012 15/12 A3035 RMK SC4SC4 DENSITY ALT -113FT SLP279,CYAW,2022-10-24T19:27:00Z,44.63,-63.5,15.0,12.0,90,7,,12.0,30.351377,1027.9,,,,,,,,,,SCT,900,OVC,1200,,,,,MVFR,,,,,,,,,,,,SPECI,50.0
CYAT 241927Z AUTO 10006KT 6SM -RA BR BKN047 OVC066 10/10 A2973 RMK PRESFR PCPN 1.0MM PAST HR SLP068,CYAT,2022-10-24T19:27:00Z,52.93,-82.43,10.0,10.0,100,6,,6.0,29.731298,1006.8,,TRUE,,,,,,,-RA BR,BKN,4700,OVC,6600,,,,,VFR,,,,,,,,,,,,SPECI,4.0
ROIG 241926Z AUTO 02015G25KT 9999 -RA FEW036 SCT040 BKN042 22/16 Q1017 RMK A3005,ROIG,2022-10-24T19:26:00Z,24.38,124.23,22.0,16.0,20,15,25,6.21,30.029528,,,TRUE,,,,,,,-RA,FEW,3600,SCT,4000,BKN,4200,,,VFR,,,,,,,,,,,,SPECI,37.0
PASH 241926Z AUTO 29009KT 10SM SCT028 OVC034 00/M04 A2989 RMK AO2 FZRANO PNO $,PASH,2022-10-24T19:26:00Z,66.27,-166.08,0.0,-4.0,290,9,,10.0,29.890747,,,TRUE,TRUE,TRUE,,,TRUE,,,SCT,2800,OVC,3400,,,,,VFR,,,,,,,,,,,,SPECI,3.0
KUUU 241926Z AUTO 04008KT 1 3/4SM -RA BR OVC002 15/15 A3018 RMK AO2 LTG DSNT N RAB24 P0000 T01500150,KUUU,2022-10-24T19:26:00Z,41.53,-71.28,15.0,15.0,40,8,,1.75,30.180119,,,TRUE,TRUE,,,,,,-RA BR,OVC,200,,,,,,,LIFR,,,,,,0.005,,,,,,SPECI,45.0
KTAD 241926Z AUTO 04007KT 1 3/4SM -SN BR BKN008 OVC015 02/01 A2993 RMK AO2 P0002 T00170006,KTAD,2022-10-24T19:26:00Z,37.27,-104.33,1.7,0.6,40,7,,1.75,29.929134,,,TRUE,TRUE,,,,,,-SN BR,BKN,800,OVC,1500,,,,,IFR,,,,,,0.02,,,,,,SPECI,1751.0
KSMQ 241926Z AUTO 03004KT 1 3/4SM BR OVC007 16/15 A3012 RMK AO2 T01560150,KSMQ,2022-10-24T19:26:00Z,40.62,-74.67,15.6,15.0,30,4,,1.75,30.121063,,,TRUE,TRUE,,,,,,BR,OVC,700,,,,,,,IFR,,,,,,,,,,,,SPECI,30.0
KPNC 241926Z AUTO 35008KT 10SM BKN011 13/11 A2973 RMK AO2 T01280111,KPNC,2022-10-24T19:26:00Z,36.73,-97.1,12.8,11.1,350,8,,10.0,29.731298,,,TRUE,TRUE,,,,,,,BKN,1100,,,,,,,MVFR,,,,,,,,,,,,SPECI,304.0
KLWD 241926Z AUTO 35008KT 2 1/2SM RA BR SCT006 OVC037 10/09 A2970 RMK AO2 P0010 T01000089,KLWD,2022-10-24T19:26:00Z,40.63,-93.9,10.0,8.9,350,8,,2.5,29.698818,,,TRUE,TRUE,,,,,,RA BR,SCT,600,OVC,3700,,,,,IFR,,,,,,0.1,,,,,,METAR,345.0
KHLR 241926Z AUTO 01008KT 10SM FEW003 OVC013 19/18 A2974 RMK AO2 RAE06 SLP062 $,KHLR,2022-10-24T19:26:00Z,31.13,-97.72,19.0,18.0,10,8,,10.0,29.740158,1006.2,,TRUE,TRUE,TRUE,,,,,,FEW,300,OVC,1300,,,,,MVFR,,,,,,,,,,,,SPECI,271.0
KCPR 241926Z 23019G24KT 10SM CLR 06/M04 A2986 RMK AO2 PK WND 25026/1859 T00561044,KCPR,2022-10-24T19:26:00Z,42.9,-106.47,5.6,-4.4,230,19,24,10.0,29.861221,,,,TRUE,,,,,,,CLR,,,,,,,,VFR,,,,,,,,,,,,SPECI,1623.0
KACY 241926Z 03007KT 1SM BR OVC003 17/17 A3008 RMK AO2 T01720167,KACY,2022-10-24T19:26:00Z,39.45,-74.57,17.2,16.7,30,7,,1.0,30.079725,,,,TRUE,,,,,,BR,OVC,300,,,,,,,LIFR,,,,,,,,,,,,SPECI,18.0
CYYQ 241926Z 07021G27KT 3SM R33/5000VP6000FT/U -SHSN BKN009 OVC120 M00/M01 A2993 RMK ST7AC1 CVCTV CLD EMBD VIS VRB 2-4 PRESFR SLP141,CYYQ,2022-10-24T19:26:00Z,58.75,-94.07,0.0,-1.0,70,21,27,3.0,29.929134,1014.1,,,,,,,,,-SHSN,BKN,900,OVC,12000,,,,,IFR,,,,,,,,,,,,SPECI,20.0
PGUA 241925Z AUTO 12009KT 10SM FEW014 26/23 A2982 RMK AO2 SLP088 $,PGUA,2022-10-24T19:25:00Z,13.57,144.92,26.0,23.0,120,9,,10.0,29.819881,1008.8,,TRUE,TRUE,TRUE,,,,,,FEW,1400,,,,,,,VFR,,,,,,,,,,,,METAR,159.0
PAKK 241925Z AUTO 18003KT 3/4SM -SN BR OVC003 M01/M01 A2987 RMK AO2 P0001 FZRANO,PAKK,2022-10-24T19:25:00Z,64.93,-161.15,-1.0,-1.0,180,3,,0.75,29.870079,,,TRUE,TRUE,,,,TRUE,,-SN BR,OVC,300,,,,,,,LIFR,,,,,,0.01,,,,,,SPECI,56.0
PABA 241925Z AUTO 09022KT 10SM OVC016 M05/M08 A3002 RMK AO2 FZRANO PNO $,PABA,2022-10-24T19:25:00Z,70.13,-143.58,-5.0,-8.0,90,22,,10.0,30.02067,,,TRUE,TRUE,TRUE,,,TRUE,,,OVC,1600,,,,,,,MVFR,,,,,,,,,,,,SPECI,1.0
OPLA 241925Z 00000KT 4000 FU NSC 22/14 Q1009 NOSIG RMK QFE983 A29.80,OPLA,2022-10-24T19:25:00Z,31.52,74.4,22.0,14.0,0,0,,2.49,29.793306,,,,,,TRUE,,,,FU,CLR,,,,,,,,IFR,,,,,,,,,,,,SPECI,217.0
LIPB 241925Z 31003KT 250V010 5000 SHRA VCTS FEW010 BKN035 SCT050CB BKN090 15/15 Q1019,LIPB,2022-10-24T19:25:00Z,46.47,11.32,15.0,15.0,310,3,,3.11,30.088583,,,,,,,,,,SHRA VCTS,FEW,1000,BKN,3500,SCT,5000,BKN,9000,MVFR,,,,,,,,,,,,SPECI,239.0
KWVL 241925Z AUTO 01005KT 2 1/2SM -RA BR OVC003 14/13 A3024 RMK AO2 RAB00 P0000,KWVL,2022-10-24T19:25:00Z,44.52,-69.67,14.0,13.0,10,5,,2.5,30.239174,,,TRUE,TRUE,,,,,,-RA BR,OVC,300,,,,,,,LIFR,,,,,,0.005,,,,,,SPECI,87.0
KS85 241925Z AUTO 29020G28KT 10SM OVC020 02/00 A2966 RMK A01 Culbertson ,KS85,2022-10-24T19:25:00Z,48.15,-104.5,2.0,0.0,290,20,28,10.0,29.660433,,,TRUE,TRUE,,,,,,,OVC,2000,,,,,,,MVFR,,,,,,,,,,,,METAR,596.0
KRND 241925Z AUTO 21011KT 10SM BKN029 OVC038 28/21 A2971 RMK AO2 SLP052,KRND,2022-10-24T19:25:00Z,29.53,-98.27,28.0,21.0,210,11,,10.0,29.71063,1005.2,,TRUE,TRUE,,,,,,,BKN,2900,OVC,3800,,,,,MVFR,,,,,,,,,,,,METAR,224.0
KPYM 241925Z AUTO 03007KT 4SM BR OVC002 15/14 A3020 RMK AO2 LTG DSNT W RAE21 P0001 T01500144,KPYM,2022-10-24T19:25:00Z,41.92,-70.73,15.0,14.4,30,7,,4.0,30.200787,,,TRUE,TRUE,,,,,,BR,OVC,200,,,,,,,LIFR,,,,,,0.01,,,,,,SPECI,42.0
KMKC 241925Z 31007KT 3SM RA BR OVC009 11/11 A2973 RMK AO2 CIG 006V012 P0004 T01110106,KMKC,2022-10-24T19:25:00Z,39.12,-94.6,11.1,10.6,310,7,,3.0,29.731298,,,,TRUE,,,,,,RA BR,OVC,900,,,,,,,IFR,,,,,,0.04,,,,,,SPECI,228.0
KLGA 241925Z 05012KT 1SM -DZ BR OVC005 15/13 A3014 RMK AO2 SFC VIS 2 1/2 DZB17 P0000 T01500128,KLGA,2022-10-24T19:25:00Z,40.78,-73.88,15.0,12.8,50,12,,1.0,30.138779,,,,TRUE,,,,,,-DZ BR,OVC,500,,,,,,,IFR,,,,,,0.005,,,,,,SPECI,9.0
KGGG 241925Z 16016G25KT 10SM BKN028 BKN035 OVC070 26/19 A2975 RMK AO2 PK WND 16028/1908 T02610194,KGGG,2022-10-24T19:25:00Z,32.38,-94.72,26.1,19.4,160,16,25,10.0,29.749016,,,,TRUE,,,,,,,BKN,2800,BKN,3500,OVC,7000,,,MVFR,,,,,,,,,,,,SPECI,107.0
K6S8 241925Z AUTO 22012G18KT 10SM 10/M04 A2980 RMK A01 Laurel,K6S8,2022-10-24T19:25:00Z,45.7,-108.77,10.0,-4.0,220,12,18,10.0,29.799213,,,TRUE,TRUE,,,,,,,,,,,,,,,,,,,,,,,,,,,SPECI,1072.0
FAGG 241925Z AUTO VRB02KT 9999 // OVC005/// 18/17 Q1014,FAGG,2022-10-24T19:25:00Z,-34.0,22.37,18.0,17.0,0,2,,6.21,29.940945,,,TRUE,,,,,,,,OVC,500,,,,,,,IFR,,,,,,,,,,,,SPECI,196.0
EHWO 241925Z AUTO 22009KT 190V250 9999 SCT078 OVC083 14/12 Q1009 BLU,EHWO,2022-10-24T19:25:00Z,51.45,4.33,14.0,12.0,220,9,,6.21,29.793306,,,TRUE,,,,,,,,SCT,7800,OVC,8300,,,,,VFR,,,,,,,,,,,,METAR,15.0
EHVL 241925Z AUTO 22017KT 9999 NCD 15/12 Q1005 BLU,EHVL,2022-10-24T19:25:00Z,53.28,5.08,15.0,12.0,220,17,,6.21,29.675198,,,TRUE,,,,,,,,CLR,,,,,,,,VFR,,,,,,,,,,,,METAR,2.0
EHVK 241925Z AUTO 22013KT 180V250 9999 FEW015CB SCT068 BKN100 14/12 Q1009 BLU,EHVK,2022-10-24T19:25:00Z,51.65,5.7,14.0,12.0,220,13,,6.21,29.793306,,,TRUE,,,,,,,,FEW,1500,SCT,6800,BKN,10000,,,VFR,,,,,,,,,,,,METAR,20.0
EHSC 241925Z AUTO 21023KT 9999 ///////// 15/13 Q1008 W16/H12,EHSC,2022-10-24T19:25:00Z,51.93,3.67,15.0,13.0,210,23,,6.21,29.763779,,,TRUE,,,,,,,,,,,,,,,,,,,,,,,,,,,,METAR,19.0
EHSA 241925Z AUTO 20022KT 9999 ///////// 16/14 Q1007 W16/H14,EHSA,2022-10-24T19:25:00Z,52.0,3.28,16.0,14.0,200,22,,6.21,29.734253,,,TRUE,,,,,,,,,,,,,,,,,,,,,,,,,,,,METAR,18.0
EHRD 241925Z AUTO 21012KT 180V240 9999 NSC 15/13 Q1008 NOSIG,EHRD,2022-10-24T19:25:00Z,51.95,4.45,15.0,13.0,210,12,,6.21,29.763779,,,TRUE,,,TRUE,,,,,CLR,,,,,,,,VFR,,,,,,,,,,,,METAR,-4.0
EHQE 241925Z AUTO /////KT 9999 FEW030 16/13 Q1006,EHQE,2022-10-24T19:25:00Z,52.92,4.15,16.0,13.0,,,,6.21,29.704725,,,TRUE,,,,,,,,FEW,3000,,,,,,,VFR,,,,,,,,,,,,METAR,41.0
EHPG 241925Z AUTO 23026KT 9999 FEW013 16/13 Q1006,EHPG,2022-10-24T19:25:00Z,52.37,3.35,16.0,13.0,230,26,,6.21,29.704725,,,TRUE,,,,,,,,FEW,1300,,,,,,,VFR,,,,,,,,,,,,METAR,24.0
EHMG 241925Z AUTO 23027KT 9999 NCD 16/12 Q1006,EHMG,2022-10-24T19:25:00Z,53.62,4.97,16.0,12.0,230,27,,6.21,29.704725,,,TRUE,,,,,,,,CLR,,,,,,,,VFR,,,,,,,,,,,,METAR,30.0
EHMA 241925Z AUTO VRB19KT 9999 NCD 13/12 Q1006,EHMA,2022-10-24T19:25:00Z,53.5,5.95,13.0,12.0,0,19,,6.21,29.704725,,,TRUE,,,,,,,,CLR,,,,,,,,VFR,,,,,,,,,,,,METAR,27.0
EHLW 241925Z AUTO 20008KT 170V230 9999 NCD 12/12 Q1006 BLU,EHLW,2022-10-24T19:25:00Z,53.22,5.75,12.0,12.0,200,8,,6.21,29.704725,,,TRUE,,,,,,,,CLR,,,,,,,,VFR,,,,,,,,,,,,METAR,1.0
EHLE 241925Z AUTO 20007KT 9999 NSC 13/12 Q1007 NOSIG,EHLE,2022-10-24T19:25:00Z,52.45,5.52,13.0,12.0,200,7,,6.21,29.734253,,,TRUE,,,TRUE,,,,,CLR,,,,,,,,VFR,,,,,,,,,,,,METAR,-3.0
EHKV 241925Z AUTO 23024KT 9999 FEW034 16/12 Q1005,EHKV,2022-10-24T19:25:00Z,53.27,3.63,16.0,12.0,230,24,,6.21,29.675198,,,TRUE,,,,,,,,FEW,3400,,,,,,,VFR,,,,,,,,,,,,METAR,28.0
EHJR 241925Z AUTO 22022KT //// // ///////// 16/13 Q1005 RE// W16/H20,EHJR,2022-10-24T19:25:00Z,53.22,3.22,16.0,13.0,220,22,,,29.675198,,,TRUE,,,,,,,,,,,,,,,,,,,,,,,,,,,,METAR,31.0
EHJA 241925Z AUTO 22026KT 9999 NCD 15/12 Q1003,EHJA,2022-10-24T19:25:00Z,53.82,2.95,15.0,12.0,220,26,,6.21,29.616142,,,TRUE,,,,,,,,CLR,,,,,,,,VFR,,,,,,,,,,,,METAR,34.0
EHHW 241925Z AUTO 22023KT 9999 FEW012/// SCT016/// BKN026/// 15/13 Q1005,EHHW,2022-10-24T19:25:00Z,54.03,6.03,15.0,13.0,220,23,,6.21,29.675198,,,TRUE,,,,,,,,FEW,1200,SCT,1600,BKN,2600,,,MVFR,,,,,,,,,,,,METAR,10.0
EHGR 241925Z AUTO 20008KT 180V250 9999 NCD 14/13 Q1009 BLU NOSIG,EHGR,2022-10-24T19:25:00Z,51.55,4.93,14.0,13.0,200,8,,6.21,29.793306,,,TRUE,,,TRUE,,,,,CLR,,,,,,,,VFR,,,,,,,,,,,,METAR,12.0
EHGG 241925Z AUTO 21009KT 9999 NCD 13/11 Q1007 NOSIG,EHGG,2022-10-24T19:25:00Z,53.12,6.57,13.0,11.0,210,9,,6.21,29.734253,,,TRUE,,,TRUE,,,,,CLR,,,,,,,,VFR,,,,,,,,,,,,METAR,2.0
EHFS 241925Z AUTO 21014KT 9999 NSC 14/13 Q1008,EHFS,2022-10-24T19:25:00Z,51.45,3.6,14.0,13.0,210,14,,6.21,29.763779,,,TRUE,,,,,,,,CLR,,,,,,,,VFR,,,,,,,,,,,,METAR,1.0
EHFD 241925Z AUTO 24025KT 9999 FEW023/// 14/13 Q1002,EHFD,2022-10-24T19:25:00Z,54.85,4.7,14.0,13.0,240,25,,6.21,29.586615,,,TRUE,,,,,,,,FEW,2300,,,,,,,VFR,,,,,,,,,,,,METAR,24.0
EHEH 241925Z AUTO 20009KT 9999 FEW033 SCT040 OVC180 14/13 Q1009 BLU NOSIG,EHEH,2022-10-24T19:25:00Z,51.45,5.38,14.0,13.0,200,9,,6.21,29.793306,,,TRUE,,,TRUE,,,,,FEW,3300,SCT,4000,OVC,18000,,,VFR,,,,,,,,,,,,METAR,20.0
EHDV 241925Z AUTO 23022KT 9999 FEW028/// SCT035/// BKN040/// 15/12 Q1002,EHDV,2022-10-24T19:25:00Z,54.32,2.93,15.0,12.0,230,22,,6.21,29.586615,,,TRUE,,,,,,,,FEW,2800,SCT,3500,BKN,4000,,,VFR,,,,,,,,,,,,METAR,36.0
EHDL 241925Z AUTO 20008KT 150V280 9999 FEW015CB BKN065 OVC071 13/12 Q1008 REDZ BLU,EHDL,2022-10-24T19:25:00Z,52.07,5.88,13.0,12.0,200,8,,6.21,29.763779,,,TRUE,,,,,,,,FEW,1500,BKN,6500,OVC,7100,,,VFR,,,,,,,,,,,,METAR,49.0
EHBK 241925Z AUTO 21014KT 9999 TS FEW015CB 15/12 Q1010 TEMPO 4500 TSRA SCT020CB,EHBK,2022-10-24T19:25:00Z,50.92,5.77,15.0,12.0,210,14,,6.21,29.822834,,,TRUE,,,,,,,TS,FEW,1500,,,,,,,VFR,,,,,,,,,,,,METAR,112.0
EHAM 241925Z 20009KT CAVOK 13/12 Q1007 NOSIG,EHAM,2022-10-24T19:25:00Z,52.32,4.78,13.0,12.0,200,9,,6.21,29.734253,,,,,,TRUE,,,,,CAVOK,,,,,,,,VFR,,,,,,,,,,,,METAR,-2.0
EHAK 241925Z AUTO 24026KT 9999 FEW029/// 14/12 Q1000,EHAK,2022-10-24T19:25:00Z,55.38,3.82,14.0,12.0,240,26,,6.21,29.52756,,,TRUE,,,,,,,,FEW,2900,,,,,,,VFR,,,,,,,,,,,,METAR,33.0
EBLB 241925Z AUTO 23008KT 9999 BKN014/// 12/11 Q1012 GRN,EBLB,2022-10-24T19:25:00Z,50.47,6.17,12.0,11.0,230,8,,6.21,29.88189,,,TRUE,,,,,,,,BKN,1400,,,,,,,MVFR,,,,,,,,,,,,SPECI,563.0
EBFS 241925Z 21014KT 9999 FEW020 SCT120 BKN220 13/11 Q1012 BLU BLU TEMPO WHT,EBFS,2022-10-24T19:25:00Z,50.23,4.65,13.0,11.0,210,14,,6.21,29.88189,,,,,,,,,,,FEW,2000,SCT,12000,BKN,22000,,,VFR,,,,,,,,,,,,METAR,276.0
EBFN 241925Z AUTO 22005KT 9999 -RA BKN028/// 14/13 Q1009 BLU,EBFN,2022-10-24T19:25:00Z,51.08,2.65,14.0,13.0,220,5,,6.21,29.793306,,,TRUE,,,,,,,-RA,BKN,2800,,,,,,,MVFR,,,,,,,,,,,,SPECI,9.0
EBDT 241925Z AUTO 23005KT 9999 OVC072/// 13/12 Q1010 BLU,EBDT,2022-10-24T19:25:00Z,51.02,5.07,13.0,12.0,230,5,,6.21,29.822834,,,TRUE,,,,,,,,OVC,7200,,,,,,,VFR,,,,,,,,,,,,SPECI,25.0
EBCV 241925Z AUTO 21009KT 9999 BKN046/// 15/12 Q1010 BLU,EBCV,2022-10-24T19:25:00Z,50.57,3.82,15.0,12.0,210,9,,6.21,29.822834,,,TRUE,,,,,,,,BKN,4600,,,,,,,VFR,,,,,,,,,,,,SPECI,56.0
EBBL 241925Z 21008KT 9999 TSRA BKN040 13/12 Q1010 BLU BLU TEMPO YLO,EBBL,2022-10-24T19:25:00Z,51.17,5.47,13.0,12.0,210,8,,6.21,29.822834,,,,,,,,,,TSRA,BKN,4000,,,,,,,VFR,,,,,,,,,,,,METAR,50.0
EBBE 241925Z 23007KT 9999 FEW030TCU SCT090 14/12 Q1010 BLU BLU,EBBE,2022-10-24T19:25:00Z,50.75,4.77,14.0,12.0,230,7,,6.21,29.822834,,,,,,,,,,,FEW,3000,SCT,9000,,,,,VFR,,,,,,,,,,,,METAR,127.0
CZVL 241925Z AUTO 19004KT 130V200 9SM SCT008 BKN040 01/00 A2960 RMK SLP052,CZVL,2022-10-24T19:25:00Z,53.67,-113.85,1.0,0.0,190,4,,9.0,29.601377,1005.2,,TRUE,,,,,,,,SCT,800,BKN,4000,,,,,VFR,,,,,,,,,,,,SPECI,685.0
CYOJ 241925Z 12003KT 2 1/2SM -SN OVC007 M01/M01 A2964 RMK SC8 SLP062,CYOJ,2022-10-24T19:25:00Z,58.62,-117.17,-1.0,-1.0,120,3,,2.5,29.639763,1006.2,,,,,,,,,-SN,OVC,700,,,,,,,IFR,,,,,,,,,,,,SPECI,339.0
CWPX 241925Z AUTO 36014KT ////SM //// FEW002 BKN060 M19/M21 A2987,CWPX,2022-10-24T19:25:00Z,69.03,-107.82,-19.0,-21.0,360,14,,,29.870079,,,TRUE,,,,,,,,FEW,200,BKN,6000,,,,,,,,,,,,,,,,,SPECI,163.0
PAKI 241924Z AUTO 27006KT 10SM OVC030 01/01 A3009 RMK AO2 FZRANO PNO $,PAKI,2022-10-24T19:24:00Z,59.93,-164.03,1.0,1.0,270,6,,10.0,30.088583,,,TRUE,TRUE,TRUE,,,TRUE,,,OVC,3000,,,,,,,MVFR,,,,,,,,,,,,SPECI,4.0
KROS 241924Z AUTO 21008KT 10SM -DZ SCT060 SCT075 BKN100 15/07 A2962 RMK AO2,KROS,2022-10-24T19:24:00Z,45.7,-92.95,15.0,7.0,210,8,,10.0,29.619095,,,TRUE,TRUE,,,,,,-DZ,SCT,6000,SCT,7500,BKN,10000,,,VFR,,,,,,,,,,,,SPECI,282.0
KLFK 241924Z AUTO 17014G23KT 10SM FEW029 BKN037 OVC070 27/20 A2979 RMK AO2 T02670200,KLFK,2022-10-24T19:24:00Z,31.23,-94.75,26.7,20.0,170,14,23,10.0,29.790354,,,TRUE,TRUE,,,,,,,FEW,2900,BKN,3700,OVC,7000,,,VFR,,,,,,,,,,,,SPECI,87.0
KBOK 241924Z AUTO 15005KT 3SM -RA BR OVC003 09/09 A3026 RMK AO2 CIG 002V007 P0000 $,KBOK,2022-10-24T19:24:00Z,42.07,-124.28,9.0,9.0,150,5,,3.0,30.259842,,,TRUE,TRUE,TRUE,,,,,-RA BR,OVC,300,,,,,,,LIFR,,,,,,0.005,,,,,,SPECI,140.0
KBML 241924Z AUTO 35003KT 10SM FEW018 OVC090 17/13 A3024 RMK AO2 T01720128,KBML,2022-10-24T19:24:00Z,44.58,-71.18,17.2,12.8,350,3,,10.0,30.239174,,,TRUE,TRUE,,,,,,,FEW,1800,OVC,9000,,,,,VFR,,,,,,,,,,,,SPECI,344.0
K4MR 241924Z AUTO 00000KT 10SM FEW017 SCT028 BKN037 BKN047 OVC055 10/06 A2975 RMK AO2 RAB09E18DZB18E24 SLP023 $,K4MR,2022-10-24T19:24:00Z,34.3,-103.8,10.0,6.0,0,0,,10.0,29.749016,1002.3,,TRUE,TRUE,TRUE,,,,,,FEW,1700,SCT,2800,BKN,3700,BKN,4700,VFR,,,,,,,,,,,,SPECI,1339.0
CYER 241924Z AUTO 08020G31KT 2 1/2SM RA BR BKN008 OVC014 03/03 A2965 RMK PCPN 3.2MM PAST HR SLP045,CYER,2022-10-24T19:24:00Z,56.02,-87.68,3.0,3.0,80,20,31,2.5,29.648623,1004.5,,TRUE,,,,,,,RA BR,BKN,800,OVC,1400,,,,,IFR,,,,,,,,,,,,SPECI,11.0
NLWW 241923Z 14010KT 100V170 9999 SCT013 BKN023 BKN033 26/24 Q1010 TEMPO 4000 SHRA FEW020CB,NLWW,2022-10-24T19:23:00Z,-13.23,-176.18,26.0,24.0,140,10,,6.21,29.822834,,,,,,,,,,,SCT,1300,BKN,2300,BKN,3300,,,MVFR,,,,,,,,,,,,METAR,24.0
KSFY 241923Z AUTO 16012KT 10SM OVC050 22/13 A2973 RMK AO2,KSFY,2022-10-24T19:23:00Z,42.05,-90.12,22.0,13.0,160,12,,10.0,29.731298,,,TRUE,TRUE,,,,,,,OVC,5000,,,,,,,VFR,,,,,,,,,,,,SPECI,188.0
KPTW 241923Z AUTO 03004KT 2 1/2SM BR OVC006 13/13 A3015 RMK AO2 T01330133,KPTW,2022-10-24T19:23:00Z,40.23,-75.55,13.3,13.3,30,4,,2.5,30.15059,,,TRUE,TRUE,,,,,,BR,OVC,600,,,,,,,IFR,,,,,,,,,,,,SPECI,88.0
CZSJ 241923Z AUTO 08007KT 040V120 9SM -RA OVC003 05/05 A2920 RMK SLP900,CZSJ,2022-10-24T19:23:00Z,53.07,-93.35,5.0,5.0,80,7,,9.0,29.199802,990.0,,TRUE,,,,,,,-RA,OVC,300,,,,,,,LIFR,,,,,,,,,,,,SPECI,286.0
PASM 241922Z AUTO 23005KT 10SM OVC029 M01/M01 A3002 RMK AO2 FZRANO,PASM,2022-10-24T19:22:00Z,62.07,-163.3,-1.0,-1.0,230,5,,10.0,30.02067,,,TRUE,TRUE,,,,TRUE,,,OVC,2900,,,,,,,MVFR,,,,,,,,,,,,SPECI,108.0
PASL 241922Z AUTO 00000KT 1SM UP BR OVC016 M01/M02 A2999 RMK AO2 VIS 1/2V1 3/4 UPB05SNE05B09E20 P0001 FZRANO,PASL,2022-10-24T19:22:00Z,61.68,-157.15,-1.0,-2.0,0,0,,1.0,29.991142,,,TRUE,TRUE,,,,TRUE,,BR UP,OVC,1600,,,,,,,IFR,,,,,,0.01,,,,,,SPECI,64.0
KSFM 241922Z AUTO 03004KT 10SM -RA 14/13 A3025 RMK AO2 TSB07E22 P0001,KSFM,2022-10-24T19:22:00Z,43.38,-70.72,14.0,13.0,30,4,,10.0,30.250984,,,TRUE,TRUE,,,,,,-RA,,,,,,,,,,,,,,,0.01,,,,,,SPECI,70.0
KQD3 241922Z AUTO 07006KT 9999 FEW020 SCT024 29/24 A2992 RMK AO2 SHRAE04RAB04E06 SLP116 WND DATA ESTMD,KQD3,2022-10-24T19:22:00Z,,,29.0,24.0,70,6,,6.21,29.920275,1011.6,,TRUE,TRUE,,,,,,,FEW,2000,SCT,2400,,,,,VFR,,,,,,,,,,,,SPECI,
KOKC 241922Z 34010KT 10SM SCT010 BKN017 BKN120 14/12 A2975 RMK AO2 T01390122,KOKC,2022-10-24T19:22:00Z,35.38,-97.6,13.9,12.2,340,10,,10.0,29.749016,,,,TRUE,,,,,,,SCT,1000,BKN,1700,BKN,12000,,,MVFR,,,,,,,,,,,,SPECI,391.0
KILE 241922Z AUTO 31008KT 10SM FEW004 BKN019 OVC028 19/18 A2975 RMK AO2,KILE,2022-10-24T19:22:00Z,31.08,-97.68,19.0,18.0,310,8,,10.0,29.749016,,,TRUE,TRUE,,,,,,,FEW,400,BKN,1900,OVC,2800,,,MVFR,,,,,,,,,,,,SPECI,256.0
KFOE 241922Z 35007KT 6SM -RA BR SCT006 BKN010 OVC085 11/11 A2973 RMK AO2 P0003 T01060106,KFOE,2022-10-24T19:22:00Z,38.93,-95.65,10.6,10.6,350,7,,6.0,29.731298,,,,TRUE,,,,,,-RA BR,SCT,600,BKN,1000,OVC,8500,,,MVFR,,,,,,0.03,,,,,,SPECI,315.0
KBDE 241922Z AUTO 20023G36KT 10SM OVC032 11/04 A2934 RMK AO2 PK WND 20037/1905 T01110044,KBDE,2022-10-24T19:22:00Z,48.73,-94.62,11.1,4.4,200,23,36,10.0,29.338583,,,TRUE,TRUE,,,,,,,OVC,3200,,,,,,,VFR,,,,,,,,,,,,SPECI,330.0
CYXL 241922Z 17014G22KT 15SM FEW019 SCT030 SCT070 BKN200 18/15 A2929 RMK SC1SC2AC1CS2 TCU EMBD SLP924 DENSITY ALT 2600FT,CYXL,2022-10-24T19:22:00Z,50.12,-91.9,18.0,15.0,170,14,22,15.0,29.291338,992.4,,,,,,,,,,FEW,1900,SCT,3000,SCT,7000,BKN,20000,VFR,,,,,,,,,,,,SPECI,381.0
CYPG 241922Z 31016G31KT 3SM -SHRA BR OVC009 04/03 A2923 RMK SF8 SLP908,CYPG,2022-10-24T19:22:00Z,49.9,-98.28,4.0,3.0,310,16,31,3.0,29.22933,990.8,,,,,,,,,-SHRA BR,OVC,900,,,,,,,IFR,,,,,,,,,,,,SPECI,270.0
PASK 241921Z AUTO 14009KT 3SM -SN BR OVC018 M02/M03 A2990 RMK AO2 P0000 FZRANO,PASK,2022-10-24T19:21:00Z,66.6,-160.0,-2.0,-3.0,140,9,,3.0,29.899607,,,TRUE,TRUE,,,,TRUE,,-SN BR,OVC,1800,,,,,,,MVFR,,,,,,0.005,,,,,,SPECI,3.0
KROG 241921Z 10SM -RA OVC016 18/18 A2971 RMK AO2 RAB20 P0000 $,KROG,2022-10-24T19:21:00Z,36.37,-94.1,18.0,18.0,,,,10.0,29.71063,,,,TRUE,TRUE,,,,,-RA,OVC,1600,,,,,,,MVFR,,,,,,0.005,,,,,,SPECI,407.0
KOTH 241921Z 24017G22KT 2SM -RA BR FEW008 OVC017 12/12 A3020 RMK AO2 P0000,KOTH,2022-10-24T19:21:00Z,43.42,-124.25,12.0,12.0,240,17,22,2.0,30.200787,,,,TRUE,,,,,,-RA BR,FEW,800,OVC,1700,,,,,IFR,,,,,,0.005,,,,,,SPECI,3.0
KEVM 241921Z AUTO 22020G26KT 10SM CLR 15/07 A2948 RMK AO2,KEVM,2022-10-24T19:21:00Z,47.42,-92.5,15.0,7.0,220,20,26,10.0,29.480314,,,TRUE,TRUE,,,,,,,CLR,,,,,,,,VFR,,,,,,,,,,,,SPECI,419.0
KEKQ 241921Z AUTO 14007KT 10SM CLR 26/05 A3007 RMK AO2,KEKQ,2022-10-24T19:21:00Z,36.85,-84.85,26.0,5.0,140,7,,10.0,30.070866,,,TRUE,TRUE,,,,,,,CLR,,,,,,,,VFR,,,,,,,,,,,,SPECI,291.0
KDMO 241921Z AUTO 16011KT 2 1/2SM RA BR BKN009 BKN024 OVC035 19/18 A2969 RMK AO2 P0017 T01940178,KDMO,2022-10-24T19:21:00Z,38.72,-93.17,19.4,17.8,160,11,,2.5,29.68996,,,TRUE,TRUE,,,,,,RA BR,BKN,900,BKN,2400,OVC,3500,,,IFR,,,,,,0.17,,,,,,SPECI,271.0
KDFW 241921Z 15005KT 4SM -RA BR FEW008 BKN045 OVC060 17/16 A2972 RMK AO2 RAB1858 P0011 T01720161,KDFW,2022-10-24T19:21:00Z,32.9,-97.02,17.2,16.1,150,5,,4.0,29.719488,,,,TRUE,,,,,,-RA BR,FEW,800,BKN,4500,OVC,6000,,,MVFR,,,,,,0.11,,,,,,SPECI,168.0
EGXW 241921Z 23009KT 9999 FEW028 12/11 Q1004 NOSIG RMK BLU BLU,EGXW,2022-10-24T19:21:00Z,53.18,-0.52,12.0,11.0,230,9,,6.21,29.64567,,,,,,TRUE,,,,,FEW,2800,,,,,,,VFR,,,,,,,,,,,,METAR,70.0
CYET 241921Z AUTO VRB02KT 9SM OVC044 03/03 A2957 RMK SLP044,CYET,2022-10-24T19:21:00Z,53.57,-116.47,3.0,3.0,0,2,,9.0,29.568897,1004.4,,TRUE,,,,,,,,OVC,4400,,,,,,,VFR,,,,,,,,,,,,SPECI,925.0
CYEG 241921Z 00000KT 5SM -SN BKN020 OVC060 01/M01 A2960 RMK SC6SC2 SLP058,CYEG,2022-10-24T19:21:00Z,53.3,-113.58,1.0,-1.0,0,0,,5.0,29.601377,1005.8,,,,,,,,,-SN,BKN,2000,OVC,6000,,,,,MVFR,,,,,,,,,,,,SPECI,710.0
PKWA 241920Z AUTO 07009KT 10SM CLR 27/24 A2988 RMK AO2 T02660240,PKWA,2022-10-24T19:20:00Z,8.72,167.72,26.6,24.0,70,9,,10.0,29.878937,,,TRUE,TRUE,,,,,,,CLR,,,,,,,,VFR,,,,,,,,,,,,METAR,6.0
PAUN 241920Z AUTO 07009KT 9SM -SN SCT011 BKN017 OVC060 M02/M03 A2994 RMK AO2 P0000 FZRANO,PAUN,2022-10-24T19:20:00Z,63.88,-160.8,-2.0,-3.0,70,9,,9.0,29.940945,,,TRUE,TRUE,,,,TRUE,,-SN,SCT,1100,BKN,1700,OVC,6000,,,MVFR,,,,,,0.005,,,,,,SPECI,4.0
LXGB 241920Z 00000KT CAVOK 20/18 Q1017 TEMPO 7000 HZ,LXGB,2022-10-24T19:20:00Z,36.15,-5.33,20.0,18.0,0,0,,6.21,30.029528,,,,,,,,,,,CAVOK,,,,,,,,VFR,,,,,,,,,,,,SPECI,5.0
LTFM 241920Z 19005KT CAVOK 14/10 Q1022 NOSIG RMK RWY17L 19007KT RWY34L 17004KT 100V190 RWY16R 17005KT RWY36 18005KT RWY18 19006KT,LTFM,2022-10-24T19:20:00Z,41.27,28.75,14.0,10.0,190,5,,6.21,30.177166,,,,,,TRUE,,,,,CAVOK,,,,,,,,VFR,,,,,,,,,,,,METAR,99.0
LTFJ 241920Z 00000KT CAVOK 17/12 Q1021 NOSIG RMK RWY24 00000KT,LTFJ,2022-10-24T19:20:00Z,40.9,29.3,17.0,12.0,0,0,,6.21,30.147638,,,,,,TRUE,,,,,CAVOK,,,,,,,,VFR,,,,,,,,,,,,SPECI,83.0
LTFE 241920Z 18005KT 120V190 CAVOK 17/07 Q1018 NOSIG RMK RWY10 VRB02KT,LTFE,2022-10-24T19:20:00Z,37.25,27.67,17.0,7.0,180,5,,6.21,30.059055,,,,,,TRUE,,,,,CAVOK,,,,,,,,VFR,,,,,,,,,,,,SPECI,6.0
LTFC 241920Z 01006KT CAVOK 12/02 Q1022 RMK RWY23 01006KT,LTFC,2022-10-24T19:20:00Z,37.87,30.38,12.0,2.0,10,6,,6.21,30.177166,,,,,,,,,,,CAVOK,,,,,,,,VFR,,,,,,,,,,,,SPECI,862.0
LTCS 241920Z 34005KT CAVOK 16/M02 Q1020 RMK RWY22 31002KT SKC,LTCS,2022-10-24T19:20:00Z,37.45,38.9,16.0,-2.0,340,5,,6.21,30.11811,,,,,,,,,,,CAVOK,,,,,,,,VFR,,,,,,,,,,,,METAR,825.0
LTCJ 241920Z 05003KT CAVOK 11/09 Q1018 NOSIG RMK RWY20 00000KT SKC,LTCJ,2022-10-24T19:20:00Z,37.93,41.12,11.0,9.0,50,3,,6.21,30.059055,,,,,,TRUE,,,,,CAVOK,,,,,,,,VFR,,,,,,,,,,,,SPECI,559.0
LTCG 241920Z 23007KT 150V260 9999 BKN035 17/10 Q1024 NOSIG RMK RWY29 23006KT 210V330,LTCG,2022-10-24T19:20:00Z,41.0,39.77,17.0,10.0,230,7,,6.21,30.236221,,,,,,TRUE,,,,,BKN,3500,,,,,,,VFR,,,,,,,,,,,,SPECI,28.0
LTCE 241920Z 27006KT CAVOK 04/M02 Q1024 NOSIG RMK RWY08R 28006KT RWY26R 27008KT RWY08L 30004KT SKC,LTCE,2022-10-24T19:20:00Z,39.95,41.17,4.0,-2.0,270,6,,6.21,30.236221,,,,,,TRUE,,,,,CAVOK,,,,,,,,VFR,,,,,,,,,,,,SPECI,1758.0
LTCC 241920Z 29003KT 210V310 CAVOK 12/03 Q1019 NOSIG RMK RWY16 31005KT 270V350 SKC,LTCC,2022-10-24T19:20:00Z,37.88,40.2,12.0,3.0,290,3,,6.21,30.088583,,,,,,TRUE,,,,,CAVOK,,,,,,,,VFR,,,,,,,,,,,,SPECI,676.0
LTBU 241920Z 00000KT CAVOK 11/07 Q1021 RMK RWY22 23003KT,LTBU,2022-10-24T19:20:00Z,41.13,27.92,11.0,7.0,0,0,,6.21,30.147638,,,,,,,,,,,CAVOK,,,,,,,,VFR,,,,,,,,,,,,SPECI,165.0
LTBS 241920Z 03004KT CAVOK 14/11 Q1017 NOSIG RMK RWY19 35004KT SKC,LTBS,2022-10-24T19:20:00Z,36.7,28.78,14.0,11.0,30,4,,6.21,30.029528,,,,,,TRUE,,,,,CAVOK,,,,,,,,VFR,,,,,,,,,,,,SPECI,2.0
LTBR 241920Z 03003KT CAVOK 09/07 Q1022 NOSIG RMK RWY07 VRB01KT,LTBR,2022-10-24T19:20:00Z,40.25,29.57,9.0,7.0,30,3,,6.21,30.177166,,,,,,TRUE,,,,,CAVOK,,,,,,,,VFR,,,,,,,,,,,,SPECI,233.0
LTBJ 241920Z VRB06KT CAVOK 20/07 Q1019 NOSIG RMK RWY16 36012KT,LTBJ,2022-10-24T19:20:00Z,38.28,27.15,20.0,7.0,0,6,,6.21,30.088583,,,,,,TRUE,,,,,CAVOK,,,,,,,,VFR,,,,,,,,,,,,SPECI,123.0
LTAZ 241920Z 13004KT CAVOK 08/M00 Q1024 RMK RWY29 VRB03KT,LTAZ,2022-10-24T19:20:00Z,38.77,34.52,8.0,0.0,130,4,,6.21,30.236221,,,,,,,,,,,CAVOK,,,,,,,,VFR,,,,,,,,,,,,SPECI,944.0
LTAU 241920Z 07002KT CAVOK 05/02 Q1024 NOSIG RMK RWY07 06004KT 020V090,LTAU,2022-10-24T19:20:00Z,38.77,35.48,5.0,2.0,70,2,,6.21,30.236221,,,,,,TRUE,,,,,CAVOK,,,,,,,,VFR,,,,,,,,,,,,SPECI,1053.0
LTAT 241920Z 27006KT CAVOK 15/00 Q1022 NOSIG RMK RWY03 29007KT,LTAT,2022-10-24T19:20:00Z,38.43,38.08,15.0,0.0,270,6,,6.21,30.177166,,,,,,TRUE,,,,,CAVOK,,,,,,,,VFR,,,,,,,,,,,,SPECI,850.0
LTAP 241920Z 36008KT 9999 FEW040 12/08 Q1023 NOSIG RMK RWY23 36008KT,LTAP,2022-10-24T19:20:00Z,40.83,35.52,12.0,8.0,360,8,,6.21,30.206694,,,,,,TRUE,,,,,FEW,4000,,,,,,,VFR,,,,,,,,,,,,SPECI,536.0
LTAJ 241920Z VRB02KT CAVOK 13/05 Q1019 NOSIG RMK RWY10 27005KT SKC,LTAJ,2022-10-24T19:20:00Z,36.95,37.48,13.0,5.0,0,2,,6.21,30.088583,,,,,,TRUE,,,,,CAVOK,,,,,,,,VFR,,,,,,,,,,,,SPECI,684.0
LTAI 241920Z 35005KT CAVOK 17/13 Q1018 NOSIG RMK RWY18C VRB05KT RWY36R 35004KT RWY18L 32003KT,LTAI,2022-10-24T19:20:00Z,36.9,30.8,17.0,13.0,350,5,,6.21,30.059055,,,,,,TRUE,,,,,CAVOK,,,,,,,,VFR,,,,,,,,,,,,SPECI,50.0
LTAG 241920Z 05003KT CAVOK 16/05 Q1016 NOSIG RMK SKC,LTAG,2022-10-24T19:20:00Z,37.0,35.42,16.0,5.0,50,3,,6.21,30.0,,,,,,TRUE,,,,,CAVOK,,,,,,,,VFR,,,,,,,,,,,,SPECI,62.0
LTAF 241920Z 04003KT CAVOK 18/10 Q1017 NOSIG RMK RWY23 05003KT SKC,LTAF,2022-10-24T19:20:00Z,36.98,35.28,18.0,10.0,40,3,,6.21,30.029528,,,,,,TRUE,,,,,CAVOK,,,,,,,,VFR,,,,,,,,,,,,SPECI,19.0
LTAC 241920Z 00000KT CAVOK 08/03 Q1024 NOSIG RMK RWY21L 04003KT RWY03L VRB01KT RWY21R 06002KT,LTAC,2022-10-24T19:20:00Z,40.12,32.98,8.0,3.0,0,0,,6.21,30.236221,,,,,,TRUE,,,,,CAVOK,,,,,,,,VFR,,,,,,,,,,,,SPECI,952.0
LSZS 241920Z AUTO VRB02KT 9999 RA SCT005 OVC017 SCT///CB 06/05 Q1022,LSZS,2022-10-24T19:20:00Z,46.53,9.88,6.0,5.0,0,2,,6.21,30.177166,,,TRUE,,,,,,,RA,SCT,500,OVC,1700,,,,,MVFR,,,,,,,,,,,,SPECI,1708.0
LSZR 241920Z AUTO 19003KT 090V270 9999 FEW090 14/10 Q1018,LSZR,2022-10-24T19:20:00Z,47.48,9.57,14.0,10.0,190,3,,6.21,30.059055,,,TRUE,,,,,,,,FEW,9000,,,,,,,VFR,,,,,,,,,,,,METAR,396.0
LSZL 241920Z AUTO VRB02KT 3900NDV BR FEW012 SCT014 BKN016 16/16 Q1017 RMK,LSZL,2022-10-24T19:20:00Z,46.17,8.88,16.0,16.0,0,2,,,30.029528,,,TRUE,,,,,,,BR,FEW,1200,SCT,1400,BKN,1600,,,,,,,,,,,,,,,SPECI,198.0
LSZH 241920Z VRB02KT CAVOK 11/09 Q1019 NOSIG,LSZH,2022-10-24T19:20:00Z,47.48,8.53,11.0,9.0,0,2,,6.21,30.088583,,,,,,TRUE,,,,,CAVOK,,,,,,,,VFR,,,,,,,,,,,,METAR,424.0
LSZG 241920Z AUTO VRB01KT 0150 FG VV001 11/11 Q1019,LSZG,2022-10-24T19:20:00Z,47.17,7.42,11.0,11.0,0,1,,0.09,30.088583,,,TRUE,,,,,,,FG,OVX,0,,,,,,,LIFR,,,,,,,,,,,100,METAR,428.0
LSZC 241920Z AUTO VRB02KT 9999 NCD 13/11 Q1019,LSZC,2022-10-24T19:20:00Z,46.97,8.38,13.0,11.0,0,2,,6.21,30.088583,,,TRUE,,,,,,,,CLR,,,,,,,,VFR,,,,,,,,,,,,METAR,445.0
LSZB 241920Z AUTO VRB01KT 9999 R14/0600D FG FEW001 SCT100 10/09 Q1019,LSZB,2022-10-24T19:20:00Z,46.92,7.5,10.0,9.0,0,1,,6.21,30.088583,,,TRUE,,,,,,,FG,FEW,100,SCT,10000,,,,,VFR,,,,,,,,,,,,SPECI,510.0
LSZA 241920Z AUTO VRB01KT 1200 -TSRA SCT006 SCT008 SCT///CB 17/17 Q1017 RERA,LSZA,2022-10-24T19:20:00Z,46.0,8.92,17.0,17.0,0,1,,0.75,30.029528,,,TRUE,,,,,,,-TSRA,SCT,600,SCT,800,,,,,LIFR,,,,,,,,,,,,SPECI,276.0
LSMP 241920Z AUTO VRB01KT 0500NDV R23/1000VP2000U R05/0500N FG FEW001 12/11 Q1019 RMK,LSMP,2022-10-24T19:20:00Z,46.83,6.92,12.0,11.0,0,1,,0.31,30.088583,,,TRUE,,,,,,,FG,FEW,100,,,,,,,LIFR,,,,,,,,,,,,METAR,490.0
LSMM 241920Z AUTO 00000KT 1300NDV R10/1000VP2000D R28/P2000N SCT002 BKN110 11/11 Q1020 RMK,LSMM,2022-10-24T19:20:00Z,46.75,8.12,11.0,11.0,0,0,,1.24,30.11811,,,TRUE,,,,,,,,SCT,200,BKN,11000,,,,,IFR,,,,,,,,,,,,METAR,570.0
LSME 241920Z AUTO VRB02KT 9999NDV SCT085 SCT110 11/11 Q1019 RMK,LSME,2022-10-24T19:20:00Z,47.1,8.3,11.0,11.0,0,2,,,30.088583,,,TRUE,,,,,,,,SCT,8500,SCT,11000,,,,,,,,,,,,,,,,,METAR,427.0
LSMD 241920Z AUTO 00000KT 1400NDV R11/1000VP2000U R29/P2000N FEW087 11/10 Q1019 RMK,LSMD,2022-10-24T19:20:00Z,47.4,8.65,11.0,10.0,0,0,,1.24,30.088583,,,TRUE,,,,,,,,FEW,8700,,,,,,,IFR,,,,,,,,,,,,METAR,436.0
LSMA 241920Z AUTO VRB01KT 9999NDV SCT079 SCT110 12/10 Q1019 RMK,LSMA,2022-10-24T19:20:00Z,46.95,8.28,12.0,10.0,0,1,,,30.088583,,,TRUE,,,,,,,,SCT,7900,SCT,11000,,,,,,,,,,,,,,,,,METAR,441.0
LSGS 241920Z AUTO 34001KT CAVOK 13/12 Q1021,LSGS,2022-10-24T19:20:00Z,46.22,7.32,13.0,12.0,340,1,,6.21,30.147638,,,TRUE,,,,,,,,CAVOK,,,,,,,,VFR,,,,,,,,,,,,METAR,482.0
LSGG 241920Z 34002KT 7000 R04/P2000N R22/0900D BCFG FEW004 SCT007 12/12 Q1020 BECMG 0800 FG BKN007,LSGG,2022-10-24T19:20:00Z,46.25,6.12,12.0,12.0,340,2,,4.35,30.11811,,,,,,,,,,BCFG,FEW,400,SCT,700,,,,,MVFR,,,,,,,,,,,,SPECI,411.0
LSGC 241920Z AUTO VRB01KT 9999 //////TCU 08/08 Q1019,LSGC,2022-10-24T19:20:00Z,47.08,6.8,8.0,8.0,0,1,,6.21,30.088583,,,TRUE,,,,,,,,,,,,,,,,,,,,,,,,,,,,SPECI,1018.0
LOWW 241920Z 31007KT 9999 -SHRA FEW006 BKN010 FEW030TCU 15/14 Q1018 RESHRA TEMPO SHRA BKN006,LOWW,2022-10-24T19:20:00Z,48.12,16.57,15.0,14.0,310,7,,6.21,30.059055,,,,,,,,,,-SHRA,FEW,600,BKN,1000,FEW,3000,,,MVFR,,,,,,,,,,,,SPECI,179.0
LOWS 241920Z AUTO 15011KT 9999 FEW080 BKN110 12/10 Q1019 NOSIG,LOWS,2022-10-24T19:20:00Z,47.78,13.02,12.0,10.0,150,11,,6.21,30.088583,,,TRUE,,,TRUE,,,,,FEW,8000,BKN,11000,,,,,VFR,,,,,,,,,,,,METAR,427.0
LOWL 241920Z AUTO 27004KT CAVOK 13/13 Q1018 NOSIG,LOWL,2022-10-24T19:20:00Z,48.22,14.18,13.0,13.0,270,4,,6.21,30.059055,,,TRUE,,,TRUE,,,,,CAVOK,,,,,,,,VFR,,,,,,,,,,,,METAR,290.0
LOWK 241920Z AUTO 24005KT 210V290 9999 RA FEW015 BKN065 13/12 Q1021 TEMPO -RA,LOWK,2022-10-24T19:20:00Z,46.65,14.32,13.0,12.0,240,5,,6.21,30.147638,,,TRUE,,,,,,,RA,FEW,1500,BKN,6500,,,,,VFR,,,,,,,,,,,,SPECI,450.0
LOWI 241920Z 33002KT 9999 FEW004 SCT015 BKN090 11/11 Q1021 TEMPO BKN008,LOWI,2022-10-24T19:20:00Z,47.27,11.33,11.0,11.0,330,2,,6.21,30.147638,,,,,,,,,,,FEW,400,SCT,1500,BKN,9000,,,VFR,,,,,,,,,,,,SPECI,570.0
LOWG 241920Z 30003KT 250V330 9999 RA OVC080 14/13 Q1018 TEMPO -RA,LOWG,2022-10-24T19:20:00Z,47.0,15.43,14.0,13.0,300,3,,6.21,30.059055,,,,,,,,,,RA,OVC,8000,,,,,,,VFR,,,,,,,,,,,,SPECI,337.0
LLBG 241920Z VRB03KT CAVOK 22/17 Q1014 NOSIG,LLBG,2022-10-24T19:20:00Z,32.0,34.88,22.0,17.0,0,3,,6.21,29.940945,,,,,,TRUE,,,,,CAVOK,,,,,,,,VFR,,,,,,,,,,,,METAR,35.0
LIRZ 241920Z AUTO 20006KT 9999 NCD 19/16 Q1021,LIRZ,2022-10-24T19:20:00Z,43.1,12.5,19.0,16.0,200,6,,6.21,30.147638,,,TRUE,,,,,,,,CLR,,,,,,,,VFR,,,,,,,,,,,,METAR,206.0
LIRQ 241920Z 15005KT CAVOK 21/16 Q1019,LIRQ,2022-10-24T19:20:00Z,43.8,11.2,21.0,16.0,150,5,,6.21,30.088583,,,,,,,,,,,CAVOK,,,,,,,,VFR,,,,,,,,,,,,METAR,33.0
LIRN 241920Z 23003KT 9000 FEW020 19/18 Q1023 NOSIG,LIRN,2022-10-24T19:20:00Z,40.88,14.3,19.0,18.0,230,3,,5.59,30.206694,,,,,,TRUE,,,,,FEW,2000,,,,,,,VFR,,,,,,,,,,,,METAR,76.0
LIRF 241920Z 10003KT CAVOK 19/18 Q1022 NOSIG,LIRF,2022-10-24T19:20:00Z,41.78,12.23,19.0,18.0,100,3,,6.21,30.177166,,,,,,TRUE,,,,,CAVOK,,,,,,,,VFR,,,,,,,,,,,,METAR,2.0
LIRA 241920Z 16006KT CAVOK 19/15 Q1022,LIRA,2022-10-24T19:20:00Z,41.8,12.58,19.0,15.0,160,6,,6.21,30.177166,,,,,,,,,,,CAVOK,,,,,,,,VFR,,,,,,,,,,,,METAR,101.0
LIPZ 241920Z 17007KT 9000 NSC 20/18 Q1017 NOSIG,LIPZ,2022-10-24T19:20:00Z,45.5,12.35,20.0,18.0,170,7,,5.59,30.029528,,,,,,TRUE,,,,,CLR,,,,,,,,VFR,,,,,,,,,,,,METAR,3.0
LIPY 241920Z AUTO 18003KT 140V240 9999 FEW190/// 17/15 Q1018,LIPY,2022-10-24T19:20:00Z,43.62,13.37,17.0,15.0,180,3,,6.21,30.059055,,,TRUE,,,,,,,,FEW,19000,,,,,,,VFR,,,,,,,,,,,,METAR,11.0
LIPX 241920Z 05003KT 030V090 CAVOK 17/15 Q1017,LIPX,2022-10-24T19:20:00Z,45.38,10.87,17.0,15.0,50,3,,6.21,30.029528,,,,,,,,,,,CAVOK,,,,,,,,VFR,,,,,,,,,,,,METAR,67.0
LIPR 241920Z AUTO 18006KT 9999 FEW140/// 22/14 Q1018,LIPR,2022-10-24T19:20:00Z,44.02,12.62,22.0,14.0,180,6,,6.21,30.059055,,,TRUE,,,,,,,,FEW,14000,,,,,,,VFR,,,,,,,,,,,,METAR,10.0
LIPQ 241920Z AUTO 14004KT 9999 SCT067/// 18/16 Q1018,LIPQ,2022-10-24T19:20:00Z,45.82,13.47,18.0,16.0,140,4,,6.21,30.059055,,,TRUE,,,,,,,,SCT,6700,,,,,,,VFR,,,,,,,,,,,,METAR,6.0
LIPO 241920Z AUTO 03006KT 9999 NCD 19/16 Q1016,LIPO,2022-10-24T19:20:00Z,45.42,10.33,19.0,16.0,30,6,,6.21,30.0,,,TRUE,,,,,,,,CLR,,,,,,,,VFR,,,,,,,,,,,,METAR,104.0
LIPH 241920Z 05004KT 9999 SCT010 19/18 Q1017,LIPH,2022-10-24T19:20:00Z,45.63,12.18,19.0,18.0,50,4,,6.21,30.029528,,,,,,,,,,,SCT,1000,,,,,,,VFR,,,,,,,,,,,,METAR,10.0
LIPE 241920Z 16007KT CAVOK 23/14 Q1017,LIPE,2022-10-24T19:20:00Z,44.52,11.3,23.0,14.0,160,7,,6.21,30.029528,,,,,,,,,,,CAVOK,,,,,,,,VFR,,,,,,,,,,,,METAR,37.0
LIMZ 241920Z AUTO 27003KT 4500 BR SCT013/// 15/15 Q1017,LIMZ,2022-10-24T19:20:00Z,44.53,7.62,15.0,15.0,270,3,,2.8,30.029528,,,TRUE,,,,,,,BR,SCT,1300,,,,,,,IFR,,,,,,,,,,,,METAR,377.0
LIML 241920Z VRB06KT 9999 SCT045 21/16 Q1016 NOSIG,LIML,2022-10-24T19:20:00Z,45.47,9.27,21.0,16.0,0,6,,6.21,30.0,,,,,,TRUE,,,,,SCT,4500,,,,,,,VFR,,,,,,,,,,,,METAR,109.0
LIMJ 241920Z 13016KT 8000 SCT007 BKN020 21/20 Q1017,LIMJ,2022-10-24T19:20:00Z,44.42,8.83,21.0,20.0,130,16,,4.97,30.029528,,,,,,,,,,,SCT,700,BKN,2000,,,,,MVFR,,,,,,,,,,,,METAR,3.0
LIMF 241920Z 04002KT 2500 BR SCT010 BKN030 17/17 Q1017,LIMF,2022-10-24T19:20:00Z,45.22,7.65,17.0,17.0,40,2,,1.55,30.029528,,,,,,,,,,BR,SCT,1000,BKN,3000,,,,,IFR,,,,,,,,,,,,METAR,295.0
LIME 241920Z 03003KT 360V060 9999 BKN050 20/16 Q1016 NOSIG,LIME,2022-10-24T19:20:00Z,45.67,9.7,20.0,16.0,30,3,,6.21,30.0,,,,,,TRUE,,,,,BKN,5000,,,,,,,VFR,,,,,,,,,,,,METAR,239.0
LIMC 241920Z 34005KT 6000 BKN050 18/17 Q1017 NOSIG,LIMC,2022-10-24T19:20:00Z,45.62,8.72,18.0,17.0,340,5,,3.73,30.029528,,,,,,TRUE,,,,,BKN,5000,,,,,,,MVFR,,,,,,,,,,,,METAR,221.0
LIEO 241920Z VRB02KT CAVOK 18/17 Q1020,LIEO,2022-10-24T19:20:00Z,40.88,9.52,18.0,17.0,0,2,,6.21,30.11811,,,,,,,,,,,CAVOK,,,,,,,,VFR,,,,,,,,,,,,METAR,8.0
LIEE 241920Z AUTO 34003KT 9999 NCD 19/18 Q1020,LIEE,2022-10-24T19:20:00Z,39.25,9.07,19.0,18.0,340,3,,6.21,30.11811,,,TRUE,,,,,,,,CLR,,,,,,,,VFR,,,,,,,,,,,,METAR,1.0
LIEA 241920Z 21007KT CAVOK 22/20 Q1020,LIEA,2022-10-24T19:20:00Z,40.62,8.28,22.0,20.0,210,7,,6.21,30.11811,,,,,,,,,,,CAVOK,,,,,,,,VFR,,,,,,,,,,,,METAR,22.0
LICR 241920Z AUTO 35014KT 9999 NCD 20/18 Q1022,LICR,2022-10-24T19:20:00Z,38.07,15.65,20.0,18.0,350,14,,6.21,30.177166,,,TRUE,,,,,,,,CLR,,,,,,,,VFR,,,,,,,,,,,,METAR,16.0
LICJ 241920Z VRB02KT CAVOK 22/14 Q1022,LICJ,2022-10-24T19:20:00Z,38.17,13.08,22.0,14.0,0,2,,6.21,30.177166,,,,,,,,,,,CAVOK,,,,,,,,VFR,,,,,,,,,,,,METAR,20.0
LICD 241920Z AUTO 20008KT 9999 NCD 24/21 Q1023,LICD,2022-10-24T19:20:00Z,35.5,12.62,24.0,21.0,200,8,,6.21,30.206694,,,TRUE,,,,,,,,CLR,,,,,,,,VFR,,,,,,,,,,,,METAR,20.0
LICC 241920Z 27010KT CAVOK 21/18 Q1022,LICC,2022-10-24T19:20:00Z,37.47,15.05,21.0,18.0,270,10,,6.21,30.177166,,,,,,,,,,,CAVOK,,,,,,,,VFR,,,,,,,,,,,,METAR,6.0
LICB 241920Z AUTO 09003KT 9999 NCD 16/16 Q1024,LICB,2022-10-24T19:20:00Z,37.0,14.62,16.0,16.0,90,3,,6.21,30.236221,,,TRUE,,,,,,,,CLR,,,,,,,,VFR,,,,,,,,,,,,METAR,212.0
LICA 241920Z AUTO 24006KT 9999 SCT014/// 20/18 Q1023,LICA,2022-10-24T19:20:00Z,38.9,16.25,20.0,18.0,240,6,,6.21,30.206694,,,TRUE,,,,,,,,SCT,1400,,,,,,,VFR,,,,,,,,,,,,METAR,7.0
LIBR 241920Z 22009KT 7000 BKN004 19/18 Q1020,LIBR,2022-10-24T19:20:00Z,40.65,17.95,19.0,18.0,220,9,,4.35,30.11811,,,,,,,,,,,BKN,400,,,,,,,LIFR,,,,,,,,,,,,METAR,5.0
LIBP 241920Z AUTO VRB02KT 5000 BR NCD 15/15 Q1019,LIBP,2022-10-24T19:20:00Z,42.42,14.18,15.0,15.0,0,2,,3.11,30.088583,,,TRUE,,,,,,,BR,CLR,,,,,,,,MVFR,,,,,,,,,,,,METAR,10.0
LIBD 241920Z 22003KT CAVOK 16/13 Q1020,LIBD,2022-10-24T19:20:00Z,41.13,16.77,16.0,13.0,220,3,,6.21,30.11811,,,,,,,,,,,CAVOK,,,,,,,,VFR,,,,,,,,,,,,METAR,42.0
LGTS 241920Z 11004KT CAVOK 16/16 Q1021 NOSIG,LGTS,2022-10-24T19:20:00Z,40.52,22.97,16.0,16.0,110,4,,6.21,30.147638,,,,,,TRUE,,,,,CAVOK,,,,,,,,VFR,,,,,,,,,,,,METAR,4.0
LGSR 241920Z 31005KT CAVOK 20/11 Q1020,LGSR,2022-10-24T19:20:00Z,36.4,25.48,20.0,11.0,310,5,,6.21,30.11811,,,,,,,,,,,CAVOK,,,,,,,,VFR,,,,,,,,,,,,METAR,31.0
LGSA 241920Z 00000KT CAVOK 18/16 Q1020,LGSA,2022-10-24T19:20:00Z,35.53,24.13,18.0,16.0,0,0,,6.21,30.11811,,,,,,,,,,,CAVOK,,,,,,,,VFR,,,,,,,,,,,,METAR,122.0
LGRP 241920Z VRB01KT CAVOK 19/10 Q1017 NOSIG,LGRP,2022-10-24T19:20:00Z,36.4,28.08,19.0,10.0,0,1,,6.21,30.029528,,,,,,TRUE,,,,,CAVOK,,,,,,,,VFR,,,,,,,,,,,,METAR,3.0
LGMT 241920Z 30005KT CAVOK 20/11 Q1020,LGMT,2022-10-24T19:20:00Z,39.05,26.6,20.0,11.0,300,5,,6.21,30.11811,,,,,,,,,,,CAVOK,,,,,,,,VFR,,,,,,,,,,,,METAR,4.0
LGMK 241920Z 03006KT CAVOK 19/12 Q1020,LGMK,2022-10-24T19:20:00Z,37.43,25.35,19.0,12.0,30,6,,6.21,30.11811,,,,,,,,,,,CAVOK,,,,,,,,VFR,,,,,,,,,,,,METAR,126.0
LGKZ 241920Z AUTO VRB02KT //// // ////// 15/06 Q1023 RE//,LGKZ,2022-10-24T19:20:00Z,40.28,21.83,15.0,6.0,0,2,,,30.206694,,,TRUE,,,,,,,,,,,,,,,,,,,,,,,,,,,,SPECI,615.0
LGKV 241920Z 00000KT CAVOK 15/13 Q1020,LGKV,2022-10-24T19:20:00Z,40.92,24.62,15.0,13.0,0,0,,6.21,30.11811,,,,,,,,,,,CAVOK,,,,,,,,VFR,,,,,,,,,,,,METAR,5.0
LGKR 241920Z 00000KT CAVOK 17/15 Q1021 NOSIG,LGKR,2022-10-24T19:20:00Z,39.62,19.92,17.0,15.0,0,0,,6.21,30.147638,,,,,,TRUE,,,,,CAVOK,,,,,,,,VFR,,,,,,,,,,,,METAR,2.0
LGKO 241920Z 36015KT CAVOK 19/12 Q1018,LGKO,2022-10-24T19:20:00Z,36.8,27.08,19.0,12.0,360,15,,6.21,30.059055,,,,,,,,,,,CAVOK,,,,,,,,VFR,,,,,,,,,,,,METAR,130.0
LGKL 241920Z 00000KT CAVOK 16/14 Q1021,LGKL,2022-10-24T19:20:00Z,37.07,22.02,16.0,14.0,0,0,,6.21,30.147638,,,,,,,,,,,CAVOK,,,,,,,,VFR,,,,,,,,,,,,METAR,4.0
LGIR 241920Z 17006KT 9999 FEW020 18/17 Q1020 NOSIG,LGIR,2022-10-24T19:20:00Z,35.33,25.17,18.0,17.0,170,6,,6.21,30.11811,,,,,,TRUE,,,,,FEW,2000,,,,,,,VFR,,,,,,,,,,,,METAR,37.0
LGIO 241920Z AUTO VRB01KT //// // ////// 13/11 Q1023 RE//,LGIO,2022-10-24T19:20:00Z,39.7,20.82,13.0,11.0,0,1,,,30.206694,,,TRUE,,,,,,,,,,,,,,,,,,,,,,,,,,,,METAR,476.0
LGEL 241920Z 00000KT CAVOK 18/14 Q1021,LGEL,2022-10-24T19:20:00Z,38.07,23.55,18.0,14.0,0,0,,6.21,30.147638,,,,,,,,,,,CAVOK,,,,,,,,VFR,,,,,,,,,,,,METAR,21.0
LGAV 241920Z 25002KT CAVOK 17/10 Q1021 NOSIG,LGAV,2022-10-24T19:20:00Z,37.93,23.95,17.0,10.0,250,2,,6.21,30.147638,,,,,,TRUE,,,,,CAVOK,,,,,,,,VFR,,,,,,,,,,,,METAR,83.0
LGAL 241920Z 00000KT CAVOK 14/12 Q1020,LGAL,2022-10-24T19:20:00Z,40.85,25.95,14.0,12.0,0,0,,6.21,30.11811,,,,,,,,,,,CAVOK,,,,,,,,VFR,,,,,,,,,,,,METAR,5.0
LGAD 241920Z 00000KT CAVOK 15/14 Q1021,LGAD,2022-10-24T19:20:00Z,37.92,21.28,15.0,14.0,0,0,,6.21,30.147638,,,,,,,,,,,CAVOK,,,,,,,,VFR,,,,,,,,,,,,METAR,8.0
LCRA 241920Z 34002KT CAVOK 19/12 Q1016 NOSIG,LCRA,2022-10-24T19:20:00Z,34.58,32.98,19.0,12.0,340,2,,6.21,30.0,,,,,,TRUE,,,,,CAVOK,,,,,,,,VFR,,,,,,,,,,,,METAR,23.0
LCEN 241920Z 30009KT CAVOK 17/12 Q1017 NOSIG RMK RWY11 30006KT,LCEN,2022-10-24T19:20:00Z,35.15,33.5,17.0,12.0,300,9,,6.21,30.029528,,,,,,TRUE,,,,,CAVOK,,,,,,,,VFR,,,,,,,,,,,,SPECI,91.0
LATI 241920Z 15002KT CAVOK 16/14 Q1021 NOSIG,LATI,2022-10-24T19:20:00Z,41.42,19.72,16.0,14.0,150,2,,6.21,30.147638,,,,,,TRUE,,,,,CAVOK,,,,,,,,VFR,,,,,,,,,,,,METAR,32.0
KVOA 241920Z AUTO 12016KT 10SM CLR 26/20 A3003 RMK A01,KVOA,2022-10-24T19:20:00Z,29.23,-87.78,26.0,20.0,120,16,,10.0,30.029528,,,TRUE,TRUE,,,,,,,CLR,,,,,,,,VFR,,,,,,,,,,,,SPECI,53.0
KRCA 241920Z AUTO 31011G20KT 10SM CLR 03/M02 A2972 RMK AO2 RAB03E20 PRESFR SLP086 $,KRCA,2022-10-24T19:20:00Z,44.15,-103.12,3.0,-2.0,310,11,20,10.0,29.719488,1008.6,,TRUE,TRUE,TRUE,,,,,,CLR,,,,,,,,VFR,,,,,,,,,,,,SPECI,993.0
KMTK 241920Z AUTO 13016KT 10SM FEW019 SCT025 SCT033 26/21 A2998 RMK A01,KMTK,2022-10-24T19:20:00Z,,,26.0,21.0,130,16,,10.0,29.97933,,,TRUE,TRUE,,,,,,,FEW,1900,SCT,2500,SCT,3300,,,VFR,,,,,,,,,,,,METAR,
KLVS 241920Z AUTO 03013KT 3/4SM -SN BR FEW004 OVC016 00/M01 A2985 RMK AO2 P0000 T00001011,KLVS,2022-10-24T19:20:00Z,35.65,-105.13,0.0,-1.1,30,13,,0.75,29.84941,,,TRUE,TRUE,,,,,,-SN BR,FEW,400,OVC,1600,,,,,LIFR,,,,,,0.005,,,,,,SPECI,2095.0
KJSL 241920Z AUTO 16013KT 10SM CLR 28/20 A2992 RMK A01,KJSL,2022-10-24T19:20:00Z,26.23,-95.22,28.0,20.0,160,13,,10.0,29.920275,,,TRUE,TRUE,,,,,,,CLR,,,,,,,,VFR,,,,,,,,,,,,METAR,45.0
KGZN 241920Z AUTO 12006KT 10SM 20/15 A2972 RMK AO2,KGZN,2022-10-24T19:20:00Z,32.37,-99.02,20.0,15.0,120,6,,10.0,29.719488,,,TRUE,TRUE,,,,,,,,,,,,,,,,,,,,,,,,,,,METAR,522.0
KGHB 241920Z AUTO VRB04G13KT 7SM FEW027 FEW033 SCT055 27/21 A2991 RMK A01,KGHB,2022-10-24T19:20:00Z,27.83,-91.98,27.0,21.0,0,4,13,7.0,29.911417,,,TRUE,TRUE,,,,,,,FEW,2700,FEW,3300,SCT,5500,,,VFR,,,,,,,,,,,,SPECI,30.0
KDSM 241920Z 33007KT 3SM -RA BR FEW014 BKN055 OVC070 10/09 A2971 RMK AO2 SFC VIS 4 PRESFR P0013 T01000094,KDSM,2022-10-24T19:20:00Z,41.53,-93.67,10.0,9.4,330,7,,3.0,29.71063,,,,TRUE,,,,,,-RA BR,FEW,1400,BKN,5500,OVC,7000,,,MVFR,,,,,,0.13,,,,,,SPECI,286.0
KCHK 241920Z AUTO 36011G17KT 10SM OVC013 15/11 A2973 RMK AO2 T01490114,KCHK,2022-10-24T19:20:00Z,35.1,-97.97,14.9,11.4,360,11,17,10.0,29.731298,,,TRUE,TRUE,,,,,,,OVC,1300,,,,,,,MVFR,,,,,,,,,,,,SPECI,346.0
KAKQ 241920Z AUTO 35004KT 10SM SCT029 22/14 A3009 RMK AO2 T02220139,KAKQ,2022-10-24T19:20:00Z,36.98,-77.0,22.2,13.9,350,4,,10.0,30.088583,,,TRUE,TRUE,,,,,,,SCT,2900,,,,,,,VFR,,,,,,,,,,,,SPECI,34.0
K2G4 241920Z AUTO 33003KT 10SM CLR 18/M01 A3016 RMK AO1,K2G4,2022-10-24T19:20:00Z,39.58,-79.33,18.0,-1.0,330,3,,10.0,30.159449,,,TRUE,TRUE,,,,,,,CLR,,,,,,,,VFR,,,,,,,,,,,,SPECI,908.0
EYVI 241920Z 14004KT 9999 BKN005 10/10 Q1014 NOSIG,EYVI,2022-10-24T19:20:00Z,54.63,25.28,10.0,10.0,140,4,,6.21,29.940945,,,,,,TRUE,,,,,BKN,500,,,,,,,IFR,,,,,,,,,,,,METAR,180.0
EYSA 241920Z 14007KT 9999 OVC006 11/10 Q1013 NOSIG,EYSA,2022-10-24T19:20:00Z,55.9,23.4,11.0,10.0,140,7,,6.21,29.911417,,,,,,TRUE,,,,,OVC,600,,,,,,,IFR,,,,,,,,,,,,METAR,135.0
EYPA 241920Z 16007KT 120V180 7000 BKN007 12/11 Q1011,EYPA,2022-10-24T19:20:00Z,55.97,21.08,12.0,11.0,160,7,,4.35,29.852362,,,,,,,,,,,BKN,700,,,,,,,IFR,,,,,,,,,,,,METAR,15.0
EYKA 241920Z 14005KT 100V160 9999 OVC009 12/09 Q1013,EYKA,2022-10-24T19:20:00Z,54.97,24.08,12.0,9.0,140,5,,6.21,29.911417,,,,,,,,,,,OVC,900,,,,,,,IFR,,,,,,,,,,,,METAR,68.0
EVVA 241920Z AUTO 11006KT 8000 OVC006 10/10 Q1011,EVVA,2022-10-24T19:20:00Z,57.35,21.55,10.0,10.0,110,6,,4.97,29.852362,,,TRUE,,,,,,,,OVC,600,,,,,,,IFR,,,,,,,,,,,,METAR,1.0
EVRA 241920Z 14005KT 110V170 9999 OVC016 09/08 Q1013 NOSIG,EVRA,2022-10-24T19:20:00Z,56.92,23.97,9.0,8.0,140,5,,6.21,29.911417,,,,,,TRUE,,,,,OVC,1600,,,,,,,MVFR,,,,,,,,,,,,METAR,7.0
EVLA 241920Z AUTO 16005KT 130V190 8000 OVC005/// 12/11 Q1010,EVLA,2022-10-24T19:20:00Z,56.52,21.1,12.0,11.0,160,5,,4.97,29.822834,,,TRUE,,,,,,,,OVC,500,,,,,,,IFR,,,,,,,,,,,,METAR,5.0
EVGA 241920Z 11006KT 070V140 9999 OVC018 08/06 Q1014 NOSIG,EVGA,2022-10-24T19:20:00Z,56.78,24.85,8.0,6.0,110,6,,6.21,29.940945,,,,,,TRUE,,,,,OVC,1800,,,,,,,MVFR,,,,,,,,,,,,METAR,61.0
ETWM 241920Z AUTO 20004KT //// // ////// 13/11 Q1008 ///,ETWM,2022-10-24T19:20:00Z,52.72,7.33,13.0,11.0,200,4,,,29.763779,,,TRUE,,,,,,,,,,,,,,,,,,,,,,,,,,,,SPECI,18.0
ETSN 241920Z 18003KT 9999 BKN060 11/10 Q1017 BLU,ETSN,2022-10-24T19:20:00Z,48.72,11.22,11.0,10.0,180,3,,6.21,30.029528,,,,,,,,,,,BKN,6000,,,,,,,VFR,,,,,,,,,,,,METAR,378.0
ETSL 241920Z 20008KT 9999 FEW080 BKN110 13/09 Q1018 BLU,ETSL,2022-10-24T19:20:00Z,48.18,10.87,13.0,9.0,200,8,,6.21,30.059055,,,,,,,,,,,FEW,8000,BKN,11000,,,,,VFR,,,,,,,,,,,,METAR,548.0
ETSI 241920Z AUTO 18003KT //// // ////// 11/10 Q1017 ///,ETSI,2022-10-24T19:20:00Z,48.72,11.53,11.0,10.0,180,3,,,30.029528,,,TRUE,,,,,,,,,,,,,,,,,,,,,,,,,,,,METAR,366.0
ETSH 241920Z 22011KT 9999 FEW070 BKN200 16/12 Q1011 BLU+,ETSH,2022-10-24T19:20:00Z,51.77,13.17,16.0,12.0,220,11,,6.21,29.852362,,,,,,,,,,,FEW,7000,BKN,20000,,,,,VFR,,,,,,,,,,,,METAR,79.0
ETSB 241920Z AUTO 23008KT //// // ////// 12/10 Q1013 ///,ETSB,2022-10-24T19:20:00Z,50.17,7.07,12.0,10.0,230,8,,,29.911417,,,TRUE,,,,,,,,,,,,,,,,,,,,,,,,,,,,SPECI,477.0
ETNW 241920Z 23009KT 9999 FEW035 15/11 Q1009 BLU+,ETNW,2022-10-24T19:20:00Z,52.45,9.42,15.0,11.0,230,9,,6.21,29.793306,,,,,,,,,,,FEW,3500,,,,,,,VFR,,,,,,,,,,,,METAR,57.0
ETNT 241920Z 21007KT 9999 FEW300 13/12 Q1006 BLACKBLU+,ETNT,2022-10-24T19:20:00Z,53.53,7.67,13.0,12.0,210,7,,6.21,29.704725,,,,,,,,,,,FEW,30000,,,,,,,VFR,,,,,,,,,,,,SPECI,5.0
ETNS 241920Z AUTO 22011KT 9999 // ////// 13/11 Q1005 ///,ETNS,2022-10-24T19:20:00Z,54.47,9.52,13.0,11.0,220,11,,6.21,29.675198,,,TRUE,,,,,,,,,,,,,,,,,,,,,,,,,,,,SPECI,22.0
ETNN 241920Z 19006KT 9999 SCT070 15/11 Q1011 BLU+,ETNN,2022-10-24T19:20:00Z,50.82,6.67,15.0,11.0,190,6,,6.21,29.852362,,,,,,,,,,,SCT,7000,,,,,,,VFR,,,,,,,,,,,,METAR,108.0
ETNL 241920Z 21005KT 9999 SCT078 15/10 Q1007 BLU+,ETNL,2022-10-24T19:20:00Z,53.92,12.27,15.0,10.0,210,5,,6.21,29.734253,,,,,,,,,,,SCT,7800,,,,,,,VFR,,,,,,,,,,,,METAR,40.0
ETNH 241920Z 22009KT 9999 SCT030 13/11 Q1005 BLU+,ETNH,2022-10-24T19:20:00Z,54.32,9.55,13.0,11.0,220,9,,6.21,29.675198,,,,,,,,,,,SCT,3000,,,,,,,VFR,,,,,,,,,,,,METAR,6.0
ETMN 241920Z 23010KT 9999 FEW022 SCT130 13/11 Q1006 BLU+BLU+ TEMPO GRN,ETMN,2022-10-24T19:20:00Z,53.77,8.67,13.0,11.0,230,10,,6.21,29.704725,,,,,,,,,,,FEW,2200,SCT,13000,,,,,VFR,,,,,,,,,,,,METAR,23.0
ETHS 241920Z 22009KT 9999 FEW040 BKN280 14/10 Q1008 BLACKBLU+,ETHS,2022-10-24T19:20:00Z,52.92,10.18,14.0,10.0,220,9,,6.21,29.763779,,,,,,,,,,,FEW,4000,BKN,28000,,,,,VFR,,,,,,,,,,,,SPECI,71.0
ETHN 241920Z 22012G25KT 9999 -SHRA FEW035CB BKN055 13/11 Q1016 BLU,ETHN,2022-10-24T19:20:00Z,49.38,9.97,13.0,11.0,220,12,25,6.21,30.0,,,,,,,,,,-SHRA,FEW,3500,BKN,5500,,,,,VFR,,,,,,,,,,,,METAR,466.0
ETHF 241920Z AUTO 23009KT 9999 // ////// 15/10 Q1012 ///,ETHF,2022-10-24T19:20:00Z,51.12,9.28,15.0,10.0,230,9,,6.21,29.88189,,,TRUE,,,,,,,,,,,,,,,,,,,,,,,,,,,,METAR,171.0
ETHC 241920Z 21007KT 9999 FEW090 SCT290 15/10 Q1009 BLU+,ETHC,2022-10-24T19:20:00Z,52.6,10.02,15.0,10.0,210,7,,6.21,29.793306,,,,,,,,,,,FEW,9000,SCT,29000,,,,,VFR,,,,,,,,,,,,METAR,35.0
ETHB 241920Z 23013KT 9999 FEW035 15/11 Q1009 BLU+BLU TEMPO GRN,ETHB,2022-10-24T19:20:00Z,52.27,9.07,15.0,11.0,230,13,,6.21,29.793306,,,,,,,,,,,FEW,3500,,,,,,,VFR,,,,,,,,,,,,METAR,69.0
ETHA 241920Z AUTO 19005KT 9999 // ////// 11/09 Q1018 ///,ETHA,2022-10-24T19:20:00Z,47.83,10.87,11.0,9.0,190,5,,6.21,30.059055,,,TRUE,,,,,,,,,,,,,,,,,,,,,,,,,,,,METAR,738.0
ETGG 241920Z AUTO 24015KT 9999 // ////// 14/12 Q1004 ///,ETGG,2022-10-24T19:20:00Z,54.83,9.5,14.0,12.0,240,15,,6.21,29.64567,,,TRUE,,,,,,,,,,,,,,,,,,,,,,,,,,,,SPECI,33.0
ESUT 241920Z AUTO 16011KT 9999 OVC017/// M01/M03 Q1008,ESUT,2022-10-24T19:20:00Z,65.8,15.08,-1.0,-3.0,160,11,,6.21,29.763779,,,TRUE,,,,,,,,OVC,1700,,,,,,,MVFR,,,,,,,,,,,,METAR,457.0
ESUP 241920Z AUTO 00000KT 9999 NCD M09/M09 Q1013,ESUP,2022-10-24T19:20:00Z,67.25,23.07,-9.0,-9.0,0,0,,6.21,29.911417,,,TRUE,,,,,,,,CLR,,,,,,,,VFR,,,,,,,,,,,,METAR,164.0
ESTL 241920Z AUTO 19006KT 9999 FEW074/// 14/13 Q1005,ESTL,2022-10-24T19:20:00Z,56.07,13.2,14.0,13.0,190,6,,6.21,29.675198,,,TRUE,,,,,,,,FEW,7400,,,,,,,VFR,,,,,,,,,,,,METAR,39.0
ESTA 241920Z 19008KT 9999 FEW029 14/11 Q1004,ESTA,2022-10-24T19:20:00Z,56.28,12.83,14.0,11.0,190,8,,6.21,29.64567,,,,,,,,,,,FEW,2900,,,,,,,VFR,,,,,,,,,,,,METAR,19.0
ESSV 241920Z 15010KT 3600 BR OVC003 12/11 Q1007,ESSV,2022-10-24T19:20:00Z,57.67,18.35,12.0,11.0,150,10,,2.24,29.734253,,,,,,,,,,BR,OVC,300,,,,,,,LIFR,,,,,,,,,,,,METAR,38.0
ESST 241920Z AUTO VRB02KT 3500 BR BKN012/// 07/07 Q1005 REDZ,ESST,2022-10-24T19:20:00Z,60.15,12.98,7.0,7.0,0,2,,2.17,29.675198,,,TRUE,,,,,,,BR,BKN,1200,,,,,,,IFR,,,,,,,,,,,,METAR,110.0
ESSP 241920Z AUTO 12007KT 6000 OVC004/// 11/11 Q1005 RERA REDZ,ESSP,2022-10-24T19:20:00Z,58.58,16.25,11.0,11.0,120,7,,3.73,29.675198,,,TRUE,,,,,,,,OVC,400,,,,,,,LIFR,,,,,,,,,,,,SPECI,3.0
ESSD 241920Z AUTO 09006KT 9999 DZ OVC003/// 06/06 Q1008,ESSD,2022-10-24T19:20:00Z,60.42,15.5,6.0,6.0,90,6,,6.21,29.763779,,,TRUE,,,,,,,DZ,OVC,300,,,,,,,LIFR,,,,,,,,,,,,METAR,151.0
ESSB 241920Z 10013KT 5000 -RA BKN006 09/08 Q1008 RERA,ESSB,2022-10-24T19:20:00Z,59.35,17.93,9.0,8.0,100,13,,3.11,29.763779,,,,,,,,,,-RA,BKN,600,,,,,,,IFR,,,,,,,,,,,,METAR,14.0
ESSA 241920Z 11010KT 4100 RA SCT007 BKN009 BKN014 08/07 Q1009 TEMPO BKN009,ESSA,2022-10-24T19:20:00Z,59.65,17.93,8.0,7.0,110,10,,2.55,29.793306,,,,,,,,,,RA,SCT,700,BKN,900,BKN,1400,,,IFR,,,,,,,,,,,,METAR,36.0
ESPE 241920Z AUTO 00000KT 9999 OVC050/// M06/M07 Q1013,ESPE,2022-10-24T19:20:00Z,65.88,20.15,-6.0,-7.0,0,0,,6.21,29.911417,,,TRUE,,,,,,,,OVC,5000,,,,,,,VFR,,,,,,,,,,,,METAR,182.0
ESPA 241920Z 32003KT CAVOK M05/M05 Q1014,ESPA,2022-10-24T19:20:00Z,65.53,22.12,-5.0,-5.0,320,3,,6.21,29.940945,,,,,,,,,,,CAVOK,,,,,,,,VFR,,,,,,,,,,,,METAR,12.0
ESOW 241920Z AUTO 08007KT 050V120 9999 DZ OVC007/// 09/07 Q1007,ESOW,2022-10-24T19:20:00Z,59.58,16.63,9.0,7.0,80,7,,6.21,29.734253,,,TRUE,,,,,,,DZ,OVC,700,,,,,,,IFR,,,,,,,,,,,,METAR,7.0
ESOK 241920Z AUTO 09008KT 7000 -RA FEW003/// OVC004/// 09/// Q1003,ESOK,2022-10-24T19:20:00Z,59.45,13.33,,,90,8,,4.35,29.616142,,,TRUE,,,,,,,-RA,FEW,300,OVC,400,,,,,LIFR,,,,,,,,,,,,SPECI,101.0
ESOH 241920Z AUTO VRB05KT 9000 -DZ BKN008/// OVC010/// 08/07 Q1005 REDZ,ESOH,2022-10-24T19:20:00Z,60.02,13.58,8.0,7.0,0,5,,5.59,29.675198,,,TRUE,,,,,,,-DZ,BKN,800,OVC,1000,,,,,IFR,,,,,,,,,,,,METAR,145.0
ESOE 241920Z 08009KT 4000 DZ BKN004 10/09 Q1005,ESOE,2022-10-24T19:20:00Z,59.22,15.05,10.0,9.0,80,9,,2.49,29.675198,,,,,,,,,,DZ,BKN,400,,,,,,,LIFR,,,,,,,,,,,,METAR,57.0
ESNZ 241920Z 14013KT 9999 OVC008 04/04 Q1007,ESNZ,2022-10-24T19:20:00Z,63.18,14.5,4.0,4.0,140,13,,6.21,29.734253,,,,,,,,,,,OVC,800,,,,,,,IFR,,,,,,,,,,,,METAR,360.0
ESNX 241920Z AUTO 11005KT 9999 OVC029/// M03/M04 Q1011,ESNX,2022-10-24T19:20:00Z,65.58,19.28,-3.0,-4.0,110,5,,6.21,29.852362,,,TRUE,,,,,,,,OVC,2900,,,,,,,MVFR,,,,,,,,,,,,METAR,380.0
ESNV 241920Z 09004KT 3700 -SN BKN005 OVC009 M01/M02 Q1010,ESNV,2022-10-24T19:20:00Z,64.58,16.83,-1.0,-2.0,90,4,,2.3,29.822834,,,,,,,,,,-SN,BKN,500,OVC,900,,,,,IFR,,,,,,,,,,,,METAR,348.0
ESNU 241920Z VRB01KT 9999 FEW035 OVC053 02/M02 Q1013,ESNU,2022-10-24T19:20:00Z,63.78,20.28,2.0,-2.0,0,1,,6.21,29.911417,,,,,,,,,,,FEW,3500,OVC,5300,,,,,VFR,,,,,,,,,,,,METAR,8.0
ESNS 241920Z 00000KT 9999 FEW036 OVC043 M01/M02 Q1014,ESNS,2022-10-24T19:20:00Z,64.62,21.07,-1.0,-2.0,0,0,,6.21,29.940945,,,,,,,,,,,FEW,3600,OVC,4300,,,,,VFR,,,,,,,,,,,,METAR,41.0
ESNQ 241920Z AUTO 22005KT 9999 NCD M06/M07 Q1011,ESNQ,2022-10-24T19:20:00Z,67.82,20.33,-6.0,-7.0,220,5,,6.21,29.852362,,,TRUE,,,,,,,,CLR,,,,,,,,VFR,,,,,,,,,,,,METAR,447.0
ESNO 241920Z AUTO 09003KT 9999 -DZ SCT027/// OVC038/// 01/01 Q1012,ESNO,2022-10-24T19:20:00Z,63.4,18.97,1.0,1.0,90,3,,6.21,29.88189,,,TRUE,,,,,,,-DZ,SCT,2700,OVC,3800,,,,,VFR,,,,,,,,,,,,METAR,100.0
ESNN 241920Z AUTO 08002KT 9999 SCT024/// OVC043/// 03/02 Q1012,ESNN,2022-10-24T19:20:00Z,62.52,17.43,3.0,2.0,80,2,,6.21,29.88189,,,TRUE,,,,,,,,SCT,2400,OVC,4300,,,,,VFR,,,,,,,,,,,,METAR,4.0
ESNL 241920Z AUTO 11007KT 3700 -SN SCT005/// OVC010/// M01/M01 Q1012,ESNL,2022-10-24T19:20:00Z,64.55,18.72,-1.0,-1.0,110,7,,2.3,29.88189,,,TRUE,,,,,,,-SN,SCT,500,OVC,1000,,,,,IFR,,,,,,,,,,,,METAR,220.0
ESNK 241920Z AUTO 00000KT 9999 FEW012/// SCT023/// OVC035/// 01/01 Q1012,ESNK,2022-10-24T19:20:00Z,63.03,17.77,1.0,1.0,0,0,,6.21,29.88189,,,TRUE,,,,,,,,FEW,1200,SCT,2300,OVC,3500,,,VFR,,,,,,,,,,,,METAR,4.0
ESNG 241920Z 31005KT CAVOK M10/// Q1012,ESNG,2022-10-24T19:20:00Z,67.13,20.82,,,310,5,,6.21,29.88189,,,,,,,,,,,CAVOK,,,,,,,,VFR,,,,,,,,,,,,SPECI,300.0
ESND 241920Z AUTO 10005KT 070V140 9999 OVC003/// 03/02 Q1008,ESND,2022-10-24T19:20:00Z,62.05,14.42,3.0,2.0,100,5,,6.21,29.763779,,,TRUE,,,,,,,,OVC,300,,,,,,,LIFR,,,,,,,,,,,,METAR,352.0
ESMX 241920Z AUTO 17006KT 4700 -RA OVC003/// 12/12 Q1005 REDZ,ESMX,2022-10-24T19:20:00Z,56.92,14.72,12.0,12.0,170,6,,2.92,29.675198,,,TRUE,,,,,,,-RA,OVC,300,,,,,,,LIFR,,,,,,,,,,,,SPECI,176.0
ESMV 241920Z AUTO 17004KT 130V210 9999 OVC006/// 13/// Q1004,ESMV,2022-10-24T19:20:00Z,57.28,14.13,,,170,4,,6.21,29.64567,,,TRUE,,,,,,,,OVC,600,,,,,,,IFR,,,,,,,,,,,,METAR,167.0
ESMT 241920Z AUTO 19010KT 9999 R01///// R19/P2000N FEW067/// SCT087/// 14/12 Q1003,ESMT,2022-10-24T19:20:00Z,56.68,12.82,14.0,12.0,190,10,,6.21,29.616142,,,TRUE,,,,,,,,FEW,6700,SCT,8700,,,,,VFR,,,,,,,,,,,,SPECI,24.0
ESMS 241920Z 22010KT 9999 FEW036 SCT066 14/11 Q1005,ESMS,2022-10-24T19:20:00Z,55.53,13.37,14.0,11.0,220,10,,6.21,29.675198,,,,,,,,,,,FEW,3600,SCT,6600,,,,,VFR,,,,,,,,,,,,METAR,68.0
ESMQ 241920Z AUTO 18006KT 3500 BR BKN001/// OVC003/// 13/13 Q1006,ESMQ,2022-10-24T19:20:00Z,56.68,16.3,13.0,13.0,180,6,,2.17,29.704725,,,TRUE,,,,,,,BR,BKN,100,OVC,300,,,,,LIFR,,,,,,,,,,,,METAR,3.0
ESMK 241920Z AUTO 20008KT 9999 SCT062/// OVC080/// 14/13 Q1005,ESMK,2022-10-24T19:20:00Z,55.92,14.08,14.0,13.0,200,8,,6.21,29.675198,,,TRUE,,,,,,,,SCT,6200,OVC,8000,,,,,VFR,,,,,,,,,,,,METAR,20.0
ESKS 241920Z AUTO 10005KT 070V140 9999 -RA OVC007/// 04/03 Q1005,ESKS,2022-10-24T19:20:00Z,61.17,12.83,4.0,3.0,100,5,,6.21,29.675198,,,TRUE,,,,,,,-RA,OVC,700,,,,,,,IFR,,,,,,,,,,,,METAR,503.0
ESKN 241920Z 11014KT 9999 -RA BKN003 11/10 Q1006,ESKN,2022-10-24T19:20:00Z,58.78,16.92,11.0,10.0,110,14,,6.21,29.704725,,,,,,,,,,-RA,BKN,300,,,,,,,LIFR,,,,,,,,,,,,METAR,41.0
ESKM 241920Z AUTO 07003KT 9000 -RA OVC003/// 05/05 Q1008,ESKM,2022-10-24T19:20:00Z,60.97,14.52,5.0,5.0,70,3,,5.59,29.763779,,,TRUE,,,,,,,-RA,OVC,300,,,,,,,LIFR,,,,,,,,,,,,METAR,184.0
ESIB 241920Z AUTO 14007KT 9999 SCT010/// BKN012/// BKN054/// OVC120/// 12/12 Q1002,ESIB,2022-10-24T19:20:00Z,58.42,12.7,12.0,12.0,140,7,,6.21,29.586615,,,TRUE,,,,,,,,SCT,1000,BKN,1200,BKN,5400,OVC,12000,MVFR,,,,,,,,,,,,METAR,51.0
ESIA 241920Z AUTO 11006KT 9999 OVC003/// 11/10 Q1004 RERA,ESIA,2022-10-24T19:20:00Z,58.52,14.5,11.0,10.0,110,6,,6.21,29.64567,,,TRUE,,,,,,,,OVC,300,,,,,,,LIFR,,,,,,,,,,,,METAR,94.0
ESGT 241920Z AUTO 13008KT 9999 -DZ FEW010/// OVC061/// 12/11 Q1001 REDZ,ESGT,2022-10-24T19:20:00Z,58.32,12.33,12.0,11.0,130,8,,6.21,29.557087,,,TRUE,,,,,,,-DZ,FEW,1000,OVC,6100,,,,,VFR,,,,,,,,,,,,SPECI,40.0
ESGP 241920Z 16008KT 9999 FEW014 BKN057 OVC072 13/11 Q1001,ESGP,2022-10-24T19:20:00Z,57.77,11.87,13.0,11.0,160,8,,6.21,29.557087,,,,,,,,,,,FEW,1400,BKN,5700,OVC,7200,,,VFR,,,,,,,,,,,,METAR,15.0
ESGJ 241920Z 16006KT 8000 BKN009 12/12 Q1003,ESGJ,2022-10-24T19:20:00Z,57.77,14.07,12.0,12.0,160,6,,4.97,29.616142,,,,,,,,,,,BKN,900,,,,,,,IFR,,,,,,,,,,,,METAR,224.0
ESGG 241920Z 17010KT 9999 SCT008 BKN012 12/11 Q1002,ESGG,2022-10-24T19:20:00Z,57.67,12.3,12.0,11.0,170,10,,6.21,29.586615,,,,,,,,,,,SCT,800,BKN,1200,,,,,MVFR,,,,,,,,,,,,METAR,152.0
ESDF 241920Z AUTO 00000KT 0650 0250// R01/1300VP2000N R19/P2000N FG SCT027/// BKN046/// BKN064/// OVC090/// 12/12 Q1006,ESDF,2022-10-24T19:20:00Z,56.27,15.27,12.0,12.0,0,0,,0.4,29.704725,,,TRUE,,,,,,,FG,SCT,2700,BKN,4600,BKN,6400,OVC,9000,LIFR,,,,,,,,,,,,SPECI,52.0
ESCM 241920Z AUTO 10007KT 9999 -RA SCT010/// BKN011/// OVC014/// 08/08 Q1009,ESCM,2022-10-24T19:20:00Z,59.88,17.6,8.0,8.0,100,7,,6.21,29.793306,,,TRUE,,,,,,,-RA,SCT,1000,BKN,1100,OVC,1400,,,MVFR,,,,,,,,,,,,METAR,21.0
ESCF 241920Z AUTO 11004KT 080V210 9999 OVC003/// 11/11 Q1004,ESCF,2022-10-24T19:20:00Z,58.38,15.52,11.0,11.0,110,4,,6.21,29.64567,,,TRUE,,,,,,,,OVC,300,,,,,,,LIFR,,,,,,,,,,,,METAR,86.0
ENZV 241920Z 04004KT 330V100 9999 -RA FEW040 BKN060 12/08 Q0996,ENZV,2022-10-24T19:20:00Z,58.88,5.63,12.0,8.0,40,4,,6.21,29.409449,,,,,,,,,,-RA,FEW,4000,BKN,6000,,,,,VFR,,,,,,,,,,,,METAR,7.0
ENWV 241920Z AUTO 24026KT 9999NDV NCD 12/12 Q0998 W///S4,ENWV,2022-10-24T19:20:00Z,56.28,3.4,12.0,12.0,240,26,,,29.468504,,,TRUE,,,,,,,,CLR,,,,,,,,,,,,,,,,,,,,METAR,30.0
ENVD 241920Z 30008KT CAVOK M00/M04 Q1012,ENVD,2022-10-24T19:20:00Z,70.07,29.85,0.0,-4.0,300,8,,6.21,29.88189,,,,,,,,,,,CAVOK,,,,,,,,VFR,,,,,,,,,,,,METAR,39.0
ENVA 241920Z 12009KT 090V170 CAVOK 09/03 Q1003 TEMPO 15015G25KT RMK WIND 670FT 17017KT,ENVA,2022-10-24T19:20:00Z,63.47,10.92,9.0,3.0,120,9,,6.21,29.616142,,,,,,,,,,,CAVOK,,,,,,,,VFR,,,,,,,,,,,,SPECI,12.0
ENUG 241920Z AUTO 27011KT 9999NDV FEW027/// BKN110/// 05/M02 Q1010 W///S4,ENUG,2022-10-24T19:20:00Z,71.3,22.25,5.0,-2.0,270,11,,,29.822834,,,TRUE,,,,,,,,FEW,2700,BKN,11000,,,,,,,,,,,,,,,,,METAR,30.0
ENTO 241920Z 01006KT 350V080 5000 DZ BR VV005 07/07 Q1001 TEMPO 4000 DZ BR BKN004,ENTO,2022-10-24T19:20:00Z,59.2,10.27,7.0,7.0,10,6,,3.11,29.557087,,,,,,,,,,DZ BR,OVX,0,,,,,,,LIFR,,,,,,,,,,,500,SPECI,84.0
ENTC 241920Z 00000KT 9999 SCT009 M01/M02 Q1012 NOSIG RMK WIND 2600FT 09004KT,ENTC,2022-10-24T19:20:00Z,69.68,18.92,-1.0,-2.0,0,0,,6.21,29.88189,,,,,,TRUE,,,,,SCT,900,,,,,,,VFR,,,,,,,,,,,,SPECI,9.0
ENST 241920Z VRB03KT 9999 FEW053 02/M02 Q1006 RMK WIND 300FT 11006KT,ENST,2022-10-24T19:20:00Z,65.97,12.47,2.0,-2.0,0,3,,6.21,29.704725,,,,,,,,,,,FEW,5300,,,,,,,VFR,,-0.6,,,,,,,,,,SPECI,17.0
ENSS 241920Z 26010KT CAVOK 00/M03 Q1012 RMK WIND 0500FT 26008KT,ENSS,2022-10-24T19:20:00Z,70.35,31.05,0.0,-3.0,260,10,,6.21,29.88189,,,,,,,,,,,CAVOK,,,,,,,,VFR,,,,,,,,,,,,SPECI,13.0
ENSR 241920Z AUTO VRB02KT 9999 BKN036/// M00/M04 Q1013 RMK WIND RWY32 VRB02KT WIND 1118FT 12004KT,ENSR,2022-10-24T19:20:00Z,69.78,20.97,0.0,-4.0,0,2,,6.21,29.911417,,,TRUE,,,,,,,,BKN,3600,,,,,,,VFR,,,,,,,,,,,,SPECI,5.0
ENSL 241920Z AUTO 26010KT 1000NDV BR NCD 11/11 Q0997 W10/S5,ENSL,2022-10-24T19:20:00Z,58.37,1.9,11.0,11.0,260,10,,,29.438976,,,TRUE,,,,,,,BR,CLR,,,,,,,,,,,,,,,,,,,,METAR,50.0
ENSK 241920Z AUTO 06007KT 9999 NCD 00/M04 Q1010,ENSK,2022-10-24T19:20:00Z,68.57,15.02,0.0,-4.0,60,7,,6.21,29.822834,,,TRUE,,,,,,,,CLR,,,,,,,,VFR,,,,,,,,,,,,METAR,3.0
ENSH 241920Z 06014KT 9999 FEW030 03/M05 Q1010 RMK WIND 150FT 07017KT,ENSH,2022-10-24T19:20:00Z,68.25,14.67,3.0,-5.0,60,14,,6.21,29.822834,,,,,,,,,,,FEW,3000,,,,,,,VFR,,,,,,,,,,,,SPECI,9.0
ENSF 241920Z AUTO 08015KT 9999NDV OVC036/// 14/08 Q0998 W///S4,ENSF,2022-10-24T19:20:00Z,61.25,1.85,14.0,8.0,80,15,,,29.468504,,,TRUE,,,,,,,,OVC,3600,,,,,,,,,,,,,,,,,,,METAR,15.0
ENSE 241920Z AUTO 09011KT 9999NDV OVC044/// 11/08 Q0999 W///S4,ENSE,2022-10-24T19:20:00Z,61.45,2.15,11.0,8.0,90,11,,,29.498032,,,TRUE,,,,,,,,OVC,4400,,,,,,,,,,,,,,,,,,,METAR,10.0
ENSD 241920Z 00000KT 9999 FEW070 06/05 Q0999 RMK WIND RWY26 26004KT WIND 1140FT VRB03KT,ENSD,2022-10-24T19:20:00Z,61.82,6.12,6.0,5.0,0,0,,6.21,29.498032,,,,,,,,,,,FEW,7000,,,,,,,VFR,,,,,,,,,,,,SPECI,61.0
ENSB 241920Z 29012KT 9999 FEW035 BKN060 M06/M11 Q1008 RMK WIND 1400FT 29009KT,ENSB,2022-10-24T19:20:00Z,78.25,15.47,-6.0,-11.0,290,12,,6.21,29.763779,,,,,,,,,,,FEW,3500,BKN,6000,,,,,VFR,,,,,,,,,,,,SPECI,30.0
ENRY 241920Z 08007KT 9999 RA BKN008 10/09 Q1001 RESHRA,ENRY,2022-10-24T19:20:00Z,59.37,10.77,10.0,9.0,80,7,,6.21,29.557087,,,,,,,,,,RA,BKN,800,,,,,,,IFR,,,,,,,,,,,,METAR,45.0
ENRO 241920Z AUTO 12009KT 9999 FEW012 BKN019 02/01 Q1005,ENRO,2022-10-24T19:20:00Z,62.57,11.33,2.0,1.0,120,9,,6.21,29.675198,,,TRUE,,,,,,,,FEW,1200,BKN,1900,,,,,MVFR,,,,,,,,,,,,METAR,624.0
ENRM 241920Z 07007KT 040V100 CAVOK 05/01 Q1004,ENRM,2022-10-24T19:20:00Z,64.83,11.13,5.0,1.0,70,7,,6.21,29.64567,,,,,,,,,,,CAVOK,,,,,,,,VFR,,,,,,,,,,,,METAR,4.0
ENRA 241920Z 10005KT 060V170 CAVOK 01/M04 Q1009,ENRA,2022-10-24T19:20:00Z,66.37,14.3,1.0,-4.0,100,5,,6.21,29.793306,,,,,,,,,,,CAVOK,,,,,,,,VFR,,,,,,,,,,,,METAR,66.0
ENQR 241920Z AUTO 08002KT 9999NDV FEW043/// BKN050/// 12/09 Q0998 W10/S4,ENQR,2022-10-24T19:20:00Z,61.52,2.22,12.0,9.0,80,2,,,29.468504,,,TRUE,,,,,,,,FEW,4300,BKN,5000,,,,,,,,,,,,,,,,,METAR,10.0
ENQC 241920Z AUTO 07012KT 9999NDV OVC040/// 14/08 Q0998 W///S4,ENQC,2022-10-24T19:20:00Z,60.88,3.62,14.0,8.0,70,12,,,29.468504,,,TRUE,,,,,,,,OVC,4000,,,,,,,,,,,,,,,,,,,METAR,20.0
ENQA 241920Z AUTO 09013KT 9999NDV OVC043/// 12/07 Q0998 W17/S4,ENQA,2022-10-24T19:20:00Z,60.65,3.72,12.0,7.0,90,13,,,29.468504,,,TRUE,,,,,,,,OVC,4300,,,,,,,,,,,,,,,,,,,METAR,90.0
ENOV 241920Z 00000KT 9999 BKN061 04/03 Q0999 RMK WIND RWY24 VRB01KT WIND 2090FT 13008KT,ENOV,2022-10-24T19:20:00Z,62.17,6.07,4.0,3.0,0,0,,6.21,29.498032,,,,,,,,,,,BKN,6100,,,,,,,VFR,,,,,,,,,,,,SPECI,72.0
ENOL 241920Z 12009KT CAVOK 08/04 Q1001 NOSIG,ENOL,2022-10-24T19:20:00Z,63.7,9.6,8.0,4.0,120,9,,6.21,29.557087,,,,,,TRUE,,,,,CAVOK,,,,,,,,VFR,,,,,,,,,,,,METAR,9.0
ENNM 241920Z 11013KT 080V150 CAVOK 05/01 Q1004,ENNM,2022-10-24T19:20:00Z,64.47,11.57,5.0,1.0,110,13,,6.21,29.64567,,,,,,,,,,,CAVOK,,,,,,,,VFR,,,,,,,,,,,,METAR,2.0
ENNE 241920Z AUTO 06021KT 9999NDV NCD 06/00 Q1005 W///S4,ENNE,2022-10-24T19:20:00Z,66.03,8.08,6.0,0.0,60,21,,,29.675198,,,TRUE,,,,,,,,CLR,,,,,,,,,,,,,,,,,,,,METAR,10.0
ENNA 241920Z AUTO 18008KT 9999 FEW100/// M00/M02 Q1012 RMK WIND 1800FT 27014KT,ENNA,2022-10-24T19:20:00Z,70.07,24.97,0.0,-2.0,180,8,,6.21,29.88189,,,TRUE,,,,,,,,FEW,10000,,,,,,,VFR,,,,,,,,,,,,SPECI,12.0
ENMS 241920Z 00000KT 9999 FEW034 M03/M04 Q1007 RMK WIND 412FT VRB02KT,ENMS,2022-10-24T19:20:00Z,65.78,13.22,-3.0,-4.0,0,0,,6.21,29.734253,,,,,,,,,,,FEW,3400,,,,,,,VFR,,,,,,,,,,,,SPECI,44.0
ENML 241920Z 05005KT CAVOK 05/03 Q1000,ENML,2022-10-24T19:20:00Z,62.75,7.27,5.0,3.0,50,5,,6.21,29.52756,,,,,,,,,,,CAVOK,,,,,,,,VFR,,,,,,,,,,,,METAR,3.0
ENMH 241920Z AUTO 20006KT 9999 FEW021 SCT025 BKN034 01/M01 Q1010,ENMH,2022-10-24T19:20:00Z,71.02,27.82,1.0,-1.0,200,6,,6.21,29.822834,,,TRUE,,,,,,,,FEW,2100,SCT,2500,BKN,3400,,,VFR,,,,,,,,,,,,METAR,10.0
ENLK 241920Z 34002KT 9999 FEW030 M02/M04 Q1010,ENLK,2022-10-24T19:20:00Z,68.15,13.62,-2.0,-4.0,340,2,,6.21,29.822834,,,,,,,,,,,FEW,3000,,,,,,,VFR,,,,,,,,,,,,METAR,26.0
ENLE 241920Z 24026KT 9999 SCT005 BKN012 12/10 Q0998 W13/S4,ENLE,2022-10-24T19:20:00Z,56.53,3.22,12.0,10.0,240,26,,6.21,29.468504,,,,,,,,,,,SCT,500,BKN,1200,,,,,MVFR,,,,,,,,,,,,METAR,10.0
ENLA 241920Z AUTO 24022KT 9999NDV BKN003/// 12/12 Q0996 W///S4,ENLA,2022-10-24T19:20:00Z,57.1,2.83,12.0,12.0,240,22,,,29.409449,,,TRUE,,,,,,,,BKN,300,,,,,,,,,,,,,,,,,,,METAR,10.0
ENKR 241920Z 23006KT CAVOK M01/M03 Q1012 RMK WIND 731FT 26008KT,ENKR,2022-10-24T19:20:00Z,69.72,29.88,-1.0,-3.0,230,6,,6.21,29.88189,,,,,,,,,,,CAVOK,,,,,,,,VFR,,,,,,,,,,,,SPECI,86.0
ENKB 241920Z 09005KT CAVOK 08/02 Q1000 RMK WIND 745FT 14011KT,ENKB,2022-10-24T19:20:00Z,63.12,7.82,8.0,2.0,90,5,,6.21,29.52756,,,,,,,,,,,CAVOK,,,,,,,,VFR,,,,,,,,,,,,SPECI,62.0
ENJS 241920Z 13026KT 9000 -RA BKN012 11/10 Q0996 W11/S/,ENJS,2022-10-24T19:20:00Z,,,11.0,10.0,130,26,,5.59,29.409449,,,,,,,,,,-RA,BKN,1200,,,,,,,MVFR,,,,,,,,,,,,METAR,
ENHV 241920Z 26012KT 9999 SCT014 BKN074 03/01 Q1010,ENHV,2022-10-24T19:20:00Z,71.02,25.97,3.0,1.0,260,12,,6.21,29.822834,,,,,,,,,,,SCT,1400,BKN,7400,,,,,VFR,,,,,,,,,,,,METAR,13.0
ENHM 241920Z AUTO 10009G22KT 5000NDV SHRA FEW025/// SCT033/// BKN038/// 11/11 Q0996 W12/S/,ENHM,2022-10-24T19:20:00Z,59.57,2.23,11.0,11.0,100,9,22,,29.409449,,,TRUE,,,,,,,SHRA,FEW,2500,SCT,3300,BKN,3800,,,,,,,,,,,,,,,METAR,10.0
ENHK 241920Z 23006KT 9999 VCSH SCT033 02/M00 Q1011,ENHK,2022-10-24T19:20:00Z,70.48,22.13,2.0,0.0,230,6,,6.21,29.852362,,,,,,,,,,VCSH,SCT,3300,,,,,,,VFR,,,,,,,,,,,,METAR,6.0
ENHF 241920Z 25008KT 9999 VCSH FEW010 SCT016 02/00 Q1010 RMK WIND 1254FT 26010KT,ENHF,2022-10-24T19:20:00Z,70.67,23.67,2.0,0.0,250,8,,6.21,29.822834,,,,,,,,,,VCSH,FEW,1000,SCT,1600,,,,,VFR,,,,,,,,,,,,SPECI,79.0
ENHE 241920Z 08023KT 9999 BKN025 06/02 Q1003 W///S4,ENHE,2022-10-24T19:20:00Z,65.33,2.33,6.0,2.0,80,23,,6.21,29.616142,,,,,,,,,,,BKN,2500,,,,,,,MVFR,,,,,,,,,,,,SPECI,10.0
ENHD 241920Z 08012KT 9999 FEW045 BKN055 11/07 Q0996,ENHD,2022-10-24T19:20:00Z,59.35,5.22,11.0,7.0,80,12,,6.21,29.409449,,,,,,,,,,,FEW,4500,BKN,5500,,,,,VFR,,,,,,,,,,,,METAR,22.0
ENGM 241920Z 03007KT 7000 -RA BKN004 06/06 Q1003 TEMPO 4000 -RADZ BR,ENGM,2022-10-24T19:20:00Z,60.2,11.07,6.0,6.0,30,7,,4.35,29.616142,,,,,,,,,,-RA,BKN,400,,,,,,,LIFR,,,,,,,,,,,,SPECI,204.0
ENGC 241920Z 09014KT 9999 BKN035 12/04 Q0998 W10/S4,ENGC,2022-10-24T19:20:00Z,61.02,2.02,12.0,4.0,90,14,,6.21,29.468504,,,,,,,,,,,BKN,3500,,,,,,,VFR,,,,,,,,,,,,SPECI,10.0
ENFL 241920Z 08008KT CAVOK 09/05 Q0999,ENFL,2022-10-24T19:20:00Z,61.57,5.02,9.0,5.0,80,8,,6.21,29.498032,,,,,,,,,,,CAVOK,,,,,,,,VFR,,,,,,,,,,,,METAR,1.0
ENFB 241920Z AUTO 08016KT 4300NDV BR OVC035/// 11/08 Q0999 W///S4,ENFB,2022-10-24T19:20:00Z,61.2,1.83,11.0,8.0,80,16,,,29.498032,,,TRUE,,,,,,,BR,OVC,3500,,,,,,,,,,,,,,,,,,,SPECI,10.0
ENEV 241920Z 00000KT CAVOK M04/M04 Q1011 RMK WIND 1400FT 09015KT,ENEV,2022-10-24T19:20:00Z,68.48,16.67,-4.0,-4.0,0,0,,6.21,29.852362,,,,,,,,,,,CAVOK,,,,,,,,VFR,,,,,,,,,,,,SPECI,26.0
ENDU 241920Z 00000KT CAVOK M08/M09 Q1012 RMK WIND 1100FT 10006KT WIND 2200FT 10008KT,ENDU,2022-10-24T19:20:00Z,69.05,18.55,-8.0,-9.0,0,0,,6.21,29.88189,,,,,,,,,,,CAVOK,,,,,,,,VFR,,0.6,,,,,,,,,,SPECI,65.0
ENDR 241920Z AUTO 07014KT 9999NDV NCD 10/06 Q1001 W///S4,ENDR,2022-10-24T19:20:00Z,64.35,7.77,10.0,6.0,70,14,,,29.557087,,,TRUE,,,,,,,,CLR,,,,,,,,,,,,,,,,,,,,SPECI,10.0
ENCN 241920Z 05012KT 4000 RA SCT003 BKN010 09/09 Q0997,ENCN,2022-10-24T19:20:00Z,58.2,8.07,9.0,9.0,50,12,,2.49,29.438976,,,,,,,,,,RA,SCT,300,BKN,1000,,,,,IFR,,,,,,,,,,,,METAR,17.0
ENBV 241920Z 20009KT 9999 FEW034 SCT049 OVC061 01/M02 Q1011,ENBV,2022-10-24T19:20:00Z,70.87,29.02,1.0,-2.0,200,9,,6.21,29.852362,,,,,,,,,,,FEW,3400,SCT,4900,OVC,6100,,,VFR,,,,,,,,,,,,METAR,13.0
ENBS 241920Z 21009KT 190V240 9999 BKN045 M00/M04 Q1011,ENBS,2022-10-24T19:20:00Z,70.62,29.68,0.0,-4.0,210,9,,6.21,29.852362,,,,,,,,,,,BKN,4500,,,,,,,VFR,,,,,,,,,,,,METAR,144.0
ENBR 241920Z 02003KT CAVOK 09/06 Q0998 NOSIG RMK WIND 1200FT 10009KT,ENBR,2022-10-24T19:20:00Z,60.28,5.22,9.0,6.0,20,3,,6.21,29.468504,,,,,,TRUE,,,,,CAVOK,,,,,,,,VFR,,0.9,,,,,,,,,,SPECI,49.0
ENBO 241920Z 08021KT CAVOK 01/M05 Q1008 NOSIG,ENBO,2022-10-24T19:20:00Z,67.27,14.37,1.0,-5.0,80,21,,6.21,29.763779,,,,,,TRUE,,,,,CAVOK,,,,,,,,VFR,,,,,,,,,,,,METAR,13.0
ENBN 241920Z 08011KT 040V100 CAVOK 06/00 Q1005,ENBN,2022-10-24T19:20:00Z,65.47,12.22,6.0,0.0,80,11,,6.21,29.675198,,,,,,,,,,,CAVOK,,,,,,,,VFR,,,,,,,,,,,,METAR,3.0
ENBL 241920Z 34004KT 9999 FEW056 08/03 Q0999,ENBL,2022-10-24T19:20:00Z,61.4,5.77,8.0,3.0,340,4,,6.21,29.498032,,,,,,,,,,,FEW,5600,,,,,,,VFR,,,,,,,,,,,,METAR,313.0
ENAT 241920Z 18003KT CAVOK M00/M00 Q1012 RMK WIND 700FT 17006KT,ENAT,2022-10-24T19:20:00Z,69.97,23.37,0.0,0.0,180,3,,6.21,29.88189,,,,,,,,,,,CAVOK,,,,,,,,VFR,,,,,,,,,,,,SPECI,3.0
ENAN 241920Z 10009KT CAVOK M00/M04 Q1011,ENAN,2022-10-24T19:20:00Z,69.3,16.13,0.0,-4.0,100,9,,6.21,29.852362,,,,,,,,,,,CAVOK,,,,,,,,VFR,,,,,,,,,,,,METAR,13.0
ENAL 241920Z 06006KT CAVOK 08/06 Q0999,ENAL,2022-10-24T19:20:00Z,62.57,6.12,8.0,6.0,60,6,,6.21,29.498032,,,,,,,,,,,CAVOK,,,,,,,,VFR,,,,,,,,,,,,METAR,21.0
ELLX 241920Z 22012KT CAVOK 14/11 Q1014 NOSIG,ELLX,2022-10-24T19:20:00Z,49.63,6.2,14.0,11.0,220,12,,6.21,29.940945,,,,,,TRUE,,,,,CAVOK,,,,,,,,VFR,,,,,,,,,,,,METAR,374.0
EKYT 241920Z AUTO 18011KT 9999 -RA BKN012/// BKN032/// 13/12 Q0998,EKYT,2022-10-24T19:20:00Z,57.1,9.87,13.0,12.0,180,11,,6.21,29.468504,,,TRUE,,,,,,,-RA,BKN,1200,BKN,3200,,,,,MVFR,,,,,,,,,,,,METAR,2.0
EKVG 241920Z AUTO 09011KT 9999 OVC032/// 11/07 Q0997 RMK OVC041/// WIND SKEID 10012KT,EKVG,2022-10-24T19:20:00Z,62.07,-7.27,11.0,7.0,90,11,,6.21,29.438976,,,TRUE,,,,,,,,OVC,3200,,,,,,,VFR,,1.2,,,,,,,,,,SPECI,89.0
EKVD 241920Z AUTO 22016KT //// ///////// 14/12 Q1003,EKVD,2022-10-24T19:20:00Z,55.43,9.32,14.0,12.0,220,16,,,29.616142,,,TRUE,,,,,,,,,,,,,,,,,,,,,,,,,,,,METAR,41.0
EKSP 241920Z 22014KT 9999 SCT011 BKN028 13/12 Q1003,EKSP,2022-10-24T19:20:00Z,55.22,9.27,13.0,12.0,220,14,,6.21,29.616142,,,,,,,,,,,SCT,1100,BKN,2800,,,,,MVFR,,,,,,,,,,,,METAR,40.0
EKSB 241920Z 23010G20KT 180V270 9999 BKN015 14/12 Q1004,EKSB,2022-10-24T19:20:00Z,54.97,9.8,14.0,12.0,230,10,20,6.21,29.64567,,,,,,,,,,,BKN,1500,,,,,,,MVFR,,,,,,,,,,,,METAR,23.0
EKRN 241920Z 21009KT 170V240 9999 FEW028TCU SCT042 14/13 Q1007,EKRN,2022-10-24T19:20:00Z,55.07,14.75,14.0,13.0,210,9,,6.21,29.734253,,,,,,,,,,,FEW,2800,SCT,4200,,,,,VFR,,,,,,,,,,,,METAR,14.0
EKRK 241920Z AUTO 21011KT 9999 SCT060/// BKN100/// 13/11 Q1005 RERA,EKRK,2022-10-24T19:20:00Z,55.58,12.13,13.0,11.0,210,11,,6.21,29.675198,,,TRUE,,,,,,,,SCT,6000,BKN,10000,,,,,VFR,,,,,,,,,,,,METAR,40.0
EKKA 241920Z AUTO 22015KT 9999 -RA BKN009/// 13/12 Q0999 RESHRA,EKKA,2022-10-24T19:20:00Z,56.3,9.12,13.0,12.0,220,15,,6.21,29.498032,,,TRUE,,,,,,,-RA,BKN,900,,,,,,,IFR,,,,,,,,,,,,METAR,50.0
EKEB 241920Z AUTO 20015KT 9999 BKN019/// 14/12 Q1002,EKEB,2022-10-24T19:20:00Z,55.52,8.55,14.0,12.0,200,15,,6.21,29.586615,,,TRUE,,,,,,,,BKN,1900,,,,,,,MVFR,,,,,,,,,,,,METAR,29.0
EKCH 241920Z 23014KT 9999 -SHRA SCT020CB BKN070 13/11 Q1005 TEMPO 22015G25KT SHRA SCT020,EKCH,2022-10-24T19:20:00Z,55.62,12.67,13.0,11.0,230,14,,6.21,29.675198,,,,,,,,,,-SHRA,SCT,2000,BKN,7000,,,,,VFR,,,,,,,,,,,,SPECI,4.0
EKBI 241920Z AUTO 22012KT 9999 BKN013/// 13/12 Q1002 REDZRA,EKBI,2022-10-24T19:20:00Z,55.73,9.15,13.0,12.0,220,12,,6.21,29.586615,,,TRUE,,,,,,,RA,BKN,1300,,,,,,,MVFR,,,,,,,,,,,,METAR,67.0
EKAH 241920Z AUTO 20007G20KT 150V270 9999 -RA BKN008/// BKN053/// 13/13 Q1001,EKAH,2022-10-24T19:20:00Z,56.28,10.62,13.0,13.0,200,7,20,6.21,29.557087,,,TRUE,,,,,,,-RA,BKN,800,BKN,5300,,,,,IFR,,,,,,,,,,,,METAR,25.0
EGYP 241920Z 20008KT 9999 FEW010 BKN050 09/07 Q0999 NOSIG,EGYP,2022-10-24T19:20:00Z,-51.82,-58.45,9.0,7.0,200,8,,6.21,29.498032,,,,,,TRUE,,,,,FEW,1000,BKN,5000,,,,,VFR,,,,,,,,,,,,METAR,70.0
EGYH 241920Z AUTO 21011KT 9999 NCD 12/11 Q1004,EGYH,2022-10-24T19:20:00Z,52.87,0.15,12.0,11.0,210,11,,6.21,29.64567,,,TRUE,,,,,,,,CLR,,,,,,,,VFR,,,,,,,,,,,,METAR,5.0
EGYE 241920Z AUTO 22012KT //// VV/// ///// Q////,EGYE,2022-10-24T19:20:00Z,52.97,-0.57,,,220,12,,,,,,TRUE,,,,,,,,OVX,0,,,,,,,LIFR,,,,,,,,,,,,METAR,105.0
EGYD 241920Z AUTO 22013KT 9999 NCD 12/11 Q1004,EGYD,2022-10-24T19:20:00Z,53.03,-0.5,12.0,11.0,220,13,,6.21,29.64567,,,TRUE,,,,,,,,CLR,,,,,,,,VFR,,,,,,,,,,,,METAR,65.0
EGXZ 241920Z AUTO 17007KT 9999 BKN019/// SCT039/// BKN050/// 12/10 Q1002,EGXZ,2022-10-24T19:20:00Z,54.2,-1.38,12.0,10.0,170,7,,6.21,29.586615,,,TRUE,,,,,,,,BKN,1900,SCT,3900,BKN,5000,,,MVFR,,,,,,,,,,,,METAR,24.0
EGXV 241920Z AUTO 22008KT 9999 BKN065/// 13/10 Q1002,EGXV,2022-10-24T19:20:00Z,53.87,-0.45,13.0,10.0,220,8,,6.21,29.586615,,,TRUE,,,,,,,,BKN,6500,,,,,,,VFR,,,,,,,,,,,,METAR,6.0
EGXE 241920Z AUTO 16006KT 9999 BR OVC021/// 13/10 Q1001,EGXE,2022-10-24T19:20:00Z,54.28,-1.52,13.0,10.0,160,6,,6.21,29.557087,,,TRUE,,,,,,,BR,OVC,2100,,,,,,,MVFR,,,,,,,,,,,,METAR,30.0
EGXC 241920Z 21008KT 9999 FEW040 13/11 Q1004 NOSIG RMK BLU BLU,EGXC,2022-10-24T19:20:00Z,53.1,-0.17,13.0,11.0,210,8,,6.21,29.64567,,,,,,TRUE,,,,,FEW,4000,,,,,,,VFR,,,,,,,,,,,,SPECI,9.0
EGWU 241920Z 23005KT 9999 FEW020 SCT060 BKN230 13/12 Q1007 NOSIG RMK BLU BLU,EGWU,2022-10-24T19:20:00Z,51.55,-0.42,13.0,12.0,230,5,,6.21,29.734253,,,,,,TRUE,,,,,FEW,2000,SCT,6000,BKN,23000,,,VFR,,,,,,,,,,,,METAR,33.0
EGVP 241920Z 21007KT 9999 FEW029 BKN220 12/12 Q1008 NOSIG RMK BLU BLU,EGVP,2022-10-24T19:20:00Z,51.13,-1.57,12.0,12.0,210,7,,6.21,29.763779,,,,,,TRUE,,,,,FEW,2900,BKN,22000,,,,,VFR,,,,,,,,,,,,SPECI,80.0
EGVO 241920Z 22009KT 9999 FEW015 SCT200 13/12 Q1008 NOSIG RMK BLU BLU,EGVO,2022-10-24T19:20:00Z,51.23,-0.95,13.0,12.0,220,9,,6.21,29.763779,,,,,,TRUE,,,,,FEW,1500,SCT,20000,,,,,VFR,,,,,,,,,,,,METAR,118.0
EGVN 241920Z 21005KT 9999 FEW020 BKN220 12/11 Q1006 NOSIG RMK BLU BLU,EGVN,2022-10-24T19:20:00Z,51.77,-1.58,12.0,11.0,210,5,,6.21,29.704725,,,,,,TRUE,,,,,FEW,2000,BKN,22000,,,,,VFR,,,,,,,,,,,,SPECI,83.0
EGUB 241920Z 19005KT 9999 BKN030 12/10 Q1007 NOSIG RMK BLU BLU,EGUB,2022-10-24T19:20:00Z,51.62,-1.08,12.0,10.0,190,5,,6.21,29.734253,,,,,,TRUE,,,,,BKN,3000,,,,,,,MVFR,,,,,,,,,,,,SPECI,56.0
EGTK 241920Z 23009KT 9999 FEW021 12/11 Q1006,EGTK,2022-10-24T19:20:00Z,51.83,-1.32,12.0,11.0,230,9,,6.21,29.704725,,,,,,,,,,,FEW,2100,,,,,,,VFR,,,,,,,,,,,,METAR,78.0
EGTE 241920Z 21008KT 9999 FEW025 12/10 Q1008,EGTE,2022-10-24T19:20:00Z,50.73,-3.42,12.0,10.0,210,8,,6.21,29.763779,,,,,,,,,,,FEW,2500,,,,,,,VFR,,,,,,,,,,,,METAR,30.0
EGSY 241920Z AUTO 23014KT 9999 BKN019/// BKN048/// 14/11 Q1007,EGSY,2022-10-24T19:20:00Z,51.4,-3.43,14.0,11.0,230,14,,6.21,29.734253,,,TRUE,,,,,,,,BKN,1900,BKN,4800,,,,,MVFR,,,,,,,,,,,,METAR,46.0
EGSS 241920Z AUTO 22008KT 9999 NCD 13/11 Q1007,EGSS,2022-10-24T19:20:00Z,51.88,0.22,13.0,11.0,220,8,,6.21,29.734253,,,TRUE,,,,,,,,CLR,,,,,,,,VFR,,,,,,,,,,,,METAR,101.0
EGSH 241920Z 22010KT CAVOK 14/12 Q1005,EGSH,2022-10-24T19:20:00Z,52.68,1.28,14.0,12.0,220,10,,6.21,29.675198,,,,,,,,,,,CAVOK,,,,,,,,VFR,,,,,,,,,,,,METAR,21.0
EGQK 241920Z AUTO 22008KT 9999 FEW240/// 11/09 Q0995,EGQK,2022-10-24T19:20:00Z,57.65,-3.57,11.0,9.0,220,8,,6.21,29.379921,,,TRUE,,,,,,,,FEW,24000,,,,,,,VFR,,,,,,,,,,,,METAR,5.0
EGPU 241920Z AUTO 23011KT 190V260 9999 SCT012/// 12/11 Q0995 RERA,EGPU,2022-10-24T19:20:00Z,56.5,-6.88,12.0,11.0,230,11,,6.21,29.379921,,,TRUE,,,,,,,,SCT,1200,,,,,,,VFR,,,,,,,,,,,,METAR,12.0
EGPO 241920Z AUTO 19011KT 9999 FEW027/// BKN031/// 12/11 Q0993,EGPO,2022-10-24T19:20:00Z,58.22,-6.32,12.0,11.0,190,11,,6.21,29.320866,,,TRUE,,,,,,,,FEW,2700,BKN,3100,,,,,VFR,,,,,,,,,,,,METAR,10.0
EGPN 241920Z 25004KT 9999 BKN020 12/11 Q0997,EGPN,2022-10-24T19:20:00Z,56.45,-3.02,12.0,11.0,250,4,,6.21,29.438976,,,,,,,,,,,BKN,2000,,,,,,,MVFR,,,,,,,,,,,,METAR,4.0
EGPL 241920Z AUTO 20012KT 9999 BKN003/// 12/11 Q0993,EGPL,2022-10-24T19:20:00Z,57.47,-7.37,12.0,11.0,200,12,,6.21,29.320866,,,TRUE,,,,,,,,BKN,300,,,,,,,LIFR,,,,,,,,,,,,METAR,3.0
EGPK 241920Z 19007KT 9999 -RA FEW044 12/10 Q0998,EGPK,2022-10-24T19:20:00Z,55.5,-4.58,12.0,10.0,190,7,,6.21,29.468504,,,,,,,,,,-RA,FEW,4400,,,,,,,VFR,,,,,,,,,,,,METAR,14.0
EGPI 241920Z AUTO 21015KT 9999 NCD 12/11 Q0997,EGPI,2022-10-24T19:20:00Z,55.68,-6.25,12.0,11.0,210,15,,6.21,29.438976,,,TRUE,,,,,,,,CLR,,,,,,,,VFR,,,,,,,,,,,,METAR,17.0
EGPH 241920Z 22006KT 9999 SCT032 11/09 Q0998,EGPH,2022-10-24T19:20:00Z,55.95,-3.35,11.0,9.0,220,6,,6.21,29.468504,,,,,,,,,,,SCT,3200,,,,,,,VFR,,,,,,,,,,,,METAR,29.0
EGPF 241920Z AUTO 24008KT 9999 SCT013/// BKN018/// BKN028/// //////CB 12/11 Q0998,EGPF,2022-10-24T19:20:00Z,55.87,-4.42,12.0,11.0,240,8,,6.21,29.468504,,,TRUE,,,,,,,,SCT,1300,BKN,1800,BKN,2800,,,MVFR,,,,,,,,,,,,SPECI,8.0
EGPE 241920Z 24004KT 9999 FEW038 10/08 Q0995,EGPE,2022-10-24T19:20:00Z,57.53,-4.05,10.0,8.0,240,4,,6.21,29.379921,,,,,,,,,,,FEW,3800,,,,,,,VFR,,,,,,,,,,,,METAR,7.0
EGPD 241920Z AUTO 23010KT 9999 NCD 12/09 Q0996 NOSIG,EGPD,2022-10-24T19:20:00Z,57.2,-2.22,12.0,9.0,230,10,,6.21,29.409449,,,TRUE,,,TRUE,,,,,CLR,,,,,,,,VFR,,,,,,,,,,,,METAR,65.0
EGPC 241920Z AUTO VRB02KT 9999 FEW040/// 11/10 Q0994,EGPC,2022-10-24T19:20:00Z,58.45,-3.08,11.0,10.0,0,2,,6.21,29.350393,,,TRUE,,,,,,,,FEW,4000,,,,,,,VFR,,,,,,,,,,,,METAR,38.0
EGPB 241920Z 14010KT 4500 -DZ BR OVC003 11/11 Q0995,EGPB,2022-10-24T19:20:00Z,59.87,-1.3,11.0,11.0,140,10,,2.8,29.379921,,,,,,,,,,-DZ BR,OVC,300,,,,,,,LIFR,,,,,,,,,,,,METAR,2.0
EGPA 241920Z AUTO 19007KT 9999 FEW013/// SCT027/// BKN037/// 12/11 Q0994,EGPA,2022-10-24T19:20:00Z,58.95,-2.9,12.0,11.0,190,7,,6.21,29.350393,,,TRUE,,,,,,,,FEW,1300,SCT,2700,BKN,3700,,,VFR,,,,,,,,,,,,METAR,15.0
EGOV 241920Z AUTO 22019KT 9999 OVC014/// 14/12 Q1002,EGOV,2022-10-24T19:20:00Z,53.25,-4.53,14.0,12.0,220,19,,6.21,29.586615,,,TRUE,,,,,,,,OVC,1400,,,,,,,MVFR,,,,,,,,,,,,METAR,11.0
EGOS 241920Z 22013KT 9999 FEW030 12/10 Q1004 NOSIG RMK BLU BLU,EGOS,2022-10-24T19:20:00Z,52.8,-2.67,12.0,10.0,220,13,,6.21,29.64567,,,,,,TRUE,,,,,FEW,3000,,,,,,,VFR,,,,,,,,,,,,METAR,76.0
EGOP 241920Z AUTO 25020KT 9999 BKN019/// BKN042/// 15/11 Q1006,EGOP,2022-10-24T19:20:00Z,51.72,-4.37,15.0,11.0,250,20,,6.21,29.704725,,,TRUE,,,,,,,,BKN,1900,BKN,4200,,,,,MVFR,,,,,,,,,,,,METAR,8.0
EGOM 241920Z AUTO 24008KT 9999 OVC008/// 10/10 Q0999,EGOM,2022-10-24T19:20:00Z,55.05,-2.55,10.0,10.0,240,8,,6.21,29.498032,,,TRUE,,,,,,,,OVC,800,,,,,,,IFR,,,,,,,,,,,,METAR,286.0
EGNX 241920Z 22011KT 9999 FEW029 SCT047 13/10 Q1004,EGNX,2022-10-24T19:20:00Z,52.82,-1.32,13.0,10.0,220,11,,6.21,29.64567,,,,,,,,,,,FEW,2900,SCT,4700,,,,,VFR,,,,,,,,,,,,METAR,91.0
EGNS 241920Z 25011KT 210V280 9999 FEW010 13/11 Q1001 NOSIG,EGNS,2022-10-24T19:20:00Z,54.08,-4.63,13.0,11.0,250,11,,6.21,29.557087,,,,,,TRUE,,,,,FEW,1000,,,,,,,VFR,,,,,,,,,,,,METAR,18.0
EGNR 241920Z 20008KT 9999 FEW038 12/10 Q1004,EGNR,2022-10-24T19:20:00Z,53.17,-2.98,12.0,10.0,200,8,,6.21,29.64567,,,,,,,,,,,FEW,3800,,,,,,,VFR,,,,,,,,,,,,METAR,11.0
EGNM 241920Z 23007KT 9999 SCT013 SCT031 12/09 Q1002,EGNM,2022-10-24T19:20:00Z,53.87,-1.65,12.0,9.0,230,7,,6.21,29.586615,,,,,,,,,,,SCT,1300,SCT,3100,,,,,VFR,,,,,,,,,,,,METAR,221.0
EGNJ 241920Z AUTO 19011KT 9999 NCD 12/11 Q1003,EGNJ,2022-10-24T19:20:00Z,53.57,-0.35,12.0,11.0,190,11,,6.21,29.616142,,,TRUE,,,,,,,,CLR,,,,,,,,VFR,,,,,,,,,,,,METAR,23.0
EGNH 241920Z 25017KT 9999 FEW017 SCT042 14/12 Q1002,EGNH,2022-10-24T19:20:00Z,53.77,-3.03,14.0,12.0,250,17,,6.21,29.586615,,,,,,,,,,,FEW,1700,SCT,4200,,,,,VFR,,,,,,,,,,,,METAR,10.0
EGMD 241920Z AUTO 24012KT 9999 NCD 15/13 Q1009,EGMD,2022-10-24T19:20:00Z,50.95,0.93,15.0,13.0,240,12,,6.21,29.793306,,,TRUE,,,,,,,,CLR,,,,,,,,VFR,,,,,,,,,,,,METAR,4.0
EGMC 241920Z 22009KT CAVOK 13/11 Q1007,EGMC,2022-10-24T19:20:00Z,51.57,0.7,13.0,11.0,220,9,,6.21,29.734253,,,,,,,,,,,CAVOK,,,,,,,,VFR,,,,,,,,,,,,METAR,15.0
EGLL 241920Z AUTO 22008KT 9999 //////CB 13/12 Q1007 NOSIG,EGLL,2022-10-24T19:20:00Z,51.48,-0.45,13.0,12.0,220,8,,6.21,29.734253,,,TRUE,,,TRUE,,,,,,,,,,,,,,,,,,,,,,,,,SPECI,26.0
EGLF 241920Z AUTO 21010KT 9999 NCD 13/11 Q1008,EGLF,2022-10-24T19:20:00Z,51.28,-0.77,13.0,11.0,210,10,,6.21,29.763779,,,TRUE,,,,,,,,CLR,,,,,,,,VFR,,,,,,,,,,,,METAR,65.0
EGLC 241920Z AUTO 24007KT 180V320 9999 SCT020 BKN033 15/12 Q1008,EGLC,2022-10-24T19:20:00Z,51.5,0.05,15.0,12.0,240,7,,6.21,29.763779,,,TRUE,,,,,,,,SCT,2000,BKN,3300,,,,,VFR,,,,,,,,,,,,METAR,10.0
EGKK 241920Z 20006KT 9999 SCT019 13/12 Q1008,EGKK,2022-10-24T19:20:00Z,51.13,-0.18,13.0,12.0,200,6,,6.21,29.763779,,,,,,,,,,,SCT,1900,,,,,,,VFR,,,,,,,,,,,,METAR,58.0
EGKB 241920Z 22011KT 9999 FEW035 13/11 Q1008,EGKB,2022-10-24T19:20:00Z,51.32,0.02,13.0,11.0,220,11,,6.21,29.763779,,,,,,,,,,,FEW,3500,,,,,,,VFR,,,,,,,,,,,,METAR,183.0
EGJJ 241920Z 24017KT 9999 FEW014 SCT038 15/13 Q1011,EGJJ,2022-10-24T19:20:00Z,49.22,-2.2,15.0,13.0,240,17,,6.21,29.852362,,,,,,,,,,,FEW,1400,SCT,3800,,,,,VFR,,,,,,,,,,,,METAR,84.0
EGJB 241920Z 24016KT 9999 FEW008 SCT011 15/12 Q1011,EGJB,2022-10-24T19:20:00Z,49.42,-2.6,15.0,12.0,240,16,,6.21,29.852362,,,,,,,,,,,FEW,800,SCT,1100,,,,,VFR,,,,,,,,,,,,METAR,102.0
EGHQ 241920Z 20006KT 9999 FEW020 12/11 Q1008,EGHQ,2022-10-24T19:20:00Z,50.43,-5.0,12.0,11.0,200,6,,6.21,29.763779,,,,,,,,,,,FEW,2000,,,,,,,VFR,,,,,,,,,,,,METAR,101.0
EGHI 241920Z 23005KT 9999 FEW022 14/11 Q1008,EGHI,2022-10-24T19:20:00Z,50.95,-1.35,14.0,11.0,230,5,,6.21,29.763779,,,,,,,,,,,FEW,2200,,,,,,,VFR,,,,,,,,,,,,METAR,13.0
EGHH 241920Z 24007KT 9999 FEW022 14/12 Q1008,EGHH,2022-10-24T19:20:00Z,50.78,-1.83,14.0,12.0,240,7,,6.21,29.763779,,,,,,,,,,,FEW,2200,,,,,,,VFR,,,,,,,,,,,,METAR,9.0
EGGW 241920Z AUTO 21006KT 9999 NCD 12/09 Q1007,EGGW,2022-10-24T19:20:00Z,51.87,-0.37,12.0,9.0,210,6,,6.21,29.734253,,,TRUE,,,,,,,,CLR,,,,,,,,VFR,,,,,,,,,,,,METAR,159.0
EGGP 241920Z 15004KT 090V210 9999 SCT040 12/10 Q1003,EGGP,2022-10-24T19:20:00Z,53.33,-2.85,12.0,10.0,150,4,,6.21,29.616142,,,,,,,,,,,SCT,4000,,,,,,,VFR,,,,,,,,,,,,METAR,23.0
EGGD 241920Z AUTO 22007KT 180V260 9999 BKN017 BKN042 12/10 Q1007,EGGD,2022-10-24T19:20:00Z,51.37,-2.72,12.0,10.0,220,7,,6.21,29.734253,,,TRUE,,,,,,,,BKN,1700,BKN,4200,,,,,MVFR,,,,,,,,,,,,METAR,182.0
EGFF 241920Z AUTO 25011KT 9999 FEW022 SCT039 14/11 Q1007,EGFF,2022-10-24T19:20:00Z,51.38,-3.35,14.0,11.0,250,11,,6.21,29.734253,,,TRUE,,,,,,,,FEW,2200,SCT,3900,,,,,VFR,,,,,,,,,,,,METAR,65.0
EGDY 241920Z 18007KT 9999 FEW010 SCT200 13/11 Q1008 TEMPO 7000 -SHRA SCT020 RMK BLU TEMPO WHT,EGDY,2022-10-24T19:20:00Z,51.0,-2.63,13.0,11.0,180,7,,6.21,29.763779,,,,,,,,,,,FEW,1000,SCT,20000,,,,,VFR,,,,,,,,,,,,SPECI,21.0
EGDR 241920Z AUTO 21006KT 9999 FEW021/// SCT046/// 14/12 Q1008,EGDR,2022-10-24T19:20:00Z,50.08,-5.25,14.0,12.0,210,6,,6.21,29.763779,,,TRUE,,,,,,,,FEW,2100,SCT,4600,,,,,VFR,,,,,,,,,,,,METAR,74.0
EGDM 241920Z AUTO 22006KT 9999 FEW019/// 12/11 Q1008,EGDM,2022-10-24T19:20:00Z,51.17,-1.75,12.0,11.0,220,6,,6.21,29.763779,,,TRUE,,,,,,,,FEW,1900,,,,,,,VFR,,,,,,,,,,,,METAR,122.0
EGCN 241920Z 19006KT CAVOK 12/09 Q1004,EGCN,2022-10-24T19:20:00Z,53.48,-1.0,12.0,9.0,190,6,,6.21,29.64567,,,,,,,,,,,CAVOK,,,,,,,,VFR,,,,,,,,,,,,METAR,9.0
EGCK 241920Z AUTO 22015KT 9999 OVC015/// 14/11 Q1003,EGCK,2022-10-24T19:20:00Z,53.1,-4.33,14.0,11.0,220,15,,6.21,29.616142,,,TRUE,,,,,,,,OVC,1500,,,,,,,MVFR,,,,,,,,,,,,METAR,6.0
EGCC 241920Z AUTO 20006KT 150V220 9999 SCT045 12/10 Q1003 NOSIG,EGCC,2022-10-24T19:20:00Z,53.35,-2.27,12.0,10.0,200,6,,6.21,29.616142,,,TRUE,,,TRUE,,,,,SCT,4500,,,,,,,VFR,,,,,,,,,,,,METAR,78.0
EGBB 241920Z 20005KT 180V240 9999 FEW029 12/10 Q1005,EGBB,2022-10-24T19:20:00Z,52.47,-1.75,12.0,10.0,200,5,,6.21,29.675198,,,,,,,,,,,FEW,2900,,,,,,,VFR,,,,,,,,,,,,METAR,91.0
EGAE 241920Z 21007KT 9999 FEW020 12/11 Q0998,EGAE,2022-10-24T19:20:00Z,55.03,-7.15,12.0,11.0,210,7,,6.21,29.468504,,,,,,,,,,,FEW,2000,,,,,,,VFR,,,,,,,,,,,,METAR,9.0
EGAC 241920Z AUTO 21007KT 9999 NCD 11/10 Q0999,EGAC,2022-10-24T19:20:00Z,54.62,-5.87,11.0,10.0,210,7,,6.21,29.498032,,,TRUE,,,,,,,,CLR,,,,,,,,VFR,,,,,,,,,,,,METAR,2.0
EGAA 241920Z AUTO 20006KT 160V230 9999 FEW024 SCT029 11/10 Q0999,EGAA,2022-10-24T19:20:00Z,54.65,-6.22,11.0,10.0,200,6,,6.21,29.498032,,,TRUE,,,,,,,,FEW,2400,SCT,2900,,,,,VFR,,,,,,,,,,,,METAR,65.0
EFVA 241920Z AUTO 13004KT 9999 SCT029 01/M02 Q1014,EFVA,2022-10-24T19:20:00Z,63.05,21.77,1.0,-2.0,130,4,,6.21,29.940945,,,TRUE,,,,,,,,SCT,2900,,,,,,,VFR,,,,,,,,,,,,METAR,4.0
EFUT 241920Z AUTO 10001KT CAVOK M03/M04 Q1016,EFUT,2022-10-24T19:20:00Z,60.88,26.93,-3.0,-4.0,100,1,,6.21,30.0,,,TRUE,,,,,,,,CAVOK,,,,,,,,VFR,,,,,,,,,,,,METAR,104.0
EFTU 241920Z AUTO 09004KT CAVOK M01/M03 Q1014,EFTU,2022-10-24T19:20:00Z,60.52,22.27,-1.0,-3.0,90,4,,6.21,29.940945,,,TRUE,,,,,,,,CAVOK,,,,,,,,VFR,,,,,,,,,,,,METAR,47.0
EFTP 241920Z AUTO VRB01KT CAVOK M03/M04 Q1015,EFTP,2022-10-24T19:20:00Z,61.42,23.62,-3.0,-4.0,0,1,,6.21,29.970472,,,TRUE,,,,,,,,CAVOK,,,,,,,,VFR,,,,,,,,,,,,METAR,111.0
EFSI 241920Z AUTO 14005KT CAVOK M05/M06 Q1015,EFSI,2022-10-24T19:20:00Z,62.7,22.83,-5.0,-6.0,140,5,,6.21,29.970472,,,TRUE,,,,,,,,CAVOK,,,,,,,,VFR,,,,,,,,,,,,METAR,90.0
EFSA 241920Z AUTO VRB01KT 9999 NSC M03/M04 Q1015,EFSA,2022-10-24T19:20:00Z,61.95,28.93,-3.0,-4.0,0,1,,6.21,29.970472,,,TRUE,,,,,,,,CLR,,,,,,,,VFR,,,,,,,,,,,,METAR,90.0
EFRO 241920Z AUTO 22001KT CAVOK M05/M05 Q1013,EFRO,2022-10-24T19:20:00Z,66.57,25.82,-5.0,-5.0,220,1,,6.21,29.911417,,,TRUE,,,,,,,,CAVOK,,,,,,,,VFR,,,,,,,,,,,,METAR,201.0
EFPO 241920Z AUTO 14002KT CAVOK M02/M04 Q1014,EFPO,2022-10-24T19:20:00Z,61.47,21.8,-2.0,-4.0,140,2,,6.21,29.940945,,,TRUE,,,,,,,,CAVOK,,,,,,,,VFR,,,,,,,,,,,,METAR,10.0
EFOU 241920Z AUTO 14002KT 9999 SCT023 M03/M04 Q1015 REFZUP,EFOU,2022-10-24T19:20:00Z,64.92,25.37,-3.0,-4.0,140,2,,6.21,29.970472,,,TRUE,,,,,,,,SCT,2300,,,,,,,VFR,,,,,,,,,,,,METAR,15.0
EFMI 241920Z AUTO VRB01KT 5000 NCD M04/M04 Q1016,EFMI,2022-10-24T19:20:00Z,61.68,27.2,-4.0,-4.0,0,1,,3.11,30.0,,,TRUE,,,,,,,,CLR,,,,,,,,MVFR,,,,,,,,,,,,METAR,99.0
EFMA 241920Z 10004KT 060V140 CAVOK 06/03 Q1012,EFMA,2022-10-24T19:20:00Z,60.12,19.9,6.0,3.0,100,4,,6.21,29.88189,,,,,,,,,,,CAVOK,,,,,,,,VFR,,,,,,,,,,,,METAR,6.0
EFLP 241920Z AUTO VRB01KT CAVOK M03/M04 Q1016,EFLP,2022-10-24T19:20:00Z,61.03,28.15,-3.0,-4.0,0,1,,6.21,30.0,,,TRUE,,,,,,,,CAVOK,,,,,,,,VFR,,,,,,,,,,,,METAR,102.0
EFKU 241920Z AUTO VRB01KT CAVOK M02/M03 Q1015,EFKU,2022-10-24T19:20:00Z,63.02,27.8,-2.0,-3.0,0,1,,6.21,29.970472,,,TRUE,,,,,,,,CAVOK,,,,,,,,VFR,,,,,,,,,,,,METAR,92.0
EFKT 241920Z AUTO 19001KT CAVOK M06/M07 Q1012,EFKT,2022-10-24T19:20:00Z,67.7,24.85,-6.0,-7.0,190,1,,6.21,29.88189,,,TRUE,,,,,,,,CAVOK,,,,,,,,VFR,,,,,,,,,,,,METAR,190.0
EFKS 241920Z AUTO VRB01KT CAVOK M07/M07 Q1013,EFKS,2022-10-24T19:20:00Z,66.0,29.23,-7.0,-7.0,0,1,,6.21,29.911417,,,TRUE,,,,,,,,CAVOK,,,,,,,,VFR,,,,,,,,,,,,METAR,270.0
EFKK 241920Z AUTO 12002KT CAVOK M04/M04 Q1015,EFKK,2022-10-24T19:20:00Z,63.72,23.13,-4.0,-4.0,120,2,,6.21,29.970472,,,TRUE,,,,,,,,CAVOK,,,,,,,,VFR,,,,,,,,,,,,METAR,25.0
EFKI 241920Z AUTO 10001KT CAVOK M05/M06 Q1015,EFKI,2022-10-24T19:20:00Z,64.27,27.67,-5.0,-6.0,100,1,,6.21,29.970472,,,TRUE,,,,,,,,CAVOK,,,,,,,,VFR,,,,,,,,,,,,METAR,132.0
EFKE 241920Z AUTO VRB01KT CAVOK M08/M10 Q1015,EFKE,2022-10-24T19:20:00Z,65.78,24.57,-8.0,-10.0,0,1,,6.21,29.970472,,,TRUE,,,,,,,,CAVOK,,,,,,,,VFR,,,,,,,,,,,,METAR,15.0
EFJY 241920Z AUTO VRB01KT CAVOK M02/M03 Q1015,EFJY,2022-10-24T19:20:00Z,62.4,25.68,-2.0,-3.0,0,1,,6.21,29.970472,,,TRUE,,,,,,,,CAVOK,,,,,,,,VFR,,,,,,,,,,,,METAR,139.0
EFJO 241920Z AUTO 29002KT CAVOK M03/M04 Q1015,EFJO,2022-10-24T19:20:00Z,62.67,29.62,-3.0,-4.0,290,2,,6.21,29.970472,,,TRUE,,,,,,,,CAVOK,,,,,,,,VFR,,,,,,,,,,,,METAR,118.0
EFIV 241920Z AUTO 22004KT 9999 SCT037 M02/M03 Q1012,EFIV,2022-10-24T19:20:00Z,68.62,27.42,-2.0,-3.0,220,4,,6.21,29.88189,,,TRUE,,,,,,,,SCT,3700,,,,,,,VFR,,,,,,,,,,,,METAR,145.0
EFHK 241920Z 05005KT CAVOK M03/M04 Q1015 NOSIG,EFHK,2022-10-24T19:20:00Z,60.32,24.97,-3.0,-4.0,50,5,,6.21,29.970472,,,,,,TRUE,,,,,CAVOK,,,,,,,,VFR,,,,,,,,,,,,METAR,56.0
EFHA 241920Z AUTO 14002KT 1200 R26/1500D BCFG FEW001 M03/M03 Q1015,EFHA,2022-10-24T19:20:00Z,61.85,24.8,-3.0,-3.0,140,2,,0.75,29.970472,,,TRUE,,,,,,,BCFG,FEW,100,,,,,,,LIFR,,,,,,,,,,,,SPECI,144.0
EFET 241920Z AUTO 01002KT CAVOK M07/M07 Q1012,EFET,2022-10-24T19:20:00Z,68.37,23.43,-7.0,-7.0,10,2,,6.21,29.88189,,,TRUE,,,,,,,,CAVOK,,,,,,,,VFR,,,,,,,,,,,,METAR,300.0
EETU 241920Z AUTO 10004KT 9999 SCT028/// OVC062/// 01/M00 Q1015,EETU,2022-10-24T19:20:00Z,58.32,26.68,1.0,0.0,100,4,,6.21,29.970472,,,TRUE,,,,,,,,SCT,2800,OVC,6200,,,,,VFR,,,,,,,,,,,,METAR,67.0
EETN 241920Z 10005KT CAVOK 01/M02 Q1015 NOSIG,EETN,2022-10-24T19:20:00Z,59.4,24.82,1.0,-2.0,100,5,,6.21,29.970472,,,,,,TRUE,,,,,CAVOK,,,,,,,,VFR,,,,,,,,,,,,METAR,41.0
EEPU 241920Z AUTO 09004KT 9999 SCT033/// SCT044/// OVC055/// 06/03 Q1014,EEPU,2022-10-24T19:20:00Z,58.42,24.47,6.0,3.0,90,4,,6.21,29.940945,,,TRUE,,,,,,,,SCT,3300,SCT,4400,OVC,5500,,,VFR,,,,,,,,,,,,METAR,13.0
EEKE 241920Z AUTO 14009KT 9999NDV -DZ OVC009 10/08 Q1013,EEKE,2022-10-24T19:20:00Z,58.23,22.52,10.0,8.0,140,9,,,29.911417,,,TRUE,,,,,,,-DZ,OVC,900,,,,,,,,,,,,,,,,,,,METAR,4.0
EDXW 241920Z AUTO 24015KT 9999 // SCT019/// BKN023/// BKN240/// 14/12 Q1004,EDXW,2022-10-24T19:20:00Z,54.92,8.33,14.0,12.0,240,15,,6.21,29.64567,,,TRUE,,,,,,,,SCT,1900,BKN,2300,BKN,24000,,,MVFR,,,,,,,,,,,,METAR,8.0
EDWE 241920Z AUTO 21008KT 180V240 9999 // NCD 14/12 Q1007,EDWE,2022-10-24T19:20:00Z,53.38,7.23,14.0,12.0,210,8,,6.21,29.734253,,,TRUE,,,,,,,,CLR,,,,,,,,VFR,,,,,,,,,,,,SPECI,0.0
EDVK 241920Z 20009KT CAVOK 15/09 Q1011,EDVK,2022-10-24T19:20:00Z,51.4,9.37,15.0,9.0,200,9,,6.21,29.852362,,,,,,,,,,,CAVOK,,,,,,,,VFR,,,,,,,,,,,,METAR,277.0
EDVE 241920Z 22005KT 190V250 CAVOK 15/10 Q1010,EDVE,2022-10-24T19:20:00Z,52.32,10.55,15.0,10.0,220,5,,6.21,29.822834,,,,,,,,,,,CAVOK,,,,,,,,VFR,,,,,,,,,,,,METAR,83.0
EDTY 241920Z AUTO 22011KT 9999 // FEW023/// SCT026/// OVC067/// 13/11 Q1017,EDTY,2022-10-24T19:20:00Z,49.12,9.78,13.0,11.0,220,11,,6.21,30.029528,,,TRUE,,,,,,,,FEW,2300,SCT,2600,OVC,6700,,,VFR,,,,,,,,,,,,SPECI,398.0
EDTL 241920Z AUTO 27007G19KT 220V320 9999 // FEW001/// SCT022/// BKN035/// 12/12 Q1017,EDTL,2022-10-24T19:20:00Z,48.37,7.83,12.0,12.0,270,7,19,6.21,30.029528,,,TRUE,,,,,,,,FEW,100,SCT,2200,BKN,3500,,,VFR,,,,,,,,,,,,METAR,152.0
EDSB 241920Z 21014KT 6000 SHRA SCT022CB BKN060 14/12 Q1016,EDSB,2022-10-24T19:20:00Z,48.78,8.08,14.0,12.0,210,14,,3.73,30.0,,,,,,,,,,SHRA,SCT,2200,BKN,6000,,,,,MVFR,,,,,,,,,,,,METAR,122.0
EDQM 241920Z AUTO 21014KT 170V230 9999 // FEW009/// BKN011/// BKN013/// 13/11 Q1015,EDQM,2022-10-24T19:20:00Z,50.3,11.85,13.0,11.0,210,14,,6.21,29.970472,,,TRUE,,,,,,,,FEW,900,BKN,1100,BKN,1300,,,MVFR,,,,,,,,,,,,METAR,578.0
EDNY 241920Z 35003KT CAVOK 11/10 Q1018,EDNY,2022-10-24T19:20:00Z,47.67,9.52,11.0,10.0,350,3,,6.21,30.059055,,,,,,,,,,,CAVOK,,,,,,,,VFR,,,,,,,,,,,,METAR,411.0
EDMO 241920Z AUTO 17008KT 9999 // BKN091/// OVC120/// 12/10 Q1018,EDMO,2022-10-24T19:20:00Z,48.07,11.27,12.0,10.0,170,8,,6.21,30.059055,,,TRUE,,,,,,,,BKN,9100,OVC,12000,,,,,VFR,,,,,,,,,,,,METAR,587.0
EDMA 241920Z AUTO 14005KT 120V180 9999 // BKN140/// BKN190/// 11/10 Q1018,EDMA,2022-10-24T19:20:00Z,48.42,10.92,11.0,10.0,140,5,,6.21,30.059055,,,TRUE,,,,,,,,BKN,14000,BKN,19000,,,,,VFR,,,,,,,,,,,,METAR,462.0
EDLW 241920Z 19011KT 9999 SCT048 13/11 Q1010,EDLW,2022-10-24T19:20:00Z,51.52,7.62,13.0,11.0,190,11,,6.21,29.822834,,,,,,,,,,,SCT,4800,,,,,,,VFR,,,,,,,,,,,,METAR,122.0
EDLV 241920Z 19007KT 160V220 9999 -RA SCT024 15/13 Q1009,EDLV,2022-10-24T19:20:00Z,51.6,6.15,15.0,13.0,190,7,,6.21,29.793306,,,,,,,,,,-RA,SCT,2400,,,,,,,VFR,,,,,,,,,,,,METAR,27.0
EDLP 241920Z 21010KT 9999 FEW032 SCT045 14/10 Q1011,EDLP,2022-10-24T19:20:00Z,51.62,8.62,14.0,10.0,210,10,,6.21,29.852362,,,,,,,,,,,FEW,3200,SCT,4500,,,,,VFR,,,,,,,,,,,,METAR,211.0
EDLN 241920Z AUTO 17003KT 9999 // FEW040/// BKN058/// BKN083/// 13/12 Q1010,EDLN,2022-10-24T19:20:00Z,51.23,6.5,13.0,12.0,170,3,,6.21,29.822834,,,TRUE,,,,,,,,FEW,4000,BKN,5800,BKN,8300,,,VFR,,,,,,,,,,,,METAR,38.0
EDJA 241920Z 22007KT CAVOK 10/09 Q1018,EDJA,2022-10-24T19:20:00Z,47.98,10.23,10.0,9.0,220,7,,6.21,30.059055,,,,,,,,,,,CAVOK,,,,,,,,VFR,,,,,,,,,,,,METAR,625.0
EDHL 241920Z AUTO VRB04KT 9999 // SCT030/// BKN069/// 15/11 Q1007,EDHL,2022-10-24T19:20:00Z,53.8,10.72,15.0,11.0,0,4,,6.21,29.734253,,,TRUE,,,,,,,,SCT,3000,BKN,6900,,,,,VFR,,,,,,,,,,,,METAR,13.0
EDHK 241920Z AUTO 23009KT 200V260 9999 // FEW018/// BKN060/// 13/11 Q1006,EDHK,2022-10-24T19:20:00Z,54.38,10.15,13.0,11.0,230,9,,6.21,29.704725,,,TRUE,,,,,,,,FEW,1800,BKN,6000,,,,,VFR,,,,,,,,,,,,METAR,24.0
EDHI 241920Z AUTO 23011KT 190V250 9999 // FEW026/// 14/12 Q1007,EDHI,2022-10-24T19:20:00Z,53.53,9.83,14.0,12.0,230,11,,6.21,29.734253,,,TRUE,,,,,,,,FEW,2600,,,,,,,VFR,,,,,,,,,,,,METAR,5.0
EDGS 241920Z AUTO 22008KT 180V240 9999 // FEW021/// SCT030/// OVC042/// 12/10 Q1013,EDGS,2022-10-24T19:20:00Z,50.7,8.08,12.0,10.0,220,8,,6.21,29.911417,,,TRUE,,,,,,,,FEW,2100,SCT,3000,OVC,4200,,,VFR,,,,,,,,,,,,SPECI,595.0
EDFM 241920Z AUTO 19008KT 170V230 9999 SCT050/// BKN170/// BKN230/// 17/13 Q1015,EDFM,2022-10-24T19:20:00Z,49.47,8.52,17.0,13.0,190,8,,6.21,29.970472,,,TRUE,,,,,,,,SCT,5000,BKN,17000,BKN,23000,,,VFR,,,,,,,,,,,,METAR,94.0
EDFH 241920Z 22010KT 180V250 9999 FEW025 14/10 Q1013,EDFH,2022-10-24T19:20:00Z,49.95,7.27,14.0,10.0,220,10,,6.21,29.911417,,,,,,,,,,,FEW,2500,,,,,,,VFR,,,,,,,,,,,,METAR,494.0
EDDW 241920Z AUTO 21006KT 9999 FEW028 SCT048 14/12 Q1008 NOSIG,EDDW,2022-10-24T19:20:00Z,53.03,8.8,14.0,12.0,210,6,,6.21,29.763779,,,TRUE,,,TRUE,,,,,FEW,2800,SCT,4800,,,,,VFR,,,,,,,,,,,,METAR,5.0
EDDV 241920Z AUTO 22007KT 190V250 9999 FEW040 15/11 Q1009 NOSIG,EDDV,2022-10-24T19:20:00Z,52.47,9.68,15.0,11.0,220,7,,6.21,29.793306,,,TRUE,,,TRUE,,,,,FEW,4000,,,,,,,VFR,,,,,,,,,,,,METAR,53.0
EDDS 241920Z AUTO 25007KT 210V270 9999 SHRA SCT///TCU 13/09 Q1017,EDDS,2022-10-24T19:20:00Z,48.68,9.22,13.0,9.0,250,7,,6.21,30.029528,,,TRUE,,,,,,,SHRA,,,,,,,,,,,,,,,,,,,,,SPECI,374.0
EDDR 241920Z AUTO 22009KT CAVOK 14/11 Q1015,EDDR,2022-10-24T19:20:00Z,49.22,7.1,14.0,11.0,220,9,,6.21,29.970472,,,TRUE,,,,,,,,CAVOK,,,,,,,,VFR,,,,,,,,,,,,METAR,317.0
EDDP 241920Z AUTO 18008KT CAVOK 15/12 Q1012 NOSIG,EDDP,2022-10-24T19:20:00Z,51.43,12.23,15.0,12.0,180,8,,6.21,29.88189,,,TRUE,,,TRUE,,,,,CAVOK,,,,,,,,VFR,,,,,,,,,,,,METAR,129.0
EDDN 241920Z AUTO 14004KT 110V170 9999 -SHRA SCT///TCU 13/11 Q1016 TEMPO 23010KT SHRA BKN040CB,EDDN,2022-10-24T19:20:00Z,49.5,11.05,13.0,11.0,140,4,,6.21,30.0,,,TRUE,,,,,,,-SHRA,,,,,,,,,,,,,,,,,,,,,SPECI,312.0
EDDM 241920Z AUTO 18006KT CAVOK 12/11 Q1018 NOSIG,EDDM,2022-10-24T19:20:00Z,48.35,11.82,12.0,11.0,180,6,,6.21,30.059055,,,TRUE,,,TRUE,,,,,CAVOK,,,,,,,,VFR,,,,,,,,,,,,METAR,445.0
EDDL 241920Z AUTO 18006KT 9999 VCSH SCT036 FEW///TCU 14/12 Q1010 RETSRA TEMPO SHRA,EDDL,2022-10-24T19:20:00Z,51.3,6.77,14.0,12.0,180,6,,6.21,29.822834,,,TRUE,,,,,,,VCSH,SCT,3600,,,,,,,VFR,,,,,,,,,,,,METAR,37.0
EDDK 241920Z AUTO 19010KT 9999 VCSH FEW///CB 16/12 Q1011 RESHRA NOSIG,EDDK,2022-10-24T19:20:00Z,50.87,7.15,16.0,12.0,190,10,,6.21,29.852362,,,TRUE,,,TRUE,,,,VCSH,,,,,,,,,,,,,,,,,,,,,METAR,92.0
EDDH 241920Z AUTO 23013KT 9999 FEW022 15/11 Q1007 NOSIG,EDDH,2022-10-24T19:20:00Z,53.63,10.0,15.0,11.0,230,13,,6.21,29.734253,,,TRUE,,,TRUE,,,,,FEW,2200,,,,,,,VFR,,,,,,,,,,,,METAR,8.0
EDDG 241920Z AUTO 20006KT 160V220 CAVOK 14/12 Q1009 NOSIG,EDDG,2022-10-24T19:20:00Z,52.13,7.7,14.0,12.0,200,6,,6.21,29.793306,,,TRUE,,,TRUE,,,,,CAVOK,,,,,,,,VFR,,,,,,,,,,,,METAR,46.0
EDDF 241920Z AUTO 19007KT CAVOK 16/10 Q1013,EDDF,2022-10-24T19:20:00Z,50.05,8.6,16.0,10.0,190,7,,6.21,29.911417,,,TRUE,,,,,,,,CAVOK,,,,,,,,VFR,,,,,,,,,,,,METAR,113.0
EDDE 241920Z AUTO 21010KT CAVOK 15/11 Q1012 NOSIG,EDDE,2022-10-24T19:20:00Z,50.98,10.97,15.0,11.0,210,10,,6.21,29.88189,,,TRUE,,,TRUE,,,,,CAVOK,,,,,,,,VFR,,,,,,,,,,,,METAR,314.0
EDDC 241920Z AUTO 18007KT CAVOK 14/11 Q1013 NOSIG,EDDC,2022-10-24T19:20:00Z,51.13,13.75,14.0,11.0,180,7,,6.21,29.911417,,,TRUE,,,TRUE,,,,,CAVOK,,,,,,,,VFR,,,,,,,,,,,,METAR,227.0
EDDB 241920Z AUTO 22013KT CAVOK 16/12 Q1010 NOSIG,EDDB,2022-10-24T19:20:00Z,52.38,13.53,16.0,12.0,220,13,,6.21,29.822834,,,TRUE,,,TRUE,,,,,CAVOK,,,,,,,,VFR,,,,,,,,,,,,METAR,48.0
EDBC 241920Z AUTO 21012KT 9999 // FEW069/// BKN082/// BKN240/// 16/11 Q1011,EDBC,2022-10-24T19:20:00Z,51.85,11.42,16.0,11.0,210,12,,6.21,29.852362,,,TRUE,,,,,,,,FEW,6900,BKN,8200,BKN,24000,,,VFR,,,,,,,,,,,,METAR,178.0
EDAC 241920Z AUTO 20013KT 9999 // NCD 15/12 Q1013,EDAC,2022-10-24T19:20:00Z,50.98,12.5,15.0,12.0,200,13,,6.21,29.911417,,,TRUE,,,,,,,,CLR,,,,,,,,VFR,,,,,,,,,,,,METAR,193.0
EBOS 241920Z 22011KT 9999 -SHRA SCT030TCU 13/12 Q1009 TEMPO 23020G30KT 4000 SHRA,EBOS,2022-10-24T19:20:00Z,51.2,2.87,13.0,12.0,220,11,,6.21,29.793306,,,,,,,,,,-SHRA,SCT,3000,,,,,,,VFR,,,,,,,,,,,,METAR,5.0
EBLG 241920Z 21014KT 9999 FEW023 14/11 Q1011 NOSIG,EBLG,2022-10-24T19:20:00Z,50.63,5.45,14.0,11.0,210,14,,6.21,29.852362,,,,,,TRUE,,,,,FEW,2300,,,,,,,VFR,,,,,,,,,,,,METAR,187.0
EBCI 241920Z 21011KT 9999 FEW035 14/11 Q1011 TEMPO 4000 TSRA,EBCI,2022-10-24T19:20:00Z,50.47,4.45,14.0,11.0,210,11,,6.21,29.852362,,,,,,,,,,,FEW,3500,,,,,,,VFR,,,,,,,,,,,,METAR,176.0
EBBR 241920Z 21007KT 9999 -SHRA FEW040 13/11 Q1010 TEMPO 4000 SHRA,EBBR,2022-10-24T19:20:00Z,50.9,4.52,13.0,11.0,210,7,,6.21,29.822834,,,,,,,,,,-SHRA,FEW,4000,,,,,,,VFR,,,,,,,,,,,,METAR,49.0
EBAW 241920Z AUTO 21009KT 9999 DZ FEW036/// 13/11 Q1010,EBAW,2022-10-24T19:20:00Z,51.2,4.47,13.0,11.0,210,9,,6.21,29.822834,,,TRUE,,,,,,,DZ,FEW,3600,,,,,,,VFR,,,,,,,,,,,,METAR,7.0
PALU 241919Z AUTO 19022KT 10SM -SHRA BKN008 01/M01 A2970 RMK AO2 PK WND 19028/1906 SLP058,PALU,2022-10-24T19:19:00Z,68.88,-166.1,1.0,-1.0,190,22,,10.0,29.698818,1005.8,,TRUE,TRUE,,,,,,-SHRA,BKN,800,,,,,,,IFR,,,,,,,,,,,,SPECI,8.0
KW99 241919Z AUTO 14004KT 10SM CLR 24/08 A3011 RMK AO2,KW99,2022-10-24T19:19:00Z,39.0,-79.15,24.0,8.0,140,4,,10.0,30.109253,,,TRUE,TRUE,,,,,,,CLR,,,,,,,,VFR,,,,,,,,,,,,SPECI,288.0
KTEB 241919Z 07004KT 1 1/2SM BR OVC004 16/14 A3013 RMK AO2 SFC VIS 2 1/2 T01560144,KTEB,2022-10-24T19:19:00Z,40.87,-74.05,15.6,14.4,70,4,,1.5,30.129921,,,,TRUE,,,,,,BR,OVC,400,,,,,,,LIFR,,,,,,,,,,,,SPECI,3.0
KSDY 241919Z AUTO 30020G26KT 10SM SCT020 BKN033 03/M01 A2966 RMK AO2 PK WND 30029/1900 PNO $,KSDY,2022-10-24T19:19:00Z,47.7,-104.2,3.0,-1.0,300,20,26,10.0,29.660433,,,TRUE,TRUE,TRUE,,,,,,SCT,2000,BKN,3300,,,,,VFR,,,,,,,,,,,,SPECI,600.0
KRGA 241919Z AUTO 14011KT 10SM CLR 26/04 A3008 RMK AO2,KRGA,2022-10-24T19:19:00Z,37.63,-84.33,26.0,4.0,140,11,,10.0,30.079725,,,TRUE,TRUE,,,,,,,CLR,,,,,,,,VFR,,,,,,,,,,,,SPECI,301.0
KGDV 241919Z AUTO 31021G27KT 10SM BKN019 02/M01 A2973 RMK AO2 PK WND 30027/1911 FZRANO,KGDV,2022-10-24T19:19:00Z,47.13,-104.8,2.0,-1.0,310,21,27,10.0,29.731298,,,TRUE,TRUE,,,,TRUE,,,BKN,1900,,,,,,,MVFR,,,,,,,,,,,,SPECI,749.0
KFME 241919Z AUTO 31003KT 10SM OVC014 16/12 A3015 RMK AO1,KFME,2022-10-24T19:19:00Z,39.08,-76.77,16.0,12.0,310,3,,10.0,30.15059,,,TRUE,TRUE,,,,,,,OVC,1400,,,,,,,MVFR,,,,,,,,,,,,SPECI,43.0
K2W6 241919Z AUTO 30003KT 10SM OVC012 16/13 A3013 RMK AO1,K2W6,2022-10-24T19:19:00Z,38.32,-76.55,16.0,13.0,300,3,,10.0,30.129921,,,TRUE,TRUE,,,,,,,OVC,1200,,,,,,,MVFR,,,,,,,,,,,,SPECI,40.0
ETIK 241919Z 21010KT 9999 -RA BKN080 15/09 A2999 RMK AO2A DZB19 SLP155 $,ETIK,2022-10-24T19:19:00Z,49.47,10.38,15.0,9.0,210,10,,6.21,29.991142,1015.5,,,TRUE,TRUE,,,,,-RA,BKN,8000,,,,,,,VFR,,,,,,,,,,,,SPECI,326.0
CYQI 241919Z 11007KT 3SM BR OVC004 18/17 A3026 RMK SF8 VIS S 12 SLP250,CYQI,2022-10-24T19:19:00Z,43.83,-66.08,18.0,17.0,110,7,,3.0,30.259842,1025.0,,,,,,,,,BR,OVC,400,,,,,,,LIFR,,,,,,,,,,,,SPECI,37.0
CYPO 241919Z AUTO 11012G25KT 9SM -RA OVC008 04/04 A2963 RMK SLP038,CYPO,2022-10-24T19:19:00Z,54.98,-85.43,4.0,4.0,110,12,25,9.0,29.630905,1003.8,,TRUE,,,,,,,-RA,OVC,800,,,,,,,IFR,,,,,,,,,,,,SPECI,49.0
CYEN 241919Z AUTO 32026G35KT 9SM OVC010 M01/M02 A2954 RMK ICE PAST HR SLP031,CYEN,2022-10-24T19:19:00Z,49.22,-102.97,-1.0,-2.0,320,26,35,9.0,29.53937,1003.1,,TRUE,,,,,,,,OVC,1000,,,,,,,MVFR,,,,,,,,,,,,SPECI,580.0
CYDN 241919Z AUTO 32013G21KT 9SM -RA SCT014 OVC019 01/ A2935 RMK DP MISG SLP954,CYDN,2022-10-24T19:19:00Z,51.1,-100.05,1.0,,320,13,21,9.0,29.350393,995.4,,TRUE,,,,,,,-RA,SCT,1400,OVC,1900,,,,,MVFR,,,,,,,,,,,,SPECI,302.0
SBSP 241918Z 16014KT 9999 SCT006 BKN007 18/17 Q1018,SBSP,2022-10-24T19:18:00Z,-23.62,-46.65,18.0,17.0,160,14,,6.21,30.059055,,,,,,,,,,,SCT,600,BKN,700,,,,,IFR,,,,,,,,,,,,SPECI,802.0
PAJC 241918Z AUTO 26019G28KT 10SM SCT028 BKN033 07/01 A3014 RMK AO2 PK WND 25028/1915 RAE18 PRESFR PNO $,PAJC,2022-10-24T19:18:00Z,56.32,-158.37,7.0,1.0,260,19,28,10.0,30.138779,,,TRUE,TRUE,TRUE,,,,,,SCT,2800,BKN,3300,,,,,VFR,,,,,,,,,,,,SPECI,10.0
KTTD 241918Z VRB05KT 7SM -RA OVC010 11/09 A3007 RMK AO2 P0001 T01110089,KTTD,2022-10-24T19:18:00Z,45.55,-122.42,11.1,8.9,0,5,,7.0,30.070866,,,,TRUE,,,,,,-RA,OVC,1000,,,,,,,MVFR,,,,,,0.01,,,,,,SPECI,8.0
KRDG 241918Z 04004KT 1SM R36/5000VP6000FT -RA BR OVC008 16/14 A3013 RMK AO2 RAB00 P0000 T01560144,KRDG,2022-10-24T19:18:00Z,40.37,-75.97,15.6,14.4,40,4,,1.0,30.129921,,,,TRUE,,,,,,-RA BR,OVC,800,,,,,,,IFR,,,,,,0.005,,,,,,SPECI,101.0
KPWG 241918Z AUTO 02009KT 7SM -RA OVC014 17/17 A2976 RMK AO2 P0001,KPWG,2022-10-24T19:18:00Z,31.48,-97.32,17.0,17.0,20,9,,7.0,29.760826,,,TRUE,TRUE,,,,,,-RA,OVC,1400,,,,,,,MVFR,,,,,,0.01,,,,,,SPECI,178.0
KONA 241918Z AUTO 27008KT 5SM RA SCT014 BKN019 OVC050 14/11 A2969 RMK AO2 P0006,KONA,2022-10-24T19:18:00Z,44.07,-91.7,14.0,11.0,270,8,,5.0,29.68996,,,TRUE,TRUE,,,,,,RA,SCT,1400,BKN,1900,OVC,5000,,,MVFR,,,,,,0.06,,,,,,SPECI,200.0
KLNS 241918Z 04006KT 3SM -RA BR BKN006 OVC014 16/14 A3013 RMK AO2 RAB1855E05B13 P0001 T01610144,KLNS,2022-10-24T19:18:00Z,40.12,-76.3,16.1,14.4,40,6,,3.0,30.129921,,,,TRUE,,,,,,-RA BR,BKN,600,OVC,1400,,,,,IFR,,,,,,0.01,,,,,,SPECI,122.0
CYYE 241918Z 30009KT 2SM -SN OVC012 M03/M05 A2973 RMK SC8 SLP093,CYYE,2022-10-24T19:18:00Z,58.83,-122.58,-3.0,-5.0,300,9,,2.0,29.731298,1009.3,,,,,,,,,-SN,OVC,1200,,,,,,,IFR,,,,,,,,,,,,SPECI,379.0
CBAR 241918Z AUTO 31006KT ////SM BKN008 BKN012 BKN027 M08/M09 A3005,CBAR,2022-10-24T19:18:00Z,,,-8.0,-9.0,310,6,,,30.050198,,,TRUE,,,,,,,,BKN,800,BKN,1200,BKN,2700,,,,,,,,,,,,,,,SPECI,
SBEG 241917Z 05019KT 2000 1200E R29/P2000 R11/P2000 TSRA SCT020 FEW025CB SCT100 27/24 Q1007,SBEG,2022-10-24T19:17:00Z,-3.03,-60.03,27.0,24.0,50,19,,1.24,29.734253,,,,,,,,,,TSRA,SCT,2000,FEW,2500,SCT,10000,,,IFR,,,,,,,,,,,,SPECI,69.0
SBBG 241917Z AUTO 08011KT 050V110 CAVOK 25/13 Q1016,SBBG,2022-10-24T19:17:00Z,-31.38,-54.12,25.0,13.0,80,11,,6.21,30.0,,,TRUE,,,,,,,,CAVOK,,,,,,,,VFR,,,,,,,,,,,,SPECI,182.0
PADM 241917Z AUTO 20005KT 10SM OVC004 00/M01 A3006 RMK AO2 FZRANO,PADM,2022-10-24T19:17:00Z,61.87,-162.03,0.0,-1.0,200,5,,10.0,30.059055,,,TRUE,TRUE,,,,TRUE,,,OVC,400,,,,,,,LIFR,,,,,,,,,,,,SPECI,17.0
MPMG 241917Z 24004KT 180V270 8000 -TSRA FEW010 SCT016CB SCT080 24/23 Q1010 RETS TEMPO AT 2030 NSW,MPMG,2022-10-24T19:17:00Z,8.98,-79.57,24.0,23.0,240,4,,4.97,29.822834,,,,,,,,,,-TSRA,FEW,1000,SCT,1600,SCT,8000,,,MVFR,,,,,,,,,,,,SPECI,6.0
KGKY 241917Z 05005KT 4SM -RA BR FEW016 BKN033 OVC042 17/16 A2975 RMK AO2 T01720161 PNO $,KGKY,2022-10-24T19:17:00Z,32.67,-97.1,17.2,16.1,50,5,,4.0,29.749016,,,,TRUE,TRUE,,,,,-RA BR,FEW,1600,BKN,3300,OVC,4200,,,MVFR,,,,,,,,,,,,SPECI,189.0
KAUS 241917Z 18016G28KT 10SM BKN031 BKN045 BKN055 28/21 A2971 RMK AO2 PK WND 17028/1913 T02830211,KAUS,2022-10-24T19:17:00Z,30.18,-97.68,28.3,21.1,180,16,28,10.0,29.71063,,,,TRUE,,,,,,,BKN,3100,BKN,4500,BKN,5500,,,VFR,,,,,,,,,,,,SPECI,148.0
KAPS 241917Z AUTO 14011G17KT 10SM SCT050 29/16 A2996 RMK AO2,KAPS,2022-10-24T19:17:00Z,30.08,-90.58,29.0,16.0,140,11,17,10.0,29.958662,,,TRUE,TRUE,,,,,,,SCT,5000,,,,,,,VFR,,,,,,,,,,,,SPECI,1.0
CWIL 241917Z AUTO ///// ////SM BKN004 BKN008 BKN021 ///// A////,CWIL,2022-10-24T19:17:00Z,68.32,-100.07,,,,,,,,,,TRUE,,,,,,,,BKN,400,BKN,800,BKN,2100,,,,,,,,,,,,,,,SPECI,28.0
KTRL 241916Z AUTO 32008KT 2SM +RA BR FEW007 BKN026 OVC049 18/16 A2977 RMK AO2 P0002 T01780161,KTRL,2022-10-24T19:16:00Z,32.72,-96.27,17.8,16.1,320,8,,2.0,29.769686,,,TRUE,TRUE,,,,,,+RA BR,FEW,700,BKN,2600,OVC,4900,,,IFR,,,,,,0.02,,,,,,SPECI,144.0
KMWL 241916Z AUTO VRB03KT 10SM -RA BKN011 BKN045 OVC110 19/17 A2972 RMK AO2 RAB16 P0000 T01890167,KMWL,2022-10-24T19:16:00Z,32.78,-98.07,18.9,16.7,0,3,,10.0,29.719488,,,TRUE,TRUE,,,,,,-RA,BKN,1100,BKN,4500,OVC,11000,,,MVFR,,,,,,0.005,,,,,,SPECI,288.0
KGGW 241916Z AUTO 31011KT 10SM BKN010 02/M01 A2975 RMK AO2 T00221011,KGGW,2022-10-24T19:16:00Z,48.22,-106.62,2.2,-1.1,310,11,,10.0,29.749016,,,TRUE,TRUE,,,,,,,BKN,1000,,,,,,,MVFR,,,,,,,,,,,,SPECI,698.0
KDUB 241916Z AUTO 30032G41KT 10SM CLR 02/M12 A2990 RMK AO2,KDUB,2022-10-24T19:16:00Z,43.55,-109.68,2.0,-12.0,300,32,41,10.0,29.899607,,,TRUE,TRUE,,,,,,,CLR,,,,,,,,VFR,,,,,,,,,,,,SPECI,2205.0
KCUL 241916Z AUTO 17017G24KT 10SM CLR 27/08 A2992 RMK AO2,KCUL,2022-10-24T19:16:00Z,38.08,-88.12,27.0,8.0,170,17,24,10.0,29.920275,,,TRUE,TRUE,,,,,,,CLR,,,,,,,,VFR,,,,,,,,,,,,SPECI,116.0
KADC 241916Z AUTO 23017G24KT 10SM BKN028 08/02 A2952 RMK AO2 TSNO,KADC,2022-10-24T19:16:00Z,46.45,-95.22,8.0,2.0,230,17,24,10.0,29.518702,,,TRUE,TRUE,,,TRUE,,,,BKN,2800,,,,,,,MVFR,,,,,,,,,,,,SPECI,416.0
K40B 241916Z AUTO VRB03KT 12/ A3031 RMK AO1 SLP272 T0121 56012 P0003,K40B,2022-10-24T19:16:00Z,46.62,-69.52,12.1,,0,3,,,30.31004,1027.2,,TRUE,TRUE,,,,,,,,,,,,,,,,-1.2,,,,,0.03,,,,,,SPECI,344.0
RJOP 241915Z 29015KT 9999 -SHRA FEW008 BKN020 BKN045 13/09 Q1016 RMK 1ST008 6CU020 7SC045 A3001,RJOP,2022-10-24T19:15:00Z,34.0,134.62,13.0,9.0,290,15,,6.21,30.0,,,,,,,,,,-SHRA,FEW,800,BKN,2000,BKN,4500,,,MVFR,,,,,,,,,,,,SPECI,3.0
LMML 241915Z 24004KT CAVOK 20/19 Q1023 NOSIG,LMML,2022-10-24T19:15:00Z,35.85,14.47,20.0,19.0,240,4,,6.21,30.206694,,,,,,TRUE,,,,,CAVOK,,,,,,,,VFR,,,,,,,,,,,,METAR,78.0
LIRP 241915Z 10006KT 9999 SCT025 20/18 Q1019 NOSIG,LIRP,2022-10-24T19:15:00Z,43.68,10.38,20.0,18.0,100,6,,6.21,30.088583,,,,,,TRUE,,,,,SCT,2500,,,,,,,VFR,,,,,,,,,,,,METAR,1.0
LHSN 241915Z 31002KT 6000 NSC 12/11 Q1017 BECMG 3000 MIFG BR RMK WHT,LHSN,2022-10-24T19:15:00Z,47.12,20.23,12.0,11.0,310,2,,3.73,30.029528,,,,,,,,,,,CLR,,,,,,,,MVFR,,,,,,,,,,,,METAR,89.0
LHSM 241915Z AUTO 16005KT CAVOK 15/14 Q1016,LHSM,2022-10-24T19:15:00Z,46.68,17.17,15.0,14.0,160,5,,6.21,30.0,,,TRUE,,,,,,,,CAVOK,,,,,,,,VFR,,,,,,,,,,,,METAR,119.0
LHPR 241915Z AUTO 11006KT 6000 BKN067 OVC098 //////TCU 14/13 Q1016,LHPR,2022-10-24T19:15:00Z,47.63,17.82,14.0,13.0,110,6,,3.73,30.0,,,TRUE,,,,,,,,BKN,6700,OVC,9800,,,,,MVFR,,,,,,,,,,,,METAR,127.0
LHPP 241915Z AUTO 23005KT CAVOK 17/13 Q1017,LHPP,2022-10-24T19:15:00Z,45.98,18.23,17.0,13.0,230,5,,6.21,30.029528,,,TRUE,,,,,,,,CAVOK,,,,,,,,VFR,,,,,,,,,,,,METAR,193.0
LHPA 241915Z 26008KT 200V330 CAVOK 17/14 Q1016 NOSIG RMK BLU,LHPA,2022-10-24T19:15:00Z,47.35,17.5,17.0,14.0,260,8,,6.21,30.0,,,,,,TRUE,,,,,CAVOK,,,,,,,,VFR,,,,,,,,,,,,METAR,143.0
LHKE 241915Z 01002KT 1000 BR BCFG NSC 11/11 Q1017 TEMPO 0800 FG RMK AMB,LHKE,2022-10-24T19:15:00Z,46.92,19.75,11.0,11.0,10,2,,0.62,30.029528,,,,,,,,,,BR BCFG,CLR,,,,,,,,LIFR,,,,,,,,,,,,METAR,113.0
LHDC 241915Z AUTO VRB03KT 9999 BKN027 15/13 Q1017 NOSIG,LHDC,2022-10-24T19:15:00Z,47.48,21.62,15.0,13.0,0,3,,6.21,30.029528,,,TRUE,,,TRUE,,,,,BKN,2700,,,,,,,MVFR,,,,,,,,,,,,METAR,105.0
KZPH 241915Z AUTO 03006KT 10SM SCT042 BKN050 OVC065 28/18 A3005 RMK A02 T02800180,KZPH,2022-10-24T19:15:00Z,28.23,-82.15,28.0,18.0,30,6,,10.0,30.050198,,,TRUE,TRUE,,,,,,,SCT,4200,BKN,5000,OVC,6500,,,VFR,,,,,,,,,,,,SPECI,26.0
KZER 241915Z AUTO 03003KT 7SM OVC003 13/12 A3016 RMK AO2,KZER,2022-10-24T19:15:00Z,,,13.0,12.0,30,3,,7.0,30.159449,,,TRUE,TRUE,,,,,,,OVC,300,,,,,,,LIFR,,,,,,,,,,,,SPECI,
KY49 241915Z AUTO 21013G30KT 10SM OVC024 08/03 A2948 RMK AO2 T00770027,KY49,2022-10-24T19:15:00Z,47.15,-94.65,7.7,2.7,210,13,30,10.0,29.480314,,,TRUE,TRUE,,,,,,,OVC,2400,,,,,,,MVFR,,,,,,,,,,,,SPECI,413.0
KY31 241915Z AUTO 16013G18KT 10SM CLR 25/10 A2993 RMK AO2 T02460100,KY31,2022-10-24T19:15:00Z,44.25,-84.18,24.6,10.0,160,13,18,10.0,29.929134,,,TRUE,TRUE,,,,,,,CLR,,,,,,,,VFR,,,,,,,,,,,,SPECI,264.0
KXLL 241915Z AUTO 03003KT 5SM BR OVC006 14/13 A3015 RMK AO2,KXLL,2022-10-24T19:15:00Z,40.57,-75.48,14.0,13.0,30,3,,5.0,30.15059,,,TRUE,TRUE,,,,,,BR,OVC,600,,,,,,,IFR,,,,,,,,,,,,SPECI,118.0
KXER 241915Z AUTO 13012KT 10SM 27/21 A2987 RMK A01,KXER,2022-10-24T19:15:00Z,,,27.0,21.0,130,12,,10.0,29.870079,,,TRUE,TRUE,,,,,,,,,,,,,,,,,,,,,,,,,,,METAR,
KXBP 241915Z AUTO 11003KT 10SM BKN007 BKN110 16/16 A2975 RMK AO2 T01640164,KXBP,2022-10-24T19:15:00Z,33.18,-97.83,16.4,16.4,110,3,,10.0,29.749016,,,TRUE,TRUE,,,,,,,BKN,700,BKN,11000,,,,,IFR,,,,,,,,,,,,SPECI,256.0
KX26 241915Z AUTO 02011KT 10SM CLR 27/18 A3005 RMK AO2 T02710183,KX26,2022-10-24T19:15:00Z,27.82,-80.5,27.1,18.3,20,11,,10.0,30.050198,,,TRUE,TRUE,,,,,,,CLR,,,,,,,,VFR,,,,,,,,,,,,SPECI,5.0
KWWR 241915Z AUTO 03014G19KT 10SM SCT026 BKN075 13/05 A2979 RMK AO2,KWWR,2022-10-24T19:15:00Z,36.45,-99.52,13.0,5.0,30,14,19,10.0,29.790354,,,TRUE,TRUE,,,,,,,SCT,2600,BKN,7500,,,,,VFR,,,,,,,,,,,,METAR,664.0
KWDR 241915Z AUTO 00000KT 10SM CLR 24/06 A3015 RMK AO2,KWDR,2022-10-24T19:15:00Z,33.98,-83.67,24.0,6.0,0,0,,10.0,30.15059,,,TRUE,TRUE,,,,,,,CLR,,,,,,,,VFR,,,,,,,,,,,,SPECI,280.0
KWBF 241915Z AUTO 00000KT 10SM 27/23 A2995 RMK A01,KWBF,2022-10-24T19:15:00Z,26.93,-90.5,27.0,23.0,0,0,,10.0,29.949802,,,TRUE,TRUE,,,,,,,,,,,,,,,,,,,,,,,,,,,SPECI,40.0
KWAL 241915Z AUTO 30004KT 6SM BR OVC005 17/15 A3009 RMK AO2 T01670150,KWAL,2022-10-24T19:15:00Z,37.93,-75.47,16.7,15.0,300,4,,6.0,30.088583,,,TRUE,TRUE,,,,,,BR,OVC,500,,,,,,,IFR,,,,,,,,,,,,SPECI,10.0
KW29 241915Z AUTO 36005KT 10SM OVC010 15/ A3012 RMK AO2 T0153////,KW29,2022-10-24T19:15:00Z,38.98,-76.33,15.3,,360,5,,10.0,30.121063,,,TRUE,TRUE,,,,,,,OVC,1000,,,,,,,MVFR,,,,,,,,,,,,SPECI,1.0
KW22 241915Z AUTO 00000KT 10SM CLR 24/03 A3012 RMK AO2,KW22,2022-10-24T19:15:00Z,39.0,-80.27,24.0,3.0,0,0,,10.0,30.121063,,,TRUE,TRUE,,,,,,,CLR,,,,,,,,VFR,,,,,,,,,,,,SPECI,497.0
KVYS 241915Z AUTO 17018G23KT 10SM BKN065 24/14 A2979 RMK AO2 T02420136,KVYS,2022-10-24T19:15:00Z,41.35,-89.15,24.2,13.6,170,18,23,10.0,29.790354,,,TRUE,TRUE,,,,,,,BKN,6500,,,,,,,VFR,,,,,,,,,,,,SPECI,198.0
KVVS 241915Z AUTO 30005KT 10SM CLR 21/05 A3013 RMK AO2 T02150047,KVVS,2022-10-24T19:15:00Z,39.95,-79.65,21.5,4.7,300,5,,10.0,30.129921,,,TRUE,TRUE,,,,,,,CLR,,,,,,,,VFR,,,,,,,,,,,,SPECI,386.0
KVUJ 241915Z AUTO 31003KT 10SM CLR 23/09 A3017 RMK AO2 T02270089,KVUJ,2022-10-24T19:15:00Z,35.42,-80.15,22.7,8.9,310,3,,10.0,30.171259,,,TRUE,TRUE,,,,,,,CLR,,,,,,,,VFR,,,,,,,,,,,,SPECI,174.0
KVTP 241915Z AUTO 00000KT 10SM SCT009 BKN017 OVC024 M06/M09 A2991 RMK AO2,KVTP,2022-10-24T19:15:00Z,37.5,-105.17,-6.0,-9.0,0,0,,10.0,29.911417,,,TRUE,TRUE,,,,,,,SCT,900,BKN,1700,OVC,2400,,,MVFR,,,,,,,,,,,,SPECI,3086.0
KVPC 241915Z AUTO VRB05KT 10SM CLR 26/09 A3010 RMK AO2,KVPC,2022-10-24T19:15:00Z,34.1,-84.85,26.0,9.0,0,5,,10.0,30.100393,,,TRUE,TRUE,,,,,,,CLR,,,,,,,,VFR,,,,,,,,,,,,SPECI,234.0
KVKS 241915Z AUTO 20011G16KT 10SM FEW070 29/14 A2991 RMK A01,KVKS,2022-10-24T19:15:00Z,32.23,-90.93,29.0,14.0,200,11,16,10.0,29.911417,,,TRUE,TRUE,,,,,,,FEW,7000,,,,,,,VFR,,,,,,,,,,,,SPECI,31.0
KVHN 241915Z AUTO 30027G34KT 7SM SCT070 OVC090 09/02 A3003 RMK AO2 T00890025,KVHN,2022-10-24T19:15:00Z,31.07,-104.78,8.9,2.5,300,27,34,7.0,30.029528,,,TRUE,TRUE,,,,,,,SCT,7000,OVC,9000,,,,,VFR,,,,,,,,,,,,SPECI,1200.0
KVES 241915Z AUTO 17009G15KT 10SM CLR 22/00 A3004 RMK AO2,KVES,2022-10-24T19:15:00Z,40.2,-84.53,22.0,0.0,170,9,15,10.0,30.041338,,,TRUE,TRUE,,,,,,,CLR,,,,,,,,VFR,,,,,,,,,,,,SPECI,308.0
KVDI 241915Z AUTO 00000KT 10SM CLR 26/10 A3012 RMK AO2,KVDI,2022-10-24T19:15:00Z,32.2,-82.37,26.0,10.0,0,0,,10.0,30.121063,,,TRUE,TRUE,,,,,,,CLR,,,,,,,,VFR,,,,,,,,,,,,SPECI,81.0
KVAF 241915Z AUTO 18015G22KT 10SM CLR 29/20 A2986 RMK A01,KVAF,2022-10-24T19:15:00Z,27.35,-94.63,29.0,20.0,180,15,22,10.0,29.861221,,,TRUE,TRUE,,,,,,,CLR,,,,,,,,VFR,,,,,,,,,,,,SPECI,38.0
KUYF 241915Z AUTO 16005G15KT 10SM CLR 25/01 A3007 RMK AO2,KUYF,2022-10-24T19:15:00Z,39.93,-83.47,25.0,1.0,160,5,15,10.0,30.070866,,,TRUE,TRUE,,,,,,,CLR,,,,,,,,VFR,,,,,,,,,,,,SPECI,326.0
KUNI 241915Z AUTO 15006G14KT 10SM CLR 26/05 A3008 RMK AO2 T02550045,KUNI,2022-10-24T19:15:00Z,39.22,-82.23,25.5,4.5,150,6,14,10.0,30.079725,,,TRUE,TRUE,,,,,,,CLR,,,,,,,,VFR,,,,,,,,,,,,SPECI,232.0
KUMP 241915Z AUTO 15011KT 10SM CLR 25/09 A2999 RMK AO2 T02480089,KUMP,2022-10-24T19:15:00Z,39.93,-86.05,24.8,8.9,150,11,,10.0,29.991142,,,TRUE,TRUE,,,,,,,CLR,,,,,,,,VFR,,,,,,,,,,,,SPECI,247.0
KULS 241915Z AUTO 01017G25KT 10SM CLR 12/M06 A2982 RMK AO2,KULS,2022-10-24T19:15:00Z,37.6,-101.37,12.0,-6.0,10,17,25,10.0,29.819881,,,TRUE,TRUE,,,,,,,CLR,,,,,,,,VFR,,,,,,,,,,,,SPECI,934.0
KUKL 241915Z AUTO 01007KT 5SM RA SCT006 BKN028 OVC040 A2973 RMK AO2 P0003,KUKL,2022-10-24T19:15:00Z,38.3,-95.73,,,10,7,,5.0,29.731298,,,TRUE,TRUE,,,,,,RA,SCT,600,BKN,2800,OVC,4000,,,MVFR,,,,,,0.03,,,,,,SPECI,357.0
KUKF 241915Z AUTO 17004KT 10SM CLR 24/06 A3017 RMK AO2,KUKF,2022-10-24T19:15:00Z,36.22,-81.1,24.0,6.0,170,4,,10.0,30.171259,,,TRUE,TRUE,,,,,,,CLR,,,,,,,,VFR,,,,,,,,,,,,METAR,383.0
KU68 241915Z AUTO 11010KT 10SM CLR 06/M01 A2985 RMK AO2,KU68,2022-10-24T19:15:00Z,44.92,-108.45,6.0,-1.0,110,10,,10.0,29.84941,,,TRUE,TRUE,,,,,,,CLR,,,,,,,,VFR,,,,,,,,,,,,SPECI,1244.0
KTYQ 241915Z AUTO 19012KT 10SM CLR 24/09 A2998 RMK AO2 T02370090,KTYQ,2022-10-24T19:15:00Z,40.03,-86.25,23.7,9.0,190,12,,10.0,29.97933,,,TRUE,TRUE,,,,,,,CLR,,,,,,,,VFR,,,,,,,,,,,,SPECI,279.0
KTYL 241915Z AUTO 36014G21KT 300V010 10SM CLR 08/M11 A3018 RMK AO2,KTYL,2022-10-24T19:15:00Z,34.45,-110.12,8.0,-11.0,360,14,21,10.0,30.180119,,,TRUE,TRUE,,,,,,,CLR,,,,,,,,VFR,,,,,,,,,,,,SPECI,1748.0
KTVI 241915Z AUTO 00000KT 10SM CLR 26/11 A3010 RMK AO2,KTVI,2022-10-24T19:15:00Z,30.9,-83.88,26.0,11.0,0,0,,10.0,30.100393,,,TRUE,TRUE,,,,,,,CLR,,,,,,,,VFR,,,,,,,,,,,,SPECI,74.0
KTTA 241915Z AUTO 00000KT 10SM CLR 24/09 A3010 RMK AO2 T02350088,KTTA,2022-10-24T19:15:00Z,35.58,-79.1,23.5,8.8,0,0,,10.0,30.100393,,,TRUE,TRUE,,,,,,,CLR,,,,,,,,VFR,,,,,,,,,,,,SPECI,71.0
KTQK 241915Z AUTO 35018G26KT 10SM CLR 14/M05 A2983 RMK AO2 T01351052,KTQK,2022-10-24T19:15:00Z,38.47,-100.88,13.5,-5.2,350,18,26,10.0,29.828741,,,TRUE,TRUE,,,,,,,CLR,,,,,,,,VFR,,,,,,,,,,,,SPECI,906.0
KTOC 241915Z AUTO 13004KT 10SM CLR 24/07 A3013 RMK AO2 T02380067,KTOC,2022-10-24T19:15:00Z,34.6,-83.3,23.8,6.7,130,4,,10.0,30.129921,,,TRUE,TRUE,,,,,,,CLR,,,,,,,,VFR,,,,,,,,,,,,SPECI,292.0
KTNU 241915Z AUTO 31016KT 3SM BR OVC020 11/11 A2969 RMK A01,KTNU,2022-10-24T19:15:00Z,41.67,-93.02,11.0,11.0,310,16,,3.0,29.68996,,,TRUE,TRUE,,,,,,BR,OVC,2000,,,,,,,MVFR,,,,,,,,,,,,SPECI,287.0
KTMT 241915Z AUTO 22005KT 10SM CLR 07/M13 A3029 RMK AO2 T00671130,KTMT,2022-10-24T19:15:00Z,39.47,-117.2,6.7,-13.0,220,5,,10.0,30.28937,,,TRUE,TRUE,,,,,,,CLR,,,,,,,,VFR,,,,,,,,,,,,METAR,1748.0
KTMK 241915Z AUTO 17004KT 10SM OVC055 13/11 A3009 RMK AO2,KTMK,2022-10-24T19:15:00Z,45.42,-123.82,13.0,11.0,170,4,,10.0,30.088583,,,TRUE,TRUE,,,,,,,OVC,5500,,,,,,,VFR,,,,,,,,,,,,SPECI,8.0
KTKC 241915Z AUTO 24012KT 10SM 08/M02 A2969 RMK AO2 T00821019,KTKC,2022-10-24T19:15:00Z,44.25,-95.62,8.2,-1.9,240,12,,10.0,29.68996,,,TRUE,TRUE,,,,,,,,,,,,,,,,,,,,,,,,,,,SPECI,408.0
KTIP 241915Z AUTO 16016G23KT 10SM CLR 24/12 A2988 RMK AO2 T02350123,KTIP,2022-10-24T19:15:00Z,40.28,-88.15,23.5,12.3,160,16,23,10.0,29.878937,,,TRUE,TRUE,,,,,,,CLR,,,,,,,,VFR,,,,,,,,,,,,SPECI,224.0
KTIF 241915Z AUTO 30015G26KT 10SM SCT055 10/M04 A2977 RMK AO2 T00951045,KTIF,2022-10-24T19:15:00Z,41.97,-100.57,9.5,-4.5,300,15,26,10.0,29.769686,,,TRUE,TRUE,,,,,,,SCT,5500,,,,,,,VFR,,,,,,,,,,,,SPECI,888.0
KTEX 241915Z AUTO 02005KT 10SM SCT040 BKN046 M03/M12 A3008 RMK AO2,KTEX,2022-10-24T19:15:00Z,37.95,-107.9,-3.0,-12.0,20,5,,10.0,30.079725,,,TRUE,TRUE,,,,,,,SCT,4000,BKN,4600,,,,,VFR,,,,,,,,,,,,METAR,2760.0
KTBR 241915Z AUTO 00000KT 10SM CLR 25/07 A3011 RMK AO2 T02490066,KTBR,2022-10-24T19:15:00Z,32.48,-81.73,24.9,6.6,0,0,,10.0,30.109253,,,TRUE,TRUE,,,,,,,CLR,,,,,,,,VFR,,,,,,,,,,,,SPECI,54.0
KTAZ 241915Z AUTO 17012G20KT 10SM BKN060 24/14 A2985 RMK AO2 T02350140,KTAZ,2022-10-24T19:15:00Z,39.53,-89.33,23.5,14.0,170,12,20,10.0,29.84941,,,TRUE,TRUE,,,,,,,BKN,6000,,,,,,,VFR,,,,,,,,,,,,SPECI,188.0
KT82 241915Z AUTO 21015G19KT 10SM BKN032 BKN042 28/19 A2975 RMK AO2 T02760185,KT82,2022-10-24T19:15:00Z,30.25,-98.92,27.6,18.5,210,15,19,10.0,29.749016,,,TRUE,TRUE,,,,,,,BKN,3200,BKN,4200,,,,,VFR,,,,,,,,,,,,SPECI,509.0
KT74 241915Z AUTO 18010KT 10SM BKN025 BKN039 BKN060 26/22 A2973 RMK AO2 T02630218,KT74,2022-10-24T19:15:00Z,30.57,-97.45,26.3,21.8,180,10,,10.0,29.731298,,,TRUE,TRUE,,,,,,,BKN,2500,BKN,3900,BKN,6000,,,MVFR,,,,,,,,,,,,SPECI,169.0
KT41 241915Z AUTO 10SM BKN055 OVC075 28/19 A2982 RMK AO2 T02780186,KT41,2022-10-24T19:15:00Z,29.67,-95.07,27.8,18.6,,,,10.0,29.819881,,,TRUE,TRUE,,,,,,,BKN,5500,OVC,7500,,,,,VFR,,,,,,,,,,,,SPECI,8.0
KT20 241915Z AUTO 18009KT 10SM BKN029 OVC038 29/22 A2974 RMK AO2 T02900222,KT20,2022-10-24T19:15:00Z,29.52,-97.47,29.0,22.2,180,9,,10.0,29.740158,,,TRUE,TRUE,,,,,,,BKN,2900,OVC,3800,,,,,MVFR,,,,,,,,,,,,SPECI,107.0
KSXK 241915Z AUTO 28012KT 10SM CLR 08/M02 A2970 RMK AO2,KSXK,2022-10-24T19:15:00Z,42.98,-96.17,8.0,-2.0,280,12,,10.0,29.698818,,,TRUE,TRUE,,,,,,,CLR,,,,,,,,VFR,,,,,,,,,,,,SPECI,430.0
KSTK 241915Z AUTO 30022G27KT 10SM SCT060 10/M04 A2985 RMK AO2,KSTK,2022-10-24T19:15:00Z,40.62,-103.27,10.0,-4.0,300,22,27,10.0,29.84941,,,TRUE,TRUE,,,,,,,SCT,6000,,,,,,,VFR,,,,,,,,,,,,SPECI,1228.0
KSTE 241915Z AUTO 17012G15KT 10SM BKN045 OVC050 20/12 A2972 RMK AO2 T02020122,KSTE,2022-10-24T19:15:00Z,44.55,-89.53,20.2,12.2,170,12,15,10.0,29.719488,,,TRUE,TRUE,,,,,,,BKN,4500,OVC,5000,,,,,VFR,,,,,,,,,,,,SPECI,335.0
KSOA 241915Z AUTO 20008G16KT 10SM FEW043 28/17 A2977 RMK AO2,KSOA,2022-10-24T19:15:00Z,30.58,-100.65,28.0,17.0,200,8,16,10.0,29.769686,,,TRUE,TRUE,,,,,,,FEW,4300,,,,,,,VFR,,,,,,,,,,,,METAR,654.0
KSNL 241915Z AUTO 35007KT 10SM -RA OVC009 13/12 A2973 RMK AO2 T01280117,KSNL,2022-10-24T19:15:00Z,35.35,-96.95,12.8,11.7,350,7,,10.0,29.731298,,,TRUE,TRUE,,,,,,-RA,OVC,900,,,,,,,IFR,,,,,,,,,,,,SPECI,327.0
KSME 241915Z AUTO 00000KT 10SM CLR 25/04 A3005 RMK AO2,KSME,2022-10-24T19:15:00Z,37.05,-84.62,25.0,4.0,0,0,,10.0,30.050198,,,TRUE,TRUE,,,,,,,CLR,,,,,,,,VFR,,,,,,,,,,,,METAR,279.0
KSLB 241915Z AUTO 29007KT 6SM -RA CLR 06/04 A2972 RMK AO2,KSLB,2022-10-24T19:15:00Z,42.6,-95.23,6.0,4.0,290,7,,6.0,29.719488,,,TRUE,TRUE,,,,,,-RA,CLR,,,,,,,,VFR,,,,,,,,,,,,SPECI,450.0
KSJS 241915Z AUTO 20003KT 10SM CLR 24/04 A3011 RMK AO2 T02420042,KSJS,2022-10-24T19:15:00Z,37.75,-82.63,24.2,4.2,200,3,,10.0,30.109253,,,TRUE,TRUE,,,,,,,CLR,,,,,,,,VFR,,,,,,,,,,,,METAR,359.0
KSIF 241915Z AUTO 00000KT 10SM CLR 24/07 A3011 RMK AO2 T02380071,KSIF,2022-10-24T19:15:00Z,36.43,-79.85,23.8,7.1,0,0,,10.0,30.109253,,,TRUE,TRUE,,,,,,,CLR,,,,,,,,VFR,,,,,,,,,,,,SPECI,206.0
KSHL 241915Z AUTO 25011KT 10SM CLR 08/M02 A2969 RMK AO2,KSHL,2022-10-24T19:15:00Z,43.22,-95.83,8.0,-2.0,250,11,,10.0,29.68996,,,TRUE,TRUE,,,,,,,CLR,,,,,,,,VFR,,,,,,,,,,,,SPECI,430.0
KSEF 241915Z AUTO 11007KT 10SM SCT038 SCT065 BKN080 28/20 A3004 RMK AO2,KSEF,2022-10-24T19:15:00Z,27.45,-81.35,28.0,20.0,110,7,,10.0,30.041338,,,TRUE,TRUE,,,,,,,SCT,3800,SCT,6500,BKN,8000,,,VFR,,,,,,,,,,,,SPECI,17.0
KSDA 241915Z AUTO VRB04G10KT 10SM -RA FEW090 09/08 A2973 RMK AO2,KSDA,2022-10-24T19:15:00Z,40.75,-95.42,9.0,8.0,0,4,10,10.0,29.731298,,,TRUE,TRUE,,,,,,-RA,FEW,9000,,,,,,,VFR,,,,,,,,,,,,SPECI,293.0
KSBS 241915Z AUTO 23010G14KT 10SM SCT034 BKN043 OVC049 M02/M06 A3006 RMK AO1 T10221057,KSBS,2022-10-24T19:15:00Z,40.52,-106.87,-2.2,-5.7,230,10,14,10.0,30.059055,,,TRUE,TRUE,,,,,,,SCT,3400,BKN,4300,OVC,4900,,,VFR,,,,,,,,,,,,SPECI,2097.0
KSBO 241915Z AUTO 12006KT 10SM CLR 26/07 A3013 RMK AO2,KSBO,2022-10-24T19:15:00Z,32.62,-82.37,26.0,7.0,120,6,,10.0,30.129921,,,TRUE,TRUE,,,,,,,CLR,,,,,,,,VFR,,,,,,,,,,,,SPECI,98.0
KSAA 241915Z AUTO 24019G28KT 10SM OVC075 00/M05 A3000 RMK AO2,KSAA,2022-10-24T19:15:00Z,41.45,-106.8,0.0,-5.0,240,19,28,10.0,30.0,,,TRUE,TRUE,,,,,,,OVC,7500,,,,,,,VFR,,,,,,,,,,,,SPECI,2093.0
KS52 241915Z AUTO 00000KT 10SM SCT032 BKN070 OVC120 08/00 A2987 RMK AO2 T00800003,KS52,2022-10-24T19:15:00Z,48.42,-120.15,8.0,0.3,0,0,,10.0,29.870079,,,TRUE,TRUE,,,,,,,SCT,3200,BKN,7000,OVC,12000,,,VFR,,,,,,,,,,,,METAR,517.0
KS33 241915Z AUTO 20004G16KT 10SM OVC040 13/05 A3000 RMK AO2,KS33,2022-10-24T19:15:00Z,44.67,-121.15,13.0,5.0,200,4,16,10.0,30.0,,,TRUE,TRUE,,,,,,,OVC,4000,,,,,,,VFR,,,,,,,,,,,,SPECI,739.0
KRWV 241915Z AUTO 18015G23KT 10SM OVC030 27/20 A2976 RMK AO2 T02700198,KRWV,2022-10-24T19:15:00Z,30.52,-96.7,27.0,19.8,180,15,23,10.0,29.760826,,,TRUE,TRUE,,,,,,,OVC,3000,,,,,,,MVFR,,,,,,,,,,,,SPECI,116.0
KRVJ 241915Z AUTO 33003KT 10SM CLR 26/11 A3011 RMK AO2 T02560108,KRVJ,2022-10-24T19:15:00Z,32.07,-82.15,25.6,10.8,330,3,,10.0,30.109253,,,TRUE,TRUE,,,,,,,CLR,,,,,,,,VFR,,,,,,,,,,,,SPECI,60.0
KRSV 241915Z AUTO 19011KT 10SM CLR 24/11 A2994 RMK AO2 T02420107,KRSV,2022-10-24T19:15:00Z,39.02,-87.65,24.2,10.7,190,11,,10.0,29.940945,,,TRUE,TRUE,,,,,,,CLR,,,,,,,,VFR,,,,,,,,,,,,SPECI,139.0
KRRT 241915Z AUTO 19017G27KT 10SM 09/06 A2930 RMK AO2,KRRT,2022-10-24T19:15:00Z,48.93,-95.33,9.0,6.0,190,17,27,10.0,29.300198,,,TRUE,TRUE,,,,,,,,,,,,,,,,,,,,,,,,,,,SPECI,327.0
KRPJ 241915Z AUTO 17014G20KT 10SM CLR 23/15 A2978 RMK AO2 T02320151 TSNO,KRPJ,2022-10-24T19:15:00Z,41.88,-89.08,23.2,15.1,170,14,20,10.0,29.778543,,,TRUE,TRUE,,,TRUE,,,,CLR,,,,,,,,VFR,,,,,,,,,,,,SPECI,234.0
KRKR 241915Z AUTO 16013G26KT 10SM -RA BKN035 OVC044 22/16 A2968 RMK AO2,KRKR,2022-10-24T19:15:00Z,35.02,-94.62,22.0,16.0,160,13,26,10.0,29.681103,,,TRUE,TRUE,,,,,,-RA,BKN,3500,OVC,4400,,,,,VFR,,,,,,,,,,,,SPECI,136.0
KREG 241915Z AUTO 18013G16KT 10SM SCT075 29/16 A2995 RMK AO2 T02930160,KREG,2022-10-24T19:15:00Z,30.17,-90.93,29.3,16.0,180,13,16,10.0,29.949802,,,TRUE,TRUE,,,,,,,SCT,7500,,,,,,,VFR,,,,,,,,,,,,SPECI,3.0
KRDK 241915Z AUTO 33009G16KT 7SM -RA CLR 08/08 A2972 RMK AO2,KRDK,2022-10-24T19:15:00Z,41.02,-95.27,8.0,8.0,330,9,16,7.0,29.719488,,,TRUE,TRUE,,,,,,-RA,CLR,,,,,,,,VFR,,,,,,,,,,,,SPECI,317.0
KRCV 241915Z AUTO 32013G17KT 10SM CLR 03/M14 A2995 RMK AO2 T00331140,KRCV,2022-10-24T19:15:00Z,37.72,-106.35,3.3,-14.0,320,13,17,10.0,29.949802,,,TRUE,TRUE,,,,,,,CLR,,,,,,,,VFR,,,,,,,,,,,,SPECI,2418.0
KRCR 241915Z AUTO 16009G16KT 10SM CLR 22/10 A2995 RMK AO2,KRCR,2022-10-24T19:15:00Z,41.07,-86.18,22.0,10.0,160,9,16,10.0,29.949802,,,TRUE,TRUE,,,,,,,CLR,,,,,,,,VFR,,,,,,,,,,,,SPECI,240.0
KRBW 241915Z AUTO 30007KT 10SM CLR 23/08 A3012 RMK AO2,KRBW,2022-10-24T19:15:00Z,32.92,-80.63,23.0,8.0,300,7,,10.0,30.121063,,,TRUE,TRUE,,,,,,,CLR,,,,,,,,VFR,,,,,,,,,,,,SPECI,30.0
KRBO 241915Z AUTO 10SM SCT001 SCT036 BKN047 32/23 A2973 RMK AO2 T03190225,KRBO,2022-10-24T19:15:00Z,27.78,-97.68,31.9,22.5,,,,10.0,29.731298,,,TRUE,TRUE,,,,,,,SCT,100,SCT,3600,BKN,4700,,,VFR,,,,,,,,,,,,SPECI,24.0
KRBG 241915Z AUTO 00000KT 9SM -RA SCT010 OVC017 11/09 A3018 RMK AO2 RAB14 P0000 T01110089,KRBG,2022-10-24T19:15:00Z,43.23,-123.35,11.1,8.9,0,0,,9.0,30.180119,,,TRUE,TRUE,,,,,,-RA,SCT,1000,OVC,1700,,,,,MVFR,,,,,,0.005,,,,,,SPECI,152.0
KRAS 241915Z AUTO 16017G26KT 7SM HZ OVC020 A2977 RMK AO2,KRAS,2022-10-24T19:15:00Z,27.82,-97.08,,,160,17,26,7.0,29.769686,,,TRUE,TRUE,,,,,,HZ,OVC,2000,,,,,,,MVFR,,,,,,,,,,,,SPECI,3.0
KPZZ 241915Z AUTO 12020KT 8SM SCT070 26/21 A2994 RMK A01,KPZZ,2022-10-24T19:15:00Z,28.43,-91.03,26.0,21.0,120,20,,8.0,29.940945,,,TRUE,TRUE,,,,,,,SCT,7000,,,,,,,VFR,,,,,,,,,,,,SPECI,25.0
KPXE 241915Z AUTO 00000KT 10SM CLR 26/10 A3011 RMK AO2 T02640096,KPXE,2022-10-24T19:15:00Z,32.52,-83.77,26.4,9.6,0,0,,10.0,30.109253,,,TRUE,TRUE,,,,,,,CLR,,,,,,,,VFR,,,,,,,,,,,,SPECI,126.0
KPTT 241915Z AUTO 36020KT 10SM SCT100 13/02 A2978 RMK AO2 T01320018,KPTT,2022-10-24T19:15:00Z,37.7,-98.75,13.2,1.8,360,20,,10.0,29.778543,,,TRUE,TRUE,,,,,,,SCT,10000,,,,,,,VFR,,,,,,,,,,,,SPECI,594.0
KPSO 241915Z AUTO 34011G18KT 10SM CLR 05/M16 A2995 RMK AO2 T00501157,KPSO,2022-10-24T19:15:00Z,37.28,-107.05,5.0,-15.7,340,11,18,10.0,29.949802,,,TRUE,TRUE,,,,,,,CLR,,,,,,,,VFR,,,,,,,,,,,,SPECI,2332.0
KPSN 241915Z AUTO 19012G17KT 1 1/4SM -RA BR BKN030 BKN036 22/22 A2975 RMK AO2 VIS 1/2V2,KPSN,2022-10-24T19:15:00Z,31.78,-95.7,22.0,22.0,190,12,17,1.25,29.749016,,,TRUE,TRUE,,,,,,-RA BR,BKN,3000,BKN,3600,,,,,IFR,,,,,,,,,,,,SPECI,124.0
KPRG 241915Z AUTO 17016G23KT 10SM SCT055 24/14 A2994 RMK AO2 T02360141,KPRG,2022-10-24T19:15:00Z,39.7,-87.67,23.6,14.1,170,16,23,10.0,29.940945,,,TRUE,TRUE,,,,,,,SCT,5500,,,,,,,VFR,,,,,,,,,,,,SPECI,197.0
KPPQ 241915Z AUTO 16011G17KT 10SM BKN050 BKN065 OVC075 21/16 A2979 RMK AO2 T02130157,KPPQ,2022-10-24T19:15:00Z,39.63,-90.78,21.3,15.7,160,11,17,10.0,29.790354,,,TRUE,TRUE,,,,,,,BKN,5000,BKN,6500,OVC,7500,,,VFR,,,,,,,,,,,,SPECI,215.0
KPPO 241915Z AUTO 18013G19KT 10SM CLR 23/15 A2992 RMK AO2 T02260146,KPPO,2022-10-24T19:15:00Z,41.57,-86.73,22.6,14.6,180,13,19,10.0,29.920275,,,TRUE,TRUE,,,,,,,CLR,,,,,,,,VFR,,,,,,,,,,,,SPECI,242.0
KPPA 241915Z AUTO 36015G18KT 10SM RA SCT020 BKN025 OVC030 11/09 A2978 RMK AO2 LTG DSNT SW T01070085,KPPA,2022-10-24T19:15:00Z,35.62,-101.0,10.7,8.5,360,15,18,10.0,29.778543,,,TRUE,TRUE,,,,,,RA,SCT,2000,BKN,2500,OVC,3000,,,MVFR,,,,,,,,,,,,SPECI,989.0
KPOY 241915Z AUTO 11009G15KT 10SM CLR 07/M07 A2980 RMK AO2,KPOY,2022-10-24T19:15:00Z,44.87,-108.8,7.0,-7.0,110,9,15,10.0,29.799213,,,TRUE,TRUE,,,,,,,CLR,,,,,,,,VFR,,,,,,,,,,,,SPECI,1547.0
KPNT 241915Z AUTO 17021G25KT 10SM CLR 25/16 A2984 RMK AO2 T02450155,KPNT,2022-10-24T19:15:00Z,40.92,-88.62,24.5,15.5,170,21,25,10.0,29.840551,,,TRUE,TRUE,,,,,,,CLR,,,,,,,,VFR,,,,,,,,,,,,SPECI,199.0
KPNA 241915Z AUTO 31019G26KT 10SM CLR 02/M12 A3001 RMK AO2,KPNA,2022-10-24T19:15:00Z,42.8,-109.8,2.0,-12.0,310,19,26,10.0,30.008858,,,TRUE,TRUE,,,,,,,CLR,,,,,,,,VFR,,,,,,,,,,,,METAR,2158.0
KPMV 241915Z AUTO 35004KT 10SM RA SCT030 BKN037 OVC045 07/06 A2972 RMK AO2 T00720058,KPMV,2022-10-24T19:15:00Z,40.95,-95.92,7.2,5.8,350,4,,10.0,29.719488,,,TRUE,TRUE,,,,,,RA,SCT,3000,BKN,3700,OVC,4500,,,VFR,,,,,,,,,,,,SPECI,365.0
KPMU 241915Z AUTO 17005G14KT 10SM CLR 26/14 A2993 RMK AO2,KPMU,2022-10-24T19:15:00Z,34.37,-89.9,26.0,14.0,170,5,14,10.0,29.929134,,,TRUE,TRUE,,,,,,,CLR,,,,,,,,VFR,,,,,,,,,,,,SPECI,67.0
KPMH 241915Z AUTO 00000KT 10SM CLR 26/01 A3008 RMK AO2 T02600010,KPMH,2022-10-24T19:15:00Z,38.83,-82.85,26.0,1.0,0,0,,10.0,30.079725,,,TRUE,TRUE,,,,,,,CLR,,,,,,,,VFR,,,,,,,,,,,,SPECI,200.0
KPLU 241915Z AUTO 23006G13KT 10SM SCT021 13/09 A2998 RMK AO2,KPLU,2022-10-24T19:15:00Z,47.1,-122.28,13.0,9.0,230,6,13,10.0,29.97933,,,TRUE,TRUE,,,,,,,SCT,2100,,,,,,,VFR,,,,,,,,,,,,SPECI,164.0
KPIM 241915Z AUTO 25004KT 10SM CLR 25/08 A3012 RMK AO2 T02500081,KPIM,2022-10-24T19:15:00Z,32.83,-84.88,25.0,8.1,250,4,,10.0,30.121063,,,TRUE,TRUE,,,,,,,CLR,,,,,,,,VFR,,,,,,,,,,,,SPECI,274.0
KPHN 241915Z AUTO 17011G19KT 140V210 10SM CLR 25/02 A3004 RMK AO2,KPHN,2022-10-24T19:15:00Z,42.92,-82.52,25.0,2.0,170,11,19,10.0,30.041338,,,TRUE,TRUE,,,,,,,CLR,,,,,,,,VFR,,,,,,,,,,,,SPECI,195.0
KPEZ 241915Z AUTO 17010G14KT 10SM BKN042 32/21 A2972 RMK AO2 T03170210,KPEZ,2022-10-24T19:15:00Z,28.95,-98.52,31.7,21.0,170,10,14,10.0,29.719488,,,TRUE,TRUE,,,,,,,BKN,4200,,,,,,,VFR,,,,,,,,,,,,SPECI,126.0
KPEQ 241915Z AUTO 28035G40KT 10SM BKN110 18/04 A2988 RMK AO2 T01790037,KPEQ,2022-10-24T19:15:00Z,31.38,-103.52,17.9,3.7,280,35,40,10.0,29.878937,,,TRUE,TRUE,,,,,,,BKN,11000,,,,,,,VFR,,,,,,,,,,,,METAR,794.0
KPEA 241915Z AUTO 31014G19KT 2SM +RA BR OVC015 11/10 A2970 RMK AO2 P0009 T01090100,KPEA,2022-10-24T19:15:00Z,41.4,-92.95,10.9,10.0,310,14,19,2.0,29.698818,,,TRUE,TRUE,,,,,,+RA BR,OVC,1500,,,,,,,IFR,,,,,,0.09,,,,,,SPECI,264.0
KPCD 241915Z AUTO 17018G22KT 10SM SCT046 SCT060 SCT080 25/16 A2986 RMK AO2 T02500155,KPCD,2022-10-24T19:15:00Z,37.87,-89.87,25.0,15.5,170,18,22,10.0,29.861221,,,TRUE,TRUE,,,,,,,SCT,4600,SCT,6000,SCT,8000,,,VFR,,,,,,,,,,,,SPECI,112.0
KOZA 241915Z AUTO 20012G19KT 10SM CLR 26/15 A2977 RMK AO2,KOZA,2022-10-24T19:15:00Z,30.73,-101.2,26.0,15.0,200,12,19,10.0,29.769686,,,TRUE,TRUE,,,,,,,CLR,,,,,,,,VFR,,,,,,,,,,,,SPECI,721.0
KOWX 241915Z AUTO 18010G19KT 10SM CLR 26/M01 A3004 RMK AO1,KOWX,2022-10-24T19:15:00Z,41.03,-83.98,26.0,-1.0,180,10,19,10.0,30.041338,,,TRUE,TRUE,,,,,,,CLR,,,,,,,,VFR,,,,,,,,,,,,SPECI,232.0
KOWP 241915Z AUTO 04011G18KT 10SM SCT110 14/13 A2968 RMK AO2 T01410132,KOWP,2022-10-24T19:15:00Z,36.18,-96.15,14.1,13.2,40,11,18,10.0,29.681103,,,TRUE,TRUE,,,,,,,SCT,11000,,,,,,,VFR,,,,,,,,,,,,SPECI,267.0
KORG 241915Z AUTO 19014G20KT 10SM SCT037 BKN085 31/20 A2989 RMK AO2 T03060196,KORG,2022-10-24T19:15:00Z,30.07,-93.8,30.6,19.6,190,14,20,10.0,29.890747,,,TRUE,TRUE,,,,,,,SCT,3700,BKN,8500,,,,,VFR,,,,,,,,,,,,SPECI,2.0
KOQN 241915Z AUTO 04003KT 1 1/4SM BR OVC004 15/13 A3013 RMK AO2,KOQN,2022-10-24T19:15:00Z,39.98,-75.58,15.0,13.0,40,3,,1.25,30.129921,,,TRUE,TRUE,,,,,,BR,OVC,400,,,,,,,LIFR,,,,,,,,,,,,SPECI,141.0
KOPN 241915Z AUTO 00000KT 10SM CLR 28/07 A3013 RMK AO2,KOPN,2022-10-24T19:15:00Z,32.95,-84.27,28.0,7.0,0,0,,10.0,30.129921,,,TRUE,TRUE,,,,,,,CLR,,,,,,,,VFR,,,,,,,,,,,,SPECI,241.0
KOPL 241915Z AUTO 17012G22KT 10SM BKN055 BKN065 OVC080 28/17 A2992 RMK AO2 T02780166,KOPL,2022-10-24T19:15:00Z,30.55,-92.1,27.8,16.6,170,12,22,10.0,29.920275,,,TRUE,TRUE,,,,,,,BKN,5500,BKN,6500,OVC,8000,,,VFR,,,,,,,,,,,,SPECI,22.0
KOOA 241915Z AUTO 21021G28KT 2SM SCT007 SCT027 OVC033 22/20 A2968 RMK AO2 P0004 T02160198,KOOA,2022-10-24T19:15:00Z,41.23,-92.5,21.6,19.8,210,21,28,2.0,29.681103,,,TRUE,TRUE,,,,,,,SCT,700,SCT,2700,OVC,3300,,,IFR,,,,,,0.04,,,,,,SPECI,256.0
KONX 241915Z AUTO 34003KT 10SM OVC008 15/13 A3011 RMK AO2 T01520130,KONX,2022-10-24T19:15:00Z,36.4,-76.02,15.2,13.0,340,3,,10.0,30.109253,,,TRUE,TRUE,,,,,,,OVC,800,,,,,,,IFR,,,,,,,,,,,,SPECI,4.0
KONL 241915Z AUTO 29018G25KT 10SM CLR 10/M06 A2973 RMK AO2 T01031057,KONL,2022-10-24T19:15:00Z,42.47,-98.68,10.3,-5.7,290,18,25,10.0,29.731298,,,TRUE,TRUE,,,,,,,CLR,,,,,,,,VFR,,,,,,,,,,,,SPECI,619.0
KOLZ 241915Z AUTO 27010KT 10SM OVC027 19/16 A2966 RMK A01,KOLZ,2022-10-24T19:15:00Z,42.67,-91.97,19.0,16.0,270,10,,10.0,29.660433,,,TRUE,TRUE,,,,,,,OVC,2700,,,,,,,MVFR,,,,,,,,,,,,SPECI,328.0
KOLY 241915Z AUTO 16011KT 10SM CLR 26/09 A2993 RMK AO2 T02560087,KOLY,2022-10-24T19:15:00Z,38.72,-88.18,25.6,8.7,160,11,,10.0,29.929134,,,TRUE,TRUE,,,,,,,CLR,,,,,,,,VFR,,,,,,,,,,,,SPECI,144.0
KOLE 241915Z AUTO 06005KT 10SM CLR 20/10 A3015 RMK AO2,KOLE,2022-10-24T19:15:00Z,42.23,-78.37,20.0,10.0,60,5,,10.0,30.15059,,,TRUE,TRUE,,,,,,,CLR,,,,,,,,VFR,,,,,,,,,,,,SPECI,651.0
KOKZ 241915Z AUTO 15004KT 10SM CLR 25/09 A3012 RMK AO2 T02470087,KOKZ,2022-10-24T19:15:00Z,32.97,-82.83,24.7,8.7,150,4,,10.0,30.121063,,,TRUE,TRUE,,,,,,,CLR,,,,,,,,VFR,,,,,,,,,,,,SPECI,128.0
KOKM 241915Z AUTO 02011G18KT 7SM -RA SCT009 BKN070 OVC095 14/14 A2971 RMK AO2 P0003 T01360136,KOKM,2022-10-24T19:15:00Z,35.67,-95.95,13.6,13.6,20,11,18,7.0,29.71063,,,TRUE,TRUE,,,,,,-RA,SCT,900,BKN,7000,OVC,9500,,,VFR,,,,,,0.03,,,,,,SPECI,215.0
KOGS 241915Z AUTO VRB05KT 10SM CLR 23/04 A3013 RMK AO2,KOGS,2022-10-24T19:15:00Z,44.67,-75.47,23.0,4.0,0,5,,10.0,30.129921,,,TRUE,TRUE,,,,,,,CLR,,,,,,,,VFR,,,,,,,,,,,,SPECI,88.0
KOGA 241915Z AUTO 31023G33KT 10SM SCT050 11/M04 A2983 RMK AO2 T01111036,KOGA,2022-10-24T19:15:00Z,41.12,-101.77,11.1,-3.6,310,23,33,10.0,29.828741,,,TRUE,TRUE,,,,,,,SCT,5000,,,,,,,VFR,,,,,,,,,,,,SPECI,991.0
KOEL 241915Z AUTO 36024G30KT 10SM CLR 13/M09 A2981 RMK AO1 T01281088,KOEL,2022-10-24T19:15:00Z,39.12,-100.82,12.8,-8.8,360,24,30,10.0,29.811024,,,TRUE,TRUE,,,,,,,CLR,,,,,,,,VFR,,,,,,,,,,,,SPECI,924.0
KOCW 241915Z AUTO 00000KT 10SM CLR 21/14 A3011 RMK AO2 T02130140,KOCW,2022-10-24T19:15:00Z,35.57,-77.05,21.3,14.0,0,0,,10.0,30.109253,,,TRUE,TRUE,,,,,,,CLR,,,,,,,,VFR,,,,,,,,,,,,SPECI,10.0
KOBE 241915Z AUTO 00000KT 10SM OVC050 26/23 A3003 RMK AO2,KOBE,2022-10-24T19:15:00Z,27.27,-80.85,26.0,23.0,0,0,,10.0,30.029528,,,TRUE,TRUE,,,,,,,OVC,5000,,,,,,,VFR,,,,,,,,,,,,SPECI,11.0
KNY0 241915Z AUTO 13004KT 3SM OVC014 14/14 A3020 RMK AO2,KNY0,2022-10-24T19:15:00Z,42.98,-74.33,14.0,14.0,130,4,,3.0,30.200787,,,TRUE,TRUE,,,,,,,OVC,1400,,,,,,,MVFR,,,,,,,,,,,,SPECI,266.0
KNRN 241915Z AUTO 34016G25KT 10SM CLR 13/M05 A2982 RMK AO2,KNRN,2022-10-24T19:15:00Z,39.85,-99.9,13.0,-5.0,340,16,25,10.0,29.819881,,,TRUE,TRUE,,,,,,,CLR,,,,,,,,VFR,,,,,,,,,,,,SPECI,726.0
KNOW 241915Z AUTO 29013G19KT 10SM SCT050 13/08 A2993 RMK AO2 T01300076,KNOW,2022-10-24T19:15:00Z,48.13,-123.4,13.0,7.6,290,13,19,10.0,29.929134,,,TRUE,TRUE,,,,,,,SCT,5000,,,,,,,VFR,,,,,,,,,,,,SPECI,3.0
KN03 241915Z AUTO 11005KT 10SM BKN029 18/13 A3016 RMK AO2,KN03,2022-10-24T19:15:00Z,42.6,-76.22,18.0,13.0,110,5,,10.0,30.159449,,,TRUE,TRUE,,,,,,,BKN,2900,,,,,,,MVFR,,,,,,,,,,,,SPECI,361.0
KMZZ 241915Z AUTO 17011G16KT 7SM CLR 24/09 A3000 RMK AO2 T02370092,KMZZ,2022-10-24T19:15:00Z,40.48,-85.68,23.7,9.2,170,11,16,7.0,30.0,,,TRUE,TRUE,,,,,,,CLR,,,,,,,,VFR,,,,,,,,,,,,SPECI,260.0
KMWO 241915Z AUTO 19007KT 10SM CLR 24/04 A3005 RMK AO2 T02350038,KMWO,2022-10-24T19:15:00Z,39.53,-84.4,23.5,3.8,190,7,,10.0,30.050198,,,TRUE,TRUE,,,,,,,CLR,,,,,,,,VFR,,,,,,,,,,,,SPECI,197.0
KMWK 241915Z AUTO 15004KT 10SM CLR 23/08 A3014 RMK AO2 T02290081,KMWK,2022-10-24T19:15:00Z,36.47,-80.55,22.9,8.1,150,4,,10.0,30.138779,,,TRUE,TRUE,,,,,,,CLR,,,,,,,,VFR,,,,,,,,,,,,SPECI,374.0
KMRT 241915Z AUTO 20009KT 10SM CLR 24/03 A3008 RMK AO2 T02350033,KMRT,2022-10-24T19:15:00Z,40.22,-83.35,23.5,3.3,200,9,,10.0,30.079725,,,TRUE,TRUE,,,,,,,CLR,,,,,,,,VFR,,,,,,,,,,,,SPECI,302.0
KMQW 241915Z AUTO 14003KT 10SM CLR 26/11 A3011 RMK AO2 T02570108,KMQW,2022-10-24T19:15:00Z,32.1,-82.88,25.7,10.8,140,3,,10.0,30.109253,,,TRUE,TRUE,,,,,,,CLR,,,,,,,,VFR,,,,,,,,,,,,SPECI,62.0
KMQS 241915Z AUTO 02005KT 3/4SM BR OVC003 14/14 A3015 RMK AO2,KMQS,2022-10-24T19:15:00Z,39.98,-75.87,14.0,14.0,20,5,,0.75,30.15059,,,TRUE,TRUE,,,,,,BR,OVC,300,,,,,,,LIFR,,,,,,,,,,,,SPECI,200.0
KMQI 241915Z AUTO 00000KT 10SM OVC007 15/14 A3012 RMK AO2 T01500135,KMQI,2022-10-24T19:15:00Z,35.92,-75.7,15.0,13.5,0,0,,10.0,30.121063,,,TRUE,TRUE,,,,,,,OVC,700,,,,,,,IFR,,,,,,,,,,,,SPECI,3.0
KMQB 241915Z AUTO 16015G22KT 10SM BKN036 BKN042 BKN070 22/13 A2977 RMK AO2 T02160125,KMQB,2022-10-24T19:15:00Z,40.52,-90.65,21.6,12.5,160,15,22,10.0,29.769686,,,TRUE,TRUE,,,,,,,BKN,3600,BKN,4200,BKN,7000,,,VFR,,,,,,,,,,,,SPECI,205.0
KMPR 241915Z AUTO 35016KT 10SM BKN085 BKN110 10/06 A2976 RMK AO2 T01040058,KMPR,2022-10-24T19:15:00Z,38.35,-97.68,10.4,5.8,350,16,,10.0,29.760826,,,TRUE,TRUE,,,,,,,BKN,8500,BKN,11000,,,,,VFR,,,,,,,,,,,,SPECI,455.0
KMOX 241915Z AUTO 24011G22KT 10SM 08/01 RMK AO2,KMOX,2022-10-24T19:15:00Z,45.57,-95.97,8.0,1.0,240,11,22,10.0,,,,TRUE,TRUE,,,,,,,,,,,,,,,,,,,,,,,,,,,METAR,346.0
KMOP 241915Z AUTO 18011G18KT 10SM CLR 24/11 A2993 RMK AO2 T02400112,KMOP,2022-10-24T19:15:00Z,43.62,-84.73,24.0,11.2,180,11,18,10.0,29.929134,,,TRUE,TRUE,,,,,,,CLR,,,,,,,,VFR,,,,,,,,,,,,SPECI,229.0
KMNH 241915Z AUTO 30007KT 10SM CLR 05/M13 A2988 RMK AO2,KMNH,2022-10-24T19:15:00Z,39.22,-104.65,5.0,-13.0,300,7,,10.0,29.878937,,,TRUE,TRUE,,,,,,,CLR,,,,,,,,VFR,,,,,,,,,,,,SPECI,2152.0
KMMH 241915Z AUTO 36004G14KT 10SM CLR 16/M11 A3029 RMK AO2,KMMH,2022-10-24T19:15:00Z,37.62,-118.83,16.0,-11.0,360,4,14,10.0,30.28937,,,TRUE,TRUE,,,,,,,CLR,,,,,,,,VFR,,,,,,,,,,,,SPECI,2167.0
KMLJ 241915Z AUTO 00000KT 9SM CLR 26/10 A3010 RMK AO2,KMLJ,2022-10-24T19:15:00Z,33.15,-83.25,26.0,10.0,0,0,,9.0,30.100393,,,TRUE,TRUE,,,,,,,CLR,,,,,,,,VFR,,,,,,,,,,,,SPECI,115.0
KMLE 241915Z AUTO 00000KT 10SM DZ SCT036 BKN070 OVC120 08/05 A2973 RMK AO2 T00780052,KMLE,2022-10-24T19:15:00Z,41.2,-96.12,7.8,5.2,0,0,,10.0,29.731298,,,TRUE,TRUE,,,,,,DZ,SCT,3600,BKN,7000,OVC,12000,,,VFR,,,,,,,,,,,,SPECI,318.0
KMKS 241915Z AUTO 01005KT 10SM CLR 22/12 A3012 RMK AO2,KMKS,2022-10-24T19:15:00Z,33.18,-80.03,22.0,12.0,10,5,,10.0,30.121063,,,TRUE,TRUE,,,,,,,CLR,,,,,,,,VFR,,,,,,,,,,,,SPECI,22.0
KMJQ 241915Z AUTO 24010KT 10SM -DZ SCT019 SCT048 SCT055 07/00 A2972 RMK AO2,KMJQ,2022-10-24T19:15:00Z,43.63,-94.98,7.0,0.0,240,10,,10.0,29.719488,,,TRUE,TRUE,,,,,,-DZ,SCT,1900,SCT,4800,SCT,5500,,,VFR,,,,,,,,,,,,SPECI,439.0
KMJD 241915Z AUTO 18007G14KT 10SM SCT070 29/17 A2997 RMK AO2,KMJD,2022-10-24T19:15:00Z,30.48,-89.65,29.0,17.0,180,7,14,10.0,29.970472,,,TRUE,TRUE,,,,,,,SCT,7000,,,,,,,VFR,,,,,,,,,,,,SPECI,17.0
KMHP 241915Z AUTO 08003KT 10SM CLR 26/11 A3011 RMK AO2 T02570108,KMHP,2022-10-24T19:15:00Z,32.37,-82.08,25.7,10.8,80,3,,10.0,30.109253,,,TRUE,TRUE,,,,,,,CLR,,,,,,,,VFR,,,,,,,,,,,,SPECI,60.0
KMGR 241915Z AUTO 15003KT 10SM CLR 26/12 A3010 RMK AO2,KMGR,2022-10-24T19:15:00Z,31.08,-83.8,26.0,12.0,150,3,,10.0,30.100393,,,TRUE,TRUE,,,,,,,CLR,,,,,,,,VFR,,,,,,,,,,,,SPECI,86.0
KMGC 241915Z AUTO 18010G20KT 10SM CLR 22/11 A2991 RMK AO2,KMGC,2022-10-24T19:15:00Z,41.7,-86.82,22.0,11.0,180,10,20,10.0,29.911417,,,TRUE,TRUE,,,,,,,CLR,,,,,,,,VFR,,,,,,,,,,,,SPECI,199.0
KMFV 241915Z AUTO 34007KT 300V010 10SM OVC008 14/12 A3010 RMK AO2 LTG DSNT E T01400115,KMFV,2022-10-24T19:15:00Z,37.63,-75.77,14.0,11.5,340,7,,10.0,30.100393,,,TRUE,TRUE,,,,,,,OVC,800,,,,,,,IFR,,,,,,,,,,,,METAR,13.0
KMDD 241915Z AUTO 27027G31KT 10SM SCT070 SCT085 BKN110 23/07 A2979 RMK AO2 T02280070,KMDD,2022-10-24T19:15:00Z,32.03,-102.1,22.8,7.0,270,27,31,10.0,29.790354,,,TRUE,TRUE,,,,,,,SCT,7000,SCT,8500,BKN,11000,,,VFR,,,,,,,,,,,,SPECI,853.0
KLZZ 241915Z AUTO 04005KT 10SM SCT007 BKN020 BKN029 19/17 A2973 RMK AO2 T01900169,KLZZ,2022-10-24T19:15:00Z,31.1,-98.2,19.0,16.9,40,5,,10.0,29.731298,,,TRUE,TRUE,,,,,,,SCT,700,BKN,2000,BKN,2900,,,MVFR,,,,,,,,,,,,SPECI,356.0
KLXN 241915Z AUTO 32021G32KT 10SM CLR 13/M04 A2977 RMK AO2 T01251044,KLXN,2022-10-24T19:15:00Z,40.78,-99.77,12.5,-4.4,320,21,32,10.0,29.769686,,,TRUE,TRUE,,,,,,,CLR,,,,,,,,VFR,,,,,,,,,,,,SPECI,734.0
KLVN 241915Z AUTO 23003KT 10SM -RA CLR 11/05 A2968 RMK AO2 P0001,KLVN,2022-10-24T19:15:00Z,44.63,-93.23,11.0,5.0,230,3,,10.0,29.681103,,,TRUE,TRUE,,,,,,-RA,CLR,,,,,,,,VFR,,,,,,0.01,,,,,,SPECI,292.0
KLUV 241915Z AUTO 29027G34KT 4SM -RA SCT037 SCT050 BKN120 20/07 A2976 RMK AO2,KLUV,2022-10-24T19:15:00Z,32.75,-101.92,20.0,7.0,290,27,34,4.0,29.760826,,,TRUE,TRUE,,,,,,-RA,SCT,3700,SCT,5000,BKN,12000,,,MVFR,,,,,,,,,,,,SPECI,910.0
KLUL 241915Z AUTO 18012G16KT 10SM BKN043 BKN050 28/16 A2999 RMK A02 T02760161,KLUL,2022-10-24T19:15:00Z,31.67,-89.17,27.6,16.1,180,12,16,10.0,29.991142,,,TRUE,TRUE,,,,,,,BKN,4300,BKN,5000,,,,,VFR,,,,,,,,,,,,SPECI,74.0
KLUD 241915Z AUTO 10004KT 10SM OVC003 17/16 A2974 RMK AO2 T01670160,KLUD,2022-10-24T19:15:00Z,33.25,-97.58,16.7,16.0,100,4,,10.0,29.740158,,,TRUE,TRUE,,,,,,,OVC,300,,,,,,,LIFR,,,,,,,,,,,,SPECI,319.0
KLUA 241915Z AUTO 00000KT 10SM CLR 23/08 A3011 RMK AO2,KLUA,2022-10-24T19:15:00Z,38.67,-78.5,23.0,8.0,0,0,,10.0,30.109253,,,TRUE,TRUE,,,,,,,CLR,,,,,,,,VFR,,,,,,,,,,,,SPECI,273.0
KLRJ 241915Z AUTO 26007G14KT 10SM CLR 09/M02 A2972 RMK AO2,KLRJ,2022-10-24T19:15:00Z,42.77,-96.2,9.0,-2.0,260,7,14,10.0,29.719488,,,TRUE,TRUE,,,,,,,CLR,,,,,,,,VFR,,,,,,,,,,,,SPECI,363.0
KLRF 241915Z AUTO 21013G20KT 10SM FEW046 FEW210 27/15 A2980 RMK AO2 WSHFT 10 SLP091,KLRF,2022-10-24T19:15:00Z,34.92,-92.12,27.0,15.0,210,13,20,10.0,29.799213,1009.1,,TRUE,TRUE,,,,,,,FEW,4600,FEW,21000,,,,,VFR,,,,,,,,,,,,SPECI,85.0
KLOT 241915Z AUTO 16019G25KT 10SM CLR 23/14 A2983 RMK AO2,KLOT,2022-10-24T19:15:00Z,41.6,-88.1,23.0,14.0,160,19,25,10.0,29.828741,,,TRUE,TRUE,,,,,,,CLR,,,,,,,,VFR,,,,,,,,,,,,SPECI,205.0
KLOM 241915Z AUTO 04004KT 7SM OVC006 15/14 A3013 RMK AO2 T01510144,KLOM,2022-10-24T19:15:00Z,40.13,-75.27,15.1,14.4,40,4,,7.0,30.129921,,,TRUE,TRUE,,,,,,,OVC,600,,,,,,,IFR,,,,,,,,,,,,SPECI,87.0
KLNN 241915Z AUTO 36006KT 10SM CLR 23/06 A3006 RMK AO1 T02340056,KLNN,2022-10-24T19:15:00Z,41.68,-81.38,23.4,5.6,360,6,,10.0,30.059055,,,TRUE,TRUE,,,,,,,CLR,,,,,,,,VFR,,,,,,,,,,,,SPECI,190.0
KLMO 241915Z AUTO 09007G14KT 10SM CLR 13/M10 A2987 RMK AO2 T01301105,KLMO,2022-10-24T19:15:00Z,40.17,-105.17,13.0,-10.5,90,7,14,10.0,29.870079,,,TRUE,TRUE,,,,,,,CLR,,,,,,,,VFR,,,,,,,,,,,,SPECI,1535.0
KLLN 241915Z AUTO 29019G30KT 10SM FEW031 BKN046 OVC060 10/05 A2983 RMK AO2,KLLN,2022-10-24T19:15:00Z,33.55,-102.37,10.0,5.0,290,19,30,10.0,29.828741,,,TRUE,TRUE,,,,,,,FEW,3100,BKN,4600,OVC,6000,,,VFR,,,,,,,,,,,,SPECI,1071.0
KLHM 241915Z AUTO 19006KT 10SM CLR 20/M03 A3019 RMK AO1,KLHM,2022-10-24T19:15:00Z,38.92,-121.35,20.0,-3.0,190,6,,10.0,30.188976,,,TRUE,TRUE,,,,,,,CLR,,,,,,,,VFR,,,,,,,,,,,,SPECI,36.0
KLHB 241915Z AUTO 17015G24KT 10SM BKN032 OVC038 28/20 A2975 RMK AO2 T02790200,KLHB,2022-10-24T19:15:00Z,30.87,-96.62,27.9,20.0,170,15,24,10.0,29.749016,,,TRUE,TRUE,,,,,,,BKN,3200,OVC,3800,,,,,VFR,,,,,,,,,,,,SPECI,83.0
KLGC 241915Z AUTO 19005KT 10SM CLR 26/08 A3011 RMK AO2 T02570084,KLGC,2022-10-24T19:15:00Z,33.0,-85.07,25.7,8.4,190,5,,10.0,30.109253,,,TRUE,TRUE,,,,,,,CLR,,,,,,,,VFR,,,,,,,,,,,,SPECI,209.0
KLCQ 241915Z AUTO 02003KT 10SM CLR 26/12 A3009 RMK AO2,KLCQ,2022-10-24T19:15:00Z,30.18,-82.58,26.0,12.0,20,3,,10.0,30.088583,,,TRUE,TRUE,,,,,,,CLR,,,,,,,,VFR,,,,,,,,,,,,SPECI,59.0
KLAM 241915Z AUTO 33010G22KT 290V020 10SM SCT038 BKN046 OVC065 03/M06 A2991 RMK AO2 T00261061,KLAM,2022-10-24T19:15:00Z,35.87,-106.27,2.6,-6.1,330,10,22,10.0,29.911417,,,TRUE,TRUE,,,,,,,SCT,3800,BKN,4600,OVC,6500,,,VFR,,,,,,,,,,,,SPECI,2166.0
KK88 241915Z AUTO 36007KT 5SM BKN007 OVC011 11/10 A2973 RMK AO1 P0004 T01070102,KK88,2022-10-24T19:15:00Z,37.87,-95.38,10.7,10.2,360,7,,5.0,29.731298,,,TRUE,TRUE,,,,,,,BKN,700,OVC,1100,,,,,IFR,,,,,,0.04,,,,,,SPECI,308.0
KK62 241915Z AUTO 16006KT 10SM CLR 23/02 A3005 RMK AO2,KK62,2022-10-24T19:15:00Z,38.7,-84.4,23.0,2.0,160,6,,10.0,30.050198,,,TRUE,TRUE,,,,,,,CLR,,,,,,,,VFR,,,,,,,,,,,,SPECI,274.0
KJYR 241915Z AUTO 28009KT 10SM CLR 10/M01 A2976 RMK AO2,KJYR,2022-10-24T19:15:00Z,40.9,-97.62,10.0,-1.0,280,9,,10.0,29.760826,,,TRUE,TRUE,,,,,,,CLR,,,,,,,,VFR,,,,,,,,,,,,SPECI,508.0
KJVY 241915Z AUTO 19008KT 10SM CLR 26/06 A3000 RMK AO2 PWINO,KJVY,2022-10-24T19:15:00Z,38.37,-85.73,26.0,6.0,190,8,,10.0,30.0,,,TRUE,TRUE,,,,,TRUE,,CLR,,,,,,,,VFR,,,,,,,,,,,,SPECI,141.0
KJVW 241915Z AUTO 16008KT 100V180 10SM BKN060 BKN070 28/13 A2994 RMK AO2,KJVW,2022-10-24T19:15:00Z,32.3,-90.42,28.0,13.0,160,8,,10.0,29.940945,,,TRUE,TRUE,,,,,,,BKN,6000,BKN,7000,,,,,VFR,,,,,,,,,,,,SPECI,73.0
KJSV 241915Z AUTO 16004KT 5SM -RA BR OVC029 21/19 A2966 RMK AO2,KJSV,2022-10-24T19:15:00Z,35.43,-94.8,21.0,19.0,160,4,,5.0,29.660433,,,TRUE,TRUE,,,,,,-RA BR,OVC,2900,,,,,,,MVFR,,,,,,,,,,,,SPECI,158.0
KJOT 241915Z AUTO 17011G18KT 10SM SCT060 24/14 A2983 RMK AO2 T02420139,KJOT,2022-10-24T19:15:00Z,41.52,-88.18,24.2,13.9,170,11,18,10.0,29.828741,,,TRUE,TRUE,,,,,,,SCT,6000,,,,,,,VFR,,,,,,,,,,,,SPECI,175.0
KJNX 241915Z AUTO 23003KT 10SM CLR 23/13 A3010 RMK AO2 LTG DSNT E,KJNX,2022-10-24T19:15:00Z,35.53,-78.38,23.0,13.0,230,3,,10.0,30.100393,,,TRUE,TRUE,,,,,,,CLR,,,,,,,,VFR,,,,,,,,,,,,SPECI,41.0
KJES 241915Z AUTO 00000KT 10SM CLR M28/M39 A3013 RMK AO2,KJES,2022-10-24T19:15:00Z,31.55,-81.88,-28.0,-39.0,0,0,,10.0,30.129921,,,TRUE,TRUE,,,,,,,CLR,,,,,,,,VFR,,,,,,,,,,,,SPECI,26.0
KJDD 241915Z AUTO 15006KT 10SM -RA BKN028 OVC034 24/20 A2973 RMK AO2,KJDD,2022-10-24T19:15:00Z,32.75,-95.5,24.0,20.0,150,6,,10.0,29.731298,,,TRUE,TRUE,,,,,,-RA,BKN,2800,OVC,3400,,,,,MVFR,,,,,,,,,,,,SPECI,127.0
KJCA 241915Z AUTO 15008KT 10SM CLR 24/08 A3013 RMK AO2 T02440082,KJCA,2022-10-24T19:15:00Z,34.18,-83.57,24.4,8.2,150,8,,10.0,30.129921,,,TRUE,TRUE,,,,,,,CLR,,,,,,,,VFR,,,,,,,,,,,,SPECI,287.0
KJAS 241915Z AUTO 18016G23KT 9SM FEW045 SCT060 29/19 A2983 RMK AO2,KJAS,2022-10-24T19:15:00Z,30.88,-94.03,29.0,19.0,180,16,23,9.0,29.828741,,,TRUE,TRUE,,,,,,,FEW,4500,SCT,6000,,,,,VFR,,,,,,,,,,,,SPECI,60.0
KIZA 241915Z AUTO 28006KT 10SM CLR 22/M05 A3017 RMK AO2,KIZA,2022-10-24T19:15:00Z,34.6,-120.07,22.0,-5.0,280,6,,10.0,30.171259,,,TRUE,TRUE,,,,,,,CLR,,,,,,,,VFR,,,,,,,,,,,,SPECI,200.0
KIYA 241915Z AUTO 14017G21KT 10SM SCT075 29/16 A2993 RMK AO2 T02860158,KIYA,2022-10-24T19:15:00Z,29.98,-92.08,28.6,15.8,140,17,21,10.0,29.929134,,,TRUE,TRUE,,,,,,,SCT,7500,,,,,,,VFR,,,,,,,,,,,,SPECI,4.0
KIMS 241915Z AUTO 16008KT 10SM CLR 25/05 A3005 RMK AO2,KIMS,2022-10-24T19:15:00Z,38.75,-85.47,25.0,5.0,160,8,,10.0,30.050198,,,TRUE,TRUE,,,,,,,CLR,,,,,,,,VFR,,,,,,,,,,,,SPECI,244.0
KIKV 241915Z AUTO 31005KT 1 3/4SM -RA SCT027 SCT033 BKN045 10/09 A2973 RMK AO2,KIKV,2022-10-24T19:15:00Z,41.68,-93.57,10.0,9.0,310,5,,1.75,29.731298,,,TRUE,TRUE,,,,,,-RA,SCT,2700,SCT,3300,BKN,4500,,,IFR,,,,,,,,,,,,SPECI,270.0
KIKK 241915Z AUTO 19010G17KT 10SM CLR 24/12 A2987 RMK AO2 T02350121,KIKK,2022-10-24T19:15:00Z,41.07,-87.85,23.5,12.1,190,10,17,10.0,29.870079,,,TRUE,TRUE,,,,,,,CLR,,,,,,,,VFR,,,,,,,,,,,,SPECI,188.0
KIJX 241915Z AUTO 16014G20KT 10SM SCT050 SCT065 OVC090 22/14 A2979 RMK AO2 T02160141,KIJX,2022-10-24T19:15:00Z,39.77,-90.25,21.6,14.1,160,14,20,10.0,29.790354,,,TRUE,TRUE,,,,,,,SCT,5000,SCT,6500,OVC,9000,,,VFR,,,,,,,,,,,,SPECI,187.0
KIIY 241915Z AUTO 05003KT 10SM CLR 24/08 A3014 RMK AO2 T02430075,KIIY,2022-10-24T19:15:00Z,33.78,-82.82,24.3,7.5,50,3,,10.0,30.138779,,,TRUE,TRUE,,,,,,,CLR,,,,,,,,VFR,,,,,,,,,,,,SPECI,192.0
KIDP 241915Z AUTO 02003KT 10SM RA SCT006 BKN090 OVC110 12/11 A2970 RMK AO2 P0002 T01180110,KIDP,2022-10-24T19:15:00Z,37.17,-95.78,11.8,11.0,20,3,,10.0,29.698818,,,TRUE,TRUE,,,,,,RA,SCT,600,BKN,9000,OVC,11000,,,VFR,,,,,,0.02,,,,,,SPECI,252.0
KICL 241915Z AUTO 34009KT 5SM -RA CLR 09/08 A2975 RMK AO2,KICL,2022-10-24T19:15:00Z,40.72,-95.02,9.0,8.0,340,9,,5.0,29.749016,,,TRUE,TRUE,,,,,,-RA,CLR,,,,,,,,MVFR,,,,,,,,,,,,SPECI,299.0
KIBM 241915Z AUTO 33021G30KT 10SM OVC050 06/M05 A2985 RMK AO2 T00631050,KIBM,2022-10-24T19:15:00Z,41.18,-103.68,6.3,-5.0,330,21,30,10.0,29.84941,,,TRUE,TRUE,,,,,,,OVC,5000,,,,,,,VFR,,,,,,,,,,,,SPECI,1494.0
KI75 241915Z AUTO 32013G16KT 7SM -RA BKN008 BKN042 OVC047 10/10 A2968 RMK AO2 P0003 T01020095,KI75,2022-10-24T19:15:00Z,41.05,-93.68,10.2,9.5,320,13,16,7.0,29.681103,,,TRUE,TRUE,,,,,,-RA,BKN,800,BKN,4200,OVC,4700,,,IFR,,,,,,0.03,,,,,,SPECI,336.0
KI74 241915Z AUTO 17008KT 10SM CLR 23/05 A3006 RMK AO2,KI74,2022-10-24T19:15:00Z,40.12,-83.75,23.0,5.0,170,8,,10.0,30.059055,,,TRUE,TRUE,,,,,,,CLR,,,,,,,,VFR,,,,,,,,,,,,SPECI,322.0
KI68 241915Z AUTO 17007KT 10SM CLR 24/05 A3006 RMK AO1 T02380049,KI68,2022-10-24T19:15:00Z,39.47,-84.25,23.8,4.9,170,7,,10.0,30.059055,,,TRUE,TRUE,,,,,,,CLR,,,,,,,,VFR,,,,,,,,,,,,SPECI,274.0
KI63 241915Z AUTO 16013G19KT 10SM SCT031 OVC037 22/14 A2975 RMK AO2 T02150140,KI63,2022-10-24T19:15:00Z,39.98,-90.8,21.5,14.0,160,13,19,10.0,29.749016,,,TRUE,TRUE,,,,,,,SCT,3100,OVC,3700,,,,,VFR,,,,,,,,,,,,SPECI,221.0
KHZX 241915Z AUTO 20017G26KT 10SM CLR 12/06 A2956 RMK AO2,KHZX,2022-10-24T19:15:00Z,46.62,-93.32,12.0,6.0,200,17,26,10.0,29.56004,,,TRUE,TRUE,,,,,,,CLR,,,,,,,,VFR,,,,,,,,,,,,SPECI,374.0
KHZR 241915Z AUTO 16011G17KT 10SM SCT050 BKN075 28/16 A2993 RMK AO2 T02810160,KHZR,2022-10-24T19:15:00Z,30.72,-91.48,28.1,16.0,160,11,17,10.0,29.929134,,,TRUE,TRUE,,,,,,,SCT,5000,BKN,7500,,,,,VFR,,,,,,,,,,,,SPECI,11.0
KHYX 241915Z AUTO 19016G22KT 10SM CLR 25/06 A2997 RMK AO2 T02480059,KHYX,2022-10-24T19:15:00Z,43.43,-83.87,24.8,5.9,190,16,22,10.0,29.970472,,,TRUE,TRUE,,,,,,,CLR,,,,,,,,VFR,,,,,,,,,,,,SPECI,181.0
KHVS 241915Z AUTO VRB03G10KT 10SM CLR 23/10 A3012 RMK AO2,KHVS,2022-10-24T19:15:00Z,34.4,-80.12,23.0,10.0,0,3,10,10.0,30.121063,,,TRUE,TRUE,,,,,,,CLR,,,,,,,,VFR,,,,,,,,,,,,SPECI,110.0
KHVE 241915Z AUTO 29004KT 10SM CLR 09/M06 A3017 RMK AO2,KHVE,2022-10-24T19:15:00Z,38.42,-110.7,9.0,-6.0,290,4,,10.0,30.171259,,,TRUE,TRUE,,,,,,,CLR,,,,,,,,VFR,,,,,,,,,,,,SPECI,1351.0
KHQU 241915Z AUTO 00000KT 10SM CLR 24/08 A3013 RMK AO2 T02420080,KHQU,2022-10-24T19:15:00Z,33.53,-82.52,24.2,8.0,0,0,,10.0,30.129921,,,TRUE,TRUE,,,,,,,CLR,,,,,,,,VFR,,,,,,,,,,,,SPECI,141.0
KHPT 241915Z AUTO 29008KT 10SM -RA SCT032 SCT046 BKN075 11/07 A2970 RMK AO2 P0001,KHPT,2022-10-24T19:15:00Z,42.72,-93.23,11.0,7.0,290,8,,10.0,29.698818,,,TRUE,TRUE,,,,,,-RA,SCT,3200,SCT,4600,BKN,7500,,,VFR,,,,,,0.01,,,,,,SPECI,354.0
KHNR 241915Z AUTO 32007KT 5SM BR SCT043 SCT050 08/07 A2973 RMK A01,KHNR,2022-10-24T19:15:00Z,41.58,-95.33,8.0,7.0,320,7,,5.0,29.731298,,,TRUE,TRUE,,,,,,BR,SCT,4300,SCT,5000,,,,,MVFR,,,,,,,,,,,,SPECI,364.0
KHMZ 241915Z AUTO 09003KT 10SM CLR 22/11 A3010 RMK AO2 T02220114,KHMZ,2022-10-24T19:15:00Z,40.08,-78.52,22.2,11.4,90,3,,10.0,30.100393,,,TRUE,TRUE,,,,,,,CLR,,,,,,,,VFR,,,,,,,,,,,,SPECI,351.0
KHMP 241915Z AUTO 15005KT 10SM CLR 26/11 A3015 RMK AO2 T02550107,KHMP,2022-10-24T19:15:00Z,33.38,-84.33,25.5,10.7,150,5,,10.0,30.15059,,,TRUE,TRUE,,,,,,,CLR,,,,,,,,VFR,,,,,,,,,,,,SPECI,263.0
KHJH 241915Z AUTO 33010KT 10SM SCT120 11/00 A2975 RMK AO2 T01060003,KHJH,2022-10-24T19:15:00Z,40.15,-97.58,10.6,0.3,330,10,,10.0,29.749016,,,TRUE,TRUE,,,,,,,SCT,12000,,,,,,,VFR,,,,,,,,,,,,SPECI,449.0
KHII 241915Z AUTO 32012G17KT 10SM CLR 20/M07 A3018 RMK AO2,KHII,2022-10-24T19:15:00Z,34.57,-114.37,20.0,-7.0,320,12,17,10.0,30.180119,,,TRUE,TRUE,,,,,,,CLR,,,,,,,,VFR,,,,,,,,,,,,SPECI,241.0
KHHW 241915Z AUTO 30010KT 3SM +RA BKN008 BKN016 OVC030 16/15 A2974 RMK AO2,KHHW,2022-10-24T19:15:00Z,34.03,-95.55,16.0,15.0,300,10,,3.0,29.740158,,,TRUE,TRUE,,,,,,+RA,BKN,800,BKN,1600,OVC,3000,,,IFR,,,,,,,,,,,,SPECI,178.0
KHHV 241915Z AUTO 19013G23KT 10SM FEW034 FEW044 27/19 A2982 RMK A01,KHHV,2022-10-24T19:15:00Z,26.93,-94.68,27.0,19.0,190,13,23,10.0,29.819881,,,TRUE,TRUE,,,,,,,FEW,3400,FEW,4400,,,,,VFR,,,,,,,,,,,,SPECI,25.0
KHHG 241915Z AUTO 18009G14KT 10SM CLR 01/M10 A2999 RMK AO2 T00061105,KHHG,2022-10-24T19:15:00Z,40.85,-85.45,0.6,-10.5,180,9,14,10.0,29.991142,,,TRUE,TRUE,,,,,,,CLR,,,,,,,,VFR,,,,,,,,,,,,SPECI,247.0
KHEQ 241915Z AUTO 33017G27KT 10SM SCT050 11/M02 A2986 RMK AO2,KHEQ,2022-10-24T19:15:00Z,40.57,-102.28,11.0,-2.0,330,17,27,10.0,29.861221,,,TRUE,TRUE,,,,,,,SCT,5000,,,,,,,VFR,,,,,,,,,,,,SPECI,1136.0
KHDL 241915Z AUTO 20009G14KT 10SM CLR 27/13 A3007 RMK AO2,KHDL,2022-10-24T19:15:00Z,31.37,-85.32,27.0,13.0,200,9,14,10.0,30.070866,,,TRUE,TRUE,,,,,,,CLR,,,,,,,,VFR,,,,,,,,,,,,SPECI,109.0
KHDE 241915Z AUTO 32018G23KT 10SM CLR 12/M05 A2976 RMK AO2 T01231049,KHDE,2022-10-24T19:15:00Z,40.45,-99.33,12.3,-4.9,320,18,23,10.0,29.760826,,,TRUE,TRUE,,,,,,,CLR,,,,,,,,VFR,,,,,,,,,,,,SPECI,703.0
KHCR 241915Z AUTO 20003KT 10SM BKN038 OVC045 03/M06 A3015 RMK AO2,KHCR,2022-10-24T19:15:00Z,40.48,-111.43,3.0,-6.0,200,3,,10.0,30.15059,,,TRUE,TRUE,,,,,,,BKN,3800,OVC,4500,,,,,VFR,,,,,,,,,,,,SPECI,1708.0
KHCD 241915Z AUTO 21011G15KT 10SM CLR 11/02 A2967 RMK AO2 T01050020,KHCD,2022-10-24T19:15:00Z,44.87,-94.38,10.5,2.0,210,11,15,10.0,29.66929,,,TRUE,TRUE,,,,,,,CLR,,,,,,,,VFR,,,,,,,,,,,,SPECI,320.0
KGZL 241915Z AUTO 18007KT 1 1/4SM RA BKN026 OVC032 20/20 A2965 RMK AO2 P0005,KGZL,2022-10-24T19:15:00Z,35.28,-95.1,20.0,20.0,180,7,,1.25,29.648623,,,TRUE,TRUE,,,,,,RA,BKN,2600,OVC,3200,,,,,IFR,,,,,,0.05,,,,,,SPECI,176.0
KGYF 241915Z AUTO 18019KT 10SM SCT028 SCT035 28/20 A2983 RMK AO2 T02820200,KGYF,2022-10-24T19:15:00Z,26.13,-94.9,28.2,20.0,180,19,,10.0,29.828741,,,TRUE,TRUE,,,,,,,SCT,2800,SCT,3500,,,,,VFR,,,,,,,,,,,,METAR,65.0
KGWB 241915Z AUTO 18007KT 10SM CLR 24/11 A3001 RMK AO2,KGWB,2022-10-24T19:15:00Z,41.3,-85.07,24.0,11.0,180,7,,10.0,30.008858,,,TRUE,TRUE,,,,,,,CLR,,,,,,,,VFR,,,,,,,,,,,,SPECI,268.0
KGVT 241915Z AUTO 32007KT 2 1/2SM -RA BR BKN008 BKN024 OVC042 18/17 A2976 RMK AO2 TSNO T01800172,KGVT,2022-10-24T19:15:00Z,33.07,-96.07,18.0,17.2,320,7,,2.5,29.760826,,,TRUE,TRUE,,,TRUE,,,-RA BR,BKN,800,BKN,2400,OVC,4200,,,IFR,,,,,,,,,,,,SPECI,165.0
KGRY 241915Z AUTO 12013KT 10SM FEW026 BKN065 25/20 A2996 RMK A01,KGRY,2022-10-24T19:15:00Z,27.63,-90.45,25.0,20.0,120,13,,10.0,29.958662,,,TRUE,TRUE,,,,,,,FEW,2600,BKN,6500,,,,,VFR,,,,,,,,,,,,SPECI,58.0
KGPC 241915Z AUTO 18012KT 10SM SCT050 24/12 A2996 RMK AO2 T02390116,KGPC,2022-10-24T19:15:00Z,39.63,-86.82,23.9,11.6,180,12,,10.0,29.958662,,,TRUE,TRUE,,,,,,,SCT,5000,,,,,,,VFR,,,,,,,,,,,,SPECI,254.0
KGOP 241915Z AUTO 10SM BKN006 OVC021 18/18 A2977 RMK AO2,KGOP,2022-10-24T19:15:00Z,31.42,-97.8,18.0,18.0,,,,10.0,29.769686,,,TRUE,TRUE,,,,,,,BKN,600,OVC,2100,,,,,IFR,,,,,,,,,,,,SPECI,272.0
KGNC 241915Z AUTO 31018G30KT 10SM -RA BKN070 OVC100 12/07 A2989 RMK AO2 T01240066,KGNC,2022-10-24T19:15:00Z,32.68,-102.65,12.4,6.6,310,18,30,10.0,29.890747,,,TRUE,TRUE,,,,,,-RA,BKN,7000,OVC,10000,,,,,VFR,,,,,,,,,,,,SPECI,1002.0
KGNB 241915Z AUTO 26011KT 10SM SCT033 SCT042 OVC050 M02/M11 A3001 RMK AO2 T10191110,KGNB,2022-10-24T19:15:00Z,40.08,-105.92,-1.9,-11.0,260,11,,10.0,30.008858,,,TRUE,TRUE,,,,,,,SCT,3300,SCT,4200,OVC,5000,,,VFR,,,,,,,,,,,,SPECI,2500.0
KGMJ 241915Z AUTO 17015G23KT 2 1/2SM -RA HZ FEW014 SCT020 BKN035 13/11 A2963 RMK AO2 VIS 2V3,KGMJ,2022-10-24T19:15:00Z,36.6,-94.73,13.0,11.0,170,15,23,2.5,29.630905,,,TRUE,TRUE,,,,,,-RA HZ,FEW,1400,SCT,2000,BKN,3500,,,IFR,,,,,,,,,,,,SPECI,251.0
KGLX 241915Z AUTO 07005G14KT 10SM FEW050 OVC075 26/22 A3000 RMK A01,KGLX,2022-10-24T19:15:00Z,28.23,-88.98,26.0,22.0,70,5,14,10.0,30.0,,,TRUE,TRUE,,,,,,,FEW,5000,OVC,7500,,,,,VFR,,,,,,,,,,,,SPECI,32.0
KGLW 241915Z AUTO 18007KT 140V220 10SM CLR 25/05 A3003 RMK AO2 T02460052,KGLW,2022-10-24T19:15:00Z,37.03,-85.95,24.6,5.2,180,7,,10.0,30.029528,,,TRUE,TRUE,,,,,,,CLR,,,,,,,,VFR,,,,,,,,,,,,SPECI,216.0
KGLE 241915Z AUTO 08004KT 10SM OVC005 15/15 A2975 RMK AO2 T01500150,KGLE,2022-10-24T19:15:00Z,33.65,-97.2,15.0,15.0,80,4,,10.0,29.749016,,,TRUE,TRUE,,,,,,,OVC,500,,,,,,,IFR,,,,,,,,,,,,SPECI,250.0
KGIC 241915Z AUTO 03005KT 3/4SM BKN002 OVC015 00/00 A2997 RMK AO1,KGIC,2022-10-24T19:15:00Z,45.95,-116.12,0.0,0.0,30,5,,0.75,29.970472,,,TRUE,TRUE,,,,,,,BKN,200,OVC,1500,,,,,LIFR,,,,,,,,,,,,SPECI,1002.0
KGHG 241915Z AUTO VRB04KT 1/4SM FG OVC003 14/13 A3021 RMK AO2 LTG DSNT N AND W,KGHG,2022-10-24T19:15:00Z,42.1,-70.67,14.0,13.0,0,4,,0.25,30.209646,,,TRUE,TRUE,,,,,,FG,OVC,300,,,,,,,LIFR,,,,,,,,,,,,SPECI,3.0
KGGP 241915Z AUTO 17010G13KT 10SM CLR 23/08 A2996 RMK AO2,KGGP,2022-10-24T19:15:00Z,40.72,-86.37,23.0,8.0,170,10,13,10.0,29.958662,,,TRUE,TRUE,,,,,,,CLR,,,,,,,,VFR,,,,,,,,,,,,SPECI,224.0
KGGF 241915Z AUTO 31021G28KT 10SM FEW050 10/M05 A2982 RMK AO2,KGGF,2022-10-24T19:15:00Z,,,10.0,-5.0,310,21,28,10.0,29.819881,,,TRUE,TRUE,,,,,,,FEW,5000,,,,,,,VFR,,,,,,,,,,,,SPECI,
KGEV 241915Z AUTO 00000KT 10SM CLR 21/M03 A3018 RMK AO2 T02051026,KGEV,2022-10-24T19:15:00Z,36.43,-81.42,20.5,-2.6,0,0,,10.0,30.180119,,,TRUE,TRUE,,,,,,,CLR,,,,,,,,VFR,,,,,,,,,,,,SPECI,961.0
KGDB 241915Z AUTO 23011G15KT 10SM CLR 10/01 A2968 RMK AO2 T00950011,KGDB,2022-10-24T19:15:00Z,44.75,-95.55,9.5,1.1,230,11,15,10.0,29.681103,,,TRUE,TRUE,,,,,,,CLR,,,,,,,,VFR,,,,,,,,,,,,SPECI,316.0
KGCM 241915Z AUTO 34007KT 3SM +RA OVC008 12/12 A2973 RMK AO2 P0005,KGCM,2022-10-24T19:15:00Z,36.3,-95.48,12.0,12.0,340,7,,3.0,29.731298,,,TRUE,TRUE,,,,,,+RA,OVC,800,,,,,,,IFR,,,,,,0.05,,,,,,SPECI,215.0
KGCD 241915Z AUTO 17011KT 10SM -RA OVC028 04/01 A3006 RMK AO2 T00430006,KGCD,2022-10-24T19:15:00Z,44.4,-118.97,4.3,0.6,170,11,,10.0,30.059055,,,TRUE,TRUE,,,,,,-RA,OVC,2800,,,,,,,MVFR,,,,,,,,,,,,SPECI,1122.0
KGBK 241915Z AUTO 14020G26KT 8SM FEW032 27/21 A2989 RMK A01,KGBK,2022-10-24T19:15:00Z,27.2,-92.2,27.0,21.0,140,20,26,8.0,29.890747,,,TRUE,TRUE,,,,,,,FEW,3200,,,,,,,VFR,,,,,,,,,,,,METAR,20.0
KGBG 241915Z AUTO 16010G16KT 10SM BKN035 BKN049 OVC080 22/16 A2975 RMK AO2 T02180155,KGBG,2022-10-24T19:15:00Z,40.93,-90.43,21.8,15.5,160,10,16,10.0,29.749016,,,TRUE,TRUE,,,,,,,BKN,3500,BKN,4900,OVC,8000,,,VFR,,,,,,,,,,,,SPECI,230.0
KFZG 241915Z AUTO 00000KT 10SM CLR 26/11 A3011 RMK AO2 T02580111,KFZG,2022-10-24T19:15:00Z,31.68,-83.27,25.8,11.1,0,0,,10.0,30.109253,,,TRUE,TRUE,,,,,,,CLR,,,,,,,,VFR,,,,,,,,,,,,SPECI,105.0
KFYJ 241915Z AUTO 00000KT 10SM OVC024 18/13 A3012 RMK AO1 T01840134,KFYJ,2022-10-24T19:15:00Z,37.52,-76.77,18.4,13.4,0,0,,10.0,30.121063,,,TRUE,TRUE,,,,,,,OVC,2400,,,,,,,MVFR,,,,,,,,,,,,SPECI,3.0
KFYG 241915Z AUTO 16021G26KT 10SM CLR 24/16 A2977 RMK AO2,KFYG,2022-10-24T19:15:00Z,38.58,-91.0,24.0,16.0,160,21,26,10.0,29.769686,,,TRUE,TRUE,,,,,,,CLR,,,,,,,,VFR,,,,,,,,,,,,SPECI,147.0
KFXY 241915Z AUTO 27010KT 10SM CLR 11/05 A2969 RMK AO2,KFXY,2022-10-24T19:15:00Z,43.23,-93.62,11.0,5.0,270,10,,10.0,29.68996,,,TRUE,TRUE,,,,,,,CLR,,,,,,,,VFR,,,,,,,,,,,,SPECI,366.0
KFWZ 241915Z AUTO 26012G16KT 10SM CLR M01/M06 A2988 RMK AO2,KFWZ,2022-10-24T19:15:00Z,42.52,-108.78,-1.0,-6.0,260,12,16,10.0,29.878937,,,TRUE,TRUE,,,,,,,CLR,,,,,,,,VFR,,,,,,,,,,,,SPECI,2605.0
KFWC 241915Z AUTO 17013G21KT CLR 26/09 A2990 RMK AO1 T02590092 PWINO,KFWC,2022-10-24T19:15:00Z,38.38,-88.42,25.9,9.2,170,13,21,,29.899607,,,TRUE,TRUE,,,,,TRUE,,CLR,,,,,,,,,,,,,,,,,,,,SPECI,131.0
KFSW 241915Z AUTO 17013G18KT 10SM BKN034 OVC042 22/16 A2970 RMK AO2,KFSW,2022-10-24T19:15:00Z,40.67,-91.32,22.0,16.0,170,13,18,10.0,29.698818,,,TRUE,TRUE,,,,,,,BKN,3400,OVC,4200,,,,,VFR,,,,,,,,,,,,SPECI,219.0
KFSK 241915Z AUTO 31009KT 5SM RA BR OVC007 12/11 A2973 RMK AO2 P0008 T01180113,KFSK,2022-10-24T19:15:00Z,37.8,-94.77,11.8,11.3,310,9,,5.0,29.731298,,,TRUE,TRUE,,,,,,RA BR,OVC,700,,,,,,,IFR,,,,,,0.08,,,,,,SPECI,276.0
KFQD 241915Z AUTO 00000KT 10SM CLR 23/04 A3014 RMK AO2,KFQD,2022-10-24T19:15:00Z,35.42,-81.93,23.0,4.0,0,0,,10.0,30.138779,,,TRUE,TRUE,,,,,,,CLR,,,,,,,,VFR,,,,,,,,,,,,SPECI,325.0
KFPY 241915Z AUTO 00000KT 10SM CLR 29/11 A3008 RMK AO2 T02880111 TSNO,KFPY,2022-10-24T19:15:00Z,30.07,-83.57,28.8,11.1,0,0,,10.0,30.079725,,,TRUE,TRUE,,,TRUE,,,,CLR,,,,,,,,VFR,,,,,,,,,,,,SPECI,12.0
KFOA 241915Z AUTO 17021G24KT 10SM SCT060 26/12 A2991 RMK AO2,KFOA,2022-10-24T19:15:00Z,38.67,-88.45,26.0,12.0,170,21,24,10.0,29.911417,,,TRUE,TRUE,,,,,,,SCT,6000,,,,,,,VFR,,,,,,,,,,,,SPECI,141.0
KFMM 241915Z AUTO 30017KT 10SM CLR 10/M08 A2986 RMK AO2,KFMM,2022-10-24T19:15:00Z,40.33,-103.8,10.0,-8.0,300,17,,10.0,29.861221,,,TRUE,TRUE,,,,,,,CLR,,,,,,,,VFR,,,,,,,,,,,,SPECI,1376.0
KFMH 241915Z 03005KT 8SM OVC002 16/16 A3020 RMK LTG DSNT N AND NW,KFMH,2022-10-24T19:15:00Z,41.65,-70.52,16.0,16.0,30,5,,8.0,30.200787,,,,,,,,,,,OVC,200,,,,,,,LIFR,,,,,,,,,,,,SPECI,35.0
KFKR 241915Z AUTO 17012G17KT 10SM CLR 24/10 A2994 RMK AO2,KFKR,2022-10-24T19:15:00Z,40.27,-86.57,24.0,10.0,170,12,17,10.0,29.940945,,,TRUE,TRUE,,,,,,,CLR,,,,,,,,VFR,,,,,,,,,,,,SPECI,260.0
KFHB 241915Z AUTO 03008KT 10SM CLR 23/15 A3011 RMK AO2,KFHB,2022-10-24T19:15:00Z,30.62,-81.47,23.0,15.0,30,8,,10.0,30.109253,,,TRUE,TRUE,,,,,,,CLR,,,,,,,,VFR,,,,,,,,,,,,SPECI,4.0
KFFL 241915Z AUTO 16015G21KT 10SM BKN032 BKN060 23/15 A2965 RMK A01,KFFL,2022-10-24T19:15:00Z,41.05,-91.97,23.0,15.0,160,15,21,10.0,29.648623,,,TRUE,TRUE,,,,,,,BKN,3200,BKN,6000,,,,,VFR,,,,,,,,,,,,SPECI,240.0
KFET 241915Z AUTO 33005KT 10SM BKN080 10/03 A2974 RMK AO2 T00960025,KFET,2022-10-24T19:15:00Z,41.45,-96.52,9.6,2.5,330,5,,10.0,29.740158,,,TRUE,TRUE,,,,,,,BKN,8000,,,,,,,VFR,,,,,,,,,,,,SPECI,366.0
KFEP 241915Z AUTO 18015G20KT 10SM SCT050 22/15 A2977 RMK AO2 T02180154,KFEP,2022-10-24T19:15:00Z,42.25,-89.58,21.8,15.4,180,15,20,10.0,29.769686,,,TRUE,TRUE,,,,,,,SCT,5000,,,,,,,VFR,,,,,,,,,,,,SPECI,255.0
KF00 241915Z AUTO 01008KT 4SM RA BR SCT007 SCT014 OVC040 16/15 A2975 RMK AO2 P0005 T01570151,KF00,2022-10-24T19:15:00Z,33.62,-96.18,15.7,15.1,10,8,,4.0,29.749016,,,TRUE,TRUE,,,,,,RA BR,SCT,700,SCT,1400,OVC,4000,,,MVFR,,,,,,0.05,,,,,,SPECI,189.0
KEZZ 241915Z AUTO 34009KT 5SM -RA BR OVC005 10/09 A2973 RMK AO2 P0003 T00980093,KEZZ,2022-10-24T19:15:00Z,39.72,-94.28,9.8,9.3,340,9,,5.0,29.731298,,,TRUE,TRUE,,,,,,-RA BR,OVC,500,,,,,,,IFR,,,,,,0.03,,,,,,SPECI,317.0
KETN 241915Z AUTO 12007KT 10SM OVC010 18/16 A2974 RMK AO2 T01850155,KETN,2022-10-24T19:15:00Z,32.42,-98.82,18.5,15.5,120,7,,10.0,29.740158,,,TRUE,TRUE,,,,,,,OVC,1000,,,,,,,MVFR,,,,,,,,,,,,SPECI,445.0
KETC 241915Z AUTO 36004KT 10SM CLR 23/14 A3009 RMK AO2 T02250141,KETC,2022-10-24T19:15:00Z,35.93,-77.55,22.5,14.1,360,4,,10.0,30.088583,,,TRUE,TRUE,,,,,,,CLR,,,,,,,,VFR,,,,,,,,,,,,SPECI,15.0
KERY 241915Z AUTO 17010G15KT 10SM CLR 17/11 A2984 RMK AO2 T01650110,KERY,2022-10-24T19:15:00Z,46.3,-85.45,16.5,11.0,170,10,15,10.0,29.840551,,,TRUE,TRUE,,,,,,,CLR,,,,,,,,VFR,,,,,,,,,,,,SPECI,261.0
KEQA 241915Z AUTO 35009KT 10SM -RA OVC007 11/10 A2974 RMK AO2,KEQA,2022-10-24T19:15:00Z,37.78,-96.82,11.0,10.0,350,9,,10.0,29.740158,,,TRUE,TRUE,,,,,,-RA,OVC,700,,,,,,,IFR,,,,,,,,,,,,SPECI,422.0
KEMM 241915Z AUTO 27021G31KT 10SM BKN025 BKN033 00/M06 A3007 RMK AO2,KEMM,2022-10-24T19:15:00Z,41.82,-110.55,0.0,-6.0,270,21,31,10.0,30.070866,,,TRUE,TRUE,,,,,,,BKN,2500,BKN,3300,,,,,MVFR,,,,,,,,,,,,SPECI,2219.0
KELA 241915Z AUTO 18019G26KT 10SM OVC034 28/20 A2977 RMK AO2 T02810197,KELA,2022-10-24T19:15:00Z,29.6,-96.32,28.1,19.7,180,19,26,10.0,29.769686,,,TRUE,TRUE,,,,,,,OVC,3400,,,,,,,VFR,,,,,,,,,,,,SPECI,56.0
KEHA 241915Z AUTO 03018G24KT 10SM SCT065 BKN120 11/M04 A2986 RMK AO2 T01081039,KEHA,2022-10-24T19:15:00Z,37.0,-101.87,10.8,-3.9,30,18,24,10.0,29.861221,,,TRUE,TRUE,,,,,,,SCT,6500,BKN,12000,,,,,VFR,,,,,,,,,,,,SPECI,1103.0
KEGT 241915Z AUTO 02010KT 10SM OVC009 10/09 A2976 RMK AO2 T01040090,KEGT,2022-10-24T19:15:00Z,37.32,-97.38,10.4,9.0,20,10,,10.0,29.760826,,,TRUE,TRUE,,,,,,,OVC,900,,,,,,,IFR,,,,,,,,,,,,SPECI,387.0
KECU 241915Z AUTO 15011KT 10SM CLR 26/19 A2980 RMK AO2,KECU,2022-10-24T19:15:00Z,29.95,-100.17,26.0,19.0,150,11,,10.0,29.799213,,,TRUE,TRUE,,,,,,,CLR,,,,,,,,VFR,,,,,,,,,,,,SPECI,725.0
KEBS 241915Z AUTO 28012G18KT 9SM -RA FEW065 FEW080 FEW095 11/06 A2972 RMK AO2,KEBS,2022-10-24T19:15:00Z,42.43,-93.87,11.0,6.0,280,12,18,9.0,29.719488,,,TRUE,TRUE,,,,,,-RA,FEW,6500,FEW,8000,FEW,9500,,,VFR,,,,,,,,,,,,SPECI,340.0
KEBG 241915Z AUTO 16012G21KT 10SM SCT041 33/23 A2973 RMK AO2 T03330230 PWINO,KEBG,2022-10-24T19:15:00Z,26.45,-98.13,33.3,23.0,160,12,21,10.0,29.731298,,,TRUE,TRUE,,,,,TRUE,,SCT,4100,,,,,,,VFR,,,,,,,,,,,,SPECI,21.0
KEBA 241915Z AUTO 11003KT 10SM CLR 24/07 A3013 RMK AO2 T02410066,KEBA,2022-10-24T19:15:00Z,34.1,-82.82,24.1,6.6,110,3,,10.0,30.129921,,,TRUE,TRUE,,,,,,,CLR,,,,,,,,VFR,,,,,,,,,,,,SPECI,180.0
KE42 241915Z AUTO 36014G19KT 10SM -RA BKN038 OVC048 08/03 A2983 RMK AO2 T00820032,KE42,2022-10-24T19:15:00Z,36.22,-101.2,8.2,3.2,360,14,19,10.0,29.828741,,,TRUE,TRUE,,,,,,-RA,BKN,3800,OVC,4800,,,,,VFR,,,,,,,,,,,,SPECI,942.0
KE41 241915Z AUTO 20012G16KT 10SM SCT047 25/13 A2976 RMK AO2 T02530132,KE41,2022-10-24T19:15:00Z,31.2,-101.47,25.3,13.2,200,12,16,10.0,29.760826,,,TRUE,TRUE,,,,,,,SCT,4700,,,,,,,VFR,,,,,,,,,,,,SPECI,825.0
KE38 241915Z AUTO 26024G29KT 10SM CLR 23/M02 A2992 RMK AO2 T02341022,KE38,2022-10-24T19:15:00Z,30.38,-103.68,23.4,-2.2,260,24,29,10.0,29.920275,,,TRUE,TRUE,,,,,,,CLR,,,,,,,,VFR,,,,,,,,,,,,SPECI,1372.0
KE16 241915Z AUTO 00000KT 10SM CLR 20/00 A3022 RMK AO2,KE16,2022-10-24T19:15:00Z,37.08,-121.6,20.0,0.0,0,0,,10.0,30.221457,,,TRUE,TRUE,,,,,,,CLR,,,,,,,,VFR,,,,,,,,,,,,SPECI,84.0
KE11 241915Z AUTO 30021G29KT 10SM BKN070 OVC080 16/07 A2983 RMK AO2 T01620069,KE11,2022-10-24T19:15:00Z,32.33,-102.53,16.2,6.9,300,21,29,10.0,29.828741,,,TRUE,TRUE,,,,,,,BKN,7000,OVC,8000,,,,,VFR,,,,,,,,,,,,SPECI,966.0
KDZJ 241915Z AUTO 02005KT 10SM CLR 24/06 A3013 RMK AO2 T02390058,KDZJ,2022-10-24T19:15:00Z,34.85,-84.0,23.9,5.8,20,5,,10.0,30.129921,,,TRUE,TRUE,,,,,,,CLR,,,,,,,,VFR,,,,,,,,,,,,SPECI,578.0
KDVO 241915Z AUTO VRB04KT 10SM CLR 22/02 A3021 RMK AO2,KDVO,2022-10-24T19:15:00Z,38.15,-122.55,22.0,2.0,0,4,,10.0,30.209646,,,TRUE,TRUE,,,,,,,CLR,,,,,,,,VFR,,,,,,,,,,,,SPECI,1.0
KDUX 241915Z AUTO 02012G18KT 10SM SCT005 SCT011 BKN023 05/03 A2982 RMK AO2 T00520034,KDUX,2022-10-24T19:15:00Z,35.85,-102.02,5.2,3.4,20,12,18,10.0,29.819881,,,TRUE,TRUE,,,,,,,SCT,500,SCT,1100,BKN,2300,,,MVFR,,,,,,,,,,,,SPECI,1129.0
KDUC 241915Z AUTO 02010KT 10SM OVC012 15/12 A2976 RMK AO2 T01500123,KDUC,2022-10-24T19:15:00Z,34.47,-97.97,15.0,12.3,20,10,,10.0,29.760826,,,TRUE,TRUE,,,,,,,OVC,1200,,,,,,,MVFR,,,,,,,,,,,,SPECI,339.0
KDSF 241915Z AUTO 08018KT 26/21 RMK A01,KDSF,2022-10-24T19:15:00Z,28.35,-88.27,26.0,21.0,80,18,,,,,,TRUE,TRUE,,,,,,,,,,,,,,,,,,,,,,,,,,,SPECI,40.0
KDQH 241915Z AUTO 00000KT 10SM CLR 26/09 A3012 RMK AO2 T02600085,KDQH,2022-10-24T19:15:00Z,31.48,-82.87,26.0,8.5,0,0,,10.0,30.121063,,,TRUE,TRUE,,,,,,,CLR,,,,,,,,VFR,,,,,,,,,,,,SPECI,76.0
KDPL 241915Z AUTO 35004KT 10SM CLR 24/14 A3009 RMK AO2,KDPL,2022-10-24T19:15:00Z,35.0,-77.97,24.0,14.0,350,4,,10.0,30.088583,,,TRUE,TRUE,,,,,,,CLR,,,,,,,,VFR,,,,,,,,,,,,SPECI,39.0
KDNV 241915Z AUTO 17011G20KT 10SM CLR 24/12 A2992 RMK AO2 T02370122,KDNV,2022-10-24T19:15:00Z,40.2,-87.6,23.7,12.2,170,11,20,10.0,29.920275,,,TRUE,TRUE,,,,,,,CLR,,,,,,,,VFR,,,,,,,,,,,,SPECI,208.0
KDLO 241915Z AUTO 00000KT 10SM CLR 18/M02 A3023 RMK AO2 T01761017,KDLO,2022-10-24T19:15:00Z,35.75,-119.23,17.6,-1.7,0,0,,10.0,30.230314,,,TRUE,TRUE,,,,,,,CLR,,,,,,,,VFR,,,,,,,,,,,,METAR,97.0
KDKR 241915Z AUTO 16014G20KT 4SM -RA HZ SCT023 BKN028 OVC042 24/22 A2977 RMK AO2,KDKR,2022-10-24T19:15:00Z,31.3,-95.4,24.0,22.0,160,14,20,4.0,29.769686,,,TRUE,TRUE,,,,,,-RA HZ,SCT,2300,BKN,2800,OVC,4200,,,MVFR,,,,,,,,,,,,SPECI,105.0
KDKB 241915Z AUTO 17017G21KT 10SM CLR 23/15 A2981 RMK AO2 T02260145,KDKB,2022-10-24T19:15:00Z,41.93,-88.7,22.6,14.5,170,17,21,10.0,29.811024,,,TRUE,TRUE,,,,,,,CLR,,,,,,,,VFR,,,,,,,,,,,,SPECI,277.0
KDED 241915Z AUTO 36008KT 10SM SCT050 26/18 A3008 RMK AO2 T02640177,KDED,2022-10-24T19:15:00Z,29.07,-81.28,26.4,17.7,360,8,,10.0,30.079725,,,TRUE,TRUE,,,,,,,SCT,5000,,,,,,,VFR,,,,,,,,,,,,SPECI,21.0
KDCY 241915Z AUTO 17014KT 10SM CLR 25/10 A2995 RMK AO2 T02480095,KDCY,2022-10-24T19:15:00Z,38.7,-87.13,24.8,9.5,170,14,,10.0,29.949802,,,TRUE,TRUE,,,,,,,CLR,,,,,,,,VFR,,,,,,,,,,,,SPECI,143.0
KDBN 241915Z AUTO 11004KT 10SM CLR 26/08 A3014 RMK AO2,KDBN,2022-10-24T19:15:00Z,32.57,-82.98,26.0,8.0,110,4,,10.0,30.138779,,,TRUE,TRUE,,,,,,,CLR,,,,,,,,VFR,,,,,,,,,,,,SPECI,90.0
KD73 241915Z AUTO 36006KT 10SM CLR 24/09 A3013 RMK AO2 T02410089,KD73,2022-10-24T19:15:00Z,33.78,-83.7,24.1,8.9,360,6,,10.0,30.129921,,,TRUE,TRUE,,,,,,,CLR,,,,,,,,VFR,,,,,,,,,,,,SPECI,254.0
KD39 241915Z AUTO 22017G22KT 10SM SCT026 SCT032 08/02 A2960 RMK AO2 T00800024,KD39,2022-10-24T19:15:00Z,45.7,-94.93,8.0,2.4,220,17,22,10.0,29.601377,,,TRUE,TRUE,,,,,,,SCT,2600,SCT,3200,,,,,VFR,,,,,,,,,,,,SPECI,378.0
KCZT 241915Z AUTO 18006KT 10SM CLR 33/19 A2968 RMK AO2,KCZT,2022-10-24T19:15:00Z,28.52,-99.82,33.0,19.0,180,6,,10.0,29.681103,,,TRUE,TRUE,,,,,,,CLR,,,,,,,,VFR,,,,,,,,,,,,SPECI,176.0
KCWV 241915Z AUTO 01003KT 10SM CLR 26/09 A3011 RMK AO2 T02600089,KCWV,2022-10-24T19:15:00Z,32.2,-81.87,26.0,8.9,10,3,,10.0,30.109253,,,TRUE,TRUE,,,,,,,CLR,,,,,,,,VFR,,,,,,,,,,,,SPECI,32.0
KCWN 241915Z AUTO 15006KT 10SM SCT028 BKN042 02/M05 A2929 RMK AO2 SLP826 $,KCWN,2022-10-24T19:15:00Z,38.75,-104.85,2.0,-5.0,150,6,,10.0,29.291338,982.6,,TRUE,TRUE,TRUE,,,,,,SCT,2800,BKN,4200,,,,,VFR,,,,,,,,,,,,SPECI,2040.0
KCUH 241915Z AUTO 31009KT 10SM OVC009 13/13 A2973 RMK AO2 T01260125,KCUH,2022-10-24T19:15:00Z,35.95,-96.77,12.6,12.5,310,9,,10.0,29.731298,,,TRUE,TRUE,,,,,,,OVC,900,,,,,,,IFR,,,,,,,,,,,,SPECI,274.0
KCTY 241915Z AUTO 07006KT 10SM CLR 29/12 A3008 RMK AO2 T02920124,KCTY,2022-10-24T19:15:00Z,29.63,-83.1,29.2,12.4,70,6,,10.0,30.079725,,,TRUE,TRUE,,,,,,,CLR,,,,,,,,VFR,,,,,,,,,,,,SPECI,12.0
KCTJ 241915Z AUTO 21003KT 10SM CLR 23/09 A3015 RMK AO2 T02300085,KCTJ,2022-10-24T19:15:00Z,33.63,-85.15,23.0,8.5,210,3,,10.0,30.15059,,,TRUE,TRUE,,,,,,,CLR,,,,,,,,VFR,,,,,,,,,,,,SPECI,351.0
KCQF 241915Z AUTO 09008KT 10SM SCT042 SCT048 BKN065 25/17 A3004 RMK AO2,KCQF,2022-10-24T19:15:00Z,30.47,-87.88,25.0,17.0,90,8,,10.0,30.041338,,,TRUE,TRUE,,,,,,,SCT,4200,SCT,4800,BKN,6500,,,VFR,,,,,,,,,,,,SPECI,21.0
KCQB 241915Z AUTO 31008KT 10SM OVC007 13/12 A2975 RMK AO2 T01290120,KCQB,2022-10-24T19:15:00Z,35.72,-96.82,12.9,12.0,310,8,,10.0,29.749016,,,TRUE,TRUE,,,,,,,OVC,700,,,,,,,IFR,,,,,,,,,,,,SPECI,298.0
KCPW 241915Z AUTO 30006KT 10SM CLR M09/M17 A3002 RMK AO2,KCPW,2022-10-24T19:15:00Z,37.45,-106.8,-9.0,-17.0,300,6,,10.0,30.02067,,,TRUE,TRUE,,,,,,,CLR,,,,,,,,VFR,,,,,,,,,,,,SPECI,3570.0
KCPU 241915Z AUTO 00000KT 10SM CLR 20/M06 A3022 RMK AO2 T01951062,KCPU,2022-10-24T19:15:00Z,38.15,-120.65,19.5,-6.2,0,0,,10.0,30.221457,,,TRUE,TRUE,,,,,,,CLR,,,,,,,,VFR,,,,,,,,,,,,METAR,400.0
KCPC 241915Z AUTO 33004KT 7SM CLR 24/13 A3011 RMK AO2 T02380132,KCPC,2022-10-24T19:15:00Z,34.28,-78.72,23.8,13.2,330,4,,7.0,30.109253,,,TRUE,TRUE,,,,,,,CLR,,,,,,,,VFR,,,,,,,,,,,,SPECI,27.0
KCOM 241915Z AUTO 15006KT SCT070 SCT080 SCT110 22/15 A2975 RMK AO2 T02160150 PWINO,KCOM,2022-10-24T19:15:00Z,31.83,-99.4,21.6,15.0,150,6,,,29.749016,,,TRUE,TRUE,,,,,TRUE,,SCT,7000,SCT,8000,SCT,11000,,,,,,,,,,,,,,,SPECI,516.0
KCNI 241915Z AUTO 17003KT 10SM CLR 24/07 A3013 RMK AO2 T02440075,KCNI,2022-10-24T19:15:00Z,34.32,-84.42,24.4,7.5,170,3,,10.0,30.129921,,,TRUE,TRUE,,,,,,,CLR,,,,,,,,VFR,,,,,,,,,,,,SPECI,371.0
KCNC 241915Z AUTO 34015KT 4SM RA FEW008 BKN021 OVC032 10/10 A2968 RMK AO2,KCNC,2022-10-24T19:15:00Z,41.02,-93.37,10.0,10.0,340,15,,4.0,29.681103,,,TRUE,TRUE,,,,,,RA,FEW,800,BKN,2100,OVC,3200,,,MVFR,,,,,,,,,,,,SPECI,319.0
KCMD 241915Z AUTO 18011KT 10SM CLR 25/05 A3008 RMK AO2,KCMD,2022-10-24T19:15:00Z,34.27,-86.85,25.0,5.0,180,11,,10.0,30.079725,,,TRUE,TRUE,,,,,,,CLR,,,,,,,,VFR,,,,,,,,,,,,SPECI,294.0
KCKP 241915Z AUTO 23003KT 10SM -RA SCT043 BKN050 OVC060 07/03 A2973 RMK AO2 T00700032,KCKP,2022-10-24T19:15:00Z,42.73,-95.55,7.0,3.2,230,3,,10.0,29.731298,,,TRUE,TRUE,,,,,,-RA,SCT,4300,BKN,5000,OVC,6000,,,VFR,,,,,,,,,,,,SPECI,369.0
KCKN 241915Z AUTO 22022G34KT 10SM CLR 08/02 A2938 RMK AO2,KCKN,2022-10-24T19:15:00Z,47.85,-96.62,8.0,2.0,220,22,34,10.0,29.379921,,,TRUE,TRUE,,,,,,,CLR,,,,,,,,VFR,,,,,,,,,,,,SPECI,272.0
KCKF 241915Z AUTO 19003KT 10SM CLR 27/10 A3010 RMK AO2 T02660095,KCKF,2022-10-24T19:15:00Z,31.98,-83.77,26.6,9.5,190,3,,10.0,30.100393,,,TRUE,TRUE,,,,,,,CLR,,,,,,,,VFR,,,,,,,,,,,,SPECI,92.0
KCKC 241915Z AUTO 17008G16KT 10SM SCT027 SCT031 BKN037 16/14 A2952 RMK AO2,KCKC,2022-10-24T19:15:00Z,47.83,-90.38,16.0,14.0,170,8,16,10.0,29.518702,,,TRUE,TRUE,,,,,,,SCT,2700,SCT,3100,BKN,3700,,,VFR,,,,,,,,,,,,SPECI,544.0
KCIN 241915Z AUTO 31009KT 7SM -RA CLR 08/08 A2972 RMK AO2,KCIN,2022-10-24T19:15:00Z,42.03,-94.78,8.0,8.0,310,9,,7.0,29.719488,,,TRUE,TRUE,,,,,,-RA,CLR,,,,,,,,VFR,,,,,,,,,,,,SPECI,365.0
KCGS 241915Z AUTO 01005KT 10SM OVC017 17/14 A3013 RMK AO2 T01670137,KCGS,2022-10-24T19:15:00Z,38.98,-76.92,16.7,13.7,10,5,,10.0,30.129921,,,TRUE,TRUE,,,,,,,OVC,1700,,,,,,,MVFR,,,,,,,,,,,,SPECI,15.0
KCGE 241915Z AUTO 32006KT 9SM OVC006 15/15 A3011 RMK A01,KCGE,2022-10-24T19:15:00Z,38.53,-76.03,15.0,15.0,320,6,,9.0,30.109253,,,TRUE,TRUE,,,,,,,OVC,600,,,,,,,IFR,,,,,,,,,,,,SPECI,5.0
KCFS 241915Z AUTO 18013G18KT 10SM CLR 25/06 A2999 RMK AO2 T02500055,KCFS,2022-10-24T19:15:00Z,43.47,-83.45,25.0,5.5,180,13,18,10.0,29.991142,,,TRUE,TRUE,,,,,,,CLR,,,,,,,,VFR,,,,,,,,,,,,SPECI,214.0
KCFD 241915Z AUTO 16014G20KT 10SM OVC034 27/19 A2977 RMK AO2 T02690190,KCFD,2022-10-24T19:15:00Z,30.72,-96.33,26.9,19.0,160,14,20,10.0,29.769686,,,TRUE,TRUE,,,,,,,OVC,3400,,,,,,,VFR,,,,,,,,,,,,SPECI,106.0
KCCU 241915Z AUTO 30008KT 1SM -SN BKN004 OVC012 M09/M12 A2996 RMK AO2,KCCU,2022-10-24T19:15:00Z,39.48,-106.15,-9.0,-12.0,300,8,,1.0,29.958662,,,TRUE,TRUE,,,,,,-SN,BKN,400,OVC,1200,,,,,LIFR,,,,,,,,,,,,SPECI,3672.0
KCCO 241915Z AUTO 00000KT 10SM CLR 25/09 A3012 RMK AO2 T02450093,KCCO,2022-10-24T19:15:00Z,33.32,-84.77,24.5,9.3,0,0,,10.0,30.121063,,,TRUE,TRUE,,,,,,,CLR,,,,,,,,VFR,,,,,,,,,,,,SPECI,290.0
KCBK 241915Z AUTO 34020G30KT 10SM CLR 13/M05 A2983 RMK AO2 T01251052,KCBK,2022-10-24T19:15:00Z,39.43,-101.05,12.5,-5.2,340,20,30,10.0,29.828741,,,TRUE,TRUE,,,,,,,CLR,,,,,,,,VFR,,,,,,,,,,,,METAR,970.0
KCBF 241915Z AUTO 33004KT 4SM BR CLR 08/07 A2971 RMK AO2,KCBF,2022-10-24T19:15:00Z,41.27,-95.77,8.0,7.0,330,4,,4.0,29.71063,,,TRUE,TRUE,,,,,,BR,CLR,,,,,,,,MVFR,,,,,,,,,,,,SPECI,379.0
KCBE 241915Z AUTO 30003KT 10SM CLR 23/11 A3013 RMK AO2 T02340114,KCBE,2022-10-24T19:15:00Z,39.62,-78.77,23.4,11.4,300,3,,10.0,30.129921,,,TRUE,TRUE,,,,,,,CLR,,,,,,,,VFR,,,,,,,,,,,,SPECI,226.0
KCAV 241915Z AUTO 29012KT 10SM FEW095 11/05 A2972 RMK A01,KCAV,2022-10-24T19:15:00Z,42.75,-93.77,11.0,5.0,290,12,,10.0,29.719488,,,TRUE,TRUE,,,,,,,FEW,9500,,,,,,,VFR,,,,,,,,,,,,SPECI,352.0
KC75 241915Z AUTO 18014G20KT 10SM SCT065 24/16 A2978 RMK AO2 T02400155,KC75,2022-10-24T19:15:00Z,41.02,-89.38,24.0,15.5,180,14,20,10.0,29.778543,,,TRUE,TRUE,,,,,,,SCT,6500,,,,,,,VFR,,,,,,,,,,,,SPECI,166.0
KC65 241915Z AUTO 15008KT 10SM CLR 22/10 A2994 RMK A01,KC65,2022-10-24T19:15:00Z,41.37,-86.3,22.0,10.0,150,8,,10.0,29.940945,,,TRUE,TRUE,,,,,,,CLR,,,,,,,,VFR,,,,,,,,,,,,SPECI,241.0
KC35 241915Z AUTO 17010G17KT 10SM SCT034 BKN055 BKN070 21/14 A2971 RMK AO2 T02090142 PWINO,KC35,2022-10-24T19:15:00Z,43.53,-89.98,20.9,14.2,170,10,17,10.0,29.71063,,,TRUE,TRUE,,,,,TRUE,,SCT,3400,BKN,5500,BKN,7000,,,VFR,,,,,,,,,,,,SPECI,272.0
KBYY 241915Z AUTO 18019G27KT 10SM BKN035 OVC044 27/20 A2981 RMK AO2 T02760198,KBYY,2022-10-24T19:15:00Z,28.97,-95.87,27.6,19.8,180,19,27,10.0,29.811024,,,TRUE,TRUE,,,,,,,BKN,3500,OVC,4400,,,,,VFR,,,,,,,,,,,,SPECI,12.0
KBYL 241915Z AUTO 16008KT 10SM CLR 24/03 A3009 RMK AO1,KBYL,2022-10-24T19:15:00Z,36.8,-84.2,24.0,3.0,160,8,,10.0,30.088583,,,TRUE,TRUE,,,,,,,CLR,,,,,,,,VFR,,,,,,,,,,,,SPECI,355.0
KBVS 241915Z AUTO VRB03KT 10SM BKN016 OVC022 11/10 A2994 RMK A01,KBVS,2022-10-24T19:15:00Z,48.47,-122.42,11.0,10.0,0,3,,10.0,29.940945,,,TRUE,TRUE,,,,,,,BKN,1600,OVC,2200,,,,,MVFR,,,,,,,,,,,,SPECI,31.0
KBVN 241915Z AUTO 30007KT 10SM CLR 09/00 A2975 RMK AO2 T00941004,KBVN,2022-10-24T19:15:00Z,41.73,-98.05,9.4,-0.4,300,7,,10.0,29.749016,,,TRUE,TRUE,,,,,,,CLR,,,,,,,,VFR,,,,,,,,,,,,SPECI,547.0
KBUU 241915Z AUTO 17006KT 10SM CLR 21/13 A2980 RMK AO2 T02110127 PWINO,KBUU,2022-10-24T19:15:00Z,42.68,-88.3,21.1,12.7,170,6,,10.0,29.799213,,,TRUE,TRUE,,,,,TRUE,,CLR,,,,,,,,VFR,,,,,,,,,,,,SPECI,238.0
KBQX 241915Z AUTO 17023KT 7SM BKN049 27/21 A2981 RMK A01,KBQX,2022-10-24T19:15:00Z,28.5,-95.72,27.0,21.0,170,23,,7.0,29.811024,,,TRUE,TRUE,,,,,,,BKN,4900,,,,,,,VFR,,,,,,,,,,,,SPECI,34.0
KBQK 241915Z AUTO 09006KT 10SM CLR 24/11 A3011 RMK AO2 T02420109,KBQK,2022-10-24T19:15:00Z,31.25,-81.47,24.2,10.9,90,6,,10.0,30.109253,,,TRUE,TRUE,,,,,,,CLR,,,,,,,,VFR,,,,,,,,,,,,METAR,7.0
KBPG 241915Z AUTO 23018G23KT 7SM SCT075 SCT085 25/07 A2973 RMK AO2 T02500071,KBPG,2022-10-24T19:15:00Z,32.22,-101.52,25.0,7.1,230,18,23,7.0,29.731298,,,TRUE,TRUE,,,,,,,SCT,7500,SCT,8500,,,,,VFR,,,,,,,,,,,,SPECI,782.0
KBMT 241915Z AUTO 17015G24KT 10SM SCT039 SCT065 BKN085 30/19 A2984 RMK AO2 T02960186,KBMT,2022-10-24T19:15:00Z,30.07,-94.22,29.6,18.6,170,15,24,10.0,29.840551,,,TRUE,TRUE,,,,,,,SCT,3900,SCT,6500,BKN,8500,,,VFR,,,,,,,,,,,,SPECI,8.0
KBJI 241915Z AUTO 20015G24KT 10SM OVC023 08/03 A2944 RMK AO2 T00800025,KBJI,2022-10-24T19:15:00Z,47.5,-94.92,8.0,2.5,200,15,24,10.0,29.438976,,,TRUE,TRUE,,,,,,,OVC,2300,,,,,,,MVFR,,,,,,,,,,,,SPECI,422.0
KBIJ 241915Z AUTO 00000KT 10SM CLR 27/09 A3008 RMK AO2,KBIJ,2022-10-24T19:15:00Z,31.4,-84.9,27.0,9.0,0,0,,10.0,30.079725,,,TRUE,TRUE,,,,,,,CLR,,,,,,,,VFR,,,,,,,,,,,,SPECI,63.0
KBIE 241915Z AUTO 35005KT 10SM -RA SCT016 SCT037 OVC090 09/07 A2973 RMK AO2 P0001 T00900069,KBIE,2022-10-24T19:15:00Z,40.28,-96.75,9.0,6.9,350,5,,10.0,29.731298,,,TRUE,TRUE,,,,,,-RA,SCT,1600,SCT,3700,OVC,9000,,,VFR,,,,,,0.01,,,,,,SPECI,398.0
KBHC 241915Z AUTO 06004KT 10SM CLR A3010 RMK AO2,KBHC,2022-10-24T19:15:00Z,31.72,-82.4,,,60,4,,10.0,30.100393,,,TRUE,TRUE,,,,,,,CLR,,,,,,,,VFR,,,,,,,,,,,,SPECI,61.0
KBHB 241915Z AUTO 00000KT 1 1/2SM -RA BR OVC003 14/14 A3028 RMK AO2 PNO $,KBHB,2022-10-24T19:15:00Z,44.45,-68.37,14.0,14.0,0,0,,1.5,30.280512,,,TRUE,TRUE,TRUE,,,,,-RA BR,OVC,300,,,,,,,LIFR,,,,,,,,,,,,SPECI,21.0
KBGE 241915Z AUTO 15005KT 10SM SCT055 28/14 A3008 RMK AO2 T02790136,KBGE,2022-10-24T19:15:00Z,30.97,-84.63,27.9,13.6,150,5,,10.0,30.079725,,,TRUE,TRUE,,,,,,,SCT,5500,,,,,,,VFR,,,,,,,,,,,,SPECI,40.0
KBEC 241915Z AUTO 36013KT 10SM OVC010 10/08 A2975 RMK AO2 T00960081,KBEC,2022-10-24T19:15:00Z,37.7,-97.22,9.6,8.1,360,13,,10.0,29.749016,,,TRUE,TRUE,,,,,,,OVC,1000,,,,,,,MVFR,,,,,,,,,,,,SPECI,421.0
KBDG 241915Z AUTO 30011G19KT 10SM 06/M07 A3020 RMK AO1 T00571073,KBDG,2022-10-24T19:15:00Z,37.58,-109.47,5.7,-7.3,300,11,19,10.0,30.200787,,,TRUE,TRUE,,,,,,,,,,,,,,,,,,,,,,,,,,,SPECI,1778.0
KBCK 241915Z AUTO 20006KT 10SM -DZ OVC032 20/15 A2967 RMK AO2 T01990145,KBCK,2022-10-24T19:15:00Z,44.25,-90.85,19.9,14.5,200,6,,10.0,29.66929,,,TRUE,TRUE,,,,,,-DZ,OVC,3200,,,,,,,VFR,,,,,,,,,,,,SPECI,256.0
KBBP 241915Z AUTO 00000KT 10SM CLR 22/14 A3011 RMK AO2,KBBP,2022-10-24T19:15:00Z,34.62,-79.73,22.0,14.0,0,0,,10.0,30.109253,,,TRUE,TRUE,,,,,,,CLR,,,,,,,,VFR,,,,,,,,,,,,SPECI,44.0
KBBD 241915Z AUTO 07005KT 10SM SCT024 SCT029 22/14 A2974 RMK AO2,KBBD,2022-10-24T19:15:00Z,31.18,-99.32,22.0,14.0,70,5,,10.0,29.740158,,,TRUE,TRUE,,,,,,,SCT,2400,SCT,2900,,,,,VFR,,,,,,,,,,,,SPECI,554.0
KBBB 241915Z AUTO 27018G23KT 10SM CLR 08/01 A2962 RMK AO2,KBBB,2022-10-24T19:15:00Z,45.32,-95.65,8.0,1.0,270,18,23,10.0,29.619095,,,TRUE,TRUE,,,,,,,CLR,,,,,,,,VFR,,,,,,,,,,,,METAR,315.0
KBAX 241915Z AUTO 17010G21KT 10SM CLR 23/08 A3000 RMK AO2 T02340078,KBAX,2022-10-24T19:15:00Z,43.78,-82.98,23.4,7.8,170,10,21,10.0,30.0,,,TRUE,TRUE,,,,,,,CLR,,,,,,,,VFR,,,,,,,,,,,,SPECI,229.0
KAZE 241915Z AUTO 07003KT 10SM CLR 25/10 A3010 RMK AO2 T02520095,KAZE,2022-10-24T19:15:00Z,31.88,-82.65,25.2,9.5,70,3,,10.0,30.100393,,,TRUE,TRUE,,,,,,,CLR,,,,,,,,VFR,,,,,,,,,,,,SPECI,78.0
KAYS 241915Z AUTO 34003KT 10SM CLR 26/10 A3011 RMK AO2 T02590096,KAYS,2022-10-24T19:15:00Z,31.25,-82.4,25.9,9.6,340,3,,10.0,30.109253,,,TRUE,TRUE,,,,,,,CLR,,,,,,,,VFR,,,,,,,,,,,,SPECI,42.0
KAXX 241915Z AUTO 25008KT 10SM BKN022 BKN030 OVC046 00/M04 A2988 RMK AO2 T10041042,KAXX,2022-10-24T19:15:00Z,36.42,-105.28,-0.4,-4.2,250,8,,10.0,29.878937,,,TRUE,TRUE,,,,,,,BKN,2200,BKN,3000,OVC,4600,,,MVFR,,,,,,,,,,,,SPECI,2543.0
KAXA 241915Z AUTO 26011KT 4SM BR CLR 08/08 A2971 RMK A01,KAXA,2022-10-24T19:15:00Z,43.07,-94.27,8.0,8.0,260,11,,4.0,29.71063,,,TRUE,TRUE,,,,,,BR,CLR,,,,,,,,MVFR,,,,,,,,,,,,SPECI,371.0
KAWG 241915Z AUTO 18017KT 10SM FEW033 24/18 A2964 RMK AO2,KAWG,2022-10-24T19:15:00Z,41.27,-91.67,24.0,18.0,180,17,,10.0,29.639763,,,TRUE,TRUE,,,,,,,FEW,3300,,,,,,,VFR,,,,,,,,,,,,SPECI,229.0
KAUN 241915Z AUTO 23005KT 10SM CLR 20/M08 A3021 RMK A01,KAUN,2022-10-24T19:15:00Z,38.95,-121.08,20.0,-8.0,230,5,,10.0,30.209646,,,TRUE,TRUE,,,,,,,CLR,,,,,,,,VFR,,,,,,,,,,,,SPECI,453.0
KAUH 241915Z AUTO 30009G15KT 10SM CLR 10/M02 A2977 RMK AO2 T00991022,KAUH,2022-10-24T19:15:00Z,40.88,-98.0,9.9,-2.2,300,9,15,10.0,29.769686,,,TRUE,TRUE,,,,,,,CLR,,,,,,,,VFR,,,,,,,,,,,,SPECI,549.0
KATP 241915Z AUTO 14013KT 10SM SCT038 BKN047 BKN070 26/23 A2996 RMK A01,KATP,2022-10-24T19:15:00Z,27.2,-90.03,26.0,23.0,140,13,,10.0,29.958662,,,TRUE,TRUE,,,,,,,SCT,3800,BKN,4700,BKN,7000,,,VFR,,,,,,,,,,,,METAR,50.0
KASW 241915Z AUTO 20004KT 10SM CLR 22/10 A2997 RMK AO2 T02220099,KASW,2022-10-24T19:15:00Z,41.27,-85.83,22.2,9.9,200,4,,10.0,29.970472,,,TRUE,TRUE,,,,,,,CLR,,,,,,,,VFR,,,,,,,,,,,,SPECI,253.0
KASL 241915Z AUTO 00000KT 10SM OVC090 26/18 A2976 RMK AO2 T02630185 TSNO $,KASL,2022-10-24T19:15:00Z,32.52,-94.3,26.3,18.5,0,0,,10.0,29.760826,,,TRUE,TRUE,TRUE,,TRUE,,,,OVC,9000,,,,,,,VFR,,,,,,,,,,,,SPECI,104.0
KAQO 241915Z AUTO 00000KT 10SM CLR 24/17 A2973 RMK AO2,KAQO,2022-10-24T19:15:00Z,30.78,-98.67,24.0,17.0,0,0,,10.0,29.731298,,,TRUE,TRUE,,,,,,,CLR,,,,,,,,VFR,,,,,,,,,,,,SPECI,334.0
KAJZ 241915Z AUTO 28012G17KT 10SM SCT050 SCT060 OVC075 07/M03 A3011 RMK AO2 T00661032,KAJZ,2022-10-24T19:15:00Z,38.78,-108.07,6.6,-3.2,280,12,17,10.0,30.109253,,,TRUE,TRUE,,,,,,,SCT,5000,SCT,6000,OVC,7500,,,VFR,,,,,,,,,,,,SPECI,1583.0
KAJR 241915Z AUTO 20004KT 7SM CLR 24/07 A3013 RMK AO2 T02360065,KAJR,2022-10-24T19:15:00Z,34.5,-83.55,23.6,6.5,200,4,,7.0,30.129921,,,TRUE,TRUE,,,,,,,CLR,,,,,,,,VFR,,,,,,,,,,,,SPECI,441.0
KAJG 241915Z AUTO 17016G22KT 10SM CLR 26/10 A2993 RMK AO2 T02600100,KAJG,2022-10-24T19:15:00Z,38.62,-87.73,26.0,10.0,170,16,22,10.0,29.929134,,,TRUE,TRUE,,,,,,,CLR,,,,,,,,VFR,,,,,,,,,,,,SPECI,130.0
KAIO 241915Z AUTO 33008KT 3SM RA CLR 08/08 A2972 RMK AO2,KAIO,2022-10-24T19:15:00Z,41.4,-95.03,8.0,8.0,330,8,,3.0,29.719488,,,TRUE,TRUE,,,,,,RA,CLR,,,,,,,,MVFR,,,,,,,,,,,,SPECI,349.0
KAHQ 241915Z AUTO 00000KT 10SM -DZ CLR 09/03 A2976 RMK AO2 T00910034,KAHQ,2022-10-24T19:15:00Z,41.23,-96.6,9.1,3.4,0,0,,10.0,29.760826,,,TRUE,TRUE,,,,,,-DZ,CLR,,,,,,,,VFR,,,,,,,,,,,,SPECI,372.0
KAFO 241915Z AUTO 03009KT 10SM OVC033 00/M07 A3013 RMK AO2,KAFO,2022-10-24T19:15:00Z,42.72,-110.95,0.0,-7.0,30,9,,10.0,30.129921,,,TRUE,TRUE,,,,,,,OVC,3300,,,,,,,VFR,,,,,,,,,,,,SPECI,1881.0
KAFK 241915Z AUTO 02006KT 7SM -RA SCT070 OVC080 08/07 A2972 RMK AO2 P0001 T00770065,KAFK,2022-10-24T19:15:00Z,40.6,-95.85,7.7,6.5,20,6,,7.0,29.719488,,,TRUE,TRUE,,,,,,-RA,SCT,7000,OVC,8000,,,,,VFR,,,,,,0.01,,,,,,SPECI,353.0
KAEL 241915Z AUTO 27005KT 10SM -RA SCT100 10/07 A2966 RMK AO2,KAEL,2022-10-24T19:15:00Z,43.68,-93.37,10.0,7.0,270,5,,10.0,29.660433,,,TRUE,TRUE,,,,,,-RA,SCT,10000,,,,,,,VFR,,,,,,,,,,,,METAR,382.0
KADU 241915Z AUTO 34003KT 10SM -RA BKN009 BKN018 OVC032 08/06 A2974 RMK AO2 P0001,KADU,2022-10-24T19:15:00Z,41.7,-94.92,8.0,6.0,340,3,,10.0,29.740158,,,TRUE,TRUE,,,,,,-RA,BKN,900,BKN,1800,OVC,3200,,,IFR,,,,,,0.01,,,,,,SPECI,391.0
KADT 241915Z AUTO 32021G30KT 10SM CLR 14/M05 A2987 RMK AO2 T01351055,KADT,2022-10-24T19:15:00Z,39.83,-101.05,13.5,-5.5,320,21,30,10.0,29.870079,,,TRUE,TRUE,,,,,,,CLR,,,,,,,,VFR,,,,,,,,,,,,SPECI,899.0
KADH 241915Z AUTO 04008KT 10SM -RA BKN007 BKN013 OVC031 13/13 A2969 RMK AO2 P0001,KADH,2022-10-24T19:15:00Z,34.8,-96.67,13.0,13.0,40,8,,10.0,29.68996,,,TRUE,TRUE,,,,,,-RA,BKN,700,BKN,1300,OVC,3100,,,IFR,,,,,,0.01,,,,,,SPECI,301.0
KAAA 241915Z AUTO 18021G26KT 10SM CLR 24/15 A2982 RMK AO2 T02380148,KAAA,2022-10-24T19:15:00Z,40.17,-89.33,23.8,14.8,180,21,26,10.0,29.819881,,,TRUE,TRUE,,,,,,,CLR,,,,,,,,VFR,,,,,,,,,,,,SPECI,179.0
K9V9 241915Z AUTO 27022G27KT 10SM OVC045 08/M03 A2972 RMK AO2 T00791034,K9V9,2022-10-24T19:15:00Z,43.77,-99.32,7.9,-3.4,270,22,27,10.0,29.719488,,,TRUE,TRUE,,,,,,,OVC,4500,,,,,,,VFR,,,,,,,,,,,,SPECI,511.0
K9MN 241915Z AUTO 25006KT 10SM OVC028 12/07 A2969 RMK AO1 T01210070,K9MN,2022-10-24T19:15:00Z,44.02,-92.48,12.1,7.0,250,6,,10.0,29.68996,,,TRUE,TRUE,,,,,,,OVC,2800,,,,,,,MVFR,,,,,,,,,,,,SPECI,308.0
K9D7 241915Z AUTO 30016KT 2 1/2SM BR SCT009 SCT016 03/03 A2936 RMK AO2 TSNO,K9D7,2022-10-24T19:15:00Z,48.48,-99.23,3.0,3.0,300,16,,2.5,29.359253,,,TRUE,TRUE,,,TRUE,,,BR,SCT,900,SCT,1600,,,,,IFR,,,,,,,,,,,,METAR,451.0
K9A5 241915Z AUTO 24008KT 10SM CLR 24/07 A3010 RMK AO2 T02380070,K9A5,2022-10-24T19:15:00Z,34.68,-85.28,23.8,7.0,240,8,,10.0,30.100393,,,TRUE,TRUE,,,,,,,CLR,,,,,,,,VFR,,,,,,,,,,,,SPECI,234.0
K8T6 241915Z AUTO 15010G16KT 130V190 10SM FEW043 33/22 A2970 RMK AO2,K8T6,2022-10-24T19:15:00Z,28.37,-98.12,33.0,22.0,150,10,16,10.0,29.698818,,,TRUE,TRUE,,,,,,,FEW,4300,,,,,,,VFR,,,,,,,,,,,,METAR,39.0
K8A0 241915Z AUTO 21006KT 10SM CLR 24/06 A3008 RMK AO2,K8A0,2022-10-24T19:15:00Z,34.23,-86.25,24.0,6.0,210,6,,10.0,30.079725,,,TRUE,TRUE,,,,,,,CLR,,,,,,,,VFR,,,,,,,,,,,,SPECI,313.0
K81R 241915Z AUTO 10006KT 10SM OVC024 21/16 A2976 RMK AO2 T02110161,K81R,2022-10-24T19:15:00Z,31.23,-98.72,21.1,16.1,100,6,,10.0,29.760826,,,TRUE,TRUE,,,,,,,OVC,2400,,,,,,,MVFR,,,,,,,,,,,,SPECI,381.0
K7BM 241915Z AUTO 25013G20KT 10SM SCT050 M02/M13 A2994 RMK AO2,K7BM,2022-10-24T19:15:00Z,38.78,-106.22,-2.0,-13.0,250,13,20,10.0,29.940945,,,TRUE,TRUE,,,,,,,SCT,5000,,,,,,,VFR,,,,,,,,,,,,SPECI,2996.0
K74V 241915Z AUTO 26010G18KT 10SM 09/M08 A3009 RMK AO2,K74V,2022-10-24T19:15:00Z,40.28,-110.05,9.0,-8.0,260,10,18,10.0,30.088583,,,TRUE,TRUE,,,,,,,,,,,,,,,,,,,,,,,,,,,SPECI,1567.0
K6P9 241915Z AUTO 00000KT 10SM OVC010 18/16 A2975 RMK AO2 T01840159,K6P9,2022-10-24T19:15:00Z,32.43,-98.6,18.4,15.9,0,0,,10.0,29.749016,,,TRUE,TRUE,,,,,,,OVC,1000,,,,,,,MVFR,,,,,,,,,,,,SPECI,451.0
K6I2 241915Z AUTO 12008KT 090V150 10SM CLR 25/02 A3005 RMK AO2,K6I2,2022-10-24T19:15:00Z,37.63,-85.25,25.0,2.0,120,8,,10.0,30.050198,,,TRUE,TRUE,,,,,,,CLR,,,,,,,,VFR,,,,,,,,,,,,SPECI,258.0
K6A1 241915Z AUTO 19003KT 10SM CLR 26/07 A3012 RMK AO2 T02590068,K6A1,2022-10-24T19:15:00Z,32.57,-84.25,25.9,6.8,190,3,,10.0,30.121063,,,TRUE,TRUE,,,,,,,CLR,,,,,,,,VFR,,,,,,,,,,,,SPECI,198.0
K66R 241915Z AUTO 17011G18KT 5SM HZ OVC032 27/20 A2978 RMK AO2 T02700197,K66R,2022-10-24T19:15:00Z,29.65,-96.52,27.0,19.7,170,11,18,5.0,29.778543,,,TRUE,TRUE,,,,,,HZ,OVC,3200,,,,,,,MVFR,,,,,,,,,,,,SPECI,70.0
K5SM 241915Z AUTO 1 3/4SM BR OVC003 A3008 RMK AO2 VIS 1/2V5,K5SM,2022-10-24T19:15:00Z,39.43,-107.38,,,,,,1.75,30.079725,,,TRUE,TRUE,,,,,,BR,OVC,300,,,,,,,LIFR,,,,,,,,,,,,SPECI,3229.0
K5R8 241915Z AUTO 16012G19KT 10SM SCT045 OVC060 28/18 A2988 RMK AO2 T02750177,K5R8,2022-10-24T19:15:00Z,30.43,-93.47,27.5,17.7,160,12,19,10.0,29.878937,,,TRUE,TRUE,,,,,,,SCT,4500,OVC,6000,,,,,VFR,,,,,,,,,,,,SPECI,26.0
K5M9 241915Z AUTO 18008G14KT 140V200 10SM CLR 24/07 A2996 RMK AO2 T02440065,K5M9,2022-10-24T19:15:00Z,37.33,-88.12,24.4,6.5,180,8,14,10.0,29.958662,,,TRUE,TRUE,,,,,,,CLR,,,,,,,,VFR,,,,,,,,,,,,SPECI,199.0
K5C1 241915Z AUTO 19008G14KT 10SM SCT027 SCT041 BKN110 27/19 A2975 RMK AO1,K5C1,2022-10-24T19:15:00Z,29.72,-98.7,27.0,19.0,190,8,14,10.0,29.749016,,,TRUE,TRUE,,,,,,,SCT,2700,SCT,4100,BKN,11000,,,VFR,,,,,,,,,,,,SPECI,422.0
K57C 241915Z AUTO 17007KT 10SM CLR 21/12 A2980 RMK AO2 T02050117,K57C,2022-10-24T19:15:00Z,42.8,-88.37,20.5,11.7,170,7,,10.0,29.799213,,,TRUE,TRUE,,,,,,,CLR,,,,,,,,VFR,,,,,,,,,,,,SPECI,454.0
K4O4 241915Z AUTO 16014G22KT 1/2SM +RA HZ SCT006 BKN026 OVC033 21/19 A2973 RMK AO2,K4O4,2022-10-24T19:15:00Z,33.92,-94.87,21.0,19.0,160,14,22,0.5,29.731298,,,TRUE,TRUE,,,,,,+RA HZ,SCT,600,BKN,2600,OVC,3300,,,LIFR,,,,,,,,,,,,METAR,148.0
K4F2 241915Z AUTO 18018G26KT 10SM SCT037 BKN048 OVC070 27/19 A2980 RMK AO2 T02660185,K4F2,2022-10-24T19:15:00Z,32.18,-94.3,26.6,18.5,180,18,26,10.0,29.799213,,,TRUE,TRUE,,,,,,,SCT,3700,BKN,4800,OVC,7000,,,VFR,,,,,,,,,,,,METAR,76.0
K4BM 241915Z AUTO 29004KT 10SM CLR M05/M17 A2993 RMK AO2,K4BM,2022-10-24T19:15:00Z,39.05,-105.52,-5.0,-17.0,290,4,,10.0,29.929134,,,TRUE,TRUE,,,,,,,CLR,,,,,,,,VFR,,,,,,,,,,,,SPECI,3432.0
K4A9 241915Z AUTO 20007G14KT 10SM CLR 24/07 A3008 RMK AO2 T02420072,K4A9,2022-10-24T19:15:00Z,34.47,-85.72,24.2,7.2,200,7,14,10.0,30.079725,,,TRUE,TRUE,,,,,,,CLR,,,,,,,,VFR,,,,,,,,,,,,SPECI,273.0
K49A 241915Z AUTO 18004KT 10SM CLR 24/05 A3014 RMK AO2 T02400051,K49A,2022-10-24T19:15:00Z,34.63,-84.53,24.0,5.1,180,4,,10.0,30.138779,,,TRUE,TRUE,,,,,,,CLR,,,,,,,,VFR,,,,,,,,,,,,SPECI,449.0
K48A 241915Z AUTO 01003KT 10SM CLR 26/11 A3011 RMK AO2 T02570109,K48A,2022-10-24T19:15:00Z,32.4,-83.27,25.7,10.9,10,3,,10.0,30.109253,,,TRUE,TRUE,,,,,,,CLR,,,,,,,,VFR,,,,,,,,,,,,SPECI,115.0
K40U 241915Z AUTO 31014G21KT 10SM CLR 06/M08 A3008 RMK AO2 T00631083,K40U,2022-10-24T19:15:00Z,40.98,-109.68,6.3,-8.3,310,14,21,10.0,30.079725,,,TRUE,TRUE,,,,,,,CLR,,,,,,,,VFR,,,,,,,,,,,,SPECI,1882.0
K3K3 241915Z AUTO 02017G25KT 10SM SCT120 11/M05 A2985 RMK AO2,K3K3,2022-10-24T19:15:00Z,38.0,-101.75,11.0,-5.0,20,17,25,10.0,29.84941,,,TRUE,TRUE,,,,,,,SCT,12000,,,,,,,VFR,,,,,,,,,,,,SPECI,1010.0
K3F3 241915Z AUTO 16012G24KT 10SM SCT043 OVC055 27/17 A2987 RMK AO2 T02700170,K3F3,2022-10-24T19:15:00Z,32.07,-93.77,27.0,17.0,160,12,24,10.0,29.870079,,,TRUE,TRUE,,,,,,,SCT,4300,OVC,5500,,,,,VFR,,,,,,,,,,,,SPECI,96.0
K3D2 241915Z AUTO 17012G18KT 10SM CLR 14/10 A2978 RMK AO2 T01400097,K3D2,2022-10-24T19:15:00Z,45.13,-87.18,14.0,9.7,170,12,18,10.0,29.778543,,,TRUE,TRUE,,,,,,,CLR,,,,,,,,VFR,,,,,,,,,,,,SPECI,233.0
K33V 241915Z AUTO 24013G19KT 10SM SCT024 BKN031 OVC043 M02/M07 A2999 RMK AO1,K33V,2022-10-24T19:15:00Z,40.75,-106.28,-2.0,-7.0,240,13,19,10.0,29.991142,,,TRUE,TRUE,,,,,,,SCT,2400,BKN,3100,OVC,4300,,,VFR,,,,,,,,,,,,SPECI,2486.0
K2V5 241915Z AUTO 32021G27KT 10SM CLR 12/M07 A2986 RMK AO2,K2V5,2022-10-24T19:15:00Z,40.1,-102.25,12.0,-7.0,320,21,27,10.0,29.861221,,,TRUE,TRUE,,,,,,,CLR,,,,,,,,VFR,,,,,,,,,,,,SPECI,1117.0
K2R9 241915Z AUTO 16013G19KT 10SM SCT035 BKN042 31/21 A2973 RMK AO2,K2R9,2022-10-24T19:15:00Z,28.82,-97.87,31.0,21.0,160,13,19,10.0,29.731298,,,TRUE,TRUE,,,,,,,SCT,3500,BKN,4200,,,,,VFR,,,,,,,,,,,,SPECI,88.0
K2J5 241915Z AUTO 02005KT 10SM CLR 25/08 A3012 RMK AO2 T02520075,K2J5,2022-10-24T19:15:00Z,32.9,-81.97,25.2,7.5,20,5,,10.0,30.121063,,,TRUE,TRUE,,,,,,,CLR,,,,,,,,VFR,,,,,,,,,,,,SPECI,72.0
K2J3 241915Z AUTO 00000KT 10SM CLR 25/09 A3012 RMK AO2 T02490090,K2J3,2022-10-24T19:15:00Z,32.98,-82.38,24.9,9.0,0,0,,10.0,30.121063,,,TRUE,TRUE,,,,,,,CLR,,,,,,,,VFR,,,,,,,,,,,,SPECI,97.0
K2G9 241915Z AUTO 00000KT 10SM CLR 19/10 A3014 RMK AO2,K2G9,2022-10-24T19:15:00Z,40.03,-79.02,19.0,10.0,0,0,,10.0,30.138779,,,TRUE,TRUE,,,,,,,CLR,,,,,,,,VFR,,,,,,,,,,,,SPECI,677.0
K20V 241915Z AUTO 31006KT 10SM SCT028 SCT038 OVC050 00/M08 A3004 RMK AO2,K20V,2022-10-24T19:15:00Z,40.05,-106.37,0.0,-8.0,310,6,,10.0,30.041338,,,TRUE,TRUE,,,,,,,SCT,2800,SCT,3800,OVC,5000,,,VFR,,,,,,,,,,,,SPECI,2259.0
K1R8 241915Z AUTO 14005G11KT 10SM SCT036 BKN041 BKN047 26/17 A3004 RMK AO2,K1R8,2022-10-24T19:15:00Z,30.87,-87.82,26.0,17.0,140,5,11,10.0,30.041338,,,TRUE,TRUE,,,,,,,SCT,3600,BKN,4100,BKN,4700,,,VFR,,,,,,,,,,,,SPECI,76.0
K1H2 241915Z AUTO 14014G22KT 10SM SCT055 26/13 A2990 RMK AO2 T02560128,K1H2,2022-10-24T19:15:00Z,39.07,-88.53,25.6,12.8,140,14,22,10.0,29.899607,,,TRUE,TRUE,,,,,,,SCT,5500,,,,,,,VFR,,,,,,,,,,,,SPECI,174.0
K1F0 241915Z AUTO 14004KT 10SM OVC006 15/14 A2975 RMK AO2 T01460137,K1F0,2022-10-24T19:15:00Z,34.15,-97.12,14.6,13.7,140,4,,10.0,29.749016,,,TRUE,TRUE,,,,,,,OVC,600,,,,,,,IFR,,,,,,,,,,,,SPECI,256.0
K1A6 241915Z AUTO 18006KT 10SM CLR 24/04 A3011 RMK AO2 T02380037,K1A6,2022-10-24T19:15:00Z,36.62,-83.73,23.8,3.7,180,6,,10.0,30.109253,,,TRUE,TRUE,,,,,,,CLR,,,,,,,,VFR,,,,,,,,,,,,SPECI,348.0
K19S 241915Z AUTO 02023G26KT 10SM CLR 12/M02 A2982 RMK AO2 T01221024,K19S,2022-10-24T19:15:00Z,37.48,-100.83,12.2,-2.4,20,23,26,10.0,29.819881,,,TRUE,TRUE,,,,,,,CLR,,,,,,,,VFR,,,,,,,,,,,,SPECI,886.0
K18H 241915Z AUTO 16014G20KT 7SM CLR 28/21 A2989 RMK A01,K18H,2022-10-24T19:15:00Z,26.13,-92.03,28.0,21.0,160,14,20,7.0,29.890747,,,TRUE,TRUE,,,,,,,CLR,,,,,,,,VFR,,,,,,,,,,,,METAR,30.0
K18A 241915Z AUTO 16004KT 10SM CLR 24/08 A3013 RMK AO2 T02440078,K18A,2022-10-24T19:15:00Z,34.35,-83.13,24.4,7.8,160,4,,10.0,30.129921,,,TRUE,TRUE,,,,,,,CLR,,,,,,,,VFR,,,,,,,,,,,,SPECI,260.0
K17J 241915Z AUTO 23009KT 10SM SCT055 28/12 A3008 RMK AO2 T02770121,K17J,2022-10-24T19:15:00Z,31.0,-84.87,27.7,12.1,230,9,,10.0,30.079725,,,TRUE,TRUE,,,,,,,SCT,5500,,,,,,,VFR,,,,,,,,,,,,SPECI,42.0
K13K 241915Z AUTO 01010KT 10SM -RA BKN006 BKN019 OVC090 10/10 A2972 RMK AO2 T01040101,K13K,2022-10-24T19:15:00Z,37.85,-96.3,10.4,10.1,10,10,,10.0,29.719488,,,TRUE,TRUE,,,,,,-RA,BKN,600,BKN,1900,OVC,9000,,,IFR,,,,,,,,,,,,SPECI,367.0
K11R 241915Z AUTO 18013G21KT 10SM OVC035 28/20 A2977 RMK AO2 T02770199 PNO,K11R,2022-10-24T19:15:00Z,30.22,-96.37,27.7,19.9,180,13,21,10.0,29.769686,,,TRUE,TRUE,,,,,,,OVC,3500,,,,,,,VFR,,,,,,,,,,,,SPECI,87.0
K0R4 241915Z AUTO 18012KT 10SM SCT075 29/16 A2992 RMK AO2 T02920161,K0R4,2022-10-24T19:15:00Z,31.57,-91.5,29.2,16.1,180,12,,10.0,29.920275,,,TRUE,TRUE,,,,,,,SCT,7500,,,,,,,VFR,,,,,,,,,,,,SPECI,16.0
K0CO 241915Z AUTO 35019G26KT 321V021 M1/4SM +SN OVC001 M13/M15 A2990 RMK AO2,K0CO,2022-10-24T19:15:00Z,39.8,-105.77,-13.0,-15.0,350,19,26,0.25,29.899607,,,TRUE,TRUE,,,,,,+SN,OVC,100,,,,,,,LIFR,,,,,,,,,,,,SPECI,3804.0
K06C 241915Z AUTO 17011G16KT 10SM CLR 22/16 A2983 RMK AO2 T02220158,K06C,2022-10-24T19:15:00Z,41.98,-88.1,22.2,15.8,170,11,16,10.0,29.828741,,,TRUE,TRUE,,,,,,,CLR,,,,,,,,VFR,,,,,,,,,,,,SPECI,243.0
K04V 241915Z AUTO 30016G22KT 10SM CLR 03/M13 A2997 RMK AO2,K04V,2022-10-24T19:15:00Z,38.1,-106.17,3.0,-13.0,300,16,22,10.0,29.970472,,,TRUE,TRUE,,,,,,,CLR,,,,,,,,VFR,,,,,,,,,,,,SPECI,2389.0
CWPF 241915Z AUTO 23014KT 12/08 RMK AO1 PK WND 24019/1900 SLP131 T01230079 53011,CWPF,2022-10-24T19:15:00Z,48.43,-123.43,12.3,7.9,230,14,,,,1013.1,,TRUE,TRUE,,,,,,,,,,,,,,,,1.1,,,,,,,,,,,METAR,5.0
CWFD 241915Z AUTO ///// ////SM FEW005 SCT011 BKN065 M09/M09 A2964,CWFD,2022-10-24T19:15:00Z,66.58,-61.58,-9.0,-9.0,,,,,29.639763,,,TRUE,,,,,,,,FEW,500,SCT,1100,BKN,6500,,,,,,,,,,,,,,,SPECI,375.0
PASD 241914Z 28010KT 10SM FEW019 SCT035 OVC047 07/03 A3023 RMK AO2 PNO $,PASD,2022-10-24T19:14:00Z,55.33,-160.52,7.0,3.0,280,10,,10.0,30.230314,,,,TRUE,TRUE,,,,,,FEW,1900,SCT,3500,OVC,4700,,,VFR,,,,,,,,,,,,METAR,6.0
PAPN 241914Z AUTO 30021G27KT 8SM BKN026 06/01 A3009 RMK AO2 PK WND 30028/1903 PNO $,PAPN,2022-10-24T19:14:00Z,57.58,-157.57,6.0,1.0,300,21,27,8.0,30.088583,,,TRUE,TRUE,TRUE,,,,,,BKN,2600,,,,,,,MVFR,,,,,,,,,,,,SPECI,19.0
PAIK 241914Z AUTO 11006KT 2SM -SN BR FEW004 OVC019 M02/M03 A2990 RMK AO2 P0000 FZRANO,PAIK,2022-10-24T19:14:00Z,66.98,-160.43,-2.0,-3.0,110,6,,2.0,29.899607,,,TRUE,TRUE,,,,TRUE,,-SN BR,FEW,400,OVC,1900,,,,,IFR,,,,,,0.005,,,,,,METAR,49.0
KTOP 241914Z 34008KT 9SM -RA BKN011 BKN026 OVC080 11/09 A2975 RMK AO2 P0002 T01110089,KTOP,2022-10-24T19:14:00Z,39.07,-95.63,11.1,8.9,340,8,,9.0,29.749016,,,,TRUE,,,,,,-RA,BKN,1100,BKN,2600,OVC,8000,,,MVFR,,,,,,0.02,,,,,,SPECI,268.0
KSLG 241914Z AUTO 18014KT 6SM RA BR OVC013 19/19 A2970 RMK AO2 P0005,KSLG,2022-10-24T19:14:00Z,36.2,-94.48,19.0,19.0,180,14,,6.0,29.698818,,,TRUE,TRUE,,,,,,RA BR,OVC,1300,,,,,,,MVFR,,,,,,0.05,,,,,,METAR,361.0
KMYR 241914Z 35006KT 10SM SCT018 19/15 A3012 RMK AO2,KMYR,2022-10-24T19:14:00Z,33.68,-78.92,19.0,15.0,350,6,,10.0,30.121063,,,,TRUE,,,,,,,SCT,1800,,,,,,,VFR,,,,,,,,,,,,METAR,7.0
KMHK 241914Z 34003KT 10SM -RA BKN015 BKN085 OVC110 10/07 A2979 RMK AO2 PRESRR P0001 T01000072,KMHK,2022-10-24T19:14:00Z,39.13,-96.68,10.0,7.2,340,3,,10.0,29.790354,,,,TRUE,,,,,,-RA,BKN,1500,BKN,8500,OVC,11000,,,MVFR,,,,,,0.01,,,,,,SPECI,320.0
KLWC 241914Z AUTO 36010KT 5SM RA BR SCT008 OVC065 11/09 A2975 RMK AO1 P0003 T01110094,KLWC,2022-10-24T19:14:00Z,39.02,-95.22,11.1,9.4,360,10,,5.0,29.749016,,,TRUE,TRUE,,,,,,RA BR,SCT,800,OVC,6500,,,,,MVFR,,,,,,0.03,,,,,,SPECI,252.0
KEVW 241914Z AUTO 25016G26KT 10SM SCT026 00/M06 A3012 RMK AO2 PK WND 25026/1907 T00001056,KEVW,2022-10-24T19:14:00Z,41.27,-111.03,0.0,-5.6,250,16,26,10.0,30.121063,,,TRUE,TRUE,,,,,,,SCT,2600,,,,,,,VFR,,,,,,,,,,,,SPECI,2178.0
KCFV 241914Z AUTO 01009G18KT 4SM BR FEW007 BKN075 OVC095 12/11 A2969 RMK AO2 PRESFR T01220111 PWINO $,KCFV,2022-10-24T19:14:00Z,37.08,-95.57,12.2,11.1,10,9,18,4.0,29.68996,,,TRUE,TRUE,TRUE,,,,TRUE,BR,FEW,700,BKN,7500,OVC,9500,,,MVFR,,,,,,,,,,,,SPECI,228.0
CYKD 241914Z VRB02KT 15SM VCFG BKN003 BKN070 M15/M17 A3007 RMK ST5AC1 VIS SE 2 SLP185,CYKD,2022-10-24T19:14:00Z,68.22,-135.0,-15.0,-17.0,0,2,,15.0,30.070866,1018.5,,,,,,,,,VCFG,BKN,300,BKN,7000,,,,,LIFR,,,,,,,,,,,,SPECI,7.0
CYCB 241914Z 01006KT 14SM -SN FEW008 BKN025 BKN220 M19/M21 A2995 RMK SF2SC3CI1 SLP149,CYCB,2022-10-24T19:14:00Z,69.1,-105.12,-19.0,-21.0,10,6,,14.0,29.949802,1014.9,,,,,,,,,-SN,FEW,800,BKN,2500,BKN,22000,,,MVFR,,,,,,,,,,,,SPECI,19.0
PAOT 241913Z 29012KT 1 1/2SM -SN BR BKN007 OVC010 M01/M01 A2984 RMK AO2 P0000 T10111011,PAOT,2022-10-24T19:13:00Z,66.88,-162.6,-1.1,-1.1,290,12,,1.5,29.840551,,,,TRUE,,,,,,-SN BR,BKN,700,OVC,1000,,,,,IFR,,,,,,0.005,,,,,,SPECI,3.0
KTKI 241913Z 01004KT 3SM -RA BR FEW009 BKN044 OVC055 17/17 A2976 RMK AO2 P0007 T01720167,KTKI,2022-10-24T19:13:00Z,33.18,-96.58,17.2,16.7,10,4,,3.0,29.760826,,,,TRUE,,,,,,-RA BR,FEW,900,BKN,4400,OVC,5500,,,MVFR,,,,,,0.07,,,,,,METAR,173.0
KLKV 241913Z AUTO 19010KT 10SM BKN027 OVC037 07/M04 A3023 RMK AO2,KLKV,2022-10-24T19:13:00Z,42.17,-120.4,7.0,-4.0,190,10,,10.0,30.230314,,,TRUE,TRUE,,,,,,,BKN,2700,OVC,3700,,,,,MVFR,,,,,,,,,,,,METAR,1440.0
KCYD 241913Z AUTO 11010KT 10SM OVC050 26/22 A3001 RMK A02 T02570218,KCYD,2022-10-24T19:13:00Z,28.17,-89.22,25.7,21.8,110,10,,10.0,30.008858,,,TRUE,TRUE,,,,,,,OVC,5000,,,,,,,VFR,,,,,,,,,,,,METAR,30.0
KCDD 241913Z AUTO 18008G20KT 160V220 10SM CLR 18/05 A2939 RMK AO2,KCDD,2022-10-24T19:13:00Z,48.27,-92.48,18.0,5.0,180,8,20,10.0,29.388779,,,TRUE,TRUE,,,,,,,CLR,,,,,,,,VFR,,,,,,,,,,,,SPECI,344.0
KABE 241913Z 04007KT 5SM BR OVC010 15/13 A3014 RMK AO2 RAE1858 CIG 005V013 P0001 T01500133,KABE,2022-10-24T19:13:00Z,40.65,-75.45,15.0,13.3,40,7,,5.0,30.138779,,,,TRUE,,,,,,BR,OVC,1000,,,,,,,MVFR,,,,,,0.01,,,,,,SPECI,117.0
MMMY 241912Z 10006KT 10SM SCT200 32/19 A2973 RMK 8/008,MMMY,2022-10-24T19:12:00Z,25.77,-100.1,32.0,19.0,100,6,,10.0,29.731298,,,,,,,,,,,SCT,20000,,,,,,,VFR,,,,,,,,,,,,SPECI,382.0
KPSM 241912Z 33006KT 4SM BR BKN005 OVC011 15/15 A3022 RMK AO2A LTG DSNT NE RAE12 SLP236,KPSM,2022-10-24T19:12:00Z,43.08,-70.82,15.0,15.0,330,6,,4.0,30.221457,1023.6,,,TRUE,,,,,,BR,BKN,500,OVC,1100,,,,,IFR,,,,,,,,,,,,SPECI,34.0
KMFR 241912Z 00000KT 2SM R14/4000VP6000FT -RA BR BKN006 OVC028 07/06 A3025 RMK AO2 P0002 T00720061,KMFR,2022-10-24T19:12:00Z,42.38,-122.87,7.2,6.1,0,0,,2.0,30.250984,,,,TRUE,,,,,,-RA BR,BKN,600,OVC,2800,,,,,IFR,,,,,,0.02,,,,,,METAR,397.0
KFTK 241912Z AUTO 17011G15KT 10SM FEW200 27/05 A2999 RMK AO2 PRESFR SLP153,KFTK,2022-10-24T19:12:00Z,37.9,-85.97,27.0,5.0,170,11,15,10.0,29.991142,1015.3,,TRUE,TRUE,,,,,,,FEW,20000,,,,,,,VFR,,,,,,,,,,,,SPECI,225.0
CYXX 241912Z CCA 35007KT 250V010 15SM FEW003 SCT008TCU BKN015 BKN022 BKN030 08/07 A2990 RMK SF1TCU3CU2CU1SC1 SF TR CIG LWR N-E VIS LWR N-NE SLP130,CYXX,2022-10-24T19:12:00Z,49.03,-122.38,8.0,7.0,350,7,,15.0,29.899607,1013.0,,,,,,,,,,FEW,300,SCT,800,BKN,1500,BKN,2200,MVFR,,,,,,,,,,,,SPECI,54.0
CYHE 241912Z AUTO 00000KT 5SM -RA BR OVC012 07/06 A2991 RMK SLP132,CYHE,2022-10-24T19:12:00Z,49.37,-121.5,7.0,6.0,0,0,,5.0,29.911417,1013.2,,TRUE,,,,,,,-RA BR,OVC,1200,,,,,,,MVFR,,,,,,,,,,,,SPECI,43.0
KRTN 241911Z AUTO 03009KT 3/4SM -SN BR SCT005 BKN012 OVC016 01/00 A2988 RMK AO2 P0001 T00060000,KRTN,2022-10-24T19:11:00Z,36.73,-104.5,0.6,0.0,30,9,,0.75,29.878937,,,TRUE,TRUE,,,,,,-SN BR,SCT,500,BKN,1200,OVC,1600,,,LIFR,,,,,,0.01,,,,,,SPECI,1939.0
KMIB 241911Z 33027G33KT 5SM -SN OVC015 01/M02 A2945 RMK CIG 012 RWY12 SLP992,KMIB,2022-10-24T19:11:00Z,48.42,-101.35,1.0,-2.0,330,27,33,5.0,29.450787,999.2,,,,,,,,,-SN,OVC,1500,,,,,,,MVFR,,,,,,,,,,,,SPECI,505.0
KC99 241911Z AUTO 31022G33KT 7SM BKN008 BKN016 M08/M13 A2988 RMK AO2,KC99,2022-10-24T19:11:00Z,39.87,-105.55,-8.0,-13.0,310,22,33,7.0,29.878937,,,TRUE,TRUE,,,,,,,BKN,800,BKN,1600,,,,,IFR,,,,,,,,,,,,SPECI,3334.0
KBNO 241911Z AUTO 00000KT 10SM OVC031 05/M02 A3012 RMK AO2 T00501022,KBNO,2022-10-24T19:11:00Z,43.6,-118.95,5.0,-2.2,0,0,,10.0,30.121063,,,TRUE,TRUE,,,,,,,OVC,3100,,,,,,,VFR,,,,,,,,,,,,SPECI,1263.0
CYMM 241911Z AUTO 12013G18KT 9SM BKN010 OVC055 00/M02 A2971 RMK SLP084,CYMM,2022-10-24T19:11:00Z,56.65,-111.22,0.0,-2.0,120,13,18,9.0,29.71063,1008.4,,TRUE,,,,,,,,BKN,1000,OVC,5500,,,,,MVFR,,,,,,,,,,,,SPECI,371.0
VCBI 241910Z 24005KT 210V280 9999 SCT016 27/25 Q1011 RESHRA NOSIG,VCBI,2022-10-24T19:10:00Z,7.17,79.88,27.0,25.0,240,5,,6.21,29.852362,,,,,,TRUE,,,,,SCT,1600,,,,,,,VFR,,,,,,,,,,,,METAR,10.0
KTXW 241910Z AUTO 16017G22KT 1SM HZ OVC036 31/23 A2974 RMK AO2 VIS 1/4V5 T03140227,KTXW,2022-10-24T19:10:00Z,26.18,-97.97,31.4,22.7,160,17,22,1.0,29.740158,,,TRUE,TRUE,,,,,,HZ,OVC,3600,,,,,,,IFR,,,,,,,,,,,,SPECI,21.0
KTNB 241910Z AUTO 16005KT 10SM CLR 21/05 A3018 RMK AO2 T02120051,KTNB,2022-10-24T19:10:00Z,36.2,-81.65,21.2,5.1,160,5,,10.0,30.180119,,,TRUE,TRUE,,,,,,,CLR,,,,,,,,VFR,,,,,,,,,,,,METAR,958.0
KSLR 241910Z AUTO 28011G21KT 3SM +RA BKN009 BKN017 OVC034 20/19 A2976 RMK AO2 P0010 T02000186,KSLR,2022-10-24T19:10:00Z,33.17,-95.62,20.0,18.6,280,11,21,3.0,29.760826,,,TRUE,TRUE,,,,,,+RA,BKN,900,BKN,1700,OVC,3400,,,IFR,,,,,,0.1,,,,,,SPECI,144.0
KPVW 241910Z AUTO 28012G18KT 10SM SCT018 BKN110 13/09 A2973 RMK AO2 T01340094,KPVW,2022-10-24T19:10:00Z,34.17,-101.72,13.4,9.4,280,12,18,10.0,29.731298,,,TRUE,TRUE,,,,,,,SCT,1800,BKN,11000,,,,,VFR,,,,,,,,,,,,SPECI,1029.0
KPBX 241910Z AUTO 18005KT 10SM CLR 23/04 A3012 RMK AO2 T02290037,KPBX,2022-10-24T19:10:00Z,37.57,-82.57,22.9,3.7,180,5,,10.0,30.121063,,,TRUE,TRUE,,,,,,,CLR,,,,,,,,VFR,,,,,,,,,,,,SPECI,447.0
KOSA 241910Z AUTO 15015G26KT 10SM BKN030 BKN041 OVC065 24/19 A2973 RMK AO2 T02440189,KOSA,2022-10-24T19:10:00Z,33.1,-94.97,24.4,18.9,150,15,26,10.0,29.731298,,,TRUE,TRUE,,,,,,,BKN,3000,BKN,4100,OVC,6500,,,MVFR,,,,,,,,,,,,SPECI,108.0
KMYZ 241910Z AUTO 00000KT 10SM -RA BKN008 BKN034 OVC100 08/07 A2972 RMK AO2,KMYZ,2022-10-24T19:10:00Z,39.85,-96.63,8.0,7.0,0,0,,10.0,29.719488,,,TRUE,TRUE,,,,,,-RA,BKN,800,BKN,3400,OVC,10000,,,IFR,,,,,,,,,,,,SPECI,388.0
KMPZ 241910Z AUTO 17012G20KT 10SM OVC033 23/18 A2969 RMK AO2,KMPZ,2022-10-24T19:10:00Z,40.95,-91.52,23.0,18.0,170,12,20,10.0,29.68996,,,TRUE,TRUE,,,,,,,OVC,3300,,,,,,,VFR,,,,,,,,,,,,SPECI,222.0
KLFI 241910Z AUTO 36004KT 10SM OVC016 17/16 A3010 RMK AO2 CIG 015 RWY08 SLP199 $,KLFI,2022-10-24T19:10:00Z,37.08,-76.33,17.0,16.0,360,4,,10.0,30.100393,1019.9,,TRUE,TRUE,TRUE,,,,,,OVC,1600,,,,,,,MVFR,,,,,,,,,,,,SPECI,2.0
KIAB 241910Z AUTO 36012KT 10SM OVC008 10/08 A2972 RMK AO2 SLP061,KIAB,2022-10-24T19:10:00Z,37.62,-97.27,10.0,8.0,360,12,,10.0,29.719488,1006.1,,TRUE,TRUE,,,,,,,OVC,800,,,,,,,IFR,,,,,,,,,,,,SPECI,413.0
KHVN 241910Z 35005KT 10SM SCT005 BKN012 BKN110 16/15 A3016 RMK AO2 T01560150,KHVN,2022-10-24T19:10:00Z,41.27,-72.88,15.6,15.0,350,5,,10.0,30.159449,,,,TRUE,,,,,,,SCT,500,BKN,1200,BKN,11000,,,MVFR,,,,,,,,,,,,METAR,4.0
KHPN 241910Z 06006KT 1 1/2SM BR VV003 16/14 A3015 RMK AO2 T01560144 $,KHPN,2022-10-24T19:10:00Z,41.07,-73.7,15.6,14.4,60,6,,1.5,30.15059,,,,TRUE,TRUE,,,,,BR,OVX,0,,,,,,,LIFR,,,,,,,,,,,300,SPECI,113.0
KHBV 241910Z AUTO 17010G14KT 10SM CLR 33/20 A2973 RMK AO2 T03310202,KHBV,2022-10-24T19:10:00Z,27.35,-98.73,33.1,20.2,170,10,14,10.0,29.731298,,,TRUE,TRUE,,,,,,,CLR,,,,,,,,VFR,,,,,,,,,,,,SPECI,200.0
KGVW 241910Z AUTO 13012G18KT 7SM OVC075 26/21 A2986 RMK A01,KGVW,2022-10-24T19:10:00Z,29.13,-94.55,26.0,21.0,130,12,18,7.0,29.861221,,,TRUE,TRUE,,,,,,,OVC,7500,,,,,,,VFR,,,,,,,,,,,,SPECI,37.0
KEND 241910Z AUTO 34009KT 10SM OVC010 12/10 A2974 RMK AO2 SLP066,KEND,2022-10-24T19:10:00Z,36.33,-97.92,12.0,10.0,340,9,,10.0,29.740158,1006.6,,TRUE,TRUE,,,,,,,OVC,1000,,,,,,,MVFR,,,,,,,,,,,,SPECI,392.0
KEAN 241910Z AUTO 28011G19KT 10SM SCT031 BKN041 OVC050 06/M05 A2988 RMK AO2 T00561051,KEAN,2022-10-24T19:10:00Z,42.05,-104.93,5.6,-5.1,280,11,19,10.0,29.878937,,,TRUE,TRUE,,,,,,,SCT,3100,BKN,4100,OVC,5000,,,VFR,,,,,,,,,,,,SPECI,1452.0
KDWX 241910Z AUTO 20008G14KT 10SM M09/M14 A3008 RMK AO2 T10881139,KDWX,2022-10-24T19:10:00Z,41.03,-107.5,-8.8,-13.9,200,8,14,10.0,30.079725,,,TRUE,TRUE,,,,,,,,,,,,,,,,,,,,,,,,,,,SPECI,1974.0
KDVK 241910Z AUTO 20006KT 140V230 10SM CLR 23/03 A3008 RMK AO2,KDVK,2022-10-24T19:10:00Z,37.58,-84.77,23.0,3.0,200,6,,10.0,30.079725,,,TRUE,TRUE,,,,,,,CLR,,,,,,,,VFR,,,,,,,,,,,,SPECI,309.0
KDMW 241910Z AUTO 36003KT 10SM OVC006 16/15 A3014 RMK AO2 LTG DSNT SE,KDMW,2022-10-24T19:10:00Z,39.6,-77.0,16.0,15.0,360,3,,10.0,30.138779,,,TRUE,TRUE,,,,,,,OVC,600,,,,,,,IFR,,,,,,,,,,,,SPECI,239.0
KCVS 241910Z AUTO 00000KT 10SM BKN049 OVC070 09/06 A2978 RMK AO2 RAB00E10 PRESFR SLP051 $,KCVS,2022-10-24T19:10:00Z,34.37,-103.32,9.0,6.0,0,0,,10.0,29.778543,1005.1,,TRUE,TRUE,TRUE,,,,,,BKN,4900,OVC,7000,,,,,VFR,,,,,,,,,,,,SPECI,1305.0
KBQP 241910Z AUTO 16010G18KT 10SM CLR 28/14 A2990 RMK AO2 T02800140,KBQP,2022-10-24T19:10:00Z,32.75,-91.88,28.0,14.0,160,10,18,10.0,29.899607,,,TRUE,TRUE,,,,,,,CLR,,,,,,,,VFR,,,,,,,,,,,,SPECI,50.0
KBMC 241910Z AUTO 10SM OVC045 06/M04 A3022 RMK AO1 T00621044,KBMC,2022-10-24T19:10:00Z,41.55,-112.07,6.2,-4.4,,,,10.0,30.221457,,,TRUE,TRUE,,,,,,,OVC,4500,,,,,,,VFR,,,,,,,,,,,,SPECI,1289.0
KANK 241910Z AUTO 36016G22KT 10SM CLR 06/M15 A2999 RMK AO1 T00581155,KANK,2022-10-24T19:10:00Z,38.53,-106.05,5.8,-15.5,360,16,22,10.0,29.991142,,,TRUE,TRUE,,,,,,,CLR,,,,,,,,VFR,,,,,,,,,,,,SPECI,2293.0
KADW 241910Z AUTO 35005KT 10SM OVC014 16/12 A3010 RMK AO2 SLP199 $,KADW,2022-10-24T19:10:00Z,38.82,-76.87,16.0,12.0,350,5,,10.0,30.100393,1019.9,,TRUE,TRUE,TRUE,,,,,,OVC,1400,,,,,,,MVFR,,,,,,,,,,,,SPECI,87.0
K4V1 241910Z AUTO 24008KT 7SM BKN029 OVC035 02/01 A2993 RMK AO2 T00170006,K4V1,2022-10-24T19:10:00Z,37.7,-104.78,1.7,0.6,240,8,,7.0,29.929134,,,TRUE,TRUE,,,,,,,BKN,2900,OVC,3500,,,,,MVFR,,,,,,,,,,,,METAR,1847.0
RKNN 241909Z 20005KT 9999 -RA FEW040 BKN070 08/06 A3034 RMK CIG070,RKNN,2022-10-24T19:09:00Z,37.75,128.93,8.0,6.0,200,5,,6.21,30.339567,,,,,,,,,,-RA,FEW,4000,BKN,7000,,,,,VFR,,,,,,,,,,,,SPECI,11.0
PHHI 241909Z AUTO 03006KT 10SM SCT049 SCT060 25/18 A3009 RMK AO2 DZB1854E07RAB07E09 SLP179 $,PHHI,2022-10-24T19:09:00Z,21.48,-158.05,25.0,18.0,30,6,,10.0,30.088583,1017.9,,TRUE,TRUE,TRUE,,,,,,SCT,4900,SCT,6000,,,,,VFR,,,,,,,,,,,,METAR,246.0
PASV 241909Z VRB01KT 8SM BKN005 M02/M03 A2985 RMK AO2A SLP137,PASV,2022-10-24T19:09:00Z,61.1,-155.57,-2.0,-3.0,0,1,,8.0,29.84941,1013.7,,,TRUE,,,,,,,BKN,500,,,,,,,IFR,,,,,,,,,,,,SPECI,462.0
KTTN 241909Z 03006KT 6SM BR OVC004 14/14 A3012 RMK AO2 T01440139,KTTN,2022-10-24T19:09:00Z,40.28,-74.82,14.4,13.9,30,6,,6.0,30.121063,,,,TRUE,,,,,,BR,OVC,400,,,,,,,LIFR,,,,,,,,,,,,SPECI,58.0
KGPT 241909Z 13014KT 10SM BKN027 27/22 A3000 RMK AO2 T02720217,KGPT,2022-10-24T19:09:00Z,30.42,-89.08,27.2,21.7,130,14,,10.0,30.0,,,,TRUE,,,,,,,BKN,2700,,,,,,,MVFR,,,,,,,,,,,,SPECI,5.0
KBVO 241909Z AUTO 04009KT 4SM RA BR FEW008 BKN090 OVC110 12/12 A2969 RMK AO2 PRESFR P0003 T01220117,KBVO,2022-10-24T19:09:00Z,36.77,-96.02,12.2,11.7,40,9,,4.0,29.68996,,,TRUE,TRUE,,,,,,RA BR,FEW,800,BKN,9000,OVC,11000,,,MVFR,,,,,,0.03,,,,,,SPECI,210.0
PAKN 241908Z 26006KT 10SM SCT002 OVC055 02/02 A2997 RMK AO2 T00220022,PAKN,2022-10-24T19:08:00Z,58.68,-156.65,2.2,2.2,260,6,,10.0,29.970472,,,,TRUE,,,,,,,SCT,200,OVC,5500,,,,,VFR,,,,,,,,,,,,SPECI,20.0
KODO 241908Z AUTO 30032G41KT 10SM -RA SCT070 SCT090 20/08 A2979 RMK AO2 PK WND 28042/1854 WSHFT 1848 RAB1857 P0000 T02000078 $,KODO,2022-10-24T19:08:00Z,31.92,-102.4,20.0,7.8,300,32,41,10.0,29.790354,,,TRUE,TRUE,TRUE,,,,,-RA,SCT,7000,SCT,9000,,,,,VFR,,,,,,0.005,,,,,,METAR,912.0
KAWO 241908Z AUTO 15009KT 10SM SCT008 BKN015 OVC021 10/08 A2997 RMK AO2,KAWO,2022-10-24T19:08:00Z,48.17,-122.17,10.0,8.0,150,9,,10.0,29.970472,,,TRUE,TRUE,,,,,,,SCT,800,BKN,1500,OVC,2100,,,MVFR,,,,,,,,,,,,SPECI,38.0
KAAO 241908Z AUTO 35013G21KT 10SM OVC009 10/08 A2976 RMK AO2 CIG 008V012 T01000078,KAAO,2022-10-24T19:08:00Z,37.75,-97.22,10.0,7.8,350,13,21,10.0,29.760826,,,TRUE,TRUE,,,,,,,OVC,900,,,,,,,IFR,,,,,,,,,,,,METAR,429.0
CYTH 241908Z 03017G25KT 3/4SM R06/P6000FT/U -SNPL VV010 M01/M02 A2956 RMK SN8 SLP028,CYTH,2022-10-24T19:08:00Z,55.8,-97.83,-1.0,-2.0,30,17,25,0.75,29.56004,1002.8,,,,,,,,,PL -SN,OVX,0,,,,,,,LIFR,,,,,,,,,,,1000,SPECI,212.0
KLGD 241907Z AUTO 17013KT 10SM -RA SCT018 SCT023 OVC037 03/01 A3005 RMK AO2 P0000,KLGD,2022-10-24T19:07:00Z,45.28,-118.0,3.0,1.0,170,13,,10.0,30.050198,,,TRUE,TRUE,,,,,,-RA,SCT,1800,SCT,2300,OVC,3700,,,VFR,,,,,,0.005,,,,,,SPECI,827.0
KDVL 241907Z AUTO 29017KT 5SM -RA BR BKN010 OVC014 04/03 A2935 RMK AO2 CIG 007V013 P0000,KDVL,2022-10-24T19:07:00Z,48.12,-98.92,4.0,3.0,290,17,,5.0,29.350393,,,TRUE,TRUE,,,,,,-RA BR,BKN,1000,OVC,1400,,,,,MVFR,,,,,,0.005,,,,,,SPECI,439.0
KDLS 241907Z AUTO 00000KT 10SM -RA SCT010 BKN029 OVC090 11/07 A3000 RMK AO2 P0000 T01110072,KDLS,2022-10-24T19:07:00Z,45.62,-121.17,11.1,7.2,0,0,,10.0,30.0,,,TRUE,TRUE,,,,,,-RA,SCT,1000,BKN,2900,OVC,9000,,,MVFR,,,,,,0.005,,,,,,SPECI,71.0
CYXS 241907Z AUTO 19012G19KT 9SM -RA FEW028 BKN037 BKN048 04/03 A2957 RMK SLP040,CYXS,2022-10-24T19:07:00Z,53.88,-122.68,4.0,3.0,190,12,19,9.0,29.568897,1004.0,,TRUE,,,,,,,-RA,FEW,2800,BKN,3700,BKN,4800,,,VFR,,,,,,,,,,,,SPECI,685.0
CYQH 241907Z 08008KT 20SM -SN OVC030 M03/M08 A2965 RMK SC8 SLP081,CYQH,2022-10-24T19:07:00Z,60.12,-128.82,-3.0,-8.0,80,8,,20.0,29.648623,1008.1,,,,,,,,,-SN,OVC,3000,,,,,,,MVFR,,,,,,,,,,,,SPECI,692.0
CWSW 241907Z 16008G17KT 130V230 3SM -SN SCT009 OVC028 01/M01 A2975 RMK SC4SC4 SLP110,CWSW,2022-10-24T19:07:00Z,49.83,-114.87,1.0,-1.0,160,8,17,3.0,29.749016,1011.0,,,,,,,,,-SN,SCT,900,OVC,2800,,,,,MVFR,,,,,,,,,,,,SPECI,1173.0
SBGO 241906Z 04012KT 9999 -TSRA SCT040 FEW045CB SCT070 28/16 Q1013,SBGO,2022-10-24T19:06:00Z,-16.62,-49.22,28.0,16.0,40,12,,6.21,29.911417,,,,,,,,,,-TSRA,SCT,4000,FEW,4500,SCT,7000,,,VFR,,,,,,,,,,,,SPECI,740.0
PADQ 241906Z 29013KT 5SM -RA FEW012 OVC029 07/03 A2983 RMK AO2 P0002 T00670028,PADQ,2022-10-24T19:06:00Z,57.75,-152.5,6.7,2.8,290,13,,5.0,29.828741,,,,TRUE,,,,,,-RA,FEW,1200,OVC,2900,,,,,MVFR,,,,,,0.02,,,,,,SPECI,5.0
LIVC 241906Z AUTO 22043G59KT ///// 07/05 Q1023,LIVC,2022-10-24T19:06:00Z,44.2,10.68,7.0,5.0,220,43,59,,30.206694,,,TRUE,,,,,,,,,,,,,,,,,,,,,,,,,,,,SPECI,2139.0
KXWA 241906Z AUTO 32022G32KT 8SM UP OVC009 00/M02 A2961 RMK AO2 PK WND 32036/1853 P0000 T00001022,KXWA,2022-10-24T19:06:00Z,48.27,-103.75,0.0,-2.2,320,22,32,8.0,29.610237,,,TRUE,TRUE,,,,,,UP,OVC,900,,,,,,,IFR,,,,,,0.005,,,,,,SPECI,717.0
KSPS 241906Z VRB04KT 10SM BKN014 17/13 A2975 RMK AO2 T01720128,KSPS,2022-10-24T19:06:00Z,33.98,-98.5,17.2,12.8,0,4,,10.0,29.749016,,,,TRUE,,,,,,,BKN,1400,,,,,,,MVFR,,,,,,,,,,,,SPECI,310.0
KPWM 241906Z 01005KT 3SM -RA BR BKN006 OVC010 14/14 A3025 RMK AO2 LTG DSNT NE AND E P0002 T01390139,KPWM,2022-10-24T19:06:00Z,43.65,-70.3,13.9,13.9,10,5,,3.0,30.250984,,,,TRUE,,,,,,-RA BR,BKN,600,OVC,1000,,,,,IFR,,,,,,0.02,,,,,,SPECI,15.0
KPSF 241906Z AUTO 03004KT 5SM -RA BR SCT003 BKN016 OVC042 14/13 A3019 RMK AO2 P0001 T01440133,KPSF,2022-10-24T19:06:00Z,42.43,-73.28,14.4,13.3,30,4,,5.0,30.188976,,,TRUE,TRUE,,,,,,-RA BR,SCT,300,BKN,1600,OVC,4200,,,MVFR,,,,,,0.01,,,,,,SPECI,352.0
KHDN 241906Z AUTO 27014G20KT 10SM BKN025 OVC040 M01/M05 A3009 RMK AO2 FZRANO,KHDN,2022-10-24T19:06:00Z,40.48,-107.22,-1.0,-5.0,270,14,20,10.0,30.088583,,,TRUE,TRUE,,,,TRUE,,,BKN,2500,OVC,4000,,,,,MVFR,,,,,,,,,,,,SPECI,2012.0
KCQC 241906Z AUTO 31020G28KT 5SM -SN BR BKN006 OVC012 00/M01 A2988 RMK AO2 PK WND 31028/1859 P0000 T00001011 FZRANO,KCQC,2022-10-24T19:06:00Z,35.0,-105.67,0.0,-1.1,310,20,28,5.0,29.878937,,,TRUE,TRUE,,,,TRUE,,-SN BR,BKN,600,OVC,1200,,,,,IFR,,,,,,0.005,,,,,,METAR,2163.0
KAST 241906Z AUTO 26010KT 8SM FEW014 SCT020 BKN031 14/12 A3004 RMK AO2 RAE00 P0000 T01390117,KAST,2022-10-24T19:06:00Z,46.15,-123.88,13.9,11.7,260,10,,8.0,30.041338,,,TRUE,TRUE,,,,,,,FEW,1400,SCT,2000,BKN,3100,,,VFR,,,,,,0.005,,,,,,SPECI,3.0
PAFB 241905Z AUTO 00000KT 4SM BR CLR M11/M13 A2992 RMK AO2 SLP145,PAFB,2022-10-24T19:05:00Z,64.83,-147.62,-11.0,-13.0,0,0,,4.0,29.920275,1014.5,,TRUE,TRUE,,,,,,BR,CLR,,,,,,,,MVFR,,,,,,,,,,,,METAR,137.0
KRAP 241905Z 22006KT 5SM -SN BR SCT004 OVC036 00/00 A2978 RMK AO2 P0000 T00000000,KRAP,2022-10-24T19:05:00Z,44.05,-103.05,0.0,0.0,220,6,,5.0,29.778543,,,,TRUE,,,,,,-SN BR,SCT,400,OVC,3600,,,,,MVFR,,,,,,0.005,,,,,,SPECI,965.0
KNUI 241905Z AUTO VRB04KT 10SM OVC014 18/13 A3011 RMK AO2 T01830133,KNUI,2022-10-24T19:05:00Z,38.15,-76.43,18.3,13.3,0,4,,10.0,30.109253,,,TRUE,TRUE,,,,,,,OVC,1400,,,,,,,MVFR,,,,,,,,,,,,SPECI,4.0
CYYN 241905Z AUTO 23010KT 3/8SM FZFG OVC002 M04/M05 A2969 RMK ICE MISG SLP092,CYYN,2022-10-24T19:05:00Z,50.28,-107.68,-4.0,-5.0,230,10,,0.38,29.68996,1009.2,,TRUE,,,,,,,FZFG,OVC,200,,,,,,,LIFR,,,,,,,,,,,,SPECI,814.0
KGUR 241904Z AUTO 33010KT 10SM FEW045 OVC060 06/M07 A2986 RMK AO2 WSHFT 00 SLP124 $,KGUR,2022-10-24T19:04:00Z,42.25,-104.72,6.0,-7.0,330,10,,10.0,29.861221,1012.4,,TRUE,TRUE,TRUE,,,,,,FEW,4500,OVC,6000,,,,,VFR,,,,,,,,,,,,SPECI,1341.0
KCRS 241904Z AUTO 34011G19KT 3SM +RA BR FEW007 OVC013 17/16 A2977 RMK AO2 P0003 T01720161,KCRS,2022-10-24T19:04:00Z,32.03,-96.4,17.2,16.1,340,11,19,3.0,29.769686,,,TRUE,TRUE,,,,,,+RA BR,FEW,700,OVC,1300,,,,,MVFR,,,,,,0.03,,,,,,SPECI,136.0
SVVA 241903Z AUTO 00000KT NCD 26/23 Q1014,SVVA,2022-10-24T19:03:00Z,10.15,-67.92,26.0,23.0,0,0,,,29.940945,,,TRUE,,,,,,,,CLR,,,,,,,,,,,,,,,,,,,,METAR,428.0
SVSR 241903Z AUTO NIL,SVSR,2022-10-24T19:03:00Z,7.87,-67.43,,,,,,,,,,TRUE,,,,,,,,,,,,,,,,,,,,,,,,,,,,METAR,49.0
SVPR 241903Z AUTO 25004KT NCD 33/19 Q1011,SVPR,2022-10-24T19:03:00Z,8.3,-62.77,33.0,19.0,250,4,,,29.852362,,,TRUE,,,,,,,,CLR,,,,,,,,,,,,,,,,,,,,METAR,140.0
SVPA 241903Z AUTO NIL,SVPA,2022-10-24T19:03:00Z,5.62,-67.6,,,,,,,,,,TRUE,,,,,,,,,,,,,,,,,,,,,,,,,,,,METAR,77.0
SVMT 241903Z AUTO 01004KT NCD 29/29 Q1010,SVMT,2022-10-24T19:03:00Z,9.75,-63.17,29.0,29.0,10,4,,,29.822834,,,TRUE,,,,,,,,CLR,,,,,,,,,,,,,,,,,,,,METAR,67.0
SVMI 241903Z AUTO 28008KT NCD ///// Q1012,SVMI,2022-10-24T19:03:00Z,10.6,-67.0,,,280,8,,,29.88189,,,TRUE,,,,,,,,CLR,,,,,,,,,,,,,,,,,,,,METAR,48.0
SVMG 241903Z AUTO 12008KT NCD 33/24 Q1010,SVMG,2022-10-24T19:03:00Z,10.92,-63.97,33.0,24.0,120,8,,,29.822834,,,TRUE,,,,,,,,CLR,,,,,,,,,,,,,,,,,,,,METAR,16.0
SVMC 241903Z AUTO NIL,SVMC,2022-10-24T19:03:00Z,10.57,-71.72,,,,,,,,,,TRUE,,,,,,,,,,,,,,,,,,,,,,,,,,,,METAR,76.0
SVLO 241903Z AUTO NIL,SVLO,2022-10-24T19:03:00Z,11.8,-66.18,,,,,,,,,,TRUE,,,,,,,,,,,,,,,,,,,,,,,,,,,,METAR,3.0
SVJM 241903Z AUTO 34006KT NCD 22/22 Q1013,SVJM,2022-10-24T19:03:00Z,9.92,-67.38,22.0,22.0,340,6,,,29.911417,,,TRUE,,,,,,,,CLR,,,,,,,,,,,,,,,,,,,,METAR,448.0
SVGU 241903Z AUTO NIL,SVGU,2022-10-24T19:03:00Z,9.03,-69.75,,,,,,,,,,TRUE,,,,,,,,,,,,,,,,,,,,,,,,,,,,METAR,165.0
SVGD 241903Z AUTO 36004KT NCD 31/24 Q1012,SVGD,2022-10-24T19:03:00Z,7.22,-70.75,31.0,24.0,360,4,,,29.88189,,,TRUE,,,,,,,,CLR,,,,,,,,,,,,,,,,,,,,METAR,129.0
SVFM 241903Z AUTO 00000KT NCD 26/20 Q1013,SVFM,2022-10-24T19:03:00Z,10.48,-66.83,26.0,20.0,0,0,,,29.911417,,,TRUE,,,,,,,,CLR,,,,,,,,,,,,,,,,,,,,METAR,852.0
SVCS 241903Z AUTO 04003KT NCD ///49 Q1015,SVCS,2022-10-24T19:03:00Z,10.3,-66.82,,,40,3,,,29.970472,,,TRUE,,,,,,,,CLR,,,,,,,,,,,,,,,,,,,,METAR,656.0
SVCJ 241903Z AUTO NIL,SVCJ,2022-10-24T19:03:00Z,9.65,-68.58,,,,,,,,,,TRUE,,,,,,,,,,,,,,,,,,,,,,,,,,,,METAR,156.0
SVCB 241903Z AUTO 13004KT NCD 34/20 Q1008,SVCB,2022-10-24T19:03:00Z,8.12,-63.53,34.0,20.0,130,4,,,29.763779,,,TRUE,,,,,,,,CLR,,,,,,,,,,,,,,,,,,,,METAR,47.0
SVBS 241903Z AUTO 22007KT NCD 24/// Q1015,SVBS,2022-10-24T19:03:00Z,10.25,-67.65,,,220,7,,,29.970472,,,TRUE,,,,,,,,CLR,,,,,,,,,,,,,,,,,,,,METAR,435.0
SVBM 241903Z AUTO NIL,SVBM,2022-10-24T19:03:00Z,10.05,-69.37,,,,,,,,,,TRUE,,,,,,,,,,,,,,,,,,,,,,,,,,,,METAR,624.0
SVBI 241903Z AUTO 34002KT NCD 25/25 Q1018,SVBI,2022-10-24T19:03:00Z,8.62,-70.22,25.0,25.0,340,2,,,30.059055,,,TRUE,,,,,,,,CLR,,,,,,,,,,,,,,,,,,,,METAR,185.0
SVBC 241903Z AUTO 28006KT NCD 28/26 Q1012,SVBC,2022-10-24T19:03:00Z,10.12,-64.68,28.0,26.0,280,6,,,29.88189,,,TRUE,,,,,,,,CLR,,,,,,,,,,,,,,,,,,,,METAR,7.0
KSLE 241903Z 19014KT 4SM -RA BR BKN009 BKN034 OVC049 11/09 A3007 RMK AO2 P0000 T01060089,KSLE,2022-10-24T19:03:00Z,44.9,-123.0,10.6,8.9,190,14,,4.0,30.070866,,,,TRUE,,,,,,-RA BR,BKN,900,BKN,3400,OVC,4900,,,IFR,,,,,,0.005,,,,,,SPECI,63.0
KOLM 241903Z 19011KT 10SM FEW008 FEW015 SCT043 11/09 A3000 RMK AO2 T01110094,KOLM,2022-10-24T19:03:00Z,46.97,-122.9,11.1,9.4,190,11,,10.0,30.0,,,,TRUE,,,,,,,FEW,800,FEW,1500,SCT,4300,,,VFR,,,,,,,,,,,,SPECI,58.0
KIZG 241903Z AUTO 00000KT 10SM FEW006 OVC013 15/14 A3027 RMK AO2 T01500139,KIZG,2022-10-24T19:03:00Z,43.98,-70.95,15.0,13.9,0,0,,10.0,30.268702,,,TRUE,TRUE,,,,,,,FEW,600,OVC,1300,,,,,MVFR,,,,,,,,,,,,METAR,138.0
KPAE 241902Z 20006KT 10SM BKN006 BKN029 OVC035 10/08 A2996 RMK AO2 T01000078,KPAE,2022-10-24T19:02:00Z,47.92,-122.28,10.0,7.8,200,6,,10.0,29.958662,,,,TRUE,,,,,,,BKN,600,BKN,2900,OVC,3500,,,IFR,,,,,,,,,,,,SPECI,166.0
KIXD 241902Z 33011KT 3SM -RA OVC007 11/ A2975 RMK AO2 CIG 004V010 P0001 T0106 $,KIXD,2022-10-24T19:02:00Z,38.82,-94.88,10.6,,330,11,,3.0,29.749016,,,,TRUE,TRUE,,,,,-RA,OVC,700,,,,,,,IFR,,,,,,0.01,,,,,,SPECI,322.0
CYZH 241902Z AUTO 11011KT 9SM BKN012 OVC180 01/M01 A2960 RMK SLP051,CYZH,2022-10-24T19:02:00Z,55.28,-114.77,1.0,-1.0,110,11,,9.0,29.601377,1005.1,,TRUE,,,,,,,,BKN,1200,OVC,18000,,,,,MVFR,,,,,,,,,,,,SPECI,583.0
YGFN 241901Z AUTO 10003KT 9999 -SHRA SCT006 SCT046 OVC120 18/18 Q1006,YGFN,2022-10-24T19:01:00Z,-29.77,153.03,18.0,18.0,100,3,,6.21,29.704725,,,TRUE,,,,,,,-SHRA,SCT,600,SCT,4600,OVC,12000,,,VFR,,,,,,,,,,,,SPECI,26.0
PAFS 241901Z AUTO 00000KT 10SM OVC008 M04/M05 A2993 RMK AO2 CIG 006V010 FZRANO,PAFS,2022-10-24T19:01:00Z,63.02,-154.35,-4.0,-5.0,0,0,,10.0,29.929134,,,TRUE,TRUE,,,,TRUE,,,OVC,800,,,,,,,IFR,,,,,,,,,,,,METAR,131.0
KPPF 241901Z AUTO 34011KT 3SM BR SCT006 BKN045 OVC060 12/11 A2974 RMK AO2 T01170106 PWINO $,KPPF,2022-10-24T19:01:00Z,37.33,-95.5,11.7,10.6,340,11,,3.0,29.740158,,,TRUE,TRUE,TRUE,,,,TRUE,BR,SCT,600,BKN,4500,OVC,6000,,,MVFR,,,,,,,,,,,,METAR,265.0
KBRD 241901Z AUTO 22019G32KT 10SM BKN031 11/04 A2956 RMK AO2 PK WND 21032/1900 T01110039,KBRD,2022-10-24T19:01:00Z,46.4,-94.13,11.1,3.9,220,19,32,10.0,29.56004,,,TRUE,TRUE,,,,,,,BKN,3100,,,,,,,VFR,,,,,,,,,,,,METAR,372.0
ZYHB 241900Z 16004MPS 120V180 CAVOK M01/M05 Q1025 NOSIG,ZYHB,2022-10-24T19:00:00Z,45.62,126.25,-1.0,-5.0,160,8,,6.21,30.265747,,,,,,TRUE,,,,,CAVOK,,,,,,,,VFR,,,,,,,,,,,,METAR,134.0
ZYCC 241900Z 18005MPS CAVOK 02/M06 Q1025 NOSIG,ZYCC,2022-10-24T19:00:00Z,43.98,125.68,2.0,-6.0,180,10,,6.21,30.265747,,,,,,TRUE,,,,,CAVOK,,,,,,,,VFR,,,,,,,,,,,,METAR,211.0
ZWSH 241900Z AUTO VRB03MPS 7000 // ///////// 12/M04 Q1018,ZWSH,2022-10-24T19:00:00Z,39.55,76.02,12.0,-4.0,0,6,,4.35,30.059055,,,TRUE,,,,,,,,,,,,,,,,,,,,,,,,,,,,METAR,1374.0
ZUUU 241900Z 01002MPS 2700 -RA BR FEW004 SCT006 BKN020 16/16 Q1020 NOSIG,ZUUU,2022-10-24T19:00:00Z,30.58,103.95,16.0,16.0,10,4,,1.68,30.11811,,,,,,TRUE,,,,-RA BR,FEW,400,SCT,600,BKN,2000,,,IFR,,,,,,,,,,,,METAR,494.0
ZUTF 241900Z VRB01MPS 8000 -RA SCT040 17/15 Q1020 NOSIG,ZUTF,2022-10-24T19:00:00Z,30.3,104.43,17.0,15.0,0,2,,4.97,30.11811,,,,,,TRUE,,,,-RA,SCT,4000,,,,,,,MVFR,,,,,,,,,,,,METAR,443.0
ZUGY 241900Z 15005MPS CAVOK 16/09 Q1021 NOSIG,ZUGY,2022-10-24T19:00:00Z,26.53,106.8,16.0,9.0,150,10,,6.21,30.147638,,,,,,TRUE,,,,,CAVOK,,,,,,,,VFR,,,,,,,,,,,,METAR,1130.0
ZUCK 241900Z 03007MPS CAVOK 15/13 Q1020 NOSIG,ZUCK,2022-10-24T19:00:00Z,29.72,106.63,15.0,13.0,30,14,,6.21,30.11811,,,,,,TRUE,,,,,CAVOK,,,,,,,,VFR,,,,,,,,,,,,METAR,416.0
ZSQD 241900Z 14002MPS CAVOK 11/10 Q1025 NOSIG,ZSQD,2022-10-24T19:00:00Z,36.27,120.38,11.0,10.0,140,4,,6.21,30.265747,,,,,,TRUE,,,,,CAVOK,,,,,,,,VFR,,,,,,,,,,,,METAR,8.0
ZSOF 241900Z 09003MPS CAVOK 15/07 Q1024 NOSIG,ZSOF,2022-10-24T19:00:00Z,31.98,116.97,15.0,7.0,90,6,,6.21,30.236221,,,,,,TRUE,,,,,CAVOK,,,,,,,,VFR,,,,,,,,,,,,METAR,23.0
ZSNJ 241900Z 06002MPS CAVOK 12/10 Q1025 NOSIG,ZSNJ,2022-10-24T19:00:00Z,31.75,118.87,12.0,10.0,60,4,,6.21,30.265747,,,,,,TRUE,,,,,CAVOK,,,,,,,,VFR,,,,,,,,,,,,METAR,27.0
ZSNB 241900Z VRB01MPS CAVOK 15/11 Q1025 NOSIG,ZSNB,2022-10-24T19:00:00Z,29.83,121.47,15.0,11.0,0,2,,6.21,30.265747,,,,,,TRUE,,,,,CAVOK,,,,,,,,VFR,,,,,,,,,,,,METAR,5.0
ZSFZ 241900Z 03009MPS 9999 BKN046 20/13 Q1021 NOSIG,ZSFZ,2022-10-24T19:00:00Z,25.93,119.67,20.0,13.0,30,17,,6.21,30.147638,,,,,,TRUE,,,,,BKN,4600,,,,,,,VFR,,,,,,,,,,,,METAR,14.0
ZSAM 241900Z 03006MPS CAVOK 20/12 Q1019 NOSIG,ZSAM,2022-10-24T19:00:00Z,24.53,118.13,20.0,12.0,30,12,,6.21,30.088583,,,,,,TRUE,,,,,CAVOK,,,,,,,,VFR,,,,,,,,,,,,METAR,13.0
ZPPP 241900Z 18005MPS 9999 FEW023 15/13 Q1026 NOSIG,ZPPP,2022-10-24T19:00:00Z,25.0,102.65,15.0,13.0,180,10,,6.21,30.295275,,,,,,TRUE,,,,,FEW,2300,,,,,,,VFR,,,,,,,,,,,,METAR,1885.0
ZMUB 241900Z 33005MPS 9999 FEW033 BKN100 00/M04 Q1016 NOSIG RMK QFE655.0 74 NT,ZMUB,2022-10-24T19:00:00Z,47.83,106.75,0.0,-4.0,330,10,,6.21,30.0,,,,,,TRUE,,,,,FEW,3300,BKN,10000,,,,,VFR,,,,,,,,,,,,METAR,1300.0
ZLXY 241900Z VRB01MPS 4000 BR NSC 10/09 Q1020 NOSIG,ZLXY,2022-10-24T19:00:00Z,34.43,108.75,10.0,9.0,0,2,,2.49,30.11811,,,,,,TRUE,,,,BR,CLR,,,,,,,,IFR,,,,,,,,,,,,METAR,478.0
ZLLL 241900Z 30002MPS CAVOK 08/03 Q1021 NOSIG,ZLLL,2022-10-24T19:00:00Z,36.52,103.62,8.0,3.0,300,4,,6.21,30.147638,,,,,,TRUE,,,,,CAVOK,,,,,,,,VFR,,,,,,,,,,,,METAR,1939.0
ZJSY 241900Z 08005MPS 9999 SCT016 SCT020 25/24 Q1012 NOSIG,ZJSY,2022-10-24T19:00:00Z,18.3,109.42,25.0,24.0,80,10,,6.21,29.88189,,,,,,TRUE,,,,,SCT,1600,SCT,2000,,,,,VFR,,,,,,,,,,,,METAR,27.0
ZJHK 241900Z 08005MPS 9999 BKN040 24/23 Q1014 NOSIG,ZJHK,2022-10-24T19:00:00Z,19.93,110.43,24.0,23.0,80,10,,6.21,29.940945,,,,,,TRUE,,,,,BKN,4000,,,,,,,VFR,,,,,,,,,,,,METAR,21.0
ZHHH 241900Z 11002MPS 7000 NSC 20/11 Q1022 NOSIG,ZHHH,2022-10-24T19:00:00Z,30.78,114.22,20.0,11.0,110,4,,4.35,30.177166,,,,,,TRUE,,,,,CLR,,,,,,,,MVFR,,,,,,,,,,,,METAR,33.0
ZHCC 241900Z VRB01MPS CAVOK 11/06 Q1023 NOSIG,ZHCC,2022-10-24T19:00:00Z,34.52,113.83,11.0,6.0,0,2,,6.21,30.206694,,,,,,TRUE,,,,,CAVOK,,,,,,,,VFR,,,,,,,,,,,,METAR,149.0
ZGSZ 241900Z 09003MPS 050V140 CAVOK 23/18 Q1017 NOSIG,ZGSZ,2022-10-24T19:00:00Z,22.63,113.8,23.0,18.0,90,6,,6.21,30.029528,,,,,,TRUE,,,,,CAVOK,,,,,,,,VFR,,,,,,,,,,,,METAR,18.0
ZGOW 241900Z 00000MPS CAVOK 17/14 Q1018 NOSIG,ZGOW,2022-10-24T19:00:00Z,23.55,116.5,17.0,14.0,0,0,,6.21,30.059055,,,,,,TRUE,,,,,CAVOK,,,,,,,,VFR,,,,,,,,,,,,METAR,4.0
ZGNN 241900Z 36001MPS CAVOK 23/20 Q1016 NOSIG,ZGNN,2022-10-24T19:00:00Z,22.62,108.17,23.0,20.0,360,2,,6.21,30.0,,,,,,TRUE,,,,,CAVOK,,,,,,,,VFR,,,,,,,,,,,,METAR,128.0
ZGKL 241900Z 00000MPS CAVOK 17/11 Q1018 NOSIG,ZGKL,2022-10-24T19:00:00Z,25.22,110.03,17.0,11.0,0,0,,6.21,30.059055,,,,,,TRUE,,,,,CAVOK,,,,,,,,VFR,,,,,,,,,,,,METAR,151.0
ZGHA 241900Z VRB01MPS 8000 NSC 19/12 Q1021 NOSIG,ZGHA,2022-10-24T19:00:00Z,28.18,113.22,19.0,12.0,0,2,,4.97,30.147638,,,,,,TRUE,,,,,CLR,,,,,,,,MVFR,,,,,,,,,,,,METAR,61.0
ZBSJ 241900Z 32002MPS 4000 BR NSC 09/04 Q1021 NOSIG,ZBSJ,2022-10-24T19:00:00Z,38.28,114.7,9.0,4.0,320,4,,2.49,30.147638,,,,,,TRUE,,,,BR,CLR,,,,,,,,IFR,,,,,,,,,,,,METAR,70.0
ZBHH 241900Z 05002MPS 030V140 CAVOK 04/M04 Q1021 NOSIG,ZBHH,2022-10-24T19:00:00Z,40.85,111.82,4.0,-4.0,50,4,,6.21,30.147638,,,,,,TRUE,,,,,CAVOK,,,,,,,,VFR,,,,,,,,,,,,METAR,1081.0
WSSL 241900Z VRB02KT 9999 FEW016 BKN150 27/24 Q1010,WSSL,2022-10-24T19:00:00Z,1.42,103.87,27.0,24.0,0,2,,6.21,29.822834,,,,,,,,,,,FEW,1600,BKN,15000,,,,,VFR,,,,,,,,,,,,METAR,11.0
WSAP 241900Z 28002KT 9999 FEW016 BKN150 27/23 Q1010,WSAP,2022-10-24T19:00:00Z,1.37,103.92,27.0,23.0,280,2,,6.21,29.822834,,,,,,,,,,,FEW,1600,BKN,15000,,,,,VFR,,,,,,,,,,,,METAR,20.0
WMSA 241900Z 00000KT 4000 BR FEW005 24/23 Q1011,WMSA,2022-10-24T19:00:00Z,3.13,101.55,24.0,23.0,0,0,,2.49,29.852362,,,,,,,,,,BR,FEW,500,,,,,,,IFR,,,,,,,,,,,,METAR,19.0
WMKP 241900Z 00000KT 9000 FEW025 27/25 Q1010 NOSIG,WMKP,2022-10-24T19:00:00Z,5.28,100.27,27.0,25.0,0,0,,5.59,29.822834,,,,,,TRUE,,,,,FEW,2500,,,,,,,VFR,,,,,,,,,,,,METAR,4.0
WMKN 241900Z VRB02KT 9999 SCT022 25/25 Q1010,WMKN,2022-10-24T19:00:00Z,5.37,103.1,25.0,25.0,0,2,,6.21,29.822834,,,,,,,,,,,SCT,2200,,,,,,,VFR,,,,,,,,,,,,METAR,12.0
WMKM 241900Z 00000KT 8000 FEW010 24/24 Q1011,WMKM,2022-10-24T19:00:00Z,2.27,102.25,24.0,24.0,0,0,,4.97,29.852362,,,,,,,,,,,FEW,1000,,,,,,,MVFR,,,,,,,,,,,,METAR,9.0
WMKL 241900Z 00000KT 9999 FEW025 26/25 Q1011 RERA,WMKL,2022-10-24T19:00:00Z,6.32,99.72,26.0,25.0,0,0,,6.21,29.852362,,,,,,,,,,,FEW,2500,,,,,,,VFR,,,,,,,,,,,,METAR,4.0
WMKK 241900Z VRB02KT 9000 FEW010 24/23 Q1010 NOSIG,WMKK,2022-10-24T19:00:00Z,2.75,101.72,24.0,23.0,0,2,,5.59,29.822834,,,,,,TRUE,,,,,FEW,1000,,,,,,,VFR,,,,,,,,,,,,METAR,21.0
WMKJ 241900Z VRB03KT 9999 FEW022 26/24 Q1010,WMKJ,2022-10-24T19:00:00Z,1.63,103.67,26.0,24.0,0,3,,6.21,29.822834,,,,,,,,,,,FEW,2200,,,,,,,VFR,,,,,,,,,,,,METAR,38.0
WMKI 241900Z 00000KT 8000 FEW005 25/24 Q1011,WMKI,2022-10-24T19:00:00Z,4.57,101.08,25.0,24.0,0,0,,4.97,29.852362,,,,,,,,,,,FEW,500,,,,,,,MVFR,,,,,,,,,,,,METAR,37.0
WMKE 241900Z AUTO 00000KT //// // ////// 25/24 Q1010,WMKE,2022-10-24T19:00:00Z,4.53,103.43,25.0,24.0,0,0,,,29.822834,,,TRUE,,,,,,,,,,,,,,,,,,,,,,,,,,,,METAR,5.0
WMKD 241900Z 00000KT 9000 -RA FEW000 SCT024 25/24 Q1010 NOSIG,WMKD,2022-10-24T19:00:00Z,3.77,103.22,25.0,24.0,0,0,,5.59,29.822834,,,,,,TRUE,,,,-RA,FEW,0,SCT,2400,,,,,VFR,,,,,,,,,,,,METAR,18.0
WMKC 241900Z 00000KT 9999 FEW020 26/25 Q1011,WMKC,2022-10-24T19:00:00Z,6.17,102.28,26.0,25.0,0,0,,6.21,29.852362,,,,,,,,,,,FEW,2000,,,,,,,VFR,,,,,,,,,,,,METAR,7.0
WMKB 241900Z 06004KT 8000 FEW024 26/25 Q1010 NOSIG,WMKB,2022-10-24T19:00:00Z,5.47,100.38,26.0,25.0,60,4,,4.97,29.822834,,,,,,TRUE,,,,,FEW,2400,,,,,,,MVFR,,,,,,,,,,,,METAR,4.0
WMKA 241900Z VRB02KT 9999 FEW030 26/24 Q1011,WMKA,2022-10-24T19:00:00Z,6.2,100.4,26.0,24.0,0,2,,6.21,29.852362,,,,,,,,,,,FEW,3000,,,,,,,VFR,,,,,,,,,,,,METAR,5.0
WMBA 241900Z VRB02KT 9000 SCT030 26/24 Q1010,WMBA,2022-10-24T19:00:00Z,4.22,100.7,26.0,24.0,0,2,,5.59,29.822834,,,,,,,,,,,SCT,3000,,,,,,,VFR,,,,,,,,,,,,METAR,9.0
WMAU 241900Z 24006KT 230V310 7000 -RA SCT025 26/24 Q1010,WMAU,2022-10-24T19:00:00Z,2.38,103.88,26.0,24.0,240,6,,4.35,29.822834,,,,,,,,,,-RA,SCT,2500,,,,,,,MVFR,,,,,,,,,,,,METAR,5.0
WIOO 241900Z AUTO 11003KT 8000 BKN003 BKN170 25/25 Q1009,WIOO,2022-10-24T19:00:00Z,-0.15,109.4,25.0,25.0,110,3,,4.97,29.793306,,,TRUE,,,,,,,,BKN,300,BKN,17000,,,,,LIFR,,,,,,,,,,,,METAR,4.0
WIMM 241900Z 32008KT 1800 R23/1800 TSRA FEW016CB BKN017 24/23 Q1010 TEMPO TL1930 5000 -TSRA RMK CB TO NW,WIMM,2022-10-24T19:00:00Z,3.57,98.67,24.0,23.0,320,8,,1.12,29.822834,,,,,,,,,,TSRA,FEW,1600,BKN,1700,,,,,IFR,,,,,,,,,,,,SPECI,27.0
WIII 241900Z 25006KT 5000 HZ FEW020 26/24 Q1010 NOSIG,WIII,2022-10-24T19:00:00Z,-6.13,106.67,26.0,24.0,250,6,,3.11,29.822834,,,,,,TRUE,,,,HZ,FEW,2000,,,,,,,MVFR,,,,,,,,,,,,METAR,9.0
WIDD 241900Z 32003KT 9999 FEW014 27/25 Q1012 NOSIG,WIDD,2022-10-24T19:00:00Z,1.12,104.12,27.0,25.0,320,3,,6.21,29.88189,,,,,,TRUE,,,,,FEW,1400,,,,,,,VFR,,,,,,,,,,,,METAR,26.0
WBSB 241900Z 19005KT 4000 TSRA SCT012 FEW015CB SCT018 BKN150 24/24 Q1010 NOSIG,WBSB,2022-10-24T19:00:00Z,4.93,114.92,24.0,24.0,190,5,,2.49,29.822834,,,,,,TRUE,,,,TSRA,SCT,1200,FEW,1500,SCT,1800,BKN,15000,IFR,,,,,,,,,,,,METAR,15.0
WBKW 241900Z 00000KT 9999 TS FEW014CB 25/24 Q1009,WBKW,2022-10-24T19:00:00Z,4.32,118.12,25.0,24.0,0,0,,6.21,29.793306,,,,,,,,,,TS,FEW,1400,,,,,,,VFR,,,,,,,,,,,,METAR,17.0
WBKT 241900Z 23003KT 9999 FEW014 25/25 Q1008,WBKT,2022-10-24T19:00:00Z,6.92,116.83,25.0,25.0,230,3,,6.21,29.763779,,,,,,,,,,,FEW,1400,,,,,,,VFR,,,,,,,,,,,,METAR,11.0
WBKS 241900Z 22003KT 160V280 9999 FEW015 24/23 Q1008,WBKS,2022-10-24T19:00:00Z,5.9,118.07,24.0,23.0,220,3,,6.21,29.763779,,,,,,,,,,,FEW,1500,,,,,,,VFR,,,,,,,,,,,,METAR,13.0
WBKL 241900Z VRB02KT 8000 -RA FEW010 SCT030 24/23 Q1010 RERA,WBKL,2022-10-24T19:00:00Z,5.3,115.25,24.0,23.0,0,2,,4.97,29.822834,,,,,,,,,,-RA,FEW,1000,SCT,3000,,,,,MVFR,,,,,,,,,,,,METAR,29.0
WBKK 241900Z 10004KT 9999 FEW014 25/23 Q1008 NOSIG,WBKK,2022-10-24T19:00:00Z,5.93,116.05,25.0,23.0,100,4,,6.21,29.763779,,,,,,TRUE,,,,,FEW,1400,,,,,,,VFR,,,,,,,,,,,,METAR,9.0
WBGY 241900Z AUTO 00000KT //// // ////// 24/23 Q1009,WBGY,2022-10-24T19:00:00Z,1.22,111.45,24.0,23.0,0,0,,,29.793306,,,TRUE,,,,,,,,,,,,,,,,,,,,,,,,,,,,METAR,13.0
WBGS 241900Z VRB01KT 9999 FEW007 SCT016 24/24 Q1009,WBGS,2022-10-24T19:00:00Z,2.27,111.98,24.0,24.0,0,1,,6.21,29.793306,,,,,,,,,,,FEW,700,SCT,1600,,,,,VFR,,,,,,,,,,,,METAR,26.0
WBGR 241900Z VRB03KT 9999 FEW014 25/24 Q1009,WBGR,2022-10-24T19:00:00Z,4.32,113.98,25.0,24.0,0,3,,6.21,29.793306,,,,,,,,,,,FEW,1400,,,,,,,VFR,,,,,,,,,,,,METAR,18.0
WBGG 241900Z VRB02KT 9999 FEW020 24/24 Q1009 NOSIG,WBGG,2022-10-24T19:00:00Z,1.48,110.35,24.0,24.0,0,2,,6.21,29.793306,,,,,,TRUE,,,,,FEW,2000,,,,,,,VFR,,,,,,,,,,,,METAR,26.0
WBGB 241900Z VRB02KT 9999 FEW016 25/24 Q1009,WBGB,2022-10-24T19:00:00Z,3.12,113.02,25.0,24.0,0,2,,6.21,29.793306,,,,,,,,,,,FEW,1600,,,,,,,VFR,,,,,,,,,,,,METAR,34.0
WARR 241900Z 17002KT 3000 BR FEW020 25/24 Q1008 NOSIG,WARR,2022-10-24T19:00:00Z,-7.37,112.78,25.0,24.0,170,2,,1.86,29.763779,,,,,,TRUE,,,,BR,FEW,2000,,,,,,,IFR,,,,,,,,,,,,SPECI,3.0
WAPP 241900Z 35002KT 9999 FEW017 25/23 Q1008 NOSIG,WAPP,2022-10-24T19:00:00Z,-3.7,128.08,25.0,23.0,350,2,,6.21,29.763779,,,,,,TRUE,,,,,FEW,1700,,,,,,,VFR,,,,,,,,,,,,METAR,20.0
WAOO 241900Z AUTO 04004KT 6000 FEW021 BKN030 BKN040 25/25 Q1009,WAOO,2022-10-24T19:00:00Z,-3.45,114.77,25.0,25.0,40,4,,3.73,29.793306,,,TRUE,,,,,,,,FEW,2100,BKN,3000,BKN,4000,,,MVFR,,,,,,,,,,,,METAR,23.0
WALL 241900Z 26001KT 9000 FEW020CB FEW020 26/26 Q1009 RMK CB TO SE,WALL,2022-10-24T19:00:00Z,-1.27,116.9,26.0,26.0,260,1,,5.59,29.793306,,,,,,,,,,,FEW,2000,FEW,2000,,,,,VFR,,,,,,,,,,,,METAR,3.0
WADD 241900Z 27011KT 6000 RA BKN015 26/25 Q1009 TEMPO TL2000 6000 RA,WADD,2022-10-24T19:00:00Z,-8.73,115.17,26.0,25.0,270,11,,3.73,29.793306,,,,,,,,,,RA,BKN,1500,,,,,,,MVFR,,,,,,,,,,,,SPECI,3.0
WABB 241900Z 07004KT 200V070 9999 SCT018 BKN100 27/25 Q1008 NOSIG,WABB,2022-10-24T19:00:00Z,-1.18,136.12,27.0,25.0,70,4,,6.21,29.763779,,,,,,TRUE,,,,,SCT,1800,BKN,10000,,,,,VFR,,,,,,,,,,,,METAR,12.0
WAAA 241900Z 08003KT 8000 FEW019 24/23 Q1009 NOSIG,WAAA,2022-10-24T19:00:00Z,-5.07,119.55,24.0,23.0,80,3,,4.97,29.793306,,,,,,TRUE,,,,,FEW,1900,,,,,,,MVFR,,,,,,,,,,,,METAR,13.0
VTUU 241900Z 02008KT CAVOK 24/21 Q1012 NOSIG,VTUU,2022-10-24T19:00:00Z,15.25,104.87,24.0,21.0,20,8,,6.21,29.88189,,,,,,TRUE,,,,,CAVOK,,,,,,,,VFR,,,,,,,,,,,,METAR,119.0
VTUK 241900Z 10003KT 9000 NSC 25/20 Q1013 NOSIG,VTUK,2022-10-24T19:00:00Z,16.47,102.78,25.0,20.0,100,3,,5.59,29.911417,,,,,,TRUE,,,,,CLR,,,,,,,,VFR,,,,,,,,,,,,METAR,190.0
VTSG 241900Z 09003KT 9999 FEW020 24/24 Q1011 NOSIG,VTSG,2022-10-24T19:00:00Z,8.1,98.98,24.0,24.0,90,3,,6.21,29.852362,,,,,,TRUE,,,,,FEW,2000,,,,,,,VFR,,,,,,,,,,,,METAR,32.0
VTCT 241900Z 00000KT CAVOK 22/22 Q1014 NOSIG,VTCT,2022-10-24T19:00:00Z,19.95,99.88,22.0,22.0,0,0,,6.21,29.940945,,,,,,TRUE,,,,,CAVOK,,,,,,,,VFR,,,,,,,,,,,,METAR,389.0
"VRMM 241900Z 24017KT 7000 -SHRA SCT017 FEW018CB 26/25 Q1012 CB SW,W,NW TEMPO FEW018CB",VRMM,2022-10-24T19:00:00Z,4.2,73.52,26.0,25.0,240,17,,4.35,29.88189,,,,,,,,,,-SHRA,SCT,1700,FEW,1800,,,,,MVFR,,,,,,,,,,,,METAR,2.0
VRMH 241900Z 24006KT 9999 FEW018TCU BKN270 27/25 Q1011,VRMH,2022-10-24T19:00:00Z,6.75,73.17,27.0,25.0,240,6,,6.21,29.852362,,,,,,,,,,,FEW,1800,BKN,27000,,,,,VFR,,,,,,,,,,,,METAR,1.0
VRMG 241900Z 26005KT 9999 FEW018 SCT270 27/25 Q1011 NOSIG,VRMG,2022-10-24T19:00:00Z,-0.7,73.15,27.0,25.0,260,5,,6.21,29.852362,,,,,,TRUE,,,,,FEW,1800,SCT,27000,,,,,VFR,,,,,,,,,,,,METAR,3.0
VOTR 241900Z VRB02KT 3000 BR FEW016 SCT100 26/24 Q1010 NOSIG,VOTR,2022-10-24T19:00:00Z,10.77,78.72,26.0,24.0,0,2,,1.86,29.822834,,,,,,TRUE,,,,BR,FEW,1600,SCT,10000,,,,,IFR,,,,,,,,,,,,METAR,90.0
VOMD 241900Z 00000KT 4000 BR FEW020 SCT100 26/24 Q1010 NOSIG,VOMD,2022-10-24T19:00:00Z,9.83,78.08,26.0,24.0,0,0,,2.49,29.822834,,,,,,TRUE,,,,BR,FEW,2000,SCT,10000,,,,,IFR,,,,,,,,,,,,METAR,135.0
VOKN 241900Z 09003KT 4000 BR SCT012 26/24 Q1010 TEMPO 3000 BR,VOKN,2022-10-24T19:00:00Z,11.92,75.55,26.0,24.0,90,3,,2.49,29.822834,,,,,,,,,,BR,SCT,1200,,,,,,,IFR,,,,,,,,,,,,METAR,105.0
VOCI 241900Z 11002KT 3500 BR SCT015 25/24 Q1011 NOSIG,VOCI,2022-10-24T19:00:00Z,10.15,76.4,25.0,24.0,110,2,,2.17,29.852362,,,,,,TRUE,,,,BR,SCT,1500,,,,,,,IFR,,,,,,,,,,,,METAR,8.0
VMMC 241900Z 09016KT 9999 FEW035 24/19 Q1016 NOSIG,VMMC,2022-10-24T19:00:00Z,22.15,113.58,24.0,19.0,90,16,,6.21,30.0,,,,,,TRUE,,,,,FEW,3500,,,,,,,VFR,,,,,,,,,,,,METAR,1.0
VEGY 241900Z 00000KT 3000 BR NSC 23/20 Q1007,VEGY,2022-10-24T19:00:00Z,24.75,84.95,23.0,20.0,0,0,,1.86,29.734253,,,,,,,,,,BR,CLR,,,,,,,,IFR,,,,,,,,,,,,METAR,115.0
VEBS 241900Z 27004KT 3500 HZ SCT018 BKN100 24/22 Q1007 NOSIG,VEBS,2022-10-24T19:00:00Z,20.25,85.82,24.0,22.0,270,4,,2.17,29.734253,,,,,,TRUE,,,,HZ,SCT,1800,BKN,10000,,,,,IFR,,,,,,,,,,,,METAR,42.0
VDPP 241900Z 31005KT 9999 SCT015 SCT040 28/26 Q1009,VDPP,2022-10-24T19:00:00Z,11.55,104.83,28.0,26.0,310,5,,6.21,29.793306,,,,,,,,,,,SCT,1500,SCT,4000,,,,,VFR,,,,,,,,,,,,METAR,10.0
VANP 241900Z 33002KT 2500 HZ NSC 20/16 Q1012 NOSIG,VANP,2022-10-24T19:00:00Z,21.08,79.05,20.0,16.0,330,2,,1.55,29.88189,,,,,,TRUE,,,,HZ,CLR,,,,,,,,IFR,,,,,,,,,,,,METAR,309.0
UWOR 241900Z 19003MPS CAVOK 01/M03 Q1016 R25/CLRD65 NOSIG RMK QFE739/0985,UWOR,2022-10-24T19:00:00Z,51.07,58.6,1.0,-3.0,190,6,,6.21,30.0,,,,,,TRUE,,,,,CAVOK,,,,,,,,VFR,,,,,,,,,,,,METAR,270.0
UWLW 241900Z 33004MPS 9999 BKN016 06/05 Q1008 R20/290250 NOSIG RMK QFE751/1001,UWLW,2022-10-24T19:00:00Z,54.4,48.8,6.0,5.0,330,8,,6.21,29.763779,,,,,,TRUE,,,,,BKN,1600,,,,,,,MVFR,,,,,,,,,,,,METAR,67.0
UTTT 241900Z 00000KT 3000 BR OVC031 11/11 Q1019 R08L/29//50 NOSIG,UTTT,2022-10-24T19:00:00Z,41.27,69.27,11.0,11.0,0,0,,1.86,30.088583,,,,,,TRUE,,,,BR,OVC,3100,,,,,,,IFR,,,,,,,,,,,,METAR,429.0
UTST 241900Z VRB02KT 9999 FEW066CB 13/08 Q1018 R25/CLRD70 NOSIG,UTST,2022-10-24T19:00:00Z,37.28,67.32,13.0,8.0,0,2,,6.21,30.059055,,,,,,TRUE,,,,,FEW,6600,,,,,,,VFR,,,,,,,,,,,,SPECI,311.0
UTSS 241900Z 10004KT 7000 OVC009 11/10 Q1018 R09/29//55 NOSIG,UTSS,2022-10-24T19:00:00Z,39.7,66.98,11.0,10.0,100,4,,4.35,30.059055,,,,,,TRUE,,,,,OVC,900,,,,,,,IFR,,,,,,,,,,,,METAR,665.0
UTSK 241900Z VRB02KT CAVOK 12/11 Q1018 R16/CLRD70,UTSK,2022-10-24T19:00:00Z,38.8,65.77,12.0,11.0,0,2,,6.21,30.059055,,,,,,,,,,,CAVOK,,,,,,,,VFR,,,,,,,,,,,,SPECI,399.0
UTSB 241900Z VRB02KT CAVOK 09/08 Q1017 R01/CLRD70 NOSIG,UTSB,2022-10-24T19:00:00Z,39.77,64.48,9.0,8.0,0,2,,6.21,30.029528,,,,,,TRUE,,,,,CAVOK,,,,,,,,VFR,,,,,,,,,,,,SPECI,225.0
UTSA 241900Z 10004KT 3400 BR FU NSC 09/08 Q1018 R07/CLRD70 NOSIG,UTSA,2022-10-24T19:00:00Z,40.12,65.17,9.0,8.0,100,4,,2.11,30.059055,,,,,,TRUE,,,,BR FU,CLR,,,,,,,,IFR,,,,,,,,,,,,SPECI,346.0
UTNN 241900Z 08006KT CAVOK 09/M01 Q1018 R33/CLRD60 NOSIG,UTNN,2022-10-24T19:00:00Z,42.48,59.63,9.0,-1.0,80,6,,6.21,30.059055,,,,,,TRUE,,,,,CAVOK,,,,,,,,VFR,,,,,,,,,,,,SPECI,76.0
UTFN 241900Z 00000KT 2600 -SHRA BR OVC010CB 12/10 Q1020 R28/290160 NOSIG,UTFN,2022-10-24T19:00:00Z,40.98,71.57,12.0,10.0,0,0,,1.62,30.11811,,,,,,TRUE,,,,-SHRA BR,OVC,1000,,,,,,,IFR,,,,,,,,,,,,METAR,477.0
UTFF 241900Z 02004KT 3500 -SHRA BR BKN040CB 11/09 Q1019 R18/29//50,UTFF,2022-10-24T19:00:00Z,40.37,71.73,11.0,9.0,20,4,,2.17,30.088583,,,,,,,,,,-SHRA BR,BKN,4000,,,,,,,IFR,,,,,,,,,,,,METAR,612.0
UTAV 241900Z 09004KT CAVOK 11/08 Q1017 R31/CLRD70 NOSIG,UTAV,2022-10-24T19:00:00Z,39.08,63.62,11.0,8.0,90,4,,6.21,30.029528,,,,,,TRUE,,,,,CAVOK,,,,,,,,VFR,,,,,,,,,,,,METAR,187.0
UTAT 241900Z 12008KT CAVOK 10/02 Q1017 R08/CLRD70 NOSIG,UTAT,2022-10-24T19:00:00Z,41.77,59.83,10.0,2.0,120,8,,6.21,30.029528,,,,,,TRUE,,,,,CAVOK,,,,,,,,VFR,,,,,,,,,,,,METAR,84.0
UTAM 241900Z 07008KT 6000 NSC 14/09 Q1016 R88/CLRD7 NOSIG,UTAM,2022-10-24T19:00:00Z,37.62,61.9,14.0,9.0,70,8,,3.73,30.0,,,,,,TRUE,,,,,CLR,,,,,,,,MVFR,,,,,,,,,,,,METAR,218.0
UTAK 241900Z 23008KT 9999 -RA BKN022 OVC100 16/13 Q1014 R16R/29//50 TEMPO 3000 -SHRA BR BKN005,UTAK,2022-10-24T19:00:00Z,40.05,53.0,16.0,13.0,230,8,,6.21,29.940945,,,,,,,,,,-RA,BKN,2200,OVC,10000,,,,,MVFR,,,,,,,,,,,,METAR,83.0
UTAA 241900Z 34004KT 8000 FEW050 BKN100 14/12 Q1013 R88/70D NOSIG,UTAA,2022-10-24T19:00:00Z,37.98,58.37,14.0,12.0,340,4,,4.97,29.911417,,,,,,TRUE,,,,,FEW,5000,BKN,10000,,,,,MVFR,,,,,,,,,,,,METAR,207.0
URMN 241900Z 13001MPS 9999 OVC033CB 12/08 Q1019 R24/////// NOSIG RMK QFE728,URMN,2022-10-24T19:00:00Z,43.52,43.63,12.0,8.0,130,2,,6.21,30.088583,,,,,,TRUE,,,,,OVC,3300,,,,,,,VFR,,,,,,,,,,,,METAR,424.0
UOOO 241900Z 22009MPS 1800 R19/P2000U -SHSN BLSN SCT007 BKN016CB M05/M05 Q0989 R19/420244 NOSIG RMK QFE726/0968,UOOO,2022-10-24T19:00:00Z,69.32,87.33,-5.0,-5.0,220,17,,1.12,29.202755,,,,,,TRUE,,,,BLSN -SHSN,SCT,700,BKN,1600,,,,,IFR,,,,,,,,,,,,METAR,177.0
UMII 241900Z 00000MPS CAVOK 06/04 Q1016 NOSIG,UMII,2022-10-24T19:00:00Z,55.13,30.35,6.0,4.0,0,0,,6.21,30.0,,,,,,TRUE,,,,,CAVOK,,,,,,,,VFR,,,,,,,,,,,,METAR,208.0
UMGG 241900Z 07002MPS 8000 OVC018 10/09 Q1018 NOSIG,UMGG,2022-10-24T19:00:00Z,52.53,31.02,10.0,9.0,70,4,,4.97,30.059055,,,,,,TRUE,,,,,OVC,1800,,,,,,,MVFR,,,,,,,,,,,,METAR,135.0
ULPB 241900Z AUTO 26002MPS 9999 // 01/M02 Q1015 RMK QFE757/1010,ULPB,2022-10-24T19:00:00Z,61.88,34.15,1.0,-2.0,260,4,,6.21,29.970472,,,TRUE,,,,,,,,,,,,,,,,,,,,,,,,,,,,METAR,41.0
UHMM 241900Z 00000MPS 9999 NSC M23/M26 Q1009 RMK QFE742 R28/09003MPS,UHMM,2022-10-24T19:00:00Z,59.92,150.72,-23.0,-26.0,0,0,,6.21,29.793306,,,,,,,,,,,CLR,,,,,,,,VFR,,,,,,,,,,,,METAR,175.0
UHMA 241900Z 03002MPS CAVOK M14/M16 Q1014 R01/////// NOSIG RMK TDZ R01/03002G03MPS END R01/01002G03MPS QFE756/1009,UHMA,2022-10-24T19:00:00Z,64.73,177.73,-14.0,-16.0,30,4,,6.21,29.940945,,,,,,TRUE,,,,,CAVOK,,,,,,,,VFR,,,,,,,,,,,,METAR,53.0
UHBB 241900Z 16005MPS CAVOK M00/M07 Q1017 R36/090060 NOSIG RMK QFE746/0994,UHBB,2022-10-24T19:00:00Z,50.43,127.42,0.0,-7.0,160,10,,6.21,30.029528,,,,,,TRUE,,,,,CAVOK,,,,,,,,VFR,,,,,,,,,,,,METAR,185.0
UERR 241900Z 24005G10MPS 9999 -SHSN SCT023CB M03/M06 Q1004 R25/910250 NOSIG RMK QFE723/0964,UERR,2022-10-24T19:00:00Z,62.53,114.05,-3.0,-6.0,240,10,19,6.21,29.64567,,,,,,TRUE,,,,-SHSN,SCT,2300,,,,,,,VFR,,,,,,,,,,,,METAR,352.0
UERP 241900Z 26007G12MPS 9999 DRSN BKN025 OVC100 M07/M11 Q0994 R35/499328 RMK QFE701,UERP,2022-10-24T19:00:00Z,66.4,112.03,-7.0,-11.0,260,14,23,6.21,29.350393,,,,,,,,,,DRSN,BKN,2500,OVC,10000,,,,,MVFR,,,,,,,,,,,,METAR,514.0
UCFL 241900Z 31001MPS 9999 BKN030CB BKN100 08/06 Q1017 R07/CLRD//,UCFL,2022-10-24T19:00:00Z,42.58,76.7,8.0,6.0,310,2,,6.21,30.029528,,,,,,,,,,,BKN,3000,BKN,10000,,,,,MVFR,,,,,,,,,,,,METAR,1654.0
UBEE 241900Z 31009KT CAVOK 17/06 Q1016 NOSIG,UBEE,2022-10-24T19:00:00Z,40.63,47.13,17.0,6.0,310,9,,6.21,30.0,,,,,,TRUE,,,,,CAVOK,,,,,,,,VFR,,,,,,,,,,,,METAR,14.0
UBBY 241900Z 13006KT 9999 SCT100 11/05 Q1020 NOSIG RMK MT OP,UBBY,2022-10-24T19:00:00Z,41.57,46.67,11.0,5.0,130,6,,6.21,30.11811,,,,,,TRUE,,,,,SCT,10000,,,,,,,VFR,,,,,,,,,,,,METAR,383.0
UBBQ 241900Z 09004KT 9999 SCT150 09/05 Q1017 NOSIG RMK MT OP,UBBQ,2022-10-24T19:00:00Z,40.82,47.72,9.0,5.0,90,4,,6.21,30.029528,,,,,,TRUE,,,,,SCT,15000,,,,,,,VFR,,,,,,,,,,,,METAR,339.0
UBBL 241900Z 21004KT 9999 FEW100 13/11 Q1018 NOSIG RMK MT OP,UBBL,2022-10-24T19:00:00Z,38.75,48.82,13.0,11.0,210,4,,6.21,30.059055,,,,,,TRUE,,,,,FEW,10000,,,,,,,VFR,,,,,,,,,,,,METAR,-11.0
UASK 241900Z 32001MPS 5000 BR FU NSC M08/M09 Q1028 NOSIG RMK QFE746/0994,UASK,2022-10-24T19:00:00Z,50.03,82.5,-8.0,-9.0,320,2,,3.11,30.35433,,,,,,TRUE,,,,BR FU,CLR,,,,,,,,MVFR,,,,,,,,,,,,METAR,285.0
UAOO 241900Z 05003MPS CAVOK 02/M03 Q1019 NOSIG RMK QFE753/1004,UAOO,2022-10-24T19:00:00Z,44.7,65.6,2.0,-3.0,50,6,,6.21,30.088583,,,,,,TRUE,,,,,CAVOK,,,,,,,,VFR,,,,,,,,,,,,METAR,130.0
TVSA 241900Z 00000KT 9999 FEW022 30/26 Q1010 NOSIG ,TVSA,2022-10-24T19:00:00Z,13.15,-61.15,30.0,26.0,0,0,,6.21,29.822834,,,,,,TRUE,,,,,FEW,2200,,,,,,,VFR,,,,,,,,,,,,METAR,3.0
TUPJ 241900Z 11006KT 10SM SCT022 31/26 A2991 RMK Q1012 VIS16KM,TUPJ,2022-10-24T19:00:00Z,18.43,-64.53,31.0,26.0,110,6,,10.0,29.911417,,,,,,,,,,,SCT,2200,,,,,,,VFR,,,,,,,,,,,,METAR,6.0
TTPP 241900Z 12005KT 9999 VCSH FEW010CB FEW020TCU 32/24 Q1009 NOSIG RMK CB/TCU-SW. VCSH-SW/NW,TTPP,2022-10-24T19:00:00Z,10.58,-61.35,32.0,24.0,120,5,,6.21,29.793306,,,,,,TRUE,,,,VCSH,FEW,1000,FEW,2000,,,,,VFR,,,,,,,,,,,,SPECI,11.0
TTCP 241900Z 10009KT 9999 FEW018 31/27 Q1009 NOSIG,TTCP,2022-10-24T19:00:00Z,11.15,-60.85,31.0,27.0,100,9,,6.21,29.793306,,,,,,TRUE,,,,,FEW,1800,,,,,,,VFR,,,,,,,,,,,,METAR,13.0
TRPG 241900Z 09007KT 9999 SCT015 28/25 Q1013,TRPG,2022-10-24T19:00:00Z,16.78,-62.2,28.0,25.0,90,7,,6.21,29.911417,,,,,,,,,,,SCT,1500,,,,,,,VFR,,,,,,,,,,,,METAR,170.0
TQPF 241900Z 10009KT 9999 SCT019 29/25 Q1012,TQPF,2022-10-24T19:00:00Z,18.2,-63.05,29.0,25.0,100,9,,6.21,29.88189,,,,,,,,,,,SCT,1900,,,,,,,VFR,,,,,,,,,,,,METAR,33.0
TNCM 241900Z 09007KT 060V120 9999 SCT016 30/24 Q1013 NOSIG ,TNCM,2022-10-24T19:00:00Z,18.05,-63.12,30.0,24.0,90,7,,6.21,29.911417,,,,,,TRUE,,,,,SCT,1600,,,,,,,VFR,,,,,,,,,,,,METAR,9.0
TNCC 241900Z 11008KT 9999 FEW018 29/24 Q1010 NOSIG,TNCC,2022-10-24T19:00:00Z,12.2,-68.97,29.0,24.0,110,8,,6.21,29.822834,,,,,,TRUE,,,,,FEW,1800,,,,,,,VFR,,,,,,,,,,,,METAR,10.0
TNCA 241900Z 10016KT 9999 FEW023 30/24 Q1010 NOSIG,TNCA,2022-10-24T19:00:00Z,12.5,-70.0,30.0,24.0,100,16,,6.21,29.822834,,,,,,TRUE,,,,,FEW,2300,,,,,,,VFR,,,,,,,,,,,,METAR,7.0
TLPL 241900Z 10012KT 9999 FEW029 31/26 Q1011 NOSIG,TLPL,2022-10-24T19:00:00Z,13.75,-60.95,31.0,26.0,100,12,,6.21,29.852362,,,,,,TRUE,,,,,FEW,2900,,,,,,,VFR,,,,,,,,,,,,METAR,13.0
TLPC 241900Z 09009KT 9999 FEW026 31/24 Q1011 NOSIG,TLPC,2022-10-24T19:00:00Z,14.02,-61.0,31.0,24.0,90,9,,6.21,29.852362,,,,,,TRUE,,,,,FEW,2600,,,,,,,VFR,,,,,,,,,,,,METAR,8.0
TKPN 241900Z 07009KT 9999 FEW016TCU SCT021 30/26 Q1012,TKPN,2022-10-24T19:00:00Z,17.2,-62.58,30.0,26.0,70,9,,6.21,29.88189,,,,,,,,,,,FEW,1600,SCT,2100,,,,,VFR,,,,,,,,,,,,METAR,12.0
TKPK 241900Z 06009KT 06009KT 9999 FEW020 30/24 Q1012,TKPK,2022-10-24T19:00:00Z,17.3,-62.72,30.0,24.0,60,9,,6.21,29.88189,,,,,,,,,,,FEW,2000,,,,,,,VFR,,,,,,,,,,,,METAR,62.0
TGPY 241900Z 11012KT 9999 FEW020 31/26 Q1010 NOSIG,TGPY,2022-10-24T19:00:00Z,12.0,-61.78,31.0,26.0,110,12,,6.21,29.822834,,,,,,TRUE,,,,,FEW,2000,,,,,,,VFR,,,,,,,,,,,,METAR,12.0
TDPD 241900Z 06006KT 9999 SCT014 29/27 Q1012,TDPD,2022-10-24T19:00:00Z,15.55,-61.3,29.0,27.0,60,6,,6.21,29.88189,,,,,,,,,,,SCT,1400,,,,,,,VFR,,,,,,,,,,,,METAR,13.0
TDCF 241900Z 24001KT 9999 SCT018TCU 30/25 Q1010,TDCF,2022-10-24T19:00:00Z,15.33,-61.4,30.0,25.0,240,1,,6.21,29.822834,,,,,,,,,,,SCT,1800,,,,,,,VFR,,,,,,,,,,,,METAR,4.0
TAPA 241900Z 08009KT 040V130 9999 SCT020 29/24 Q1012 NOSIG,TAPA,2022-10-24T19:00:00Z,17.13,-61.78,29.0,24.0,80,9,,6.21,29.88189,,,,,,TRUE,,,,,SCT,2000,,,,,,,VFR,,,,,,,,,,,,METAR,15.0
SYEC 241900Z 09008KT 9999 FEW019CB 30/24 Q1008 NOSIG RMK CB NE & SW-WNW,SYEC,2022-10-24T19:00:00Z,6.8,-58.1,30.0,24.0,90,8,,6.21,29.763779,,,,,,TRUE,,,,,FEW,1900,,,,,,,VFR,,,,,,,,,,,,METAR,2.0
SYCJ 241900Z 33012KT 9999 SCT022 30/26 Q1008 NOSIG,SYCJ,2022-10-24T19:00:00Z,6.5,-58.25,30.0,26.0,330,12,,6.21,29.763779,,,,,,TRUE,,,,,SCT,2200,,,,,,,VFR,,,,,,,,,,,,METAR,30.0
SVVG 241900Z 00000KT 9999 BKN020 33/25 Q1009,SVVG,2022-10-24T19:00:00Z,8.62,-71.67,33.0,25.0,0,0,,6.21,29.793306,,,,,,,,,,,BKN,2000,,,,,,,MVFR,,,,,,,,,,,,METAR,70.0
SVJC 241900Z 09020KT 9999 FEW015 XX/XX Q////,SVJC,2022-10-24T19:00:00Z,11.77,-70.15,,,90,20,,6.21,,,,,,,,,,,,FEW,1500,,,,,,,VFR,,,,,,,,,,,,METAR,21.0
SUSO 241900Z VRB01KT CAVOK 27/13 Q1014,SUSO,2022-10-24T19:00:00Z,-31.43,-57.98,27.0,13.0,0,1,,6.21,29.940945,,,,,,,,,,,CAVOK,,,,,,,,VFR,,,,,,,,,,,,METAR,37.0
SUMU 241900Z 11012KT 9999 FEW040 21/15 Q1017 NOSIG,SUMU,2022-10-24T19:00:00Z,-34.83,-56.02,21.0,15.0,110,12,,6.21,30.029528,,,,,,TRUE,,,,,FEW,4000,,,,,,,VFR,,,,,,,,,,,,METAR,32.0
SULS 241900Z 11013KT 9999 FEW040 23/14 Q1016,SULS,2022-10-24T19:00:00Z,-34.87,-55.1,23.0,14.0,110,13,,6.21,30.0,,,,,,,,,,,FEW,4000,,,,,,,VFR,,,,,,,,,,,,METAR,22.0
SUDU 241900Z 02010KT 9999 FEW033 25/13 Q1016,SUDU,2022-10-24T19:00:00Z,-33.35,-56.5,25.0,13.0,20,10,,6.21,30.0,,,,,,,,,,,FEW,3300,,,,,,,VFR,,,,,,,,,,,,METAR,91.0
SUCA 241900Z 14011KT 100V160 9999 FEW033 21/16 Q1015,SUCA,2022-10-24T19:00:00Z,-34.45,-57.77,21.0,16.0,140,11,,6.21,29.970472,,,,,,,,,,,FEW,3300,,,,,,,VFR,,,,,,,,,,,,METAR,26.0
SUAA 241900Z 05009KT 9999 FEW033 24/11 Q1016,SUAA,2022-10-24T19:00:00Z,-34.78,-56.25,24.0,11.0,50,9,,6.21,30.0,,,,,,,,,,,FEW,3300,,,,,,,VFR,,,,,,,,,,,,METAR,48.0
SPYL 241900Z 18013KT CAVOK 23/15 Q1014 RMK BIRD HAZARD RWY 17/35 PP000,SPYL,2022-10-24T19:00:00Z,-4.57,-81.25,23.0,15.0,180,13,,6.21,29.940945,,,,,,,,,,,CAVOK,,,,,,,,VFR,,,,,,,,,,,,METAR,89.0
SPTU 241900Z 22004KT 160V260 9999 SCT025 34/23 Q1007 RMK BIRD HAZARD RWY 01/19 PP000,SPTU,2022-10-24T19:00:00Z,-12.62,-69.22,34.0,23.0,220,4,,6.21,29.734253,,,,,,,,,,,SCT,2500,,,,,,,VFR,,,,,,,,,,,,SPECI,213.0
SPTN 241900Z 22010KT 180V250 CAVOK 21/11 Q1014 RMK PP000,SPTN,2022-10-24T19:00:00Z,-18.03,-70.28,21.0,11.0,220,10,,6.21,29.940945,,,,,,,,,,,CAVOK,,,,,,,,VFR,,,,,,,,,,,,METAR,459.0
SPST 241900Z 04008KT 9999 SCT015TCU SCT080 30/23 Q1010 RMK BIRD HAZARD RWY 17/35 PP000,SPST,2022-10-24T19:00:00Z,-6.52,-76.37,30.0,23.0,40,8,,6.21,29.822834,,,,,,,,,,,SCT,1500,SCT,8000,,,,,VFR,,,,,,,,,,,,SPECI,282.0
SPSO 241900Z 27007KT 240V300 CAVOK 20/14 Q1014 RMK BIRD HAZARD RWY 22/04 PP000,SPSO,2022-10-24T19:00:00Z,-13.73,-76.22,20.0,14.0,270,7,,6.21,29.940945,,,,,,,,,,,CAVOK,,,,,,,,VFR,,,,,,,,,,,,METAR,8.0
SPRU 241900Z 17010KT 7000 BCFG FEW020 18/14 Q1015 RMK PP000,SPRU,2022-10-24T19:00:00Z,-8.08,-79.12,18.0,14.0,170,10,,4.35,29.970472,,,,,,,,,,BCFG,FEW,2000,,,,,,,MVFR,,,,,,,,,,,,SPECI,23.0
SPQU 241900Z 25010KT 210V280 CAVOK 21/M05 Q1025 NOSIG RMK PP000,SPQU,2022-10-24T19:00:00Z,-16.33,-71.57,21.0,-5.0,250,10,,6.21,30.265747,,,,,,TRUE,,,,,CAVOK,,,,,,,,VFR,,,,,,,,,,,,METAR,2527.0
SPQT 241900Z VRB03KT 9999 BKN020 30/24 Q1009 NOSIG RMK BIRD HAZARD RWY 06/24 PP000,SPQT,2022-10-24T19:00:00Z,-3.78,-73.32,30.0,24.0,0,3,,6.21,29.793306,,,,,,TRUE,,,,,BKN,2000,,,,,,,MVFR,,,,,,,,,,,,METAR,92.0
SPMS 241900Z 26003KT 9999 FEW015 SCT080 32/22 Q1010 RMK BIRD HAZARD RWY 09/27 PP000,SPMS,2022-10-24T19:00:00Z,-5.9,-76.12,32.0,22.0,260,3,,6.21,29.822834,,,,,,,,,,,FEW,1500,SCT,8000,,,,,VFR,,,,,,,,,,,,SPECI,149.0
SPME 241900Z 29006KT 9999 SCT013 SCT017 23/19 Q1013 RMK BIRD HAZARD RWY 32/14 PP000,SPME,2022-10-24T19:00:00Z,-3.55,-80.4,23.0,19.0,290,6,,6.21,29.911417,,,,,,,,,,,SCT,1300,SCT,1700,,,,,VFR,,,,,,,,,,,,SPECI,26.0
SPLO 241900Z 19013KT CAVOK 20/14 Q1014 RMK PP000,SPLO,2022-10-24T19:00:00Z,-17.7,-71.35,20.0,14.0,190,13,,6.21,29.940945,,,,,,,,,,,CAVOK,,,,,,,,VFR,,,,,,,,,,,,METAR,25.0
SPJI 241900Z 11003KT 9999 SCT020 BKN090 31/24 Q1019 RMK PP000,SPJI,2022-10-24T19:00:00Z,-7.17,-76.72,31.0,24.0,110,3,,6.21,30.088583,,,,,,,,,,,SCT,2000,BKN,9000,,,,,VFR,,,,,,,,,,,,SPECI,363.0
SPJC 241900Z 19010KT 160V240 9999 OVC016 18/12 Q1015 NOSIG RMK PP000,SPJC,2022-10-24T19:00:00Z,-12.02,-77.12,18.0,12.0,190,10,,6.21,29.970472,,,,,,TRUE,,,,,OVC,1600,,,,,,,MVFR,,,,,,,,,,,,METAR,26.0
SPHY 241900Z /////KT 9999 FEW012 SCT070 16/07 Q1033 RMK BIRD HAZARD RWY03/21 PP000,SPHY,2022-10-24T19:00:00Z,-13.7,-73.35,16.0,7.0,,,,6.21,30.501968,,,,,,,,,,,FEW,1200,SCT,7000,,,,,VFR,,,,,,,,,,,,SPECI,3553.0
SPHO 241900Z 18004KT 9999 VCSH FEW015 FEW050TCU 28/04 Q1022 RMK SH NE PP000,SPHO,2022-10-24T19:00:00Z,-13.17,-74.22,28.0,4.0,180,4,,6.21,30.177166,,,,,,,,,,VCSH,FEW,1500,FEW,5000,,,,,VFR,,,,,,,,,,,,SPECI,2743.0
SPHI 241900Z 19014KT 170V230 CAVOK 21/14 Q1014 RMK BIRD HAZARD RWY 19/01 PP000,SPHI,2022-10-24T19:00:00Z,-6.78,-79.82,21.0,14.0,190,14,,6.21,29.940945,,,,,,,,,,,CAVOK,,,,,,,,VFR,,,,,,,,,,,,SPECI,33.0
SPGM 241900Z 03006KT 9999 SCT030 BKN090 25/22 Q1013 RMK PP000,SPGM,2022-10-24T19:00:00Z,-9.28,-76.0,25.0,22.0,30,6,,6.21,29.911417,,,,,,,,,,,SCT,3000,BKN,9000,,,,,VFR,,,,,,,,,,,,SPECI,643.0
SPCL 241900Z 24004KT 9999 BKN015 31/23 Q1011 RMK BIRD HAZARD RWY 02/20 PP000,SPCL,2022-10-24T19:00:00Z,-8.38,-74.58,31.0,23.0,240,4,,6.21,29.852362,,,,,,,,,,,BKN,1500,,,,,,,MVFR,,,,,,,,,,,,SPECI,154.0
SMZO 241900Z 03006KT 9999 FEW035 33/24 Q1008 NOSIG,SMZO,2022-10-24T19:00:00Z,5.82,-55.18,33.0,24.0,30,6,,6.21,29.763779,,,,,,TRUE,,,,,FEW,3500,,,,,,,VFR,,,,,,,,,,,,METAR,7.0
SMJP 241900Z 14004KT 9999 FEW018CB SCT035 34/22 Q1008 NOSIG,SMJP,2022-10-24T19:00:00Z,5.45,-55.18,34.0,22.0,140,4,,6.21,29.763779,,,,,,TRUE,,,,,FEW,1800,SCT,3500,,,,,VFR,,,,,,,,,,,,METAR,14.0
SLYA 241900Z 02008KT 9999 SCT023 35/18 Q1007,SLYA,2022-10-24T19:00:00Z,-21.97,-63.65,35.0,18.0,20,8,,6.21,29.734253,,,,,,,,,,,SCT,2300,,,,,,,VFR,,,,,,,,,,,,METAR,646.0
SLVR 241900Z 34005KT 9999 FEW020 35/19 Q1009,SLVR,2022-10-24T19:00:00Z,-17.63,-63.13,35.0,19.0,340,5,,6.21,29.793306,,,,,,,,,,,FEW,2000,,,,,,,VFR,,,,,,,,,,,,METAR,377.0
SLTR 241900Z 33004KT 9999 FEW025 34/22 Q1008,SLTR,2022-10-24T19:00:00Z,-14.83,-64.92,34.0,22.0,330,4,,6.21,29.763779,,,,,,,,,,,FEW,2500,,,,,,,VFR,,,,,,,,,,,,METAR,157.0
SLTJ 241900Z 13010KT 9999 SCT050 28/11 Q1016,SLTJ,2022-10-24T19:00:00Z,-21.55,-64.72,28.0,11.0,130,10,,6.21,30.0,,,,,,,,,,,SCT,5000,,,,,,,VFR,,,,,,,,,,,,METAR,1850.0
SLSV 241900Z 00000KT 9999 BKN017 33/24 Q1008,SLSV,2022-10-24T19:00:00Z,-16.4,-61.05,33.0,24.0,0,0,,6.21,29.763779,,,,,,,,,,,BKN,1700,,,,,,,MVFR,,,,,,,,,,,,METAR,450.0
SLSA 241900Z 14005KT 9999 SCT020 BKN200 34/22 Q1007,SLSA,2022-10-24T19:00:00Z,-13.77,-65.43,34.0,22.0,140,5,,6.21,29.734253,,,,,,,,,,,SCT,2000,BKN,20000,,,,,VFR,,,,,,,,,,,,METAR,144.0
SLRY 241900Z 00000KT 9999 FEW020 35/22 Q1009,SLRY,2022-10-24T19:00:00Z,-14.3,-67.37,35.0,22.0,0,0,,6.21,29.793306,,,,,,,,,,,FEW,2000,,,,,,,VFR,,,,,,,,,,,,METAR,187.0
SLRQ 241900Z 01005KT 9999 FEW023 35/23 Q1006,SLRQ,2022-10-24T19:00:00Z,-14.42,-67.5,35.0,23.0,10,5,,6.21,29.704725,,,,,,,,,,,FEW,2300,,,,,,,VFR,,,,,,,,,,,,METAR,209.0
SLRI 241900Z 36006KT 8000 VCSH SCT017 FEW020CB BKN200 34/23 Q1008,SLRI,2022-10-24T19:00:00Z,-11.02,-66.08,34.0,23.0,360,6,,4.97,29.763779,,,,,,,,,,VCSH,SCT,1700,FEW,2000,BKN,20000,,,MVFR,,,,,,,,,,,,METAR,136.0
SLRB 241900Z 00000KT 9999 NSC 35/20 Q1011,SLRB,2022-10-24T19:00:00Z,-18.32,-59.75,35.0,20.0,0,0,,6.21,29.852362,,,,,,,,,,,CLR,,,,,,,,VFR,,,,,,,,,,,,METAR,266.0
SLPS 241900Z 09004KT 9999 SCT017 35/19 Q1012,SLPS,2022-10-24T19:00:00Z,-18.98,-57.82,35.0,19.0,90,4,,6.21,29.88189,,,,,,,,,,,SCT,1700,,,,,,,VFR,,,,,,,,,,,,METAR,136.0
SLOR 241900Z 20008KT 9999 FEW023 FEW025CB 22/M01 Q1031,SLOR,2022-10-24T19:00:00Z,-17.97,-67.08,22.0,-1.0,200,8,,6.21,30.442913,,,,,,,,,,,FEW,2300,FEW,2500,,,,,VFR,,,,,,,,,,,,METAR,3720.0
SLMG 241900Z 16004KT 9999 SCT017 34/23 Q1005,SLMG,2022-10-24T19:00:00Z,-13.27,-64.07,34.0,23.0,160,4,,6.21,29.675198,,,,,,,,,,,SCT,1700,,,,,,,VFR,,,,,,,,,,,,METAR,146.0
SLLP 241900Z 07009KT 9999 SCT020 BKN200 17/M06 Q1035,SLLP,2022-10-24T19:00:00Z,-16.52,-68.17,17.0,-6.0,70,9,,6.21,30.561024,,,,,,,,,,,SCT,2000,BKN,20000,,,,,VFR,,,,,,,,,,,,METAR,4061.0
SLJE 241900Z 00000KT 9999 FEW020 35/21 Q1012,SLJE,2022-10-24T19:00:00Z,-17.82,-60.75,35.0,21.0,0,0,,6.21,29.88189,,,,,,,,,,,FEW,2000,,,,,,,VFR,,,,,,,,,,,,METAR,286.0
SLET 241900Z 32009KT 9999 FEW020 34/16 Q1008,SLET,2022-10-24T19:00:00Z,-17.8,-63.17,34.0,16.0,320,9,,6.21,29.763779,,,,,,,,,,,FEW,2000,,,,,,,VFR,,,,,,,,,,,,METAR,421.0
SLCP 241900Z 00000KT 9999 SCT017 32/20 Q1012,SLCP,2022-10-24T19:00:00Z,-16.15,-62.02,32.0,20.0,0,0,,6.21,29.88189,,,,,,,,,,,SCT,1700,,,,,,,VFR,,,,,,,,,,,,METAR,502.0
SLCO 241900Z 15005KT 9999 SCT025 33/25 Q1007,SLCO,2022-10-24T19:00:00Z,-11.03,-68.78,33.0,25.0,150,5,,6.21,29.734253,,,,,,,,,,,SCT,2500,,,,,,,VFR,,,,,,,,,,,,METAR,238.0
SLCB 241900Z 33010G23KT 270V030 9999 FEW036 FEW040CB SCT200 30/ 00 Q1019,SLCB,2022-10-24T19:00:00Z,-17.42,-66.18,30.0,,330,10,23,6.21,30.088583,,,,,,,,,,,FEW,3600,FEW,4000,SCT,20000,,,VFR,,,,,,,,,,,,SPECI,2560.0
SLCA 241900Z 00000KT 9999 SCT033 35/12 Q1011,SLCA,2022-10-24T19:00:00Z,-20.0,-63.53,35.0,12.0,0,0,,6.21,29.852362,,,,,,,,,,,SCT,3300,,,,,,,VFR,,,,,,,,,,,,METAR,796.0
SLAL 241900Z 01014KT 9999 FEW020 22/02 Q1026,SLAL,2022-10-24T19:00:00Z,-19.23,-65.15,22.0,2.0,10,14,,6.21,30.295275,,,,,,,,,,,FEW,2000,,,,,,,VFR,,,,,,,,,,,,METAR,3109.0
SKVV 241900Z 241900Z 08006KT 9999 BKN023 30/22 Q1012 RMK A2989,SKVV,2022-10-24T19:00:00Z,4.17,-73.62,30.0,22.0,80,6,,6.21,29.88189,,,,,,,,,,,BKN,2300,,,,,,,MVFR,,,,,,,,,,,,METAR,421.0
SKVP 241900Z 24006KT 220V290 9999 TS SCT015CB BKN200 30/25 Q1011 RMK CB VCSH/SE A2987,SKVP,2022-10-24T19:00:00Z,10.43,-73.25,30.0,25.0,240,6,,6.21,29.852362,,,,,,,,,,TS,SCT,1500,BKN,20000,,,,,VFR,,,,,,,,,,,,METAR,137.0
SKUI 241900Z 20003KT 170V290 4500 -DZ BKN010 OVC080 25/24 Q1011 RMK A2988,SKUI,2022-10-24T19:00:00Z,5.68,-76.63,25.0,24.0,200,3,,2.8,29.852362,,,,,,,,,,-DZ,BKN,1000,OVC,8000,,,,,IFR,,,,,,,,,,,,METAR,55.0
SKUC 241900Z 07003KT 9999 BKN020 31/24 Q1010 RMK A2985,SKUC,2022-10-24T19:00:00Z,7.07,-70.73,31.0,24.0,70,3,,6.21,29.822834,,,,,,,,,,,BKN,2000,,,,,,,MVFR,,,,,,,,,,,,METAR,127.0
SKSP 241900Z 07009KT 040V100 9999 SCT018 BKN200 30/24 Q1011 RMK A2987,SKSP,2022-10-24T19:00:00Z,12.58,-81.72,30.0,24.0,70,9,,6.21,29.852362,,,,,,,,,,,SCT,1800,BKN,20000,,,,,VFR,,,,,,,,,,,,METAR,6.0
SKSM 241900Z 30006KT 9999 FEW020TCU BKN070 31/27 Q1010 RMK TCU/E/SE A2985,SKSM,2022-10-24T19:00:00Z,11.12,-74.22,31.0,27.0,300,6,,6.21,29.822834,,,,,,,,,,,FEW,2000,BKN,7000,,,,,VFR,,,,,,,,,,,,METAR,5.0
SKRH 241900Z 35006KT 9999 FEW015 SCT200 31/26 Q1008 RMK A2978,SKRH,2022-10-24T19:00:00Z,11.52,-72.92,31.0,26.0,350,6,,6.21,29.763779,,,,,,,,,,,FEW,1500,SCT,20000,,,,,VFR,,,,,,,,,,,,METAR,11.0
SKRG 241900Z 36010KT 3000 +TSRA BKN0008 BKN012CB 15/15 BECMG FM1930 4000 RA A3027,SKRG,2022-10-24T19:00:00Z,6.17,-75.42,15.0,15.0,360,10,,1.86,,,,,,,,,,,+TSRA,BKN,1200,,,,,,,IFR,,,,,,,,,,,,METAR,2132.0
SKPV 241900Z 01010KT 9999 STC017 TCU BKN200 28/25 Q1012 RMK A2989,SKPV,2022-10-24T19:00:00Z,13.37,-81.35,28.0,25.0,10,10,,6.21,29.88189,,,,,,,,,,,BKN,20000,,,,,,,VFR,,,,,,,,,,,,METAR,7.0
SKPS 241900Z VRB04KT 9999 SCT020 SCT080 22/17 Q1020 RMK A3011,SKPS,2022-10-24T19:00:00Z,1.4,-77.28,22.0,17.0,0,4,,6.21,30.11811,,,,,,,,,,,SCT,2000,SCT,8000,,,,,VFR,,,,,,,,,,,,METAR,1798.0
SKPE 241900Z 28004KT 9999 SCT012 BKN080 22/18 Q1018 A3007,SKPE,2022-10-24T19:00:00Z,4.82,-75.73,22.0,18.0,280,4,,6.21,30.059055,,,,,,,,,,,SCT,1200,BKN,8000,,,,,VFR,,,,,,,,,,,,METAR,1341.0
SKPC 241900Z VRB02KT 9999 -DZ SCT015 26/23 Q1010 RMK A2984,SKPC,2022-10-24T19:00:00Z,6.18,-67.5,26.0,23.0,0,2,,6.21,29.822834,,,,,,,,,,-DZ,SCT,1500,,,,,,,VFR,,,,,,,,,,,,METAR,51.0
SKNV 241900Z 17004KT 9999 FEW030 BKN120 30/21 Q1011 RMK A2986,SKNV,2022-10-24T19:00:00Z,2.93,-75.28,30.0,21.0,170,4,,6.21,29.852362,,,,,,,,,,,FEW,3000,BKN,12000,,,,,VFR,,,,,,,,,,,,METAR,449.0
SKMZ 241900Z 30005KT 7000 VCFG BKN012 18/18 Q1026 RMK A3031,SKMZ,2022-10-24T19:00:00Z,5.03,-75.47,18.0,18.0,300,5,,4.35,30.295275,,,,,,,,,,VCFG,BKN,1200,,,,,,,MVFR,,,,,,,,,,,,METAR,2075.0
SKMR 241900Z 00000KT 9999 BKN017 29/26 Q1009 RMK REDZ A2980,SKMR,2022-10-24T19:00:00Z,8.82,-75.83,29.0,26.0,0,0,,6.21,29.793306,,,,,,,,,,,BKN,1700,,,,,,,MVFR,,,,,,,,,,,,METAR,12.0
SKMD 241900Z 18006KT 9999 -TSRA SCT040CB BKN100 22/18 Q1019 RMK CB VCSH/E/SE A3009,SKMD,2022-10-24T19:00:00Z,6.22,-75.58,22.0,18.0,180,6,,6.21,30.088583,,,,,,,,,,-TSRA,SCT,4000,BKN,10000,,,,,VFR,,,,,,,,,,,,METAR,1491.0
SKLT 241900Z 07004KT 9999 SCT020 SCT200 32/25 Q1008 RMK A2977,SKLT,2022-10-24T19:00:00Z,-4.2,-69.93,32.0,25.0,70,4,,6.21,29.763779,,,,,,,,,,,SCT,2000,SCT,20000,,,,,VFR,,,,,,,,,,,,METAR,78.0
SKLC 241900Z 20006KT 9999 SCT018 31/25 Q1009 RMK A2981,SKLC,2022-10-24T19:00:00Z,7.82,-76.72,31.0,25.0,200,6,,6.21,29.793306,,,,,,,,,,,SCT,1800,,,,,,,VFR,,,,,,,,,,,,METAR,20.0
SKIP 241900Z 09004KT 9999 BKN018 16/09 Q1029 RMK A3039,SKIP,2022-10-24T19:00:00Z,0.85,-77.67,16.0,9.0,90,4,,6.21,30.383858,,,,,,,,,,,BKN,1800,,,,,,,MVFR,,,,,,,,,,,,METAR,2964.0
SKIB 241900Z 16008KT 9999 BKN030 SCT100 27/20 Q1017 RMK A3003,SKIB,2022-10-24T19:00:00Z,4.42,-75.12,27.0,20.0,160,8,,6.21,30.029528,,,,,,,,,,,BKN,3000,SCT,10000,,,,,MVFR,,,,,,,,,,,,METAR,899.0
SKEJ 241900Z VRB02KT 9999 SCT010TCU SCT200 30/24 Q1010 RMK TCU /E A2979,SKEJ,2022-10-24T19:00:00Z,7.02,-73.8,30.0,24.0,0,2,,6.21,29.822834,,,,,,,,,,,SCT,1000,SCT,20000,,,,,VFR,,,,,,,,,,,,METAR,123.0
SKCL 241900Z VRB02KT 9999 SCT020 BKN100 24/18 Q1016 TEMPO SCT020TCU,SKCL,2022-10-24T19:00:00Z,3.53,-76.37,24.0,18.0,0,2,,6.21,30.0,,,,,,,,,,,SCT,2000,BKN,10000,,,,,VFR,,,,,,,,,,,,SPECI,967.0
SKCG 241900Z 27005KT 230V290 9999 SCT017TCU BKN140 31/25 Q1009 RMK TCUVCSH/E A2982,SKCG,2022-10-24T19:00:00Z,10.43,-75.52,31.0,25.0,270,5,,6.21,29.793306,,,,,,,,,,,SCT,1700,BKN,14000,,,,,VFR,,,,,,,,,,,,METAR,6.0
SKCC 241900Z 04004KT 9999 SCT023 32/22 Q1010 RMK A2985,SKCC,2022-10-24T19:00:00Z,7.92,-72.52,32.0,22.0,40,4,,6.21,29.822834,,,,,,,,,,,SCT,2300,,,,,,,VFR,,,,,,,,,,,,METAR,308.0
SKBO 241900Z 15006KT 9999 SCT020 20/10 Q1025 NOSIG RMK A3029,SKBO,2022-10-24T19:00:00Z,4.7,-74.15,20.0,10.0,150,6,,6.21,30.265747,,,,,,TRUE,,,,,SCT,2000,,,,,,,VFR,,,,,,,,,,,,METAR,2547.0
SKBG 241900Z 31005KT 9999 SCT015 BKN270 25/20 Q1014 RMK A2996,SKBG,2022-10-24T19:00:00Z,7.13,-73.18,25.0,20.0,310,5,,6.21,29.940945,,,,,,,,,,,SCT,1500,BKN,27000,,,,,VFR,,,,,,,,,,,,METAR,1187.0
SKAR 241900Z 27004KT 9999 BKN012 BKN090 22/19 Q1020 RMK A3011,SKAR,2022-10-24T19:00:00Z,4.45,-75.77,22.0,19.0,270,4,,6.21,30.11811,,,,,,,,,,,BKN,1200,BKN,9000,,,,,MVFR,,,,,,,,,,,,METAR,1214.0
SGES 241900Z 20007KT CAVOK 32/15 Q1012,SGES,2022-10-24T19:00:00Z,-25.45,-54.85,32.0,15.0,200,7,,6.21,29.88189,,,,,,,,,,,CAVOK,,,,,,,,VFR,,,,,,,,,,,,METAR,256.0
SGEN 241900Z 00000KT CAVOK 30/09 Q1012,SGEN,2022-10-24T19:00:00Z,-27.23,-55.83,30.0,9.0,0,0,,6.21,29.88189,,,,,,,,,,,CAVOK,,,,,,,,VFR,,,,,,,,,,,,METAR,202.0
SGAS 241900Z VRB04KT CAVOK 33/13 Q1012,SGAS,2022-10-24T19:00:00Z,-25.25,-57.52,33.0,13.0,0,4,,6.21,29.88189,,,,,,,,,,,CAVOK,,,,,,,,VFR,,,,,,,,,,,,METAR,83.0
SETU 241900Z 16006KT 9999 SCT020 SCT080 17/08 Q1031,SETU,2022-10-24T19:00:00Z,0.82,-77.7,17.0,8.0,160,6,,6.21,30.442913,,,,,,,,,,,SCT,2000,SCT,8000,,,,,VFR,,,,,,,,,,,,METAR,2936.0
SETN 241900Z 29013KT 9999 SCT026 BKN100 29/23 Q1011 RMK A2986,SETN,2022-10-24T19:00:00Z,0.98,-79.63,29.0,23.0,290,13,,6.21,29.852362,,,,,,,,,,,SCT,2600,BKN,10000,,,,,VFR,,,,,,,,,,,,METAR,10.0
SEST 241900Z 17012KT 9999 FEW026 BKN030 22/16 Q1013 RMK A2992,SEST,2022-10-24T19:00:00Z,-0.9,-89.62,22.0,16.0,170,12,,6.21,29.911417,,,,,,,,,,,FEW,2600,BKN,3000,,,,,MVFR,,,,,,,,,,,,METAR,13.0
SESM 241900Z 00000KT 9999 SCT030 26/19 Q1015 RMK A2998,SESM,2022-10-24T19:00:00Z,-1.5,-78.07,26.0,19.0,0,0,,6.21,29.970472,,,,,,,,,,,SCT,3000,,,,,,,VFR,,,,,,,,,,,,METAR,1056.0
SESA 241900Z 20011KT 9999 SCT009 OVC013 21/19 Q1014 RMK A2994,SESA,2022-10-24T19:00:00Z,-2.2,-80.98,21.0,19.0,200,11,,6.21,29.940945,,,,,,,,,,,SCT,900,OVC,1300,,,,,MVFR,,,,,,,,,,,,METAR,6.0
SERO 241900Z 28004KT 9999 FEW013 OVC020 23/19 Q1013,SERO,2022-10-24T19:00:00Z,-3.43,-79.98,23.0,19.0,280,4,,6.21,29.911417,,,,,,,,,,,FEW,1300,OVC,2000,,,,,MVFR,,,,,,,,,,,,METAR,6.0
SERB 241900Z 12012KT 9999 BKN040 OVC100 18/15 Q1027,SERB,2022-10-24T19:00:00Z,-1.65,-78.67,18.0,15.0,120,12,,6.21,30.324802,,,,,,,,,,,BKN,4000,OVC,10000,,,,,VFR,,,,,,,,,,,,METAR,2788.0
SEQM 241900Z 35017KT 9999 VCSH SCT030TCU BKN100 22/11 Q1024 NOSIG RMK A3024,SEQM,2022-10-24T19:00:00Z,-0.12,-78.35,22.0,11.0,350,17,,6.21,30.236221,,,,,,TRUE,,,,VCSH,SCT,3000,BKN,10000,,,,,VFR,,,,,,,,,,,,METAR,2386.0
SENL 241900Z 03003KT 9999 SCT020 31/22 Q1012 RMK A2989,SENL,2022-10-24T19:00:00Z,0.1,-76.87,31.0,22.0,30,3,,6.21,29.88189,,,,,,,,,,,SCT,2000,,,,,,,VFR,,,,,,,,,,,,METAR,293.0
SEMT 241900Z 29008KT 9999 BKN020 26/20 Q1012 RMK A2990,SEMT,2022-10-24T19:00:00Z,-0.95,-80.67,26.0,20.0,290,8,,6.21,29.88189,,,,,,,,,,,BKN,2000,,,,,,,MVFR,,,,,,,,,,,,METAR,13.0
SEMC 241900Z 03008KT 9999 FEW040 SCT100 27/17 Q1015 RMK A2998,SEMC,2022-10-24T19:00:00Z,-2.3,-78.12,27.0,17.0,30,8,,6.21,29.970472,,,,,,,,,,,FEW,4000,SCT,10000,,,,,VFR,,,,,,,,,,,,METAR,1036.0
SELT 241900Z 16010KT 9999 -RA BKN030 OVC080 13/10 Q1028 RETS,SELT,2022-10-24T19:00:00Z,-0.92,-78.62,13.0,10.0,160,10,,6.21,30.35433,,,,,,,,,,-RA,BKN,3000,OVC,8000,,,,,MVFR,,,,,,,,,,,,METAR,2779.0
SEJD 241900Z 14002KT 9999 SCT020 28/24 Q1012 RMK A2989,SEJD,2022-10-24T19:00:00Z,-1.07,-77.58,28.0,24.0,140,2,,6.21,29.88189,,,,,,,,,,,SCT,2000,,,,,,,VFR,,,,,,,,,,,,METAR,376.0
SEGZ 241900Z 10002KT 9999 FEW020 SCT100 27/22 Q1015,SEGZ,2022-10-24T19:00:00Z,,,27.0,22.0,100,2,,6.21,29.970472,,,,,,,,,,,FEW,2000,SCT,10000,,,,,VFR,,,,,,,,,,,,METAR,
SEGU 241900Z 18008KT 150V220 9999 BKN020 OVC100 26/19 Q1012 NOSIG RMK A2989,SEGU,2022-10-24T19:00:00Z,-2.15,-79.88,26.0,19.0,180,8,,6.21,29.88189,,,,,,TRUE,,,,,BKN,2000,OVC,10000,,,,,MVFR,,,,,,,,,,,,METAR,6.0
SEGS 241900Z 31016KT 9999 FEW023 SCT200 25/16 Q1015 RMK A2998,SEGS,2022-10-24T19:00:00Z,-0.45,-90.27,25.0,16.0,310,16,,6.21,29.970472,,,,,,,,,,,FEW,2300,SCT,20000,,,,,VFR,,,,,,,,,,,,METAR,51.0
SECU 241900Z 08002KT 9999 BKN040 19/11 Q1024,SECU,2022-10-24T19:00:00Z,-2.88,-78.98,19.0,11.0,80,2,,6.21,30.236221,,,,,,,,,,,BKN,4000,,,,,,,VFR,,,,,,,,,,,,METAR,2516.0
SECO 241900Z 09005KT 9999 SCT025 SCT100 32/25 Q1011 RMK A2986,SECO,2022-10-24T19:00:00Z,-0.45,-76.98,32.0,25.0,90,5,,6.21,29.852362,,,,,,,,,,,SCT,2500,SCT,10000,,,,,VFR,,,,,,,,,,,,METAR,256.0
SECA 241900Z 27003KT 9999 SCT040 BKN100 30/14 Q1016 RMK A2998,SECA,2022-10-24T19:00:00Z,-4.0,-79.37,30.0,14.0,270,3,,6.21,30.0,,,,,,,,,,,SCT,4000,BKN,10000,,,,,VFR,,,,,,,,,,,,METAR,1237.0
SEAM 241900Z 12007KT 9999 SCT020 OVC100 18/12 Q1026,SEAM,2022-10-24T19:00:00Z,-1.2,-78.57,18.0,12.0,120,7,,6.21,30.295275,,,,,,,,,,,SCT,2000,OVC,10000,,,,,VFR,,,,,,,,,,,,METAR,2520.0
SCVM 241900Z 34015KT CAVOK 18/08 Q1016,SCVM,2022-10-24T19:00:00Z,-32.95,-71.48,18.0,8.0,340,15,,6.21,30.0,,,,,,,,,,,CAVOK,,,,,,,,VFR,,,,,,,,,,,,METAR,136.0
SCVD 241900Z 29006KT 250V320 9999 SCT018 BKN033 OVC130 16/12 Q1017,SCVD,2022-10-24T19:00:00Z,-39.65,-73.08,16.0,12.0,290,6,,6.21,30.029528,,,,,,,,,,,SCT,1800,BKN,3300,OVC,13000,,,VFR,,,,,,,,,,,,METAR,19.0
SCTN 241900Z 34014KT 310V010 9999 SCT030 BKN050 15/12 Q1016,SCTN,2022-10-24T19:00:00Z,-42.92,-72.7,15.0,12.0,340,14,,6.21,30.0,,,,,,,,,,,SCT,3000,BKN,5000,,,,,VFR,,,,,,,,,,,,METAR,8.0
SCTB 241900Z 22005KT CAVOK 27/04 Q1015,SCTB,2022-10-24T19:00:00Z,-33.45,-70.53,27.0,4.0,220,5,,6.21,29.970472,,,,,,,,,,,CAVOK,,,,,,,,VFR,,,,,,,,,,,,METAR,655.0
SCSN 241900Z 25014KT CAVOK 16/10 Q1016,SCSN,2022-10-24T19:00:00Z,-33.65,-71.62,16.0,10.0,250,14,,6.21,30.0,,,,,,,,,,,CAVOK,,,,,,,,VFR,,,,,,,,,,,,METAR,73.0
SCSE 241900Z 28011KT 9999 SCT016 15/10 Q1016,SCSE,2022-10-24T19:00:00Z,-29.92,-71.2,15.0,10.0,280,11,,6.21,30.0,,,,,,,,,,,SCT,1600,,,,,,,VFR,,,,,,,,,,,,METAR,141.0
SCRM 241900Z 01022KT 3000 -SN OVC009 M02/M03 Q0991 NOSIG,SCRM,2022-10-24T19:00:00Z,-62.18,-58.98,-2.0,-3.0,10,22,,1.86,29.26181,,,,,,TRUE,,,,-SN,OVC,900,,,,,,,IFR,,,,,,,,,,,,METAR,45.0
SCRG 241900Z 19008KT CAVOK 25/06 Q1015,SCRG,2022-10-24T19:00:00Z,-34.17,-70.77,25.0,6.0,190,8,,6.21,29.970472,,,,,,,,,,,CAVOK,,,,,,,,VFR,,,,,,,,,,,,METAR,488.0
SCRD 241900Z 22007KT CAVOK 23/09 Q1018,SCRD,2022-10-24T19:00:00Z,-33.07,-71.55,23.0,9.0,220,7,,6.21,30.059055,,,,,,,,,,,CAVOK,,,,,,,,VFR,,,,,,,,,,,,METAR,342.0
SCQP 241900Z 28004KT 240V020 9999 SCT027 19/12 Q1017,SCQP,2022-10-24T19:00:00Z,-38.92,-72.65,19.0,12.0,280,4,,6.21,30.029528,,,,,,,,,,,SCT,2700,,,,,,,VFR,,,,,,,,,,,,METAR,97.0
SCPQ 241900Z 33008KT 290V360 9999 SCT010 BKN025 14/10 Q1015,SCPQ,2022-10-24T19:00:00Z,-42.33,-73.72,14.0,10.0,330,8,,6.21,29.970472,,,,,,,,,,,SCT,1000,BKN,2500,,,,,MVFR,,,,,,,,,,,,METAR,166.0
SCPD 241900Z 16011KT CAVOK 27/05 Q1014,SCPD,2022-10-24T19:00:00Z,,,27.0,5.0,160,11,,6.21,29.940945,,,,,,,,,,,CAVOK,,,,,,,,VFR,,,,,,,,,,,,METAR,
SCON 241900Z VRB06KT 9999 BKN030 BKN070 17/11 Q1016,SCON,2022-10-24T19:00:00Z,-43.13,-73.62,17.0,11.0,0,6,,6.21,30.0,,,,,,,,,,,BKN,3000,BKN,7000,,,,,MVFR,,,,,,,,,,,,METAR,11.0
SCNT 241900Z 28019KT 9999 VCSH BKN030 12/00 Q1001,SCNT,2022-10-24T19:00:00Z,-51.67,-72.53,12.0,0.0,280,19,,6.21,29.557087,,,,,,,,,,VCSH,BKN,3000,,,,,,,MVFR,,,,,,,,,,,,METAR,68.0
SCMK 241900Z 32007KT 9999 BKN020 OVC060 ///// Q1015,SCMK,2022-10-24T19:00:00Z,-43.9,-73.73,,,320,7,,6.21,29.970472,,,,,,,,,,,BKN,2000,OVC,6000,,,,,MVFR,,,,,,,,,,,,METAR,22.0
SCJO 241900Z 05008KT 9999 BKN040 OVC120 16/11 Q1017,SCJO,2022-10-24T19:00:00Z,-40.6,-73.05,16.0,11.0,50,8,,6.21,30.029528,,,,,,,,,,,BKN,4000,OVC,12000,,,,,VFR,,,,,,,,,,,,METAR,61.0
SCIR 241900Z 32015KT 5000 HZ OVC010 15/14 Q1019,SCIR,2022-10-24T19:00:00Z,-33.67,-78.93,15.0,14.0,320,15,,3.11,30.088583,,,,,,,,,,HZ,OVC,1000,,,,,,,MVFR,,,,,,,,,,,,METAR,132.0
SCIP 241900Z 23010KT 180V250 9999 SCT025 BKN046 20/14 Q1025 NOSIG,SCIP,2022-10-24T19:00:00Z,-27.17,-109.43,20.0,14.0,230,10,,6.21,30.265747,,,,,,TRUE,,,,,SCT,2500,BKN,4600,,,,,VFR,,,,,,,,,,,,METAR,48.0
SCIE 241900Z 27008KT 230V310 9999 SCT020 16/12 Q1018,SCIE,2022-10-24T19:00:00Z,-36.77,-73.07,16.0,12.0,270,8,,6.21,30.059055,,,,,,,,,,,SCT,2000,,,,,,,VFR,,,,,,,,,,,,METAR,8.0
SCIC 241900Z 21005KT 130V290 CAVOK 24/07 Q1014,SCIC,2022-10-24T19:00:00Z,-34.97,-71.22,24.0,7.0,210,5,,6.21,29.940945,,,,,,,,,,,CAVOK,,,,,,,,VFR,,,,,,,,,,,,METAR,230.0
SCHR 241900Z 31023KT 9999 BKN040 15/M03 Q1006,SCHR,2022-10-24T19:00:00Z,-47.23,-72.58,15.0,-3.0,310,23,,6.21,29.704725,,,,,,,,,,,BKN,4000,,,,,,,VFR,,,,,,,,,,,,METAR,203.0
SCGZ 241900Z 28003KT 9999 FEW050 SCT066 BKN086 09/M01 Q0995,SCGZ,2022-10-24T19:00:00Z,-54.93,-67.63,9.0,-1.0,280,3,,6.21,29.379921,,,,,,,,,,,FEW,5000,SCT,6600,BKN,8600,,,VFR,,,,,,,,,,,,METAR,21.0
SCGE 241900Z 28007KT 9999 SCT040 24/09 Q1016,SCGE,2022-10-24T19:00:00Z,-37.4,-72.42,24.0,9.0,280,7,,6.21,30.0,,,,,,,,,,,SCT,4000,,,,,,,VFR,,,,,,,,,,,,METAR,122.0
SCFT 241900Z 29011KT 9000 -SHRA SCT025 BKN040 13/09 Q1014,SCFT,2022-10-24T19:00:00Z,-43.18,-71.85,13.0,9.0,290,11,,5.59,29.940945,,,,,,,,,,-SHRA,SCT,2500,BKN,4000,,,,,VFR,,,,,,,,,,,,METAR,345.0
SCFM 241900Z 31019KT 9999 SCT030 BKN100 09/03 Q0999,SCFM,2022-10-24T19:00:00Z,-53.25,-70.32,9.0,3.0,310,19,,6.21,29.498032,,,,,,,,,,,SCT,3000,BKN,10000,,,,,VFR,,,,,,,,,,,,METAR,28.0
SCFA 241900Z 19012KT 160V220 9999 SCT016 16/10 Q1015 NOSIG,SCFA,2022-10-24T19:00:00Z,-23.43,-70.43,16.0,10.0,190,12,,6.21,29.970472,,,,,,TRUE,,,,,SCT,1600,,,,,,,VFR,,,,,,,,,,,,METAR,113.0
SCEL 241900Z 21011KT 180V240 CAVOK 26/03 Q1014 NOSIG,SCEL,2022-10-24T19:00:00Z,-33.38,-70.78,26.0,3.0,210,11,,6.21,29.940945,,,,,,TRUE,,,,,CAVOK,,,,,,,,VFR,,,,,,,,,,,,METAR,478.0
SCDA 241900Z 23013KT CAVOK 18/10 Q1014,SCDA,2022-10-24T19:00:00Z,-20.53,-70.17,18.0,10.0,230,13,,6.21,29.940945,,,,,,,,,,,CAVOK,,,,,,,,VFR,,,,,,,,,,,,METAR,41.0
SCCY 241900Z VRB04KT 9999 -SHRA BKN040 12/05 Q1011,SCCY,2022-10-24T19:00:00Z,-45.58,-72.1,12.0,5.0,0,4,,6.21,29.852362,,,,,,,,,,-SHRA,BKN,4000,,,,,,,VFR,,,,,,,,,,,,METAR,301.0
SCCI 241900Z 29022KT 9999 FEW025 BKN200 10/04 Q0998 NOSIG,SCCI,2022-10-24T19:00:00Z,-53.0,-70.85,10.0,4.0,290,22,,6.21,29.468504,,,,,,TRUE,,,,,FEW,2500,BKN,20000,,,,,VFR,,,,,,,,,,,,METAR,37.0
SCCH 241900Z 24006KT CAVOK 22/06 Q1015,SCCH,2022-10-24T19:00:00Z,-36.57,-72.02,22.0,6.0,240,6,,6.21,29.970472,,,,,,,,,,,CAVOK,,,,,,,,VFR,,,,,,,,,,,,METAR,148.0
SCCF 241900Z 28022KT CAVOK 25/M15 Q1023,SCCF,2022-10-24T19:00:00Z,-22.5,-68.9,25.0,-15.0,280,22,,6.21,30.206694,,,,,,,,,,,CAVOK,,,,,,,,VFR,,,,,,,,,,,,METAR,2290.0
SCCC 241900Z 29022G32KT 9999 FEW046 17/M05 Q1008,SCCC,2022-10-24T19:00:00Z,-46.58,-71.7,17.0,-5.0,290,22,32,6.21,29.763779,,,,,,,,,,,FEW,4600,,,,,,,VFR,,,,,,,,,,,,METAR,305.0
SCBA 241900Z ,SCBA,2022-10-24T19:00:00Z,-45.92,-71.68,,,,,,,,,,,,,,,,,,,,,,,,,,,,,,,,,,,,,,METAR,516.0
SCAT 241900Z 29009KT 250V010 9999 FEW020 17/10 Q1015,SCAT,2022-10-24T19:00:00Z,-27.27,-70.77,17.0,10.0,290,9,,6.21,29.970472,,,,,,,,,,,FEW,2000,,,,,,,VFR,,,,,,,,,,,,METAR,209.0
SCAS 241900Z 25010KT 8000 -SHRA SCT023 BKN036 12/09 Q1014,SCAS,2022-10-24T19:00:00Z,-45.4,-72.67,12.0,9.0,250,10,,4.97,29.940945,,,,,,,,,,-SHRA,SCT,2300,BKN,3600,,,,,MVFR,,,,,,,,,,,,METAR,8.0
SCAR 241900Z 22011KT CAVOK 18/11 Q1014,SCAR,2022-10-24T19:00:00Z,-18.35,-70.33,18.0,11.0,220,11,,6.21,29.940945,,,,,,,,,,,CAVOK,,,,,,,,VFR,,,,,,,,,,,,METAR,57.0
SCAP 241900Z 21006KT 150V270 9999 BKN040 17/08 Q1016,SCAP,2022-10-24T19:00:00Z,-43.62,-71.8,17.0,8.0,210,6,,6.21,30.0,,,,,,,,,,,BKN,4000,,,,,,,VFR,,,,,,,,,,,,METAR,252.0
SBYS 241900Z 27005KT 210V360 CAVOK 32/10 Q1012,SBYS,2022-10-24T19:00:00Z,-21.97,-47.33,32.0,10.0,270,5,,6.21,29.88189,,,,,,,,,,,CAVOK,,,,,,,,VFR,,,,,,,,,,,,METAR,600.0
SBVT 241900Z 04010KT 9999 BKN016 BKN050 26/21 Q1013,SBVT,2022-10-24T19:00:00Z,-20.25,-40.28,26.0,21.0,40,10,,6.21,29.911417,,,,,,,,,,,BKN,1600,BKN,5000,,,,,MVFR,,,,,,,,,,,,METAR,4.0
SBVH 241900Z 26005KT 210V290 9999 SCT040 FEW045TCU SCT080 24/22 Q1011 RETS,SBVH,2022-10-24T19:00:00Z,-12.68,-60.08,24.0,22.0,260,5,,6.21,29.852362,,,,,,,,,,,SCT,4000,FEW,4500,SCT,8000,,,VFR,,,,,,,,,,,,METAR,615.0
SBUY 241900Z 02003KT 9999 SCT030 33/24 Q1005,SBUY,2022-10-24T19:00:00Z,-4.88,-65.35,33.0,24.0,20,3,,6.21,29.675198,,,,,,,,,,,SCT,3000,,,,,,,VFR,,,,,,,,,,,,METAR,44.0
SBUR 241900Z 29006KT 9999 VCSH SCT040 FEW045TCU 30/12 Q1014,SBUR,2022-10-24T19:00:00Z,-19.77,-47.97,30.0,12.0,290,6,,6.21,29.940945,,,,,,,,,,VCSH,SCT,4000,FEW,4500,,,,,VFR,,,,,,,,,,,,METAR,807.0
SBUL 241900Z 30004KT 9999 FEW035 29/13 Q1015,SBUL,2022-10-24T19:00:00Z,-18.87,-48.22,29.0,13.0,300,4,,6.21,29.970472,,,,,,,,,,,FEW,3500,,,,,,,VFR,,,,,,,,,,,,METAR,945.0
SBUF 241900Z 14009KT 9999 SCT024 35/14 Q1008,SBUF,2022-10-24T19:00:00Z,-9.4,-38.25,35.0,14.0,140,9,,6.21,29.763779,,,,,,,,,,,SCT,2400,,,,,,,VFR,,,,,,,,,,,,METAR,266.0
SBUA 241900Z VRB02KT 9999 FEW023 26/24 Q1009 RETS,SBUA,2022-10-24T19:00:00Z,-0.15,-66.98,26.0,24.0,0,2,,6.21,29.793306,,,,,,,,,,,FEW,2300,,,,,,,VFR,,,,,,,,,,,,METAR,73.0
SBTU 241900Z AUTO 19007KT 160V220 //// // FEW064/// 32/22 Q1009,SBTU,2022-10-24T19:00:00Z,-3.78,-49.72,32.0,22.0,190,7,,,29.793306,,,TRUE,,,,,,,,FEW,6400,,,,,,,,,,,,,,,,,,,METAR,250.0
SBTT 241900Z 31006KT 9999 VCSH SCT035 FEW040TCU 31/24 Q1009,SBTT,2022-10-24T19:00:00Z,-4.25,-69.93,31.0,24.0,310,6,,6.21,29.793306,,,,,,,,,,VCSH,SCT,3500,FEW,4000,,,,,VFR,,,,,,,,,,,,METAR,79.0
SBTF 241900Z 34008KT 9999 FEW020 33/27 Q1007,SBTF,2022-10-24T19:00:00Z,-3.37,-64.72,33.0,27.0,340,8,,6.21,29.734253,,,,,,,,,,,FEW,2000,,,,,,,VFR,,,,,,,,,,,,METAR,55.0
SBTE 241900Z 31003KT CAVOK 37/20 Q1005,SBTE,2022-10-24T19:00:00Z,-5.05,-42.82,37.0,20.0,310,3,,6.21,29.675198,,,,,,,,,,,CAVOK,,,,,,,,VFR,,,,,,,,,,,,METAR,60.0
SBTD 241900Z 23010KT 9999 FEW030 30/15 Q1014,SBTD,2022-10-24T19:00:00Z,-24.68,-53.7,30.0,15.0,230,10,,6.21,29.940945,,,,,,,,,,,FEW,3000,,,,,,,VFR,,,,,,,,,,,,METAR,558.0
SBTA 241900Z 18010KT 150V220 9999 VCTS SCT040 FEW045CB 19/14 Q1014 RETS,SBTA,2022-10-24T19:00:00Z,-23.03,-45.5,19.0,14.0,180,10,,6.21,29.940945,,,,,,,,,,VCTS,SCT,4000,FEW,4500,,,,,VFR,,,,,,,,,,,,METAR,578.0
SBSV 241900Z 07017KT 9999 SCT020 FEW023TCU 27/23 Q1017,SBSV,2022-10-24T19:00:00Z,-12.9,-38.32,27.0,23.0,70,17,,6.21,30.029528,,,,,,,,,,,SCT,2000,FEW,2300,,,,,VFR,,,,,,,,,,,,METAR,9.0
SBST 241900Z 17007KT 9999 4000N SCT013 OVC020 23/20 Q1015,SBST,2022-10-24T19:00:00Z,-23.92,-46.3,23.0,20.0,170,7,,6.21,29.970472,,,,,,,,,,,SCT,1300,OVC,2000,,,,,MVFR,,,,,,,,,,,,METAR,5.0
SBSR 241900Z 21004KT 9999 SCT040 32/13 Q1012,SBSR,2022-10-24T19:00:00Z,-20.8,-49.4,32.0,13.0,210,4,,6.21,29.88189,,,,,,,,,,,SCT,4000,,,,,,,VFR,,,,,,,,,,,,METAR,537.0
SBSN 241900Z 09010KT 9999 FEW023 BKN023 32/24 Q1007,SBSN,2022-10-24T19:00:00Z,-2.42,-54.78,32.0,24.0,90,10,,6.21,29.734253,,,,,,,,,,,FEW,2300,BKN,2300,,,,,MVFR,,,,,,,,,,,,METAR,57.0
SBSM 241900Z 09012KT 9999 FEW040 25/12 Q1015,SBSM,2022-10-24T19:00:00Z,-29.72,-53.7,25.0,12.0,90,12,,6.21,29.970472,,,,,,,,,,,FEW,4000,,,,,,,VFR,,,,,,,,,,,,METAR,86.0
SBSL 241900Z 05014KT 9999 FEW025 31/23 Q1008,SBSL,2022-10-24T19:00:00Z,-2.58,-44.23,31.0,23.0,50,14,,6.21,29.763779,,,,,,,,,,,FEW,2500,,,,,,,VFR,,,,,,,,,,,,METAR,53.0
SBSJ 241900Z 14018KT 9999 VCSH SCT025 FEW030TCU 24/16 Q1015,SBSJ,2022-10-24T19:00:00Z,-23.22,-45.87,24.0,16.0,140,18,,6.21,29.970472,,,,,,,,,,VCSH,SCT,2500,FEW,3000,,,,,VFR,,,,,,,,,,,,METAR,640.0
SBSG 241900Z 15012KT 9999 VCSH SCT021 BKN050 27/23 Q1011,SBSG,2022-10-24T19:00:00Z,-5.77,-35.37,27.0,23.0,150,12,,6.21,29.852362,,,,,,,,,,VCSH,SCT,2100,BKN,5000,,,,,VFR,,,,,,,,,,,,METAR,83.0
SBSC 241900Z 12007KT 9999 FEW015 OVC035 24/20 Q1014,SBSC,2022-10-24T19:00:00Z,-22.92,-43.72,24.0,20.0,120,7,,6.21,29.940945,,,,,,,,,,,FEW,1500,OVC,3500,,,,,VFR,,,,,,,,,,,,METAR,6.0
SBRP 241900Z 29008KT 250V320 9999 SCT045 33/12 Q1011,SBRP,2022-10-24T19:00:00Z,-21.13,-47.77,33.0,12.0,290,8,,6.21,29.852362,,,,,,,,,,,SCT,4500,,,,,,,VFR,,,,,,,,,,,,METAR,550.0
SBRJ 241900Z 16008KT 9999 SCT015 BKN035 BKN050 25/20 Q1013,SBRJ,2022-10-24T19:00:00Z,-22.9,-43.17,25.0,20.0,160,8,,6.21,29.911417,,,,,,,,,,,SCT,1500,BKN,3500,BKN,5000,,,VFR,,,,,,,,,,,,METAR,6.0
SBRF 241900Z 08008KT 050V110 9999 BKN023 28/22 Q1011,SBRF,2022-10-24T19:00:00Z,-8.13,-34.92,28.0,22.0,80,8,,6.21,29.852362,,,,,,,,,,,BKN,2300,,,,,,,MVFR,,,,,,,,,,,,METAR,10.0
SBRB 241900Z 28009KT 9999 VCSH SCT030 FEW040TCU 29/24 Q1009,SBRB,2022-10-24T19:00:00Z,-9.87,-67.88,29.0,24.0,280,9,,6.21,29.793306,,,,,,,,,,VCSH,SCT,3000,FEW,4000,,,,,VFR,,,,,,,,,,,,METAR,190.0
SBPV 241900Z 22003KT 9999 FEW035 FEW040TCU 35/23 Q1006,SBPV,2022-10-24T19:00:00Z,-8.72,-63.9,35.0,23.0,220,3,,6.21,29.704725,,,,,,,,,,,FEW,3500,FEW,4000,,,,,VFR,,,,,,,,,,,,METAR,89.0
SBPS 241900Z 03006KT 350V050 8000 -RA FEW007 SCT020 OVC090 23/21 Q1013,SBPS,2022-10-24T19:00:00Z,-16.43,-39.07,23.0,21.0,30,6,,4.97,29.911417,,,,,,,,,,-RA,FEW,700,SCT,2000,OVC,9000,,,MVFR,,,,,,,,,,,,METAR,44.0
SBPR 241900Z 04008KT 9999 SCT030 FEW035TCU 30/16 Q1016,SBPR,2022-10-24T19:00:00Z,-19.9,-43.98,30.0,16.0,40,8,,6.21,30.0,,,,,,,,,,,SCT,3000,FEW,3500,,,,,VFR,,,,,,,,,,,,METAR,936.0
SBPP 241900Z 18006KT 9999 FEW030 32/13 Q1014,SBPP,2022-10-24T19:00:00Z,-22.55,-55.7,32.0,13.0,180,6,,6.21,29.940945,,,,,,,,,,,FEW,3000,,,,,,,VFR,,,,,,,,,,,,METAR,650.0
SBPL 241900Z 17007KT 9999 SCT040 36/15 Q1008,SBPL,2022-10-24T19:00:00Z,-9.37,-40.57,36.0,15.0,170,7,,6.21,29.763779,,,,,,,,,,,SCT,4000,,,,,,,VFR,,,,,,,,,,,,METAR,386.0
SBPK 241900Z 11011KT 9999 SCT030 24/15 Q1019,SBPK,2022-10-24T19:00:00Z,-31.72,-52.33,24.0,15.0,110,11,,6.21,30.088583,,,,,,,,,,,SCT,3000,,,,,,,VFR,,,,,,,,,,,,METAR,17.0
SBPJ 241900Z 25005KT 230V300 9999 SCT030 SCT050 31/25 Q1008,SBPJ,2022-10-24T19:00:00Z,-10.28,-48.37,31.0,25.0,250,5,,6.21,29.763779,,,,,,,,,,,SCT,3000,SCT,5000,,,,,VFR,,,,,,,,,,,,METAR,226.0
SBPF 241900Z 15006KT CAVOK 24/07 Q1017,SBPF,2022-10-24T19:00:00Z,-28.25,-52.33,24.0,7.0,150,6,,6.21,30.029528,,,,,,,,,,,CAVOK,,,,,,,,VFR,,,,,,,,,,,,METAR,720.0
SBPB 241900Z 12018KT 9999 SCT020 30/24 Q1008,SBPB,2022-10-24T19:00:00Z,-2.88,-41.72,30.0,24.0,120,18,,6.21,29.763779,,,,,,,,,,,SCT,2000,,,,,,,VFR,,,,,,,,,,,,METAR,3.0
SBPA 241900Z 13012KT 100V160 9999 BKN040 24/14 Q1017,SBPA,2022-10-24T19:00:00Z,-30.0,-51.17,24.0,14.0,130,12,,6.21,30.029528,,,,,,,,,,,BKN,4000,,,,,,,VFR,,,,,,,,,,,,METAR,3.0
SBOI 241900Z 12005KT 9999 FEW040 SCT100 34/21 Q1008,SBOI,2022-10-24T19:00:00Z,3.85,-51.78,34.0,21.0,120,5,,6.21,29.763779,,,,,,,,,,,FEW,4000,SCT,10000,,,,,VFR,,,,,,,,,,,,METAR,15.0
SBNT 241900Z 09010KT 9999 FEW018 SCT021 BKN066 26/22 Q1010,SBNT,2022-10-24T19:00:00Z,-5.92,-35.25,26.0,22.0,90,10,,6.21,29.822834,,,,,,,,,,,FEW,1800,SCT,2100,BKN,6600,,,VFR,,,,,,,,,,,,METAR,51.0
SBNF 241900Z 13011KT 100V160 9999 FEW022 22/17 Q1016,SBNF,2022-10-24T19:00:00Z,-26.88,-48.65,22.0,17.0,130,11,,6.21,30.0,,,,,,,,,,,FEW,2200,,,,,,,VFR,,,,,,,,,,,,METAR,5.0
SBMY 241900Z AUTO 34008KT 310V010 9999 FEW046 33/25 Q1007 RETS,SBMY,2022-10-24T19:00:00Z,-5.82,-61.28,33.0,25.0,340,8,,6.21,29.734253,,,TRUE,,,,,,,,FEW,4600,,,,,,,VFR,,,,,,,,,,,,METAR,44.0
SBMT 241900Z 15009KT 8000 FEW013 BKN015 20/17 Q1017,SBMT,2022-10-24T19:00:00Z,-23.52,-46.63,20.0,17.0,150,9,,4.97,30.029528,,,,,,,,,,,FEW,1300,BKN,1500,,,,,MVFR,,,,,,,,,,,,METAR,722.0
SBMS 241900Z 04021KT 9999 FEW030 32/23 Q1008,SBMS,2022-10-24T19:00:00Z,-5.2,-37.37,32.0,23.0,40,21,,6.21,29.763779,,,,,,,,,,,FEW,3000,,,,,,,VFR,,,,,,,,,,,,METAR,23.0
SBMQ 241900Z 07011KT 9999 SCT025 34/22 Q1008,SBMQ,2022-10-24T19:00:00Z,0.05,-51.07,34.0,22.0,70,11,,6.21,29.763779,,,,,,,,,,,SCT,2500,,,,,,,VFR,,,,,,,,,,,,METAR,15.0
SBMO 241900Z 08015KT 9999 FEW033 28/21 Q1011,SBMO,2022-10-24T19:00:00Z,-9.52,-35.78,28.0,21.0,80,15,,6.21,29.852362,,,,,,,,,,,FEW,3300,,,,,,,VFR,,,,,,,,,,,,METAR,116.0
SBMN 241900Z 20004KT 110V280 9999 TS VCSH SCT025 FEW030CB SCT100 32/25 Q1007,SBMN,2022-10-24T19:00:00Z,-3.13,-59.98,32.0,25.0,200,4,,6.21,29.734253,,,,,,,,,,TS VCSH,SCT,2500,FEW,3000,SCT,10000,,,VFR,,,,,,,,,,,,METAR,71.0
SBMK 241900Z 00000KT 9999 FEW020TCU 25/17 Q1015,SBMK,2022-10-24T19:00:00Z,-16.7,-43.82,25.0,17.0,0,0,,6.21,29.970472,,,,,,,,,,,FEW,2000,,,,,,,VFR,,,,,,,,,,,,METAR,665.0
SBMG 241900Z 14005KT 9999 FEW045 32/14 Q1012,SBMG,2022-10-24T19:00:00Z,-23.48,-52.02,32.0,14.0,140,5,,6.21,29.88189,,,,,,,,,,,FEW,4500,,,,,,,VFR,,,,,,,,,,,,METAR,543.0
SBME 241900Z 15008KT 9999 SCT020 SCT030 BKN090 26/22 Q1014,SBME,2022-10-24T19:00:00Z,-22.35,-41.77,26.0,22.0,150,8,,6.21,29.940945,,,,,,,,,,,SCT,2000,SCT,3000,BKN,9000,,,VFR,,,,,,,,,,,,SPECI,2.0
SBMA 241900Z 35005KT 9999 SCT030 FEW033TCU 33/26 Q1006,SBMA,2022-10-24T19:00:00Z,-5.37,-49.13,33.0,26.0,350,5,,6.21,29.704725,,,,,,,,,,,SCT,3000,FEW,3300,,,,,VFR,,,,,,,,,,,,METAR,110.0
SBLS 241900Z VRB05KT 9999 VCSH SCT040 FEW045TCU 27/16 Q1015,SBLS,2022-10-24T19:00:00Z,-19.67,-43.88,27.0,16.0,0,5,,6.21,29.970472,,,,,,,,,,VCSH,SCT,4000,FEW,4500,,,,,VFR,,,,,,,,,,,,METAR,850.0
SBLO 241900Z 13005KT 9999 FEW040 32/13 Q1013,SBLO,2022-10-24T19:00:00Z,-23.33,-51.12,32.0,13.0,130,5,,6.21,29.911417,,,,,,,,,,,FEW,4000,,,,,,,VFR,,,,,,,,,,,,METAR,563.0
SBLE 241900Z AUTO 18007KT 140V240 9999 FEW046 29/20 Q1012,SBLE,2022-10-24T19:00:00Z,-12.48,-41.28,29.0,20.0,180,7,,6.21,29.88189,,,TRUE,,,,,,,,FEW,4600,,,,,,,VFR,,,,,,,,,,,,METAR,495.0
SBKP 241900Z 22011KT 180V250 9999 SCT040 31/12 Q1014,SBKP,2022-10-24T19:00:00Z,-23.0,-47.13,31.0,12.0,220,11,,6.21,29.940945,,,,,,,,,,,SCT,4000,,,,,,,VFR,,,,,,,,,,,,METAR,659.0
SBKG 241900Z 08016KT 9999 SCT028 27/20 Q1012,SBKG,2022-10-24T19:00:00Z,-7.27,-35.88,27.0,20.0,80,16,,6.21,29.88189,,,,,,,,,,,SCT,2800,,,,,,,VFR,,,,,,,,,,,,METAR,499.0
SBJV 241900Z 12009KT 9999 BKN018 22/18 Q1016,SBJV,2022-10-24T19:00:00Z,-26.22,-48.8,22.0,18.0,120,9,,6.21,30.0,,,,,,,,,,,BKN,1800,,,,,,,MVFR,,,,,,,,,,,,METAR,3.0
SBJU 241900Z 00000KT 9999 FEW022 35/16 Q1011,SBJU,2022-10-24T19:00:00Z,-7.22,-39.27,35.0,16.0,0,0,,6.21,29.852362,,,,,,,,,,,FEW,2200,,,,,,,VFR,,,,,,,,,,,,METAR,407.0
SBJR 241900Z 14009KT 9999 SCT020 BKN060 27/21 Q1014,SBJR,2022-10-24T19:00:00Z,-22.98,-43.37,27.0,21.0,140,9,,6.21,29.940945,,,,,,,,,,,SCT,2000,BKN,6000,,,,,VFR,,,,,,,,,,,,METAR,5.0
SBJP 241900Z 07011KT 040V100 9999 BKN025 27/23 Q1011,SBJP,2022-10-24T19:00:00Z,-7.15,-34.95,27.0,23.0,70,11,,6.21,29.852362,,,,,,,,,,,BKN,2500,,,,,,,MVFR,,,,,,,,,,,,METAR,66.0
SBJE 241900Z 05017KT 9999 SCT020 32/22 Q1008,SBJE,2022-10-24T19:00:00Z,-2.9,-40.35,32.0,22.0,50,17,,6.21,29.763779,,,,,,,,,,,SCT,2000,,,,,,,VFR,,,,,,,,,,,,METAR,25.0
SBIZ 241900Z 14004KT 9999 SCT030 35/22 Q1007,SBIZ,2022-10-24T19:00:00Z,-5.52,-47.45,35.0,22.0,140,4,,6.21,29.734253,,,,,,,,,,,SCT,3000,,,,,,,VFR,,,,,,,,,,,,METAR,131.0
SBIP 241900Z AUTO 01006KT 330V040 CAVOK 28/15 Q1013,SBIP,2022-10-24T19:00:00Z,-19.47,-42.48,28.0,15.0,10,6,,6.21,29.911417,,,TRUE,,,,,,,,CAVOK,,,,,,,,VFR,,,,,,,,,,,,METAR,240.0
SBIL 241900Z 22009KT 2000 RA BR SCT010 BKN015 OVC020 23/23 Q1013,SBIL,2022-10-24T19:00:00Z,-14.8,-39.02,23.0,23.0,220,9,,1.24,29.911417,,,,,,,,,,RA BR,SCT,1000,BKN,1500,OVC,2000,,,IFR,,,,,,,,,,,,METAR,9.0
SBIH 241900Z 04004KT 9999 SCT020 FEW023TCU 33/27 Q1006,SBIH,2022-10-24T19:00:00Z,-4.25,-56.0,33.0,27.0,40,4,,6.21,29.704725,,,,,,,,,,,SCT,2000,FEW,2300,,,,,VFR,,,,,,,,,,,,METAR,30.0
SBHT 241900Z 02003KT 9999 BKN030 33/23 Q1007,SBHT,2022-10-24T19:00:00Z,-3.25,-52.27,33.0,23.0,20,3,,6.21,29.734253,,,,,,,,,,,BKN,3000,,,,,,,MVFR,,,,,,,,,,,,METAR,105.0
SBGW 241900Z 15005KT 090V190 8000 TS BKN030 FEW035CB 24/16 Q1014,SBGW,2022-10-24T19:00:00Z,-22.78,-45.2,24.0,16.0,150,5,,4.97,29.940945,,,,,,,,,,TS,BKN,3000,FEW,3500,,,,,MVFR,,,,,,,,,,,,METAR,539.0
SBGR 241900Z 17010KT 9999 BKN017 21/16 Q1017,SBGR,2022-10-24T19:00:00Z,-23.42,-46.47,21.0,16.0,170,10,,6.21,30.029528,,,,,,,,,,,BKN,1700,,,,,,,MVFR,,,,,,,,,,,,METAR,745.0
SBGM 241900Z 20006KT 150V250 9000 SCT043 34/22 Q1007,SBGM,2022-10-24T19:00:00Z,-10.78,-65.28,34.0,22.0,200,6,,5.59,29.734253,,,,,,,,,,,SCT,4300,,,,,,,VFR,,,,,,,,,,,,METAR,147.0
SBGL 241900Z 13013KT 9999 FEW020 BKN046 24/19 Q1013,SBGL,2022-10-24T19:00:00Z,-22.82,-43.25,24.0,19.0,130,13,,6.21,29.911417,,,,,,,,,,,FEW,2000,BKN,4600,,,,,VFR,,,,,,,,,,,,METAR,3.0
SBFZ 241900Z 09012KT 9999 BKN025 28/23 Q1010,SBFZ,2022-10-24T19:00:00Z,-3.77,-38.52,28.0,23.0,90,12,,6.21,29.822834,,,,,,,,,,,BKN,2500,,,,,,,MVFR,,,,,,,,,,,,METAR,32.0
SBFS 241900Z 12011KT 9999 FEW020 SCT090 25/24 Q1014,SBFS,2022-10-24T19:00:00Z,-22.02,-41.07,25.0,24.0,120,11,,6.21,29.940945,,,,,,,,,,,FEW,2000,SCT,9000,,,,,VFR,,,,,,,,,,,,METAR,3.0
SBFN 241900Z AUTO 15006KT 010V180 9999 BKN018 27/23 Q1011,SBFN,2022-10-24T19:00:00Z,-3.85,-32.42,27.0,23.0,150,6,,6.21,29.852362,,,TRUE,,,,,,,,BKN,1800,,,,,,,MVFR,,,,,,,,,,,,METAR,52.0
SBFL 241900Z 14010KT 9999 BKN023 21/16 Q1017,SBFL,2022-10-24T19:00:00Z,-27.67,-48.53,21.0,16.0,140,10,,6.21,30.029528,,,,,,,,,,,BKN,2300,,,,,,,MVFR,,,,,,,,,,,,METAR,5.0
SBFI 241900Z 22004KT CAVOK 31/10 Q1012,SBFI,2022-10-24T19:00:00Z,-25.6,-54.48,31.0,10.0,220,4,,6.21,29.88189,,,,,,,,,,,CAVOK,,,,,,,,VFR,,,,,,,,,,,,METAR,233.0
SBES 241900Z 09009KT 070V130 9999 FEW020 SCT050 26/18 Q1014,SBES,2022-10-24T19:00:00Z,-22.82,-42.1,26.0,18.0,90,9,,6.21,29.940945,,,,,,,,,,,FEW,2000,SCT,5000,,,,,VFR,,,,,,,,,,,,METAR,16.0
SBDN 241900Z 22004KT CAVOK 32/10 Q1012,SBDN,2022-10-24T19:00:00Z,-22.18,-51.43,32.0,10.0,220,4,,6.21,29.88189,,,,,,,,,,,CAVOK,,,,,,,,VFR,,,,,,,,,,,,METAR,438.0
SBCZ 241900Z 03003KT 9999 BKN030 30/22 Q1010,SBCZ,2022-10-24T19:00:00Z,-7.58,-72.77,30.0,22.0,30,3,,6.21,29.822834,,,,,,,,,,,BKN,3000,,,,,,,MVFR,,,,,,,,,,,,METAR,193.0
SBCY 241900Z 13008KT 9999 SCT020 35/21 Q1007,SBCY,2022-10-24T19:00:00Z,-15.65,-56.12,35.0,21.0,130,8,,6.21,29.734253,,,,,,,,,,,SCT,2000,,,,,,,VFR,,,,,,,,,,,,METAR,182.0
SBCX 241900Z 21008KT 9999 FEW015 19/// Q1019,SBCX,2022-10-24T19:00:00Z,-29.2,-51.18,,,210,8,,6.21,30.088583,,,,,,,,,,,FEW,1500,,,,,,,VFR,,,,,,,,,,,,METAR,752.0
SBCT 241900Z 11010KT 9999 FEW006 SCT040 22/17 Q1017,SBCT,2022-10-24T19:00:00Z,-25.52,-49.17,22.0,17.0,110,10,,6.21,30.029528,,,,,,,,,,,FEW,600,SCT,4000,,,,,VFR,,,,,,,,,,,,METAR,914.0
SBCR 241900Z VRB04KT 9999 FEW040 35/18 Q1008,SBCR,2022-10-24T19:00:00Z,-19.0,-57.67,35.0,18.0,0,4,,6.21,29.763779,,,,,,,,,,,FEW,4000,,,,,,,VFR,,,,,,,,,,,,METAR,142.0
SBCP 241900Z 13010KT 9999 FEW020 SCT080 27/21 Q1013,SBCP,2022-10-24T19:00:00Z,-21.7,-41.3,27.0,21.0,130,10,,6.21,29.911417,,,,,,,,,,,FEW,2000,SCT,8000,,,,,VFR,,,,,,,,,,,,METAR,15.0
SBCO 241900Z 11013KT 9999 SCT040 24/15 Q1017,SBCO,2022-10-24T19:00:00Z,-29.95,-51.15,24.0,15.0,110,13,,6.21,30.029528,,,,,,,,,,,SCT,4000,,,,,,,VFR,,,,,,,,,,,,METAR,8.0
SBCJ 241900Z 01001KT 7000 FEW030 28/22 Q1012,SBCJ,2022-10-24T19:00:00Z,-6.12,-50.0,28.0,22.0,10,1,,4.35,29.88189,,,,,,,,,,,FEW,3000,,,,,,,MVFR,,,,,,,,,,,,METAR,634.0
SBCH 241900Z 21006KT CAVOK 27/07 Q1016,SBCH,2022-10-24T19:00:00Z,-27.13,-52.67,27.0,7.0,210,6,,6.21,30.0,,,,,,,,,,,CAVOK,,,,,,,,VFR,,,,,,,,,,,,METAR,639.0
SBCG 241900Z VRB03KT 9999 FEW045 33/13 Q1012,SBCG,2022-10-24T19:00:00Z,-20.47,-54.67,33.0,13.0,0,3,,6.21,29.88189,,,,,,,,,,,FEW,4500,,,,,,,VFR,,,,,,,,,,,,METAR,556.0
SBCF 241900Z 03006KT 9999 VCSH SCT040 FEW045TCU 26/15 Q1015,SBCF,2022-10-24T19:00:00Z,-19.63,-43.97,26.0,15.0,30,6,,6.21,29.970472,,,,,,,,,,VCSH,SCT,4000,FEW,4500,,,,,VFR,,,,,,,,,,,,METAR,825.0
SBCC 241900Z 19004KT 9999 SCT020 BKN100 22/21 Q1010,SBCC,2022-10-24T19:00:00Z,-9.33,-54.95,22.0,21.0,190,4,,6.21,29.822834,,,,,,,,,,,SCT,2000,BKN,10000,,,,,VFR,,,,,,,,,,,,METAR,540.0
SBCB 241900Z 10013KT 9999 SCT025 BKN040 25/19 Q1014,SBCB,2022-10-24T19:00:00Z,-22.92,-42.08,25.0,19.0,100,13,,6.21,29.940945,,,,,,,,,,,SCT,2500,BKN,4000,,,,,VFR,,,,,,,,,,,,METAR,3.0
SBCA 241900Z 21009KT 170V250 9999 FEW020 29/09 Q1015,SBCA,2022-10-24T19:00:00Z,-25.0,-53.5,29.0,9.0,210,9,,6.21,29.970472,,,,,,,,,,,FEW,2000,,,,,,,VFR,,,,,,,,,,,,METAR,753.0
SBBW 241900Z 00000KT 9999 SCT020 34/20 Q1009,SBBW,2022-10-24T19:00:00Z,-15.87,-52.38,34.0,20.0,0,0,,6.21,29.793306,,,,,,,,,,,SCT,2000,,,,,,,VFR,,,,,,,,,,,,METAR,354.0
SBBV 241900Z 19004KT 9999 SCT040 FEW045TCU SCT080 34/22 Q1008,SBBV,2022-10-24T19:00:00Z,2.85,-60.7,34.0,22.0,190,4,,6.21,29.763779,,,,,,,,,,,SCT,4000,FEW,4500,SCT,8000,,,VFR,,,,,,,,,,,,METAR,80.0
SBBU 241900Z 30006KT CAVOK 32/14 Q1013,SBBU,2022-10-24T19:00:00Z,-22.33,-49.07,32.0,14.0,300,6,,6.21,29.911417,,,,,,,,,,,CAVOK,,,,,,,,VFR,,,,,,,,,,,,METAR,616.0
SBBR 241900Z 11005KT 020V140 9999 SCT040 BKN100 27/17 Q1016,SBBR,2022-10-24T19:00:00Z,-15.87,-47.92,27.0,17.0,110,5,,6.21,30.0,,,,,,,,,,,SCT,4000,BKN,10000,,,,,VFR,,,,,,,,,,,,METAR,1051.0
SBBQ 241900Z 09008KT 050V120 9999 TS BKN030 FEW035CB 23/16 Q1018,SBBQ,2022-10-24T19:00:00Z,-21.25,-43.77,23.0,16.0,90,8,,6.21,30.059055,,,,,,,,,,TS,BKN,3000,FEW,3500,,,,,MVFR,,,,,,,,,,,,METAR,1106.0
SBBI 241900Z 11010KT 9999 SCT040 22/16 Q1017,SBBI,2022-10-24T19:00:00Z,-25.4,-49.23,22.0,16.0,110,10,,6.21,30.029528,,,,,,,,,,,SCT,4000,,,,,,,VFR,,,,,,,,,,,,METAR,928.0
SBBH 241900Z 06007KT 9999 FEW040 FEW045TCU 28/15 Q1014,SBBH,2022-10-24T19:00:00Z,-19.85,-43.95,28.0,15.0,60,7,,6.21,29.940945,,,,,,,,,,,FEW,4000,FEW,4500,,,,,VFR,,,,,,,,,,,,METAR,799.0
SBBE 241900Z 35009KT 9999 SCT048 30/24 Q1008,SBBE,2022-10-24T19:00:00Z,-1.37,-48.47,30.0,24.0,350,9,,6.21,29.763779,,,,,,,,,,,SCT,4800,,,,,,,VFR,,,,,,,,,,,,METAR,16.0
SBAT 241900Z 04004KT 9999 SCT040 FEW045TCU SCT090 32/24 Q1008,SBAT,2022-10-24T19:00:00Z,-9.87,-56.1,32.0,24.0,40,4,,6.21,29.763779,,,,,,,,,,,SCT,4000,FEW,4500,SCT,9000,,,VFR,,,,,,,,,,,,METAR,287.0
SBAR 241900Z 08014KT 9999 FEW013 28/23 Q1010,SBAR,2022-10-24T19:00:00Z,-10.98,-37.07,28.0,23.0,80,14,,6.21,29.822834,,,,,,,,,,,FEW,1300,,,,,,,VFR,,,,,,,,,,,,METAR,4.0
SBAN 241900Z 15010KT 110V180 9999 3000S TSRA BKN040 FEW045CB 24/18 Q1016,SBAN,2022-10-24T19:00:00Z,-16.22,-48.97,24.0,18.0,150,10,,6.21,30.0,,,,,,,,,,TSRA,BKN,4000,FEW,4500,,,,,VFR,,,,,,,,,,,,METAR,1131.0
SBAF 241900Z 24009KT 9999 FEW025 OVC045 25/// Q1014,SBAF,2022-10-24T19:00:00Z,-22.87,-43.38,,,240,9,,6.21,29.940945,,,,,,,,,,,FEW,2500,OVC,4500,,,,,VFR,,,,,,,,,,,,METAR,34.0
SAZS 241900Z 30021KT 9999 FEW049 BKN200 15/00 Q1015 RMK PP///,SAZS,2022-10-24T19:00:00Z,-41.15,-71.17,15.0,0.0,300,21,,6.21,29.970472,,,,,,,,,,,FEW,4900,BKN,20000,,,,,VFR,,,,,,,,,,,,SPECI,843.0
SAZN 241900Z 23005KT CAVOK 25/01 Q1012,SAZN,2022-10-24T19:00:00Z,-38.95,-68.15,25.0,1.0,230,5,,6.21,29.88189,,,,,,,,,,,CAVOK,,,,,,,,VFR,,,,,,,,,,,,METAR,273.0
SAZM 241900Z 07016KT CAVOK 19/14 Q1016 RMK PP///,SAZM,2022-10-24T19:00:00Z,-37.92,-57.57,19.0,14.0,70,16,,6.21,30.0,,,,,,,,,,,CAVOK,,,,,,,,VFR,,,,,,,,,,,,SPECI,17.0
SAWH 241900Z 33007KT 290V020 9999 FEW045 BKN080 10/M04 Q0995 RMK PP000,SAWH,2022-10-24T19:00:00Z,-54.85,-68.3,10.0,-4.0,330,7,,6.21,29.379921,,,,,,,,,,,FEW,4500,BKN,8000,,,,,VFR,,,,,,,,,,,,METAR,22.0
SAWG 241900Z 30020G30KT 8000 VCSH FEW015 SCT25 OVC100 16/M03 Q1000,SAWG,2022-10-24T19:00:00Z,-51.62,-69.27,16.0,-3.0,300,20,30,4.97,29.52756,,,,,,,,,,VCSH,FEW,1500,OVC,10000,,,,,MVFR,,,,,,,,,,,,SPECI,15.0
SAWE 241900Z 28022KT 9999 FEW048 11/00 Q0998 RMK PP000,SAWE,2022-10-24T19:00:00Z,-53.78,-67.75,11.0,0.0,280,22,,6.21,29.468504,,,,,,,,,,,FEW,4800,,,,,,,VFR,,,,,,,,,,,,SPECI,22.0
SAVC 241900Z 27020G30KT 9999 FEW045 23/M00 Q1007 RMK PP000,SAVC,2022-10-24T19:00:00Z,-45.78,-67.47,23.0,0.0,270,20,30,6.21,29.734253,,,,,,,,,,,FEW,4500,,,,,,,VFR,,,,,,,,,,,,SPECI,58.0
SASJ 241900Z 07013KT 030V100 9999 FEW050TCU 32/11 Q1011 RMK PP000,SASJ,2022-10-24T19:00:00Z,-24.38,-65.1,32.0,11.0,70,13,,6.21,29.852362,,,,,,,,,,,FEW,5000,,,,,,,VFR,,,,,,,,,,,,SPECI,913.0
SASA 241900Z VRB06KT 9999 FEW050 30/10 Q1013 RMK PP000,SASA,2022-10-24T19:00:00Z,-24.85,-65.48,30.0,10.0,0,6,,6.21,29.911417,,,,,,,,,,,FEW,5000,,,,,,,VFR,,,,,,,,,,,,SPECI,1235.0
SARP 241900Z 25005KT CAVOK 31/11 Q1013,SARP,2022-10-24T19:00:00Z,-27.38,-55.97,31.0,11.0,250,5,,6.21,29.911417,,,,,,,,,,,CAVOK,,,,,,,,VFR,,,,,,,,,,,,METAR,123.0
SARL 241900Z 05007KT CAVOK 28/13 Q1014,SARL,2022-10-24T19:00:00Z,-29.68,-57.15,28.0,13.0,50,7,,6.21,29.940945,,,,,,,,,,,CAVOK,,,,,,,,VFR,,,,,,,,,,,,METAR,70.0
SARI 241900Z 17005KT 120V230 CAVOK 31/12 Q1013 RMK PP000,SARI,2022-10-24T19:00:00Z,-25.73,-54.47,31.0,12.0,170,5,,6.21,29.911417,,,,,,,,,,,CAVOK,,,,,,,,VFR,,,,,,,,,,,,SPECI,268.0
SARF 241900Z 09007KT CAVOK 31/17 Q1011,SARF,2022-10-24T19:00:00Z,-26.22,-58.22,31.0,17.0,90,7,,6.21,29.852362,,,,,,,,,,,CAVOK,,,,,,,,VFR,,,,,,,,,,,,METAR,65.0
SARE 241900Z 08014KT CAVOK 32/12 Q1012 RMK PP///,SARE,2022-10-24T19:00:00Z,-27.43,-59.05,32.0,12.0,80,14,,6.21,29.88189,,,,,,,,,,,CAVOK,,,,,,,,VFR,,,,,,,,,,,,SPECI,52.0
SARC 241900Z 09008KT CAVOK 31/15 Q1012,SARC,2022-10-24T19:00:00Z,-27.43,-58.77,31.0,15.0,90,8,,6.21,29.88189,,,,,,,,,,,CAVOK,,,,,,,,VFR,,,,,,,,,,,,METAR,60.0
SAOC 241900Z 02017G28KT 9999 SCT030 30/12 Q1009,SAOC,2022-10-24T19:00:00Z,-33.08,-64.27,30.0,12.0,20,17,28,6.21,29.793306,,,,,,,,,,,SCT,3000,,,,,,,VFR,,,,,,,,,,,,METAR,422.0
SANT 241900Z 23007KT 180V280 9000 FEW090 34/15 Q1007 RMK PP000,SANT,2022-10-24T19:00:00Z,-26.85,-65.1,34.0,15.0,230,7,,5.59,29.734253,,,,,,,,,,,FEW,9000,,,,,,,VFR,,,,,,,,,,,,SPECI,446.0
SAME 241900Z 14005KT CAVOK 29/08 Q1009,SAME,2022-10-24T19:00:00Z,-32.82,-68.78,29.0,8.0,140,5,,6.21,29.793306,,,,,,,,,,,CAVOK,,,,,,,,VFR,,,,,,,,,,,,METAR,709.0
SAEZ 241900Z 03010KT CAVOK 25/09 Q1015 NOSIG RMK PP000,SAEZ,2022-10-24T19:00:00Z,-34.82,-58.53,25.0,9.0,30,10,,6.21,29.970472,,,,,,TRUE,,,,,CAVOK,,,,,,,,VFR,,,,,,,,,,,,SPECI,16.0
SADF 241900Z 07010KT CAVOK 24/14 Q1015 RMK PP000,SADF,2022-10-24T19:00:00Z,-34.45,-58.58,24.0,14.0,70,10,,6.21,29.970472,,,,,,,,,,,CAVOK,,,,,,,,VFR,,,,,,,,,,,,METAR,4.0
SACO 241900Z 04018KT 9999 FEW048 31/14 Q1010 NOSIG RMK PP000,SACO,2022-10-24T19:00:00Z,-31.32,-64.22,31.0,14.0,40,18,,6.21,29.822834,,,,,,TRUE,,,,,FEW,4800,,,,,,,VFR,,,,,,,,,,,,SPECI,474.0
SABE 241900Z 10011KT CAVOK 22/14 Q1016 NOSIG RMK PP000,SABE,2022-10-24T19:00:00Z,-34.57,-58.42,22.0,14.0,100,11,,6.21,30.0,,,,,,TRUE,,,,,CAVOK,,,,,,,,VFR,,,,,,,,,,,,SPECI,3.0
SAAR 241900Z 07010KT 040V120 CAVOK 29/13 Q1012 RMK PP000,SAAR,2022-10-24T19:00:00Z,-32.92,-60.77,29.0,13.0,70,10,,6.21,29.88189,,,,,,,,,,,CAVOK,,,,,,,,VFR,,,,,,,,,,,,SPECI,24.0
RPVM 241900Z 20003KT 9999 FEW018CB SCT300 25/24 Q1008 RMK A2977 CB/OCNL LTG NE-SE,RPVM,2022-10-24T19:00:00Z,10.32,123.98,25.0,24.0,200,3,,6.21,29.763779,,,,,,,,,,,FEW,1800,SCT,30000,,,,,VFR,,,,,,,,,,,,METAR,9.0
RPMD 241900Z 35003KT 9999 -SHRA SCT015 BKN090 OVC260 25/25 Q1008 RMK A2977,RPMD,2022-10-24T19:00:00Z,7.12,125.65,25.0,25.0,350,3,,6.21,29.763779,,,,,,,,,,-SHRA,SCT,1500,BKN,9000,OVC,26000,,,VFR,,,,,,,,,,,,METAR,19.0
RPLL 241900Z 33004KT 9999 FEW025 28/23 Q1008 NOSIG RMK A2977,RPLL,2022-10-24T19:00:00Z,14.52,121.0,28.0,23.0,330,4,,6.21,29.763779,,,,,,TRUE,,,,,FEW,2500,,,,,,,VFR,,,,,,,,,,,,METAR,15.0
RPLC 241900Z 25002KT 9999 SCT020 BKN300 27/22 Q1010 NOSIG RMK A2983,RPLC,2022-10-24T19:00:00Z,15.18,120.55,27.0,22.0,250,2,,6.21,29.822834,,,,,,TRUE,,,,,SCT,2000,BKN,30000,,,,,VFR,,,,,,,,,,,,METAR,138.0
RPLB 241900Z 06005KT 9999 FEW020 26/23 Q1009 NOSIG RMK A2980,RPLB,2022-10-24T19:00:00Z,14.8,120.27,26.0,23.0,60,5,,6.21,29.793306,,,,,,TRUE,,,,,FEW,2000,,,,,,,VFR,,,,,,,,,,,,METAR,19.0
ROYN 241900Z AUTO 03025KT 9999 SCT032 BKN060 23/18 Q1018,ROYN,2022-10-24T19:00:00Z,24.47,122.97,23.0,18.0,30,25,,6.21,30.059055,,,TRUE,,,,,,,,SCT,3200,BKN,6000,,,,,VFR,,,,,,,,,,,,METAR,21.0
RORY 241900Z AUTO 02014KT 9999 NSC 22/13 Q1017,RORY,2022-10-24T19:00:00Z,27.05,128.4,22.0,13.0,20,14,,6.21,30.029528,,,TRUE,,,,,,,,CLR,,,,,,,,VFR,,,,,,,,,,,,METAR,13.0
RORK 241900Z AUTO 36016KT 9999 FEW039 SCT043 23/15 Q1014,RORK,2022-10-24T19:00:00Z,25.93,131.32,23.0,15.0,360,16,,6.21,29.940945,,,TRUE,,,,,,,,FEW,3900,SCT,4300,,,,,VFR,,,,,,,,,,,,METAR,11.0
ROMD 241900Z AUTO 36014KT 9999 FEW038 SCT043 23/15 Q1014,ROMD,2022-10-24T19:00:00Z,25.83,131.25,23.0,15.0,360,14,,6.21,29.940945,,,TRUE,,,,,,,,FEW,3800,SCT,4300,,,,,VFR,,,,,,,,,,,,METAR,45.0
ROAH 241900Z AUTO 01020KT 9999 FEW039 SCT043 BKN050 22/14 Q1017 RMK A3003,ROAH,2022-10-24T19:00:00Z,26.18,127.65,22.0,14.0,10,20,,6.21,30.029528,,,TRUE,,,,,,,,FEW,3900,SCT,4300,BKN,5000,,,VFR,,,,,,,,,,,,METAR,6.0
RKTU 241900Z 12003KT CAVOK 02/01 Q1027,RKTU,2022-10-24T19:00:00Z,36.7,127.5,2.0,1.0,120,3,,6.21,30.324802,,,,,,,,,,,CAVOK,,,,,,,,VFR,,,,,,,,,,,,METAR,46.0
RKTN 241900Z 09001KT 9999 FEW050 06/02 Q1026,RKTN,2022-10-24T19:00:00Z,35.88,128.65,6.0,2.0,90,1,,6.21,30.295275,,,,,,,,,,,FEW,5000,,,,,,,VFR,,,,,,,,,,,,METAR,25.0
RKSS 241900Z 33003KT CAVOK 03/01 Q1027 NOSIG,RKSS,2022-10-24T19:00:00Z,37.55,126.78,3.0,1.0,330,3,,6.21,30.324802,,,,,,TRUE,,,,,CAVOK,,,,,,,,VFR,,,,,,,,,,,,METAR,18.0
RKSM 241900Z 26001KT 9999 SKC 05/02 A3034,RKSM,2022-10-24T19:00:00Z,37.43,127.12,5.0,2.0,260,1,,6.21,30.339567,,,,,,,,,,,SKC,,,,,,,,VFR,,,,,,,,,,,,METAR,18.0
RKPK 241900Z 34005KT 9999 FEW050 08/03 Q1025,RKPK,2022-10-24T19:00:00Z,35.17,128.93,8.0,3.0,340,5,,6.21,30.265747,,,,,,,,,,,FEW,5000,,,,,,,VFR,,,,,,,,,,,,METAR,3.0
RKPC 241900Z 04010KT 010V070 CAVOK 13/02 Q1024 NOSIG,RKPC,2022-10-24T19:00:00Z,33.5,126.48,13.0,2.0,40,10,,6.21,30.236221,,,,,,TRUE,,,,,CAVOK,,,,,,,,VFR,,,,,,,,,,,,METAR,23.0
RKNY 241900Z AUTO 26007KT 9999 ///060/// 08/04 Q1026,RKNY,2022-10-24T19:00:00Z,38.07,128.67,8.0,4.0,260,7,,6.21,30.295275,,,TRUE,,,,,,,,,,,,,,,,,,,,,,,,,,,,METAR,76.0
RKJB 241900Z AUTO 07003KT 9999 NCD 05/01 Q1026,RKJB,2022-10-24T19:00:00Z,34.98,126.38,5.0,1.0,70,3,,6.21,30.295275,,,TRUE,,,,,,,,CLR,,,,,,,,VFR,,,,,,,,,,,,METAR,16.0
RJTT 241900Z 36016KT 9999 FEW020 SCT045 BKN100 13/07 Q1016 NOSIG RMK 1CU020 3SC045 7AC100 A3000,RJTT,2022-10-24T19:00:00Z,35.55,139.77,13.0,7.0,360,16,,6.21,30.0,,,,,,TRUE,,,,,FEW,2000,SCT,4500,BKN,10000,,,VFR,,,,,,,,,,,,SPECI,5.0
RJSM 241900Z 35011KT 9999 -SHRA FEW010 SCT030 BKN050 08/05 Q1020,RJSM,2022-10-24T19:00:00Z,40.7,141.37,8.0,5.0,350,11,,6.21,30.11811,,,,,,,,,,-SHRA,FEW,1000,SCT,3000,BKN,5000,,,VFR,,,,,,,,,,,,METAR,31.0
RJOS 241900Z 28011KT 9999 -SHRA FEW012 BKN025 FEW025CB BKN050 11/09 Q1016,RJOS,2022-10-24T19:00:00Z,34.12,134.62,11.0,9.0,280,11,,6.21,30.0,,,,,,,,,,-SHRA,FEW,1200,BKN,2500,FEW,2500,BKN,5000,MVFR,,,,,,,,,,,,METAR,3.0
RJOO 241900Z AUTO 34008KT 9999 NSC 11/07 Q1015 RMK A2999,RJOO,2022-10-24T19:00:00Z,34.78,135.43,11.0,7.0,340,8,,6.21,29.970472,,,TRUE,,,,,,,,CLR,,,,,,,,VFR,,,,,,,,,,,,SPECI,11.0
RJOH 241900Z 25006KT 210V300 8000 -SHRA FEW008 SCT020 BKN045 11/09 Q1018,RJOH,2022-10-24T19:00:00Z,35.48,133.25,11.0,9.0,250,6,,4.97,30.059055,,,,,,,,,,-SHRA,FEW,800,SCT,2000,BKN,4500,,,MVFR,,,,,,,,,,,,METAR,6.0
RJNK 241900Z 06004KT 9999 SCT120 BKN150 10/05 Q1016,RJNK,2022-10-24T19:00:00Z,36.38,136.42,10.0,5.0,60,4,,6.21,30.0,,,,,,,,,,,SCT,12000,BKN,15000,,,,,VFR,,,,,,,,,,,,METAR,7.0
RJKI 241900Z AUTO 36016KT 9999 FEW045 21/11 Q1017,RJKI,2022-10-24T19:00:00Z,28.32,129.92,21.0,11.0,360,16,,6.21,30.029528,,,TRUE,,,,,,,,FEW,4500,,,,,,,VFR,,,,,,,,,,,,METAR,6.0
RJKA 241900Z AUTO 34010G20KT 290V010 9999 SCT046 OVC050 20/10 Q1017,RJKA,2022-10-24T19:00:00Z,28.42,129.72,20.0,10.0,340,10,20,6.21,30.029528,,,TRUE,,,,,,,,SCT,4600,OVC,5000,,,,,VFR,,,,,,,,,,,,METAR,7.0
RJGG 241900Z AUTO 36012KT 9999 NCD 13/06 Q1013 NOSIG,RJGG,2022-10-24T19:00:00Z,34.87,136.8,13.0,6.0,360,12,,6.21,29.911417,,,TRUE,,,TRUE,,,,,CLR,,,,,,,,VFR,,,,,,,,,,,,METAR,5.0
RJFR 241900Z 01017KT 9999 FEW020 SCT050 BKN100 12/08 Q1020,RJFR,2022-10-24T19:00:00Z,33.83,131.03,12.0,8.0,10,17,,6.21,30.11811,,,,,,,,,,,FEW,2000,SCT,5000,BKN,10000,,,VFR,,,,,,,,,,,,METAR,9.0
RJFF 241900Z AUTO 06003KT 320V100 9999 -RA FEW030 SCT038 BKN050 12/09 Q1020 BECMG 01015KT TEMPO 01015G25KT 4000 -SHRA BR RMK A3015,RJFF,2022-10-24T19:00:00Z,33.58,130.45,12.0,9.0,60,3,,6.21,30.11811,,,TRUE,,,,,,,-RA,FEW,3000,SCT,3800,BKN,5000,,,VFR,,,,,,,,,,,,METAR,7.0
RJDB 241900Z AUTO 02020KT 9999 FEW031 //////TCU 14/09 Q1020,RJDB,2022-10-24T19:00:00Z,33.75,129.78,14.0,9.0,20,20,,6.21,30.11811,,,TRUE,,,,,,,,FEW,3100,,,,,,,VFR,,,,,,,,,,,,METAR,13.0
RJCC 241900Z 33008KT 9999 FEW015 01/00 Q1023 RMK 1ST015 A3022,RJCC,2022-10-24T19:00:00Z,42.77,141.68,1.0,0.0,330,8,,6.21,30.206694,,,,,,,,,,,FEW,1500,,,,,,,VFR,,,,,,,,,,,,SPECI,19.0
RJBB 241900Z AUTO 04010KT 9999 NSC 14/08 Q1015 NOSIG,RJBB,2022-10-24T19:00:00Z,34.43,135.25,14.0,8.0,40,10,,6.21,29.970472,,,TRUE,,,TRUE,,,,,CLR,,,,,,,,VFR,,,,,,,,,,,,METAR,8.0
RJAH 241900Z 36008KT 9999 FEW030 BKN120 10/04 Q1015,RJAH,2022-10-24T19:00:00Z,36.17,140.42,10.0,4.0,360,8,,6.21,29.970472,,,,,,,,,,,FEW,3000,BKN,12000,,,,,VFR,,,,,,,,,,,,METAR,31.0
RJAA 241900Z AUTO 04007KT 010V090 9999 -RA FEW031 SCT034 BKN046 10/07 Q1016 NOSIG RMK A3000,RJAA,2022-10-24T19:00:00Z,35.77,140.38,10.0,7.0,40,7,,6.21,30.0,,,TRUE,,,TRUE,,,,-RA,FEW,3100,SCT,3400,BKN,4600,,,VFR,,,,,,,,,,,,SPECI,36.0
RCTP 241900Z 05017KT 9999 FEW015 SCT050 21/15 Q1019 NOSIG RMK A3010,RCTP,2022-10-24T19:00:00Z,25.07,121.22,21.0,15.0,50,17,,6.21,30.088583,,,,,,TRUE,,,,,FEW,1500,SCT,5000,,,,,VFR,,,,,,,,,,,,METAR,33.0
RCSS 241900Z 07008KT 040V100 9999 FEW020 SCT060 21/14 Q1020 NOSIG RMK A3012,RCSS,2022-10-24T19:00:00Z,25.07,121.55,21.0,14.0,70,8,,6.21,30.11811,,,,,,TRUE,,,,,FEW,2000,SCT,6000,,,,,VFR,,,,,,,,,,,,SPECI,8.0
RCNN 241900Z 00000KT 9999 FEW012 SCT080 19/14 Q1014 RMK A2997,RCNN,2022-10-24T19:00:00Z,22.93,120.2,19.0,14.0,0,0,,6.21,29.940945,,,,,,,,,,,FEW,1200,SCT,8000,,,,,VFR,,,,,,,,,,,,SPECI,15.0
RCMQ 241900Z 01012KT 9999 FEW012 BKN030 19/13 Q1015 RMK A3000,RCMQ,2022-10-24T19:00:00Z,24.27,120.62,19.0,13.0,10,12,,6.21,29.970472,,,,,,,,,,,FEW,1200,BKN,3000,,,,,MVFR,,,,,,,,,,,,SPECI,202.0
RCKH 241900Z 07003KT 9999 FEW012 BKN022 BKN035 24/19 Q1014 NOSIG RMK A2995,RCKH,2022-10-24T19:00:00Z,22.57,120.33,24.0,19.0,70,3,,6.21,29.940945,,,,,,TRUE,,,,,FEW,1200,BKN,2200,BKN,3500,,,MVFR,,,,,,,,,,,,METAR,6.0
PLCH 241900Z 11010KT 9999 FEW019 SCT041 28/22 Q1012,PLCH,2022-10-24T19:00:00Z,1.98,-157.35,28.0,22.0,110,10,,6.21,29.88189,,,,,,,,,,,FEW,1900,SCT,4100,,,,,VFR,,,,,,,,,,,,METAR,5.0
PHLI 241900Z 09014KT 10SM FEW055 OVC080 27/21 A3009 RMK AO2 T02670211,PHLI,2022-10-24T19:00:00Z,21.97,-159.33,26.7,21.1,90,14,,10.0,30.088583,,,,TRUE,,,,,,,FEW,5500,OVC,8000,,,,,VFR,,,,,,,,,,,,SPECI,32.0
OTHH 241900Z 05003KT 360V100 CAVOK 31/19 Q1012 NOSIG,OTHH,2022-10-24T19:00:00Z,25.27,51.6,31.0,19.0,50,3,,6.21,29.88189,,,,,,TRUE,,,,,CAVOK,,,,,,,,VFR,,,,,,,,,,,,METAR,3.0
OSLK 241900Z 04004KT CAVOK 20/15 Q1016,OSLK,2022-10-24T19:00:00Z,35.4,35.95,20.0,15.0,40,4,,6.21,30.0,,,,,,,,,,,CAVOK,,,,,,,,VFR,,,,,,,,,,,,METAR,47.0
OSDI 241900Z 02008KT CAVOK 18/07 Q1018,OSDI,2022-10-24T19:00:00Z,33.42,36.52,18.0,7.0,20,8,,6.21,30.059055,,,,,,,,,,,CAVOK,,,,,,,,VFR,,,,,,,,,,,,METAR,614.0
ORSU 241900Z 35004KT CAVOK 13/13 Q1019,ORSU,2022-10-24T19:00:00Z,35.57,45.32,13.0,13.0,350,4,,6.21,30.088583,,,,,,,,,,,CAVOK,,,,,,,,VFR,,,,,,,,,,,,METAR,760.0
ORMM 241900Z 10006KT 8000 NSC 25/20 Q1012 NOSIG ,ORMM,2022-10-24T19:00:00Z,30.53,47.67,25.0,20.0,100,6,,4.97,29.88189,,,,,,TRUE,,,,,CLR,,,,,,,,MVFR,,,,,,,,,,,,METAR,2.0
ORER 241900Z 01003KT CAVOK 17/05 Q1018,ORER,2022-10-24T19:00:00Z,36.23,43.97,17.0,5.0,10,3,,6.21,30.059055,,,,,,,,,,,CAVOK,,,,,,,,VFR,,,,,,,,,,,,METAR,399.0
ORBI 241900Z 32007KT CAVOK 22/11 Q1014 NOSIG,ORBI,2022-10-24T19:00:00Z,33.27,44.23,22.0,11.0,320,7,,6.21,29.940945,,,,,,TRUE,,,,,CAVOK,,,,,,,,VFR,,,,,,,,,,,,METAR,37.0
OPST 241900Z 00000KT 4000 FU NSC 19/14 Q1010 NOSIG 72%,OPST,2022-10-24T19:00:00Z,32.53,74.37,19.0,14.0,0,0,,2.49,29.822834,,,,,,TRUE,,,,FU,CLR,,,,,,,,IFR,,,,,,,,,,,,METAR,234.0
OPSK 241900Z 00000KT 4000 HZ NSC 23/18 Q1008 NOSIG,OPSK,2022-10-24T19:00:00Z,27.72,68.8,23.0,18.0,0,0,,2.49,29.763779,,,,,,TRUE,,,,HZ,CLR,,,,,,,,IFR,,,,,,,,,,,,METAR,62.0
OPPS 241900Z 23004KT 4000 HZ SCT100 FEW200 19/12 Q1011,OPPS,2022-10-24T19:00:00Z,33.98,71.52,19.0,12.0,230,4,,2.49,29.852362,,,,,,,,,,HZ,SCT,10000,FEW,20000,,,,,IFR,,,,,,,,,,,,METAR,356.0
OMSJ 241900Z 11003KT CAVOK 26/18 Q1012 NOSIG,OMSJ,2022-10-24T19:00:00Z,25.32,55.52,26.0,18.0,110,3,,6.21,29.88189,,,,,,TRUE,,,,,CAVOK,,,,,,,,VFR,,,,,,,,,,,,METAR,33.0
OMRK 241900Z 21002KT 6000 NSC 24/21 Q1012 A2991,OMRK,2022-10-24T19:00:00Z,25.62,55.93,24.0,21.0,210,2,,3.73,29.88189,,,,,,,,,,,CLR,,,,,,,,MVFR,,,,,,,,,,,,METAR,18.0
OMFJ 241900Z 21003KT 8000 NSC 29/22 Q1011 A2988,OMFJ,2022-10-24T19:00:00Z,25.1,56.32,29.0,22.0,210,3,,4.97,29.852362,,,,,,,,,,,CLR,,,,,,,,MVFR,,,,,,,,,,,,METAR,27.0
OMDW 241900Z 08006KT 8000 NSC 26/21 Q1013 NOSIG,OMDW,2022-10-24T19:00:00Z,24.9,55.17,26.0,21.0,80,6,,4.97,29.911417,,,,,,TRUE,,,,,CLR,,,,,,,,MVFR,,,,,,,,,,,,METAR,34.0
OMDB 241900Z 05003KT 360V120 CAVOK 31/18 Q1012 NOSIG,OMDB,2022-10-24T19:00:00Z,25.25,55.37,31.0,18.0,50,3,,6.21,29.88189,,,,,,TRUE,,,,,CAVOK,,,,,,,,VFR,,,,,,,,,,,,METAR,5.0
OMAL 241900Z 02007KT CAVOK 27/14 Q1014 BECMG 08006KT,OMAL,2022-10-24T19:00:00Z,24.25,55.6,27.0,14.0,20,7,,6.21,29.940945,,,,,,,,,,,CAVOK,,,,,,,,VFR,,,,,,,,,,,,METAR,247.0
OMAD 241900Z 04004KT 010V070 CAVOK 29/23 Q1012 NOSIG,OMAD,2022-10-24T19:00:00Z,24.42,54.47,29.0,23.0,40,4,,6.21,29.88189,,,,,,TRUE,,,,,CAVOK,,,,,,,,VFR,,,,,,,,,,,,METAR,9.0
OMAA 241900Z 05005KT CAVOK 28/22 Q1011 NOSIG,OMAA,2022-10-24T19:00:00Z,24.42,54.65,28.0,22.0,50,5,,6.21,29.852362,,,,,,TRUE,,,,,CAVOK,,,,,,,,VFR,,,,,,,,,,,,METAR,13.0
OLBA 241900Z 05005KT 360V130 9999 FEW030 24/18 Q1017 NOSIG,OLBA,2022-10-24T19:00:00Z,33.82,35.48,24.0,18.0,50,5,,6.21,30.029528,,,,,,TRUE,,,,,FEW,3000,,,,,,,VFR,,,,,,,,,,,,METAR,29.0
OKBK 241900Z 18006KT CAVOK 24/20 Q1012 NOSIG,OKBK,2022-10-24T19:00:00Z,29.22,47.97,24.0,20.0,180,6,,6.21,29.88189,,,,,,TRUE,,,,,CAVOK,,,,,,,,VFR,,,,,,,,,,,,METAR,55.0
OJAQ 241900Z 36008KT 9999 24/15 Q1012 NOSIG,OJAQ,2022-10-24T19:00:00Z,29.62,35.02,24.0,15.0,360,8,,6.21,29.88189,,,,,,TRUE,,,,,,,,,,,,,,,,,,,,,,,,,METAR,45.0
OJAM 241900Z 00000KT 5000 HZ NSC 20/11 Q1018 NOSIG,OJAM,2022-10-24T19:00:00Z,31.98,35.98,20.0,11.0,0,0,,3.11,30.059055,,,,,,TRUE,,,,HZ,CLR,,,,,,,,MVFR,,,,,,,,,,,,METAR,765.0
OJAI 241900Z 28006KT 5000 HZ NSC 17/11 Q1018 NOSIG,OJAI,2022-10-24T19:00:00Z,31.72,36.0,17.0,11.0,280,6,,3.11,30.059055,,,,,,TRUE,,,,HZ,CLR,,,,,,,,MVFR,,,,,,,,,,,,METAR,723.0
OIZI 241900Z 00000KT CAVOK 24/M00 Q1014,OIZI,2022-10-24T19:00:00Z,27.23,60.72,24.0,0.0,0,0,,6.21,29.940945,,,,,,,,,,,CAVOK,,,,,,,,VFR,,,,,,,,,,,,METAR,622.0
OIZH 241900Z 20004KT CAVOK 14/M05 Q1020 A3013,OIZH,2022-10-24T19:00:00Z,29.47,60.92,14.0,-5.0,200,4,,6.21,30.11811,,,,,,,,,,,CAVOK,,,,,,,,VFR,,,,,,,,,,,,METAR,1378.0
OIZB 241900Z 35008KT CAVOK 20/04 Q1014,OIZB,2022-10-24T19:00:00Z,31.1,61.55,20.0,4.0,350,8,,6.21,29.940945,,,,,,,,,,,CAVOK,,,,,,,,VFR,,,,,,,,,,,,METAR,483.0
OITL 241900Z 04004KT 9999 FEW045 09/05 Q1019,OITL,2022-10-24T19:00:00Z,38.33,48.42,9.0,5.0,40,4,,6.21,30.088583,,,,,,,,,,,FEW,4500,,,,,,,VFR,,,,,,,,,,,,METAR,1314.0
OISY 241900Z 00000KT CAVOK 13/M00 Q1025,OISY,2022-10-24T19:00:00Z,30.7,51.55,13.0,0.0,0,0,,6.21,30.265747,,,,,,,,,,,CAVOK,,,,,,,,VFR,,,,,,,,,,,,METAR,1800.0
OISL 241900Z 00000KT CAVOK 22/06 Q1015 A2998,OISL,2022-10-24T19:00:00Z,27.67,54.37,22.0,6.0,0,0,,6.21,29.970472,,,,,,,,,,,CAVOK,,,,,,,,VFR,,,,,,,,,,,,METAR,804.0
OISF 241900Z 35004KT CAVOK 16/M02 Q1020 A3014,OISF,2022-10-24T19:00:00Z,28.9,53.72,16.0,-2.0,350,4,,6.21,30.11811,,,,,,,,,,,CAVOK,,,,,,,,VFR,,,,,,,,,,,,METAR,1305.0
OISA 241900Z 33002KT CAVOK 11/M10 Q1025 A3028,OISA,2022-10-24T19:00:00Z,31.03,52.78,11.0,-10.0,330,2,,6.21,30.265747,,,,,,,,,,,CAVOK,,,,,,,,VFR,,,,,,,,,,,,METAR,1949.0
OINZ 241900Z 15006KT 8000 -RA BKN030 OVC080 19/18 Q1015,OINZ,2022-10-24T19:00:00Z,36.63,53.2,19.0,18.0,150,6,,4.97,29.970472,,,,,,,,,,-RA,BKN,3000,OVC,8000,,,,,MVFR,,,,,,,,,,,,METAR,8.0
OINR 241900Z 20002KT 8000 -SHRA FEW020CB SCT025 BKN080 19/17 Q1015,OINR,2022-10-24T19:00:00Z,36.9,50.67,19.0,17.0,200,2,,4.97,29.970472,,,,,,,,,,-SHRA,FEW,2000,SCT,2500,BKN,8000,,,MVFR,,,,,,,,,,,,METAR,-19.0
OINN 241900Z 26006KT 9999 FEW023CB BKN028 OVC090 19/17 Q1015,OINN,2022-10-24T19:00:00Z,36.67,51.47,19.0,17.0,260,6,,6.21,29.970472,,,,,,,,,,,FEW,2300,BKN,2800,OVC,9000,,,MVFR,,,,,,,,,,,,METAR,-25.0
OINK 241900Z AUTO 19003KT //// // ////// 21/13 Q1013,OINK,2022-10-24T19:00:00Z,37.25,55.1,21.0,13.0,190,3,,,29.911417,,,TRUE,,,,,,,,,,,,,,,,,,,,,,,,,,,,METAR,30.0
OING 241900Z 21004KT 9999 SCT020 FEW025CB OVC090 19/18 Q1018,OING,2022-10-24T19:00:00Z,36.9,54.4,19.0,18.0,210,4,,6.21,30.059055,,,,,,,,,,,SCT,2000,FEW,2500,OVC,9000,,,VFR,,,,,,,,,,,,METAR,0.0
OINB 241900Z 00000KT 9999 FEW020 SCT090 20/18 Q1014,OINB,2022-10-24T19:00:00Z,36.72,52.65,20.0,18.0,0,0,,6.21,29.940945,,,,,,,,,,,FEW,2000,SCT,9000,,,,,VFR,,,,,,,,,,,,METAR,-20.0
OIMT 241900Z AUTO 09002KT //// // ////// 22/M02 Q1013,OIMT,2022-10-24T19:00:00Z,33.67,56.88,22.0,-2.0,90,2,,,29.911417,,,TRUE,,,,,,,,,,,,,,,,,,,,,,,,,,,,METAR,693.0
OIMS 241900Z 04006KT CAVOK 17/08 Q1017,OIMS,2022-10-24T19:00:00Z,36.17,57.6,17.0,8.0,40,6,,6.21,30.029528,,,,,,,,,,,CAVOK,,,,,,,,VFR,,,,,,,,,,,,METAR,920.0
OIMN 241900Z 29016KT 9999 -SHRA FEW030CB SCT040 BKN100 16/09 Q1017,OIMN,2022-10-24T19:00:00Z,37.48,57.3,16.0,9.0,290,16,,6.21,30.029528,,,,,,,,,,-SHRA,FEW,3000,SCT,4000,BKN,10000,,,VFR,,,,,,,,,,,,METAR,1065.0
OIMJ 241900Z AUTO 01006KT //// // ////// 18/04 Q1016,OIMJ,2022-10-24T19:00:00Z,36.43,55.1,18.0,4.0,10,6,,,30.0,,,TRUE,,,,,,,,,,,,,,,,,,,,,,,,,,,,METAR,1285.0
OIMB 241900Z 00000KT CAVOK 13/M08 Q1020 A3014,OIMB,2022-10-24T19:00:00Z,32.9,59.28,13.0,-8.0,0,0,,6.21,30.11811,,,,,,,,,,,CAVOK,,,,,,,,VFR,,,,,,,,,,,,METAR,1512.0
OIKQ 241900Z 15004KT 7000 NSC 26/20 Q1010,OIKQ,2022-10-24T19:00:00Z,26.75,55.9,26.0,20.0,150,4,,4.35,29.822834,,,,,,,,,,,CLR,,,,,,,,MVFR,,,,,,,,,,,,METAR,9.0
OIKO 241900Z AUTO 00000KT //// // ////// 25/20 Q1012,OIKO,2022-10-24T19:00:00Z,27.1,57.07,25.0,20.0,0,0,,,29.88189,,,TRUE,,,,,,,,,,,,,,,,,,,,,,,,,,,,METAR,32.0
OIKK 241900Z 04004KT CAVOK 15/M07 Q1022 A3019,OIKK,2022-10-24T19:00:00Z,30.25,56.97,15.0,-7.0,40,4,,6.21,30.177166,,,,,,,,,,,CAVOK,,,,,,,,VFR,,,,,,,,,,,,METAR,1749.0
OIIS 241900Z 15002KT CAVOK 21/01 Q1016,OIIS,2022-10-24T19:00:00Z,35.38,53.67,21.0,1.0,150,2,,6.21,30.0,,,,,,,,,,,CAVOK,,,,,,,,VFR,,,,,,,,,,,,METAR,1115.0
OIIP 241900Z 32012KT 6000 -RA FEW030CB SCT040 OVC100 15/06 Q1018 A3007,OIIP,2022-10-24T19:00:00Z,35.78,50.83,15.0,6.0,320,12,,3.73,30.059055,,,,,,,,,,-RA,FEW,3000,SCT,4000,OVC,10000,,,MVFR,,,,,,,,,,,,METAR,1270.0
OIIK 241900Z 14002KT 9999 FEW040 BKN100 13/06 Q1020,OIIK,2022-10-24T19:00:00Z,36.25,50.05,13.0,6.0,140,2,,6.21,30.11811,,,,,,,,,,,FEW,4000,BKN,10000,,,,,VFR,,,,,,,,,,,,METAR,1278.0
OIHM 241900Z 30002KT 9999 FEW040 BKN190 13/03 Q1022,OIHM,2022-10-24T19:00:00Z,34.28,48.82,13.0,3.0,300,2,,6.21,30.177166,,,,,,,,,,,FEW,4000,BKN,19000,,,,,VFR,,,,,,,,,,,,METAR,1744.0
OIHH 241900Z 12006KT 9999 FEW040 11/03 Q1022 A3018,OIHH,2022-10-24T19:00:00Z,34.87,48.55,11.0,3.0,120,6,,6.21,30.177166,,,,,,,,,,,FEW,4000,,,,,,,VFR,,,,,,,,,,,,METAR,1742.0
OIGG 241900Z 00000KT 9999 FEW020CB BKN025 BKN080 17/16 Q1017,OIGG,2022-10-24T19:00:00Z,37.33,49.6,17.0,16.0,0,0,,6.21,30.029528,,,,,,,,,,,FEW,2000,BKN,2500,BKN,8000,,,MVFR,,,,,,,,,,,,METAR,-16.0
OIFS 241900Z 23004KT CAVOK 08/M13 Q1025,OIFS,2022-10-24T19:00:00Z,32.28,50.85,8.0,-13.0,230,4,,6.21,30.265747,,,,,,,,,,,CAVOK,,,,,,,,VFR,,,,,,,,,,,,METAR,2042.0
OIFK 241900Z 11004KT 5000 DU FEW040 BKN200 19/05 Q1019 A3011,OIFK,2022-10-24T19:00:00Z,33.9,51.58,19.0,5.0,110,4,,3.11,30.088583,,,,,,,,,,DU,FEW,4000,BKN,20000,,,,,MVFR,,,,,,,,,,,,METAR,1058.0
OICS 241900Z 20004KT 9999 SCT040 SCT080 12/08 Q1020 A3014,OICS,2022-10-24T19:00:00Z,35.25,47.02,12.0,8.0,200,4,,6.21,30.11811,,,,,,,,,,,SCT,4000,SCT,8000,,,,,VFR,,,,,,,,,,,,METAR,1369.0
OICK 241900Z 00000KT CAVOK 18/M01 Q1018,OICK,2022-10-24T19:00:00Z,33.43,48.28,18.0,-1.0,0,0,,6.21,30.059055,,,,,,,,,,,CAVOK,,,,,,,,VFR,,,,,,,,,,,,METAR,1156.0
OICI 241900Z 16004KT 9000 SCT040CB SCT045 BKN090 21/01 Q1022 A3018 RETS,OICI,2022-10-24T19:00:00Z,33.58,46.4,21.0,1.0,160,4,,5.59,30.177166,,,,,,,,,,,SCT,4000,SCT,4500,BKN,9000,,,VFR,,,,,,,,,,,,METAR,1323.0
OICC 241900Z 32012KT 9999 FEW045CB SCT050 BKN100 20/01 Q1020 A3015,OICC,2022-10-24T19:00:00Z,34.35,47.17,20.0,1.0,320,12,,6.21,30.11811,,,,,,,,,,,FEW,4500,SCT,5000,BKN,10000,,,VFR,,,,,,,,,,,,METAR,1310.0
OIBP 241900Z 00000KT CAVOK 24/20 Q1011 A2985,OIBP,2022-10-24T19:00:00Z,27.38,52.73,24.0,20.0,0,0,,6.21,29.852362,,,,,,,,,,,CAVOK,,,,,,,,VFR,,,,,,,,,,,,METAR,13.0
OIBK 241900Z 28006KT CAVOK 27/21 Q1011,OIBK,2022-10-24T19:00:00Z,26.53,53.98,27.0,21.0,280,6,,6.21,29.852362,,,,,,,,,,,CAVOK,,,,,,,,VFR,,,,,,,,,,,,METAR,27.0
OIBJ 241900Z AUTO VRB01KT //// // ////// 22/17 Q1016,OIBJ,2022-10-24T19:00:00Z,27.82,52.35,22.0,17.0,0,1,,,30.0,,,TRUE,,,,,,,,,,,,,,,,,,,,,,,,,,,,METAR,647.0
OIBB 241900Z 12004KT CAVOK 25/21 Q1011 A2988,OIBB,2022-10-24T19:00:00Z,28.93,50.83,25.0,21.0,120,4,,6.21,29.852362,,,,,,,,,,,CAVOK,,,,,,,,VFR,,,,,,,,,,,,METAR,15.0
OIAM 241900Z 00000KT CAVOK 25/21 Q1011,OIAM,2022-10-24T19:00:00Z,30.55,49.15,25.0,21.0,0,0,,6.21,29.852362,,,,,,,,,,,CAVOK,,,,,,,,VFR,,,,,,,,,,,,METAR,7.0
OIAH 241900Z 00000KT CAVOK 22/10 Q1017,OIAH,2022-10-24T19:00:00Z,30.33,50.83,22.0,10.0,0,0,,6.21,30.029528,,,,,,,,,,,CAVOK,,,,,,,,VFR,,,,,,,,,,,,METAR,730.0
OIAA 241900Z 13004KT 5000 HZ NSC 27/22 Q1011,OIAA,2022-10-24T19:00:00Z,30.35,48.22,27.0,22.0,130,4,,3.11,29.852362,,,,,,,,,,HZ,CLR,,,,,,,,MVFR,,,,,,,,,,,,METAR,4.0
OEYN 241900Z 27008KT CAVOK 28/21 Q1009 NOSIG,OEYN,2022-10-24T19:00:00Z,24.13,38.07,28.0,21.0,270,8,,6.21,29.793306,,,,,,TRUE,,,,,CAVOK,,,,,,,,VFR,,,,,,,,,,,,METAR,20.0
OEWJ 241900Z 33005KT CAVOK 26/18 Q1011 NOSIG,OEWJ,2022-10-24T19:00:00Z,26.18,36.47,26.0,18.0,330,5,,6.21,29.852362,,,,,,TRUE,,,,,CAVOK,,,,,,,,VFR,,,,,,,,,,,,METAR,8.0
OEWD 241900Z 12006KT CAVOK 25/08 Q1015 NOSIG,OEWD,2022-10-24T19:00:00Z,20.5,45.2,25.0,8.0,120,6,,6.21,29.970472,,,,,,TRUE,,,,,CAVOK,,,,,,,,VFR,,,,,,,,,,,,METAR,629.0
OETR 241900Z 06016KT CAVOK 20/11 Q1017 NOSIG,OETR,2022-10-24T19:00:00Z,31.7,38.73,20.0,11.0,60,16,,6.21,30.029528,,,,,,TRUE,,,,,CAVOK,,,,,,,,VFR,,,,,,,,,,,,METAR,854.0
OETF 241900Z 33006KT 8000 NSC 22/16 Q1022 NOSIG,OETF,2022-10-24T19:00:00Z,21.47,40.53,22.0,16.0,330,6,,4.97,30.177166,,,,,,TRUE,,,,,CLR,,,,,,,,MVFR,,,,,,,,,,,,METAR,1460.0
OETB 241900Z 33003KT CAVOK 24/04 Q1015 NOSIG,OETB,2022-10-24T19:00:00Z,28.37,36.62,24.0,4.0,330,3,,6.21,29.970472,,,,,,TRUE,,,,,CAVOK,,,,,,,,VFR,,,,,,,,,,,,METAR,770.0
OESK 241900Z 06010KT 6000 NSC 25/05 Q1018 NOSIG,OESK,2022-10-24T19:00:00Z,29.78,40.1,25.0,5.0,60,10,,3.73,30.059055,,,,,,TRUE,,,,,CLR,,,,,,,,MVFR,,,,,,,,,,,,METAR,671.0
OESH 241900Z 07007KT CAVOK 27/01 Q1016 NOSIG,OESH,2022-10-24T19:00:00Z,17.47,47.12,27.0,1.0,70,7,,6.21,30.0,,,,,,TRUE,,,,,CAVOK,,,,,,,,VFR,,,,,,,,,,,,METAR,720.0
OERR 241900Z 03011KT CAVOK 22/07 Q1016 NOSIG,OERR,2022-10-24T19:00:00Z,30.9,41.13,22.0,7.0,30,11,,6.21,30.0,,,,,,TRUE,,,,,CAVOK,,,,,,,,VFR,,,,,,,,,,,,METAR,554.0
OERK 241900Z 00000KT CAVOK 24/05 Q1017 NOSIG,OERK,2022-10-24T19:00:00Z,24.95,46.72,24.0,5.0,0,0,,6.21,30.029528,,,,,,TRUE,,,,,CAVOK,,,,,,,,VFR,,,,,,,,,,,,METAR,618.0
OERF 241900Z 00000KT CAVOK 25/M01 Q1013 NOSIG,OERF,2022-10-24T19:00:00Z,29.62,43.48,25.0,-1.0,0,0,,6.21,29.911417,,,,,,TRUE,,,,,CAVOK,,,,,,,,VFR,,,,,,,,,,,,METAR,441.0
OEPA 241900Z 15006KT CAVOK 27/05 Q1013 NOSIG,OEPA,2022-10-24T19:00:00Z,28.33,46.12,27.0,5.0,150,6,,6.21,29.911417,,,,,,TRUE,,,,,CAVOK,,,,,,,,VFR,,,,,,,,,,,,METAR,361.0
OENG 241900Z 09006KT CAVOK 24/03 Q1020 NOSIG,OENG,2022-10-24T19:00:00Z,17.62,44.42,24.0,3.0,90,6,,6.21,30.11811,,,,,,TRUE,,,,,CAVOK,,,,,,,,VFR,,,,,,,,,,,,METAR,1210.0
OEMN 241900Z 30004KT CAVOK 29/21 Q1014,OEMN,2022-10-24T19:00:00Z,,,29.0,21.0,300,4,,6.21,29.940945,,,,,,,,,,,CAVOK,,,,,,,,VFR,,,,,,,,,,,,METAR,
OEMA 241900Z 31003KT CAVOK 31/09 Q1015 NOSIG,OEMA,2022-10-24T19:00:00Z,24.55,39.7,31.0,9.0,310,3,,6.21,29.970472,,,,,,TRUE,,,,,CAVOK,,,,,,,,VFR,,,,,,,,,,,,METAR,639.0
OEKM 241900Z 24006KT 9999 SCT022 FEW025CB 18/12 Q1025 NOSIG,OEKM,2022-10-24T19:00:00Z,18.3,42.78,18.0,12.0,240,6,,6.21,30.265747,,,,,,TRUE,,,,,SCT,2200,FEW,2500,,,,,VFR,,,,,,,,,,,,METAR,2038.0
OEKJ 241900Z 17006KT CAVOK 27/M04 Q1018,OEKJ,2022-10-24T19:00:00Z,24.07,47.58,27.0,-4.0,170,6,,6.21,30.059055,,,,,,,,,,,CAVOK,,,,,,,,VFR,,,,,,,,,,,,METAR,487.0
OEJN 241900Z 34005KT CAVOK 29/21 Q1011 NOSIG,OEJN,2022-10-24T19:00:00Z,21.68,39.15,29.0,21.0,340,5,,6.21,29.852362,,,,,,TRUE,,,,,CAVOK,,,,,,,,VFR,,,,,,,,,,,,METAR,8.0
OEJB 241900Z AUTO 05008KT CAVOK 25/18 Q1012 NOSIG,OEJB,2022-10-24T19:00:00Z,27.05,49.4,25.0,18.0,50,8,,6.21,29.88189,,,TRUE,,,TRUE,,,,,CAVOK,,,,,,,,VFR,,,,,,,,,,,,METAR,6.0
OEHL 241900Z 24004KT CAVOK 24/M01 Q1017,OEHL,2022-10-24T19:00:00Z,27.43,41.68,24.0,-1.0,240,4,,6.21,30.029528,,,,,,,,,,,CAVOK,,,,,,,,VFR,,,,,,,,,,,,METAR,1002.0
OEGT 241900Z 00000KT CAVOK 21/08 Q1015 NOSIG,OEGT,2022-10-24T19:00:00Z,31.42,37.27,21.0,8.0,0,0,,6.21,29.970472,,,,,,TRUE,,,,,CAVOK,,,,,,,,VFR,,,,,,,,,,,,METAR,512.0
OEGS 241900Z 07003KT CAVOK 26/06 Q1015,OEGS,2022-10-24T19:00:00Z,26.3,43.77,26.0,6.0,70,3,,6.21,29.970472,,,,,,,,,,,CAVOK,,,,,,,,VFR,,,,,,,,,,,,METAR,647.0
OEGN 241900Z 10006KT CAVOK 30/21 Q1012 NOSIG,OEGN,2022-10-24T19:00:00Z,16.9,42.58,30.0,21.0,100,6,,6.21,29.88189,,,,,,TRUE,,,,,CAVOK,,,,,,,,VFR,,,,,,,,,,,,METAR,5.0
OEDR 241900Z 07004KT CAVOK 26/24 Q1011,OEDR,2022-10-24T19:00:00Z,26.27,50.17,26.0,24.0,70,4,,6.21,29.852362,,,,,,,,,,,CAVOK,,,,,,,,VFR,,,,,,,,,,,,METAR,17.0
OEDM 241900Z 09008KT CAVOK 24/M05 Q1017,OEDM,2022-10-24T19:00:00Z,24.45,44.12,24.0,-5.0,90,8,,6.21,30.029528,,,,,,,,,,,CAVOK,,,,,,,,VFR,,,,,,,,,,,,METAR,922.0
OEDF 241900Z 00000KT CAVOK 24/19 Q1012 NOSIG,OEDF,2022-10-24T19:00:00Z,26.43,49.82,24.0,19.0,0,0,,6.21,29.88189,,,,,,TRUE,,,,,CAVOK,,,,,,,,VFR,,,,,,,,,,,,METAR,15.0
OEBH 241900Z 09010KT CAVOK 24/04 Q1018 NOSIG,OEBH,2022-10-24T19:00:00Z,19.98,42.62,24.0,4.0,90,10,,6.21,30.059055,,,,,,TRUE,,,,,CAVOK,,,,,,,,VFR,,,,,,,,,,,,METAR,1167.0
OEBA 241900Z 12006KT CAVOK 23/08 Q1022 NOSIG,OEBA,2022-10-24T19:00:00Z,20.3,41.63,23.0,8.0,120,6,,6.21,30.177166,,,,,,TRUE,,,,,CAVOK,,,,,,,,VFR,,,,,,,,,,,,METAR,1659.0
OEAO 241900Z 00000KT CAVOK 28/08 Q1015 NOSIG,OEAO,2022-10-24T19:00:00Z,26.48,38.12,28.0,8.0,0,0,,6.21,29.970472,,,,,,TRUE,,,,,CAVOK,,,,,,,,VFR,,,,,,,,,,,,METAR,615.0
OEAH 241900Z 00000KT CAVOK 25/04 Q1013 NOSIG,OEAH,2022-10-24T19:00:00Z,25.28,49.48,25.0,4.0,0,0,,6.21,29.911417,,,,,,TRUE,,,,,CAVOK,,,,,,,,VFR,,,,,,,,,,,,METAR,180.0
OEAB 241900Z 00000KT 9999 FEW020 18/10 Q1026 NOSIG,OEAB,2022-10-24T19:00:00Z,18.23,42.65,18.0,10.0,0,0,,6.21,30.295275,,,,,,TRUE,,,,,FEW,2000,,,,,,,VFR,,,,,,,,,,,,METAR,2092.0
NSFA 241900Z 19006KT 9999 FEW018CB SCT022 BKN150 25/24 Q1011 RMK CB TO NE,NSFA,2022-10-24T19:00:00Z,-13.83,-172.0,25.0,24.0,190,6,,6.21,29.852362,,,,,,,,,,,FEW,1800,SCT,2200,BKN,15000,,,VFR,,,,,,,,,,,,METAR,6.0
NIUE 241900Z 18012KT 160V220 9999 SCT018 24/17 Q1011,NIUE,2022-10-24T19:00:00Z,-19.07,-169.92,24.0,17.0,180,12,,6.21,29.852362,,,,,,,,,,,SCT,1800,,,,,,,VFR,,,,,,,,,,,,METAR,22.0
NGTA 241900Z 08009KT 9999 SCT019 27/23 Q1010,NGTA,2022-10-24T19:00:00Z,1.37,173.13,27.0,23.0,80,9,,6.21,29.822834,,,,,,,,,,,SCT,1900,,,,,,,VFR,,,,,,,,,,,,METAR,8.0
NGFU 241900Z VRB02KT 9999 FEW018TCU SCT020 28/23 Q1010,NGFU,2022-10-24T19:00:00Z,-8.52,179.18,28.0,23.0,0,2,,6.21,29.822834,,,,,,,,,,,FEW,1800,SCT,2000,,,,,VFR,,,,,,,,,,,,METAR,2.0
NFTV 241900Z 17006KT 9999 FEW017 BKN040 24/17 Q1013,NFTV,2022-10-24T19:00:00Z,-18.58,-173.97,24.0,17.0,170,6,,6.21,29.911417,,,,,,,,,,,FEW,1700,BKN,4000,,,,,VFR,,,,,,,,,,,,METAR,71.0
NFTL 241900Z 08010KT 9999 FEW017 SCT300 23/11 Q1013 RMK DRY AIR 52?,NFTL,2022-10-24T19:00:00Z,-19.78,-174.33,23.0,11.0,80,10,,6.21,29.911417,,,,,,,,,,,FEW,1700,SCT,30000,,,,,VFR,,,,,,,,,,,,METAR,10.0
NFTF 241900Z 15012KT 9999 FEW016 22/12 Q1015 RMK DRY AIR 53?,NFTF,2022-10-24T19:00:00Z,-21.23,-175.15,22.0,12.0,150,12,,6.21,29.970472,,,,,,,,,,,FEW,1600,,,,,,,VFR,,,,,,,,,,,,METAR,38.0
NFNM 241900Z 13015KT 9999 SCT018 BKN048 26/17 Q////,NFNM,2022-10-24T19:00:00Z,-16.68,-179.87,26.0,17.0,130,15,,6.21,,,,,,,,,,,,SCT,1800,BKN,4800,,,,,VFR,,,,,,,,,,,,METAR,21.0
NFNL 241900Z 10010KT 9999 VCSH SCT026 BKN048 25/21 Q1012,NFNL,2022-10-24T19:00:00Z,-16.47,179.33,25.0,21.0,100,10,,6.21,29.88189,,,,,,,,,,VCSH,SCT,2600,BKN,4800,,,,,VFR,,,,,,,,,,,,METAR,17.0
NFNA 241900Z 13007KT 9999 -SHRA BKN018 BKN045 24/20 Q1012,NFNA,2022-10-24T19:00:00Z,-18.05,178.57,24.0,20.0,130,7,,6.21,29.88189,,,,,,,,,,-SHRA,BKN,1800,BKN,4500,,,,,MVFR,,,,,,,,,,,,METAR,6.0
NFFN 241900Z 12006KT 9999 -SHRA FEW028 SCT048 BKN110 23/19 Q1011 TEMPO 5000 SHRA BKN018,NFFN,2022-10-24T19:00:00Z,-17.75,177.45,23.0,19.0,120,6,,6.21,29.852362,,,,,,,,,,-SHRA,FEW,2800,SCT,4800,BKN,11000,,,VFR,,,,,,,,,,,,METAR,14.0
NCSW 241900Z AUTO 26004KT //// ////// 26/23 Q1011,NCSW,2022-10-24T19:00:00Z,,,26.0,23.0,260,4,,,29.852362,,,TRUE,,,,,,,,,,,,,,,,,,,,,,,,,,,,METAR,
NCRK 241900Z AUTO 35002KT //// ////// 28/22 Q1011,NCRK,2022-10-24T19:00:00Z,-10.02,-161.1,28.0,22.0,350,2,,,29.852362,,,TRUE,,,,,,,,,,,,,,,,,,,,,,,,,,,,METAR,7.0
NCPY 241900Z AUTO 03010KT //// ////// 28/23 Q1012,NCPY,2022-10-24T19:00:00Z,-9.02,-158.03,28.0,23.0,30,10,,,29.88189,,,TRUE,,,,,,,,,,,,,,,,,,,,,,,,,,,,METAR,2.0
NCPL 241900Z AUTO 27004KT //// ////// 25/23 Q1008,NCPL,2022-10-24T19:00:00Z,1.98,-157.48,25.0,23.0,270,4,,,29.763779,,,TRUE,,,,,,,,,,,,,,,,,,,,,,,,,,,,METAR,3.0
NCPK 241900Z AUTO NIL,NCPK,2022-10-24T19:00:00Z,-10.9,-165.83,,,,,,,,,,TRUE,,,,,,,,,,,,,,,,,,,,,,,,,,,,METAR,5.0
NCNS 241900Z AUTO 27002KT //// ////// 29/23 Q1012,NCNS,2022-10-24T19:00:00Z,,,29.0,23.0,270,2,,,29.88189,,,TRUE,,,,,,,,,,,,,,,,,,,,,,,,,,,,METAR,
NCMR 241900Z AUTO 32004KT //// ////// ///// Q1008,NCMR,2022-10-24T19:00:00Z,-19.85,-157.7,,,320,4,,,29.763779,,,TRUE,,,,,,,,,,,,,,,,,,,,,,,,,,,,METAR,8.0
NCMK 241900Z AUTO NIL,NCMK,2022-10-24T19:00:00Z,-20.15,-157.33,,,,,,,,,,TRUE,,,,,,,,,,,,,,,,,,,,,,,,,,,,METAR,13.0
NCMH 241900Z AUTO 36002KT //// ////// ///// Q1012,NCMH,2022-10-24T19:00:00Z,-10.38,-161.0,,,360,2,,,29.88189,,,TRUE,,,,,,,,,,,,,,,,,,,,,,,,,,,,METAR,1.0
NCMG 241900Z AUTO 33010KT //// ////// ///// Q////,NCMG,2022-10-24T19:00:00Z,-21.88,-157.9,,,330,10,,,,,,TRUE,,,,,,,,,,,,,,,,,,,,,,,,,,,,METAR,14.0
NCAT 241900Z AUTO 32008KT //// ////// ///// Q////,NCAT,2022-10-24T19:00:00Z,-19.97,-158.12,,,320,8,,,,,,TRUE,,,,,,,,,,,,,,,,,,,,,,,,,,,,METAR,11.0
NCAI 241900Z AUTO 01006KT //// ////// 24/22 Q1009,NCAI,2022-10-24T19:00:00Z,-18.82,-159.77,24.0,22.0,10,6,,,29.793306,,,TRUE,,,,,,,,,,,,,,,,,,,,,,,,,,,,METAR,7.0
MZBZ 241900Z 15006KT 9999 SCT028 31/25 A2990 Q1012 NOSIG,MZBZ,2022-10-24T19:00:00Z,17.53,-88.3,31.0,25.0,150,6,,6.21,29.88189,,,,,,TRUE,,,,,SCT,2800,,,,,,,VFR,,,,,,,,,,,,METAR,6.0
MYSM 241900Z AUTO 06011KT 030V090 9999 VCTS SCT021 //////CB 27/23 A2995,MYSM,2022-10-24T19:00:00Z,24.05,-74.52,27.0,23.0,60,11,,6.21,29.949802,,,TRUE,,,,,,,VCTS,SCT,2100,,,,,,,VFR,,,,,,,,,,,,METAR,5.0
MYNN 241900Z 06010KT 9999 SCT018TCU SCT120 28/20 A2999,MYNN,2022-10-24T19:00:00Z,25.03,-77.47,28.0,20.0,60,10,,6.21,29.991142,,,,,,,,,,,SCT,1800,SCT,12000,,,,,VFR,,,,,,,,,,,,METAR,5.0
MYGF 241900Z 03014KT 9999 SCT030 27/21 A3001,MYGF,2022-10-24T19:00:00Z,26.55,-78.7,27.0,21.0,30,14,,6.21,30.008858,,,,,,,,,,,SCT,3000,,,,,,,VFR,,,,,,,,,,,,METAR,2.0
MWCR 241900Z 05010KT 9999 FEW018 31/24 Q1012,MWCR,2022-10-24T19:00:00Z,19.3,-81.37,31.0,24.0,50,10,,6.21,29.88189,,,,,,,,,,,FEW,1800,,,,,,,VFR,,,,,,,,,,,,METAR,4.0
MWCB 241900Z 05005KT 9999 SCT018TCU 30/24 Q1013,MWCB,2022-10-24T19:00:00Z,19.68,-79.88,30.0,24.0,50,5,,6.21,29.911417,,,,,,,,,,,SCT,1800,,,,,,,VFR,,,,,,,,,,,,METAR,7.0
MTPP 241900Z 27009KT 9000 -RA SCT026CB SCT060 30/23 Q1010 A2984 RMK/CB/NNE/SE/SW,MTPP,2022-10-24T19:00:00Z,18.57,-72.3,30.0,23.0,270,9,,5.59,29.822834,,,,,,,,,,-RA,SCT,2600,SCT,6000,,,,,VFR,,,,,,,,,,,,METAR,36.0
MRPV 241900Z 29007KT 9999 SCT020 BKN180 23/19 A3004 NOSIG,MRPV,2022-10-24T19:00:00Z,9.95,-84.15,23.0,19.0,290,7,,6.21,30.041338,,,,,,TRUE,,,,,SCT,2000,BKN,18000,,,,,VFR,,,,,,,,,,,,METAR,998.0
MROC 241900Z 26007KT 9999 FEW020 SCT035 BKN130 23/21 A3005 NOSIG,MROC,2022-10-24T19:00:00Z,10.0,-84.22,23.0,21.0,260,7,,6.21,30.050198,,,,,,TRUE,,,,,FEW,2000,SCT,3500,BKN,13000,,,VFR,,,,,,,,,,,,METAR,900.0
MRLM 241900Z 06007KT 9999 FEW025 BKN220 28/25 A2986,MRLM,2022-10-24T19:00:00Z,9.97,-83.03,28.0,25.0,60,7,,6.21,29.861221,,,,,,,,,,,FEW,2500,BKN,22000,,,,,VFR,,,,,,,,,,,,SPECI,2.0
MRLB 241900Z 26010KT 9999 SCT040 30/26 A2984,MRLB,2022-10-24T19:00:00Z,10.6,-85.55,30.0,26.0,260,10,,6.21,29.840551,,,,,,,,,,,SCT,4000,,,,,,,VFR,,,,,,,,,,,,METAR,79.0
MPTO 241900Z 24007KT 8000 -TSRA SCT016CB BKN070 24/23 Q1011 TEMPO RA,MPTO,2022-10-24T19:00:00Z,9.05,-79.38,24.0,23.0,240,7,,4.97,29.852362,,,,,,,,,,-TSRA,SCT,1600,BKN,7000,,,,,MVFR,,,,,,,,,,,,METAR,7.0
MPSM 241900Z 05007KT 9999 FEW020 SCT080 29/24 Q1010,MPSM,2022-10-24T19:00:00Z,8.38,-80.13,29.0,24.0,50,7,,6.21,29.822834,,,,,,,,,,,FEW,2000,SCT,8000,,,,,VFR,,,,,,,,,,,,METAR,36.0
MPPA 241900Z 36008KT 3200 0500N +TSRA SCT012CB BKN070 23/23 Q1010,MPPA,2022-10-24T19:00:00Z,8.92,-79.6,23.0,23.0,360,8,,1.99,29.822834,,,,,,,,,,+TSRA,SCT,1200,BKN,7000,,,,,IFR,,,,,,,,,,,,METAR,1.0
MPDA 241900Z 22010KT 9999 SCT015TCU 30/25 Q1011,MPDA,2022-10-24T19:00:00Z,8.4,-82.43,30.0,25.0,220,10,,6.21,29.852362,,,,,,,,,,,SCT,1500,,,,,,,VFR,,,,,,,,,,,,METAR,15.0
MPBO 241900Z 05008KT 9999 FEW010 SCT020 SCT100 30/27 Q1010,MPBO,2022-10-24T19:00:00Z,9.35,-82.25,30.0,27.0,50,8,,6.21,29.822834,,,,,,,,,,,FEW,1000,SCT,2000,SCT,10000,,,VFR,,,,,,,,,,,,METAR,2.0
MNRS 241900Z 01004KT 9999 FEW012CB 31/25 Q1010 CB/E/S/SE,MNRS,2022-10-24T19:00:00Z,11.42,-85.82,31.0,25.0,10,4,,6.21,29.822834,,,,,,,,,,,FEW,1200,,,,,,,VFR,,,,,,,,,,,,METAR,53.0
MNPC 241900Z 09004KT 7000 SCT016 30/26 Q1010 HZ,MNPC,2022-10-24T19:00:00Z,14.05,-83.38,30.0,26.0,90,4,,4.35,29.822834,,,,,,,,,,HZ,SCT,1600,,,,,,,MVFR,,,,,,,,,,,,SPECI,10.0
MNMG 241900Z 11006KT 9999 TS FEW020CB SCT025 32/23 Q1010 A2983 CB/E/NE/SE NOSIG,MNMG,2022-10-24T19:00:00Z,12.15,-86.17,32.0,23.0,110,6,,6.21,29.822834,,,,,,TRUE,,,,TS,FEW,2000,SCT,2500,,,,,VFR,,,,,,,,,,,,METAR,59.0
MNJU 241900Z 08004KT 9999 SCT020TCU 32/24 Q1011 TCU/S/SE,MNJU,2022-10-24T19:00:00Z,12.08,-85.37,32.0,24.0,80,4,,6.21,29.852362,,,,,,,,,,,SCT,2000,,,,,,,VFR,,,,,,,,,,,,METAR,85.0
MNJG 241900Z 36004KT 9999 SCT020 25/19 Q1011,MNJG,2022-10-24T19:00:00Z,13.13,-86.02,25.0,19.0,360,4,,6.21,29.852362,,,,,,,,,,,SCT,2000,,,,,,,VFR,,,,,,,,,,,,SPECI,981.0
MNCH 241900Z 00000KT 9999 SCT025TCU 32/23 Q1011 TCU/N/NE,MNCH,2022-10-24T19:00:00Z,12.63,-87.13,32.0,23.0,0,0,,6.21,29.852362,,,,,,,,,,,SCT,2500,,,,,,,VFR,,,,,,,,,,,,METAR,70.0
MNBL 241900Z 10004KT 8000 VCRA FEW018CB 29/26 Q1011 CBRA/W/SW,MNBL,2022-10-24T19:00:00Z,12.0,-83.77,29.0,26.0,100,4,,4.97,29.852362,,,,,,,,,,VCRA RA,FEW,1800,,,,,,,MVFR,,,,,,,,,,,,METAR,10.0
MKJS 241900Z 06013KT 9999 FEW022 30/25 Q1011,MKJS,2022-10-24T19:00:00Z,18.5,-77.92,30.0,25.0,60,13,,6.21,29.852362,,,,,,,,,,,FEW,2200,,,,,,,VFR,,,,,,,,,,,,METAR,3.0
MKJP 241900Z 16011KT 9999 FEW018 FEW020CB 32/23 Q1011,MKJP,2022-10-24T19:00:00Z,17.93,-76.78,32.0,23.0,160,11,,6.21,29.852362,,,,,,,,,,,FEW,1800,FEW,2000,,,,,VFR,,,,,,,,,,,,METAR,3.0
MHYR 241900Z 27005KT 9999 SCT024TCU 29/20,MHYR,2022-10-24T19:00:00Z,15.13,-87.13,29.0,20.0,270,5,,6.21,,,,,,,,,,,,SCT,2400,,,,,,,VFR,,,,,,,,,,,,METAR,682.0
MHTR 241900Z 01003KT 9999 SCT028TCU 29/24,MHTR,2022-10-24T19:00:00Z,15.93,-85.93,29.0,24.0,10,3,,6.21,,,,,,,,,,,,SCT,2800,,,,,,,VFR,,,,,,,,,,,,METAR,3.0
MHTG 241900Z VRB05KT 9999 SCT034TCU 28/16 Q1017 A3003 NOSIG,MHTG,2022-10-24T19:00:00Z,14.07,-87.22,28.0,16.0,0,5,,6.21,30.029528,,,,,,TRUE,,,,,SCT,3400,,,,,,,VFR,,,,,,,,,,,,METAR,1001.0
MHTE 241900Z 36010KT 9999 SCT024TCU 30/23 Q1010 A2983,MHTE,2022-10-24T19:00:00Z,15.78,-87.48,30.0,23.0,360,10,,6.21,29.822834,,,,,,,,,,,SCT,2400,,,,,,,VFR,,,,,,,,,,,,METAR,7.0
MHSR 241900Z 35004KT 9999 BKN028TCU 29/18,MHSR,2022-10-24T19:00:00Z,14.78,-88.78,29.0,18.0,350,4,,6.21,,,,,,,,,,,,BKN,2800,,,,,,,MVFR,,,,,,,,,,,,METAR,1087.0
MHRO 241900Z 10007KT 9999 SCT034 30/23 Q1012 A2989 NOSIG,MHRO,2022-10-24T19:00:00Z,16.32,-86.53,30.0,23.0,100,7,,6.21,29.88189,,,,,,TRUE,,,,,SCT,3400,,,,,,,VFR,,,,,,,,,,,,METAR,6.0
MHPR 241900Z 01004KT 9999 SCT050 30/20 Q1016 A3000 NOSIG,MHPR,2022-10-24T19:00:00Z,14.38,-87.62,30.0,20.0,10,4,,6.21,30.0,,,,,,TRUE,,,,,SCT,5000,,,,,,,VFR,,,,,,,,,,,,METAR,628.0
MHPL 241900Z 05012KT 9999 BKN025TCU 28/24 Q1012,MHPL,2022-10-24T19:00:00Z,15.27,-83.78,28.0,24.0,50,12,,6.21,29.88189,,,,,,,,,,,BKN,2500,,,,,,,MVFR,,,,,,,,,,,,METAR,13.0
MHNO 241900Z 18008KT 9999 SCT040TCU 27/20,MHNO,2022-10-24T19:00:00Z,14.43,-89.18,27.0,20.0,180,8,,6.21,,,,,,,,,,,,SCT,4000,,,,,,,VFR,,,,,,,,,,,,METAR,790.0
MHLM 241900Z VRB03KT 9999 FEW028 32/23 Q1011 A2986 NOSIG,MHLM,2022-10-24T19:00:00Z,15.45,-87.93,32.0,23.0,0,3,,6.21,29.852362,,,,,,TRUE,,,,,FEW,2800,,,,,,,VFR,,,,,,,,,,,,METAR,32.0
MHLE 241900Z 05004KT 9999 SCT022TCU FEW024CB 21/17,MHLE,2022-10-24T19:00:00Z,14.28,-88.17,21.0,17.0,50,4,,6.21,,,,,,,,,,,,SCT,2200,FEW,2400,,,,,VFR,,,,,,,,,,,,METAR,1688.0
MHLC 241900Z 02005KT 9999 SCT028 29/24 Q1010 A2983 NOSIG,MHLC,2022-10-24T19:00:00Z,15.75,-86.85,29.0,24.0,20,5,,6.21,29.822834,,,,,,TRUE,,,,,SCT,2800,,,,,,,VFR,,,,,,,,,,,,METAR,13.0
MHGS 241900Z 36010KT 9999 FEW054TCU 29/20,MHGS,2022-10-24T19:00:00Z,14.57,-88.6,29.0,20.0,360,10,,6.21,,,,,,,,,,,,FEW,5400,,,,,,,VFR,,,,,,,,,,,,METAR,913.0
MHCH 241900Z 02004KT 9999 FEW030 34/25,MHCH,2022-10-24T19:00:00Z,13.32,-87.15,34.0,25.0,20,4,,6.21,,,,,,,,,,,,FEW,3000,,,,,,,VFR,,,,,,,,,,,,METAR,58.0
MHCA 241900Z 00000KT 9999 SCT028TCU 31/21,MHCA,2022-10-24T19:00:00Z,14.87,-85.78,31.0,21.0,0,0,,6.21,,,,,,,,,,,,SCT,2800,,,,,,,VFR,,,,,,,,,,,,METAR,386.0
MGZA 241900Z 05004KT 9999 FEW024 33/19 QFE986/4,MGZA,2022-10-24T19:00:00Z,14.97,-89.53,33.0,19.0,50,4,,6.21,,,,,,,,,,,,FEW,2400,,,,,,,VFR,,,,,,,,,,,,METAR,195.0
MGTU 241900Z 27006KT 9999 SCT018 32/22,MGTU,2022-10-24T19:00:00Z,,,32.0,22.0,270,6,,6.21,,,,,,,,,,,,SCT,1800,,,,,,,VFR,,,,,,,,,,,,METAR,
MGSJ 241900Z 15010KT 9999 SCT025CB BKN200 32/24 Q1013 A2991 CB SMC N,MGSJ,2022-10-24T19:00:00Z,13.93,-90.83,32.0,24.0,150,10,,6.21,29.911417,,,,,,,,,,,SCT,2500,BKN,20000,,,,,VFR,,,,,,,,,,,,METAR,7.0
MGRT 241900Z 21006KT 9999 SCT020 33/22 Q1014 A2994 VOL. SANTA MARIA Y SANTIAGUITO EN ACTIVIDAD,MGRT,2022-10-24T19:00:00Z,14.53,-91.7,33.0,22.0,210,6,,6.21,29.940945,,,,,,,,,,SA SA,SCT,2000,,,,,,,VFR,,,,,,,,,,,,METAR,209.0
MGQZ 241900Z 14008KT 9999 FEW020 21/14 QFE773/1,MGQZ,2022-10-24T19:00:00Z,14.87,-91.5,21.0,14.0,140,8,,6.21,,,,,,,,,,,,FEW,2000,,,,,,,VFR,,,,,,,,,,,,METAR,2378.0
MGPB 241900Z 36008KT 9999 SCT018 30/25 Q1011 A2985,MGPB,2022-10-24T19:00:00Z,15.73,-88.58,30.0,25.0,360,8,,6.21,29.852362,,,,,,,,,,,SCT,1800,,,,,,,VFR,,,,,,,,,,,,METAR,6.0
MGMT 241900Z 18004KT 9999 FEW014TCU 33/26 TCU E,MGMT,2022-10-24T19:00:00Z,,,33.0,26.0,180,4,,6.21,,,,,,,,,,,,FEW,1400,,,,,,,VFR,,,,,,,,,,,,METAR,
MGMM 241900Z 32004KT 9999 SCT026 31/24 Q1012 A2988,MGMM,2022-10-24T19:00:00Z,16.9,-89.87,31.0,24.0,320,4,,6.21,29.88189,,,,,,,,,,,SCT,2600,,,,,,,VFR,,,,,,,,,,,,METAR,105.0
MGHT 241900Z 00000KT 9999 SCT038 26/13,MGHT,2022-10-24T19:00:00Z,15.32,-91.5,26.0,13.0,0,0,,6.21,,,,,,,,,,,,SCT,3800,,,,,,,VFR,,,,,,,,,,,,METAR,1875.0
MGGT 241900Z 21012KT 9999 SCT020TCU 26/17 Q1020 A3012 TCU N/NE/WSW,MGGT,2022-10-24T19:00:00Z,14.58,-90.53,26.0,17.0,210,12,,6.21,30.11811,,,,,,,,,,,SCT,2000,,,,,,,VFR,,,,,,,,,,,,METAR,1497.0
MGES 241900Z 09004KT 9999 BKN020TCU 30/17 QFE909.6 TCU N/SE/SSE/NW,MGES,2022-10-24T19:00:00Z,14.57,-89.32,30.0,17.0,90,4,,6.21,,,,,,,,,,,,BKN,2000,,,,,,,MVFR,,,,,,,,,,,,METAR,948.0
MGCB 241900Z 07006KT 9999 SCT018 28/18 QFE869.2,MGCB,2022-10-24T19:00:00Z,15.48,-90.42,28.0,18.0,70,6,,6.21,,,,,,,,,,,,SCT,1800,,,,,,,VFR,,,,,,,,,,,,METAR,1323.0
MDST 241900Z 14008KT 9999 FEW022 BKN300 32/22 Q1012,MDST,2022-10-24T19:00:00Z,19.4,-70.6,32.0,22.0,140,8,,6.21,29.88189,,,,,,,,,,,FEW,2200,BKN,30000,,,,,VFR,,,,,,,,,,,,METAR,175.0
MDSD 241900Z 16006KT 9999 FEW023 BKN300 32/24 Q1012,MDSD,2022-10-24T19:00:00Z,18.42,-69.67,32.0,24.0,160,6,,6.21,29.88189,,,,,,,,,,,FEW,2300,BKN,30000,,,,,VFR,,,,,,,,,,,,METAR,18.0
MDPP 241900Z 10008KT 9999 FEW023 SCT300 32/25 Q1010,MDPP,2022-10-24T19:00:00Z,19.75,-70.57,32.0,25.0,100,8,,6.21,29.822834,,,,,,,,,,,FEW,2300,SCT,30000,,,,,VFR,,,,,,,,,,,,METAR,9.0
MDPC 241900Z 11008KT 9999 FEW024 BKN300 30/23 Q1012,MDPC,2022-10-24T19:00:00Z,18.57,-68.37,30.0,23.0,110,8,,6.21,29.88189,,,,,,,,,,,FEW,2400,BKN,30000,,,,,VFR,,,,,,,,,,,,METAR,10.0
MDLR 241900Z 17006KT 9999 FEW018 BKN300 32/27 Q1011,MDLR,2022-10-24T19:00:00Z,18.45,-68.92,32.0,27.0,170,6,,6.21,29.852362,,,,,,,,,,,FEW,1800,BKN,30000,,,,,VFR,,,,,,,,,,,,METAR,66.0
MDJB 241900Z 18005KT 9999 FEW016CB BKN020 30/22 Q1012 CB/E/SE,MDJB,2022-10-24T19:00:00Z,18.57,-69.98,30.0,22.0,180,5,,6.21,29.88189,,,,,,,,,,,FEW,1600,BKN,2000,,,,,MVFR,,,,,,,,,,,,METAR,24.0
MDCY 241900Z 06004KT 9999 FEW020CB FEW022 BKN300 29/24 Q1011,MDCY,2022-10-24T19:00:00Z,19.27,-69.73,29.0,24.0,60,4,,6.21,29.852362,,,,,,,,,,,FEW,2000,FEW,2200,BKN,30000,,,VFR,,,,,,,,,,,,METAR,4.0
MDBH 241900Z 13016KT 9999 FEW020CB FEW026 SCT070 31/25 Q1012 CB/SW/NW,MDBH,2022-10-24T19:00:00Z,18.25,-71.12,31.0,25.0,130,16,,6.21,29.88189,,,,,,,,,,,FEW,2000,FEW,2600,SCT,7000,,,VFR,,,,,,,,,,,,METAR,7.0
MDAB 241900Z 09006KT 9999 FEW020CB SCT022 SCT300 31/26 Q1012 CB/SW,MDAB,2022-10-24T19:00:00Z,19.2,-69.43,31.0,26.0,90,6,,6.21,29.88189,,,,,,,,,,,FEW,2000,SCT,2200,SCT,30000,,,VFR,,,,,,,,,,,,METAR,28.0
MBPV 241900Z 04004KT 9000 FEW008 BKN020 23/21 Q1012,MBPV,2022-10-24T19:00:00Z,21.77,-72.27,23.0,21.0,40,4,,5.59,29.88189,,,,,,,,,,,FEW,800,BKN,2000,,,,,MVFR,,,,,,,,,,,,SPECI,7.0
MBGT 241900Z 00000KT 9999 SCT015TCU SCT040 29/21 Q1013,MBGT,2022-10-24T19:00:00Z,21.43,-71.15,29.0,21.0,0,0,,6.21,29.911417,,,,,,,,,,,SCT,1500,SCT,4000,,,,,VFR,,,,,,,,,,,,METAR,6.0
LWOH 241900Z 34002KT CAVOK 09/07 Q1024,LWOH,2022-10-24T19:00:00Z,41.18,20.75,9.0,7.0,340,2,,6.21,30.236221,,,,,,,,,,,CAVOK,,,,,,,,VFR,,,,,,,,,,,,METAR,700.0
LRTZ 241900Z 18004KT 9999 FEW200 14/11 Q1020 BLU BLU,LRTZ,2022-10-24T19:00:00Z,43.98,28.62,14.0,11.0,180,4,,6.21,30.11811,,,,,,,,,,,FEW,20000,,,,,,,VFR,,,,,,,,,,,,METAR,45.0
LRFT 241900Z 14006KT 9999 FEW200 12/07 Q1020 BLU BLU,LRFT,2022-10-24T19:00:00Z,44.38,27.72,12.0,7.0,140,6,,6.21,30.11811,,,,,,,,,,,FEW,20000,,,,,,,VFR,,,,,,,,,,,,METAR,54.0
LRCT 241900Z 23002KT 9000 FEW200 10/08 Q1019 BLU BLU,LRCT,2022-10-24T19:00:00Z,46.5,23.88,10.0,8.0,230,2,,5.59,30.088583,,,,,,,,,,,FEW,20000,,,,,,,VFR,,,,,,,,,,,,METAR,324.0
LRBO 241900Z 25010KT 9999 FEW170 14/07 Q1019 BLU BLU,LRBO,2022-10-24T19:00:00Z,45.22,26.97,14.0,7.0,250,10,,6.21,30.088583,,,,,,,,,,,FEW,17000,,,,,,,VFR,,,,,,,,,,,,METAR,104.0
LQMO 241900Z VRB02KT CAVOK 17/12 Q1019,LQMO,2022-10-24T19:00:00Z,43.28,17.83,17.0,12.0,0,2,,6.21,30.088583,,,,,,,,,,,CAVOK,,,,,,,,VFR,,,,,,,,,,,,METAR,49.0
LPMT 241900Z 13004KT 9999 SCT025 18/15 Q1015,LPMT,2022-10-24T19:00:00Z,38.7,-9.05,18.0,15.0,130,4,,6.21,29.970472,,,,,,,,,,,SCT,2500,,,,,,,VFR,,,,,,,,,,,,METAR,4.0
LPMR 241900Z 12004KT 9999 FEW020 SCT030 19/15 Q1014,LPMR,2022-10-24T19:00:00Z,39.82,-8.88,19.0,15.0,120,4,,6.21,29.940945,,,,,,,,,,,FEW,2000,SCT,3000,,,,,VFR,,,,,,,,,,,,METAR,50.0
LPLA 241900Z /////KT 9999 FEW022 BKN040 17/14 Q1012,LPLA,2022-10-24T19:00:00Z,38.77,-27.1,17.0,14.0,,,,6.21,29.88189,,,,,,,,,,,FEW,2200,BKN,4000,,,,,VFR,,,,,,,,,,,,METAR,60.0
LPBJ 241900Z 10006KT 9999 FEW022 19/16 Q1016,LPBJ,2022-10-24T19:00:00Z,38.08,-7.93,19.0,16.0,100,6,,6.21,30.0,,,,,,,,,,,FEW,2200,,,,,,,VFR,,,,,,,,,,,,METAR,196.0
LKLN 241900Z AUTO 23009KT 210V270 9999 SCT041 BKN048 BKN084 14/11 Q1017,LKLN,2022-10-24T19:00:00Z,49.68,13.27,14.0,11.0,230,9,,6.21,30.029528,,,TRUE,,,,,,,,SCT,4100,BKN,4800,BKN,8400,,,VFR,,,,,,,,,,,,METAR,353.0
LKKV 241900Z 21004KT 9999 BKN016 OVC023 12/11 Q1016,LKKV,2022-10-24T19:00:00Z,50.2,12.92,12.0,11.0,210,4,,6.21,30.0,,,,,,,,,,,BKN,1600,OVC,2300,,,,,MVFR,,,,,,,,,,,,METAR,600.0
LKKB 241900Z 19007KT CAVOK 14/12 Q1015 NOSIG,LKKB,2022-10-24T19:00:00Z,50.12,14.53,14.0,12.0,190,7,,6.21,29.970472,,,,,,TRUE,,,,,CAVOK,,,,,,,,VFR,,,,,,,,,,,,METAR,281.0
LFHP 241900Z AUTO 25004KT CAVOK 13/07 Q1020,LFHP,2022-10-24T19:00:00Z,45.07,3.77,13.0,7.0,250,4,,6.21,30.11811,,,TRUE,,,,,,,,CAVOK,,,,,,,,VFR,,,,,,,,,,,,METAR,829.0
LFBF 241900Z AUTO 16002KT CAVOK 19/11 Q1018,LFBF,2022-10-24T19:00:00Z,43.53,1.37,19.0,11.0,160,2,,6.21,30.059055,,,TRUE,,,,,,,,CAVOK,,,,,,,,VFR,,,,,,,,,,,,METAR,159.0
LETO 241900Z 36004KT CAVOK 15/13 Q1020 NOSIG,LETO,2022-10-24T19:00:00Z,40.48,-3.47,15.0,13.0,360,4,,6.21,30.11811,,,,,,TRUE,,,,,CAVOK,,,,,,,,VFR,,,,,,,,,,,,METAR,598.0
LEBZ 241900Z 07003KT CAVOK 19/16 Q1017,LEBZ,2022-10-24T19:00:00Z,38.87,-6.82,19.0,16.0,70,3,,6.21,30.029528,,,,,,,,,,,CAVOK,,,,,,,,VFR,,,,,,,,,,,,METAR,183.0
LBPL 241900Z 04004KT 9999 SKC 16/09 Q1020,LBPL,2022-10-24T19:00:00Z,43.45,24.5,16.0,9.0,40,4,,6.21,30.11811,,,,,,,,,,,SKC,,,,,,,,VFR,,,,,,,,,,,,METAR,93.0
LBPG 241900Z 29002KT 9999 SKC 14/07 Q1020,LBPG,2022-10-24T19:00:00Z,42.28,24.72,14.0,7.0,290,2,,6.21,30.11811,,,,,,,,,,,SKC,,,,,,,,VFR,,,,,,,,,,,,METAR,198.0
LBIA 241900Z 07004KT 9999 SKC 15/06 Q1020,LBIA,2022-10-24T19:00:00Z,42.45,26.35,15.0,6.0,70,4,,6.21,30.11811,,,,,,,,,,,SKC,,,,,,,,VFR,,,,,,,,,,,,METAR,155.0
KPOU 241900Z 34006KT 10SM OVC006 14/13 A3016 RMK AO2 T01440128,KPOU,2022-10-24T19:00:00Z,41.63,-73.88,14.4,12.8,340,6,,10.0,30.159449,,,,TRUE,,,,,,,OVC,600,,,,,,,IFR,,,,,,,,,,,,METAR,45.0
KNEL 241900Z AUTO VRB03KT 1 1/4SM BR OVC003 16/16 A3010 RMK AO2 SLP190 T01610156 PNO $,KNEL,2022-10-24T19:00:00Z,40.03,-74.33,16.1,15.6,0,3,,1.25,30.100393,1019.0,,TRUE,TRUE,TRUE,,,,,BR,OVC,300,,,,,,,LIFR,,,,,,,,,,,,METAR,26.0
KIDA 241900Z 21019KT 10SM BKN022 04/M03 A3012 RMK AO2 T00391033,KIDA,2022-10-24T19:00:00Z,43.52,-112.07,3.9,-3.3,210,19,,10.0,30.121063,,,,TRUE,,,,,,,BKN,2200,,,,,,,MVFR,,,,,,,,,,,,METAR,1444.0
KICT 241900Z 01014G21KT 10SM SCT009 BKN011 OVC040 10/08 A2974 RMK AO2 T01000078,KICT,2022-10-24T19:00:00Z,37.65,-97.43,10.0,7.8,10,14,21,10.0,29.740158,,,,TRUE,,,,,,,SCT,900,BKN,1100,OVC,4000,,,MVFR,,,,,,,,,,,,METAR,428.0
KDTO 241900Z AUTO 11005KT 10SM -RA OVC085 17/16 A2974,KDTO,2022-10-24T19:00:00Z,33.2,-97.2,17.0,16.0,110,5,,10.0,29.740158,,,TRUE,,,,,,,-RA,OVC,8500,,,,,,,VFR,,,,,,,,,,,,METAR,199.0
HUEN 241900Z 35005KT 9999 FEW021 FEW023CB 23/17 Q1015,HUEN,2022-10-24T19:00:00Z,0.03,32.45,23.0,17.0,350,5,,6.21,29.970472,,,,,,,,,,,FEW,2100,FEW,2300,,,,,VFR,,,,,,,,,,,,METAR,1147.0
HTZA 241900Z 09007KT 9999 FEW018 25/22 Q1014 NOSIG,HTZA,2022-10-24T19:00:00Z,-6.22,39.22,25.0,22.0,90,7,,6.21,29.940945,,,,,,TRUE,,,,,FEW,1800,,,,,,,VFR,,,,,,,,,,,,METAR,19.0
HTMW 241900Z 00000KT 9999 FEW020 22/19 Q1014 NOSIG,HTMW,2022-10-24T19:00:00Z,-2.43,32.92,22.0,19.0,0,0,,6.21,29.940945,,,,,,TRUE,,,,,FEW,2000,,,,,,,VFR,,,,,,,,,,,,METAR,1144.0
HTKJ 241900Z 11013KT 9999 FEW030 26/15 Q1017 NOSIG,HTKJ,2022-10-24T19:00:00Z,-3.42,37.07,26.0,15.0,110,13,,6.21,30.029528,,,,,,TRUE,,,,,FEW,3000,,,,,,,VFR,,,,,,,,,,,,METAR,893.0
HTDA 241900Z 10004KT 9999 FEW011 24/22 Q1015 NOSIG,HTDA,2022-10-24T19:00:00Z,-6.88,39.2,24.0,22.0,100,4,,6.21,29.970472,,,,,,TRUE,,,,,FEW,1100,,,,,,,VFR,,,,,,,,,,,,METAR,53.0
HSPN 241900Z 36009KT CAVOK 29/22 Q1012,HSPN,2022-10-24T19:00:00Z,19.43,37.23,29.0,22.0,360,9,,6.21,29.88189,,,,,,,,,,,CAVOK,,,,,,,,VFR,,,,,,,,,,,,METAR,43.0
HSOB 241900Z 36009KT CAVOK 28/02 Q1014,HSOB,2022-10-24T19:00:00Z,13.17,30.22,28.0,2.0,360,9,,6.21,29.940945,,,,,,,,,,,CAVOK,,,,,,,,VFR,,,,,,,,,,,,METAR,574.0
HSDN 241900Z 36010KT CAVOK 25/05 Q1016,HSDN,2022-10-24T19:00:00Z,19.17,30.42,25.0,5.0,360,10,,6.21,30.0,,,,,,,,,,,CAVOK,,,,,,,,VFR,,,,,,,,,,,,METAR,235.0
HKNW 241900Z 09011KT 9999 FEW021 21/10 Q1021,HKNW,2022-10-24T19:00:00Z,-1.32,36.82,21.0,10.0,90,11,,6.21,30.147638,,,,,,,,,,,FEW,2100,,,,,,,VFR,,,,,,,,,,,,METAR,1666.0
HKNK 241900Z 00000KT CAVOK 19/11,HKNK,2022-10-24T19:00:00Z,-0.3,36.17,19.0,11.0,0,0,,6.21,,,,,,,,,,,,CAVOK,,,,,,,,VFR,,,,,,,,,,,,METAR,1900.0
HKNI 241900Z 20001KT 9999 FEW021 19/10,HKNI,2022-10-24T19:00:00Z,-0.33,36.92,19.0,10.0,200,1,,6.21,,,,,,,,,,,,FEW,2100,,,,,,,VFR,,,,,,,,,,,,METAR,1769.0
HKMO 241900Z 15008KT 9999 SCT023 26/22 Q1014 NOSIG,HKMO,2022-10-24T19:00:00Z,-4.02,39.62,26.0,22.0,150,8,,6.21,29.940945,,,,,,TRUE,,,,,SCT,2300,,,,,,,VFR,,,,,,,,,,,,METAR,55.0
HKML 241900Z 16010KT 9999 SCT021 26/22 Q1013,HKML,2022-10-24T19:00:00Z,-3.22,40.1,26.0,22.0,160,10,,6.21,29.911417,,,,,,,,,,,SCT,2100,,,,,,,VFR,,,,,,,,,,,,METAR,20.0
HKME 241900Z 00000KT SKC 19/13,HKME,2022-10-24T19:00:00Z,0.07,37.65,19.0,13.0,0,0,,,,,,,,,,,,,,SKC,,,,,,,,,,,,,,,,,,,,METAR,1609.0
HKKT 241900Z 00000KT CAVOK 18/10,HKKT,2022-10-24T19:00:00Z,0.97,34.97,18.0,10.0,0,0,,6.21,,,,,,,,,,,,CAVOK,,,,,,,,VFR,,,,,,,,,,,,METAR,1829.0
HKKI 241900Z 30003KT CAVOK 22/17 Q1015,HKKI,2022-10-24T19:00:00Z,-0.1,34.75,22.0,17.0,300,3,,6.21,29.970472,,,,,,,,,,,CAVOK,,,,,,,,VFR,,,,,,,,,,,,METAR,1152.0
HKJK 241900Z 09011KT CAVOK 21/11 Q1021 NOSIG,HKJK,2022-10-24T19:00:00Z,-1.32,36.92,21.0,11.0,90,11,,6.21,30.147638,,,,,,TRUE,,,,,CAVOK,,,,,,,,VFR,,,,,,,,,,,,METAR,1615.0
HKGO 241900Z AUTO 08008KT 18/13 Q1023 A30.20,HKGO,2022-10-24T19:00:00Z,,,18.0,13.0,80,8,,,30.206694,,,TRUE,,,,,,,,,,,,,,,,,,,,,,,,,,,,METAR,
HKEL 241900Z 14011KT 9999 FEW015 16/08 Q1024,HKEL,2022-10-24T19:00:00Z,0.4,35.23,16.0,8.0,140,11,,6.21,30.236221,,,,,,,,,,,FEW,1500,,,,,,,VFR,,,,,,,,,,,,METAR,2116.0
HETR 241900Z 30009KT CAVOK 25/19 Q1012,HETR,2022-10-24T19:00:00Z,28.22,33.65,25.0,19.0,300,9,,6.21,29.88189,,,,,,,,,,,CAVOK,,,,,,,,VFR,,,,,,,,,,,,METAR,35.0
HESW 241900Z 02011KT CAVOK 21/13 Q1018,HESW,2022-10-24T19:00:00Z,29.35,25.5,21.0,13.0,20,11,,6.21,30.059055,,,,,,,,,,,CAVOK,,,,,,,,VFR,,,,,,,,,,,,METAR,101.0
HESN 241900Z 36005KT CAVOK 24/04 Q1014 NOSIG,HESN,2022-10-24T19:00:00Z,23.97,32.82,24.0,4.0,360,5,,6.21,29.940945,,,,,,TRUE,,,,,CAVOK,,,,,,,,VFR,,,,,,,,,,,,METAR,197.0
HESH 241900Z 24004KT CAVOK 25/12 Q1012 NOSIG,HESH,2022-10-24T19:00:00Z,27.97,34.38,25.0,12.0,240,4,,6.21,29.88189,,,,,,TRUE,,,,,CAVOK,,,,,,,,VFR,,,,,,,,,,,,METAR,50.0
HESG 241900Z 30010KT CAVOK 22/09 Q1013 NOSIG,HESG,2022-10-24T19:00:00Z,26.33,31.75,22.0,9.0,300,10,,6.21,29.911417,,,,,,TRUE,,,,,CAVOK,,,,,,,,VFR,,,,,,,,,,,,METAR,70.0
HEPS 241900Z 01010KT 9999 BKN030 23/17 Q1017 NOSIG,HEPS,2022-10-24T19:00:00Z,31.28,32.25,23.0,17.0,10,10,,6.21,30.029528,,,,,,TRUE,,,,,BKN,3000,,,,,,,MVFR,,,,,,,,,,,,METAR,2.0
HEMM 241900Z 34008KT CAVOK 22/15 Q1019 NOSIG,HEMM,2022-10-24T19:00:00Z,31.32,27.22,22.0,15.0,340,8,,6.21,30.088583,,,,,,TRUE,,,,,CAVOK,,,,,,,,VFR,,,,,,,,,,,,METAR,26.0
HEMA 241900Z 27005KT CAVOK 23/15 Q1014 NOSIG,HEMA,2022-10-24T19:00:00Z,25.55,34.58,23.0,15.0,270,5,,6.21,29.940945,,,,,,TRUE,,,,,CAVOK,,,,,,,,VFR,,,,,,,,,,,,METAR,77.0
HELX 241900Z 25005KT CAVOK 23/09 Q1014 NOSIG,HELX,2022-10-24T19:00:00Z,25.67,32.7,23.0,9.0,250,5,,6.21,29.940945,,,,,,TRUE,,,,,CAVOK,,,,,,,,VFR,,,,,,,,,,,,METAR,86.0
HEGN 241900Z 32011KT CAVOK 25/13 Q1013 NOSIG,HEGN,2022-10-24T19:00:00Z,27.18,33.8,25.0,13.0,320,11,,6.21,29.911417,,,,,,TRUE,,,,,CAVOK,,,,,,,,VFR,,,,,,,,,,,,METAR,14.0
HEBL 241900Z 31004KT CAVOK 22/06 Q1016 NOSIG,HEBL,2022-10-24T19:00:00Z,22.38,31.62,22.0,6.0,310,4,,6.21,30.0,,,,,,TRUE,,,,,CAVOK,,,,,,,,VFR,,,,,,,,,,,,METAR,184.0
HEBA 241900Z 33002KT CAVOK 17/11 Q1018 NOSIG,HEBA,2022-10-24T19:00:00Z,30.92,29.7,17.0,11.0,330,2,,6.21,30.059055,,,,,,TRUE,,,,,CAVOK,,,,,,,,VFR,,,,,,,,,,,,METAR,41.0
HEAT 241900Z 35012KT CAVOK 21/10 Q1017 NOSIG,HEAT,2022-10-24T19:00:00Z,27.05,31.02,21.0,10.0,350,12,,6.21,30.029528,,,,,,TRUE,,,,,CAVOK,,,,,,,,VFR,,,,,,,,,,,,METAR,229.0
GVSV 241900Z 05014KT 9999 SCT022 27/20 Q1013 NOSIG,GVSV,2022-10-24T19:00:00Z,16.83,-25.07,27.0,20.0,50,14,,6.21,29.911417,,,,,,TRUE,,,,,SCT,2200,,,,,,,VFR,,,,,,,,,,,,METAR,16.0
GVNP 241900Z 05009KT 9999 FEW016 26/20 Q1013 NOSIG,GVNP,2022-10-24T19:00:00Z,14.95,-23.48,26.0,20.0,50,9,,6.21,29.911417,,,,,,TRUE,,,,,FEW,1600,,,,,,,VFR,,,,,,,,,,,,METAR,70.0
GVBA 241900Z 06009KT 9999 FEW014 27/20 Q1014 NOSIG,GVBA,2022-10-24T19:00:00Z,16.13,-22.88,27.0,20.0,60,9,,6.21,29.940945,,,,,,TRUE,,,,,FEW,1400,,,,,,,VFR,,,,,,,,,,,,METAR,23.0
GVAC 241900Z 08011KT 9999 BKN014 26/20 Q1014 NOSIG,GVAC,2022-10-24T19:00:00Z,16.73,-22.93,26.0,20.0,80,11,,6.21,29.940945,,,,,,TRUE,,,,,BKN,1400,,,,,,,MVFR,,,,,,,,,,,,METAR,54.0
GUNZ 241900Z 28006KT 9999 SCT015 FEW020CB SCT110 28/25 Q1012 CB/NE RETS NOSIG,GUNZ,2022-10-24T19:00:00Z,7.72,-8.82,28.0,25.0,280,6,,6.21,29.88189,,,,,,TRUE,,,,,SCT,1500,FEW,2000,SCT,11000,,,VFR,,,,,,,,,,,,SPECI,470.0
GQPP 241900Z 34010KT 300V360 0700 R02/0800 FG OVC005 19/18 Q1012 NOSIG,GQPP,2022-10-24T19:00:00Z,20.92,-17.02,19.0,18.0,340,10,,0.43,29.88189,,,,,,TRUE,,,,FG,OVC,500,,,,,,,LIFR,,,,,,,,,,,,METAR,5.0
GQNO 241900Z 27012KT 8000 NSC 27/24 Q1012 NOSIG,GQNO,2022-10-24T19:00:00Z,18.3,-15.97,27.0,24.0,270,12,,4.97,29.88189,,,,,,TRUE,,,,,CLR,,,,,,,,MVFR,,,,,,,,,,,,METAR,1.0
GOBD 241900Z 20003KT 9999 FEW018 27/22 Q1013 NOSIG,GOBD,2022-10-24T19:00:00Z,14.67,-17.07,27.0,22.0,200,3,,6.21,29.911417,,,,,,TRUE,,,,,FEW,1800,,,,,,,VFR,,,,,,,,,,,,METAR,90.0
GMTN 241900Z 35003KT CAVOK 19/16 Q1017 NOSIG,GMTN,2022-10-24T19:00:00Z,35.58,-5.32,19.0,16.0,350,3,,6.21,30.029528,,,,,,TRUE,,,,,CAVOK,,,,,,,,VFR,,,,,,,,,,,,METAR,10.0
GMTA 241900Z VRB01KT CAVOK 20/16 Q1017 NOSIG,GMTA,2022-10-24T19:00:00Z,35.17,-3.85,20.0,16.0,0,1,,6.21,30.029528,,,,,,TRUE,,,,,CAVOK,,,,,,,,VFR,,,,,,,,,,,,METAR,14.0
GMMZ 241900Z 16003KT CAVOK 24/M06 Q1024 NOSIG,GMMZ,2022-10-24T19:00:00Z,30.93,-6.9,24.0,-6.0,160,3,,6.21,30.236221,,,,,,TRUE,,,,,CAVOK,,,,,,,,VFR,,,,,,,,,,,,METAR,1139.0
GMMW 241900Z 00000KT CAVOK 20/13 Q1018 NOSIG,GMMW,2022-10-24T19:00:00Z,34.98,-3.02,20.0,13.0,0,0,,6.21,30.059055,,,,,,TRUE,,,,,CAVOK,,,,,,,,VFR,,,,,,,,,,,,METAR,174.0
GMML 241900Z 36009KT 8000 NSC 23/19 Q1014 NOSIG,GMML,2022-10-24T19:00:00Z,27.13,-13.23,23.0,19.0,360,9,,4.97,29.940945,,,,,,TRUE,,,,,CLR,,,,,,,,MVFR,,,,,,,,,,,,METAR,63.0
GMMI 241900Z AUTO VRB06KT //// ////// 24/09 Q1015 NOSIG,GMMI,2022-10-24T19:00:00Z,31.4,-9.68,24.0,9.0,0,6,,,29.970472,,,TRUE,,,TRUE,,,,,,,,,,,,,,,,,,,,,,,,,METAR,102.0
GMMH 241900Z 01015KT 6000 NSC 21/19 Q1013 NOSIG,GMMH,2022-10-24T19:00:00Z,23.72,-15.93,21.0,19.0,10,15,,3.73,29.911417,,,,,,TRUE,,,,,CLR,,,,,,,,MVFR,,,,,,,,,,,,METAR,11.0
GMMD 241900Z 08008KT CAVOK 24/M00 Q1018 NOSIG,GMMD,2022-10-24T19:00:00Z,32.4,-6.32,24.0,0.0,80,8,,6.21,30.059055,,,,,,TRUE,,,,,CAVOK,,,,,,,,VFR,,,,,,,,,,,,METAR,515.0
GMMC 241900Z 08004KT 6000 NSC 23/17 Q1015,GMMC,2022-10-24T19:00:00Z,33.57,-7.67,23.0,17.0,80,4,,3.73,29.970472,,,,,,,,,,,CLR,,,,,,,,MVFR,,,,,,,,,,,,METAR,62.0
GMMB 241900Z 03004KT 300V050 8000 NSC 25/09 Q1017 NOSIG,GMMB,2022-10-24T19:00:00Z,33.65,-7.22,25.0,9.0,30,4,,4.97,30.029528,,,,,,TRUE,,,,,CLR,,,,,,,,MVFR,,,,,,,,,,,,METAR,191.0
GMFM 241900Z VRB02KT CAVOK 24/06 Q1019 NOSIG,GMFM,2022-10-24T19:00:00Z,33.87,-5.52,24.0,6.0,0,2,,6.21,30.088583,,,,,,TRUE,,,,,CAVOK,,,,,,,,VFR,,,,,,,,,,,,METAR,569.0
GMFK 241900Z 16004KT CAVOK 22/M05 Q1026 NOSIG,GMFK,2022-10-24T19:00:00Z,31.95,-4.4,22.0,-5.0,160,4,,6.21,30.295275,,,,,,TRUE,,,,,CAVOK,,,,,,,,VFR,,,,,,,,,,,,METAR,1033.0
GMAZ 241900Z AUTO 08004KT CAVOK 25/M04 Q1023,GMAZ,2022-10-24T19:00:00Z,30.32,-5.87,25.0,-4.0,80,4,,6.21,30.206694,,,TRUE,,,,,,,,CAVOK,,,,,,,,VFR,,,,,,,,,,,,METAR,729.0
GGOV 241900Z 06003KT 8000 FEW010 25/23 Q1013 NOSIG,GGOV,2022-10-24T19:00:00Z,11.88,-15.65,25.0,23.0,60,3,,4.97,29.911417,,,,,,TRUE,,,,,FEW,1000,,,,,,,MVFR,,,,,,,,,,,,METAR,31.0
GFLL 241900Z 33008KT 9999 BKN012 FEW026CB 28/23 Q1011 RMK CB-NE,GFLL,2022-10-24T19:00:00Z,8.62,-13.18,28.0,23.0,330,8,,6.21,29.852362,,,,,,,,,,,BKN,1200,FEW,2600,,,,,MVFR,,,,,,,,,,,,SPECI,28.0
GBYD 241900Z 00000KT 9999 SCT011 BKN110 24/23 Q1013 NOSIG,GBYD,2022-10-24T19:00:00Z,13.33,-16.65,24.0,23.0,0,0,,6.21,29.911417,,,,,,TRUE,,,,,SCT,1100,BKN,11000,,,,,VFR,,,,,,,,,,,,METAR,29.0
GABS 241900Z 31008KT 9999 FEW020 30/21 Q1014 NOSIG,GABS,2022-10-24T19:00:00Z,12.53,-7.95,30.0,21.0,310,8,,6.21,29.940945,,,,,,TRUE,,,,,FEW,2000,,,,,,,VFR,,,,,,,,,,,,METAR,375.0
FZAA 241900Z 20006KT 6000 BKN014 21/21 Q1012 NOSIG,FZAA,2022-10-24T19:00:00Z,-4.38,15.45,21.0,21.0,200,6,,3.73,29.88189,,,,,,TRUE,,,,,BKN,1400,,,,,,,MVFR,,,,,,,,,,,,SPECI,309.0
FYWW 241900Z AUTO 21004KT //// // ////// 26/03 Q1021,FYWW,2022-10-24T19:00:00Z,-22.57,17.1,26.0,3.0,210,4,,,30.147638,,,TRUE,,,,,,,,,,,,,,,,,,,,,,,,,,,,SPECI,1672.0
FYWB 241900Z AUTO 03008KT //// // ////// 15/12 Q1014,FYWB,2022-10-24T19:00:00Z,-22.98,14.65,15.0,12.0,30,8,,,29.940945,,,TRUE,,,,,,,,,,,,,,,,,,,,,,,,,,,,METAR,87.0
FYLZ 241900Z AUTO 20016KT //// // ////// 15/13 Q1012,FYLZ,2022-10-24T19:00:00Z,-26.68,15.25,15.0,13.0,200,16,,,29.88189,,,TRUE,,,,,,,,,,,,,,,,,,,,,,,,,,,,METAR,129.0
FWKI 241900Z 05005KT CAVOK 22/12 Q1018 NOSIG,FWKI,2022-10-24T19:00:00Z,-13.78,33.78,22.0,12.0,50,5,,6.21,30.059055,,,,,,TRUE,,,,,CAVOK,,,,,,,,VFR,,,,,,,,,,,,METAR,1225.0
FTTJ 241900Z 01006KT 6000 NSC 30/11 Q1010 NOSIG,FTTJ,2022-10-24T19:00:00Z,12.13,15.03,30.0,11.0,10,6,,3.73,29.822834,,,,,,TRUE,,,,,CLR,,,,,,,,MVFR,,,,,,,,,,,,METAR,295.0
FTTA 241900Z 03004KT CAVOK 26/20 Q1011,FTTA,2022-10-24T19:00:00Z,9.15,18.37,26.0,20.0,30,4,,6.21,29.852362,,,,,,,,,,,CAVOK,,,,,,,,VFR,,,,,,,,,,,,METAR,361.0
FSIA 241900Z 13013KT 9999 FEW024 27/21 Q1014 NOSIG,FSIA,2022-10-24T19:00:00Z,-4.67,55.52,27.0,21.0,130,13,,6.21,29.940945,,,,,,TRUE,,,,,FEW,2400,,,,,,,VFR,,,,,,,,,,,,METAR,3.0
FQXA 241900Z 07009KT 040V110 9999 BKN020 FEW025CB SCT070 26/21 Q1014 RMK CB TO SW,FQXA,2022-10-24T19:00:00Z,-25.05,33.62,26.0,21.0,70,9,,6.21,29.940945,,,,,,,,,,,BKN,2000,FEW,2500,SCT,7000,,,MVFR,,,,,,,,,,,,METAR,3.0
FQVL 241900Z 07012KT 9999 SCT020 26/23 Q1013,FQVL,2022-10-24T19:00:00Z,-22.0,35.32,26.0,23.0,70,12,,6.21,29.911417,,,,,,,,,,,SCT,2000,,,,,,,VFR,,,,,,,,,,,,METAR,15.0
FQTT 241900Z 08005KT CAVOK 34/14 Q1010,FQTT,2022-10-24T19:00:00Z,-16.1,33.63,34.0,14.0,80,5,,6.21,29.822834,,,,,,,,,,,CAVOK,,,,,,,,VFR,,,,,,,,,,,,METAR,146.0
FQQL 241900Z 09013KT CAVOK 26/23 Q1011,FQQL,2022-10-24T19:00:00Z,-17.87,36.87,26.0,23.0,90,13,,6.21,29.852362,,,,,,,,,,,CAVOK,,,,,,,,VFR,,,,,,,,,,,,METAR,5.0
FQPB 241900Z 04009KT 9999 FEW020 24/21 Q1015,FQPB,2022-10-24T19:00:00Z,-12.98,40.52,24.0,21.0,40,9,,6.21,29.970472,,,,,,,,,,,FEW,2000,,,,,,,VFR,,,,,,,,,,,,METAR,101.0
FQMA 241900Z 14005KT 360V160 9999 BKN020 BKN025 FEW030CB 23/22 Q1015 NOSIG RMK CB TO SW/W/N/NE,FQMA,2022-10-24T19:00:00Z,-25.92,32.57,23.0,22.0,140,5,,6.21,29.970472,,,,,,TRUE,,,,,BKN,2000,BKN,2500,FEW,3000,,,MVFR,,,,,,,,,,,,METAR,34.0
FQLC 241900Z 08008KT CAVOK 22/11 Q1020,FQLC,2022-10-24T19:00:00Z,-13.27,35.25,22.0,11.0,80,8,,6.21,30.11811,,,,,,,,,,,CAVOK,,,,,,,,VFR,,,,,,,,,,,,METAR,1362.0
FQIN 241900Z 08005KT 9999 TSRA SCT020 FEW025CB 26/22 Q1015 RMK CB TO S/SW,FQIN,2022-10-24T19:00:00Z,-23.87,35.38,26.0,22.0,80,5,,6.21,29.970472,,,,,,,,,,TSRA,SCT,2000,FEW,2500,,,,,VFR,,,,,,,,,,,,METAR,10.0
FQBR 241900Z 09010KT 9999 FEW018 26/22 Q1013,FQBR,2022-10-24T19:00:00Z,-19.8,34.9,26.0,22.0,90,10,,6.21,29.911417,,,,,,,,,,,FEW,1800,,,,,,,VFR,,,,,,,,,,,,METAR,14.0
FNLU 241900Z 14008KT 9999 BKN020 26/23 Q1012 NOSIG,FNLU,2022-10-24T19:00:00Z,-8.85,13.22,26.0,23.0,140,8,,6.21,29.88189,,,,,,TRUE,,,,,BKN,2000,,,,,,,MVFR,,,,,,,,,,,,METAR,75.0
FNCA 241900Z 36007KT 9000 -RA FEW010 BKN015 25/24 Q1013,FNCA,2022-10-24T19:00:00Z,-5.58,12.18,25.0,24.0,360,7,,5.59,29.911417,,,,,,,,,,-RA,FEW,1000,BKN,1500,,,,,MVFR,,,,,,,,,,,,METAR,14.0
FMSD 241900Z 00000KT 9999 FEW016 SCT033 24/21 Q1016,FMSD,2022-10-24T19:00:00Z,-25.03,46.95,24.0,21.0,0,0,,6.21,30.0,,,,,,,,,,,FEW,1600,SCT,3300,,,,,VFR,,,,,,,,,,,,METAR,7.0
FMNM 241900Z 27007KT 240V310 9999 FEW020CB 26/22 Q1014 NOSIG,FMNM,2022-10-24T19:00:00Z,-15.67,46.35,26.0,22.0,270,7,,6.21,29.940945,,,,,,TRUE,,,,,FEW,2000,,,,,,,VFR,,,,,,,,,,,,METAR,18.0
FMMT 241900Z 35004KT 9999 SCT017TCU 22/20 Q1018 NOSIG,FMMT,2022-10-24T19:00:00Z,-18.12,49.38,22.0,20.0,350,4,,6.21,30.059055,,,,,,TRUE,,,,,SCT,1700,,,,,,,VFR,,,,,,,,,,,,METAR,13.0
FKKR 241900Z 30002KT CAVOK 29/21 Q1010 NOSIG,FKKR,2022-10-24T19:00:00Z,9.33,13.37,29.0,21.0,300,2,,6.21,29.822834,,,,,,TRUE,,,,,CAVOK,,,,,,,,VFR,,,,,,,,,,,,METAR,223.0
FIMP 241900Z 04003KT 9999 FEW018 22/18 Q1020,FIMP,2022-10-24T19:00:00Z,-20.43,57.68,22.0,18.0,40,3,,6.21,30.11811,,,,,,,,,,,FEW,1800,,,,,,,VFR,,,,,,,,,,,,METAR,57.0
FGSL 241900Z 23006KT 9999 SCT012 27/26 Q1012 NOSIG,FGSL,2022-10-24T19:00:00Z,3.75,8.72,27.0,26.0,230,6,,6.21,29.88189,,,,,,TRUE,,,,,SCT,1200,,,,,,,VFR,,,,,,,,,,,,METAR,23.0
FDST 241900Z AUTO 32004KT //// // ////// 19/18 Q1016,FDST,2022-10-24T19:00:00Z,-26.43,31.95,19.0,18.0,320,4,,,30.0,,,TRUE,,,,,,,,,,,,,,,,,,,,,,,,,,,,METAR,642.0
FDPP 241900Z AUTO /////KT //// // ////// 17/M02 Q1017,FDPP,2022-10-24T19:00:00Z,-25.97,31.25,17.0,-2.0,,,,,30.029528,,,TRUE,,,,,,,,,,,,,,,,,,,,,,,,,,,,METAR,1023.0
FDOT 241900Z AUTO 08001KT //// // ////// 22/22 Q1017,FDOT,2022-10-24T19:00:00Z,-26.7,31.43,22.0,22.0,80,1,,,30.029528,,,TRUE,,,,,,,,,,,,,,,,,,,,,,,,,,,,METAR,342.0
FDMY 241900Z AUTO 08002KT //// // ////// 20/19 Q1027,FDMY,2022-10-24T19:00:00Z,-25.88,31.52,20.0,19.0,80,2,,,30.324802,,,TRUE,,,,,,,,,,,,,,,,,,,,,,,,,,,,METAR,401.0
FDBB 241900Z AUTO 28003KT //// // ////// 21/20 Q1015,FDBB,2022-10-24T19:00:00Z,-26.8,31.93,21.0,20.0,280,3,,,29.970472,,,TRUE,,,,,,,,,,,,,,,,,,,,,,,,,,,,METAR,106.0
FBSK 241900Z 13011KT 9999 FEW035CB BKN070 25/15 Q1016 RETS NOSIG,FBSK,2022-10-24T19:00:00Z,-24.55,25.92,25.0,15.0,130,11,,6.21,30.0,,,,,,TRUE,,,,,FEW,3500,BKN,7000,,,,,VFR,,,,,,,,,,,,METAR,1007.0
FBPM 241900Z 14004KT CAVOK 22/17 Q1017,FBPM,2022-10-24T19:00:00Z,-21.17,27.48,22.0,17.0,140,4,,6.21,30.029528,,,,,,,,,,,CAVOK,,,,,,,,VFR,,,,,,,,,,,,METAR,1009.0
FBMN 241900Z 08003KT CAVOK 29/14 Q1014,FBMN,2022-10-24T19:00:00Z,-19.97,23.42,29.0,14.0,80,3,,6.21,29.940945,,,,,,,,,,,CAVOK,,,,,,,,VFR,,,,,,,,,,,,METAR,946.0
FAWK 241900Z AUTO 04007KT //// // ////// 15/14 Q1023,FAWK,2022-10-24T19:00:00Z,-25.82,28.22,15.0,14.0,40,7,,,30.206694,,,TRUE,,,,,,,,,,,,,,,,,,,,,,,,,,,,SPECI,1496.0
FAUT 241900Z AUTO 12004KT //// // ////// 18/16 Q1014,FAUT,2022-10-24T19:00:00Z,-31.53,28.67,18.0,16.0,120,4,,,29.940945,,,TRUE,,,,,,,,,,,,,,,,,,,,,,,,,,,,METAR,735.0
FAUP 241900Z AUTO 29006KT //// // ////// 25/M03 Q1013,FAUP,2022-10-24T19:00:00Z,-28.38,21.27,25.0,-3.0,290,6,,,29.911417,,,TRUE,,,,,,,,,,,,,,,,,,,,,,,,,,,,SPECI,845.0
FAPP 241900Z AUTO 19009KT //// // ////// 19/11 Q1021,FAPP,2022-10-24T19:00:00Z,-23.83,29.45,19.0,11.0,190,9,,,30.147638,,,TRUE,,,,,,,,,,,,,,,,,,,,,,,,,,,,SPECI,1238.0
FAPE 241900Z 09008KT CAVOK 19/18 Q1011 NOSIG,FAPE,2022-10-24T19:00:00Z,-33.98,25.6,19.0,18.0,90,8,,6.21,29.852362,,,,,,TRUE,,,,,CAVOK,,,,,,,,VFR,,,,,,,,,,,,METAR,58.0
FALW 241900Z AUTO 20010KT //// // ////// 16/13 Q1013,FALW,2022-10-24T19:00:00Z,-32.97,18.17,16.0,13.0,200,10,,,29.911417,,,TRUE,,,,,,,,,,,,,,,,,,,,,,,,,,,,METAR,31.0
FALE 241900Z 28003KT 8000 -SHRA FEW025 BKN032 FEW045CB 21/19 Q1015 RETSRA NOSIG,FALE,2022-10-24T19:00:00Z,-29.62,31.12,21.0,19.0,280,3,,4.97,29.970472,,,,,,TRUE,,,,-SHRA,FEW,2500,BKN,3200,FEW,4500,,,MVFR,,,,,,,,,,,,METAR,109.0
FALA 241900Z 10008KT 9999 SCT040 16/14 Q1022 RETSRA NOSIG,FALA,2022-10-24T19:00:00Z,-25.93,27.92,16.0,14.0,100,8,,6.21,30.177166,,,,,,TRUE,,,,,SCT,4000,,,,,,,VFR,,,,,,,,,,,,METAR,1365.0
FAKM 241900Z AUTO 02004KT //// // ////// 19/12 Q1015,FAKM,2022-10-24T19:00:00Z,-28.8,24.77,19.0,12.0,20,4,,,29.970472,,,TRUE,,,,,,,,,,,,,,,,,,,,,,,,,,,,METAR,1203.0
FAJB 241900Z AUTO 32001KT //// // ////// 15/12 Q1021,FAJB,2022-10-24T19:00:00Z,-26.15,28.0,15.0,12.0,320,1,,,30.147638,,,TRUE,,,,,,,,,,,,,,,,,,,,,,,,,,,,METAR,1626.0
FACT 241900Z 20015KT 9999 FEW025 17/14 Q1014 NOSIG,FACT,2022-10-24T19:00:00Z,-33.97,18.6,17.0,14.0,200,15,,6.21,29.940945,,,,,,TRUE,,,,,FEW,2500,,,,,,,VFR,,,,,,,,,,,,METAR,48.0
FABL 241900Z AUTO 02005KT //// R02///// // ///////// 17/12 Q1017,FABL,2022-10-24T19:00:00Z,-29.1,26.3,17.0,12.0,20,5,,,30.029528,,,TRUE,,,,,,,,,,,,,,,,,,,,,,,,,,,,SPECI,1348.0
EISG 241900Z 20004KT 160V240 9999 FEW028 BKN035 12/09 Q0999,EISG,2022-10-24T19:00:00Z,54.28,-8.6,12.0,9.0,200,4,,6.21,29.498032,,,,,,,,,,,FEW,2800,BKN,3500,,,,,VFR,,,,,,,,,,,,METAR,1.0
EIME 241900Z 22013KT 9999 FEW018 SCT250 11/10 Q1001,EIME,2022-10-24T19:00:00Z,53.3,-6.45,11.0,10.0,220,13,,6.21,29.557087,,,,,,,,,,,FEW,1800,SCT,25000,,,,,VFR,,,,,,,,,,,,METAR,90.0
DXXX 241900Z 22006KT 9999 FEW012 28/24 Q1012 NOSIG,DXXX,2022-10-24T19:00:00Z,6.17,1.25,28.0,24.0,220,6,,6.21,29.88189,,,,,,TRUE,,,,,FEW,1200,,,,,,,VFR,,,,,,,,,,,,METAR,22.0
DTTZ 241900Z 22009KT CAVOK 24/04 Q1023,DTTZ,2022-10-24T19:00:00Z,33.93,8.1,24.0,4.0,220,9,,6.21,30.206694,,,,,,,,,,,CAVOK,,,,,,,,VFR,,,,,,,,,,,,METAR,87.0
DTTX 241900Z 19004KT CAVOK 22/12 Q1022,DTTX,2022-10-24T19:00:00Z,34.72,10.68,22.0,12.0,190,4,,6.21,30.177166,,,,,,,,,,,CAVOK,,,,,,,,VFR,,,,,,,,,,,,METAR,17.0
DTTN 241900Z VRB02KT 9999 FEW020 23/02 Q1021,DTTN,2022-10-24T19:00:00Z,36.47,8.8,23.0,2.0,0,2,,6.21,30.147638,,,,,,,,,,,FEW,2000,,,,,,,VFR,,,,,,,,,,,,METAR,145.0
DTTL 241900Z 15003KT 110V200 CAVOK 24/21 Q1022,DTTL,2022-10-24T19:00:00Z,36.85,11.07,24.0,21.0,150,3,,6.21,30.177166,,,,,,,,,,,CAVOK,,,,,,,,VFR,,,,,,,,,,,,METAR,18.0
DTTK 241900Z VRB02KT CAVOK 25/04 Q1021,DTTK,2022-10-24T19:00:00Z,35.67,10.08,25.0,4.0,0,2,,6.21,30.147638,,,,,,,,,,,CAVOK,,,,,,,,VFR,,,,,,,,,,,,METAR,65.0
DTTG 241900Z 20008KT CAVOK 22/03 Q1024 NOSIG,DTTG,2022-10-24T19:00:00Z,33.73,9.92,22.0,3.0,200,8,,6.21,30.236221,,,,,,TRUE,,,,,CAVOK,,,,,,,,VFR,,,,,,,,,,,,METAR,120.0
DTTF 241900Z 24006KT 8000 NSC 22/04 Q1024 NOSIG,DTTF,2022-10-24T19:00:00Z,34.42,8.82,22.0,4.0,240,6,,4.97,30.236221,,,,,,TRUE,,,,,CLR,,,,,,,,MVFR,,,,,,,,,,,,METAR,314.0
DTTD 241900Z VRB01KT CAVOK 24/03 Q1025,DTTD,2022-10-24T19:00:00Z,32.32,10.4,24.0,3.0,0,1,,6.21,30.265747,,,,,,,,,,,CAVOK,,,,,,,,VFR,,,,,,,,,,,,METAR,306.0
DTTB 241900Z /////KT CAVOK Q////,DTTB,2022-10-24T19:00:00Z,37.25,9.8,,,,,,6.21,,,,,,,,,,,,CAVOK,,,,,,,,VFR,,,,,,,,,,,,METAR,4.0
DTKA 241900Z 13003KT CAVOK 18/07 Q1021 NOSIG,DTKA,2022-10-24T19:00:00Z,36.98,8.88,18.0,7.0,130,3,,6.21,30.147638,,,,,,TRUE,,,,,CAVOK,,,,,,,,VFR,,,,,,,,,,,,METAR,70.0
DRRN 241900Z 10003KT 9000 NSC 34/06 Q1012 NOSIG,DRRN,2022-10-24T19:00:00Z,13.47,2.17,34.0,6.0,100,3,,5.59,29.88189,,,,,,TRUE,,,,,CLR,,,,,,,,VFR,,,,,,,,,,,,METAR,223.0
DNMN 241900Z 13002KT 9999 TS SCT012 FEW020CB 25/25 Q1011,DNMN,2022-10-24T19:00:00Z,9.65,6.47,25.0,25.0,130,2,,6.21,29.852362,,,,,,,,,,TS,SCT,1200,FEW,2000,,,,,VFR,,,,,,,,,,,,METAR,268.0
DNKT 241900Z 11004KT 4000 HZ NSC 30/18 Q1013,DNKT,2022-10-24T19:00:00Z,13.0,7.67,30.0,18.0,110,4,,2.49,29.911417,,,,,,,,,,HZ,CLR,,,,,,,,IFR,,,,,,,,,,,,METAR,504.0
DNKN 241900Z 00000KT 8000 NSC 26/21 Q1015 NOSIG,DNKN,2022-10-24T19:00:00Z,12.05,8.52,26.0,21.0,0,0,,4.97,29.970472,,,,,,TRUE,,,,,CLR,,,,,,,,MVFR,,,,,,,,,,,,METAR,471.0
DNKA 241900Z 03006KT CAVOK 27/17 Q1015,DNKA,2022-10-24T19:00:00Z,10.58,7.45,27.0,17.0,30,6,,6.21,29.970472,,,,,,,,,,,CAVOK,,,,,,,,VFR,,,,,,,,,,,,METAR,631.0
DNIL 241900Z 20005KT 9999 TS FEW010 FEW020CB 28/24 Q1012,DNIL,2022-10-24T19:00:00Z,8.43,4.48,28.0,24.0,200,5,,6.21,29.88189,,,,,,,,,,TS,FEW,1000,FEW,2000,,,,,VFR,,,,,,,,,,,,METAR,341.0
DNAA 241900Z 35006KT 9999 TS FEW011 FEW020CB 26/23 Q1012 TEMPO 5000 -TSRA BKN008,DNAA,2022-10-24T19:00:00Z,9.0,7.27,26.0,23.0,350,6,,6.21,29.88189,,,,,,,,,,TS,FEW,1100,FEW,2000,,,,,VFR,,,,,,,,,,,,SPECI,338.0
DIYO 241900Z 34004KT 9999 FEW011 27/25 Q1012 NOSIG,DIYO,2022-10-24T19:00:00Z,6.9,-5.35,27.0,25.0,340,4,,6.21,29.88189,,,,,,TRUE,,,,,FEW,1100,,,,,,,VFR,,,,,,,,,,,,METAR,202.0
DIBK 241900Z 12002KT 8000 FEW013 28/22 Q1013 NOSIG,DIBK,2022-10-24T19:00:00Z,7.73,-5.07,28.0,22.0,120,2,,4.97,29.911417,,,,,,TRUE,,,,,FEW,1300,,,,,,,MVFR,,,,,,,,,,,,METAR,363.0
DGAA 241900Z 20011KT 9999 FEW014 28/25 Q1012 NOSIG,DGAA,2022-10-24T19:00:00Z,5.58,-0.17,28.0,25.0,200,11,,6.21,29.88189,,,,,,TRUE,,,,,FEW,1400,,,,,,,VFR,,,,,,,,,,,,METAR,68.0
DFOO 241900Z 01003KT CAVOK 27/17 Q1013,DFOO,2022-10-24T19:00:00Z,11.17,-4.32,27.0,17.0,10,3,,6.21,29.911417,,,,,,,,,,,CAVOK,,,,,,,,VFR,,,,,,,,,,,,METAR,461.0
DFFD 241900Z 03001KT 7000 NSC 29/13 Q1012 NOSIG,DFFD,2022-10-24T19:00:00Z,12.35,-1.52,29.0,13.0,30,1,,4.35,29.88189,,,,,,TRUE,,,,,CLR,,,,,,,,MVFR,,,,,,,,,,,,METAR,309.0
DBBB 241900Z 23008KT 9999 SCT012 28/25 Q1011 NOSIG,DBBB,2022-10-24T19:00:00Z,6.35,2.38,28.0,25.0,230,8,,6.21,29.852362,,,,,,TRUE,,,,,SCT,1200,,,,,,,VFR,,,,,,,,,,,,METAR,4.0
DAUZ 241900Z 08010KT CAVOK 21/M01 Q1025,DAUZ,2022-10-24T19:00:00Z,28.05,9.63,21.0,-1.0,80,10,,6.21,30.265747,,,,,,,,,,,CAVOK,,,,,,,,VFR,,,,,,,,,,,,METAR,567.0
DAUU 241900Z 11004KT CAVOK 25/03 Q1022,DAUU,2022-10-24T19:00:00Z,31.92,5.4,25.0,3.0,110,4,,6.21,30.177166,,,,,,,,,,,CAVOK,,,,,,,,VFR,,,,,,,,,,,,METAR,147.0
DAUT 241900Z 05010KT CAVOK 27/02 Q1020,DAUT,2022-10-24T19:00:00Z,29.25,0.27,27.0,2.0,50,10,,6.21,30.11811,,,,,,,,,,,CAVOK,,,,,,,,VFR,,,,,,,,,,,,METAR,307.0
DAUO 241900Z VRB02KT CAVOK 22/03 Q1023,DAUO,2022-10-24T19:00:00Z,33.5,6.78,22.0,3.0,0,2,,6.21,30.206694,,,,,,,,,,,CAVOK,,,,,,,,VFR,,,,,,,,,,,,METAR,55.0
DAUL 241900Z 00000KT CAVOK 20/05 Q1025,DAUL,2022-10-24T19:00:00Z,33.77,2.92,20.0,5.0,0,0,,6.21,30.265747,,,,,,,,,,,CAVOK,,,,,,,,VFR,,,,,,,,,,,,METAR,755.0
DAUK 241900Z 02004KT CAVOK 23/05 Q1023,DAUK,2022-10-24T19:00:00Z,33.08,6.08,23.0,5.0,20,4,,6.21,30.206694,,,,,,,,,,,CAVOK,,,,,,,,VFR,,,,,,,,,,,,METAR,83.0
DAUI 241900Z 05005KT CAVOK 26/M02 Q1018,DAUI,2022-10-24T19:00:00Z,27.25,2.52,26.0,-2.0,50,5,,6.21,30.059055,,,,,,,,,,,CAVOK,,,,,,,,VFR,,,,,,,,,,,,METAR,271.0
DAUH 241900Z 09004KT CAVOK 24/04 Q1023,DAUH,2022-10-24T19:00:00Z,31.67,6.15,24.0,4.0,90,4,,6.21,30.206694,,,,,,,,,,,CAVOK,,,,,,,,VFR,,,,,,,,,,,,METAR,141.0
DAUG 241900Z 05005KT CAVOK 22/02 Q1025,DAUG,2022-10-24T19:00:00Z,32.38,3.78,22.0,2.0,50,5,,6.21,30.265747,,,,,,,,,,,CAVOK,,,,,,,,VFR,,,,,,,,,,,,METAR,444.0
DAUE 241900Z 09003KT CAVOK 25/03 Q1024,DAUE,2022-10-24T19:00:00Z,30.57,2.87,25.0,3.0,90,3,,6.21,30.236221,,,,,,,,,,,CAVOK,,,,,,,,VFR,,,,,,,,,,,,METAR,396.0
DAUB 241900Z VRB02KT CAVOK 24/02 Q1023,DAUB,2022-10-24T19:00:00Z,34.78,5.73,24.0,2.0,0,2,,6.21,30.206694,,,,,,,,,,,CAVOK,,,,,,,,VFR,,,,,,,,,,,,METAR,75.0
DAUA 241900Z 30007KT CAVOK 27/00 Q1018,DAUA,2022-10-24T19:00:00Z,27.83,-0.18,27.0,0.0,300,7,,6.21,30.059055,,,,,,,,,,,CAVOK,,,,,,,,VFR,,,,,,,,,,,,METAR,278.0
DAOY 241900Z 20004KT CAVOK 16/00 Q1028,DAOY,2022-10-24T19:00:00Z,33.72,1.08,16.0,0.0,200,4,,6.21,30.35433,,,,,,,,,,,CAVOK,,,,,,,,VFR,,,,,,,,,,,,METAR,1340.0
DAOV 241900Z 16007KT CAVOK 24/M03 Q1021,DAOV,2022-10-24T19:00:00Z,35.2,0.15,24.0,-3.0,160,7,,6.21,30.147638,,,,,,,,,,,CAVOK,,,,,,,,VFR,,,,,,,,,,,,METAR,506.0
DAOR 241900Z 00000KT CAVOK 22/M01 Q1025,DAOR,2022-10-24T19:00:00Z,31.65,-2.27,22.0,-1.0,0,0,,6.21,30.265747,,,,,,,,,,,CAVOK,,,,,,,,VFR,,,,,,,,,,,,METAR,809.0
DAOL 241900Z 10006KT 7000 NSC 25/04 Q1019,DAOL,2022-10-24T19:00:00Z,35.53,-0.52,25.0,4.0,100,6,,4.35,30.088583,,,,,,,,,,,CLR,,,,,,,,MVFR,,,,,,,,,,,,METAR,103.0
DAOI 241900Z VRB02KT CAVOK 27/M08 Q1020,DAOI,2022-10-24T19:00:00Z,36.22,1.32,27.0,-8.0,0,2,,6.21,30.11811,,,,,,,,,,,CAVOK,,,,,,,,VFR,,,,,,,,,,,,METAR,141.0
DAOB 241900Z 13005KT CAVOK 18/M04 Q1026,DAOB,2022-10-24T19:00:00Z,35.33,1.47,18.0,-4.0,130,5,,6.21,30.295275,,,,,,,,,,,CAVOK,,,,,,,,VFR,,,,,,,,,,,,METAR,976.0
DABT 241900Z 13003KT CAVOK 17/M05 Q1027,DABT,2022-10-24T19:00:00Z,35.75,6.32,17.0,-5.0,130,3,,6.21,30.324802,,,,,,,,,,,CAVOK,,,,,,,,VFR,,,,,,,,,,,,METAR,813.0
DABS 241900Z 13002KT CAVOK 18/M05 Q1026,DABS,2022-10-24T19:00:00Z,35.43,8.12,18.0,-5.0,130,2,,6.21,30.295275,,,,,,,,,,,CAVOK,,,,,,,,VFR,,,,,,,,,,,,METAR,806.0
DAAY 241900Z 18004KT CAVOK 19/00 Q1027,DAAY,2022-10-24T19:00:00Z,33.53,-0.25,19.0,0.0,180,4,,6.21,30.324802,,,,,,,,,,,CAVOK,,,,,,,,VFR,,,,,,,,,,,,METAR,1116.0
DAAV 241900Z 17003KT CAVOK 20/08 Q1021,DAAV,2022-10-24T19:00:00Z,36.8,5.88,20.0,8.0,170,3,,6.21,30.147638,,,,,,,,,,,CAVOK,,,,,,,,VFR,,,,,,,,,,,,METAR,11.0
DAAS 241900Z 28004KT CAVOK 17/M02 Q1027,DAAS,2022-10-24T19:00:00Z,36.18,5.33,17.0,-2.0,280,4,,6.21,30.324802,,,,,,,,,,,CAVOK,,,,,,,,VFR,,,,,,,,,,,,METAR,1012.0
DAAP 241900Z 11006KT CAVOK 21/M09 Q1023,DAAP,2022-10-24T19:00:00Z,26.72,8.62,21.0,-9.0,110,6,,6.21,30.206694,,,,,,,,,,,CAVOK,,,,,,,,VFR,,,,,,,,,,,,METAR,542.0
DAAJ 241900Z 09009KT CAVOK 21/M07 Q1024,DAAJ,2022-10-24T19:00:00Z,24.28,9.47,21.0,-7.0,90,9,,6.21,30.236221,,,,,,,,,,,CAVOK,,,,,,,,VFR,,,,,,,,,,,,METAR,962.0
DAAE 241900Z 25004KT CAVOK 20/07 Q1020,DAAE,2022-10-24T19:00:00Z,36.72,5.07,20.0,7.0,250,4,,6.21,30.11811,,,,,,,,,,,CAVOK,,,,,,,,VFR,,,,,,,,,,,,METAR,1.0
CZZJ 241900Z AUTO 25001KT 03/M00 RMK AO1 SLP050 T00311003 58002,CZZJ,2022-10-24T19:00:00Z,53.58,-116.47,3.1,-0.3,250,1,,,,1005.0,,TRUE,TRUE,,,,,,,,,,,,,,,,-0.2,,,,,,,,,,,METAR,927.0
CZUM 241900Z AUTO 07004KT 030V100 9SM SCT043 OVC076 11/03 A3023 RMK SLP261,CZUM,2022-10-24T19:00:00Z,53.55,-64.1,11.0,3.0,70,4,,9.0,30.230314,1026.1,,TRUE,,,,,,,,SCT,4300,OVC,7600,,,,,VFR,,,,,,,,,,,,METAR,431.0
CZTB 241900Z AUTO 17008KT 18/14 RMK AO1 PK WND 16017/1822 SLP003 T01820144 58022,CZTB,2022-10-24T19:00:00Z,48.37,-89.32,18.2,14.4,170,8,,,,1000.3,,TRUE,TRUE,,,,,,,,,,,,,,,,-2.2,,,,,,,,,,,METAR,197.0
CZST 241900Z 21009G16KT 10SM SCT035 OVC070 06/03 A2965 RMK SC3AS5 SLP042,CZST,2022-10-24T19:00:00Z,55.93,-129.98,6.0,3.0,210,9,16,10.0,29.648623,1004.2,,,,,,,,,,SCT,3500,OVC,7000,,,,,VFR,,,,,,,,,,,,METAR,10.0
CZSP 241900Z AUTO 01002KT 17/12 RMK AO1 SLP274 T01700121 56011,CZSP,2022-10-24T19:00:00Z,46.45,-62.58,17.0,12.1,10,2,,,,1027.4,,TRUE,TRUE,,,,,,,,,,,,,,,,-1.1,,,,,,,,,,,METAR,31.0
CZSM 241900Z AUTO 11003KT 01/M00 RMK AO1 SLP094 T00131001 58013,CZSM,2022-10-24T19:00:00Z,60.03,-111.93,1.3,-0.1,110,3,,,,1009.4,,TRUE,TRUE,,,,,,,,,,,,,,,,-1.3,,,,,,,,,,,SPECI,203.0
CZRP 241900Z AUTO 32010KT M23/M26 RMK AO1 SOG 53 1012 SLP127 T12331257,CZRP,2022-10-24T19:00:00Z,75.37,-105.72,-23.3,-25.7,320,10,,,,1012.7,,TRUE,TRUE,,,,,,,,,,,,,,,,,,,,,,,,,,,METAR,6.0
CZPS 241900Z AUTO 19001KT 02/M02 RMK AO1 T00191016,CZPS,2022-10-24T19:00:00Z,52.43,-113.6,1.9,-1.6,190,1,,,,,,TRUE,TRUE,,,,,,,,,,,,,,,,,,,,,,,,,,,METAR,953.0
CZPC 241900Z AUTO 28014KT 9SM OVC160 03/M03 A2968 RMK PCPN 0.5MM PAST HR SLP094,CZPC,2022-10-24T19:00:00Z,49.52,-114.0,3.0,-3.0,280,14,,9.0,29.681103,1009.4,,TRUE,,,,,,,,OVC,16000,,,,,,,VFR,,,,,,,,,,,,METAR,1187.0
CZOL 241900Z AUTO 20003KT 02/02 RMK AO1 T00220021,CZOL,2022-10-24T19:00:00Z,53.65,-113.35,2.2,2.1,200,3,,,,,,TRUE,TRUE,,,,,,,,,,,,,,,,,,,,,,,,,,,METAR,645.0
CZMT 241900Z 29007KT 240V320 15SM SCT030TCU SCT260 10/05 A2980 RMK TCU3CI1 SLP093,CZMT,2022-10-24T19:00:00Z,54.03,-132.13,10.0,5.0,290,7,,15.0,29.799213,1009.3,,,,,,,,,,SCT,3000,SCT,26000,,,,,VFR,,,,,,,,,,,,METAR,11.0
CZMJ 241900Z AUTO 31016G21KT M01/M01 RMK AO1 8PAST HR SOG 20 8010 PK WND 30023/1838 SLP083 P0011 T10081011 50028,CZMJ,2022-10-24T19:00:00Z,50.33,-105.53,-0.8,-1.1,310,16,21,,,1008.3,,TRUE,TRUE,,,,,,,,,,,,,,,,2.8,,,,,0.11,,,,,,METAR,571.0
CZMD 241900Z AUTO 07007KT 040V110 2 1/4SM TSRA BR OVC004 05/05 A2930 RMK VIS VRB 1-3 SLP935,CZMD,2022-10-24T19:00:00Z,53.43,-91.77,5.0,5.0,70,7,,2.25,29.300198,993.5,,TRUE,,,,,,,TSRA BR,OVC,400,,,,,,,LIFR,,,,,,,,,,,,METAR,276.0
CZKD 241900Z AUTO 05013G22KT 00/M01 RMK AO1 8PAST HR 6055 PK WND 05022/1856 SLP028 P0007 T00001007 50018,CZKD,2022-10-24T19:00:00Z,56.03,-96.52,0.0,-0.7,50,13,22,,,1002.8,,TRUE,TRUE,,,,,,,,,,,,,,,,1.8,,,,,0.07,,,,,,METAR,190.0
CZHY 241900Z AUTO 08005KT M02/M04 RMK AO1 SLP093 T10191035 58012,CZHY,2022-10-24T19:00:00Z,60.83,-115.78,-1.9,-3.5,80,5,,,,1009.3,,TRUE,TRUE,,,,,,,,,,,,,,,,-1.2,,,,,,,,,,,SPECI,159.0
CZFS 241900Z AUTO 33008KT M03/M04 RMK AO1 SOG 02 8006 SLP122 T10321044,CZFS,2022-10-24T19:00:00Z,61.77,-121.23,-3.2,-4.4,330,8,,,,1012.2,,TRUE,TRUE,,,,,,,,,,,,,,,,,,,,,,,,,,,SPECI,174.0
CZFM 241900Z 33003KT 290V360 2SM -SN SCT005 BKN035 M10/M11 A3004 RMK ST3NS3 SLP180,CZFM,2022-10-24T19:00:00Z,67.4,-134.87,-10.0,-11.0,330,3,,2.0,30.041338,1018.0,,,,,,,,,-SN,SCT,500,BKN,3500,,,,,IFR,,,,,,,,,,,,METAR,33.0
CZFA 241900Z 30003KT 280V350 10SM -SN FEW012 SCT026 BKN035 BKN050 OVC100 M03/M05 A2965 RMK ST1SC2SC2SC1AC2 SLP084,CZFA,2022-10-24T19:00:00Z,62.2,-133.38,-3.0,-5.0,300,3,,10.0,29.648623,1008.4,,,,,,,,,-SN,FEW,1200,SCT,2600,BKN,3500,BKN,5000,VFR,,,,,,,,,,,,METAR,702.0
CZEV 241900Z AUTO 09005KT M12/M15 RMK AO1 SOG 06 5000 SLP186 T11171147,CZEV,2022-10-24T19:00:00Z,68.32,-133.48,-11.7,-14.7,90,5,,,,1018.6,,TRUE,TRUE,,,,,,,,,,,,,,,,,,,,,,,,,,,SPECI,92.0
CZEM 241900Z 19017G24KT 15SM FEW025 SCT180 22/10 A2993 RMK SC1AC3 SLP136 DENSITY ALT 900FT,CZEM,2022-10-24T19:00:00Z,52.22,-78.52,22.0,10.0,190,17,24,15.0,29.929134,1013.6,,,,,,,,,,FEW,2500,SCT,18000,,,,,VFR,,,,,,,,,,,,METAR,9.0
CZEL 241900Z AUTO 15009KT 20/06 RMK AO1 SLP195 T02020055 57028,CZEL,2022-10-24T19:00:00Z,43.65,-80.42,20.2,5.5,150,9,,,,1019.5,,TRUE,TRUE,,,,,,,,,,,,,,,,-2.8,,,,,,,,,,,METAR,370.0
CZDB 241900Z AUTO 18003KT 20/ RMK AO1 SLP281 T0197 56007,CZDB,2022-10-24T19:00:00Z,45.42,-63.47,19.7,,180,3,,,,1028.1,,TRUE,TRUE,,,,,,,,,,,,,,,,-0.7,,,,,,,,,,,METAR,38.0
CZCR 241900Z AUTO 01001KT 13/10 RMK AO1 SLP263 T01290100 56014,CZCR,2022-10-24T19:00:00Z,47.98,-66.33,12.9,10.0,10,1,,,,1026.3,,TRUE,TRUE,,,,,,,,,,,,,,,,-1.4,,,,,,,,,,,METAR,39.0
CZCP 241900Z AUTO VRB05KT ////SM //// OVC015 M08/M11 A3000,CZCP,2022-10-24T19:00:00Z,70.17,-124.68,-8.0,-11.0,0,5,,,30.0,,,TRUE,,,,,,,,OVC,1500,,,,,,,,,,,,,,,,,,,METAR,23.0
CZBF 241900Z AUTO 05003KT 020V080 9SM BKN160 17/10 A3031 RMK SLP268,CZBF,2022-10-24T19:00:00Z,47.62,-65.75,17.0,10.0,50,3,,9.0,30.31004,1026.8,,TRUE,,,,,,,,BKN,16000,,,,,,,VFR,,,,,,,,,,,,METAR,60.0
CYZX 241900Z 09004KT 15SM OVC018 18/15 A3032 RMK SC8 SLP268,CYZX,2022-10-24T19:00:00Z,44.98,-64.92,18.0,15.0,90,4,,15.0,30.318897,1026.8,,,,,,,,,,OVC,1800,,,,,,,MVFR,,,,,,,,,,,,METAR,28.0
CYZW 241900Z 06004KT 4SM -SN OVC045 M01/M05 A2959 RMK SC8 SLP061,CYZW,2022-10-24T19:00:00Z,60.17,-132.75,-1.0,-5.0,60,4,,4.0,29.589567,1006.1,,,,,,,,,-SN,OVC,4500,,,,,,,MVFR,,,,,,,,,,,,METAR,700.0
CYZV 241900Z 15006KT 30SM FEW180 FEW220 OVC260 12/07 A3030 RMK AC1CI2CS6 AC TR SLP263,CYZV,2022-10-24T19:00:00Z,50.22,-66.27,12.0,7.0,150,6,,30.0,30.301182,1026.3,,,,,,,,,,FEW,18000,FEW,22000,OVC,26000,,,VFR,,,,,,,,,,,,METAR,43.0
CYZU 241900Z 00000KT 8SM SCT008 BKN071 BKN100 BKN240 00/M00 A2959 RMK SF4AC1AC1CI1 SLP056,CYZU,2022-10-24T19:00:00Z,54.15,-115.78,0.0,0.0,0,0,,8.0,29.589567,1005.6,,,,,,,,,,SCT,800,BKN,7100,BKN,10000,BKN,24000,VFR,,,,,,,,,,,,METAR,785.0
CYZT 241900Z 26009G15KT 12SM -SHRA SCT033 BKN047 BKN130 11/08 A2988 RMK CU4SC2AC1 SLP121,CYZT,2022-10-24T19:00:00Z,50.68,-127.37,11.0,8.0,260,9,15,12.0,29.878937,1012.1,,,,,,,,,-SHRA,SCT,3300,BKN,4700,BKN,13000,,,VFR,,,,,,,,,,,,METAR,13.0
CYZS 241900Z 26007KT 15SM -SN OVC022 M10/M15 A3027 RMK SC8 SLP259,CYZS,2022-10-24T19:00:00Z,64.2,-83.35,-10.0,-15.0,260,7,,15.0,30.268702,1025.9,,,,,,,,,-SN,OVC,2200,,,,,,,MVFR,,,,,,,,,,,,METAR,60.0
CYZR 241900Z AUTO 19010G22KT 150V210 9SM CLR 24/08 A3003 RMK SLP171 DENSITY ALT 1700FT,CYZR,2022-10-24T19:00:00Z,43.0,-82.3,24.0,8.0,190,10,22,9.0,30.029528,1017.1,,TRUE,,,,,,,,CLR,,,,,,,,VFR,,,,,,,,,,,,METAR,181.0
CYZP 241900Z AUTO 27024G29KT 9SM FEW036 11/05 A2983 RMK SLP103,CYZP,2022-10-24T19:00:00Z,53.25,-131.82,11.0,5.0,270,24,29,9.0,29.828741,1010.3,,TRUE,,,,,,,,FEW,3600,,,,,,,VFR,,,,,,,,,,,,METAR,7.0
CYZG 241900Z 30011KT 15SM -SN FEW013 BKN016 OVC020 M07/M10 A3027 RMK ST2SC5SC1 CIG RAG/LAST STFD OBS/NEXT251200 UTC SLP274,CYZG,2022-10-24T19:00:00Z,62.17,-75.67,-7.0,-10.0,300,11,,15.0,30.268702,1027.4,,,,,,,,,-SN,FEW,1300,BKN,1600,OVC,2000,,,MVFR,,,,,,,,,,,,METAR,217.0
CYZF 241900Z 05010KT 15SM -SN FEW010 BKN035 M02/M06 A2984 RMK SC1SC7 SC TR SLP123,CYZF,2022-10-24T19:00:00Z,62.47,-114.45,-2.0,-6.0,50,10,,15.0,29.840551,1012.3,,,,,,,,,-SN,FEW,1000,BKN,3500,,,,,VFR,,,,,,,,,,,,METAR,202.0
CYZE 241900Z AUTO 18012KT 9SM CLR 19/10 A2997 RMK SLP153 DENSITY ALT 1300FT,CYZE,2022-10-24T19:00:00Z,45.88,-82.57,19.0,10.0,180,12,,9.0,29.970472,1015.3,,TRUE,,,,,,,,CLR,,,,,,,,VFR,,,,,,,,,,,,METAR,189.0
CYYZ 241900Z 16004KT 100V180 15SM FEW250 18/09 A3013 RMK CI1 CI TR SLP206 DENSITY ALT 900FT,CYYZ,2022-10-24T19:00:00Z,43.67,-79.62,18.0,9.0,160,4,,15.0,30.129921,1020.6,,,,,,,,,,FEW,25000,,,,,,,VFR,,,,,,,,,,,,METAR,171.0
CYYY 241900Z 14003KT 10SM BKN180 13/08 A3029 RMK AC7 SLP259,CYYY,2022-10-24T19:00:00Z,48.6,-68.22,13.0,8.0,140,3,,10.0,30.28937,1025.9,,,,,,,,,,BKN,18000,,,,,,,VFR,,,,,,,,,,,,METAR,43.0
CYYW 241900Z AUTO 16012G24KT 7SM OVC004 12/ A2950 RMK DP MISG SLP988 DENSITY ALT 1500FT,CYYW,2022-10-24T19:00:00Z,50.3,-88.9,12.0,,160,12,24,7.0,29.500984,998.8,,TRUE,,,,,,,,OVC,400,,,,,,,LIFR,,,,,,,,,,,,METAR,320.0
CYYU 241900Z 16012G21KT 15SM BKN110 OVC120 18/09 A2985 RMK AC5AC3 SLP113 DENSITY ALT 1400FT,CYYU,2022-10-24T19:00:00Z,49.42,-82.47,18.0,9.0,160,12,21,15.0,29.84941,1011.3,,,,,,,,,,BKN,11000,OVC,12000,,,,,VFR,,,,,,,,,,,,METAR,228.0
CYYT 241900Z 34009KT 15SM FEW160 BKN230 BKN240 12/06 A3034 RMK AC1CI5CS1 SLP280,CYYT,2022-10-24T19:00:00Z,47.62,-52.73,12.0,6.0,340,9,,15.0,30.339567,1028.0,,,,,,,,,,FEW,16000,BKN,23000,BKN,24000,,,VFR,,,,,,,,,,,,METAR,128.0
CYYR 241900Z 36002KT 15SM BKN100 BKN150 BKN250 10/02 A3028 RMK AC6AC1CI1 SLP257,CYYR,2022-10-24T19:00:00Z,53.32,-60.42,10.0,2.0,360,2,,15.0,30.280512,1025.7,,,,,,,,,,BKN,10000,BKN,15000,BKN,25000,,,VFR,,,,,,,,,,,,METAR,42.0
CYYL 241900Z AUTO 04014G20KT 3/4SM -SN VV015 M04/M05 A2979 RMK SLP114,CYYL,2022-10-24T19:00:00Z,56.87,-101.07,-4.0,-5.0,40,14,20,0.75,29.790354,1011.4,,TRUE,,,,,,,-SN,OVX,0,,,,,,,LIFR,,,,,,,,,,,1500,METAR,351.0
CYYJ 241900Z 26005KT 200V310 20SM FEW045 BKN130 14/08 A2989 RMK SC1AC5 SLP124,CYYJ,2022-10-24T19:00:00Z,48.63,-123.42,14.0,8.0,260,5,,20.0,29.890747,1012.4,,,,,,,,,,FEW,4500,BKN,13000,,,,,VFR,,,,,,,,,,,,METAR,16.0
CYYH 241900Z 30008KT 4SM -SN OVC017 M12/M14 A2992 RMK SN2SC6 SLP139,CYYH,2022-10-24T19:00:00Z,69.53,-93.57,-12.0,-14.0,300,8,,4.0,29.920275,1013.9,,,,,,,,,-SN,OVC,1700,,,,,,,MVFR,,,,,,,,,,,,METAR,19.0
CYYG 241900Z 15004KT 15SM BKN140 BKN250 18/10 A3033 RMK AC7CI1 CI TR SLP274,CYYG,2022-10-24T19:00:00Z,46.28,-63.12,18.0,10.0,150,4,,15.0,30.33071,1027.4,,,,,,,,,,BKN,14000,BKN,25000,,,,,VFR,,,,,,,,,,,,METAR,48.0
CYYF 241900Z 18019G25KT 15SM BKN060 11/01 A2980 RMK SC5 SLP100,CYYF,2022-10-24T19:00:00Z,49.47,-119.6,11.0,1.0,180,19,25,15.0,29.799213,1010.0,,,,,,,,,,BKN,6000,,,,,,,VFR,,,,,,,,,,,,METAR,342.0
CYYD 241900Z 00000KT 20SM -RA SCT020 OVC055 04/02 A2953 RMK SC3SC5 SLP016,CYYD,2022-10-24T19:00:00Z,54.82,-127.18,4.0,2.0,0,0,,20.0,29.530512,1001.6,,,,,,,,,-RA,SCT,2000,OVC,5500,,,,,VFR,,,,,,,,,,,,METAR,527.0
CYYC 241900Z 16003KT 150V240 15SM BKN140 BKN300 04/M03 A2957 RMK AC5CI2 SLP057,CYYC,2022-10-24T19:00:00Z,51.12,-114.02,4.0,-3.0,160,3,,15.0,29.568897,1005.7,,,,,,,,,,BKN,14000,BKN,30000,,,,,VFR,,,,,,,,,,,,METAR,1085.0
CYYB 241900Z 19010G16KT 30SM FEW180 FEW250 22/05 A3008 RMK AC1CI1 AC TR SLP192 DENSITY ALT 2200FT,CYYB,2022-10-24T19:00:00Z,46.35,-79.42,22.0,5.0,190,10,16,30.0,30.079725,1019.2,,,,,,,,,,FEW,18000,FEW,25000,,,,,VFR,,,,,,,,,,,,METAR,360.0
CYXZ 241900Z 18010KT 15SM BKN030 20/12 A2983 RMK SC7 AWOS O/S T-12 ESTD WIND ESTD SLP106 DENSITY ALT 1900FT,CYXZ,2022-10-24T19:00:00Z,47.97,-84.77,20.0,12.0,180,10,,15.0,29.828741,1010.6,,,TRUE,,,,,,,BKN,3000,,,,,,,MVFR,,,,,,,,,,,,METAR,287.0
CYXY 241900Z 35007KT 1SM R32L/P6000FT/D -SN SCT008 OVC020 M03/M05 A2964 RMK SF4SC4 SLP078,CYXY,2022-10-24T19:00:00Z,60.72,-135.07,-3.0,-5.0,350,7,,1.0,29.639763,1007.8,,,,,,,,,-SN,SCT,800,OVC,2000,,,,,IFR,,,,,,,,,,,,METAR,677.0
CYXU 241900Z 15012KT 15SM FEW260 21/08 A3008 RMK CI1 SLP191 DENSITY ALT 1700FT,CYXU,2022-10-24T19:00:00Z,43.03,-81.15,21.0,8.0,150,12,,15.0,30.079725,1019.1,,,,,,,,,,FEW,26000,,,,,,,VFR,,,,,,,,,,,,METAR,278.0
CYXT 241900Z 20008G15KT 20SM SCT008 BKN025 BKN090 BKN210 07/04 A2966 RMK SF3CU2AC1CI1 SLP052,CYXT,2022-10-24T19:00:00Z,54.47,-128.57,7.0,4.0,200,8,15,20.0,29.660433,1005.2,,,,,,,,,,SCT,800,BKN,2500,BKN,9000,BKN,21000,MVFR,,,,,,,,,,,,METAR,213.0
CYXR 241900Z AUTO 14008KT 9SM SCT110 BKN140 BKN160 18/10 A3003 RMK SLP177 DENSITY ALT 1200FT,CYXR,2022-10-24T19:00:00Z,47.7,-79.85,18.0,10.0,140,8,,9.0,30.029528,1017.7,,TRUE,,,,,,,,SCT,11000,BKN,14000,BKN,16000,,,VFR,,,,,,,,,,,,METAR,244.0
CYXQ 241900Z 19002KT 20SM BKN040 OVC080 M08/M09 A2979 RMK SC6AC2 SLP136,CYXQ,2022-10-24T19:00:00Z,62.42,-140.87,-8.0,-9.0,190,2,,20.0,29.790354,1013.6,,,,,,,,,,BKN,4000,OVC,8000,,,,,VFR,,,,,,,,,,,,METAR,663.0
CYXP 241900Z 29016G21KT 15SM SCT035 BKN048 M05/M11 A3004 RMK SC3SC3 SLP177,CYXP,2022-10-24T19:00:00Z,66.15,-65.72,-5.0,-11.0,290,16,21,15.0,30.041338,1017.7,,,,,,,,,,SCT,3500,BKN,4800,,,,,VFR,,,,,,,,,,,,METAR,29.0
CYXN 241900Z 07006KT 15SM BKN018 BKN230 M06/M10 A3023 RMK SC5CS2 SLP239,CYXN,2022-10-24T19:00:00Z,62.23,-92.58,-6.0,-10.0,70,6,,15.0,30.230314,1023.9,,,,,,,,,,BKN,1800,BKN,23000,,,,,MVFR,,,,,,,,,,,,METAR,9.0
CYXJ 241900Z CCA 03004KT 320V050 10SM -SN BKN007 BKN038 01/M00 A2957 RMK SF6SC1 SLP047,CYXJ,2022-10-24T19:00:00Z,56.25,-120.73,1.0,0.0,30,4,,10.0,29.568897,1004.7,,,,,,,,,-SN,BKN,700,BKN,3800,,,,,IFR,,,,,,,,,,,,METAR,700.0
CYXH 241900Z 21015G21KT 30SM FEW080 FEW270 06/M00 A2965 RMK AC1CI2 AC TR SLP064,CYXH,2022-10-24T19:00:00Z,50.02,-110.72,6.0,0.0,210,15,21,30.0,29.648623,1006.4,,,,,,,,,,FEW,8000,FEW,27000,,,,,VFR,,,,,,,,,,,,METAR,717.0
CYXE 241900Z 34008KT 15SM BKN014 OVC050 01/M02 A2969 RMK SC5SC3 SLP082,CYXE,2022-10-24T19:00:00Z,52.17,-106.7,1.0,-2.0,340,8,,15.0,29.68996,1008.2,,,,,,,,,,BKN,1400,OVC,5000,,,,,MVFR,,,,,,,,,,,,METAR,504.0
CYXC 241900Z 12008KT 25SM FEW024 BKN046 OVC068 04/01 A2979 RMK SC2SC4AC2 SLP111,CYXC,2022-10-24T19:00:00Z,49.6,-115.78,4.0,1.0,120,8,,25.0,29.790354,1011.1,,,,,,,,,,FEW,2400,BKN,4600,OVC,6800,,,VFR,,,,,,,,,,,,METAR,928.0
CYWY 241900Z 30003KT 280V040 12SM -SN FEW008 BKN059 BKN086 BKN140 M04/M06 A2994 RMK SF2SC4AC1AC1 AC TR PCP VRY LGT SLP154,CYWY,2022-10-24T19:00:00Z,63.22,-123.43,-4.0,-6.0,300,3,,12.0,29.940945,1015.4,,,,,,,,,-SN,FEW,800,BKN,5900,BKN,8600,BKN,14000,VFR,,,,,,,,,,,,METAR,135.0
CYWL 241900Z 12007KT 15SM BKN079 OVC230 05/M01 A2964 RMK AC7CI1 SLP063,CYWL,2022-10-24T19:00:00Z,52.18,-122.07,5.0,-1.0,120,7,,15.0,29.639763,1006.3,,,,,,,,,,BKN,7900,OVC,23000,,,,,VFR,,,,,,,,,,,,METAR,942.0
CYWK 241900Z 21008KT 15SM FEW050 BKN230 17/09 A3019 RMK SC1CI4 SLP244 DENSITY ALT 2200FT,CYWK,2022-10-24T19:00:00Z,52.92,-66.87,17.0,9.0,210,8,,15.0,30.188976,1024.4,,,,,,,,,,FEW,5000,BKN,23000,,,,,VFR,,,,,,,,,,,,METAR,547.0
CYWJ 241900Z 26004KT 30SM BKN011 BKN066 M05/M07 A2995 RMK SC5AS1 SLP161,CYWJ,2022-10-24T19:00:00Z,65.22,-123.43,-5.0,-7.0,260,4,,30.0,29.949802,1016.1,,,,,,,,,,BKN,1100,BKN,6600,,,,,MVFR,,,,,,,,,,,,METAR,208.0
CYWH 241900Z 25020G28KT 15SM FEW012 SCT035TCU BKN150 12/08 A2991 RMK CF1TCU3AC1 SLP131,CYWH,2022-10-24T19:00:00Z,48.42,-123.38,12.0,8.0,250,20,28,15.0,29.911417,1013.1,,,,,,,,,,FEW,1200,SCT,3500,BKN,15000,,,VFR,,,,,,,,,,,,METAR,4.0
CYWG 241900Z 25009KT 10SM -RA OVC007 07/06 A2916 RMK SC8 SLP881 DENSITY ALT 1000FT,CYWG,2022-10-24T19:00:00Z,49.9,-97.23,7.0,6.0,250,9,,10.0,29.161417,988.1,,,,,,,,,-RA,OVC,700,,,,,,,IFR,,,,,,,,,,,,METAR,238.0
CYWE 241900Z AUTO 01003KT 340V040 9SM -SN OVC050 M06/M07 A2986 RMK ICE MISG SLP143,CYWE,2022-10-24T19:00:00Z,64.18,-114.08,-6.0,-7.0,10,3,,9.0,29.861221,1014.3,,TRUE,,,,,,,-SN,OVC,5000,,,,,,,VFR,,,,,,,,,,,,METAR,374.0
CYWA 241900Z 12007KT 15SM SKC 19/09 A3014 RMK DENSITY ALT 862FT SLP210,CYWA,2022-10-24T19:00:00Z,45.95,-77.32,19.0,9.0,120,7,,15.0,30.138779,1021.0,,,,,,,,,,SKC,,,,,,,,VFR,,,,,,,,,,,,METAR,121.0
CYVV 241900Z 16011G17KT 15SM FEW150 SCT250 24/08 A3003 RMK AC2CI1 SLP173 DENSITY ALT 1800FT,CYVV,2022-10-24T19:00:00Z,44.75,-81.1,24.0,8.0,160,11,17,15.0,30.029528,1017.3,,,,,,,,,,FEW,15000,SCT,25000,,,,,VFR,,,,,,,,,,,,METAR,221.0
CYVT 241900Z AUTO 00000KT 9SM OVC018 00/M04 A2976 RMK SLP105,CYVT,2022-10-24T19:00:00Z,55.83,-108.42,0.0,-4.0,0,0,,9.0,29.760826,1010.5,,TRUE,,,,,,,,OVC,1800,,,,,,,MVFR,,,,,,,,,,,,METAR,438.0
CYVR 241900Z 08007KT 15SM BKN010 BKN016 BKN210 10/09 A2989 RMK SC6SC1CI1 CI TR SLP125,CYVR,2022-10-24T19:00:00Z,49.17,-123.17,10.0,9.0,80,7,,15.0,29.890747,1012.5,,,,,,,,,,BKN,1000,BKN,1600,BKN,21000,,,MVFR,,,,,,,,,,,,METAR,2.0
CYVQ 241900Z VRB02KT 6SM -SN BKN007 OVC010 M04/M06 A2998 RMK ST7ST1 VIS E 20 NW 1 3/4 SLP162,CYVQ,2022-10-24T19:00:00Z,65.27,-126.78,-4.0,-6.0,0,2,,6.0,29.97933,1016.2,,,,,,,,,-SN,BKN,700,OVC,1000,,,,,IFR,,,,,,,,,,,,METAR,63.0
CYVP 241900Z 36003KT 330V050 15SM BKN026 BKN240 02/M04 A3032 RMK CU6CI1 SLP273,CYVP,2022-10-24T19:00:00Z,58.12,-68.42,2.0,-4.0,360,3,,15.0,30.318897,1027.3,,,,,,,,,,BKN,2600,BKN,24000,,,,,MVFR,,,,,,,,,,,,METAR,28.0
CYVO 241900Z 17011G16KT 15SM SCT180 20/04 A3009 RMK AC4 SLP200 DENSITY ALT 1800FT,CYVO,2022-10-24T19:00:00Z,48.07,-77.77,20.0,4.0,170,11,16,15.0,30.088583,1020.0,,,,,,,,,,SCT,18000,,,,,,,VFR,,,,,,,,,,,,METAR,329.0
CYVM 241900Z 20003KT 180V270 15SM FEW006 M07/M14 A2987 RMK ST1 ST TR SLP118,CYVM,2022-10-24T19:00:00Z,67.55,-64.02,-7.0,-14.0,200,3,,15.0,29.870079,1011.8,,,,,,,,,,FEW,600,,,,,,,VFR,,,,,,,,,,,,METAR,3.0
CYVL 241900Z AUTO 04005KT 9SM -SN OVC011 M08/M09 A2994 RMK SLP169,CYVL,2022-10-24T19:00:00Z,67.02,-126.13,-8.0,-9.0,40,5,,9.0,29.940945,1016.9,,TRUE,,,,,,,-SN,OVC,1100,,,,,,,MVFR,,,,,,,,,,,,METAR,261.0
CYVC 241900Z 03007KT 15SM BKN020 OVC060 02/M04 A2977 RMK SC7SC1 SLP102,CYVC,2022-10-24T19:00:00Z,55.15,-105.27,2.0,-4.0,30,7,,15.0,29.769686,1010.2,,,,,,,,,,BKN,2000,OVC,6000,,,,,MVFR,,,,,,,,,,,,METAR,378.0
CYUY 241900Z 18010KT 15SM SCT140 BKN170 19/04 A3005 RMK AC4AC3 SLP183 DENSITY ALT 1600FT,CYUY,2022-10-24T19:00:00Z,48.2,-78.82,19.0,4.0,180,10,,15.0,30.050198,1018.3,,,,,,,,,,SCT,14000,BKN,17000,,,,,VFR,,,,,,,,,,,,METAR,304.0
CYUX 241900Z 25009KT 10SM -SN FEW025 BKN050 M09/M11 A2999 RMK SC2SC5 -SN INTMT VIA CYXU SLP158,CYUX,2022-10-24T19:00:00Z,68.77,-81.22,-9.0,-11.0,250,9,,10.0,29.991142,1015.8,,,,,,,,,-SN,FEW,2500,BKN,5000,,,,,VFR,,,,,,,,,,,,METAR,8.0
CYUT 241900Z 28014G22KT 15SM DRSN SCT025 M10/M15 A3016 RMK SC4 SLP219,CYUT,2022-10-24T19:00:00Z,66.52,-86.22,-10.0,-15.0,280,14,22,15.0,30.159449,1021.9,,,,,,,,,DRSN,SCT,2500,,,,,,,VFR,,,,,,,,,,,,METAR,22.0
CYUS 241900Z AUTO 23003KT 200V330 ////SM //// FEW003 SCT007 BKN012 M08/M10 A2992,CYUS,2022-10-24T19:00:00Z,68.78,-93.42,-8.0,-10.0,230,3,,,29.920275,,,TRUE,,,,,,,,FEW,300,SCT,700,BKN,1200,,,,,,,,,,,,,,,METAR,30.0
CYUL 241900Z 10010KT 30SM FEW100 SCT200 BKN250 20/06 A3018 RMK AC1CI2CC2 SLP221 DENSITY ALT 500FT,CYUL,2022-10-24T19:00:00Z,45.47,-73.73,20.0,6.0,100,10,,30.0,30.180119,1022.1,,,,,,,,,,FEW,10000,SCT,20000,BKN,25000,,,VFR,,,,,,,,,,,,METAR,31.0
CYUB 241900Z 21004KT 15SM BKN027 M10/M12 A3008 RMK SC7 SLP187,CYUB,2022-10-24T19:00:00Z,69.43,-133.02,-10.0,-12.0,210,4,,15.0,30.079725,1018.7,,,,,,,,,,BKN,2700,,,,,,,MVFR,,,,,,,,,,,,METAR,5.0
CYUA 241900Z AUTO 20003KT ////SM OVC003 M15/M18 A3004,CYUA,2022-10-24T19:00:00Z,68.92,-137.23,-15.0,-18.0,200,3,,,30.041338,,,TRUE,,,,,,,,OVC,300,,,,,,,,,,,,,,,,,,,METAR,25.0
CYTZ 241900Z AUTO VRB04KT 9SM CLR 16/09 A3012 RMK SLP203,CYTZ,2022-10-24T19:00:00Z,43.63,-79.4,16.0,9.0,0,4,,9.0,30.121063,1020.3,,TRUE,,,,,,,,CLR,,,,,,,,VFR,,,,,,,,,,,,METAR,76.0
CYTS 241900Z 16010G16KT 15SM SCT100 BKN120 19/08 A2995 RMK AC4AC3 SLP149 DENSITY ALT 1600FT,CYTS,2022-10-24T19:00:00Z,48.57,-81.37,19.0,8.0,160,10,16,15.0,29.949802,1014.9,,,,,,,,,,SCT,10000,BKN,12000,,,,,VFR,,,,,,,,,,,,METAR,290.0
CYTR 241900Z 12004KT 100V160 15SM FEW150 21/10 A3013 RMK AC1 DENSITY ALT 975FT SLP205,CYTR,2022-10-24T19:00:00Z,44.12,-77.52,21.0,10.0,120,4,,15.0,30.129921,1020.5,,,,,,,,,,FEW,15000,,,,,,,VFR,,,,,,,,,,,,METAR,80.0
CYTQ 241900Z 36005KT 15SM BKN030 BKN040 00/M06 A3032 RMK SC6SC1 SLP273,CYTQ,2022-10-24T19:00:00Z,58.67,-69.95,0.0,-6.0,360,5,,15.0,30.318897,1027.3,,,,,,,,,,BKN,3000,BKN,4000,,,,,MVFR,,,,,,,,,,,,METAR,14.0
CYTL 241900Z AUTO 13007G15KT 090V160 2 1/2SM -RA BR OVC003 05/05 A2942 RMK SLP975,CYTL,2022-10-24T19:00:00Z,53.82,-89.88,5.0,5.0,130,7,15,2.5,29.421259,997.5,,TRUE,,,,,,,-RA BR,OVC,300,,,,,,,LIFR,,,,,,,,,,,,METAR,218.0
CYTE 241900Z 29011KT 15SM -SN OVC028 M06/M09 A3023 RMK SC8 SLP245,CYTE,2022-10-24T19:00:00Z,64.22,-76.52,-6.0,-9.0,290,11,,15.0,30.230314,1024.5,,,,,,,,,-SN,OVC,2800,,,,,,,MVFR,,,,,,,,,,,,METAR,49.0
CYSY 241900Z 02017KT 15SM DRSN FEW022 FEW080 M18/M19 A3003 RMK SC1AC1 SC TR SLP184,CYSY,2022-10-24T19:00:00Z,72.0,-125.23,-18.0,-19.0,20,17,,15.0,30.029528,1018.4,,,,,,,,,DRSN,FEW,2200,FEW,8000,,,,,VFR,,,,,,,,,,,,METAR,83.0
CYSP 241900Z 18013G26KT 150V210 15SM FEW025 BKN042 BKN090 16/12 A2970 RMK SC2SC4AC1 SLP061 DENSITY ALT 1700FT,CYSP,2022-10-24T19:00:00Z,48.75,-86.35,16.0,12.0,180,13,26,15.0,29.698818,1006.1,,,,,,,,,,FEW,2500,BKN,4200,BKN,9000,,,VFR,,,,,,,,,,,,METAR,312.0
CYSN 241900Z 02006KT 15SM SKC 16/11 A3011 RMK SLP201,CYSN,2022-10-24T19:00:00Z,43.2,-79.17,16.0,11.0,20,6,,15.0,30.109253,1020.1,,,,,,,,,,SKC,,,,,,,,VFR,,,,,,,,,,,,METAR,96.0
CYSM 241900Z 12003KT 090V160 8SM OVC008 01/01 A2977 RMK SC8 SLP095,CYSM,2022-10-24T19:00:00Z,60.03,-111.92,1.0,1.0,120,3,,8.0,29.769686,1009.5,,,,,,,,,,OVC,800,,,,,,,IFR,,,,,,,,,,,,METAR,203.0
CYSK 241900Z 06021G28KT 15SM BKN051 04/02 A2998 RMK SC7 SLP158,CYSK,2022-10-24T19:00:00Z,56.53,-79.25,4.0,2.0,60,21,28,15.0,29.97933,1015.8,,,,,,,,,,BKN,5100,,,,,,,VFR,,,,,,,,,,,,METAR,28.0
CYSJ 241900Z 10007KT 15SM FEW011 OVC023 17/13 A3031 RMK SC2SC6 SLP267,CYSJ,2022-10-24T19:00:00Z,45.32,-65.88,17.0,13.0,100,7,,15.0,30.31004,1026.7,,,,,,,,,,FEW,1100,OVC,2300,,,,,MVFR,,,,,,,,,,,,METAR,89.0
CYSF 241900Z AUTO 10008KT 080V150 9SM CLR 01/M07 A2989 RMK SLP140,CYSF,2022-10-24T19:00:00Z,59.25,-105.83,1.0,-7.0,100,8,,9.0,29.890747,1014.0,,TRUE,,,,,,,,CLR,,,,,,,,VFR,,,,,,,,,,,,METAR,238.0
CYSC 241900Z AUTO 06005KT 020V090 9SM FEW029 A3021 RMK PRESFR T MISG DP MISG DENSITY ALT MISG,CYSC,2022-10-24T19:00:00Z,45.43,-71.68,,,60,5,,9.0,30.209646,,,TRUE,,,,,,,,FEW,2900,,,,,,,VFR,,,,,,,,,,,,METAR,236.0
CYSB 241900Z 19015G21KT 20SM BKN140 BKN190 21/06 A3006 RMK AC5CI1 SLP183 DENSITY ALT 2000FT,CYSB,2022-10-24T19:00:00Z,46.63,-80.8,21.0,6.0,190,15,21,20.0,30.059055,1018.3,,,,,,,,,,BKN,14000,BKN,19000,,,,,VFR,,,,,,,,,,,,METAR,349.0
CYRV 241900Z AUTO 19008G16KT 9SM -RA FEW014 BKN021 OVC027 05/03 A2979 RMK PCPN 0.5MM PAST HR SLP102,CYRV,2022-10-24T19:00:00Z,50.97,-118.17,5.0,3.0,190,8,16,9.0,29.790354,1010.2,,TRUE,,,,,,,-RA,FEW,1400,BKN,2100,OVC,2700,,,MVFR,,,,,,,,,,,,METAR,456.0
CYRT 241900Z 22006KT 15SM FEW015 FEW040 BKN250 M06/M11 A3023 RMK SC1SC1CI4 SC TR SLP241,CYRT,2022-10-24T19:00:00Z,62.82,-92.12,-6.0,-11.0,220,6,,15.0,30.230314,1024.1,,,,,,,,,,FEW,1500,FEW,4000,BKN,25000,,,VFR,,,,,,,,,,,,METAR,29.0
CYRQ 241900Z AUTO 08006KT 040V140 9SM FEW025 BKN230 20/11 A3021 RMK SLP234 DENSITY ALT 500FT,CYRQ,2022-10-24T19:00:00Z,46.35,-72.68,20.0,11.0,80,6,,9.0,30.209646,1023.4,,TRUE,,,,,,,,FEW,2500,BKN,23000,,,,,VFR,,,,,,,,,,,,METAR,58.0
CYRJ 241900Z 08004KT 060V130 25SM FEW100 16/08 A3021 RMK AC1 AC TR SLP236,CYRJ,2022-10-24T19:00:00Z,48.52,-72.27,16.0,8.0,80,4,,25.0,30.209646,1023.6,,,,,,,,,,FEW,10000,,,,,,,VFR,,,,,,,,,,,,METAR,173.0
CYRB 241900Z 05004KT 15SM OVC008 M16/M18 A2980 RMK ST8 SLP103,CYRB,2022-10-24T19:00:00Z,74.72,-94.97,-16.0,-18.0,50,4,,15.0,29.799213,1010.3,,,,,,,,,,OVC,800,,,,,,,IFR,,,,,,,,,,,,METAR,59.0
CYRA 241900Z 35005KT 15SM BKN061 M05/M10 A2993 RMK SC7 SLP156,CYRA,2022-10-24T19:00:00Z,64.12,-117.32,-5.0,-10.0,350,5,,15.0,29.929134,1015.6,,,,,,,,,,BKN,6100,,,,,,,VFR,,,,,,,,,,,,METAR,232.0
CYQY 241900Z 16009KT 15SM BKN120 BKN250 18/12 A3035 RMK AC5CI1 SLP281,CYQY,2022-10-24T19:00:00Z,46.17,-60.03,18.0,12.0,160,9,,15.0,30.351377,1028.1,,,,,,,,,,BKN,12000,BKN,25000,,,,,VFR,,,,,,,,,,,,METAR,58.0
CYQX 241900Z 31007KT 20SM FEW170 SCT210 BKN260 13/04 A3034 RMK AC2CC1CI3 CONTRAILS SLP280,CYQX,2022-10-24T19:00:00Z,48.95,-54.58,13.0,4.0,310,7,,20.0,30.339567,1028.0,,,,,,,,,,FEW,17000,SCT,21000,BKN,26000,,,VFR,,,,,,,,,,,,METAR,144.0
CYQW 241900Z AUTO 35004KT 290V010 9SM OVC004 M00/M02 A2974 RMK SLP103,CYQW,2022-10-24T19:00:00Z,52.77,-108.25,0.0,-2.0,350,4,,9.0,29.740158,1010.3,,TRUE,,,,,,,,OVC,400,,,,,,,LIFR,,,,,,,,,,,,METAR,545.0
CYQV 241900Z AUTO 33015G22KT 9SM OVC016 M01/M03 A2948 RMK SLP011,CYQV,2022-10-24T19:00:00Z,51.27,-102.47,-1.0,-3.0,330,15,22,9.0,29.480314,1001.1,,TRUE,,,,,,,,OVC,1600,,,,,,,MVFR,,,,,,,,,,,,METAR,493.0
CYQU 241900Z 20003KT 160V230 25SM BKN065 04/01 A2957 RMK SC7 SLP041,CYQU,2022-10-24T19:00:00Z,55.18,-118.88,4.0,1.0,200,3,,25.0,29.568897,1004.1,,,,,,,,,,BKN,6500,,,,,,,VFR,,,,,,,,,,,,METAR,668.0
CYQT 241900Z 16011KT 20SM FEW010 BKN031 BKN120 18/14 A2952 RMK SF1SC5AC1 VIS N-NE 10 SLP000 DENSITY ALT 1600FT,CYQT,2022-10-24T19:00:00Z,48.37,-89.32,18.0,14.0,160,11,,20.0,29.518702,1000.0,,,,,,,,,,FEW,1000,BKN,3100,BKN,12000,,,VFR,,,,,,,,,,,,METAR,197.0
CYQR 241900Z 33021KT 15SM OVC006 M01/M02 A2962 RMK SC8 CIG RAG SLP061,CYQR,2022-10-24T19:00:00Z,50.43,-104.67,-1.0,-2.0,330,21,,15.0,29.619095,1006.1,,,,,,,,,,OVC,600,,,,,,,IFR,,,,,,,,,,,,METAR,576.0
CYQQ 241900Z 09005KT 20SM BKN012 BKN070 10/07 A2987 RMK SC5AC2 SLP116,CYQQ,2022-10-24T19:00:00Z,49.72,-124.9,10.0,7.0,90,5,,20.0,29.870079,1011.6,,,,,,,,,,BKN,1200,BKN,7000,,,,,MVFR,,,,,,,,,,,,METAR,24.0
CYQM 241900Z 09002KT 15SM -RA FEW055 BKN120 BKN160 19/09 A3031 RMK SC1AC5AC1 AC TR SLP267 DENSITY ALT 400FT,CYQM,2022-10-24T19:00:00Z,46.12,-64.67,19.0,9.0,90,2,,15.0,30.31004,1026.7,,,,,,,,,-RA,FEW,5500,BKN,12000,BKN,16000,,,VFR,,,,,,,,,,,,METAR,67.0
CYQL 241900Z 25013KT 60SM SCT100 BKN270 05/M02 A2965 RMK AC3CI3 SLP074,CYQL,2022-10-24T19:00:00Z,49.63,-112.8,5.0,-2.0,250,13,,60.0,29.648623,1007.4,,,,,,,,,,SCT,10000,BKN,27000,,,,,VFR,,,,,,,,,,,,METAR,923.0
CYQK 241900Z 21018G29KT 20SM BKN014 10/07 A2926 RMK SC7 SLP916 DENSITY ALT 1900FT,CYQK,2022-10-24T19:00:00Z,49.78,-94.37,10.0,7.0,210,18,29,20.0,29.258858,991.6,,,,,,,,,,BKN,1400,,,,,,,MVFR,,,,,,,,,,,,METAR,413.0
CYQG 241900Z AUTO 19013G19KT 9SM CLR 24/07 A3004 RMK SLP173 DENSITY ALT 1800FT,CYQG,2022-10-24T19:00:00Z,42.27,-82.97,24.0,7.0,190,13,19,9.0,30.041338,1017.3,,TRUE,,,,,,,,CLR,,,,,,,,VFR,,,,,,,,,,,,METAR,189.0
CYQF 241900Z AUTO 18005KT 150V220 9SM SCT086 BKN190 02/M01 A2959 RMK PCPN 6.3MM PAST HR SLP061,CYQF,2022-10-24T19:00:00Z,52.17,-113.9,2.0,-1.0,180,5,,9.0,29.589567,1006.1,,TRUE,,,,,,,,SCT,8600,BKN,19000,,,,,VFR,,,,,,,,,,,,METAR,912.0
CYQB 241900Z 06006KT 25SM BKN032 BKN120 BKN200 17/09 A3024 RMK SC5AC1CI1 SLP244,CYQB,2022-10-24T19:00:00Z,46.78,-71.38,17.0,9.0,60,6,,25.0,30.239174,1024.4,,,,,,,,,,BKN,3200,BKN,12000,BKN,20000,,,VFR,,,,,,,,,,,,METAR,73.0
CYQA 241900Z AUTO 17012KT 9SM CLR 21/05 A3009 RMK SLP196 DENSITY ALT 1700FT,CYQA,2022-10-24T19:00:00Z,44.97,-79.3,21.0,5.0,170,12,,9.0,30.088583,1019.6,,TRUE,,,,,,,,CLR,,,,,,,,VFR,,,,,,,,,,,,METAR,277.0
CYPY 241900Z AUTO 13006KT 110V180 9SM FEW010 BKN071 02/00 A2975 RMK SLP091,CYPY,2022-10-24T19:00:00Z,58.77,-111.12,2.0,0.0,130,6,,9.0,29.749016,1009.1,,TRUE,,,,,,,,FEW,1000,BKN,7100,,,,,VFR,,,,,,,,,,,,METAR,225.0
CYPX 241900Z AUTO 07007KT 9SM OVC027 M01/M06 A3029 RMK SLP260,CYPX,2022-10-24T19:00:00Z,60.03,-77.27,-1.0,-6.0,70,7,,9.0,30.28937,1026.0,,TRUE,,,,,,,,OVC,2700,,,,,,,MVFR,,,,,,,,,,,,METAR,10.0
CYPR 241900Z AUTO 30009G15KT 250V320 9SM SCT036 OVC045 10/05 A2974 RMK SLP074,CYPR,2022-10-24T19:00:00Z,54.28,-130.45,10.0,5.0,300,9,15,9.0,29.740158,1007.4,,TRUE,,,,,,,,SCT,3600,OVC,4500,,,,,VFR,,,,,,,,,,,,METAR,30.0
CYPQ 241900Z AUTO 13006KT 100V200 9SM CLR 22/09 A3013 RMK SLP207 DENSITY ALT 1400FT,CYPQ,2022-10-24T19:00:00Z,44.22,-78.37,22.0,9.0,130,6,,9.0,30.129921,1020.7,,TRUE,,,,,,,,CLR,,,,,,,,VFR,,,,,,,,,,,,METAR,190.0
CYPH 241900Z AUTO 08021G26KT 9SM FEW130 M01/M04 A3018 RMK SLP223,CYPH,2022-10-24T19:00:00Z,58.47,-78.08,-1.0,-4.0,80,21,26,9.0,30.180119,1022.3,,TRUE,,,,,,,,FEW,13000,,,,,,,VFR,,,,,,,,,,,,METAR,24.0
CYPE 241900Z 20004KT 130V230 15SM OVC048 04/00 A2958 RMK SC8 SLP043,CYPE,2022-10-24T19:00:00Z,56.22,-117.45,4.0,0.0,200,4,,15.0,29.58071,1004.3,,,,,,,,,,OVC,4800,,,,,,,VFR,,,,,,,,,,,,METAR,572.0
CYPD 241900Z AUTO 16004KT 9SM CLR 19/09 A3035 RMK SLP283 DENSITY ALT 500FT,CYPD,2022-10-24T19:00:00Z,45.67,-61.37,19.0,9.0,160,4,,9.0,30.351377,1028.3,,TRUE,,,,,,,,CLR,,,,,,,,VFR,,,,,,,,,,,,METAR,106.0
CYPC 241900Z 28012KT 3SM -SN BKN012 OVC026 M07/M10 A3003 RMK SC7SC1 SLP171,CYPC,2022-10-24T19:00:00Z,69.37,-124.07,-7.0,-10.0,280,12,,3.0,30.029528,1017.1,,,,,,,,,-SN,BKN,1200,OVC,2600,,,,,MVFR,,,,,,,,,,,,METAR,5.0
CYPA 241900Z 35006KT 15SM FEW016 BKN052 02/M02 A2971 RMK SC2SC4 SLP083,CYPA,2022-10-24T19:00:00Z,53.22,-105.67,2.0,-2.0,350,6,,15.0,29.71063,1008.3,,,,,,,,,,FEW,1600,BKN,5200,,,,,VFR,,,,,,,,,,,,METAR,428.0
CYOY 241900Z 11003KT 080V140 15SM SCT060 BKN120 18/10 A3026 RMK SC3AC3 DENSITY ALT 798FT SLP250,CYOY,2022-10-24T19:00:00Z,46.88,-71.5,18.0,10.0,110,3,,15.0,30.259842,1025.0,,,,,,,,,,SCT,6000,BKN,12000,,,,,VFR,,,,,,,,,,,,METAR,167.0
CYOW 241900Z 00000KT 15SM FEW220 21/07 A3016 RMK CI1 CI TR SLP217 DENSITY ALT 900FT,CYOW,2022-10-24T19:00:00Z,45.32,-75.67,21.0,7.0,0,0,,15.0,30.159449,1021.7,,,,,,,,,,FEW,22000,,,,,,,VFR,,,,,,,,,,,,METAR,111.0
CYOO 241900Z AUTO 13007KT 9SM CLR 19/09 A3013 RMK SLP205 DENSITY ALT 800FT,CYOO,2022-10-24T19:00:00Z,43.92,-78.9,19.0,9.0,130,7,,9.0,30.129921,1020.5,,TRUE,,,,,,,,CLR,,,,,,,,VFR,,,,,,,,,,,,METAR,136.0
CYOD 241900Z 09006KT 8SM OVC005 M01/M02 A2973 RMK ST8 DENSITY ALT 406FT SLP095,CYOD,2022-10-24T19:00:00Z,54.4,-110.28,-1.0,-2.0,90,6,,8.0,29.731298,1009.5,,,,,,,,,,OVC,500,,,,,,,IFR,,,,,,,,,,,,METAR,540.0
CYOC 241900Z 00000KT 30SM -SN FEW017 SCT037 OVC056 M09/M11 A2996 RMK ST2SC2SC4 SLP173,CYOC,2022-10-24T19:00:00Z,67.57,-139.83,-9.0,-11.0,0,0,,30.0,29.958662,1017.3,,,,,,,,,-SN,FEW,1700,SCT,3700,OVC,5600,,,VFR,,,,,,,,,,,,METAR,253.0
CYNM 241900Z AUTO 17014G19KT 9SM CLR 20/02 A3004 RMK SLP181 DENSITY ALT 1600FT,CYNM,2022-10-24T19:00:00Z,49.77,-77.78,20.0,2.0,170,14,19,9.0,30.041338,1018.1,,TRUE,,,,,,,,CLR,,,,,,,,VFR,,,,,,,,,,,,METAR,276.0
CYND 241900Z 06005KT 030V090 15SM FEW240 21/07 A3016 RMK CI1 CI TR SLP217 DENSITY ALT 700FT,CYND,2022-10-24T19:00:00Z,45.52,-75.57,21.0,7.0,60,5,,15.0,30.159449,1021.7,,,,,,,,,,FEW,24000,,,,,,,VFR,,,,,,,,,,,,METAR,57.0
CYNA 241900Z AUTO 14004KT 9SM CLR 13/08 A3030 RMK ICE MISG SLP264,CYNA,2022-10-24T19:00:00Z,50.18,-61.78,13.0,8.0,140,4,,9.0,30.301182,1026.4,,TRUE,,,,,,,,CLR,,,,,,,,VFR,,,,,,,,,,,,METAR,9.0
CYMX 241900Z 09004KT 20SM SCT026 BKN100 BKN250 20/08 A3018 RMK SC4AC1CI1 SLP223 DENSITY ALT 700FT,CYMX,2022-10-24T19:00:00Z,45.67,-74.03,20.0,8.0,90,4,,20.0,30.180119,1022.3,,,,,,,,,,SCT,2600,BKN,10000,BKN,25000,,,VFR,,,,,,,,,,,,METAR,78.0
CYMU 241900Z 07029G36KT 15SM FEW009 BKN068 BKN200 03/01 A3001 RMK SF1AC7CI1 SF TR CI TR SLP170,CYMU,2022-10-24T19:00:00Z,56.53,-76.52,3.0,1.0,70,29,36,15.0,30.008858,1017.0,,,,,,,,,,FEW,900,BKN,6800,BKN,20000,,,VFR,,,,,,,,,,,,METAR,69.0
CYMT 241900Z AUTO 16011G16KT 9SM CLR 19/04 A3014 RMK SLP216 DENSITY ALT 1900FT,CYMT,2022-10-24T19:00:00Z,49.77,-74.52,19.0,4.0,160,11,16,9.0,30.138779,1021.6,,TRUE,,,,,,,,CLR,,,,,,,,VFR,,,,,,,,,,,,METAR,388.0
CYMO 241900Z AUTO 17009KT 9SM BKN110 BKN130 BKN180 20/10 A2986 RMK SLP115 DENSITY ALT 700FT,CYMO,2022-10-24T19:00:00Z,51.28,-80.62,20.0,10.0,170,9,,9.0,29.861221,1011.5,,TRUE,,,,,,,,BKN,11000,BKN,13000,BKN,18000,,,VFR,,,,,,,,,,,,METAR,8.0
CYMH 241900Z AUTO 07004KT 020V130 9SM CLR 11/M00 A3024 RMK SLP244,CYMH,2022-10-24T19:00:00Z,52.3,-55.82,11.0,0.0,70,4,,9.0,30.239174,1024.4,,TRUE,,,,,,,,CLR,,,,,,,,VFR,,,,,,,,,,,,METAR,18.0
CYMA 241900Z 31006KT 20SM SCT038 OVC130 M05/M09 A2977 RMK SC4AC4 SLP119,CYMA,2022-10-24T19:00:00Z,63.62,-135.87,-5.0,-9.0,310,6,,20.0,29.769686,1011.9,,,,,,,,,,SCT,3800,OVC,13000,,,,,VFR,,,,,,,,,,,,METAR,519.0
CYLW 241900Z AUTO 15004KT 120V210 9SM OVC066 10/01 A2978 RMK SLP094,CYLW,2022-10-24T19:00:00Z,49.95,-119.37,10.0,1.0,150,4,,9.0,29.778543,1009.4,,TRUE,,,,,,,,OVC,6600,,,,,,,VFR,,,,,,,,,,,,METAR,420.0
CYLU 241900Z 30009KT 15SM OVC021 M01/M05 A3033 RMK SC8 LAST STFD OBS/NEXT 251200 UTC SLP279,CYLU,2022-10-24T19:00:00Z,58.72,-65.98,-1.0,-5.0,300,9,,15.0,30.33071,1027.9,,,,,,,,,,OVC,2100,,,,,,,MVFR,,,,,,,,,,,,METAR,61.0
CYLT 241900Z 24006KT 10SM BKN006 OVC012 M22/M26 A3012 RMK SF6SC2 SLP204,CYLT,2022-10-24T19:00:00Z,82.52,-62.32,-22.0,-26.0,240,6,,10.0,30.121063,1020.4,,,,,,,,,,BKN,600,OVC,1200,,,,,IFR,,,,,,,,,,,,METAR,9.0
CYLL 241900Z 15007KT 15SM FEW030 BKN260 02/M04 A2968 RMK CU1CI7 CU TR SLP086,CYLL,2022-10-24T19:00:00Z,53.32,-110.07,2.0,-4.0,150,7,,15.0,29.681103,1008.6,,,,,,,,,,FEW,3000,BKN,26000,,,,,VFR,,,,,,,,,,,,METAR,664.0
CYLJ 241900Z 03005KT 360V170 10SM OVC006 M01/M02 A2975 RMK SC8 BR SLP103,CYLJ,2022-10-24T19:00:00Z,54.12,-108.52,-1.0,-2.0,30,5,,10.0,29.749016,1010.3,,,,,,,,,,OVC,600,,,,,,,IFR,,,,,,,,,,,,METAR,481.0
CYLH 241900Z AUTO 13008KT 9SM OVC016 13/13 A2947 RMK SLP990 DENSITY ALT 1300FT,CYLH,2022-10-24T19:00:00Z,52.2,-87.93,13.0,13.0,130,8,,9.0,29.471457,999.0,,TRUE,,,,,,,,OVC,1600,,,,,,,MVFR,,,,,,,,,,,,METAR,245.0
CYLD 241900Z 17012G22KT 15SM SCT230 BKN250 19/10 A2988 RMK CC3CI2 SLP129 DENSITY ALT 2300FT,CYLD,2022-10-24T19:00:00Z,47.82,-83.35,19.0,10.0,170,12,22,15.0,29.878937,1012.9,,,,,,,,,,SCT,23000,BKN,25000,,,,,VFR,,,,,,,,,,,,METAR,449.0
CYLC 241900Z 30012KT 15SM -SHSN SCT035 BKN044 M04/M09 A3024 RMK SC3SC4 LASTSTFD OBS/NXT 251200Z SLP248,CYLC,2022-10-24T19:00:00Z,62.85,-69.87,-4.0,-9.0,300,12,,15.0,30.239174,1024.8,,,,,,,,,-SHSN,SCT,3500,BKN,4400,,,,,VFR,,,,,,,,,,,,METAR,52.0
CYLA 241900Z 32009KT 15SM BKN025 BKN250 M02/M07 A3034 RMK SC5CI2 SLP278,CYLA,2022-10-24T19:00:00Z,59.3,-69.58,-2.0,-7.0,320,9,,15.0,30.339567,1027.8,,,,,,,,,,BKN,2500,BKN,25000,,,,,MVFR,,,,,,,,,,,,METAR,35.0
CYKY 241900Z 19006KT 15SM FEW010 FEW100 FEW260 02/M02 A2969 RMK ST1AC1CI2 ST TR AC TR SLP083,CYKY,2022-10-24T19:00:00Z,51.52,-109.17,2.0,-2.0,190,6,,15.0,29.68996,1008.3,,,,,,,,,,FEW,1000,FEW,10000,FEW,26000,,,VFR,,,,,,,,,,,,METAR,692.0
CYKQ 241900Z 18015G24KT 15SM FEW110 BKN170 BKN250 22/09 A2993 RMK AC2AC5CI1 CI TR SLP139 DENSITY ALT 1000FT,CYKQ,2022-10-24T19:00:00Z,51.47,-78.75,22.0,9.0,180,15,24,15.0,29.929134,1013.9,,,,,,,,,,FEW,11000,BKN,17000,BKN,25000,,,VFR,,,,,,,,,,,,METAR,28.0
CYKL 241900Z AUTO 13004KT 9SM BKN066 BKN240 05/01 A3022 RMK SLP264,CYKL,2022-10-24T19:00:00Z,54.8,-66.8,5.0,1.0,130,4,,9.0,30.221457,1026.4,,TRUE,,,,,,,,BKN,6600,BKN,24000,,,,,VFR,,,,,,,,,,,,METAR,507.0
CYKJ 241900Z AUTO 09008KT 060V120 9SM CLR M01/M05 A2980 RMK SLP125,CYKJ,2022-10-24T19:00:00Z,57.25,-105.62,-1.0,-5.0,90,8,,9.0,29.799213,1012.5,,TRUE,,,,,,,,CLR,,,,,,,,VFR,,,,,,,,,,,,METAR,519.0
CYKG 241900Z 28011G18KT 15SM -SN OVC029 M03/M09 A3026 RMK SC8 CIG RAG SLP264,CYKG,2022-10-24T19:00:00Z,61.58,-71.92,-3.0,-9.0,280,11,18,15.0,30.259842,1026.4,,,,,,,,,-SN,OVC,2900,,,,,,,MVFR,,,,,,,,,,,,METAR,134.0
CYKA 241900Z 12008KT 40SM FEW055 FEW160 11/02 A2972 RMK CU1AC1 AC TR SLP074 DENSITY ALT 1200FT,CYKA,2022-10-24T19:00:00Z,50.7,-120.45,11.0,2.0,120,8,,40.0,29.719488,1007.4,,,,,,,,,,FEW,5500,FEW,16000,,,,,VFR,,,,,,,,,,,,METAR,344.0
CYJT 241900Z 26003KT 15SM SCT140 BKN220 13/08 A3034 RMK AC3CI4 SLP278,CYJT,2022-10-24T19:00:00Z,48.55,-58.57,13.0,8.0,260,3,,15.0,30.339567,1027.8,,,,,,,,,,SCT,14000,BKN,22000,,,,,VFR,,,,,,,,,,,,METAR,7.0
CYJF 241900Z 02009G16KT 7SM -SN BKN015 BKN047 OVC060 M03/M06 A2984 RMK ST5SC1SC2 ST VRB 13-18/AS ASOCTD SLP118,CYJF,2022-10-24T19:00:00Z,60.23,-123.47,-3.0,-6.0,20,9,16,7.0,29.840551,1011.8,,,,,,,,,-SN,BKN,1500,BKN,4700,OVC,6000,,,MVFR,,,,,,,,,,,,METAR,215.0
CYIN 241900Z AUTO VRB02KT 9SM BKN091 BKN110 07/M06 A2964 RMK SLP057 DENSITY ALT 3900FT,CYIN,2022-10-24T19:00:00Z,51.27,-121.68,7.0,-6.0,0,2,,9.0,29.639763,1005.7,,TRUE,,,,,,,,BKN,9100,BKN,11000,,,,,VFR,,,,,,,,,,,,METAR,1127.0
CYIK 241900Z VRB02KT 15SM -SHGS BKN024 OVC027 M04/M09 A3030 RMK SC6SC2 LAST STFD OB/NEXT 251200UTC SLP266,CYIK,2022-10-24T19:00:00Z,62.42,-77.93,-4.0,-9.0,0,2,,15.0,30.301182,1026.6,,,,,,,,,-SHGS,BKN,2400,OVC,2700,,,,,MVFR,,,,,,,,,,,,METAR,44.0
CYHU 241900Z AUTO 10006KT 9SM CLR 19/09 A3018 RMK SLP224 DENSITY ALT 400FT,CYHU,2022-10-24T19:00:00Z,45.52,-73.42,19.0,9.0,100,6,,9.0,30.180119,1022.4,,TRUE,,,,,,,,CLR,,,,,,,,VFR,,,,,,,,,,,,METAR,26.0
CYHM 241900Z 13009KT 080V150 15SM FEW250 20/09 A3010 RMK CI1 SLP197 DENSITY ALT 1400FT,CYHM,2022-10-24T19:00:00Z,43.17,-79.93,20.0,9.0,130,9,,15.0,30.100393,1019.7,,,,,,,,,,FEW,25000,,,,,,,VFR,,,,,,,,,,,,METAR,237.0
CYHI 241900Z 04007KT 15SM -SN OVC015 M13/M16 A3000 RMK SC8 CIG RAG/SH AT A DIST N STTN SLP164,CYHI,2022-10-24T19:00:00Z,70.77,-117.78,-13.0,-16.0,40,7,,15.0,30.0,1016.4,,,,,,,,,-SN,OVC,1500,,,,,,,MVFR,,,,,,,,,,,,METAR,33.0
CYHD 241900Z AUTO 16017G28KT 9SM SCT240 18/13 A2921 RMK SLP897 DENSITY ALT 2900FT,CYHD,2022-10-24T19:00:00Z,49.82,-92.75,18.0,13.0,160,17,28,9.0,29.208662,989.7,,TRUE,,,,,,,,SCT,24000,,,,,,,VFR,,,,,,,,,,,,METAR,414.0
CYHA 241900Z 30009G15KT 15SM -SHSN BKN028 M02/M08 A3030 RMK SC7 LAST OBS/NEXT 251200 UTC SLP266,CYHA,2022-10-24T19:00:00Z,61.03,-69.62,-2.0,-8.0,300,9,15,15.0,30.301182,1026.6,,,,,,,,,-SHSN,BKN,2800,,,,,,,MVFR,,,,,,,,,,,,METAR,31.0
CYGX 241900Z 06015G30KT 2 1/2SM -SN OVC020 01/M00 A2960 RMK SC8 SLP037,CYGX,2022-10-24T19:00:00Z,56.35,-94.7,1.0,0.0,60,15,30,2.5,29.601377,1003.7,,,,,,,,,-SN,OVC,2000,,,,,,,IFR,,,,,,,,,,,,METAR,145.0
CYGW 241900Z AUTO 12011G17KT 9SM FEW066 12/06 A2992 RMK SLP134,CYGW,2022-10-24T19:00:00Z,55.27,-77.77,12.0,6.0,120,11,17,9.0,29.920275,1013.4,,TRUE,,,,,,,,FEW,6600,,,,,,,VFR,,,,,,,,,,,,METAR,13.0
CYGV 241900Z AUTO 16003KT 9SM CLR 13/07 A3029 RMK SLP261,CYGV,2022-10-24T19:00:00Z,50.28,-63.62,13.0,7.0,160,3,,9.0,30.28937,1026.1,,TRUE,,,,,,,,CLR,,,,,,,,VFR,,,,,,,,,,,,METAR,32.0
CYGT 241900Z 31022KT 15SM DRSN BKN035 M09/M14 A2992 RMK SC7 SLP141,CYGT,2022-10-24T19:00:00Z,69.37,-81.82,-9.0,-14.0,310,22,,15.0,29.920275,1014.1,,,,,,,,,DRSN,BKN,3500,,,,,,,VFR,,,,,,,,,,,,METAR,49.0
CYGR 241900Z 33004KT 20SM FEW220 OVC270 15/11 A3033 RMK CI2CS6 SLP274,CYGR,2022-10-24T19:00:00Z,47.42,-61.77,15.0,11.0,330,4,,20.0,30.33071,1027.4,,,,,,,,,,FEW,22000,OVC,27000,,,,,VFR,,,,,,,,,,,,METAR,4.0
CYGP 241900Z 10004KT 15SM OVC140 13/09 A3028 RMK AS8 SLP258,CYGP,2022-10-24T19:00:00Z,48.77,-64.47,13.0,9.0,100,4,,15.0,30.280512,1025.8,,,,,,,,,,OVC,14000,,,,,,,VFR,,,,,,,,,,,,METAR,31.0
CYGL 241900Z 19011G18KT 15SM SCT076 BKN240 19/11 A2994 RMK AC3CI3 SLP148 DENSITY ALT 1200FT,CYGL,2022-10-24T19:00:00Z,53.62,-77.7,19.0,11.0,190,11,18,15.0,29.940945,1014.8,,,,,,,,,,SCT,7600,BKN,24000,,,,,VFR,,,,,,,,,,,,METAR,192.0
CYGK 241900Z 22005KT 15SM FEW120 FEW250 19/07 A3016 RMK AC1CI1 AC TR CI TR SLP215 DENSITY ALT 600FT,CYGK,2022-10-24T19:00:00Z,44.22,-76.58,19.0,7.0,220,5,,15.0,30.159449,1021.5,,,,,,,,,,FEW,12000,FEW,25000,,,,,VFR,,,,,,,,,,,,METAR,91.0
CYGH 241900Z 07002KT 15SM -SN BKN012 BKN024 M07/M08 A2998 RMK SC6SC1 SLP163,CYGH,2022-10-24T19:00:00Z,66.23,-128.63,-7.0,-8.0,70,2,,15.0,29.97933,1016.3,,,,,,,,,-SN,BKN,1200,BKN,2400,,,,,MVFR,,,,,,,,,,,,METAR,72.0
CYGE 241900Z 15013G20KT 10SM FEW025 SCT035 BKN045 OVC065 06/M02 A2971 RMK SC2SC2SC2ST2 SH DIST S SLP083,CYGE,2022-10-24T19:00:00Z,51.3,-116.98,6.0,-2.0,150,13,20,10.0,29.71063,1008.3,,,,,,,,,,FEW,2500,SCT,3500,BKN,4500,OVC,6500,VFR,,,,,,,,,,,,METAR,786.0
CYFT 241900Z 31009KT 15SM FEW030 SCT220 06/M02 A3027 RMK SC1CI3 SC TR SLP255,CYFT,2022-10-24T19:00:00Z,55.07,-59.18,6.0,-2.0,310,9,,15.0,30.268702,1025.5,,,,,,,,,,FEW,3000,SCT,22000,,,,,VFR,,,,,,,,,,,,METAR,65.0
CYFR 241900Z 08006KT 060V130 15SM FEW010 OVC016 M00/M03 A2979 RMK SF1SC8 SF TR SLP102,CYFR,2022-10-24T19:00:00Z,61.17,-113.68,0.0,-3.0,80,6,,15.0,29.790354,1010.2,,,,,,,,,,FEW,1000,OVC,1600,,,,,MVFR,,,,,,,,,,,,METAR,159.0
CYFO 241900Z 36015G22KT 15SM -SN DRSN OVC010 M02/M04 A2961 RMK SN6SC2 CIG RAG SLP046,CYFO,2022-10-24T19:00:00Z,54.67,-101.67,-2.0,-4.0,360,15,22,15.0,29.610237,1004.6,,,,,,,,,-SN DRSN,OVC,1000,,,,,,,MVFR,,,,,,,,,,,,METAR,303.0
CYFC 241900Z AUTO 34003KT 330V050 9SM -RA BKN044 OVC055 17/13 A3030 RMK SLP264,CYFC,2022-10-24T19:00:00Z,45.87,-66.53,17.0,13.0,340,3,,9.0,30.301182,1026.4,,TRUE,,,,,,,-RA,BKN,4400,OVC,5500,,,,,VFR,,,,,,,,,,,,METAR,16.0
CYFB 241900Z 32014G23KT 20SM OVC033 M06/M10 A3023 RMK SC8 INTMT -SN SLP241,CYFB,2022-10-24T19:00:00Z,63.75,-68.55,-6.0,-10.0,320,14,23,20.0,30.230314,1024.1,,,,,,,,,,OVC,3300,,,,,,,VFR,,,,,,,,,,,,METAR,23.0
CYEV 241900Z 09005KT 15SM FEW050 M13/M15 A3004 RMK SC1 SC TR SLP184,CYEV,2022-10-24T19:00:00Z,68.32,-133.5,-13.0,-15.0,90,5,,15.0,30.041338,1018.4,,,,,,,,,,FEW,5000,,,,,,,VFR,,,,,,,,,,,,METAR,74.0
CYEK 241900Z 09005KT 15SM OVC020 M02/M07 RMK SC8 ALTM 3018 WND ESTD VIA CYQB DENSITY ALT MISG,CYEK,2022-10-24T19:00:00Z,61.1,-94.07,-2.0,-7.0,90,5,,15.0,,,,,,,,,,,,OVC,2000,,,,,,,MVFR,,,,,,,,,,,,METAR,7.0
CYED 241900Z 17004KT 12SM FEW060 OVC085 03/M02 A2963 RMK SC1AS8 DENSITY ALT 1571FT SLP060,CYED,2022-10-24T19:00:00Z,53.67,-113.47,3.0,-2.0,170,4,,12.0,29.630905,1006.0,,,,,,,,,,FEW,6000,OVC,8500,,,,,VFR,,,,,,,,,,,,METAR,688.0
CYDQ 241900Z AUTO VRB02KT 9SM FEW240 03/00 A2956 RMK SLP039,CYDQ,2022-10-24T19:00:00Z,55.75,-120.18,3.0,0.0,0,2,,9.0,29.56004,1003.9,,TRUE,,,,,,,,FEW,24000,,,,,,,VFR,,,,,,,,,,,,METAR,658.0
CYDP 241900Z 30017KT 15SM SCT062 SCT150 SCT180 BKN230 06/M03 A3024 RMK SC3AC1AS1CS3 AS TR PRESFR SLP241,CYDP,2022-10-24T19:00:00Z,56.53,-61.68,6.0,-3.0,300,17,,15.0,30.239174,1024.1,,,,,,,,,,SCT,6200,SCT,15000,SCT,18000,BKN,23000,VFR,,,,,,,,,,,,METAR,14.0
CYDF 241900Z 21005KT 15SM BKN210 15/09 A3033 RMK CI7 SLP273,CYDF,2022-10-24T19:00:00Z,49.22,-57.4,15.0,9.0,210,5,,15.0,30.33071,1027.3,,,,,,,,,,BKN,21000,,,,,,,VFR,,,,,,,,,,,,METAR,15.0
CYDC 241900Z 02004KT 330V070 25SM SCT047 BKN062 BKN087 07/02 A2978 RMK SC3SC3AC1 SLP099,CYDC,2022-10-24T19:00:00Z,49.47,-120.52,7.0,2.0,20,4,,25.0,29.778543,1009.9,,,,,,,,,,SCT,4700,BKN,6200,BKN,8700,,,VFR,,,,,,,,,,,,METAR,703.0
CYDB 241900Z 32006KT 270V340 10SM SCT055 BKN067 BKN075 OVC110 M07/M10 A2974 RMK SC4CF1AC1AS2 SLP127,CYDB,2022-10-24T19:00:00Z,61.37,-139.02,-7.0,-10.0,320,6,,10.0,29.740158,1012.7,,,,,,,,,,SCT,5500,BKN,6700,BKN,7500,OVC,11000,VFR,,,,,,,,,,,,METAR,807.0
CYDA 241900Z 00000KT 20SM FEW003 FEW005 SCT050 SCT100 M14/M16 A2987 RMK ST1ST2SC1AC1 ST TR FROIN SLP149,CYDA,2022-10-24T19:00:00Z,64.03,-139.12,-14.0,-16.0,0,0,,20.0,29.870079,1014.9,,,,,,,,,,FEW,300,FEW,500,SCT,5000,SCT,10000,VFR,,,,,,,,,,,,METAR,338.0
CYCY 241900Z AUTO 22008KT 9SM FEW055 M09/M15 A2977 RMK SLP086,CYCY,2022-10-24T19:00:00Z,70.48,-68.52,-9.0,-15.0,220,8,,9.0,29.769686,1008.6,,TRUE,,,,,,,,FEW,5500,,,,,,,VFR,,,,,,,,,,,,METAR,73.0
CYCX 241900Z 00000KT 12SM -SHRA BKN040 OVC100 17/12 A3030 RMK SC6AC2 DENSITY ALT 125FT SLP262,CYCX,2022-10-24T19:00:00Z,45.83,-66.45,17.0,12.0,0,0,,12.0,30.301182,1026.2,,,,,,,,,-SHRA,BKN,4000,OVC,10000,,,,,VFR,,,,,,,,,,,,METAR,46.0
CYCS 241900Z 22006KT 15SM FEW028 SCT220 M08/M12 A3026 RMK SC1CI3 SLP249,CYCS,2022-10-24T19:00:00Z,63.35,-90.72,-8.0,-12.0,220,6,,15.0,30.259842,1024.9,,,,,,,,,,FEW,2800,SCT,22000,,,,,VFR,,,,,,,,,,,,METAR,7.0
CYCQ 241900Z 01005KT 350V050 35SM OVC045 M00/M02 A2956 RMK SC8 VIRGA N + E + S + W FU DIST VLY W SLP042,CYCQ,2022-10-24T19:00:00Z,55.7,-121.62,0.0,-2.0,10,5,,35.0,29.56004,1004.2,,,,,,,,,,OVC,4500,,,,,,,VFR,,,,,,,,,,,,METAR,614.0
CYCP 241900Z 00000KT 4SM -RA BR FEW003 BKN015 OVC026 01/01 A2973 RMK ST2SC3SC3 VIS E-SW 11/2 SLP097,CYCP,2022-10-24T19:00:00Z,52.13,-119.28,1.0,1.0,0,0,,4.0,29.731298,1009.7,,,,,,,,,-RA BR,FEW,300,BKN,1500,OVC,2600,,,MVFR,,,,,,,,,,,,METAR,677.0
CYCO 241900Z 23010KT 5SM -SN DRSN FEW025 BKN036 M09/M12 A2997 RMK SC2SC5 SLP153,CYCO,2022-10-24T19:00:00Z,67.82,-115.15,-9.0,-12.0,230,10,,5.0,29.970472,1015.3,,,,,,,,,-SN DRSN,FEW,2500,BKN,3600,,,,,MVFR,,,,,,,,,,,,METAR,20.0
CYCK 241900Z AUTO 16011KT 9SM CLR 20/08 A3006 RMK SLP183 DENSITY ALT 1200FT,CYCK,2022-10-24T19:00:00Z,42.3,-82.08,20.0,8.0,160,11,,9.0,30.059055,1018.3,,TRUE,,,,,,,,CLR,,,,,,,,VFR,,,,,,,,,,,,METAR,196.0
CYCD 241900Z 12003KT 080V240 10SM FEW005 SCT010 BKN100 11/08 A2988 RMK SF2SC2AC2 SLP122,CYCD,2022-10-24T19:00:00Z,49.05,-123.87,11.0,8.0,120,3,,10.0,29.878937,1012.2,,,,,,,,,,FEW,500,SCT,1000,BKN,10000,,,VFR,,,,,,,,,,,,METAR,30.0
CYCA 241900Z AUTO 05009KT 9SM CLR 07/00 A3026 RMK SLP248,CYCA,2022-10-24T19:00:00Z,53.68,-57.03,7.0,0.0,50,9,,9.0,30.259842,1024.8,,TRUE,,,,,,,,CLR,,,,,,,,VFR,,,,,,,,,,,,METAR,12.0
CYBX 241900Z 25010KT 15SM FEW110 SCT250 09/05 A3031 RMK AC1CI3 SLP268,CYBX,2022-10-24T19:00:00Z,51.45,-57.18,9.0,5.0,250,10,,15.0,30.31004,1026.8,,,,,,,,,,FEW,11000,SCT,25000,,,,,VFR,,,,,,,,,,,,METAR,32.0
CYBW 241900Z AUTO 00000KT 9SM FEW150 02/M01 A2957 RMK SLP063,CYBW,2022-10-24T19:00:00Z,51.1,-114.37,2.0,-1.0,0,0,,9.0,29.568897,1006.3,,TRUE,,,,,,,,FEW,15000,,,,,,,VFR,,,,,,,,,,,,METAR,1197.0
CYBV 241900Z 01005KT 340V050 6SM -RA BKN008 OVC015 04/04 A2909 RMK SC7SC1 SLP861,CYBV,2022-10-24T19:00:00Z,52.35,-97.03,4.0,4.0,10,5,,6.0,29.090551,986.1,,,,,,,,,-RA,BKN,800,OVC,1500,,,,,IFR,,,,,,,,,,,,METAR,219.0
CYBU 241900Z AUTO 33015G22KT 9SM OVC016 M01/M01 A2964 RMK ICE SLP059,CYBU,2022-10-24T19:00:00Z,53.32,-104.0,-1.0,-1.0,330,15,22,9.0,29.639763,1005.9,,TRUE,,,,,,,,OVC,1600,,,,,,,MVFR,,,,,,,,,,,,METAR,369.0
CYBR 241900Z 31018KT 10SM -SHRA BKN019 OVC037 02/01 A2932 RMK SC5SC3 CVCTV CLD EMBD SLP948,CYBR,2022-10-24T19:00:00Z,49.92,-99.95,2.0,1.0,310,18,,10.0,29.320866,994.8,,,,,,,,,-SHRA,BKN,1900,OVC,3700,,,,,MVFR,,,,,,,,,,,,METAR,405.0
CYBQ 241900Z AUTO /////KT 9SM OVC013 M04/M06 A2995 RMK WIND MISG SLP168,CYBQ,2022-10-24T19:00:00Z,58.7,-98.5,-4.0,-6.0,,,,9.0,29.949802,1016.8,,TRUE,,,,,,,,OVC,1300,,,,,,,MVFR,,,,,,,,,,,,METAR,272.0
CYBL 241900Z VRB03KT 10SM OVC013 09/07 A2988 RMK SC8 SLP121,CYBL,2022-10-24T19:00:00Z,49.95,-125.27,9.0,7.0,0,3,,10.0,29.878937,1012.1,,,,,,,,,,OVC,1300,,,,,,,MVFR,,,,,,,,,,,,METAR,94.0
CYBK 241900Z 20015KT 25SM -SN BKN045 M05/M09 A3012 RMK SC7 SLP205,CYBK,2022-10-24T19:00:00Z,64.3,-96.07,-5.0,-9.0,200,15,,25.0,30.121063,1020.5,,,,,,,,,-SN,BKN,4500,,,,,,,VFR,,,,,,,,,,,,METAR,14.0
CYBG 241900Z 09007KT 20SM SCT180 BKN250 16/09 A3023 RMK AC3CI3 SLP242,CYBG,2022-10-24T19:00:00Z,48.33,-70.98,16.0,9.0,90,7,,20.0,30.230314,1024.2,,,,,,,,,,SCT,18000,BKN,25000,,,,,VFR,,,,,,,,,,,,METAR,151.0
CYBD 241900Z 32003KT 4SM -SHRA BR FEW009 FEW018 SCT036 BKN048 OVC056 07/06 A2975 RMK SC1SC2SC2SC3SC1 SC TR WND EST CVCTV CLD EMBD WIND ESTD SLP078,CYBD,2022-10-24T19:00:00Z,52.38,-126.58,7.0,6.0,320,3,,4.0,29.749016,1007.8,,,,,,,,,-SHRA BR,FEW,900,FEW,1800,SCT,3600,BKN,4800,MVFR,,,,,,,,,,,,METAR,40.0
CYBC 241900Z AUTO 09005KT 9SM CLR 09/07 A3029 RMK SLP261,CYBC,2022-10-24T19:00:00Z,49.13,-68.2,9.0,7.0,90,5,,9.0,30.28937,1026.1,,TRUE,,,,,,,,CLR,,,,,,,,VFR,,,,,,,,,,,,METAR,20.0
CYBB 241900Z 21013G21KT 15SM OVC017 M10/M13 A3000 RMK SC8 SLP162,CYBB,2022-10-24T19:00:00Z,68.53,-89.78,-10.0,-13.0,210,13,21,15.0,30.0,1016.2,,,,,,,,,,OVC,1700,,,,,,,MVFR,,,,,,,,,,,,METAR,13.0
CYAZ 241900Z 28009KT 15SM FEW015 11/09 A2992 RMK CU1 WND EST VIA CYXY SLP133,CYAZ,2022-10-24T19:00:00Z,49.08,-125.77,11.0,9.0,280,9,,15.0,29.920275,1013.3,,,,,,,,,,FEW,1500,,,,,,,VFR,,,,,,,,,,,,METAR,26.0
CYAY 241900Z AUTO 24011G17KT 9SM OVC110 09/01 A3029 RMK SLP260,CYAY,2022-10-24T19:00:00Z,51.38,-56.07,9.0,1.0,240,11,17,9.0,30.28937,1026.0,,TRUE,,,,,,,,OVC,11000,,,,,,,VFR,,,,,,,,,,,,METAR,23.0
CYAS 241900Z 31009KT 15SM SCT024 BKN140 M04/M09 A3030 RMK SC4AC2 LAST STFD OBS/NEXT 251200UTC SLP273,CYAS,2022-10-24T19:00:00Z,60.02,-70.0,-4.0,-9.0,310,9,,15.0,30.301182,1027.3,,,,,,,,,,SCT,2400,BKN,14000,,,,,VFR,,,,,,,,,,,,METAR,99.0
CYAM 241900Z 10008KT 15SM FEW130 BKN190 18/11 A2989 RMK AC1AC6 AC TR PRESFR SLP124 DENSITY ALT 1200FT,CYAM,2022-10-24T19:00:00Z,46.48,-84.52,18.0,11.0,100,8,,15.0,29.890747,1012.4,,,,,,,,,,FEW,13000,BKN,19000,,,,,VFR,,,,,,,,,,,,METAR,186.0
CYAH 241900Z AUTO 19010KT 9SM CLR 17/10 A3006 RMK SLP193 DENSITY ALT 1400FT,CYAH,2022-10-24T19:00:00Z,53.75,-73.67,17.0,10.0,190,10,,9.0,30.059055,1019.3,,TRUE,,,,,,,,CLR,,,,,,,,VFR,,,,,,,,,,,,METAR,298.0
CYAB 241900Z 20005KT 080V220 10SM -SN BKN020 BKN100 M10/M14 A2982 RMK SC5AC1 CIG EST SLP101,CYAB,2022-10-24T19:00:00Z,73.0,-85.02,-10.0,-14.0,200,5,,10.0,29.819881,1010.1,,,,,,,,,-SN,BKN,2000,BKN,10000,,,,,MVFR,,,,,,,,,,,,METAR,36.0
CXZV 241900Z AUTO 14003KT 11/07 RMK AO1 SLP260 T01060066 56015,CXZV,2022-10-24T19:00:00Z,50.22,-66.25,10.6,6.6,140,3,,,,1026.0,,TRUE,TRUE,,,,,,,,,,,,,,,,-1.5,,,,,,,,,,,METAR,43.0
CXZC 241900Z AUTO 17005KT 20/10 RMK AO1 SLP115 T02010098 58023,CXZC,2022-10-24T19:00:00Z,51.3,-80.62,20.1,9.8,170,5,,,,1011.5,,TRUE,TRUE,,,,,,,,,,,,,,,,-2.3,,,,,,,,,,,METAR,8.0
CXYH 241900Z AUTO 27002KT M03/M06 RMK AO1 SLP116 T10271059 57002,CXYH,2022-10-24T19:00:00Z,61.25,-123.75,-2.7,-5.9,270,2,,,,1011.6,,TRUE,TRUE,,,,,,,,,,,,,,,,-0.2,,,,,,,,,,,METAR,197.0
CXWN 241900Z AUTO 21007KT 08/06 RMK AO1 SLP880 T00830063 53005,CXWN,2022-10-24T19:00:00Z,49.88,-97.13,8.3,6.3,210,7,,,,988.0,,TRUE,TRUE,,,,,,,,,,,,,,,,0.5,,,,,,,,,,,METAR,232.0
CXVW 241900Z AUTO 15002KT 02/M00 RMK AO1 SLP036 T00181003 50001,CXVW,2022-10-24T19:00:00Z,55.1,-117.2,1.8,-0.3,150,2,,,,1003.6,,TRUE,TRUE,,,,,,,,,,,,,,,,0.1,,,,,,,,,,,METAR,696.0
CXVN 241900Z AUTO 04003KT 12/09 RMK AO1 SLP204 T01220094 58021,CXVN,2022-10-24T19:00:00Z,43.18,-79.4,12.2,9.4,40,3,,,,1020.4,,TRUE,TRUE,,,,,,,,,,,,,,,,-2.1,,,,,,,,,,,METAR,86.0
CXVM 241900Z AUTO 17007KT 02/M03 RMK AO1 T00221026,CXVM,2022-10-24T19:00:00Z,53.35,-110.88,2.2,-2.6,170,7,,,,,,TRUE,TRUE,,,,,,,,,,,,,,,,,,,,,,,,,,,METAR,622.0
CXTV 241900Z AUTO 00000KT M16/M18 RMK AO1 3PAST HR SOG 08 5000 SLP190 P0001 T11561179 50003,CXTV,2022-10-24T19:00:00Z,68.75,-133.5,-15.6,-17.9,0,0,,,,1019.0,,TRUE,TRUE,,,,,,,,,,,,,,,,0.3,,,,,0.01,,,,,,METAR,91.0
CXTP 241900Z AUTO 31002KT 13/04 RMK AO1 SLP274 T01280040 55000,CXTP,2022-10-24T19:00:00Z,48.55,-53.97,12.8,4.0,310,2,,,,1027.4,,TRUE,TRUE,,,,,,,,,,,,,,,,0.0,,,,,,,,,,,METAR,104.0
CXTO 241900Z AUTO 18/09 RMK AO1 SLP202 T01780094 58024,CXTO,2022-10-24T19:00:00Z,43.67,-79.4,17.8,9.4,,,,,,1020.2,,TRUE,TRUE,,,,,,,,,,,,,,,,-2.4,,,,,,,,,,,METAR,115.0
CXTN 241900Z AUTO 24005KT M12/M13 RMK AO1 SOG 28 1001 SLP165 T11181134,CXTN,2022-10-24T19:00:00Z,69.2,-122.35,-11.8,-13.4,240,5,,,,1016.5,,TRUE,TRUE,,,,,,,,,,,,,,,,,,,,,,,,,,,METAR,564.0
CXTH 241900Z AUTO 15012KT 02/M04 RMK AO1 PK WND 15020/1829 T00221038,CXTH,2022-10-24T19:00:00Z,53.63,-111.68,2.2,-3.8,150,12,,,,,,TRUE,TRUE,,,,,,,,,,,,,,,,,,,,,,,,,,,METAR,679.0
CXTD 241900Z AUTO 36001KT 20/09 RMK AO1 SLP290 T01980089 56009,CXTD,2022-10-24T19:00:00Z,45.62,-61.68,19.8,8.9,360,1,,,,1029.0,,TRUE,TRUE,,,,,,,,,,,,,,,,-0.9,,,,,,,,,,,METAR,58.0
CXSP 241900Z AUTO 13005KT M00/M03 RMK AO1 T10041031,CXSP,2022-10-24T19:00:00Z,54.02,-111.27,-0.4,-3.1,130,5,,,,,,TRUE,TRUE,,,,,,,,,,,,,,,,,,,,,,,,,,,METAR,652.0
CXSL 241900Z AUTO 14006KT M02/M02 RMK AO1 T10181019,CXSL,2022-10-24T19:00:00Z,54.28,-112.5,-1.8,-1.9,140,6,,,,,,TRUE,TRUE,,,,,,,,,,,,,,,,,,,,,,,,,,,METAR,680.0
CXSH 241900Z AUTO 14007KT 19/13 RMK AO1 SLP237 T01890132 58024,CXSH,2022-10-24T19:00:00Z,46.55,-72.73,18.9,13.2,140,7,,,,1023.7,,TRUE,TRUE,,,,,,,,,,,,,,,,-2.4,,,,,,,,,,,METAR,106.0
CXSE 241900Z AUTO 01008KT M15/M18 RMK AO1 SOG 05 3008 SLP113 T11501175,CXSE,2022-10-24T19:00:00Z,73.77,-105.28,-15.0,-17.5,10,8,,,,1011.3,,TRUE,TRUE,,,,,,,,,,,,,,,,,,,,,,,,,,,METAR,11.0
CXSC 241900Z AUTO 16006KT 02/M01 RMK AO1 T00171011,CXSC,2022-10-24T19:00:00Z,50.3,-110.08,1.7,-1.1,160,6,,,,,,TRUE,TRUE,,,,,,,,,,,,,,,,,,,,,,,,,,,METAR,809.0
CXRL 241900Z AUTO 14006KT 01/M03 RMK AO1 T00081026,CXRL,2022-10-24T19:00:00Z,54.5,-111.7,0.8,-2.6,140,6,,,,,,TRUE,TRUE,,,,,,,,,,,,,,,,,,,,,,,,,,,METAR,585.0
CXRH 241900Z AUTO 27003KT 12/07 RMK AO1 SLP271 T01230074 56014,CXRH,2022-10-24T19:00:00Z,49.57,-57.88,12.3,7.4,270,3,,,,1027.1,,TRUE,TRUE,,,,,,,,,,,,,,,,-1.4,,,,,,,,,,,METAR,68.0
CXRB 241900Z AUTO 05001KT M16/M18 RMK AO1 SOG 02 3012 SLP099 T11611180,CXRB,2022-10-24T19:00:00Z,74.72,-94.98,-16.1,-18.0,50,1,,,,1009.9,,TRUE,TRUE,,,,,,,,,,,,,,,,,,,,,,,,,,,METAR,30.0
CXPL 241900Z AUTO 12006KT 03/01 RMK AO1 T00300014,CXPL,2022-10-24T19:00:00Z,51.13,-111.7,3.0,1.4,120,6,,,,,,TRUE,TRUE,,,,,,,,,,,,,,,,,,,,,,,,,,,METAR,735.0
CXPC 241900Z AUTO 22/04 RMK AO1 SLP188 T02230035 56019,CXPC,2022-10-24T19:00:00Z,45.35,-80.05,22.3,3.5,,,,,,1018.8,,TRUE,TRUE,,,,,,,,,,,,,,,,-1.9,,,,,,,,,,,METAR,176.0
CXPA 241900Z AUTO 17003KT 04/M00 RMK AO1 T00361002,CXPA,2022-10-24T19:00:00Z,55.62,-118.3,3.6,-0.2,170,3,,,,,,TRUE,TRUE,,,,,,,,,,,,,,,,,,,,,,,,,,,METAR,628.0
CXOY 241900Z AUTO 15014KT 02/M02 RMK AO1 PK WND 14017/1854 T00211019,CXOY,2022-10-24T19:00:00Z,51.35,-110.35,2.1,-1.9,150,14,,,,,,TRUE,TRUE,,,,,,,,,,,,,,,,,,,,,,,,,,,METAR,784.0
CXOX 241900Z AUTO 04006KT 02/M04 RMK AO1 SLP094 T00161044 58024,CXOX,2022-10-24T19:00:00Z,55.15,-105.27,1.6,-4.4,40,6,,,,1009.4,,TRUE,TRUE,,,,,,,,,,,,,,,,-2.4,,,,,,,,,,,METAR,381.0
CXOL 241900Z AUTO 14004KT 02/M02 RMK AO1 T00191022,CXOL,2022-10-24T19:00:00Z,51.77,-114.08,1.9,-2.2,140,4,,,,,,TRUE,TRUE,,,,,,,,,,,,,,,,,,,,,,,,,,,METAR,1026.0
CXNP 241900Z AUTO 19007KT 21/09 RMK AO1 SLP266 T02110092 56012,CXNP,2022-10-24T19:00:00Z,45.75,-64.23,21.1,9.2,190,7,,,,1026.6,,TRUE,TRUE,,,,,,,,,,,,,,,,-1.2,,,,,,,,,,,METAR,19.0
CXNM 241900Z AUTO 27004KT 17/06 RMK AO1 T01740059,CXNM,2022-10-24T19:00:00Z,46.82,-60.67,17.4,5.9,270,4,,,,,,TRUE,TRUE,,,,,,,,,,,,,,,,,,,,,,,,,,,METAR,452.0
CXMY 241900Z AUTO 18/09 RMK AO1 T01840092,CXMY,2022-10-24T19:00:00Z,44.98,-62.48,18.4,9.2,,,,,,,,TRUE,TRUE,,,,,,,,,,,,,,,,,,,,,,,,,,,METAR,37.0
CXMO 241900Z AUTO 21005KT M01/M01 RMK AO1 T10131013,CXMO,2022-10-24T19:00:00Z,51.67,-112.68,-1.3,-1.3,210,5,,,,,,TRUE,TRUE,,,,,,,,,,,,,,,,,,,,,,,,,,,METAR,837.0
CXMM 241900Z AUTO 13012G17KT M00/M02 RMK AO1 PK WND 12018/1827 SLP086 T10031023 57022,CXMM,2022-10-24T19:00:00Z,56.65,-111.22,-0.3,-2.3,130,12,17,,,1008.6,,TRUE,TRUE,,,,,,,,,,,,,,,,-2.2,,,,,,,,,,,METAR,372.0
CXMI 241900Z AUTO 11005KT 15/12 RMK AO1 SLP275 T01530116 56010,CXMI,2022-10-24T19:00:00Z,44.6,-63.53,15.3,11.6,110,5,,,,1027.5,,TRUE,TRUE,,,,,,,,,,,,,,,,-1.0,,,,,,,,,,,METAR,15.0
CXMG 241900Z AUTO 27003KT 01/M00 RMK AO1 T00061004,CXMG,2022-10-24T19:00:00Z,56.97,-117.45,0.6,-0.4,270,3,,,,,,TRUE,TRUE,,,,,,,,,,,,,,,,,,,,,,,,,,,METAR,467.0
CXMD 241900Z AUTO 31012G18KT 04/03 RMK AO1 PK WND 31020/1842 SLP906 T00410029 53014,CXMD,2022-10-24T19:00:00Z,49.18,-98.08,4.1,2.9,310,12,18,,,990.6,,TRUE,TRUE,,,,,,,,,,,,,,,,1.4,,,,,,,,,,,METAR,297.0
CXLL 241900Z AUTO 36004KT M03/M06 RMK AO1 SOG 04 6004 SLP130 T10251059,CXLL,2022-10-24T19:00:00Z,61.12,-122.85,-2.5,-5.9,360,4,,,,1013.0,,TRUE,TRUE,,,,,,,,,,,,,,,,,,,,,,,,,,,METAR,180.0
CXLB 241900Z AUTO 09008KT 14/14 RMK AO1 SLP270 T01410136 56009,CXLB,2022-10-24T19:00:00Z,44.37,-64.3,14.1,13.6,90,8,,,,1027.0,,TRUE,TRUE,,,,,,,,,,,,,,,,-0.9,,,,,,,,,,,METAR,4.0
CXKT 241900Z AUTO 09003KT 18/13 RMK AO1 SLP270 T01790128 56012,CXKT,2022-10-24T19:00:00Z,45.07,-64.48,17.9,12.8,90,3,,,,1027.0,,TRUE,TRUE,,,,,,,,,,,,,,,,-1.2,,,,,,,,,,,METAR,48.0
CXKM 241900Z AUTO 16009KT 02/M02 RMK AO1 PK WND 16017/1819 T00231024,CXKM,2022-10-24T19:00:00Z,52.83,-111.87,2.3,-2.4,160,9,,,,,,TRUE,TRUE,,,,,,,,,,,,,,,,,,,,,,,,,,,METAR,679.0
CXKI 241900Z AUTO 00016KT 17/08 RMK AO1 SLP172 T01720077 56016,CXKI,2022-10-24T19:00:00Z,48.13,-80.0,17.2,7.7,0,16,,,,1017.2,,TRUE,TRUE,,,,,,,,,,,,,,,,-1.6,,,,,,,,,,,METAR,328.0
CXKE 241900Z AUTO 05003KT 22/04 RMK AO1 SLP214 T02150044 56023,CXKE,2022-10-24T19:00:00Z,45.0,-75.63,21.5,4.4,50,3,,,,1021.4,,TRUE,TRUE,,,,,,,,,,,,,,,,-2.3,,,,,,,,,,,METAR,99.0
CXKA 241900Z AUTO 15012KT 18/09 RMK AO1 PK WND 16021/1803 SLP113 T01800089 58028,CXKA,2022-10-24T19:00:00Z,49.4,-82.45,18.0,8.9,150,12,,,,1011.3,,TRUE,TRUE,,,,,,,,,,,,,,,,-2.8,,,,,,,,,,,METAR,221.0
CXIB 241900Z AUTO 01005KT 15/11 RMK AO1 SLP274 T01470108 55009,CXIB,2022-10-24T19:00:00Z,46.67,-60.4,14.7,10.8,10,5,,,,1027.4,,TRUE,TRUE,,,,,,,,,,,,,,,,-0.9,,,,,,,,,,,METAR,6.0
CXHR 241900Z AUTO 17007KT M01/M01 RMK AO1 T10111012,CXHR,2022-10-24T19:00:00Z,51.18,-112.5,-1.1,-1.2,170,7,,,,,,TRUE,TRUE,,,,,,,,,,,,,,,,,,,,,,,,,,,METAR,975.0
CXHP 241900Z AUTO 23005KT 05/M00 RMK AO1 T00501003,CXHP,2022-10-24T19:00:00Z,55.4,-116.48,5.0,-0.3,230,5,,,,,,TRUE,TRUE,,,,,,,,,,,,,,,,,,,,,,,,,,,METAR,601.0
CXHM 241900Z AUTO 13004KT 16/09 RMK AO1 SLP202 T01600090 57026,CXHM,2022-10-24T19:00:00Z,43.28,-79.9,16.0,9.0,130,4,,,,1020.2,,TRUE,TRUE,,,,,,,,,,,,,,,,-2.6,,,,,,,,,,,METAR,105.0
CXHD 241900Z AUTO 15010KT 01/M02 RMK AO1 T00091017,CXHD,2022-10-24T19:00:00Z,53.18,-112.25,0.9,-1.7,150,10,,,,,,TRUE,TRUE,,,,,,,,,,,,,,,,,,,,,,,,,,,METAR,688.0
CXHA 241900Z AUTO 16007KT 22/08 RMK AO1 SLP172 T02170080 56024,CXHA,2022-10-24T19:00:00Z,42.03,-82.9,21.7,8.0,160,7,,,,1017.2,,TRUE,TRUE,,,,,,,,,,,,,,,,-2.4,,,,,,,,,,,METAR,193.0
CXGH 241900Z AUTO 19015G20KT 10/08 RMK AO1 PK WND 19021/1816 SLP869 T01010075 51006,CXGH,2022-10-24T19:00:00Z,50.63,-97.0,10.1,7.5,190,15,20,,,986.9,,TRUE,TRUE,,,,,,,,,,,,,,,,0.6,,,,,,,,,,,METAR,217.0
CXFR 241900Z AUTO 13002KT 04/01 RMK AO1 T00430011,CXFR,2022-10-24T19:00:00Z,56.08,-118.43,4.3,1.1,130,2,,,,,,TRUE,TRUE,,,,,,,,,,,,,,,,,,,,,,,,,,,METAR,657.0
CXFM 241900Z AUTO 18010KT 02/M01 RMK AO1 T00161012,CXFM,2022-10-24T19:00:00Z,49.48,-111.48,1.6,-1.2,180,10,,,,,,TRUE,TRUE,,,,,,,,,,,,,,,,,,,,,,,,,,,METAR,884.0
CXET 241900Z AUTO 15010G18KT 20/08 RMK AO1 PK WND 14018/1853 SLP199 T01980076 56025,CXET,2022-10-24T19:00:00Z,44.23,-79.78,19.8,7.6,150,10,18,,,1019.9,,TRUE,TRUE,,,,,,,,,,,,,,,,-2.5,,,,,,,,,,,METAR,250.0
CXEG 241900Z AUTO 16004KT 01/M01 RMK AO1 SLP056 T00101008 56012,CXEG,2022-10-24T19:00:00Z,53.3,-113.6,1.0,-0.8,160,4,,,,1005.6,,TRUE,TRUE,,,,,,,,,,,,,,,,-1.2,,,,,,,,,,,METAR,706.0
CXEC 241900Z AUTO 19004KT 02/M02 RMK AO1 SLP053 T00181022 58011,CXEC,2022-10-24T19:00:00Z,53.57,-113.52,1.8,-2.2,190,4,,,,1005.3,,TRUE,TRUE,,,,,,,,,,,,,,,,-1.1,,,,,,,,,,,METAR,666.0
CXEA 241900Z AUTO 15011G21KT 19/15 RMK AO1 PRESFR PK WND 13021/1855 SLP862 T01920146 58037,CXEA,2022-10-24T19:00:00Z,50.63,-93.22,19.2,14.6,150,11,21,,,986.2,,TRUE,TRUE,,,,,,,,,,,,,,,,-3.7,,,,,,,,,,,METAR,351.0
CXDW 241900Z AUTO 30016G23KT 03/02 RMK AO1 PK WND 31023/1859 SLP910 T00330015 51024,CXDW,2022-10-24T19:00:00Z,49.4,-98.32,3.3,1.5,300,16,23,,,991.0,,TRUE,TRUE,,,,,,,,,,,,,,,,2.4,,,,,,,,,,,METAR,341.0
CXDK 241900Z AUTO M03/M08 RMK AO1 SLP120 T10311082 54000,CXDK,2022-10-24T19:00:00Z,61.27,-124.47,-3.1,-8.2,,,,,,1012.0,,TRUE,TRUE,,,,,,,,,,,,,,,,,,,,,,,,,,,METAR,269.0
CXDI 241900Z AUTO 16005KT 21/07 RMK AO1 SLP195 T02130067 56025,CXDI,2022-10-24T19:00:00Z,42.87,-80.55,21.3,6.7,160,5,,,,1019.5,,TRUE,TRUE,,,,,,,,,,,,,,,,-2.5,,,,,,,,,,,METAR,234.0
CXDE 241900Z AUTO 26002KT M05/M07 RMK AO1 SOG 03 4000 SLP162 T10481068,CXDE,2022-10-24T19:00:00Z,65.22,-123.43,-4.8,-6.8,260,2,,,,1016.2,,TRUE,TRUE,,,,,,,,,,,,,,,,,,,,,,,,,,,METAR,208.0
CXDB 241900Z AUTO 24020KT 01/M03 RMK AO1 PK WND 21026/1803 T00061029,CXDB,2022-10-24T19:00:00Z,49.05,-112.82,0.6,-2.9,240,20,,,,,,TRUE,TRUE,,,,,,,,,,,,,,,,,,,,,,,,,,,METAR,1311.0
CXCS 241900Z AUTO 14012KT 02/M04 RMK AO1 T00221037,CXCS,2022-10-24T19:00:00Z,51.93,-110.72,2.2,-3.7,140,12,,,,,,TRUE,TRUE,,,,,,,,,,,,,,,,,,,,,,,,,,,METAR,771.0
CXCP 241900Z AUTO 25011KT 07/01 RMK AO1 T00700005,CXCP,2022-10-24T19:00:00Z,50.28,-113.35,7.0,0.5,250,11,,,,,,TRUE,TRUE,,,,,,,,,,,,,,,,,,,,,,,,,,,METAR,999.0
CXCK 241900Z AUTO 33007KT M04/M07 RMK AO1 SLP102 T10361070 50003,CXCK,2022-10-24T19:00:00Z,62.12,-136.2,-3.6,-7.0,330,7,,,,1010.2,,TRUE,TRUE,,,,,,,,,,,,,,,,0.3,,,,,,,,,,,METAR,526.0
CXCD 241900Z AUTO 01004KT 01/00 RMK AO1 T00090000,CXCD,2022-10-24T19:00:00Z,56.32,-119.75,0.9,0.0,10,4,,,,,,TRUE,TRUE,,,,,,,,,,,,,,,,,,,,,,,,,,,METAR,628.0
CXCA 241900Z AUTO 16011G17KT 11/10 RMK AO1 PK WND 16020/1825 SLP021 T01090098 56020,CXCA,2022-10-24T19:00:00Z,49.15,-88.35,10.9,9.8,160,11,17,,,1002.1,,TRUE,TRUE,,,,,,,,,,,,,,,,-2.0,,,,,,,,,,,METAR,228.0
CXBW 241900Z AUTO 25027KT 08/M02 RMK AO1 PK WND 25033/1858 T00801015,CXBW,2022-10-24T19:00:00Z,49.8,-112.3,8.0,-1.5,250,27,,,,,,TRUE,TRUE,,,,,,,,,,,,,,,,,,,,,,,,,,,METAR,823.0
CXBR 241900Z AUTO 24021KT RMK AO1 PK WND 24032/1854,CXBR,2022-10-24T19:00:00Z,49.62,-113.82,,,240,21,,,,,,TRUE,TRUE,,,,,,,,,,,,,,,,,,,,,,,,,,,METAR,1137.0
CXBO 241900Z AUTO 08006KT 14/08 RMK AO1 T01440077,CXBO,2022-10-24T19:00:00Z,46.83,-71.2,14.4,7.7,80,6,,,,,,TRUE,TRUE,,,,,,,,,,,,,,,,,,,,,,,,,,,METAR,8.0
CXBK 241900Z AUTO 32022KT M01/M02 RMK AO1 SOG 07 8001 PK WND 32028/1801 SLP062 T10121016,CXBK,2022-10-24T19:00:00Z,50.2,-104.7,-1.2,-1.6,320,22,,,,1006.2,,TRUE,TRUE,,,,,,,,,,,,,,,,,,,,,,,,,,,METAR,585.0
CXBI 241900Z AUTO 17008KT 19/06 RMK AO1 SLP210 T01910064 56019,CXBI,2022-10-24T19:00:00Z,44.48,-79.55,19.1,6.4,170,8,,,,1021.0,,TRUE,TRUE,,,,,,,,,,,,,,,,-1.9,,,,,,,,,,,METAR,287.0
CXBA 241900Z AUTO 16009KT 03/M05 RMK AO1 T00251050,CXBA,2022-10-24T19:00:00Z,52.12,-110.1,2.5,-5.0,160,9,,,,,,TRUE,TRUE,,,,,,,,,,,,,,,,,,,,,,,,,,,METAR,696.0
CXAT 241900Z AUTO 06005KT M11/M14 RMK AO1 SOG 05 2014 SLP103 T11061143,CXAT,2022-10-24T19:00:00Z,73.0,-85.03,-10.6,-14.3,60,5,,,,1010.3,,TRUE,TRUE,,,,,,,,,,,,,,,,,,,,,,,,,,,METAR,10.0
CXAK 241900Z AUTO 19007KT 02/02 RMK AO1 T00240024,CXAK,2022-10-24T19:00:00Z,52.35,-112.6,2.4,2.4,190,7,,,,,,TRUE,TRUE,,,,,,,,,,,,,,,,,,,,,,,,,,,METAR,799.0
CXAJ 241900Z AUTO 14005KT M00/M02 RMK AO1 T10041020,CXAJ,2022-10-24T19:00:00Z,54.78,-112.82,-0.4,-2.0,140,5,,,,,,TRUE,TRUE,,,,,,,,,,,,,,,,,,,,,,,,,,,METAR,586.0
CXAG 241900Z AUTO 13008KT M01/M02 RMK AO1 T10111018,CXAG,2022-10-24T19:00:00Z,53.92,-112.28,-1.1,-1.8,130,8,,,,,,TRUE,TRUE,,,,,,,,,,,,,,,,,,,,,,,,,,,METAR,632.0
CXAF 241900Z AUTO 14008KT M02/M02 RMK AO1 T10161018,CXAF,2022-10-24T19:00:00Z,54.28,-112.97,-1.6,-1.8,140,8,,,,,,TRUE,TRUE,,,,,,,,,,,,,,,,,,,,,,,,,,,METAR,667.0
CWZW 241900Z AUTO 09004KT M01/M05 RMK AO1 SLP064 T10091051 51008,CWZW,2022-10-24T19:00:00Z,60.17,-132.73,-0.9,-5.1,90,4,,,,1006.4,,TRUE,TRUE,,,,,,,,,,,,,,,,0.8,,,,,,,,,,,METAR,683.0
CWZQ 241900Z AUTO 26003KT 16/11 RMK AO1 SLP278 T01560109 56013,CWZQ,2022-10-24T19:00:00Z,46.53,-61.05,15.6,10.9,260,3,,,,1027.8,,TRUE,TRUE,,,,,,,,,,,,,,,,-1.3,,,,,,,,,,,METAR,13.0
CWZO 241900Z AUTO 26012KT RMK AO1,CWZO,2022-10-24T19:00:00Z,48.57,-123.25,,,260,12,,,,,,TRUE,TRUE,,,,,,,,,,,,,,,,,,,,,,,,,,,METAR,5.0
CWZN 241900Z AUTO 26006KT 12/09 RMK AO1 SLP279 T01150091 56007,CWZN,2022-10-24T19:00:00Z,47.37,-55.8,11.5,9.1,260,6,,,,1027.9,,TRUE,TRUE,,,,,,,,,,,,,,,,-0.7,,,,,,,,,,,METAR,63.0
CWZL 241900Z AUTO 28013G22KT 10/05 RMK AO1 PK WND 27022/1853 SLP114 T00990046 52029,CWZL,2022-10-24T19:00:00Z,53.03,-131.6,9.9,4.6,280,13,22,,,1011.4,,TRUE,TRUE,,,,,,,,,,,,,,,,2.9,,,,,,,,,,,METAR,17.0
CWZG 241900Z AUTO 23006KT 03/M03 RMK AO1 SOG 03 8017 SLP060 T00261029,CWZG,2022-10-24T19:00:00Z,51.2,-115.55,2.6,-2.9,230,6,,,,1006.0,,TRUE,TRUE,,,,,,,,,,,,,,,,,,,,,,,,,,,METAR,1402.0
CWZA 241900Z AUTO 00000KT 07/06 RMK AO1 7PAST HR 3005 SLP133 P0011 T00660056 50027,CWZA,2022-10-24T19:00:00Z,49.25,-121.77,6.6,5.6,0,0,,,,1013.3,,TRUE,TRUE,,,,,,,,,,,,,,,,2.7,,,,,0.11,,,,,,METAR,18.0
CWYY 241900Z AUTO 14009KT 10/01 RMK AO1 PK WND 14017/1821 SLP112 T00960010 58007,CWYY,2022-10-24T19:00:00Z,49.03,-119.43,9.6,1.0,140,9,,,,1011.2,,TRUE,TRUE,,,,,,,,,,,,,,,,-0.7,,,,,,,,,,,METAR,284.0
CWYL 241900Z AUTO 27010KT M00/M02 RMK AO1 SOG 02 6015 SLP073 T10031020,CWYL,2022-10-24T19:00:00Z,51.45,-116.33,-0.3,-2.0,270,10,,,,1007.3,,TRUE,TRUE,,,,,,,,,,,,,,,,,,,,,,,,,,,METAR,1602.0
CWYJ 241900Z AUTO 25006KT 12/09 RMK AO1 PK WND 23017/1847 SLP130 T01200089 53009,CWYJ,2022-10-24T19:00:00Z,48.45,-123.3,12.0,8.9,250,6,,,,1013.0,,TRUE,TRUE,,,,,,,,,,,,,,,,0.9,,,,,,,,,,,METAR,59.0
CWXL 241900Z AUTO 21010KT 05/M00 RMK AO1 SLP070 T00511004 56024,CWXL,2022-10-24T19:00:00Z,49.73,-111.45,5.1,-0.4,210,10,,,,1007.0,,TRUE,TRUE,,,,,,,,,,,,,,,,-2.4,,,,,,,,,,,METAR,815.0
CWXI 241900Z AUTO 24011KT 10/05 RMK AO1 SLP260 T01000047 56012,CWXI,2022-10-24T19:00:00Z,51.02,-57.1,10.0,4.7,240,11,,,,1026.0,,TRUE,TRUE,,,,,,,,,,,,,,,,-1.2,,,,,,,,,,,METAR,15.0
CWXC 241900Z AUTO 19007KT 20/04 RMK AO1 SLP240 T01950037 56019,CWXC,2022-10-24T19:00:00Z,48.88,-71.03,19.5,3.7,190,7,,,,1024.0,,TRUE,TRUE,,,,,,,,,,,,,,,,-1.9,,,,,,,,,,,METAR,306.0
CWXA 241900Z AUTO 00025KT 04/M05 RMK AO1 SLP065 T00431051 58015,CWXA,2022-10-24T19:00:00Z,51.07,-115.07,4.3,-5.1,0,25,,,,1006.5,,TRUE,TRUE,,,,,,,,,,,,,,,,-1.5,,,,,,,,,,,METAR,1303.0
CWWZ 241900Z AUTO 02005KT 12/10 RMK AO1 SLP205 T01180100 57022,CWWZ,2022-10-24T19:00:00Z,43.25,-79.22,11.8,10.0,20,5,,,,1020.5,,TRUE,TRUE,,,,,,,,,,,,,,,,-2.2,,,,,,,,,,,METAR,75.0
CWWS 241900Z AUTO 01026KT 03/02 RMK AO1 0PAST HR 7037 PK WND 02031/1806 SLP890 P0004 T00300020 50010,CWWS,2022-10-24T19:00:00Z,52.82,-97.62,3.0,2.0,10,26,,,,989.0,,TRUE,TRUE,,,,,,,,,,,,,,,,1.0,,,,,0.04,,,,,,METAR,220.0
CWWL 241900Z AUTO 30022G27KT 10/05 RMK AO1 PK WND 30031/1803 SLP094 T00960052 52038,CWWL,2022-10-24T19:00:00Z,53.5,-130.63,9.6,5.2,300,22,27,,,1009.4,,TRUE,TRUE,,,,,,,,,,,,,,,,3.8,,,,,,,,,,,METAR,8.0
CWWK 241900Z AUTO 17004KT 12/09 RMK AO1 SLP129 T01170088 53012,CWWK,2022-10-24T19:00:00Z,49.02,-122.78,11.7,8.8,170,4,,,,1012.9,,TRUE,TRUE,,,,,,,,,,,,,,,,1.2,,,,,,,,,,,METAR,10.0
CWWF 241900Z AUTO 34019G25KT M01/M02 RMK AO1 SOG 01 3002 PK WND 23027/1842 SLP038 T10081015,CWWF,2022-10-24T19:00:00Z,49.7,-103.8,-0.8,-1.5,340,19,25,,,1003.8,,TRUE,TRUE,,,,,,,,,,,,,,,,,,,,,,,,,,,METAR,583.0
CWWE 241900Z AUTO 04006KT 14/13 RMK AO1 5PAST HR 6007 SLP267 P0002 T01350134 50005,CWWE,2022-10-24T19:00:00Z,43.98,-64.67,13.5,13.4,40,6,,,,1026.7,,TRUE,TRUE,,,,,,,,,,,,,,,,0.5,,,,,0.02,,,,,,METAR,4.0
CWWB 241900Z AUTO 10003KT 09/08 RMK AO1 SLP204 T00860078 57024,CWWB,2022-10-24T19:00:00Z,43.3,-79.78,8.6,7.8,100,3,,,,1020.4,,TRUE,TRUE,,,,,,,,,,,,,,,,-2.4,,,,,,,,,,,METAR,77.0
CWWA 241900Z AUTO 00000KT 09/08 RMK AO1 SLP126 T00880082 52012,CWWA,2022-10-24T19:00:00Z,49.35,-123.18,8.8,8.2,0,0,,,,1012.6,,TRUE,TRUE,,,,,,,,,,,,,,,,1.2,,,,,,,,,,,METAR,172.0
CWVU 241900Z AUTO 11009KT 18/16 RMK AO1 SLP246 T01770158 56013,CWVU,2022-10-24T19:00:00Z,44.28,-66.33,17.7,15.8,110,9,,,,1024.6,,TRUE,TRUE,,,,,,,,,,,,,,,,-1.3,,,,,,,,,,,METAR,4.0
CWVT 241900Z AUTO 15003KT M00/M05 RMK AO1 SLP119 T10031050 58022,CWVT,2022-10-24T19:00:00Z,55.83,-108.42,-0.3,-5.0,150,3,,,,1011.9,,TRUE,TRUE,,,,,,,,,,,,,,,,-2.2,,,,,,,,,,,METAR,431.0
CWVQ 241900Z AUTO 11008KT 19/08 RMK AO1 SLP220 T01930078 57027,CWVQ,2022-10-24T19:00:00Z,45.42,-73.92,19.3,7.8,110,8,,,,1022.0,,TRUE,TRUE,,,,,,,,,,,,,,,,-2.7,,,,,,,,,,,METAR,38.0
CWVP 241900Z AUTO 23007KT M02/M03 RMK AO1 6PAST HR SOG 15 8024 SLP074 P0002 T10151031 50006,CWVP,2022-10-24T19:00:00Z,49.63,-109.52,-1.5,-3.1,230,7,,,,1007.4,,TRUE,TRUE,,,,,,,,,,,,,,,,0.6,,,,,0.02,,,,,,METAR,1269.0
CWVN 241900Z AUTO 32002KT M02/M03 RMK AO1 SOG 03 8019 SLP100 T10191034,CWVN,2022-10-24T19:00:00Z,49.07,-107.58,-1.9,-3.4,320,2,,,,1010.0,,TRUE,TRUE,,,,,,,,,,,,,,,,,,,,,,,,,,,METAR,792.0
CWVI 241900Z AUTO 17011KT 02/M03 RMK AO1 SLP068 T00211029 56024,CWVI,2022-10-24T19:00:00Z,53.52,-112.1,2.1,-2.9,170,11,,,,1006.8,,TRUE,TRUE,,,,,,,,,,,,,,,,-2.4,,,,,,,,,,,METAR,640.0
CWVH 241900Z AUTO 10012KT ////SM NCD ///// A////,CWVH,2022-10-24T19:00:00Z,68.9,-133.93,,,100,12,,,,,,TRUE,,,,,,,,CLR,,,,,,,,,,,,,,,,,,,,METAR,246.0
CWVF 241900Z AUTO 07009KT 10/08 RMK AO1 T00980082,CWVF,2022-10-24T19:00:00Z,49.1,-123.3,9.8,8.2,70,9,,,,,,TRUE,TRUE,,,,,,,,,,,,,,,,,,,,,,,,,,,METAR,13.0
CWUX 241900Z AUTO 02002KT 15/08 RMK AO1 SLP242 T01460082 56023,CWUX,2022-10-24T19:00:00Z,48.3,-70.93,14.6,8.2,20,2,,,,1024.2,,TRUE,TRUE,,,,,,,,,,,,,,,,-2.3,,,,,,,,,,,METAR,150.0
CWUW 241900Z AUTO 26022KT ////SM OVC004 M11/M12 A2981,CWUW,2022-10-24T19:00:00Z,68.62,-71.12,-11.0,-12.0,260,22,,,29.811024,,,TRUE,,,,,,,,OVC,400,,,,,,,,,,,,,,,,,,,METAR,173.0
CWUS 241900Z AUTO 14012G24KT 11/M00 RMK AO1 PK WND 13024/1850 SLP097 T01051002 58011,CWUS,2022-10-24T19:00:00Z,49.57,-119.65,10.5,-0.2,140,12,24,,,1009.7,,TRUE,TRUE,,,,,,,,,,,,,,,,-1.1,,,,,,,,,,,METAR,455.0
CWTY 241900Z AUTO 05008KT 17/08 RMK AO1 SLP236 T01690077 58026,CWTY,2022-10-24T19:00:00Z,46.35,-72.52,16.9,7.7,50,8,,,,1023.6,,TRUE,TRUE,,,,,,,,,,,,,,,,-2.6,,,,,,,,,,,METAR,8.0
CWTT 241900Z AUTO 11001KT 19/13 RMK AO1 T01860133,CWTT,2022-10-24T19:00:00Z,45.27,-72.17,18.6,13.3,110,1,,,,,,TRUE,TRUE,,,,,,,,,,,,,,,,,,,,,,,,,,,METAR,210.0
CWTN 241900Z AUTO 10004KT 14/08 RMK AO1 SLP248 T01440083 58021,CWTN,2022-10-24T19:00:00Z,47.07,-70.78,14.4,8.3,100,4,,,,1024.8,,TRUE,TRUE,,,,,,,,,,,,,,,,-2.1,,,,,,,,,,,METAR,5.0
CWTG 241900Z AUTO 05009KT 09/06 RMK AO1 SLP258 T00860063 56012,CWTG,2022-10-24T19:00:00Z,49.32,-67.37,8.6,6.3,50,9,,,,1025.8,,TRUE,TRUE,,,,,,,,,,,,,,,,-1.2,,,,,,,,,,,METAR,6.0
CWTA 241900Z AUTO 02002KT 19/08 RMK AO1 SLP222 T01880075 56027,CWTA,2022-10-24T19:00:00Z,45.5,-73.58,18.8,7.5,20,2,,,,1022.2,,TRUE,TRUE,,,,,,,,,,,,,,,,-2.7,,,,,,,,,,,METAR,71.0
CWST 241900Z AUTO 34002KT 14/08 RMK AO1 SLP250 T01430084 58013,CWST,2022-10-24T19:00:00Z,47.35,-70.02,14.3,8.4,340,2,,,,1025.0,,TRUE,TRUE,,,,,,,,,,,,,,,,-1.3,,,,,,,,,,,METAR,31.0
CWSS 241900Z AUTO 11002KT 15/14 RMK AO1 5PAST HR 6013 SLP256 P0002 T01450144 50005,CWSS,2022-10-24T19:00:00Z,45.2,-67.25,14.5,14.4,110,2,,,,1025.6,,TRUE,TRUE,,,,,,,,,,,,,,,,0.5,,,,,0.02,,,,,,METAR,27.0
CWSR 241900Z AUTO 35005KT 02/M05 RMK AO1 SLP081 T00211050 56025,CWSR,2022-10-24T19:00:00Z,53.37,-107.55,2.1,-5.0,350,5,,,,1008.1,,TRUE,TRUE,,,,,,,,,,,,,,,,-2.5,,,,,,,,,,,METAR,589.0
CWSP 241900Z AUTO 28018G23KT 11/09 RMK AO1 8PAST HR 1013 PK WND 28028/1840 SLP135 P0003 T01050090 50008,CWSP,2022-10-24T19:00:00Z,48.38,-123.92,10.5,9.0,280,18,23,,,1013.5,,TRUE,TRUE,,,,,,,,,,,,,,,,0.8,,,,,0.03,,,,,,METAR,2.0
CWSL 241900Z AUTO 01003KT 08/04 RMK AO1 SLP097 T00760038 56010,CWSL,2022-10-24T19:00:00Z,50.7,-119.28,7.6,3.8,10,3,,,,1009.7,,TRUE,TRUE,,,,,,,,,,,,,,,,-1.0,,,,,,,,,,,METAR,353.0
CWSK 241900Z AUTO 24002KT 07/06 RMK AO1 SLP125 T00740058 51006,CWSK,2022-10-24T19:00:00Z,49.78,-123.17,7.4,5.8,240,2,,,,1012.5,,TRUE,TRUE,,,,,,,,,,,,,,,,0.6,,,,,,,,,,,METAR,59.0
CWSG 241900Z AUTO 09/07 RMK AO1 SLP261 T00880066 55011,CWSG,2022-10-24T19:00:00Z,49.12,-66.65,8.8,6.6,,,,,,1026.1,,TRUE,TRUE,,,,,,,,,,,,,,,,-1.1,,,,,,,,,,,METAR,5.0
CWSF 241900Z AUTO 16003KT 10/06 RMK AO1 SLP258 T00970060 56015,CWSF,2022-10-24T19:00:00Z,49.25,-65.32,9.7,6.0,160,3,,,,1025.8,,TRUE,TRUE,,,,,,,,,,,,,,,,-1.5,,,,,,,,,,,METAR,15.0
CWSD 241900Z AUTO 15003KT 18/10 RMK AO1 SLP272 T01780097 56009,CWSD,2022-10-24T19:00:00Z,46.43,-63.85,17.8,9.7,150,3,,,,1027.2,,TRUE,TRUE,,,,,,,,,,,,,,,,-0.9,,,,,,,,,,,METAR,12.0
CWRZ 241900Z AUTO 22005KT 10/08 RMK AO1 SLP258 T00990081 56011,CWRZ,2022-10-24T19:00:00Z,48.42,-64.32,9.9,8.1,220,5,,,,1025.8,,TRUE,TRUE,,,,,,,,,,,,,,,,-1.1,,,,,,,,,,,METAR,16.0
CWRY 241900Z AUTO 24015G21KT 04/M00 RMK AO1 PK WND 24022/1802 SLP074 T00401002 56023,CWRY,2022-10-24T19:00:00Z,49.12,-112.05,4.0,-0.2,240,15,21,,,1007.4,,TRUE,TRUE,,,,,,,,,,,,,,,,-2.3,,,,,,,,,,,METAR,1048.0
CWRX 241900Z AUTO ///// ////SM OVC032 M08/M12 A2992,CWRX,2022-10-24T19:00:00Z,69.07,-79.07,-8.0,-12.0,,,,,29.920275,,,TRUE,,,,,,,,OVC,3200,,,,,,,,,,,,,,,,,,,METAR,39.0
CWRU 241900Z AUTO 30024KT 11/ RMK AO1 PK WND 31027/1850 SLP127 T0114 53024,CWRU,2022-10-24T19:00:00Z,50.12,-127.93,11.4,,300,24,,,,1012.7,,TRUE,TRUE,,,,,,,,,,,,,,,,2.4,,,,,,,,,,,METAR,76.0
CWRT 241900Z AUTO 32011G16KT 02/M03 RMK AO1 PK WND 30017/1845 SLP101 T00181026 57008,CWRT,2022-10-24T19:00:00Z,49.62,-114.47,1.8,-2.6,320,11,16,,,1010.1,,TRUE,TRUE,,,,,,,,,,,,,,,,-0.8,,,,,,,,,,,METAR,1311.0
CWRO 241900Z AUTO 29022G27KT 10/ RMK AO1 PK WND 29038/1826 SLP082 T0098 53035,CWRO,2022-10-24T19:00:00Z,54.17,-131.67,9.8,,290,22,27,,,1008.2,,TRUE,TRUE,,,,,,,,,,,,,,,,3.5,,,,,,,,,,,METAR,7.0
CWRN 241900Z AUTO 13005KT 15/13 RMK AO1 SLP281 T01460127 56006,CWRN,2022-10-24T19:00:00Z,45.35,-60.98,14.6,12.7,130,5,,,,1028.1,,TRUE,TRUE,,,,,,,,,,,,,,,,-0.6,,,,,,,,,,,METAR,8.0
CWRM 241900Z AUTO 14006KT 03/M00 RMK AO1 SLP030 T00251003 58006,CWRM,2022-10-24T19:00:00Z,52.42,-114.92,2.5,-0.3,140,6,,,,1003.0,,TRUE,TRUE,,,,,,,,,,,,,,,,-0.6,,,,,,,,,,,METAR,986.0
CWRK 241900Z AUTO 17003KT 21/04 RMK AO1 SLP208 T02100041 58024,CWRK,2022-10-24T19:00:00Z,45.07,-77.87,21.0,4.1,170,3,,,,1020.8,,TRUE,TRUE,,,,,,,,,,,,,,,,-2.4,,,,,,,,,,,METAR,328.0
CWRJ 241900Z AUTO 28004KT M02/M02 RMK AO1 SLP089 T10151023 58019,CWRJ,2022-10-24T19:00:00Z,51.57,-107.92,-1.5,-2.3,280,4,,,,1008.9,,TRUE,TRUE,,,,,,,,,,,,,,,,-1.9,,,,,,,,,,,METAR,586.0
CWRH 241900Z AUTO 30026G34KT ////SM ////// ///// A3011,CWRH,2022-10-24T19:00:00Z,61.58,-64.65,,,300,26,34,,30.109253,,,TRUE,,,,,,,,,,,,,,,,,,,,,,,,,,,,METAR,343.0
CWRA 241900Z AUTO 00031KT 16/07 RMK AO1 SLP273 T01590073 53001,CWRA,2022-10-24T19:00:00Z,46.65,-53.07,15.9,7.3,0,31,,,,1027.3,,TRUE,TRUE,,,,,,,,,,,,,,,,0.1,,,,,,,,,,,METAR,4.0
CWQV 241900Z AUTO 09009KT 14/08 RMK AO1 T01390075,CWQV,2022-10-24T19:00:00Z,48.27,-70.12,13.9,7.5,90,9,,,,,,TRUE,TRUE,,,,,,,,,,,,,,,,,,,,,,,,,,,METAR,4.0
CWQS 241900Z AUTO 31023KT 10/05 RMK AO1 PK WND 30037/1826 SLP110 T01040048 51028,CWQS,2022-10-24T19:00:00Z,53.32,-132.77,10.4,4.8,310,23,,,,1011.0,,TRUE,TRUE,,,,,,,,,,,,,,,,2.8,,,,,,,,,,,METAR,10.0
CWQR 241900Z AUTO 13004KT 09/07 RMK AO1 T00940073,CWQR,2022-10-24T19:00:00Z,50.22,-64.22,9.4,7.3,130,4,,,,,,TRUE,TRUE,,,,,,,,,,,,,,,,,,,,,,,,,,,METAR,9.0
CWQP 241900Z AUTO 11001KT 15/11 RMK AO1 SLP213 T01480109 58020,CWQP,2022-10-24T19:00:00Z,43.83,-77.15,14.8,10.9,110,1,,,,1021.3,,TRUE,TRUE,,,,,,,,,,,,,,,,-2.0,,,,,,,,,,,METAR,77.0
CWQO 241900Z AUTO 09004KT 08/06 RMK AO1 T00810063,CWQO,2022-10-24T19:00:00Z,48.42,-68.9,8.1,6.3,90,4,,,,,,TRUE,TRUE,,,,,,,,,,,,,,,,,,,,,,,,,,,METAR,7.0
CWQK 241900Z AUTO 25024KT 12/ RMK AO1 PK WND 25031/1819 SLP128 T0116 53006,CWQK,2022-10-24T19:00:00Z,48.3,-123.53,11.6,,250,24,,,,1012.8,,TRUE,TRUE,,,,,,,,,,,,,,,,0.6,,,,,,,,,,,METAR,5.0
CWQH 241900Z AUTO 05007KT 18/14 RMK AO1 SLP232 T01840143 56026,CWQH,2022-10-24T19:00:00Z,45.37,-71.82,18.4,14.3,50,7,,,,1023.2,,TRUE,TRUE,,,,,,,,,,,,,,,,-2.6,,,,,,,,,,,METAR,181.0
CWPZ 241900Z AUTO 16004KT 06/01 RMK AO1 SLP012 T00620011 52011,CWPZ,2022-10-24T19:00:00Z,54.38,-125.97,6.2,1.1,160,4,,,,1001.2,,TRUE,TRUE,,,,,,,,,,,,,,,,1.1,,,,,,,,,,,METAR,715.0
CWPR 241900Z AUTO 02003KT 07/01 RMK AO1 SOG 01 8006 SLP096 T00660009,CWPR,2022-10-24T19:00:00Z,49.47,-120.52,6.6,0.9,20,3,,,,1009.6,,TRUE,TRUE,,,,,,,,,,,,,,,,,,,,,,,,,,,METAR,703.0
CWPO 241900Z AUTO 31015KT 03/03 RMK AO1 4PAST HR 1028 PK WND 32022/1822 SLP935 P0002 T00270027 50004,CWPO,2022-10-24T19:00:00Z,49.2,-98.9,2.7,2.7,310,15,,,,993.5,,TRUE,TRUE,,,,,,,,,,,,,,,,0.4,,,,,0.02,,,,,,METAR,471.0
CWPK 241900Z AUTO 18004KT 20/M00 RMK AO1 SLP230 T02001002 56017,CWPK,2022-10-24T19:00:00Z,47.92,-74.62,20.0,-0.2,180,4,,,,1023.0,,TRUE,TRUE,,,,,,,,,,,,,,,,-1.7,,,,,,,,,,,METAR,443.0
CWPE 241900Z AUTO 07008KT 15/13 RMK AO1 SLP256 T01540126 56015,CWPE,2022-10-24T19:00:00Z,45.07,-66.47,15.4,12.6,70,8,,,,1025.6,,TRUE,TRUE,,,,,,,,,,,,,,,,-1.5,,,,,,,,,,,METAR,9.0
CWPD 241900Z AUTO 22005KT 15/07 RMK AO1 SLP236 T01500067 58016,CWPD,2022-10-24T19:00:00Z,47.57,-71.22,15.0,6.7,220,5,,,,1023.6,,TRUE,TRUE,,,,,,,,,,,,,,,,-1.6,,,,,,,,,,,METAR,795.0
CWPC 241900Z AUTO 13002KT 17/09 RMK AO1 SLP206 T01740091 58029,CWPC,2022-10-24T19:00:00Z,42.87,-79.25,17.4,9.1,130,2,,,,1020.6,,TRUE,TRUE,,,,,,,,,,,,,,,,-2.9,,,,,,,,,,,METAR,174.0
CWOY 241900Z AUTO 34009KT M02/M04 RMK AO1 SOG 08 8012 PK WND 34018/1809 SLP050 T10151036,CWOY,2022-10-24T19:00:00Z,51.77,-104.2,-1.5,-3.6,340,9,,,,1005.0,,TRUE,TRUE,,,,,,,,,,,,,,,,,,,,,,,,,,,METAR,557.0
CWOE 241900Z AUTO 17003KT 02/M00 RMK AO1 SLP090 T00221002 58021,CWOE,2022-10-24T19:00:00Z,49.12,-110.47,2.2,-0.2,170,3,,,,1009.0,,TRUE,TRUE,,,,,,,,,,,,,,,,-2.1,,,,,,,,,,,METAR,931.0
CWOD 241900Z AUTO 06002KT 16/09 RMK AO1 SLP234 T01640087 56025,CWOD,2022-10-24T19:00:00Z,48.85,-72.55,16.4,8.7,60,2,,,,1023.4,,TRUE,TRUE,,,,,,,,,,,,,,,,-2.5,,,,,,,,,,,METAR,150.0
CWOC 241900Z AUTO 28001KT 13/10 RMK AO1 SLP262 T01340104 56011,CWOC,2022-10-24T19:00:00Z,48.02,-65.32,13.4,10.4,280,1,,,,1026.2,,TRUE,TRUE,,,,,,,,,,,,,,,,-1.1,,,,,,,,,,,METAR,42.0
CWOB 241900Z AUTO 34023KT ////SM NCD M08/M12 A2999,CWOB,2022-10-24T19:00:00Z,63.33,-64.15,-8.0,-12.0,340,23,,,29.991142,,,TRUE,,,,,,,,CLR,,,,,,,,,,,,,,,,,,,,METAR,369.0
CWNZ 241900Z AUTO 17010G20KT 19/12 RMK AO1 PK WND 17020/1827 SLP074 T01860118 58030,CWNZ,2022-10-24T19:00:00Z,49.75,-84.17,18.6,11.8,170,10,20,,,1007.4,,TRUE,TRUE,,,,,,,,,,,,,,,,-3.0,,,,,,,,,,,METAR,261.0
CWNQ 241900Z AUTO 11004KT 19/11 RMK AO1 SLP231 T01930114 56023,CWNQ,2022-10-24T19:00:00Z,46.22,-72.65,19.3,11.4,110,4,,,,1023.1,,TRUE,TRUE,,,,,,,,,,,,,,,,-2.3,,,,,,,,,,,METAR,9.0
CWNP 241900Z AUTO 16003KT 04/04 RMK AO1 2PAST HR 8016 SLP102 P0001 T00400040 50002,CWNP,2022-10-24T19:00:00Z,50.27,-117.82,4.0,4.0,160,3,,,,1010.2,,TRUE,TRUE,,,,,,,,,,,,,,,,0.2,,,,,0.01,,,,,,METAR,517.0
CWNM 241900Z AUTO 27009KT 04/03 RMK AO1 2PAST HR 8011 PK WND 29017/1838 SLP124 P0001 T00350032 50002,CWNM,2022-10-24T19:00:00Z,49.5,-117.3,3.5,3.2,270,9,,,,1012.4,,TRUE,TRUE,,,,,,,,,,,,,,,,0.2,,,,,0.01,,,,,,METAR,533.0
CWNK 241900Z AUTO 30012KT 04/03 RMK AO1 2PAST HR 3021 PK WND 30018/1809 SLP903 P0001 T00410033 50002,CWNK,2022-10-24T19:00:00Z,49.5,-98.03,4.1,3.3,300,12,,,,990.3,,TRUE,TRUE,,,,,,,,,,,,,,,,0.2,,,,,0.01,,,,,,METAR,271.0
CWNH 241900Z AUTO 20003KT 17/07 RMK AO1 SLP255 T01700066 58012,CWNH,2022-10-24T19:00:00Z,47.8,-69.53,17.0,6.6,200,3,,,,1025.5,,TRUE,TRUE,,,,,,,,,,,,,,,,-1.2,,,,,,,,,,,METAR,147.0
CWNE 241900Z AUTO 25001KT 14/12 RMK AO1 SLP266 T01360120 56011,CWNE,2022-10-24T19:00:00Z,47.07,-64.0,13.6,12.0,250,1,,,,1026.6,,TRUE,TRUE,,,,,,,,,,,,,,,,-1.1,,,,,,,,,,,METAR,5.0
CWND 241900Z AUTO 16004KT M08/M11 RMK AO1 SLP162 T10811114 54000,CWND,2022-10-24T19:00:00Z,69.63,-135.43,-8.1,-11.4,160,4,,,,1016.2,,TRUE,TRUE,,,,,,,,,,,,,,,,,,,,,,,,,,,METAR,14.0
CWNC 241900Z AUTO 10004KT 14/10 RMK AO1 SLP210 T01430104 57019,CWNC,2022-10-24T19:00:00Z,43.95,-78.17,14.3,10.4,100,4,,,,1021.0,,TRUE,TRUE,,,,,,,,,,,,,,,,-1.9,,,,,,,,,,,METAR,71.0
CWMZ 241900Z AUTO 10004KT 17/10 RMK AO1 SLP187 T01660100 57024,CWMZ,2022-10-24T19:00:00Z,45.02,-80.37,16.6,10.0,100,4,,,,1018.7,,TRUE,TRUE,,,,,,,,,,,,,,,,-2.4,,,,,,,,,,,METAR,175.0
CWMT 241900Z AUTO 03008KT M04/M06 RMK AO1 SLP139 T10371056 58001,CWMT,2022-10-24T19:00:00Z,63.13,-117.25,-3.7,-5.6,30,8,,,,1013.9,,TRUE,TRUE,,,,,,,,,,,,,,,,-0.1,,,,,,,,,,,SPECI,274.0
CWMQ 241900Z AUTO 21007KT 02/01 RMK AO1 SOG 10 8036 SLP073 T00200010,CWMQ,2022-10-24T19:00:00Z,49.9,-109.47,2.0,1.0,210,7,,,,1007.3,,TRUE,TRUE,,,,,,,,,,,,,,,,,,,,,,,,,,,METAR,767.0
CWMM 241900Z AUTO 03003KT 07/06 RMK AO1 SLP133 T00720063 52011,CWMM,2022-10-24T19:00:00Z,49.22,-122.68,7.2,6.3,30,3,,,,1013.3,,TRUE,TRUE,,,,,,,,,,,,,,,,1.1,,,,,,,,,,,METAR,2.0
CWMJ 241900Z AUTO 17006KT 20/06 RMK AO1 SLP220 T01950062 56022,CWMJ,2022-10-24T19:00:00Z,46.27,-76.0,19.5,6.2,170,6,,,,1022.0,,TRUE,TRUE,,,,,,,,,,,,,,,,-2.2,,,,,,,,,,,METAR,198.0
CWME 241900Z AUTO 18008G15KT 09/06 RMK AO1 2PAST HR 3041 PK WND 17019/1834 SLP096 P0001 T00870056 50002,CWME,2022-10-24T19:00:00Z,52.18,-127.47,8.7,5.6,180,8,15,,,1009.6,,TRUE,TRUE,,,,,,,,,,,,,,,,0.2,,,,,0.01,,,,,,METAR,23.0
CWLY 241900Z AUTO 20018G30KT 160V240 9SM SCT091 09/03 A2976 RMK SLP082,CWLY,2022-10-24T19:00:00Z,50.22,-121.58,9.0,3.0,200,18,30,9.0,29.760826,1008.2,,TRUE,,,,,,,,SCT,9100,,,,,,,VFR,,,,,,,,,,,,METAR,228.0
CWLX 241900Z AUTO ///// ////SM ////// M09/M12 A2991,CWLX,2022-10-24T19:00:00Z,68.9,-75.15,-9.0,-12.0,,,,,29.911417,,,TRUE,,,,,,,,,,,,,,,,,,,,,,,,,,,,METAR,129.0
CWLS 241900Z AUTO 16009KT 20/05 RMK AO1 SLP188 T02040054 56024,CWLS,2022-10-24T19:00:00Z,43.97,-80.75,20.4,5.4,160,9,,,,1018.8,,TRUE,TRUE,,,,,,,,,,,,,,,,-2.4,,,,,,,,,,,METAR,413.0
CWLM 241900Z AUTO 26013G25KT 13/08 RMK AO1 PK WND 25025/1859 SLP127 T01290084 51010,CWLM,2022-10-24T19:00:00Z,48.42,-123.32,12.9,8.4,260,13,25,,,1012.7,,TRUE,TRUE,,,,,,,,,,,,,,,,1.0,,,,,,,,,,,METAR,62.0
CWLI 241900Z AUTO 04002KT ////SM SCT055 OVC070 M08/M11 A3006,CWLI,2022-10-24T19:00:00Z,69.6,-130.9,-8.0,-11.0,40,2,,,30.059055,,,TRUE,,,,,,,,SCT,5500,OVC,7000,,,,,,,,,,,,,,,,,METAR,92.0
CWLE 241900Z AUTO 31009KT M00/M01 RMK AO1 SOG 11 8018 SLP088 T10041011,CWLE,2022-10-24T19:00:00Z,50.95,-107.15,-0.4,-1.1,310,9,,,,1008.8,,TRUE,TRUE,,,,,,,,,,,,,,,,,,,,,,,,,,,METAR,666.0
CWLC 241900Z AUTO 28019KT 10/05 RMK AO1 PK WND 28024/1818 T00950053,CWLC,2022-10-24T19:00:00Z,54.3,-130.62,9.5,5.3,280,19,,,,,,TRUE,TRUE,,,,,,,,,,,,,,,,,,,,,,,,,,,METAR,27.0
CWKX 241900Z AUTO 34004KT M02/M04 RMK AO1 7PAST HR SOG 03 2017 SLP046 P0003 T10231040 50007,CWKX,2022-10-24T19:00:00Z,58.43,-130.02,-2.3,-4.0,340,4,,,,1004.6,,TRUE,TRUE,,,,,,,,,,,,,,,,0.7,,,,,0.03,,,,,,METAR,807.0
CWKO 241900Z AUTO 31005KT M02/M03 RMK AO1 SOG 03 8004 SLP085 T10191031,CWKO,2022-10-24T19:00:00Z,49.17,-105.97,-1.9,-3.1,310,5,,,,1008.5,,TRUE,TRUE,,,,,,,,,,,,,,,,,,,,,,,,,,,METAR,914.0
CWKM 241900Z AUTO 10016G21KT ////SM NCD M11/M12 A3003,CWKM,2022-10-24T19:00:00Z,69.6,-140.17,-11.0,-12.0,100,16,21,,30.029528,,,TRUE,,,,,,,,CLR,,,,,,,,,,,,,,,,,,,,METAR,8.0
CWKK 241900Z AUTO 18004KT 12/ RMK AO1 SLP014 T0121 58019,CWKK,2022-10-24T19:00:00Z,49.72,-88.33,12.1,,180,4,,,,1001.4,,TRUE,TRUE,,,,,,,,,,,,,,,,-1.9,,,,,,,,,,,METAR,259.0
CWKH 241900Z AUTO 10/05 RMK AO1 SLP118 T00980052 51013,CWKH,2022-10-24T19:00:00Z,48.57,-123.55,9.8,5.2,,,,,,1011.8,,TRUE,TRUE,,,,,,,,,,,,,,,,1.3,,,,,,,,,,,METAR,327.0
CWKG 241900Z AUTO 10005KT 16/15 RMK AO1 6PAST HR 6010 SLP266 P0014 T01570152 50036,CWKG,2022-10-24T19:00:00Z,44.43,-65.2,15.7,15.2,100,5,,,,1026.6,,TRUE,TRUE,,,,,,,,,,,,,,,,3.6,,,,,0.14,,,,,,METAR,154.0
CWJX 241900Z AUTO 14009KT 02/M02 RMK AO1 SLP074 T00211021 58028,CWJX,2022-10-24T19:00:00Z,50.88,-109.5,2.1,-2.1,140,9,,,,1007.4,,TRUE,TRUE,,,,,,,,,,,,,,,,-2.8,,,,,,,,,,,METAR,671.0
CWJW 241900Z AUTO 15005KT 04/M00 RMK AO1 SLP056 T00431003 58008,CWJW,2022-10-24T19:00:00Z,52.93,-118.03,4.3,-0.3,150,5,,,,1005.6,,TRUE,TRUE,,,,,,,,,,,,,,,,-0.8,,,,,,,,,,,METAR,1022.0
CWJV 241900Z AUTO 08002KT 06/03 RMK AO1 SLP091 T00620033 57017,CWJV,2022-10-24T19:00:00Z,50.22,-119.18,6.2,3.3,80,2,,,,1009.1,,TRUE,TRUE,,,,,,,,,,,,,,,,-1.7,,,,,,,,,,,METAR,487.0
CWJU 241900Z AUTO 27024G30KT 10/05 RMK AO1 PK WND 25032/1819 SLP095 T00950054 53027,CWJU,2022-10-24T19:00:00Z,54.25,-133.07,9.5,5.4,270,24,30,,,1009.5,,TRUE,TRUE,,,,,,,,,,,,,,,,2.7,,,,,,,,,,,METAR,47.0
CWJT 241900Z AUTO 15002KT 23/ RMK AO1 SLP219 T0234 56024,CWJT,2022-10-24T19:00:00Z,46.07,-74.57,23.4,,150,2,,,,1021.9,,TRUE,TRUE,,,,,,,,,,,,,,,,-2.4,,,,,,,,,,,METAR,236.0
CWJR 241900Z AUTO 16007KT 05/03 RMK AO1 PK WND 17017/1830 SLP126 T00530027 58013,CWJR,2022-10-24T19:00:00Z,49.03,-116.5,5.3,2.7,160,7,,,,1012.6,,TRUE,TRUE,,,,,,,,,,,,,,,,-1.3,,,,,,,,,,,METAR,642.0
CWJO 241900Z AUTO 01003KT 18/08 RMK AO1 SLP238 T01840084 56020,CWJO,2022-10-24T19:00:00Z,48.43,-71.15,18.4,8.4,10,3,,,,1023.8,,TRUE,TRUE,,,,,,,,,,,,,,,,-2.0,,,,,,,,,,,METAR,113.0
CWJI 241900Z AUTO 31017KT M01/M02 RMK AO1 2PAST HR SOG 10 8010 PK WND 31021/1807 SLP079 P0001 T10101020 50002,CWJI,2022-10-24T19:00:00Z,49.72,-105.93,-1.0,-2.0,310,17,,,,1007.9,,TRUE,TRUE,,,,,,,,,,,,,,,,0.2,,,,,0.01,,,,,,METAR,724.0
CWJH 241900Z AUTO 03008KT 01/M02 RMK AO1 SLP108 T00051023 58032,CWJH,2022-10-24T19:00:00Z,56.32,-103.27,0.5,-2.3,30,8,,,,1010.8,,TRUE,TRUE,,,,,,,,,,,,,,,,-3.2,,,,,,,,,,,METAR,345.0
CWJD 241900Z AUTO 35008G19KT M00/M00 RMK AO1 6PAST HR 8034 PK WND 34019/1850 SLP945 P0006 T10021002 50016,CWJD,2022-10-24T19:00:00Z,53.18,-99.27,-0.2,-0.2,350,8,19,,,994.5,,TRUE,TRUE,,,,,,,,,,,,,,,,1.6,,,,,0.06,,,,,,METAR,222.0
CWJC 241900Z AUTO 17015KT M07/M09 RMK AO1 SOG 08 6021 PK WND 16024/1815 SLP191 T10671089,CWJC,2022-10-24T19:00:00Z,61.13,-100.9,-6.7,-8.9,170,15,,,,1019.1,,TRUE,TRUE,,,,,,,,,,,,,,,,,,,,,,,,,,,METAR,340.0
CWJB 241900Z AUTO 33007KT 17/10 RMK AO1 T01670098,CWJB,2022-10-24T19:00:00Z,46.78,-71.28,16.7,9.8,330,7,,,,,,TRUE,TRUE,,,,,,,,,,,,,,,,,,,,,,,,,,,METAR,90.0
CWIZ 241900Z AUTO 10004KT 19/10 RMK AO1 T01890099,CWIZ,2022-10-24T19:00:00Z,45.28,-73.33,18.9,9.9,100,4,,,,,,TRUE,TRUE,,,,,,,,,,,,,,,,,,,,,,,,,,,METAR,45.0
CWIX 241900Z AUTO 15006KT 21/06 RMK AO1 SLP230 T02070059 56020,CWIX,2022-10-24T19:00:00Z,48.6,-71.72,20.7,5.9,150,6,,,,1023.0,,TRUE,TRUE,,,,,,,,,,,,,,,,-2.0,,,,,,,,,,,METAR,109.0
CWIW 241900Z AUTO 33016KT 01/M02 RMK AO1 SOG 02 7016 PK WND 33020/1856 SLP069 T00051024,CWIW,2022-10-24T19:00:00Z,51.67,-105.4,0.5,-2.4,330,16,,,,1006.9,,TRUE,TRUE,,,,,,,,,,,,,,,,,,,,,,,,,,,METAR,524.0
CWIT 241900Z AUTO 11006KT 19/13 RMK AO1 SLP216 T01860127 58027,CWIT,2022-10-24T19:00:00Z,45.17,-73.67,18.6,12.7,110,6,,,,1021.6,,TRUE,TRUE,,,,,,,,,,,,,,,,-2.7,,,,,,,,,,,METAR,53.0
CWIS 241900Z AUTO 21004KT 15/11 RMK AO1 SLP265 T01510106 58015,CWIS,2022-10-24T19:00:00Z,47.28,-70.63,15.1,10.6,210,4,,,,1026.5,,TRUE,TRUE,,,,,,,,,,,,,,,,-1.5,,,,,,,,,,,METAR,720.0
CWIP 241900Z AUTO 15002KT 11/07 RMK AO1 T01080066,CWIP,2022-10-24T19:00:00Z,50.17,-66.43,10.8,6.6,150,2,,,,,,TRUE,TRUE,,,,,,,,,,,,,,,,,,,,,,,,,,,METAR,27.0
CWIK 241900Z AUTO 32001KT M02/M03 RMK AO1 SLP011 T10231033 50000,CWIK,2022-10-24T19:00:00Z,50.37,-102.58,-2.3,-3.3,320,1,,,,1001.1,,TRUE,TRUE,,,,,,,,,,,,,,,,0.0,,,,,,,,,,,SPECI,597.0
CWIJ 241900Z AUTO 21002KT M09/M12 RMK AO1 SOG 06 8007 SLP155 T10851120,CWIJ,2022-10-24T19:00:00Z,65.77,-111.23,-8.5,-12.0,210,2,,,,1015.5,,TRUE,TRUE,,,,,,,,,,,,,,,,,,,,,,,,,,,METAR,490.0
CWIG 241900Z AUTO 36003KT RMK AO1,CWIG,2022-10-24T19:00:00Z,47.07,-70.53,,,360,3,,,,,,TRUE,TRUE,,,,,,,,,,,,,,,,,,,,,,,,,,,METAR,12.0
CWID 241900Z AUTO 03001KT M01/M02 RMK AO1 SLP100 T10111021 57006,CWID,2022-10-24T19:00:00Z,61.32,-117.6,-1.1,-2.1,30,1,,,,1010.0,,TRUE,TRUE,,,,,,,,,,,,,,,,-0.6,,,,,,,,,,,METAR,160.0
CWHV 241900Z AUTO 13005KT 14/14 RMK AO1 2PAST HR 7019 SLP250 P0001 T01420137 50002,CWHV,2022-10-24T19:00:00Z,46.2,-70.78,14.2,13.7,130,5,,,,1025.0,,TRUE,TRUE,,,,,,,,,,,,,,,,0.2,,,,,0.01,,,,,,METAR,227.0
CWHT 241900Z AUTO 32008G15KT M03/M09 RMK AO1 SLP104 T10271088 51002,CWHT,2022-10-24T19:00:00Z,60.77,-137.58,-2.7,-8.8,320,8,15,,,1010.4,,TRUE,TRUE,,,,,,,,,,,,,,,,0.2,,,,,,,,,,,METAR,601.0
CWHQ 241900Z AUTO 11005KT 18/09 RMK AO1 T01800088,CWHQ,2022-10-24T19:00:00Z,46.68,-71.97,18.0,8.8,110,5,,,,,,TRUE,TRUE,,,,,,,,,,,,,,,,,,,,,,,,,,,METAR,56.0
CWHP 241900Z AUTO 18007KT 09/08 RMK AO1 SLP262 T00920082 56016,CWHP,2022-10-24T19:00:00Z,49.08,-61.7,9.2,8.2,180,7,,,,1026.2,,TRUE,TRUE,,,,,,,,,,,,,,,,-1.6,,,,,,,,,,,METAR,7.0
CWHO 241900Z AUTO 00035KT 06/M03 RMK AO1 SLP254 T00611026 53003,CWHO,2022-10-24T19:00:00Z,55.45,-60.22,6.1,-2.6,0,35,,,,1025.4,,TRUE,TRUE,,,,,,,,,,,,,,,,0.3,,,,,,,,,,,METAR,16.0
CWHL 241900Z AUTO 30015KT 10/05 RMK AO1 PK WND 30021/1808 SLP068 T01030054 51034,CWHL,2022-10-24T19:00:00Z,54.17,-130.35,10.3,5.4,300,15,,,,1006.8,,TRUE,TRUE,,,,,,,,,,,,,,,,3.4,,,,,,,,,,,METAR,5.0
CWHI 241900Z AUTO 21002KT 01/01 RMK AO1 T00110005,CWHI,2022-10-24T19:00:00Z,51.7,-113.22,1.1,0.5,210,2,,,,,,TRUE,TRUE,,,,,,,,,,,,,,,,,,,,,,,,,,,METAR,906.0
CWGY 241900Z AUTO 15011KT 03/M03 RMK AO1 SLP079 T00281034 56028,CWGY,2022-10-24T19:00:00Z,51.67,-110.2,2.8,-3.4,150,11,,,,1007.9,,TRUE,TRUE,,,,,,,,,,,,,,,,-2.8,,,,,,,,,,,METAR,709.0
CWGW 241900Z AUTO 17009G15KT 01/M01 RMK AO1 1PAST HR 8013 PK WND 16018/1833 SLP109 P0000 T00121008 50001,CWGW,2022-10-24T19:00:00Z,49.75,-114.9,1.2,-0.8,170,9,15,,,1010.9,,TRUE,TRUE,,,,,,,,,,,,,,,,0.1,,,,,0.005,,,,,,METAR,1137.0
CWGT 241900Z AUTO 12015KT 11/08 RMK AO1 PK WND 12020/1820 SLP117 T01080079 51007,CWGT,2022-10-24T19:00:00Z,49.48,-124.43,10.8,7.9,120,15,,,,1011.7,,TRUE,TRUE,,,,,,,,,,,,,,,,0.7,,,,,,,,,,,METAR,5.0
CWGR 241900Z AUTO 33003KT 15/11 RMK AO1 SLP272 T01460107 56008,CWGR,2022-10-24T19:00:00Z,47.42,-61.77,14.6,10.7,330,3,,,,1027.2,,TRUE,TRUE,,,,,,,,,,,,,,,,-0.8,,,,,,,,,,,METAR,4.0
CWGM 241900Z AUTO 23019G32KT 03/M05 RMK AO1 SOG 17 8011 PK WND 25032/1858 SLP074 T00331053,CWGM,2022-10-24T19:00:00Z,49.13,-113.8,3.3,-5.3,230,19,32,,,1007.4,,TRUE,TRUE,,,,,,,,,,,,,,,,,,,,,,,,,,,METAR,1292.0
CWGL 241900Z AUTO 17010KT 17/08 RMK AO1 SLP186 T01740081 56022,CWGL,2022-10-24T19:00:00Z,44.53,-79.22,17.4,8.1,170,10,,,,1018.6,,TRUE,TRUE,,,,,,,,,,,,,,,,-2.2,,,,,,,,,,,METAR,220.0
CWGH 241900Z AUTO 03002KT 22/04 RMK AO1 SLP209 T02170043 56025,CWGH,2022-10-24T19:00:00Z,44.42,-75.85,21.7,4.3,30,2,,,,1020.9,,TRUE,TRUE,,,,,,,,,,,,,,,,-2.5,,,,,,,,,,,METAR,76.0
CWGD 241900Z AUTO 17013KT 23/08 RMK AO1 PK WND 15019/1811 SLP171 T02320081 56024,CWGD,2022-10-24T19:00:00Z,43.77,-81.72,23.2,8.1,170,13,,,,1017.1,,TRUE,TRUE,,,,,,,,,,,,,,,,-2.4,,,,,,,,,,,METAR,214.0
CWGB 241900Z AUTO 10012KT 10/ RMK AO1 SLP114 T0102 51009,CWGB,2022-10-24T19:00:00Z,49.35,-124.13,10.2,,100,12,,,,1011.4,,TRUE,TRUE,,,,,,,,,,,,,,,,0.9,,,,,,,,,,,METAR,6.0
CWFQ 241900Z AUTO 03001KT 17/14 RMK AO1 SLP226 T01740135 58015,CWFQ,2022-10-24T19:00:00Z,45.03,-72.85,17.4,13.5,30,1,,,,1022.6,,TRUE,TRUE,,,,,,,,,,,,,,,,-1.5,,,,,,,,,,,METAR,190.0
CWFJ 241900Z AUTO 26013G20KT 05/M04 RMK AO1 PK WND 25020/1853 T00481041,CWFJ,2022-10-24T19:00:00Z,49.2,-113.27,4.8,-4.1,260,13,20,,,,,TRUE,TRUE,,,,,,,,,,,,,,,,,,,,,,,,,,,METAR,1142.0
CWFF 241900Z AUTO 36010G15KT M01/M04 RMK AO1 SLP059 T10101037 58020,CWFF,2022-10-24T19:00:00Z,52.82,-104.6,-1.0,-3.7,360,10,15,,,1005.9,,TRUE,TRUE,,,,,,,,,,,,,,,,-2.0,,,,,,,,,,,METAR,482.0
CWEZ 241900Z AUTO 24008KT 14/09 RMK AO1 PK WND 22018/1812 SLP121 T01420094 52014,CWEZ,2022-10-24T19:00:00Z,48.78,-123.05,14.2,9.4,240,8,,,,1012.1,,TRUE,TRUE,,,,,,,,,,,,,,,,1.4,,,,,,,,,,,METAR,23.0
CWEW 241900Z AUTO 08006KT 20/10 RMK AO1 SLP229 T02000104 56029,CWEW,2022-10-24T19:00:00Z,45.82,-73.43,20.0,10.4,80,6,,,,1022.9,,TRUE,TRUE,,,,,,,,,,,,,,,,-2.9,,,,,,,,,,,METAR,17.0
CWEU 241900Z 35008KT 15SM IC FEW090 FEW180 M21/M25 A2994 RMK AC1AC1 SLP155,CWEU,2022-10-24T19:00:00Z,80.0,-85.93,-21.0,-25.0,350,8,,15.0,29.940945,1015.5,,,,,,,,,IC,FEW,9000,FEW,18000,,,,,VFR,,,,,,,,,,,,METAR,2.0
CWER 241900Z AUTO 06003KT RMK AO1,CWER,2022-10-24T19:00:00Z,47.0,-70.82,,,60,3,,,,,,TRUE,TRUE,,,,,,,,,,,,,,,,,,,,,,,,,,,METAR,4.0
CWEQ 241900Z AUTO 33004KT M00/M02 RMK AO1 SLP984 T10021015 58015,CWEQ,2022-10-24T19:00:00Z,52.12,-101.22,-0.2,-1.5,330,4,,,,998.4,,TRUE,TRUE,,,,,,,,,,,,,,,,-1.5,,,,,,,,,,,METAR,331.0
CWEP 241900Z AUTO 19007KT 16/10 RMK AO1 SLP278 T01570095 55011,CWEP,2022-10-24T19:00:00Z,46.45,-61.98,15.7,9.5,190,7,,,,1027.8,,TRUE,TRUE,,,,,,,,,,,,,,,,-1.1,,,,,,,,,,,METAR,9.0
CWEL 241900Z AUTO 09011KT 10/08 RMK AO1 SLP117 T01020076 51010,CWEL,2022-10-24T19:00:00Z,49.22,-123.8,10.2,7.6,90,11,,,,1011.7,,TRUE,TRUE,,,,,,,,,,,,,,,,1.0,,,,,,,,,,,METAR,0.0
CWEK 241900Z AUTO 24006KT 10/ RMK AO1 SLP042 T0095 51037,CWEK,2022-10-24T19:00:00Z,54.58,-130.7,9.5,,240,6,,,,1004.2,,TRUE,TRUE,,,,,,,,,,,,,,,,3.7,,,,,,,,,,,METAR,8.0
CWEH 241900Z AUTO 24010KT M03/M05 RMK AO1 SOG 02 8025 SLP086 T10341046,CWEH,2022-10-24T19:00:00Z,49.43,-108.98,-3.4,-4.6,240,10,,,,1008.6,,TRUE,TRUE,,,,,,,,,,,,,,,,,,,,,,,,,,,METAR,1077.0
CWEF 241900Z AUTO 16012KT 13/10 RMK AO1 SLP272 T01330104 56007,CWEF,2022-10-24T19:00:00Z,47.22,-60.13,13.3,10.4,160,12,,,,1027.2,,TRUE,TRUE,,,,,,,,,,,,,,,,-0.7,,,,,,,,,,,METAR,27.0
CWEE 241900Z AUTO 19/07 RMK AO1 SLP215 T01930074 56025,CWEE,2022-10-24T19:00:00Z,49.27,-73.35,19.3,7.4,,,,,,1021.5,,TRUE,TRUE,,,,,,,,,,,,,,,,-2.5,,,,,,,,,,,METAR,302.0
CWEB 241900Z AUTO 00031KT 10/09 RMK AO1 SLP137 T01040086 52021,CWEB,2022-10-24T19:00:00Z,49.38,-126.55,10.4,8.6,0,31,,,,1013.7,,TRUE,TRUE,,,,,,,,,,,,,,,,2.1,,,,,,,,,,,METAR,1.0
CWDZ 241900Z AUTO 15003KT 02/M02 RMK AO1 SLP056 T00211016 58023,CWDZ,2022-10-24T19:00:00Z,51.43,-112.67,2.1,-1.6,150,3,,,,1005.6,,TRUE,TRUE,,,,,,,,,,,,,,,,-2.3,,,,,,,,,,,METAR,689.0
CWDV 241900Z AUTO 17008G21KT 16/15 RMK AO1 PK WND 17021/1851 SLP979 T01580146 58010,CWDV,2022-10-24T19:00:00Z,49.02,-90.47,15.8,14.6,170,8,21,,,997.9,,TRUE,TRUE,,,,,,,,,,,,,,,,-1.0,,,,,,,,,,,METAR,487.0
CWDT 241900Z AUTO 13003KT RMK AO1 58019,CWDT,2022-10-24T19:00:00Z,49.83,-71.17,,,130,3,,,,,,TRUE,TRUE,,,,,,,,,,,,,,,,-1.9,,,,,,,,,,,METAR,389.0
CWDQ 241900Z AUTO 19004KT 20/07 RMK AO1 SOG 01 6031 SLP235 T02020067,CWDQ,2022-10-24T19:00:00Z,47.42,-72.78,20.2,6.7,190,4,,,,1023.5,,TRUE,TRUE,,,,,,,,,,,,,,,,,,,,,,,,,,,METAR,174.0
CWDO 241900Z AUTO 24003KT 10/04 RMK AO1 SLP266 T01030043 56004,CWDO,2022-10-24T19:00:00Z,49.68,-54.78,10.3,4.3,240,3,,,,1026.6,,TRUE,TRUE,,,,,,,,,,,,,,,,-0.4,,,,,,,,,,,METAR,89.0
CWDM 241900Z AUTO 10002KT 10/05 RMK AO1 SLP267 T01000047 56017,CWDM,2022-10-24T19:00:00Z,50.47,-59.63,10.0,4.7,100,2,,,,1026.7,,TRUE,TRUE,,,,,,,,,,,,,,,,-1.7,,,,,,,,,,,METAR,2.0
CWDK 241900Z AUTO 24015G21KT 05/M03 RMK AO1 SOG 10 7010 PK WND 25029/1816 SLP071 T00491031,CWDK,2022-10-24T19:00:00Z,50.02,-113.62,4.9,-3.1,240,15,21,,,1007.1,,TRUE,TRUE,,,,,,,,,,,,,,,,,,,,,,,,,,,METAR,1014.0
CWDJ 241900Z AUTO 33020G25KT M01/M02 RMK AO1 SOG 02 8006 PK WND 34028/1801 SLP056 T10091015,CWDJ,2022-10-24T19:00:00Z,50.4,-104.58,-0.9,-1.5,330,20,25,,,1005.6,,TRUE,TRUE,,,,,,,,,,,,,,,,,,,,,,,,,,,METAR,576.0
CWDC 241900Z AUTO 13006KT 01/M02 RMK AO1 SLP116 T00121017 58020,CWDC,2022-10-24T19:00:00Z,59.57,-108.48,1.2,-1.7,130,6,,,,1011.6,,TRUE,TRUE,,,,,,,,,,,,,,,,-2.0,,,,,,,,,,,METAR,311.0
CWDA 241900Z AUTO 33003KT 12/ RMK AO1 T0119,CWDA,2022-10-24T19:00:00Z,50.72,-56.12,11.9,,330,3,,,,,,TRUE,TRUE,,,,,,,,,,,,,,,,,,,,,,,,,,,METAR,30.0
CWCT 241900Z AUTO 16013KT 03/M03 RMK AO1 PK WND 16019/1824 SLP070 T00271029 58024,CWCT,2022-10-24T19:00:00Z,52.07,-111.43,2.7,-2.9,160,13,,,,1007.0,,TRUE,TRUE,,,,,,,,,,,,,,,,-2.4,,,,,,,,,,,METAR,793.0
CWCO 241900Z AUTO 15005KT 23/07 RMK AO1 SLP183 T02330072 56022,CWCO,2022-10-24T19:00:00Z,44.5,-80.22,23.3,7.2,150,5,,,,1018.3,,TRUE,TRUE,,,,,,,,,,,,,,,,-2.2,,,,,,,,,,,METAR,182.0
CWCJ 241900Z AUTO 18009G21KT 18/12 RMK AO1 PK WND 17025/1845 SLP058 T01750122 58016,CWCJ,2022-10-24T19:00:00Z,48.6,-86.28,17.5,12.2,180,9,21,,,1005.8,,TRUE,TRUE,,,,,,,,,,,,,,,,-1.6,,,,,,,,,,,METAR,207.0
CWCF 241900Z AUTO 36006KT 04/03 RMK AO1 SLP860 T00410033 56042,CWCF,2022-10-24T19:00:00Z,52.35,-97.03,4.1,3.3,360,6,,,,986.0,,TRUE,TRUE,,,,,,,,,,,,,,,,-4.2,,,,,,,,,,,METAR,219.0
CWBZ 241900Z AUTO 07007KT 21/13 RMK AO1 SLP209 T02070130 56029,CWBZ,2022-10-24T19:00:00Z,45.12,-74.28,20.7,13.0,70,7,,,,1020.9,,TRUE,TRUE,,,,,,,,,,,,,,,,-2.9,,,,,,,,,,,METAR,49.0
CWBY 241900Z AUTO 16003KT 13/08 RMK AO1 SLP264 T01320082 55012,CWBY,2022-10-24T19:00:00Z,49.83,-64.28,13.2,8.2,160,3,,,,1026.4,,TRUE,TRUE,,,,,,,,,,,,,,,,-1.2,,,,,,,,,,,METAR,56.0
CWBV 241900Z AUTO 05004KT 15/12 RMK AO1 SLP270 T01500124 56008,CWBV,2022-10-24T19:00:00Z,44.82,-62.33,15.0,12.4,50,4,,,,1027.0,,TRUE,TRUE,,,,,,,,,,,,,,,,-0.8,,,,,,,,,,,METAR,16.0
CWBU 241900Z AUTO 36015KT M01/M02 RMK AO1 6PAST HR SOG 12 6024 PK WND 00021/1849 SLP053 P0006 T10091020 50016,CWBU,2022-10-24T19:00:00Z,53.33,-104.02,-0.9,-2.0,360,15,,,,1005.3,,TRUE,TRUE,,,,,,,,,,,,,,,,1.6,,,,,0.06,,,,,,SPECI,369.0
CWBT 241900Z AUTO 13001KT 11/06 RMK AO1 SLP264 T01100062 56014,CWBT,2022-10-24T19:00:00Z,50.27,-64.23,11.0,6.2,130,1,,,,1026.4,,TRUE,TRUE,,,,,,,,,,,,,,,,-1.4,,,,,,,,,,,METAR,12.0
CWBS 241900Z AUTO 07012KT 16/10 RMK AO1 T01610104,CWBS,2022-10-24T19:00:00Z,46.18,-72.92,16.1,10.4,70,12,,,,,,TRUE,TRUE,,,,,,,,,,,,,,,,,,,,,,,,,,,METAR,3.0
CWBO 241900Z AUTO 21004KT 06/01 RMK AO1 SLP049 T00550013 57031,CWBO,2022-10-24T19:00:00Z,50.53,-111.83,5.5,1.3,210,4,,,,1004.9,,TRUE,TRUE,,,,,,,,,,,,,,,,-3.1,,,,,,,,,,,METAR,752.0
CWBK 241900Z AUTO 13005KT 16/14 RMK AO1 SLP278 T01610135 56010,CWBK,2022-10-24T19:00:00Z,45.77,-62.67,16.1,13.5,130,5,,,,1027.8,,TRUE,TRUE,,,,,,,,,,,,,,,,-1.0,,,,,,,,,,,METAR,2.0
CWBA 241900Z AUTO 16008KT 20/08 RMK AO1 T02030079,CWBA,2022-10-24T19:00:00Z,46.72,-79.1,20.3,7.9,160,8,,,,,,TRUE,TRUE,,,,,,,,,,,,,,,,,,,,,,,,,,,METAR,181.0
CWAV 241900Z AUTO 21001KT 02/M02 RMK AO1 SLP054 T00201016 56017,CWAV,2022-10-24T19:00:00Z,51.77,-114.67,2.0,-1.6,210,1,,,,1005.4,,TRUE,TRUE,,,,,,,,,,,,,,,,-1.7,,,,,,,,,,,METAR,1115.0
CWAR 241900Z AUTO 16006KT 13/10 RMK AO1 SLP279 T01310096 55002,CWAR,2022-10-24T19:00:00Z,47.28,-54.0,13.1,9.6,160,6,,,,1027.9,,TRUE,TRUE,,,,,,,,,,,,,,,,-0.2,,,,,,,,,,,METAR,6.0
CWAQ 241900Z AUTO 30022G28KT M01/M02 RMK AO1 SOG 02 0001 PK WND 30029/1840 SLP077 T10061021,CWAQ,2022-10-24T19:00:00Z,49.05,-105.48,-0.6,-2.1,300,22,28,,,1007.7,,TRUE,TRUE,,,,,,,,,,,,,,,,,,,,,,,,,,,METAR,761.0
CWAJ 241900Z AUTO 07007KT RMK AO1 57021,CWAJ,2022-10-24T19:00:00Z,42.25,-81.9,,,70,7,,,,,,TRUE,TRUE,,,,,,,,,,,,,,,,-2.1,,,,,,,,,,,METAR,177.0
CWAF 241900Z AUTO 03002KT 06/04 RMK AO1 T00630035,CWAF,2022-10-24T19:00:00Z,48.07,-69.55,6.3,3.5,30,2,,,,,,TRUE,TRUE,,,,,,,,,,,,,,,,,,,,,,,,,,,METAR,6.0
CWAE 241900Z 00000KT 15SM OVC006 02/01 A2983 RMK ST8 WIND ESTD SLP118,CWAE,2022-10-24T19:00:00Z,50.13,-122.95,2.0,1.0,0,0,,15.0,29.828741,1011.8,,,,,,,,,,OVC,600,,,,,,,IFR,,,,,,,,,,,,METAR,658.0
CTRA 241900Z AUTO 23009G23KT 14/09 RMK AO1 PK WND 18027/1818 SLP911 T01350089 55002,CTRA,2022-10-24T19:00:00Z,49.67,-93.73,13.5,8.9,230,9,23,,,991.1,,TRUE,TRUE,,,,,,,,,,,,,,,,-0.2,,,,,,,,,,,METAR,432.0
CTNK 241900Z AUTO 16003KT 21/02 RMK AO1 SLP209 T02110015 56022,CTNK,2022-10-24T19:00:00Z,45.53,-78.27,21.1,1.5,160,3,,,,1020.9,,TRUE,TRUE,,,,,,,,,,,,,,,,-2.2,,,,,,,,,,,METAR,405.0
CTCK 241900Z AUTO 09005KT 21/09 RMK AO1 SLP210 T02110087 56025,CTCK,2022-10-24T19:00:00Z,45.25,-74.97,21.1,8.7,90,5,,,,1021.0,,TRUE,TRUE,,,,,,,,,,,,,,,,-2.5,,,,,,,,,,,METAR,84.0
CPSV 241900Z AUTO 20019KT 04/01 RMK AO1 PK WND 20024/1828 T00420006,CPSV,2022-10-24T19:00:00Z,49.92,-110.92,4.2,0.6,200,19,,,,,,TRUE,TRUE,,,,,,,,,,,,,,,,,,,,,,,,,,,METAR,766.0
CPST 241900Z AUTO 23005KT 01/M01 RMK AO1 T00141010,CPST,2022-10-24T19:00:00Z,51.03,-113.28,1.4,-1.0,230,5,,,,,,TRUE,TRUE,,,,,,,,,,,,,,,,,,,,,,,,,,,METAR,1005.0
CPRY 241900Z AUTO 25010KT 04/M01 RMK AO1 PK WND 25022/1827 T00381012,CPRY,2022-10-24T19:00:00Z,49.48,-112.68,3.8,-1.2,250,10,,,,,,TRUE,TRUE,,,,,,,,,,,,,,,,,,,,,,,,,,,METAR,947.0
CPRO 241900Z AUTO 12001KT 02/01 RMK AO1 T00150012,CPRO,2022-10-24T19:00:00Z,50.83,-112.05,1.5,1.2,120,1,,,,,,TRUE,TRUE,,,,,,,,,,,,,,,,,,,,,,,,,,,METAR,733.0
CPIR 241900Z AUTO 25021KT 07/M00 RMK AO1 PK WND 25026/1815 T00661003,CPIR,2022-10-24T19:00:00Z,49.9,-112.73,6.6,-0.3,250,21,,,,,,TRUE,TRUE,,,,,,,,,,,,,,,,,,,,,,,,,,,METAR,895.0
CPFI 241900Z AUTO 25015KT 08/01 RMK AO1 PK WND 24021/1827 T00800008,CPFI,2022-10-24T19:00:00Z,49.8,-112.03,8.0,0.8,250,15,,,,,,TRUE,TRUE,,,,,,,,,,,,,,,,,,,,,,,,,,,METAR,804.0
CPEH 241900Z AUTO 00000KT 06/M01 RMK AO1 T00641006,CPEH,2022-10-24T19:00:00Z,50.18,-112.43,6.4,-0.6,0,0,,,,,,TRUE,TRUE,,,,,,,,,,,,,,,,,,,,,,,,,,,METAR,814.0
CPBT 241900Z AUTO 28015KT 04/M02 RMK AO1 PK WND 26020/1817 T00361018,CPBT,2022-10-24T19:00:00Z,49.53,-113.05,3.6,-1.8,280,15,,,,,,TRUE,TRUE,,,,,,,,,,,,,,,,,,,,,,,,,,,METAR,998.0
CMGB 241900Z AUTO 02003KT 20/14 RMK AO1 SLP226 T02020136 58022,CMGB,2022-10-24T19:00:00Z,45.37,-72.77,20.2,13.6,20,3,,,,1022.6,,TRUE,TRUE,,,,,,,,,,,,,,,,-2.2,,,,,,,,,,,SPECI,87.0
CMFM 241900Z AUTO 16003KT 16/11 RMK AO1 SLP260 T01610111 58018,CMFM,2022-10-24T19:00:00Z,47.32,-71.15,16.1,11.1,160,3,,,,1026.0,,TRUE,TRUE,,,,,,,,,,,,,,,,-1.8,,,,,,,,,,,SPECI,663.0
CFOX 241900Z AUTO ///// ////SM OVC036 M08/M11 A2990,CFOX,2022-10-24T19:00:00Z,,,-8.0,-11.0,,,,,29.899607,,,TRUE,,,,,,,,OVC,3600,,,,,,,,,,,,,,,,,,,METAR,
CERM 241900Z AUTO 12003KT 13/11 RMK AO1 SLP271 T01270111 56009,CERM,2022-10-24T19:00:00Z,47.42,-68.32,12.7,11.1,120,3,,,,1027.1,,TRUE,TRUE,,,,,,,,,,,,,,,,-0.9,,,,,,,,,,,METAR,151.0
CAHR 241900Z AUTO 17004KT 18/10 RMK AO1 SLP273 T01790104 56011,CAHR,2022-10-24T19:00:00Z,46.35,-63.17,17.9,10.4,170,4,,,,1027.3,,TRUE,TRUE,,,,,,,,,,,,,,,,-1.1,,,,,,,,,,,METAR,52.0
BIRK 241900Z 09007KT 9999 -SHRA OVC050 07/02 Q0999,BIRK,2022-10-24T19:00:00Z,64.13,-21.93,7.0,2.0,90,7,,6.21,29.498032,,,,,,,,,,-SHRA,OVC,5000,,,,,,,VFR,,,,,,,,,,,,METAR,12.0
BIHN 241900Z 02009KT 9999 FEW017 FEW028 BKN060 06/02 Q1002,BIHN,2022-10-24T19:00:00Z,64.3,-15.23,6.0,2.0,20,9,,6.21,29.586615,,,,,,,,,,,FEW,1700,FEW,2800,BKN,6000,,,VFR,,,,,,,,,,,,METAR,8.0
BIEG 241900Z 36007KT 9999 FEW030 SCT060 02/01 Q1003,BIEG,2022-10-24T19:00:00Z,65.27,-14.4,2.0,1.0,360,7,,6.21,29.616142,,,,,,,,,,,FEW,3000,SCT,6000,,,,,VFR,,,,,,,,,,,,METAR,20.0
BIAR 241900Z VRB02KT CAVOK M02/M04 Q1002,BIAR,2022-10-24T19:00:00Z,65.67,-18.07,-2.0,-4.0,0,2,,6.21,29.586615,,,,,,,,,,,CAVOK,,,,,,,,VFR,,,,,,,,,,,,METAR,1.0
AZUH 241900Z 00000KT CAVOK 09/06 Q1020,AZUH,2022-10-24T19:00:00Z,39.18,45.45,9.0,6.0,0,0,,6.21,30.11811,,,,,,,,,,,CAVOK,,,,,,,,VFR,,,,,,,,,,,,METAR,863.0
AYPY 241900Z VRB03KT 9999 FEW040 25/23 Q1008,AYPY,2022-10-24T19:00:00Z,-9.43,147.22,25.0,23.0,0,3,,6.21,29.763779,,,,,,,,,,,FEW,4000,,,,,,,VFR,,,,,,,,,,,,METAR,44.0
AYMH 241900Z 00000KT 9999 FG BKN020 16/16 Q1020,AYMH,2022-10-24T19:00:00Z,-5.83,144.3,16.0,16.0,0,0,,6.21,30.11811,,,,,,,,,,FG,BKN,2000,,,,,,,MVFR,,,,,,,,,,,,METAR,1634.0
AGGH 241900Z 16003KT 9999 FEW014 23/23 Q1008,AGGH,2022-10-24T19:00:00Z,-9.42,160.05,23.0,23.0,160,3,,6.21,29.763779,,,,,,,,,,,FEW,1400,,,,,,,VFR,,,,,,,,,,,,METAR,6.0
KNOZ 241859Z AUTO 36010G21KT 10SM CLR 22/M05 A3016 RMK AO2 SLP164 T02171050,KNOZ,2022-10-24T18:59:00Z,32.53,-114.5,21.7,-5.0,360,10,21,10.0,30.159449,1016.4,,TRUE,TRUE,,,,,,,CLR,,,,,,,,VFR,,,,,,,,,,,,METAR,78.0
PHSF 241858Z AUTO 25005KT 10SM CLR 18/07 A3036 RMK AO2 SLP168 T01760074 $,PHSF,2022-10-24T18:58:00Z,19.77,-155.55,17.6,7.4,250,5,,10.0,30.360237,1016.8,,TRUE,TRUE,TRUE,,,,,,CLR,,,,,,,,VFR,,,,,,,,,,,,METAR,1863.0
PADG 241858Z 13012KT 2SM -SN BR SCT006 BKN010 BKN015 OVC020 M03/M03 A2976,PADG,2022-10-24T18:58:00Z,68.03,-162.9,-3.0,-3.0,130,12,,2.0,29.760826,,,,,,,,,,-SN BR,SCT,600,BKN,1000,BKN,1500,OVC,2000,IFR,,,,,,,,,,,,SPECI,296.0
KPRN 241858Z AUTO 11006KT 10SM FEW050 26/11 A3006 RMK AO2 SLP128 T02610111,KPRN,2022-10-24T18:58:00Z,31.85,-86.62,26.1,11.1,110,6,,10.0,30.059055,1012.8,,TRUE,TRUE,,,,,,,FEW,5000,,,,,,,VFR,,,,,,,,,,,,SPECI,137.0
KMRH 241858Z AUTO 34003KT 10SM OVC011 18/15 A3010 RMK AO2 SLP195 T01780150,KMRH,2022-10-24T18:58:00Z,34.73,-76.65,17.8,15.0,340,3,,10.0,30.100393,1019.5,,TRUE,TRUE,,,,,,,OVC,1100,,,,,,,MVFR,,,,,,,,,,,,SPECI,2.0
KMEI 241858Z 16012G18KT 10SM BKN043 27/17 A3001 RMK AO2 SLP158 T02720167,KMEI,2022-10-24T18:58:00Z,32.33,-88.75,27.2,16.7,160,12,18,10.0,30.008858,1015.8,,,TRUE,,,,,,,BKN,4300,,,,,,,VFR,,,,,,,,,,,,METAR,90.0
KILG 241858Z 03007KT 1 1/2SM R01/5500VP6000FT BR OVC007 16/14 A3012 RMK AO2 CIG 004V008 T01610144,KILG,2022-10-24T18:58:00Z,39.67,-75.6,16.1,14.4,30,7,,1.5,30.121063,,,,TRUE,,,,,,BR,OVC,700,,,,,,,IFR,,,,,,,,,,,,SPECI,22.0
KHUA 241858Z 18010KT 7SM SKC 26/06 A3005 RMK SLPNO RVRNO $,KHUA,2022-10-24T18:58:00Z,34.68,-86.68,26.0,6.0,180,10,,7.0,30.050198,,,,,TRUE,,,,,,SKC,,,,,,,,VFR,,,,,,,,,,,,METAR,200.0
KGOV 241858Z AUTO 17012G19KT 10SM SCT220 22/12 A2991 RMK AO2 SLP131 T02190116 $,KGOV,2022-10-24T18:58:00Z,44.68,-84.73,21.9,11.6,170,12,19,10.0,29.911417,1013.1,,TRUE,TRUE,TRUE,,,,,,SCT,22000,,,,,,,VFR,,,,,,,,,,,,METAR,350.0
KFEW 241858Z 30010G18KT 7SM SCT060 BKN200 06/M10 A2992 RMK SLPNO WND DATA ESTMD ALSTG ESTMD,KFEW,2022-10-24T18:58:00Z,41.13,-104.87,6.0,-10.0,300,10,18,7.0,29.920275,,,,,,,,,,,SCT,6000,BKN,20000,,,,,VFR,,,,,,,,,,,,METAR,1877.0
KEUF 241858Z AUTO 21006KT 10SM CLR 27/12 A3010 RMK AO2 SLP188 T02720117,KEUF,2022-10-24T18:58:00Z,31.95,-85.13,27.2,11.7,210,6,,10.0,30.100393,1018.8,,TRUE,TRUE,,,,,,,CLR,,,,,,,,VFR,,,,,,,,,,,,METAR,87.0
KCMY 241858Z AUTO 18009G20KT 9SM FEW036 OVC060 21/15 A2968 RMK AO2 SLP050 T02100149 $,KCMY,2022-10-24T18:58:00Z,43.97,-90.73,21.0,14.9,180,9,20,9.0,29.681103,1005.0,,TRUE,TRUE,TRUE,,,,,,FEW,3600,OVC,6000,,,,,VFR,,,,,,,,,,,,SPECI,253.0
KBKF 241858Z 01003KT 10SM FEW090 FEW220 08/M13 A2986 RMK AO2A SLP106 T00801130,KBKF,2022-10-24T18:58:00Z,39.72,-104.75,8.0,-13.0,10,3,,10.0,29.861221,1010.6,,,TRUE,,,,,,,FEW,9000,FEW,22000,,,,,VFR,,,,,,,,,,,,SPECI,1703.0
KBCR 241858Z AUTO 18005KT 10SM CLR 28/14 A3008 RMK AO2 SLP144 T02830139 $,KBCR,2022-10-24T18:58:00Z,30.85,-85.6,28.3,13.9,180,5,,10.0,30.079725,1014.4,,TRUE,TRUE,TRUE,,,,,,CLR,,,,,,,,VFR,,,,,,,,,,,,SPECI,26.0
K0J4 241858Z AUTO 10SM CLR 28/10 A3008 RMK AO2 SLP185 T02780100,K0J4,2022-10-24T18:58:00Z,31.05,-86.32,27.8,10.0,,,,10.0,30.079725,1018.5,,TRUE,TRUE,,,,,,,CLR,,,,,,,,VFR,,,,,,,,,,,,SPECI,96.0
PHNG 241857Z 07011G20KT 10SM SCT025 A3003 RMK AO2 SLP166 $,PHNG,2022-10-24T18:57:00Z,21.43,-157.77,,,70,11,20,10.0,30.029528,1016.6,,,TRUE,TRUE,,,,,,SCT,2500,,,,,,,VFR,,,,,,,,,,,,SPECI,1.0
KNYL 241857Z 36013G19KT 7SM CLR 22/M04 A3016 RMK AO2 SLP209 T02171044,KNYL,2022-10-24T18:57:00Z,32.65,-114.62,21.7,-4.4,360,13,19,7.0,30.159449,1020.9,,,TRUE,,,,,,,CLR,,,,,,,,VFR,,,,,,,,,,,,METAR,58.0
KNJW 241857Z AUTO 14007G17KT 10SM BKN044 26/15 A3003 RMK AO2 SLP082 T02610150,KNJW,2022-10-24T18:57:00Z,32.78,-88.82,26.1,15.0,140,7,17,10.0,30.029528,1008.2,,TRUE,TRUE,,,,,,,BKN,4400,,,,,,,VFR,,,,,,,,,,,,METAR,165.0
KNJM 241857Z AUTO 01006KT 9SM CLR 23/15 A3010 RMK AO2 SLP197 T02330150,KNJM,2022-10-24T18:57:00Z,34.68,-77.02,23.3,15.0,10,6,,9.0,30.100393,1019.7,,TRUE,TRUE,,,,,,,CLR,,,,,,,,VFR,,,,,,,,,,,,METAR,5.0
KMYL 241857Z AUTO 18012G16KT 2SM -SN BKN026 OVC035 02/M05 A3005 RMK AO2 P0000 T00221050,KMYL,2022-10-24T18:57:00Z,44.9,-116.1,2.2,-5.0,180,12,16,2.0,30.050198,,,TRUE,TRUE,,,,,,-SN,BKN,2600,OVC,3500,,,,,IFR,,,,,,0.005,,,,,,METAR,1532.0
KFLG 241857Z 06011KT 10SM CLR 06/M13 A3016 RMK AO2 SLP191 T00611128,KFLG,2022-10-24T18:57:00Z,35.13,-111.67,6.1,-12.8,60,11,,10.0,30.159449,1019.1,,,TRUE,,,,,,,CLR,,,,,,,,VFR,,,,,,,,,,,,SPECI,2134.0
KAQV 241857Z AUTO 10SM SCT045 BKN065 OVC080 28/17 A2986 RMK AO2 SLP107 T02830167,KAQV,2022-10-24T18:57:00Z,31.4,-93.3,28.3,16.7,,,,10.0,29.861221,1010.7,,TRUE,TRUE,,,,,,,SCT,4500,BKN,6500,OVC,8000,,,VFR,,,,,,,,,,,,METAR,123.0
TJSJ 241856Z 07013KT 10SM FEW035 SCT060 BKN110 31/25 A2989 RMK AO2 SLP120 T03110250,TJSJ,2022-10-24T18:56:00Z,18.43,-66.02,31.1,25.0,70,13,,10.0,29.890747,1012.0,,,TRUE,,,,,,,FEW,3500,SCT,6000,BKN,11000,,,VFR,,,,,,,,,,,,SPECI,3.0
ROTM 241856Z 01011G19KT 9999 SCT040 SCT150 19/14 A3001 RMK SLP163 T01940142,ROTM,2022-10-24T18:56:00Z,26.27,127.75,19.4,14.2,10,11,19,6.21,30.008858,1016.3,,,,,,,,,,SCT,4000,SCT,15000,,,,,VFR,,,,,,,,,,,,METAR,80.0
RJOI 241856Z 30009KT 9999 FEW035 SCT060 BKN100 11/05 A3009 RMK AO2 SLP187 T01110050,RJOI,2022-10-24T18:56:00Z,34.13,132.23,11.1,5.0,300,9,,6.21,30.088583,1018.7,,,TRUE,,,,,,,FEW,3500,SCT,6000,BKN,10000,,,VFR,,,,,,,,,,,,METAR,2.0
PPIZ 241856Z AUTO 11007KT 10SM FEW045 SCT050 M07/M08 A2978 RMK AO2 SLP089 T10671078 FZRANO,PPIZ,2022-10-24T18:56:00Z,69.73,-163.0,-6.7,-7.8,110,7,,10.0,29.778543,1008.9,,TRUE,TRUE,,,,TRUE,,,FEW,4500,SCT,5000,,,,,VFR,,,,,,,,,,,,SPECI,5.0
PMDY 241856Z AUTO 04014KT 10SM SCT020 SCT027 BKN110 23/19 A3019 RMK AO2 SLP223 T02330194 TSNO,PMDY,2022-10-24T18:56:00Z,28.22,-177.37,23.3,19.4,40,14,,10.0,30.188976,1022.3,,TRUE,TRUE,,,TRUE,,,,SCT,2000,SCT,2700,BKN,11000,,,VFR,,,,,,,,,,,,METAR,6.0
PHNY 241856Z AUTO VRB05KT 10SM SCT002 25/19 A3011 RMK AO2 SLP174 T02500189 $,PHNY,2022-10-24T18:56:00Z,20.77,-156.95,25.0,18.9,0,5,,10.0,30.109253,1017.4,,TRUE,TRUE,TRUE,,,,,,SCT,200,,,,,,,VFR,,,,,,,,,,,,METAR,395.0
PFYU 241856Z 00000KT 10SM SCT007 OVC030 M08/M09 A2999 RMK AO2 SLP172 T10781089,PFYU,2022-10-24T18:56:00Z,66.57,-145.23,-7.8,-8.9,0,0,,10.0,29.991142,1017.2,,,TRUE,,,,,,,SCT,700,OVC,3000,,,,,MVFR,,,,,,,,,,,,METAR,130.0
PFWS 241856Z AUTO 28005KT 10SM OVC070 02/01 A3001 RMK AO2 SLP207 T00220011 FZRANO,PFWS,2022-10-24T18:56:00Z,58.7,-157.0,2.2,1.1,280,5,,10.0,30.008858,1020.7,,TRUE,TRUE,,,,TRUE,,,OVC,7000,,,,,,,VFR,,,,,,,,,,,,METAR,40.0
PFSH 241856Z AUTO 16012KT 10SM UP BKN012 OVC036 00/M01 A2991 RMK AO2 UPB21 SLP129 P0000 T00001011 FZRANO,PFSH,2022-10-24T18:56:00Z,64.37,-161.22,0.0,-1.1,160,12,,10.0,29.911417,1012.9,,TRUE,TRUE,,,,TRUE,,UP,BKN,1200,OVC,3600,,,,,MVFR,,,,,,0.005,,,,,,METAR,6.0
PFKW 241856Z AUTO 26008KT 10SM CLR 00/M01 A3005 RMK AO2 SLP176 T00001006 FZRANO,PFKW,2022-10-24T18:56:00Z,60.8,-161.43,0.0,-0.6,260,8,,10.0,30.050198,1017.6,,TRUE,TRUE,,,,TRUE,,,CLR,,,,,,,,VFR,,,,,,,,,,,,METAR,4.0
PFKT 241856Z AUTO 08007KT 10SM OVC039 M01/M02 A2991 RMK AO2 SLP129 T10111022 FZRANO,PFKT,2022-10-24T18:56:00Z,65.33,-166.47,-1.1,-2.2,80,7,,10.0,29.911417,1012.9,,TRUE,TRUE,,,,TRUE,,,OVC,3900,,,,,,,VFR,,,,,,,,,,,,METAR,8.0
PFEL 241856Z AUTO 00000KT 10SM OVC070 00/M01 A2988 RMK AO2 SLP121 T00001006 FZRANO,PFEL,2022-10-24T18:56:00Z,64.62,-162.27,0.0,-0.6,0,0,,10.0,29.878937,1012.1,,TRUE,TRUE,,,,TRUE,,,OVC,7000,,,,,,,VFR,,,,,,,,,,,,METAR,50.0
PFCL 241856Z AUTO 27014G20KT 10SM CLR A3002 RMK AO2 SLPNO FZRANO TSNO $,PFCL,2022-10-24T18:56:00Z,58.83,-158.53,,,270,14,20,10.0,30.02067,,,TRUE,TRUE,TRUE,,TRUE,TRUE,,,CLR,,,,,,,,VFR,,,,,,,,,,,,METAR,23.0
PAZK 241856Z AUTO 04004KT 10SM CLR M11/M13 A2970 RMK AO2 SLP133 T11061133 FZRANO,PAZK,2022-10-24T18:56:00Z,61.93,-147.17,-10.6,-13.3,40,4,,10.0,29.698818,1013.3,,TRUE,TRUE,,,,TRUE,,,CLR,,,,,,,,VFR,,,,,,,,,,,,METAR,1002.0
PAWS 241856Z AUTO 00000KT 10SM CLR M05/M08 A2983 RMK AO2 SLP111 T10501078 FZRANO,PAWS,2022-10-24T18:56:00Z,61.57,-149.53,-5.0,-7.8,0,0,,10.0,29.828741,1011.1,,TRUE,TRUE,,,,TRUE,,,CLR,,,,,,,,VFR,,,,,,,,,,,,METAR,102.0
PAWM 241856Z AUTO 34007KT 10SM CLR M03/M03 A2991 RMK AO2 SLP135 T10281028 FZRANO PNO $,PAWM,2022-10-24T18:56:00Z,64.68,-163.42,-2.8,-2.8,340,7,,10.0,29.911417,1013.5,,TRUE,TRUE,TRUE,,,TRUE,,,CLR,,,,,,,,VFR,,,,,,,,,,,,METAR,80.0
PAWG 241856Z 09005KT 10SM FEW005 SCT045 BKN065 08/03 A2971 RMK AO2 SLP062 T00810031 $,PAWG,2022-10-24T18:56:00Z,56.48,-132.37,8.1,3.1,90,5,,10.0,29.71063,1006.2,,,TRUE,TRUE,,,,,,FEW,500,SCT,4500,BKN,6500,,,VFR,,,,,,,,,,,,METAR,6.0
PAVD 241856Z 03006KT 10SM FEW200 FEW300 A2983 RMK AO2 SLPNO 02/M07 PNO $,PAVD,2022-10-24T18:56:00Z,61.13,-146.25,,,30,6,,10.0,29.828741,,,,TRUE,TRUE,,,,,,FEW,20000,FEW,30000,,,,,VFR,,,,,,,,,,,,METAR,21.0
PAVC 241856Z AUTO 24009KT 10SM FEW015 OVC034 06/04 A3025 RMK AO2 SLP245 T00560039 PNO $,PAVC,2022-10-24T18:56:00Z,55.12,-162.27,5.6,3.9,240,9,,10.0,30.250984,1024.5,,TRUE,TRUE,TRUE,,,,,,FEW,1500,OVC,3400,,,,,VFR,,,,,,,,,,,,METAR,48.0
PAVA 241856Z AUTO 28006KT 10SM BKN034 OVC044 00/M01 A3004 RMK AO2 SLP176 T00001006 FZRANO,PAVA,2022-10-24T18:56:00Z,61.53,-165.6,0.0,-0.6,280,6,,10.0,30.041338,1017.6,,TRUE,TRUE,,,,TRUE,,,BKN,3400,OVC,4400,,,,,VFR,,,,,,,,,,,,METAR,14.0
PATQ 241856Z AUTO 10013KT 10SM CLR M12/M14 A2988 RMK AO2 SLP123 T11221139 FZRANO TSNO,PATQ,2022-10-24T18:56:00Z,70.47,-157.43,-12.2,-13.9,100,13,,10.0,29.878937,1012.3,,TRUE,TRUE,,,TRUE,TRUE,,,CLR,,,,,,,,VFR,,,,,,,,,,,,METAR,28.0
PATG 241856Z AUTO 29007G18KT 10SM CLR 02/M01 A3010 RMK AO2 PRESRR SLP193 T00171011 FZRANO,PATG,2022-10-24T18:56:00Z,59.05,-160.38,1.7,-1.1,290,7,18,10.0,30.100393,1019.3,,TRUE,TRUE,,,,TRUE,,,CLR,,,,,,,,VFR,,,,,,,,,,,,METAR,1.0
PATE 241856Z AUTO 14004KT 10SM OVC040 M02/M03 A2988 RMK AO2 SLP127 T10221028 FZRANO,PATE,2022-10-24T18:56:00Z,65.23,-166.33,-2.2,-2.8,140,4,,10.0,29.878937,1012.7,,TRUE,TRUE,,,,TRUE,,,OVC,4000,,,,,,,VFR,,,,,,,,,,,,METAR,93.0
PASX 241856Z AUTO 00000KT 10SM CLR M04/M05 A2988 RMK AO2 SLP125 T10441050 FZRANO,PASX,2022-10-24T18:56:00Z,60.48,-151.05,-4.4,-5.0,0,0,,10.0,29.878937,1012.5,,TRUE,TRUE,,,,TRUE,,,CLR,,,,,,,,VFR,,,,,,,,,,,,METAR,28.0
PASA 241856Z AUTO 23011KT 10SM OVC033 M02/M04 A2996 RMK AO2 SLP146 T10171044 FZRANO,PASA,2022-10-24T18:56:00Z,63.68,-170.5,-1.7,-4.4,230,11,,10.0,29.958662,1014.6,,TRUE,TRUE,,,,TRUE,,,OVC,3300,,,,,,,VFR,,,,,,,,,,,,METAR,9.0
PARY 241856Z AUTO 09009KT 10SM FEW110 M06/M07 A2992 RMK AO2 SLP147 T10611072 FZRANO,PARY,2022-10-24T18:56:00Z,64.73,-155.47,-6.1,-7.2,90,9,,10.0,29.920275,1014.7,,TRUE,TRUE,,,,TRUE,,,FEW,11000,,,,,,,VFR,,,,,,,,,,,,METAR,185.0
PARS 241856Z AUTO 27005KT 10SM OVC039 A3000 RMK AO2 SLPNO FZRANO $,PARS,2022-10-24T18:56:00Z,61.77,-161.32,,,270,5,,10.0,30.0,,,TRUE,TRUE,TRUE,,,TRUE,,,OVC,3900,,,,,,,VFR,,,,,,,,,,,,METAR,15.0
PARC 241856Z AUTO 00000KT 5SM -SN BR OVC018 M14/M16 A2987 RMK AO2 SLP186 P0000 T11391161 FZRANO,PARC,2022-10-24T18:56:00Z,68.12,-145.58,-13.9,-16.1,0,0,,5.0,29.870079,1018.6,,TRUE,TRUE,,,,TRUE,,-SN BR,OVC,1800,,,,,,,MVFR,,,,,,0.005,,,,,,METAR,626.0
PAQH 241856Z AUTO 28006KT 10SM CLR 01/M01 A3011 RMK AO2 SLP195 T00061006 FZRANO,PAQH,2022-10-24T18:56:00Z,59.75,-161.85,0.6,-0.6,280,6,,10.0,30.109253,1019.5,,TRUE,TRUE,,,,TRUE,,,CLR,,,,,,,,VFR,,,,,,,,,,,,METAR,8.0
PAPO 241856Z AUTO 24019KT 10SM UP FEW010 BKN017 BKN023 01/M01 A2974 RMK AO2 RAB07E16B39E48UPB16E21B48 SLP069 T00061011 FZRANO PNO $,PAPO,2022-10-24T18:56:00Z,68.35,-166.8,0.6,-1.1,240,19,,10.0,29.740158,1006.9,,TRUE,TRUE,TRUE,,,TRUE,,UP,FEW,1000,BKN,1700,BKN,2300,,,MVFR,,,,,,,,,,,,METAR,4.0
PAPM 241856Z AUTO 34007KT 10SM CLR A3011 RMK AO2 SLPNO FZRANO $,PAPM,2022-10-24T18:56:00Z,59.02,-161.82,,,340,7,,10.0,30.109253,,,TRUE,TRUE,TRUE,,,TRUE,,,CLR,,,,,,,,VFR,,,,,,,,,,,,METAR,4.0
PAPH 241856Z AUTO 29017G22KT 10SM -RA FEW024 SCT033 OVC045 06/03 A3016 RMK AO2 PK WND 29027/1815 RAB21 SLP212 P0000 T00560028,PAPH,2022-10-24T18:56:00Z,56.95,-158.62,5.6,2.8,290,17,22,10.0,30.159449,1021.2,,TRUE,TRUE,,,,,,-RA,FEW,2400,SCT,3300,OVC,4500,,,VFR,,,,,,0.005,,,,,,METAR,29.0
PAPG 241856Z 00000KT 10SM SCT045 SCT095 05/03 A2968 RMK AO2 SLP055 T00500033,PAPG,2022-10-24T18:56:00Z,56.82,-132.93,5.0,3.3,0,0,,10.0,29.681103,1005.5,,,TRUE,,,,,,,SCT,4500,SCT,9500,,,,,VFR,,,,,,,,,,,,METAR,24.0
PAOU 241856Z AUTO 28011KT 6SM HZ FEW021 OVC060 06/02 A3023 RMK AO2 SLP236 T00560022 PNO $,PAOU,2022-10-24T18:56:00Z,56.0,-161.17,5.6,2.2,280,11,,6.0,30.230314,1023.6,,TRUE,TRUE,TRUE,,,,,HZ,FEW,2100,OVC,6000,,,,,VFR,,,,,,,,,,,,METAR,3.0
PAOO 241856Z AUTO 25009KT FEW021 SCT034 OVC045 01/00 A3008 RMK AO2 SLP192 T00110000 PWINO FZRANO TSNO $,PAOO,2022-10-24T18:56:00Z,60.53,-165.08,1.1,0.0,250,9,,,30.079725,1019.2,,TRUE,TRUE,TRUE,,TRUE,TRUE,TRUE,,FEW,2100,SCT,3400,OVC,4500,,,,,,,,,,,,,,,METAR,15.0
PAOH 241856Z AUTO 00000KT 10SM OVC110 01/01 A2965 RMK AO2 SLP041 T00110011 FZRANO,PAOH,2022-10-24T18:56:00Z,58.1,-135.45,1.1,1.1,0,0,,10.0,29.648623,1004.1,,TRUE,TRUE,,,,TRUE,,,OVC,11000,,,,,,,VFR,,,,,,,,,,,,METAR,0.0
PANW 241856Z AUTO 25003KT 10SM UP FEW015 SCT042 OVC060 M01/M01 A2999 RMK AO2 UPE11B38SNB11E38 SLP162 P0000 T10061006 FZRANO,PANW,2022-10-24T18:56:00Z,59.45,-157.32,-0.6,-0.6,250,3,,10.0,29.991142,1016.2,,TRUE,TRUE,,,,TRUE,,UP,FEW,1500,SCT,4200,OVC,6000,,,VFR,,,,,,0.005,,,,,,METAR,100.0
PANA 241856Z AUTO 27007KT 10SM CLR M01/M01 A3007 RMK AO2 SLP182 T10111011 FZRANO TSNO $,PANA,2022-10-24T18:56:00Z,60.68,-161.98,-1.1,-1.1,270,7,,10.0,30.070866,1018.2,,TRUE,TRUE,TRUE,,TRUE,TRUE,,,CLR,,,,,,,,VFR,,,,,,,,,,,,METAR,7.0
PAMK 241856Z AUTO 26010KT 10SM -RA SCT026 BKN035 01/M01 A2994 RMK AO2 RAB55 SLP139 P0000 T00061011 FZRANO,PAMK,2022-10-24T18:56:00Z,63.48,-162.12,0.6,-1.1,260,10,,10.0,29.940945,1013.9,,TRUE,TRUE,,,,TRUE,,-RA,SCT,2600,BKN,3500,,,,,VFR,,,,,,0.005,,,,,,METAR,31.0
PAMH 241856Z AUTO 00000KT 10SM OVC007 M05/M07 A2991 RMK AO2 SLP135 T10501067 FZRANO,PAMH,2022-10-24T18:56:00Z,63.9,-152.28,-5.0,-6.7,0,0,,10.0,29.911417,1013.5,,TRUE,TRUE,,,,TRUE,,,OVC,700,,,,,,,IFR,,,,,,,,,,,,METAR,200.0
PAMB 241856Z AUTO 26009KT 9SM CLR 02/M01 A3003 RMK AO2 SLP174 T00221011 FZRANO $,PAMB,2022-10-24T18:56:00Z,58.98,-159.05,2.2,-1.1,260,9,,9.0,30.029528,1017.4,,TRUE,TRUE,TRUE,,,TRUE,,,CLR,,,,,,,,VFR,,,,,,,,,,,,METAR,28.0
PAKF 241856Z AUTO 00000KT 10SM -RA OVC024 A3024 RMK AO2 UPB1757E01RAB01 SLPNO P0000 FZRANO $,PAKF,2022-10-24T18:56:00Z,54.85,-163.42,,,0,0,,10.0,30.239174,,,TRUE,TRUE,TRUE,,,TRUE,,-RA,OVC,2400,,,,,,,MVFR,,,,,,0.005,,,,,,METAR,2.0
PAIW 241856Z AUTO 23009KT 10SM BKN023 OVC049 01/M03 A2990 RMK AO2 RAB32E42 SLP126 P0000 T00061033 FZRANO,PAIW,2022-10-24T18:56:00Z,65.62,-168.1,0.6,-3.3,230,9,,10.0,29.899607,1012.6,,TRUE,TRUE,,,,TRUE,,,BKN,2300,OVC,4900,,,,,MVFR,,,,,,0.005,,,,,,SPECI,6.0
PAIN 241856Z AUTO 00000KT 10SM CLR M16/M18 A2985 RMK AO2 SLP162 T11561178 FZRANO $,PAIN,2022-10-24T18:56:00Z,63.73,-148.92,-15.6,-17.8,0,0,,10.0,29.84941,1016.2,,TRUE,TRUE,TRUE,,,TRUE,,,CLR,,,,,,,,VFR,,,,,,,,,,,,METAR,525.0
PAHY 241856Z AUTO 27008KT 10SM FEW022 BKN041 OVC070 08/04 A2974 RMK AO2 RAB08E56 SLP068 P0000 T00780039 $,PAHY,2022-10-24T18:56:00Z,55.2,-132.83,7.8,3.9,270,8,,10.0,29.740158,1006.8,,TRUE,TRUE,TRUE,,,,,,FEW,2200,BKN,4100,OVC,7000,,,VFR,,,,,,0.005,,,,,,METAR,0.0
PAHL 241856Z AUTO 10004KT 10SM FEW065 BKN080 OVC100 M06/M07 A2995 RMK AO2 SLP146 T10561067 FZRANO,PAHL,2022-10-24T18:56:00Z,65.7,-156.35,-5.6,-6.7,100,4,,10.0,29.949802,1014.6,,TRUE,TRUE,,,,TRUE,,,FEW,6500,BKN,8000,OVC,10000,,,VFR,,,,,,,,,,,,METAR,49.0
PAGS 241856Z AUTO 00000KT 10SM OVC110 04/02 A2966 RMK AO2 SLP042 T00390022,PAGS,2022-10-24T18:56:00Z,58.42,-135.7,3.9,2.2,0,0,,10.0,29.660433,1004.2,,TRUE,TRUE,,,,,,,OVC,11000,,,,,,,VFR,,,,,,,,,,,,METAR,9.0
PAGN 241856Z AUTO VRB03KT 10SM OVC100 07/04 A2968 RMK AO2 SLP041 T00670044,PAGN,2022-10-24T18:56:00Z,57.5,-134.58,6.7,4.4,0,3,,10.0,29.681103,1004.1,,TRUE,TRUE,,,,,,,OVC,10000,,,,,,,VFR,,,,,,,,,,,,METAR,2.0
PAGL 241856Z AUTO 31008KT 10SM OVC035 M01/M02 A2993 RMK AO2 SLP130 T10061022 PWINO FZRANO $,PAGL,2022-10-24T18:56:00Z,64.55,-163.0,-0.6,-2.2,310,8,,10.0,29.929134,1013.0,,TRUE,TRUE,TRUE,,,TRUE,TRUE,,OVC,3500,,,,,,,VFR,,,,,,,,,,,,METAR,20.0
PAGA 241856Z AUTO 10SM BKN075 OVC110 M04/M06 A2995 RMK AO2 SLP144 T10391056 FZRANO $,PAGA,2022-10-24T18:56:00Z,64.73,-156.93,-3.9,-5.6,,,,10.0,29.949802,1014.4,,TRUE,TRUE,TRUE,,,TRUE,,,BKN,7500,OVC,11000,,,,,VFR,,,,,,,,,,,,METAR,39.0
PAFM 241856Z AUTO 14010G15KT 10SM OVC029 M03/M06 A2996 RMK AO2 SNE41 SLP154 P0000 T10331056 FZRANO,PAFM,2022-10-24T18:56:00Z,67.1,-157.85,-3.3,-5.6,140,10,15,10.0,29.958662,1015.4,,TRUE,TRUE,,,,TRUE,,,OVC,2900,,,,,,,MVFR,,,,,,0.005,,,,,,METAR,79.0
PAFE 241856Z AUTO 00000KT 10SM FEW050 BKN075 OVC100 07/02 A2970 RMK AO2 SLP069 T00720017,PAFE,2022-10-24T18:56:00Z,56.97,-133.92,7.2,1.7,0,0,,10.0,29.698818,1006.9,,TRUE,TRUE,,,,,,,FEW,5000,BKN,7500,OVC,10000,,,VFR,,,,,,,,,,,,METAR,1.0
PADU 241856Z 21019G26KT 7SM -RA FEW035 BKN046 OVC060 13/08 A3023 RMK AO2 PK WND 22026/1851 SLP240 T01280078 PNO $,PADU,2022-10-24T18:56:00Z,53.9,-166.53,12.8,7.8,210,19,26,7.0,30.230314,1024.0,,,TRUE,TRUE,,,,,-RA,FEW,3500,BKN,4600,OVC,6000,,,VFR,,,,,,,,,,,,METAR,4.0
PADL 241856Z 24012G19KT 10SM CLR 02/00 A3000 RMK AO2 SLP163 T00220000,PADL,2022-10-24T18:56:00Z,59.05,-158.5,2.2,0.0,240,12,19,10.0,30.0,1016.3,,,TRUE,,,,,,,CLR,,,,,,,,VFR,,,,,,,,,,,,METAR,20.0
PADK 241856Z AUTO 20025G33KT SCT039 12/08 A3015 RMK AO2 PK WND 20035/1846 SLP210 T01220078 PWINO $,PADK,2022-10-24T18:56:00Z,51.88,-176.65,12.2,7.8,200,25,33,,30.15059,1021.0,,TRUE,TRUE,TRUE,,,,TRUE,,SCT,3900,,,,,,,,,,,,,,,,,,,METAR,3.0
PABV 241856Z AUTO 00000KT 10SM CLR M06/M09 A2985 RMK AO2 SLP114 T10561089 FZRANO,PABV,2022-10-24T18:56:00Z,61.42,-149.52,-5.6,-8.9,0,0,,10.0,29.84941,1011.4,,TRUE,TRUE,,,,TRUE,,,CLR,,,,,,,,VFR,,,,,,,,,,,,METAR,21.0
KYKN 241856Z AUTO 27021G25KT 10SM CLR 09/M03 A2973 RMK AO2 PK WND 28026/1855 SLP083 T00941033,KYKN,2022-10-24T18:56:00Z,42.92,-97.37,9.4,-3.3,270,21,25,10.0,29.731298,1008.3,,TRUE,TRUE,,,,,,,CLR,,,,,,,,VFR,,,,,,,,,,,,METAR,388.0
KY50 241856Z AUTO 18008G16KT 10SM OVC048 21/14 A2973 RMK AO2 SLP063 T02060144 $,KY50,2022-10-24T18:56:00Z,44.03,-89.3,20.6,14.4,180,8,16,10.0,29.731298,1006.3,,TRUE,TRUE,TRUE,,,,,,OVC,4800,,,,,,,VFR,,,,,,,,,,,,METAR,261.0
KWWD 241856Z AUTO 03008KT 4SM -RA BR OVC004 18/18 A3008 RMK AO2 SLP187 P0000 T01830178 $,KWWD,2022-10-24T18:56:00Z,39.02,-74.92,18.3,17.8,30,8,,4.0,30.079725,1018.7,,TRUE,TRUE,TRUE,,,,,-RA BR,OVC,400,,,,,,,LIFR,,,,,,0.005,,,,,,METAR,4.0
KWMC 241856Z AUTO A3025 RMK AO2 SLPNO PWINO FZRANO $,KWMC,2022-10-24T18:56:00Z,40.9,-117.8,,,,,,,30.250984,,,TRUE,TRUE,TRUE,,,TRUE,TRUE,,,,,,,,,,,,,,,,,,,,,,METAR,1311.0
KWJF 241856Z 07010KT 10SM CLR 17/M09 A3026 RMK AO2 SLP249 T01671094,KWJF,2022-10-24T18:56:00Z,34.73,-118.22,16.7,-9.4,70,10,,10.0,30.259842,1024.9,,,TRUE,,,,,,,CLR,,,,,,,,VFR,,,,,,,,,,,,METAR,712.0
KVPZ 241856Z AUTO 17014G24KT 10SM CLR 24/11 A2991 RMK AO2 SLP124 T02440111,KVPZ,2022-10-24T18:56:00Z,41.45,-87.0,24.4,11.1,170,14,24,10.0,29.911417,1012.4,,TRUE,TRUE,,,,,,,CLR,,,,,,,,VFR,,,,,,,,,,,,METAR,235.0
KVIS 241856Z AUTO 21005KT 10SM CLR 18/01 A3024 RMK AO2 SLP248 T01830006,KVIS,2022-10-24T18:56:00Z,36.32,-119.4,18.3,0.6,210,5,,10.0,30.239174,1024.8,,TRUE,TRUE,,,,,,,CLR,,,,,,,,VFR,,,,,,,,,,,,METAR,92.0
KUKI 241856Z AUTO 00000KT 10SM CLR 18/01 A3022 RMK AO2 SLP231 T01780006,KUKI,2022-10-24T18:56:00Z,39.12,-123.2,17.8,0.6,0,0,,10.0,30.221457,1023.1,,TRUE,TRUE,,,,,,,CLR,,,,,,,,VFR,,,,,,,,,,,,METAR,183.0
KUDG 241856Z AUTO VRB03KT 10SM CLR 22/14 A3013 RMK AO2 SLP204 T02220139,KUDG,2022-10-24T18:56:00Z,34.45,-79.88,22.2,13.9,0,3,,10.0,30.129921,1020.4,,TRUE,TRUE,,,,,,,CLR,,,,,,,,VFR,,,,,,,,,,,,METAR,57.0
KUCP 241856Z AUTO 07006KT 10SM CLR 22/06 A3012 RMK AO2 SLP214 T02220061,KUCP,2022-10-24T18:56:00Z,41.03,-80.42,22.2,6.1,70,6,,10.0,30.121063,1021.4,,TRUE,TRUE,,,,,,,CLR,,,,,,,,VFR,,,,,,,,,,,,METAR,313.0
KTVF 241856Z AUTO 21031G45KT 10SM OVC023 08/03 A2932 RMK AO2 PK WND 21045/1848 SLP934 T00780033,KTVF,2022-10-24T18:56:00Z,48.07,-96.17,7.8,3.3,210,31,45,10.0,29.320866,993.4,,TRUE,TRUE,,,,,,,OVC,2300,,,,,,,MVFR,,,,,,,,,,,,METAR,339.0
KTPH 241856Z AUTO VRB03KT 10SM CLR 08/M10 A3027 RMK AO2 SLP248 T00831100,KTPH,2022-10-24T18:56:00Z,38.05,-117.08,8.3,-10.0,0,3,,10.0,30.268702,1024.8,,TRUE,TRUE,,,,,,,CLR,,,,,,,,VFR,,,,,,,,,,,,METAR,1647.0
KSUE 241856Z AUTO 18017G23KT 10SM CLR 15/11 A2977 RMK AO2 SLP080 T01500106,KSUE,2022-10-24T18:56:00Z,44.85,-87.42,15.0,10.6,180,17,23,10.0,29.769686,1008.0,,TRUE,TRUE,,,,,,,CLR,,,,,,,,VFR,,,,,,,,,,,,METAR,215.0
KSRC 241856Z AUTO 16015G21KT 10SM CLR 27/15 A2986 RMK AO2 SLP108 T02720150,KSRC,2022-10-24T18:56:00Z,35.22,-91.73,27.2,15.0,160,15,21,10.0,29.861221,1010.8,,TRUE,TRUE,,,,,,,CLR,,,,,,,,VFR,,,,,,,,,,,,METAR,80.0
KSQI 241856Z AUTO 15007KT 120V190 10SM CLR 22/14 A2977 RMK AO2 SLP946 T02220139,KSQI,2022-10-24T18:56:00Z,41.75,-89.67,22.2,13.9,150,7,,10.0,29.769686,994.6,,TRUE,TRUE,,,,,,,CLR,,,,,,,,VFR,,,,,,,,,,,,METAR,196.0
KSPD 241856Z AUTO 03014G25KT 10/M05 A2986 RMK AO1 PK WND 36027/1835 SLP079 T01001050,KSPD,2022-10-24T18:56:00Z,37.28,-102.62,10.0,-5.0,30,14,25,,29.861221,1007.9,,TRUE,TRUE,,,,,,,,,,,,,,,,,,,,,,,,,,,SPECI,1340.0
KSOP 241856Z AUTO 02005KT 10SM CLR 23/11 A3013 RMK AO2 SLP205 T02330111 TSNO,KSOP,2022-10-24T18:56:00Z,35.23,-79.4,23.3,11.1,20,5,,10.0,30.129921,1020.5,,TRUE,TRUE,,,TRUE,,,,CLR,,,,,,,,VFR,,,,,,,,,,,,METAR,135.0
KSMN 241856Z AUTO 08010KT 10SM CLR 06/M07 A3003 RMK AO2 SLP865 T00561067,KSMN,2022-10-24T18:56:00Z,45.12,-113.87,5.6,-6.7,80,10,,10.0,30.029528,986.5,,TRUE,TRUE,,,,,,,CLR,,,,,,,,VFR,,,,,,,,,,,,METAR,1228.0
KSKX 241856Z AUTO 34016G24KT 10SM SCT060 05/M07 A2991 RMK AO2 SLP123 T00501072,KSKX,2022-10-24T18:56:00Z,36.45,-105.67,5.0,-7.2,340,16,24,10.0,29.911417,1012.3,,TRUE,TRUE,,,,,,,SCT,6000,,,,,,,VFR,,,,,,,,,,,,METAR,2163.0
KSHV 241856Z 16014G27KT 10SM FEW040 SCT060 BKN160 28/17 A2982 RMK SLPNO,KSHV,2022-10-24T18:56:00Z,32.45,-93.83,28.0,17.0,160,14,27,10.0,29.819881,,,,,,,,,,,FEW,4000,SCT,6000,BKN,16000,,,VFR,,,,,,,,,,,,METAR,70.0
KSGU 241856Z AUTO VRB04KT 10SM CLR 11/M04 A3024 RMK AO2 SLP240 T01111039,KSGU,2022-10-24T18:56:00Z,37.03,-113.52,11.1,-3.9,0,4,,10.0,30.239174,1024.0,,TRUE,TRUE,,,,,,,CLR,,,,,,,,VFR,,,,,,,,,,,,METAR,877.0
KSGT 241856Z AUTO 18020G26KT 10SM CLR 28/14 A2987 RMK AO2 PK WND 19028/1846 SLP114 T02830139,KSGT,2022-10-24T18:56:00Z,34.6,-91.57,28.3,13.9,180,20,26,10.0,29.870079,1011.4,,TRUE,TRUE,,,,,,,CLR,,,,,,,,VFR,,,,,,,,,,,,METAR,67.0
KSGJ 241856Z 04007KT 10SM CLR 24/16 A3012 RMK AO2 SLP197 T02440156,KSGJ,2022-10-24T18:56:00Z,29.97,-81.33,24.4,15.6,40,7,,10.0,30.121063,1019.7,,,TRUE,,,,,,,CLR,,,,,,,,VFR,,,,,,,,,,,,METAR,2.0
KSGH 241856Z AUTO 17007G14KT 10SM CLR 24/05 A3007 RMK AO2 SLP179 T02390050,KSGH,2022-10-24T18:56:00Z,39.83,-83.83,23.9,5.0,170,7,14,10.0,30.070866,1017.9,,TRUE,TRUE,,,,,,,CLR,,,,,,,,VFR,,,,,,,,,,,,METAR,318.0
KSFO 241856Z 00000KT 10SM FEW200 19/07 A3022 RMK AO2 SLP232 T01890067,KSFO,2022-10-24T18:56:00Z,37.62,-122.37,18.9,6.7,0,0,,10.0,30.221457,1023.2,,,TRUE,,,,,,,FEW,20000,,,,,,,VFR,,,,,,,,,,,,METAR,2.0
KSDF 241856Z 15010KT 10SM FEW150 BKN300 26/06 A3002 RMK AO2 SLP161 T02610061,KSDF,2022-10-24T18:56:00Z,38.18,-85.73,26.1,6.1,150,10,,10.0,30.02067,1016.1,,,TRUE,,,,,,,FEW,15000,BKN,30000,,,,,VFR,,,,,,,,,,,,METAR,146.0
KSBP 241856Z 00000KT 10SM CLR 23/M01 A3017 RMK AO2 SLP214 T02281011,KSBP,2022-10-24T18:56:00Z,35.23,-120.63,22.8,-1.1,0,0,,10.0,30.171259,1021.4,,,TRUE,,,,,,,CLR,,,,,,,,VFR,,,,,,,,,,,,METAR,52.0
KRUT 241856Z AUTO 14005KT 9SM -RA FEW021 BKN039 OVC055 16/13 A3022 RMK AO2 RAB38 SLP228 P0000 T01610133 $,KRUT,2022-10-24T18:56:00Z,43.53,-72.95,16.1,13.3,140,5,,9.0,30.221457,1022.8,,TRUE,TRUE,TRUE,,,,,-RA,FEW,2100,BKN,3900,OVC,5500,,,VFR,,,,,,0.005,,,,,,METAR,238.0
KRDM 241856Z 22006KT 10SM BKN045 OVC055 12/04 A3000 RMK AO2 SLP162 T01220044,KRDM,2022-10-24T18:56:00Z,44.25,-121.15,12.2,4.4,220,6,,10.0,30.0,1016.2,,,TRUE,,,,,,,BKN,4500,OVC,5500,,,,,VFR,,,,,,,,,,,,METAR,930.0
KPVU 241856Z 28005KT 10SM SCT050 05/M03 A3024 RMK AO2 SLP249 T00501028,KPVU,2022-10-24T18:56:00Z,40.22,-111.72,5.0,-2.8,280,5,,10.0,30.239174,1024.9,,,TRUE,,,,,,,SCT,5000,,,,,,,VFR,,,,,,,,,,,,METAR,1370.0
KPVG 241856Z AUTO VRB03KT 10SM OVC016 17/13 A3012 RMK AO2 SLP200 T01720133 PNO $,KPVG,2022-10-24T18:56:00Z,36.78,-76.45,17.2,13.3,0,3,,10.0,30.121063,1020.0,,TRUE,TRUE,TRUE,,,,,,OVC,1600,,,,,,,MVFR,,,,,,,,,,,,METAR,7.0
KPVC 241856Z AUTO 36005KT 1/4SM FG OVC003 14/14 A3021 RMK AO2 SLP229 T01440144,KPVC,2022-10-24T18:56:00Z,42.07,-70.22,14.4,14.4,360,5,,0.25,30.209646,1022.9,,TRUE,TRUE,,,,,,FG,OVC,300,,,,,,,LIFR,,,,,,,,,,,,METAR,1.0
KPTV 241856Z AUTO 25009KT 10SM CLR 20/01 A3023 RMK AO2 SLP238 T02000006,KPTV,2022-10-24T18:56:00Z,36.02,-119.07,20.0,0.6,250,9,,10.0,30.230314,1023.8,,TRUE,TRUE,,,,,,,CLR,,,,,,,,VFR,,,,,,,,,,,,METAR,132.0
KPTN 241856Z AUTO 14010KT 10SM CLR 27/18 A2996 RMK AO2 SLP145 T02720183 $,KPTN,2022-10-24T18:56:00Z,29.72,-91.33,27.2,18.3,140,10,,10.0,29.958662,1014.5,,TRUE,TRUE,TRUE,,,,,,CLR,,,,,,,,VFR,,,,,,,,,,,,METAR,2.0
KPQI 241856Z AUTO 21003KT 10SM -RA FEW048 OVC070 13/11 A3034 RMK AO2 RAB05 SLP301 P0003 T01280106,KPQI,2022-10-24T18:56:00Z,46.68,-68.05,12.8,10.6,210,3,,10.0,30.339567,1030.1,,TRUE,TRUE,,,,,,-RA,FEW,4800,OVC,7000,,,,,VFR,,,,,,0.03,,,,,,METAR,154.0
KPIH 241856Z 24017G25KT 10SM SCT039 06/M04 A3015 RMK AO2 T00611044,KPIH,2022-10-24T18:56:00Z,42.92,-112.57,6.1,-4.4,240,17,25,10.0,30.15059,,,,TRUE,,,,,,,SCT,3900,,,,,,,VFR,,,,,,,,,,,,METAR,1357.0
KPIB 241856Z AUTO 17014G22KT 10SM SCT047 BKN055 29/17 A3001 RMK AO2 SLP159 T02890172 PNO $,KPIB,2022-10-24T18:56:00Z,31.47,-89.33,28.9,17.2,170,14,22,10.0,30.008858,1015.9,,TRUE,TRUE,TRUE,,,,,,SCT,4700,BKN,5500,,,,,VFR,,,,,,,,,,,,METAR,91.0
KP60 241856Z AUTO VRB04KT M04/M08 A3002 RMK AO1 SLP195 T10391083,KP60,2022-10-24T18:56:00Z,44.55,-110.42,-3.9,-8.3,0,4,,,30.02067,1019.5,,TRUE,TRUE,,,,,,,,,,,,,,,,,,,,,,,,,,,SPECI,2377.0
KP53 241856Z AUTO 18017G29KT 18/11 A2973 RMK AO1 PK WND 18031/1839 SLP068 T01780106,KP53,2022-10-24T18:56:00Z,46.42,-86.65,17.8,10.6,180,17,29,,29.731298,1006.8,,TRUE,TRUE,,,,,,,,,,,,,,,,,,,,,,,,,,,SPECI,185.0
KP28 241856Z AUTO 35018G24KT 13/06 A2976 RMK AO1 SLP067 T01280061 $,KP28,2022-10-24T18:56:00Z,37.28,-98.55,12.8,6.1,350,18,24,,29.760826,1006.7,,TRUE,TRUE,TRUE,,,,,,,,,,,,,,,,,,,,,,,,,,SPECI,469.0
KOWB 241856Z 17012G22KT 10SM CLR 27/07 A2999 RMK AO2 SLP152 T02670067,KOWB,2022-10-24T18:56:00Z,37.72,-87.17,26.7,6.7,170,12,22,10.0,29.991142,1015.2,,,TRUE,,,,,,,CLR,,,,,,,,VFR,,,,,,,,,,,,METAR,121.0
KOLU 241856Z AUTO 31009KT 10SM CLR 10/01 A2975 RMK AO2 SLP078 T01000011,KOLU,2022-10-24T18:56:00Z,41.45,-97.33,10.0,1.1,310,9,,10.0,29.749016,1007.8,,TRUE,TRUE,,,,,,,CLR,,,,,,,,VFR,,,,,,,,,,,,METAR,438.0
KOKK 241856Z AUTO 18017G21KT 10SM CLR 24/09 A2999 RMK AO2 SLP153 T02440094 PNO $,KOKK,2022-10-24T18:56:00Z,40.53,-86.07,24.4,9.4,180,17,21,10.0,29.991142,1015.3,,TRUE,TRUE,TRUE,,,,,,CLR,,,,,,,,VFR,,,,,,,,,,,,METAR,251.0
KOFK 241856Z AUTO 31010KT 10SM CLR 10/M03 A2973 RMK AO2 PRESFR SLP070 T01001028,KOFK,2022-10-24T18:56:00Z,41.98,-97.43,10.0,-2.8,310,10,,10.0,29.731298,1007.0,,TRUE,TRUE,,,,,,,CLR,,,,,,,,VFR,,,,,,,,,,,,METAR,476.0
KOAJ 241856Z 01005KT 10SM CLR 23/15 A3010 RMK AO2 SLP196 T02280150,KOAJ,2022-10-24T18:56:00Z,34.82,-77.62,22.8,15.0,10,5,,10.0,30.100393,1019.6,,,TRUE,,,,,,,CLR,,,,,,,,VFR,,,,,,,,,,,,METAR,26.0
KNYG 241856Z 04006KT 6SM HZ OVC028 21/13 A3013 RMK AO2 SLP202 T02110133,KNYG,2022-10-24T18:56:00Z,38.5,-77.3,21.1,13.3,40,6,,6.0,30.129921,1020.2,,,TRUE,,,,,,HZ,OVC,2800,,,,,,,MVFR,,,,,,,,,,,,SPECI,2.0
KNXP 241856Z AUTO 32009KT 10SM CLR 17/M12 A3031 RMK AO2 SLP241 T01721117 $,KNXP,2022-10-24T18:56:00Z,34.28,-116.13,17.2,-11.7,320,9,,10.0,30.31004,1024.1,,TRUE,TRUE,TRUE,,,,,,CLR,,,,,,,,VFR,,,,,,,,,,,,METAR,610.0
KNXF 241856Z AUTO 10SM 22/06 A3013 RMK AO2 SLP287 T02220061 PWINO $,KNXF,2022-10-24T18:56:00Z,33.28,-117.45,22.2,6.1,,,,10.0,30.129921,1028.7,,TRUE,TRUE,TRUE,,,,TRUE,,,,,,,,,,,,,,,,,,,,,,METAR,28.0
KNUC 241856Z 35008KT 10SM CLR 21/13 A3017 RMK AO2 SLP215 T02060128 $,KNUC,2022-10-24T18:56:00Z,33.02,-118.57,20.6,12.8,350,8,,10.0,30.171259,1021.5,,,TRUE,TRUE,,,,,,CLR,,,,,,,,VFR,,,,,,,,,,,,METAR,52.0
KNTU 241856Z 34008KT 10SM OVC010 16/13 A3011 RMK AO2 SLP197 T01560133,KNTU,2022-10-24T18:56:00Z,36.82,-76.02,15.6,13.3,340,8,,10.0,30.109253,1019.7,,,TRUE,,,,,,,OVC,1000,,,,,,,MVFR,,,,,,,,,,,,METAR,6.0
KNSE 241856Z 16008KT 10SM FEW035 SCT055 SCT250 28/13 A3006 RMK AO2 SLP164 T02780133 $,KNSE,2022-10-24T18:56:00Z,30.73,-87.02,27.8,13.3,160,8,,10.0,30.059055,1016.4,,,TRUE,TRUE,,,,,,FEW,3500,SCT,5500,SCT,25000,,,VFR,,,,,,,,,,,,METAR,56.0
KNQI 241856Z 18015G25KT 10SM SCT044 SCT250 34/22 A2973 RMK AO2 PK WND 18028/1812 SLP063 T03390222 $,KNQI,2022-10-24T18:56:00Z,27.5,-97.82,33.9,22.2,180,15,25,10.0,29.731298,1006.3,,,TRUE,TRUE,,,,,,SCT,4400,SCT,25000,,,,,VFR,,,,,,,,,,,,METAR,15.0
KNPA 241856Z 12014KT 10SM FEW030 SCT065 BKN250 27/18 A3005 RMK AO2 SLP178 T02670178,KNPA,2022-10-24T18:56:00Z,30.35,-87.32,26.7,17.8,120,14,,10.0,30.050198,1017.8,,,TRUE,,,,,,,FEW,3000,SCT,6500,BKN,25000,,,VFR,,,,,,,,,,,,SPECI,6.0
KNOG 241856Z AUTO 17014G23KT 10SM CLR 32/21 A2973 RMK AO2 PK WND 17026/1836 SLP047 T03170211 PNO $,KNOG,2022-10-24T18:56:00Z,27.9,-98.05,31.7,21.1,170,14,23,10.0,29.731298,1004.7,,TRUE,TRUE,TRUE,,,,,,CLR,,,,,,,,VFR,,,,,,,,,,,,METAR,72.0
KNMM 241856Z 11010KT 10SM BKN049 26/16 A3003 RMK AO2 SLP177 T02560156,KNMM,2022-10-24T18:56:00Z,32.53,-88.53,25.6,15.6,110,10,,10.0,30.029528,1017.7,,,TRUE,,,,,,,BKN,4900,,,,,,,VFR,,,,,,,,,,,,METAR,94.0
KNLC 241856Z 34008KT 10SM CLR 20/M03 A3023 RMK AO2 SLP235 RH/20 T02001033,KNLC,2022-10-24T18:56:00Z,36.32,-119.95,20.0,-3.3,340,8,,10.0,30.230314,1023.5,,,TRUE,,,,,,,CLR,,,,,,,,VFR,,,,,,,,,,,,METAR,69.0
KNKT 241856Z 10SM FEW014 20/14 A3012 RMK AO2 SLP195 T02000144,KNKT,2022-10-24T18:56:00Z,34.9,-76.88,20.0,14.4,,,,10.0,30.121063,1019.5,,,TRUE,,,,,,,FEW,1400,,,,,,,VFR,,,,,,,,,,,,SPECI,8.0
KNJK 241856Z 03009KT 10SM CLR 24/M06 A3020 RMK AO2 SLP242 T02391061 $,KNJK,2022-10-24T18:56:00Z,32.82,-115.67,23.9,-6.1,30,9,,10.0,30.200787,1024.2,,,TRUE,TRUE,,,,,,CLR,,,,,,,,VFR,,,,,,,,,,,,SPECI,-15.0
KNID 241856Z VRB03KT 10SM CLR 16/M11 A3025 RMK AO2 SLP240 T01561111 $,KNID,2022-10-24T18:56:00Z,35.68,-117.68,15.6,-11.1,0,3,,10.0,30.250984,1024.0,,,TRUE,TRUE,,,,,,CLR,,,,,,,,VFR,,,,,,,,,,,,METAR,682.0
KNGP 241856Z 17017G27KT 9SM FEW020 SCT035 BKN250 31/24 A2975 RMK AO2 PK WND 18036/1815 SLP074 T03060239,KNGP,2022-10-24T18:56:00Z,27.68,-97.28,30.6,23.9,170,17,27,9.0,29.749016,1007.4,,,TRUE,,,,,,,FEW,2000,SCT,3500,BKN,25000,,,VFR,,,,,,,,,,,,METAR,5.0
KNFL 241856Z 16007KT 10SM SCT100 SCT220 10/M09 A3028 RMK AO2 SLP214 T01001094,KNFL,2022-10-24T18:56:00Z,39.42,-118.7,10.0,-9.4,160,7,,10.0,30.280512,1021.4,,,TRUE,,,,,,,SCT,10000,SCT,22000,,,,,VFR,,,,,,,,,,,,SPECI,1199.0
KNFE 241856Z AUTO VRB03KT 10SM OVC012 17/13 A3012 RMK AO2 SLP200 T01670128,KNFE,2022-10-24T18:56:00Z,36.7,-76.13,16.7,12.8,0,3,,10.0,30.121063,1020.0,,TRUE,TRUE,,,,,,,OVC,1200,,,,,,,MVFR,,,,,,,,,,,,METAR,4.0
KNDZ 241856Z 20008G17KT 10SM FEW040 SCT060 BKN250 27/13 A3006 RMK AO2 SLP164 T02720133 $,KNDZ,2022-10-24T18:56:00Z,30.7,-87.02,27.2,13.3,200,8,17,10.0,30.059055,1016.4,,,TRUE,TRUE,,,,,,FEW,4000,SCT,6000,BKN,25000,,,VFR,,,,,,,,,,,,METAR,51.0
KNCA 241856Z 09005KT 10SM FEW040 21/16 A3009 RMK AO2 SLP193 T02060156,KNCA,2022-10-24T18:56:00Z,34.72,-77.45,20.6,15.6,90,5,,10.0,30.088583,1019.3,,,TRUE,,,,,,,FEW,4000,,,,,,,VFR,,,,,,,,,,,,METAR,9.0
KNBC 241856Z 36006KT 10SM CLR 25/08 A3012 RMK AO2 SLP200 T02500083,KNBC,2022-10-24T18:56:00Z,32.47,-80.72,25.0,8.3,360,6,,10.0,30.121063,1020.0,,,TRUE,,,,,,,CLR,,,,,,,,VFR,,,,,,,,,,,,METAR,9.0
KMVN 241856Z AUTO 20019G24KT 10SM OVC060 25/11 A2991 RMK AO2 SLP130 T02500106,KMVN,2022-10-24T18:56:00Z,38.32,-88.87,25.0,10.6,200,19,24,10.0,29.911417,1013.0,,TRUE,TRUE,,,,,,,OVC,6000,,,,,,,VFR,,,,,,,,,,,,METAR,145.0
KMUO 241856Z 07006KT 10SM SCT100 BKN120 BKN190 08/M05 A3014 RMK AO2A SLP218 T00831049 $,KMUO,2022-10-24T18:56:00Z,43.03,-115.87,8.3,-4.9,70,6,,10.0,30.138779,1021.8,,,TRUE,TRUE,,,,,,SCT,10000,BKN,12000,BKN,19000,,,VFR,,,,,,,,,,,,SPECI,915.0
KMTW 241856Z AUTO 16015G20KT 10SM CLR 15/11 A2980 RMK AO2 SLP090 T01500111,KMTW,2022-10-24T18:56:00Z,44.12,-87.67,15.0,11.1,160,15,20,10.0,29.799213,1009.0,,TRUE,TRUE,,,,,,,CLR,,,,,,,,VFR,,,,,,,,,,,,METAR,197.0
KMTC 241856Z 15010KT 10SM BKN250 23/09 A3001 RMK AO2A SLP167 T02250086,KMTC,2022-10-24T18:56:00Z,42.62,-82.83,22.5,8.6,150,10,,10.0,30.008858,1016.7,,,TRUE,,,,,,,BKN,25000,,,,,,,VFR,,,,,,,,,,,,METAR,177.0
KMRF 241856Z AUTO 26020G29KT 10SM SCT080 21/01 A2993 RMK AO2 PK WND 23029/1850 SLP074 T02060006,KMRF,2022-10-24T18:56:00Z,30.37,-104.02,20.6,0.6,260,20,29,10.0,29.929134,1007.4,,TRUE,TRUE,,,,,,,SCT,8000,,,,,,,VFR,,,,,,,,,,,,METAR,1476.0
KMQY 241856Z 16008KT 10SM CLR 26/06 A3005 RMK AO2 SLP179 T02560061,KMQY,2022-10-24T18:56:00Z,36.02,-86.52,25.6,6.1,160,8,,10.0,30.050198,1017.9,,,TRUE,,,,,,,CLR,,,,,,,,VFR,,,,,,,,,,,,METAR,156.0
KMOB 241856Z 15011G18KT 10SM SCT028 BKN047 24/16 A3005 RMK AO2 SLP174 T02440161,KMOB,2022-10-24T18:56:00Z,30.68,-88.25,24.4,16.1,150,11,18,10.0,30.050198,1017.4,,,TRUE,,,,,,,SCT,2800,BKN,4700,,,,,VFR,,,,,,,,,,,,METAR,67.0
KMNM 241856Z AUTO 20007G14KT 10SM CLR 16/11 A2976 RMK AO2 SLP078 T01560111 PNO $,KMNM,2022-10-24T18:56:00Z,45.12,-87.63,15.6,11.1,200,7,14,10.0,29.760826,1007.8,,TRUE,TRUE,TRUE,,,,,,CLR,,,,,,,,VFR,,,,,,,,,,,,METAR,188.0
KMHS 241856Z AUTO VRB03KT 10SM OVC048 12/00 A3022 RMK AO2 SLP256 T01220000,KMHS,2022-10-24T18:56:00Z,41.32,-122.32,12.2,0.0,0,3,,10.0,30.221457,1025.6,,TRUE,TRUE,,,,,,,OVC,4800,,,,,,,VFR,,,,,,,,,,,,SPECI,1080.0
KMDT 241856Z VRB03KT 10SM OVC012 17/14 A3013 RMK AO2 SLP202 T01670139,KMDT,2022-10-24T18:56:00Z,40.2,-76.77,16.7,13.9,0,3,,10.0,30.129921,1020.2,,,TRUE,,,,,,,OVC,1200,,,,,,,MVFR,,,,,,,,,,,,METAR,91.0
KMBL 241856Z AUTO 17010G18KT 10SM CLR 22/12 A2984 RMK AO2 SLP102 T02170122,KMBL,2022-10-24T18:56:00Z,44.27,-86.25,21.7,12.2,170,10,18,10.0,29.840551,1010.2,,TRUE,TRUE,,,,,,,CLR,,,,,,,,VFR,,,,,,,,,,,,METAR,187.0
KM19 241856Z AUTO 17016KT 10SM OVC065 26/14 A2987 RMK AO2 PK WND 18026/1814 SLP111 T02560139 PNO $,KM19,2022-10-24T18:56:00Z,35.65,-91.17,25.6,13.9,170,16,,10.0,29.870079,1011.1,,TRUE,TRUE,TRUE,,,,,,OVC,6500,,,,,,,VFR,,,,,,,,,,,,METAR,72.0
KLZU 241856Z 13007KT 10SM CLR 24/09 A3014 RMK AO2 SLP212 T02390094,KLZU,2022-10-24T18:56:00Z,33.98,-83.97,23.9,9.4,130,7,,10.0,30.138779,1021.2,,,TRUE,,,,,,,CLR,,,,,,,,VFR,,,,,,,,,,,,METAR,316.0
KLWS 241856Z 18013KT 10SM -RA BKN043 OVC050 07/02 A2998 RMK AO2 SLP159 P0002 T00670022,KLWS,2022-10-24T18:56:00Z,46.37,-117.02,6.7,2.2,180,13,,10.0,29.97933,1015.9,,,TRUE,,,,,,-RA,BKN,4300,OVC,5000,,,,,VFR,,,,,,0.02,,,,,,METAR,435.0
KLRD 241856Z 20009KT 10SM CLR 33/22 A2970 RMK AO2 SLP054 T03330217,KLRD,2022-10-24T18:56:00Z,27.55,-99.47,33.3,21.7,200,9,,10.0,29.698818,1005.4,,,TRUE,,,,,,,CLR,,,,,,,,VFR,,,,,,,,,,,,METAR,150.0
KLNR 241856Z AUTO 18014G21KT 10SM SCT060 24/14 A2971 RMK AO2 SLP050 T02390144,KLNR,2022-10-24T18:56:00Z,43.22,-90.18,23.9,14.4,180,14,21,10.0,29.71063,1005.0,,TRUE,TRUE,,,,,,,SCT,6000,,,,,,,VFR,,,,,,,,,,,,METAR,218.0
KLEW 241856Z AUTO 01004KT 9SM OVC003 13/ A3026 RMK AO2 RAE56 SLP254 P0000 T0133,KLEW,2022-10-24T18:56:00Z,44.03,-70.28,13.3,,10,4,,9.0,30.259842,1025.4,,TRUE,TRUE,,,,,,,OVC,300,,,,,,,LIFR,,,,,,0.005,,,,,,METAR,81.0
KLBT 241856Z AUTO 00000KT 10SM CLR 25/13 A3010 RMK AO2 SLP191 T02500133 TSNO,KLBT,2022-10-24T18:56:00Z,34.6,-79.07,25.0,13.3,0,0,,10.0,30.100393,1019.1,,TRUE,TRUE,,,TRUE,,,,CLR,,,,,,,,VFR,,,,,,,,,,,,METAR,37.0
KLBL 241856Z AUTO 36018KT 10SM BKN070 OVC090 12/M02 A2983 RMK AO2 PK WND 02027/1831 SLP085 T01171022,KLBL,2022-10-24T18:56:00Z,37.03,-100.97,11.7,-2.2,360,18,,10.0,29.828741,1008.5,,TRUE,TRUE,,,,,,,BKN,7000,OVC,9000,,,,,VFR,,,,,,,,,,,,METAR,877.0
KLAS 241856Z VRB03KT 10SM CLR 14/M09 A3026 RMK AO2 SLP241 T01441094,KLAS,2022-10-24T18:56:00Z,36.07,-115.17,14.4,-9.4,0,3,,10.0,30.259842,1024.1,,,TRUE,,,,,,,CLR,,,,,,,,VFR,,,,,,,,,,,,METAR,662.0
KKLS 241856Z AUTO 15005KT 10SM SCT013 BKN050 OVC060 10/08 A3007 RMK AO2 RAE33 SLP186 P0002 T01000083,KKLS,2022-10-24T18:56:00Z,46.12,-122.9,10.0,8.3,150,5,,10.0,30.070866,1018.6,,TRUE,TRUE,,,,,,,SCT,1300,BKN,5000,OVC,6000,,,VFR,,,,,,0.02,,,,,,METAR,4.0
KJXN 241856Z 14010G19KT 10SM CLR 24/09 A3001 RMK AO2 SLP158 T02390094,KJXN,2022-10-24T18:56:00Z,42.27,-84.47,23.9,9.4,140,10,19,10.0,30.008858,1015.8,,,TRUE,,,,,,,CLR,,,,,,,,VFR,,,,,,,,,,,,METAR,303.0
KJRB 241856Z AUTO 03011KT 5SM HZ OVC006 A3014 RMK AO2 SLPNO FZRANO $,KJRB,2022-10-24T18:56:00Z,40.7,-74.02,,,30,11,,5.0,30.138779,,,TRUE,TRUE,TRUE,,,TRUE,,HZ,OVC,600,,,,,,,IFR,,,,,,,,,,,,METAR,2.0
KJMS 241856Z AUTO 27021G33KT 10SM SCT015 BKN019 OVC024 04/02 A2943 RMK AO2 PK WND 27033/1851 RAB14E34 SLP971 P0000 T00390017,KJMS,2022-10-24T18:56:00Z,46.93,-98.67,3.9,1.7,270,21,33,10.0,29.430119,997.1,,TRUE,TRUE,,,,,,,SCT,1500,BKN,1900,OVC,2400,,,MVFR,,,,,,0.005,,,,,,SPECI,455.0
KJHW 241856Z AUTO VRB05KT 7SM CLR 21/11 A3013 RMK AO2 SLP204 T02060106,KJHW,2022-10-24T18:56:00Z,42.15,-79.27,20.6,10.6,0,5,,7.0,30.129921,1020.4,,TRUE,TRUE,,,,,,,CLR,,,,,,,,VFR,,,,,,,,,,,,METAR,520.0
KJAX 241856Z 00000KT 10SM FEW036 FEW250 25/14 A3010 RMK AO2 SLP193 T02500144,KJAX,2022-10-24T18:56:00Z,30.5,-81.68,25.0,14.4,0,0,,10.0,30.100393,1019.3,,,TRUE,,,,,,,FEW,3600,FEW,25000,,,,,VFR,,,,,,,,,,,,METAR,8.0
KJAC 241856Z 22015G22KT 10SM CLR 02/M07 A3004 RMK AO2 RAB08E20B46E48UPB20E30 SLP201 T00171072 PNO $,KJAC,2022-10-24T18:56:00Z,43.62,-110.73,1.7,-7.2,220,15,22,10.0,30.041338,1020.1,,,TRUE,TRUE,,,,,,CLR,,,,,,,,VFR,,,,,,,,,,,,METAR,1967.0
KITH 241856Z 21006KT 10SM BKN030 19/14 A3016 RMK AO2 SLP210 T01940144,KITH,2022-10-24T18:56:00Z,42.48,-76.45,19.4,14.4,210,6,,10.0,30.159449,1021.0,,,TRUE,,,,,,,BKN,3000,,,,,,,MVFR,,,,,,,,,,,,METAR,338.0
KISP 241856Z 08004KT 2 1/2SM R06/6000VP6000FT RA BR BKN005 OVC026 16/16 A3014 RMK AO2 SLP206 P0009 T01610156,KISP,2022-10-24T18:56:00Z,40.8,-73.1,16.1,15.6,80,4,,2.5,30.138779,1020.6,,,TRUE,,,,,,RA BR,BKN,500,OVC,2600,,,,,IFR,,,,,,0.09,,,,,,SPECI,25.0
KISO 241856Z 07004KT 10SM CLR 23/14 A3010,KISO,2022-10-24T18:56:00Z,35.32,-77.62,23.0,14.0,70,4,,10.0,30.100393,,,,,,,,,,,CLR,,,,,,,,VFR,,,,,,,,,,,,METAR,27.0
KISM 241856Z 11006KT 10SM CLR 28/18 A3006 RMK AO2 SLP178 T02780183 PNO $,KISM,2022-10-24T18:56:00Z,28.28,-81.43,27.8,18.3,110,6,,10.0,30.059055,1017.8,,,TRUE,TRUE,,,,,,CLR,,,,,,,,VFR,,,,,,,,,,,,METAR,25.0
KINW 241856Z AUTO 35016G24KT 10SM CLR 10/M10 A3018 RMK AO2 SLP200 T01001100,KINW,2022-10-24T18:56:00Z,35.03,-110.72,10.0,-10.0,350,16,24,10.0,30.180119,1020.0,,TRUE,TRUE,,,,,,,CLR,,,,,,,,VFR,,,,,,,,,,,,METAR,1492.0
KHYS 241856Z AUTO 33021G27KT 10SM CLR 14/M04 A2979 RMK AO2 PK WND 34027/1854 SLP086 T01391044 $,KHYS,2022-10-24T18:56:00Z,38.85,-99.27,13.9,-4.4,330,21,27,10.0,29.790354,1008.6,,TRUE,TRUE,TRUE,,,,,,CLR,,,,,,,,VFR,,,,,,,,,,,,METAR,607.0
KHYI 241856Z 19014G19KT 10SM FEW027 BKN060 26/22 A2977 RMK AO2 SLPNO T02600220 $,KHYI,2022-10-24T18:56:00Z,29.88,-97.87,26.0,22.0,190,14,19,10.0,29.769686,,,,TRUE,TRUE,,,,,,FEW,2700,BKN,6000,,,,,VFR,,,,,,,,,,,,METAR,180.0
KHWV 241856Z AUTO 00000KT 10SM BKN004 BKN030 OVC042 17/15 A3014 RMK AO2 RAE09 SLP207 P0001 T01670150,KHWV,2022-10-24T18:56:00Z,40.82,-72.87,16.7,15.0,0,0,,10.0,30.138779,1020.7,,TRUE,TRUE,,,,,,,BKN,400,BKN,3000,OVC,4200,,,LIFR,,,,,,0.01,,,,,,METAR,20.0
KHND 241856Z 04007G14KT 10SM CLR 14/M09 A3027 RMK AO2 SLP263 T01441094,KHND,2022-10-24T18:56:00Z,35.98,-115.13,14.4,-9.4,40,7,14,10.0,30.268702,1026.3,,,TRUE,,,,,,,CLR,,,,,,,,VFR,,,,,,,,,,,,METAR,740.0
KHNB 241856Z AUTO 18011G19KT 10SM CLR 25/09 A2999 RMK AO2 SLP153 T02500094,KHNB,2022-10-24T18:56:00Z,38.25,-86.95,25.0,9.4,180,11,19,10.0,29.991142,1015.3,,TRUE,TRUE,,,,,,,CLR,,,,,,,,VFR,,,,,,,,,,,,METAR,159.0
KHEZ 241856Z AUTO 15011G17KT 10SM SCT075 28/17 A2994 RMK AO2 SLP137 T02830167,KHEZ,2022-10-24T18:56:00Z,31.62,-91.3,28.3,16.7,150,11,17,10.0,29.940945,1013.7,,TRUE,TRUE,,,,,,,SCT,7500,,,,,,,VFR,,,,,,,,,,,,METAR,82.0
KHEF 241856Z 35008KT 10SM OVC027 19/13 A3012 RMK AO2 SLP205 T01940133,KHEF,2022-10-24T18:56:00Z,38.72,-77.52,19.4,13.3,350,8,,10.0,30.121063,1020.5,,,TRUE,,,,,,,OVC,2700,,,,,,,MVFR,,,,,,,,,,,,METAR,53.0
KGXY 241856Z 25014KT 10SM CLR 11/M11 A2987 RMK AO2 SLP119 T01061111 $,KGXY,2022-10-24T18:56:00Z,40.43,-104.62,10.6,-11.1,250,14,,10.0,29.870079,1011.9,,,TRUE,TRUE,,,,,,CLR,,,,,,,,VFR,,,,,,,,,,,,METAR,1420.0
KGVQ 241856Z AUTO 10006KT 10SM CLR 21/12 A3013 RMK AO2 SLP203 T02110117,KGVQ,2022-10-24T18:56:00Z,43.03,-78.17,21.1,11.7,100,6,,10.0,30.129921,1020.3,,TRUE,TRUE,,,,,,,CLR,,,,,,,,VFR,,,,,,,,,,,,METAR,279.0
KGUC 241856Z AUTO 35007G15KT 10SM CLR 01/M13 A3001 RMK AO2 SLP176 T00111133 FZRANO,KGUC,2022-10-24T18:56:00Z,38.52,-106.93,1.1,-13.3,350,7,15,10.0,30.008858,1017.6,,TRUE,TRUE,,,,TRUE,,,CLR,,,,,,,,VFR,,,,,,,,,,,,METAR,2337.0
KGTU 241856Z 18016G20KT 10SM FEW012 BKN015 OVC080 27/22 A2975 RMK AO2 SLP067 T02670217,KGTU,2022-10-24T18:56:00Z,30.68,-97.68,26.7,21.7,180,16,20,10.0,29.749016,1006.7,,,TRUE,,,,,,,FEW,1200,BKN,1500,OVC,8000,,,MVFR,,,,,,,,,,,,METAR,232.0
KGTR 241856Z 15015G19KT 10SM CLR 27/14 A3001 RMK AO2 SLP167 T02720144,KGTR,2022-10-24T18:56:00Z,33.45,-88.58,27.2,14.4,150,15,19,10.0,30.008858,1016.7,,,TRUE,,,,,,,CLR,,,,,,,,VFR,,,,,,,,,,,,METAR,80.0
KGRD 241856Z AUTO 11006KT 10SM CLR 23/05 A3014 RMK AO2 SLP204 T02330050,KGRD,2022-10-24T18:56:00Z,34.25,-82.15,23.3,5.0,110,6,,10.0,30.138779,1020.4,,TRUE,TRUE,,,,,,,CLR,,,,,,,,VFR,,,,,,,,,,,,METAR,188.0
KGPZ 241856Z AUTO 21015G21KT 10SM FEW029 12/06 A2949 RMK AO2 SLP988 T01170056,KGPZ,2022-10-24T18:56:00Z,47.22,-93.52,11.7,5.6,210,15,21,10.0,29.489174,998.8,,TRUE,TRUE,,,,,,,FEW,2900,,,,,,,VFR,,,,,,,,,,,,METAR,410.0
KGON 241856Z 01008KT 4SM BR OVC006 16/14 A3017 RMK AO2 RAE23 SLP217 P0001 T01610144,KGON,2022-10-24T18:56:00Z,41.33,-72.05,16.1,14.4,10,8,,4.0,30.171259,1021.7,,,TRUE,,,,,,BR,OVC,600,,,,,,,IFR,,,,,,0.01,,,,,,METAR,2.0
KGNR 241856Z AUTO 03004KT 13/12 A3026 RMK AO1 SLP253 P0003 T01330122,KGNR,2022-10-24T18:56:00Z,45.47,-69.55,13.3,12.2,30,4,,,30.259842,1025.3,,TRUE,TRUE,,,,,,,,,,,,,,,,,,,,,0.03,,,,,,SPECI,426.0
KGNA 241856Z AUTO VRB03KT 14/12 A2951 RMK AO1 SLP991 T01440117,KGNA,2022-10-24T18:56:00Z,47.75,-90.35,14.4,11.7,0,3,,,29.509842,999.1,,TRUE,TRUE,,,,,,,,,,,,,,,,,,,,,,,,,,,SPECI,186.0
KGBD 241856Z AUTO 35014G22KT 10SM CLR 14/00 A2980 RMK AO2 SLP085 T01390000,KGBD,2022-10-24T18:56:00Z,38.35,-98.87,13.9,0.0,350,14,22,10.0,29.799213,1008.5,,TRUE,TRUE,,,,,,,CLR,,,,,,,,VFR,,,,,,,,,,,,METAR,573.0
KGAI 241856Z AUTO VRB03KT 10SM OVC015 17/13 A3014 RMK AO2 SLP218 T01670133,KGAI,2022-10-24T18:56:00Z,39.17,-77.17,16.7,13.3,0,3,,10.0,30.138779,1021.8,,TRUE,TRUE,,,,,,,OVC,1500,,,,,,,MVFR,,,,,,,,,,,,METAR,151.0
KGAD 241856Z AUTO 14005KT 10SM CLR 25/07 A3009 RMK AO2 SLP192 T02500067 $,KGAD,2022-10-24T18:56:00Z,33.97,-86.08,25.0,6.7,140,5,,10.0,30.088583,1019.2,,TRUE,TRUE,TRUE,,,,,,CLR,,,,,,,,VFR,,,,,,,,,,,,METAR,169.0
KFSD 241856Z 27011G22KT 10SM SCT140 OVC250 08/M02 A2970 RMK AO2 SLP061 T00831022,KFSD,2022-10-24T18:56:00Z,43.58,-96.75,8.3,-2.2,270,11,22,10.0,29.698818,1006.1,,,TRUE,,,,,,,SCT,14000,OVC,25000,,,,,VFR,,,,,,,,,,,,METAR,433.0
KFRM 241856Z AUTO 23007KT 10SM -RA FEW070 OVC090 08/04 A2972 RMK AO2 SLP066 P0000 T00830044,KFRM,2022-10-24T18:56:00Z,43.63,-94.42,8.3,4.4,230,7,,10.0,29.719488,1006.6,,TRUE,TRUE,,,,,,-RA,FEW,7000,OVC,9000,,,,,VFR,,,,,,0.005,,,,,,METAR,353.0
KFOD 241856Z AUTO 30009G17KT 10SM -RA FEW042 OVC090 09/05 A2974 RMK AO2 SLP082 P0000 T00940050,KFOD,2022-10-24T18:56:00Z,42.53,-94.17,9.4,5.0,300,9,17,10.0,29.740158,1008.2,,TRUE,TRUE,,,,,,-RA,FEW,4200,OVC,9000,,,,,VFR,,,,,,0.005,,,,,,METAR,347.0
KFNL 241856Z 00000KT 10SM CLR 11/M09 A2986 RMK AO2 SLP098 T01061094,KFNL,2022-10-24T18:56:00Z,40.45,-105.02,10.6,-9.4,0,0,,10.0,29.861221,1009.8,,,TRUE,,,,,,,CLR,,,,,,,,VFR,,,,,,,,,,,,METAR,1529.0
KFLP 241856Z AUTO VRB06KT 10SM SCT050 BKN070 BKN090 23/16 A2980 RMK AO2 RAE02 SLP084 P0000 T02330161,KFLP,2022-10-24T18:56:00Z,36.28,-92.58,23.3,16.1,0,6,,10.0,29.799213,1008.4,,TRUE,TRUE,,,,,,,SCT,5000,BKN,7000,BKN,9000,,,VFR,,,,,,0.005,,,,,,METAR,215.0
KFKL 241856Z AUTO 12007KT 10SM CLR 22/09 A3012 RMK AO2 SLP199 T02170094,KFKL,2022-10-24T18:56:00Z,41.37,-79.87,21.7,9.4,120,7,,10.0,30.121063,1019.9,,TRUE,TRUE,,,,,,,CLR,,,,,,,,VFR,,,,,,,,,,,,METAR,468.0
KFCI 241856Z AUTO VRB04KT 10SM SCT033 22/14 RMK AO2 SLPNO T02220139 $,KFCI,2022-10-24T18:56:00Z,37.4,-77.52,22.2,13.9,0,4,,10.0,,,,TRUE,TRUE,TRUE,,,,,,SCT,3300,,,,,,,VFR,,,,,,,,,,,,METAR,63.0
KFAM 241856Z AUTO 19016G23KT 10SM OVC032 22/14 A2988 RMK AO2 SLP120 T02220139,KFAM,2022-10-24T18:56:00Z,37.77,-90.42,22.2,13.9,190,16,23,10.0,29.878937,1012.0,,TRUE,TRUE,,,,,,,OVC,3200,,,,,,,VFR,,,,,,,,,,,,METAR,276.0
KEWK 241856Z AUTO 36015KT 10SM -RA OVC009 09/08 A2974 RMK AO2 SLP063 P0001 T00890078,KEWK,2022-10-24T18:56:00Z,38.05,-97.27,8.9,7.8,360,15,,10.0,29.740158,1006.3,,TRUE,TRUE,,,,,,-RA,OVC,900,,,,,,,IFR,,,,,,0.01,,,,,,METAR,468.0
KESC 241856Z AUTO 16012G16KT 10SM CLR 14/11 A2977 RMK AO2 SLP082 T01440106 PNO $,KESC,2022-10-24T18:56:00Z,45.72,-87.08,14.4,10.6,160,12,16,10.0,29.769686,1008.2,,TRUE,TRUE,TRUE,,,,,,CLR,,,,,,,,VFR,,,,,,,,,,,,METAR,180.0
KENV 241856Z AUTO 18007KT 10SM CLR 08/M10 A3022 RMK AO2 SLP243 T00781100,KENV,2022-10-24T18:56:00Z,40.72,-114.02,7.8,-10.0,180,7,,10.0,30.221457,1024.3,,TRUE,TRUE,,,,,,,CLR,,,,,,,,VFR,,,,,,,,,,,,METAR,1291.0
KELZ 241856Z AUTO 00000KT 10SM SCT039 22/11 A3016 RMK AO2 SLP209 T02220106,KELZ,2022-10-24T18:56:00Z,42.1,-77.98,22.2,10.6,0,0,,10.0,30.159449,1020.9,,TRUE,TRUE,,,,,,,SCT,3900,,,,,,,VFR,,,,,,,,,,,,SPECI,639.0
KEKY 241856Z AUTO VRB03KT 10SM CLR 25/08 A3009 RMK AO2 SLP036 T02500083,KEKY,2022-10-24T18:56:00Z,33.32,-86.93,25.0,8.3,0,3,,10.0,30.088583,1003.6,,TRUE,TRUE,,,,,,,CLR,,,,,,,,VFR,,,,,,,,,,,,METAR,213.0
KEKO 241856Z AUTO 25012G20KT 10SM CLR 06/M06 A3025 RMK AO2 SLP258 T00561061,KEKO,2022-10-24T18:56:00Z,40.82,-115.78,5.6,-6.1,250,12,20,10.0,30.250984,1025.8,,TRUE,TRUE,,,,,,,CLR,,,,,,,,VFR,,,,,,,,,,,,SPECI,1541.0
KEHR 241856Z AUTO 19014KT 10SM CLR 26/08 A2996 RMK AO2 SLP144 T02610083,KEHR,2022-10-24T18:56:00Z,37.82,-87.67,26.1,8.3,190,14,,10.0,29.958662,1014.4,,TRUE,TRUE,,,,,,,CLR,,,,,,,,VFR,,,,,,,,,,,,METAR,117.0
KEGE 241856Z 25006KT 10SM OVC070 01/M07 A3008 RMK AO2 SLP096 T00111072,KEGE,2022-10-24T18:56:00Z,39.63,-106.92,1.1,-7.2,250,6,,10.0,30.079725,1009.6,,,TRUE,,,,,,,OVC,7000,,,,,,,VFR,,,,,,,,,,,,METAR,1993.0
KEED 241856Z AUTO 01014G25KT 10SM CLR 19/M07 A3022 RMK AO2 PK WND 01028/1825 SLP215 T01941067,KEED,2022-10-24T18:56:00Z,34.77,-114.62,19.4,-6.7,10,14,25,10.0,30.221457,1021.5,,TRUE,TRUE,,,,,,,CLR,,,,,,,,VFR,,,,,,,,,,,,METAR,271.0
KEAU 241856Z 25008G17KT 10SM -RA BKN020 BKN030 OVC049 16/13 A2963 RMK AO2 PK WND 15029/1758 WSHFT 1833 RAB22 SLP031 P0002 T01610128,KEAU,2022-10-24T18:56:00Z,44.87,-91.48,16.1,12.8,250,8,17,10.0,29.630905,1003.1,,,TRUE,,,,,,-RA,BKN,2000,BKN,3000,OVC,4900,,,MVFR,,,,,,0.02,,,,,,SPECI,271.0
KEAR 241856Z AUTO 31017G23KT 10SM CLR 11/M04 A2977 RMK AO2 SLP081 T01111044,KEAR,2022-10-24T18:56:00Z,40.72,-99.0,11.1,-4.4,310,17,23,10.0,29.769686,1008.1,,TRUE,TRUE,,,,,,,CLR,,,,,,,,VFR,,,,,,,,,,,,METAR,649.0
KDYR 241856Z AUTO 15011G20KT 10SM CLR 25/12 A2994 RMK AO2 SLP143 T02500122,KDYR,2022-10-24T18:56:00Z,36.0,-89.4,25.0,12.2,150,11,20,10.0,29.940945,1014.3,,TRUE,TRUE,,,,,,,CLR,,,,,,,,VFR,,,,,,,,,,,,METAR,98.0
KDWU 241856Z AUTO 07003KT 10SM CLR 26/07 A3009 RMK AO2 SLP188 T02560067,KDWU,2022-10-24T18:56:00Z,38.55,-82.73,25.6,6.7,70,3,,10.0,30.088583,1018.8,,TRUE,TRUE,,,,,,,CLR,,,,,,,,VFR,,,,,,,,,,,,METAR,165.0
KDIK 241856Z AUTO 30026G37KT 10SM UP OVC013 M01/M03 A2957 RMK AO2 PK WND 29037/1759 UPB39SNE39 SLP036 P0000 T10061028,KDIK,2022-10-24T18:56:00Z,46.8,-102.8,-0.6,-2.8,300,26,37,10.0,29.568897,1003.6,,TRUE,TRUE,,,,,,UP,OVC,1300,,,,,,,MVFR,,,,,,0.005,,,,,,SPECI,788.0
KDIJ 241856Z AUTO 20010G14KT 10SM OVC030 02/M04 A3011 RMK AO2 SLP226 T00171044,KDIJ,2022-10-24T18:56:00Z,43.75,-111.1,1.7,-4.4,200,10,14,10.0,30.109253,1022.6,,TRUE,TRUE,,,,,,,OVC,3000,,,,,,,MVFR,,,,,,,,,,,,METAR,1896.0
KDAY 241856Z 20012KT 10SM BKN230 23/04 A3006 RMK AO2 SLP176 T02330044,KDAY,2022-10-24T18:56:00Z,39.9,-84.22,23.3,4.4,200,12,,10.0,30.059055,1017.6,,,TRUE,,,,,,,BKN,23000,,,,,,,VFR,,,,,,,,,,,,SPECI,303.0
KD07 241856Z AUTO 30020G28KT 00/M01 A2968 RMK AO1 PK WND 29030/1841 SLP076 P0002 T00001011,KD07,2022-10-24T18:56:00Z,45.03,-102.02,0.0,-1.1,300,20,28,,29.681103,1007.6,,TRUE,TRUE,,,,,,,,,,,,,,,,,,,,,0.02,,,,,,SPECI,786.0
KCXY 241856Z 32004KT 10SM OVC014 17/13 A3013 RMK AO2 SLP204 T01720128,KCXY,2022-10-24T18:56:00Z,40.22,-76.85,17.2,12.8,320,4,,10.0,30.129921,1020.4,,,TRUE,,,,,,,OVC,1400,,,,,,,MVFR,,,,,,,,,,,,METAR,102.0
KCWI 241856Z AUTO 16012KT 10SM BKN055 22/15 A2974 RMK AO2 SLP069 T02170150,KCWI,2022-10-24T18:56:00Z,41.82,-90.32,21.7,15.0,160,12,,10.0,29.740158,1006.9,,TRUE,TRUE,,,,,,,BKN,5500,,,,,,,VFR,,,,,,,,,,,,METAR,212.0
KCVN 241856Z AUTO 00000KT 10SM OVC047 09/04 A2982 RMK AO2 RAE49 SLP079 P0000 T00890044,KCVN,2022-10-24T18:56:00Z,34.42,-103.07,8.9,4.4,0,0,,10.0,29.819881,1007.9,,TRUE,TRUE,,,,,,,OVC,4700,,,,,,,VFR,,,,,,0.005,,,,,,METAR,1278.0
KCTB 241856Z AUTO 25030G39KT 10SM CLR 02/M03 A2968 RMK AO2 PK WND 25039/1855 PRESFR SLP083 T00221028,KCTB,2022-10-24T18:56:00Z,48.6,-112.37,2.2,-2.8,250,30,39,10.0,29.681103,1008.3,,TRUE,TRUE,,,,,,,CLR,,,,,,,,VFR,,,,,,,,,,,,METAR,1172.0
KCOE 241856Z AUTO 19010KT 10SM -RA OVC018 03/02 A2993 RMK AO2 SLP168 T00280017 PNO $,KCOE,2022-10-24T18:56:00Z,47.77,-116.82,2.8,1.7,190,10,,10.0,29.929134,1016.8,,TRUE,TRUE,TRUE,,,,,-RA,OVC,1800,,,,,,,MVFR,,,,,,,,,,,,METAR,693.0
KCOD 241856Z AUTO 26016G27KT 10SM CLR 07/M11 A2984 RMK AO2 PK WND 26031/1832 SLP111 T00721106,KCOD,2022-10-24T18:56:00Z,44.52,-109.02,7.2,-10.6,260,16,27,10.0,29.840551,1011.1,,TRUE,TRUE,,,,,,,CLR,,,,,,,,VFR,,,,,,,,,,,,METAR,1550.0
KCNW 241856Z 32012KT 3SM -RA OVC006 20/17 A2977,KCNW,2022-10-24T18:56:00Z,31.63,-97.07,20.0,17.0,320,12,,3.0,29.769686,,,,,,,,,,-RA,OVC,600,,,,,,,IFR,,,,,,,,,,,,METAR,139.0
KCIU 241856Z AUTO 14014KT 10SM CLR 18/11 A2991 RMK AO2 SLP127 T01780111,KCIU,2022-10-24T18:56:00Z,46.25,-84.47,17.8,11.1,140,14,,10.0,29.911417,1012.7,,TRUE,TRUE,,,,,,,CLR,,,,,,,,VFR,,,,,,,,,,,,METAR,242.0
KCHS 241856Z 32005KT 10SM FEW250 24/08 A3012 RMK AO2 SLP197 T02390078,KCHS,2022-10-24T18:56:00Z,32.9,-80.03,23.9,7.8,320,5,,10.0,30.121063,1019.7,,,TRUE,,,,,,,FEW,25000,,,,,,,VFR,,,,,,,,,,,,METAR,12.0
KCGZ 241856Z AUTO 10SM CLR 18/M04 RMK AO2 SLPNO T01781039 $,KCGZ,2022-10-24T18:56:00Z,32.95,-111.77,17.8,-3.9,,,,10.0,,,,TRUE,TRUE,TRUE,,,,,,CLR,,,,,,,,VFR,,,,,,,,,,,,METAR,444.0
KCEC 241856Z AUTO 16013G21KT 6SM HZ OVC024 13/08 A3025 RMK AO2 RAB11E55 SLP245 P0001 T01280083,KCEC,2022-10-24T18:56:00Z,41.78,-124.23,12.8,8.3,160,13,21,6.0,30.250984,1024.5,,TRUE,TRUE,,,,,,HZ,OVC,2400,,,,,,,MVFR,,,,,,0.01,,,,,,METAR,17.0
KCAE 241856Z 00000KT 10SM FEW150 23/08 A3013 RMK AO2 SLP201 T02330078,KCAE,2022-10-24T18:56:00Z,33.93,-81.12,23.3,7.8,0,0,,10.0,30.129921,1020.1,,,TRUE,,,,,,,FEW,15000,,,,,,,VFR,,,,,,,,,,,,METAR,69.0
KBZN 241856Z 06006KT 10SM SCT085 04/M05 A2994 RMK AO2 SLP159 T00391050,KBZN,2022-10-24T18:56:00Z,45.78,-111.17,3.9,-5.0,60,6,,10.0,29.940945,1015.9,,,TRUE,,,,,,,SCT,8500,,,,,,,VFR,,,,,,,,,,,,METAR,1349.0
KBVX 241856Z AUTO 18011G20KT 10SM CLR 26/16 A2985 RMK AO2 SLP105 T02610156,KBVX,2022-10-24T18:56:00Z,35.73,-91.65,26.1,15.6,180,11,20,10.0,29.84941,1010.5,,TRUE,TRUE,,,,,,,CLR,,,,,,,,VFR,,,,,,,,,,,,METAR,137.0
KBTP 241856Z AUTO VRB04KT 10SM CLR 21/07 A3013 RMK AO2 SLP207 T02110067 TSNO,KBTP,2022-10-24T18:56:00Z,40.77,-79.95,21.1,6.7,0,4,,10.0,30.129921,1020.7,,TRUE,TRUE,,,TRUE,,,,CLR,,,,,,,,VFR,,,,,,,,,,,,METAR,375.0
KBMI 241856Z 18024G29KT 10SM FEW060 24/14 A2984 RMK AO2 PK WND 17030/1801 SLP099 T02390144,KBMI,2022-10-24T18:56:00Z,40.47,-88.92,23.9,14.4,180,24,29,10.0,29.840551,1009.9,,,TRUE,,,,,,,FEW,6000,,,,,,,VFR,,,,,,,,,,,,METAR,262.0
KBLM 241856Z AUTO 03008KT 1 1/4SM BR OVC002 A3013 RMK AO2 RAB01E27UPB10E39 SLPNO P0000 FZRANO $,KBLM,2022-10-24T18:56:00Z,40.17,-74.12,,,30,8,,1.25,30.129921,,,TRUE,TRUE,TRUE,,,TRUE,,BR,OVC,200,,,,,,,LIFR,,,,,,0.005,,,,,,METAR,45.0
KBKX 241856Z AUTO 25020G24KT 10SM CLR A2965 RMK AO2 SLPNO FZRANO $,KBKX,2022-10-24T18:56:00Z,44.3,-96.82,,,250,20,24,10.0,29.648623,,,TRUE,TRUE,TRUE,,,TRUE,,,CLR,,,,,,,,VFR,,,,,,,,,,,,METAR,494.0
KBJJ 241856Z AUTO 17009KT 10SM CLR 23/07 A3010 RMK AO2 SLP192 T02330072,KBJJ,2022-10-24T18:56:00Z,40.87,-81.88,23.3,7.2,170,9,,10.0,30.100393,1019.2,,TRUE,TRUE,,,,,,,CLR,,,,,,,,VFR,,,,,,,,,,,,SPECI,338.0
KBIH 241856Z AUTO VRB04KT 10SM CLR 14/M14 A3021 RMK AO2 SLP213 T01441144,KBIH,2022-10-24T18:56:00Z,37.37,-118.35,14.4,-14.4,0,4,,10.0,30.209646,1021.3,,TRUE,TRUE,,,,,,,CLR,,,,,,,,VFR,,,,,,,,,,,,METAR,1252.0
KASH 241856Z 31008KT 5SM BR OVC004 14/ A3024 RMK AO2 TSE1759RAE17 SLP245 P0000 T0139 $,KASH,2022-10-24T18:56:00Z,42.78,-71.52,13.9,,310,8,,5.0,30.239174,1024.5,,,TRUE,TRUE,,,,,BR,OVC,400,,,,,,,LIFR,,,,,,0.005,,,,,,METAR,56.0
KARG 241856Z AUTO 18019G27KT 10SM OVC070 25/14 A2987 RMK AO2 PK WND 17027/1852 SLP115 T02500139,KARG,2022-10-24T18:56:00Z,36.12,-90.92,25.0,13.9,180,19,27,10.0,29.870079,1011.5,,TRUE,TRUE,,,,,,,OVC,7000,,,,,,,VFR,,,,,,,,,,,,METAR,82.0
KAND 241856Z AUTO VRB03KT 10SM CLR 24/05 A3014 RMK AO2 SLP200 T02390050,KAND,2022-10-24T18:56:00Z,34.5,-82.72,23.9,5.0,0,3,,10.0,30.138779,1020.0,,TRUE,TRUE,,,,,,,CLR,,,,,,,,VFR,,,,,,,,,,,,METAR,233.0
KALK 241856Z AUTO 34013G19KT 10SM CLR 13/M09 A3016 RMK AO2 SLP154 T01281094,KALK,2022-10-24T18:56:00Z,31.6,-110.43,12.8,-9.4,340,13,19,10.0,30.159449,1015.4,,TRUE,TRUE,,,,,,,CLR,,,,,,,,VFR,,,,,,,,,,,,METAR,1451.0
KAJO 241856Z AUTO 01007KT 10SM CLR 23/M02 A3016 RMK AO2 SLP208 T02281017,KAJO,2022-10-24T18:56:00Z,33.9,-117.6,22.8,-1.7,10,7,,10.0,30.159449,1020.8,,TRUE,TRUE,,,,,,,CLR,,,,,,,,VFR,,,,,,,,,,,,METAR,161.0
KAIZ 241856Z AUTO 18009G21KT 10SM -RA OVC026 22/17 RMK AO2 PK WND 16027/1843 RAB49 SLPNO P0000 T02170167 $,KAIZ,2022-10-24T18:56:00Z,38.1,-92.53,21.7,16.7,180,9,21,10.0,,,,TRUE,TRUE,TRUE,,,,,-RA,OVC,2600,,,,,,,MVFR,,,,,,0.005,,,,,,METAR,263.0
KAFJ 241856Z AUTO 06005KT 8SM CLR 22/06 A3014 RMK AO2 SLP207 T02220061,KAFJ,2022-10-24T18:56:00Z,40.13,-80.28,22.2,6.1,60,5,,8.0,30.138779,1020.7,,TRUE,TRUE,,,,,,,CLR,,,,,,,,VFR,,,,,,,,,,,,METAR,360.0
KADF 241856Z AUTO 16009G19KT 10SM CLR 27/17 A2982 RMK AO2 SLP094 T02670172,KADF,2022-10-24T18:56:00Z,34.1,-93.07,26.7,17.2,160,9,19,10.0,29.819881,1009.4,,TRUE,TRUE,,,,,,,CLR,,,,,,,,VFR,,,,,,,,,,,,METAR,54.0
KACT 241856Z 36015KT 4SM RA BR SCT007 SCT012 OVC018 17/16 A2976 RMK AO2 P0001 T01720161,KACT,2022-10-24T18:56:00Z,31.62,-97.23,17.2,16.1,360,15,,4.0,29.760826,,,,TRUE,,,,,,RA BR,SCT,700,SCT,1200,OVC,1800,,,MVFR,,,,,,0.01,,,,,,METAR,150.0
K8D3 241856Z AUTO 25023G36KT 09/00 A2955 RMK AO1 PK WND 24036/1817 SLP003 T00940000,K8D3,2022-10-24T18:56:00Z,45.67,-96.98,9.4,0.0,250,23,36,,29.551182,1000.3,,TRUE,TRUE,,,,,,,,,,,,,,,,,,,,,,,,,,,METAR,535.0
K7N0 241856Z AUTO 16009G15KT 120V190 10SM FEW039 SCT070 28/18 A3000 RMK AO2 SLP156 T02780183 PNO $,K7N0,2022-10-24T18:56:00Z,29.95,-90.07,27.8,18.3,160,9,15,10.0,30.0,1015.6,,TRUE,TRUE,TRUE,,,,,,FEW,3900,SCT,7000,,,,,VFR,,,,,,,,,,,,METAR,0.0
K79J 241856Z AUTO 09004KT 10SM CLR 29/11 A3007 RMK AO2 SLP179 T02940111,K79J,2022-10-24T18:56:00Z,31.32,-86.4,29.4,11.1,90,4,,10.0,30.070866,1017.9,,TRUE,TRUE,,,,,,,CLR,,,,,,,,VFR,,,,,,,,,,,,SPECI,93.0
K2WX 241856Z AUTO 30031G41KT 00/M02 A2964 RMK AO1 PK WND 29046/1759 SLP061 T00001022,K2WX,2022-10-24T18:56:00Z,45.6,-103.55,0.0,-2.2,300,31,41,,29.639763,1006.1,,TRUE,TRUE,,,,,,,,,,,,,,,,,,,,,,,,,,,SPECI,925.0
K1M4 241856Z AUTO 17009KT 10SM CLR 24/09 A3008 RMK AO2 SLP170 T02440089,K1M4,2022-10-24T18:56:00Z,34.28,-87.6,24.4,8.9,170,9,,10.0,30.079725,1017.0,,TRUE,TRUE,,,,,,,CLR,,,,,,,,VFR,,,,,,,,,,,,METAR,283.0
TXKF 241855Z 05011KT 9999 FEW014 BKN130 BKN300 26/23 Q1014 ,TXKF,2022-10-24T18:55:00Z,32.37,-64.68,26.0,23.0,50,11,,6.21,29.940945,,,,,,,,,,,FEW,1400,BKN,13000,BKN,30000,,,VFR,,,,,,,,,,,,METAR,4.0
TNCE 241855Z AUTO 08008KT 050V110 //// // ///////// 30/25 Q1012 RE//,TNCE,2022-10-24T18:55:00Z,17.48,-62.97,30.0,25.0,80,8,,,29.88189,,,TRUE,,,,,,,,,,,,,,,,,,,,,,,,,,,,METAR,38.0
TNCB 241855Z 09008KT 070V130 CAVOK 29/24 Q1010,TNCB,2022-10-24T18:55:00Z,12.13,-68.28,29.0,24.0,90,8,,6.21,29.822834,,,,,,,,,,,CAVOK,,,,,,,,VFR,,,,,,,,,,,,METAR,6.0
RODN 241855Z AUTO 01012KT 10SM BKN045 BKN050 21/13 A3001 RMK AO2 SLP168 T02130129 $,RODN,2022-10-24T18:55:00Z,26.35,127.77,21.3,12.9,10,12,,10.0,30.008858,1016.8,,TRUE,TRUE,TRUE,,,,,,BKN,4500,BKN,5000,,,,,VFR,,,,,,,,,,,,METAR,38.0
RKSO 241855Z AUTO 00000KT 10SM CLR 02/02 A3033 RMK AO2 SLP275 T00180017 TSNO CHINO RWY09 $,RKSO,2022-10-24T18:55:00Z,37.08,127.02,1.8,1.7,0,0,,10.0,30.33071,1027.5,,TRUE,TRUE,TRUE,,TRUE,,,,CLR,,,,,,,,VFR,,,,,,,,,,,,METAR,10.0
RKSG 241855Z AUTO 00000KT 10SM CLR 03/03 A3031 RMK AO2 SLP268 T00330027 TSNO $,RKSG,2022-10-24T18:55:00Z,36.97,127.02,3.3,2.7,0,0,,10.0,30.31004,1026.8,,TRUE,TRUE,TRUE,,TRUE,,,,CLR,,,,,,,,VFR,,,,,,,,,,,,METAR,12.0
RKJK 241855Z 00000KT 10SM CLR 05/M02 A3028 RMK AO2A SLP258 T00511023 $,RKJK,2022-10-24T18:55:00Z,35.9,126.62,5.1,-2.3,0,0,,10.0,30.280512,1025.8,,,TRUE,TRUE,,,,,,CLR,,,,,,,,VFR,,,,,,,,,,,,METAR,8.0
RJTY 241855Z AUTO 34009KT 10SM BKN075 10/06 A3005 RMK AO2 RAE25DZB25E26 SLP181 P0004 T00950060 $,RJTY,2022-10-24T18:55:00Z,35.75,139.33,9.5,6.0,340,9,,10.0,30.050198,1018.1,,TRUE,TRUE,TRUE,,,,,,BKN,7500,,,,,,,VFR,,,,,,0.04,,,,,,METAR,136.0
PWAK 241855Z AUTO 06019KT 9999 FEW027 27/22 A2999 RMK AO2 SLP162 T02710218 $,PWAK,2022-10-24T18:55:00Z,19.28,166.62,27.1,21.8,60,19,,6.21,29.991142,1016.2,,TRUE,TRUE,TRUE,,,,,,FEW,2700,,,,,,,VFR,,,,,,,,,,,,METAR,7.0
PKMR 241855Z 08009KT 15SM FEW015 FEW050 SCT300 27/22 A2985 RMK SLP110 T02740219,PKMR,2022-10-24T18:55:00Z,7.08,171.38,27.4,21.9,80,9,,15.0,29.84941,1011.0,,,,,,,,,,FEW,1500,FEW,5000,SCT,30000,,,VFR,,,,,,,,,,,,METAR,7.0
PATL 241855Z AUTO 00000KT 10SM BKN070 OVC110 M06/M06 A2993 RMK AO2 SLP156 T10561059 TSNO $,PATL,2022-10-24T18:55:00Z,62.9,-155.97,-5.6,-5.9,0,0,,10.0,29.929134,1015.6,,TRUE,TRUE,TRUE,,TRUE,,,,BKN,7000,OVC,11000,,,,,VFR,,,,,,,,,,,,METAR,261.0
PATC 241855Z AUTO 26009KT OVC020 00/M03 A2987 RMK AO2 SLP119 T10031035 PWINO FZRANO $,PATC,2022-10-24T18:55:00Z,65.57,-167.92,-0.3,-3.5,260,9,,,29.870079,1011.9,,TRUE,TRUE,TRUE,,,TRUE,TRUE,,OVC,2000,,,,,,,,,,,,,,,,,,,METAR,77.0
PASY 241855Z 22010KT 2SM -RA BR OVC002 09/08 A2964 RMK AO2A SLP039 ALSTG/SLP ESTMD WND DATA ESTMD T00860080 RVRNO PNO $,PASY,2022-10-24T18:55:00Z,52.72,174.12,8.6,8.0,220,10,,2.0,29.639763,1003.9,,,TRUE,TRUE,,,,,-RA BR,OVC,200,,,,,,,LIFR,,,,,,,,,,,,SPECI,6.0
PAIM 241855Z AUTO 00000KT 10SM OVC015 M06/M07 A2990 RMK AO2 SLP153 T10581073,PAIM,2022-10-24T18:55:00Z,66.0,-153.7,-5.8,-7.3,0,0,,10.0,29.899607,1015.3,,TRUE,TRUE,,,,,,,OVC,1500,,,,,,,MVFR,,,,,,,,,,,,METAR,309.0
PAFR 241855Z AUTO 00000KT 10SM CLR M07/M08 A2978 RMK AO2 SLP096 T10661083 VISNO RWY35 CHINO RWY35 $,PAFR,2022-10-24T18:55:00Z,61.27,-149.65,-6.6,-8.3,0,0,,10.0,29.778543,1009.6,,TRUE,TRUE,TRUE,,,,,,CLR,,,,,,,,VFR,,,,,,,,,,,,SPECI,106.0
PAEI 241855Z 00000KT 1/4SM R32/2200V2400FT FZFG VV002 M06/M07 A2989 RMK AO2A SLP133 T10621072,PAEI,2022-10-24T18:55:00Z,64.67,-147.1,-6.2,-7.2,0,0,,0.25,29.890747,1013.3,,,TRUE,,,,,,FZFG,OVX,0,,,,,,,LIFR,,,,,,,,,,,200,METAR,166.0
PAED 241855Z 36006KT 10SM SCT200 M03/M06 A2981 RMK AO2A SLP093 T10341062 $,PAED,2022-10-24T18:55:00Z,61.25,-149.83,-3.4,-6.2,360,6,,10.0,29.811024,1009.3,,,TRUE,TRUE,,,,,,SCT,20000,,,,,,,VFR,,,,,,,,,,,,SPECI,54.0
PACZ 241855Z 32016KT 10SM BKN026 01/M04 A3000 RMK AO2A SLP166,PACZ,2022-10-24T18:55:00Z,61.78,-166.03,1.0,-4.0,320,16,,10.0,30.0,1016.6,,,TRUE,,,,,,,BKN,2600,,,,,,,MVFR,,,,,,,,,,,,METAR,129.0
OTBH 241855Z AUTO M 9999 M M A2989,OTBH,2022-10-24T18:55:00Z,25.12,51.32,,,,,,6.21,29.890747,,,TRUE,,,,,,,,,,,,,,,,,,,,,,,,,,,,METAR,40.0
OPFA 241855Z 00000KT 4000 FU NSC 22/17 Q1010 NOSIG,OPFA,2022-10-24T18:55:00Z,31.37,73.0,22.0,17.0,0,0,,2.49,29.822834,,,,,,TRUE,,,,FU,CLR,,,,,,,,IFR,,,,,,,,,,,,METAR,180.0
NZFX 241855Z 06015KT 9999 DRSN FEW060 BKN100 M25/M29 A2951 RMK SLP987 LSR11 GRID23015KT SDG/HDG,NZFX,2022-10-24T18:55:00Z,-77.95,166.77,-25.0,-29.0,60,15,,6.21,29.509842,998.7,,,,,,,,,DRSN,FEW,6000,BKN,10000,,,,,VFR,,,,,,,,,,,,METAR,10.0
NZCM 241855Z AUTO 06014G27KT 9999 CLR M24/M31 A2947 RMK AO2 PK WND 06029/1817 SLP987 T12391310 $,NZCM,2022-10-24T18:55:00Z,-77.85,166.67,-23.9,-31.0,60,14,27,6.21,29.471457,998.7,,TRUE,TRUE,TRUE,,,,,,CLR,,,,,,,,VFR,,,,,,,,,,,,METAR,24.0
LIVT 241855Z AUTO VRB03KT //// 20/15 Q1017,LIVT,2022-10-24T18:55:00Z,45.68,13.75,20.0,15.0,0,3,,,30.029528,,,TRUE,,,,,,,,,,,,,,,,,,,,,,,,,,,,SPECI,20.0
LIVP 241855Z 18015KT 0000 -RA FG VV/// 07/07 Q1022 RMK MON INVIS VAL INVIS VIS MIN 0000,LIVP,2022-10-24T18:55:00Z,46.15,11.03,7.0,7.0,180,15,,0.0,30.177166,,,,,,,,,,-RA FG,OVX,0,,,,,,,LIFR,,,,,,,,,,,,SPECI,2099.0
LIVM 241855Z AUTO VRB02KT //// 21/18 Q1017,LIVM,2022-10-24T18:55:00Z,44.45,12.3,21.0,18.0,0,2,,,30.029528,,,TRUE,,,,,,,,,,,,,,,,,,,,,,,,,,,,SPECI,6.0
LIVF 241855Z 14006G16KT 080V200 9999 FEW028 18/12 Q1020,LIVF,2022-10-24T18:55:00Z,43.52,12.72,18.0,12.0,140,6,16,6.21,30.11811,,,,,,,,,,,FEW,2800,,,,,,,VFR,,,,,,,,,,,,METAR,549.0
LIVE 241855Z 02006KT 5000 BR SCT025 08/04 Q1021 RMK BKN BKN080 VIS MIN 5000,LIVE,2022-10-24T18:55:00Z,46.82,10.5,8.0,4.0,20,6,,3.11,30.147638,,,,,,,,,,BR,SCT,2500,,,,,,,MVFR,,,,,,,,,,,,METAR,1684.0
LIVD 241855Z AUTO 11002KT //// 10/10 Q1023,LIVD,2022-10-24T18:55:00Z,46.72,12.22,10.0,10.0,110,2,,,30.206694,,,TRUE,,,,,,,,,,,,,,,,,,,,,,,,,,,,SPECI,1221.0
LIRS 241855Z 14008KT 9000 FEW015 SCT025 20/18 Q1019 RMK BKN VIS MIN 9000 WIND,LIRS,2022-10-24T18:55:00Z,42.75,11.07,20.0,18.0,140,8,,5.59,30.088583,,,,,,,,,,,FEW,1500,SCT,2500,,,,,VFR,,,,,,,,,,,,SPECI,3.0
LIRM 241855Z 05003KT 7000 SCT070 17/15 Q1023 RMK SCT VIS MIN 7000 WIND THR06 06003KT WHT,LIRM,2022-10-24T18:55:00Z,41.05,14.07,17.0,15.0,50,3,,4.35,30.206694,,,,,,,,,,,SCT,7000,,,,,,,MVFR,,,,,,,,,,,,SPECI,6.0
LIRK 241855Z AUTO 29011KT //// 11/M01 Q1032,LIRK,2022-10-24T18:55:00Z,42.47,12.97,11.0,-1.0,290,11,,,30.47244,,,TRUE,,,,,,,,,,,,,,,,,,,,,,,,,,,,SPECI,1721.0
LIRE 241855Z 12009KT CAVOK 21/19 Q1021 RMK SKC VIS MIN 9999 WIND THR13 12009KT WIND THR31 /////KT BLU,LIRE,2022-10-24T18:55:00Z,41.65,12.43,21.0,19.0,120,9,,6.21,30.147638,,,,,,,,,,,CAVOK,,,,,,,,VFR,,,,,,,,,,,,SPECI,16.0
LIQO 241855Z AUTO /////KT //// ///// Q////,LIQO,2022-10-24T18:55:00Z,42.38,11.17,,,,,,,,,,TRUE,,,,,,,,,,,,,,,,,,,,,,,,,,,,SPECI,627.0
LIQC 241855Z 00000KT CAVOK 18/16 Q1023 RMK SKC QUK / QUL / VIS MAR 15 KM VIS MIN 9999,LIQC,2022-10-24T18:55:00Z,40.55,14.2,18.0,16.0,0,0,,6.21,30.206694,,,,,,,,,,,CAVOK,,,,,,,,VFR,,,,,,,,,,,,SPECI,154.0
LIPS 241855Z /////KT 9999 BKN015 20/18 Q1018 RMK BKN VIS MIN 9999 WIND THR26 02004KT WIND THR08 06006KT WHT,LIPS,2022-10-24T18:55:00Z,45.68,12.1,20.0,18.0,,,,6.21,30.059055,,,,,,,,,,,BKN,1500,,,,,,,MVFR,,,,,,,,,,,,SPECI,42.0
LIPL 241855Z 07008KT 6000 FEW070 19/17 Q1016 RMK FEW VIS MIN 6000 WIND THR31 06008KT WIND THR13 06009KT WHT,LIPL,2022-10-24T18:55:00Z,45.42,10.27,19.0,17.0,70,8,,3.73,30.0,,,,,,,,,,,FEW,7000,,,,,,,MVFR,,,,,,,,,,,,SPECI,96.0
LIPI 241855Z 15007KT 6000 SCT010 BKN020 19/17 Q1017 RMK OVC VIS MIN 6000 WIND THR06 18006KT WIND THR24 15004KT WHT,LIPI,2022-10-24T18:55:00Z,45.97,13.05,19.0,17.0,150,7,,3.73,30.029528,,,,,,,,,,,SCT,1000,BKN,2000,,,,,MVFR,,,,,,,,,,,,SPECI,49.0
LIPC 241855Z 03002KT CAVOK 19/17 Q1017 RMK FEW FEW200 VIS MIN 9999 WIND THR11 04003KT WIND THR29 02002KT BLU,LIPC,2022-10-24T18:55:00Z,44.22,12.3,19.0,17.0,30,2,,6.21,30.029528,,,,,,,,,,,CAVOK,,,,,,,,VFR,,,,,,,,,,,,SPECI,10.0
LIPA 241855Z 16004KT 9000 BKN035 18/17 Q1017 RMK BKN VIS MIN 9000 WIND THR05 /////KT WIND THR23 /////KT A3006 BLU,LIPA,2022-10-24T18:55:00Z,46.02,12.58,18.0,17.0,160,4,,5.59,30.029528,,,,,,,,,,,BKN,3500,,,,,,,VFR,,,,,,,,,,,,SPECI,113.0
LIMU 241855Z ///12KT 2000 BR BKN010 20/17 Q1018 RMK OVC QUK / QUL / VIS MAR 2000 M VIS MIN 2000,LIMU,2022-10-24T18:55:00Z,43.95,8.17,20.0,17.0,,,,1.24,30.059055,,,,,,,,,,BR,BKN,1000,,,,,,,IFR,,,,,,,,,,,,SPECI,215.0
LIMS 241855Z 26010KT CAVOK 21/16 Q1014 RMK SKC VIS MIN 9999 WIND THR30 18005KT BLU,LIMS,2022-10-24T18:55:00Z,44.92,9.72,21.0,16.0,260,10,,6.21,29.940945,,,,,,,,,,,CAVOK,,,,,,,,VFR,,,,,,,,,,,,SPECI,132.0
LIED 241855Z 09002KT 9999 FEW004 21/19 Q1020 RMK FEW VIS MIN 9999 WIND THR35 /////KT WIND THR17 08002KT BLU,LIED,2022-10-24T18:55:00Z,39.35,8.97,21.0,19.0,90,2,,6.21,30.11811,,,,,,,,,,,FEW,400,,,,,,,VFR,,,,,,,,,,,,SPECI,26.0
LIEB 241855Z 35004KT CAVOK 21/17 Q1019 RMK SCT SCT200 QUK / QUL / VIS MAR 20 KM MON INVIS VIS MIN 9999,LIEB,2022-10-24T18:55:00Z,39.93,9.72,21.0,17.0,350,4,,6.21,30.088583,,,,,,,,,,,CAVOK,,,,,,,,VFR,,,,,,,,,,,,SPECI,126.0
LICZ 241855Z /////KT CAVOK 21/18 Q1021,LICZ,2022-10-24T18:55:00Z,37.4,14.92,21.0,18.0,,,,6.21,30.147638,,,,,,,,,,,CAVOK,,,,,,,,VFR,,,,,,,,,,,,METAR,22.0
LICT 241855Z 15008KT CAVOK 21/19 Q1022 RMK SKC VIS MIN 9999 WIND THR13 16007KT BLU,LICT,2022-10-24T18:55:00Z,37.92,12.5,21.0,19.0,150,8,,6.21,30.177166,,,,,,,,,,,CAVOK,,,,,,,,VFR,,,,,,,,,,,,SPECI,4.0
LICF 241855Z 01002KT CAVOK 22/01 Q1023 RMK SKC QUK / QUL / VIS MAR 20 KM MON INVIS NC VIS MIN 9999,LICF,2022-10-24T18:55:00Z,38.2,15.55,22.0,1.0,10,2,,6.21,30.206694,,,,,,,,,,,CAVOK,,,,,,,,VFR,,,,,,,,,,,,SPECI,66.0
LIBV 241855Z 08005KT 7000 NSC 17/16 Q1020 RMK FEW FEW200 VIS MIN 7000 WIND THR32 10005KT WIND THR14 09003KT WHT,LIBV,2022-10-24T18:55:00Z,40.77,16.93,17.0,16.0,80,5,,4.35,30.11811,,,,,,,,,,,CLR,,,,,,,,MVFR,,0.5,,,,,,,,,,SPECI,344.0
LIBQ 241855Z AUTO 25005KT //// 15/M14 Q1029,LIBQ,2022-10-24T18:55:00Z,39.32,16.38,15.0,-14.0,250,5,,,30.383858,,,TRUE,,,,,,,,,,,,,,,,,,,,,,,,,,,,SPECI,1660.0
LIBN 241855Z 17004KT 4000 BR SCT006 18/17 Q1020 RMK SCT VIS MIN 4000 WIND THR14 17005KT WIND THR32 19006KT GRN,LIBN,2022-10-24T18:55:00Z,40.23,18.13,18.0,17.0,170,4,,2.49,30.11811,,,,,,,,,,BR,SCT,600,,,,,,,IFR,,,,,,,,,,,,SPECI,46.0
LIBA 241855Z 27006KT CAVOK 18/15 Q1020 RMK SKC VIS MIN 9999 WIND THR11 27006KT WIND THR29 /////KT BLU,LIBA,2022-10-24T18:55:00Z,41.53,15.72,18.0,15.0,270,6,,6.21,30.11811,,,,,,,,,,,CAVOK,,,,,,,,VFR,,,,,,,,,,,,SPECI,55.0
KXNO 241855Z AUTO 00000KT 10SM CLR 24/06 A3014 RMK AO2 SLP208 T02390062 $,KXNO,2022-10-24T18:55:00Z,33.62,-81.07,23.9,6.2,0,0,,10.0,30.138779,1020.8,,TRUE,TRUE,TRUE,,,,,,CLR,,,,,,,,VFR,,,,,,,,,,,,METAR,94.0
KXMR 241855Z AUTO 05007KT 10SM CLR 27/17 A3004 RMK AO2 SLP176 T02740172 $,KXMR,2022-10-24T18:55:00Z,28.47,-80.57,27.4,17.2,50,7,,10.0,30.041338,1017.6,,TRUE,TRUE,TRUE,,,,,,CLR,,,,,,,,VFR,,,,,,,,,,,,METAR,5.0
KXIF 241855Z AUTO 06007KT 3SM HZ BKN021 OVC031 17/12 A3012 RMK AO2 LTG DSNT SE-S SLP202 T01670124 $,KXIF,2022-10-24T18:55:00Z,,,16.7,12.4,60,7,,3.0,30.121063,1020.2,,TRUE,TRUE,TRUE,,,,,HZ,BKN,2100,OVC,3100,,,,,MVFR,,,,,,,,,,,,METAR,
KWRB 241855Z AUTO 25003KT 10SM CLR 26/10 A3010 RMK AO2 SLP194 T02630096,KWRB,2022-10-24T18:55:00Z,32.63,-83.58,26.3,9.6,250,3,,10.0,30.100393,1019.4,,TRUE,TRUE,,,,,,,CLR,,,,,,,,VFR,,,,,,,,,,,,METAR,82.0
KVPS 241855Z AUTO 15011KT 10SM CLR 27/16 A3005 RMK AO2 SLP182 T02650161 $,KVPS,2022-10-24T18:55:00Z,30.47,-86.52,26.5,16.1,150,11,,10.0,30.050198,1018.2,,TRUE,TRUE,TRUE,,,,,,CLR,,,,,,,,VFR,,,,,,,,,,,,METAR,21.0
KVOK 241855Z 18009KT 10SM OVC049 20/14 A2967 RMK AO2A SLP047,KVOK,2022-10-24T18:55:00Z,43.93,-90.27,20.0,14.0,180,9,,10.0,29.66929,1004.7,,,TRUE,,,,,,,OVC,4900,,,,,,,VFR,,,,,,,,,,,,METAR,278.0
KVBG 241855Z 27004KT 10SM CLR 20/01 A3020 RMK AO2A SLP229 T02010005,KVBG,2022-10-24T18:55:00Z,34.73,-120.58,20.1,0.5,270,4,,10.0,30.200787,1022.9,,,TRUE,,,,,,,CLR,,,,,,,,VFR,,,,,,,,,,,,METAR,96.0
KVAD 241855Z AUTO 00000KT 10SM CLR 26/11 A3009 RMK AO2 SLP191 T02590112 $,KVAD,2022-10-24T18:55:00Z,30.97,-83.2,25.9,11.2,0,0,,10.0,30.088583,1019.1,,TRUE,TRUE,TRUE,,,,,,CLR,,,,,,,,VFR,,,,,,,,,,,,METAR,70.0
KUGN 241855Z 15007KT 10SM CLR 19/12 A2982 RMK AO2 SLP090 T01940117,KUGN,2022-10-24T18:55:00Z,42.42,-87.87,19.4,11.7,150,7,,10.0,29.819881,1009.0,,,TRUE,,,,,,,CLR,,,,,,,,VFR,,,,,,,,,,,,METAR,217.0
KTTS 241855Z AUTO 07009KT 10SM SCT038 27/17 A3004 RMK AO2 VIS 3/4 RWY15/33 SLP177 T02730171 $,KTTS,2022-10-24T18:55:00Z,28.58,-80.67,27.3,17.1,70,9,,10.0,30.041338,1017.7,,TRUE,TRUE,TRUE,,,,,,SCT,3800,,,,,,,VFR,,,,,,,,,,,,METAR,1.0
KTIK 241855Z 36010KT 10SM OVC008 12/12 A2973 RMK AO2A CIG 007 RWY13 SLP068 T01240122,KTIK,2022-10-24T18:55:00Z,35.4,-97.38,12.4,12.2,360,10,,10.0,29.731298,1006.8,,,TRUE,,,,,,,OVC,800,,,,,,,IFR,,,,,,,,,,,,METAR,387.0
KTFP 241855Z AUTO 19017G25KT 10SM SCT018 SCT025 30/23 A2974 RMK AO2 T02950234,KTFP,2022-10-24T18:55:00Z,27.92,-97.22,29.5,23.4,190,17,25,10.0,29.740158,,,TRUE,TRUE,,,,,,,SCT,1800,SCT,2500,,,,,VFR,,,,,,,,,,,,SPECI,5.0
KTDR 241855Z AUTO 18010KT 10SM CLR 29/20 A3004 RMK AO2 SLP176 T02910197 $,KTDR,2022-10-24T18:55:00Z,30.05,-85.52,29.1,19.7,180,10,,10.0,30.041338,1017.6,,TRUE,TRUE,TRUE,,,,,,CLR,,,,,,,,VFR,,,,,,,,,,,,METAR,4.0
KTCM 241855Z AUTO 22014G22KT 10SM CLR 12/10 A2995 RMK AO2 SLP146 T01190098 $,KTCM,2022-10-24T18:55:00Z,47.13,-122.47,11.9,9.8,220,14,22,10.0,29.949802,1014.6,,TRUE,TRUE,TRUE,,,,,,CLR,,,,,,,,VFR,,,,,,,,,,,,METAR,87.0
KTBN 241855Z AUTO 16013G26KT 10SM OVC022 21/15 A2977 RMK AO2 PK WND 15027/32 CIG 021 RWY33 SLP075 T02060147,KTBN,2022-10-24T18:55:00Z,37.73,-92.13,20.6,14.7,160,13,26,10.0,29.769686,1007.5,,TRUE,TRUE,,,,,,,OVC,2200,,,,,,,MVFR,,,,,,,,,,,,METAR,349.0
KT70 241855Z AUTO 05009KT 10SM CLR 29/20 A2969 RMK AO2 SLP041 T02910202 $,KT70,2022-10-24T18:55:00Z,29.12,-100.48,29.1,20.2,50,9,,10.0,29.68996,1004.1,,TRUE,TRUE,TRUE,,,,,,CLR,,,,,,,,VFR,,,,,,,,,,,,METAR,296.0
KSZL 241855Z 16013KT 4SM -RA BKN007 OVC013 19/18 A2961 RMK AO2A SLP024 P0018 T01870177,KSZL,2022-10-24T18:55:00Z,38.73,-93.53,18.7,17.7,160,13,,4.0,29.610237,1002.4,,,TRUE,,,,,,-RA,BKN,700,OVC,1300,,,,,IFR,,,,,,0.18,,,,,,SPECI,259.0
KSXS 241855Z AUTO 18003KT 8SM CLR 27/10 A3006 RMK AO2 SLP179 T02670095 $,KSXS,2022-10-24T18:55:00Z,31.37,-85.85,26.7,9.5,180,3,,8.0,30.059055,1017.9,,TRUE,TRUE,TRUE,,,,,,CLR,,,,,,,,VFR,,,,,,,,,,,,METAR,120.0
KSVN 241855Z AUTO 34005KT 10SM CLR 26/10 A3009 RMK AO2 SLP193 T02560098 $,KSVN,2022-10-24T18:55:00Z,32.02,-81.12,25.6,9.8,340,5,,10.0,30.088583,1019.3,,TRUE,TRUE,TRUE,,,,,,CLR,,,,,,,,VFR,,,,,,,,,,,,METAR,13.0
KSUU 241855Z AUTO 36006KT 10SM CLR 23/M03 A3020 RMK AO2 SLP233 T02291035 $,KSUU,2022-10-24T18:55:00Z,38.27,-121.93,22.9,-3.5,360,6,,10.0,30.200787,1023.3,,TRUE,TRUE,TRUE,,,,,,CLR,,,,,,,,VFR,,,,,,,,,,,,METAR,9.0
KSSC 241855Z 04005KT 10SM FEW250 23/09 A3011 RMK AO2A SLP197 T02330093 $,KSSC,2022-10-24T18:55:00Z,33.97,-80.47,23.3,9.3,40,5,,10.0,30.109253,1019.7,,,TRUE,TRUE,,,,,,FEW,25000,,,,,,,VFR,,,,,,,,,,,,METAR,71.0
KSLI 241855Z 35005KT 10SM CLR 24/M02 A3012 RMK AO2A SLP203 T02391019,KSLI,2022-10-24T18:55:00Z,33.78,-118.03,23.9,-1.9,350,5,,10.0,30.121063,1020.3,,,TRUE,,,,,,,CLR,,,,,,,,VFR,,,,,,,,,,,,METAR,8.0
KSEQ 241855Z AUTO 19011KT 10SM FEW026 SCT034 BKN043 OVC055 28/21 A2973 RMK AO2 SLP063 T02840206,KSEQ,2022-10-24T18:55:00Z,29.57,-97.9,28.4,20.6,190,11,,10.0,29.731298,1006.3,,TRUE,TRUE,,,,,,,FEW,2600,SCT,3400,BKN,4300,OVC,5500,VFR,,,,,,,,,,,,METAR,160.0
KSCK 241855Z 00000KT 10SM CLR 18/M02 A3022 RMK AO2 SLP233 T01831017,KSCK,2022-10-24T18:55:00Z,37.88,-121.22,18.3,-1.7,0,0,,10.0,30.221457,1023.3,,,TRUE,,,,,,,CLR,,,,,,,,VFR,,,,,,,,,,,,METAR,8.0
KRYW 241855Z AUTO 19005G19KT 10SM BKN016 OVC021 25/21 A2976 RMK AO2 T02510213,KRYW,2022-10-24T18:55:00Z,30.5,-97.97,25.1,21.3,190,5,19,10.0,29.760826,,,TRUE,TRUE,,,,,,,BKN,1600,OVC,2100,,,,,MVFR,,,,,,,,,,,,SPECI,370.0
KRYM 241855Z AUTO 21011G18KT 10SM SCT030 11/04 A2956 RMK AO2 SLP014 T01100042 $,KRYM,2022-10-24T18:55:00Z,46.08,-94.37,11.0,4.2,210,11,18,10.0,29.56004,1001.4,,TRUE,TRUE,TRUE,,,,,,SCT,3000,,,,,,,VFR,,,,,,,,,,,,METAR,344.0
KRNO 241855Z 00000KT 10SM BKN230 09/M09 A3027 RMK AO2 SLP246 T00941094,KRNO,2022-10-24T18:55:00Z,39.5,-119.77,9.4,-9.4,0,0,,10.0,30.268702,1024.6,,,TRUE,,,,,,,BKN,23000,,,,,,,VFR,,,,,,,,,,,,METAR,1344.0
KRIV 241855Z AUTO 32003KT 10SM CLR 20/M11 A3017 RMK AO2 SLP211 T01991115 $,KRIV,2022-10-24T18:55:00Z,33.87,-117.23,19.9,-11.5,320,3,,10.0,30.171259,1021.1,,TRUE,TRUE,TRUE,,,,,,CLR,,,,,,,,VFR,,,,,,,,,,,,METAR,454.0
KRDR 241855Z 23016KT 10SM OVC015 07/03 A2928 RMK AO2A PK WND 24030/05 SHRAE1755RAB1756E05 SLP922 P0000 T00730033 $,KRDR,2022-10-24T18:55:00Z,47.93,-97.4,7.3,3.3,230,16,,10.0,29.279528,992.2,,,TRUE,TRUE,,,,,,OVC,1500,,,,,,,MVFR,,,,,,0.005,,,,,,SPECI,276.0
KQVF 241855Z AUTO 14007KT 9999 FEW014 26/23 A2995 RMK AO2 SLP144 WND DATA ESTMD T02570233,KQVF,2022-10-24T18:55:00Z,,,25.7,23.3,140,7,,6.21,29.949802,1014.4,,TRUE,TRUE,,,,,,,FEW,1400,,,,,,,VFR,,,,,,,,,,,,METAR,
KQTZ 241855Z 01004KT 9999 FEW150 SCT180 24/11 A2994 RMK SLP137 WND DATA ESTMD ALSTG/SLP ESTMD,KQTZ,2022-10-24T18:55:00Z,,,24.0,11.0,10,4,,6.21,29.940945,1013.7,,,,,,,,,,FEW,15000,SCT,18000,,,,,VFR,,,,,,,,,,,,SPECI,
KQRH 241855Z AUTO 08007KT 9999 SCT021 BKN033 30/24 A2987 RMK AO2 SLP117 WND DATA ESTMD T02950235,KQRH,2022-10-24T18:55:00Z,,,29.5,23.5,80,7,,6.21,29.870079,1011.7,,TRUE,TRUE,,,,,,,SCT,2100,BKN,3300,,,,,VFR,,,,,,,,,,,,METAR,
KQN3 241855Z AUTO 00000KT 9999 CLR 35/07 A2991 RMK AO2 SLP117 WND DATA ESTMD T03480070,KQN3,2022-10-24T18:55:00Z,,,34.8,7.0,0,0,,6.21,29.911417,1011.7,,TRUE,TRUE,,,,,,,CLR,,,,,,,,VFR,,,,,,,,,,,,METAR,
KQBL 241855Z AUTO VRB03KT 10SM CLR 25/19 A3008 RMK AO2 SLP192 WND DATA ESTMD T02520190,KQBL,2022-10-24T18:55:00Z,,,25.2,19.0,0,3,,10.0,30.079725,1019.2,,TRUE,TRUE,,,,,,,CLR,,,,,,,,VFR,,,,,,,,,,,,METAR,
KQAZ 241855Z AUTO VRB04KT 9999 CLR 31/05 A3003 RMK AO2 SLP166 WND DATA ESTMD T03050050,KQAZ,2022-10-24T18:55:00Z,,,30.5,5.0,0,4,,6.21,30.029528,1016.6,,TRUE,TRUE,,,,,,,CLR,,,,,,,,VFR,,,,,,,,,,,,METAR,
KPOE 241855Z AUTO 15014KT 9SM BKN045 BKN070 OVC080 28/17 A2987 RMK AO2 SLP115 T02780173,KPOE,2022-10-24T18:55:00Z,31.05,-93.2,27.8,17.3,150,14,,9.0,29.870079,1011.5,,TRUE,TRUE,,,,,,,BKN,4500,BKN,7000,OVC,8000,,,VFR,,,,,,,,,,,,METAR,98.0
KPOB 241855Z AUTO 00000KT 10SM CLR 24/11 A3009 RMK AO2 SLP192 T02410107 $,KPOB,2022-10-24T18:55:00Z,35.17,-79.02,24.1,10.7,0,0,,10.0,30.088583,1019.2,,TRUE,TRUE,TRUE,,,,,,CLR,,,,,,,,VFR,,,,,,,,,,,,METAR,57.0
KPHP 241855Z AUTO 29022G28KT 10SM -RA SCT019 BKN027 OVC075 03/01 A2976 RMK AO2 PK WND 30036/1805 RAB53 SLP089 P0000 T00330006,KPHP,2022-10-24T18:55:00Z,44.05,-101.6,3.3,0.6,290,22,28,10.0,29.760826,1008.9,,TRUE,TRUE,,,,,,-RA,SCT,1900,BKN,2700,OVC,7500,,,MVFR,,,,,,0.005,,,,,,METAR,673.0
KPAM 241855Z AUTO 18013KT 10SM CLR 26/18 A3007 RMK AO2 SLP186 T02630184 $,KPAM,2022-10-24T18:55:00Z,30.07,-85.57,26.3,18.4,180,13,,10.0,30.070866,1018.6,,TRUE,TRUE,TRUE,,,,,,CLR,,,,,,,,VFR,,,,,,,,,,,,METAR,4.0
KP58 241855Z AUTO 14010G19KT 18/12 A2999 RMK AO1 SLP153 T01830117,KP58,2022-10-24T18:55:00Z,44.02,-82.8,18.3,11.7,140,10,19,,29.991142,1015.3,,TRUE,TRUE,,,,,,,,,,,,,,,,,,,,,,,,,,,SPECI,180.0
KOZR 241855Z AUTO 22005KT 10SM CLR 28/09 A3007 RMK AO2 SLP183 T02750093 $,KOZR,2022-10-24T18:55:00Z,31.28,-85.72,27.5,9.3,220,5,,10.0,30.070866,1018.3,,TRUE,TRUE,TRUE,,,,,,CLR,,,,,,,,VFR,,,,,,,,,,,,METAR,90.0
KOFF 241855Z 33004KT 8SM -RA OVC085 09/06 A2977 RMK AO2A SLP082 P0006 T00860055 PWINO PNO FZRANO TSNO VISNO RWY13 $,KOFF,2022-10-24T18:55:00Z,41.12,-95.92,8.6,5.5,330,4,,8.0,29.769686,1008.2,,,TRUE,TRUE,,TRUE,TRUE,TRUE,-RA,OVC,8500,,,,,,,VFR,,,,,,0.06,,,,,,METAR,308.0
KNTD 241855Z 04016G22KT 10SM CLR 24/M04 A3016 RMK AO2 PK WND 04027/1813 SLP213 T02391039,KNTD,2022-10-24T18:55:00Z,34.12,-119.12,23.9,-3.9,40,16,22,10.0,30.159449,1021.3,,,TRUE,,,,,,,CLR,,,,,,,,VFR,,,,,,,,,,,,SPECI,1.0
KNKX 241855Z 24008KT 10SM CLR 22/05 A3013 RMK AO2 SLP199 T02220050,KNKX,2022-10-24T18:55:00Z,32.87,-117.13,22.2,5.0,240,8,,10.0,30.129921,1019.9,,,TRUE,,,,,,,CLR,,,,,,,,VFR,,,,,,,,,,,,SPECI,138.0
KNBG 241855Z 14013KT 10SM SCT070 BKN250 28/19 A2998 RMK AO2 SLP153 T02780189 $,KNBG,2022-10-24T18:55:00Z,29.83,-90.02,27.8,18.9,140,13,,10.0,29.97933,1015.3,,,TRUE,TRUE,,,,,,SCT,7000,BKN,25000,,,,,VFR,,,,,,,,,,,,METAR,0.0
KMXF 241855Z AUTO 16004KT 10SM CLR 27/06 A3006 RMK AO2 SLP181 T02650060,KMXF,2022-10-24T18:55:00Z,32.38,-86.37,26.5,6.0,160,4,,10.0,30.059055,1018.1,,TRUE,TRUE,,,,,,,CLR,,,,,,,,VFR,,,,,,,,,,,,METAR,47.0
KMUI 241855Z 00000KT 10SM OVC013 17/13 A3011 RMK AO2A SLP199 T01700127,KMUI,2022-10-24T18:55:00Z,40.43,-76.57,17.0,12.7,0,0,,10.0,30.109253,1019.9,,,TRUE,,,,,,,OVC,1300,,,,,,,MVFR,,,,,,,,,,,,METAR,146.0
KMTN 241855Z 00000KT 10SM BKN010 OVC014 16/15 A3013,KMTN,2022-10-24T18:55:00Z,39.32,-76.42,16.0,15.0,0,0,,10.0,30.129921,,,,,,,,,,,BKN,1000,OVC,1400,,,,,MVFR,,,,,,,,,,,,METAR,2.0
KMMT 241855Z 36006KT 10SM FEW250 24/06 A3011 RMK AO2A SLP199 T02390062 $,KMMT,2022-10-24T18:55:00Z,33.92,-80.8,23.9,6.2,360,6,,10.0,30.109253,1019.9,,,TRUE,TRUE,,,,,,FEW,25000,,,,,,,VFR,,,,,,,,,,,,METAR,76.0
KMKG 241855Z 16015G21KT 10SM BKN230 24/14 A2988 RMK AO2 PK WND 18027/1808 SLP116 T02440139,KMKG,2022-10-24T18:55:00Z,43.17,-86.23,24.4,13.9,160,15,21,10.0,29.878937,1011.6,,,TRUE,,,,,,,BKN,23000,,,,,,,VFR,,,,,,,,,,,,METAR,190.0
KMGE 241855Z 17005KT 10SM FEW250 24/08 A3011 RMK AO2A SLP194 T02380078 $,KMGE,2022-10-24T18:55:00Z,33.92,-84.52,23.8,7.8,170,5,,10.0,30.109253,1019.4,,,TRUE,TRUE,,,,,,FEW,25000,,,,,,,VFR,,,,,,,,,,,,METAR,309.0
KMCF 241855Z AUTO 26005KT 10SM CLR 28/19 A3000 RMK AO2 DZB14E20 SLP162 P0000 T02810193 FZRANO $,KMCF,2022-10-24T18:55:00Z,27.85,-82.52,28.1,19.3,260,5,,10.0,30.0,1016.2,,TRUE,TRUE,TRUE,,,TRUE,,,CLR,,,,,,,,VFR,,,,,,0.005,,,,,,METAR,3.0
KLUF 241855Z AUTO 34005KT 10SM CLR 20/M06 A3011 RMK AO2 SLP190 T01971061 $,KLUF,2022-10-24T18:55:00Z,33.53,-112.37,19.7,-6.1,340,5,,10.0,30.109253,1019.0,,TRUE,TRUE,TRUE,,,,,,CLR,,,,,,,,VFR,,,,,,,,,,,,METAR,333.0
KLTS 241855Z 07014KT 10SM OVC026 18/11 A2974 RMK AO2A OVC V BKN SLP060 T01780109 $,KLTS,2022-10-24T18:55:00Z,34.67,-99.27,17.8,10.9,70,14,,10.0,29.740158,1006.0,,,TRUE,TRUE,,,,,,OVC,2600,,,,,,,MVFR,,,,,,,,,,,,METAR,416.0
KLSV 241855Z AUTO 28006KT 10SM CLR 18/M07 A3023 RMK AO2 SLP229 T01811074,KLSV,2022-10-24T18:55:00Z,36.23,-115.05,18.1,-7.4,280,6,,10.0,30.230314,1022.9,,TRUE,TRUE,,,,,,,CLR,,,,,,,,VFR,,,,,,,,,,,,METAR,563.0
KLSF 241855Z AUTO 17004KT 10SM CLR 27/13 A3008 RMK AO2 SLP190 T02670127 VISNO RWY15 CHINO RWY15 $,KLSF,2022-10-24T18:55:00Z,32.32,-84.97,26.7,12.7,170,4,,10.0,30.079725,1019.0,,TRUE,TRUE,TRUE,,,,,,CLR,,,,,,,,VFR,,,,,,,,,,,,METAR,68.0
KLOR 241855Z AUTO 11004KT 10SM CLR 27/11 A3007 RMK AO2 SLP165 T02710111,KLOR,2022-10-24T18:55:00Z,31.35,-85.75,27.1,11.1,110,4,,10.0,30.070866,1016.5,,TRUE,TRUE,,,,,,,CLR,,,,,,,,VFR,,,,,,,,,,,,METAR,92.0
KLLJ 241855Z AUTO 00000KT 10SM CLR 03/M08 A3005 RMK AO2 SLP189 T00281078,KLLJ,2022-10-24T18:55:00Z,44.52,-114.22,2.8,-7.8,0,0,,10.0,30.050198,1018.9,,TRUE,TRUE,,,,,,,CLR,,,,,,,,VFR,,,,,,,,,,,,METAR,1535.0
KLIC 241855Z AUTO 33009G19KT 10SM CLR 09/M10 A2987 RMK AO2 SLP101 T00891100 $,KLIC,2022-10-24T18:55:00Z,39.27,-103.67,8.9,-10.0,330,9,19,10.0,29.870079,1010.1,,TRUE,TRUE,TRUE,,,,,,CLR,,,,,,,,VFR,,,,,,,,,,,,METAR,1635.0
KLHW 241855Z AUTO 00000KT 10SM CLR 25/11 A3009 RMK AO2 SLP192 T02480106 $,KLHW,2022-10-24T18:55:00Z,31.88,-81.57,24.8,10.6,0,0,,10.0,30.088583,1019.2,,TRUE,TRUE,TRUE,,,,,,CLR,,,,,,,,VFR,,,,,,,,,,,,METAR,14.0
KLGF 241855Z AUTO 36009G21KT 10SM CLR 21/M06 A3015 RMK AO2 SLP209 T02121056 RVRNO TSNO $,KLGF,2022-10-24T18:55:00Z,32.87,-114.4,21.2,-5.6,360,9,21,10.0,30.15059,1020.9,,TRUE,TRUE,TRUE,,TRUE,,,,CLR,,,,,,,,VFR,,,,,,,,,,,,METAR,118.0
KLCK 241855Z AUTO 15005KT 10SM CLR 25/06 A3007 RMK AO2 T02450056,KLCK,2022-10-24T18:55:00Z,39.82,-82.92,24.5,5.6,150,5,,10.0,30.070866,,,TRUE,TRUE,,,,,,,CLR,,,,,,,,VFR,,,,,,,,,,,,SPECI,225.0
KJKA 241855Z 12010G17KT 10SM FEW025 25/19 A3005,KJKA,2022-10-24T18:55:00Z,30.28,-87.67,25.0,19.0,120,10,17,10.0,30.050198,,,,,,,,,,,FEW,2500,,,,,,,VFR,,,,,,,,,,,,METAR,5.0
KIRK 241855Z AUTO 17009KT 5SM -RA BR BKN027 OVC032 19/17 A2969 RMK AO2 RAB36 SLP051 P0015 T01890172,KIRK,2022-10-24T18:55:00Z,40.1,-92.55,18.9,17.2,170,9,,5.0,29.68996,1005.1,,TRUE,TRUE,,,,,,-RA BR,BKN,2700,OVC,3200,,,,,MVFR,,,,,,0.15,,,,,,METAR,292.0
KINS 241855Z AUTO 05003KT 10SM CLR 12/M11 A3027 RMK AO2 SLP236 T01161113 $,KINS,2022-10-24T18:55:00Z,36.58,-115.68,11.6,-11.3,50,3,,10.0,30.268702,1023.6,,TRUE,TRUE,TRUE,,,,,,CLR,,,,,,,,VFR,,,,,,,,,,,,METAR,954.0
KHST 241855Z AUTO 06011KT 10SM BKN080 28/21 A2999 RMK AO2 DZB45E53 SLP159 P0000 T02780206,KHST,2022-10-24T18:55:00Z,25.48,-80.37,27.8,20.6,60,11,,10.0,29.991142,1015.9,,TRUE,TRUE,,,,,,,BKN,8000,,,,,,,VFR,,,,,,0.005,,,,,,METAR,1.0
KHRT 241855Z 15010KT 10SM CLR 25/18 A3006 RMK AO2A SLP181 T02520184 $,KHRT,2022-10-24T18:55:00Z,30.42,-86.68,25.2,18.4,150,10,,10.0,30.059055,1018.1,,,TRUE,TRUE,,,,,,CLR,,,,,,,,VFR,,,,,,,,,,,,SPECI,10.0
KHOP 241855Z AUTO 17010G15KT 10SM CLR 24/06 A2998 RMK AO2 SLP151 T02390062,KHOP,2022-10-24T18:55:00Z,36.67,-87.5,23.9,6.2,170,10,15,10.0,29.97933,1015.1,,TRUE,TRUE,,,,,,,CLR,,,,,,,,VFR,,,,,,,,,,,,METAR,170.0
KHON 241855Z AUTO 27018G32KT 10SM BKN044 10/M02 A2967 RMK AO2 PK WND 29033/1819 SLP049 T01001022,KHON,2022-10-24T18:55:00Z,44.38,-98.23,10.0,-2.2,270,18,32,10.0,29.66929,1004.9,,TRUE,TRUE,,,,,,,BKN,4400,,,,,,,VFR,,,,,,,,,,,,METAR,391.0
KHMN 241855Z AUTO 33009KT 10SM CLR 10/02 A2999 RMK AO2 PK WND 32042/17 SLP117 T01030019 RVRNO $,KHMN,2022-10-24T18:55:00Z,32.85,-106.1,10.3,1.9,330,9,,10.0,29.991142,1011.7,,TRUE,TRUE,TRUE,,,,,,CLR,,,,,,,,VFR,,,,,,,,,,,,METAR,1240.0
KHFF 241855Z AUTO 35003KT 10SM CLR 24/11 A3009 RMK AO2 SLP192 T02390109 $,KHFF,2022-10-24T18:55:00Z,35.03,-79.5,23.9,10.9,350,3,,10.0,30.088583,1019.2,,TRUE,TRUE,TRUE,,,,,,CLR,,,,,,,,VFR,,,,,,,,,,,,METAR,100.0
KHEY 241855Z AUTO 21003KT 9SM CLR 27/11 A3005 RMK AO2 SLP177 T02710107 $,KHEY,2022-10-24T18:55:00Z,31.35,-85.65,27.1,10.7,210,3,,9.0,30.050198,1017.7,,TRUE,TRUE,TRUE,,,,,,CLR,,,,,,,,VFR,,,,,,,,,,,,METAR,95.0
KGXF 241855Z AUTO 35006KT 10SM CLR 19/M09 A3014 RMK AO2 SLP199 T01941088 FZRANO $,KGXF,2022-10-24T18:55:00Z,32.88,-112.72,19.4,-8.8,350,6,,10.0,30.138779,1019.9,,TRUE,TRUE,TRUE,,,TRUE,,,CLR,,,,,,,,VFR,,,,,,,,,,,,METAR,261.0
KGUS 241855Z AUTO 17011KT 10SM FEW180 24/10 A2996 RMK AO2 SLP146 T02410096 VISNO RWY05 $,KGUS,2022-10-24T18:55:00Z,40.63,-86.15,24.1,9.6,170,11,,10.0,29.958662,1014.6,,TRUE,TRUE,TRUE,,,,,,FEW,18000,,,,,,,VFR,,,,,,,,,,,,METAR,245.0
KGTB 241855Z VRB05KT 10SM SCT026 22/15 A3012 RMK SLP199 T02150149,KGTB,2022-10-24T18:55:00Z,44.07,-75.72,21.5,14.9,0,5,,10.0,30.121063,1019.9,,,,,,,,,,SCT,2600,,,,,,,VFR,,,,,,,,,,,,SPECI,206.0
KGSB 241855Z AUTO 00000KT 10SM CLR 24/11 A3007 RMK AO2 SLP186 T02430109 $,KGSB,2022-10-24T18:55:00Z,35.33,-77.93,24.3,10.9,0,0,,10.0,30.070866,1018.6,,TRUE,TRUE,TRUE,,,,,,CLR,,,,,,,,VFR,,,,,,,,,,,,SPECI,33.0
KGRF 241855Z AUTO 18016G20KT 10SM FEW200 11/07 A2995 RMK AO2 SLP146 T01140073 $,KGRF,2022-10-24T18:55:00Z,47.07,-122.57,11.4,7.3,180,16,20,10.0,29.949802,1014.6,,TRUE,TRUE,TRUE,,,,,,FEW,20000,,,,,,,VFR,,,,,,,,,,,,METAR,91.0
KGPI 241855Z 17009G15KT 10SM SCT036 OVC048 04/M01 A2987 RMK AO2 SLP134 T00441006,KGPI,2022-10-24T18:55:00Z,48.32,-114.25,4.4,-0.6,170,9,15,10.0,29.870079,1013.4,,,TRUE,,,,,,,SCT,3600,OVC,4800,,,,,VFR,,,,,,,,,,,,METAR,903.0
KGFA 241855Z AUTO 23022G26KT 10SM BKN100 BKN200 04/M01 A2976 RMK AO2 PK WND 23026/52 SLP104 T00441014 $,KGFA,2022-10-24T18:55:00Z,47.5,-111.18,4.4,-1.4,230,22,26,10.0,29.760826,1010.4,,TRUE,TRUE,TRUE,,,,,,BKN,10000,BKN,20000,,,,,VFR,,,,,,,,,,,,METAR,1058.0
KFSI 241855Z AUTO 03011G20KT 10SM FEW016 16/11 A2973 RMK AO2 SLP061 T01620113,KFSI,2022-10-24T18:55:00Z,34.65,-98.4,16.2,11.3,30,11,20,10.0,29.731298,1006.1,,TRUE,TRUE,,,,,,,FEW,1600,,,,,,,VFR,,,,,,,,,,,,METAR,360.0
KFHU 241855Z AUTO 32015G20KT 10SM CLR 13/M12 A3016 RMK AO2 SLP184 T01271118,KFHU,2022-10-24T18:55:00Z,31.58,-110.35,12.7,-11.8,320,15,20,10.0,30.159449,1018.4,,TRUE,TRUE,,,,,,,CLR,,,,,,,,VFR,,,,,,,,,,,,METAR,1424.0
KFFO 241855Z AUTO 16010KT 10SM CLR 24/04 A3003 RMK AO2 SLP169 T02380042,KFFO,2022-10-24T18:55:00Z,39.83,-84.03,23.8,4.2,160,10,,10.0,30.029528,1016.9,,TRUE,TRUE,,,,,,,CLR,,,,,,,,VFR,,,,,,,,,,,,METAR,250.0
KFCS 241855Z AUTO 21003KT M M M M A2987 RMK AO2 SLPNO ALSTG ESTMD RVRNO $,KFCS,2022-10-24T18:55:00Z,38.67,-104.77,,,210,3,,,29.870079,,,TRUE,TRUE,TRUE,,,,,,,,,,,,,,,,,,,,,,,,,,SPECI,1789.0
KFBG 241855Z AUTO 36005KT 10SM CLR 24/12 A3008 RMK AO2 SLP188 T02410117,KFBG,2022-10-24T18:55:00Z,35.12,-78.92,24.1,11.7,360,5,,10.0,30.079725,1018.8,,TRUE,TRUE,,,,,,,CLR,,,,,,,,VFR,,,,,,,,,,,,METAR,69.0
KFAR 241855Z COR 22024G30KT 10SM OVC028 07/01 A2945,KFAR,2022-10-24T18:55:00Z,46.9,-96.82,7.0,1.0,220,24,30,10.0,29.450787,,TRUE,,,,,,,,,OVC,2800,,,,,,,MVFR,,,,,,,,,,,,SPECI,276.0
KFAF 241855Z 31004KT 10SM OVC023 19/13 A3009 RMK AO2A SLP193 T01860132 $,KFAF,2022-10-24T18:55:00Z,37.13,-76.62,18.6,13.2,310,4,,10.0,30.088583,1019.3,,,TRUE,TRUE,,,,,,OVC,2300,,,,,,,MVFR,,,,,,,,,,,,SPECI,3.0
KEGI 241855Z AUTO 13007KT 10SM CLR 28/13 A3006 RMK AO2 SLPNO T02770125 $,KEGI,2022-10-24T18:55:00Z,30.65,-86.52,27.7,12.5,130,7,,10.0,30.059055,,,TRUE,TRUE,TRUE,,,,,,CLR,,,,,,,,VFR,,,,,,,,,,,,METAR,59.0
KEDW 241855Z 10007KT 90SM CLR 15/M10 A3024 RMK AO2A SLP238 T01521105,KEDW,2022-10-24T18:55:00Z,34.9,-117.87,15.2,-10.5,100,7,,90.0,30.239174,1023.8,,,TRUE,,,,,,,CLR,,,,,,,,VFR,,,,,,,,,,,,SPECI,698.0
KEAT 241855Z AUTO 13007KT 10SM SCT046 BKN070 BKN090 10/01 A2985 RMK AO2 SLP110 T01000011,KEAT,2022-10-24T18:55:00Z,47.4,-120.2,10.0,1.1,130,7,,10.0,29.84941,1011.0,,TRUE,TRUE,,,,,,,SCT,4600,BKN,7000,BKN,9000,,,VFR,,,,,,,,,,,,METAR,375.0
KDYS 241855Z AUTO 13009KT 10SM FEW110 22/13 A2970 RMK AO2 RAB15E26 SLP019 P0000 T02210134,KDYS,2022-10-24T18:55:00Z,32.42,-99.83,22.1,13.4,130,9,,10.0,29.698818,1001.9,,TRUE,TRUE,,,,,,,FEW,11000,,,,,,,VFR,,,,,,0.005,,,,,,METAR,544.0
KDPG 241855Z 33004KT 50SM FEW050 06/M07 A3027 RMK SLP246 T00601071,KDPG,2022-10-24T18:55:00Z,40.2,-112.93,6.0,-7.1,330,4,,50.0,30.268702,1024.6,,,,,,,,,,FEW,5000,,,,,,,VFR,,,,,,,,,,,,METAR,1324.0
KDMA 241855Z AUTO 27010KT 10SM CLR 16/M07 A3011 RMK AO2 SLP174 T01611069 $,KDMA,2022-10-24T18:55:00Z,32.17,-110.88,16.1,-6.9,270,10,,10.0,30.109253,1017.4,,TRUE,TRUE,TRUE,,,,,,CLR,,,,,,,,VFR,,,,,,,,,,,,METAR,804.0
KDLH 241855Z 20017G29KT 10SM SCT025 SCT045 19/07 A2951 RMK AO2 PK WND 20029/1855 SLP994 T01890067,KDLH,2022-10-24T18:55:00Z,46.85,-92.2,18.9,6.7,200,17,29,10.0,29.509842,999.4,,,TRUE,,,,,,,SCT,2500,SCT,4500,,,,,VFR,,,,,,,,,,,,METAR,434.0
KDLF 241855Z AUTO 15010KT 10SM CLR 28/20 A2968 RMK AO2 SLP038 T02840204 $,KDLF,2022-10-24T18:55:00Z,29.37,-100.78,28.4,20.4,150,10,,10.0,29.681103,1003.8,,TRUE,TRUE,TRUE,,,,,,CLR,,,,,,,,VFR,,,,,,,,,,,,METAR,328.0
KDAA 241855Z AUTO 32003KT 10SM OVC024 19/13 A3010 RMK AO2 SLP196 T01850129,KDAA,2022-10-24T18:55:00Z,38.72,-77.17,18.5,12.9,320,3,,10.0,30.100393,1019.6,,TRUE,TRUE,,,,,,,OVC,2400,,,,,,,MVFR,,,,,,,,,,,,METAR,17.0
KCOF 241855Z AUTO 04008KT 10SM CLR 27/27 A3004 RMK AO2 SLP177 T02710269,KCOF,2022-10-24T18:55:00Z,28.23,-80.6,27.1,26.9,40,8,,10.0,30.041338,1017.7,,TRUE,TRUE,,,,,,,CLR,,,,,,,,VFR,,,,,,,,,,,,METAR,1.0
KCNK 241855Z AUTO 33008KT 10SM SCT085 OVC110 11/04 A2975 RMK AO2 RAE04 SLP069 P0000 T01060044,KCNK,2022-10-24T18:55:00Z,39.55,-97.65,10.6,4.4,330,8,,10.0,29.749016,1006.9,,TRUE,TRUE,,,,,,,SCT,8500,OVC,11000,,,,,VFR,,,,,,0.005,,,,,,METAR,445.0
KCMA 241855Z 07015G28KT 10SM CLR 24/M08 A3016 RMK AO2 PK WND 08033/1806 SLP220 T02441078,KCMA,2022-10-24T18:55:00Z,34.22,-119.1,24.4,-7.8,70,15,28,10.0,30.159449,1022.0,,,TRUE,,,,,,,CLR,,,,,,,,VFR,,,,,,,,,,,,METAR,20.0
KCBM 241855Z 16011G19KT 10SM CLR 27/13 A3002 RMK AO2A SLP247 ALSTG/SLP ESTMD T02660133 $,KCBM,2022-10-24T18:55:00Z,33.65,-88.45,26.6,13.3,160,11,19,10.0,30.02067,1024.7,,,TRUE,TRUE,,,,,,CLR,,,,,,,,VFR,,,,,,,,,,,,SPECI,59.0
KCAO 241855Z AUTO 05018G28KT 10SM BKN042 OVC050 07/M04 A2985 RMK AO2 PK WND 04030/1813 SLP085 T00671044,KCAO,2022-10-24T18:55:00Z,36.45,-103.15,6.7,-4.4,50,18,28,10.0,29.84941,1008.5,,TRUE,TRUE,,,,,,,BKN,4200,OVC,5000,,,,,VFR,,,,,,,,,,,,SPECI,1517.0
KBYS 241855Z AUTO 36005KT 10SM CLR 15/M13 A3022 RMK AO2 SLP226 T01471126,KBYS,2022-10-24T18:55:00Z,35.28,-116.63,14.7,-12.6,360,5,,10.0,30.221457,1022.6,,TRUE,TRUE,,,,,,,CLR,,,,,,,,VFR,,,,,,,,,,,,METAR,717.0
KBLV 241855Z 17016G23KT 10SM FEW035 SCT065 BKN080 OVC200 23/14 A2985 RMK AO2A PK WND 16027/32 SLP108 T02330140 $,KBLV,2022-10-24T18:55:00Z,38.53,-89.83,23.3,14.0,170,16,23,10.0,29.84941,1010.8,,,TRUE,TRUE,,,,,,FEW,3500,SCT,6500,BKN,8000,OVC,20000,VFR,,,,,,,,,,,,SPECI,134.0
KBIF 241855Z AUTO 20024G34KT 10SM CLR 14/M04 A2996 RMK AO2 PK WND 34034/42 SLP101 T01401042 $,KBIF,2022-10-24T18:55:00Z,31.85,-106.38,14.0,-4.2,200,24,34,10.0,29.958662,1010.1,,TRUE,TRUE,TRUE,,,,,,CLR,,,,,,,,VFR,,,,,,,,,,,,METAR,1201.0
KBAK 241855Z 17012G20KT 10SM BKN200 24/06 A2999,KBAK,2022-10-24T18:55:00Z,39.27,-85.9,24.0,6.0,170,12,20,10.0,29.991142,,,,,,,,,,,BKN,20000,,,,,,,VFR,,,,,,,,,,,,METAR,199.0
KBAD 241855Z AUTO 17016G21KT 10SM SCT039 BKN050 OVC060 26/16 A2982 RMK AO2 SLP101 T02600159,KBAD,2022-10-24T18:55:00Z,32.5,-93.67,26.0,15.9,170,16,21,10.0,29.819881,1010.1,,TRUE,TRUE,,,,,,,SCT,3900,BKN,5000,OVC,6000,,,VFR,,,,,,,,,,,,METAR,49.0
KBAB 241855Z AUTO 00000KT 10SM CLR 19/M04 A3018 RMK AO2 SLP223 T01941042 $,KBAB,2022-10-24T18:55:00Z,39.13,-121.43,19.4,-4.2,0,0,,10.0,30.180119,1022.3,,TRUE,TRUE,TRUE,,,,,,CLR,,,,,,,,VFR,,,,,,,,,,,,METAR,31.0
KAPG 241855Z 03005KT 2SM -DZ BR OVC004 16/15 A3010 RMK SLP196,KAPG,2022-10-24T18:55:00Z,39.47,-76.17,16.0,15.0,30,5,,2.0,30.100393,1019.6,,,,,,,,,-DZ BR,OVC,400,,,,,,,LIFR,,,,,,,,,,,,SPECI,18.0
KANJ 241855Z AUTO 14010G19KT 10SM CLR 18/11 A2991 RMK AO2 SLP125 T01780106,KANJ,2022-10-24T18:55:00Z,46.47,-84.37,17.8,10.6,140,10,19,10.0,29.911417,1012.5,,TRUE,TRUE,,,,,,,CLR,,,,,,,,VFR,,,,,,,,,,,,METAR,220.0
KAFF 241855Z AUTO 26004KT 10SM CLR 06/M10 A2986 RMK AO2 SLP111 T00611102 $,KAFF,2022-10-24T18:55:00Z,38.97,-104.82,6.1,-10.2,260,4,,10.0,29.861221,1011.1,,TRUE,TRUE,TRUE,,,,,,CLR,,,,,,,,VFR,,,,,,,,,,,,METAR,2003.0
KABH 241855Z AUTO 06008KT 10SM BKN055 07/M08 A2989 RMK AO2 SLP129 T00691079,KABH,2022-10-24T18:55:00Z,38.75,-104.3,6.9,-7.9,60,8,,10.0,29.890747,1012.9,,TRUE,TRUE,,,,,,,BKN,5500,,,,,,,VFR,,,,,,,,,,,,METAR,1838.0
KAAT 241855Z AUTO 00000KT 10SM SCT033 BKN044 OVC065 06/M03 A3023 RMK AO2 RAB15E41 SLP254 P0000 T00611033,KAAT,2022-10-24T18:55:00Z,41.48,-120.57,6.1,-3.3,0,0,,10.0,30.230314,1025.4,,TRUE,TRUE,,,,,,,SCT,3300,BKN,4400,OVC,6500,,,VFR,,,,,,0.005,,,,,,METAR,1336.0
K9L2 241855Z AUTO 00000KT 9SM CLR 15/M12 A3026 RMK AO2 SLP243 T01541120 $,K9L2,2022-10-24T18:55:00Z,34.98,-117.87,15.4,-12.0,0,0,,9.0,30.259842,1024.3,,TRUE,TRUE,TRUE,,,,,,CLR,,,,,,,,VFR,,,,,,,,,,,,METAR,697.0
K2DP 241855Z AUTO 01003KT 10SM OVC009 17/17 A3009 RMK AO2 LTG DSNT NE SLPNO T01670167 $,K2DP,2022-10-24T18:55:00Z,35.68,-75.9,16.7,16.7,10,3,,10.0,30.088583,,,TRUE,TRUE,TRUE,,,,,,OVC,900,,,,,,,IFR,,,,,,,,,,,,METAR,1.0
K1YT 241855Z AUTO 36005KT 10SM CLR 09/02 A2984 RMK AO2 SLP114 T00920016 $,K1YT,2022-10-24T18:55:00Z,46.67,-120.45,9.2,1.6,360,5,,10.0,29.840551,1011.4,,TRUE,TRUE,TRUE,,,,,,CLR,,,,,,,,VFR,,,,,,,,,,,,METAR,423.0
K1OM 241855Z AUTO 27020G27KT 10SM CLR 06/M02 A2972 RMK AO2 PK WND 28027/51 SLP089 T00561018 $,K1OM,2022-10-24T18:55:00Z,47.33,-108.93,5.6,-1.8,270,20,27,10.0,29.719488,1008.9,,TRUE,TRUE,TRUE,,,,,,CLR,,,,,,,,VFR,,,,,,,,,,,,METAR,1088.0
K1NM 241855Z AUTO 28017G22KT 10SM CLR 06/M03 A2971 RMK AO2 SLP082 T00571034 $,K1NM,2022-10-24T18:55:00Z,47.07,-109.03,5.7,-3.4,280,17,22,10.0,29.71063,1008.2,,TRUE,TRUE,TRUE,,,,,,CLR,,,,,,,,VFR,,,,,,,,,,,,METAR,1169.0
K1MW 241855Z AUTO 31021G28KT 10SM M 09/M07 A2551 RMK AO2 PK WND 34030/07 SLP598 T00921067 FZRANO $,K1MW,2022-10-24T18:55:00Z,40.7,-103.48,9.2,-6.7,310,21,28,10.0,25.508858,959.8,,TRUE,TRUE,TRUE,,,TRUE,,,,,,,,,,,,,,,,,,,,,,,METAR,1338.0
K1MM 241855Z AUTO 24014KT 10SM CLR 04/M02 A2974 RMK AO2 SLP096 T00371021 $,K1MM,2022-10-24T18:55:00Z,47.02,-109.63,3.7,-2.1,240,14,,10.0,29.740158,1009.6,,TRUE,TRUE,TRUE,,,,,,CLR,,,,,,,,VFR,,,,,,,,,,,,METAR,1256.0
K1LM 241855Z AUTO 29006KT 10SM CLR 04/M03 A2975 RMK AO2 SLP095 T00401028 $,K1LM,2022-10-24T18:55:00Z,46.7,-109.73,4.0,-2.8,290,6,,10.0,29.749016,1009.5,,TRUE,TRUE,TRUE,,,,,,CLR,,,,,,,,VFR,,,,,,,,,,,,METAR,1417.0
K1KM 241855Z AUTO 27033G41KT 10SM CLR 06/M05 A2976 RMK AO2 PK WND 27041/50 SLP096 T00581055 $,K1KM,2022-10-24T18:55:00Z,46.45,-109.8,5.8,-5.5,270,33,41,10.0,29.760826,1009.6,,TRUE,TRUE,TRUE,,,,,,CLR,,,,,,,,VFR,,,,,,,,,,,,METAR,1332.0
K1JM 241855Z AUTO 22016KT 10SM SCT200 03/M03 A2972 RMK AO2 PK WND 22027/38 SLP091 T00331035 PWINO $,K1JM,2022-10-24T18:55:00Z,47.75,-111.55,3.3,-3.5,220,16,,10.0,29.719488,1009.1,,TRUE,TRUE,TRUE,,,,TRUE,,SCT,20000,,,,,,,VFR,,,,,,,,,,,,METAR,1154.0
K1IM 241855Z AUTO 24018G23KT 10SM FEW090 BKN210 04/M04 A2974 RMK AO2 SLP096 T00441041 $,K1IM,2022-10-24T18:55:00Z,47.32,-111.47,4.4,-4.1,240,18,23,10.0,29.740158,1009.6,,TRUE,TRUE,TRUE,,,,,,FEW,9000,BKN,21000,,,,,VFR,,,,,,,,,,,,METAR,1110.0
K1HM 241855Z AUTO 28018G26KT 10SM CLR 03/M04 A2970 RMK AO2 PK WND 28027/13 SLP084 T00331042 $,K1HM,2022-10-24T18:55:00Z,47.7,-111.95,3.3,-4.2,280,18,26,10.0,29.698818,1008.4,,TRUE,TRUE,TRUE,,,,,,CLR,,,,,,,,VFR,,,,,,,,,,,,METAR,1181.0
K1FM 241855Z AUTO 22014KT 10SM OVC140 02/M04 A2972 RMK AO2 SLP095 T00231042 $,K1FM,2022-10-24T18:55:00Z,47.6,-112.32,2.3,-4.2,220,14,,10.0,29.719488,1009.5,,TRUE,TRUE,TRUE,,,,,,OVC,14000,,,,,,,VFR,,,,,,,,,,,,METAR,1344.0
K1CM 241855Z AUTO 00000KT 10SM CLR 05/M04 A2974 RMK AO2 SLP093 T00501038 $,K1CM,2022-10-24T18:55:00Z,47.1,-110.17,5.0,-3.8,0,0,,10.0,29.740158,1009.3,,TRUE,TRUE,TRUE,,,,,,CLR,,,,,,,,VFR,,,,,,,,,,,,METAR,1338.0
K1BM 241855Z AUTO 25014KT 10SM SCT200 06/M02 A2974 RMK AO2 SLP094 T00591017 $,K1BM,2022-10-24T18:55:00Z,47.28,-110.37,5.9,-1.7,250,14,,10.0,29.740158,1009.4,,TRUE,TRUE,TRUE,,,,,,SCT,20000,,,,,,,VFR,,,,,,,,,,,,METAR,1234.0
K1AM 241855Z AUTO 22013KT 10SM FEW200 04/M03 A2975 RMK AO2 SLP098 T00411032 $,K1AM,2022-10-24T18:55:00Z,47.28,-110.8,4.1,-3.2,220,13,,10.0,29.749016,1009.8,,TRUE,TRUE,TRUE,,,,,,FEW,20000,,,,,,,VFR,,,,,,,,,,,,METAR,1228.0
FJDG 241855Z 14010KT 9999 SCT021 BKN230 27/24 A2990 RMK SLP122 T02710235,FJDG,2022-10-24T18:55:00Z,-7.32,72.42,27.1,23.5,140,10,,6.21,29.899607,1012.2,,,,,,,,,,SCT,2100,BKN,23000,,,,,VFR,,,,,,,,,,,,METAR,3.0
ETOU 241855Z 00000KT 9999 CLR 16/10 A2993 RMK AO2A SLPNO ALSTG ESTMD,ETOU,2022-10-24T18:55:00Z,50.03,8.32,16.0,10.0,0,0,,6.21,29.929134,,,,TRUE,,,,,,,CLR,,,,,,,,VFR,,,,,,,,,,,,SPECI,141.0
ETIH 241855Z AUTO 20003KT 9999 CLR 12/10 A3003 RMK AO2 SLP168 T01220103,ETIH,2022-10-24T18:55:00Z,49.22,11.83,12.2,10.3,200,3,,6.21,30.029528,1016.8,,TRUE,TRUE,,,,,,,CLR,,,,,,,,VFR,,,,,,,,,,,,METAR,436.0
ETIC 241855Z AUTO 17005KT 9999 CLR 12/11 A2998 RMK AO2 SLP154 T01230112 $,ETIC,2022-10-24T18:55:00Z,49.7,11.93,12.3,11.2,170,5,,6.21,29.97933,1015.4,,TRUE,TRUE,TRUE,,,,,,CLR,,,,,,,,VFR,,,,,,,,,,,,METAR,414.0
ETEB 241855Z AUTO 18004KT 9999 SCT120 12/10 A3000 RMK AO2 SLP170 T01220101 $,ETEB,2022-10-24T18:55:00Z,49.32,10.63,12.2,10.1,180,4,,6.21,30.0,1017.0,,TRUE,TRUE,TRUE,,,,,,SCT,12000,,,,,,,VFR,,,,,,,,,,,,METAR,466.0
ETAR 241855Z 20004KT 9999 FEW046 15/11 A2994 RMK AO2A SLP138 T01530105,ETAR,2022-10-24T18:55:00Z,49.43,7.58,15.3,10.5,200,4,,6.21,29.940945,1013.8,,,TRUE,,,,,,,FEW,4600,,,,,,,VFR,,,,,,,,,,,,SPECI,231.0
ETAD 241855Z 24008KT 9999 FEW037 13/11 A2990 RMK AO2A DZB1759E02RAB02E19 TSB1754E10 SLP114 P0010 T01310106,ETAD,2022-10-24T18:55:00Z,49.98,6.7,13.1,10.6,240,8,,6.21,29.899607,1011.4,,,TRUE,,,,,,,FEW,3700,,,,,,,VFR,,,,,,0.1,,,,,,SPECI,365.0
EGVA 241855Z AUTO 23006KT 9999 FEW021 SCT034 11/11 A2970 RMK AO2 DZE21 SLP061 P0000 T01110109 $,EGVA,2022-10-24T18:55:00Z,51.67,-1.78,11.1,10.9,230,6,,6.21,29.698818,1006.1,,TRUE,TRUE,TRUE,,,,,,FEW,2100,SCT,3400,,,,,VFR,,,,,,0.005,,,,,,METAR,84.0
EGUN 241855Z 22012KT 9999 FEW030 13/13 A2969 RMK AO2A SLP057 T01270127 $,EGUN,2022-10-24T18:55:00Z,52.37,0.48,12.7,12.7,220,12,,6.21,29.68996,1005.7,,,TRUE,TRUE,,,,,,FEW,3000,,,,,,,VFR,,,,,,,,,,,,METAR,10.0
EGUL 241855Z 21009KT 9999 SCT050 13/13 A2968 RMK AO2A SLP054 T01290127 $,EGUL,2022-10-24T18:55:00Z,52.42,0.57,12.9,12.7,210,9,,6.21,29.681103,1005.4,,,TRUE,TRUE,,,,,,SCT,5000,,,,,,,VFR,,,,,,,,,,,,METAR,8.0
BGTL 241855Z AUTO 08007KT 9999 CLR M11/M14 A2956 RMK AO2 SLP999 T11101136 TSNO $,BGTL,2022-10-24T18:55:00Z,76.53,-68.75,-11.0,-13.6,80,7,,6.21,29.56004,999.9,,TRUE,TRUE,TRUE,,TRUE,,,,CLR,,,,,,,,VFR,,,,,,,,,,,,METAR,79.0
PHOG 241854Z 08014G20KT 10SM FEW050 30/17 A3004 RMK AO2 SLP177 T03000167,PHOG,2022-10-24T18:54:00Z,20.9,-156.43,30.0,16.7,80,14,20,10.0,30.041338,1017.7,,,TRUE,,,,,,,FEW,5000,,,,,,,VFR,,,,,,,,,,,,METAR,14.0
PHMK 241854Z 05008G16KT 10SM FEW037 27/20 A3006 RMK AO2 SLP181 T02720200,PHMK,2022-10-24T18:54:00Z,21.15,-157.1,27.2,20.0,50,8,16,10.0,30.059055,1018.1,,,TRUE,,,,,,,FEW,3700,,,,,,,VFR,,,,,,,,,,,,METAR,135.0
PGUM 241854Z 11004KT 10SM FEW020 27/25 A2981 RMK AO2 SLP087 T02720250,PGUM,2022-10-24T18:54:00Z,13.48,144.8,27.2,25.0,110,4,,10.0,29.811024,1008.7,,,TRUE,,,,,,,FEW,2000,,,,,,,VFR,,,,,,,,,,,,METAR,74.0
PAHN 241854Z AUTO 33009KT 10SM FEW095 FEW120 06/M03 A2966 RMK AO2 SLP046 T00561028 TSNO,PAHN,2022-10-24T18:54:00Z,59.25,-135.52,5.6,-2.8,330,9,,10.0,29.660433,1004.6,,TRUE,TRUE,,,TRUE,,,,FEW,9500,FEW,12000,,,,,VFR,,,,,,,,,,,,METAR,15.0
KWLD 241854Z AUTO 36007KT 10SM OVC008 11/M01 A2976 RMK AO2 RAE12 SLP071 P0001 T01111006,KWLD,2022-10-24T18:54:00Z,37.17,-97.03,11.1,-0.6,360,7,,10.0,29.760826,1007.1,,TRUE,TRUE,,,,,,,OVC,800,,,,,,,IFR,,,,,,0.01,,,,,,METAR,351.0
KVTA 241854Z AUTO 16007KT 10SM CLR 25/05 A3008 RMK AO2 SLP182 T02500050,KVTA,2022-10-24T18:54:00Z,40.02,-82.47,25.0,5.0,160,7,,10.0,30.079725,1018.2,,TRUE,TRUE,,,,,,,CLR,,,,,,,,VFR,,,,,,,,,,,,METAR,268.0
KVSF 241854Z AUTO 00000KT 10SM -RA OVC012 14/12 A3023 RMK AO2 RAB04 SLP239 P0000 T01440122,KVSF,2022-10-24T18:54:00Z,43.35,-72.52,14.4,12.2,0,0,,10.0,30.230314,1023.9,,TRUE,TRUE,,,,,,-RA,OVC,1200,,,,,,,MVFR,,,,,,0.005,,,,,,METAR,176.0
KVAY 241854Z AUTO 03005KT 2 1/2SM BR OVC004 15/14 A3011 RMK AO2 SLP196 T01500144,KVAY,2022-10-24T18:54:00Z,39.93,-74.83,15.0,14.4,30,5,,2.5,30.109253,1019.6,,TRUE,TRUE,,,,,,BR,OVC,400,,,,,,,LIFR,,,,,,,,,,,,METAR,15.0
KUZA 241854Z AUTO VRB03KT 10SM CLR 23/09 A3015 RMK AO2 SLP206 T02280094,KUZA,2022-10-24T18:54:00Z,34.98,-81.05,22.8,9.4,0,3,,10.0,30.15059,1020.6,,TRUE,TRUE,,,,,,,CLR,,,,,,,,VFR,,,,,,,,,,,,METAR,198.0
KUIN 241854Z AUTO 17013G25KT 10SM BKN036 OVC095 22/15 A2974 RMK AO2 PK WND 16027/1837 SLP065 T02220150,KUIN,2022-10-24T18:54:00Z,39.95,-91.2,22.2,15.0,170,13,25,10.0,29.740158,1006.5,,TRUE,TRUE,,,,,,,BKN,3600,OVC,9500,,,,,VFR,,,,,,,,,,,,METAR,233.0
KTQE 241854Z AUTO 33004KT 10SM -RA FEW075 OVC095 09/04 A2976 RMK AO2 SLP069 P0003 T00940044,KTQE,2022-10-24T18:54:00Z,41.77,-96.18,9.4,4.4,330,4,,10.0,29.760826,1006.9,,TRUE,TRUE,,,,,,-RA,FEW,7500,OVC,9500,,,,,VFR,,,,,,0.03,,,,,,METAR,312.0
KSYR 241854Z 03008KT 10SM FEW025 BKN034 BKN110 20/13 A3015 RMK AO2 SLP206 T02000128,KSYR,2022-10-24T18:54:00Z,43.12,-76.1,20.0,12.8,30,8,,10.0,30.15059,1020.6,,,TRUE,,,,,,,FEW,2500,BKN,3400,BKN,11000,,,VFR,,,,,,,,,,,,METAR,125.0
KSUS 241854Z 16008G24KT 10SM SCT085 BKN200 24/15 A2979 RMK AO2 SLP081 T02390150,KSUS,2022-10-24T18:54:00Z,38.65,-90.65,23.9,15.0,160,8,24,10.0,29.790354,1008.1,,,TRUE,,,,,,,SCT,8500,BKN,20000,,,,,VFR,,,,,,,,,,,,METAR,140.0
KSLC 241854Z 25007KT 10SM FEW037 BKN049 BKN055 06/M02 A3022 RMK AO2 SLP232 T00611022,KSLC,2022-10-24T18:54:00Z,40.77,-111.97,6.1,-2.2,250,7,,10.0,30.221457,1023.2,,,TRUE,,,,,,,FEW,3700,BKN,4900,BKN,5500,,,VFR,,,,,,,,,,,,METAR,1286.0
KSET 241854Z AUTO 17015G23KT 10SM OVC080 24/15 A2980 RMK AO2 PK WND 17029/1820 RAE39 SLP087 P0000 T02390150,KSET,2022-10-24T18:54:00Z,38.93,-90.43,23.9,15.0,170,15,23,10.0,29.799213,1008.7,,TRUE,TRUE,,,,,,,OVC,8000,,,,,,,VFR,,,,,,0.005,,,,,,METAR,133.0
KSBY 241854Z 33007KT 7SM OVC006 17/16 A3009 RMK AO2 CIG 004V009 SLP190 T01670156,KSBY,2022-10-24T18:54:00Z,38.33,-75.5,16.7,15.6,330,7,,7.0,30.088583,1019.0,,,TRUE,,,,,,,OVC,600,,,,,,,IFR,,,,,,,,,,,,METAR,14.0
KSBN 241854Z 17013KT 10SM CLR 23/12 A2993 RMK AO2 SLP132 T02280117,KSBN,2022-10-24T18:54:00Z,41.7,-86.32,22.8,11.7,170,13,,10.0,29.929134,1013.2,,,TRUE,,,,,,,CLR,,,,,,,,VFR,,,,,,,,,,,,METAR,236.0
KROC 241854Z 06009KT 10SM FEW230 21/11 A3013 RMK AO2 SLP207 P0000 T02060111,KROC,2022-10-24T18:54:00Z,43.12,-77.68,20.6,11.1,60,9,,10.0,30.129921,1020.7,,,TRUE,,,,,,,FEW,23000,,,,,,,VFR,,,,,,0.005,,,,,,METAR,166.0
KROA 241854Z 00000KT 10SM CLR 24/06 A3014 RMK AO2 SLP201 T02390061,KROA,2022-10-24T18:54:00Z,37.32,-79.97,23.9,6.1,0,0,,10.0,30.138779,1020.1,,,TRUE,,,,,,,CLR,,,,,,,,VFR,,,,,,,,,,,,METAR,349.0
KRKS 241854Z AUTO 28022G39KT 10SM CLR 02/M08 A3003 RMK AO2 PK WND 27039/1846 SLP188 T00171078,KRKS,2022-10-24T18:54:00Z,41.6,-109.07,1.7,-7.8,280,22,39,10.0,30.029528,1018.8,,TRUE,TRUE,,,,,,,CLR,,,,,,,,VFR,,,,,,,,,,,,METAR,2062.0
KRIC 241854Z 00000KT 10SM BKN028 23/14 A3011 RMK AO2 SLP198 T02280139,KRIC,2022-10-24T18:54:00Z,37.52,-77.32,22.8,13.9,0,0,,10.0,30.109253,1019.8,,,TRUE,,,,,,,BKN,2800,,,,,,,MVFR,,,,,,,,,,,,METAR,51.0
KRFD 241854Z 18014G22KT 10SM FEW065 SCT200 OVC250 23/13 A2979 RMK AO2 PK WND 17026/1838 SLP085 T02280133,KRFD,2022-10-24T18:54:00Z,42.2,-89.1,22.8,13.3,180,14,22,10.0,29.790354,1008.5,,,TRUE,,,,,,,FEW,6500,SCT,20000,OVC,25000,,,VFR,,,,,,,,,,,,METAR,222.0
KRBL 241854Z AUTO 35008KT 10SM CLR 20/M04 A3019 RMK AO2 SLP220 T02001044,KRBL,2022-10-24T18:54:00Z,40.15,-122.25,20.0,-4.4,350,8,,10.0,30.188976,1022.0,,TRUE,TRUE,,,,,,,CLR,,,,,,,,VFR,,,,,,,,,,,,METAR,107.0
KPNE 241854Z 05009KT 5SM BR OVC005 16/14 A3013 RMK AO2 SLP203 T01560139,KPNE,2022-10-24T18:54:00Z,40.08,-75.02,15.6,13.9,50,9,,5.0,30.129921,1020.3,,,TRUE,,,,,,BR,OVC,500,,,,,,,IFR,,,,,,,,,,,,METAR,32.0
KPLN 241854Z AUTO 12004KT 10SM CLR 21/13 A2988 RMK AO2 SLP116 T02110128,KPLN,2022-10-24T18:54:00Z,45.57,-84.8,21.1,12.8,120,4,,10.0,29.878937,1011.6,,TRUE,TRUE,,,,,,,CLR,,,,,,,,VFR,,,,,,,,,,,,METAR,215.0
KPIA 241854Z 18021G28KT 10SM SCT049 BKN080 24/13 A2980 RMK AO2 PK WND 17035/1804 SLP086 T02440133,KPIA,2022-10-24T18:54:00Z,40.67,-89.68,24.4,13.3,180,21,28,10.0,29.799213,1008.6,,,TRUE,,,,,,,SCT,4900,BKN,8000,,,,,VFR,,,,,,,,,,,,METAR,200.0
KPHL 241854Z 05009KT 8SM OVC007 16/14 A3012 RMK AO2 SLP200 T01610144,KPHL,2022-10-24T18:54:00Z,39.87,-75.23,16.1,14.4,50,9,,8.0,30.121063,1020.0,,,TRUE,,,,,,,OVC,700,,,,,,,IFR,,,,,,,,,,,,METAR,2.0
KPHF 241854Z 33006KT 10SM OVC020 18/13 A3011 RMK AO2 SLP196 T01780133,KPHF,2022-10-24T18:54:00Z,37.13,-76.5,17.8,13.3,330,6,,10.0,30.109253,1019.6,,,TRUE,,,,,,,OVC,2000,,,,,,,MVFR,,,,,,,,,,,,METAR,12.0
KOLS 241854Z AUTO 31009G19KT 250V360 10SM CLR 15/M09 A3014 RMK AO2 SLP168 T01501089,KOLS,2022-10-24T18:54:00Z,31.42,-110.85,15.0,-8.9,310,9,19,10.0,30.138779,1016.8,,TRUE,TRUE,,,,,,,CLR,,,,,,,,VFR,,,,,,,,,,,,METAR,1194.0
KOFP 241854Z AUTO VRB04KT 10SM BKN030 21/14 A3012 RMK AO2 SLP198 T02110139,KOFP,2022-10-24T18:54:00Z,37.7,-77.43,21.1,13.9,0,4,,10.0,30.121063,1019.8,,TRUE,TRUE,,,,,,,BKN,3000,,,,,,,MVFR,,,,,,,,,,,,METAR,63.0
KNAK 241854Z AUTO 34006KT 10SM OVC015 17/13 A3011 RMK AO2 SLP199 T01670133,KNAK,2022-10-24T18:54:00Z,38.98,-76.48,16.7,13.3,340,6,,10.0,30.109253,1019.9,,TRUE,TRUE,,,,,,,OVC,1500,,,,,,,MVFR,,,,,,,,,,,,METAR,2.0
KMVL 241854Z AUTO 19005KT 10SM OVC024 17/12 A3024 RMK AO2 SLP242 T01720122,KMVL,2022-10-24T18:54:00Z,44.53,-72.62,17.2,12.2,190,5,,10.0,30.239174,1024.2,,TRUE,TRUE,,,,,,,OVC,2400,,,,,,,MVFR,,,,,,,,,,,,METAR,226.0
KMTP 241854Z AUTO 06006KT 16/16 A3017 RMK AO1 SLP217 T01610156,KMTP,2022-10-24T18:54:00Z,41.07,-71.92,16.1,15.6,60,6,,,30.171259,1021.7,,TRUE,TRUE,,,,,,,,,,,,,,,,,,,,,,,,,,,METAR,2.0
KMRY 241854Z 33008KT 10SM CLR 19/00 A3022 RMK AO2 SLP244 T01890000,KMRY,2022-10-24T18:54:00Z,36.58,-121.85,18.9,0.0,330,8,,10.0,30.221457,1024.4,,,TRUE,,,,,,,CLR,,,,,,,,VFR,,,,,,,,,,,,METAR,51.0
KMOT 241854Z 29022G34KT 9SM BKN015 OVC020 01/M01 A2947 RMK AO2 PK WND 29037/1757 UPE08 SLP996 P0000 T00111011 $,KMOT,2022-10-24T18:54:00Z,48.25,-101.27,1.1,-1.1,290,22,34,9.0,29.471457,999.6,,,TRUE,TRUE,,,,,,BKN,1500,OVC,2000,,,,,MVFR,,,,,,0.005,,,,,,METAR,507.0
KMIV 241854Z AUTO 05008KT 4SM BR OVC004 16/16 A3010 RMK AO2 SLP190 T01610156,KMIV,2022-10-24T18:54:00Z,39.37,-75.08,16.1,15.6,50,8,,4.0,30.100393,1019.0,,TRUE,TRUE,,,,,,BR,OVC,400,,,,,,,LIFR,,,,,,,,,,,,METAR,18.0
KMGJ 241854Z AUTO 02006KT 10SM BKN006 OVC009 14/13 A3016 RMK AO2 CIG 004V008 SLP212 T01390128,KMGJ,2022-10-24T18:54:00Z,41.52,-74.27,13.9,12.8,20,6,,10.0,30.159449,1021.2,,TRUE,TRUE,,,,,,,BKN,600,OVC,900,,,,,IFR,,,,,,,,,,,,METAR,106.0
KMFI 241854Z AUTO 18010KT 10SM SCT035 OVC065 18/14 A2969 RMK AO2 SLP051 T01830144,KMFI,2022-10-24T18:54:00Z,44.63,-90.18,18.3,14.4,180,10,,10.0,29.68996,1005.1,,TRUE,TRUE,,,,,,,SCT,3500,OVC,6500,,,,,VFR,,,,,,,,,,,,METAR,383.0
KMEM 241854Z 17012KT 10SM SCT033 BKN048 BKN250 24/16 A2993 RMK AO2 SLP133 T02390156 $,KMEM,2022-10-24T18:54:00Z,35.07,-89.98,23.9,15.6,170,12,,10.0,29.929134,1013.3,,,TRUE,TRUE,,,,,,SCT,3300,BKN,4800,BKN,25000,,,VFR,,,,,,,,,,,,METAR,78.0
KLYH 241854Z 00000KT 10SM CLR 24/07 A3012 RMK AO2 SLP192 T02440067,KLYH,2022-10-24T18:54:00Z,37.32,-79.2,24.4,6.7,0,0,,10.0,30.121063,1019.2,,,TRUE,,,,,,,CLR,,,,,,,,VFR,,,,,,,,,,,,METAR,282.0
KLWT 241854Z AUTO 24014KT 10SM CLR 03/M02 A2976 RMK AO2 SLP101 T00281022,KLWT,2022-10-24T18:54:00Z,47.05,-109.47,2.8,-2.2,240,14,,10.0,29.760826,1010.1,,TRUE,TRUE,,,,,,,CLR,,,,,,,,VFR,,,,,,,,,,,,METAR,1254.0
KLWM 241854Z 02004KT 10SM OVC007 15/14 A3025 RMK AO2 RAE16 CIG 004V010 SLP242 P0001 T01500139,KLWM,2022-10-24T18:54:00Z,42.72,-71.13,15.0,13.9,20,4,,10.0,30.250984,1024.2,,,TRUE,,,,,,,OVC,700,,,,,,,IFR,,,,,,0.01,,,,,,METAR,42.0
KLNK 241854Z 08003KT 10SM -RA FEW049 SCT075 BKN090 09/06 A2975 RMK AO2 SLP069 P0001 T00940056,KLNK,2022-10-24T18:54:00Z,40.85,-96.77,9.4,5.6,80,3,,10.0,29.749016,1006.9,,,TRUE,,,,,,-RA,FEW,4900,SCT,7500,BKN,9000,,,VFR,,,,,,0.01,,,,,,METAR,357.0
KLEX 241854Z 19011KT 10SM CLR 26/03 A3007 RMK AO2 SLP176 T02560033,KLEX,2022-10-24T18:54:00Z,38.03,-84.6,25.6,3.3,190,11,,10.0,30.070866,1017.6,,,TRUE,,,,,,,CLR,,,,,,,,VFR,,,,,,,,,,,,METAR,294.0
KLAF 241854Z 20010G23KT 10SM FEW050 24/12 A2992 RMK AO2 PK WND 15027/1842 SLP130 T02440117,KLAF,2022-10-24T18:54:00Z,40.42,-86.93,24.4,11.7,200,10,23,10.0,29.920275,1013.0,,,TRUE,,,,,,,FEW,5000,,,,,,,VFR,,,,,,,,,,,,METAR,182.0
KJST 241854Z VRB05KT 10SM CLR 21/12 A3014,KJST,2022-10-24T18:54:00Z,40.32,-78.83,21.0,12.0,0,5,,10.0,30.138779,,,,,,,,,,,CLR,,,,,,,,VFR,,,,,,,,,,,,METAR,695.0
KJAN 241854Z 18016G22KT 10SM SCT045 SCT250 29/13 A2995 RMK AO2 SLP140 T02890128,KJAN,2022-10-24T18:54:00Z,32.32,-90.08,28.9,12.8,180,16,22,10.0,29.949802,1014.0,,,TRUE,,,,,,,SCT,4500,SCT,25000,,,,,VFR,,,,,,,,,,,,METAR,92.0
KISW 241854Z AUTO 18008G19KT 10SM SCT047 OVC055 20/14 A2972 RMK AO2 SLP060 T02000139,KISW,2022-10-24T18:54:00Z,44.37,-89.83,20.0,13.9,180,8,19,10.0,29.719488,1006.0,,TRUE,TRUE,,,,,,,SCT,4700,OVC,5500,,,,,VFR,,,,,,,,,,,,METAR,311.0
KIPT 241854Z 17003KT 10SM OVC020 17/13 A3014 RMK AO2 SLP205 T01720128,KIPT,2022-10-24T18:54:00Z,41.25,-76.92,17.2,12.8,170,3,,10.0,30.138779,1020.5,,,TRUE,,,,,,,OVC,2000,,,,,,,MVFR,,,,,,,,,,,,METAR,160.0
KINT 241854Z 00000KT 10SM CLR 23/07 A3014 RMK AO2 SLP200 T02330072,KINT,2022-10-24T18:54:00Z,36.13,-80.22,23.3,7.2,0,0,,10.0,30.138779,1020.0,,,TRUE,,,,,,,CLR,,,,,,,,VFR,,,,,,,,,,,,METAR,292.0
KINL 241854Z AUTO 22010G28KT 10SM CLR 16/08 A2934 RMK AO2 PK WND 17031/1757 SLP936 T01560078,KINL,2022-10-24T18:54:00Z,48.57,-93.4,15.6,7.8,220,10,28,10.0,29.338583,993.6,,TRUE,TRUE,,,,,,,CLR,,,,,,,,VFR,,,,,,,,,,,,METAR,353.0
KIND 241854Z 20011KT 10SM SCT190 BKN250 24/09 A2997 RMK AO2 SLP146 T02390089,KIND,2022-10-24T18:54:00Z,39.72,-86.27,23.9,8.9,200,11,,10.0,29.970472,1014.6,,,TRUE,,,,,,,SCT,19000,BKN,25000,,,,,VFR,,,,,,,,,,,,METAR,242.0
KIMT 241854Z AUTO 15010G20KT 10SM CLR 20/14 A2970 RMK AO2 SLP057 T02000139,KIMT,2022-10-24T18:54:00Z,45.82,-88.12,20.0,13.9,150,10,20,10.0,29.698818,1005.7,,TRUE,TRUE,,,,,,,CLR,,,,,,,,VFR,,,,,,,,,,,,METAR,343.0
KILN 241854Z AUTO 19009KT 10SM CLR 24/03 A3007 RMK AO2 SLP181 T02390033,KILN,2022-10-24T18:54:00Z,39.43,-83.8,23.9,3.3,190,9,,10.0,30.070866,1018.1,,TRUE,TRUE,,,,,,,CLR,,,,,,,,VFR,,,,,,,,,,,,METAR,325.0
KHWD 241854Z 23006KT 10SM CLR 18/07 A3022 RMK AO2 SLP242 T01830067,KHWD,2022-10-24T18:54:00Z,37.67,-122.12,18.3,6.7,230,6,,10.0,30.221457,1024.2,,,TRUE,,,,,,,CLR,,,,,,,,VFR,,,,,,,,,,,,METAR,9.0
KGSO 241854Z 11004KT 10SM FEW250 23/08 A3012 RMK AO2 SLP193 T02280083,KGSO,2022-10-24T18:54:00Z,36.1,-79.95,22.8,8.3,110,4,,10.0,30.121063,1019.3,,,TRUE,,,,,,,FEW,25000,,,,,,,VFR,,,,,,,,,,,,METAR,275.0
KGCN 241854Z VRB06KT 10SM CLR 07/M12 A3019 RMK AO2 SLP207 T00671122,KGCN,2022-10-24T18:54:00Z,35.95,-112.15,6.7,-12.2,0,6,,10.0,30.188976,1020.7,,,TRUE,,,,,,,CLR,,,,,,,,VFR,,,,,,,,,,,,METAR,1993.0
KGCK 241854Z 36021G28KT 10SM CLR 14/M04 A2982 RMK AO2 PK WND 36031/1817 SLP085 T01391039,KGCK,2022-10-24T18:54:00Z,37.92,-100.72,13.9,-3.9,360,21,28,10.0,29.819881,1008.5,,,TRUE,,,,,,,CLR,,,,,,,,VFR,,,,,,,,,,,,METAR,877.0
KFWA 241854Z 19010KT 10SM FEW150 BKN250 23/09 A3001 RMK AO2 SLP159 T02330094,KFWA,2022-10-24T18:54:00Z,40.98,-85.2,23.3,9.4,190,10,,10.0,30.008858,1015.9,,,TRUE,,,,,,,FEW,15000,BKN,25000,,,,,VFR,,,,,,,,,,,,METAR,243.0
KFIG 241854Z AUTO 06004KT 10SM OVC039 21/11 A3013 RMK AO2 SLP202 T02110111,KFIG,2022-10-24T18:54:00Z,41.05,-78.42,21.1,11.1,60,4,,10.0,30.129921,1020.2,,TRUE,TRUE,,,,,,,OVC,3900,,,,,,,VFR,,,,,,,,,,,,METAR,461.0
KFFZ 241854Z 00000KT 10SM CLR 18/M05 A3011 RMK AO2 SLP181 T01831050,KFFZ,2022-10-24T18:54:00Z,33.47,-111.72,18.3,-5.0,0,0,,10.0,30.109253,1018.1,,,TRUE,,,,,,,CLR,,,,,,,,VFR,,,,,,,,,,,,SPECI,420.0
KEWN 241854Z VRB06KT 10SM CLR 21/14 A3011 RMK AO2 SLP197 T02060144,KEWN,2022-10-24T18:54:00Z,35.07,-77.05,20.6,14.4,0,6,,10.0,30.109253,1019.7,,,TRUE,,,,,,,CLR,,,,,,,,VFR,,,,,,,,,,,,METAR,3.0
KEVV 241854Z 18016G24KT 10SM CLR 27/09 A2996 RMK AO2 SLP142 T02670094,KEVV,2022-10-24T18:54:00Z,38.05,-87.52,26.7,9.4,180,16,24,10.0,29.958662,1014.2,,,TRUE,,,,,,,CLR,,,,,,,,VFR,,,,,,,,,,,,METAR,123.0
KEUG 241854Z 19011KT 2SM -RA BR FEW007 OVC023 11/11 A3013 RMK AO2 TWR VIS 2 1/2 SLP204 P0000 T01110106,KEUG,2022-10-24T18:54:00Z,44.13,-123.22,11.1,10.6,190,11,,2.0,30.129921,1020.4,,,TRUE,,,,,,-RA BR,FEW,700,OVC,2300,,,,,IFR,,,,,,0.005,,,,,,METAR,109.0
KEFD 241854Z 15021G29KT 10SM OVC060 28/19 A2980,KEFD,2022-10-24T18:54:00Z,29.6,-95.17,28.0,19.0,150,21,29,10.0,29.799213,,,,,,,,,,,OVC,6000,,,,,,,VFR,,,,,,,,,,,,METAR,9.0
KECG 241854Z 33006KT 10SM OVC010 17/14 A3011 RMK AO2 SLP197 T01670139,KECG,2022-10-24T18:54:00Z,36.27,-76.18,16.7,13.9,330,6,,10.0,30.109253,1019.7,,,TRUE,,,,,,,OVC,1000,,,,,,,MVFR,,,,,,,,,,,,METAR,2.0
KDYL 241854Z AUTO 04005KT 10SM OVC006 16/13 A3012 RMK AO2 SLP201 T01560133,KDYL,2022-10-24T18:54:00Z,40.33,-75.12,15.6,13.3,40,5,,10.0,30.121063,1020.1,,TRUE,TRUE,,,,,,,OVC,600,,,,,,,IFR,,,,,,,,,,,,METAR,121.0
KDSV 241854Z AUTO 00000KT 8SM CLR 23/11 A3012 RMK AO2 SLP206 T02280106,KDSV,2022-10-24T18:54:00Z,42.57,-77.72,22.8,10.6,0,0,,8.0,30.121063,1020.6,,TRUE,TRUE,,,,,,,CLR,,,,,,,,VFR,,,,,,,,,,,,METAR,195.0
KDMH 241854Z AUTO 17/13 A3012 RMK AO1 SLP200 T01720133,KDMH,2022-10-24T18:54:00Z,39.28,-76.62,17.2,13.3,,,,,30.121063,1020.0,,TRUE,TRUE,,,,,,,,,,,,,,,,,,,,,,,,,,,SPECI,4.0
KDEC 241854Z 19022G32KT 10SM FEW048 SCT065 24/14 A2986 RMK AO2 PK WND 19033/1843 SLP108 T02440144,KDEC,2022-10-24T18:54:00Z,39.83,-88.87,24.4,14.4,190,22,32,10.0,29.861221,1010.8,,,TRUE,,,,,,,FEW,4800,SCT,6500,,,,,VFR,,,,,,,,,,,,METAR,205.0
KCRW 241854Z 34005KT 10SM FEW200 25/04 A3010 RMK AO2 SLP189 T02500039,KCRW,2022-10-24T18:54:00Z,38.38,-81.58,25.0,3.9,340,5,,10.0,30.100393,1018.9,,,TRUE,,,,,,,FEW,20000,,,,,,,VFR,,,,,,,,,,,,METAR,278.0
KCOU 241854Z 15018G26KT 10SM BKN030 OVC080 23/16 A2972 RMK AO2 PK WND 17027/1819 SLP057 T02280161,KCOU,2022-10-24T18:54:00Z,38.82,-92.22,22.8,16.1,150,18,26,10.0,29.719488,1005.7,,,TRUE,,,,,,,BKN,3000,OVC,8000,,,,,MVFR,,,,,,,,,,,,METAR,272.0
KCOS 241854Z 22003KT 10SM SCT045 SCT250 07/M06 A2989 RMK AO2 SLP121 T00671056,KCOS,2022-10-24T18:54:00Z,38.82,-104.68,6.7,-5.6,220,3,,10.0,29.890747,1012.1,,,TRUE,,,,,,,SCT,4500,SCT,25000,,,,,VFR,,,,,,,,,,,,METAR,1886.0
KCEU 241854Z AUTO 15003KT 10SM CLR 22/04 A3014 RMK AO2 SLP202 T02220044,KCEU,2022-10-24T18:54:00Z,34.67,-82.88,22.2,4.4,150,3,,10.0,30.138779,1020.2,,TRUE,TRUE,,,,,,,CLR,,,,,,,,VFR,,,,,,,,,,,,METAR,270.0
KCAR 241854Z AUTO 31003KT 4SM -RA BR OVC090 14/12 A3032 RMK AO2 RAB29 SLP274 P0002 T01440122,KCAR,2022-10-24T18:54:00Z,46.87,-68.02,14.4,12.2,310,3,,4.0,30.318897,1027.4,,TRUE,TRUE,,,,,,-RA BR,OVC,9000,,,,,,,MVFR,,,,,,0.02,,,,,,METAR,189.0
KBWI 241854Z 36007KT 10SM BKN014 OVC020 17/14 A3011 RMK AO2 SLP196 T01720139,KBWI,2022-10-24T18:54:00Z,39.17,-76.68,17.2,13.9,360,7,,10.0,30.109253,1019.6,,,TRUE,,,,,,,BKN,1400,OVC,2000,,,,,MVFR,,,,,,,,,,,,METAR,42.0
KBUY 241854Z AUTO 34005KT 10SM CLR 24/09 A3012 RMK AO2 SLP196 T02440089,KBUY,2022-10-24T18:54:00Z,36.05,-79.47,24.4,8.9,340,5,,10.0,30.121063,1019.6,,TRUE,TRUE,,,,,,,CLR,,,,,,,,VFR,,,,,,,,,,,,METAR,185.0
KBUF 241854Z 00000KT 10SM FEW250 23/11 A3011 RMK AO2 SLP196 T02280111,KBUF,2022-10-24T18:54:00Z,42.93,-78.73,22.8,11.1,0,0,,10.0,30.109253,1019.6,,,TRUE,,,,,,,FEW,25000,,,,,,,VFR,,,,,,,,,,,,METAR,217.0
KBTV 241854Z 00000KT 10SM SCT032 BKN120 18/13 A3020 RMK AO2 SLP227 T01830133,KBTV,2022-10-24T18:54:00Z,44.47,-73.15,18.3,13.3,0,0,,10.0,30.200787,1022.7,,,TRUE,,,,,,,SCT,3200,BKN,12000,,,,,VFR,,,,,,,,,,,,METAR,101.0
KBOS 241854Z 02006KT 7SM OVC007 16/14 A3023 RMK AO2 SLP235 T01560144,KBOS,2022-10-24T18:54:00Z,42.37,-71.02,15.6,14.4,20,6,,7.0,30.230314,1023.5,,,TRUE,,,,,,,OVC,700,,,,,,,IFR,,,,,,,,,,,,METAR,4.0
KBFL 241854Z VRB04KT 9SM CLR 19/M02 A3022 RMK AO2 SLP229 T01891017,KBFL,2022-10-24T18:54:00Z,35.43,-119.05,18.9,-1.7,0,4,,9.0,30.221457,1022.9,,,TRUE,,,,,,,CLR,,,,,,,,VFR,,,,,,,,,,,,METAR,146.0
KAVL 241854Z VRB03KT 10SM CLR 22/M01 A3015 RMK AO2 SLP199 T02221011,KAVL,2022-10-24T18:54:00Z,35.43,-82.53,22.2,-1.1,0,3,,10.0,30.15059,1019.9,,,TRUE,,,,,,,CLR,,,,,,,,VFR,,,,,,,,,,,,METAR,646.0
KAUW 241854Z AUTO 15013G22KT 10SM OVC065 19/13 A2969 RMK AO2 SLP052 T01940133,KAUW,2022-10-24T18:54:00Z,44.93,-89.62,19.4,13.3,150,13,22,10.0,29.68996,1005.2,,TRUE,TRUE,,,,,,,OVC,6500,,,,,,,VFR,,,,,,,,,,,,METAR,367.0
KAPN 241854Z AUTO 16015G21KT 10SM CLR 23/08 A2993 RMK AO2 SLP134 T02330083,KAPN,2022-10-24T18:54:00Z,45.07,-83.57,23.3,8.3,160,15,21,10.0,29.929134,1013.4,,TRUE,TRUE,,,,,,,CLR,,,,,,,,VFR,,,,,,,,,,,,METAR,208.0
KAPC 241854Z 21006KT 10SM CLR 21/00 A3021 RMK AO2 SLP222 T02060000,KAPC,2022-10-24T18:54:00Z,38.2,-122.28,20.6,0.0,210,6,,10.0,30.209646,1022.2,,,TRUE,,,,,,,CLR,,,,,,,,VFR,,,,,,,,,,,,METAR,5.0
KALO 241854Z 31009KT 9SM -RA BKN016 OVC065 12/10 A2968 RMK AO2 RAE1757B47 SLP051 P0000 T01220100,KALO,2022-10-24T18:54:00Z,42.55,-92.4,12.2,10.0,310,9,,9.0,29.681103,1005.1,,,TRUE,,,,,,-RA,BKN,1600,OVC,6500,,,,,MVFR,,,,,,0.005,,,,,,METAR,264.0
KAKR 241854Z AUTO VRB04KT 10SM CLR 24/05 A3008 RMK AO2 SLP184 T02440050,KAKR,2022-10-24T18:54:00Z,41.03,-81.47,24.4,5.0,0,4,,10.0,30.079725,1018.4,,TRUE,TRUE,,,,,,,CLR,,,,,,,,VFR,,,,,,,,,,,,METAR,319.0
KAKH 241854Z AUTO VRB03KT 10SM CLR 23/10 A3014 RMK AO2 SLP203 T02330100,KAKH,2022-10-24T18:54:00Z,35.2,-81.15,23.3,10.0,0,3,,10.0,30.138779,1020.3,,TRUE,TRUE,,,,,,,CLR,,,,,,,,VFR,,,,,,,,,,,,METAR,242.0
K1V4 241854Z AUTO 19/11 A3020 RMK AO1 SLP225 T01890106 PNO,K1V4,2022-10-24T18:54:00Z,44.42,-72.02,18.9,10.6,,,,,30.200787,1022.5,,TRUE,TRUE,,,,,,,,,,,,,,,,,,,,,,,,,,,SPECI,213.0
K12N 241854Z AUTO VRB03KT 14/12 A3015 RMK AO1 SLP209 P0018 T01440122 $,K12N,2022-10-24T18:54:00Z,41.02,-74.73,14.4,12.2,0,3,,,30.15059,1020.9,,TRUE,TRUE,TRUE,,,,,,,,,,,,,,,,,,,,0.18,,,,,,METAR,178.0
TJNR 241853Z AUTO 11009KT 10SM SCT028 30/24 A2991 RMK AO2 SLP127 T03000239,TJNR,2022-10-24T18:53:00Z,18.25,-65.63,30.0,23.9,110,9,,10.0,29.911417,1012.7,,TRUE,TRUE,,,,,,,SCT,2800,,,,,,,VFR,,,,,,,,,,,,SPECI,7.0
TISX 241853Z 11009KT 10SM SCT027 31/24 A2990 RMK AO2 SLP122 T03110244,TISX,2022-10-24T18:53:00Z,17.7,-64.8,31.1,24.4,110,9,,10.0,29.899607,1012.2,,,TRUE,,,,,,,SCT,2700,,,,,,,VFR,,,,,,,,,,,,SPECI,16.0
TIST 241853Z 13010KT 10SM FEW030 31/24 A2989 RMK AO2 SLP123 T03060239,TIST,2022-10-24T18:53:00Z,18.33,-64.98,30.6,23.9,130,10,,10.0,29.890747,1012.3,,,TRUE,,,,,,,FEW,3000,,,,,,,VFR,,,,,,,,,,,,SPECI,5.0
PTTP 241853Z 14004KT 15SM BKN018 OVC130 24/23 A2984 RMK SLP103 T02400228,PTTP,2022-10-24T18:53:00Z,6.97,158.22,24.0,22.8,140,4,,15.0,29.840551,1010.3,,,,,,,,,,BKN,1800,OVC,13000,,,,,MVFR,,,,,,,,,,,,METAR,36.0
PTKK 241853Z VRB05KT 15SM FEW014 SCT120 BKN280 27/24 A2975 RMK SLP076 T02740243,PTKK,2022-10-24T18:53:00Z,7.47,151.85,27.4,24.3,0,5,,15.0,29.749016,1007.6,,,,,,,,,,FEW,1400,SCT,12000,BKN,28000,,,VFR,,,,,,,,,,,,METAR,3.0
PHTO 241853Z 19005KT 10SM FEW034 27/20 A3007 RMK AO2 SLP182 T02720200,PHTO,2022-10-24T18:53:00Z,19.72,-155.05,27.2,20.0,190,5,,10.0,30.070866,1018.2,,,TRUE,,,,,,,FEW,3400,,,,,,,VFR,,,,,,,,,,,,METAR,9.0
PHNL 241853Z 06008KT 10SM FEW024 FEW045 SCT065 28/21 A3005 RMK AO2 SLP174 VCSH NW T02830211,PHNL,2022-10-24T18:53:00Z,21.33,-157.93,28.3,21.1,60,8,,10.0,30.050198,1017.4,,,TRUE,,,,,,,FEW,2400,FEW,4500,SCT,6500,,,VFR,,,,,,,,,,,,METAR,2.0
PHKO 241853Z 17003KT 10SM CLR 29/19 A3001 RMK AO2 SLP162 T02890189,PHKO,2022-10-24T18:53:00Z,19.73,-156.05,28.9,18.9,170,3,,10.0,30.008858,1016.2,,,TRUE,,,,,,,CLR,,,,,,,,VFR,,,,,,,,,,,,METAR,11.0
PHJR 241853Z 05007KT 10SM FEW046 FEW080 28/19 A3006 RMK AO2 SLP185 T02780194,PHJR,2022-10-24T18:53:00Z,21.32,-158.07,27.8,19.4,50,7,,10.0,30.059055,1018.5,,,TRUE,,,,,,,FEW,4600,FEW,8000,,,,,VFR,,,,,,,,,,,,METAR,9.0
PAYA 241853Z AUTO 00000KT 10SM CLR 01/M01 A2964 RMK AO2 SLP035 T00111006 TSNO $,PAYA,2022-10-24T18:53:00Z,59.52,-139.67,1.1,-0.6,0,0,,10.0,29.639763,1003.5,,TRUE,TRUE,TRUE,,TRUE,,,,CLR,,,,,,,,VFR,,,,,,,,,,,,METAR,9.0
PAWI 241853Z AUTO 09017KT 10SM CLR M12/M15 A2981 RMK AO2 SLP097 T11221150 TSNO $,PAWI,2022-10-24T18:53:00Z,70.63,-160.02,-12.2,-15.0,90,17,,10.0,29.811024,1009.7,,TRUE,TRUE,TRUE,,TRUE,,,,CLR,,,,,,,,VFR,,,,,,,,,,,,SPECI,12.0
PAWD 241853Z AUTO 36017G30KT 10SM CLR 02/M09 A2976 RMK AO2 PK WND 35030/1846 SLP077 T00221089 TSNO,PAWD,2022-10-24T18:53:00Z,60.12,-149.42,2.2,-8.9,360,17,30,10.0,29.760826,1007.7,,TRUE,TRUE,,,TRUE,,,,CLR,,,,,,,,VFR,,,,,,,,,,,,SPECI,3.0
PATO 241853Z AUTO 27004KT 10SM CLR M03/M06 A2981 RMK AO2 SLP094 T10281056 TSNO,PATO,2022-10-24T18:53:00Z,60.78,-148.85,-2.8,-5.6,270,4,,10.0,29.811024,1009.4,,TRUE,TRUE,,,TRUE,,,,CLR,,,,,,,,VFR,,,,,,,,,,,,SPECI,47.0
PATK 241853Z 05004KT 10SM CLR M07/M12 A2983 RMK AO2 SLP110 T10671117,PATK,2022-10-24T18:53:00Z,62.32,-150.1,-6.7,-11.7,50,4,,10.0,29.828741,1011.0,,,TRUE,,,,,,,CLR,,,,,,,,VFR,,,,,,,,,,,,METAR,107.0
PASO 241853Z AUTO 00000KT 10SM CLR M01/M02 A2983 RMK AO2 SLP102 T10111022 TSNO,PASO,2022-10-24T18:53:00Z,59.45,-151.7,-1.1,-2.2,0,0,,10.0,29.828741,1010.2,,TRUE,TRUE,,,TRUE,,,,CLR,,,,,,,,VFR,,,,,,,,,,,,SPECI,20.0
PASN 241853Z AUTO 14016KT 7SM -RA OVC009 05/03 A3002 RMK AO2 SLP167 P0001 T00500033 TSNO $,PASN,2022-10-24T18:53:00Z,57.15,-170.22,5.0,3.3,140,16,,7.0,30.02067,1016.7,,TRUE,TRUE,TRUE,,TRUE,,,-RA,OVC,900,,,,,,,IFR,,,,,,0.01,,,,,,METAR,8.0
PASI 241853Z 36004KT 10SM -RA FEW023 BKN042 OVC055 08/02 A2967 RMK P0000,PASI,2022-10-24T18:53:00Z,57.03,-135.35,8.0,2.0,360,4,,10.0,29.66929,,,,,,,,,,-RA,FEW,2300,BKN,4200,OVC,5500,,,VFR,,,,,,0.005,,,,,,METAR,2.0
PASC 241853Z 12009KT 3/4SM R06/4000V5000FT BR BKN002 M11/M12 A2998 RMK AO2 SLP154 I1003 T11111122,PASC,2022-10-24T18:53:00Z,70.2,-148.47,-11.1,-12.2,120,9,,0.75,29.97933,1015.4,,,TRUE,,,,,,BR,BKN,200,,,,,,,LIFR,,,,,,,,,,,,METAR,17.0
PAQT 241853Z AUTO 09009KT 10SM CLR M13/M15 A2999 RMK AO2 SLP156 T11331150 TSNO,PAQT,2022-10-24T18:53:00Z,70.22,-151.0,-13.3,-15.0,90,9,,10.0,29.991142,1015.6,,TRUE,TRUE,,,TRUE,,,,CLR,,,,,,,,VFR,,,,,,,,,,,,METAR,11.0
PAOR 241853Z 00000KT 10SM OVC042 M07/M08 A2982 RMK AO2 SLP138 T10721083,PAOR,2022-10-24T18:53:00Z,62.97,-141.93,-7.2,-8.3,0,0,,10.0,29.819881,1013.8,,,TRUE,,,,,,,OVC,4200,,,,,,,VFR,,,,,,,,,,,,METAR,524.0
PAOM 241853Z 00000KT 10SM SCT080 M02/M04 A2992 RMK AO2 SLP130 T10221039,PAOM,2022-10-24T18:53:00Z,64.5,-165.43,-2.2,-3.9,0,0,,10.0,29.920275,1013.0,,,TRUE,,,,,,,SCT,8000,,,,,,,VFR,,,,,,,,,,,,METAR,6.0
PANN 241853Z AUTO 06005KT 10SM BKN008 M04/M06 A2990 RMK AO2 SLP137 T10441061 TSNO,PANN,2022-10-24T18:53:00Z,64.55,-149.08,-4.4,-6.1,60,5,,10.0,29.899607,1013.7,,TRUE,TRUE,,,TRUE,,,,BKN,800,,,,,,,IFR,,,,,,,,,,,,METAR,110.0
PANC 241853Z 33004KT 10SM BKN200 M04/M07 A2983 RMK AO2 SLP103 T10391072 $,PANC,2022-10-24T18:53:00Z,61.17,-150.02,-3.9,-7.2,330,4,,10.0,29.828741,1010.3,,,TRUE,TRUE,,,,,,BKN,20000,,,,,,,VFR,,,,,,,,,,,,METAR,39.0
PAMR 241853Z 34003KT 10SM CLR M03/M07 A2983 RMK AO2 SLP103 T10331072,PAMR,2022-10-24T18:53:00Z,61.22,-149.85,-3.3,-7.2,340,3,,10.0,29.828741,1010.3,,,TRUE,,,,,,,CLR,,,,,,,,VFR,,,,,,,,,,,,SPECI,43.0
PALH 241853Z 01006KT 10SM CLR M03/M06 A2984 RMK AO2 SLP107 T10331061,PALH,2022-10-24T18:53:00Z,61.18,-149.97,-3.3,-6.1,10,6,,10.0,29.840551,1010.7,,,TRUE,,,,,,,CLR,,,,,,,,VFR,,,,,,,,,,,,SPECI,26.0
PAKW 241853Z AUTO 00000KT 10SM FEW042 BKN060 OVC075 09/04 A2971 RMK AO2 SLP061 T00890044 TSNO,PAKW,2022-10-24T18:53:00Z,55.58,-133.07,8.9,4.4,0,0,,10.0,29.71063,1006.1,,TRUE,TRUE,,,TRUE,,,,FEW,4200,BKN,6000,OVC,7500,,,VFR,,,,,,,,,,,,SPECI,7.0
PAKT 241853Z COR 00000KT 10SM FEW030 BKN055 08/04 A2971 RMK AO2 RAB34 SLP062 HARBOR WIND 32007KT P0000 T00780039,PAKT,2022-10-24T18:53:00Z,55.35,-131.72,7.8,3.9,0,0,,10.0,29.71063,1006.2,TRUE,,TRUE,,,,,,,FEW,3000,BKN,5500,,,,,VFR,,,,,,0.005,,,,,,METAR,27.0
PAJN 241853Z 00000KT 10SM SCT085 BKN100 03/02 A2964 RMK AO2 SLP037 T00330022,PAJN,2022-10-24T18:53:00Z,58.35,-134.55,3.3,2.2,0,0,,10.0,29.639763,1003.7,,,TRUE,,,,,,,SCT,8500,BKN,10000,,,,,VFR,,,,,,,,,,,,METAR,6.0
PAIL 241853Z 32004KT 10SM SCT018 BKN025 OVC034 01/01 A2992 RMK AO2 SLP134 T00060006,PAIL,2022-10-24T18:53:00Z,59.75,-154.92,0.6,0.6,320,4,,10.0,29.920275,1013.4,,,TRUE,,,,,,,SCT,1800,BKN,2500,OVC,3400,,,MVFR,,,,,,,,,,,,SPECI,44.0
PAHO 241853Z 05004KT 10SM BKN065 03/M06 A2984 RMK AO2 SLP104 T00281061,PAHO,2022-10-24T18:53:00Z,59.63,-151.48,2.8,-6.1,50,4,,10.0,29.840551,1010.4,,,TRUE,,,,,,,BKN,6500,,,,,,,VFR,,,,,,,,,,,,METAR,6.0
PAGY 241853Z AUTO 00000KT 10SM SCT045 OVC055 07/M02 A2964 RMK AO2 SLP037 T00671017 TSNO,PAGY,2022-10-24T18:53:00Z,59.47,-135.32,6.7,-1.7,0,0,,10.0,29.639763,1003.7,,TRUE,TRUE,,,TRUE,,,,SCT,4500,OVC,5500,,,,,VFR,,,,,,,,,,,,SPECI,7.0
PAGK 241853Z AUTO 34005KT 10SM CLR M12/M15 A2985 RMK AO2 SLP153 T11221150 TSNO,PAGK,2022-10-24T18:53:00Z,62.15,-145.45,-12.2,-15.0,340,5,,10.0,29.84941,1015.3,,TRUE,TRUE,,,TRUE,,,,CLR,,,,,,,,VFR,,,,,,,,,,,,SPECI,481.0
PAFA 241853Z 00000KT 10SM FEW012 FEW060 M07/M09 A2992 RMK AO2 SLP143 T10671089,PAFA,2022-10-24T18:53:00Z,64.8,-147.87,-6.7,-8.9,0,0,,10.0,29.920275,1014.3,,,TRUE,,,,,,,FEW,1200,FEW,6000,,,,,VFR,,,,,,,,,,,,METAR,130.0
PAEN 241853Z 02003KT 10SM CLR M02/M05 A2986 RMK AO2 SLP114 T10221050,PAEN,2022-10-24T18:53:00Z,60.57,-151.25,-2.2,-5.0,20,3,,10.0,29.861221,1011.4,,,TRUE,,,,,,,CLR,,,,,,,,VFR,,,,,,,,,,,,SPECI,30.0
PACV 241853Z 03006KT 10SM FEW150 05/M12 A2970 RMK AO2 SLP056 T00501117,PACV,2022-10-24T18:53:00Z,60.5,-145.47,5.0,-11.7,30,6,,10.0,29.698818,1005.6,,,TRUE,,,,,,,FEW,15000,,,,,,,VFR,,,,,,,,,,,,SPECI,15.0
PACD 241853Z 00000KT 10SM BKN028 OVC034 06/06 A3024 RMK AO2 SLP240 T00560056,PACD,2022-10-24T18:53:00Z,55.22,-162.72,5.6,5.6,0,0,,10.0,30.239174,1024.0,,,TRUE,,,,,,,BKN,2800,OVC,3400,,,,,MVFR,,,,,,,,,,,,METAR,23.0
PABT 241853Z 01003KT 10SM -SN OVC020 M08/M10 A2998 RMK AO2 SLP170 PCPN VRY LGT P0000 T10781100,PABT,2022-10-24T18:53:00Z,66.92,-151.52,-7.8,-10.0,10,3,,10.0,29.97933,1017.0,,,TRUE,,,,,,-SN,OVC,2000,,,,,,,MVFR,,,,,,0.005,,,,,,METAR,195.0
PABR 241853Z 11019G28KT 5SM BR OVC005 M06/M07 A2992 RMK AO2 PK WND 10031/1811 SLP134 T10561067,PABR,2022-10-24T18:53:00Z,71.28,-156.78,-5.6,-6.7,110,19,28,5.0,29.920275,1013.4,,,TRUE,,,,,,BR,OVC,500,,,,,,,IFR,,,,,,,,,,,,SPECI,6.0
PABI 241853Z 25004KT 10SM SCT004 BKN009 OVC050 M09/M12 A2989 RMK AO2 SLP155 T10891122,PABI,2022-10-24T18:53:00Z,64.0,-145.72,-8.9,-12.2,250,4,,10.0,29.890747,1015.5,,,TRUE,,,,,,,SCT,400,BKN,900,OVC,5000,,,IFR,,,,,,,,,,,,METAR,388.0
PABE 241853Z 26011KT 10SM CLR M01/ A3007 RMK AO2 SLP183 T1011 $,PABE,2022-10-24T18:53:00Z,60.78,-161.83,-1.1,,260,11,,10.0,30.070866,1018.3,,,TRUE,TRUE,,,,,,CLR,,,,,,,,VFR,,,,,,,,,,,,METAR,28.0
PAAQ 241853Z 00000KT 10SM CLR M03/M07 A2981 RMK AO2 SLP100 T10331067,PAAQ,2022-10-24T18:53:00Z,61.6,-149.08,-3.3,-6.7,0,0,,10.0,29.811024,1010.0,,,TRUE,,,,,,,CLR,,,,,,,,VFR,,,,,,,,,,,,SPECI,68.0
OITU 241853Z 00000KT 9999 SCT040 07/05 Q1021,OITU,2022-10-24T18:53:00Z,39.33,44.43,7.0,5.0,0,0,,6.21,30.147638,,,,,,,,,,,SCT,4000,,,,,,,VFR,,,,,,,,,,,,METAR,1364.0
KZZV 241853Z AUTO 18005KT 10SM CLR 24/07 A3009 RMK AO2 SLP186 T02440072,KZZV,2022-10-24T18:53:00Z,39.95,-81.9,24.4,7.2,180,5,,10.0,30.088583,1018.6,,TRUE,TRUE,,,,,,,CLR,,,,,,,,VFR,,,,,,,,,,,,METAR,268.0
KYKM 241853Z AUTO 04004KT 10SM CLR 09/02 A2989 RMK AO2 SLP126 T00940022,KYKM,2022-10-24T18:53:00Z,46.57,-120.53,9.4,2.2,40,4,,10.0,29.890747,1012.6,,TRUE,TRUE,,,,,,,CLR,,,,,,,,VFR,,,,,,,,,,,,METAR,319.0
KYIP 241853Z 17011KT 10SM CLR 27/07 A3002 RMK AO2 SLP162 T02670072,KYIP,2022-10-24T18:53:00Z,42.23,-83.53,26.7,7.2,170,11,,10.0,30.02067,1016.2,,,TRUE,,,,,,,CLR,,,,,,,,VFR,,,,,,,,,,,,METAR,215.0
KXNA 241853Z 17016G25KT 10SM BKN015 OVC021 19/18 A2971 RMK AO2 RAE1759 SLP047 P0000 T01940178,KXNA,2022-10-24T18:53:00Z,36.28,-94.3,19.4,17.8,170,16,25,10.0,29.71063,1004.7,,,TRUE,,,,,,,BKN,1500,OVC,2100,,,,,MVFR,,,,,,0.005,,,,,,SPECI,390.0
KWVI 241853Z AUTO 14004KT 10SM CLR 19/01 A3022 RMK AO2 SLP231 T01940011,KWVI,2022-10-24T18:53:00Z,36.93,-121.78,19.4,1.1,140,4,,10.0,30.221457,1023.1,,TRUE,TRUE,,,,,,,CLR,,,,,,,,VFR,,,,,,,,,,,,METAR,47.0
KWST 241853Z AUTO 01007KT 10SM OVC005 16/15 A3017 RMK AO2 RAE24 CIG 002V009 SLP215 P0003 T01560150,KWST,2022-10-24T18:53:00Z,41.35,-71.8,15.6,15.0,10,7,,10.0,30.171259,1021.5,,TRUE,TRUE,,,,,,,OVC,500,,,,,,,IFR,,,,,,0.03,,,,,,METAR,20.0
KWRL 241853Z AUTO VRB05KT 10SM CLR 04/M03 A2988 RMK AO2 SLP139 T00441033,KWRL,2022-10-24T18:53:00Z,43.97,-107.95,4.4,-3.3,0,5,,10.0,29.878937,1013.9,,TRUE,TRUE,,,,,,,CLR,,,,,,,,VFR,,,,,,,,,,,,METAR,1281.0
KVUO 241853Z AUTO 29005KT 10SM OVC013 11/08 A3008 RMK AO2 RAE01 SLP184 P0000 T01060078,KVUO,2022-10-24T18:53:00Z,45.62,-122.65,10.6,7.8,290,5,,10.0,30.079725,1018.4,,TRUE,TRUE,,,,,,,OVC,1300,,,,,,,MVFR,,,,,,0.005,,,,,,METAR,7.0
KVRB 241853Z 03011KT 10SM CLR 27/19 A3005 RMK AO2 SLP175 T02720194,KVRB,2022-10-24T18:53:00Z,27.65,-80.42,27.2,19.4,30,11,,10.0,30.050198,1017.5,,,TRUE,,,,,,,CLR,,,,,,,,VFR,,,,,,,,,,,,METAR,7.0
KVLD 241853Z 36005KT 10SM CLR 27/12 A3010 RMK AO2 SLP201 T02720117,KVLD,2022-10-24T18:53:00Z,30.78,-83.27,27.2,11.7,360,5,,10.0,30.100393,1020.1,,,TRUE,,,,,,,CLR,,,,,,,,VFR,,,,,,,,,,,,METAR,59.0
KVIH 241853Z AUTO 17017G25KT 10SM OVC026 22/15 A2978 RMK AO2 PK WND 18030/1757 PRESFR SLP075 T02170150,KVIH,2022-10-24T18:53:00Z,38.13,-91.77,21.7,15.0,170,17,25,10.0,29.778543,1007.5,,TRUE,TRUE,,,,,,,OVC,2600,,,,,,,MVFR,,,,,,,,,,,,METAR,342.0
KVGT 241853Z VRB04KT 10SM CLR 16/M09 A3025 RMK AO2 SLP255 T01611089,KVGT,2022-10-24T18:53:00Z,36.22,-115.2,16.1,-8.9,0,4,,10.0,30.250984,1025.5,,,TRUE,,,,,,,CLR,,,,,,,,VFR,,,,,,,,,,,,METAR,664.0
KVEL 241853Z AUTO 13008KT 10SM CLR 07/M04 A3010 RMK AO2 SLP196 T00671044,KVEL,2022-10-24T18:53:00Z,40.45,-109.52,6.7,-4.4,130,8,,10.0,30.100393,1019.6,,TRUE,TRUE,,,,,,,CLR,,,,,,,,VFR,,,,,,,,,,,,METAR,1604.0
KVCB 241853Z AUTO 36008KT 10SM CLR 22/M03 A3022 RMK AO2 SLP232 T02221028,KVCB,2022-10-24T18:53:00Z,38.38,-121.95,22.2,-2.8,360,8,,10.0,30.221457,1023.2,,TRUE,TRUE,,,,,,,CLR,,,,,,,,VFR,,,,,,,,,,,,METAR,30.0
KUTS 241853Z AUTO 19007KT 7SM -RA FEW026 BKN035 OVC041 25/22 A2980 RMK AO2 RAB26 SLP085 P0000 T02500217,KUTS,2022-10-24T18:53:00Z,30.75,-95.58,25.0,21.7,190,7,,7.0,29.799213,1008.5,,TRUE,TRUE,,,,,,-RA,FEW,2600,BKN,3500,OVC,4100,,,VFR,,,,,,0.005,,,,,,METAR,103.0
KUNV 241853Z 07004KT 10SM SCT025 18/12 A3015,KUNV,2022-10-24T18:53:00Z,40.85,-77.83,18.0,12.0,70,4,,10.0,30.15059,,,,,,,,,,,SCT,2500,,,,,,,VFR,,,,,,,,,,,,METAR,365.0
KUNO 241853Z AUTO 18017G27KT 10SM SCT032 BKN075 22/14 A2984 RMK AO2 PK WND 17027/1852 SLP093 T02220144,KUNO,2022-10-24T18:53:00Z,36.88,-91.9,22.2,14.4,180,17,27,10.0,29.840551,1009.3,,TRUE,TRUE,,,,,,,SCT,3200,BKN,7500,,,,,VFR,,,,,,,,,,,,METAR,376.0
KUIL 241853Z AUTO 26009KT 6SM -RA BR FEW029 SCT040 BKN048 12/10 A2998 RMK AO2 RAB49 SLP150 P0000 T01220100,KUIL,2022-10-24T18:53:00Z,47.93,-124.55,12.2,10.0,260,9,,6.0,29.97933,1015.0,,TRUE,TRUE,,,,,,-RA BR,FEW,2900,SCT,4000,BKN,4800,,,VFR,,,,,,0.005,,,,,,METAR,58.0
KUAO 241853Z 20009KT 10SM BKN009 OVC021 10/09 A3008 RMK AO2 RAE18 SLP184 P0000 T01000089,KUAO,2022-10-24T18:53:00Z,45.25,-122.77,10.0,8.9,200,9,,10.0,30.079725,1018.4,,,TRUE,,,,,,,BKN,900,OVC,2100,,,,,IFR,,,,,,0.005,,,,,,METAR,60.0
KTYS 241853Z 00000KT 10SM SCT250 24/04 A3010 RMK AO2 SLP188 T02390044,KTYS,2022-10-24T18:53:00Z,35.82,-83.98,23.9,4.4,0,0,,10.0,30.100393,1018.8,,,TRUE,,,,,,,SCT,25000,,,,,,,VFR,,,,,,,,,,,,METAR,300.0
KTYR 241853Z 16015G25KT 10SM FEW028 OVC050 26/19 A2974 RMK AO2 PK WND 19028/1819 SLP062 T02560189,KTYR,2022-10-24T18:53:00Z,32.37,-95.4,25.6,18.9,160,15,25,10.0,29.740158,1006.2,,,TRUE,,,,,,,FEW,2800,OVC,5000,,,,,VFR,,,,,,,,,,,,METAR,161.0
KTXK 241853Z 15018G28KT 10SM CLR 27/17 A2979 RMK AO2 PK WND 15028/1847 SLP081 T02720167,KTXK,2022-10-24T18:53:00Z,33.45,-93.98,27.2,16.7,150,18,28,10.0,29.790354,1008.1,,,TRUE,,,,,,,CLR,,,,,,,,VFR,,,,,,,,,,,,METAR,118.0
KTWF 241853Z 26012KT 10SM CLR 09/M06 A3017 RMK AO2 SLP210 T00891061,KTWF,2022-10-24T18:53:00Z,42.48,-114.48,8.9,-6.1,260,12,,10.0,30.171259,1021.0,,,TRUE,,,,,,,CLR,,,,,,,,VFR,,,,,,,,,,,,METAR,1269.0
KTVR 241853Z AUTO 17013KT 10SM FEW070 FEW080 29/15 A2994 RMK AO2 SLP143 T02890150,KTVR,2022-10-24T18:53:00Z,32.35,-91.03,28.9,15.0,170,13,,10.0,29.940945,1014.3,,TRUE,TRUE,,,,,,,FEW,7000,FEW,8000,,,,,VFR,,,,,,,,,,,,METAR,25.0
KTVL 241853Z AUTO 04003KT 10SM CLR 12/M13 A3028 RMK AO2 SLP235 T01221128,KTVL,2022-10-24T18:53:00Z,38.9,-120.0,12.2,-12.8,40,3,,10.0,30.280512,1023.5,,TRUE,TRUE,,,,,,,CLR,,,,,,,,VFR,,,,,,,,,,,,METAR,1907.0
KTVC 241853Z 18010G20KT 10SM FEW110 OVC220 22/12 A2984 RMK AO2 SLP103 T02220117,KTVC,2022-10-24T18:53:00Z,44.73,-85.58,22.2,11.7,180,10,20,10.0,29.840551,1010.3,,,TRUE,,,,,,,FEW,11000,OVC,22000,,,,,VFR,,,,,,,,,,,,METAR,188.0
KTUS 241853Z 34011KT 10SM CLR 17/M08 A3014 RMK AO2 SLP179 T01721078 $,KTUS,2022-10-24T18:53:00Z,32.13,-110.95,17.2,-7.8,340,11,,10.0,30.138779,1017.9,,,TRUE,TRUE,,,,,,CLR,,,,,,,,VFR,,,,,,,,,,,,METAR,776.0
KTUP 241853Z 15013G22KT 10SM CLR 26/13 A2998 RMK AO2 SLP147 T02610133 $,KTUP,2022-10-24T18:53:00Z,34.27,-88.77,26.1,13.3,150,13,22,10.0,29.97933,1014.7,,,TRUE,TRUE,,,,,,CLR,,,,,,,,VFR,,,,,,,,,,,,METAR,107.0
KTUL 241853Z 35014KT 4SM RA BR SCT009 BKN028 OVC050 13/13 A2972 RMK AO2 PK WND 31026/1803 SLP058 P0022 T01330133 $,KTUL,2022-10-24T18:53:00Z,36.2,-95.88,13.3,13.3,350,14,,4.0,29.719488,1005.8,,,TRUE,TRUE,,,,,RA BR,SCT,900,BKN,2800,OVC,5000,,,MVFR,,,,,,0.22,,,,,,METAR,196.0
KTRI 241853Z 11004KT 10SM FEW250 24/05 A3013 RMK AO2 SLP188 T02390050,KTRI,2022-10-24T18:53:00Z,36.48,-82.4,23.9,5.0,110,4,,10.0,30.129921,1018.8,,,TRUE,,,,,,,FEW,25000,,,,,,,VFR,,,,,,,,,,,,METAR,456.0
KTPA 241853Z 28008KT 10SM SCT048 29/19 A3005 RMK AO2 SLP174 T02890189 $,KTPA,2022-10-24T18:53:00Z,27.97,-82.53,28.9,18.9,280,8,,10.0,30.050198,1017.4,,,TRUE,TRUE,,,,,,SCT,4800,,,,,,,VFR,,,,,,,,,,,,METAR,2.0
KTOR 241853Z AUTO 32014KT 10SM FEW045 04/M02 A2987 RMK AO2 RAB35E41 SLP124 P0000 T00441022,KTOR,2022-10-24T18:53:00Z,42.07,-104.15,4.4,-2.2,320,14,,10.0,29.870079,1012.4,,TRUE,TRUE,,,,,,,FEW,4500,,,,,,,VFR,,,,,,0.005,,,,,,METAR,1285.0
KTOI 241853Z AUTO VRB03KT 10SM CLR 28/08 A3009 RMK AO2 SLP185 T02830078,KTOI,2022-10-24T18:53:00Z,31.85,-86.02,28.3,7.8,0,3,,10.0,30.088583,1018.5,,TRUE,TRUE,,,,,,,CLR,,,,,,,,VFR,,,,,,,,,,,,METAR,120.0
KTMB 241853Z 09008KT 10SM OVC075 28/21 A3001 RMK AO2 SLP161 T02780211,KTMB,2022-10-24T18:53:00Z,25.65,-80.43,27.8,21.1,90,8,,10.0,30.008858,1016.1,,,TRUE,,,,,,,OVC,7500,,,,,,,VFR,,,,,,,,,,,,METAR,2.0
KTLH 241853Z COR 13004KT 10SM BKN050 BKN250 28/14 A3008 RMK AO2 SLP185 T02830139,KTLH,2022-10-24T18:53:00Z,30.4,-84.35,28.3,13.9,130,4,,10.0,30.079725,1018.5,TRUE,,TRUE,,,,,,,BKN,5000,BKN,25000,,,,,VFR,,,,,,,,,,,,METAR,17.0
KTIW 241853Z 22015G23KT 10SM FEW012 11/08 A2994 RMK AO2 SLP140 T01110083,KTIW,2022-10-24T18:53:00Z,47.27,-122.58,11.1,8.3,220,15,23,10.0,29.940945,1014.0,,,TRUE,,,,,,,FEW,1200,,,,,,,VFR,,,,,,,,,,,,METAR,89.0
KTHV 241853Z AUTO 35004KT 10SM OVC009 16/13 A3013 RMK AO2 SLP205 T01560133,KTHV,2022-10-24T18:53:00Z,39.92,-76.88,15.6,13.3,350,4,,10.0,30.129921,1020.5,,TRUE,TRUE,,,,,,,OVC,900,,,,,,,IFR,,,,,,,,,,,,METAR,141.0
KTDZ 241853Z AUTO 16013G20KT 10SM CLR 25/07 A3003 RMK AO2 SLP166 T02500072,KTDZ,2022-10-24T18:53:00Z,41.57,-83.48,25.0,7.2,160,13,20,10.0,30.029528,1016.6,,TRUE,TRUE,,,,,,,CLR,,,,,,,,VFR,,,,,,,,,,,,METAR,189.0
KTCS 241853Z AUTO 31019G28KT 10SM FEW060 11/M04 A3000 RMK AO2 PK WND 31044/1809 SLP111 T01061044,KTCS,2022-10-24T18:53:00Z,33.23,-107.27,10.6,-4.4,310,19,28,10.0,30.0,1011.1,,TRUE,TRUE,,,,,,,FEW,6000,,,,,,,VFR,,,,,,,,,,,,METAR,1471.0
KTCL 241853Z 18005KT 10SM FEW050 SCT060 26/11 A3005 RMK AO2 SLP175 T02610111,KTCL,2022-10-24T18:53:00Z,33.22,-87.62,26.1,11.1,180,5,,10.0,30.050198,1017.5,,,TRUE,,,,,,,FEW,5000,SCT,6000,,,,,VFR,,,,,,,,,,,,METAR,48.0
KTCC 241853Z AUTO 06013KT 10SM BKN015 BKN032 OVC048 07/05 A2979 RMK AO2 RAE1759 SLP064 P0000 T00670050,KTCC,2022-10-24T18:53:00Z,35.18,-103.6,6.7,5.0,60,13,,10.0,29.790354,1006.4,,TRUE,TRUE,,,,,,,BKN,1500,BKN,3200,OVC,4800,,,MVFR,,,,,,0.005,,,,,,METAR,1233.0
KSTS 241853Z AUTO 00000KT 10SM CLR 20/01 A3021 RMK AO2 SLP225 T02000006,KSTS,2022-10-24T18:53:00Z,38.5,-122.82,20.0,0.6,0,0,,10.0,30.209646,1022.5,,TRUE,TRUE,,,,,,,CLR,,,,,,,,VFR,,,,,,,,,,,,METAR,35.0
KSTP 241853Z 20006KT 10SM -RA OVC100 13/06 A2966 RMK AO2 RAB32 SLP040 P0000 T01330061,KSTP,2022-10-24T18:53:00Z,44.93,-93.05,13.3,6.1,200,6,,10.0,29.660433,1004.0,,,TRUE,,,,,,-RA,OVC,10000,,,,,,,VFR,,,,,,0.005,,,,,,METAR,213.0
KSTC 241853Z 22014G25KT 10SM CLR 11/03 A2962 RMK AO2 SLP037 T01110033,KSTC,2022-10-24T18:53:00Z,45.55,-94.05,11.1,3.3,220,14,25,10.0,29.619095,1003.7,,,TRUE,,,,,,,CLR,,,,,,,,VFR,,,,,,,,,,,,METAR,302.0
KSSI 241853Z AUTO 08007KT 10SM CLR 24/09 A3012 RMK AO2 SLP200 T02440094,KSSI,2022-10-24T18:53:00Z,31.15,-81.38,24.4,9.4,80,7,,10.0,30.121063,1020.0,,TRUE,TRUE,,,,,,,CLR,,,,,,,,VFR,,,,,,,,,,,,METAR,6.0
KSSF 241853Z 17010KT 10SM BKN031 BKN040 29/21 A2971 RMK AO2 SLP050 T02940211,KSSF,2022-10-24T18:53:00Z,29.33,-98.47,29.4,21.1,170,10,,10.0,29.71063,1005.0,,,TRUE,,,,,,,BKN,3100,BKN,4000,,,,,VFR,,,,,,,,,,,,METAR,175.0
KSRQ 241853Z 29010KT 10SM BKN046 BKN055 BKN070 28/20 A3002 RMK AO2 RAB01E11 SLP164 P0000 T02780200,KSRQ,2022-10-24T18:53:00Z,27.4,-82.57,27.8,20.0,290,10,,10.0,30.02067,1016.4,,,TRUE,,,,,,,BKN,4600,BKN,5500,BKN,7000,,,VFR,,,,,,0.005,,,,,,METAR,5.0
KSPW 241853Z AUTO 25014KT 10SM -RA SCT075 OVC100 09/M02 A2974 RMK AO2 RAB52 SLP068 P0000 T00941017,KSPW,2022-10-24T18:53:00Z,43.17,-95.22,9.4,-1.7,250,14,,10.0,29.740158,1006.8,,TRUE,TRUE,,,,,,-RA,SCT,7500,OVC,10000,,,,,VFR,,,,,,0.005,,,,,,METAR,407.0
KSPG 241853Z 04003KT 10SM CLR 28/22 A3003 RMK AO2 SLP168 T02830217,KSPG,2022-10-24T18:53:00Z,27.77,-82.63,28.3,21.7,40,3,,10.0,30.029528,1016.8,,,TRUE,,,,,,,CLR,,,,,,,,VFR,,,,,,,,,,,,METAR,1.0
KSNY 241853Z AUTO 32025G42KT 10SM FEW047 08/M04 A2984 RMK AO2 PK WND 33042/1848 SLP105 T00831044,KSNY,2022-10-24T18:53:00Z,41.1,-102.98,8.3,-4.4,320,25,42,10.0,29.840551,1010.5,,TRUE,TRUE,,,,,,,FEW,4700,,,,,,,VFR,,,,,,,,,,,,METAR,1307.0
KSNS 241853Z 00000KT 10SM CLR 20/00 A3021 RMK AO2 SLP237 T02000000,KSNS,2022-10-24T18:53:00Z,36.67,-121.6,20.0,0.0,0,0,,10.0,30.209646,1023.7,,,TRUE,,,,,,,CLR,,,,,,,,VFR,,,,,,,,,,,,METAR,20.0
KSNA 241853Z 07009G15KT 10SM CLR 27/M11 A3013 RMK AO2 SLP203 T02671106,KSNA,2022-10-24T18:53:00Z,33.67,-117.87,26.7,-10.6,70,9,15,10.0,30.129921,1020.3,,,TRUE,,,,,,,CLR,,,,,,,,VFR,,,,,,,,,,,,METAR,14.0
KSMF 241853Z 00000KT 10SM FEW250 20/M01 A3021 RMK AO2 SLP228 T02001011,KSMF,2022-10-24T18:53:00Z,38.7,-121.6,20.0,-1.1,0,0,,10.0,30.209646,1022.8,,,TRUE,,,,,,,FEW,25000,,,,,,,VFR,,,,,,,,,,,,METAR,7.0
KSLN 241853Z 33011KT 10SM SCT080 OVC095 10/06 A2980 RMK AO2 RAB1757E13 SLP084 P0001 T01000056,KSLN,2022-10-24T18:53:00Z,38.8,-97.65,10.0,5.6,330,11,,10.0,29.799213,1008.4,,,TRUE,,,,,,,SCT,8000,OVC,9500,,,,,VFR,,,,,,0.01,,,,,,METAR,377.0
KSJC 241853Z VRB05KT 10SM FEW110 21/M02 A3021 RMK AO2 SLP229 T02061017,KSJC,2022-10-24T18:53:00Z,37.37,-121.92,20.6,-1.7,0,5,,10.0,30.209646,1022.9,,,TRUE,,,,,,,FEW,11000,,,,,,,VFR,,,,,,,,,,,,METAR,13.0
KSIY 241853Z AUTO 01005KT 10SM FEW034 OVC047 08/01 A3027 RMK AO2 SLP270 T00780011,KSIY,2022-10-24T18:53:00Z,41.77,-122.47,7.8,1.1,10,5,,10.0,30.268702,1027.0,,TRUE,TRUE,,,,,,,FEW,3400,OVC,4700,,,,,VFR,,,,,,,,,,,,METAR,807.0
KSHR 241853Z AUTO 34016KT 10SM CLR 07/M03 A2980 RMK AO2 PK WND 33027/1812 SLP109 T00721033,KSHR,2022-10-24T18:53:00Z,44.77,-106.97,7.2,-3.3,340,16,,10.0,29.799213,1010.9,,TRUE,TRUE,,,,,,,CLR,,,,,,,,VFR,,,,,,,,,,,,METAR,1212.0
KSHN 241853Z AUTO 24013KT 10SM CLR 13/10 A2994 RMK AO2 SLP141 T01330100,KSHN,2022-10-24T18:53:00Z,47.23,-123.13,13.3,10.0,240,13,,10.0,29.940945,1014.1,,TRUE,TRUE,,,,,,,CLR,,,,,,,,VFR,,,,,,,,,,,,METAR,84.0
KSGR 241853Z 17018G25KT 10SM SCT031 OVC043 27/20 A2980 RMK AO2 PK WND 17027/1757 SLP094 T02670200,KSGR,2022-10-24T18:53:00Z,29.62,-95.65,26.7,20.0,170,18,25,10.0,29.799213,1009.4,,,TRUE,,,,,,,SCT,3100,OVC,4300,,,,,VFR,,,,,,,,,,,,METAR,22.0
KSFF 241853Z 23005KT 10SM -RA BKN012 OVC020 04/01 A2994 RMK AO2 RAE22B52 SLP147 P0000 T00390011,KSFF,2022-10-24T18:53:00Z,47.68,-117.32,3.9,1.1,230,5,,10.0,29.940945,1014.7,,,TRUE,,,,,,-RA,BKN,1200,OVC,2000,,,,,MVFR,,,,,,0.005,,,,,,METAR,593.0
KSFB 241853Z 06011G16KT 10SM FEW060 28/18 A3006 RMK AO2 SLP178 T02780183,KSFB,2022-10-24T18:53:00Z,28.77,-81.23,27.8,18.3,60,11,16,10.0,30.059055,1017.8,,,TRUE,,,,,,,FEW,6000,,,,,,,VFR,,,,,,,,,,,,METAR,16.0
KSEG 241853Z AUTO VRB03KT 10SM OVC015 17/13 A3015 RMK AO2 SLP209 T01670133,KSEG,2022-10-24T18:53:00Z,40.82,-76.87,16.7,13.3,0,3,,10.0,30.15059,1020.9,,TRUE,TRUE,,,,,,,OVC,1500,,,,,,,MVFR,,,,,,,,,,,,METAR,136.0
KSEA 241853Z 21008KT 10SM OVC010 10/08 A2996 RMK AO2 SLP153 T01000078,KSEA,2022-10-24T18:53:00Z,47.45,-122.32,10.0,7.8,210,8,,10.0,29.958662,1015.3,,,TRUE,,,,,,,OVC,1000,,,,,,,MVFR,,,,,,,,,,,,METAR,115.0
KSDM 241853Z 00000KT 10SM CLR 24/M03 A3012 RMK AO2 SLP197 T02391033,KSDM,2022-10-24T18:53:00Z,32.58,-117.0,23.9,-3.3,0,0,,10.0,30.121063,1019.7,,,TRUE,,,,,,,CLR,,,,,,,,VFR,,,,,,,,,,,,METAR,161.0
KSDL 241853Z 00000KT 10SM CLR 19/M06 A3013 RMK AO2 SLP188 T01891061,KSDL,2022-10-24T18:53:00Z,33.62,-111.92,18.9,-6.1,0,0,,10.0,30.129921,1018.8,,,TRUE,,,,,,,CLR,,,,,,,,VFR,,,,,,,,,,,,METAR,438.0
KSDB 241853Z AUTO 07011G20KT 10SM CLR 12/M11 A3027 RMK AO2 PK WND 06028/1801 SLP227 T01171106 $,KSDB,2022-10-24T18:53:00Z,34.75,-118.72,11.7,-10.6,70,11,20,10.0,30.268702,1022.7,,TRUE,TRUE,TRUE,,,,,,CLR,,,,,,,,VFR,,,,,,,,,,,,METAR,1377.0
KSBM 241853Z AUTO 17012G24KT 10SM CLR 18/12 A2979 RMK AO2 SLP086 T01830122,KSBM,2022-10-24T18:53:00Z,43.78,-87.85,18.3,12.2,170,12,24,10.0,29.790354,1008.6,,TRUE,TRUE,,,,,,,CLR,,,,,,,,VFR,,,,,,,,,,,,METAR,225.0
KSBD 241853Z 00000KT 10SM CLR 22/M10 A3016,KSBD,2022-10-24T18:53:00Z,34.08,-117.25,22.0,-10.0,0,0,,10.0,30.159449,,,,,,,,,,,CLR,,,,,,,,VFR,,,,,,,,,,,,METAR,353.0
KSAV 241853Z 01006KT 10SM FEW250 25/07 A3012 RMK AO2 SLP197 T02500067,KSAV,2022-10-24T18:53:00Z,32.12,-81.2,25.0,6.7,10,6,,10.0,30.121063,1019.7,,,TRUE,,,,,,,FEW,25000,,,,,,,VFR,,,,,,,,,,,,METAR,10.0
KSAF 241853Z 30018G27KT 10SM BKN044 BKN050 BKN060 04/M03 A2989 RMK AO2 PK WND 34030/1802 SLP093 T00441028,KSAF,2022-10-24T18:53:00Z,35.62,-106.1,4.4,-2.8,300,18,27,10.0,29.890747,1009.3,,,TRUE,,,,,,,BKN,4400,BKN,5000,BKN,6000,,,VFR,,,,,,,,,,,,METAR,1918.0
KSAC 241853Z VRB05KT 10SM CLR 18/M03 A3021 RMK AO2 SLP231 T01831028,KSAC,2022-10-24T18:53:00Z,38.5,-121.5,18.3,-2.8,0,5,,10.0,30.209646,1023.1,,,TRUE,,,,,,,CLR,,,,,,,,VFR,,,,,,,,,,,,METAR,5.0
KRXE 241853Z AUTO 23014G22KT 10SM BKN019 02/M04 A3013 RMK AO2 SLP222 T00171044,KRXE,2022-10-24T18:53:00Z,43.83,-111.8,1.7,-4.4,230,14,22,10.0,30.129921,1022.2,,TRUE,TRUE,,,,,,,BKN,1900,,,,,,,MVFR,,,,,,,,,,,,METAR,1483.0
KRWL 241853Z AUTO 25018G28KT 10SM CLR 01/M05 A2997 RMK AO2 PK WND 25029/1816 SLP161 T00111050,KRWL,2022-10-24T18:53:00Z,41.8,-107.2,1.1,-5.0,250,18,28,10.0,29.970472,1016.1,,TRUE,TRUE,,,,,,,CLR,,,,,,,,VFR,,,,,,,,,,,,METAR,2066.0
KRWI 241853Z AUTO 34004KT 10SM CLR 23/13 A3010 RMK AO2 SLP193 T02330128,KRWI,2022-10-24T18:53:00Z,35.85,-77.9,23.3,12.8,340,4,,10.0,30.100393,1019.3,,TRUE,TRUE,,,,,,,CLR,,,,,,,,VFR,,,,,,,,,,,,METAR,46.0
KRWF 241853Z AUTO 22015G21KT 10SM CLR 09/01 A2966 RMK AO2 SLP044 T00940011,KRWF,2022-10-24T18:53:00Z,44.55,-95.08,9.4,1.1,220,15,21,10.0,29.660433,1004.4,,TRUE,TRUE,,,,,,,CLR,,,,,,,,VFR,,,,,,,,,,,,METAR,312.0
KRVS 241853Z 36005KT 6SM RA BR FEW011 BKN090 OVC100 14/12 A2972 RMK AO2 SLP068 P0019 T01390122,KRVS,2022-10-24T18:53:00Z,36.05,-95.98,13.9,12.2,360,5,,6.0,29.719488,1006.8,,,TRUE,,,,,,RA BR,FEW,1100,BKN,9000,OVC,10000,,,VFR,,,,,,0.19,,,,,,METAR,191.0
KRUE 241853Z AUTO 17008G20KT 130V220 10SM FEW044 OVC060 25/16 A2978 RMK AO2 SLP078 T02500156,KRUE,2022-10-24T18:53:00Z,35.25,-93.1,25.0,15.6,170,8,20,10.0,29.778543,1007.8,,TRUE,TRUE,,,,,,,FEW,4400,OVC,6000,,,,,VFR,,,,,,,,,,,,METAR,119.0
KRSW 241853Z 08006KT 10SM FEW049 29/18 A3001 RMK AO2 SLP159 T02940183,KRSW,2022-10-24T18:53:00Z,26.53,-81.75,29.4,18.3,80,6,,10.0,30.008858,1015.9,,,TRUE,,,,,,,FEW,4900,,,,,,,VFR,,,,,,,,,,,,METAR,8.0
KRSL 241853Z AUTO 34019G28KT 10SM CLR 14/M04 A2978 RMK AO2 PK WND 33028/1846 SLP079 T01441039,KRSL,2022-10-24T18:53:00Z,38.87,-98.82,14.4,-3.9,340,19,28,10.0,29.778543,1007.9,,TRUE,TRUE,,,,,,,CLR,,,,,,,,VFR,,,,,,,,,,,,METAR,569.0
KRQE 241853Z AUTO 32019G24KT 10SM CLR 04/M06 A3011 RMK AO2 SLP163 T00441056,KRQE,2022-10-24T18:53:00Z,35.65,-109.07,4.4,-5.6,320,19,24,10.0,30.109253,1016.3,,TRUE,TRUE,,,,,,,CLR,,,,,,,,VFR,,,,,,,,,,,,METAR,2056.0
KRNT 241853Z 00000KT 10SM OVC015 11/08 A2997 RMK AO2 SLP152 T01060078,KRNT,2022-10-24T18:53:00Z,47.5,-122.22,10.6,7.8,0,0,,10.0,29.970472,1015.2,,,TRUE,,,,,,,OVC,1500,,,,,,,MVFR,,,,,,,,,,,,METAR,7.0
KRNM 241853Z 07010G16KT 10SM CLR 22/M08 A3014 RMK AO2 SLP199 T02221083,KRNM,2022-10-24T18:53:00Z,33.03,-116.92,22.2,-8.3,70,10,16,10.0,30.138779,1019.9,,,TRUE,,,,,,,CLR,,,,,,,,VFR,,,,,,,,,,,,METAR,423.0
KRMG 241853Z AUTO 20008KT 10SM CLR 26/09 A3009 RMK AO2 SLP182 T02560089,KRMG,2022-10-24T18:53:00Z,34.35,-85.17,25.6,8.9,200,8,,10.0,30.088583,1018.2,,TRUE,TRUE,,,,,,,CLR,,,,,,,,VFR,,,,,,,,,,,,METAR,196.0
KRME 241853Z 15008KT 10SM OVC025 18/13 A3017 RMK AO2 SLP216 T01830128,KRME,2022-10-24T18:53:00Z,43.22,-75.4,18.3,12.8,150,8,,10.0,30.171259,1021.6,,,TRUE,,,,,,,OVC,2500,,,,,,,MVFR,,,,,,,,,,,,METAR,146.0
KRKP 241853Z AUTO 17016G30KT 10SM BKN026 30/23 A2976 RMK AO2 PK WND 17030/1852 SLP079 T03000228,KRKP,2022-10-24T18:53:00Z,28.08,-97.05,30.0,22.8,170,16,30,10.0,29.760826,1007.9,,TRUE,TRUE,,,,,,,BKN,2600,,,,,,,MVFR,,,,,,,,,,,,METAR,8.0
KRIW 241853Z AUTO 26003KT 10SM CLR 04/M04 A2989 RMK AO2 SLP132 T00441039,KRIW,2022-10-24T18:53:00Z,43.07,-108.43,4.4,-3.9,260,3,,10.0,29.890747,1013.2,,TRUE,TRUE,,,,,,,CLR,,,,,,,,VFR,,,,,,,,,,,,METAR,1662.0
KRIL 241853Z AUTO VRB03KT 10SM FEW060 OVC075 03/M03 A3011 RMK AO2 SLP207 T00281028,KRIL,2022-10-24T18:53:00Z,39.53,-107.73,2.8,-2.8,0,3,,10.0,30.109253,1020.7,,TRUE,TRUE,,,,,,,FEW,6000,OVC,7500,,,,,VFR,,,,,,,,,,,,METAR,1683.0
KRHI 241853Z AUTO 18011G19KT 10SM OVC016 17/13 A2969 RMK AO2 SLP051 T01720128,KRHI,2022-10-24T18:53:00Z,45.63,-89.48,17.2,12.8,180,11,19,10.0,29.68996,1005.1,,TRUE,TRUE,,,,,,,OVC,1600,,,,,,,MVFR,,,,,,,,,,,,METAR,493.0
KRBD 241853Z 34008KT 4SM -RA BR SCT008 OVC041 17/16 A2977 RMK AO2 RAE08B45 SLP075 P0001 T01670161,KRBD,2022-10-24T18:53:00Z,32.68,-96.87,16.7,16.1,340,8,,4.0,29.769686,1007.5,,,TRUE,,,,,,-RA BR,SCT,800,OVC,4100,,,,,MVFR,,,,,,0.01,,,,,,METAR,200.0
KRAL 241853Z 03011G19KT 10SM CLR 23/M08 A3015 RMK AO2 SLP199 T02281083,KRAL,2022-10-24T18:53:00Z,33.95,-117.45,22.8,-8.3,30,11,19,10.0,30.15059,1019.9,,,TRUE,,,,,,,CLR,,,,,,,,VFR,,,,,,,,,,,,METAR,254.0
KRAC 241853Z AUTO 18010KT 10SM CLR 18/11 A2985 RMK AO2 SLP105 T01780111,KRAC,2022-10-24T18:53:00Z,42.77,-87.82,17.8,11.1,180,10,,10.0,29.84941,1010.5,,TRUE,TRUE,,,,,,,CLR,,,,,,,,VFR,,,,,,,,,,,,METAR,203.0
KPUC 241853Z AUTO 32011G18KT 10SM CLR 06/M08 A3012 RMK AO2 PK WND 31026/1808 SLP216 T00611083,KPUC,2022-10-24T18:53:00Z,39.62,-110.75,6.1,-8.3,320,11,18,10.0,30.121063,1021.6,,TRUE,TRUE,,,,,,,CLR,,,,,,,,VFR,,,,,,,,,,,,METAR,1777.0
KPUB 241853Z 11008KT 10SM SCT110 06/00 A2991 RMK AO2 SLP120 T00610000,KPUB,2022-10-24T18:53:00Z,38.28,-104.5,6.1,0.0,110,8,,10.0,29.911417,1012.0,,,TRUE,,,,,,,SCT,11000,,,,,,,VFR,,,,,,,,,,,,METAR,1441.0
KPTK 241853Z 15010G18KT 10SM SCT250 24/06 A3002 RMK AO2 SLP163 T02390061,KPTK,2022-10-24T18:53:00Z,42.67,-83.42,23.9,6.1,150,10,18,10.0,30.02067,1016.3,,,TRUE,,,,,,,SCT,25000,,,,,,,VFR,,,,,,,,,,,,METAR,295.0
KPSX 241853Z AUTO 16019G29KT 10SM BKN043 BKN050 OVC060 28/21 A2979 RMK AO2 PK WND 17029/1852 SLP089 T02780211,KPSX,2022-10-24T18:53:00Z,28.72,-96.25,27.8,21.1,160,19,29,10.0,29.790354,1008.9,,TRUE,TRUE,,,,,,,BKN,4300,BKN,5000,OVC,6000,,,VFR,,,,,,,,,,,,METAR,4.0
KPSP 241853Z 24003KT 10SM CLR 22/M12 A3021 RMK AO2 SLP227 T02221117,KPSP,2022-10-24T18:53:00Z,33.82,-116.5,22.2,-11.7,240,3,,10.0,30.209646,1022.7,,,TRUE,,,,,,,CLR,,,,,,,,VFR,,,,,,,,,,,,METAR,123.0
KPSC 241853Z 18012KT 10SM -RA OVC090 11/04 A2995 RMK AO2 RAB1758 SLP143 P0002 T01060039,KPSC,2022-10-24T18:53:00Z,46.27,-119.12,10.6,3.9,180,12,,10.0,29.949802,1014.3,,,TRUE,,,,,,-RA,OVC,9000,,,,,,,VFR,,,,,,0.02,,,,,,METAR,121.0
KPRC 241853Z 35003KT 10SM CLR 09/M10 A3019 RMK AO2 SLP202 T00891100,KPRC,2022-10-24T18:53:00Z,34.65,-112.42,8.9,-10.0,350,3,,10.0,30.188976,1020.2,,,TRUE,,,,,,,CLR,,,,,,,,VFR,,,,,,,,,,,,METAR,1528.0
KPRB 241853Z AUTO 32003KT 10SM CLR 18/M03 A3025 RMK AO2 SLP240 T01831028 $,KPRB,2022-10-24T18:53:00Z,35.67,-120.63,18.3,-2.8,320,3,,10.0,30.250984,1024.0,,TRUE,TRUE,TRUE,,,,,,CLR,,,,,,,,VFR,,,,,,,,,,,,METAR,249.0
KPQL 241853Z 12011KT 10SM FEW030 SCT038 SCT047 27/19 A3004 RMK AO2 SLP173 T02670189,KPQL,2022-10-24T18:53:00Z,30.47,-88.53,26.7,18.9,120,11,,10.0,30.041338,1017.3,,,TRUE,,,,,,,FEW,3000,SCT,3800,SCT,4700,,,VFR,,,,,,,,,,,,METAR,4.0
KPOF 241853Z AUTO 18014G24KT 10SM OVC041 24/14 A2988 RMK AO2 SLP115 T02390139,KPOF,2022-10-24T18:53:00Z,36.77,-90.32,23.9,13.9,180,14,24,10.0,29.878937,1011.5,,TRUE,TRUE,,,,,,,OVC,4100,,,,,,,VFR,,,,,,,,,,,,METAR,99.0
KPNS 241853Z 14010KT 10SM FEW048 BKN065 26/19 A3006 RMK AO2 SLP180 T02610189,KPNS,2022-10-24T18:53:00Z,30.48,-87.18,26.1,18.9,140,10,,10.0,30.059055,1018.0,,,TRUE,,,,,,,FEW,4800,BKN,6500,,,,,VFR,,,,,,,,,,,,METAR,34.0
KPMP 241853Z 07011KT 10SM SCT025 29/19 A3001 RMK AO2 SLP162 T02890194,KPMP,2022-10-24T18:53:00Z,26.25,-80.12,28.9,19.4,70,11,,10.0,30.008858,1016.2,,,TRUE,,,,,,,SCT,2500,,,,,,,VFR,,,,,,,,,,,,METAR,4.0
KPMD 241853Z 10012KT 10SM CLR 16/M11 A3025 RMK AO2 SLP239 T01611106,KPMD,2022-10-24T18:53:00Z,34.63,-118.08,16.1,-10.6,100,12,,10.0,30.250984,1023.9,,,TRUE,,,,,,,CLR,,,,,,,,VFR,,,,,,,,,,,,METAR,764.0
KPKD 241853Z AUTO 22024G32KT 10SM OVC023 08/02 A2950 RMK AO2 PK WND 21032/1853 SLP993 T00780022,KPKD,2022-10-24T18:53:00Z,46.9,-95.07,7.8,2.2,220,24,32,10.0,29.500984,999.3,,TRUE,TRUE,,,,,,,OVC,2300,,,,,,,MVFR,,,,,,,,,,,,METAR,439.0
KPKB 241853Z 00000KT 10SM CLR 24/06 A3010 RMK AO2 SLP191 T02440061,KPKB,2022-10-24T18:53:00Z,39.35,-81.43,24.4,6.1,0,0,,10.0,30.100393,1019.1,,,TRUE,,,,,,,CLR,,,,,,,,VFR,,,,,,,,,,,,METAR,245.0
KPIR 241853Z AUTO 30023G35KT 10SM OVC033 06/M03 A2969 RMK AO2 PK WND 30037/1825 SLP062 T00561033,KPIR,2022-10-24T18:53:00Z,44.38,-100.28,5.6,-3.3,300,23,35,10.0,29.68996,1006.2,,TRUE,TRUE,,,,,,,OVC,3300,,,,,,,VFR,,,,,,,,,,,,METAR,524.0
KPIE 241853Z AUTO 35004KT 10SM CLR 29/19 A3005 RMK AO2 SLP174 T02890194,KPIE,2022-10-24T18:53:00Z,27.92,-82.68,28.9,19.4,350,4,,10.0,30.050198,1017.4,,TRUE,TRUE,,,,,,,CLR,,,,,,,,VFR,,,,,,,,,,,,METAR,1.0
KPHD 241853Z AUTO 19005KT 10SM CLR 24/06 A3009 RMK AO2 SLP189 T02390056,KPHD,2022-10-24T18:53:00Z,40.47,-81.42,23.9,5.6,190,5,,10.0,30.088583,1018.9,,TRUE,TRUE,,,,,,,CLR,,,,,,,,VFR,,,,,,,,,,,,METAR,272.0
KPGD 241853Z 08010KT 10SM SCT050 29/19 A3003 RMK AO2 SLP167 T02890189,KPGD,2022-10-24T18:53:00Z,26.92,-82.0,28.9,18.9,80,10,,10.0,30.029528,1016.7,,,TRUE,,,,,,,SCT,5000,,,,,,,VFR,,,,,,,,,,,,METAR,7.0
KPGA 241853Z AUTO VRB03KT 10SM CLR 10/M12 A3018 RMK AO2 SLP206 T01001117,KPGA,2022-10-24T18:53:00Z,36.92,-111.45,10.0,-11.7,0,3,,10.0,30.180119,1020.6,,TRUE,TRUE,,,,,,,CLR,,,,,,,,VFR,,,,,,,,,,,,METAR,1310.0
KPEO 241853Z AUTO 00000KT 10SM FEW036 21/11 A3015 RMK AO2 SLP206 T02110106,KPEO,2022-10-24T18:53:00Z,42.65,-77.05,21.1,10.6,0,0,,10.0,30.15059,1020.6,,TRUE,TRUE,,,,,,,FEW,3600,,,,,,,VFR,,,,,,,,,,,,METAR,268.0
KPDX 241853Z VRB03KT 10SM BKN011 OVC030 11/08 A3007 RMK AO2 RAE11B34E48 SLP181 P0001 T01060083,KPDX,2022-10-24T18:53:00Z,45.6,-122.62,10.6,8.3,0,3,,10.0,30.070866,1018.1,,,TRUE,,,,,,,BKN,1100,OVC,3000,,,,,MVFR,,,,,,0.01,,,,,,METAR,7.0
KPDT 241853Z 19007KT 6SM -RA BKN041 OVC055 09/07 A2997 RMK AO2 SLP148 P0002 T00940067,KPDT,2022-10-24T18:53:00Z,45.7,-118.83,9.4,6.7,190,7,,6.0,29.970472,1014.8,,,TRUE,,,,,,-RA,BKN,4100,OVC,5500,,,,,VFR,,,,,,0.02,,,,,,METAR,453.0
KPDK 241853Z 15005KT 10SM CLR 23/09 A3013 RMK AO2 SLP201 T02280089,KPDK,2022-10-24T18:53:00Z,33.88,-84.3,22.8,8.9,150,5,,10.0,30.129921,1020.1,,,TRUE,,,,,,,CLR,,,,,,,,VFR,,,,,,,,,,,,METAR,299.0
KPBI 241853Z 04011KT 10SM BKN034 BKN049 BKN250 28/18 A3003 RMK AO2 SLP167 T02830183,KPBI,2022-10-24T18:53:00Z,26.68,-80.1,28.3,18.3,40,11,,10.0,30.029528,1016.7,,,TRUE,,,,,,,BKN,3400,BKN,4900,BKN,25000,,,VFR,,,,,,,,,,,,METAR,4.0
KPBG 241853Z AUTO 11004KT 10SM CLR 17/12 A3019 RMK AO2 SLP225 T01670122,KPBG,2022-10-24T18:53:00Z,44.65,-73.47,16.7,12.2,110,4,,10.0,30.188976,1022.5,,TRUE,TRUE,,,,,,,CLR,,,,,,,,VFR,,,,,,,,,,,,METAR,61.0
KPBF 241853Z AUTO 17020G25KT 10SM FEW050 29/14 A2987 RMK AO2 PK WND 18028/1819 SLP111 T02890144,KPBF,2022-10-24T18:53:00Z,34.18,-91.93,28.9,14.4,170,20,25,10.0,29.870079,1011.1,,TRUE,TRUE,,,,,,,FEW,5000,,,,,,,VFR,,,,,,,,,,,,METAR,63.0
KPAH 241853Z 17012G23KT 10SM CLR 26/02 A2993 RMK AO2 SLP130 T02610022,KPAH,2022-10-24T18:53:00Z,37.07,-88.77,26.1,2.2,170,12,23,10.0,29.929134,1013.0,,,TRUE,,,,,,,CLR,,,,,,,,VFR,,,,,,,,,,,,METAR,125.0
KP68 241853Z AUTO 13006KT 02/M06 A3026 RMK AO1 SLP258 T00171056,KP68,2022-10-24T18:53:00Z,39.6,-116.0,1.7,-5.6,130,6,,,30.259842,1025.8,,TRUE,TRUE,,,,,,,,,,,,,,,,,,,,,,,,,,,METAR,1813.0
KOVS 241853Z AUTO 18009G20KT 10SM OVC055 22/14 A2969 RMK AO2 SLP052 T02220144,KOVS,2022-10-24T18:53:00Z,43.15,-90.68,22.2,14.4,180,9,20,10.0,29.68996,1005.2,,TRUE,TRUE,,,,,,,OVC,5500,,,,,,,VFR,,,,,,,,,,,,METAR,205.0
KOVE 241853Z AUTO VRB04KT 10SM CLR 20/M01 A3021 RMK AO2 SLP232 T02001011,KOVE,2022-10-24T18:53:00Z,39.5,-121.62,20.0,-1.1,0,4,,10.0,30.209646,1023.2,,TRUE,TRUE,,,,,,,CLR,,,,,,,,VFR,,,,,,,,,,,,METAR,56.0
KOSU 241853Z 16011KT 10SM CLR 24/06 A3007 RMK AO2 SLP180 T02440056,KOSU,2022-10-24T18:53:00Z,40.08,-83.08,24.4,5.6,160,11,,10.0,30.070866,1018.0,,,TRUE,,,,,,,CLR,,,,,,,,VFR,,,,,,,,,,,,METAR,276.0
KOSH 241853Z 18015G24KT 10SM CLR 21/14 A2974 RMK AO2 PK WND 18027/1820 SLP061 T02110139,KOSH,2022-10-24T18:53:00Z,43.98,-88.55,21.1,13.9,180,15,24,10.0,29.740158,1006.1,,,TRUE,,,,,,,CLR,,,,,,,,VFR,,,,,,,,,,,,METAR,239.0
KORL 241853Z 05007KT 10SM FEW042 BKN065 28/18 A3006 RMK AO2 SLP180 T02780178,KORL,2022-10-24T18:53:00Z,28.55,-81.33,27.8,17.8,50,7,,10.0,30.059055,1018.0,,,TRUE,,,,,,,FEW,4200,BKN,6500,,,,,VFR,,,,,,,,,,,,METAR,32.0
KOQT 241853Z AUTO 00000KT 10SM CLR 23/06 A3012 RMK AO2 SLP195 T02330056,KOQT,2022-10-24T18:53:00Z,36.02,-84.23,23.3,5.6,0,0,,10.0,30.121063,1019.5,,TRUE,TRUE,,,,,,,CLR,,,,,,,,VFR,,,,,,,,,,,,METAR,276.0
KOPF 241853Z 07010KT 10SM CLR 29/18 A3001 RMK AO2 SLP163 T02890183,KOPF,2022-10-24T18:53:00Z,25.92,-80.28,28.9,18.3,70,10,,10.0,30.008858,1016.3,,,TRUE,,,,,,,CLR,,,,,,,,VFR,,,,,,,,,,,,METAR,1.0
KONT 241853Z 27005KT 10SM CLR 21/M01 A3016 RMK AO2 SLP206 T02111011,KONT,2022-10-24T18:53:00Z,34.05,-117.58,21.1,-1.1,270,5,,10.0,30.159449,1020.6,,,TRUE,,,,,,,CLR,,,,,,,,VFR,,,,,,,,,,,,METAR,279.0
KONO 241853Z AUTO VRB03KT 10SM FEW037 OVC055 07/01 A3017 RMK AO2 RAB35E48 SLP231 P0000 T00670011,KONO,2022-10-24T18:53:00Z,44.02,-117.02,6.7,1.1,0,3,,10.0,30.171259,1023.1,,TRUE,TRUE,,,,,,,FEW,3700,OVC,5500,,,,,VFR,,,,,,0.005,,,,,,METAR,668.0
KOMK 241853Z AUTO 16009KT 10SM OVC032 09/02 A2987 RMK AO2 SLP118 T00940017,KOMK,2022-10-24T18:53:00Z,48.47,-119.52,9.4,1.7,160,9,,10.0,29.870079,1011.8,,TRUE,TRUE,,,,,,,OVC,3200,,,,,,,VFR,,,,,,,,,,,,METAR,395.0
KOLF 241853Z AUTO 28018G26KT FEW019 03/M01 A2974 RMK AO2 PK WND 28029/1824 SLP091 T00331011 $,KOLF,2022-10-24T18:53:00Z,48.1,-105.58,3.3,-1.1,280,18,26,,29.740158,1009.1,,TRUE,TRUE,TRUE,,,,,,FEW,1900,,,,,,,,,,,,,,,,,,,METAR,605.0
KOJC 241853Z 33010G18KT 4SM RA BR OVC008 11/09 A2973 RMK AO2 CIG 005V010 SLP061 P0006 T01060094,KOJC,2022-10-24T18:53:00Z,38.85,-94.73,10.6,9.4,330,10,18,4.0,29.731298,1006.1,,,TRUE,,,,,,RA BR,OVC,800,,,,,,,IFR,,,,,,0.06,,,,,,METAR,328.0
KOGD 241853Z 25007KT 10SM FEW036 SCT045 07/M03 A3021 RMK AO2 SLP226 T00671033,KOGD,2022-10-24T18:53:00Z,41.2,-112.02,6.7,-3.3,250,7,,10.0,30.209646,1022.6,,,TRUE,,,,,,,FEW,3600,SCT,4500,,,,,VFR,,,,,,,,,,,,METAR,1356.0
KOGB 241853Z AUTO 00000KT 10SM CLR 24/08 A3013 RMK AO2 SLP201 T02440078,KOGB,2022-10-24T18:53:00Z,33.47,-80.85,24.4,7.8,0,0,,10.0,30.129921,1020.1,,TRUE,TRUE,,,,,,,CLR,,,,,,,,VFR,,,,,,,,,,,,METAR,59.0
KODX 241853Z AUTO 30015G24KT 10SM CLR 12/M03 A2974 RMK AO2 SLP074 T01171028,KODX,2022-10-24T18:53:00Z,41.62,-98.95,11.7,-2.8,300,15,24,10.0,29.740158,1007.4,,TRUE,TRUE,,,,,,,CLR,,,,,,,,VFR,,,,,,,,,,,,METAR,628.0
KOAK 241853Z 25005KT 10SM CLR 18/05 A3023 RMK AO2 SLP237 T01830050,KOAK,2022-10-24T18:53:00Z,37.72,-122.23,18.3,5.0,250,5,,10.0,30.230314,1023.7,,,TRUE,,,,,,,CLR,,,,,,,,VFR,,,,,,,,,,,,METAR,3.0
KNUW 241853Z 24009KT 10SM SCT023 SCT040 BKN060 BKN180 13/09 A2997 RMK AO2 SLP149 T01280089 VISNO $,KNUW,2022-10-24T18:53:00Z,48.35,-122.65,12.8,8.9,240,9,,10.0,29.970472,1014.9,,,TRUE,TRUE,,,,,,SCT,2300,SCT,4000,BKN,6000,BKN,18000,VFR,,,,,,,,,,,,METAR,14.0
KNSI 241853Z 06009KT 8SM CLR 21/03 A3017 RMK AO2 SLP211 T02110028 $,KNSI,2022-10-24T18:53:00Z,33.23,-119.45,21.1,2.8,60,9,,8.0,30.171259,1021.1,,,TRUE,TRUE,,,,,,CLR,,,,,,,,VFR,,,,,,,,,,,,METAR,161.0
KNRS 241853Z 32011KT 10SM CLR 23/00 A3013 RMK AO2 SLP203 T02280000,KNRS,2022-10-24T18:53:00Z,32.57,-117.12,22.8,0.0,320,11,,10.0,30.129921,1020.3,,,TRUE,,,,,,,CLR,,,,,,,,VFR,,,,,,,,,,,,METAR,15.0
KNQX 241853Z 03010KT 10SM FEW030 FEW250 31/21 A3000 RMK AO2 SLP157 T03110211 $,KNQX,2022-10-24T18:53:00Z,24.57,-81.67,31.1,21.1,30,10,,10.0,30.0,1015.7,,,TRUE,TRUE,,,,,,FEW,3000,FEW,25000,,,,,VFR,,,,,,,,,,,,METAR,2.0
KNIP 241853Z 01007KT 10SM FEW040 FEW250 26/16 A3011 RMK AO2 SLP191 T02560156,KNIP,2022-10-24T18:53:00Z,30.23,-81.67,25.6,15.6,10,7,,10.0,30.109253,1019.1,,,TRUE,,,,,,,FEW,4000,FEW,25000,,,,,VFR,,,,,,,,,,,,METAR,3.0
KNEW 241853Z 16011KT 10SM CLR 29/17 A2999 RMK AO2 SLP148 T02940167,KNEW,2022-10-24T18:53:00Z,30.05,-90.03,29.4,16.7,160,11,,10.0,29.991142,1014.8,,,TRUE,,,,,,,CLR,,,,,,,,VFR,,,,,,,,,,,,METAR,1.0
KMYV 241853Z AUTO 01003KT 10SM CLR 21/M04 A3020 RMK AO2 SLP231 T02061044,KMYV,2022-10-24T18:53:00Z,39.1,-121.57,20.6,-4.4,10,3,,10.0,30.200787,1023.1,,TRUE,TRUE,,,,,,,CLR,,,,,,,,VFR,,,,,,,,,,,,METAR,18.0
KMYF 241853Z 24006KT 10SM CLR 23/05 A3014 RMK AO2 SLP201 T02280050,KMYF,2022-10-24T18:53:00Z,32.82,-117.13,22.8,5.0,240,6,,10.0,30.138779,1020.1,,,TRUE,,,,,,,CLR,,,,,,,,VFR,,,,,,,,,,,,METAR,128.0
KMVY 241853Z 07007KT 1SM R24/P6000FT BR OVC002 18/17 A3019 RMK AO2 RAE12 SLP222 P0000 T01780172,KMVY,2022-10-24T18:53:00Z,41.4,-70.62,17.8,17.2,70,7,,1.0,30.188976,1022.2,,,TRUE,,,,,,BR,OVC,200,,,,,,,LIFR,,,,,,0.005,,,,,,METAR,18.0
KMTO 241853Z AUTO 16016G29KT 10SM CLR 23/12 A2990 RMK AO2 PK WND 15030/1843 SLP120 T02330122,KMTO,2022-10-24T18:53:00Z,39.47,-88.27,23.3,12.2,160,16,29,10.0,29.899607,1012.0,,TRUE,TRUE,,,,,,,CLR,,,,,,,,VFR,,,,,,,,,,,,METAR,216.0
KMTJ 241853Z AUTO 33011KT 10SM BKN043 OVC070 04/M04 A3011 RMK AO2 SLP188 T00391044 $,KMTJ,2022-10-24T18:53:00Z,38.5,-107.9,3.9,-4.4,330,11,,10.0,30.109253,1018.8,,TRUE,TRUE,TRUE,,,,,,BKN,4300,OVC,7000,,,,,VFR,,,,,,,,,,,,METAR,1755.0
KMTH 241853Z AUTO 05009KT 10SM CLR 29/19 A2999 RMK AO2 SLP156 T02890194 $,KMTH,2022-10-24T18:53:00Z,24.73,-81.05,28.9,19.4,50,9,,10.0,29.991142,1015.6,,TRUE,TRUE,TRUE,,,,,,CLR,,,,,,,,VFR,,,,,,,,,,,,METAR,1.0
KMSY 241853Z 15012KT 10SM FEW050 SCT075 BKN250 28/17 A2998 RMK AO2 SLP154 T02830167,KMSY,2022-10-24T18:53:00Z,30.0,-90.25,28.3,16.7,150,12,,10.0,29.97933,1015.4,,,TRUE,,,,,,,FEW,5000,SCT,7500,BKN,25000,,,VFR,,,,,,,,,,,,METAR,0.0
KMSS 241853Z AUTO 04008KT 10SM CLR 21/07 A3017 RMK AO2 SLP218 T02060067,KMSS,2022-10-24T18:53:00Z,44.93,-74.85,20.6,6.7,40,8,,10.0,30.171259,1021.8,,TRUE,TRUE,,,,,,,CLR,,,,,,,,VFR,,,,,,,,,,,,METAR,60.0
KMSP 241853Z 21011G17KT 10SM -RA OVC100 13/04 A2965 RMK AO2 RAB32 SLP038 P0000 T01280044,KMSP,2022-10-24T18:53:00Z,44.88,-93.23,12.8,4.4,210,11,17,10.0,29.648623,1003.8,,,TRUE,,,,,,-RA,OVC,10000,,,,,,,VFR,,,,,,0.005,,,,,,METAR,255.0
KMSO 241853Z 13007KT 10SM BKN070 OVC090 07/M02 A2991 RMK AO2 SLP144 T00721017,KMSO,2022-10-24T18:53:00Z,46.92,-114.1,7.2,-1.7,130,7,,10.0,29.911417,1014.4,,,TRUE,,,,,,,BKN,7000,OVC,9000,,,,,VFR,,,,,,,,,,,,METAR,974.0
KMSN 241853Z 18011G19KT 10SM BKN060 OVC075 21/13 A2974 RMK AO2 SLP068 T02110133,KMSN,2022-10-24T18:53:00Z,43.13,-89.35,21.1,13.3,180,11,19,10.0,29.740158,1006.8,,,TRUE,,,,,,,BKN,6000,OVC,7500,,,,,VFR,,,,,,,,,,,,METAR,262.0
KMSL 241853Z AUTO 20011KT 10SM CLR 26/06 A3002 RMK AO2 SLP163 T02610056,KMSL,2022-10-24T18:53:00Z,34.75,-87.6,26.1,5.6,200,11,,10.0,30.02067,1016.3,,TRUE,TRUE,,,,,,,CLR,,,,,,,,VFR,,,,,,,,,,,,METAR,170.0
KMRB 241853Z 10SM SCT038 21/13 A3011 RMK AO2 SLP192 T02110128,KMRB,2022-10-24T18:53:00Z,39.4,-77.98,21.1,12.8,,,,10.0,30.109253,1019.2,,,TRUE,,,,,,,SCT,3800,,,,,,,VFR,,,,,,,,,,,,METAR,165.0
KMOD 241853Z 00000KT 10SM CLR 17/M02 A3022 RMK AO2 SLP231 T01721022,KMOD,2022-10-24T18:53:00Z,37.62,-120.95,17.2,-2.2,0,0,,10.0,30.221457,1023.1,,,TRUE,,,,,,,CLR,,,,,,,,VFR,,,,,,,,,,,,METAR,25.0
KMNN 241853Z AUTO 19011KT 7SM CLR 23/06 A3007 RMK AO2 SLP182 T02330061,KMNN,2022-10-24T18:53:00Z,40.62,-83.07,23.3,6.1,190,11,,7.0,30.070866,1018.2,,TRUE,TRUE,,,,,,,CLR,,,,,,,,VFR,,,,,,,,,,,,METAR,301.0
KMMK 241853Z AUTO 36009G14KT 10SM -RA BKN005 OVC019 13/12 A3015 RMK AO2 SLP209 P0007 T01330117,KMMK,2022-10-24T18:53:00Z,41.52,-72.83,13.3,11.7,360,9,14,10.0,30.15059,1020.9,,TRUE,TRUE,,,,,,-RA,BKN,500,OVC,1900,,,,,IFR,,,,,,0.07,,,,,,METAR,30.0
KMLU 241853Z 17012G21KT 10SM CLR 29/16 A2989 RMK AO2 SLP120 T02890161,KMLU,2022-10-24T18:53:00Z,32.52,-92.03,28.9,16.1,170,12,21,10.0,29.890747,1012.0,,,TRUE,,,,,,,CLR,,,,,,,,VFR,,,,,,,,,,,,METAR,22.0
KMLS 241853Z AUTO 30017KT 10SM FEW020 03/M01 A2980 RMK AO2 SLP110 T00281011,KMLS,2022-10-24T18:53:00Z,46.43,-105.88,2.8,-1.1,300,17,,10.0,29.799213,1011.0,,TRUE,TRUE,,,,,,,FEW,2000,,,,,,,VFR,,,,,,,,,,,,METAR,800.0
KMLB 241853Z 03010KT 10SM BKN037 27/18 A3006 RMK AO2 SLP178 T02670183,KMLB,2022-10-24T18:53:00Z,28.1,-80.65,26.7,18.3,30,10,,10.0,30.059055,1017.8,,,TRUE,,,,,,,BKN,3700,,,,,,,VFR,,,,,,,,,,,,METAR,7.0
KMKL 241853Z 17008G16KT 10SM CLR 23/13 A2997 RMK AO2 SLP145 T02280128,KMKL,2022-10-24T18:53:00Z,35.6,-88.92,22.8,12.8,170,8,16,10.0,29.970472,1014.5,,,TRUE,,,,,,,CLR,,,,,,,,VFR,,,,,,,,,,,,METAR,130.0
KMIE 241853Z 18010G20KT 10SM CLR 24/06 A3000 RMK AO2 SLP150 T02440061,KMIE,2022-10-24T18:53:00Z,40.23,-85.4,24.4,6.1,180,10,20,10.0,30.0,1015.0,,,TRUE,,,,,,,CLR,,,,,,,,VFR,,,,,,,,,,,,METAR,286.0
KMIC 241853Z 19008KT 10SM -RA FEW080 OVC100 12/05 A2963 RMK AO2 RAB14 SLP032 P0000 T01220050,KMIC,2022-10-24T18:53:00Z,45.07,-93.35,12.2,5.0,190,8,,10.0,29.630905,1003.2,,,TRUE,,,,,,-RA,FEW,8000,OVC,10000,,,,,VFR,,,,,,0.005,,,,,,METAR,263.0
KMIA 241853Z 05009KT 030V090 10SM FEW036 SCT080 29/19 A3001 RMK AO2 SLP161 T02940189,KMIA,2022-10-24T18:53:00Z,25.8,-80.32,29.4,18.9,50,9,,10.0,30.008858,1016.1,,,TRUE,,,,,,,FEW,3600,SCT,8000,,,,,VFR,,,,,,,,,,,,METAR,1.0
KMHT 241853Z 33006KT 3SM OVC003 15/14 A3023 RMK AO2 SFC VIS 7 RAE35 TSE04 SLP249 T01500139 PNO $,KMHT,2022-10-24T18:53:00Z,42.93,-71.43,15.0,13.9,330,6,,3.0,30.230314,1024.9,,,TRUE,TRUE,,,,,,OVC,300,,,,,,,LIFR,,,,,,,,,,,,METAR,68.0
KMHE 241853Z AUTO 28016G28KT 10SM CLR 10/M03 A2970 RMK AO2 PK WND 29030/1840 SLP061 T01001028,KMHE,2022-10-24T18:53:00Z,43.77,-98.03,10.0,-2.8,280,16,28,10.0,29.698818,1006.1,,TRUE,TRUE,,,,,,,CLR,,,,,,,,VFR,,,,,,,,,,,,METAR,397.0
KMGY 241853Z AUTO 18009KT 10SM CLR 23/06 A3005 RMK AO2 SLP171 T02330056,KMGY,2022-10-24T18:53:00Z,39.6,-84.23,23.3,5.6,180,9,,10.0,30.050198,1017.1,,TRUE,TRUE,,,,,,,CLR,,,,,,,,VFR,,,,,,,,,,,,METAR,290.0
KMGW 241853Z 00000KT 10SM CLR 22/05 A3014 RMK AO2 SLP201 T02220050,KMGW,2022-10-24T18:53:00Z,39.65,-79.92,22.2,5.0,0,0,,10.0,30.138779,1020.1,,,TRUE,,,,,,,CLR,,,,,,,,VFR,,,,,,,,,,,,METAR,375.0
KMGM 241853Z 09006KT 10SM CLR 27/11 A3008 RMK AO2 SLP184 T02720106,KMGM,2022-10-24T18:53:00Z,32.3,-86.4,27.2,10.6,90,6,,10.0,30.079725,1018.4,,,TRUE,,,,,,,CLR,,,,,,,,VFR,,,,,,,,,,,,METAR,64.0
KMFE 241853Z 15014G23KT 10SM CLR 33/22 A2974 RMK AO2 PK WND 14026/1833 SLP068 T03280217,KMFE,2022-10-24T18:53:00Z,26.18,-98.25,32.8,21.7,150,14,23,10.0,29.740158,1006.8,,,TRUE,,,,,,,CLR,,,,,,,,VFR,,,,,,,,,,,,METAR,29.0
KMER 241853Z 00000KT 5SM CLR 20/00 A3022 HZ,KMER,2022-10-24T18:53:00Z,37.38,-120.57,20.0,0.0,0,0,,5.0,30.221457,,,,,,,,,,HZ,CLR,,,,,,,,MVFR,,,,,,,,,,,,METAR,58.0
KMDW 241853Z 17015G25KT 10SM FEW050 FEW150 BKN200 OVC250 25/13 A2983 RMK AO2 PK WND 17027/1834 SLP094 T02500128,KMDW,2022-10-24T18:53:00Z,41.78,-87.75,25.0,12.8,170,15,25,10.0,29.828741,1009.4,,,TRUE,,,,,,,FEW,5000,FEW,15000,BKN,20000,OVC,25000,VFR,,,,,,,,,,,,METAR,186.0
KMCW 241853Z AUTO 30010KT 10SM -RA FEW043 BKN090 11/06 A2969 RMK AO2 RAB1759 SLP048 P0001 T01060056,KMCW,2022-10-24T18:53:00Z,43.15,-93.33,10.6,5.6,300,10,,10.0,29.68996,1004.8,,TRUE,TRUE,,,,,,-RA,FEW,4300,BKN,9000,,,,,VFR,,,,,,0.01,,,,,,METAR,363.0
KMCO 241853Z 05007KT 10SM SCT043 29/17 A3005 RMK AO2 SLP173 T02890172,KMCO,2022-10-24T18:53:00Z,28.42,-81.33,28.9,17.2,50,7,,10.0,30.050198,1017.3,,,TRUE,,,,,,,SCT,4300,,,,,,,VFR,,,,,,,,,,,,METAR,27.0
KMCN 241853Z VRB05KT 10SM CLR 26/09 A3011 RMK AO2 SLP193 T02610094,KMCN,2022-10-24T18:53:00Z,32.68,-83.65,26.1,9.4,0,5,,10.0,30.109253,1019.3,,,TRUE,,,,,,,CLR,,,,,,,,VFR,,,,,,,,,,,,METAR,104.0
KMCK 241853Z AUTO 32022G34KT 10SM CLR 13/M06 A2981 RMK AO2 PK WND 32041/1825 SLP094 T01281056,KMCK,2022-10-24T18:53:00Z,40.2,-100.58,12.8,-5.6,320,22,34,10.0,29.811024,1009.4,,TRUE,TRUE,,,,,,,CLR,,,,,,,,VFR,,,,,,,,,,,,METAR,780.0
KMCI 241853Z 31007KT 3SM -RA BR SCT008 SCT035 OVC050 11/09 A2973 RMK AO2 SFC VIS 5 SLP061 P0010 T01110094,KMCI,2022-10-24T18:53:00Z,39.3,-94.73,11.1,9.4,310,7,,3.0,29.731298,1006.1,,,TRUE,,,,,,-RA BR,SCT,800,SCT,3500,OVC,5000,,,MVFR,,,,,,0.1,,,,,,METAR,308.0
KMCE 241853Z AUTO 00000KT 10SM CLR 18/00 A3022 RMK AO2 SLP232 T01780000,KMCE,2022-10-24T18:53:00Z,37.28,-120.5,17.8,0.0,0,0,,10.0,30.221457,1023.2,,TRUE,TRUE,,,,,,,CLR,,,,,,,,VFR,,,,,,,,,,,,METAR,49.0
KMCB 241853Z AUTO 17014G20KT 10SM SCT060 29/13 A2996 RMK AO2 SLP141 T02940133,KMCB,2022-10-24T18:53:00Z,31.18,-90.47,29.4,13.3,170,14,20,10.0,29.958662,1014.1,,TRUE,TRUE,,,,,,,SCT,6000,,,,,,,VFR,,,,,,,,,,,,METAR,124.0
KMBS 241853Z 18013G21KT 10SM CLR 25/08 A2998 RMK AO2 SLP149 T02500083,KMBS,2022-10-24T18:53:00Z,43.53,-84.08,25.0,8.3,180,13,21,10.0,29.97933,1014.9,,,TRUE,,,,,,,CLR,,,,,,,,VFR,,,,,,,,,,,,METAR,201.0
KMAI 241853Z AUTO VRB05KT 10SM SCT050 28/14 A3007 RMK AO1 SLP181 T02830144 $,KMAI,2022-10-24T18:53:00Z,30.83,-85.18,28.3,14.4,0,5,,10.0,30.070866,1018.1,,TRUE,TRUE,TRUE,,,,,,SCT,5000,,,,,,,VFR,,,,,,,,,,,,METAR,33.0
KMAF 241853Z 24018G29KT 10SM FEW060 SCT070 BKN090 23/08 A2976 RMK AO2 PK WND 21034/1842 SLP037 T02280083,KMAF,2022-10-24T18:53:00Z,31.95,-102.2,22.8,8.3,240,18,29,10.0,29.760826,1003.7,,,TRUE,,,,,,,FEW,6000,SCT,7000,BKN,9000,,,VFR,,,,,,,,,,,,METAR,874.0
KMAE 241853Z AUTO 12004KT 10SM CLR 18/01 A3023 RMK AO2 SLP234 T01830011 $,KMAE,2022-10-24T18:53:00Z,36.98,-120.12,18.3,1.1,120,4,,10.0,30.230314,1023.4,,TRUE,TRUE,TRUE,,,,,,CLR,,,,,,,,VFR,,,,,,,,,,,,METAR,77.0
KLXV 241853Z AUTO 36008G20KT 10SM BKN033 OVC043 M06/M13 A2996 RMK AO2 SLP128 T10611128 $,KLXV,2022-10-24T18:53:00Z,39.23,-106.32,-6.1,-12.8,360,8,20,10.0,29.958662,1012.8,,TRUE,TRUE,TRUE,,,,,,BKN,3300,OVC,4300,,,,,VFR,,,,,,,,,,,,METAR,3027.0
KLWV 241853Z AUTO 17017KT 10SM CLR 25/11 A2995 RMK AO2 PK WND 19026/1824 SLP138 T02500106,KLWV,2022-10-24T18:53:00Z,38.77,-87.6,25.0,10.6,170,17,,10.0,29.949802,1013.8,,TRUE,TRUE,,,,,,,CLR,,,,,,,,VFR,,,,,,,,,,,,METAR,128.0
KLVM 241853Z AUTO 27012KT 10SM CLR 04/M04 A2988 RMK AO2 SLP140 T00391039,KLVM,2022-10-24T18:53:00Z,45.7,-110.43,3.9,-3.9,270,12,,10.0,29.878937,1014.0,,TRUE,TRUE,,,,,,,CLR,,,,,,,,VFR,,,,,,,,,,,,METAR,1418.0
KLVK 241853Z 00000KT 10SM CLR 21/M03 A3021 RMK AO2 SLP226 T02061033,KLVK,2022-10-24T18:53:00Z,37.7,-121.82,20.6,-3.3,0,0,,10.0,30.209646,1022.6,,,TRUE,,,,,,,CLR,,,,,,,,VFR,,,,,,,,,,,,METAR,120.0
KLVJ 241853Z AUTO 17016G27KT 10SM FEW041 OVC055 28/19 A2983 RMK AO2 PK WND 15027/1847 SLP101 T02780194,KLVJ,2022-10-24T18:53:00Z,29.52,-95.25,27.8,19.4,170,16,27,10.0,29.828741,1010.1,,TRUE,TRUE,,,,,,,FEW,4100,OVC,5500,,,,,VFR,,,,,,,,,,,,METAR,11.0
KLUK 241853Z 17007KT 10SM CLR 24/04 A3005 RMK AO2 SLP176 T02440044,KLUK,2022-10-24T18:53:00Z,39.1,-84.42,24.4,4.4,170,7,,10.0,30.050198,1017.6,,,TRUE,,,,,,,CLR,,,,,,,,VFR,,,,,,,,,,,,METAR,144.0
KLSE 241853Z 20009KT 10SM OVC032 19/16 A2966 RMK AO2 RAE19 SLP037 P0000 T01940156,KLSE,2022-10-24T18:53:00Z,43.88,-91.25,19.4,15.6,200,9,,10.0,29.660433,1003.7,,,TRUE,,,,,,,OVC,3200,,,,,,,VFR,,,,,,0.005,,,,,,METAR,198.0
KLPR 241853Z AUTO 20011KT 10SM CLR 24/07 A3007 RMK AO2 SLP181 T02440067,KLPR,2022-10-24T18:53:00Z,41.35,-82.18,24.4,6.7,200,11,,10.0,30.070866,1018.1,,TRUE,TRUE,,,,,,,CLR,,,,,,,,VFR,,,,,,,,,,,,METAR,241.0
KLOZ 241853Z AUTO 14007KT 110V180 10SM CLR 24/02 A3009 RMK AO2 SLP185 T02390017,KLOZ,2022-10-24T18:53:00Z,37.08,-84.07,23.9,1.7,140,7,,10.0,30.088583,1018.5,,TRUE,TRUE,,,,,,,CLR,,,,,,,,VFR,,,,,,,,,,,,METAR,361.0
KLOU 241853Z 14007KT 10SM CLR 25/06 A3002 RMK AO2 SLP162 T02500061,KLOU,2022-10-24T18:53:00Z,38.22,-85.67,25.0,6.1,140,7,,10.0,30.02067,1016.2,,,TRUE,,,,,,,CLR,,,,,,,,VFR,,,,,,,,,,,,METAR,165.0
KLOL 241853Z AUTO 20008G14KT 10SM CLR A3028 RMK AO2 SLPNO $,KLOL,2022-10-24T18:53:00Z,40.07,-118.57,,,200,8,14,10.0,30.280512,,,TRUE,TRUE,TRUE,,,,,,CLR,,,,,,,,VFR,,,,,,,,,,,,METAR,1191.0
KLND 241853Z AUTO 18007KT 10SM CLR 07/M07 A2988 RMK AO2 SLP119 T00671072,KLND,2022-10-24T18:53:00Z,42.82,-108.73,6.7,-7.2,180,7,,10.0,29.878937,1011.9,,TRUE,TRUE,,,,,,,CLR,,,,,,,,VFR,,,,,,,,,,,,METAR,1700.0
KLMT 241853Z 18003KT 10SM BKN015 OVC021 04/01 A3023 RMK AO2 SLP250 T00440006,KLMT,2022-10-24T18:53:00Z,42.15,-121.72,4.4,0.6,180,3,,10.0,30.230314,1025.0,,,TRUE,,,,,,,BKN,1500,OVC,2100,,,,,MVFR,,,,,,,,,,,,METAR,1246.0
KLLQ 241853Z AUTO 16007G16KT 10SM BKN060 27/14 A2989 RMK AO2 SLP119 T02670139,KLLQ,2022-10-24T18:53:00Z,33.63,-91.75,26.7,13.9,160,7,16,10.0,29.890747,1011.9,,TRUE,TRUE,,,,,,,BKN,6000,,,,,,,VFR,,,,,,,,,,,,METAR,86.0
KLIT 241853Z 17017KT 10SM FEW048 FEW080 BKN250 29/15 A2984 RMK AO2 SLP103 T02890150,KLIT,2022-10-24T18:53:00Z,34.73,-92.23,28.9,15.0,170,17,,10.0,29.840551,1010.3,,,TRUE,,,,,,,FEW,4800,FEW,8000,BKN,25000,,,VFR,,,,,,,,,,,,METAR,77.0
KLHX 241853Z AUTO 28006KT 10SM BKN060 OVC080 09/M01 A2990 RMK AO2 WSHFT 1759 RAB09E18 SLP112 P0000 T00891011 $,KLHX,2022-10-24T18:53:00Z,38.05,-103.52,8.9,-1.1,280,6,,10.0,29.899607,1011.2,,TRUE,TRUE,TRUE,,,,,,BKN,6000,OVC,8000,,,,,VFR,,,,,,0.005,,,,,,METAR,1289.0
KLHQ 241853Z AUTO 14006KT 10SM CLR 25/07 A3008 RMK AO2 SLP184 T02500067,KLHQ,2022-10-24T18:53:00Z,39.75,-82.67,25.0,6.7,140,6,,10.0,30.079725,1018.4,,TRUE,TRUE,,,,,,,CLR,,,,,,,,VFR,,,,,,,,,,,,METAR,259.0
KLGB 241853Z 29007KT 10SM CLR 24/M01 A3015 RMK AO2 SLP208 T02441011,KLGB,2022-10-24T18:53:00Z,33.82,-118.15,24.4,-1.1,290,7,,10.0,30.15059,1020.8,,,TRUE,,,,,,,CLR,,,,,,,,VFR,,,,,,,,,,,,METAR,10.0
KLFT 241853Z 17010G23KT 10SM BKN060 28/17 A2993 RMK AO2 SLP135 T02830167,KLFT,2022-10-24T18:53:00Z,30.2,-91.97,28.3,16.7,170,10,23,10.0,29.929134,1013.5,,,TRUE,,,,,,,BKN,6000,,,,,,,VFR,,,,,,,,,,,,METAR,9.0
KLEE 241853Z 01006KT 10SM BKN038 BKN047 BKN075 27/18 A3007 RMK AO2 SLP182 T02720183,KLEE,2022-10-24T18:53:00Z,28.82,-81.82,27.2,18.3,10,6,,10.0,30.070866,1018.2,,,TRUE,,,,,,,BKN,3800,BKN,4700,BKN,7500,,,VFR,,,,,,,,,,,,METAR,21.0
KLEB 241853Z 00000KT 10SM OVC009 15/12 A3023 RMK AO2 SLP235 T01500117,KLEB,2022-10-24T18:53:00Z,43.63,-72.3,15.0,11.7,0,0,,10.0,30.230314,1023.5,,,TRUE,,,,,,,OVC,900,,,,,,,IFR,,,,,,,,,,,,METAR,169.0
KLCH 241853Z AUTO 17019G29KT 10SM CLR 28/17 A2989 RMK AO2 PK WND 19030/1806 SLP130 T02830172 $,KLCH,2022-10-24T18:53:00Z,30.13,-93.22,28.3,17.2,170,19,29,10.0,29.890747,1013.0,,TRUE,TRUE,TRUE,,,,,,CLR,,,,,,,,VFR,,,,,,,,,,,,METAR,2.0
KLBF 241853Z AUTO 30026G35KT 10SM CLR 12/M04 A2981 RMK AO2 PK WND 30035/1853 SLP094 T01221044,KLBF,2022-10-24T18:53:00Z,41.12,-100.67,12.2,-4.4,300,26,35,10.0,29.811024,1009.4,,TRUE,TRUE,,,,,,,CLR,,,,,,,,VFR,,,,,,,,,,,,METAR,843.0
KLBB 241853Z 30013KT 10SM FEW042CB SCT065 BKN100 14/09 A2976 RMK AO2 PK WND 30026/1759 WSHFT 1745 SLP042 CB E MOV E T01440089,KLBB,2022-10-24T18:53:00Z,33.67,-101.82,14.4,8.9,300,13,,10.0,29.760826,1004.2,,,TRUE,,,,,,,FEW,4200,SCT,6500,BKN,10000,,,VFR,,,,,,,,,,,,METAR,996.0
KLAX 241853Z 26009KT 10SM CLR 23/M01 A3015 RMK AO2 SLP210 T02281011,KLAX,2022-10-24T18:53:00Z,33.93,-118.38,22.8,-1.1,260,9,,10.0,30.15059,1021.0,,,TRUE,,,,,,,CLR,,,,,,,,VFR,,,,,,,,,,,,METAR,30.0
KLAW 241853Z 01012KT 10SM FEW018 18/12 A2976 RMK AO2 SLP069 T01780117,KLAW,2022-10-24T18:53:00Z,34.55,-98.42,17.8,11.7,10,12,,10.0,29.760826,1006.9,,,TRUE,,,,,,,FEW,1800,,,,,,,VFR,,,,,,,,,,,,METAR,328.0
KLAN 241853Z 18013G23KT 10SM CLR 25/12 A2998 RMK AO2 SLP150 T02500117,KLAN,2022-10-24T18:53:00Z,42.78,-84.58,25.0,11.7,180,13,23,10.0,29.97933,1015.0,,,TRUE,,,,,,,CLR,,,,,,,,VFR,,,,,,,,,,,,METAR,261.0
KLAA 241853Z AUTO 01010KT 10SM CLR 12/M06 A2986 RMK AO2 SLP097 T01171061,KLAA,2022-10-24T18:53:00Z,38.07,-102.68,11.7,-6.1,10,10,,10.0,29.861221,1009.7,,TRUE,TRUE,,,,,,,CLR,,,,,,,,VFR,,,,,,,,,,,,METAR,1129.0
KJLN 241853Z 15010KT 7SM -RA FEW010 BKN025 OVC050 19/18 A2965 RMK AO2 SLP030 P0033 T01940178 $,KJLN,2022-10-24T18:53:00Z,37.15,-94.5,19.4,17.8,150,10,,7.0,29.648623,1003.0,,,TRUE,TRUE,,,,,-RA,FEW,1000,BKN,2500,OVC,5000,,,MVFR,,,,,,0.33,,,,,,METAR,297.0
KJKL 241853Z AUTO VRB03KT 10SM CLR 25/02 A3011 RMK AO2 SLP184 T02500017,KJKL,2022-10-24T18:53:00Z,37.6,-83.32,25.0,1.7,0,3,,10.0,30.109253,1018.4,,TRUE,TRUE,,,,,,,CLR,,,,,,,,VFR,,,,,,,,,,,,METAR,414.0
KJER 241853Z AUTO 26013KT 10SM CLR 08/M04 A3017 RMK AO2 SLP226 T00781039,KJER,2022-10-24T18:53:00Z,42.72,-114.45,7.8,-3.9,260,13,,10.0,30.171259,1022.6,,TRUE,TRUE,,,,,,,CLR,,,,,,,,VFR,,,,,,,,,,,,METAR,1226.0
KJEF 241853Z 17015G24KT 10SM OVC032 24/16 A2973 RMK AO2 PK WND 19026/1754 SLP052 T02390161 $,KJEF,2022-10-24T18:53:00Z,38.6,-92.15,23.9,16.1,170,15,24,10.0,29.731298,1005.2,,,TRUE,TRUE,,,,,,OVC,3200,,,,,,,VFR,,,,,,,,,,,,METAR,167.0
KJBR 241853Z AUTO 18014G23KT 10SM OVC050 25/14 A2990 RMK AO2 SLP122 T02500139 $,KJBR,2022-10-24T18:53:00Z,35.83,-90.65,25.0,13.9,180,14,23,10.0,29.899607,1012.2,,TRUE,TRUE,TRUE,,,,,,OVC,5000,,,,,,,VFR,,,,,,,,,,,,METAR,79.0
KITR 241853Z AUTO 35016G29KT 10SM CLR 11/M07 A2985 RMK AO2 PK WND 36033/1806 SLP092 T01111067 $,KITR,2022-10-24T18:53:00Z,39.23,-102.28,11.1,-6.7,350,16,29,10.0,29.84941,1009.2,,TRUE,TRUE,TRUE,,,,,,CLR,,,,,,,,VFR,,,,,,,,,,,,METAR,1285.0
KIPL 241853Z AUTO 02007G17KT 10SM CLR 22/M08 A3018 RMK AO2 SLP220 T02171078 $,KIPL,2022-10-24T18:53:00Z,32.83,-115.58,21.7,-7.8,20,7,17,10.0,30.180119,1022.0,,TRUE,TRUE,TRUE,,,,,,CLR,,,,,,,,VFR,,,,,,,,,,,,METAR,-16.0
KINK 241853Z AUTO 31025G36KT 10SM OVC100 18/06 A2984 RMK AO2 PK WND 29041/1757 RAB1759E11 SLP071 P0000 T01780056 $,KINK,2022-10-24T18:53:00Z,31.78,-103.2,17.8,5.6,310,25,36,10.0,29.840551,1007.1,,TRUE,TRUE,TRUE,,,,,,OVC,10000,,,,,,,VFR,,,,,,0.005,,,,,,METAR,857.0
KIML 241853Z AUTO 32021G30KT 10SM CLR 11/M05 A2984 RMK AO2 PK WND 29039/1809 SLP108 T01111050,KIML,2022-10-24T18:53:00Z,40.52,-101.62,11.1,-5.0,320,21,30,10.0,29.840551,1010.8,,TRUE,TRUE,,,,,,,CLR,,,,,,,,VFR,,,,,,,,,,,,METAR,997.0
KILM 241853Z 04003KT 10SM FEW018 22/16 A3010 RMK AO2 SLP192 T02170156 PWINO,KILM,2022-10-24T18:53:00Z,34.27,-77.9,21.7,15.6,40,3,,10.0,30.100393,1019.2,,,TRUE,,,,,TRUE,,FEW,1800,,,,,,,VFR,,,,,,,,,,,,METAR,9.0
KICR 241853Z AUTO 28018G31KT OVC044 07/M04 A2975 RMK AO2 PK WND 30040/1808 SLP080 T00721039 $,KICR,2022-10-24T18:53:00Z,43.38,-99.85,7.2,-3.9,280,18,31,,29.749016,1008.0,,TRUE,TRUE,TRUE,,,,,,OVC,4400,,,,,,,,,,,,,,,,,,,METAR,618.0
KIAH 241853Z 16019G27KT 10SM BKN034 OVC060 26/19 A2982 RMK AO2 PK WND 18027/1847 SLP097 VCSH W-N T02610194,KIAH,2022-10-24T18:53:00Z,30.0,-95.37,26.1,19.4,160,19,27,10.0,29.819881,1009.7,,,TRUE,,,,,,,BKN,3400,OVC,6000,,,,,VFR,,,,,,,,,,,,METAR,27.0
KIAG 241853Z 03003KT 10SM CLR 23/11 A3011 RMK AO2 SLP199 T02280111,KIAG,2022-10-24T18:53:00Z,43.12,-78.93,22.8,11.1,30,3,,10.0,30.109253,1019.9,,,TRUE,,,,,,,CLR,,,,,,,,VFR,,,,,,,,,,,,METAR,179.0
KHZY 241853Z AUTO 14007KT 10SM CLR 23/07 A3011 RMK AO2 SLP194 T02330067,KHZY,2022-10-24T18:53:00Z,41.78,-80.7,23.3,6.7,140,7,,10.0,30.109253,1019.4,,TRUE,TRUE,,,,,,,CLR,,,,,,,,VFR,,,,,,,,,,,,METAR,279.0
KHWO 241853Z 07011KT 10SM FEW036 29/19 A3001 RMK AO2 SLP163 T02890194,KHWO,2022-10-24T18:53:00Z,26.0,-80.23,28.9,19.4,70,11,,10.0,30.008858,1016.3,,,TRUE,,,,,,,FEW,3600,,,,,,,VFR,,,,,,,,,,,,METAR,2.0
KHVR 241853Z AUTO 23019KT CLR 07/02 A2974 RMK AO2 SLP088 T00720017 $,KHVR,2022-10-24T18:53:00Z,48.55,-109.77,7.2,1.7,230,19,,,29.740158,1008.8,,TRUE,TRUE,TRUE,,,,,,CLR,,,,,,,,,,,,,,,,,,,,METAR,789.0
KHUL 241853Z AUTO 02007KT 6SM -RA BKN042 OVC050 14/11 A3031 RMK AO2 RAB02 SLP265 P0002 T01390111,KHUL,2022-10-24T18:53:00Z,46.12,-67.8,13.9,11.1,20,7,,6.0,30.31004,1026.5,,TRUE,TRUE,,,,,,-RA,BKN,4200,OVC,5000,,,,,VFR,,,,,,0.02,,,,,,METAR,148.0
KHUF 241853Z 17014G21KT 10SM CLR 24/13 A2994 RMK AO2 PK WND 20026/1754 SLP134 T02440128,KHUF,2022-10-24T18:53:00Z,39.45,-87.32,24.4,12.8,170,14,21,10.0,29.940945,1013.4,,,TRUE,,,,,,,CLR,,,,,,,,VFR,,,,,,,,,,,,METAR,174.0
KHTL 241853Z AUTO 17010KT 10SM CLR 22/12 A2993 RMK AO2 SLP134 T02220117,KHTL,2022-10-24T18:53:00Z,44.35,-84.67,22.2,11.7,170,10,,10.0,29.929134,1013.4,,TRUE,TRUE,,,,,,,CLR,,,,,,,,VFR,,,,,,,,,,,,METAR,350.0
KHSV 241853Z 14006G18KT 10SM FEW200 26/05 A3007 RMK AO2 SLP176 T02610050,KHSV,2022-10-24T18:53:00Z,34.65,-86.78,26.1,5.0,140,6,18,10.0,30.070866,1017.6,,,TRUE,,,,,,,FEW,20000,,,,,,,VFR,,,,,,,,,,,,METAR,190.0
KHSI 241853Z AUTO 31016G22KT 10SM CLR 11/M04 A2978 RMK AO2 SLP084 T01111039,KHSI,2022-10-24T18:53:00Z,40.6,-98.43,11.1,-3.9,310,16,22,10.0,29.778543,1008.4,,TRUE,TRUE,,,,,,,CLR,,,,,,,,VFR,,,,,,,,,,,,METAR,592.0
KHRI 241853Z AUTO 26007KT 10SM -RA BKN070 OVC085 11/05 A2998 RMK AO2 SLP152 P0001 T01060050,KHRI,2022-10-24T18:53:00Z,45.83,-119.27,10.6,5.0,260,7,,10.0,29.97933,1015.2,,TRUE,TRUE,,,,,,-RA,BKN,7000,OVC,8500,,,,,VFR,,,,,,0.01,,,,,,METAR,194.0
KHQM 241853Z AUTO 30008KT 10SM FEW027 SCT041 BKN075 13/09 A3001 RMK AO2 RAB30E46 SLP165 P0001 T01330089,KHQM,2022-10-24T18:53:00Z,46.97,-123.93,13.3,8.9,300,8,,10.0,30.008858,1016.5,,TRUE,TRUE,,,,,,,FEW,2700,SCT,4100,BKN,7500,,,VFR,,,,,,0.01,,,,,,METAR,4.0
KHOU 241853Z 17017G26KT 10SM BKN040 OVC055 27/19 A2982 RMK AO2 PK WND 18030/1840 SLP101 T02720189,KHOU,2022-10-24T18:53:00Z,29.63,-95.28,27.2,18.9,170,17,26,10.0,29.819881,1010.1,,,TRUE,,,,,,,BKN,4000,OVC,5500,,,,,VFR,,,,,,,,,,,,METAR,13.0
KHOT 241853Z AUTO 17011G15KT 130V190 10SM SCT044 BKN060 OVC080 26/16 A2981 RMK AO2 SLP090 T02560161,KHOT,2022-10-24T18:53:00Z,34.48,-93.1,25.6,16.1,170,11,15,10.0,29.811024,1009.0,,TRUE,TRUE,,,,,,,SCT,4400,BKN,6000,OVC,8000,,,VFR,,,,,,,,,,,,METAR,153.0
KHLN 241853Z 16006KT 10SM BKN075 OVC120 06/M04 A2988 RMK AO2 SLP150 T00561044,KHLN,2022-10-24T18:53:00Z,46.6,-111.98,5.6,-4.4,160,6,,10.0,29.878937,1015.0,,,TRUE,,,,,,,BKN,7500,OVC,12000,,,,,VFR,,,,,,,,,,,,METAR,1178.0
KHLG 241853Z 00000KT 10SM CLR 23/06 A3011 RMK AO2 SLP195 T02280056,KHLG,2022-10-24T18:53:00Z,40.17,-80.65,22.8,5.6,0,0,,10.0,30.109253,1019.5,,,TRUE,,,,,,,CLR,,,,,,,,VFR,,,,,,,,,,,,METAR,365.0
KHLC 241853Z AUTO 33017G32KT 10SM CLR 14/M04 A2982 RMK AO2 PK WND 35034/1820 SLP089 T01441044,KHLC,2022-10-24T18:53:00Z,39.37,-99.83,14.4,-4.4,330,17,32,10.0,29.819881,1008.9,,TRUE,TRUE,,,,,,,CLR,,,,,,,,VFR,,,,,,,,,,,,METAR,667.0
KHKY 241853Z 20004KT 10SM CLR 23/08 A3014 RMK AO2 SLP191 T02280083,KHKY,2022-10-24T18:53:00Z,35.75,-81.38,22.8,8.3,200,4,,10.0,30.138779,1019.1,,,TRUE,,,,,,,CLR,,,,,,,,VFR,,,,,,,,,,,,METAR,357.0
KHKS 241853Z 19015G20KT 10SM CLR 29/14 A2996 RMK AO2 PK WND 18027/1817 SLP136 T02890139,KHKS,2022-10-24T18:53:00Z,32.33,-90.22,28.9,13.9,190,15,20,10.0,29.958662,1013.6,,,TRUE,,,,,,,CLR,,,,,,,,VFR,,,,,,,,,,,,METAR,103.0
KHKA 241853Z AUTO 19015G21KT 10SM CLR 26/13 A2992 RMK AO2 SLP129 T02560133 $,KHKA,2022-10-24T18:53:00Z,35.93,-89.83,25.6,13.3,190,15,21,10.0,29.920275,1012.9,,TRUE,TRUE,TRUE,,,,,,CLR,,,,,,,,VFR,,,,,,,,,,,,METAR,78.0
KHJO 241853Z AUTO 16004KT 10SM CLR 18/00 A3024 RMK AO2 SLP240 T01830000,KHJO,2022-10-24T18:53:00Z,36.32,-119.62,18.3,0.0,160,4,,10.0,30.239174,1024.0,,TRUE,TRUE,,,,,,,CLR,,,,,,,,VFR,,,,,,,,,,,,METAR,73.0
KHIO 241853Z 00000KT 2SM -RA BR BKN006 OVC010 09/08 A3007 RMK AO2 RAB15 CIG 004V008 SLP184 P0001 T00890083,KHIO,2022-10-24T18:53:00Z,45.55,-122.95,8.9,8.3,0,0,,2.0,30.070866,1018.4,,,TRUE,,,,,,-RA BR,BKN,600,OVC,1000,,,,,IFR,,,,,,0.01,,,,,,METAR,62.0
KHIB 241853Z AUTO 21012G23KT 170V240 10SM CLR 14/07 A2946 RMK AO2 PK WND 20029/1815 SLP978 T01390067,KHIB,2022-10-24T18:53:00Z,47.38,-92.83,13.9,6.7,210,12,23,10.0,29.459646,997.8,,TRUE,TRUE,,,,,,,CLR,,,,,,,,VFR,,,,,,,,,,,,METAR,409.0
KHHR 241853Z 27004KT 10SM CLR 22/M01 A3016 RMK AO2 SLP210 T02221011,KHHR,2022-10-24T18:53:00Z,33.92,-118.33,22.2,-1.1,270,4,,10.0,30.159449,1021.0,,,TRUE,,,,,,,CLR,,,,,,,,VFR,,,,,,,,,,,,METAR,21.0
KHGR 241853Z 05007KT 010V080 10SM FEW047 OVC055 21/13 A3012 RMK AO2 SLP207 T02060128,KHGR,2022-10-24T18:53:00Z,39.7,-77.73,20.6,12.8,50,7,,10.0,30.121063,1020.7,,,TRUE,,,,,,,FEW,4700,OVC,5500,,,,,VFR,,,,,,,,,,,,METAR,206.0
KHFD 241853Z 01009KT 2SM -RA BR OVC005 13/12 A3018 RMK AO2 RAB13 SLP218 P0001 T01330122,KHFD,2022-10-24T18:53:00Z,41.73,-72.65,13.3,12.2,10,9,,2.0,30.180119,1021.8,,,TRUE,,,,,,-RA BR,OVC,500,,,,,,,IFR,,,,,,0.01,,,,,,METAR,3.0
KHBR 241853Z AUTO 04012KT 10SM OVC025 16/11 A2977 RMK AO2 SLP068 T01560111,KHBR,2022-10-24T18:53:00Z,34.98,-99.05,15.6,11.1,40,12,,10.0,29.769686,1006.8,,TRUE,TRUE,,,,,,,OVC,2500,,,,,,,MVFR,,,,,,,,,,,,METAR,475.0
KHBG 241853Z AUTO 16010G20KT 10SM FEW044 SCT055 28/16 A3000 RMK AO2 SLP157 T02780161,KHBG,2022-10-24T18:53:00Z,31.27,-89.25,27.8,16.1,160,10,20,10.0,30.0,1015.7,,TRUE,TRUE,,,,,,,FEW,4400,SCT,5500,,,,,VFR,,,,,,,,,,,,METAR,45.0
KHAO 241853Z AUTO VRB03KT 10SM CLR 24/05 A3006 RMK AO2 SLP177 T02440050,KHAO,2022-10-24T18:53:00Z,39.37,-84.52,24.4,5.0,0,3,,10.0,30.059055,1017.7,,TRUE,TRUE,,,,,,,CLR,,,,,,,,VFR,,,,,,,,,,,,METAR,185.0
KGZH 241853Z AUTO VRB05KT 10SM SCT060 27/12 A3006 RMK AO2 SLP178 T02670122,KGZH,2022-10-24T18:53:00Z,31.42,-87.05,26.7,12.2,0,5,,10.0,30.059055,1017.8,,TRUE,TRUE,,,,,,,SCT,6000,,,,,,,VFR,,,,,,,,,,,,METAR,77.0
KGWO 241853Z AUTO 18014G22KT 10SM CLR 27/14 A2993 RMK AO2 PK WND 17027/1754 SLP133 T02720139,KGWO,2022-10-24T18:53:00Z,33.5,-90.08,27.2,13.9,180,14,22,10.0,29.929134,1013.3,,TRUE,TRUE,,,,,,,CLR,,,,,,,,VFR,,,,,,,,,,,,METAR,42.0
KGVL 241853Z AUTO VRB03KT 10SM CLR 23/08 A3016 RMK AO2 SLP203 T02330078,KGVL,2022-10-24T18:53:00Z,34.27,-83.83,23.3,7.8,0,3,,10.0,30.159449,1020.3,,TRUE,TRUE,,,,,,,CLR,,,,,,,,VFR,,,,,,,,,,,,METAR,387.0
KGUY 241853Z AUTO 02018G27KT 10SM -RA 11/M01 A2983 RMK AO2 PK WND 02027/1842 RAB28 SLP078 P0000 T01061006,KGUY,2022-10-24T18:53:00Z,36.68,-101.5,10.6,-0.6,20,18,27,10.0,29.828741,1007.8,,TRUE,TRUE,,,,,,-RA,,,,,,,,,,,,,,,0.005,,,,,,METAR,950.0
KGUP 241853Z AUTO 32014G19KT 10SM SCT043 04/M05 A3011 RMK AO2 PK WND 29027/1756 SLP184 T00391050,KGUP,2022-10-24T18:53:00Z,35.52,-108.8,3.9,-5.0,320,14,19,10.0,30.109253,1018.4,,TRUE,TRUE,,,,,,,SCT,4300,,,,,,,VFR,,,,,,,,,,,,METAR,1972.0
KGTF 241853Z 23026G36KT 10SM CLR 04/M02 A2976 RMK AO2 PK WND 23036/1853 SLP108 T00441022 $,KGTF,2022-10-24T18:53:00Z,47.47,-111.38,4.4,-2.2,230,26,36,10.0,29.760826,1010.8,,,TRUE,TRUE,,,,,,CLR,,,,,,,,VFR,,,,,,,,,,,,METAR,1117.0
KGSP 241853Z VRB04KT 10SM CLR 23/04 A3014 RMK AO2 SLP203 T02280039,KGSP,2022-10-24T18:53:00Z,34.9,-82.22,22.8,3.9,0,4,,10.0,30.138779,1020.3,,,TRUE,,,,,,,CLR,,,,,,,,VFR,,,,,,,,,,,,METAR,285.0
KGSH 241853Z AUTO 17014KT 10SM CLR 24/11 A2998 RMK AO2 SLP147 T02390111,KGSH,2022-10-24T18:53:00Z,41.53,-85.78,23.9,11.1,170,14,,10.0,29.97933,1014.7,,TRUE,TRUE,,,,,,,CLR,,,,,,,,VFR,,,,,,,,,,,,METAR,252.0
KGRR 241853Z 19013G19KT 10SM FEW110 BKN220 24/12 A2994 RMK AO2 SLP136 T02390122,KGRR,2022-10-24T18:53:00Z,42.88,-85.52,23.9,12.2,190,13,19,10.0,29.940945,1013.6,,,TRUE,,,,,,,FEW,11000,BKN,22000,,,,,VFR,,,,,,,,,,,,METAR,239.0
KGRI 241853Z 30014G20KT 10SM CLR 11/M04 A2977 RMK AO2 SLP087 T01111039,KGRI,2022-10-24T18:53:00Z,40.97,-98.32,11.1,-3.9,300,14,20,10.0,29.769686,1008.7,,,TRUE,,,,,,,CLR,,,,,,,,VFR,,,,,,,,,,,,METAR,562.0
KGRB 241853Z 16014KT 10SM CLR 23/15 A2973 RMK AO2 SLP067 T02280150,KGRB,2022-10-24T18:53:00Z,44.48,-88.13,22.8,15.0,160,14,,10.0,29.731298,1006.7,,,TRUE,,,,,,,CLR,,,,,,,,VFR,,,,,,,,,,,,METAR,209.0
KGOK 241853Z AUTO 35006KT 10SM BKN010 BKN015 12/11 A2975 RMK AO2 CIG 007V013 SLP070 T01220111,KGOK,2022-10-24T18:53:00Z,35.85,-97.4,12.2,11.1,350,6,,10.0,29.749016,1007.0,,TRUE,TRUE,,,,,,,BKN,1000,BKN,1500,,,,,MVFR,,,,,,,,,,,,METAR,326.0
KGNV 241853Z VRB03KT 10SM CLR 28/12 A3010 RMK AO2 SLP192 T02780122,KGNV,2022-10-24T18:53:00Z,29.7,-82.28,27.8,12.2,0,3,,10.0,30.100393,1019.2,,,TRUE,,,,,,,CLR,,,,,,,,VFR,,,,,,,,,,,,METAR,41.0
KGMU 241853Z VRB03KT 10SM CLR 24/03 A3015 RMK AO2 SLP203 T02440028 $,KGMU,2022-10-24T18:53:00Z,34.85,-82.35,24.4,2.8,0,3,,10.0,30.15059,1020.3,,,TRUE,TRUE,,,,,,CLR,,,,,,,,VFR,,,,,,,,,,,,METAR,309.0
KGLR 241853Z AUTO 18018G25KT 10SM CLR 22/11 A2990 RMK AO2 PK WND 18027/1806 SLP119 T02220111,KGLR,2022-10-24T18:53:00Z,45.02,-84.68,22.2,11.1,180,18,25,10.0,29.899607,1011.9,,TRUE,TRUE,,,,,,,CLR,,,,,,,,VFR,,,,,,,,,,,,METAR,403.0
KGLH 241853Z 20016G23KT 10SM CLR 31/13 A2990 RMK AO2 PK WND 17026/1833 SLP130 T03060133,KGLH,2022-10-24T18:53:00Z,33.47,-90.98,30.6,13.3,200,16,23,10.0,29.899607,1013.0,,,TRUE,,,,,,,CLR,,,,,,,,VFR,,,,,,,,,,,,METAR,40.0
KGLD 241853Z AUTO 33025G37KT 10SM CLR 12/M06 A2982 RMK AO2 PK WND 34037/1849 SLP089 T01171061,KGLD,2022-10-24T18:53:00Z,39.37,-101.7,11.7,-6.1,330,25,37,10.0,29.819881,1008.9,,TRUE,TRUE,,,,,,,CLR,,,,,,,,VFR,,,,,,,,,,,,METAR,1111.0
KGKJ 241853Z AUTO VRB03KT 10SM CLR 22/04 A3011 RMK AO2 SLP194 T02170044,KGKJ,2022-10-24T18:53:00Z,41.63,-80.22,21.7,4.4,0,3,,10.0,30.109253,1019.4,,TRUE,TRUE,,,,,,,CLR,,,,,,,,VFR,,,,,,,,,,,,METAR,428.0
KGJT 241853Z 30005KT 10SM OVC070 04/M03 A3014 RMK AO2 SLP207 T00441033,KGJT,2022-10-24T18:53:00Z,39.13,-108.53,4.4,-3.3,300,5,,10.0,30.138779,1020.7,,,TRUE,,,,,,,OVC,7000,,,,,,,VFR,,,,,,,,,,,,METAR,1475.0
KGIF 241853Z AUTO 07005KT 10SM SCT044 A3006 RMK AO2 SLPNO $,KGIF,2022-10-24T18:53:00Z,28.07,-81.75,,,70,5,,10.0,30.059055,,,TRUE,TRUE,TRUE,,,,,,SCT,4400,,,,,,,VFR,,,,,,,,,,,,METAR,44.0
KGFK 241853Z 22018G29KT 10SM OVC015 07/05 A2930 RMK AO2 PK WND 21038/1804 RAB1754E33 SLP926 P0000 T00720050,KGFK,2022-10-24T18:53:00Z,47.95,-97.18,7.2,5.0,220,18,29,10.0,29.300198,992.6,,,TRUE,,,,,,,OVC,1500,,,,,,,MVFR,,,,,,0.005,,,,,,METAR,256.0
KGEZ 241853Z AUTO 17012G19KT 10SM CLR 25/08 A3000 RMK AO2 SLP154 T02500078,KGEZ,2022-10-24T18:53:00Z,39.58,-85.8,25.0,7.8,170,12,19,10.0,30.0,1015.4,,TRUE,TRUE,,,,,,,CLR,,,,,,,,VFR,,,,,,,,,,,,METAR,245.0
KGEY 241853Z AUTO 13009G17KT 10SM SCT029 06/00 A2988 RMK AO2 SLP136 T00560000,KGEY,2022-10-24T18:53:00Z,44.52,-108.08,5.6,0.0,130,9,17,10.0,29.878937,1013.6,,TRUE,TRUE,,,,,,,SCT,2900,,,,,,,VFR,,,,,,,,,,,,METAR,1191.0
KGEU 241853Z 31005KT 10SM SKC 19/M08 A3012,KGEU,2022-10-24T18:53:00Z,33.53,-112.3,19.0,-8.0,310,5,,10.0,30.121063,,,,,,,,,,,SKC,,,,,,,,VFR,,,,,,,,,,,,METAR,319.0
KGEG 241853Z 19012KT 9SM -RA BKN008 OVC015 03/02 A2991 RMK AO2 DZB43E44 SLP142 P0001 T00330017,KGEG,2022-10-24T18:53:00Z,47.62,-117.53,3.3,1.7,190,12,,9.0,29.911417,1014.2,,,TRUE,,,,,,-RA,BKN,800,OVC,1500,,,,,IFR,,,,,,0.01,,,,,,METAR,718.0
KGCC 241853Z AUTO 31017G30KT 10SM CLR 04/M03 A2982 RMK AO2 PK WND 32032/1834 SLP116 T00391033,KGCC,2022-10-24T18:53:00Z,44.33,-105.55,3.9,-3.3,310,17,30,10.0,29.819881,1011.6,,TRUE,TRUE,,,,,,,CLR,,,,,,,,VFR,,,,,,,,,,,,METAR,1328.0
KGAG 241853Z AUTO 04015KT 10SM BKN024 OVC070 12/06 A2977 RMK AO2 SLP065 T01220061,KGAG,2022-10-24T18:53:00Z,36.3,-99.77,12.2,6.1,40,15,,10.0,29.769686,1006.5,,TRUE,TRUE,,,,,,,BKN,2400,OVC,7000,,,,,MVFR,,,,,,,,,,,,METAR,670.0
KFYV 241853Z 16016G28KT 10SM OVC020 21/17 A2971 RMK AO2 PK WND 17028/1848 PRESFR SLP048 T02110172,KFYV,2022-10-24T18:53:00Z,36.02,-94.17,21.1,17.2,160,16,28,10.0,29.71063,1004.8,,,TRUE,,,,,,,OVC,2000,,,,,,,MVFR,,,,,,,,,,,,METAR,377.0
KFXE 241853Z 07008KT 10SM CLR 29/19 A3000 RMK AO2 SLP162 T02940194 $,KFXE,2022-10-24T18:53:00Z,26.2,-80.18,29.4,19.4,70,8,,10.0,30.0,1016.2,,,TRUE,TRUE,,,,,,CLR,,,,,,,,VFR,,,,,,,,,,,,METAR,3.0
KFVE 241853Z AUTO 19006KT 10SM -RA OVC095 13/09 A3032 RMK AO2 SLP267 P0002 T01280094,KFVE,2022-10-24T18:53:00Z,47.28,-68.3,12.8,9.4,190,6,,10.0,30.318897,1026.7,,TRUE,TRUE,,,,,,-RA,OVC,9500,,,,,,,VFR,,,,,,0.02,,,,,,METAR,299.0
KFUL 241853Z VRB03KT 10SM CLR 24/M01 A3013 RMK AO2 SLP203 T02391011,KFUL,2022-10-24T18:53:00Z,33.87,-117.98,23.9,-1.1,0,3,,10.0,30.129921,1020.3,,,TRUE,,,,,,,CLR,,,,,,,,VFR,,,,,,,,,,,,METAR,23.0
KFTY 241853Z 13007KT 10SM CLR 25/10 A3012 RMK AO2 SLP196 T02500100,KFTY,2022-10-24T18:53:00Z,33.78,-84.52,25.0,10.0,130,7,,10.0,30.121063,1019.6,,,TRUE,,,,,,,CLR,,,,,,,,VFR,,,,,,,,,,,,METAR,245.0
KFTW 241853Z 15009KT 5SM RA BR OVC060 17/17 A2974 RMK AO2 SLP063 P0025 T01720172,KFTW,2022-10-24T18:53:00Z,32.83,-97.37,17.2,17.2,150,9,,5.0,29.740158,1006.3,,,TRUE,,,,,,RA BR,OVC,6000,,,,,,,MVFR,,,,,,0.25,,,,,,METAR,213.0
KFSM 241853Z 17015G25KT 10SM OVC034 24/19 A2971 RMK AO2 PK WND 16030/1843 SLP055 T02390194,KFSM,2022-10-24T18:53:00Z,35.33,-94.37,23.9,19.4,170,15,25,10.0,29.71063,1005.5,,,TRUE,,,,,,,OVC,3400,,,,,,,VFR,,,,,,,,,,,,METAR,136.0
KFRG 241853Z 05006KT 10SM OVC006 17/15 A3014 RMK AO2 SLP204 T01720150 $,KFRG,2022-10-24T18:53:00Z,40.73,-73.42,17.2,15.0,50,6,,10.0,30.138779,1020.4,,,TRUE,TRUE,,,,,,OVC,600,,,,,,,IFR,,,,,,,,,,,,METAR,23.0
KFPR 241853Z 06008KT 10SM SCT034 SCT055 28/19 A3004 RMK AO2 SLP172 T02780189,KFPR,2022-10-24T18:53:00Z,27.5,-80.38,27.8,18.9,60,8,,10.0,30.041338,1017.2,,,TRUE,,,,,,,SCT,3400,SCT,5500,,,,,VFR,,,,,,,,,,,,METAR,7.0
KFOK 241853Z 06008KT 10SM OVC004 17/16 A3016 RMK AO2 RAE1755 SLP212 P0000 T01670161,KFOK,2022-10-24T18:53:00Z,40.85,-72.62,16.7,16.1,60,8,,10.0,30.159449,1021.2,,,TRUE,,,,,,,OVC,400,,,,,,,LIFR,,,,,,0.005,,,,,,METAR,13.0
KFNT 241853Z AUTO 18015G23KT 10SM CLR 24/08 A2999 RMK AO2 PK WND 19027/1802 SLP155 T02440083,KFNT,2022-10-24T18:53:00Z,42.97,-83.75,24.4,8.3,180,15,23,10.0,29.991142,1015.5,,TRUE,TRUE,,,,,,,CLR,,,,,,,,VFR,,,,,,,,,,,,METAR,235.0
KFNB 241853Z AUTO 34009KT 7SM -RA FEW013 BKN070 OVC090 09/08 A2975 RMK AO2 PRESFR SLP070 P0005 T00890078,KFNB,2022-10-24T18:53:00Z,40.07,-95.58,8.9,7.8,340,9,,7.0,29.749016,1007.0,,TRUE,TRUE,,,,,,-RA,FEW,1300,BKN,7000,OVC,9000,,,VFR,,,,,,0.05,,,,,,METAR,301.0
KFMY 241853Z 11008KT 10SM FEW049 FEW060 31/18 A3000 RMK AO2 SLP161 T03060183,KFMY,2022-10-24T18:53:00Z,26.58,-81.87,30.6,18.3,110,8,,10.0,30.0,1016.1,,,TRUE,,,,,,,FEW,4900,FEW,6000,,,,,VFR,,,,,,,,,,,,METAR,4.0
KFMN 241853Z 31022G37KT 10SM CLR 09/M10 A3000 RMK AO2 PK WND 31037/1848 SLP153 T00941100,KFMN,2022-10-24T18:53:00Z,36.75,-108.23,9.4,-10.0,310,22,37,10.0,30.0,1015.3,,,TRUE,,,,,,,CLR,,,,,,,,VFR,,,,,,,,,,,,METAR,1677.0
KFLO 241853Z 31005KT 10SM FEW012 18/13 A3014 RMK AO2 SLP204 T01830133,KFLO,2022-10-24T18:53:00Z,34.18,-79.73,18.3,13.3,310,5,,10.0,30.138779,1020.4,,,TRUE,,,,,,,FEW,1200,,,,,,,VFR,,,,,,,,,,,,METAR,43.0
KFLL 241853Z 06010G16KT 10SM SCT035 SCT065 28/20 A3000 RMK AO2 SLP158 T02830200 $,KFLL,2022-10-24T18:53:00Z,26.07,-80.15,28.3,20.0,60,10,16,10.0,30.0,1015.8,,,TRUE,TRUE,,,,,,SCT,3500,SCT,6500,,,,,VFR,,,,,,,,,,,,METAR,1.0
KFLD 241853Z AUTO 18011KT 10SM CLR 23/13 A2975 RMK AO2 SLP071 T02280128,KFLD,2022-10-24T18:53:00Z,43.77,-88.48,22.8,12.8,180,11,,10.0,29.749016,1007.1,,TRUE,TRUE,,,,,,,CLR,,,,,,,,VFR,,,,,,,,,,,,METAR,242.0
KFHR 241853Z AUTO 23009G19KT 10SM BKN090 BKN110 12/08 A2993 RMK AO2 SLP133 T01220083,KFHR,2022-10-24T18:53:00Z,48.52,-123.03,12.2,8.3,230,9,19,10.0,29.929134,1013.3,,TRUE,TRUE,,,,,,,BKN,9000,BKN,11000,,,,,VFR,,,,,,,,,,,,METAR,34.0
KFFT 241853Z AUTO 18008G15KT 10SM CLR 26/04 A3005 RMK AO2 SLP170 T02610039,KFFT,2022-10-24T18:53:00Z,38.18,-84.9,26.1,3.9,180,8,15,10.0,30.050198,1017.0,,TRUE,TRUE,,,,,,,CLR,,,,,,,,VFR,,,,,,,,,,,,METAR,235.0
KFFC 241853Z AUTO VRB03KT 10SM CLR 25/09 A3012 RMK AO2 SLP199 T02500089,KFFC,2022-10-24T18:53:00Z,33.35,-84.57,25.0,8.9,0,3,,10.0,30.121063,1019.9,,TRUE,TRUE,,,,,,,CLR,,,,,,,,VFR,,,,,,,,,,,,METAR,242.0
KFDY 241853Z AUTO 17012KT 10SM CLR 26/07 A3002 RMK AO2 SLP160 T02610067,KFDY,2022-10-24T18:53:00Z,41.02,-83.67,26.1,6.7,170,12,,10.0,30.02067,1016.0,,TRUE,TRUE,,,,,,,CLR,,,,,,,,VFR,,,,,,,,,,,,METAR,247.0
KFDR 241853Z AUTO 03006KT 10SM SCT013 18/12 A2972 RMK AO2 SLP049 T01830117,KFDR,2022-10-24T18:53:00Z,34.35,-98.98,18.3,11.7,30,6,,10.0,29.719488,1004.9,,TRUE,TRUE,,,,,,,SCT,1300,,,,,,,VFR,,,,,,,,,,,,METAR,378.0
KFCM 241853Z 20010KT 10SM -RA OVC100 11/05 A2964 RMK AO2 RAB02 SLP036 P0000 T01060050,KFCM,2022-10-24T18:53:00Z,44.83,-93.47,10.6,5.0,200,10,,10.0,29.639763,1003.6,,,TRUE,,,,,,-RA,OVC,10000,,,,,,,VFR,,,,,,0.005,,,,,,METAR,276.0
KFAY 241853Z 00000KT 10SM CLR 24/13 A3010 RMK AO2 SLP187 T02440133,KFAY,2022-10-24T18:53:00Z,34.98,-78.88,24.4,13.3,0,0,,10.0,30.100393,1018.7,,,TRUE,,,,,,,CLR,,,,,,,,VFR,,,,,,,,,,,,METAR,57.0
KFAT 241853Z 13007KT 10SM CLR 19/00 A3023 RMK AO2 SLP235 MTNS OBSC HZ DSNT N-E-S T01890000,KFAT,2022-10-24T18:53:00Z,36.78,-119.72,18.9,0.0,130,7,,10.0,30.230314,1023.5,,,TRUE,,,,,,,CLR,,,,,,,,VFR,,,,,,,,,,,,METAR,102.0
KEYW 241853Z 04008KT 10SM CLR 28/21 A3000 RMK AO2 SLP159 T02830211,KEYW,2022-10-24T18:53:00Z,24.55,-81.75,28.3,21.1,40,8,,10.0,30.0,1015.9,,,TRUE,,,,,,,CLR,,,,,,,,VFR,,,,,,,,,,,,METAR,1.0
KEYE 241853Z AUTO 20011G21KT 10SM CLR 24/09 A2997 RMK AO2 SLP143 T02390094,KEYE,2022-10-24T18:53:00Z,39.83,-86.3,23.9,9.4,200,11,21,10.0,29.970472,1014.3,,TRUE,TRUE,,,,,,,CLR,,,,,,,,VFR,,,,,,,,,,,,METAR,248.0
KEWB 241853Z 02003KT 10SM OVC004 17/17 A3019 RMK AO2 RAE19 SLP223 P0004 T01670167,KEWB,2022-10-24T18:53:00Z,41.68,-70.95,16.7,16.7,20,3,,10.0,30.188976,1022.3,,,TRUE,,,,,,,OVC,400,,,,,,,LIFR,,,,,,0.04,,,,,,METAR,22.0
KESF 241853Z AUTO 16011G20KT 10SM BKN043 28/18 A2990 RMK AO2 SLP124 T02830178,KESF,2022-10-24T18:53:00Z,31.4,-92.28,28.3,17.8,160,11,20,10.0,29.899607,1012.4,,TRUE,TRUE,,,,,,,BKN,4300,,,,,,,VFR,,,,,,,,,,,,METAR,27.0
KEQY 241853Z AUTO VRB05KT 10SM CLR 22/09 A3013 RMK AO2 SLP209 T02220089,KEQY,2022-10-24T18:53:00Z,35.02,-80.62,22.2,8.9,0,5,,10.0,30.129921,1020.9,,TRUE,TRUE,,,,,,,CLR,,,,,,,,VFR,,,,,,,,,,,,METAR,205.0
KEPH 241853Z AUTO 19009KT 10SM CLR 10/03 A2986 RMK AO2 SLP118 T01000033,KEPH,2022-10-24T18:53:00Z,47.3,-119.52,10.0,3.3,190,9,,10.0,29.861221,1011.8,,TRUE,TRUE,,,,,,,CLR,,,,,,,,VFR,,,,,,,,,,,,METAR,382.0
KENW 241853Z 18011G19KT 10SM CLR 22/13 A2982 RMK AO2 SLP095 T02220128,KENW,2022-10-24T18:53:00Z,42.6,-87.93,22.2,12.8,180,11,19,10.0,29.819881,1009.5,,,TRUE,,,,,,,CLR,,,,,,,,VFR,,,,,,,,,,,,METAR,222.0
KELY 241853Z AUTO 02003KT 10SM CLR 03/M07 A3025 RMK AO2 SLP250 T00281067,KELY,2022-10-24T18:53:00Z,39.3,-114.85,2.8,-6.7,20,3,,10.0,30.250984,1025.0,,TRUE,TRUE,,,,,,,CLR,,,,,,,,VFR,,,,,,,,,,,,METAR,1906.0
KELN 241853Z AUTO 00000KT 10SM OVC046 10/02 A2987 RMK AO2 SLP120 T01000022,KELN,2022-10-24T18:53:00Z,47.03,-120.53,10.0,2.2,0,0,,10.0,29.870079,1012.0,,TRUE,TRUE,,,,,,,OVC,4600,,,,,,,VFR,,,,,,,,,,,,METAR,532.0
KELM 241853Z 00000KT 10SM BKN050 19/14 A3014 RMK AO2 SLP206 T01890139,KELM,2022-10-24T18:53:00Z,42.15,-76.9,18.9,13.9,0,0,,10.0,30.138779,1020.6,,,TRUE,,,,,,,BKN,5000,,,,,,,VFR,,,,,,,,,,,,METAR,287.0
KELD 241853Z AUTO 17014G25KT 10SM SCT049 BKN075 BKN090 27/16 A2985 RMK AO2 SLP105 T02720161,KELD,2022-10-24T18:53:00Z,33.22,-92.82,27.2,16.1,170,14,25,10.0,29.84941,1010.5,,TRUE,TRUE,,,,,,,SCT,4900,BKN,7500,BKN,9000,,,VFR,,,,,,,,,,,,METAR,76.0
KEET 241853Z AUTO 14004KT 10SM CLR 25/08 A3008 RMK AO2 SLP184 T02500083,KEET,2022-10-24T18:53:00Z,33.18,-86.78,25.0,8.3,140,4,,10.0,30.079725,1018.4,,TRUE,TRUE,,,,,,,CLR,,,,,,,,VFR,,,,,,,,,,,,METAR,172.0
KEEO 241853Z AUTO 32003KT 10SM OVC050 M01/M04 A3011 RMK AO2 SNB14E39 SLP213 P0000 T10061044,KEEO,2022-10-24T18:53:00Z,40.05,-107.88,-0.6,-4.4,320,3,,10.0,30.109253,1021.3,,TRUE,TRUE,,,,,,,OVC,5000,,,,,,,VFR,,,,,,0.005,,,,,,METAR,1957.0
KECP 241853Z 16009KT 10SM CLR 27/18 A3007 RMK AO1 SLP193 T02670178,KECP,2022-10-24T18:53:00Z,30.35,-85.8,26.7,17.8,160,9,,10.0,30.070866,1019.3,,,TRUE,,,,,,,CLR,,,,,,,,VFR,,,,,,,,,,,,METAR,17.0
KDXR 241853Z 07004KT 10SM OVC005 16/13 A3017 RMK AO2 SLP216 T01560133,KDXR,2022-10-24T18:53:00Z,41.37,-73.48,15.6,13.3,70,4,,10.0,30.171259,1021.6,,,TRUE,,,,,,,OVC,500,,,,,,,IFR,,,,,,,,,,,,METAR,138.0
KDWH 241853Z 16008G24KT 130V200 9SM -RA BKN025 BKN048 OVC060 26/20 A2980 RMK AO2 PK WND 17027/1840 RAB07 PRESFR SLP089 P0000 T02560200,KDWH,2022-10-24T18:53:00Z,30.07,-95.55,25.6,20.0,160,8,24,9.0,29.799213,1008.9,,,TRUE,,,,,,-RA,BKN,2500,BKN,4800,OVC,6000,,,MVFR,,,,,,0.005,,,,,,METAR,46.0
KDVT 241853Z 10SM CLR 19/M07 A3012 RMK AO2 SLP185 T01891067,KDVT,2022-10-24T18:53:00Z,33.68,-112.07,18.9,-6.7,,,,10.0,30.121063,1018.5,,,TRUE,,,,,,,CLR,,,,,,,,VFR,,,,,,,,,,,,METAR,454.0
KDUJ 241853Z AUTO 00000KT 10SM CLR 23/11 A3012 RMK AO2 SLP196 T02280106,KDUJ,2022-10-24T18:53:00Z,41.17,-78.9,22.8,10.6,0,0,,10.0,30.121063,1019.6,,TRUE,TRUE,,,,,,,CLR,,,,,,,,VFR,,,,,,,,,,,,METAR,552.0
KDTW 241853Z 16014KT 10SM BKN240 24/07 A3003 RMK AO2 SLP168 T02440072,KDTW,2022-10-24T18:53:00Z,42.23,-83.33,24.4,7.2,160,14,,10.0,30.029528,1016.8,,,TRUE,,,,,,,BKN,24000,,,,,,,VFR,,,,,,,,,,,,METAR,192.0
KDTS 241853Z 12010KT 10SM CLR 27/18 A3007 RMK AO2 SLP182 T02720178,KDTS,2022-10-24T18:53:00Z,30.4,-86.47,27.2,17.8,120,10,,10.0,30.070866,1018.2,,,TRUE,,,,,,,CLR,,,,,,,,VFR,,,,,,,,,,,,METAR,5.0
KDTN 241853Z AUTO 15015G22KT 10SM SCT042 BKN049 OVC055 27/17 A2983 RMK AO2 PK WND 16026/1813 SLP099 T02670167,KDTN,2022-10-24T18:53:00Z,32.55,-93.75,26.7,16.7,150,15,22,10.0,29.828741,1009.9,,TRUE,TRUE,,,,,,,SCT,4200,BKN,4900,OVC,5500,,,VFR,,,,,,,,,,,,METAR,53.0
KDRT 241853Z AUTO 12009KT 10SM CLR 29/21 A2969 RMK AO2 SLP044 T02890206,KDRT,2022-10-24T18:53:00Z,29.37,-100.92,28.9,20.6,120,9,,10.0,29.68996,1004.4,,TRUE,TRUE,,,,,,,CLR,,,,,,,,VFR,,,,,,,,,,,,METAR,303.0
KDRO 241853Z AUTO 33021G30KT 290V360 10SM CLR 07/M13 A2995 RMK AO2 PK WND 30030/1851 SLP139 T00721128 $,KDRO,2022-10-24T18:53:00Z,37.15,-107.77,7.2,-12.8,330,21,30,10.0,29.949802,1013.9,,TRUE,TRUE,TRUE,,,,,,CLR,,,,,,,,VFR,,,,,,,,,,,,METAR,2021.0
KDRA 241853Z AUTO 03008KT 10SM CLR 13/M11 A3026 RMK AO2 SLP229 T01331106,KDRA,2022-10-24T18:53:00Z,36.62,-116.03,13.3,-10.6,30,8,,10.0,30.259842,1022.9,,TRUE,TRUE,,,,,,,CLR,,,,,,,,VFR,,,,,,,,,,,,METAR,988.0
KDNL 241853Z AUTO 07003KT 10SM CLR 24/06 A3013 RMK AO2 SLP200 T02440061,KDNL,2022-10-24T18:53:00Z,33.47,-82.03,24.4,6.1,70,3,,10.0,30.129921,1020.0,,TRUE,TRUE,,,,,,,CLR,,,,,,,,VFR,,,,,,,,,,,,METAR,126.0
KDMN 241853Z AUTO 31017G34KT 10SM CLR 13/M07 A3005 RMK AO2 PK WND 28037/1840 SLP132 T01331067,KDMN,2022-10-24T18:53:00Z,32.27,-107.72,13.3,-6.7,310,17,34,10.0,30.050198,1013.2,,TRUE,TRUE,,,,,,,CLR,,,,,,,,VFR,,,,,,,,,,,,METAR,1310.0
KDLN 241853Z AUTO 21017G24KT 10SM OVC065 02/M06 A2993 RMK AO2 SLP163 T00171056 $,KDLN,2022-10-24T18:53:00Z,45.25,-112.55,1.7,-5.6,210,17,24,10.0,29.929134,1016.3,,TRUE,TRUE,TRUE,,,,,,OVC,6500,,,,,,,VFR,,,,,,,,,,,,METAR,1586.0
KDKK 241853Z AUTO 05007KT 10SM CLR 22/09 A3011 RMK AO2 SLP193 T02170094,KDKK,2022-10-24T18:53:00Z,42.5,-79.28,21.7,9.4,50,7,,10.0,30.109253,1019.3,,TRUE,TRUE,,,,,,,CLR,,,,,,,,VFR,,,,,,,,,,,,METAR,205.0
KDHT 241853Z AUTO 05016G27KT 10SM SCT049 BKN060 OVC070 07/02 A2984 RMK AO2 PK WND 05027/1844 SLP082 T00720017,KDHT,2022-10-24T18:53:00Z,36.02,-102.55,7.2,1.7,50,16,27,10.0,29.840551,1008.2,,TRUE,TRUE,,,,,,,SCT,4900,BKN,6000,OVC,7000,,,VFR,,,,,,,,,,,,METAR,1217.0
KDHN 241853Z 10SM CLR 28/13 A3011 RMK AO2 SLP193 T02780128,KDHN,2022-10-24T18:53:00Z,31.32,-85.45,27.8,12.8,,,,10.0,30.109253,1019.3,,,TRUE,,,,,,,CLR,,,,,,,,VFR,,,,,,,,,,,,METAR,113.0
KDGW 241853Z AUTO 28017G32KT 10SM BKN120 05/M05 A2987 RMK AO2 PK WND 29035/1802 SLP122 T00501050,KDGW,2022-10-24T18:53:00Z,42.8,-105.38,5.0,-5.0,280,17,32,10.0,29.870079,1012.2,,TRUE,TRUE,,,,,,,BKN,12000,,,,,,,VFR,,,,,,,,,,,,METAR,1503.0
KDFI 241853Z AUTO 19014G22KT 10SM CLR 26/07 A3001 RMK AO2 SLP161 T02560072,KDFI,2022-10-24T18:53:00Z,41.33,-84.43,25.6,7.2,190,14,22,10.0,30.008858,1016.1,,TRUE,TRUE,,,,,,,CLR,,,,,,,,VFR,,,,,,,,,,,,METAR,215.0
KDEW 241853Z AUTO 9SM BKN006 OVC010 03/02 A2992 RMK AO2 RAE1759B19E26SNB1759E53 SLP147 P0002 T00280017,KDEW,2022-10-24T18:53:00Z,47.97,-117.43,2.8,1.7,,,,9.0,29.920275,1014.7,,TRUE,TRUE,,,,,,,BKN,600,OVC,1000,,,,,IFR,,,,,,0.02,,,,,,METAR,672.0
KDET 241853Z 18014KT 8SM CLR 25/06 A3003 RMK AO2 SLP169 T02500061,KDET,2022-10-24T18:53:00Z,42.4,-83.02,25.0,6.1,180,14,,8.0,30.029528,1016.9,,,TRUE,,,,,,,CLR,,,,,,,,VFR,,,,,,,,,,,,METAR,190.0
KDEQ 241853Z AUTO 18010G25KT 10SM FEW060 SCT080 26/16 A2973 RMK AO2 SLP062 T02560156,KDEQ,2022-10-24T18:53:00Z,34.05,-94.4,25.6,15.6,180,10,25,10.0,29.731298,1006.2,,TRUE,TRUE,,,,,,,FEW,6000,SCT,8000,,,,,VFR,,,,,,,,,,,,METAR,107.0
KDEN 241853Z VRB04KT 10SM FEW080 FEW120 SCT220 09/M11 A2987 RMK AO2 SLP097 T00941106,KDEN,2022-10-24T18:53:00Z,39.85,-104.65,9.4,-10.6,0,4,,10.0,29.870079,1009.7,,,TRUE,,,,,,,FEW,8000,FEW,12000,SCT,22000,,,VFR,,,,,,,,,,,,METAR,1656.0
KDCU 241853Z AUTO 18011G16KT 10SM CLR 26/05 A3007 RMK AO2 SLP177 T02560050,KDCU,2022-10-24T18:53:00Z,34.65,-86.95,25.6,5.0,180,11,16,10.0,30.070866,1017.7,,TRUE,TRUE,,,,,,,CLR,,,,,,,,VFR,,,,,,,,,,,,METAR,180.0
KDBQ 241853Z 18015G23KT 10SM SCT060 21/16 A2971 RMK AO2 SLP057 T02110156,KDBQ,2022-10-24T18:53:00Z,42.4,-90.7,21.1,15.6,180,15,23,10.0,29.71063,1005.7,,,TRUE,,,,,,,SCT,6000,,,,,,,VFR,,,,,,,,,,,,METAR,317.0
KDAN 241853Z AUTO 00000KT 10SM CLR 23/09 A3012 RMK AO2 SLP191 T02280089,KDAN,2022-10-24T18:53:00Z,36.57,-79.33,22.8,8.9,0,0,,10.0,30.121063,1019.1,,TRUE,TRUE,,,,,,,CLR,,,,,,,,VFR,,,,,,,,,,,,METAR,170.0
KDAB 241853Z 01011KT 10SM FEW033 SCT046 27/17 A3009 RMK AO2 SLP187 T02670167,KDAB,2022-10-24T18:53:00Z,29.18,-81.07,26.7,16.7,10,11,,10.0,30.088583,1018.7,,,TRUE,,,,,,,FEW,3300,SCT,4600,,,,,VFR,,,,,,,,,,,,METAR,8.0
KCYS 241853Z 31018G31KT 10SM FEW095 SCT110 04/M09 A2986 RMK AO2 PK WND 30034/1759 SLP111 T00441089,KCYS,2022-10-24T18:53:00Z,41.15,-104.8,4.4,-8.9,310,18,31,10.0,29.861221,1011.1,,,TRUE,,,,,,,FEW,9500,SCT,11000,,,,,VFR,,,,,,,,,,,,METAR,1868.0
KCXO 241853Z 19014G31KT 8SM -RA BKN035 OVC041 24/21 A2981 RMK AO2 PK WND 19031/1848 RAB43 SLP091 P0000 T02390206,KCXO,2022-10-24T18:53:00Z,30.35,-95.42,23.9,20.6,190,14,31,8.0,29.811024,1009.1,,,TRUE,,,,,,-RA,BKN,3500,OVC,4100,,,,,VFR,,,,,,0.005,,,,,,METAR,69.0
KCUT 241853Z AUTO 28013G23KT 10SM OVC026 M01/M07 A2973 RMK AO2 PK WND 27028/1826 SLP090 T10111067,KCUT,2022-10-24T18:53:00Z,43.73,-103.62,-1.1,-6.7,280,13,23,10.0,29.731298,1009.0,,TRUE,TRUE,,,,,,,OVC,2600,,,,,,,MVFR,,,,,,,,,,,,METAR,1700.0
KCUB 241853Z AUTO 00000KT 10SM CLR 25/08 A3014 RMK AO2 SLP205 T02500078,KCUB,2022-10-24T18:53:00Z,33.97,-81.0,25.0,7.8,0,0,,10.0,30.138779,1020.5,,TRUE,TRUE,,,,,,,CLR,,,,,,,,VFR,,,,,,,,,,,,METAR,55.0
KCSV 241853Z AUTO 18007KT 10SM CLR 21/06 A3012 RMK AO2 SLP190 T02110056,KCSV,2022-10-24T18:53:00Z,35.95,-85.08,21.1,5.6,180,7,,10.0,30.121063,1019.0,,TRUE,TRUE,,,,,,,CLR,,,,,,,,VFR,,,,,,,,,,,,METAR,569.0
KCSM 241853Z 04012KT 10SM SCT017 OVC044 14/10 A2977 RMK AO2 SLP064 T01440100,KCSM,2022-10-24T18:53:00Z,35.35,-99.2,14.4,10.0,40,12,,10.0,29.769686,1006.4,,,TRUE,,,,,,,SCT,1700,OVC,4400,,,,,VFR,,,,,,,,,,,,METAR,586.0
KCRQ 241853Z AUTO VRB03KT 10SM CLR 23/M03 A3013 RMK AO2 SLP199 T02331033,KCRQ,2022-10-24T18:53:00Z,33.13,-117.28,23.3,-3.3,0,3,,10.0,30.129921,1019.9,,TRUE,TRUE,,,,,,,CLR,,,,,,,,VFR,,,,,,,,,,,,METAR,96.0
KCRG 241853Z 04008KT 360V070 10SM FEW028 24/17 A3011 RMK AO2 SLP196 T02440167,KCRG,2022-10-24T18:53:00Z,30.33,-81.52,24.4,16.7,40,8,,10.0,30.109253,1019.6,,,TRUE,,,,,,,FEW,2800,,,,,,,VFR,,,,,,,,,,,,METAR,12.0
KCRE 241853Z 36008KT 10SM OVC010 17/14 A3012 RMK AO1 SLP199 T01720144,KCRE,2022-10-24T18:53:00Z,33.82,-78.72,17.2,14.4,360,8,,10.0,30.121063,1019.9,,,TRUE,,,,,,,OVC,1000,,,,,,,MVFR,,,,,,,,,,,,METAR,9.0
KCPS 241853Z 16010G19KT 10SM BKN040 OVC050 23/14 A2984 RMK AO2 SLP101 T02330144 $,KCPS,2022-10-24T18:53:00Z,38.53,-90.15,23.3,14.4,160,10,19,10.0,29.840551,1010.1,,,TRUE,TRUE,,,,,,BKN,4000,OVC,5000,,,,,VFR,,,,,,,,,,,,METAR,125.0
KCOT 241853Z AUTO 19010G15KT 6SM HZ CLR 33/21 A2970 RMK AO2 SLP050 T03280206,KCOT,2022-10-24T18:53:00Z,28.45,-99.22,32.8,20.6,190,10,15,6.0,29.698818,1005.0,,TRUE,TRUE,,,,,,HZ,CLR,,,,,,,,VFR,,,,,,,,,,,,METAR,144.0
KCNY 241853Z AUTO 30006KT 10SM CLR 07/M04 A3013 RMK AO2 SLP206 T00671039,KCNY,2022-10-24T18:53:00Z,38.77,-109.75,6.7,-3.9,300,6,,10.0,30.129921,1020.6,,TRUE,TRUE,,,,,,,CLR,,,,,,,,VFR,,,,,,,,,,,,METAR,1392.0
KCNO 241853Z 00000KT 10SM CLR 23/01 A3017 RMK AO2 SLP212 T02280006,KCNO,2022-10-24T18:53:00Z,33.98,-117.62,22.8,0.6,0,0,,10.0,30.171259,1021.2,,,TRUE,,,,,,,CLR,,,,,,,,VFR,,,,,,,,,,,,METAR,191.0
KCNM 241853Z AUTO 24015G21KT 10SM OVC095 12/03 A2988 RMK AO2 RAB1755E21 SLP082 P0001 T01170028,KCNM,2022-10-24T18:53:00Z,32.33,-104.25,11.7,2.8,240,15,21,10.0,29.878937,1008.2,,TRUE,TRUE,,,,,,,OVC,9500,,,,,,,VFR,,,,,,0.01,,,,,,METAR,993.0
KCMX 241853Z AUTO 17010KT 10SM SCT023 20/14 A2960 RMK AO2 PK WND 18026/1831 SLP020 T02000144,KCMX,2022-10-24T18:53:00Z,47.17,-88.48,20.0,14.4,170,10,,10.0,29.601377,1002.0,,TRUE,TRUE,,,,,,,SCT,2300,,,,,,,VFR,,,,,,,,,,,,METAR,326.0
KCMI 241853Z 16020G27KT 10SM CLR 26/13 A2989 RMK AO2 PK WND 16029/1816 SLP116 T02560128,KCMI,2022-10-24T18:53:00Z,40.03,-88.27,25.6,12.8,160,20,27,10.0,29.890747,1011.6,,,TRUE,,,,,,,CLR,,,,,,,,VFR,,,,,,,,,,,,METAR,227.0
KCLM 241853Z AUTO 27011G22KT 10SM SCT050 BKN060 14/07 A2994 RMK AO2 SLP138 T01440067,KCLM,2022-10-24T18:53:00Z,48.12,-123.5,14.4,6.7,270,11,22,10.0,29.940945,1013.8,,TRUE,TRUE,,,,,,,SCT,5000,BKN,6000,,,,,VFR,,,,,,,,,,,,METAR,81.0
KCLL 241853Z 17020G30KT 10SM OVC035 27/19 A2976 RMK AO2 PK WND 17030/1844 SLP073 T02720189,KCLL,2022-10-24T18:53:00Z,30.58,-96.37,27.2,18.9,170,20,30,10.0,29.760826,1007.3,,,TRUE,,,,,,,OVC,3500,,,,,,,VFR,,,,,,,,,,,,METAR,96.0
KCKB 241853Z VRB03KT 10SM CLR 24/04 A3012 RMK AO2 SLP192 T02390044,KCKB,2022-10-24T18:53:00Z,39.3,-80.22,23.9,4.4,0,3,,10.0,30.121063,1019.2,,,TRUE,,,,,,,CLR,,,,,,,,VFR,,,,,,,,,,,,METAR,368.0
KCHO 241853Z 00000KT 10SM CLR 24/10 A3010 RMK AO2 SLP188 T02440100,KCHO,2022-10-24T18:53:00Z,38.13,-78.45,24.4,10.0,0,0,,10.0,30.100393,1018.8,,,TRUE,,,,,,,CLR,,,,,,,,VFR,,,,,,,,,,,,METAR,193.0
KCHA 241853Z VRB05KT 10SM FEW200 SCT250 25/08 A3010 RMK AO2 SLP188 T02500078,KCHA,2022-10-24T18:53:00Z,35.03,-85.2,25.0,7.8,0,5,,10.0,30.100393,1018.8,,,TRUE,,,,,,,FEW,20000,SCT,25000,,,,,VFR,,,,,,,,,,,,METAR,203.0
KCGI 241853Z 17011G20KT 10SM OVC065 25/12 A2990 RMK AO2 PK WND 19026/1803 SLP122 T02500122,KCGI,2022-10-24T18:53:00Z,37.23,-89.58,25.0,12.2,170,11,20,10.0,29.899607,1012.2,,,TRUE,,,,,,,OVC,6500,,,,,,,VFR,,,,,,,,,,,,METAR,103.0
KCEZ 241853Z AUTO 34012G28KT 10SM BKN055 05/M09 A3010 RMK AO2 PK WND 33028/1846 SLP180 T00501094 $,KCEZ,2022-10-24T18:53:00Z,37.3,-108.63,5.0,-9.4,340,12,28,10.0,30.100393,1018.0,,TRUE,TRUE,TRUE,,,,,,BKN,5500,,,,,,,VFR,,,,,,,,,,,,METAR,1801.0
KCEW 241853Z AUTO VRB04KT 10SM CLR 29/12 A3007 RMK AO2 SLP181 T02940122,KCEW,2022-10-24T18:53:00Z,30.78,-86.52,29.4,12.2,0,4,,10.0,30.070866,1018.1,,TRUE,TRUE,,,,,,,CLR,,,,,,,,VFR,,,,,,,,,,,,METAR,47.0
KCDS 241853Z AUTO 12008KT 10SM FEW022 SCT048 BKN060 18/12 A2974 RMK AO2 SLP052 T01830122,KCDS,2022-10-24T18:53:00Z,34.43,-100.28,18.3,12.2,120,8,,10.0,29.740158,1005.2,,TRUE,TRUE,,,,,,,FEW,2200,SCT,4800,BKN,6000,,,VFR,,,,,,,,,,,,METAR,595.0
KCDC 241853Z AUTO 02009KT 10SM CLR 03/M04 A3025 RMK AO2 SLP257 T00281039,KCDC,2022-10-24T18:53:00Z,37.7,-113.1,2.8,-3.9,20,9,,10.0,30.250984,1025.7,,TRUE,TRUE,,,,,,,CLR,,,,,,,,VFR,,,,,,,,,,,,METAR,1703.0
KCCR 241853Z 03004KT 10SM CLR 22/M03 A3022 RMK AO2 SLP218 T02171028,KCCR,2022-10-24T18:53:00Z,38.0,-122.05,21.7,-2.8,30,4,,10.0,30.221457,1021.8,,,TRUE,,,,,,,CLR,,,,,,,,VFR,,,,,,,,,,,,METAR,6.0
KCAG 241853Z AUTO 26010KT 10SM OVC065 01/M04 A3010 RMK AO2 SLP219 T00061044,KCAG,2022-10-24T18:53:00Z,40.5,-107.52,0.6,-4.4,260,10,,10.0,30.100393,1021.9,,TRUE,TRUE,,,,,,,OVC,6500,,,,,,,VFR,,,,,,,,,,,,METAR,1888.0
KBYI 241853Z AUTO 26015G22KT 10SM SCT085 07/M05 A3015 RMK AO2 PK WND 25027/1814 SLP216 T00721050,KBYI,2022-10-24T18:53:00Z,42.55,-113.77,7.2,-5.0,260,15,22,10.0,30.15059,1021.6,,TRUE,TRUE,,,,,,,SCT,8500,,,,,,,VFR,,,,,,,,,,,,METAR,1263.0
KBYG 241853Z AUTO 00000KT 10SM OVC036 04/M03 A2983 RMK AO2 SLP116 T00391033,KBYG,2022-10-24T18:53:00Z,44.38,-106.72,3.9,-3.3,0,0,,10.0,29.828741,1011.6,,TRUE,TRUE,,,,,,,OVC,3600,,,,,,,VFR,,,,,,,,,,,,METAR,1503.0
KBWG 241853Z AUTO 19012KT 10SM CLR 26/04 A3003 RMK AO2 SLP165 T02610039,KBWG,2022-10-24T18:53:00Z,36.97,-86.42,26.1,3.9,190,12,,10.0,30.029528,1016.5,,TRUE,TRUE,,,,,,,CLR,,,,,,,,VFR,,,,,,,,,,,,METAR,159.0
KBVY 241853Z 36010KT 10SM OVC005 14/14 A3021 RMK AO2 SLP225 T01440139,KBVY,2022-10-24T18:53:00Z,42.58,-70.92,14.4,13.9,360,10,,10.0,30.209646,1022.5,,,TRUE,,,,,,,OVC,500,,,,,,,IFR,,,,,,,,,,,,METAR,28.0
KBUR 241853Z 12005KT 10SM CLR 22/M01 A3015 RMK AO2 SLP200 T02171006,KBUR,2022-10-24T18:53:00Z,34.2,-118.37,21.7,-0.6,120,5,,10.0,30.15059,1020.0,,,TRUE,,,,,,,CLR,,,,,,,,VFR,,,,,,,,,,,,METAR,221.0
KBTR 241853Z 17016KT 10SM CLR 31/16 A2994 RMK AO2 SLP137 T03060156,KBTR,2022-10-24T18:53:00Z,30.53,-91.15,30.6,15.6,170,16,,10.0,29.940945,1013.7,,,TRUE,,,,,,,CLR,,,,,,,,VFR,,,,,,,,,,,,METAR,20.0
KBTM 241853Z AUTO 04004KT 10SM BKN060 04/M07 A2992 RMK AO2 SLP146 T00391067,KBTM,2022-10-24T18:53:00Z,45.97,-112.5,3.9,-6.7,40,4,,10.0,29.920275,1014.6,,TRUE,TRUE,,,,,,,BKN,6000,,,,,,,VFR,,,,,,,,,,,,METAR,1680.0
KBTL 241853Z 19012G21KT 10SM CLR 24/12 A2998 RMK AO2 SLP147 T02440122,KBTL,2022-10-24T18:53:00Z,42.32,-85.25,24.4,12.2,190,12,21,10.0,29.97933,1014.7,,,TRUE,,,,,,,CLR,,,,,,,,VFR,,,,,,,,,,,,METAR,282.0
KBRL 241853Z AUTO 16014G24KT 10SM OVC034 22/15 A2971 RMK AO2 SLP056 T02220150,KBRL,2022-10-24T18:53:00Z,40.77,-91.13,22.2,15.0,160,14,24,10.0,29.71063,1005.6,,TRUE,TRUE,,,,,,,OVC,3400,,,,,,,VFR,,,,,,,,,,,,METAR,208.0
KBPT 241853Z 17018G30KT 10SM SCT085 29/20 A2986 RMK AO2 PK WND 16030/1847 SLP112 T02940200,KBPT,2022-10-24T18:53:00Z,29.95,-94.03,29.4,20.0,170,18,30,10.0,29.861221,1011.2,,,TRUE,,,,,,,SCT,8500,,,,,,,VFR,,,,,,,,,,,,METAR,6.0
KBPK 241853Z AUTO 21013G20KT 10SM FEW038 SCT100 24/15 A2980 RMK AO2 RAE05 SLP080 P0000 T02390150,KBPK,2022-10-24T18:53:00Z,36.37,-92.47,23.9,15.0,210,13,20,10.0,29.799213,1008.0,,TRUE,TRUE,,,,,,,FEW,3800,SCT,10000,,,,,VFR,,,,,,0.005,,,,,,METAR,279.0
KBPI 241853Z AUTO 31016G22KT 10SM CLR 04/M13 A3002 RMK AO2 PK WND 35027/1817 SLP161 T00391128,KBPI,2022-10-24T18:53:00Z,42.58,-110.1,3.9,-12.8,310,16,22,10.0,30.02067,1016.1,,TRUE,TRUE,,,,,,,CLR,,,,,,,,VFR,,,,,,,,,,,,METAR,2120.0
KBOI 241853Z 11009KT 10SM FEW070 OVC090 09/M03 A3015 RMK AO2 SLP218 T00891033,KBOI,2022-10-24T18:53:00Z,43.57,-116.23,8.9,-3.3,110,9,,10.0,30.15059,1021.8,,,TRUE,,,,,,,FEW,7000,OVC,9000,,,,,VFR,,,,,,,,,,,,METAR,860.0
KBNA 241853Z 18007G17KT 10SM FEW180 BKN250 27/03 A3004 RMK AO2 SLP165 T02670028,KBNA,2022-10-24T18:53:00Z,36.12,-86.68,26.7,2.8,180,7,17,10.0,30.041338,1016.5,,,TRUE,,,,,,,FEW,18000,BKN,25000,,,,,VFR,,,,,,,,,,,,METAR,168.0
KBMQ 241853Z AUTO 33004KT 10SM BKN022 OVC028 23/20 A2976 RMK AO2 SLP061 T02330200,KBMQ,2022-10-24T18:53:00Z,30.73,-98.23,23.3,20.0,330,4,,10.0,29.760826,1006.1,,TRUE,TRUE,,,,,,,BKN,2200,OVC,2800,,,,,MVFR,,,,,,,,,,,,METAR,387.0
KBMG 241853Z 16012KT 10SM CLR 25/09 A2998 RMK AO2 SLP145 T02500094,KBMG,2022-10-24T18:53:00Z,39.15,-86.62,25.0,9.4,160,12,,10.0,29.97933,1014.5,,,TRUE,,,,,,,CLR,,,,,,,,VFR,,,,,,,,,,,,METAR,254.0
KBLI 241853Z 17009KT 10SM SCT016 12/09 A2990 RMK AO2 SLP133 T01170094,KBLI,2022-10-24T18:53:00Z,48.8,-122.53,11.7,9.4,170,9,,10.0,29.899607,1013.3,,,TRUE,,,,,,,SCT,1600,,,,,,,VFR,,,,,,,,,,,,METAR,46.0
KBKV 241853Z VRB03KT 10SM CLR 31/18 A3006 RMK AO2 SLP177 T03060183,KBKV,2022-10-24T18:53:00Z,28.47,-82.45,30.6,18.3,0,3,,10.0,30.059055,1017.7,,,TRUE,,,,,,,CLR,,,,,,,,VFR,,,,,,,,,,,,METAR,21.0
KBKL 241853Z 17008KT 10SM CLR 25/07 A3006 RMK AO2 SLP176 T02500072,KBKL,2022-10-24T18:53:00Z,41.53,-81.67,25.0,7.2,170,8,,10.0,30.059055,1017.6,,,TRUE,,,,,,,CLR,,,,,,,,VFR,,,,,,,,,,,,METAR,177.0
KBIV 241853Z AUTO 18014G20KT 10SM CLR 23/13 A2991 RMK AO2 SLP127 T02330128,KBIV,2022-10-24T18:53:00Z,42.75,-86.1,23.3,12.8,180,14,20,10.0,29.911417,1012.7,,TRUE,TRUE,,,,,,,CLR,,,,,,,,VFR,,,,,,,,,,,,METAR,207.0
KBIL 241853Z 27029G38KT 10SM FEW080 FEW120 09/M05 A2980 RMK AO2 PK WND 26038/1851 SLP103 T00891050,KBIL,2022-10-24T18:53:00Z,45.8,-108.55,8.9,-5.0,270,29,38,10.0,29.799213,1010.3,,,TRUE,,,,,,,FEW,8000,FEW,12000,,,,,VFR,,,,,,,,,,,,METAR,1089.0
KBHM 241853Z VRB06KT 10SM FEW250 25/07 A3011 RMK AO2 SLP191 T02500072,KBHM,2022-10-24T18:53:00Z,33.57,-86.75,25.0,7.2,0,6,,10.0,30.109253,1019.1,,,TRUE,,,,,,,FEW,25000,,,,,,,VFR,,,,,,,,,,,,METAR,191.0
KBGR 241853Z 02006KT 1 1/4SM -DZ BR OVC003 14/14 A3027 RMK AO2 SFC VIS 1 1/2 DZB29 SLP249 P0000 T01440139,KBGR,2022-10-24T18:53:00Z,44.8,-68.82,14.4,13.9,20,6,,1.25,30.268702,1024.9,,,TRUE,,,,,,-DZ BR,OVC,300,,,,,,,LIFR,,,,,,0.005,,,,,,METAR,45.0
KBGM 241853Z 12007KT 10SM OVC005 14/13 A3016 RMK AO2 SLP212 T01440133,KBGM,2022-10-24T18:53:00Z,42.22,-75.98,14.4,13.3,120,7,,10.0,30.159449,1021.2,,,TRUE,,,,,,,OVC,500,,,,,,,IFR,,,,,,,,,,,,METAR,485.0
KBFM 241853Z 16010KT 10SM OVC060 25/17 A3005 RMK AO2 SLP176 T02500172,KBFM,2022-10-24T18:53:00Z,30.62,-88.07,25.0,17.2,160,10,,10.0,30.050198,1017.6,,,TRUE,,,,,,,OVC,6000,,,,,,,VFR,,,,,,,,,,,,METAR,7.0
KBFI 241853Z 00000KT 3SM -RA BR SCT004 OVC012 10/09 A2997 RMK AO2 SLP147 P0002 T01000094,KBFI,2022-10-24T18:53:00Z,47.55,-122.32,10.0,9.4,0,0,,3.0,29.970472,1014.7,,,TRUE,,,,,,-RA BR,SCT,400,OVC,1200,,,,,MVFR,,,,,,0.02,,,,,,METAR,7.0
KBFF 241853Z AUTO 31016G27KT 10SM FEW035 BKN048 OVC055 06/M03 A2989 RMK AO2 PK WND 32037/1809 SLP127 T00611028,KBFF,2022-10-24T18:53:00Z,41.87,-103.6,6.1,-2.8,310,16,27,10.0,29.890747,1012.7,,TRUE,TRUE,,,,,,,FEW,3500,BKN,4800,OVC,5500,,,VFR,,,,,,,,,,,,METAR,1204.0
KBFD 241853Z AUTO 14005KT 10SM CLR 22/11 A3014 RMK AO2 SLP202 T02220106,KBFD,2022-10-24T18:53:00Z,41.8,-78.63,22.2,10.6,140,5,,10.0,30.138779,1020.2,,TRUE,TRUE,,,,,,,CLR,,,,,,,,VFR,,,,,,,,,,,,METAR,642.0
KBEH 241853Z AUTO 15010G20KT 10SM CLR 23/13 A2989 RMK AO2 SLP119 T02280128,KBEH,2022-10-24T18:53:00Z,42.13,-86.42,22.8,12.8,150,10,20,10.0,29.890747,1011.9,,TRUE,TRUE,,,,,,,CLR,,,,,,,,VFR,,,,,,,,,,,,METAR,196.0
KBCT 241853Z 08010G17KT 360V090 10SM SCT035 30/20 A3002,KBCT,2022-10-24T18:53:00Z,26.38,-80.1,30.0,20.0,80,10,17,10.0,30.02067,,,,,,,,,,,SCT,3500,,,,,,,VFR,,,,,,,,,,,,METAR,3.0
KBBW 241853Z AUTO 30019G29KT 10SM CLR 11/M05 A2976 RMK AO2 PK WND 31031/1759 SLP076 T01111050,KBBW,2022-10-24T18:53:00Z,41.43,-99.63,11.1,-5.0,300,19,29,10.0,29.760826,1007.6,,TRUE,TRUE,,,,,,,CLR,,,,,,,,VFR,,,,,,,,,,,,METAR,771.0
KBAF 241853Z 01007KT 10SM -RA BKN008 OVC017 13/12 A3020 RMK AO2 SLP229 P0000 T01330122,KBAF,2022-10-24T18:53:00Z,42.17,-72.72,13.3,12.2,10,7,,10.0,30.200787,1022.9,,,TRUE,,,,,,-RA,BKN,800,OVC,1700,,,,,IFR,,,,,,0.005,,,,,,METAR,80.0
KAZO 241853Z 17010KT 10SM CLR 24/12 A2997 RMK AO2 SLP146 T02390122,KAZO,2022-10-24T18:53:00Z,42.23,-85.55,23.9,12.2,170,10,,10.0,29.970472,1014.6,,,TRUE,,,,,,,CLR,,,,,,,,VFR,,,,,,,,,,,,METAR,264.0
KAXN 241853Z AUTO 23014G26KT 10SM OVC023 07/02 A2958 RMK AO2 PK WND 22030/1800 SLP021 T00720017,KAXN,2022-10-24T18:53:00Z,45.87,-95.4,7.2,1.7,230,14,26,10.0,29.58071,1002.1,,TRUE,TRUE,,,,,,,OVC,2300,,,,,,,MVFR,,,,,,,,,,,,METAR,433.0
KAWM 241853Z AUTO 17020G27KT 10SM FEW043 26/14 A2990 RMK AO2 PK WND 16027/1851 SLP122 T02610144,KAWM,2022-10-24T18:53:00Z,35.13,-90.23,26.1,14.4,170,20,27,10.0,29.899607,1012.2,,TRUE,TRUE,,,,,,,FEW,4300,,,,,,,VFR,,,,,,,,,,,,METAR,64.0
KATY 241853Z AUTO 24025G35KT 10SM CLR 08/00 A2959 RMK AO2 PK WND 26036/1810 SLP024 T00830000,KATY,2022-10-24T18:53:00Z,44.9,-97.15,8.3,0.0,240,25,35,10.0,29.589567,1002.4,,TRUE,TRUE,,,,,,,CLR,,,,,,,,VFR,,,,,,,,,,,,METAR,531.0
KASX 241853Z AUTO 19016G32KT 10SM BKN041 BKN050 OVC060 23/15 A2952 RMK AO2 PK WND 19037/1835 SLP993 T02330150,KASX,2022-10-24T18:53:00Z,46.55,-90.92,23.3,15.0,190,16,32,10.0,29.518702,999.3,,TRUE,TRUE,,,,,,,BKN,4100,BKN,5000,OVC,6000,,,VFR,,,,,,,,,,,,METAR,249.0
KASE 241853Z 33009G18KT 10SM SCT034 BKN047 OVC060 M01/M08 A3004 RMK AO2 SLP160 T10111078,KASE,2022-10-24T18:53:00Z,39.23,-106.87,-1.1,-7.8,330,9,18,10.0,30.041338,1016.0,,,TRUE,,,,,,,SCT,3400,BKN,4700,OVC,6000,,,VFR,,,,,,,,,,,,METAR,2384.0
KASD 241853Z AUTO 17010G16KT 10SM CLR 29/17 A2998 RMK AO2 SLP153 T02940172,KASD,2022-10-24T18:53:00Z,30.35,-89.82,29.4,17.2,170,10,16,10.0,29.97933,1015.3,,TRUE,TRUE,,,,,,,CLR,,,,,,,,VFR,,,,,,,,,,,,METAR,8.0
KARB 241853Z 18008G17KT 10SM CLR 24/08 A3001 RMK AO2 SLP163 T02440078,KARB,2022-10-24T18:53:00Z,42.22,-83.73,24.4,7.8,180,8,17,10.0,30.008858,1016.3,,,TRUE,,,,,,,CLR,,,,,,,,VFR,,,,,,,,,,,,METAR,251.0
KARA 241853Z 15016G25KT 10SM BKN080 30/17 A2993 RMK AO2 PK WND 15027/1831 SLP135 T03000167,KARA,2022-10-24T18:53:00Z,30.03,-91.88,30.0,16.7,150,16,25,10.0,29.929134,1013.5,,,TRUE,,,,,,,BKN,8000,,,,,,,VFR,,,,,,,,,,,,METAR,5.0
KAPF 241853Z 08007KT 10SM FEW050 30/19 A3000 RMK AO2 SLP156 T03000189 $,KAPF,2022-10-24T18:53:00Z,26.15,-81.77,30.0,18.9,80,7,,10.0,30.0,1015.6,,,TRUE,TRUE,,,,,,FEW,5000,,,,,,,VFR,,,,,,,,,,,,METAR,2.0
KAPA 241853Z 33006KT 10SM FEW080 FEW220 08/M14 A2987 RMK AO2 SLP112 T00781139,KAPA,2022-10-24T18:53:00Z,39.57,-104.85,7.8,-13.9,330,6,,10.0,29.870079,1011.2,,,TRUE,,,,,,,FEW,8000,FEW,22000,,,,,VFR,,,,,,,,,,,,METAR,1791.0
KAOO 241853Z AUTO 06006KT 10SM SCT033 23/12 A3013 RMK AO2 SLP198 T02280117,KAOO,2022-10-24T18:53:00Z,40.3,-78.32,22.8,11.7,60,6,,10.0,30.129921,1019.8,,TRUE,TRUE,,,,,,,SCT,3300,,,,,,,VFR,,,,,,,,,,,,METAR,450.0
KAOH 241853Z AUTO 16014G22KT 10SM CLR 24/06 A3004 RMK AO2 SLP167 T02440056,KAOH,2022-10-24T18:53:00Z,40.7,-84.02,24.4,5.6,160,14,22,10.0,30.041338,1016.7,,TRUE,TRUE,,,,,,,CLR,,,,,,,,VFR,,,,,,,,,,,,SPECI,294.0
KANB 241853Z AUTO 20007KT 10SM CLR 26/08 A3010 RMK AO2 SLP190 T02560078,KANB,2022-10-24T18:53:00Z,33.58,-85.85,25.6,7.8,200,7,,10.0,30.100393,1019.0,,TRUE,TRUE,,,,,,,CLR,,,,,,,,VFR,,,,,,,,,,,,METAR,187.0
KAMW 241853Z AUTO 31008KT 10SM -RA BKN060 BKN075 OVC090 11/07 A2972 RMK AO2 RAB19 SLP060 P0001 T01110072,KAMW,2022-10-24T18:53:00Z,41.98,-93.62,11.1,7.2,310,8,,10.0,29.719488,1006.0,,TRUE,TRUE,,,,,,-RA,BKN,6000,BKN,7500,OVC,9000,,,VFR,,,,,,0.01,,,,,,METAR,282.0
KAMG 241853Z AUTO 00000KT 10SM CLR 26/10 A3011 RMK AO2 SLP193 T02610100,KAMG,2022-10-24T18:53:00Z,31.53,-82.5,26.1,10.0,0,0,,10.0,30.109253,1019.3,,TRUE,TRUE,,,,,,,CLR,,,,,,,,VFR,,,,,,,,,,,,METAR,61.0
KALW 241853Z 18015KT 10SM -RA BKN046 OVC055 09/05 A2995 RMK AO2 SLP148 P0003 T00940050,KALW,2022-10-24T18:53:00Z,46.1,-118.28,9.4,5.0,180,15,,10.0,29.949802,1014.8,,,TRUE,,,,,,-RA,BKN,4600,OVC,5500,,,,,VFR,,,,,,0.03,,,,,,METAR,355.0
KAKO 241853Z AUTO 32025G32KT 10SM CLR 09/M06 A2986 RMK AO2 PK WND 31037/1832 SLP109 T00891056,KAKO,2022-10-24T18:53:00Z,40.17,-103.22,8.9,-5.6,320,25,32,10.0,29.861221,1010.9,,TRUE,TRUE,,,,,,,CLR,,,,,,,,VFR,,,,,,,,,,,,METAR,1431.0
KAIA 241853Z AUTO 31024G38KT 10SM SCT034 BKN045 BKN090 04/M03 A2986 RMK AO2 PK WND 30043/1801 SLP120 T00391028,KAIA,2022-10-24T18:53:00Z,42.05,-102.8,3.9,-2.8,310,24,38,10.0,29.861221,1012.0,,TRUE,TRUE,,,,,,,SCT,3400,BKN,4500,BKN,9000,,,VFR,,,,,,,,,,,,METAR,1198.0
KAGC 241853Z 00000KT 10SM CLR 21/05 A3012 RMK AO2 SLP203 T02110050,KAGC,2022-10-24T18:53:00Z,40.35,-79.92,21.1,5.0,0,0,,10.0,30.121063,1020.3,,,TRUE,,,,,,,CLR,,,,,,,,VFR,,,,,,,,,,,,METAR,380.0
KAFW 241853Z 13008KT 10SM -RA FEW012 BKN080 OVC095 19/16 A2972 RMK AO2 SLP054 P0019 T01890156 $,KAFW,2022-10-24T18:53:00Z,32.97,-97.32,18.9,15.6,130,8,,10.0,29.719488,1005.4,,,TRUE,TRUE,,,,,-RA,FEW,1200,BKN,8000,OVC,9500,,,VFR,,,,,,0.19,,,,,,METAR,208.0
KAEX 241853Z 17017G30KT 10SM FU BKN041 BKN055 BKN085 29/17 A2989 RMK AO2 PK WND 19030/1851 SLP123 T02890172,KAEX,2022-10-24T18:53:00Z,31.33,-92.57,28.9,17.2,170,17,30,10.0,29.890747,1012.3,,,TRUE,,,,,,FU,BKN,4100,BKN,5500,BKN,8500,,,VFR,,,,,,,,,,,,METAR,25.0
KADG 241853Z AUTO 20010KT 10SM CLR 24/06 A3003 RMK AO2 SLP167 T02440056,KADG,2022-10-24T18:53:00Z,41.87,-84.08,24.4,5.6,200,10,,10.0,30.029528,1016.7,,TRUE,TRUE,,,,,,,CLR,,,,,,,,VFR,,,,,,,,,,,,METAR,244.0
KACV 241853Z AUTO VRB05KT 10SM OVC027 14/08 A3027 RMK AO2 SLP256 T01390078,KACV,2022-10-24T18:53:00Z,40.98,-124.1,13.9,7.8,0,5,,10.0,30.268702,1025.6,,TRUE,TRUE,,,,,,,OVC,2700,,,,,,,MVFR,,,,,,,,,,,,METAR,63.0
KACK 241853Z 12007KT 1 1/4SM BR OVC003 22/21 A3018 RMK AO2 SLP221 T02170206,KACK,2022-10-24T18:53:00Z,41.25,-70.07,21.7,20.6,120,7,,1.25,30.180119,1022.1,,,TRUE,,,,,,BR,OVC,300,,,,,,,LIFR,,,,,,,,,,,,METAR,12.0
KABY 241853Z 22006KT 10SM CLR 27/11 A3010 RMK AO2 SLP192 T02670111,KABY,2022-10-24T18:53:00Z,31.53,-84.2,26.7,11.1,220,6,,10.0,30.100393,1019.2,,,TRUE,,,,,,,CLR,,,,,,,,VFR,,,,,,,,,,,,METAR,60.0
KABR 241853Z AUTO 26017G29KT 10SM OVC033 08/M01 A2958 RMK AO2 PK WND 24030/1757 SLP021 T00781011,KABR,2022-10-24T18:53:00Z,45.45,-98.42,7.8,-1.1,260,17,29,10.0,29.58071,1002.1,,TRUE,TRUE,,,,,,,OVC,3300,,,,,,,VFR,,,,,,,,,,,,METAR,397.0
KAAF 241853Z AUTO 09009KT 10SM CLR 24/20 A3008 RMK AO2 SLP187 T02440200 $,KAAF,2022-10-24T18:53:00Z,29.73,-85.03,24.4,20.0,90,9,,10.0,30.079725,1018.7,,TRUE,TRUE,TRUE,,,,,,CLR,,,,,,,,VFR,,,,,,,,,,,,METAR,5.0
PATA 241852Z 32003KT 10SM BKN065 M10/M12 A2997 RMK AO2 SLP154 T11001117,PATA,2022-10-24T18:52:00Z,65.17,-152.1,-10.0,-11.7,320,3,,10.0,29.970472,1015.4,,,TRUE,,,,,,,BKN,6500,,,,,,,VFR,,,,,,,,,,,,METAR,62.0
MMCB 241852Z 20003KT 6SM BKN015 BKN250 27/19 A3011 RMK 8/108 HZY,MMCB,2022-10-24T18:52:00Z,18.83,-99.27,27.0,19.0,200,3,,6.0,30.109253,,,,,,,,,,,BKN,1500,BKN,25000,,,,,MVFR,,,,,,,,,,,,METAR,1281.0
KVTN 241852Z AUTO 28020G31KT 10SM OVC055 09/M07 A2976 RMK AO2 PK WND 33035/1757 SLP088 T00891067,KVTN,2022-10-24T18:52:00Z,42.87,-100.55,8.9,-6.7,280,20,31,10.0,29.760826,1008.8,,TRUE,TRUE,,,,,,,OVC,5500,,,,,,,VFR,,,,,,,,,,,,METAR,790.0
KTRM 241852Z AUTO 30008KT 10SM CLR 22/M12 A3018 RMK AO2 SLP221 T02221117,KTRM,2022-10-24T18:52:00Z,33.63,-116.17,22.2,-11.7,300,8,,10.0,30.180119,1022.1,,TRUE,TRUE,,,,,,,CLR,,,,,,,,VFR,,,,,,,,,,,,METAR,-39.0
KTOL 241852Z 20007G16KT 10SM CLR 26/07 A3002 RMK AO2 SLP162 T02560067,KTOL,2022-10-24T18:52:00Z,41.58,-83.8,25.6,6.7,200,7,16,10.0,30.02067,1016.2,,,TRUE,,,,,,,CLR,,,,,,,,VFR,,,,,,,,,,,,METAR,206.0
KTAN 241852Z AUTO A3020 RMK AO2 SLPNO PWINO FZRANO TSNO $,KTAN,2022-10-24T18:52:00Z,41.88,-71.02,,,,,,,30.200787,,,TRUE,TRUE,TRUE,,TRUE,TRUE,TRUE,,,,,,,,,,,,,,,,,,,,,,SPECI,8.0
KSUX 241852Z 29009KT 10SM OVC100 09/M01 A2975 RMK AO2 SLP073 T00941006,KSUX,2022-10-24T18:52:00Z,42.38,-96.38,9.4,-0.6,290,9,,10.0,29.749016,1007.3,,,TRUE,,,,,,,OVC,10000,,,,,,,VFR,,,,,,,,,,,,METAR,332.0
KSPI 241852Z 18015G31KT 10SM CLR 23/14 A2982 RMK AO2 PK WND 19031/1849 SLP094 T02330139,KSPI,2022-10-24T18:52:00Z,39.85,-89.68,23.3,13.9,180,15,31,10.0,29.819881,1009.4,,,TRUE,,,,,,,CLR,,,,,,,,VFR,,,,,,,,,,,,METAR,179.0
KSGF 241852Z 17011KT 10SM -RA BKN025 BKN034 OVC070 19/18 A2972 RMK AO2 SLP054 P0002 T01890178 $,KSGF,2022-10-24T18:52:00Z,37.23,-93.38,18.9,17.8,170,11,,10.0,29.719488,1005.4,,,TRUE,TRUE,,,,,-RA,BKN,2500,BKN,3400,OVC,7000,,,MVFR,,,,,,0.02,,,,,,METAR,387.0
KREO 241852Z AUTO 22012KT 10/M06 A3013 RMK AO1 SLP215 T01001061,KREO,2022-10-24T18:52:00Z,42.58,-117.87,10.0,-6.1,220,12,,,30.129921,1021.5,,TRUE,TRUE,,,,,,,,,,,,,,,,,,,,,,,,,,,METAR,1237.0
KPWK 241852Z 16015G22KT 10SM CLR 23/13 A2983 RMK AO2 SLP098 T02280133,KPWK,2022-10-24T18:52:00Z,42.12,-87.9,22.8,13.3,160,15,22,10.0,29.828741,1009.8,,,TRUE,,,,,,,CLR,,,,,,,,VFR,,,,,,,,,,,,METAR,194.0
KP69 241852Z AUTO VRB03KT 06/04 A3006 RMK AO1 SLP191 P0004 T00560039,KP69,2022-10-24T18:52:00Z,46.15,-115.6,5.6,3.9,0,3,,,30.059055,1019.1,,TRUE,TRUE,,,,,,,,,,,,,,,,,,,,,0.04,,,,,,METAR,447.0
KOMA 241852Z 34006KT 9SM -RA SCT050 OVC090 08/05 A2976 RMK AO2 SLP073 P0004 T00830050,KOMA,2022-10-24T18:52:00Z,41.32,-95.9,8.3,5.0,340,6,,9.0,29.760826,1007.3,,,TRUE,,,,,,-RA,SCT,5000,OVC,9000,,,,,VFR,,,,,,0.04,,,,,,METAR,299.0
KOKB 241852Z AUTO 11006KT 10SM CLR 25/M02 A3012 RMK AO2 SLP199 T02501022,KOKB,2022-10-24T18:52:00Z,33.22,-117.35,25.0,-2.2,110,6,,10.0,30.121063,1019.9,,TRUE,TRUE,,,,,,,CLR,,,,,,,,VFR,,,,,,,,,,,,METAR,7.0
KNZY 241852Z 30008KT 10SM CLR 22/08 A3013 RMK AO2 SLP203 T02170078 $,KNZY,2022-10-24T18:52:00Z,32.7,-117.22,21.7,7.8,300,8,,10.0,30.129921,1020.3,,,TRUE,TRUE,,,,,,CLR,,,,,,,,VFR,,,,,,,,,,,,METAR,4.0
KNRB 241852Z 02011KT 10SM FEW030 23/16 A3011 RMK AO2 SLP196 T02280161 $,KNRB,2022-10-24T18:52:00Z,30.38,-81.42,22.8,16.1,20,11,,10.0,30.109253,1019.6,,,TRUE,TRUE,,,,,,FEW,3000,,,,,,,VFR,,,,,,,,,,,,SPECI,4.0
KNHK 241852Z 35006KT 10SM OVC011 17/13 A3012 RMK AO2 SLP198 T01720133 $,KNHK,2022-10-24T18:52:00Z,38.28,-76.4,17.2,13.3,350,6,,10.0,30.121063,1019.8,,,TRUE,TRUE,,,,,,OVC,1100,,,,,,,MVFR,,,,,,,,,,,,METAR,5.0
KNFW 241852Z 14008G16KT 8SM -RA BKN065 OVC080 17/16 A2974 RMK AO2 SLP057 P0019 T01720161 $,KNFW,2022-10-24T18:52:00Z,32.78,-97.43,17.2,16.1,140,8,16,8.0,29.740158,1005.7,,,TRUE,TRUE,,,,,-RA,BKN,6500,OVC,8000,,,,,VFR,,,,,,0.19,,,,,,METAR,188.0
KNFG 241852Z 10007KT 10SM CLR 26/M05 A3013 RMK AO2 SLP202 T02561050,KNFG,2022-10-24T18:52:00Z,33.3,-117.35,25.6,-5.0,100,7,,10.0,30.129921,1020.2,,,TRUE,,,,,,,CLR,,,,,,,,VFR,,,,,,,,,,,,SPECI,21.0
KN60 241852Z AUTO 31024G34KT 01/M02 A2951 RMK AO1 PK WND 29039/1826 SLP008 T00061017,KN60,2022-10-24T18:52:00Z,47.65,-101.43,0.6,-1.7,310,24,34,,29.509842,1000.8,,TRUE,TRUE,,,,,,,,,,,,,,,,,,,,,,,,,,,METAR,582.0
KMWH 241852Z 16009KT 10SM FEW055 09/04 A2988 RMK AO2 SLP172 T00940039,KMWH,2022-10-24T18:52:00Z,47.2,-119.32,9.4,3.9,160,9,,10.0,29.878937,1017.2,,,TRUE,,,,,,,FEW,5500,,,,,,,VFR,,,,,,,,,,,,METAR,355.0
KMLI 241852Z 18015G23KT 10SM SCT055 SCT070 23/14 A2973 RMK AO2 SLP065 T02280144,KMLI,2022-10-24T18:52:00Z,41.45,-90.52,22.8,14.4,180,15,23,10.0,29.731298,1006.5,,,TRUE,,,,,,,SCT,5500,SCT,7000,,,,,VFR,,,,,,,,,,,,SPECI,174.0
KMLF 241852Z AUTO 07004KT 10SM CLR 04/M06 A3026 RMK AO2 SLP256 T00441056,KMLF,2022-10-24T18:52:00Z,38.42,-113.02,4.4,-5.6,70,4,,10.0,30.259842,1025.6,,TRUE,TRUE,,,,,,,CLR,,,,,,,,VFR,,,,,,,,,,,,METAR,1537.0
KMKE 241852Z 17013KT 10SM FEW070 BKN230 OVC250 21/12 A2981 RMK AO2 SLP092 T02060122,KMKE,2022-10-24T18:52:00Z,42.95,-87.9,20.6,12.2,170,13,,10.0,29.811024,1009.2,,,TRUE,,,,,,,FEW,7000,BKN,23000,OVC,25000,,,VFR,,,,,,,,,,,,SPECI,203.0
KMFD 241852Z 16008KT 10SM CLR 24/06 A3009 RMK AO2 SLP186 T02390056,KMFD,2022-10-24T18:52:00Z,40.82,-82.52,23.9,5.6,160,8,,10.0,30.088583,1018.6,,,TRUE,,,,,,,CLR,,,,,,,,VFR,,,,,,,,,,,,METAR,394.0
KMEB 241852Z AUTO VRB04KT 10SM CLR 26/11 A3011 RMK AO2 SLP195 T02560111,KMEB,2022-10-24T18:52:00Z,34.78,-79.37,25.6,11.1,0,4,,10.0,30.109253,1019.5,,TRUE,TRUE,,,,,,,CLR,,,,,,,,VFR,,,,,,,,,,,,METAR,65.0
KMDH 241852Z 17013G22KT 10SM FEW047 OVC070 24/09 A2990 RMK AO2 SLP123 T02440089,KMDH,2022-10-24T18:52:00Z,37.78,-89.25,24.4,8.9,170,13,22,10.0,29.899607,1012.3,,,TRUE,,,,,,,FEW,4700,OVC,7000,,,,,VFR,,,,,,,,,,,,METAR,122.0
KMBG 241852Z AUTO 30023G36KT 10SM FEW025 BKN033 OVC070 04/M02 A2959 RMK AO2 PK WND 31036/1848 SLP030 T00441022,KMBG,2022-10-24T18:52:00Z,45.55,-100.42,4.4,-2.2,300,23,36,10.0,29.589567,1003.0,,TRUE,TRUE,,,,,,,FEW,2500,BKN,3300,OVC,7000,,,VFR,,,,,,,,,,,,METAR,515.0
KIOW 241852Z AUTO 17013KT 10SM FEW038 OVC060 23/16 A2969 RMK AO2 SLP049 T02280156,KIOW,2022-10-24T18:52:00Z,41.63,-91.55,22.8,15.6,170,13,,10.0,29.68996,1004.9,,TRUE,TRUE,,,,,,,FEW,3800,OVC,6000,,,,,VFR,,,,,,,,,,,,METAR,199.0
KIJD 241852Z AUTO 36008KT 10SM -RA OVC006 14/14 A3016 RMK AO2 PRESFR SLP214 P0001 T01440139,KIJD,2022-10-24T18:52:00Z,41.75,-72.18,14.4,13.9,360,8,,10.0,30.159449,1021.4,,TRUE,TRUE,,,,,,-RA,OVC,600,,,,,,,IFR,,,,,,0.01,,,,,,METAR,73.0
KIEN 241852Z AUTO 29021G35KT 10SM BKN024 BKN028 OVC090 04/M02 A2981 RMK AO2 PK WND 29035/1820 SLP109 T00391017,KIEN,2022-10-24T18:52:00Z,43.03,-102.52,3.9,-1.7,290,21,35,10.0,29.811024,1010.9,,TRUE,TRUE,,,,,,,BKN,2400,BKN,2800,OVC,9000,,,MVFR,,,,,,,,,,,,SPECI,1002.0
KIAD 241852Z 36005KT 10SM BKN025 19/13 A3012 RMK AO2 SLP198 T01940128,KIAD,2022-10-24T18:52:00Z,38.93,-77.45,19.4,12.8,360,5,,10.0,30.121063,1019.8,,,TRUE,,,,,,,BKN,2500,,,,,,,MVFR,,,,,,,,,,,,METAR,90.0
KHUT 241852Z 35008KT 10SM FEW020 OVC090 10/07 A2976 RMK AO2 PRESFR SLP064 T01000067,KHUT,2022-10-24T18:52:00Z,38.07,-97.87,10.0,6.7,350,8,,10.0,29.760826,1006.4,,,TRUE,,,,,,,FEW,2000,OVC,9000,,,,,VFR,,,,,,,,,,,,METAR,464.0
KHRL 241852Z 16021G28KT 10SM SCT033 BKN044 32/23 A2975 RMK AO2 PK WND 18028/1845 PRESFR SLP075 T03220233,KHRL,2022-10-24T18:52:00Z,26.23,-97.65,32.2,23.3,160,21,28,10.0,29.749016,1007.5,,,TRUE,,,,,,,SCT,3300,BKN,4400,,,,,VFR,,,,,,,,,,,,METAR,9.0
KHIE 241852Z AUTO 08006KT 10SM SCT085 BKN120 18/13 A3022 RMK AO2 SLP238 T01780128,KHIE,2022-10-24T18:52:00Z,44.37,-71.55,17.8,12.8,80,6,,10.0,30.221457,1023.8,,TRUE,TRUE,,,,,,,SCT,8500,BKN,12000,,,,,VFR,,,,,,,,,,,,METAR,321.0
KGLS 241852Z 17013KT 10SM OVC065 27/21 A2985 RMK AO2 SLP108 T02670211,KGLS,2022-10-24T18:52:00Z,29.27,-94.87,26.7,21.1,170,13,,10.0,29.84941,1010.8,,,TRUE,,,,,,,OVC,6500,,,,,,,VFR,,,,,,,,,,,,METAR,2.0
KFIT 241852Z AUTO 33004KT 6SM -RA BR OVC006 14/13 A3024 RMK AO2 RAB02E11B41 CIG 004V009 SLP240 P0000 T01390128,KFIT,2022-10-24T18:52:00Z,42.55,-71.75,13.9,12.8,330,4,,6.0,30.239174,1024.0,,TRUE,TRUE,,,,,,-RA BR,OVC,600,,,,,,,IFR,,,,,,0.005,,,,,,METAR,102.0
KEST 241852Z AUTO 24010KT 10SM SCT075 OVC095 08/02 A2972 RMK AO2 RAB31E49 SLP062 P0000 T00830022,KEST,2022-10-24T18:52:00Z,43.4,-94.75,8.3,2.2,240,10,,10.0,29.719488,1006.2,,TRUE,TRUE,,,,,,,SCT,7500,OVC,9500,,,,,VFR,,,,,,0.005,,,,,,METAR,401.0
KDVN 241852Z AUTO 15008G17KT 10SM FEW060 22/14 A2973 RMK AO2 SLP061 T02220144,KDVN,2022-10-24T18:52:00Z,41.62,-90.58,22.2,14.4,150,8,17,10.0,29.731298,1006.1,,TRUE,TRUE,,,,,,,FEW,6000,,,,,,,VFR,,,,,,,,,,,,METAR,227.0
KDPA 241852Z 16012G22KT 10SM CLR 22/13 A2982 RMK AO2 SLP094 T02220133,KDPA,2022-10-24T18:52:00Z,41.88,-88.25,22.2,13.3,160,12,22,10.0,29.819881,1009.4,,,TRUE,,,,,,,CLR,,,,,,,,VFR,,,,,,,,,,,,METAR,228.0
KDDC 241852Z AUTO 01024G31KT 10SM CLR 14/M03 A2980 RMK AO2 PK WND 02035/1841 SLP075 T01441028,KDDC,2022-10-24T18:52:00Z,37.77,-99.97,14.4,-2.8,10,24,31,10.0,29.799213,1007.5,,TRUE,TRUE,,,,,,,CLR,,,,,,,,VFR,,,,,,,,,,,,METAR,786.0
KDCA 241852Z 36009KT 10SM OVC019 18/13 A3013 RMK AO2 SLP202 T01780133,KDCA,2022-10-24T18:52:00Z,38.85,-77.03,17.8,13.3,360,9,,10.0,30.129921,1020.2,,,TRUE,,,,,,,OVC,1900,,,,,,,MVFR,,,,,,,,,,,,METAR,4.0
KCWF 241852Z 18020G26KT 10SM BKN047 29/19 A2990,KCWF,2022-10-24T18:52:00Z,30.22,-93.15,29.0,19.0,180,20,26,10.0,29.899607,,,,,,,,,,,BKN,4700,,,,,,,VFR,,,,,,,,,,,,METAR,4.0
KCVG 241852Z 18010KT 10SM FEW250 OVC300 24/05 A3005 RMK AO2 SLP169 T02390050,KCVG,2022-10-24T18:52:00Z,39.05,-84.67,23.9,5.0,180,10,,10.0,30.050198,1016.9,,,TRUE,,,,,,,FEW,25000,OVC,30000,,,,,VFR,,,,,,,,,,,,METAR,264.0
KCQX 241852Z AUTO 00000KT 10SM OVC003 19/17 A3020 RMK AO2 SLP229 T01890172,KCQX,2022-10-24T18:52:00Z,41.68,-70.0,18.9,17.2,0,0,,10.0,30.200787,1022.9,,TRUE,TRUE,,,,,,,OVC,300,,,,,,,LIFR,,,,,,,,,,,,SPECI,17.0
KCLT 241852Z 00000KT 10SM FEW250 22/09 A3014 RMK SLP204 T02220094,KCLT,2022-10-24T18:52:00Z,35.22,-80.95,22.2,9.4,0,0,,10.0,30.138779,1020.4,,,,,,,,,,FEW,25000,,,,,,,VFR,,,,,,,,,,,,METAR,223.0
KCKV 241852Z AUTO 18010G19KT 10SM CLR 27/07 A3000 RMK AO2 SLP153 T02670067,KCKV,2022-10-24T18:52:00Z,36.62,-87.42,26.7,6.7,180,10,19,10.0,30.0,1015.3,,TRUE,TRUE,,,,,,,CLR,,,,,,,,VFR,,,,,,,,,,,,METAR,166.0
KCID 241852Z 16010KT 10SM BKN034 BKN047 BKN065 23/15 A2965 RMK AO2 SLP034 T02280150,KCID,2022-10-24T18:52:00Z,41.88,-91.72,22.8,15.0,160,10,,10.0,29.648623,1003.4,,,TRUE,,,,,,,BKN,3400,BKN,4700,BKN,6500,,,VFR,,,,,,,,,,,,METAR,257.0
KBLU 241852Z AUTO 28006KT 10SM CLR 12/M10 A3028 RMK AO2 SLP223 T01221100,KBLU,2022-10-24T18:52:00Z,39.28,-120.7,12.2,-10.0,280,6,,10.0,30.280512,1022.3,,TRUE,TRUE,,,,,,,CLR,,,,,,,,VFR,,,,,,,,,,,,METAR,1605.0
KBLH 241852Z AUTO 36010G23KT 10SM CLR 22/M09 A3019 RMK AO2 SLP219 T02171089 TSNO,KBLH,2022-10-24T18:52:00Z,33.62,-114.72,21.7,-8.9,360,10,23,10.0,30.188976,1021.9,,TRUE,TRUE,,,TRUE,,,,CLR,,,,,,,,VFR,,,,,,,,,,,,METAR,119.0
KBLF 241852Z AUTO VRB04KT 10SM CLR 21/03 A3017 RMK AO2 SLP198 T02110028,KBLF,2022-10-24T18:52:00Z,37.3,-81.2,21.1,2.8,0,4,,10.0,30.171259,1019.8,,TRUE,TRUE,,,,,,,CLR,,,,,,,,VFR,,,,,,,,,,,,METAR,871.0
KBKB 241852Z AUTO 16007KT 080V210 10SM SCT040 BKN049 OVC080 28/18 A2987 RMK AO2 SLP139 T02780178,KBKB,2022-10-24T18:52:00Z,31.02,-92.92,27.8,17.8,160,7,,10.0,29.870079,1013.9,,TRUE,TRUE,,,,,,,SCT,4000,BKN,4900,OVC,8000,,,VFR,,,,,,,,,,,,METAR,74.0
KBIS 241852Z 29014G28KT 9SM OVC017 02/M01 A2954 RMK AO2 PK WND 27029/1756 UPB03E20SNE03 SLP015 P0001 T00171006,KBIS,2022-10-24T18:52:00Z,46.77,-100.75,1.7,-0.6,290,14,28,9.0,29.53937,1001.5,,,TRUE,,,,,,,OVC,1700,,,,,,,MVFR,,,,,,0.01,,,,,,SPECI,506.0
KBDR 241852Z 03006KT 10SM OVC007 15/14 A3015 RMK AO2 RAE29 SLP210 P0008 T01500144,KBDR,2022-10-24T18:52:00Z,41.17,-73.13,15.0,14.4,30,6,,10.0,30.15059,1021.0,,,TRUE,,,,,,,OVC,700,,,,,,,IFR,,,,,,0.08,,,,,,METAR,5.0
KBAN 241852Z AUTO 00000KT 10SM CLR 14/M14 A3024 RMK AO2 SLP230 T01391139 $,KBAN,2022-10-24T18:52:00Z,38.35,-119.52,13.9,-13.9,0,0,,10.0,30.239174,1023.0,,TRUE,TRUE,TRUE,,,,,,CLR,,,,,,,,VFR,,,,,,,,,,,,METAR,2067.0
KATL 241852Z 19005KT 10SM FEW250 24/10 A3013 RMK AO2 SLP199 T02440100 $,KATL,2022-10-24T18:52:00Z,33.63,-84.45,24.4,10.0,190,5,,10.0,30.129921,1019.9,,,TRUE,TRUE,,,,,,FEW,25000,,,,,,,VFR,,,,,,,,,,,,METAR,309.0
KARR 241852Z 16013G23KT 10SM CLR 23/13 A2981 RMK AO2 PK WND 13027/1755 SLP092 T02280128,KARR,2022-10-24T18:52:00Z,41.77,-88.48,22.8,12.8,160,13,23,10.0,29.811024,1009.2,,,TRUE,,,,,,,CLR,,,,,,,,VFR,,,,,,,,,,,,METAR,213.0
KAQW 241852Z AUTO VRB03KT 10SM BKN020 OVC045 16/14 A3020 RMK AO2 RAE50 SLP229 P0007 T01560144,KAQW,2022-10-24T18:52:00Z,42.7,-73.17,15.6,14.4,0,3,,10.0,30.200787,1022.9,,TRUE,TRUE,,,,,,,BKN,2000,OVC,4500,,,,,MVFR,,,,,,0.07,,,,,,SPECI,196.0
KALS 241852Z AUTO 36012G25KT 10SM FEW065 06/M12 A2990 RMK AO2 PK WND 36026/1826 SLP120 T00561122 $,KALS,2022-10-24T18:52:00Z,37.43,-105.87,5.6,-12.2,360,12,25,10.0,29.899607,1012.0,,TRUE,TRUE,TRUE,,,,,,FEW,6500,,,,,,,VFR,,,,,,,,,,,,METAR,2299.0
KAFN 241852Z AUTO VRB03KT 6SM RA BR OVC003 13/12 A3024 RMK AO2 SLP247 P0005 T01330122,KAFN,2022-10-24T18:52:00Z,42.8,-72.0,13.3,12.2,0,3,,6.0,30.239174,1024.7,,TRUE,TRUE,,,,,,RA BR,OVC,300,,,,,,,LIFR,,,,,,0.05,,,,,,METAR,308.0
KABQ 241852Z 31020G32KT 10SM SCT043 SCT100 08/M03 A2995 RMK AO2 PK WND 32032/1852 SLP114 MTN TOPS OBSC NE AND SE T00831028,KABQ,2022-10-24T18:52:00Z,35.05,-106.62,8.3,-2.8,310,20,32,10.0,29.949802,1011.4,,,TRUE,,,,,,,SCT,4300,SCT,10000,,,,,VFR,,,,,,,,,,,,METAR,1620.0
KABI 241852Z 17007KT 10SM BKN085 BKN110 21/14 A2974 RMK AO2 SLP049 T02110144,KABI,2022-10-24T18:52:00Z,32.42,-99.68,21.1,14.4,170,7,,10.0,29.740158,1004.9,,,TRUE,,,,,,,BKN,8500,BKN,11000,,,,,VFR,,,,,,,,,,,,METAR,543.0
PHBK 241851Z AUTO 00000KT 10SM FEW060 OVC080 28/16 A3005 RMK AO2 SLP177 T02830161,PHBK,2022-10-24T18:51:00Z,22.03,-159.78,28.3,16.1,0,0,,10.0,30.050198,1017.7,,TRUE,TRUE,,,,,,,FEW,6000,OVC,8000,,,,,VFR,,,,,,,,,,,,METAR,5.0
PAMD 241851Z AUTO 34007KT 10SM CLR 06/M04 A2970 RMK AO2 SLP045 T00561039 PNO $,PAMD,2022-10-24T18:51:00Z,59.43,-146.3,5.6,-3.9,340,7,,10.0,29.698818,1004.5,,TRUE,TRUE,TRUE,,,,,,CLR,,,,,,,,VFR,,,,,,,,,,,,METAR,20.0
OIAI 241851Z 14004KT CAVOK 26/06 Q1012,OIAI,2022-10-24T18:51:00Z,32.0,49.27,26.0,6.0,140,4,,6.21,29.88189,,,,,,,,,,,CAVOK,,,,,,,,VFR,,,,,,,,,,,,METAR,357.0
MUGM 241851Z 12007KT 10SM FEW030 FEW250 31/24 A2989 RMK SLP122 SHRA DSNT N AND NE T03060239,MUGM,2022-10-24T18:51:00Z,19.9,-75.2,30.6,23.9,120,7,,10.0,29.890747,1012.2,,,,,,,,,,FEW,3000,FEW,25000,,,,,VFR,,,,,,,,,,,,SPECI,21.0
MMDO 241851Z 25012KT 9SM SCT200 24/02 A3018 RMK 8/001 HZY,MMDO,2022-10-24T18:51:00Z,24.12,-104.52,24.0,2.0,250,12,,9.0,30.180119,,,,,,,,,,,SCT,20000,,,,,,,VFR,,,,,,,,,,,,METAR,1863.0
KYNG 241851Z 19006KT 10SM FEW250 23/06 A3011 RMK AO2 SLP194 T02280061,KYNG,2022-10-24T18:51:00Z,41.25,-80.67,22.8,6.1,190,6,,10.0,30.109253,1019.4,,,TRUE,,,,,,,FEW,25000,,,,,,,VFR,,,,,,,,,,,,METAR,356.0
KVNY 241851Z 00000KT 10SM CLR 23/M01 A3015 RMK AO2 SLP202 T02331006 $,KVNY,2022-10-24T18:51:00Z,34.22,-118.48,23.3,-0.6,0,0,,10.0,30.15059,1020.2,,,TRUE,TRUE,,,,,,CLR,,,,,,,,VFR,,,,,,,,,,,,METAR,241.0
KVCT 241851Z 16020G28KT 9SM BKN028 OVC033 28/21 A2977 RMK AO2 PK WND 16030/1800 SLP080 T02780211,KVCT,2022-10-24T18:51:00Z,28.87,-96.93,27.8,21.1,160,20,28,9.0,29.769686,1008.0,,,TRUE,,,,,,,BKN,2800,OVC,3300,,,,,MVFR,,,,,,,,,,,,METAR,33.0
KTPL 241851Z AUTO 18015KT 10SM OVC015 24/22 A2975 RMK AO2 SLP062 T02440222,KTPL,2022-10-24T18:51:00Z,31.15,-97.4,24.4,22.2,180,15,,10.0,29.749016,1006.2,,TRUE,TRUE,,,,,,,OVC,1500,,,,,,,MVFR,,,,,,,,,,,,METAR,206.0
KSTL 241851Z 17014G28KT 10SM SCT037 BKN085 BKN250 24/14 A2982 RMK AO2 PK WND 17028/1843 SLP088 T02390144 $,KSTL,2022-10-24T18:51:00Z,38.75,-90.37,23.9,14.4,170,14,28,10.0,29.819881,1008.8,,,TRUE,TRUE,,,,,,SCT,3700,BKN,8500,BKN,25000,,,VFR,,,,,,,,,,,,METAR,163.0
KSNT 241851Z AUTO 33005KT M01/M07 A3009 RMK AO1 SLP195 T10111067,KSNT,2022-10-24T18:51:00Z,44.17,-114.93,-1.1,-6.7,330,5,,,30.088583,1019.5,,TRUE,TRUE,,,,,,,,,,,,,,,,,,,,,,,,,,,METAR,1980.0
KSMX 241851Z 15003KT 10SM CLR 20/01 A3018 RMK AO2 SLP222 T02000006,KSMX,2022-10-24T18:51:00Z,34.9,-120.45,20.0,0.6,150,3,,10.0,30.180119,1022.2,,,TRUE,,,,,,,CLR,,,,,,,,VFR,,,,,,,,,,,,METAR,73.0
KSMO 241851Z 18005KT 10SM CLR 22/M04 A3015 RMK AO2 SLP210 T02221039,KSMO,2022-10-24T18:51:00Z,34.02,-118.45,22.2,-3.9,180,5,,10.0,30.15059,1021.0,,,TRUE,,,,,,,CLR,,,,,,,,VFR,,,,,,,,,,,,METAR,56.0
KSLK 241851Z AUTO 09007KT 10SM CLR 20/13 A3017 RMK AO2 SLP220 T02000128,KSLK,2022-10-24T18:51:00Z,44.4,-74.2,20.0,12.8,90,7,,10.0,30.171259,1022.0,,TRUE,TRUE,,,,,,,CLR,,,,,,,,VFR,,,,,,,,,,,,METAR,502.0
KSJT 241851Z 16009KT 10SM BKN038 26/14 A2973 RMK AO2 SLP045 T02560144,KSJT,2022-10-24T18:51:00Z,31.37,-100.5,25.6,14.4,160,9,,10.0,29.731298,1004.5,,,TRUE,,,,,,,BKN,3800,,,,,,,VFR,,,,,,,,,,,,METAR,582.0
KSAT 241851Z 17011KT 10SM SCT027 BKN033 OVC044 28/21 A2975 RMK AO2 SLP056 T02780206,KSAT,2022-10-24T18:51:00Z,29.53,-98.48,27.8,20.6,170,11,,10.0,29.749016,1005.6,,,TRUE,,,,,,,SCT,2700,BKN,3300,OVC,4400,,,VFR,,,,,,,,,,,,METAR,246.0
KSAN 241851Z VRB06KT 10SM CLR 23/07 A3015 RMK AO2 SLP208 T02280072,KSAN,2022-10-24T18:51:00Z,32.73,-117.18,22.8,7.2,0,6,,10.0,30.15059,1020.8,,,TRUE,,,,,,,CLR,,,,,,,,VFR,,,,,,,,,,,,METAR,3.0
KSAD 241851Z AUTO 27017G27KT 10SM CLR 14/M02 A3007 RMK AO2 PK WND 26027/1848 SLP162 T01441022,KSAD,2022-10-24T18:51:00Z,32.85,-109.63,14.4,-2.2,270,17,27,10.0,30.070866,1016.2,,TRUE,TRUE,,,,,,,CLR,,,,,,,,VFR,,,,,,,,,,,,METAR,937.0
KROW 241851Z 32013G22KT 10SM FEW035 BKN048 BKN055 13/05 A2984 RMK AO2 SLP060 T01330050,KROW,2022-10-24T18:51:00Z,33.3,-104.5,13.3,5.0,320,13,22,10.0,29.840551,1006.0,,,TRUE,,,,,,,FEW,3500,BKN,4800,BKN,5500,,,VFR,,,,,,,,,,,,METAR,1105.0
KRDU 241851Z 01005KT 10SM FEW045 FEW250 24/12 A3011 RMK AO2 SLP195 T02390122 $,KRDU,2022-10-24T18:51:00Z,35.9,-78.78,23.9,12.2,10,5,,10.0,30.109253,1019.5,,,TRUE,TRUE,,,,,,FEW,4500,FEW,25000,,,,,VFR,,,,,,,,,,,,METAR,121.0
KPIT 241851Z 00000KT 10SM FEW250 22/04 A3012 RMK AO2 SLP204 T02220044,KPIT,2022-10-24T18:51:00Z,40.47,-80.2,22.2,4.4,0,0,,10.0,30.121063,1020.4,,,TRUE,,,,,,,FEW,25000,,,,,,,VFR,,,,,,,,,,,,SPECI,339.0
KPHX 241851Z 22007KT 10SM CLR 19/M06 A3011 RMK AO2 SLP184 T01891061 $,KPHX,2022-10-24T18:51:00Z,33.43,-112.02,18.9,-6.1,220,7,,10.0,30.109253,1018.4,,,TRUE,TRUE,,,,,,CLR,,,,,,,,VFR,,,,,,,,,,,,METAR,338.0
KP59 241851Z AUTO 20012G28KT 17/12 A2959 RMK AO1 PK WND 21028/1847 SLP018 T01720122,KP59,2022-10-24T18:51:00Z,47.47,-87.88,17.2,12.2,200,12,28,,29.589567,1001.8,,TRUE,TRUE,,,,,,,,,,,,,,,,,,,,,,,,,,,METAR,185.0
KOXR 241851Z 08011KT 10SM CLR 24/M06 A3015 RMK AO2 PK WND 06027/1752 SLP209 T02391056,KOXR,2022-10-24T18:51:00Z,34.2,-119.2,23.9,-5.6,80,11,,10.0,30.15059,1020.9,,,TRUE,,,,,,,CLR,,,,,,,,VFR,,,,,,,,,,,,METAR,12.0
KOXC 241851Z 03007KT 10SM -RA OVC003 14/13 A3016 RMK AO2 RAB39 SLP228 T01390133,KOXC,2022-10-24T18:51:00Z,41.47,-73.13,13.9,13.3,30,7,,10.0,30.159449,1022.8,,,TRUE,,,,,,-RA,OVC,300,,,,,,,LIFR,,,,,,,,,,,,METAR,211.0
KOUN 241851Z 33009KT 10SM OVC010 13/12 A2974,KOUN,2022-10-24T18:51:00Z,35.25,-97.47,13.0,12.0,330,9,,10.0,29.740158,,,,,,,,,,,OVC,1000,,,,,,,MVFR,,,,,,,,,,,,SPECI,359.0
KORD 241851Z 17014G23KT 10SM BKN220 OVC250 23/13 A2982 RMK AO2 SLP094 T02330128,KORD,2022-10-24T18:51:00Z,41.95,-87.93,23.3,12.8,170,14,23,10.0,29.819881,1009.4,,,TRUE,,,,,,,BKN,22000,OVC,25000,,,,,VFR,,,,,,,,,,,,METAR,202.0
KOCF 241851Z 01006KT 10SM FEW043 BKN060 27/17 A3008 RMK AO2 SLP187 T02670167 PNO $,KOCF,2022-10-24T18:51:00Z,29.17,-82.22,26.7,16.7,10,6,,10.0,30.079725,1018.7,,,TRUE,TRUE,,,,,,FEW,4300,BKN,6000,,,,,VFR,,,,,,,,,,,,METAR,24.0
KMPV 241851Z AUTO 00000KT 10SM OVC012 16/11 A3028 RMK AO2 SLP257 T01560111,KMPV,2022-10-24T18:51:00Z,44.2,-72.57,15.6,11.1,0,0,,10.0,30.280512,1025.7,,TRUE,TRUE,,,,,,,OVC,1200,,,,,,,MVFR,,,,,,,,,,,,METAR,336.0
KLGU 241851Z AUTO 00000KT 10SM FEW039 FEW046 04/M04 A3020 RMK AO2 SLP233 T00391039,KLGU,2022-10-24T18:51:00Z,41.78,-111.85,3.9,-3.9,0,0,,10.0,30.200787,1023.3,,TRUE,TRUE,,,,,,,FEW,3900,FEW,4600,,,,,VFR,,,,,,,,,,,,METAR,1359.0
KJFK 241851Z 04008KT 10SM OVC009 17/15 A3015 RMK AO2 SLP208 T01720150,KJFK,2022-10-24T18:51:00Z,40.63,-73.77,17.2,15.0,40,8,,10.0,30.15059,1020.8,,,TRUE,,,,,,,OVC,900,,,,,,,IFR,,,,,,,,,,,,METAR,3.0
KJCT 241851Z AUTO VRB04KT 10SM FEW035 28/19 A2974 RMK AO2 SLP033 T02830189,KJCT,2022-10-24T18:51:00Z,30.5,-99.77,28.3,18.9,0,4,,10.0,29.740158,1003.3,,TRUE,TRUE,,,,,,,FEW,3500,,,,,,,VFR,,,,,,,,,,,,METAR,522.0
KIGM 241851Z AUTO 02006KT 10SM CLR 13/M07 A3023 RMK AO2 SLP202 T01331067,KIGM,2022-10-24T18:51:00Z,35.25,-113.93,13.3,-6.7,20,6,,10.0,30.230314,1020.2,,TRUE,TRUE,,,,,,,CLR,,,,,,,,VFR,,,,,,,,,,,,METAR,1045.0
KHTS 241851Z 00000KT 10SM CLR 25/03 A3009 RMK AO2 SLP186 T02500033,KHTS,2022-10-24T18:51:00Z,38.37,-82.55,25.0,3.3,0,0,,10.0,30.088583,1018.6,,,TRUE,,,,,,,CLR,,,,,,,,VFR,,,,,,,,,,,,METAR,252.0
KHSE 241851Z AUTO VRB03KT 10SM OVC007 16/14 A3011 RMK AO2 SLP195 T01560144,KHSE,2022-10-24T18:51:00Z,35.23,-75.62,15.6,14.4,0,3,,10.0,30.109253,1019.5,,TRUE,TRUE,,,,,,,OVC,700,,,,,,,IFR,,,,,,,,,,,,METAR,4.0
KHDO 241851Z AUTO 17006KT 10SM FEW028 SCT039 29/21 A2974 RMK AO2 SLP055 T02890211,KHDO,2022-10-24T18:51:00Z,29.37,-99.17,28.9,21.1,170,6,,10.0,29.740158,1005.5,,TRUE,TRUE,,,,,,,FEW,2800,SCT,3900,,,,,VFR,,,,,,,,,,,,METAR,280.0
KEWR 241851Z 01008KT 5SM BR OVC006 16/14 A3014 RMK AO2 SLP204 T01610144,KEWR,2022-10-24T18:51:00Z,40.68,-74.17,16.1,14.4,10,8,,5.0,30.138779,1020.4,,,TRUE,,,,,,BR,OVC,600,,,,,,,IFR,,,,,,,,,,,,METAR,2.0
KERI 241851Z 04006KT 10SM R06/2000VP6000FT CLR 22/10 A3009 RMK AO2 SLP189 T02170100,KERI,2022-10-24T18:51:00Z,42.08,-80.18,21.7,10.0,40,6,,10.0,30.088583,1018.9,,,TRUE,,,,,,,CLR,,,,,,,,VFR,,,,,,,,,,,,METAR,222.0
KELP 241851Z 30022G33KT 10SM FEW055 FEW085 SCT110 16/M04 A2997 RMK AO2 PK WND 30035/1830 SLP100 SHRA DSNT N-NE AND S T01561039,KELP,2022-10-24T18:51:00Z,31.82,-106.35,15.6,-3.9,300,22,33,10.0,29.970472,1010.0,,,TRUE,,,,,,,FEW,5500,FEW,8500,SCT,11000,,,VFR,,,,,,,,,,,,METAR,1205.0
KEKN 241851Z AUTO 00000KT 10SM CLR 23/01 A3014 RMK AO2 SLP212 T02330011,KEKN,2022-10-24T18:51:00Z,38.88,-79.85,23.3,1.1,0,0,,10.0,30.138779,1021.2,,TRUE,TRUE,,,,,,,CLR,,,,,,,,VFR,,,,,,,,,,,,METAR,596.0
KDAW 241851Z AUTO 01003KT 10SM -RA OVC006 15/13 A3024 RMK AO2 RAB11 SLP238 P0000 T01500133,KDAW,2022-10-24T18:51:00Z,43.28,-70.92,15.0,13.3,10,3,,10.0,30.239174,1023.8,,TRUE,TRUE,,,,,,-RA,OVC,600,,,,,,,IFR,,,,,,0.005,,,,,,METAR,100.0
KCSG 241851Z 17008KT 10SM CLR 26/13 A3010 RMK AO2 SLP190 T02560128,KCSG,2022-10-24T18:51:00Z,32.52,-84.95,25.6,12.8,170,8,,10.0,30.100393,1019.0,,,TRUE,,,,,,,CLR,,,,,,,,VFR,,,,,,,,,,,,METAR,120.0
KCRP 241851Z 17023G29KT 10SM SCT029 BKN033 BKN040 BKN160 BKN250 31/23 A2974 RMK AO2 PK WND 17030/1804 SLP069 T03110233,KCRP,2022-10-24T18:51:00Z,27.77,-97.5,31.1,23.3,170,23,29,10.0,29.740158,1006.9,,,TRUE,,,,,,,SCT,2900,BKN,3300,BKN,4000,BKN,16000,VFR,,,,,,,,,,,,METAR,11.0
KCMH 241851Z 17007KT 10SM SCT250 24/06 A3007 RMK AO2 SLP181 T02440061 $,KCMH,2022-10-24T18:51:00Z,40.0,-82.88,24.4,6.1,170,7,,10.0,30.070866,1018.1,,,TRUE,TRUE,,,,,,SCT,25000,,,,,,,VFR,,,,,,,,,,,,METAR,257.0
KCLE 241851Z 19009KT 10SM FEW250 24/07 A3006 RMK AO2 SLP191 T02440067,KCLE,2022-10-24T18:51:00Z,41.42,-81.85,24.4,6.7,190,9,,10.0,30.059055,1019.1,,,TRUE,,,,,,,FEW,25000,,,,,,,VFR,,,,,,,,,,,,SPECI,237.0
KCDJ 241851Z AUTO 13/13 A2968 RMK AO1 SLP045 P0047 T01330128,KCDJ,2022-10-24T18:51:00Z,39.82,-93.57,13.3,12.8,,,,,29.681103,1004.5,,TRUE,TRUE,,,,,,,,,,,,,,,,,,,,,0.47,,,,,,METAR,234.0
KCAK 241851Z 16007KT 10SM FEW250 24/06 A3009 RMK AO2 SLP187 T02440061,KCAK,2022-10-24T18:51:00Z,40.92,-81.45,24.4,6.1,160,7,,10.0,30.088583,1018.7,,,TRUE,,,,,,,FEW,25000,,,,,,,VFR,,,,,,,,,,,,METAR,369.0
KBKW 241851Z AUTO 00000KT 10SM CLR 22/02 A3016 RMK AO2 SLP195 T02170022,KBKW,2022-10-24T18:51:00Z,37.8,-81.12,21.7,2.2,0,0,,10.0,30.159449,1019.5,,TRUE,TRUE,,,,,,,CLR,,,,,,,,VFR,,,,,,,,,,,,METAR,762.0
KBHK 241851Z AUTO 30023G32KT 10SM OVC013 00/M02 A2971 RMK AO2 PK WND 30037/1828 SLP083 T00001022,KBHK,2022-10-24T18:51:00Z,46.35,-104.25,0.0,-2.2,300,23,32,10.0,29.71063,1008.3,,TRUE,TRUE,,,,,,,OVC,1300,,,,,,,MVFR,,,,,,,,,,,,METAR,904.0
KBED 241851Z 35004KT 5SM BR OVC006 15/14 A3022 RMK AO2 SLP245 T01500139,KBED,2022-10-24T18:51:00Z,42.47,-71.3,15.0,13.9,350,4,,5.0,30.221457,1024.5,,,TRUE,,,,,,BR,OVC,600,,,,,,,IFR,,,,,,,,,,,,METAR,39.0
KBAZ 241851Z 19014KT 10SM FEW028 BKN049 OVC055 28/21 A2974 RMK AO2 SLP062 T02830211,KBAZ,2022-10-24T18:51:00Z,29.72,-98.05,28.3,21.1,190,14,,10.0,29.740158,1006.2,,,TRUE,,,,,,,FEW,2800,BKN,4900,OVC,5500,,,VFR,,,,,,,,,,,,METAR,199.0
KAVX 241851Z AUTO VRB06KT 10SM CLR 19/M03 A3019 RMK AO2 SLP207 T01941033,KAVX,2022-10-24T18:51:00Z,33.4,-118.42,19.4,-3.3,0,6,,10.0,30.188976,1020.7,,TRUE,TRUE,,,,,,,CLR,,,,,,,,VFR,,,,,,,,,,,,METAR,482.0
KATT 241851Z AUTO VRB04KT 10SM FEW024 SCT038 SCT070 27/24 A2975 RMK AO2 RAB27E41 SLP061 P0000 T02720239,KATT,2022-10-24T18:51:00Z,30.32,-97.77,27.2,23.9,0,4,,10.0,29.749016,1006.1,,TRUE,TRUE,,,,,,,FEW,2400,SCT,3800,SCT,7000,,,VFR,,,,,,0.005,,,,,,METAR,203.0
KAHN 241851Z 00000KT 10SM CLR 25/08 A3014 RMK AO2 SLP203 T02500078,KAHN,2022-10-24T18:51:00Z,33.95,-83.33,25.0,7.8,0,0,,10.0,30.138779,1020.3,,,TRUE,,,,,,,CLR,,,,,,,,VFR,,,,,,,,,,,,METAR,241.0
K6R6 241851Z AUTO VRB04KT 26/15 A2977 RMK AO1 SLP049 T02560150,K6R6,2022-10-24T18:51:00Z,30.05,-102.22,25.6,15.0,0,4,,,29.769686,1004.9,,TRUE,TRUE,,,,,,,,,,,,,,,,,,,,,,,,,,,METAR,702.0
TJBQ 241850Z 06007KT 10SM SCT028 BKN032 29/23 A2991,TJBQ,2022-10-24T18:50:00Z,18.5,-67.13,29.0,23.0,60,7,,10.0,29.911417,,,,,,,,,,,SCT,2800,BKN,3200,,,,,VFR,,,,,,,,,,,,METAR,69.0
SFAL 241850Z 20017KT 9999 FEW013 SCT090 08/06 Q0998 TEMPO SCT013,SFAL,2022-10-24T18:50:00Z,-51.68,-57.77,8.0,6.0,200,17,,6.21,29.468504,,,,,,,,,,,FEW,1300,SCT,9000,,,,,VFR,,,,,,,,,,,,SPECI,23.0
PTYA 241850Z VRB06KT 12SM SCT016CB BKN120 OVC300 26/25 A2972 RMK CB ALQDS SLP066 T02580252,PTYA,2022-10-24T18:50:00Z,9.48,138.08,25.8,25.2,0,6,,12.0,29.719488,1006.6,,,,,,,,,,SCT,1600,BKN,12000,OVC,30000,,,VFR,,,,,,,,,,,,METAR,4.0
PALJ 241850Z 00000KT 20SM BKN040 02/M01 A2988 RMK EST PASS CLSD NOSPECI,PALJ,2022-10-24T18:50:00Z,60.2,-154.3,2.0,-1.0,0,0,,20.0,29.878937,,,,,,,,,,,BKN,4000,,,,,,,VFR,,,,,,,,,,,,METAR,88.0
PAEL 241850Z 00000KT 20SM FEW025 BKN040 05/02 A2962 RMK SEA 0 SWELL 3 SW NOSPECI,PAEL,2022-10-24T18:50:00Z,58.2,-136.35,5.0,2.0,0,0,,20.0,29.619095,,,,,,,,,,,FEW,2500,BKN,4000,,,,,VFR,,,,,,,,,,,,METAR,8.0
OOSH 241850Z AUTO 30003KT //// ////// 28/13 Q1011 RMK 1007,OOSH,2022-10-24T18:50:00Z,24.38,56.62,28.0,13.0,300,3,,,29.852362,,,TRUE,,,,,,,,,,,,,,,,,,,,,,,,,,,,METAR,35.0
OOSA 241850Z 36003KT 9999 SCT025 27/22 Q1014 NOSIG,OOSA,2022-10-24T18:50:00Z,17.03,54.1,27.0,22.0,360,3,,6.21,29.940945,,,,,,TRUE,,,,,SCT,2500,,,,,,,VFR,,,,,,,,,,,,METAR,20.0
OOMS 241850Z 25002KT CAVOK 27/09 Q1011 NOSIG,OOMS,2022-10-24T18:50:00Z,23.58,58.28,27.0,9.0,250,2,,6.21,29.852362,,,,,,TRUE,,,,,CAVOK,,,,,,,,VFR,,,,,,,,,,,,METAR,8.0
OOKB 241850Z AUTO 23005KT 190V280 CAVOK 32/07 Q1011 NOSIG,OOKB,2022-10-24T18:50:00Z,26.17,56.23,32.0,7.0,230,5,,6.21,29.852362,,,TRUE,,,TRUE,,,,,CAVOK,,,,,,,,VFR,,,,,,,,,,,,METAR,30.0
OODQ 241850Z AUTO 19006KT CAVOK ////// 23/21 Q1013 NOSIG RMK RH88? 0,OODQ,2022-10-24T18:50:00Z,19.52,57.65,23.0,21.0,190,6,,6.21,29.911417,,,TRUE,,,TRUE,,,,,CAVOK,,,,,,,,VFR,,,,,,,,,,,,METAR,116.0
OOAD 241850Z AUTO 19003KT 9999 R31///// // NCD 27/06 Q1014 NOSIG,OOAD,2022-10-24T18:50:00Z,22.5,57.37,27.0,6.0,190,3,,6.21,29.940945,,,TRUE,,,TRUE,,,,,CLR,,,,,,,,VFR,,,,,,,,,,,,METAR,327.0
NSTU 241850Z 00000KT 5SM SHRA SCT015TCU BKN035 OVC100 24/24 A2985 RMK TCU ALQDS SLP110 T02440242,NSTU,2022-10-24T18:50:00Z,-14.33,-170.72,24.4,24.2,0,0,,5.0,29.84941,1011.0,,,,,,,,,SHRA,SCT,1500,BKN,3500,OVC,10000,,,MVFR,,,,,,,,,,,,METAR,8.0
MUVR 241850Z 04012KT 9000 FEW020 BKN070 28/22 Q1015,MUVR,2022-10-24T18:50:00Z,23.03,-81.43,28.0,22.0,40,12,,5.59,29.970472,,,,,,,,,,,FEW,2000,BKN,7000,,,,,VFR,,,,,,,,,,,,METAR,65.0
MUSC 241850Z 05010KT 020V080 9000 BKN025 29/21 Q1015,MUSC,2022-10-24T18:50:00Z,22.5,-79.92,29.0,21.0,50,10,,5.59,29.970472,,,,,,,,,,,BKN,2500,,,,,,,MVFR,,,,,,,,,,,,METAR,97.0
MUHG 241850Z 02009KT 340V050 9999 FEW039TCU SCT045 30/22 Q1013,MUHG,2022-10-24T18:50:00Z,20.78,-76.32,30.0,22.0,20,9,,6.21,29.911417,,,,,,,,,,,FEW,3900,SCT,4500,,,,,VFR,,,,,,,,,,,,METAR,100.0
MUHA 241850Z 06012KT 020V090 9000 SCT030 29/21 Q1015,MUHA,2022-10-24T18:50:00Z,22.98,-82.42,29.0,21.0,60,12,,5.59,29.970472,,,,,,,,,,,SCT,3000,,,,,,,VFR,,,,,,,,,,,,METAR,61.0
MUCU 241850Z 16006KT 120V200 9000 SCT020 30/21 Q1012,MUCU,2022-10-24T18:50:00Z,19.97,-75.83,30.0,21.0,160,6,,5.59,29.88189,,,,,,,,,,,SCT,2000,,,,,,,VFR,,,,,,,,,,,,METAR,70.0
MUCM 241850Z 05010KT 9000 SCT020 31/22 Q1013,MUCM,2022-10-24T18:50:00Z,21.42,-77.85,31.0,22.0,50,10,,5.59,29.911417,,,,,,,,,,,SCT,2000,,,,,,,VFR,,,,,,,,,,,,METAR,125.0
MUCL 241850Z 01006KT 310V060 9000 SCT020 30/24 Q1014,MUCL,2022-10-24T18:50:00Z,21.63,-81.55,30.0,24.0,10,6,,5.59,29.940945,,,,,,,,,,,SCT,2000,,,,,,,VFR,,,,,,,,,,,,METAR,5.0
MUCF 241850Z 06005KT 030V100 9999 BKN025 29/22 Q1014,MUCF,2022-10-24T18:50:00Z,22.15,-80.4,29.0,22.0,60,5,,6.21,29.940945,,,,,,,,,,,BKN,2500,,,,,,,MVFR,,,,,,,,,,,,METAR,35.0
MUCC 241850Z 04012KT 9000 SCT020 30/23 Q1014,MUCC,2022-10-24T18:50:00Z,22.47,-78.33,30.0,23.0,40,12,,5.59,29.940945,,,,,,,,,,,SCT,2000,,,,,,,VFR,,,,,,,,,,,,METAR,7.0
MSSS 241850Z 15005KT 9999 SCT027 SCT040CB 28/21 Q1015 A2999,MSSS,2022-10-24T18:50:00Z,13.7,-89.12,28.0,21.0,150,5,,6.21,29.970472,,,,,,,,,,,SCT,2700,SCT,4000,,,,,VFR,,,,,,,,,,,,METAR,611.0
MSSM 241850Z 00000KT 9999 FEW030 34/24 Q1011 A2988,MSSM,2022-10-24T18:50:00Z,13.43,-88.12,34.0,24.0,0,0,,6.21,29.852362,,,,,,,,,,,FEW,3000,,,,,,,VFR,,,,,,,,,,,,METAR,92.0
MSSA 241850Z 08003KT 9999 FEW033 29/20 Q1017 A3004,MSSA,2022-10-24T18:50:00Z,13.97,-89.53,29.0,20.0,80,3,,6.21,30.029528,,,,,,,,,,,FEW,3300,,,,,,,VFR,,,,,,,,,,,,METAR,656.0
MSLU 241850Z 13004KT 9999 FEW030 31/25 Q1010 A2984,MSLU,2022-10-24T18:50:00Z,13.33,-87.88,31.0,25.0,130,4,,6.21,29.822834,,,,,,,,,,,FEW,3000,,,,,,,VFR,,,,,,,,,,,,METAR,5.0
MSLP 241850Z 19006KT 130V230 9999 VCSH SCT027 FEW033TCU FEW037CB 32/24 Q1011 A2986 NOSIG RMK TCU E CB NW,MSLP,2022-10-24T18:50:00Z,13.43,-89.05,32.0,24.0,190,6,,6.21,29.852362,,,,,,TRUE,,,,VCSH,SCT,2700,FEW,3300,FEW,3700,,,VFR,,,,,,,,,,,,METAR,25.0
MSAC 241850Z 16003KT 9999 SCT027 31/25 Q1011 A2986,MSAC,2022-10-24T18:50:00Z,13.57,-89.83,31.0,25.0,160,3,,6.21,29.852362,,,,,,,,,,,SCT,2700,,,,,,,VFR,,,,,,,,,,,,METAR,14.0
LTFO 241850Z 17009KT 6000 TSRA SCT015 FEW020CB BKN028 16/13 Q1024,LTFO,2022-10-24T18:50:00Z,41.18,40.85,16.0,13.0,170,9,,3.73,30.236221,,,,,,,,,,TSRA,SCT,1500,FEW,2000,BKN,2800,,,MVFR,,,,,,,,,,,,METAR,5.0
LTFH 241850Z 20003KT 9999 SCT030 12/11 Q1024 NOSIG,LTFH,2022-10-24T18:50:00Z,41.27,36.57,12.0,11.0,200,3,,6.21,30.236221,,,,,,TRUE,,,,,SCT,3000,,,,,,,VFR,,,,,,,,,,,,METAR,7.0
LTFG 241850Z 13006KT CAVOK 17/09 Q1018,LTFG,2022-10-24T18:50:00Z,36.3,32.3,17.0,9.0,130,6,,6.21,30.059055,,,,,,,,,,,CAVOK,,,,,,,,VFR,,,,,,,,,,,,METAR,26.0
LTFD 241850Z 03008KT CAVOK 16/08 Q1020,LTFD,2022-10-24T18:50:00Z,39.55,27.02,16.0,8.0,30,8,,6.21,30.11811,,,,,,,,,,,CAVOK,,,,,,,,VFR,,,,,,,,,,,,METAR,15.0
LTDA 241850Z 20004KT 140V230 CAVOK 18/08 Q1016 NOSIG,LTDA,2022-10-24T18:50:00Z,36.37,36.28,18.0,8.0,200,4,,6.21,30.0,,,,,,TRUE,,,,,CAVOK,,,,,,,,VFR,,,,,,,,,,,,METAR,80.0
LTCW 241850Z VRB01KT 9999 FEW040 05/03 Q1023,LTCW,2022-10-24T18:50:00Z,37.55,44.23,5.0,3.0,0,1,,6.21,30.206694,,,,,,,,,,,FEW,4000,,,,,,,VFR,,,,,,,,,,,,METAR,1852.0
LTCV 241850Z 28006KT CAVOK 16/08 Q1017,LTCV,2022-10-24T18:50:00Z,37.37,42.07,16.0,8.0,280,6,,6.21,30.029528,,,,,,,,,,,CAVOK,,,,,,,,VFR,,,,,,,,,,,,METAR,620.0
LTCT 241850Z 24007KT 9999 SCT080 11/04 Q1021,LTCT,2022-10-24T18:50:00Z,39.98,43.87,11.0,4.0,240,7,,6.21,30.147638,,,,,,,,,,,SCT,8000,,,,,,,VFR,,,,,,,,,,,,METAR,936.0
LTCN 241850Z 09005KT CAVOK 16/02 Q1019 NOSIG,LTCN,2022-10-24T18:50:00Z,37.53,36.95,16.0,2.0,90,5,,6.21,30.088583,,,,,,TRUE,,,,,CAVOK,,,,,,,,VFR,,,,,,,,,,,,METAR,505.0
LTCI 241850Z 10003KT 9999 FEW040 06/03 Q1025 NOSIG,LTCI,2022-10-24T18:50:00Z,38.47,43.33,6.0,3.0,100,3,,6.21,30.265747,,,,,,TRUE,,,,,FEW,4000,,,,,,,VFR,,,,,,,,,,,,METAR,1654.0
LTCF 241850Z VRB02KT 9999 FEW035 07/01 Q1023,LTCF,2022-10-24T18:50:00Z,40.57,43.12,7.0,1.0,0,2,,6.21,30.206694,,,,,,,,,,,FEW,3500,,,,,,,VFR,,,,,,,,,,,,METAR,1794.0
LTCD 241850Z 25008KT CAVOK 10/03 Q1023 NOSIG,LTCD,2022-10-24T18:50:00Z,39.72,39.52,10.0,3.0,250,8,,6.21,30.206694,,,,,,TRUE,,,,,CAVOK,,,,,,,,VFR,,,,,,,,,,,,METAR,1146.0
LTCB 241850Z VRB02KT 9999 SCT035 14/10 Q1024,LTCB,2022-10-24T18:50:00Z,40.97,38.07,14.0,10.0,0,2,,6.21,30.236221,,,,,,,,,,,SCT,3500,,,,,,,VFR,,,,,,,,,,,,METAR,5.0
LTCA 241850Z 27006KT 230V310 CAVOK 13/M00 Q1020 NOSIG,LTCA,2022-10-24T18:50:00Z,38.6,39.28,13.0,0.0,270,6,,6.21,30.11811,,,,,,TRUE,,,,,CAVOK,,,,,,,,VFR,,,,,,,,,,,,METAR,887.0
LTBY 241850Z 20002KT CAVOK 07/04 Q1023,LTBY,2022-10-24T18:50:00Z,39.82,30.52,7.0,4.0,200,2,,6.21,30.206694,,,,,,,,,,,CAVOK,,,,,,,,VFR,,,,,,,,,,,,METAR,788.0
LTBQ 241850Z 31002KT CAVOK 07/06 Q1022 NOSIG,LTBQ,2022-10-24T18:50:00Z,40.73,30.07,7.0,6.0,310,2,,6.21,30.177166,,,,,,TRUE,,,,,CAVOK,,,,,,,,VFR,,,,,,,,,,,,METAR,51.0
LTBH 241850Z 07005KT CAVOK 16/09 Q1021,LTBH,2022-10-24T18:50:00Z,40.13,26.42,16.0,9.0,70,5,,6.21,30.147638,,,,,,,,,,,CAVOK,,,,,,,,VFR,,,,,,,,,,,,METAR,8.0
LTBF 241850Z VRB01KT CAVOK 12/06 Q1022 NOSIG,LTBF,2022-10-24T18:50:00Z,39.62,27.92,12.0,6.0,0,1,,6.21,30.177166,,,,,,TRUE,,,,,CAVOK,,,,,,,,VFR,,,,,,,,,,,,METAR,95.0
LTBA 241850Z 04002KT CAVOK 16/11 Q1021 RMK RWY23 00000KT,LTBA,2022-10-24T18:50:00Z,40.97,28.82,16.0,11.0,40,2,,6.21,30.147638,,,,,,,,,,,CAVOK,,,,,,,,VFR,,,,,,,,,,,,SPECI,33.0
LTAY 241850Z 29003KT 260V320 CAVOK 11/M00 Q1022,LTAY,2022-10-24T18:50:00Z,37.78,29.7,11.0,0.0,290,3,,6.21,30.177166,,,,,,,,,,,CAVOK,,,,,,,,VFR,,,,,,,,,,,,METAR,851.0
LTAR 241850Z VRB02KT CAVOK 04/01 Q1026,LTAR,2022-10-24T18:50:00Z,39.8,36.9,4.0,1.0,0,2,,6.21,30.295275,,,,,,,,,,,CAVOK,,,,,,,,VFR,,,,,,,,,,,,METAR,1601.0
LTAN 241850Z 31007KT CAVOK 12/04 Q1024 NOSIG,LTAN,2022-10-24T18:50:00Z,37.97,32.55,12.0,4.0,310,7,,6.21,30.236221,,,,,,TRUE,,,,,CAVOK,,,,,,,,VFR,,,,,,,,,,,,METAR,1029.0
LTAE 241850Z 32005KT CAVOK 09/03 Q1024 NOSIG RMK RWY21 01008KT,LTAE,2022-10-24T18:50:00Z,40.07,32.57,9.0,3.0,320,5,,6.21,30.236221,,,,,,TRUE,,,,,CAVOK,,,,,,,,VFR,,,,,,,,,,,,METAR,836.0
LOXZ 241850Z 30005KT 280V360 9999 -SHRA FEW033 SCT040 BKN070 12/11 Q1020,LOXZ,2022-10-24T18:50:00Z,47.2,14.75,12.0,11.0,300,5,,6.21,30.11811,,,,,,,,,,-SHRA,FEW,3300,SCT,4000,BKN,7000,,,VFR,,,,,,,,,,,,METAR,678.0
LLER 241850Z 01011KT CAVOK 24/11 Q1013,LLER,2022-10-24T18:50:00Z,29.72,35.02,24.0,11.0,10,11,,6.21,29.911417,,,,,,,,,,,CAVOK,,,,,,,,VFR,,,,,,,,,,,,METAR,88.0
LIPK 241850Z VRB02KT CAVOK 17/13 Q1017,LIPK,2022-10-24T18:50:00Z,44.2,12.07,17.0,13.0,0,2,,6.21,30.029528,,,,,,,,,,,CAVOK,,,,,,,,VFR,,,,,,,,,,,,METAR,24.0
LIMP 241850Z 22011KT 6000 NSC 23/14 Q1016,LIMP,2022-10-24T18:50:00Z,44.82,10.3,23.0,14.0,220,11,,3.73,30.0,,,,,,,,,,,CLR,,,,,,,,MVFR,,,,,,,,,,,,METAR,41.0
LIBF 241850Z 26011KT CAVOK 21/12 Q1020,LIBF,2022-10-24T18:50:00Z,41.42,15.53,21.0,12.0,260,11,,6.21,30.11811,,,,,,,,,,,CAVOK,,,,,,,,VFR,,,,,,,,,,,,METAR,81.0
LGZA 241850Z 00000KT CAVOK 19/18 Q1021,LGZA,2022-10-24T18:50:00Z,37.75,20.88,19.0,18.0,0,0,,6.21,30.147638,,,,,,,,,,,CAVOK,,,,,,,,VFR,,,,,,,,,,,,METAR,3.0
LGSM 241850Z 01008KT CAVOK 21/13 Q1019,LGSM,2022-10-24T18:50:00Z,37.68,26.92,21.0,13.0,10,8,,6.21,30.088583,,,,,,,,,,,CAVOK,,,,,,,,VFR,,,,,,,,,,,,METAR,5.0
LGRX 241850Z 00000KT CAVOK 17/16 Q1021,LGRX,2022-10-24T18:50:00Z,38.17,21.42,17.0,16.0,0,0,,6.21,30.147638,,,,,,,,,,,CAVOK,,,,,,,,VFR,,,,,,,,,,,,METAR,16.0
LGPZ 241850Z 00000KT CAVOK 17/16 Q1021,LGPZ,2022-10-24T18:50:00Z,38.92,20.77,17.0,16.0,0,0,,6.21,30.147638,,,,,,,,,,,CAVOK,,,,,,,,VFR,,,,,,,,,,,,METAR,3.0
LGPA 241850Z VRB02KT CAVOK 19/11 Q1020,LGPA,2022-10-24T18:50:00Z,37.02,25.1,19.0,11.0,0,2,,6.21,30.11811,,,,,,,,,,,CAVOK,,,,,,,,VFR,,,,,,,,,,,,METAR,42.0
LGLM 241850Z 00000KT CAVOK 15/13 Q1021,LGLM,2022-10-24T18:50:00Z,39.92,25.23,15.0,13.0,0,0,,6.21,30.147638,,,,,,,,,,,CAVOK,,,,,,,,VFR,,,,,,,,,,,,METAR,4.0
LGKF 241850Z 00000KT CAVOK 19/13 Q1021,LGKF,2022-10-24T18:50:00Z,38.12,20.5,19.0,13.0,0,0,,6.21,30.147638,,,,,,,,,,,CAVOK,,,,,,,,VFR,,,,,,,,,,,,METAR,14.0
LGHI 241850Z 31004KT CAVOK 16/09 Q1019,LGHI,2022-10-24T18:50:00Z,38.33,26.13,16.0,9.0,310,4,,6.21,30.088583,,,,,,,,,,,CAVOK,,,,,,,,VFR,,,,,,,,,,,,METAR,6.0
LGBL 241850Z 27004KT CAVOK 17/15 Q1021,LGBL,2022-10-24T18:50:00Z,39.22,22.8,17.0,15.0,270,4,,6.21,30.147638,,,,,,,,,,,CAVOK,,,,,,,,VFR,,,,,,,,,,,,METAR,13.0
KWHP 241850Z 10006KT 10SM SKC 20/M02 A3019 RMK OBSERVER PT.,KWHP,2022-10-24T18:50:00Z,34.25,-118.42,20.0,-2.0,100,6,,10.0,30.188976,,,,,,,,,,,SKC,,,,,,,,VFR,,,,,,,,,,,,METAR,302.0
KVQQ 241850Z 06006KT 10SM FEW050 28/15 A3010,KVQQ,2022-10-24T18:50:00Z,30.22,-81.88,28.0,15.0,60,6,,10.0,30.100393,,,,,,,,,,,FEW,5000,,,,,,,VFR,,,,,,,,,,,,METAR,21.0
KTOA 241850Z 00000KT 10SM SKC 25/00 A3016,KTOA,2022-10-24T18:50:00Z,33.8,-118.33,25.0,0.0,0,0,,10.0,30.159449,,,,,,,,,,,SKC,,,,,,,,VFR,,,,,,,,,,,,METAR,30.0
KSUA 241850Z 05010G15KT 10SM SCT028 28/18 A3005,KSUA,2022-10-24T18:50:00Z,27.18,-80.22,28.0,18.0,50,10,15,10.0,30.050198,,,,,,,,,,,SCT,2800,,,,,,,VFR,,,,,,,,,,,,METAR,4.0
KRYY 241850Z 11008KT 10SM CLR 24/09 A3014 RMK AO2 SLP199 T02440094 $,KRYY,2022-10-24T18:50:00Z,34.02,-84.6,24.4,9.4,110,8,,10.0,30.138779,1019.9,,,TRUE,TRUE,,,,,,CLR,,,,,,,,VFR,,,,,,,,,,,,METAR,306.0
KOMN 241850Z 03010G16KT 10SM SCT030 BKN060 25/17 A3009,KOMN,2022-10-24T18:50:00Z,29.3,-81.12,25.0,17.0,30,10,16,10.0,30.088583,,,,,,,,,,,SCT,3000,BKN,6000,,,,,VFR,,,,,,,,,,,,METAR,7.0
KOLV 241850Z 15013G19KT 10SM BKN035 24/15 A2993,KOLV,2022-10-24T18:50:00Z,34.98,-89.78,24.0,15.0,150,13,19,10.0,29.929134,,,,,,,,,,,BKN,3500,,,,,,,VFR,,,,,,,,,,,,METAR,124.0
KNQA 241850Z 17011KT 10SM CLR 25/15 A2992,KNQA,2022-10-24T18:50:00Z,35.35,-89.87,25.0,15.0,170,11,,10.0,29.920275,,,,,,,,,,,CLR,,,,,,,,VFR,,,,,,,,,,,,METAR,90.0
KMMU 241850Z 06004KT 2 1/4SM BR OVC005 19/19 A3015,KMMU,2022-10-24T18:50:00Z,40.78,-74.42,19.0,19.0,60,4,,2.25,30.15059,,,,,,,,,,BR,OVC,500,,,,,,,IFR,,,,,,,,,,,,METAR,55.0
KLWB 241850Z 27003KT 10SM SKC 22/04 A3016,KLWB,2022-10-24T18:50:00Z,37.87,-80.4,22.0,4.0,270,3,,10.0,30.159449,,,,,,,,,,,SKC,,,,,,,,VFR,,,,,,,,,,,,METAR,702.0
KLBE 241850Z 00000KT 15SM CLR 21/08 A3012,KLBE,2022-10-24T18:50:00Z,40.27,-79.4,21.0,8.0,0,0,,15.0,30.121063,,,,,,,,,,,CLR,,,,,,,,VFR,,,,,,,,,,,,METAR,345.0
KLAL 241850Z 09006KT 10SM BKN030 28/17 A3005,KLAL,2022-10-24T18:50:00Z,27.98,-82.02,28.0,17.0,90,6,,10.0,30.050198,,,,,,,,,,,BKN,3000,,,,,,,MVFR,,,,,,,,,,,,METAR,39.0
KJQF 241850Z 31004KT 10SM CLR 22/08 A3016,KJQF,2022-10-24T18:50:00Z,35.38,-80.72,22.0,8.0,310,4,,10.0,30.159449,,,,,,,,,,,CLR,,,,,,,,VFR,,,,,,,,,,,,METAR,204.0
KIFP 241850Z 35018KT 20SM CLR 18/M08 A3020,KIFP,2022-10-24T18:50:00Z,35.15,-114.57,18.0,-8.0,350,18,,20.0,30.200787,,,,,,,,,,,CLR,,,,,,,,VFR,,,,,,,,,,,,METAR,210.0
KHXD 241850Z 02008KT 10SM CLR 24/09 A3013,KHXD,2022-10-24T18:50:00Z,32.22,-80.7,24.0,9.0,20,8,,10.0,30.129921,,,,,,,,,,,CLR,,,,,,,,VFR,,,,,,,,,,,,METAR,5.0
KHQZ 241850Z 32006KT 5SM -RA BR BKN010 BKN020 OVC065 17/17 A2978,KHQZ,2022-10-24T18:50:00Z,32.75,-96.53,17.0,17.0,320,6,,5.0,29.778543,,,,,,,,,,-RA BR,BKN,1000,BKN,2000,OVC,6500,,,MVFR,,,,,,,,,,,,METAR,136.0
KHOB 241850Z 29017G23KT 09SM -DZ FEW030 OVC038 09/07 A2987,KHOB,2022-10-24T18:50:00Z,32.67,-103.22,9.0,7.0,290,17,23,9.0,29.870079,,,,,,,,,,-DZ,FEW,3000,OVC,3800,,,,,VFR,,,,,,,,,,,,METAR,1112.0
KHME 241850Z 07006KT CAVOK 19/05 Q1016,KHME,2022-10-24T18:50:00Z,32.37,-82.07,19.0,5.0,70,6,,6.21,30.0,,,,,,,,,,,CAVOK,,,,,,,,VFR,,,,,,,,,,,,METAR,60.0
KGYI 241850Z 05006KT 5SM -RA SCT031 SCT038 OVC060 15/14 A2976,KGYI,2022-10-24T18:50:00Z,33.72,-96.67,15.0,14.0,50,6,,5.0,29.760826,,,,,,,,,,-RA,SCT,3100,SCT,3800,OVC,6000,,,MVFR,,,,,,,,,,,,METAR,227.0
KGPM 241850Z 36006KT 1 3/4SM -RA SCT008 BKN029 OVC044 17/17 A2979,KGPM,2022-10-24T18:50:00Z,32.7,-97.05,17.0,17.0,360,6,,1.75,29.790354,,,,,,,,,,-RA,SCT,800,BKN,2900,OVC,4400,,,IFR,,,,,,,,,,,,METAR,178.0
KFWS 241850Z 35004KT 2 1/2SM RA BKN009 BKN017 OVC042 17/16 A2979,KFWS,2022-10-24T18:50:00Z,32.57,-97.3,17.0,16.0,350,4,,2.5,29.790354,,,,,,,,,,RA,BKN,900,BKN,1700,OVC,4200,,,IFR,,,,,,,,,,,,METAR,211.0
KFIN 241850Z 04005KT 10SM CLR 26/16 A3010,KFIN,2022-10-24T18:50:00Z,29.47,-81.2,26.0,16.0,40,5,,10.0,30.100393,,,,,,,,,,,CLR,,,,,,,,VFR,,,,,,,,,,,,METAR,10.0
KDAG 241850Z AUTO 01011G17KT 10SM CLR 17/M12 A3025 RMK AO2 SLP232 T01721117,KDAG,2022-10-24T18:50:00Z,34.85,-116.78,17.2,-11.7,10,11,17,10.0,30.250984,1023.2,,TRUE,TRUE,,,,,,,CLR,,,,,,,,VFR,,,,,,,,,,,,METAR,584.0
KBOW 241850Z 36010KT 10SM SCT050 29/18 A3004,KBOW,2022-10-24T18:50:00Z,27.93,-81.77,29.0,18.0,360,10,,10.0,30.041338,,,,,,,,,,,SCT,5000,,,,,,,VFR,,,,,,,,,,,,METAR,38.0
KALN 241850Z 17015G26KT 10SM BKN075 23/13 A2984,KALN,2022-10-24T18:50:00Z,38.88,-90.03,23.0,13.0,170,15,26,10.0,29.840551,,,,,,,,,,,BKN,7500,,,,,,,VFR,,,,,,,,,,,,METAR,159.0
KAEG 241850Z 30026G38KT 10SM SCT080 06/M05 A2994,KAEG,2022-10-24T18:50:00Z,35.13,-106.8,6.0,-5.0,300,26,38,10.0,29.940945,,,,,,,,,,,SCT,8000,,,,,,,VFR,,,,,,,,,,,,METAR,1771.0
KADM 241850Z 04004KT 10SM -RA FEW090 BKN070 15/14 A2971,KADM,2022-10-24T18:50:00Z,34.3,-97.02,15.0,14.0,40,4,,10.0,29.71063,,,,,,,,,,-RA,FEW,9000,BKN,7000,,,,,VFR,,,,,,,,,,,,METAR,223.0
ETNG 241850Z 22010G20KT 9999 SCT035 SCT070 17/12 Q1010,ETNG,2022-10-24T18:50:00Z,50.97,6.03,17.0,12.0,220,10,20,6.21,29.822834,,,,,,,,,,,SCT,3500,SCT,7000,,,,,VFR,,,,,,,,,,,,METAR,76.0
ENSG 241850Z 05010KT 9999 BKN045 07/02 Q1001 RMK WIND 3306FT 10022KT,ENSG,2022-10-24T18:50:00Z,61.15,7.13,7.0,2.0,50,10,,6.21,29.557087,,,,,,,,,,,BKN,4500,,,,,,,VFR,,2.2,,,,,,,,,,SPECI,493.0
ENRS 241850Z 07014KT CAVOK 05/M02 Q1008,ENRS,2022-10-24T18:50:00Z,67.52,12.1,5.0,-2.0,70,14,,6.21,29.763779,,,,,,,,,,,CAVOK,,,,,,,,VFR,,,,,,,,,,,,METAR,4.0
ENOA 241850Z 09022KT 9999 BKN035 12/08 Q0998 W///S4,ENOA,2022-10-24T18:50:00Z,60.5,2.83,12.0,8.0,90,22,,6.21,29.468504,,,,,,,,,,,BKN,3500,,,,,,,VFR,,,,,,,,,,,,SPECI,5.0
EGYM 241850Z 20009KT 9999 FEW035 FEW080 13/11 Q1005 RMK BLU,EGYM,2022-10-24T18:50:00Z,52.63,0.57,13.0,11.0,200,9,,6.21,29.675198,,,,,,,,,,,FEW,3500,FEW,8000,,,,,VFR,,,,,,,,,,,,METAR,25.0
EGXS 241850Z AUTO 20011KT 9999 NCD 13/11 Q1003,EGXS,2022-10-24T18:50:00Z,53.48,0.15,13.0,11.0,200,11,,6.21,29.616142,,,TRUE,,,,,,,,CLR,,,,,,,,VFR,,,,,,,,,,,,METAR,6.0
EGXP 241850Z AUTO 21008KT 9999 // NCD 12/10 Q1003,EGXP,2022-10-24T18:50:00Z,53.3,-0.55,12.0,10.0,210,8,,6.21,29.616142,,,TRUE,,,,,,,,CLR,,,,,,,,VFR,,,,,,,,,,,,METAR,58.0
EGUW 241850Z 22008KT 9999 FEW030 13/11 Q1006 NOSIG RMK BLU BLU,EGUW,2022-10-24T18:50:00Z,52.12,0.97,13.0,11.0,220,8,,6.21,29.704725,,,,,,TRUE,,,,,FEW,3000,,,,,,,VFR,,,,,,,,,,,,METAR,86.0
EGTC 241850Z 21010KT CAVOK 12/11 Q1006,EGTC,2022-10-24T18:50:00Z,52.07,-0.62,12.0,11.0,210,10,,6.21,29.704725,,,,,,,,,,,CAVOK,,,,,,,,VFR,,,,,,,,,,,,METAR,110.0
EGQS 241850Z 23007KT CAVOK 12/09 Q0995 RMK BLU,EGQS,2022-10-24T18:50:00Z,57.72,-3.32,12.0,9.0,230,7,,6.21,29.379921,,,,,,,,,,,CAVOK,,,,,,,,VFR,,,,,,,,,,,,METAR,6.0
EGQM 241850Z AUTO 24007KT 9999 NCD 11/09 Q0999,EGQM,2022-10-24T18:50:00Z,55.42,-1.6,11.0,9.0,240,7,,6.21,29.498032,,,TRUE,,,,,,,,CLR,,,,,,,,VFR,,,,,,,,,,,,SPECI,24.0
EGQL 241850Z 24009KT 9999 FEW037 BKN056 12/11 Q0997 RMK BLU,EGQL,2022-10-24T18:50:00Z,56.38,-2.87,12.0,11.0,240,9,,6.21,29.438976,,,,,,,,,,,FEW,3700,BKN,5600,,,,,VFR,,,,,,,,,,,,METAR,11.0
EGQA 241850Z 21007KT 9999 FEW006 BKN080 13/// Q0995 RMK BLU,EGQA,2022-10-24T18:50:00Z,57.83,-3.95,,,210,7,,6.21,29.379921,,,,,,,,,,,FEW,600,BKN,8000,,,,,VFR,,,,,,,,,,,,METAR,4.0
EGNV 241850Z 21008KT 9999 FEW025 11/09 Q1001,EGNV,2022-10-24T18:50:00Z,54.52,-1.42,11.0,9.0,210,8,,6.21,29.557087,,,,,,,,,,,FEW,2500,,,,,,,VFR,,,,,,,,,,,,METAR,36.0
EGNT 241850Z 25005KT 9999 FEW025 11/10 Q1000,EGNT,2022-10-24T18:50:00Z,55.03,-1.7,11.0,10.0,250,5,,6.21,29.52756,,,,,,,,,,,FEW,2500,,,,,,,VFR,,,,,,,,,,,,METAR,77.0
EGKA 241850Z 25011KT 9999 SCT017 15/12 Q1008,EGKA,2022-10-24T18:50:00Z,50.83,-0.3,15.0,12.0,250,11,,6.21,29.763779,,,,,,,,,,,SCT,1700,,,,,,,VFR,,,,,,,,,,,,METAR,2.0
EEEI 241850Z 12004KT 9999 SCT060 01/M02 Q1015,EEEI,2022-10-24T18:50:00Z,59.27,24.2,1.0,-2.0,120,4,,6.21,29.970472,,,,,,,,,,,SCT,6000,,,,,,,VFR,,,,,,,,,,,,METAR,19.0
BGSF 241850Z AUTO 04007KT 9999NDV -SN SCT014/// BKN018/// OVC023/// M00/M01 Q1004,BGSF,2022-10-24T18:50:00Z,67.0,-50.72,0.0,-1.0,40,7,,,29.64567,,,TRUE,,,,,,,-SN,SCT,1400,BKN,1800,OVC,2300,,,,,,,,,,,,,,,METAR,75.0
BGKK 241850Z AUTO 08023G38KT 9999NDV -RA BKN014/// 03/M00 Q0999,BGKK,2022-10-24T18:50:00Z,65.57,-37.13,3.0,0.0,80,23,38,,29.498032,,,TRUE,,,,,,,-RA,BKN,1400,,,,,,,,,,,,,,,,,,,METAR,37.0
BGJN 241850Z 00000KT 9999 BKN088 00/M04 Q1003,BGJN,2022-10-24T18:50:00Z,69.25,-51.07,0.0,-4.0,0,0,,6.21,29.616142,,,,,,,,,,,BKN,8800,,,,,,,VFR,,,,,,,,,,,,METAR,22.0
BGGH 241850Z 04004KT 9999 3500W BCFG SCT003 00/M00 Q1003,BGGH,2022-10-24T18:50:00Z,64.2,-51.68,0.0,0.0,40,4,,6.21,29.616142,,,,,,,,,,BCFG,SCT,300,,,,,,,VFR,,,,,,,,,,,,METAR,76.0
BGBW 241850Z 07003KT 9999 FEW002 SCT039 BKN180 00/M01 Q0998,BGBW,2022-10-24T18:50:00Z,61.17,-45.42,0.0,-1.0,70,3,,6.21,29.468504,,,,,,,,,,,FEW,200,SCT,3900,BKN,18000,,,VFR,,,,,,,,,,,,METAR,49.0
RJTR 241849Z AUTO 30009KT 9SM SCT100 10/06 A3002 RMK AO2 LTG DSNT W RAE1755RAB04E21RAB44E49 SLP169 $,RJTR,2022-10-24T18:49:00Z,35.52,139.4,10.0,6.0,300,9,,9.0,30.02067,1016.9,,TRUE,TRUE,TRUE,,,,,,SCT,10000,,,,,,,VFR,,,,,,,,,,,,METAR,106.0
MMMD 241849Z 13008KT 7SM BKN020TCU 32/24 A2991 RMK 8/200 CI,MMMD,2022-10-24T18:49:00Z,20.95,-89.65,32.0,24.0,130,8,,7.0,29.911417,,,,,,,,,,,BKN,2000,,,,,,,MVFR,,,,,,,,,,,,METAR,10.0
MMTO 241848Z 28008KT 7SM SCT020 SCT220 22/09 A3037 RMK 8/202 HZY,MMTO,2022-10-24T18:48:00Z,19.35,-99.57,22.0,9.0,280,8,,7.0,30.369095,,,,,,,,,,,SCT,2000,SCT,22000,,,,,VFR,,,,,,,,,,,,METAR,2582.0
MMPA 241848Z 30006KT 5SM SCT020 BKN280 31/24 A2986 RMK 8/108 HZY,MMPA,2022-10-24T18:48:00Z,20.6,-97.47,31.0,24.0,300,6,,5.0,29.861221,,,,,,,,,,,SCT,2000,BKN,28000,,,,,MVFR,,,,,,,,,,,,METAR,153.0
MMMV 241848Z 22021KT 10SM SCT040 32/12 A2978 RMK 8/100,MMMV,2022-10-24T18:48:00Z,26.95,-101.47,32.0,12.0,220,21,,10.0,29.778543,,,,,,,,,,,SCT,4000,,,,,,,VFR,,,,,,,,,,,,SPECI,567.0
MMMT 241848Z 25003KT 7SM BKN015 BKN200 30/25 A2981 RMK 8/101 HZY VC,MMMT,2022-10-24T18:48:00Z,18.1,-94.57,30.0,25.0,250,3,,7.0,29.811024,,,,,,,,,,,BKN,1500,BKN,20000,,,,,MVFR,,,,,,,,,,,,METAR,15.0
MMMM 241848Z 30005KT 8SM FEW030 25/14 A3023 RMK 8/100,MMMM,2022-10-24T18:48:00Z,19.85,-101.03,25.0,14.0,300,5,,8.0,30.230314,,,,,,,,,,,FEW,3000,,,,,,,VFR,,,,,,,,,,,,METAR,1840.0
MMCT 241848Z 00000KT 7SM SCT020TCU BKN100 BKN250 30/26 A2991 RMK 8/231,MMCT,2022-10-24T18:48:00Z,20.63,-88.45,30.0,26.0,0,0,,7.0,29.911417,,,,,,,,,,,SCT,2000,BKN,10000,BKN,25000,,,VFR,,,,,,,,,,,,METAR,29.0
KMWN 241848Z 21015G22KT 1/16SM FG VV002 11/11 RMK,KMWN,2022-10-24T18:48:00Z,44.27,-71.3,11.0,11.0,210,15,22,0.06,,,,,,,,,,,FG,OVX,0,,,,,,,LIFR,,,,,,,,,,,200,METAR,1911.0
KJDN 241848Z AUTO 27010KT 04/00 A2977 RMK AO1 SLP104 T00440000,KJDN,2022-10-24T18:48:00Z,47.33,-106.95,4.4,0.0,270,10,,,29.769686,1010.4,,TRUE,TRUE,,,,,,,,,,,,,,,,,,,,,,,,,,,METAR,802.0
KHSB 241848Z AUTO 17016G22KT 10SM CLR 27/14 A2994 RMK AO2,KHSB,2022-10-24T18:48:00Z,37.82,-88.55,27.0,14.0,170,16,22,10.0,29.940945,,,TRUE,TRUE,,,,,,,CLR,,,,,,,,VFR,,,,,,,,,,,,METAR,118.0
KASG 241848Z 17010G17KT 10SM OVC019 20/20 A2971,KASG,2022-10-24T18:48:00Z,36.17,-94.12,20.0,20.0,170,10,17,10.0,29.71063,,,,,,,,,,,OVC,1900,,,,,,,MVFR,,,,,,,,,,,,METAR,410.0
MMVR 241847Z 06005KT 5SM SCT015TCU OVC250 30/24 A2983 RMK 8/207 HZY,MMVR,2022-10-24T18:47:00Z,19.15,-96.18,30.0,24.0,60,5,,5.0,29.828741,,,,,,,,,,,SCT,1500,OVC,25000,,,,,MVFR,,,,,,,,,,,,METAR,26.0
MMTM 241847Z 13010KT 5SM BKN015 29/24 A2981 RMK 8/100 HZ,MMTM,2022-10-24T18:47:00Z,22.28,-97.87,29.0,24.0,130,10,,5.0,29.811024,,,,,,,,,,,BKN,1500,,,,,,,MVFR,,,,,,,,,,,,METAR,21.0
MMIO 241847Z 18010KT 10SM SKC 27/12 A3013,MMIO,2022-10-24T18:47:00Z,25.55,-100.93,27.0,12.0,180,10,,10.0,30.129921,,,,,,,,,,,SKC,,,,,,,,VFR,,,,,,,,,,,,METAR,1430.0
MMCM 241847Z 14011KT 6SM SCT020 31/25 A2991 RMK 8/100,MMCM,2022-10-24T18:47:00Z,18.5,-88.33,31.0,25.0,140,11,,6.0,29.911417,,,,,,,,,,,SCT,2000,,,,,,,VFR,,,,,,,,,,,,METAR,10.0
KTZR 241847Z 18004G18KT 10SM CLR 24/06 A3008,KTZR,2022-10-24T18:47:00Z,39.9,-83.13,24.0,6.0,180,4,18,10.0,30.079725,,,,,,,,,,,CLR,,,,,,,,VFR,,,,,,,,,,,,METAR,275.0
KTIX 241847Z 07010KT 7SM SCT035 29/18 A3007,KTIX,2022-10-24T18:47:00Z,28.5,-80.8,29.0,18.0,70,10,,7.0,30.070866,,,,,,,,,,,SCT,3500,,,,,,,VFR,,,,,,,,,,,,METAR,10.0
KSUN 241847Z 12010G18KT 10SM SCT120 04/M05 A3012,KSUN,2022-10-24T18:47:00Z,43.5,-114.28,4.0,-5.0,120,10,18,10.0,30.121063,,,,,,,,,,,SCT,12000,,,,,,,VFR,,,,,,,,,,,,METAR,1619.0
KSEE 241847Z 00000KT 10SM SKC 23/M03 A3014,KSEE,2022-10-24T18:47:00Z,32.82,-116.97,23.0,-3.0,0,0,,10.0,30.138779,,,,,,,,,,,SKC,,,,,,,,VFR,,,,,,,,,,,,METAR,113.0
KRHV 241847Z 00000KT 10SM SKC 18/01 A3022,KRHV,2022-10-24T18:47:00Z,37.33,-121.82,18.0,1.0,0,0,,10.0,30.221457,,,,,,,,,,,SKC,,,,,,,,VFR,,,,,,,,,,,,METAR,37.0
KPAO 241847Z 00000KT 10SM SKC 18/03 A3022,KPAO,2022-10-24T18:47:00Z,37.47,-122.12,18.0,3.0,0,0,,10.0,30.221457,,,,,,,,,,,SKC,,,,,,,,VFR,,,,,,,,,,,,METAR,2.0
KMWA 241847Z 19015G20KT 20SM BKN060 BKN200 24/09 A2992,KMWA,2022-10-24T18:47:00Z,37.77,-89.02,24.0,9.0,190,15,20,20.0,29.920275,,,,,,,,,,,BKN,6000,BKN,20000,,,,,VFR,,,,,,,,,,,,METAR,142.0
KIWA 241847Z 00000KT 10SM CLR 18/M05 A3013,KIWA,2022-10-24T18:47:00Z,33.3,-111.65,18.0,-5.0,0,0,,10.0,30.129921,,,,,,,,,,,CLR,,,,,,,,VFR,,,,,,,,,,,,METAR,420.0
KHUM 241847Z 14015KT 7SM CLR 27/19 A2998,KHUM,2022-10-24T18:47:00Z,29.57,-90.67,27.0,19.0,140,15,,7.0,29.97933,,,,,,,,,,,CLR,,,,,,,,VFR,,,,,,,,,,,,METAR,1.0
KHSA 241847Z 17012G19KT 10SM CLR 28/17 A3001,KHSA,2022-10-24T18:47:00Z,30.37,-89.45,28.0,17.0,170,12,19,10.0,30.008858,,,,,,,,,,,CLR,,,,,,,,VFR,,,,,,,,,,,,METAR,6.0
KGYR 241847Z 31005KT 10SM SKC 19/M06 A3013,KGYR,2022-10-24T18:47:00Z,33.42,-112.37,19.0,-6.0,310,5,,10.0,30.129921,,,,,,,,,,,SKC,,,,,,,,VFR,,,,,,,,,,,,METAR,292.0
KGYH 241847Z 09003KT 10SM CLR 23/03 A3014,KGYH,2022-10-24T18:47:00Z,34.75,-82.38,23.0,3.0,90,3,,10.0,30.138779,,,,,,,,,,,CLR,,,,,,,,VFR,,,,,,,,,,,,METAR,283.0
KEVB 241847Z 04011G16KT 10SM SCT040 26/18 A3008,KEVB,2022-10-24T18:47:00Z,29.05,-80.95,26.0,18.0,40,11,16,10.0,30.079725,,,,,,,,,,,SCT,4000,,,,,,,VFR,,,,,,,,,,,,METAR,2.0
KCWA 241847Z 16011KT 10SM SCT060 18/14 A2972,KCWA,2022-10-24T18:47:00Z,44.78,-89.67,18.0,14.0,160,11,,10.0,29.719488,,,,,,,,,,,SCT,6000,,,,,,,VFR,,,,,,,,,,,,METAR,387.0
KCQT 241847Z AUTO 00000KT 10SM CLR 22/M01 A3016 RMK AO2 SLP210 T02171006 $,KCQT,2022-10-24T18:47:00Z,34.02,-118.28,21.7,-0.6,0,0,,10.0,30.159449,1021.0,,TRUE,TRUE,TRUE,,,,,,CLR,,,,,,,,VFR,,,,,,,,,,,,METAR,51.0
KCIC 241847Z 15003KT 10SM CLR 19/M04 A3020,KCIC,2022-10-24T18:47:00Z,39.78,-121.85,19.0,-4.0,150,3,,10.0,30.200787,,,,,,,,,,,CLR,,,,,,,,VFR,,,,,,,,,,,,METAR,72.0
KCHD 241847Z VRB05KT 10SM CLR 16/M06 A3012,KCHD,2022-10-24T18:47:00Z,33.27,-111.82,16.0,-6.0,0,5,,10.0,30.121063,,,,,,,,,,,CLR,,,,,,,,VFR,,,,,,,,,,,,METAR,378.0
KBJC 241847Z 32007KT 10SM FEW020 09/M14 A2987,KBJC,2022-10-24T18:47:00Z,39.9,-105.1,9.0,-14.0,320,7,,10.0,29.870079,,,,,,,,,,,FEW,2000,,,,,,,VFR,,,,,,,,,,,,METAR,1694.0
KADS 241847Z 34006G12KT 5SM -RA SCT008 SCT018 OVC037 18/16 A2978,KADS,2022-10-24T18:47:00Z,32.97,-96.83,18.0,16.0,340,6,12,5.0,29.778543,,,,,,,,,,-RA,SCT,800,SCT,1800,OVC,3700,,,MVFR,,,,,,,,,,,,METAR,198.0
MMOX 241846Z 27003KT 10SM SCT030 BKN210 26/10 A3016 RMK 8/101 HZY,MMOX,2022-10-24T18:46:00Z,17.0,-96.72,26.0,10.0,270,3,,10.0,30.159449,,,,,,,,,,,SCT,3000,BKN,21000,,,,,VFR,,,,,,,,,,,,METAR,1528.0
MMLO 241846Z 00000KT 10SM SCT030 SCT220 25/13 A3028 RMK 8/502,MMLO,2022-10-24T18:46:00Z,21.0,-101.47,25.0,13.0,0,0,,10.0,30.280512,,,,,,,,,,,SCT,3000,SCT,22000,,,,,VFR,,,,,,,,,,,,SPECI,1805.0
MMCS 241846Z 31017KT 10SM BKN040 BKN080 13/M05 A3001 RMK 8/530,MMCS,2022-10-24T18:46:00Z,31.63,-106.42,13.0,-5.0,310,17,,10.0,30.008858,,,,,,,,,,,BKN,4000,BKN,8000,,,,,VFR,,,,,,,,,,,,METAR,1194.0
KSAW 241846Z 17019G23KT 10SM CLR 20/13 A2971,KSAW,2022-10-24T18:46:00Z,46.35,-87.4,20.0,13.0,170,19,23,10.0,29.71063,,,,,,,,,,,CLR,,,,,,,,VFR,,,,,,,,,,,,METAR,359.0
KRPX 241846Z AUTO 10SM 08/M05 A2972 RMK Roundup ,KRPX,2022-10-24T18:46:00Z,46.47,-108.55,8.0,-5.0,,,,10.0,29.719488,,,TRUE,,,,,,,,,,,,,,,,,,,,,,,,,,,,METAR,1062.0
TJIG 241845Z 10014KT 10SM SCT030 BKN090 30/25 A2988,TJIG,2022-10-24T18:45:00Z,18.45,-66.1,30.0,25.0,100,14,,10.0,29.878937,,,,,,,,,,,SCT,3000,BKN,9000,,,,,VFR,,,,,,,,,,,,METAR,3.0
PALP 241845Z 10010KT 3SM BR BKN004 M09/M10 A2998,PALP,2022-10-24T18:45:00Z,70.33,-150.93,-9.0,-10.0,100,10,,3.0,29.97933,,,,,,,,,,BR,BKN,400,,,,,,,LIFR,,,,,,,,,,,,METAR,4.0
PAKU 241845Z 10017KT 3SM R06/P6000FT BR OVC003 M08/M08 A2997,PAKU,2022-10-24T18:45:00Z,70.32,-149.6,-8.0,-8.0,100,17,,3.0,29.970472,,,,,,,,,,BR,OVC,300,,,,,,,LIFR,,,,,,,,,,,,METAR,23.0
MMSD 241845Z 07008KT 10SM SCT040 30/14 A2996 RMK 8/400 CI,MMSD,2022-10-24T18:45:00Z,23.15,-109.72,30.0,14.0,70,8,,10.0,29.958662,,,,,,,,,,,SCT,4000,,,,,,,VFR,,,,,,,,,,,,METAR,107.0
MMGL 241845Z 14004KT 10SM SCT020 26/13 A3018 RMK 8/100,MMGL,2022-10-24T18:45:00Z,20.52,-103.32,26.0,13.0,140,4,,10.0,30.180119,,,,,,,,,,,SCT,2000,,,,,,,VFR,,,,,,,,,,,,SPECI,1531.0
MMCZ 241845Z 09007KT 8SM BKN015TCU 30/24 A2993 RMK 8/200 SC,MMCZ,2022-10-24T18:45:00Z,20.52,-86.92,30.0,24.0,90,7,,8.0,29.929134,,,,,,,,,,,BKN,1500,,,,,,,MVFR,,,,,,,,,,,,METAR,7.0
KWDG 241845Z 33010KT 10SM OVC010 13/11 A2975,KWDG,2022-10-24T18:45:00Z,36.37,-97.78,13.0,11.0,330,10,,10.0,29.749016,,,,,,,,,,,OVC,1000,,,,,,,MVFR,,,,,,,,,,,,METAR,352.0
KUES 241845Z 15010G19KT 10SM SCT120 20/12 A2981,KUES,2022-10-24T18:45:00Z,43.05,-88.25,20.0,12.0,150,10,19,10.0,29.811024,,,,,,,,,,,SCT,12000,,,,,,,VFR,,,,,,,,,,,,METAR,273.0
KTRK 241845Z 00000KT 10SM CLR 09/M08 A3029,KTRK,2022-10-24T18:45:00Z,39.32,-120.13,9.0,-8.0,0,0,,10.0,30.28937,,,,,,,,,,,CLR,,,,,,,,VFR,,,,,,,,,,,,METAR,1800.0
KSWF 241845Z 07006KT 2SM -DZ BR OVC005 14/14 A3016,KSWF,2022-10-24T18:45:00Z,41.5,-74.08,14.0,14.0,70,6,,2.0,30.159449,,,,,,,,,,-DZ BR,OVC,500,,,,,,,IFR,,,,,,,,,,,,METAR,139.0
KSCH 241845Z 00000KT 04SM -DZ OVC023 14/14 A3022,KSCH,2022-10-24T18:45:00Z,42.85,-73.92,14.0,14.0,0,0,,4.0,30.221457,,,,,,,,,,-DZ,OVC,2300,,,,,,,MVFR,,,,,,,,,,,,METAR,100.0
KRYN 241845Z 33011KT 10SM CLR 16/M07 A3013,KRYN,2022-10-24T18:45:00Z,32.15,-111.17,16.0,-7.0,330,11,,10.0,30.129921,,,,,,,,,,,CLR,,,,,,,,VFR,,,,,,,,,,,,METAR,731.0
KMWC 241845Z 17015KT 10SM CLR 22/11 A2981,KMWC,2022-10-24T18:45:00Z,43.12,-88.03,22.0,11.0,170,15,,10.0,29.811024,,,,,,,,,,,CLR,,,,,,,,VFR,,,,,,,,,,,,METAR,225.0
KMHR 241845Z E00000KT 10SM FEW250 18/M06 A3020,KMHR,2022-10-24T18:45:00Z,38.55,-121.28,18.0,-6.0,0,0,,10.0,30.200787,,,,,,,,,,,FEW,25000,,,,,,,VFR,,,,,,,,,,,,METAR,30.0
KJVL 241845Z 17013KT 10SM SCT055 22/10 A2978,KJVL,2022-10-24T18:45:00Z,42.62,-89.05,22.0,10.0,170,13,,10.0,29.778543,,,,,,,,,,,SCT,5500,,,,,,,VFR,,,,,,,,,,,,METAR,244.0
KGYY 241845Z 17012KT 10SM CLR 24/12 A2987,KGYY,2022-10-24T18:45:00Z,41.62,-87.42,24.0,12.0,170,12,,10.0,29.870079,,,,,,,,,,,CLR,,,,,,,,VFR,,,,,,,,,,,,METAR,179.0
KESN 241845Z 33006KT 10SM OVC007 16/16 A3015,KESN,2022-10-24T18:45:00Z,38.8,-76.07,16.0,16.0,330,6,,10.0,30.15059,,,,,,,,,,,OVC,700,,,,,,,IFR,,,,,,,,,,,,METAR,14.0
KEMT 241845Z 26004KT 10SM CLR 22/M01 A3016,KEMT,2022-10-24T18:45:00Z,34.08,-118.03,22.0,-1.0,260,4,,10.0,30.159449,,,,,,,,,,,CLR,,,,,,,,VFR,,,,,,,,,,,,METAR,84.0
KCGF 241845Z 18007KT 20SM CLR 24/08 A3008,KCGF,2022-10-24T18:45:00Z,41.57,-81.47,24.0,8.0,180,7,,20.0,30.079725,,,,,,,,,,,CLR,,,,,,,,VFR,,,,,,,,,,,,METAR,265.0
KBBG 241845Z 16012G17KT 10SM OVC018 20/17 A2979,KBBG,2022-10-24T18:45:00Z,36.53,-93.2,20.0,17.0,160,12,17,10.0,29.790354,,,,,,,,,,,OVC,1800,,,,,,,MVFR,,,,,,,,,,,,METAR,403.0
KATW 241845Z 16009G15KT 10SM BKN120 21/13 A2973,KATW,2022-10-24T18:45:00Z,44.27,-88.52,21.0,13.0,160,9,15,10.0,29.731298,,,,,,,,,,,BKN,12000,,,,,,,VFR,,,,,,,,,,,,METAR,266.0
KANE 241845Z 21007KT 10SM OVC120 14/05 A2964,KANE,2022-10-24T18:45:00Z,45.15,-93.22,14.0,5.0,210,7,,10.0,29.639763,,,,,,,,,,,OVC,12000,,,,,,,VFR,,,,,,,,,,,,METAR,276.0
MMVA 241844Z 07010KT 7SM SKC 31/24 A2986,MMVA,2022-10-24T18:44:00Z,18.0,-92.82,31.0,24.0,70,10,,7.0,29.861221,,,,,,,,,,,SKC,,,,,,,,VFR,,,,,,,,,,,,METAR,13.0
MMSM 241844Z 20007KT 7SM SCT020 SCT200 26/13 A3028 RMK 8/102 HZY DSNT TCU S,MMSM,2022-10-24T18:44:00Z,19.75,-99.02,26.0,13.0,200,7,,7.0,30.280512,,,,,,,,,,,SCT,2000,SCT,20000,,,,,VFR,,,,,,,,,,,,METAR,2250.0
MMPG 241844Z 12008KT 8SM SKC 30/22 A2973 RMK HZY,MMPG,2022-10-24T18:44:00Z,28.62,-100.53,30.0,22.0,120,8,,8.0,29.731298,,,,,,,,,,,SKC,,,,,,,,VFR,,,,,,,,,,,,SPECI,224.0
MMPB 241844Z 17010KT 7SM FEW020 24/13 A3029 RMK 8/100 HZY,MMPB,2022-10-24T18:44:00Z,19.17,-98.37,24.0,13.0,170,10,,7.0,30.28937,,,,,,,,,,,FEW,2000,,,,,,,VFR,,,,,,,,,,,,METAR,2250.0
MMLT 241844Z 09011KT 10SM FEW020 27/16 A3000 RMK 8/100,MMLT,2022-10-24T18:44:00Z,25.98,-111.33,27.0,16.0,90,11,,10.0,30.0,,,,,,,,,,,FEW,2000,,,,,,,VFR,,,,,,,,,,,,METAR,4.0
MMLM 241844Z 36008KT 10SM SCT020 29/14 A2998 RMK 8/100 HZY,MMLM,2022-10-24T18:44:00Z,25.68,-109.08,29.0,14.0,360,8,,10.0,29.97933,,,,,,,,,,,SCT,2000,,,,,,,VFR,,,,,,,,,,,,METAR,6.0
MMSL 241843Z 22010KT 9SM FEW035 26/15 A2999 RMK 8/100 ISOL CI,MMSL,2022-10-24T18:43:00Z,22.95,-109.93,26.0,15.0,220,10,,9.0,29.991142,,,,,,,,,,,FEW,3500,,,,,,,VFR,,,,,,,,,,,,METAR,205.0
MMPS 241843Z 20007KT 14SM FEW020TCU 30/20 A2992 RMK 8/200 HZY,MMPS,2022-10-24T18:43:00Z,15.87,-97.08,30.0,20.0,200,7,,14.0,29.920275,,,,,,,,,,,FEW,2000,,,,,,,VFR,,,,,,,,,,,,METAR,65.0
MMAS 241843Z 22011KT 10SM FEW030 SCT200 22/08 A3023 RMK 8/102,MMAS,2022-10-24T18:43:00Z,21.7,-102.32,22.0,8.0,220,11,,10.0,30.230314,,,,,,,,,,,FEW,3000,SCT,20000,,,,,VFR,,,,,,,,,,,,METAR,1866.0
MMMZ 241842Z 00000KT 15SM SCT020 SCT240 30/24 A2993 RMK 8/202,MMMZ,2022-10-24T18:42:00Z,23.17,-106.27,30.0,24.0,0,0,,15.0,29.929134,,,,,,,,,,,SCT,2000,SCT,24000,,,,,VFR,,,,,,,,,,,,METAR,7.0
MMMX 241842Z 05006KT 4SM SCT020 25/09 A3030 NOSIG RMK 8/100 HZY,MMMX,2022-10-24T18:42:00Z,19.43,-99.08,25.0,9.0,50,6,,4.0,30.301182,,,,,,TRUE,,,,,SCT,2000,,,,,,,MVFR,,,,,,,,,,,,METAR,2224.0
MMCV 241842Z 18012G23KT 6SM BKN200 29/20 A2977 RMK 8/008 HZ,MMCV,2022-10-24T18:42:00Z,23.72,-98.97,29.0,20.0,180,12,23,6.0,29.769686,,,,,,,,,,,BKN,20000,,,,,,,VFR,,,,,,,,,,,,METAR,230.0
MMCL 241842Z 18005KT 10SM BKN025TCU 31/22 A2993 RMK 8/200 HZY,MMCL,2022-10-24T18:42:00Z,24.77,-107.47,31.0,22.0,180,5,,10.0,29.929134,,,,,,,,,,,BKN,2500,,,,,,,MVFR,,,,,,,,,,,,METAR,35.0
MMAA 241842Z 24003KT 6SM FEW010TCU BKN100 29/25 A2989 RMK 8/230 HZY,MMAA,2022-10-24T18:42:00Z,16.75,-99.75,29.0,25.0,240,3,,6.0,29.890747,,,,,,,,,,,FEW,1000,BKN,10000,,,,,VFR,,,,,,,,,,,,METAR,5.0
MMUN 241841Z 12010KT 7SM SCT015TCU 31/23 A2995 RMK 8/200,MMUN,2022-10-24T18:41:00Z,21.03,-86.85,31.0,23.0,120,10,,7.0,29.949802,,,,,,,,,,,SCT,1500,,,,,,,VFR,,,,,,,,,,,,METAR,13.0
MMTJ 241841Z 14006KT 10SM SKC 23/M08 A3015 RMK HZY,MMTJ,2022-10-24T18:41:00Z,32.53,-116.97,23.0,-8.0,140,6,,10.0,30.15059,,,,,,,,,,,SKC,,,,,,,,VFR,,,,,,,,,,,,METAR,150.0
MMTC 241841Z 26015KT 10SM BKN220 29/06 A2996 RMK 8/008,MMTC,2022-10-24T18:41:00Z,25.57,-103.4,29.0,6.0,260,15,,10.0,29.958662,,,,,,,,,,,BKN,22000,,,,,,,VFR,,,,,,,,,,,,SPECI,1128.0
MMGM 241841Z 24010KT 10SM SCT020 26/19 A2997 RMK 8/100,MMGM,2022-10-24T18:41:00Z,27.95,-110.92,26.0,19.0,240,10,,10.0,29.970472,,,,,,,,,,,SCT,2000,,,,,,,VFR,,,,,,,,,,,,METAR,13.0
MMCN 241841Z 34008KT 10SM FEW030 28/08 A2998 RMK 8/100 HZY,MMCN,2022-10-24T18:41:00Z,27.4,-109.83,28.0,8.0,340,8,,10.0,29.97933,,,,,,,,,,,FEW,3000,,,,,,,VFR,,,,,,,,,,,,METAR,57.0
MMBT 241841Z 25006KT 10SM FEW030 31/25 A2994 RMK 8/100 DSNT TCU ALQDS,MMBT,2022-10-24T18:41:00Z,15.77,-96.27,31.0,25.0,250,6,,10.0,29.940945,,,,,,,,,,,FEW,3000,,,,,,,VFR,,,,,,,,,,,,METAR,137.0
MMZO 241840Z 24010KT 15SM FEW020 30/25 A2999 RMK 8/100,MMZO,2022-10-24T18:40:00Z,19.13,-104.57,30.0,25.0,240,10,,15.0,29.991142,,,,,,,,,,,FEW,2000,,,,,,,VFR,,,,,,,,,,,,SPECI,11.0
MMZH 241840Z 21007KT 7SM FEW020 32/24 A2992 RMK 8/100 HZY,MMZH,2022-10-24T18:40:00Z,17.6,-101.47,32.0,24.0,210,7,,7.0,29.920275,,,,,,,,,,,FEW,2000,,,,,,,VFR,,,,,,,,,,,,METAR,9.0
MMZC 241840Z E19015KT 10SM FEW020 SCT200 22/11 A3024 RMK 8/101,MMZC,2022-10-24T18:40:00Z,22.9,-102.68,22.0,11.0,190,15,,10.0,30.239174,,,,,,,,,,,FEW,2000,SCT,20000,,,,,VFR,,,,,,,,,,,,SPECI,2175.0
MMTP 241840Z 24008KT 8SM FEW030TCU 33/24 A2989 RMK 8/200 HZY DSNT CB N NE,MMTP,2022-10-24T18:40:00Z,14.78,-92.37,33.0,24.0,240,8,,8.0,29.890747,,,,,,,,,,,FEW,3000,,,,,,,VFR,,,,,,,,,,,,METAR,27.0
MMTG 241840Z 13008KT 8SM SCT020TCU 31/19 A2994 RMK 8/200,MMTG,2022-10-24T18:40:00Z,16.57,-93.03,31.0,19.0,130,8,,8.0,29.940945,,,,,,,,,,,SCT,2000,,,,,,,VFR,,,,,,,,,,,,METAR,463.0
MMSP 241840Z 20011KT 10SM FEW025 SCT230 26/08 A3017 RMK 8/101,MMSP,2022-10-24T18:40:00Z,22.25,-100.93,26.0,8.0,200,11,,10.0,30.171259,,,,,,,,,,,FEW,2500,SCT,23000,,,,,VFR,,,,,,,,,,,,SPECI,1841.0
MMRX 241840Z 20010G20KT 7SM FEW045 OVC250 33/19 A2974 RMK 8/507 HZY,MMRX,2022-10-24T18:40:00Z,26.02,-98.22,33.0,19.0,200,10,20,7.0,29.740158,,,,,,,,,,,FEW,4500,OVC,25000,,,,,VFR,,,,,,,,,,,,METAR,45.0
MMQT 241840Z 26014KT 10SM FEW020 24/12 A3029 RMK 8/100,MMQT,2022-10-24T18:40:00Z,20.62,-100.18,24.0,12.0,260,14,,10.0,30.28937,,,,,,,,,,,FEW,2000,,,,,,,VFR,,,,,,,,,,,,METAR,1909.0
MMPR 241840Z 24007KT 15SM SCT028 30/24 A2993 RMK 8/400,MMPR,2022-10-24T18:40:00Z,20.67,-105.25,30.0,24.0,240,7,,15.0,29.929134,,,,,,,,,,,SCT,2800,,,,,,,VFR,,,,,,,,,,,,SPECI,6.0
MMPQ 241840Z 00000KT 7SM FEW040 31/23 A2976 RMK 8/100,MMPQ,2022-10-24T18:40:00Z,17.53,-92.02,31.0,23.0,0,0,,7.0,29.760826,,,,,,,,,,,FEW,4000,,,,,,,VFR,,,,,,,,,,,,METAR,48.0
MMPN 241840Z 20006KT 10SM BKN030TCU 23/19 A3020 RMK 8/200 HZY LWR LCDS S,MMPN,2022-10-24T18:40:00Z,19.38,-102.03,23.0,19.0,200,6,,10.0,30.200787,,,,,,,,,,,BKN,3000,,,,,,,MVFR,,,,,,,,,,,,SPECI,1602.0
MMNL 241840Z 18010KT 7SM BKN220 33/21 A2972 RMK 8/002 HZY,MMNL,2022-10-24T18:40:00Z,27.43,-99.57,33.0,21.0,180,10,,7.0,29.719488,,,,,,,,,,,BKN,22000,,,,,,,VFR,,,,,,,,,,,,METAR,146.0
MMML 241840Z 32014KT 10SM SKC 22/M11 A3019,MMML,2022-10-24T18:40:00Z,32.62,-115.23,22.0,-11.0,320,14,,10.0,30.188976,,,,,,,,,,,SKC,,,,,,,,VFR,,,,,,,,,,,,METAR,21.0
MMMA 241840Z 17016G27KT 9SM OVC020TCU 30/23 A2979 RMK 8/2// HZY BINOVC,MMMA,2022-10-24T18:40:00Z,25.77,-97.52,30.0,23.0,170,16,27,9.0,29.790354,,,,,,,,,,,OVC,2000,,,,,,,MVFR,,,,,,,,,,,,METAR,7.0
MMLP 241840Z 35010KT 10SM FEW030 FEW220 25/14 A3000 RMK 8/108,MMLP,2022-10-24T18:40:00Z,24.07,-110.37,25.0,14.0,350,10,,10.0,30.0,,,,,,,,,,,FEW,3000,FEW,22000,,,,,VFR,,,,,,,,,,,,METAR,16.0
MMIA 241840Z 21008KT 6SM SCT020CB 27/23 A3002 RMK 8/300,MMIA,2022-10-24T18:40:00Z,19.27,-103.57,27.0,23.0,210,8,,6.0,30.02067,,,,,,,,,,,SCT,2000,,,,,,,VFR,,,,,,,,,,,,SPECI,744.0
MMHO 241840Z 21003KT 10SM BKN025 25/13 A3006 RMK 8/500,MMHO,2022-10-24T18:40:00Z,29.08,-111.05,25.0,13.0,210,3,,10.0,30.059055,,,,,,,,,,,BKN,2500,,,,,,,MVFR,,,,,,,,,,,,METAR,186.0
MMEP 241840Z 00000KT 12SM SCT020 27/19 A3009 RMK 8/100,MMEP,2022-10-24T18:40:00Z,21.42,-104.85,27.0,19.0,0,0,,12.0,30.088583,,,,,,,,,,,SCT,2000,,,,,,,VFR,,,,,,,,,,,,SPECI,921.0
MMCU 241840Z 23014KT 10SM SKC 25/M06 A2996,MMCU,2022-10-24T18:40:00Z,28.7,-105.97,25.0,-6.0,230,14,,10.0,29.958662,,,,,,,,,,,SKC,,,,,,,,VFR,,,,,,,,,,,,METAR,1349.0
MMCP 241840Z 12010KT 7SM BKN030TCU 33/24 A2989 RMK 8/200,MMCP,2022-10-24T18:40:00Z,19.82,-90.5,33.0,24.0,120,10,,7.0,29.890747,,,,,,,,,,,BKN,3000,,,,,,,MVFR,,,,,,,,,,,,METAR,9.0
MMCE 241840Z 14010KT 7SM SKC 30/22 A2988 RMK HZY,MMCE,2022-10-24T18:40:00Z,18.65,-91.8,30.0,22.0,140,10,,7.0,29.878937,,,,,,,,,,,SKC,,,,,,,,VFR,,,,,,,,,,,,METAR,5.0
MMAN 241840Z 10003KT 10SM SCT200 32/18 A2978 RMK 8/001 HZY ISOL SC S,MMAN,2022-10-24T18:40:00Z,25.87,-100.23,32.0,18.0,100,3,,10.0,29.778543,,,,,,,,,,,SCT,20000,,,,,,,VFR,,,,,,,,,,,,METAR,447.0
KSUT 241835Z AUTO 00000KT 10SM OVC009 18/15 A3012 RMK AO2 T01830151,KSUT,2022-10-24T18:35:00Z,33.93,-78.08,18.3,15.1,0,0,,10.0,30.121063,,,TRUE,TRUE,,,,,,,OVC,900,,,,,,,IFR,,,,,,,,,,,,METAR,6.0
KGPH 241835Z AUTO 30011KT 7SM RA OVC007 11/10 A2974 RMK AO2,KGPH,2022-10-24T18:35:00Z,39.33,-94.32,11.0,10.0,300,11,,7.0,29.740158,,,TRUE,TRUE,,,,,,RA,OVC,700,,,,,,,IFR,,,,,,,,,,,,SPECI,233.0
K0V4 241835Z AUTO 36003KT 10SM CLR 24/10 A3011 RMK AO1 T02370103,K0V4,2022-10-24T18:35:00Z,37.15,-79.02,23.7,10.3,360,3,,10.0,30.109253,,,TRUE,TRUE,,,,,,,CLR,,,,,,,,VFR,,,,,,,,,,,,METAR,186.0
YMAY 241830Z AUTO 00000KT 9999 // BKN096 OVC110 15/15 Q1004,YMAY,2022-10-24T18:30:00Z,-36.07,146.95,15.0,15.0,0,0,,6.21,29.64567,,,TRUE,,,,,,,,BKN,9600,OVC,11000,,,,,VFR,,,,,,,,,,,,SPECI,156.0
VOVZ 241830Z VRB02KT 3500 BR FEW018 SCT220 24/23 Q1008 NOSIG,VOVZ,2022-10-24T18:30:00Z,17.72,83.22,24.0,23.0,0,2,,2.17,29.763779,,,,,,TRUE,,,,BR,FEW,1800,SCT,22000,,,,,IFR,,,,,,,,,,,,METAR,4.0
VEGT 241830Z 03002KT 2500 RA FEW010 SCT015 FEW025CB OVC090 20/20 Q1005 NOSIG,VEGT,2022-10-24T18:30:00Z,26.1,91.58,20.0,20.0,30,2,,1.55,29.675198,,,,,,TRUE,,,,RA,FEW,1000,SCT,1500,FEW,2500,OVC,9000,IFR,,,,,,,,,,,,METAR,50.0
YGTH 241825Z AUTO 00000KT 9999 // SCT090 12/11 Q1004,YGTH,2022-10-24T18:25:00Z,-34.25,146.07,12.0,11.0,0,0,,6.21,29.64567,,,TRUE,,,,,,,,SCT,9000,,,,,,,VFR,,,,,,,,,,,,SPECI,132.0
