{"station_id": ["AGGA", "AGGC", "AGGH", "AGGK", "AGGL", "AGGM", "AGGN", "AGGR", "ANYN", "AYPY", "BGBW", "BGGH", "BGJN", "BGKK", "BGPT", "BGQQ", "BGSF", "BGSS", "BGTL", "BGUK", "BGUQ", "BIAR", "BIEG", "BIHN", "BIVM", "BKPR", "CBBC", "CWSA", "CWWU", "CYAB", "CYAH", "CYAM", "CYAS", "CYAW", "CYAY", "CYAZ", "CYBB", "CYBC", "CYBG", "CYBK", "CYBL", "CYBR", "CYBW", "CYBX", "CYCA", "CYCB", "CYCD", "CYCG", "CYCO", "CYCX", "CYCY", "CYDA", "CYDB", "CYDF", "CYDL", "CYDN", "CYDP", "CYDQ", "CYED", "CYEG", "CYEK", "CYEN", "CYEU", "CYEV", "CYFB", "CYFC", "CYFS", "CYGH", "CYGK", "CYGL", "CYGP", "CYGQ", "CYGR", "CYGT", "CYGV", "CYGW", "CYGX", "CYHA", "CYHD", "CYHI", "CYHK", "CYHM", "CYHU", "CYHY", "CYHZ", "CYIK", "CYIO", "CYIV", "CYJT", "CYKA", "CYKF", "CYKG", "CYKJ", "CYKL", "CYKQ", "CYLD", "CYLK", "CYLL", "CYLT", "CYLW", "CYMA", "CYMH", "CYMJ", "CYMM", "CYMO", "CYMT", "CYMX", "CYNA", "CYND", "CYNE", "CYOC", "CYOD", "CYOJ", "CYOO", "CYOW", "CYOY", "CYPA", "CYPC", "CYPE", "CYPG", "CYPH", "CYPL", "CYPQ", "CYPR", "CYPX", "CYPY", "CYQA", "CYQB", "CYQD", "CYQF", "CYQG", "CYQH", "CYQI", "CYQK", "CYQL", "CYQM", "CYQQ", "CYQR", "CYQT", "CYQU", "CYQV", "CYQW", "CYQX", "CYQY", "CYQZ", "CYRA", "CYRB", "CYRJ", "CYRL", "CYRQ", "CYRT", "CYSB", "CYSC", "CYSF", "CYSJ", "CYSM", "CYSN", "CYSP", "CYSY", "CYTE", "CYTH", "CYTL", "CYTQ", "CYTR", "CYTS", "CYTZ", "CYUB", "CYUL", "CYUT", "CYUX", "CYUY", "CYVC", "CYVM", "CYVO", "CYVP", "CYVQ", "CYVR", "CYVT", "CYVV", "CYWE", "CYWG", "CYWH", "CYWJ", "CYWK", "CYWL", "CYXC", "CYXE", "CYXH", "CYXJ", "CYXL", "CYXP", "CYXR", "CYXS", "CYXT", "CYXU", "CYXX", "CYXY", "CYXZ", "CYYB", "CYYC", "CYYD", "CYYE", "CYYF", "CYYG", "CYYH", "CYYJ", "CYYL", "CYYN", "CYYQ", "CYYR", "CYYT", "CYYU", "CYYY", "CYYZ", "CYZE", "CYZF", "CYZG", "CYZH", "CYZP", "CYZR", "CYZS", "CYZT", "CYZU", "CYZV", "CYZW", "CYZX", "CYZY", "CZBF", "CZFA", "CZFM", "CZMD", "CZMT", "CZSJ", "CZUM", "CZVL", "DAAD", "DAAE", "DAAG", "DAAJ", "DAAP", "DAAS", "DAAT", "DAAV", "DAAY", "DABB", "DABC", "DABS", "DABT", "DAFH", "DAOB", "DAOF", "DAOI", "DAON", "DAOO", "DAOR", "DAOV", "DATM", "DAUA", "DAUB", "DAUG", "DAUH", "DAUI", "DAUK", "DAUL", "DAUO", "DAUT", "DAUU", "DAUZ", "DBBB", "DFFD", "DFOO", "DGAA", "DGLE", "DGSI", "DIAP", "DIBK", "DIYO", "DNAA", "DNAK", "DNBE", "DNGO", "DNIB", "DNIL", "DNJO", "DNKA", "DNKN", "DNKT", "DNMA", "DNMM", "DNSO", "DNSU", "DNYO", "DRRN", "DRZA", "DRZR", "DTKA", "DTMB", "DTNH", "DTTA", "DTTB", "DTTF", "DTTG", "DTTJ", "DTTR", "DTTX", "DTTZ", "DXNG", "DXXX", "EBAW", "EBBR", "EBCI", "EBCV", "EBFN", "EBLG", "EBOS", "EDAC", "EDAH", "EDDB", "EDDC", "EDDE", "EDDF", "EDDG", "EDDH", "EDDK", "EDDL", "EDDM", "EDDN", "EDDP", "EDDR", "EDDS", "EDDV", "EDDW", "EDFH", "EDFM", "EDGS", "EDHL", "EDJA", "EDLN", "EDLP", "EDLV", "EDLW", "EDMA", "EDMO", "EDNY", "EDQM", "EDSB", "EDTL", "EDTY", "EDVE", "EDVK", "EEEI", "EEKA", "EEKE", "EETN", "EFHK", "EFIV", "EFJY", "EFKE", "EFKK", "EFKS", "EFKU", "EFMA", "EFOU", "EFPO", "EFRO", "EFSI", "EFTP", "EFTU", "EFVA", "EGAA", "EGAC", "EGAE", "EGBB", "EGBJ", "EGCC", "EGCK", "EGCN", "EGDR", "EGDY", "EGFF", "EGGD", "EGGP", "EGGW", "EGHH", "EGHI", "EGHQ", "EGJA", "EGJB", "EGJJ", "EGKA", "EGKB", "EGKK", "EGLC", "EGLF", "EGLL", "EGMC", "EGMD", "EGNH", "EGNJ", "EGNM", "EGNR", "EGNS", "EGNT", "EGNV", "EGNX", "EGOS", "EGOV", "EGPA", "EGPB", "EGPC", "EGPD", "EGPE", "EGPF", "EGPH", "EGPK", "EGPN", "EGPO", "EGSH", "EGSS", "EGSY", "EGTE", "EGTK", "EGUB", "EGUL", "EGUN", "EGUW", "EGVA", "EGVN", "EGVO", "EGVP", "EGWU", "EGXC", "EGXE", "EGYM", "EGYP", "EHAM", "EHBK", "EHEH", "EHGG", "EHGR", "EHKD", "EHLE", "EHLW", "EHRD", "EHVK", "EHWO", "EICK", "EIDL", "EIDW", "EIKN", "EIKY", "EIME", "EINN", "EISG", "EIWF", "EKAH", "EKBI", "EKCH", "EKEB", "EKGC", "EKHD", "EKKA", "EKRK", "EKRN", "EKSB", "EKSP", "EKVG", "EKYT", "ELLX", "ENAL", "ENAN", "ENAT", "ENBN", "ENBO", "ENBR", "ENBS", "ENBV", "ENCN", "ENDU", "ENEV", "ENFL", "ENGC", "ENGM", "ENHD", "ENHE", "ENHF", "ENHV", "ENKB", "ENKR", "ENLE", "ENML", "ENMS", "ENNA", "ENOA", "ENOL", "ENOV", "ENRA", "ENRM", "ENRY", "ENSB", "ENSD", "ENSH", "ENSK", "ENSR", "ENTC", "ENTO", "ENVA", "ENVD", "ENZV", "EPBY", "EPCE", "EPDA", "EPDE", "EPGD", "EPIR", "EPKK", "EPKS", "EPKT", "EPLB", "EPLK", "EPLL", "EPLY", "EPMB", "EPMI", "EPMM", "EPMO", "EPOK", "EPPO", "EPPR", "EPPW", "EPRA", "EPRZ", "EPSC", "EPSN", "EPSY", "EPTM", "EPWA", "EPWR", "EPZG", "ESDF", "ESGG", "ESGJ", "ESGP", "ESKN", "ESMK", "ESMQ", "ESMS", "ESMT", "ESMX", "ESNG", "ESNN", "ESNO", "ESNU", "ESNX", "ESNZ", "ESOE", "ESOW", "ESPA", "ESSA", "ESSB", "ESSV", "ESTA", "ESTL", "ETAD", "ETAR", "ETEB", "ETHF", "ETIK", "ETNG", "ETNL", "ETNW", "ETOU", "ETSN", "EVGA", "EVLA", "EVRA", "EYKA", "EYPA", "EYSA", "EYVI", "FABL", "FACT", "FAGG", "FALA", "FALE", "FAOR", "FAPE", "FAPM", "FAUP", "FBKE", "FBMN", "FBPM", "FBSK", "FCBB", "FCPP", "FEFF", "FGBT", "FGSL", "FIMP", "FIMR", "FJDG", "FKKD", "FKYS", "FMCH", "FMCZ", "FMEE", "FMEP", "FMMI", "FMMS", "FMMT", "FMNA", "FMNM", "FMNN", "FMSD", "FMST", "FNBG", "FNCA", "FNCT", "FNDU", "FNGI", "FNHU", "FNKU", "FNLU", "FNMA", "FNME", "FNMO", "FNSA", "FNSO", "FNUB", "FNUE", "FOOG", "FOOL", "FSIA", "FTTJ", "FWCL", "FWKI", "FYGF", "FYKM", "FYLZ", "FYOA", "FYRU", "FYWB", "FYWE", "FYWH", "GABS", "GAGO", "GBYD", "GCFV", "GCGM", "GCHI", "GCLA", "GCLP", "GCRR", "GCTS", "GCXO", "GECE", "GEML", "GGOV", "GMAD", "GMAG", "GMFF", "GMFK", "GMFM", "GMFO", "GMME", "GMMH", "GMMI", "GMML", "GMMN", "GMMW", "GMMX", "GMMZ", "GMTA", "GMTT", "GOBD", "GOGS", "GOOY", "GOSS", "GQNO", "GQPP", "GVAC", "GVBA", "GVNP", "GVSV", "HAAB", "HADR", "HBBA", "HCMM", "HDAM", "HEAL", "HEAR", "HEAT", "HEAX", "HEBA", "HEBL", "HECA", "HEGN", "HELX", "HEMA", "HEMM", "HEOW", "HEPS", "HESC", "HESG", "HESH", "HESN", "HETB", "HETR", "HKEL", "HKJK", "HKKI", "HKML", "HKMO", "HKNW", "HLGD", "HLGT", "HLKF", "HLLB", "HLLM", "HLLQ", "HLLS", "HLMS", "HLON", "HLTD", "HLTQ", "HLUB", "HRYR", "HRZA", "HSSJ", "HSSK", "HTAR", "HTDA", "HTDO", "HTKA", "HTKJ", "HTMW", "HTTB", "HTZA", "HUEN", "HUSO", "KABE", "KABI", "KABQ", "KABR", "KABY", "KACK", "KACT", "KACV", "KACY", "KADF", "KADW", "KAEG", "KAEX", "KAFF", "KAFW", "KAGC", "KAGS", "KAHN", "KAIA", "KALB", "KALI", "KALO", "KALS", "KALW", "KAMA", "KANB", "KAND", "KAOO", "KAPA", "KAPC", "KAPF", "KAPN", "KARA", "KART", "KASD", "KASE", "KASN", "KAST", "KATL", "KATW", "KATY", "KAUG", "KAUS", "KAUW", "KAVL", "KAVP", "KAXN", "KAZO", "KBAB", "KBAD", "KBAF", "KBAM", "KBBD", "KBBG", "KBCB", "KBCE", "KBDL", "KBDN", "KBDR", "KBED", "KBFD", "KBFF", "KBFI", "KBFL", "KBFM", "KBGM", "KBGR", "KBHB", "KBHM", "KBIF", "KBIH", "KBIL", "KBIS", "KBIX", "KBJC", "KBJI", "KBKE", "KBKF", "KBKW", "KBLF", "KBLH", "KBLI", "KBLV", "KBMG", "KBMI", "KBNA", "KBNO", "KBOI", "KBOS", "KBPI", "KBPK", "KBPT", "KBRD", "KBRL", "KBRO", "KBTL", "KBTM", "KBTR", "KBTV", "KBUF", "KBUR", "KBVI", "KBVO", "KBWG", "KBWI", "KBYI", "KBZN", "KCAE", "KCAK", "KCAR", "KCBM", "KCDC", "KCDR", "KCDS", "KCEC", "KCEF", "KCGI", "KCHA", "KCHO", "KCHS", "KCID", "KCIU", "KCKB", "KCKV", "KCLE", "KCLL", "KCLM", "KCLT", "KCMA", "KCMH", "KCMI", "KCMX", "KCNM", "KCNU", "KCNY", "KCOD", "KCOE", "KCOF", "KCON", "KCOS", "KCOT", "KCOU", "KCPR", "KCPS", "KCRE", "KCRG", "KCRP", "KCRQ", "KCRW", "KCSG", "KCSM", "KCSV", "KCTB", "KCUB", "KCVG", "KCVS", "KCWA", "KCXO", "KCXP", "KCYS", "KDAA", "KDAB", "KDAG", "KDAL", "KDAN", "KDAY", "KDBQ", "KDCA", "KDDC", "KDEC", "KDEN", "KDET", "KDFW", "KDHN", "KDHT", "KDIJ", "KDIK", "KDLF", "KDLH", "KDLS", "KDMA", "KDMN", "KDNL", "KDOV", "KDPA", "KDRO", "KDRT", "KDSM", "KDTW", "KDUJ", "KDVL", "KDVT", "KDYS", "KEAR", "KEAT", "KEAU", "KECG", "KECP", "KEDW", "KEED", "KEET", "KEFD", "KEFK", "KEGE", "KEGI", "KEKN", "KEKO", "KEKS", "KELD", "KELM", "KELP", "KELY", "KEND", "KENV", "KENW", "KERI", "KEUG", "KEUL", "KEVV", "KEVW", "KEWN", "KEWR", "KEYW", "KFAF", "KFAR", "KFAT", "KFAY", "KFBG", "KFCS", "KFDY", "KFFO", "KFHU", "KFKL", "KFLG", "KFLL", "KFLO", "KFMH", "KFMN", "KFMY", "KFNT", "KFOD", "KFOE", "KFPR", "KFRI", "KFSD", "KFSM", "KFST", "KFTK", "KFTW", "KFTY", "KFVE", "KFWA", "KFXE", "KFYV", "KGBD", "KGCC", "KGCK", "KGCN", "KGDV", "KGEG", "KGFA", "KGFK", "KGFL", "KGGG", "KGGW", "KGJT", "KGKY", "KGLH", "KGLS", "KGMU", "KGNV", "KGON", "KGPI", "KGPT", "KGRB", "KGRF", "KGRI", "KGRK", "KGRR", "KGSB", "KGSO", "KGSP", "KGTB", "KGTF", "KGTR", "KGUC", "KGUP", "KGUR", "KGUS", "KGUY", "KGWO", "KGYY", "KHBG", "KHCR", "KHDC", "KHDN", "KHIB", "KHIE", "KHIF", "KHIO", "KHKS", "KHKY", "KHLG", "KHLN", "KHMN", "KHNB", "KHND", "KHOB", "KHON", "KHOP", "KHOT", "KHOU", "KHPN", "KHQM", "KHRL", "KHRO", "KHRT", "KHST", "KHSV", "KHTS", "KHUA", "KHUF", "KHUL", "KHUM", "KHUT", "KHVR", "KHYA", "KHYR", "KHYS", "KIAB", "KIAD", "KIAG", "KIAH", "KICT", "KIDA", "KIFP", "KILG", "KILM", "KILN", "KIND", "KINK", "KINL", "KINS", "KINT", "KINW", "KIPL", "KIPT", "KISM", "KISO", "KISP", "KITH", "KIWA", "KIWD", "KIXD", "KJAC", "KJAN", "KJAX", "KJBR", "KJCT", "KJEF", "KJER", "KJFK", "KJHW", "KJKA", "KJKL", "KJLN", "KJMS", "KJST", "KJVL", "KJXN", "KJZI", "KLAF", "KLAL", "KLAN", "KLAR", "KLAS", "KLAW", "KLAX", "KLBB", "KLBE", "KLBF", "KLBL", "KLBT", "KLBX", "KLCH", "KLCK", "KLEB", "KLEE", "KLEX", "KLFI", "KLFK", "KLFT", "KLGA", "KLGB", "KLGU", "KLIT", "KLLQ", "KLMT", "KLND", "KLNK", "KLNS", "KLOZ", "KLRD", "KLRF", "KLRU", "KLSE", "KLSF", "KLSV", "KLTS", "KLUF", "KLUK", "KLVK", "KLVM", "KLVS", "KLWB", "KLWS", "KLWT", "KLYH", "KMAF", "KMBG", "KMBL", "KMBS", "KMCB", "KMCC", "KMCE", "KMCF", "KMCI", "KMCK", "KMCN", "KMCO", "KMCW", "KMDT", "KMDW", "KMEI", "KMEM", "KMER", "KMEV", "KMFD", "KMFE", "KMFR", "KMGE", "KMGM", "KMGW", "KMHK", "KMHR", "KMHT", "KMIA", "KMIB", "KMIV", "KMKC", "KMKE", "KMKG", "KMKL", "KMKT", "KMLB", "KMLC", "KMLI", "KMLS", "KMLU", "KMMH", "KMMT", "KMOB", "KMOD", "KMOT", "KMPV", "KMQY", "KMRB", "KMRY", "KMSL", "KMSN", "KMSO", "KMSP", "KMSS", "KMSY", "KMTC", "KMTH", "KMTJ", "KMTN", "KMTW", "KMUI", "KMUO", "KMVN", "KMWH", "KMXF", "KMYL", "KMYR", "KNBC", "KNBG", "KNCA", "KNEW", "KNFG", "KNFL", "KNFW", "KNGP", "KNGU", "KNHK", "KNID", "KNIP", "KNJK", "KNKT", "KNKX", "KNLC", "KNMM", "KNPA", "KNQI", "KNQX", "KNRB", "KNSE", "KNTD", "KNTU", "KNUC", "KNUW", "KNXP", "KNYG", "KNYL", "KNZY", "KOAJ", "KOAK", "KOFF", "KOFK", "KOGB", "KOGD", "KOKC", "KOLF", "KOLM", "KOLS", "KOMA", "KONP", "KONT", "KOPF", "KORD", "KORF", "KORH", "KOTH", "KOTM", "KOUN", "KOWB", "KOXR", "KOZR", "KPAE", "KPAH", "KPAM", "KPBF", "KPBG", "KPBI", "KPDK", "KPDT", "KPDX", "KPEQ", "KPGA", "KPGD", "KPGV", "KPHF", "KPHL", "KPHX", "KPIA", "KPIB", "KPIE", "KPIH", "KPIR", "KPIT", "KPKB", "KPLN", "KPMD", "KPNA", "KPNC", "KPNE", "KPNS", "KPOB", "KPOE", "KPOU", "KPQI", "KPRB", "KPRC", "KPSC", "KPSF", "KPSM", "KPSP", "KPTK", "KPUB", "KPUW", "KPVD", "KPVU", "KPVW", "KPWM", "KPWT", "KRAP", "KRBG", "KRBL", "KRCA", "KRDD", "KRDG", "KRDM", "KRDR", "KRDU", "KRFD", "KRHI", "KRIC", "KRIL", "KRIV", "KRIW", "KRKD", "KRKS", "KRME", "KRND", "KRNH", "KRNO", "KROA", "KROC", "KROG", "KROW", "KRSL", "KRST", "KRSW", "KRUT", "KRVS", "KRWF", "KRWI", "KRWL", "KRYY", "KSAC", "KSAF", "KSAN", "KSAT", "KSAV", "KSAW", "KSBA", "KSBD", "KSBM", "KSBN", "KSBP", "KSBY", "KSCK", "KSDF", "KSDL", "KSDY", "KSEA", "KSEZ", "KSFB", "KSFF", "KSFO", "KSGF", "KSGJ", "KSGR", "KSGU", "KSHR", "KSHV", "KSJC", "KSJS", "KSJT", "KSKA", "KSKF", "KSLC", "KSLE", "KSLI", "KSLK", "KSLN", "KSME", "KSMF", "KSMN", "KSMO", "KSMX", "KSNA", "KSNS", "KSNY", "KSOA", "KSPI", "KSPS", "KSRQ", "KSSC", "KSSF", "KSSI", "KSTC", "KSTJ", "KSTL", "KSTS", "KSUA", "KSUN", "KSUS", "KSUU", "KSUX", "KSVN", "KSWF", "KSWO", "KSYM", "KSYR", "KSZL", "KTBN", "KTCC", "KTCL", "KTCM", "KTCS", "KTEB", "KTEX", "KTIK", "KTIX", "KTLH", "KTMB", "KTOI", "KTOL", "KTOP", "KTPA", "KTPH", "KTRI", "KTRK", "KTRM", "KTTD", "KTTN", "KTUL", "KTUP", "KTUS", "KTVC", "KTVF", "KTVL", "KTWF", "KTXK", "KTYR", "KTYS", "KUAO", "KUES", "KUIN", "KUKI", "KUNV", "KUTS", "KVAD", "KVBG", "KVCT", "KVEL", "KVGT", "KVIS", "KVLD", "KVNY", "KVOK", "KVPS", "KVQQ", "KVRB", "KVTN", "KWJF", "KWMC", "KWRB", "KWRI", "KWRL", "KWWR", "KXNA", "KXWA", "KYIP", "KYKM", "KYNG", "KZZV", "LATI", "LBBG", "LBGO", "LBPD", "LBSF", "LBWN", "LCEN", "LCLK", "LCPH", "LDDU", "LDOS", "LDPL", "LDRI", "LDSP", "LDZA", "LDZD", "LEAB", "LEAG", "LEAL", "LEAM", "LEAO", "LEAS", "LEBA", "LEBB", "LEBG", "LEBL", "LEBR", "LEBZ", "LECO", "LECV", "LEEC", "LEGA", "LEGE", "LEGR", "LEGT", "LEHC", "LEIB", "LEJR", "LELC", "LELL", "LELN", "LELO", "LEMD", "LEMG", "LEMH", "LEMO", "LEPA", "LEPP", "LERI", "LERL", "LERS", "LERT", "LESA", "LESO", "LEST", "LESU", "LETO", "LEVC", "LEVD", "LEVS", "LEVT", "LEVX", "LEXJ", "LEZG", "LEZL", "LFAQ", "LFAT", "LFBA", "LFBC", "LFBD", "LFBE", "LFBG", "LFBH", "LFBI", "LFBL", "LFBM", "LFBO", "LFBP", "LFBT", "LFBU", "LFBZ", "LFCK", "LFCR", "LFGJ", "LFJL", "LFKB", "LFKC", "LFKF", "LFKJ", "LFKS", "LFLB", "LFLC", "LFLL", "LFLN", "LFLP", "LFLS", "LFLW", "LFLX", "LFLY", "LFMD", "LFMI", "LFMK", "LFML", "LFMN", "LFMO", "LFMP", "LFMT", "LFMU", "LFMV", "LFOB", "LFOE", "LFOH", "LFOJ", "LFOK", "LFOP", "LFOT", "LFPB", "LFPG", "LFPN", "LFPO", "LFPV", "LFQQ", "LFRB", "LFRC", "LFRD", "LFRG", "LFRH", "LFRI", "LFRK", "LFRM", "LFRN", "LFRQ", "LFRS", "LFRZ", "LFSB", "LFSI", "LFSL", "LFST", "LFSX", "LFTH", "LFTW", "LFVP", "LGAD", "LGAL", "LGAV", "LGBL", "LGEL", "LGHI", "LGIO", "LGIR", "LGKC", "LGKF", "LGKL", "LGKO", "LGKP", "LGKR", "LGKV", "LGLM", "LGLR", "LGMK", "LGMT", "LGPZ", "LGRP", "LGRX", "LGSA", "LGSK", "LGSM", "LGSR", "LGST", "LGSY", "LGTG", "LGTL", "LGTS", "LGZA", "LHBP", "LHDC", "LHKE", "LHPA", "LHPP", "LHPR", "LHSM", "LHSN", "LIBA", "LIBC", "LIBD", "LIBF", "LIBG", "LIBN", "LIBP", "LIBR", "LIBV", "LICA", "LICB", "LICC", "LICD", "LICG", "LICJ", "LICR", "LICT", "LICZ", "LIEA", "LIED", "LIEE", "LIEO", "LIMC", "LIME", "LIMF", "LIMG", "LIMJ", "LIML", "LIMN", "LIMP", "LIMW", "LIMZ", "LIPA", "LIPB", "LIPC", "LIPE", "LIPH", "LIPI", "LIPK", "LIPL", "LIPO", "LIPQ", "LIPR", "LIPS", "LIPX", "LIPY", "LIPZ", "LIQW", "LIRA", "LIRE", "LIRF", "LIRG", "LIRL", "LIRM", "LIRN", "LIRP", "LIRQ", "LIRS", "LIRU", "LIRV", "LIRZ", "LJCE", "LJLJ", "LJMB", "LJPZ", "LKCV", "LKKB", "LKKV", "LKMT", "LKNA", "LKPD", "LKPR", "LKTB", "LLBG", "LLER", "LLHA", "LLHZ", "LLIB", "LMML", "LOAN", "LOAV", "LOWG", "LOWI", "LOWK", "LOWL", "LOWS", "LOWW", "LOXZ", "LPAR", "LPAZ", "LPBJ", "LPCS", "LPFR", "LPHR", "LPLA", "LPMA", "LPMR", "LPMT", "LPOV", "LPPD", "LPPR", "LPPS", "LPPT", "LPST", "LQBK", "LQMO", "LQSA", "LQTZ", "LRAR", "LRBC", "LRBM", "LRBO", "LRBS", "LRCK", "LRCL", "LRCT", "LRCV", "LRFT", "LRIA", "LROD", "LROP", "LRSB", "LRSM", "LRSV", "LRTC", "LRTM", "LRTR", "LRTZ", "LSGC", "LSGG", "LSGS", "LSZA", "LSZB", "LSZC", "LSZG", "LSZH", "LSZL", "LSZR", "LSZS", "LTAB", "LTAC", "LTAD", "LTAE", "LTAF", "LTAG", "LTAH", "LTAI", "LTAJ", "LTAL", "LTAN", "LTAO", "LTAP", "LTAR", "LTAS", "LTAT", "LTAU", "LTAV", "LTAW", "LTAY", "LTAZ", "LTBA", "LTBD", "LTBF", "LTBG", "LTBH", "LTBI", "LTBJ", "LTBK", "LTBL", "LTBN", "LTBO", "LTBP", "LTBQ", "LTBR", "LTBS", "LTBT", "LTBU", "LTBV", "LTBX", "LTBY", "LTBZ", "LTCA", "LTCB", "LTCC", "LTCD", "LTCE", "LTCF", "LTCG", "LTCI", "LTCJ", "LTCK", "LTCL", "LTCM", "LTCN", "LTCO", "LTCP", "LTCR", "LTCS", "LTCT", "LTCU", "LTCV", "LTCW", "LTDA", "LTFA", "LTFB", "LTFC", "LTFD", "LTFE", "LTFG", "LTFH", "LTFJ", "LTFK", "LTFM", "LTFO", "LUBM", "LUKK", "LWOH", "LWSK", "LXGB", "LYBE", "LYBT", "LYKV", "LYNI", "LYPG", "LYTV", "LYVR", "LZIB", "LZKZ", "LZMC", "LZPP", "LZPW", "LZSL", "LZTT", "LZZI", "MBGT", "MBPV", "MDBH", "MDCY", "MDJB", "MDLR", "MDPC", "MDPP", "MDSD", "MDST", "MGGT", "MGMM", "MGPB", "MGSJ", "MHLC", "MHLM", "MHPR", "MHRO", "MHTG", "MKJP", "MKJS", "MMAA", "MMAN", "MMAS", "MMBT", "MMCB", "MMCE", "MMCL", "MMCM", "MMCN", "MMCP", "MMCS", "MMCU", "MMCV", "MMCZ", "MMDO", "MMEP", "MMGL", "MMGM", "MMHO", "MMIA", "MMIO", "MMLM", "MMLO", "MMLP", "MMLT", "MMMA", "MMMD", "MMML", "MMMM", "MMMT", "MMMV", "MMMX", "MMMY", "MMMZ", "MMNL", "MMOX", "MMPA", "MMPB", "MMPG", "MMPN", "MMPQ", "MMPR", "MMPS", "MMQT", "MMRX", "MMSD", "MMSL", "MMSM", "MMSP", "MMTC", "MMTG", "MMTJ", "MMTM", "MMTO", "MMTP", "MMUN", "MMVA", "MMVR", "MMZC", "MMZH", "MMZO", "MNBL", "MNMG", "MNPC", "MPDA", "MPMG", "MPPA", "MPSM", "MPTO", "MRLB", "MRLM", "MROC", "MRPV", "MSLP", "MSSS", "MTCH", "MTPP", "MUCC", "MUCF", "MUCL", "MUCM", "MUCU", "MUGM", "MUHA", "MUHG", "MUSC", "MUVR", "MWCR", "MYGF", "MYNN", "MZBZ", "NCRG", "NFFN", "NFNA", "NFTF", "NFTV", "NGFU", "NGTA", "NIUE", "NLWF", "NLWW", "NSFA", "NSTU", "NTAA", "NVSC", "NVSG", "NVSL", "NVSP", "NVSS", "NVVA", "NVVV", "NVVW", "NWWD", "NWWE", "NWWK", "NWWL", "NWWM", "NWWR", "NWWU", "NWWW", "NZAA", "NZCH", "NZFX", "NZQN", "NZSP", "NZWD", "NZWN", "OBBI", "OEAB", "OEAH", "OEAO", "OEBA", "OEBH", "OEDF", "OEDM", "OEDR", "OEGN", "OEGS", "OEGT", "OEHL", "OEJN", "OEKJ", "OEKM", "OEMA", "OENG", "OEPA", "OEPS", "OERF", "OERK", "OERR", "OESH", "OESK", "OETB", "OETF", "OETR", "OEWD", "OEWJ", "OEYN", "OIAA", "OIAW", "OIBB", "OIBK", "OIBP", "OICC", "OICI", "OIFM", "OIGG", "OIIE", "OIII", "OIIP", "OIKB", "OIKK", "OIMM", "OING", "OINZ", "OISL", "OISS", "OITL", "OITR", "OITT", "OIYY", "OIZH", "OJAI", "OJAM", "OJAQ", "OKAS", "OKBK", "OLBA", "OMAA", "OMAD", "OMAL", "OMDB", "OMDW", "OMFJ", "OMRK", "OMSJ", "OODQ", "OOMS", "OOSA", "OOSH", "OPBW", "OPDG", "OPFA", "OPGD", "OPIS", "OPKC", "OPLA", "OPMT", "OPNH", "OPPS", "OPRK", "OPSK", "OPST", "ORBI", "ORER", "ORMM", "ORNI", "ORSU", "OSAP", "OSDI", "OSLK", "OTBD", "OTBH", "OTHH", "PAAQ", "PABE", "PABI", "PABR", "PABT", "PACD", "PACV", "PADL", "PADQ", "PADU", "PAED", "PAEI", "PAEN", "PAFA", "PAFB", "PAGA", "PAGK", "PAGS", "PAGY", "PAHN", "PAHO", "PAIL", "PAJN", "PAKN", "PAKT", "PAKW", "PANC", "PAOM", "PAOR", "PAOT", "PAPG", "PAQT", "PASC", "PASD", "PASI", "PASN", "PASY", "PATA", "PATK", "PAUN", "PAVD", "PAWG", "PAYA", "PGRO", "PGSN", "PGUA", "PGUM", "PGWT", "PHHI", "PHJH", "PHJR", "PHKO", "PHLI", "PHMK", "PHNG", "PHNL", "PHNY", "PHOG", "PHTO", "PKMJ", "PKWA", "PLCH", "PMDY", "PTKK", "PTPN", "PTRO", "PTSA", "PTYA", "PWAK", "RCFN", "RCKH", "RCMQ", "RCNN", "RCSS", "RCTP", "RJAA", "RJAH", "RJBB", "RJCB", "RJCC", "RJCH", "RJCK", "RJCM", "RJEC", "RJFF", "RJFK", "RJFM", "RJFO", "RJFR", "RJFS", "RJFT", "RJFU", "RJGG", "RJNK", "RJNS", "RJNT", "RJOA", "RJOB", "RJOC", "RJOH", "RJOI", "RJOK", "RJOM", "RJOO", "RJOT", "RJSA", "RJSF", "RJSI", "RJSK", "RJSN", "RJSS", "RJTT", "RJTY", "RKJB", "RKJK", "RKNY", "RKPC", "RKPK", "RKSG", "RKSI", "RKSM", "RKSO", "RKSS", "RKTN", "RKTU", "ROAH", "RODN", "ROIG", "ROTM", "RPLB", "RPLC", "RPLI", "RPLL", "RPMD", "RPMR", "RPMZ", "RPVD", "RPVM", "RPVP", "SAAR", "SABE", "SACO", "SADF", "SAEZ", "SAME", "SANR", "SANT", "SARE", "SARF", "SARI", "SARP", "SASA", "SASJ", "SAVC", "SAWE", "SAWG", "SAWH", "SAZM", "SAZN", "SAZS", "SBAC", "SBAF", "SBAN", "SBAR", "SBAT", "SBBE", "SBBG", "SBBI", "SBBR", "SBBU", "SBBV", "SBBW", "SBCB", "SBCF", "SBCG", "SBCJ", "SBCO", "SBCP", "SBCR", "SBCT", "SBCY", "SBCZ", "SBDN", "SBEG", "SBFI", "SBFL", "SBFN", "SBFZ", "SBGL", "SBGO", "SBGR", "SBGW", "SBIH", "SBIL", "SBIZ", "SBJE", "SBJP", "SBJV", "SBKG", "SBKP", "SBLO", "SBMA", "SBME", "SBMN", "SBMO", "SBMQ", "SBNF", "SBNT", "SBOI", "SBPA", "SBPB", "SBPJ", "SBPK", "SBPL", "SBPP", "SBPS", "SBPV", "SBRB", "SBRF", "SBRJ", "SBRP", "SBSC", "SBSG", "SBSJ", "SBSL", "SBSM", "SBSN", "SBSP", "SBSV", "SBTD", "SBTE", "SBTF", "SBTT", "SBUG", "SBUL", "SBUR", "SBVH", "SBVT", "SBYS", "SCAR", "SCAT", "SCBA", "SCCF", "SCCI", "SCCY", "SCDA", "SCEL", "SCFA", "SCIE", "SCIP", "SCJO", "SCNT", "SCQP", "SCSE", "SCTE", "SCVM", "SEGU", "SELT", "SEMT", "SEQM", "SGAS", "SGCO", "SGEN", "SGES", "SKAR", "SKBG", "SKBO", "SKBQ", "SKCC", "SKCG", "SKCL", "SKLT", "SKPE", "SKRG", "SKSM", "SKSP", "SLAL", "SLCB", "SLCO", "SLET", "SLLP", "SLTJ", "SLTR", "SLVR", "SMJP", "SMZO", "SOCA", "SPCL", "SPEO", "SPGM", "SPHI", "SPHO", "SPHY", "SPJC", "SPJI", "SPJL", "SPJR", "SPLO", "SPME", "SPMS", "SPNC", "SPPY", "SPQT", "SPQU", "SPRU", "SPSO", "SPST", "SPTN", "SPTU", "SPYL", "SPZO", "SUAA", "SUCA", "SUDU", "SULS", "SUMU", "SURV", "SUSO", "SVBC", "SVJC", "SVMC", "SVMG", "SVMI", "SVPR", "SVSA", "SVVA", "SYCJ", "SYEB", "SYEC", "SYKA", "SYKM", "SYLT", "SYMB", "TAPA", "TBPB", "TDPD", "TGPY", "TIST", "TISX", "TJBQ", "TJPS", "TJSJ", "TKPK", "TKPN", "TLPC", "TLPL", "TNCA", "TNCB", "TNCC", "TNCM", "TQPF", "TRPG", "TTCP", "TTPP", "TUPJ", "TVSA", "TXKF", "UAAA", "UAAH", "UAAT", "UACC", "UACK", "UADD", "UAII", "UAIT", "UAKD", "UAKK", "UAOO", "UARR", "UASK", "UASP", "UASS", "UATE", "UATG", "UATT", "UAUU", "UBBB", "UBBF", "UBBG", "UBBL", "UBBN", "UBBQ", "UBBY", "UBEE", "UCFL", "UCFM", "UCFO", "UDSG", "UDYZ", "UEEE", "UERP", "UERR", "UGKO", "UGSB", "UGTB", "UHBB", "UHHH", "UHMA", "UHMM", "UHPP", "UHSS", "UHWW", "UIAA", "UIBB", "UIII", "UIUU", "ULAA", "ULLI", "ULMM", "ULOO", "ULPB", "ULWC", "UMBB", "UMGG", "UMII", "UMIO", "UMKK", "UMMG", "UMMS", "UMOO", "UNAA", "UNBB", "UNEE", "UNKL", "UNNT", "UNOO", "UNTT", "UNWW", "UOOO", "URKA", "URKK", "URMG", "URML", "URMM", "URMN", "URMO", "URMT", "URRP", "URSS", "URWA", "URWI", "URWW", "USCC", "USCM", "USDA", "USHH", "USNN", "USPP", "USRR", "USSS", "USTR", "UTAA", "UTAK", "UTAM", "UTAT", "UTAV", "UTDD", "UTDK", "UTDL", "UTDT", "UTFF", "UTFN", "UTNN", "UTNU", "UTSA", "UTSB", "UTSK", "UTSS", "UTST", "UTTT", "UUBC", "UUBP", "UUBW", "UUDD", "UUDL", "UUEE", "UUMO", "UUOB", "UUOK", "UUOL", "UUOO", "UUWW", "UUYY", "UWGG", "UWKD", "UWKE", "UWKS", "UWLL", "UWLW", "UWOO", "UWOR", "UWPS", "UWSG", "UWUU", "UWWW", "VAAH", "VAAU", "VABB", "VABJ", "VABO", "VABP", "VABV", "VADU", "VAID", "VAJB", "VAJM", "VAKE", "VAKP", "VANP", "VAOZ", "VAPO", "VAPR", "VARK", "VASL", "VASU", "VAUD", "VCBI", "VCRI", "VDPP", "VDSR", "VDSV", "VEAT", "VEBD", "VEBN", "VEBS", "VECC", "VEDG", "VEGT", "VEGY", "VEIM", "VEJH", "VEJS", "VEKO", "VEMN", "VEPT", "VERC", "VERP", "VETZ", "VGEG", "VGHS", "VHHH", "VIAG", "VIAR", "VICG", "VIDN", "VIDP", "VIJP", "VILH", "VILK", "VIPT", "VISR", "VLLB", "VLLN", "VLPS", "VLSK", "VLVT", "VMMC", "VNKT", "VOAR", "VOBG", "VOBL", "VOBM", "VOBZ", "VOCB", "VOCI", "VOCL", "VOHB", "VOHS", "VOHY", "VOKN", "VOLT", "VOMD", "VOML", "VOMM", "VOND", "VORY", "VOSR", "VOTP", "VOTR", "VOTV", "VOVZ", "VRMG", "VRMH", "VRMM", "VTBD", "VTBO", "VTBS", "VTBU", "VTCC", "VTCH", "VTCL", "VTCN", "VTCP", "VTCT", "VTPB", "VTPH", "VTPM", "VTPO", "VTPP", "VTSB", "VTSC", "VTSE", "VTSF", "VTSG", "VTSM", "VTSP", "VTSR", "VTSS", "VTST", "VTUD", "VTUI", "VTUK", "VTUL", "VTUO", "VTUQ", "VTUU", "VTUV", "VTUW", "VVCI", "VVCR", "VVCT", "VVDN", "VVNB", "VVPB", "VVPQ", "VVTS", "VYMD", "VYNT", "VYYY", "WAAA", "WABB", "WADD", "WADL", "WALL", "WALS", "WAMM", "WAOO", "WAPP", "WAQA", "WAQD", "WAQJ", "WAQQ", "WAQT", "WARR", "WATT", "WBGB", "WBGG", "WBGR", "WBGS", "WBKK", "WBKL", "WBKS", "WBKW", "WBSB", "WIDD", "WIEE", "WIHH", "WIII", "WIMM", "WIPP", "WITT", "WMAP", "WMBT", "WMKA", "WMKB", "WMKC", "WMKE", "WMKI", "WMKJ", "WMKK", "WMKL", "WMKM", "WMKN", "WMKP", "WMPA", "WMSA", "WPDL", "WSAP", "WSSL", "WSSS", "YAMB", "YBAS", "YBBN", "YBCG", "YBCS", "YBHM", "YBLN", "YBMA", "YBRK", "YBRM", "YBTL", "YBWW", "YCFS", "YCIN", "YFRT", "YGEL", "YGLA", "YHID", "YLHI", "YMAV", "YMHB", "YMLT", "YMML", "YPAD", "YPCC", "YPDN", "YPEA", "YPGV", "YPJT", "YPKG", "YPKU", "YPLM", "YPPD", "YPPH", "YPTN", "YPWR", "YPXM", "YSCB", "YSDU", "YSNF", "YSRI", "YSSY", "YSTW", "YWLM", "ZBAA", "ZBAD", "ZBHH", "ZBSJ", "ZBTJ", "ZBYN", "ZGGG", "ZGHA", "ZGKL", "ZGNN", "ZGOW", "ZGSZ", "ZHCC", "ZHHH", "ZJHK", "ZJSY", "ZKPY", "ZKWS", "ZLLL", "ZLXY", "ZMCK", "ZMUB", "ZPPP", "ZSAM", "ZSFZ", "ZSHC", "ZSJN", "ZSNB", "ZSNJ", "ZSOF", "ZSPD", "ZSQD", "ZSSS", "ZUCK", "ZUGY", "ZUUU", "ZWSH", "ZWWW", "ZYCC", "ZYHB", "ZYTL", "ZYTX"], "raw_text": ["TAF AGGA 311710Z 3118/0118 18007KT 9999 FEW018 SCT028", "TAF AGGC 311710Z 3118/0118 05007KT 9999 FEW018 SCT028 PROB40 INTER 3120/0103 8000 TSSH SCT017 FEW018CB", "TAF AGGH 311710Z 3118/0118 36007KT 9999 FEW018 BKN028 T 23 25 28 30 Q 1007 1009 1009 1007", "TAF AGGK 311710Z 3118/0118 02008KT 9999 FEW018 SCT028", "TAF AGGL 311710Z 3118/0118 05008KT 9999 FEW018 SCT028", "TAF AGGM 311710Z 3118/0118 09006KT 9999 FEW018 SCT028 PROB40 INTER 0103/0106 8000 TSSH SCT017 FEW018CB", "TAF AGGN 311710Z 3118/0118 05008KT 9999 FEW018 SCT028 PROB40 INTER 0103/0106 8000 TSSH SCT017 FEW018CB", "TAF AGGR 311710Z 3118/0118 11008KT 9999 FEW018 SCT018", "TAF ANYN 311540Z 3118/0118 08010KT 9999 SCT020 T 28 30 31 29 Q 1008 1010 1009 1007", "TAF AYPY 311544Z 3118/0118 VRB03KT 9999 BKN040 FM312200 34006KT 9999 SCT018 FM010200 22010KT 9999 -SHRA BKN020 PROB30 INTER 0103/0109 5000 TSRA BKN010 FEW018CB PROB30 3119/3121 0700 FG", "TAF BGBW 311702Z 3118/3123 VRB05KT 9999 BKN100 TEMPO 3118/3123 BKN085", "TAF BGGH 311702Z 3118/3124 04007KT 9999 FEW008 SCT050 TEMPO 3118/3124 4000 -SHSN BKN008", "TAF BGJN 311702Z 3118/3123 14008KT 9999 FEW200 PROB40 3118/3123 BKN012", "TAF BGKK 311101Z 3112/3120 08020KT 8000 -SNRA FEW005 SCT012 BKN020 TEMPO 3112/3114 08032G42KT 1500 -SN SCT005 BKN010 TEMPO 3114/3118 08038G50KT 1000 SN BLSN VV005", "TAF BGPT 311442Z 3115/3120 32018KT 9999 FEW008 SCT015 TEMPO 3115/3120 32008KT 3000 -SHSN BKN008", "TAF BGQQ 311442Z 3115/3120 01005KT 9999 SCT070 TEMPO 3115/3120 BKN070", "TAF AMD BGSF 311836Z 3118/0103 VRB06KT 9999 FEW025 BKN090 TEMPO 3118/0103 6000 -SN BKN020", "TAF BGSS 311757Z 3118/3122 01004KT 9999 BKN100", "TAF AMD BGTL 311712Z 3117/0117 13012KT 9999 BKN060 620604 QNH2932INS TXM11/3118Z TNM19/0103Z LAST NO AMDS AFT 3117 NEXT 0111", "TAF BGUK 311442Z 3115/3120 08005KT 9999 BKN100", "TAF BGUQ 311808Z 3118/3121 23008KT 9999 SCT200 TEMPO 3118/3121 5000 -SN BKN020", "TAF BIAR 311617Z 3118/0118 23005KT 9999 -RA FEW015 SCT025 BKN040 TX05/3118Z TN01/0118Z PROB40 TEMPO 3119/0101 4000 RA BKN014 TEMPO 0101/0108 23018G30KT BECMG 0112/0114 35010KT", "TAF BIEG 311616Z 3118/0118 36010KT 9999 -RA FEW020 SCT035 BKN045 TX06/3118Z TN01/0108Z TEMPO 3118/3123 3000 RA BR BKN012 BECMG 3123/0101 25020G30KT BECMG 0106/0108 24012KT BECMG 0115/0117 01010KT", "TAF BIHN 311604Z 3117/3123 10015KT 4000 -DZRA FEW008 BKN012 OVC018 BECMG 3117/3119 23020G30KT 9999 FEW015 BKN025", "TAF BIVM 311319Z 3114/3123 20022G32KT 9999 -SHRA FEW008 SCT025 BKN030", "TAF BKPR 311730Z 3118/0118 32006KT CAVOK TEMPO 0103/0106 3000 BR", "TAF CBBC 311840Z 3119/0105 VRB03KT 6SM RA BR FEW015 BKN040 TEMPO 3119/0105 4SM -SHRA BR BKN015 RMK FCST BASED ON AUTO OBS. NXT FCST BY 010100Z", "TAF CWSA 311940Z 3120/3124 25010KT P6SM SKC RMK FCST BASED ON AUTO OBS. NXT FCST BY 010800Z", "TAF CWWU 311200Z 3112/0112 21005KT P6SM FEW020 FEW180 FM311500 24012G22KT P6SM FEW030 BKN220 BECMG 3117/3119 24018G28KT FM312300 28010KT P6SM SKC FM010600 36010KT P6SM BKN015 RMK NXT FCST BY 311800Z", "TAF CYAB 311840Z 3119/3122 07005KT 5SM -SN OVC020 TEMPO 3119/3122 P6SM -SN OVC025 RMK NXT FCST BY 011300Z", "TAF CYAH 311741Z 3118/3121 19005KT P6SM OVC020 TEMPO 3118/3121 BKN025 BKN160 RMK FCST BASED ON AUTO OBS. NXT FCST BY 011100Z", "TAF CYAM 311940Z 3120/0108 07005KT P6SM FEW120 SCT240 FM312200 VRB03KT P6SM SKC RMK NXT FCST BY 010200Z", "TAF CYAS 311340Z 3114/3121 30015G25KT P6SM FEW020 SCT040 BECMG 3115/3117 30010KT FM311700 30010KT P6SM FEW020 SCT040 TEMPO 3117/3121 SCT020 BKN040 RMK NXT FCST BY 011400Z", "TAF CYAW 311740Z 3118/0106 24010KT P6SM SCT200 BECMG 3121/3123 25005KT FM010500 25005KT P6SM BKN020 RMK NXT FCST BY 010000Z", "TAF CYAY 311940Z 3120/0108 25018G28KT P6SM FEW040 SCT080 FM312200 32018G28KT P6SM FEW020 TEMPO 3122/0107 BKN020 BECMG 0101/0103 31012KT FM010700 28008KT P6SM FEW020 SCT240 RMK FCST BASED ON AUTO OBS. NXT FCST BY 010200Z", "TAF CYAZ 311840Z 3119/0101 29012KT P6SM SCT020 TEMPO 3119/0101 P6SM -SHRA BKN020 RMK NXT FCST BY 011500Z", "TAF CYBB 311840Z 3119/3124 25012KT P6SM -SN SCT010 BKN020 TEMPO 3119/3124 P6SM NSW SCT015 BKN030 RMK NXT FCST BY 011400Z", "TAF CYBC 311940Z 3120/0108 22008KT P6SM BKN240 BECMG 3120/3122 VRB03KT FM010000 04005KT P6SM BKN100 OVC200 BECMG 0104/0106 08010KT RMK FCST BASED ON AUTO OBS. NXT FCST BY 010200Z", "TAF CYBG 311740Z 3118/0118 09005KT P6SM FEW100 BKN250 FM312000 09005KT P6SM BKN100 FM010800 VRB03KT P6SM FEW100 PROB30 0109/0112 1 1/2SM BR RMK NXT FCST BY 312100Z", "TAF CYBK 311740Z 3118/0106 36025G35KT 1/2SM -SN BLSN BKN020 OVC040 TEMPO 3118/0106 3SM -SN BLSN SCT020 BKN040 RMK NXT FCST BY 010000Z", "TAF CYBL 311840Z 3119/0104 32010G20KT P6SM FEW005 BKN050 TEMPO 3119/0101 P6SM -SHRA BKN020 BECMG 3120/3122 VRB03KT FM010100 07005KT P6SM SCT008 BKN025 TEMPO 0101/0104 P6SM -RA BKN008 OVC025 RMK NXT FCST BY 010100Z", "TAF CYBR 311742Z 3118/0106 27012KT P6SM BKN180 FM312300 32005KT P6SM BKN080 RMK NXT FCST BY 010000Z", "TAF CYBW 311740Z 3118/0104 12008KT P6SM SCT015 OVC030 TEMPO 3118/3124 4SM -SHSN OVC015 BECMG 3119/3121 15006KT FM010000 15008KT P6SM BKN090 FM010300 VRB03KT P6SM SKC RMK FCST BASED ON AUTO OBS. NXT FCST BY 010000Z", "TAF CYBX 311940Z 3120/0108 33018G28KT P6SM SCT040 BKN060 FM312200 34015G25KT P6SM FEW020 BECMG 3122/3124 34008G18KT FM010100 34008KT P6SM FEW020 TEMPO 0101/0106 BKN020 FM010600 01006KT P6SM FEW020 SCT240 RMK NXT FCST BY 010200Z", "TAF CYCA 311940Z 3120/0108 32010G20KT P6SM SCT040 OVC100 TEMPO 3120/3121 P6SM -RASN FEW009 BKN020 OVC100 FM312100 32010G20KT P6SM BKN030 TEMPO 3121/0104 SCT030 FM010400 29008KT P6SM FEW040 SCT220 RMK FCST BASED ON AUTO OBS. NXT FCST BY 010200Z", "TAF CYCB 311840Z 3119/0107 31012KT P6SM SCT004 SCT010 BKN140 TEMPO 3119/3122 3SM IC BR BKN004 OVC010 FM312200 32012KT P6SM FEW004 SCT012 BKN025 TEMPO 3122/0107 4SM -SN SCT004 BKN012 OVC025 RMK NXT FCST BY 010100Z", "TAF CYCD 311740Z 3118/0104 30005KT P6SM SCT040 RMK NXT FCST BY 010000Z", "TAF CYCG 311840Z 3119/0104 VRB03KT P6SM SCT040 BKN090 TEMPO 3119/0104 P6SM -SHRA SCT020 BKN040 BECMG 3119/3121 18008KT RMK NXT FCST BY 010100Z", "TAF AMD CYCO 311850Z 3119/0107 22010G20KT P6SM SCT012 OVC030 TEMPO 3119/3122 2SM -SN -SG BR BKN012 OVC030 FM312200 23010KT P6SM SCT015 OVC030 TEMPO 3122/0107 4SM -SN BR BKN015 OVC030 RMK NXT FCST BY 010100Z", "TAF CYCX 311440Z 3115/0103 24006KT P6SM FEW100 BKN220 BECMG 3115/3117 SCT220 FM312300 20006KT P6SM BKN150 BKN220 PROB30 0101/0103 1/2SM FG VV002 RMK NXT FCST BY 312100Z", "TAF CYCY 311840Z 3119/0107 24008KT P6SM SCT015 OVC050 RMK FCST BASED ON AUTO OBS. NXT FCST BY 010100Z", "TAF CYDA 311540Z 3116/3123 VRB03KT P6SM SCT030 OVC060 TEMPO 3116/3119 5SM -SN OVC030 FM311900 24005KT P6SM SCT030 BKN060 TEMPO 3119/3123 P6SM -SN BKN030 RMK NXT FCST BY 011600Z", "TAF CYDB 311740Z 3118/0106 30010KT P6SM FEW020 OVC040 TEMPO 3118/0106 P6SM -SN BKN020 OVC040 RMK NXT FCST BY 010000Z", "TAF CYDF 311940Z 3120/0108 25018G28KT P6SM FEW040 SCT220 BECMG 3120/3122 26010G20KT BECMG 3122/3124 33005KT FM010000 33005KT P6SM FEW240 PROB30 0103/0106 1SM BR BKN004 FM010600 VRB03KT 6SM BR SCT004 BKN160 PROB30 0106/0108 1/2SM FG BKN004 RMK NXT FCST BY 010200Z", "TAF CYDL 311740Z 3118/3124 VRB03KT P6SM FEW040 SCT060 OVC100 TEMPO 3118/3124 5SM -SHSN BKN040 OVC060 RMK FCST BASED ON AUTO OBS. NXT FCST BY 011300Z", "TAF CYDN 311742Z 3118/0106 27018G28KT P6SM FEW160 SCT250 FM312200 27010KT P6SM BKN140 FM010400 26006KT P6SM BKN080 RMK FCST BASED ON AUTO OBS. NXT FCST BY 010000Z", "TAF CYDP 311940Z 3120/3123 29018G28KT P6SM FEW025 TEMPO 3120/3123 BKN020 RMK NXT FCST BY 011000Z", "TAF CYDQ 311840Z 3119/0105 12006KT P6SM SCT160 BKN240 FM312100 VRB03KT P6SM SCT040 OVC090 TEMPO 3121/0103 4SM -SN OVC040 FM010300 23006KT P6SM SCT120 BKN220 RMK FCST BASED ON AUTO OBS. NXT FCST BY 010100Z", "TAF CYED 311740Z 3118/0106 23005KT P6SM BKN130 BECMG 3121/3123 14005KT FM010400 09005KT 6SM -SHRASN BKN060 BKN120 RMK NXT FCST BY 010000Z", "TAF CYEG 311740Z 3118/0118 VRB03KT P6SM BKN100 BECMG 3118/3120 18008KT FM312000 18008KT P6SM BKN080 BECMG 3122/3124 15008KT FM010300 13012KT P6SM BKN060 TEMPO 0103/0106 3SM -SHSN BKN040 OVC060 FM010600 11008KT P6SM BKN040 BECMG 0107/0109 VRB03KT FM011200 VRB03KT P6SM SKC PROB30 0112/0117 3/4SM BR FM011700 32012KT P6SM BKN030 RMK NXT FCST BY 312100Z", "TAF CYEK 311740Z 3118/0106 27005KT P6SM SCT005 BKN010 TEMPO 3118/0101 2SM -SN BKN005 OVC010 BECMG 3120/3122 24020G30KT FM010100 35030G40KT P6SM SCT008 BKN015 TEMPO 0101/0106 4SM -SN BKN008 OVC015 BECMG 0102/0104 35035G45KT RMK NXT FCST BY 010000Z", "TAF CYEN 311743Z 3118/3124 27012KT P6SM FEW120 SCT220 FM312100 25008KT P6SM BKN080 RMK FCST BASED ON AUTO OBS. NXT FCST BY 011200Z", "TAF CYEU 311743Z 3118/0102 VRB03KT P6SM FEW020 SCT090 TEMPO 3118/0102 4SM IC RMK ADVISORY OFFSITE. NXT FCST BY 010000Z", "TAF CYEV 311840Z 3119/0107 27005KT P6SM BKN025 TEMPO 3119/3122 2 1/2SM -SN BR OVC020 FM312200 02005KT P6SM BKN020 TEMPO 3122/0107 P6SM -SN BKN025 RMK NXT FCST BY 010100Z", "TAF CYFB 311740Z 3118/0118 34018KT P6SM SCT020 BKN030 TEMPO 3118/3124 BKN020 OVC030 BECMG 3122/3124 02010KT FM011200 13018KT P6SM -SN SCT006 BKN015 RMK NXT FCST BY 010000Z", "TAF CYFC 311740Z 3118/0106 20005KT P6SM SCT200 FM010000 18005KT P6SM FEW008 OVC130 PROB30 0100/0106 BKN008 OVC130 RMK FCST BASED ON AUTO OBS. NXT FCST BY 010000Z", "TAF CYFS 311740Z 3118/0106 33008KT 3/4SM -SN VV008 TEMPO 3118/3121 4SM -SN OVC030 FM312100 33010G20KT P6SM SCT012 OVC030 TEMPO 3121/0106 3SM -SN BKN012 OVC030 PROB30 3121/0102 1 1/2SM -SHSN RMK NXT FCST BY 010000Z", "TAF CYGH 311740Z 3118/3123 30006KT P6SM SCT015 BKN030 TEMPO 3118/3123 5SM -SN SCT008 BKN015 RMK NXT FCST BY 011400Z", "TAF CYGK 311940Z 3120/0103 18010KT P6SM SCT015 OVC050 TEMPO 3120/0103 5SM -SHRA BR BKN015 OVC030 RMK NXT FCST BY 011200Z", "TAF CYGL 311741Z 3118/0118 16010KT P6SM BKN006 OVC010 BECMG 3118/3120 SCT010 FM312000 15010KT P6SM FEW050 BKN150 FM010200 15010KT P6SM SCT020 OVC100 TEMPO 0102/0105 BKN020 OVC100 FM010500 19012KT P6SM FEW008 SCT100 FM011100 23010G20KT P6SM SCT015 BKN030 FM011500 26015G25KT P6SM BKN012 OVC025 BECMG 0116/0118 25020G35KT RMK NXT FCST BY 010000Z", "TAF CYGP 311940Z 3120/0108 31008KT P6SM SCT220 BECMG 3120/3122 VRB03KT FM010200 VRB03KT P6SM BKN120 OVC200 RMK NXT FCST BY 010200Z", "TAF CYGQ 311940Z 3120/0108 21012G22KT P6SM FEW240 FM010000 21010KT P6SM BKN200 FM010600 26007KT P6SM BKN130 OVC180 RMK FCST BASED ON AUTO OBS. NXT FCST BY 010200Z", "TAF CYGR 311940Z 3120/0102 28010KT P6SM SCT150 BKN250 BECMG 3123/0101 VRB03KT RMK NXT FCST BY 011100Z", "TAF CYGT 311840Z 3119/3122 28015KT P6SM FEW015 SCT030 TEMPO 3119/3122 P6SM -SN BKN015 RMK NXT FCST BY 011200Z", "TAF CYGV 311940Z 3120/0108 33008KT P6SM SKC BECMG 3120/3122 36005KT FM010000 04008KT P6SM BKN240 FM010600 08010KT P6SM BKN120 OVC200 RMK FCST BASED ON AUTO OBS. NXT FCST BY 010200Z", "TAF CYGW 311741Z 3118/0106 17010G20KT P6SM SCT020 BKN040 BKN160 TEMPO 3118/3124 BKN020 OVC040 FM010000 14012G22KT P6SM SCT040 BKN100 FM010300 14015G25KT P6SM BKN090 RMK FCST BASED ON AUTO OBS. NXT FCST BY 010000Z", "TAF CYGX 311840Z 3119/0107 23010KT P6SM OVC020 TEMPO 3119/3120 SCT020 SCT100 FM312000 27015G25KT P6SM -SHRA OVC020 TEMPO 3120/3123 5SM -SHRA BR OVC010 FM312300 29015G25KT P6SM OVC020 TEMPO 3123/0102 5SM -SHRASN BR FM010200 30020G30KT P6SM BKN020 TEMPO 0102/0107 P6SM -SN RMK NXT FCST BY 010100Z", "TAF CYHA 311340Z 3114/3121 32020G30KT P6SM OVC025 TEMPO 3114/3119 P6SM -SN FEW008 OVC015 BECMG 3117/3119 33015KT FM311900 33015KT P6SM OVC025 TEMPO 3119/3121 P6SM -SN OVC015 BECMG 3119/3121 30008KT RMK NXT FCST BY 011400Z", "TAF CYHD 311940Z 3120/0108 22012G22KT P6SM SCT190 BKN210 BECMG 3120/3122 24012G22KT BKN220 FM010000 25012KT P6SM BKN130 BECMG 0101/0103 26007KT FM010600 26005KT P6SM OVC100 RMK FCST BASED ON AUTO OBS. NXT FCST BY 010200Z", "TAF CYHI 311840Z 3119/3124 05010KT P6SM SCT010 BKN040 TEMPO 3119/3124 FEW005 BKN010 BKN040 RMK NXT FCST BY 011600Z", "TAF CYHK 311740Z 3118/0106 30008KT 6SM -SN OVC015 TEMPO 3118/0106 P6SM NSW SCT015 BKN025 BECMG 3119/3121 30014KT RMK NXT FCST BY 010000Z", "TAF AMD CYHM 311939Z 3119/0118 05005KT 1SM -RA BR BKN004 OVC010 TEMPO 3119/3122 6SM BR SCT004 OVC010 FM312200 20007KT 5SM -SHRA BR BKN006 OVC010 TEMPO 3122/3124 P6SM NSW SCT006 OVC010 FM010000 21008KT P6SM SCT006 OVC012 TEMPO 0100/0109 5SM -DZ -RA BR BKN006 OVC012 PROB30 0100/0109 OVC005 FM010900 22008KT 5SM BR BKN004 OVC012 FM011400 28008KT P6SM SCT006 OVC012 FM011700 28008KT P6SM SCT015 BKN050 RMK NXT FCST BY 010000Z", "TAF CYHU 311740Z 3118/0118 19006KT P6SM BKN150 BKN200 FM312200 18006KT P6SM BKN100 OVC160 FM010300 VRB03KT P6SM BKN050 OVC090 TEMPO 0103/0107 P6SM -SHRA BKN015 OVC030 FM010700 VRB03KT P6SM -SHRA BKN012 OVC030 TEMPO 0107/0110 2SM -DZ BR BKN004 OVC008 FM011000 VRB03KT 2SM -DZ BR BKN004 OVC008 FM011600 25005KT P6SM OVC008 BECMG 0116/0118 OVC012 RMK FCST BASED ON AUTO OBS. NXT FCST BY 010000Z", "TAF CYHY 311740Z 3118/0106 02006KT P6SM SCT006 OVC015 TEMPO 3118/3120 1 1/2SM -SN BKN006 OVC015 PROB30 3118/3120 2SM -FZDZ -SN FM312000 06008KT 1 1/2SM -SHSN BR OVC010 TEMPO 3120/0103 6SM -SN SCT010 OVC030 FM010300 VRB03KT 6SM -SN SCT008 OVC025 TEMPO 0103/0106 2 1/2SM -SN BR BKN008 OVC025 RMK NXT FCST BY 010000Z", "TAF CYHZ 311740Z 3118/0118 24010KT P6SM SCT220 BECMG 3119/3121 20005KT FM010300 23005KT P6SM BKN020 BKN160 FM010500 22005KT 3SM BR OVC008 FM011000 22010KT 2 1/2SM -RA -DZ BR OVC005 FM011400 22012KT 4SM -RA BR BKN008 OVC015 RMK NXT FCST BY 312100Z", "TAF CYIK 311340Z 3114/3121 14005KT P6SM -SN BKN020 BKN050 TEMPO 3114/3116 P6SM NSW SCT020 BKN050 BECMG 3114/3116 14015KT FM311600 14015KT P6SM SCT020 BKN050 BECMG 3116/3118 14020G30KT BECMG 3119/3121 14025G35KT RMK NXT FCST BY 011400Z", "TAF CYIO 311840Z 3119/0107 23008KT P6SM -SN BKN025 TEMPO 3119/0107 4SM -SN BKN015 RMK NXT FCST BY 010100Z", "TAF CYIV 311840Z 3119/0107 25012G22KT P6SM SKC FM312300 29012G22KT P6SM BKN030 RMK FCST BASED ON AUTO OBS. NXT FCST BY 010100Z", "TAF CYJT 311740Z 3118/0118 25018G28KT P6SM FEW030 FEW220 FM312100 29012G22KT P6SM FEW020 FEW240 BECMG 3122/3124 31006KT FM010000 32006KT P6SM FEW240 FM010300 05008KT P6SM FEW003 BKN220 FM010900 06009KT P6SM BKN120 BECMG 0112/0114 13008G18KT FM011400 13008G18KT P6SM FEW020 BKN090 BECMG 0116/0118 16012KT RMK NXT FCST BY 010000Z", "TAF CYKA 311840Z 3119/0107 08012KT P6SM SCT060 SCT140 TEMPO 3121/0102 P6SM -SHRA BKN060 BECMG 3121/3123 23015KT FM010200 30010KT P6SM BKN060 TEMPO 0102/0107 P6SM -SHRA RMK NXT FCST BY 010100Z", "TAF CYKF 311940Z 3120/0108 15006KT 2SM -SHRA -DZ BR OVC004 TEMPO 3120/0105 3SM BR OVC006 FM010500 24005KT 3SM BR BKN004 OVC015 RMK FCST BASED ON AUTO OBS. AUTO OBS REP NON-REPRESENTATIVE PCPN. NXT FCST BY 010200Z", "TAF AMD CYKG 311914Z 3119/3121 21005KT P6SM -SN OVC020 TEMPO 3119/3120 P6SM NSW OVC025 FM312000 VRB03KT P6SM SCT020 BKN050 BECMG 3120/3121 20010KT RMK NXT FCST BY 011400Z", "TAF CYKJ 311840Z 3119/3124 32015G25KT P6SM SCT015 OVC025 TEMPO 3119/3124 3SM -SN BR OVC015 BECMG 3122/3124 35008KT RMK FCST BASED ON AUTO OBS. NXT FCST BY 011000Z", "TAF CYKL 311940Z 3120/0108 30006KT P6SM OVC020 TEMPO 3120/3123 FEW020 BKN200 BECMG 3120/3121 27004KT FM010000 19004KT P6SM FEW015 BKN160 FM010600 17008KT P6SM FEW010 BKN120 RMK FCST BASED ON AUTO OBS. NXT FCST BY 010200Z", "TAF CYKQ 311440Z 3115/3121 14006KT P6SM BKN240 FM311800 15008KT P6SM SCT050 BKN180 RMK NXT FCST BY 011500Z", "TAF CYLD 311940Z 3120/0101 21008KT P6SM SCT200 RMK NXT FCST BY 011200Z", "TAF CYLK 311840Z 3119/3124 09010KT P6SM SCT012 BKN050 BKN100 TEMPO 3119/3124 P6SM -SN BKN012 BKN050 OVC100 RMK NXT FCST BY 011600Z", "TAF CYLL 311740Z 3118/0106 28008KT P6SM BKN100 BECMG 3122/3124 VRB03KT FM010000 VRB03KT P6SM SCT120 BKN220 BECMG 0101/0103 13006KT FM010500 10008KT P6SM BKN090 RMK NXT FCST BY 010000Z", "TAF CYLT 311740Z 3118/0106 29005KT P6SM SCT030 FM010000 30010G20KT P6SM BKN030 TEMPO 0100/0106 4SM -SN SCT008 BKN020 PROB30 0103/0106 3/4SM -SN BR OVC008 RMK NXT FCST BY 010000Z", "TAF CYLW 311840Z 3119/0107 VRB03KT P6SM SCT060 TEMPO 3119/0103 P6SM -SHRA BKN060 BECMG 3119/3121 21012KT FM010300 VRB03KT P6SM BKN060 TEMPO 0103/0107 P6SM -SHRA RMK FCST BASED ON AUTO OBS. NXT FCST BY 010100Z", "TAF CYMA 311740Z 3118/0106 01008KT P6SM -SN SCT030 OVC050 TEMPO 3118/0106 5SM -SN BKN030 OVC050 RMK NXT FCST BY 010000Z", "TAF CYMH 311940Z 3120/0103 32015G25KT 5SM -RA BR FEW008 BKN015 OVC025 TEMPO 3120/3122 P6SM NSW BKN025 FM312200 34015G25KT P6SM BKN020 TEMPO 3122/3124 SCT020 FM010000 31010G20KT P6SM BKN030 RMK FCST BASED ON AUTO OBS. NXT FCST BY 010900Z", "TAF CYMJ 311740Z 3118/0106 23005KT P6SM BKN070 BKN110 BECMG 3118/3120 05005KT FM312000 05005KT P6SM SCT040 BKN060 TEMPO 3120/0101 6SM -SHRA BR BKN040 OVC060 FM010100 VRB03KT P6SM -SHRA BKN030 BKN060 TEMPO 0101/0106 3SM -SHRA BR SCT020 BKN025 OVC060 RMK NXT FCST BY 010000Z", "TAF CYMM 311840Z 3119/0107 31006KT P6SM SCT020 BKN040 TEMPO 3119/0103 5SM -SN BR OVC020 BECMG 3119/3121 VRB03KT FM010300 11006KT P6SM SCT015 OVC030 TEMPO 0103/0107 4SM -SN BR OVC015 RMK FCST BASED ON AUTO OBS. NXT FCST BY 010100Z", "TAF CYMO 311740Z 3118/0106 16005KT P6SM BKN160 FM010200 21008KT P6SM SCT200 RMK FCST BASED ON AUTO OBS. NXT FCST BY 010000Z", "TAF CYMT 311740Z 3118/3124 15005KT P6SM SCT180 BKN230 RMK FCST BASED ON AUTO OBS. NXT FCST BY 011200Z", "TAF CYMX 311740Z 3118/0118 VRB03KT P6SM BKN150 BKN200 FM312200 VRB03KT P6SM BKN100 OVC160 FM010300 VRB03KT P6SM BKN050 OVC090 TEMPO 0103/0107 P6SM -SHRA BKN015 OVC030 FM010700 VRB03KT P6SM -SHRA BKN012 OVC030 TEMPO 0107/0110 2SM -DZ BR BKN004 OVC005 FM011000 VRB03KT 2SM -DZ BR BKN003 OVC005 FM011600 25005KT P6SM OVC006 BECMG 0116/0118 OVC012 RMK NXT FCST BY 010000Z", "TAF CYNA 311940Z 3120/0108 33012G22KT P6SM SKC BECMG 3121/3123 02007KT FM010200 02005KT P6SM SCT150 BKN240 BECMG 0104/0106 08008KT RMK FCST BASED ON AUTO OBS. NXT FCST BY 010200Z", "TAF CYND 311740Z 3118/0101 VRB03KT P6SM BKN140 OVC200 FM312300 VRB03KT P6SM BKN050 OVC090 RMK NXT FCST BY 011300Z", "TAF CYNE 311840Z 3119/0107 27012KT P6SM SKC FM312200 28010KT P6SM BKN030 TEMPO 3122/0107 SCT030 RMK FCST BASED ON AUTO OBS. NXT FCST BY 010100Z", "TAF CYOC 311840Z 3119/0101 VRB03KT P6SM FEW020 FEW040 RMK NXT FCST BY 011500Z", "TAF CYOD 311740Z 3118/0118 26010KT P6SM FEW140 BECMG 3118/3120 27010G20KT BECMG 3123/0101 28005KT FM010100 VRB03KT P6SM BKN120 FM010800 09005KT P6SM FEW060 BKN080 BKN120 FM011200 10010KT 5SM -SN SCT030 BKN060 FM011500 09012KT 4SM -SN BKN030 OVC070 RMK NXT FCST BY 312100Z", "TAF CYOJ 311840Z 3119/0107 10006KT P6SM SCT012 BKN060 OVC120 TEMPO 3119/0106 5SM -SN BKN012 OVC040 BECMG 3120/3122 VRB03KT FM010600 VRB03KT P6SM SCT008 OVC012 TEMPO 0106/0107 2SM -SN BR OVC008 RMK NXT FCST BY 010100Z", "TAF CYOO 311940Z 3120/0108 13005KT P6SM SCT007 OVC030 TEMPO 3120/3124 5SM -SHRA BR BKN007 OVC015 FM010000 VRB03KT 3SM -RA -DZ BR OVC005 TEMPO 0100/0108 6SM BR OVC008 RMK FCST BASED ON AUTO OBS. NXT FCST BY 010200Z", "TAF CYOW 311740Z 3118/0118 17006KT P6SM BKN130 OVC170 FM312100 17006KT P6SM OVC090 FM010000 17005KT P6SM OVC050 TEMPO 0100/0102 P6SM -SHRA BKN012 OVC030 FM010200 VRB03KT P6SM -SHRA SCT008 OVC015 TEMPO 0102/0106 2SM -SHRA BR BKN005 OVC010 FM010600 VRB03KT 6SM -SHRA BR OVC006 TEMPO 0106/0115 2SM -DZ BR BKN003 OVC005 PROB30 0106/0113 3/4SM -DZ BR FM011500 27005KT P6SM OVC006 FM011700 28010KT P6SM OVC012 RMK NXT FCST BY 312100Z", "TAF CYOY 311740Z 3118/0106 20005KT P6SM FEW100 BKN170 FM010500 VRB03KT P6SM BKN100 RMK NXT FCST BY 010000Z", "TAF CYPA 311840Z 3119/0107 28015KT P6SM BKN140 FM312300 28008KT P6SM FEW140 FM010200 VRB03KT P6SM SKC RMK NXT FCST BY 010100Z", "TAF AMD CYPC 311914Z 3119/3123 VRB03KT 3SM -SN FEW005 SCT010 OVC020 TEMPO 3119/3123 P6SM NSW SCT015 OVC025 RMK NXT FCST BY 011500Z", "TAF CYPE 311840Z 3119/0107 22006KT P6SM SCT250 BECMG 3122/3124 13006KT FM010300 VRB03KT P6SM BKN160 FM010600 VRB03KT P6SM SCT020 BKN060 RMK NXT FCST BY 010100Z", "TAF CYPG 311740Z 3118/0106 26012G22KT P6SM SCT180 OVC220 BECMG 0100/0102 28005KT FM010300 28005KT P6SM BKN120 OVC160 RMK NXT FCST BY 010000Z", "TAF CYPH 311741Z 3118/0106 18015G25KT P6SM OVC020 TEMPO 3118/3121 OVC025 FM312100 16020G30KT P6SM BKN015 OVC025 TEMPO 3121/0103 5SM -DZ BR BKN006 OVC015 FM010300 17025G40KT 5SM -DZ BR BKN006 OVC012 RMK FCST BASED ON AUTO OBS. NXT FCST BY 010000Z", "TAF CYPL 311940Z 3120/0108 23015G25KT P6SM SKC FM010000 25012G22KT P6SM SCT230 BECMG 0100/0102 26012KT RMK FCST BASED ON AUTO OBS. NXT FCST BY 010200Z", "TAF CYPQ 311940Z 3120/0102 12005KT P6SM SCT008 OVC030 TEMPO 3120/3123 5SM -SHRA BR OVC020 PROB30 3121/3123 1SM -SHRA BR OVC003 FM312300 VRB03KT 3SM -SHRA BR BKN005 OVC012 TEMPO 3123/0102 P6SM NSW SCT005 OVC012 PROB40 3123/0102 1SM -SHRA BR OVC003 RMK FCST BASED ON AUTO OBS. NXT FCST BY 011000Z", "TAF CYPR 311840Z 3119/0107 14010KT P6SM SCT015 BKN025 TEMPO 3119/0107 4SM -SHRA BR BKN015 RMK FCST BASED ON AUTO OBS. NXT FCST BY 010100Z", "TAF CYPX 311750Z 3118/0106 16015G25KT P6SM SCT020 OVC030 TEMPO 3118/0104 6SM -SN OVC020 FM010400 15025G35KT P6SM -SN SCT005 BKN015 TEMPO 0104/0106 2SM -RASN BKN005 OVC015 RMK FCST BASED ON AUTO OBS. NXT FCST BY 010000Z", "TAF CYPY 311740Z 3118/0106 02006KT P6SM SCT015 OVC025 TEMPO 3118/0106 4SM -SN BR OVC015 BECMG 3119/3121 VRB03KT RMK FCST BASED ON AUTO OBS. NXT FCST BY 010000Z", "TAF CYQA 311940Z 3120/0102 VRB03KT 3SM -SHRA BR BKN005 OVC010 TEMPO 3120/3122 P6SM -SHRA SCT005 OVC010 PROB30 3120/3122 BKN004 FM312200 13005KT 5SM -SHRA BR BKN006 OVC025 TEMPO 3122/0102 P6SM NSW SCT006 OVC025 RMK FCST BASED ON AUTO OBS. NXT FCST BY 011200Z", "TAF CYQB 311740Z 3118/0118 24005KT P6SM BKN180 BKN240 FM010500 VRB03KT P6SM BKN100 OVC160 FM011100 VRB03KT P6SM BKN030 OVC080 FM011400 24006KT P6SM BKN010 OVC025 RMK NXT FCST BY 010000Z", "TAF CYQD 311840Z 3119/0107 27015G25KT P6SM FEW040 FM312100 29012G22KT P6SM BKN030 TEMPO 3121/0107 SCT030 BECMG 0100/0102 30008KT RMK FCST BASED ON AUTO OBS. NXT FCST BY 010100Z", "TAF CYQF 311740Z 3118/0106 24006KT P6SM SCT020 OVC040 TEMPO 3118/3122 4SM -SHSN OVC020 BECMG 3118/3120 14012KT FM010000 13012KT P6SM SCT040 FM010300 16012KT P6SM SKC BECMG 0104/0106 18008KT RMK FCST BASED ON AUTO OBS. NXT FCST BY 010000Z", "TAF CYQG 311740Z 3118/0118 21010KT 1 1/2SM -SHRA BR OVC005 TEMPO 3118/3120 6SM BR SCT005 OVC015 FM312000 21010KT P6SM SCT020 BKN030 TEMPO 3120/3124 5SM -SHRA BR SCT006 BKN020 OVC030 FM010000 23007KT P6SM FEW004 OVC015 FM010300 20005KT 2SM BR OVC004 BECMG 0106/0108 27008KT FM011400 27008KT P6SM SCT004 OVC015 FM011600 30008KT P6SM SCT015 BKN040 RMK FCST BASED ON AUTO OBS. NXT FCST BY 010000Z", "TAF CYQH 311740Z 3118/0106 VRB03KT P6SM FEW090 FM312100 VRB03KT P6SM SCT020 BKN050 TEMPO 3121/0102 P6SM -SN BKN020 OVC050 FM010200 09005KT P6SM SCT015 OVC040 TEMPO 0102/0106 4SM -SN BKN015 OVC040 RMK NXT FCST BY 010000Z", "TAF CYQI 311740Z 3118/0106 24010KT P6SM FEW150 SCT250 FM312200 22008KT P6SM SCT015 OVC180 TEMPO 3122/0102 BKN015 OVC180 FM010200 22008KT P6SM OVC025 TEMPO 0102/0106 FEW008 OVC012 RMK NXT FCST BY 010000Z", "TAF CYQK 311940Z 3120/0108 21012KT P6SM BKN160 OVC240 FM010000 25007KT P6SM BKN140 BECMG 0101/0103 30006KT BKN120 RMK NXT FCST BY 010200Z", "TAF CYQL 311740Z 3118/0106 36006KT P6SM FEW060 BKN100 FM312000 27008KT P6SM BKN050 TEMPO 3120/3124 P6SM -SHRA FM010000 36005KT P6SM BKN070 BECMG 0101/0103 24012KT FM010300 24012G22KT P6SM SCT160 RMK NXT FCST BY 010000Z", "TAF CYQM 311740Z 3118/0118 24010KT P6SM SCT200 BECMG 3119/3121 24006KT FM010300 22005KT 5SM BR BKN010 BKN120 FM010600 22005KT 2 1/2SM -RA -DZ BR SCT005 OVC010 FM010900 20005KT 2SM -RA -DZ BR OVC004 FM011400 24010KT P6SM BKN020 BKN160 RMK NXT FCST BY 010000Z", "TAF CYQQ 311740Z 3118/0118 32005KT P6SM FEW010 SCT030 BKN120 TEMPO 3118/3124 5SM -SHRA BR BKN010 OVC030 BECMG 3118/3120 34012KT FM010000 15005KT P6SM SCT030 SCT060 TEMPO 0100/0104 P6SM -SHRA BKN030 FM010400 VRB03KT P6SM FEW030 FEW060 SCT150 RMK NXT FCST BY 010000Z", "TAF CYQR 311742Z 3118/0118 30005KT P6SM BKN070 TEMPO 3121/0102 P6SM -SHRA OVC050 BECMG 3123/0101 05005KT FM010300 06008KT P6SM SCT010 SCT060 BKN120 TEMPO 0104/0106 BKN010 BKN060 FM010600 08006KT P6SM FEW004 BKN015 OVC060 TEMPO 0106/0109 2SM -RA BR BKN004 OVC015 PROB30 0106/0109 1/2SM FG VV003 FM010900 09008KT 1/2SM FG VV004 TEMPO 0109/0115 1/4SM FG VV002 FM011500 12015KT P6SM FEW005 OVC080 RMK NXT FCST BY 010000Z", "TAF CYQT 311940Z 3120/0108 06009KT P6SM SCT240 BECMG 3122/3124 23009KT BKN240 FM010600 27006KT P6SM BKN190 RMK NXT FCST BY 010200Z", "TAF CYQU 311840Z 3119/0107 VRB03KT P6SM BKN200 BECMG 3119/3121 11008KT FM010000 VRB03KT P6SM SCT020 OVC060 TEMPO 0100/0104 5SM -SN BR OVC020 BECMG 0102/0104 27006KT FM010400 25012KT P6SM BKN040 BECMG 0104/0106 25008KT RMK NXT FCST BY 010100Z", "TAF CYQV 311745Z 3118/0106 29012KT P6SM BKN200 FM312100 28010KT P6SM BKN120 FM010400 23005KT P6SM FEW080 SCT180 RMK FCST BASED ON AUTO OBS. NXT FCST BY 010000Z", "TAF CYQW 311742Z 3118/0106 29010KT P6SM BKN120 FM312300 VRB03KT P6SM SKC FM010300 12006KT P6SM FEW200 RMK FCST BASED ON AUTO OBS. NXT FCST BY 010000Z", "TAF CYQX 311740Z 3118/0118 23018G28KT P6SM FEW040 FEW120 SCT220 FM312100 29015G25KT P6SM SCT040 BECMG 3122/3124 33015KT FM010000 33015KT P6SM SCT030 TEMPO 0100/0103 BKN030 FM010300 36010KT P6SM FEW008 BKN020 TEMPO 0103/0109 FEW008 BKN025 PROB30 0103/0109 3SM BR BKN008 FM010900 03008KT P6SM BKN015 BKN180 BECMG 0110/0112 14008KT FM011200 14008KT P6SM SCT015 OVC140 FM011600 15008KT P6SM FEW025 OVC090 RMK NXT FCST BY 010000Z", "TAF CYQY 311740Z 3118/0106 24012G22KT P6SM BKN250 BECMG 3119/3121 27008KT FM010200 VRB03KT P6SM FEW150 BKN200 RMK NXT FCST BY 010000Z", "TAF CYQZ 311840Z 3119/0106 32005KT P6SM -SHRA SCT030 BKN050 OVC080 TEMPO 3119/3122 3SM -SHRASN BR OVC030 FM312200 VRB03KT P6SM FEW030 SCT080 BKN150 RMK FCST BASED ON AUTO OBS. NXT FCST BY 010100Z", "TAF CYRA 311840Z 3119/3124 10005KT 2SM -SHSN VV020 TEMPO 3119/3124 6SM -SN OVC030 PROB30 3119/3124 1SM -SHSN RMK NXT FCST BY 011600Z", "TAF CYRB 311740Z 3118/0118 03015KT P6SM BKN040 TEMPO 3118/3122 6SM -SN FM312200 02018KT P6SM SCT020 BKN040 TEMPO 3122/0110 5SM -SN BKN020 OVC040 FM011000 35015KT P6SM SCT020 TEMPO 0110/0118 6SM IC BKN020 RMK NXT FCST BY 010000Z", "TAF CYRJ 311940Z 3120/0102 10005KT P6SM FEW160 BKN200 FM312200 10005KT P6SM BKN100 OVC200 BECMG 0100/0102 22008KT RMK NXT FCST BY 011200Z", "TAF CYRL 311940Z 3120/0102 23010KT P6SM SCT140 BKN240 FM010000 26010KT P6SM FEW200 RMK NXT FCST BY 011100Z", "TAF CYRQ 311940Z 3120/0108 20008KT P6SM BKN150 BKN200 FM010100 VRB03KT P6SM BKN100 BKN150 FM010600 VRB03KT P6SM OVC060 TEMPO 0106/0108 P6SM -SHRA RMK FCST BASED ON AUTO OBS. NXT FCST BY 010200Z", "TAF AMD CYRT 311745Z 3118/0106 08015G25KT 1/2SM SHSN BLSN VV002 TEMPO 3118/0106 3SM -SN OVC010 BECMG 3120/3122 01030G40KT RMK NXT FCST BY 010000Z", "TAF CYSB 311340Z 3114/0102 12005KT 1/2SM FG VV001 BECMG 3114/3116 P6SM NSW FEW004 BKN140 FM311800 21008KT P6SM FEW020 BKN140 FM312200 18008KT P6SM SCT120 PROB30 0101/0102 2SM BR RMK NXT FCST BY 312000Z", "TAF CYSC 311740Z 3118/0103 VRB03KT P6SM SCT120 BKN220 RMK FCST BASED ON AUTO OBS. NXT FCST BY 010000Z", "TAF CYSF 311740Z 3118/0106 33012KT P6SM SCT020 TEMPO 3118/3124 6SM -SN BKN020 BECMG 3119/3121 35008KT FM010000 02006KT P6SM SKC BECMG 0104/0106 05006KT RMK FCST BASED ON AUTO OBS. NXT FCST BY 010000Z", "TAF CYSJ 311740Z 3118/0106 21008KT P6SM FEW015 BKN220 FM010000 20008KT P6SM SCT008 OVC150 TEMPO 0100/0105 BKN008 OVC150 FM010500 21008KT P6SM SCT005 OVC008 PROB30 0105/0106 BKN005 OVC008 RMK NXT FCST BY 010000Z", "TAF CYSM 311740Z 3118/0106 VRB03KT P6SM SCT015 BKN080 TEMPO 3118/0106 P6SM -SN BKN015 OVC080 RMK NXT FCST BY 010000Z", "TAF CYSN 311940Z 3120/0101 20006KT P6SM SCT007 BKN030 OVC060 TEMPO 3120/3123 5SM -SHRA BR BKN007 OVC020 FM312300 20008KT P6SM SCT012 BKN030 OVC060 TEMPO 3123/0101 5SM -SHRA BR BKN012 OVC020 RMK NXT FCST BY 011300Z", "TAF AMD CYSP 311701Z 3117/3121 20005KT P6SM SCT005 TEMPO 3117/3121 1/4SM FG VV002 RMK NXT FCST BY 011400Z", "TAF CYSY 311840Z 3119/3123 03010KT P6SM SCT012 BKN030 TEMPO 3119/3123 5SM IC FEW005 BKN012 RMK NXT FCST BY 011500Z", "TAF CYTE 311840Z 3119/0107 12006KT P6SM -SN SCT015 OVC025 TEMPO 3119/3124 5SM -SN OVC015 BECMG 3121/3123 12015KT FM010000 12018G28KT 2SM -SN BKN008 TEMPO 0100/0107 3/4SM -SN VV004 RMK NXT FCST BY 010100Z", "TAF CYTH 311840Z 3119/0107 27015G25KT P6SM BKN025 TEMPO 3119/3122 P6SM -SHRA OVC020 FM312200 29015G25KT P6SM BKN025 TEMPO 3122/0101 6SM -SHRASN OVC020 FM010100 31010G20KT P6SM BKN020 TEMPO 0101/0107 SCT020 RMK NXT FCST BY 010100Z", "TAF CYTL 311940Z 3120/0108 22010G20KT P6SM SKC BECMG 3122/3124 27012KT FM010300 28012KT P6SM BKN040 RMK FCST BASED ON AUTO OBS. NXT FCST BY 010200Z", "TAF CYTQ 311340Z 3114/3121 33012KT P6SM SCT030 TEMPO 3114/3118 SCT020 BKN030 FM311800 27010KT P6SM BKN030 TEMPO 3118/3121 BKN020 RMK NXT FCST BY 011400Z", "TAF CYTR 311740Z 3118/0118 VRB03KT P6SM FEW015 OVC050 TEMPO 3118/3122 5SM -SHRA BR BKN015 OVC030 FM312300 VRB03KT P6SM -RA OVC015 TEMPO 3123/0102 3SM -RA -DZ BR OVC008 FM010200 VRB03KT 2SM -DZ BR OVC005 FM011200 VRB03KT P6SM OVC008 FM011600 24005KT P6SM OVC015 RMK NXT FCST BY 010000Z", "TAF CYTS 311940Z 3120/0108 18006KT P6SM FEW140 BKN200 FM010000 20006KT P6SM SCT200 RMK NXT FCST BY 010200Z", "TAF CYTZ 311940Z 3120/0120 07010KT P6SM SCT005 OVC012 TEMPO 3120/3123 5SM -SHRA BR BKN005 OVC012 PROB30 3120/3123 1SM -SHRA BR OVC003 FM312300 VRB03KT 1/2SM -DZ FG VV002 TEMPO 3123/0107 4SM BR OVC004 FM010700 VRB03KT 2SM BR BKN003 OVC010 PROB30 0107/0112 1/2SM FG VV002 FM011200 26005KT 6SM BR BKN005 OVC040 FM011500 26008KT P6SM BKN012 OVC050 FM011800 26008KT P6SM SCT050 RMK FCST BASED ON AUTO OBS. NXT FCST BY 010200Z", "TAF CYUB 311840Z 3119/0105 03010KT P6SM -SN SCT008 OVC020 TEMPO 3119/3121 4SM -SN BR FEW005 BKN008 OVC020 FM312100 05010KT P6SM BKN025 TEMPO 3121/0105 P6SM -SN FEW008 BKN020 BECMG 3123/0101 VRB03KT RMK NXT FCST BY 010100Z", "TAF CYUL 311740Z 3118/0118 15005KT P6SM BKN150 BKN200 FM312200 16006KT P6SM BKN100 OVC160 FM010300 VRB03KT P6SM BKN050 OVC090 TEMPO 0103/0107 P6SM -SHRA BKN015 OVC030 FM010700 VRB03KT P6SM -SHRA BKN012 OVC030 TEMPO 0107/0110 2SM -DZ BR BKN004 OVC008 FM011000 VRB03KT 2SM -DZ BR BKN004 OVC008 FM011600 25005KT P6SM OVC008 BECMG 0116/0118 OVC012 RMK NXT FCST BY 312100Z", "TAF CYUT 311840Z 3119/3122 02010KT P6SM SCT040 BKN150 TEMPO 3119/3122 FEW015 BKN040 RMK NXT FCST BY 011400Z", "TAF CYUX 311840Z 3119/0107 25015KT P6SM FEW005 SCT015 TEMPO 3119/0107 P6SM -SN BKN015 BECMG 0102/0104 30012KT RMK NXT FCST BY 010100Z", "TAF CYUY 311740Z 3118/0106 19006KT P6SM BKN100 OVC180 FM312300 20005KT P6SM FEW100 BKN180 FM010400 20005KT P6SM FEW220 RMK NXT FCST BY 010000Z", "TAF CYVC 311840Z 3119/0107 29012G22KT P6SM BKN030 TEMPO 3119/0107 SCT030 BECMG 3123/0101 31008KT RMK NXT FCST BY 010100Z", "TAF CYVM 311841Z 3119/0107 18005KT P6SM FEW015 SCT030 BECMG 3122/3124 20008KT RMK NXT FCST BY 010100Z", "TAF CYVO 311740Z 3118/0106 18006KT P6SM BKN100 OVC180 FM312300 18005KT P6SM FEW100 BKN180 FM010400 19005KT P6SM FEW220 RMK NXT FCST BY 010000Z", "TAF CYVP 311741Z 3118/0106 32010G20KT P6SM SCT030 TEMPO 3118/3124 BKN030 BECMG 3122/3124 15006KT FM010000 15006KT P6SM BKN230 FM010300 15008KT P6SM BKN140 RMK NXT FCST BY 010000Z", "TAF CYVQ 311740Z 3118/0106 28015G25KT P6SM FEW030 SCT050 OVC080 TEMPO 3118/3120 P6SM -SN SCT030 BKN050 OVC080 FM312000 28012G22KT P6SM SCT020 OVC050 TEMPO 3120/0106 5SM -SN BKN020 OVC050 RMK NXT FCST BY 010000Z", "TAF CYVR 311740Z 3118/0124 27008KT P6SM SCT006 BKN015 TEMPO 3118/3119 SCT015 BKN070 FM311900 27010KT P6SM SCT040 SCT070 BECMG 0103/0105 08008KT FM010900 08008KT P6SM SCT015 BKN040 TEMPO 0112/0119 5SM -DZ BR BKN015 FM011900 27008KT P6SM SCT040 RMK NXT FCST BY 312100Z", "TAF CYVT 311340Z 3114/0102 29012KT P6SM SCT015 BKN030 TEMPO 3114/3121 5SM -SN BKN015 OVC030 BECMG 3116/3118 32008KT FM312100 32006KT P6SM SCT020 BKN040 TEMPO 3121/0102 4SM -SN BR BKN020 OVC040 BECMG 0100/0102 03005KT RMK FCST BASED ON AUTO OBS. NXT FCST BY 312100Z", "TAF CYVV 311940Z 3120/0104 VRB03KT P6SM SCT005 OVC025 TEMPO 3120/3123 5SM -DZ -RA BR BKN005 OVC025 PROB30 3122/3123 OVC003 FM312300 VRB03KT 2SM -DZ -RA BR OVC003 TEMPO 3123/0104 6SM BR SCT003 OVC012 RMK NXT FCST BY 010200Z", "TAF CYWE 311840Z 3119/0101 10008KT P6SM OVC050 TEMPO 3119/3121 4SM -SN FM312100 10010KT P6SM -SN SCT015 OVC040 TEMPO 3121/0101 2SM -SHSN BKN015 OVC040 RMK FCST BASED ON AUTO OBS. NXT FCST BY 011300Z", "TAF CYWG 311742Z 3118/0118 25015KT P6SM BKN160 BKN250 BECMG 3122/3124 25008KT FM010300 20005KT P6SM BKN090 FM011100 10006KT P6SM BKN080 BKN220 RMK NXT FCST BY 010000Z", "TAF CYWH 311410Z 3114/0102 VRB03KT P6SM SCT020 OVC030 TEMPO 3114/3118 P6SM -RA FEW004 BKN020 OVC030 BECMG 3116/3118 26012G22KT FM311800 26012G22KT P6SM SCT030 TEMPO 3118/3121 BKN030 RMK NXT FCST BY 312100Z", "TAF CYWJ 311740Z 3118/3123 34012KT P6SM SCT030 BKN060 TEMPO 3118/3123 P6SM -SN SCT015 BKN030 RMK NXT FCST BY 011400Z", "TAF CYWK 311940Z 3120/0108 VRB03KT P6SM FEW030 BECMG 3121/3123 FEW020 BKN220 FM010100 13004KT P6SM FEW005 FEW020 BKN160 FM010600 17008KT P6SM FEW020 BKN120 RMK NXT FCST BY 010200Z", "TAF CYWL 311840Z 3119/0107 14005KT P6SM SCT050 BKN120 TEMPO 3119/3121 5SM -SHRASN BR BKN040 FM312100 28008KT P6SM SCT050 BKN120 BECMG 3122/3124 13006KT RMK NXT FCST BY 010100Z", "TAF CYXC 311840Z 3119/0107 VRB03KT P6SM SCT040 BKN090 TEMPO 3119/0107 P6SM -SHRA BKN040 BECMG 3120/3122 20010G20KT RMK NXT FCST BY 010100Z", "TAF CYXE 311742Z 3118/0118 28010KT P6SM BKN100 FM312100 30006KT P6SM SCT120 FM010300 10005KT P6SM SCT250 FM010900 10006KT P6SM FEW040 BKN120 FM011100 12010KT P6SM OVC030 FM011500 12012G22KT P6SM BKN015 BKN100 RMK NXT FCST BY 010000Z", "TAF CYXH 311740Z 3118/0106 06008KT P6SM OVC060 TEMPO 3118/3124 P6SM -SHRA BECMG 3118/3120 35006KT FM010000 VRB03KT P6SM OVC060 BECMG 0102/0104 11006KT FM010500 22012KT P6SM BKN140 RMK NXT FCST BY 010000Z", "TAF CYXJ 311840Z 3119/0107 16005KT P6SM SCT015 BKN160 BECMG 3122/3124 VRB03KT FM010300 21006KT P6SM SCT050 FM010600 23006KT P6SM BKN060 RMK NXT FCST BY 010100Z", "TAF CYXL 311940Z 3120/0108 23012KT P6SM FEW170 BKN210 FM010000 26010KT P6SM OVC150 BECMG 0101/0103 28007KT FM010600 30005KT P6SM OVC100 RMK NXT FCST BY 010200Z", "TAF CYXP 311841Z 3119/3122 28015G25KT P6SM SCT020 TEMPO 3119/3122 BKN020 RMK NXT FCST BY 011300Z", "TAF CYXR 311740Z 3118/3124 20010KT P6SM BKN100 FM312100 20008KT P6SM SCT100 RMK FCST BASED ON AUTO OBS. NXT FCST BY 011200Z", "TAF CYXS 311840Z 3119/0107 VRB03KT P6SM SCT025 OVC040 TEMPO 3119/3120 3SM -SHSN BKN025 OVC040 FM312000 20008KT P6SM SCT020 BKN060 OVC120 TEMPO 3120/3122 4SM -SHRASN BR BKN020 OVC060 FM312200 26005KT P6SM FEW060 SCT200 FM010200 18005KT P6SM FEW040 RMK FCST BASED ON AUTO OBS. NXT FCST BY 010100Z", "TAF CYXT 311840Z 3119/0107 18006KT P6SM SCT012 BKN040 TEMPO 3119/0105 5SM -SHRA BR FEW003 BKN012 FM010500 01008KT P6SM SCT006 BKN040 TEMPO 0105/0107 3SM -SHRASN BR SCT003 BKN006 RMK NXT FCST BY 010100Z", "TAF CYXU 311740Z 3118/0118 16008KT P6SM SCT005 OVC025 TEMPO 3118/3121 5SM -SHRA BR BKN005 OVC025 FM312100 20008KT 5SM -SHRA BR BKN004 OVC025 TEMPO 3121/0104 P6SM NSW SCT004 OVC025 FM010400 23006KT 1SM BR OVC003 FM011100 28005KT 1/2SM -DZ FG OVC003 FM011400 28008KT P6SM SCT004 BKN012 FM011600 30008KT P6SM SCT030 RMK NXT FCST BY 010000Z", "TAF CYXX 311740Z 3118/0118 20012G22KT P6SM SCT015 BKN060 TEMPO 3118/3121 5SM -SHRA BR SCT006 BKN015 FM312100 20012G22KT P6SM SCT030 TEMPO 3121/0108 BKN030 BECMG 0104/0106 VRB03KT FM010800 VRB03KT P6SM SCT015 BKN040 TEMPO 0108/0118 5SM -SHRA BR BKN015 RMK NXT FCST BY 010000Z", "TAF CYXY 311740Z 3118/0106 34008KT 6SM -SN FEW006 OVC012 TEMPO 3118/0104 P6SM NSW SCT012 OVC025 FM010400 34008KT P6SM SCT008 OVC025 TEMPO 0104/0106 5SM -SN BR BKN008 OVC025 RMK NXT FCST BY 010000Z", "TAF CYXZ 311940Z 3120/3124 25005KT P6SM FEW200 TEMPO 3123/3124 1/2SM FG OVC002 RMK NXT FCST BY 011300Z", "TAF CYYB 311340Z 3114/0102 VRB03KT P6SM BKN150 BECMG 3115/3117 20008KT FM312300 22005KT P6SM SCT150 RMK NXT FCST BY 312000Z", "TAF CYYC 311740Z 3118/0118 15005KT P6SM OVC030 TEMPO 3118/3124 5SM -SHSN OVC020 FM010000 15006KT P6SM SCT030 SCT090 FM010300 VRB03KT P6SM SKC BECMG 0104/0106 29006KT FM011200 36008KT P6SM BKN080 OVC170 FM011700 35008KT 2SM -SN VV012 RMK NXT FCST BY 312100Z", "TAF CYYD 311840Z 3119/0106 VRB03KT P6SM SCT015 BKN040 TEMPO 3119/3120 BKN015 FM312000 VRB03KT P6SM SCT040 TEMPO 3120/0106 BKN040 RMK NXT FCST BY 010100Z", "TAF AMD CYYE 311918Z 3119/0107 VRB03KT P6SM SCT008 OVC015 TEMPO 3119/3122 3SM -SN BR BKN008 OVC015 FM312200 32005KT P6SM SCT020 BKN200 TEMPO 3122/0101 5SM -SN BKN020 OVC200 FM010100 33010KT 1SM -SHSN OVC015 TEMPO 0101/0103 5SM -SHSN SCT015 OVC030 FM010300 34010KT 1/2SM SHSN VV008 TEMPO 0103/0107 2SM -SHSN OVC015 RMK NXT FCST BY 010100Z", "TAF CYYF 311840Z 3119/0107 17010KT P6SM SCT050 TEMPO 3119/0103 P6SM -SHRA BKN050 BECMG 3122/3124 32010KT FM010300 36008KT P6SM BKN060 TEMPO 0103/0107 P6SM -SHRA RMK NXT FCST BY 010100Z", "TAF CYYG 311740Z 3118/0106 28008KT P6SM FEW100 SCT220 BECMG 3119/3121 VRB03KT FM010300 19005KT P6SM SCT020 OVC150 RMK NXT FCST BY 010000Z", "TAF AMD CYYH 311941Z 3119/0106 30015KT 6SM -SN BKN015 TEMPO 3119/0103 1SM -SN FM010300 30012KT P6SM -SN BKN015 TEMPO 0103/0106 SCT015 BKN025 RMK NXT FCST BY 010000Z", "TAF CYYJ 311740Z 3118/0118 25010G20KT P6SM FEW030 BECMG 0101/0103 25008KT FM010900 25005KT P6SM SCT030 TEMPO 0109/0118 BKN030 RMK NXT FCST BY 010000Z", "TAF AMD CYYL 311917Z 3119/0107 30018G28KT P6SM SCT015 OVC030 TEMPO 3119/3120 1SM -SHSN OVC015 FM312000 30018G28KT P6SM OVC030 TEMPO 3120/0101 4SM -SHSN OVC020 PROB30 3120/0101 2SM -SHSN FM010100 32012G22KT P6SM BKN020 BECMG 0102/0104 35008KT RMK FCST BASED ON AUTO OBS. NXT FCST BY 010100Z", "TAF CYYN 311742Z 3118/0106 07005KT P6SM BKN060 TEMPO 3118/3123 P6SM -SHRA FM312300 06010KT P6SM FEW010 BKN100 TEMPO 3123/0103 BKN010 OVC100 FM010300 12010KT P6SM SCT004 BKN100 TEMPO 0103/0106 1SM -RA BR OVC004 PROB30 0103/0106 1/2SM FG VV002 RMK FCST BASED ON AUTO OBS. NXT FCST BY 010000Z", "TAF CYYQ 311742Z 3118/0118 28010KT P6SM FEW020 BKN050 OVC120 TEMPO 3118/3120 5SM -SHRASN BR BKN020 OVC050 FM312000 29015G25KT P6SM -SHRASN SCT010 OVC030 TEMPO 3120/3123 3SM -SHSN BR OVC010 PROB30 3120/3123 1SM -SN OVC005 FM312300 30025G35KT 4SM -SHSN OVC010 TEMPO 3123/0102 1SM -SHSN OVC005 FM010200 31030G40KT 1 1/2SM -SN VV012 TEMPO 0102/0106 3/4SM -SN BLSN VV006 FM010600 32030G40KT 6SM -SN OVC020 TEMPO 0106/0110 1 1/2SM -SHSN BLSN VV012 FM011100 33025G35KT 6SM -SN OVC020 FM011500 32020G30KT P6SM BKN020 RMK NXT FCST BY 010000Z", "TAF CYYR 311740Z 3118/0118 32010G20KT P6SM BKN025 FM311900 30012KT P6SM SCT030 FM312200 29005KT P6SM SKC FM010600 VRB03KT P6SM BKN220 FM011600 19008KT P6SM BKN090 RMK NXT FCST BY 010000Z", "TAF CYYT 311740Z 3118/0118 26020G30KT P6SM FEW030 SCT230 BECMG 3122/3124 29018G28KT BECMG 0101/0103 32015G25KT FM010400 32012G22KT P6SM FEW020 TEMPO 0104/0109 BKN020 FM010900 02012G22KT P6SM BKN020 BKN160 FM011500 10008G18KT P6SM SCT025 BKN160 RMK NXT FCST BY 010000Z", "TAF CYYU 311940Z 3120/0108 21008KT P6SM SCT200 RMK NXT FCST BY 010200Z", "TAF CYYY 311940Z 3120/0108 27008KT P6SM BKN240 BECMG 3120/3122 VRB03KT FM010000 12006KT P6SM BKN100 OVC200 RMK NXT FCST BY 010200Z", "TAF CYYZ 311740Z 3118/0124 15005KT 5SM -SHRA BR BKN006 OVC025 TEMPO 3118/3123 P6SM NSW SCT006 OVC025 PROB30 3118/3123 2SM -SHRA BR OVC003 FM312300 13005KT 1SM -DZ BR OVC003 TEMPO 3123/0106 3SM BR OVC004 FM010600 18006KT 6SM BR BKN004 OVC010 PROB30 0106/0112 1SM BR OVC003 FM011200 26005KT P6SM BKN015 OVC050 FM011700 33008KT P6SM SCT050 RMK NXT FCST BY 312100Z", "TAF CYZE 311940Z 3120/3122 18008KT P6SM SCT150 RMK FCST BASED ON AUTO OBS. NXT FCST BY 011000Z", "TAF CYZF 311740Z 3118/0118 07012KT 1 1/2SM -SHSN OVC020 TEMPO 3118/0102 5SM -SN SCT020 OVC040 FM010200 08010KT 6SM -SN SCT012 OVC025 TEMPO 0102/0106 1 1/2SM -SN BKN012 OVC025 FM010600 07005KT P6SM -SN FEW008 SCT015 OVC030 TEMPO 0106/0118 2 1/2SM -SN SCT008 BKN015 OVC030 RMK NXT FCST BY 010000Z", "TAF AMD CYZG 311615Z 3116/3121 22015KT P6SM -SN OVC020 TEMPO 3116/3118 P6SM NSW OVC025 FM311800 19020KT P6SM SCT020 BKN050 BECMG 3119/3121 18025G35KT RMK NXT FCST BY 011400Z", "TAF CYZH 311840Z 3119/0107 30006KT P6SM SCT120 BKN220 BECMG 3119/3121 VRB03KT FM010300 14006KT P6SM BKN140 FM010600 13006KT P6SM BKN080 RMK FCST BASED ON AUTO OBS. NXT FCST BY 010100Z", "TAF CYZP 311840Z 3119/0107 18005KT P6SM SCT040 TEMPO 3119/0107 P6SM -SHRA BKN040 RMK FCST BASED ON AUTO OBS. NXT FCST BY 010100Z", "TAF CYZR 311940Z 3120/0102 21005KT 2SM -DZ BR OVC005 TEMPO 3120/3122 6SM BR OVC008 FM312200 21008KT 5SM -DZ -RA BR BKN006 OVC025 TEMPO 3122/0102 P6SM NSW SCT006 OVC025 RMK FCST BASED ON AUTO OBS. NXT FCST BY 010800Z", "TAF CYZS 311840Z 3119/0107 08020G30KT 1/2SM SN BLSN VV015 TEMPO 3119/0107 4SM -SN BECMG 3120/3122 07028G38KT RMK NXT FCST BY 010100Z", "TAF CYZT 311840Z 3119/0107 20008KT P6SM FEW020 BKN040 TEMPO 3119/0107 P6SM -SHRA BKN020 RMK NXT FCST BY 010100Z", "TAF CYZU 311840Z 3119/3123 20006KT P6SM FEW150 BECMG 3119/3121 13006KT RMK NXT FCST BY 011400Z", "TAF CYZV 311740Z 3118/0118 30008KT P6SM FEW040 BKN250 BECMG 3120/3122 VRB03KT FM010300 07006KT P6SM FEW040 OVC120 FM010900 08010KT P6SM -SHRA SCT020 OVC080 FM011400 09012KT P6SM FEW080 BKN160 RMK NXT FCST BY 010000Z", "TAF CYZW 311740Z 3118/3124 VRB03KT P6SM FEW015 TEMPO 3118/3121 P6SM -SN FEW005 BKN015 FM312100 VRB03KT P6SM -SN FEW005 BKN015 TEMPO 3121/3124 P6SM NSW SCT015 BKN060 RMK NXT FCST BY 011800Z", "TAF CYZX 311740Z 3118/0118 24012KT P6SM FEW250 FM010000 21005KT P6SM SCT020 BKN160 FM010200 22005KT P6SM OVC020 FM010500 25005KT 5SM -DZ BR OVC012 FM010800 22005KT 3SM -DZ BR SCT005 OVC008 FM011400 22008KT 6SM -SHRA BR SCT006 OVC015 RMK NXT FCST BY 010000Z", "TAF CYZY 311840Z 3119/0107 16010KT P6SM SCT015 OVC040 TEMPO 3119/3122 5SM -SN SCT007 OVC015 PROB30 3119/3120 2SM -SHSN BKN007 FM312200 20010KT P6SM FEW020 SCT050 TEMPO 3122/0101 P6SM -RASN SCT020 BKN050 BECMG 0101/0103 VRB03KT RMK FCST BASED ON AUTO OBS. NXT FCST BY 010100Z", "TAF CZBF 311940Z 3120/0103 VRB03KT P6SM SCT120 BKN240 RMK FCST BASED ON AUTO OBS. NXT FCST BY 010900Z", "TAF CZFA 311740Z 3118/3122 30010G20KT P6SM SCT020 BKN050 OVC100 TEMPO 3118/3122 5SM -SN SCT010 BKN020 OVC050 RMK NXT FCST BY 011600Z", "TAF CZFM 311840Z 3119/3123 VRB03KT 5SM -SN SCT008 OVC015 TEMPO 3119/3123 P6SM -SN SCT015 OVC025 RMK NXT FCST BY 011500Z", "TAF CZMD 311540Z 3116/3122 21010G20KT P6SM SCT150 BECMG 3116/3118 23012G22KT SCT130 FM312100 25012G22KT P6SM BKN040 RMK FCST BASED ON AUTO OBS. NXT FCST BY 011000Z", "TAF CZMT 311840Z 3119/0101 17010KT P6SM SCT060 BKN120 TEMPO 3119/0101 P6SM -SHRA BKN060 RMK NXT FCST BY 011500Z", "TAF CZSJ 311540Z 3116/3122 21006KT P6SM FEW100 BECMG 3116/3118 24012G22KT RMK FCST BASED ON AUTO OBS. NXT FCST BY 011000Z", "TAF CZUM 311940Z 3120/0108 32012G22KT P6SM SCT030 SCT240 TEMPO 3120/3124 BKN020 BECMG 3122/3124 VRB03KT FM010000 VRB03KT P6SM FEW005 BKN160 RMK FCST BASED ON AUTO OBS. NXT FCST BY 010200Z", "TAF CZVL 311740Z 3118/0106 21008KT P6SM BKN100 BECMG 3118/3120 18008KT FM312000 18008KT P6SM BKN080 BECMG 3122/3124 15008KT FM010300 13012KT P6SM BKN060 TEMPO 0103/0106 3SM -SHSN BKN040 OVC060 RMK FCST BASED ON AUTO OBS. NXT FCST BY 010000Z", "TAF DAAD 311400Z 3115/3124 VRB02KT 8000 NSC", "TAF DAAE 311700Z 3118/0118 09008KT 8000 FEW020 PROB30 0104/0107 3000 BR SCT010", "TAF DAAG 311700Z 3118/0118 VRB02KT 8000 NSC PROB40 TEMPO 3120/0108 4000 BR PROB30 TEMPO 3122/0107 0800 FG BKN008 BECMG 0111/0112 02010KT", "TAF DAAJ 311700Z 3118/0118 06008KT CAVOK", "TAF DAAP 311400Z 3115/3124 04008KT CAVOK", "TAF DAAS 311700Z 3118/0118 28008KT CAVOK", "TAF DAAT 311700Z 3118/0118 08010KT CAVOK TEMPO 3118/3121 24015KT BECMG 3121/3123 VRB02KT BECMG 0105/0108 12012KT PROB40 TEMPO 0107/0110 12015G25KT", "TAF DAAV 311700Z 3118/0118 31008KT 8000 FEW020 PROB30 0104/0107 3000 BR SCT010", "TAF DAAY 311400Z 3115/3124 22010KT CAVOK TEMPO 3116/3120 32010KT", "TAF DABB 311700Z 3118/0118 03008KT CAVOK PROB30 0104/0107 3000 BR SCT010", "TAF DABC 311700Z 3118/0118 01008KT CAVOK", "TAF DABS 311700Z 3118/0118 07008KT CAVOK", "TAF DABT 311700Z 3118/0118 23008KT CAVOK", "TAF DAFH 311400Z 3115/3124 25010KT CAVOK", "TAF DAOB 311700Z 3118/0118 10008KT CAVOK", "TAF DAOF 311400Z 3115/3124 06006KT 8000 NSC", "TAF DAOI 311700Z 3118/0118 36005KT CAVOK BECMG 3122/3124 VRB02KT", "TAF DAON 311700Z 3118/0118 32005KT CAVOK PROB30 TEMPO 0106/0108 4000 BR SCT010 BECMG 0108/0110 20005KT BECMG 0114/0116 34010KT", "TAF DAOO 311700Z 3118/0118 36010KT 8000 NSC BECMG 3120/3122 VRB02KT PROB40 TEMPO 0104/0108 4000 BR SCT010 BECMG 0109/0111 16010KT BECMG 0114/0116 34010KT", "TAF DAOR 311400Z 3115/3124 24006KT CAVOK", "TAF DAOV 311400Z 3115/3124 VRB02KT CAVOK TEMPO 3116/3120 34010KT", "TAF DATM 311400Z 3115/3124 14010KT CAVOK", "TAF DAUA 311700Z 3118/0118 06012KT CAVOK", "TAF DAUB 311700Z 3118/0118 15008KT CAVOK", "TAF DAUG 311700Z 3118/0118 16006KT CAVOK", "TAF DAUH 311700Z 3118/0118 08006KT CAVOK", "TAF DAUI 311700Z 3118/0118 04015KT CAVOK PROB30 TEMPO 0110/0115 06015G25KT 4000 DRSA", "TAF DAUK 311400Z 3115/3124 VRB02KT CAVOK", "TAF DAUL 311400Z 3115/3124 22008KT CAVOK", "TAF DAUO 311400Z 3115/3124 VRB02KT CAVOK", "TAF DAUT 311400Z 3115/3124 06010KT CAVOK", "TAF DAUU 311400Z 3115/3124 VRB02KT CAVOK", "TAF DAUZ 311700Z 3118/0118 09006KT CAVOK", "TAF DBBB 311700Z 3118/0124 20008KT 9999 TS BKN012 FEW023CB TEMPO 3118/3124 4000 TSRA BECMG 0024/0102 NSW SCT012", "TAF DFFD 311700Z 3118/0124 08008KT CAVOK TEMPO 0106/0110 4000 HZ", "TAF DFOO 311700Z 3118/0118 12008KT CAVOK TEMPO 0106/0110 4000 HZ", "TAF DGAA 311700Z 3118/0124 18010KT 9999 FEW016 BECMG 3121/3123 28005KT CAVOK TEMPO 0106/0109 5000 BR", "TAF DGLE 311100Z 3112/0112 09005KT 9999 FEW012", "TAF DGSI 311100Z 3112/0112 18010KT 9999 SCT016 TEMPO 3117/3123 6000 -TSRA BKN010 FEW028CB BECMG 0104/0106 BKN010", "TAF DIAP 311748Z 3118/0124 14006KT 9999 BKN012 FEW020CB TEMPO 3118/3122 4000 TSRA BECMG 3122/3124 SCT012 PROB30 TEMPO 0116/0122 TS BKN012 FEW020CB", "TAF DIBK 311748Z 3118/0118 12004KT 9999 SCT013 TEMPO 3118/3120 BKN013 FEW025CB TEMPO 0105/0108 4000 BR", "TAF DIYO 311748Z 3118/0118 16006KT 9999 SCT013 TEMPO 3118/3120 BKN013 FEW025CB TEMPO 0105/0108 3000 BR", "TAF DNAA 311100Z 3112/0118 13004KT 4000 HZ NSC TEMPO 3118/3122 05004KT TEMPO 0104/0110 0800 DU", "TAF DNAK 311700Z 3118/0124 VRB02KT 9999 SCT010 TEMPO 0105/0108 5000 BR BECMG 0108/0110 24010KT BKN013 TEMPO 0113/0117 SCT013 FEW020CB BECMG 0117/0119 VRB02KT SCT010", "TAF DNBE 311700Z 3118/0124 VRB02KT 8000 SCT009 TEMPO 3118/3121 5000 -TSRA BKN009 FEW019CB TEMPO 0104/0108 3000 BR BECMG 0108/0110 21010KT BKN012 FEW020CB TEMPO 0114/0117 TS BECMG 0117/0119 VRB02KT SCT010", "TAF DNGO 311700Z 3118/0124 06008KT CAVOK", "TAF DNIB 311700Z 3118/0124 VRB02KT 9999 SCT011 PROB30 TEMPO 3119/3122 TS SCT011 FEW020CB TEMPO 0105/0108 5000 BR BECMG 0108/0110 23010KT BKN013 TEMPO 0114/0118 SCT013 FEW020CB BECMG 0118/0120 VRB02KT SCT011", "TAF DNIL 311100Z 3112/0118 00000KT CAVOK TEMPO 0105/0111 08005KT 5000 HZ", "TAF DNJO 311100Z 3112/0118 08017KT CAVOK TEMPO 0104/0110 5000 HZ", "TAF DNKA 311100Z 3112/0118 04015KT 5000 HZ TEMPO 0104/0110 3000", "TAF DNKN 311700Z 3118/0124 05006KT CAVOK TEMPO 0106/0112 5000 HZ", "TAF DNKT 311700Z 3118/0124 06007KT CAVOK TEMPO 0107/0113 5000 HZ", "TAF DNMA 311700Z 3118/0124 04008KT CAVOK TEMPO 0105/0111 5000 HZ", "TAF DNMM 311700Z 3118/0124 VRB02KT 9999 SCT011 PROB30 TEMPO 3118/3122 TS SCT011 FEW020CB TEMPO 0105/0108 5000 BR BECMG 0108/0110 22010KT BKN013 TEMPO 0112/0117 TS SCT013 FEW020CB PROB30 0113/0116 5000 -TSRA BKN008 FEW018CB BECMG 0117/0119 SCT011 BECMG 0120/0122 VRB02KT", "TAF DNSO 311700Z 3118/0124 08009KT CAVOK", "TAF DNSU 311700Z 3118/0124 VRB02KT 7000 BKN009 TEMPO 3118/3121 5000 -TSRA BKN008 FEW018CB TEMPO 0104/0108 3000 BR BECMG 0108/0110 20010KT BKN012 FEW020CB TEMPO 0113/0117 TS BECMG 0117/0119 VRB02KT SCT009", "TAF DNYO 311700Z 3118/0124 05007KT CAVOK", "TAF DRRN 311700Z 3118/0124 08008KT 8000 NSC TEMPO 0107/0110 4000 DU", "TAF DRZA 311700Z 3118/0118 10012KT 6000 NSC TEMPO 0108/0114 12025KT", "TAF DRZR 311700Z 3118/0118 04008KT 8000 NSC TEMPO 0108/0114 2000 DU", "TAF DTKA 311800Z 3119/0104 VRB02KT 9999 FEW020 BECMG 3119/3121 12010KT BECMG 3122/3124 VRB03KT", "TAF DTMB 311700Z 3118/0118 15010KT 9999 SCT023", "TAF DTNH 311700Z 3118/0118 10011KT CAVOK BECMG 3121/3123 VRB02KT BECMG 0113/0115 10010KT", "TAF DTTA 311700Z 3118/0118 02005KT CAVOK BECMG 0101/0103 VRB02KT BECMG 0116/0118 15010KT", "TAF DTTB 311800Z 3119/0104 06010KT 9999 FEW020 BECMG 3119/3121 13010KT BECMG 0101/0103 VRB03KT", "TAF DTTF 311800Z 3119/0104 22006KT 8000 NSC BECMG 3119/3121 VRB02KT", "TAF DTTG 311800Z 3119/0104 08006KT CAVOK BECMG 3122/3124 VRB03KT", "TAF DTTJ 311700Z 3118/0118 08006KT CAVOK BECMG 3122/3124 19010KT BECMG 0110/0112 VRB03KT BECMG 0116/0118 12010KT", "TAF DTTR 311800Z 3119/0104 06005KT CAVOK BECMG 3118/3120 VRB02KT", "TAF DTTX 311700Z 3118/0118 17005KT 9999 FEW030 BECMG 0101/0103 VRB02KT BECMG 0107/0109 19010KT", "TAF DTTZ 311700Z 3118/0118 29005KT CAVOK", "TAF DXNG 311700Z 3118/0118 VRB05KT CAVOK", "TAF DXXX 311700Z 3118/0124 20010KT 9999 FEW013 PROB30 TEMPO 3118/3121 TS BKN010 FEW020CB BECMG 3121/3123 VRB03KT BECMG 0108/0110 20010KT", "TAF EBAW 311702Z 3118/0103 16010KT 9999 SCT030 TEMPO 3121/3124 4000 RA SHRA BKN014 BECMG 3122/3124 18015G25KT BECMG 0101/0103 22022G36KT", "TAF EBBR 311705Z 3118/0124 17011KT 9999 SCT030 TEMPO 3121/0101 4000 RA BKN014 BECMG 0101/0103 21020G38KT BECMG 0107/0109 20017G28KT PROB30 TEMPO 0121/0124 23022G36KT 4000 SHRA ", "TAF EBCI 311705Z 3118/0124 17011KT 9999 SCT030 BECMG 3120/3122 18015G25KT TEMPO 3121/3124 4000 RA BKN012 BECMG 0101/0103 21020G38KT BECMG 0107/0109 20017G28KT PROB30 TEMPO 0122/0124 23020G35KT 4000 SHRA", "TAF EBCV 311541Z 3119/0107 16012KT 9999 SCT080 BKN220 TEMPO 3120/0102 18015G30KT 5000 -RA SCT050 BKN080 BECMG 0100/0102 20015G25KT SCT020 BKN050 PROB40 TEMPO 0100/0102 18018G35KT 4000 SHRA SCT015TCU BKN025 BECMG 0102/0104 FEW020 SCT030 BY EBWM", "TAF AMD EBFN 311604Z 3119/0107 16012KT 9999 SCT030 BKN070 TEMPO 3119/0103 16015G30KT 5000 -RA SCT025 BKN070 PROB40 TEMPO 3123/0103 17015G40KT 5000 -SHRA SCT020TCU SCT025 BKN070 BY EBWM", "TAF EBLG 311705Z 3118/0124 17010KT 9999 SCT030 BECMG 3120/3122 18015G25KT TEMPO 3121/3124 4000 RA BKN012 BECMG 0101/0103 21020G37KT BECMG 0107/0109 20015G27KT", "TAF EBOS 311705Z 3118/0124 18012G24KT 9999 SCT030 TEMPO 3120/3124 4000 RA BKN013 BECMG 0100/0102 21018G30KT TEMPO 0103/0108 23025G44KT BKN014 PROB30 TEMPO 0115/0124 24025G45KT 4000 SHRA", "TAF EDAC 311400Z 3115/3124 VRB03KT CAVOK TEMPO 3117/3124 4000 BR PROB30 TEMPO 3119/3124 0800 FG OVC001", "TAF EDAH 311700Z 3118/0103 VRB01KT 2500 BR OVC003 TEMPO 3118/0103 0500 -DZ FG OVC001 BECMG 3120/3124 09006KT", "TAF EDDB 311700Z 3118/0118 08004KT 6000 FEW030 BECMG 3118/3122 2500 BR PROB30 TEMPO 3119/0108 0400 FG BKN001 BECMG 3123/0101 14006KT 3500 BR BECMG 0108/0110 23010KT 9999", "TAF EDDC 311700Z 3118/0118 VRB03KT CAVOK BECMG 3120/3123 15008KT BECMG 0108/0111 21006KT", "TAF EDDE 311700Z 3118/0118 05004KT CAVOK TEMPO 3118/0107 2000 BCFG BECMG 3120/3122 20005KT BECMG 0106/0108 23015G25KT", "TAF EDDF 311700Z 3118/0124 06004KT CAVOK PROB30 TEMPO 3121/0102 4000 BR BKN008 BECMG 0102/0105 20007KT PROB40 TEMPO 0103/0105 RA BKN014 TEMPO 0105/0109 BKN025 BECMG 0106/0109 22012KT PROB30 TEMPO 0109/0114 23015G25KT BECMG 0114/0117 20007KT", "TAF EDDG 311700Z 3118/0118 10004KT CAVOK BECMG 0101/0104 19009KT BECMG 0106/0109 21015G25KT PROB40 TEMPO 0109/0113 21020G30KT BECMG 0113/0116 18009KT", "TAF EDDH 311700Z 3118/0124 13008KT 9999 BKN007 PROB40 TEMPO 3119/0106 3500 BR BKN004 BECMG 0105/0107 SCT030 BECMG 0107/0109 23015G25KT BECMG 0114/0116 20010KT", "TAF EDDK 311700Z 3118/0124 13009KT CAVOK PROB30 TEMPO 0100/0103 RA BECMG 0104/0107 22011KT PROB40 TEMPO 0109/0114 22015G25KT BECMG 0114/0117 16008KT", "TAF EDDL 311700Z 3118/0124 15012KT CAVOK PROB30 TEMPO 0100/0103 16015G25KT RA BECMG 0103/0106 21015G25KT PROB40 TEMPO 0110/0114 21020G30KT BECMG 0115/0118 18013KT", "TAF AMD EDDM 311843Z 3118/0124 VRB03KT 2000 BCFG NSC BECMG 3119/3122 0600 FG VV002 TEMPO 3120/0106 0400 PROB40 TEMPO 0105/0107 4000 BR BKN005 BECMG 0106/0108 26008KT 9999 FEW007 BECMG 0115/0117 22003KT PROB40 TEMPO 0121/0124 1200 BCFG", "TAF AMD EDDN 311816Z 3118/0118 12004KT 3000 BCFG NSC TEMPO 3118/0107 0400 FG BECMG 0105/0108 9999 BECMG 0109/0111 24006KT", "TAF EDDP 311700Z 3118/0118 10006KT 3000 BR NSC TEMPO 3118/0107 0200 FG OVC000 BECMG 0100/0102 17006KT BECMG 0108/0110 22012KT 5000 TEMPO 0111/0116 24015G25KT", "TAF EDDR 311700Z 3118/0118 10005KT CAVOK BECMG 3120/3123 17007KT BECMG 0100/0103 22012KT TEMPO 0101/0104 4000 RA BKN008 PROB30 TEMPO 0104/0109 BKN012 PROB40 TEMPO 0104/0112 24015G25KT BECMG 0115/0118 20007KT", "TAF EDDS 311700Z 3118/0118 VRB03KT CAVOK TEMPO 3121/0104 4000 BR PROB30 TEMPO 3122/0104 1200 BCFG BKN004 TEMPO 0104/0109 4000 RA BKN014 BECMG 0105/0108 22005KT PROB40 TEMPO 0109/0112 BKN014", "TAF EDDV 311700Z 3118/0118 11007KT 9999 FEW030 TEMPO 3119/0102 BKN006 PROB30 TEMPO 3120/0101 2500 BR BKN003 BECMG 0102/0104 17007KT BECMG 0107/0109 23013KT TEMPO 0109/0114 23015G25KT", "TAF EDDW 311700Z 3118/0118 13008KT 9999 SCT030 PROB30 TEMPO 3120/0102 3500 BR BKN004 BECMG 0106/0108 23015G25KT PROB30 TEMPO 0109/0113 23020G35KT BECMG 0114/0116 20009KT", "TAF EDFH 311700Z 3118/0118 14012KT CAVOK BECMG 0100/0103 22012KT TEMPO 0101/0104 4000 RA BKN008 TEMPO 0104/0110 BKN012 TEMPO 0106/0115 25015G25KT", "TAF EDFM 311700Z 3118/3121 VRB03KT CAVOK PROB30 TEMPO 3118/3121 4000 BR", "TAF EDGS 311700Z 3118/0103 15010KT CAVOK", "TAF EDHL 311729Z 3118/3121 12006KT 9999 OVC008 TEMPO 3118/3121 BKN004 PROB30 TEMPO 3119/3121 3500 BR", "TAF EDJA 311700Z 3118/0103 VRB02KT CAVOK TEMPO 3118/0101 1200 BCFG PROB40 TEMPO 3119/3123 0600 FG", "TAF EDLN 311700Z 3118/0103 14008KT CAVOK PROB30 TEMPO 0100/0103 RA", "TAF EDLP 311700Z 3118/0118 13008KT CAVOK BECMG 0102/0105 19012KT BECMG 0107/0109 22015G25KT PROB30 TEMPO 0109/0112 23020G30KT BECMG 0113/0116 20010KT", "TAF EDLV 311700Z 3118/0118 13007KT CAVOK BECMG 0100/0103 20012KT PROB40 TEMPO 0100/0103 RA BECMG 0106/0109 22015G25KT BECMG 0114/0116 20011KT", "TAF EDLW 311700Z 3118/0118 13006KT CAVOK BECMG 0100/0103 20013KT BECMG 0103/0106 22015G25KT PROB30 TEMPO 0109/0114 22020G30KT BECMG 0114/0117 19013KT", "TAF EDMA 311700Z 3118/0103 VRB02KT 1200 BCFG FEW003 BECMG 3118/3120 0600 FG VV002 TEMPO 3118/0103 0300 FG BKN001", "TAF EDMO 311700Z 3118/0103 VRB02KT CAVOK TEMPO 3119/0103 1200 BCFG", "TAF EDNY 311700Z 3118/0118 VRB03KT 0700 FG BKN002 TEMPO 3118/0106 0200 VV001 PROB40 TEMPO 0105/0108 3000 BR BECMG 0108/0110 23005KT 9000 FEW006 BKN030 BECMG 0114/0116 VRB03KT", "TAF EDQM 311700Z 3118/0103 15003KT CAVOK", "TAF EDSB 311700Z 3118/0118 VRB03KT CAVOK TEMPO 3118/3124 4000 BR PROB30 TEMPO 3120/3124 0800 FG BKN001 BECMG 0100/0103 22008KT PROB40 TEMPO 0102/0106 4000 RA BKN008", "TAF EDTL 311700Z 3118/3124 VRB03KT CAVOK", "TAF EDTY 311700Z 3118/0103 VRB02KT CAVOK PROB30 TEMPO 3120/0102 1200 BCFG", "TAF EDVE 311738Z 3118/3121 10006KT 6000 SCT007 TEMPO 3118/3121 2500 BR BKN003 PROB30 TEMPO 3120/3121 0400 FG BKN001", "TAF EDVK 311700Z 3118/0103 12006KT CAVOK", "TAF EEEI 311730Z 3118/0118 21009KT 9999 OVC010 TEMPO 3118/3120 4000 RADZ BR BKN004 OVC008 TEMPO 3120/0104 2000 DZ BR BKN002 OVC005 BECMG 0104/0106 27006KT SCT010 BKN015 TEMPO 0113/0118 BKN009", "TAF EEKA 311300Z 3114/3120 23008KT 9999 SCT008 OVC013 TEMPO 3115/3117 2500 SHRA BR BKN006 SCT020CB TEMPO 3117/3120 1500 RADZ BR OVC003", "TAF EEKE 311500Z 3116/3122 23006KT 9999 BKN008 OVC015 TEMPO 3116/3119 2000 RADZ BR BKN004 TEMPO 3119/3122 1200 DZ BR OVC003", "TAF EETN 311730Z 3118/0118 20008KT 9999 BKN010 OVC015 TEMPO 3118/3120 4000 RADZ BR BKN005 TEMPO 3120/0101 0500 DZ FG OVC002 BECMG 3122/3124 28008KT PROB40 TEMPO 0101/0105 2000 BR BKN004 BECMG 0105/0107 BKN005 OVC010 TEMPO 0115/0118 2000 BR OVC003", "TAF EFHK 311729Z 3118/0118 20008KT 9000 -RADZ FEW004 BKN007 TEMPO 3118/3119 4000 DZRA BKN004 BECMG 3119/3121 0400 FG VV001 BECMG 3123/0101 4000 BR BKN004 BECMG 0104/0106 8000 NSW BKN007", "TAF AMD EFIV 311832Z 3118/3121 21004KT 9999 BKN006 BECMG 3119/3121 BKN004", "TAF AMD EFJY 311936Z 3119/0118 19004KT 8000 -SHRA BKN003 BECMG 3119/3121 1500 -DZRA BR TEMPO 3121/0101 0500 FG OVC001 BECMG 0101/0103 6000 NSW BKN006 TEMPO 0106/0112 4000 BR BKN004", "TAF EFKE 311733Z 3118/0103 13005KT 9999 SCT006 BKN015 BECMG 3118/3120 5000 RA BKN003 BECMG 3120/3122 4000 -DZ TEMPO 3122/0103 8000 BKN006", "TAF EFKK 311733Z 3118/0103 19008KT 8000 BKN001 TEMPO 3118/3124 2500 -DZRA BR BKN005 BECMG 0100/0102 CAVOK", "TAF AMD EFKS 311750Z 3118/3124 16003KT 4000 BR BKN003 TEMPO 3118/3124 0500 FZFG BKN001", "TAF AMD EFKU 311936Z 3119/0118 18006KT 9999 -SHRA BKN005 FEW050CB BECMG 3120/3122 4500 -DZ BR BKN003 PROB40 TEMPO 3122/0106 0500 FG VV001 TEMPO 0108/0112 8000 NSW BKN005 PROB30 TEMPO 0112/0116 0800 FG", "TAF EFMA 311729Z 3118/0103 24008KT 9999 BKN003 TEMPO 3118/0102 SCT008", "TAF EFOU 311733Z 3118/0118 15007KT 9999 BKN010 BECMG 3118/3119 7000 RA BKN006 BECMG 3119/3121 4000 -DZ OVC003 PROB30 3122/0105 1500 BR BKN001 BECMG 0105/0107 5000 BCFG TEMPO 0107/0109 1200 BR BKN001 BECMG 0109/0111 9999 BKN005 TEMPO 0111/0116 4000 BR BKN003 BECMG 0116/0118 0800 FG BKN001", "TAF EFPO 311729Z 3118/0103 22008KT 9999 OVC002 BECMG 3118/3120 BKN005 BECMG 3120/3121 SCT009 BKN019", "TAF EFRO 311733Z 3118/0118 14006KT 0300 FG VV001 TEMPO 3118/0118 0900 FZFG VV002 PROB40 3121/0104 8000 -RASN FEW002 BKN006", "TAF AMD EFSI 311822Z 3118/0103 22006KT 9999 OVC002 BECMG 3118/3120 BKN005", "TAF EFTP 311729Z 3118/0118 20008KT 3000 -DZ BR OVC002 BECMG 3118/3119 0500 FG VV001 TEMPO 3119/3122 1500 BR OVC002 BECMG 3122/3124 3000 BR BKN003 TEMPO 0100/0115 6000 NSW BKN005", "TAF AMD EFTU 311754Z 3118/0118 23007KT 9000 OVC001 BECMG 3118/3120 BKN005 TEMPO 3120/0104 SCT008 BKN020 TEMPO 0104/0109 0500 FG VV002 PROB30 TEMPO 0109/0115 0500 FG VV002", "TAF EFVA 311733Z 3118/0118 24008KT 9999 OVC004 BECMG 3118/3120 SCT008 PROB30 0104/0112 1500 BCFG TEMPO 0112/0116 1500 BCFG BECMG 0116/0118 1200 BR BKN002", "TAF EGAA 311656Z 3118/0118 VRB03KT 9999 FEW008 SCT025 TEMPO 3118/0102 5000 RA PROB40 TEMPO 3118/0102 2500 +RA TEMPO 3123/0107 BKN004 PROB30 0102/0105 0100 FG BKN001 BECMG 0104/0106 26010KT BECMG 0106/0109 20012KT TEMPO 0114/0118 7000 SHRA", "TAF EGAC 311657Z 3118/3121 16005KT 9999 SCT015 BKN030 TEMPO 3118/3121 5000 RA PROB40 TEMPO 3118/3121 2500 +SHRA BKN012", "TAF EGAE 311657Z 3118/3121 12005KT 9999 SCT015 BKN025 TEMPO 3118/3121 6000 RA BKN014 PROB30 TEMPO 3118/3121 3000 DZ BKN008", "TAF AMD EGBB 311906Z 3119/0118 12009KT 9999 SCT025 TEMPO 3119/3122 7000 RA SHRA BKN008 PROB30 TEMPO 3119/3122 3000 +SHRA BKN004 BKN008CB TEMPO 3122/0110 7000 RA SHRA BKN014 PROB30 TEMPO 3122/0102 2000 +RA +SHRA BR BKN004 BECMG 0100/0103 20010KT PROB30 TEMPO 0102/0110 3000 +RA +SHRA BKN008 BECMG 0103/0106 26015KT PROB30 TEMPO 0104/0106 27018G28KT TEMPO 0110/0118 7000 SHRA BKN010 PROB30 TEMPO 0110/0118 3000 +SHRA TSRA BKN008", "TAF EGBJ 311826Z 3118/3120 10008KT 9999 SCT020 TEMPO 3118/3120 7000 RA SHRA BKN012 PROB40 TEMPO 3118/3120 15015G25KT 4000 +RA +SHRA BKN008", "TAF AMD EGCC 311827Z 3118/0124 17009KT 9999 SCT020 BECMG 3118/3121 09010KT TEMPO 3118/0107 6000 RA BKN010 PROB30 TEMPO 3118/0107 3000 +RA BKN005 BECMG 0104/0107 22010KT PROB30 TEMPO 0104/0108 24015G25KT PROB30 TEMPO 0107/0110 7000 SHRA BKN010 TEMPO 0117/0124 7000 SHRA BKN014", "TAF EGCK 311658Z 3118/0103 13011KT 9999 FEW040 PROB40 TEMPO 3118/3120 14015G25KT BECMG 3121/3124 VRB03KT TEMPO 3121/0103 6000 RA BKN010 PROB40 TEMPO 3121/0103 3000 +RA BKN008 BECMG 0100/0103 25015G28KT", "TAF EGCN 311654Z 3118/0118 07007KT 9999 SCT025 TEMPO 3118/0107 6000 RA BKN007 PROB30 TEMPO 3120/0103 3000 +RA BKN003 BECMG 3121/3124 13010KT BECMG 0106/0109 24012KT PROB30 TEMPO 0106/0110 22015G25KT PROB30 TEMPO 0107/0114 7000 SHRA BKN014 TEMPO 0114/0118 6000 SHRA PROB30 TEMPO 0114/0118 3000 TSRA +SHRA BECMG 0115/0118 18008KT", "TAF EGDR 311411Z 3115/3124 11017G32KT 9999 BKN030 BECMG 3115/3117 7000 -RA SCT005 BKN020 TEMPO 3117/3122 2000 +RA TSRA SCT002 BKN015CB PROB30 TEMPO 3118/3121 1400 BR SCT001 BECMG 3120/3122 29028G50KT 9999 NSW SCT012", "TAF EGDY 311345Z 3115/3124 13012KT 9999 FEW012 SCT020 TEMPO 3115/3118 13012G25KT 4000 SHRA SCT012 BKN020TCU BECMG 3116/3118 5000 -RA SCT007 BKN016 PROB40 TEMPO 3116/3121 3000 +SHRAGS BKN040CB BECMG 3118/3120 2400 +RADZ BKN007 OVC016", "TAF AMD EGFF 311911Z 3119/0118 11008KT 9999 SCT020 PROB40 TEMPO 3119/3120 4000 +SHRA BKN004 TEMPO 3120/0105 4000 RA SHRA BKN005 PROB40 TEMPO 3120/0105 1200 +RA +SHGS BKN002 BKN009CB BECMG 3123/0102 27022G35KT BECMG 0104/0106 23015KT TEMPO 0106/0118 24020G30KT 6000 SHRA BKN012CB", "TAF EGGD 311701Z 3118/0118 13009KT 9999 FEW012 PROB40 TEMPO 3118/3120 4000 +SHRA BKN004 TEMPO 3120/0105 4000 RA SHRA BKN005 PROB40 TEMPO 3120/0105 1200 +RA +SHGS BKN002 BKN009CB BECMG 0100/0103 26022G35KT BECMG 0103/0106 22014KT TEMPO 0106/0118 22018G28KT PROB40 TEMPO 0106/0118 4000 +SHRA BKN010CB", "TAF EGGP 311654Z 3118/0118 14008KT 9999 SCT020 TEMPO 3118/0106 6000 RA BKN010 PROB30 TEMPO 3118/0106 3000 +RA BKN005 BECMG 3120/3123 08010KT BECMG 0104/0107 26012KT TEMPO 0104/0108 27015G25KT PROB30 TEMPO 0106/0109 8000 -SHRA BKN010", "TAF EGGW 311702Z 3118/0118 13012KT 9999 FEW020 TEMPO 3118/0106 4000 RA SHRA BKN005 PROB30 TEMPO 3118/3121 BKN003 PROB40 TEMPO 3121/0106 1200 +RA SHGS BKN003 BKN009CB PROB30 TEMPO 3121/0101 16015G25KT BECMG 3123/0102 19010KT BECMG 0103/0106 25025G38KT BECMG 0106/0109 21015KT TEMPO 0109/0118 22018G28KT PROB30 TEMPO 0109/0118 3000 +SHRA", "TAF EGHH 311657Z 3118/3122 13010KT 9999 SCT010 TEMPO 3118/3122 7000 SHRA BKN014 PROB40 TEMPO 3118/3122 14018G30KT 4000 +SHRA BKN009", "TAF EGHI 311657Z 3118/3123 12008KT 9999 SCT010 TEMPO 3118/3123 7000 SHRA BKN014 PROB40 TEMPO 3118/3123 13018G30KT 4000 +SHRA BKN009", "TAF EGHQ 311659Z 3118/0103 14014KT 9999 SCT010 TEMPO 3118/0103 15020G30KT BKN010 TEMPO 3118/3122 6000 RA SHRA BKN008 PROB40 TEMPO 3118/3124 25030G40KT PROB30 TEMPO 3118/3122 4000 +RA +SHRA BKN004", "TAF EGJA 311403Z 3115/0100 14016KT 9999 FEW007 BKN045 PROB30 TEMPO 3115/3117 9000 SHRA BKN008 BKN012TCU TEMPO 3117/0100 8000 SHRA SCT008 BKN012TCU BECMG 3119/3121 18022KT BECMG 3121/3123 26033KT TEMPO 3122/0100 26035G50KT", "TAF EGJB 311659Z 3118/0103 17020KT 9999 FEW006 SCT035 TEMPO 3118/0100 8000 RA FEW006 BKN012 BECMG 3121/3123 26032KT PROB40 TEMPO 3122/0101 26035G45KT", "TAF EGJJ 311659Z 3118/0103 17020KT 9999 FEW006 SCT035 TEMPO 3118/0100 8000 RA FEW006 BKN012 BECMG 3121/3123 26032KT PROB40 TEMPO 3122/0101 26035G45KT", "TAF EGKA 311703Z 3118/3120 11013KT 9999 SCT015 TEMPO 3118/0320 6000 SHRA BKN012 PROB40 TEMPO 3118/3120 15020G30KT 3000 TSRA SHGS", "TAF EGKB 311703Z 3118/3123 13010KT 9999 SCT045 TEMPO 3118/3123 6000 SHRA BKN012 PROB30 TEMPO 3118/3123 16020G32KT 2500 TSRA SHGS BKN008 BKN015CB", "TAF EGKK 311653Z 3118/0124 15012KT 9999 FEW015 TEMPO 3118/0118 6000 SHRA BKN012 PROB30 TEMPO 3118/0101 2500 TSRA SHGS BKN008 BKN015CB PROB30 TEMPO 3120/0101 16020G35KT BECMG 0101/0104 24015G26KT PROB30 TEMPO 0103/0107 25020G36KT BECMG 0106/0109 23012KT PROB30 TEMPO 0106/0118 24015G30KT 3000 +SHRA SHGS", "TAF EGLC 311703Z 3118/3122 13010KT 9999 FEW040 TEMPO 3118/3122 6000 SHRA BKN012 PROB30 TEMPO 3118/3122 16020G30KT 2500 +SHRA SHGS BKN008 BKN015CB", "TAF EGLF 311703Z 3118/3122 13010KT 9999 FEW040 TEMPO 3118/3122 8000 SHRA BKN012 PROB30 TEMPO 3118/3122 16020G30KT 2500 TSRA SHGS BKN008 BKN015CB", "TAF EGLL 311655Z 3118/0124 13010KT 9999 SCT020 TEMPO 3118/0105 7000 SHRA RA BKN012 PROB30 TEMPO 3118/0105 3000 +SHRA +RA BECMG 3123/0102 22014KT PROB40 TEMPO 0103/0108 25020G35KT PROB30 TEMPO 0108/0121 23018G28KT 3000 +SHRA", "TAF EGMC 311703Z 3118/0103 16014KT 9999 FEW040 TEMPO 3118/0103 6000 SHRA BKN012 PROB30 TEMPO 3119/3124 16020G30KT 2500 +SHRA SHGS BKN008 BKN015CB", "TAF EGMD 311703Z 3118/0103 14019KT 9999 FEW035 TEMPO 3118/0103 6000 SHRA BKN012 PROB30 TEMPO 3118/0103 2500 TSRA SHGS BKN008 BECMG 3119/3123 16026G41KT PROB30 TEMPO 0100/0103 20045G55KT", "TAF EGNH 311658Z 3118/3121 14012KT 9999 FEW030 TEMPO 3119/3121 11015G25KT 6000 RA BKN010 PROB30 TEMPO 3119/3121 3000 +RA", "TAF EGNJ 311658Z 3118/0103 11009KT 9999 FEW030 TEMPO 3118/3122 6000 RA BKN010 PROB30 TEMPO 3118/3122 3000 +RA TEMPO 3122/0103 6000 SHRA BKN008 PROB30 TEMPO 3122/0103 3000 TSRA +SHRA BKN004", "TAF AMD EGNM 311912Z 3119/0118 11005KT 9999 FEW010 SCT020 TEMPO 3119/0108 4000 RA BKN005 PROB40 TEMPO 3119/0107 0300 +RA FG BKN001 BECMG 3120/3123 05010KT BECMG 0100/0103 VRB03KT BECMG 0105/0108 25010KT TEMPO 0106/0110 26016G28KT PROB40 TEMPO 0108/0112 7000 SHRA BKN014", "TAF EGNR 311658Z 3118/3120 16009KT 9999 FEW015 TEMPO 3118/3120 6000 RA BKN010 PROB30 TEMPO 3118/3120 3000 +RA BKN005", "TAF EGNS 311700Z 3118/3122 13015KT 9999 FEW012 PROB30 TEMPO 3119/3122 8000 -RA BKN012", "TAF EGNT 311654Z 3118/0118 11005KT 9999 FEW020 PROB30 TEMPO 3118/3121 8000 BKN007 TEMPO 3121/0109 6000 RA BKN004 PROB30 TEMPO 3121/0109 2000 +RA BR BKN001 BECMG 0108/0111 25012KT TEMPO 0108/0114 26018G28KT", "TAF AMD EGNV 311832Z 3118/3122 VRB03KT 9999 SCT025 TEMPO 3120/3122 6000 RA BKN010 PROB30 TEMPO 3120/3122 3000 +RA BKN005", "TAF EGNX 311702Z 3118/0118 12008KT 9999 SCT025 TEMPO 3118/3122 7000 RA SHRA BKN008 PROB30 TEMPO 3118/3122 BKN004 TEMPO 3122/0110 7000 RA SHRA BKN014 PROB30 TEMPO 3122/0102 2000 +RA +SHRA BR BKN004 BECMG 0100/0103 20010KT PROB30 TEMPO 0102/0110 3000 +RA +SHRA BKN008 BECMG 0103/0106 26015KT PROB30 TEMPO 0104/0106 27018G28KT TEMPO 0110/0118 7000 SHRA BKN010 PROB30 TEMPO 0110/0118 3000 +SHRA TSRA BKN008", "TAF EGOS 311654Z 3118/3124 13008KT 9999 FEW018 BECMG 3118/3120 -RA BKN012 TEMPO 3118/3124 7000 RA PROB30 TEMPO 3118/3120 3000 +RA PROB30 TEMPO 3120/3124 3000 +RA SCT005 BKN012", "TAF EGOV 311644Z 3118/3123 12009KT 9999 FEW035 PROB40 TEMPO 3121/3123 7000 -RA SCT010 PROB30 TEMPO 3122/3123 3500 +RA SCT006 BKN012TCU", "TAF EGPA 311701Z 3118/0103 16015KT 9999 FEW025 TEMPO 3118/3119 17020G32KT PROB40 TEMPO 3118/3123 6000 RA SHRA BKN014 PROB40 TEMPO 0100/0103 6000 BKN005", "TAF EGPB 311701Z 3118/0103 18017KT 9999 FEW010 PROB30 TEMPO 3118/3124 6000 SHRA BKN010 TEMPO 0100/0103 6000 BKN005 PROB30 TEMPO 0101/0103 3000 BR BKN003", "TAF EGPC 311701Z 3118/0103 16014KT 9999 FEW020 PROB40 TEMPO 3118/3123 6000 RA SHRA PROB40 TEMPO 0101/0103 6000 BKN005", "TAF EGPD 311700Z 3118/0118 18014KT 9999 FEW015 SCT030 TEMPO 3118/3119 19018G30KT PROB40 TEMPO 3118/3123 9000 BKN008 BECMG 3123/0102 11008KT BKN008 TEMPO 3123/0101 5000 BR BKN004 TEMPO 0101/0110 2000 RA BKN002 PROB30 TEMPO 0102/0109 1300 +RA BKN001 BECMG 0110/0112 23010KT FEW030", "TAF AMD EGPE 311758Z 3118/0103 07004KT 9999 FEW028 PROB30 TEMPO 3118/3122 6000 RA SHRA", "TAF AMD EGPF 311755Z 3118/0118 09005KT 9999 SCT025 PROB30 TEMPO 3118/3121 4000 SHRA TEMPO 0103/0109 6000 -RA BKN012 PROB30 TEMPO 0103/0109 4000 RA BKN007 BECMG 0108/0111 24010KT PROB40 TEMPO 0112/0116 24015G25KT 6000 SHRA BKN012", "TAF EGPH 311700Z 3118/0118 18015KT 9999 SCT025 BECMG 3121/3124 09005KT TEMPO 0100/0109 5000 RA BKN008 PROB30 TEMPO 0101/0109 3000 +RA PROB40 TEMPO 0102/0108 BKN003 BECMG 0106/0109 25010KT PROB40 TEMPO 0110/0118 25015G25KT 6000 SHRA BKN012", "TAF EGPK 311700Z 3118/0118 18012KT 9999 SCT025 PROB30 TEMPO 3118/3121 3000 SHRA BKN008 BECMG 3120/3123 10005KT TEMPO 0102/0107 7000 -RA BKN014 PROB30 TEMPO 0103/0106 4000 RA BKN008 BECMG 0106/0109 24010KT PROB30 TEMPO 0109/0118 25015G25KT 6000 SHRA BKN012", "TAF EGPN 311657Z 3118/3121 21009KT 9999 FEW030 BECMG 3118/3121 13010KT", "TAF EGPO 311701Z 3118/0103 24009KT 9999 SCT020 PROB30 TEMPO 3120/3122 7000 -SHRA BKN014 BECMG 3122/3124 12010KT TEMPO 3122/0103 6000 RA SHRA BKN012 PROB30 TEMPO 0101/0103 4000 +RA BKN008", "TAF EGSH 311654Z 3118/0103 12009KT 9999 FEW020 TEMPO 3118/3119 6000 RA SHRA BKN010 PROB30 TEMPO 3118/3119 3000 +RA +SHRA BKN005 TEMPO 3119/3121 6000 BKN010 TEMPO 3121/0101 6000 SHRA BKN010 PROB30 TEMPO 3121/0101 3000 +SHRA BKN004 BECMG 0100/0103 18010KT", "TAF EGSS 311702Z 3118/0124 13012KT 9999 FEW014 TEMPO 3118/0107 4000 RA SHRA BKN006 PROB30 TEMPO 3118/3121 BKN004 PROB40 TEMPO 3121/0107 1200 +RA SHGS BKN004 BKN009CB PROB30 TEMPO 3121/0101 16015G25KT BECMG 3122/0101 19012KT BECMG 0103/0106 24020G35KT BECMG 0106/0109 22012KT TEMPO 0109/0120 23018G28KT PROB30 TEMPO 0109/0119 3000 +SHRA", "TAF EGSY 311657Z 3118/0103 10008KT 9999 SCT025 TEMPO 3118/3124 7000 RA SHRA BKN012 PROB40 TEMPO 3118/3124 15015G25KT 3000 +RA +SHRA BKN006 PROB40 TEMPO 0100/0103 26020G35KT", "TAF EGTE 311659Z 3118/0103 14010KT 9999 SCT010 TEMPO 3118/0103 6000 RA SHRA BKN008 PROB30 TEMPO 3118/3124 16015G25KT PROB40 TEMPO 0100/0103 26018G30KT", "TAF AMD EGTK 311911Z 3119/3123 10009KT 9999 FEW020 TEMPO 3119/3123 6000 SHRA PROB30 TEMPO 3119/3123 15020G30KT 3000 TSRA BKN009CB", "TAF EGUB 311642Z 3118/3124 12014KT 9999 FEW018 BKN040 TEMPO 3118/3124 4000 RA BKN015CB PROB40 TEMPO 3118/3124 BKN010 PROB30 TEMPO 3118/3124 3000 +RA SCT006 BKN010CB", "TAF AMD EGUL 311535Z 3115/0120 14015KT 9999 SCT020 BKN060 QNH2970INS BECMG 3118/3119 15012KT 9999 VCSH SCT010 BKN020 QNH2958INS BECMG 3121/3122 16012KT 8000 -RA BKN010 620805 QNH2937INS TEMPO 0100/0106 18012G22KT 4800 SHRA BR BKN007 510003 TEMPO 0106/0108 21015G30KT 520003 BECMG 0106/0108 25015G25KT 9999 VCSH FEW010 BKN020 QNH2958INS TX16/3115Z TN11/0105Z LAST NO AMDS AFT 3115 NEXT 0106", "TAF EGUN 311200Z 3112/0118 16010G20KT 9999 FEW030 FEW200 QNH2983INS BECMG 3114/3115 14010G20KT 9999 FEW020 BKN080 620803 QNH2973INS BECMG 3117/3118 12010G20KT 9999 VCSH BKN020 OVC040 610804 QNH2961INS BECMG 3120/3121 14010G20KT 8000 -SHRA SCT010 OVC020 610805 QNH2938INS BECMG 0100/0101 16010G20KT 9000 -RA SCT006 OVC015 610805 QNH2938INS BECMG 0103/0105 25015G30KT 6000 -SHRA VCTS SCT004 OVC020CB 610802 520003 QNH2952INS TEMPO 0105/0108 24020G35KT 1600 SHRA 550005 BECMG 0107/0109 23010G20KT 9999 NSW SCT030 QNH2962INS BECMG 0109/0111 21010G25KT 8000 -RA SCT010 OVC020 610705 510003 QNH2961INS TX18/3114Z TN11/0106Z", "TAF EGUW 311639Z 3118/3124 13012KT 9999 FEW022 TEMPO 3118/3120 7000 RA BKN007 PROB30 TEMPO 3118/3120 BKN004 TEMPO 3122/3124 -RA SCT007 PROB30 TEMPO 3122/3124 5000 SHRA SCT005", "TAF AMD EGVA 311555Z 3115/0119 12009KT 9999 SCT020 BKN040 QNH2970INS BECMG 3116/3117 11012KT 8000 -RA BR FEW008 BKN015 OVC030 QNH2937INS BECMG 0104/0105 26015G25KT 9999 VCSH FEW009 BKN015 OVC030 QNH2942INS BECMG 0110/0111 22012G18KT 8000 -SHRA FEW020 BKN040 510053 QNH2965INS TEMPO 0112/0116 23020G30KT 6000 -TSRA BKN020CB OVC040 TX15/3117Z TN10/0105Z LAST NO AMDS AFT 3116 NEXT 0105", "TAF EGVN 311648Z 3118/0118 13011KT 9999 FEW022 TEMPO 3118/0106 6000 -RA BKN010 PROB30 TEMPO 3118/0105 3000 RADZ SCT006 BECMG 0103/0105 24015KT PROB30 TEMPO 0103/0112 25015G25KT PROB40 TEMPO 0107/0112 SCT020 PROB30 TEMPO 0108/0112 6000 SHRA SCT012 PROB30 TEMPO 0112/0118 3000 +SHRA SCT016CB", "TAF EGVO 311357Z 3115/0103 13015G26KT 9999 FEW020 TEMPO 3115/0103 BKN008 PROB30 TEMPO 3115/0103 4000 SHRA SCT005 BKN010CB PROB40 TEMPO 0102/0103 18018G32KT", "TAF EGVP 311623Z 3118/3121 13012KT 9999 BKN015 TEMPO 3118/3121 6000 RA SHRA SCT010 PROB30 TEMPO 3118/3121 4000 +RA +SHRA SCT006", "TAF EGWU 311645Z 3118/0112 16010KT 9999 BKN015 TEMPO 3118/0104 FEW015 PROB40 TEMPO 3118/0105 4000 RA SHRA BKN013 PROB30 TEMPO 3121/3124 16015G25KT PROB30 TEMPO 0100/0105 22022G32KT 3000 +SHRA BKN009CB BECMG 0104/0107 FEW010 PROB40 TEMPO 0107/0112 23015G25KT 4000 +SHRA BKN016CB", "TAF EGXC 311657Z 3118/0112 11010KT 9999 BKN048 TEMPO 3118/0107 4000 RA BKN007 PROB40 TEMPO 3119/0102 3000 +RA SCT002 BECMG 0105/0108 24018G28KT PROB30 TEMPO 0109/0112 SCT014", "TAF EGXE 311335Z 3115/3121 16010KT 9999 FEW022 PROB30 TEMPO 3115/3117 SCT022 TEMPO 3119/3121 7000 RA BKN022 PROB30 TEMPO 3120/3121 4000 RADZ SCT007", "TAF EGYM 311633Z 3118/3121 11012KT 9999 BKN040 PROB40 TEMPO 3118/3121 6000 RA BKN010 PROB30 TEMPO 3118/3121 13015G25KT 4000 +RA", "TAF EGYP 311657Z 3118/0112 28025G35KT 9999 FEW035 TEMPO 3120/3122 5000 RADZ BKN014 BECMG 0106/0109 BKN017 TEMPO 0108/0112 6000 RA BKN009 BECMG 0109/0112 23017G27KT PROB30 TEMPO 0109/0112 4000 RADZ SCT006", "TAF EHAM 311720Z 3118/0124 12012KT CAVOK BECMG 3121/3124 17017KT TEMPO 3123/0102 5000 RADZ SCT014 BKN018 TEMPO 0102/0111 7000 -SHRA SCT020TCU BKN025 BECMG 0103/0106 21025G35KT TEMPO 0106/0109 23028G42KT BECMG 0110/0113 21020G30KT BECMG 0117/0120 20015G25KT TEMPO 0117/0124 22023G33KT 5000 SHRA SCT018CB BKN022", "TAF EHBK 311720Z 3118/0124 14008KT CAVOK BECMG 3118/3121 18012KT BECMG 0102/0105 22020G30KT", "TAF EHEH 311742Z 3118/0124 12005KT CAVOK BECMG 3120/3122 15010KT TEMPO 3123/0104 20020G30KT 4500 SHRA RA SCT010 SCT015CB BKN025 BECMG 0103/0105 22020G32KT BECMG 0109/0112 21015G25KT PROB40 TEMPO 0122/0124 4500 SHRA SCT018 SCT025CB", "TAF EHGG 311720Z 3118/0124 10008KT CAVOK BECMG 3121/3124 15010KT BECMG 0103/0106 20016KT PROB30 TEMPO 0103/0106 6000 -RADZ BKN020 BECMG 0106/0109 21017G32KT BKN020 PROB30 TEMPO 0106/0111 6000 -SHRA FEW018TCU BECMG 0113/0116 20015KT PROB40 TEMPO 0121/0124 20018G28KT 4000 SHRA SCT020CB", "TAF AMD EHGR 311111Z 3111/3122 11005KT 8000 NSC TEMPO 3111/3113 3500 BR", "TAF EHKD 311746Z 3118/0106 09009KT CAVOK BECMG 3119/3121 15012KT TEMPO 0101/0104 17012G22KT 4000 SHRA RA SCT010 SCT020 SCT020CB BKN030 BECMG 0104/0106 20028G43KT PROB30 TEMPO 0104/0106 21030G44KT 4500 SHRA FEW015 SCT020CB BKN030", "TAF EHLE 311723Z 3118/0124 12010KT CAVOK BECMG 3121/3124 17014KT TEMPO 3123/0102 5000 RADZ TEMPO 0102/0111 7000 -SHRA SCT020TCU BKN025 BECMG 0103/0106 21023G33KT TEMPO 0106/0109 22026G37KT BECMG 0109/0112 21018G28KT TEMPO 0119/0124 22023G33KT 5000 SHRA SCT018CB BKN022", "TAF EHLW 311752Z 3118/0106 10009KT CAVOK BECMG 3123/0101 15010KT TEMPO 0103/0106 17010G28KT 4500 SHRA RA SCT010 SCT020CB BKN030 BECMG 0105/0106 19017G32KT", "TAF COR EHRD 311726Z 3118/0124 12012KT CAVOK BECMG 3121/3124 17017KT TEMPO 3122/0102 4500 RADZ BKN014 TEMPO 0102/0110 7000 -SHRA SCT020TCU BKN025 BECMG 0102/0105 21025G35KT TEMPO 0105/0108 23028G42KT BECMG 0109/0112 21020G30KT BECMG 0118/0121 20015G25KT TEMPO 0118/0124 22023G33KT 5000 SHRA SCT018CB BKN022", "TAF EHVK 311752Z 3118/0106 11005KT CAVOK BECMG 3122/3124 16010KT TEMPO 0100/0104 18010G28KT 4000 SHRA RA SCT010 SCT020CB BKN025 BECMG 0103/0105 21017G30KT", "TAF EHWO 310903Z 3110/3122 12005KT CAVOK", "TAF EICK 311700Z 3118/0118 32010KT 6000 -RA SCT008 BKN025 PROB40 TEMPO 3118/3119 3000 RA BKN008 FEW018CB BECMG 3119/3121 27010KT BECMG 3123/0101 19008KT TEMPO 0100/0103 25015G25KT SHRA FEW018CB BECMG 0101/0103 24011KT TEMPO 0110/0118 SHRA SCT018CB PROB30 TEMPO 0112/0118 25015G25KT 5000 SHRAGS", "TAF EIDL 311700Z 3118/0103 15005KT 9999 SCT030", "TAF EIDW 311700Z 3118/0118 16008KT 9999 -RA FEW008 SCT020 BKN040 TEMPO 3118/0104 BKN014 PROB40 TEMPO 3118/3124 VRB03KT 4000 RA BKN009 FEW015CB BECMG 0100/0102 24010KT PROB30 TEMPO 0100/0103 BKN008 PROB30 TEMPO 0103/0106 SHRA BECMG 0105/0107 24015KT TEMPO 0106/0112 25017G28KT TEMPO 0110/0118 FEW018CB TEMPO 0115/0118 SHRA PROB30 TEMPO 0115/0118 24015G25KT SHRAGS", "TAF EIKN 311700Z 3118/0118 VRB03KT 9999 -RA BKN003 BECMG 3118/3120 SCT008 PROB30 TEMPO 3120/0101 3000 BR BKN003 BECMG 0100/0102 17010KT PROB40 TEMPO 0101/0108 4000 SHRA FEW018CB BECMG 0104/0106 24018G30KT BECMG 0108/0110 24012KT TEMPO 0109/0118 SHRA SCT018CB PROB30 TEMPO 0112/0118 25015G25KT 4000 SHRAGS BKN012", "TAF EIKY 311700Z 3118/0103 VRB03KT 9999 SCT015 BECMG 3121/3123 19010KT TEMPO 3123/0102 22015G25KT SHRA SCT018CB", "TAF EIME 311700Z 3118/0103 12006KT 9999 -RA FEW018 SCT030 PROB30 TEMPO 3118/3120 4000 RA BKN010 PROB40 TEMPO 3120/0101 4000 RA BKN010 PROB30 TEMPO 3120/3124 +RA BKN008 BECMG 3122/3124 24010KT", "TAF EINN 311700Z 3118/0118 VRB03KT 9999 -RA FEW005 SCT018 BECMG 0100/0102 15010KT PROB40 TEMPO 0100/0110 SHRA SCT018CB BECMG 0103/0105 23011KT TEMPO 0110/0118 SHRA SCT018CB PROB30 TEMPO 0112/0118 24015G25KT SHRAGS BKN014", "TAF EISG 311700Z 3118/0103 VRB03KT 9999 -RA FEW010 BKN015 BECMG 0101/0103 16010KT", "TAF EIWF 311700Z 3118/0103 16010KT 6000 -RA SCT010 BKN015 BECMG 3118/3120 27008KT TEMPO 3118/3120 4000 RA BKN010 PROB30 TEMPO 3118/3119 17015G25KT PROB30 TEMPO 3120/3122 4000 RA BKN012 TEMPO 0102/0103 20015G25KT SHRA FEW018CB", "TAF AMD EKAH 311825Z 3118/0118 21005KT 0100 FG NSC TEMPO 3118/3124 5000 NSW BKN003 BECMG 0100/0102 12013KT 2000 BR BKN003 TEMPO 0102/0106 6000 NSW BKN008 TEMPO 0106/0110 13015G25KT 6000 NSW BKN008 BECMG 0110/0112 18015G25KT 6000 RADZ BKN012 BECMG 0112/0114 21012KT NSW BKN020 TEMPO 0114/0118 SHRA BKN012 SCT020TCU", "TAF EKBI 311708Z 3118/0118 18008KT 9000 BKN015 TEMPO 3118/3123 4000 BR BKN008 BECMG 3123/0101 12012KT 2000 BR BKN003 TEMPO 0101/0108 13015G25KT 6000 NSW BKN008 BECMG 0108/0110 18010KT 6000 RADZ BKN012 BECMG 0110/0112 21020G30KT NSW BKN020 TEMPO 0112/0118 SHRA BKN010 SCT020TCU", "TAF EKCH 311708Z 3118/0118 18004KT 9000 FEW018 TEMPO 3118/3122 2000 BR BKN008 BECMG 3122/3124 12012KT 3000 BR BKN004 TEMPO 0100/0105 6000 NSW BKN008 TEMPO 0105/0112 13018G28KT 7000 NSW BKN010 BECMG 0112/0114 22013KT 9999 NSW FEW010 BKN030", "TAF EKEB 311406Z 3115/3121 17008KT 8000 BKN006 TEMPO 3115/3121 4000 BR SCT008 BKN015", "TAF EKGC 311406Z 3115/3121 19018KT 9999 FEW010 TEMPO 3115/3121 BKN005", "TAF EKHD 311406Z 3115/3121 19020KT 9999 FEW008 TEMPO 3115/3121 BKN006", "TAF EKKA 311722Z 3118/0118 15003KT 9999 BKN020 TEMPO 3118/0101 3000 BR BKN006 BECMG 0101/0103 13015KT 2000 BR BKN003 TEMPO 0103/0108 14015G25KT 6000 NSW BKN008 BECMG 0108/0110 15015G25KT 4000 RA BKN005 BECMG 0110/0112 20015KT 9999 NSW BKN020 TEMPO 0112/0118 22018G28KT BKN012TCU", "TAF EKRK 311730Z 3118/0103 VRB03KT 8000 NSC PROB40 3118/3123 0600 FG VV002 BECMG 3123/0101 12012KT 2000 BR BKN003 TEMPO 0101/0103 5000 NSW BKN006", "TAF EKRN 311706Z 3118/0103 VRB02KT 4000 BR BKN006 TEMPO 3118/0103 0500 FG BKN002", "TAF EKSB 311752Z 3118/3123 13008KT 9000 BKN018 TEMPO 3118/3121 3000 BR BKN004 BECMG 3121/3123 2000 BR BKN003", "TAF EKSP 311705Z 3118/0118 13005KT 9999 SCT015 SCT200 TEMPO 3118/3121 3000 BR BKN004 BECMG 3121/3123 11015KT 0500 FG BKN002 TEMPO 3123/0107 11015G25KT 3000 -RADZ BR BKN004 BECMG 0107/0109 18018KT 4000 RA BKN008 BECMG 0109/0112 21020G35KT 9999 NSW BKN020 TEMPO 0112/0116 21025KT -SHRA SCT020TCU BECMG 0116/0118 20015G28KT", "TAF AMD EKVG 311631Z 3116/3121 17017KT 9999 -DZ FEW007 BKN012 TEMPO 3116/3121 18020G30KT 4000 DZRA OVC005", "TAF EKYT 311722Z 3118/0118 16005KT 9999 BKN020 TEMPO 3118/3121 2000 BCFG BKN010 TEMPO 3121/0102 3000 BR BKN006 BECMG 0100/0102 12015KT TEMPO 0102/0111 12015G25KT 2500 BR BKN003 BECMG 0111/0112 15015G28KT 3000 RA BKN005 BECMG 0112/0114 20015KT 9999 NSW BKN020 TEMPO 0114/0118 21018G28KT BKN012TCU", "TAF ELLX 311100Z 3112/0118 13006KT CAVOK BECMG 0100/0103 21010KT TEMPO 0100/0105 -RA BKN008 TEMPO 0102/0108 23015G25KT PROB40 TEMPO 0103/0106 23020G30KT", "TAF ENAL 311400Z 3115/3123 22010KT 9999 BKN040 BECMG 3115/3117 16008KT", "TAF ENAN 3118/0118 20008KT 9999 BKN012 TEMPO 3118/0101 3000 RADZ BR BKN005 BECMG 3123/0101 BKN020 TEMPO 0101/0109 BKN008", "TAF ENAT 311400Z 3115/3124 16005KT 9999 FEW020 BKN050", "TAF ENBN 311700Z 3118/0103 19008KT 9999 -RA FEW008 SCT015 BKN020 TEMPO 3118/3122 4000 RADZ SCT005 BKN008 PROB40 TEMPO 3122/0103 BKN012", "TAF COR ENBO 3118/0118 10012KT 9999 -RADZ FEW006 BKN012 BECMG 3118/3121 22009KT TEMPO 3118/0104 2000 RADZ BKN006 BECMG 0104/0106 09015KT FEW010 SCT020 BKN045", "TAF ENBR 3118/0118 17015KT 9999 FEW012 BKN020 TEMPO 3118/3123 17018G30KT BECMG 3123/0101 12005KT TEMPO 0110/0117 14015G30KT RA TEMPO 0117/0118 14015G30KT SHRA BKN020CB", "TAF ENBS 311400Z 3115/3122 20008KT 9999 FEW012 BKN030", "TAF ENBV 311400Z 3115/3123 22009KT 9999 -SHRA SCT025 BKN050", "TAF AMD ENCN 311821Z 3118/3123 18007KT 9999 SCT005 BKN015 TEMPO 3118/3121 3000 -RADZ BR BKN003", "TAF ENDU 3118/0118 VRB03KT 9999 -RADZ FEW005 SCT015 BKN025 TEMPO 3118/0103 4500 RADZ BR TEMPO 0103/0109 3500 RADZ BR BKN012", "AMD ENEV 3118/0118 18005KT 9000 -RADZ FEW010 BKN020 TEMPO 3118/0105 3000 RADZ BR BKN008 TEMPO 0105/0110 BKN012", "TAF ENFL 311700Z 3118/0103 14015KT 9999 FEW010 BKN025 TEMPO 3118/0103 17020G30KT", "TAF ENGC 3118/0118 18035KT 9999 BKN008 TEMPO 3118/0103 4000 BR BKN004 BECMG 0103/0106 15022KT FEW010 BKN040 BECMG 0112/0114 14042G52KT TEMPO 0112/0118 4000 SHRA SCT020CB BKN030 BECMG 0117/0118 16035KT 4000 RADZ BKN008", "TAF ENGM 3118/0118 19005KT 9999 BKN012 BECMG 3118/3120 0500 FG VV001 TEMPO 3120/0112 4000 BR OVC003 BECMG 0111/0113 9999 NSW BKN012 TEMPO 0116/0118 4000 RA BR OVC003", "TAF ENHD 311400Z 3115/3121 16015KT 9999 FEW010 BKN020 TEMPO 3115/3121 BKN012", "TAF ENHE 311700Z 3118/0103 22028KT 5000 BKN008 TEMPO 3118/3124 0300 FG VV002 TEMPO 0100/0103 2000 BR BKN004", "TAF ENHF 311700Z 3118/0103 21004KT 9999 SCT040 BKN050", "TAF ENHV 311100Z 3112/3121 20008KT 9999 -SHRA BKN030", "TAF ENKB 311400Z 3115/3122 11005KT 9999 FEW035 BKN050", "TAF ENKR 311700Z 3118/0103 18005KT 9999 SCT040", "TAF ENLE 311700Z 3118/0103 16025KT 9999 SCT008 BKN035 TEMPO 3118/0103 BKN008 BECMG 0100/0103 12035KT", "TAF ENML 311400Z 3115/3123 06005KT 9999 FEW040 BKN060", "TAF ENMS 311400Z 3115/3122 19005KT 9999 -RA FEW003 BKN020 PROB40 3115/3122 2000 -RADZ BR VV006", "TAF ENNA 3118/0118 18009KT 9999 BKN070 PROB30 TEMPO 3123/0105 -FZRA", "ENOA 3118/0118 17035KT 7000 BKN008 TEMPO 3118/0103 4000 BR BKN004 BECMG 0104/0107 14025KT FEW010 BKN040 BECMG 0111/0113 14045G55KT TEMPO 0112/0118 4000 SHRA SCT020CB BKN030 BECMG 0116/0118 16035KT 4000 RADZ BR BKN006", "TAF ENOL 3118/0118 13008KT CAVOK BECMG 3121/3123 13018KT TEMPO 0113/0118 13022G32KT", "TAF ENOV 311400Z 3115/3123 VRB03KT 9999 SCT030 BKN040", "TAF AMD ENRA 311623Z 3116/3122 10005KT 9999 -RA FEW002 BKN020 TEMPO 3116/3118 4000 RADZ BKN008 PROB40 3118/3121 2500 DZRA BR BKN004", "TAF ENRM 311700Z 3118/3123 22012KT 9999 -RADZ SCT005 BKN012 TEMPO 3118/3121 3000 RADZ BKN004 BECMG 3121/3123 14006KT FEW012 BKN025", "TAF ENRY 3118/0118 20008KT 9999 SCT008 PROB30 TEMPO 3118/3119 BKN004 BECMG 3119/3121 0800 FG VV002 TEMPO 3121/0109 3000 BR OVC003 BECMG 0109/0111 12012KT 9999 NSW BKN008 TEMPO 0114/0118 4000 RA BR OVC004", "TAF ENSB 3118/0118 12008KT 9999 FEW020 BKN030", "TAF ENSD 311400Z 3115/3122 04005KT 9999 SCT030 BKN040", "TAF AMD ENSH 311700Z 3117/3122 18009KT 4500 -DZ BR FEW003 BKN007 TEMPO 3117/3122 2000 DZRA BKN003", "TAF ENSK 311400Z 3115/3121 15009KT 9999 -RA FEW010 BKN025 TEMPO 3115/3118 4000 RADZ BKN008 TEMPO 3118/3121 BKN005", "TAF ENSR 311100Z 3112/3120 16009KT 9999 FEW040", "TAF ENTC 3118/0118 21008KT 9999 -RA FEW015 BKN030 PROB40 TEMPO 3118/3121 RA TEMPO 3121/0107 4000 RADZ BKN008 PROB40 TEMPO 0107/0113 BKN012", "TAF ENTO 3118/0118 19008KT 9999 SCT004 PROB30 TEMPO 3118/3119 BKN004 BECMG 3119/3121 0500 FG VV001 TEMPO 3121/0109 3000 BR OVC003 BECMG 0109/0112 12012KT 9000 -RA BKN008 TEMPO 0114/0118 4000 RA BR OVC004", "TAF ENVA 3118/0118 12008KT 9999 FEW020 BKN060 TEMPO 0114/0118 15015G25KT", "TAF ENVD 311700Z 3118/3124 21008KT 9999 FEW015 SCT040", "TAF ENZV 3118/0118 14012KT 9999 FEW020 BKN080 TEMPO 0106/0109 12020G30KT TEMPO 0108/0116 13022G38KT TEMPO 0112/0116 SHRA SCT020CB BKN030 BECMG 0116/0118 20018KT BKN012", "TAF EPBY 311730Z 3118/0118 VRB02KT 0300 FG OVC001 TEMPO 3118/0108 0800 FG BKN003 BECMG 0108/0111 14005KT 3000 BR BKN004 BECMG 0112/0115 5000 BR BKN010", "TAF COR EPCE 311647Z 3118/0103 26004KT 2000 BR OVC003 TEMPO 3118/0103 VRB03KT 0300 FG OVC002", "TAF EPDA 311700Z 3118/0103 VRB03KT 5000 BR OVC010 TEMPO 3118/0103 1500 BR BKN005 PROB30 TEMPO 3118/0103 0500 FG BKN002", "TAF EPDE 311100Z 3112/3121 16004KT 8000 NSC BECMG 3115/3118 1500 BR BKN005", "TAF AMD EPGD 311831Z 3118/0118 VRB02KT 5000 BR SCT003 OVC005 BECMG 3118/3121 3000 BR OVC003 TEMPO 3119/0110 0500 FG OVC001 BECMG 0110/0112 16010KT BECMG 0113/0115 CAVOK", "TAF EPIR 311400Z 3115/3124 VRB03KT 0100 FG BKN001", "TAF EPKK 311730Z 3118/0118 VRB02KT CAVOK BECMG 3121/3124 1500 BR BECMG 0100/0103 0100 FG OVC001 BECMG 0108/0111 CAVOK BECMG 0112/0115 27010KT", "TAF EPKS 311700Z 3118/0103 VRB02KT 1200 MIFG BR NSC BECMG 3118/3120 0600 FG BECMG 3120/3122 0200 FG BKN002", "TAF AMD EPKT 311803Z 3118/0118 VRB02KT 1500 BR NSC TEMPO 3118/0107 0500 FG BECMG 0107/0110 20010KT CAVOK", "TAF AMD EPLB 311930Z 3119/0118 VRB02KT 1000 BR BKN002 TEMPO 3119/0107 0500 FG OVC001 PROB40 3119/0107 0100 FG OVC001 BECMG 0104/0106 18010KT BECMG 0107/0109 CAVOK BECMG 0114/0116 25010KT PROB40 TEMPO 0116/0118 1400 BR BKN002", "TAF EPLK 311700Z 3118/0103 VRB03KT 5000 BR NSC BECMG 3120/3122 0500 FG", "TAF EPLL 311730Z 3118/0118 VRB03KT 0300 FG BKN002 TEMPO 3118/0106 0100 FG OVC001 BECMG 0108/0111 18010KT 9999 SCT015 BECMG 0112/0114 26010KT", "TAF EPLY 311700Z 3118/0103 VRB02KT 0200 FG OVC002", "TAF AMD EPMB 3118/0103 21004KT 2000 BR OVC005 TEMPO 3118/0103 VRB03KT 0500 FG OVC002", "TAF EPMI 311700Z 3118/0103 VRB03KT 0100 FG OVC001 TEMPO 3118/0103 0300 FG OVC002", "TAF AMD EPMM 311818Z 3118/0103 12004KT 0400 FG OVC002", "TAF EPMO 311730Z 3118/0118 VRB03KT 1400 BR OVC002 TEMPO 3118/0106 0400 FG OVC001 PROB40 TEMPO 3119/0106 0200 FG BECMG 0109/0112 18010KT 9999 SCT015 PROB40 TEMPO 0116/0118 1400 BR BKN002", "TAF EPOK 311700Z 3118/0103 VRB03KT 0500 FG VV002 TEMPO 3118/0103 3000 BR DZ OVC005", "TAF EPPO 311730Z 3118/0118 VRB02KT 0100 FG NSC BECMG 3118/3121 OVC001 TEMPO 3121/0109 0400 FG BKN003 BECMG 0109/0111 CAVOK BECMG 0115/0118 25010KT", "TAF EPPR 311100Z 3112/3121 18004KT 5000 BR BKN004 OVC010", "TAF EPPW 311700Z 3118/0103 VRB02KT 0200 FG BKN001", "TAF AMD EPRA 311504Z 3115/3124 15006KT 0200 FG OVC002", "TAF EPRZ 311730Z 3118/0118 19005KT CAVOK TEMPO 3118/0103 4000 BR", "TAF EPSC 311730Z 3118/0118 VRB02KT 1500 BR BKN002 BECMG 3118/3121 0500 FG TEMPO 3119/0102 0100 FG OVC001 TEMPO 0102/0105 1500 BR BECMG 0105/0108 17010KT 3000 BR BECMG 0108/0111 CAVOK PROB40 TEMPO 0114/0118 -SHRA SCT020TCU BECMG 0116/0118 26006KT", "TAF EPSN 311700Z 3118/0103 33004KT 0500 FG OVC002 TEMPO 3118/3123 1500 DZ BR BKN002 BECMG 3120/3123 09004KT", "TAF EPSY 311730Z 3118/0103 VRB03KT 1500 BR OVC003 BECMG 3118/3120 0400 FG OVC001", "TAF EPTM 311700Z 3118/0103 VRB03KT 0300 FG BKN002", "TAF EPWA 311730Z 3118/0118 15005KT 1000 BR BKN002 TEMPO 3118/0106 0450 FG OVC001 PROB40 TEMPO 3119/0106 0300 FG BECMG 0109/0111 9999 SCT015 PROB40 TEMPO 0116/0118 1400 BR BKN003", "TAF EPWR 311730Z 3118/0118 VRB02KT CAVOK BECMG 3118/3121 2000 BR TEMPO 3118/0107 0600 FG PROB40 TEMPO 3120/0107 0200 FG BKN001 BECMG 0107/0109 CAVOK BECMG 0113/0116 27010KT", "TAF EPZG 311730Z 3118/0103 VRB02KT 0100 FG NSC BECMG 3118/3121 OVC001 TEMPO 3118/0103 0300 FG", "TAF AMD ESDF 311852Z 3118/3120 VRB02KT 9999 SCT009 TEMPO 3118/3120 0200 FG VV002", "TAF ESGG 311730Z 3118/0118 20006KT 0300 FG VV002 TEMPO 3118/0108 3000 BR BKN005 BECMG 0108/0110 9999 NSW BKN005 BECMG 0111/0113 BKN015 TEMPO 0113/0118 4000 RA BKN008", "TAF AMD ESGJ 311749Z 3118/0102 24004KT 9000 BCFG FEW010 TEMPO 3118/0102 0300 FG VV002", "TAF ESGP 311730Z 3118/3122 18007KT 5000 BKN005 TEMPO 3118/3122 0300 FG VV002", "TAF ESKN 311730Z 3118/0118 24008KT CAVOK PROB40 3119/0109 3000 BR BKN004", "TAF AMD ESMK 311801Z 3118/3120 VRB02KT 0100 FG VV002 TEMPO 3118/3120 3000 BR SCT002", "TAF AMD ESMQ 311750Z 3118/3120 25003KT 9999 BCFG NSC PROB40 3118/3120 0100 FG VV001", "TAF AMD ESMS 311754Z 3118/0118 VRB03KT 0050 FG SCT002 TEMPO 3118/3122 6000 NSW BKN002 BECMG 3122/3124 12010KT 3000 BR BKN004 TEMPO 0100/0107 5000 NSW BKN008 TEMPO 0107/0113 13015G28KT 8000 NSW BKN010 BECMG 0113/0115 22010KT 9999 NSW FEW008 BKN030 TEMPO 0115/0116 BKN008", "TAF AMD ESMT 311825Z 3118/3120 22003KT 0100 FG VV001 TEMPO 3118/3120 3000 BR BKN006", "TAF ESMX 311730Z 3118/0102 22004KT 6000 NSC TEMPO 3118/0102 0300 FG VV002", "TAF ESNG 311730Z 3118/3122 28004KT 9999 BKN040 TEMPO 3118/3122 4000 -FZRA BKN014", "TAF ESNN 311730Z 3118/0102 VRB02KT CAVOK PROB40 3118/0102 0300 FG VV002", "TAF ESNO 311730Z 3118/3120 22004KT CAVOK PROB40 3118/3120 0500 BCFG", "TAF AMD ESNU 311828Z 3118/0103 27010KT 9999 BKN012 BECMG 3118/3119 NSC PROB40 3122/0103 2000 BCFG", "TAF ESNX 311730Z 3118/3121 VRB02KT 9999 BKN045 PROB40 3118/3121 BKN004", "TAF AMD ESNZ 311755Z 3118/3120 24003KT CAVOK PROB40 3118/3120 0200 BCFG", "TAF ESOE 311730Z 3118/0102 24007KT 9999 SCT030 PROB40 3120/0102 2000 BCFG", "TAF ESOW 311730Z 3118/3121 22006KT 9999 FEW030 PROB40 3119/3121 2000 BCFG", "TAF AMD ESPA 311909Z 3119/3123 33006KT 9999 BKN008 BECMG 3119/3121 NSC", "TAF ESSA 311730Z 3118/0118 24008KT 9999 FEW040 PROB40 3119/0109 0300 FG VV002 PROB40 0109/0112 BKN006", "TAF ESSB 311730Z 3118/3122 23005KT 9999 FEW035 PROB40 3119/3122 2000 BCFG", "TAF AMD ESSV 311852Z 3118/3121 19006KT 5000 SCT025 TEMPO 3118/3121 0200 FG VV002", "TAF ESTA 311708Z 3118/3124 VRB03KT 1200 BR BKN018 TEMPO 3118/3124 6000 NSW BKN003", "TAF ESTL 311405Z 3115/3122 VRB02KT 7000 BKN008 TEMPO 3115/3118 4000 BR BKN015 TEMPO 3118/3122 2000 BR BKN004", "TAF ETAD 311300Z 3113/0119 12006KT 9999 BKN100 QNH2997INS BECMG 3117/3118 19006KT 9999 BKN090 QNH2991INS BECMG 0100/0101 21010G15KT 6000 -SHRA BKN015 QNH2988INS BECMG 0102/0103 24012KT 9999 NSW BKN005 QNH2988INS BECMG 0108/0109 24015G25KT 9999 SCT018 QNH3004INS BECMG 0114/0115 24012KT 9999 BKN020 QNH3005INS TX18/3113Z TN09/0106Z", "TAF ETAR 311800Z 3118/0124 VRB06KT 9999 BKN100 QNH3000INS BECMG 3123/3124 20012KT 9999 BKN025 QNH2998INS BECMG 0102/0103 21010G20KT 8000 -SHRA BKN010 510004 QNH2997INS BECMG 0104/0105 23015G25KT 9999 NSW BKN015 510004 QNH2996INS BECMG 0110/0111 23015G25KT 9999 SCT025 510004 QNH3011INS BECMG 0114/0115 21012KT 9999 SCT040 QNH3012INS TX14/0114Z TN09/3121Z", "TAF ETEB 311500Z 3115/0121 11006KT 9999 SCT150 BKN200 QNH2999INS BECMG 3120/3121 18006KT 8000 BR FEW005 SCT150 QNH2997INS BECMG 0104/0105 22006KT 4400 BR SCT020 BKN050 QNH2998INS BECMG 0110/0111 26010G15KT 9999 NSW SCT010 BKN020 QNH3008INS BECMG 0116/0117 24009KT 9999 SCT020 QNH3012INS TX17/0110Z TN10/0103Z LAST NO AMDS AFT 3122 NEXT 0107", "TAF ETHF 311420Z 3115/3124 14005KT 9999 NSW SCT030 BKN120", "TAF AMD ETIK 311915Z 3119/0120 VRB06KT 0400 FG SCT040 SCT100 QNH3001INS BECMG 0105/0106 VRB06KT 3200 BR SCT025 BKN120 QNH3005INS BECMG 0109/0110 08009KT 9999 NSW BKN020 OVC030 QNH3006INS BECMG 0116/0117 VRB06KT 9999 SCT060 QNH3004INS TX16/0112Z TN07/0104Z", "TAF ETNG 311700Z 3118/0109 11007KT CAVOK BECMG 3118/3120 18007KT BECMG 3122/0101 18012G24KT PROB40 TEMPO 0100/0103 RA TEMPO 0103/0109 22015G30KT BKN030", "TAF ETNL 311701Z 3118/0106 07004KT 1500 BR BKN001 BKN150 BECMG 3118/3120 09005KT 0300 FG VV001 BKN120 PROB30 3121/0106 10006KT 2000 BR OVC003 BY ETGL", "TAF ETNW 311712Z 3118/0118 11006KT 9999 NSW BKN140 BECMG 0106/0108 21010G20KT 9999 NSW SCT030 SCT240 TEMPO 0108/0113 24015G30KT 9999 NSW BKN030 BY ETGL", "TAF ETOU 311200Z 3112/0118 VRB06KT 9999 BKN120 QNH3001INS BECMG 3119/3120 VRB06KT 8000 BR SCT040 QNH2995INS BECMG 0102/0103 19006KT 9999 NSW SCT015 BKN025 QNH2993INS BECMG 0104/0105 20009KT 8000 -SHRA BKN012 QNH2994INS BECMG 0107/0108 23012G18KT 9999 NSW SCT015 BKN020 QNH2998INS TX17/3114Z TN10/0104Z", "TAF ETSN 311700Z 3118/0103 09002KT 0300 FG VV001 SCT150 BY ETGL", "TAF EVGA 311712Z 3118/0118 18005KT CAVOK TEMPO 3118/3121 2000 BR TEMPO 3121/0101 BKN015CB BKN020 BECMG 0103/0104 OVC012 TEMPO 0104/0112 BKN007 TEMPO 0115/0118 0700 FG BKN001", "TAF EVLA 311714Z 3118/0118 15007KT 9999 BKN015 TEMPO 3118/3120 BKN012 TEMPO 3120/3124 2000 BR BKN002 TEMPO 0100/0108 0600 FG BKN001", "TAF EVRA 311710Z 3118/0118 18005KT CAVOK TEMPO 3118/0100 SCT030CB BKN040 BECMG 0100/0102 BKN012 TEMPO 0102/0109 3000 BR BKN004 BECMG 0109/0111 BKN015 TEMPO 0115/0118 0700 FG BKN001", "TAF EYKA 311700Z 3118/0118 VRB04KT 6000 NSC TEMPO 3120/3123 3000 MIFG BR SCT005 BECMG 3123/0101 3000 BR BKN005 TEMPO 0103/0106 0500 FG VV002 BECMG 0106/0107 OVC005 TEMPO 0107/0118 0500 FG VV002", "TAF AMD EYPA 311940Z 3119/0118 VRB05KT 5000 BR OVC005 TEMPO 3120/3124 1500 OVC002 TEMPO 0100/0109 0500 FG VV002 TEMPO 0112/0118 BKN005", "TAF EYSA 311700Z 3118/0103 19004KT 6000 SCT015 BECMG 3119/3121 OVC015 BECMG 0100/0101 OVC010", "TAF EYVI 311700Z 3118/0118 VRB04KT 6000 NSC TEMPO 3120/0106 1500 MIFG BR SCT002 PROB40 TEMPO 3120/0106 0500 FG BECMG 0106/0107 OVC010 TEMPO 0108/0114 OVC005 BECMG 0114/0116 3000 BR OVC005", "TAF FABL 311600Z 3118/0118 VRB03KT CAVOK TX25/0112Z TN13/0104Z BECMG 0106/0108 BKN020 TEMPO 0109/0118 5000 SHRA BKN010 SCT035TCU", "TAF FACT 311600Z 3118/0124 17015KT CAVOK TX29/0112Z TN13/0104Z BECMG 3120/3122 20005KT BECMG 0108/0110 17018KT BECMG 0118/0120 20008KT", "TAF FAGG 311600Z 3118/0118 11015KT 9999 FEW045 TX21/0112Z TN12/0104Z BECMG 0108/0110 12025KT PROB30 TEMPO 0115/0118 12025G35KT", "TAF FALA 311600Z 3118/0118 VRB03KT CAVOK TX23/0112Z TN16/0103Z BECMG 3120/3122 09010KT BKN014 PROB30 TEMPO 0100/0106 5000 BR BKN008 BECMG 0106/0108 02012KT BKN030 PROB30 TEMPO 0113/0118 -TSRA FEW045CB", "TAF FALE 311600Z 3118/0124 17010KT 9999 BKN020 OVC030 TX20/0112Z TN15/0103Z TEMPO 3118/3121 4000 -RA BKN005 BECMG 3121/3123 VRB03KT PROB30 TEMPO 3122/0110 5000 -RA SCT008 BKN010 FM011200 06006KT 9999 SCT025 BKN040", "TAF AMD FAOR 311754Z 3118/0124 08010KT 9999 BKN008 TX21/0112Z TN13/0103Z BECMG 3121/3123 VRB03KT PROB30 TEMPO 3122/0106 4500 BR BKN004 BECMG 0107/0109 01011KT BKN025 PROB30 TEMPO 0113/0118 5000 TSRA FEW040CB BECMG 0120/0122 BKN010", "TAF FAPE 311600Z 3118/0118 09010KT 9999 SCT015 BKN035 TX20/0110Z TN11/0102Z TEMPO 3118/0106 4000 -RA BKN013 BECMG 0106/0108 09018G28KT 9999 BKN030 BECMG 0114/0116 09025G35KT", "TAF FAPM 311800Z 3119/0106 14005KT 9999 BKN015 OVC030 TX13/0106Z TN10/0103Z TEMPO 3119/0106 3000 -RA BKN005", "TAF FAUP 311600Z 3118/0118 VRB03KT CAVOK TX34/0113Z TN19/0104Z", "TAF COR FBKE 311155Z 3112/3121 12008KT CAVOK BECMG 3114/3116 FEW035CB", "FBMN 311000Z 3112/0112 13010KT 9999 FEW035CB BKN060 PROB30 TEMPO 3112/3118 TSRA BECMG 3119/3121 CAVOK BECMG 0104/0106 04014KT", "FBPM 311600Z 3118/0118 11013KT 9999 SCT020 FEW035CB SCT065 BECMG 0100/0102 OVC012 PROB30 TEMPO 0103/0110 RA BECMG 0111/0113 BKN020", "TAF FBSK 311600Z 3118/0124 05007KT 9999 SCT025 FEW035CB BECMG 3121/31 23 CAVOK BECMG 0102/0104 OVC012 PROB30 TEMPO 0105/0110 RA BECMG 0111/ 0113 BKN020 FEW035CB", "TAF FCBB 311700Z 3118/0124 26004KT 8000 FEW020 FEW030CB TEMPO 3121/0101 TS BECMG 0101/0103 SCT018 PROB30 0117/0121 FEW020 FEW030CB", "TAF FCPP 311700Z 3118/0118 20005KT 9000 SCT018 FEW030CB TEMPO 3120/3023 TS BECMG 3123/0101 SCT015 BECMG 0112/0114 SCT020 FEW030CB", "TAF FEFF 311700Z 3118/0124 26004KT 8000 FEW010 FEW033CB PROB30 TEMPO 3119/3123 4000 TSRA BECMG 0100/0102 NSW BKN010 BECMG 0103/0105 4000 BR BKN006 FM010700 200004KT 9999 NSW SCT010 BECMG 0108/0110 BKN03 FEW033CB", "TAF FGBT 311700Z 3118/0118 24005KT 9999 SCT010 PROB40 TEMPO 0104/0108 4000 TSRA BKN008 FEW018CB PROB30 TEMPO 0114/0118 4000 TSRA BKN008 FEW018CB", "TAF FGSL 311700Z 3118/0124 25005KT 9999 SCT010 FEW020CB TEMPO 3120/3124 TS PROB40 TEMPO 0102/0106 4000 TSRA BKN008 FEW018CB", "TAF FIMP 311705Z 3118/0200 09010KT 9999 SCT017 TEMPO 3118/0103 7000 -SHRA FEW010 BKN015 PROB30 TEMPO 3118/0100 3000 SHRA FEW007 FEW013TCU BKN014", "TAF FIMR 311120Z 3112/0106 09018G30KT 9999 SCT018", "TAF FJDG 311700Z 3117/0123 VRB06KT 9999 FEW025 QNH2980INS TX30/0114Z TN26/0101Z FOR MIL USE ONLY", "TAF FKKD 311700Z 3118/0124 VRB03KT 9999 TS BKN013 FEW016CB BECMG 3118/3120 8000 NSW TEMPO 0105/0108 3000 BR BECMG 0108/0110 BKN016 FEW020CB", "TAF FKYS 311700Z 3118/0118 VRB04KT 9999 SCT016 BECMG 3120/3122 BKN006 BECMG 0108/0110 BKN016 TEMPO 0115/0118 TS BKN013 FEW016CB", "TAF FMCH 311100Z 3112/0118 12018KT 9999 FEW020 BECMG 3115/3117 10004KT BECMG 0104/0106 13015KT", "TAF FMCZ 311700Z 3118/0118 03006KT 9999 FEW023", "TAF FMEE 311700Z 3118/0124 12010KT 9999 SCT020 TEMPO 3118/3121 4500 SHRA SCT020TCU PROB30 TEMPO 0104/0110 4500 SHRA", "TAF FMEP 311100Z 3112/3121 26012KT 9999 FEW040 BECMG 3113/3115 06006KT", "TAF FMMI 311700Z 3118/0124 08003KT 9999 FEW017CB BECMG 3119/3122 FEW010 BKN020 PROB40 0100/0105 3000 BR BKN006 BECMG 0105/0107 12013KT BECMG 0113/0115 SCT023CB BECMG 0119/0121 FEW017 BKN020", "TAF FMMS 311700Z 3118/0118 15006KT 9999 SCT017TCU SCT033 PROB30 TEMPO 0100/0109 4000 SHRA", "TAF FMMT 311700Z 3118/0118 08010KT 9999 SCT017TCU SCT033 BECMG 3119/3121 24004KT PROB40 TEMPO 3121/0107 4000 SHRA BECMG 0107/0109 10010KT", "TAF FMNA 311700Z 3118/0118 14012KT 9999 FEW020", "TAF FMNM 311700Z 3118/0118 34012KT 9999 FEW020 BECMG 3119/3122 12006KT BECMG 0110/0112 34011KT", "TAF FMNN 311700Z 3118/0118 VRB05KT 9999 SCT020 PROB30 TEMPO 3121/0109 4000 SHRA", "TAF FMSD 311700Z 3118/0118 06020KT 9999 FEW020CB BECMG 3122/3124 08010KT BECMG 0107/0109 06020G30KT", "TAF FMST 311700Z 3118/0118 VRB05KT 9999 FEW023 BECMG 0107/0109 26015KT BECMG 0110/0112 SCT023CB", "TAF FNBG 311100Z 3112/3124 31008KT 9999 SCT020", "TAF FNCA 311100Z 3112/3124 18008KT 8000 SCT012 BKN020 TEMPO 3112/3116 TS FEW023CB", "TAF FNCT 311100Z 3112/3124 32010KT 9999 SCT018 BECMG 3117/3119 21006KT", "TAF FNDU 311100Z 3112/3124 03005KT 9999 FEW010 SCT020 PROB30 TEMPO 3115/3121 5000 -TSRA FEW028CB", "TAF FNGI 311100Z 3112/3124 22006KT 9999 FEW020 FEW023TCU", "TAF FNHU 311100Z 3112/3124 16007KT 9999 FEW018 TEMPO 3113/3119 31010KT 3000 TSRA BKN014 FEW018CB", "TAF FNKU 311100Z 3112/3124 13005KT 9999 SCT023 PROB30 TEMPO 3113/3118 4000 -TSRA", "TAF FNLU 311700Z 3118/0124 21006KT 9999 FEW022 TEMPO 0103/0107 BKN014 BECMG 0110/0112 27010KT", "TAF FNMA 311100Z 3112/3124 26008KT 7000 SCT015 TEMPO 3114/3118 TS FEW018CB", "TAF FNME 311100Z 3112/3124 08008KT 9999 SCT020 TEMPO 3113/3117 FEW023CB", "TAF FNMO 311100Z 3112/3124 28012KT 9999 SCT020", "TAF FNSA 311100Z 3112/3124 27007KT 9999 FEW018 PROB30 TEMPO 3114/3119 5000 -TSRA SCT022 FEW026CB", "TAF FNSO 311100Z 3112/3124 25010KT 9000 SCT012 BKN040 TEMPO 3113/3117 FEW018CB", "TAF FNUB 311100Z 3112/3124 25008KT 9999 SCT020 PROB30 TEMPO 3113/3117 4000 -TSRA FEW023CB", "TAF FNUE 311100Z 3112/3124 27008KT 9999 FEW020 PROB30 TEMPO 3113/3117 TS FEW025CB", "TAF FOOG 311700Z 3118/0118 22010KT 9999 SCT012 FEW020CB BKN026 TEMPO 0100/0103 4000 TSRA BKN008 FEW020CB OVC026 TEMPO 0112/0116 TS BKN010 FEW020CB", "TAF FOOL 311700Z 3118/0124 24006KT 9999 TS SCT012 FEW020CB TEMPO 0102/0106 4000 TSRA BKN008 FEW020CB OVC026 BECMG 0107/0109 NSW TEMPO 0115/0120 TS BKN010 FEW020CB", "TAF FSIA 311702Z 3118/0118 13012KT 9999 SCT022", "TAF FTTJ 311700Z 3118/0124 30006KT 7000 NSC TEMPO 0102/0107 3500 DU TEMPO 0107/0112 04016KT 4000 SA", "TAF FWCL 310900Z 3112/0118 05012KT 9999 FEW030 BECMG 3112/3114 11004KT 9999 SCT035 BECMG 3115/3117 09006KT 9999 FEW035 FM311800 10008KT CAVOK BECMG 0106/0108 06008KT 9999 BKN025 PROB30 TEMPO 0109/0113 12007KT 8000 -TSRA FEW030CB BKN080 FM011400 17010KT 9999 FEW035CB BKN080", "TAF FWKI 311400Z 3118/0124 09011KT CAVOK BECMG 0106/0108 9999 FEW030 FM011300 07010KT CAVOK", "TAF FYGF 311700Z 3118/0103 05004KT 9999 SCT040 BECMG 3120/3122 00000KT NSC", "TAF FYKM 311700Z 3118/0103 16005KT 9999 FEW030CB BECMG 3120/3122 00000KT SCT025", "TAF FYLZ 311700Z 3118/0103 21015KT CAVOK", "TAF FYOA 311700Z 3118/0103 22005KT CAVOK", "TAF FYRU 311700Z 3118/0103 06006KT 9999 FEW040CB", "TAF FYWB 311600Z 3118/0118 26010KT CAVOK BECMG 3119/3121 05005KT 9999 BKN012", "TAF FYWE 311700Z 3118/0103 00000KT CAVOK", "TAF FYWH 311600Z 3118/0118 13006KT CAVOK BECMG 3120/3122 26005KT", "TAF GABS 311700Z 3118/0124 06008G18KT 8000 NSC PROB40 TEMPO 3118/3123 4500 HZ PROB40 TEMPO 0106/0110 4000 HZ", "TAF GAGO 311700Z 3118/0118 02010G20KT 8000 NSC PROB30 TEMPO 3118/3123 4500 DU TEMPO 0108/0114 06016G26KT 4000 BLDU", "TAF GBYD 311700Z 3118/0124 VRB03KT 9999 SCT013", "TAF GCFV 311400Z 3115/0115 04009KT CAVOK TX25/0114Z TN19/0106Z", "TAF GCGM 311400Z 3115/0115 22005KT CAVOK TX27/0114Z TN19/0106Z", "TAF AMD GCHI 311701Z 3117/0115 02012KT 9999 FEW015 TX25/0114Z TN21/0106Z", "TAF GCLA 311400Z 3115/0115 02006KT 9999 FEW020 TX26/0114Z TN22/0106Z BECMG 3117/3119 32010KT TEMPO 0110/0115 02006KT", "TAF GCLP 311400Z 3115/0115 02018KT 9999 FEW020 TX26/0114Z TN20/0106Z PROB30 TEMPO 0112/0115 02015G25KT", "TAF GCRR 311400Z 3115/0115 36008KT CAVOK TX28/0114Z TN19/0106Z TEMPO 3115/3119 06010KT BECMG 0111/0113 06012KT", "TAF GCTS 311400Z 3115/0115 08013KT 9999 FEW020 TX28/0114Z TN19/0106Z PROB30 TEMPO 3115/3119 VRB05KT BECMG 3118/3120 02010KT BECMG 0109/0111 08012KT", "TAF GCXO 311400Z 3115/0115 31010KT 9999 FEW003 TX24/0114Z TN16/0106Z TEMPO 3115/3119 13006KT BECMG 0108/0110 13008KT", "TAF GECE 311400Z 3115/0115 VRB03KT 9999 FEW020 TX25/0114Z TN18/0105Z", "TAF GEML 311700Z 3118/0118 27006KT CAVOK TX26/0114Z TN19/0106Z PROB30 TEMPO 3118/0108 4000 BR BKN010", "TAF GGOV 311700Z 3118/0118 VRB05KT 8000 FEW012 TEMPO 0104/0108 1200 BR BKN006", "TAF GMAD 311700Z 3118/0124 06008KT CAVOK", "TAF GMAG 311700Z 3118/0124 32011KT 8000 NSC", "TAF GMFF 311700Z 3118/0124 30008KT CAVOK", "TAF GMFK 311700Z 3118/0124 18006KT CAVOK TEMPO 0113/0124 8000 BKN040", "TAF GMFM 311700Z 3118/0124 33008KT CAVOK", "TAF GMFO 311700Z 3118/0124 06006KT CAVOK BECMG 0109/0111 20012KT 9999 FEW050 BKN200", "TAF GMME 311700Z 3118/0124 32005KT 5000 SCT013 BKN100 PROB30 TEMPO 3122/0107 VRB02KT 4000 BR BKN010 BECMG 0108/0112 NSC", "TAF GMMH 311700Z 3118/0124 36007KT 8000 NSC", "TAF GMMI 311700Z 3118/0124 32004KT 8000 NSC", "TAF GMML 311700Z 3118/0124 36011KT 8000 NSC PROB30 0102/0108 4000 BR BKN013", "TAF GMMN 311700Z 3118/0124 02005KT CAVOK PROB30 TEMPO 0103/0107 4000 BR SCT004 BKN090 TEMPO 0111/0118 36012KT", "TAF GMMW 311700Z 3118/0124 03005KT 6000 NSC PROB30 0100/0106 4000 BR BKN008", "TAF GMMX 311700Z 3118/0124 24006KT 8000 NSC TEMPO 3118/3123 32016KT SCT100", "TAF GMMZ 311700Z 3118/0124 VRB02KT CAVOK TEMPO 0115/0121 20012KT", "TAF GMTA 311700Z 3118/0124 VRB02KT 8000 FEW020 BKN200 BECMG 3118/3120 SCT030 PROB30 0102/0106 4000 BR BKN010", "TAF GMTT 311700Z 3118/0124 VRB02KT 6000 NSC PROB40 0100/0108 2000 BR", "TAF GOBD 311700Z 3118/0124 02010KT 7000 NSC", "TAF GOGS 311700Z 3118/0118 32008KT CAVOK", "TAF GOOY 311700Z 3118/0124 02008KT 7000 NSC", "TAF GOSS 311700Z 3118/0118 06010KT 7000 NSC", "TAF GQNO 311700Z 3118/0124 07010KT 7000 NSC", "TAF GQPP 311700Z 3118/0118 36010KT 7000 NSC", "TAF GVAC 311700Z 3118/0124 06016KT 8000 FEW013", "TAF GVBA 311100Z 3112/0118 06012KT 9000 FEW014", "TAF GVNP 311700Z 3118/0124 05014KT 8000 NSC", "TAF GVSV 311700Z 3118/0124 05018KT 8000 FEW018", "TAF HAAB 310930Z 3112/0118 VRB10KT 9999 FEW060", "TAF HADR 301530Z 3018/3124 18005KT CAVOK", "TAF HBBA 311700Z 3118/0124 36004KT 9999 FEW030 SCT100 BECMG 0107/0109 18008G20KT PROB030 TEMPO 0113/0118 09012G25KT 7000 TSRA OR SHRAFEW025CB SCT030 BKN100 BECMG 0119/0121 VRB03KT 9999 FEW025 SCT100", "TAF HCMM 311100Z 3112/0118 13010KT 9999 SCT024 BECMG 3118/3122 12005KT BKN019 BECMG 0106/0109 14010KT 9999 SCT023", "TAF HDAM 311700Z 3118/0118 VRB05KT 9999 SCT023 SCT133 FEW266 BECMG 0100/0106 12010KT 9999 SCT023 FEW133 BECMG 0106/0112 10012KT SCT023 FEW133", "TAF HEAL 311700Z 3118/0124 32012KT 9999 SCT020 TEMPO 3118/0110 7000 -RA BKN020 PROB40 TEMPO 3122/0103 6000 TSRA FEW017CB", "TAF HEAR 311700Z 3118/0124 32010KT 9999 SCT025", "TAF HEAT 311700Z 3118/0124 35014KT CAVOK", "TAF HEAX 311700Z 3118/0124 31010KT 9999 SCT020 TEMPO 3120/0112 8000 -RA BKN020 PROB30 TEMPO 0103/0107 6000 TSRA FEW017CB", "TAF HEBA 311700Z 3118/0124 31011KT 9999 SCT020 TEMPO 3120/0112 8000 -RA BKN020 PROB30 TEMPO 0103/0107 6000 TSRA FEW017CB", "TAF HEBL 311700Z 3118/0124 32010KT CAVOK", "TAF HECA 311700Z 3118/0124 36009KT 9999 SCT025 TEMPO VRB03KT 0100/0106 6000 NSC", "TAF HEGN 311700Z 3118/0124 31008G20KT CAVOK", "TAF HELX 311700Z 3118/0124 36012KT CAVOK", "TAF HEMA 311700Z 3118/0124 30015KT CAVOK", "TAF HEMM 311700Z 3118/0124 32012KT 9999 SCT020 TEMPO 3118/0110 7000 -RA BKN020 PROB40 TEMPO 3122/0103 6000 TSRA FEW017CB", "TAF HEOW 311700Z 3118/0124 34015KT CAVOK", "TAF HEPS 311700Z 3118/0124 30009KT 9999 SCT020", "TAF HESC 311700Z 3118/0124 30010KT 9999 SCT025", "TAF HESG 311700Z 3118/0124 34012KT CAVOK", "TAF HESH 311700Z 3118/0124 01012KT CAVOK", "TAF HESN 311700Z 3118/0124 33010KT CAVOK", "TAF HETB 311700Z 3118/0124 35014KT CAVOK", "TAF HETR 311700Z 3118/0124 30012G22KT CAVOK", "TAF HKEL 311700Z 3118/0124 20003KT 9999 FEW018CB SCT019 BECMG 3120/3123 CAVOK BECMG 0106/0109 18010KT 9999 FEW024CB SCT025 PROB30 TEMPO 0113/0117 -TSRA FEW020CB SCT021 BKN080 BECMG 0120/0123 CAVOK", "TAF HKJK 311700Z 3118/0124 07015KT 9999 FEW025 BECMG 3120/3123 CAVOK BECMG 0103/0106 9999 BKN018 BECMG 0108/0111 FEW025CB SCT026 PROB30 TEMPO 0113/0117 -SHRA FEW020CB SCT021 BKN080 BECMG 0120/0123 CAVOK", "TAF HKKI 311700Z 3118/0124 VRB02KT 9999 FEW020CB SCT021 BECMG 3120/3123 CAVOK BECMG 0106/0110 36010KT 9999 FEW026CB SCT027 PROB40 TEMPO 0113/0117 -TSRA FEW022CB SCT023 BKN080 BECMG 0120/0123 CAVOK", "TAF HKML 311700Z 3118/0118 15010KT 9999 SCT020 TEMPO 0100/0104 00000KT -RA SCT019 BKN080 BECMG 0109/0112 14010KT NSW SCT022", "TAF HKMO 311700Z 3118/0124 13005KT 9999 BKN022 TEMPO 0100/0104 24005KT -SHRA FEW019CB BKN020 OVC080 BECMG 0109/0112 12010KT NSW SCT025", "TAF HKNW 311100Z 3111/0111 06010KT 9999 BKN026 BECMG 3120/3123 CAVOK BECMG 0102/0105 9999 BKN017 BECMG 0107/0110 SCT025", "TAF HLGD 311700Z 3118/0118 VRB02KT 8000 SCT025", "TAF HLGT 311700Z 3118/0118 VRB02KT 8000 NSC", "TAF HLKF 311700Z 3118/0118 36008KT CAVOK BECMG0100/0102 VRB02KT BECMG0112/0114 36010KT", "TAF COR HLLB 311700Z 3118/0118 VRB02KT 8000 SCT025 BKN080 BECMG0112/0114 36010KT", "TAF HLLM 311700Z 3118/0118 VRB02KT 8000 SCT025 BECMG0112/0114 03010KT", "TAF HLLQ 311700Z 3118/0118 VRB02KT 8000 SCT020", "TAF HLLS 311700Z 3118/0118 36010KT 8000 NSC BECMG 0100/0102 VRB02KT ", "TAF HLMS 311700Z 3118/0118 VRB02KT 8000 SCT025 BECMG0112/0114 36010KT", "TAF HLON 311700Z 3118/0118 VRB02KT 8000 NSC", "TAF HLTD 311700Z 3118/0118 36008KT 8000 NSC BECMG0106/0108 VRB02KT", "TAF HLTQ 311700Z 3118/0118 34012KT 8000 SCT025", "TAF HLUB 311700Z 3118/0118 36010KT 8000 NSC BECMG 0100/0102 VRB02KT", "HRYR 311700Z 3118/0124 02008KT 9999 SCT026 BECMG 3119/3123 34005KT BECMG 0106/0109 02008KT BKN023 BECMG 0111/0114 08015G25KT TSRA FEW020CB BKN025 BECMG 0119/0122 27007KT NSW SCT026 SCT100", "TAF HRZA 311100Z 3112/0118 20005KT 9999 FEW023CB SCT025 BECMG 3114/3116 24006KT -TSRA FEW023CB BKN025 BECMG 3121/3123 32005KT BKN025 FM 010200 00000KT 9000 SCT025 TEMPO 0108/0110 24004KT 9999 RA BECMG 0113/0115 18006KT -TSRA FEW023CB BKN025", "TAF HSSJ 311000Z 3112/0118 09005KT 9999 SCT040 BKN120 PROB30 TEMPO 3115/3121 VRB05G15KT 6000 -TSRA FEW030CB BKN090", "TAF HSSK 311100Z 3112/0118 02013G23KT CAVOK", "HTAR 311700Z 3118/0118 11010KT 9999 FEW028", "TAF HTDA 311700Z 3118/0124 12005KT 9999 SCT015 BECMG 0107/0110 09010KT SCT033", "HTDO 311700Z 3118/0118 09018KT 040V130 9999 FEW025", "HTKA 311100Z 3112/0112 00000KT 9999 FEW020 FEW021CB TEMPO 3112/3115 30010KT", "TAF HTKJ 311700Z 3118/0118 09015KT 9999 SCT028 BECMG 3123/0102 09005KT BKN024", "HTMW 311700Z 3118/0118 30010KT 9999 FEW022 FEW023CB BECMG 0106/0108 10010KT", "HTTB 311700Z 3118/0118 09010KT 9999 FEW025", "HTZA 311700Z 3118/0118 00000KT 9999 SCT014 BECMG 0103/0105 15010KT", "TAF HUEN 311700Z 3118/0124 34006KT 9999 FEW026 FM010800 18006KT FEW024 FEW026CB", "TAF HUSO 311100Z 3112/0112 16007KT 9999 SCT021 FEW023CB FM 311400 05006KT TS SCT020 FEW0222CB BECMG 0101/0106 36004KT CAVOK BECMG 0108/0112 07007KT SCT021 FEW023CB", "KABE 311728Z 3118/0118 VRB02KT P6SM OVC025 FM010100 VRB02KT 3SM -SHRA BR OVC015 FM010500 VRB02KT 3SM -SHRA BR OVC008 FM010800 VRB02KT 3SM BR OVC005 FM011400 VRB02KT 5SM BR OVC008 FM011600 VRB02KT P6SM OVC015", "KABI 311738Z 3118/0118 VRB05KT P6SM BKN250", "KABQ 311727Z 3118/0118 VRB05KT P6SM SKC", "KABR 311724Z 3118/0118 21007KT P6SM SCT250 FM010000 VRB05KT P6SM SKC FM011600 17007KT P6SM SKC", "KABY 311733Z 3118/0118 25006KT P6SM BKN025 FM311900 26005KT P6SM BKN050 FM010800 34002KT 6SM BR SCT250 FM011300 36003KT P6SM SCT250", "KACK 311720Z 3118/0118 13004KT P6SM BKN040 FM312100 18006KT P6SM BKN008 FM010500 22008KT P6SM VCSH BKN015 FM010700 23008KT P6SM VCSH OVC030 FM011100 24007KT P6SM VCSH OVC015 FM011500 23009KT 4SM BR VCSH OVC008", "KACT 311728Z 3118/0118 13004KT P6SM SCT250 FM010400 17006KT P6SM SCT190 BKN250", "KACV 311854Z 3119/0118 31005KT 6SM HZ SCT012 BKN025 BKN250 TEMPO 3119/3123 3SM HZ SCT025 BKN250 FM010600 15005KT 6SM -RA BR SCT007 BKN025 FM011200 17007KT 2SM -RA BR OVC015 WS020/36032KT FM011600 33009KT 4SM -SHRA BR BKN030 OVC050", "KACY 311728Z 3118/0118 23005KT P6SM SCT025 FM010400 VRB02KT 3SM -SHRA BR OVC015 FM010800 VRB02KT 3SM -SHRA BR OVC008 FM011100 VRB02KT 2SM SHRA BR OVC005", "KADF 311720Z 3118/0118 VRB06KT P6SM FEW250 FM312300 VRB03KT P6SM FEW250 AMD NOT SKED", "TAF KADW 311700Z 3117/0123 21012KT 9000 -SHRA FEW025 SCT060 BKN200 QNH3002INS BECMG 3123/0100 20006KT 4800 -SHRA OVC007 QNH3002INS BECMG 0107/0108 19007KT 6000 -SHRA OVC005 QNH3002INS TEMPO 0112/0114 OVC002 BECMG 0116/0117 28010G15KT 9999 NSW FEW050 FEW080 QNH3007INS TX19/3119Z TN14/0110Z", "KAEG 311727Z 3118/0118 VRB05KT P6SM SKC", "KAEX 311727Z 3118/0118 VRB04KT P6SM SCT040 SCT150 FM010000 00000KT P6SM SCT150 FM011400 11005KT P6SM OVC150", "TAF KAFF 311900Z 3119/0201 16012KT 9999 SKC QNH2997INS BECMG 3120/3121 16010G18KT 9999 SKC QNH2995INS BECMG 3123/3124 16009KT 9999 FEW200 QNH2998INS WND 34009KT AFT 0104 BECMG 0109/0110 34009KT 9999 FEW200 520006 QNH3007INS WND 240V030 ROTOR CONDS EXIST BECMG 0116/0117 16012KT 9999 FEW200 510006 QNH3000INS BECMG 0118/0119 16012G18KT 9999 SCT200 520309 QNH2995INS BECMG 0121/0122 18012G22KT 9999 SCT200 530006 QNH2994INS WND 140V240 TX17/3121Z TNM01/0113Z LAST NO AMDS AFT 0100 NEXT 0111", "KAFW 311728Z 3118/0118 14005KT P6SM SCT250 FM010600 15007KT P6SM SCT190 BKN250", "KAGC 311732Z 3118/0118 20005KT P6SM OVC009 FM311900 20005KT P6SM OVC013 FM312100 19005KT P6SM OVC021 FM010100 19003KT P6SM BKN035 FM010500 21003KT P6SM OVC017 FM010800 22004KT P6SM VCSH BKN022", "KAGS 311933Z 3120/0118 22007KT P6SM VCSH SCT015 BKN050 TEMPO 3122/0101 5SM -SHRA BKN025 FM010600 00000KT 3SM BR OVC005 FM011100 VRB03KT 3/4SM BR VV003 FM011500 31005KT P6SM SCT250", "KAHN 311736Z 3118/0118 VRB04KT 4SM BR VCSH OVC004 FM312100 VRB03KT P6SM BKN006 BKN009 FM010100 VRB03KT P6SM BKN015 FM010400 VRB03KT 6SM BR BKN040 FM010800 00000KT 2SM BR OVC004", "KAIA 311737Z 3118/0118 27012G18KT P6SM SKC FM010000 23006KT P6SM SKC", "KALB 311730Z 3118/0118 18006KT P6SM BKN150 BKN250 FM312200 17005KT P6SM BKN100 FM010200 16005KT P6SM BKN050 FM010600 16004KT P6SM VCSH BKN035 PROB30 0112/0118 4SM -SHRA BR BKN020", "KALI 311739Z 3118/0118 11010KT P6SM BKN060 BKN100 FM010000 09007KT P6SM VCSH OVC050 FM010500 09006KT P6SM -RA SCT025 OVC050 TEMPO 0108/0112 4SM -TSRA BKN020CB FM011400 04009KT 2SM -RA BR BKN009 PROB30 0114/0118 -TSRA OVC006CB", "KALO 311721Z 3118/0118 30004KT P6SM SKC FM011600 18010KT P6SM SKC", "KALS 311720Z 3118/0118 VRB05KT P6SM FEW200 FM312000 20007KT P6SM FEW200 FM010200 VRB03KT P6SM FEW200", "KALW 311720Z 3118/0118 15007KT P6SM OVC060 FM010200 20009KT P6SM -RA OVC050 TEMPO 0103/0104 6SM -RA OVC025 FM011100 20008KT P6SM -RA OVC015", "KAMA 311720Z 3118/0118 20011G21KT P6SM SKC FM010000 21011KT P6SM SKC FM011500 20015G25KT P6SM SKC", "KANB 311720Z 3118/0118 25006KT P6SM SCT035 FM312300 VRB03KT P6SM BKN030 FM010000 00000KT P6SM SCT035 FM010800 00000KT 4SM BR SCT035 FM011000 00000KT 1SM BR BKN035 FM011300 00000KT 4SM BR BKN040 FM011400 36004KT P6SM SCT050", "KAND 311738Z 3118/0118 14005KT P6SM VCSH BKN003 BKN013 FM312100 35004KT 6SM BR VCSH BKN013 FM010400 VRB02KT 1SM BR OVC002 FM010800 VRB02KT 1/2SM FG BKN003 FM011400 29003KT P6SM SCT250", "KAOO 311744Z 3118/0118 23004KT P6SM VCSH BKN015 BKN025 OVC100 FM312000 17006KT P6SM VCSH OVC035 FM010500 19005KT 5SM -SHRA BR OVC025 FM010900 21005KT 5SM BR OVC018", "KAPA 311725Z 3118/0118 VRB05KT P6SM FEW220 FM312100 07006KT P6SM FEW220 FM010200 15010KT P6SM FEW220 FM010400 19009KT P6SM FEW220", "KAPC 311732Z 3118/0118 VRB05KT 6SM BR SCT010 FM312000 20010KT P6SM BKN250 FM010600 VRB05KT P6SM SCT012 BKN250 FM011000 20008KT P6SM VCSH BKN010 FM011700 23011KT 5SM -RA BR OVC025", "KAPF 311720Z 3118/0118 22008KT P6SM SCT040 SCT100 FM312100 28007KT P6SM SCT040 BKN100 FM010100 VRB03KT P6SM FEW040 SCT250 FM011500 12008KT P6SM SCT030 SCT100", "KAPN 311733Z 3118/0118 VRB03KT P6SM BKN110 FM312000 16004KT P6SM SCT110 FM010400 00000KT P6SM FEW250 FM010900 00000KT 6SM BR FEW250 FM011300 19004KT P6SM FEW250", "KARA 311727Z 3118/0118 VRB05KT P6SM SCT040 SCT150 FM010000 00000KT P6SM SCT150 FM010700 00000KT 4SM BR SCT150 FM011400 09005KT P6SM OVC150", "KART 311720Z 3118/0118 21008KT P6SM VCSH OVC120 TEMPO 3119/3121 5SM -SHRA BR OVC050 FM010400 19007KT P6SM OVC020 FM010700 20007KT P6SM OVC015 FM011400 20007KT P6SM VCSH OVC015", "KASD 311720Z 3118/0118 VRB04KT P6SM BKN250", "KASE 311720Z 3118/0118 VRB04KT P6SM SKC FM312100 34006KT P6SM SKC FM010100 20007KT P6SM SKC FM010900 VRB04KT P6SM SKC", "KASN 311848Z 3119/0118 VRB03KT P6SM BKN030 FM010000 00000KT P6SM SCT035 FM010800 00000KT 4SM BR SCT035 FM011000 00000KT 1SM BR BKN035 FM011300 00000KT 4SM BR BKN040 FM011400 36004KT P6SM SCT050", "KAST 311743Z 3118/0118 25010KT 5SM BR VCSH SCT025 OVC040 FM312200 30008KT P6SM -SHRA SCT025 BKN040 FM010700 VRB03KT P6SM VCSH SCT030 BKN120", "KATL 311939Z 3120/0124 25007KT P6SM SCT035 SCT050 FM010500 30003KT P6SM SCT012 SCT200 TEMPO 0109/0113 5SM BR BKN008 FM011400 31004KT P6SM SCT012 SCT250 FM011700 32007KT P6SM SCT200", "KATW 311734Z 3118/0118 24004KT P6SM SCT250 FM011500 23007KT P6SM SCT250", "KATY 311724Z 3118/0118 17007KT P6SM SCT250 FM010000 VRB05KT P6SM SKC FM011600 17009KT P6SM SKC", "KAUG 311725Z 3118/0118 18005KT P6SM BKN250 FM011200 33003KT P6SM BKN050", "KAUS 311720Z 3118/0124 VRB05KT P6SM FEW200 SCT300 FM010600 VRB04KT P6SM -SHRA VCTS OVC080CB FM011500 11006KT P6SM SCT025", "KAUW 311734Z 3118/0118 25003KT P6SM SKC TEMPO 0110/0113 4SM BR FM011500 22006KT P6SM SCT250", "KAVL 311857Z 3119/0118 16005KT P6SM SCT011 BKN035 TEMPO 3119/3121 BKN011 OVC035 FM010100 VRB02KT 6SM BR BKN018 FM010900 33004KT 2SM BR BKN025 FM011400 34007KT P6SM SCT035", "KAVP 311730Z 3118/0118 VRB04KT P6SM OVC100 FM010000 VRB03KT P6SM -SHRA BKN035 FM010200 VRB03KT P6SM -DZ OVC020 FM010700 VRB03KT 4SM -DZ BR BKN008 FM011500 25005KT P6SM BKN015", "KAXN 311720Z 3118/0118 21009KT P6SM SCT250 FM011500 19007KT P6SM BKN250", "KAZO 311725Z 3118/0118 VRB03KT 5SM -DZ BR OVC005 TEMPO 3118/3122 2SM SHRA BR OVC015 FM010400 25003KT 1 1/2SM -DZ BR OVC003 FM011500 24005KT 4SM BR BKN009 FM011600 26006KT P6SM FEW250", "TAF KBAB 311900Z 3119/0201 VRB03KT 9999 BKN250 QNH2980INS BECMG 0102/0103 13006KT 9999 SCT200 QNH2978INS BECMG 0108/0109 14012KT 9999 BKN050 QNH2976INS BECMG 0111/0112 15010G15KT 9999 BKN020 OVC050 QNH2976INS BECMG 0114/0115 16015G25KT 6000 -SHRA OVC015 QNH2995INS BECMG 0117/0118 16010G20KT 4800 -RA BR OVC010 620809 QNH2973INS TEMPO 0118/0121 17015G25KT 3200 RA BR OVC005 620709 BECMG 0200/0201 17010G15KT 8000 -RA OVC020 QNH2973INS TX22/3123Z TN09/0113Z", "TAF KBAD 311206Z 3112/0118 21005KT 9999 BKN250 QNH2997INS TEMPO 3112/3114 3200 BR TX22/3120Z TN10/3112Z", "KBAF 311720Z 3118/0118 21007KT P6SM FEW045 FM010700 18003KT P6SM VCSH OVC050 FM011200 00000KT 5SM BR VCSH OVC020 FM011600 20003KT P6SM BKN030", "KBAM 311733Z 3118/0118 VRB06KT P6SM SCT200 FM011600 18010KT P6SM BKN120", "KBBD 311738Z 3118/0118 VRB05KT P6SM BKN250", "KBBG 311720Z 3118/0118 29006KT P6SM SKC", "KBCB 311740Z 3118/0118 10004KT 5SM -RA BR OVC009 TEMPO 3118/3122 1 1/2SM SHRA BR SCT003 OVC012 FM312200 VRB03KT P6SM -SHRA OVC010 TEMPO 3122/3124 4SM -SHRA BR OVC007 FM010000 00000KT P6SM OVC007 FM010600 00000KT P6SM OVC019 FM011200 29004KT P6SM SCT020 BKN060 FM011700 29007KT P6SM SCT060", "KBCE 311720Z 3118/0118 16008KT P6SM FEW250 FM010200 22006KT P6SM SCT200 FM011700 17012G20KT P6SM FEW100 SCT150", "KBDL 311720Z 3118/0124 21009KT P6SM FEW040 FM010800 19003KT P6SM VCSH OVC030 FM011300 19003KT 5SM BR VCSH OVC015 FM011700 21004KT P6SM BKN040", "KBDN 311720Z 3118/0118 22010KT P6SM BKN120 FM010400 29008KT P6SM -RA OVC050 FM010900 30007KT 5SM -RA BR OVC025 TEMPO 0112/0113 2SM -RA BR OVC015", "KBDR 311935Z 3120/0118 23006KT P6SM FEW040 BKN120 FM010000 VRB05KT P6SM SCT050 BKN100 FM010300 VRB04KT P6SM VCSH BKN040 FM010700 VRB04KT 6SM -SHRA BR BKN015 OVC040 FM011000 21005KT 4SM -SHRA OVC008 FM011400 22006KT 6SM BR VCSH FEW008 BKN015 FM011700 21006KT P6SM BKN020", "KBED 311720Z 3118/0118 23010KT P6SM SCT035 FM010900 22003KT P6SM VCSH OVC070 FM011300 23004KT 6SM BR OVC007 FM011600 24005KT P6SM BKN050", "KBFD 311744Z 3118/0118 VRB05KT 6SM BR VCSH BKN006 BKN024 OVC035 FM312000 18006KT P6SM VCSH BKN025 OVC035 FM010500 17005KT 5SM -SHRA BR OVC015 FM010800 19005KT 4SM BR OVC009", "KBFF 311737Z 3118/0118 29007KT P6SM SKC FM312100 25012KT P6SM FEW250 FM010000 13006KT P6SM SKC FM011600 18012G18KT P6SM SKC", "KBFI 311720Z 3118/0118 18010G22KT P6SM VCSH BKN020 OVC030 FM311900 22007KT P6SM OVC045 FM010200 VRB05KT P6SM SCT050 BKN200 FM010700 12003KT P6SM BKN020 BKN050", "KBFL 311730Z 3118/0118 VRB04KT P6SM BKN200", "KBFM 311720Z 3118/0118 13005KT P6SM BKN035 FM010300 VRB03KT P6SM FEW250 FM011400 03005KT P6SM SKC", "KBGM 311730Z 3118/0118 20007KT P6SM VCSH FEW050 BKN100 FM010400 19004KT P6SM BKN020 FM010800 19005KT P6SM OVC013", "KBGR 311720Z 3118/0118 19005KT P6SM FEW150 FM010300 00000KT 2SM BR SCT007 BKN120 FM010500 00000KT 1SM BR BKN007 FM011400 VRB02KT P6SM SCT010 FM011500 VRB02KT P6SM BKN050", "KBHB 311720Z 3118/0118 21009KT P6SM FEW150 FM312300 21004KT P6SM BKN005 FM010700 22003KT 1SM BR OVC005 FM011400 VRB03KT P6SM BKN010 FM011500 26004KT P6SM BKN015", "KBHM 311754Z 3118/0118 24005KT P6SM BKN040 TEMPO 3118/3120 BKN025 FM010100 00000KT P6SM BKN029 FM010600 00000KT 4SM BR SCT023 FM011500 36004KT P6SM SCT050", "TAF KBIF 311400Z 3114/0120 VRB06KT 9999 FEW130 SCT180 QNH2998INS TX23/0120Z TN03/0112Z", "KBIH 311731Z 3118/0118 VRB05KT P6SM BKN250 FM312000 16009KT P6SM FEW150 BKN250 FM010700 34006KT P6SM BKN150 FM011700 18006KT P6SM SCT150 BKN250", "KBIL 311729Z 3118/0118 25017G24KT P6SM FEW100 SCT200 FM010000 24015KT P6SM FEW100 BKN200 FM010200 23011KT P6SM BKN200", "KBIS 311731Z 3118/0118 28007KT P6SM OVC250 FM311900 25009KT P6SM SCT250 FM010000 21006KT P6SM SCT250 FM010800 19005KT P6SM BKN250 FM011600 16007KT P6SM BKN250", "TAF KBIX 311800Z 3118/0124 VRB06KT 9999 SCT030 QNH2999INS BECMG 0105/0106 VRB06KT 8000 BR BKN026 QNH3008INS BECMG 0110/0111 VRB06KT 8000 BR FEW019 QNH3010INS TX24/3120Z TN16/0112Z", "KBJC 311725Z 3118/0118 10006KT P6SM FEW220 FM010000 VRB04KT P6SM FEW220 FM010200 27010KT P6SM FEW220 FM011200 VRB04KT P6SM FEW220", "KBJI 311720Z 3118/0118 22009KT P6SM SCT250 FM312300 VRB05KT P6SM BKN250", "KBKE 311731Z 3118/0118 11006KT P6SM BKN100 FM312300 16008KT P6SM VCSH BKN070 FM011200 20006KT P6SM -RA OVC050", "TAF KBKF 311700Z 3117/0123 VRB06KT 9999 SKC QNH2993INS TX18/0122Z TN01/0113Z", "KBKW 311745Z 3118/0118 15007KT 6SM BR VCSH SCT015 OVC022 TEMPO 3118/3121 4SM -SHRA BR OVC012 FM312200 18006KT P6SM VCSH OVC030 FM010300 23005KT P6SM BKN015 FM010500 23004KT P6SM BKN050 FM010900 25004KT P6SM BKN025 FM011000 26005KT P6SM BKN017", "KBLF 311740Z 3118/0118 19007KT 5SM -RA BR BKN008 OVC030 TEMPO 3118/3122 2SM SHRA SCT008 OVC035 FM010000 22003KT P6SM OVC017 FM010700 25005KT P6SM OVC040 FM011000 VRB04KT P6SM BKN019 FM011400 28006KT P6SM BKN009 FM011700 29007KT P6SM BKN020", "KBLH 311722Z 3118/0118 VRB05KT P6SM SKC FM010600 20005KT P6SM BKN250", "KBLI 311720Z 3118/0118 19010G15KT P6SM SCT025 BKN060 FM010000 19004KT P6SM SCT070 BKN200 FM011200 VRB02KT 5SM BR BKN025", "TAF AMD KBLV 311733Z 3117/0122 27010KT 8000 BR OVC012 QNH2988INS BECMG 3122/3123 27006KT 8000 BR BKN020 QNH2991INS BECMG 0107/0108 24006KT 4800 BR SKC QNH3004INS BECMG 0116/0117 VRB06KT 9999 NSW SKC QNH3017INS TX16/3119Z TN09/0112Z", "KBMG 311720Z 3118/0118 21008KT P6SM -SHRA SCT006 OVC010 FM010300 25005KT P6SM BKN009 FM010800 25004KT P6SM BKN011 FM011300 26003KT 6SM BR BKN024 FM011500 25004KT P6SM BKN040", "KBMI 311730Z 3118/0118 32005KT P6SM -SHRA OVC004 FM312200 29005KT P6SM BKN015 FM010000 26005KT P6SM SKC TEMPO 0109/0113 3SM BR", "KBNA 311733Z 3118/0118 22005KT P6SM BKN015 OVC060 FM311900 22007KT P6SM BKN025 OVC060 FM312100 22007KT P6SM SCT030 BKN060 FM010100 24003KT P6SM SCT080", "KBNO 311731Z 3118/0118 VRB04KT P6SM BKN150 FM312000 19007KT P6SM BKN120 FM010800 20005KT P6SM VCSH BKN070 FM011600 22007KT P6SM -SHRA BKN060", "KBOI 311731Z 3118/0118 14007KT P6SM SCT100 BKN200 FM010900 13012KT P6SM BKN150", "KBOS 311720Z 3118/0124 24010KT P6SM FEW025 FM010800 22006KT P6SM VCSH OVC060 FM011200 23007KT 6SM BR VCSH OVC007 FM011800 24006KT P6SM BKN045", "KBPI 311722Z 3118/0118 33007KT P6SM SCT200 FM010500 VRB05KT P6SM SCT200", "KBPK 311720Z 3118/0118 29007KT P6SM FEW250 FM312300 VRB03KT P6SM SKC", "KBPT 311727Z 3118/0118 VRB04KT P6SM SCT040 SCT150 FM010000 00000KT P6SM SCT150 FM010700 00000KT 4SM BR SCT150 FM011400 08005KT P6SM VCSH SCT025 OVC150", "KBRD 311726Z 3118/0118 22008G17KT P6SM FEW230 FM312200 22006KT P6SM FEW250 FM010400 VRB03KT P6SM SKC", "KBRL 311720Z 3118/0118 30005KT P6SM SKC FM010000 27005KT P6SM SKC", "KBRO 311743Z 3118/0118 10013KT P6SM OVC060 FM312100 09013KT P6SM VCSH SCT035 OVC060 FM010200 08009KT P6SM -SHRA SCT025 OVC060 PROB30 0103/0109 4SM TSRA BR BKN025CB FM010900 VRB05KT P6SM -SHRA SCT025 BKN060 OVC090 PROB30 0109/0115 4SM TSRA BR BKN025CB FM011500 17009KT P6SM -SHRA OVC035 PROB30 0115/0118 4SM TSRA BR BKN025CB", "KBTL 311752Z 3118/0118 VRB03KT 4SM -DZ VCSH OVC003 FM311900 VRB03KT 5SM -DZ BR OVC005 TEMPO 3119/3123 2SM SHRA BR OVC015 FM010400 25003KT 1 1/2SM -DZ BR OVC003 FM011500 24005KT 4SM BR BKN009 FM011600 26006KT P6SM FEW250", "KBTM 311721Z 3118/0118 24012G22KT P6SM BKN070 FM010300 17009KT P6SM BKN060", "KBTR 311720Z 3118/0118 VRB04KT P6SM SCT030 BKN250", "KBTV 311727Z 3118/0118 19010KT P6SM BKN170 FM312100 18005KT P6SM BKN140 FM010500 VRB03KT P6SM OVC050 FM011200 VRB04KT P6SM BKN035", "KBUF 311720Z 3118/0118 16005KT P6SM VCSH OVC015 FM312100 19007KT P6SM VCSH OVC015 FM010000 19006KT P6SM VCSH OVC020 FM010300 20007KT P6SM OVC035 FM010600 20007KT P6SM BKN040 FM010800 21008KT P6SM VCSH OVC015", "KBUR 311723Z 3118/0118 00000KT P6SM SCT200 FM312100 17008KT P6SM BKN200 FM010300 VRB03KT P6SM BKN200 FM010900 VRB03KT 5SM BR BKN008 FM011500 VRB03KT P6SM OVC015", "KBVI 311732Z 3118/0118 20005KT P6SM OVC004 FM311900 20004KT P6SM OVC008 FM312000 20005KT P6SM OVC013 FM312100 19004KT P6SM OVC022 FM312300 18003KT P6SM OVC045 FM010100 19003KT P6SM BKN060 FM011500 25004KT P6SM VCSH BKN006", "KBVO 311845Z 3119/0118 23009G16KT P6SM SKC FM312200 VRB04KT P6SM SKC", "KBWG 311743Z 3118/0118 22011KT P6SM BKN022 FM312300 23006KT P6SM BKN035 FM010100 23005KT P6SM BKN027 FM010500 24003KT P6SM BKN045 FM010800 00000KT P6SM BKN028 FM011400 26003KT P6SM SCT035", "KBWI 311910Z 3119/0124 21005KT P6SM BKN025 OVC050 FM312000 18004KT P6SM -SHRA OVC025 FM010300 00000KT P6SM -SHRA OVC025 FM010800 00000KT 3SM BR SCT004 OVC008 FM011600 32007KT P6SM BKN030", "KBYI 311720Z 3118/0118 19005KT P6SM FEW180 FM010200 16008KT P6SM SCT100 BKN150 FM011700 19010G20KT P6SM SCT080 BKN120", "KBZN 311720Z 3118/0124 23007KT P6SM BKN080 FM312000 23014G24KT P6SM SCT080 BKN130 FM010100 20009KT P6SM BKN250 FM010400 VRB06KT P6SM SCT250 FM012000 20018G28KT P6SM SCT250", "KCAE 311929Z 3119/0118 20008KT P6SM VCSH SCT035 BKN060 TEMPO 3122/0102 5SM -SHRA BKN025 FM010600 00000KT 3SM BR OVC005 FM011100 VRB03KT 3/4SM BR VV003 FM011500 28005KT P6SM SCT250", "KCAK 311722Z 3118/0118 20007KT P6SM -SHRA OVC008 FM311900 20007KT P6SM -SHRA OVC015 FM312100 20007KT P6SM VCSH OVC035 FM010600 23005KT P6SM OVC010 FM010800 24004KT P6SM OVC008 FM011700 26007KT P6SM OVC015", "KCAR 311720Z 3118/0118 21004KT P6SM FEW150 FM010900 VRB02KT P6SM BKN090 FM011400 21004KT P6SM BKN045", "TAF COR KCBM 311740Z 3117/0123 24006KT 9999 SCT014 BKN025 BKN050 QNH2990INS BECMG 3118/3119 24006KT 9999 SCT025 BKN050 QNH2995INS BECMG 0100/0101 26005KT 9999 BKN030 BKN050 QNH3000INS BECMG 0106/0107 31005KT 9999 SCT025 QNH3010INS BECMG 0108/0109 36005KT 9999 SKC QNH3010INS BECMG 0120/0121 36005KT 9999 FEW240 QNH3010INS TX20/3120Z TN13/0112Z", "KCDC 311720Z 3118/0118 34007KT P6SM FEW250 FM010200 19008KT P6SM SCT200 FM011700 21015G25KT P6SM FEW100 SCT150", "KCDR 311737Z 3118/0118 26010KT P6SM FEW250 FM010000 20004KT P6SM SKC FM011500 21012KT P6SM SKC", "KCDS 311723Z 3118/0118 19005KT P6SM FEW250", "KCEC 311845Z 3118/0118 18005KT 5SM HZ FEW050 BKN250 FM312000 23005KT 6SM HZ SCT050 SCT150 BKN200 TEMPO 3120/3124 4SM HZ FM010200 14007KT 4SM -RA BR SCT012 OVC025 FM010600 27010KT 2SM -RA BR SCT007 OVC012 FM011000 32012KT 4SM -SHRA BR OVC025 WS020/35032KT", "TAF KCEF 311800Z 3118/0124 21009KT 9999 FEW050 SCT140 BKN250 QNH2994INS BECMG 3121/3122 19006KT 9999 SCT050 BKN090 QNH2994INS BECMG 0105/0106 VRB06KT 8000 -RA BR FEW006 SCT025 OVC050 QNH2999INS BECMG 0109/0110 VRB06KT 9999 VCSH SCT006 OVC015 QNH3000INS TEMPO 0110/0116 BKN006 BECMG 0115/0116 21006KT 9999 NSW FEW009 BKN022 OVC130 QNH2997INS BECMG 0119/0120 21006KT 9999 SCT028 BKN150 QNH2997INS TX20/3119Z TN10/0105Z", "KCGI 311731Z 3118/0118 26007KT P6SM BKN020 FM311900 27007KT P6SM BKN025 FM312200 28006KT P6SM SCT050 FM010100 00000KT P6SM SKC FM010900 00000KT 2SM BR SKC FM011300 VRB03KT P6SM SKC", "KCHA 311739Z 3118/0118 24007KT P6SM SCT022 BKN040 BKN250 FM010000 VRB03KT P6SM BKN250 FM011100 00000KT 5SM BR SCT024 FM011600 VRB03KT P6SM SCT200", "KCHO 311909Z 3119/0118 21003KT P6SM -SHRA SCT006 BKN020 FM010000 00000KT P6SM -SHRA OVC020 FM010600 00000KT 3SM BR SCT004 OVC008 FM011100 00000KT P6SM BKN010 FM011400 31005KT P6SM SCT040", "KCHS 311728Z 3118/0118 18014KT P6SM FEW030 SCT040 BKN050 FM010800 VRB03KT P6SM BKN015 FM011000 00000KT 6SM BR BKN009 BKN020 TEMPO 0110/0113 3SM BR BKN004 OVC008 FM011330 VRB02KT P6SM BKN030 FM011500 30005KT P6SM SCT060", "KCID 311720Z 3118/0118 29005KT P6SM SKC", "KCIU 311733Z 3118/0118 14005KT P6SM FEW110 FM010000 00000KT P6SM FEW250 FM010900 00000KT 1SM BR SCT003 TEMPO 0109/0113 1/2SM FG VV002 FM011400 23004KT P6SM SCT250", "KCKB 311740Z 3118/0118 22004KT P6SM VCSH OVC015 TEMPO 3118/3120 OVC008 FM312100 20005KT P6SM OVC024 FM312200 19004KT P6SM OVC035 FM010900 VRB03KT P6SM BKN027 FM011000 VRB04KT P6SM VCSH BKN016 FM011500 25005KT P6SM BKN012", "KCKV 311733Z 3118/0118 21009KT 6SM BR BKN015 OVC070 FM311900 21007KT P6SM BKN025 FM312100 24008KT P6SM SCT030 BKN060 FM010000 26003KT P6SM SCT070 FM010600 26002KT 3SM BR SCT025", "KCLE 311724Z 3118/0124 19008KT P6SM -SHRA OVC035 TEMPO 3118/3120 BKN030 FM312000 22005KT P6SM VCSH BKN040 FM010900 23005KT P6SM OVC008 FM011700 26007KT P6SM OVC020 FM011800 28005KT P6SM SCT050", "KCLL 311720Z 3118/0118 VRB04KT P6SM SCT250 FM011600 14006KT P6SM OVC100", "KCLM 311720Z 3118/0118 28012G18KT P6SM BKN050 FM312300 29009KT P6SM SCT060 BKN200 FM010500 26007KT P6SM BKN050", "KCLT 311738Z 3118/0124 17006KT 5SM -SHRA BR OVC006 TEMPO 3118/3120 1 1/2SM +RA BKN004 OVC011 FM312000 19006KT 6SM BR VCSH SCT003 OVC009 FM312300 VRB03KT P6SM -SHRA OVC011 FM010200 31003KT 3SM BR OVC002 FM011500 33006KT P6SM FEW050 SCT250", "KCMA 311723Z 3118/0118 10004KT P6SM BKN200 FM312000 24008KT P6SM BKN200 FM010600 VRB03KT 5SM BR OVC008 FM011000 VRB03KT 5SM BR OVC012 FM011500 VRB03KT P6SM OVC020", "KCMH 311732Z 3118/0118 20010KT P6SM VCSH SCT018 BKN045 FM010300 22005KT P6SM VCSH BKN022 FM010600 23005KT P6SM OVC015 FM011200 24004KT P6SM OVC011 FM011600 27006KT P6SM BKN015", "KCMI 311730Z 3118/0118 24010KT 3SM -SHRA BR OVC004 FM312200 26007KT P6SM VCSH OVC008 FM010100 27005KT P6SM BKN015 FM010200 VRB03KT P6SM SKC FM010800 VRB03KT 1SM BR SCT005 FM011500 24005KT P6SM SCT005", "KCMX 311726Z 3118/0118 26007KT P6SM SKC", "KCNM 311724Z 3118/0118 34005KT P6SM BKN250 FM312100 13006KT P6SM BKN250", "KCNU 311735Z 3118/0118 29008KT P6SM FEW250 FM312300 26004KT P6SM FEW250 FM010400 19005KT P6SM FEW250 FM011700 16013KT P6SM SKC", "KCNY 311720Z 3118/0118 VRB04KT P6SM SKC", "KCOD 311722Z 3118/0118 26015G26KT P6SM SCT200 FM010300 23011KT P6SM SCT200 FM011700 21010G20KT P6SM SCT090 BKN140", "KCOE 311734Z 3118/0118 21011KT P6SM OVC024 FM312100 22018G26KT P6SM -RA BKN030 OVC040 FM010400 23010KT P6SM VCSH BKN035 FM011200 35005KT 2SM -RA BR OVC010", "TAF KCOF 311800Z 3118/0124 11012KT 9999 VCSH FEW030 SCT060 QNH2993INS TEMPO 3118/3124 9000 -SHRA SCT050 BECMG 0110/0111 24009KT 9999 NSW FEW050 SCT100 QNH3000INS BECMG 0116/0117 04006KT 9999 FEW020 SCT090 QNH3003INS TX29/3118Z TN22/0110Z", "KCON 311725Z 3118/0118 22006KT P6SM BKN200 FM010900 VRB03KT P6SM VCSH BKN040", "KCOS 311720Z 3118/0118 16007KT P6SM FEW250 FM010300 02006KT P6SM SKC", "KCOT 311739Z 3118/0118 13007KT P6SM BKN050 BKN250 FM312200 13008KT P6SM VCSH BKN050 OVC250 FM010200 09007KT P6SM -RA SCT030 OVC050 TEMPO 0103/0106 4SM -TSRA BKN025CB FM010600 08006KT P6SM -RA BKN030 TEMPO 0106/0110 4SM -TSRA OVC025CB FM011200 06008KT 5SM -RA BR OVC015", "KCOU 311739Z 3118/0118 30006KT P6SM SCT100 FM312300 VRB04KT P6SM SKC", "KCPR 311722Z 3118/0118 23016G27KT P6SM SCT200 FM010100 23013KT P6SM SCT200 FM011400 22022G35KT P6SM SCT100 BKN150", "KCPS 311923Z 3119/0118 28006KT P6SM SCT009 OVC015 TEMPO 3119/3121 3SM -DZ BKN009 FM312300 28006KT P6SM SCT030 FM010000 VRB04KT P6SM FEW250 FM010800 00000KT 4SM BR SKC FM011300 VRB03KT P6SM SKC", "KCRE 311730Z 3118/0118 11006KT P6SM SCT025 SCT100 TEMPO 3119/3122 BKN030 FM010100 18004KT P6SM VCSH BKN060 FM010900 22003KT 5SM BR BKN100 FM011300 25006KT P6SM SCT060 OVC100", "KCRG 311907Z 3119/0118 14007KT P6SM SCT035 BKN150 TEMPO 3119/3121 BKN030 FM010000 VRB03KT P6SM FEW035 SCT100 BKN200 FM010600 28002KT 2SM BR FEW015 SCT250 FM010900 00000KT 1/2SM FG FEW015 SCT250 FM011230 34004KT P6SM SCT250", "KCRP 311739Z 3118/0118 09014G20KT P6SM BKN060 BKN100 FM010000 08009KT P6SM VCSH OVC050 FM010600 06010KT P6SM -RA SCT025 OVC050 TEMPO 0108/0112 4SM -TSRA BKN020CB FM011400 03010KT 5SM -RA BR BKN010 PROB30 0114/0118 -TSRA BKN006CB", "KCRQ 311727Z 3118/0118 VRB04KT P6SM SCT250 FM311900 25008KT P6SM SCT250 FM010100 VRB04KT P6SM FEW007 BKN200 TEMPO 0104/0108 BKN006 FM010800 VRB04KT 6SM BR OVC010 FM011500 VRB04KT P6SM BKN020", "KCRW 311901Z 3119/0118 VRB05KT P6SM VCSH OVC035 TEMPO 3119/3121 BKN018 FM312200 22004KT P6SM BKN045 FM010900 VRB03KT P6SM BKN025 FM011100 00000KT P6SM BKN015 FM011400 25004KT P6SM BKN018", "KCSG 311736Z 3118/0118 26005KT P6SM SCT020 BKN035 FM010000 VRB03KT P6SM SCT030 SCT050 BKN150 FM010500 00000KT P6SM SCT150 FM011400 35004KT P6SM BKN150", "KCSM 311720Z 3118/0118 18007KT P6SM SCT250 FM011500 20013KT P6SM SCT250", "KCSV 311733Z 3118/0118 23007KT P6SM OVC050 FM010300 23004KT P6SM OVC015 FM010600 00000KT 6SM BR OVC008 FM011600 30006KT P6SM OVC015", "KCTB 311720Z 3118/0118 25018G26KT P6SM BKN080 FM312200 25023G33KT P6SM SCT080 BKN120 FM010300 23014G22KT P6SM SCT250 FM010700 21009KT P6SM SCT050 BKN090 FM011600 01008KT P6SM VCSH BKN050", "KCUB 311930Z 3120/0118 20008KT P6SM VCSH SCT035 BKN060 TEMPO 3122/0102 5SM -SHRA BKN025 FM010600 00000KT 3SM BR OVC005 FM011100 VRB03KT 3/4SM BR VV003 FM011500 28005KT P6SM SCT250", "KCVG 311732Z 3118/0124 21009KT P6SM VCSH BKN025 FM010500 24005KT P6SM BKN015 FM010900 24004KT 5SM BR BKN008 FM011300 25004KT P6SM BKN011 FM011600 27006KT P6SM BKN025 FM011800 27006KT P6SM SCT025", "TAF KCVS 311800Z 3118/0124 21010G15KT 9999 FEW120 QNH3001INS BECMG 3123/3124 21010KT 9999 SKC QNH3002INS BECMG 0117/0118 22012G20KT 9999 SKC QNH3008INS TX19/3122Z TN07/0112Z", "KCWA 311734Z 3118/0118 25003KT P6SM SKC TEMPO 0110/0113 4SM BR FM011500 22006KT P6SM SCT250", "KCXO 311720Z 3118/0118 VRB03KT P6SM BKN250 FM011600 14006KT P6SM OVC100", "KCXP 311739Z 3118/0118 10010KT P6SM FEW110 BKN250 FM010200 VRB03KT P6SM SCT110 BKN220 FM010600 21008KT P6SM SCT110 BKN180 WS020/22035KT FM011700 21015G25KT P6SM BKN100 OVC150 WS020/22045KT", "KCYS 311737Z 3118/0118 27012G18KT P6SM SKC FM010000 22007KT P6SM SKC", "TAF KDAA 311200Z 3112/0118 19006KT 9999 FEW015 BKN025 OVC040 QNH3002INS TEMPO 3112/3118 BKN014 BECMG 3118/3119 21009KT 9000 -SHRA SCT015 OVC020 QNH3002INS BECMG 0101/0102 VRB06KT 8000 -SHRA BKN010 OVC015 QNH3002INS BECMG 0106/0107 VRB06KT 9000 BR OVC010 QNH3001INS BECMG 0111/0112 VRB06KT 6000 BR SCT015 OVC020 QNH3002INS TX18/3118Z TN13/0111Z", "KDAB 311720Z 3118/0118 08007KT P6SM VCSH SCT025 SCT040 FM010100 VRB03KT P6SM FEW030 FEW200 FM010800 00000KT 5SM BR FEW010 FM011400 07005KT P6SM SCT030", "KDAG 311731Z 3118/0118 32007KT P6SM SKC FM312000 08006KT P6SM SCT250 FM010300 VRB06KT P6SM SCT150 SCT250 FM010600 27008KT P6SM BKN150 FM011700 26012G20KT P6SM BKN250", "KDAL 311728Z 3118/0118 14005KT P6SM SCT250 FM010600 15007KT P6SM SCT190 BKN250", "KDAN 311740Z 3118/0118 16004KT P6SM -RA OVC018 TEMPO 3118/3122 4SM SHRA BR SCT018 OVC035 FM010300 00000KT 6SM BR OVC008 FM011400 29003KT P6SM SCT035", "KDAY 311732Z 3118/0118 21011G19KT P6SM VCSH BKN015 FM010000 23006KT P6SM VCSH OVC015 FM010800 24005KT 5SM BR BKN009 FM011400 27006KT P6SM BKN011 FM011600 28006KT P6SM BKN022 FM011700 28007KT P6SM SCT022", "KDBQ 311720Z 3118/0118 32005KT P6SM SKC FM010000 27005KT P6SM SKC", "KDCA 311911Z 3119/0124 18009KT P6SM -SHRA BKN025 OVC100 FM010300 19003KT P6SM -SHRA OVC030 FM010600 20003KT P6SM -SHRA OVC020 FM010800 00000KT 3SM BR SCT005 OVC008 FM011500 32009KT P6SM BKN035", "KDDC 311720Z 3118/0118 21008KT P6SM SKC", "KDEC 311730Z 3118/0118 29005KT P6SM -SHRA OVC005 FM312100 29006KT P6SM OVC015 FM312300 27005KT P6SM SCT015 BKN060 FM010100 VRB03KT P6SM SKC FM010800 VRB03KT 2SM BR SCT005 FM011500 24005KT P6SM SCT005", "KDEN 311725Z 3118/0124 19007KT P6SM FEW220 FM312100 12006KT P6SM FEW220 FM010200 15010KT P6SM FEW220 FM010400 21011KT P6SM FEW220 FM011700 VRB05KT P6SM FEW220 FM012200 36009KT P6SM FEW220", "KDET 311720Z 3118/0118 19005KT 5SM -SHRA BR OVC005 FM312000 20006KT P6SM SCT009 OVC015 FM010000 25005KT 6SM -SHRA OVC010 FM010600 29004KT 5SM BR OVC008 FM011200 28006KT P6SM BKN020 FM011500 26005KT P6SM SCT030", "KDFW 311728Z 3118/0124 14005KT P6SM SCT250 FM010600 15007KT P6SM SCT190 BKN250", "KDHN 311733Z 3118/0118 31004KT P6SM SCT100 FM010600 35004KT 6SM BR SCT250 FM011300 01003KT P6SM SCT250", "KDHT 311720Z 3118/0118 21011G21KT P6SM SKC FM010000 20009KT P6SM SKC FM011600 22015G25KT P6SM SKC", "KDIJ 311720Z 3118/0118 20009KT P6SM SCT120 FM010200 16007KT P6SM SCT080 FM011700 18008G15KT P6SM SCT080 BKN120 AMD LTD TO CLD VIS AND WIND", "KDIK 311731Z 3118/0118 26011KT P6SM SCT250 FM312000 24011KT P6SM FEW250 FM010100 22007KT P6SM SCT250 FM010600 20007KT P6SM BKN250 FM011600 18009KT P6SM BKN250", "TAF KDLF 311900Z 3119/0201 12012KT 9999 BKN030 BKN045 OVC220 QNH2997INS TEMPO 3119/3121 BKN028 BECMG 3122/3123 14012KT 9999 VCSH BKN055 BKN100 QNH2992INS BECMG 0100/0101 17010KT 8000 -SHRA VCTS BKN035CB OVC045 QNH2995INS TEMPO 0102/0106 18025G35KT 6000 -TSRAGR OVC025CB BECMG 0108/0109 VRB06KT 9999 VCSH SCT015 BKN020 QNH3006INS BECMG 0112/0113 12008KT 9999 NSW BKN015 OVC040 QNH3007INS BECMG 0116/0117 10006KT 9999 SCT020 BKN040 QNH3016INS BECMG 0121/0122 14008KT 9999 BKN045 BKN060 QNH3011INS TX25/3121Z TN10/0111Z", "KDLH 311726Z 3118/0118 23010G17KT P6SM FEW250 FM312200 24006KT P6SM SCT250 FM010600 26005KT P6SM SKC", "KDLS 311720Z 3118/0118 31008KT P6SM VCSH BKN040 OVC060 FM010300 29005KT P6SM -RA OVC100 FM011000 30005KT 6SM -RA BR OVC050 TEMPO 0112/0113 4SM -RA BR", "TAF KDMA 311400Z 3114/0120 VRB06KT 9999 SKC QNH2999INS BECMG 3118/3119 30009KT 9999 SKC QNH2991INS BECMG 0102/0103 VRB06KT 9999 SKC QNH2995ONS TX26/3120Z TN09/3114Z", "KDMN 311723Z 3118/0118 06005KT P6SM SKC FM312000 24005KT P6SM SKC", "KDNL 311933Z 3120/0118 21007KT P6SM VCSH SCT015 BKN050 TEMPO 3122/0101 5SM -SHRA BKN025 FM010600 00000KT 3SM BR OVC005 FM011100 VRB03KT 3/4SM BR VV003 FM011500 31005KT P6SM SCT250", "TAF KDOV 311600Z 3116/0122 20006KT 9999 OVC020 QNH3002INS BECMG 0100/0101 20006KT 9000 -SHRA OVC020 QNH3005INS BECMG 0103/0104 20006KT 8000 -RA OVC020 QNH3005INS BECMG 0106/0107 18006KT 4800 RA BR OVC010 QNH3004INS BECMG 0111/0112 20004KT 6000 -SHRA BR OVC005 QNH3005INS WND 28006KT AFT 0116 BECMG 0116/0117 30006KT 9999 NSW OVC010 QNH3005INS TX19/3119Z TN14/0103Z", "KDPA 311727Z 3118/0118 36003KT 2SM -DZ BR OVC004 FM312000 35004KT 6SM BR OVC007 FM312200 34005KT P6SM BKN010 BKN080 FM010000 27004KT 6SM BR FEW010 SCT100 FM010400 26003KT 3SM BR BCFG FEW003 FM011300 24006KT P6SM SKC", "KDRO 311720Z 3118/0118 VRB03KT P6SM SKC FM312100 23007KT P6SM SKC FM010200 36005KT P6SM SKC FM010600 VRB03KT P6SM SKC", "KDRT 311857Z 3119/0118 14010KT P6SM SCT030 FM010000 13005KT P6SM -SHRA VCTS SCT025 OVC050CB TEMPO 0103/0106 3SM TSRA FM010800 12005KT P6SM SCT015 BKN025", "KDSM 311721Z 3118/0118 32005KT P6SM SKC FM011600 19008KT P6SM SKC", "KDTW 311720Z 3118/0124 19005KT 5SM -SHRA BR OVC005 FM312000 20006KT P6SM SCT009 OVC015 FM010000 25005KT 6SM -SHRA OVC010 FM010600 29004KT 5SM BR OVC008 FM011200 28006KT P6SM BKN020 FM011500 26005KT P6SM SCT030", "KDUJ 311732Z 3118/0118 14005KT 2SM BR OVC002 FM311930 15005KT 4SM BR OVC008 FM312000 16004KT P6SM OVC012 FM010100 16004KT P6SM OVC009 FM010500 20003KT P6SM OVC005 FM011700 27006KT P6SM VCSH BKN007", "KDVL 311720Z 3118/0118 24012G20KT P6SM BKN250 FM010000 VRB06KT P6SM BKN250 FM011600 21009KT P6SM SCT250", "KDVT 311722Z 3118/0118 VRB04KT P6SM SKC FM312100 20004KT P6SM SKC FM010300 05005KT P6SM FEW250", "TAF KDYS 311600Z 3116/0122 VRB06KT 9999 FEW220 QNH2999INS BECMG 0102/0103 16009KT 9999 FEW180 QNH3004INS BECMG 0110/0111 VRB06KT 9999 FEW120 QNH3008INS TX22/3121Z TN11/0113Z", "KEAR 311720Z 3118/0118 22009KT P6SM SKC FM010200 19006KT P6SM SKC FM011600 20011KT P6SM SKC", "KEAT 311734Z 3118/0118 26004KT P6SM VCSH OVC100 FM312200 29008G15KT P6SM SCT100 BKN200 FM010600 30007KT P6SM OVC060 FM011600 28005KT P6SM OVC050", "KEAU 311720Z 3118/0118 25005KT P6SM FEW300", "KECG 311720Z 3118/0118 14005KT P6SM BKN050 FM010800 19005KT 5SM -SHRA BR BKN020 FM011500 20006KT P6SM BKN015 FM011700 24007KT P6SM BKN020", "KECP 311733Z 3118/0118 26006KT P6SM SCT050 FM010200 30004KT P6SM SCT250 FM010400 01004KT 6SM BR FEW250 FM011300 03005KT P6SM SCT250", "TAF KEDW 311242Z 3113/0119 VRB06KT 9999 FEW250 QNH2989INS BECMG 3122/3123 24009KT 9999 FEW250 QNH2987INS BECMG 0102/0103 VRB06KT 9999 FEW250 QNH2990INS BECMG 0117/0118 21014G24KT 9999 FEW150 SCT220 510005 QNH2991INS TX24/3122Z TN02/3113Z", "KEED 311731Z 3118/0118 36008KT P6SM SCT250 FM312000 VRB06KT P6SM SCT250 FM010200 23006KT P6SM SCT150 BKN250 FM011300 26006KT P6SM BKN250", "KEET 311754Z 3118/0118 22005KT P6SM BKN040 FM312200 00000KT P6SM BKN040 FM010600 00000KT 4SM BR SCT023 FM010800 00000KT 1SM BR OVC002 FM011300 00000KT 4SM BR BKN040 FM011400 36004KT P6SM SCT050", "TAF KEFD 311200Z 3112/0118 VRB06KT 9999 FEW290 QNH2998INS BECMG 0114/0115 VRB06KT 8000 -RA FEW020 QNH3017INS TX23/3121Z TN12/3112Z", "KEFK 311727Z 3118/0118 VRB04KT P6SM OVC160 FM010500 00000KT P6SM OVC090 FM011200 00000KT P6SM BKN025 BKN035", "KEGE 311720Z 3118/0118 VRB04KT P6SM SKC", "TAF KEGI 311700Z 3117/0123 35009KT 9999 FEW045 SCT250 QNH2996INS BECMG 0108/0109 04009KT 8000 BR FEW030 QNH3005INS TEMPO 0110/0112 3200 BR BECMG 0112/0113 02009KT 9999 NSW SCT040 QNH3008INS TX25/3119Z TN11/0109Z", "KEKN 311903Z 3119/0118 18004KT P6SM VCSH SCT025 OVC035 TEMPO 3119/3120 1 1/2SM -RA BKN025 FM312000 19005KT P6SM VCSH OVC019 FM312200 18004KT P6SM VCSH OVC035 FM010000 VRB03KT P6SM VCSH OVC030 FM010900 00000KT P6SM BKN012 FM011200 00000KT P6SM BKN008 FM011400 VRB03KT P6SM BKN012", "KEKO 311733Z 3118/0118 VRB06KT P6SM BKN150 FM010400 13009KT P6SM BKN150 FM011500 18012KT P6SM BKN150 AMD NOT SKED", "KEKS 311720Z 3118/0118 17020G28KT P6SM BKN070 FM010100 16016G24KT P6SM SCT090 SCT250 FM010900 17025G35KT P6SM SCT250 FM011600 18032G42KT P6SM SCT250", "KELD 311720Z 3118/0118 VRB04KT P6SM SKC FM010000 00000KT P6SM SKC FM010600 00000KT 4SM BR FEW250 FM011500 14004KT P6SM BKN250", "KELM 311730Z 3118/0118 VRB03KT P6SM VCSH FEW040 BKN080 FM010900 VRB03KT P6SM BKN025 FM011300 VRB02KT P6SM OVC018", "KELP 311723Z 3118/0118 36005KT P6SM BKN250 FM312100 10005KT P6SM SKC", "KELY 311733Z 3118/0118 17009KT P6SM BKN200 FM010300 18022G32KT P6SM SCT120 BKN200", "TAF KEND 311800Z 3118/0124 VRB06KT 9999 FEW250 QNH2998INS BECMG 3122/3123 17007KT 9999 SKC QNH3000INS BECMG 0114/0115 18012KT 9999 SKC QNH3010INS TX22/3121Z TN09/0112Z", "KENV 311720Z 3118/0118 VRB04KT P6SM SCT250 FM311900 11006KT P6SM SCT200 FM010200 VRB04KT P6SM SCT150 BKN200 FM011700 17010KT P6SM SCT120 BKN150", "KENW 311826Z 3118/0118 VRB04KT 6SM HZ OVC015 TEMPO 3118/3122 OVC025 FM312200 VRB04KT P6SM BKN035 FM010000 00000KT P6SM SKC FM011500 25005KT P6SM SKC", "KERI 311722Z 3118/0118 18011KT P6SM -SHRA BKN035 TEMPO 3118/3119 BKN025 FM312100 18008KT P6SM VCSH BKN035 FM010500 20007KT P6SM BKN030 FM010800 21006KT P6SM BKN015 FM011000 21006KT P6SM OVC008 FM011700 23007KT P6SM OVC015", "KEUG 311908Z 3119/0118 18005KT P6SM VCSH OVC020 FM312200 23008KT 4SM -RA BR OVC020 FM010800 20005KT 3SM RA BR OVC017 FM011600 18006KT 6SM -SHRA BR OVC025", "KEUL 311731Z 3118/0118 13006KT P6SM SCT100 BKN200 FM010900 12012KT P6SM BKN150 AMD NOT SKED", "KEVV 311731Z 3118/0118 26005KT P6SM VCSH OVC012 FM311900 26005KT P6SM OVC015 FM312300 26005KT P6SM SCT023 FM010200 VRB02KT P6SM SCT035 FM010500 00000KT P6SM SCT024", "KEVW 311720Z 3118/0118 24011G18KT P6SM SCT200 FM010200 22009KT P6SM BKN200 FM010400 17008KT P6SM SCT150 BKN200 FM011600 22025G37KT P6SM FEW100 SCT120 BKN150", "KEWN 311720Z 3117/0112 13005KT P6SM SCT150 FM312100 13005KT P6SM BKN080 FM010100 14004KT P6SM BKN140 FM011000 22004KT P6SM BKN040", "KEWR 311935Z 3120/0124 22009KT P6SM FEW040 BKN120 FM010100 22005KT P6SM VCSH BKN050 OVC100 FM010500 VRB04KT 6SM -SHRA BR BKN015 OVC040 FM010900 VRB04KT 4SM -SHRA BR OVC007 FM011300 23006KT 6SM BR VCSH OVC015 FM011700 24005KT P6SM OVC025 FM011900 30006KT P6SM FEW025 BKN040", "KEYW 311728Z 3118/0118 10007KT P6SM FEW025", "TAF KFAF 311800Z 3118/0124 VRB06KT 9999 BKN055 QNH3001INS BECMG 0104/0105 VRB06KT 9000 -SHRA BKN020 OVC035 QNH3003INS BECMG 0106/0107 VRB06KT 8000 -SHRA BKN009 OVC015 QNH3004INS BECMG 0114/0115 VRB06KT 9999 NSW BKN020 QNH3004INS TX22/3119Z TN16/0104Z", "KFAR 311720Z 3118/0118 19011KT P6SM SCT250 FM010000 VRB05KT P6SM FEW250", "KFAT 311730Z 3118/0118 VRB03KT P6SM SCT120 BKN200 FM011200 10005KT P6SM BKN250", "KFAY 311733Z 3118/0118 12005KT P6SM BKN060 FM312200 16004KT P6SM VCSH BKN035 BKN120 FM010100 16004KT 5SM -SHRA BR VCTS BKN025CB BKN040 TEMPO 0103/0107 2SM +SHRA BR BKN012 BKN040 FM010700 18003KT 2SM BR VCSH OVC004 FM011400 VRB03KT 5SM BR VCSH BKN012", "TAF KFBG 311709Z 3117/0123 13006KT 9999 SCT015 BKN055 QNH3003INS BECMG 3120/3121 15008KT 9000 -SHRA BKN005 OVC015 QNH3001INS TEMPO 3123/0102 14015G25KT 8000 -SHRA VCTS BKN010CB OVC020 BECMG 0104/0105 18004KT 6000 BR OVC005 QNH3004INS BECMG 0107/0108 19006KT 2400 BR OVC005 QNH3002INS BECMG 0114/0115 30006KT 9999 NSW BKN020 QNH3009INS TX23/3121Z TN15/0109Z", "TAF COR KFCS 311415Z 3114/0119 33010KT 9999 SKC QNH3001INS BECMG 3114/3115 14010KT 9999 SKC QNH3004INS BECMG 3123/3124 27010KT 9999 SKC QNH3004INS TX16/3121Z TNM01/0112Z", "KFDY 311722Z 3118/0118 22010KT P6SM -SHRA BKN020 FM312200 23007KT P6SM VCSH BKN035 FM010300 23006KT P6SM VCSH OVC015 FM010600 24006KT P6SM BKN008 FM011500 24006KT P6SM BKN015", "TAF KFFO 311900Z 3119/0201 20012KT 9000 -SHRA BKN025 OVC035 QNH2982INS BECMG 3121/3123 22009KT 8000 -SHRA SCT015 OVC025 QNH2985INS BECMG 0100/0101 23009KT 9999 VCSH BKN010 OVC020 QNH2989INS BECMG 0105/0106 26006KT 8000 BR BKN007 OVC010 QNH2997INS BECMG 0113/0115 28009KT 9999 NSW SCT007 BKN015 QNH3013INS BECMG 0121/0122 34009KT 9999 FEW015 SCT040 QNH3014INS TX19/3120Z TN12/0112Z", "TAF KFHU 311343Z 3114/0120 20009KT 9999 SKC QNH3006INS BECMG 3115/3116 13009KT 9999 SKC QNH2999INS TEMPO 3119/3124 13010G16KT 510005 BECMG 0103/0104 18009KT 9999 SCT250 QNH3005INS BECMG 0118/0119 19012G18KT 9999 BKN200 510007 QNH3011INS TX22/3121Z TN07/0112Z", "KFKL 311819Z 3118/0118 19008KT 2SM BR OVC003 TEMPO 3118/3120 1/2SM FG FM312000 19006KT P6SM OVC006 FM312200 17004KT P6SM BKN011 OVC025 FM010000 16004KT P6SM OVC025 FM011000 21003KT P6SM VCSH OVC005 FM011700 26005KT P6SM BKN006", "KFLG 311740Z 3118/0118 VRB06KT P6SM SKC FM010200 19005KT P6SM SKC FM011700 21010G17KT P6SM SCT150", "KFLL 311720Z 3118/0124 10010KT P6SM VCSH SCT025 SCT100 FM312100 10010KT P6SM SCT030 BKN250 FM010500 VRB05KT P6SM FEW030 FM011400 12010KT P6SM SCT030 SCT100", "KFLO 311730Z 3118/0118 11008KT P6SM VCSH SCT020 BKN040 TEMPO 3119/3121 BKN030 FM010100 17005KT P6SM SCT030 BKN100 FM010600 23003KT 4SM BR VCSH SCT007 BKN200 FM010900 26003KT 1SM BR OVC002 FM011300 30006KT P6SM SCT007 BKN040", "KFMH 311720Z 3118/0118 19005KT P6SM BKN010 FM312300 19004KT P6SM BKN015 FM010500 23004KT P6SM VCSH BKN020 FM011200 23005KT 6SM BR VCSH OVC003 FM011400 23007KT 5SM BR VCSH OVC008", "KFMN 311727Z 3118/0118 13005KT P6SM SKC FM311900 27006KT P6SM SKC FM010400 08006KT P6SM SKC FM011200 10006KT P6SM SCT250", "KFMY 311739Z 3118/0118 09005KT P6SM SCT040 SCT200 FM312100 30007KT P6SM SCT040 SCT250 FM010000 04004KT P6SM SCT040 SCT150 FM011200 11004KT P6SM SCT100", "KFNT 311720Z 3118/0118 VRB03KT 5SM -SHRA BR OVC005 FM010000 28004KT P6SM OVC010 FM010600 29004KT 5SM BR BKN008 OVC040 FM011200 26005KT P6SM FEW030", "KFOD 311721Z 3118/0118 33004KT P6SM SKC FM011600 18010KT P6SM SKC", "KFOE 311720Z 3118/0118 29005KT P6SM FEW200 FM011600 19007KT P6SM FEW080", "KFPR 311720Z 3118/0118 11011KT P6SM SCT025 FM010200 10006KT P6SM FEW025 SCT200 FM011300 09007KT P6SM SCT030", "TAF KFRI 311200Z 3112/0118 21006KT 9999 BKN100 QNH2995INS BECMG 3115/3116 23006KT 9999 SKC QNH2997INS BECMG 0104/0105 15006KT 9999 SKC QNH3013INS TX21/3121Z TN09/3112Z", "KFSD 311720Z 3118/0118 20007KT P6SM FEW250 FM010000 17003KT P6SM FEW250", "KFSM 311723Z 3118/0118 26005KT P6SM SCT250 FM010300 00000KT P6SM SKC TEMPO 0110/0114 5SM BR FM011500 06003KT P6SM SKC", "KFST 311724Z 3118/0118 13012KT P6SM BKN250", "TAF KFTK 311902Z 3119/0201 21012KT 9999 VCSH SCT015 BKN025 OVC040 QNH2986INS BECMG 0101/0102 24006KT 9999 NSW OVC015 QNH2982INS BECMG 0109/0110 26004KT 4800 BR BKN050 QNH2986INS BECMG 0113/0114 27006KT 9999 NSW SCT250 QNH2992INS TX19/3120Z TN14/0112Z LAST NO AMDS AFT 0103 NEXT 0111", "KFTW 311728Z 3118/0118 14005KT P6SM SCT250 FM010600 15007KT P6SM SCT190 BKN250", "KFTY 311736Z 3118/0118 22004KT P6SM BKN025 FM312000 23006KT P6SM BKN040 FM312300 27004KT P6SM BKN120 FM010600 00000KT P6SM SCT012 BKN150 TEMPO 0109/0113 5SM BR BKN008 FM011500 32005KT P6SM FEW250", "KFVE 311720Z 3118/0118 VRB04KT P6SM FEW150 FM010900 17002KT P6SM SCT080 FM011300 19005KT P6SM FEW050", "KFWA 311720Z 3118/0118 22011KT P6SM -SHRA BKN020 FM312300 23008KT P6SM VCSH OVC015 FM010100 23006KT P6SM OVC008 FM011300 27005KT P6SM SCT015", "KFXE 311720Z 3118/0118 10008KT P6SM VCSH SCT025 SCT100 FM312100 10010KT P6SM SCT030 BKN250 FM010500 VRB05KT P6SM FEW030 FM011400 12010KT P6SM SCT030 SCT100", "KFYV 311723Z 3118/0118 20006KT P6SM SKC FM010000 00000KT P6SM SKC FM010600 00000KT 2SM BR SKC TEMPO 0110/0114 1/4SM FG VV002 FM011400 00000KT P6SM SKC", "KGBD 311735Z 3118/0118 22006KT P6SM FEW250 FM312300 17007KT P6SM FEW250 FM011700 20014G22KT P6SM SKC", "KGCC 311720Z 3118/0118 20008KT P6SM BKN250 FM011500 19010G20KT P6SM FEW250", "KGCK 311720Z 3118/0118 21008KT P6SM SKC", "KGCN 311740Z 3118/0118 08007KT P6SM SKC FM010230 17005KT P6SM SKC FM011700 20010G17KT P6SM SCT150", "KGDV 311720Z 3118/0118 20010KT P6SM FEW070 FM312100 25010KT P6SM FEW100 FM010000 VRB06KT P6SM SCT120", "KGEG 311734Z 3118/0118 21010G20KT P6SM FEW025 SCT060 BKN090 FM010300 21014KT P6SM VCSH OVC030 FM010600 22011KT P6SM VCSH OVC040 FM010800 22007KT P6SM VCSH OVC020 FM011100 24005KT 2SM BR VCSH OVC010", "TAF KGFA 311158Z 3112/0118 22015G25KT 9999 FEW080 SCT090 510003 QNH2972INS BECMG 3115/3116 24020G30KT 9999 FEW090 SCT100 520004 QNH2965INS TEMPO 3117/3121 25025G35KT 530005 BECMG 3123/3124 23015G25KT 9999 FEW080 520004 QNH2967INS BECMG 0103/0104 22012G18KT 9999 FEW060 FEW080 510003 QNH2954INS TX17/3121Z TN06/0110Z", "KGFK 311720Z 3118/0118 24011KT P6SM BKN250 FM312300 VRB06KT P6SM BKN250", "KGFL 311730Z 3118/0118 19005KT P6SM SCT150 BKN250 FM312200 VRB02KT P6SM BKN100 FM010300 19004KT P6SM VCSH BKN040 PROB30 0112/0118 4SM -SHRA BR BKN020", "KGGG 311720Z 3118/0118 VRB03KT P6SM FEW280 FM010000 VRB03KT P6SM FEW250 FM011500 15004KT P6SM BKN250", "KGGW 311720Z 3118/0118 20009KT P6SM FEW050 FM312100 25012KT P6SM FEW045 FM010000 VRB06KT P6SM FEW070 FM011500 12010KT P6SM BKN200", "KGJT 311720Z 3118/0118 16008KT P6SM SKC FM311930 34005KT P6SM SKC FM010300 07003KT P6SM SKC FM010600 11007KT P6SM SKC", "KGKY 311728Z 3118/0118 14005KT P6SM SCT250 FM010600 15007KT P6SM SCT190 BKN250", "KGLH 311720Z 3118/0118 29008KT P6SM SCT040", "KGLS 311720Z 3118/0118 35006KT P6SM SCT250 FM312100 11007KT P6SM BKN250 FM010000 VRB03KT P6SM BKN100 FM011200 08006KT P6SM VCSH BKN045 OVC150", "KGMU 311738Z 3118/0118 03005KT P6SM SCT004 BKN014 TEMPO 3118/3121 5SM -SHRA BR OVC004 FM312200 02003KT 5SM BR VCSH OVC007 FM010400 VRB03KT 6SM BR OVC003 FM010800 VRB03KT 1/2SM FG OVC002 FM011100 29003KT 1SM BR BKN004 FM011500 34003KT P6SM FEW200", "KGNV 311722Z 3118/0118 VRB02KT P6SM SCT030 BKN150 FM312100 22005KT P6SM VCSH SCT035 BKN120 FM010000 VRB03KT P6SM SCT035 BKN100 FM010500 00000KT 5SM BR BKN250 FM010700 00000KT 4SM BR FEW002 SCT250 FM011000 33002KT 1/2SM FG FEW250 FM011400 36005KT P6SM SCT250", "KGON 311935Z 3120/0118 19007KT P6SM BKN035 FM312300 VRB04KT P6SM SCT025 BKN040 FM010300 VRB04KT P6SM BKN020 FM010700 VRB04KT 6SM -SHRA BR OVC009 FM011000 22005KT 4SM -SHRA OVC006 FM011500 24006KT 6SM BR VCSH OVC015", "KGPI 311721Z 3118/0118 18010G15KT P6SM VCSH OVC040 FM010000 19011G18KT P6SM -RA OVC035 FM010400 17008KT P6SM VCSH OVC040", "KGPT 311720Z 3118/0118 VRB04KT P6SM SCT040 BKN250", "KGRB 311734Z 3118/0118 23003KT P6SM SCT250 FM011500 23007KT P6SM SCT250", "TAF AMD KGRF 311505Z 3115/0119 14012G18KT 9999 -RA BKN035 OVC065 620709 520009 QNH2981INS BECMG 3118/3119 15013G23KT 9999 NSW SCT035 BKN200 520009 QNH2980INS BECMG 3121/3122 17010G16KT 9999 BKN045 BKN200 620454 520009 QNH2984INS BECMG 0100/0101 14009KT 9999 SCT050 BKN170 QNH2974INS BECMG 0111/0112 VRB03KT 9000 BR BKN110 QNH2972INS BECMG 0113/0114 VRB03KT 8000 BR BKN015 BKN100 QNH2973INS BECMG 0117/0118 20004KT 9999 NSW BKN020 QNH2972INS TX12/3122Z TN06/0113Z", "KGRI 311720Z 3118/0118 22010KT P6SM SKC FM011100 21005KT P6SM SKC FM011600 19011KT P6SM SKC", "TAF KGRK 311557Z 3116/0122 VRB06KT 9999 BKN250 QNH2998INS BECMG 3120/3121 12006KT 9999 BKN150 QNH2996INS BECMG 0108/0109 VRB06KT 9999 VCSH SCT030 BKN150 QNH3006INS BECMG 0115/0116 15009KT 9999 NSW SKC QNH3011INS TX25/3121Z TN13/0113Z", "KGRR 311725Z 3118/0118 09003KT 2SM -DZ BR OVC003 FM311900 VRB03KT P6SM VCSH BKN007 OVC015 FM010600 25003KT 3/4SM BR OVC005 FM011600 25007KT 5SM BR BKN009", "TAF AMD KGSB 311300Z 3113/0118 15009KT 9999 FEW005 SCT050 BKN100 QNH2999INS BECMG 0101/0102 18012G18KT 4800 -DZ BR BKN015 OVC050 QNH3000INS BECMG 0110/0111 23012G18KT 3200 -RA BR BKN008 OVC030 QNH3002INS TEMPO 0114/0118 26012G18KT 1600 -TSRA BKN005CB TX23/3118Z TN11/3113Z", "KGSO 311733Z 3118/0118 VRB04KT P6SM VCSH SCT009 BKN015 BKN035 TEMPO 3119/3123 BKN009 OVC015 FM312300 VRB04KT 6SM BR VCSH BKN008 TEMPO 3123/0103 5SM -SHRA BR OVC005 FM010300 VRB03KT 3SM BR OVC004 FM011200 VRB03KT 5SM BR BKN010 FM011400 VRB03KT P6SM SCT015", "KGSP 311738Z 3118/0118 03003KT P6SM SCT004 BKN016 TEMPO 3118/3121 5SM -SHRA BR OVC004 FM312200 02003KT 5SM BR VCSH OVC007 FM010400 VRB03KT 6SM BR OVC003 FM010800 VRB03KT 1/2SM FG OVC002 FM011100 29003KT 1SM BR BKN004 FM011500 34003KT P6SM FEW200", "TAF KGTB 311700Z 3117/0123 20005KT 9999 BKN110 QNH2992INS BECMG 3118/3119 16006KT 9999 OVC040 QNH2991INS BECMG 3123/0100 19008KT 9000 -RA OVC010 QNH2992INS BECMG 0101/0102 20009KT 9999 NSW OVC010 QNH2992INS BECMG 0110/0111 20007KT 9000 -RA OVC010 QNH2995INS BECMG 0121/0122 20007KT 9999 NSW OVC005 QNH3008INS TX16/3118Z TN11/0100Z", "KGTF 311720Z 3118/0118 22018G28KT P6SM BKN080 FM312100 24022G32KT P6SM SCT080 BKN130 FM010200 22014G22KT P6SM BKN250 FM010900 21009KT P6SM SCT250", "KGTR 311901Z 3119/0118 28006KT P6SM BKN035 OVC060 FM010900 00000KT 4SM BR SCT040 SCT250 FM011300 01003KT P6SM SCT250", "KGUC 311720Z 3118/0118 VRB03KT P6SM SKC", "KGUP 311727Z 3118/0118 VRB04KT P6SM SKC FM312000 26006KT P6SM SKC FM010200 VRB03KT P6SM SKC FM011200 VRB03KT P6SM SCT250", "TAF KGUR 311300Z 3113/0119 VRB06KT 9999 SKC QNH2994INS BECMG 3117/3118 VRB06KT 9999 SKC QNH2989INS BECMG 0105/0106 VRB06KT 9999 SKC QNH2995INS BECMG 0118/0119 22010G15KT 9999 SKC QNH2989INS TX20/3122Z TNM03/3113Z", "TAF AMD KGUS 311802Z 3118/0119 22012G18KT 6000 BR FEW003 BKN012 OVC020 QNH2978INS TEMPO 3118/3121 2400 -SHRA BR BKN002 BKN008 OVC030 BECMG 3123/3124 22009KT 4800 -DZ BR OVC004 QNH2986INS BECMG 0111/0112 VRB06KT 8000 BR SCT004 BKN010 QNH3010INS TX16/3119Z TN11/0112Z", "KGUY 311720Z 3118/0118 21012G22KT P6SM SKC FM010000 18010KT P6SM SKC FM011500 22015G26KT P6SM SKC", "KGWO 311729Z 3118/0118 24004KT P6SM SCT020 BKN030 FM312000 29006KT P6SM SCT250", "KGYY 311727Z 3118/0118 VRB03KT 2SM -RA BR BKN005 OVC010 FM312200 36003KT 5SM -DZ BR OVC006 FM010200 26003KT 6SM BR FEW010 SCT100 FM010500 26003KT 2SM BR BCFG FEW003 FM011300 24006KT P6SM SKC", "KHBG 311720Z 3118/0118 28005KT P6SM BKN040 FM010900 00000KT 4SM BR SCT025 FM011300 05003KT P6SM SCT250", "KHCR 311720Z 3118/0118 VRB04KT P6SM FEW250 FM312000 23009KT P6SM SCT200 FM010200 VRB04KT P6SM SCT150 BKN200", "KHDC 311720Z 3118/0118 VRB04KT P6SM BKN250", "KHDN 311720Z 3118/0118 VRB04KT P6SM FEW250 FM311900 27007KT P6SM FEW250 FM010100 20005KT P6SM SKC FM010500 10008KT P6SM SKC", "KHIB 311726Z 3118/0118 23009G18KT P6SM FEW250 FM312200 22006KT P6SM SCT240 FM010600 VRB02KT P6SM SKC", "KHIE 311725Z 3118/0118 VRB03KT P6SM BKN200 FM011200 VRB03KT P6SM BKN040", "TAF KHIF 311300Z 3113/0119 11012KT 9999 FEW200 QNH3013INS BECMG 3118/3119 21006KT 9999 FEW080 FEW150 QNH3002INS BECMG 0102/0103 12012G20KT 9999 BKN120 QNH2988INS TX15/3122Z TN03/3113Z", "KHIO 311743Z 3118/0118 20006KT 6SM -RA BR BKN009 OVC030 FM311900 VRB03KT 5SM -RADZ BR OVC015 FM010200 29006KT P6SM VCSH SCT025 BKN040 FM010800 00000KT 5SM MIFG BR FEW001 SCT035", "KHKS 311720Z 3118/0118 28007KT P6SM SCT025 SCT250 FM010900 00000KT 4SM BR SCT035 FM011300 06003KT P6SM SCT250", "KHKY 311738Z 3118/0118 VRB02KT 3SM -RA BR OVC004 TEMPO 3118/3120 1 1/2SM +RA BKN004 OVC014 FM312300 00000KT P6SM VCSH OVC003 FM010700 VRB02KT 1/2SM FG OVC002 FM011100 VRB02KT 1SM BR BKN003 FM011400 32003KT P6SM SCT004", "KHLG 311732Z 3118/0118 21008KT P6SM OVC008 FM311900 20007KT P6SM OVC013 FM312100 19006KT P6SM OVC022 FM312300 18003KT P6SM OVC040 FM010100 19003KT P6SM BKN060 FM010900 22004KT P6SM VCSH OVC014", "KHLN 311720Z 3118/0118 22009KT P6SM SCT060 BKN080 FM312000 25016G24KT P6SM SCT080 BKN120 FM010300 22008KT P6SM SCT120 SCT250 FM011700 18012G20KT P6SM BKN250", "TAF KHMN 311700Z 3117/0123 VRB06KT 9999 FEW240 QNH3003INS BECMG 3118/3119 28009KT 9999 SKC QNH3001INS BECMG 0101/0102 VRB06KT 9999 SKC QNH3004INS TX21/3122Z TN04/0113Z LAST NO AMDS AFT 3117 NEXT 0109", "KHNB 311743Z 3118/0118 23011KT P6SM VCSH BKN012 FM312200 25009KT P6SM BKN025 FM011400 25004KT P6SM SKC", "KHND 311731Z 3118/0118 03006KT P6SM SCT250 FM010300 19007KT P6SM SCT150 BKN250 FM011700 20014G22KT P6SM SCT150 BKN250", "KHOB 311724Z 3118/0118 15008KT P6SM BKN250", "KHON 311720Z 3118/0118 21006KT P6SM SCT250 FM010300 16003KT P6SM FEW250", "TAF KHOP 311600Z 3116/0122 20010G15KT 9999 BKN020 QNH2995INS TEMPO 3116/3118 BKN009 BECMG 3123/3124 26003KT 9999 BKN070 QNH2993INS BECMG 0113/0114 30005KT 9999 FEW050 QNH3014INS TX17/0116Z TN14/0110Z", "KHOT 311720Z 3118/0118 26006KT P6SM FEW250 FM312300 VRB04KT P6SM FEW250", "KHOU 311720Z 3118/0118 VRB03KT P6SM BKN250 FM312000 11007KT P6SM SCT045 BKN250 FM010100 VRB03KT P6SM SCT050 BKN250 FM011400 10005KT P6SM VCSH SCT030 OVC090", "KHPN 311935Z 3120/0118 VRB05KT P6SM FEW035 BKN150 FM010200 VRB03KT P6SM VCSH BKN040 OVC100 FM010600 VRB03KT 6SM -SHRA BR BKN015 OVC040 FM011000 VRB03KT 4SM -SHRA BR OVC007 FM011300 VRB04KT 6SM BR VCSH OVC015 FM011700 24005KT P6SM OVC025 AMD NOT SKED", "KHQM 311720Z 3118/0118 25009KT P6SM -SHRA BKN040 OVC060 FM312000 27008KT P6SM VCSH SCT020 BKN060 FM010000 VRB04KT P6SM VCSH SCT060 BKN200 FM011200 07005KT P6SM BKN050", "KHRL 311743Z 3118/0118 11014KT P6SM OVC060 FM312100 09014KT P6SM VCSH SCT035 OVC060 FM010200 08008KT P6SM -SHRA SCT025 OVC060 PROB30 0103/0109 4SM TSRA BR BKN025CB FM010900 13005KT P6SM -SHRA SCT025 BKN060 OVC090 PROB30 0109/0115 4SM TSRA BR BKN025CB FM011500 17009KT P6SM -SHRA OVC035 PROB30 0115/0118 4SM TSRA BR BKN025CB", "KHRO 311720Z 3118/0118 28008KT P6SM FEW250 FM312300 VRB04KT P6SM SKC", "TAF KHRT 311800Z 3118/0124 30009KT 9999 FEW030 SCT250 QNH2995INS BECMG 0101/0102 35006KT 9999 FEW250 QNH3000INS BECMG 0117/0118 03006KT 9999 SCT050 SCT250 QNH3010INS TX24/3120Z TN13/0111Z", "TAF KHST 311900Z 3119/0201 11012KT 9999 FEW018 SCT025 SCT045 QNH2989INS BECMG 3123/3124 07007KT 9999 SCT025 SCT045 QNH2989INS BECMG 0114/0115 10012KT 9999 SCT025 SCT045 QNH2998INS BECMG 0123/0124 08007KT 9999 FEW018 SCT025 SCT025 QNH3002INS TX30/3119Z TN23/0110Z", "KHSV 311720Z 3118/0118 22007KT P6SM OVC025 FM312000 24007KT P6SM BKN040 FM011000 00000KT 6SM BR BKN010 FM011300 VRB04KT P6SM SCT250", "KHTS 311859Z 3119/0118 18007KT P6SM VCSH FEW024 BKN040 TEMPO 3119/3120 4SM -RA BKN025 FM312000 20006KT P6SM OVC035 FM010700 22004KT P6SM BKN030 FM011000 23004KT P6SM BKN017 FM011600 27005KT P6SM BKN022", "TAF KHUA 311200Z 3112/0118 VRB06KT 9000 BR OVC050 QNH2998INS BECMG 3115/3116 VRB06KT 9999 NSW OVC035 QNH2995INS BECMG 0106/0107 VRB06KT 9999 BKN008 QNH3008INS BECMG 0116/0117 VRB06KT 8000 BR SCT008 QNH3021INS TX18/3121Z TN13/0111Z", "KHUF 311720Z 3118/0118 23008KT P6SM VCSH OVC010 FM010500 26004KT P6SM BKN027 FM010800 26003KT 6SM BR BKN035 FM011100 27003KT 3SM BR BCFG BKN035 FM011400 25004KT P6SM BKN050", "KHUL 311720Z 3118/0118 20003KT P6SM FEW150 FM010500 VRB02KT 6SM BR SCT007 BKN090 FM010700 VRB02KT 6SM BR BKN007 FM011400 22004KT P6SM SCT012 BKN050", "KHUM 311720Z 3118/0118 VRB04KT P6SM BKN250", "KHUT 311735Z 3118/0118 25006KT P6SM FEW250 FM312200 18007KT P6SM FEW250 FM011600 20015G23KT P6SM SKC", "KHVR 311720Z 3118/0118 22016G24KT P6SM BKN090 FM312000 25020G28KT P6SM BKN090 FM010100 25015KT P6SM SCT090 BKN130 FM011100 VRB06KT P6SM BKN130 FM011700 06009KT P6SM BKN060", "KHYA 311720Z 3118/0118 18005KT P6SM BKN020 FM010500 22005KT P6SM VCSH BKN020 FM011100 22006KT P6SM VCSH OVC008 FM011300 22007KT 5SM BR VCSH OVC003 FM011600 23008KT 5SM BR OVC010", "KHYR 311726Z 3118/0118 23005KT P6SM SKC FM312300 21005KT P6SM FEW240 FM010800 VRB03KT P6SM SKC", "KHYS 311720Z 3118/0118 22007KT P6SM SKC", "TAF KIAB 311800Z 3118/0124 30006KT 9999 SCT250 QNH2994INS BECMG 3120/3121 23006KT 9999 SCT250 QNH2994INS BECMG 0115/0116 19010G20KT 9999 SKC QNH3004INS BECMG 0122/0123 17009KT 9999 SKC QNH3004INS TX22/3122Z TN10/0112Z", "KIAD 311747Z 3118/0124 19009KT P6SM SCT020 BKN070 FM311830 18008KT P6SM -SHRA SCT020 OVC070 FM010300 19004KT P6SM -SHRA OVC020 FM010800 19003KT 3SM BR SCT004 OVC008 FM011300 00000KT P6SM BKN010 FM011500 32008KT P6SM BKN035", "KIAG 311720Z 3118/0118 16005KT P6SM VCSH OVC015 TEMPO 3118/3121 4SM -SHRA BR OVC008 FM010000 19006KT P6SM VCSH OVC020 FM010300 20007KT P6SM OVC035 FM010600 21008KT P6SM BKN040 FM010800 22008KT P6SM VCSH OVC015", "KIAH 311720Z 3118/0124 VRB03KT P6SM BKN250 FM312000 11005KT P6SM SCT040 BKN250 FM010000 VRB04KT P6SM SCT050 BKN250 FM011500 11006KT P6SM VCSH SCT050 OVC110 FM012200 11007KT P6SM SCT040 OVC100", "KICT 311735Z 3118/0118 30005KT P6SM FEW250 FM312300 18005KT P6SM FEW250 FM011500 19014G20KT P6SM FEW250", "KIDA 311720Z 3118/0118 21007KT P6SM SCT180 FM010800 VRB06KT P6SM SCT080 BKN120 FM011700 19010G18KT P6SM SCT080 BKN120", "KIFP 311731Z 3118/0118 36017G25KT P6SM SCT250 FM312200 35010KT P6SM BKN250 FM010300 VRB05KT P6SM SCT150 BKN250 FM011700 19007KT P6SM BKN250", "KILG 311728Z 3118/0118 VRB03KT P6SM OVC025 FM010200 VRB03KT 3SM -SHRA BR OVC015 FM010600 VRB02KT 3SM -SHRA BR OVC008 FM010900 VRB02KT 2SM BR OVC005 FM011500 VRB02KT 5SM BR OVC008", "KILM 311730Z 3118/0118 11005KT P6SM SCT025 BKN050 TEMPO 3118/3121 BKN023 FM010000 12004KT P6SM BKN060 FM010600 17004KT P6SM VCSH BKN060 FM011300 23006KT P6SM SCT040 OVC100", "KILN 311858Z 3119/0118 21011G19KT P6SM VCSH SCT025 BKN050 FM010200 22007KT P6SM VCSH OVC018 FM010700 24006KT 5SM BR OVC009 FM011400 26007KT P6SM OVC011 FM011700 28007KT P6SM BKN022", "KIND 311720Z 3118/0124 21009KT P6SM VCSH SCT007 OVC011 FM010500 25005KT P6SM OVC007 FM010700 26005KT P6SM OVC011 FM011300 26005KT 6SM BR BKN020 FM011600 26005KT P6SM SCT110", "KINK 311724Z 3118/0118 12009KT P6SM BKN250", "KINL 311726Z 3118/0118 22010G19KT P6SM SCT250 FM312200 24006KT P6SM SCT250 FM010600 VRB03KT P6SM SKC", "TAF KINS 3113/0119 VRB06KT 9999 SKC QNH3001INS BECMG 3117/3118 14009KT 9999 SCT210 QNH2999INS BECMG 0104/0105 VRB06KT 9999 FEW180 BKN210 QNH2991INS BECMG 0114/0115 15009KT 9999 OVC110 QNH2993INS BECMG 0117/0118 21010G19KT 9999 SCT090 BKN130 QNH2990INS TX22/3123Z TN03/3113Z", "KINT 311909Z 3119/0118 VRB04KT 5SM -SHRA BR BKN003 OVC015 TEMPO 3119/3123 2SM SHRA BR SCT003 SCT015 OVC030 FM312300 VRB04KT 6SM BR VCSH BKN008 TEMPO 3123/0102 5SM -SHRA BR OVC005 FM010200 VRB03KT 3SM BR OVC004 FM011200 VRB03KT 5SM BR BKN010 FM011400 VRB03KT P6SM SCT015", "KINW 311740Z 3118/0118 VRB05KT P6SM SKC FM011700 17008G15KT P6SM FEW200", "KIPL 311722Z 3118/0118 VRB04KT P6SM SKC FM311900 12004KT P6SM FEW250 FM010400 23005KT P6SM BKN250", "KIPT 311744Z 3118/0118 10004KT P6SM VCSH OVC050 FM010500 07005KT P6SM -SHRA OVC025 FM010700 06005KT 5SM BR OVC018", "KISM 311720Z 3118/0118 10007KT P6SM SCT035 FM010100 09004KT P6SM FEW040 FEW200 FM010800 00000KT 6SM BR FEW010 FM011400 07006KT P6SM SCT030", "KISO 311720Z 3117/0118 16005KT P6SM SCT150 FM312000 16004KT P6SM BKN080 FM010800 VRB03KT P6SM BKN040 FM011100 20004KT 5SM BR BKN007 FM011400 22004KT P6SM BKN015 AMD LTD TO CLD VIS AND WIND", "KISP 311935Z 3120/0118 21006KT P6SM SCT030 BKN120 FM312300 VRB04KT P6SM FEW020 BKN040 FM010200 VRB04KT P6SM VCSH BKN020 FM010600 VRB03KT 6SM -SHRA BR BKN015 OVC040 FM010900 21005KT 4SM -SHRA OVC007 FM011400 22007KT 6SM -SHRA SCT007 BKN015", "KITH 311730Z 3118/0118 15008KT P6SM VCSH FEW040 BKN080 FM010300 17005KT P6SM BKN026 FM011100 VRB03KT P6SM BKN019", "KIWA 311722Z 3118/0118 15005KT P6SM SKC FM312100 26005KT P6SM SKC FM010400 10007KT P6SM SCT250", "KIWD 311726Z 3118/0118 25006KT P6SM SKC FM312100 22006KT P6SM SKC", "KIXD 311720Z 3118/0118 28007KT P6SM SKC FM010500 17006KT P6SM SKC", "KJAC 311722Z 3118/0118 22007KT P6SM SCT140 FM010400 19006KT P6SM SCT200 FM011700 20015G25KT P6SM SCT100 BKN150", "KJAN 311720Z 3118/0118 25006KT P6SM BKN050 FM010900 00000KT 4SM BR SCT035 FM011300 06003KT P6SM SCT250", "KJAX 311722Z 3118/0118 15007KT P6SM SCT030 BKN060 OVC150 FM312000 15008KT P6SM VCSH SCT035 BKN120 FM010000 VRB04KT P6SM SCT035 BKN100 FM010400 00000KT 4SM BR FEW015 SCT250 FM010800 31002KT 1 1/2SM BR BKN004 FM011230 34003KT P6SM FEW020 SCT035 BKN060", "KJBR 311736Z 3118/0118 26008KT P6SM SCT020 BKN035 FM312000 26008KT P6SM BKN250 FM010100 24002KT P6SM SKC FM011300 22004KT P6SM FEW250", "KJCT 311738Z 3118/0118 VRB05KT P6SM BKN250 FM010600 VRB05KT P6SM VCSH BKN200 FM011200 09002KT P6SM VCSH OVC100 PROB30 0112/0116 6SM -SHRA BR BKN040 OVC080", "KJEF 311739Z 3118/0118 30006KT P6SM SCT100 FM312300 VRB04KT P6SM SKC", "KJER 311731Z 3118/0118 08006KT P6SM SCT200 FM010200 07011KT P6SM BKN200", "KJFK 311935Z 3120/0124 21008KT P6SM FEW040 BKN120 FM010100 21006KT P6SM VCSH BKN050 OVC100 FM010500 22006KT 6SM -SHRA BR BKN015 OVC040 FM010900 22006KT 4SM -SHRA BR OVC007 FM011400 22006KT 6SM BR VCSH OVC015 FM011800 24007KT P6SM OVC025 FM012000 27007KT P6SM FEW025 BKN040", "KJHW 311720Z 3118/0118 18008KT P6SM VCSH OVC012 FM311900 18008KT P6SM VCSH OVC007 FM312200 18007KT P6SM OVC012 FM010500 18004KT P6SM VCSH OVC007 FM010800 22004KT 4SM -SHRA BR OVC003 FM011400 24007KT P6SM VCSH OVC007", "KJKA 311720Z 3118/0118 00000KT P6SM BKN035 FM010300 VRB03KT P6SM FEW250 FM011400 03005KT P6SM SKC", "KJKL 311720Z 3118/0118 VRB05KT P6SM BKN035 FM010900 00000KT P6SM OVC015 FM011200 00000KT P6SM OVC010 FM011400 00000KT P6SM BKN015", "KJLN 311720Z 3118/0118 26005KT P6SM FEW250 FM312000 26007KT P6SM FEW250 FM010000 00000KT P6SM SKC FM011400 19005KT P6SM SKC", "KJMS 311731Z 3118/0118 27011KT P6SM BKN250 FM312000 26010KT P6SM SCT250 FM010100 23005KT P6SM FEW250 FM010900 20006KT P6SM BKN250 FM011600 18007KT P6SM BKN250", "KJST 311744Z 3118/0118 21009KT P6SM BKN007 OVC012 FM312100 19007KT P6SM OVC030 FM010500 18006KT 5SM -SHRA OVC015 FM010800 21006KT 3SM BR OVC009", "KJVL 311720Z 3118/0118 VRB03KT P6SM SCT250 FM010000 VRB03KT P6SM SKC FM011500 22005KT P6SM SKC", "KJXN 311725Z 3118/0118 21004KT P6SM VCSH OVC005 TEMPO 3119/3123 2SM SHRA BR OVC009 FM010400 25003KT 1 1/2SM -DZ BR OVC003 FM011500 26005KT 4SM BR BKN003 FM011600 27007KT P6SM FEW250", "KJZI 311728Z 3118/0118 18014KT P6SM FEW030 SCT040 BKN050 FM010800 VRB03KT P6SM BKN015 FM011000 00000KT 6SM BR BKN009 BKN020 TEMPO 0110/0113 3SM BR BKN004 OVC008 FM011330 VRB02KT P6SM BKN030 FM011500 30005KT P6SM SCT060", "KLAF 311720Z 3118/0118 22007KT 5SM SHRA BR OVC008 FM312100 24007KT 6SM SHRA BR OVC008 FM010000 25005KT P6SM OVC007 FM011000 25003KT 5SM BR SCT027 FM011700 24005KT P6SM SCT190", "KLAL 311739Z 3118/0118 12005KT P6SM SCT035 SCT250 FM312000 04004KT P6SM SCT040 SCT250 FM010400 00000KT P6SM FEW250 FM011100 00000KT 5SM BR SCT015 FM011300 05003KT P6SM FEW250", "KLAN 311725Z 3118/0118 VRB03KT 4SM -DZ BR OVC004 TEMPO 3119/3123 2SM SHRA BR OVC009 FM010600 25003KT 1 1/2SM -DZ BR OVC003 FM011500 26006KT 5SM BR SCT004", "KLAR 311737Z 3118/0118 27012G20KT P6SM SKC FM010000 24009KT P6SM SKC FM010400 18006KT P6SM SKC FM011500 23010KT P6SM SKC", "KLAS 311731Z 3118/0124 08006KT P6SM SCT250 FM010300 22006KT P6SM SCT150 BKN250 FM011700 19013G20KT P6SM SCT150 BKN250 FM012200 19020G30KT P6SM BKN250", "KLAW 311720Z 3118/0118 17006KT P6SM SCT250", "KLAX 311723Z 3118/0124 11003KT P6SM FEW007 SCT140 BKN250 FM312000 26010KT P6SM BKN250 FM010600 VRB03KT 5SM BR OVC010 FM010900 12006KT P6SM OVC015 FM011200 VRB03KT P6SM OVC020 FM012000 26012KT P6SM BKN035", "KLBB 311723Z 3118/0118 19008KT P6SM SCT250", "KLBE 311732Z 3118/0118 21010KT P6SM SCT015 OVC025 FM010600 22004KT P6SM OVC014 FM010800 22004KT P6SM VCSH BKN021 FM011500 25007KT P6SM BKN008", "KLBF 311720Z 3118/0118 25010KT P6SM FEW200 FM010000 VRB04KT P6SM FEW200 FM011600 18007KT P6SM FEW200", "KLBL 311720Z 3118/0118 21008KT P6SM SKC", "KLBT 311730Z 3118/0118 13008KT P6SM VCSH SCT025 BKN050 TEMPO 3118/3121 BKN025 FM010100 17005KT P6SM SCT030 BKN100 FM010700 23003KT 4SM BR VCSH SCT007 BKN200 FM010900 26003KT 2SM BR OVC002 FM011300 30006KT P6SM SCT007 BKN040 AMD NOT SKED", "KLBX 311720Z 3118/0118 10006KT P6SM SCT040 SCT250 FM010000 VRB03KT P6SM SCT040 BKN250 FM011100 VRB04KT P6SM VCSH BKN035 OVC110", "KLCH 311727Z 3118/0118 VRB04KT P6SM SCT040 SCT150 FM010000 00000KT P6SM SCT150 FM010700 00000KT 4SM BR SCT150 FM011400 10005KT P6SM OVC150", "KLCK 311732Z 3118/0118 20010KT P6SM VCSH SCT018 BKN045 FM010300 22005KT P6SM VCSH BKN022 FM010600 23005KT P6SM OVC015 FM011200 24004KT P6SM OVC011 FM011600 27006KT P6SM BKN015", "KLEB 311725Z 3118/0118 22004KT P6SM BKN200 FM011200 VRB03KT P6SM BKN040", "KLEE 311720Z 3118/0118 10009KT P6SM SCT035 FM010100 VRB04KT P6SM FEW040 FEW200 FM010800 00000KT 6SM BR FEW010 FM011400 07005KT P6SM SCT030", "KLEX 311743Z 3118/0118 20010KT P6SM BKN035 FM312200 21008KT P6SM VCSH BKN045 FM010500 22006KT P6SM BKN027 FM011200 23005KT P6SM BKN012", "TAF KLFI 311700Z 3117/0123 18006KT 9999 SCT050 BKN065 QNH3001INS BECMG 0106/0107 19006KT 9000 -SHRA BKN012 OVC019 QNH2999INS TEMPO 0109/0114 20015G20KT 8000 -TSRA BKN020CB OVC030 BECMG 0117/0118 34009KT 9999 NSW BKN030 QNH3001INS TX21/0116Z TN16/0105Z", "KLFK 311720Z 3118/0118 27004KT P6SM SKC FM010000 00000KT P6SM BKN250 FM011500 12005KT P6SM BKN250", "KLFT 311727Z 3118/0118 VRB05KT P6SM SCT040 SCT150 FM010000 00000KT P6SM SCT150 FM010700 00000KT 4SM BR SCT150 FM011400 10005KT P6SM OVC150", "KLGA 311935Z 3120/0124 22009KT P6SM FEW040 BKN120 FM010100 21006KT P6SM VCSH BKN050 OVC100 FM010500 22006KT 6SM -SHRA BR BKN015 OVC040 FM010900 22005KT 4SM -SHRA BR OVC008 FM011400 24005KT 6SM BR VCSH OVC015 FM011800 25006KT P6SM OVC025 FM012000 28007KT P6SM FEW025 BKN040", "KLGB 311723Z 3118/0118 00000KT P6SM SCT200 FM010000 29008KT P6SM BKN200 FM010600 VRB03KT 5SM BR OVC010 FM011200 VRB03KT P6SM OVC020", "KLGU 311720Z 3118/0118 VRB04KT P6SM SCT200 FM010400 VRB04KT P6SM SCT150 BKN200", "KLIT 311720Z 3118/0118 31007KT P6SM FEW250 FM312300 VRB03KT P6SM FEW250", "KLLQ 311720Z 3118/0118 VRB05KT P6SM FEW250", "KLMT 311744Z 3118/0118 VRB03KT P6SM SCT120 FM312200 25008KT P6SM BKN100 FM010800 18012G18KT P6SM VCSH BKN045 FM011200 20015G25KT 5SM -RA BKN025 OVC050", "KLND 311722Z 3118/0118 VRB06KT P6SM SCT200 FM010600 24007KT P6SM SCT170", "KLNK 311722Z 3118/0118 20009KT P6SM SKC", "KLNS 311744Z 3118/0118 20005KT P6SM VCSH SCT020 BKN035 OVC070 FM010500 12005KT 5SM -SHRA BR OVC025 FM010800 VRB05KT 2SM BR OVC015", "KLOZ 311720Z 3118/0118 22007KT P6SM OVC045 FM010500 00000KT P6SM BKN025 FM010900 00000KT P6SM OVC015 FM011100 00000KT P6SM OVC010 FM011600 27005KT P6SM BKN020", "KLRD 311739Z 3118/0118 10008KT P6SM BKN050 BKN250 FM312100 09007KT P6SM VCSH OVC050 FM010100 08006KT P6SM -RA SCT030 OVC050 TEMPO 0102/0106 4SM -TSRA BKN025CB FM010600 VRB05KT P6SM -RA BKN025 TEMPO 0106/0110 4SM -TSRA OVC015CB FM011100 03007KT 5SM -RA BR OVC020", "TAF KLRF 311500Z 3115/0121 25009KT 9999 SCT060 QNH2998INS BECMG 3117/3118 26009KT 9999 FEW080 QNH2995INS BECMG 0103/0104 21006KT 9999 SKC QNH3005INS TX20/3120Z TN09/0112Z", "KLRU 311723Z 3118/0118 35005KT P6SM FEW200 FM312000 23005KT P6SM SKC", "KLSE 311720Z 3118/0118 26003KT P6SM SKC FM010500 19005KT P6SM FEW250", "TAF KLSF 311300Z 3113/0119 19003KT 9999 FEW006 SCT012 BKN018 BKN040 QNH2996INS TEMPO 3113/3115 8000 BR SCT006 BKN012 BECMG 3114/3115 24005KT 9999 SCT015 BKN035 QNH2995INS TEMPO 3115/3117 BKN015 BECMG 3117/3118 25007KT 9999 FEW040 QNH2994INS BECMG 0100/0101 29003KT 8000 BR FEW020 QNH3003INS BECMG 0102/0103 31002KT 4800 BR SKC QNH3005INS BECMG 0107/0108 00000KT 1600 BR SKC QNH3006INS TEMPO 0108/0112 0800 FG BECMG 0112/0113 35007KT 9999 NSW SCT250 QNH3013INS TX26/3120Z TN10/0111Z", "TAF KLSV 311500Z 3115/0121 VRB06KT 9999 FEW250 QNH3006INS BECMG 3118/3119 08009KT 9999 SCT250 QNH3004INS BECMG 0102/0103 VRB06KT 9999 BKN250 QNH2989INS TX25/3123Z TN10/0114Z", "TAF KLTS 311700Z 3117/0123 VRB06KT 9999 FEW250 QNH2995INS BECMG 0100/0101 18006KT 9999 FEW250 QNH2999INS BECMG 0115/0116 19010G15KT 9999 SKC QNH3006INS TX23/3121Z TN10/0112Z", "TAF KLUF 311200Z 3112/0118 VRB06KT 9999 SKC QNH2990INS BECMG 0112/0113 VRB06KT 9999 FEW150 SCT200 QNH2993INS TX27/3123Z TN11/3113Z", "KLUK 311732Z 3118/0118 21009KT P6SM VCSH BKN025 FM010500 24005KT P6SM BKN015 FM010800 24004KT 3SM BR BKN011 FM011100 25004KT 3SM BR BKN009 FM011400 27006KT P6SM BKN011 FM011600 27006KT P6SM BKN025", "KLVK 311732Z 3118/0118 VRB03KT P6SM BKN250 FM312300 29008KT P6SM BKN250 FM010500 VRB05KT P6SM BKN012 FM011700 21006KT P6SM VCSH BKN012", "KLVM 311729Z 3118/0118 22028G40KT P6SM BKN080 FM010300 20030G45KT P6SM SCT080 BKN200 FM011600 20028G38KT P6SM FEW100 SCT200", "KLVS 311727Z 3118/0118 20009KT P6SM SKC FM312000 19012G20KT P6SM SKC FM010200 20007KT P6SM SKC FM010600 VRB05KT P6SM SKC", "KLWB 311740Z 3118/0118 VRB03KT 4SM -RA BR OVC003 FM010000 00000KT 6SM BR OVC009 FM010900 00000KT 4SM BR OVC005 FM011300 VRB03KT 6SM BR OVC010 FM011500 29006KT P6SM BKN020", "KLWS 311734Z 3118/0118 00000KT P6SM VCSH OVC070 FM010000 24005KT P6SM -RA OVC040 FM010700 25006KT 5SM -RA OVC025 FM011400 29004KT 4SM -RA BR OVC015", "KLWT 311720Z 3118/0118 23022G32KT P6SM BKN090 FM312000 26020G28KT P6SM SCT090 BKN130 FM010100 22011KT P6SM BKN250 FM011700 19010G18KT P6SM BKN250", "KLYH 311740Z 3118/0118 20006KT 5SM -RA BR OVC007 TEMPO 3118/3122 2SM SHRA BR SCT007 OVC020 FM010000 00000KT 3SM BR OVC006 FM010600 00000KT 2SM BR OVC004 FM010900 00000KT 1 1/2SM BR OVC004 FM011300 VRB03KT 2SM BR SCT023 FM011500 27004KT P6SM SCT025", "KMAF 311724Z 3118/0118 16008KT P6SM BKN250 FM011200 18005KT P6SM SCT012", "KMBG 311724Z 3118/0118 23006KT P6SM SCT250 FM010000 VRB05KT P6SM SKC FM011600 15008KT P6SM SKC", "KMBL 311733Z 3118/0118 10004KT P6SM FEW120 FM010500 00000KT 1SM BR FEW250 TEMPO 0108/0112 1/2SM FG VV002 FM011400 18004KT P6SM SCT210", "KMBS 311720Z 3118/0118 VRB03KT 5SM BR SCT015 BKN025 OVC035 FM010600 28003KT P6SM FEW020 BKN040 FM011100 24005KT P6SM FEW030", "KMCB 311720Z 3118/0118 VRB03KT P6SM BKN250", "KMCC 311733Z 3118/0118 VRB05KT P6SM SCT250 FM010800 15007KT P6SM BKN050 OVC100 FM011700 17011KT P6SM -RA OVC015", "KMCE 311730Z 3118/0118 VRB04KT P6SM BKN200", "TAF KMCF 311700Z 3117/0123 VRB06KT 9999 SCT050 QNH2989INS BECMG 0108/0109 VRB06KT 9999 BKN009 QNH2997INS BECMG 0112/0113 03009KT 9999 SCT010 BKN020 QNH2999INS TX30/3120Z TN19/0110Z", "KMCI 311720Z 3118/0118 29007KT P6SM SKC FM010700 17005KT P6SM SKC", "KMCK 311720Z 3118/0118 27008KT P6SM SKC FM312200 21008KT P6SM SKC FM011700 17012KT P6SM SKC", "KMCN 311736Z 3118/0118 20006KT P6SM VCSH BKN030 OVC050 FM312100 24005KT P6SM BKN040 FM010000 VRB03KT P6SM SCT030 SCT050 BKN150 FM010700 00000KT P6SM OVC015 FM011400 33004KT P6SM OVC015", "KMCO 311720Z 3118/0124 11007KT P6SM SCT035 FM010100 11005KT P6SM FEW040 FEW200 FM010800 06003KT 6SM BR FEW010 FM011300 07006KT P6SM SCT030", "KMCW 311721Z 3118/0118 30005KT P6SM SKC FM011600 20010KT P6SM SKC", "KMDT 311744Z 3118/0118 00000KT P6SM VCSH SCT025 BKN035 OVC110 FM010400 08005KT 5SM -SHRA BR OVC025 FM010700 VRB05KT 2SM BR OVC015", "KMDW 311727Z 3118/0124 01003KT 4SM BR OVC005 FM312000 36003KT 3SM -DZ BR OVC006 FM312300 34005KT P6SM BKN010 BKN080 FM010100 27004KT 6SM BR FEW010 SCT100 FM010500 26003KT 3SM BR BCFG FEW003 FM011300 24006KT P6SM SKC", "KMEI 311720Z 3118/0118 22005KT P6SM SCT040 BKN050 FM010900 00000KT 3SM BR SCT025 FM011300 04003KT P6SM SCT250", "KMEM 311823Z 3118/0124 27008KT P6SM SCT015 BKN025 OVC040 FM312000 27007KT P6SM SCT025 BKN050 FM010100 29003KT P6SM FEW250 FM010700 24002KT P6SM SKC FM011200 21004KT P6SM FEW250", "KMER 311730Z 3118/0118 VRB04KT P6SM BKN200", "KMEV 311739Z 3118/0118 VRB03KT P6SM BKN250 FM312000 28008KT P6SM FEW110 BKN220 FM010200 12006KT P6SM SCT110 BKN200 FM010600 18009KT P6SM SCT110 BKN180 WS020/21035KT FM011700 21018G28KT P6SM BKN100 OVC150 WS020/22045KT", "KMFD 311722Z 3118/0118 21010KT P6SM -SHRA BKN035 FM311900 21010KT P6SM VCSH BKN035 FM010400 22005KT P6SM VCSH BKN015 FM011100 25005KT P6SM OVC008 FM011600 25005KT P6SM OVC010", "KMFE 311743Z 3118/0118 09012KT P6SM OVC060 FM312000 09012KT P6SM VCSH BKN035 OVC060 FM312300 09011KT P6SM VCSH OVC028 FM010200 08008KT P6SM -SHRA OVC022 PROB30 0103/0109 4SM TSRA BR BKN025CB FM010900 08005KT P6SM -SHRA BKN010 OVC030 PROB30 0109/0115 4SM TSRA BR BKN025CB FM011500 11007KT P6SM -SHRA SCT010 OVC030", "KMFR 311744Z 3118/0118 VRB03KT P6SM SCT250 FM312300 30004KT P6SM SCT050 BKN150 FM010500 17008KT P6SM SCT050 OVC080 FM011000 VRB04KT 5SM RA BKN025 OVC050", "TAF AMD KMGE 311815Z 3118/0119 VRB05KT 9999 BKN018 BKN035 QNH2995INS BECMG 3118/3119 28007KT 9999 BKN027 BKN040 QNH2992INS BECMG 0102/0103 29005KT 9999 BKN100 QNH3003INS BECMG 0115/0116 32005KT 9999 SCT060 QNH3018INS TX20/3122Z TN11/0112Z", "KMGM 311720Z 3118/0118 26005KT P6SM FEW070 FM010800 00000KT 4SM BR SCT050 FM011000 00000KT 1SM BR SCT100 FM011300 00000KT 4SM BR SCT110 FM011400 VRB04KT P6SM FEW110", "KMGW 311732Z 3118/0118 21007KT P6SM OVC013 FM312300 20005KT P6SM OVC022 FM010100 18003KT P6SM OVC017 FM010500 21003KT P6SM BKN025 FM010800 22003KT P6SM BKN015 FM011300 22003KT P6SM VCSH BKN009", "KMHK 311720Z 3118/0118 27005KT P6SM FEW200 FM011500 19007KT P6SM FEW080", "KMHR 311733Z 3118/0118 VRB04KT P6SM SCT250 FM010800 17008KT P6SM BKN050 OVC100 FM011700 17011KT P6SM -RA OVC015", "KMHT 311801Z 3118/0118 20008KT P6SM BKN200 FM010900 25004KT P6SM VCSH BKN040", "KMIA 311720Z 3118/0124 10008KT P6SM VCSH SCT025 SCT100 FM312100 10010KT P6SM SCT030 BKN250 FM010500 VRB05KT P6SM FEW030 FM011400 10010KT P6SM SCT030 SCT100", "TAF KMIB 311700Z 3117/0123 27009KT 9999 OVC200 QNH2967INS TX14/3121Z TN05/0113Z", "KMIV 311855Z 3119/0118 VRB03KT P6SM SCT025 OVC050 TEMPO 3119/3123 BKN025 FM312300 VRB03KT P6SM OVC025 FM010300 VRB02KT 3SM -SHRA BR OVC015 FM010700 VRB02KT 3SM SHRA BR OVC008 FM011000 VRB02KT 2SM SHRA BR OVC005 FM011600 VRB02KT 5SM BR OVC008", "KMKC 311720Z 3118/0118 29007KT P6SM SKC FM010700 17005KT P6SM SKC", "KMKE 311826Z 3118/0124 VRB04KT P6SM BKN025 FM312200 VRB04KT P6SM SCT025 FM010000 VRB03KT P6SM SKC FM011500 25005KT P6SM SKC", "KMKG 311725Z 3118/0118 30003KT P6SM BKN025 FM312300 00000KT P6SM OVC009 FM010600 25003KT 3SM BR OVC004 FM011600 24005KT P6SM SCT005", "KMKL 311736Z 3118/0118 27008KT P6SM OVC025 FM312000 29007KT P6SM OVC050 FM010300 24002KT 6SM BR FEW250 FM010800 00000KT 4SM BR FEW250 FM011300 23002KT P6SM FEW250", "KMKT 311720Z 3118/0118 22006KT P6SM FEW300 FM011700 17007KT P6SM BKN250", "KMLB 311720Z 3118/0118 09009KT P6SM VCSH SCT030 FM010200 10006KT P6SM FEW030 SCT200 FM011300 09006KT P6SM SCT035", "KMLC 311723Z 3118/0118 VRB03KT P6SM SCT250 TEMPO 0110/0114 3SM BR", "KMLI 311720Z 3118/0118 30003KT P6SM SKC FM010000 27005KT P6SM SKC", "KMLS 311757Z 3118/0118 26013KT P6SM SCT200 FM010000 24008KT P6SM BKN200 FM010400 15007KT P6SM BKN200", "KMLU 311720Z 3118/0118 25004KT P6SM FEW035 FM010000 00000KT P6SM SKC FM010900 00000KT 6SM BR BKN250 FM011500 11004KT P6SM BKN250", "KMMH 311739Z 3118/0118 13008KT P6SM BKN200 FM010200 20006KT P6SM SCT100 BKN180 FM010600 21009KT P6SM SCT100 BKN150 WS020/21035KT FM011700 20015G25KT P6SM SCT080 BKN120 WS020/23045KT", "TAF AMD KMMT 311830Z 3118/0121 11006KT 9000 DZ BR OVC030 QNH2996INS BECMG 3119/3120 11006KT 4800 -RA BR BKN015 OVC025 QNH2996INS BECMG 3122/3123 11006KT 8000 DZ BR OVC012 QNH2995INS BECMG 0103/0104 VRB04KT 8000 BR OVC002 QNH2999INS BECMG 0109/0110 VRB06KT 3200 BR VV002 510505 QNH3007INS BECMG 0114/0115 28009KT 9999 NSW FEW015 SCT025 QNH3007INS TX25/3120Z TN19/0112Z", "KMOB 311720Z 3118/0118 29004KT P6SM BKN035 FM010300 VRB03KT P6SM FEW250 FM011400 03005KT P6SM SKC", "KMOD 311733Z 3118/0118 VRB05KT P6SM FEW250 FM010600 VRB05KT P6SM OVC250 FM011700 16011KT P6SM BKN050 OVC100", "KMOT 311731Z 3118/0118 23011KT P6SM SCT200 FM312000 22010KT P6SM SCT250 FM010000 21005KT P6SM FEW250 FM010500 20007KT P6SM BKN250 FM011600 19007KT P6SM BKN200", "KMPV 311727Z 3118/0118 VRB04KT P6SM BKN170 FM312200 00000KT P6SM BKN140 FM010500 00000KT P6SM OVC090 FM011200 00000KT P6SM BKN060", "KMQY 311733Z 3118/0118 22007KT P6SM OVC025 FM311900 22007KT P6SM SCT030 BKN060 FM010100 24003KT P6SM SCT080", "KMRB 311747Z 3118/0118 00000KT P6SM -SHRA OVC060 FM312300 00000KT P6SM -SHRA OVC030 FM010600 00000KT P6SM OVC030 FM011500 31006KT P6SM BKN040", "KMRY 311732Z 3118/0118 VRB04KT P6SM OVC006 FM312000 28010KT P6SM OVC011 FM010000 25007KT 6SM BR OVC008 FM011200 VRB05KT 6SM BR VCSH OVC006", "KMSL 311720Z 3118/0118 24007KT P6SM OVC030 FM312000 24007KT P6SM BKN040 FM011000 00000KT 6SM BR BKN010 FM011300 VRB04KT P6SM SCT250", "KMSN 311720Z 3118/0118 VRB03KT P6SM SCT250 FM010000 VRB03KT P6SM SKC FM011500 22005KT P6SM SKC", "KMSO 311721Z 3118/0118 20008G14KT P6SM BKN050 FM312100 29012G20KT P6SM OVC060 FM010300 28007KT P6SM OVC050", "KMSP 311720Z 3118/0124 22005KT P6SM FEW300 FM011800 16007KT P6SM BKN250", "KMSS 311727Z 3118/0118 26006KT P6SM OVC160 FM312100 00000KT P6SM OVC110 FM010200 00000KT P6SM VCSH OVC050 FM010500 00000KT P6SM VCSH OVC029 FM010700 00000KT P6SM VCSH OVC018 FM011200 00000KT P6SM VCSH OVC009", "KMSY 311720Z 3118/0124 VRB05KT P6SM FEW030 SCT050 BKN250", "TAF KMTC 311900Z 3119/0201 VRB06KT 2400 BR OVC006 QNH2976INS TEMPO 3119/3124 3600 BR BECMG 0100/0101 VRB06KT 4800 -SHRA OVC009 QNH2985INS BECMG 0110/0112 VRB06KT 4800 -SHRA OVC012 QNH2989INS BECMG 0116/0118 VRB06KT 8000 BR FEW013 QNH3010INS TX16/0119Z TN12/0112Z LAST NO AMDS AFT 0103 NEXT 0111", "KMTH 311728Z 3118/0118 11006KT P6SM FEW030", "KMTJ 311720Z 3118/0118 VRB03KT P6SM SKC FM312000 34007KT P6SM SKC FM010100 15008KT P6SM SKC", "KMTN 311747Z 3118/0118 12007KT P6SM OVC020 FM312000 12004KT P6SM -SHRA SCT020 OVC040 FM010300 00000KT P6SM -SHRA OVC030 FM010800 00000KT 3SM BR SCT004 OVC008 FM011600 32005KT P6SM BKN030", "KMTW 311734Z 3118/0118 20003KT P6SM SCT250 FM010000 25004KT P6SM SKC FM011500 23007KT P6SM SCT250", "TAF KMUI 311900Z 3119/0201 VRB06KT 9999 FEW015 OVC025 QNH2996INS BECMG 3123/3124 VRB06KT 8000 -SHRA BR BKN006 OVC013 QNH2998INS BECMG 0105/0106 VRB06KT 3200 -SHRA BR OVC007 QNH2999INS BECMG 0112/0113 VRB06KT 6000 BR OVC000 QNH3004INS BECMG 0116/0117 VRB06KT 8000 BR SCT014 OVC021 QNH3005INS TX20/0119Z TN11/0112Z LAST NO AMDS AFT 3119 NEXT 0111", "TAF KMUO 311800Z 3118/0124 12012G18KT 9999 FEW070 SCT100 QNH2986INS BECMG 3123/3124 12010G15KT 9999 FEW120 SCT160 QNH2970INS BECMG 0111/0112 12012G18KT 9999 SCT150 BKN170 QNH2959INS BECMG 0120/0121 12010G15KT 9999 SCT090 BKN120 QNH2949INS TX18/3121Z TN07/0113Z", "KMVN 311731Z 3118/0118 25006KT P6SM VCSH BKN015 FM311900 26007KT P6SM BKN015 FM010000 00000KT P6SM BKN025 FM010100 00000KT P6SM SCT060 FM010900 00000KT 2SM BR SKC FM011300 00000KT P6SM SCT120", "KMWH 311734Z 3118/0118 26006KT P6SM OVC090 FM312100 22011KT P6SM SCT080 BKN120 FM010600 23008KT P6SM SCT100 BKN120 FM011200 30004KT P6SM OVC100", "TAF KMXF 311900Z 3119/0201 VRB06KT 9999 SCT025 SCT030 QNH2998INS BECMG 0101/0102 VRB06KT 9999 SCT020 BKN030 QNH3007INS BECMG 0107/0108 VRB06KT 4800 BR FEW007 BKN020 QNH3009INS BECMG 0113/0114 VRB06KT 9999 NSW FEW010 QNH3019INS BECMG 0115/0116 VRB06KT 9999 SKC QNH3017INS TX24/3121Z TN13/0109Z LAST NO AMDS AFT 0103 NEXT 0111", "KMYL 311731Z 3118/0118 16006KT P6SM BKN070 OVC100 FM010800 18007KT P6SM VCSH BKN060", "KMYR 311730Z 3118/0118 12008KT P6SM SCT025 BKN060 TEMPO 3118/3121 BKN025 FM010100 18004KT P6SM VCSH BKN060 FM010900 22003KT 5SM BR BKN100 FM011300 25006KT P6SM SCT060 OVC100", "TAF KNBC 3115/0115 VRB06KT 9999 SCT005 BKN040 QNH2993INS TEMPO 3115/3121 2400 SHRA BR BECMG 3121/3123 VRB06KT 9999 SCT020 BKN070 QNH2994INS FM010430 VRB06KT 0800 SHRA FG BKN005 BKN030 QNH2999INS BECMG 0111/0113 27007KT 9999 NSW BKN010 BKN040 QNH3003INS T25/3118Z T16/0111Z", "TAF KNBG 3115/0115 VRB06KT 9999 FEW030 SCT250 QNH2996INS BECMG 0112/0114 03010KT 9999 SKC QNH3012INS T24/3121Z T11/0112Z FN20039", "TAF KNCA 3115/0115 10005KT 9999 SCT150 QNH3007INS BECMG 3121/3123 11010KT 9999 SCT050 BKN090 QNH3002INS FM010000 17010KT 9999 SCT050 BKN080 QNH3005INS T24/3119Z T19/0102Z", "KNEW 311720Z 3118/0118 VRB05KT P6SM BKN250", "TAF COR KNFG 3115/0115 VRB05KT 9999 FEW150 QNH2988INS FM312000 21008KT 9999 FEW150 QNH2983INS BECMG 0101/0103 VRB05KT 9999 BKN190 QNH2987INS BECMG 0107/0109 VRB05KT 8000 BR BKN015 QNH2987INS T25/3121Z T12/0113Z COR 1520", "TAF KNFL 3115/0115 VRB06KT 9999 FEW150 SCT220 QNH2999INS FM312200 VRB06KT 9999 FEW080 SCT120 BKN200 QNH2980INS FM010500 20006KT 9999 SCT080 BKN120 BKN200 QNH2975INS FM010900 22008KT 9999 BKN070 BKN100 OVC200 QNH2965INS T18/3123Z T01/0114Z FS30003", "TAF KNFW 3115/0115 VRB06KT 9999 BKN250 QNH2996INS FM312000 17009KT 9999 SCT120 BKN250 QNH2998INS T22/3120Z T13/0110Z FN20046", "KNGP TAF 3115/0115 09010KT 9999 FEW025 SCT080 SCT250 BKN300 QNH2994INS FM312000 08014G20KT 9999 FEW025 BKN070 BKN250 OVC300 QNH2992INS FM010300 10012KT 9999 -RA SCT025 BKN050 OVC100 QNH2999INS FM010500 11010KT 8000 -RA BR VCTS SCT020CB OVC050 611309 612203 QNH2999INS TEMPO 0105/0109 VRB15G25KT +TSRA BR BKN018CB OVC040 FM010900 08010KT 6000 RA BR VCTS FEW010 BKN018CB OVC040 641309 642203 QNH2998INS TEMPO 0109/0114 VRB25G35KT 2400 +TSRA BR BKN008 OVC014CB FM011400 04022G30KT 9999 VCTS FEW008 OVC020CB 611309 612203 510003 QNH3006INS TEMPO 0114/0115 04026G35KT 8000 -TSRA BR T28/3120Z T19/0112Z FN20044", "TAF KNGU 3115/0115 VRB06KT 9999 SCT030 BKN070 BKN200 QNH2998INS FM312100 16008KT 9999 SCT030 BKN080 QNH2997INS FM010300 21007KT 9999 VCTS SCT012CB BKN030 QNH3001INS TEMPO 0103/0109 VRB15G25KT 4800 TSRA BR FEW007 BKN012CB OVC020 TEMPO 0109/0115 24009KT 6000 SHRA BR SCT012 OVC020 T17/3115Z T22/3120Z FN20079", "TAF KNHK 3115/0115 20005KT 9999 FEW003 FEW035 BKN060 BKN075 QNH3006INS BECMG 3117/3119 16003KT 9999 VCSH SCT035 BKN060 QNH2999INS BECMG 0100/0102 17004KT 6000 -RA FEW020 BKN040 QNH2999INS BECMG 0107/0109 20004KT 6000 -SHRA BR BKN007 QNH2999INS TEMPO 0109/0112 4800 BR BKN003 FM011200 22003KT 9999 BKN003 QNH3002INS T20/3120Z T13/0102Z FN20090", "TAF KNID 3115/0115 VRB05KT 9999 SCT250 QNH2993INS BECMG 3117/3119 15007KT 9999 SCT180 BKN250 QNH2981INS BECMG 0101/0103 21006KT 9999 SCT180 BKN250 QNH2986INS WND VRB05KT AFT 0112 T26/3122Z T07/3113Z", "TAF KNIP 3115/0115 15005KT 9999 FEW030 FEW150 SCT250 QNH3000INS FM311700 15006KT 9999 SCT035 SCT250 QNH2994INS FM311900 13007KT 9999 VCSH SCT040 SCT120 BKN250 QNH2992INS FM010000 VRB04KT 9999 FEW040 SCT100 SCT250 QNH2996INS TEMPO 0109/0113 4800 BR FEW005 FEW020 SCT250 T30/3119Z T20/011Z FN20016", "TAF KNJK 3115/0115 26005KT 9999 SKC QNH2991INS FM311700 VRB03KT 9999 FEW250 QNH2978INS FM010200 23004KT 9999 BKN200 QNH2979INS T31/3123Z T14/0113Z FS30130", "TAF KNKT 3115/0115 09008KT 9999 SCT030 BKN080 QNH3003INS BECMG 0100/0102 VRB06KT 9999 BKN040 QNH3004INS FM011230 24008KT 9999 BKN030 BKN070 QNH3007INS TEMPO 0113/0115 4800 -RA BR BKN010 T23/3121Z T19/0104Z", "TAF KNKX 3115/0115 VRB05KT 9999 SKC QNH2993INS BECMG 3118/3120 28008KT 9999 SKC QNH2987INS FM010030 VRB05KT 9999 SKC QNH2987INS BECMG 0108/0110 VRB05KT 9999 BKN007 QNH2989INS TEMPO 0110/0115 4800 BR OVC005 T26/3121Z T13/0114Z", "TAF KNLC 3115/0115 VRB06KT 9999 BKN160 BKN200 BKN250 QNH2982INS FM010500 29007KT 9999 FEW090 BKN160 OVC190 QNH2983INS T24/3123Z T07/0113Z FS30067", "TAF KNMM 3115/0115 VRB05KT 9999 BKN050 BKN120 QNH2998INS BECMG 3118/3120 23007KT 9999 BKN050 BKN120 QNH3000INS BECMG 0102/0104 VRB06KT 9999 OVC050 QNH3010INS AUTOMATED SENSOR METWATCH 0105 TIL 0111 T22/3119Z T11/0110Z FN20093", "TAF KNPA 3115/0115 33005KT 9999 SCT250 QNH2998INS FM311800 24007KT FEW050 BKN250 QNH2994INS FM010000 30005KT 9999 BKN250 QNH2996INS FM010800 VRB05KT 6000 BR FEW002 SCT250 QNH3007INS TEMPO 0108/0113 1600 BR BKN002 T24/3120Z T12/0112Z FN20033", "TAF KNQI 3115/0115 08006KT 9999 FEW025 SCT065 SCT250 QNH2995INS TEMPO 3115/3119 11012G18KT BKN055 BKN250 BECMG 3119/3121 11016G22KT 9999 VCSH BKN050 OVC200 510406 QNH2988INS TEMPO 3121/0102 11018KT 8000 -RA BKN028 OVC055 FM010200 07008KT 9999 VCSH BKN025 OVC055 510405 QNH2992INS TEMPO 0102/0106 VRB05KT 6000 -SHRA OVC015 FM010600 06010KT 9000 -SHRA VCTS SCT012CB OVC025 510307 QNH2995INS TEMPO 0107/0112 VRB25G35KT 1600 +TSRA BR BKN010CB OVC020 BECMG 0112/0114 05015G21KT 8000 -RA BR BKN008 OVC012 500000 QNH3006INS T27/3120Z T17/0112Z FN20042", "TAF KNQX 3115/0115 08008KT 9999 FEW025 QNH2985INS FM312300 07006KT 9999 FEW020 QNH2988INS T31/3119Z T26/0111Z FN20056", "TAF KNRB 3115/0115 14008KT 9999 SCT030 SCT200 QNH2994INS FM010100 VRB05KT 9999 FEW040 SCT120 BKN200 QNH2996INS FM010900 29006KT 9999 VCSH SCT020 BKN040 BKN200 QNH3000INS T29/3119Z T21/0111Z FN20021", "TAF KNSE 3115/0115 30006KT 9999 FEW050 SCT250 QNH2996INS FM312300 33004KT 9999 SCT050 BKN250 QNH3000INS FM010400 35003KT 9999 FEW030 FEW250 QNH3007INS FM011100 04003KT 9999 FEW020 FEW120 SCT250 QNH3011INS T26/3119Z T12/0111Z FN20071", "TAF KNTD 3115/0115 VRB06KT 9999 SCT250 QNH2988INS FM311900 21008KT 9999 FEW250 QNH2989INS FM010200 VRB04KT 9999 SCT180 BKN250 QNH2990INS T22/3120Z T08/0113Z FS30029", "TAF KNTU 3115/0115 VRB06KT 9999 SCT030 BKN050 BKN200 QNH2998INS FM311900 16008KT 9999 SCT030 BKN050 BKN150 QNH2997INS FM010600 21007KT 9999 VCSH SCT012 BKN030 BKN100 QNH3001INS TEMPO 0109/0115 VRB15G25KT 3200 TSRA BR BKN005 OVC012CB T22/3119Z T15/0109Z FN20008", "TAF KNUC 3115/0115 22007KT 9999 SCT190 QNH2984INS FM010900 27011KT 9999 BKN040 BKN100 QNH2982INS FM010600 VRB06KT 8000 BR BKN012 QNH2983INS TEMPO 0107/0113 20008KT 3200 BR OVC006 FM011300 21006KT 4800 BR OVC005 QNH2986INS TEMPO 0113/0115 0800 FG OVC001 T17/3121Z T13/0114Z FS30165", "TAF AMD KNUW 3117/0115 27018G30KT 9999 VCSH FEW015 SCT045 BKN060 BKN230 620609 530009 530909 QNH2980INS TEMPO 3117/3123 30028G36KT 9999 -SHRA SCT025 BKN040 BKN100 FM010600 VRB06KT 9999 BKN020 BKN065 OVC200 620509 500000 QNH2976INS TEMPO 0106/0112 19008KT 9000 -SHRA BR SCT020 BKN032 OVC050 T12/3123Z T04/0112Z AMD 1752 FS30028", "TAF KNXP 3115/0115 VRB05KT 9999 SKC QNH2996INS FM010130 18008KT 9999 SKC QNH2997INS FM010430 VRB05KT 9999 SCT250 QNH2998INS BECMG 0109/0111 VRB05KT 9999 BKN120 QNH2997INS T26/3122Z T14/0114Z", "TAF KNYG 3115/0115 17009KT 9999 BKN030 OVC070 QNH3001INS TEMPO 3118/0100 19010KT 4800 VCTS BR FEW005 BKN020 BECMG 0100/0102 VRB06KT 6000 RA BR BKN010 OVC030 QNH3003INS T18/3118Z T13/0112Z", "TAF KNYL 3115/0115 05008KT 9999 SKC QNH2980INS BECMG 0101/0103 VRB06KT 9999 FEW240 QNH2980INS FM011200 VRB06KT 9999 FEW180 SCT200 621806 QNH2985INS T14/3115Z T30/3122Z", "TAF KNZY 3115/0115 28004KT 9999 FEW002 SCT250 QNH2986INS FM312000 28008KT 9999 FEW012 BKN250 QNH2981INS FM010100 25004KT 9999 SCT010 BKN200 QNH2984INS TEMPO 0105/0111 8000 BR BKN009 BKN012 FM011100 19004KT 8000 BR BKN010 BKN180 BKN250 QNH2984INS T14/3115Z T22/3121Z FS30139", "KOAJ 311720Z 3117/0118 14005KT P6SM SCT150 FM312000 15005KT P6SM BKN080 FM010100 14004KT P6SM BKN140 FM010900 20003KT P6SM BKN040 AMD LTD TO CLD VIS AND WIND", "KOAK 311732Z 3118/0124 VRB04KT P6SM FEW008 BKN012 FM312000 27011KT P6SM FEW012 BKN250 FM010200 26015KT P6SM SCT008 BKN012 FM011200 18008KT P6SM VCSH BKN010 FM011700 27015KT 6SM -RA BR BKN010 FM012100 28020KT P6SM VCSH BKN010", "TAF KOFF 311800Z 3118/0124 VRB05KT 9999 SKC QNH2988INS BECMG 0100/0101 18005KT 9999 SKC QNH2990INS BECMG 0118/0119 16012G18KT 9999 SKC QNH2999INS TX21/3120Z TN06/0112Z", "KOFK 311722Z 3118/0118 21012KT P6SM SKC FM010000 18006KT P6SM SKC", "KOGB 311820Z 3118/0118 18010G15KT P6SM SCT025 FM312000 19008KT P6SM VCSH BKN035 FM010600 00000KT 3SM BR OVC005 FM011100 VRB03KT 3/4SM BR VV003 FM011500 29005KT P6SM SCT250", "KOGD 311720Z 3118/0118 16007KT P6SM SCT250 FM312100 27006KT P6SM SCT200 FM010200 17010KT P6SM SCT150 BKN200 FM011700 18017G30KT P6SM SCT120 BKN150", "KOKC 311720Z 3118/0118 19007KT P6SM SCT250", "KOLF 311720Z 3118/0118 VRB06KT P6SM FEW050 FM010300 VRB04KT P6SM FEW060 WS020/29040KT FM011200 VRB04KT P6SM BKN200", "KOLM 311720Z 3118/0118 22008G15KT P6SM -SHRA BKN030 OVC050 FM311900 25009KT P6SM SCT030 BKN060 FM010000 VRB03KT P6SM SCT060 BKN200 FM010800 00000KT 2SM BR FEW003 BKN200 FM011000 00000KT 1/2SM FG VV002", "KOLS 311727Z 3118/0118 VRB03KT P6SM SKC FM312100 21005KT P6SM SKC FM010300 10003KT P6SM SCT170 BKN250", "KOMA 311722Z 3118/0118 18008KT P6SM SKC", "KONP 311743Z 3118/0118 20014G25KT 2SM RADZ BR OVC004 FM311900 29010G18KT 1SM -RADZ BR OVC006 FM312300 25012G20KT 1SM RA BR OVC006 FM010700 35007KT P6SM -SHRA SCT025 BKN040 OVC070", "KONT 311727Z 3118/0124 VRB05KT P6SM FEW250 FM312100 26009KT P6SM SCT250 FM010300 VRB04KT P6SM BKN250 FM011900 25011G17KT P6SM FEW040 BKN250", "KOPF 311720Z 3118/0118 10008KT P6SM VCSH SCT025 SCT100 FM312100 10010KT P6SM SCT030 BKN250 FM010500 VRB05KT P6SM FEW030 FM011400 12010KT P6SM SCT030 SCT100", "KORD 311727Z 3118/0124 36005KT 3SM BR VCSH OVC004 FM312000 35004KT 6SM BR OVC007 FM312200 34005KT P6SM BKN010 BKN080 FM010000 27004KT 6SM BR FEW010 SCT100 FM010500 26003KT 4SM BR BCFG FEW003 FM011300 24006KT P6SM SKC", "KORF 311720Z 3118/0118 VRB04KT P6SM BKN050 FM312300 14005KT P6SM BKN060 FM010600 18004KT 5SM -SHRA BR BKN060 FM010900 20004KT 5SM -SHRA BR OVC040 FM011100 VRB03KT 5SM -SHRA BR BKN012 FM011600 24006KT P6SM BKN030", "KORH 311720Z 3118/0118 23012KT P6SM FEW030 FM312100 22007KT P6SM BKN250 FM010800 24006KT P6SM VCSH OVC030 FM011400 25006KT 5SM BR VCSH OVC015 FM011600 25006KT P6SM BKN020", "KOTH 311744Z 3118/0118 17008KT P6SM -RA OVC020 FM311900 21008G15KT 6SM -RA BR SCT010 OVC020 FM312100 23008G15KT 3SM RA BR OVC010 FM312300 34005KT P6SM -SHRA BKN025", "KOTM 311721Z 3118/0118 30004KT P6SM SKC FM011700 19007KT P6SM SKC", "KOUN 311720Z 3118/0118 19006KT P6SM SCT250", "KOWB 311731Z 3118/0118 22009KT P6SM VCSH BKN015 FM312000 24007KT P6SM BKN018 FM010000 26004KT P6SM BKN040 FM010200 VRB02KT P6SM SCT035 FM010500 00000KT P6SM SCT024", "KOXR 311723Z 3118/0118 01004KT P6SM BKN200 FM312000 27010KT P6SM BKN200 FM010600 VRB03KT 5SM BR OVC008 FM011000 VRB03KT 5SM BR OVC012 FM011500 VRB03KT P6SM OVC020", "TAF KOZR 311600Z 3116/0122 26006KT 9999 SCT050 QNH3000INS BECMG 3119/3120 25005KT 9999 BKN050 QNH2995INS BECMG 0101/0102 31003KT 9999 SCT030 QNH3000INS BECMG 0108/0109 31003KT 9999 SKC QNH3003INS TX27/0120Z TN12/0111Z", "KPAE 311931Z 3120/0118 31007KT 5SM -SHRA OVC030 FM312200 31005KT 5SM -SHRA OVC035 FM010500 04004KT P6SM VCSH BKN030 FM010900 VRB03KT P6SM OVC015", "KPAH 311731Z 3118/0118 23006KT P6SM SCT015 BKN020 FM311900 25006KT P6SM BKN025 FM312200 26006KT P6SM BKN040 FM010000 00000KT P6SM SCT090 FM010900 00000KT 2SM BR SKC FM011300 VRB03KT P6SM SKC", "TAF KPAM 311900Z 3119/0201 27006KT 9999 BKN040 QNH2997INS BECMG 0101/0102 33009KT 9999 FEW020 QNH3004INS BECMG 0111/0112 03009KT 9999 SKC QNH3011INS TX26/3119Z TN16/0111Z", "KPBF 311720Z 3118/0118 28006KT P6SM FEW250 FM312300 VRB03KT P6SM FEW250", "KPBG 311727Z 3118/0118 14008KT P6SM OVC170 FM312200 VRB03KT P6SM BKN140 FM010500 00000KT P6SM VCSH OVC050 FM010900 00000KT P6SM OVC028 FM011400 00000KT P6SM BKN040 FM011700 14005KT P6SM BKN040", "KPBI 311720Z 3118/0118 10010KT P6SM VCSH SCT025 SCT100 FM312100 10010KT P6SM SCT030 BKN250 FM010500 VRB05KT P6SM FEW030 FM011400 12010KT P6SM SCT030 SCT100", "KPDK 311937Z 3120/0118 22004KT P6SM BKN008 BKN012 FM312200 24004KT P6SM SCT030 SCT050 BKN150 FM010300 31004KT P6SM SCT050 SCT090 BKN150 FM010600 00000KT P6SM SCT012 BKN150 TEMPO 0109/0113 5SM BR BKN008 FM011500 32005KT P6SM FEW250", "KPDT 311720Z 3118/0118 28010KT P6SM VCSH BKN050 OVC070 FM010200 24005KT P6SM -RA BKN035 OVC050 FM010900 25007KT P6SM -RA OVC025 TEMPO 0112/0114 6SM -RA OVC015 FM011500 28007KT 4SM -RA OVC015", "KPDX 311743Z 3118/0118 20010G16KT 5SM -RA BR BKN015 OVC025 FM312000 28006KT 5SM -RADZ BR OVC015 FM312300 29006KT P6SM VCSH SCT025 BKN040 FM010200 28003KT P6SM VCSH OVC025", "KPEQ 311724Z 3118/0118 11008KT P6SM BKN250", "KPGA 311740Z 3118/0118 00000KT P6SM SKC", "KPGD 311739Z 3118/0118 10004KT P6SM SCT040 SCT250 FM312200 33007KT P6SM SCT035 SCT200 FM010300 04004KT P6SM SCT120 FM011200 09002KT P6SM SCT025", "KPGV 311720Z 3117/0118 16004KT P6SM SCT150 FM312000 14004KT P6SM OVC080 FM010600 VRB03KT P6SM BKN040 FM011000 VRB03KT 5SM BR BKN007 FM011500 24005KT P6SM BKN015 AMD LTD TO CLD VIS AND WIND", "KPHF 311720Z 3118/0118 17006KT P6SM BKN050 FM010600 18004KT 5SM -SHRA BR OVC045 FM010900 00000KT 5SM -SHRA BR OVC010 FM011000 00000KT 5SM -SHRA BR OVC007 FM011400 VRB03KT P6SM BKN012 FM011600 26006KT P6SM BKN025", "KPHL 311728Z 3118/0124 22005KT P6SM OVC025 FM010200 20005KT 3SM -SHRA BR OVC015 FM010600 19004KT 3SM -SHRA BR OVC008 FM010900 19004KT 2SM BR OVC005 FM011500 VRB02KT 5SM BR OVC008 FM012000 28005KT P6SM BKN025", "KPHX 311722Z 3118/0124 10006KT P6SM SKC FM312000 VRB04KT P6SM SKC FM010000 25004KT P6SM SKC FM010500 10005KT P6SM SCT250 FM012100 17006KT P6SM BKN250", "KPIA 311730Z 3118/0118 34005KT 2SM BR OVC006 FM311900 32005KT P6SM OVC015 FM312000 31005KT P6SM SCT025 BKN060 FM010200 VRB03KT P6SM SKC TEMPO 0109/0113 5SM BR", "KPIB 311720Z 3118/0118 28005KT P6SM BKN050 FM010900 00000KT 2SM BR SCT025 FM011300 03003KT P6SM SCT250", "KPIE 311739Z 3118/0118 07006KT P6SM FEW040 FEW250 FM312100 30007KT P6SM FEW040 FEW250 FM010100 02004KT P6SM FEW040 FEW250 FM011400 05005KT P6SM BKN250", "KPIH 311720Z 3118/0118 19007KT P6SM SCT180 FM010100 14008KT P6SM SCT080 BKN120 FM011500 20008G18KT P6SM SCT080 BKN120", "KPIR 311724Z 3118/0118 24006KT P6SM SCT250 FM010000 VRB05KT P6SM SKC FM011600 15007KT P6SM SKC", "KPIT 311732Z 3118/0124 19005KT P6SM OVC008 FM311900 20005KT P6SM OVC011 FM312200 18004KT P6SM OVC022 FM010000 18003KT P6SM OVC035 FM010700 22003KT P6SM VCSH BKN022 FM011800 27006KT P6SM BKN013", "KPKB 311858Z 3119/0118 20005KT P6SM VCSH OVC016 TEMPO 3119/3120 3SM -RA FM312000 20006KT P6SM OVC035 FM010800 22004KT P6SM BKN025 FM011000 VRB03KT P6SM VCSH BKN013 FM011100 VRB03KT P6SM VCSH OVC008 FM011400 25005KT P6SM BKN012", "KPLN 311733Z 3118/0118 VRB03KT P6SM SCT110 FM312000 26004KT P6SM FEW250 FM010000 00000KT P6SM SKC FM010600 00000KT 2SM BR SKC FM011300 23005KT P6SM FEW180", "KPMD 311723Z 3118/0118 32003KT P6SM SCT200 FM311900 04006KT P6SM BKN200 FM312300 23008KT P6SM BKN200", "KPNA 311722Z 3118/0118 30008KT P6SM SCT200 FM010300 VRB06KT P6SM SCT200 FM011700 19012G24KT P6SM SCT090 BKN140", "KPNC 311720Z 3118/0118 18006KT P6SM SCT150", "KPNE 311728Z 3118/0118 24003KT P6SM BKN025 FM312300 VRB02KT P6SM OVC025 FM010200 VRB02KT 3SM -SHRA BR OVC015 FM010600 VRB02KT 3SM -SHRA BR OVC008 FM010900 VRB02KT 2SM BR OVC005 FM011500 VRB02KT 5SM BR OVC008", "KPNS 311720Z 3118/0118 28003KT P6SM BKN035 FM010300 VRB04KT P6SM FEW250 FM011400 03005KT P6SM SKC", "TAF KPOB 311700Z 3117/0123 14007KT 9999 VCSH SCT025 BKN050 BKN130 QNH2997INS BECMG 3120/3121 18005KT 8000 -SHRA SCT012 BKN020 OVC040 QNH2999INS BECMG 0101/0102 22005KT 6000 -SHRA BR VCTS SCT003 BKN006CB OVC010 QNH3000INS BECMG 0107/0108 23005KT 4800 BR VCSH BKN003 OVC005 QNH3002INS BECMG 0114/0115 31006KT 9999 NSW FEW007 BKN012 OVC020 QNH3007INS BECMG 0117/0118 33007KT 9999 BKN030 BKN240 QNH3007INS TX24/3120Z TN15/0111Z LAST NO AMDS AFT 3122 NEXT 0117", "TAF KPOE 311500Z 3115/0121 33010KT 9999 SCT200 QNH3002INS BECMG 3118/3119 33010KT 9999 SKC QNH3000INS BECMG 3122/3123 VRB06KT 9999 SKC QNH3001INS TX25/3120Z TN12/0112Z", "KPOU 311730Z 3118/0118 22007KT P6SM BKN050 OVC150 FM312100 19006KT P6SM BKN040 OVC080 FM010200 20004KT P6SM VCSH OVC035 FM010600 VRB04KT 4SM -SHRA BR OVC020 FM011200 22004KT 6SM BR VCSH SCT015 BKN040", "KPQI 311720Z 3118/0118 VRB03KT P6SM FEW250 FM010800 VRB02KT P6SM BKN090 FM011500 VRB03KT P6SM BKN050", "KPRB 311723Z 3118/0118 00000KT P6SM SKC FM312100 18008KT P6SM SCT250 FM010500 VRB03KT P6SM SCT200 FM010900 VRB03KT P6SM OVC007 FM011500 VRB03KT P6SM OVC010", "KPRC 311740Z 3118/0118 VRB04KT P6SM SKC FM010300 18008KT P6SM SKC FM011700 19009G15KT P6SM SCT170", "KPSC 311720Z 3118/0118 22010G20KT P6SM BKN070 OVC090 FM010000 24012KT P6SM OVC050 FM010500 23009KT P6SM -RA BKN050 OVC070 FM010900 22007KT 5SM -RA BR BKN040 OVC060", "KPSF 311730Z 3118/0118 22008KT P6SM BKN120 BKN250 FM312200 20004KT P6SM SCT015 BKN100 FM010600 VRB02KT P6SM VCSH BKN015 OVC035 PROB30 0112/0118 4SM -SHRA BR OVC015", "KPSM 311725Z 3118/0118 24007KT P6SM BKN200 FM011000 27005KT P6SM VCSH BKN040", "KPSP 311727Z 3118/0118 VRB05KT P6SM SCT250 FM312000 12006KT P6SM SCT200 FM010100 VRB04KT P6SM BKN200", "KPTK 311720Z 3118/0118 19004KT 5SM -SHRA BR OVC005 FM312100 20006KT P6SM SCT007 OVC014 FM010000 25005KT 6SM -SHRA OVC010 FM010600 29004KT 5SM BR OVC008 FM011400 26005KT P6SM SCT030", "KPUB 311720Z 3118/0118 19005KT P6SM FEW250 FM312000 14007KT P6SM FEW250 FM010200 05005KT P6SM SKC FM010400 29005KT P6SM SKC", "KPUW 311734Z 3118/0118 19011KT P6SM OVC035 FM010200 24009KT P6SM -RA BKN025 OVC035 FM010600 24006KT 6SM -RA OVC030 FM011200 24004KT 6SM -RA BR OVC007", "KPVD 311720Z 3118/0118 20007KT P6SM FEW020 FM010500 22004KT P6SM VCSH BKN070 FM011000 21004KT P6SM VCSH OVC025 FM011100 22004KT 6SM BR VCSH OVC008 FM011700 23005KT P6SM BKN020", "KPVU 311720Z 3118/0118 VRB04KT P6SM SCT250 FM010400 14006KT P6SM SCT150 BKN200", "KPVW 311723Z 3118/0118 21006KT P6SM FEW250", "KPWM 311725Z 3118/0118 21008KT P6SM BKN200 FM011200 29004KT P6SM BKN050", "KPWT 311720Z 3118/0118 21012G22KT P6SM BKN010 FM311900 19010KT P6SM SCT025 BKN060 FM312300 20006KT P6SM BKN060 BKN200 FM010400 VRB02KT P6SM BKN015 BKN060 FM010900 00000KT 2SM -SHRA BR BKN007 OVC015", "KRAP 311720Z 3118/0118 VRB06KT P6SM SCT250", "KRBG 311744Z 3118/0118 VRB02KT P6SM VCSH SCT020 BKN040 OVC080 FM010300 32005KT P6SM -RA BKN020 OVC035 FM010800 33005KT P6SM -SHRA SCT025 OVC040", "KRBL 311733Z 3118/0118 34005KT P6SM FEW250 FM312100 17008KT P6SM SCT250 FM011500 17012KT P6SM -RA OVC015", "TAF KRCA 311900Z 3119/0201 VRB06KT 9999 SKC QNH2982INS BECMG 0117/0118 21012G18KT 9999 FEW290 QNH2971INS TX20/0120Z TN07/0111Z", "KRDD 311733Z 3118/0118 VRB05KT P6SM SCT250 FM011000 VRB05KT P6SM BKN100 FM011400 19011KT P6SM -RA OVC015 FM011700 32010KT P6SM -RA OVC015", "KRDG 311853Z 3119/0118 24003KT P6SM BKN025 FM010100 VRB02KT 3SM -SHRA BR OVC015 FM010500 VRB02KT 3SM -SHRA BR OVC008 FM010800 VRB02KT 3SM BR OVC005 FM011400 VRB02KT 5SM BR OVC008 FM011600 VRB02KT P6SM OVC015", "KRDM 311720Z 3118/0118 21011KT P6SM BKN100 FM010400 31008KT P6SM -RA BKN040 OVC060 FM010900 32007KT 5SM -RA BR BKN035 OVC050 TEMPO 0112/0113 2SM -RA OVC015", "TAF AMD KRDR 311814Z 3118/0124 23010KT 9999 BKN190 QNH2967INS BECMG 3123/3124 VRB06KT 9999 FEW100 QNH2971INS TX17/3121Z TN03/0112Z", "KRDU 311733Z 3118/0118 16005KT P6SM SCT025 BKN035 BKN120 FM312100 17004KT P6SM VCSH BKN035 BKN120 TEMPO 0101/0105 2SM SHRA BR BKN012 BKN035 FM010500 19003KT 2SM BR VCSH OVC004 FM011300 VRB03KT 5SM BR BKN010 FM011500 VRB03KT P6SM SCT015", "KRFD 311727Z 3118/0118 34005KT P6SM FEW050 BKN100 FM010000 25004KT P6SM SKC FM010700 24003KT 6SM BR SKC FM011300 23006KT P6SM SKC", "KRHI 311734Z 3118/0118 24004KT P6SM SKC FM010000 VRB03KT P6SM SCT200 FM011500 23006KT P6SM SCT250", "KRIC 311928Z 3119/0118 20007KT P6SM BKN050 FM312200 19006KT P6SM VCSH SCT050 OVC070 FM010500 19006KT 5SM -SHRA BR SCT012 OVC060 FM010700 VRB03KT 5SM -SHRA BR OVC012 FM011000 VRB03KT P6SM OVC006 FM011500 26006KT P6SM BKN050", "KRIL 311720Z 3118/0118 VRB03KT P6SM SKC", "TAF KRIV 311205Z 3112/0118 15005KT 9999 FEW250 QNH2995INS BECMG 3115/3116 16009KT 9999 BKN250 QNH2989INS BECMG 3121/3122 32009KT 9999 BKN250 QNH2986INS TEMPO 3122/0101 32012G18KT BECMG 0103/0104 16006KT 9999 FEW150 BKN200 QNH2989INS BECMG 0111/0112 16009KT 9000 HZ SCT150 BKN250 520508 QNH2990INS BECMG 0115/0116 16009KT 9999 NSW SCT010 BKN130 BKN250 520508 QNH2994INS TX28/3121Z TN07/3113Z", "KRIW 311722Z 3118/0118 VRB06KT P6SM SCT200 FM010700 22008KT P6SM SCT200", "KRKD 311725Z 3118/0118 21008KT P6SM BKN250 FM010500 31004KT 3SM BR BKN035 FM011200 31004KT P6SM BKN050 AMD NOT SKED", "KRKS 311722Z 3118/0118 26020G30KT P6SM SCT200 FM010200 22007KT P6SM SCT200 FM011700 20018G32KT P6SM SCT100 BKN150", "KRME 311730Z 3118/0118 13007KT P6SM VCSH FEW060 BKN100 FM010400 11003KT P6SM -SHRA FEW020 OVC028 FM011100 VRB03KT P6SM OVC018", "TAF KRND 311530Z 3116/0122 06008KT 9999 SCT060 BKN180 QNH2994INS BECMG 0105/0106 09010KT 9000 -SHRA SCT011 BKN050 QNH3008INS TEMPO 0107/0113 VRB10G20KT 4800 SHRA VCTS SCT010 BKN025CB BECMG 0113/0114 10009KT 9999 NSW BKN035 OVC050 QNH3006INS TX25/3120Z TN15/0112Z LAST NO AMDS AFT 0100 NEXT 0110", "KRNH 311720Z 3118/0118 24006KT P6SM FEW300", "KRNO 311739Z 3118/0118 VRB03KT P6SM BKN250 FM312100 18006KT P6SM SCT110 BKN220 FM010600 19010KT P6SM SCT110 BKN180 WS020/22035KT FM011700 19015G25KT P6SM BKN100 OVC150 WS020/22045KT", "KROA 311740Z 3118/0118 12005KT 4SM RA BR OVC008 FM312200 14005KT 4SM -RA BR OVC011 FM010000 VRB03KT 6SM BR OVC005 FM010300 00000KT 4SM BR OVC003 FM010600 00000KT 1 1/2SM BR VV004 FM011200 30003KT 5SM BR SCT010 FM011500 28006KT P6SM SCT250", "KROC 311720Z 3118/0118 22005KT P6SM VCSH OVC040 FM312000 17006KT P6SM VCSH OVC025 FM010300 20007KT P6SM OVC035 FM011100 21005KT P6SM VCSH OVC030 FM011400 24006KT P6SM VCSH OVC015", "KROG 311723Z 3118/0118 24005KT P6SM SKC FM010300 19005KT P6SM SKC", "KROW 311727Z 3118/0118 VRB05KT P6SM BKN250 FM311900 16011KT P6SM BKN250 FM010200 21006KT P6SM SKC", "KRSL 311735Z 3118/0118 22007KT P6SM FEW250 FM312300 17007KT P6SM FEW250 FM011700 20014G22KT P6SM SKC", "KRST 311720Z 3118/0118 27004KT P6SM SKC FM010400 21008KT P6SM FEW250", "KRSW 311739Z 3118/0118 10005KT P6SM SCT035 SCT200 FM312100 30006KT P6SM SCT040 SCT200 FM010000 VRB03KT P6SM SCT040 FM011100 09003KT P6SM SCT100", "KRUT 311727Z 3118/0118 VRB04KT P6SM BKN170 FM010000 14004KT P6SM OVC100 FM010800 15004KT P6SM OVC050 FM011400 VRB04KT P6SM BKN030", "KRVS 311723Z 3118/0118 VRB03KT P6SM SCT250", "KRWF 311720Z 3118/0118 21008KT P6SM SCT300 FM011700 16007KT P6SM BKN250", "KRWI 311733Z 3118/0118 17003KT P6SM BKN060 FM312200 16004KT P6SM VCSH BKN035 BKN120 FM010100 16004KT 5SM -SHRA BR VCTS BKN025CB BKN040 TEMPO 0103/0107 2SM +SHRA BR BKN012 BKN040 FM010700 18003KT 2SM BR VCSH OVC004 FM011400 VRB03KT 5SM BR VCSH BKN012", "KRWL 311737Z 3118/0118 23015G25KT P6SM FEW250 FM010200 23011KT P6SM SKC FM011600 24015G25KT P6SM SKC", "KRYY 311736Z 3118/0118 VRB03KT P6SM VCSH BKN004 BKN009 FM312000 22004KT P6SM BKN008 BKN012 FM312200 24004KT P6SM SCT030 SCT050 BKN150 FM010300 31004KT P6SM SCT050 SCT090 BKN150 FM010600 00000KT P6SM SCT012 BKN150 TEMPO 0109/0113 5SM BR BKN008 FM011500 32005KT P6SM FEW250", "KSAC 311733Z 3118/0118 VRB03KT P6SM SCT250 FM010800 17009KT P6SM BKN050 OVC100 FM011700 18012KT P6SM -RA OVC015", "KSAF 311727Z 3118/0118 01010KT P6SM SKC FM312000 26009KT P6SM SKC FM010300 01010KT P6SM SKC", "KSAN 311727Z 3118/0124 VRB03KT P6SM FEW010 SCT250 FM311900 28009KT P6SM SCT250 FM010200 VRB04KT P6SM SCT010 SCT200 TEMPO 0105/0109 BKN009 FM010900 18004KT P6SM OVC011 FM011700 21009KT P6SM BKN025", "KSAT 311720Z 3118/0124 11006KT P6SM SCT250 FM010500 VRB04KT P6SM -SHRA VCTS OVC080CB FM011400 08008KT P6SM SCT010 BKN020", "TAF COR KSAV 311753Z 3118/0118 18011KT P6SM FEW030 SCT050 BKN250 FM010300 18004KT P6SM BKN080 FM010800 VRB03KT 6SM BR BKN009 OVC020 TEMPO 0109/0113 3SM BR BKN004 OVC008 FM011330 VRB02KT P6SM BKN030 FM011500 30005KT P6SM SCT060", "KSAW 311726Z 3118/0118 23004KT P6SM SKC FM312300 20004KT P6SM SKC FM010400 24005KT P6SM SKC", "KSBA 311723Z 3118/0118 00000KT P6SM SKC FM312100 22008KT P6SM SCT250 FM010600 VRB03KT 5SM BR OVC008 FM011000 VRB03KT 5SM BR OVC012 FM011500 VRB03KT P6SM OVC020", "KSBD 311727Z 3118/0118 VRB04KT P6SM SCT250 FM312100 26008KT P6SM SCT200 FM010400 VRB04KT P6SM BKN200", "KSBM 311720Z 3118/0118 00000KT P6SM SKC FM010000 VRB03KT P6SM SKC FM011500 25005KT P6SM SKC", "KSBN 311720Z 3118/0118 13004KT 1SM -SHRA BR BKN003 FM311900 28007KT 5SM -SHRA BR OVC010 FM010000 29005KT 2SM BR OVC006 FM010800 27003KT 1SM BR SCT010 FM011400 23004KT P6SM FEW009", "KSBP 311723Z 3118/0118 00000KT P6SM SKC FM312000 31012KT P6SM SCT250 FM010200 31006KT 3SM BR BKN005 FM010800 VRB03KT P6SM OVC007 FM011300 VRB03KT P6SM OVC010", "KSBY 311720Z 3118/0118 19007KT P6SM BKN070 FM010500 VRB03KT 5SM -SHRA BR SCT010 OVC050 FM010700 00000KT 5SM -SHRA BR OVC010 FM011000 00000KT 5SM -SHRA BR OVC006 FM011600 24006KT P6SM BKN012", "KSCK 311733Z 3118/0118 VRB05KT P6SM FEW250 FM010600 25006KT P6SM OVC250 FM011700 16011KT P6SM BKN050 OVC100", "KSDF 311743Z 3118/0124 22011KT P6SM OVC025 FM312000 23011KT P6SM VCSH BKN022 FM010000 23008KT P6SM BKN035 FM010300 23006KT P6SM BKN022 FM011300 26004KT P6SM BKN035", "KSDL 311722Z 3118/0118 VRB04KT P6SM SKC", "KSDY 311720Z 3118/0118 20010KT P6SM SCT070 FM010000 VRB05KT P6SM SCT120", "KSEA 311720Z 3118/0124 19010G21KT P6SM BKN015 OVC025 FM311900 21010KT P6SM SCT030 BKN050 FM010000 23005KT P6SM SCT050 BKN200 FM010900 VRB04KT P6SM BKN015 BKN050 FM011900 23005KT P6SM BKN035 BKN050", "KSEZ 311740Z 3118/0118 16005KT P6SM SKC FM010200 04011KT P6SM SKC FM011400 VRB04KT P6SM SCT170 FM011700 19009G14KT P6SM SCT170", "KSFB 311720Z 3118/0118 10007KT P6SM SCT040 FM010100 10004KT P6SM FEW040 FEW200 FM010800 VRB02KT 6SM BR FEW010 FM011300 07006KT P6SM SCT030", "KSFF 311734Z 3118/0118 20005KT P6SM BKN025 BKN060 FM010300 23010KT P6SM VCSH BKN025 OVC040 FM010700 22008KT P6SM VCSH BKN040 FM010900 23003KT 5SM BR VCSH OVC020 FM011200 22004KT 4SM -RA BR OVC012", "KSFO 311732Z 3118/0124 VRB05KT P6SM FEW008 BKN180 FM312200 28010KT P6SM FEW007 BKN250 FM010100 27015KT P6SM FEW006 BKN012 FM011200 17008KT P6SM VCSH BKN010 FM011700 28014KT 6SM -RA BR BKN010 FM012100 29021KT P6SM VCSH BKN010", "KSGF 311720Z 3118/0118 29007KT P6SM FEW250 FM312200 27005KT P6SM SKC FM010000 00000KT P6SM SKC FM010600 21005KT P6SM SKC", "KSGJ 311722Z 3118/0118 12010KT P6SM VCSH FEW045 BKN150 FM010000 16006KT P6SM SCT025 BKN200 FM011000 13005KT 6SM BR SCT006 BKN030 FM011215 33004KT P6SM FEW250", "KSGR 311720Z 3118/0118 VRB03KT P6SM SCT250 FM312000 11005KT P6SM SCT050 BKN250 FM010100 VRB03KT P6SM SCT050 BKN250 FM011400 10005KT P6SM VCSH SCT030 OVC090", "KSGU 311720Z 3118/0118 VRB05KT P6SM SKC", "KSHR 311729Z 3118/0118 VRB05KT P6SM FEW100 SCT200", "KSHV 311720Z 3118/0118 VRB03KT P6SM FEW280 FM010000 00000KT P6SM SCT250 FM010600 00000KT 6SM BR BKN250 FM011500 15004KT P6SM BKN250", "KSJC 311732Z 3118/0118 VRB05KT P6SM BKN250 FM312200 33010KT P6SM BKN250 FM010700 15006KT P6SM BKN012 BKN250 FM011700 15012KT P6SM VCSH BKN020", "KSJS 311720Z 3118/0118 VRB05KT P6SM OVC025 FM311900 VRB05KT P6SM BKN035 FM011000 00000KT P6SM BKN020 FM011300 00000KT P6SM BKN015", "KSJT 311738Z 3118/0118 VRB05KT P6SM BKN250 FM011000 21002KT P6SM OVC100 TEMPO 0112/0115 SCT015 OVC025", "TAF KSKA 311900Z 3119/0201 21012G22KT 9000 -SHRA SCT025 BKN040 OVC050 610609 QNH2970INS BECMG 0100/0101 22012KT 9999 VCSH FEW025 OVC040 610409 QNH2970INS BECMG 0106/0107 25009KT 8000 -RA BR BKN015 OVC030 620209 QNH2961INS BECMG 0115/0116 28009KT 9000 -RA SCT015 BKN030 620309 QNH2959INS TX11/3123Z TN03/0114Z", "TAF KSKF 311800Z 3118/0200 13008KT 9999 FEW060 BKN180 QNH2992INS BECMG 3122/3123 11006KT 9999 BKN060 BKN180 QNH2994INS BECMG 0105/0106 VRB05KT 9000 -SHRA VCTS SCT030 BKN050CB OVC180 QNH3003INS BECMG 0113/0114 06005KT 9999 VCSH BKN015 BKN030 QNH3011INS BECMG 0117/0118 VRB05KT 9999 NSW BKN020 QNH3006INS TX27/3120Z TN14/0113Z", "KSLC 311720Z 3118/0124 15005KT P6SM SCT250 FM312100 32007KT P6SM SCT200 FM010200 15008KT P6SM SCT150 BKN200 FM011500 17020G30KT P6SM SCT120 BKN150 FM012000 18028G40KT P6SM FEW100 SCT120 BKN150", "KSLE 311910Z 3119/0118 22006KT 2SM RA BR BKN006 OVC015 FM312300 VRB03KT 5SM -RA BR BKN015 OVC025 FM010800 21005KT P6SM -RA OVC030 FM011200 18005KT 6SM -SHRA BR BKN025 OVC035", "TAF KSLI 311300Z 3113/0119 VRB06KT 9999 SKC QNH2983INS BECMG 0112/0113 VRB06KT 8000 BR BKN009 OVC150 QNH2986INS BECMG 0113/0114 VRB06KT 8000 BR BKN010 BKN140 QNH2987INS BECMG 0116/0117 VRB06KT 8000 BR SCT010 SCT017 BKN150 QNH2991INS BECMG 0118/0119 VRB06KT 9999 NSW BKN017 BKN025 QNH2993INS TX23/0100Z TN13/3115Z", "KSLK 311727Z 3118/0118 VRB04KT P6SM OVC150 FM312200 00000KT P6SM OVC090 FM010300 00000KT P6SM VCSH OVC050 FM010600 00000KT P6SM VCSH OVC021 FM010900 00000KT P6SM OVC012 FM011700 VRB04KT P6SM VCSH OVC012", "KSLN 311735Z 3118/0118 27006KT P6SM FEW250 FM312100 20007KT P6SM FEW250 FM010000 17006KT P6SM FEW250 FM011600 20014G20KT P6SM SKC", "KSME 311720Z 3118/0118 23008KT P6SM BKN050 FM010500 00000KT P6SM BKN025 FM010900 00000KT P6SM OVC015 FM011100 00000KT P6SM OVC010 FM011600 27006KT P6SM BKN020", "KSMF 311733Z 3118/0118 16005KT P6SM SCT250 FM010800 16010KT P6SM BKN050 OVC100 FM011700 19012KT P6SM -RA OVC015", "KSMN 311810Z 3118/0118 22011G20KT P6SM BKN120 FM010300 VRB05KT P6SM BKN090", "KSMO 311723Z 3118/0118 00000KT P6SM SCT200 FM312000 23008KT P6SM BKN200 FM010600 VRB03KT 5SM BR OVC010 FM011200 VRB03KT P6SM OVC020", "KSMX 311723Z 3118/0118 00000KT 6SM BR SCT001 FM312000 29008KT P6SM SCT250 FM010200 VRB03KT 4SM BR OVC004 FM010800 VRB03KT P6SM OVC007 FM011300 VRB03KT P6SM OVC010", "KSNA 311727Z 3118/0118 VRB04KT P6SM FEW040 SCT180 FM312000 22008KT P6SM SCT180 FM010300 VRB04KT P6SM SCT010 BKN200 TEMPO 0108/0112 BKN010 FM011200 VRB04KT P6SM OVC015", "KSNS 311750Z 3118/0118 VRB05KT P6SM SCT007 FM312100 29011KT P6SM SCT010 FM010100 28007KT 6SM BR BKN008 FM011200 VRB04KT 6SM BR VCSH OVC006", "KSNY 311737Z 3118/0118 28010G18KT P6SM SKC FM010000 24008KT P6SM SKC FM011500 18008KT P6SM SKC", "KSOA 311738Z 3118/0118 VRB03KT P6SM BKN250 FM010500 VRB06KT P6SM VCSH BKN200 FM010900 VRB05KT P6SM VCSH OVC050 PROB30 0110/0114 6SM -SHRA BR BKN025 OVC050", "KSPI 311730Z 3118/0118 29005KT P6SM -SHRA OVC006 FM312000 29006KT P6SM OVC015 FM312100 27005KT P6SM SCT015 BKN060 FM010100 VRB03KT P6SM SKC TEMPO 0109/0113 3SM BR", "KSPS 311720Z 3118/0118 18007KT P6SM SCT250", "KSRQ 311739Z 3118/0118 24005KT P6SM FEW040 FEW250 FM311900 27007KT P6SM FEW040 FEW250 FM010100 VRB03KT P6SM FEW050 FEW250", "TAF AMD KSSC 311700Z 3117/0121 15008KT 9999 FEW012 BKN120 BKN250 QNH2999INS BECMG 3118/3119 17008KT 9999 FEW020 BKN040 BKN130 QNH2995INS BECMG 0100/0101 15006KT 9999 VCSH SCT006 OVC012 QNH2998INS TEMPO 0107/0111 3200 -RA BR BKN005 BECMG 0114/0115 27009KT 9999 NSW FEW020 BKN035 QNH3006INS TX25/3120Z TN16/0111Z", "KSSF 311720Z 3118/0118 11006KT P6SM SCT250 FM010500 VRB04KT P6SM -SHRA VCTS OVC080CB FM011400 08008KT P6SM SCT010 BKN020", "KSSI 311722Z 3118/0118 16006KT P6SM VCSH FEW045 BKN200 FM312100 12005KT P6SM OVC100 FM010000 15006KT P6SM SCT025 BKN100 FM011000 30003KT 6SM BR SCT250 FM011200 33005KT P6SM SKC", "KSTC 311720Z 3118/0118 20008KT P6SM SCT250", "KSTJ 311720Z 3118/0118 29007KT P6SM SKC FM010700 17005KT P6SM SKC", "KSTL 311922Z 3119/0124 28006KT P6SM SCT009 OVC015 TEMPO 3119/3120 3SM -DZ BKN009 FM312200 28006KT P6SM SCT030 FM010000 VRB04KT P6SM FEW250", "KSTS 311752Z 3118/0118 VRB03KT P6SM FEW004 SCT250 TEMPO 3118/3119 1 1/2SM BR OVC002 FM312100 17007KT P6SM BKN250 FM010300 VRB04KT P6SM FEW008 BKN250 FM011000 VRB03KT P6SM VCSH BKN020 FM011600 VRB05KT 5SM -RA BR OVC020", "KSUA 311720Z 3118/0118 11011KT P6SM SCT035 FM010200 10006KT P6SM FEW025 SCT200 FM011300 09007KT P6SM SCT030 AMD NOT SKED", "KSUN 311720Z 3118/0124 14009KT P6SM SCT150 FM010300 31008G15KT P6SM SCT080 BKN120 FM011800 14008G15KT P6SM SCT080 BKN120", "KSUS 311923Z 3119/0118 26006KT P6SM SCT006 OVC012 TEMPO 3119/3120 BKN006 FM312200 28006KT P6SM SCT030 FM010000 VRB04KT P6SM FEW250 FM010700 00000KT 3SM BR SKC FM011300 VRB03KT P6SM SKC", "TAF KSUU 311900Z 3119/0201 35010G15KT 9999 BKN200 QNH2984INS BECMG 3123/3124 23010G15KT 9999 BKN120 QNH2980INS BECMG 0108/0109 23015G25KT 9999 BKN010 OVC020 QNH2976INS BECMG 0116/0117 23015G25KT 9000 -RA OVC010 QNH2974INS TEMPO 0118/0123 VCTS BKN010CB TX20/3123Z TN08/0113Z", "KSUX 311720Z 3118/0118 20006KT P6SM FEW250 FM010000 14003KT P6SM FEW250", "TAF KSVN 311145Z 3112/0118 08005KT 0800 FG BKN001 QNH2999INS BECMG 3114/3115 VRB06KT 9999 NSW FEW006 SCT020 BKN040 QNH2999INS BECMG 0105/0106 VRB06KT 8000 BR BKN005 BKN020 QNH3002INS BECMG 0115/0116 30009KT 9999 NSW BKN012 OVC020 QNH2999INS TX26/3117Z TN20/3113Z", "KSWF 311935Z 3120/0124 22007KT P6SM SCT150 BKN200 FM312300 VRB04KT P6SM SCT035 OVC070 FM010700 VRB03KT 6SM -SHRA BKN015 OVC040 FM011200 VRB03KT 6SM BR VCSH OVC008 FM011500 VRB05KT P6SM OVC020 FM011900 28005KT P6SM FEW025 OVC040 AMD NOT SKED", "KSWO 311720Z 3118/0118 19006KT P6SM SCT250", "KSYM 311720Z 3118/0118 22008KT P6SM OVC025 FM311900 VRB05KT P6SM BKN035 FM010700 VRB03KT P6SM BKN015 FM011700 28006KT P6SM BKN025", "KSYR 311730Z 3118/0118 18006KT P6SM VCSH SCT060 BKN100 FM010500 14004KT P6SM -SHRA OVC035 FM011000 VRB03KT P6SM OVC022 FM011500 23004KT P6SM OVC015", "TAF KSZL 311900Z 3119/0201 27009KT 9999 FEW100 QNH2986INS BECMG 0103/0104 19009KT 9999 SKC QNH3000INS TX22/3120Z TN06/0112Z", "TAF KTBN 311300Z 3113/0119 VRB06KT 8000 BR FEW006 OVC047 QNH2991INS BECMG 3114/3115 VRB06KT 9000 -RA BR SCT006 BKN020 QNH2992INS TEMPO 3115/3117 25008KT 9999 BKN006 BECMG 3116/3117 29010G15KT 9999 FEW006 BKN045 QNH2995INS BECMG 3122/3123 VRB06KT 9999 FEW100 QNH2994INS TX19/3120Z TN07/0113Z", "KTCC 311727Z 3118/0118 22010KT P6SM FEW250 FM010600 24010KT P6SM SKC", "KTCL 311720Z 3118/0118 23005KT P6SM BKN050 FM010800 00000KT 4SM BR SCT070 FM011000 00000KT 1SM BR OVC002 FM011300 00000KT 4SM BR BKN040 FM011400 00000KT P6SM BKN060", "TAF KTCM 311300Z 3113/0119 21012KT 8000 -RA SCT040 BKN060 620709 QNH2978INS BECMG 3116/3117 19012G18KT 9999 VCSH BKN030 OVC040 610709 QNH2977INS BECMG 0101/0102 23010KT 9999 NSW SCT030 BKN050 OVC070 620509 QNH2975INS BECMG 0111/0112 VRB06KT 9999 SCT020 BKN040 620409 QNH2972INS BECMG 0115/0116 VRB06KT 9999 SCT010 OVC020 620409 QNH2971INS TX12/3122Z TN10/3115Z", "KTCS 311723Z 3118/0118 02006KT P6SM SKC FM312100 25006KT P6SM SKC", "KTEB 311935Z 3120/0124 22008KT P6SM FEW035 BKN120 FM312300 VRB03KT P6SM FEW035 BKN120 FM010100 VRB03KT P6SM VCSH BKN050 OVC100 FM010600 VRB03KT 6SM -SHRA BR BKN015 OVC040 FM010900 VRB03KT 4SM -SHRA BR OVC007 FM011300 VRB03KT 6SM BR VCSH OVC015 FM011700 VRB05KT P6SM OVC025 FM011900 29005KT P6SM FEW025 BKN040", "KTEX 311720Z 3118/0118 VRB04KT P6SM SKC FM312000 28008G16KT P6SM SKC FM010000 25004KT P6SM SKC FM010300 14006KT P6SM SKC", "TAF KTIK 311700Z 3117/0123 VRB06KT 9999 SKC QNH2998INS BECMG 3120/3121 20015KT 9999 SKC QNH3009INS TX21/3120Z TN10/0111Z", "KTIX 311720Z 3118/0118 08007KT P6SM VCSH SCT030 FM010200 10005KT P6SM FEW030 SCT200 FM011300 09006KT P6SM SCT035", "KTLH 311733Z 3118/0118 25006KT P6SM BKN040 FM010000 34002KT P6SM FEW030 SCT250 FM010900 35002KT 6SM BR FEW250 FM011400 02003KT P6SM FEW250", "KTMB 311720Z 3118/0118 10008KT P6SM VCSH SCT025 SCT100 FM312100 11010KT P6SM SCT030 BKN250 FM010500 VRB05KT P6SM FEW030 FM011400 12010KT P6SM SCT030 SCT100", "KTOI 311720Z 3118/0118 26005KT P6SM FEW070 FM010800 00000KT 4SM BR SCT050 FM011000 00000KT 1SM BR SCT100 FM011300 00000KT 4SM BR SCT110 FM011400 VRB04KT P6SM FEW110", "KTOL 311722Z 3118/0118 22008KT 6SM -SHRA BR BKN008 FM311900 22008KT 6SM -SHRA BR BKN015 FM312100 22006KT P6SM VCSH BKN020 FM010200 22004KT 6SM -SHRA BR OVC015 FM010800 25005KT 4SM BR BKN008 FM011300 29005KT P6SM BKN015", "KTOP 311720Z 3118/0118 29005KT P6SM FEW200 FM011600 19007KT P6SM FEW080", "KTPA 311739Z 3118/0124 25005KT P6SM FEW030 FEW200 FM312200 31006KT P6SM FEW035 SCT150 FM010300 35004KT P6SM FEW250 FM011300 05004KT P6SM FEW050", "KTPH 311733Z 3118/0118 17009KT P6SM BKN150 FM010600 08010KT P6SM BKN150 FM011600 17013G23KT P6SM BKN120", "KTRI 311739Z 3118/0118 VRB03KT P6SM SCT006 BKN045 FM011200 00000KT 1SM BR BKN013 FM011300 VRB03KT 6SM BR BKN021", "KTRK 311739Z 3118/0118 VRB03KT P6SM BKN220 FM312200 23008KT P6SM SCT120 BKN200 FM010300 20010KT P6SM SCT090 BKN150 WS020/22040KT FM011600 20016G26KT P6SM BKN060 OVC100 WS020/23045KT PROB30 0116/0118 5SM -RASN BKN035", "KTRM 311727Z 3118/0118 VRB05KT P6SM SCT250 FM312000 15006KT P6SM SCT200 FM010100 VRB05KT P6SM BKN200", "KTTD 311743Z 3118/0118 24005KT 6SM -RA BR SCT015 OVC035 FM311900 VRB03KT 5SM -RADZ BR OVC025 FM010400 29006KT P6SM VCSH SCT025 BKN040", "KTTN 311854Z 3119/0118 24003KT P6SM SCT025 BKN035 TEMPO 3119/3123 BKN025 FM312300 VRB03KT P6SM OVC025 FM010200 VRB02KT 3SM -SHRA BR OVC015 FM010600 VRB02KT 3SM -SHRA BR OVC008 FM010900 VRB02KT 2SM BR OVC005 FM011500 VRB02KT 5SM BR OVC008", "KTUL 311723Z 3118/0118 22004KT P6SM SCT250 FM010300 18005KT P6SM SKC", "KTUP 311736Z 3118/0118 27007KT P6SM FEW020 BKN035 FM010100 30002KT P6SM FEW250 FM010600 00000KT 6SM BR SKC FM011000 00000KT 3SM BR SKC FM011300 VRB03KT P6SM FEW250", "KTUS 311727Z 3118/0118 VRB04KT P6SM SKC FM312200 34006KT P6SM SKC FM010600 14008KT P6SM SCT180 BKN250", "KTVC 311733Z 3118/0118 VRB03KT P6SM BKN110 FM312200 22004KT P6SM SCT150 FM010000 00000KT P6SM FEW250 FM011300 22004KT P6SM FEW210", "KTVF 311720Z 3118/0118 23011KT P6SM BKN250 FM010000 VRB05KT P6SM SKC", "KTVL 311739Z 3118/0118 19006KT P6SM FEW100 BKN220 FM010300 20011KT P6SM SCT090 BKN150 WS020/22040KT FM011600 19015G25KT P6SM BKN060 OVC100 WS020/23045KT PROB30 0116/0118 5SM -RASN BKN035", "KTWF 311731Z 3118/0118 19008KT P6SM SCT200 FM312000 06007KT P6SM SCT200 FM010300 17012KT P6SM BKN200", "KTXK 311720Z 3118/0118 35007KT P6SM SKC FM010000 00000KT P6SM SKC FM010600 00000KT 6SM BR SKC FM011500 VRB03KT 6SM BR BKN250", "KTYR 311720Z 3118/0118 VRB04KT P6SM SKC FM010000 VRB03KT P6SM FEW250 FM011500 17005KT P6SM BKN250", "KTYS 311936Z 3120/0118 25010KT P6SM SCT020 BKN035 FM010300 VRB03KT P6SM BKN060 FM011100 00000KT 5SM BR BKN026 FM011300 VRB03KT 5SM BR SCT021", "KUAO 311743Z 3118/0118 22006KT 4SM -RA BR SCT015 OVC025 FM312000 VRB03KT 6SM -RADZ BR OVC015 FM010700 29006KT P6SM VCSH SCT025 BKN040", "KUES 311720Z 3118/0118 00000KT P6SM SCT035 FM010000 VRB03KT P6SM SKC FM011500 25005KT P6SM SKC", "KUIN 311739Z 3118/0118 31007KT P6SM BKN100 FM312300 VRB04KT P6SM FEW250", "KUKI 311741Z 3118/0118 VRB05KT P6SM SCT180 BKN250 FM010500 VRB03KT P6SM SCT025 BKN050 OVC180 FM011100 VRB03KT 5SM BR BKN015 FM011600 16004KT 3SM -RA BR OVC012", "KUNV 311744Z 3118/0118 00000KT P6SM VCSH OVC025 FM312100 VRB02KT P6SM VCSH OVC040 FM010500 20003KT P6SM -SHRA OVC025 FM010900 21006KT 5SM BR OVC018", "KUTS 311720Z 3118/0118 VRB03KT P6SM SCT250 FM011600 14006KT P6SM OVC100", "TAF KVAD 311600Z 3116/0122 24006KT 9999 SCT020 QNH2997INS TEMPO 3120/3124 9000 -SHRA BKN015 BECMG 0101/0102 27006KT 9999 BKN010 QNH3006INS BECMG 0111/0112 34006KT 9999 SCT020 QNH3016INS BECMG 0115/0116 34006KT 9999 SKC QNH3016INS TX28/3120Z TN16/0110Z", "TAF AMD KVBG 311528Z 3115/0120 VRB06KT 9999 SCT003 BKN200 QNH2997INS BECMG 3117/3118 33009KT 9999 FEW005 BKN180 QNH2995INS BECMG 3123/3124 33012KT 9999 SCT005 BKN150 QNH2994INS BECMG 0101/0102 35006KT 4800 BR OVC003 QNH2992INS BECMG 0103/0104 35006KT 0400 FG VV001 QNH2995INS TEMPO 0110/0116 1600 -DZ BR OVC003 BECMG 0115/0116 35006KT 3200 BR OVC003 QNH2997INS BECMG 0117/0118 27009KT 9999 NSW BKN005 BKN200 QNH2994INS BECMG 0119/0120 30012KT 9999 FEW007 SCT120 BKN200 QNH2990INS TX19/3121Z TN08/0114Z", "KVCT 311739Z 3118/0118 09006KT P6SM SCT050 BKN250 FM312000 11008KT P6SM BKN070 BKN250 FM010300 08004KT P6SM VCSH BKN050 OVC250 FM010900 04005KT P6SM -RA BKN025 TEMPO 0109/0113 4SM -TSRA OVC020CB FM011400 07009KT 4SM -RA BR BKN009", "KVEL 311720Z 3118/0118 VRB03KT P6SM SKC", "KVGT 311731Z 3118/0118 13006KT P6SM SCT250 FM010300 VRB05KT P6SM SCT150 BKN250 FM011600 17008KT P6SM BKN250", "KVIS 311730Z 3118/0118 VRB04KT P6SM BKN200 FM011200 13005KT P6SM BKN250", "KVLD 311733Z 3118/0118 19005KT P6SM FEW030 BKN100 FM311900 21004KT P6SM FEW030 BKN050 FM010800 00000KT 6SM BR SCT250 FM011300 35003KT P6SM FEW250", "KVNY 311723Z 3118/0118 26003KT P6SM SCT200 FM312100 14008KT P6SM BKN250 FM010300 VRB03KT P6SM BKN200 FM010900 VRB03KT 5SM BR BKN008 FM011500 VRB03KT P6SM OVC015", "TAF KVOK 311700Z 3117/0123 VRB06KT 9999 SKC QNH2983INS TX17/3120Z TN04/0113Z LAST NO AMDS AFT 3121 NEXT 0109", "TAF KVPS 311700Z 3117/0123 18009KT 9999 FEW040 FEW250 QNH2995INS BECMG 0101/0102 34009KT 9999 FEW200 QNH2999INS BECMG 0117/0118 16009KT 9999 FEW030 QNH3014INS TX25/3119Z TN13/0112Z", "KVQQ 311908Z 3119/0118 20005KT P6SM BKN040 FM010000 VRB03KT P6SM SCT035 BKN150 FM010330 00000KT 4SM BR BKN250 FM010600 00000KT 1 1/2SM BR SCT250 FM010900 00000KT 1/2SM FG SCT002 BKN015 FM011230 04004KT P6SM BKN250", "KVRB 311720Z 3118/0118 10009KT P6SM VCSH SCT020 SCT040 FM010200 10006KT P6SM FEW025 SCT200 FM011300 09007KT P6SM SCT030", "KVTN 311720Z 3118/0118 26010KT P6SM SCT200 FM010100 VRB04KT P6SM SCT200 FM011600 19009KT P6SM SCT200", "KWJF 311723Z 3118/0118 00000KT P6SM SCT200 FM311900 06006KT P6SM BKN200 FM312300 22008KT P6SM BKN200 FM010300 26008KT P6SM BKN200", "KWMC 311733Z 3118/0118 VRB06KT P6SM BKN200 FM010200 15007KT P6SM SCT120 BKN200 FM011700 17012KT P6SM SCT100 BKN150", "TAF AMD KWRB 311901Z 3119/0122 22009KT 9999 FEW015 SCT035 QNH2996INS BECMG 3123/3124 27006KT 9999 BKN050 QNH2992INS BECMG 0108/0109 VRB03KT 8000 BR OVC020 QNH2995INS BECMG 0114/0115 VRB06KT 9999 NSW SCT020 BKN035 QNH3012INS TX25/3121Z TN11/0111Z", "TAF KWRI 311800Z 3118/0124 20006KT 9999 OVC030 QNH3000INS TEMPO 3122/0101 8000 -SHRA BECMG 0102/0103 20006KT 8000 -SHRA BR OVC015 QNH3001INS BECMG 0105/0106 21005KT 3200 -RA OVC007 QNH3003INS BECMG 0108/0109 28004KT 4800 -SHRA BR OVC004 QNH3003INS BECMG 0113/0114 30006KT 9999 NSW OVC010 QNH3003INS BECMG 0122/0123 33004KT 8000 BR BKN030 QNH3003INS TX21/3119Z TN12/0112Z", "KWRL 311722Z 3118/0118 16007KT P6SM SCT200", "KWWR 311720Z 3118/0118 18007KT P6SM SCT150 FM011500 20014KT P6SM SCT250", "KXNA 311723Z 3118/0118 22006KT P6SM SKC FM010900 00000KT 5SM BR SKC TEMPO 0110/0114 1SM BR FM011400 19003KT P6SM SKC", "KXWA 311731Z 3118/0118 23010KT P6SM FEW090 SCT250 FM010000 22008KT P6SM FEW090 FEW250 FM010600 20005KT P6SM BKN250 FM011400 18007KT P6SM SCT200", "KYIP 311720Z 3118/0118 19005KT 5SM -SHRA BR OVC005 FM312000 20006KT P6SM SCT009 OVC015 FM010000 25005KT 6SM -SHRA OVC010 FM010600 29004KT 5SM BR OVC008 FM011200 28006KT P6SM BKN020 FM011500 26005KT P6SM SCT030", "KYKM 311720Z 3118/0118 VRB05KT P6SM BKN060 OVC080 FM312000 24009KT P6SM OVC090 FM010600 19006KT P6SM -RA OVC050", "KYNG 311722Z 3118/0118 18006KT P6SM -SHRA OVC008 FM311900 18006KT P6SM -SHRA OVC010 FM312100 17005KT P6SM VCSH OVC020 FM312300 17004KT P6SM VCSH BKN040 FM010400 20004KT P6SM OVC010 FM011000 23004KT 5SM BR OVC008", "KZZV 311732Z 3118/0118 21008KT P6SM SCT020 BKN045 FM010500 VRB02KT P6SM BKN030 FM010700 VRB02KT P6SM BKN011 FM010800 VRB02KT P6SM VCSH BKN008", "TAF LATI 311700Z 3118/0118 VRB05KT CAVOK TX27/0112Z TN10/0105Z", "TAF LBBG 311700Z 3118/0118 VRB04KT CAVOK BECMG 3122/3124 3000 BR BKN010 TEMPO 0100/0106 1500 BR BKN007 PROB40 0103/0106 0600 BCFG SCT002 BKN005 BECMG 0109/0111 12010KT 9999 SCT030", "TAF LBGO 311700Z 3118/0118 VRB04KT CAVOK BECMG 0100/0102 5000 BR TEMPO 0102/0106 1200 BR SCT007 BECMG 0107/0109 9999 SCT060", "TAF LBPD 311700Z 3118/0118 30010KT 9999 BKN080 BECMG 0114/0116 VRB04KT", "TAF LBSF 311700Z 3118/0118 VRB04KT CAVOK BECMG 0100/0102 5000 BR SCT015 TEMPO 0103/0106 1500 BR BKN007 PROB40 0104/0106 0500 BCFG OVC002 BECMG 0106/0108 CAVOK", "TAF LBWN 311700Z 3118/0118 VRB04KT 9999 SCT030 TEMPO 0101/0106 3000 BR BKN010 BECMG 0110/0112 12010KT BECMG 0116/0118 VRB04KT", "TAF LCEN 311640Z 3118/0118 28012KT 9999 SCT025 SCT100", "TAF LCLK 311730Z 3118/0118 33007KT 9999 FEW035 BECMG 0108/0111 19010KT PROB30 TEMPO 0110/0114 VRB15G25KT 5000 TSRA SCT040CB BECMG 0115/0118 33007KT", "TAF LCPH 311730Z 3118/0118 01008KT 9999 FEW030 BECMG 0108/0111 31012KT BECMG 0116/0118 01007KT", "TAF LDDU 311725Z 3118/0118 VRB02KT CAVOK TX14/0111Z TN16/0105Z PROB30 TEMPO 0100/0107 03010KT BECMG 0108/0110 15008KT BECMG 0114/0116 VRB02KT", "TAF LDOS 311725Z 3118/0118 VRB02KT 0200 FG VV001 TX20/0113Z TN08/0102Z PROB40 TEMPO 3118/3121 1000 BR BKN002 BECMG 0109/0111 6000 NSW SCT007", "TAF LDPL 311725Z 3118/0118 VRB02KT CAVOK TX21/0112Z TN09/0105Z TEMPO 0111/0116 27007KT", "TAF LDRI 311125Z 3112/0112 VRB02KT CAVOK TX23/3113Z TN12/0105Z", "TAF LDSP 311725Z 3118/0118 VRB02KT CAVOK TX24/0112Z TN14/0103Z TEMPO 0112/0115 23007KT", "TAF AMD LDZA 311807Z 3118/0118 VRB02KT 0100 FG VV001 TX23/0113Z TN10/0103Z TEMPO 3118/0108 0400 VV002 PROB30 TEMPO 3118/0108 1000 BCFG NSC BECMG 0108/0111 23007KT 6000 NSW NSC PROB30 TEMPO 0111/0115 23012KT BECMG 0115/0117 VRB02KT", "TAF LDZD 311725Z 3118/0118 VRB02KT 8000 NSC TX24/0112Z TN10/0105Z BECMG 3118/3120 1200 BCFG BECMG 3120/3122 0400 FG TEMPO 3123/0105 0100 VV001 BECMG 0106/0108 CAVOK TEMPO 0112/0115 31006KT", "TAF LEAB 311700Z 3118/0118 VRB05KT CAVOK TX21/0115Z TN11/0106Z PROB30 TEMPO 0106/0111 BKN008", "TAF LEAG 311400Z 3115/0115 VRB03KT 9999 FEW030 TX23/3115Z TN18/0105Z BECMG 0110/0112 11010KT", "TAF LEAL 311700Z 3118/0118 VRB04KT 9999 FEW025 TX26/0112Z TN17/0104Z TEMPO 0103/0108 33010KT BECMG 0111/0113 12010KT", "TAF LEAM 311700Z 3118/0118 19010KT CAVOK TX26/0113Z TN18/0106Z BECMG 3120/3122 34005KT BECMG 0110/0112 19010KT", "TAF LEAO 311400Z 3115/0115 20010KT 9999 SCT020 SCT030 TX22/3115Z TN10/0106Z PROB30 TEMPO 3118/3124 4000 RA SHRA SCT030TCU BECMG 3121/3122 20006KT BECMG 0104/0106 VRB04KT PROB40 TEMPO 0102/0108 1500 BR BCFG BKN005", "TAF AMD LEAS 311828Z 3118/0115 29010KT 9999 FEW045 TX19/0114Z TN10/0106Z TEMPO 3118/3121 29017G27KT BECMG 3118/3121 22008KT", "TAF LEBA 311400Z 3115/0115 27006KT CAVOK TX25/3115Z TN14/0106Z PROB30 TEMPO 0103/0109 4000 BR", "TAF LEBB 311700Z 3118/0118 29012KT 9999 SCT020 BKN030 TX20/0113Z TN11/0107Z TEMPO 3118/3119 29019G29KT PROB40 TEMPO 3118/3121 3000 RA BKN010 BECMG 3122/3124 23006KT PROB40 TEMPO 0112/0118 33008KT", "TAF LEBG 311400Z 3115/0115 20013KT 9999 BKN035 TX16/3115Z TN04/0106Z TEMPO 3115/3119 19020G30KT PROB40 TEMPO 3115/3119 3000 RA SHRA SCT030TCU PROB40 TEMPO 3121/0110 1500 BR BCFG BKN008 PROB40 TEMPO 0102/0108 0600 FG VV001", "TAF LEBL 311700Z 3118/0118 17005KT 9999 FEW020 TX23/0112Z TN16/0106Z BECMG 3120/3123 27006KT BECMG 3123/0102 35008KT PROB30 TEMPO 0100/0104 4000 SHRA FEW030CB BECMG 0109/0111 08010KT", "TAF LEBR 311400Z 3115/0115 13012KT 9999 BKN020 TX20/3115Z TN10/0107Z PROB30 TEMPO 3115/0103 RA BECMG 3120/3124 VRB04KT", "TAF LEBZ 311400Z 3115/0115 21008KT 9999 SCT020 TX21/3115Z TN12/0106Z PROB30 TEMPO 3115/3120 4000 RA BKN014 PROB30 TEMPO 0100/0111 2000 BR BKN010", "TAF LECO 311400Z 3115/0115 29010KT 9999 SCT030 TX16/0112Z TN09/0107Z TEMPO 3115/3116 29015G25KT BECMG 3118/3120 20008KT", "TAF LECV 311700Z 3118/0118 VRB05KT 9999 SCT020 BKN025 TX15/0115Z TN10/0106Z PROB40 TEMPO 3118/3119 3000 RA BKN012 PROB40 TEMPO 0100/0108 1200 BR BCFG BKN005 PROB30 TEMPO 0102/0108 0500 FG VV001 TEMPO 0108/0115 BKN012", "TAF LEEC 310800Z 3109/0109 31005KT CAVOK TX25/3116Z TN16/0105Z BECMG 3109/3111 22010KT BECMG 3117/3119 VRB02KT", "TAF LEGA 311100Z 3112/0112 19010KT CAVOK TX29/3115Z TN12/0106Z BECMG 3117/3119 VRB02KT", "TAF LEGE 311700Z 3118/0118 18010KT 9999 FEW030 TX24/0113Z TN14/0105Z BECMG 3122/3124 VRB04KT PROB30 TEMPO 0102/0106 3000 SHRA FEW060CB BECMG 0112/0114 16010KT", "TAF LEGR 311700Z 3118/0118 VRB02KT CAVOK TX27/0115Z TN10/0106Z BECMG 0110/0112 28010KT", "TAF LEGT 311700Z 3118/0118 VRB05KT 9999 SCT025 BKN040 TX20/0115Z TN12/0106Z PROB40 TEMPO 3118/3119 RA BKN014 PROB30 TEMPO 3118/3121 20006KT PROB40 TEMPO 0100/0108 1500 BR BCFG BKN008 PROB30 TEMPO 0102/0108 0800 FG VV002 PROB40 TEMPO 0108/0115 BKN014", "TAF LEHC 311400Z 3115/0115 11010KT 9999 BKN025 TX20/0113Z TN10/0105Z TEMPO 3115/3124 3000 SHRA FEW030CB PROB40 TEMPO 3115/3124 3000 TSRA FEW030CB BECMG 3117/3119 VRB04KT PROB40 TEMPO 0100/0111 3000 BR BKN010 PROB30 TEMPO 0107/0110 0800 BCFG VV002", "TAF LEIB 311400Z 3115/0115 16008KT 9999 BKN020 TX25/0112Z TN15/0104Z PROB30 TEMPO 3115/3120 BKN014 BECMG 3117/3119 VRB04KT PROB30 TEMPO 0100/0106 3000 BR BKN010 BECMG 0106/0108 33010KT BECMG 0111/0113 08010KT", "TAF LEJR 311400Z 3115/0115 22006KT CAVOK TX26/3115Z TN16/0106Z PROB30 TEMPO 3121/0109 3000 BR BKN012", "TAF LELC 311700Z 3118/0118 35004KT 9999 FEW020 TX26/0113Z TN16/0106Z BECMG 0110/0112 10010KT", "TAF LELL 311400Z 3115/0115 19008KT 9999 SCT020 BKN035 TX22/0112Z TN13/0105Z BECMG 3117/3119 VRB04KT PROB30 TEMPO 0100/0103 3000 TSRA FEW030CB BECMG 0113/0115 15008KT", "TAF LELN 311400Z 3115/0115 20013KT 9999 SCT015 BKN025 TX14/3115Z TN03/0106Z PROB40 TEMPO 3115/3118 18015G27KT TEMPO 3115/3118 1500 RA SHRA BKN008 SCT030TCU BECMG 3118/3119 34006KT PROB40 TEMPO 3122/0111 2000 BR BCFG BKN006 PROB30 TEMPO 0101/0110 0800 FG VV001 BECMG 0110/0111 20008KT", "TAF LELO 311400Z 3115/0115 10012KT 9999 FEW015 SCT025 TX19/3115Z TN09/0106Z PROB30 TEMPO 3115/3121 RA SHRA SCT030TCU PROB40 TEMPO 3122/0109 2000 BR BCFG BKN010 BECMG 3122/3123 28008KT", "TAF LEMD 311700Z 3118/0124 VRB05KT 9999 SCT025 BKN040 TX19/0115Z TN09/0106Z PROB40 TEMPO 3118/3119 RA BKN014 PROB30 TEMPO 3118/3121 20006KT TEMPO 3120/0108 BKN008 PROB40 TEMPO 0102/0107 1500 BR BCFG BKN008 PROB30 TEMPO 0108/0115 BKN012", "TAF LEMG 311700Z 3118/0118 29006KT 9999 FEW020 TX28/0112Z TN17/0106Z BECMG 0111/0113 13006KT", "TAF LEMH 311400Z 3115/0115 16015KT 9999 SCT020 TX24/0112Z TN16/0104Z BECMG 3123/0101 VRB04KT BECMG 0106/0108 14008KT PROB30 TEMPO 0110/0114 3000 TSRA FEW020CB BECMG 0111/0113 VRB04KT TEMPO 0112/0115 22008KT", "TAF LEMO 311400Z 3115/0115 22005KT CAVOK TX26/3115Z TN14/0106Z PROB30 TEMPO 3121/0109 4000 BR", "TAF AMD LEPA 311822Z 3118/0118 VRB04KT 9999 FEW020 TX27/0112Z TN15/0106Z TEMPO 3118/0108 3000 BR BKN010 PROB40 TEMPO 3118/0107 0800 BCFG BKN002 BECMG 0109/0111 22008KT PROB40 TEMPO 0113/0118 TS FEW025CB", "TAF LEPP 311400Z 3115/0115 17009KT 9999 FEW020 BKN030 TX18/0115Z TN10/0107Z PROB40 TEMPO 3115/3118 16017G27KT PROB30 TEMPO 3115/3118 RA PROB40 TEMPO 3120/0103 3000 RA BR BKN010", "TAF LERI 311700Z 3118/0118 VRB03KT 9999 FEW020 TX28/0114Z TN15/0106Z", "TAF LERL 311400Z 3115/0115 20010KT 9999 SCT020 SCT030 TX22/3115Z TN10/0106Z PROB30 TEMPO 3118/3124 4000 RA SHRA SCT030TCU BECMG 3121/3122 20006KT BECMG 0104/0106 VRB04KT PROB40 TEMPO 0102/0108 1500 BR BCFG BKN005", "TAF LERS 311400Z 3115/0115 20008KT 9999 BKN030 TX25/0112Z TN13/0105Z BECMG 3118/3120 VRB04KT PROB40 TEMPO 3118/0103 28010KT 3000 SHRA FEW060CB PROB30 TEMPO 0100/0103 3000 TSRA FEW030CB", "TAF LERT 311400Z 3115/0115 18010KT CAVOK TX24/3115Z TN17/0106Z BECMG 3117/3119 VRB02KT PROB30 TEMPO 3118/0109 4000 BR BKN014 BECMG 0110/0112 31010KT", "TAF LESA 311400Z 3115/0115 23012KT 9999 SCT025 BKN040 TX17/3115Z TN04/0106Z PROB40 TEMPO 3115/3118 25015G27KT RA SHRA SCT030TCU BKN040 BECMG 3119/3120 VRB05KT PROB40 TEMPO 3121/0110 1500 BR BCFG BKN005 PROB40 TEMPO 0102/0109 0200 FG VV001", "TAF LESO 311700Z 3118/0118 18009KT 9999 FEW020 TX22/0118Z TN13/0107Z BECMG 3118/3120 27010KT TEMPO 3118/0101 3000 RA BKN010 PROB40 TEMPO 3118/3120 27019G29KT PROB40 TEMPO 0112/0118 02010KT", "TAF LEST 311700Z 3118/0118 VRB04KT 9999 SCT010 BKN020 TX16/0114Z TN07/0106Z PROB40 TEMPO 0100/0107 3000 BCFG PROB30 0100/0107 0800 FG BKN002 PROB40 TEMPO 0112/0118 24010KT", "TAF LESU 311400Z 3115/0115 VRB03KT 9999 FEW025 TX20/0113Z TN05/0105Z TEMPO 3115/3116 22010KT TEMPO 3115/0102 3000 SHRA FEW040CB PROB40 TEMPO 3115/0102 3000 TSRA FEW040CB PROB40 TEMPO 0100/0108 3000 BR BKN010 TEMPO 0112/0115 22010KT", "TAF LETO 311700Z 3118/0118 VRB05KT 9999 SCT025 BKN040 TX18/0115Z TN08/0106Z PROB40 TEMPO 3118/3119 RA BKN014 PROB30 TEMPO 3118/3121 20006KT TEMPO 3120/0108 BKN008 PROB40 TEMPO 0102/0107 1500 BR BCFG BKN008 PROB40 TEMPO 0101/0115 BKN014", "TAF LEVC 311700Z 3118/0118 VRB04KT 9999 FEW030 TX25/0112Z TN17/0105Z BECMG 0113/0115 09010KT", "TAF AMD LEVD 311613Z 3116/0115 21013KT 9999 SCT020 BKN040 TX15/0115Z TN05/0106Z PROB40 TEMPO 3116/3118 20015G27KT 3000 RA BKN010 BECMG 3121/3122 21006KT PROB40 TEMPO 3120/0110 1500 BR BCFG BKN006 PROB40 TEMPO 0101/0109 0100 FG VV001", "TAF LEVS 311700Z 3118/0118 VRB05KT 9999 SCT030 BKN040 TX19/0115Z TN11/0106Z PROB40 TEMPO 3118/3119 RA BKN014 PROB40 TEMPO 3120/0107 BKN008 PROB40 TEMPO 0100/0108 1500 BR BCFG BKN008 PROB30 TEMPO 0102/0108 0800 FG VV002 PROB40 TEMPO 0108/0115 BKN012", "TAF LEVT 311700Z 3118/0118 22009KT 9999 OVC032 TX19/0112Z TN09/0107Z TEMPO 3118/0107 BKN010 PROB40 TEMPO 3118/0107 3000 SHRA SCT020TCU", "TAF LEVX 311700Z 3118/0118 VRB03KT 9999 SCT030 TX15/0113Z TN07/0106Z PROB30 TEMPO 0102/0107 3000 BCFG PROB30 TEMPO 0102/0107 0350 FG VV001 PROB40 TEMPO 0112/0118 26010KT", "TAF LEXJ 311400Z 3115/0115 20009KT 9999 FEW020 BKN040 TX22/3115Z TN12/0103Z TEMPO 3115/3117 20015G25KT PROB40 TEMPO 3115/3117 20022G35KT BECMG 3115/3117 28012KT PROB40 TEMPO 3115/3121 28015G25KT 3000 RA BKN010 PROB40 TEMPO 3115/3118 28025G35KT BECMG 3120/3122 20007KT", "TAF LEZG 311700Z 3118/0118 22007KT 9999 FEW010 TX22/0113Z TN13/0105Z TEMPO 3118/3124 4000 RA SHRA FEW060TCU PROB40 TEMPO 3118/3124 3000 TSRA FEW060CB BECMG 0100/0102 28008KT BECMG 0109/0111 VRB04KT", "TAF LEZL 311400Z 3115/0115 22006KT CAVOK TX25/3116Z TN16/0105Z PROB30 TEMPO 3122/0109 4000 BR", "TAF LFAQ 311400Z 3115/3124 12010KT CAVOK BECMG 3118/3120 19020G30KT TEMPO 3118/3124 4000 RA BKN014 OVC040", "TAF LFAT 311400Z 3115/3124 13010KT CAVOK BECMG 3118/3120 19015G25KT TEMPO 3119/3124 4000 RA BKN014 OVC040 BECMG 3123/3124 20025G35KT", "TAF LFBA 311700Z 3118/0103 20008KT CAVOK TEMPO 3118/3124 -RA SCT060TCU BKN090 BECMG 3121/3123 28010KT TEMPO 0100/0103 BKN025", "TAF LFBC 311400Z 3115/0115 19010KT CAVOK BECMG 3118/3119 27012KT TEMPO 3118/3121 26015G25KT 3000 SHRA BKN040TCU PROB30 TEMPO 3118/3121 -TSRA BKN030CB BECMG 0104/0106 VRB02KT", "TAF AMD LFBD 311818Z 3118/0124 18010KT CAVOK TX19/0114Z TN10/0103Z TEMPO 3118/3121 4000 SHRA BKN050TCU PROB30 TEMPO 3118/3120 VRB15G25KT BKN040CB BECMG 3121/3123 26008KT TEMPO 0122/0124 SHRA BKN030TCU", "TAF LFBE 311700Z 3118/0118 18010KT CAVOK TEMPO 3118/3123 20015G25KT SHRA BKN040TCU PROB30 TEMPO 3119/3123 BKN010 BKN030CB BECMG 3123/0101 25005KT", "TAF LFBG 311400Z 3115/0115 15013KT 9999 -RA BKN060 TEMPO 3115/3122 16015G25KT 2000 SHRA BKN030CB", "TAF LFBH 311700Z 3118/0118 17015G30KT 9999 BKN016 TEMPO 3118/3120 3000 SHRA BKN025CB PROB40 TEMPO 3118/3120 21025G40KT BECMG 3118/3122 26020G37KT 9999 SCT030 BECMG 0100/0102 26015G27KT BECMG 0102/0104 25011KT PROB40 TEMPO 0116/0118 4000 SHRA BKN025CB", "TAF LFBI 311700Z 3118/0118 20016G30KT 9999 BKN016 TEMPO 3118/3121 3000 SHRA BKN014 BKN025CB PROB40 TEMPO 3118/3121 20020G40KT FM312100 24020G35KT 9999 SCT025 BECMG 3121/3124 25011KT PROB30 TEMPO 0116/0118 4000 SHRA BKN025CB", "TAF LFBL 311700Z 3118/0118 18015KT CAVOK TEMPO 3118/3122 22015G30KT 3000 SHRA BKN030TCU PROB30 TEMPO 3118/3122 TSRA BKN008 BKN025CB BECMG 3122/3124 26010KT BECMG 0100/0102 20005KT", "TAF LFBM 311400Z 3115/0115 20008KT CAVOK TEMPO 3115/3123 4000 SHRA SCT045TCU PROB40 TEMPO 3120/3123 30010G20KT", "TAF LFBO 311700Z 3118/0124 17005KT CAVOK BECMG 3118/3119 29008KT PROB40 TEMPO 3119/3121 -SHRA SCT060TCU BKN090 PROB40 TEMPO 3122/0102 -RA BKN020 SCT040TCU BECMG 0104/0106 24004KT BECMG 0108/0110 VRB03KT PROB40 TEMPO 0112/0120 SCT030", "TAF LFBP 311700Z 3118/0118 22007KT 9999 BKN090 BECMG 3119/3121 28010KT PROB40 TEMPO 3120/3124 -RA BKN060 PROB30 TEMPO 3121/3123 4000 RA BKN022 BECMG 0100/0102 20004KT BKN050 BECMG 0103/0105 VRB03KT BECMG 0108/0110 14005KT CAVOK BECMG 0112/0114 VRB03KT BECMG 0114/0116 BKN035", "TAF LFBT 311700Z 3118/0118 VRB03KT 9999 BKN090 BECMG 3120/3122 27010KT BKN040 TEMPO 3121/0102 -RA BKN015 PROB30 TEMPO 3122/3124 28015G25KT BECMG 0102/0104 VRB03KT PROB30 TEMPO 0105/0108 4000 BR BECMG 0109/0111 08005KT CAVOK BECMG 0116/0118 VRB03KT BECMG 0115/0117 BKN040", "TAF LFBU 311700Z 3118/0118 19012KT CAVOK TEMPO 3118/3121 22015G30KT 3000 SHRA BKN030TCU PROB30 TEMPO 3118/3121 SCT030CB BECMG 3121/3123 25010KT BECMG 0102/0104 18005KT", "TAF AMD LFBZ 311840Z 3118/0118 18008KT CAVOK TEMPO 3118/3122 VRB15G25KT SHRA BKN030TCU PROB30 TEMPO 3118/3122 TSRA BKN008 BKN030CB BECMG 3122/3124 30007KT", "TAF LFCK 311700Z 3118/0103 13020G30KT CAVOK BECMG 3120/3122 VRB03KT PROB40 TEMPO 3120/3123 -SHRA BKN035 SCT060CB BECMG 3123/0101 28008KT BKN030 TEMPO 0100/0103 -RA BKN012", "TAF LFCR 311700Z 3118/0118 16013KT CAVOK BECMG 3119/3121 28008KT PROB40 TEMPO 3119/3123 SHRA BKN020 SCT040CB PROB30 TEMPO 3119/3121 -TSRA BECMG 3123/0101 BKN020 PROB30 TEMPO 3123/0106 -RA BKN007 BECMG 0104/0106 30004KT BECMG 0109/0111 SCT020", "TAF LFGJ 311400Z 3115/3124 19012KT CAVOK TEMPO 3115/3124 19015G30KT", "TAF LFJL 311700Z 3118/0118 13010KT CAVOK BECMG 3121/3124 22010KT BKN020 TEMPO 0100/0107 4500 RA BKN014 PROB40 TEMPO 0100/0109 23015G25KT", "TAF LFKB 311400Z 3115/0115 06004KT CAVOK TX23/0112Z TN12/0105Z BECMG 3117/3119 23005KT BECMG 0109/0111 12006KT", "TAF LFKC 311400Z 3115/0115 35007KT CAVOK TX24/0112Z TN11/0106Z BECMG 3116/3118 18004KT BECMG 0109/0110 34006KT", "TAF AMD LFKF 311551Z 3115/0115 21005KT CAVOK BECMG 3117/3119 05004KT BECMG 0110/0112 23010KT", "TAF AMD LFKJ 311554Z 3115/0115 22005KT CAVOK BECMG 3118/3119 04005KT BECMG 0110/0112 23006KT", "TAF LFKS 311400Z 3115/0115 15006KT CAVOK PROB30 TEMPO 3117/0106 BKN010", "TAF LFLB 311400Z 3115/0115 VRB03KT CAVOK BECMG 3118/3120 22010KT BECMG 3123/0102 BKN040 TEMPO 0100/0110 4000 RA SCT035TCU OVC040 PROB30 TEMPO 0102/0106 VRB15KT 2000 +RA SCT020CB BKN030 BECMG 0112/0114 VRB02KT CAVOK", "TAF LFLC 311700Z 3118/0118 18015KT 9999 FEW050TCU BKN060 TEMPO 3118/0102 4000 RA SCT040TCU OVC050 PROB40 TEMPO 3118/3123 26020G35KT 2000 TSRA BKN040CB BECMG 0100/0102 20005KT 9999 BKN035 BECMG 0106/0109 CAVOK", "TAF LFLL 311700Z 3118/0124 18010KT CAVOK TEMPO 3118/3122 18015G25KT PROB30 TEMPO 3122/3124 18020G38KT RA SCT030TCU BKN090 TEMPO 0100/0105 3000 RA BKN014 PROB40 TEMPO 0101/0103 28015G25KT 1500 TSRA BKN040CB PROB40 TEMPO 0105/0108 VRB03KT 3000 -RA BKN008 BECMG 0107/0109 02008KT BKN030 PROB40 TEMPO 0116/0120 CAVOK BECMG 0117/0120 VRB03KT", "TAF LFLN 311700Z 3118/0103 16010KT CAVOK TEMPO 3118/0103 4000 RA FEW050TCU PROB40 TEMPO 3119/3121 18015G35KT", "TAF LFLP 311400Z 3115/0115 24005KT CAVOK BECMG 3123/0102 BKN040 TEMPO 0100/0110 4000 RA SCT030TCU OVC040 PROB30 TEMPO 0102/0106 VRB15KT 2000 +RA SCT015CB BKN025 PROB40 TEMPO 0109/0113 BKN014 BECMG 0113/0115 CAVOK", "TAF LFLS 311400Z 3115/0115 21009KT CAVOK PROB30 TEMPO 3115/3122 21015G25KT BECMG 3122/3124 VRB05KT BKN040 TEMPO 3122/0107 4000 RA SCT030TCU OVC040 PROB30 TEMPO 0100/0104 VRB15G30KT 2000 TSRA SCT015 BKN040CB BECMG 0112/0114 CAVOK", "TAF LFLW 311400Z 3115/3124 13012KT CAVOK TEMPO 3115/3120 15015G27KT TEMPO 3117/3124 3000 RA BKN020 SCT030CB PROB30 TEMPO 3119/3124 VRB15G25KT 1300 TSRA SCT010 BKN020CB", "TAF LFLX 311700Z 3118/0124 20015KT CAVOK PROB30 TEMPO 3118/3119 20015G25KT 3000 SHRA SCT050CB TEMPO 3119/3121 20015G25KT TEMPO 3121/3124 24020G35KT BECMG 0103/0106 21005KT TEMPO 0112/0115 21015G25KT PROB30 TEMPO 0122/0124 -SHRA SCT040TCU", "TAF LFLY 311700Z 3118/0118 18015G25KT CAVOK PROB30 TEMPO 3122/3124 18020G38KT RA SCT030TCU BKN090 TEMPO 0100/0105 3000 RA BKN014 PROB40 TEMPO 0101/0103 28015G25KT 1500 TSRA BKN040CB PROB40 TEMPO 0105/0108 VRB03KT 3000 -RA BKN011 BECMG 0107/0109 02008KT BKN030 BECMG 0114/0116 CAVOK", "TAF LFMD 311400Z 3115/0115 VRB03KT CAVOK PROB40 TEMPO 3115/3121 BKN010 BECMG 3122/3123 36010KT BKN015 BECMG 0104/0106 VRB15KT RA BKN009 BECMG 0109/0111 NSW BECMG 0112/0114 14008KT CAVOK", "TAF LFMI 311400Z 3115/0115 15015G25KT 9999 FEW020 BKN035 TX23/0115Z TN17/0106Z TEMPO 0102/0106 4000 RA BKN014 PROB30 TEMPO 0102/0106 VRB15G30KT 2000 TSRA BKN009 BKN020CB BECMG 0105/0107 32006KT PROB40 TEMPO 0107/0110 BKN014 BECMG 0110/0112 CAVOK", "TAF LFMK 311400Z 3115/0115 08015KT CAVOK TEMPO 3115/3120 09020G30KT BECMG 3120/3122 VRB03KT BECMG 3123/0101 27010KT BKN025 PROB30 TEMPO 0100/0103 28022G35KT -RA BKN013 BECMG 0106/0108 CAVOK", "TAF LFML 311400Z 3115/0121 14015KT 9999 BKN045 TX23/0115Z TN18/0106Z TEMPO 3123/0106 14015G25KT TEMPO 0102/0107 4000 RA BKN014 PROB30 TEMPO 0102/0107 VRB15G30KT 2000 TSRA BKN009 BKN020CB BECMG 0106/0108 34006KT BECMG 0109/0111 CAVOK", "TAF LFMN 311400Z 3115/0121 12010KT CAVOK PROB40 TEMPO 3115/3121 BKN010 BECMG 3122/3123 33010KT BKN015 BECMG 0104/0106 VRB15KT RA BKN009 BECMG 0109/0111 NSW BECMG 0112/0114 11008KT CAVOK BECMG 0118/0120 34012KT", "TAF LFMO 311400Z 3115/0115 17010KT 9999 SCT040 TX24/3115Z TN15/0104Z TEMPO 3115/0101 SHRA BKN030TCU PROB30 TEMPO 3115/0101 4000 TSRA BKN030CB TEMPO 0101/0106 3000 TSRA BKN015CB PROB30 TEMPO 0102/0105 1200 TSRA BKN005 BKN015CB", "TAF AMD LFMP 311555Z 3115/0115 18017G27KT CAVOK BECMG 3119/3121 30008KT", "TAF AMD LFMT 311540Z 3115/0115 13013KT 9999 SCT020 BKN050 TEMPO 3115/0103 14015G25KT OVC013 SCT030CB TEMPO 3121/0103 4000 RA BECMG 0103/0105 FEW020 BKN090 BECMG 0108/0110 33006KT CAVOK", "TAF AMD LFMU 311603Z 3116/0115 12015G25KT 9999 OVC013 PROB30 TEMPO 0100/0103 -RA SCT040TCU BECMG 3117/3119 15010KT BECMG 0101/0103 28010KT FEW020 SCT060", "TAF LFMV 311400Z 3115/0115 16015KT 9999 BKN045 PROB40 TEMPO 3118/0101 4000 SHRA FEW080TCU TEMPO 3121/0104 14015G25KT TEMPO 0101/0107 4000 RA BKN012 PROB40 TEMPO 0102/0107 VRB20G30KT 2000 TSRA BKN025CB BECMG 0104/0106 06006KT BECMG 0109/0111 CAVOK", "TAF AMD LFOB 311828Z 3118/0118 18015G25KT 9999 SCT030 OVC070 TEMPO 3118/0102 4000 RA BKN014 OVC040CB FM312330 22020G35KT 9999 SCT025 BECMG 0103/0106 22013KT BECMG 0110/0113 22020G30KT TEMPO 0115/0118 2000 SHRA BKN010 BKN025CB PROB30 TEMPO 0115/0118 TSRA", "TAF LFOE 311400Z 3115/0115 17010G20KT 9999 SCT030 BECMG 3116/3117 17015G25KT 4000 RA SCT010 BKN015 BKN020TCU PROB40 TEMPO 3117/3119 18020G30KT 2000 TSRA BKN015CB BECMG 3120/3121 20015G25KT 9999 NSW BKN020 TEMPO 3122/0104 21020G35KT 4000 SHRA BKN030TCU PROB40 TEMPO 3122/3124 23020G40KT 2000 TSRA BKN015CB BECMG 0110/0112 21015G30KT", "TAF AMD LFOH 311751Z 3117/0112 12013KT 9999 SCT015 BKN030 TEMPO 3118/3123 18015G25KT 3000 RA BKN014 BKN030CB FM312300 22025G40KT 9999 SCT025 TEMPO 3123/0102 3000 SHRA BKN020TCU BECMG 0104/0106 21020G30KT", "TAF LFOJ 311400Z 3115/0115 16012KT CAVOK TX21/3115Z TN10/0103Z TEMPO 3115/3124 4000 -SHRA SCT040TCU PROB40 TEMPO 3116/3122 22020G30KT 2000 SHRA BKN012 SCT040CB BECMG 3122/0102 24012KT TEMPO 0112/0115 20015G30KT 4000 -SHRA SCT040TCU", "TAF LFOK 311700Z 3118/0118 16012KT CAVOK BECMG 3118/3120 18020G30KT TEMPO 3118/0103 4000 RA BKN040TCU FM010100 21025G35KT 9999 SCT030 BECMG 0103/0106 22012KT", "TAF AMD LFOP 311828Z 3118/0118 18015G25KT 9999 SCT025 OVC070 TEMPO 3118/0102 4000 RA BKN014 OVC040CB FM312300 22020G35KT 9999 SCT025 BECMG 0103/0106 22013KT TEMPO 0113/0118 22020G35KT 2000 SHRA BKN010 BKN025CB PROB30 TEMPO 0113/0118 TSRA", "TAF LFOT 311700Z 3118/0118 18012KT 9999 SCT030 PROB30 TEMPO 3118/3121 -SHRA BKN014 TEMPO 3121/3124 24020G35KT BECMG 0100/0102 24010KT TEMPO 0112/0118 20015G25KT", "TAF LFPB 311700Z 3118/0118 14012KT CAVOK TEMPO 3118/3124 4000 RA SCT040TCU BECMG 3119/3121 20018G30KT BECMG 0105/0107 22012KT BECMG 0111/0113 21020G30KT", "TAF LFPG 311700Z 3118/0124 14012KT CAVOK TX17/3118Z TN11/0107Z TEMPO 3118/3124 4000 SHRA SCT040TCU BECMG 3119/3121 20018G30KT BECMG 0105/0107 22012KT BECMG 0111/0113 21020G30KT PROB40 TEMPO 0119/0121 4000 SHRA FEW040TCU BECMG 0122/0124 21010KT", "TAF LFPN 311700Z 3118/0103 16012KT CAVOK TEMPO 3118/3121 20015G25KT 4000 SHRA BKN012 SCT050CB TEMPO 3121/0102 20020G35KT 4000 SHRA SCT020TCU", "TAF LFPO 311700Z 3118/0124 18010KT 9999 SCT030 TEMPO 3118/3121 18015G30KT 2500 SHRA SCT025CB PROB30 TEMPO 3119/3121 BKN012 BECMG 3121/3123 20015G25KT PROB30 TEMPO 3121/3123 4000 -RA TEMPO 3123/0103 20020G35KT BECMG 0105/0107 20010KT TEMPO 0111/0117 21015G30KT PROB40 TEMPO 0117/0120 21015G30KT 3000 SHRA SCT025CB", "TAF LFPV 311400Z 3115/0115 17010KT 9999 SCT025 TX19/3115Z TN10/0105Z BECMG 3116/3118 22015G25KT 4500 -RA OVC014 TEMPO 3117/3124 20015G35KT 2500 SHRA BKN025CB PROB40 TEMPO 3117/3120 22020G35KT 1500 TSRA BECMG 0100/0102 BKN025 BECMG 0105/0107 20008KT", "TAF LFQQ 311700Z 3118/0124 16010KT CAVOK BECMG 3119/3121 18015G25KT TEMPO 3119/0102 4000 RA BKN014 OVC040TCU FM010100 22020G35KT 9999 SCT025 TEMPO 0117/0124 2000 SHRA BKN010 BKN025CB PROB30 TEMPO 0117/0124 TSRA", "TAF LFRB 311700Z 3118/0124 20015G25KT 9999 SCT008 BKN020 PROB40 TEMPO 3118/3121 3000 SHRA BKN005 BKN020CB PROB30 TEMPO 3118/3120 TSRA TEMPO 3118/3122 25025G45KT PROB30 TEMPO 3119/3121 26030G50KT BECMG 0103/0106 22020G40KT TEMPO 0104/0118 24020G45KT 4000 SHRA BKN015CB PROB40 TEMPO 0108/0117 2000 TSRAGS BECMG 0120/0122 26012KT", "TAF LFRC 311400Z 3115/3124 15012KT 9999 FEW008 BKN040 PROB40 TEMPO 3117/3124 4000 SHRA BKN008 BKN030CB BECMG 3119/3121 18020G30KT PROB30 TEMPO 3121/3124 2000 TSRA BECMG 3122/3124 25025G45KT", "TAF LFRD 311700Z 3118/0118 18015G25KT 9999 SCT010 BKN020 TEMPO 3118/3124 23020G40KT 3000 SHRA BKN008 BKN015CB PROB40 TEMPO 3119/3124 25020G45KT BECMG 0101/0104 21013KT BECMG 0107/0109 21020G30KT PROB40 TEMPO 0108/0110 4000 SHRA BKN020TCU TEMPO 0110/0118 4000 SHRA SCT008 BKN020CB PROB40 0110/0116 21025G45KT 2000 TSRAGS", "TAF AMD LFRG 311921Z 3119/3124 15012KT 9999 SCT025 PROB40 TEMPO 3119/3124 3000 SHRA BKN008 BKN030CB BECMG 3120/3122 20020G30KT PROB40 TEMPO 3122/3124 23020G42KT", "TAF LFRH 311700Z 3118/0118 22020G40KT 9999 BKN018 OVC020 TEMPO 3118/3121 4000 SHRA BKN008 SCT012CB BECMG 3121/3123 25015G30KT TEMPO 0105/0112 SCT018TCU BKN020 BECMG 0107/0109 22020G40KT TEMPO 0110/0114 4000 SHRA SCT010CB BKN015 PROB30 TEMPO 0110/0114 2000 TSRA", "TAF LFRI 311700Z 3118/0118 18015G25KT 9999 BKN016 TEMPO 3118/3120 3000 SHRA BKN010 BKN020CB BECMG 3118/3122 26020G35KT 9999 SCT030 BECMG 3122/3124 26015G25KT BECMG 0100/0102 26010KT BECMG 0109/0112 22015G25KT TEMPO 0114/0118 4000 SHRA BKN025CB", "TAF LFRK 311400Z 3115/3124 16010KT 9999 BKN020 PROB40 TEMPO 3115/3124 3000 SHRA SCT008 BKN030CB BECMG 3119/3121 18020G30KT PROB40 TEMPO 3122/3124 23020G42KT", "TAF LFRM 311100Z 3112/0112 17010KT 9999 BKN040 TEMPO 3114/3122 3000 SHRA BKN012 BKN020CB PROB40 TEMPO 3120/3122 20020G37KT FM312300 24015G25KT 9999 SCT025 BECMG 0101/0103 22010KT BECMG 0109/0112 21015G25KT", "TAF LFRN 311700Z 3118/0118 18015G25KT 9999 SCT008 BKN025 TEMPO 3118/3122 24025G35KT 3000 SHRA BKN008 BKN015CB PROB30 TEMPO 3118/3122 24020G40KT BECMG 0100/0103 22012KT PROB40 TEMPO 0108/0110 4000 SHRA BKN020TCU TEMPO 0110/0118 4000 SHRA BKN020CB PROB40 0110/0116 21020G35KT 2000 TSRAGS", "TAF LFRQ 311700Z 3118/0118 25015G25KT 9999 SCT005 BKN015 PROB40 TEMPO 3118/3121 3000 SHRA BKN004 BKN020CB PROB30 TEMPO 3118/3120 TSRA PROB40 TEMPO 3118/3122 26020G40KT PROB30 TEMPO 3118/3121 28030G50KT BECMG 3122/3124 24018G30KT TEMPO 0106/0118 4000 SHRA BKN015CB PROB40 TEMPO 0108/0118 22020G45KT 2000 TSRAGS", "TAF AMD LFRS 311910Z 3119/0124 23015G25KT 9999 BKN020 TEMPO 3119/3121 22020G32KT 3000 SHRA BKN012 BKN020CB BECMG 3123/0101 25010KT BECMG 0107/0109 22017G30KT PROB40 TEMPO 0109/0115 4500 TSRA BKN025CB TEMPO 0115/0120 4000 SHRA BKN025CB", "TAF LFRZ 311700Z 3118/0118 16010KT 9999 BKN016 TEMPO 3118/3120 3000 TSRA BKN012 BKN020CB PROB40 TEMPO 3118/3120 21025G45KT BECMG 3118/3122 26025G42KT 9999 SCT030 BECMG 3122/3124 26018G30KT BECMG 0100/0104 25012G24KT BECMG 0107/0109 22017G30KT PROB40 TEMPO 0109/0112 4500 SHRA BKN025TCU TEMPO 0113/0118 4000 SHRA BKN025CB", "TAF LFSB 311700Z 3118/0118 VRB04KT CAVOK BECMG 0100/0103 BKN045 TEMPO 0103/0106 -RA PROB40 TEMPO 0104/0106 25010KT 2000 RA BKN014 FEW030TCU TEMPO 0109/0114 28010KT", "TAF LFSI 311400Z 3115/0115 16010KT CAVOK BECMG 3120/3123 23012KT TEMPO 3122/0104 23015G35KT 4000 SHRA BKN030CB BECMG 0105/0108 22010KT ", "TAF LFSL 311700Z 3118/0103 22006KT 9999 SCT030 TEMPO 3118/3124 20015G25KT 4000 SHRA BKN050TCU PROB30 TEMPO 3118/3124 -TSRA BKN040CB", "TAF LFST 311700Z 3118/0118 VRB02KT CAVOK PROB30 TEMPO 3118/3121 4500 BR BECMG 0100/0102 20010KT FEW030 BKN050 TEMPO 0102/0108 -RA BECMG 0108/0111 26008KT", "TAF LFSX 311400Z 3115/0115 13009KT CAVOK FM010130 22009KT 8000 -RA BKN023 PROB40 TEMPO 0102/0107 23016G26KT 3500 SHRA BKN014 SCT040CB", "TAF LFTH 311400Z 3115/0115 09010KT CAVOK TEMPO 0100/0103 VRB03KT TEMPO 0105/0110 4000 RA PROB40 TEMPO 0105/0109 VRB15G25KT 2000 TSRA BKN010 BKN020CB BECMG 0107/0109 03006KT BECMG 0109/0110 CAVOK", "TAF LFTW 311400Z 3115/0115 15015G25KT 9999 OVC020 TEMPO 3115/0103 BKN012 PROB30 TEMPO 3115/3123 4000 RA PROB30 TEMPO 0101/0103 VRB20G30KT 2000 TSRA BKN009 BKN020CB BECMG 0103/0105 29010KT BECMG 0105/0106 CAVOK", "TAF LFVP 311700Z 3118/0103 23022KT CAVOK BECMG 0100/0103 32015KT", "TAF LGAD 311700Z 3118/0103 35008KT 9999 FEW025 BECMG 3118/3120 VRB03KT", "TAF LGAL 311700Z 3118/0103 03010KT 9999 FEW030", "TAF LGAV 311700Z 3118/0118 36014KT 9999 FEW025 BKN070 BECMG 3121/3123 FEW025 BECMG 0107/0109 02018G28KT BECMG 0116/0118 35010KT", "TAF LGBL 311700Z 3118/0103 08010KT 9999 FEW025 BECMG 3118/3120 29008KT", "TAF LGEL 311700Z 3118/0118 36010KT 9999 FEW025 BKN070 BECMG 3121/3123 FEW025 BECMG 0107/0109 36014G24KT BECMG 0115/0117 35010KT", "TAF LGHI 311700Z 3118/0103 01010KT 9999 FEW020", "TAF LGIO 311700Z 3118/0103 VRB03KT 9999 FEW025 PROB30 TEMPO 0100/0103 4000 BR SCT006", "TAF LGIR 311700Z 3118/0118 31012KT 9999 FEW025 BECMG 0104/0106 FEW018 BKN030", "TAF LGKC 311700Z 3118/0103 05010KT 9999 FEW020", "TAF LGKF 311700Z 3118/0103 VRB05KT 9999 FEW018", "TAF LGKL 311700Z 3118/0103 16008KT 9999 FEW025 BECMG 3118/3120 35008KT", "TAF LGKO 311700Z 3118/0118 32012KT 9999 FEW020", "TAF LGKP 311700Z 3118/0103 32026KT 9999 FEW018", "TAF LGKR 311700Z 3118/0118 VRB05KT 9999 FEW018", "TAF LGKV 311700Z 3118/0118 VRB03KT 9999 FEW030", "TAF LGLM 311700Z 3118/0103 04014KT 9999 FEW020 BECMG 3119/3121 04014G24KT", "TAF LGLR 311700Z 3118/0103 VRB03KT 9999 FEW025", "TAF LGMK 311700Z 3118/0103 36016KT 9999 FEW020 TEMPO 3118/0103 36016G26KT", "TAF LGMT 311700Z 3118/0103 34010KT 9999 FEW020", "TAF LGPZ 311700Z 3118/0118 VRB05KT 9999 FEW020 BECMG 3118/3120 07010KT BECMG 0110/0112 27010KT", "TAF LGRP 311700Z 3118/0118 25012KT 9999 FEW020", "TAF LGRX 311700Z 3118/0103 31010KT 9999 FEW025 BECMG 3119/3121 04006KT", "TAF LGSA 311700Z 3118/0118 VRB05KT 9999 FEW020 BECMG 0105/0107 36010KT FEW018 BKN030 BECMG 0116/0118 VRB05KT", "TAF LGSK 311700Z 3118/0103 35010KT 9999 FEW018 SCT025 BECMG 3119/3121 VRB05KT", "TAF LGSM 311700Z 3118/0103 36008KT 9999 FEW020", "TAF LGSR 311700Z 3118/0118 33012KT 9999 FEW025", "TAF LGST 311700Z 3118/0103 30012KT 9999 FEW020", "TAF LGSY 311700Z 3118/0103 02014KT 9999 FEW020 BECMG 3119/3121 02014G24KT", "TAF LGTG 311700Z 3118/0103 34010KT 9999 FEW025", "TAF LGTL 311700Z 3118/0103 01012KT 9999 SCT020", "TAF LGTS 311700Z 3118/0118 VRB03KT 9999 FEW030", "TAF LGZA 311700Z 3118/0103 VRB05KT 9999 FEW030", "TAF LHBP 311715Z 3118/0118 10005KT 3000 BR OVC004 TEMPO 3118/0108 0600 -DZ FG VV001 TEMPO 0110/0115 6000 NSW BKN010 BECMG 0112/0114 VRB03KT", "TAF LHDC 311715Z 3118/0103 VRB02KT 6000 OVC007 BECMG 3118/3121 3000 BR OVC004 TEMPO 3121/0103 1200 BR OVC002", "TAF LHKE 311715Z 3118/0103 12004KT 1500 BR OVC003 BECMG 3118/3120 0800 FG OVC002 TEMPO 3120/0103 0350 FG -DZ OVC001", "TAF LHPA 311715Z 3118/0118 VRB03KT 0800 FG OVC002 TEMPO 3118/3124 0150 FG -DZ VV002 BECMG 0100/0103 17010KT 3000 BR BKN005 SCT200 BECMG 0104/0107 8000 NSW SCT010 BKN200 TEMPO 0107/0112 20010G20KT BECMG 0112/0115 32006KT", "TAF AMD LHPP 311600Z 3116/3124 VRB03KT 1200 BR VV002 BECMG 3116/3119 0100 FG DZ VV001", "TAF LHPR 311715Z 3118/0103 14007KT 5000 BR OVC002 BECMG 3118/3121 2500 BR PROB40 TEMPO 3121/0103 1200 BCFG BR OVC001", "TAF LHSM 311115Z 3112/3121 VRB02KT 0800 FG VV002 PROB40 TEMPO 3112/3115 4000 BR SCT004 SCT180 BECMG 3115/3118 0300 FG OVC002 TEMPO 3118/3121 0100 OVC001", "TAF LHSN 311715Z 3118/0103 VRB03KT 3000 BR OVC008 BECMG 0100/0102 1500 BR OVC005 TEMPO 0101/0103 0800 FG OVC003", "TAF LIBA 311700Z 3118/0103 28006KT CAVOK", "TAF LIBC 311700Z 3118/0118 VRB04KT CAVOK BECMG 0108/0110 02010KT", "TAF LIBD 311700Z 3118/0118 22006KT CAVOK BECMG 0107/0109 03010KT", "TAF LIBF 311700Z 3118/0118 30010KT CAVOK BECMG 0107/0109 08010KT", "TAF LIBG 311700Z 3118/0103 VRB05KT CAVOK", "TAF LIBN 311400Z 3115/3124 36008KT CAVOK BECMG 3119/3121 5000 BR SCT008", "TAF LIBP 311700Z 3118/0118 VRB04KT CAVOK BECMG 0107/0109 04010KT", "TAF LIBR 311700Z 3118/0118 32006KT CAVOK BECMG 0108/0110 32016KT", "TAF LIBV 311700Z 3118/0103 35006KT CAVOK BECMG 3121/3123 5000 BR NSC", "TAF COR LICA 311722Z 3118/0118 VRB05KT 9999 FEW030 BECMG 0110/0112 26010KT BECMG 0114/0116 VRB04KT", "TAF LICB 311700Z 3118/0118 VRB04KT CAVOK BECMG 0111/0113 26010KT BECMG 0115/0117 VRB04KT", "TAF LICC 311700Z 3118/0118 26005KT CAVOK BECMG 0110/0112 08010KT BECMG 0115/0117 VRB04KT", "TAF LICD 311700Z 3118/0118 22006KT 9999 SCT030", "TAF LICG 311700Z 3118/0103 VRB05KT 9999 FEW020", "TAF LICJ 311700Z 3118/0118 06010KT CAVOK BECMG 3118/3120 VRB05KT BECMG 0110/0112 02010KT BECMG 0116/0118 VRB05KT", "TAF COR LICR 311722Z 3118/0118 36013KT CAVOK", "TAF LICT 311700Z 3118/0103 09005KT CAVOK", "TAF LICZ 311700Z 3118/0118 VRB03KT CAVOK BECMG 3119/3121 28007KT BECMG 0110/0112 10008KT", "TAF LIEA 311700Z 3118/0118 VRB05KT 9999 FEW030 TEMPO 3122/0105 2000 BCFG", "TAF LIED 311700Z 3118/0103 13006KT 9999 FEW020 BECMG 3119/3121 VRB03KT TEMPO 0100/0106 5000 BR SCT005", "TAF LIEE 311700Z 3118/0118 VRB05KT 9999 FEW030 BECMG 3122/3124 2000 BR TEMPO 0101/0107 0600 FG BECMG 0108/0110 9999 BECMG 0110/0112 16010KT BECMG 0116/0118 VRB05KT", "TAF LIEO 311700Z 3118/0118 24005KT CAVOK BECMG 0110/0112 08010KT BECMG 0114/0116 VRB04KT", "TAF LIMC 311700Z 3118/0124 VRB05KT 9999 SCT040 TEMPO 3123/0106 3000 BCFG TEMPO 0107/0113 4000 RA", "TAF LIME 311700Z 3118/0118 VRB05KT 9999 FEW040 TEMPO 0111/0116 4000 RA", "TAF LIMF 311700Z 3118/0118 VRB04KT 9999 SCT040 TEMPO 0107/0109 4000 RA", "TAF LIMG 311100Z 3112/0112 08010KT CAVOK BECMG 3114/3116 VRB05KT", "TAF LIMJ 311700Z 3118/0118 VRB05KT 9999 FEW012 SCT030 BECMG 0108/0110 16010KT TEMPO 0112/0118 4000 TSRA BECMG 0116/0118 VRB05KT", "TAF LIML 311700Z 3118/0118 VRB05KT 9999 FEW040 TEMPO 3123/0106 3000 BR TEMPO 0109/0115 4000 RA", "TAF LIMN 311700Z 3118/0103 VRB03KT CAVOK", "TAF LIMP 311700Z 3118/0118 VRB05KT 9999 FEW040 TEMPO 0116/0118 4000 RA", "TAF LIMW 311400Z 3115/3124 VRB04KT CAVOK", "TAF LIMZ 311700Z 3118/0118 VRB04KT 9999 SCT040", "TAF LIPA 311700Z 3118/0103 VRB03KT CAVOK", "TAF LIPB 311700Z 3118/0118 VRB04KT CAVOK", "TAF LIPC 311700Z 3118/0103 11005KT 8000 NSC PROB30 TEMPO 3118/0103 5000 BR NSC", "TAF LIPE 311700Z 3118/0118 VRB05KT CAVOK", "TAF LIPH 311700Z 3118/0118 VRB04KT 8000 NSC BECMG 3119/3121 1200 BCFG TEMPO 3122/0106 0600 FG OVC001 BECMG 0109/0111 7000", "TAF LIPI 311400Z 3115/3124 VRB03KT CAVOK", "TAF LIPK 311700Z 3118/0118 VRB05KT CAVOK TEMPO 0102/0106 3000 BR", "TAF LIPL 311700Z 3118/0103 VRB03KT CAVOK BECMG 3124/0103 4000 BR NSC", "TAF LIPO 311700Z 3118/0118 VRB05KT CAVOK TEMPO 0100/0106 4000 BR TEMPO 0112/0116 4000 RA", "TAF LIPQ 311700Z 3118/0118 VRB05KT 8000 NSC TEMPO 3118/0106 1200 BCFG BKN004", "TAF LIPR 311700Z 3118/0118 VRB05KT CAVOK", "TAF LIPS 311700Z 3118/0103 VRB03KT CAVOK BECMG 3119/3121 05004KT 5000 BR NSC", "TAF LIPX 311700Z 3118/0118 VRB05KT CAVOK TEMPO 3123/0107 4000 BR", "TAF LIPY 311700Z 3118/0118 VRB05KT CAVOK", "TAF LIPZ 311700Z 3118/0124 VRB05KT 7000 NSC BECMG 3118/3120 1200 BCFG TEMPO 3122/0108 0350 FG OVC001 BECMG 0110/0112 4000 BR TEMPO 0118/0124 0800 FG OVC001", "TAF LIQW 311100Z 3112/3121 VRB03KT CAVOK", "TAF COR LIRA 311722Z 3118/0118 VRB05KT CAVOK", "TAF LIRE 311700Z 3118/0103 34006KT CAVOK", "TAF LIRF 311700Z 3118/0124 VRB05KT CAVOK TEMPO 3122/0103 3000 BR BECMG 0111/0113 28010KT BECMG 0116/0118 VRB05KT", "TAF LIRG 311400Z 3115/3124 25005KT CAVOK", "TAF LIRL 311400Z 3115/3124 34006KT CAVOK", "TAF LIRM 311700Z 3118/0103 VRB03KT CAVOK", "TAF COR LIRN 311722Z 3118/0118 VRB05KT CAVOK", "TAF LIRP 311700Z 3118/0118 VRB03KT CAVOK", "TAF COR LIRQ 311722Z 3118/0118 VRB05KT CAVOK BECMG 3122/3124 3000 BR TEMPO 0101/0107 0600 FG BKN005 BECMG 0107/0109 7000", "TAF LIRS 311700Z 3118/0103 VRB03KT CAVOK", "TAF LIRU 311400Z 3115/3124 VRB05KT CAVOK", "TAF LIRV 311400Z 3115/3124 24005KT CAVOK", "TAF COR LIRZ 311722Z 3118/0118 VRB05KT CAVOK TEMPO 0100/0106 3000 BR", "TAF LJCE 311700Z 3118/0103 VRB02KT CAVOK BECMG 3119/3122 2500 BCFG BR SCT001 BECMG 3121/0100 0300 FG VV001", "TAF LJLJ 311700Z 3118/0118 VRB02KT CAVOK TEMPO 0102/0107 PRFG PROB30 TEMPO 0103/0106 0400 FG VV001 PROB30 TEMPO 0112/0115 25010KT", "TAF LJMB 311700Z 3118/0118 14003KT 0300 FG VV002 PROB40 TEMPO 3118/0102 2500 BR SCT001 BECMG 0101/0104 19010KT CAVOK", "TAF LJPZ 311700Z 3118/0103 27004KT CAVOK PROB40 TEMPO 3120/0103 2500 BR", "TAF LKCV 311700Z 3118/0118 VRB02KT 0300 FG VV001 PROB30 TEMPO 3121/0103 13006KT 5000 BR SCT003 TEMPO 0103/0107 0100 FG DZ VV001 BECMG 0108/0111 30004KT 3000 BR BKN004 TEMPO 0113/0118 33008KT 5000 BR NSC", "TAF LKKB 311700Z 3118/0118 VRB02KT 0300 FG BKN002 BKN005 TEMPO 3118/0108 0150 FG VV001 BECMG 0107/0109 5000 BR NSC TEMPO 0107/0111 SCT012 BECMG 0110/0112 23006KT CAVOK", "TAF LKKV 311700Z 3118/0200 VRB02KT CAVOK TEMPO 3120/0108 2000 BCFG SCT005 PROB30 TEMPO 3122/0108 0500 FG BKN002 BECMG 0108/0110 26012KT TEMPO 0108/0118 9999 BKN016 BECMG 0116/0118 24005KT", "TAF LKMT 311700Z 3118/0200 22008KT 0300 FG VV001 TEMPO 3118/0107 1200 BR OVC003 PROB30 TEMPO 3118/0107 3000 BR SCT003 BECMG 0107/0109 22015KT 9000 SCT010", "TAF LKNA 311700Z 3118/0118 15005KT 0300 FG VV001 TEMPO 3118/0106 0100 DZ FG VV001 BECMG 0106/0108 18005KT TEMPO 0110/0116 1200 BR OVC003 PROB30 TEMPO 0110/0116 3000 BR BKN006", "TAF LKPD 311700Z 3118/0118 VRB02KT 0400 FG VV002 TEMPO 3118/0108 0100 FG DZ VV001 TEMPO 3118/0108 0100 FG DZ VV001 TEMPO 0112/0118 30006KT 2000 BR BKN005 PROB30 TEMPO 0113/0118 5000 BR SCT005", "TAF LKPR 311700Z 3118/0200 05003KT 0400 FG VV001 TEMPO 3118/0109 VRB02KT 0700 FG BKN002 PROB30 TEMPO 3118/0109 1200 BR SCT002 BECMG 0109/0111 22010KT CAVOK", "TAF LKTB 311700Z 3118/0200 14003KT 2000 BR OVC003 TEMPO 3118/0109 1200 BR OVC002 PROB40 TEMPO 3118/0109 0300 DZ FG VV001 TEMPO 0109/0116 6000 SCT005 TEMPO 0116/0200 0600 FG VV002", "TAF LLBG 311702Z 3118/0118 VRB04KT 9999 SCT035 PROB30 0100/0106 14005KT -RA BKN030 BECMG 0106/0108 29011KT PROB40 TEMPO 0108/0114 8000 RA FEW025TCU BKN030 BECMG 0115/0117 VRB04KT TX25/0111Z TN19/0103Z", "TAF LLER 311701Z 3118/0118 36010KT CAVOK PROB40 TEMPO 0101/0111 9999 SCT030 TX29/0113Z TN19/0104Z", "TAF LLHA 311705Z 3118/0118 32007KT 9999 SCT035 BECMG 3119/3121 VRB04KT PROB40 TEMPO 0100/0106 18006KT -RA BKN030 BECMG 0106/0108 30011KT PROB40 TEMPO 0108/0114 8000 RA FEW025TCU BKN030 BECMG 0115/0117 VRB04KT TX24/0110Z TN19/0104Z", "TAF LLHZ 311702Z 3118/0118 VRB03KT 9999 SCT035 PROB40 TEMPO 0100/0106 14005KT -RA BKN030 BECMG 0106/0108 29011KT PROB40 TEMPO 0108/0114 8000 RA FEW025TCU BKN030 BECMG 0115/0117 VRB04KT TX24/0111Z TN19/0104Z", "TAF LLIB 311111Z 3112/0112 33010KT 9999 SCT040 BECMG 3116/3118 VRB03KT CAVOK BECMG 0106/0108 12005KT 9999 SCT035 TX25/3112Z TN16/0103Z", "TAF LMML 311700Z 3118/0118 32010KT 9999 FEW017", "TAF AMD LOAN 311505Z 3115/3121 VRB03KT 0300 FG VV001", "TAF AMD LOAV 311410Z 3114/3121 VRB03KT 3000 VV002 TEMPO 3114/3117 13006KT 5000 SCT003 OVC005 BECMG 3117/3119 1200 BCFG OVC002", "TAF AMD LOWG 311848Z 3118/0118 VRB04KT 0600 BCFG FEW001 TX21/0114Z TN05/0106Z TEMPO 3118/0109 0300 FG VV001 BECMG 0108/0111 CAVOK", "TAF LOWI 311715Z 3118/0118 27007KT 9999 FEW090 TX16/0114Z TN05/0106Z TEMPO 0112/0118 -SHRA", "TAF LOWK 311715Z 3118/0118 VRB02KT CAVOK TX18/0114Z TN06/0105Z TEMPO 3120/3124 0500 BCFG FEW002 TEMPO 0100/0108 0300 FG VV001 BECMG 0109/0111 CAVOK", "TAF AMD LOWL 311940Z 3119/0118 08008KT 5000 FEW002 OVC003 TX14/0114Z TN08/0106Z BECMG 3122/3124 08004KT 4000 BCFG TEMPO 3123/0109 0300 VV001 BECMG 0110/0112 5000 NSW BKN006 FM011200 33006KT CAVOK TEMPO 0117/0118 4000 -RA SCT020 BKN040", "TAF LOWS 311715Z 3118/0118 15007KT CAVOK TX17/0113Z TN10/0105Z BECMG 0110/0112 34006KT BECMG 0112/0114 9999 FEW060 BKN100 TEMPO 0115/0118 -SHRA", "TAF AMD LOWW 311933Z 3119/0124 14008KT 5000 FEW001 OVC003 TX13/0114Z TN10/0105Z TEMPO 3119/0109 1200 DZ BCFG VV001 BECMG 0112/0115 34007KT 9999 SCT012 TEMPO 0120/0124 VRB02KT 1500 BCFG", "TAF LOXZ 311115Z 3112/3121 VRB03KT 9999 SCT300", "TAF LPAR 311404Z 3115/3124 32010KT 9999 FEW020 SCT040 PROB40 TEMPO 3115/3118 4000 DZRA BR SCT006 BKN009", "TAF LPAZ 311700Z 3118/0124 VRB05KT 9999 FEW030 BECMG 0100/0103 13007KT FEW020 SCT030 BECMG 0110/0112 16013KT 6000 -RA SCT010 BKN020 TEMPO 0112/0122 3000 RADZ BR SCT003 BKN006 BECMG 0118/0120 20015KT", "TAF LPBJ 311703Z 3118/0118 VRB02KT 9999 SCT015 PROB40 TEMPO 3121/0107 3000 -DZ BR SCT002 BKN004 BECMG 0106/0108 34008KT", "TAF LPCS 311400Z 3115/3124 26008KT 9999 SCT015 SCT025 BECMG 3115/3118 34012KT SCT020 BECMG 3121/3124 01007KT FEW012", "TAF LPFR 311700Z 3118/0118 28005KT 9999 SCT015 BECMG 3119/3121 VRB02KT FEW012 BKN030 BECMG 0110/0112 25008KT SCT040", "TAF LPHR 311400Z 3115/3124 VRB05KT 9999 FEW025 SCT040 TEMPO 3115/3118 15010KT", "TAF LPLA 311704Z 3118/0118 18008KT 9999 FEW025 SCT035 BECMG 3121/3123 VRB05KT BECMG 0107/0110 14015KT FEW020 BKN035 TEMPO 0110/0113 15018G28KT TEMPO 0113/0118 15020G30KT 3000 RADZ BR SCT007 BKN014", "TAF LPMA 311700Z 3118/0118 VRB05KT 9999 SCT015 TEMPO 3118/0107 BKN015 BECMG 0107/0110 01012KT PROB30 TEMPO 0107/0117 6000 -RA SCT010 BKN013", "TAF LPMR 311701Z 3118/0118 36005KT 9999 SCT020 BKN030 BECMG 3121/3123 07005KT PROB30 0102/0109 3000 BR BKN004 BECMG 0109/0112 36010KT", "TAF LPMT 311703Z 3118/0118 VRB02KT 9999 SCT025 TEMPO 3118/3124 BKN018 BECMG 0109/0112 36010KT", "TAF LPOV 311701Z 3118/0118 36008KT 9999 SCT015 BECMG 3120/3123 VRB02KT PROB40 0102/0109 2000 BR BKN002 BECMG 0108/0110 07008KT BECMG 0112/0114 35008KT", "TAF LPPD 311700Z 3118/0118 VRB05KT 9999 FEW025 BECMG 0102/0105 13008KT FEW020 SCT030 BECMG 0111/0113 15013KT 6000 -RA SCT010 BKN020 TEMPO 0113/0118 3000 RADZ BR SCT003 BKN006", "TAF LPPR 311700Z 3118/0118 33007KT 9999 FEW020 BECMG 3120/3123 VRB02KT FEW008 PROB30 TEMPO 0102/0108 08007KT 3000 BR SCT003 BECMG 0109/0112 31007KT SCT045", "TAF LPPS 311700Z 3118/0124 30007KT 9999 SCT015 TEMPO 3118/0107 VRB05KT SCT012 BKN030 BECMG 0107/0110 05012KT PROB30 TEMPO 0110/0115 5000 -RADZ SCT006 BKN012", "TAF LPPT 311700Z 3118/0124 33008KT 9999 SCT010 BKN015 BECMG 0100/0103 03007KT FEW012 BECMG 0113/0115 35012KT FEW035", "TAF LPST 311403Z 3115/3124 27010KT 9999 FEW006 SCT016 BECMG 3115/3117 35008KT TEMPO 3115/3118 4000 DZRA BR SCT006 BKN009", "TAF LQBK 311700Z 3118/0118 VRB02KT CAVOK TX24/0114Z TN06/0105Z BECMG 3122/3124 2000 BR TEMPO 0102/0107 0200 FG BKN001 BECMG 0109/0111 CAVOK", "TAF LQMO 311700Z 3118/0118 VRB02KT CAVOK TX29/0114Z TN07/0105Z", "TAF LQSA 311700Z 3118/0118 VRB02KT CAVOK TX21/0113Z TN03/0106Z PROB30 TEMPO 0105/0109 3000 BR", "TAF LQTZ 311700Z 3118/0118 VRB02KT CAVOK TX26/0114Z TN05/0105Z PROB40 TEMPO 0103/0107 3000 BR PROB30 TEMPO 0103/0106 0300 FG BKN001", "TAF LRAR 311700Z 3118/0103 VRB04KT 5000 BR BKN005 BECMG 3120/3122 1500 BR OVC002 BECMG 3122/0100 0600 FG VV001 TEMPO 0100/0103 0350 FG", "TAF LRBC 311700Z 3118/0103 VRB04KT CAVOK TEMPO 3123/0103 3000 BR BKN010", "TAF LRBM 311700Z 3118/0103 VRB04KT 9999 OVC010 BECMG 3118/3120 3000 BR OVC005 BECMG 3121/3123 1500 BR OVC002 PROB30 TEMPO 0100/0103 0600 FG VV001", "TAF LRBO 311700Z 3118/0118 04006KT 9999 SKC BECMG 0106/0108 22006KT SCT100", "TAF LRBS 311700Z 3118/0118 VRB04KT CAVOK TEMPO 0102/0106 3000 BR", "TAF LRCK 311700Z 3118/0118 34007KT CAVOK", "TAF LRCL 311700Z 3118/0103 VRB04KT 7000 OVC010 BECMG 3118/3120 3000 BR OVC005 PROB30 TEMPO 3121/0103 0600 FG OVC002", "TAF LRCT 311700Z 3118/0118 32003KT 5000 BR OVC007 TEMPO 0102/0106 0500 FG OVC005", "TAF LRCV 311700Z 3118/0103 VRB04KT CAVOK BECMG 3122/0100 06010KT", "TAF LRFT 311700Z 3118/0118 07004KT 9999 SCT060", "TAF LRIA 311700Z 3118/0103 VRB04KT CAVOK PROB30 TEMPO 3123/0103 5000 BR", "TAF LROD 311700Z 3118/0103 VRB04KT 5000 BR OVC010 BECMG 3118/3120 1500 BR OVC005 BECMG 3123/0101 0800 FG OVC002", "TAF LROP 311700Z 3118/0118 VRB04KT CAVOK TEMPO 0102/0106 3000 BR", "TAF LRSB 311700Z 3118/0118 VRB04KT 3000 BR NSC BECMG 3119/3121 1500 BR BKN005 BECMG 3121/3123 0600 FG OVC002 TEMPO 0100/0106 0150 FG VV001 BECMG 0107/0109 3000 BR BKN005 BECMG 0109/0111 CAVOK", "TAF LRSM 311400Z 3115/0100 VRB04KT 9999 OVC010 BECMG 3117/3119 3000 BR OVC005 BECMG 3119/3121 0800 FG OVC002", "TAF LRSV 311700Z 3118/0103 VRB04KT CAVOK PROB30 TEMPO 0100/0103 5000 BR", "TAF LRTC 311400Z 3115/0100 33014KT CAVOK BECMG 3116/3118 VRB04KT", "TAF LRTM 311700Z 3118/0103 VRB04KT 9000 BKN010 OVC030 BECMG 3118/3120 5000 BR TEMPO 3121/0103 1500 BR OVC005", "TAF LRTR 311700Z 3118/0118 VRB04KT 5000 BR OVC005 BECMG 3119/3121 1500 BR OVC002 BECMG 3122/0100 0600 FG VV001 PROB40 TEMPO 0100/0106 0350 FG BECMG 0106/0108 15010KT 1500 BR BKN005 BECMG 0108/0110 9999 NSW SCT020 BECMG 0115/0117 VRB04KT", "TAF LRTZ 311700Z 3118/0118 33004KT 9999 SKC BECMG 3121/3123 05008KT BKN035 BECMG 0109/0111 12010KT SKC", "TAF LSGC 311425Z 3115/3124 17005KT CAVOK", "TAF LSGG 311725Z 3118/0124 21005KT CAVOK TX17/0115Z TN10/0106Z BECMG 0100/0102 9999 FEW020 BKN050 TEMPO 0102/0105 RA", "TAF LSGS 311425Z 3115/3124 VRB02KT CAVOK", "TAF LSZA 311425Z 3115/3124 VRB02KT CAVOK", "TAF LSZB 311425Z 3115/3124 VRB02KT 9999 FEW120 PROB40 3121/3124 3000 MIFG", "TAF LSZC 311425Z 3115/3124 VRB02KT CAVOK TEMPO 3120/3124 9999 SCT140", "TAF LSZG 311425Z 3115/3124 VRB02KT CAVOK BECMG 3117/3119 6000 MIFG NSC BECMG 3119/3121 0600 PRFG PROB30 3121/3124 0200 VV001", "TAF LSZH 311725Z 3118/0124 VRB02KT 5000 MIFG NSC TX16/0112Z TN08/0105Z BECMG 3118/3119 3000 BCFG BECMG 3119/3121 0800 PRFG BECMG 3121/3123 0500 FG VV002 BECMG 0102/0104 3000 BR BKN004 BECMG 0104/0107 8000 SCT015 BKN050 TEMPO 0105/0109 SHRA TEMPO 0110/0114 30008KT", "TAF LSZL 311725Z 3118/0103 VRB02KT CAVOK BECMG 3123/0102 9999 SCT110 PROB30 TEMPO 0102/0103 SHRA", "TAF AMD LSZR 311542Z 3115/3124 VRB02KT 0500 FG VV002 TEMPO 3116/3124 0250 VV001", "TAF LSZS 311425Z 3115/3124 22013KT CAVOK TX18/3115Z BECMG 3116/3118 VRB02KT", "TAF LTAB 311640Z 3118/0103 VRB02KT CAVOK", "TAF LTAC 311640Z 3118/0118 VRB02KT CAVOK TEMPO 0102/0106 4000 BR SCT012 BECMG 0106/0108 FEW040 BECMG 0115/0117 CAVOK", "TAF LTAD 311640Z 3118/0103 VRB02KT CAVOK", "TAF LTAE 311640Z 3118/0103 VRB02KT CAVOK", "TAF LTAF 311640Z 3118/0118 VRB02KT CAVOK", "TAF LTAG 311640Z 3118/0118 VRB02KT CAVOK", "TAF LTAH 311340Z 3115/3124 VRB02KT CAVOK", "TAF LTAI 311640Z 3118/0118 34008KT CAVOK BECMG 0109/0111 18010KT BECMG 0115/0118 34008KT", "TAF LTAJ 311640Z 3118/0118 VRB02KT CAVOK TEMPO 0106/0110 36012KT", "TAF LTAL 311340Z 3115/3124 25009KT 9999 BKN040 BKN100 BECMG 3115/3118 4000 BR BKN010 BKN028", "TAF LTAN 311640Z 3118/0103 33007KT CAVOK", "TAF LTAO 311640Z 3118/0103 19007KT 9999 FEW040 SCT100 BECMG 3118/3120 CAVOK BECMG 0101/0103 FEW015 SCT040 BKN100", "TAF LTAP 311640Z 3118/0118 VRB02KT 9999 SCT040 SCT200 PROB30 0103/0106 4000 BR BECMG 0110/0112 03012KT", "TAF LTAR 311640Z 3118/0103 34008KT 9999 SCT040 SCT100 TEMPO 0101/0103 1200 BCFG SCT006 BKN025", "TAF LTAS 311340Z 3115/3124 VRB02KT 9999 SCT030 BKN090 TEMPO 3115/3119 -SHRA BKN025 BKN080 TEMPO 3120/3124 -SHRA BKN025 BKN080", "TAF LTAT 311640Z 3118/0118 23007KT 9999 FEW040 SCT100 BECMG 3118/3120 CAVOK BECMG 0101/0103 FEW015 SCT040 BKN100 BECMG 0105/0107 10011KT CAVOK", "TAF LTAU 311640Z 3118/0118 VRB02KT CAVOK BECMG 0101/0104 SCT040 BECMG 0114/0117 CAVOK", "TAF LTAV 311340Z 3115/3124 VRB02KT CAVOK", "TAF LTAW 311340Z 3115/3124 VRB02KT 9999 SCT040 SCT170", "TAF LTAY 311640Z 3118/0103 VRB02KT CAVOK", "TAF LTAZ 311640Z 3118/0118 VRB02KT CAVOK BECMG 0101/0104 FEW040 BECMG 0113/0116 CAVOK", "TAF LTBA 311640Z 3118/0118 04008KT CAVOK", "TAF LTBD 311340Z 3115/3124 VRB02KT CAVOK", "TAF LTBF 311640Z 3118/0103 01008KT CAVOK", "TAF LTBG 311640Z 3118/0103 VRB02KT CAVOK BECMG 3121/3124 4000 BR", "TAF LTBH 311640Z 3118/0103 VRB02KT 9999 FEW040 SCT200", "TAF LTBI 311640Z 3118/0103 VRB02KT CAVOK BECMG 0100/0103 2500 BR", "TAF AMD LTBJ 311822Z 3118/0118 VRB02KT CAVOK BECMG 0106/0109 36012KT TEMPO 0111/0115 36015G25KT BECMG 0116/0118 VRB02KT", "TAF LTBK 311340Z 3115/3124 33010KT CAVOK", "TAF LTBL 311640Z 3118/0103 VRB02KT CAVOK", "TAF LTBN 311340Z 3115/3124 VRB02KT CAVOK", "TAF LTBO 311640Z 3118/0103 VRB02KT CAVOK BECMG 3120/3123 07012KT", "TAF LTBP 311340Z 3115/3124 VRB02KT 7000 NSC BECMG 3116/3120 4000 BR SCT008", "TAF LTBQ 311640Z 3118/0103 VRB02KT 8000 SCT030 BKN070 BECMG 3120/3123 SCT010 BKN020", "TAF LTBR 311640Z 3118/0118 VRB02KT CAVOK BECMG 3122/0102 4000 BR PROB30 0103/0106 0200 FG VV002 BECMG 0106/0110 CAVOK BECMG 0110/0112 35012KT FEW040 BECMG 0115/0117 VRB02KT CAVOK", "TAF LTBS 311640Z 3118/0118 VRB02KT CAVOK BECMG 0107/0109 21012KT FEW030 BECMG 0115/0117 VRB02KT CAVOK", "TAF LTBT 311340Z 3115/3124 34009KT CAVOK", "TAF LTBU 311640Z 3118/0118 01008KT CAVOK BECMG 3120/3123 3200 BR FEW015 TEMPO 3123/0102 1600 BCFG BKN010 PROB30 0102/0106 0800 FG VV002 BECMG 0106/0109 9999 NSW", "TAF LTBV 311340Z 3115/3124 VRB02KT CAVOK", "TAF LTBX 311340Z 3115/3124 03008KT CAVOK BECMG 3116/3120 SCT008 BECMG 3120/3124 2200 BR BKN005", "TAF LTBY 311640Z 3118/0103 VRB02KT CAVOK BECMG 0100/0103 2500 BR", "TAF LTBZ 311640Z 3118/0103 03008KT CAVOK BECMG 0100/0103 2500 BR", "TAF LTCA 311640Z 3118/0103 22007KT CAVOK", "TAF LTCB 311640Z 3118/0103 26009KT 9999 BKN035 TEMPO 3118/3121 -SHRA SCT012 FEW020CB BKN028 TEMPO 3121/0101 28015G25KT 3500 SHRA SCT012 FEW020CB BKN028", "TAF LTCC 311640Z 3118/0118 VRB02KT CAVOK PROB40 TEMPO 3123/0103 2000 BR PROB40 TEMPO 0103/0107 1200 BCFG SCT010", "TAF LTCD 311640Z 3118/0103 30009KT CAVOK BECMG 3121/3124 SCT045 BKN090", "TAF LTCE 311640Z 3118/0118 25009KT 9999 FEW040 BECMG 0112/0114 CAVOK", "TAF LTCF 311640Z 3118/0103 26006KT 9999 FEW040", "TAF LTCG 311640Z 3118/0118 21008KT 9999 BKN035 BECMG 3118/3121 28010KT TEMPO 3118/3122 -SHRA SCT012 FEW020CB BKN028 PROB40 3122/0102 3500 SHRA SCT012 FEW020CB BKN028 PROB40 0102/0106 30015G25KT 3500 SHRA BKN012 FEW020CB BKN028 TEMPO 0107/0111 -SHRA SCT012 FEW020CB BKN028 TEMPO 0112/0116 -SHRA SCT012 FEW020CB BKN028", "TAF LTCI 311640Z 3118/0103 12008KT 9999 SCT030 BKN070 TEMPO 3118/3120 -SHRA FEW020CB BKN030 PROB30 TEMPO 3121/3124 -SHRA FEW020CB BKN030", "TAF LTCJ 311640Z 3118/0118 VRB02KT CAVOK BECMG 3122/3124 4000 BR PROB40 TEMPO 0100/0104 1200 BCFG BKN008 BECMG 0106/0108 CAVOK", "TAF LTCK 311340Z 3115/3124 VRB02KT 9999 FEW040 SCT180", "TAF LTCL 311340Z 3115/3124 VRB02KT 9999 SCT040 BKN100 BECMG 3115/3118 CAVOK", "TAF LTCM 311640Z 3118/0103 29017G27KT 6000 SCT030 BKN100 TEMPO 3118/3121 -SHRA BKN028 BKN080 TEMPO 0100/0103 -SHRA", "TAF LTCN 311640Z 3118/0103 VRB02KT CAVOK", "TAF LTCO 311640Z 3118/0103 23012KT CAVOK BECMG 3118/3120 FEW040 SCT080", "TAF LTCP 311340Z 3115/3124 14007KT 9999 SCT040 BKN100 BECMG 3117/3119 35012KT BECMG 3120/3122 CAVOK", "TAF LTCR 311340Z 3115/3124 35010KT 9999 FEW040 SCT100", "TAF LTCS 311640Z 3118/0118 36007KT CAVOK", "TAF LTCT 311640Z 3118/0103 30008KT CAVOK BECMG 3118/3120 SCT100", "TAF LTCU 311340Z 3115/3124 21009KT 9999 FEW035 BKN100 BECMG 3115/3118 CAVOK", "TAF LTCV 311640Z 3118/0118 28009KT CAVOK", "TAF LTCW 311640Z 3118/0103 06009KT 9999 SCT035", "TAF LTDA 311640Z 3118/0103 VRB02KT 7000 FEW040 SCT120", "TAF LTFA 311340Z 3115/3124 34009KT CAVOK", "TAF LTFB 311340Z 3115/3124 VRB02KT CAVOK", "TAF LTFC 311640Z 3118/0118 VRB02KT CAVOK", "TAF LTFD 311640Z 3118/0103 07012KT CAVOK", "TAF LTFE 311640Z 3118/0118 VRB02KT CAVOK PROB40 0102/0106 4000 BR BECMG 0109/0111 26012KT BECMG 0114/0116 VRB02KT", "TAF LTFG 311640Z 3118/0103 VRB02KT CAVOK", "TAF LTFH 311640Z 3118/0103 VRB02KT 6000 SCT030 BKN100 TEMPO 3118/3121 29016G26KT -SHRA BKN028 BKN080 TEMPO 3121/3124 SHRA", "TAF COR LTFJ 311640Z 3118/0118 03007KT CAVOK BECMG 3118/3120 SCT010 PROB40 3121/3124 0900 FG BKN006 PROB40 0100/0104 0500 FG BKN004 TEMPO 0104/0106 1300 BCFG BKN012 BECMG 0106/0108 CAVOK", "TAF LTFK 311340Z 3115/3124 VRB02KT CAVOK", "TAF LTFM 311640Z 3118/0124 05008KT CAVOK PROB30 3123/0103 3200 BR SCT008 BECMG 0117/0120 15010KT", "TAF LTFO 311640Z 3118/0103 17009KT 9999 BKN035 BECMG 3118/3121 23015KT -SHRA SCT012 FEW020CB BKN028 TEMPO 3121/0101 3500 SHRA", "TAF LUBM 311420Z 3115/3124 35008KT CAVOK", "TAF LUKK 311720Z 3118/0118 VRB05KT CAVOK BECMG 3122/3124 1500 BR TEMPO 0100/0107 0200 FG OVC002 BECMG 0107/0109 17006KT CAVOK", "TAF LWOH 311730Z 3118/0118 VRB02KT 9999 FEW045", "TAF LWSK 311730Z 3118/0118 VRB02KT CAVOK TEMPO 3118/3120 04010KT", "TAF LXGB 311346Z 3115/3123 10006KT 9999 FEW015 BECMG 3116/3119 26005KT PROB30 TEMPO 3119/3123 12005KT", "TAF LYBE 311700Z 3118/0118 06005KT 4000 BR NSC TX24/0113Z TN09/0106Z TEMPO 3120/3123 0600 FG BECMG 3123/0101 0200 FG VV001 BECMG 0107/0108 3000 BR BKN005 BECMG 0108/0110 CAVOK", "TAF LYBT 311700Z 3118/0118 04004KT 3000 BR NSC TX23/0113Z TN09/0105Z BECMG 3120/3122 0300 FG VV002 BECMG 0107/0109 3000 BR BKN005 BECMG 0109/0110 CAVOK", "TAF LYKV 311700Z 3118/0118 VRB02KT CAVOK TX26/0113Z TN04/0105Z TEMPO 0104/0107 1000 BR", "TAF LYNI 311700Z 3118/0118 11005KT CAVOK TX23/0113Z TN04/0106Z TEMPO 0105/0107 0800 FG", "TAF LYPG 311700Z 3118/0118 36005KT CAVOK TX26/0113Z TN09/0105Z", "TAF LYTV 311700Z 3118/0118 02005KT CAVOK TX26/0113Z TN08/0105Z", "TAF LYVR 311700Z 3118/0118 04003KT 0200 FG VV001 TX24/0113Z TN07/0106Z BECMG 0107/0108 3000 BR BKN006 BECMG 0108/0110 12010KT CAVOK", "TAF LZIB 311715Z 3118/0118 VRB02KT 6000 SCT003 OVC004 TEMPO 3118/3120 2500 BR OVC002 TEMPO 3120/0107 0500 FG OVC001 BECMG 0106/0108 4000 BR SCT002 BKN004 BECMG 0109/0111 9999 SCT007 BKN012 BECMG 0116/0118 5000 BR OVC002", "TAF COR LZKZ 311745Z 3118/0118 VRB02KT 7000 OVC006 TEMPO 3118/3120 2000 BR OVC003 PROB40 TEMPO 3120/0107 0400 FG OVC002 BECMG 0107/0109 22006KT 3000 BR FEW002 BKN005 BECMG 0109/0111 6000 BKN009", "TAF LZMC 311630Z 3118/0106 VRB02KT 5000 BR BKN005 BECMG 3118/3120 2500 BR TEMPO 3120/0106 0300 FG BKN002", "TAF AMD LZPP 311830Z 3118/0103 14005KT 6000 OVC006 TEMPO 3119/0103 2500 -DZ BR OVC003 PROB30 TEMPO 3120/0103 0700 -DZ FG OVC002", "TAF LZPW 311630Z 3118/0106 VRB04KT 1200 BR OVC002 BECMG 3118/3120 0500 FG OVC001", "TAF LZSL 311630Z 3118/0106 VRB01KT 0200 FG OVC001", "TAF LZTT 311715Z 3118/0118 VRB02KT 9999 FEW003 BECMG 3120/3122 2000 BCFG BKN002 TEMPO 3122/0107 0500 FG OVC001 BECMG 0106/0108 18005KT 6000 FEW008 BECMG 0108/0110 24007KT CAVOK", "TAF LZZI 311715Z 3118/0103 VRB02KT 2000 BR BKN002 TEMPO 3118/0103 0700 FG OVC002 PROB40 TEMPO 3118/0103 0100 FG OVC001", "MBGT 311545Z 3118/0118 09010KT 9999 SCT020", "MBPV 311545Z 3118/0118 09010KT 9999 SCT020", "TAF MDBH 311600Z 3118/0118 13012KT 9999 FEW020CB SCT022 SCT300 PROB30 3119/0101 7000 -TSRA FEW014CB BKN016", "TAF MDCY 311600Z 3118/0118 08010KT 9999 FEW018CB SCT022 SCT070 PROB40 3118/0100 6000 TSRA FEW014CB BKN016 OVC070", "TAF MDJB 311600Z 3118/0118 03010KT 9999 FEW018CB SCT020 SCT080 PROB30 TEMPO 3119/0101 7000 -TSRA FEW014CB BKN016 BKN070 BECMG 3123/0100 00000KT", "TAF MDLR 311600Z 3118/0118 09010KT 9999 SCT020 PROB30 3118/0100 6000 TSRA FEW016CB BKN018 BECMG 0100/0102 00000KT", "TAF MDPC 311600Z 3118/0118 11012KT 9999 FEW022 BKN070 PROB30 3119/0101 8000 -RA BKN018 BKN070 BECMG 3120/3122 09010KT", "TAF MDPP 311600Z 3118/0118 09010KT 9999 FEW020 BECMG 0101/0103 00000KT", "TAF MDSD 311600Z 3118/0118 14010KT 9999 FEW020CB SCT022 TEMPO 3120/0102 7000 -TSRA FEW016CB BKN018 SCT070 BECMG 0102/0104 05005KT", "TAF MDST 311600Z 3118/0118 12004KT 9999 SCT018 SCT300 PROB30 3118/0100 7000 -TSRA FEW016CB BKN016 SCT070", "MGGT 311700Z 3118/0118 01014KT 9999 FEW018 TX26/3120Z TN15/0112Z BECMG 3120/3122 01016KT SCT020 BECMG 0101/0103 36012KT FEW016 BECMG 0114/0116 02016KT SCT018", "MGMM 311700Z 3118/0118 09008KT 9999 FEW018 TX34/3120Z TN20/0112Z BECMG 31208/3120 SCT020TCU BECMG 0102/0104 00000KT CAVOK BECMG 0114/0116 09008KT FEW018", "MGPB 311700Z 3118/0118 05008KT 9999 FEW018 TX33/3120Z TN21/0112Z BECMG 3120/3122 SCT020 BECMG 0100/0102 00000KT FEW016 BECMG 0114/0116 27008KT SCT018", "MGSJ 311700Z 3118/0118 18008KT 9999 SCT018 TX32/3120Z TN21/0112Z PROB40 TEMPO 3118/0102 20012KT 8000 VCTSRA SCT020TCU FEW025CB BECMG 0102/0104 00000KT CAVOK BECMG 0114/0116 18008KT FEW018", "TAF MHLC 311700Z 3118/0118 34008KT 9999 SCT032TCU TX31/3120Z TN21/0112Z BECMG 0101/0103 VRB03KT FEW028", "TAF MHLM 311700Z 3118/0118 03012KT 9999 SCT030TCU TX31/3121Z TN20/0112Z BECMG 0103/0105 25005KT FEW026", "TAF MHPR 311700Z 3118/0118 33010G22KT 9999 SCT052 TX30/3119Z TN18/0110Z BECMG 0103/01052 VRB05KT TEMPO 0115/0118 34016KT", "TAF AMD MHRO 311803Z 3118/0118 23008KT 8000 VCSH SCT024TCU FEW026CB TX30/3120Z TN25/0112Z TEMPO 3119/3124 7000 RA FM010000 03008KT 9999 FEW022 BECMG 0109/0111 27012KT SCT022TCU", "TAF MHTG 311700Z 3118/0118 02012KT 9999 FEW035 TX28/3120Z TN16/0112Z BECMG 0102/0104 35004KT SCT030 BECMG 0114/0116 36010KT", "TAF MKJP 311715Z 3118/0118 12025G35KT 7000 SHRA BKN014 BKN018CB TEMPO 3119/0104 1000 TSRA SQ BKN016CB BECMG 0104/0106 12020KT PROB40 TEMPO 0106/0114 5000 TSRA BKN018CB BECMG 0114/0116 13025KT", "TAF MKJS 311715Z 3118/0118 08019KT 9999 FEW020 FEW022CB TEMPO 3118/0105 5000 TSRA BKN018CB BECMG 0103/0105 12012KT SCT018 SCT020CB BECMG 0112/0114 08020KT", "TAF MMAA 311621Z 3118/0124 24010KT P6SM SCT015 TX32/3121Z TN25/0112Z TEMPO 0100/0104 BKN015 FM010400 04005KT 5SM HZ SCT015 BKN100 BKN250 FM011700 24010KT P6SM SCT015 PROB40 0120/0124 5SM TSRA BKN015CB", "TAF MMAN 311724Z 3118/0118 00000KT 1SM +DZ BR BKN008 OVC010 TEMPO 3118/3122 4SM DZ BR FM312200 34005KT 3SM BR BKN015 OVC050 TEMPO 3123/0103 1SM DZ BR OVC010 FM010300 00000KT 3SM DZ BR OVC010 TEMPO 0110/0114 1SM DZ BR VV005 FM011400 34005KT 4SM HZ SCT015 BKN030", "TAF MMAS 311646Z 3118/0118 20010KT P6SM SKC FM010600 00000KT P6SM SKC", "TAF MMBT 311640Z 3118/0118 00000KT P6SM SKC FM312100 20010KT P6SM SCT020 FM010300 00000KT P6SM SCT100", "TAF MMCB 311640Z 3118/0118 20010KT P6SM SCT025 TEMPO 3122/0102 5SM TSRA BKN020CB FM010600 00000KT P6SM SCT015 TEMPO 0112/0116 3SM BR BKN010", "TAF MMCE 311656Z 3118/0118 13010KT P6SM SKC FM312100 34010KT P6SM SCT020 FM010300 12010KT P6SM SKC FM011200 12015KT P6SM SCT015", "TAF MMCL 311647Z 3118/0118 24010KT P6SM SCT015 BECMG 0103/0104 07005KT FM011700 23005KT P6SM SKC", "TAF MMCM 311656Z 3118/0118 04010KT P6SM SCT020 BKN120 FM011200 04010KT 6SM HZ BKN015 OVC080 PROB40 0114/0115 5SM RA", "TAF MMCN 311650Z 3118/0118 23010KT P6SM SKC FM010300 000000KT P6SM SKC", "TAF MMCP 311656Z 3118/0118 12010KT P6SM SCT025 FM312000 34015KT P6SM SCT030 FM010300 09010KT P6SM SCT015 FM011000 00000KT 2SM BR OVC005 FM011400 00000KT 4SM HZ BKN010 FM011600 12010KT P6SM SCT015", "TAF MMCS 311724Z 3118/0118 35010KT P6SM SCT050 BKN100 BKN250 BECMG 0101/0102 03005KT FM011700 13010KT P6SM SCT100 BKN250", "TAF MMCU 311724Z 3118/0118 04010KT P6SM BKN080 BKN200 BECMG 0101/0102 33005KT FM011700 14010KT P6SM SCT080 BKN200", "TAF MMCV 311718Z 3118/0118 16010KT P6SM SCT040 BKN070 FM010000 18010KT P6SM BKN030 OVC080 TEMPO 0101/0105 5SM -RA FM010600 16010KT 5SM -RA OVC015 FM011500 14015KT P6SM BKN020", "TAF MMCZ 311658Z 3118/0124 05010KT P6SM SCT015 TEMPO 3123/0103 BKN015 FM010300 04010KT P6SM SCT015 FM011700 07015KT P6SM SCT015 PROB40 0120/0124 5SM TSRA BKN015CB", "TAF MMDO 311650Z 3118/0118 16010KT P6SM SKC FM312100 23015KT P6SM SKC FM010300 00000KT P6SM SKC", "TAF MMEP 311646Z 3118/0118 23010KT P6SM SCT030 FM010300 00000KT P6SM SKC FM011200 00000KT 2SM BR SKC TEMPO 0112/0115 1/2SM FG VV003 FM011500 00000KT P6SM SKC", "TAF MMGL 311634Z 3118/0124 26010KT P6SM SKC TX28/3120Z TN10/0112Z BECMG 0102/0103 26005KT TEMPO 0110/0114 2SM BR FM011400 28005KT P6SM SKC BECMG 0120/0121 28010KT", "TAF MMGM 311650Z 3118/0118 20010KT P6SM SKC FM010300 12010KT P6SM SCT250", "TAF MMHO 311647Z 3118/0118 26010KT P6SM SKC BECMG 0103/0104 00000KT FM011700 17010KT P6SM SCT020", "TAF MMIA 311646Z 3118/0118 23010KT P6SM SCT020 FM010300 00000KT P6SM SCT100", "TAF MMIO 311724Z 3118/0118 04010KT P6SM SCT020 FM010200 04005KT 5SM HZ BKN015 TEMPO 0110/0114 3SM BR HZ VV005 FM011400 36010KT P6SM SCT020", "TAF MMLM 311650Z 3118/0118 06010KT P6SM SKC FM312100 24015KT P6SM SKC FM010100 12010KT P6SM SKC FM011200 00000KT 2SM BR SKC FM011400 12010KT P6SM SKC", "TAF MMLO 311646Z 3118/0118 20010KT P6SM SKC TEMPO 3121/0101 SCT030 FM010600 00000KT P6SM SKC", "TAF MMLP 311647Z 3118/0118 19005KT P6SM SKC BECMG 3122/3123 33005KT SCT025 FM010500 00000KT P6SM SCT020 BKN250 FM011700 26005KT P6SM BKN250", "TAF MMLT 311650Z 3118/0118 04015KT P6SM SKC FM010600 00000KT P6SM SKC", "TAF MMMA 311718Z 3118/0118 12015KT 6SM VC RA BKN020 OVC070 TEMPO 3120/3124 5SM RA FM010000 13010KT 4SM RA BKN015 OVC070 PROB40 0110/0114 3SM TSRA BKN010CB", "TAF MMMD 311658Z 3118/0124 04015KT P6SM BKN018 TX33/3120Z TN22/0112Z TEMPO 3122/0102 SCT018 FM010200 09005KT 5SM HZ BKN018 TEMPO 0110/0114 3SM BR FM011700 04015KT P6SM SCT020", "TAF MMML 311647Z 3118/0118 17010KT P6SM SKC BECMG 0104/0105 34005KT FM011700 13010KT P6SM SKC", "TAF MMMM 311634Z 3118/0124 16005KT 5SM HZ SCT020 TEMPO 3122/0102 4SM TSRA BKN020CB FM010200 16005KT 5SM RA BKN015 OVC050 TEMPO 0110/0114 1SM DZ BR VV005 FM011400 22005KT 6SM HZ SCT020 BKN250 PROB40 0120/0124 5SM TSRA BKN020CB", "TAF MMMT 311656Z 3118/0118 34010KT P6SM BKN020 TEMPO 3118/3122 5SM RA FM312300 00000KT 5SM HZ SCT020 BKN070 PROB40 0112/0116 3SM BR DZ OVC015", "TAF MMMV 311724Z 3118/0118 02010KT P6SM SCT020 BKN300 TEMPO 3122/0102 BKN020 FM010200 36005KT 4SM HZ BKN015 OVC050 TEMPO 0110/0114 3SM BR FM011400 03010KT P6SM BKN040", "TAF MMMX 311621Z 3118/0124 05005KT 6SM HZ SCT020 TX25/3121Z TN12/0112Z TEMPO 3123/0103 5SM TSRA BKN020CB FM010300 03005KT P6SM SCT020 BKN080 BKN200 TEMPO 0110/0114 2SM BR FM011700 04010KT P6SM SCT020 BKN250 PROB40 0120/0124 5SM TSRA BKN020CB", "TAF MMMY 311724Z 3118/0124 00000KT 2SM BR SCT005 BKN008 OVC120 TX21/3121Z TN15/0112Z TEMPO 3121/0101 4SM DZ BR BKN020 FM010100 33005KT 3SM DZ BR OVC010 TEMPO 0110/0114 1SM DZ BR VV005 FM011400 36005KT 4SM HZ SCT020 BKN050", "TAF MMMZ 311647Z 3118/0124 24010KT P6SM SCT020 TX29/3120Z TN18/0112Z BECMG 0103/0104 34005KT TEMPO 0110/0114 3SM BR FM011700 25010KT P6SM SKC", "TAF MMNL 311718Z 3118/0118 12010KT 6SM VC RA OVC025 TEMPO 3120/3124 5SM RA FM010000 06010KT 3SM DZ BKN010 OVC030 TEMPO 0111/0115 1SM DZ OVC005", "TAF MMOX 311640Z 3118/0118 14010KT P6SM SCT030 FM010600 00000KT P6SM SKC TEMPO 0112/0115 5SM HZ BKN015", "TAF MMPA 311718Z 3118/0118 12010KT 5SM HZ OVC030 TEMPO 3121/0101 5SM TSRA BKN020CB FM010300 00000KT 5SM HZ BKN020 TEMPO 0112/0116 2SM BR OVC010", "TAF MMPB 311640Z 3118/0118 13010KT P6SM SCT025 FM312200 14012KT P6SM SCT020CB BKN100 TEMPO 3123/0103 5SM TSRA BKN020CB FM010300 00000KT P6SM SCT100 TEMPO 0112/0116 3SM BR", "TAF MMPG 311718Z 3118/0118 12010KT P6SM BKN100 FM010000 13010KT 5SM VC RA OVC030 TEMPO 0102/0105 4SM TSRA BKN025CB FM010600 12010KT 5SM DZ OVC015 FM011500 12010KT 5SM HZ OVC020", "TAF MMPN 311646Z 3118/0118 18010KT P6SM SCT030CB TEMPO 3121/0101 5SM TSRA BKN030CB FM010100 00000KT P6SM SCT100 TEMPO 0112/0116 3SM BR", "TAF MMPQ 311656Z 3118/0118 12010KT P6SM SCT030 FM011200 00000KT 4SM HZ SCT015", "TAF MMPR 311634Z 3118/0124 04005KT P6SM SKC TX30/3120Z TN23/0112Z FM312000 23010KT P6SM SCT015 TEMPO 3123/0103 BKN015 FM010300 04005KT P6SM SCT015 FM011700 24010KT P6SM SCT015", "TAF MMPS 311640Z 3118/0118 23010KT P6SM SCT015 FM010300 06010KT P6SM SCT250", "TAF MMQT 311646Z 3118/0118 26012KT P6SM SCT025 BKN250 TEMPO 3123/0103 5SM TSRA BKN020CB FM010600 12010KT P6SM SCT020 TEMPO 0112/0116 2SM BR BKN010", "TAF MMRX 311718Z 3118/0118 12015KT 6SM VC RA BKN030 OVC070 TEMPO 3120/3124 4SM RA FM010100 12010KT 4SM RA OVC015 OVC070 PROB40 0111/0115 2SM RA BKN010CB", "TAF MMSD 311650Z 3118/0118 14015KT P6SM SCT040 FM010300 00000KT P6SM SKC", "TAF MMSL 311650Z 3118/0118 28010KT P6SM SKC FM010300 00000KT P6SM SCT030", "TAF MMSM 311621Z 3118/0124 33005KT P6SM SCT020 BKN220 TEMPO 3123/0103 5SM TSRA BKN020CB FM010300 00000KT 5SM HZ SCT015 BKN090 BKN250 TEMPO 0110/0114 1SM BR VV005 FM011400 07005KT 5SM HZ SCT020 BKN090 PROB40 0120/0124 5SM TSRA BKN020CB", "TAF MMSP 311634Z 3118/0124 26010KT 5SM HZ SCT020 TX28/3121Z TN10/0112Z FM010200 13005KT 6SM HZ BKN015 OVC030 BECMG 0107/0108 2SM BR VV005 FM011500 13005KT P6SM SCT015 BKN040 FM011800 07010KT P6SM SCT020", "TAF MMTC 311724Z 3118/0118 04010KT P6SM SKC BECMG 0102/0103 04005KT TEMPO 0110/0114 3SM BR FM011400 07005KT P6SM SKC", "TAF MMTG 311658Z 3118/0118 33010KT 6SM HZ SCT020 BKN300 TEMPO 3123/0103 5SM TSRA BKN020CB FM010300 33005KT 5SM -RA BKN020 OVC090 BECMG 0108/0109 2SM BR HZ VV005 FM011600 13005KT P6SM SCT020 BKN200", "TAF MMTJ 311647Z 3118/0124 28005KT P6SM BKN200 TX25/3121Z TN14/0112Z BECMG 0103/0104 00000KT TEMPO 0110/0114 1SM BR VV005 FM011700 25010KT P6SM SKC", "TAF MMTM 311621Z 3118/0118 13010KT P6SM SCT007 BKN040 TEMPO 3123/0103 5SM TSRA BKN015CB FM010300 17005KT 5SM HZ SCT015 BKN040 OVC070 TEMPO 0110/0114 1SM DZ BR OVC005 FM011400 14010KT 5SM -RA BKN015 OVC050", "TAF MMTO 311621Z 3118/0124 21005KT 4SM HZ SCT020 TX21/3120Z TN09/0112Z TEMPO 3123/0103 4SM TSRA BKN020CB FM010300 13005KT 4SM HZ SCT020 BKN040 BKN080 TEMPO 0110/0114 1/2SM FG VV005 FM011400 17005KT 3SM BR HZ BKN015 FM011700 04005KT 5SM HZ SCT020 BKN090 BKN250 TEMPO 0120/0124 5SM TSRA BKN020CB", "TAF MMTP 311658Z 3118/0124 24010KT P6SM SCT020 TEMPO 3123/0103 5SM TSRA BKN020CB FM010300 34005KT 5SM HZ SCT020 BKN090 FM011700 24010KT P6SM SCT020", "TAF MMUN 311658Z 3118/0124 12010KT P6SM SCT015 TX32/3120Z TN20/0112Z BECMG 3120/3121 04010KT FM010400 08005KT 5SM HZ BKN015 FM011700 04015KT P6SM SCT015 TEMPO 0120/0124 BKN015", "TAF MMVA 311656Z 3118/0118 08010KT P6SM SCT015 FM011200 00000KT 3SM BR BKN010 FM011500 00000KT 5SM HZ SCT015", "TAF MMVR 311621Z 3118/0118 09010KT 5SM HZ SCT020 TX30/3120Z TN21/0112Z TEMPO 3121/0101 BKN020 FM010100 24005KT 4SM HZ BKN015 OVC070 TEMPO 0110/0114 2SM DZ BR OVC005 FM011400 03010KT 5SM HZ SCT020 OVC080", "TAF MMZC 311634Z 3118/0124 25015KT P6SM SKC TX25/3120Z TN05/0112Z TEMPO 3122/0102 25015G25KT FM010200 23005KT P6SM SKC FM011700 24010KT P6SM SKC", "TAF MMZH 311640Z 3118/0118 23010KT P6SM SCT020 FM010600 00000KT P6SM SCT100", "TAF MMZO 311634Z 3118/0118 26010KT P6SM SCT020 TEMPO 3123/0103 BKN020 FM010300 23005KT P6SM SCT020 FM011700 24010KT P6SM SCT020", "MNBL 311610Z 3118/0118 36006KT 8000 -DZ/RA BKN017 SCT070 TEMPO 0105/0113 33004KT 9999 SCT018 BCMG 0114/0117 7000 -DZ/-RA BKN016", "MNMG 311610Z 3118/0118 04010KT 9999 FEW023TCU SCT300 PROB30 BECMG 3121/3123 9000 -DZ FEW021CB SCT070 BECMG 0101/0103 VRB06KT 9999 SCT023", "MNPC 311610Z 3118/0118 36006KT 5000 -RA/DZ FEW014CB BKN016 BECMG 0112/0114 33010KT 5000 RA/-TSRA FEW014CB BKN017", "TAF MPDA 311700Z 3118/0106 24008KT 9999 SCT018 PROB40 3120/3124 19006KT 6000 TSRA SCT015CB BKN080 TEMPO 0100/0104 09004KT", "TAF MPMG 311700Z 3118/0106 18007KT 9999 SCT018 PROB40 3120/3124 7000 TSRA SCT015CB BKN090 TEMPO 0102/0106 VRB02KT", "TAF MPPA 311700Z 3118/0124 20007KT 9999 SCT018 PROB40 3120/3124 7000 TSRA SCT015CB BKN090 TEMPO 0102/0106 00000KT", "TAF MPSM 311700Z 3118/0124 16006KT 9999 SCT018 PROB40 3120/3124 7000 TSRA SCT015CB BKN090 TEMPO 0102/0106 00000KT", "TAF MPTO 311700Z 3118/0124 12005KT 9999 SCT018 TEMPO 3118/3120 18004KT PROB40 3120/3124 7000 TSRA SCT015CB BKN090 TEMPO 0102/0106 VRB02KT", "MRLB 311710Z 3118/0118 29004KT 9999 FEW030 SCT150 TX31/3120Z TN21/0111Z TEMPO 3121/3124 RA FEW015TCU BECMG 0100/0103 12004KT TEMPO 0109/0113 00000KT 5000 BR SCT005 ", "MRLM 311710Z 3118/0118 33008KT 9999 FEW040 SCT200 TX31/3120Z TN22/0111Z BECMG 0100/0103 26005KT BECMG 0114/0117 05006KT ", "MROC 311710Z 3118/0118 25008KT 9999 SCT030 TX27/3118Z TN16/0110Z TEMPO 3120/3123 RA FEW015TCU BKN030 TEMPO 0101/0105 VRB02KT BCFG BKN010 BECMG 0105/0107 07006KT BECMG 0115/0117 24008KT ", "TAF MRPV 311715Z 3118/0118 28005KT 9999 SCT040 BKN200 TX28/0118Z TN18/0110Z TEMPO 3123/0102 VRB02KT BKN010 BECMG 0102/0103 12007KT", "TAF MSLP 311525Z 3118/0118 21007KT 9999 FEW020 TX33/3119Z TN24/0111Z FM010000 VRB02KT 9999 FEW020 FEW037CB SCT070 FM010400 04004KT FEW020", "TAF MSSS 311525Z 3118/0118 18005KT 9999 SCT020 TX30/3120Z TN19/0112Z FM010000 34007KT 9999 FEW020", "TAF MTCH 311700Z 3118/0118 01008KT 9999 FEW022CB PROB40 TEMPO 3122/0104 4000 TSRA SCT024CB BKN040 BECMG 0108/0112 VRB02KT 8000 FEW022", "TAF MTPP 311700Z 3118/0118 31007KT 9999 SCT026 PROB30 TEMPO 0100/0103 4000 TSRA SCT014CB SCTO4O BECMG 0106/0110 VRB02KT 8000 FE016", "MUCC 311700Z 3118/0118 06012KT 9000 SCT020 TEMPO 3120/0102 5000 SHRA RA FEW018CB BKN020 BECMG 0103/0105 VRB03KT", "MUCF 311700Z 3118/0106 09008KT 9000 SCT020 TEMPO 3121/0103 5000 SHRA RA SCT020TCU BKN020", "MUCL 311700Z 3118/0106 05008KT 9000 SCT020 TEMPO 3121/0102 5000 SHRA RA FEW020TCU BKN020", "MUCM 311700Z 3118/0118 05012KT 9000 SCT020 TEMPO 3120/0101 5000 SHRA RA FEW020CB BKN020 BECMG 0103/0105 VRB03KT", "MUCU 311700Z 3118/0118 15008KT 9000 SCT020 TEMPO 3120/0103 5000 SHRA RA FEW020CB BKN020 BECMG 0104/0105 36005KT", "TAF MUGM 3115/0115 34006KT 9999 FEW030 FEW060 QNH2985INS BECMG 3116/3118 12010KT 9999 VCSH SCT030 SCT060 BKN250 QNH2982INS BECMG 3123/0101 35006KT 9999 VCTS FEW030CB SCT055 BKN250 QNH2991INS TEMPO 3123/0103 VRB15G25KT 2000 TSRA SCT025CB BKN050 FM010400 34006KT 9999 NSW FEW030 FEW250 QNH2990INS T31/3117Z T24/0111Z FN20097", "MUHA 311700Z 3118/0118 04010KT 9000 SCT030 BECMG 0101/0103 VRB03KT BECMG 0114/0116 09010KT", "MUHG 311700Z 3118/0118 08011KT 9000 SCT030 TEMPO 3120/0101 5000 SHRA RA FEW020TCU BKN030 BECMG 0103/0105 VRB03KT", "MUSC 311700Z 3118/0118 07011KT 9000 SCT020 TEMPO 3120/0102 5000 SHRA RA FEW020TCU BKN020 BECMG 0103/0104 VRB03KT", "MUVR 311700Z 3118/0118 05012KT 9000 SCT020 TEMPO 3118/3124 FEW020TCU BKN030 BECMG 0103/0105 VRB03KT", "TAF MWCR 311700Z 3118/0118 07013KT 9999 VCSH SCT016 BCMG 0106/0108 08018KT TEMPO 0105/0709 7000 TSRA SCT016CB BKN030", "MYGF 311545Z 3118/0118 11007KT 9999 SCT025", "MYNN 311545Z 3118/0118 10008KT 9999 SCT025", "TAF MZBZ 311600Z 3118/0118 07007KT 9999 SCT024 BECMG 0103/0105 VRB03KT", "TAF NCRG 311710Z 3118/0118 10015KT 9999 FEW018 SCT030 TEMPO 3118/0112 10015G28KT", "TAF NFFN 311710Z 3118/0118 06006KT 9999 FEW028 SCT048 BKN100 PROB40 TEMPO 0102/0106 5000 TSRA BKN015 FEW017CB", "TAF NFNA 311712Z 3118/0118 07006KT 9999 FEW018 SCT100 PROB40 TEMPO 0103/0112 5000 TSRA BKN015 FEW016CB", "TAF NFTF 311711Z 3118/0118 07009KT 9000 -RA SCT008 BKN016 OVC030 TEMPO 3120/3124 3000 TSRA BKN008 SCT014CB PROB40 TEMPO 0100/0118 5000 TSRA BKN015 FEW017CB", "TAF NFTV 311715Z 3118/0118 03007KT 9999 SCT016 BKN100 PROB40 TEMPO 0103/0115 5000 TSRA BKN015 FEW017CB", "TAF NGFU 311713Z 3118/0118 36012KT 9999 -SHRA SCT018 BKN100 TEMPO 3118/3124 3000 +TSRA BKN015 SCT017CB PROB40 TEMPO 0103/0112 5000 TSRA BKN015 FEW017CB", "TAF NGTA 311712Z 3118/0118 10008KT 9999 FEW020", "TAF NIUE 311713Z 3118/0118 08007KT 9999 SCT018 BKN030 PROB40 TEMPO 0103/0112 5000 TSRA BKN015 FEW017CB", "TAF NLWF 311700Z 3118/0118 07005KT 9999 FEW025 TEMPO 3118/0118 4000 SHRA BKN014 SCT018TCU PROB40 TEMPO 0106/0116 2000 TSRA BKN008 BKN015CB", "TAF NLWW 311700Z 3118/0118 05008KT 9999 FEW015 SCT030 TEMPO 3118/0118 4000 SHRA BKN014 SCT018TCU PROB40 TEMPO 0100/0118 2000 TSRA BKN008 BKN015CB", "TAF NSFA 311712Z 3118/0118 06009KT 9999 FEW018 SCT024 BKN040 PROB40 TEMPO 3119/0106 3000 +TSRA BKN015 SCT016CB PROB30 TEMPO 0106/0112 5000 SHRA BKN015 FEW016CB", "NSTU 311737Z 3118/0118 07006KT P6SM SCT025 SCT040 SCT100 FM312200 06009KT P6SM VCSH SCT020 BKN045 BKN100 FM011200 VRB06KT P6SM SCT020 SCT045 BKN100", "TAF NTAA 311700Z 3118/0124 VRB05KT 9999 FEW023 SCT140 BKN300 BECMG 3123/0101 20015G25KT FEW016TCU BKN016 BKN040 TEMPO 0101/0121 3000 ", "TAF NVSC 311700Z 3118/0118 VRB02KT 9999 SCT020", "TAF NVSG 311700Z 3118/0118 VRB02KT 9999 SCT020", "TAF NVSL 311700Z 3118/0118 VRB02KT 9999 SCT020", "TAF NVSP 311700Z 3118/0118 VRB02KT 9999 SCT020", "TAF NVSS 311700Z 3118/0118 VRB02KT 9999 SCT020", "TAF NVVA 311700Z 3118/0118 VRB02KT 9999 SCT020", "TAF NVVV 311700Z 3118/0118 VRB02KT 9999 SCT020", "TAF NVVW 311700Z 3118/0118 VRB02KT 9999 SCT020", "TAF NWWD 311700Z 3118/0118 06008KT 9999 FEW025 TEMPO 3123/0109 4500 SHRA FEW020TCU PROB30 TEMPO 0101/0106 2500 SHRA BKN012 FEW018CB", "TAF NWWE 311700Z 3118/0118 08008KT 9999 FEW020", "TAF NWWK 311700Z 3118/0118 05005KT 9999 FEW020 SCT035 TEMPO 3123/0109 4500 SHRA FEW020TCU", "TAF NWWL 311700Z 3118/0118 10008KT 9999 FEW020 SCT035 TEMPO 0102/0108 SHRA FEW020TCU", "TAF NWWM 311700Z 3118/0118 14010KT 9999 FEW020 SCT035 TEMPO 0100/0106 4500 SHRA FEW020TCU", "TAF NWWR 311700Z 3118/0118 09008KT 9999 FEW020 TEMPO 3118/3119 0900 FG PROB30 TEMPO 0102/0108 SHRA FEW020TCU", "TAF NWWU 311700Z 3118/0118 06005KT 9999 FEW025 SCT035 TEMPO 3118/0118 SHRA FEW020TCU PROB40 TEMPO 3118/3124 3000 SHRA BKN014 FEW020CB", "TAF NWWW 311700Z 3118/0118 05005KT 9999 FEW030 TEMPO 0100/0106 4500 SHRA FEW020TCU BECMG 3123/0101 19010KT", "TAF NZAA 311703Z 3118/0200 18005KT 9999 SCT040 BECMG 0100/0102 24010KT BECMG 0108/0110 VRB02KT BECMG 0121/0123 03012KT", "TAF NZCH 311703Z 3118/0200 VRB02KT CAVOK BECMG 3122/0100 05010KT BECMG 0102/0104 32015KT BECMG 0107/0109 02005KT BECMG 0115/0117 02015KT", "TAF NZFX 311458Z 3115/0115 VRB06KT 9999 FEW015 QNH2885INS TEMPO 3115/3119 0200 FZFG BECMG 0105/0107 08010KT 9999 FEW025 QNH2879INS GRID25010KT ", "TAF NZQN 311703Z 3118/0112 03005KT 9999 FEW065 BECMG 3121/3123 27010KT BECMG 0102/0104 01012KT BECMG 0106/0108 27015KT BECMG 0110/0112 03008KT", "TAF NZSP 311456Z 3115/0115 03015KT 1200 IC BLSN OVC005 QNH2821INS ALL WINDS GRID BECMG 0103/0105 03010KT 4800 IC BLSN SCT005 BKN010 QNH2819INS BECMG 0106/0108 05009KT 8000 IC DRSN FEW005 SCT010 QNH2813INS BECMG 0110/0112 05009KT 2400 IC DRSN BKN012 QNH2810INS", "TAF NZWD 311458Z 3115/0115 VRB06KT 9999 FEW015 QNH2880INS TEMPO 3115/3119 0200 FZFG ", "TAF NZWN 311703Z 3118/0200 35015KT 9999 BKN020 FM312300 33018G30KT CAVOK FM012100 33022G40KT 9999 BKN020", "TAF OBBI 311700Z 3118/0200 15010KT 8000 FEW025", "TAF OEAB 311100Z 3112/0118 20010KT 9999 FEW020 PROB30 TEMPO 3112/3118 SCT020 FEW025CB BECMG 3118/3120 VRB03KT 7000 NSC BECMG 0109/0108 20008KT CAVOK", "TAF OEAH 311000Z 3112/0118 VRB03KT CAVOK BECMG 3120/3122 20010KT PROB30 TEMPO 0103/0109 5000 HZ NSC", "TAF OEAO 311100Z 3112/0118 24012KT CAVOK BECMG 3120/3122 VRB03KT BECMG 0109/0111 23010KT", "TAF OEBA 311100Z 3112/0118 15008KT 9999 FEW030 PROB30 TEMPO 3112/3118 FEW025CB BECMG 3118/3120 VRB03KT CAVOK BECMG 0106/0108 14010KT", "TAF OEBH 311100Z 3112/0118 11010KT CAVOK BECMG 3120/3122 18008KT BECMG 0109/0111 11010KT", "TAF OEDF 311600Z 3118/0124 14006KT CAVOK TEMPO 0100/0106 4000 BR HZ NSC BECMG 0106/0108 20008KT", "TAF OEDM 310400Z 3105/3121 19015KT CAVOK BECMG 3116/3118 15010KT", "TAF OEDR 311000Z 3112/0118 12008KT CAVOK TEMPO 3121/0105 5000 BR NSC BECMG 3121/3123 20006KT", "TAF OEGN 311100Z 3112/0118 23012KT 9999 FEW030 PROB30 TEMPO 3112/3118 SCT030 FEW035CB BECMG 3118/3120 VRB03KT BECMG 0106/0108 23010KT", "TAF OEGS 311100Z 3112/0118 23006KT 9999 FEW040 BECMG 3118/3120 VRB03KT BECMG 0106/0108 22012KT", "TAF OEGT 311100Z 3112/0118 31012KT CAVOK PROB40 TEMPO 3122/0104 3000 BR FEW020 BECMG 0100/0102 29006KT BECMG 0106/0108 32014KT", "TAF OEHL 311100Z 3112/0118 21010KT 9999 FEW040 BECMG 3118/3120 29012KT BECMG 0100/0102 VRB03KT BECMG 0106/0108 24010KT", "TAF OEJN 311700Z 3118/0124 02005KT 7000 FEW040 PROB30 TEMPO 3118/0105 4000 HZ BECMG 0106/0108 30012KT 9999 FEW040 BECMG 0119/0121 01005KT 7000", "TAF OEKJ 311100Z 3112/0118 21013KT CAVOK BECMG 3120/3122 VRB03KT BECMG 0106/0108 21008KT", "TAF OEKM 311100Z 3112/0118 20010KT 9999 FEW020 PROB30 TEMPO 3112/3118 SCT020 FEW025CB BECMG 3118/3120 VRB03KT 7000 NSC BECMG 0109/0108 20008KT CAVOK", "TAF OEMA 311700Z 3118/0124 28006KT 9999 FEW045 BECMG 0104/0106 20008KT BECMG 0118/0120 30006KT", "TAF OENG 311100Z 3112/0118 07010KT CAVOK BECMG 3118/3120 VRB03KT BECMG 0106/0108 09010KT", "TAF OEPA 311000Z 3112/0118 16008KT CAVOK BECMG 0100/0102 23010KT", "TAF OEPS 311700Z 3117/0123 16009KT 9999 FEW250 QNH3012INS BECMG 3120/3121 VRB06KT 9999 FEW250 QNH3012INS BECMG 0106/0107 18010G15KT 9999 FEW250 QNH3005INS BECMG 0114/0115 18012KT 9999 FEW250 QNH3006INS TX35/0111Z TN21/0101Z", "TAF OERF 311100Z 3112/0118 27010KT 9999 FEW040 BECMG 3118/3120 VRB03KT BECMG 0106/0108 02010KT", "TAF OERK 311700Z 3118/0124 19006KT CAVOK BECMG 0100/0102 20006KT BECMG 0112/0114 22008KT", "TAF OERR 311100Z 3112/0118 31012KT 7000 NSC BECMG 0106/0108 36010KT", "TAF OESH 311100Z 3112/0118 09012KT CAVOK", "TAF OESK 311100Z 3112/0118 28010KT 9999 FEW040 BECMG 3118/3120 VRB03KT", "TAF OETB 311100Z 3112/0118 29008KT CAVOK BECMG 3120/3122 VRB03KT 7000 NSC BECMG 0108/0110 29010KT", "TAF AMD OETF 311845Z 3119/0118 28006KT 5000 HZ NSC TEMPO 3119/0105 2500 BR SCT015 BECMG 0104/0106 17006KT BECMG 0110/0112 28013KT", "TAF OETR 311100Z 3112/0118 26013KT CAVOK BECMG 3118/3120 VRB03KT 7000 NSC BECMG 0108/0110 35010KT CAVOK", "TAF OEWD 311100Z 3112/0118 10010KT CAVOK BECMG 0102/0104 VRB03KT BECMG 0109/0111 11008KT", "TAF OEWJ 311100Z 3112/0118 31014KT CAVOK BECMG 3121/3123 03008KT BECMG 0108/0110 30015KT", "TAF OEYN 311100Z 3112/0118 27012KT CAVOK BECMG 3120/3122 VRB03KT 7000 NSC BECMG 0108/0110 30018KT", "TAF OIAA 311750Z 3118/0124 15006KT 7000 NSC BECMG 3119/3121 4000 HZ TEMPO 0100/0104 2000 BR BECMG 0105/0107 6000 NSC TEMPO 0103/0109 16016KT PROB30 3000 SA/DU", "TAF OIAW 311750Z 3118/0124 15008KT 8000 NSC BECMG 3119/3121 4000 HZ TEMPO 0100/0104 2000 BR BECMG 0105/0107 6000 TEMPO 0107/0118 16020KT 4000 SA FEW035CB SCT040 BKN100 TEMPO 0115/0124 4000 TSRA SCT030CB SCT035 BKN090", "TAF OIBB 311755Z 3118/0103 14006KT 7000 NSC", "TAF OIBK 311750Z 3118/0124 28008KT 4000 HZ NSC TEMPO 3123/0105 2000 BR BECMG 0113/0115 27012KT 6000", "TAF OIBP 311755Z 3118/0103 28006KT 6000 NSC TEMPO 3122/0103 4000 HZ/BR", "TAF OICC 311755Z 3118/0103 20006KT 7000 FEW040CB SCT045 BKN090 TEMPO 3119/3121 16012KT TS SHRA BECMG 3122/3124 FEW045 BKN090 PROB30 3122/0102 5000 BR", "TAF OICI 311750Z 3118/0124 13008KT 9999 FEW040 SCT090 TEMPO 3119/0101 17018G26KT 3000 SA TEMPO 0109/0115 22018KT 5000 SHRA FEW030CB SCT035 BKN090 PROB30 TSRA SCT030CB SCT035 BKN090", "TAF OIFM 311750Z 3118/0124 08006KT 8000 FEW040 SCT100 TEMPO 0110/0116 25010G20KT 5000 TSRA SA SCT030CB SCT035 BKN090", "TAF OIGG 311755Z 3118/0103 34006KT 7000 FEW030 BECMG 3120/3122 5000 BR SCT030 PROB40 TEMPO 3123/0103 2000 BR", "TAF OIIE 311100Z 3112/0118 28010KT 8000 FEW035 SCT100 TEMPO 3112/3115 32018KT FEW035TCU SCT040 BKN100 TEMPO 3115/0103 32016G28KT 4000 SA SHRA FEW030CB SCT035 BKN100 PROB30 TSRA SCT030CB SCT035 BKN090 TEMPO 0112/0118 27018KT 5000 TS/SHRA SCT030CB SCT035 BKN090", "TAF OIII 311100Z 3112/0118 28010KT 8000 FEW040 SCT100 TEMPO 3112/3115 28020KT TEMPO 3115/3124 30020KT 5000 SHRA FEW035CB SCT040 BKN100 PROB30 TSRA SCT030CB SCT035 BKN090 BECMG 3124/0102 FEW030CB SCT035 BKN100 TEMPO 0103/0109 34018G28 3000 SA TEMPO 0106/0115 4000 TSRA SCT030CB SCT035 OVC090", "TAF OIIP 311755Z 3118/0103 29008KT 8000 FEW040 SCT100", "TAF OIKB 311750Z 3118/0124 26006KT 6000 NSC TEMPO 3123/0106 02002KT 3000 BR BECMG 0110/0112 22012KT", "TAF OIKK 311750Z 3118/0124 12006KT 8000 NSC", "TAF OIMM 311750Z 3118/0124 07004KT 8000 NSC PROB30 TEMPO 3123/0105 5000 HZ BECMG 0109/0111 FEW035 BKN100 TEMPO 0112/0124 30014G24KT 4000 SHRA BR FEW030CB SCT035 OVC090", "TAF OING 311755Z 3118/0103 06006KT 7000 NSC TEMPO 3123/0103 3000 BR", "TAF OINZ 311755Z 3118/0103 17006KT 7000 SCT040 SCT090", "TAF OISL 311750Z 3118/0124 27004KT CAVOK PROB30 TEMPO 3120/0104 4000 HZ/BR NSC", "TAF OISS 311750Z 3118/0124 03006KT 7000 NSC PROB30 TEMPO 3120/0104 4000 HZ/BR", "TAF OITL 311755Z 3118/0103 20010KT 7000 FEW035", "TAF OITR 311750Z 3118/0124 28006KT 9999 FEW040 PROB40 TEMPO 0109/0115 FEW030CB SCT040 SCT090", "TAF OITT 311750Z 3118/0124 26006KT 8000 FEW040 SCT100 TEMPO 0108/0117 30016KT FEW035CB SCT040 BKN090 PROB30 5000 TSRA SCT030CB SCT035 BKN100", "TAF OIYY 311755Z 3118/0103 08006KT 8000 FEW040", "TAF OIZH 311750Z 3118/0124 18008KT CAVOK TEMPO 0110/0115 25018KT FEW040 SCT100", "TAF OJAI 311656Z 3118/0124 30008KT 5000 HZ SCT030 PROB30 3123/0106 VRB02KT 3000 BR PROB40 0100/0105 0500 FG PROB30 0109/0116 31014KT 4000 -RA DU FEW030TCU BKN030", "TAF OJAM 311656Z 3118/0124 29008KT 5000 HZ FEW030 PROB30 0101/0106 VRB02KT 3000 BR PROB30 0109/0116 30014KT 4000 -RA DU FEW030TCU BKN030", "TAF OJAQ 311656Z 3118/0124 36012KT CAVOK TEMPO 0109/0115 9999 SCT030 PROB30 0110/0115 4000 DU", "TAF OKAS 311602Z 3116/0122 12012KT 9999 FEW200 QNH2988INS BECMG 3120/3121 17012KT 9999 SKC QNH2986INS BECMG 0103/0104 23006KT 9999 SKC QNH2983INS TEMPO 0108/0112 26012G20KT BECMG 0111/0112 12012KT 9999 FEW300 QNH2983INS BECMG 0116/0117 VRB06KT 9999 SKC QNH2985INS TX37/0111Z TN21/0103Z", "TAF OKBK 311700Z 3118/0124 16008G18KT 7000 NSC TEMPO 0100/0104 VRB03KT 3000 BR", "TAF OLBA 311600Z 3118/0124 23012KT 8000 -RA BKN026 TEMPO 0106/0115 23012G25KT 5000 -TSRA FEW020CB BKN022 BECMG 0118/0120 16008KT 8000 SCT026 PROB40 TEMPO 0118/0124 5000 -RA BKN026", "TAF OMAA 311700Z 3118/0200 11005KT 8000 NSC TEMPO 3122/0106 3000 HZ PROB30 0101/0105 1500 BR BECMG 0108/0110 33011KT BECMG 0116/0118 08005KT", "TAF OMAD 311700Z 3118/0200 11005KT 8000 NSC TEMPO 0100/0106 3000 HZ PROB30 0101/0105 1500 BR BECMG 0108/0110 33010KT BECMG 0115/0117 06004KT", "TAF OMAL 311700Z 3118/0200 07006KT 8000 NSC BECMG 0101/0103 14008KT BECMG 0111/0113 33011KT BECMG 0117/0119 08005KT", "TAF OMDB 311700Z 3118/0200 13005KT 7000 NSC PROB40 3121/0106 4000 HZ PROB30 0100/0105 1500 BR BECMG 0107/0109 33012KT BECMG 0116/0118 13005KT PROB30 0122/0200 4000 HZ", "TAF OMDW 311700Z 3118/0200 12005KT 6000 NSC PROB40 3118/0106 3000 BR PROB30 0100/0105 0100 FG VV/// BECMG 0108/0110 33012KT BECMG 0116/0118 13005KT PROB30 0120/0200 3000 HZ", "TAF OMFJ 311700Z 3118/0200 VRB02KT 7000 NSC BECMG 3120/3122 29005KT TEMPO 3122/0104 4000 HZ FEW025 BECMG 0105/0107 10008KT BECMG 0114/0116 VRB03KT", "TAF OMRK 311700Z 3118/0200 18003KT 6000 NSC PROB40 3118/0106 3000 BR PROB30 0100/0105 0100 FG VV/// BECMG 0107/0109 33010KT BECMG 0115/0117 18003KT PROB30 0120/0200 3000 HZ", "TAF OMSJ 311700Z 3118/0200 13005KT 7000 NSC PROB40 3118/0106 3000 BR PROB30 0100/0105 0100 FG VV/// BECMG 0107/0109 33012KT BECMG 0116/0118 13005KT PROB30 0120/0200 3000 HZ", "TAF OODQ 311700Z 3118/0118 VRB02KT 8000 NSC PROB30 TEMPO 3120/0104 4000 BR BKN010 BECMG 0106/0108 10010KT", "TAF OOMS 311700Z 3118/0124 VRB02KT 8000 NSC BECMG 0101/0103 28010KT BECMG 0106/0108 02010KT BECMG 0116/0118 VRB02KT BECMG 0120/0122 21010KT", "TAF OOSA 311740Z 3118/0200 VRB03KT 9999 FEW025 BECMG 0106/0108 17010KT BECMG 0116/0118 VRB03KT", "TAF OOSH 311700Z 3118/0124 VRB02KT 8000 NSC TEMPO 0108/0114 07010KT BECMG 0116/0118 VRB02KT", "TAF OPBW 311545Z 3118/0112 31010KT 3000 FU FEW120 TN16/0101Z TX34/0110Z PROB30 TEMPO 0101/0105 36005KT 1500 BR NSC", "TAF OPDG 311545Z 3118/0112 05010KT 4000 FU FEW120 TN16/0101Z TX31/0110Z", "TAF OPFA 311545Z 3118/0112 09004KT 4000 FU NSC TX32/0110Z TN17/0101Z PROB30 TEMPO 3118/3121 13006G16KT 2000 DRDU FEWT100 TEMPO 0100/0106 VRB02KT 1000 BR SCT100", "TAF OPGD 311530Z 3118/0118 24005KT 3000 BR NSC TEMPO 0100/0104 00000KT 1500 BR NSC BECMG 0104/0106 24012KT 5000 HZ NSC", "TAF OPIS 311530Z 3118/0124 08006KT 5000 FU FEW040 SCT100 PROB30 TEMPO 3123/0103 28010G20KT 3000 -RA FEW040 SCT040 BKN100 BECMG 0103/0106 27008KT 5000 FU FEW040 BECMG 0112/0115 13006KT 4000 FU ", "TAF OPKC 311530Z 3118/0124 34006KT 4000 FU NSC TEMPO 0100/0104 00000KT 2000 BR NSC BECMG 0104/0106 27012KT 6000 NSC BECMG 0118/0120 34004KT 4000 FU NSC", "TAF OPLA 311545Z 3118/0124 10005KT 3000 FU NSC TX30/01102 TN17/01021Z BECMG 3120/3122 09004KT 2000 BR NSC TEMPO 0101/0104 1000 BR BECMG 0110/0112 03005KT 4000 FU NSC", "TAF OPMT 311545Z 3118/0112 31010KT 3000 FU FEW120 TN17/0101Z TX32/0110Z PROB30 TEMPO 0101/0105 36005KT 1500 BR NSC", "TAF OPNH 311530Z 3118/0124 21004KT 3000 BR NSC TEMPO 0100/0104 00000KT 1500 BR NSC BECMG 0104/0106 22010KT 3000 FU NSC BECMG 3119/3121 18004KT 3000 BR NSC", "TAF OPPS 311530Z 3118/0124 31006KT 4000 HZ SCT040 SCT100 TEMPO 3121/3124 VRB02KT 3000 BR FEW040 SCT100 BECMG 0103/0106 05006KT 5000 HZ FEW100 BECMG 0113/0115 23006KT 4000 HZ FEW100", "TAF OPRK 311545Z 3118/0112 05010KT 4000 FU NSC TN17/0110Z TX34/0110Z", "TAF OPSK 311530Z 3118/0118 00000KT 3000 BR NSC TEMPO 0100/0104 00000KT 1500 BR NSC BECMG 0104/0106 21008KT 4000 HZ NSC", "TAF OPST 311545Z 3118/0124 05006KT 4000 FU FEW040 SCT100 TX28/0110Z TN19/0101Z TEMPO 0100/0104 00000KT 2000 BR", "TAF ORBI 311700Z 3118/0118 26008KT 8000 FEW030", "TAF ORER 311600Z 3118/0118 06006KT 8000 FEW040 SCT090 BECMG 0100/0102 VRB02KT NSC BECMG 0109/0111 27010KT", "TAF ORMM 311000Z 3112/0112 16008KT CAVOK ", "TAF ORNI 311700Z 3118/0118 30006KT 6000 FEW040", "TAF ORSU 311700Z 3118/0118 32006KT 9999 SCT045 SCT080 BECMG 0108/0110 26010KT", "OSAP 311600Z 3118/0118 33006KT 9999 FEW030 BECMG 0109/0112 27008KT 9999 FEW030", "OSDI 311600Z 3118/0124 22010KT CAVOK TEMPO 0100/0106 VRB03KT 4000BR PROB30 TEMPO 0102/0106 0200FG", "OSLK 311600Z 3118/0118 17007KT 6000 SHRA FEW026CB BKN030", "TAF OTBD 311703Z 3118/0124 12005KT CAVOK TEMPO 3120/0105 VRB03KT TEMPO 3123/0107 18005KT PROB30 TEMPO 0102/0106 4900 HZ NSC", "TAF OTBH 311600Z 3116/0122 09006KT 9000 HZ FEW250 QNH2995INS BECMG 3118/3119 12006KT 9000 HZ SKC QNH2993INS BECMG 0100/0101 18006KT 8000 BR SKC QNH2990INS TEMPO 0102/0104 5000 BR BECMG 0106/0107 17009KT 9999 NSW SKC QNH2988INS BECMG 0113/0114 09006KT 9999 SKC QNH2989INS TX35/0110Z TN23/0105Z", "TAF OTHH 311703Z 3118/0124 13006KT CAVOK TEMPO 3121/0105 VRB03KT TEMPO 3123/0107 19005KT PROB30 TEMPO 0102/0106 4900 HZ NSC", "PAAQ 311722Z 3118/0118 VRB06KT P6SM OVC070", "PABE 311720Z 3118/0118 26009KT P6SM SCT035", "TAF PABI 311400Z 3114/0120 27009KT 9999 SCT020 OVC030 QNH2969INS BECMG 0115/0116 VRB06KT 9999 FEW030 SCT045 QNH2994INS TXM10/3123Z TNM13/0112Z", "PABR 311721Z 3118/0118 11012G18KT P6SM OVC015 FM010300 16012KT P6SM OVC025", "PABT 311721Z 3118/0118 35003KT P6SM OVC070", "PACD 311720Z 3118/0118 25008KT P6SM VCSH FEW040 BKN050 FM312100 15011KT P6SM VCSH SCT035 OVC050 FM010400 14011KT 6SM -RA BR SCT015 OVC035 FM010800 13013G23KT 4SM -RA BR OVC015", "PACV 311720Z 3118/0118 VRB06KT P6SM BKN110 FM010900 08005KT 6SM -SN SCT015 OVC035", "PADL 311720Z 3118/0118 28010KT P6SM SKC FM011500 01012G20KT P6SM BKN100", "PADQ 311720Z 3118/0118 29030G50KT P6SM FEW050 FM312200 29025G40KT P6SM FEW040 FM010400 29012G22KT P6SM SKC FM010600 29011KT P6SM SKC", "PADU 311720Z 3118/0118 16005KT P6SM FEW030 OVC050 FM312200 16011KT 6SM -RA BR FEW010 OVC020 FM010200 16012G22KT 2SM -RA BR OVC009", "TAF AMD PAED 311520Z 3115/0119 35006KT 9999 BKN045 BKN080 OVC110 610458 QNH2957INS BECMG 3116/3117 36012KT 9999 FEW050 SCT070 BKN120 QNH2966INS BECMG 0106/0107 35009KT 9999 FEW055 BKN080 620806 QNH2991INS TXM02/3123Z TNM07/3117Z", "TAF PAEI 311400Z 3114/0120 VRB03KT 9999 -SN BKN040 620405 QNH2963INS TEMPO 3114/3120 9000 -SN BR BECMG 3123/3124 VRB03KT 9999 NSW SCT040 QNH2987INS TXM14/3123Z TNM20/3116Z LAST NO AMDS AFT 3114 NEXT 3122", "PAEN 311722Z 3118/0118 02009KT P6SM OVC060", "PAFA 311721Z 3118/0124 05003KT P6SM -SN SCT050 FM312000 05003KT P6SM SCT050 BKN080", "TAF AMD PAFB 311544Z 3115/0120 VRB04KT 9999 BKN040 620405 QNH2975INS TEMPO 3115/3120 9000 -SN TXM16/0100Z TNM23/0114Z", "PAGA 311721Z 3118/0118 00000KT P6SM OVC050 FM010600 VRB02KT P6SM BKN100 AMD LTD TO CLD VIS WX", "PAGK 311720Z 3118/0118 35006KT P6SM BKN100 FM011500 VRB06KT P6SM VCSH SCT020 OVC045", "PAGS 311736Z 3118/0118 13008KT P6SM VCSH SCT013 BKN040 OVC060 TEMPO 3118/3122 -SHRA BKN012 OVC035 FM312200 14006KT P6SM BKN050 FM010600 VRB03KT P6SM SCT070 AMD LTD TO CLD VIS AND WIND", "PAGY 311736Z 3118/0118 05004KT P6SM VCSH OVC060 FM010600 04012G22KT P6SM BKN060 AMD LTD TO CLD VIS AND WIND", "PAHN 311927Z 3119/0118 29004KT 6SM -SHRA BKN020 OVC040 TEMPO 3119/3122 2SM -SHRASN BKN007 OVC012 FM312200 31003KT P6SM VCSH BKN007 OVC012 FM010300 30012KT P6SM SCT012 BKN030 BKN050 FM010900 30012KT P6SM SCT070 AMD LTD TO CLD VIS AND WIND", "PAHO 311722Z 3118/0118 01009KT P6SM BKN100 FM312100 01012G22KT P6SM BKN100 FM010000 36010KT P6SM BKN100", "PAIL 311720Z 3118/0118 32012G20KT P6SM OVC030 TEMPO 3118/3121 OVC040 FM312100 32012G20KT P6SM BKN040 FM010200 32008KT P6SM SCT040", "PAJN 311736Z 3118/0118 09010KT P6SM -SHRA SCT015 SCT030 OVC045 TEMPO 3118/3122 5SM -SHRASN SCT004 OVC030 FM312200 09008KT P6SM VCSH SCT025 OVC050 FM010300 10006KT P6SM BKN050 FM010900 VRB03KT P6SM SCT070", "PAKN 311720Z 3118/0118 32010KT P6SM SKC", "PAKT 311736Z 3118/0118 14005KT P6SM VCSH SCT040 BKN050 TEMPO 3118/3122 6SM -SHRA BKN025 OVC035 FM312200 13007KT P6SM -SHRA BKN050 FM010600 VRB05KT P6SM VCSH BKN050 FM011200 VRB03KT P6SM SCT070 AMD LTD TO CLD VIS AND WIND 0106/0115", "PAKW 311928Z 3119/0118 16008KT P6SM FEW023 BKN040 OVC070 TEMPO 3119/3122 6SM SHRA BKN025 OVC040 FM312200 VRB05KT P6SM VCSH BKN040 BKN060 FM010900 04004KT P6SM SCT070 AMD LTD TO CLD VIS AND WIND", "PANC 311722Z 3118/0124 36011KT P6SM SCT080 BKN100 FM010500 36012G22KT P6SM SCT050 OVC080 FM011000 01011KT P6SM SCT050 BKN090", "PAOM 311721Z 3118/0118 28004KT P6SM SCT100 FM010900 09012KT P6SM -SN BKN070 FM011500 08014KT P6SM VCSH OVC050", "PAOR 311721Z 3118/0118 31010G18KT 6SM -SN BKN050 OVC070 FM312100 30009KT P6SM SCT035 BKN050 FM010300 VRB03KT P6SM SCT015 BKN035", "PAOT 311721Z 3118/0118 08009KT P6SM VCSH BKN004 OVC015 FM312100 13006KT 5SM -SN BR OVC007 FM010900 09008KT 6SM BR SCT007 BKN015 FM011500 09012KT P6SM SCT015", "PAPG 311736Z 3118/0118 06005KT P6SM VCSH BKN035 BKN050 TEMPO 3118/3122 3SM -SHRASN BKN012 OVC022 FM010000 VRB03KT P6SM SCT070 AMD LTD TO CLD VIS AND WIND 0106/0115", "PAQT 311721Z 3118/0118 16005KT P6SM SKC", "PASC 311721Z 3118/0118 VRB03KT P6SM SKC FM010600 13010KT P6SM SCT100", "PASD 311720Z 3118/0118 30008KT P6SM BKN050 FM312200 21009KT P6SM SCT020 OVC040 FM010600 16011KT 6SM -RA BR SCT010 OVC020 FM010900 16013KT 4SM -RA BR OVC010", "PASI 311736Z 3118/0118 10007KT P6SM VCSH SCT035 BKN050 TEMPO 3118/3122 4SM -SHRA OVC035 FM312200 10006KT P6SM BKN070 FM010600 VRB03KT P6SM SCT070", "PASN 311720Z 3118/0118 19012KT P6SM VCSH FEW030 BKN060 FM312100 18015KT 5SM -RA BR SCT009 OVC020 FM010100 17015KT 3SM -RA BR OVC009 FM010400 16015KT 2SM RA BR OVC007", "TAF PASY 311400Z 3114/0120 32012KT 9999 BKN035 OVC050 QNH2982INS BECMG 3120/3121 34025KT 9999 FEW035 SCT050 QNH2978INS BECMG 0115/0116 31030KT 9999 BKN040 OVC055 560002 QNH2989INS TX05/3120Z TN03/0114Z", "PATA 311721Z 3118/0118 VRB03KT P6SM SCT040 BKN050 OVC080", "PATK 311722Z 3118/0118 01010KT P6SM OVC070", "PAUN 311721Z 3118/0118 12005KT P6SM OVC025", "PAVD 311720Z 3118/0118 10011G18KT P6SM BKN100 BKN200 FM011000 VRB05KT P6SM VCSH SCT030 OVC040", "PAWG 311736Z 3118/0118 11008KT P6SM VCSH FEW020 SCT035 BKN060 FM010000 11007KT P6SM SCT050 FM010900 08005KT P6SM SCT070 AMD LTD TO CLD VIS AND WIND 0106/0115", "PAYA 311736Z 3118/0118 08008KT P6SM -SHRA OVC030 FM010300 07005KT P6SM OVC050 AMD LTD TO CLD VIS AND WIND", "PGRO 310524Z 3106/0106 10014KT P6SM VCSH SCT015", "PGSN 311720Z 3118/0118 10008KT P6SM VCSH SCT018", "TAF PGUA 311800Z 3118/0124 09008KT VCSH 9999 SCT015 QNH2977INS TEMPO 3118/0103 12010G15KT 6000 -SHRA BKN012 TX30/0102Z TN25/3118Z", "PGUM 311720Z 3118/0124 10006KT P6SM VCSH SCT019 SCT040", "PGWT 310524Z 3106/0106 09010KT P6SM VCSH SCT017 SCT100", "TAF PHHI 311500Z 3115/0121 VRB06KT 9999 SCT025 BKN035 QNH2999INS TEMPO 3120/0101 09012G18KT BECMG 0103/0104 VRB06KT 9999 SCT030 QNH3004INS TX28/3123Z TN21/3115Z", "PHJH 311737Z 3118/0118 05011KT P6SM FEW025 SCT045 FM312000 03011G21KT P6SM VCSH SCT025 BKN050 FM010700 05009KT P6SM FEW025 SCT045 FM011200 04005KT P6SM FEW035", "PHJR 311737Z 3118/0118 05005KT P6SM FEW025 FEW050 FM312000 08011G19KT P6SM FEW025 SCT045 FM010500 04008KT P6SM FEW025 SCT045 FM011500 05004KT P6SM FEW035", "PHKO 311737Z 3118/0118 10005KT P6SM FEW030 FM312000 24010KT P6SM FEW025 SCT050 FM010300 14006KT P6SM FEW030 BKN060 FM010900 11005KT P6SM SCT030 SCT050", "PHLI 311737Z 3118/0118 06015KT P6SM SCT025 SCT040 BKN060 FM312100 04016KT P6SM SCT025 SCT045 FM010900 06014KT P6SM VCSH SCT025 BKN045", "PHMK 311737Z 3118/0118 04012KT P6SM VCSH FEW025 SCT035 SCT045 FM312000 03014G22KT P6SM FEW025 SCT040 SCT050 FM010600 04009KT P6SM FEW025 SCT045 FM011600 04009G17KT P6SM SCT030 SCT045", "TAF PHNG 3115/0115 06010KT 9999 FEW025 SCT045 QNH2998INS TEMPO 3115/3121 BKN025 BKN035 BKN050 TEMPO 3121/0103 07010G20KT 8000 -SHRA BKN025 BKN035 T24/3116Z T28/3123Z", "PHNL 311737Z 3118/0124 05006KT P6SM FEW025 SCT045 FM312000 06014G20KT P6SM SCT025 SCT045 FM010500 04008KT P6SM SCT025 SCT045 FM012100 06015G22KT P6SM FEW025 SCT045", "PHNY 311737Z 3118/0118 05009KT P6SM SCT025 FM312100 04016G24KT P6SM SCT025 BKN035 FM010700 04012KT P6SM FEW025 SCT040 FM011200 07008KT P6SM FEW025", "PHOG 311737Z 3118/0118 04012KT P6SM FEW025 SCT050 FM312000 04017G24KT P6SM VCSH SCT025 SCT050 FM010500 05010KT P6SM FEW025 SCT050 FM011200 02011KT P6SM FEW035", "PHTO 311737Z 3118/0118 23005KT P6SM VCSH SCT025 SCT035 BKN050 TEMPO 3118/3120 5SM SHRA BR BKN025 FM312000 05008KT P6SM SCT025 SCT040 BKN050 FM010600 25005KT P6SM VCSH SCT025 SCT035 BKN045", "PKMJ 311720Z 3118/0118 11010KT P6SM VCSH FEW016 SCT050 BKN120", "PKWA 311720Z 3118/0118 07007KT P6SM VCSH SCT020 SCT050 BKN120", "TAF PLCH 311713Z 3118/0118 10008KT 9999 FEW020", "PMDY 311737Z 3118/0118 09010KT P6SM SCT025 SCT050 FM010000 12010KT P6SM SCT025 SCT050 FM011200 13010KT P6SM VCSH SCT020 BKN035", "PTKK 311720Z 3118/0118 09007KT P6SM VCSH FEW014", "PTPN 302321Z 3100/3124 13010KT P6SM SCT017 BKN130 TEMPO 3100/3104 -SHRA BKN017 OVC130", "PTRO 311720Z 3118/0118 13007KT P6SM VCSH SCT014 BKN100", "PTSA 310524Z 3106/0106 10007KT P6SM SCT020 BKN120 TEMPO 3106/3108 BKN020 BKN120", "PTYA 311720Z 3118/0118 10007KT P6SM FEW017 FM010100 10011KT P6SM VCSH SCT014 BKN100", "TAF PWAK 311400Z 3114/0120 07009KT 9999 FEW020 QNH2980INS TX32/0108Z TN26/3123Z FOR MIL USE ONLY", "TAF RCFN 311700Z 3118/0118 01005KT 5000 SHRA SCT008 BKN016 BKN040 TEMPO 3118/3124 3200 SHRA SCT006 BKN011 FEW015CB BKN030 BECMG 0100/0102 04010KT 6000 NSW FEW010 SCT020 BKN032 TEMPO 0104/0110 05012G22KT 5000 SHRA SCT008 BKN016 BKN040 BECMG 0110/0112 35005KT", "TAF RCKH 311700Z 3118/0124 36005KT 8000 FEW010 BKN032 BKN060 TEMPO 3118/3124 06005KT 5000 RA BR FEW008 BKN020 BKN050 BECMG 0100/0102 31010KT TEMPO 0104/0110 25010KT 5000 SHRA FEW008 BKN020 BKN050 BECMG 0110/0112 01005KT TEMPO 0118/0124 06005KT 5000 BR", "TAF RCMQ 311700Z 3118/0118 02022G32KT 9999 -RA SCT008 BKN025 BKN050 TX27/0105Z TN19/3121Z TEMPO 3119/3123 5000 -RA BR SCT004 BKN016 BKN030 BECMG 0105/0108 02018G28KT FEW010 SCT020 BKN040 TEMPO 0112/0117 9000 FEW010 SCT030 BKN060", "TAF RCNN 311700Z 3118/0118 36004KT 9999 FEW012 BKN060 TX26/0105Z TN19/3121Z TEMPO 3123/0104 8000 -RA FEW012 BKN050 BECMG 0105/0108 34008KT FEW012 BKN050 BECMG 0110/0113 36004KT FEW012 BKN060", "TAF RCSS 311700Z 3118/0118 08012KT 8000 FEW012 BKN022 BKN050 TEMPO 3118/3124 4000 SHRA SCT008 BKN016 BKN040 TEMPO 0104/0110 07015G25KT 5000 SHRA SCT008 BKN016 BKN040 TEMPO 0114/0118 5000 SHRA SCT008 BKN016 BKN040", "TAF RCTP 311700Z 3118/0124 05017KT 8000 SCT006 BKN011 BKN030 TEMPO 3118/3124 07012KT 4000 RA SCT004 BKN007 BKN020 TEMPO 0102/0108 04022G32KT 5000 RA BR SCT004 BKN007 BKN020 BECMG 0110/0112 SCT008 BKN016 BKN040 TEMPO 0112/0118 5000 RA BR SCT006 BKN011 BKN030 TEMPO 0118/0124 07012KT", "TAF RJAA 311714Z 3118/0200 34008KT 9999 FEW020 SCT045", "TAF RJAH 311706Z 3118/0200 36005KT 9999 FEW030", "TAF RJBB 311705Z 3118/0200 06012KT 7000 -SHRA FEW005 SCT008 BKN015 TEMPO 3121/0106 3500 SHRA BR FEW003 SCT005 BKN008 TEMPO 0106/0112 4000 -SHRA BR", "TAF RJCB 311707Z 3118/0200 33005KT 9999 FEW005 BKN015 BECMG 3122/0100 15010KT TEMPO 0112/0118 3000 TSRA BR FEW002 BKN005 FEW025CB TEMPO 0118/0121 4000 -SHRA BR FEW002 BKN005 BECMG 0118/0121 34009KT", "TAF RJCC 311705Z 3118/0200 14008KT 9999 FEW015 BKN030 BECMG 0100/0102 14018KT TEMPO 0112/0118 4000 TSRA BR FEW005 BKN008 FEW025CB BECMG 0118/0121 34012KT", "TAF RJCH 311716Z 3118/0200 13014KT 9999 FEW020 SCT040 TEMPO 0112/0115 4000 TSRA BR FEW005 BKN008 FEW025CB BECMG 0112/0115 24010KT BECMG 0118/0121 32010KT", "TAF RJCK 311707Z 3118/0200 34005KT 9999 FEW008 BKN020 BECMG 3123/0101 18011KT TEMPO 0115/0121 3000 TSRA BR FEW003 BKN005 FEW025CB BECMG 0121/0200 27006KT", "TAF RJCM 311721Z 3118/0200 20005KT 9999 FEW003 SCT015 TEMPO 3118/3122 3000 BR BECMG 0121/0200 32007KT", "TAF RJEC 311710Z 3118/0200 18013KT 9999 FEW005 SCT015 TEMPO 0112/0118 4000 SHRA BR FEW003 BKN006 FEW025CB TEMPO 0118/0121 4000 -SHRA BR FEW003 BKN006 BECMG 0118/0121 29005KT", "TAF RJFF 311705Z 3118/0200 15005KT 9999 FEW030 BECMG 0100/0102 36012KT", "TAF RJFK 311705Z 3118/0200 34005KT 9999 -RA FEW030 BKN050", "TAF RJFM 311705Z 3118/0200 30005KT 9999 -RA FEW020 SCT030 BKN040 BECMG 3123/0101 03011KT BECMG 0115/0118 33007KT", "TAF RJFO 311705Z 3118/0200 34010KT 9999 FEW030 BKN050", "TAF RJFR 311705Z 3118/0200 36008KT 9999 FEW030", "TAF RJFS 311705Z 3118/0200 36007KT 9999 FEW030 BECMG 3122/0100 03011KT", "TAF RJFT 311705Z 3118/0200 03007KT 9999 FEW040 BECMG 3123/0101 30005KT BECMG 0104/0106 03006KT", "TAF RJFU 311705Z 3118/0200 13004KT 9999 FEW040 BECMG 3119/3121 36013KT", "TAF RJGG 311713Z 3118/0200 07010KT 9999 FEW030 BKN040 TEMPO 3122/0104 4000 SHRA BR TEMPO 0106/0112 4000 RA BR BECMG 0109/0112 36010KT", "TAF RJNK 311714Z 3118/0200 12004KT 9999 FEW030 BKN050 BECMG 0100/0102 22005KT BECMG 0104/0106 36005KT BECMG 0112/0115 16004KT", "TAF RJNS 311714Z 3118/0200 03006KT 9999 FEW030 BKN060 BECMG 0109/0112 31005KT BECMG 0121/0200 12004KT", "TAF RJNT 311706Z 3118/0200 16004KT 9999 FEW030 BKN050 TEMPO 0106/0112 4000 -SHRA BR FEW005 BKN008", "TAF RJOA 311708Z 3118/0200 06004KT 9000 -SHRA FEW008 SCT010 BKN020 TEMPO 0100/0103 4000 -SHRA BR BCFG FEW000 SCT003 BKN008", "TAF RJOB 311707Z 3118/0200 03005KT 7000 -SHRA FEW003 SCT008 BKN015 TEMPO 3121/0103 3500 -SHRA BR BCFG FEW000 BKN005 BKN012 TEMPO 0103/0109 4000 -SHRA BR BCFG FEW000 BKN008 BKN015", "TAF RJOC 311706Z 3118/0200 17006KT 9999 FEW020 BECMG 0101/0103 36006KT BECMG 0112/0115 17005KT", "TAF RJOH 311705Z 3118/0200 18005KT 9999 FEW025 BECMG 0102/0104 14004KT BECMG 0112/0115 17005KT", "TAF RJOI 3115/0115 32006KT 9999 FEW030 BKN250 QNH3007INS BECMG 3120/3122 04006KT 9000 SCT015 BKN025 BKN180 QNH3002INS FM010200 03008KT 8000 -SHRA BR SCT010 BKN020 OVC040 550405 QNH3000INS BECMG 0105/0107 03008KT 9999 NSW FEW020 BKN040 550405 QNH3003INS FM010900 08008KT 9999 SCT015 BKN035 BKN050 550405 QNH2998INS T12/3121Z T19/0106Z", "TAF RJOK 311706Z 3118/0200 36010KT 7000 -SHRA FEW008 SCT015 BKN025 TEMPO 3121/0106 4000 SHRA BR", "TAF RJOM 311709Z 3118/0200 12004KT 8000 -SHRA FEW008 SCT015 BKN025 BECMG 3122/0100 01010KT TEMPO 0100/0103 4000 -SHRA BR", "TAF RJOO 311705Z 3118/0200 06010KT 9000 -RA FEW015 BKN035 TEMPO 0100/0109 4000 SHRA BR BECMG 0106/0109 32005KT", "TAF RJOT 311710Z 3118/0200 06007KT 7000 -SHRA FEW003 SCT008 BKN015 TEMPO 3120/0100 4000 -SHRA BR FEW001 SCT005 BKN008 TEMPO 0100/0106 3000 SHRA BR BCFG FEW000 SCT003 BKN008 TEMPO 0109/0118 4000 BR BCFG FEW000 SCT003 BKN008", "TAF RJSA 311705Z 3118/0200 21005KT 9999 FEW020 TEMPO 0112/0118 4000 SHRA BR", "TAF RJSF 311705Z 3118/0200 14004KT 6000 FEW010 TEMPO 3118/0100 1500 BR FEW001 BKN003 BECMG 0118/0121 02005KT", "TAF RJSI 311705Z 3118/0200 01004KT 9999 FEW030 BKN050 BECMG 0100/0102 19010KT TEMPO 0112/0118 4000 SHRA BR FEW005 BKN008 BKN015 BECMG 0118/0121 01004KT", "TAF RJSK 311705Z 3118/0200 13007KT 9999 FEW010 TEMPO 0112/0118 3000 TSRA BR FEW002 BKN005 BKN008 FEW020CB BECMG 0118/0121 30005KT", "TAF RJSN 311706Z 3118/0200 16010KT 9999 FEW030 BKN060 BECMG 0102/0104 22008KT TEMPO 0109/0115 4000 -SHRA BR", "TAF RJSS 311706Z 3118/0200 34004KT 9999 FEW020 BKN030 BECMG 0101/0103 12008KT BECMG 0109/0112 28004KT", "TAF RJTT 311705Z 3118/0200 35012KT 9999 FEW020", "TAF RJTY 311300Z 3113/0119 VRB06KT 9999 FEW015 SCT020 BKN070 QNH3027INS BECMG 0100/0101 34009KT 9999 SCT025 BKN030 OVC070 QNH3014INS TEMPO 0109/0114 9000 VCSH SCT020 BKN025 TX19/0105Z TN08/3121Z LAST NO AMDS AFT 3113 NEXT 3121", "TAF RKJB 311700Z 3118/0124 07005KT 7000 NSC TN09/3121Z TX19/0105Z TN08/0121Z TEMPO 3119/3121 4000 BR BECMG 0102/0103 34010KT BECMG 0112/0113 06006KT 4000 BR BECMG 0121/0122 02007KT CAVOK", "TAF AMD RKJK 311805Z 3118/0122 01005KT 2400 BR SKC QNH3016INS TEMPO 3118/3120 0800 FG VV001 BECMG 3120/3121 02005KT 0800 FG VV001 QNH3012INS TEMPO 3121/3123 1600 BR BKN015 BECMG 3123/3124 04007KT 6000 BR SCT015 BKN020 QNH3010INS BECMG 0104/0105 33010G15KT 9999 NSW SCT020 QNH3008INS BECMG 0110/0111 36012KT 9999 SKC QNH3012INS TX18/0106Z TN07/3122Z", "TAF RKNY 311700Z 3118/0124 25010KT 9999 SCT030 TN09/3121Z TX19/0104Z TN08/0121Z TEMPO 0101/0102 33006KT CAVOK BECMG 0102/0104 01006KT CAVOK BECMG 0105/0106 07006KT BECMG 0107/0108 26008KT", "TAF RKPC 311700Z 3118/0124 01008KT 9999 FEW030 TN15/3120Z TX19/0104Z TN14/0120Z TEMPO 0110/0114 35015G25KT", "TAF RKPK 311700Z 3118/0124 33006KT CAVOK TN08/3121Z TX23/0106Z BECMG 0102/0103 36008KT", "TAF RKSG 311900Z 3119/0201 VRB06KT 3200 BR SCT012 QNH3015INS BECMG 0100/0101 VRB06KT 8000 BR SCT015 QNH3014INS BECMG 0105/0106 30009KT 9999 NSW FEW019 QNH3013INS BECMG 0106/0107 30012KT 9999 FEW019 QNH3013INS BECMG 0123/0124 VRB06KT 9999 SKC QNH3021INS TX16/0105Z TN06/0118Z", "TAF RKSI 311700Z 3118/0124 32006KT 6000 FEW015 BKN120 TN11/3121Z TX17/0105Z TN07/0121Z TEMPO 3121/0101 FEW010 BKN025 OVC070 BECMG 0105/0107 33015G25KT CAVOK TEMPO 0115/0121 34010KT BECMG 0121/0123 34007KT", "TAF RKSM 311700Z 3118/0124 27006KT 4800 BR SCT030 BECMG 3120/3121 27006KT 3200 BR BKN015 BECMG 0100/0101 30006KT 4800 BR BKN015 BECMG 0102/0103 30006KT 9999 NSW SCT030 TN09/3121Z TX19/0106Z", "TAF RKSO 311300Z 3113/0119 VRB06KT 4800 BR SCT015 QNH3022INS BECMG 3114/3115 VRB06KT 3200 BR SCT015 QNH3021INS BECMG 3116/3117 VRB06KT 1600 BR BKN010 QNH3019INS TEMPO 3118/3122 0800 FG VV001 BECMG 3123/3124 VRB06KT 4800 BR BKN015 QNH3021INS BECMG 0102/0103 28009KT 8000 HZ BKN020 QNH3017INS BECMG 0106/0107 31006KT 9999 NSW FEW020 QNH3014INS TX18/0106Z TN08/3121Z", "TAF RKSS 311700Z 3118/0124 32005KT 1100 BR NSC TN07/3121Z TX18/0106Z TN04/0121Z TEMPO 3119/3121 0600 FG BECMG 3121/3123 12005KT 2000 FEW012 BKN025 OVC080 BECMG 0100/0101 17005KT 4000 BECMG 0102/0104 32006KT 6000 NSW SCT035 BECMG 0116/0118 06005KT CAVOK", "TAF RKTN 311700Z 3118/0124 27006KT 9999 SCT030 SCT200 TN06/3121Z TX22/0106Z", "TAF RKTU 311700Z 3118/0124 06006KT CAVOK TX20/0106Z TN03/0121Z BECMG 3120/3121 33006KT 4800 BR NSC BECMG 3123/3124 CAVOK", "TAF ROAH 311709Z 3118/0200 04018KT 9999 -SHRA FEW008 BKN015 TEMPO 3120/0112 4000 SHRA FEW005 BKN008 BKN012 FEW020CB", "TAF RODN 311600Z 3116/0122 06012G18KT 8000 -RA SCT020 BKN040 QNH2980INS TEMPO 3116/3118 4800 RA SCT007 BKN015 BECMG 3118/3119 06015G20KT 6000 RA BKN015 BKN025 QNH2983INS BECMG 0100/0101 05015G25KT 8000 -RA BKN015 QNH2978INS TEMPO 0105/0111 04020G30KT 3200 +RA SCT007 BKN009 510003 BECMG 0112/0113 05012G18KT 8000 -RA SCT015 BKN030 QNH2980INS BECMG 0115/0116 05010G15KT 9999 VCSH SCT030 BKN050 QNH2983INS TX24/0103Z TN21/3118Z", "TAF ROIG 311723Z 3118/0200 04026KT 9999 -SHRA FEW008 BKN015 TEMPO 3120/0103 04028G38KT 4000 SHRA FEW005 BKN008 BKN012 FEW020CB TEMPO 0103/0106 3000 +SHRA FEW005 BKN008 BKN012 SCT020CB TEMPO 0106/0109 04028G38KT 4000 SHRA FEW005 BKN008 BKN012 FEW020CB TEMPO 0109/0121 04028G38KT", "TAF ROTM 3115/0115 03010G16KT 8000 -SHRA SCT010 BKN015 OVC050 631409 622304 510503 QNH2976INS TEMPO 3115/3121 03010KT 3200 SHRA BKN007 BKN012 OVC040 BECMG 3120/3122 03012G20KT 8000 -SHRA BKN010 BKN015 OVC040 QNH2976INS TEMPO 0101/0107 03015G25KT 1600 SHRA BKN007 BKN012 OVC040 BECMG 0113/0115 03012KT 9000 -SHRA SCT020 BKN060 OVC120 631409 622304 510503 QNH2989INS T21/3118Z T24/0105Z", "TAF RPLB 311700Z 3118/0118 22012KT 9000 -RA SCT018 OVC070 TX28/0106Z TN25/3121Z TEMPO 3118/3124 21018KT 8000 SCT018 OVC070", "TAF RPLC 311700Z 3118/0124 18010KT 8000 SCT020 BKN100 TX29/0106Z TN24/3121Z TEMPO 3118/3124 14010KT 4000 -RA SCT018 OVC090", "TAF RPLI 311700Z 3118/0118 04005KT 9999 FEW018 BKN100 TEMPO 3118/3124 VRB02KT -SHRA BECMG 0104/0106 18009KT TEMPO 0106/0112 7000 -SHRA FEW017CB SCT018 BKN080", "TAF RPLL 311700Z 3118/0124 17005KT 9999 SCT023 BKN100 TX32/0106Z TN25/3118Z TEMPO 3118/3124 VRB03KT -SHRA TEMPO 0100/0106 VRB05KT TEMPO 0103/0109 25012KT VCTS SCT022CB BKN090", "TAF RPMD 311700Z 3118/0118 33004KT 9999 FEW016 SCT290 TEMPO 3118/3124 VRB02KT SCT016 BKN090 BECMG 0103/0105 17006KT FEW016 SCT100 BKN290 TEMPO 0106/0112 -SHRA SCT015CB BKN090", "TAF RPMR 311700Z 3118/0118 32004KT 9999 FEW018 SCT250 TEMPO 3118/3124 VRB02KT BECMG 0102/0104 14007KT TEMPO 0105/0111 -SHRA FEW017CB BKN080", "TAF RPMZ 311700Z 3118/0118 04005KT 9999 FEW017 SCT300 TEMPO 3118/3124 VRB02KT BECMG 0103/0105 25006KT TEMPO 0106/0112 FEW016CB BKN090", "TAF RPVD 311700Z 3118/0118 27005KT 9999 FEW015 SCT070 TEMPO 3118/3124 VRB02KT BECMG 0100/0102 14008KT TEMPO 0103/0109 -SHRA FEW014CB SCT015 BKN070", "TAF RPVM 311700Z 3118/0124 22005KT 9999 FEW020 SCT300 TEMPO 3118/3124 FEW020 BKN100 TEMPO 0100/0106 21010KT FEW018CB BKN300", "TAF RPVP 311700Z 3118/0118 27005KT 9999 FEW019 SCT080 BKN240 TEMPO 3118/3124 -SHRA FEW017CB SCT019 BKN080 BECMG 0100/0102 21008KT FEW019 BKN080", "TAF SAAR 311700Z 3118/0118 20015G25KT CAVOK TX23/0118Z TN07/0109Z BECMG 3122/0101 VRB03KT ", "TAF SABE 311700Z 3118/0118 20015G25KT CAVOK TX19/0118Z TN09/0109Z BECMG 3123/0102 20010KT BECMG 0111/0113 VRB03KT ", "TAF SACO 311700Z 3118/0118 16015KT 9999 FEW040 TX24/0118Z TN08/0110Z BECMG 0103/0106 27005KT CAVOK BECMG 0109/0112 32005KT CAVOK BECMG 0115/0118 05010KT CAVOK", "TAF SADF 311700Z 3118/0118 20015KT CAVOK TX20/0118Z TN08/0109Z TEMPO 3118/3124 18015G25KT 9999 SCT045 BECMG 0104/0106 34005KT 9999 BKN015 BECMG 0109/0111 16010KT CAVOK", "TAF SAEZ 311700Z 3118/0118 20010G20KT 9999 BKN050 TX22/0118Z TN07/0109Z BECMG 0100/0103 20005KT CAVOK", "TAF SAME 311700Z 3118/0118 05010KT CAVOK TX19/3120Z TN05/0110Z", "TAF SANR 311700Z 3118/0118 18005KT CAVOK TX25/0118Z TN08/0110Z BECMG 0103/0106 VRB03KT CAVOK", "TAF SANT 311700Z 3118/0118 20010KT 8000 NSC TX25/0118Z TN07/0110Z BECMG 0103/0106 VRB03KT 8000 NSC BECMG 0115/0118 05010KT 8000 NSC", "TAF SARE 311700Z 3118/0118 17020KT 9999 SCT040 TX24/0118Z TN06/0110Z BECMG 3121/3123 18010KT CAVOK PROB30 0108/0111 1500 BR NSC", "TAF SARF 311700Z 3118/0118 20020G30KT CAVOK TX25/0118Z TN08/0110Z BECMG 3122/3124 18010KT PROB30 0108/0111 1500 BR NSC", "TAF SARI 311700Z 3118/0118 18015KT 5000 DZ BKN005 OVC012 TX21/0118Z TN12/0110Z BECMG 3120/3122 9999 OVC010 PRO30 0108/0112 1500 BR BKN008 BECMG 0112/0114 CAVOK", "TAF SARP 311700Z 3118/0118 16015KT 9999 SCT010 BKN020 TX23/0118Z TN10/0110Z BECMG 0100/0102 18010KT CAVOK PROB30 0108/0111 1500 BR NSC", "TAF SASA 311700Z 3118/0118 09010KT 9999 BKN040 TX21/0118Z TN05/0110Z BECMG 0103/0106 27005KT SCT045 BECMG 0115/0118 09005KT CAVOK TAF SASJ 311700Z 3118/0118 18010KT 9999 SCT045 TX24/0118Z TN07/0110Z BECMG 0103/0106 20010KT 9999 SCT030 BECMG 0112/0115 16005KT 9999 FEW050", "TAF SASJ 311700Z 3118/0118 18010KT 9999 SCT045 TX24/0118Z TN07/0110Z BECMG 0103/0106 20010KT 9999 SCT030 BECMG 0112/0115 16005KT 9999 FEW050", "TAF SAVC 311700Z 3118/0118 VRB05KT CAVOK TX22/0119Z TN09/0109Z BECMG 3121/3123 27010KT BECMG 0111/0113 16010KT BECMG 0116/0118 05010KT 9999 SCT030", "TAF SAWE 311700Z 3118/0118 27020G30KT 9999 -RA BKN040 TX13/3118Z TN02/0109Z BECMG 3119/3121 6000 -RA BKN020 OVC040 TEMPO 3122/0102 3000 -RA SCT010 OVC025 BECMG 0103/0105 27015G25KT 9999 SCT015 BKN025 BECMG 0109/0112 9999 SCT030", "TAF SAWG 311700Z 3118/0118 28020G35KT CAVOK TX18/3118Z TN05/0109Z BECMG 3118/3120 28025G35KT 9999 SCT030 BECMG 3123/0101 25015G25KT 9999 SCT020 BKN040 BECMG 0112/0114 27020G30KT 9999 SCT025 SCT035", "TAF SAWH 311700Z 3118/0118 24020G30KT 9999 -DZ SCT030 BKN040 TX09/3118Z TN01/0109Z BECMG 3118/3120 24025G35KT 8000 -RA SCT020 BKN030 TEMPO 3121/3124 6000 RA BKN010 BKN030 BECMG 0101/0103 27015G25KT 8000 SCT009 BKN020 BECMG 0106/0109 29010KT 9999 SCT015", "TAF SAZM 311700Z 3118/0118 20017KT 9999 SCT035 SCT045 FEW050TCU TX16/0116Z TN00/0108Z TEMPO 3119/3120 5000 SHRA BKN035 FEW045TCU BECMG 3123/0101 20007KT 9999 SCT045 BECMG 0104/0105 27005KT CAVOK BECMG 0113/0115 11010KT ", "TAF SAZN 311700Z 3118/0118 VRB03KT CAVOK TX27/0118Z TN07/0110Z ", "TAF SAZS 311700Z 3118/0118 VRB03KT CAVOK TX22/0118Z TN04/0110Z ", "TAF SBAC 310805Z 3112/3124 06015KT 9999 FEW025 TX32/3116Z TN28/3121Z RMK PHI", "TAF SBAF 311359Z 3118/0106 16007KT 9999 FEW030 TX29/3119Z TN21/0105Z TEMPO 3119/3123 16014KT 6000 TSRA BKN015 FEW030CB BECMG 0101/0103 21006KT 8000 RA BKN017 RMK PFQ", "TAF SBAN 311410Z 3118/0106 27004KT 9999 SCT035 FEW040TCU TX28/3119Z TN19/0105Z TEMPO 3121/0101 30010KT 8000 TSRA BKN020 FEW040CB BECMG 0102/0104 32004KT 9999 BKN020 RMK PFQ", "TAF SBAR 311500Z 3118/0118 08010KT 9999 SCT020 TN24/0108Z TX30/0116Z BECMG 0103/0104 06005KT BECMG 0110/0112 09013KT SCT025 RMK PGU", "TAF SBAT 311500Z 3118/0106 30005KT 9999 SCT035 FEW040TCU TX34/3118Z TN24/0106Z PROB30 3118/3120 TS SCT035 FEW040CB RMK PHD", "TAF SBBE 311500Z 3118/0118 36005KT 9999 BKN035 FEW040TCU TX32/3118Z TN25/0107Z PROB30 3118/3121 TS BKN020 FEW025CB BECMG 3122/3124 05010KT FEW030 BECMG 0102/0104 08005KT CAVOK BECMG 0116/0118 35005KT BKN035 FEW040TCU RMK PHD", "TAF SBBG 311234Z 3118/0106 21012G23KT 9999 SCT010 BKN020 TX15/3119Z TN06/0105Z BECMG 3120/3122 16007KT CAVOK RMK PFQ", "TAF SBBI 311336Z 3118/0106 11015KT 4000 RA BKN006 TX21/3119Z TN12/0105Z BECMG 0100/0102 8000 BKN008 RMK PFQ", "TAF SBBR 311500Z 3118/0118 34006KT 8000 SCT030 TX29/3118Z TN19/0109Z TEMPO 3118/3120 VCTS SCT030 FEW050CB TEMPO 3121/3124 VRB05KT TSRA SCT045 FEW050CB BECMG 0101/0103 VRB04KT RA SCT040 BECMG 0109/0111 00000KT CAVOK BECMG 0113/0115 27007KT SCT030 FEW050TCU RMK PHG", "TAF SBBU 311630Z 3118/0106 35010KT 9999 SCT045 FEW050TCU TX26/3118Z TN18/0106Z TEMPO 3118/3124 19015KT 7000 TSRA BKN030 FEW040CB BECMG 0100/0101 17010KT TEMPO 0101/0106 15010G25KT 4000 TSRA BKN030 FEW040CB RMK PHH", "TAF SBBV 311500Z 3118/0118 12005KT 9999 SCT040 FEW045TCU TX33/3118Z TN24/0107Z BECMG 3123/0101 07005KT BECMG 0115/0117 12005KT RMK PHD", "TAF SBBW 311500Z 3118/0106 VRB07KT 8000 TSRA SCT020 FEW025CB TX32/3118Z TN22/0106Z BECMG 3121/3123 24005KT VCTS BKN015 FEW025CB RMK PHG", "TAF SBCB 311500Z 3118/0106 07015G25KT 9999 SCT015 BKN040 TX32/3118Z TN25/0106Z PROB40 3120/3122 24013KT 4000 TSRA BKN015 FEW030CB BECMG 3122/3124 20010KT 5000 RA BKN013 RMK PGU", "TAF SBCF 311500Z 3118/0118 35009KT 8000 SCT040 FEW045TCU TX28/3118Z TN20/0109Z TEMPO 3118/3120 TSRA BKN040 FEW045CB TEMPO 3120/3124 VRB07KT VCTS BKN040 FEW045CB BECMG 0101/0103 00000KT 8000 RA BKN015 PROB30 0107/0111 4000 RA BR BKN008 BECMG 0113/0115 35009KT SCT040 FEW045TCU BECMG 0115/0117 16005KT 8000 RA RMK PHG", "TAF SBCG 311500Z 3118/0118 33012KT 8000 SCT040 TX29/3118Z TN13/0109Z TEMPO 3118/3121 25014KT 4000 TSRA BR BKN006 SCT040 FEW045CB BECMG 0103/0105 19013KT RA BKN018 BECMG 0109/0111 NSW SCT040 RMK PHG", "TAF SBCJ 311500Z 3118/0106 06005KT 9999 FEW030 TX31/3118Z TN21/0106Z RMK PHD", "TAF SBCO 311225Z 3118/0106 18012G23KT 8000 BKN020 TX18/3119Z TN11/0105Z BECMG 3121/3123 21010KT 9999 BECMG 0103/0105 24006KT RMK PFQ", "TAF SBCP 311500Z 3118/0106 06015KT 9999 SCT020 TX30/3118Z TN25/0106Z PROB40 3122/3124 5000 TSRA BKN017 FEW025CB RMK PGU", "TAF SBCR 311500Z 3118/0118 24015KT 8000 SCT040 TX28/3118Z TN16/0109Z TEMPO 3118/3120 22019KT 4000 TSRA BR BKN006 SCT015 FEW035CB BECMG 3120/3122 21015KT BKN015 TEMPO 0100/0106 22015KT 4000 RA BR SCT006 BKN015 BECMG 0107/0109 CAVOK RMK PHG", "TAF SBCT 311300Z 3118/0118 11016KT 4000 RA BKN012 TX21/3119Z TN10/0108Z BECMG 3121/3122 8000 -RA BKN008 BECMG 0109/0111 15012KT BKN012 RMK PFQ", "TAF SBCY 311500Z 3118/0118 29010KT 9999 SCT025 FEW030TCU TX35/3118Z TN22/0107Z PROB30 3118/3120 25010KT TS SCT025 FEW030CB BECMG 3123/0101 20005KT SCT020 RMK PHD", "TAF SBCZ 311500Z 3118/0118 32005KT 9999 SCT030 TX32/3119Z TN23/0106Z BECMG 0109/0111 16005KT PROB30 0112/0114 16005KT TS SCT025 FEW035CB RMK PHD", "TAF SBDN 311630Z 3118/0106 35010KT 9999 SCT045 FEW050TCU TX28/3118Z TN18/0106Z TEMPO 3118/3124 27008KT 9000 TSRA BKN030 FEW040CB TEMPO 0100/0103 24010KT 6000 TSRA BKN030 FEW040CB TEMPO 0103/0106 24008G18KT 4000 TSRA FEW007 BKN011 FEW040CB RMK PHH", "TAF SBEG 311500Z 3118/0118 19005KT 9999 SCT025 FEW030TCU TX33/3118Z TN25/0108Z BECMG 3120/3122 32005KT BECMG 0103/0105 27005KT CAVOK BECMG 0116/0118 32005KT SCT025 FEW030TCU RMK PHD", "TAF SBFI 311310Z 3118/0118 18012G25KT 8000 BKN012 TX17/3119Z TN10/0109Z BECMG 0100/0102 20010KT SCT015 BECMG 0110/0112 18011G23KT CAVOK RMK PFQ", "TAF SBFL 311440Z 3118/0118 17014KT 9999 BKN025 TX22/3119Z TN16/0108Z TEMPO 3118/3124 18016G30KT BECMG 0100/0101 18015G25KT 8000 -RA BKN010 BECMG 0108/0110 20012KT 9999 NSW BKN017 RMK PFQ", "TAF SBFN 311500Z 3118/0106 16005KT 9999 SCT017 TX27/3118Z TN26/0106Z RMK PGU", "TAF SBFZ 311500Z 3118/0118 10015KT 9999 SCT025 TN25/0109Z TX31/0116Z BECMG 0107/0109 16008KT BECMG 0110/0112 10015KT RMK PGU", "TAF SBGL 311500Z 3118/0124 23015G25KT 4000 TSRA BKN015 FEW030CB TX34/3118Z TN23/0108Z BECMG 3121/3123 22010KT 4500 RA BKN012 BECMG 0103/0105 26007KT TEMPO 0108/0114 22017KT 3500 RA BR BKN007 RMK PGU", "TAF SBGO 311500Z 3118/0118 30008KT 9999 SCT040 FEW050TCU TX30/3118Z TN21/0109Z TEMPO 3118/3121 TSRA SCT040 FEW050CB TEMPO 3122/0102 VCTS SCT040 FEW050CB BECMG 0103/0105 VRB05KT RA SCT040 BECMG 0106/0108 00000KT CAVOK BECMG 0113/0115 27007KT SCT030 FEW050TCU RMK PHG", "TAF SBGR 311630Z 3118/0124 29015KT 9999 BKN035 FEW040TCU TX24/3118Z TN14/0108Z TEMPO 3118/3124 23012G23KT 5000 TSRA BR BKN015 FEW045CB BECMG 0100/0102 18011KT TEMPO 0102/0106 17007KT 8000 RA BKN011 TEMPO 0106/0112 17007KT 8000 RA BKN005 TEMPO 0112/0118 17015KT 6000 RA SCT007 BKN015 BECMG 0118/0119 12012KT TEMPO 0119/0124 4000 RA BKN007 BKN030 RMK PHH", "TAF SBGW 311403Z 3118/0106 33004KT 8000 SCT015 FEW025TCU TX29/3119Z TN20/0105Z TEMPO 3118/3122 4000 TSRA SCT013 FEW030CB BECMG 0100/0102 22007KT 4000 RA BR BKN012 RMK PFQ", "TAF SBIH 311500Z 3118/0106 07005KT 9999 SCT020 TX35/3118Z TN25/0106Z RMK PHD", "TAF SBIL 311500Z 3118/0106 06011KT 8000 SCT020 TX28/3118Z TN24/0106Z TEMPO 3118/3120 VCSH SCT020 FEW035TCU PROB30 0103/0106 7000 RA SCT008 BKN015 RMK PHG", "TAF SBIZ 311500Z 3118/0106 09005KT 9999 SCT030 TX36/3118Z TN26/0106Z RMK PHD", "TAF SBJE 310805Z 3112/3124 07015KT 9999 SCT020 TX37/3117Z TN31/3121Z RMK PHI", "TAF SBJP 311500Z 3118/0118 11015KT 9999 BKN025 TN22/0108Z TX29/0116Z BECMG 3121/3123 13005KT BECMG 0102/0104 19005KT PROB40 0105/0113 3500 RA BKN010 BECMG 0113/0115 11015KT RMK PGU", "TAF SBJV 311457Z 3118/0106 14009KT 5000 RA BKN015 TX25/3119Z TN17/0105Z BECMG 0101/0103 17006KT 8000 NSW SCT030 RMK PFQ", "TAF SBKG 311500Z 3118/0106 11015KT 9999 BKN030 TX29/3118Z TN21/0106Z BECMG 3122/3124 09005KT SCT015 RMK PGU", "TAF SBKP 311630Z 3118/0118 35010KT 9999 BKN040 FEW045TCU TX25/3118Z TN16/0109Z TEMPO 3118/3124 26013G23KT 6000 TSRA BKN030 FEW040CB BECMG 0100/0101 17010KT TEMPO 0101/0106 15010KT 8000 RA BKN020 BECMG 0106/0108 16015KT BKN030 PROB30 0117/0118 16013G24KT 8000 RA BKN020 RMK PHH", "TAF SBLO 311630Z 3118/0106 02005KT 9999 BKN010 FEW035TCU TX24/3118Z TN17/0106Z TEMPO 3118/3124 20006KT 8000 RA BKN015 BECMG 0100/0101 20015KT TEMPO 0101/0106 20010G20KT 4000 SHRA SCT005 BKN010 RMK PHH", "TAF SBMA 311500Z 3118/0106 07005KT 9999 SCT025 TX36/3118Z TN27/0106Z BECMG 3121/3123 34005KT FEW025 RMK PHD", "TAF SBME 311500Z 3118/0106 01012KT 9999 SCT020 TX34/3118Z TN25/0106Z PROB40 3121/3124 31010KT 4500 TSRA BKN015 FEW025CB RMK PGU", "TAF SBMN 311527Z 3118/0106 20005KT 9999 SCT020 FEW025TCU TX31/3119Z TN26/0105Z BECMG 3121/3123 08005KT FEW020 PROB40 TEMPO 0101/0104 VRB03KT TS SCT010 FEW025CB RMK PFQ", "TAF SBMO 311500Z 3118/0118 08010KT 9999 SCT023 TN21/0108Z TX30/0116Z BECMG 0101/0103 02005KT BECMG 0104/0106 32005KT BECMG 0109/0111 08010KT RMK PGU", "TAF SBMQ 311500Z 3118/0118 08005KT 9999 SCT030 TX34/3118Z TN26/0108Z BECMG 3122/3124 05005KT SCT023 BECMG 0104/0106 01005KT BECMG 0111/0113 07005KT SCT020 RMK PHD", "TAF SBNF 311452Z 3118/0118 18009KT 9999 BKN020 TX23/3119Z TN15/0105Z TEMPO 3120/3124 14014KT 5000 RA BKN015 BECMG 0101/0103 20006KT 9999 NSW BKN020 RMK PFQ", "TAF SBNT 311500Z 3118/0106 13017KT 9999 BKN020 TX30/3118Z TN22/0106Z BECMG 3121/3123 17005KT RMK PGU", "TAF SBOI 311500Z 3118/0106 07005KT 9999 SCT030 FEW035TCU TX32/3118Z TN27/3122Z RMK PHD", "TAF SBPA 311200Z 3118/0118 20015G25KT 8000 BKN020 TX18/3119Z TN10/0109Z BECMG 3120/3122 21010KT 9999 BECMG 0110/0112 18012G23KT RMK PFQ", "TAF SBPB 311500Z 3118/0106 13017G27KT 9999 FEW020 TX32/3118Z TN26/0106Z RMK PGU", "TAF SBPJ 311500Z 3118/0118 05005KT 9999 TS FEW030 FEW033CB TX35/3118Z TN25/0108Z TEMPO 3118/3121 4000 TSRA BKN020 FEW030CB BECMG 3121/3123 19005KT NSW FEW030 BECMG 0101/0103 13005KT TEMPO 0108/0113 4000 TSRA BKN020 FEW030CB RMK PGU", "TAF SBPK 311217Z 3118/0118 18013G27KT 8000 BKN020 TX15/3119Z TN08/0109Z BECMG 0100/0102 21012KT CAVOK BECMG 0108/0110 24006KT BECMG 0114/0116 18010G20KT RMK PFQ", "TAF SBPL 311500Z 3118/0118 15010KT 9999 SCT025 TN25/0108Z TX35/0118Z TEMPO 3121/0102 VRB03KT RMK PGU", "TAF AMD SBPP 311748Z 3118/0118 18018KT 2000 DZ BR BKN001 TX15/3118Z TN10/0108Z BECMG 3121/3123 8000 NSW BKN015 TEMPO 0100/0106 19011G26KT 8000 RA BKN010 BECMG 0106/0108 9999 BKN020 TEMPO 0108/0118 19011G26KT RMK PHH", "TAF SBPS 311500Z 3118/0118 06015KT 8000 BKN020 TN23/0108Z TX28/0116Z BECMG 3123/0101 04005KT BECMG 0106/0108 34005KT 7000 BKN017 BECMG 0111/0113 04007KT 4500 RA BKN015 RMK PGU", "TAF SBPV 311500Z 3118/0118 35005KT 9999 SCT030 FEW040TCU TX34/3118Z TN23/0107Z PROB30 0100/0103 TS SCT030 FEW035CB BECMG 0104/0106 18005KT SCT020 RMK PHD", "TAF SBRB 311500Z 3118/0106 33005KT 9999 SCT030 TX34/3118Z TN23/0106Z BECMG 3120/3122 28005KT SCT030 FEW040TCU BECMG 3123/0101 18005KT TS SCT020 FEW035CB RMK PHD", "TAF SBRF 311500Z 3118/0118 12008KT 9999 BKN023 TN26/0108Z TX29/0115Z BECMG 3122/3124 08005KT BKN020 PROB40 0106/0112 5000 RA BKN012 BECMG 0113/0115 12010KT RMK PGU", "TAF SBRJ 311500Z 3118/0106 24015G25KT 4000 TSRA BKN015 FEW030CB TX33/3118Z TN23/0106Z BECMG 3121/3123 21010KT 4500 RA BKN010 RMK PGU", "TAF SBRP 311500Z 3118/0106 32008KT 8000 SCT035 TX29/3118Z TN21/0106Z PROB30 TEMPO 3118/3120 22006KT TSRA SCT040 FEW045CB TEMPO 3121/3124 VCTS SCT010 SCT025 FEW030CB TEMPO 0100/0102 15006KT 8000 TSRA BKN020 FEW040CB RMK PHG", "TAF SBSC 311355Z 3118/0106 21009KT 9999 FEW030 TX28/3119Z TN22/0105Z TEMPO 3118/3124 18014KT 8000 TSRA BKN015 FEW030CB RMK PFQ", "TAF SBSG 311500Z 3118/0118 16015KT 9999 BKN025 TN22/0108Z TX31/0116Z BECMG 3120/3122 18005KT BECMG 0100/0102 23005KT BECMG 0109/0111 15015G25KT RMK PGU", "TAF SBSJ 311630Z 3118/0106 28010KT 9999 VCSH BKN040 FEW045TCU TX24/3118Z TN17/0106Z TEMPO 3118/3124 23012KT 7000 TSRA BKN035 FEW040CB BECMG 0100/0101 18011KT TEMPO 0101/0106 20007KT 6000 RA BKN020 RMK PHH", "TAF SBSL 311500Z 3118/0118 05013KT 9999 SCT025 TN27/0109Z TX34/0116Z BECMG 0110/0112 07015KT RMK PGU", "TAF SBSM 311230Z 3118/0106 18012KT 9999 SCT030 TX14/3119Z TN07/0105Z BECMG 0101/0103 14006KT CAVOK RMK PFQ", "TAF SBSN 311500Z 3118/0118 08010KT 9999 FEW020 TX33/3118Z TN24/0107Z BECMG 0100/0102 17005KT CAVOK BECMG 0108/0110 09010KT FEW020 RMK PHD", "TAF SBSP 311630Z 3118/0106 30015KT 9999 BKN035 FEW045TCU TX24/3118Z TN16/0106Z TEMPO 3118/3124 19013G25KT 6000 TSRA BKN030 FEW040CB BECMG 0100/0101 18011KT TEMPO 0101/0103 17007KT 8000 RA BKN011 TEMPO 0103/0106 17007KT 6000 RA BKN003 RMK PHH", "TAF SBSV 311500Z 3118/0118 07009KT 8000 SCT018 TN24/0109Z TX29/0116Z BECMG 0105/0107 VCSH SCT018 FEW023TCU BECMG 0111/0113 07014KT NSW SCT020 RMK PHG", "TAF SBTD 310830Z 3112/3124 34005KT 9999 BKN020 FEW040TCU TX23/3115Z TN14/3123Z TEMPO 3112/3118 23010KT 7000 TSRA BKN025 FEW045CB RMK PGL", "TAF SBTE 311500Z 3118/0106 11005KT 9999 SCT040 TX37/3118Z TN25/0106Z BECMG 3120/3122 31002KT RMK PGU", "TAF SBTF 311500Z 3118/0106 36005KT 9999 SCT020 FEW025TCU TX33/3118Z TN30/3122Z RMK PHD", "TAF SBTT 311500Z 3118/0118 36005KT 9999 SCT030 TX32/3119Z TN23/0111Z BECMG 0111/0113 07005KT SCT015 PROB30 0115/0118 29005KT TS SCT020 FEW030CB RMK PHD", "TAF SBUG 311245Z 3118/0106 18016G28KT CAVOK TX17/3119Z TN10/0105Z BECMG 0103/0104 14009KT RMK PFQ", "TAF SBUL 311500Z 3118/0106 33013KT 8000 SCT035 FEW040TCU TX28/3118Z TN22/0106Z TEMPO 3119/3124 27015KT TSRA SCT035 FEW040CB BECMG 0100/0102 VRB03KT FEW035 RMK PHG", "TAF SBUR 311500Z 3118/0106 30013KT 9999 SCT035 FEW040TCU TX29/3118Z TN20/0106Z TEMPO 3119/3124 29017KT TSRA SCT035 FEW040CB BECMG 0100/0102 VRB03KT VCSH SCT030 FEW035TCU RMK PHG", "TAF SBVH 311500Z 3118/0106 29010KT 9999 SCT025 FEW030TCU TX34/3118Z TN24/3123Z PROB30 3120/3123 25010KT TS SCT025 FEW030CB RMK PHD", "TAF SBVT 311500Z 3118/0118 03017KT 9999 SCT015 TN24/0108Z TX33/0115Z BECMG 3123/0101 01007KT BKN020 BECMG 0113/0115 05010KT 5000 RA BKN015 RMK PGU", "TAF SBYS 311343Z 3118/0106 33008KT 8000 BKN017 FEW030TCU TX28/3119Z TN20/0105Z TEMPO 3118/3124 4000 TSRA BKN012 FEW030CB BECMG 0101/0103 18012KT 8000 -RA BKN012 RMK PFQ", "TAF SCAR 311633Z 3118/0118 22012KT CAVOK TX20/3118Z TN13/0110Z BECMG 3123/0101 12004KT BECMG 0105/0107 BKN020 BECMG 0110/0112 CAVOK BECMG 0113/0115 22012KT", "TAF SCAT 311635Z 3118/0118 33013KT CAVOK TX21/3118Z TN12/0110Z BECMG 0100/0102 27004KT BECMG 0103/0105 OVC010 BECMG 0110/0112 CAVOK BECMG 0113/0115 33014KT", "TAF SCBA 311613Z 3118/0118 29018KT CAVOK TX15/3118Z TN01/0109Z TEMPO 3119/3122 30022G32KT", "TAF SCCF 311634Z 3118/0118 27020KT CAVOK TX22/3118Z TN00/0110Z BECMG 3123/0101 22010KT BECMG 0103/0105 11017KT BECMG 0113/0114 10004KT BECMG 0115/0117 27020KT", "TAF SCCI 311632Z 3118/0118 29026G37KT 9000 SCT030 BKN045 TN04/0109Z TX12/0118Z TEMPO 3121/0107 6000 -RA SCT010 BKN020 BECMG 3122/0100 27018G28KT PROB30 TEMPO 0101/0105 28034G47KT BECMG 0108/0110 24025G35KT 9999 SCT038", "TAF SCCY 311029Z 3112/3124 VRB02KT CAVOK TN05/3112Z TX16/3119Z BECMG 3114/3116 28007KT BECMG 3122/3124 VEB02KT", "TAF SCDA 311634Z 3118/0118 22015KT CAVOK TX19/3118Z TN13/0110Z BECMG 0101/0103 16004KT BECMG 0113/0115 22015KT", "TAF AMD SCEL 311822Z 3119/0118 16009KT CAVOK TX29/3119Z TN09/0110Z BECMG 3121/3123 22016KT BECMG 0102/0104 16005KT BECMG 0108/0110 VRB02KT BECMG 0114/0116 22004KT", "TAF SCFA 311635Z 3118/0118 20012KT 9999 FEW018 TX17/3118Z TN13/0106Z BECMG 0101/0103 21004KT BECMG 0105/0107 36004KT BKN020 BECMG 0113/0115 20011KT FEW025", "TAF SCIE 311623Z 3118/0118 17020KT CAVOK TX24/3119Z TN11/0110Z BECMG 0108/0110 14012KT BECMG 0114/0116 17006KT", "TAF AMD SCIP 311829Z 3119/0118 10010KT 9999 SCT025 TX23/3120Z TN16/0110Z TEMPO 3118/3121 7000 -SHRA SCT015 BKN030 TEMPO 0108/0112 04004KT 7000 -SHRA SCT015 BKN025", "TAF SCJO 311025Z 3112/3124 19004KT 9999 BKN012 TN08/3112Z TX18/3119Z BECMG 3113/3115 18010KT FEW025 BECMG 3116/3118 CAVOK", "TAF SCNT 311635Z 3118/0106 29025G35KT 9999 SCT038 TN05/0106Z TX13/3118Z TEMPO 3123/0103 28035G45KT TEMPO 0102/0106 6000 -RA SCT010 BKN020 BECMG 0104/0106 28012KT", "TAF SCQP 311611Z 3118/0118 18010KT CAVOK TX21/3119Z TN06/0109Z BECMG 0102/0104 VRB03KT TEMPO 0108/0113 BKN015 BECMG 0113/0115 18010KT", "TAF SCSE 311622Z 3118/0118 30012KT CAVOK TX18/3119Z TN11/0110Z BECMG 0102/0104 06007KT BECMG 0106/0108 VRB02KT BECMG 0111/0113 32006KT 7000 BKN008", "TAF SCTE 311612Z 3118/0118 17015KT CAVOK TX14/3119Z TN03/0107Z BECMG 0101/0103 19004KT TEMPO 0107/0115 BKN015 BECMG 0112/0114 17015KT", "TAF SCVM 311623Z 3118/0118 33014KT CAVOK TX22/3119Z TN09/0110Z TEMPO 3119/3123 22016KT BECMG 0102/0104 04006KT BECMG 0108/0110 VRB02KT BECMG 0112/0114 33009KT", "TAF COR SEGU 311630Z 3118/0118 15008KT 9999 BKN026 BECMG 3117/3119 16006KT BECMG 0102/0104 22012KT FEW010 BKN026 BECMG 0110/0112 21005KT SCT023 SCT100 TX29/3120Z TN20/0110Z", "TAF COR SELT 311900Z 3118/0118 19015KT 9999 SCT030 SCT300 BECMG 0100/0102 34006KT SCT030 BECMG 0106/0108 FEW010 BKN020 BECMG 0112/0114 36005KT FEW030 TX19/3119Z TN03/0111Z", "TAF COR SEMT 311630Z 3118/0118 27010KT 9999 SCT023 BECMG 0102/0104 21007KT BKN020 BECMG 0110/0112 OVC020 TX25/3120Z TN20/0110Z", "SEQM 311630Z 3118/0118 36010KT 9999 SCT030 BECMG 3123/0101 02006KT FEW005 SCT030 BECMG 0103/0105 VRB03KT SCT005 BKN020 BECMG 0112/0114 03005KT SCT030 SCT100 TX23/3119Z TN08/0111Z", "TAF SGAS 311642Z 3118/0118 21020KT 9999 OVC013 TX17/3119Z TN08/0110Z BECMG 3119/3121 9999 BKN020 BECMG 0100/0103 18012KT CAVOK", "TAF SGCO 311642Z 3118/0118 18010G20KT 5000 DZ OVC005 TX19/3119Z TN10/0110Z BECMG 3119/3122 9999 -DZ OVC012 BECMG 0100/0103 18012KT 9999 BKN020 BECMG 0104/0107 CAVOK ", "TAF SGEN 311642Z 3118/0118 18014KT 9999 SCT020 OVC040 TX16/3118Z TN09/0110Z BECMG 3119/3122 9999 BKN027 3123/0102 CAVOK", "TAF SGES 311642Z 3118/0118 21020KT 9999 OVC008 TX19/3113Z TN09/0110Z TEMPO 3119/3122 9999 -DZ OVC015 BECMG 3123/0102 9999 BKN020 BECMG 0103/0109 21012KT CAVOK", "TAF SKAR 311630Z 3118/0118 30004KT 9999 SCT017 TEMPO 3120/3123 SCT017TCU TX28/3120Z TN18/0110Z", "TAF SKBG 311630Z 3118/0118 15003KT 9999 FEW017 BECMG 3119/3121 33006KT TEMPO 3121/0101 DZ SCT017TCU BECMG 0102/0104 VRB02KT TEMPO 0109/0113 5000 BCFG SCT006 TX26/3119Z TN17/0110Z", "TAF SKBO 311630Z 3118/0118 34003KT 9999 FEW020 TEMPO 3121/0101 DZ SCT017TCU BECMG 0102/0104 VRB02KT TX20/3119Z TN08/0110Z", "TAF SKBQ 311630Z 3118/0118 18006KT 9999 FEW015 TEMPO 3120/3123 RA FEW015TCU TX32/3118Z TN23/0109Z", "TAF SKCC 311630Z 3118/0118 VRB03KT 9999 FEW023 BECMG 3119/3121 33010KT TEMPO 3122/0102 RA SCT017TCU TEMPO 0109/0113 5000 BCFG SCT010 TX32/3118Z TN23/0110Z", "TAF SKCG 311630Z 3118/0118 18009KT 9999 SCT017 BECMG 3119/3121 29010KT SCT018 BECMG 0102/0104 VRB02KT FEW015 TX32/3119Z TN25/0110Z", "TAF SKCL 311630Z 3118/0118 VRB04KT 9999 SCT025 TEMPO 3121/0101 34012KT SCT020TCU TX31/3120Z TN19/0110Z", "TAF SKLT 311600Z 3118/0118 36004KT 9999 BKN017 BECMG 3119/3121 25006KT TEMPO 3122/0102 DZ SCT017 BECMG 0103/0105 VRB02KT CAVOK TX32/3118Z TN22/0110Z", "TAF SKPE 311630Z 3118/0118 27006KT 9999 SCT020 TEMPO 3120/3124 SCT017TCU TX28/3120Z TN18/0110Z", "TAF SKRG 311630Z 3118/0118 14010KT 9999 SCT020 TEMPO 3120/3123 SCT020TCU BECMG 0100/0102 VRB02KT TEMPO 0102/0106 DZ BKN010 TEMPO 0108/0112 4000 BCFG BKN006 BECMG 0113/0115 13010KT TX23/3119Z TN13/0110Z", "TAF SKSM 311030Z 3112/0112 18010KT 9999 FEW020 PROB30 TEMPO 3118/3120 FEW015CB TX33/3118Z TN29/0111Z", "TAF SKSP 311630Z 3118/0118 VRB02KT 9999 FEW014 TEMPO 3121/0101 RA SCT015TCU BKN080 TX32/3119Z TN25/0109Z", "TAF SLAL 311600Z 3118/0118 02018KT 9999 SCT020 FEW030CB SCT070 TX19/3119Z TN08/0111Z BECMG 0102/0104 00000KT SCT017 BKN070 TEMPO 0109/0111 SCT010 BECMG 0114/0116 01015KT FEW020", "TAF COR SLCB 311600Z 3118/0118 04010KT 9999 FEW033 TX31/3119Z TN10/0111Z TEMPO 3119/3121 34012G24KT 8000 SHRA SCT033 FEW036CB SCT070 BECMG 3123/0102 13010KT BECMG 0103/0105 00000KT SCT030 BKN070", "TAF SLCO 311600Z 3118/0118 24010KT 6000 SHRA BKN020 SCT023CB BKN070 TX34/3119Z TN16/0110Z TEMPO 3120/0100 15010G20KT 2000 TSRA BECMG 0101/0103 5000 RA BKN010 OVC070 BECMG 0110/0114 15008KT 9999 NSW BKN013 BKN070", "TAF COR SLET 311600Z 3118/0118 17025G40KT 5000 RA BKN020 OVC070 TX18/3120Z TN13/0110Z BECMG 3121/0100 9999 NSW BKN020 BKN070 BECMG 0115/0118 16012G25KT SCT025 BKN080", "TAF COR SLLP 311600Z 3118/0118 32010KT 9999 SCT017 TX19/3119Z TN00/0110Z BECMG 0101/0103 03005KT 3000E BCFG SCT005 BECMG 0112/0114 9999 NSW 12010KT", "TAF COR SLTJ 311600Z 3118/0118 13010KT 9999 SCT027 BKN070 TX10/3119Z TN03/0111Z BECMG 0102/0104 00000KT SCT020 BECMG 0115/0117 15010KT NSC", "TAF COR SLTR 311600Z 3118/0118 16015G25KT 5000 TSRA BKN010 FEW017CB BKN070 TX29/3114Z TN15/0110Z BECMG 3120/3123 7000 RA BKN013 OVC070 BECMG 0104/0107 18015KT 9999 NSW BECMG 0112/0115 15010KT SCT020 BKN080", "TAF COR SLVR 311600Z 3118/0118 17025G40KT 5000 RA BKN020 OVC070 TX18/3120Z TN13/0110Z BECMG 3121/0100 9999 NSW BKN020 BKN070 BECMG 0115/0118 18012G25KT SCT025 BKN080", "TAF SMJP 311600Z 3118/0118 05007KT 9999 SCT025 TX33/017Z TN23/0109Z TEMPO 3118/3122 4000 SHRA FEW015CB SCT020 TEMPO 3118/3120 TS BECMG 0108/0110 00000KT 0800 FG BKN001", "TAF SMZO 311600Z 3118/0118 05007KT 9999 SCT025 TX33/017Z TN24/0109Z TEMPO 3118/3121 5000 SHRA FEW015CB SCT020 TEMPO 3118/3120 TS PROB30 TEMPO 0108/0110 VRB01KT 00000KT 3000 BR SCT003", "TAF SOCA 311600Z 3118/0118 07010KT 9999 FEW020 SCT030 PROB30 TEMPO 3118/3121 3000 SHRA SCT015 BKN020CB BECMG 3120/3122 VRB02KT", "TAF SPCL 311700Z 3118/0118 01005KT 9999 BKN020 TX35/3120Z TN23/0111Z TEMPO 3122/0101 36015KT 2000 SHRA BKN010 FEW025CB TEMPO 0110/0112 2000 BCFG BKN005", "SPEO 311700Z 3118/0118 20011KT 9999 BKN015 TX21/3119Z TN13/0111Z FM312000 20016KT 9999 BKN020 FM010400 16010KT 9999 BKN020 FM011000 19008KT 9999 OVC013 BECMG 0114/0116 BKN020", "TAF SPGM 311700Z 3118/0118 04003KT 9999 FEW035 TX31/3120Z TN22/0111Z BECMG 3122/3124 00000KT FM011100 00000KT 3000 RA BKN015 OVC060 BECMG 0115/0118 9999 NSW FEW025 BKN110", "SPHI 311700Z 3118/0118 19012KT CAVOK TX22/3119Z TN15/0111Z FM312000 19016KT CAVOK FM010300 18010KT CAVOK BECMG 0108/0110 BKN012 BECMG 0115/0116 CAVOK", "TAF SPHO 311700Z 3118/0118 17005KT 9999 FEW040 TX28/3119Z TN11/0111Z TEMPO 3119/3123 15015KT", "TAF SPHY 311700Z 3118/0118 17005KT 9999 FEW020 TX21/3119Z TN01/0111Z", "TAF SPJC 311710Z 3118/0118 24008KT 9999 BKN017 TX19/3119Z TN15/0111Z TEMPO 3119/3120 FEW014 SCT018 BECMG 3122/0102 18010KT BKN014 FM011000 27004KT 6000 OVC011 BECMG 0116/0118 BKN018", "TAF SPJI 301700Z 3018/0118 12005KT 9999 SCT020 TX35/3120Z TN22/0111Z TEMPO 0100/0103 4000 SHRA BKN010 FEW025TCU TEMPO 0110/0113 4000 BCFG BKN010", "TAF SPJL 311700Z 3118/0118 05008KT CAVOK TX22/3118Z TN04/0110Z BECMG 3119/3121 11012KT TEMPO 3121/3123 07015G25KT BECMG 0100/0102 20005KT", "TAF SPJR 311700Z 3118/0118 18010KT CAVOK TX25/3119Z TN05/0111Z TEMPO 3118/3120 VRB03KT BECMG 0102/0104 VRB02KT BECMG 0109/0112 00000KT BECMG 0115/0118 18012KT", "TAF SPLO 311700Z 3118/0118 21010KT CAVOK TX21/3119Z TN16/0111Z FM312100 15007KT 9999 BKN030 FM011500 21010KT CAVOK", "TAF SPME 311700Z 3118/0118 31006KT 9999 SCT020 TX26/3118Z TN19/0111Z FM312200 27006KT 9999 BKN020 TEMPO 0102/0105 BKN014 FM011000 34006KT 9999 BKN015", "TAF SPMS 311700Z 3118/0118 36005KT 9999 SCT020 TX35/3120Z TN23/0111Z TEMPO 3122/0102 34015KT 2000 SHRA BKN010 FEW025CB BKN080 TEMPO 0110/0113 2000 BCFG BKN005", "TAF SPNC 311700Z 3118/0118 06016KT 9999 FEW040 TX29/3119Z TN16/0111Z BECMG 0100/0102 VRB02KT FM011100 10004KT 4000 RA SCT015 OVC070 BECMG 0115/0118 06014KT 8000 NSW SCT030 OVC110", "TAF SPPY 311700Z 3118/0118 36007KT 9999 SCT025 TX25/3120Z TN09/0111Z TEMPO 0110/0114 4000 BCFG SCT010", "TAF SPQT 311700Z 3118/0118 02005KT 9999 BKN020 TX34/3119Z TN23/0111Z TEMPO 3119/3123 01015KT 3000 SHRA BKN012 FEW025TCU TEMPO 0108/0112 2000 BCFG BKN003", "TAF SPQU 311700Z 3118/0118 25011KT CAVOK TX20/3118Z TN06/0110Z BECMG 3122/3124 06005KT BECMG 0115/0117 25010KT", "SPRU 311700Z 3118/0118 18010KT 9000 BKN020 TX19/3119Z TN14/0111Z TEMPO 0102/0105 OVC010 FM010630 16007KT 7000 OVC010 BECMG 0113/0115 BKN015", "TAF SPSO 311710Z 3118/0118 28010KT 9999 SCT020 TX19/3119Z TN14/0111Z FM010400 05005KT 6000 OVC010 TEMPO 0109/0112 4500 BR FU BECMG 0117/0118 24010KT CAVOK", "TAF SPST 311700Z 3118/0118 30010KT 9999 SCT020 TX35/3120Z TN23/0111Z BECMG 3123/0101 00000KT TEMPO 0111/0113 2500 BR SCT005 BKN020 BECMG 0115/0118 35010KT BKN015 SCT020TCU", "TAF SPTN 311700Z 3118/0118 19010KT CAVOK TX22/3119Z TN12/0111Z FM010100 VRB03KT 9999 OVC020 FM011330 25008KT 9999 FEW035 FM011500 19010KT CAVOK", "TAF SPTU 311700Z 3118/0118 35007KT 9999 SCT020 BKN100 TX32/3120Z TN23/0111Z TEMPO 3121/0101 4000 TSRA FEW015CB BKN080", "SPYL 311700Z 3118/0118 19014KT CAVOK TX24/3118Z TN14/0111Z BECMG 0106/0109 13014KT BECMG 0114/0116 19016KT", "TAF SPZO 311700Z 3118/0118 21013KT 9999 FEW040 TX24/3119Z TN06/0111Z BECMG 0100/0102 11005KT", "TAF SUAA 311740Z 3118/0118 19015KT 9999 BKN025 TX17/0116Z TN06/0109Z TEMPO 3118/0104 18015G25KT 8000 SHRA BKN020 FEW030TCU PROB30 TEMPO 3118/0102 GS PROB40 TEMPO 0106/0109 20005KT 3000 BR SCT013", "TAF SUCA 311740Z 3118/0118 20015KT 9999 SCT020 TX16/0116Z TN07/0109Z PROB40 TEMPO 3118/0104 18015G25KT 8000 SHRA BKN020 FEW030TCU PROB30 TEMPO 0106/0109 19005KT 3000 BR FEW015", "TAF SUDU 311740Z 3118/0118 18015KT 9999 BKN025 TX18/0116Z TN05/0109Z PROB40 TEMPO 3118/0102 18015G25KT 8000 SHRA BKN020 FEW030TCU BECMG 0101/0103 15003KT TEMPO 0104/0109 2000 BR SCT015", "TAF SULS 311740Z 3118/0118 20015KT 9999 SCT025 BKN030 TX16/0116Z TN06/0109Z TEMPO 3118/0106 19015G25KT 7000 SHRA BKN020 FEW030TCU PROB40 TEMPO 3118/0102 GS TEMPO 0106/0109 17008KT 2500 BR SCT010", "TAF SUMU 311740Z 3118/0118 19015KT 9999 BKN025 FEW030TCU TX16/0116Z TN07/0109Z TEMPO 3118/0104 18015G25KT 8000 SHRA BKN020 PROB30 TEMPO 3118/0102 GS", "TAF SURV 311740Z 3118/0118 15015KT 9999 SCT020 TX17/0116Z TN04/0109Z TEMPO 3118/3124 18015G25KT 8000 SHRA BKN020 PROB30 TEMPO 3118/3122 GS FEW030TCU BECMG 0101/0103 18005KT TEMPO 0104/0109 1500 BR FEW010", "TAF SUSO 311740Z 3118/0118 22015KT 9999 BKN020 TX19/0116Z TN04/0109Z BECMG 0101/0103 15005KT PROB40 TEMPO 0105/0109 09003KT 2000 BR FEW010", "TAF SVBC 311600Z 3118/0118 05005KT 9000 DZ BKN010 TX33/3018Z TN22/0107Z TEMPO 3019/3023 07003KT 9999 BKN070", "TAF SVJC 311600Z 3118/0118 09012KT 9000 DZ BKN013 CB TX31/3019Z TN23/0108Z TEMPO 3118/0102 07008KT 9000 DZ BKN013", "TAF SVMC 311600Z 3118/0118 16006KT 9000 DZ BKN013 TX34/3019Z TN22/0108Z TEMPO 3019/3023 16003KT 9999 BKN013", "TAF SVMG 311600Z 3118/0118 07012KT 9000 DZ BKN016 TX32/3018Z TN25/0108Z BECMG 3119/0102 07007KT 9999 SCT010 SCT080", "TAF SVMI 311600Z 3118/0118 07006KT 9999 BKN016 TX32/3018Z TN21/0107Z BECMG 3118/0103 07003KT SCT016", "TAF SVPR 311600Z 3118/0118 06006KT 9000 DZ BKN013 TX31/3019Z TN23/0108Z TEMPO 3019/3023 06006KT 9999 BKN013", "TAF SVSA 311600Z 3118/0118 14005KT 9000 DZ SCT013 SCT080 TX33/3019Z TN22/0108Z BECMG 3122/0102 16003KT 9999 BKN090", "TAF SVVA 311000Z 3112/0112 25005KT 9999 SCT016 BKN080 TX32/3119 TN23/0109 BECMG 3118/3122 VRB05KT 9000 DZ BKN020 FM 312230 07005KT 9999 SCT020 BKN100", "TAF SYCJ 311100Z 3112/0112 09008KT 9999 SCT018 SCT040 BKN090 BECMG 0100/0102 VRB04KT 9999 SCT015 BKN040 TEMPO 0106/0112 7000 SHRA", "TAF SYEB 311100Z 3112/3123 13006KT 8000 VCSH SHRA SCT018 BKN038 BKN090", "TAF SYEC 311700Z 3118/0118 08008KT 9999 SCT016BKN090 BECMG 0100/0103 06006KT 9999 BKN017 BKN100 TEMPO 0106/0112 5000 SHRA", "TAF SYKA 311100Z 3112/3123 08010KT 9999 VCSH BKN017 BKN040", "TAF SYKM 311100Z 3112/3123 08008KT 9999 VCSH BKN018 BKN100 BECMG 3120/3123 5000 TSRA SCT016CB BKN034", "TAF SYLT 311100Z 3112/3123 05008KT 9999 VCSH BKN017 BKN038", "TAF SYMB 311100Z 3112/3123 13006KT 7000 SHRA FEW015CB BKN034 BKN090 BECMG 3116/3118 9999 BKN018 BKN040", "TAF TAPA 311700Z 3118/0118 10009KT 9999 SCT019 PROB40 TEMPO 3122/0106 SHRA", "TAF TBPB 311100Z 3112/0112 10015KT 9999 SCT018", "TAF TDPD 311100Z 3112/0112 12010KT 9999 SCT020", "TGPY 311623Z 3118/0118 10017KT 9999 SCT018 BECMG 3122/3124 08014KT FEW018 BECMG 0110/0112 09016KT FEW019", "TIST 311727Z 3118/0118 12012KT P6SM VCSH FEW025 SCT050 FM312200 09006KT P6SM SCT030 SCT060 SCT100 FM011400 10012KT P6SM FEW025 SCT050", "TISX 311727Z 3118/0118 10012KT P6SM FEW030 SCT050 FM312130 06005KT P6SM VCSH SCT025 SCT045 BKN080 FM011400 09012KT P6SM FEW030 SCT050", "TJBQ 311907Z 3119/0118 08011KT P6SM VCTS SCT020CB SCT050 BKN090 TEMPO 3119/3121 VRB10KT 2SM TSRA BKN025CB FM312130 12006KT P6SM VCSH SCT020 BKN050 OVC090 FM011400 08014KT P6SM SCT025 FM011700 08014KT P6SM VCSH SCT025 SCT040 AMD NOT SKED 0102/0111", "TJPS 311727Z 3118/0118 14010KT P6SM VCSH FEW018 SCT030 BKN060 FM312200 10006KT P6SM VCSH SCT030 SCT080 BKN100 FM011400 13015KT P6SM FEW030 SCT060 AMD NOT SKED", "TJSJ 311727Z 3118/0118 08013KT P6SM VCTS SCT030CB SCT050 BKN100 FM312100 10006KT P6SM VCSH FEW030 SCT050 SCT100 FM011400 06015KT P6SM FEW035 SCT050", "TAF TKPK 311700Z 3118/0118 09010KT 9999 SCT019 PROB40 TEMPO 3122/0106 SHRA", "TAF TKPN 311700Z 3118/0118 09010KT 9999 SCT019 PROB40 TEMPO 3122/0106 SHRA", "TAF TLPC 311700Z 3118/0118 10014KT 9999 SCT026", "TAF TLPL 311700Z 3118/0118 10020KT 9999 SCT026", "TAF TNCA 311715Z 3118/0118 09015KT 9999 SCT018 PROB30 TEMPO 3118/0118 5000 SHRA BKN015", "TAF TNCB 311723Z 3118/0124 09012KT 9999 FEW018 PROB40 TEMPO 3118/3122 11015G25KT 2500 SHRA TSRA BKN014 SCT018CB PROB30 TEMPO 0102/0120 11015G25KT 2500 SHRA TSRA BKN014 SCT018CB", "TAF TNCC 311715Z 3118/0118 13010KT 9999 SCT018 TEMPO 3118/3124 5000 SHRA BKN015", "TNCM 311600Z 3118/0118 10009KT 9999 SCT018 ", "TAF TQPF 311700Z 3118/0118 09009KT 9999 SCT019 PROB30 TEMPO 3122/0106 SHRA", "TAF TRPG 311700Z 3118/0118 10012KT 9999 SCT019 PROB40 TEMPO 3122/0106 SHRA", "TAF TTCP 311600Z 3118/0118 10015KT 9999 SCT020 BECMG 3123/0101 09005KT FEW016 SCT038 PROB40 TEMPO 0100/0114 4000 SHRA FEW010CB BKN014", "TAF TTPP 311600Z 3118/0118 10015KT 9999 SCT020 PROB40 TEMPO 3118/3121 10015G256KT 5000 SHRA FEW010CB BKN015 BECMG 3123/0101 09005KT FEW016 SCT038 TEMPO 0100/0114 4000 SHRA FEW010CB BKN014", "TAF TUPJ 311700Z 3118/0118 09009KT 9999 SCT019 PROB30 TEMPO 3122/0106 SHRA", "TAF TVSA 311100Z 3112/0112 08012KT 9999 SCT018", "TAF TXKF 311731Z 3118/0118 34016KT 9999 VCSH FEW020 SCT040 ", "TAF UAAA 311700Z 3118/0118 22003MPS 1000 BR BKN011 BKN100 TX14/0109Z TN01/0101Z TEMPO 3118/3120 17003MPS 0300 FG VV002 TEMPO 3120/0104 VRB01MPS 0200 FG VV001 FM010500 02003MPS 9999 SCT050CB BKN100 TEMPO 0105/0112 07003G08MPS TEMPO 0112/0118 1500 BR FU", "TAF UAAH 311100Z 3112/3121 20003MPS 9999 BKN020CB BKN100", "TAF UAAT 311100Z 3112/3121 22003G08MPS 9999 SCT011 BKN050CB BKN100 TEMPO 3112/3115 26003G08MPS 5000 BR SCT007", "TAF UACC 311702Z 3118/0118 19005MPS 9999 BKN011 BKN050 TX07/0109Z TNM03/3121Z TEMPO 3118/0103 17004MPS 3100 -FZRA -SHSN BR BKN005 BKN020CB BECMG 0103/0105 18006MPS TEMPO 0103/0112 17007G12MPS BECMG 0112/0114 15006MPS", "TAF UACK 311401Z 3115/3124 17006MPS 9999 SCT040 BKN100 TEMPO 3115/3124 20008MPS 3100 -SNRA BKN007 BKN015", "TAF UADD 311700Z 3118/0103 20003MPS 3100 BR SCT050 BKN100 TEMPO 3121/0103 0500 FG VV002", "TAF UAII 311701Z 3118/0118 08003G08MPS 6000 SCT011 BKN033CB TX19/0110Z TN05/0101Z TEMPO 3118/0103 13005MPS 1200 BR SCT003 TEMPO 0103/0115 13003G08MPS", "TAF UAIT 311704Z 3118/0103 06003G08MPS 9999 SCT050 TEMPO 3118/3124 09005G10MPS 3100 BR FU SCT011", "TAF UAKD 311401Z 3115/3124 18005MPS 5000 BR SCT011 OVC020 TEMPO 3115/3118 21008MPS 3100 -SHRA BR SCT005 BKN011CB TEMPO 3118/3124 18008MPS 1500 SCT004", "TAF UAKK 311704Z 3118/0118 18003MPS 3100 -RASN BR BKN011 BKN020 TX03/0109Z TNM01/0102Z TEMPO 3118/0104 0300 FZFG VV002 FM010400 16005MPS 9999 BKN020 BKN040 TEMPO 0106/0112 15008MPS", "TAF COR UAOO 311700Z 3118/0103 VRB01MPS CAVOK", "TAF UARR 311701Z 3118/0103 35005G10MPS 3100 -SHRA BR BKN011 BKN020CB TEMPO 3118/3121 31005MPS TEMPO 3121/0103 2000 -SHRASN BR BKN004 BKN020CB", "TAF UASK 311703Z 3118/0103 33003MPS 9999 BKN021CB OVC050 TEMPO 3118/3124 29003MPS 3100 -SHRASN BR FEW004 BKN017CB TEMPO 0100/0103 VRB01MPS 0200 FZFG VV002", "TAF UASP 311700Z 3118/0103 17003MPS 3100 BR FU BKN011 TEMPO 3118/0102 22003MPS 0500 FZFG VV001", "TAF UASS 311102Z 3112/3121 27006G11MPS 9999 BKN020CB BKN100 TEMPO 3112/3115 30005MPS 3100 -SHRASN BKN007 BKN011CB", "TAF UATE 311700Z 3118/0118 VRB03MPS 3100 BR BKN011 BKN033CB TX08/0109Z TN09/0102Z TEMPO 3118/3123 0200 FG BKN002 BECMG 3123/0101 30010G16MPS 9999 NSW TEMPO 3123/0109 32015G21MPS 3100 -SHRA BKN007 BKN015CB TEMPO 0114/0118 28010G16MPS 3100 -SHRA BKN007 BKN015CB", "TAF UATG 311702Z 3118/0118 22011MPS 3100 BR BKN011 BKN020CB TX04/0110Z TN01/0103Z TEMPO 3118/3124 2000 SHRA BKN005 BKN020CB BECMG 0100/0101 29011G16MPS TEMPO 0100/0104 -SHRA BKN005 BKN020CB BECMG 0105/0106 6000 NSW TEMPO 0108/0115 26011G16MPS", "TAF UATT 311704Z 3118/0118 18007MPS 3100 -SHRA BR BKN007 BKN020CB TX10/0110Z TN07/0112Z TEMPO 3118/0103 20012MPS BECMG 0103/0105 25013MPS TEMPO 0108/0112 2000 SHRA BR BKN005 BKN015CB", "TAF UAUU 311701Z 3118/0103 15008G13MPS 6000 BKN004 OVC015 TEMPO 3118/0103 0300 -RA FG VV002", "TAF UBBB 311701Z 3118/0118 26006KT CAVOK TX18/0110Z TN11/0102Z TEMPO 3120/3124 VRB04KT 4000 BR BCFG SCT007 BECMG 0100/0102 33022G32KT FEW030CB SCT030 TEMPO 0102/0112 36026G36KT -SHRA SCT020CB BKN020", "TAF UBBF 311400Z 3115/3124 08006KT 9999 SCT040 BKN100 TEMPO 3115/3124 VRB04KT SCT012", "TAF UBBG 311652Z 3118/0118 28014KT 9999 FEW040 SCT100 TX18/0112Z TN10/0102Z TEMPO 3120/0103 31020G30KT PROB40 TEMPO 0104/0109 -SHRA SCT030CB BKN060", "TAF UBBL 311701Z 3118/0118 VRB04KT 8000 SCT080 TX16/0110Z TN08/0101Z TEMPO 3120/0104 2000 BR BCFG SCT007 BECMG 0104/0106 33010KT TEMPO 0106/0116 03016KT -SHRA SCT012 SCT020CB BKN020", "TAF UBBN 311705Z 3118/0118 VRB04KT 9999 SCT045 FEW045CB BKN100 TX19/0112Z TN05/0103Z TEMPO 3123/0106 03008KT -TSRA SCT040CB BKN070 TEMPO 0108/0116 33012KT", "TAF UBBQ 311701Z 3118/0118 26006KT 9999 FEW080 TX16/0110Z TN02/0102Z TEMPO 3120/0102 2000 BR BCFG SCT006 BECMG 0102/0104 30010KT TEMPO 0104/0112 32016KT -SHRA SCT012 SCT030CB BKN030", "TAF UBBY 311652Z 3118/0103 VRB04KT 9999 FEW040 SCT100 TEMPO 3118/3122 31008KT", "TAF UBEE 311653Z 3118/0103 VRB04KT CAVOK TEMPO 3120/3124 28010KT", "TAF UCFL 311641Z 3118/0118 35003G08MPS 9999 SCT025CB BKN100 TEMPO 3118/3124 3000 -SHRA BR SCT007 BKN015CB BECMG 0105/0106 15003G08MPS", "TAF UCFM 311646Z 3118/0118 13003G08MPS 3000 BR SCT030CB TEMPO 3118/0102 VRB01MPS 0350 FZFG VV002 TEMPO 0102/0106 1500 BR FU SCT007 BECMG 0106/0107 32003G08MPS 9999 NSW TEMPO 0106/0112 06003G08MPS TEMPO 0112/0118 1500 BR FU SCT005", "TAF UCFO 311648Z 3118/0118 18003G08MPS 3000 BR FEW050 TEMPO 3118/3124 0800 FG SCT002 BECMG 0103/0105 32003G08MPS 5000", "TAF UDSG 311700Z 3118/0118 VRB06KT 9999 FEW050 TEMPO 3122/0103 24016KT -SHRA SCT030", "TAF UDYZ 311700Z 3118/0118 04008KT 9999 FEW040", "TAF UEEE 311700Z 3118/0124 35003G08MPS 9999 SCT030CB OVC070 TEMPO 3118/0103 VRB01MPS 0300 SHSN FZFG VV002 TEMPO 0103/0112 2100 -SHSN SCT011 BKN020CB OVC070", "TAF UERP 311700Z 3118/0118 22003MPS 9999 SCT017 TEMPO 3118/3121 0500 FZFG VV002", "TAF UERR 311700Z 3118/0118 VRB01MPS 9999 SCT023CB OVC100 TEMPO 3118/3121 -SHSN SCT007 BKN017CB OVC100 TEMPO 3121/3124 1000 BR BKN003", "TAF UGKO 311700Z 3118/0118 26007KT 9999 BKN050 TX14/0111Z TN10/0102Z TEMPO 3118/3123 27017G27KT 2500 TSRA BKN015CB OVC030 TEMPO 3123/0105 4000 SHRA BKN017CB OVC050 TEMPO 0107/0116 CAVOK", "TAF UGSB 311700Z 3118/0118 25012KT 9999 -RA SCT016 BKN026 TX16/0112Z TN10/0102Z TEMPO 3118/0104 23022KT 3000 TSRA SCT009 OVC020CB TEMPO 0104/0110 4000 SHRA SCT010 BKN020CB", "TAF UGTB 311700Z 3118/0118 31023KT CAVOK TX18/0111Z TN07/0102Z TEMPO 3122/0104 30013KT BKN050CB TEMPO 0107/0112 31033KT", "TAF UHBB 311654Z 3118/0118 23005G10MPS 9999 SCT011 SCT030CB TEMPO 3121/0109 3100 -SHSNRA BKN007 BKN020CB BECMG 0101/0103 27006G12MPS", "TAF UHHH 311652Z 3118/0124 18003MPS 9999 SCT011 BKN020CB TEMPO 3118/0103 21008MPS 3100 -SHRA BKN003 BKN015CB FM010300 25006MPS 9999 SCT020CB TEMPO 0103/0112 24007G12MPS 3100 -SHRA SCT011 BKN020CB", "TAF UHMA 311642Z 3118/0118 02008G13MPS 9999 SCT012 BKN020 TEMPO 3118/0112 34013G18MPS 5000 -SN DRSN BKN015 FM011200 01014G19MPS 5000 -SN BKN015 TEMPO 0112/0118 35009G14MPS 1100 -SHSN BLSN BKN004 BKN010CB", "TAF UHMM 311659Z 3118/0124 09003MPS 9999 NSC BECMG 0106/0107 BKN030", "TAF UHPP 311635Z 3118/0124 35003G12MPS 9999 SCT040", "TAF UHSS 311700Z 3118/0124 17003MPS 9999 BKN011 BKN025CB BECMG 0103/0106 6000 -SHRA BKN020CB", "TAF UHWW 311651Z 3118/0118 18003G08MPS 6000 -SHRA FEW003 BKN016CB TEMPO 3118/0101 -TSRA SCT007 BKN011CB BECMG 0101/0103 32003G08MPS BKN030CB BECMG 0103/0106 9999 NSW", "TAF UIAA 311700Z 3118/0118 29007G13MPS 9999 BKN030CB TEMPO 3118/0103 23003G08MPS", "TAF UIBB 311700Z 3118/0118 07003G08MPS 9999 FEW001 SCT030", "TAF UIII 311700Z 3118/0118 VRB01MPS 9999 NSC TEMPO 3118/3121 0500 FZFG VV001 BECMG 3121/3122 0300 FZFG VV001 TEMPO 3122/0101 3100 BR SCT004 BECMG 0101/0102 9999 NSW NSC", "TAF UIUU 311700Z 3118/0118 27003G08MPS 9999 NSC TEMPO 3118/0102 2900 FU", "TAF ULAA 311650Z 3118/0118 34003MPS 6000 FEW011 BKN016 TEMPO 0100/0109 0300 FZFG SCT003 BECMG 0104/0107 26003MPS BECMG 0110/0113 16003MPS TEMPO 0110/0118 3000 BR BKN005", "TAF ULLI 311655Z 3118/0118 27003MPS 9999 SCT016 FM312100 18004MPS 6000 -RA BKN010 OVC016 TEMPO 3123/0105 2000 -SHRA BR BKN004 BKN016CB TEMPO 0105/0112 BKN004", "TAF ULMM 311650Z 3118/0118 21003MPS 6000 BKN011 TEMPO 3118/0101 0300 FZFG VV001 BECMG 0101/0103 0800 FZFG VV002 BECMG 0106/0107 6000 NSW BKN016", "TAF ULOO 311658Z 3118/0103 26003MPS 9999 SCT020 TEMPO 3118/3120 0400 FZFG FEW002 BECMG 3120/3122 4000 -FZDZ SCT010 OVC016", "TAF ULPB 311659Z 3118/0103 24003MPS 9999 SCT020 BECMG 3118/3120 4000 BR TEMPO 3120/0103 0400 FZFG SCT002", "TAF ULWC 311700Z 3118/0103 32005MPS 6000 BKN007 BKN017 TEMPO 3118/3121 2000 SHRASN BKN003 BKN013CB", "TAF UMBB 311100Z 3112/3121 VRB02MPS 6000 SCT020 TEMPO 3113/3121 12003MPS", "TAF UMGG 311652Z 3118/0118 28004MPS 9999 SCT020 TX03/3118Z TNM00/0103Z TEMPO 3121/0106 2000 BR BKN005 BECMG 0106/0108 VRB02MPS BKN015", "TAF UMII 311706Z 3118/0103 31003MPS 6000 BKN015 TX02/3118Z TNM00/0103Z TEMPO 3118/3120 30004MPS 2000 BR BKN005 TEMPO 3120/0103 VRB02MPS 0400 FZFG VV002", "TAF UMIO 311101Z 3112/3121 32005G10MPS 9999 SCT020 TEMPO 3112/3121 34010G15MPS SCT010", "TAF UMKK 311657Z 3118/0118 VRB01MPS 2000 BR BKN004 TEMPO 3118/0109 0200 -DZ FG VV002 BECMG 0109/0111 6000 NSW FEW006 BKN011 TEMPO 0115/0118 BKN006", "TAF UMMG 311101Z 3112/3121 33003G08MPS 9000 BKN016 TEMPO 3112/3115 VRB02MPS", "TAF UMMS 311706Z 3118/0118 27005G10MPS 5000 BR BKN010 TX09/0113Z TNM02/0103Z TEMPO 3118/3119 3000 BCFG TEMPO 3119/0108 0200 -FZDZ FZFG OVC001 BECMG 0108/0109 24005G10MPS 9999 NSW BKN020 TEMPO 0109/0118 3000 -SHRA BKN015CB", "TAF UMOO 311102Z 3112/3121 30007G12MPS 9999 BKN020 TEMPO 3112/3121 34009G14MPS", "TAF UNAA 311645Z 3118/0118 16003MPS 6000 SCT020 TEMPO 3118/0102 3400 BR FU", "TAF UNBB 311700Z 3118/0118 24003G08MPS 3000 -SHSNRA SCT005 BKN016CB TEMPO 3118/0104 0150 -SHSN FZFG BKN002 BKN010CB BECMG 0104/0105 8000 BKN020CB FM010900 16003G08MPS 9999 SCT040", "TAF UNEE 311700Z 3118/0118 11003MPS 2000 -SHSNRA BR BKN005 BKN011CB TEMPO 3118/0104 0150 -SHSN FZFG BKN001 BKN010CB BECMG 0104/0106 8000 -SHRASN BKN011CB", "TAF UNKL 311650Z 3118/0118 13003G08MPS CAVOK", "TAF UNNT 311700Z 3118/0118 28003MPS 8000 BKN011CB TEMPO 3118/0104 0300 -SHSN FZFG BKN001 BKN011CB BECMG 0104/0105 18003G08MPS BKN040", "TAF UNOO 311655Z 3118/0118 14003MPS 3100 BR SCT033 TEMPO 3118/0103 0200 FZFG VV002 FM010500 16003G09MPS 8000 NSC", "TAF UNTT 311700Z 3118/0103 09003MPS 8000 BKN040CB TEMPO 3122/3124 0500 -SHSN FZFG BKN002 BKN011CB", "TAF UNWW 311700Z 3118/0118 21003G08MPS 1500 -SHSN BR BKN011CB TEMPO 3118/0103 0300 -SHSN FZFG BKN002 BKN011CB BECMG 0103/0105 8000 -SHSNRA TEMPO 0105/0115 SCT005 BKN016CB", "TAF COR UOOO 311659Z 3118/0118 19013G22MPS 6000 -SN BLSN OVC016 TEMPO 3118/0103 3100 -SN BLSN BKN011 OVC016 TEMPO 0103/0118 1000 SN BLSN BKN005 OVC012", "TAF URKA 311659Z 3118/0118 36003MPS 9999 SCT020 TEMPO 3118/0108 33006G12MPS BECMG 0108/0109 32006G12MPS", "TAF URKK 311658Z 3118/0118 29007G12MPS 9999 BKN030CB TEMPO 3118/0106 34007G12MPS -SHRA BKN020CB", "TAF URMG 311700Z 3118/0103 28003G08MPS 9999 BKN030 TEMPO 3118/0103 32007G17MPS 6000 -SHRA BKN016 BKN020CB", "TAF URML 311700Z 3118/0103 26004G11MPS 9999 BKN016 FM312000 32012G18MPS 6000 -SHRA BKN014 SCT040CB TEMPO 3121/0103 33015G24MPS", "TAF AMD URMM 311824Z 3118/0118 29007G12MPS 9999 BKN030 TX10/0111Z TN03/0103Z TEMPO 3118/0106 30012G23MPS 6000 -SHRA BKN016 BKN020CB TEMPO 0106/0118 31008G18MPS", "TAF URMN 311700Z 3118/0103 32003G08MPS 9999 BKN020 TEMPO 3118/3124 6000 -SHRA BKN016CB", "TAF URMO 311700Z 3118/0103 27003G08MPS 9999 BKN030 TEMPO 3118/0103 30007G14MPS 6000 -SHRA BKN016 BKN020CB", "TAF URMT 311700Z 3118/0103 33008G14MPS 6000 SCT016 BKN030CB TEMPO 3118/3121 33011G18MPS 4000 -SHRA SCT010 BKN020CB", "TAF URRP 311656Z 3118/0118 30006G13MPS 9999 SCT016 SCT030CB", "TAF URSS 311655Z 3118/0118 13004G09MPS 6000 -SHRA SCT009 BKN030CB OVC100 TEMPO 3118/3120 VRB09G14MPS 1000 TSRA SQ BKN006 BKN030CB OVC100 BECMG 3120/3121 36004G09MPS FM010000 04006MPS 9999 SCT030 SCT100 BECMG 0107/0109 28007G12MPS BKN025 BECMG 0116/0118 05004G09MPS", "TAF URWA 311659Z 3118/0103 28005G12MPS 9999 BKN016 SCT030CB TEMPO 3118/3124 32008G14MPS 3000 -SHRA BKN006 BKN020CB PROB40 TEMPO 3118/3121 -TSRA", "TAF URWI 311057Z 3112/3121 27010G20MPS 6000 -SHRA BKN016 BKN020CB BECMG 3115/3116 32009G18MPS", "TAF URWW 311657Z 3118/0103 30006G11MPS 6000 BKN016 BKN020CB TEMPO 3118/0103 27008G14MPS -SHSN BLSN", "TAF USCC 311700Z 3118/0118 17005G10MPS 3100 -SHRA BR BKN003 BKN011CB TEMPO 3118/0106 16010G15MPS 0300 SHRA FG VV002", "TAF USCM 311700Z 3118/0103 17005G13MPS 2100 -RA BR BKN002 OVC010 TEMPO 3118/0103 18008G17MPS 0500 SHRA FG BKN003 BKN011CB", "TAF USDA 311051Z 3112/3121 21009G14MPS 6000 SCT016 TEMPO 3112/3118 FEW006 SCT011", "TAF AMD USHH 311917Z 3119/0118 16005G12MPS 6000 -SN BKN008 OVC016 TEMPO 3119/0103 1600 SHSN BKN003 OVC011CB TEMPO 0103/0115 3100 -SHSN -FZRA SCT005 BKN011CB", "TAF USNN 311650Z 3118/0118 17004G11MPS 9999 BKN017 TEMPO 3118/0103 FEW004 BECMG 0105/0106 19005G12MPS 6000 -SN", "TAF USPP 311656Z 3118/0118 15003G09MPS 3000 -RASN BR BKN004 OVC011 TEMPO 3118/3124 0400 FG VV002 BECMG 0102/0104 6000 -SNRA BKN011 BECMG 0106/0107 04003G10MPS BKN016", "TAF USRR 311655Z 3118/0118 17006G14MPS 9999 FEW011 BKN017 TEMPO 3118/3122 5000 -SHSN FEW005 BKN016CB BECMG 3122/3124 3100 -SHSN SCT007 BKN020CB TEMPO 0100/0109 0650 +SHSN SCT005 BKN016CB", "TAF AMD USSS 311843Z 3119/0118 15003G13MPS 3100 -SHRA BR BKN004 SCT016CB TEMPO 3119/0104 0300 FG VV002 BECMG 0106/0108 6000 -SHRA BKN008CB BECMG 0109/0112 10006G15MPS", "TAF USTR 311633Z 3118/0118 19005G13MPS 6000 -SHRA BKN003 BKN016CB TEMPO 3118/0106 1000 SHSNRA VV002 FM010600 19006G14MPS 9999 BKN016CB TEMPO 0106/0109 19008G15MPS -SHRA", "TAF UTAA 311645Z 3118/0118 26014KT 2000 BR BKN005 TEMPO 3118/0105 VRB04KT 0200 FG VV002 BECMG 0104/0106 32016KT BKN007 SCT030CB TEMPO 0106/0112 29016G26KT 3000 -RA BKN005", "TAF UTAK 311630Z 3118/0118 19018KT 5000 BR SCT016 BKN100 TEMPO 3118/3121 2000 BR BKN006 BKN100 TEMPO 3121/0104 25014KT 0500 FG VV001 BECMG 0104/0105 9999 NSW BKN033 BECMG 0106/0107 34018KT TEMPO 0107/0112 6000 BKN008 SCT040CB BKN100", "TAF UTAM 311635Z 3118/0118 09016KT 5000 SCT050 SCT100 TEMPO 3118/0104 14012KT 2000 BR SCT007 BECMG 0104/0105 12016KT TEMPO 0105/0112 15014G24KT 3000 DRDU SCT030 BKN100 TEMPO 0112/0118 30016KT 3000 -SHRA BKN030 SCT050CB", "TAF UTAT 311632Z 3118/0118 12012KT 9999 SCT020CB BKN050 TEMPO 0100/0106 33018G28KT 3000 -RA BKN010 PROB40 TEMPO 0100/0106 VRB30KT TS", "TAF UTAV 311630Z 3118/0118 09010KT 5000 NSC TEMPO 3118/3120 VRB04KT 2000 HZ FU SKC TEMPO 3120/0104 VRB04KT 1500 BR SCT005 PROB30 TEMPO 3122/0102 1200 BR BKN004 BECMG 0104/0106 11014KT 5000 SCT050 TEMPO 0104/0116 05016G26KT 2000 BLDU BKN040", "TAF UTDD 311800Z 3119/0107 VRB02MPS 6000 SCT066CB BKN100 TEMPO 3119/0107 07005MPS", "TAF UTDK 311800Z 3119/0104 03005MPS 8000 SCT066CB BKN100", "TAF UTDL 311800Z 3119/0107 08008MPS 3100 BR NSC TEMPO 3119/0107 07011MPS", "TAF UTDT 311800Z 3119/0104 VRB02MPS 6000 FEW060CB SCT100", "TAF UTFF 311800Z 3119/0104 14010KT 5000 BR NSC TEMPO 3118/0101 VRB02KT 1200 BR", "TAF UTFN 311700Z 3118/0118 33010KT 7000 NSC TEMPO 3118/3124 VRB02KT 5000 BR", "TAF COR UTNN 311700Z 3118/0118 14008G18KT CAVOK TEMPO 0104/0112 23012G22KT", "TAF UTNU 311700Z 3118/0118 15010G20KT CAVOK TEMPO 0104/0114 23012G22KT", "TAF UTSA 311701Z 3118/0118 VRB03KT 7000 NSC TEMPO 3118/0105 09010KT 3500 BR FU FEW033", "TAF UTSB 311700Z 3118/0118 VRB03KT 7000 NSC TEMPO 3118/3124 09010KT 4500 BR FEW033 TEMPO 0100/0105 11010KT 0500 FG VV002", "TAF UTSK 311800Z 3119/0104 06010KT CAVOK TEMPO 3119/0104 14010KT", "TAF UTSS 311700Z 3118/0118 10010G20KT 7000 NSC TEMPO 3118/0103 15010KT 1500 BR SCT007", "TAF UTST 311700Z 3118/0118 03006G16KT 6000 NSC TEMPO 3121/0104 09008G18KT 3000 BR SCT050CB SCT100", "TAF UTTT 311700Z 3118/0118 06008KT 7000 NSC TEMPO 3118/3122 3000 BR FU TEMPO 3122/0103 1000 BR SCT006", "TAF UUBC 311657Z 3118/0103 32008G13MPS 6000 BKN017", "TAF UUBP 311347Z 3115/3124 29005MPS 9999 BKN035", "TAF UUBW 311652Z 3118/0118 30008MPS 6000 BKN016 TX03/0112Z TN00/0103Z TEMPO 3118/3124 32010G16MPS -SHSN FEW007 BKN012CB", "TAF UUDD 311658Z 3118/0124 32009MPS 6000 BKN016 TX03/0112Z TNM01/0124Z TEMPO 3118/3123 32011G16MPS BECMG 0115/0117 32003MPS", "TAF UUDL 311654Z 3118/0118 32005G10MPS 8000 -RASN OVC016 TX03/0112Z TN01/0104Z TEMPO 3118/0109 OVC010", "TAF UUEE 311652Z 3118/0118 30009G15MPS 6000 -SN FEW005 BKN014 TX02/0112Z TNM00/0103Z BECMG 3121/3123 33005G10MPS", "TAF UUMO 311654Z 3118/0103 30006G11MPS 8000 BKN016 TEMPO 3118/3121 2100 -SHSN BKN007 BKN011CB", "TAF UUOB 311659Z 3118/0103 32006MPS 6000 BKN020", "TAF UUOK 311657Z 3118/0103 30008G13MPS 6000 OVC017", "TAF UUOL 311700Z 3118/0103 30007MPS 9999 BKN016 TEMPO 3118/3124 31007G12MPS 3000 -SHSNRA BKN005 BKN016CB", "TAF UUOO 311700Z 3118/0103 30005G10MPS 9999 BKN020 TEMPO 3118/3124 -SHSNRA BKN016CB", "TAF UUWW 311658Z 3118/0118 30008MPS 9999 BKN016 TX02/0112Z TNM00/0103Z TEMPO 3118/3120 31010G15MPS -SHSN BKN020CB BECMG 0110/0112 31003MPS", "TAF AMD UUYY 311802Z 3118/0118 35003G12MPS 6000 -SHSN BKN005 BKN017CB TEMPO 3118/3122 0300 SHSN FZFG BKN003 BKN016CB TEMPO 3122/0103 0300 SHSN -FZDZ FZFG BKN003 BKN016CB TEMPO 0103/0108 -FZDZ BKN005 BKN016CB BECMG 0108/0110 FEW011 BKN016CB BECMG 0113/0115 01003MPS", "TAF UWGG 311650Z 3118/0118 30003G09MPS 6000 BKN010 TX02/0112Z TN00/0106Z TEMPO 3118/0109 33008G14MPS 1500 SHSN BKN003 BKN010CB", "TAF UWKD 311652Z 3118/0118 25005G12MPS 9999 OVC016 TX00/3118Z TNM02/0103Z TEMPO 3118/3124 0700 +SHSN BKN003 BKN016CB BECMG 3122/3124 18003MPS BECMG 0110/0112 36005G12MPS", "TAF UWKE 311650Z 3118/0118 23003G10MPS 8000 BKN011 TEMPO 3118/3124 27003G14MPS 0700 +SHSN BKN003 BKN020CB TEMPO 0100/0106 3100 -SN BR OVC005 BECMG 0102/0104 36003G10MPS", "TAF UWKS 311649Z 3118/0103 24003G10MPS 3000 -SHSN OVC006CB TXM00/3118Z TNM01/0103Z TEMPO 3118/0102 0500 +SHSN VV002", "TAF UWLL 311651Z 3118/0118 25003G08MPS 9999 BKN016 TX02/0110Z TNM02/0101Z TEMPO 3118/0103 21008MPS 2100 -RA BR BKN005", "TAF UWLW 311659Z 3118/0118 26003MPS 9999 BKN016 TX01/0110Z TNM02/0102Z TEMPO 0101/0106 2100 -SN BR OVC007 BECMG 0104/0106 34003G09MPS TEMPO 0106/0115 01006G13MPS 2100 -SHSN BKN007 BKN013CB", "TAF UWOO 311652Z 3118/0118 36003G10MPS 6000 -SHRA BKN016CB TX06/0110Z TN03/0101Z TEMPO 3118/0108 04005G10MPS 1000 BR BKN004 BKN010CB BECMG 0108/0109 17008G16MPS TEMPO 0109/0118 20010G19MPS 1000 RASN BKN004", "TAF AMD UWOR 311748Z 3118/0103 17009G17MPS 6000 BKN010 TX08/0103Z TN06/3123Z TEMPO 3118/0103 19011G19MPS -RA BKN005", "TAF UWPS 311650Z 3118/0103 28006G12MPS 8000 BKN016CB TX00/3118Z TNM02/0103Z TEMPO 3121/0103 2500 -SHSN BR BKN009CB", "TAF UWSG 311700Z 3118/0103 28003G08MPS 6000 BKN030 TXM00/3118Z TNM02/3124Z TEMPO 3121/0103 -SHSN SCT016CB", "TAF UWUU 311654Z 3118/0118 34005G10MPS 6000 -RA OVC016 TX03/0115Z TN00/0102Z TEMPO 3118/0106 28003MPS 0200 -SHRASN FG BKN003 OVC010CB TEMPO 0106/0118 01007G14MPS 4000 -SHRASN SCT004 BKN016CB", "TAF UWWW 311652Z 3118/0118 29003G08MPS 6000 BKN016 TX02/0110Z TNM04/0103Z TEMPO 3118/0105 0300 FZFG VV002 BECMG 0105/0106 34006G13MPS", "TAF VAAH 311700Z 3118/0103 05003KT 4000 HZ FU NSC BECMG 0101/0103 2500", "VAAU 311700Z 3118/0124 06005KT 4000 HZ FU FEW020 BECMG 3122/3124 VRB03KT 3000 BR HZ BECMG 0101/0103 2500 BR HZ BECMG 0103/0105 3000 HZ FU BECMG 0108/0110 09008KT 5000 HZ FU NSC BECMG 0115/0117 06006KT 4000 HZ FU FEW020 BECMG 0122/0124 VRB03KT 3000 BR HZ", "TAF VABB 311700Z 3118/0103 09005KT 3000 HZ FU FEW020 BECMG 3120/3122 VRB03KT 2500 HZ FU BECMG 0100/0102 11005KT 2000 BR HZ", "TAF VABJ 311700Z 3118/0103 VRB02KT 6000 NSC BECMG 0101/0103 5000 HZ FU", "TAF VABO 311700Z 3118/0103 05004KT 6000 NSC BECMG 0101/0103 3000 HZ FU", "TAF VABP 311400Z 3115/3124 05005KT 5000 HZ NSC BECMG 3118/3120 07005KT 4000 HZ", "TAF VABV 311700Z 3118/0103 04005KT 5000 HZ FU NSC BECMG 0101/0103 3000 HZ FU", "TAF VADU 311700Z 3118/0103 02006KT 5000 HZ FU NSC BECMG 3122/3124 05005KT BECMG 0101/0103 2000 HZ", "TAF VAID 311400Z 3115/3124 07006KT 4000 HZ NSC BECMG 3118/3120 05005KT 3000 HZ", "TAF VAJB 311400Z 3115/3124 05005KT 3000 HZ NSC", "TAF VAJM 311700Z 3118/0103 09005KT 6000 NSC BECMG 3119/3121 13005KT BECMG 3122/3124 VRB02KT BECMG 0101/0103 09005KT 2000 BR HZ", "TAF VAKE 311400Z 3115/3124 05006KT 4000 FU NSC BECMG 3116/3118 09005KT BECMG 3122/3124 VRB02KT 3000 HZ", "TAF VAKP 311100Z 3112/3121 08005KT 4000 HZ NSC BECMG 3115/3117 3000 HZ BECMG 3118/3120 VRB03KT 2500 HZ FEW100", "TAF VANP 311700Z 3118/0124 00000KT 3000 HZ FEW100 BECMG 0100/0102 2000 BR HZ BECMG 0103/0105 04005KT 5000 HZ BECMG 0112/0114 3000 HZ", "TAF VAOZ 311400Z 3114/0103 VRB02KT 5000 BR NSC TEMPO 0101/0103 1500 BR", "TAF VAPO 311700Z 3118/0200 VRB02KT 6000 FEW100 BECMG 3123/0103 4000 BR BECMG 0104/0107 07005KT 6000 SCT100 TEMPO 0123/0200 4000 BR", "TAF VAPR 311700Z 3118/0103 05005KT 6000 NSC BECMG 0101/0103 08006KT 4000 BR HZ", "TAF VARK 311700Z 3118/0103 08005KT 6000 NSC BECMG 0101/0103 4000 HZ", "TAF VASL 311100Z 3112/3121 09005KT 4000 HZ NSC BECMG 3115/3117 3000 HZ BECMG 3118/3120 VRB03KT 2500 HZ FEW020", "TAF VASU 311700Z 3118/0103 05005KT 6000 NSC BECMG 3119/3121 08005KT BECMG 0101/0103 3000 HZ", "TAF VAUD 311100Z 3112/3121 VRB03KT 3000 HZ NSC", "TAF VCBI 311700Z 3118/0124 VRB05KT 9999 SCT018 TX31/0107Z TN24/0100Z PROB30 TEMPO 3118/0102 0109/0112 7000 -TSRA/SHRA SCT016 FEW020CB BECMG 0105/0107 30008KT", "TAF VCRI 311700Z 3118/0124 VRB05KT 9999 FEW018 TX32/0107Z TN23/0100Z BECMG 0104/0106 27008KT PROB30 TEMPO 0108/0114 7000 -TSRA/SHRA SCT016 FEW018CB BKN080 ", "TAF VDPP 311700Z 3118/0112 34009KT 9999 SCT017", "TAF VDSR 311700Z 3118/0112 02009KT 9999 SCT017", "TAF VDSV 311700Z 3118/0112 05008KT 9999 SCT017", "TAF VEAT 311700Z 3118/0103 00000KT 3000 BR FEW018 BECMG 0100/0102 1500 BR", "TAF VEBD 311100Z 3112/0118 09005KT 6000 FEW030 TEMPO 0101/0103 4000 BR", "TAF VEBN 311700Z 3118/0124 00000KT 2500 BR NSC BECMG 3120/3122 1500 BR BECMG 0100/0102 0800 MIFG BECMG 0103/0105 2000 BR BECMG 0107/0109 VRB02KT 3000 HZ BECMG 0120/0122 1000 MIFG", "TAF VEBS 311700Z 3118/0103 00000KT 3000 HZ FEW020", "TAF VECC 311700Z 3118/0124 00000KT 3500 HZ NSC BECMG 0100/0102 2000 BR BECMG 0103/0105 34005KT 3500 HZ FEW020 BECMG 0107/0109 5000 HZ FEW020 SCT100 BECMG 0113/0115 3500 HZ NSC BECMG 0122/0124 00000KT 2000 BR", "TAF VEDG 311100Z 3112/0118 33005KT 3500 HZ FEW100 BECMG 3122/3124 1800 BR BECMG 0103/0105 3500 HZ FEW020 BECMG 0106/0108 5000 HZ FEW100 BECMG 0114/0116 3200 HZ", "TAF VEGT 311700Z 3118/0103 00000KT 3000 BR FEW020 BECMG 0100/0102 1500 BR", "TAF VEGY 311400Z 3115/3124 00000KT 3200 BR FEW020 SCT100 BECMG 3121/3123 2000 BR SCT100", "TAF VEIM 311700Z 3118/0103 00000KT 3000 BR FEW018", "TAF VEJH 311100Z 3112/3121 03003KT 4000 HZ NSC BECMG 3116/3118 2500 BR NSC", "TAF VEJS 311100Z 3112/3121 00000KT 3000 HZ FEW100", "TAF VEKO 311100Z 3112/3121 36005KT 4000 HZ NSC BECMG 3118/3120 3000 HZ", "TAF VEMN 311700Z 3118/0103 00000KT 2500 BR FEW018 SCT100", "TAF VEPT 311700Z 3118/0124 00000KT 2500 BR NSC BECMG 3123/0101 1400 BR BECMG 0105/0107 25003KT 3500 HZ BECMG 0109/0111 5000 HZ SCT100 BECMG 0118/0120 2800 BR NSC", "TAF VERC 311700Z 3118/0103 00000KT 3200 BR NSC BECMG 3121/3123 2500 BR", "TAF VERP 311400Z 3115/3124 VRB03KT 3000 HZ NSC", "TAF VETZ 311530Z 3118/0106 VRB02KT 6000 FEW025 TEMPO 0100/0102 5000 BR", "TAF VGEG 311700Z 3118/0124 36008KT 4000 HZ FEW018 TEMPO 3123/0102 00000KT 2000 BR SCT013 BECMG 0103/0105 34008KT 4500 HZ FEW018 BECMG 0112/0114 35006KT 4000 HZ FEW018", "TAF VGHS 311700Z 3118/0124 00000KT 3500 HZ NSC BECMG 0100/0102 2000 BR BECMG 0104/0106 35006KT 4000 HZ BECMG 0118/0120 32005KT 3500 HZ", "TAF VHHH 311700Z 3118/0124 01020KT 9999 FEW030 TX26/0106Z TN25/3122Z TN20/0122Z TEMPO 0100/0106 01022G32KT TEMPO 0106/0115 01025G35KT TEMPO 0115/0124 02030G40KT 3500 SHRA", "TAF VIAG 311700Z 3118/0200 VRB02KT 0800 FG NSC BECMG 3121/3123 0600 FG BECMG 0101/0103 0800 FG BECMG 0104/0105 1500 BR BECMG 0106/0108 30005KT 3000 FU BECMG 0112/0114 1500 BR BECMG 0115/0117 VRB02KT 0800 FG", "TAF VIAR 311700Z 3118/0103 00000KT 1500 BR SCT100 BECMG 0100/0102 VRB02KT 0800 MIFG", "TAF VICG 311700Z 3118/0200 VRB02KT 6000 NSC TEMPO 0100/0102 3000 BR BECMG 0103/0104 4000 BR BECMG 0105/0106 30005KT 6000 TEMPO 0112/0115 5000 HZ TEMPO 3123/0200 VRB02KT 5000 BR", "TAF VIDN 311100Z 3112/3121 VRB02KT 3000 HZ BR FEW025", "TAF VIDP 311700Z 3118/0103 00000KT 1500 FU NSC BECMG 0100/0102 0800 MIFG", "TAF VIJP 311700Z 3118/0124 VRB03KT 2000 HZ FU NSC BECMG 0104/0106 23005KT 4000 HZ FU NSC BECMG 0112/0114 VRB03KT 3000 HZ FU NSC", "TAF VILH 310930Z 3118/0112 27005KT 6000 SCT070 BKN100 TEMPO 0110/0112 34015G25KT FEW030 SCT060 BKN100", "TAF VILK 311700Z 3118/0124 00000KT 2500 BR NSC BECMG 3120/3122 1500 BR BECMG 0100/0102 0800 MIFG BECMG 0103/0105 2000 BR BECMG 0107/0109 VRB02KT 3000 HZ BECMG 0122/0124 1000 MIFG", "TAF VIPT 311100Z 3112/3121 VRB02KT 3000 HZ BR NSC", "TAF VISR 311530Z 3118/0106 VRB02KT 2000 RABR SCT020 BKN090 TEMPO 0100/0103 1000 BECMG 0104/0105 09008KT 2500 HZ SCT025 BKN090", "TAF VLLB 311700Z 3118/0118 04004KT 3000 BR SCT010 BKN080", "TAF VLLN 311700Z 3118/0118 36004KT 3000 BR SCT010 BKN100", "TAF VLPS 311700Z 3118/0118 36006KT 4000 BR FEW020 SCT200", "TAF VLSK 311700Z 3118/0118 04004KT 3000 BR FEW040 SCT100", "TAF VLVT 311700Z 3118/0118 06004KT 4000 BR FEW050 FEW200", "TAF VMMC 311700Z 3118/0124 35020KT 9999 FEW040 TEMPO 3118/0106 35025G35KT TEMPO 0112/0124 35025G35KT 4500 SHRA", "TAF VNKT 311700Z 3118/0118 VRB02KT 7000 FEW015 PROB40 0100/0103 5000 BR BECMG 0104/0105 12003KT 7000 FEW015 BECMG 0107/0108 28008KT 8000 FEW020 BECMG 0114/0115 VRB02KT 7000 FEW015", "TAF VOAR 311100Z 3112/0118 03008KT 3400 HZ SCT018 OVC090 TEMPO 3114/3118 2500 RA/DZ BECMG 3118/3119 VRB02KT 3122/0102 2500 RA/DZ BECMG 0102/0104 04010KT TEMPO 0106/0112 2000 TSRA/RA SCT016 FEW025TCU/CB OVC080 BECMG 0115/0116 VRB02KT", "TAF VOBG 311700Z 3118/0103 05010KT 6000 FEW015 BECMG 3122/3123 5000 BR SCT008 TEMPO 0100/0103 1000 MIFG BR FEW005", "TAF VOBL 311700Z 3118/0124 05010KT 6000 FEW015 BECMG 3122/3123 5000 BR SCT008 TEMPO 0100/0103 1000 MIFG BR FEW005 BECMG 0105/0106 6000 FEW015 BECMG 0122/0123 4000 BR SCT008", "TAF VOBM 311700Z 3118/0103 07008KT 6000 FEW015 BECMG 3122/3123 5000 BR SCT010 TEMPO 0100/0103 1500 BR SCT008", "TAF VOBZ 311700Z 3118/0124 VRB04KT 3000 BR FEW015 TEMPO 3123/0103 VRB03KT 1500 BR SCT015 BECMG 0104/0106 05006KT 5000 HZ SCT020 TEMPO 0114/0118 4000 BR SCT015 BECMG 0118/0124 05006KT 3000 BR SCT015", "TAF VOCB 311700Z 3118/0124 05010KT 4000 BR SCT012 BKN080 TEMPO 3118/3124 3000 -DZ/BR SCT012 FEW020CB BKN080 BECMG 3121/3122 VRB02KT BECMG 0100/0101 2000 BR BECMG 0103/0104 05010KT 4000 HZ TEMPO 0112/0118 3000 -TSRA/RA SCT012 FEW020CB BKN080", "TAF VOCI 311700Z 3118/0124 VRB03KT 3000 TSRA BR FEW008 SCT012 FEW025CB BKN080 TEMPO 3122/0102 2000 RA BR FEW008 SCT012 BKN080 BECMG 0103/0105 27010KT 5000 HZ SCT015 SCT080 TEMPO 0110/0115 2000 TSRA RA FEW008 SCT012 FEW025CB BKN080 BECMG 0118/0119 08005KT 3000 -RA BR FEW008 SCT012 BKN080", "TAF VOCL 311700Z 3118/0124 VRB03KT 2000 +TSRA BR FEW006 SCT012 FEW025CB BKN080 BECMG 3122/0102 3000 RA BR FEW006 SCT012 BKN080 BECMG 0103/0105 23010KT 6000 FEW012 SCT018 FEW025TCU TEMPO 0110/0115 2000 +TSRA RA FEW006 SCT012 FEW025CB OVC080 BECMG 0118/0119 10005KT 3000 -RA BR FEW008 SCT012 BKN080", "TAF VOHB 311700Z 3118/0124 07008KT 6000 FEW015 BECMG 3122/3123 5000 BR SCT010 TEMPO 0100/0103 1500 BR SCT008 BECMG 0105/0106 6000 FEW015 BECMG 0122/0123 4000 BR SCT008", "TAF VOHS 311700Z 3118/0124 07006KT 5000 HZ FEW015 TEMPO 3118/3123 05005KT 3000 BR FEW015 TEMPO 3123/0103 VRB03KT 1500 BR SCT015 BECMG 0104/0106 05010KT 5000 HZ SCT020 TEMPO 0114/0118 5000 HZ SCT015 BECMG 0118/0124 05006KT 3000 BR SCT015", "TAF VOHY 311400Z 3115/3124 07006KT 5000 HZ FEW015 TEMPO 3018/3024 05006KT 3000 BR FEW015", "TAF VOKN 311700Z 3118/0124 VRB02KT 3000 BR FEW006 SCT012 FEW025CB BKN080 TEMPO 3122/0102 1500 RA BR SCT004 SCT012 BKN080 BECMG 0103/0105 27010KT 5000 HZ SCT015 FEW025TCU SCT080 TEMPO 0110/0115 3000 TSRA RA FEW008 SCT012 FEW025CB BKN080 BECMG 0118/0119 10005KT 2000 -RA BR FEW004 SCT012 BKN080", "TAF VOLT 311100Z 3112/3121 09005KT 4000 HZ NSC BECMG 3115/3117 3000 HZ BECMG 3118/3120 VRB03KT 2500 HZ FEW020", "TAF VOMD 311700Z 3118/0124 05010KT 4000 BR/HZ SCT020 SCT100 BECMG 3121/3122 3000 BR TEMPO 0100/0106 3000 -TSRA/RA SCT018 FEW025CB BKN080 BECMG 0106/0107 5000 HZ TEMPO 0112/0118 3000 -TSRA/RA SCT018 FEW025CB BKN080", "TAF VOML 311700Z 3118/0124 VRB03KT 6000 FEW015 BECMG 3121/3122 09005KT 4000 BR SCT0008 TEMPO 0100/0103 1000 MIFG BR SCT005 SCT012 BECMG 0105/0106 25010KT 6000 FEW015 BECMG 0116/0117 09005KT BECMG 0122/0123 4000 BR SCT006 SCT012", "TAF VOMM 311700Z 3118/0124 02010KT 3000 -RA/BR SCT018 BKN080 TEMPO 3121/0103 2000 TSRA/RA SCT018 FEW025CB BKN080 TEMPO 0103/0109 2000 TSRA/RA SCT018 FEW025CB BKN080 BECMG 0106/0107 4000 -DZ/BR BECMG 0112/0113 32010KT 2000 -RA/BR", "TAF VOND 311100Z 3112/3121 07005KT 5000 FU HZ NSC BECMG 3115/3117 02005KT 4000 FU HZ BECMG 3120/3121 VRB03KT 3000 HZ", "TAF VORY 311700Z 3118/0124 11006KT 5000 HZ FEW015 TEMPO 3118/3123 05005KT 3000 BR FEW015 TEMPO 3123/0103 VRB03KT 1500 BR SCT015 BECMG 0104/0106 05006KT 5000 HZ SCT020 TEMPO 0114/0118 5000 BR SCT015 TEMPO 0118/0124 03006KT 3000 BR SCT015", "TAF VOSR 311100Z 3112/3121 08005KT 4000 HZ NSC BECMG 3115/3117 3000 HZ BECMG 3118/3120 VRB03KT 2500 HZ FEW100", "TAF VOTP 311700Z 3118/0124 05006KT 4000 HZ FEW015 TEMPO 3118/3123 05005KT 3000 BR FEW015 TEMPO 3123/0103 VRB03KT 1500 BR SCT015 BECMG 0104/0106 05010KT 5000 HZ SCT020 TEMPO 0114/0118 5000 HZ SCT015 TEMPO 0118/0124 02006KT 3000 BR SCT015", "TAF VOTR 311700Z 3118/0124 02010KT 3000 -DZ/BR SCT016 BKN080 BECMG 0100/0101 32010KT TEMPO 0100/0106 2000 TSRA/RA SCT016 FEW025CB BKN080 BECMG 0106/0107 02010KT 4000 HZ TEMPO 0109/0115 2000 TSRA/RA SCT016 FEW025CB BKN080 BECMG 0112/0113 3000 -DZ/BR", "TAF VOTV 311700Z 3118/0124 VRB03KT 3000 TSRA RA FEW008 SCT012 FEW025CB BKN080 TEMPO 3122/0102 2000 TSRA RA BECMG 0103/0105 28010KT 6000 SCT015 SCT080 TEMPO 0110/0116 1500 +TSRA RA FEW008 SCT012 FEW025CB OVC080 BECMG 0117/0118 VRB03KT 3000 -RA BR FEW008 SCT012 BKN080", "TAF VOVZ 311700Z 3118/0103 04004KT 4500 HZ BR NSC BECMG 3118/3120 VRB02KT 3500 BR TEMPO 3122/0102 2000 BR", "TAF VRMG 311700Z 3118/0124 34010KT 9000 FEW017TCU BKN110 TEMPO 3118/3124 4000 SHRA SCT018CB", "TAF VRMH 311700Z 3118/0124 27005KT 9999 FEW018 TEMPO 3118/3124 FEW019CB", "TAF VRMM 311700Z 3118/0124 30006KT 9000 FEW018 TEMPO 3118/3124 5000 SHRA FEW018CB", "TAF VTBD 311700Z 3118/0124 03008KT 9999 FEW030", "TAF VTBO 311700Z 3118/0118 03008KT 8000 NSC", "TAF VTBS 311700Z 3118/0124 06008KT 9999 FEW030", "TAF VTBU 311700Z 3118/0118 03006KT 5000 BR NSC BECMG 0101/0103 7000 NSW", "TAF VTCC 311700Z 3118/0124 34005KT 9999 FEW035 BECMG 0102/0104 04005KT BECMG 0109/0111 32005KT", "TAF VTCH 311700Z 3118/0118 32005KT 9999 FEW025 BECMG 3120/3122 00000KT 1500 BR BECMG 0100/0102 36005KT 9999 NSW", "TAF VTCL 311700Z 3118/0118 03005KT 9999 FEW025 BECMG 3120/3122 00000KT 2000 BR BECMG 0100/0102 04005KT 9999 NSW", "TAF VTCN 311700Z 3118/0118 04005KT 9999 FEW025 BECMG 3120/3122 00000KT 1000 BR BECMG 0100/0102 02005KT 9999 NSW", "TAF VTCP 311700Z 3118/0118 36005KT 9999 FEW040 BECMG 3120/3122 00000KT 1500 BR BECMG 0100/0102 02005KT 9999 NSW", "TAF VTCT 311700Z 3118/0124 04005KT 9999 FEW045 BECMG 0110/0112 28005KT", "TAF VTPB 311700Z 3118/0118 34005KT 9999 FEW030", "TAF VTPH 311700Z 3118/0118 33003KT 8000 FEW020 BECMG 0102/0104 05010KT BECMG 0113/0115 33003KT", "TAF VTPM 311700Z 3118/0118 08008KT 9999 FEW040", "TAF VTPO 311700Z 3118/0118 02005KT 9999 FEW025", "TAF VTPP 311700Z 3118/0118 28005KT 9999 FEW030", "TAF VTSB 311700Z 3118/0118 00000KT 8000 FEW020 BECMG 3121/3123 1500 BR BKN005 BECMG 0101/0103 05010KT 9999 NSW FEW020 PROB40 TEMPO 0106/0112 VRB15G25KT 4000 TSRA FEW016CB SCT018 BKN100 BECMG 0112/0114 00000KT", "TAF VTSC 311700Z 3118/0118 20003KT 9999 FEW020 BKN100 BECMG 0103/0105 02008KT TEMPO 0106/0112 VRB15G25KT 4000 TSRA FEW016CB SCT018 BKN100 BECMG 0113/0115 20003KT", "TAF VTSE 311700Z 3118/0118 33003KT 8000 FEW020 BECMG 0102/0104 05010KT BECMG 0112/0114 33003KT", "TAF VTSF 311700Z 3118/0118 33003KT 9999 FEW020 BECMG 0103/0105 04008KT TEMPO 0106/0112 VRB15G25KT 4000 TSRA FEW016CB SCT018 BKN100 BECMG 0113/0115 00000KT", "TAF VTSG 311700Z 3118/0118 00000KT 9999 FEW020 BECMG 3120/3122 3000 BR BECMG 0100/0102 06006KT 9999 NSW BECMG 0112/0114 00000KT", "TAF VTSM 311700Z 3118/0118 00000KT 9999 FEW020 BECMG 0102/0104 33008KT BECMG 0113/0115 00000KT", "TAF VTSP 311700Z 3118/0124 00000KT 9999 FEW020 BECMG 0100/0102 08006KT BECMG 0104/0106 28006KT BECMG 0112/0114 00000KT", "TAF VTSR 311700Z 3118/0118 00000KT 9999 FEW020 BECMG 0104/0106 28006KT BECMG 0112/0114 00000KT", "TAF VTSS 311700Z 3118/0118 00000KT 9999 FEW020 SCT100 BECMG 3121/3123 1500 BR BKN005 BECMG 0101/0103 06006KT 9999 NSW FEW020 TEMPO 0106/0113 VRB15G25KT 3000 TSRA FEW016CB SCT018 BKN100 BECMG 0113/0115 00000KT", "TAF VTST 311700Z 3118/0118 00000KT 9999 FEW020 BECMG 0100/0102 06006KT TEMPO 0106/0112 08015G25KT 3000 TSRA FEW016CB SCT018 BKN100 BECMG 0112/0114 00000KT", "TAF VTUD 311700Z 3118/0118 04006KT 8000 NSC", "TAF VTUI 311700Z 3118/0118 05007KT 8000 NSC", "TAF VTUK 311700Z 3118/0118 04006KT 8000 NSC", "TAF VTUL 311700Z 3118/0118 07006KT 7000 NSC", "TAF VTUO 311700Z 3118/0118 06010KT 8000 FEW035", "TAF VTUQ 311700Z 3118/0118 05006KT 8000 NSC", "TAF VTUU 311700Z 3118/0118 02008KT 8000 NSC ", "TAF VTUV 311700Z 3118/0118 05006KT 8000 NSC", "TAF VTUW 311700Z 3118/0118 05007KT 8000 NSC", "TAF VVCI 311700Z 3118/0118 34006KT 9999 FEW030", "TAF VVCR 311700Z 3118/0118 30004KT 8000 FEW015 BECMG 0102/0103 07011KT BECMG 0112/0113 32005KT", "TAF VVCT 311700Z 3118/0118 VRB03KT 9999 SCT015 SCT050 BECMG 0101/0102 34010KT", "TAF VVDN 311700Z 3118/0118 30008KT 8000 SCT015 SCT060 TEMPO 3118/3124 4500 RA BECMG 0101/0102 01013KT BECMG 0113/0114 28006KT", "TAF VVNB 311700Z 3118/0118 34005KT 9999 FEW030", "TAF VVPB 311700Z 3118/0118 25007KT 8000 SCT015 BKN050 TEMPO 3118/3124 4500 RA BECMG 0102/0103 34012KT BECMG 0112/0113 26006KT", "TAF VVPQ 311700Z 3118/0118 VRB03KT 9999 SCT017 BECMG 0103/0104 25010KT", "TAF VVTS 311700Z 3118/0124 36006KT 9999 SCT020", "TAF VYMD 311100Z 3112/0112 34005KT 7000 SCT025 TEMPO 3112/3118 36007KT 6000 SCT020 SCT120", "TAF VYNT 311700Z 3118/0118 34005KT 7000 SCT020 FEW025CB SCT120 TEMPO 3118/3124 02004KT 5000 SCT018 FEW023CB SCT120", "TAF VYYY 311700Z 3118/0118 35007KT 7000 SCT020 FEW025TCU BECMG 3123/0101 02002KT 5000 BR TEMPO 0106/0112 29008KT 300V060 6000 BKN016 FEW020TCU", "TAF WAAA 311700Z 3118/0124 11004KT 8000 FEW019 BECMG 0102/0103 30010KT", "TAF WABB 311700Z 3118/0200 02003KT 9999 SCT018 BECMG 3121/3123 09007KT", "TAF WADD 311700Z 3118/0118 VRB05KT 9999 SCT017", "TAF WADL 311100Z 3112/0112 13005KT 7000 SCT016 BECMG 0102/0104 20010KT BKN016", "TAF WALL 311700Z 3118/0124 22006KT 9999 FEW020 PROB30 TEMPO 0106/0109 5000 TSRA FEW015CB BKN015", "TAF WALS 311700Z 3118/0106 36001KT 3000 BR FEW015 BECMG 3122/3124 9999 NSW", "TAF WAMM 311700Z 3118/0124 VRB03KT 9999 SCT020 BECMG 0101/0102 16009KT TEMPO 0104/0107 5000 RA FEW017CB", "TAF WAOO 311700Z 3118/0118 04004KT 9999 SCT018 BECMG 0104/0105 20006KT", "TAF WAPP 311700Z 3118/0118 34005KT 9999 SCT017", "TAF WAQA 311700Z 3118/0106 31010KT 8000 FEW015 TEMPO 3120/3123 5000 TSRA FEW015CB BKN015", "TAF WAQD 311700Z 3118/0106 00000KT 6000 FEW015", "TAF WAQJ 311700Z 3118/0106 00000KT 8000 SCT015 TEMPO 3121/3124 2000 BR", "TAF WAQQ 311700Z 3118/0106 11003KT 8000 FEW015CB SCT015 TEMPO 3120/3123 5000 TSRA BKN015", "TAF WAQT 311700Z 3118/0106 00000KT 9999 FEW015", "TAF WARR 311700Z 3118/0118 26005KT 5000 HZ SCT020 BECMG 0100/0102 08010KT 9999 NSW", "TAF WATT 311700Z 3118/0118 10007KT 8000 SCT016 TEMPO 0105/0109 27013KT 4000 -RA FEW015CB BKN016", "TAF WBGB 311700Z 3118/0118 26005KT 9999 SCT016 TEMPO 3118/3122 4000 TSRA FEW015CB TEMPO 3122/0102 5000 RA FEW005", "TAF WBGG 311700Z 3118/0118 25005KT 9999 SCT020 TEMPO 0106/0110 5000 TSRA FEW015CB", "TAF WBGR 311700Z 3118/0118 26007KT 9999 SCT014 TEMPO 3118/3122 5000 RA FEW005 TEMPO 3122/0102 5000 RA FEW005 TEMPO 0108/0112 4000 TSRA FEW015CB", "TAF WBGS 311700Z 3118/0118 25005KT 9999 SCT017 TEMPO 3118/3122 5000 RA FEW005 TEMPO 3122/0101 4000 BR FEW000", "TAF WBKK 311700Z 3118/0118 16005KT 9000 -RA FEW013 SCT035 BECMG 3122/0100 22007KT 9999 NSW FEW014 PROB40 TEMPO 0107/0111 5000 TSRA FEW010 FEW016CB SCT030", "TAF WBKL 311700Z 3118/0118 25005KT 9999 FEW015 TEMPO 3118/3122 3000 RA FEW008 SCT030 TEMPO 0107/0111 4000 TSRA FEW010 FEW016CB SCT030", "TAF WBKS 311700Z 3118/0118 23005KT 9999 FEW015 TEMPO 0110/0114 4000 TSRA FEW008 SCT014 FEW016CB", "TAF WBKW 311700Z 3118/0118 31008KT 9999 FEW016 TEMPO 3118/3122 29012G25KT 4000 TSRA FEW013 FEW015CB SCT027", "TAF WBSB 311700Z 3118/0200 20010KT 9999 FEW003 FEW015CB TEMPO 3118/0100 20010G20KT 4000 TSRA BECMG 0100/0102 25013KT TEMPO 0100/0104 22015G25KT 1000 +SHRA", "TAF WIDD 311700Z 3118/0118 35005KT 9999 FEW014", "TAF WIEE 311700Z 3118/0118 02003KT 9999 SCT020 TEMPO 3123/0101 3000 RA BKN018", "TAF WIHH 311700Z 3118/0118 18005KT 5000 HZ SCT020 TEMPO 3118/3120 09006KT 4000 -RA SCT018 BECMG 3121/3123 00000KT", "TAF WIII 311700Z 3118/0124 23005KT 5000 HZ SCT020 BECMG 0101/0103 03010KT 8000 NSW", "TAF WIMM 311700Z 3118/0118 VRB06KT 4000 -TSRA FEW016CB SCT017 BECMG 3120/3122 HZ SCT018 BECMG 0101/0103 02008KT 9999 NSW BECMG 0110/0112 VRB06KT 4000 -TSRA FEW016CB", "TAF WIPP 311700Z 3118/0118 10005KT 9999 SCT010 TEMPO 3121/3124 3000 BR", "TAF WITT 311700Z 3118/0118 14005KT 9999 SCT018 TEMPO 0107/0111 34012KT 3000 TSRA FEW015CB", "TAF WMAP 311700Z 3118/0118 VRB02KT 9999 FEW020 PROB30 TEMPO 0106/0110 31006KT 4000 TSRA FEW017CB SCT019", "TAF WMBT 311700Z 3118/0118 VRB02KT 9999 FEW025", "TAF WMKA 311700Z 3118/0118 VRB03KT 9999 FEW028 BECMG 0104/0106 25006KT FEW020 TEMPO 0108/0112 5000 TSRA FEW010 FEW017CB BECMG 0111/0113 VRB03KT FEW028", "TAF WMKB 311700Z 3118/0118 VRB02KT 8000 SCT024 BECMG 0104/0106 29008KT TEMPO 0106/0110 6000 TSRA FEW017CB", "TAF WMKC 311700Z 3118/0118 VRB02KT 9999 FEW020 TEMPO 3118/3121 7000 -TSRA FEW010 FEW017CB", "TAF WMKE 311700Z 3118/0118 VRB03KT 9999 SCT020", "TAF WMKI 311700Z 3118/0118 05005KT 8000 SCT025 BECMG 0100/0102 03003KT 9000 FEW019 TEMPO 0108/0112 22008KT 5000 TSRA FEW017CB", "TAF WMKJ 311700Z 3118/0118 VRB02KT 9999 FEW020 PROB30 TEMPO 0106/0110 34006KT 4000 TSRA FEW017CB SCT019", "TAF WMKK 311700Z 3118/0200 VRB02KT 9999 FEW020 PROB30 TEMPO 0105/0109 31006KT 4000 TSRA FEW017CB SCT019", "TAF WMKL 311700Z 3118/0118 00000KT 9999 FEW026 BECMG 0104/0106 25006KT FEW020 BECMG 0111/0113 VRB03KT 7000 -RA FEW012 SCT024", "TAF WMKM 311700Z 3118/0118 VRB02KT 9999 FEW020 PROB30 TEMPO 0103/0108 28006KT 4000 TSRA FEW017CB SCT020", "TAF WMKN 311700Z 3118/0118 VRB03KT 9999 FEW020", "TAF WMKP 311700Z 3118/0118 00000KT 8000 FEW025 BECMG 0104/0106 23007KT 9999 FEW020 BECMG 0111/0113 00000KT 7000 -RA FEW012 SCT024", "TAF WMPA 310500Z 3106/0106 VRB02KT 8000 FEW021 TEMPO 3111/3115 6000 TSRA FEW017CB", "TAF WMSA 311700Z 3118/0118 VRB02KT 9999 FEW020 PROB30 TEMPO 0105/0109 29006KT 4000 TSRA FEW017CB SCT019", "TAF WPDL 311720Z 3118/0106 15006KT 9999 SCT025 FM010000 33008KT 9999 SCT030", "TAF WSAP 311700Z 3118/0200 27006KT 9999 FEW015 BKN020 TEMPO 0103/0106 3000 TSRA FEW012CB BKN015", "TAF WSSL 311700Z 3118/0200 27006KT 9999 FEW015 BKN020 TEMPO 0103/0106 3000 TSRA FEW012CB BKN015", "TAF WSSS 311700Z 3118/0200 27006KT 9999 FEW015 BKN020 TEMPO 0103/0106 3000 TSRA FEW012CB BKN015", "TAF AMD YAMB 311856Z 3118/0118 30013KT 8000 -RA SCT020 BKN040 FM312200 29015G30KT 8000 -RA FEW010 BKN040 FM010300 28013G25KT 9999 NSW SCT035 FM010900 29012KT CAVOK TEMPO 3118/0103 VRB30G45KT 3000 RA BKN010 PROB30 TEMPO 3118/0103 VRB35G50KT 1000 TSRA SCT015 SCT070CB", "TAF YBAS 311720Z 3118/0118 22014KT CAVOK FM312300 20015G25KT CAVOK FM010200 20014KT CAVOK FM011000 17008KT CAVOK", "TAF AMD YBBN 311852Z 3118/0200 35020KT 9999 -RA FEW015 FM312100 35015KT 8000 -RA FEW010 BKN040 FM312300 27015G28KT 8000 -RA FEW010 BKN040 FM010400 26015G28KT 9999 NSW FEW020 FM010900 29013KT CAVOK TEMPO 3118/0104 VRB30G45KT 3000 RA BKN010 PROB30 TEMPO 3118/0104 VRB35G50KT 1000 TSRA BKN008 SCT070CB", "TAF AMD YBCG 311704Z 3118/0118 35018KT 9999 -RA SCT010 FM312100 34018G30KT 9000 -RA FEW010 BKN040 FM010000 30015G25KT 9000 -RA FEW010 BKN030 FM010400 31015G25KT 9999 NSW FEW020 SCT040 FM010900 33013KT CAVOK TEMPO 3118/0104 VRB30G45KT 3000 RA BKN010 PROB30 TEMPO 3118/0104 VRB35G50KT 1000 TSRA BKN008 SCT070CB", "TAF YBCS 311701Z 3118/0118 30006KT 9999 SCT018 BKN025 FM010000 01014KT 9999 FEW035 FM010900 34010KT 9999 SCT018 BKN025 TEMPO 0115/0118 9999 BKN015 PROB30 TEMPO 0108/0112 VRB20G35KT 1000 TSRA BKN010 SCT025CB", "TAF YBHM 311701Z 3118/0106 34018KT 9999 SCT012 BKN020 FM010100 33025KT 9999 BKN025 PROB30 TEMPO 3123/0106 VRB20G40KT 1000 TSRA BKN010 SCT020CB", "TAF YBLN 311714Z 3118/0118 18005KT 9999 FEW015 BKN020 FM010100 15006KT 9999 SCT020 BKN040 FM010600 18010KT 9999 BKN035 FM011200 15008KT CAVOK", "TAF YBMA 311720Z 3118/0106 19014KT CAVOK", "TAF AMD YBRK 311922Z 3119/0118 36007KT 9999 -RA SCT012 FM312000 35010KT 9999 -SHRA SCT010 FM312300 33012KT 9999 -SHRA BKN025 FM010800 32007KT 9999 NSW SCT020 FM011300 28006KT CAVOK FM011500 23008KT CAVOK TEMPO 3120/0100 VRB30G45KT 1000 TSRA BKN010 SCT080CB TEMPO 0100/0107 VRB30G45KT 1000 TSRA BKN010 SCT030CB", "TAF YBRM 311708Z 3118/0118 14013KT CAVOK FM312200 12015G25KT CAVOK FM010300 14014KT CAVOK FM010700 20010KT CAVOK FM011300 14010KT CAVOK", "TAF YBTL 311701Z 3118/0118 35014KT 9999 FEW015 SCT020 FM312100 33014KT 9999 SCT025 FM010200 01016KT 9999 -SHRA SCT025 FM010600 33014KT 9999 -SHRA SCT025 FM011200 23008KT 9999 NSW SCT030 TEMPO 3118/3120 9999 BKN016 PROB40 TEMPO 3123/0110 VRB20G35KT 1000 TSRA BKN010 SCT030CB PROB30 TEMPO 0116/0118 VRB20G35KT 1000 TSRA BKN010 SCT030CB", "TAF AMD YBWW 311705Z 3118/0118 35010KT 9999 -RA SCT030 FM312000 27012KT 8000 -RA SCT010 BKN020 FM010200 29013KT 9999 NSW SCT020 FM010400 29016G26KT 9999 SCT030 FM010700 27013KT CAVOK TEMPO 3118/0102 3000 RA BKN010 PROB30 TEMPO 3118/3120 VRB30G45KT 1000 TSRA BKN008 SCT070CB", "TAF AMD YCFS 311712Z 3118/0118 35014KT 9999 -RA SCT020 FM010200 34018G28KT CAVOK FM010800 30014KT CAVOK FM011200 27012KT 9999 FEW050 INTER 3118/3120 35025G45KT 4000 RA BKN010 INTER 3120/0103 30030G40KT 5000 RA SCT015", "TAF AMD YCIN 311841Z 3119/0108 14016KT CAVOK BECMG 3122/3123 14020G30KT CAVOK FM010200 13014KT CAVOK", "TAF AMD YFRT 311917Z 3119/0108 25020G30KT 9999 -SHRA SCT015 BECMG 3120/3121 22015G25KT 9999 -SHRA BKN015 BECMG 0100/0101 20015G25KT 9999 NSW BKN025 FM010300 20016G28KT 9999 SCT030 TEMPO 3119/0100 4000 SHRA BKN008", "TAF YGEL 311714Z 3118/0112 15007KT CAVOK FM010400 19016G26KT CAVOK FM011000 17012KT CAVOK", "TAF AMD YGLA 311749Z 3118/0106 35010KT 9999 SCT015 FM312200 34014KT 9999 BKN020 FM010400 27011KT 9999 BKN020 TEMPO 3118/3122 9999 BKN012 INTER 0100/0106 3000 SHRA BKN010 PROB30 TEMPO 3121/0100 VRB35G45KT 1000 TSRA BKN010 SCT080CB PROB30 TEMPO 0100/0106 VRB35G45KT 1000 TSRA BKN010 SCT030CB", "TAF YHID 311701Z 3118/0118 10012KT 9999 SCT025 FM010200 03010KT 9999 FEW030 FM011400 12006KT 9999 SCT025", "TAF YLHI 311706Z 3118/0118 01020G30KT 9999 SCT015 FM010400 35030G40KT 9999 -SHRA SCT020 BKN035 FM010600 34030G40KT 9999 -SHRA BKN015 FM011400 30015G25KT 9999 NSW BKN025 FM011600 30015G25KT 9999 SCT030 TEMPO 0104/0106 4000 SHRA BKN015 TEMPO 0106/0114 3000 SHRA BKN008", "TAF AMD YMAV 311705Z 3118/0118 28010KT 9999 SCT035 FM010100 24010KT 9999 -SHRA SCT020 BKN030 FM011100 26010KT 9999 NSW SCT030 INTER 0101/0109 3000 SHRA SCT015 FEW035TCU", "TAF YMHB 311717Z 3118/0118 28010KT 9999 SCT050 FM010000 27010KT 9999 -SHRA SCT050 FM010400 22014KT 9999 -SHRA SCT020 BKN035 FM010800 31010KT 9999 NSW SCT025", "TAF YMLT 311716Z 3118/0118 34008KT CAVOK FM010200 30015G25KT CAVOK FM010700 30014KT CAVOK FM011000 17008KT CAVOK", "TAF AMD YMML 311705Z 3118/0200 28010KT 9999 SCT035 FM010100 24010KT 9999 -SHRA SCT020 BKN030 FM011100 26010KT 9999 NSW SCT030 BECMG 0122/0123 24014KT 9999 -SHRA SCT030 INTER 0101/0109 3000 SHRA SCT015 FEW035TCU", "TAF AMD YPAD 311926Z 3119/0200 24018G28KT 9999 -SHRA FEW020 BKN030 FM312300 22020G30KT 9999 -SHRA SCT030 FM011200 22015G25KT 9999 -SHRA BKN030 FM011800 23014KT 9999 -SHRA BKN030 INTER 3119/0109 22025G36KT 3000 SHRAGS SCT015 SCT030TCU INTER 0109/0112 22018G28KT 4000 SHRA SCT015 SCT030TCU INTER 0112/0115 22015G25KT 4000 SHRA SCT015", "TAF YPCC 311724Z 3118/0118 11015KT 9999 -SHRA SCT025 INTER 3118/0103 3000 SHRA BKN010 INTER 0112/0118 3000 SHRA BKN010", "TAF YPDN 311721Z 3118/0200 26010KT 9999 FEW020 FM010300 29014KT 9999 FEW040 FM011000 27010KT 9999 FEW020", "TAF YPEA 311714Z 3118/0112 18005KT CAVOK FM010000 15010KT 9999 SCT030 FM010400 18010KT CAVOK FM010700 23014KT CAVOK", "TAF YPGV 311854Z 3120/0108 31005KT 9999 SCT016 FM010000 35014KT CAVOK FM010400 02014KT CAVOK", "TAF YPJT 311714Z 3118/0112 14005KT 9999 FEW025 FM010400 23014KT CAVOK", "TAF YPKG 311714Z 3118/0118 20010KT 9999 SCT030 FM312000 18010KT 9999 SCT015 BECMG 0100/0102 18010KT 9999 BKN050 FM011000 16010KT 9999 SCT030", "TAF YPKU 311849Z 3120/0108 15007KT CAVOK FM312200 15014KT CAVOK FM010600 16007KT CAVOK", "TAF YPLM 311712Z 3118/0118 20010KT CAVOK FM312300 11015G25KT CAVOK FM010300 09010KT CAVOK BECMG 0109/0110 24017KT CAVOK FM011200 20012KT CAVOK", "TAF YPPD 311707Z 3118/0118 14010KT CAVOK FM312200 11020G30KT CAVOK FM010400 10016KT CAVOK FM010600 07010KT CAVOK FM011000 30010KT CAVOK FM011300 22007KT CAVOK", "TAF YPPH 311719Z 3118/0200 18008KT 9999 FEW050 FM311900 15006KT 9999 FEW025 FM010500 23014KT CAVOK FM011300 18008KT 9999 SCT050 FM011600 10005KT 9999 SCT050", "TAF YPTN 311721Z 3118/0118 32008KT CAVOK FM312200 23010KT CAVOK FM011100 18005KT CAVOK", "TAF AMD YPWR 311900Z 3119/0112 28020G30KT 9999 -SHRA BKN025 FM312200 23022G35KT 9999 NSW FEW025 SCT040 FM010200 23022G35KT CAVOK INTER 3119/3122 26024G36KT 2000 SHRA BKN010 SCT025TCU", "TAF AMD YPXM 311726Z 3117/0118 13012KT 9999 BKN015 FM010400 13012KT 9999 -SHRA SCT003 BKN008 INTER 3117/0100 3000 SHRA BKN005 TEMPO 0108/0118 3000 SHRA BKN003 INTER 0110/0118 0500 DZ BKN001", "TAF AMD YSCB 311707Z 3118/0118 31015G25KT 9999 -RA SCT020 BKN030 FM010900 30012KT 9999 -RA SCT015 BKN025 FM011600 29010KT 9999 NSW SCT030 INTER 3118/3120 30020G30KT 5000 RA BKN020 INTER 0102/0112 29020G30KT 3000 RA BKN015", "TAF AMD YSDU 311829Z 3118/0112 28014KT 9999 SCT030 FM312100 29016G26KT 9999 BKN030 FM010000 30018G28KT 9999 SCT050 FM010400 29020G30KT 9999 -SHRA BKN030 FM010900 29014KT 9999 -SHRA BKN020 INTER 0105/0112 3000 SHRA BKN015 PROB30 INTER 0105/0111 VRB25G35KT 2000 TSRA BKN008 SCT020CB", "TAF YSNF 311715Z 3118/0118 09006KT 9999 SCT025 FM312300 04008KT 9999 SCT020 FM010600 01008KT 9999 BKN020", "TAF AMD YSRI 311910Z 3119/0118 30015G25KT 9999 -SHRA SCT050 FM312100 29018G30KT CAVOK FM010000 29018G34KT CAVOK INTER 0105/0112 30025G40KT 7000 -SHRA SCT020", "TAF AMD YSSY 311827Z 3118/0200 30015G25KT 9999 SCT050 FM312100 30020G35KT CAVOK FM010700 30015G25KT 9999 -SHRA FEW045 INTER 0106/0110 29025G40KT 7000 -SHRA SCT020", "TAF AMD YSTW 311826Z 3118/0112 34014KT 9999 -SHRA SCT010 BKN020 BECMG 3122/3123 31020G30KT 9999 NSW SCT045 FM010900 29018G28KT 9999 -SHRA SCT020 BKN030 INTER 3118/3121 29015G25KT 2000 SHRA BKN010 INTER 0109/0112 29030G40KT 3000 SHRA BKN010", "TAF AMD YWLM 311913Z 3119/0118 32018G32KT 9999 -RA FEW040 FM312200 30024G39KT 9999 NSW FEW050 FM010400 30020G30KT CAVOK FM010600 30015G25KT CAVOK FM011000 30018G30KT 9999 -RA SCT030", "TAF ZBAA 311501Z 3118/0118 18003MPS CAVOK TX15/0107Z TN02/3121Z", "TAF ZBAD 311501Z 3118/0118 34004MPS CAVOK TX15/0107Z TN01/3121Z", "TAF ZBHH 311500Z 3118/0118 23004MPS CAVOK TX10/0107Z TNM09/3122Z", "TAF ZBSJ 311509Z 3118/0118 33004MPS 4000 HZ NSC TX16/0107Z TN04/3121Z", "TAF ZBTJ 311501Z 3118/0118 08004MPS 5000 HZ NSC TX15/0106Z TN05/3121Z", "TAF ZBYN 311504Z 3118/0118 09004MPS 5000 HZ NSC TX19/0107Z TN00/3122Z", "TAF ZGGG 311522Z 3118/0118 36008MPS 8000 SCT040 TX28/0107Z TN19/3122Z BECMG 0102/0103 36011G18MPS BECMG 0115/0116 4000 SHRA FEW030CB BKN040", "TAF ZGHA 311502Z 3118/0118 03004MPS 6000 NSC TX25/0107Z TN14/3122Z", "TAF ZGKL 311502Z 3118/0118 05002MPS CAVOK TX27/0107Z TN14/3122Z BECMG 0100/0101 05007MPS BECMG 0111/0112 05002MPS", "TAF ZGNN 311506Z 3118/0118 36004MPS 9999 FEW040 TX29/0107Z TN18/3122Z", "TAF ZGOW 311507Z 3118/0118 06004G10MPS 6000 FEW020 BKN050 TX24/0106Z TN18/3122Z TEMPO 0100/0106 06010G15MPS SHRA SCT011 FEW026CB BKN030 TEMPO 0106/0112 06010G15MPS SHRA SCT011 FEW026CB BKN030", "TAF ZGSZ 311508Z 3118/0118 02010G17MPS 8000 BKN040 TX25/0106Z TN20/0118Z TEMPO 0112/0118 2500 RA", "TAF ZHCC 311508Z 3118/0118 15003MPS 2500 BR NSC TX21/0107Z TN10/3122Z BECMG 3120/3121 0600 FG BECMG 0101/0102 1700 BR BECMG 0102/0103 3000 HZ", "TAF ZHHH 311501Z 3118/0118 03003MPS 6000 NSC TX25/0107Z TN12/3122Z", "TAF ZJHK 311502Z 3118/0118 34004G11MPS 9999 SCT020 TX27/0106Z TN20/3121Z", "TAF ZJSY 311501Z 3118/0118 33003MPS 9999 FEW020 TX30/0106Z TN21/3121Z", "TAF ZKPY 310430Z 3106/0106 23003MPS 9999 OVC033 TX17/3106Z TN10/3121Z TEMPO 3109/3118 7000 -RA", "TAF ZKWS 310430Z 3106/0106 24003MPS 9999 OVC030 TX17/3106Z TN10/3121Z", "TAF ZLLL 311501Z 3118/0118 35003MPS 6000 NSC TX15/0107Z TNM02/3123Z", "TAF ZLXY 311501Z 3118/0118 06004MPS 3000 BR NSC TX21/0107Z TN07/3122Z", "TAF ZMCK 311640Z 3118/0124 VRB02MPS 9999 SCT100 TNM15/3122Z TXM02/0107Z BECMG 0104/0106 32005MPS BECMG 0110/0112 VRB02MPS", "TAF ZMUB 311640Z 3118/0124 VRB02MPS 9999 SCT100 TNM18/3122Z TXM02/0107Z BECMG 3122/3124 6000 BECMG 0105/0107 33005MPS 9999 NSW BECMG 0110/0112 VRB02MPS", "TAF ZPPP 311503Z 3118/0118 04004MPS 9999 SCT026 TX18/0108Z TN05/3123Z", "TAF ZSAM 311508Z 3118/0118 04008G14MPS 8000 BKN030 TX23/0106Z TN19/3121Z TEMPO 0106/0112 RA", "TAF ZSFZ 311520Z 3118/0118 03007MPS 6000 BKN015 TX22/0105Z TN17/3121Z BECMG 0104/0106 03012G17MPS TEMPO 0112/0118 SHRA", "TAF ZSHC 311502Z 3118/0118 06003MPS 3000 BR NSC TX23/0106Z TN15/3121Z", "TAF ZSJN 311509Z 3118/0118 09003MPS 1500 BR NSC TX18/0106Z TN04/3121Z BECMG 0100/0101 3500", "TAF ZSNB 311505Z 3118/0118 06004MPS 6000 SCT030 TX21/0106Z TN16/3121Z", "TAF ZSNJ 311502Z 3118/0118 04003MPS 3000 BR NSC TX21/0106Z TN12/3121Z TEMPO 3120/3124 2000", "TAF ZSOF 311503Z 3118/0118 05003MPS 3000 BR NSC TX22/0106Z TN11/3122Z BECMG 3120/3121 2000 BECMG 3123/3124 3000", "TAF ZSPD 311506Z 3118/0118 03006MPS 6000 BKN020 TX22/0106Z TN15/3121Z", "TAF ZSQD 311502Z 3118/0118 33004MPS 3500 BR NSC TX18/0106Z TN06/3121Z", "TAF ZSSS 311506Z 3118/0118 03004MPS 6000 BKN020 TX22/0106Z TN16/3121Z", "TAF ZUCK 311503Z 3118/0118 30003MPS 6000 FEW050 TX24/0108Z TN13/3122Z", "TAF ZUGY 311523Z 3118/0118 02003MPS 3000 BR BKN033 TX21/0107Z TN08/3122Z BECMG 3119/3120 0300 FG SCT002 BKN005 BKN033 BECMG 0100/0101 0800 BECMG 0101/0102 3000 BR BKN033", "TAF ZUUU 311506Z 3118/0118 22003MPS 6000 SCT030 TX24/0107Z TN13/3122Z BECMG 3121/3122 2700 BR BECMG 3123/3124 1200 BECMG 0101/0102 4000", "TAF ZWSH 311501Z 3118/0118 32004MPS 9999 FEW040 TX16/0109Z TN04/0100Z BECMG 0105/0106 12005MPS", "TAF ZWWW 311501Z 3118/0118 20004MPS 9999 -SHRA BKN040 TX08/0109Z TN02/3123Z BECMG 0103/0104 36004MPS CAVOK BECMG 0113/0114 18004MPS", "TAF ZYCC 311510Z 3118/0118 27005G11MPS 6000 FEW030 TX05/0106Z TNM02/3122Z", "TAF ZYHB 311503Z 3118/0118 23006MPS 6000 FEW030 TX06/0106Z TNM01/3121Z", "TAF ZYTL 311502Z 3118/0118 34004G10MPS 5000 BR SCT033 TX12/0106Z TN07/3122Z", "TAF ZYTX 311501Z 3118/0118 34004MPS 6000 NSC TX10/0106Z TNM01/3121Z"]}