{"station_id": ["AGGH", "AYPY", "BGBW", "BGGH", "BGJN", "BGKK", "BGSF", "BGTL", "BIAR", "BIEG", "BIIS", "BIKF", "BIRK", "BIVM", "BKPR", "CAHR", "CBAR", "CBBC", "CERM", "CMFM", "CMGB", "CPBT", "CPEH", "CPFI", "CPIN", "CPIR", "CPRO", "CPRY", "CPST", "CPSV", "CTCK", "CTNK", "CTRA", "CWAE", "CWAF", "CWAJ", "CWAQ", "CWAR", "CWAV", "CWBA", "CWBK", "CWBO", "CWBS", "CWBT", "CWBU", "CWBV", "CWBY", "CWBZ", "CWCF", "CWCI", "CWCJ", "CWCO", "CWCT", "CWDA", "CWDC", "CWDJ", "CWDK", "CWDM", "CWDO", "CWDQ", "CWDT", "CWDV", "CWDZ", "CWEB", "CWEE", "CWEF", "CWEH", "CWEK", "CWEL", "CWEP", "CWEQ", "CWER", "CWEU", "CWEW", "CWEZ", "CWFD", "CWFF", "CWFJ", "CWFQ", "CWGB", "CWGD", "CWGH", "CWGL", "CWGM", "CWGR", "CWGT", "CWGW", "CWGY", "CWHI", "CWHL", "CWHO", "CWHP", "CWHQ", "CWHT", "CWHV", "CWID", "CWIG", "CWIJ", "CWIK", "CWIL", "CWIP", "CWIS", "CWIT", "CWIW", "CWIX", "CWIZ", "CWJB", "CWJC", "CWJD", "CWJH", "CWJI", "CWJO", "CWJR", "CWJT", "CWJU", "CWJV", "CWJW", "CWJX", "CWKD", "CWKG", "CWKH", "CWKK", "CWKM", "CWKO", "CWKP", "CWKX", "CWLB", "CWLC", "CWLE", "CWLI", "CWLM", "CWLS", "CWLX", "CWLY", "CWME", "CWMJ", "CWMM", "CWMQ", "CWMT", "CWMZ", "CWNC", "CWND", "CWNE", "CWNH", "CWNK", "CWNM", "CWNP", "CWNQ", "CWNZ", "CWOB", "CWOC", "CWOD", "CWOE", "CWOY", "CWPC", "CWPD", "CWPE", "CWPF", "CWPK", "CWPO", "CWPR", "CWPX", "CWPZ", "CWQH", "CWQK", "CWQO", "CWQP", "CWQR", "CWQS", "CWQV", "CWRA", "CWRH", "CWRJ", "CWRK", "CWRM", "CWRN", "CWRO", "CWRT", "CWRU", "CWRX", "CWRY", "CWRZ", "CWSA", "CWSD", "CWSF", "CWSG", "CWSK", "CWSL", "CWSP", "CWSR", "CWSS", "CWST", "CWSW", "CWTA", "CWTG", "CWTN", "CWTT", "CWTY", "CWUS", "CWUW", "CWUX", "CWVF", "CWVH", "CWVI", "CWVN", "CWVP", "CWVQ", "CWVT", "CWVU", "CWWA", "CWWB", "CWWE", "CWWF", "CWWK", "CWWL", "CWWS", "CWWZ", "CWXA", "CWXC", "CWXI", "CWXL", "CWYJ", "CWYL", "CWYY", "CWZA", "CWZG", "CWZL", "CWZN", "CWZO", "CWZQ", "CWZW", "CXAF", "CXAG", "CXAJ", "CXAK", "CXAT", "CXBA", "CXBI", "CXBK", "CXBO", "CXBR", "CXBW", "CXCA", "CXCD", "CXCK", "CXCP", "CXCS", "CXDB", "CXDE", "CXDI", "CXDK", "CXDW", "CXEA", "CXEC", "CXEG", "CXET", "CXFM", "CXFR", "CXGH", "CXHA", "CXHD", "CXHM", "CXHP", "CXHR", "CXIB", "CXKA", "CXKE", "CXKI", "CXKM", "CXKT", "CXLB", "CXLL", "CXMD", "CXMG", "CXMI", "CXMM", "CXMO", "CXMY", "CXNM", "CXNP", "CXOL", "CXOX", "CXOY", "CXPA", "CXPC", "CXPL", "CXRB", "CXRH", "CXRL", "CXSC", "CXSH", "CXSL", "CXSP", "CXTD", "CXTH", "CXTN", "CXTO", "CXTP", "CXTV", "CXVM", "CXVN", "CXVW", "CXWB", "CXWM", "CXWN", "CXYH", "CXZC", "CXZV", "CYAH", "CYAM", "CYAT", "CYAY", "CYAZ", "CYBB", "CYBC", "CYBD", "CYBG", "CYBK", "CYBL", "CYBQ", "CYBR", "CYBU", "CYBW", "CYBX", "CYCA", "CYCB", "CYCD", "CYCG", "CYCK", "CYCO", "CYCQ", "CYCS", "CYCY", "CYDA", "CYDB", "CYDC", "CYDF", "CYDL", "CYDN", "CYDP", "CYDQ", "CYEG", "CYEK", "CYEN", "CYER", "CYET", "CYEV", "CYFB", "CYFC", "CYFO", "CYFS", "CYFT", "CYGE", "CYGH", "CYGK", "CYGL", "CYGP", "CYGR", "CYGT", "CYGV", "CYGW", "CYGX", "CYHA", "CYHD", "CYHE", "CYHI", "CYHK", "CYHM", "CYHU", "CYHY", "CYHZ", "CYIN", "CYIO", "CYIV", "CYJT", "CYKA", "CYKD", "CYKF", "CYKG", "CYKJ", "CYKL", "CYKY", "CYLA", "CYLD", "CYLH", "CYLJ", "CYLL", "CYLU", "CYLW", "CYMA", "CYMH", "CYMM", "CYMO", "CYMT", "CYMU", "CYMX", "CYNA", "CYND", "CYNE", "CYNM", "CYOC", "CYOD", "CYOJ", "CYOO", "CYOW", "CYPA", "CYPC", "CYPD", "CYPE", "CYPH", "CYPL", "CYPO", "CYPQ", "CYPR", "CYPW", "CYPX", "CYPY", "CYQA", "CYQB", "CYQD", "CYQF", "CYQG", "CYQH", "CYQI", "CYQK", "CYQL", "CYQM", "CYQQ", "CYQR", "CYQT", "CYQU", "CYQV", "CYQW", "CYQX", "CYQY", "CYQZ", "CYRA", "CYRB", "CYRJ", "CYRL", "CYRQ", "CYRT", "CYRV", "CYSB", "CYSC", "CYSF", "CYSJ", "CYSK", "CYSM", "CYSN", "CYTE", "CYTH", "CYTL", "CYTQ", "CYTR", "CYTS", "CYTZ", "CYUA", "CYUB", "CYUL", "CYUS", "CYUT", "CYUX", "CYUY", "CYVC", "CYVL", "CYVM", "CYVO", "CYVP", "CYVQ", "CYVR", "CYVT", "CYVV", "CYWE", "CYWG", "CYWH", "CYWK", "CYWL", "CYXC", "CYXE", "CYXH", "CYXJ", "CYXL", "CYXP", "CYXQ", "CYXR", "CYXS", "CYXT", "CYXU", "CYXX", "CYXY", "CYXZ", "CYYB", "CYYC", "CYYD", "CYYE", "CYYF", "CYYG", "CYYH", "CYYJ", "CYYL", "CYYN", "CYYQ", "CYYR", "CYYT", "CYYU", "CYYW", "CYYY", "CYYZ", "CYZE", "CYZF", "CYZH", "CYZP", "CYZR", "CYZS", "CYZT", "CYZU", "CYZV", "CYZW", "CYZX", "CYZY", "CZBF", "CZCP", "CZCR", "CZDB", "CZEL", "CZEV", "CZFA", "CZFM", "CZFS", "CZHY", "CZKD", "CZMD", "CZMJ", "CZMT", "CZOL", "CZPC", "CZPS", "CZRP", "CZSJ", "CZSM", "CZSP", "CZST", "CZTB", "CZUM", "CZVL", "CZZJ", "DAAE", "DAAG", "DAAJ", "DAAP", "DAAT", "DAAV", "DAAY", "DABB", "DABC", "DABT", "DAOB", "DAOF", "DAON", "DAOO", "DAOR", "DAUA", "DAUB", "DAUE", "DAUG", "DAUH", "DAUI", "DAUK", "DAUO", "DAUT", "DAUU", "DBBB", "DFFD", "DFOO", "DGAA", "DIAP", "DIBK", "DIYO", "DNAA", "DNEN", "DNGO", "DNIB", "DNIL", "DNKN", "DNMM", "DNMN", "DNPO", "DRRM", "DRRN", "DRRT", "DRZA", "DRZR", "DTKA", "DTMB", "DTNH", "DTTA", "DTTB", "DTTD", "DTTF", "DTTG", "DTTJ", "DTTK", "DTTL", "DTTN", "DTTR", "DTTX", "DTTZ", "DXNG", "DXSK", "EBAW", "EBBE", "EBBL", "EBBR", "EBCI", "EBCV", "EBDT", "EBFN", "EBFS", "EBLB", "EBLG", "EBOS", "EDAC", "EDAH", "EDBC", "EDDB", "EDDC", "EDDE", "EDDF", "EDDG", "EDDH", "EDDK", "EDDL", "EDDM", "EDDN", "EDDP", "EDDR", "EDDS", "EDDV", "EDDW", "EDFH", "EDFM", "EDGS", "EDHI", "EDHK", "EDHL", "EDJA", "EDLN", "EDLP", "EDLV", "EDLW", "EDMA", "EDMO", "EDNY", "EDQM", "EDSB", "EDTL", "EDTY", "EDVE", "EDVK", "EDWE", "EDXW", "EEEI", "EEKE", "EEPU", "EETN", "EETU", "EFET", "EFHA", "EFHK", "EFIV", "EFJO", "EFJY", "EFKE", "EFKI", "EFKK", "EFKS", "EFKT", "EFKU", "EFLP", "EFMA", "EFMI", "EFOU", "EFPO", "EFRO", "EFSA", "EFSI", "EFTP", "EFTU", "EFUT", "EFVA", "EGAA", "EGAC", "EGAE", "EGBB", "EGBJ", "EGCC", "EGCK", "EGCN", "EGDM", "EGDR", "EGDY", "EGEC", "EGFF", "EGGD", "EGGP", "EGGW", "EGHC", "EGHE", "EGHH", "EGHI", "EGHQ", "EGJA", "EGJB", "EGJJ", "EGKA", "EGKB", "EGKK", "EGLC", "EGLF", "EGLL", "EGMC", "EGMD", "EGNH", "EGNJ", "EGNM", "EGNR", "EGNS", "EGNT", "EGNV", "EGNX", "EGOM", "EGOP", "EGOS", "EGOV", "EGPA", "EGPB", "EGPC", "EGPD", "EGPE", "EGPF", "EGPH", "EGPI", "EGPK", "EGPL", "EGPN", "EGPO", "EGPU", "EGQK", "EGQL", "EGQM", "EGQS", "EGSH", "EGSS", "EGSY", "EGTC", "EGTE", "EGTK", "EGUB", "EGUL", "EGUN", "EGUW", "EGVA", "EGVN", "EGVO", "EGVP", "EGWU", "EGXC", "EGXE", "EGXP", "EGXS", "EGXT", "EGXV", "EGXW", "EGXZ", "EGYD", "EGYE", "EGYH", "EGYM", "EGYP", "EHAK", "EHAM", "EHBK", "EHDL", "EHDV", "EHEH", "EHFD", "EHFS", "EHGG", "EHGR", "EHHW", "EHJA", "EHJR", "EHKD", "EHKV", "EHLE", "EHLW", "EHMA", "EHMG", "EHPG", "EHQE", "EHRD", "EHSA", "EHSC", "EHVK", "EHVL", "EHWO", "EICK", "EIDL", "EIDW", "EIKN", "EIKY", "EIME", "EINN", "EISG", "EIWF", "EKAH", "EKBI", "EKCH", "EKEB", "EKKA", "EKRK", "EKRN", "EKSB", "EKSP", "EKVG", "EKYT", "ELLX", "ENAL", "ENAN", "ENAT", "ENBN", "ENBO", "ENBR", "ENBS", "ENBV", "ENCN", "ENDR", "ENDU", "ENEV", "ENFB", "ENFL", "ENGC", "ENGM", "ENHD", "ENHE", "ENHF", "ENHK", "ENHM", "ENJS", "ENKB", "ENKR", "ENLA", "ENLE", "ENMH", "ENML", "ENMS", "ENNA", "ENNE", "ENNM", "ENOA", "ENOL", "ENOV", "ENQA", "ENQR", "ENRA", "ENRM", "ENRO", "ENRS", "ENRY", "ENSB", "ENSD", "ENSE", "ENSF", "ENSK", "ENSL", "ENSR", "ENSS", "ENTC", "ENTO", "ENUG", "ENVA", "ENVD", "ENWV", "ENZV", "EPBY", "EPGD", "EPKK", "EPKT", "EPLB", "EPLL", "EPMO", "EPPO", "EPRZ", "EPSC", "EPSY", "EPWA", "EPWR", "EPZG", "ESCF", "ESCM", "ESDF", "ESGG", "ESGJ", "ESGP", "ESGT", "ESIA", "ESIB", "ESKM", "ESKN", "ESKS", "ESMK", "ESMQ", "ESMS", "ESMT", "ESMV", "ESMX", "ESND", "ESNG", "ESNK", "ESNL", "ESNN", "ESNO", "ESNQ", "ESNS", "ESNU", "ESNV", "ESNX", "ESNZ", "ESOE", "ESOH", "ESOK", "ESOW", "ESPA", "ESPE", "ESSA", "ESSB", "ESSD", "ESSL", "ESSP", "ESST", "ESSV", "ESTA", "ESTL", "ESUP", "ESUT", "ETAD", "ETAR", "ETEB", "ETGG", "ETHA", "ETHB", "ETHC", "ETHF", "ETHL", "ETHN", "ETHS", "ETIC", "ETIH", "ETIK", "ETMN", "ETNH", "ETNL", "ETNN", "ETNS", "ETNT", "ETNW", "ETOU", "ETSB", "ETSH", "ETSI", "ETSL", "ETSN", "ETWM", "EVLA", "EVRA", "EVVA", "EYKA", "EYPA", "EYSA", "EYVI", "FABL", "FACT", "FAEL", "FAGG", "FAKN", "FALA", "FALE", "FALW", "FAMM", "FAOR", "FAPE", "FAPP", "FAUP", "FBKE", "FBMN", "FBPM", "FBSK", "FCBB", "FCPP", "FDBB", "FDMY", "FDOT", "FDPP", "FDSK", "FDST", "FGSL", "FIMP", "FJDG", "FKKL", "FMCH", "FMCZ", "FMEE", "FMEP", "FMMI", "FMMT", "FMNA", "FMNM", "FMNN", "FMSD", "FNCA", "FNCT", "FNHU", "FNLU", "FNSO", "FNUG", "FOGM", "FOGO", "FOGR", "FOOB", "FOOG", "FOOL", "FOON", "FQBR", "FQCH", "FQIN", "FQLC", "FQMA", "FQNP", "FQPB", "FQQL", "FQTT", "FQVL", "FQXA", "FSIA", "FTTA", "FTTC", "FTTJ", "FWKI", "FYGF", "FYKM", "FYLZ", "FYOA", "FYRU", "FYWB", "FYWE", "FYWH", "FZAA", "GABS", "GAKD", "GAMB", "GANR", "GBYD", "GCFV", "GCLA", "GCLP", "GCRR", "GCTS", "GCXO", "GECE", "GEML", "GGOV", "GLRB", "GMAD", "GMAT", "GMFF", "GMFK", "GMFO", "GMME", "GMMI", "GMMN", "GMMW", "GMMX", "GMMZ", "GMTA", "GMTN", "GMTT", "GOBD", "GOGG", "GOGK", "GOGS", "GOOD", "GOOG", "GOOK", "GOOY", "GOSM", "GOSP", "GOSS", "GOTK", "GOTT", "GQNO", "GQPP", "GUCY", "GVAC", "GVBA", "GVNP", "GVSV", "HAAB", "HDAM", "HEAT", "HEBA", "HEBL", "HECA", "HECP", "HEGN", "HEIS", "HELX", "HEMA", "HEMM", "HEPS", "HESG", "HESH", "HESN", "HESW", "HETR", "HKEL", "HKEM", "HKGA", "HKJK", "HKKT", "HKME", "HKML", "HKMO", "HKNI", "HKNK", "HKNW", "HKWJ", "HRYR", "HRZA", "HTAR", "HTBU", "HTDA", "HTDO", "HTIB", "HTIR", "HTJN", "HTKA", "HTKJ", "HTMG", "HTMP", "HTMT", "HTMU", "HTMW", "HTSO", "HTSU", "HTTB", "HTZA", "HUEN", "K04V", "K04W", "K05U", "K06C", "K06D", "K08D", "K0A0", "K0A9", "K0CO", "K0E0", "K0F2", "K0J4", "K0R0", "K0R4", "K0S9", "K0VG", "K10G", "K11R", "K12N", "K13K", "K14Y", "K15M", "K17J", "K18A", "K18H", "K19S", "K1A6", "K1A9", "K1AM", "K1AW", "K1BM", "K1BW", "K1CM", "K1CW", "K1D1", "K1DM", "K1DW", "K1EW", "K1F0", "K1FM", "K1FW", "K1H2", "K1HM", "K1HW", "K1IW", "K1JM", "K1JW", "K1K1", "K1KM", "K1KW", "K1LM", "K1M4", "K1M5", "K1MM", "K1MW", "K1NM", "K1OM", "K1P1", "K1R7", "K1R8", "K1S3", "K1U7", "K1V4", "K1V6", "K1YT", "K20U", "K20V", "K21D", "K22N", "K24A", "K24J", "K27K", "K28J", "K2A0", "K2D5", "K2DP", "K2G2", "K2G9", "K2J3", "K2J5", "K2M2", "K2P2", "K2R9", "K2V5", "K2W6", "K2WX", "K33N", "K33V", "K35A", "K36K", "K38S", "K3AU", "K3D2", "K3F3", "K3I2", "K3J7", "K3K3", "K3LF", "K3N8", "K3S8", "K3U3", "K40B", "K40U", "K41U", "K42J", "K46D", "K46U", "K48A", "K49A", "K4A6", "K4A9", "K4BM", "K4F2", "K4I3", "K4M9", "K4MR", "K4O4", "K4S1", "K4S2", "K4V0", "K4V1", "K54A", "K57C", "K5C1", "K5H4", "K5M9", "K5R8", "K5SM", "K5T9", "K63S", "K65S", "K66R", "K6A2", "K6B0", "K6B9", "K6I2", "K6L4", "K6P9", "K6R6", "K6S0", "K6S2", "K6S8", "K74V", "K79S", "K7BM", "K7L2", "K7N0", "K7W4", "K81R", "K82C", "K82V", "K8A0", "K8A3", "K8D3", "K8T6", "K96D", "K9A5", "K9D7", "K9L2", "K9MN", "K9V9", "KAAA", "KAAF", "KAAO", "KAAS", "KAAT", "KABE", "KABH", "KABI", "KABQ", "KABR", "KABY", "KACB", "KACJ", "KACK", "KACP", "KACQ", "KACT", "KACV", "KACY", "KADC", "KADF", "KADG", "KADH", "KADS", "KADT", "KADU", "KADW", "KAEG", "KAEJ", "KAEL", "KAEX", "KAFF", "KAFJ", "KAFK", "KAFN", "KAFO", "KAFP", "KAFW", "KAGC", "KAGI", "KAGO", "KAGS", "KAHN", "KAHQ", "KAIA", "KAID", "KAIG", "KAIK", "KAIO", "KAIT", "KAIZ", "KAJG", "KAJO", "KAJR", "KAJZ", "KAKH", "KAKO", "KAKQ", "KAKR", "KALB", "KALI", "KALK", "KALM", "KALN", "KALO", "KALS", "KALW", "KALX", "KAMA", "KAMG", "KAMN", "KAMW", "KANB", "KAND", "KANE", "KANJ", "KANK", "KANQ", "KANW", "KAOH", "KAOO", "KAPA", "KAPC", "KAPF", "KAPN", "KAPS", "KAQO", "KAQP", "KAQV", "KAQW", "KAQX", "KARA", "KARB", "KARG", "KARM", "KARR", "KART", "KARW", "KASD", "KASE", "KASG", "KASH", "KASJ", "KASL", "KASN", "KAST", "KASW", "KASX", "KATA", "KATL", "KATP", "KATS", "KATT", "KATW", "KATY", "KAUG", "KAUH", "KAUM", "KAUN", "KAUO", "KAUS", "KAUW", "KAVC", "KAVK", "KAVL", "KAVP", "KAVQ", "KAVX", "KAWG", "KAWM", "KAWO", "KAXA", "KAXH", "KAXN", "KAXS", "KAXV", "KAXX", "KAYS", "KAZC", "KAZE", "KAZO", "KBAB", "KBAC", "KBAD", "KBAF", "KBAK", "KBAM", "KBAN", "KBAX", "KBAZ", "KBBB", "KBBD", "KBBG", "KBBP", "KBBW", "KBCB", "KBCE", "KBCK", "KBCR", "KBCT", "KBDE", "KBDG", "KBDH", "KBDL", "KBDN", "KBDR", "KBDU", "KBEA", "KBEC", "KBED", "KBEH", "KBFD", "KBFF", "KBFI", "KBFL", "KBFM", "KBGD", "KBGE", "KBGF", "KBGM", "KBGR", "KBHB", "KBHC", "KBHK", "KBHM", "KBID", "KBIE", "KBIF", "KBIH", "KBIJ", "KBIL", "KBIS", "KBIV", "KBIX", "KBJC", "KBJI", "KBJJ", "KBKB", "KBKD", "KBKE", "KBKF", "KBKL", "KBKS", "KBKT", "KBKV", "KBKW", "KBKX", "KBLF", "KBLH", "KBLI", "KBLM", "KBLU", "KBLV", "KBMC", "KBMG", "KBMI", "KBML", "KBMQ", "KBMT", "KBNA", "KBNO", "KBNW", "KBOI", "KBOK", "KBOS", "KBOW", "KBPC", "KBPG", "KBPI", "KBPK", "KBPT", "KBQK", "KBQP", "KBQX", "KBRD", "KBRG", "KBRL", "KBRO", "KBRY", "KBTA", "KBTL", "KBTN", "KBTP", "KBTR", "KBTV", "KBUF", "KBUR", "KBUU", "KBUY", "KBVI", "KBVN", "KBVO", "KBVS", "KBVU", "KBVX", "KBVY", "KBWG", "KBWI", "KBWP", "KBWW", "KBXA", "KBXK", "KBYG", "KBYI", "KBYL", "KBYS", "KBYY", "KBZN", "KC07", "KC09", "KC29", "KC35", "KC65", "KC75", "KC83", "KC99", "KCAD", "KCAE", "KCAG", "KCAK", "KCAO", "KCAR", "KCAV", "KCBE", "KCBF", "KCBG", "KCBK", "KCBM", "KCCB", "KCCO", "KCCR", "KCCU", "KCCY", "KCDA", "KCDC", "KCDD", "KCDI", "KCDJ", "KCDN", "KCDR", "KCDS", "KCDW", "KCEC", "KCEF", "KCEU", "KCEW", "KCEY", "KCEZ", "KCFD", "KCFE", "KCFJ", "KCFS", "KCFV", "KCGC", "KCGE", "KCGF", "KCGI", "KCGZ", "KCHA", "KCHD", "KCHK", "KCHO", "KCHS", "KCIC", "KCID", "KCII", "KCIN", "KCIR", "KCIU", "KCJR", "KCKB", "KCKC", "KCKF", "KCKI", "KCKM", "KCKN", "KCKP", "KCKV", "KCKZ", "KCLE", "KCLI", "KCLL", "KCLM", "KCLS", "KCLT", "KCLW", "KCMA", "KCMD", "KCMH", "KCMI", "KCMR", "KCMX", "KCMY", "KCNB", "KCNC", "KCNI", "KCNK", "KCNM", "KCNO", "KCNU", "KCNW", "KCNY", "KCOD", "KCOE", "KCOF", "KCOM", "KCON", "KCOQ", "KCOS", "KCOT", "KCOU", "KCPC", "KCPR", "KCPS", "KCPT", "KCPU", "KCPW", "KCQB", "KCQC", "KCQF", "KCQM", "KCQT", "KCQW", "KCQX", "KCRE", "KCRG", "KCRP", "KCRQ", "KCRS", "KCRW", "KCRX", "KCSG", "KCSM", "KCSQ", "KCSV", "KCTB", "KCTJ", "KCTY", "KCTZ", "KCUB", "KCUH", "KCUL", "KCUT", "KCVC", "KCVG", "KCVH", "KCVN", "KCVO", "KCVS", "KCVX", "KCWA", "KCWC", "KCWF", "KCWI", "KCWN", "KCWV", "KCXE", "KCXO", "KCXP", "KCXU", "KCXW", "KCXY", "KCYD", "KCYS", "KCZL", "KCZT", "KD07", "KD25", "KD39", "KD55", "KD57", "KD60", "KD73", "KD95", "KDAA", "KDAB", "KDAG", "KDAL", "KDAN", "KDAW", "KDAY", "KDBN", "KDBQ", "KDCA", "KDCM", "KDCU", "KDCY", "KDDC", "KDDH", "KDEC", "KDED", "KDEH", "KDEN", "KDEQ", "KDET", "KDEW", "KDFI", "KDFW", "KDGW", "KDHN", "KDHT", "KDIJ", "KDIK", "KDKB", "KDKK", "KDKR", "KDKX", "KDLF", "KDLH", "KDLN", "KDLO", "KDLS", "KDLZ", "KDMA", "KDMH", "KDMN", "KDMO", "KDMW", "KDNA", "KDNL", "KDNN", "KDNS", "KDNV", "KDOV", "KDPA", "KDPL", "KDQH", "KDRA", "KDRI", "KDRM", "KDRO", "KDRT", "KDSF", "KDSM", "KDSV", "KDTA", "KDTL", "KDTN", "KDTO", "KDTS", "KDTW", "KDUA", "KDUB", "KDUC", "KDUH", "KDUJ", "KDUX", "KDVK", "KDVL", "KDVN", "KDVO", "KDVP", "KDVT", "KDWA", "KDWH", "KDWU", "KDWX", "KDXR", "KDXX", "KDYB", "KDYL", "KDYR", "KDYS", "KDYT", "KDZB", "KDZJ", "KE11", "KE16", "KE38", "KE41", "KE42", "KEAN", "KEAR", "KEAT", "KEAU", "KEBA", "KEBG", "KEBS", "KECG", "KECP", "KECS", "KECU", "KEDC", "KEDE", "KEDJ", "KEDN", "KEDU", "KEDW", "KEED", "KEEN", "KEEO", "KEET", "KEFD", "KEFK", "KEGE", "KEGI", "KEGT", "KEGV", "KEHA", "KEHO", "KEHR", "KEIK", "KEKM", "KEKN", "KEKO", "KEKQ", "KEKS", "KEKX", "KEKY", "KELA", "KELD", "KELK", "KELM", "KELN", "KELO", "KELP", "KELY", "KELZ", "KEMM", "KEMP", "KEMT", "KEND", "KENV", "KENW", "KEOK", "KEPH", "KEQA", "KEQY", "KERI", "KERV", "KERY", "KESC", "KESF", "KESN", "KEST", "KETC", "KETH", "KETN", "KEUF", "KEUG", "KEVB", "KEVM", "KEVU", "KEVV", "KEVW", "KEWB", "KEWK", "KEWN", "KEWR", "KEXX", "KEYE", "KEYF", "KEYW", "KEZF", "KEZM", "KEZZ", "KF00", "KF05", "KF17", "KF44", "KF46", "KF70", "KFAF", "KFAM", "KFAR", "KFAT", "KFAY", "KFBG", "KFBL", "KFCI", "KFCM", "KFCS", "KFDK", "KFDR", "KFDY", "KFEP", "KFET", "KFFC", "KFFL", "KFFM", "KFFO", "KFFT", "KFFX", "KFFZ", "KFGN", "KFGX", "KFHB", "KFHR", "KFHU", "KFIG", "KFIN", "KFIT", "KFKA", "KFKL", "KFKN", "KFKR", "KFKS", "KFLD", "KFLG", "KFLL", "KFLO", "KFLP", "KFLY", "KFME", "KFMM", "KFMN", "KFMY", "KFNB", "KFNL", "KFNT", "KFOA", "KFOD", "KFOE", "KFOK", "KFOT", "KFOZ", "KFPK", "KFPR", "KFPY", "KFQD", "KFRG", "KFRI", "KFRM", "KFSD", "KFSE", "KFSI", "KFSK", "KFSM", "KFSO", "KFST", "KFSW", "KFTK", "KFTN", "KFTW", "KFTY", "KFUL", "KFVE", "KFVX", "KFWA", "KFWB", "KFWC", "KFWS", "KFWZ", "KFXE", "KFXY", "KFYE", "KFYG", "KFYJ", "KFYM", "KFYV", "KFZG", "KGAD", "KGAG", "KGAI", "KGAO", "KGBD", "KGBG", "KGBK", "KGCC", "KGCD", "KGCK", "KGCM", "KGCN", "KGCY", "KGDB", "KGDJ", "KGDP", "KGDV", "KGED", "KGEG", "KGEU", "KGEV", "KGEY", "KGEZ", "KGFA", "KGFK", "KGFL", "KGGE", "KGGF", "KGGG", "KGGI", "KGGP", "KGGW", "KGHB", "KGHG", "KGHW", "KGIC", "KGIF", "KGJT", "KGKJ", "KGKT", "KGKY", "KGLD", "KGLE", "KGLH", "KGLR", "KGLS", "KGLW", "KGLX", "KGLY", "KGMJ", "KGMU", "KGNA", "KGNB", "KGNC", "KGNG", "KGNR", "KGNV", "KGOK", "KGON", "KGOO", "KGOP", "KGOV", "KGPC", "KGPI", "KGPM", "KGPT", "KGPZ", "KGRB", "KGRD", "KGRF", "KGRI", "KGRK", "KGRN", "KGRR", "KGRY", "KGSB", "KGSH", "KGSO", "KGSP", "KGTB", "KGTF", "KGTR", "KGTU", "KGUC", "KGUP", "KGUS", "KGUY", "KGVL", "KGVQ", "KGVT", "KGVW", "KGWB", "KGWO", "KGWR", "KGXF", "KGXY", "KGYB", "KGYF", "KGYH", "KGYI", "KGYL", "KGYR", "KGYY", "KGZH", "KGZL", "KGZN", "KGZS", "KH71", "KHAE", "KHAF", "KHAI", "KHAO", "KHBG", "KHBI", "KHBR", "KHBV", "KHCD", "KHCO", "KHCR", "KHDC", "KHDE", "KHDL", "KHDN", "KHDO", "KHEF", "KHEG", "KHEI", "KHEQ", "KHEY", "KHEZ", "KHFD", "KHFF", "KHFJ", "KHGR", "KHHF", "KHHG", "KHHR", "KHHV", "KHHW", "KHIB", "KHIE", "KHIF", "KHII", "KHIO", "KHJH", "KHJO", "KHKA", "KHKS", "KHKY", "KHLB", "KHLC", "KHLG", "KHLN", "KHLR", "KHLX", "KHMN", "KHMP", "KHMT", "KHMZ", "KHNB", "KHND", "KHNR", "KHOB", "KHOE", "KHON", "KHOP", "KHOT", "KHOU", "KHPN", "KHPT", "KHQG", "KHQG", "KHQM", "KHQU", "KHQZ", "KHRF", "KHRI", "KHRJ", "KHRL", "KHRO", "KHRT", "KHRX", "KHSA", "KHSB", "KHSD", "KHSE", "KHSG", "KHSP", "KHST", "KHSV", "KHTL", "KHTS", "KHUF", "KHUL", "KHUM", "KHUT", "KHVE", "KHVN", "KHVR", "KHVS", "KHWD", "KHWO", "KHWV", "KHWY", "KHXD", "KHYA", "KHYI", "KHYR", "KHYS", "KHYW", "KHYX", "KHZD", "KHZE", "KHZL", "KHZR", "KHZX", "KHZY", "KI23", "KI35", "KI63", "KI67", "KI68", "KI69", "KI74", "KI75", "KIAB", "KIAD", "KIAG", "KIAH", "KIBM", "KICL", "KICR", "KICT", "KIDA", "KIDI", "KIDP", "KIEN", "KIER", "KIFA", "KIFP", "KIGM", "KIGQ", "KIIB", "KIIY", "KIJD", "KIJX", "KIKK", "KIKV", "KIKW", "KILE", "KILG", "KILM", "KILN", "KIML", "KIMS", "KIMT", "KIND", "KINF", "KINJ", "KINK", "KINL", "KINS", "KINT", "KINW", "KIOB", "KIOW", "KIPL", "KIPT", "KIRK", "KIRS", "KISM", "KISO", "KISP", "KISQ", "KISW", "KITH", "KITR", "KIWA", "KIWD", "KIWI", "KIXD", "KIYA", "KIZA", "KIZG", "KJAC", "KJAN", "KJAS", "KJAU", "KJAX", "KJBR", "KJCA", "KJCT", "KJDD", "KJDN", "KJEF", "KJER", "KJES", "KJFK", "KJFX", "KJFZ", "KJHN", "KJHW", "KJKA", "KJKJ", "KJKL", "KJLN", "KJMR", "KJMS", "KJNX", "KJOT", "KJPX", "KJQF", "KJSL", "KJSO", "KJST", "KJSY", "KJTC", "KJVL", "KJVW", "KJVY", "KJWG", "KJWN", "KJWY", "KJXN", "KJYG", "KJYL", "KJYM", "KJYR", "KJZI", "KK62", "KK70", "KK88", "KKLS", "KKY8", "KL08", "KL18", "KL35", "KL52", "KLAA", "KLAF", "KLAL", "KLAM", "KLAN", "KLAR", "KLAS", "KLAW", "KLAX", "KLBB", "KLBE", "KLBF", "KLBL", "KLBO", "KLBT", "KLBX", "KLCG", "KLCH", "KLCI", "KLCK", "KLCQ", "KLDM", "KLEB", "KLEE", "KLEW", "KLEX", "KLFI", "KLFK", "KLFT", "KLGA", "KLGB", "KLGC", "KLGD", "KLGF", "KLGU", "KLHB", "KLHM", "KLHQ", "KLHW", "KLHX", "KLIC", "KLIT", "KLJF", "KLKR", "KLKU", "KLKV", "KLLJ", "KLLN", "KLLQ", "KLMO", "KLMT", "KLNA", "KLNC", "KLND", "KLNK", "KLNL", "KLNN", "KLNP", "KLNQ", "KLNR", "KLNS", "KLOL", "KLOM", "KLOR", "KLOT", "KLOU", "KLOZ", "KLPC", "KLPR", "KLRD", "KLRF", "KLRJ", "KLRO", "KLRU", "KLRY", "KLSE", "KLSF", "KLSV", "KLTS", "KLUA", "KLUD", "KLUF", "KLUG", "KLUK", "KLUL", "KLUM", "KLUV", "KLUX", "KLVJ", "KLVK", "KLVL", "KLVM", "KLVN", "KLVS", "KLWA", "KLWB", "KLWC", "KLWD", "KLWM", "KLWS", "KLWT", "KLWV", "KLXL", "KLXN", "KLXT", "KLXV", "KLXY", "KLYH", "KLYO", "KLYV", "KLZU", "KLZZ", "KM01", "KM02", "KM04", "KM08", "KM19", "KM21", "KM30", "KM40", "KM54", "KM75", "KM91", "KMAE", "KMAF", "KMAI", "KMAN", "KMAO", "KMAW", "KMBG", "KMBL", "KMBS", "KMBT", "KMBY", "KMCB", "KMCC", "KMCD", "KMCE", "KMCF", "KMCI", "KMCK", "KMCN", "KMCO", "KMCW", "KMDD", "KMDH", "KMDQ", "KMDS", "KMDT", "KMDW", "KMEB", "KMEH", "KMEI", "KMEM", "KMER", "KMEV", "KMEZ", "KMFD", "KMFE", "KMFI", "KMFR", "KMGC", "KMGE", "KMGG", "KMGJ", "KMGM", "KMGN", "KMGR", "KMGW", "KMGY", "KMHE", "KMHK", "KMHL", "KMHP", "KMHR", "KMHS", "KMHT", "KMHV", "KMIA", "KMIB", "KMIC", "KMIE", "KMIO", "KMIV", "KMIW", "KMJD", "KMJQ", "KMKC", "KMKE", "KMKG", "KMKJ", "KMKL", "KMKN", "KMKO", "KMKS", "KMKT", "KMKY", "KMLB", "KMLC", "KMLE", "KMLF", "KMLI", "KMLJ", "KMLP", "KMLS", "KMLT", "KMLU", "KMMH", "KMMI", "KMMK", "KMML", "KMMT", "KMMU", "KMMV", "KMNE", "KMNH", "KMNI", "KMNM", "KMNN", "KMNV", "KMNZ", "KMOB", "KMOD", "KMOP", "KMOR", "KMOT", "KMOX", "KMPO", "KMPR", "KMPV", "KMPZ", "KMQB", "KMQI", "KMQS", "KMQW", "KMQY", "KMRB", "KMRC", "KMRF", "KMRH", "KMRJ", "KMRT", "KMRY", "KMSL", "KMSN", "KMSO", "KMSP", "KMSS", "KMSV", "KMSY", "KMTC", "KMTH", "KMTJ", "KMTK", "KMTN", "KMTO", "KMTP", "KMTV", "KMTW", "KMUI", "KMUO", "KMUT", "KMVE", "KMVH", "KMVL", "KMVN", "KMVY", "KMWA", "KMWC", "KMWH", "KMWK", "KMWL", "KMWM", "KMWN", "KMWO", "KMWT", "KMXF", "KMYF", "KMYL", "KMYR", "KMYV", "KMYZ", "KMZH", "KMZZ", "KN03", "KN38", "KNAK", "KNBC", "KNBG", "KNBT", "KNCA", "KNDZ", "KNEL", "KNEW", "KNFE", "KNFG", "KNFL", "KNFW", "KNGP", "KNGU", "KNHK", "KNID", "KNIP", "KNJK", "KNJM", "KNJW", "KNKT", "KNKX", "KNLC", "KNMM", "KNOG", "KNOW", "KNOZ", "KNPA", "KNQA", "KNQI", "KNQX", "KNRB", "KNRN", "KNRS", "KNSE", "KNSI", "KNTD", "KNTU", "KNUC", "KNUI", "KNUQ", "KNUW", "KNXF", "KNXP", "KNY0", "KNYC", "KNYG", "KNYL", "KNZY", "KO05", "KO22", "KO32", "KO69", "KOAJ", "KOAK", "KOAR", "KOBE", "KOCF", "KOCH", "KOCQ", "KOCW", "KODO", "KODX", "KOEB", "KOEL", "KOEO", "KOFF", "KOFK", "KOFP", "KOGA", "KOGB", "KOGD", "KOGS", "KOIN", "KOJA", "KOJC", "KOKB", "KOKC", "KOKK", "KOKM", "KOKV", "KOKZ", "KOLE", "KOLF", "KOLG", "KOLM", "KOLS", "KOLU", "KOLV", "KOLY", "KOLZ", "KOMA", "KOMH", "KOMK", "KOMN", "KONA", "KONL", "KONM", "KONO", "KONT", "KONX", "KONZ", "KOOA", "KOPF", "KOPL", "KOPN", "KOQN", "KOQT", "KOQU", "KORB", "KORD", "KORE", "KORF", "KORG", "KORH", "KORL", "KORS", "KOSA", "KOSC", "KOSH", "KOSU", "KOTG", "KOTH", "KOTM", "KOUN", "KOVE", "KOVL", "KOVS", "KOWA", "KOWB", "KOWP", "KOWX", "KOXC", "KOXD", "KOXI", "KOXR", "KOXV", "KOZA", "KOZR", "KOZS", "KOZW", "KP08", "KP28", "KP53", "KP58", "KP59", "KP68", "KP69", "KPAE", "KPAH", "KPAM", "KPAN", "KPAO", "KPBF", "KPBG", "KPBI", "KPBX", "KPCD", "KPCM", "KPCW", "KPCZ", "KPDK", "KPDT", "KPDX", "KPEA", "KPEO", "KPEQ", "KPEX", "KPEZ", "KPGA", "KPGD", "KPGV", "KPHD", "KPHF", "KPHL", "KPHN", "KPHP", "KPHT", "KPHX", "KPIA", "KPIB", "KPIE", "KPIH", "KPIL", "KPIM", "KPIR", "KPIT", "KPKB", "KPKD", "KPKV", "KPLN", "KPLR", "KPLU", "KPMD", "KPMH", "KPMP", "KPMU", "KPMV", "KPNA", "KPNC", "KPNE", "KPNM", "KPNS", "KPNT", "KPOB", "KPOC", "KPOE", "KPOF", "KPOU", "KPOV", "KPOY", "KPPA", "KPPF", "KPPO", "KPPQ", "KPQI", "KPQL", "KPRB", "KPRC", "KPRG", "KPRN", "KPRO", "KPRS", "KPRX", "KPSC", "KPSF", "KPSK", "KPSM", "KPSN", "KPSO", "KPSP", "KPSX", "KPTD", "KPTK", "KPTN", "KPTS", "KPTT", "KPTV", "KPTW", "KPUB", "KPUC", "KPUJ", "KPUW", "KPVB", "KPVC", "KPVD", "KPVF", "KPVG", "KPVJ", "KPVU", "KPVW", "KPWA", "KPWC", "KPWD", "KPWG", "KPWK", "KPWM", "KPWT", "KPXE", "KPYM", "KPYX", "KPZQ", "KPZZ", "KQAZ", "KQBL", "KQD3", "KQEI", "KQEJ", "KQEN", "KQEP", "KQEQ", "KQER", "KQEV", "KQEW", "KQEY", "KQFB", "KQFT", "KQFU", "KQFV", "KQFW", "KQFX", "KQN3", "KQRH", "KQTZ", "KQVF", "KRAC", "KRAL", "KRAP", "KRAS", "KRBD", "KRBG", "KRBL", "KRBO", "KRBW", "KRCA", "KRCE", "KRCM", "KRCR", "KRCV", "KRCX", "KRCZ", "KRDD", "KRDG", "KRDK", "KRDM", "KRDR", "KRDU", "KREG", "KREO", "KRFD", "KRFI", "KRGA", "KRGK", "KRHI", "KRHP", "KRHV", "KRIC", "KRIL", "KRIV", "KRIW", "KRKD", "KRKP", "KRKR", "KRKS", "KRLD", "KRME", "KRMG", "KRMN", "KRMY", "KRNC", "KRND", "KRNH", "KRNM", "KRNO", "KRNP", "KRNT", "KRNV", "KROA", "KROC", "KROG", "KROS", "KROW", "KROX", "KRPD", "KRPH", "KRPJ", "KRPX", "KRQB", "KRQE", "KRQO", "KRRT", "KRSL", "KRSN", "KRST", "KRSV", "KRSW", "KRTN", "KRTS", "KRUE", "KRUG", "KRUQ", "KRUT", "KRVF", "KRVJ", "KRVL", "KRVS", "KRWF", "KRWI", "KRWL", "KRWV", "KRXE", "KRYM", "KRYN", "KRYV", "KRYW", "KRYY", "KRZL", "KRZN", "KRZR", "KRZT", "KS21", "KS24", "KS25", "KS32", "KS33", "KS34", "KS39", "KS52", "KS59", "KS85", "KSAA", "KSAC", "KSAD", "KSAF", "KSAN", "KSAR", "KSAT", "KSAV", "KSAW", "KSAZ", "KSBD", "KSBM", "KSBN", "KSBO", "KSBP", "KSBS", "KSBY", "KSCD", "KSCH", "KSCK", "KSCR", "KSCX", "KSDA", "KSDB", "KSDC", "KSDF", "KSDL", "KSDM", "KSDY", "KSEA", "KSEE", "KSEF", "KSEG", "KSEM", "KSEP", "KSEQ", "KSET", "KSEZ", "KSFB", "KSFF", "KSFM", "KSFO", "KSFQ", "KSFY", "KSFZ", "KSGF", "KSGH", "KSGJ", "KSGR", "KSGS", "KSGT", "KSGU", "KSHD", "KSHL", "KSHN", "KSHR", "KSHV", "KSIF", "KSIK", "KSIY", "KSJC", "KSJS", "KSJT", "KSJX", "KSKA", "KSKF", "KSKX", "KSLB", "KSLC", "KSLE", "KSLG", "KSLH", "KSLI", "KSLK", "KSLN", "KSLO", "KSLR", "KSME", "KSMF", "KSMN", "KSMO", "KSMP", "KSMQ", "KSMS", "KSMX", "KSNA", "KSNC", "KSNH", "KSNK", "KSNL", "KSNS", "KSNT", "KSNY", "KSOA", "KSOP", "KSOW", "KSPB", "KSPD", "KSPF", "KSPG", "KSPI", "KSPS", "KSPW", "KSQI", "KSQL", "KSRB", "KSRC", "KSRE", "KSRQ", "KSRR", "KSSC", "KSSF", "KSSI", "KSTC", "KSTE", "KSTF", "KSTJ", "KSTK", "KSTL", "KSTP", "KSTS", "KSUA", "KSUE", "KSUN", "KSUS", "KSUT", "KSUU", "KSUX", "KSUZ", "KSVC", "KSVH", "KSVN", "KSWF", "KSWO", "KSWW", "KSXK", "KSXS", "KSXT", "KSXU", "KSYF", "KSYI", "KSYM", "KSYN", "KSYR", "KSZL", "KSZT", "KSZY", "KT20", "KT35", "KT41", "KT69", "KT70", "KT74", "KT78", "KT82", "KT89", "KTAD", "KTAN", "KTAZ", "KTBN", "KTBR", "KTBX", "KTCC", "KTCL", "KTCM", "KTCS", "KTCY", "KTDF", "KTDR", "KTDZ", "KTEB", "KTEW", "KTEX", "KTFP", "KTHA", "KTHV", "KTIF", "KTIK", "KTIP", "KTIW", "KTIX", "KTKC", "KTKI", "KTKV", "KTKX", "KTLH", "KTMB", "KTME", "KTMK", "KTMT", "KTNB", "KTNU", "KTOB", "KTOC", "KTOI", "KTOL", "KTOP", "KTPA", "KTPH", "KTPL", "KTQE", "KTQH", "KTQK", "KTQV", "KTRI", "KTRK", "KTRL", "KTRM", "KTSP", "KTTA", "KTTD", "KTTF", "KTTN", "KTTS", "KTUL", "KTUP", "KTUS", "KTVC", "KTVF", "KTVI", "KTVL", "KTVR", "KTVY", "KTWF", "KTWM", "KTWT", "KTXK", "KTXW", "KTYL", "KTYQ", "KTYR", "KTYS", "KTZR", "KU42", "KU55", "KU68", "KUAO", "KUBE", "KUCP", "KUCY", "KUDG", "KUES", "KUGN", "KUIL", "KUIN", "KUKF", "KUKI", "KUKL", "KUKT", "KULM", "KULS", "KUMP", "KUNI", "KUNO", "KUNV", "KUOX", "KUSE", "KUTA", "KUTS", "KUUU", "KUVA", "KUXL", "KUYF", "KUZA", "KVAD", "KVAF", "KVAY", "KVBG", "KVBT", "KVCB", "KVCT", "KVCV", "KVDF", "KVDI", "KVEL", "KVES", "KVGC", "KVGT", "KVHN", "KVIH", "KVIS", "KVJI", "KVKS", "KVLD", "KVLL", "KVNY", "KVOA", "KVOK", "KVPC", "KVPS", "KVPZ", "KVQQ", "KVRB", "KVSF", "KVTA", "KVTI", "KVTN", "KVTP", "KVUJ", "KVUO", "KVVS", "KVVV", "KVWU", "KVYS", "KW22", "KW78", "KW81", "KW99", "KWAL", "KWBF", "KWDG", "KWDR", "KWHP", "KWJF", "KWLD", "KWMC", "KWRB", "KWRI", "KWRL", "KWST", "KWVI", "KWVL", "KWWD", "KWWR", "KX07", "KX26", "KX60", "KXBP", "KXER", "KXIF", "KXLL", "KXMR", "KXNA", "KXNO", "KXNX", "KXSA", "KXVG", "KXWA", "KY19", "KY23", "KY31", "KY49", "KY50", "KY63", "KY70", "KYIP", "KYKM", "KYKN", "KYNG", "KZER", "KZPH", "KZZV", "LATI", "LBBG", "LBGO", "LBPD", "LBSF", "LBWN", "LCEN", "LCLK", "LCPH", "LDDU", "LDOS", "LDPL", "LDRI", "LDSB", "LDSP", "LDZA", "LDZD", "LEAB", "LEAG", "LEAL", "LEAM", "LEAO", "LEAS", "LEBA", "LEBB", "LEBG", "LEBL", "LEBR", "LEBT", "LEBZ", "LECH", "LECO", "LECV", "LEDA", "LEGE", "LEGR", "LEGT", "LEHC", "LEIB", "LEJR", "LELC", "LELL", "LELN", "LELO", "LEMD", "LEMG", "LEMH", "LEMI", "LEMO", "LEPA", "LEPP", "LERI", "LERS", "LERT", "LESA", "LESB", "LESO", "LEST", "LESU", "LETL", "LETO", "LETU", "LEVC", "LEVD", "LEVS", "LEVT", "LEVX", "LEXJ", "LEZG", "LEZL", "LFAC", "LFAQ", "LFAT", "LFBA", "LFBC", "LFBD", "LFBE", "LFBF", "LFBG", "LFBH", "LFBI", "LFBL", "LFBM", "LFBO", "LFBP", "LFBT", "LFBU", "LFBX", "LFBY", "LFBZ", "LFCK", "LFCR", "LFGA", "LFGJ", "LFHP", "LFJL", "LFJR", "LFKB", "LFKC", "LFKF", "LFKJ", "LFKS", "LFLB", "LFLC", "LFLH", "LFLL", "LFLN", "LFLP", "LFLS", "LFLU", "LFLV", "LFLW", "LFLX", "LFLY", "LFMC", "LFMD", "LFMH", "LFMI", "LFMK", "LFML", "LFMN", "LFMO", "LFMP", "LFMT", "LFMU", "LFMV", "LFMY", "LFOA", "LFOB", "LFOE", "LFOH", "LFOJ", "LFOK", "LFOP", "LFOT", "LFOV", "LFOZ", "LFPB", "LFPG", "LFPM", "LFPN", "LFPO", "LFPT", "LFPV", "LFQA", "LFQB", "LFQG", "LFQQ", "LFRB", "LFRC", "LFRD", "LFRG", "LFRH", "LFRI", "LFRJ", "LFRK", "LFRL", "LFRM", "LFRN", "LFRO", "LFRQ", "LFRS", "LFRT", "LFRU", "LFRV", "LFRZ", "LFSB", "LFSD", "LFSG", "LFSI", "LFSL", "LFSM", "LFSN", "LFSO", "LFST", "LFSX", "LFTH", "LFTW", "LFVP", "LFYR", "LGAD", "LGAL", "LGAV", "LGBL", "LGEL", "LGHI", "LGIO", "LGIR", "LGKF", "LGKL", "LGKO", "LGKP", "LGKR", "LGKV", "LGKZ", "LGLM", "LGMK", "LGMT", "LGPA", "LGPZ", "LGRP", "LGRX", "LGSA", "LGSM", "LGSO", "LGSR", "LGTS", "LGZA", "LHBP", "LHDC", "LHKE", "LHPA", "LHPP", "LHPR", "LHSM", "LHSN", "LIBA", "LIBC", "LIBD", "LIBF", "LIBG", "LIBN", "LIBP", "LIBQ", "LIBR", "LIBV", "LIBY", "LICA", "LICB", "LICC", "LICD", "LICF", "LICG", "LICJ", "LICR", "LICT", "LICZ", "LIEA", "LIEB", "LIED", "LIEE", "LIEO", "LIMA", "LIMC", "LIME", "LIMF", "LIMG", "LIMJ", "LIMK", "LIML", "LIMP", "LIMS", "LIMU", "LIMV", "LIMW", "LIMZ", "LIPA", "LIPB", "LIPC", "LIPE", "LIPF", "LIPH", "LIPI", "LIPK", "LIPL", "LIPO", "LIPQ", "LIPR", "LIPS", "LIPX", "LIPY", "LIPZ", "LIQC", "LIQN", "LIQO", "LIRA", "LIRE", "LIRF", "LIRK", "LIRM", "LIRN", "LIRP", "LIRQ", "LIRS", "LIRT", "LIRU", "LIRV", "LIRX", "LIRZ", "LIVC", "LIVD", "LIVE", "LIVF", "LIVM", "LIVP", "LIVR", "LIVT", "LJCE", "LJLJ", "LJMB", "LJPZ", "LKCV", "LKKB", "LKKU", "LKKV", "LKLN", "LKMT", "LKNA", "LKPD", "LKPR", "LKTB", "LLBG", "LLER", "LLHA", "LLIB", "LMML", "LOAN", "LOAV", "LOWG", "LOWI", "LOWK", "LOWL", "LOWS", "LOWW", "LOXZ", "LPAZ", "LPBJ", "LPFL", "LPFR", "LPHR", "LPLA", "LPMA", "LPMR", "LPMT", "LPPD", "LPPR", "LPPS", "LPPT", "LQBK", "LQMO", "LQSA", "LQTZ", "LRAR", "LRBC", "LRBM", "LRBO", "LRBS", "LRCK", "LRCL", "LRCT", "LRCV", "LRFT", "LRIA", "LROD", "LROP", "LRSB", "LRSM", "LRSV", "LRTC", "LRTM", "LRTR", "LRTZ", "LSGC", "LSGG", "LSGS", "LSMA", "LSMD", "LSME", "LSMM", "LSMP", "LSZA", "LSZB", "LSZC", "LSZG", "LSZH", "LSZL", "LSZR", "LSZS", "LTAC", "LTAE", "LTAF", "LTAG", "LTAI", "LTAJ", "LTAN", "LTAP", "LTAR", "LTAT", "LTAU", "LTAY", "LTAZ", "LTBA", "LTBF", "LTBH", "LTBJ", "LTBL", "LTBQ", "LTBR", "LTBS", "LTBT", "LTBU", "LTBY", "LTCA", "LTCB", "LTCC", "LTCD", "LTCE", "LTCF", "LTCG", "LTCI", "LTCJ", "LTCN", "LTCR", "LTCS", "LTCT", "LTCV", "LTCW", "LTDA", "LTFC", "LTFD", "LTFE", "LTFG", "LTFH", "LTFJ", "LTFM", "LTFO", "LUKK", "LWOH", "LWSK", "LXGB", "LYBE", "LYNI", "LYPG", "LYTV", "LZIB", "LZKZ", "LZPP", "LZTT", "LZZI", "MDPC", "MDPP", "MDSD", "MDST", "MGGT", "MGHT", "MGPB", "MGQZ", "MGSJ", "MGZA", "MHCA", "MHCH", "MHGS", "MHLC", "MHLE", "MHLM", "MHNO", "MHPL", "MHRO", "MHSR", "MHTE", "MHTG", "MHTR", "MHYR", "MKJP", "MKJS", "MMAA", "MMAN", "MMBT", "MMCE", "MMCL", "MMCM", "MMCN", "MMCS", "MMCU", "MMCV", "MMCZ", "MMDO", "MMEP", "MMGL", "MMGM", "MMHO", "MMIA", "MMIO", "MMLM", "MMLO", "MMLP", "MMLT", "MMMA", "MMMD", "MMML", "MMMM", "MMMT", "MMMV", "MMMX", "MMMY", "MMMZ", "MMNL", "MMOX", "MMPB", "MMPG", "MMPN", "MMPR", "MMPS", "MMQT", "MMRX", "MMSD", "MMSP", "MMTC", "MMTG", "MMTJ", "MMTM", "MMTO", "MMTP", "MMUN", "MMVA", "MMVR", "MMZC", "MMZH", "MMZO", "MNBL", "MNCH", "MNJG", "MNJU", "MNMG", "MNPC", "MNRS", "MPDA", "MPTO", "MRLB", "MRLM", "MROC", "MRPV", "MSLP", "MTPP", "MUCC", "MUCF", "MUCL", "MUCM", "MUCU", "MUGM", "MUHA", "MUHG", "MUSC", "MUVR", "MWCB", "MWCR", "MYGF", "MYNN", "MZBZ", "NCAI", "NCAT", "NCMG", "NCMH", "NCMK", "NCMR", "NCNS", "NCPK", "NCPL", "NCPY", "NCRG", "NCRK", "NCSW", "NFFN", "NFNA", "NFTF", "NFTV", "NGFU", "NGTA", "NIUE", "NLWW", "NSFA", "NVSS", "NVVV", "NWWW", "NZAA", "NZCH", "NZCM", "NZWN", "OBBI", "OEAB", "OEAH", "OEAO", "OEBA", "OEBH", "OEDF", "OEDM", "OEDR", "OEGN", "OEGS", "OEGT", "OEHL", "OEJB", "OEJN", "OEKJ", "OEKM", "OEMA", "OEMN", "OENG", "OEPA", "OEPS", "OERF", "OERK", "OERR", "OESH", "OESK", "OETB", "OETF", "OETR", "OEWD", "OEWJ", "OEYN", "OIAA", "OIAG", "OIAH", "OIAI", "OIAM", "OIAW", "OIBA", "OIBB", "OIBH", "OIBJ", "OIBK", "OIBL", "OIBP", "OIBQ", "OIBS", "OIBV", "OICC", "OICI", "OICJ", "OICK", "OICS", "OIFK", "OIFM", "OIFS", "OIGG", "OIGK", "OIHH", "OIHM", "OIIE", "OIII", "OIIK", "OIIP", "OIIS", "OIKB", "OIKK", "OIKO", "OIKQ", "OIMB", "OIMC", "OIMD", "OIMJ", "OIMM", "OIMN", "OIMQ", "OIMS", "OIMT", "OINB", "OINE", "OING", "OINK", "OINN", "OINR", "OINZ", "OISA", "OISF", "OISL", "OISR", "OISS", "OISY", "OITL", "OITM", "OITP", "OITR", "OITT", "OITU", "OITZ", "OIYY", "OIZB", "OIZH", "OIZI", "OIZJ", "OJAI", "OJAM", "OJAQ", "OKAS", "OKBK", "OLBA", "OMAA", "OMAD", "OMAL", "OMDB", "OMDW", "OMFJ", "OMRK", "OMSJ", "OOAD", "OODQ", "OOKB", "OOMS", "OOSA", "OOSH", "OPFA", "OPIS", "OPKC", "OPLA", "OPMT", "OPPS", "OPSK", "OPST", "ORBI", "ORER", "ORMM", "ORNI", "ORSU", "OSAP", "OSDI", "OSKL", "OSLK", "OTBD", "OTBH", "OTHH", "PAAD", "PAAK", "PAAQ", "PABA", "PABE", "PABI", "PABL", "PABR", "PABT", "PABV", "PACD", "PACV", "PACZ", "PADG", "PADK", "PADL", "PADM", "PADQ", "PADU", "PAED", "PAEH", "PAEI", "PAEN", "PAFA", "PAFB", "PAFE", "PAFM", "PAFR", "PAFS", "PAGA", "PAGK", "PAGL", "PAGM", "PAGN", "PAGS", "PAGY", "PAHL", "PAHN", "PAHO", "PAHX", "PAHY", "PAIG", "PAIK", "PAIL", "PAIM", "PAIN", "PAJC", "PAJN", "PAJZ", "PAKF", "PAKH", "PAKI", "PAKK", "PAKN", "PAKP", "PAKT", "PAKV", "PAKW", "PAKX", "PALG", "PALH", "PALP", "PALU", "PAMB", "PAMD", "PAMH", "PAMK", "PAMR", "PANA", "PANC", "PANI", "PANN", "PANV", "PANW", "PAOH", "PAOM", "PAOO", "PAOR", "PAOT", "PAOU", "PAPB", "PAPG", "PAPH", "PAPM", "PAPN", "PAQT", "PARC", "PARS", "PARY", "PASA", "PASC", "PASD", "PASH", "PASI", "PASK", "PASM", "PASN", "PASO", "PASV", "PASX", "PASY", "PATA", "PATC", "PATE", "PATG", "PATK", "PATL", "PATO", "PATQ", "PAUN", "PAUT", "PAVA", "PAVC", "PAVD", "PAWD", "PAWG", "PAWI", "PAWM", "PAWN", "PAWS", "PAYA", "PAZK", "PFCL", "PFEL", "PFKT", "PFKW", "PFNO", "PFSH", "PFWS", "PFYU", "PGSN", "PGUA", "PGUM", "PHBK", "PHHI", "PHJR", "PHKO", "PHLI", "PHMK", "PHNG", "PHNL", "PHNY", "PHOG", "PHSF", "PHTO", "PKWA", "PLCH", "PMDY", "PPIZ", "PTYA", "PWAK", "RCKH", "RCMQ", "RCNN", "RCSS", "RCTP", "RJAA", "RJAH", "RJAW", "RJBB", "RJCC", "RJDB", "RJFF", "RJFR", "RJGG", "RJKA", "RJKI", "RJNK", "RJOH", "RJOI", "RJOO", "RJOS", "RJSM", "RJTT", "RJTY", "RKJB", "RKJK", "RKNY", "RKPC", "RKPK", "RKSF", "RKSG", "RKSI", "RKSM", "RKSO", "RKSS", "RKTN", "RKTU", "ROAH", "RODN", "ROIG", "ROMD", "RORK", "RORY", "ROYN", "RPLB", "RPLI", "RPLL", "RPMD", "RPMZ", "RPVM", "SAAR", "SABE", "SACO", "SADF", "SAEZ", "SAME", "SANT", "SAOC", "SARC", "SARE", "SARF", "SARI", "SARL", "SARP", "SASA", "SASJ", "SAVC", "SAWE", "SAWG", "SAWH", "SAZM", "SAZN", "SAZS", "SBAF", "SBAN", "SBAR", "SBAT", "SBAX", "SBBE", "SBBG", "SBBH", "SBBI", "SBBQ", "SBBR", "SBBU", "SBBV", "SBBW", "SBCA", "SBCB", "SBCC", "SBCF", "SBCG", "SBCH", "SBCJ", "SBCO", "SBCP", "SBCR", "SBCT", "SBCX", "SBCY", "SBCZ", "SBDN", "SBEG", "SBES", "SBFI", "SBFL", "SBFN", "SBFS", "SBFZ", "SBGL", "SBGM", "SBGO", "SBGR", "SBGW", "SBHT", "SBIH", "SBIL", "SBIP", "SBIZ", "SBJP", "SBJR", "SBJU", "SBJV", "SBKG", "SBKP", "SBLB", "SBLE", "SBLO", "SBLS", "SBMA", "SBME", "SBMG", "SBMK", "SBMN", "SBMO", "SBMQ", "SBMS", "SBMT", "SBMY", "SBNF", "SBNM", "SBNT", "SBOI", "SBPA", "SBPB", "SBPF", "SBPJ", "SBPK", "SBPL", "SBPP", "SBPR", "SBPS", "SBPV", "SBRB", "SBRF", "SBRJ", "SBRP", "SBSC", "SBSJ", "SBSL", "SBSM", "SBSN", "SBSP", "SBSR", "SBST", "SBSV", "SBTA", "SBTC", "SBTE", "SBTF", "SBTT", "SBTU", "SBUA", "SBUL", "SBUR", "SBVH", "SBVT", "SBYS", "SCAP", "SCAR", "SCAT", "SCBA", "SCCF", "SCCH", "SCCI", "SCCY", "SCDA", "SCEL", "SCFA", "SCFM", "SCFT", "SCGE", "SCGZ", "SCIC", "SCIE", "SCIP", "SCJO", "SCMK", "SCNT", "SCON", "SCPD", "SCPQ", "SCQP", "SCRD", "SCRG", "SCRM", "SCSE", "SCSN", "SCTB", "SCTE", "SCTN", "SCVD", "SCVM", "SECU", "SEGS", "SEGU", "SEGZ", "SELT", "SEMC", "SEMT", "SEST", "SGAS", "SGEN", "SGES", "SKAR", "SKBG", "SKBO", "SKBQ", "SKCC", "SKCG", "SKCL", "SKEJ", "SKIB", "SKIP", "SKLC", "SKLT", "SKMD", "SKMR", "SKMZ", "SKNV", "SKPC", "SKPE", "SKPS", "SKPV", "SKRG", "SKRH", "SKSM", "SKSP", "SKUC", "SKUI", "SKVP", "SLAL", "SLCB", "SLCO", "SLCP", "SLET", "SLLP", "SLOR", "SLRI", "SLSA", "SLSV", "SLTJ", "SLTR", "SLVR", "SMJP", "SMZO", "SOCA", "SPCL", "SPGM", "SPHI", "SPHO", "SPHY", "SPJC", "SPJI", "SPJL", "SPJR", "SPLO", "SPME", "SPMS", "SPQT", "SPQU", "SPRU", "SPSO", "SPST", "SPTN", "SPTU", "SPYL", "SPZO", "SUAA", "SUCA", "SULS", "SUMU", "SUSO", "SVBC", "SVBI", "SVBM", "SVBS", "SVCB", "SVCJ", "SVCS", "SVFM", "SVGD", "SVGU", "SVJC", "SVJM", "SVLO", "SVMC", "SVMG", "SVMI", "SVMT", "SVPA", "SVPR", "SVSA", "SVSR", "SVVA", "SYCJ", "SYKM", "SYMB", "TAPA", "TBPB", "TDCF", "TDPD", "TFFF", "TFFR", "TGPY", "TIST", "TISX", "TJBQ", "TJIG", "TJNR", "TJSJ", "TKPK", "TKPN", "TLPC", "TLPL", "TNCA", "TNCB", "TNCC", "TNCE", "TNCM", "TQPF", "TUPJ", "TVSA", "TXKF", "UADD", "UAIT", "UAKD", "UAOO", "UARR", "UASK", "UASP", "UASS", "UAUU", "UBBB", "UBBF", "UBBG", "UBBL", "UBBN", "UBBQ", "UBBY", "UBBZ", "UBEE", "UCFL", "UCFM", "UCFO", "UDSG", "UDYZ", "UEEE", "UERP", "UERR", "UGKO", "UGSB", "UGTB", "UHBB", "UHHH", "UHMA", "UHMM", "UHPP", "UHSS", "UHWW", "UIAA", "UIBB", "UIII", "UIUU", "ULAA", "ULLI", "ULMM", "ULOO", "ULPB", "ULWC", "UMGG", "UMII", "UMKK", "UMMS", "UNAA", "UNBB", "UNEE", "UNKL", "UNNT", "UNOO", "UNTT", "UNWW", "UOOO", "URKA", "URKK", "URMG", "URML", "URMM", "URMN", "URMO", "URMT", "URRP", "URSS", "URWA", "URWI", "URWW", "USCC", "USCM", "USDA", "USHH", "USNN", "USPP", "USRR", "USSS", "USTR", "UTAA", "UTAK", "UTAM", "UTAT", "UTAV", "UTDD", "UTDK", "UTDL", "UTDT", "UTFF", "UTFN", "UTNN", "UTNU", "UTO8", "UTSA", "UTSB", "UTSK", "UTSS", "UTST", "UTTT", "UUBC", "UUBP", "UUBW", "UUDD", "UUDL", "UUEE", "UUMO", "UUOB", "UUOK", "UUOL", "UUOO", "UUWW", "UUYY", "UWGG", "UWKD", "UWKE", "UWKS", "UWLL", "UWLW", "UWOO", "UWOR", "UWPS", "UWSG", "UWUU", "UWWW", "VAAH", "VAAU", "VABB", "VABO", "VABP", "VAID", "VAJB", "VANP", "VAOZ", "VARK", "VASU", "VAUD", "VCBI", "VCRI", "VDPP", "VDSR", "VDSV", "VEBN", "VEBS", "VECC", "VEDG", "VEGT", "VEGY", "VEPT", "VERC", "VERP", "VGEG", "VGHS", "VHHH", "VIAR", "VIDP", "VIJP", "VILK", "VMMC", "VNKT", "VOAR", "VOBG", "VOBL", "VOBZ", "VOCB", "VOCI", "VOCL", "VOGO", "VOHB", "VOHS", "VOHY", "VOKN", "VOMD", "VOML", "VOMM", "VOPB", "VORY", "VOTP", "VOTR", "VOTV", "VOVZ", "VRMG", "VRMH", "VRMM", "VTBD", "VTBS", "VTBU", "VTCC", "VTCT", "VTPH", "VTPP", "VTSB", "VTSF", "VTSG", "VTSM", "VTSP", "VTSS", "VTUD", "VTUI", "VTUK", "VTUU", "VVCI", "VVCR", "VVCT", "VVDN", "VVNB", "VVPB", "VVPQ", "VVTS", "VYYY", "WAAA", "WADD", "WADL", "WAHS", "WAJJ", "WALL", "WAMM", "WAOO", "WAPP", "WAQQ", "WARR", "WBGB", "WBGG", "WBGR", "WBGS", "WBGY", "WBKK", "WBKL", "WBKS", "WBKT", "WBKW", "WBSB", "WIBB", "WIDD", "WIEE", "WIII", "WIMM", "WIOO", "WIPP", "WMAU", "WMBA", "WMKA", "WMKB", "WMKC", "WMKD", "WMKE", "WMKI", "WMKJ", "WMKK", "WMKL", "WMKM", "WMKN", "WMKP", "WMSA", "WSAP", "WSSL", "WSSS", "YAMB", "YBAS", "YBBN", "YBCG", "YBCS", "YBLN", "YBRK", "YBRM", "YBUD", "YBWW", "YCBP", "YCFS", "YCOM", "YGEL", "YGFN", "YGTH", "YKRY", "YLEC", "YLHI", "YLIS", "YMAV", "YMAY", "YMDG", "YMEN", "YMER", "YMHB", "YMLT", "YMML", "YMTG", "YNAR", "YPAD", "YPCC", "YPDN", "YPKG", "YPLM", "YPPD", "YPPH", "YPWR", "YPXM", "YSCB", "YSNF", "YSNW", "YSSY", "YSWG", "YWGT", "ZBAA", "ZBAD", "ZBHH", "ZBSJ", "ZBTJ", "ZBYN", "ZGGG", "ZGHA", "ZGKL", "ZGNN", "ZGOW", "ZGSZ", "ZHCC", "ZHHH", "ZJHK", "ZJSY", "ZLLL", "ZLXY", "ZMCK", "ZMUB", "ZPPP", "ZSAM", "ZSFZ", "ZSHC", "ZSNB", "ZSNJ", "ZSOF", "ZSPD", "ZSQD", "ZSSS", "ZUCK", "ZUGY", "ZUTF", "ZUUU", "ZWSH", "ZWWW", "ZYCC", "ZYHB", "ZYTL", "ZYTX"], "observation_time": ["2022-10-22T15:00:00Z", "2022-10-22T16:00:00Z", "2022-10-22T15:50:00Z", "2022-10-22T15:50:00Z", "2022-10-22T15:50:00Z", "2022-10-22T15:50:00Z", "2022-10-22T15:50:00Z", "2022-10-22T16:08:00Z", "2022-10-22T16:00:00Z", "2022-10-22T16:00:00Z", "2022-10-22T15:49:00Z", "2022-10-22T16:00:00Z", "2022-10-22T16:00:00Z", "2022-10-22T16:00:00Z", "2022-10-22T16:00:00Z", "2022-10-22T16:00:00Z", "2022-10-22T16:00:00Z", "2022-10-22T16:00:00Z", "2022-10-22T16:00:00Z", "2022-10-22T16:00:00Z", "2022-10-22T16:00:00Z", "2022-10-22T16:00:00Z", "2022-10-22T16:00:00Z", "2022-10-22T16:00:00Z", "2022-10-22T16:00:00Z", "2022-10-22T16:00:00Z", "2022-10-22T16:00:00Z", "2022-10-22T16:00:00Z", "2022-10-22T16:00:00Z", "2022-10-22T16:00:00Z", "2022-10-22T16:00:00Z", "2022-10-22T16:00:00Z", "2022-10-22T15:00:00Z", "2022-10-22T16:00:00Z", "2022-10-22T16:00:00Z", "2022-10-22T16:00:00Z", "2022-10-22T16:00:00Z", "2022-10-22T16:00:00Z", "2022-10-22T16:00:00Z", "2022-10-22T16:00:00Z", "2022-10-22T16:00:00Z", "2022-10-22T16:00:00Z", "2022-10-22T16:00:00Z", "2022-10-22T16:00:00Z", "2022-10-22T16:00:00Z", "2022-10-22T16:00:00Z", "2022-10-22T16:00:00Z", "2022-10-22T16:00:00Z", "2022-10-22T16:00:00Z", "2022-10-22T15:00:00Z", "2022-10-22T16:00:00Z", "2022-10-22T16:00:00Z", "2022-10-22T16:00:00Z", "2022-10-22T16:00:00Z", "2022-10-22T16:00:00Z", "2022-10-22T16:00:00Z", "2022-10-22T16:00:00Z", "2022-10-22T16:00:00Z", "2022-10-22T16:00:00Z", "2022-10-22T16:00:00Z", "2022-10-22T15:00:00Z", "2022-10-22T16:00:00Z", "2022-10-22T16:00:00Z", "2022-10-22T15:00:00Z", "2022-10-22T15:00:00Z", "2022-10-22T16:00:00Z", "2022-10-22T16:00:00Z", "2022-10-22T16:00:00Z", "2022-10-22T16:00:00Z", "2022-10-22T16:00:00Z", "2022-10-22T16:00:00Z", "2022-10-22T16:00:00Z", "2022-10-22T16:00:00Z", "2022-10-22T16:00:00Z", "2022-10-22T15:00:00Z", "2022-10-22T16:00:00Z", "2022-10-22T16:00:00Z", "2022-10-22T16:00:00Z", "2022-10-22T16:00:00Z", "2022-10-22T16:00:00Z", "2022-10-22T16:00:00Z", "2022-10-22T16:00:00Z", "2022-10-22T16:00:00Z", "2022-10-22T16:00:00Z", "2022-10-22T16:00:00Z", "2022-10-22T16:00:00Z", "2022-10-22T16:00:00Z", "2022-10-22T16:00:00Z", "2022-10-22T16:00:00Z", "2022-10-22T16:00:00Z", "2022-10-22T16:00:00Z", "2022-10-22T15:00:00Z", "2022-10-22T16:00:00Z", "2022-10-22T16:00:00Z", "2022-10-22T16:00:00Z", "2022-10-22T16:00:00Z", "2022-10-22T16:00:00Z", "2022-10-22T16:00:00Z", "2022-10-22T16:00:00Z", "2022-10-22T16:00:00Z", "2022-10-22T16:00:00Z", "2022-10-22T16:00:00Z", "2022-10-22T16:00:00Z", "2022-10-22T16:00:00Z", "2022-10-22T15:00:00Z", "2022-10-22T16:00:00Z", "2022-10-22T16:00:00Z", "2022-10-22T16:00:00Z", "2022-10-22T16:00:00Z", "2022-10-22T16:00:00Z", "2022-10-22T16:00:00Z", "2022-10-22T15:00:00Z", "2022-10-22T16:00:00Z", "2022-10-22T16:00:00Z", "2022-10-22T16:00:00Z", "2022-10-22T16:00:00Z", "2022-10-22T16:00:00Z", "2022-10-22T16:00:00Z", "2022-10-22T15:00:00Z", "2022-10-22T16:00:00Z", "2022-10-22T16:00:00Z", "2022-10-22T16:00:00Z", "2022-10-22T16:00:00Z", "2022-10-22T16:00:00Z", "2022-10-22T16:00:00Z", "2022-10-22T16:00:00Z", "2022-10-22T16:00:00Z", "2022-10-22T16:00:00Z", "2022-10-22T16:00:00Z", "2022-10-22T16:00:00Z", "2022-10-22T16:00:00Z", "2022-10-22T16:00:00Z", "2022-10-22T16:00:00Z", "2022-10-22T16:00:00Z", "2022-10-22T15:00:00Z", "2022-10-22T16:00:00Z", "2022-10-22T16:00:00Z", "2022-10-22T16:00:00Z", "2022-10-22T16:00:00Z", "2022-10-22T15:00:00Z", "2022-10-22T16:00:00Z", "2022-10-22T15:00:00Z", "2022-10-22T16:00:00Z", "2022-10-22T16:00:00Z", "2022-10-22T16:00:00Z", "2022-10-22T16:00:00Z", "2022-10-22T16:00:00Z", "2022-10-22T16:00:00Z", "2022-10-22T16:00:00Z", "2022-10-22T16:00:00Z", "2022-10-22T16:00:00Z", "2022-10-22T16:00:00Z", "2022-10-22T16:00:00Z", "2022-10-22T16:00:00Z", "2022-10-22T16:00:00Z", "2022-10-22T16:00:00Z", "2022-10-22T16:00:00Z", "2022-10-22T16:00:00Z", "2022-10-22T16:00:00Z", "2022-10-22T16:00:00Z", "2022-10-22T16:00:00Z", "2022-10-22T16:00:00Z", "2022-10-22T16:00:00Z", "2022-10-22T16:00:00Z", "2022-10-22T16:00:00Z", "2022-10-22T16:00:00Z", "2022-10-22T16:00:00Z", "2022-10-22T16:00:00Z", "2022-10-22T15:00:00Z", "2022-10-22T16:00:00Z", "2022-10-22T16:00:00Z", "2022-10-22T16:00:00Z", "2022-10-22T16:00:00Z", "2022-10-22T16:00:00Z", "2022-10-22T16:00:00Z", "2022-10-22T16:00:00Z", "2022-10-22T16:00:00Z", "2022-10-22T16:00:00Z", "2022-10-22T15:00:00Z", "2022-10-22T16:00:00Z", "2022-10-22T16:00:00Z", "2022-10-22T16:00:00Z", "2022-10-22T16:00:00Z", "2022-10-22T16:00:00Z", "2022-10-22T16:00:00Z", "2022-10-22T16:00:00Z", "2022-10-22T16:00:00Z", "2022-10-22T16:00:00Z", "2022-10-22T16:00:00Z", "2022-10-22T16:00:00Z", "2022-10-22T16:00:00Z", "2022-10-22T16:00:00Z", "2022-10-22T16:00:00Z", "2022-10-22T16:00:00Z", "2022-10-22T16:00:00Z", "2022-10-22T16:00:00Z", "2022-10-22T16:00:00Z", "2022-10-22T16:00:00Z", "2022-10-22T16:00:00Z", "2022-10-22T16:00:00Z", "2022-10-22T16:00:00Z", "2022-10-22T16:00:00Z", "2022-10-22T16:00:00Z", "2022-10-22T16:00:00Z", "2022-10-22T16:00:00Z", "2022-10-22T16:00:00Z", "2022-10-22T16:00:00Z", "2022-10-22T16:00:00Z", "2022-10-22T16:00:00Z", "2022-10-22T16:00:00Z", "2022-10-22T16:00:00Z", "2022-10-22T16:00:00Z", "2022-10-22T16:00:00Z", "2022-10-22T16:00:00Z", "2022-10-22T15:00:00Z", "2022-10-22T15:00:00Z", "2022-10-22T16:00:00Z", "2022-10-22T16:00:00Z", "2022-10-22T15:00:00Z", "2022-10-22T16:00:00Z", "2022-10-22T16:00:00Z", "2022-10-22T16:00:00Z", "2022-10-22T16:00:00Z", "2022-10-22T16:00:00Z", "2022-10-22T16:00:00Z", "2022-10-22T16:00:00Z", "2022-10-22T15:00:00Z", "2022-10-22T16:00:00Z", "2022-10-22T16:00:00Z", "2022-10-22T16:00:00Z", "2022-10-22T16:00:00Z", "2022-10-22T16:00:00Z", "2022-10-22T16:00:00Z", "2022-10-22T16:00:00Z", "2022-10-22T16:00:00Z", "2022-10-22T16:00:00Z", "2022-10-22T16:00:00Z", "2022-10-22T16:00:00Z", "2022-10-22T16:00:00Z", "2022-10-22T16:00:00Z", "2022-10-22T16:00:00Z", "2022-10-22T16:00:00Z", "2022-10-22T16:00:00Z", "2022-10-22T16:00:00Z", "2022-10-22T16:00:00Z", "2022-10-22T15:00:00Z", "2022-10-22T16:00:00Z", "2022-10-22T16:00:00Z", "2022-10-22T16:00:00Z", "2022-10-22T16:00:00Z", "2022-10-22T15:00:00Z", "2022-10-22T16:00:00Z", "2022-10-22T16:00:00Z", "2022-10-22T16:00:00Z", "2022-10-22T16:00:00Z", "2022-10-22T16:00:00Z", "2022-10-22T16:00:00Z", "2022-10-22T16:00:00Z", "2022-10-22T16:00:00Z", "2022-10-22T16:00:00Z", "2022-10-22T16:00:00Z", "2022-10-22T16:00:00Z", "2022-10-22T16:00:00Z", "2022-10-22T16:00:00Z", "2022-10-22T16:00:00Z", "2022-10-22T16:00:00Z", "2022-10-22T16:00:00Z", "2022-10-22T16:00:00Z", "2022-10-22T16:00:00Z", "2022-10-22T16:00:00Z", "2022-10-22T16:00:00Z", "2022-10-22T15:00:00Z", "2022-10-22T16:00:00Z", "2022-10-22T16:00:00Z", "2022-10-22T16:00:00Z", "2022-10-22T16:00:00Z", "2022-10-22T16:00:00Z", "2022-10-22T16:00:00Z", "2022-10-22T16:00:00Z", "2022-10-22T16:00:00Z", "2022-10-22T16:00:00Z", "2022-10-22T16:00:00Z", "2022-10-22T16:00:00Z", "2022-10-22T16:00:00Z", "2022-10-22T16:00:00Z", "2022-10-22T16:00:00Z", "2022-10-22T16:00:00Z", "2022-10-22T16:00:00Z", "2022-10-22T16:00:00Z", "2022-10-22T16:00:00Z", "2022-10-22T16:00:00Z", "2022-10-22T16:00:00Z", "2022-10-22T16:00:00Z", "2022-10-22T16:00:00Z", "2022-10-22T16:00:00Z", "2022-10-22T15:00:00Z", "2022-10-22T16:00:00Z", "2022-10-22T16:00:00Z", "2022-10-22T15:00:00Z", "2022-10-22T16:00:00Z", "2022-10-22T16:00:00Z", "2022-10-22T16:00:00Z", "2022-10-22T15:00:00Z", "2022-10-22T16:00:00Z", "2022-10-22T16:00:00Z", "2022-10-22T15:00:00Z", "2022-10-22T16:00:00Z", "2022-10-22T16:00:00Z", "2022-10-22T16:00:00Z", "2022-10-22T16:00:00Z", "2022-10-22T16:00:00Z", "2022-10-22T16:00:00Z", "2022-10-22T16:00:00Z", "2022-10-22T16:00:00Z", "2022-10-22T16:00:00Z", "2022-10-22T16:00:00Z", "2022-10-22T16:00:00Z", "2022-10-22T16:00:00Z", "2022-10-22T16:00:00Z", "2022-10-22T16:12:00Z", "2022-10-22T16:00:00Z", "2022-10-22T16:00:00Z", "2022-10-22T16:00:00Z", "2022-10-22T16:00:00Z", "2022-10-22T16:00:00Z", "2022-10-22T16:00:00Z", "2022-10-22T16:00:00Z", "2022-10-22T16:00:00Z", "2022-10-22T16:00:00Z", "2022-10-22T16:00:00Z", "2022-10-22T16:00:00Z", "2022-10-22T16:00:00Z", "2022-10-22T16:00:00Z", "2022-10-22T16:00:00Z", "2022-10-22T16:00:00Z", "2022-10-22T16:00:00Z", "2022-10-22T16:00:00Z", "2022-10-22T16:00:00Z", "2022-10-22T16:00:00Z", "2022-10-22T16:00:00Z", "2022-10-22T16:00:00Z", "2022-10-22T16:05:00Z", "2022-10-22T16:00:00Z", "2022-10-22T16:00:00Z", "2022-10-22T16:00:00Z", "2022-10-22T16:00:00Z", "2022-10-22T16:00:00Z", "2022-10-22T16:00:00Z", "2022-10-22T16:00:00Z", "2022-10-22T16:00:00Z", "2022-10-22T16:00:00Z", "2022-10-22T16:00:00Z", "2022-10-22T16:00:00Z", "2022-10-22T16:00:00Z", "2022-10-22T16:00:00Z", "2022-10-22T16:00:00Z", "2022-10-22T16:00:00Z", "2022-10-22T16:00:00Z", "2022-10-22T16:00:00Z", "2022-10-22T16:00:00Z", "2022-10-22T16:12:00Z", "2022-10-22T16:00:00Z", "2022-10-22T16:00:00Z", "2022-10-22T16:00:00Z", "2022-10-22T16:00:00Z", "2022-10-22T16:00:00Z", "2022-10-22T16:00:00Z", "2022-10-22T16:00:00Z", "2022-10-22T16:00:00Z", "2022-10-22T16:00:00Z", "2022-10-22T16:00:00Z", "2022-10-22T16:00:00Z", "2022-10-22T16:00:00Z", "2022-10-22T16:00:00Z", "2022-10-22T16:00:00Z", "2022-10-22T16:00:00Z", "2022-10-22T16:00:00Z", "2022-10-22T16:00:00Z", "2022-10-22T16:00:00Z", "2022-10-22T16:11:00Z", "2022-10-22T16:00:00Z", "2022-10-22T16:00:00Z", "2022-10-22T16:00:00Z", "2022-10-22T16:00:00Z", "2022-10-22T16:00:00Z", "2022-10-22T16:00:00Z", "2022-10-22T16:00:00Z", "2022-10-22T16:00:00Z", "2022-10-22T16:00:00Z", "2022-10-22T16:00:00Z", "2022-10-22T16:00:00Z", "2022-10-22T16:00:00Z", "2022-10-22T16:00:00Z", "2022-10-22T16:00:00Z", "2022-10-22T16:00:00Z", "2022-10-22T16:00:00Z", "2022-10-22T16:00:00Z", "2022-10-22T16:00:00Z", "2022-10-22T16:00:00Z", "2022-10-22T16:00:00Z", "2022-10-22T16:00:00Z", "2022-10-22T16:00:00Z", "2022-10-22T16:00:00Z", "2022-10-22T16:00:00Z", "2022-10-22T16:00:00Z", "2022-10-22T16:00:00Z", "2022-10-22T16:05:00Z", "2022-10-22T16:00:00Z", "2022-10-22T16:00:00Z", "2022-10-22T16:00:00Z", "2022-10-22T16:00:00Z", "2022-10-22T16:00:00Z", "2022-10-22T16:00:00Z", "2022-10-22T16:08:00Z", "2022-10-22T16:00:00Z", "2022-10-22T16:11:00Z", "2022-10-22T16:00:00Z", "2022-10-22T16:00:00Z", "2022-10-22T16:00:00Z", "2022-10-22T16:00:00Z", "2022-10-22T16:00:00Z", "2022-10-22T16:00:00Z", "2022-10-22T16:00:00Z", "2022-10-22T16:00:00Z", "2022-10-22T16:07:00Z", "2022-10-22T16:00:00Z", "2022-10-22T16:00:00Z", "2022-10-22T16:00:00Z", "2022-10-22T16:00:00Z", "2022-10-22T16:00:00Z", "2022-10-22T16:11:00Z", "2022-10-22T16:00:00Z", "2022-10-22T16:00:00Z", "2022-10-22T16:00:00Z", "2022-10-22T16:00:00Z", "2022-10-22T16:13:00Z", "2022-10-22T16:00:00Z", "2022-10-22T16:00:00Z", "2022-10-22T16:00:00Z", "2022-10-22T16:00:00Z", "2022-10-22T16:00:00Z", "2022-10-22T16:00:00Z", "2022-10-22T16:00:00Z", "2022-10-22T16:00:00Z", "2022-10-22T16:00:00Z", "2022-10-22T16:00:00Z", "2022-10-22T16:00:00Z", "2022-10-22T16:00:00Z", "2022-10-22T16:00:00Z", "2022-10-22T16:00:00Z", "2022-10-22T16:00:00Z", "2022-10-22T16:00:00Z", "2022-10-22T16:00:00Z", "2022-10-22T16:00:00Z", "2022-10-22T16:00:00Z", "2022-10-22T16:00:00Z", "2022-10-22T16:00:00Z", "2022-10-22T16:00:00Z", "2022-10-22T16:00:00Z", "2022-10-22T16:00:00Z", "2022-10-22T16:00:00Z", "2022-10-22T16:00:00Z", "2022-10-22T16:00:00Z", "2022-10-22T16:00:00Z", "2022-10-22T16:00:00Z", "2022-10-22T16:00:00Z", "2022-10-22T16:07:00Z", "2022-10-22T16:00:00Z", "2022-10-22T16:09:00Z", "2022-10-22T16:00:00Z", "2022-10-22T16:00:00Z", "2022-10-22T16:00:00Z", "2022-10-22T16:00:00Z", "2022-10-22T16:06:00Z", "2022-10-22T16:00:00Z", "2022-10-22T16:00:00Z", "2022-10-22T16:00:00Z", "2022-10-22T16:00:00Z", "2022-10-22T16:00:00Z", "2022-10-22T16:00:00Z", "2022-10-22T16:00:00Z", "2022-10-22T16:00:00Z", "2022-10-22T16:00:00Z", "2022-10-22T16:00:00Z", "2022-10-22T16:00:00Z", "2022-10-22T16:00:00Z", "2022-10-22T16:12:00Z", "2022-10-22T16:00:00Z", "2022-10-22T16:00:00Z", "2022-10-22T16:00:00Z", "2022-10-22T16:00:00Z", "2022-10-22T16:00:00Z", "2022-10-22T16:00:00Z", "2022-10-22T16:00:00Z", "2022-10-22T16:00:00Z", "2022-10-22T16:00:00Z", "2022-10-22T16:00:00Z", "2022-10-22T16:00:00Z", "2022-10-22T16:00:00Z", "2022-10-22T16:00:00Z", "2022-10-22T16:05:00Z", "2022-10-22T16:00:00Z", "2022-10-22T16:00:00Z", "2022-10-22T16:00:00Z", "2022-10-22T16:00:00Z", "2022-10-22T16:00:00Z", "2022-10-22T16:00:00Z", "2022-10-22T16:00:00Z", "2022-10-22T16:00:00Z", "2022-10-22T16:00:00Z", "2022-10-22T16:00:00Z", "2022-10-22T16:13:00Z", "2022-10-22T16:00:00Z", "2022-10-22T16:00:00Z", "2022-10-22T16:00:00Z", "2022-10-22T16:00:00Z", "2022-10-22T16:00:00Z", "2022-10-22T16:00:00Z", "2022-10-22T16:00:00Z", "2022-10-22T16:00:00Z", "2022-10-22T16:00:00Z", "2022-10-22T16:00:00Z", "2022-10-22T16:00:00Z", "2022-10-22T16:00:00Z", "2022-10-22T16:00:00Z", "2022-10-22T16:00:00Z", "2022-10-22T16:00:00Z", "2022-10-22T16:00:00Z", "2022-10-22T16:00:00Z", "2022-10-22T16:00:00Z", "2022-10-22T16:00:00Z", "2022-10-22T16:00:00Z", "2022-10-22T16:00:00Z", "2022-10-22T16:00:00Z", "2022-10-22T16:00:00Z", "2022-10-22T16:00:00Z", "2022-10-22T16:13:00Z", "2022-10-22T15:00:00Z", "2022-10-22T15:00:00Z", "2022-10-22T16:00:00Z", "2022-10-22T16:00:00Z", "2022-10-22T16:00:00Z", "2022-10-22T16:00:00Z", "2022-10-22T16:00:00Z", "2022-10-22T16:00:00Z", "2022-10-22T16:07:00Z", "2022-10-22T16:00:00Z", "2022-10-22T15:00:00Z", "2022-10-22T16:00:00Z", "2022-10-22T16:00:00Z", "2022-10-22T16:00:00Z", "2022-10-22T16:00:00Z", "2022-10-22T16:00:00Z", "2022-10-22T16:00:00Z", "2022-10-22T16:00:00Z", "2022-10-22T16:00:00Z", "2022-10-22T16:00:00Z", "2022-10-22T16:00:00Z", "2022-10-22T16:00:00Z", "2022-10-22T16:00:00Z", "2022-10-22T16:00:00Z", "2022-10-22T16:00:00Z", "2022-10-22T16:00:00Z", "2022-10-22T16:00:00Z", "2022-10-22T16:00:00Z", "2022-10-22T16:00:00Z", "2022-10-22T16:00:00Z", "2022-10-22T16:00:00Z", "2022-10-22T16:00:00Z", "2022-10-22T16:00:00Z", "2022-10-22T16:00:00Z", "2022-10-22T16:00:00Z", "2022-10-22T16:00:00Z", "2022-10-22T16:00:00Z", "2022-10-22T16:00:00Z", "2022-10-22T15:00:00Z", "2022-10-22T16:00:00Z", "2022-10-22T16:00:00Z", "2022-10-22T16:00:00Z", "2022-10-22T16:00:00Z", "2022-10-22T16:00:00Z", "2022-10-22T16:00:00Z", "2022-10-22T16:00:00Z", "2022-10-22T16:00:00Z", "2022-10-22T16:00:00Z", "2022-10-22T16:00:00Z", "2022-10-22T16:00:00Z", "2022-10-22T16:00:00Z", "2022-10-22T16:00:00Z", "2022-10-22T16:00:00Z", "2022-10-22T16:00:00Z", "2022-10-22T16:00:00Z", "2022-10-22T16:00:00Z", "2022-10-22T16:00:00Z", "2022-10-22T16:00:00Z", "2022-10-22T16:00:00Z", "2022-10-22T16:00:00Z", "2022-10-22T16:00:00Z", "2022-10-22T16:00:00Z", "2022-10-22T16:00:00Z", "2022-10-22T16:00:00Z", "2022-10-22T16:00:00Z", "2022-10-22T16:00:00Z", "2022-10-22T16:00:00Z", "2022-10-22T16:00:00Z", "2022-10-22T16:00:00Z", "2022-10-22T16:00:00Z", "2022-10-22T16:00:00Z", "2022-10-22T15:00:00Z", "2022-10-22T15:00:00Z", "2022-10-22T15:50:00Z", "2022-10-22T15:55:00Z", "2022-10-22T15:55:00Z", "2022-10-22T15:50:00Z", "2022-10-22T15:50:00Z", "2022-10-22T15:55:00Z", "2022-10-22T15:55:00Z", "2022-10-22T15:55:00Z", "2022-10-22T15:55:00Z", "2022-10-22T15:55:00Z", "2022-10-22T15:50:00Z", "2022-10-22T15:50:00Z", "2022-10-22T15:50:00Z", "2022-10-22T15:50:00Z", "2022-10-22T15:50:00Z", "2022-10-22T15:50:00Z", "2022-10-22T15:50:00Z", "2022-10-22T15:50:00Z", "2022-10-22T15:50:00Z", "2022-10-22T15:50:00Z", "2022-10-22T15:50:00Z", "2022-10-22T15:50:00Z", "2022-10-22T15:50:00Z", "2022-10-22T15:50:00Z", "2022-10-22T15:50:00Z", "2022-10-22T15:50:00Z", "2022-10-22T15:50:00Z", "2022-10-22T15:50:00Z", "2022-10-22T15:50:00Z", "2022-10-22T15:50:00Z", "2022-10-22T15:50:00Z", "2022-10-22T15:50:00Z", "2022-10-22T15:50:00Z", "2022-10-22T15:50:00Z", "2022-10-22T15:50:00Z", "2022-10-22T15:50:00Z", "2022-10-22T15:50:00Z", "2022-10-22T15:50:00Z", "2022-10-22T15:50:00Z", "2022-10-22T15:50:00Z", "2022-10-22T15:50:00Z", "2022-10-22T15:50:00Z", "2022-10-22T15:50:00Z", "2022-10-22T15:50:00Z", "2022-10-22T15:50:00Z", "2022-10-22T15:50:00Z", "2022-10-22T15:50:00Z", "2022-10-22T15:50:00Z", "2022-10-22T15:50:00Z", "2022-10-22T15:50:00Z", "2022-10-22T15:50:00Z", "2022-10-22T15:50:00Z", "2022-10-22T15:50:00Z", "2022-10-22T15:50:00Z", "2022-10-22T15:50:00Z", "2022-10-22T15:50:00Z", "2022-10-22T15:50:00Z", "2022-10-22T15:50:00Z", "2022-10-22T15:50:00Z", "2022-10-22T15:50:00Z", "2022-10-22T15:50:00Z", "2022-10-22T15:50:00Z", "2022-10-22T15:50:00Z", "2022-10-22T15:50:00Z", "2022-10-22T15:50:00Z", "2022-10-22T15:50:00Z", "2022-10-22T15:50:00Z", "2022-10-22T15:50:00Z", "2022-10-22T15:50:00Z", "2022-10-22T15:50:00Z", "2022-10-22T15:50:00Z", "2022-10-22T15:50:00Z", "2022-10-22T15:50:00Z", "2022-10-22T15:50:00Z", "2022-10-22T15:50:00Z", "2022-10-22T15:50:00Z", "2022-10-22T15:50:00Z", "2022-10-22T15:50:00Z", "2022-10-22T15:50:00Z", "2022-10-22T15:50:00Z", "2022-10-22T15:50:00Z", "2022-10-22T15:50:00Z", "2022-10-22T15:50:00Z", "2022-10-22T15:20:00Z", "2022-10-22T15:50:00Z", "2022-10-22T15:50:00Z", "2022-10-22T15:50:00Z", "2022-10-22T15:50:00Z", "2022-10-22T15:50:00Z", "2022-10-22T15:50:00Z", "2022-10-22T15:50:00Z", "2022-10-22T15:50:00Z", "2022-10-22T15:50:00Z", "2022-10-22T15:50:00Z", "2022-10-22T15:50:00Z", "2022-10-22T15:50:00Z", "2022-10-22T15:50:00Z", "2022-10-22T15:50:00Z", "2022-10-22T15:50:00Z", "2022-10-22T15:50:00Z", "2022-10-22T15:50:00Z", "2022-10-22T15:50:00Z", "2022-10-22T15:50:00Z", "2022-10-22T15:50:00Z", "2022-10-22T15:50:00Z", "2022-10-22T15:50:00Z", "2022-10-22T15:50:00Z", "2022-10-22T15:50:00Z", "2022-10-22T15:50:00Z", "2022-10-22T15:50:00Z", "2022-10-22T15:50:00Z", "2022-10-22T15:50:00Z", "2022-10-22T15:50:00Z", "2022-10-22T15:50:00Z", "2022-10-22T15:50:00Z", "2022-10-22T15:50:00Z", "2022-10-22T15:50:00Z", "2022-10-22T15:50:00Z", "2022-10-22T15:50:00Z", "2022-10-22T15:50:00Z", "2022-10-22T15:50:00Z", "2022-10-22T15:50:00Z", "2022-10-22T15:50:00Z", "2022-10-22T15:50:00Z", "2022-10-22T15:50:00Z", "2022-10-22T15:50:00Z", "2022-10-22T15:50:00Z", "2022-10-22T15:50:00Z", "2022-10-22T15:50:00Z", "2022-10-22T15:50:00Z", "2022-10-22T15:50:00Z", "2022-10-22T15:50:00Z", "2022-10-22T15:50:00Z", "2022-10-22T15:50:00Z", "2022-10-22T15:50:00Z", "2022-10-22T15:20:00Z", "2022-10-22T15:50:00Z", "2022-10-22T15:50:00Z", "2022-10-22T15:50:00Z", "2022-10-22T15:50:00Z", "2022-10-22T15:50:00Z", "2022-10-22T15:50:00Z", "2022-10-22T15:50:00Z", "2022-10-22T15:50:00Z", "2022-10-22T15:50:00Z", "2022-10-22T15:50:00Z", "2022-10-22T15:50:00Z", "2022-10-22T15:50:00Z", "2022-10-22T15:50:00Z", "2022-10-22T15:55:00Z", "2022-10-22T15:55:00Z", "2022-10-22T15:50:00Z", "2022-10-22T15:55:00Z", "2022-10-22T15:50:00Z", "2022-10-22T15:50:00Z", "2022-10-22T15:50:00Z", "2022-10-22T15:50:00Z", "2022-10-22T15:50:00Z", "2022-10-22T15:50:00Z", "2022-10-22T15:50:00Z", "2022-10-22T15:50:00Z", "2022-10-22T15:50:00Z", "2022-10-22T15:50:00Z", "2022-10-22T15:50:00Z", "2022-10-22T15:50:00Z", "2022-10-22T15:50:00Z", "2022-10-22T15:50:00Z", "2022-10-22T15:50:00Z", "2022-10-22T15:50:00Z", "2022-10-22T15:50:00Z", "2022-10-22T15:55:00Z", "2022-10-22T15:55:00Z", "2022-10-22T15:55:00Z", "2022-10-22T15:55:00Z", "2022-10-22T15:55:00Z", "2022-10-22T15:55:00Z", "2022-10-22T15:55:00Z", "2022-10-22T15:55:00Z", "2022-10-22T15:55:00Z", "2022-10-22T15:55:00Z", "2022-10-22T15:55:00Z", "2022-10-22T15:55:00Z", "2022-10-22T15:55:00Z", "2022-10-22T15:55:00Z", "2022-10-22T15:55:00Z", "2022-10-22T15:55:00Z", "2022-10-22T16:08:00Z", "2022-10-22T15:55:00Z", "2022-10-22T15:55:00Z", "2022-10-22T15:55:00Z", "2022-10-22T15:55:00Z", "2022-10-22T15:55:00Z", "2022-10-22T15:55:00Z", "2022-10-22T15:55:00Z", "2022-10-22T15:55:00Z", "2022-10-22T15:55:00Z", "2022-10-22T15:55:00Z", "2022-10-22T16:00:00Z", "2022-10-22T16:00:00Z", "2022-10-22T16:00:00Z", "2022-10-22T15:30:00Z", "2022-10-22T16:00:00Z", "2022-10-22T16:00:00Z", "2022-10-22T16:00:00Z", "2022-10-22T16:00:00Z", "2022-10-22T16:00:00Z", "2022-10-22T15:50:00Z", "2022-10-22T15:50:00Z", "2022-10-22T15:50:00Z", "2022-10-22T15:50:00Z", "2022-10-22T15:50:00Z", "2022-10-22T15:50:00Z", "2022-10-22T15:50:00Z", "2022-10-22T15:50:00Z", "2022-10-22T15:50:00Z", "2022-10-22T15:50:00Z", "2022-10-22T15:50:00Z", "2022-10-22T15:50:00Z", "2022-10-22T15:50:00Z", "2022-10-22T15:50:00Z", "2022-10-22T15:50:00Z", "2022-10-22T15:50:00Z", "2022-10-22T15:50:00Z", "2022-10-22T15:50:00Z", "2022-10-22T15:50:00Z", "2022-10-22T15:50:00Z", "2022-10-22T15:50:00Z", "2022-10-22T15:50:00Z", "2022-10-22T15:50:00Z", "2022-10-22T15:50:00Z", "2022-10-22T15:50:00Z", "2022-10-22T15:50:00Z", "2022-10-22T15:50:00Z", "2022-10-22T15:50:00Z", "2022-10-22T15:50:00Z", "2022-10-22T15:50:00Z", "2022-10-22T15:50:00Z", "2022-10-22T15:50:00Z", "2022-10-22T15:50:00Z", "2022-10-22T15:50:00Z", "2022-10-22T15:50:00Z", "2022-10-22T15:50:00Z", "2022-10-22T15:50:00Z", "2022-10-22T15:50:00Z", "2022-10-22T15:50:00Z", "2022-10-22T15:50:00Z", "2022-10-22T15:50:00Z", "2022-10-22T15:50:00Z", "2022-10-22T15:50:00Z", "2022-10-22T15:50:00Z", "2022-10-22T15:50:00Z", "2022-10-22T15:50:00Z", "2022-10-22T15:50:00Z", "2022-10-22T15:50:00Z", "2022-10-22T15:50:00Z", "2022-10-22T15:50:00Z", "2022-10-22T15:50:00Z", "2022-10-22T15:50:00Z", "2022-10-22T15:50:00Z", "2022-10-22T15:50:00Z", "2022-10-22T15:50:00Z", "2022-10-22T15:50:00Z", "2022-10-22T15:50:00Z", "2022-10-22T15:50:00Z", "2022-10-22T15:50:00Z", "2022-10-22T15:50:00Z", "2022-10-22T15:50:00Z", "2022-10-22T15:50:00Z", "2022-10-22T15:50:00Z", "2022-10-22T15:50:00Z", "2022-10-22T15:50:00Z", "2022-10-22T15:50:00Z", "2022-10-22T15:50:00Z", "2022-10-22T15:50:00Z", "2022-10-22T15:50:00Z", "2022-10-22T16:00:00Z", "2022-10-22T16:00:00Z", "2022-10-22T16:00:00Z", "2022-10-22T16:00:00Z", "2022-10-22T16:00:00Z", "2022-10-22T16:00:00Z", "2022-10-22T16:00:00Z", "2022-10-22T16:00:00Z", "2022-10-22T16:00:00Z", "2022-10-22T16:00:00Z", "2022-10-22T16:00:00Z", "2022-10-22T16:00:00Z", "2022-10-22T16:00:00Z", "2022-10-22T16:00:00Z", "2022-10-22T15:50:00Z", "2022-10-22T15:50:00Z", "2022-10-22T15:50:00Z", "2022-10-22T15:50:00Z", "2022-10-22T15:50:00Z", "2022-10-22T15:50:00Z", "2022-10-22T15:50:00Z", "2022-10-22T15:50:00Z", "2022-10-22T15:50:00Z", "2022-10-22T15:50:00Z", "2022-10-22T15:50:00Z", "2022-10-22T15:50:00Z", "2022-10-22T15:50:00Z", "2022-10-22T15:50:00Z", "2022-10-22T15:50:00Z", "2022-10-22T15:50:00Z", "2022-10-22T15:50:00Z", "2022-10-22T15:50:00Z", "2022-10-22T15:50:00Z", "2022-10-22T15:20:00Z", "2022-10-22T15:50:00Z", "2022-10-22T15:50:00Z", "2022-10-22T15:50:00Z", "2022-10-22T15:50:00Z", "2022-10-22T15:50:00Z", "2022-10-22T15:50:00Z", "2022-10-22T15:50:00Z", "2022-10-22T15:50:00Z", "2022-10-22T15:50:00Z", "2022-10-22T15:50:00Z", "2022-10-22T15:50:00Z", "2022-10-22T15:50:00Z", "2022-10-22T15:50:00Z", "2022-10-22T15:50:00Z", "2022-10-22T15:50:00Z", "2022-10-22T15:50:00Z", "2022-10-22T15:50:00Z", "2022-10-22T15:50:00Z", "2022-10-22T15:50:00Z", "2022-10-22T15:50:00Z", "2022-10-22T15:50:00Z", "2022-10-22T15:50:00Z", "2022-10-22T15:50:00Z", "2022-10-22T15:50:00Z", "2022-10-22T15:50:00Z", "2022-10-22T15:50:00Z", "2022-10-22T15:50:00Z", "2022-10-22T15:55:00Z", "2022-10-22T15:55:00Z", "2022-10-22T15:55:00Z", "2022-10-22T15:20:00Z", "2022-10-22T15:20:00Z", "2022-10-22T15:20:00Z", "2022-10-22T15:20:00Z", "2022-10-22T15:20:00Z", "2022-10-22T15:20:00Z", "2022-10-22T15:20:00Z", "2022-10-22T15:20:00Z", "2022-10-22T15:55:00Z", "2022-10-22T15:55:00Z", "2022-10-22T15:55:00Z", "2022-10-22T15:48:00Z", "2022-10-22T15:20:00Z", "2022-10-22T15:20:00Z", "2022-10-22T15:20:00Z", "2022-10-22T15:20:00Z", "2022-10-22T15:20:00Z", "2022-10-22T15:20:00Z", "2022-10-22T15:55:00Z", "2022-10-22T15:20:00Z", "2022-10-22T15:20:00Z", "2022-10-22T15:20:00Z", "2022-10-22T15:20:00Z", "2022-10-22T15:20:00Z", "2022-10-22T15:20:00Z", "2022-10-22T15:50:00Z", "2022-10-22T15:50:00Z", "2022-10-22T15:50:00Z", "2022-10-22T15:50:00Z", "2022-10-22T15:50:00Z", "2022-10-22T15:50:00Z", "2022-10-22T15:50:00Z", "2022-10-22T16:00:00Z", "2022-10-22T16:00:00Z", "2022-10-22T16:00:00Z", "2022-10-22T16:00:00Z", "2022-10-22T16:00:00Z", "2022-10-22T16:00:00Z", "2022-10-22T16:00:00Z", "2022-10-22T15:00:00Z", "2022-10-22T16:00:00Z", "2022-10-22T16:00:00Z", "2022-10-22T16:00:00Z", "2022-10-22T16:00:00Z", "2022-10-22T16:00:00Z", "2022-10-22T16:00:00Z", "2022-10-22T15:00:00Z", "2022-10-22T16:00:00Z", "2022-10-22T16:00:00Z", "2022-10-22T15:00:00Z", "2022-10-22T15:00:00Z", "2022-10-22T16:00:00Z", "2022-10-22T15:00:00Z", "2022-10-22T15:00:00Z", "2022-10-22T15:00:00Z", "2022-10-22T15:00:00Z", "2022-10-22T16:00:00Z", "2022-10-22T16:00:00Z", "2022-10-22T16:00:00Z", "2022-10-22T15:55:00Z", "2022-10-22T15:00:00Z", "2022-10-22T15:00:00Z", "2022-10-22T16:00:00Z", "2022-10-22T16:00:00Z", "2022-10-22T16:00:00Z", "2022-10-22T16:00:00Z", "2022-10-22T16:00:00Z", "2022-10-22T15:00:00Z", "2022-10-22T16:00:00Z", "2022-10-22T15:00:00Z", "2022-10-22T16:00:00Z", "2022-10-22T15:00:00Z", "2022-10-22T15:00:00Z", "2022-10-22T15:00:00Z", "2022-10-22T16:00:00Z", "2022-10-22T15:00:00Z", "2022-10-22T15:00:00Z", "2022-10-22T15:00:00Z", "2022-10-22T15:00:00Z", "2022-10-22T15:00:00Z", "2022-10-22T15:00:00Z", "2022-10-22T15:00:00Z", "2022-10-22T15:00:00Z", "2022-10-22T15:00:00Z", "2022-10-22T16:00:00Z", "2022-10-22T16:00:00Z", "2022-10-22T15:00:00Z", "2022-10-22T15:00:00Z", "2022-10-22T16:00:00Z", "2022-10-22T15:00:00Z", "2022-10-22T16:00:00Z", "2022-10-22T16:00:00Z", "2022-10-22T16:00:00Z", "2022-10-22T15:00:00Z", "2022-10-22T16:00:00Z", "2022-10-22T16:00:00Z", "2022-10-22T15:00:00Z", "2022-10-22T15:00:00Z", "2022-10-22T16:00:00Z", "2022-10-22T15:35:00Z", "2022-10-22T15:00:00Z", "2022-10-22T15:00:00Z", "2022-10-22T15:00:00Z", "2022-10-22T15:00:00Z", "2022-10-22T15:00:00Z", "2022-10-22T15:00:00Z", "2022-10-22T15:00:00Z", "2022-10-22T15:00:00Z", "2022-10-22T16:00:00Z", "2022-10-22T16:00:00Z", "2022-10-22T16:00:00Z", "2022-10-22T16:00:00Z", "2022-10-22T15:00:00Z", "2022-10-22T15:00:00Z", "2022-10-22T16:00:00Z", "2022-10-22T16:00:00Z", "2022-10-22T16:00:00Z", "2022-10-22T16:00:00Z", "2022-10-22T16:00:00Z", "2022-10-22T16:00:00Z", "2022-10-22T16:00:00Z", "2022-10-22T16:00:00Z", "2022-10-22T16:00:00Z", "2022-10-22T15:30:00Z", "2022-10-22T16:00:00Z", "2022-10-22T16:00:00Z", "2022-10-22T16:00:00Z", "2022-10-22T16:00:00Z", "2022-10-22T16:00:00Z", "2022-10-22T16:00:00Z", "2022-10-22T16:00:00Z", "2022-10-22T16:00:00Z", "2022-10-22T16:00:00Z", "2022-10-22T16:00:00Z", "2022-10-22T16:00:00Z", "2022-10-22T16:00:00Z", "2022-10-22T16:00:00Z", "2022-10-22T16:00:00Z", "2022-10-22T16:00:00Z", "2022-10-22T16:00:00Z", "2022-10-22T16:00:00Z", "2022-10-22T16:00:00Z", "2022-10-22T16:00:00Z", "2022-10-22T16:00:00Z", "2022-10-22T16:00:00Z", "2022-10-22T15:00:00Z", "2022-10-22T16:00:00Z", "2022-10-22T16:00:00Z", "2022-10-22T16:00:00Z", "2022-10-22T16:00:00Z", "2022-10-22T16:00:00Z", "2022-10-22T16:00:00Z", "2022-10-22T16:00:00Z", "2022-10-22T16:00:00Z", "2022-10-22T16:00:00Z", "2022-10-22T16:00:00Z", "2022-10-22T16:00:00Z", "2022-10-22T16:00:00Z", "2022-10-22T16:00:00Z", "2022-10-22T16:00:00Z", "2022-10-22T15:00:00Z", "2022-10-22T15:00:00Z", "2022-10-22T15:00:00Z", "2022-10-22T16:00:00Z", "2022-10-22T15:00:00Z", "2022-10-22T15:00:00Z", "2022-10-22T16:00:00Z", "2022-10-22T15:00:00Z", "2022-10-22T15:00:00Z", "2022-10-22T15:00:00Z", "2022-10-22T15:00:00Z", "2022-10-22T15:00:00Z", "2022-10-22T15:00:00Z", "2022-10-22T15:00:00Z", "2022-10-22T16:00:00Z", "2022-10-22T16:00:00Z", "2022-10-22T15:00:00Z", "2022-10-22T15:00:00Z", "2022-10-22T15:00:00Z", "2022-10-22T15:30:00Z", "2022-10-22T15:00:00Z", "2022-10-22T15:00:00Z", "2022-10-22T15:00:00Z", "2022-10-22T15:00:00Z", "2022-10-22T15:00:00Z", "2022-10-22T15:00:00Z", "2022-10-22T15:00:00Z", "2022-10-22T15:00:00Z", "2022-10-22T16:00:00Z", "2022-10-22T15:00:00Z", "2022-10-22T15:00:00Z", "2022-10-22T15:00:00Z", "2022-10-22T15:00:00Z", "2022-10-22T15:00:00Z", "2022-10-22T15:00:00Z", "2022-10-22T15:00:00Z", "2022-10-22T15:00:00Z", "2022-10-22T15:00:00Z", "2022-10-22T15:00:00Z", "2022-10-22T15:00:00Z", "2022-10-22T15:00:00Z", "2022-10-22T15:00:00Z", "2022-10-22T15:00:00Z", "2022-10-22T15:00:00Z", "2022-10-22T15:00:00Z", "2022-10-22T15:00:00Z", "2022-10-22T15:00:00Z", "2022-10-22T15:00:00Z", "2022-10-22T15:30:00Z", "2022-10-22T15:55:00Z", "2022-10-22T15:55:00Z", "2022-10-22T15:55:00Z", "2022-10-22T15:55:00Z", "2022-10-22T15:55:00Z", "2022-10-22T15:55:00Z", "2022-10-22T15:55:00Z", "2022-10-22T15:55:00Z", "2022-10-22T15:55:00Z", "2022-10-22T15:55:00Z", "2022-10-22T15:55:00Z", "2022-10-22T15:58:00Z", "2022-10-22T15:55:00Z", "2022-10-22T15:55:00Z", "2022-10-22T15:55:00Z", "2022-10-22T15:55:00Z", "2022-10-22T15:55:00Z", "2022-10-22T15:55:00Z", "2022-10-22T15:54:00Z", "2022-10-22T15:55:00Z", "2022-10-22T15:55:00Z", "2022-10-22T15:55:00Z", "2022-10-22T15:55:00Z", "2022-10-22T15:55:00Z", "2022-10-22T15:55:00Z", "2022-10-22T15:55:00Z", "2022-10-22T15:55:00Z", "2022-10-22T15:55:00Z", "2022-10-22T15:55:00Z", "2022-10-22T15:56:00Z", "2022-10-22T15:55:00Z", "2022-10-22T15:56:00Z", "2022-10-22T15:55:00Z", "2022-10-22T15:56:00Z", "2022-10-22T15:55:00Z", "2022-10-22T15:55:00Z", "2022-10-22T15:56:00Z", "2022-10-22T15:56:00Z", "2022-10-22T15:55:00Z", "2022-10-22T15:55:00Z", "2022-10-22T15:56:00Z", "2022-10-22T15:55:00Z", "2022-10-22T15:55:00Z", "2022-10-22T15:56:00Z", "2022-10-22T15:56:00Z", "2022-10-22T15:55:00Z", "2022-10-22T15:56:00Z", "2022-10-22T15:55:00Z", "2022-10-22T15:55:00Z", "2022-10-22T15:56:00Z", "2022-10-22T15:55:00Z", "2022-10-22T15:56:00Z", "2022-10-22T15:55:00Z", "2022-10-22T15:55:00Z", "2022-10-22T15:55:00Z", "2022-10-22T15:55:00Z", "2022-10-22T15:55:00Z", "2022-10-22T15:55:00Z", "2022-10-22T15:55:00Z", "2022-10-22T15:55:00Z", "2022-10-22T16:00:00Z", "2022-10-22T15:55:00Z", "2022-10-22T15:54:00Z", "2022-10-22T15:55:00Z", "2022-10-22T15:55:00Z", "2022-10-22T15:55:00Z", "2022-10-22T15:55:00Z", "2022-10-22T15:55:00Z", "2022-10-22T15:55:00Z", "2022-10-22T15:55:00Z", "2022-10-22T15:55:00Z", "2022-10-22T15:55:00Z", "2022-10-22T15:55:00Z", "2022-10-22T15:55:00Z", "2022-10-22T15:55:00Z", "2022-10-22T15:55:00Z", "2022-10-22T15:55:00Z", "2022-10-22T15:55:00Z", "2022-10-22T15:55:00Z", "2022-10-22T15:55:00Z", "2022-10-22T15:55:00Z", "2022-10-22T15:55:00Z", "2022-10-22T15:55:00Z", "2022-10-22T15:55:00Z", "2022-10-22T15:59:00Z", "2022-10-22T15:56:00Z", "2022-10-22T15:55:00Z", "2022-10-22T15:55:00Z", "2022-10-22T15:55:00Z", "2022-10-22T15:50:00Z", "2022-10-22T16:00:00Z", "2022-10-22T15:55:00Z", "2022-10-22T15:55:00Z", "2022-10-22T15:55:00Z", "2022-10-22T15:55:00Z", "2022-10-22T15:55:00Z", "2022-10-22T15:55:00Z", "2022-10-22T15:55:00Z", "2022-10-22T15:55:00Z", "2022-10-22T15:55:00Z", "2022-10-22T16:00:00Z", "2022-10-22T15:16:00Z", "2022-10-22T15:55:00Z", "2022-10-22T15:55:00Z", "2022-10-22T15:55:00Z", "2022-10-22T15:55:00Z", "2022-10-22T15:55:00Z", "2022-10-22T15:55:00Z", "2022-10-22T15:55:00Z", "2022-10-22T15:55:00Z", "2022-10-22T15:55:00Z", "2022-10-22T15:55:00Z", "2022-10-22T15:55:00Z", "2022-10-22T15:55:00Z", "2022-10-22T15:55:00Z", "2022-10-22T15:55:00Z", "2022-10-22T15:55:00Z", "2022-10-22T15:55:00Z", "2022-10-22T15:55:00Z", "2022-10-22T15:55:00Z", "2022-10-22T15:50:00Z", "2022-10-22T15:55:00Z", "2022-10-22T15:55:00Z", "2022-10-22T15:55:00Z", "2022-10-22T15:55:00Z", "2022-10-22T15:55:00Z", "2022-10-22T15:55:00Z", "2022-10-22T15:35:00Z", "2022-10-22T15:50:00Z", "2022-10-22T15:55:00Z", "2022-10-22T15:55:00Z", "2022-10-22T15:55:00Z", "2022-10-22T15:55:00Z", "2022-10-22T15:55:00Z", "2022-10-22T15:55:00Z", "2022-10-22T15:55:00Z", "2022-10-22T15:55:00Z", "2022-10-22T15:55:00Z", "2022-10-22T15:51:00Z", "2022-10-22T15:55:00Z", "2022-10-22T15:55:00Z", "2022-10-22T15:55:00Z", "2022-10-22T15:55:00Z", "2022-10-22T16:00:00Z", "2022-10-22T15:55:00Z", "2022-10-22T15:55:00Z", "2022-10-22T15:56:00Z", "2022-10-22T15:55:00Z", "2022-10-22T15:55:00Z", "2022-10-22T15:55:00Z", "2022-10-22T15:55:00Z", "2022-10-22T15:55:00Z", "2022-10-22T15:55:00Z", "2022-10-22T15:56:00Z", "2022-10-22T15:55:00Z", "2022-10-22T15:55:00Z", "2022-10-22T15:55:00Z", "2022-10-22T15:55:00Z", "2022-10-22T15:55:00Z", "2022-10-22T15:55:00Z", "2022-10-22T15:55:00Z", "2022-10-22T15:55:00Z", "2022-10-22T15:53:00Z", "2022-10-22T15:54:00Z", "2022-10-22T15:55:00Z", "2022-10-22T15:55:00Z", "2022-10-22T15:51:00Z", "2022-10-22T15:55:00Z", "2022-10-22T15:52:00Z", "2022-10-22T15:52:00Z", "2022-10-22T15:53:00Z", "2022-10-22T15:53:00Z", "2022-10-22T15:55:00Z", "2022-10-22T15:55:00Z", "2022-10-22T15:53:00Z", "2022-10-22T15:55:00Z", "2022-10-22T15:55:00Z", "2022-10-22T15:51:00Z", "2022-10-22T15:53:00Z", "2022-10-22T15:54:00Z", "2022-10-22T15:56:00Z", "2022-10-22T15:56:00Z", "2022-10-22T15:53:00Z", "2022-10-22T15:55:00Z", "2022-10-22T15:47:00Z", "2022-10-22T15:55:00Z", "2022-10-22T15:55:00Z", "2022-10-22T15:55:00Z", "2022-10-22T15:47:00Z", "2022-10-22T15:55:00Z", "2022-10-22T15:55:00Z", "2022-10-22T15:53:00Z", "2022-10-22T16:03:00Z", "2022-10-22T15:56:00Z", "2022-10-22T15:55:00Z", "2022-10-22T15:52:00Z", "2022-10-22T15:55:00Z", "2022-10-22T15:55:00Z", "2022-10-22T15:53:00Z", "2022-10-22T15:53:00Z", "2022-10-22T15:55:00Z", "2022-10-22T15:55:00Z", "2022-10-22T15:53:00Z", "2022-10-22T15:51:00Z", "2022-10-22T15:55:00Z", "2022-10-22T15:53:00Z", "2022-10-22T15:35:00Z", "2022-10-22T15:55:00Z", "2022-10-22T15:55:00Z", "2022-10-22T15:55:00Z", "2022-10-22T15:55:00Z", "2022-10-22T15:56:00Z", "2022-10-22T15:55:00Z", "2022-10-22T15:56:00Z", "2022-10-22T15:55:00Z", "2022-10-22T15:55:00Z", "2022-10-22T15:54:00Z", "2022-10-22T15:53:00Z", "2022-10-22T15:54:00Z", "2022-10-22T15:54:00Z", "2022-10-22T15:51:00Z", "2022-10-22T15:53:00Z", "2022-10-22T15:56:00Z", "2022-10-22T15:55:00Z", "2022-10-22T15:50:00Z", "2022-10-22T15:54:00Z", "2022-10-22T15:52:00Z", "2022-10-22T15:53:00Z", "2022-10-22T15:55:00Z", "2022-10-22T15:53:00Z", "2022-10-22T15:53:00Z", "2022-10-22T15:55:00Z", "2022-10-22T15:53:00Z", "2022-10-22T15:53:00Z", "2022-10-22T15:56:00Z", "2022-10-22T15:45:00Z", "2022-10-22T15:55:00Z", "2022-10-22T15:50:00Z", "2022-10-22T15:55:00Z", "2022-10-22T15:55:00Z", "2022-10-22T15:53:00Z", "2022-10-22T15:53:00Z", "2022-10-22T15:53:00Z", "2022-10-22T15:54:00Z", "2022-10-22T15:53:00Z", "2022-10-22T15:54:00Z", "2022-10-22T15:58:00Z", "2022-10-22T15:55:00Z", "2022-10-22T15:53:00Z", "2022-10-22T15:57:00Z", "2022-10-22T15:52:00Z", "2022-10-22T15:55:00Z", "2022-10-22T15:53:00Z", "2022-10-22T15:53:00Z", "2022-10-22T15:56:00Z", "2022-10-22T15:55:00Z", "2022-10-22T15:52:00Z", "2022-10-22T15:56:00Z", "2022-10-22T15:55:00Z", "2022-10-22T15:53:00Z", "2022-10-22T15:53:00Z", "2022-10-22T15:48:00Z", "2022-10-22T15:56:00Z", "2022-10-22T15:55:00Z", "2022-10-22T15:55:00Z", "2022-10-22T15:55:00Z", "2022-10-22T15:55:00Z", "2022-10-22T15:55:00Z", "2022-10-22T15:53:00Z", "2022-10-22T15:55:00Z", "2022-10-22T15:52:00Z", "2022-10-22T15:55:00Z", "2022-10-22T15:55:00Z", "2022-10-22T15:51:00Z", "2022-10-22T15:45:00Z", "2022-10-22T15:53:00Z", "2022-10-22T15:53:00Z", "2022-10-22T15:55:00Z", "2022-10-22T15:57:00Z", "2022-10-22T15:55:00Z", "2022-10-22T15:56:00Z", "2022-10-22T15:53:00Z", "2022-10-22T15:54:00Z", "2022-10-22T15:55:00Z", "2022-10-22T15:55:00Z", "2022-10-22T15:54:00Z", "2022-10-22T15:54:00Z", "2022-10-22T15:55:00Z", "2022-10-22T16:10:00Z", "2022-10-22T15:55:00Z", "2022-10-22T15:53:00Z", "2022-10-22T16:08:00Z", "2022-10-22T15:55:00Z", "2022-10-22T15:55:00Z", "2022-10-22T15:53:00Z", "2022-10-22T15:55:00Z", "2022-10-22T15:55:00Z", "2022-10-22T15:55:00Z", "2022-10-22T15:55:00Z", "2022-10-22T15:55:00Z", "2022-10-22T15:55:00Z", "2022-10-22T15:53:00Z", "2022-10-22T15:55:00Z", "2022-10-22T15:55:00Z", "2022-10-22T15:55:00Z", "2022-10-22T15:53:00Z", "2022-10-22T15:45:00Z", "2022-10-22T15:55:00Z", "2022-10-22T16:01:00Z", "2022-10-22T15:55:00Z", "2022-10-22T15:51:00Z", "2022-10-22T15:15:00Z", "2022-10-22T15:55:00Z", "2022-10-22T15:45:00Z", "2022-10-22T15:55:00Z", "2022-10-22T15:53:00Z", "2022-10-22T15:55:00Z", "2022-10-22T15:53:00Z", "2022-10-22T15:55:00Z", "2022-10-22T15:58:00Z", "2022-10-22T15:53:00Z", "2022-10-22T15:53:00Z", "2022-10-22T15:55:00Z", "2022-10-22T15:55:00Z", "2022-10-22T15:51:00Z", "2022-10-22T15:55:00Z", "2022-10-22T15:52:00Z", "2022-10-22T15:55:00Z", "2022-10-22T15:55:00Z", "2022-10-22T15:55:00Z", "2022-10-22T15:51:00Z", "2022-10-22T15:53:00Z", "2022-10-22T15:53:00Z", "2022-10-22T15:53:00Z", "2022-10-22T15:53:00Z", "2022-10-22T15:54:00Z", "2022-10-22T15:53:00Z", "2022-10-22T15:51:00Z", "2022-10-22T15:55:00Z", "2022-10-22T15:55:00Z", "2022-10-22T15:53:00Z", "2022-10-22T15:53:00Z", "2022-10-22T15:56:00Z", "2022-10-22T15:55:00Z", "2022-10-22T15:56:00Z", "2022-10-22T15:53:00Z", "2022-10-22T15:56:00Z", "2022-10-22T15:55:00Z", "2022-10-22T15:55:00Z", "2022-10-22T15:56:00Z", "2022-10-22T15:55:00Z", "2022-10-22T15:53:00Z", "2022-10-22T15:52:00Z", "2022-10-22T15:53:00Z", "2022-10-22T15:55:00Z", "2022-10-22T15:45:00Z", "2022-10-22T15:55:00Z", "2022-10-22T15:56:00Z", "2022-10-22T15:52:00Z", "2022-10-22T15:55:00Z", "2022-10-22T15:53:00Z", "2022-10-22T15:58:00Z", "2022-10-22T15:53:00Z", "2022-10-22T15:55:00Z", "2022-10-22T15:55:00Z", "2022-10-22T15:53:00Z", "2022-10-22T15:51:00Z", "2022-10-22T15:56:00Z", "2022-10-22T15:52:00Z", "2022-10-22T15:52:00Z", "2022-10-22T16:00:00Z", "2022-10-22T15:56:00Z", "2022-10-22T16:06:00Z", "2022-10-22T15:55:00Z", "2022-10-22T15:55:00Z", "2022-10-22T15:53:00Z", "2022-10-22T15:56:00Z", "2022-10-22T15:52:00Z", "2022-10-22T15:53:00Z", "2022-10-22T15:55:00Z", "2022-10-22T15:53:00Z", "2022-10-22T15:53:00Z", "2022-10-22T15:55:00Z", "2022-10-22T15:53:00Z", "2022-10-22T15:56:00Z", "2022-10-22T15:54:00Z", "2022-10-22T15:50:00Z", "2022-10-22T15:55:00Z", "2022-10-22T15:55:00Z", "2022-10-22T15:53:00Z", "2022-10-22T15:53:00Z", "2022-10-22T15:53:00Z", "2022-10-22T15:55:00Z", "2022-10-22T15:50:00Z", "2022-10-22T15:55:00Z", "2022-10-22T15:53:00Z", "2022-10-22T15:55:00Z", "2022-10-22T15:53:00Z", "2022-10-22T15:53:00Z", "2022-10-22T15:55:00Z", "2022-10-22T15:55:00Z", "2022-10-22T15:53:00Z", "2022-10-22T15:55:00Z", "2022-10-22T15:56:00Z", "2022-10-22T15:53:00Z", "2022-10-22T15:54:00Z", "2022-10-22T15:54:00Z", "2022-10-22T16:03:00Z", "2022-10-22T15:55:00Z", "2022-10-22T15:54:00Z", "2022-10-22T15:55:00Z", "2022-10-22T15:55:00Z", "2022-10-22T15:53:00Z", "2022-10-22T15:55:00Z", "2022-10-22T15:55:00Z", "2022-10-22T16:12:00Z", "2022-10-22T15:53:00Z", "2022-10-22T15:53:00Z", "2022-10-22T15:54:00Z", "2022-10-22T15:55:00Z", "2022-10-22T15:55:00Z", "2022-10-22T15:55:00Z", "2022-10-22T15:55:00Z", "2022-10-22T15:53:00Z", "2022-10-22T15:53:00Z", "2022-10-22T15:55:00Z", "2022-10-22T15:55:00Z", "2022-10-22T15:55:00Z", "2022-10-22T15:56:00Z", "2022-10-22T15:55:00Z", "2022-10-22T15:55:00Z", "2022-10-22T15:55:00Z", "2022-10-22T15:55:00Z", "2022-10-22T15:55:00Z", "2022-10-22T15:55:00Z", "2022-10-22T15:55:00Z", "2022-10-22T15:58:00Z", "2022-10-22T15:55:00Z", "2022-10-22T15:56:00Z", "2022-10-22T15:53:00Z", "2022-10-22T15:51:00Z", "2022-10-22T15:55:00Z", "2022-10-22T15:54:00Z", "2022-10-22T15:55:00Z", "2022-10-22T15:55:00Z", "2022-10-22T15:55:00Z", "2022-10-22T15:55:00Z", "2022-10-22T15:55:00Z", "2022-10-22T15:55:00Z", "2022-10-22T15:55:00Z", "2022-10-22T15:55:00Z", "2022-10-22T15:53:00Z", "2022-10-22T15:55:00Z", "2022-10-22T15:55:00Z", "2022-10-22T15:55:00Z", "2022-10-22T15:53:00Z", "2022-10-22T15:53:00Z", "2022-10-22T15:55:00Z", "2022-10-22T15:51:00Z", "2022-10-22T15:55:00Z", "2022-10-22T15:53:00Z", "2022-10-22T15:53:00Z", "2022-10-22T15:53:00Z", "2022-10-22T15:56:00Z", "2022-10-22T15:55:00Z", "2022-10-22T15:54:00Z", "2022-10-22T15:53:00Z", "2022-10-22T15:55:00Z", "2022-10-22T15:53:00Z", "2022-10-22T15:55:00Z", "2022-10-22T15:55:00Z", "2022-10-22T15:55:00Z", "2022-10-22T15:55:00Z", "2022-10-22T15:52:00Z", "2022-10-22T15:55:00Z", "2022-10-22T15:55:00Z", "2022-10-22T15:45:00Z", "2022-10-22T15:53:00Z", "2022-10-22T15:56:00Z", "2022-10-22T15:53:00Z", "2022-10-22T15:47:00Z", "2022-10-22T15:50:00Z", "2022-10-22T15:53:00Z", "2022-10-22T15:56:00Z", "2022-10-22T15:47:00Z", "2022-10-22T15:52:00Z", "2022-10-22T15:55:00Z", "2022-10-22T15:55:00Z", "2022-10-22T15:55:00Z", "2022-10-22T15:56:00Z", "2022-10-22T15:55:00Z", "2022-10-22T15:53:00Z", "2022-10-22T15:55:00Z", "2022-10-22T15:55:00Z", "2022-10-22T15:55:00Z", "2022-10-22T15:55:00Z", "2022-10-22T15:55:00Z", "2022-10-22T15:55:00Z", "2022-10-22T15:52:00Z", "2022-10-22T15:55:00Z", "2022-10-22T15:51:00Z", "2022-10-22T15:55:00Z", "2022-10-22T15:53:00Z", "2022-10-22T15:53:00Z", "2022-10-22T15:55:00Z", "2022-10-22T15:52:00Z", "2022-10-22T15:55:00Z", "2022-10-22T15:55:00Z", "2022-10-22T15:55:00Z", "2022-10-22T15:51:00Z", "2022-10-22T15:53:00Z", "2022-10-22T15:55:00Z", "2022-10-22T15:53:00Z", "2022-10-22T15:58:00Z", "2022-10-22T15:55:00Z", "2022-10-22T15:55:00Z", "2022-10-22T15:55:00Z", "2022-10-22T15:55:00Z", "2022-10-22T15:53:00Z", "2022-10-22T15:53:00Z", "2022-10-22T15:52:00Z", "2022-10-22T15:56:00Z", "2022-10-22T15:53:00Z", "2022-10-22T15:56:00Z", "2022-10-22T15:56:00Z", "2022-10-22T15:55:00Z", "2022-10-22T15:55:00Z", "2022-10-22T15:51:00Z", "2022-10-22T15:55:00Z", "2022-10-22T15:54:00Z", "2022-10-22T15:53:00Z", "2022-10-22T15:54:00Z", "2022-10-22T15:55:00Z", "2022-10-22T15:53:00Z", "2022-10-22T15:53:00Z", "2022-10-22T15:55:00Z", "2022-10-22T15:55:00Z", "2022-10-22T15:55:00Z", "2022-10-22T15:55:00Z", "2022-10-22T15:53:00Z", "2022-10-22T15:55:00Z", "2022-10-22T15:57:00Z", "2022-10-22T16:07:00Z", "2022-10-22T15:55:00Z", "2022-10-22T15:52:00Z", "2022-10-22T15:53:00Z", "2022-10-22T15:53:00Z", "2022-10-22T15:51:00Z", "2022-10-22T15:53:00Z", "2022-10-22T16:09:00Z", "2022-10-22T15:54:00Z", "2022-10-22T15:55:00Z", "2022-10-22T15:51:00Z", "2022-10-22T15:53:00Z", "2022-10-22T15:55:00Z", "2022-10-22T15:53:00Z", "2022-10-22T16:11:00Z", "2022-10-22T15:55:00Z", "2022-10-22T15:55:00Z", "2022-10-22T15:55:00Z", "2022-10-22T15:53:00Z", "2022-10-22T15:55:00Z", "2022-10-22T15:53:00Z", "2022-10-22T15:53:00Z", "2022-10-22T15:55:00Z", "2022-10-22T15:52:00Z", "2022-10-22T15:55:00Z", "2022-10-22T15:56:00Z", "2022-10-22T15:56:00Z", "2022-10-22T15:55:00Z", "2022-10-22T15:55:00Z", "2022-10-22T15:47:00Z", "2022-10-22T15:55:00Z", "2022-10-22T15:49:00Z", "2022-10-22T15:56:00Z", "2022-10-22T15:55:00Z", "2022-10-22T15:55:00Z", "2022-10-22T15:55:00Z", "2022-10-22T15:53:00Z", "2022-10-22T15:55:00Z", "2022-10-22T15:55:00Z", "2022-10-22T15:55:00Z", "2022-10-22T15:56:00Z", "2022-10-22T15:54:00Z", "2022-10-22T15:53:00Z", "2022-10-22T15:55:00Z", "2022-10-22T15:55:00Z", "2022-10-22T15:56:00Z", "2022-10-22T15:55:00Z", "2022-10-22T15:55:00Z", "2022-10-22T15:55:00Z", "2022-10-22T15:55:00Z", "2022-10-22T15:55:00Z", "2022-10-22T15:55:00Z", "2022-10-22T15:55:00Z", "2022-10-22T15:55:00Z", "2022-10-22T15:53:00Z", "2022-10-22T15:50:00Z", "2022-10-22T15:53:00Z", "2022-10-22T15:53:00Z", "2022-10-22T15:51:00Z", "2022-10-22T15:56:00Z", "2022-10-22T15:55:00Z", "2022-10-22T15:53:00Z", "2022-10-22T15:52:00Z", "2022-10-22T15:55:00Z", "2022-10-22T15:53:00Z", "2022-10-22T15:55:00Z", "2022-10-22T15:52:00Z", "2022-10-22T15:54:00Z", "2022-10-22T15:54:00Z", "2022-10-22T15:55:00Z", "2022-10-22T15:55:00Z", "2022-10-22T15:53:00Z", "2022-10-22T15:53:00Z", "2022-10-22T15:53:00Z", "2022-10-22T15:53:00Z", "2022-10-22T15:53:00Z", "2022-10-22T15:53:00Z", "2022-10-22T15:53:00Z", "2022-10-22T15:53:00Z", "2022-10-22T15:53:00Z", "2022-10-22T15:56:00Z", "2022-10-22T16:06:00Z", "2022-10-22T15:55:00Z", "2022-10-22T15:53:00Z", "2022-10-22T15:55:00Z", "2022-10-22T15:55:00Z", "2022-10-22T15:55:00Z", "2022-10-22T15:55:00Z", "2022-10-22T15:53:00Z", "2022-10-22T15:55:00Z", "2022-10-22T15:53:00Z", "2022-10-22T15:55:00Z", "2022-10-22T15:55:00Z", "2022-10-22T15:54:00Z", "2022-10-22T15:53:00Z", "2022-10-22T15:53:00Z", "2022-10-22T15:55:00Z", "2022-10-22T15:55:00Z", "2022-10-22T15:53:00Z", "2022-10-22T15:55:00Z", "2022-10-22T15:55:00Z", "2022-10-22T15:55:00Z", "2022-10-22T15:55:00Z", "2022-10-22T15:52:00Z", "2022-10-22T15:55:00Z", "2022-10-22T15:55:00Z", "2022-10-22T15:53:00Z", "2022-10-22T15:55:00Z", "2022-10-22T15:55:00Z", "2022-10-22T15:53:00Z", "2022-10-22T15:53:00Z", "2022-10-22T15:50:00Z", "2022-10-22T15:54:00Z", "2022-10-22T15:54:00Z", "2022-10-22T15:55:00Z", "2022-10-22T15:55:00Z", "2022-10-22T15:53:00Z", "2022-10-22T15:53:00Z", "2022-10-22T15:53:00Z", "2022-10-22T15:53:00Z", "2022-10-22T15:55:00Z", "2022-10-22T15:54:00Z", "2022-10-22T15:55:00Z", "2022-10-22T15:55:00Z", "2022-10-22T15:53:00Z", "2022-10-22T15:55:00Z", "2022-10-22T15:50:00Z", "2022-10-22T15:56:00Z", "2022-10-22T15:52:00Z", "2022-10-22T15:55:00Z", "2022-10-22T15:53:00Z", "2022-10-22T15:53:00Z", "2022-10-22T15:55:00Z", "2022-10-22T15:53:00Z", "2022-10-22T15:56:00Z", "2022-10-22T15:50:00Z", "2022-10-22T15:53:00Z", "2022-10-22T15:55:00Z", "2022-10-22T15:55:00Z", "2022-10-22T15:54:00Z", "2022-10-22T15:56:00Z", "2022-10-22T15:55:00Z", "2022-10-22T15:55:00Z", "2022-10-22T15:55:00Z", "2022-10-22T15:55:00Z", "2022-10-22T16:00:00Z", "2022-10-22T15:55:00Z", "2022-10-22T15:55:00Z", "2022-10-22T15:55:00Z", "2022-10-22T15:55:00Z", "2022-10-22T15:50:00Z", "2022-10-22T15:56:00Z", "2022-10-22T15:55:00Z", "2022-10-22T15:56:00Z", "2022-10-22T15:55:00Z", "2022-10-22T15:55:00Z", "2022-10-22T15:55:00Z", "2022-10-22T15:54:00Z", "2022-10-22T15:53:00Z", "2022-10-22T15:55:00Z", "2022-10-22T15:55:00Z", "2022-10-22T15:55:00Z", "2022-10-22T15:55:00Z", "2022-10-22T15:55:00Z", "2022-10-22T15:55:00Z", "2022-10-22T16:00:00Z", "2022-10-22T15:55:00Z", "2022-10-22T15:56:00Z", "2022-10-22T15:56:00Z", "2022-10-22T15:53:00Z", "2022-10-22T15:53:00Z", "2022-10-22T15:54:00Z", "2022-10-22T15:55:00Z", "2022-10-22T16:11:00Z", "2022-10-22T15:55:00Z", "2022-10-22T15:55:00Z", "2022-10-22T15:55:00Z", "2022-10-22T15:55:00Z", "2022-10-22T15:55:00Z", "2022-10-22T15:56:00Z", "2022-10-22T15:55:00Z", "2022-10-22T15:55:00Z", "2022-10-22T15:51:00Z", "2022-10-22T15:56:00Z", "2022-10-22T15:56:00Z", "2022-10-22T15:55:00Z", "2022-10-22T15:55:00Z", "2022-10-22T15:56:00Z", "2022-10-22T15:55:00Z", "2022-10-22T15:53:00Z", "2022-10-22T15:55:00Z", "2022-10-22T15:53:00Z", "2022-10-22T15:53:00Z", "2022-10-22T15:55:00Z", "2022-10-22T15:51:00Z", "2022-10-22T15:53:00Z", "2022-10-22T15:56:00Z", "2022-10-22T15:55:00Z", "2022-10-22T15:53:00Z", "2022-10-22T15:45:00Z", "2022-10-22T15:55:00Z", "2022-10-22T15:56:00Z", "2022-10-22T15:53:00Z", "2022-10-22T15:55:00Z", "2022-10-22T15:53:00Z", "2022-10-22T15:55:00Z", "2022-10-22T15:53:00Z", "2022-10-22T15:51:00Z", "2022-10-22T15:55:00Z", "2022-10-22T15:55:00Z", "2022-10-22T15:56:00Z", "2022-10-22T15:53:00Z", "2022-10-22T15:45:00Z", "2022-10-22T15:52:00Z", "2022-10-22T15:55:00Z", "2022-10-22T15:53:00Z", "2022-10-22T15:55:00Z", "2022-10-22T15:58:00Z", "2022-10-22T15:54:00Z", "2022-10-22T15:47:00Z", "2022-10-22T16:01:00Z", "2022-10-22T15:55:00Z", "2022-10-22T15:54:00Z", "2022-10-22T15:53:00Z", "2022-10-22T15:53:00Z", "2022-10-22T15:56:00Z", "2022-10-22T15:54:00Z", "2022-10-22T15:51:00Z", "2022-10-22T15:55:00Z", "2022-10-22T15:53:00Z", "2022-10-22T15:55:00Z", "2022-10-22T15:53:00Z", "2022-10-22T15:55:00Z", "2022-10-22T15:55:00Z", "2022-10-22T15:55:00Z", "2022-10-22T15:55:00Z", "2022-10-22T15:55:00Z", "2022-10-22T15:55:00Z", "2022-10-22T15:55:00Z", "2022-10-22T15:55:00Z", "2022-10-22T15:55:00Z", "2022-10-22T15:55:00Z", "2022-10-22T15:56:00Z", "2022-10-22T16:01:00Z", "2022-10-22T15:53:00Z", "2022-10-22T15:53:00Z", "2022-10-22T15:55:00Z", "2022-10-22T15:55:00Z", "2022-10-22T15:56:00Z", "2022-10-22T15:53:00Z", "2022-10-22T15:55:00Z", "2022-10-22T15:47:00Z", "2022-10-22T15:53:00Z", "2022-10-22T15:53:00Z", "2022-10-22T15:55:00Z", "2022-10-22T15:55:00Z", "2022-10-22T15:53:00Z", "2022-10-22T15:55:00Z", "2022-10-22T15:55:00Z", "2022-10-22T15:55:00Z", "2022-10-22T15:53:00Z", "2022-10-22T15:55:00Z", "2022-10-22T15:54:00Z", "2022-10-22T15:55:00Z", "2022-10-22T15:55:00Z", "2022-10-22T15:55:00Z", "2022-10-22T15:53:00Z", "2022-10-22T15:55:00Z", "2022-10-22T15:54:00Z", "2022-10-22T15:50:00Z", "2022-10-22T15:52:00Z", "2022-10-22T15:55:00Z", "2022-10-22T15:56:00Z", "2022-10-22T15:55:00Z", "2022-10-22T15:55:00Z", "2022-10-22T15:55:00Z", "2022-10-22T15:53:00Z", "2022-10-22T15:57:00Z", "2022-10-22T15:53:00Z", "2022-10-22T15:53:00Z", "2022-10-22T15:56:00Z", "2022-10-22T15:55:00Z", "2022-10-22T15:59:00Z", "2022-10-22T15:55:00Z", "2022-10-22T15:53:00Z", "2022-10-22T15:53:00Z", "2022-10-22T15:53:00Z", "2022-10-22T15:56:00Z", "2022-10-22T15:53:00Z", "2022-10-22T15:55:00Z", "2022-10-22T15:56:00Z", "2022-10-22T15:53:00Z", "2022-10-22T15:53:00Z", "2022-10-22T15:50:00Z", "2022-10-22T15:53:00Z", "2022-10-22T15:55:00Z", "2022-10-22T15:53:00Z", "2022-10-22T15:55:00Z", "2022-10-22T15:55:00Z", "2022-10-22T15:53:00Z", "2022-10-22T15:55:00Z", "2022-10-22T15:56:00Z", "2022-10-22T15:56:00Z", "2022-10-22T15:55:00Z", "2022-10-22T15:55:00Z", "2022-10-22T15:55:00Z", "2022-10-22T15:53:00Z", "2022-10-22T15:55:00Z", "2022-10-22T15:53:00Z", "2022-10-22T15:55:00Z", "2022-10-22T15:55:00Z", "2022-10-22T15:55:00Z", "2022-10-22T15:53:00Z", "2022-10-22T15:53:00Z", "2022-10-22T15:53:00Z", "2022-10-22T15:53:00Z", "2022-10-22T15:55:00Z", "2022-10-22T15:54:00Z", "2022-10-22T15:55:00Z", "2022-10-22T15:55:00Z", "2022-10-22T15:52:00Z", "2022-10-22T15:55:00Z", "2022-10-22T15:53:00Z", "2022-10-22T15:55:00Z", "2022-10-22T15:50:00Z", "2022-10-22T15:15:00Z", "2022-10-22T15:55:00Z", "2022-10-22T16:00:00Z", "2022-10-22T15:53:00Z", "2022-10-22T15:55:00Z", "2022-10-22T15:56:00Z", "2022-10-22T15:53:00Z", "2022-10-22T15:56:00Z", "2022-10-22T15:55:00Z", "2022-10-22T15:56:00Z", "2022-10-22T15:55:00Z", "2022-10-22T15:50:00Z", "2022-10-22T15:53:00Z", "2022-10-22T15:55:00Z", "2022-10-22T15:54:00Z", "2022-10-22T15:55:00Z", "2022-10-22T15:54:00Z", "2022-10-22T15:55:00Z", "2022-10-22T15:55:00Z", "2022-10-22T15:55:00Z", "2022-10-22T15:51:00Z", "2022-10-22T15:56:00Z", "2022-10-22T15:54:00Z", "2022-10-22T15:53:00Z", "2022-10-22T15:55:00Z", "2022-10-22T15:55:00Z", "2022-10-22T15:53:00Z", "2022-10-22T15:53:00Z", "2022-10-22T15:55:00Z", "2022-10-22T15:53:00Z", "2022-10-22T15:53:00Z", "2022-10-22T15:55:00Z", "2022-10-22T15:55:00Z", "2022-10-22T15:53:00Z", "2022-10-22T15:55:00Z", "2022-10-22T15:55:00Z", "2022-10-22T15:53:00Z", "2022-10-22T15:55:00Z", "2022-10-22T15:55:00Z", "2022-10-22T15:55:00Z", "2022-10-22T15:55:00Z", "2022-10-22T15:53:00Z", "2022-10-22T15:53:00Z", "2022-10-22T15:53:00Z", "2022-10-22T15:55:00Z", "2022-10-22T15:53:00Z", "2022-10-22T15:53:00Z", "2022-10-22T15:55:00Z", "2022-10-22T15:53:00Z", "2022-10-22T15:53:00Z", "2022-10-22T15:52:00Z", "2022-10-22T15:55:00Z", "2022-10-22T15:55:00Z", "2022-10-22T15:55:00Z", "2022-10-22T15:55:00Z", "2022-10-22T15:53:00Z", "2022-10-22T15:56:00Z", "2022-10-22T15:55:00Z", "2022-10-22T15:55:00Z", "2022-10-22T15:55:00Z", "2022-10-22T15:56:00Z", "2022-10-22T15:53:00Z", "2022-10-22T15:53:00Z", "2022-10-22T15:56:00Z", "2022-10-22T15:55:00Z", "2022-10-22T15:55:00Z", "2022-10-22T15:58:00Z", "2022-10-22T15:55:00Z", "2022-10-22T15:55:00Z", "2022-10-22T15:50:00Z", "2022-10-22T15:53:00Z", "2022-10-22T15:56:00Z", "2022-10-22T15:53:00Z", "2022-10-22T15:56:00Z", "2022-10-22T15:58:00Z", "2022-10-22T15:53:00Z", "2022-10-22T15:55:00Z", "2022-10-22T15:55:00Z", "2022-10-22T15:53:00Z", "2022-10-22T15:55:00Z", "2022-10-22T15:55:00Z", "2022-10-22T15:53:00Z", "2022-10-22T15:54:00Z", "2022-10-22T15:53:00Z", "2022-10-22T15:55:00Z", "2022-10-22T15:53:00Z", "2022-10-22T15:56:00Z", "2022-10-22T15:56:00Z", "2022-10-22T15:56:00Z", "2022-10-22T15:53:00Z", "2022-10-22T15:55:00Z", "2022-10-22T15:53:00Z", "2022-10-22T15:53:00Z", "2022-10-22T15:56:00Z", "2022-10-22T15:55:00Z", "2022-10-22T15:50:00Z", "2022-10-22T15:55:00Z", "2022-10-22T15:53:00Z", "2022-10-22T15:55:00Z", "2022-10-22T15:55:00Z", "2022-10-22T15:56:00Z", "2022-10-22T15:55:00Z", "2022-10-22T15:55:00Z", "2022-10-22T15:47:00Z", "2022-10-22T15:50:00Z", "2022-10-22T15:55:00Z", "2022-10-22T15:47:00Z", "2022-10-22T15:45:00Z", "2022-10-22T15:53:00Z", "2022-10-22T15:55:00Z", "2022-10-22T15:40:00Z", "2022-10-22T15:55:00Z", "2022-10-22T15:55:00Z", "2022-10-22T15:55:00Z", "2022-10-22T15:55:00Z", "2022-10-22T15:55:00Z", "2022-10-22T15:53:00Z", "2022-10-22T15:53:00Z", "2022-10-22T15:55:00Z", "2022-10-22T15:53:00Z", "2022-10-22T15:50:00Z", "2022-10-22T15:55:00Z", "2022-10-22T15:55:00Z", "2022-10-22T15:55:00Z", "2022-10-22T16:01:00Z", "2022-10-22T15:55:00Z", "2022-10-22T15:55:00Z", "2022-10-22T16:05:00Z", "2022-10-22T16:09:00Z", "2022-10-22T15:56:00Z", "2022-10-22T15:55:00Z", "2022-10-22T15:53:00Z", "2022-10-22T15:55:00Z", "2022-10-22T15:55:00Z", "2022-10-22T15:56:00Z", "2022-10-22T15:53:00Z", "2022-10-22T15:55:00Z", "2022-10-22T15:55:00Z", "2022-10-22T15:53:00Z", "2022-10-22T15:55:00Z", "2022-10-22T15:55:00Z", "2022-10-22T15:53:00Z", "2022-10-22T15:55:00Z", "2022-10-22T15:54:00Z", "2022-10-22T15:53:00Z", "2022-10-22T15:52:00Z", "2022-10-22T15:55:00Z", "2022-10-22T15:55:00Z", "2022-10-22T16:00:00Z", "2022-10-22T15:55:00Z", "2022-10-22T15:53:00Z", "2022-10-22T15:53:00Z", "2022-10-22T15:53:00Z", "2022-10-22T15:53:00Z", "2022-10-22T15:55:00Z", "2022-10-22T15:53:00Z", "2022-10-22T15:53:00Z", "2022-10-22T15:53:00Z", "2022-10-22T15:55:00Z", "2022-10-22T15:55:00Z", "2022-10-22T15:55:00Z", "2022-10-22T15:55:00Z", "2022-10-22T15:55:00Z", "2022-10-22T15:55:00Z", "2022-10-22T15:56:00Z", "2022-10-22T15:56:00Z", "2022-10-22T15:55:00Z", "2022-10-22T15:50:00Z", "2022-10-22T15:55:00Z", "2022-10-22T15:55:00Z", "2022-10-22T15:55:00Z", "2022-10-22T15:53:00Z", "2022-10-22T15:53:00Z", "2022-10-22T15:56:00Z", "2022-10-22T15:55:00Z", "2022-10-22T15:55:00Z", "2022-10-22T15:55:00Z", "2022-10-22T15:53:00Z", "2022-10-22T15:55:00Z", "2022-10-22T15:50:00Z", "2022-10-22T16:00:00Z", "2022-10-22T15:53:00Z", "2022-10-22T15:55:00Z", "2022-10-22T15:52:00Z", "2022-10-22T15:53:00Z", "2022-10-22T15:55:00Z", "2022-10-22T15:55:00Z", "2022-10-22T15:50:00Z", "2022-10-22T15:55:00Z", "2022-10-22T15:55:00Z", "2022-10-22T15:51:00Z", "2022-10-22T15:50:00Z", "2022-10-22T15:55:00Z", "2022-10-22T15:55:00Z", "2022-10-22T15:53:00Z", "2022-10-22T15:53:00Z", "2022-10-22T15:51:00Z", "2022-10-22T15:53:00Z", "2022-10-22T15:53:00Z", "2022-10-22T15:47:00Z", "2022-10-22T15:52:00Z", "2022-10-22T15:55:00Z", "2022-10-22T15:53:00Z", "2022-10-22T15:53:00Z", "2022-10-22T15:55:00Z", "2022-10-22T15:54:00Z", "2022-10-22T15:53:00Z", "2022-10-22T15:56:00Z", "2022-10-22T15:55:00Z", "2022-10-22T15:50:00Z", "2022-10-22T15:56:00Z", "2022-10-22T15:56:00Z", "2022-10-22T15:53:00Z", "2022-10-22T15:56:00Z", "2022-10-22T15:55:00Z", "2022-10-22T15:55:00Z", "2022-10-22T15:55:00Z", "2022-10-22T15:55:00Z", "2022-10-22T15:55:00Z", "2022-10-22T15:55:00Z", "2022-10-22T15:55:00Z", "2022-10-22T15:53:00Z", "2022-10-22T15:55:00Z", "2022-10-22T15:55:00Z", "2022-10-22T15:55:00Z", "2022-10-22T15:55:00Z", "2022-10-22T15:55:00Z", "2022-10-22T15:55:00Z", "2022-10-22T15:55:00Z", "2022-10-22T15:55:00Z", "2022-10-22T15:55:00Z", "2022-10-22T15:52:00Z", "2022-10-22T15:53:00Z", "2022-10-22T15:53:00Z", "2022-10-22T15:55:00Z", "2022-10-22T15:55:00Z", "2022-10-22T15:53:00Z", "2022-10-22T15:53:00Z", "2022-10-22T15:53:00Z", "2022-10-22T15:55:00Z", "2022-10-22T15:55:00Z", "2022-10-22T15:52:00Z", "2022-10-22T15:55:00Z", "2022-10-22T15:55:00Z", "2022-10-22T15:50:00Z", "2022-10-22T15:51:00Z", "2022-10-22T15:55:00Z", "2022-10-22T15:55:00Z", "2022-10-22T15:55:00Z", "2022-10-22T15:52:00Z", "2022-10-22T15:55:00Z", "2022-10-22T15:55:00Z", "2022-10-22T15:55:00Z", "2022-10-22T15:55:00Z", "2022-10-22T15:56:00Z", "2022-10-22T15:51:00Z", "2022-10-22T15:53:00Z", "2022-10-22T15:54:00Z", "2022-10-22T15:53:00Z", "2022-10-22T15:55:00Z", "2022-10-22T15:54:00Z", "2022-10-22T15:54:00Z", "2022-10-22T15:55:00Z", "2022-10-22T15:55:00Z", "2022-10-22T15:53:00Z", "2022-10-22T15:54:00Z", "2022-10-22T15:55:00Z", "2022-10-22T15:54:00Z", "2022-10-22T15:56:00Z", "2022-10-22T15:55:00Z", "2022-10-22T15:52:00Z", "2022-10-22T15:53:00Z", "2022-10-22T15:54:00Z", "2022-10-22T15:55:00Z", "2022-10-22T15:55:00Z", "2022-10-22T15:56:00Z", "2022-10-22T15:56:00Z", "2022-10-22T15:56:00Z", "2022-10-22T15:55:00Z", "2022-10-22T15:54:00Z", "2022-10-22T15:56:00Z", "2022-10-22T15:53:00Z", "2022-10-22T15:49:00Z", "2022-10-22T15:56:00Z", "2022-10-22T15:53:00Z", "2022-10-22T15:53:00Z", "2022-10-22T15:55:00Z", "2022-10-22T15:55:00Z", "2022-10-22T15:54:00Z", "2022-10-22T15:56:00Z", "2022-10-22T15:54:00Z", "2022-10-22T15:55:00Z", "2022-10-22T15:55:00Z", "2022-10-22T15:56:00Z", "2022-10-22T15:53:00Z", "2022-10-22T15:55:00Z", "2022-10-22T15:51:00Z", "2022-10-22T15:55:00Z", "2022-10-22T15:48:00Z", "2022-10-22T15:53:00Z", "2022-10-22T15:53:00Z", "2022-10-22T15:55:00Z", "2022-10-22T15:51:00Z", "2022-10-22T15:55:00Z", "2022-10-22T15:55:00Z", "2022-10-22T15:55:00Z", "2022-10-22T15:56:00Z", "2022-10-22T15:55:00Z", "2022-10-22T15:55:00Z", "2022-10-22T15:53:00Z", "2022-10-22T15:53:00Z", "2022-10-22T15:55:00Z", "2022-10-22T15:56:00Z", "2022-10-22T15:55:00Z", "2022-10-22T15:55:00Z", "2022-10-22T15:55:00Z", "2022-10-22T15:50:00Z", "2022-10-22T15:00:00Z", "2022-10-22T15:55:00Z", "2022-10-22T15:54:00Z", "2022-10-22T15:55:00Z", "2022-10-22T15:55:00Z", "2022-10-22T15:45:00Z", "2022-10-22T15:55:00Z", "2022-10-22T15:55:00Z", "2022-10-22T15:55:00Z", "2022-10-22T15:50:00Z", "2022-10-22T15:55:00Z", "2022-10-22T15:56:00Z", "2022-10-22T15:57:00Z", "2022-10-22T15:55:00Z", "2022-10-22T15:55:00Z", "2022-10-22T15:55:00Z", "2022-10-22T15:55:00Z", "2022-10-22T15:55:00Z", "2022-10-22T15:55:00Z", "2022-10-22T15:55:00Z", "2022-10-22T15:56:00Z", "2022-10-22T15:55:00Z", "2022-10-22T15:55:00Z", "2022-10-22T15:55:00Z", "2022-10-22T15:55:00Z", "2022-10-22T15:55:00Z", "2022-10-22T15:53:00Z", "2022-10-22T15:54:00Z", "2022-10-22T15:50:00Z", "2022-10-22T15:55:00Z", "2022-10-22T15:53:00Z", "2022-10-22T15:53:00Z", "2022-10-22T15:56:00Z", "2022-10-22T15:53:00Z", "2022-10-22T15:53:00Z", "2022-10-22T15:53:00Z", "2022-10-22T15:47:00Z", "2022-10-22T15:53:00Z", "2022-10-22T15:56:00Z", "2022-10-22T15:55:00Z", "2022-10-22T15:56:00Z", "2022-10-22T15:53:00Z", "2022-10-22T15:55:00Z", "2022-10-22T15:53:00Z", "2022-10-22T15:56:00Z", "2022-10-22T15:55:00Z", "2022-10-22T15:55:00Z", "2022-10-22T15:55:00Z", "2022-10-22T15:53:00Z", "2022-10-22T15:53:00Z", "2022-10-22T15:56:00Z", "2022-10-22T15:54:00Z", "2022-10-22T15:55:00Z", "2022-10-22T15:53:00Z", "2022-10-22T15:53:00Z", "2022-10-22T15:51:00Z", "2022-10-22T15:53:00Z", "2022-10-22T15:55:00Z", "2022-10-22T16:09:00Z", "2022-10-22T15:55:00Z", "2022-10-22T15:51:00Z", "2022-10-22T15:55:00Z", "2022-10-22T15:55:00Z", "2022-10-22T15:53:00Z", "2022-10-22T15:55:00Z", "2022-10-22T15:53:00Z", "2022-10-22T15:55:00Z", "2022-10-22T15:53:00Z", "2022-10-22T15:55:00Z", "2022-10-22T15:55:00Z", "2022-10-22T15:55:00Z", "2022-10-22T15:53:00Z", "2022-10-22T15:55:00Z", "2022-10-22T15:55:00Z", "2022-10-22T15:53:00Z", "2022-10-22T15:55:00Z", "2022-10-22T15:53:00Z", "2022-10-22T15:55:00Z", "2022-10-22T15:55:00Z", "2022-10-22T15:53:00Z", "2022-10-22T15:54:00Z", "2022-10-22T15:55:00Z", "2022-10-22T15:55:00Z", "2022-10-22T15:55:00Z", "2022-10-22T15:55:00Z", "2022-10-22T15:56:00Z", "2022-10-22T15:53:00Z", "2022-10-22T15:53:00Z", "2022-10-22T15:55:00Z", "2022-10-22T15:55:00Z", "2022-10-22T15:55:00Z", "2022-10-22T15:53:00Z", "2022-10-22T15:53:00Z", "2022-10-22T15:56:00Z", "2022-10-22T15:53:00Z", "2022-10-22T15:56:00Z", "2022-10-22T15:55:00Z", "2022-10-22T15:55:00Z", "2022-10-22T15:55:00Z", "2022-10-22T15:55:00Z", "2022-10-22T15:55:00Z", "2022-10-22T15:53:00Z", "2022-10-22T15:55:00Z", "2022-10-22T15:55:00Z", "2022-10-22T15:55:00Z", "2022-10-22T15:55:00Z", "2022-10-22T15:55:00Z", "2022-10-22T15:55:00Z", "2022-10-22T15:55:00Z", "2022-10-22T15:53:00Z", "2022-10-22T15:55:00Z", "2022-10-22T15:55:00Z", "2022-10-22T15:55:00Z", "2022-10-22T15:55:00Z", "2022-10-22T15:53:00Z", "2022-10-22T16:02:00Z", "2022-10-22T15:55:00Z", "2022-10-22T15:53:00Z", "2022-10-22T15:55:00Z", "2022-10-22T15:53:00Z", "2022-10-22T15:55:00Z", "2022-10-22T15:51:00Z", "2022-10-22T15:52:00Z", "2022-10-22T15:53:00Z", "2022-10-22T15:54:00Z", "2022-10-22T15:56:00Z", "2022-10-22T15:54:00Z", "2022-10-22T15:53:00Z", "2022-10-22T15:55:00Z", "2022-10-22T15:55:00Z", "2022-10-22T15:53:00Z", "2022-10-22T15:53:00Z", "2022-10-22T15:55:00Z", "2022-10-22T15:54:00Z", "2022-10-22T15:55:00Z", "2022-10-22T15:55:00Z", "2022-10-22T15:56:00Z", "2022-10-22T15:55:00Z", "2022-10-22T15:55:00Z", "2022-10-22T15:55:00Z", "2022-10-22T15:55:00Z", "2022-10-22T15:55:00Z", "2022-10-22T15:56:00Z", "2022-10-22T15:55:00Z", "2022-10-22T15:55:00Z", "2022-10-22T15:55:00Z", "2022-10-22T15:50:00Z", "2022-10-22T15:55:00Z", "2022-10-22T15:40:00Z", "2022-10-22T15:53:00Z", "2022-10-22T15:53:00Z", "2022-10-22T15:53:00Z", "2022-10-22T15:55:00Z", "2022-10-22T15:55:00Z", "2022-10-22T15:55:00Z", "2022-10-22T15:52:00Z", "2022-10-22T15:56:00Z", "2022-10-22T15:53:00Z", "2022-10-22T15:55:00Z", "2022-10-22T15:55:00Z", "2022-10-22T15:53:00Z", "2022-10-22T15:55:00Z", "2022-10-22T15:55:00Z", "2022-10-22T15:53:00Z", "2022-10-22T15:55:00Z", "2022-10-22T15:53:00Z", "2022-10-22T15:53:00Z", "2022-10-22T15:53:00Z", "2022-10-22T15:53:00Z", "2022-10-22T15:53:00Z", "2022-10-22T15:55:00Z", "2022-10-22T15:52:00Z", "2022-10-22T15:55:00Z", "2022-10-22T15:55:00Z", "2022-10-22T15:56:00Z", "2022-10-22T15:53:00Z", "2022-10-22T15:52:00Z", "2022-10-22T15:59:00Z", "2022-10-22T15:58:00Z", "2022-10-22T15:54:00Z", "2022-10-22T15:53:00Z", "2022-10-22T15:55:00Z", "2022-10-22T15:55:00Z", "2022-10-22T15:52:00Z", "2022-10-22T15:53:00Z", "2022-10-22T15:54:00Z", "2022-10-22T15:53:00Z", "2022-10-22T15:55:00Z", "2022-10-22T15:55:00Z", "2022-10-22T15:55:00Z", "2022-10-22T15:54:00Z", "2022-10-22T15:53:00Z", "2022-10-22T15:55:00Z", "2022-10-22T15:55:00Z", "2022-10-22T15:53:00Z", "2022-10-22T15:53:00Z", "2022-10-22T16:01:00Z", "2022-10-22T15:52:00Z", "2022-10-22T15:55:00Z", "2022-10-22T15:55:00Z", "2022-10-22T15:55:00Z", "2022-10-22T15:56:00Z", "2022-10-22T15:53:00Z", "2022-10-22T16:00:00Z", "2022-10-22T15:53:00Z", "2022-10-22T15:55:00Z", "2022-10-22T15:53:00Z", "2022-10-22T15:53:00Z", "2022-10-22T15:55:00Z", "2022-10-22T15:54:00Z", "2022-10-22T15:53:00Z", "2022-10-22T15:55:00Z", "2022-10-22T15:55:00Z", "2022-10-22T15:54:00Z", "2022-10-22T15:52:00Z", "2022-10-22T15:55:00Z", "2022-10-22T15:55:00Z", "2022-10-22T15:53:00Z", "2022-10-22T15:55:00Z", "2022-10-22T15:53:00Z", "2022-10-22T15:55:00Z", "2022-10-22T15:56:00Z", "2022-10-22T15:56:00Z", "2022-10-22T15:53:00Z", "2022-10-22T15:53:00Z", "2022-10-22T15:55:00Z", "2022-10-22T15:52:00Z", "2022-10-22T15:52:00Z", "2022-10-22T15:55:00Z", "2022-10-22T15:53:00Z", "2022-10-22T15:53:00Z", "2022-10-22T15:53:00Z", "2022-10-22T15:53:00Z", "2022-10-22T15:54:00Z", "2022-10-22T15:55:00Z", "2022-10-22T15:53:00Z", "2022-10-22T15:56:00Z", "2022-10-22T15:55:00Z", "2022-10-22T15:50:00Z", "2022-10-22T15:53:00Z", "2022-10-22T16:00:00Z", "2022-10-22T15:55:00Z", "2022-10-22T15:55:00Z", "2022-10-22T15:56:00Z", "2022-10-22T15:53:00Z", "2022-10-22T15:55:00Z", "2022-10-22T15:55:00Z", "2022-10-22T15:56:00Z", "2022-10-22T15:53:00Z", "2022-10-22T15:55:00Z", "2022-10-22T15:55:00Z", "2022-10-22T15:54:00Z", "2022-10-22T15:55:00Z", "2022-10-22T15:53:00Z", "2022-10-22T15:55:00Z", "2022-10-22T15:51:00Z", "2022-10-22T15:50:00Z", "2022-10-22T15:55:00Z", "2022-10-22T15:55:00Z", "2022-10-22T15:55:00Z", "2022-10-22T15:55:00Z", "2022-10-22T15:56:00Z", "2022-10-22T15:53:00Z", "2022-10-22T15:55:00Z", "2022-10-22T15:56:00Z", "2022-10-22T15:58:00Z", "2022-10-22T15:55:00Z", "2022-10-22T15:55:00Z", "2022-10-22T15:54:00Z", "2022-10-22T15:53:00Z", "2022-10-22T15:53:00Z", "2022-10-22T15:53:00Z", "2022-10-22T15:53:00Z", "2022-10-22T15:53:00Z", "2022-10-22T15:56:00Z", "2022-10-22T15:53:00Z", "2022-10-22T15:56:00Z", "2022-10-22T15:53:00Z", "2022-10-22T15:53:00Z", "2022-10-22T15:55:00Z", "2022-10-22T15:54:00Z", "2022-10-22T15:53:00Z", "2022-10-22T15:54:00Z", "2022-10-22T15:55:00Z", "2022-10-22T15:56:00Z", "2022-10-22T15:55:00Z", "2022-10-22T16:00:00Z", "2022-10-22T15:55:00Z", "2022-10-22T15:55:00Z", "2022-10-22T15:55:00Z", "2022-10-22T15:54:00Z", "2022-10-22T15:56:00Z", "2022-10-22T15:53:00Z", "2022-10-22T15:46:00Z", "2022-10-22T15:45:00Z", "2022-10-22T15:52:00Z", "2022-10-22T15:55:00Z", "2022-10-22T15:53:00Z", "2022-10-22T15:55:00Z", "2022-10-22T15:52:00Z", "2022-10-22T15:55:00Z", "2022-10-22T15:53:00Z", "2022-10-22T15:55:00Z", "2022-10-22T15:53:00Z", "2022-10-22T15:59:00Z", "2022-10-22T15:56:00Z", "2022-10-22T15:53:00Z", "2022-10-22T15:50:00Z", "2022-10-22T15:55:00Z", "2022-10-22T15:55:00Z", "2022-10-22T15:55:00Z", "2022-10-22T15:55:00Z", "2022-10-22T15:54:00Z", "2022-10-22T15:56:00Z", "2022-10-22T15:55:00Z", "2022-10-22T16:00:00Z", "2022-10-22T15:56:00Z", "2022-10-22T15:56:00Z", "2022-10-22T16:00:00Z", "2022-10-22T15:53:00Z", "2022-10-22T15:56:00Z", "2022-10-22T15:52:00Z", "2022-10-22T15:56:00Z", "2022-10-22T15:52:00Z", "2022-10-22T15:56:00Z", "2022-10-22T15:59:00Z", "2022-10-22T15:52:00Z", "2022-10-22T15:56:00Z", "2022-10-22T15:53:00Z", "2022-10-22T15:56:00Z", "2022-10-22T15:57:00Z", "2022-10-22T15:57:00Z", "2022-10-22T15:56:00Z", "2022-10-22T16:10:00Z", "2022-10-22T16:08:00Z", "2022-10-22T15:56:00Z", "2022-10-22T15:56:00Z", "2022-10-22T15:55:00Z", "2022-10-22T15:59:00Z", "2022-10-22T15:56:00Z", "2022-10-22T15:50:00Z", "2022-10-22T15:56:00Z", "2022-10-22T15:53:00Z", "2022-10-22T15:52:00Z", "2022-10-22T15:55:00Z", "2022-10-22T15:53:00Z", "2022-10-22T15:56:00Z", "2022-10-22T15:53:00Z", "2022-10-22T15:55:00Z", "2022-10-22T15:56:00Z", "2022-10-22T15:56:00Z", "2022-10-22T15:53:00Z", "2022-10-22T15:55:00Z", "2022-10-22T15:53:00Z", "2022-10-22T15:56:00Z", "2022-10-22T15:56:00Z", "2022-10-22T15:54:00Z", "2022-10-22T15:51:00Z", "2022-10-22T15:56:00Z", "2022-10-22T15:57:00Z", "2022-10-22T15:52:00Z", "2022-10-22T15:55:00Z", "2022-10-22T15:55:00Z", "2022-10-22T15:55:00Z", "2022-10-22T15:55:00Z", "2022-10-22T15:56:00Z", "2022-10-22T15:53:00Z", "2022-10-22T15:55:00Z", "2022-10-22T15:55:00Z", "2022-10-22T15:51:00Z", "2022-10-22T15:56:00Z", "2022-10-22T15:55:00Z", "2022-10-22T15:55:00Z", "2022-10-22T15:53:00Z", "2022-10-22T15:53:00Z", "2022-10-22T15:55:00Z", "2022-10-22T15:55:00Z", "2022-10-22T15:55:00Z", "2022-10-22T15:55:00Z", "2022-10-22T15:56:00Z", "2022-10-22T15:54:00Z", "2022-10-22T15:55:00Z", "2022-10-22T15:53:00Z", "2022-10-22T15:53:00Z", "2022-10-22T15:55:00Z", "2022-10-22T15:55:00Z", "2022-10-22T15:55:00Z", "2022-10-22T15:53:00Z", "2022-10-22T16:04:00Z", "2022-10-22T15:52:00Z", "2022-10-22T15:56:00Z", "2022-10-22T15:55:00Z", "2022-10-22T15:55:00Z", "2022-10-22T15:55:00Z", "2022-10-22T15:55:00Z", "2022-10-22T15:53:00Z", "2022-10-22T15:55:00Z", "2022-10-22T15:58:00Z", "2022-10-22T15:54:00Z", "2022-10-22T15:56:00Z", "2022-10-22T15:50:00Z", "2022-10-22T15:55:00Z", "2022-10-22T15:55:00Z", "2022-10-22T15:52:00Z", "2022-10-22T15:55:00Z", "2022-10-22T15:53:00Z", "2022-10-22T15:50:00Z", "2022-10-22T15:55:00Z", "2022-10-22T15:55:00Z", "2022-10-22T15:55:00Z", "2022-10-22T15:53:00Z", "2022-10-22T15:53:00Z", "2022-10-22T15:55:00Z", "2022-10-22T15:55:00Z", "2022-10-22T15:55:00Z", "2022-10-22T15:53:00Z", "2022-10-22T15:55:00Z", "2022-10-22T15:55:00Z", "2022-10-22T15:55:00Z", "2022-10-22T15:53:00Z", "2022-10-22T15:50:00Z", "2022-10-22T15:53:00Z", "2022-10-22T15:51:00Z", "2022-10-22T15:52:00Z", "2022-10-22T15:51:00Z", "2022-10-22T15:55:00Z", "2022-10-22T15:54:00Z", "2022-10-22T15:53:00Z", "2022-10-22T15:55:00Z", "2022-10-22T15:50:00Z", "2022-10-22T15:55:00Z", "2022-10-22T15:53:00Z", "2022-10-22T15:53:00Z", "2022-10-22T15:56:00Z", "2022-10-22T15:56:00Z", "2022-10-22T15:53:00Z", "2022-10-22T15:45:00Z", "2022-10-22T15:53:00Z", "2022-10-22T15:55:00Z", "2022-10-22T15:53:00Z", "2022-10-22T15:53:00Z", "2022-10-22T15:56:00Z", "2022-10-22T15:55:00Z", "2022-10-22T15:55:00Z", "2022-10-22T15:51:00Z", "2022-10-22T15:55:00Z", "2022-10-22T15:55:00Z", "2022-10-22T15:51:00Z", "2022-10-22T15:55:00Z", "2022-10-22T15:55:00Z", "2022-10-22T15:55:00Z", "2022-10-22T15:55:00Z", "2022-10-22T15:55:00Z", "2022-10-22T15:55:00Z", "2022-10-22T15:56:00Z", "2022-10-22T15:56:00Z", "2022-10-22T15:55:00Z", "2022-10-22T15:51:00Z", "2022-10-22T15:53:00Z", "2022-10-22T15:52:00Z", "2022-10-22T15:53:00Z", "2022-10-22T15:53:00Z", "2022-10-22T15:55:00Z", "2022-10-22T15:55:00Z", "2022-10-22T15:47:00Z", "2022-10-22T15:53:00Z", "2022-10-22T15:53:00Z", "2022-10-22T15:53:00Z", "2022-10-22T15:55:00Z", "2022-10-22T15:55:00Z", "2022-10-22T15:55:00Z", "2022-10-22T15:55:00Z", "2022-10-22T15:55:00Z", "2022-10-22T15:53:00Z", "2022-10-22T15:53:00Z", "2022-10-22T15:53:00Z", "2022-10-22T15:55:00Z", "2022-10-22T15:53:00Z", "2022-10-22T15:55:00Z", "2022-10-22T15:55:00Z", "2022-10-22T15:55:00Z", "2022-10-22T15:53:00Z", "2022-10-22T15:53:00Z", "2022-10-22T15:55:00Z", "2022-10-22T15:53:00Z", "2022-10-22T15:54:00Z", "2022-10-22T15:54:00Z", "2022-10-22T15:55:00Z", "2022-10-22T15:55:00Z", "2022-10-22T15:55:00Z", "2022-10-22T15:51:00Z", "2022-10-22T15:54:00Z", "2022-10-22T15:56:00Z", "2022-10-22T15:53:00Z", "2022-10-22T15:53:00Z", "2022-10-22T15:53:00Z", "2022-10-22T15:55:00Z", "2022-10-22T15:53:00Z", "2022-10-22T15:51:00Z", "2022-10-22T15:53:00Z", "2022-10-22T15:53:00Z", "2022-10-22T15:55:00Z", "2022-10-22T15:54:00Z", "2022-10-22T15:55:00Z", "2022-10-22T15:55:00Z", "2022-10-22T15:53:00Z", "2022-10-22T15:55:00Z", "2022-10-22T15:53:00Z", "2022-10-22T15:55:00Z", "2022-10-22T15:55:00Z", "2022-10-22T15:55:00Z", "2022-10-22T15:53:00Z", "2022-10-22T15:54:00Z", "2022-10-22T15:55:00Z", "2022-10-22T15:53:00Z", "2022-10-22T15:55:00Z", "2022-10-22T15:55:00Z", "2022-10-22T15:47:00Z", "2022-10-22T15:55:00Z", "2022-10-22T15:53:00Z", "2022-10-22T15:53:00Z", "2022-10-22T15:55:00Z", "2022-10-22T15:55:00Z", "2022-10-22T15:55:00Z", "2022-10-22T15:52:00Z", "2022-10-22T15:55:00Z", "2022-10-22T15:55:00Z", "2022-10-22T15:56:00Z", "2022-10-22T15:53:00Z", "2022-10-22T15:53:00Z", "2022-10-22T15:53:00Z", "2022-10-22T15:55:00Z", "2022-10-22T15:58:00Z", "2022-10-22T15:55:00Z", "2022-10-22T15:55:00Z", "2022-10-22T15:56:00Z", "2022-10-22T15:53:00Z", "2022-10-22T15:54:00Z", "2022-10-22T15:55:00Z", "2022-10-22T15:55:00Z", "2022-10-22T15:55:00Z", "2022-10-22T15:55:00Z", "2022-10-22T15:53:00Z", "2022-10-22T15:53:00Z", "2022-10-22T15:55:00Z", "2022-10-22T15:53:00Z", "2022-10-22T15:56:00Z", "2022-10-22T15:55:00Z", "2022-10-22T15:55:00Z", "2022-10-22T15:56:00Z", "2022-10-22T15:54:00Z", "2022-10-22T15:53:00Z", "2022-10-22T15:53:00Z", "2022-10-22T15:55:00Z", "2022-10-22T15:53:00Z", "2022-10-22T15:55:00Z", "2022-10-22T15:56:00Z", "2022-10-22T15:51:00Z", "2022-10-22T15:55:00Z", "2022-10-22T15:56:00Z", "2022-10-22T15:55:00Z", "2022-10-22T16:10:00Z", "2022-10-22T15:50:00Z", "2022-10-22T15:53:00Z", "2022-10-22T15:55:00Z", "2022-10-22T15:55:00Z", "2022-10-22T15:56:00Z", "2022-10-22T15:52:00Z", "2022-10-22T15:51:00Z", "2022-10-22T15:56:00Z", "2022-10-22T15:55:00Z", "2022-10-22T15:52:00Z", "2022-10-22T15:55:00Z", "2022-10-22T15:55:00Z", "2022-10-22T15:55:00Z", "2022-10-22T15:55:00Z", "2022-10-22T15:55:00Z", "2022-10-22T15:55:00Z", "2022-10-22T16:10:00Z", "2022-10-22T16:10:00Z", "2022-10-22T16:10:00Z", "2022-10-22T16:10:00Z", "2022-10-22T16:10:00Z", "2022-10-22T16:00:00Z", "2022-10-22T16:10:00Z", "2022-10-22T16:10:00Z", "2022-10-22T16:00:00Z", "2022-10-22T16:10:00Z", "2022-10-22T16:10:00Z", "2022-10-22T16:10:00Z", "2022-10-22T16:10:00Z", "2022-10-22T16:10:00Z", "2022-10-22T16:10:00Z", "2022-10-22T15:55:00Z", "2022-10-22T15:55:00Z", "2022-10-22T15:55:00Z", "2022-10-22T15:55:00Z", "2022-10-22T15:53:00Z", "2022-10-22T15:53:00Z", "2022-10-22T15:52:00Z", "2022-10-22T15:55:00Z", "2022-10-22T15:53:00Z", "2022-10-22T15:53:00Z", "2022-10-22T15:54:00Z", "2022-10-22T15:55:00Z", "2022-10-22T15:55:00Z", "2022-10-22T15:55:00Z", "2022-10-22T15:55:00Z", "2022-10-22T15:55:00Z", "2022-10-22T15:55:00Z", "2022-10-22T15:55:00Z", "2022-10-22T15:55:00Z", "2022-10-22T15:55:00Z", "2022-10-22T15:53:00Z", "2022-10-22T15:54:00Z", "2022-10-22T15:55:00Z", "2022-10-22T15:56:00Z", "2022-10-22T15:55:00Z", "2022-10-22T15:51:00Z", "2022-10-22T15:55:00Z", "2022-10-22T15:52:00Z", "2022-10-22T15:54:00Z", "2022-10-22T15:55:00Z", "2022-10-22T15:58:00Z", "2022-10-22T15:55:00Z", "2022-10-22T15:53:00Z", "2022-10-22T15:55:00Z", "2022-10-22T15:47:00Z", "2022-10-22T15:54:00Z", "2022-10-22T15:53:00Z", "2022-10-22T15:55:00Z", "2022-10-22T15:53:00Z", "2022-10-22T15:56:00Z", "2022-10-22T15:53:00Z", "2022-10-22T15:55:00Z", "2022-10-22T15:54:00Z", "2022-10-22T15:55:00Z", "2022-10-22T15:53:00Z", "2022-10-22T15:53:00Z", "2022-10-22T15:55:00Z", "2022-10-22T15:55:00Z", "2022-10-22T15:50:00Z", "2022-10-22T15:55:00Z", "2022-10-22T15:55:00Z", "2022-10-22T15:53:00Z", "2022-10-22T15:55:00Z", "2022-10-22T15:55:00Z", "2022-10-22T16:00:00Z", "2022-10-22T15:55:00Z", "2022-10-22T15:54:00Z", "2022-10-22T15:54:00Z", "2022-10-22T15:58:00Z", "2022-10-22T16:03:00Z", "2022-10-22T15:51:00Z", "2022-10-22T15:55:00Z", "2022-10-22T15:55:00Z", "2022-10-22T15:55:00Z", "2022-10-22T15:55:00Z", "2022-10-22T15:45:00Z", "2022-10-22T15:55:00Z", "2022-10-22T15:53:00Z", "2022-10-22T15:55:00Z", "2022-10-22T15:55:00Z", "2022-10-22T15:53:00Z", "2022-10-22T15:55:00Z", "2022-10-22T15:54:00Z", "2022-10-22T15:55:00Z", "2022-10-22T15:53:00Z", "2022-10-22T15:53:00Z", "2022-10-22T15:55:00Z", "2022-10-22T15:53:00Z", "2022-10-22T15:55:00Z", "2022-10-22T15:55:00Z", "2022-10-22T15:56:00Z", "2022-10-22T15:55:00Z", "2022-10-22T15:55:00Z", "2022-10-22T15:55:00Z", "2022-10-22T15:53:00Z", "2022-10-22T15:53:00Z", "2022-10-22T15:53:00Z", "2022-10-22T15:53:00Z", "2022-10-22T15:55:00Z", "2022-10-22T15:53:00Z", "2022-10-22T15:55:00Z", "2022-10-22T15:45:00Z", "2022-10-22T15:55:00Z", "2022-10-22T15:55:00Z", "2022-10-22T15:50:00Z", "2022-10-22T15:55:00Z", "2022-10-22T15:55:00Z", "2022-10-22T15:55:00Z", "2022-10-22T15:55:00Z", "2022-10-22T15:55:00Z", "2022-10-22T15:55:00Z", "2022-10-22T15:55:00Z", "2022-10-22T15:55:00Z", "2022-10-22T15:55:00Z", "2022-10-22T15:55:00Z", "2022-10-22T15:55:00Z", "2022-10-22T15:55:00Z", "2022-10-22T16:00:00Z", "2022-10-22T15:55:00Z", "2022-10-22T15:55:00Z", "2022-10-22T15:53:00Z", "2022-10-22T15:51:00Z", "2022-10-22T15:53:00Z", "2022-10-22T15:51:00Z", "2022-10-22T15:55:00Z", "2022-10-22T15:51:00Z", "2022-10-22T15:53:00Z", "2022-10-22T15:45:00Z", "2022-10-22T15:55:00Z", "2022-10-22T15:52:00Z", "2022-10-22T15:53:00Z", "2022-10-22T15:54:00Z", "2022-10-22T15:55:00Z", "2022-10-22T15:56:00Z", "2022-10-22T15:55:00Z", "2022-10-22T15:54:00Z", "2022-10-22T15:55:00Z", "2022-10-22T15:55:00Z", "2022-10-22T15:55:00Z", "2022-10-22T15:55:00Z", "2022-10-22T15:55:00Z", "2022-10-22T15:55:00Z", "2022-10-22T15:57:00Z", "2022-10-22T15:55:00Z", "2022-10-22T15:56:00Z", "2022-10-22T15:53:00Z", "2022-10-22T15:53:00Z", "2022-10-22T15:56:00Z", "2022-10-22T16:11:00Z", "2022-10-22T15:47:00Z", "2022-10-22T15:55:00Z", "2022-10-22T15:53:00Z", "2022-10-22T15:55:00Z", "2022-10-22T15:55:00Z", "2022-10-22T15:55:00Z", "2022-10-22T15:54:00Z", "2022-10-22T15:55:00Z", "2022-10-22T15:53:00Z", "2022-10-22T15:53:00Z", "2022-10-22T15:56:00Z", "2022-10-22T15:56:00Z", "2022-10-22T15:55:00Z", "2022-10-22T16:02:00Z", "2022-10-22T15:56:00Z", "2022-10-22T15:52:00Z", "2022-10-22T15:56:00Z", "2022-10-22T15:56:00Z", "2022-10-22T15:53:00Z", "2022-10-22T15:55:00Z", "2022-10-22T15:56:00Z", "2022-10-22T15:56:00Z", "2022-10-22T15:55:00Z", "2022-10-22T15:55:00Z", "2022-10-22T15:53:00Z", "2022-10-22T15:53:00Z", "2022-10-22T15:56:00Z", "2022-10-22T15:55:00Z", "2022-10-22T15:55:00Z", "2022-10-22T15:53:00Z", "2022-10-22T15:53:00Z", "2022-10-22T15:55:00Z", "2022-10-22T15:51:00Z", "2022-10-22T15:55:00Z", "2022-10-22T15:55:00Z", "2022-10-22T15:55:00Z", "2022-10-22T15:56:00Z", "2022-10-22T15:55:00Z", "2022-10-22T15:54:00Z", "2022-10-22T15:56:00Z", "2022-10-22T15:56:00Z", "2022-10-22T15:55:00Z", "2022-10-22T15:55:00Z", "2022-10-22T15:51:00Z", "2022-10-22T15:53:00Z", "2022-10-22T15:55:00Z", "2022-10-22T15:50:00Z", "2022-10-22T15:55:00Z", "2022-10-22T15:53:00Z", "2022-10-22T15:56:00Z", "2022-10-22T15:51:00Z", "2022-10-22T15:56:00Z", "2022-10-22T15:53:00Z", "2022-10-22T15:55:00Z", "2022-10-22T15:51:00Z", "2022-10-22T16:09:00Z", "2022-10-22T15:55:00Z", "2022-10-22T15:50:00Z", "2022-10-22T15:55:00Z", "2022-10-22T15:55:00Z", "2022-10-22T15:53:00Z", "2022-10-22T15:51:00Z", "2022-10-22T15:53:00Z", "2022-10-22T15:55:00Z", "2022-10-22T15:56:00Z", "2022-10-22T15:55:00Z", "2022-10-22T15:53:00Z", "2022-10-22T15:56:00Z", "2022-10-22T15:55:00Z", "2022-10-22T15:53:00Z", "2022-10-22T15:52:00Z", "2022-10-22T15:52:00Z", "2022-10-22T15:53:00Z", "2022-10-22T15:56:00Z", "2022-10-22T15:47:00Z", "2022-10-22T15:55:00Z", "2022-10-22T15:56:00Z", "2022-10-22T15:55:00Z", "2022-10-22T15:53:00Z", "2022-10-22T15:55:00Z", "2022-10-22T15:55:00Z", "2022-10-22T15:53:00Z", "2022-10-22T15:53:00Z", "2022-10-22T15:53:00Z", "2022-10-22T15:55:00Z", "2022-10-22T15:55:00Z", "2022-10-22T15:53:00Z", "2022-10-22T15:55:00Z", "2022-10-22T15:51:00Z", "2022-10-22T15:53:00Z", "2022-10-22T15:53:00Z", "2022-10-22T15:47:00Z", "2022-10-22T15:56:00Z", "2022-10-22T15:55:00Z", "2022-10-22T15:54:00Z", "2022-10-22T15:55:00Z", "2022-10-22T15:55:00Z", "2022-10-22T15:52:00Z", "2022-10-22T15:55:00Z", "2022-10-22T15:55:00Z", "2022-10-22T15:55:00Z", "2022-10-22T15:55:00Z", "2022-10-22T15:45:00Z", "2022-10-22T15:53:00Z", "2022-10-22T15:55:00Z", "2022-10-22T15:55:00Z", "2022-10-22T15:55:00Z", "2022-10-22T16:05:00Z", "2022-10-22T15:55:00Z", "2022-10-22T15:55:00Z", "2022-10-22T15:55:00Z", "2022-10-22T15:55:00Z", "2022-10-22T15:55:00Z", "2022-10-22T15:54:00Z", "2022-10-22T15:55:00Z", "2022-10-22T15:55:00Z", "2022-10-22T15:55:00Z", "2022-10-22T15:55:00Z", "2022-10-22T15:55:00Z", "2022-10-22T15:55:00Z", "2022-10-22T15:55:00Z", "2022-10-22T15:55:00Z", "2022-10-22T15:55:00Z", "2022-10-22T15:55:00Z", "2022-10-22T15:55:00Z", "2022-10-22T15:55:00Z", "2022-10-22T15:54:00Z", "2022-10-22T15:52:00Z", "2022-10-22T15:55:00Z", "2022-10-22T15:55:00Z", "2022-10-22T15:55:00Z", "2022-10-22T15:55:00Z", "2022-10-22T15:53:00Z", "2022-10-22T15:53:00Z", "2022-10-22T16:00:00Z", "2022-10-22T15:53:00Z", "2022-10-22T15:55:00Z", "2022-10-22T15:55:00Z", "2022-10-22T15:55:00Z", "2022-10-22T15:53:00Z", "2022-10-22T15:51:00Z", "2022-10-22T15:55:00Z", "2022-10-22T15:55:00Z", "2022-10-22T15:35:00Z", "2022-10-22T15:55:00Z", "2022-10-22T15:53:00Z", "2022-10-22T15:55:00Z", "2022-10-22T15:55:00Z", "2022-10-22T15:55:00Z", "2022-10-22T15:53:00Z", "2022-10-22T15:47:00Z", "2022-10-22T15:55:00Z", "2022-10-22T15:53:00Z", "2022-10-22T15:55:00Z", "2022-10-22T15:55:00Z", "2022-10-22T15:53:00Z", "2022-10-22T15:53:00Z", "2022-10-22T15:55:00Z", "2022-10-22T15:55:00Z", "2022-10-22T15:55:00Z", "2022-10-22T15:50:00Z", "2022-10-22T15:55:00Z", "2022-10-22T15:55:00Z", "2022-10-22T15:55:00Z", "2022-10-22T15:53:00Z", "2022-10-22T15:52:00Z", "2022-10-22T15:53:00Z", "2022-10-22T15:53:00Z", "2022-10-22T15:56:00Z", "2022-10-22T15:51:00Z", "2022-10-22T15:54:00Z", "2022-10-22T15:55:00Z", "2022-10-22T15:55:00Z", "2022-10-22T15:55:00Z", "2022-10-22T15:53:00Z", "2022-10-22T15:55:00Z", "2022-10-22T15:53:00Z", "2022-10-22T15:52:00Z", "2022-10-22T15:55:00Z", "2022-10-22T15:55:00Z", "2022-10-22T15:53:00Z", "2022-10-22T15:55:00Z", "2022-10-22T15:53:00Z", "2022-10-22T15:55:00Z", "2022-10-22T15:53:00Z", "2022-10-22T15:53:00Z", "2022-10-22T15:53:00Z", "2022-10-22T15:53:00Z", "2022-10-22T15:56:00Z", "2022-10-22T15:55:00Z", "2022-10-22T16:00:00Z", "2022-10-22T15:53:00Z", "2022-10-22T15:55:00Z", "2022-10-22T15:53:00Z", "2022-10-22T15:55:00Z", "2022-10-22T15:55:00Z", "2022-10-22T16:06:00Z", "2022-10-22T15:50:00Z", "2022-10-22T15:55:00Z", "2022-10-22T15:55:00Z", "2022-10-22T15:53:00Z", "2022-10-22T15:53:00Z", "2022-10-22T15:45:00Z", "2022-10-22T15:55:00Z", "2022-10-22T15:55:00Z", "2022-10-22T15:55:00Z", "2022-10-22T15:53:00Z", "2022-10-22T15:15:00Z", "2022-10-22T15:56:00Z", "2022-10-22T15:55:00Z", "2022-10-22T15:56:00Z", "2022-10-22T15:45:00Z", "2022-10-22T15:55:00Z", "2022-10-22T16:10:00Z", "2022-10-22T15:54:00Z", "2022-10-22T15:55:00Z", "2022-10-22T15:56:00Z", "2022-10-22T15:55:00Z", "2022-10-22T15:55:00Z", "2022-10-22T15:55:00Z", "2022-10-22T15:55:00Z", "2022-10-22T15:55:00Z", "2022-10-22T15:55:00Z", "2022-10-22T15:53:00Z", "2022-10-22T15:53:00Z", "2022-10-22T15:55:00Z", "2022-10-22T15:55:00Z", "2022-10-22T15:55:00Z", "2022-10-22T15:53:00Z", "2022-10-22T15:53:00Z", "2022-10-22T15:55:00Z", "2022-10-22T15:55:00Z", "2022-10-22T15:55:00Z", "2022-10-22T15:54:00Z", "2022-10-22T15:55:00Z", "2022-10-22T15:55:00Z", "2022-10-22T15:54:00Z", "2022-10-22T15:55:00Z", "2022-10-22T15:56:00Z", "2022-10-22T15:53:00Z", "2022-10-22T15:51:00Z", "2022-10-22T15:50:00Z", "2022-10-22T15:55:00Z", "2022-10-22T15:55:00Z", "2022-10-22T15:53:00Z", "2022-10-22T15:55:00Z", "2022-10-22T15:55:00Z", "2022-10-22T15:53:00Z", "2022-10-22T15:55:00Z", "2022-10-22T15:53:00Z", "2022-10-22T15:56:00Z", "2022-10-22T15:55:00Z", "2022-10-22T15:55:00Z", "2022-10-22T15:53:00Z", "2022-10-22T15:55:00Z", "2022-10-22T15:51:00Z", "2022-10-22T16:00:00Z", "2022-10-22T15:55:00Z", "2022-10-22T15:55:00Z", "2022-10-22T15:55:00Z", "2022-10-22T15:56:00Z", "2022-10-22T15:50:00Z", "2022-10-22T15:53:00Z", "2022-10-22T15:54:00Z", "2022-10-22T15:54:00Z", "2022-10-22T15:55:00Z", "2022-10-22T15:52:00Z", "2022-10-22T15:55:00Z", "2022-10-22T15:55:00Z", "2022-10-22T15:53:00Z", "2022-10-22T15:55:00Z", "2022-10-22T15:55:00Z", "2022-10-22T15:55:00Z", "2022-10-22T15:55:00Z", "2022-10-22T15:55:00Z", "2022-10-22T15:55:00Z", "2022-10-22T15:55:00Z", "2022-10-22T16:00:00Z", "2022-10-22T15:54:00Z", "2022-10-22T15:55:00Z", "2022-10-22T15:55:00Z", "2022-10-22T15:55:00Z", "2022-10-22T15:53:00Z", "2022-10-22T15:56:00Z", "2022-10-22T15:54:00Z", "2022-10-22T15:56:00Z", "2022-10-22T15:55:00Z", "2022-10-22T15:55:00Z", "2022-10-22T15:53:00Z", "2022-10-22T15:53:00Z", "2022-10-22T16:11:00Z", "2022-10-22T15:56:00Z", "2022-10-22T15:56:00Z", "2022-10-22T15:50:00Z", "2022-10-22T15:55:00Z", "2022-10-22T15:55:00Z", "2022-10-22T15:55:00Z", "2022-10-22T15:55:00Z", "2022-10-22T15:55:00Z", "2022-10-22T15:55:00Z", "2022-10-22T15:55:00Z", "2022-10-22T15:55:00Z", "2022-10-22T15:53:00Z", "2022-10-22T15:55:00Z", "2022-10-22T15:55:00Z", "2022-10-22T15:55:00Z", "2022-10-22T15:53:00Z", "2022-10-22T15:56:00Z", "2022-10-22T15:55:00Z", "2022-10-22T15:55:00Z", "2022-10-22T15:55:00Z", "2022-10-22T15:55:00Z", "2022-10-22T15:56:00Z", "2022-10-22T15:55:00Z", "2022-10-22T15:55:00Z", "2022-10-22T15:53:00Z", "2022-10-22T15:53:00Z", "2022-10-22T15:56:00Z", "2022-10-22T15:51:00Z", "2022-10-22T15:55:00Z", "2022-10-22T15:55:00Z", "2022-10-22T15:53:00Z", "2022-10-22T15:50:00Z", "2022-10-22T16:00:00Z", "2022-10-22T16:00:00Z", "2022-10-22T16:00:00Z", "2022-10-22T16:00:00Z", "2022-10-22T16:00:00Z", "2022-10-22T15:50:00Z", "2022-10-22T16:00:00Z", "2022-10-22T16:00:00Z", "2022-10-22T16:00:00Z", "2022-10-22T16:00:00Z", "2022-10-22T16:00:00Z", "2022-10-22T16:00:00Z", "2022-10-22T16:00:00Z", "2022-10-22T16:00:00Z", "2022-10-22T16:00:00Z", "2022-10-22T16:00:00Z", "2022-10-22T16:00:00Z", "2022-10-22T16:00:00Z", "2022-10-22T16:00:00Z", "2022-10-22T16:00:00Z", "2022-10-22T16:00:00Z", "2022-10-22T16:00:00Z", "2022-10-22T16:00:00Z", "2022-10-22T16:00:00Z", "2022-10-22T16:00:00Z", "2022-10-22T16:00:00Z", "2022-10-22T16:00:00Z", "2022-10-22T16:00:00Z", "2022-10-22T16:00:00Z", "2022-10-22T16:00:00Z", "2022-10-22T16:00:00Z", "2022-10-22T16:00:00Z", "2022-10-22T16:00:00Z", "2022-10-22T16:00:00Z", "2022-10-22T16:00:00Z", "2022-10-22T16:00:00Z", "2022-10-22T16:00:00Z", "2022-10-22T16:00:00Z", "2022-10-22T16:00:00Z", "2022-10-22T16:00:00Z", "2022-10-22T16:00:00Z", "2022-10-22T16:00:00Z", "2022-10-22T16:00:00Z", "2022-10-22T16:00:00Z", "2022-10-22T16:00:00Z", "2022-10-22T16:00:00Z", "2022-10-22T16:00:00Z", "2022-10-22T16:00:00Z", "2022-10-22T16:00:00Z", "2022-10-22T16:00:00Z", "2022-10-22T16:00:00Z", "2022-10-22T16:00:00Z", "2022-10-22T16:00:00Z", "2022-10-22T16:00:00Z", "2022-10-22T16:00:00Z", "2022-10-22T16:00:00Z", "2022-10-22T16:00:00Z", "2022-10-22T16:00:00Z", "2022-10-22T16:00:00Z", "2022-10-22T16:00:00Z", "2022-10-22T16:00:00Z", "2022-10-22T16:00:00Z", "2022-10-22T16:00:00Z", "2022-10-22T16:00:00Z", "2022-10-22T16:00:00Z", "2022-10-22T16:00:00Z", "2022-10-22T16:00:00Z", "2022-10-22T16:00:00Z", "2022-10-22T16:00:00Z", "2022-10-22T16:00:00Z", "2022-10-22T16:00:00Z", "2022-10-22T16:00:00Z", "2022-10-22T16:00:00Z", "2022-10-22T16:00:00Z", "2022-10-22T16:00:00Z", "2022-10-22T16:00:00Z", "2022-10-22T16:00:00Z", "2022-10-22T16:00:00Z", "2022-10-22T16:00:00Z", "2022-10-22T16:00:00Z", "2022-10-22T16:00:00Z", "2022-10-22T16:00:00Z", "2022-10-22T16:00:00Z", "2022-10-22T16:00:00Z", "2022-10-22T16:00:00Z", "2022-10-22T16:00:00Z", "2022-10-22T16:00:00Z", "2022-10-22T16:00:00Z", "2022-10-22T16:00:00Z", "2022-10-22T16:00:00Z", "2022-10-22T16:00:00Z", "2022-10-22T16:00:00Z", "2022-10-22T16:00:00Z", "2022-10-22T16:00:00Z", "2022-10-22T16:00:00Z", "2022-10-22T16:00:00Z", "2022-10-22T16:00:00Z", "2022-10-22T16:00:00Z", "2022-10-22T16:00:00Z", "2022-10-22T16:00:00Z", "2022-10-22T16:00:00Z", "2022-10-22T16:00:00Z", "2022-10-22T16:00:00Z", "2022-10-22T16:00:00Z", "2022-10-22T16:00:00Z", "2022-10-22T16:00:00Z", "2022-10-22T16:00:00Z", "2022-10-22T16:00:00Z", "2022-10-22T16:00:00Z", "2022-10-22T16:00:00Z", "2022-10-22T16:00:00Z", "2022-10-22T16:00:00Z", "2022-10-22T16:00:00Z", "2022-10-22T16:00:00Z", "2022-10-22T16:00:00Z", "2022-10-22T16:00:00Z", "2022-10-22T16:00:00Z", "2022-10-22T16:00:00Z", "2022-10-22T16:00:00Z", "2022-10-22T16:00:00Z", "2022-10-22T16:00:00Z", "2022-10-22T16:00:00Z", "2022-10-22T16:00:00Z", "2022-10-22T16:00:00Z", "2022-10-22T16:00:00Z", "2022-10-22T16:00:00Z", "2022-10-22T16:00:00Z", "2022-10-22T16:00:00Z", "2022-10-22T16:00:00Z", "2022-10-22T16:00:00Z", "2022-10-22T16:00:00Z", "2022-10-22T16:00:00Z", "2022-10-22T16:00:00Z", "2022-10-22T16:00:00Z", "2022-10-22T16:00:00Z", "2022-10-22T16:00:00Z", "2022-10-22T16:00:00Z", "2022-10-22T16:00:00Z", "2022-10-22T16:00:00Z", "2022-10-22T16:00:00Z", "2022-10-22T16:00:00Z", "2022-10-22T16:00:00Z", "2022-10-22T16:00:00Z", "2022-10-22T16:00:00Z", "2022-10-22T16:00:00Z", "2022-10-22T16:00:00Z", "2022-10-22T16:00:00Z", "2022-10-22T16:00:00Z", "2022-10-22T16:00:00Z", "2022-10-22T16:00:00Z", "2022-10-22T16:00:00Z", "2022-10-22T16:00:00Z", "2022-10-22T16:00:00Z", "2022-10-22T16:00:00Z", "2022-10-22T16:00:00Z", "2022-10-22T16:00:00Z", "2022-10-22T16:00:00Z", "2022-10-22T16:00:00Z", "2022-10-22T16:00:00Z", "2022-10-22T16:00:00Z", "2022-10-22T16:00:00Z", "2022-10-22T16:00:00Z", "2022-10-22T16:00:00Z", "2022-10-22T16:00:00Z", "2022-10-22T16:00:00Z", "2022-10-22T16:00:00Z", "2022-10-22T16:00:00Z", "2022-10-22T16:00:00Z", "2022-10-22T16:00:00Z", "2022-10-22T16:00:00Z", "2022-10-22T16:00:00Z", "2022-10-22T16:00:00Z", "2022-10-22T16:00:00Z", "2022-10-22T16:00:00Z", "2022-10-22T16:00:00Z", "2022-10-22T16:00:00Z", "2022-10-22T16:00:00Z", "2022-10-22T16:00:00Z", "2022-10-22T16:00:00Z", "2022-10-22T15:50:00Z", "2022-10-22T15:50:00Z", "2022-10-22T15:50:00Z", "2022-10-22T15:50:00Z", "2022-10-22T15:50:00Z", "2022-10-22T15:50:00Z", "2022-10-22T15:50:00Z", "2022-10-22T15:50:00Z", "2022-10-22T15:50:00Z", "2022-10-22T15:50:00Z", "2022-10-22T15:50:00Z", "2022-10-22T15:50:00Z", "2022-10-22T15:50:00Z", "2022-10-22T15:50:00Z", "2022-10-22T15:50:00Z", "2022-10-22T15:50:00Z", "2022-10-22T15:50:00Z", "2022-10-22T15:50:00Z", "2022-10-22T15:50:00Z", "2022-10-22T15:50:00Z", "2022-10-22T15:50:00Z", "2022-10-22T15:50:00Z", "2022-10-22T15:50:00Z", "2022-10-22T15:50:00Z", "2022-10-22T15:50:00Z", "2022-10-22T15:50:00Z", "2022-10-22T15:50:00Z", "2022-10-22T15:50:00Z", "2022-10-22T16:00:00Z", "2022-10-22T15:57:00Z", "2022-10-22T15:45:00Z", "2022-10-22T15:45:00Z", "2022-10-22T15:45:00Z", "2022-10-22T15:45:00Z", "2022-10-22T15:45:00Z", "2022-10-22T15:45:00Z", "2022-10-22T15:55:00Z", "2022-10-22T15:50:00Z", "2022-10-22T15:50:00Z", "2022-10-22T15:50:00Z", "2022-10-22T15:50:00Z", "2022-10-22T15:55:00Z", "2022-10-22T15:50:00Z", "2022-10-22T15:55:00Z", "2022-10-22T15:50:00Z", "2022-10-22T15:55:00Z", "2022-10-22T15:55:00Z", "2022-10-22T15:50:00Z", "2022-10-22T15:50:00Z", "2022-10-22T15:50:00Z", "2022-10-22T15:50:00Z", "2022-10-22T15:55:00Z", "2022-10-22T15:50:00Z", "2022-10-22T15:50:00Z", "2022-10-22T15:50:00Z", "2022-10-22T15:55:00Z", "2022-10-22T15:55:00Z", "2022-10-22T15:50:00Z", "2022-10-22T15:55:00Z", "2022-10-22T15:55:00Z", "2022-10-22T15:50:00Z", "2022-10-22T15:50:00Z", "2022-10-22T15:50:00Z", "2022-10-22T15:50:00Z", "2022-10-22T15:50:00Z", "2022-10-22T15:50:00Z", "2022-10-22T15:50:00Z", "2022-10-22T15:50:00Z", "2022-10-22T15:55:00Z", "2022-10-22T15:50:00Z", "2022-10-22T15:50:00Z", "2022-10-22T15:55:00Z", "2022-10-22T15:55:00Z", "2022-10-22T15:55:00Z", "2022-10-22T15:50:00Z", "2022-10-22T15:50:00Z", "2022-10-22T15:55:00Z", "2022-10-22T15:50:00Z", "2022-10-22T15:55:00Z", "2022-10-22T15:50:00Z", "2022-10-22T15:55:00Z", "2022-10-22T15:50:00Z", "2022-10-22T15:55:00Z", "2022-10-22T15:50:00Z", "2022-10-22T15:55:00Z", "2022-10-22T15:50:00Z", "2022-10-22T15:50:00Z", "2022-10-22T15:50:00Z", "2022-10-22T15:55:00Z", "2022-10-22T15:50:00Z", "2022-10-22T15:50:00Z", "2022-10-22T15:50:00Z", "2022-10-22T15:55:00Z", "2022-10-22T15:50:00Z", "2022-10-22T15:55:00Z", "2022-10-22T15:50:00Z", "2022-10-22T15:55:00Z", "2022-10-22T15:50:00Z", "2022-10-22T15:55:00Z", "2022-10-22T15:55:00Z", "2022-10-22T15:50:00Z", "2022-10-22T15:45:00Z", "2022-10-22T15:50:00Z", "2022-10-22T15:55:00Z", "2022-10-22T15:55:00Z", "2022-10-22T15:50:00Z", "2022-10-22T15:55:00Z", "2022-10-22T15:55:00Z", "2022-10-22T15:50:00Z", "2022-10-22T15:55:00Z", "2022-10-22T15:55:00Z", "2022-10-22T15:55:00Z", "2022-10-22T15:55:00Z", "2022-10-22T15:55:00Z", "2022-10-22T15:55:00Z", "2022-10-22T15:55:00Z", "2022-10-22T15:55:00Z", "2022-10-22T16:00:00Z", "2022-10-22T16:00:00Z", "2022-10-22T16:00:00Z", "2022-10-22T16:00:00Z", "2022-10-22T16:00:00Z", "2022-10-22T16:00:00Z", "2022-10-22T16:00:00Z", "2022-10-22T16:00:00Z", "2022-10-22T16:00:00Z", "2022-10-22T16:00:00Z", "2022-10-22T16:00:00Z", "2022-10-22T16:00:00Z", "2022-10-22T16:00:00Z", "2022-10-22T16:00:00Z", "2022-10-22T15:50:00Z", "2022-10-22T15:50:00Z", "2022-10-22T15:50:00Z", "2022-10-22T15:50:00Z", "2022-10-22T15:45:00Z", "2022-10-22T16:00:00Z", "2022-10-22T16:00:00Z", "2022-10-22T15:50:00Z", "2022-10-22T15:50:00Z", "2022-10-22T15:50:00Z", "2022-10-22T15:50:00Z", "2022-10-22T15:50:00Z", "2022-10-22T15:50:00Z", "2022-10-22T15:50:00Z", "2022-10-22T16:00:00Z", "2022-10-22T16:00:00Z", "2022-10-22T16:00:00Z", "2022-10-22T16:00:00Z", "2022-10-22T16:00:00Z", "2022-10-22T16:00:00Z", "2022-10-22T16:00:00Z", "2022-10-22T15:00:00Z", "2022-10-22T15:00:00Z", "2022-10-22T16:00:00Z", "2022-10-22T16:00:00Z", "2022-10-22T16:00:00Z", "2022-10-22T16:00:00Z", "2022-10-22T16:00:00Z", "2022-10-22T16:00:00Z", "2022-10-22T16:00:00Z", "2022-10-22T16:00:00Z", "2022-10-22T16:00:00Z", "2022-10-22T16:00:00Z", "2022-10-22T16:00:00Z", "2022-10-22T16:00:00Z", "2022-10-22T16:00:00Z", "2022-10-22T16:00:00Z", "2022-10-22T16:00:00Z", "2022-10-22T16:00:00Z", "2022-10-22T16:00:00Z", "2022-10-22T16:00:00Z", "2022-10-22T16:00:00Z", "2022-10-22T16:00:00Z", "2022-10-22T16:00:00Z", "2022-10-22T16:00:00Z", "2022-10-22T16:00:00Z", "2022-10-22T16:00:00Z", "2022-10-22T16:00:00Z", "2022-10-22T16:00:00Z", "2022-10-22T16:00:00Z", "2022-10-22T16:00:00Z", "2022-10-22T15:50:00Z", "2022-10-22T15:50:00Z", "2022-10-22T15:50:00Z", "2022-10-22T15:20:00Z", "2022-10-22T15:20:00Z", "2022-10-22T15:20:00Z", "2022-10-22T15:50:00Z", "2022-10-22T15:50:00Z", "2022-10-22T15:50:00Z", "2022-10-22T15:50:00Z", "2022-10-22T15:50:00Z", "2022-10-22T15:50:00Z", "2022-10-22T15:50:00Z", "2022-10-22T15:20:00Z", "2022-10-22T15:50:00Z", "2022-10-22T15:50:00Z", "2022-10-22T15:50:00Z", "2022-10-22T15:50:00Z", "2022-10-22T15:50:00Z", "2022-10-22T15:50:00Z", "2022-10-22T15:50:00Z", "2022-10-22T15:50:00Z", "2022-10-22T15:50:00Z", "2022-10-22T15:50:00Z", "2022-10-22T15:50:00Z", "2022-10-22T15:50:00Z", "2022-10-22T15:50:00Z", "2022-10-22T15:50:00Z", "2022-10-22T15:50:00Z", "2022-10-22T15:50:00Z", "2022-10-22T15:50:00Z", "2022-10-22T15:50:00Z", "2022-10-22T15:50:00Z", "2022-10-22T15:39:00Z", "2022-10-22T15:50:00Z", "2022-10-22T15:50:00Z", "2022-10-22T15:50:00Z", "2022-10-22T15:22:00Z", "2022-10-22T15:50:00Z", "2022-10-22T15:50:00Z", "2022-10-22T15:50:00Z", "2022-10-22T15:50:00Z", "2022-10-22T15:50:00Z", "2022-10-22T15:50:00Z", "2022-10-22T15:50:00Z", "2022-10-22T15:50:00Z", "2022-10-22T15:50:00Z", "2022-10-22T15:50:00Z", "2022-10-22T15:50:00Z", "2022-10-22T15:50:00Z", "2022-10-22T15:50:00Z", "2022-10-22T15:50:00Z", "2022-10-22T15:50:00Z", "2022-10-22T15:50:00Z", "2022-10-22T15:50:00Z", "2022-10-22T15:50:00Z", "2022-10-22T15:50:00Z", "2022-10-22T15:50:00Z", "2022-10-22T15:50:00Z", "2022-10-22T15:50:00Z", "2022-10-22T15:50:00Z", "2022-10-22T15:50:00Z", "2022-10-22T15:50:00Z", "2022-10-22T15:50:00Z", "2022-10-22T16:00:00Z", "2022-10-22T16:00:00Z", "2022-10-22T16:00:00Z", "2022-10-22T15:50:00Z", "2022-10-22T16:00:00Z", "2022-10-22T16:00:00Z", "2022-10-22T16:00:00Z", "2022-10-22T16:00:00Z", "2022-10-22T16:00:00Z", "2022-10-22T16:00:00Z", "2022-10-22T16:00:00Z", "2022-10-22T16:00:00Z", "2022-10-22T16:00:00Z", "2022-10-22T15:00:00Z", "2022-10-22T15:00:00Z", "2022-10-22T15:00:00Z", "2022-10-22T15:00:00Z", "2022-10-22T16:00:00Z", "2022-10-22T16:00:00Z", "2022-10-22T16:00:00Z", "2022-10-22T16:00:00Z", "2022-10-22T16:00:00Z", "2022-10-22T16:00:00Z", "2022-10-22T16:00:00Z", "2022-10-22T16:00:00Z", "2022-10-22T15:00:00Z", "2022-10-22T16:00:00Z", "2022-10-22T16:00:00Z", "2022-10-22T16:00:00Z", "2022-10-22T16:00:00Z", "2022-10-22T16:00:00Z", "2022-10-22T16:00:00Z", "2022-10-22T16:00:00Z", "2022-10-22T16:00:00Z", "2022-10-22T16:00:00Z", "2022-10-22T16:00:00Z", "2022-10-22T16:00:00Z", "2022-10-22T16:00:00Z", "2022-10-22T16:00:00Z", "2022-10-22T15:40:00Z", "2022-10-22T15:40:00Z", "2022-10-22T15:48:00Z", "2022-10-22T15:46:00Z", "2022-10-22T15:50:00Z", "2022-10-22T15:41:00Z", "2022-10-22T15:49:00Z", "2022-10-22T15:44:00Z", "2022-10-22T15:40:00Z", "2022-10-22T15:44:00Z", "2022-10-22T15:44:00Z", "2022-10-22T15:46:00Z", "2022-10-22T15:46:00Z", "2022-10-22T15:41:00Z", "2022-10-22T15:46:00Z", "2022-10-22T15:40:00Z", "2022-10-22T15:40:00Z", "2022-10-22T15:44:00Z", "2022-10-22T15:41:00Z", "2022-10-22T15:40:00Z", "2022-10-22T15:40:00Z", "2022-10-22T15:52:00Z", "2022-10-22T15:41:00Z", "2022-10-22T15:46:00Z", "2022-10-22T15:50:00Z", "2022-10-22T15:54:00Z", "2022-10-22T15:40:00Z", "2022-10-22T15:48:00Z", "2022-10-22T15:45:00Z", "2022-10-22T15:41:00Z", "2022-10-22T15:41:00Z", "2022-10-22T15:40:00Z", "2022-10-22T15:45:00Z", "2022-10-22T15:43:00Z", "2022-10-22T15:42:00Z", "2022-10-22T15:40:00Z", "2022-10-22T15:42:00Z", "2022-10-22T15:45:00Z", "2022-10-22T15:49:00Z", "2022-10-22T15:48:00Z", "2022-10-22T15:45:00Z", "2022-10-22T15:44:00Z", "2022-10-22T15:40:00Z", "2022-10-22T15:49:00Z", "2022-10-22T15:42:00Z", "2022-10-22T15:42:00Z", "2022-10-22T15:47:00Z", "2022-10-22T15:42:00Z", "2022-10-22T15:44:00Z", "2022-10-22T15:42:00Z", "2022-10-22T15:48:00Z", "2022-10-22T15:41:00Z", "2022-10-22T15:45:00Z", "2022-10-22T15:41:00Z", "2022-10-22T16:00:00Z", "2022-10-22T16:00:00Z", "2022-10-22T16:00:00Z", "2022-10-22T16:00:00Z", "2022-10-22T16:00:00Z", "2022-10-22T16:00:00Z", "2022-10-22T16:00:00Z", "2022-10-22T16:00:00Z", "2022-10-22T16:00:00Z", "2022-10-22T16:00:00Z", "2022-10-22T16:00:00Z", "2022-10-22T16:00:00Z", "2022-10-22T16:00:00Z", "2022-10-22T15:50:00Z", "2022-10-22T16:00:00Z", "2022-10-22T15:50:00Z", "2022-10-22T15:50:00Z", "2022-10-22T15:50:00Z", "2022-10-22T15:50:00Z", "2022-10-22T15:50:00Z", "2022-10-22T15:51:00Z", "2022-10-22T15:50:00Z", "2022-10-22T15:50:00Z", "2022-10-22T15:50:00Z", "2022-10-22T15:50:00Z", "2022-10-22T16:00:00Z", "2022-10-22T16:00:00Z", "2022-10-22T16:00:00Z", "2022-10-22T16:00:00Z", "2022-10-22T16:00:00Z", "2022-10-22T16:00:00Z", "2022-10-22T16:00:00Z", "2022-10-22T16:00:00Z", "2022-10-22T16:00:00Z", "2022-10-22T16:00:00Z", "2022-10-22T16:00:00Z", "2022-10-22T16:00:00Z", "2022-10-22T16:00:00Z", "2022-10-22T16:00:00Z", "2022-10-22T16:00:00Z", "2022-10-22T16:00:00Z", "2022-10-22T16:00:00Z", "2022-10-22T16:00:00Z", "2022-10-22T16:00:00Z", "2022-10-22T15:00:00Z", "2022-10-22T16:00:00Z", "2022-10-22T16:00:00Z", "2022-10-22T16:00:00Z", "2022-10-22T16:00:00Z", "2022-10-22T16:00:00Z", "2022-10-22T16:00:00Z", "2022-10-22T16:00:00Z", "2022-10-22T15:00:00Z", "2022-10-22T15:00:00Z", "2022-10-22T16:00:00Z", "2022-10-22T16:00:00Z", "2022-10-22T16:00:00Z", "2022-10-22T15:55:00Z", "2022-10-22T16:00:00Z", "2022-10-22T16:00:00Z", "2022-10-22T16:00:00Z", "2022-10-22T16:00:00Z", "2022-10-22T16:00:00Z", "2022-10-22T16:00:00Z", "2022-10-22T16:00:00Z", "2022-10-22T16:00:00Z", "2022-10-22T16:00:00Z", "2022-10-22T16:00:00Z", "2022-10-22T16:00:00Z", "2022-10-22T16:00:00Z", "2022-10-22T16:00:00Z", "2022-10-22T16:00:00Z", "2022-10-22T16:00:00Z", "2022-10-22T16:00:00Z", "2022-10-22T16:00:00Z", "2022-10-22T16:00:00Z", "2022-10-22T16:00:00Z", "2022-10-22T16:00:00Z", "2022-10-22T16:00:00Z", "2022-10-22T16:00:00Z", "2022-10-22T15:57:00Z", "2022-10-22T16:00:00Z", "2022-10-22T16:00:00Z", "2022-10-22T16:00:00Z", "2022-10-22T16:00:00Z", "2022-10-22T16:00:00Z", "2022-10-22T16:00:00Z", "2022-10-22T16:00:00Z", "2022-10-22T16:00:00Z", "2022-10-22T16:00:00Z", "2022-10-22T16:00:00Z", "2022-10-22T16:00:00Z", "2022-10-22T16:00:00Z", "2022-10-22T16:00:00Z", "2022-10-22T16:00:00Z", "2022-10-22T15:51:00Z", "2022-10-22T16:00:00Z", "2022-10-22T16:00:00Z", "2022-10-22T15:00:00Z", "2022-10-22T16:00:00Z", "2022-10-22T15:00:00Z", "2022-10-22T16:00:00Z", "2022-10-22T16:00:00Z", "2022-10-22T16:00:00Z", "2022-10-22T16:00:00Z", "2022-10-22T15:00:00Z", "2022-10-22T16:00:00Z", "2022-10-22T15:00:00Z", "2022-10-22T16:00:00Z", "2022-10-22T16:00:00Z", "2022-10-22T16:00:00Z", "2022-10-22T16:00:00Z", "2022-10-22T16:00:00Z", "2022-10-22T16:00:00Z", "2022-10-22T16:00:00Z", "2022-10-22T16:00:00Z", "2022-10-22T16:00:00Z", "2022-10-22T15:50:00Z", "2022-10-22T16:00:00Z", "2022-10-22T16:00:00Z", "2022-10-22T16:00:00Z", "2022-10-22T16:00:00Z", "2022-10-22T16:00:00Z", "2022-10-22T16:00:00Z", "2022-10-22T16:00:00Z", "2022-10-22T16:00:00Z", "2022-10-22T16:00:00Z", "2022-10-22T16:00:00Z", "2022-10-22T16:00:00Z", "2022-10-22T16:00:00Z", "2022-10-22T15:50:00Z", "2022-10-22T16:00:00Z", "2022-10-22T16:00:00Z", "2022-10-22T16:00:00Z", "2022-10-22T16:00:00Z", "2022-10-22T16:00:00Z", "2022-10-22T16:00:00Z", "2022-10-22T16:00:00Z", "2022-10-22T16:00:00Z", "2022-10-22T16:00:00Z", "2022-10-22T16:00:00Z", "2022-10-22T16:00:00Z", "2022-10-22T16:00:00Z", "2022-10-22T16:00:00Z", "2022-10-22T16:00:00Z", "2022-10-22T16:00:00Z", "2022-10-22T16:00:00Z", "2022-10-22T16:00:00Z", "2022-10-22T15:00:00Z", "2022-10-22T16:00:00Z", "2022-10-22T16:00:00Z", "2022-10-22T16:00:00Z", "2022-10-22T16:00:00Z", "2022-10-22T16:00:00Z", "2022-10-22T16:00:00Z", "2022-10-22T16:00:00Z", "2022-10-22T15:50:00Z", "2022-10-22T15:00:00Z", "2022-10-22T16:00:00Z", "2022-10-22T16:00:00Z", "2022-10-22T16:00:00Z", "2022-10-22T16:00:00Z", "2022-10-22T16:00:00Z", "2022-10-22T16:00:00Z", "2022-10-22T16:00:00Z", "2022-10-22T16:00:00Z", "2022-10-22T15:55:00Z", "2022-10-22T16:00:00Z", "2022-10-22T16:00:00Z", "2022-10-22T16:00:00Z", "2022-10-22T16:00:00Z", "2022-10-22T16:00:00Z", "2022-10-22T16:00:00Z", "2022-10-22T16:00:00Z", "2022-10-22T16:00:00Z", "2022-10-22T16:00:00Z", "2022-10-22T16:00:00Z", "2022-10-22T15:50:00Z", "2022-10-22T15:50:00Z", "2022-10-22T15:50:00Z", "2022-10-22T15:50:00Z", "2022-10-22T15:50:00Z", "2022-10-22T15:50:00Z", "2022-10-22T15:55:00Z", "2022-10-22T16:00:00Z", "2022-10-22T16:00:00Z", "2022-10-22T15:55:00Z", "2022-10-22T16:00:00Z", "2022-10-22T16:00:00Z", "2022-10-22T16:00:00Z", "2022-10-22T16:00:00Z", "2022-10-22T16:00:00Z", "2022-10-22T15:00:00Z", "2022-10-22T16:00:00Z", "2022-10-22T16:00:00Z", "2022-10-22T16:00:00Z", "2022-10-22T15:00:00Z", "2022-10-22T16:00:00Z", "2022-10-22T15:00:00Z", "2022-10-22T16:00:00Z", "2022-10-22T16:00:00Z", "2022-10-22T15:55:00Z", "2022-10-22T16:00:00Z", "2022-10-22T15:55:00Z", "2022-10-22T15:56:00Z", "2022-10-22T15:53:00Z", "2022-10-22T15:52:00Z", "2022-10-22T16:11:00Z", "2022-10-22T15:52:00Z", "2022-10-22T15:56:00Z", "2022-10-22T15:53:00Z", "2022-10-22T16:00:00Z", "2022-10-22T15:56:00Z", "2022-10-22T15:53:00Z", "2022-10-22T15:53:00Z", "2022-10-22T15:55:00Z", "2022-10-22T15:10:00Z", "2022-10-22T15:56:00Z", "2022-10-22T15:56:00Z", "2022-10-22T15:56:00Z", "2022-10-22T15:53:00Z", "2022-10-22T15:56:00Z", "2022-10-22T15:55:00Z", "2022-10-22T15:55:00Z", "2022-10-22T15:58:00Z", "2022-10-22T15:53:00Z", "2022-10-22T15:53:00Z", "2022-10-22T15:55:00Z", "2022-10-22T15:56:00Z", "2022-10-22T15:56:00Z", "2022-10-22T15:55:00Z", "2022-10-22T16:01:00Z", "2022-10-22T15:56:00Z", "2022-10-22T15:53:00Z", "2022-10-22T15:56:00Z", "2022-10-22T15:47:00Z", "2022-10-22T15:56:00Z", "2022-10-22T15:56:00Z", "2022-10-22T15:53:00Z", "2022-10-22T15:56:00Z", "2022-10-22T16:06:00Z", "2022-10-22T15:53:00Z", "2022-10-22T16:02:00Z", "2022-10-22T15:56:00Z", "2022-10-22T15:56:00Z", "2022-10-22T15:56:00Z", "2022-10-22T15:53:00Z", "2022-10-22T15:55:00Z", "2022-10-22T15:56:00Z", "2022-10-22T15:57:00Z", "2022-10-22T15:53:00Z", "2022-10-22T16:03:00Z", "2022-10-22T15:56:00Z", "2022-10-22T15:56:00Z", "2022-10-22T15:56:00Z", "2022-10-22T15:56:00Z", "2022-10-22T15:54:00Z", "2022-10-22T15:56:00Z", "2022-10-22T15:53:00Z", "2022-10-22T15:53:00Z", "2022-10-22T15:03:00Z", "2022-10-22T15:55:00Z", "2022-10-22T15:56:00Z", "2022-10-22T16:08:00Z", "2022-10-22T15:47:00Z", "2022-10-22T15:55:00Z", "2022-10-22T15:56:00Z", "2022-10-22T15:51:00Z", "2022-10-22T15:56:00Z", "2022-10-22T15:56:00Z", "2022-10-22T16:00:00Z", "2022-10-22T16:05:00Z", "2022-10-22T16:09:00Z", "2022-10-22T15:56:00Z", "2022-10-22T15:53:00Z", "2022-10-22T16:08:00Z", "2022-10-22T16:07:00Z", "2022-10-22T15:56:00Z", "2022-10-22T15:53:00Z", "2022-10-22T15:56:00Z", "2022-10-22T15:53:00Z", "2022-10-22T15:53:00Z", "2022-10-22T15:56:00Z", "2022-10-22T15:53:00Z", "2022-10-22T16:03:00Z", "2022-10-22T15:56:00Z", "2022-10-22T15:56:00Z", "2022-10-22T15:56:00Z", "2022-10-22T15:53:00Z", "2022-10-22T16:04:00Z", "2022-10-22T15:56:00Z", "2022-10-22T16:09:00Z", "2022-10-22T15:56:00Z", "2022-10-22T15:53:00Z", "2022-10-22T15:56:00Z", "2022-10-22T15:56:00Z", "2022-10-22T15:53:00Z", "2022-10-22T15:56:00Z", "2022-10-22T15:56:00Z", "2022-10-22T15:53:00Z", "2022-10-22T15:53:00Z", "2022-10-22T15:55:00Z", "2022-10-22T15:59:00Z", "2022-10-22T15:59:00Z", "2022-10-22T16:02:00Z", "2022-10-22T15:55:00Z", "2022-10-22T15:56:00Z", "2022-10-22T15:56:00Z", "2022-10-22T15:53:00Z", "2022-10-22T15:55:00Z", "2022-10-22T15:53:00Z", "2022-10-22T15:56:00Z", "2022-10-22T15:56:00Z", "2022-10-22T15:55:00Z", "2022-10-22T15:56:00Z", "2022-10-22T16:07:00Z", "2022-10-22T15:56:00Z", "2022-10-22T15:53:00Z", "2022-10-22T15:56:00Z", "2022-10-22T15:53:00Z", "2022-10-22T15:56:00Z", "2022-10-22T15:56:00Z", "2022-10-22T15:56:00Z", "2022-10-22T15:53:00Z", "2022-10-22T15:56:00Z", "2022-10-22T16:07:00Z", "2022-10-22T16:12:00Z", "2022-10-22T15:56:00Z", "2022-10-22T16:01:00Z", "2022-10-22T15:56:00Z", "2022-10-22T15:56:00Z", "2022-10-22T15:56:00Z", "2022-10-22T15:56:00Z", "2022-10-22T15:54:00Z", "2022-10-22T15:55:00Z", "2022-10-22T15:54:00Z", "2022-10-22T15:51:00Z", "2022-10-22T15:55:00Z", "2022-10-22T16:00:00Z", "2022-10-22T15:53:00Z", "2022-10-22T15:53:00Z", "2022-10-22T15:54:00Z", "2022-10-22T15:57:00Z", "2022-10-22T15:53:00Z", "2022-10-22T16:05:00Z", "2022-10-22T15:54:00Z", "2022-10-22T15:58:00Z", "2022-10-22T15:53:00Z", "2022-10-22T16:00:00Z", "2022-10-22T16:00:00Z", "2022-10-22T15:56:00Z", "2022-10-22T15:56:00Z", "2022-10-22T15:54:00Z", "2022-10-22T15:57:00Z", "2022-10-22T16:00:00Z", "2022-10-22T16:00:00Z", "2022-10-22T16:00:00Z", "2022-10-22T16:00:00Z", "2022-10-22T16:00:00Z", "2022-10-22T16:00:00Z", "2022-10-22T16:00:00Z", "2022-10-22T15:00:00Z", "2022-10-22T16:00:00Z", "2022-10-22T16:00:00Z", "2022-10-22T16:00:00Z", "2022-10-22T16:00:00Z", "2022-10-22T16:00:00Z", "2022-10-22T16:00:00Z", "2022-10-22T16:00:00Z", "2022-10-22T16:00:00Z", "2022-10-22T16:00:00Z", "2022-10-22T16:00:00Z", "2022-10-22T15:56:00Z", "2022-10-22T16:00:00Z", "2022-10-22T16:00:00Z", "2022-10-22T16:00:00Z", "2022-10-22T16:00:00Z", "2022-10-22T15:55:00Z", "2022-10-22T16:00:00Z", "2022-10-22T15:55:00Z", "2022-10-22T16:00:00Z", "2022-10-22T16:00:00Z", "2022-10-22T16:00:00Z", "2022-10-22T15:19:00Z", "2022-10-22T15:55:00Z", "2022-10-22T16:00:00Z", "2022-10-22T15:00:00Z", "2022-10-22T15:55:00Z", "2022-10-22T16:00:00Z", "2022-10-22T16:00:00Z", "2022-10-22T16:00:00Z", "2022-10-22T16:00:00Z", "2022-10-22T15:55:00Z", "2022-10-22T16:00:00Z", "2022-10-22T16:00:00Z", "2022-10-22T16:00:00Z", "2022-10-22T16:00:00Z", "2022-10-22T16:00:00Z", "2022-10-22T16:00:00Z", "2022-10-22T15:00:00Z", "2022-10-22T16:00:00Z", "2022-10-22T16:00:00Z", "2022-10-22T15:00:00Z", "2022-10-22T16:00:00Z", "2022-10-22T16:00:00Z", "2022-10-22T16:00:00Z", "2022-10-22T16:00:00Z", "2022-10-22T16:00:00Z", "2022-10-22T16:00:00Z", "2022-10-22T16:00:00Z", "2022-10-22T16:00:00Z", "2022-10-22T16:00:00Z", "2022-10-22T16:00:00Z", "2022-10-22T16:00:00Z", "2022-10-22T16:00:00Z", "2022-10-22T16:00:00Z", "2022-10-22T16:00:00Z", "2022-10-22T16:00:00Z", "2022-10-22T16:00:00Z", "2022-10-22T16:00:00Z", "2022-10-22T16:00:00Z", "2022-10-22T16:00:00Z", "2022-10-22T16:00:00Z", "2022-10-22T16:00:00Z", "2022-10-22T16:00:00Z", "2022-10-22T16:00:00Z", "2022-10-22T16:00:00Z", "2022-10-22T15:00:00Z", "2022-10-22T15:00:00Z", "2022-10-22T15:00:00Z", "2022-10-22T15:00:00Z", "2022-10-22T15:00:00Z", "2022-10-22T16:00:00Z", "2022-10-22T15:00:00Z", "2022-10-22T15:00:00Z", "2022-10-22T15:00:00Z", "2022-10-22T15:00:00Z", "2022-10-22T15:00:00Z", "2022-10-22T15:00:00Z", "2022-10-22T15:00:00Z", "2022-10-22T15:00:00Z", "2022-10-22T15:00:00Z", "2022-10-22T15:00:00Z", "2022-10-22T15:00:00Z", "2022-10-22T15:00:00Z", "2022-10-22T15:00:00Z", "2022-10-22T15:00:00Z", "2022-10-22T15:00:00Z", "2022-10-22T15:00:00Z", "2022-10-22T15:00:00Z", "2022-10-22T15:00:00Z", "2022-10-22T15:00:00Z", "2022-10-22T15:00:00Z", "2022-10-22T15:00:00Z", "2022-10-22T15:00:00Z", "2022-10-22T15:00:00Z", "2022-10-22T15:00:00Z", "2022-10-22T15:00:00Z", "2022-10-22T15:00:00Z", "2022-10-22T15:00:00Z", "2022-10-22T15:00:00Z", "2022-10-22T15:00:00Z", "2022-10-22T15:00:00Z", "2022-10-22T15:00:00Z", "2022-10-22T15:00:00Z", "2022-10-22T15:00:00Z", "2022-10-22T15:00:00Z", "2022-10-22T15:00:00Z", "2022-10-22T15:00:00Z", "2022-10-22T15:00:00Z", "2022-10-22T15:00:00Z", "2022-10-22T15:00:00Z", "2022-10-22T15:00:00Z", "2022-10-22T15:00:00Z", "2022-10-22T15:00:00Z", "2022-10-22T15:00:00Z", "2022-10-22T15:00:00Z", "2022-10-22T15:00:00Z", "2022-10-22T15:00:00Z", "2022-10-22T15:08:00Z", "2022-10-22T15:00:00Z", "2022-10-22T15:00:00Z", "2022-10-22T15:00:00Z", "2022-10-22T15:00:00Z", "2022-10-22T15:00:00Z", "2022-10-22T15:00:00Z", "2022-10-22T15:00:00Z", "2022-10-22T15:00:00Z", "2022-10-22T15:00:00Z", "2022-10-22T15:00:00Z", "2022-10-22T15:00:00Z", "2022-10-22T15:00:00Z", "2022-10-22T15:00:00Z", "2022-10-22T15:00:00Z", "2022-10-22T15:00:00Z", "2022-10-22T15:00:00Z", "2022-10-22T15:00:00Z", "2022-10-22T15:00:00Z", "2022-10-22T15:00:00Z", "2022-10-22T15:00:00Z", "2022-10-22T15:00:00Z", "2022-10-22T15:00:00Z", "2022-10-22T15:00:00Z", "2022-10-22T15:00:00Z", "2022-10-22T15:00:00Z", "2022-10-22T15:00:00Z", "2022-10-22T15:00:00Z", "2022-10-22T15:00:00Z", "2022-10-22T15:00:00Z", "2022-10-22T15:00:00Z", "2022-10-22T15:00:00Z", "2022-10-22T15:00:00Z", "2022-10-22T15:00:00Z", "2022-10-22T15:00:00Z", "2022-10-22T15:00:00Z", "2022-10-22T15:00:00Z", "2022-10-22T15:00:00Z", "2022-10-22T15:00:00Z", "2022-10-22T15:00:00Z", "2022-10-22T15:00:00Z", "2022-10-22T15:00:00Z", "2022-10-22T15:00:00Z", "2022-10-22T15:00:00Z", "2022-10-22T15:00:00Z", "2022-10-22T15:00:00Z", "2022-10-22T15:00:00Z", "2022-10-22T15:00:00Z", "2022-10-22T15:00:00Z", "2022-10-22T15:00:00Z", "2022-10-22T15:00:00Z", "2022-10-22T15:00:00Z", "2022-10-22T15:00:00Z", "2022-10-22T16:00:00Z", "2022-10-22T16:00:00Z", "2022-10-22T16:00:00Z", "2022-10-22T16:00:00Z", "2022-10-22T16:00:00Z", "2022-10-22T16:00:00Z", "2022-10-22T16:00:00Z", "2022-10-22T16:00:00Z", "2022-10-22T16:00:00Z", "2022-10-22T16:00:00Z", "2022-10-22T16:00:00Z", "2022-10-22T16:00:00Z", "2022-10-22T16:00:00Z", "2022-10-22T16:00:00Z", "2022-10-22T16:00:00Z", "2022-10-22T16:00:00Z", "2022-10-22T16:00:00Z", "2022-10-22T16:00:00Z", "2022-10-22T16:00:00Z", "2022-10-22T16:00:00Z", "2022-10-22T16:00:00Z", "2022-10-22T16:00:00Z", "2022-10-22T16:00:00Z", "2022-10-22T16:00:00Z", "2022-10-22T16:00:00Z", "2022-10-22T16:00:00Z", "2022-10-22T16:00:00Z", "2022-10-22T16:00:00Z", "2022-10-22T16:00:00Z", "2022-10-22T16:00:00Z", "2022-10-22T16:00:00Z", "2022-10-22T16:00:00Z", "2022-10-22T16:00:00Z", "2022-10-22T16:00:00Z", "2022-10-22T16:00:00Z", "2022-10-22T16:00:00Z", "2022-10-22T16:00:00Z", "2022-10-22T16:00:00Z", "2022-10-22T16:00:00Z", "2022-10-22T16:00:00Z", "2022-10-22T16:00:00Z", "2022-10-22T16:00:00Z", "2022-10-22T16:00:00Z", "2022-10-22T16:00:00Z", "2022-10-22T16:00:00Z", "2022-10-22T16:00:00Z", "2022-10-22T15:00:00Z", "2022-10-22T16:00:00Z", "2022-10-22T16:00:00Z", "2022-10-22T16:00:00Z", "2022-10-22T15:00:00Z", "2022-10-22T16:00:00Z", "2022-10-22T16:00:00Z", "2022-10-22T15:00:00Z", "2022-10-22T15:00:00Z", "2022-10-22T15:00:00Z", "2022-10-22T15:00:00Z", "2022-10-22T16:00:00Z", "2022-10-22T15:00:00Z", "2022-10-22T15:00:00Z", "2022-10-22T15:00:00Z", "2022-10-22T15:00:00Z", "2022-10-22T15:00:00Z", "2022-10-22T16:00:00Z", "2022-10-22T15:00:00Z", "2022-10-22T15:00:00Z", "2022-10-22T16:00:00Z", "2022-10-22T15:00:00Z", "2022-10-22T15:00:00Z", "2022-10-22T16:00:00Z", "2022-10-22T15:00:00Z", "2022-10-22T15:00:00Z", "2022-10-22T15:00:00Z", "2022-10-22T16:00:00Z", "2022-10-22T16:00:00Z", "2022-10-22T16:00:00Z", "2022-10-22T16:00:00Z", "2022-10-22T16:00:00Z", "2022-10-22T16:00:00Z", "2022-10-22T16:00:00Z", "2022-10-22T16:00:00Z", "2022-10-22T16:00:00Z", "2022-10-22T16:00:00Z", "2022-10-22T16:00:00Z", "2022-10-22T16:00:00Z", "2022-10-22T16:00:00Z", "2022-10-22T16:00:00Z", "2022-10-22T15:00:00Z", "2022-10-22T16:00:00Z", "2022-10-22T16:00:00Z", "2022-10-22T16:00:00Z", "2022-10-22T16:00:00Z", "2022-10-22T16:00:00Z", "2022-10-22T16:00:00Z", "2022-10-22T16:00:00Z", "2022-10-22T16:00:00Z", "2022-10-22T16:00:00Z", "2022-10-22T16:00:00Z", "2022-10-22T16:00:00Z", "2022-10-22T16:00:00Z", "2022-10-22T16:00:00Z", "2022-10-22T16:00:00Z", "2022-10-22T16:00:00Z", "2022-10-22T16:00:00Z", "2022-10-22T16:00:00Z", "2022-10-22T16:00:00Z", "2022-10-22T16:00:00Z", "2022-10-22T16:00:00Z", "2022-10-22T16:00:00Z", "2022-10-22T16:00:00Z", "2022-10-22T16:00:00Z", "2022-10-22T16:00:00Z", "2022-10-22T16:00:00Z", "2022-10-22T16:00:00Z", "2022-10-22T16:00:00Z", "2022-10-22T16:03:00Z", "2022-10-22T16:03:00Z", "2022-10-22T16:03:00Z", "2022-10-22T16:03:00Z", "2022-10-22T16:03:00Z", "2022-10-22T16:03:00Z", "2022-10-22T16:03:00Z", "2022-10-22T16:03:00Z", "2022-10-22T16:03:00Z", "2022-10-22T16:03:00Z", "2022-10-22T15:00:00Z", "2022-10-22T16:03:00Z", "2022-10-22T16:03:00Z", "2022-10-22T16:03:00Z", "2022-10-22T16:03:00Z", "2022-10-22T16:03:00Z", "2022-10-22T16:03:00Z", "2022-10-22T16:03:00Z", "2022-10-22T16:03:00Z", "2022-10-22T15:00:00Z", "2022-10-22T16:03:00Z", "2022-10-22T16:03:00Z", "2022-10-22T16:00:00Z", "2022-10-22T15:00:00Z", "2022-10-22T15:00:00Z", "2022-10-22T16:00:00Z", "2022-10-22T16:00:00Z", "2022-10-22T16:00:00Z", "2022-10-22T16:00:00Z", "2022-10-22T16:00:00Z", "2022-10-22T16:00:00Z", "2022-10-22T16:00:00Z", "2022-10-22T15:53:00Z", "2022-10-22T16:10:00Z", "2022-10-22T15:50:00Z", "2022-10-22T15:45:00Z", "2022-10-22T15:53:00Z", "2022-10-22T15:56:00Z", "2022-10-22T16:00:00Z", "2022-10-22T15:00:00Z", "2022-10-22T16:00:00Z", "2022-10-22T16:00:00Z", "2022-10-22T16:00:00Z", "2022-10-22T15:55:00Z", "2022-10-22T16:00:00Z", "2022-10-22T15:55:00Z", "2022-10-22T16:00:00Z", "2022-10-22T16:00:00Z", "2022-10-22T16:00:00Z", "2022-10-22T16:00:00Z", "2022-10-22T15:55:00Z", "2022-10-22T16:00:00Z", "2022-10-22T16:00:00Z", "2022-10-22T16:00:00Z", "2022-10-22T16:00:00Z", "2022-10-22T16:00:00Z", "2022-10-22T16:00:00Z", "2022-10-22T16:00:00Z", "2022-10-22T15:00:00Z", "2022-10-22T16:00:00Z", "2022-10-22T16:00:00Z", "2022-10-22T16:00:00Z", "2022-10-22T16:00:00Z", "2022-10-22T16:00:00Z", "2022-10-22T16:00:00Z", "2022-10-22T16:00:00Z", "2022-10-22T16:00:00Z", "2022-10-22T16:00:00Z", "2022-10-22T16:00:00Z", "2022-10-22T16:00:00Z", "2022-10-22T16:00:00Z", "2022-10-22T16:00:00Z", "2022-10-22T16:00:00Z", "2022-10-22T16:00:00Z", "2022-10-22T16:00:00Z", "2022-10-22T16:00:00Z", "2022-10-22T16:00:00Z", "2022-10-22T16:00:00Z", "2022-10-22T16:00:00Z", "2022-10-22T16:00:00Z", "2022-10-22T16:00:00Z", "2022-10-22T16:00:00Z", "2022-10-22T16:00:00Z", "2022-10-22T16:00:00Z", "2022-10-22T16:00:00Z", "2022-10-22T16:00:00Z", "2022-10-22T16:00:00Z", "2022-10-22T16:00:00Z", "2022-10-22T16:00:00Z", "2022-10-22T16:00:00Z", "2022-10-22T16:00:00Z", "2022-10-22T16:00:00Z", "2022-10-22T16:00:00Z", "2022-10-22T16:00:00Z", "2022-10-22T16:00:00Z", "2022-10-22T16:00:00Z", "2022-10-22T16:00:00Z", "2022-10-22T16:00:00Z", "2022-10-22T16:00:00Z", "2022-10-22T16:00:00Z", "2022-10-22T16:00:00Z", "2022-10-22T16:00:00Z", "2022-10-22T16:00:00Z", "2022-10-22T16:00:00Z", "2022-10-22T16:00:00Z", "2022-10-22T16:00:00Z", "2022-10-22T16:00:00Z", "2022-10-22T16:00:00Z", "2022-10-22T16:00:00Z", "2022-10-22T16:00:00Z", "2022-10-22T16:00:00Z", "2022-10-22T16:00:00Z", "2022-10-22T16:00:00Z", "2022-10-22T16:00:00Z", "2022-10-22T16:00:00Z", "2022-10-22T16:00:00Z", "2022-10-22T16:00:00Z", "2022-10-22T16:00:00Z", "2022-10-22T16:00:00Z", "2022-10-22T16:00:00Z", "2022-10-22T16:00:00Z", "2022-10-22T16:00:00Z", "2022-10-22T16:00:00Z", "2022-10-22T16:00:00Z", "2022-10-22T16:00:00Z", "2022-10-22T16:00:00Z", "2022-10-22T16:00:00Z", "2022-10-22T16:00:00Z", "2022-10-22T16:00:00Z", "2022-10-22T16:00:00Z", "2022-10-22T16:00:00Z", "2022-10-22T16:00:00Z", "2022-10-22T16:00:00Z", "2022-10-22T16:00:00Z", "2022-10-22T16:00:00Z", "2022-10-22T16:00:00Z", "2022-10-22T16:00:00Z", "2022-10-22T16:00:00Z", "2022-10-22T16:00:00Z", "2022-10-22T16:00:00Z", "2022-10-22T16:00:00Z", "2022-10-22T16:00:00Z", "2022-10-22T16:00:00Z", "2022-10-22T16:00:00Z", "2022-10-22T16:00:00Z", "2022-10-22T16:08:43Z", "2022-10-22T16:00:00Z", "2022-10-22T16:00:00Z", "2022-10-22T16:00:00Z", "2022-10-22T16:00:00Z", "2022-10-22T16:00:00Z", "2022-10-22T16:00:00Z", "2022-10-22T16:00:00Z", "2022-10-22T16:00:00Z", "2022-10-22T16:00:00Z", "2022-10-22T16:00:00Z", "2022-10-22T16:00:00Z", "2022-10-22T16:00:00Z", "2022-10-22T16:00:00Z", "2022-10-22T16:00:00Z", "2022-10-22T16:00:00Z", "2022-10-22T16:00:00Z", "2022-10-22T16:00:00Z", "2022-10-22T16:00:00Z", "2022-10-22T16:00:00Z", "2022-10-22T16:00:00Z", "2022-10-22T16:00:00Z", "2022-10-22T16:00:00Z", "2022-10-22T16:00:00Z", "2022-10-22T16:00:00Z", "2022-10-22T16:00:00Z", "2022-10-22T16:00:00Z", "2022-10-22T16:00:00Z", "2022-10-22T16:00:00Z", "2022-10-22T16:00:00Z", "2022-10-22T16:00:00Z", "2022-10-22T16:00:00Z", "2022-10-22T16:00:00Z", "2022-10-22T15:00:00Z", "2022-10-22T16:00:00Z", "2022-10-22T15:00:00Z", "2022-10-22T15:00:00Z", "2022-10-22T15:30:00Z", "2022-10-22T16:00:00Z", "2022-10-22T16:00:00Z", "2022-10-22T15:00:00Z", "2022-10-22T15:00:00Z", "2022-10-22T16:00:00Z", "2022-10-22T15:00:00Z", "2022-10-22T15:10:00Z", "2022-10-22T15:10:00Z", "2022-10-22T16:00:00Z", "2022-10-22T16:00:00Z", "2022-10-22T16:00:00Z", "2022-10-22T15:30:00Z", "2022-10-22T16:00:00Z", "2022-10-22T16:00:00Z", "2022-10-22T16:00:00Z", "2022-10-22T16:00:00Z", "2022-10-22T16:00:00Z", "2022-10-22T16:00:00Z", "2022-10-22T16:00:00Z", "2022-10-22T16:00:00Z", "2022-10-22T15:00:00Z", "2022-10-22T16:00:00Z", "2022-10-22T16:00:00Z", "2022-10-22T16:00:00Z", "2022-10-22T16:00:00Z", "2022-10-22T16:00:00Z", "2022-10-22T16:00:00Z", "2022-10-22T16:00:00Z", "2022-10-22T16:00:00Z", "2022-10-22T15:00:00Z", "2022-10-22T16:00:00Z", "2022-10-22T16:00:00Z", "2022-10-22T16:00:00Z", "2022-10-22T16:00:00Z", "2022-10-22T16:00:00Z", "2022-10-22T16:00:00Z", "2022-10-22T15:30:00Z", "2022-10-22T16:00:00Z", "2022-10-22T16:00:00Z", "2022-10-22T16:00:00Z", "2022-10-22T16:00:00Z", "2022-10-22T16:00:00Z", "2022-10-22T16:00:00Z", "2022-10-22T16:00:00Z", "2022-10-22T16:00:00Z", "2022-10-22T16:00:00Z", "2022-10-22T16:00:00Z", "2022-10-22T16:00:00Z", "2022-10-22T16:00:00Z", "2022-10-22T16:00:00Z", "2022-10-22T16:00:00Z", "2022-10-22T15:00:00Z", "2022-10-22T16:00:00Z", "2022-10-22T16:00:00Z", "2022-10-22T16:00:00Z", "2022-10-22T16:00:00Z", "2022-10-22T16:00:00Z", "2022-10-22T16:00:00Z", "2022-10-22T15:00:00Z", "2022-10-22T15:00:00Z", "2022-10-22T15:00:00Z", "2022-10-22T15:00:00Z", "2022-10-22T16:00:00Z", "2022-10-22T15:00:00Z", "2022-10-22T16:00:00Z", "2022-10-22T16:00:00Z", "2022-10-22T15:00:00Z", "2022-10-22T15:00:00Z", "2022-10-22T16:00:00Z", "2022-10-22T16:00:00Z", "2022-10-22T16:00:00Z", "2022-10-22T16:00:00Z", "2022-10-22T16:00:00Z", "2022-10-22T16:00:00Z", "2022-10-22T16:00:00Z", "2022-10-22T16:00:00Z", "2022-10-22T16:00:00Z", "2022-10-22T16:00:00Z", "2022-10-22T16:00:00Z", "2022-10-22T16:00:00Z", "2022-10-22T16:00:00Z", "2022-10-22T16:00:00Z", "2022-10-22T16:00:00Z", "2022-10-22T16:00:00Z", "2022-10-22T16:00:00Z", "2022-10-22T16:00:00Z", "2022-10-22T16:00:00Z", "2022-10-22T16:00:00Z", "2022-10-22T15:30:00Z", "2022-10-22T16:00:00Z", "2022-10-22T16:00:00Z", "2022-10-22T16:00:00Z", "2022-10-22T16:00:00Z", "2022-10-22T16:00:00Z", "2022-10-22T16:00:00Z", "2022-10-22T16:00:00Z", "2022-10-22T16:00:00Z", "2022-10-22T16:00:00Z", "2022-10-22T16:00:00Z", "2022-10-22T16:00:00Z", "2022-10-22T16:00:00Z", "2022-10-22T16:00:00Z", "2022-10-22T16:00:00Z", "2022-10-22T16:00:00Z", "2022-10-22T16:00:00Z", "2022-10-22T16:00:00Z", "2022-10-22T16:00:00Z", "2022-10-22T16:00:00Z", "2022-10-22T16:00:00Z", "2022-10-22T16:00:00Z", "2022-10-22T16:00:00Z", "2022-10-22T16:00:00Z", "2022-10-22T16:00:00Z", "2022-10-22T16:00:00Z", "2022-10-22T16:00:00Z", "2022-10-22T16:00:00Z", "2022-10-22T16:00:00Z", "2022-10-22T16:00:00Z", "2022-10-22T16:00:00Z", "2022-10-22T16:00:00Z", "2022-10-22T16:00:00Z", "2022-10-22T16:00:00Z", "2022-10-22T16:00:00Z", "2022-10-22T16:00:00Z", "2022-10-22T16:00:00Z", "2022-10-22T16:00:00Z", "2022-10-22T15:19:00Z", "2022-10-22T16:00:00Z", "2022-10-22T16:00:00Z", "2022-10-22T16:12:00Z", "2022-10-22T16:00:00Z", "2022-10-22T16:00:00Z", "2022-10-22T16:00:00Z", "2022-10-22T16:00:00Z", "2022-10-22T15:58:00Z", "2022-10-22T16:00:00Z", "2022-10-22T16:01:00Z", "2022-10-22T16:09:00Z", "2022-10-22T16:11:00Z", "2022-10-22T16:12:00Z", "2022-10-22T16:07:00Z", "2022-10-22T15:58:00Z", "2022-10-22T16:00:00Z", "2022-10-22T15:13:00Z", "2022-10-22T16:00:00Z", "2022-10-22T16:00:00Z", "2022-10-22T16:06:00Z", "2022-10-22T16:00:00Z", "2022-10-22T16:00:00Z", "2022-10-22T16:00:00Z", "2022-10-22T16:12:00Z", "2022-10-22T16:00:00Z", "2022-10-22T16:00:00Z", "2022-10-22T16:00:00Z", "2022-10-22T16:00:00Z", "2022-10-22T16:00:00Z", "2022-10-22T16:00:00Z", "2022-10-22T16:00:00Z", "2022-10-22T16:00:00Z", "2022-10-22T16:00:00Z", "2022-10-22T16:00:00Z", "2022-10-22T16:00:00Z", "2022-10-22T16:00:00Z", "2022-10-22T15:28:00Z", "2022-10-22T16:00:00Z", "2022-10-22T16:00:00Z", "2022-10-22T16:00:00Z", "2022-10-22T16:00:00Z", "2022-10-22T16:00:00Z", "2022-10-22T16:00:00Z", "2022-10-22T16:00:00Z", "2022-10-22T16:00:00Z", "2022-10-22T16:00:00Z", "2022-10-22T16:00:00Z", "2022-10-22T16:00:00Z", "2022-10-22T16:00:00Z", "2022-10-22T16:00:00Z", "2022-10-22T16:00:00Z", "2022-10-22T16:00:00Z", "2022-10-22T16:00:00Z", "2022-10-22T16:00:00Z", "2022-10-22T16:00:00Z", "2022-10-22T16:00:00Z", "2022-10-22T16:00:00Z", "2022-10-22T16:00:00Z", "2022-10-22T16:00:00Z", "2022-10-22T16:00:00Z", "2022-10-22T16:00:00Z", "2022-10-22T16:00:00Z", "2022-10-22T16:00:00Z", "2022-10-22T16:00:00Z", "2022-10-22T16:00:00Z", "2022-10-22T16:00:00Z", "2022-10-22T16:00:00Z", "2022-10-22T16:00:00Z", "2022-10-22T16:00:00Z", "2022-10-22T16:00:00Z", "2022-10-22T16:00:00Z", "2022-10-22T16:00:00Z", "2022-10-22T16:00:00Z", "2022-10-22T16:00:00Z", "2022-10-22T16:00:00Z", "2022-10-22T16:00:00Z", "2022-10-22T16:00:00Z", "2022-10-22T16:00:00Z", "2022-10-22T16:00:00Z", "2022-10-22T16:00:00Z", "2022-10-22T16:00:00Z", "2022-10-22T16:00:00Z", "2022-10-22T16:00:00Z", "2022-10-22T16:00:00Z"], "raw_text": ["AGGH 221500Z 18003KT 9999 FEW014 23/22 Q1008", "AYPY 221600Z 33007KT 9999 FEW070 24/23 Q1008", "BGBW 221550Z 01002KT 0800 FG VV004 04/03 Q1009", "BGGH 221550Z 16026KT 9999 VCSH FEW010 BKN030 BKN100 06/M00 Q1000", "BGJN 221550Z 18009KT 9999 FEW010 SCT027 BKN041 03/01 Q1001", "BGKK 221550Z AUTO 08026KT 2700NDV -SN OVC012/// M00/M01 Q1011", "BGSF 221550Z AUTO 05010KT 9999NDV BKN055/// BKN090/// 05/M01 Q1001", "BGTL 221608Z AUTO 10007KT 9999 -SN SCT016 M08/M13 A2930 RMK AO2 SNB08 SLP910 TSNO $", "BIAR 221600Z 00000KT CAVOK 01/M03 Q1016", "BIEG 221600Z VRB02KT 9999 FEW060 SCT200 01/M04 Q1016", "BIIS 221549Z 22003KT CAVOK 04/01 Q1014", "BIKF 221600Z 07005KT 9999 OVC022 04/01 Q1014", "BIRK 221600Z 16004KT 9999 SCT021 BKN190 05/M00 Q1015", "BIVM 221600Z 17004KT 120V220 9999 BKN016 BKN032 06/04 Q1015", "BKPR 221600Z 33003KT CAVOK 17/09 Q1022 NOSIG", "CAHR 221600Z AUTO 22012G17KT 15/08 RMK AO1 PK WND 20018/1548 SLP248 T01520078 58005", "CBAR 221600Z AUTO 12003KT ////SM BKN010 BKN013 OVC033 M07/M07 A3011", "CBBC 221600Z AUTO 17002KT 6SM BR SCT032 BKN047 BKN060 OVC170 05/05 A2980 RMK PCPN 1.0MM PAST HR SLP094", "CERM 221600Z AUTO 13006KT 15/03 RMK AO1 SLP203 T01460027 58009", "CMFM 221600Z AUTO 22009G17KT 10/01 RMK AO1 PK WND 21017/1558 SLP196 T00990008 52002", "CMGB 221600Z AUTO 20005KT 18/02 RMK AO1 SLP202 T01830015 51005", "CPBT 221600Z AUTO 05007KT 01/01 RMK AO1 8PAST HR M P0007 T00070007 50072", "CPEH 221600Z AUTO 00000KT 02/02 RMK AO1 5PAST HR M P0002 T00210016 50013", "CPFI 221600Z AUTO 05010KT 03/03 RMK AO1 6PAST HR M P0002 T00300026 50006", "CPIN 221600Z AUTO 33012KT ////SM BKN015 ///// A////", "CPIR 221600Z AUTO 04011KT 02/02 RMK AO1 5PAST HR M P0002 T00230021 50012", "CPRO 221600Z AUTO 03009KT 01/M00 RMK AO1 T00121001", "CPRY 221600Z AUTO 06011KT 03/02 RMK AO1 T00270015 50010", "CPST 221600Z AUTO 02007KT M00/M00 RMK AO1 8PAST HR M P0003 T10031003 50014", "CPSV 221600Z AUTO 03010KT 04/02 RMK AO1 T00360015", "CTCK 221600Z AUTO 23008G16KT 18/03 RMK AO1 PK WND 22018/1509 SLP182 T01830026 51008", "CTNK 221600Z AUTO 23005KT 16/05 RMK AO1 SLP161 T01640051 51013", "CTRA 221500Z AUTO 15001KT 07/05 RMK AO1 1PAST HR 3013 SLP052 P0000 T00680053 50003", "CWAE 221600Z 00000KT 15SM SCT024 OVC075 03/02 A2969 RMK SC3AC5 WIND ESTD SLP066", "CWAF 221600Z AUTO 20020KT 11/04 RMK AO1 PK WND 20024/1552 T01070039", "CWAJ 221600Z AUTO 18009KT RMK AO1 PK WND 19018/1527 51015", "CWAQ 221600Z AUTO 06008KT 06/03 RMK AO1 SLP027 T00600028 51008", "CWAR 221600Z AUTO 19013KT 14/11 RMK AO1 SLP265 T01400107 58005", "CWAV 221600Z AUTO 00000KT M01/M02 RMK AO1 SLP063 T10061015 53013", "CWBA 221600Z AUTO 18007KT 18/07 RMK AO1 T01750070", "CWBK 221600Z AUTO 21008G15KT 18/03 RMK AO1 SLP260 T01750031 58006", "CWBO 221600Z AUTO 02007KT 01/M01 RMK AO1 SLP042 T00121006 52015", "CWBS 221600Z AUTO 21014G20KT 15/04 RMK AO1 PK WND 21020/1558 T01530041", "CWBT 221600Z AUTO 22004KT 11/05 RMK AO1 SLP172 T01070046 58004", "CWBU 221600Z AUTO 08008KT 04/M04 RMK AO1 SLP070 T00401038 53016", "CWBV 221600Z AUTO 15004KT 14/14 RMK AO1 SLP262 T01420138 58002", "CWBY 221600Z AUTO 18007KT 13/02 RMK AO1 SLP173 T01320015 58008", "CWBZ 221600Z AUTO 23012G20KT 21/02 RMK AO1 PK WND 24020/1548 SLP184 T02090015 51007", "CWCF 221600Z AUTO 02001KT 07/M01 RMK AO1 SLP069 T00731006 51022", "CWCI 221500Z AUTO 09011KT 09/08 RMK AO1 SLP088 T00910078 51008", "CWCJ 221600Z AUTO 04002KT 07/05 RMK AO1 SLP100 T00740050 53021", "CWCO 221600Z AUTO 18006KT 21/07 RMK AO1 SLP151 T02110070 51013", "CWCT 221600Z AUTO 35004KT 01/M02 RMK AO1 SLP066 T00051016 53014", "CWDA 221600Z AUTO 24019G27KT 14/ RMK AO1 PK WND 25027/1555 T0142", "CWDC 221600Z AUTO 04007KT M02/M07 RMK AO1 SOG 01 3026 SLP096 T10201067", "CWDJ 221600Z AUTO 02003KT 04/M00 RMK AO1 SLP040 T00371004 51013", "CWDK 221600Z AUTO 36009KT M00/M01 RMK AO1 5PAST HR SOG 10 3014 SLP041 P0006 T10021006 50041", "CWDM 221600Z AUTO 21013KT 11/08 RMK AO1 PK WND 21019/1530 SLP184 T01060081 58004", "CWDO 221600Z AUTO 22013G19KT 13/08 RMK AO1 PK WND 23020/1542 SLP210 T01270077 58014", "CWDQ 221600Z AUTO 17007KT 15/02 RMK AO1 SLP167 T01490024 51002", "CWDT 221500Z AUTO 19006KT RMK AO1 50010", "CWDV 221600Z AUTO 12002KT 08/06 RMK AO1 1018 SLP072 T00760060 50005", "CWDZ 221600Z AUTO 33004KT 01/M01 RMK AO1 SLP055 T00101011 53018", "CWEB 221500Z AUTO 00035KT 06/04 RMK AO1 SLP079 T00630040 53007", "CWEE 221500Z AUTO 13/04 RMK AO1 SLP116 T01260043 51012", "CWEF 221600Z AUTO 22010KT 14/07 RMK AO1 SLP244 T01380066 58003", "CWEH 221600Z AUTO 08014G19KT 02/01 RMK AO1 3003 PK WND 08019/1557 SLP008 T00220012 50001", "CWEK 221600Z AUTO 34017KT 07/ RMK AO1 3016 PK WND 34020/1554 SLP080 T0065 50004", "CWEL 221600Z AUTO 27014KT 10/04 RMK AO1 PK WND 30024/1500 SLP067 T01010042 53016", "CWEP 221600Z AUTO 19011KT 15/09 RMK AO1 PK WND 20018/1510 SLP256 T01490092 58004", "CWEQ 221600Z AUTO 06006KT 03/M00 RMK AO1 SLP066 T00251003 52020", "CWER 221600Z AUTO 27012KT RMK AO1 PK WND 26017/1534", "CWEU 221600Z 36011KT 15SM FEW100 M21/M25 A2975 RMK AC1 AC TR SLP091", "CWEW 221600Z AUTO 18007KT 17/04 RMK AO1 SLP195 T01660044 50002", "CWEZ 221500Z AUTO 31002KT 09/08 RMK AO1 SLP058 T00940075 53013", "CWFD 221600Z AUTO ///// ////SM OVC002 M03/M04 A2911", "CWFF 221600Z AUTO 07006KT 02/M02 RMK AO1 SLP066 T00171020 53018", "CWFJ 221600Z AUTO 34005KT 00/M00 RMK AO1 T00001002 50002", "CWFQ 221600Z AUTO 18008G16KT 17/01 RMK AO1 SLP204 T01680013 51005", "CWGB 221600Z AUTO 25016KT 10/ RMK AO1 PK WND 24020/1559 SLP063 T0099 51013", "CWGD 221600Z AUTO 18014G23KT 17/06 RMK AO1 PK WND 18023/1516 SLP150 T01720064 51005", "CWGH 221600Z AUTO 20005KT 18/04 RMK AO1 SLP193 T01750041 51007", "CWGL 221600Z AUTO 17007KT 13/08 RMK AO1 SLP155 T01290081 51016", "CWGM 221600Z AUTO 06003KT M00/M01 RMK AO1 3PAST HR 3010 SLP014 P0005 T10031010 50017", "CWGR 221600Z AUTO 22014G22KT 14/08 RMK AO1 PK WND 23022/1554 SLP237 T01420083 58003", "CWGT 221600Z AUTO 28012KT 12/05 RMK AO1 PK WND 31023/1500 SLP071 T01180050 53016", "CWGW 221600Z AUTO 34004KT 01/M00 RMK AO1 3016 SLP021 T00051002 50012", "CWGY 221600Z AUTO 31002KT M01/M03 RMK AO1 SLP055 T10071034 53017", "CWHI 221600Z AUTO 35009KT 02/00 RMK AO1 T00180000", "CWHL 221600Z AUTO 06002KT 07/05 RMK AO1 2PAST HR 1015 SLP099 P0005 T00670053 50012", "CWHO 221600Z AUTO 00023KT 10/02 RMK AO1 SLP045 T01020024 50000", "CWHP 221500Z AUTO 22014KT 10/07 RMK AO1 PK WND 21021/1406 SLP202 T01010072 51003", "CWHQ 221600Z AUTO 17002KT 16/03 RMK AO1 T01570033", "CWHT 221600Z AUTO 00000KT M02/M04 RMK AO1 SLP143 T10151038 53009", "CWHV 221600Z AUTO 18004KT 18/02 RMK AO1 SLP203 T01800021 58002", "CWID 221600Z AUTO 04002KT M04/M08 RMK AO1 SLP152 T10411082 53020", "CWIG 221600Z AUTO 23010KT RMK AO1 PK WND 24017/1500", "CWIJ 221600Z AUTO M09/M13 RMK AO1 T10911126", "CWIK 221600Z AUTO 12001KT 03/02 RMK AO1 SLP048 T00260015 53014", "CWIL 221600Z AUTO ///// ////SM SCT016 OVC065 ///// A////", "CWIP 221600Z AUTO 10003KT 10/03 RMK AO1 T00970030", "CWIS 221600Z AUTO 25007KT 10/01 RMK AO1 PK WND 25017/1507 SLP183 T00990005 58001", "CWIT 221600Z AUTO 14006KT 18/05 RMK AO1 SLP190 T01780050 50004", "CWIW 221600Z AUTO 34002KT M01/M03 RMK AO1 SLP056 T10121030 53018", "CWIX 221500Z AUTO 21007KT 14/02 RMK AO1 SLP143 T01350024 53010", "CWIZ 221600Z AUTO 18014G20KT 15/04 RMK AO1 PK WND 17023/1534 T01530043", "CWJB 221600Z AUTO 35009KT 15/04 RMK AO1 T01490035", "CWJC 221600Z AUTO 31016KT M05/M07 RMK AO1 SOG 10 3016 PK WND 32021/1517 SLP055 T10491069", "CWJD 221600Z AUTO 25001KT 04/01 RMK AO1 SLP073 T00370008 52022", "CWJH 221600Z AUTO 25003KT 02/01 RMK AO1 SLP071 T00170005 51019", "CWJI 221600Z AUTO 09005KT 05/02 RMK AO1 SLP033 T00460015 51009", "CWJO 221500Z AUTO 20007KT 16/02 RMK AO1 SLP151 T01580015 51005", "CWJR 221600Z AUTO 12002KT 04/04 RMK AO1 0PAST HR 3010 SLP009 P0004 T00420038 50016", "CWJT 221600Z AUTO 19004KT 16/ RMK AO1 SLP178 T0162 51003", "CWJU 221600Z AUTO 32014KT 09/05 RMK AO1 PK WND 32018/1516 SLP128 T00930051 53011", "CWJV 221600Z AUTO 00000KT 01/M00 RMK AO1 SLP054 T00061001 53012", "CWJW 221600Z AUTO 10001KT M05/M06 RMK AO1 SLP075 T10451055 53015", "CWJX 221600Z AUTO 35004KT M01/M03 RMK AO1 SLP048 T10121026 53017", "CWKD 221500Z AUTO 08/02 RMK AO1 SLP125 T00760023 51012", "CWKG 221600Z AUTO 22006KT 16/09 RMK AO1 SLP270 T01620093 58001", "CWKH 221600Z AUTO 06/05 RMK AO1 SLP062 T00640046 53013", "CWKK 221600Z AUTO 19003KT 09/ RMK AO1 SLP086 T0089 51027", "CWKM 221600Z AUTO 11017G28KT ////SM SCT002 M09/M10 A3002", "CWKO 221600Z AUTO 07003KT 04/02 RMK AO1 SLP030 T00390021 51008", "CWKP 221600Z AUTO 03003KT 360V060 ////SM FEW003 SCT009 OVC020 M10/M11 A3000", "CWKX 221600Z AUTO 20002KT M01/M02 RMK AO1 SLP127 T10121016 51018", "CWLB 221600Z AUTO 05001KT 03/03 RMK AO1 SLP063 T00290027 51018", "CWLC 221600Z AUTO 31014KT 07/05 RMK AO1 PK WND 31017/1529 T00740050", "CWLE 221600Z AUTO 07006KT 02/M01 RMK AO1 SLP047 T00151012 50012", "CWLI 221600Z AUTO 06007KT ////SM NCD M10/M10 A3010", "CWLM 221600Z AUTO 27003KT 09/06 RMK AO1 SLP071 T00860059 52014", "CWLS 221600Z AUTO 19010G16KT 16/06 RMK AO1 PK WND 21017/1511 SLP165 T01620055 51011", "CWLX 221600Z AUTO ///// ////SM ////// M04/M06 A2920", "CWLY 221600Z AUTO 00000KT 9SM SCT005 OVC040 04/03 A2973 RMK SLP076", "CWME 221500Z AUTO 19005KT 07/05 RMK AO1 2PAST HR 3002 SLP087 P0001 T00660047 50002", "CWMJ 221600Z AUTO 20008KT 17/04 RMK AO1 PK WND 19017/1538 SLP166 T01680044 51012", "CWMM 221600Z AUTO 09001KT 08/07 RMK AO1 SLP072 T00780066 51014", "CWMQ 221600Z AUTO 06007KT 04/03 RMK AO1 SLP023 T00440029 51006", "CWMT 221600Z AUTO 32002KT M08/M09 RMK AO1 SLP156 T10751090 53015", "CWMZ 221500Z AUTO 16010KT 14/09 RMK AO1 PK WND 18018/1409 SLP152 T01360090 51024", "CWNC 221600Z AUTO 30002KT 15/05 RMK AO1 SLP191 T01460050 51015", "CWND 221500Z AUTO 12011KT M06/M08 RMK AO1 SLP159 T10641079 50005", "CWNE 221600Z AUTO 22015KT 15/08 RMK AO1 PK WND 21020/1513 SLP224 T01470079 58007", "CWNH 221600Z AUTO 21010G20KT 16/00 RMK AO1 PK WND 21023/1518 SLP172 T01570000 56005", "CWNK 221600Z AUTO 05002KT 06/04 RMK AO1 SLP046 T00590037 51016", "CWNM 221600Z AUTO 29007KT 06/05 RMK AO1 3012 SLP014 T00580047 50002", "CWNP 221600Z AUTO 10001KT 05/03 RMK AO1 SLP028 T00460030 53011", "CWNQ 221600Z AUTO 21009G16KT 17/05 RMK AO1 SLP185 T01740050 58001", "CWNZ 221600Z AUTO 19005KT 09/04 RMK AO1 SOG 02 1021 SLP096 T00930035", "CWOB 221600Z AUTO 23026G33KT ////SM BKN002 M01/M01 A2906", "CWOC 221600Z AUTO 23003KT 12/02 RMK AO1 SLP201 T01190015 58009", "CWOD 221600Z AUTO 22011KT 15/05 RMK AO1 SLP138 T01480051 50004", "CWOE 221600Z AUTO 07015KT 03/03 RMK AO1 2PAST HR SOG 01 3008 PK WND 07020/1517 SLP005 P0001 T00340027 50007", "CWOY 221600Z AUTO 14006KT 03/M01 RMK AO1 SLP056 T00311007 52019", "CWPC 221600Z AUTO 22006KT 14/08 RMK AO1 SLP204 T01390084 51014", "CWPD 221600Z AUTO 19009G19KT 10/01 RMK AO1 PK WND 19019/1525 SLP164 T00970013 58003", "CWPE 221600Z AUTO 21009KT 16/12 RMK AO1 SLP253 T01600120 53003", "CWPF 221600Z AUTO 02003KT 08/06 RMK AO1 SLP071 T00800062 53015", "CWPK 221600Z AUTO 22007KT 14/04 RMK AO1 SLP147 T01350039 51012", "CWPO 221600Z AUTO 05006KT 05/05 RMK AO1 SLP050 T00450049 53012", "CWPR 221600Z AUTO 00000KT 01/M00 RMK AO1 SLP065 T00141001 53010", "CWPX 221600Z AUTO 34027G32KT ////SM //// NCD M21/M23 A2976", "CWPZ 221600Z AUTO 32003KT M04/M05 RMK AO1 SLP094 T10401046 52013", "CWQH 221600Z AUTO 23006KT 17/04 RMK AO1 SLP209 T01730043 58005", "CWQK 221600Z AUTO 27007KT 09/ RMK AO1 SLP071 T0094 53012", "CWQO 221600Z AUTO 23025KT 12/03 RMK AO1 PK WND 22029/1549 T01170031", "CWQP 221600Z AUTO 12005KT 16/10 RMK AO1 SLP199 T01570099 51014", "CWQR 221600Z AUTO 23005KT 11/07 RMK AO1 T01140068", "CWQS 221500Z AUTO 35018G24KT 10/04 RMK AO1 PK WND 35026/1423 SLP117 T01010041 52012", "CWQV 221600Z AUTO 22001KT 10/05 RMK AO1 T00950050", "CWRA 221600Z AUTO 00021KT 14/10 RMK AO1 SLP266 T01410100 58007", "CWRH 221600Z AUTO 22027G33KT ////SM ////// ///// A2916", "CWRJ 221600Z AUTO 30001KT M02/M05 RMK AO1 SLP050 T10171051 51015", "CWRK 221600Z AUTO 20005KT 17/06 RMK AO1 SLP171 T01720055 51010", "CWRM 221600Z AUTO 33003KT M00/01 RMK AO1 SLP044 T10010005 53015", "CWRN 221600Z AUTO 18011KT 13/11 RMK AO1 SLP270 T01300113 58001", "CWRO 221600Z AUTO 33015KT 08/ RMK AO1 PK WND 33021/1517 SLP114 T0081 53018", "CWRT 221600Z AUTO 00000KT 00/M01 RMK AO1 SLP024 T00001011 53014", "CWRU 221500Z AUTO 36010KT 09/ RMK AO1 1005 SLP085 T0091 50004", "CWRX 221600Z AUTO ///// ////SM OVC055 M01/M02 A2918", "CWRY 221600Z AUTO 09011KT 03/02 RMK AO1 SLP003 T00270022 53005", "CWRZ 221600Z AUTO 21011KT 11/07 RMK AO1 SLP198 T01060070 58006", "CWSA 221600Z AUTO 12005KT 9SM CLR 16/12 A3035 RMK SLP278", "CWSD 221600Z AUTO 21014KT 17/09 RMK AO1 PK WND 19020/1536 SLP242 T01660093 58006", "CWSF 221600Z AUTO 20009G17KT 16/02 RMK AO1 PK WND 18022/1530 SLP158 T01640016 58010", "CWSG 221600Z AUTO 11/04 RMK AO1 SLP161 T01120044 56006", "CWSK 221600Z AUTO 33002KT 06/04 RMK AO1 SLP067 T00640044 53012", "CWSL 221600Z AUTO 21002KT M01/M02 RMK AO1 SLP062 T10071019 51012", "CWSP 221600Z AUTO 29004KT 09/06 RMK AO1 SLP075 T00860061 52013", "CWSR 221600Z AUTO 11008KT 02/M00 RMK AO1 SLP056 T00241001 53020", "CWSS 221600Z AUTO 19008KT 18/08 RMK AO1 SLP242 T01770079 57001", "CWST 221600Z AUTO 22016G23KT 17/04 RMK AO1 PK WND 22027/1532 SLP171 T01700044 58007", "CWSW 221600Z 32004KT 280V010 7SM -DZ FEW007 OVC045 01/01 A2951 RMK ST2NS6 SLP021", "CWTA 221600Z AUTO 15005KT 16/04 RMK AO1 SLP191 T01640039 50004", "CWTG 221600Z AUTO 24013KT 09/04 RMK AO1 SLP158 T00900043 58007", "CWTN 221600Z AUTO 25008G16KT 16/03 RMK AO1 SLP188 T01610030 58003", "CWTT 221600Z AUTO 21009KT 14/03 RMK AO1 T01430029", "CWTY 221600Z AUTO 21016KT 14/06 RMK AO1 PK WND 21021/1539 SLP186 T01410062 58005", "CWUS 221600Z AUTO 29005KT 04/M01 RMK AO1 SLP051 T00421012 53010", "CWUW 221600Z AUTO 09025G30KT ////SM NCD M06/M06 A2909", "CWUX 221600Z AUTO 05004KT 14/04 RMK AO1 SLP153 T01370041 58004", "CWVF 221600Z AUTO 28002KT 10/07 RMK AO1 T00990073", "CWVH 221600Z AUTO 09009KT ////SM OVC002 ///// A////", "CWVI 221600Z AUTO 01003KT 02/01 RMK AO1 SLP058 T00240010 53017", "CWVN 221600Z AUTO 08011KT 04/02 RMK AO1 3005 SLP016 T00440015 50002", "CWVP 221600Z AUTO 09009KT 01/M00 RMK AO1 3006 SLP009 T00081001 50004", "CWVQ 221600Z AUTO 20006KT 19/05 RMK AO1 SLP189 T01870047 50003", "CWVT 221600Z AUTO 21001KT M00/M01 RMK AO1 SLP092 T10021009 51019", "CWVU 221600Z AUTO 15011G16KT 15/12 RMK AO1 PK WND 15019/1536 SLP259 T01520119 50001", "CWWA 221600Z AUTO 00000KT 08/05 RMK AO1 SLP067 T00780053 51014", "CWWB 221600Z AUTO 20008KT 17/05 RMK AO1 SLP181 T01740052 51011", "CWWE 221600Z AUTO 17004KT 15/12 RMK AO1 SLP273 T01450116 51001", "CWWF 221600Z AUTO 10001KT 03/02 RMK AO1 SLP036 T00250024 53007", "CWWK 221600Z AUTO 04002KT 07/06 RMK AO1 SLP072 T00710064 51014", "CWWL 221500Z AUTO 34017KT 09/06 RMK AO1 PK WND 35023/1401 SLP094 T00870056 53015", "CWWS 221500Z AUTO 02008G15KT 05/M00 RMK AO1 SLP059 T00511004 52024", "CWWZ 221600Z AUTO 19011G16KT 19/06 RMK AO1 PK WND 19019/1519 SLP184 T01910055 51015", "CWXA 221600Z AUTO 00011KT M01/M02 RMK AO1 SLP076 T10091017 53013", "CWXC 221500Z AUTO 20005KT 13/02 RMK AO1 SLP149 T01290016 51010", "CWXI 221600Z AUTO 22028G34KT 11/09 RMK AO1 PK WND 22035/1544 SLP168 T01120086 58011", "CWXL 221600Z AUTO 05009KT 04/03 RMK AO1 2PAST HR 3010 SLP021 P0001 T00390029 50002", "CWYJ 221600Z AUTO 24001KT 08/07 RMK AO1 2PAST HR 2014 SLP072 P0001 T00770074 50002", "CWYL 221600Z AUTO 08003KT M02/M04 RMK AO1 SOG 01 3013 SLP036 T10201039", "CWYY 221600Z AUTO 05002KT 06/01 RMK AO1 SLP037 T00620007 52013", "CWZA 221600Z AUTO 11003KT 06/06 RMK AO1 SLP072 T00620056 53014", "CWZG 221600Z AUTO 01004KT M01/M02 RMK AO1 1PAST HR SOG 05 3012 SLP042 P0000 T10131024 50007", "CWZL 221500Z AUTO 29011KT 09/03 RMK AO1 SLP121 T00850027 51015", "CWZN 221600Z AUTO 23016KT 13/11 RMK AO1 PK WND 23017/1552 SLP257 T01330109 58007", "CWZO 221600Z AUTO 25003KT RMK AO1", "CWZQ 221600Z AUTO 21010KT 15/05 RMK AO1 PK WND 22017/1512 SLP259 T01540054 58003", "CWZW 221600Z AUTO 03002KT M01/M01 RMK AO1 SLP127 T10101013 51018", "CXAF 221600Z AUTO 01006KT 02/02 RMK AO1 T00190015 50007", "CXAG 221600Z AUTO 03003KT 02/02 RMK AO1 T00220015", "CXAJ 221600Z AUTO 36004KT 03/03 RMK AO1 T00270026 50008", "CXAK 221600Z AUTO 30002KT M01/M01 RMK AO1 T10061007", "CXAT 221600Z AUTO 07006KT M05/M12 RMK AO1 SOG 04 8001 SLP952 T10451119", "CXBA 221600Z AUTO 26003KT M02/M04 RMK AO1 T10201036", "CXBI 221600Z AUTO 19008KT 18/06 RMK AO1 SLP173 T01770060 51014", "CXBK 221600Z AUTO 01003KT 04/01 RMK AO1 SOG 01 1010 SLP040 T00380014", "CXBO 221600Z AUTO 26003KT 16/02 RMK AO1 T01570018 50004", "CXBR 221600Z AUTO 01015KT RMK AO1 2PAST HR M PK WND 02022/1541 P0005 50020", "CXBW 221600Z AUTO 03012KT 03/03 RMK AO1 0PAST HR M P0004 T00270026 50015", "CXCA 221600Z AUTO 00000KT 07/06 RMK AO1 1PAST HR 1025 SLP083 P0000 T00740064 50001", "CXCD 221600Z AUTO 31007KT 02/M00 RMK AO1 4PAST HR M P0002 T00171004 50004", "CXCK 221600Z AUTO 36002KT M00/M01 RMK AO1 SLP128 T10011010 51007", "CXCP 221500Z AUTO 03013KT M00/M00 RMK AO1 PK WND 03017/1459 T10011004 50005", "CXCS 221600Z AUTO 33002KT M01/M03 RMK AO1 T10101030", "CXDB 221600Z AUTO 33007KT 00/M00 RMK AO1 T00001001", "CXDE 221600Z AUTO 32003KT M07/M09 RMK AO1 SOG 03 3008 SLP175 T10731089", "CXDI 221600Z AUTO 23009KT 17/06 RMK AO1 SLP185 T01660055 51015", "CXDK 221500Z AUTO M03/M06 RMK AO1 SLP152 T10261058 53022", "CXDW 221600Z AUTO 08002KT 06/04 RMK AO1 SLP046 T00560038 52018", "CXEA 221600Z AUTO 10003KT 07/04 RMK AO1 SLP052 T00680039 53019", "CXEC 221600Z AUTO 36005KT 02/01 RMK AO1 SLP057 T00150008 52014", "CXEG 221600Z AUTO 32004KT 03/01 RMK AO1 SLP061 T00270009 53015", "CXET 221600Z AUTO 19010KT 18/06 RMK AO1 SLP169 T01820061 51013", "CXFM 221600Z AUTO 04009KT 03/03 RMK AO1 T00330028 50010", "CXFR 221600Z AUTO 03006KT 01/M00 RMK AO1 T00051001", "CXGH 221600Z AUTO 05003KT 06/05 RMK AO1 SLP050 T00630053 51018", "CXHA 221600Z AUTO 19011KT 16/06 RMK AO1 SLP168 T01590062 51009", "CXHD 221600Z AUTO 28001KT 02/02 RMK AO1 T00180017", "CXHM 221600Z AUTO 21003KT 20/06 RMK AO1 SLP182 T01960056 51013", "CXHP 221600Z AUTO 12002KT M00/M00 RMK AO1 T10011002", "CXHR 221600Z AUTO 36003KT M00/M01 RMK AO1 T10041009", "CXIB 221600Z AUTO 23006KT 18/00 RMK AO1 SLP246 T01770000 58005", "CXKA 221600Z AUTO 20005KT 07/06 RMK AO1 SLP109 T00700056 53020", "CXKE 221600Z AUTO 22010G18KT 18/04 RMK AO1 PK WND 23019/1546 SLP189 T01820043 51012", "CXKI 221600Z AUTO 00018KT 14/06 RMK AO1 SLP120 T01360060 53013", "CXKM 221600Z AUTO 01001KT M01/M01 RMK AO1 T10111014", "CXKT 221600Z AUTO 20007G15KT 16/06 RMK AO1 SLP259 T01640061 58005", "CXLB 221600Z AUTO 20008KT 16/09 RMK AO1 SLP267 T01570088 58004", "CXLL 221500Z AUTO 03001KT M03/M05 RMK AO1 SOG 03 2020 SLP165 T10331048", "CXMD 221600Z AUTO 04004KT 07/05 RMK AO1 1013 SLP041 T00690054 50006", "CXMG 221600Z AUTO 29002KT 01/01 RMK AO1 T00120010", "CXMI 221600Z AUTO 14012KT 15/12 RMK AO1 SLP266 T01530123 58005", "CXMM 221600Z AUTO 07002KT M01/M02 RMK AO1 SLP087 T10051018 53018", "CXMO 221600Z AUTO 02004KT M00/M00 RMK AO1 T10031003", "CXMY 221600Z AUTO 17/07 RMK AO1 T01660069", "CXNM 221600Z AUTO 25015G22KT 13/M00 RMK AO1 PK WND 24022/1553 T01301004", "CXNP 221600Z AUTO 21015KT 17/05 RMK AO1 PK WND 21022/1548 SLP246 T01690052 58006", "CXOL 221600Z AUTO 31009KT M01/01 RMK AO1 T10050005 50005", "CXOX 221600Z AUTO 32002KT 02/M03 RMK AO1 SLP078 T00151030 53019", "CXOY 221600Z AUTO 06004KT 01/M01 RMK AO1 T00051010", "CXPA 221600Z AUTO 06001KT M01/M01 RMK AO1 8PAST HR M P0003 T10101012 50008", "CXPC 221600Z AUTO 17/06 RMK AO1 SLP154 T01690056 53016", "CXPL 221600Z AUTO 02009KT 00/00 RMK AO1 T00000000", "CXRB 221600Z AUTO 04022KT M18/M21 RMK AO1 SOG 05 8014 PK WND 04026/1559 SLP004 T11811210", "CXRH 221600Z AUTO 23014G20KT 13/05 RMK AO1 PK WND 22026/1532 SLP215 T01330050 58007", "CXRL 221600Z AUTO 07005KT 02/01 RMK AO1 T00150013", "CXSC 221600Z AUTO 02009KT 03/01 RMK AO1 T00320007", "CXSH 221600Z AUTO 21010G18KT 14/03 RMK AO1 PK WND 22018/1558 SLP184 T01390032 58003", "CXSL 221600Z AUTO 06006KT 03/02 RMK AO1 T00260017 50004", "CXSP 221600Z AUTO 02005KT 02/02 RMK AO1 T00240018", "CXTD 221600Z AUTO 23011G16KT 15/05 RMK AO1 SLP275 T01510049 58007", "CXTH 221600Z AUTO 28003KT 02/02 RMK AO1 T00190018", "CXTN 221500Z AUTO 07001KT M12/M13 RMK AO1 SOG 22 2005 SLP196 T11161131", "CXTO 221600Z AUTO 16/05 RMK AO1 SLP182 T01600046 51014", "CXTP 221600Z AUTO 23007KT 14/08 RMK AO1 SLP242 T01440079 58011", "CXTV 221500Z AUTO 28001KT M14/M16 RMK AO1 SOG 07 1006 SLP187 T11391157", "CXVM 221600Z AUTO 25002KT 01/01 RMK AO1 T00100009", "CXVN 221600Z AUTO 22014G20KT 19/05 RMK AO1 PK WND 22020/1550 SLP183 T01890050 51013", "CXVW 221600Z AUTO 17003KT M00/M00 RMK AO1 5PAST HR 3016 SLP068 P0002 T10021004 50005", "CXWB 221500Z AUTO 35009G17KT M04/M06 RMK AO1 PK WND 31018/1407 SLP917 T10361061 51016", "CXWM 221600Z AUTO 06012KT 03/03 RMK AO1 T00320029 50004", "CXWN 221600Z AUTO 08002KT 07/04 RMK AO1 SLP048 T00690042 51016", "CXYH 221500Z AUTO 06002KT M03/M05 RMK AO1 SLP147 T10251046 52020", "CXZC 221600Z AUTO 19005KT 10/05 RMK AO1 SLP074 T00980053 53024", "CXZV 221600Z AUTO 16003KT 09/03 RMK AO1 SLP159 T00930033 58001", "CYAH 221600Z AUTO 23016G24KT 9SM FEW022 OVC040 08/04 A2964 RMK SLP050", "CYAM 221600Z 08009KT 8SM FEW160 SCT220 SCT280 13/09 A2982 RMK AC2CI1CI1 SLP106 DENSITY ALT 700FT", "CYAT 221600Z AUTO 25013KT 9SM CLR 08/03 A2966 RMK SLP046", "CYAY 221600Z AUTO 23025G32KT 9SM SCT200 13/05 A3003 RMK SLP172", "CYAZ 221600Z VRB02KT 15SM SKC 05/04 A2974 RMK TCU TOPS OFSHR SW SLP072", "CYBB 221600Z 35014KT 15SM BKN015 M03/M06 A2934 RMK SC6 SLP938", "CYBC 221600Z AUTO 24017G24KT 9SM CLR 12/03 A2999 RMK SLP157", "CYBD 221600Z 06004KT 040V100 15SM BCFG SCT030 02/02 A2980 RMK SC3 SLP094", "CYBG 221600Z 13004KT 25SM FEW160 16/03 A2997 RMK AC1 SLP152", "CYBK 221600Z 33015KT 20SM FEW009 SCT057 BKN090 M05/M07 A2952 RMK ST1SC4AC3 ST TR SLP001", "CYBL 221600Z 00000KT 30SM FEW050 05/00 A2973 RMK SC1 SLP072", "CYBQ 221612Z AUTO /////KT 6SM -SN FEW009 BKN015 BKN048 OVC100 M02/M03 A2962 RMK WIND MISG SLP052", "CYBR 221600Z 09006KT 15SM BKN110 05/02 A2962 RMK AC7 SLP050", "CYBU 221600Z AUTO 04008KT 9SM CLR 04/M02 A2970 RMK ICE PAST HR SLP076", "CYBW 221600Z AUTO 35005KT 3/4SM R35/5000FT/D -SN OVC009 M01/M01 A2959 RMK SLP065", "CYBX 221600Z 24023KT 15SM BKN012 11/08 A3004 RMK SC7 SLP177", "CYCA 221600Z AUTO 24015G26KT 9SM CLR 11/03 A2983 RMK SLP105", "CYCB 221600Z 35013KT 15SM DRSN FEW008 BKN050 M16/M19 A2979 RMK SF1SC5 SLP093", "CYCD 221600Z 27003KT 20SM FEW034 SCT063 09/03 A2974 RMK SC2SC1 SLP073", "CYCG 221600Z 15003KT 100V170 15SM FEW001 FEW007 FEW040 BKN067 BKN140 04/04 A2955 RMK SF1CF1SC1AC3AC1 CF TR LOW CLD OVR RIVER SLP020", "CYCK 221600Z AUTO 21019KT 9SM CLR 16/07 A3004 RMK SLP175 DENSITY ALT 800FT", "CYCO 221600Z 33017KT 10SM -SN BKN016 BKN033 M07/M11 A3001 RMK SC7SC1 SC TR SLP167", "CYCQ 221600Z 00000KT 3SM -SN OVC020 M01/M03 A2971 RMK SN3SC5 PCPN HVIER W SLP091", "CYCS 221600Z 32019G26KT 15SM SCT062 OVC250 M03/M06 A2935 RMK SC4CS4 SLP942", "CYCY 221600Z AUTO 34011KT 9SM SCT016 BKN021 BKN026 OVC038 M04/M05 A2935 RMK SLP942", "CYDA 221600Z 00000KT 20SM OVC028 M03/M03 A2988 RMK SC8 SLP144", "CYDB 221600Z 00000KT 13SM SCT023 OVC033 M03/M04 A2981 RMK ST3SC5 ST3 SF ASOCTD SLP142", "CYDC 221600Z CCA 00000KT 14SM FEW012 BKN045 02/00 A2968 RMK ST2SC5 VIS 7SM SW-NW SLP068", "CYDF 221600Z 22018G23KT 15SM FEW030 FEW240 15/06 A3018 RMK CF1CI1 CF TR CI TR SLP222", "CYDL 221600Z AUTO VRB02KT 9SM OVC004 M01/M02 A2978 RMK SLP111", "CYDN 221600Z AUTO 07004KT 9SM CLR 06/01 A2967 RMK SLP061", "CYDP 221600Z 27014KT 15SM BKN035 BKN075 11/04 A2956 RMK SC7AC1 AC TR SLP011", "CYDQ 221600Z AUTO 29004KT 9SM BKN021 M00/M03 A2970 RMK SLP087", "CYEG 221605Z 32005KT 20SM SCT013 OVC017 02/01 A2963 RMK SC3SC5 SLP065", "CYEK 221600Z 32005KT 15SM FEW013 OVC120 M01/M03 RMK SC2AC6 ALTM 2952 WND ESTD VIA CYQB DENSITY ALT MISG", "CYEN 221600Z AUTO 08005KT 9SM OVC096 04/04 A2958 RMK SLP039", "CYER 221600Z AUTO 29013G18KT 9SM FEW017 BKN240 03/M01 A2960 RMK SLP027", "CYET 221600Z AUTO 29002KT 9SM FEW024 M01/ A2963 RMK DP MISG SLP073", "CYEV 221600Z 07008KT 15SM FEW015 SCT040 M12/M13 A3004 RMK SC2SC1 SLP183", "CYFB 221600Z CCA 14011KT 30SM BKN030 BKN072 02/M00 A2903 RMK SC6AC1 SLP833", "CYFC 221600Z AUTO 21011G16KT 9SM CLR 17/05 A3022 RMK SLP236", "CYFO 221600Z 00000KT 15SM BKN044 04/M04 A2971 RMK SC5 SLP075", "CYFS 221600Z 33007KT 15SM SCT015 BKN025 OVC110 M05/M06 A2999 RMK SC3SC3AC2 SLP170", "CYFT 221600Z 24015G25KT 15SM FEW035 BKN240 10/02 A2969 RMK SC2CI5 SLP060", "CYGE 221600Z 20003KT 20SM FEW020 BKN065 03/02 A2958 RMK SC2SC6 SLP042", "CYGH 221600Z 18004KT 5SM -SN FEW008 BKN061 M07/M08 A3002 RMK ST2SC5 SLP177", "CYGK 221600Z 19011KT 15SM SKC 15/09 A3012 RMK SLP203", "CYGL 221600Z 23009G17KT 15SM FEW013 BKN044 BKN066 08/05 A2961 RMK SC2SC4AC1 SLP038", "CYGP 221600Z 09008KT 15SM FEW180 12/04 A3007 RMK AC1 SLP186", "CYGR 221600Z 22014G23KT 20SM SKC 15/08 A3023 RMK SLP238", "CYGT 221600Z 16007KT 3/8SM SN FZFG VV003 M01/M02 A2919 RMK FG8 SLP892", "CYGV 221600Z AUTO 22011KT 9SM BKN150 BKN190 12/04 A3002 RMK SLP169", "CYGW 221612Z AUTO 23009G17KT 190V260 9SM FEW020 BKN024 BKN033 OVC081 06/03 A2953 RMK SLP002", "CYGX 221600Z 31008KT 15SM BKN025 BKN075 00/M03 A2965 RMK SC6AC1 SLP054", "CYHA 221600Z 19010KT 15SM -RA OVC018 03/02 A2915 RMK SC8 SLP875", "CYHD 221600Z AUTO VRB02KT 9SM SCT046 BKN086 OVC130 07/06 A2968 RMK SLP064", "CYHE 221600Z AUTO 08004KT 9SM OVC049 07/06 A2974 RMK SLP073", "CYHI 221600Z 33014KT 15SM FEW015 FEW020 FEW150 SCT250 M15/M18 A3006 RMK ST1SC1AC1CI2 ST TR SC TR SLP185", "CYHK 221600Z AUTO 33017KT 9SM BKN017 M08/M09 A2950 RMK SLP995", "CYHM 221600Z 20013G18KT 15SM FEW250 17/06 A3006 RMK CI1 CI TR SLP183 DENSITY ALT 1100FT", "CYHU 221600Z AUTO 17010G17KT 9SM CLR 16/05 A3010 RMK SLP194 DENSITY ALT 100FT", "CYHY 221600Z 02008KT 350V060 15SM BKN026 BKN033 M01/M06 A2989 RMK SC5SC2 SLP134", "CYHZ 221600Z 20010G17KT 170V240 15SM FEW030 FEW300 16/09 A3031 RMK CU1CI1 CU TR CI TR SLP267", "CYIN 221600Z AUTO 31005KT 9SM OVC066 01/M02 A2963 RMK SLP071", "CYIO 221600Z AUTO 17003KT 9SM OVC091 M06/M10 A2934 RMK SLP943", "CYIV 221600Z AUTO 31003KT 9SM SCT016 OVC060 03/00 A2967 RMK SLP061", "CYJT 221600Z 24015KT 15SM FEW021 14/10 A3023 RMK SC1 SC TR SLP241", "CYKA 221600Z 08006KT 40SM FEW018 BKN090 BKN250 02/00 A2969 RMK SC1AC4CI1 SLP069", "CYKD 221600Z 30002KT 15SM VCFG SCT005 BKN038 BKN140 M12/M13 A3007 RMK ST3SC2AC1 VIS SE 2 SLP185", "CYKF 221600Z AUTO 19013KT 9SM CLR 18/07 A3005 RMK SLP177 DENSITY ALT 1500FT", "CYKG 221600Z 27016KT 15SM FEW020 SCT088 02/M02 A2905 RMK SC2AS2 SLP851", "CYKJ 221611Z AUTO 00000KT 5SM -RA BR BKN007 OVC017 00/00 A2966 RMK SLP073", "CYKL 221600Z AUTO 23014G23KT 9SM BKN023 BKN029 OVC038 07/04 A2965 RMK SLP063", "CYKY 221600Z 04007KT 15SM FEW190 BKN260 01/M03 A2959 RMK AC2CI5 SLP049", "CYLA 221600Z 23018G24KT 15SM SCT021 BKN110 BKN210 06/03 A2928 RMK SC3AC2CC2 SLP921", "CYLD 221600Z 16003KT 070V170 15SM BKN160 06/04 A2984 RMK AS7 SLP126", "CYLH 221600Z AUTO 24004KT 9SM CLR 04/02 A2971 RMK SLP073", "CYLJ 221600Z 10008KT 14SM -RA BKN010 03/02 A2965 RMK SC7 SLP062", "CYLL 221600Z 35007KT 15SM FEW037 SCT070 SCT270 04/02 A2962 RMK SC2AC1CI1 CI TR SLP057", "CYLU 221600Z 20009G16KT 170V240 15SM SCT013 OVC035 06/04 A2941 RMK ST3SC5 SLP965", "CYLW 221600Z AUTO 08005KT 9SM 02/02 A2965 RMK CLD MISG SLP055", "CYMA 221600Z 28003KT 230V300 20SM FEW011 OVC046 M01/M01 A2983 RMK SF1SC7 SLP136", "CYMH 221600Z AUTO 25018G31KT 9SM CLR 14/03 A2995 RMK SLP145", "CYMM 221600Z AUTO VRB02KT 9SM BKN005 OVC013 M01/M01 A2972 RMK SLP088", "CYMO 221600Z AUTO 21011KT 9SM CLR 10/05 A2974 RMK SLP073", "CYMT 221600Z AUTO 22014G19KT 9SM BKN028 12/05 A2985 RMK SLP118 DENSITY ALT 1300FT", "CYMU 221600Z 23022KT 8SM -RA SCT014 BKN021 OVC027 04/03 A2943 RMK SF4SC3SC1 SLP973", "CYMX 221600Z 23007KT 160V280 45SM FEW220 17/04 A3008 RMK CI2 SLP191 DENSITY ALT 400FT", "CYNA 221600Z AUTO 20012KT 9SM CLR 12/06 A3006 RMK ICE MISG SLP180", "CYND 221600Z 21010KT 180V250 15SM FEW140 FEW250 17/06 A3005 RMK AC1CI1 AC TR CI TR SLP179 DENSITY ALT 400FT", "CYNE 221600Z AUTO 34004KT 310V010 9SM FEW016 BKN025 BKN030 03/M00 A2969 RMK SLP069", "CYNM 221600Z AUTO 22006KT 200V260 9SM CLR 09/06 A2983 RMK SLP111", "CYOC 221600Z 07005KT 050V120 20SM FEW018 BKN027 OVC041 M06/M08 A2996 RMK ST2SC3SC3 SLP168", "CYOD 221600Z 09004KT 15SM FEW007 SCT020 SCT120 BKN230 03/02 A2966 RMK CF1SC2AC1CI2 DENSITY ALT 1042FT SLP065", "CYOJ 221600Z 09007KT 050V120 1 1/2SM -SN OVC007 00/00 A2972 RMK SC8 /S01/ SLP086", "CYOO 221600Z AUTO 21007KT 9SM CLR 16/06 A3007 RMK SLP186 DENSITY ALT 600FT", "CYOW 221600Z 21015KT 15SM FEW220 18/05 A3006 RMK CI1 CI TR SLP184 DENSITY ALT 700FT", "CYPA 221600Z 10006KT 15SM BKN048 03/M03 A2970 RMK SC7 INTMT -SN SLP079", "CYPC 221605Z 14005KT 3SM -SN BKN020 OVC036 M07/M10 A3011 RMK SC6SC2 SLP198", "CYPD 221600Z AUTO 24011KT 9SM CLR 17/06 A3030 RMK SLP266", "CYPE 221600Z VRB02KT 15SM BKN035 OVC230 M00/M01 A2968 RMK SC5CI3 SLP079", "CYPH 221600Z AUTO 28014G19KT 9SM BKN016 BKN022 03/01 A2929 RMK PCPN 0.5MM PAST HR SLP921", "CYPL 221600Z AUTO 30003KT 260V320 9SM CLR 05/M00 A2971 RMK SLP079", "CYPO 221600Z AUTO 30012G19KT 9SM OVC019 04/M00 A2960 RMK SLP027", "CYPQ 221600Z AUTO 21010G18KT 9SM CLR 18/05 A3005 RMK SLP182 DENSITY ALT 1000FT", "CYPR 221608Z AUTO 01003KT 9SM SCT022 BKN033 05/05 A2984 RMK SLP107", "CYPW 221600Z 26005KT 30SM BKN033 08/05 A2972 RMK SC6 SLP070", "CYPX 221611Z AUTO 24018KT 9SM -RA SCT017 BKN025 BKN037 02/00 A2919 RMK SLP888", "CYPY 221600Z AUTO 03007KT 360V060 9SM OVC018 00/M03 A2977 RMK SLP097", "CYQA 221600Z AUTO 16010KT 9SM CLR 17/07 A2999 RMK SLP162 DENSITY ALT 1400FT", "CYQB 221600Z VRB02KT 30SM FEW120 FEW250 15/04 A3009 RMK AC1CI1 AC TR CI TR SLP194", "CYQD 221600Z AUTO 26006KT 210V300 8SM FEW047 05/M06 A2971 RMK SLP072", "CYQF 221600Z AUTO 32003KT 9SM SCT008 OVC014 01/00 A2962 RMK SLP068", "CYQG 221600Z AUTO 21014G21KT 9SM CLR 17/06 A3001 RMK ICE MISG SLP166 DENSITY ALT 900FT", "CYQH 221600Z VRB02KT 15SM VCSH FEW010 OVC025 OVC040 01/00 A2978 RMK ST1SC4SC3 SLP116", "CYQI 221600Z 18009KT 15SM FEW025 FEW250 16/09 A3032 RMK CU1CI2 CU TR CONTRAILS SLP269", "CYQK 221607Z 08004KT 10SM -SHRA OVC057 08/06 A2967 RMK SC8 CVCTV CLD EMBD SLP059", "CYQL 221600Z 04009G16KT 4SM -RA BR OVC005 02/02 A2951 RMK ST8 SLP022", "CYQM 221600Z 20014G20KT 15SM FEW036 17/07 A3022 RMK SC1 SC TR SLP238", "CYQQ 221600Z 27004KT 15SM FEW025 FEW120 07/01 A2974 RMK SC1AC1 SLP071", "CYQR 221600Z 01003KT 15SM BKN060 BKN095 04/00 A2959 RMK SC6AC1 SLP044", "CYQT 221600Z 09005KT 20SM FEW080 OVC130 11/05 A2972 RMK AC2AC6 SLP072", "CYQU 221611Z 33002KT 3SM BR SCT210 M01/M01 A2967 RMK CI3 SLP078", "CYQV 221600Z AUTO 07004KT 030V090 9SM SCT060 OVC088 04/M00 A2963 RMK SLP057", "CYQW 221600Z AUTO 00000KT 9SM CLR M00/M03 A2965 RMK SLP065", "CYQX 221600Z 23015G22KT 20SM FEW030 15/06 A3022 RMK CU1 CU TR SLP238", "CYQY 221600Z 22010G17KT 15SM FEW030 FEW250 16/07 A3029 RMK SC1CI1 CI TR SLP262", "CYQZ 221613Z AUTO 01002KT 2 1/2SM -SNRA OVC013 01/00 A2970 RMK SLP082", "CYRA 221600Z 33009KT 15SM BKN010 M06/M06 A2995 RMK ST7 SLP161", "CYRB 221600Z 04026KT 15SM DRSN BKN054 M18/M21 A2953 RMK SC5 SLP012", "CYRJ 221600Z 22011G22KT 180V260 25SM FEW160 BKN220 16/03 A2994 RMK AC1CI5 SLP146 DENSITY ALT 800FT", "CYRL 221600Z 12003KT 15SM BKN120 BKN240 05/02 A2969 RMK AC6CI1 PRESRR SLP068", "CYRQ 221600Z AUTO 21015KT 9SM CLR 16/04 A3007 RMK SLP185 DENSITY ALT 200FT", "CYRT 221600Z 33016KT 15SM FEW015 SCT090 BKN250 M04/M07 A2940 RMK SC1AC2CI3 SLP961", "CYRV 221600Z AUTO 00000KT 9SM SCT130 02/01 A2961 RMK SLP043", "CYSB 221600Z 18011KT 20SM SCT170 14/08 A2991 RMK AC4 SLP137 DENSITY ALT 1400FT", "CYSC 221600Z AUTO 22012KT 170V230 9SM FEW240 A3014 RMK PCPN MISG T MISG DP MISG ICE MISG DENSITY ALT MISG", "CYSF 221600Z AUTO 02006KT 9SM BKN021 OVC049 M01/M04 A2972 RMK SLP083", "CYSJ 221600Z 21015G21KT 15SM BKN016 15/11 A3028 RMK SC5 SLP258", "CYSK 221600Z 24017G23KT 15SM BKN013 05/03 A2942 RMK SC6 CALL OUT SLP967", "CYSM 221600Z 02004KT 15SM SCT010 BKN023 BKN220 M04/M05 A2983 RMK SC3SC4CI1 CI TR SLP118", "CYSN 221600Z 21018G23KT 15SM FEW250 20/04 A3006 RMK CI1 CI TR SLP183 DENSITY ALT 800FT", "CYTE 221600Z AUTO 01010KT 9SM SCT023 01/M01 A2900 RMK SLP827", "CYTH 221600Z 32005KT 15SM FEW035 BKN061 01/M01 A2967 RMK SC1SC6 SLP064", "CYTL 221600Z AUTO 29006KT 260V320 9SM FEW013 OVC031 03/00 A2968 RMK SLP063", "CYTQ 221600Z 24018G26KT 15SM BKN025 BKN120 BKN220 07/03 A2932 RMK SC5AC3CI1 CI TR SLP934", "CYTR 221600Z 21011KT 15SM FEW160 16/05 A3009 RMK AC1 DENSITY ALT 378FT SLP190", "CYTS 221600Z 18004KT 15SM BKN120 OVC160 08/05 A2985 RMK AC5AC3 SLP121", "CYTZ 221600Z AUTO 18005KT 160V260 9SM CLR 14/06 A3006 RMK SLP182", "CYUA 221600Z AUTO 17003KT ////SM BKN010 OVC014 M10/M11 A3004", "CYUB 221600Z 10007KT 15SM FEW100 M11/M12 A3009 RMK AS1 AS TR SLP192", "CYUL 221600Z 15009KT 30SM FEW160 FEW250 17/05 A3009 RMK AC1CI1 AC TR CI TR SLP191 DENSITY ALT 300FT", "CYUS 221600Z AUTO 33011KT ////SM //// OVC090 M08/M10 A2942", "CYUT 221600Z 35017KT 10SM DRSN OVC020 M02/M04 A2922 RMK SC8 SLP898", "CYUX 221600Z 03002KT 3/8SM -SN FZFG VV004 M01/M01 A2920 RMK FG8 PCPN VRY LGT SLP889", "CYUY 221600Z 24009KT 15SM FEW180 SCT260 15/06 A2988 RMK AC1CI3 AC TR SLP127 DENSITY ALT 1300FT", "CYVC 221600Z 31002KT 15SM FEW250 02/M01 A2972 RMK CI2 SLP086", "CYVL 221600Z AUTO 10004KT 2 1/4SM -SN OVC038 M09/M10 A2999 RMK SLP186", "CYVM 221607Z 00000KT 2SM -SN OVC022 M02/M03 A2925 RMK SN4SC4 VIS LWR N-NE SLP906", "CYVO 221600Z 22009G15KT 190V270 15SM FEW170 SCT230 15/07 A2989 RMK AC1CI2 SLP131 DENSITY ALT 1400FT", "CYVP 221609Z 22008G18KT 15SM -RA FEW016 BKN022 BKN033 OVC084 08/05 A2939 RMK SF1SC5SC1AC1 SLP956", "CYVQ 221600Z VRB02KT 10SM -SN BKN012 OVC062 M07/M08 A3004 RMK SC5SC3 SLP181", "CYVR 221600Z 09006KT 10SM SCT021 BKN050 BKN080 09/09 A2972 RMK SC3SC3AC1 SLP067", "CYVT 221600Z AUTO VRB02KT 9SM FEW005 OVC086 01/M00 A2968 RMK SLP077", "CYVV 221600Z 21015KT 15SM FEW250 18/07 A2994 RMK CI2 SLP143 DENSITY ALT 1300FT", "CYWE 221606Z AUTO 02006KT 9SM SCT017 M08/M10 A2987 RMK ICE MISG SLP151", "CYWG 221600Z 11005KT 8SM BKN120 BKN130 07/05 A2964 RMK AC7AC1 AC TR SLP048", "CYWH 221600Z VRB02KT 15SM VCSH FEW030 BKN050 BKN100 08/07 A2974 RMK CU2SC4AC1 SLP074", "CYWK 221600Z 21014KT 15SM SCT025 OVC033 08/02 A2978 RMK SC4SC4 SLP107", "CYWL 221600Z 29003KT 12SM -SN BKN030 BKN080 00/M01 A2965 RMK SC6AC1 SLP073", "CYXC 221600Z 36007KT 3SM -RASN OVC004 01/00 A2951 RMK SN4ST4 SLP016", "CYXE 221600Z 07005KT 15SM FEW140 BKN300 03/M01 A2963 RMK AC1CI4 SLP055", "CYXH 221600Z 36008KT 15SM -RA SCT013 OVC050 04/01 A2954 RMK SC3SC5 SLP023", "CYXJ 221600Z 36009KT 3SM -SN BKN007 OVC020 01/M00 A2971 RMK SC6SC2 SLP092", "CYXL 221600Z 17003KT 110V200 15SM SCT070 BKN120 OVC230 08/06 A2970 RMK AC3AS4CI1 SLP071", "CYXP 221600Z 06012G17KT 040V100 1 1/2SM -SN BKN013 OVC021 01/M01 A2907 RMK SN3SC3SC2 SLP847", "CYXQ 221600Z 18003KT 20SM OVC050 M04/M04 A2985 RMK SC8 /S01 AFT 18Z/0.4MM/1.2CM/1.2MWE/47015/ SLP149", "CYXR 221600Z AUTO 17006KT 9SM CLR 15/07 A2988 RMK SLP126 DENSITY ALT 1100FT", "CYXS 221612Z AUTO 27006KT 6SM -FZRA BR OVC015 02/01 A2968 RMK ICE SLP079", "CYXT 221600Z 27004KT 7SM FEW002 SCT009 BKN020 BKN070 04/03 A2980 RMK SF1SC3SC2AC1 SLP103", "CYXU 221600Z 18012KT 15SM FEW260 17/09 A3004 RMK CI1 CI TR SLP177 DENSITY ALT 1200FT", "CYXX 221600Z 11004KT 040V160 3SM BR BKN004 BKN052 BKN160 07/06 A2973 RMK ST6SC1AC1 AC TR SLP071", "CYXY 221600Z 26002KT 15SM -SN SCT020 OVC050 00/M00 A2980 RMK SC3SC5 SLP130", "CYXZ 221600Z VRB02KT 15SM BKN160 09/08 A2982 RMK AC7 SLP110", "CYYB 221600Z 22011G17KT 30SM FEW150 15/07 A2995 RMK AC2 SLP148 DENSITY ALT 1600FT", "CYYC 221600Z 01009KT 3/4SM R35L/5500V6000FT/N R29/6000FT/U R35R/P6000FT/U -SN BR VV005 M00/M00 A2960 RMK SN8 S18 SLP063", "CYYD 221600Z VRB02KT 25SM BKN010 M00/M01 A2975 RMK SC7 SLP095", "CYYE 221600Z 31007KT 15SM -SN BKN013 BKN046 OVC060 M02/M04 A2989 RMK SC5SC2SC1 SLP144", "CYYF 221600Z 36006KT 15SM SCT065 02/M01 A2964 RMK SC3 SLP050", "CYYG 221600Z 21015KT 15SM SKC 16/07 A3025 RMK SLP248", "CYYH 221600Z 31011KT 15SM BKN020 BKN100 BKN200 M08/M10 A2944 RMK SC6AC1CI1 CI TR SLP975", "CYYJ 221600Z 25007KT 30SM BKN058 BKN070 09/07 A2973 RMK SC6AC1 AC TR SLP069", "CYYL 221605Z AUTO 24003KT 6SM -SN OVC025 00/M01 A2966 RMK SLP069", "CYYN 221600Z AUTO 04005KT 9SM CLR 03/02 A2956 RMK SLP031", "CYYQ 221600Z 28009KT 15SM BKN011 M01/M02 A2959 RMK SC7 SLP026", "CYYR 221600Z 23014G21KT 15SM FEW050 BKN080 BKN140 11/02 A2986 RMK SC1AC5AC1 SLP114", "CYYT 221600Z 26012KT 15SM BKN030 15/08 A3029 RMK SC6 SLP263", "CYYU 221600Z 18005KT 10SM FEW100 BKN110 OVC260 07/05 A2982 RMK AC3AC3CS2 BR SLP108", "CYYW 221600Z AUTO 22003KT 190V260 9SM -RA BKN071 OVC083 08/06 A2972 RMK SLP073", "CYYY 221600Z 23010G18KT 15SM FEW140 FEW210 16/02 A3000 RMK AC2CI1 CI TR SLP161 DENSITY ALT 300FT", "CYYZ 221600Z 22011G18KT 15SM FEW180 19/06 A3004 RMK AC1 AC TR SLP176 DENSITY ALT 1100FT", "CYZE 221600Z AUTO 19012KT 9SM CLR 15/08 A2987 RMK SLP121 DENSITY ALT 800FT", "CYZF 221600Z 33007KT 15SM FEW010 BKN052 M06/M07 A2989 RMK SC1SC7 SC TR SLP140", "CYZH 221613Z AUTO 26006KT 9SM BKN024 OVC039 03/02 A2967 RMK SLP071", "CYZP 221600Z AUTO 30017KT 9SM CLR 08/03 A2988 RMK SLP121", "CYZR 221600Z AUTO 21014G24KT 9SM CLR 18/08 A2998 RMK SLP156 DENSITY ALT 1000FT", "CYZS 221600Z 36010KT 15SM BKN030 00/M01 A2912 RMK SC7 SLP867", "CYZT 221600Z 27007KT 20SM FEW035 BKN051 07/06 A2979 RMK CU1SC4 SLP091", "CYZU 221600Z 31003KT 4SM -SN FEW008 OVC031 00/00 A2965 RMK SF2SC6 SLP074", "CYZV 221600Z 22007KT 180V250 30SM FEW140 SCT160 BKN260 09/03 A3000 RMK AC1AC4CI2 AC TR SLP162", "CYZW 221600Z 02002KT 8SM FEW008 SCT033 OVC060 M01/M01 A2979 RMK SC1SC3SC4 SLP124", "CYZX 221600Z 24006KT 15SM FEW250 17/07 A3030 RMK CI1 SLP261", "CYZY 221600Z AUTO 14002KT 9SM OVC071 02/M00 A2966 RMK SLP070", "CZBF 221600Z AUTO 18009KT 9SM CLR 17/05 A3013 RMK SLP207 DENSITY ALT 200FT", "CZCP 221600Z AUTO 06008KT ////SM //// OVC017 M08/M11 A3009", "CZCR 221600Z AUTO 08007KT 11/03 RMK AO1 SLP198 T01070030 58010", "CZDB 221600Z AUTO 22007KT 16/ RMK AO1 SLP265 T0162 58007", "CZEL 221600Z AUTO 18013KT 17/07 RMK AO1 PK WND 18017/1558 SLP175 T01680070 51011", "CZEV 221600Z AUTO 08007KT M11/M12 RMK AO1 SOG 07 3005 SLP186 T11111115", "CZFA 221600Z 00000KT 30SM FEW010 FEW030 BKN054 M01/M01 A2978 RMK SC1SC1SC6 SC TR SLP127", "CZFM 221600Z 34003KT 10SM -SN OVC010 M07/M08 A3005 RMK SC8 SLP181", "CZFS 221600Z AUTO 31007KT M05/M06 RMK AO1 SOG 01 3021 SLP168 T10501055", "CZHY 221600Z AUTO 02009KT M01/M05 RMK AO1 SOG 01 3022 SLP130 T10121049", "CZKD 221600Z AUTO 28003KT 01/M00 RMK AO1 SLP061 T00071004 51025", "CZMD 221600Z AUTO VRB03KT 9SM BKN014 03/01 A2968 RMK SLP066", "CZMJ 221600Z AUTO 34003KT 04/01 RMK AO1 SLP049 T00370005 50011", "CZMT 221600Z 33013G19KT 15SM FEW030 BKN230 08/04 A2988 RMK CU3CI3 SLP121", "CZOL 221600Z AUTO 34005KT 02/02 RMK AO1 T00210020", "CZPC 221613Z AUTO 33008KT 1 1/2SM -SN BKN010 OVC015 M00/M00 A2952 RMK ICE SLP034", "CZPS 221500Z AUTO 36004KT M01/M01 RMK AO1 T10061013", "CZRP 221500Z AUTO 34020KT M22/M24 RMK AO1 SOG 54 6008 PK WND 34024/1406 SLP082 T12181239", "CZSJ 221600Z AUTO VRB02KT 9SM CLR 04/M00 A2968 RMK SLP066", "CZSM 221600Z AUTO 01004KT M04/M06 RMK AO1 SLP116 T10421056 53025", "CZSP 221600Z AUTO 22014G19KT 17/06 RMK AO1 PK WND 22019/1554 SLP247 T01660061 58008", "CZST 221600Z 00000KT 12SM FEW006 BKN018 OVC050 05/04 A2985 RMK SC1SC6SC1 SLP112", "CZTB 221600Z AUTO 09004KT 11/05 RMK AO1 SLP073 T01090053 51013", "CZUM 221600Z AUTO 22009G18KT 180V250 9SM OVC028 08/02 A2979 RMK SLP107", "CZVL 221607Z AUTO 35007KT 9SM BKN013 02/02 A2964 RMK SLP063", "CZZJ 221600Z AUTO 29002KT M01/M02 RMK AO1 1PAST HR 2015 SLP072 P0000 T10081019 50001", "DAAE 221500Z 07004KT CAVOK 29/16 Q1016", "DAAG 221600Z 04005KT 340V060 CAVOK 32/13 Q1017", "DAAJ 221600Z 07006KT CAVOK 25/01 Q1022", "DAAP 221600Z 10006KT CAVOK 27/04 Q1022", "DAAT 221600Z 15004KT 110V190 CAVOK 25/M03 Q1023", "DAAV 221600Z 28003KT 8000 NSC 29/11 Q1017", "DAAY 221600Z 18016KT CAVOK 26/M02 Q1025", "DABB 221600Z 02009KT CAVOK 27/16 Q1017", "DABC 221600Z 30008KT CAVOK 30/02 Q1022", "DABT 221600Z 28010KT CAVOK 29/M00 Q1024", "DAOB 221600Z 15003KT CAVOK 27/M02 Q1024", "DAOF 221600Z 10009KT CAVOK 31/02 Q1017", "DAON 221600Z 20011KT 8000 NSC 35/M00 Q1016", "DAOO 221600Z 22012KT 9999 FEW026 36/04 Q1015", "DAOR 221600Z 15005KT CAVOK 27/01 Q1023", "DAUA 221600Z 05007KT CAVOK 33/M03 Q1017", "DAUB 221600Z 15005KT CAVOK 31/07 Q1020", "DAUE 221600Z 09004KT CAVOK 28/02 Q1022", "DAUG 221600Z 13006KT 090V160 CAVOK 28/04 Q1023", "DAUH 221600Z 08005KT 050V140 CAVOK 29/03 Q1021", "DAUI 221600Z 07016KT CAVOK 33/M03 Q1017", "DAUK 221600Z 19004KT CAVOK 30/07 Q1021", "DAUO 221600Z 20004KT 170V240 CAVOK 30/06 Q1021", "DAUT 221600Z 09010KT CAVOK 31/01 Q1019", "DAUU 221600Z 12004KT CAVOK 29/04 Q1020", "DBBB 221600Z 22008KT 9999 FEW013 FEW023CB 30/24 Q1009 RETS TEMPO TS", "DFFD 221600Z 10007KT 070V130 9999 SCT026 35/15 Q1011 NOSIG", "DFOO 221600Z 13006KT 100V170 9999 FEW020 SCT026 33/16 Q1012", "DGAA 221500Z 15008KT 120V180 9999 FEW042CB 30/23 Q1009 NOSIG", "DIAP 221600Z 23011KT 8000 SCT013 FEW020CB BKN040 29/26 Q1010 TEMPO TS", "DIBK 221600Z 12004KT 9999 SCT015 30/21 Q1011 NOSIG", "DIYO 221600Z 10006KT 9999 SCT015 32/23 Q1010 NOSIG", "DNAA 221600Z 26005KT CAVOK 32/21 Q1011 NOSIG", "DNEN 221600Z 24003KT 9999 SCT012 FEW020CB 31/23 Q1009 TEMPO TS", "DNGO 221600Z 03010KT 9000 NSC 33/13 Q1011", "DNIB 221600Z 02009KT 9999 SCT014 FEW020CB 32/24 Q1010", "DNIL 221600Z 02007KT 9999 SCT012 31/19 Q1010", "DNKN 221600Z 05006KT CAVOK 31/14 Q1014 NOSIG", "DNMM 221600Z 16008KT 9999 TS SCT014 FEW020CB 32/25 Q1010 NOSIG", "DNMN 221600Z 03005KT 9999 FEW023CB 34/18 Q1010", "DNPO 221600Z 17003KT 9999 BKN010 FEW020CB 29/25 Q1009 NOSIG", "DRRM 221600Z 09006KT CAVOK 34/08 Q1012", "DRRN 221600Z 08005KT CAVOK 37/06 Q1011 NOSIG", "DRRT 221600Z 02004KT CAVOK 36/04 Q1012", "DRZA 221600Z 06006KT CAVOK 33/09 Q1014", "DRZR 221600Z 33006KT CAVOK 34/05 Q1013", "DTKA 221600Z VRB02KT CAVOK 31/10 Q1018 NOSIG RMK SIROCCO", "DTMB 221600Z 15014KT CAVOK 28/16 Q1021", "DTNH 221600Z 16008KT CAVOK 30/09 Q1020 NOSIG", "DTTA 221600Z 12008KT 070V150 9999 FEW026 28/17 Q1020", "DTTB 221600Z 11006KT 080V140 CAVOK 29/16 Q1019", "DTTD 221600Z 08004KT 020V140 CAVOK 27/02 Q1023", "DTTF 221600Z 23009KT 8000 NSC 27/09 Q1023 NOSIG", "DTTG 221600Z 26007KT 210V320 CAVOK 29/06 Q1022 NOSIG", "DTTJ 221600Z 13012KT CAVOK 28/12 Q1021 NOSIG", "DTTK 221600Z VRB03KT CAVOK 31/09 Q1020", "DTTL 221600Z VRB05KT 9999 FEW020 25/21 Q1021", "DTTN 221600Z 05006KT CAVOK 32/M00 Q1019", "DTTR 221600Z 24004KT 200V270 CAVOK 28/06 Q1023", "DTTX 221600Z 15010KT CAVOK 27/14 Q1022", "DTTZ 221600Z 28008KT CAVOK 29/08 Q1021", "DXNG 221500Z 08006KT 020V150 8000 FEW008 33/13 Q1013", "DXSK 221500Z 36004KT 9999 FEW016 BKN260 33/22 Q////", "EBAW 221550Z AUTO 21003KT 9999 // VV/// ///// Q1014", "EBBE 221555Z AUTO 20005KT 9999 FEW046/// 17/12 Q1014 BLU", "EBBL 221555Z AUTO VRB02KT 9999 FEW050/// 16/12 Q1014 BLU", "EBBR 221550Z 19003KT 9999 FEW032 17/12 Q1014 NOSIG", "EBCI 221550Z 19007KT 9999 FEW027 SCT032 17/12 Q1014 NOSIG", "EBCV 221555Z AUTO 19005KT 9999 NCD 17/13 Q1014 BLU", "EBDT 221555Z AUTO 18004KT 9999 SCT039/// BKN043/// 17/12 Q1014 BLU", "EBFN 221555Z AUTO 18003KT 9999 FEW031/// 17/13 Q1013 BLU", "EBFS 221555Z AUTO 18007KT 9999 FEW095/// SCT110/// BKN130/// 16/12 Q1014 BLU", "EBLB 221555Z AUTO 21005KT 9999 SCT035/// 14/10 Q1016 BLU", "EBLG 221550Z 19005KT 150V210 9999 SCT042 17/11 Q1015 NOSIG", "EBOS 221550Z 20005KT 9999 SCT043 16/12 Q1013 NOSIG", "EDAC 221550Z 22006KT 9999 SCT036 16/11 Q1016", "EDAH 221550Z VRB01KT 3900 BR FEW030 14/13 Q1012", "EDBC 221550Z AUTO 23006KT 9999 // FEW061/// 15/11 Q1014", "EDDB 221550Z AUTO 24003KT CAVOK 16/13 Q1014 TEMPO FM1750 SHRA", "EDDC 221550Z AUTO 26004KT 230V300 CAVOK 17/12 Q1016 NOSIG", "EDDE 221550Z AUTO 22010KT CAVOK 15/11 Q1016 NOSIG", "EDDF 221550Z AUTO 19004KT CAVOK 18/13 Q1016 NOSIG", "EDDG 221550Z AUTO 20005KT 160V230 CAVOK 16/13 Q1014 NOSIG", "EDDH 221550Z AUTO 23007KT 9999 FEW028 17/13 Q1012 NOSIG", "EDDK 221550Z AUTO 07003KT 9999 FEW038 17/13 Q1015 NOSIG", "EDDL 221550Z AUTO 19006KT CAVOK 16/12 Q1015 NOSIG", "EDDM 221550Z AUTO 26002KT CAVOK 16/12 Q1019 NOSIG", "EDDN 221550Z AUTO 23005KT CAVOK 17/11 Q1018 NOSIG", "EDDP 221550Z AUTO 24009KT 9999 FEW030 16/12 Q1015 NOSIG", "EDDR 221550Z AUTO 20003KT 150V220 CAVOK 18/13 Q1016 NOSIG", "EDDS 221550Z AUTO 18003KT 130V220 CAVOK 18/11 Q1018 NOSIG", "EDDV 221550Z AUTO 25007KT 230V290 9999 FEW023 OVC043 17/12 Q1014 NOSIG", "EDDW 221550Z AUTO 24008KT 9999 FEW017 OVC035 16/13 Q1013 NOSIG", "EDFH 221550Z 21009KT 9999 FEW030 14/10 Q1017", "EDFM 221550Z 18003KT CAVOK 20/13 Q1017", "EDGS 221550Z 23006KT 9999 FEW036 BKN048 13/11 Q1016", "EDHI 221550Z AUTO 23007KT 9999 // FEW023/// BKN044/// OVC051/// 16/15 Q1012", "EDHK 221550Z AUTO 25006KT 210V290 9999 // FEW019/// BKN068/// BKN088/// 15/13 Q1012", "EDHL 221550Z 21003KT 160V300 9999 VCSH FEW028CB 17/14 Q1012", "EDJA 221550Z 24005KT CAVOK 16/11 Q1019", "EDLN 221550Z VRB02KT CAVOK 17/12 Q1014", "EDLP 221550Z 25007KT 220V280 9999 BKN029 BKN042 15/10 Q1016", "EDLV 221550Z 20005KT CAVOK 17/12 Q1014", "EDLW 221550Z 20007KT CAVOK 15/11 Q1015", "EDMA 221550Z 25003KT CAVOK 16/11 Q1019", "EDMO 221550Z 28006KT CAVOK 16/10 Q1019", "EDNY 221550Z VRB02KT CAVOK 18/12 Q1018", "EDQM 221550Z 22009KT CAVOK 13/11 Q1018", "EDSB 221550Z VRB02KT CAVOK 19/12 Q1016", "EDTL 221550Z 14003KT CAVOK 21/13 Q1017", "EDTY 221550Z 24005KT CAVOK 17/11 Q1018", "EDVE 221550Z 25007KT CAVOK 16/13 Q1014", "EDVK 221550Z 22006KT 9999 FEW028 16/11 Q1015", "EDWE 221550Z AUTO 22008KT 170V250 9999 // FEW044/// 16/13 Q1012", "EDXW 221550Z 22010KT 6000 -RA BKN002 OVC005 14/14 Q1010", "EEEI 221550Z 15003KT CAVOK 04/02 Q1011 NOSIG", "EEKE 221550Z AUTO 19004KT 9999NDV NSC 07/05 Q1010", "EEPU 221550Z AUTO 10003KT 9999 NCD 06/03 Q1011", "EETN 221550Z 15002KT CAVOK 04/02 Q1011 NOSIG", "EETU 221550Z AUTO 13004KT 9999 NCD 05/02 Q1012", "EFET 221550Z AUTO 25009KT 9999 -SHSN SCT046 M01/M02 Q0992", "EFHA 221550Z AUTO 22007KT 9999 OVC029 07/02 Q1008", "EFHK 221550Z 15005KT 9999 FEW028 05/02 Q1010 NOSIG", "EFIV 221550Z AUTO 24013KT 9999 -SHSN OVC011 01/M00 Q0990", "EFJO 221550Z AUTO 21009KT 170V230 9999 SCT011 OVC036 06/04 Q1008", "EFJY 221550Z AUTO 20008KT 9999 OVC030 07/04 Q1007", "EFKE 221550Z AUTO 26009KT 220V280 9999 FEW016 05/02 Q0998", "EFKI 221550Z AUTO 21010KT 9999 OVC024 06/02 Q1002", "EFKK 221550Z AUTO 22017G28KT 200V260 9999 BKN020 08/03 Q1003", "EFKS 221550Z AUTO 22012KT 200V260 9999 -RA OVC013 04/01 Q0997", "EFKT 221550Z AUTO 25010KT 210V270 9999 FEW010 01/M01 Q0993", "EFKU 221550Z AUTO 20012KT 9999 OVC039 07/04 Q1006", "EFLP 221550Z AUTO 20006KT 9999 OVC034 06/04 Q1011", "EFMA 221550Z AUTO 22003KT 9999 -RA OVC019 08/07 Q1009", "EFMI 221550Z AUTO 20006KT 170V230 9999 FEW010 OVC031 07/05 Q1010", "EFOU 221550Z AUTO 25016G30KT 210V290 9999 OVC018 07/03 Q1000", "EFPO 221550Z AUTO 18006KT 9999 OVC021 08/05 Q1008", "EFRO 221550Z AUTO 22015KT 9999 -RA SCT011 OVC046 02/00 Q0995", "EFSA 221550Z AUTO 20007KT 9999 -RA FEW018 OVC029 06/05 Q1010", "EFSI 221550Z AUTO 22009KT 190V250 9999 BKN016 OVC035 07/05 Q1006", "EFTP 221550Z AUTO 20006KT 160V230 9999 OVC030 07/02 Q1009", "EFTU 221550Z AUTO 13004KT 9999 BKN023 07/04 Q1009", "EFUT 221550Z AUTO 18004KT 9999 SCT034 06/03 Q1011", "EFVA 221550Z AUTO 23013KT 9999 BKN016 08/05 Q1005", "EGAA 221550Z AUTO 15005KT 7000 -RA OVC033/// //////CB 13/11 Q1002 RERA", "EGAC 221550Z AUTO 18008KT 9999 BKN042/// //////TCU 15/12 Q1002", "EGAE 221520Z 19009KT 9999 FEW009 SCT013 BKN023 13/12 Q1000", "EGBB 221550Z 16006KT 9999 FEW023 15/12 Q1008", "EGBJ 221550Z 14002KT 9999 VCSH FEW012 SCT034CB 16/14 Q1008", "EGCC 221550Z 19003KT 130V240 9999 FEW034 15/11 Q1007", "EGCK 221550Z 17013KT 9999 FEW010 SCT023 15/13 Q1005", "EGCN 221550Z 18009KT CAVOK 15/10 Q1009", "EGDM 221550Z AUTO 17009KT 9999 BKN007/// SCT042/// BKN140/// 15/14 Q1009", "EGDR 221550Z AUTO 16008KT 9999 FEW041/// BKN049/// 15/14 Q1006", "EGDY 221550Z AUTO 16006KT 9999 // SCT013/// OVC110/// 16/14 Q1008", "EGEC 221550Z 17006KT 9999 FEW012 BKN038 13/11 Q1002", "EGFF 221550Z AUTO 14006KT 110V170 9999 -RA BKN021/// BKN029/// //////TCU 16/14 Q1008", "EGGD 221550Z AUTO 17007KT 9999 BKN013 15/13 Q1008", "EGGP 221550Z 15006KT 110V270 9999 SCT035 16/11 Q1006", "EGGW 221550Z AUTO 18008KT 140V220 9999 SCT044 15/10 Q1010", "EGHC 221550Z 16012KT 9999 FEW002 SCT027 15/14 Q1005", "EGHE 221550Z 17012KT 9999 FEW040 16/15 Q1004", "EGHH 221550Z 17008KT 9999 SCT010 BKN018 17/15 Q1009", "EGHI 221550Z VRB01KT 9999 VCSH FEW010 SCT018 16/14 Q1010 RESHRA", "EGHQ 221550Z 15011KT 9999 BKN007 15/14 Q1006", "EGJA 221550Z 16012KT CAVOK 16/15 Q1009", "EGJB 221550Z 15008KT 9999 FEW004 16/15 Q1009", "EGJJ 221550Z 13011KT 9999 FEW015 17/15 Q1009", "EGKA 221550Z 17006KT 9999 FEW013 SCT025 17/14 Q1011", "EGKB 221550Z 18010KT 9999 SCT015 15/12 Q1011", "EGKK 221550Z 18006KT 150V210 9999 FEW017 SCT035 16/13 Q1011", "EGLC 221550Z AUTO 17007KT 130V210 9999 BKN046 17/12 Q1011", "EGLF 221550Z 17008KT 9999 VCSH FEW018 SCT041 16/13 Q1010", "EGLL 221550Z AUTO 18007KT 140V230 9999 BKN022 BKN027 BKN033 17/13 Q1010", "EGMC 221550Z 19009KT 9999 FEW024 17/12 Q1011", "EGMD 221550Z 19009KT 9999 FEW013 SCT032 17/15 Q1012", "EGNH 221550Z 21011KT 9999 FEW048 16/11 Q1006", "EGNJ 221550Z 21013KT 9999 FEW020 16/12 Q1008", "EGNM 221550Z 21011KT 9999 FEW015 SCT025 15/10 Q1007", "EGNR 221550Z 17009KT 9999 SCT034 SCT041 16/11 Q1007", "EGNS 221550Z 20014KT 9999 FEW012 15/13 Q1004 NOSIG", "EGNT 221550Z 24007KT 180V290 9999 FEW035 15/08 Q1005", "EGNV 221550Z 20011KT 9999 SCT040 15/10 Q1006", "EGNX 221550Z 21009KT 9999 SCT029 16/11 Q1009", "EGOM 221550Z AUTO 24015KT 9999 NCD 13/09 Q1004", "EGOP 221550Z AUTO 17013KT 3600 BKN016/// SCT027/// 16/14 Q1006", "EGOS 221550Z AUTO 17009KT 9999 FEW039/// 16/12 Q1007", "EGOV 221550Z AUTO 17017KT 9999 SCT016/// 15/13 Q1005", "EGPA 221550Z 06014KT 7000 -RADZ FEW003 BKN004 12/11 Q1004", "EGPB 221550Z AUTO 09017KT 7000 OVC004/// 11/10 Q1007 REDZ", "EGPC 221550Z AUTO 06011KT 2700 -DZ SCT001/// 12/12 Q1002 RERA REDZ", "EGPD 221550Z 16006KT 9999 FEW010 SCT030 BKN046 14/13 Q1002", "EGPE 221550Z 00000KT 8000 FEW003 BKN005 BKN018 13/12 Q1002", "EGPF 221550Z AUTO 20008KT 9999 OVC014 13/11 Q1003", "EGPH 221550Z 21010KT 9999 SCT014 BKN040 14/11 Q1003", "EGPI 221550Z AUTO 16010KT 120V200 8000 DZ BKN012/// BKN020/// 13/12 Q1001", "EGPK 221550Z 17010KT 9999 BKN023 13/11 Q1003", "EGPL 221550Z AUTO 07008KT 9999 OVC021/// 14/12 Q1002", "EGPN 221520Z 00000KT 3000 -DZ VCFG OVC004 13/12 Q1002", "EGPO 221550Z 05013KT 9999 4000NW BR FEW003 BKN008 12/12 Q1003", "EGPU 221550Z AUTO 12006KT 9999 FEW037/// 14/12 Q1001", "EGQK 221550Z AUTO 28003KT 1600 // BKN002/// 12/12 Q1002", "EGQL 221550Z AUTO 24010KT 9999 DZ BKN007/// SCT049/// 13/13 Q1003", "EGQM 221550Z AUTO 19004KT 9999 NCD 15/10 Q1004", "EGQS 221550Z 28003KT 1000 BR BKN002 12/12 Q1002 RMK AMB", "EGSH 221550Z 19004KT 140V230 CAVOK 15/11 Q1011", "EGSS 221550Z AUTO 19009KT 9999 SCT043 16/12 Q1011", "EGSY 221550Z 12004KT 090V160 9999 -RA SCT032 16/14 Q1007", "EGTC 221550Z 19005KT 9999 FEW025 SCT047 16/12 Q1010", "EGTE 221550Z 17011KT 9999 VCSH SCT008 BKN018 16/15 Q1008", "EGTK 221550Z 17004KT 9999 FEW021 15/13 Q1009", "EGUB 221550Z AUTO 16006KT 9999 SCT022/// 16/13 Q1009", "EGUL 221555Z AUTO 18005KT 9999 CLR 16/12 A2982 RMK AO2 SLP101 T01630124 $", "EGUN 221555Z 18006KT 9999 FEW030 FEW060 BKN100 BKN250 16/13 A2982 RMK AO2A SLP101 T01610132 $", "EGUW 221550Z AUTO 19006KT 9999 NCD 16/11 Q1011", "EGVA 221555Z AUTO 15004KT 9999 FEW018 16/15 A2977 RMK AO2 SLP084 T01560154 $", "EGVN 221550Z 14003KT 9999 FEW022 SCT045 BKN250 16/13 Q1009 TEMPO 5000 SHRA SCT020 RMK BLU TEMPO WHT", "EGVO 221550Z AUTO 16009KT 8000 // FEW012/// SCT037/// 16/13 Q1010", "EGVP 221550Z AUTO 17008KT 9999 // SCT009/// OVC150/// 16/14 Q1009", "EGWU 221550Z 18006KT 9999 FEW024 BKN035 BKN180 17/13 Q1010 NOSIG RMK BLU BLU", "EGXC 221550Z 19007KT 9999 FEW025 BKN250 16/11 Q1009 RMK BLU", "EGXE 221550Z AUTO 19009KT 9999 BKN027/// SCT046/// 15/11 Q1006", "EGXP 221550Z AUTO 19006KT 9999 // NCD 15/11 Q1008", "EGXS 221550Z AUTO 20011KT 9999 NCD 15/11 Q1008", "EGXT 221550Z AUTO 18005KT 9999 FEW027/// 15/12 Q1009", "EGXV 221550Z AUTO 20008KT 9999 NCD 16/11 Q1007", "EGXW 221550Z 19010KT 9999 FEW028 BKN250 16/10 Q1009 NOSIG RMK BLU BLU", "EGXZ 221550Z AUTO 19006KT 9999 OVC026/// 16/11 Q1007", "EGYD 221550Z 18008KT 9999 FEW030 BKN250 15/11 Q1009 NOSIG RMK BLU BLU", "EGYE 221550Z AUTO 18009KT //// VV/// ///// Q////", "EGYH 221550Z AUTO 20007KT 9999 OVC210/// 15/12 Q1009", "EGYM 221550Z AUTO 16006KT 9999 NCD 15/11 Q1010", "EGYP 221550Z 26022G32KT 9999 FEW030 BKN240 15/M03 Q1003 NOSIG", "EHAK 221555Z AUTO 23021KT 9999 NCD 14/12 Q1008", "EHAM 221555Z 22010KT 9999 FEW025 16/11 Q1013 NOSIG", "EHBK 221555Z AUTO 23005KT 9999 BKN040 OVC044 17/13 Q1015 NOSIG", "EHDL 221555Z AUTO 23005KT 160V290 9999 FEW027 SCT032 BKN280 16/12 Q1014 BLU", "EHDV 221555Z AUTO 23020KT 200V260 9999 NSC 15/11 Q1009", "EHEH 221555Z AUTO 18003KT 160V230 9999 BKN260 OVC340 16/12 Q1014 BLU NOSIG", "EHFD 221555Z AUTO 23020KT 9999 FEW016/// 14/12 Q1009", "EHFS 221555Z AUTO 19008KT 9999 NSC 17/13 Q1013", "EHGG 221555Z AUTO 23010KT 9999 NSC 15/11 Q1013 NOSIG", "EHGR 221555Z AUTO 20004KT 170V240 9999 BKN250 OVC320 17/12 Q1013 BLU", "EHHW 221555Z AUTO 24010KT 180V280 9999 FEW010/// BKN030/// 15/13 Q1011", "EHJA 221555Z AUTO 22023KT 9999 NSC 15/11 Q1010", "EHJR 221555Z AUTO 23019KT //// // ///////// 16/12 Q1011 RE// W16/H14", "EHKD 221555Z AUTO 22010KT 9999 OVC230 15/12 Q1012 BLU NOSIG", "EHKV 221555Z AUTO 24021KT 9999 FEW021 16/11 Q1011", "EHLE 221555Z AUTO 23007KT 9999 NSC 16/12 Q1013 NOSIG", "EHLW 221608Z AUTO 23008KT 9999 SCT024 BKN240 BKN310 14/11 Q1012 WHT", "EHMA 221555Z AUTO 23016KT 9999 FEW030 15/12 Q1012", "EHMG 221555Z AUTO 24019KT 9999 FEW016 15/11 Q1012", "EHPG 221555Z AUTO 22019KT 9999 NSC 17/13 Q1012", "EHQE 221555Z AUTO /////KT 9999 NSC 16/12 Q1012", "EHRD 221555Z AUTO 21006KT 9999 SCT026 BKN029 BKN034 16/13 Q1013 NOSIG", "EHSA 221555Z AUTO 20014KT 9999 ///////// 16/13 Q1012 W17/H10", "EHSC 221555Z AUTO 22013KT 9999 ///////// 16/14 Q1013 W16/H8", "EHVK 221555Z AUTO 21005KT 190V250 9999 SCT280 16/12 Q1014 BLU", "EHVL 221555Z AUTO 23013KT 9999 OVC300 15/12 Q1012 BLU", "EHWO 221555Z AUTO 19003KT 9999 OVC230 17/12 Q1013 BLU", "EICK 221600Z 19008KT 9000 BKN004 14/14 Q1002 TEMPO 3000", "EIDL 221600Z 21003KT 9999 FEW008 OVC013 13/12 Q0999", "EIDW 221600Z 20007KT 150V230 9999 FEW018 SCT026 BKN030 16/11 Q1003 NOSIG", "EIKN 221530Z 20011KT 150V240 0500 R26/0500 -RA FG VV002 12/12 Q0999 NOSIG", "EIKY 221600Z 18005KT 150V210 9999 BKN036 16/12 Q1001", "EIME 221600Z 21011KT 9999 SCT028 16/12 Q1003", "EINN 221600Z 21008KT 9999 FEW028 SCT035 16/11 Q1001 NOSIG", "EISG 221600Z 26006KT 2200 -RA BKN005 OVC012 13/13 Q0999", "EIWF 221600Z 19012KT 9999 SCT005 14/14 Q1003", "EKAH 221550Z AUTO 14001KT 4600 BR OVC002/// 13/12 Q1011", "EKBI 221550Z AUTO 19006KT 170V230 9999 OVC008/// 14/13 Q1010", "EKCH 221550Z 07002KT 9999 MIFG BKN012 14/12 Q1011 NOSIG", "EKEB 221550Z AUTO 16007KT 9000 -DZ OVC005/// 14/13 Q1010", "EKKA 221550Z AUTO 18004KT 9999 OVC010/// 14/13 Q1010", "EKRK 221550Z AUTO 23001KT 8000 BKN011/// 13/12 Q1011", "EKRN 221550Z AUTO 30010KT 4600 BR OVC003/// 13/12 Q1012", "EKSB 221550Z AUTO 22004KT 190V260 9999 OVC014/// 15/13 Q1011", "EKSP 221550Z 21009KT 9999 BKN007 FEW050TCU 14/13 Q1011", "EKVG 221550Z 04008KT 9999 FEW030 BKN042 07/04 Q1011 RMK WIND SKEID 05008KT", "EKYT 221550Z AUTO 09006KT 9999 -RA OVC009/// 12/11 Q1010", "ELLX 221550Z 16004KT CAVOK 16/13 Q1016 NOSIG", "ENAL 221550Z 02006KT 9999 SCT018 BKN045 08/06 Q1010", "ENAN 221550Z AUTO 27033G46KT 2600 -RA FEW003/// BKN022/// OVC088/// 03/M00 Q0995", "ENAT 221550Z AUTO 28016KT 9999 FEW120/// 03/M04 Q0989 RMK WIND 700FT 27021KT", "ENBN 221550Z AUTO 31008KT 290V360 9999NDV -SHRA FEW018/// BKN026/// BKN035/// 06/04 Q1007", "ENBO 221550Z 30024KT 9999 FEW015 SCT025 BKN040 04/M02 Q1003", "ENBR 221550Z 35004KT CAVOK 11/07 Q1008 NOSIG RMK WIND 1200FT 03007KT", "ENBS 221550Z AUTO 21013KT 2500 -SN ///025/// 00/M01 Q0986", "ENBV 221550Z AUTO 25012KT 9999 -RA SCT019 BKN023 OVC029 01/00 Q0987", "ENCN 221550Z 05005KT 9999 DZ FEW002 BKN017 08/06 Q1011", "ENDR 221550Z AUTO 35013KT 8000NDV -SHRA OVC012/// 06/04 Q1009 W///S3", "ENDU 221550Z 23006KT 190V350 9999 -SHSNRA FEW020 SCT030 BKN050 02/M03 Q0995 RMK WIND 1100FT 24017G29KT WIND 2200FT 25028G39KT", "ENEV 221550Z 25007KT 210V280 9999 SCT036 BKN049 03/M02 Q0999 RMK WIND 1400FT 24017KT", "ENFB 221550Z AUTO 12007KT 4100NDV BR OVC033/// 11/09 Q1010 W///S3", "ENFL 221550Z 33005KT CAVOK 09/05 Q1009", "ENGC 221550Z 09006KT 9999 FEW006 BKN025 10/09 Q1010 W09/S4", "ENGM 221550Z 03002KT 9999 FEW017 BKN021 05/03 Q1010 NOSIG", "ENHD 221550Z 21002KT 8000 -RADZ BKN023 11/09 Q1008", "ENHE 221550Z 34022KT 9999 BKN025 04/01 Q1009 W///S4", "ENHF 221550Z AUTO 25017KT 9999 SCT026/// BKN034/// 03/M01 Q0987 RMK WIND 1254FT 25024KT", "ENHK 221550Z AUTO 25018G29KT 220V280 9999 FEW038 SCT055 04/M03 Q0988", "ENHM 221550Z AUTO VRB08G22KT 9000NDV FEW007/// BKN010/// BKN013/// 11/11 Q1007 W12/S/", "ENJS 221550Z 12025KT 9000 OVC005 11/11 Q1006 W11/S/", "ENKB 221550Z AUTO 27003KT 9999 SCT014/// OVC018/// 07/04 Q1011 RMK WIND 745FT 29006KT", "ENKR 221550Z AUTO 21012KT 5000 -SN VV019 01/M00 Q0988 RMK WIND 731FT 23023KT", "ENLA 221550Z AUTO 19019KT 9999NDV FEW018/// SCT033/// BKN079/// 12/12 Q1005 W///S4", "ENLE 221550Z 21019KT 9999 FEW025 13/11 Q1006 W13/S4", "ENMH 221550Z AUTO 24004KT 9999 -RA NCD 02/01 Q0987", "ENML 221550Z VRB02KT 9999 FEW020 BKN060 08/05 Q1010", "ENMS 221550Z AUTO VRB02KT 9999 -DZ BKN025/// OVC032/// 04/03 Q1005 RMK WIND 412FT VRB03KT", "ENNA 221550Z AUTO 29007G22KT 230V350 9999 FEW016/// BKN130/// 02/M00 Q0989 RMK WIND 1800FT 29022KT", "ENNE 221550Z 32023KT 9999 BKN030 05/M01 Q1008 W///S4", "ENNM 221550Z AUTO 25009KT 4300 DZRABR FEW002 SCT006 OVC021 06/05 Q1008", "ENOA 221550Z 06014KT 9999 SCT022 BKN040 11/09 Q1009 W///S4", "ENOL 221550Z 29009KT 9999 -SHRA SCT012 BKN015 07/06 Q1010 TEMPO SHRA BKN014 SCT020TCU", "ENOV 221550Z AUTO 00000KT 9999 OVC057/// 04/03 Q1010 RMK WIND RWY24 VRB01KT WIND 2090FT 33004KT", "ENQA 221550Z AUTO 04009KT 9999NDV OVC030/// 10/08 Q1009 W18/S3", "ENQR 221550Z AUTO 16007KT 9999NDV BKN015/// OVC024/// 10/09 Q1009 W11/S4", "ENRA 221550Z AUTO 28014KT 9999 FEW059/// 03/01 Q1003 REDZ", "ENRM 221550Z AUTO 33006KT 290V360 9999 DZ FEW010 SCT012 BKN029 06/05 Q1008", "ENRO 221550Z AUTO VRB02KT 9999 NCD M01/M02 Q1008", "ENRS 221550Z AUTO 29022KT 9999 BKN041 04/M02 Q1004", "ENRY 221550Z AUTO VRB01KT 9999NDV SCT110/// 07/04 Q1011", "ENSB 221550Z 11012KT 9999 FEW020 SCT040 M05/M12 Q1001 RMK WIND 1400FT 08015KT", "ENSD 221550Z AUTO VRB01KT 9999 FEW072/// 05/01 Q1010 RMK WIND RWY26 00000KT WIND 1140FT 07003KT", "ENSE 221550Z AUTO 13003KT 090V150 9999NDV OVC017/// 11/10 Q1010 W///S3", "ENSF 221550Z AUTO 11006KT 9999NDV OVC034/// 14/09 Q1010 W///S3", "ENSK 221550Z AUTO 28020KT 9999 -RA FEW011/// SCT031/// BKN070/// 02/01 Q0999", "ENSL 221550Z AUTO 15018KT 0200NDV FG NCD 12/12 Q1006 W10/S5", "ENSR 221550Z AUTO 20008KT 140V260 9999 FEW053/// SCT120/// 04/M04 Q0990 RMK WIND RWY32 19006KT WIND 1118FT 23017G27KT", "ENSS 221550Z AUTO 24012KT 9999 -RA NCD 01/00 Q0987 RMK WIND 0500FT 24022KT", "ENTC 221550Z 22018KT 9999 -SHRA FEW008 BKN021 03/M01 Q0992 RMK WIND 2600FT 24036G50KT", "ENTO 221550Z VRB02KT CAVOK 07/03 Q1010 NOSIG", "ENUG 221550Z AUTO 23037KT 9999NDV FEW024/// BKN120/// BKN180/// 05/00 Q0983 W///S6", "ENVA 221550Z 00000KT 9999 SCT015 BKN030 04/02 Q1010 RMK WIND 670FT 29012KT", "ENVD 221550Z AUTO 23018KT 9999 VV016 02/00 Q0987 REDZ", "ENWV 221550Z AUTO 22019KT 9999NDV NCD 13/13 Q1007 W///S4", "ENZV 221550Z 01002KT 9999 FEW009 OVC020 10/10 Q1008 RERA", "EPBY 221600Z 25008KT 9999 OVC002 13/12 Q1012", "EPGD 221600Z 28008KT 4600 BR OVC003 12/11 Q1011", "EPKK 221600Z 21004KT 1600 -RA BR FEW009 BKN013 10/10 Q1015", "EPKT 221600Z 22006KT 9999 FEW033 BKN039 11/09 Q1015", "EPLB 221600Z 24007KT 8000 -RA OVC018 11/11 Q1014", "EPLL 221600Z 22005KT 2400 -RA BR BKN004 OVC005 12/12 Q1013", "EPMO 221600Z 22005KT 2100 -RADZ BR OVC003 12/12 Q1012", "EPPO 221600Z 27007KT 7000 OVC004 14/13 Q1013", "EPRZ 221600Z 21008KT 8000 -RA NSC 10/09 Q1015", "EPSC 221600Z VRB01KT 0100 R31/0375D FG NSC 13/12 Q1013", "EPSY 221600Z 23006KT 1600 -DZ BR BKN003 OVC007 11/11 Q1011", "EPWA 221600Z 24003KT 210V270 8000 -RA BKN008 12/11 Q1012 NOSIG", "EPWR 221600Z 31006KT 9999 -RA BKN012 BKN045 13/13 Q1015", "EPZG 221600Z 21003KT 2900 BR BKN010 OVC013 14/14 Q1014", "ESCF 221550Z AUTO 27004KT 9999 FEW006/// SCT010/// BKN013/// OVC032/// 09/08 Q1009", "ESCM 221550Z AUTO 00000KT 9000 BKN015/// OVC026/// 07/07 Q1009", "ESDF 221550Z AUTO 29005KT 9999 OVC020/// 12/12 Q1010", "ESGG 221550Z 22003KT 9999 BKN017 09/08 Q1010", "ESGJ 221550Z AUTO 29002KT 9999 OVC005/// 08/08 Q1010", "ESGP 221550Z AUTO 00000KT 9999 OVC024/// 10/08 Q1011", "ESGT 221550Z AUTO 09002KT 2500 BR SCT002/// OVC004/// 08/08 Q1011", "ESIA 221550Z AUTO 28003KT 260V320 9999 BKN008/// OVC010/// 09/08 Q1010", "ESIB 221550Z AUTO 33003KT 9999 BKN006/// OVC010/// 09/08 Q1010", "ESKM 221550Z AUTO 26005KT 9999 NCD 04/02 Q1008", "ESKN 221550Z 12002KT 2000 BR OVC003 09/09 Q1008", "ESKS 221550Z AUTO 33003KT 9999 NCD 01/M01 Q1008", "ESMK 221550Z AUTO 29006KT 240V330 9999 BKN013/// OVC017/// 13/11 Q1011", "ESMQ 221550Z AUTO 26003KT 9000 OVC013/// 12/11 Q1010", "ESMS 221550Z 23005KT 4500 BR SCT009 12/12 Q1011", "ESMT 221550Z AUTO 28003KT 260V320 9999 R01///// R19/P2000N OVC005/// 10/10 Q1011", "ESMV 221550Z AUTO 30004KT 260V340 8000 OVC005/// 08/// Q1010", "ESMX 221550Z AUTO 28006KT 8000 BKN003/// OVC005/// 10/10 Q1010", "ESND 221550Z AUTO 25003KT 9999 NCD 01/M02 Q1007", "ESNG 221520Z AUTO 24010KT 9999 FEW043/// SCT059/// 01/// Q0995", "ESNK 221550Z AUTO 00000KT 9999 NCD 01/M00 Q1006", "ESNL 221550Z AUTO VRB02KT 9999 NCD 01/M01 Q1003", "ESNN 221550Z AUTO VRB02KT 9999 NCD 02/M01 Q1007", "ESNO 221550Z AUTO 25009KT 9999 NCD 02/M00 Q1005", "ESNQ 221550Z AUTO 34008KT 9999 -SN FEW010/// SCT018/// BKN037/// 01/M00 Q0994", "ESNS 221550Z AUTO 24007KT 210V270 9999 BKN200/// 03/00 Q1002", "ESNU 221550Z 21004KT CAVOK 01/M00 Q1004", "ESNV 221550Z AUTO 22005KT 190V260 9999 NCD ///// Q1003", "ESNX 221550Z AUTO 14005KT 100V180 9999 NCD 03/00 Q0999", "ESNZ 221550Z AUTO 30014KT 9999 OVC022/// 05/02 Q1007", "ESOE 221550Z AUTO 33002KT 5000 BR OVC013/// 09/08 Q1009", "ESOH 221550Z AUTO VRB02KT 9999 OVC021/// 06/05 Q1009", "ESOK 221550Z AUTO 29003KT 9999 OVC008/// ///// Q1010", "ESOW 221550Z AUTO 02002KT 2000 BR OVC004/// 08/07 Q1009 REDZ", "ESPA 221550Z 24008KT CAVOK 03/00 Q0999", "ESPE 221550Z AUTO 28009KT 190V360 9999 NCD 03/M00 Q0999", "ESSA 221550Z 08003KT 1600 DZ VV004 07/07 Q1008 NOSIG", "ESSB 221550Z AUTO 14002KT 3800 BR OVC008/// 09/08 Q1009 REDZ", "ESSD 221550Z AUTO 27004KT 9999 NCD 04/03 Q1008", "ESSL 221550Z 28006KT 9999 FEW007 BKN013 09/08 Q1009", "ESSP 221550Z AUTO 27005KT 9999 BKN006/// OVC012/// 09/09 Q1009", "ESST 221550Z AUTO 29005KT 9999 BKN024/// 06/03 Q1010", "ESSV 221550Z AUTO 25005KT 1800 +DZ VV014 10/10 Q1009", "ESTA 221550Z AUTO 28006KT 9999 OVC008/// 12/10 Q1011", "ESTL 221550Z AUTO 30004KT 9999 OVC004/// 12/12 Q1011", "ESUP 221550Z AUTO 22007KT //// NCD 00/M00 Q0994", "ESUT 221550Z AUTO VRB05KT 9999 BKN022/// BKN057/// 02/02 Q1001", "ETAD 221555Z AUTO 19006KT 9999 CLR 16/12 A2999 RMK AO2 SLP142 T01560120 $", "ETAR 221555Z AUTO 00000KT 9999 CLR 17/16 A3001 RMK AO2 VIS 3200 RWY08 SLP163 T01680163 $", "ETEB 221555Z AUTO 21003KT 9999 CLR 16/10 A3006 RMK AO2 SLP189 T01580101 $", "ETGG 221520Z AUTO 24009KT 9999 // ////// 15/14 Q1011 ///", "ETHA 221520Z AUTO 28009KT 9999 // ////// 16/09 Q1019 ///", "ETHB 221520Z AUTO 26011KT 9999 // ////// 15/12 Q1014 ///", "ETHC 221520Z AUTO 24008KT 6000 // ////// 17/12 Q1013 ///", "ETHF 221520Z 22009KT 9999 FEW026 SCT300 17/12 Q1016 BLU+", "ETHL 221520Z AUTO 23004KT 6000 // ////// 17/11 Q1019 ///", "ETHN 221520Z 25008KT 9999 FEW025TCU 16/11 Q1018 BLU+", "ETHS 221520Z AUTO 26010KT 8000 // ////// 17/11 Q1013 ///", "ETIC 221555Z AUTO 00000KT 9999 CLR 15/11 A3004 RMK AO2 SLP173 T01480108 $", "ETIH 221555Z AUTO 00000KT 9999 CLR 13/11 A3007 RMK AO2 SLP184 T01280107 $", "ETIK 221555Z AUTO 28004KT 9999 BKN065 OVC085 17/11 A3006 RMK AO2 SLP177 T01660107 $", "ETMN 221548Z 23008KT 2800 -DZRA BR FEW008 BKN013 15/14 Q1012 YLO", "ETNH 221520Z AUTO 23005KT 0150 // ////// 16/13 Q1011 ///", "ETNL 221520Z 17002KT 9999 FEW080 SCT200 15/13 Q1012 BLU+", "ETNN 221520Z 05002KT 9999 FEW028 SCT040 18/12 Q1015 BLU+", "ETNS 221520Z AUTO 23007KT 7000 // ////// 15/13 Q1011 ///", "ETNT 221520Z AUTO ///07KT //// // ////// 16/15 Q1012 ///", "ETNW 221520Z 25011KT 9999 VCSH FEW032 BKN041 17/12 Q1013 BLU", "ETOU 221555Z AUTO 22003KT 9999 FEW070 M A3001 RMK AO2 SLPNO ALSTG ESTMD $", "ETSB 221520Z AUTO 22008KT //// // ////// 15/11 Q1016 ///", "ETSH 221520Z 24006KT 9999 FEW020 17/13 Q1014 BLU+", "ETSI 221520Z AUTO 23003KT 2800 // ////// 17/12 Q1018 ///", "ETSL 221520Z AUTO 24004KT 9999 // ////// 17/10 Q1019 ///", "ETSN 221520Z 22005KT 9999 FEW027 17/13 Q1018 BLU+", "ETWM 221520Z AUTO 21005KT //// // ////// 16/12 Q1013 ///", "EVLA 221550Z AUTO 14003KT 9999 -RA OVC016/// 09/06 Q1010", "EVRA 221550Z 15002KT CAVOK 06/04 Q1011 NOSIG", "EVVA 221550Z AUTO 16003KT 9999 FEW018 OVC048 08/07 Q1010", "EYKA 221550Z 16003KT 9999 BKN018 07/04 Q1011", "EYPA 221550Z 15004KT 9999 BKN019 09/07 Q1011", "EYSA 221550Z 14004KT CAVOK 06/04 Q1011 NOSIG", "EYVI 221550Z 17008KT 9999 OVC015 07/04 Q1012 NOSIG", "FABL 221600Z 17011KT 9999 FEW035 SCT070 25/12 Q1020 NOSIG", "FACT 221600Z 22016KT CAVOK 22/15 Q1015 NOSIG", "FAEL 221600Z 06009KT 030V090 CAVOK 20/14 Q1023", "FAGG 221600Z 11013KT 9999 FEW010 BKN030 18/16 Q1019", "FAKN 221600Z 14005KT 2000 -RA BR SCT002 BKN006 19/18 Q1023 TEMPO 3000", "FALA 221600Z 13011KT 9999 FEW040 FEW050TCU 20/15 Q1023 NOSIG", "FALE 221600Z 18004KT 9999 FEW021 SCT028 BKN038 19/16 Q1023 NOSIG", "FALW 221500Z AUTO 20014KT //// // ////// 27/08 Q1013", "FAMM 221600Z 26005KT 9999 FEW045CB SCT100 29/09 Q1019 NOSIG", "FAOR 221600Z 16004KT 120V190 CAVOK 17/13 Q1025 NOSIG", "FAPE 221600Z 10014KT 9999 SCT009 19/17 Q1021 NOSIG", "FAPP 221600Z 17003KT 9999 SCT035 BKN100 20/15 Q1023 NOSIG", "FAUP 221600Z 18003KT 9999 FEW040 SCT050CB 32/10 Q1014 NOSIG", "FBKE 221600Z 12005KT 9999 FEW030CB SCT070 33/05 Q1014", "FBMN 221500Z 33003KT 9999 SCT030 FEW035CB 36/10 Q1013", "FBPM 221600Z 12009KT CAVOK 32/03 Q1016", "FBSK 221600Z 24004KT 200V300 9999 FEW030 FEW035CB SCT070 32/09 Q1016 NOSIG", "FCBB 221500Z 13007KT 090V160 9999 FEW021 FEW025TCU FEW030CB 34/21 Q1009 NOSIG", "FCPP 221500Z 21012KT 9999 SCT015 28/24 Q1008 NOSIG", "FDBB 221600Z AUTO 21011KT //// // ////// 20/18 Q1019", "FDMY 221500Z AUTO 29002KT //// // ////// 19/18 Q1031", "FDOT 221500Z AUTO 22002KT //// // ////// 22/21 Q1021", "FDPP 221500Z AUTO /////KT //// // ////// 16/M03 Q1020", "FDSK 221500Z 23015KT 7000 -RA SCT015 OVC025 20/16 Q1021 NOSIG", "FDST 221600Z AUTO 07011KT //// // ////// 16/15 Q1020", "FGSL 221600Z 24008KT 9999 SCT008 FEW020CB 28/25 Q1010 RETS NOSI G", "FIMP 221600Z 08006KT 9999 SCT017 23/19 Q1022", "FJDG 221555Z 14011KT 9999 FEW017 SCT100 SCT250 28/25 A2977 RMK SLP146 T02750251", "FKKL 221500Z /////KT 9999 FEW040 35/18 Q1010", "FMCH 221500Z VRB06KT 9999 FEW023 27/19 Q1017 NOSIG", "FMCZ 221600Z AUTO 18005KT 9999 BKN038 26/21 Q1017 NOSIG", "FMEE 221600Z AUTO 13008KT 9999 SCT082/// BKN140/// 23/18 Q1021 NOSIG", "FMEP 221600Z AUTO 16005KT 9999 BKN074 24/20 Q1021", "FMMI 221600Z 10010KT 9999 FEW017CB SCT020 21/13 Q1023 TEMPO TS", "FMMT 221600Z 05004KT 010V080 9999 SCT017 24/20 Q1019 NOSIG", "FMNA 221500Z 14012KT 9999 FEW020 25/15 Q1016", "FMNM 221600Z 32007KT CAVOK 26/16 Q1015 NOSIG", "FMNN 221500Z 25004KT 9999 FEW020 SCT100 27/// Q1015", "FMSD 221600Z 08023G33KT 9999 FEW016 24/20 Q1015", "FNCA 221500Z 20008KT 9999 FEW015 29/24 Q1009", "FNCT 221500Z 26006KT 9999 BKN020 27/22 Q1009", "FNHU 221500Z 00000KT 9999 FEW020 24/16 Q1020", "FNLU 221600Z 23008KT 9999 FEW020 27/22 Q1009", "FNSO 221500Z 24012KT 5000 FU SCT010 SCT050 28/24 Q////", "FNUG 221500Z 36004KT 6000 -TSRA SCT020 FEW025CB OVC080 21/19 Q1013", "FOGM 221500Z /////KT 9999 BKN015 FEW020CB 31/24 Q////", "FOGO 221500Z /////KT 9999 SCT011 26/22 Q////", "FOGR 221500Z /////KT 9999 SCT013TCU FEW020CB 34/24 Q////", "FOOB 221500Z /////KT 9999 SCT011 BKN026 25/22 Q1008", "FOOG 221500Z 24012KT 9999 FEW010 FEW020CB 28/24 Q1009", "FOOL 221500Z 26007KT 230V290 9999 FEW013 FEW020CB 30/24 Q1009 NOSIG", "FOON 221500Z /////KT 9999 BKN011 SCT020CB 31/24 Q1010", "FQBR 221600Z 10011KT 9999 FEW018 SCT070 27/23 Q1014", "FQCH 221600Z 16018KT 9999 FEW020 27/19 Q1019 NOSIG", "FQIN 221500Z 18008KT 9999 FEW020 27/20 Q1016", "FQLC 221500Z 10013KT 8000 NSC 27/06 Q1023 RMK FU", "FQMA 221600Z 21016KT 9999 DZ BKN014 OVC020 21/19 Q1019 NOSIG", "FQNP 221500Z 08011KT 9999 FEW020 SCT020 SCT/// 31/13 Q1015", "FQPB 221600Z 05011KT 9999 FEW020 SCT/// 25/20 Q1017", "FQQL 221600Z 12012KT CAVOK 27/23 Q1014", "FQTT 221600Z 09006KT 9999 FEW020 36/11 Q1011", "FQVL 221500Z 07010KT 9999 SCT020 BKN025 28/14 Q1014", "FQXA 221600Z 14007KT 110V170 9999 BKN025 24/21 Q1018", "FSIA 221600Z 13010KT 9999 SCT020 27/23 Q1015 NOSIG", "FTTA 221500Z 04005KT 9999 SCT040 FEW050CB 32/22 Q1009", "FTTC 221500Z 00000KT 9999 FEW040 36/// Q1011", "FTTJ 221600Z 20003KT 6000 NSC 33/20 Q1009 NOSIG", "FWKI 221535Z 11008KT CAVOK 26/10 Q1019 NOSIG", "FYGF 221500Z AUTO 08005KT //// // ////// 32/07 Q1017", "FYKM 221500Z AUTO 07006KT //// // ////// 35/06 Q1012", "FYLZ 221500Z AUTO 20024KT //// // ////// 22/13 Q1010", "FYOA 221500Z AUTO 17003KT //// // ////// 43/20 Q1010", "FYRU 221500Z AUTO 08003KT //// // ////// 36/08 Q1015", "FYWB 221500Z 27007KT CAVOK 21/12 Q1011", "FYWE 221500Z 26004KT 240V300 9999 FEW045CB SCT050TCU 30/03 Q1020", "FYWH 221500Z 00000KT 9999 FEW035CB SCT040 29/09 Q1020 BECMG -TSRA", "FZAA 221600Z 09012KT 7000 TS SCT024 FEW030CB 32/21 Q1009 BECMG TSRA", "GABS 221600Z 25005KT 220V290 9999 FEW020 FEW030CB 32/21 Q1012 NOSIG", "GAKD 221600Z 02004KT 9999 FEW020 FEW033CB 36/24 Q1010", "GAMB 221600Z 28006KT 9999 FEW027 32/19 Q1011", "GANR 221500Z VRB04KT 9999 SCT030 37/16 Q1011", "GBYD 221500Z 27005KT 9999 BKN013 32/25 Q1011", "GCFV 221600Z 05010KT CAVOK 24/21 Q1016", "GCLA 221600Z 04014KT 9999 BKN022 24/20 Q1017", "GCLP 221600Z 03020KT 9999 FEW025 26/21 Q1016 NOSIG", "GCRR 221600Z 01010KT 320V040 9999 FEW025 28/17 Q1016", "GCTS 221600Z 16005KT 120V200 9999 FEW021 25/19 Q1016 NOSIG", "GCXO 221600Z 31012KT 9999 SCT010 20/18 Q1019 NOSIG", "GECE 221600Z AUTO 17004KT 130V190 CAVOK 23/16 Q1015", "GEML 221600Z 30012KT 260V340 9999 FEW030 26/19 Q1014", "GGOV 221600Z 18004KT 120V250 9999 FEW014 30/21 Q1011 NOSIG", "GLRB 221530Z 22008KT 9999 BKN018 FEW026CB 30/25 Q1009 NOSIG RMK CB/NE-E", "GMAD 221600Z 28017KT CAVOK 32/03 Q1014 NOSIG", "GMAT 221600Z 33012KT CAVOK 29/10 Q0991 NOSIG", "GMFF 221600Z 34013KT 9999 SCT033 SCT200 30/05 Q1017 NOSIG", "GMFK 221600Z 19009KT 160V250 CAVOK 27/M01 Q1024 NOSIG", "GMFO 221600Z 17015KT 8000 NSC 33/01 Q1017 NOSIG", "GMME 221600Z 27005KT 240V320 5000 NSC 23/18 Q1015 NOSIG", "GMMI 221600Z VRB03KT 7000 NSC 27/17 Q1016 NOSIG", "GMMN 221600Z 32007KT 270V360 CAVOK 27/13 Q1016 NOSIG", "GMMW 221600Z 15009KT 110V210 6000 NSC 36/03 Q1014 NOSIG", "GMMX 221600Z 29012KT 260V330 9999 FEW080 SCT200 32/09 Q1016 NOSIG", "GMMZ 221600Z 13006KT CAVOK 28/M03 Q1022 NOSIG", "GMTA 221600Z VRB04KT 9999 FEW014 FEW033CB SCT100 BKN200 23/18 Q1014 NOSIG", "GMTN 221600Z 10005KT 070V130 9999 FEW040 BKN200 23/18 Q1015 NOSIG", "GMTT 221600Z 27004KT 230V290 6000 NSC 23/15 Q1015 NOSIG", "GOBD 221600Z 25010KT 9999 FEW018 30/25 Q1011 NOSIG", "GOGG 221600Z 08004KT CAVOK 32/27 Q1011", "GOGK 221600Z 36004KT 9999 FEW016 34/25 Q1008", "GOGS 221600Z 34006KT 9999 FEW015 30/25 Q1011", "GOOD 221600Z 28004KT 9999 FEW013 37/25 Q1010", "GOOG 221600Z 15004KT CAVOK 40/20 Q1007", "GOOK 221600Z 22006KT 9999 BKN016 35/27 Q1011", "GOOY 221500Z 36006KT 9999 FEW015 31/26 Q1011", "GOSM 221600Z 26002KT CAVOK 38/21 Q1008", "GOSP 221600Z 28002KT 9999 TS FEW013 FEW030CB 39/24 Q1008", "GOSS 221600Z 28008KT 230V310 9999 FEW013 SCT016TCU 32/26 Q1010", "GOTK 221600Z 14004KT 9999 SCT016 33/23 Q1010", "GOTT 221600Z 25006KT 9999 FEW013 35/25 Q1008", "GQNO 221600Z 31013KT 8000 NSC 33/20 Q1009 NOSIG", "GQPP 221600Z 34013KT 6000 NSC 23/18 Q1012 NOSIG", "GUCY 221600Z 24008KT 9999 SCT015 BKN110 29/24 Q1010 NOSIG", "GVAC 221600Z 05015KT 9999 FEW013 29/21 Q1013 NOSIG", "GVBA 221600Z 03012KT 9999 SCT014 29/23 Q1013 NOSIG", "GVNP 221600Z 03013KT CAVOK 31/20 Q1012 NOSIG", "GVSV 221600Z 05028KT 9999 FEW020 29/21 Q1012 NOSIG", "HAAB 221600Z 08014KT 9999 SCT025 19/09 Q1027NOSIG", "HDAM 221600Z 070/06KT CAVOK 30/23 Q1013", "HEAT 221500Z 32014KT CAVOK 27/09 Q1018 NOSIG", "HEBA 221500Z 31008KT 9999 FEW020 23/13 Q1017 NOSIG", "HEBL 221500Z 35013KT CAVOK 31/07 Q1015 NOSIG", "HECA 221600Z 35006KT 9999 FEW025 26/12 Q1017 NOSIG", "HECP 221500Z 30010KT 9999 SCT025 25/14 Q1017 NOSIG", "HEGN 221500Z 35006KT CAVOK 28/16 Q1014 NOSIG", "HEIS 221600Z 35008KT CAVOK 26/17 Q1017", "HELX 221500Z 32007KT CAVOK 29/11 Q1015 NOSIG", "HEMA 221500Z 36011KT CAVOK 27/20 Q1014 NOSIG", "HEMM 221500Z 31011KT 9999 FEW020 22/13 Q1020 NOSIG", "HEPS 221500Z 35005KT CAVOK 25/18 Q1017 NOSIG", "HESG 221500Z 34013KT CAVOK 28/10 Q1015 NOSIG", "HESH 221500Z 04005KT CAVOK 29/17 Q1014 NOSIG", "HESN 221500Z 35011KT CAVOK 31/06 Q1015 NOSIG", "HESW 221600Z 33008KT 9999 SCT025 25/08 Q1019", "HETR 221600Z 31008KT CAVOK 27/17 Q1014", "HKEL 221500Z 15007KT 9999 FEW022CB SCT270 23/08 Q1023", "HKEM 221500Z 07006KT 9999 FEW024TCU BKN220 25/09", "HKGA 221500Z 18007KT 9999 FEW030 SCT290 34/16 Q1011", "HKJK 221530Z 09010KT 9999 FEW032 SCT250 25/09 Q1021 NOSIG", "HKKT 221500Z 00000KT 9999 FEW019 BKN090 21/14 RESH", "HKME 221500Z 17003KT CAVOK 25/08", "HKML 221500Z 17010KT 9999 FEW023 26/22 Q1014", "HKMO 221500Z 18009KT 9999 FEW025 BKN060 27/21 Q1014 NOSIG", "HKNI 221500Z 13006KT 9999 FEW025TCU SCT090 24/10", "HKNK 221500Z 00000KT 9999 BKN025 25/07", "HKNW 221500Z 10009KT 9999 FEW026 BKN300 25/07 Q1021", "HKWJ 221500Z 00000KT 9999 FEW035 32/16 Q1010", "HRYR 221600Z 03007KT 9999 SCT025 25/12 Q1018 NOSIG", "HRZA 221500Z VRB02KT 010V130 9999 BKN025 24/17 Q1018 NOSIG", "HTAR 221500Z 10012KT 9999 FEW042 25/10 Q1020 NOSIG", "HTBU 221500Z 12007KT 9999 FEW022 FEW024CB SCT120 25/19 Q1015", "HTDA 221500Z 10006KT 9999 SCT010 BKN080 24/21 Q1016 NOSIG", "HTDO 221500Z 09020KT 9999 FEW029 28/12 Q1017 NOSIG", "HTIB 221500Z 09008KT CAVOK 33/M07 Q1013", "HTIR 221500Z 06011KT 9999 FEW023 SCT250 24/11 Q1020", "HTJN 221500Z AUTO 04908KT 011V077 //// 28/07 Q1019", "HTKA 221500Z 27008KT 9999 FEW027 30/14 Q1012 NOSIG", "HTKJ 221500Z 09010KT 9999 SCT044 30/08 Q1016 NOSIG", "HTMG 221500Z 06010KT 9999 SCT026 28/16 Q1015", "HTMP 221500Z 00000KT 9999 SCT026 FEW027CB 32/07 Q1015", "HTMT 221500Z 09015KT 9999 FEW022 26/20 Q1016 NOSIG", "HTMU 221500Z 32010KT 9999 FEW020 FEW022CB 25/19 Q1016", "HTMW 221500Z 32017KT 9999 FEW025 FEW026CB SCT090 26/18 Q1013 NO SIG", "HTSO 221500Z 04009KT 9999 SKC 29/07 Q1018", "HTSU 221500Z 09007KT 9999 FEW023 26/06 Q1021", "HTTB 221500Z 10015KT CAVOK 32/02 Q1015 NOSIG", "HTZA 221500Z 12010KT 9999 SCT016 BKN080 26/21 Q1015 NOSIG", "HUEN 221530Z 16004KT 9999 FEW023 FEW025CB 24/19 Q1015 NOSIG", "K04V 221555Z AUTO 00000KT 10SM 08/M06 A2997 RMK AO2", "K04W 221555Z AUTO 11008KT 10SM CLR 17/04 A2959 RMK AO2", "K05U 221555Z AUTO 20006KT 10SM 14/M05 A2960 RMK A01", "K06C 221555Z AUTO 19011G14KT 10SM CLR 19/12 A2982 RMK AO2 T01910120", "K06D 221555Z AUTO 02007KT 10SM SCT050 OVC090 06/05 A2961 RMK AO2", "K08D 221555Z AUTO 06007KT 10SM CLR 05/05 A2957 RMK AO2", "K0A0 221555Z AUTO 15007KT 10SM CLR 17/09 A2999 RMK AO2", "K0A9 221555Z AUTO 00000KT 10SM CLR 17/02 A3023 RMK A01", "K0CO 221555Z AUTO 30014G42KT 10SM CLR 00/M14 A2996 RMK AO2", "K0E0 221555Z AUTO 27010KT 10SM OVC041 17/06 A3004 RMK AO2 T01710056 TSNO", "K0F2 221555Z AUTO 19016G23KT 10SM CLR 24/11 A2979 RMK AO2 T02420111", "K0J4 221558Z AUTO VRB03KT 10SM CLR 22/05 A3023 RMK AO2 SLP233 T02220050 $", "K0R0 221555Z AUTO VRB06G12KT 10SM CLR 24/14 A3019 RMK AO2", "K0R4 221555Z AUTO 15012KT 10SM CLR 25/15 A3009 RMK AO2 T02460151", "K0S9 221555Z AUTO 29004KT 10SM BKN030 BKN038 OVC070 09/07 A2973 RMK AO2", "K0VG 221555Z AUTO 00000KT 10SM CLR 16/01 A3025 RMK AO2", "K10G 221555Z AUTO 21010KT 10SM CLR 16/03 A3013 RMK AO2", "K11R 221555Z AUTO 19016G19KT 10SM CLR 26/17 A3000 RMK AO2 T02620170", "K12N 221554Z AUTO 21005KT 18/04 A3027 RMK AO1 SLP251 T01830039", "K13K 221555Z AUTO 18019G28KT 10SM CLR 24/09 A2962 RMK AO2 T02360091", "K14Y 221555Z AUTO 13013G20KT 10SM CLR 15/02 A2952 RMK AO2", "K15M 221555Z AUTO 17010KT 10SM CLR 20/14 A3013 RMK AO2 T02040144 $", "K17J 221555Z AUTO 07006KT 10SM CLR 21/01 A3021 RMK AO2 T02120014", "K18A 221555Z AUTO 09003KT 10SM CLR 19/02 A3025 RMK AO2 T01900017", "K18H 221555Z AUTO VRB06G13KT 070V190 10SM CLR 26/13 A3008 RMK A01", "K19S 221555Z AUTO 29014KT 10SM CLR 23/M04 A2960 RMK AO2 T02341039", "K1A6 221555Z AUTO 16007KT 10SM CLR 17/02 A3023 RMK AO2 T01670021", "K1A9 221555Z AUTO 00000KT 10SM CLR 19/10 A3021 RMK AO2 T01920096", "K1AM 221555Z AUTO 09003KT 9SM -RA OVC027 05/03 A2940 RMK AO2 SLP967 P0005 T00460025 $", "K1AW 221556Z AUTO 21011KT 10SM CLR 18/M06 A2960 RMK AO2 SLP977 T01841064 $", "K1BM 221555Z AUTO 05007KT 4SM -RA FEW002 BKN010 OVC017 04/04 A2941 RMK AO2 CIG 004V011 SLP972 P0005 T00440043 $", "K1BW 221556Z AUTO 22016KT 10SM CLR 19/M07 A2959 RMK AO2 SLP967 T01861069 $", "K1CM 221555Z AUTO 03007KT 9SM -RA SCT007 BKN015 OVC020 04/04 A2939 RMK AO2 CIG 006V015 SLP963 P0006 T00420039 $", "K1CW 221556Z AUTO 26014KT 10SM CLR 23/M10 A2954 RMK AO2 SLP948 T02301103 $", "K1D1 221555Z AUTO 14013KT 10SM CLR 12/03 A2945 RMK AO2", "K1DM 221555Z AUTO 06007KT 4SM -RA OVC002 05/05 A2941 RMK AO2 SLP974 P0005 T00500047 $", "K1DW 221556Z AUTO 24014KT 10SM CLR 19/M08 A2962 RMK AO2 SLP979 T01891083 $", "K1EW 221556Z AUTO 36012KT 10SM CLR 19/M09 A2960 RMK AO2 SLP978 T01931089 $", "K1F0 221555Z AUTO 18015G20KT 10SM CLR 23/13 A2978 RMK AO2 T02340134", "K1FM 221555Z AUTO 05008KT 6SM -PL FEW007 OVC014 02/02 A2941 RMK AO2 RAE1455PLB1455E12SNB12E27PLB27 SLP974 P0007 T00190018 $", "K1FW 221556Z AUTO 24012KT 10SM CLR 20/M06 A2958 RMK AO2 SLP969 T01991059 $", "K1H2 221555Z AUTO 17008G15KT 10SM CLR 20/12 A2995 RMK AO2 T02020119", "K1HM 221555Z AUTO 18012KT 10SM -RA BKN014 OVC023 03/02 A2940 RMK AO2 CIG 014V025 BKN V SCT SLP973 P0005 T00290016 $", "K1HW 221556Z AUTO 26013KT 10SM CLR 21/M06 A2953 RMK AO2 SLP971 T02121065 $", "K1IW 221556Z AUTO 23008KT 10SM CLR 20/M06 A2955 RMK AO2 SLP974 T02001058 $", "K1JM 221555Z AUTO 04008KT 8SM -RA BKN006 OVC011 03/03 A2942 RMK AO2 DZB10E25RAB25 CIG 003V006 SLP980 P0002 T00320029 $", "K1JW 221556Z AUTO 25008KT 10SM CLR 20/M09 A2945 RMK AO2 SLP926 T01951087 $", "K1K1 221555Z AUTO 20018G27KT 10SM CLR 22/06 A2958 RMK AO2 T02170063", "K1KM 221555Z AUTO 11008KT 5SM RA OVC003 06/06 A2936 RMK AO2 SLP949 P0007 T00590058 $", "K1KW 221556Z AUTO 23010KT 10SM CLR 20/M05 A2957 RMK AO2 SLP974 T02041055 $", "K1LM 221555Z AUTO 13007KT 10SM -RA OVC010 06/05 A2937 RMK AO2 SLP950 P0006 T00550049 $", "K1M4 221556Z AUTO 21006KT 10SM CLR 19/13 A3019 RMK AO2 SLP213 T01940128", "K1M5 221555Z AUTO 18011KT 10SM CLR 20/10 A3010 RMK A01", "K1MM 221555Z AUTO 05007KT 10SM -RA OVC007 05/04 A2937 RMK AO2 CIG 007V010 SLP958 P0002 T00520039 $", "K1MW 221555Z AUTO 00000KT 10SM M 17/M07 A2537 RMK AO2 PRESRR SLP523 T01651066 FZRANO $", "K1NM 221555Z AUTO 07003KT 7SM -RA OVC003 06/06 A2935 RMK AO2 SLP953 P0004 T00610060 $", "K1OM 221555Z AUTO 06008KT 1/2SM -RA VV003 05/05 A2939 RMK AO2 SLP966 P0006 T00520049 RVRNO $", "K1P1 221555Z AUTO 00000KT 10SM CLR 13/02 A3025 RMK AO2 T01290019", "K1R7 221555Z AUTO 14009KT 10SM CLR 23/20 A3016 RMK AO2 PWINO", "K1R8 221555Z AUTO 16007KT 10SM CLR 22/09 A3019 RMK AO2", "K1S3 221600Z AUTO 09008KT 10SM 08/08 A2946 ", "K1U7 221555Z AUTO 17006G11KT 9SM SCT030 BKN035 OVC041 07/07 A2956 RMK A01", "K1V4 221554Z AUTO 14/01 A3020 RMK AO1 SLP230 T01390011 PNO", "K1V6 221555Z AUTO 29018KT 10SM CLR 20/M03 A2968 RMK AO2", "K1YT 221555Z AUTO 00000KT 10SM BKN080 06/01 A2960 RMK AO2 SLP032 T00620013 $", "K20U 221555Z AUTO 11010KT 10SM OVC007 06/06 A2954 RMK AO2", "K20V 221555Z AUTO 22015G27KT 10SM CLR 12/M03 A2981 RMK AO2", "K21D 221555Z AUTO 14006KT 10SM CLR 13/03 A2959 RMK AO2", "K22N 221555Z AUTO 00000KT 10SM CLR 14/01 A3028 RMK AO2", "K24A 221555Z AUTO 00000KT 10SM CLR 13/02 A3027 RMK AO2 LTG DSNT SE T01270016", "K24J 221555Z AUTO 04009KT 10SM 21/02 A3019 RMK A01", "K27K 221555Z AUTO 20011KT 10SM SCT060 20/07 A3012 RMK AO1", "K28J 221555Z AUTO 05007G16KT 020V080 9SM CLR 21/12 A3015 RMK AO2 TSNO", "K2A0 221555Z AUTO VRB04KT 10SM CLR 17/04 A3022 RMK A01", "K2D5 221555Z AUTO 07016KT 8SM CLR 11/02 A2945 RMK AO2", "K2DP 221555Z AUTO 04013KT 10SM CLR 22/16 A3018 RMK AO2 SLPNO T02160159 $", "K2G2 221555Z AUTO 20004G11KT 10SM CLR 18/03 A3016 RMK A01", "K2G9 221555Z AUTO 23006KT 10SM CLR 15/01 A3023 RMK AO2", "K2J3 221555Z AUTO 09007KT 10SM CLR 20/03 A3023 RMK AO2 T02020026", "K2J5 221555Z AUTO 02007KT 10SM CLR 20/01 A3023 RMK AO2 T01980006", "K2M2 221555Z AUTO 16007G13KT 140V200 10SM CLR 19/12 A3014 RMK A01", "K2P2 221555Z AUTO 18009KT 10SM CLR 12/11 A2973 RMK AO2 T01210105", "K2R9 221555Z AUTO 18013G22KT 10SM SCT025 SCT035 26/19 A2999 RMK AO2", "K2V5 221555Z AUTO 28004KT 10SM CLR 18/M05 A2958 RMK AO2", "K2W6 221559Z AUTO 00000KT 10SM CLR 18/08 A3027 RMK AO1", "K2WX 221556Z AUTO VRB05KT 07/05 A2948 RMK AO1 SLP983 T00720050", "K33N 221555Z AUTO 14006KT 10SM CLR 19/06 A3027 RMK A01", "K33V 221555Z AUTO 19019G28KT 10SM CLR 10/M05 A2978 RMK AO1", "K35A 221555Z AUTO 00000KT 10SM CLR 18/02 A3028 RMK A02 LTG DSNT S T01830019", "K36K 221550Z AUTO 29016KT 10SM CLR 22/M07 A2962 RMK AO2", "K38S 221600Z AUTO 00000KT 10SM 02/02 A2944 ", "K3AU 221555Z AUTO 18016G24KT 10SM CLR 22/05 A2957 RMK AO2", "K3D2 221555Z AUTO 17008KT 10SM CLR 15/10 A2972 RMK AO2 T01470095", "K3F3 221555Z AUTO 18014G20KT 10SM SCT029 25/17 A3005 RMK AO2 T02470166", "K3I2 221555Z AUTO 19005KT 10SM CLR 20/05 A3018 RMK AO2 T02030050", "K3J7 221555Z AUTO 00000KT 10SM CLR 18/01 A3024 RMK AO2", "K3K3 221555Z AUTO 27014KT 10SM CLR 18/M03 A2961 RMK AO2", "K3LF 221555Z AUTO 16016G22KT 10SM CLR 19/11 A2988 RMK AO2 T01880106", "K3N8 221555Z AUTO 11005KT 10SM CLR 12/02 A2954 RMK AO2 T01160015", "K3S8 221555Z AUTO 03003KT 9SM -RA SCT036 BKN043 OVC060 09/07 A2995 RMK AO2 P0005", "K3U3 221600Z AUTO 00000KT 10SM 02/02 A2941 ", "K40B 221516Z AUTO 17008G12KT 14/03 A3014 RMK AO1 SLP218 T01390032 51004", "K40U 221555Z AUTO 15013G19KT 10SM CLR 13/M04 A2962 RMK AO2 T01281040", "K41U 221555Z AUTO 20015G23KT 10SM CLR 17/M03 A2967 RMK AO1 T01651029", "K42J 221555Z AUTO 02008G16KT 10SM CLR 21/08 A3015 RMK A01", "K46D 221555Z AUTO 04012KT 10SM FEW120 09/04 A2955 RMK AO2", "K46U 221555Z AUTO 00000KT 7SM SCT012 BKN025 BKN031 07/06 A2954 RMK A01 P0003", "K48A 221555Z AUTO 05004KT 10SM CLR 20/01 A3023 RMK AO2 T01970009", "K49A 221555Z AUTO 00000KT 10SM CLR 19/01 A3026 RMK AO2 T01890007", "K4A6 221555Z AUTO 24006KT 10SM CLR 19/09 A3020 RMK AO2", "K4A9 221555Z AUTO 22007KT 190V260 10SM CLR 20/10 A3020 RMK AO2 T01970095", "K4BM 221555Z AUTO 18022G34KT 10SM CLR 03/M09 A2994 RMK AO2", "K4F2 221555Z AUTO 20013G23KT 10SM SCT032 25/16 A2999 RMK AO2 T02500161", "K4I3 221555Z AUTO 17009KT 10SM CLR 18/07 A3012 RMK AO2", "K4M9 221555Z AUTO 19021G27KT 10SM CLR 23/17 A2996 RMK AO2 PWINO", "K4MR 221555Z AUTO 26020G27KT 10SM CLR 22/07 A2985 RMK AO2 SLP036 T02150073 $", "K4O4 221555Z AUTO 18017G26KT 5SM HZ SCT025 23/16 A2990 RMK AO2", "K4S1 221555Z AUTO 05013G23KT 5SM RA SCT022 SCT027 SCT034 09/08 A2995 RMK AO2", "K4S2 221555Z AUTO 00000KT 10SM SCT070 BKN100 08/05 A2971 RMK AO2", "K4V0 221555Z AUTO 20021G29KT 10SM CLR 17/M02 A2967 RMK AO2 T01681025", "K4V1 221550Z AUTO 27024G30KT 10SM CLR 19/M04 A2976 RMK AO2 T01911042", "K54A 221555Z AUTO 04008KT 10SM CLR 25/16 A3008 RMK AO2", "K57C 221555Z AUTO 18006KT 10SM CLR 19/09 A2978 RMK AO2 T01920085", "K5C1 221555Z AUTO 20009KT 10SM BKN009 19/17 A3000 RMK AO1", "K5H4 221555Z AUTO 06013KT 10SM CLR 07/M05 A2957 RMK AO2", "K5M9 221555Z AUTO 19005G16KT 170V230 10SM CLR 22/13 A3002 RMK AO2 T02200125", "K5R8 221555Z AUTO 17011G20KT 10SM SCT035 BKN045 BKN055 26/16 A3006 RMK AO2 T02580164", "K5SM 221535Z AUTO 23014G26KT 190V250 10SM CLR 01/M05 A2997 RMK AO2", "K5T9 221550Z AUTO 14007KT 100V180 10SM BKN011 21/19 A2994 RMK A01", "K63S 221555Z AUTO 00000KT M1/4SM FG VV000 02/02 A2956 RMK A01", "K65S 221555Z AUTO 00000KT 3SM UP BR BKN014 OVC019 04/03 A2951 RMK AO2", "K66R 221555Z AUTO 17010G14KT 10SM BKN037 27/16 A3001 RMK AO2 T02670160", "K6A2 221555Z AUTO 00000KT 10SM CLR 18/01 A3025 RMK AO2", "K6B0 221555Z AUTO 20008KT 10SM CLR 16/02 A3021 RMK AO2 T01570018", "K6B9 221555Z AUTO VRB06G11KT CLR 18/02 A3017 RMK AO2", "K6I2 221555Z AUTO 17010KT 10SM CLR 20/08 A3012 RMK AO2", "K6L4 221555Z AUTO 19005KT 10SM VCTS CLR 18/02 A3020 RMK AO2 LTG DSNT N", "K6P9 221555Z AUTO 21013G21KT 10SM CLR 24/11 A2986 RMK AO2 T02440105", "K6R6 221551Z AUTO 12004KT 19/13 A2997 RMK AO1 SLP124 T01890133", "K6S0 221555Z AUTO 06005KT 1 3/4SM BR OVC002 05/05 A2938 RMK A01 P0002", "K6S2 221555Z AUTO VRB03KT 6SM -RA BR FEW029 SCT036 BKN070 09/09 A2989 RMK AO2 P0001", "K6S8 221555Z AUTO 05009KT 10SM 08/06 A2937 RMK A01 LAUREL", "K74V 221555Z AUTO 11003KT 10SM 11/M05 A2967 RMK AO2", "K79S 221600Z AUTO 33006KT 04/04 A2947 ", "K7BM 221555Z AUTO 21016G32KT 180V250 10SM CLR 08/M11 A2990 RMK AO2", "K7L2 221555Z AUTO 04012KT 10SM CLR 10/03 A2946 RMK AO2", "K7N0 221556Z AUTO VRB05KT 10SM FEW031 24/16 A3017 RMK AO2 SLP214 T02440156 PNO $", "K7W4 221555Z AUTO 00000KT 10SM CLR 19/05 A3025 RMK AO1 T01850045", "K81R 221555Z AUTO 18012G17KT 10SM CLR 23/14 A2992 RMK AO2 T02350145", "K82C 221555Z AUTO 18006KT 10SM CLR 19/06 A2967 RMK AO2 T01920062", "K82V 221555Z AUTO 23007KT 10SM CLR 16/M06 A2963 RMK AO2", "K8A0 221555Z AUTO 21007KT 10SM CLR 20/10 A3020 RMK AO2", "K8A3 221555Z AUTO 20008KT 10SM CLR 21/09 A3015 RMK A01", "K8D3 221556Z AUTO 14011KT 12/02 A2944 RMK AO1 SLP968 T01170017", "K8T6 221555Z AUTO 16015KT 10SM CLR 26/19 A2998 RMK AO2", "K96D 221555Z AUTO 04004KT 5SM -RA BKN045 07/07 A2962 RMK AO2", "K9A5 221555Z AUTO 23003KT 10SM CLR 18/04 A3023 RMK AO2 T01840042", "K9D7 221555Z AUTO 07008KT 10SM FEW110 07/06 A2961 RMK AO2 TSNO", "K9L2 221555Z AUTO 22017G21KT 9SM CLR 17/09 A2977 RMK AO2 SLP064 T01730087 $", "K9MN 221555Z AUTO 16005KT 10SM CLR 16/04 A2960 RMK AO1 T01570042", "K9V9 221555Z AUTO 26009G15KT 10SM CLR 13/02 A2945 RMK AO2 T01300019", "KAAA 221555Z AUTO 18015G21KT 10SM CLR 21/12 A2984 RMK AO2 T02110115", "KAAF 221553Z AUTO 04010KT 10SM CLR 23/05 A3018 RMK AO2 SLP221 T02280050", "KAAO 221554Z AUTO 18016G27KT 10SM CLR 23/08 A2957 RMK AO2 PK WND 19028/1542 SLP999 T02280078", "KAAS 221555Z AUTO 20011G14KT 10SM CLR 20/08 A3017 RMK AO1", "KAAT 221555Z AUTO 28009KT 10SM SCT024 SCT041 OVC055 04/01 A2977 RMK AO2 SLP062 T00440011", "KABE 221551Z 00000KT 10SM CLR 15/06 A3027 RMK AO2 SLP252 T01500056", "KABH 221555Z AUTO 23007KT 10SM CLR 17/M06 A2971 RMK AO2 SLP021 T01701061", "KABI 221552Z 22016G26KT 10SM CLR 24/10 A2985 RMK AO2 PK WND 21027/1522 SLP084 T02440100", "KABQ 221552Z 15003KT 10SM SCT045 BKN250 16/07 A3000 RMK AO2 SLP100 T01610067", "KABR 221553Z AUTO 10005KT 9SM CLR 14/02 A2942 RMK AO2 SLP962 T01390022", "KABY 221553Z AUTO 04008KT 10SM CLR 21/01 A3023 RMK AO2 SLP237 T02110011", "KACB 221555Z AUTO 15005KT 10SM CLR 19/09 A2981 RMK AO2 T01870085", "KACJ 221555Z AUTO VRB05KT 9SM CLR 20/M00 A3021 RMK AO2 T02021005", "KACK 221553Z 13005KT 10SM CLR 18/11 A3031 RMK AO2 SLP262 T01780111", "KACP 221555Z AUTO 16007KT 120V190 10SM CLR 26/16 A3007 RMK AO2", "KACQ 221555Z AUTO 14006KT 10SM CLR 15/04 A2958 RMK AO2", "KACT 221551Z 19020G26KT 10SM CLR 25/17 A2991 RMK AO2 PK WND 18028/1530 SLP122 T02500167 $", "KACV 221553Z AUTO 36007KT 10SM SCT019 13/09 A2994 RMK AO2 SLP143 T01280094", "KACY 221554Z 15007KT 10SM CLR 18/07 A3028 RMK AO2 SLP253 T01830067", "KADC 221556Z AUTO 08006KT 10SM CLR 13/02 A2953 RMK AO2 TSNO", "KADF 221556Z AUTO 20013G21KT 10SM FEW032 24/15 A2998 RMK AO2 SLP149 T02390150", "KADG 221553Z AUTO 23012KT 10SM CLR 19/08 A3000 RMK AO2 SLP157 T01890078", "KADH 221555Z AUTO 20014G21KT 10SM CLR 23/12 A2975 RMK AO2", "KADS 221547Z 17015G20KT 10SM SKC 23/15 A2987", "KADT 221555Z AUTO 12003KT 10SM CLR 21/M02 A2959 RMK AO2 T02101017", "KADU 221555Z AUTO 19014G22KT 10SM SCT020 SCT039 BKN070 21/06 A2957 RMK AO2 PWINO", "KADW 221555Z AUTO 23003KT 10SM CLR 18/07 A3024 RMK AO2 SLP247 T01770071 $", "KAEG 221547Z 21013KT 10SM CLR 16/06 A3001", "KAEJ 221555Z AUTO 08010G15KT 030V110 10SM 13/M08 A2985 RMK AO2 T01281085", "KAEL 221555Z AUTO 17006KT 10SM CLR 17/06 A2956 RMK AO2", "KAEX 221553Z 17015G23KT 10SM CLR 27/16 A3005 RMK AO2 SLP177 T02670161", "KAFF 221603Z AUTO 27012G19KT 10SM CLR 17/M10 A2970 RMK AO2 WSHFT 01 SLP977", "KAFJ 221556Z AUTO 18008KT 10SM CLR 18/04 A3021 RMK AO2 SLP230 T01780039", "KAFK 221555Z AUTO 20013G18KT 10SM CLR 21/08 A2957 RMK AO2 T02140075", "KAFN 221552Z AUTO 20008KT 10SM CLR 16/02 A3027 RMK AO2 SLP261 T01560022", "KAFO 221555Z AUTO 16015G23KT 10SM SCT036 BKN047 OVC085 07/M02 A2956 RMK AO2", "KAFP 221555Z AUTO 00000KT 10SM CLR 19/01 A3025 RMK AO2 T01850008", "KAFW 221553Z 19020G27KT 10SM SCT250 23/15 A2982 RMK AO2 PK WND 18028/1522 SLP087 T02330150", "KAGC 221553Z 19006KT 10SM CLR 17/03 A3018 RMK AO2 SLP224 T01720028", "KAGI 221555Z AUTO 14012KT 10SM CLR 25/14 A3010 RMK AO2 T02520141", "KAGO 221555Z AUTO 19016G23KT 10SM CLR 24/15 A2998 RMK A01", "KAGS 221553Z 04003KT 10SM CLR 19/03 A3023 RMK AO2 SLP235 T01940028", "KAHN 221551Z AUTO 11003KT 10SM CLR 18/03 A3024 RMK AO2 SLP241 T01830028", "KAHQ 221555Z AUTO 18010KT 10SM CLR 16/04 A2954 RMK AO2 T01630039", "KAIA 221553Z AUTO 26025G33KT 10SM CLR 24/M04 A2951 RMK AO2 PK WND 25033/1548 SLP957 T02441044", "KAID 221535Z AUTO 21009G17KT 10SM CLR 19/07 A3001 RMK AO2 T01880065", "KAIG 221555Z AUTO 15006KT 10SM CLR 14/05 A2971 RMK AO2 T01400047", "KAIK 221555Z AUTO 05005KT 10SM CLR 20/00 A3024 RMK AO2 T01961003", "KAIO 221555Z AUTO 20017KT 9SM CLR 21/09 A2956 RMK AO2", "KAIT 221555Z AUTO 10006KT 10SM CLR 13/03 A2958 RMK AO2", "KAIZ 221556Z AUTO 20013G23KT 170V230 10SM CLR 26/09 RMK AO2 SLPNO T02560089 $", "KAJG 221555Z AUTO 21012KT 10SM CLR 21/13 A2997 RMK AO2 T02050126", "KAJO 221556Z AUTO 27005KT 10SM OVC029 19/16 A2986 RMK AO2 SLP108 T01890156", "KAJR 221555Z AUTO 00000KT 10SM CLR 19/00 A3024 RMK AO2 T01861001", "KAJZ 221555Z AUTO 04006KT 10SM SCT075 SCT110 16/M02 A2982 RMK AO2 T01641017 PWINO", "KAKH 221554Z AUTO VRB03KT 10SM CLR 19/03 A3024 RMK AO2 SLP241 T01890028", "KAKO 221553Z AUTO 19006KT 10SM CLR 20/M06 A2962 RMK AO2 SLP985 T02001061", "KAKQ 221554Z AUTO VRB05KT 10SM CLR 21/06 A3025 RMK AO2 SLP245 T02060061", "KAKR 221554Z AUTO 19011KT 10SM CLR 18/04 A3012 RMK AO2 SLP196 T01830039", "KALB 221551Z 16008KT 10SM CLR 14/03 A3025 RMK AO2 SLP245 T01390028", "KALI 221553Z AUTO 18013G21KT 10SM SCT024 SCT033 26/19 A2998 RMK AO2 SLP148 T02610194", "KALK 221556Z AUTO 23013G18KT 10SM CLR 22/12 A3003 RMK AO2 SLP083 T02170122", "KALM 221555Z AUTO 20005KT 10SM FEW080 22/11 A2999 RMK AO2", "KALN 221550Z 17013KT 10SM SCT110 22/11 A2986", "KALO 221554Z 20009G19KT 10SM CLR 22/07 A2963 RMK AO2 SLP034 T02170067", "KALS 221552Z AUTO 19012KT 10SM CLR 13/M01 A2993 RMK AO2 SLP074 T01331011", "KALW 221553Z 26009KT 4SM -RA HZ BKN005 OVC011 06/06 A2962 RMK AO2 CIG 003V007 SLP036 P0011 T00610056 $", "KALX 221555Z AUTO 00000KT 10SM CLR 20/10 A3022 RMK AO2 T01960100", "KAMA 221553Z 25022G31KT 10SM CLR 22/06 A2975 RMK AO2 PK WND 25031/1550 SLP030 T02220056", "KAMG 221553Z AUTO 04007KT 350V120 10SM CLR 21/03 A3020 RMK AO2 SLP227 T02110028", "KAMN 221555Z AUTO 16011G15KT 10SM CLR 19/06 A2990 RMK AO2 T01900059", "KAMW 221553Z AUTO 19014KT 10SM CLR 22/08 A2960 RMK AO2 SLP018 T02220078", "KANB 221553Z AUTO 00000KT 10SM CLR 19/09 A3022 RMK AO2 SLP232 T01940094", "KAND 221556Z AUTO VRB03KT 10SM CLR 19/01 A3025 RMK AO2 SLP239 T01940006", "KANE 221545Z 13009G15KT 10SM FEW150 BKN250 16/03 A2956", "KANJ 221555Z AUTO 10004KT 10SM CLR 12/08 A2982 RMK AO2 SLP100 T01220083", "KANK 221550Z AUTO 21016G26KT 10SM CLR 13/M06 A2992 RMK AO1 T01301057", "KANQ 221555Z AUTO 19009G14KT 10SM CLR 19/09 A2996 RMK AO2", "KANW 221555Z AUTO 28006KT 10SM CLR 19/M06 A2950 RMK AO2 T01861057", "KAOH 221553Z AUTO 19013G18KT 10SM CLR 19/08 A3003 RMK AO2 SLP168 T01940078", "KAOO 221553Z AUTO VRB04KT 10SM CLR 17/02 A3023 RMK AO2 SLP239 T01720017", "KAPA 221553Z 22013KT 10SM FEW080 FEW120 17/M06 A2967 RMK AO2 SLP994 T01721061", "KAPC 221554Z 25008KT 10SM CLR 16/13 A2977 RMK AO2 SLP071 T01610128", "KAPF 221553Z 03007KT 10SM CLR 26/18 A3006 RMK AO2 SLP179 T02560178 $", "KAPN 221554Z AUTO 21009KT 10SM CLR 18/07 A2986 RMK AO2 SLP110 T01830067", "KAPS 221558Z AUTO 19006KT 10SM SCT034 24/15 A3016 RMK AO2", "KAQO 221555Z AUTO 19013G18KT 10SM CLR 25/14 A2993 RMK AO2", "KAQP 221553Z AUTO 16014G17KT 10SM SCT090 14/01 A2945 RMK AO2", "KAQV 221557Z AUTO VRB06KT 10SM CLR 26/16 A3003 RMK AO2 SLP165 T02610156", "KAQW 221552Z AUTO 11006KT 10SM CLR 17/ A3024 RMK AO2 SLP245 T0167 $", "KAQX 221555Z AUTO VRB05KT 10SM CLR 21/03 A3020 RMK AO2", "KARA 221553Z 17012KT 10SM CLR 27/15 A3010 RMK AO2 SLP191 T02670150", "KARB 221553Z 19011KT 10SM CLR 18/07 A2998 RMK AO2 SLP151 T01830067", "KARG 221556Z AUTO 20018G24KT 10SM CLR 21/15 A2995 RMK AO2 PK WND 20028/1507 SLP143 T02110150", "KARM 221555Z AUTO 18016G22KT 10SM SCT047 27/14 A3001 RMK AO2 T02740139 TSNO", "KARR 221552Z 17015KT 9SM CLR 19/09 A2982 RMK AO2 SLP096 T01890089", "KART 221556Z AUTO 20012G17KT 10SM CLR 20/03 A3011 RMK AO2 SLP195 T02000028", "KARW 221555Z AUTO 36009KT 10SM CLR 20/05 A3019 RMK AO2", "KASD 221553Z AUTO 18009KT 10SM FEW033 25/16 A3016 RMK AO2 SLP211 T02500156", "KASE 221553Z 00000KT 10SM CLR 10/M05 A2983 RMK AO2 SLP029 T01001050", "KASG 221548Z 17012G25KT 10SM CLR 21/15 A2982", "KASH 221556Z 14005KT 10SM CLR 18/06 A3027 RMK AO2 SLP255 T01780056 $", "KASJ 221555Z AUTO 05005KT 10SM SCT045 19/07 A3024 RMK AO2 T01900068", "KASL 221555Z AUTO 00000KT 10SM CLR 24/16 A2996 RMK AO2 T02430157 TSNO $", "KASN 221555Z AUTO 17003KT 10SM CLR 21/11 A3022 RMK AO2 T02060110", "KAST 221555Z AUTO 30004KT 10SM FEW015 SCT029 BKN038 09/08 A2978 RMK AO2 RAB03E16 SLP083 P0000 T00940078", "KASW 221555Z AUTO 17007KT 150V220 10SM CLR 19/08 A2995 RMK AO2 T01950091", "KASX 221553Z AUTO 36008KT 10SM CLR 12/06 A2967 RMK AO2 SLP053 T01170056", "KATA 221555Z AUTO 19014G19KT 160V220 10SM FEW030 24/17 A2995 RMK AO2 SLP040 T02420167 $", "KATL 221552Z 16004KT 10SM FEW250 19/02 A3024 RMK AO2 SLP240 T01940017", "KATP 221555Z AUTO 12010KT 10SM FEW041 24/15 A3013 RMK A01", "KATS 221555Z AUTO 23011KT 10SM CLR 21/12 A2991 RMK AO2", "KATT 221551Z AUTO 18007G19KT 140V210 10SM SCT019 24/18 A2997 RMK AO2 SLP140 T02390178 $", "KATW 221545Z 19011KT 10SM CLR 17/07 A2970", "KATY 221553Z AUTO 16013KT 10SM CLR 16/01 A2941 RMK AO2 SLP960 T01560006", "KAUG 221553Z AUTO 15005KT 10SM CLR 15/05 A3026 RMK AO2 SLP248 T01500050", "KAUH 221555Z AUTO 00000KT 10SM CLR 17/02 A2952 RMK AO2 T01740020", "KAUM 221557Z AUTO 18011G17KT 10SM CLR 18/06 A2958 RMK AO2", "KAUN 221555Z AUTO 15005G12KT 9SM BKN012 OVC070 14/11 A2977 RMK A01", "KAUO 221556Z AUTO 14003KT 10SM CLR 19/05 A3025 RMK AO2 SLP264 T01940050", "KAUS 221553Z 19016G23KT 10SM FEW018 FEW025 FEW250 24/18 A2996 RMK AO2 PK WND 20030/1503 SLP138 T02440178", "KAUW 221554Z AUTO 15005KT 10SM CLR 15/04 A2968 RMK AO2 SLP056 T01500044", "KAVC 221555Z AUTO 00000KT 10SM CLR 19/06 A3030 RMK AO2 T01890056", "KAVK 221555Z AUTO 22015KT 10SM CLR 22/02 A2956 RMK AO2 PWINO", "KAVL 221554Z 00000KT 10SM CLR 13/01 A3026 RMK AO2 SLP246 T01330011", "KAVP 221554Z AUTO A3025 RMK AO2 SLPNO PWINO FZRANO", "KAVQ 221555Z AUTO 12005KT 10SM CLR 24/12 A2986 RMK AO2 T02370115", "KAVX 221610Z AUTO 24010KT 9SM OVC015 14/11 A2990 RMK AO2 T01440111", "KAWG 221555Z AUTO 21017G22KT 10SM CLR 23/09 A2968 RMK AO2", "KAWM 221553Z AUTO 20015G22KT 10SM CLR 23/14 A3003 RMK AO2 SLP165 T02280139", "KAWO 221608Z AUTO 00000KT 1SM BR OVC002 07/07 A2975 RMK AO2", "KAXA 221555Z AUTO 19018KT 8SM CLR 18/07 A2953 RMK A01", "KAXH 221555Z AUTO 19007KT 10SM CLR 27/15 A3003 RMK AO2 T02730153", "KAXN 221553Z AUTO 13014G22KT 10SM CLR 14/03 A2951 RMK AO2 PK WND 12029/1519 SLP996 T01440028", "KAXS 221555Z AUTO 23016G22KT 10SM CLR 26/08 A2969 RMK AO2 T02600075", "KAXV 221555Z AUTO 18012KT 10SM CLR 18/06 A3004 RMK AO2", "KAXX 221555Z AUTO 26014G28KT 10SM CLR 10/01 A3003 RMK AO2 T00980005", "KAYS 221555Z AUTO 07010KT 10SM CLR 21/04 A3020 RMK AO2 T02080035", "KAZC 221555Z AUTO 14007KT 10SM CLR 18/03 A2984 RMK AO2", "KAZE 221555Z AUTO 09007KT 10SM CLR 20/02 A3021 RMK AO2 T02000015", "KAZO 221553Z 18014KT 10SM CLR 19/09 A2993 RMK AO2 SLP133 T01890089 $", "KBAB 221555Z AUTO 15007KT 10SM CLR 17/12 A2975 RMK AO2 SLP077 T01660119 $", "KBAC 221555Z AUTO 07010KT 9SM CLR 09/02 A2949 RMK AO2", "KBAD 221555Z AUTO 19014KT 10SM CLR 24/15 A2999 RMK AO2 SLP158 T02440145", "KBAF 221553Z 00000KT 10SM CLR 16/05 A3027 RMK AO2 SLP253 T01560050", "KBAK 221545Z 19014G20KT 10SM CLR 19/08 A3003", "KBAM 221555Z AUTO 33025G37KT 4SM SCT012 BKN026 OVC039 05/03 A2966 RMK AO1", "KBAN 221601Z AUTO 24020G38KT 6SM HZ FEW032 09/M01 A2967 RMK AO2 PK WND 24038/1555 T00941006 $", "KBAX 221555Z AUTO 18010G16KT 10SM CLR 17/06 A2993 RMK AO2 T01660061", "KBAZ 221551Z 20014G22KT 10SM FEW023 25/18 A2997 RMK AO2 PK WND 21026/1500 SLP142 T02500178", "KBBB 221515Z AUTO 16012G17KT 10SM CLR 13/03 A2948 RMK AO2", "KBBD 221555Z AUTO 19013KT 10SM CLR 23/13 A2991 RMK AO2", "KBBG 221545Z 20008G16KT 10SM CLR 22/10 A2985", "KBBP 221555Z AUTO 00000KT 10SM CLR 20/06 A3022 RMK AO2", "KBBW 221553Z AUTO 17003KT 10SM CLR 23/M03 A2951 RMK AO2 SLP984 T02331028", "KBCB 221555Z AUTO 00000KT 10SM CLR 14/04 A3029 RMK AO2 T01400036", "KBCE 221553Z AUTO 13016KT 10SM CLR 08/01 A2987 RMK AO2 SLP029 T00830006", "KBCK 221555Z AUTO 16003KT 10SM CLR 17/05 A2965 RMK AO2 T01660046", "KBCR 221558Z AUTO 09004KT 10SM CLR 22/05 A3022 RMK AO2 SLP218 T02220050 $", "KBCT 221553Z 02015G20KT 10SM FEW050 29/18 A3004", "KBDE 221553Z AUTO 07004KT 10SM FEW085 BKN110 10/04 A2965 RMK AO2 SLP046 T01000039", "KBDG 221555Z AUTO 18010G18KT 10SM 12/03 A2996 RMK AO1 T01180028", "KBDH 221555Z AUTO 12011KT 10SM CLR 15/03 A2953 RMK AO2", "KBDL 221551Z 19006KT 10SM FEW250 18/04 A3027 RMK AO2 SLP252 T01780044", "KBDN 221555Z AUTO 00000KT 10SM FEW090 04/02 A2972 RMK AO2", "KBDR 221552Z VRB05KT 10SM CLR 16/11 A3029 RMK AO2 SLP256 T01560106", "KBDU 221555Z AUTO 16005KT 10SM CLR 21/M05 A2962 RMK AO2", "KBEA 221555Z AUTO 18017G21KT 10SM SCT028 SCT033 26/17 A2998 RMK AO2 T02610170", "KBEC 221555Z AUTO 18018G24KT 10SM CLR 22/08 A2957 RMK AO2 T02240075", "KBED 221551Z 22010KT 10SM CLR 18/06 A3026 RMK AO2 SLP260 T01780056", "KBEH 221553Z AUTO 17015G20KT 10SM CLR 19/09 A2987 RMK AO2 SLP113 T01940094", "KBFD 221553Z AUTO 18006KT 10SM CLR 17/01 A3018 RMK AO2 SLP215 T01720011", "KBFF 221553Z AUTO 22012KT 10SM CLR 23/M06 A2953 RMK AO2 SLP955 T02331061", "KBFI 221553Z 31003KT 4SM RA BR BKN008 BKN015 OVC036 08/08 A2974 RMK AO2 RAB04 SLP072 P0009 T00830078", "KBFL 221554Z 29009KT 7SM CLR 18/08 A2979 RMK AO2 SLP083 T01830078", "KBFM 221553Z 13005KT 10SM CLR 22/11 A3021 RMK AO2 SLP229 T02170111", "KBGD 221551Z AUTO 23017G24KT 10SM CLR 23/05 A2971 RMK AO2 PK WND 22026/1536 SLP022 T02280050", "KBGE 221555Z AUTO 07010KT 030V090 10SM CLR 22/03 A3021 RMK AO2 T02160025", "KBGF 221555Z AUTO 19008KT 10SM CLR 20/10 A3017 RMK A01", "KBGM 221553Z 25007KT 10SM CLR 16/02 A3022 RMK AO2 SLP234 T01560017", "KBGR 221553Z 16010KT 10SM CLR 16/08 A3024 RMK AO2 SLP241 T01610083", "KBHB 221556Z AUTO 19014KT 10SM CLR 16/10 A3027 RMK AO2 SLP252 T01560100 PNO $", "KBHC 221555Z AUTO 07010KT 10SM CLR A3021 RMK AO2", "KBHK 221556Z AUTO 09010KT 5SM BR BKN006 BKN070 06/04 A2952 RMK AO2 T00610044", "KBHM 221553Z COR 14004KT 10SM FEW250 20/11 A3022 RMK AO2 SLP227 T02000106", "KBID 221556Z AUTO 21005KT 10SM CLR 17/09 A3031 RMK AO2 SLP263 T01670089", "KBIE 221555Z AUTO 19011KT 10SM CLR 20/07 A2956 RMK AO2 T01980066", "KBIF 221555Z AUTO 17007KT 10SM CLR 25/11 A2998 RMK AO2 SLP093 T02470113 $", "KBIH 221556Z AUTO 27007KT 10SM CLR 16/M03 A2963 RMK AO2 SLP000 T01611033", "KBIJ 221555Z AUTO 12003KT 10SM CLR 21/01 A3023 RMK AO2", "KBIL 221553Z 05007KT 10SM OVC100 08/06 A2938 RMK AO2 SLP948 T00780056", "KBIS 221552Z 02010KT 10SM BKN120 09/04 A2952 RMK AO2 SLP000 T00940044", "KBIV 221553Z AUTO 18010G18KT 10SM CLR 20/08 A2987 RMK AO2 SLP112 T02000083", "KBIX 221555Z AUTO 09006KT 10SM CLR 23/14 A3015 RMK AO2 SLP213 T02340138", "KBJC 221545Z 25009KT 10SM SKC 20/M08 A2966", "KBJI 221555Z AUTO 00000KT 10SM CLR 10/03 A2960 RMK AO2 T00960026", "KBJJ 221556Z AUTO 21011KT 10SM CLR 16/06 A3012 RMK AO2 SLP199 T01610056", "KBKB 221552Z AUTO VRB05KT 10SM FEW040 25/17 A3003 RMK AO2 SLP194 T02500167 TSNO $", "KBKD 221555Z AUTO 22013G21KT 10SM CLR 27/09 A2982 RMK AO2 T02700094", "KBKE 221553Z AUTO 31006KT 10SM OVC070 04/01 A2957 RMK AO2 SLP017 T00440011", "KBKF 221558Z 19014KT 10SM CLR 17/M06 A2965 RMK AO2A SLP087 T01721060", "KBKL 221553Z 16015KT 10SM CLR 19/06 A3006 RMK AO2 SLP179 T01940061", "KBKS 221555Z AUTO 16013KT 9SM FEW022 26/21 A2997 RMK AO2 SLP111 T02600206 $", "KBKT 221555Z AUTO 00000KT 10SM CLR 19/04 A3025 RMK AO1 T01850041", "KBKV 221553Z 03008KT 10SM CLR 24/14 A3013 RMK AO2 SLP201 T02390139", "KBKW 221551Z AUTO 27005KT 10SM CLR 17/02 A3024 RMK AO2 SLP229 T01720017", "KBKX 221556Z AUTO 16011KT 10SM CLR A2945 RMK AO2 SLPNO FZRANO $", "KBLF 221552Z AUTO 00000KT 10SM CLR 15/01 A3025 RMK AO2 SLP231 T01500011", "KBLH 221552Z AUTO 18013KT 10SM CLR 24/19 A2973 RMK AO2 SLP063 T02440189 TSNO", "KBLI 221600Z 00000KT 5SM BR SCT001 BKN010 OVC050 07/07 A2973 RMK AO2 T00670067", "KBLM 221556Z AUTO 22003KT 10SM CLR 18/06 A3029 RMK AO2 SLP258 T01780056", "KBLU 221606Z AUTO 27006KT 3/4SM BR OVC002 07/07 A2982 RMK AO2 T00720072 $", "KBLV 221555Z 19013G16KT 10SM SCT250 21/12 A2987 RMK AO2A SLP116 T02140120 $", "KBMC 221555Z AUTO 10SM OVC060 14/01 A2956 RMK AO1 T01420006", "KBMG 221553Z 20009G17KT 10SM CLR 21/11 A3000 RMK AO2 SLP155 T02110111", "KBMI 221556Z 19015G20KT 10SM CLR 21/11 A2986 RMK AO2 SLP106 T02060111", "KBML 221552Z AUTO 00000KT 10SM CLR 16/01 A3021 RMK AO2 SLP240 T01610011", "KBMQ 221553Z AUTO 19017G26KT 10SM CLR 23/16 A2996 RMK AO2 PK WND 20026/1548 SLP129 T02280156", "KBMT 221555Z AUTO 17012G17KT 10SM BKN042 BKN048 OVC055 26/15 A3004 RMK AO2 T02620153", "KBNA 221553Z 19014KT 10SM SCT200 BKN250 22/09 A3013 RMK AO2 SLP199 T02170089 $", "KBNO 221553Z AUTO 32005KT 10SM SCT033 06/M01 A2965 RMK AO2 SLP030 T00561006 $", "KBNW 221555Z AUTO 20009G17KT 10SM CLR 21/07 A2960 RMK AO2", "KBOI 221553Z 31015G21KT 10SM BKN060 08/04 A2954 RMK AO2 PK WND 32028/1455 SLP991 T00780039", "KBOK 221556Z AUTO 07003KT 10SM SCT039 10/09 A2995 RMK AO2 SLP142 T01000089 $", "KBOS 221554Z 21011KT 10SM FEW250 18/04 A3028 RMK AO2 SLP252 T01830039", "KBOW 221550Z 02006KT 10SM SKC 24/15 A3011", "KBPC 221555Z AUTO 25016G19KT 10SM CLR 23/03 A2968 RMK AO2", "KBPG 221555Z AUTO 20012KT 10SM CLR 22/10 A2989 RMK AO2 T02160099", "KBPI 221553Z AUTO 25019KT 10SM CLR 08/01 A2958 RMK AO2 PK WND 23029/1517 SLP959 T00780006", "KBPK 221553Z AUTO 20006KT 10SM CLR 21/13 A2988 RMK AO2 SLP111 T02060128 TSNO", "KBPT 221553Z 18016G24KT 10SM FEW047 SCT055 27/16 A3004 RMK AO2 SLP173 T02720161", "KBQK 221555Z AUTO 04011G15KT 360V060 10SM CLR 21/06 A3019 RMK AO2 LTG DSNT SE T02060056", "KBQP 221550Z AUTO 17008G15KT 10SM BKN041 BKN048 23/15 A3007 RMK AO2 T02290148", "KBQX 221555Z AUTO 18019KT 10SM CLR 26/16 A3003 RMK A01", "KBRD 221553Z AUTO VRB06KT 8SM CLR 13/03 A2955 RMK AO2 SLP013 T01330033", "KBRG 221555Z AUTO 00000KT 10SM CLR 17/05 A3000 RMK AO2 T01730049", "KBRL 221553Z AUTO 18008KT 10SM CLR 22/09 A2973 RMK AO2 SLP065 T02170094", "KBRO 221553Z 18013KT 10SM SCT038 BKN048 28/19 A2998 RMK AO2 SLP152 T02780189", "KBRY 221555Z AUTO 20012KT 10SM CLR 20/08 A3008 RMK AO2 T02050084", "KBTA 221555Z AUTO 17013G16KT 10SM CLR 18/06 A2955 RMK AO2 T01780055", "KBTL 221553Z 19014G24KT 10SM CLR 19/08 A2993 RMK AO2 SLP132 T01940083", "KBTN 221555Z AUTO 02007KT 8SM CLR 13/01 A2943 RMK AO2", "KBTP 221556Z AUTO 18007KT 10SM CLR 17/04 A3018 RMK AO2 SLP227 T01670039 TSNO", "KBTR 221553Z 16010KT 10SM CLR 26/16 A3012 RMK AO2 SLP199 T02560156 $", "KBTV 221554Z 20015G24KT 10SM CLR 17/01 A3017 RMK AO2 SLP218 T01670006", "KBUF 221554Z 18014KT 10SM FEW200 20/03 A3010 RMK AO2 SLP192 T02000033 $", "KBUR 221603Z 16008KT 10SM SCT021 BKN028 BKN035 19/13 A2985 RMK AO2 T01890133", "KBUU 221555Z AUTO 20009G14KT 10SM CLR 20/09 A2979 RMK AO2 T02010087 PWINO", "KBUY 221554Z AUTO 00000KT 10SM CLR 17/04 A3025 RMK AO2 SLP242 T01720039", "KBVI 221555Z AUTO 18007KT 10SM CLR 20/02 A3016 RMK AO2 T01980017", "KBVN 221555Z AUTO 00000KT 10SM CLR 19/00 A2950 RMK AO2 T01871001", "KBVO 221553Z AUTO 19016G27KT 10SM CLR 23/12 A2967 RMK AO2 PK WND 22029/1541 SLP036 T02330117", "KBVS 221555Z AUTO 04004KT 10SM OVC009 07/07 A2974 RMK A01", "KBVU 221555Z AUTO 17018KT 10SM CLR 23/03 A2967 RMK AO2", "KBVX 221612Z AUTO 18006G18KT 10SM SCT023 21/14 A2996 RMK AO2", "KBVY 221553Z 18006KT 10SM CLR 17/05 A3026 RMK AO2 SLP244 T01720050", "KBWG 221553Z AUTO 18011KT 10SM CLR 21/09 A3010 RMK AO2 SLP190 T02060094", "KBWI 221554Z 18004KT 10SM CLR 18/06 A3026 RMK AO2 SLP246 T01830061 $", "KBWP 221555Z AUTO 10010KT 10SM CLR 14/02 A2947 RMK AO2", "KBWW 221555Z AUTO 06011KT 9SM FEW008 SCT075 06/06 A2951 RMK AO2", "KBXA 221555Z AUTO 15006KT 10SM CLR 24/15 A3017 RMK AO2 T02430153", "KBXK 221555Z AUTO 12004KT 10SM CLR 23/15 A2981 RMK A01", "KBYG 221553Z AUTO 13004KT 10SM CLR 06/02 A2944 RMK AO2 SLP948 T00610022", "KBYI 221553Z AUTO 24014G25KT 10SM -RA BKN013 BKN022 OVC030 06/04 A2955 RMK AO2 PK WND 29030/1524 SLP991 P0001 T00560044", "KBYL 221555Z AUTO 12006KT 10SM CLR 17/02 A3018 RMK AO1", "KBYS 221555Z AUTO 21014KT 9SM CLR 20/03 A2972 RMK AO2 SLP044 T01980031", "KBYY 221555Z AUTO 18016G20KT 10SM BKN045 27/15 A3002 RMK AO2 T02730157", "KBZN 221556Z 33007KT 3SM RA BR SCT005 BKN018 OVC029 07/06 A2938 RMK AO2 SLP945 P0017 T00670056", "KC07 221555Z AUTO 21004KT 10SM CLR 05/M05 A2990 RMK AO2", "KC09 221555Z AUTO 18011G15KT 10SM CLR 20/10 A2983 RMK AO2 T02030100", "KC29 221555Z AUTO 19012G16KT 10SM CLR 21/08 A2973 RMK AO1 T02060075", "KC35 221555Z AUTO 20009KT 10SM CLR 19/07 A2969 RMK AO2 T01860065 PWINO", "KC65 221555Z AUTO 18012KT 10SM CLR 19/09 A2992 RMK A01", "KC75 221555Z AUTO 19011G15KT 10SM CLR 21/12 A2980 RMK AO2 T02080116", "KC83 221555Z AUTO 23020G26KT 10SM FEW013 17/13 A2976 RMK AO2", "KC99 221558Z AUTO 28015G24KT 270V330 10SM CLR 02/M09 A2988 RMK AO2", "KCAD 221555Z AUTO 19010KT 150V210 10SM CLR 18/07 A2983 RMK AO2 T01760069", "KCAE 221556Z VRB04KT 10SM CLR 19/03 A3023 RMK AO2 SLP234 T01940033", "KCAG 221553Z AUTO 21019G27KT 10SM CLR 15/M03 A2970 RMK AO2 PK WND 22032/1511 SLP004 T01501033", "KCAK 221551Z 18009KT 10SM FEW250 18/05 A3013 RMK AO2 SLP202 T01780050", "KCAO 221555Z AUTO 27020G30KT 10SM CLR 22/M04 A2973 RMK AO2 PK WND 27030/1550 SLP010 T02221039", "KCAR 221554Z AUTO 15007KT 10SM CLR 12/05 A3015 RMK AO2 SLP217 T01220050", "KCAV 221555Z AUTO 19015KT 9SM CLR 20/07 A2957 RMK A01", "KCBE 221555Z AUTO 00000KT 10SM CLR 13/03 A3029 RMK AO2 T01260026", "KCBF 221555Z AUTO 19015KT 10SM CLR 20/04 A2954 RMK AO2", "KCBG 221555Z AUTO 00000KT 10SM CLR 16/04 A2957 RMK AO2", "KCBK 221555Z AUTO 13004KT 10SM CLR 21/M05 A2956 RMK AO2 T02111046", "KCBM 221555Z AUTO 21006KT 10SM CLR 22/13 A3012 RMK AO2 SLP201 T02170125 $", "KCCB 221555Z AUTO 24006KT 10SM FEW009 BKN035 17/16 A2986 RMK AO2", "KCCO 221555Z AUTO 00000KT 10SM CLR 19/01 A3024 RMK AO2 T01880013", "KCCR 221553Z 24011KT 10SM FEW028 17/12 A2977 RMK AO2 SLP068 T01720122", "KCCU 221555Z AUTO 22011G22KT 160V250 10SM CLR 03/M09 A3000 RMK AO2", "KCCY 221555Z AUTO 20014KT 10SM CLR 19/05 A2962 RMK AO2", "KCDA 221555Z AUTO 13009KT 10SM 12/01 A3023 RMK AO2 T01240009", "KCDC 221553Z AUTO 22021G28KT 10SM -RA CLR 15/02 A2974 RMK AO2 PK WND 21032/1524 RAB21 SLP019 P0000 T01500022", "KCDD 221553Z AUTO 00000KT 10SM CLR 11/03 A2969 RMK AO2", "KCDI 221555Z AUTO 19007KT 10SM CLR 19/06 A3015 RMK AO2 T01860055", "KCDJ 221551Z AUTO 20012G23KT 25/09 A2966 RMK AO1 PK WND 17028/1526 SLP033 T02500094 $", "KCDN 221555Z AUTO 03005G10KT 10SM CLR 20/00 A3023 RMK AO2", "KCDR 221553Z AUTO 02003KT 10SM CLR 10/01 A2950 RMK AO2 SLP992 T01000006", "KCDS 221553Z AUTO 27023G29KT 10SM CLR 27/06 A2972 RMK AO2 PK WND 26029/1531 SLP039 T02670056", "KCDW 221553Z 24005KT 10SM CLR 17/04 A3028 RMK AO2 SLP258 T01720039", "KCEC 221556Z AUTO 35003KT 1 3/4SM BR OVC034 12/10 A2995 RMK AO2 SLP141 T01220100", "KCEF 221555Z 18004KT 10SM FEW250 16/04 A3025 RMK AO2A SLP251 T01570038", "KCEU 221554Z AUTO 10004KT 10SM CLR 17/03 A3025 RMK AO2 SLP241 T01670028", "KCEW 221553Z AUTO VRB04KT 10SM CLR 23/08 A3022 RMK AO2 SLP232 T02280078", "KCEY 221555Z AUTO 18010G17KT 140V210 10SM CLR 22/14 A3004 RMK A01", "KCEZ 221553Z AUTO 22005KT 10SM CLR 13/03 A2992 RMK AO2 SLP093 T01280028", "KCFD 221555Z AUTO 18013G20KT 10SM SCT029 26/17 A3000 RMK AO2 T02550172", "KCFE 221555Z AUTO 11009KT 070V130 10SM CLR 16/04 A2954 RMK AO2", "KCFJ 221555Z AUTO 19016G21KT 10SM CLR 20/07 A2996 RMK AO2 T01960065", "KCFS 221555Z AUTO 16010KT 10SM CLR 20/05 A2992 RMK AO2 T01960053", "KCFV 221552Z AUTO 18017G31KT 10SM -RA CLR 21/13 A2966 RMK AO2 PK WND 18035/1512 RAB43 SLP039 P0000 T02110128", "KCGC 221555Z AUTO 02009KT 10SM CLR 23/12 A3014 RMK AO2 PNO", "KCGE 221555Z AUTO VRB04KT 10SM CLR 18/06 A3027 RMK A01", "KCGF 221545Z 18012G19KT 10SM CLR 18/06 A3008", "KCGI 221553Z 20016G25KT 6SM HZ DU BKN250 22/14 A2997 RMK AO2 PK WND 19028/1457 SLP148 T02170144", "KCGZ 221556Z AUTO 19006KT 10SM CLR 24/15 RMK AO2 SLPNO T02390150 $", "KCHA 221553Z 19004KT 10SM SCT150 BKN250 18/04 A3022 RMK AO2 SLP231 T01830039", "KCHD 221547Z 00000KT 10SM CLR 23/15 A2982", "KCHK 221550Z AUTO 19018G25KT 10SM CLR 24/09 A2964 RMK AO2 T02390092", "KCHO 221553Z 15004KT 10SM CLR 17/04 A3025 RMK AO2 SLP242 T01720039 $", "KCHS 221556Z 36009KT 10SM CLR 21/09 A3019 RMK AO2 SLP222 T02060089", "KCIC 221547Z 31005KT 10SM CLR 16/10 A2978", "KCID 221552Z 19016G21KT 10SM CLR 21/07 A2967 RMK AO2 SLP046 T02110067", "KCII 221555Z AUTO 8SM 03/03 A2944 RMK A01 Choteau ", "KCIN 221555Z AUTO 21017G24KT 9SM CLR 22/06 A2955 RMK AO2", "KCIR 221555Z AUTO 24013G20KT 10SM CLR 22/14 A3000 RMK AO2 T02240143", "KCIU 221556Z AUTO 11006KT 10SM CLR 12/09 A2983 RMK AO2 SLP105 T01220089", "KCJR 221555Z AUTO 00000KT 10SM CLR 16/04 A3027 RMK AO2 T01630037", "KCKB 221553Z 22006KT 10SM CLR 20/03 A3021 RMK AO2 SLP222 T02000033", "KCKC 221555Z AUTO 09004KT 10SM CLR 11/03 A2970 RMK AO2", "KCKF 221555Z AUTO 01007KT 10SM CLR 21/M01 A3024 RMK AO2 T02061009", "KCKI 221555Z AUTO 06004KT 10SM CLR 20/06 A3021 RMK AO2", "KCKM 221555Z AUTO 20015G22KT 6SM HZ CLR 24/15 A3006 RMK A01", "KCKN 221555Z AUTO 08009KT 10SM CLR 12/02 A2955 RMK AO2", "KCKP 221555Z AUTO 21006KT 10SM CLR 19/03 A2953 RMK AO2 T01860034", "KCKV 221552Z AUTO 19011KT 10SM CLR 21/12 A3008 RMK AO2 SLP182 T02060117", "KCKZ 221555Z AUTO 22004KT 10SM CLR 16/05 A3028 RMK AO2", "KCLE 221551Z 18014G19KT 10SM CLR 18/05 A3007 RMK AO2 SLP197 T01830050 $", "KCLI 221555Z AUTO 20008KT 10SM CLR 16/07 A2972 RMK AO2 T01590066", "KCLL 221553Z 18019G29KT 10SM FEW030 26/17 A2998 RMK AO2 PK WND 17029/1544 SLP146 T02560167", "KCLM 221553Z AUTO 26005KT 10SM OVC065 08/06 A2975 RMK AO2 SLP074 T00830061", "KCLS 221555Z AUTO 00000KT 10SM OVC026 07/07 A2976 RMK AO2", "KCLT 221552Z 00000KT 10SM FEW250 20/01 A3024 RMK SLP239 T02000006 $", "KCLW 221555Z AUTO 03006KT 10SM CLR 22/11 A3012 RMK AO2", "KCMA 221555Z 00000KT 5SM BR SCT012 BKN019 OVC038 18/16 A2985 RMK AO2 SLP115 T01780156", "KCMD 221555Z AUTO 23007G13KT 200V260 10SM CLR 20/12 A3019 RMK AO2", "KCMH 221551Z 21005KT 10SM SCT250 18/06 A3011 RMK AO2 SLP194 T01830056 $", "KCMI 221553Z 18021KT 10SM CLR 21/11 A2990 RMK AO2 PK WND 19026/1504 SLP122 T02110106", "KCMR 221555Z AUTO 19023G30KT 10SM CLR 12/06 A2996 RMK AO2", "KCMX 221553Z AUTO 10006KT 10SM CLR 12/06 A2971 RMK AO2 SLP065 T01220061", "KCMY 221558Z AUTO 20007KT 9SM CLR 19/05 A2966 RMK AO2 SLP049 T01890048 $", "KCNB 221555Z AUTO 10008KT 10SM CLR 13/02 A2946 RMK AO2 T01280024", "KCNC 221555Z AUTO 20019KT 10SM CLR 22/08 A2962 RMK AO2", "KCNI 221555Z AUTO 17003KT 10SM CLR 19/01 A3025 RMK AO2 T01850006", "KCNK 221555Z AUTO 20006KT 10SM CLR 21/04 A2955 RMK AO2 SLP995 T02060044", "KCNM 221553Z AUTO 21014KT 10SM CLR 22/11 A2990 RMK AO2 SLP080 T02220111", "KCNO 221553Z 24006KT 10SM BKN031 BKN042 19/14 A2987 RMK AO2 SLP110 T01940144", "KCNU 221552Z AUTO 18024G37KT 10SM CLR 24/11 A2966 RMK AO2 PK WND 17037/1546 SLP032 T02390111 $", "KCNW 221556Z 19016G28KT 10SM SCT015 24/17 A2992", "KCNY 221553Z AUTO 20017G23KT 10SM CLR 18/01 A2969 RMK AO2 SLP008 T01830011", "KCOD 221556Z AUTO VRB05KT 10SM BKN090 07/03 A2938 RMK AO2 SLP921 T00670028", "KCOE 221556Z AUTO 25008KT 10SM BKN008 04/03 A2954 RMK AO2 SLP028 T00440033 PNO $", "KCOF 221555Z AUTO 00000KT 10SM CLR 25/25 A3006 RMK AO2 SLP184 T02530251", "KCOM 221555Z AUTO 19012KT CLR 24/11 A2989 RMK AO2 T02440108 PWINO", "KCON 221551Z AUTO 09006KT 10SM CLR 14/03 A3026 RMK AO2 SLP251 T01440033", "KCOQ 221555Z AUTO 09007KT 10SM CLR 11/03 A2962 RMK AO2 TSNO", "KCOS 221554Z 00000KT 10SM CLR 18/M07 A2972 RMK AO2 SLP992 T01781072 $", "KCOT 221553Z AUTO 18010KT 7SM CLR 26/18 A2996 RMK AO2 SLP137 T02560178", "KCOU 221554Z 19013G20KT 10SM CLR 26/09 A2976 RMK AO2 SLP070 T02560094", "KCPC 221555Z AUTO 01008KT 350V050 10SM CLR 21/08 A3021 RMK AO2 T02110080", "KCPR 221553Z 22021G33KT 10SM CLR 15/M06 A2949 RMK AO2 PK WND 21033/1549 SLP931 T01501056", "KCPS 221553Z 15009KT 10SM CLR 22/12 A2986 RMK AO2 SLP109 T02220117 $", "KCPT 221555Z AUTO 18014G21KT 10SM CLR 23/16 A2988 RMK A01", "KCPU 221555Z AUTO 00000KT 10SM BKN011 OVC016 14/11 A2979 RMK AO2 T01440113", "KCPW 221555Z AUTO 22027G38KT 10SM SCT005 SCT009 BKN015 M02/M02 A3013 RMK AO2", "KCQB 221555Z AUTO 19017G27KT 10SM CLR 24/10 A2967 RMK AO2 T02400103", "KCQC 221553Z AUTO 27027G36KT 10SM CLR 14/06 A3001 RMK AO2 PK WND 28037/1536 SLP099 T01390056", "KCQF 221555Z AUTO 07004KT 10SM CLR 22/10 A3020 RMK AO2", "KCQM 221557Z AUTO 11005KT 10SM SCT070 12/02 A2964 RMK AO2", "KCQT 221607Z AUTO 00000KT 10SM SCT022 OVC041 19/14 A2987 RMK AO2 T01890144", "KCQW 221555Z AUTO 01008KT 10SM CLR 20/03 A3023 RMK AO2 PWINO", "KCQX 221552Z AUTO 21007KT 10SM CLR 18/11 A3032 RMK AO2 SLP267 T01780111", "KCRE 221553Z 02011KT 350V050 10SM SCT047 21/11 A3017 RMK AO1 SLP217 T02110106", "KCRG 221553Z 04014KT 10SM CLR 22/13 A3017 RMK AO2 SLP215 T02170128", "KCRP 221551Z 18016KT 10SM SCT033 SCT048 27/18 A2998 RMK AO2 SLP152 T02720183", "KCRQ 221553Z 17005KT 10SM BKN016 OVC035 19/14 A2986 RMK AO2 SLP109 T01890144", "KCRS 221609Z AUTO 19018G29KT 10SM SCT024 24/16 A2993 RMK AO2 PK WND 18029/1605 T02440161", "KCRW 221554Z 17005KT 10SM SCT250 19/04 A3018 RMK AO2 SLP220 T01940039", "KCRX 221555Z AUTO 18009KT 150V220 10SM CLR 19/13 A3011 RMK AO2", "KCSG 221551Z 00000KT 10SM CLR 20/02 A3023 RMK AO2 SLP235 T02000017", "KCSM 221553Z AUTO 22019KT 10SM CLR 22/09 A2965 RMK AO2 RAE53 SLP022 P0000 T02220089", "KCSQ 221555Z AUTO 19015G23KT 10SM CLR 21/08 A2960 RMK AO2", "KCSV 221553Z AUTO 10SM CLR 18/07 A3021 RMK AO2 SLP219 T01830067", "KCTB 221611Z AUTO 01009KT 9SM UP BKN007 OVC018 02/02 A2947 RMK AO2 UPB06 CIG 003V011 P0000 T00220017", "KCTJ 221555Z AUTO 14005KT 10SM CLR 18/05 A3027 RMK AO2 T01760045", "KCTY 221555Z AUTO 03013KT 010V070 10SM CLR 22/03 A3017 RMK AO2 T02240031", "KCTZ 221555Z AUTO 03008KT 10SM CLR 22/07 A3022 RMK AO2 T02180071", "KCUB 221553Z AUTO VRB03KT 10SM CLR 21/02 A3023 RMK AO2 SLP237 T02060022", "KCUH 221555Z AUTO 20023G30KT 10SM CLR 24/10 A2964 RMK AO2 T02370096", "KCUL 221553Z AUTO 18016KT 10SM CLR 23/13 A2997 RMK AO2", "KCUT 221553Z AUTO 00000KT 10SM CLR 08/M02 A2953 RMK AO2 SLP966 T00831022", "KCVC 221555Z AUTO 00000KT 10SM CLR 18/02 A3024 RMK AO2", "KCVG 221552Z 19012KT 10SM FEW130 BKN150 BKN250 20/08 A3007 RMK AO2 SLP178 T02000078", "KCVH 221555Z AUTO 00000KT 10SM CLR 15/12 A2984 RMK A01", "KCVN 221556Z AUTO 26023G26KT 10SM CLR 22/07 A2987 RMK AO2 PK WND 25026/1556 SLP080 T02220067", "KCVO 221556Z AUTO 23004KT 10SM FEW023 SCT049 BKN060 11/08 A2985 RMK AO2 SLP110 T01060078", "KCVS 221555Z AUTO 27018KT 10SM CLR 21/06 A2987 RMK AO2 SLP064 T02100057 $", "KCVX 221555Z AUTO 18004KT 10SM CLR 18/09 A2980 RMK AO2 T01750085", "KCWA 221547Z 18009KT 10SM CLR 14/06 A2970", "KCWC 221555Z AUTO 21013G25KT 10SM CLR 26/09 A2976 RMK AO2 T02580089", "KCWF 221549Z 19016KT 10SM SCT042 SCT055 27/15 A3007", "KCWI 221556Z AUTO 16010KT 10SM CLR 21/09 A2975 RMK AO2 SLP074 T02060094", "KCWN 221555Z AUTO 11003KT 10SM CLR 16/M07 A2975 RMK AO2 PRESRR SLP910 T01641073 $", "KCWV 221555Z AUTO 07007G15KT 10SM CLR 21/01 A3021 RMK AO2 T02110010", "KCXE 221555Z AUTO 00000KT 10SM CLR 19/03 A3025 RMK AO1 T01870031", "KCXO 221553Z 17013KT 10SM CLR 26/16 A3001 RMK AO2 SLP158 T02610156", "KCXP 221555Z AUTO VRB03G20KT 8SM -RA FEW039 FEW045 SCT050 11/06 A2969 RMK AO2", "KCXU 221555Z AUTO 07005KT 10SM CLR 22/M01 A3021 RMK AO1 T02181015", "KCXW 221555Z AUTO 20015G23KT 10SM FEW027 22/15 A2994 RMK A01", "KCXY 221556Z VRB03KT 10SM CLR 17/05 A3026 RMK AO2 SLP248 T01670050", "KCYD 221554Z AUTO 11009KT 10SM BKN037 24/14 A3017 RMK A02 T02420136", "KCYS 221553Z 24016G26KT 10SM CLR 19/M08 A2964 RMK AO2 PK WND 24026/1546 SLP966 T01891083", "KCZL 221555Z AUTO 15003KT 10SM CLR 18/04 A3025 RMK AO2", "KCZT 221555Z AUTO 16008KT 10SM SCT009 21/21 A2995 RMK AO2", "KD07 221556Z AUTO 01012KT 09/03 A2946 RMK AO1 SLP979 T00890028", "KD25 221555Z AUTO 13005KT 10SM CLR 14/05 A2968 RMK AO2 T01410045", "KD39 221555Z AUTO 11012KT 10SM CLR 15/04 A2952 RMK AO2 T01520035", "KD55 221555Z AUTO 07011KT 8SM CLR 07/07 A2960 RMK AO2", "KD57 221555Z AUTO 04008KT 10SM OVC012 07/04 A2952 RMK AO2", "KD60 221555Z AUTO 07010KT 9SM CLR 06/06 A2957 RMK AO2", "KD73 221555Z AUTO 00000KT 10SM CLR 17/02 A3026 RMK AO2 T01730015", "KD95 221555Z AUTO 18009KT 10SM CLR 20/01 A2996 RMK AO2 T01960013", "KDAA 221555Z AUTO 17004KT 10SM CLR 17/07 A3025 RMK AO2 SLP247 T01720073", "KDAB 221553Z 36014KT 10SM FEW025 SCT040 26/17 A3011 RMK AO2 SLP195 T02560167", "KDAG 221550Z AUTO 32015G26KT 10SM CLR 22/04 A2973 RMK AO2 PK WND 30026/1542 SLP044 T02220044", "KDAL 221553Z 18012G23KT 10SM FEW025 SCT250 23/16 A2986 RMK AO2 SLP105 T02280161", "KDAN 221553Z AUTO 00000KT 10SM CLR 17/03 A3026 RMK AO2 SLP242 T01720033", "KDAW 221551Z AUTO 00000KT 10SM CLR 17/06 A3026 RMK AO2 SLP245 T01670056", "KDAY 221556Z 20011KT 10SM SCT250 19/07 A3007 RMK AO2 SLP180 T01940067", "KDBN 221555Z AUTO 00000KT 10SM CLR 21/00 A3025 RMK AO2", "KDBQ 221553Z 19014KT 10SM CLR 20/08 A2971 RMK AO2 SLP059 T02000078", "KDCA 221552Z 17006KT 10SM CLR 16/09 A3027 RMK AO2 SLP252 T01610089 $", "KDCM 221555Z AUTO 00000KT 10SM CLR 18/01 A3025 RMK AO2 LTG DSNT SE", "KDCU 221553Z AUTO VRB04KT 10SM CLR 20/11 A3018 RMK AO2 SLP214 T02000111", "KDCY 221555Z AUTO 18015G20KT 10SM CLR 20/12 A3000 RMK AO2 T02000115", "KDDC 221552Z AUTO 31007KT 10SM CLR 21/M04 A2956 RMK AO2 SLP989 T02061044", "KDDH 221554Z AUTO 00000KT 10SM CLR 18/01 A3024 RMK AO2 SLP242 T01830006 $", "KDEC 221554Z 18013G21KT 10SM CLR 20/12 A2988 RMK AO2 PK WND 19026/1516 SLP116 T02000122", "KDED 221555Z AUTO 01012G16KT 330V030 10SM SCT030 25/17 A3012 RMK AO2 LTG DSNT NE T02480166", "KDEH 221555Z AUTO 19010G16KT 150V210 10SM CLR 19/05 A2962 RMK AO2", "KDEN 221553Z 21013KT 10SM FEW070 FEW150 19/M06 A2963 RMK AO2 SLP963 T01891061", "KDEQ 221553Z AUTO 20012G20KT 10SM OVC026 23/15 A2991 RMK AO2 SLP125 T02280150 $", "KDET 221553Z 18008KT 8SM CLR 18/06 A3000 RMK AO2 SLP159 T01780056", "KDEW 221553Z AUTO 20004KT 6SM BR CLR 02/01 A2954 RMK AO2 SLP015 T00220011", "KDFI 221553Z AUTO 18010KT 10SM CLR 19/08 A3000 RMK AO2 SLP157 T01940078", "KDFW 221553Z 18016G28KT 10SM FEW020 FEW250 23/16 A2984 RMK AO2 PK WND 18028/1541 SLP096 T02330161", "KDGW 221553Z AUTO 24017G23KT 10SM CLR 17/M06 A2952 RMK AO2 SLP946 T01671056", "KDHN 221553Z 00000KT 10SM CLR 21/03 A3025 RMK AO2 SLP242 T02060028", "KDHT 221553Z AUTO 27018KT 10SM CLR 22/01 A2973 RMK AO2 PK WND 27027/1532 SLP021 T02220011", "KDIJ 221556Z AUTO 18007KT 8SM -RA BKN026 OVC032 04/03 A2950 RMK AO2 SLP964 P0007 T00440033", "KDIK 221606Z AUTO 04011KT 2 1/2SM -RA BR OVC004 06/04 A2952 RMK AO2 P0000 T00560044", "KDKB 221555Z AUTO 18016KT 10SM CLR 18/11 A2982 RMK AO2 T01830106", "KDKK 221553Z AUTO 18014G22KT 10SM CLR 21/03 A3010 RMK AO2 SLP192 T02060028", "KDKR 221555Z AUTO 20013G20KT 10SM CLR 26/17 A2998 RMK AO2", "KDKX 221555Z AUTO 16003KT 10SM CLR 16/05 A3024 RMK A01", "KDLF 221555Z AUTO 11010KT 10SM OVC011 19/16 A2993 RMK AO2 SLP129 T01900160 $", "KDLH 221555Z 08010KT 10SM CLR 12/03 A2964 RMK AO2 SLP045 T01220028", "KDLN 221553Z AUTO 20004KT 6SM -RA BR OVC019 03/03 A2940 RMK AO2 SLP939 P0009 T00330033", "KDLO 221555Z AUTO 28006KT 10SM CLR 15/07 A2979 RMK AO2 T01490072", "KDLS 221553Z AUTO 30006KT 10SM OVC055 11/04 A2970 RMK AO2 SLP058 T01110044", "KDLZ 221555Z AUTO 19009KT 10SM CLR 17/05 A3010 RMK AO2", "KDMA 221555Z AUTO 13004KT 10SM CLR 24/13 A2989 RMK AO2 SLP125 T02400132 $", "KDMH 221554Z AUTO 17/08 A3027 RMK AO1 SLP250 T01720083", "KDMN 221553Z AUTO 23004KT 10SM FEW070 19/12 A3001 RMK AO2 SLP105 T01890117", "KDMO 221553Z AUTO 19017G28KT 10SM CLR 26/09 A2972 RMK AO2 PK WND 20034/1531 SLP057 T02560089", "KDMW 221555Z AUTO 22004KT 10SM CLR 18/05 A3025 RMK AO2", "KDNA 221555Z AUTO 00000KT 10SM CLR 22/12 A3002 RMK AO2", "KDNL 221553Z AUTO 04004KT 10SM CLR 19/01 A3024 RMK AO2 SLP237 T01940011", "KDNN 221555Z AUTO 19006KT 10SM CLR 19/02 A3023 RMK AO2 T01850022", "KDNS 221555Z AUTO A2955 RMK AO2 PWINO", "KDNV 221555Z AUTO 19012G21KT 10SM CLR 21/11 A2993 RMK AO2 T02110108", "KDOV 221555Z 07004KT 7SM CLR 17/07 A3026 RMK AO2A SLP251 T01740066", "KDPA 221552Z 20013KT 10SM CLR 19/09 A2982 RMK AO2 SLP096 T01890094", "KDPL 221555Z AUTO 06007KT 030V120 10SM CLR 21/07 A3022 RMK AO2", "KDQH 221555Z AUTO 10007KT 10SM CLR 21/02 A3023 RMK AO2 T02060017", "KDRA 221553Z AUTO 18023G31KT 10SM CLR 22/M03 A2964 RMK AO2 PK WND 18031/1550 SLP997 T02171028", "KDRI 221555Z AUTO 19015KT 10SM CLR 25/17 A3006 RMK AO2 T02540172 $", "KDRM 221555Z AUTO 17005KT 10SM CLR 15/07 A2983 RMK AO2 T01450069", "KDRO 221553Z AUTO 12005KT 10SM CLR 08/M01 A2999 RMK AO2 SLP126 T00831011", "KDRT 221553Z AUTO 11009KT 10SM BKN012 19/16 A2995 RMK AO2 SLP136 T01940161", "KDSF 221550Z AUTO 06009KT 10SM CLR 24/12 A3016 RMK A01", "KDSM 221554Z 18011KT 10SM FEW250 22/08 A2961 RMK AO2 SLP020 T02220078", "KDSV 221554Z AUTO 19008KT 10SM CLR 21/03 A3014 RMK AO2 SLP214 T02060028", "KDTA 221555Z AUTO 19023G30KT 10SM CLR 13/00 A2964 RMK AO1", "KDTL 221555Z AUTO 10005KT 10SM CLR 12/02 A2954 RMK AO2", "KDTN 221553Z AUTO 19014G21KT 10SM CLR 25/15 A3000 RMK AO2 SLP156 T02500150", "KDTO 221553Z 19017G27KT 10SM CLR 24/15 A2984 RMK AO2 PK WND 18030/1529 SLP097 T02390150", "KDTS 221553Z 07007KT 10SM CLR 23/04 A3020 RMK AO2 SLP226 T02280044", "KDTW 221553Z 19011KT 10SM SCT250 20/07 A3000 RMK AO2 SLP157 T02000067", "KDUA 221555Z AUTO 20017G25KT 10SM CLR 23/13 A2983 RMK AO2", "KDUB 221554Z AUTO 01011G14KT 10SM SCT041 SCT046 07/M01 A2945 RMK AO2", "KDUC 221555Z AUTO 20018G24KT 10SM CLR 24/10 A2974 RMK AO2 T02440098", "KDUH 221555Z AUTO 17008KT 10SM CLR 20/06 A3000 RMK AO2 T01950055", "KDUJ 221553Z AUTO 18006KT 10SM CLR 17/01 A3018 RMK AO2 SLP219 T01720006", "KDUX 221555Z AUTO 24016G22KT 10SM CLR 21/03 A2973 RMK AO2 T02130026", "KDVK 221550Z AUTO 22009G14KT 190V250 10SM CLR 21/08 A3014 RMK AO2", "KDVL 221556Z AUTO 05010KT 10SM CLR 08/06 A2958 RMK AO2 SLP038 T00830061", "KDVN 221552Z AUTO 18012G20KT 10SM CLR 22/09 A2975 RMK AO2 SLP068 T02220089", "KDVO 221555Z AUTO 28021G31KT 10SM CLR 18/10 A2977 RMK AO2", "KDVP 221553Z AUTO 00000KT 7SM CLR 12/02 A2950 RMK AO2 T01150021", "KDVT 221553Z 13004KT 10SM CLR 24/12 A2982 RMK AO2 SLP077 T02390117", "KDWA 221555Z AUTO 00000KT 10SM CLR 17/13 A2976 RMK AO2", "KDWH 221553Z 17010G21KT 100V200 10SM FEW042 27/15 A3001 RMK AO2 SLP159 T02670150", "KDWU 221556Z AUTO VRB03KT 10SM CLR 18/07 A3016 RMK AO2 SLP213 T01830067", "KDWX 221550Z AUTO 21018G34KT 10SM CLR A2971 RMK AO2", "KDXR 221553Z 23006KT 10SM CLR 18/03 A3028 RMK AO2 SLP255 T01830028", "KDXX 221555Z AUTO 15014KT 10SM CLR 15/02 A2946 RMK AO2", "KDYB 221555Z AUTO 02009KT 10SM CLR 20/08 A3020 RMK AO2", "KDYL 221554Z AUTO 29003KT 10SM CLR 17/06 A3026 RMK AO2 SLP250 T01720061", "KDYR 221556Z AUTO 18007KT 10SM CLR 20/14 A3005 RMK AO2 SLP179 T02000144", "KDYS 221555Z AUTO 19016KT 10SM CLR 26/07 A2982 RMK AO2 SLP058 T02550071", "KDYT 221555Z AUTO 05014KT 10SM CLR 11/08 A2964 RMK AO2", "KDZB 221555Z AUTO 19013G19KT 10SM CLR 24/15 A2995 RMK AO2 T02430151", "KDZJ 221555Z AUTO 00000KT 3 1/2SM HZ CLR 17/00 A3025 RMK AO2 T01700004", "KE11 221600Z AUTO 24010KT 10SM CLR 24/10 A2991 RMK AO2 T02390095", "KE16 221555Z AUTO 14007KT 10SM OVC023 14/13 A2984 RMK AO2 PWINO PNO", "KE38 221555Z AUTO 23005KT 10SM CLR 23/07 A3011 RMK AO2 T02310067", "KE41 221555Z AUTO 19012G17KT 10SM CLR 21/10 A2995 RMK AO2 T02110103", "KE42 221555Z AUTO 25014KT 10SM CLR 24/01 A2968 RMK AO2 T02390012", "KEAN 221550Z AUTO 22014G20KT 10SM CLR 19/M08 A2956 RMK AO2 T01911083", "KEAR 221556Z AUTO 21005KT 10SM CLR 19/02 A2953 RMK AO2 SLP992 T01890017", "KEAT 221555Z AUTO 00000KT 4SM HZ CLR 07/02 A2961 RMK AO2 SLP031 T00670017", "KEAU 221556Z 14007KT 8SM CLR 14/04 A2962 RMK AO2 SLP032 T01390044", "KEBA 221555Z AUTO 13004KT 10SM CLR 19/02 A3025 RMK AO2 T01860018", "KEBG 221555Z AUTO 17014G20KT 10SM SCT033 27/19 A2998 RMK AO2 T02740186 PWINO", "KEBS 221555Z AUTO 19014G20KT 10SM CLR 21/07 A2956 RMK AO2", "KECG 221554Z 04012KT 10SM CLR 21/11 A3023 RMK AO2 SLP236 T02110111", "KECP 221553Z VRB06KT 10SM CLR 22/03 A3019 RMK AO1 SLP236 T02220033", "KECS 221555Z AUTO 17006KT 10SM SCT120 08/M02 A2950 RMK AO2", "KECU 221555Z AUTO 16011KT 10SM CLR 20/15 A3003 RMK AO2", "KEDC 221555Z AUTO 21012G18KT 10SM BKN019 24/17 A2995 RMK AO2", "KEDE 221555Z AUTO 06007KT 10SM CLR 22/13 A3024 RMK AO2 T02240132", "KEDJ 221555Z AUTO 20012KT 10SM CLR 19/07 A3007 RMK A01", "KEDN 221555Z AUTO 08003KT 10SM CLR 20/03 A3022 RMK AO2 T01970033", "KEDU 221600Z AUTO 24003KT 10SM CLR 17/13 A2975 RMK AO1", "KEDW 221555Z COR 24017G25KT 60SM SCT250 16/10 A2976 RMK AOA2 PK WND 24028/52 SLP063 T01630099 COR 1558", "KEED 221556Z AUTO 00000KT 10SM CLR 25/10 A2971 RMK AO2 SLP034 T02500100", "KEEN 221556Z AUTO 00000KT 10SM CLR 14/04 A3027 RMK AO2 SLP259 T01390044 $", "KEEO 221553Z AUTO 20015G25KT 10SM CLR 13/M03 A2975 RMK AO2 PK WND 19034/1527 SLP010 T01331028 $", "KEET 221553Z AUTO VRB03KT 10SM CLR 20/11 A3020 RMK AO2 SLP225 T02000111", "KEFD 221554Z 17017G19KT 10SM FEW030 27/16 A3001", "KEFK 221555Z AUTO 14012G15KT 10SM CLR 15/00 A3019 RMK AO2 T01530004", "KEGE 221611Z 23018G27KT 10SM CLR 14/M03 A2980 RMK AO2 PK WND 23027/1607 WSHFT 1546", "KEGI 221555Z AUTO 06006KT 10SM CLR 22/03 A3020 RMK AO2 SLP227 T02220033 $", "KEGT 221555Z AUTO 19017G23KT 10SM CLR 23/08 A2958 RMK AO2 T02310084", "KEGV 221555Z AUTO 12004KT 10SM CLR 14/04 A2969 RMK AO2 T01440035", "KEHA 221555Z AUTO 28016KT 10SM CLR 23/M05 A2968 RMK AO2 T02251050", "KEHO 221555Z AUTO 00000KT 10SM CLR 18/03 A3026 RMK AO2 T01760029", "KEHR 221556Z AUTO 20015G21KT 10SM CLR 21/13 A3001 RMK AO2 SLP161 T02110128", "KEIK 221555Z AUTO 23007KT 10SM CLR 20/M08 A2963 RMK AO2 T02011077 PWINO", "KEKM 221555Z AUTO 18012G19KT 9SM CLR 19/09 A2994 RMK AO2 T01850089", "KEKN 221551Z AUTO 00000KT 10SM CLR 15/03 A3023 RMK AO2 SLP248 T01500033", "KEKO 221556Z AUTO 32012G28KT 10SM -RA FEW036 BKN047 OVC055 06/02 A2958 RMK AO2 PK WND 34033/1541 WSHFT 1535 RAB1458E09B48 SLP998 P0000 T00560017", "KEKQ 221556Z AUTO 21009KT 10SM CLR 22/09 A3017 RMK AO2 SLP211 T02220094", "KEKS 221555Z AUTO 13003KT 3SM RA BKN013 BKN025 03/02 A2944 RMK AO2 P0015", "KEKX 221555Z AUTO 20009G15KT 10SM CLR 19/09 A3009 RMK AO2 T01910087", "KEKY 221556Z AUTO VRB06KT 10SM CLR 21/11 A3021 RMK AO2 SLP077 T02060111", "KELA 221555Z AUTO 21016G21KT 10SM SCT039 27/16 A3000 RMK AO2 T02690161", "KELD 221553Z AUTO 18013G20KT 10SM CLR 23/16 A3001 RMK AO2 SLP160 T02280156", "KELK 221555Z AUTO 23013KT 9SM CLR 24/07 A2965 RMK AO2 SLP331 T02360068 $", "KELM 221553Z 00000KT 10SM CLR 17/03 A3019 RMK AO2 SLP227 T01670033", "KELN 221553Z AUTO 32016G22KT 10SM CLR 08/01 A2962 RMK AO2 SLP034 T00780011 $", "KELO 221555Z AUTO 11004KT 10SM CLR 12/02 A2968 RMK AO2", "KELP 221551Z 21009KT 10SM FEW050 FEW085 FEW200 BKN250 24/12 A2999 RMK AO2 SLP090 T02390117", "KELY 221553Z AUTO 15022G38KT 10SM OVC090 11/M01 A2962 RMK AO2 PK WND 15038/1546 SLP972 T01111011", "KELZ 221556Z AUTO 21007G21KT 160V240 10SM CLR 18/01 A3019 RMK AO2 SLP222 T01780011", "KEMM 221555Z AUTO 10SM CLR 07/M01 A2963 RMK AO2", "KEMP 221553Z AUTO 18019G31KT 10SM CLR 24/08 A2959 RMK AO2 PK WND 17038/1517 SLP011 T02390083", "KEMT 221545Z 23003KT 10SM BKN043 19/14 A2986", "KEND 221555Z AUTO 17020KT 10SM CLR 24/10 A2957 RMK AO2 PK WND 18027/06 SLP003 T02360096", "KENV 221556Z AUTO 20016KT 10SM FEW100 17/M01 A2948 RMK AO2 SLP954 T01721011", "KENW 221553Z 20012KT 10SM CLR 21/09 A2980 RMK AO2 SLP087 T02060089", "KEOK 221555Z AUTO 20011G20KT 10SM CLR 22/10 A2972 RMK A01", "KEPH 221553Z AUTO 29004KT 10SM CLR 07/01 A2960 RMK AO2 SLP029 T00720011 $", "KEQA 221555Z AUTO 19021G28KT 10SM CLR 24/07 A2958 RMK AO2", "KEQY 221553Z AUTO 07004KT 10SM CLR 19/01 A3024 RMK AO2 SLP248 T01890011", "KERI 221551Z 18013G20KT 10SM CLR 19/04 A3009 RMK AO2 SLP189 T01890044", "KERV 221555Z AUTO 19013G17KT 10SM OVC008 19/17 A2999 RMK AO2 T01920165", "KERY 221555Z AUTO 14008KT 10SM CLR 14/08 A2979 RMK AO2 T01360081", "KESC 221556Z AUTO 11007KT 10SM CLR 12/10 A2975 RMK AO2 SLP079 T01220100 PNO $", "KESF 221553Z AUTO 18009G20KT 10SM FEW043 25/16 A3007 RMK AO2 SLP179 T02500161", "KESN 221545Z 14005KT 10SM CLR 18/06 A3031", "KEST 221552Z AUTO 19012KT 10SM CLR 16/04 A2953 RMK AO2 SLP000 T01610044", "KETC 221555Z AUTO 03008KT 10SM OVC046 20/05 A3023 RMK AO2 T02000046", "KETH 221553Z AUTO 13013KT 10SM 14/03 A2947 RMK AO2", "KETN 221555Z AUTO 21015G22KT 10SM CLR 25/10 A2985 RMK AO2 T02470103", "KEUF 221558Z AUTO 35003KT 10SM CLR 21/04 A3024 RMK AO2 SLP237 T02060039", "KEUG 221554Z 24007KT 10SM FEW042 SCT055 BKN080 10/08 A2987 RMK AO2 RAB19E37 SLP113 VCSH P0002 T01000083", "KEVB 221547Z 36011G18KT 10SM FEW030 SCT037 24/18 A3011", "KEVM 221601Z AUTO 08003KT 10SM CLR 10/03 A2964 RMK AO2", "KEVU 221555Z AUTO 19018G21KT 10SM CLR 23/10 A2960 RMK AO2 T02410101", "KEVV 221554Z 18011KT 10SM CLR 21/13 A3001 RMK AO2 SLP162 T02110128", "KEVW 221553Z AUTO 24016G28KT 10SM FEW029 FEW041 OVC055 06/02 A2965 RMK AO2 PK WND 23043/1504 RAB02E41 SLP988 P0000 T00560022", "KEWB 221553Z 10SM CLR 18/09 A3029 RMK AO2 SLP255 T01830094", "KEWK 221556Z AUTO 19018KT 10SM CLR 23/08 A2957 RMK AO2 PK WND 18026/1509 SLP997 T02280078", "KEWN 221554Z 05009KT 10SM CLR 22/11 A3021 RMK AO2 SLP228 T02220106", "KEWR 221551Z 23004KT 10SM CLR 19/04 A3028 RMK AO2 SLP252 T01890044", "KEXX 221555Z AUTO 00000KT 10SM CLR 17/00 A3025 RMK AO2 T01741003", "KEYE 221553Z AUTO 16008G16KT 10SM CLR 20/10 A2998 RMK AO2 SLP151 T02000100", "KEYF 221555Z AUTO 06007KT 350V080 10SM CLR 21/07 A3021 RMK AO2 T02130071", "KEYW 221553Z 01011G18KT 10SM CLR 26/21 A3005 RMK AO2 SLP175 T02610206", "KEZF 221555Z AUTO 00000KT 10SM CLR 18/08 A3025 RMK AO2 T01800077", "KEZM 221555Z AUTO 08006KT 10SM CLR 20/01 A3023 RMK AO2", "KEZZ 221555Z AUTO 19021G27KT 10SM CLR 23/09 A2965 RMK AO2 T02330091", "KF00 221555Z AUTO 18017G26KT 10SM CLR 23/15 A2986 RMK AO2 T02270152", "KF05 221555Z AUTO 23018KT 10SM CLR 25/10 A2971 RMK AO2 T02520097", "KF17 221555Z AUTO 18013G19KT 10SM CLR 25/15 A3002 RMK AO2", "KF44 221555Z AUTO 19012G22KT 10SM OVC026 22/16 A2994 RMK AO2", "KF46 221555Z AUTO 22016G25KT 10SM SCT020 22/16 A2988 RMK AO2 T02200156", "KF70 221555Z AUTO 25006KT 10SM BKN013 BKN018 OVC029 17/14 A2989 RMK AO2", "KFAF 221555Z AUTO 10006KT 10SM CLR 20/05 A3023 RMK AO2 SLPNO T01980054 $", "KFAM 221556Z AUTO 18013G19KT 10SM CLR 20/12 A2992 RMK AO2 SLP137 T02000122", "KFAR 221601Z 07008KT 10SM CLR 12/02 A2949", "KFAT 221553Z 32010KT 10SM BKN150 17/12 A2978 RMK AO2 SLP082 T01670117", "KFAY 221553Z 05007KT 10SM CLR 21/06 A3022 RMK AO2 SLP227 T02110056 $", "KFBG 221555Z AUTO 05007KT 10SM CLR 21/06 A3020 RMK AO2 SLP229 T02060058 $", "KFBL 221555Z AUTO 12005KT 7SM CLR 15/04 A2957 RMK AO2", "KFCI 221556Z AUTO 00000KT 10SM CLR 19/06 A3025 RMK AO2 SLP255 T01890061", "KFCM 221553Z 11009KT 9SM CLR 14/03 A2955 RMK AO2 SLP007 T01390033", "KFCS 221555Z AUTO 10004KT 10SM CLR 18/M08 A2968 RMK AO2 SLP001 T01761078 $", "KFDK 221547Z 25004KT 10SM CLR 16/07 A3026", "KFDR 221553Z AUTO 22023KT 10SM CLR 26/09 A2967 RMK AO2 PK WND 22029/1543 SLP031 T02560089", "KFDY 221553Z AUTO 18014KT 10SM CLR 20/07 A3003 RMK AO2 SLP162 T02000072", "KFEP 221555Z AUTO 20011G15KT 10SM CLR 21/11 A2977 RMK AO2 T02090112", "KFET 221555Z AUTO 17009KT 10SM CLR 18/05 A2953 RMK AO2 T01750045", "KFFC 221553Z AUTO VRB03KT 10SM CLR 19/02 A3024 RMK AO2 SLP242 T01940022", "KFFL 221555Z AUTO 19014KT 10SM CLR 23/06 A2968 RMK A01", "KFFM 221555Z AUTO 12007KT 10SM CLR 14/03 A2949 RMK AO2", "KFFO 221555Z 20010KT 10SM SCT250 20/07 A3004 RMK AO2A SLP175 T01950069", "KFFT 221553Z AUTO 21013KT 10SM CLR 22/09 A3009 RMK AO2 SLP187 T02220089", "KFFX 221555Z AUTO 19007KT 10SM CLR 20/07 A2985 RMK AO2 T02000074", "KFFZ 221554Z 10SM CLR 24/12 A2982 RMK AO2 SLP076 T02390122", "KFGN 221555Z AUTO 00000KT 10SM -RA SCT050 OVC065 08/05 A2966 RMK AO2", "KFGX 221555Z AUTO 22012G15KT 210V280 10SM CLR 20/07 A3014 RMK AO2 T02000067", "KFHB 221555Z AUTO 01013G19KT 10SM CLR 21/11 A3018 RMK AO2 LTG DSNT E", "KFHR 221553Z AUTO VRB03KT 10SM OVC055 09/07 A2974 RMK AO2 RAE10 SLP070 P0001 T00890072", "KFHU 221555Z AUTO 00000KT 10SM FEW041 22/12 A3003 RMK AO2 SLP112 T02170117", "KFIG 221554Z AUTO 00000KT 10SM CLR 14/03 A3022 RMK AO2 SLP239 T01440028", "KFIN 221550Z 02012G20KT 10SM CLR 24/16 A3013", "KFIT 221552Z AUTO 24009G16KT 10SM CLR 19/M02 A3027 RMK AO2 SLP252 T01891022", "KFKA 221555Z AUTO 19009G14KT 7SM CLR 18/06 A2962 RMK AO2 T01780057", "KFKL 221556Z AUTO 17007KT 10SM CLR 16/03 A3017 RMK AO2 SLP217 T01610028", "KFKN 221555Z AUTO 00000KT 10SM CLR 20/06 A3025 RMK AO2 T02020059", "KFKR 221555Z AUTO 19013KT 10SM CLR 21/10 A2995 RMK AO2", "KFKS 221555Z AUTO 20008G14KT 150V220 10SM CLR 19/08 A2979 RMK AO2 T01870082", "KFLD 221553Z AUTO 19014G21KT 10SM CLR 20/07 A2973 RMK AO2 SLP068 T02000067", "KFLG 221557Z 21014KT 10SM SCT023 11/07 A3001 RMK AO2 SLP095 T01110067", "KFLL 221553Z 03013KT 10SM SCT043 28/18 A3002 RMK AO2 SLP166 T02830183 $", "KFLO 221553Z 02006KT 10SM CLR 21/07 A3022 RMK AO2 SLP230 T02060067", "KFLP 221556Z AUTO 20012G21KT 10SM CLR 22/13 A2988 RMK AO2 SLP110 T02170133", "KFLY 221555Z AUTO 30016G21KT CLR 17/M07 A2976 RMK AO2 T01701075 PWINO", "KFME 221559Z AUTO 17004KT 10SM CLR 17/05 A3029 RMK AO1", "KFMM 221555Z AUTO 23008KT 10SM CLR 16/M06 A2961 RMK AO2", "KFMN 221553Z 09008KT 10SM CLR 12/M01 A2993 RMK AO2 SLP112 T01171006", "KFMY 221553Z 02005G14KT 10SM CLR 26/17 A3007 RMK AO2 SLP186 T02560167", "KFNB 221553Z AUTO 19013G23KT 10SM CLR 22/09 A2957 RMK AO2 SLP007 T02220094", "KFNL 221556Z 14004KT 10SM CLR 19/M07 A2962 RMK AO2 SLP972 T01941072", "KFNT 221553Z 19013G19KT 10SM CLR 18/07 A2995 RMK AO2 SLP140 T01830067", "KFOA 221555Z AUTO 19015G20KT 10SM CLR 21/13 A2995 RMK AO2", "KFOD 221556Z AUTO 20016G21KT 10SM CLR 20/07 A2956 RMK AO2 SLP022 T02000067", "KFOE 221553Z 20018KT 10SM CLR 24/11 A2959 RMK AO2 SLP009 T02440111 $", "KFOK 221553Z 17007KT 10SM CLR 18/09 A3030 RMK AO2 SLP262 T01780089 $", "KFOT 221550Z AUTO 31007KT 5SM BKN014 BKN020 10/10 A2994 RMK AO1", "KFOZ 221553Z AUTO 08003KT 10SM CLR 11/03 A2968 RMK AO2", "KFPK 221555Z AUTO 19013KT 10SM CLR 19/08 A2992 RMK AO2 T01850075", "KFPR 221553Z 36007KT 10SM CLR 27/18 A3006 RMK AO2 SLP179 T02670183", "KFPY 221555Z AUTO 06006KT 030V110 10SM CLR 22/03 A3019 RMK AO2 T02220026 TSNO", "KFQD 221555Z AUTO 17003KT 10SM CLR 17/00 A3026 RMK AO2", "KFRG 221553Z 00000KT 10SM CLR 17/04 A3029 RMK AO2 SLP257 T01720039 $", "KFRI 221555Z AUTO 18013KT 10SM CLR 23/08 A2955 RMK AO2 SLP997 T02250082 FZRANO $", "KFRM 221556Z AUTO 17014KT 10SM CLR 16/05 A2953 RMK AO2 SLP004 T01610050", "KFSD 221556Z 20007KT 10SM SCT250 18/01 A2946 RMK AO2 SLP976 T01780006", "KFSE 221555Z AUTO 07005KT 10SM CLR 09/01 A2957 RMK AO2", "KFSI 221555Z AUTO 22014G22KT 10SM CLR 25/09 A2967 RMK AO2 SLP039 T02480091", "KFSK 221555Z AUTO 19022G31KT 10SM CLR 23/11 A2968 RMK AO2 T02310110", "KFSM 221553Z 17010G18KT 10SM CLR 24/14 A2984 RMK AO2 SLP100 T02390139", "KFSO 221555Z AUTO 19009G17KT 150V230 10SM CLR 18/00 A3014 RMK AO2 T01780002", "KFST 221553Z AUTO 23012KT 10SM CLR 25/10 A2995 RMK AO2 SLP098 T02500100 $", "KFSW 221555Z AUTO 19008KT 10SM OVC001 22/09 A2972 RMK AO2", "KFTK 221555Z AUTO 18011KT 10SM CLR 20/09 A3006 RMK AO2 SLP179 T02000086", "KFTN 221555Z AUTO 15009KT 10SM CLR 23/18 A2996 RMK A01", "KFTW 221553Z 17012G22KT 10SM CLR 23/16 A2984 RMK AO2 PK WND 19027/1523 SLP095 T02330161 $", "KFTY 221553Z 00000KT 10SM CLR 19/04 A3024 RMK AO2 SLP237 T01890044", "KFUL 221553Z 20004KT 10SM OVC040 19/14 A2985 RMK AO2 SLP106 T01940144", "KFVE 221553Z AUTO 18009KT 10SM CLR 13/01 A3011 RMK AO2 SLP200 T01330011", "KFVX 221555Z AUTO 20003KT 10SM CLR 19/02 A3024 RMK AO2 T01880015", "KFWA 221554Z 18012KT 10SM FEW200 SCT300 21/09 A2999 RMK AO2 SLP152 T02060089 $", "KFWB 221555Z AUTO 18011G16KT 140V220 10SM CLR 21/11 A2983 RMK AO2", "KFWC 221555Z AUTO 20012G16KT CLR 21/12 A2995 RMK AO1 T02090122 PWINO", "KFWS 221552Z 18016G22KT 10SM CLR 23/16 A2987", "KFWZ 221555Z AUTO 25028G37KT 10SM SCT036 SCT046 BKN050 05/M01 A2954 RMK AO2", "KFXE 221553Z 36009KT 10SM FEW042 28/18 A3003 RMK AO2 SLP172 T02780183 $", "KFXY 221555Z AUTO 17016KT 10SM CLR 19/06 A2957 RMK AO2", "KFYE 221550Z AUTO 20013G18KT 10SM CLR 22/14 A3005 RMK A01", "KFYG 221515Z AUTO 17009KT 10SM CLR 22/11 A2982 RMK AO2", "KFYJ 221555Z AUTO 00000KT 10SM CLR 19/08 A3027 RMK AO1 T01890078", "KFYM 221600Z AUTO 17007KT 10SM CLR 19/10 A3018 RMK A01", "KFYV 221553Z 15019G30KT 10SM CLR 23/12 A2981 RMK AO2 PK WND 19031/1535 SLP081 T02280122", "KFZG 221555Z AUTO 02004KT 10SM CLR 20/02 A3023 RMK AO2 T02020019", "KGAD 221556Z AUTO 09004KT 10SM CLR 18/08 A3022 RMK AO2 SLP236 T01830083 $", "KGAG 221553Z AUTO 27018KT 10SM CLR 24/M02 A2960 RMK AO2 SLP000 T02441022", "KGAI 221556Z AUTO 18004KT 10SM CLR 19/07 A3027 RMK AO2 SLP263 T01890067", "KGAO 221555Z AUTO 09006KT 10SM SCT036 25/17 A3016 RMK AO2 T02460170", "KGBD 221556Z AUTO VRB03KT 10SM CLR 18/02 A2954 RMK AO2 SLP996 T01830022", "KGBG 221555Z AUTO 17011KT 10SM CLR 21/11 A2977 RMK AO2 T02120106", "KGBK 221550Z AUTO 14009G14KT 10SM SCT045 SCT050 25/14 A3009 RMK A01", "KGCC 221553Z AUTO VRB03KT 10SM CLR 08/03 A2944 RMK AO2 SLP954 T00830028", "KGCD 221555Z AUTO 27010G16KT 10SM SCT011 BKN017 OVC100 03/02 A2963 RMK AO2 P0001 T00330024", "KGCK 221554Z 31011KT 10SM CLR 19/M04 A2958 RMK AO2 SLP991 T01941044", "KGCM 221555Z AUTO 19019G24KT 10SM CLR 23/10 A2973 RMK AO2", "KGCN 221554Z 21015G22KT 10SM CLR 12/06 A2995 RMK AO2 SLP086 T01170061", "KGCY 221555Z AUTO 00000KT 10SM CLR 16/02 A3023 RMK A01", "KGDB 221555Z AUTO 13009KT 10SM CLR 15/03 A2949 RMK AO2 T01480031", "KGDJ 221555Z AUTO 19014G18KT 10SM CLR 23/14 A2987 RMK AO2 T02320143", "KGDP 221551Z AUTO 24020KT 8SM CLR 17/10 A3004 RMK AO2 PK WND 24028/1524 SLP110 T01720100", "KGDV 221556Z AUTO 06008KT M1/4SM FG OVC002 06/06 A2953 RMK AO2 SLP010 T00560056", "KGED 221554Z AUTO VRB03KT 10SM CLR 19/07 A3027 RMK AO2 SLP250 T01890067", "KGEG 221553Z 27006KT 8SM BKN007 BKN020 OVC045 04/03 A2954 RMK AO2 SLP013 T00440028", "KGEU 221555Z 10004KT 10SM FEW250 23/13 A2980", "KGEV 221555Z AUTO 10005KT 10SM CLR 15/00 A3026 RMK AO2 T01481001", "KGEY 221553Z AUTO 00000KT 10SM BKN110 08/03 A2936 RMK AO2 SLP927 T00830033", "KGEZ 221553Z AUTO 19016KT 10SM CLR 21/09 A3001 RMK AO2 SLP159 T02060089", "KGFA 221555Z AUTO 04010KT 10SM -RA OVC003 04/04 A2942 RMK AO2 SLP980 P0004 T00360035 $", "KGFK 221553Z 05010KT 10SM OVC130 11/04 A2955 RMK AO2 SLP010 T01060039 $", "KGFL 221553Z AUTO 14003KT 10SM CLR 13/03 A3024 RMK AO2 SLP244 T01330033", "KGGE 221555Z AUTO 36007KT 10SM SCT045 21/10 A3018 RMK AO2", "KGGF 221555Z AUTO 22006KT 10SM CLR 17/M05 A2955 RMK AO2", "KGGG 221553Z 21023G31KT 10SM CLR 24/16 A2995 RMK AO2 PK WND 20031/1550 SLP138 T02440161", "KGGI 221555Z AUTO 19013KT 10SM CLR 23/08 A2965 RMK AO2 T02290080", "KGGP 221555Z AUTO 19013KT 10SM CLR 20/08 A2996 RMK AO2", "KGGW 221553Z AUTO 10014KT 10SM OVC022 07/04 A2950 RMK AO2 SLP002 T00670039", "KGHB 221555Z AUTO 00000G10KT 7SM CLR 25/15 A3011 RMK A01", "KGHG 221555Z AUTO 21007G14KT 180V250 10SM CLR 18/08 A3028 RMK AO2", "KGHW 221555Z AUTO 10016G19KT 10SM CLR 16/03 A2950 RMK AO2", "KGIC 221555Z AUTO 25003KT 10SM OVC017 03/02 A2954 RMK AO1", "KGIF 221553Z AUTO 01010KT 10SM CLR A3012 RMK AO2 SLPNO $", "KGJT 221553Z 15014KT 10SM CLR 16/M01 A2974 RMK AO2 SLP026 T01611011 $", "KGKJ 221553Z AUTO 20007KT 160V230 10SM CLR 17/03 A3013 RMK AO2 SLP204 T01670033", "KGKT 221555Z AUTO 00000KT 10SM CLR 16/05 A3023 RMK A01", "KGKY 221553Z 18014G29KT 10SM CLR 23/16 A2985 RMK AO2 PK WND 16029/1551 SLP101 T02330156", "KGLD 221553Z AUTO 29003KT 10SM CLR 19/M08 A2958 RMK AO2 SLP988 T01891083", "KGLE 221555Z AUTO 18020G28KT 10SM CLR 23/13 A2981 RMK AO2 T02330131", "KGLH 221553Z 19015G26KT 10SM CLR 25/14 A3005 RMK AO2 PK WND 21026/1545 SLP182 T02500144", "KGLR 221553Z AUTO 17009KT 10SM CLR 17/06 A2984 RMK AO2 SLP106 T01670061", "KGLS 221552Z 18013KT 10SM FEW030 27/18 A3004 RMK AO2 SLP171 T02720183", "KGLW 221555Z AUTO 19009KT 10SM CLR 20/11 A3012 RMK AO2 T01980106", "KGLX 221555Z AUTO 06011KT 10SM SCT039 24/14 A3016 RMK A01", "KGLY 221555Z AUTO 18016KT 10SM CLR 24/10 A2970 RMK AO2", "KGMJ 221555Z AUTO 18017G22KT 10SM CLR 15/04 A2973 RMK AO2", "KGMU 221553Z VRB03KT 10SM CLR 19/00 A3026 RMK AO2 SLP244 T01940000", "KGNA 221556Z AUTO 08006KT 11/06 A2970 RMK AO1 SLP061 T01060056", "KGNB 221555Z AUTO 02003KT 10SM CLR 06/M06 A2985 RMK AO2 T00561061", "KGNC 221555Z AUTO 25014G20KT 10SM CLR 24/11 A2994 RMK AO2 T02380110", "KGNG 221555Z AUTO 21013KT 9SM OVC032 07/07 A2954 RMK AO2", "KGNR 221556Z AUTO 15006KT 13/04 A3018 RMK AO1 SLP226 T01330039", "KGNV 221553Z 02010KT 10SM CLR 22/11 A3019 RMK AO2 SLP220 T02220106", "KGOK 221553Z AUTO 20023G30KT 10SM CLR 23/09 A2963 RMK AO2 PK WND 20033/1541 SLP026 T02330089", "KGON 221556Z 21006KT 10SM CLR 18/09 A3029 RMK AO2 SLP256 T01780089", "KGOO 221555Z AUTO 14005KT 10SM BKN006 BKN013 OVC019 11/09 A2978 RMK A01", "KGOP 221555Z AUTO 10SM CLR 24/15 A2993 RMK AO2", "KGOV 221558Z AUTO 20008KT 10SM CLR 18/07 A2984 RMK AO2 SLP112 T01750066 $", "KGPC 221555Z AUTO 18014KT 10SM CLR 21/11 A2998 RMK AO2 T02090115", "KGPI 221555Z 00000KT 4SM -RA BR FEW034 BKN041 OVC050 04/03 A2946 RMK AO2 RAE15B53 SLP987 P0000 T00390028", "KGPM 221550Z 17008G19KT 10SM SKC 23/15 A2988", "KGPT 221553Z 00000KT 10SM CLR 23/15 A3017 RMK AO2 SLP214 T02330150", "KGPZ 221556Z AUTO 09004KT 10SM CLR 10/03 A2962 RMK AO2 SLP037 T01000028", "KGRB 221553Z 20009KT 8SM CLR 18/07 A2972 RMK AO2 SLP066 T01830072 $", "KGRD 221556Z AUTO 09003KT 10SM CLR 19/01 A3026 RMK AO2 SLP245 T01890011", "KGRF 221558Z 00000KT 10SM SCT006 SCT049 BKN080 08/06 A2972 RMK SLP069 T00750061 $", "KGRI 221553Z 20004KT 10SM CLR 21/00 A2951 RMK AO2 SLP989 T02110000 $", "KGRK 221555Z AUTO 18018G23KT 10SM CLR 24/15 A2988 RMK AO2 PK WND 22027/46 SLP110 T02390151", "KGRN 221555Z AUTO 00000KT 10SM CLR 12/01 A2951 RMK AO2 T01160011", "KGRR 221553Z 19012G20KT 10SM SCT250 18/08 A2989 RMK AO2 SLP121 T01830078 $", "KGRY 221555Z AUTO 14009KT 10SM CLR 24/14 A3014 RMK A01", "KGSB 221555Z 35007KT 10SM BKN036 22/03 A3020 RMK AO2A SLP230 T02230029 $", "KGSH 221553Z AUTO 18013KT 10SM CLR 19/09 A2993 RMK AO2 SLP133 T01940094", "KGSO 221554Z 00000KT 10SM FEW250 19/02 A3024 RMK AO2 SLP238 T01890017", "KGSP 221553Z 31003KT 10SM CLR 17/01 A3026 RMK AO2 SLP244 T01720006", "KGTB 221555Z AUTO 24010KT 10SM CLR 20/02 A3010 RMK AO2 SLP193 T02000019", "KGTF 221553Z 04007KT 2SM -RA BR BKN003 OVC008 04/04 A2943 RMK AO2 SFC VIS 6 SLP981 P0004 T00390039", "KGTR 221556Z 19009G14KT 10SM CLR 22/14 A3016 RMK AO2 SLP218 T02170139", "KGTU 221556Z 18019KT 10SM SCT020 24/17 A2995 RMK AO2 SLP139 T02390167", "KGUC 221556Z AUTO 00000KT 10SM CLR 04/M07 A2994 RMK AO2 SLP115 T00391072", "KGUP 221553Z AUTO 22014G23KT 10SM CLR 14/07 A3001 RMK AO2 SLP072 T01390072", "KGUS 221555Z AUTO 20014KT 10SM CLR 21/09 A2994 RMK AO2 SLP139 T02050094 $", "KGUY 221553Z AUTO 25015KT 10SM CLR 24/M04 A2964 RMK AO2 SLP998 T02391039", "KGVL 221553Z AUTO 00000KT 10SM CLR 18/01 A3026 RMK AO2 SLP239 T01830011", "KGVQ 221556Z AUTO 21010KT 10SM CLR 20/02 A3011 RMK AO2 SLP194 T02000022", "KGVT 221555Z AUTO 18021G26KT 10SM CLR 23/16 A2989 RMK AO2 TSNO T02270158", "KGVW 221550Z AUTO 15011G17KT 10SM BKN039 BKN048 BKN055 25/19 A3005 RMK A01", "KGWB 221555Z AUTO 19005KT 10SM CLR 18/09 A2998 RMK AO2", "KGWO 221553Z AUTO 19015KT 10SM CLR 25/14 A3010 RMK AO2 SLP189 T02500144", "KGWR 221555Z AUTO 09014KT 8SM CLR 11/02 A2946 RMK A01", "KGXF 221555Z AUTO 00000KT 10SM CLR 24/13 A2981 RMK AO2 SLP084 T02350128 FZRANO $", "KGXY 221556Z 09004KT 10SM CLR 12/M03 A2962 RMK AO2 SLP015 T01221033 $", "KGYB 221555Z AUTO 20015G24KT 10SM SCT022 SCT028 24/18 A2999 RMK AO2 T02380175", "KGYF 221555Z AUTO 14016KT 10SM SCT043 BKN050 26/16 A3004 RMK AO2 T02610157", "KGYH 221547Z 09004KT 10SM CLR 18/00 A3025", "KGYI 221550Z 18022G27KT 10SM SKC 24/14 A2984", "KGYL 221555Z AUTO 14006KT 7SM CLR 14/03 A2954 RMK AO2 T01390031", "KGYR 221547Z 00000KT 10SM FEW120 SCT250 22/13 A2981", "KGYY 221545Z 18008G18KT 10SM CLR 20/09 A2987", "KGZH 221553Z AUTO 17004KT 10SM CLR 21/08 A3021 RMK AO2 SLP229 T02110083", "KGZL 221555Z AUTO 21017G25KT 10SM CLR 24/13 A2977 RMK AO2", "KGZN 221540Z AUTO 21021G26KT 10SM CLR 24/09 A2984 RMK AO2", "KGZS 221555Z AUTO VRB05KT 10SM CLR 19/12 A3016 RMK A01", "KH71 221555Z AUTO 18020G29KT 10SM CLR 24/13 A2970 RMK AO2", "KHAE 221555Z AUTO 18012G16KT 10SM CLR 23/07 A2976 RMK AO2", "KHAF 221555Z AUTO 34010KT 5SM BR BKN016 14/14 A2984 RMK AO2", "KHAI 221555Z AUTO 18011G17KT 10SM CLR 19/09 A2994 RMK AO2 T01870085", "KHAO 221553Z AUTO VRB06KT 10SM CLR 21/07 A3008 RMK AO2 SLP184 T02060067", "KHBG 221553Z AUTO 18010KT 10SM CLR 24/12 A3017 RMK AO2 SLP215 T02390117", "KHBI 221555Z AUTO 00000KT 10SM CLR 17/01 A3027 RMK AO2 T01730013", "KHBR 221553Z AUTO 21020G26KT 10SM CLR 24/10 A2967 RMK AO2 PK WND 21027/1534 SLP030 T02440100", "KHBV 221550Z AUTO 18014G18KT 10SM CLR 25/18 A2999 RMK AO2 T02500177", "KHCD 221555Z AUTO 12010G14KT 10SM CLR 15/03 A2953 RMK AO2 T01490030", "KHCO 221555Z AUTO 07009KT 10SM CLR 11/07 A2960 RMK AO2", "KHCR 221555Z AUTO 23015G28KT 10SM SCT048 BKN070 OVC085 14/M03 A2960 RMK AO2", "KHDC 221601Z AUTO 16010KT 10SM SCT028 24/16 A3016 RMK AO2 TSNO", "KHDE 221555Z AUTO 00000KT 10SM CLR 20/M01 A2953 RMK AO2 T01991008", "KHDL 221555Z AUTO VRB04KT 10SM CLR 20/04 A3022 RMK AO2", "KHDN 221605Z AUTO 22019G29KT 10SM CLR 14/M05 A2973 RMK AO2 PK WND 22029/1559 WSHFT 1545", "KHDO 221609Z AUTO VRB03KT 10SM BKN010 22/18 A2999 RMK AO2 CIG 007V012 T02170178", "KHEF 221556Z VRB03KT 10SM CLR 16/06 A3027 RMK AO2 SLP256 T01560061", "KHEG 221555Z AUTO 02010KT 10SM CLR 22/08 A3019 RMK AO2", "KHEI 221553Z AUTO 03010KT 10SM FEW120 07/04 A2950 RMK AO2 SLP992 T00720039", "KHEQ 221555Z AUTO 23005KT 10SM CLR 23/M03 A2957 RMK AO2", "KHEY 221555Z AUTO 00000KT 10SM CLR 20/04 A3020 RMK AO2 SLP228 T01970042 $", "KHEZ 221556Z AUTO 15012G18KT 10SM CLR 24/15 A3011 RMK AO2 SLP195 T02390150", "KHFD 221553Z 20005KT 10SM CLR 18/06 A3028 RMK AO2 SLP252 T01780061", "KHFF 221555Z AUTO 08007KT 10SM CLR 20/05 A3021 RMK AO2 SLP233 T02030051 $", "KHFJ 221555Z AUTO 17018G26KT 10SM CLR 20/10 A2977 RMK AO2", "KHGR 221553Z 24003KT 10SM CLR 15/03 A3025 RMK AO2 SLP255 T01500033 $", "KHHF 221555Z AUTO 27014G21KT 10SM CLR 26/03 A2965 RMK AO2 T02590029", "KHHG 221555Z AUTO 20008KT 140V220 10SM CLR A2998 RMK AO2", "KHHR 221553Z 21005KT 10SM OVC040 20/13 A2986 RMK AO2 SLP111 T02000133", "KHHV 221555Z AUTO 18012KT 170V230 10SM FEW043 26/16 A3003 RMK A01", "KHHW 221554Z AUTO 19016G23KT 10SM CLR 23/14 A2986 RMK AO2", "KHIB 221553Z AUTO 11005KT 10SM CLR 09/03 A2962 RMK AO2 SLP041 T00940028", "KHIE 221552Z AUTO 00000KT 10SM CLR 16/01 A3022 RMK AO2 SLP242 T01560011", "KHIF 221555Z AUTO 22012KT 10SM -RA FEW025 SCT035 BKN043 11/05 A2959 RMK AO2 PK WND 23030/04 RAE29DZB29E30RAB30 SLP981 P0000 T01110048", "KHII 221555Z AUTO 14017G26KT 10SM CLR 25/10 A2970 RMK AO2", "KHIO 221600Z 24005KT 10SM -RA BKN036 BKN049 OVC075 09/08 A2977 RMK AO2 P0000 T00890083", "KHJH 221555Z AUTO 18006KT 1 1/2SM HZ VV007 18/04 A2954 RMK AO2 T01820039", "KHJO 221553Z AUTO 33009KT 9SM CLR 17/11 A2979 RMK AO2 SLP087 T01720111", "KHKA 221553Z AUTO 21014G22KT 10SM CLR 23/14 A3001 RMK AO2 SLP160 T02330139 $", "KHKS 221553Z 18010KT 10SM CLR 24/14 A3014 RMK AO2 SLP197 T02390139", "KHKY 221553Z 00000KT 10SM CLR 17/05 A3025 RMK AO2 SLP232 T01720050", "KHLB 221555Z AUTO 18007G12KT 150V210 10SM CLR 19/08 A3005 RMK A01", "KHLC 221553Z AUTO 10004KT 10SM CLR 19/01 A2954 RMK AO2 SLP994 T01890006", "KHLG 221553Z 18010KT 10SM CLR 17/03 A3017 RMK AO2 SLP218 T01720028", "KHLN 221553Z 28007KT 10SM OVC018 04/02 A2939 RMK AO2 SLP975 T00440022", "KHLR 221555Z AUTO 20017G24KT 9SM CLR 24/15 A2993 RMK AO2 SLP126 T02440153", "KHLX 221555Z AUTO 00000KT 10SM CLR 14/M06 A3025 RMK AO2 T01421060", "KHMN 221555Z AUTO 14005KT 10SM CLR 21/10 A3000 RMK AO2 SLP100 T02140099 $", "KHMP 221555Z AUTO 00000KT 10SM CLR 19/03 A3028 RMK AO2 T01890032", "KHMT 221555Z AUTO 25008KT 10SM OVC028 17/14 A2988 RMK AO2 T01690143", "KHMZ 221555Z AUTO 00000KT 10SM CLR 13/01 A3024 RMK AO2 T01310012", "KHNB 221556Z AUTO 19014G20KT 10SM CLR 21/13 A3003 RMK AO2 SLP167 T02060128", "KHND 221556Z 21017G21KT 10SM CLR 24/01 A2969 RMK AO2 SLP047 T02390006", "KHNR 221555Z AUTO 19014G20KT 10SM CLR 20/08 A2956 RMK A01", "KHOB 221550Z 22011G18KT 10SM SKC 23/10 A2992", "KHOE 221555Z AUTO 06006KT 10SM CLR 20/02 A3022 RMK AO2 T02050021", "KHON 221555Z AUTO 19008KT 10SM CLR 13/00 A2941 RMK AO2 SLP961 T01280000", "KHOP 221555Z AUTO 21010KT 10SM CLR 21/13 A3006 RMK AO2 SLP178 T02140130", "KHOT 221553Z AUTO 21012G22KT 10SM CLR 22/14 A2997 RMK AO2 SLP143 T02220144", "KHOU 221553Z 21016G25KT 10SM FEW040 FEW250 28/15 A3001 RMK AO2 SLP168 T02780150", "KHPN 221556Z 17004KT 10SM CLR 16/07 A3027 RMK AO2 SLP253 T01610072 $", "KHPT 221555Z AUTO 20015G19KT 10SM CLR 21/05 A2960 RMK AO2", "KHQG 221555Z AUTO 30014G18KT 10SM CLR 24/M05 A2962 RMK AO2 T02371047 PWINO", "KHQG 221555Z AUTO 30014G18KT 10SM CLR 24/M05 A2962 RMK AO2 T02371047 PWINO", "KHQM 221553Z AUTO 00000KT 10SM BKN065 10/09 A2976 RMK AO2 SLP080 T01000089", "KHQU 221555Z AUTO 04003KT 10SM CLR 18/04 A3024 RMK AO2 T01800040", "KHQZ 221550Z 16018G28KT 10SM SCT020 23/16 A2989", "KHRF 221600Z AUTO 00000KT 4SM -SN 00/00 A2945 RMK AO2 Hamilton ", "KHRI 221553Z AUTO 25010KT 10SM OVC110 09/07 A2965 RMK AO2 SLP039 T00890067", "KHRJ 221555Z AUTO 05007KT 7SM CLR 20/05 A3024 RMK AO2 T02030051", "KHRL 221552Z 17012G18KT 10SM FEW028 SCT032 BKN048 28/21 A2998 RMK AO2 SLP151 T02830206", "KHRO 221553Z AUTO 19012G22KT 10SM CLR 19/12 A2986 RMK AO2 SLP101 T01940122", "KHRT 221555Z AUTO 09007KT 10SM CLR 21/04 A3019 RMK AO2 SLP225 T02140040 $", "KHRX 221555Z AUTO 25017G23KT 10SM CLR 21/05 A2982 RMK AO2 T02110046", "KHSA 221550Z 13009KT 10SM CLR 24/13 A3016", "KHSB 221555Z AUTO 19015G19KT 10SM CLR 22/16 A2998 RMK AO2 T02180159", "KHSD 221555Z AUTO 20018G27KT 10SM CLR 24/09 A2964 RMK A01", "KHSE 221551Z AUTO 02007KT 340V060 10SM CLR 19/17 A3017 RMK AO2 SLP216 T01940167", "KHSG 221550Z AUTO 15003KT 10SM SCT120 14/M03 A2938 RMK AO2 T01431028", "KHSP 221555Z AUTO 25004KT 10SM CLR 14/M01 A3028 RMK AO2 T01431011", "KHST 221555Z AUTO 02010G17KT 10SM SCT075 28/19 A3000 RMK AO2 SLP162 T02780185", "KHSV 221553Z 17003KT 10SM BKN250 21/12 A3017 RMK AO2 SLP214 T02060117", "KHTL 221553Z AUTO 16009KT 10SM CLR 17/07 A2987 RMK AO2 SLP115 T01670072", "KHTS 221551Z 21007KT 10SM CLR 19/03 A3016 RMK AO2 SLP210 T01890033", "KHUF 221553Z 19011KT 10SM CLR 22/12 A2997 RMK AO2 SLP145 T02170122", "KHUL 221553Z AUTO 20007G16KT 150V220 10SM CLR 15/04 A3019 RMK AO2 SLP225 T01500039", "KHUM 221547Z 15011KT 7SM CLR 26/17 A3014", "KHUT 221552Z 16012KT 10SM CLR 21/07 A2955 RMK AO2 SLP987 T02060067", "KHVE 221555Z AUTO 21022G30KT 10SM CLR 18/00 A2973 RMK AO2", "KHVN 221553Z 15004KT 10SM CLR 18/09 A3029 RMK AO2 SLP257 T01780089", "KHVR 221553Z AUTO 08010KT OVC004 06/05 A2947 RMK AO2 SLP988 T00560050 $", "KHVS 221555Z AUTO 04009KT 10SM CLR 20/02 A3023 RMK AO2", "KHWD 221554Z 26010KT 10SM SCT012 16/13 A2979 RMK AO2 SLP099 T01560133", "KHWO 221553Z 02010G16KT 10SM CLR 28/18 A3005 RMK AO2 SLP175 T02780183", "KHWV 221556Z AUTO 16006KT 10SM CLR 18/07 A3029 RMK AO2 SLP258 T01830072", "KHWY 221555Z AUTO 00000KT 10SM CLR 17/02 A3030 RMK AO2 T01680019", "KHXD 221550Z 03013KT 10SM CLR 20/06 A3020", "KHYA 221556Z VRB06KT 10SM CLR 16/11 A3029 RMK AO2 SLP259 T01610106", "KHYI 221556Z 21022G26KT 10SM SCT022 21/18 A2999 RMK AO2 PK WND 20026/1556 SLPNO T02060176 $", "KHYR 221553Z AUTO 12007KT 090V160 10SM CLR 16/04 A2963 RMK AO2 SLP040 T01560039", "KHYS 221556Z AUTO 05005KT 10SM CLR 18/00 A2954 RMK AO2 SLP996 T01780000 $", "KHYW 221555Z AUTO 36008KT 10SM SCT050 21/09 A3019 RMK AO2", "KHYX 221555Z AUTO 19013G16KT 10SM CLR 19/06 A2992 RMK AO2 T01890057", "KHZD 221555Z AUTO 21012G18KT 10SM CLR 22/13 A3005 RMK A01", "KHZE 221555Z AUTO 05007KT 10SM OVC010 07/06 A2957 RMK AO2", "KHZL 221555Z AUTO 23003KT 10SM CLR 17/01 A3028 RMK AO2", "KHZR 221555Z AUTO 16009G14KT 10SM CLR 25/16 A3012 RMK AO2 T02470156", "KHZX 221555Z AUTO 10007KT 10SM CLR 13/03 A2960 RMK AO2", "KHZY 221553Z AUTO 18012G17KT 10SM CLR 18/05 A3012 RMK AO2 SLP197 T01780050", "KI23 221555Z AUTO 19009KT 10SM CLR 20/05 A3010 RMK AO1", "KI35 221555Z AUTO 00000KT 10SM CLR 17/01 A3022 RMK AO2 T01710013", "KI63 221555Z AUTO 18015G18KT 10SM CLR 23/09 A2976 RMK AO2 T02260093", "KI67 221555Z AUTO 19009KT 10SM CLR 19/07 A3007 RMK AO1", "KI68 221555Z AUTO 20008KT 10SM CLR 19/07 A3008 RMK AO1 T01910074", "KI69 221555Z AUTO 20012G15KT 170V230 10SM CLR 20/07 A3010 RMK AO2 T01960068", "KI74 221555Z AUTO 19006KT 10SM CLR 18/07 A3008 RMK AO2", "KI75 221555Z AUTO 19016G21KT 10SM CLR 23/09 A2962 RMK AO2 T02270085", "KIAB 221555Z AUTO 21013G19KT 10SM CLR 23/08 A2955 RMK AO2 PK WND 22026/34 SLP997 T02280081", "KIAD 221552Z 18008KT 10SM CLR 17/04 A3026 RMK AO2 SLP246 T01720044", "KIAG 221553Z 21011KT 10SM CLR 19/05 A3008 RMK AO2 SLP188 T01940050", "KIAH 221553Z 21012G22KT 10SM FEW040 FEW060 FEW250 26/15 A3001 RMK AO2 SLP162 T02610150", "KIBM 221555Z AUTO 23014KT 10SM CLR 20/M06 A2961 RMK AO2 T01981065", "KICL 221555Z AUTO 19017G23KT 10SM CLR 23/08 A2960 RMK AO2", "KICR 221553Z AUTO 27012KT CLR 15/02 A2947 RMK AO2 SLP971 T01500022", "KICT 221553Z 19020G27KT 10SM FEW200 23/08 A2956 RMK AO2 PK WND 19031/1506 SLP996 T02280078", "KIDA 221553Z 19022G35KT 10SM -RA OVC028 09/05 A2945 RMK AO2 PK WND 19035/1548 SLP947 P0001 T00890050", "KIDI 221555Z AUTO 22008KT 10SM CLR 17/03 A3024 RMK A01", "KIDP 221555Z AUTO 18017G31KT 10SM CLR 23/12 A2967 RMK AO2 T02270119", "KIEN 221552Z AUTO 00000KT 10SM CLR 08/01 A2951 RMK AO2 SLP992 T00780011", "KIER 221555Z AUTO 19010G17KT 10SM CLR 26/16 A3004 RMK AO2 T02560162", "KIFA 221555Z AUTO 20012G18KT 10SM CLR 21/08 A2962 RMK AO2 T02070079", "KIFP 221550Z 21008KT 20SM CLR 22/07 A2970", "KIGM 221551Z AUTO 22015KT 10SM CLR 21/06 A2981 RMK AO2 SLP037 T02060061", "KIGQ 221555Z AUTO 19015G20KT 10SM CLR 19/09 A2987 RMK AO2 T01930094", "KIIB 221555Z AUTO 19010KT 10SM CLR 21/07 A2968 RMK AO2 T02050068", "KIIY 221555Z AUTO 12003KT 10SM CLR 19/01 A3025 RMK AO2 T01890010", "KIJD 221552Z AUTO 00000KT 10SM CLR 16/08 A3028 RMK AO2 SLP254 T01610078", "KIJX 221555Z AUTO 17013G19KT 10SM CLR 21/10 A2981 RMK AO2 T02070100", "KIKK 221555Z AUTO 19015G21KT 10SM CLR 19/10 A2988 RMK AO2 T01940095", "KIKV 221555Z AUTO 20011G18KT 10SM CLR 22/08 A2961 RMK AO2", "KIKW 221555Z AUTO 19010G14KT 10SM CLR 19/07 A2989 RMK AO2 T01920072", "KILE 221556Z AUTO 19019G24KT 10SM CLR 24/16 A2993 RMK AO2 SLP125 T02440156", "KILG 221551Z 17004KT 10SM CLR 17/09 A3028 RMK AO2 SLP253 T01670089", "KILM 221553Z 02011KT 10SM CLR 23/12 A3017 RMK AO2 SLP216 T02330117 PWINO", "KILN 221554Z AUTO 21012G19KT 10SM CLR 20/06 A3009 RMK AO2 SLP190 T02000061", "KIML 221553Z AUTO 00000KT 10SM CLR 17/M04 A2957 RMK AO2 SLP994 T01721039", "KIMS 221555Z AUTO 18011KT 10SM CLR 19/08 A3009 RMK AO2", "KIMT 221554Z AUTO VRB04KT 8SM CLR 13/07 A2971 RMK AO2 SLP068 T01280067", "KIND 221554Z 19013KT 10SM SCT250 19/09 A2999 RMK AO2 SLP154 T01940094", "KINF 221555Z AUTO 03008KT 5SM HZ CLR 22/13 A3014 RMK AO2", "KINJ 221555Z AUTO 18019G24KT 10SM CLR 24/17 A2990 RMK AO2 T02410165", "KINK 221553Z AUTO 24011KT 10SM CLR 25/10 A2989 RMK AO2 SLP086 T02500100", "KINL 221554Z AUTO 10004KT 10SM BKN110 09/04 A2966 RMK AO2 SLP051 T00940039", "KINS 221555Z AUTO 00000KT 10SM CLR 15/M02 A2965 RMK AO2 SLP010 T01531022 $", "KINT 221554Z 12003KT 10SM CLR 19/01 A3026 RMK AO2 SLP242 T01890006", "KINW 221556Z AUTO 11004KT 10SM CLR 15/08 A2993 RMK AO2 SLP088 T01500083", "KIOB 221555Z AUTO 22010G14KT 10SM CLR 20/07 A3015 RMK AO2 PWINO", "KIOW 221552Z AUTO 20014KT 10SM CLR 22/07 A2971 RMK AO2 SLP058 T02220072", "KIPL 221553Z AUTO 20006KT 10SM CLR 23/11 A2973 RMK AO2 SLP068 T02330111", "KIPT 221554Z 00000KT 10SM CLR 13/04 A3025 RMK AO2 SLP244 T01330039", "KIRK 221555Z AUTO 21012G24KT 10SM CLR 24/09 A2970 RMK AO2 PK WND 20027/1545 SLP056 T02390089 $", "KIRS 221555Z AUTO 19010KT 10SM CLR 18/08 A2994 RMK AO2 T01840077", "KISM 221556Z 02008KT 10SM CLR 24/17 A3011 RMK AO2 SLP198 T02440167 PNO $", "KISO 221556Z 05010KT 10SM CLR 22/07 A3022", "KISP 221556Z 16005KT 10SM FEW250 18/07 A3028 RMK AO2 SLP254 T01780072", "KISQ 221555Z AUTO 12009KT 10SM CLR 11/10 A2977 RMK AO2 T01130099", "KISW 221554Z AUTO 20008KT 10SM CLR 17/04 A2969 RMK AO2 SLP057 T01720044", "KITH 221556Z 17012KT 10SM CLR 17/03 A3020 RMK AO2 SLP225 T01720028", "KITR 221553Z AUTO 31005KT 10SM CLR 19/M06 A2962 RMK AO2 SLP991 T01941061 $", "KIWA 221549Z 12005KT 10SM SCT075 23/14 A2984", "KIWD 221556Z AUTO 12007KT 10SM CLR 15/05 A2967 RMK AO2 SLP054 T01500050", "KIWI 221553Z AUTO 20006KT 10SM CLR 16/06 A3028 RMK AO2 SLP253 T01610061", "KIXD 221553Z 18019G35KT 10SM CLR 24/09 A2964 RMK AO2 PK WND 19035/1548 SLP025 T02390094 $", "KIYA 221555Z AUTO 14013G17KT CLR 26/14 A3011 RMK AO2 T02550137 PWINO", "KIZA 221555Z AUTO 00000KT 10SM OVC016 13/13 A2987 RMK AO2", "KIZG 221554Z AUTO 00000KT 10SM CLR 13/03 A3024 RMK AO2 SLP245 T01330028 $", "KJAC 221556Z 22009KT 10SM -RA BKN022 OVC032 05/04 A2950 RMK AO2 SLP960 T00500039 PNO $", "KJAN 221554Z 19012G20KT 10SM FEW030 23/13 A3014 RMK AO2 SLP201 T02330133", "KJAS 221555Z AUTO 21015G22KT 9SM FEW039 26/17 A3002 RMK AO2", "KJAU 221555Z AUTO 00000KT 10SM CLR 15/05 A3027 RMK A01", "KJAX 221556Z 01011KT 10SM FEW040 FEW250 22/08 A3017 RMK AO2 SLP216 T02170078", "KJBR 221553Z AUTO 20015G24KT 10SM CLR 22/14 A2999 RMK AO2 PK WND 22027/1519 RAE25 SLP155 P0000 T02170139 $", "KJCA 221555Z AUTO 17003KT 10SM CLR 18/01 A3025 RMK AO2 T01800006", "KJCT 221551Z AUTO 22006G14KT 10SM CLR 23/14 A2995 RMK AO2 SLP111 T02330144 $", "KJDD 221555Z AUTO 20016G29KT 10SM OVC026 23/16 A2992 RMK AO2", "KJDN 221548Z AUTO 10007KT 07/07 A2947 RMK AO1 SLP989 T00720067", "KJEF 221553Z 17011G20KT 10SM CLR 26/09 A2977 RMK AO2 SLP066 T02610094 $", "KJER 221553Z AUTO 22013KT 10SM -RA SCT008 BKN033 OVC065 06/05 A2954 RMK AO2 PK WND 28027/1455 RAE27B52 SLP988 P0002 T00610050", "KJES 221555Z AUTO 06007KT 10SM CLR 19/01 A3022 RMK AO2", "KJFK 221551Z 20004KT 10SM FEW250 17/07 A3029 RMK AO2 SLP258 T01670072", "KJFX 221555Z AUTO 00000KT 10SM CLR 20/12 A3018 RMK AO2", "KJFZ 221555Z AUTO 31003KT 10SM CLR 15/02 A3025 RMK AO2 T01510016", "KJHN 221555Z AUTO 27016G20KT 10SM CLR 23/M04 A2961 RMK AO2 T02291044", "KJHW 221556Z AUTO 19012KT 10SM CLR 17/02 A3015 RMK AO2 SLP215 T01670022", "KJKA 221555Z 07009KT 10SM CLR 23/12 A3019", "KJKJ 221555Z AUTO 10006KT 10SM CLR 13/03 A2950 RMK AO2 TSNO", "KJKL 221553Z AUTO VRB04KT 10SM CLR 19/04 A3018 RMK AO2 SLP213 T01890039", "KJLN 221553Z 18023G38KT 10SM CLR 22/11 A2972 RMK AO2 PK WND 18038/1551 SLP054 T02220111 $", "KJMR 221555Z AUTO 13007KT 10SM CLR 15/03 A2961 RMK AO2", "KJMS 221556Z AUTO 05010KT 10SM CLR 11/02 A2949 RMK AO2 SLP990 T01110022", "KJNX 221555Z AUTO 02008KT 10SM CLR 21/06 A3023 RMK AO2", "KJOT 221555Z AUTO 18009G17KT 10SM CLR 20/10 A2984 RMK AO2 T02040101", "KJPX 221555Z AUTO 21005KT 10SM CLR 17/07 A3029 RMK AO2 T01710072", "KJQF 221550Z 00000KT 10SM CLR 18/03 A3028", "KJSL 221500Z AUTO 11008KT 10SM CLR A3010 RMK A01", "KJSO 221555Z AUTO 22013G20KT 10SM BKN026 23/17 A3000 RMK AO2 T02280165 TSNO", "KJST 221554Z AUTO VRB05KT CLR 16/02 A3022 RMK AO2 SLP233 T01610017 $", "KJSY 221555Z AUTO 10SM SCT008 SCT036 OVC047 02/00 A2955 RMK AO2 T00200002 TSNO", "KJTC 221555Z AUTO 27013G22KT 10SM FEW049 SCT060 BKN065 17/06 A3007 RMK AO2", "KJVL 221545Z 20015G22KT 10SM SCT200 19/06 A2976", "KJVW 221555Z AUTO 17010G19KT 10SM CLR 24/14 A3012 RMK AO2", "KJVY 221555Z AUTO 19012KT 10SM CLR 21/10 A3006 RMK AO2 PWINO", "KJWG 221555Z AUTO 20018KT 10SM CLR 23/10 A2964 RMK AO2 T02310096", "KJWN 221550Z 20010KT 10SM CLR 20/10 A3010", "KJWY 221555Z AUTO 19017G25KT 10SM CLR 23/16 A2990 RMK AO2 T02340163", "KJXN 221556Z 17012KT 10SM CLR 19/08 A2995 RMK AO2 SLP141 T01940078", "KJYG 221557Z AUTO 13007KT 7SM CLR 14/03 A2952 RMK AO2", "KJYL 221555Z AUTO 07004KT 10SM CLR 21/02 A3023 RMK AO2 T02050023", "KJYM 221555Z AUTO 18008KT 10SM CLR 18/06 A2997 RMK AO2 T01800059", "KJYR 221555Z AUTO 17005KT 9SM CLR 17/02 A2952 RMK AO2", "KJZI 221555Z AUTO 02009KT 10SM CLR 20/09 A3019 RMK AO2", "KK62 221555Z AUTO 18007KT 10SM CLR 21/07 A3010 RMK AO2", "KK70 221555Z AUTO 35008G14KT 10SM BKN075 26/21 A3001 RMK AO2", "KK88 221555Z AUTO 18020G28KT 10SM CLR 23/10 A2966 RMK AO1 T02310100", "KKLS 221556Z AUTO 00000KT 10SM OVC015 09/08 A2977 RMK AO2 SLP084 T00890083", "KKY8 221555Z AUTO 20009KT 9SM CLR 21/14 A3004 RMK A01", "KL08 221555Z AUTO 04004KT 10SM CLR 23/09 A2974 RMK AO2", "KL18 221555Z AUTO 23005KT 10SM BKN013 OVC019 17/15 A2988 RMK AO2", "KL35 221555Z AUTO 24009KT 10SM CLR 11/M02 A2998 RMK AO2", "KL52 221555Z AUTO 07003KT 7SM OVC020 15/13 A2988 RMK A01", "KLAA 221553Z AUTO 28013KT 10SM CLR 19/M04 A2962 RMK AO2 SLP997 T01891044", "KLAF 221554Z 21007G16KT 10SM CLR 22/10 A2993 RMK AO2 SLP133 T02170100", "KLAL 221550Z 02008KT 10SM SKC 23/15 A3011", "KLAM 221555Z AUTO 26003KT 10SM CLR 13/00 A3002 RMK AO2 T01300002", "KLAN 221553Z 18013G21KT 10SM CLR 19/08 A2993 RMK AO2 SLP134 T01890078 $", "KLAR 221553Z AUTO 23029G38KT 10SM CLR 13/M07 A2966 RMK AO2 PK WND 22038/1550 SLP957 T01281072", "KLAS 221556Z 19014G23KT 10SM FEW150 SCT250 23/01 A2964 RMK AO2 SLP017 T02330006", "KLAW 221553Z 21012G21KT 10SM CLR 26/09 A2970 RMK AO2 PK WND 21026/1515 SLP046 T02560094", "KLAX 221553Z 20006KT 10SM FEW018 BKN031 BKN042 19/14 A2987 RMK AO2 SLP111 T01940139", "KLBB 221553Z 26015G23KT 10SM FEW230 BKN250 23/07 A2986 RMK AO2 SLP067 T02330072", "KLBE 221547Z 21010G16KT 15SM CLR 18/02 A3020", "KLBF 221553Z AUTO 30004KT 10SM CLR 16/01 A2955 RMK AO2 SLP991 T01560006", "KLBL 221556Z AUTO 30017KT 10SM CLR 24/M03 A2962 RMK AO2 SLP005 T02441033", "KLBO 221555Z AUTO 20016G25KT 10SM CLR 23/07 A2982 RMK AO2", "KLBT 221556Z AUTO 02011KT 10SM CLR 22/05 A3020 RMK AO2 SLP226 T02220050 TSNO", "KLBX 221553Z AUTO 18018G31KT 10SM CLR 28/14 A3002 RMK AO2 PK WND 18031/1546 SLP165 T02830144", "KLCG 221555Z AUTO 16008KT 10SM CLR 18/00 A2949 RMK AO2 T01830003", "KLCH 221553Z 20016G24KT 10SM CLR 26/16 A3006 RMK AO2 PK WND 20026/1535 SLP188 T02610156 $", "KLCI 221556Z AUTO 00000KT 10SM CLR 14/03 A3026 RMK AO2 SLP249 T01440033", "KLCK 221555Z AUTO 18010KT 10SM CLR 18/05 A3010 RMK AO2 T01830049", "KLCQ 221555Z AUTO 05009KT 10SM CLR 20/03 A3018 RMK AO2", "KLDM 221555Z AUTO 20015G22KT 10SM CLR 19/08 A2980 RMK AO2 T01940083", "KLEB 221553Z 00000KT 10SM CLR 14/03 A3024 RMK AO2 SLP243 T01390033", "KLEE 221553Z 04011KT 10SM CLR 24/14 A3013 RMK AO2 SLP201 T02440144", "KLEW 221556Z AUTO VRB03KT 10SM CLR 14/05 A3026 RMK AO2 SLP253 T01440050", "KLEX 221554Z 18013KT 10SM CLR 21/07 A3012 RMK AO2 SLP194 T02110072", "KLFI 221555Z 04007KT 9SM FEW050 19/10 A3025 RMK AO2A SLP250 T01900095 $", "KLFK 221553Z AUTO 17014G19KT 10SM CLR 25/16 A3000 RMK AO2 SLP156 T02500161", "KLFT 221553Z 16008G19KT 10SM CLR 25/16 A3010 RMK AO2 SLP193 T02500161", "KLGA 221551Z 24004KT 10SM CLR 18/02 A3027 RMK AO2 SLP251 T01780022", "KLGB 221553Z 26003KT 10SM SCT019 SCT029 OVC035 20/14 A2986 RMK AO2 SLP110 T02000139", "KLGC 221555Z AUTO 00000KT 10SM CLR 19/03 A3024 RMK AO2 T01930034", "KLGD 221609Z AUTO 32006KT 10SM -RA SCT028 04/03 A2960 RMK AO2 P0000", "KLGF 221555Z AUTO 14005KT 10SM CLR 23/16 A2976 RMK AO2 SLP075 T02300156 TSNO $", "KLGU 221551Z AUTO 22008G19KT 8SM -RA OVC050 11/05 A2957 RMK AO2 PK WND 22030/1455 RAB02 SLP973 P0000 T01110050", "KLHB 221555Z AUTO 18017G22KT 10SM BKN023 BKN031 25/18 A2998 RMK AO2 T02540180", "KLHM 221555Z AUTO 16009KT 10SM SCT080 16/12 A2974 RMK AO1", "KLHQ 221553Z AUTO 20011KT 10SM CLR 19/07 A3012 RMK AO2 SLP200 T01940067", "KLHW 221555Z AUTO 36010G16KT 10SM CLR 21/04 A3017 RMK AO2 SLP220 T02070043 $", "KLHX 221553Z AUTO 26010KT 10SM CLR 22/M04 A2966 RMK AO2 SLP992 T02171044 $", "KLIC 221555Z AUTO 28008KT 10SM CLR 20/M08 A2967 RMK AO2 SLP999 T02001078", "KLIT 221553Z COR 20013KT 10SM SCT035 BKN250 23/14 A2998 RMK AO2 SLP152 T02280139", "KLJF 221555Z AUTO 12011KT 10SM CLR 15/02 A2952 RMK AO2", "KLKR 221555Z AUTO 07004KT 10SM CLR 20/01 A3024 RMK AO2", "KLKU 221555Z AUTO 24004KT 10SM CLR 18/04 A3026 RMK AO2 T01770043", "KLKV 221553Z AUTO 27011G17KT 10SM FEW030 OVC100 03/00 A2973 RMK AO2 RAE11 SLP063 P0000 T00280000", "KLLJ 221555Z AUTO 15006KT 10SM BKN095 OVC110 07/02 A2938 RMK AO2 SLP923 T00670022", "KLLN 221555Z AUTO 25013G19KT 10SM CLR 23/07 A2989 RMK AO2", "KLLQ 221553Z AUTO 21009G20KT 10SM CLR 24/15 A3004 RMK AO2 SLP169 T02390150", "KLMO 221555Z AUTO 00000KT 10SM CLR 21/M06 A2963 RMK AO2 T02131060", "KLMT 221553Z 28014KT 10SM SCT020 BKN040 04/01 A2978 RMK AO2 SLP069 T00390006", "KLNA 221555Z AUTO 34010G15KT 10SM CLR 28/20 A3005 RMK AO2 T02790197 PNO", "KLNC 221555Z AUTO 18015G25KT 10SM CLR 23/16 A2990 RMK AO2 T02300157", "KLND 221553Z AUTO 19018G44KT 10SM CLR 13/M01 A2943 RMK AO2 PK WND 25044/1550 SLP911 T01281006 $", "KLNK 221554Z 18012KT 10SM CLR 20/06 A2954 RMK AO2 SLP000 T02000056", "KLNL 221555Z AUTO 13006KT 10SM CLR 16/04 A2971 RMK AO2 T01550036", "KLNN 221555Z AUTO 10SM CLR 19/03 A3007 RMK AO1 T01860034", "KLNP 221555Z AUTO 21007KT 10SM CLR 16/02 A3025 RMK AO2", "KLNQ 221555Z AUTO 06005KT 10SM CLR 26/16 A3017 RMK AO2 T02620157", "KLNR 221556Z AUTO 20009KT 10SM CLR 22/07 A2970 RMK AO2 SLP051 T02220072", "KLNS 221553Z 00000KT 10SM CLR 17/07 A3026 RMK AO2 SLP248 T01720072", "KLOL 221553Z AUTO 34013G19KT 9SM -RA OVC046 A2969 RMK AO2 PK WND 35027/1507 SLPNO P0000 $", "KLOM 221555Z AUTO 24004KT 10SM CLR 18/06 A3028 RMK AO2 T01760060", "KLOR 221555Z AUTO 00000KT 10SM CLR 20/05 A3022 RMK AO2 SLP217 T02000052 $", "KLOT 221555Z AUTO 18012G19KT 10SM CLR 20/10 A2985 RMK AO2", "KLOU 221553Z 18007G17KT 10SM CLR 20/08 A3007 RMK AO2 SLP182 T02000083", "KLOZ 221553Z AUTO 20008G16KT 10SM CLR 20/07 A3018 RMK AO2 SLP216 T02000067", "KLPC 221556Z AUTO 00000KT 10SM OVC022 15/12 A2988 RMK AO2 SLP118 T01500122", "KLPR 221553Z AUTO 20012KT 10SM CLR 18/07 A3008 RMK AO2 SLP186 T01780067", "KLRD 221556Z 14012KT 10SM CLR 25/19 A2996 RMK AO2 SLP141 T02500189", "KLRF 221555Z AUTO 21010G15KT 10SM CLR 22/15 A2996 RMK AO2 SLP147 T02150149", "KLRJ 221555Z AUTO 16012KT 10SM CLR 18/02 A2948 RMK AO2", "KLRO 221555Z AUTO 35006G12KT 10SM CLR 21/11 A3017 RMK AO2", "KLRU 221555Z AUTO 27009KT 10SM BKN075 21/09 A3003 RMK AO2 T02100094", "KLRY 221555Z AUTO 21019G24KT 10SM CLR 25/08 A2969 RMK AO2", "KLSE 221553Z 18007KT 10SM CLR 18/04 A2963 RMK AO2 SLP034 T01780044 $", "KLSF 221555Z AUTO 00000KT 10SM M 19/03 M RMK AO2 SLPNO T01930034 CHINO RWY15 $", "KLSV 221555Z AUTO 18013KT 10SM CLR 24/01 A2962 RMK AO2 SLP010 T02380008", "KLTS 221555Z AUTO 21012KT 10SM CLR 26/08 A2966 RMK AO2 SLP030 T02640084 $", "KLUA 221555Z AUTO 20003KT 10SM CLR 17/01 A3024 RMK AO2", "KLUD 221555Z AUTO 20014G21KT 7SM CLR 23/13 A2982 RMK AO2 T02320127", "KLUF 221555Z AUTO 00000KT 10SM CLR 23/12 A2980 RMK AO2 SLP081 T02280124 $", "KLUG 221555Z AUTO 17007KT 10SM CLR 19/11 A3015 RMK A01", "KLUK 221553Z 17008KT 10SM CLR 20/07 A3009 RMK AO2 SLP188 T02000072", "KLUL 221555Z AUTO 22010KT 10SM CLR 23/12 A3017 RMK A02 T02270121", "KLUM 221555Z AUTO 12006KT 10SM CLR 13/09 A2962 RMK AO2 T01310085 PWINO", "KLUV 221555Z AUTO 25010KT 10SM CLR 21/11 A2989 RMK AO2", "KLUX 221555Z AUTO 00000KT 10SM CLR 18/01 A3025 RMK AO2", "KLVJ 221553Z AUTO 19010G21KT 10SM FEW043 27/16 A3003 RMK AO2 SLP167 T02720161", "KLVK 221602Z 25011KT 10SM OVC015 16/12 A2979 RMK AO2 T01610122", "KLVL 221555Z AUTO 08003KT 7SM CLR 21/04 A3025 RMK AO1 T02050042", "KLVM 221553Z AUTO 13005KT 3SM RA BR BKN006 OVC032 07/06 A2937 RMK AO2 SLP936 P0008 T00670056", "KLVN 221555Z AUTO 14006KT 10SM CLR 13/03 A2957 RMK AO2", "KLVS 221553Z AUTO 27030G44KT 10SM CLR 16/M05 A2992 RMK AO2 PK WND 27044/1550 SLP035 T01611050", "KLWA 221555Z AUTO 17009G17KT 10SM CLR 20/08 A2988 RMK AO2 T01960080", "KLWB 221551Z 00000KT 10SM CLR 13/02 A3026", "KLWC 221552Z AUTO 20022G29KT 10SM -RA CLR 25/09 A2961 RMK AO1 PK WND 20031/1541 SLP018 P0000 T02500094", "KLWD 221553Z AUTO 19015G25KT 10SM -RA CLR 22/08 A2963 RMK AO2 SLP027 P0000 T02220083", "KLWM 221554Z 23006KT 10SM CLR 18/05 A3028 RMK AO2 SLP255 T01780050", "KLWS 221556Z 23005KT 10SM -RA BKN022 OVC032 07/03 A2958 RMK AO2 SLP023 P0001 T00670033", "KLWT 221554Z AUTO VRB03KT 7SM -RA OVC009 05/04 A2939 RMK AO2 CIG 004V013 SLP956 P0003 T00500044", "KLWV 221553Z AUTO 18013KT 10SM CLR 19/12 A2998 RMK AO2 SLP151 T01890117 $", "KLXL 221555Z AUTO 13009G15KT 10SM CLR 17/03 A2954 RMK AO2", "KLXN 221555Z AUTO 31004KT 10SM CLR 18/01 A2953 RMK AO2 T01760010", "KLXT 221553Z AUTO 20020G30KT 10SM CLR 24/10 A2965 RMK AO2 PK WND 20033/1524 SLP034 T02390100", "KLXV 221553Z AUTO 36004KT 10SM CLR 07/M09 A2990 RMK AO2 SLP012 T00671089 $", "KLXY 221555Z AUTO 19021G30KT 10SM SCT020 24/17 A2993 RMK AO2 T02370168", "KLYH 221554Z 16005KT 10SM CLR 18/01 A3026 RMK AO2 SLP244 T01830011", "KLYO 221555Z AUTO 18009KT 10SM CLR 19/04 A2955 RMK AO2 T01890038", "KLYV 221555Z AUTO 17007KT 7SM CLR 16/01 A2948 RMK AO2", "KLZU 221556Z 10003KT 10SM CLR 19/01 A3024 RMK AO2 SLP250 T01890006", "KLZZ 221555Z AUTO 19009G18KT 10SM CLR 24/14 A2989 RMK AO2 T02380142", "KM01 221555Z AUTO 20012KT 9SM CLR 22/15 A3002 RMK AO2 T02230152 $", "KM02 221555Z AUTO 21008G14KT 10SM 20/12 A3010 RMK A01", "KM04 221555Z AUTO 21011G16KT 10SM CLR 22/14 A3004 RMK A01", "KM08 221555Z AUTO 17009KT 150V210 10SM CLR 20/14 A3007 RMK A01", "KM19 221556Z AUTO 20022G29KT 10SM FEW002 21/14 A2996 RMK AO2 PK WND 20029/1551 SLP144 T02110144 PNO $", "KM21 221555Z AUTO 20010KT 10SM CLR 20/12 A3006 RMK AO2 T02020120", "KM30 221555Z AUTO 20010G19KT 10SM CLR 22/13 A3001 RMK AO2 T02220130", "KM40 221555Z AUTO 17006KT 10SM CLR 22/14 A3016 RMK AO2", "KM54 221550Z AUTO 21011G18KT 10SM CLR 22/11 A3011 RMK A01", "KM75 221555Z AUTO 07010KT 10SM OVC007 06/06 A2947 RMK A01", "KM91 221540Z AUTO 19011KT 10SM CLR 20/11 A3009 RMK A01", "KMAE 221553Z AUTO 28010G18KT 10SM CLR 17/12 A2978 RMK AO2 SLP082 T01720122", "KMAF 221553Z 21006KT 10SM CLR 21/12 A2991 RMK AO2 SLP093 T02110117", "KMAI 221553Z AUTO 03004KT 10SM CLR 21/03 A3020 RMK AO1 SLP226 T02110028 $", "KMAN 221555Z AUTO 31012G19KT 10SM CLR 09/03 A2955 RMK A01", "KMAO 221555Z AUTO 01008KT 10SM SCT055 20/00 A3020 RMK AO2", "KMAW 221555Z AUTO 20017G21KT 10SM CLR 21/13 A2999 RMK AO1", "KMBG 221552Z AUTO 36010KT 10SM CLR 12/02 A2940 RMK AO2 SLP955 T01220017", "KMBL 221556Z AUTO VRB06G14KT 10SM CLR 19/09 A2980 RMK AO2 SLP090 T01940094", "KMBS 221553Z 18013G19KT 10SM CLR 18/07 A2991 RMK AO2 SLP128 T01780067", "KMBT 221555Z AUTO 20010G15KT 10SM CLR 21/10 A3012 RMK A01", "KMBY 221555Z AUTO 19013G23KT 10SM CLR 25/06 A2972 RMK AO2", "KMCB 221553Z AUTO 17010KT 10SM CLR 23/14 A3015 RMK AO2 SLP205 T02280144", "KMCC 221555Z AUTO 15008KT 10SM OVC070 16/13 A2975 RMK AO2", "KMCD 221555Z AUTO 15005KT 10SM CLR 15/06 A2982 RMK AO2 T01450064", "KMCE 221553Z AUTO 23005KT 8SM FEW100 17/12 A2977 RMK AO2 SLP079 T01720122", "KMCF 221555Z AUTO 04005KT 10SM CLR 23/12 A3007 RMK AO2 SLP185 T02330117 FZRANO $", "KMCI 221553Z 20020G32KT 7SM CLR 26/09 A2962 RMK AO2 PK WND 18034/1537 SLP018 T02560089", "KMCK 221553Z AUTO 28004KT 10SM CLR 14/M02 A2953 RMK AO2 SLP991 T01441017", "KMCN 221553Z 06005KT 10SM CLR 21/01 A3023 RMK AO2 SLP235 T02060006", "KMCO 221553Z 01012KT 10SM FEW040 26/17 A3010 RMK AO2 SLP190 T02610167 $", "KMCW 221553Z AUTO 17012KT 10SM CLR 17/06 A2959 RMK AO2 SLP016 T01720061", "KMDD 221555Z AUTO 23011KT 10SM CLR 22/10 A2991 RMK AO2 T02230098", "KMDH 221552Z 19013KT 10SM CLR 23/14 A2995 RMK AO2 PK WND 20035/1456 SLP138 T02280139", "KMDQ 221555Z AUTO 18007KT 140V200 10SM CLR 20/10 A3018 RMK A02 T02020099", "KMDS 221555Z AUTO 21009KT 10SM CLR 16/M01 A2944 RMK AO2", "KMDT 221556Z 20004KT 10SM CLR 14/07 A3025 RMK AO2 SLP246 T01440072", "KMDW 221553Z 20012G27KT 10SM FEW250 21/08 A2984 RMK AO2 PK WND 18027/1544 SLP099 T02110083", "KMEB 221552Z AUTO 06008KT 10SM CLR 22/04 A3023 RMK AO2 SLP234 T02170044", "KMEH 221559Z AUTO 29004KT 3SM RA BR OVC003 01/01 A2959 RMK AO2 P0000 T00110006", "KMEI 221558Z 20008KT 10SM CLR 22/14 A3017 RMK AO2 SLP214 T02220139", "KMEM 221554Z 21011G23KT 10SM FEW180 BKN250 23/14 A3005 RMK AO2 SLP173 T02280144", "KMER 221553Z 21005KT 7SM BKN100 18/12 A2977", "KMEV 221555Z AUTO 26014G26KT 8SM CLR 12/05 A2969 RMK AO2", "KMEZ 221555Z AUTO 18007KT 020V250 10SM BKN016 19/15 A2993 RMK AO2 T01940147 $", "KMFD 221552Z 18012KT 10SM CLR 18/06 A3010 RMK AO2 SLP190 T01780061", "KMFE 221553Z 17014G24KT 10SM CLR 27/18 A2998 RMK AO2 SLP149 T02670183 $", "KMFI 221554Z AUTO 16008KT 10SM CLR 16/05 A2967 RMK AO2 SLP051 T01560050", "KMFR 221553Z AUTO 29007KT 10SM FEW033 SCT047 OVC070 09/05 A2990 RMK AO2 RAB22E44 SLP123 P0000 T00890050", "KMGC 221555Z AUTO 18014G20KT 10SM CLR 18/08 A2989 RMK AO2", "KMGE 221555Z 15004KT 10SM FEW250 19/01 A3023 RMK AO2A SLP237 T01860011 $", "KMGG 221555Z AUTO 09005KT 10SM CLR 15/04 A2955 RMK AO2 T01470035", "KMGJ 221554Z AUTO 00000KT 10SM CLR 15/05 A3026 RMK AO2 SLP249 T01500050", "KMGM 221553Z 13003KT 10SM CLR 20/11 A3022 RMK AO2 SLP231 T02000106", "KMGN 221555Z AUTO 15003KT 10SM CLR 17/08 A2981 RMK AO2 T01690082", "KMGR 221555Z AUTO 00000KT 10SM CLR 20/01 A3023 RMK AO2", "KMGW 221553Z VRB05KT 10SM CLR 19/02 A3021 RMK AO2 SLP230 T01890017", "KMGY 221553Z AUTO 20013KT 10SM CLR 19/07 A3007 RMK AO2 SLP180 T01890072", "KMHE 221601Z AUTO 26009KT 3SM HZ CLR 18/M01 A2943 RMK AO2 T01781006", "KMHK 221552Z 19014G21KT 10SM CLR 23/08 A2956 RMK AO2 SLP000 T02330078", "KMHL 221555Z AUTO 20016G21KT 10SM CLR 25/10 A2971 RMK AO2", "KMHP 221555Z AUTO 08011KT 10SM CLR 20/01 A3022 RMK AO2 T02050007", "KMHR 221555Z AUTO 16005KT 10SM BKN015 OVC065 17/13 A2974 RMK A01", "KMHS 221556Z AUTO VRB05KT 10SM BKN050 BKN065 OVC085 07/01 A2980 RMK AO2 RAB44E55 SLP096 P0000 T00720006", "KMHT 221553Z 00000KT 10SM CLR 17/04 A3025 RMK AO2 SLP259 T01670044", "KMHV 221600Z AUTO 29022G29KT 6SM HZ CLR 19/M01 A2978 RMK A01", "KMIA 221553Z 02008G14KT 10SM FEW035 FEW075 28/19 A3003 RMK AO2 SLP170 T02830189 $", "KMIB 221555Z AUTO 03006KT 7SM FEW005 BKN039 05/04 A2956 RMK AO2 SLP026 T00520042 $", "KMIC 221553Z 13011KT 10SM CLR 15/04 A2956 RMK AO2 SLP011 T01500039", "KMIE 221553Z 18013G20KT 10SM CLR 21/08 A3000 RMK AO2 SLP150 T02060078", "KMIO 221555Z AUTO 17019G29KT 10SM CLR 21/12 A2971 RMK AO2", "KMIV 221554Z AUTO VRB03KT 10SM CLR 18/06 A3028 RMK AO2 SLP251 T01780061 $", "KMIW 221553Z AUTO 18011KT 10SM CLR 22/07 A2962 RMK AO2 SLP027 T02170072", "KMJD 221555Z AUTO 13004G12KT 10SM CLR 23/15 A3015 RMK AO2", "KMJQ 221555Z AUTO 21014G19KT 10SM CLR 17/02 A2952 RMK AO2", "KMKC 221554Z 19013G22KT 10SM CLR 24/10 A2963 RMK AO2 SLP026 T02440100", "KMKE 221552Z 20013G19KT 10SM FEW250 20/09 A2978 RMK AO2 SLP080 T02000089", "KMKG 221555Z 18018G29KT 10SM FEW250 19/08 A2985 RMK AO2 PK WND 18032/1537 SLP107 T01890083", "KMKJ 221555Z AUTO 22005KT 10SM CLR 17/01 A3028 RMK AO2 T01720010", "KMKL 221553Z 18013G16KT 10SM CLR 21/14 A3007 RMK AO2 SLP180 T02110139 $", "KMKN 221555Z AUTO 20016G21KT 10SM CLR 24/14 A2988 RMK AO2 T02360139", "KMKO 221553Z AUTO 17020G30KT 10SM CLR 24/13 A2976 RMK AO2 PK WND 18033/1534 SLP073 T02390133", "KMKS 221555Z AUTO 01004KT 10SM CLR 18/10 A3020 RMK AO2 LTG DSNT S", "KMKT 221556Z AUTO 15010KT 9SM CLR 14/03 A2955 RMK AO2 SLP012 T01440033", "KMKY 221556Z AUTO 01008KT 10SM CLR 26/16 A3007 RMK AO2 SLP183 T02610156 TSNO $", "KMLB 221553Z 01011KT 10SM CLR 26/18 A3009 RMK AO2 SLP188 T02560183", "KMLC 221553Z AUTO 18008G26KT 140V220 10SM CLR 23/14 A2977 RMK AO2 PK WND 17031/1508 SLP072 T02330139", "KMLE 221555Z AUTO 17009KT 10SM CLR 19/06 A2955 RMK AO2 T01850061", "KMLF 221552Z AUTO 19016G22KT 10SM 14/02 A2970 RMK AO2 SLP013 T01440017 $", "KMLI 221552Z 19006G22KT 10SM CLR 23/09 A2973 RMK AO2 SLP065 T02280089", "KMLJ 221555Z AUTO 00000KT 10SM CLR 19/02 A3023 RMK AO2", "KMLP 221553Z AUTO 33004KT 1/4SM -SN FZFG VV001 M03/M04 A2943 RMK AO2 SLP992 P0003 T10281039", "KMLS 221553Z AUTO 06010KT 10SM FEW060 OVC080 08/07 A2947 RMK AO2 SLP983 T00780067", "KMLT 221553Z AUTO 17007KT 10SM CLR 14/05 A3022 RMK AO2 SLP238 T01440050", "KMLU 221553Z 20009KT 10SM CLR 24/16 A3007 RMK AO2 SLP179 T02440156", "KMMH 221554Z AUTO 21017G36KT 10SM OVC070 11/M05 A2978 RMK AO2", "KMMI 221555Z AUTO 00000KT 10SM CLR 18/02 A3024 RMK A01", "KMMK 221553Z AUTO 16007KT 10SM CLR 17/04 A3028 RMK AO2 SLP252 T01720039", "KMML 221556Z AUTO 16013KT 9SM CLR 12/02 A2947 RMK AO2 SLP984 T01220022", "KMMT 221555Z AUTO 07006KT 10SM CLR 20/02 A3020 RMK AO2 SLP230 T02030021 $", "KMMU 221550Z 20003KT 10SM SKC 19/08 A3028", "KMMV 221553Z AUTO 25006KT 10SM BKN065 BKN080 09/08 A2979 RMK AO2 SLP086 T00890078", "KMNE 221600Z AUTO 19010G15KT 10SM CLR 24/18 A3002 RMK AO2 T02380175", "KMNH 221555Z AUTO 24016G22KT 10SM CLR 15/M06 A2977 RMK AO2", "KMNI 221555Z AUTO 01010KT 10SM CLR 19/06 A3021 RMK AO2", "KMNM 221556Z AUTO VRB04KT 10SM CLR 15/09 A2972 RMK AO2 SLP066 T01500089 PNO $", "KMNN 221553Z AUTO 20015KT 7SM CLR 18/07 A3008 RMK AO2 SLP187 T01830067", "KMNV 221555Z AUTO 00000KT 10SM 19/03 A3022 RMK A01", "KMNZ 221555Z AUTO 20015G22KT 10SM CLR 25/14 A2991 RMK AO2 T02480141", "KMOB 221556Z 11006KT 10SM CLR 24/09 A3020 RMK AO2 SLP223 T02390094", "KMOD 221553Z COR 09003KT 10SM SCT080 16/12 A2976 RMK AO2 SLP078 T01610117 $", "KMOP 221555Z AUTO 18009KT 10SM CLR 18/07 A2987 RMK AO2 T01790065", "KMOR 221555Z AUTO 00000KT 10SM CLR 17/03 A3022 RMK A01", "KMOT 221554Z 02007KT 7SM SCT003 BKN032 07/05 A2958 RMK AO2 SLP026 T00720050", "KMOX 221555Z AUTO 13018G21KT 10SM CLR 16/M01 A2948 RMK AO2", "KMPO 221553Z AUTO 19007KT 10SM CLR 16/00 A3025 RMK AO2 SLP251 T01610000", "KMPR 221555Z AUTO 18016KT 10SM CLR 21/06 A2955 RMK AO2 T02120064", "KMPV 221551Z AUTO 15008KT 10SM CLR 17/02 A3024 RMK AO2 SLP242 T01720017", "KMPZ 221550Z AUTO 20009G16KT 10SM CLR 22/12 A2971 RMK AO2", "KMQB 221555Z AUTO 18015KT 10SM CLR 22/07 A2978 RMK AO2 T02230070", "KMQI 221555Z AUTO 04012KT 10SM CLR 20/14 A3023 RMK AO2 T02000140", "KMQS 221555Z AUTO VRB04KT 9SM CLR 17/06 A3028 RMK AO2", "KMQW 221555Z AUTO 09007KT 10SM CLR 21/01 A3022 RMK AO2 T02140011", "KMQY 221556Z 19008KT 10SM CLR 21/11 A3014 RMK AO2 SLP212 T02060106", "KMRB 221553Z 00000KT 10SM CLR 15/03 A3024 RMK AO2 SLP242 T01500028 $", "KMRC 221555Z AUTO 18007KT 10SM CLR 19/12 A3012 RMK A01", "KMRF 221556Z AUTO 14004KT 10SM CLR 21/08 A3010 RMK AO2 SLP143 T02060078", "KMRH 221558Z AUTO 03013G19KT 10SM CLR 23/14 A3016 RMK AO2 SLP214 T02330139", "KMRJ 221555Z AUTO 20012G18KT 10SM CLR 20/05 A2972 RMK AO2", "KMRT 221555Z AUTO 22011KT 10SM CLR 18/05 A3010 RMK AO2 T01820054", "KMRY 221554Z 28010G17KT 10SM BKN004 OVC010 16/15 A2986 RMK AO2 SLP123 T01560150", "KMSL 221553Z AUTO 23007KT 10SM CLR 21/13 A3014 RMK AO2 SLP203 T02060128", "KMSN 221553Z 19013G20KT 10SM FEW250 18/07 A2973 RMK AO2 SLP067 T01830072", "KMSO 221553Z 31009KT 10SM -RA OVC022 03/02 A2945 RMK AO2 SLP985 P0001 T00330017", "KMSP 221553Z 11008KT 10SM FEW150 SCT220 BKN250 13/03 A2957 RMK AO2 SLP013 T01330033", "KMSS 221553Z AUTO 23016G23KT 10SM CLR 19/02 A3010 RMK AO2 SLP195 T01940022", "KMSV 221556Z AUTO 23004KT 10SM CLR 16/03 A3027 RMK AO2 SLP255 T01560028", "KMSY 221553Z 11007KT 10SM SCT030 24/16 A3015 RMK AO2 SLP213 T02440156", "KMTC 221556Z 16010KT 10SM SCT200 17/07 A2997 RMK AO2A SLP153 T01740066", "KMTH 221553Z AUTO 36008KT 10SM CLR 26/20 A3003 RMK AO2 SLP168 T02610200", "KMTJ 221553Z AUTO VRB05KT 10SM CLR 16/00 A2983 RMK AO2 SLP042 T01560000 $", "KMTK 221555Z AUTO 10007G13KT 10SM SCT034 24/15 A3014 RMK A01", "KMTN 221554Z 12005KT 10SM CLR 15/11 A3029", "KMTO 221553Z AUTO 17013G21KT 10SM CLR 19/11 A2991 RMK AO2 PK WND 17031/1515 SLP126 T01890111", "KMTP 221554Z AUTO VRB03KT 18/10 A3031 RMK AO1 SLP262 T01780100", "KMTV 221555Z AUTO 00000KT 10SM CLR 17/01 A3028 RMK AO2 T01650008", "KMTW 221556Z AUTO 15009KT 10SM CLR 16/11 A2975 RMK AO2 SLP075 T01610106", "KMUI 221555Z AUTO 00000KT 10SM CLR 14/03 A3024 RMK AO2 SLP245 T01440026", "KMUO 221600Z 29014KT 10SM OVC042 09/05 A2952 RMK SLP988 T00870051 $", "KMUT 221555Z AUTO 17013KT 10SM CLR 23/09 A2972 RMK AO2", "KMVE 221555Z AUTO 12011KT 10SM CLR 15/03 A2946 RMK AO2", "KMVH 221555Z AUTO 11008KT 1/4SM FG OVC002 05/05 A2942 RMK AO2 P0001 PWINO", "KMVL 221554Z AUTO 20006KT 10SM CLR 17/02 A3018 RMK AO2 SLP226 T01720022", "KMVN 221556Z AUTO 18012KT 10SM CLR 21/13 A2994 RMK AO2 SLP142 T02060128", "KMVY 221553Z 18006KT 10SM CLR 18/08 A3030 RMK AO2 SLP260 T01830083", "KMWA 221546Z 19013KT 25SM SCT120 BKN200 22/14 A2996", "KMWC 221545Z 21011G16KT 10SM CLR 19/07 A2978", "KMWH 221552Z 33008KT 10SM SCT095 07/03 A2961 RMK AO2 SLP078 T00720033", "KMWK 221555Z AUTO 17003KT 10SM CLR 17/01 A3027 RMK AO2 T01690009", "KMWL 221553Z AUTO 19015G21KT 10SM CLR 26/12 A2983 RMK AO2 SLP086 T02610122", "KMWM 221555Z AUTO 14007KT 10SM CLR 14/02 A2950 RMK AO2", "KMWN 221552Z 26029G34KT 60SM FEW080 04/M03 RMK", "KMWO 221555Z AUTO 18008KT 10SM CLR 19/05 A3008 RMK AO2 T01880051", "KMWT 221553Z AUTO 10SM BKN024 22/14 A2993 RMK AO2 SLP127 T02170139", "KMXF 221555Z AUTO 09003KT 10SM CLR 19/07 A3019 RMK AO2 SLP226 T01940068", "KMYF 221553Z 22007KT 10SM BKN014 OVC032 18/14 A2987 RMK AO2 SLP110 T01830139", "KMYL 221559Z AUTO 29006KT 10SM FEW007 BKN044 OVC065 03/00 A2946 RMK AO2 T00330000", "KMYR 221556Z 02009G15KT 10SM BKN047 21/10 A3018 RMK AO2 SLP219 T02060100", "KMYV 221553Z AUTO 16005KT 10SM CLR 17/12 A2976 RMK AO2 SLP081 T01670122 $", "KMYZ 221550Z AUTO 19008G15KT 10SM CLR 21/08 A2956 RMK AO2", "KMZH 221555Z AUTO 05004KT 10SM CLR 11/03 A2961 RMK AO2", "KMZZ 221555Z AUTO 20011KT 10SM CLR 19/09 A2999 RMK AO2 T01930091", "KN03 221555Z AUTO 18007KT 10SM CLR 17/01 A3020 RMK AO2", "KN38 221555Z AUTO 19011KT 10SM CLR 15/02 A3020 RMK AO2", "KNAK 221554Z AUTO 13009KT 10SM CLR 16/11 A3027 RMK AO2 SLP252 T01610111", "KNBC 221556Z AUTO 02010KT 10SM CLR 22/06 A3019 RMK AO2 SLP225 T02220061", "KNBG 221555Z 12010KT 10SM FEW035 FEW045 24/16 A3015 RMK AO2 SLP208 T02440161 $", "KNBT 221600Z AUTO 03011G19KT 10SM CLR 24/15 A3017 RMK AO2 SLP222 T02390150", "KNCA 221556Z AUTO 04012KT 10SM CLR 22/12 A3018 RMK AO2 SLP222 T02220117", "KNDZ 221556Z AUTO 11005KT CLR 22/06 A3021 RMK AO2 SLP216 T02170056 $", "KNEL 221600Z AUTO 12003KT 10SM CLR 18/05 A3026 RMK AO2 SLP247 T01830050 $", "KNEW 221553Z 12007KT 10SM CLR 24/15 A3016 RMK AO2 SLP206 T02390150", "KNFE 221556Z AUTO 08010KT 10SM CLR 22/11 A3024 RMK AO2 SLP243 T02170106", "KNFG 221552Z AUTO 21005KT 10SM FEW022 OVC039 20/15 A2987 RMK AO2 SLP112 T02000150", "KNFL 221556Z AUTO A2964 RMK AO2 SLP023 PWINO", "KNFW 221552Z 18017G27KT 10SM FEW250 24/15 A2985 RMK AO2 PK WND 20030/1534 SLP092 T02330156 $", "KNGP 221556Z 16016KT 10SM FEW028 SCT045 29/19 A2999 RMK AO2 SLP156 T02890194", "KNGU 221559Z 06009KT 10SM FEW050 SCT250 19/11 A3027 RMK AO2 SLP249 T01890111 $", "KNHK 221552Z VRB04KT 10SM FEW011 FEW250 18/12 A3026 RMK AO2 SLP248 T01830117 $", "KNID 221556Z AUTO 21016G26KT 10SM CLR 25/01 A2965 RMK AO2 PK WND 19027/1532 SLP022 T02500006 $", "KNIP 221553Z 02012KT 10SM FEW040 22/12 A3017 RMK AO2 SLP212 T02170117", "KNJK 221556Z 24011KT 10SM CLR 26/11 A2975 RMK AO2 SLP088 T02610111 $", "KNJM 221557Z AUTO 04014G23KT 10SM CLR 24/12 A3018 RMK AO2 SLP223 T02440117", "KNJW 221557Z AUTO 19007KT 10SM CLR 22/12 A3019 RMK AO2 SLP138 T02220122 ", "KNKT 221556Z 05009KT 10SM CLR 23/12 A3019 RMK AO2 SLP220 T02280122", "KNKX 221610Z 19004KT 10SM SCT015 BKN033 19/14 A2987 RMK AO2 T01890139 ", "KNLC 221608Z 30006KT 10SM BKN130 BKN160 BKN220 19/09 A2979 RMK AO2 RH/54 T01890094", "KNMM 221556Z AUTO 22006KT 10SM CLR 23/13 A3017 RMK AO2 SLP227 T02280133", "KNOG 221556Z AUTO 16015KT 10SM SCT026 SCT033 26/18 A2999 RMK AO2 SLP137 T02560183 PNO $", "KNOW 221555Z AUTO 25003KT 10SM OVC075 08/07 A2974 RMK AO2 T00840074", "KNOZ 221559Z AUTO 15014KT 10SM CLR 26/19 A2977 RMK AO2 SLP029 T02560189", "KNPA 221556Z 07007KT 10SM FEW035 22/08 A3020 RMK AO2 SLP227 T02220078 $", "KNQA 221550Z 21013KT 10SM CLR 23/14 A3002", "KNQI 221556Z AUTO 17019G25KT 10SM FEW032 27/19 A2998 RMK AO2 SLP149 T02670189 $", "KNQX 221553Z 02012KT 10SM FEW040 28/20 A3005 RMK AO2 SLP173 T02830200 $", "KNRB 221552Z AUTO 01016G22KT 10SM CLR A3017 RMK AO2 SLP217 $", "KNRN 221555Z AUTO 00000KT 10SM CLR 21/M02 A2956 RMK AO2", "KNRS 221553Z AUTO 23009KT 10SM FEW018 OVC035 20/16 A2987 RMK AO2 SLP114 T02000156 $", "KNSE 221556Z AUTO 00000KT 10SM CLR 22/06 A3021 RMK AO2 SLP216 T02220061 PNO $", "KNSI 221553Z AUTO 31010KT OVC017 16/12 A2988 RMK AO2 SLP114 T01610122 PWINO $", "KNTD 221555Z 29007KT 5SM BR BKN012 BKN018 18/16 A2986 RMK AO2 SLP113 T01780156", "KNTU 221556Z 05009KT 10SM SCT050 20/11 A3024 RMK AO2 SLP242 T02000106", "KNUC 221556Z AUTO 29005KT 10SM OVC019 16/ A2990 RMK AO2 SLP121 T0161 $", "KNUI 221553Z AUTO 26004KT CLR 20/12 A3026 RMK AO2 SLP245 T02000122", "KNUQ 221555Z AUTO 27009KT 10SM CLR 17/12 A2981 RMK AO2", "KNUW 221553Z 33007KT 7SM -RA SCT011 BKN044 BKN050 09/07 A2977 RMK AO2 RAE25B51 SLP081 P0001 T00940072 $", "KNXF 221556Z AUTO 10SM 19/14 A2987 RMK AO2 SLP197 T01940144 PWINO $", "KNXP 221556Z AUTO 30003KT 10SM CLR 19/01 A2984 RMK AO2 SLP073 T01890011 $", "KNY0 221554Z AUTO 00000KT 10SM CLR 14/00 A3023 RMK AO2", "KNYC 221551Z AUTO 24004KT 10SM CLR 17/03 A3030 RMK AO2 SLP251 T01720033 $", "KNYG 221556Z AUTO 17003KT 10SM CLR 15/ A3027 RMK AO2 SLP252 T0150 $", "KNYL 221557Z AUTO 16015KT 10SM CLR 26/20 A2975 RMK AO2 SLP070 T02560200", "KNZY 221552Z 21008KT 10SM SCT021 BKN033 19/14 A2986 RMK AO2 SLP110 T01940139", "KO05 221555Z AUTO 24009G18KT 10SM CLR 09/02 A2976 RMK A01", "KO22 221555Z AUTO 00000KT 10SM OVC012 15/11 A2979 RMK A01", "KO32 221555Z AUTO 33005KT 9SM SCT140 BKN170 16/11 A2977 RMK AO2 T01600110 $", "KO69 221555Z AUTO 29006KT 10SM CLR 13/12 A2980 RMK A01", "KOAJ 221556Z 05010KT 10SM CLR 22/11 A3021 RMK AO2 SLP230 T02220106", "KOAK 221553Z 27013KT 10SM SCT010 BKN150 16/12 A2979 RMK AO2 PK WND 26027/1502 SLP089 T01610122", "KOAR 221555Z AUTO 26011KT 10SM BKN003 BKN007 OVC026 M06/M10 A2984 RMK AO2 PWINO", "KOBE 221555Z AUTO 35008KT 10SM CLR 26/19 A3006 RMK AO2", "KOCF 221551Z 01010KT 10SM CLR 22/12 A3015 RMK AO2 SLP210 T02220122 PNO $", "KOCH 221556Z AUTO 18016G22KT 10SM CLR 25/16 A3000 RMK AO2 PK WND 20026/1541 SLP162 T02500156", "KOCQ 221555Z AUTO 17006KT 10SM CLR 15/08 A2971 RMK AO1 T01510083", "KOCW 221555Z AUTO 01009KT 10SM CLR 22/09 A3023 RMK AO2 T02220088", "KODO 221553Z AUTO 24010KT 10SM CLR 23/11 A2992 RMK AO2 SLP095 T02280106 $", "KODX 221553Z AUTO 00000KT 10SM CLR 17/02 A2950 RMK AO2 SLP990 T01720017", "KOEB 221555Z AUTO 18008G14KT 10SM CLR 19/08 A2995 RMK AO2 T01940080", "KOEL 221555Z AUTO 00000KT 10SM CLR 20/M08 A2956 RMK AO1 T01951082", "KOEO 221555Z AUTO 14010KT 10SM CLR 16/07 A2961 RMK AO2 T01560070", "KOFF 221555Z 19012G15KT 10SM CLR 20/06 A2957 RMK AO2A SLP015 T01980058 PWINO PNO FZRANO TSNO VISNO RWY13 $", "KOFK 221556Z AUTO 07003KT 10SM CLR 20/01 A2948 RMK AO2 SLP979 T02000006", "KOFP 221554Z AUTO 00000KT 10SM CLR 19/07 A3027 RMK AO2 SLP248 T01890067", "KOGA 221555Z AUTO 22007KT 10SM CLR 15/M03 A2956 RMK AO2 T01501030", "KOGB 221553Z AUTO 05009KT 020V080 10SM CLR 21/04 A3022 RMK AO2 SLP231 T02060039", "KOGD 221553Z 17015G22KT 10SM -RA OVC060 14/04 A2958 RMK AO2 PK WND 21029/1508 SLP974 P0000 T01440039", "KOGS 221555Z AUTO 22010G16KT 10SM CLR 19/03 A3008 RMK AO2", "KOIN 221555Z AUTO 07003KT 10SM CLR 18/M01 A2958 RMK AO1 T01821008", "KOJA 221555Z AUTO 22015G22KT 10SM CLR 23/10 A2963 RMK AO2 T02320102", "KOJC 221553Z 19016G29KT 10SM CLR 24/09 A2963 RMK AO2 PK WND 20031/1541 SLP024 T02390094", "KOKB 221604Z AUTO 22006KT 9SM SCT020 OVC040 21/15 A2986 RMK AO2 T02060150", "KOKC 221552Z 20023G31KT 10SM FEW180 BKN250 24/09 A2966 RMK AO2 PK WND 20031/1544 SLP033 T02390094", "KOKK 221556Z AUTO 18016KT 10SM CLR 20/09 A2997 RMK AO2 SLP149 T02000094 PNO $", "KOKM 221555Z AUTO 19022G31KT 10SM CLR 24/13 A2971 RMK AO2 T02360128", "KOKV 221555Z AUTO 25003KT 10SM CLR 15/02 A3023 RMK AO2", "KOKZ 221555Z AUTO 36006KT 10SM CLR 19/02 A3024 RMK AO2 T01940016", "KOLE 221555Z AUTO 21008KT 10SM CLR 14/01 A3017 RMK AO2", "KOLF 221553Z AUTO 08014KT 10SM OVC055 07/04 A2954 RMK AO2 SLP015 T00670039", "KOLG 221555Z AUTO 11005KT 10SM CLR 15/02 A2962 RMK AO1", "KOLM 221558Z 21004KT 10SM OVC006 07/06 A2975 RMK AO2 T00670061 $", "KOLS 221554Z AUTO 18009KT 10SM CLR 23/14 A2998 RMK AO2 SLP090 T02280144", "KOLU 221556Z AUTO 14006KT 10SM CLR 17/02 A2952 RMK AO2 SLP997 T01670017", "KOLV 221550Z 21012G19KT 10SM CLR 22/14 A3005", "KOLY 221555Z AUTO 17015G19KT 10SM CLR 21/11 A2996 RMK AO2 T02080110", "KOLZ 221555Z AUTO 18015KT 10SM CLR 20/06 A2966 RMK A01", "KOMA 221552Z 18015G20KT 10SM FEW250 19/07 A2955 RMK AO2 SLP004 T01940072", "KOMH 221555Z AUTO 20004KT 10SM CLR 17/03 A3027 RMK AO2", "KOMK 221553Z AUTO 31006KT 10SM CLR 06/01 A2962 RMK AO2 SLP035 T00560006", "KOMN 221550Z 01010G18KT 7SM SCT030 24/08 A3012", "KONA 221555Z AUTO 00000KT 10SM CLR 13/04 A2963 RMK AO2", "KONL 221555Z AUTO 23008KT 10SM CLR 23/M06 A2948 RMK AO2 T02341064", "KONM 221555Z AUTO 18003KT 10SM SCT090 14/07 A2999 RMK AO2 T01420066", "KONO 221553Z AUTO 31014G22KT 10SM BKN090 09/03 A2957 RMK AO2 SLP011 T00940033", "KONT 221553Z 27007KT 10SM SCT017 BKN041 18/14 A2986 RMK AO2 SLP103 T01830139", "KONX 221555Z AUTO 05008KT 10SM CLR 19/11 A3024 RMK AO2 T01910107", "KONZ 221555Z AUTO 18009KT 10SM SCT100 14/05 A3001 RMK AO2 T01380045", "KOOA 221555Z AUTO 20014KT 10SM CLR 25/13 A2966 RMK AO2 T02460128", "KOPF 221553Z 01009KT 10SM CLR 27/18 A3004 RMK AO2 SLP174 T02720183", "KOPL 221555Z AUTO 16012KT 10SM CLR 25/15 A3010 RMK AO2 T02470152", "KOPN 221555Z AUTO 17003KT 10SM CLR 22/M01 A3025 RMK AO2", "KOQN 221555Z AUTO 18003KT 10SM CLR 17/06 A3027 RMK AO2", "KOQT 221553Z AUTO 00000KT 10SM CLR 16/03 A3024 RMK AO2 SLP243 T01560033", "KOQU 221550Z 18010KT 10SM SKC 19/08 A3030", "KORB 221553Z AUTO 12004KT 10SM CLR 11/04 A2963 RMK AO2", "KORD 221551Z 20014G18KT 10SM FEW300 20/09 A2982 RMK AO2 SLP095 T02000089", "KORE 221552Z AUTO 20006KT 10SM CLR 16/06 A3028 RMK AO2 SLP257 T01560056", "KORF 221551Z 06006KT 10SM CLR 19/11 A3025 RMK AO2 SLP242 T01890111", "KORG 221555Z AUTO 18014G18KT 10SM SCT050 28/16 A3008 RMK AO2 T02820162", "KORH 221554Z 20008KT 10SM CLR 16/04 A3027 RMK AO2 SLP255 T01610039", "KORL 221553Z 03008KT 10SM CLR 26/17 A3011 RMK AO2 SLP198 T02560167", "KORS 221555Z AUTO VRB03KT 10SM FEW013 BKN018 OVC036 10/ A2972 RMK AO2", "KOSA 221550Z AUTO 19020G24KT 10SM BKN026 23/16 A2994 RMK AO2 T02340162", "KOSC 221555Z AUTO 19011KT 10SM CLR 18/06 A2989 RMK AO2 T01750057", "KOSH 221553Z 20012KT 10SM CLR 18/08 A2972 RMK AO2 SLP060 T01830083", "KOSU 221553Z 17008KT 10SM CLR 19/06 A3010 RMK AO2 SLP193 T01890061", "KOTG 221556Z AUTO 18013KT 10SM CLR 17/02 A2949 RMK AO2 SLP991 T01720022", "KOTH 221556Z 11005KT 6SM -RA BR BKN040 BKN050 OVC065 10/09 A2993 RMK AO2 RAB28 SLP135 P0000 T01000094", "KOTM 221553Z AUTO 20015KT 10SM CLR 23/08 A2966 RMK AO2 SLP038 T02330083", "KOUN 221545Z 18023G27KT 10SM CLR 23/09 A2967", "KOVE 221553Z AUTO 13004KT 10SM CLR 16/12 A2977 RMK AO2 SLP082 T01560117", "KOVL 221555Z AUTO 13011KT 7SM CLR 15/02 A2949 RMK AO2", "KOVS 221553Z AUTO 20009KT 10SM CLR 21/06 A2969 RMK AO2 SLP054 T02110061 $", "KOWA 221553Z AUTO 15006KT 10SM CLR 17/06 A2957 RMK AO2", "KOWB 221556Z 20012KT 10SM CLR 21/13 A3003 RMK AO2 SLP168 T02060128", "KOWP 221555Z AUTO 19016G23KT 10SM CLR 24/12 A2971 RMK AO2 T02410124", "KOWX 221555Z AUTO 19012G17KT 10SM CLR 21/05 A3004 RMK AO1", "KOXC 221551Z 22004KT 10SM CLR 16/03 A3029 RMK AO2 SLP270 T01610033", "KOXD 221555Z AUTO 17009G14KT 10SM CLR 21/05 A3006 RMK AO2 T02080052", "KOXI 221555Z AUTO 19014G18KT 10SM CLR 19/08 A2991 RMK AO1", "KOXR 221551Z 28007KT 8SM SCT007 SCT013 OVC037 17/16 A2985 RMK AO2 SLP106 T01670156", "KOXV 221555Z AUTO 21012G21KT 10SM CLR 23/07 A2963 RMK AO2", "KOZA 221555Z AUTO 18011G19KT 10SM CLR 21/11 A2998 RMK AO2", "KOZR 221555Z AUTO 06003KT 10SM CLR 20/02 A3021 RMK AO2 SLP232 T01990023 $", "KOZS 221555Z AUTO 18014G21KT 10SM CLR 23/06 A2979 RMK AO2", "KOZW 221555Z AUTO 18009G17KT 10SM CLR 19/08 A2995 RMK AO2 T01890077", "KP08 221555Z AUTO 00000KT 10SM CLR 23/14 A2984 RMK AO2", "KP28 221556Z AUTO 20008KT 19/03 A2954 RMK AO1 SLP991 T01940033 $", "KP53 221556Z AUTO 16006KT 12/08 A2973 RMK AO1 SLP073 T01220083", "KP58 221555Z AUTO VRB06KT 18/07 A2991 RMK AO1 SLP124 T01830072", "KP59 221551Z AUTO VRB04KT 13/06 A2972 RMK AO1 SLP063 T01330056 $", "KP68 221553Z AUTO 18009KT 14/M05 A2958 RMK AO1 SLP962 T01391050", "KP69 221552Z AUTO 00000KT 06/04 A2957 RMK AO1 SLP020 P0003 T00560044", "KPAE 221553Z 29004KT 10SM SCT009 BKN037 OVC045 08/07 A2973 RMK AO2 RAE53 SLP070 P0001 T00830067", "KPAH 221553Z 20009G19KT 180V240 10SM CLR 23/13 A3000 RMK AO2 SLP155 T02280133", "KPAM 221555Z AUTO 08006KT 10SM CLR 22/03 A3019 RMK AO2 SLP226 T02200031 $", "KPAN 221555Z AUTO VRB05KT 10SM SCT075 16/08 A3000 RMK AO2 PWINO TSNO", "KPAO 221547Z 27010KT 10SM SCT020 16/12 A2982", "KPBF 221553Z AUTO 20016G23KT 10SM CLR 24/14 A3001 RMK AO2 SLP159 T02440144", "KPBG 221553Z AUTO 15013KT 10SM CLR 15/04 A3015 RMK AO2 SLP210 T01500044", "KPBI 221553Z 34012KT 10SM SCT040 28/18 A3005 RMK AO2 SLP174 T02780183 $", "KPBX 221555Z AUTO 17005KT 10SM CLR 17/04 A3020 RMK AO2 T01730042", "KPCD 221555Z AUTO 19015G18KT 150V210 10SM CLR 22/15 A2992 RMK AO2 T02210148", "KPCM 221555Z AUTO 36006KT 10SM CLR 25/16 A3013 RMK AO2", "KPCW 221555Z AUTO 20012KT 10SM CLR 19/07 A3003 RMK AO2", "KPCZ 221555Z AUTO 17007KT 10SM CLR 17/06 A2971 RMK AO2 T01710064", "KPDK 221553Z VRB03KT 10SM CLR 18/02 A3024 RMK AO2 SLP242 T01830022", "KPDT 221553Z 26017G24KT 10SM SCT055 OVC100 07/05 A2963 RMK AO2 SLP030 T00720050", "KPDX 221553Z 25005KT 10SM FEW010 BKN037 BKN044 11/08 A2977 RMK AO2 RAE15 SLP081 P0000 T01060078", "KPEA 221555Z AUTO 20012KT 10SM CLR 23/08 A2964 RMK AO2 T02270080", "KPEO 221553Z AUTO 20008G17KT 10SM CLR 18/02 A3017 RMK AO2 SLP215 T01780022", "KPEQ 221555Z AUTO 22009KT 10SM CLR 27/11 A2992 RMK AO2 T02710105", "KPEX 221555Z AUTO 13009KT 10SM CLR 14/03 A2952 RMK AO2", "KPEZ 221555Z AUTO 18012G18KT 10SM CLR 26/18 A2998 RMK AO2 T02580180", "KPGA 221553Z AUTO 16010KT 10SM CLR 18/04 A2978 RMK AO2 SLP034 T01830039", "KPGD 221553Z 06007KT 10SM FEW031 26/17 A3010 RMK AO2 SLP192 T02560167", "KPGV 221555Z AUTO 06008KT 10SM CLR 22/06 A3022 RMK AO2", "KPHD 221553Z AUTO 18005KT 10SM CLR 18/04 A3015 RMK AO2 SLP209 T01780044", "KPHF 221554Z 08008KT 10SM CLR 18/06 A3026 RMK AO2 SLP247 T01830056", "KPHL 221554Z 00000KT 10SM CLR 17/08 A3028 RMK AO2 SLP252 T01720078", "KPHN 221555Z AUTO 19013KT 10SM CLR 18/04 A2999 RMK AO2", "KPHP 221555Z AUTO 34009KT 10SM CLR 12/03 A2947 RMK AO2 SLP975 T01220033", "KPHT 221555Z AUTO 19012KT 10SM CLR 22/13 A3005 RMK A01", "KPHX 221551Z 11006KT 10SM FEW110 FEW250 24/12 A2979 RMK AO2 SLP074 T02390122 $", "KPIA 221554Z 18013KT 10SM CLR 21/10 A2981 RMK AO2 SLP090 T02110100", "KPIB 221556Z AUTO VRB06KT 10SM CLR 23/13 A3018 RMK AO2 SLP217 T02330133 PNO $", "KPIE 221553Z 01006KT 10SM CLR 23/13 A3012 RMK AO2 SLP198 T02280133", "KPIH 221553Z 22023G34KT 7SM -RA BKN014 BKN019 OVC025 07/05 A2952 RMK AO2 PK WND 23039/1525 SLP978 P0002 T00670050", "KPIL 221553Z AUTO 15014G23KT 10SM BKN040 OVC050 27/19 A2999 RMK AO2 SLP153 T02720189", "KPIM 221555Z AUTO 00000KT 10SM CLR 20/01 A3024 RMK AO2 T02020013", "KPIR 221553Z AUTO 32009KT 10SM CLR 12/03 A2942 RMK AO2 SLP960 T01220028", "KPIT 221551Z 17005KT 10SM FEW250 17/03 A3017 RMK AO2 SLP223 T01720028", "KPKB 221553Z 18007KT 10SM CLR 19/04 A3017 RMK AO2 SLP217 T01890039", "KPKD 221553Z AUTO 03004KT 10SM CLR 12/02 A2956 RMK AO2 SLP017 T01170022", "KPKV 221555Z AUTO 19014KT 10SM SCT036 SCT042 28/17 A3000 RMK AO2 T02750171", "KPLN 221554Z AUTO 14006KT 10SM CLR 16/08 A2982 RMK AO2 SLP100 T01610083", "KPLR 221555Z AUTO 00000KT 10SM CLR 20/11 A3022 RMK A01", "KPLU 221555Z AUTO 00000KT 6SM BR BKN004 OVC048 08/08 A2974 RMK AO2", "KPMD 221553Z 26008G18KT 10SM CLR 17/09 A2982 RMK AO2 PK WND 22026/1457 PRESRR SLP078 T01670094", "KPMH 221555Z AUTO 16005KT 10SM CLR 19/02 A3015 RMK AO2 T01900017", "KPMP 221553Z 01011KT 10SM CLR 28/16 A3003 RMK AO2 SLP171 T02830161", "KPMU 221555Z AUTO 20016KT 10SM CLR 24/14 A3007 RMK AO2", "KPMV 221555Z AUTO 18010KT 10SM CLR 20/07 A2957 RMK AO2 T02000072", "KPNA 221555Z AUTO 09010G19KT 10SM OVC045 05/00 A2961 RMK AO2", "KPNC 221553Z AUTO 19009G25KT 10SM CLR 25/09 A2960 RMK AO2 SLP009 T02500089", "KPNE 221554Z 00000KT 10SM CLR 17/07 A3029 RMK AO2 SLP256 T01720072", "KPNM 221555Z AUTO 10006KT 10SM CLR 15/04 A2957 RMK AO2 TSNO", "KPNS 221553Z 08003KT 10SM CLR 23/08 A3020 RMK AO2 SLP229 T02280078", "KPNT 221555Z AUTO 18016KT 10SM CLR 21/13 A2985 RMK AO2 T02070125", "KPOB 221555Z AUTO 02006KT 10SM CLR 21/05 A3022 RMK AO2 SLP236 T02080048 $", "KPOC 221547Z 22005KT 3SM HZ BKN025 BKN034 A2987", "KPOE 221555Z AUTO 17011KT 9SM CLR 25/17 A3004 RMK AO2 SLP173 T02450165", "KPOF 221553Z AUTO 19016G23KT 10SM CLR 21/14 A2996 RMK AO2 SLP144 T02060144 $", "KPOU 221553Z 25005KT 10SM CLR 17/05 A3026 RMK AO2 SLP242 T01670050", "KPOV 221555Z AUTO 23006KT 10SM CLR 18/02 A3011 RMK AO2 T01750021 PWINO", "KPOY 221555Z AUTO 29003KT 10SM SCT095 06/01 A2936 RMK AO2", "KPPA 221555Z AUTO 26018G24KT 10SM CLR 25/06 A2971 RMK AO2 T02490060", "KPPF 221552Z AUTO 19017G31KT 10SM CLR 23/12 A2968 RMK AO2 PK WND 18032/1535 SLP042 T02280117 PWINO $", "KPPO 221555Z AUTO 18013G16KT 10SM CLR 18/12 A2991 RMK AO2 T01820115", "KPPQ 221555Z AUTO 17013KT 10SM CLR 23/10 A2980 RMK AO2 T02270102", "KPQI 221556Z AUTO 10SM CLR 14/07 A3017 RMK AO2 SLP244 T01390067", "KPQL 221553Z AUTO 14008KT 10SM CLR 24/12 A3018 RMK AO2 SLP221 T02440117", "KPRB 221553Z AUTO 21006KT 10SM OVC011 13/09 A2991 RMK AO2 SLP124 T01280094", "KPRC 221553Z VRB05KT 10SM SCT050 15/07 A2996 RMK AO2 SLP087 T01500072", "KPRG 221555Z AUTO 16017G23KT 10SM CLR 21/13 A2996 RMK AO2 T02050126", "KPRN 221558Z AUTO 12003KT 10SM 20/06 A3020 RMK AO2 SLP176 T02000061 $", "KPRO 221555Z AUTO 20009G17KT 10SM CLR 24/07 A2958 RMK AO2 T02350065", "KPRS 221555Z AUTO 10003KT 10SM CLR 23/11 A3001 RMK AO2 T02320110", "KPRX 221556Z AUTO 18021G28KT 10SM CLR 24/16 A2987 RMK AO2 PK WND 18030/1540 SLP112 T02390156", "KPSC 221553Z 30005KT 10SM -RA SCT034 BKN042 OVC055 09/07 A2965 RMK AO2 RAB07E19B43 SLP041 P0000 T00890072 $", "KPSF 221554Z AUTO 11003KT 10SM CLR 16/02 A3025 RMK AO2 SLP238 T01560017", "KPSK 221555Z AUTO 00000KT 10SM CLR 13/04 A3026 RMK AO2 T01270044", "KPSM 221555Z 24003KT 10SM FEW250 18/04 A3026 RMK AO2A SLP250 T01760042", "KPSN 221555Z AUTO 19014G22KT 10SM SCT029 24/17 A2996 RMK AO2", "KPSO 221555Z AUTO 00000KT 10SM CLR 09/M01 A3002 RMK AO2 T00931010", "KPSP 221553Z 00000KT 10SM CLR 22/13 A2975 RMK AO2 SLP072 T02220128", "KPSX 221553Z AUTO 18013G20KT 10SM CLR 27/16 A3000 RMK AO2 SLP159 T02720161", "KPTD 221555Z AUTO 22015KT 10SM CLR 20/02 A3011 RMK AO2", "KPTK 221553Z 18007G19KT 10SM FEW220 18/06 A2997 RMK AO2 SLP148 T01780061", "KPTN 221556Z AUTO 16010KT 10SM CLR 25/17 A3013 RMK AO2 SLP203 T02500172 $", "KPTS 221555Z AUTO 19019G27KT 10SM CLR 23/12 A2970 RMK AO2 T02290119 PWINO", "KPTT 221555Z AUTO 18006KT 10SM CLR 20/01 A2955 RMK AO2 T02000008", "KPTV 221556Z AUTO 11003KT 10SM CLR 14/07 A2981 RMK AO2 SLP093 T01440072", "KPTW 221554Z AUTO 00000KT 10SM CLR 15/07 A3028 RMK AO2 SLP253 T01500067", "KPUB 221553Z 00000KT 10SM CLR 17/M03 A2967 RMK AO2 SLP005 T01721033", "KPUC 221553Z AUTO 09004KT 10SM CLR 12/M04 A2971 RMK AO2 SLP036 T01221039", "KPUJ 221555Z AUTO 15003KT 7SM CLR 17/03 A3024 RMK AO2", "KPUW 221553Z AUTO 28008KT 5SM -RA BR FEW006 BKN014 OVC024 04/03 A2957 RMK AO2 RAB14 SLP026 P0001 T00390033 $", "KPVB 221555Z AUTO 19011KT 10SM CLR 19/06 A2973 RMK AO1 T01870063", "KPVC 221556Z AUTO 21010KT 10SM CLR 17/11 A3030 RMK AO2 SLP259 T01720111", "KPVD 221551Z 17006KT 10SM FEW250 18/06 A3029 RMK AO2 SLP257 T01780061", "KPVF 221555Z AUTO 18007KT 10SM OVC009 12/09 A2980 RMK AO1", "KPVG 221556Z AUTO VRB04KT 10SM CLR 21/09 A3025 RMK AO2 SLP246 T02060089 PNO $", "KPVJ 221555Z AUTO 20021G27KT 10SM CLR 24/11 A2973 RMK AO2 T02350105", "KPVU 221610Z 28011G19KT 10SM -RA SCT060 BKN075 OVC100 16/03 A2964 RMK AO2 WSHFT 1550 RAB06 P0000", "KPVW 221550Z AUTO 26016G20KT 10SM CLR 21/06 A2983 RMK AO2 T02080056", "KPWA 221553Z 20018G27KT 10SM CLR 24/09 A2965 RMK AO2 PK WND 18031/1518 SLP028 T02390089", "KPWC 221555Z AUTO 14004KT 10SM CLR 12/04 A2961 RMK AO2", "KPWD 221555Z AUTO 07010KT 10SM OVC080 05/04 A2955 RMK AO2", "KPWG 221556Z AUTO 18016G24KT 10SM CLR 25/17 A2992 RMK AO2 SLP124 T02500167", "KPWK 221552Z 20011KT 10SM CLR 20/09 A2983 RMK AO2 SLP099 T02000094", "KPWM 221551Z 16008KT 10SM CLR 14/07 A3027 RMK AO2 SLP248 T01440067", "KPWT 221556Z AUTO 6SM BR FEW003 OVC035 08/08 A2974 RMK AO2 SLP076 T00780078", "KPXE 221555Z AUTO 08005KT 10SM CLR 21/00 A3023 RMK AO2 T02121004", "KPYM 221552Z AUTO VRB03KT 10SM CLR 18/09 A3028 RMK AO2 SLP256 T01830094", "KPYX 221555Z AUTO 26014G20KT 10SM CLR 23/M02 A2964 RMK AO2 T02251025", "KPZQ 221555Z AUTO 17006KT 10SM CLR 19/08 A2985 RMK AO2 T01880081", "KPZZ 221555Z AUTO 14012KT 9SM FEW042 FEW050 24/14 A3013 RMK A01", "KQAZ 221555Z AUTO 11007KT 060V150 9999 CLR 32/02 A2997 RMK AO2 SLP147 WND DATA ESTMD T03240016", "KQBL 221555Z AUTO 00000KT 10SM CLR 22/03 A3021 RMK AO2 SLP236 WND DATA ESTMD T02180033", "KQD3 221555Z AUTO 05005KT M /// /// CLR 29/22 A2991 RMK AO2 SLP113 WND DATA ESTMD T02920223 $", "KQEI 221610Z AUTO 11001KT 9000 BKN023 09/08 A3009 RMK A02 TSNO", "KQEJ 221610Z AUTO 00000KT 9999 // FEW075 21/21 / RMK A02 TSNO", "KQEN 221610Z AUTO 26003KT 4000 // BKN015 / / RMK A02 TSNO", "KQEP 221610Z AUTO 10001KT 9999 OVC020 13/11 A3012 RMK A02 TSNO", "KQEQ 221610Z AUTO 14001KT 2800 BR CLR 14/16 / RMK A02 TSNO", "KQER 221600Z AUTO 00000KT 8000 BKN014 BKN050 13/12 A3005 RMK A02 TSNO", "KQEV 221610Z AUTO 23001KT 3200 BR FEW055 11/12 / RMK A02 TSNO", "KQEW 221610Z AUTO 26004KT 9999 CLR 14/10 A3010 RMK A02 TSNO", "KQEY 221600Z AUTO 29001KT 6000 FEW230 10/09 A2983 RMK A02 TSNO", "KQFB 221610Z AUTO 30002KT 8000 FEW240 09/07 A3014 RMK A02 TSNO", "KQFT 221610Z AUTO 17001KT 8000 FEW018 BKN031 11/10 A3009 RMK A02 TSNO", "KQFU 221610Z AUTO 22001KT 4800 BKN011 BKN032 14/14 A3014 RMK A02 TSNO", "KQFV 221610Z AUTO 16001KT 9999 BKN023 BKN060 12/11 A3011 RMK A02 TSNO", "KQFW 221610Z AUTO 03001KT 3200 BR BKN020 08/08 A2994 RMK A02 TSNO", "KQFX 221610Z AUTO 10002KT 4000 BR FEW017 FEW039 18/16 / RMK A02 TSNO", "KQN3 221555Z VRB01KT 9000 HZ CLR 37/08 A2988 RMK AO2A SLP101 T03740075 $", "KQRH 221555Z AUTO 07007KT 030V100 9999 CLR 30/23 A2986 RMK AO2 SLP114 WND DATA ESTMD T02950227", "KQTZ 221555Z 01003KT 9000 HZ FEW150 FEW180 29/12 A2997 RMK SLP146 WND DATA ESTMD ALSTG/SLP ESTMD", "KQVF 221555Z AUTO 15005KT 9999 CLR 26/22 A2998 RMK AO2 SLP155 WND DATA ESTMD T02550222", "KRAC 221553Z AUTO 19011KT 10SM CLR 21/09 A2981 RMK AO2 SLP090 T02060094", "KRAL 221553Z 28004KT 10SM BKN021 OVC037 18/14 A2986 RMK AO2 SLP099 T01780139", "KRAP 221552Z 35006KT 10SM CLR 09/04 A2950 RMK AO2 SLP984 T00890039", "KRAS 221555Z AUTO 16012G16KT 10SM SCT046 A3002 RMK AO2", "KRBD 221553Z 19016G22KT 10SM CLR 23/16 A2987 RMK AO2 RAE52 SLP107 P0000 T02280161", "KRBG 221553Z AUTO 28004KT 10SM SCT049 10/06 A2990 RMK AO2 RAB06E46 SLP126 P0004 T01000056", "KRBL 221554Z AUTO 30017G28KT 10SM CLR 18/02 A2976 RMK AO2 PK WND 31028/1551 SLP074 T01780022", "KRBO 221555Z AUTO 10SM SCT033 SCT039 27/18 A2999 RMK AO2 T02720180", "KRBW 221555Z AUTO 04005KT 10SM CLR 20/05 A3021 RMK AO2", "KRCA 221555Z AUTO 00000KT 10SM BKN150 09/03 A2947 RMK AO2 SLP976 T00900034 $", "KRCE 221555Z AUTO 21019G27KT 10SM CLR 23/09 A2964 RMK AO2", "KRCM 221555Z AUTO 17015G23KT 10SM CLR 24/08 A2968 RMK AO2", "KRCR 221555Z AUTO 19010KT 10SM CLR 20/10 A2994 RMK AO2", "KRCV 221555Z AUTO 25013G16KT 10SM CLR 12/M03 A2995 RMK AO2 T01171029", "KRCX 221555Z AUTO 16006KT 10SM CLR 16/07 A2966 RMK AO2 T01630074", "KRCZ 221555Z AUTO 05005KT 10SM CLR 20/03 A3023 RMK AO2 T01960034", "KRDD 221553Z 31013G17KT 10SM CLR 18/02 A2974 RMK AO2 SLP067 T01830017", "KRDG 221554Z 00000KT 9SM CLR 16/07 A3026 RMK AO2 SLP252 T01560067 $", "KRDK 221555Z AUTO 19014G22KT CLR 23/08 A2958 RMK AO2", "KRDM 221556Z 29010KT 10SM FEW060 FEW075 BKN100 06/02 A2971 RMK AO2 RAE00 SLP055 P0000 T00560017", "KRDR 221555Z AUTO 04010KT 10SM BKN130 OVC160 10/04 A2953 RMK AO2 SLP008 T01000039 CHINO RWY17 $", "KRDU 221551Z VRB04KT 10SM CLR 20/05 A3025 RMK AO2 SLP241 T02000050", "KREG 221555Z AUTO 15008KT 10SM CLR 25/16 A3013 RMK AO2 T02540158", "KREO 221552Z AUTO 28019G26KT 07/01 A2961 RMK AO1 PK WND 27026/1552 SLP006 T00670011", "KRFD 221554Z 19013G21KT 10SM FEW250 19/09 A2979 RMK AO2 SLP086 T01940094", "KRFI 221555Z AUTO 18009G17KT 10SM CLR 25/14 A2999 RMK AO2 T02520135", "KRGA 221558Z AUTO 20012G16KT 10SM CLR 21/07 A3016 RMK AO2", "KRGK 221555Z AUTO 15007KT 10SM CLR 12/04 A2958 RMK AO2", "KRHI 221553Z AUTO 13011KT 10SM CLR 16/04 A2969 RMK AO2 SLP061 T01560039", "KRHP 221555Z AUTO 00000KT 10SM CLR 17/00 A3025 RMK AO2 T01741004", "KRHV 221547Z 00000KT 10SM SCT022 BKN140 16/11 A2981", "KRIC 221554Z VRB03KT 10SM FEW050 19/06 A3025 RMK AO2 SLP248 T01890061", "KRIL 221553Z AUTO 00000KT 10SM CLR 08/M03 A2976 RMK AO2 SLP054 T00781028", "KRIV 221555Z AUTO 17004KT 10SM BKN034 18/12 A2987 RMK AO2 SLP105 T01820124", "KRIW 221553Z AUTO 22027G36KT 10SM CLR 13/M02 A2944 RMK AO2 PK WND 22036/1552 SLP916 T01331017 $", "KRKD 221556Z AUTO 22012KT 10SM CLR 15/12 A3027 RMK AO2 SLP251 T01500117", "KRKP 221553Z AUTO 18009KT 10SM CLR 29/17 A2999 RMK AO2 SLP157 T02890172", "KRKR 221555Z AUTO 18017G24KT 10SM CLR 22/13 A2985 RMK AO2", "KRKS 221554Z AUTO 22018G24KT 10SM FEW100 12/M06 A2961 RMK AO2 SLP969 T01171061", "KRLD 221555Z AUTO 27003KT 10SM BKN030 BKN038 OVC055 09/08 A2965 RMK AO2 T00910077", "KRME 221553Z 13006KT 10SM CLR 16/03 A3021 RMK AO2 SLP229 T01610028", "KRMG 221553Z AUTO 16005KT 10SM CLR 18/06 A3022 RMK AO2 SLP228 T01830056", "KRMN 221555Z AUTO 00000KT 10SM CLR 19/05 A3029 RMK AO2 T01910054", "KRMY 221555Z AUTO 19008G15KT 10SM CLR 19/08 A2994 RMK AO2 T01870081", "KRNC 221550Z AUTO 21007KT 10SM CLR 20/11 A3016 RMK A01", "KRND 221555Z AUTO 19015KT 10SM FEW017 24/18 A2996 RMK AO2 SLP139 T02390178", "KRNH 221555Z AUTO 12005KT 10SM CLR 14/08 A2959 RMK AO2 T01410080", "KRNM 221553Z 19008KT 10SM OVC025 18/13 A2987 RMK AO2 SLP106 T01780133", "KRNO 221555Z 30011G22KT 10SM SCT050 BKN070 BKN090 13/05 A2968 RMK AO2 PK WND 26032/1502 RAB42E52 SLP010 VIRGA MTN TOPS OBSCD DSNT SW P0000 T01280050", "KRNP 221555Z AUTO 18012G17KT 10SM CLR 19/06 A2993 RMK AO2 T01890055", "KRNT 221600Z 00000KT 2SM RA BR FEW015 BKN030 OVC040 08/07 A2975 RMK AO2 P0002 T00830067", "KRNV 221555Z AUTO 18017G21KT 10SM CLR A3006 RMK AO2 TSNO", "KROA 221554Z VRB03KT 10SM CLR 16/02 A3028 RMK AO2 SLP252 T01560022 $", "KROC 221554Z 21010KT 10SM CLR 18/03 A3012 RMK AO2 SLP202 T01830028", "KROG 221558Z 10SM CLR 21/12 A2981 RMK AO2 SLP083 T02060117 $", "KROS 221603Z AUTO 00000KT 10SM CLR 17/06 A2958 RMK AO2", "KROW 221551Z 13004KT 10SM CLR 18/11 A2989 RMK AO2 SLP073 T01780111", "KROX 221555Z AUTO 09007KT 10SM SCT090 10/06 A2963 RMK AO2", "KRPD 221555Z AUTO 12007KT 10SM CLR 13/07 A2964 RMK AO2 T01340071", "KRPH 221555Z AUTO 22011G17KT 8SM CLR 27/10 A2978 RMK AO2 T02690095 $", "KRPJ 221555Z AUTO 17012G16KT 10SM CLR 20/11 A2980 RMK AO2 T01960113 TSNO", "KRPX 221545Z AUTO 10SM 08/06 A2938 RMK Roundup ", "KRQB 221555Z AUTO 20010G21KT 160V220 10SM CLR 19/07 A2986 RMK AO2 T01870073", "KRQE 221553Z AUTO 22015G20KT 10SM CLR 14/05 A3001 RMK AO2 SLP080 T01390050", "KRQO 221555Z AUTO 19021G27KT CLR 23/09 A2966 RMK AO2 PWINO T02280095", "KRRT 221555Z AUTO 07006KT 10SM 08/06 A2965 RMK AO2", "KRSL 221553Z AUTO 19003KT 10SM CLR 16/01 A2952 RMK AO2 SLP991 T01610011", "KRSN 221555Z AUTO 19012G15KT 10SM SCT039 SCT049 24/15 A3008 RMK AO2 T02360150", "KRST 221554Z 18012G18KT 10SM CLR 17/05 A2960 RMK AO2 SLP023 T01720050", "KRSV 221555Z AUTO 18014G19KT 10SM CLR 20/12 A2997 RMK AO2 T02030119", "KRSW 221553Z 06007KT 10SM CLR 26/17 A3008 RMK AO2 SLP183 T02610167", "KRTN 221553Z AUTO 28018G34KT 10SM CLR 19/M04 A2981 RMK AO2 PK WND 27034/1546 WSHFT 1520 SLP015 T01891039", "KRTS 221555Z AUTO 31013G25KT 10SM FEW046 FEW060 SCT070 12/03 A2973 RMK AO2", "KRUE 221553Z AUTO 19008G14KT 150V250 10SM FEW033 22/14 A2991 RMK AO2 SLP122 T02220144 $", "KRUG 221555Z AUTO 08009KT 10SM CLR 06/06 A2958 RMK AO2", "KRUQ 221555Z AUTO 00000KT 10SM CLR 17/02 A3025 RMK AO2 T01690024", "KRUT 221556Z AUTO 35003KT 10SM CLR 17/01 A3023 RMK AO2 SLP235 T01670011 $", "KRVF 221555Z AUTO 19013KT 9SM -DZ FEW026 SCT031 BKN037 05/04 A2940 RMK AO2", "KRVJ 221555Z AUTO 04011KT 10SM CLR 22/03 A3021 RMK AO2 T02150032", "KRVL 221555Z AUTO 00000KT 10SM CLR 13/03 A3024 RMK AO2", "KRVS 221553Z 19017G33KT 10SM CLR 24/12 A2969 RMK AO2 PK WND 18034/1504 SLP055 T02390122", "KRWF 221553Z AUTO 13013KT 8SM CLR 13/02 A2950 RMK AO2 SLP991 T01330022", "KRWI 221553Z AUTO 05007KT 10SM SCT047 21/04 A3024 RMK AO2 SLP238 T02110044", "KRWL 221553Z AUTO 20027G43KT 10SM -RA CLR 12/M05 A2959 RMK AO2 PK WND 20043/1548 SLP955 P0000 T01171050", "KRWV 221555Z AUTO 19017G26KT 10SM BKN025 BKN033 25/17 A2998 RMK AO2 T02540174", "KRXE 221553Z AUTO 18012G21KT 10SM -RA FEW017 BKN024 OVC033 08/05 A2943 RMK AO2 PK WND 20026/1532 SLP938 P0002 T00830050", "KRYM 221555Z AUTO 12015KT 10SM OVC200 17/03 A2952 RMK AO2 SLP002 T01660033 $", "KRYN 221545Z VRB03KT 10SM CLR 24/14 A2988", "KRYV 221555Z AUTO 19012G17KT 10SM CLR 19/07 A2975 RMK AO2 T01910072", "KRYW 221555Z AUTO 20009G17KT 10SM SCT016 22/16 A2997 RMK AO2 T02240163", "KRYY 221550Z 18003KT 10SM CLR 19/03 A3025 RMK AO2 SLP239 T01890028 $", "KRZL 221555Z AUTO 18017G20KT 10SM CLR 20/09 A2992 RMK AO2", "KRZN 221555Z AUTO 11005KT 10SM CLR 16/04 A2960 RMK AO2 T01560038", "KRZR 221555Z AUTO 21006KT 10SM CLR 18/02 A3020 RMK A01", "KRZT 221555Z AUTO 16006KT 10SM CLR 18/03 A3012 RMK AO2 PWINO", "KS21 221555Z AUTO 18010KT 10SM SCT031 BKN038 BKN044 02/01 A2974 RMK AO2", "KS24 221555Z AUTO 21012G18KT 10SM CLR 19/07 A3004 RMK AO2", "KS25 221555Z AUTO 08008KT 10SM FEW011 FEW120 06/06 A2956 RMK AO2", "KS32 221555Z AUTO 06012KT 10SM CLR 10/02 A2953 RMK AO2 TSNO", "KS33 221555Z AUTO 00000KT 10SM SCT036 BKN043 OVC049 05/03 A2972 RMK AO2", "KS34 221555Z AUTO 00000KT 7SM 04/M07 A2953 RMK Plains ", "KS39 221555Z AUTO 28006KT 10SM -RA FEW020 BKN024 BKN034 04/03 A2970 RMK AO2 P0002", "KS52 221555Z AUTO 00000KT 10SM OVC110 00/M02 A2963 RMK AO2 T00051016", "KS59 221600Z AUTO 00000KT 7SM 03/03 A2948 ", "KS85 221555Z AUTO 10010KT 10SM FEW022 BKN031 OVC042 06/05 A2954 RMK A01 Culbertson ", "KSAA 221555Z AUTO 19015G19KT 10SM CLR 12/M06 A2969 RMK AO2", "KSAC 221553Z 17004KT 10SM CLR 16/13 A2975 RMK AO2 SLP073 T01610133", "KSAD 221551Z AUTO 10005KT 10SM SCT075 BKN095 22/09 A2991 RMK AO2 SLP088 T02220094", "KSAF 221553Z 25019G29KT 10SM CLR 15/05 A3000 RMK AO2 PK WND 24029/1549 SLP087 T01500050", "KSAN 221551Z 19006KT 10SM SCT022 BKN030 19/14 A2988 RMK AO2 SLP117 T01940139", "KSAR 221555Z AUTO 17013G19KT 10SM CLR 21/13 A2992 RMK AO2 T02100125", "KSAT 221551Z 19012KT 10SM SCT020 SCT250 24/17 A2999 RMK AO2 SLP138 T02390172", "KSAV 221553Z 02010KT 10SM FEW250 21/03 A3020 RMK AO2 SLP225 T02110033", "KSAW 221545Z 00000KT 10SM CLR 10/07 A2973", "KSAZ 221555Z AUTO 10003KT 10SM 13/03 A2954 RMK AO2", "KSBD 221552Z 00000KT 3SM HZ BKN021 BKN027 OVC033 19/13 A2987", "KSBM 221553Z AUTO 19010KT 10SM CLR 19/09 A2975 RMK AO2 SLP073 T01890094", "KSBN 221554Z 19013G23KT 10SM CLR 19/09 A2992 RMK AO2 SLP129 T01940089", "KSBO 221555Z AUTO 06004KT 10SM CLR 20/01 A3023 RMK AO2", "KSBP 221556Z 12005KT 10SM OVC019 15/12 A2987 RMK AO2 SLP114 T01500117", "KSBS 221555Z AUTO 28003KT 10SM CLR 08/M04 A2974 RMK AO1 T00831040", "KSBY 221554Z 09004KT 10SM CLR 20/06 A3026 RMK AO2 SLP248 T02000061", "KSCD 221555Z AUTO 16004KT 10SM SCT110 21/12 A3022 RMK AO2 T02100123", "KSCH 221555Z 00000KT 15SM SKC 16/04 A3025", "KSCK 221555Z 25017G23KT 10SM CLR 17/13 A2975 RMK AO2 SLP074 T01720133", "KSCR 221555Z AUTO 02005KT 10SM CLR 19/02 A3025 RMK AO2 T01890020", "KSCX 221555Z AUTO 20011KT 10SM CLR 19/04 A3019 RMK A01", "KSDA 221555Z AUTO 10SM CLR 22/08 A2956 RMK AO2", "KSDB 221557Z AUTO 4SM BR 09/08 A2989 RMK AO2 T00940083 $", "KSDC 221555Z AUTO 16007KT 10SM CLR 20/02 A3013 RMK AO2", "KSDF 221556Z 18011KT 10SM FEW150 BKN200 BKN250 21/09 A3007 RMK AO2 SLP180 T02060089", "KSDL 221553Z 00000KT 10SM CLR 23/12 A2983 RMK AO2 SLP080 T02330122", "KSDM 221553Z 24005KT 10SM SCT015 BKN031 19/14 A2987 RMK AO2 SLP110 T01890144", "KSDY 221556Z AUTO 05005KT 10SM BKN010 BKN013 OVC027 06/05 A2956 RMK AO2 CIG 007V011 SLP024 T00610050 PNO $", "KSEA 221611Z 3SM -RA BR BKN004 BKN015 OVC025 08/07 A2975 RMK AO2 P0003 T00830067", "KSEE 221547Z 00000KT 10SM BKN035 19/14 A2987", "KSEF 221555Z AUTO 35008KT 10SM CLR A3010 RMK AO2", "KSEG 221553Z AUTO 15004KT 10SM CLR 15/05 A3026 RMK AO2 SLP248 T01500050", "KSEM 221555Z AUTO 18004KT 10SM CLR 21/12 A3021 RMK AO2", "KSEP 221555Z AUTO 21013G19KT 10SM CLR 24/13 A2989 RMK AO2 T02380129", "KSEQ 221555Z AUTO 21016G21KT 10SM FEW023 25/18 A2996 RMK AO2 SLP142 T02520176 $", "KSET 221554Z AUTO 18014KT 10SM CLR 24/11 A2983 RMK AO2 SLP098 T02390111", "KSEZ 221555Z AUTO 16005KT 10SM 17/08 A2996 RMK AO2", "KSFB 221553Z 01010KT 10SM CLR 25/17 A3010 RMK AO2 SLP192 T02500172", "KSFF 221553Z 28004KT 10SM OVC009 06/03 A2956 RMK AO2 CIG 007V011 SLP013 T00560033", "KSFM 221556Z AUTO 21004KT 10SM CLR 16/04 A3027 RMK AO2 SLP255 T01560044", "KSFO 221556Z 28021G30KT 9SM FEW009 SCT018 BKN180 15/12 A2979 RMK AO2 PK WND 28032/1513 SLP089 T01500122 $", "KSFQ 221555Z AUTO 06007KT 10SM CLR 20/10 A3026 RMK AO2 T02040097", "KSFY 221602Z AUTO 18013KT 10SM CLR 20/08 A2975 RMK AO2", "KSFZ 221556Z AUTO 22005KT 10SM CLR 17/05 A3028 RMK AO2 SLP255 T01720050", "KSGF 221552Z 17013KT 10SM CLR 21/10 A2977 RMK AO2 SLP069 T02110100 $", "KSGH 221556Z AUTO 20006KT 10SM CLR 19/07 A3008 RMK AO2 SLP187 T01940072", "KSGJ 221556Z 01016KT 10SM CLR 22/14 A3015 RMK AO2 SLP210 T02220144", "KSGR 221553Z 19015G23KT 10SM FEW044 28/16 A3001 RMK AO2 SLP163 T02780161", "KSGS 221555Z AUTO 14006KT 10SM CLR 13/03 A2957 RMK AO2 T01250034", "KSGT 221556Z AUTO 20020G24KT 10SM CLR 24/14 A3001 RMK AO2 SLP161 T02390144", "KSGU 221556Z AUTO 22004KT 10SM CLR 17/02 A2971 RMK AO2 SLP036 T01670022", "KSHD 221555Z AUTO 20003KT 10SM CLR 16/02 A3026 RMK AO2 T01630020", "KSHL 221555Z AUTO 16012KT 9SM CLR 17/02 A2948 RMK AO2", "KSHN 221553Z AUTO 27006KT 10SM OVC004 07/06 A2973 RMK AO2 SLP069 T00670056", "KSHR 221553Z AUTO 11007KT 10SM CLR 08/03 A2941 RMK AO2 SLP953 T00830033", "KSHV 221556Z 19010G18KT 10SM FEW032 FEW290 26/16 A2999 RMK SLPNO", "KSIF 221555Z AUTO 00000KT 10SM CLR 16/02 A3026 RMK AO2 T01580022", "KSIK 221555Z AUTO 20014G21KT 10SM CLR 21/15 A2999 RMK AO2", "KSIY 221553Z AUTO 08011KT 10SM BKN046 BKN055 07/03 A2986 RMK AO2 RAE27 SLP115 P0000 T00720028", "KSJC 221553Z 00000KT 10SM FEW007 FEW023 BKN140 17/12 A2981 RMK AO2 SLP095 T01670117", "KSJS 221555Z AUTO 23005KT 10SM CLR 19/05 A3019 RMK AO2 T01870046", "KSJT 221551Z 20014G21KT 10SM CLR 24/11 A2989 RMK AO2 SLP103 T02440106", "KSJX 221555Z AUTO 14006KT 10SM CLR 16/08 A2979 RMK AO2 T01620080", "KSKA 221555Z 28006KT 10SM OVC005 04/03 A2953 RMK AO2A RAB29E41 CIG 004 RWY05 SLP238 P0000 T00350034 $", "KSKF 221555Z AUTO 17008KT 10SM CLR 24/18 A2996 RMK AO2 SLP140 T02380175 $", "KSKX 221556Z AUTO 22010KT 10SM CLR 13/02 A3002 RMK AO2 SLP125 T01280022", "KSLB 221555Z AUTO 20015KT 9SM CLR 19/05 A2952 RMK AO2", "KSLC 221554Z 20010G18KT 10SM FEW055 BKN075 OVC085 16/02 A2959 RMK AO2 PK WND 26035/1518 WSHFT 1448 RAB1456E44 SLP982 P0000 T01610022", "KSLE 221556Z 26008KT 10SM BKN035 BKN080 OVC100 11/06 A2980 RMK AO2 SLP091 T01060061", "KSLG 221556Z AUTO 18022G27KT 10SM CLR 22/13 A2979 RMK AO2 PK WND 19028/1543 SLP075 T02220128", "KSLH 221555Z AUTO 16004KT 10SM CLR 16/08 A2981 RMK AO2", "KSLI 221555Z 00000KT 10SM OVC038 19/15 A2983 RMK AO2A SLP104 T01880149", "KSLK 221551Z AUTO 23010KT 10SM CLR 17/01 A3015 RMK AO2 SLP210 T01720011", "KSLN 221553Z 18010KT 10SM CLR 21/06 A2955 RMK AO2 SLP996 T02060061", "KSLO 221555Z AUTO 17012G16KT 10SM CLR 21/12 A2992 RMK AO2 T02110122", "KSLR 221550Z AUTO 19020G29KT 10SM SCT022 23/16 A2990 RMK AO2 T02280155", "KSME 221555Z AUTO 19009KT 10SM CLR 20/06 A3014 RMK AO2", "KSMF 221553Z 16007KT 10SM BKN250 17/13 A2973 RMK AO2 SLP068 T01670128", "KSMN 221556Z AUTO 00000KT 10SM BKN075 OVC090 06/04 A2940 RMK AO2 SLP672 T00610039", "KSMO 221551Z 26006KT 10SM SCT015 OVC038 18/15 A2987 RMK AO2 SLP114 T01830150", "KSMP 221556Z AUTO 21004KT 1/4SM FG VV002 01/M01 A2964 RMK AO2 SNE13 SLP057 P0001 T00061006", "KSMQ 221553Z AUTO 16003KT 10SM CLR 17/07 A3026 RMK AO2 SLP247 T01670067", "KSMS 221555Z AUTO VRB06KT 10SM CLR 21/05 A3023 RMK AO2", "KSMX 221551Z 00000KT 8SM OVC018 14/12 A2988 RMK AO2 SLP120 T01390117", "KSNA 221609Z 00000KT 10SM SCT020 OVC036 21/14 A2986 RMK AO2 T02060144", "KSNC 221555Z AUTO 16008KT 10SM CLR 18/06 A3029 RMK AO2", "KSNH 221550Z AUTO 18011KT 10SM CLR 20/14 A3010 RMK A01", "KSNK 221555Z AUTO 21007KT 10SM CLR 20/09 A2988 RMK AO2 T02000089", "KSNL 221555Z AUTO 21019G30KT 10SM CLR 24/07 A2968 RMK AO2 T02360071", "KSNS 221553Z 28007KT 9SM OVC005 16/15 A2984 RMK AO2 RAE27 CIG 002V008 SLP112 P0001 T01560150", "KSNT 221551Z AUTO 13004KT 02/01 A2945 RMK AO1 SLP931 T00170006", "KSNY 221553Z AUTO 28008KT 10SM CLR 21/M04 A2957 RMK AO2 SLP978 T02061044", "KSOA 221555Z AUTO 18012KT 10SM 23/12 A3000 RMK AO2", "KSOP 221556Z AUTO VRB06KT 10SM CLR 19/06 A3024 RMK AO2 SLP246 T01890056 TSNO", "KSOW 221555Z AUTO 20014KT 10SM BKN019 OVC026 14/08 A3004 RMK AO2", "KSPB 221553Z AUTO 15004KT 10SM FEW043 BKN055 OVC080 09/08 A2976 RMK AO2 SLP076 T00940078", "KSPD 221556Z AUTO 30016G24KT 23/M07 A2967 RMK AO1 SLP999 T02331067", "KSPF 221555Z AUTO 06006KT 10SM CLR 08/04 A2949 RMK AO2", "KSPG 221553Z 04006KT 10SM CLR 22/15 A3010 RMK AO2 SLP192 T02220150", "KSPI 221552Z 18008G17KT 140V200 10SM CLR 21/11 A2984 RMK AO2 SLP101 T02060106", "KSPS 221552Z AUTO 22019G30KT 10SM CLR 27/09 A2972 RMK AO2 PK WND 22032/1522 SLP051 T02670089", "KSPW 221553Z AUTO 17011KT 10SM CLR 18/03 A2953 RMK AO2 SLP999 T01830028", "KSQI 221556Z AUTO VRB04KT 10SM CLR 21/09 A2978 RMK AO2 SLP949 T02110094", "KSQL 221547Z 26009G20KT 10SM FEW010 SCT016 BKN150 16/12 A2982", "KSRB 221555Z AUTO 19009KT 10SM CLR 20/09 A3016 RMK A01", "KSRC 221556Z AUTO 20012G16KT 10SM FEW028 21/15 A2998 RMK AO2 SLP151 T02110150", "KSRE 221555Z AUTO 10SM CLR 24/10 A2972 RMK AO2", "KSRQ 221553Z 04006KT 10SM CLR 24/13 A3009 RMK AO2 SLP188 T02440128", "KSRR 221555Z AUTO 28022G31KT 10SM 18/05 A3005 RMK AO2", "KSSC 221555Z AUTO 02008KT 10SM CLR 21/02 A3020 RMK AO2 SLP228 T02110024 $", "KSSF 221553Z 18013G21KT 10SM CLR 24/18 A2997 RMK AO2 SLP139 T02440178 $", "KSSI 221553Z AUTO 04012G18KT 10SM CLR 21/07 A3018 RMK AO2 SLP221 T02110067", "KSTC 221553Z 11007KT 10SM CLR 14/04 A2954 RMK AO2 SLP014 T01390039", "KSTE 221555Z AUTO 18006KT 10SM CLR 17/02 A2970 RMK AO2 T01700022", "KSTF 221555Z AUTO 18010KT 10SM CLR 22/14 A3013 RMK AO2", "KSTJ 221553Z 19020G26KT 10SM CLR 23/09 A2960 RMK AO2 PK WND 20031/1530 SLP015 T02330094 $", "KSTK 221555Z AUTO 15008KT 10SM CLR 13/M03 A2958 RMK AO2", "KSTL 221551Z 17011G18KT 10SM SCT250 23/10 A2985 RMK AO2 SLP099 T02280100 $", "KSTP 221553Z 15007KT 10SM CLR 14/04 A2958 RMK AO2 SLP016 T01390044", "KSTS 221553Z AUTO 14003KT 10SM CLR 13/12 A2979 RMK AO2 SLP083 T01330117", "KSUA 221547Z 35010KT 10SM FEW055 26/19 A3007", "KSUE 221556Z AUTO 18013KT 10SM FEW002 16/10 A2973 RMK AO2 SLP067 T01560100", "KSUN 221555Z 21006KT 10SM SCT070 OVC090 06/02 A2947", "KSUS 221554Z 16004KT 10SM CLR 22/11 A2982 RMK AO2 SLP093 T02170106", "KSUT 221555Z AUTO 03007G14KT 10SM SCT045 24/13 A3016 RMK AO2 T02370125", "KSUU 221555Z AUTO 22014KT 10SM CLR 16/13 A2973 RMK AO2 SLP074 T01640125 $", "KSUX 221552Z 16011KT 10SM CLR 17/04 A2951 RMK AO2 SLP992 T01670039", "KSUZ 221555Z AUTO 21014G22KT 10SM CLR 23/15 A2997 RMK A01", "KSVC 221555Z AUTO 28004KT 10SM SCT040 BKN050 OVC070 19/12 A3006 RMK AO2 T01920117", "KSVH 221555Z AUTO 00000KT 10SM CLR 18/02 A3025 RMK AO2 T01800016", "KSVN 221555Z AUTO 02010KT 10SM CLR 21/05 A3017 RMK AO2 SLP220 T02070051 $", "KSWF 221545Z 26005KT 10SM SKC 16/05 A3027", "KSWO 221553Z 20020G28KT 10SM CLR 26/09 A2963 RMK AO2 PK WND 19031/1514 SLP020 T02560089", "KSWW 221555Z AUTO 22012G16KT 10SM CLR 23/09 A2990 RMK AO2 T02300092", "KSXK 221555Z AUTO 16018KT 10SM CLR 17/02 A2947 RMK AO2", "KSXS 221555Z AUTO 11004KT 8SM CLR 20/03 A3021 RMK AO2 SLP231 T02020025 $", "KSXT 221605Z AUTO 00000KT 1/2SM -RA FG BKN004 OVC010 03/02 A2987 RMK AO2 P0000 T00280022", "KSXU 221555Z AUTO 26015G23KT 10SM CLR 21/05 A2988 RMK AO2 T02050053", "KSYF 221555Z AUTO 23005KT 7SM CLR 16/M07 A2958 RMK AO2 T01591075 PWINO", "KSYI 221555Z AUTO 18008KT 10SM CLR 20/10 A3015 RMK A01", "KSYM 221555Z AUTO 20010KT 10SM CLR 21/05 A3016 RMK AO2", "KSYN 221555Z AUTO 13003KT 10SM CLR 14/04 A2957 RMK AO2 T01410036", "KSYR 221554Z 18008KT 10SM CLR 19/02 A3016 RMK AO2 SLP211 T01940022 $", "KSZL 221555Z 19023G30KT 10SM FEW180 SCT250 25/09 A2964 RMK AO2A PK WND 19030/49 SLP033 T02490092", "KSZT 221555Z AUTO 00000KT 10SM OVC013 05/03 A2951 RMK AO2", "KSZY 221555Z AUTO 18008KT 160V220 10SM CLR 19/13 A3010 RMK A01", "KT20 221555Z AUTO 18017G20KT 10SM SCT026 SCT031 26/18 A2998 RMK AO2 T02630179", "KT35 221555Z AUTO 21017G26KT 10SM SCT022 24/17 A2996 RMK AO2 T02400173", "KT41 221555Z AUTO 10SM CLR 27/17 A3003 RMK AO2 T02720166", "KT69 221555Z AUTO 19016KT 10SM SCT038 SCT044 27/18 A2999 RMK A01", "KT70 221555Z AUTO 35008KT 10SM OVC010 20/17 A2995 RMK AO2 CIG 008V010 SLP134 T01950173 $", "KT74 221555Z AUTO 20013G19KT A2996 RMK AO2", "KT78 221555Z AUTO 19008G14KT 10SM SCT048 26/18 A3002 RMK AO2", "KT82 221555Z AUTO 19014G18KT 10SM BKN013 21/16 A2998 RMK AO2 T02070156", "KT89 221555Z AUTO 10004KT 10SM CLR 22/08 A2998 RMK A01", "KTAD 221554Z AUTO 14003KT 10SM CLR 17/M04 A2975 RMK AO2 SLP005 T01721039", "KTAN 221552Z AUTO A3028 RMK AO2 SLPNO PWINO FZRANO TSNO $", "KTAZ 221555Z AUTO 17010KT 10SM CLR 19/11 A2987 RMK AO2 T01930109", "KTBN 221555Z AUTO 18013G21KT 10SM CLR 23/09 A2982 RMK AO2 SLP093 T02270091", "KTBR 221555Z AUTO 05004KT 10SM CLR 20/01 A3022 RMK AO2 T01970011", "KTBX 221555Z AUTO 10SM CLR 08/M07 A2957 RMK AO2", "KTCC 221553Z AUTO 26026G34KT 10SM CLR 21/03 A2978 RMK AO2 PK WND 26034/1552 SLP033 T02060033", "KTCL 221553Z 20004KT 10SM CLR 21/13 A3019 RMK AO2 SLP220 T02060128", "KTCM 221600Z AUTO 23006KT 10SM BKN006 BKN050 OVC080 08/08 A2974 RMK AO2 CIG 006V050 BKN006 V FEW SLP076 $", "KTCS 221553Z AUTO 00000KT 10SM CLR 15/09 A2999 RMK AO2 SLP097 T01500089", "KTCY 221555Z AUTO 24016G22KT 10SM CLR 19/12 A2975 RMK A01", "KTDF 221555Z AUTO 00000KT 10SM CLR 17/02 A3027 RMK AO2", "KTDR 221555Z AUTO 05009KT 10SM CLR 24/05 A3016 RMK AO2 SLP217 T02350049 $", "KTDZ 221553Z AUTO 19013KT 10SM CLR 19/07 A3003 RMK AO2 SLP165 T01940072", "KTEB 221551Z 00000KT 10SM CLR 16/06 A3027 RMK AO2 SLP250 T01610056", "KTEW 221555Z AUTO 16008KT 120V200 10SM CLR 20/07 A2994 RMK AO2 T02030073", "KTEX 221555Z AUTO 14012G16KT 100V160 10SM CLR 09/M06 A3000 RMK AO2", "KTFP 221535Z AUTO 20015G20KT 10SM CLR 28/18 A2999 RMK AO2 T02810182", "KTHA 221555Z AUTO 19007G13KT 170V230 10SM CLR 20/11 A3016 RMK A01", "KTHV 221553Z AUTO 00000KT 10SM CLR 17/06 A3025 RMK AO2 SLP247 T01670061", "KTIF 221555Z AUTO 25010KT 10SM CLR 23/M03 A2951 RMK AO2 T02331033", "KTIK 221555Z AUTO 21020G27KT 10SM CLR 23/09 A2965 RMK AO2 PK WND 19028/1457 SLP035 T02320088", "KTIP 221555Z AUTO 18014G19KT 10SM CLR 20/11 A2990 RMK AO2 T01960105", "KTIW 221553Z 24003KT 10SM SCT006 BKN009 OVC080 08/07 A2974 RMK AO2 SLP071 T00830072", "KTIX 221547Z 01014KT 7SM SCT030 28/17 A3010", "KTKC 221555Z AUTO 14006KT 10SM 13/01 A2949 RMK AO2 T01250011", "KTKI 221553Z 19020G29KT 10SM CLR 23/16 A2985 RMK AO2 PK WND 18031/1542 SLP105 T02280156", "KTKV 221555Z AUTO 14003KT 10SM CLR 16/05 A2968 RMK AO2 T01620046 PWINO", "KTKX 221555Z AUTO 20017G24KT 6SM HZ CLR 22/15 A2999 RMK AO2 TSNO", "KTLH 221553Z COR 02009KT 10SM CLR 22/01 A3020 RMK AO2 SLP224 T02220011", "KTMB 221553Z 36011KT 10SM FEW075 28/20 A3003 RMK AO2 RAB31E40 SLP168 P0000 T02780200", "KTME 221555Z AUTO 20016KT 10SM FEW043 27/16 A3002 RMK AO2", "KTMK 221555Z AUTO 13003KT 10SM BKN040 OVC049 08/07 A2983 RMK AO2", "KTMT 221555Z AUTO 27022G26KT 4SM HZ SCT003 SCT009 OVC090 14/M07 A2964 RMK AO2 T01421067", "KTNB 221550Z AUTO 00000KT 10SM CLR 16/M01 A3026 RMK AO2 T01641008", "KTNU 221555Z AUTO 18014KT 10SM CLR 23/07 A2962 RMK A01", "KTOB 221555Z AUTO 17012KT 10SM CLR 17/04 A2959 RMK AO2", "KTOC 221555Z AUTO 00000KT 10SM CLR 18/02 A3025 RMK AO2 T01790017", "KTOI 221553Z AUTO 07005KT 10SM CLR 23/05 A3023 RMK AO2 SLP232 T02280050", "KTOL 221552Z 20010G16KT 10SM CLR 21/08 A3000 RMK AO2 SLP158 T02060078", "KTOP 221553Z 17020G30KT 10SM CLR 24/09 A2958 RMK AO2 PK WND 18032/1518 SLP007 T02440089 $", "KTPA 221553Z 04007KT 10SM CLR 24/12 A3012 RMK AO2 SLP199 T02390117", "KTPH 221556Z AUTO 07004KT 10SM FEW110 11/M02 A2969 RMK AO2 SLP010 T01111017", "KTPL 221551Z AUTO 18019G23KT 10SM CLR 25/17 A2993 RMK AO2 PK WND 17026/1535 SLP126 T02500172", "KTQE 221554Z AUTO 17015KT 10SM CLR 19/05 A2952 RMK AO2 SLP992 T01940050", "KTQH 221555Z AUTO 17020G26KT 10SM CLR 23/10 A2977 RMK AO2", "KTQK 221555Z AUTO 29006KT 10SM CLR 18/M05 A2958 RMK AO2 T01841054", "KTQV 221555Z AUTO 05005KT 10SM CLR 17/03 A3025 RMK A01", "KTRI 221553Z 00000KT 10SM FEW250 16/03 A3025 RMK AO2 SLP232 T01560028 $", "KTRK 221555Z 2610G16KT 230V290 10SM BKN022 OVC026 08/04 A2977", "KTRL 221553Z AUTO 18016G28KT 10SM CLR 23/16 A2990 RMK AO2 PK WND 18029/1538 SLP118 T02330156", "KTRM 221552Z AUTO 34006KT 9SM CLR 23/13 A2972 RMK AO2 SLP064 T02330133", "KTSP 221555Z AUTO 28012G18KT 8SM CLR 15/M01 A2986 RMK AO2", "KTTA 221555Z AUTO 36006KT 10SM CLR 19/05 A3023 RMK AO2 T01870047", "KTTD 221553Z 21004KT 10SM BKN042 OVC049 10/08 A2977 RMK AO2 RAE50 SLP081 P0005 T01000078", "KTTF 221555Z AUTO 20011G20KT 10SM CLR 20/07 A3000 RMK AO2 T02000066", "KTTN 221553Z 00000KT 10SM CLR 16/07 A3027 RMK AO2 SLP245 T01610067", "KTTS 221555Z AUTO 03008KT 10SM SCT036 25/15 A3007 RMK AO2 SLP187 T02540154 $", "KTUL 221553Z 18017G31KT 10SM FEW120 FEW220 24/13 A2969 RMK AO2 PK WND 19034/1541 SLP046 T02390128", "KTUP 221553Z 17009KT 10SM CLR 22/13 A3012 RMK AO2 SLP198 T02170133 $", "KTUS 221553Z 13007KT 10SM CLR 24/13 A2992 RMK AO2 SLP087 T02440133", "KTVC 221553Z 21009G18KT 10SM FEW220 20/07 A2979 RMK AO2 SLP087 T02000072", "KTVF 221556Z AUTO 08011KT 10SM CLR 11/03 A2958 RMK AO2 SLP023 T01060033", "KTVI 221555Z AUTO 06006KT 10SM CLR 20/01 A3022 RMK AO2", "KTVL 221600Z AUTO 21014G31KT 8SM -RA BKN013 OVC018 07/04 A2975 RMK AO2 PK WND 20031/1556 P0000 T00720044", "KTVR 221553Z AUTO 18011G18KT 160V230 10SM CLR 26/14 A3010 RMK AO2 SLP197 T02560144", "KTVY 221555Z AUTO 22012KT 10SM SCT070 OVC090 15/03 A2960 RMK AO2", "KTWF 221553Z 22015G23KT 10SM -RA FEW035 BKN055 OVC070 05/03 A2956 RMK AO2 SLP983 P0002 T00500033 $", "KTWM 221555Z AUTO 07008KT 10SM 13/03 A2965 RMK AO2", "KTWT 221555Z AUTO 17014G20KT 10SM CLR 21/12 A3001 RMK AO2", "KTXK 221606Z 19019G27KT 10SM FEW002 24/16 A2995 RMK AO2 PK WND 22034/1555 T02440156", "KTXW 221550Z AUTO 18013G20KT 10SM SCT033 BKN043 27/18 A2998 RMK AO2 T02730183", "KTYL 221555Z AUTO 21013G19KT 10SM FEW028 SCT033 15/09 A3001 RMK AO2", "KTYQ 221555Z AUTO 17014G18KT 10SM CLR 19/10 A2999 RMK AO2 T01900095", "KTYR 221553Z 19016G29KT 10SM BKN028 23/16 A2995 RMK AO2 PK WND 19029/1545 SLP134 T02330161 $", "KTYS 221553Z 00000KT 10SM CLR 16/04 A3023 RMK AO2 SLP233 T01610039", "KTZR 221545Z 21009G14KT 10SM CLR 19/07 A3010", "KU42 221555Z AUTO 15007KT 10SM SCT065 OVC075 14/04 A2961 RMK AO1 T01440037", "KU55 221555Z AUTO 17017G25KT 10SM 11/01 A2983 RMK A01", "KU68 221555Z AUTO 00000KT 10SM OVC100 08/04 A2937 RMK AO2", "KUAO 221553Z 23005KT 10SM BKN048 BKN080 09/07 A2980 RMK AO2 SLP091 T00890072", "KUBE 221515Z AUTO 14009KT 10SM CLR 13/08 A2963 RMK AO2", "KUCP 221556Z AUTO 00000KT 10SM CLR 17/04 A3016 RMK AO2 SLP228 T01720039", "KUCY 221555Z AUTO 20012G17KT 10SM CLR 21/14 A3002 RMK A01", "KUDG 221556Z AUTO 04008KT 10SM CLR 20/07 A3023 RMK AO2 SLP238 T02000067", "KUES 221545Z 17010G20KT 10SM CLR 18/08 A2978", "KUGN 221555Z 20014KT 10SM CLR 19/09 A2980 RMK AO2 SLP083 T01940089", "KUIL 221610Z AUTO 00000KT 2SM BR FEW001 BKN006 07/07 A2975 RMK AO2 VIS 1/2V5 T00720072", "KUIN 221554Z AUTO 19014G22KT 10SM CLR 23/09 A2975 RMK AO2 SLP068 T02280089", "KUKF 221555Z AUTO 00000KT 10SM CLR 17/02 A3030 RMK AO2", "KUKI 221556Z AUTO 32009G19KT 10SM CLR 15/06 A2984 RMK AO2 SLP100 T01500056", "KUKL 221555Z AUTO 19023G30KT 10SM CLR A2962 RMK AO2", "KUKT 221555Z AUTO VRB04KT 10SM CLR 17/06 A3027 RMK A01", "KULM 221555Z AUTO 13008KT 10SM CLR 12/02 A2952 RMK AO2", "KULS 221555Z AUTO 30015G21KT 10SM CLR 22/M04 A2959 RMK AO2", "KUMP 221555Z AUTO 20008KT 10SM CLR 20/11 A3000 RMK AO2 T02040107", "KUNI 221555Z AUTO 19006KT 5SM HZ CLR 19/04 A3015 RMK AO2 T01920043", "KUNO 221553Z AUTO 17011G17KT 10SM CLR 19/12 A2990 RMK AO2 SLP119 T01940117", "KUNV 221553Z 17005KT 10SM CLR 14/02 A3024", "KUOX 221555Z AUTO 18010KT 160V220 10SM CLR 21/14 A3011 RMK AO2 PWINO", "KUSE 221555Z AUTO 19011KT 10SM CLR 20/08 A2999 RMK AO2", "KUTA 221555Z AUTO 20017G23KT 10SM CLR 23/16 A3005 RMK AO2 T02330157 $", "KUTS 221553Z AUTO 17012G25KT 10SM CLR 26/17 A2999 RMK AO2 PK WND 18026/1540 SLP151 T02610167", "KUUU 221553Z AUTO 18008KT 10SM CLR 17/08 A3029 RMK AO2 SLP258 T01670078", "KUVA 221555Z AUTO 00000KT 4SM BR OVC002 18/18 A3000 RMK AO2 T01780178", "KUXL 221555Z AUTO 17015KT 10SM CLR 27/16 A3008 RMK AO2 T02710161", "KUYF 221555Z AUTO 20013KT 10SM CLR 20/03 A3009 RMK AO2", "KUZA 221554Z AUTO 01004KT 10SM CLR 18/03 A3025 RMK AO2 SLP241 T01830033", "KVAD 221555Z AUTO 05009KT 10SM CLR 21/03 A3019 RMK AO2 SLP225 T02100032 $", "KVAF 221555Z AUTO 18011G18KT 10SM CLR 28/14 A3006 RMK A01", "KVAY 221554Z AUTO 28003KT 10SM CLR 17/06 A3028 RMK AO2 SLP253 T01720056 $", "KVBG 221555Z AUTO 00000KT 10SM OVC014 14/12 A2989 RMK AO2 SLP124 T01410116 TSNO $", "KVBT 221556Z AUTO 17012G19KT 10SM CLR 21/12 A2981 RMK AO2 SLP088 T02110122", "KVCB 221553Z AUTO 21003KT 10SM CLR 19/12 A2975 RMK AO2 SLP073 T01890122", "KVCT 221551Z 17015G24KT 10SM SCT040 28/17 A2999 RMK AO2 PK WND 18026/1538 SLP153 T02780172", "KVCV 221550Z AUTO 20014KT 9SM CLR 18/07 A2983 RMK AO2", "KVDF 221555Z AUTO 05004KT 10SM CLR 25/15 A3013 RMK AO2", "KVDI 221555Z AUTO 07009KT 10SM CLR 22/03 A3022 RMK AO2", "KVEL 221553Z AUTO 00000KT 10SM CLR 12/M05 A2966 RMK AO2 SLP007 T01221050", "KVES 221555Z AUTO 19008G15KT 10SM CLR 18/05 A3004 RMK AO2", "KVGC 221555Z AUTO 19005KT 10SM CLR 17/00 A3020 RMK AO2", "KVGT 221553Z 22010G16KT 10SM CLR 25/01 A2964 RMK AO2 SLP030 T02500006", "KVHN 221555Z AUTO 21008KT 10SM CLR 23/09 A3004 RMK AO2 T02270088", "KVIH 221553Z AUTO 19016KT 10SM CLR 24/09 A2983 RMK AO2 SLP090 T02390094 $", "KVIS 221556Z AUTO 32010KT 10SM CLR 18/11 A2978 RMK AO2 SLP092 T01780106", "KVJI 221555Z AUTO 22004KT 10SM CLR 19/00 A3025 RMK AO2 T01861003", "KVKS 221555Z AUTO 18014G20KT 10SM CLR 25/15 A3009 RMK A01", "KVLD 221553Z AUTO 06006KT 10SM CLR 22/03 A3020 RMK AO2 SLP236 T02170033 $", "KVLL 221555Z AUTO 18006KT 10SM CLR 18/05 A3001 RMK AO2 T01800049", "KVNY 221551Z 17006KT 10SM SCT015 SCT026 BKN036 19/14 A2985 RMK AO2 SLP099 T01890139 $", "KVOA 221600Z AUTO 10009KT 10SM FEW042 24/12 A3018 RMK A01", "KVOK 221555Z 18004KT 10SM FEW250 18/06 A2965 RMK AO2A SLP046", "KVPC 221555Z AUTO 00000KT 10SM CLR 19/03 A3024 RMK AO2", "KVPS 221555Z AUTO 10007KT 10SM CLR 21/05 A3018 RMK AO2 SLP227 T02110054 $", "KVPZ 221556Z AUTO 20014G22KT 10SM CLR 21/09 A2990 RMK AO2 SLP122 T02060089 $", "KVQQ 221550Z 05009KT 10SM CLR 23/10 A3017", "KVRB 221553Z 36014KT 10SM SCT032 27/18 A3008 RMK AO2 SLP183 T02720183", "KVSF 221554Z AUTO VRB03KT 10SM CLR 13/04 A3026 RMK AO2 SLP250 T01280039", "KVTA 221554Z AUTO A3012 RMK AO2 SLPNO PWINO FZRANO $", "KVTI 221555Z AUTO 18009KT 10SM CLR 22/05 A2966 RMK AO2 T02170050", "KVTN 221552Z AUTO 30006KT 10SM CLR 14/02 A2950 RMK AO2 SLP984 T01440017", "KVTP 221555Z AUTO 25020G31KT 10SM CLR 03/M05 A2991 RMK AO2", "KVUJ 221555Z AUTO 05006KT 10SM CLR 19/00 A3028 RMK AO2 T01931001", "KVUO 221553Z AUTO 27005KT 10SM OVC035 11/07 A2978 RMK AO2 RAE10 SLP085 P0000 T01060072", "KVVS 221555Z AUTO 24007KT 10SM CLR 19/02 A3021 RMK AO2 T01860018", "KVVV 221555Z 14010KT 10SM 13/03 A2945 RMK AO2", "KVWU 221555Z AUTO 07005KT 10SM CLR 10/05 A2962 RMK AO2", "KVYS 221555Z AUTO 18017G22KT 10SM CLR 21/09 A2979 RMK AO2 T02100094", "KW22 221555Z AUTO 19006KT 10SM CLR 20/01 A3021 RMK AO2", "KW78 221555Z AUTO 00000KT 10SM CLR 18/02 A3026 RMK AO1 T01770016", "KW81 221555Z AUTO 00000KT 10SM CLR 18/01 A3025 RMK AO1 T01780009", "KW99 221600Z AUTO 00000KT 10SM CLR 16/04 A3023 RMK AO2", "KWAL 221554Z AUTO 08009KT 10SM CLR 18/08 A3027 RMK AO2 SLP247 T01830083", "KWBF 221555Z AUTO 12009KT 10SM 24/13 A3013 RMK A01", "KWDG 221555Z 19017G23KT 10 SM SCT130 24/09 A2959", "KWDR 221555Z AUTO 00000KT 10SM CLR 18/00 A3026 RMK AO2", "KWHP 221553Z 13006KT 7SM FEW015 SCT027 OVC035 17/13 A2989 HZ", "KWJF 221556Z 23017G24KT 10SM CLR 17/11 A2981 RMK AO2 SLP084 T01670106", "KWLD 221554Z AUTO 18018G26KT 10SM CLR 24/09 A2960 RMK AO2 PK WND 18027/1531 SLP013 T02390089", "KWMC 221556Z AUTO A2968 RMK AO2 SLPNO PWINO FZRANO $", "KWRB 221555Z 04004KT 10SM CLR 20/04 A3022 RMK AO2A SLP236 T01950040", "KWRI 221555Z AUTO 18003KT 7SM CLR 19/03 A3027 RMK AO2 SLP250 T01920025", "KWRL 221553Z AUTO 11003KT 10SM BKN110 08/02 A2937 RMK AO2 SLP923 T00830022", "KWST 221553Z AUTO 24005KT 10SM CLR 17/08 A3029 RMK AO2 SLP258 T01720083", "KWVI 221611Z AUTO 00000KT 3SM BR OVC003 13/13 A2984 RMK AO2 T01280128", "KWVL 221556Z AUTO 19007KT 10SM CLR 13/04 A3023 RMK AO2 SLP263 T01330039", "KWWD 221556Z AUTO 11008KT 10SM CLR 18/10 A3029 RMK AO2 SLP259 T01780100 $", "KWWR 221550Z AUTO 25013G20KT 10SM CLR 22/00 A2962 RMK AO2", "KX07 221555Z AUTO 05008KT 10SM CLR 25/17 A3011 RMK A01", "KX26 221555Z AUTO 01012G18KT 10SM CLR 26/17 A3008 RMK AO2 LTG DSNT NE T02570171", "KX60 221555Z AUTO 03009KT 10SM CLR 22/11 A3016 RMK AO2 T02190108", "KXBP 221555Z AUTO 21013G18KT 10SM CLR 25/12 A2982 RMK AO2 T02470117", "KXER 221555Z AUTO 12009KT 10SM 24/15 A3004 RMK A01", "KXIF 221555Z AUTO 04003KT 10SM CLR 16/04 A3023 RMK AO2 SLP243 T01560043 $", "KXLL 221555Z AUTO 00000KT 10SM CLR 16/06 A3028 RMK AO2", "KXMR 221555Z AUTO 03009KT 10SM CLR 27/18 A3006 RMK AO2 LTG DSNT E SLP182 T02680175 $", "KXNA 221553Z COR 19016G27KT 10SM CLR 21/12 A2980 RMK AO2 PK WND 18030/1543 RAB01E23B40 SLP079 P0000 T02110122", "KXNO 221555Z AUTO 01005KT 10SM CLR 20/03 A3023 RMK AO2 SLP240 T01980031 $", "KXNX 221555Z AUTO 18008G14KT 10SM CLR 21/09 A3015 RMK A01", "KXSA 221555Z AUTO 00000KT 10SM CLR 18/08 A3026 RMK AO2 T01830082", "KXVG 221553Z AUTO 11005KT 10SM CLR 12/03 A2957 RMK AO2", "KXWA 221556Z AUTO 06007KT 10SM OVC031 05/03 A2956 RMK AO2 T00500033", "KY19 221555Z AUTO 03012G18KT 10SM CLR 08/06 A2951 RMK AO2", "KY23 221555Z AUTO 15008KT 10SM CLR 15/07 A2963 RMK AO2 T01540069", "KY31 221555Z AUTO 19010KT 10SM CLR 18/05 A2988 RMK AO2 T01830054", "KY49 221555Z AUTO 02004KT 10SM CLR 09/03 A2959 RMK AO2 T00910026", "KY50 221556Z AUTO 21007KT 10SM CLR 18/07 A2970 RMK AO2 SLP058 T01780067 $", "KY63 221555Z AUTO 13012G18KT 10SM CLR 15/03 A2948 RMK AO2 T01530027", "KY70 221555Z AUTO 18009KT 10SM CLR 19/06 A2990 RMK AO2 T01870061", "KYIP 221553Z 19011KT 10SM CLR 21/07 A2999 RMK AO2 SLP152 T02060067", "KYKM 221553Z AUTO 27007KT 10SM BKN085 07/02 A2964 RMK AO2 SLP041 T00670022", "KYKN 221556Z AUTO 00000KT 10SM CLR 16/02 A2947 RMK AO2 SLP990 T01560017", "KYNG 221551Z 18008KT 10SM FEW250 18/04 A3014 RMK AO2 SLP205 T01780044", "KZER 221555Z AUTO 21005KT 10SM CLR 15/01 A3026 RMK AO2", "KZPH 221555Z AUTO 02008KT 10SM CLR 23/14 A3013 RMK A02 T02350141", "KZZV 221553Z AUTO 18007KT 10SM CLR 18/05 A3014 RMK AO2 SLP207 T01780050", "LATI 221550Z VRB02KT CAVOK 21/12 Q1023 NOSIG", "LBBG 221600Z AUTO 17005KT 9999 NSC 16/11 Q1020 NOSIG", "LBGO 221600Z AUTO VRB01KT 9999 BKN130/// OVC160/// 18/09 Q1018 NOSIG", "LBPD 221600Z AUTO 00000KT 9999 NCD 16/04 Q1021 NOSIG", "LBSF 221600Z 18003KT 160V250 CAVOK 17/07 Q1021 NOSIG", "LBWN 221600Z AUTO 12007KT 9999 NSC 15/09 Q1019 NOSIG", "LCEN 221550Z 06004KT CAVOK 20/10 Q1018 NOSIG RMK RWY11 05005KT", "LCLK 221600Z 36010KT 9999 FEW040 24/13 Q1018 NOSIG", "LCPH 221600Z 34003KT 9999 FEW020 22/13 Q1018", "LDDU 221600Z 11007KT CAVOK 18/13 Q1023 NOSIG", "LDOS 221600Z 32005KT CAVOK 18/10 Q1017", "LDPL 221600Z 14005KT 090V180 9000 -RA SCT010 BKN040 19/17 Q1019 RETSRA TEMPO 31010KT TSRA SCT010 FEW015CB BKN040", "LDRI 221600Z 16010KT 120V190 9999 -RA FEW016 BKN040 19/17 Q1019", "LDSB 221600Z 14009KT 9999 FEW020 16/13 Q1023", "LDSP 221600Z 12006KT CAVOK 21/15 Q1021 NOSIG", "LDZA 221600Z 29009KT 240V020 8000 -RA SCT035 15/14 Q1019 RERA BECMG 04008KT", "LDZD 221600Z 16012KT 9999 SCT050 20/16 Q1021 NOSIG", "LEAB 221600Z 17008KT 140V230 CAVOK 24/12 Q1016 NOSIG", "LEAG 221600Z AUTO 16007KT 120V190 CAVOK 22/17 Q1015", "LEAL 221600Z 10004KT 9999 FEW009 23/21 Q1015 NOSIG", "LEAM 221600Z VRB01KT CAVOK 27/13 Q1014", "LEAO 221600Z 21012KT 150V260 9999 FEW040 25/08 Q1014", "LEAS 221600Z 16005KT 9000 FEW078 22/13 Q1003 NOSIG", "LEBA 221600Z 24007KT 210V280 CAVOK 25/17 Q1013", "LEBB 221600Z 13011G21KT 080V170 9999 FEW050 27/11 Q1007 NOSIG", "LEBG 221600Z 17020KT 9999 FEW055 18/09 Q1011", "LEBL 221600Z 18007KT CAVOK 23/15 Q1015 NOSIG", "LEBR 221600Z AUTO 10017KT 9999 FEW070 23/13 Q1013", "LEBT 221600Z AUTO 10004KT 050V150 CAVOK 23/17 Q1015", "LEBZ 221600Z 24008KT 210V270 9999 FEW035 BKN047 19/17 Q1011", "LECH 221600Z AUTO 17005KT 140V200 CAVOK 21/16 Q1016", "LECO 221600Z 18010G20KT 120V210 9999 SCT027 SCT037 16/12 Q1003 NOSIG", "LECV 221600Z 15006KT 9999 SCT025 BKN050 17/14 Q1014", "LEDA 221600Z 05007KT CAVOK 23/12 Q1015", "LEGE 221600Z 18011KT CAVOK 24/12 Q1014", "LEGR 221600Z 20017KT 170V240 CAVOK 28/03 Q1016", "LEGT 221600Z 18011KT 150V210 CAVOK 23/13 Q1012", "LEHC 221600Z 09008KT 060V120 CAVOK 22/12 Q1015", "LEIB 221600Z 23005KT CAVOK 23/21 Q1015 NOSIG", "LEJR 221600Z 21013KT CAVOK 24/15 Q1014", "LELC 221600Z 13006KT 070V150 CAVOK 25/22 Q1015 NOSIG", "LELL 221600Z 18007KT CAVOK 25/10 Q1015", "LELN 221600Z 18014G25KT 150V230 3000 RA BKN008 BKN030 13/12 Q1009", "LELO 221600Z AUTO 15015KT 120V180 CAVOK 25/08 Q1011", "LEMD 221600Z 18014KT 150V220 9999 FEW060 24/12 Q1012 NOSIG", "LEMG 221600Z 15007KT CAVOK 23/16 Q1015 NOSIG", "LEMH 221600Z 15005KT CAVOK 23/20 Q1016", "LEMI 221600Z 13004KT CAVOK 24/19 Q1016", "LEMO 221600Z 25011KT 220V280 CAVOK 23/16 Q1014 NOSIG", "LEPA 221600Z 22005KT 8000 FEW020 26/20 Q1016 NOSIG", "LEPP 221600Z 13012KT 050V190 9999 FEW050 22/11 Q1012", "LERI 221600Z 06004KT 350V120 CAVOK 26/20 Q1015 NOSIG", "LERS 221600Z VRB01KT 9999 FEW050 23/15 Q1015", "LERT 221600Z 18008KT 150V220 9999 FEW030 22/18 Q1014 NOSIG", "LESA 221600Z 19008KT 120V250 9999 FEW036 14/13 Q1010", "LESB 221600Z AUTO 21006KT CAVOK 25/20 Q1016", "LESO 221600Z 17013KT 140V210 CAVOK 26/12 Q1008", "LEST 221600Z 20012G22KT 160V260 9999 BKN014 BKN022 13/11 Q1004 TEMPO 3000 SHRA SCT025TCU", "LESU 221600Z 33003KT 290V020 9999 FEW057 20/10 Q1018", "LETL 221600Z AUTO 18014KT CAVOK 21/09 Q1017", "LETO 221600Z 18014KT 9999 FEW050 23/13 Q1012 NOSIG", "LETU 221600Z AUTO 13014KT 9999 NSC 23/12 Q1013", "LEVC 221600Z 12007KT CAVOK 23/18 Q1015 NOSIG", "LEVD 221600Z 21017KT 5000 RA SCT027 BKN041 14/12 Q1011", "LEVS 221600Z 18010KT 150V210 9999 SCT056 22/12 Q1013", "LEVT 221600Z 16016KT 130V190 9999 FEW050 BKN075 23/07 Q1010", "LEVX 221600Z 19011KT 130V230 9999 SCT012 BKN021 14/13 Q1005 TEMPO 3000 RA BR BKN010", "LEXJ 221600Z VRB07KT 9999 FEW070 BKN080 26/12 Q1005", "LEZG 221600Z 11011KT 070V140 9999 FEW075 24/14 Q1013", "LEZL 221600Z 22013KT 170V250 CAVOK 25/14 Q1013 NOSIG", "LFAC 221600Z AUTO 23002KT 9999 FEW038 17/13 Q1012", "LFAQ 221600Z AUTO 18004KT CAVOK 18/13 Q1013 NOSIG", "LFAT 221600Z AUTO 00000KT 9999 BKN032 17/14 Q1012 NOSIG", "LFBA 221600Z AUTO 10008KT CAVOK 25/13 Q1011 NOSIG", "LFBC 221600Z AUTO 16009KT CAVOK 24/12 Q1009", "LFBD 221600Z AUTO 13007KT 9999 FEW005 25/13 Q1010 TEMPO 16015G25KT", "LFBE 221600Z AUTO 09005KT CAVOK 23/14 Q1011 NOSIG", "LFBF 221600Z AUTO 13009KT 090V170 CAVOK 24/14 Q1012", "LFBG 221600Z AUTO 12005KT CAVOK 21/14 Q1010", "LFBH 221600Z AUTO 14010KT CAVOK 21/14 Q1009 NOSIG", "LFBI 221600Z AUTO 14004KT 100V180 CAVOK 21/13 Q1012 NOSIG", "LFBL 221600Z AUTO 14006KT CAVOK 19/11 Q1013 NOSIG", "LFBM 221600Z AUTO 10004KT 9999 // NSC 25/12 Q1010", "LFBO 221600Z AUTO 13013KT CAVOK 25/14 Q1012 NOSIG", "LFBP 221600Z AUTO VRB01KT CAVOK 23/14 Q1011 NOSIG", "LFBT 221600Z AUTO 24007KT 210V270 CAVOK 21/11 Q1012 NOSIG", "LFBU 221600Z AUTO 11006KT 070V150 CAVOK 21/14 Q1011 NOSIG", "LFBX 221600Z AUTO VRB02KT CAVOK 22/13 Q1012", "LFBY 221600Z AUTO 16005KT 9999 // ////// 23/12 Q1010", "LFBZ 221600Z AUTO 14008KT 090V200 CAVOK 24/12 Q1009 NOSIG", "LFCK 221600Z AUTO 11014KT CAVOK 23/16 Q1013 TEMPO 12016G26KT", "LFCR 221600Z AUTO 13012KT CAVOK 20/13 Q1015 NOSIG", "LFGA 221600Z AUTO 17004KT CAVOK 21/12 Q1016", "LFGJ 221600Z AUTO 14003KT CAVOK 20/15 Q1015 NOSIG", "LFHP 221600Z AUTO 15008KT 120V180 CAVOK 18/11 Q1017", "LFJL 221600Z AUTO 15009KT CAVOK 18/14 Q1016 NOSIG", "LFJR 221600Z AUTO 13008KT CAVOK 20/15 Q1010", "LFKB 221600Z AUTO 33006KT CAVOK 22/19 Q1019 NOSIG", "LFKC 221600Z AUTO 27007KT 200V360 CAVOK 26/16 Q1018 NOSIG", "LFKF 221600Z AUTO 27006KT CAVOK 26/12 Q1019 NOSIG", "LFKJ 221600Z AUTO 00000KT CAVOK 25/13 Q1019 NOSIG", "LFKS 221600Z AUTO 03009KT CAVOK 23/18 Q1018", "LFLB 221600Z AUTO VRB01KT CAVOK 17/13 Q1016 NOSIG", "LFLC 221600Z AUTO 14003KT CAVOK 22/10 Q1014 NOSIG", "LFLH 221600Z AUTO 15003KT 110V190 CAVOK 20/15 Q1015", "LFLL 221600Z 16004KT CAVOK 22/15 Q1015 NOSIG", "LFLN 221600Z AUTO 05004KT CAVOK 21/15 Q1014 NOSIG", "LFLP 221600Z AUTO 29003KT CAVOK 19/13 Q1018 NOSIG", "LFLS 221600Z AUTO 08003KT CAVOK 21/15 Q1016 NOSIG", "LFLU 221600Z AUTO 18003KT CAVOK 22/17 Q1015", "LFLV 221600Z AUTO VRB01KT CAVOK 23/12 Q1014", "LFLW 221600Z AUTO 14004KT 110V180 CAVOK 19/10 Q1015 NOSIG", "LFLX 221600Z AUTO 14003KT CAVOK 20/14 Q1013 NOSIG", "LFLY 221600Z AUTO 14006KT CAVOK 22/15 Q1015 NOSIG", "LFMC 221600Z AUTO 13006KT 9999 ////// 24/19 Q1017", "LFMD 221600Z AUTO 18004KT CAVOK 23/19 Q1017 NOSIG", "LFMH 221600Z AUTO 16009KT CAVOK 21/11 Q1015", "LFMI 221600Z AUTO 15013KT CAVOK 24/16 Q1015 BECMG BKN008", "LFMK 221600Z AUTO 09013KT CAVOK 23/15 Q1013 TEMPO 10015G25KT", "LFML 221600Z AUTO 15008KT 120V180 CAVOK 24/17 Q1016 NOSIG", "LFMN 221600Z 23008KT 9999 FEW010 22/20 Q1017 NOSIG", "LFMO 221600Z AUTO 17005KT 140V210 CAVOK 24/15 Q1015 NOSIG", "LFMP 221600Z AUTO 05009KT 020V080 CAVOK 22/18 Q1013 NOSIG", "LFMT 221600Z AUTO 13011KT CAVOK 21/20 Q1015 TEMPO 4000 BR BKN008", "LFMU 221600Z AUTO 07010KT CAVOK 22/17 Q1014 TEMPO BKN012", "LFMV 221600Z AUTO 16009KT CAVOK 24/15 Q1015 NOSIG", "LFMY 221600Z AUTO 17006KT 140V210 9999 ////// 24/14 Q1016", "LFOA 221600Z AUTO 11005KT CAVOK 19/14 Q1013", "LFOB 221600Z AUTO 17004KT CAVOK 19/14 Q1013 NOSIG", "LFOE 221600Z AUTO 18008KT CAVOK 20/13 Q1012 NOSIG", "LFOH 221600Z AUTO 15004KT 120V180 CAVOK 19/13 Q1011 NOSIG", "LFOJ 221600Z AUTO 14006KT CAVOK 19/14 Q1012 NOSIG", "LFOK 221600Z AUTO 15007KT 9999 FEW010 19/15 Q1015 NOSIG", "LFOP 221600Z AUTO 16003KT CAVOK 18/13 Q1012 NOSIG", "LFOT 221600Z AUTO 12004KT CAVOK 19/14 Q1012 NOSIG", "LFOV 221600Z AUTO 12007KT CAVOK 19/14 Q1010", "LFOZ 221600Z AUTO 14004KT CAVOK 19/15 Q1013", "LFPB 221600Z AUTO 15008KT CAVOK 20/12 Q1013 NOSIG", "LFPG 221600Z 16008KT CAVOK 21/12 Q1013 NOSIG", "LFPM 221600Z AUTO 14007KT CAVOK 19/15 Q1013", "LFPN 221600Z AUTO 15005KT CAVOK 19/13 Q1013 NOSIG", "LFPO 221600Z 16005KT CAVOK 20/13 Q1013 NOSIG", "LFPT 221600Z AUTO 18006KT CAVOK 20/12 Q1012", "LFPV 221600Z AUTO 14005KT CAVOK 19/13 Q1013 NOSIG", "LFQA 221600Z AUTO 11005KT 080V140 CAVOK 19/14 Q1014", "LFQB 221600Z AUTO 16004KT CAVOK 19/14 Q1014", "LFQG 221600Z AUTO VRB03KT CAVOK 19/14 Q1014", "LFQQ 221600Z AUTO 17004KT 9999 FEW032 18/13 Q1013 NOSIG", "LFRB 221600Z AUTO 13013KT CAVOK 18/13 Q1006 TEMPO 17015G25KT", "LFRC 221600Z AUTO 16005KT CAVOK 17/14 Q1010 NOSIG", "LFRD 221600Z AUTO 12005KT 080V150 CAVOK 18/15 Q1009 NOSIG", "LFRG 221600Z AUTO 17005KT CAVOK 17/14 Q1012 NOSIG", "LFRH 221600Z AUTO 13014KT CAVOK 17/15 Q1007 TEMPO 14015G25KT BKN008 BKN012", "LFRI 221600Z AUTO 15006KT CAVOK 20/13 Q1009 NOSIG", "LFRJ 221600Z AUTO 14016KT CAVOK 18/13 Q1006", "LFRK 221600Z AUTO 14006KT CAVOK 18/14 Q1011 NOSIG", "LFRL 221600Z AUTO 13015KT CAVOK 17/13 Q1006", "LFRM 221600Z AUTO 13005KT CAVOK 20/14 Q1011 NOSIG", "LFRN 221600Z AUTO 13007KT CAVOK 20/14 Q1009 NOSIG", "LFRO 221600Z AUTO 12009KT CAVOK 17/15 Q1007", "LFRQ 221600Z AUTO 13012KT 100V160 9999 BKN016 OVC190 17/15 Q1007 TEMPO 14015G25KT BKN006", "LFRS 221600Z AUTO 14008KT CAVOK 20/14 Q1009 NOSIG", "LFRT 221600Z AUTO 12003KT CAVOK 17/14 Q1008", "LFRU 221600Z AUTO 13008KT 100V170 CAVOK 18/14 Q1007", "LFRV 221600Z AUTO 15008KT CAVOK 18/13 Q1008", "LFRZ 221600Z AUTO 15009KT CAVOK 19/14 Q1008 NOSIG", "LFSB 221600Z AUTO 10005KT 070V130 CAVOK 20/13 Q1017 NOSIG", "LFSD 221600Z AUTO 16005KT 9999 ////// 20/14 Q1015", "LFSG 221600Z AUTO 16005KT CAVOK 18/14 Q1016", "LFSI 221600Z AUTO 15002KT CAVOK 20/14 Q1015", "LFSL 221600Z AUTO 12005KT CAVOK 21/11 Q1013 NOSIG", "LFSM 221600Z AUTO VRB02KT CAVOK 19/14 Q1017", "LFSN 221600Z AUTO 17005KT CAVOK 19/14 Q1016", "LFSO 221600Z AUTO 15006KT CAVOK 18/14 Q1016", "LFST 221600Z AUTO 15003KT CAVOK 19/14 Q1017 NOSIG", "LFSX 221600Z AUTO 11005KT CAVOK 19/14 Q1016", "LFTH 221600Z AUTO 14005KT 9000 FEW005 BKN028 22/20 Q1017 BECMG BKN010", "LFTW 221600Z AUTO 16009KT CAVOK 22/18 Q1015 NOSIG", "LFVP 221600Z AUTO 23012KT 9999 BKN008 OVC012 15/11 Q1027 BECMG FEW010", "LFYR 221600Z AUTO 12004KT CAVOK 19/16 Q1012", "LGAD 221550Z 00000KT CAVOK 19/14 Q1023", "LGAL 221550Z 25006KT CAVOK 16/09 Q1022", "LGAV 221550Z 02005KT CAVOK 17/10 Q1023 NOSIG", "LGBL 221550Z 00000KT CAVOK 18/13 Q1022", "LGEL 221550Z 00000KT CAVOK 21/10 Q1022", "LGHI 221550Z 01007KT CAVOK 18/06 Q1021", "LGIO 221550Z 28003KT CAVOK 18/10 Q1024", "LGIR 221550Z 32008KT 9999 FEW025 18/11 Q1023 NOSIG", "LGKF 221550Z 31005KT CAVOK 21/16 Q1023", "LGKL 221550Z 00000KT CAVOK 20/11 Q1022", "LGKO 221550Z 35006KT CAVOK 19/10 Q1020", "LGKP 221550Z 32017KT CAVOK 19/09 Q1020", "LGKR 221550Z 25004KT 9999 FEW020 21/14 Q1023 NOSIG", "LGKV 221550Z 00000KT CAVOK 18/11 Q1022", "LGKZ 221550Z AUTO VRB02KT //// // ////// 15/09 Q1023 RE//", "LGLM 221550Z 00000KT CAVOK 16/10 Q1022", "LGMK 221550Z 01018KT CAVOK 17/09 Q1022", "LGMT 221550Z VRB02KT CAVOK 16/09 Q1022", "LGPA 221550Z AUTO 02009KT //// -RA ////// 17/09 Q1022 RE//", "LGPZ 221550Z 27006KT CAVOK 19/15 Q1023 BLU", "LGRP 221550Z 22006KT CAVOK 21/12 Q1019 NOSIG", "LGRX 221550Z 00000KT CAVOK 19/15 Q1023", "LGSA 221550Z 00000KT 9999 FEW025 17/11 Q1022", "LGSM 221550Z 35004KT CAVOK 19/11 Q1020", "LGSO 221550Z AUTO 01015KT //// -RA ////// 17/12 Q1022 RE//", "LGSR 221550Z 36007KT CAVOK 18/10 Q1022 BLU", "LGTS 221550Z VRB02KT CAVOK 18/12 Q1022 NOSIG", "LGZA 221550Z 00000KT CAVOK 21/16 Q1023", "LHBP 221600Z 33006KT 9999 -RA NSC 14/09 Q1017 NOSIG", "LHDC 221557Z AUTO VRB01KT 9999 OVC047 16/10 Q1016", "LHKE 221545Z 29010KT 260V330 CAVOK 18/11 Q1016 NOSIG RMK BLU", "LHPA 221545Z 23004KT 6000 -RA FEW015 OVC067 11/10 Q1019 NOSIG RMK WHT", "LHPP 221545Z AUTO 01011KT 350V050 CAVOK 17/13 Q1018", "LHPR 221545Z AUTO 25004KT 6000 -RA NSC 11/09 Q1018 NOSIG", "LHSM 221545Z AUTO 33004KT 300V360 6000 RA BKN044 13/11 Q1019 NOSIG", "LHSN 221545Z 34006KT 320V020 9999 SCT040 BKN050 17/10 Q1016 NOSIG RMK BLU", "LIBA 221555Z 24008KT CAVOK 24/15 Q1020 RMK SCT SCT210 VIS MIN 9999 WIND THR11 23010KT WIND THR29 /////KT BLU", "LIBC 221550Z 21014KT CAVOK 21/15 Q1021", "LIBD 221550Z 16005KT CAVOK 24/15 Q1020", "LIBF 221550Z 24013KT CAVOK 23/15 Q1020", "LIBG 221550Z 16005KT 9999 FEW030 21/18 Q1022", "LIBN 221555Z 17005KT CAVOK 19/17 Q1022 RMK FEW FEW180 VIS MIN 9999 WIND THR14 17007KT WIND THR32 18006KT BLU", "LIBP 221550Z AUTO 03005KT 9999 NCD 20/18 Q1020", "LIBQ 221555Z VRB03KT CAVOK 19/M09 Q1029 RMK SCT SCT130 MON LIB VAL NIL VIS MIN 9999", "LIBR 221550Z 20010KT CAVOK 22/16 Q1021", "LIBV 221555Z 16009KT CAVOK 20/13 Q1021 RMK SCT SCT200 VIS MIN 9999 WIND THR32 18008KT WIND THR14 17009KT BLU", "LIBY 221555Z 00000KT 9999 FEW020 20/18 Q1023 RMK SCT SCT200 QUK 1 QUL 0 VIS MAR 12 KM VIS MIN 9999", "LICA 221550Z AUTO 24009KT 9999 NCD 21/17 Q1023", "LICB 221550Z AUTO 25006KT 9999 NCD 21/16 Q1024", "LICC 221550Z 25009KT CAVOK 26/14 Q1022", "LICD 221550Z AUTO 18007KT 9999 NCD 24/17 Q1023", "LICF 221555Z 06002KT CAVOK 22/15 Q1023 RMK FEW FEW200 QUK 1 QUL 0 VIS MAR 20 KM MON LIB NC VIS MIN 9999", "LICG 221550Z 19010KT CAVOK 22/18 Q1023", "LICJ 221550Z 06008KT CAVOK 23/15 Q1023", "LICR 221550Z AUTO VRB07KT 9999 NCD 22/17 Q1023", "LICT 221555Z 15008KT 9999 FEW030 23/19 Q1023 RMK FEW VIS MIN 9999 WIND THR13 16009KT BLU", "LICZ 221555Z /////KT CAVOK 24/08 Q1022 RMK SKC VIS MIN 9999 WIND THR28 24008KT WIND THR10 24008KT A3020 BLU", "LIEA 221550Z 19005KT CAVOK 25/20 Q1019", "LIEB 221555Z 20018KT CAVOK 22/19 Q1019 RMK BKN BKN200 QUK 4 QUL 3 SE VIS MAR 20 KM MON LIB VIS MIN 9999", "LIED 221555Z 13008KT CAVOK 24/20 Q1019 RMK BKN SCT100 SCT200 VIS MIN 9999 WIND THR35 /////KT WIND THR17 13009KT BLU", "LIEE 221550Z 14013KT CAVOK 23/21 Q1020", "LIEO 221550Z 05007KT CAVOK 25/21 Q1018", "LIMA 221550Z VRB02KT 9999 FEW040 20/15 Q1018", "LIMC 221550Z 17002KT CAVOK 21/16 Q1018 NOSIG", "LIME 221550Z 10003KT CAVOK 21/16 Q1018 NOSIG", "LIMF 221550Z 03003KT 9999 SCT030 20/15 Q1018", "LIMG 221550Z 17004KT 150V230 CAVOK 24/15 Q1017", "LIMJ 221550Z 13011KT 6000 SCT008 SCT015 22/21 Q1018", "LIMK 221555Z 02003KT 9999 BKN040 16/16 Q1018 RMK BKN VAL FOSCHIA VIS MIN 9999", "LIML 221550Z VRB01KT 9999 FEW030 20/16 Q1017 NOSIG", "LIMP 221550Z 09003KT 060V120 8000 SCT040 21/17 Q1017", "LIMS 221555Z 00000KT 4000 BR BKN080 20/20 Q1017 RMK BKN VIS MIN 4000 WIND THR30 12001KT GRN", "LIMU 221555Z ///16KT 9999 FEW015 19/15 Q1016 RMK SCT SCT200 QUK 3 QUL 1 S VIS MAR 10 KM VIS MIN 9999", "LIMV 221555Z /////KT 9999 SCT005 SCT007TCU 18/17 Q1019 RMK BKN MON INC VAL NIL VIS MIN 9999", "LIMW 221550Z AUTO 07004KT 020V150 9999 NCD 19/09 Q1018", "LIMZ 221550Z AUTO 02005KT 9999 BKN110/// 20/16 Q1018", "LIPA 221555Z 32001KT 9999 FEW080 18/17 Q1017 RMK FEW VIS MIN 9999 WIND THR05 /////KT WIND THR23 /////KT A3005 BLU", "LIPB 221550Z VRB02KT CAVOK 15/13 Q1019", "LIPC 221555Z 21003KT CAVOK 23/17 Q1017 RMK SCT SCT130 SCT200 VIS MIN 9999 WIND THR11 18003KT WIND THR29 20006KT BLU", "LIPE 221550Z 28004KT CAVOK 23/16 Q1018", "LIPF 221555Z 00000KT 9999 SCT070 20/16 Q1017 RMK SCT VIS MIN 9999", "LIPH 221550Z 24003KT 210V270 CAVOK 18/17 Q1017", "LIPI 221555Z VRB02KT 9999 FEW010 18/16 Q1017 RMK SCT VIS MIN 9999 WIND THR06 32003KT WIND THR24 VRB02KT BLU", "LIPK 221550Z 23008KT CAVOK 24/15 Q1017", "LIPL 221555Z 09002KT CAVOK 21/16 Q1017 RMK FEW FEW120 VIS MIN 9999 WIND THR31 08003KT WIND THR13 10003KT BLU", "LIPO 221550Z AUTO 03005KT 9999 NCD 20/14 Q1018", "LIPQ 221550Z AUTO 24003KT 160V280 9999 BKN150/// 19/17 Q1018", "LIPR 221550Z 21013KT CAVOK 24/16 Q1017", "LIPS 221555Z /////KT CAVOK 20/16 Q1017 RMK SKC VIS MIN 9999 WIND THR26 20002KT WIND THR08 23003KT BLU", "LIPX 221550Z 25004KT 190V300 9999 FEW060 21/14 Q1017", "LIPY 221550Z AUTO 21010KT 9999 BKN240/// 24/14 Q1019", "LIPZ 221550Z 27004KT CAVOK 18/16 Q1017 NOSIG", "LIQC 221555Z 00000KT CAVOK 20/17 Q1024 RMK BKN BKN200 QUK 1 QUL 1 S VIS MAR 15 KM VIS MIN 9999", "LIQN 221550Z 14006KT 120V230 CAVOK 21/14 Q1023", "LIQO 221555Z AUTO /////KT //// ///// Q////", "LIRA 221550Z 18010KT 150V210 9999 FEW030 22/17 Q1023", "LIRE 221555Z 15015KT 9999 FEW015 SCT030 23/21 Q1022 RMK BKN VIS MIN 9999 WIND THR13 16014KT WIND THR31 /////KT BLU", "LIRF 221550Z 15013KT 9999 FEW015 22/20 Q1022 NOSIG", "LIRK 221555Z AUTO 28007KT //// 11/07 Q1030", "LIRM 221555Z 19005KT 9999 FEW025 21/16 Q1023 RMK BKN BKN200 VIS MIN 9999 WIND THR06 22005KT BLU", "LIRN 221550Z 23004KT 190V270 9999 FEW040 21/18 Q1024 NOSIG", "LIRP 221545Z 19008KT 9999 FEW025 23/18 Q1018 NOSIG", "LIRQ 221550Z 22007KT 9999 SCT065 24/17 Q1019", "LIRS 221555Z 15012KT 9999 SCT017 22/21 Q1020 RMK BKN SCT200 VIS MIN 9999 WIND THR03 16011KT WIND THR21 16010KT BLU", "LIRT 221555Z 27016KT 0000 FG VV/// 14/13 Q1025 RMK SCT MON INVIS VAL INVIS VIS MIN 0000", "LIRU 221550Z 17010KT 150V210 9999 FEW040 23/18 Q1022", "LIRV 221555Z 20012KT 9999 FEW020 20/17 Q1022 RMK SCT SCT200 MON E SE CLD CIME ABB SLW VIS MIN 9999 WIND THR04 ///// KT BLU", "LIRX 221555Z 18018KT 0000 FG VV/// 19/17 Q1019 RMK VIS MIN 0000 VIS MAR 30 M", "LIRZ 221550Z AUTO 19008KT 9999 SCT044/// 22/15 Q1022", "LIVC 221555Z AUTO 24017G28KT 200V280 //// 08/08 Q1026", "LIVD 221555Z AUTO VRB02KT //// 08/08 Q1023", "LIVE 221555Z 05002KT CAVOK 09/05 Q1021 RMK SKC VIS MIN 9999", "LIVF 221555Z 18010G25KT 9999 SCT026 19/12 Q1019 RMK OVC SCT090 BKN230 MON S W CIME INC NC VAL NIL VIS MIN 9999", "LIVM 221555Z AUTO /////KT //// ///// Q////", "LIVP 221555Z 23005KT CAVOK 07/05 Q1022 RMK SKC MON LIB VAL CLD SCT VIS MIN 9999", "LIVR 221555Z 33005KT CAVOK 07/04 Q1021 RMK SKC MON LIB VIS MIN 9999", "LIVT 221555Z AUTO 09004KT 050V150 //// 19/17 Q1017", "LJCE 221600Z 22004KT 200V280 4000 RA BR FEW013 OVC050 15/14 Q1020 RMK GRN", "LJLJ 221600Z 19005KT 140V220 9999 -RA FEW005 BKN070 13/12 Q1020 RERA NOSIG", "LJMB 221600Z 18004KT 5000 +RA BR FEW010 SCT030 OVC068 15/14 Q1019", "LJPZ 221600Z 16006KT 100V190 9999 FEW030 SCT120 BKN200 20/18 Q1018", "LKCV 221600Z 00000KT 3000 BR OVC004 12/11 Q1017 NOSIG RMK YLO YLO", "LKKB 221600Z 00000KT CAVOK 12/11 Q1017 NOSIG", "LKKU 221600Z 25003KT 8000 OVC012 10/09 Q1018", "LKKV 221600Z 24004KT 200V280 9999 FEW018 12/09 Q1018", "LKLN 221600Z AUTO VRB02KT CAVOK 15/11 Q1018", "LKMT 221600Z 22012KT 9999 BKN026 10/08 Q1016 NOSIG", "LKNA 221600Z 29005KT 9999 SCT048 12/10 Q1017 NOSIG RMK BLU BLU", "LKPD 221600Z VRB02KT 3000 BR OVC002 12/11 Q1017 NOSIG RMK AMB AMB", "LKPR 221600Z 22007KT 160V240 9999 FEW022 14/12 Q1017 NOSIG", "LKTB 221600Z VRB01KT 9000 FEW007 SCT035 09/08 Q1017 NOSIG", "LLBG 221550Z 34006KT 9999 FEW030 24/17 Q1017 NOSIG", "LLER 221550Z 01013KT CAVOK 27/13 Q1014", "LLHA 221550Z 36008KT 9999 FEW035 25/17 Q1016", "LLIB 221550Z AUTO 32004KT CAVOK 23/14 Q1017", "LMML 221545Z 24005KT 220V280 9999 FEW035 23/15 Q1024 NOSIG", "LOAN 221600Z VRB02KT 9999 FEW035", "LOAV 221600Z VRB02KT 9999 FEW030 SCT050 12/11", "LOWG 221550Z 19003KT 3000 -RA BR FEW004 SCT060 BKN080 14/13 Q1018 RERA BECMG 5000 NSW", "LOWI 221550Z VRB02KT 9999 FEW040 14/11 Q1020 NOSIG", "LOWK 221550Z AUTO VRB01KT 9999 FEW003 BKN080 13/13 Q1021 NOSIG", "LOWL 221550Z AUTO 29004KT 9999 FEW026 SCT036 14/12 Q1019 NOSIG", "LOWS 221550Z AUTO 15006KT 9999 FEW050 14/12 Q1019 NOSIG", "LOWW 221550Z 30008KT CAVOK 15/11 Q1017 NOSIG", "LOXZ 221550Z VRB02KT 9999 FEW002 SCT010 BKN060 12/12 Q1020", "LPAZ 221600Z 32021KT 9999 SCT030 21/12 Q1017", "LPBJ 221600Z 24017KT 9999 FEW025 21/14 Q1012", "LPFL 221600Z 33014G24KT 300V360 9999 FEW020 20/14 Q1021", "LPFR 221600Z 24011KT 9999 FEW015 SCT040 22/19 Q1013", "LPHR 221600Z 31015KT 280V350 9999 FEW025 SCT035 20/12 Q1019", "LPLA 221600Z /////KT 9999 -SHRA SCT020 BKN025 19/18 Q1017", "LPMA 221600Z 05006KT 360V100 9999 SCT016 23/16 Q1015", "LPMR 221500Z 20006KT 5000 -RADZ BR SCT008 BKN030 16/15 Q1008", "LPMT 221500Z 21011KT 180V240 9999 SCT025 BKN045 20/16 Q1009", "LPPD 221600Z 32016KT 9999 FEW025 20/12 Q1016", "LPPR 221600Z 18013KT 9999 FEW015 16/15 Q1006", "LPPS 221600Z 28011KT 9999 FEW015 FEW018TCU 22/17 Q1016", "LPPT 221600Z 24011KT 210V270 9999 FEW014 BKN021 18/15 Q1010", "LQBK 221600Z VRB02KT 9999 SCT047 17/15 Q1017 NOSIG", "LQMO 221600Z 18004KT CAVOK 23/08 Q1021", "LQSA 221600Z 15004KT 110V190 CAVOK 15/07 Q1021 NOSIG", "LQTZ 221600Z VRB02KT CAVOK 18/15 Q1017", "LRAR 221600Z AUTO 18007KT 9999 BKN056/// 18/10 Q1016", "LRBC 221600Z 17007KT CAVOK 14/05 Q1015", "LRBM 221600Z AUTO 02003KT 330V060 9999 -SHRA BKN049/// 14/11 Q1017", "LRBO 221600Z 21012KT 9999 BKN120 15/05 Q1017 BLU BLU", "LRBS 221600Z 20004KT 170V230 CAVOK 16/06 Q1018 NOSIG", "LRCK 221600Z 18012KT CAVOK 15/07 Q1019 NOSIG", "LRCL 221600Z VRB02KT CAVOK 14/08 Q1017", "LRCT 221600Z 22003KT 9999 BKN090 15/08 Q1017 BLU BLU", "LRCV 221600Z 09002KT CAVOK 15/06 Q1018", "LRFT 221600Z 19006KT 9999 BKN150 16/04 Q1019 BLU BLU", "LRIA 221600Z 10007KT CAVOK 14/06 Q1016", "LROD 221600Z 18007KT CAVOK 17/08 Q1016", "LROP 221600Z 17004KT CAVOK 15/07 Q1018 NOSIG", "LRSB 221600Z 20003KT 160V250 9999 SCT079 17/07 Q1018", "LRSM 221600Z 00000KT 9999 BKN045 15/10 Q1016", "LRSV 221600Z 16004KT CAVOK 15/07 Q1015", "LRTC 221600Z 17007KT CAVOK 13/03 Q1018", "LRTM 221600Z 09003KT 9000 FEW040 15/11 Q1017", "LRTR 221600Z 00000KT CAVOK 18/10 Q1017", "LRTZ 221600Z 18008KT 9999 BKN100 15/08 Q1018 BLU BLU", "LSGC 221550Z VRB01KT CAVOK 15/10 Q1019", "LSGG 221550Z 07004KT 040V130 CAVOK 18/13 Q1017 NOSIG", "LSGS 221550Z VRB01KT 9999 FEW090 19/11 Q1018", "LSMA 221520Z AUTO 00000KT 9999NDV NCD 19/12 Q1019 RMK", "LSMD 221520Z AUTO 20004KT 130V250 9999NDV NCD 19/11 Q1019 RMK", "LSME 221520Z AUTO VRB01KT 9999NDV NCD 19/14 Q1018 RMK", "LSMM 221550Z AUTO 10006KT 9999NDV NCD 13/11 Q1019 RMK", "LSMP 221550Z AUTO VRB02KT 9999NDV NCD 18/13 Q1018 RMK", "LSZA 221550Z VRB02KT 9999 FEW035 19/15 Q1018", "LSZB 221550Z 00000KT CAVOK 18/13 Q1018", "LSZC 221550Z AUTO 29003KT 9999 NCD 16/12 Q1019", "LSZG 221550Z 31001KT CAVOK 19/11 Q1018", "LSZH 221550Z 21004KT CAVOK 18/11 Q1018 NOSIG", "LSZL 221520Z AUTO 23003KT 200V260 9999NDV NCD 20/14 Q1017 RMK", "LSZR 221550Z 09002KT CAVOK 17/12 Q1018 RMK K", "LSZS 221550Z 27002KT CAVOK 07/05 Q1022 RMK U TL170", "LTAC 221550Z VRB01KT CAVOK 10/M03 Q1025 NOSIG RMK RWY21L 03002KT RWY03L VRB02KT RWY21R 02004KT", "LTAE 221550Z 31004KT 280V350 CAVOK 07/M03 Q1025 NOSIG RMK RWY21 31003KT", "LTAF 221550Z 25005KT CAVOK 21/12 Q1018 NOSIG RMK RWY23 27005KT SKC", "LTAG 221550Z 06004KT CAVOK 22/04 Q1017 NOSIG RMK SKC", "LTAI 221550Z 24004KT CAVOK 21/05 Q1019 NOSIG RMK RWY18C 22004KT 180V270 RWY36R VRB02KT RWY18L 24005KT", "LTAJ 221550Z 00000KT 9999 FEW040 17/06 Q1020 NOSIG RMK RWY10 02003KT 2CU040", "LTAN 221550Z 01004KT CAVOK 08/M01 Q1025 NOSIG", "LTAP 221550Z 32006KT CAVOK 08/03 Q1024 NOSIG RMK RWY23 33008KT", "LTAR 221550Z 35008KT CAVOK 05/01 Q1025", "LTAT 221550Z VRB01KT 9999 FEW040 09/03 Q1023 NOSIG RMK RWY03 24003KT", "LTAU 221550Z 00000KT CAVOK 06/01 Q1025 NOSIG RMK RWY07 27002KT", "LTAY 221550Z 00000KT CAVOK 14/M02 Q1023", "LTAZ 221550Z 30003KT 210V010 CAVOK 09/M02 Q1025 RMK RWY29 VRB02KT", "LTBA 221550Z 22004KT CAVOK 15/03 Q1023 RMK RWY23 24005KT", "LTBF 221550Z 36004KT CAVOK 16/04 Q1023 NOSIG", "LTBH 221550Z 09002KT CAVOK 15/08 Q1023", "LTBJ 221550Z 36014KT CAVOK 17/05 Q1021 NOSIG RMK RWY16 36013KT", "LTBL 221539Z VRB01KT CAVOK 16/05 Q1022 NOSIG RMK RWY17 02006KT", "LTBQ 221550Z VRB02KT CAVOK 08/08 Q1024 NOSIG", "LTBR 221550Z 04007KT CAVOK 13/02 Q1022 NOSIG RMK RWY07 01003KT 320V070", "LTBS 221550Z 24004KT CAVOK 21/13 Q1020 NOSIG RMK RWY19 21005KT SKC", "LTBT 221522Z 27002KT CAVOK 19/M01 Q1021 RMK RWY13 36004KT SKC", "LTBU 221550Z 17004KT CAVOK 13/07 Q1022 RMK RWY22 18003KT 140V220", "LTBY 221550Z 14002KT CAVOK 10/M04 Q1025", "LTCA 221550Z 23005KT 200V270 CAVOK 11/06 Q1022 NOSIG", "LTCB 221550Z 15006KT 9999 SCT035 14/09 Q1026", "LTCC 221550Z 10005KT 9999 FEW025CB SCT035 13/11 Q1022 TEMPO -TSRA", "LTCD 221550Z VRB01KT CAVOK 08/06 Q1023 NOSIG", "LTCE 221550Z 10008KT 070V130 9999 SCT040 06/01 Q1025 NOSIG RMK RWY08R 08010KT RWY26R 10010KT RWY08L 10006KT 060V180 3SC040", "LTCF 221550Z 27005KT 9999 SCT040 04/01 Q1027", "LTCG 221550Z 19007KT 9999 SCT035 14/09 Q1026 NOSIG RMK RWY29 18007KT", "LTCI 221550Z VRB02KT 8000 -SHRA FEW015CB SCT030 BKN070 08/06 Q1028 TEMPO 20012G22KT -TSRA", "LTCJ 221550Z 08004KT 360V140 9999 -TSRA FEW025CB SCT035 BKN090 14/11 Q1022 NOSIG RMK RWY20 VRB05KT 1CB025 4CU035 6AC090", "LTCN 221550Z VRB03KT 9999 FEW040 17/03 Q1020 NOSIG", "LTCR 221550Z 09008KT 9999 FEW015 BKN035 16/15 Q1022 RESHRA", "LTCS 221550Z 23004KT 9999 FEW040 14/11 Q1021 RMK RWY22 16008KT 2CU040", "LTCT 221550Z 00000KT 9999 SCT040 BKN070 10/05 Q1027", "LTCV 221550Z 28006KT 250V310 9999 -TSRA FEW015 FEW025CB BKN035 15/14 Q1022", "LTCW 221550Z VRB02KT 4000 -TSRA BR FEW010 FEW020CB BKN030 08/07 Q1027", "LTDA 221550Z 28006KT 9999 FEW040 20/11 Q1017 NOSIG", "LTFC 221550Z 33011KT CAVOK 13/M06 Q1022 RMK RWY23 32010KT", "LTFD 221550Z 02002KT CAVOK 13/09 Q1022", "LTFE 221550Z 20003KT 150V240 CAVOK 19/09 Q1020 NOSIG RMK RWY10 23005KT", "LTFG 221550Z 35004KT CAVOK 20/12 Q1019", "LTFH 221550Z 19002KT CAVOK 11/09 Q1026 NOSIG", "LTFJ 221550Z 24003KT 210V270 CAVOK 14/09 Q1023 NOSIG RMK RWY24 23004KT", "LTFM 221550Z 21005KT 180V260 CAVOK 16/02 Q1023 NOSIG RMK RWY17L 19005KT 160V220 RWY34L 23006KT RWY16R 21006KT RWY36 18004KT 140V210 RWY18 18004KT", "LTFO 221550Z 13004KT 9999 SCT035 14/09 Q1026", "LUKK 221600Z 17005KT CAVOK 13/06 Q1017 NOSIG", "LWOH 221600Z 14001KT 9999 FEW090 13/08 Q1024", "LWSK 221600Z 00000KT 9999 FEW100 15/10 Q1022 NOSIG", "LXGB 221550Z 11006KT CAVOK 23/17 Q1015 NOSIG RMK BLU BLU", "LYBE 221600Z VRB01KT CAVOK 19/12 Q1017 NOSIG", "LYNI 221600Z 23003KT 200V260 CAVOK 20/07 Q1019 NOSIG", "LYPG 221600Z 23001KT CAVOK 18/10 Q1023 NOSIG", "LYTV 221600Z 36001KT CAVOK 18/15 Q1023 NOSIG", "LZIB 221600Z 21005KT 9999 FEW014 11/10 Q1018 NOSIG", "LZKZ 221600Z 27001KT 9999 -RA NSC 11/08 Q1016 NOSIG", "LZPP 221600Z 00000KT 9999 SCT012 SCT022 10/09 Q1017", "LZTT 221600Z 14002KT 6000 -RA FEW010 BKN020 OVC083 09/08 Q1015 NOSIG", "LZZI 221600Z 26003KT 230V290 5000 -RA BR SCT013 BKN019 09/08 Q1017", "MDPC 221500Z 06010KT 9999 SCT022 30/23 Q1015", "MDPP 221500Z 10012KT 9999 SCT022 32/25 Q1014", "MDSD 221500Z 07006KT 9999 SCT020 30/24 Q1015", "MDST 221500Z 10005KT 050V140 9999 FEW022 28/22 Q1014", "MGGT 221600Z 03012KT 9999 FEW016 BKN018 19/15 Q1023 A3021 SCT200", "MGHT 221600Z 00000KT 9999 FEW015 BKN200 20/14", "MGPB 221600Z 00000KT 9999 SCT018 OVC080 26/23 Q1015 A2997", "MGQZ 221600Z 36004KT 9999 FEW020 19/11 QFE774/2", "MGSJ 221600Z 18004KT CAVOK 31/23 Q1013 A2991 FEW200", "MGZA 221600Z 08004KT 9999 SCT017 SCT200 28/20 QFE991/2", "MHCA 221600Z 00000KT 9999 SCT018 BKN070 25/23", "MHCH 221600Z 36010KT 9999 FEW030 SCT070 31/24", "MHGS 221500Z 36006KT 8000 SCT024 BKN042 19/16", "MHLC 221600Z 00000KT 9999 FEW025 BKN070 28/21 Q1016 A3000 NOSIG", "MHLE 221600Z 01006KT 8000 BKN016 17/15", "MHLM 221600Z VRB02KT 9999 SCT015 SCT022 BKN070 26/22 Q1016 A3000 NOSIG", "MHNO 221600Z 35006KT 9999 FEW040 23/18", "MHPL 221600Z 02010KT 9999 FEW025TCU BKN090 28/24 Q1013", "MHRO 221600Z 36010KT 9999 SCT024 SCT080 28/21 Q1016 A3000 NOSIG", "MHSR 221600Z 00000KT 3000 -DZ SCT006 OVC020 18/18", "MHTE 221600Z VRB03KT 8000 -RA BKN028TCU FEW036CB BKN080 26/24 Q1014", "MHTG 221600Z 05008KT 010V100 8000 -RA BKN032 24/19 Q1020 A3012 NOSIG", "MHTR 221600Z 00000KT 5000 RA FEW008 SCT020 OVC070 25/24", "MHYR 221600Z VRB02KT 9999 SCT022 BKN080 23/20", "MKJP 221600Z 14015KT 9999 FEW022CB 31/25 Q1013", "MKJS 221600Z 05007KT 9999 FEW022 29/25 Q1013", "MMAA 221540Z 01004KT 8SM SKC 28/23 A2993 RMK HZY DSNT TCU S", "MMAN 221540Z 30004KT 12SM SKC 22/14 A2999 RMK FU SW", "MMBT 221548Z 00000KT 10SM SKC 31/24 A2997", "MMCE 221546Z 11013KT 7SM SKC 26/20 A3003 RMK HZY", "MMCL 221550Z 00000KT 10SM FEW015 BKN250 27/22 A2986 RMK 8/608 HZY", "MMCM 221541Z 07005KT 7SM SKC 28/19 A3004", "MMCN 221549Z 00000KT 10SM SCT200 26/19 A2983 RMK 8/001 HZY FULYR 3-4QUAD", "MMCS 221544Z 22010KT 10SM SCT200 21/10 A3002 RMK 8/002", "MMCU 221540Z 00000KT 8SM SKC 21/08 A3010 RMK HZY CI N", "MMCV 221544Z 17011G24KT 10SM FEW020 24/17 A3000 RMK 8/500 ISOL CI", "MMCZ 221544Z 02006KT 8SM SCT015 27/17 A3004 RMK 8/500", "MMDO 221546Z 23003KT 9SM OVC200 15/06 A3028 RMK 8/007", "MMEP 221546Z 09004KT 8SM SCT025 BKN100 24/20 A3003 RMK 8/570", "MMGL 221541Z 11007KT 5SM SCT015 OVC080 22/14 A3020 RMK 8/57/ HZY", "MMGM 221546Z 00000KT 9SM FEW030 27/24 A2980 RMK 8/1//", "MMHO 221540Z 15005KT 10SM SCT200 28/18 A2988 RMK 8/008 HZY", "MMIA 221540Z 04011KT 6SM BKN140 25/21 A3002 RMK 8/050", "MMIO 221544Z 00000KT 10SM SKC 18/05 A3016", "MMLM 221541Z 06005KT 8SM SCT015 26/20 A2987 RMK 8/500 HZY", "MMLO 221540Z 00000KT 10SM BKN250 20/10 A3032 RMK 8/008 CU", "MMLP 221540Z 16009KT 10SM SCT200 23/17 A2989 RMK 8/008 HZY", "MMLT 221552Z 00000KT 10SM FEW240 29/20 A2981 RMK 8/001", "MMMA 221541Z 16009KT 10SM BKN028 27/20 A2999 RMK 8/100", "MMMD 221546Z 13009KT 7SM FEW020 27/18 A3007 RMK 8/100 SC", "MMML 221550Z 03004KT 10SM SKC 23/18 A2976", "MMMM 221554Z 25004KT 8SM FEW030 FEW300 22/13 A3027 RMK 8/502 HZY", "MMMT 221540Z 00000KT 8SM BKN025 25/22 A2999 RMK 8/100 HZY", "MMMV 221548Z 00000KT 10SM SKC 24/12 A2994", "MMMX 221545Z 10004KT 4SM SCT220 18/11 A3036 NOSIG RMK 8/008 HZY ISOL CU AC", "MMMY 221541Z 28003KT 12SM SKC 22/13 A2996", "MMMZ 221541Z 00000KT 14SM OVC240 27/25 A2987 RMK 8/007 DSNT CU SW", "MMNL 221540Z 18008KT 7SM SKC 24/19 A2996 RMK HZY ISOL CI", "MMOX 221545Z 03002KT 8SM BKN025 20/14 A3026 RMK 8/500 HZY", "MMPB 221543Z 36005KT 3SM BR HZ SCT015 19/11 A3035 RMK 6//// 8/100", "MMPG 221542Z 13007KT 6SM BL OVC005 18/17 A2996 RMK 8/5//", "MMPN 221540Z 00000KT 13SM OVC310 21/17 A3021 RMK 8/001 CU", "MMPR 221542Z 00000KT 13SM BKN120 OVC250 28/25 A2985 RMK 8/077 HZY ISOL CU LWR SC AL N", "MMPS 221545Z 00000KT 15SM SKC 30/21 A2994", "MMQT 221549Z 04002KT 6SM SCT250 19/10 A3033 RMK 8/001 HZY", "MMRX 221548Z 20010G20KT 8SM SKC 27/17 A2997 RMK HZY CU ISOL", "MMSD 221545Z 30005KT 10SM SCT250 27/18 A2990 RMK 8/008", "MMSP 221544Z 00000KT 10SM OVC210 16/08 A3027 RMK 8/007 HZY BINOVC", "MMTC 221540Z 12008KT 10SM SCT200 20/03 A3012 RMK 8/002", "MMTG 221549Z 27005KT 5SM SCT018 BKN040 BKN070 25/19 A3005 RMK 8/830 HZY", "MMTJ 221542Z 25003KT 8SM FEW020 BKN035 19/16 A2989 RMK 8/500 HZY", "MMTM 221542Z 20005KT 10SM SCT200 26/21 A3001 RMK 8/001 CU", "MMTO 221547Z 00000KT 1SM BR R15/P6000NFT VV005 12/11 A3042 RMK 8////", "MMTP 221542Z 21003KT 10SM FEW020 SCT200 30/25 A2991 RMK 8/101 HZY", "MMUN 221544Z 03009KT 7SM SCT015 27/14 A3005 RMK 8/500", "MMVA 221542Z 08006KT 8SM SCT015 SCT250 27/22 A3003 RMK 8/101", "MMVR 221548Z 14004KT 7SM BKN070 OVC220 26/20 A3003 RMK 8/077 HZY", "MMZC 221541Z E00000KT 10SM BKN080 BKN200 15/01 A3029 RMK 8/022", "MMZH 221545Z 00000KT 7SM SCT090 BKN250 29/24 A2994 RMK 8/032 HZY", "MMZO 221541Z 09007KT 12SM BKN040 BKN100 OVC210 26/24 A2996 RMK 8/537", "MNBL 221600Z 02004KT 9999 SCT017 30/27 Q1013", "MNCH 221600Z 35004KT 9999 FEW025 SCT090 29/24 Q1013", "MNJG 221600Z 36006KT 9999 SCT016 24/17 Q1014", "MNJU 221600Z 09004KT 9999 FEW020 31/23 Q1011", "MNMG 221600Z 06004KT 9999 SCT024 30/23 Q1012 A2989 NOSIG", "MNPC 221600Z 01004KT 8000 BKN016 30/24 Q1011 HZ", "MNRS 221600Z 36004KT 9999 BKN013TCU 30/25 Q1012 TCU/E/SW", "MPDA 221600Z 22007KT 9999 SCT017 28/24 Q1013", "MPTO 221600Z 13005KT 9999 SCT016 29/25 Q1012 NOSIG", "MRLB 221600Z VRB03KT 9999 FEW020 29/26 A2988", "MRLM 221600Z 02007KT 9999 FEW030 SCT250 30/24 A2991", "MROC 221600Z VRB05KT 9999 SCT040 27/17 A3007 BECMG 25006KT", "MRPV 221600Z 07012KT 9999 SCT040 26/17 A3007 NOSIG", "MSLP 221550Z 03008KT 340V060 CAVOK 31/21 Q1012 A2990 NOSIG", "MTPP 221600Z 04008KT 9000 SCT025CB BKN200 29/23 Q1013 A2993 RMK:CB/SE/SW", "MUCC 221550Z VRB03KT 9000 SCT020 28/23 Q1015", "MUCF 221550Z 05006KT 360V080 9999 SCT025 SCT120 28/22 Q1016", "MUCL 221550Z 02007KT 340V060 9999 FEW020 28/21 Q1016", "MUCM 221550Z 35006KT 320V040 9000 SCT028 29/22 Q1015", "MUCU 221550Z VRB03KT 9000 SCT020 SCT060 30/23 Q1014", "MUGM 221551Z 15006KT 10SM FEW025 BKN250 31/23 A2995 RMK AO2 SLP142 T03110228 $", "MUHA 221550Z 03012KT 360V060 9000 SCT030 27/18 Q1017", "MUHG 221550Z 10004KT 040V170 9000 SCT020 BKN280 29/23 Q1015", "MUSC 221550Z 01005KT 310V040 9000 BKN017 28/21 Q1016", "MUVR 221550Z 02011KT 340V050 9000 SCT020 27/20 Q1017", "MWCB 221600Z 36020KT 0100 +TSRA BKN016CB OVC060 27/23 Q1015", "MWCR 221600Z 04012KT 9999 VCSH FEW014CB SCT022 29/24 Q1014", "MYGF 221600Z 02011KT 9999 FEW022 27/19 A3002", "MYNN 221600Z 03011KT 350V050 9999 FEW025 SCT040 28/21 A3000", "MZBZ 221600Z 01009KT 9999 FEW025 SCT045 29/21 A3002 Q1016 NOSIG", "NCAI 221600Z AUTO NIL", "NCAT 221600Z AUTO 05003KT //// ////// ///// Q////", "NCMG 221600Z AUTO 05004KT //// ////// ///// Q////", "NCMH 221600Z AUTO 10004KT //// ////// ///// Q1010", "NCMK 221600Z AUTO NIL", "NCMR 221600Z AUTO 05003KT //// ////// ///// Q1013", "NCNS 221600Z AUTO 04004KT //// ////// 25/23 Q1009", "NCPK 221600Z AUTO NIL", "NCPL 221600Z AUTO 04003KT //// ////// 26/23 Q1012", "NCPY 221600Z AUTO 06010KT //// ////// 27/22 Q1010", "NCRG 221600Z AUTO 05005KT 9999 FEW011/// SCT019/// 25/23 Q1014", "NCRK 221600Z AUTO 03003KT //// ////// 27/22 Q1009", "NCSW 221600Z AUTO 07002KT //// ////// 27/24 Q1010", "NFFN 221600Z 15007KT 9999 FEW030 23/19 Q1011 NOSIG", "NFNA 221500Z 18003KT 140V220 9999 SCT020TCU OVC045 23/20 Q1012", "NFTF 221600Z 14016G27KT 9999 FEW008 SCT014TCU OVC110 22/20 Q1012", "NFTV 221600Z 00000KT 9999 -RA SCT008 SCT016TCU OVC035 24/24 Q1011", "NGFU 221600Z 07011KT 9999 FEW018TCU SCT020 BKN300 28/24 Q1008", "NGTA 221600Z 12008KT 9999 FEW020 SCT300 26/22 Q1007", "NIUE 221600Z AUTO 28001KT 22/21 Q1011", "NLWW 221600Z AUTO 08008KT 9999 FEW020/// SCT026/// 27/24 Q1009 TEMPO 2000 TSRA BKN014 SCT018CB", "NSFA 221600Z 09005KT 9999 FEW026 24/23 Q1010", "NVSS 221500Z 34004KT 9999 FEW018 SCT040 BKN290 25/24 Q1008", "NVVV 221500Z 09007KT 9999 FEW020 BKN120 24/21 Q1010", "NWWW 221600Z AUTO VRB02KT 9999 FEW049 BKN190 BKN240 21/16 Q1012 NOSIG", "NZAA 221600Z AUTO 07002KT 9999 NCD 09/09 Q1032 NOSIG", "NZCH 221600Z AUTO 06006KT 9999 NCD 08/08 Q1025 TEMPO 3000 BR", "NZCM 221555Z AUTO 07019G25KT 9999 CLR M22/M26 A2937 RMK AO2 PK WND 08028/1539 SLP953 T12151259 $", "NZWN 221600Z AUTO 03012KT 9999 BKN017/// 11/08 Q1030 NOSIG", "OBBI 221600Z 10007KT CAVOK 30/20 Q1016 NOSIG", "OEAB 221600Z 09006KT CAVOK 19/07 Q1026 NOSIG", "OEAH 221600Z 24004KT CAVOK 30/M02 Q1016 NOSIG", "OEAO 221600Z 25008KT CAVOK 32/02 Q1016 NOSIG", "OEBA 221600Z 08008KT CAVOK 25/02 Q1023 NOSIG", "OEBH 221600Z 07010KT CAVOK 26/M01 Q1019 NOSIG", "OEDF 221600Z 10007KT CAVOK 30/22 Q1015 NOSIG", "OEDM 221600Z 12009KT CAVOK 27/M05 Q1020", "OEDR 221600Z 08007KT CAVOK 30/22 Q1014", "OEGN 221600Z 21004KT 9999 FEW030 32/25 Q1012 NOSIG", "OEGS 221600Z 13004KT CAVOK 28/04 Q1017", "OEGT 221600Z 31004KT CAVOK 24/09 Q1017 NOSIG", "OEHL 221600Z 15004KT CAVOK 29/M03 Q1019", "OEJB 221600Z AUTO 08010KT CAVOK 29/19 Q1015 NOSIG", "OEJN 221600Z 32010KT CAVOK 30/23 Q1012 NOSIG", "OEKJ 221600Z 13004KT CAVOK 29/M04 Q1021", "OEKM 221600Z 05009KT CAVOK 22/M08 Q1026 NOSIG", "OEMA 221600Z 09008KT CAVOK 35/M07 Q1017 NOSIG", "OEMN 221600Z 27002KT CAVOK 32/20 Q1015", "OENG 221600Z 06004KT CAVOK 25/M02 Q1021 NOSIG", "OEPA 221600Z 16006KT CAVOK 31/05 Q1016 NOSIG", "OEPS 221557Z 14003KT 9999 CLR 29/M02 A3018 RMK A02A SLP187 WND DATA ESTMD T02901021 $", "OERF 221600Z 17003KT CAVOK 29/M06 Q1016 NOSIG", "OERK 221600Z 13003KT CAVOK 28/05 Q1020 NOSIG", "OERR 221600Z 02004KT 8000 NSC 27/04 Q1016 NOSIG", "OESH 221600Z 03005KT CAVOK 29/05 Q1017 NOSIG", "OESK 221600Z 06005KT CAVOK 29/01 Q1019 NOSIG", "OETB 221600Z 28007KT 9999 FEW040 29/08 Q1016 NOSIG", "OETF 221600Z 36006KT CAVOK 27/04 Q1023 NOSIG", "OETR 221600Z 26006KT CAVOK 24/18 Q1018 NOSIG", "OEWD 221600Z 08004KT CAVOK 27/07 Q1017 NOSIG", "OEWJ 221600Z 32015KT CAVOK 28/22 Q1013 NOSIG", "OEYN 221600Z 27012KT CAVOK 31/23 Q1010 NOSIG", "OIAA 221600Z 13006KT 7000 NSC 29/24 Q1015", "OIAG 221600Z 14006KT 8000 NSC 29/10 Q1016", "OIAH 221600Z 00000KT CAVOK 27/11 Q1022", "OIAI 221551Z 36002KT CAVOK 28/07 Q1017", "OIAM 221600Z 19004KT 7000 NSC 28/23 Q1014", "OIAW 221600Z 00000KT 7000 NSC 27/15 Q1015", "OIBA 221500Z 32006KT 7000 NSC 31/24 Q1014", "OIBB 221600Z 11004KT CAVOK 29/22 Q1015 A3000", "OIBH 221500Z 00000KT 5000 HZ NSC 29/25 Q1014 A2997", "OIBJ 221600Z AUTO VRB01KT //// // ////// 25/09 Q1021", "OIBK 221600Z 30004KT CAVOK 29/20 Q1016", "OIBL 221600Z 33004KT 6000 NSC 28/22 Q1015", "OIBP 221600Z 00000KT CAVOK 26/18 Q1015 A2999", "OIBQ 221500Z 00000KT 7000 NSC 30/25 Q1015", "OIBS 221600Z 24006KT 4000 HZ NSC 32/25 Q1016", "OIBV 221500Z 00000KT 5000 HZ NSC 30/20 Q1015", "OICC 221600Z 00000KT 8000 FEW045 BKN170 18/03 Q1024 A3026", "OICI 221600Z 14006KT 9000 NSC 22/03 Q1025 A3028", "OICJ 221600Z 00000KT CAVOK 19/M02 Q1027", "OICK 221600Z 24002KT CAVOK 20/M02 Q1023", "OICS 221600Z 00000KT 9999 SCT040 15/10 Q1025 A3028", "OIFK 221600Z 00000KT CAVOK 22/04 Q1024 A3024", "OIFM 221600Z 06014KT 9999 FEW040 18/M07 Q1026 A3031", "OIFS 221600Z 04006KT 9999 FEW040 13/M09 Q1029", "OIGG 221600Z 25008KT 3000 -RA BKN009 FEW012CB OVC060 14/14 Q1028", "OIGK 221550Z 00000KT 5000 RA SCT015 OVC060 07/06 Q1030", "OIHH 221600Z 11002KT 9999 FEW040 SCT190 15/03 Q1027 A3034", "OIHM 221600Z 36002KT CAVOK 14/04 Q1027", "OIIE 221600Z 31016KT 9999 FEW100 22/02 Q1023", "OIII 221600Z 29010KT 9999 FEW100 SCT190 23/M02 Q1023 A3024 NOSIG", "OIIK 221600Z 27004KT 9999 SCT040CB 14/09 Q1026", "OIIP 221600Z 29012KT 9999 FEW040 18/04 Q1024 A3024", "OIIS 221600Z 35002KT CAVOK 23/04 Q1023", "OIKB 221600Z 03004KT 6000 NSC 27/22 Q1014 A2996", "OIKK 221600Z 36004KT CAVOK 19/M05 Q1026 A3032", "OIKO 221600Z 00000KT 5000 HZ NSC 27/22 Q1016", "OIKQ 221600Z 00000KT 8000 NSC 27/21 Q1015", "OIMB 221600Z 09006KT CAVOK 19/M12 Q1025 A3028", "OIMC 221550Z 30006KT 5000 SA SCT035 18/11 Q1027", "OIMD 221600Z 00000KT CAVOK 22/M04 Q1019", "OIMJ 221600Z AUTO 04015KT //// // ////// 16/09 Q1025", "OIMM 221600Z 14012KT 9999 BKN020 14/11 Q1028 A3036", "OIMN 221600Z 36006KT 9999 FEW020 SCT070 BKN170 16/11 Q1027", "OIMQ 221600Z 04004KT CAVOK 21/M03 Q1023", "OIMS 221600Z 02004KT CAVOK 22/06 Q1023", "OIMT 221600Z AUTO 05002KT //// // ////// 25/M05 Q1019", "OINB 221600Z 23004KT 8000 RA BKN010 FEW025CB OVC070 18/17 Q1026", "OINE 221600Z 00000KT 9999 SCT030 OVC090 19/14 Q1026", "OING 221600Z 18004KT 6000 SCT010 SCT025 OVC070 16/15 Q1028", "OINK 221600Z 00000KT 5000 -RA SCT025 OVC080 19/14 Q1024", "OINN 221600Z 07002KT 3000 -DZ BKN016 FEW021CB OVC060 16/16 Q1026", "OINR 221600Z 00000KT 9999 SCT020 FEW025CB OVC080 17/15 Q1026", "OINZ 221600Z 21004KT 7000 BKN010 FEW023CB OVC070 17/17 Q1027", "OISA 221600Z 20004KT CAVOK 17/M10 Q1029 A3040", "OISF 221600Z 36004KT CAVOK 19/M04 Q1025 A3027", "OISL 221600Z 00000KT CAVOK 25/06 Q1019 A3010", "OISR 221500Z 25004KT CAVOK 28/11 Q1018 A3007 NOSIG", "OISS 221600Z 00000KT 8000 NSC 16/M01 Q1025 A3029", "OISY 221600Z 08006KT CAVOK 17/M05 Q1028", "OITL 221600Z 08012KT 9000 VCFG SCT007 BKN030 OVC070 07/06 Q1027 RERA", "OITM 221600Z 09006KT 9999 TS FEW015 SCT034CB 13/09 Q1024 RETSRA", "OITP 221600Z 13006KT 9999 BKN040 OVC080 13/11 Q1029", "OITR 221600Z 36004KT 6000 -RA FEW035CB SCT040 BKN090 10/10 Q1025", "OITT 221600Z VRB02KT 9999 FEW015 SCT030 FEW032CB OVC080 12/11 Q1026 A3031 TEMPO SHRA", "OITU 221550Z 00000KT 9999 FEW030CB BKN035 08/06 Q1026", "OITZ 221500Z 09006KT 9999 FEW025 SCT030CB SCT060 14/09 Q1024 A3025", "OIYY 221600Z 21004KT 9000 NSC 22/M05 Q1024", "OIZB 221600Z 00000KT CAVOK 21/M04 Q1019", "OIZH 221600Z 00000KT CAVOK 19/M06 Q1025 A3029 NOSIG", "OIZI 221600Z 30008KT CAVOK 30/02 Q1019", "OIZJ 221600Z 12002KT 7000 NSC 28/24 Q1016", "OJAI 221600Z 28007KT 6000 NSC 20/11 Q1019 NOSIG", "OJAM 221600Z 29004KT 5000 HZ FEW040 22/10 Q1019 NOSIG", "OJAQ 221600Z 36008KT 5000 HZ NSC 28/16 Q1013 NOSIG", "OKAS 221555Z 13010KT 9000 HZ CLR 29/21 A2997 RMK AO2A SLP145 $", "OKBK 221600Z 14004KT 8000 NSC 29/25 Q1015 NOSIG", "OLBA 221600Z 01008KT 8000 NSC 25/16 Q1018 NOSIG", "OMAA 221600Z 33007KT CAVOK 30/23 Q1015 NOSIG", "OMAD 221600Z 35005KT CAVOK 31/23 Q1016 NOSIG", "OMAL 221600Z 34012KT 8000 NSC 31/16 Q1017 NOSIG", "OMDB 221600Z 05007KT 020V100 8000 NSC 31/25 Q1016 NOSIG", "OMDW 221600Z 01005KT 8000 NSC 29/24 Q1017 NOSIG", "OMFJ 221600Z 24001KT 7000 NSC 29/23 Q1017 A3003", "OMRK 221600Z 10003KT CAVOK 28/20 Q1016 A3002", "OMSJ 221600Z 35004KT CAVOK 29/23 Q1016 NOSIG", "OOAD 221550Z AUTO 13012KT 9999 R31///// // NCD 31/02 Q1018 NOSIG", "OODQ 221550Z AUTO 09006KT 9999 SCT049 25/23 Q1016 NOSIG", "OOKB 221550Z AUTO VRB01KT 9999 FEW025 31/21 Q1016 NOSIG", "OOMS 221550Z 06004KT CAVOK 28/24 Q1016 NOSIG", "OOSA 221550Z VRB02KT CAVOK 28/23 Q1016 NOSIG", "OOSH 221550Z AUTO 09004KT //// ////// 29/24 Q1016", "OPFA 221555Z 00000KT 5000 FU NSC 22/14 Q1018 NOSIG", "OPIS 221600Z 23004KT 6000 NSC 16/12 Q1019 NOSIG", "OPKC 221600Z 00000KT 5000 HZ NSC 27/12 Q1016 NOSIG", "OPLA 221555Z 00000KT 5000 HZ NSC 25/12 Q1017 NOSIG RMK QFE991 A30.04", "OPMT 221600Z 00000KT 3500 FU NSC 25/18 Q1016 NOSIG", "OPPS 221600Z 23004KT 5000 HZ NSC 21/12 Q1019", "OPSK 221600Z 00000KT 4000 HZ NSC 25/19 Q1014 NOSIG", "OPST 221600Z 27004KT 4000 FU NSC 21/14 Q1017 NOSIG 65?", "ORBI 221600Z 35005KT 9999 FEW030 29/13 Q1015", "ORER 221500Z 02013KT 9000 FEW040 SCT090 21/11 Q1021", "ORMM 221600Z 11012KT 8000 NSC 30/20 Q1015 NOSIG", "ORNI 221600Z 00000KT 7000 NSC 28/12 Q1013", "ORSU 221600Z 33006KT 9999 SCT040 BKN080 19/19 Q1022", "OSAP 221500Z 12004KT 9999 SCT030 22/10 Q1019", "OSDI 221600Z 36004KT 9999 FEW030 SCT100 21/09 Q1018", "OSKL 221500Z 06006KT 6000TS SCT020CB BKN100 18/14 Q1021", "OSLK 221600Z 30004KT 9999 FEW030 25/15 Q1017", "OTBD 221600Z AUTO 07003KT CAVOK 31/23 Q1016 NOSIG", "OTBH 221555Z 05004KT 9999 CLR 31/21 A3002 RMK AO2A SLPNO T03060208 $", "OTHH 221600Z 07005KT CAVOK 32/22 Q1016 NOSIG", "PAAD 221555Z AUTO 10023KT 10SM SCT010 BKN043 OVC050 M05/M07 A2993 RMK AO2 T10551071", "PAAK 221556Z AUTO 00000KT 10SM BKN027 OVC035 A3000 RMK AO2 SLPNO FZRANO $", "PAAQ 221553Z 34007KT 10SM CLR M02/M06 A2989 RMK AO2 SLP128 T10221061", "PABA 221552Z AUTO 09023G30KT 10SM OVC012 M04/M06 A2998 RMK AO2 PK WND 08030/1544 SLP161 T10441061 FZRANO PNO $", "PABE 221611Z AUTO 21003KT 1/2SM -FZRA FZFG VV003 M02/M03 A2988 RMK AO2 FZRAB05 P0000 I1000 T10221028 TSNO RVRNO", "PABI 221552Z 23007KT 10SM SCT050 BKN090 BKN110 M03/M04 A2991 RMK AO2 SLP155 T10281044", "PABL 221556Z AUTO 12006KT 10SM CLR M02/M03 A2982 RMK AO2 SLP101 T10221028 FZRANO $", "PABR 221553Z 10020KT 10SM OVC012 M03/M05 A2991 RMK AO2 PK WND 10033/1512 SLP130 T10281050", "PABT 221600Z 33004KT 2SM -SN BR OVC021 M06/M07 A2990 RMK AO2 P0000 T10561067", "PABV 221556Z AUTO 00000KT 10SM CLR M04/M05 A2991 RMK AO2 SLP136 T10441050 FZRANO", "PACD 221553Z AUTO 36013KT 10SM -RA OVC039 03/03 A2973 RMK AO2 SLP067 P0001 T00330033 TSNO", "PACV 221553Z 00000KT 10SM FEW065 M02/M03 A2984 RMK AO2 SLP105 I1000 T10171028", "PACZ 221555Z AUTO 17003KT 10SM BKN018 01/M02 A2981 RMK AO2 SLP102 T00111016", "PADG 221510Z 13008KT 2 1/2SM -SN BR SCT008 BKN014 OVC019 M01/M01 A2974", "PADK 221556Z AUTO 23005KT OVC014 06/05 A3000 RMK AO2 SLP159 T00610050 PWINO $", "PADL 221556Z 02009KT 10SM CLR M01/M01 A2986 RMK AO2 SLP115 T10061006", "PADM 221556Z AUTO 02005KT 10SM BKN030 M03/M04 A2992 RMK AO2 SLP137 T10331039 FZRANO", "PADQ 221553Z 28005KT 10SM CLR 02/M01 A2987 RMK AO2 SLP115 T00221006", "PADU 221556Z 29008KT 10SM SCT022 OVC027 05/03 A2990 RMK AO2 RAE54 SLP129 P0000 T00500028", "PAED 221555Z 04005KT 10SM FEW002 M02/M02 A2987 RMK AO2A SLP113 T10181018 $", "PAEH 221555Z AUTO 10004KT 10SM BKN130 03/02 A2985 RMK AO2 SLP112 T00270020", "PAEI 221558Z COR 00000KT 1SM -SN BR BKN016 OVC025 M01/M01 A2990 RMK AO2A PLB32E28SNB38 SLP135 T10081014 $ COR 1600", "PAEN 221553Z 03010KT 1/4SM FG VV002 00/00 A2990 RMK AO2 SLP127 T00000000", "PAFA 221553Z 04003KT 2SM -SN BR BKN004 OVC010 M01/M02 A2993 RMK AO2 SLP142 P0001 T10061017", "PAFB 221555Z AUTO 06003KT 9SM OVC004 M01/M01 A2992 RMK AO2 UPB02E26SNB26E50 CIG 002V004 SLP143 P0000 T10081009", "PAFE 221556Z AUTO 06003KT 10SM CLR 01/00 A2991 RMK AO2 SLP140 T00060000 FZRANO", "PAFM 221556Z AUTO 09003KT 10SM -SN OVC017 M01/M01 A2989 RMK AO2 UPB29E31B47E54SNE29B54 SLP128 P0000 T10061011 FZRANO", "PAFR 221555Z AUTO 00000KT 10SM CLR M05/M05 A2984 RMK AO2 SLP115 T10491053 VISNO RWY35 CHINO RWY35 $", "PAFS 221601Z AUTO 05003KT 10SM OVC033 M03/M03 A2992 RMK AO2 SLP141 T10281028 FZRANO", "PAGA 221556Z AUTO 10SM FEW020 BKN050 M02/M02 A2990 RMK AO2 SLP129 T10171022 FZRANO $", "PAGK 221553Z AUTO 00000KT 10SM FEW044 M05/M07 A2989 RMK AO2 SLP151 T10501067 TSNO", "PAGL 221556Z AUTO 18007KT 10SM SCT016 BKN028 OVC039 02/01 A2981 RMK AO2 SLP090 T00170006 PWINO FZRANO $", "PAGM 221547Z AUTO 7SM FEW015 BKN032 OVC100 02/M01 A2970 RMK AO2 RAB32E45 P0000 FZRANO $", "PAGN 221556Z AUTO 03003KT 3SM BR OVC003 04/04 A2992 RMK AO2 SLP120 T00390039", "PAGS 221556Z AUTO 00000KT M1/4SM FZFG OVC002 M01/M01 A2992 RMK AO2 SLP129 T10061006 FZRANO RVRNO", "PAGY 221553Z AUTO 00000KT 10SM FEW004 SCT014 OVC080 04/04 A2987 RMK AO2 SLP115 T00440039 TSNO", "PAHL 221556Z AUTO 22003KT 10SM UP OVC005 00/M01 A2987 RMK AO2 SNB08E18 SLP121 P0000 T00001006 FZRANO", "PAHN 221606Z AUTO 29009KT 5SM BR BKN002 OVC080 03/02 A2989 RMK AO2 T00280022 TSNO", "PAHO 221553Z 36004KT 10SM CLR 00/M02 A2987 RMK AO2 SLP117 T00001017", "PAHX 221602Z AUTO 20005KT 3SM -RA OVC004 A2990 RMK AO2 RAB02 P0000 FZRANO", "PAHY 221556Z AUTO 00000KT 9SM CLR 03/03 A2989 RMK AO2 SLP117 T00330028 $", "PAIG 221556Z AUTO 00000KT 10SM OVC008 01/01 A2987 RMK AO2 SLP125 T00060006 FZRANO $", "PAIK 221556Z AUTO 10005KT 8SM -SN OVC010 00/M01 A2985 RMK AO2 SLP109 P0000 T00001006 FZRANO", "PAIL 221553Z 02004KT 10SM CLR M01/M01 A2988 RMK AO2 SLP122 T10111011", "PAIM 221555Z AUTO 00000KT 10SM OVC008 M03/M03 A2985 RMK AO2 SLP129 T10281029", "PAIN 221556Z AUTO 00000KT 10SM OVC050 M06/M07 A2989 RMK AO2 UPB35E44SNB08E27 SLP157 P0000 T10611072 FZRANO $", "PAJC 221557Z AUTO 10008KT 10SM -RA BKN017 OVC025 04/02 A2975 RMK AO2 SLP073 T00440022 PNO $", "PAJN 221553Z COR 00000KT 10SM BKN004 BKN025 OVC033 04/04 A2989 RMK AO2 DZE30 SLP123 P0000 T00440044 $", "PAJZ 221603Z AUTO 36005KT 1/2SM FZFG OVC002 M03/M04 A2992 RMK AO2 FZRANO $", "PAKF 221556Z AUTO 32007KT 10SM -RA BKN021 OVC025 A2976 RMK AO2 SLPNO P0000 FZRANO $", "PAKH 221556Z AUTO 02008KT 10SM -RA BKN025 BKN032 OVC070 05/02 A2984 RMK AO2 RAB49 SLP105 P0000 T00500022 TSNO $", "PAKI 221556Z AUTO 08005KT 10SM CLR 00/00 A2986 RMK AO2 SLP116 T00000000 FZRANO PNO $", "PAKK 221556Z AUTO 17007KT 10SM OVC008 00/M01 A2979 RMK AO2 UPE20B45E48SNB20E45 CIG 003V010 SLP098 P0000 T00001006 FZRANO", "PAKN 221554Z AUTO 00000KT 10SM CLR M01/M01 A2981 RMK AO2 SLP097 T10061006 TSNO", "PAKP 221556Z AUTO 19004KT 9SM -SN OVC031 M09/M11 A2981 RMK AO2 SNB39 SLP155 P0000 T10941111 FZRANO", "PAKT 221553Z 31005KT 10SM FEW018 FEW033 05/03 A2987 RMK AO2 SLP115 HARBOR WIND 28008KT T00500028", "PAKV 221553Z AUTO 00000KT 10SM BKN009 BKN018 OVC031 M02/M03 A2991 RMK AO2 CIG 006V010 SLP131 T10221028 TSNO", "PAKW 221503Z AUTO 00000KT 1/4SM FG VV001 01/00 A2986 RMK AO2 T00110000 TSNO $", "PAKX 221555Z AUTO 00000KT 7SM CLR M02/M02 A2988 RMK AO2", "PALG 221556Z AUTO 09003KT 10SM OVC007 01/01 A2989 RMK AO2 SLP124 T00110006 FZRANO", "PALH 221608Z 01007KT 10SM OVC005 M01/M01 A2990 RMK AO2 T10111011", "PALP 221547Z 10012KT 10SM BKN019 OVC039 M04/M06 A2994", "PALU 221555Z AUTO 18015KT 10SM OVC055 03/M01 A2973 RMK AO2 SLP066 T00311014", "PAMB 221556Z AUTO 02006KT 8SM BKN004 OVC023 00/00 A2986 RMK AO2 SLP114 T00000000 FZRANO $", "PAMD 221551Z AUTO 04005KT 10SM CLR 07/M01 A2984 RMK AO2 SLP091 T00721011 PNO $", "PAMH 221556Z AUTO 00000KT 10SM OVC005 M01/M01 A2991 RMK AO2 SLP132 T10111011 FZRANO", "PAMK 221556Z AUTO 19007KT 10SM OVC036 01/M01 A2985 RMK AO2 SLP109 T00061006 FZRANO", "PAMR 221600Z 01003KT 10SM BKN004 M02/M03 A2989 RMK AO2 T10221033", "PANA 221605Z AUTO 06003KT 1/4SM FZFG OVC002 M03/M03 A2988 RMK AO2 FZRANO TSNO $", "PANC 221609Z 33004KT 5SM BR OVC003 M01/M01 A2989 RMK AO2 T10111011", "PANI 221556Z AUTO 00000KT 10SM BKN017 OVC049 00/M01 A2994 RMK AO2 SLP133 T00001006 FZRANO $", "PANN 221553Z AUTO 00000KT 7SM OVC018 M01/M01 A2991 RMK AO2 SNE47 SLP136 P0002 T10061011 TSNO", "PANV 221608Z AUTO 11003KT 1/2SM FG SCT002 OVC038 00/M01 A2986 RMK AO2 FZRANO TSNO", "PANW 221607Z AUTO 01007KT 10SM SCT002 M04/M04 A2987 RMK AO2 FZRANO", "PAOH 221556Z AUTO 00000KT 1/4SM FG OVC003 03/03 A2990 RMK AO2 SLP126 T00330033", "PAOM 221553Z 22003KT 4SM -SN BR SCT017 BKN026 OVC047 01/00 A2976 RMK AO2 UPB44E46SNB46 SLP079 P0001 T00110000", "PAOO 221556Z AUTO 35003KT CLR M02/M02 A2988 RMK AO2 SLP123 T10221022 PWINO FZRANO TSNO $", "PAOR 221553Z 24003KT 6SM -SN BR OVC055 M03/M04 A2986 RMK AO2 SNB40 SLP142 P0000 T10281044 $", "PAOT 221553Z 12006KT 9SM BKN005 BKN038 OVC055 M02/M02 A2978 RMK AO2 CIG 003V007 SLP084 I1000 T10171017", "PAOU 221556Z AUTO 05018KT 8SM -RA BKN012 OVC019 04/03 A2972 RMK AO2 SLP064 T00440028 PNO $", "PAPB 221553Z AUTO 00000KT 10SM OVC075 02/ A2989 RMK AO2 SLP110 T0022 TSNO $", "PAPG 221603Z 00000KT 1/4SM FG OVC003 02/02 A2990 RMK AO2", "PAPH 221556Z AUTO 05010KT 10SM -RA OVC028 03/02 A2977 RMK AO2 SLP082 P0003 T00330022", "PAPM 221556Z AUTO 09009KT 10SM CLR 02/01 A2985 RMK AO2 SLP111 T00170011 FZRANO", "PAPN 221556Z AUTO 08004KT 10SM -RA BKN047 OVC055 03/03 A2979 RMK AO2 RAB20 SLP091 T00330028 PNO $", "PAQT 221553Z AUTO 09008KT 10SM OVC012 M06/M07 A2994 RMK AO2 SLP140 T10561067 TSNO", "PARC 221604Z AUTO 32003KT 3SM -SN BR BKN022 OVC030 M13/M14 A2986 RMK AO2 P0000 FZRANO", "PARS 221556Z AUTO 00000KT 1/2SM FG OVC003 A2988 RMK AO2 SLPNO FZRANO RVRNO $", "PARY 221609Z AUTO 00000KT 3/4SM BR OVC005 M01/M02 A2988 RMK AO2 CIG 003V007 FZRANO", "PASA 221556Z AUTO 21011KT 10SM CLR 01/00 A2973 RMK AO2 RAB01E10UPB20E22SNB10E20 SLP067 P0000 T00110000 FZRANO", "PASC 221553Z 10014KT 10SM BKN018 OVC032 M04/M06 A2993 RMK AO2 SLP135 T10441061", "PASD 221556Z 03010G20KT 10SM -RA BKN014 BKN018 OVC025 04/03 A2966 RMK AO2 SLP046 T00440028 PNO $", "PASH 221556Z AUTO 14012KT 10SM SCT075 M01/M02 A2973 RMK AO2 SLP069 T10111017 FZRANO PNO $", "PASI 221553Z 00000KT 10SM CLR 04/04 A2988", "PASK 221556Z AUTO 14003KT 9SM -SN OVC020 M01/M01 A2984 RMK AO2 UPB35E42SNB42 SLP103 P0000 T10061011 FZRANO", "PASM 221556Z AUTO 00000KT 10SM OVC034 M01/M02 A2988 RMK AO2 SLP127 T10111017 FZRANO", "PASN 221553Z AUTO 26004KT 5SM BR BKN065 03/02 A2987 RMK AO2 SLP117 T00280022 TSNO $", "PASO 221553Z AUTO 00000KT 10SM CLR 03/03 A2987 RMK AO2 SLP113 T00280028 TSNO", "PASV 221555Z AUTO 00000KT 10SM CLR M03/M04 A2984 RMK AO2 SLP129 T10281042", "PASX 221559Z AUTO 10004KT 1 3/4SM -SN BR OVC003 M04/M04 A2992 RMK AO2 VIS 3/4V5 P0000 FZRANO", "PASY 221559Z 24019KT 7SM FEW017 BKN035 BKN043 OVC050 06/03 A2999 RMK AO2A SLP157 ALSTG/SLP ESTMD WND DATA ESTMD T00610030 RVRNO PNO $", "PATA 221602Z 12003KT 2SM BR OVC004 00/M01 A2989 RMK AO2 T00001006 $", "PATC 221555Z AUTO 25017KT BKN010 BKN041 02/01 A2969 RMK AO2 SLP056 T00200005 PWINO FZRANO $", "PATE 221556Z AUTO 18012KT 4SM -SN BR SCT010 BKN018 00/M01 A2972 RMK AO2 SNB46 SLP072 P0000 T00001006 FZRANO", "PATG 221556Z AUTO 35007KT 10SM CLR M01/M01 A2987 RMK AO2 SLP113 T10061006 FZRANO", "PATK 221553Z 01003KT 10SM CLR M04/M06 A2992 RMK AO2 SLP138 T10391061", "PATL 221555Z AUTO 00000KT 10SM FEW022 FEW031 BKN095 M01/M01 A2991 RMK AO2 SHRAB1508E1524 SLP144 T10081012 TSNO $", "PATO 221553Z AUTO 00000KT 10SM CLR M02/M03 A2989 RMK AO2 SLP124 T10221033 TSNO", "PATQ 221556Z AUTO 10013KT 10SM OVC005 M05/M06 A2986 RMK AO2 SLP117 T10501056 FZRANO TSNO", "PAUN 221556Z AUTO 10005KT 10SM FEW021 OVC043 02/M01 A2987 RMK AO2 RAB1457E06UPB06E27 SLP117 P0000 T00171006 FZRANO", "PAUT 221555Z AUTO 32014KT 10SM SCT014 BKN018 OVC042 05/03 A2984 RMK AO2", "PAVA 221556Z AUTO 18007KT 10SM OVC036 M01/M01 A2985 RMK AO2 SLP114 T10061011 FZRANO", "PAVC 221607Z AUTO 26007KT 10SM -RA SCT028 BKN033 OVC044 04/03 A2972 RMK AO2 PNO $", "PAVD 221556Z 00000KT 10SM CLR M01/M03 A2994 RMK AO2 SLP139 T10061033 PNO $", "PAWD 221553Z AUTO 02010KT 10SM CLR 02/M03 A2986 RMK AO2 SLP110 T00171033 TSNO", "PAWG 221556Z 00000KT 7SM BKN007 OVC010 05/04 A2989", "PAWI 221553Z AUTO 08013KT 3SM BR OVC002 M07/M08 A2983 RMK AO2 SLP101 T10671078 TSNO $", "PAWM 221556Z AUTO 13003KT 10SM BKN011 OVC018 01/01 A2979 RMK AO2 RAB09E11SNB11E42 SLP092 T00060006 FZRANO PNO $", "PAWN 221556Z AUTO 15005KT 10SM OVC006 00/M01 A2979 RMK AO2 UPB32E45 CIG 003V008 SLP101 P0000 T00001006 FZRANO", "PAWS 221556Z AUTO 06008KT 10SM CLR M02/M05 A2991 RMK AO2 SLP134 T10221050 FZRANO", "PAYA 221553Z AUTO 00000KT 4SM BR CLR M01/M01 A2988 RMK AO2 SLP118 T10111011 TSNO $", "PAZK 221556Z AUTO 24004KT 10SM CLR M09/M11 A2977 RMK AO2 SLP147 T10891106 FZRANO", "PFCL 221607Z AUTO 36004KT 10SM SCT003 A2985 RMK AO2 FZRANO TSNO $", "PFEL 221612Z AUTO 00000KT 9SM UP BKN016 OVC022 01/00 A2982 RMK AO2 RAE10UPB10 P0000 FZRANO", "PFKT 221556Z AUTO 14006KT 10SM -RA BKN009 BKN013 OVC019 01/00 A2975 RMK AO2 UPB20E46 CIG 008V012 SLP075 P0002 T00060000 FZRANO", "PFKW 221601Z AUTO 00000KT 1 3/4SM BR CLR M02/M03 A2987 RMK AO2 VIS 1V5 FZRANO", "PFNO 221556Z AUTO 13006KT 9SM OVC015 00/M01 A2983 RMK AO2 UPB17E50SNE06 SLP183 P0000 T00001006 FZRANO", "PFSH 221556Z AUTO 14009KT 10SM SCT012 BKN019 OVC033 01/01 A2985 RMK AO2 SLP107 T00110006 FZRANO", "PFWS 221556Z AUTO 05004KT 5SM BR SCT002 01/00 A2986 RMK AO2 SLP154 T00060000 FZRANO", "PFYU 221556Z 00000KT 9SM -SN BKN032 BKN070 OVC085 M07/M08 A2997 RMK AO2 SLP165 P0000 T10671078", "PGSN 221554Z 11008KT 10SM FEW021 28/24 A2982 RMK AO2 RAB00E14 SLP118 P0000 T02780239", "PGUA 221555Z AUTO 11010KT 10SM SCT015 BKN034 BKN046 26/23 A2982 RMK AO2 RAB03E22 SLP088 P0002 T02590233 $", "PGUM 221554Z 10006KT 10SM FEW028 SCT039 27/24 A2982 RMK AO2 SLP089 T02720244", "PHBK 221551Z AUTO 07004KT 10SM CLR 23/17 A2998 RMK AO2 SLP156 T02330167", "PHHI 221555Z AUTO 00000KT 10SM SCT026 OVC034 23/19 A3003 RMK AO2 RAE01DZB06E21 SLP158 P0000 T02270190 $", "PHJR 221600Z VRB04KT 10SM FEW024 SCT031 OVC043 24/22 A3001 RMK AO2 T02440222", "PHKO 221553Z AUTO 35005KT 10SM CLR 26/18 A2996 RMK AO2 SLP143 T02610183 TSNO", "PHLI 221553Z 29006KT 10SM BKN014 BKN020 BKN024 23/21 A3001 RMK AO2 SLP160 T02280211 $", "PHMK 221554Z AUTO 03004KT 10SM CLR 25/19 A3000 RMK AO2 SLP160 T02500194 TSNO", "PHNG 221557Z AUTO 10009G18KT 10SM FEW027 OVC046 A2998 RMK AO2 SLP149", "PHNL 221553Z 34004KT 10SM SCT024 SCT036 BKN055 25/24 A2999 RMK AO2 RAE25 SLP156 P0001 T02500239", "PHNY 221605Z AUTO 06004KT 10SM SCT015 BKN043 22/21 A3006 RMK AO2 $", "PHOG 221554Z AUTO 09010G18KT 10SM CLR 24/19 A2999 RMK AO2 SLP159 T02440194 TSNO", "PHSF 221558Z AUTO 09006KT 10SM CLR 10/07 A3034 RMK AO2 SLP165 T01010073 $", "PHTO 221553Z 24007KT 10SM FEW090 22/21 A3003 RMK AO2 SLP167 T02220211", "PKWA 221600Z AUTO 09010KT 10SM SCT020 28/24 A2975 RMK AO2 T02770240", "PLCH 221600Z 10006KT 9999 SCT020 26/22 Q1009", "PMDY 221556Z AUTO 00000KT 10SM FEW024 BKN075 22/21 A2999 RMK AO2 SLP157 T02220206 TSNO", "PPIZ 221556Z AUTO 10006KT 10SM CLR M11/M12 A2978 RMK AO2 SLP089 T11061117 FZRANO", "PTYA 221554Z 00000KT 12SM SCT016 SCT130 BKN300 26/25 A2976 RMK SLP079 T02610250", "PWAK 221557Z AUTO 04017G21KT 9999 -RA SCT023 SCT048 BKN060 26/22 A2987 RMK AO2 RAB57 SLP121 $", "RCKH 221600Z 04004KT 7000 FEW025 BKN090 BKN200 26/22 Q1013 NOSIG RMK A2993", "RCMQ 221600Z 36008KT 9999 FEW006 BKN060 24/23 Q1014 RMK A2997", "RCNN 221600Z 34002KT 7000 FEW012 BKN060 25/23 Q1014 RMK A2995", "RCSS 221600Z 09007KT 8000 -RA FEW008 BKN030 BKN050 24/23 Q1016 NOSIG RMK A3001", "RCTP 221600Z 04017KT 9000 -RA SCT004 BKN006 BKN020 23/22 Q1016 NOSIG RMK A3002", "RJAA 221600Z AUTO 26002KT 9000 NSC 14/14 Q1014 NOSIG RMK A2994", "RJAH 221600Z VRB01KT 5000 BR FEW030 BKN180 BKN/// 13/13 Q1014", "RJAW 221500Z 09007KT 9999 FEW015 BKN080 26/24 Q1012 RMK 1CU015 5AC080 A2991 WIND BY EQPT/25", "RJBB 221600Z AUTO 21010KT 9999 FEW050 SCT060 OVC070 //////TCU 22/18 Q1015 NOSIG", "RJCC 221600Z 29003KT 220V320 9999 FEW030 09/07 Q1010 RMK 1CU030 A2982", "RJDB 221600Z AUTO 31003KT 9999 FEW027 16/15 Q1017", "RJFF 221600Z AUTO 09003KT 040V150 9999 NSC 19/17 Q1017 NOSIG RMK A3003", "RJFR 221600Z 25006KT 9999 FEW030 20/16 Q1016", "RJGG 221600Z AUTO 35008KT 9999 NSC 17/15 Q1015 NOSIG", "RJKA 221600Z AUTO 08014KT 9999 FEW036 SCT040 BKN050 26/22 Q1013", "RJKI 221600Z AUTO 08009KT 9999 FEW017 SCT021 BKN025 25/22 Q1013", "RJNK 221600Z 19007KT 9999 FEW015 BKN020 BKN060 17/16 Q1015", "RJOH 221600Z 27003KT 9999 FEW020 SCT030 BKN160 17/15 Q1016", "RJOI 221556Z 30006KT 9999 FEW140 19/14 A3001 RMK AO2 SLP162 T01890144", "RJOO 221600Z AUTO 31003KT 9999 FEW018 SCT036 BKN060 //////TCU 18/15 Q1015 RMK A2999 TCU 30KM W AND 35KM NW MOV UNKNOWN", "RJOS 221600Z 27007KT 9999 FEW030 BKN080 18/16 Q1016", "RJSM 221600Z 28012KT 9999 FEW040 13/07 Q1011", "RJTT 221600Z 30003KT 9999 FEW030 BKN170 17/12 Q1014 NOSIG RMK 1CU030 7AC170 A2995", "RJTY 221555Z AUTO 00000KT 10SM OVC140 13/10 A2998 RMK AO2 SLP155 T01310101 $", "RKJB 221600Z AUTO 14001KT 4000 BR ///011/// 14/13 Q1020", "RKJK 221555Z AUTO 16003KT 5SM BR SCT009 14/14 A3010 RMK AO2 SLP197 T01440138 $", "RKNY 221600Z AUTO 29009KT 230V320 9999 NCD 16/09 Q1016", "RKPC 221600Z 34006KT 300V020 9999 BKN025 17/13 Q1021 NOSIG", "RKPK 221600Z 03001KT CAVOK 14/08 Q1018", "RKSF 221519Z 27002KT 9000 BR BKN020 16/13 A3009 RMK CIG020", "RKSG 221555Z 00000KT 4SM -DZ FEW015 SCT033 12/12 A3009 RMK AO2A SLP192 P0000 T01230121 TSNO $", "RKSI 221600Z 31009KT 5000 BR FEW010 SCT030 15/13 Q1019 NOSIG", "RKSM 221500Z 19001KT 9000 BR FEW015 BKN025 14/12 A3011", "RKSO 221555Z AUTO 00000KT 4SM BR SCT006 SCT011 13/13 A3011 RMK AO2 SLP200 T01340134 TSNO CHINO RWY09 $", "RKSS 221600Z 28004KT 4000 BR SCT040 14/13 Q1019 NOSIG", "RKTN 221600Z 32004KT CAVOK 11/06 Q1018", "RKTU 221600Z 36001KT 8000 SCT015 BKN200 12/11 Q1019", "ROAH 221600Z AUTO 26004KT 9999 FEW024 26/25 Q1012 RMK A2991", "RODN 221555Z 05002KT 10SM FEW010 SCT019 BKN027 26/ A2988 RMK AO2A RAB31E46 SLP123 P//// FZRANO $", "ROIG 221600Z AUTO 36005KT 330V040 1300 R04/P2000N -RA BR FEW007 SCT026 BKN036 //////CB 26/25 Q1014", "ROMD 221600Z AUTO 14008KT 090V170 9999 FEW002 SCT008 BKN011 25/25 Q1013", "RORK 221600Z AUTO 12017KT 1200 +RA BR FEW004 SCT009 BKN011 26/25 Q1012", "RORY 221600Z AUTO 11012KT 070V130 9999 TS FEW009 SCT012 BKN100 //////CB 26/25 Q1012", "ROYN 221600Z AUTO 04017KT 5000 UP BKN006 OVC009 26/// Q1014", "RPLB 221600Z 07005KT 7000 FEW020 26/25 Q1012 RMK A2988", "RPLI 221500Z 11004KT 9999 FEW018 SCT290 26/25 Q1012 NOSIG RMK A2988", "RPLL 221600Z VRB02KT 9999 FEW025 29/24 Q1011 NOSIG RMK A2985", "RPMD 221600Z VRB02KT 9999 FEW016 BKN090 OVC260 26/25 Q1011 RMK A2985", "RPMZ 221500Z 00000KT 9999 FEW016CB FEW017 BKN090 27/25 Q1011 RMK A2985 CB E", "RPVM 221600Z 33007KT 9999 SCT018CB BKN100 26/25 Q1011 RETSRA RMK A2985 CB/OCNL LTG SW-W/NW-N", "SAAR 221600Z 19013KT 9999 BKN035 16/07 Q1022 RMK PP000", "SABE 221600Z 17008G18KT 120V240 9999 SCT016 SCT034 15/09 Q1021 NOSIG RMK PP000", "SACO 221600Z 15007KT 090V190 9999 BKN025 15/07 Q1023 NOSIG RMK PP000", "SADF 221600Z 17011KT 110V210 9999 BKN019 14/09 Q1021 RMK PP000", "SAEZ 221600Z 17009KT 9999 OVC018 13/08 Q1022 NOSIG RMK PP000", "SAME 221600Z 00000KT 9999 OVC040 13/04 Q1023", "SANT 221600Z 20008KT 130V240 7000 BKN045 20/09 Q1020 RMK PP000", "SAOC 221600Z 18008KT 9999 SCT030 SCT035 11/06 Q1024", "SARC 221600Z 18008KT 9999 BKN025 28/15 Q1016", "SARE 221600Z 13006KT 090V160 CAVOK 28/15 Q1016 RMK PP///", "SARF 221600Z 18007KT 9999 SCT025 28/16 Q1016", "SARI 221600Z VRB05KT 9999 BKN036 25/16 Q1015 RMK PP000", "SARL 221600Z 16012KT 9999 BKN020 26/17 Q1017", "SARP 221600Z 14007KT 9999 BKN030 24/17 Q1017", "SASA 221600Z VRB07KT 9999 SCT058 26/08 Q1019 RMK PP000", "SASJ 221600Z 08010KT 050V120 9999 FEW020 BKN200 28/09 Q1018 RMK PP000", "SAVC 221600Z 31016KT 280V340 CAVOK 20/M15 Q1011 RMK PP000", "SAWE 221600Z 29034KT 9999 FEW045 14/01 Q0997 RMK PP000", "SAWG 221600Z 32010KT 280V360 9999 FEW035 BKN100 16/M09 Q1001", "SAWH 221600Z 24012KT 9999 VCSH FEW030 BKN040 09/03 Q0994 RMK PP999", "SAZM 221600Z 16013KT 9999 BKN034 11/04 Q1024 RMK PP///", "SAZN 221600Z 36010KT CAVOK 17/02 Q1020", "SAZS 221600Z 34005KT 280V030 CAVOK 16/M03 Q1016 RMK PP///", "SBAF 221500Z 23016KT 9999 FEW046 29/16 Q1011", "SBAN 221500Z 11004KT 9999 FEW025 SCT100 27/16 Q1018", "SBAR 221500Z 12010KT 090V160 9999 FEW020 29/23 Q1013", "SBAT 221500Z 36004KT 9999 FEW025 SCT070 BKN100 28/23 Q1014", "SBAX 221500Z AUTO VRB03KT 9999 BKN040 27/16 Q1017", "SBBE 221600Z 07007KT 9999 BKN035 32/24 Q1010", "SBBG 221500Z AUTO 24005KT 190V300 9999 SCT021 OVC030 18/14 Q1019", "SBBH 221500Z 02005KT CAVOK 25/17 Q1017", "SBBI 221500Z 26003KT 9999 BKN040 23/11 Q1017", "SBBQ 221500Z 11003KT 9999 BKN043 24/17 Q1019", "SBBR 221500Z 11006KT 050V180 9999 FEW045 29/16 Q1017", "SBBU 221500Z 27009KT 9999 SCT045 29/16 Q1014", "SBBV 221500Z 10011KT 9999 SCT035 32/22 Q1011", "SBBW 221500Z 29002KT 9999 SCT020 BKN090 29/22 Q1015", "SBCA 221500Z 16006KT 9999 SCT020 22/14 Q1017", "SBCB 221500Z 21012KT 9999 FEW035 30/21 Q1011", "SBCC 221500Z 30005KT 230V010 9999 SCT020 FEW025TCU BKN100 28/20 Q1015", "SBCF 221500Z 34003KT 9999 SCT035 BKN080 25/18 Q1017", "SBCG 221500Z VRB04KT 9999 SCT045 27/16 Q1016", "SBCH 221500Z 19004KT 9999 BKN020 21/15 Q1017", "SBCJ 221500Z 00000KT 8000 -RA FEW025 OVC090 22/20 Q1017 RETS", "SBCO 221500Z 22010KT 190V250 9999 BKN030 SCT050 23/16 Q1017", "SBCP 221500Z 07007KT CAVOK 30/22 Q1011", "SBCR 221500Z 11005KT 070V150 9999 FEW030 30/19 Q1013", "SBCT 221500Z VRB04KT 9999 BKN040 23/11 Q1017", "SBCX 221500Z 18006KT 9999 BKN036 16/// Q1018", "SBCY 221500Z 31005KT 9999 BKN022 SCT100 28/22 Q1014", "SBCZ 221500Z 34006KT 9999 BKN020 BKN100 31/24 Q1012", "SBDN 221500Z 22007KT 9999 FEW040 28/17 Q1014", "SBEG 221500Z 10003KT 9999 -RA FEW012 SCT020 FEW025TCU BKN100 24/23 Q1014", "SBES 221500Z 21013KT 9999 FEW025TCU 30/20 Q1011", "SBFI 221500Z 15004KT 9999 BKN025 25/17 Q1015", "SBFL 221500Z 14015KT 9999 SCT030 24/17 Q1014", "SBFN 221500Z AUTO 12008KT 080V170 CAVOK 30/22 Q1013", "SBFS 221500Z 06012KT CAVOK 30/24 Q1011", "SBFZ 221500Z 09015KT 9999 VCSH BKN020 FEW025TCU 30/22 Q1012", "SBGL 221500Z 21017KT CAVOK 31/19 Q1011", "SBGM 221500Z 32005KT 9999 FEW020 BKN036 OVC093 28/23 Q1013", "SBGO 221500Z VRB06KT 9999 FEW040 29/17 Q1016", "SBGR 221500Z 28011KT 9999 SCT045 SCT050 28/14 Q1015", "SBGW 221500Z 20004KT 160V240 9999 SCT030 SCT080 29/19 Q1014", "SBHT 221500Z 05007KT 9999 BKN025 32/25 Q1012", "SBIH 221500Z 06008KT 9999 FEW019 FEW025TCU 32/26 Q1011", "SBIL 221500Z 08007KT 9999 FEW025 29/24 Q1015", "SBIP 221500Z AUTO 05005KT 360V090 9999 FEW038 29/15 Q1014", "SBIZ 221500Z 05003KT 9999 BKN025 30/23 Q1012", "SBJP 221500Z 06012KT 9999 BKN030 29/22 Q1013", "SBJR 221500Z 22010KT 9999 FEW025 SCT090 30/22 Q1012", "SBJU 221500Z 14011KT 9999 FEW022 34/16 Q1014", "SBJV 221500Z 11011KT 9999 SCT025 SCT050 24/19 Q1014", "SBKG 221500Z 09010KT 9999 BKN025 29/18 Q1014", "SBKP 221500Z 26009KT 220V290 9999 BKN045 27/16 Q1015", "SBLB 221508Z AUTO 02025KT 9999 NCD 24/22 Q1013 W/////", "SBLE 221500Z AUTO VRB02KT 9999 BKN044 28/18 Q1015", "SBLO 221500Z 26004KT 9999 FEW045 28/15 Q1015", "SBLS 221500Z 31002KT 9999 FEW035 BKN100 25/19 Q1017", "SBMA 221500Z 21002KT 9000 BKN018 29/25 Q1013", "SBME 221500Z 13008KT 9999 SCT020 31/21 Q1009", "SBMG 221500Z 31010KT 210V010 9999 FEW045 26/16 Q1014", "SBMK 221500Z VRB04KT 9999 FEW040 31/13 Q1015", "SBMN 221500Z 19001KT 9999 -RA FEW008 SCT020 FEW025TCU 25/23 Q1014", "SBMO 221500Z 08013KT 9999 BKN030 29/22 Q1013", "SBMQ 221500Z 09009KT 9999 SCT030 34/24 Q1011", "SBMS 221500Z 03013KT 9999 SCT030 35/21 Q1010", "SBMT 221500Z 30007KT 9999 SCT049 27/15 Q1015", "SBMY 221500Z AUTO 28004KT 250V330 CAVOK 27/24 Q1014", "SBNF 221500Z 10006KT 9999 SCT030 23/18 Q1014", "SBNM 221500Z 19010KT 9999 BKN020 22/18 Q1017", "SBNT 221500Z 12014KT 9999 SCT030 29/21 Q1012", "SBOI 221500Z 13006KT 9999 FEW040 34/22 Q1011", "SBPA 221500Z 22008KT 170V260 9999 BKN033 BKN041 22/15 Q1017", "SBPB 221500Z 13022KT CAVOK 33/24 Q1010", "SBPF 221500Z 00000KT 9999 FEW020 BKN025 19/14 Q1018", "SBPJ 221500Z 24005KT 9000 SCT045 BKN100 30/22 Q1012", "SBPK 221500Z 18004KT 9999 BKN035 SCT045 26/15 Q1018", "SBPL 221500Z 13007KT 9999 FEW035 34/15 Q1013", "SBPP 221500Z 18002KT CAVOK 25/15 Q1017", "SBPR 221500Z 05007KT 9999 SCT030 BKN100 25/20 Q1018", "SBPS 221500Z 06017KT 9999 SCT025 27/22 Q1014", "SBPV 221500Z /////KT 9999 SCT018 29/23 Q1012", "SBRB 221500Z 36005KT 9999 SCT020 BKN100 30/24 Q1012", "SBRF 221500Z 10009KT 050V130 9999 SCT025 29/21 Q1013", "SBRJ 221500Z 18016KT 9999 FEW020 30/20 Q1011", "SBRP 221500Z 32006KT 270V360 9999 SCT035 29/17 Q1014", "SBSC 221500Z 15018KT 9999 FEW018 BKN030 25/21 Q1012", "SBSJ 221500Z 25007KT 180V290 9999 SCT040 FEW045TCU 27/15 Q1014", "SBSL 221500Z 05012KT 9999 BKN020 32/23 Q1011", "SBSM 221500Z 13005KT 9999 SCT025 BKN035 21/14 Q1018", "SBSN 221500Z 09011KT 9999 FEW020 31/25 Q1011", "SBSP 221500Z VRB05KT 9999 SCT046 26/14 Q1016", "SBSR 221500Z 27003KT 9999 BKN030 28/19 Q1014", "SBST 221500Z 23008KT 190V280 9999 FEW020 BKN027 24/19 Q1014", "SBSV 221500Z 09013KT 9999 SCT023 29/22 Q1014", "SBTA 221500Z 25007KT 200V300 9999 SCT040 28/18 Q1013", "SBTC 221500Z 06007KT 9999 SCT025 29/22 Q1015", "SBTE 221500Z 18005KT 9999 FEW040 35/20 Q1009", "SBTF 221500Z 16004KT 9999 FEW020 33/26 Q1011", "SBTT 221500Z 08005KT 9999 FEW015 BKN100 28/23 Q1012", "SBTU 221500Z AUTO 16004KT 110V260 //// // BKN031/// 31/23 Q1013", "SBUA 221500Z VRB04KT 9999 SCT012 SCT020 30/25 Q1011", "SBUL 221500Z VRB02KT 9999 SCT040 FEW045TCU SCT070 27/17 Q1017", "SBUR 221500Z 17005KT 9999 BKN030 26/17 Q1017", "SBVH 221500Z 32007KT 280V010 9999 SCT025 BKN100 28/21 Q1015", "SBVT 221500Z 03012KT 350V050 9999 SCT040 SCT100 30/20 Q1013", "SBYS 221500Z 26004KT 210V300 9999 BKN041 BKN070 27/18 Q1014", "SCAP 221600Z AUTO 27006KT 220V310 9999 ////// 15/M04 Q1018", "SCAR 221600Z 24012KT 210V270 9999 SCT025 18/11 Q1016", "SCAT 221600Z 31007KT 250V020 9999 BKN020 16/10 Q1017", "SCBA 221600Z 30027KT CAVOK 12/M10 Q1011", "SCCF 221600Z 28014G24KT 230V330 CAVOK 23/M25 Q1025", "SCCH 221600Z 28005KT CAVOK 20/08 Q1015", "SCCI 221600Z 30022KT 9999 BKN030 BKN080 12/01 Q0998 NOSIG", "SCCY 221600Z 14004KT CAVOK 13/M04 Q1013", "SCDA 221600Z 23011KT CAVOK 18/10 Q1017", "SCEL 221600Z VRB06KT CAVOK 24/06 Q1015 NOSIG", "SCFA 221600Z 20009KT 9999 FEW025 16/09 Q1017 NOSIG", "SCFM 221600Z 28018KT 9999 FEW030 BKN100 BKN200 11/02 Q0999", "SCFT 221600Z AUTO VRB03KT CAVOK 16/M01 Q1015", "SCGE 221600Z VRB07KT CAVOK 22/07 Q1016", "SCGZ 221600Z 29015KT 9999 -SHRA SCT053 BKN070 09/04 Q0994", "SCIC 221600Z VRB05KT CAVOK 22/09 Q1015", "SCIE 221600Z 23006KT 160V280 CAVOK 16/09 Q1016", "SCIP 221600Z 17007KT 9999 BKN040 19/09 Q1023 NOSIG", "SCJO 221600Z 07003KT 320V120 CAVOK 14/08 Q1016", "SCMK 221600Z 35006KT CAVOK 12/05 Q1018", "SCNT 221600Z 29013KT 9999 SCT050 BKN100 13/00 Q0999", "SCON 221600Z AUTO 14008KT 120V180 CAVOK 10/05 Q1018", "SCPD 221600Z VRB04KT CAVOK 26/07 Q1015", "SCPQ 221600Z VRB05KT CAVOK 13/05 Q1016", "SCQP 221600Z VRB02KT CAVOK 17/10 Q1015", "SCRD 221600Z 32005KT 280V060 4500 BR NSC 16/07 Q1017", "SCRG 221600Z 19004KT CAVOK 23/08 Q1016", "SCRM 221600Z 28020KT 9999 BKN040 M04/M07 Q0978 NOSIG", "SCSE 221600Z 28007KT 9999 SCT005 OVC008 12/11 Q1018", "SCSN 221600Z 29008KT 270V330 2000 BR OVC003 12/11 Q1017", "SCTB 221600Z 22005KT CAVOK 25/06 Q1016", "SCTE 221600Z 20004KT CAVOK 15/06 Q1016 NOSIG", "SCTN 221600Z 20011KT CAVOK 10/06 Q1017", "SCVD 221600Z VRB04KT CAVOK 15/08 Q1016", "SCVM 221600Z 30010KT 260V350 6000 BKN012 13/10 Q1017", "SECU 221600Z 03003KT 9999 BKN040 BKN300 20/11 Q1026", "SEGS 221600Z 12012KT 9999 VCSH SCT010 BKN020 23/17 Q1017 RMK A3003", "SEGU 221600Z 15008KT 9999 FEW026 28/20 Q1012 NOSIG RMK A2990", "SEGZ 221600Z 15005KT 9999 SCT020 BKN090 25/21 Q1017", "SELT 221600Z 08004KT 9999 SCT030 BKN100 16/08 Q1030", "SEMC 221600Z 08005KT 8000 2000N -RA BKN016 OVC080 20/19 Q1018 RETSRA RMK A3006", "SEMT 221600Z 31008KT 9999 FEW020 25/20 Q1014 RMK A2994", "SEST 221600Z 19009KT 9999 BKN020 SCT030 21/18 Q1014 RMK A2997", "SGAS 221600Z 23010KT 160V240 9999 SCT033 29/16 Q1016", "SGEN 221600Z 16004KT 9999 BKN027 BKN060 23/17 Q1016", "SGES 221600Z 22012KT 9999 BKN015 25/18 Q1015", "SKAR 221500Z 00000KT 9999 BKN018 SCT090 23/19 Q1021 RMK A3016", "SKBG 221600Z 19003KT 9999 FEW010 BKN070 21/19 Q1016 RMK A3001", "SKBO 221600Z 29005KT 9999 SCT020TCU 20/11 Q1026 NOSIG RMK TCU /E/S A3031", "SKBQ 221600Z 19005KT 140V240 9999 SCT015 31/25 Q1011 NOSIG RMK A2988", "SKCC 221500Z 03004KT 9999 FEW003 SCT018 26/26 Q1014 RMK A2995", "SKCG 221600Z 21011KT 9999 SCT017CB BKN090 29/25 Q1011 RMK CB/W A2986", "SKCL 221600Z VRB02KT 5000 -DZ BR BKN015 BKN100 23/20 Q1017 BECMG 9999 NSW SCT015 RMK A3006", "SKEJ 221500Z 30003KT 9999 SCT010 SCT100 27/25 Q1012 REDZ RMK A2988", "SKIB 221500Z 17007KT 9999 BKN012 24/21 Q1020 RMK A3013", "SKIP 221500Z 00000KT 9999 BKN017 15/10 Q1030 RMK A3044", "SKLC 221500Z 20007KT 150V280 9999 SCT015 27/24 Q1013 RMK A2992", "SKLT 221600Z 00000KT 9999 FEW018 SCT080 BKN200 31/24 Q1010 RMK A2983", "SKMD 221500Z 34005KT 9999 SCT025 BKN090 25/16 Q1021 RMK A3018", "SKMR 221500Z 24005KT 190V330 9999 FEW018 BKN090 29/23 Q1012 RMK A2991", "SKMZ 221500Z 31006KT 7000 VCFG BKN012 17/17 Q1027 RMK VCFG/W A3036", "SKNV 221500Z 18003KT 8000 VCSH SCT008 BKN100 25/22 Q1015 RMK/VCSH/S A2999", "SKPC 221500Z 06006KT 360V100 9999 FEW020 31/24 Q1010 RMK A2984", "SKPE 221600Z 32005KT 9999 SCT017 SCT080 23/19 Q1019 RMK A3009", "SKPS 221500Z 00000KT 9999 SCT015 BKN080 18/16 Q1022 RMK A3020", "SKPV 221500Z 36010KT 9999 FEW017 BKN200 29/25 Q1014 RMK A2995", "SKRG 221600Z 12008KT 9999 SCT018 21/13 Q1026 NOSIG RMK A3030", "SKRH 221500Z 10010KT 9999 FEW018 31/24 Q1011 RMK A2987", "SKSM 221500Z 25006KT 9999 FEW020 31/24 Q1013 RMK A2992", "SKSP 221600Z 03005KT 350V070 9999 SCT018 30/25 Q1013 RMK A2992", "SKUC 221500Z 08003KT 9999 FEW015 31/25 Q1012 RMK A2988", "SKUI 221500Z 22003KT 160V270 8000 VCSH SCT012 BKN100 26/23 Q1013 RMK VCSH/SE A2993", "SKVP 221500Z 00000KT 9999 FEW010 29/23 Q1013 RMK A2993", "SLAL 221600Z 06016KT 9999 SCT020 17/04 Q1029", "SLCB 221600Z 08003KT 9999 FEW033 BKN200 24/04 Q1022", "SLCO 221600Z 18003KT 7000 -RA BKN004 OVC080 23/23 Q1013", "SLCP 221600Z 00000KT 9999 BKN013 OVC070 25/22 Q1017", "SLET 221600Z 13006KT 9999 FEW023 BKN080 29/18 Q1014", "SLLP 221600Z 14006KT 9999 FEW017 BKN200 15/M05 Q1036", "SLOR 221600Z 27007KT 220V320 9999 FEW020 19/M03 Q1033", "SLRI 221600Z 00000KT 5000 VCSH BKN012 OVC070 25/24 Q1014", "SLSA 221600Z 09006KT 9999 BKN015 OVC070 25/24 Q1011", "SLSV 221600Z 00000KT 9999 BKN012 OVC070 26/23 Q1013", "SLTJ 221600Z 12008KT 9999 SCT036 24/10 Q1022", "SLTR 221600Z 02003KT 8000 VCSH SCT005 BKN015 FEW023CB OVC070 25/23 Q1013", "SLVR 221600Z 14004KT 9999 FEW025 BKN080 29/19 Q1014", "SMJP 221600Z 16005KT 9999 SCT030 34/24 Q1010 NOSIG", "SMZO 221500Z 18005KT 9999 SCT025 32/24 Q1011 NOSIG", "SOCA 221600Z AUTO 08008KT 040V120 9999 FEW037 33/25 Q1010 NOSIG", "SPCL 221600Z 35007KT 9999 SCT025 31/23 Q1011 RMK BIRD HAZARD RWY 02/20 PP000", "SPGM 221600Z 36004KT 6000 RA SCT015 OVC070 22/21 Q1016 RMK PP040", "SPHI 221600Z 19011KT CAVOK 21/13 Q1015 RMK BIRD HAZARD RWY 19/01 PP000", "SPHO 221600Z VRB03KT 9999 FEW040 23/MS05 Q1026 RMK PP000", "SPHY 221600Z /////KT CAVOK 15/06 Q1035 RMK BIRD HAZARD RWY03/21 PP000", "SPJC 221600Z 28006KT 9999 OVC012 16/12 Q1015 NOSIG RMK PPT000", "SPJI 221600Z 19008KT 9999 SCT020 32/24 Q1019 RMK PP000", "SPJL 221600Z 11005KT 9999 NSC 16/M17 Q1033 RMK PP000", "SPJR 221600Z 17004KT 100V230 9999 FEW025 SCT050 21/04 Q1027 RMK PP000", "SPLO 221600Z 18012KT CAVOK 19/13 Q1017 RMK PP000", "SPME 221600Z 29005KT 8000 FEW007 BKN010 22/20 Q1014 RMK BIRD HAZARD RWY 32/14 PP000", "SPMS 221600Z 35004KT 9999 FEW020 32/23 Q1011 RMK BIRD HAZARD RWY 09/27 PP000", "SPQT 221600Z 05005KT 340V090 9999 BKN017 32/28 Q1010 NOSIG RMK PP000", "SPQU 221600Z 24009KT 210V280 CAVOK 19/M11 Q1026 NOSIG RMK PP000", "SPRU 221600Z 20009KT CAVOK 17/13 Q1015 RMK PP000", "SPSO 221600Z 29008KT 260V330 7000 NSC 18/14 Q1014 RMK BIRD HAZARD RWY 22/04 PP000", "SPST 221600Z 35010KT 9999 SCT020 34/22 Q1010 RMK BIRD HAZARD RWY 17/35 PP000", "SPTN 221600Z 21007KT CAVOK 20/10 Q1016 RMK PP000", "SPTU 221600Z VRB03KT 3000 RA BR OVC010 20/19 Q1013 RMK BIRD HAZARD RWY 01/19 PP110", "SPYL 221600Z 20012KT CAVOK 22/15 Q1015 RMK BIRD HAZARD RWY 17/35 PP000", "SPZO 221600Z VRB03KT 9999 FEW050 BKN200 21/M04 Q1029 NOSIG RMK BIRD HAZARD RWY 10/28 PP000", "SUAA 221600Z 17017KT 8000 BKN010 OVC070 14/13 Q1018", "SUCA 221600Z 19020KT 9999 BKN010 OVC070 13/11 Q1020", "SULS 221600Z 10010KT 070V130 9999 3000NE -RA BR BKN006 OVC017 15/13 Q1016", "SUMU 221600Z 17019KT 4000 DZ BR BKN007 OVC010 14/13 Q1017 TEMPO RA BR", "SUSO 221600Z 24006KT 9999 BKN017 22/16 Q1018", "SVBC 221603Z AUTO 22005KT NCD 31/25 Q1012", "SVBI 221603Z AUTO 01004KT NCD 32/25 Q1016", "SVBM 221603Z AUTO NIL", "SVBS 221603Z AUTO 19004KT NCD 29/// Q1015", "SVCB 221603Z AUTO 04006KT NCD 31/22 Q1011", "SVCJ 221603Z AUTO NIL", "SVCS 221603Z AUTO 14005KT NCD ///51 Q1017", "SVFM 221603Z AUTO 00000KT NCD 27/18 Q1015", "SVGD 221603Z AUTO 35005KT NCD 31/25 Q1013", "SVGU 221603Z AUTO NIL", "SVJC 221500Z 09015KT 9999 SCT020 XX/XX Q////", "SVJM 221603Z AUTO 29003KT NCD 31/20 Q1012", "SVLO 221603Z AUTO NIL", "SVMC 221603Z AUTO NIL", "SVMG 221603Z AUTO 11013KT NCD 31/25 Q1012", "SVMI 221603Z AUTO 06006KT NCD ///// Q1013", "SVMT 221603Z AUTO 09006KT NCD 33/26 Q1012", "SVPA 221603Z AUTO NIL", "SVPR 221603Z AUTO 07006KT NCD 30/21 Q1013", "SVSA 221500Z /////KT 9999 SCT040 XX/XX Q////", "SVSR 221603Z AUTO NIL", "SVVA 221603Z AUTO 00000KT NCD 34/23 Q1013", "SYCJ 221600Z 09006KT 9999 TS FEW015CB SCT016 31/26 Q1010 NOSIG RMK CB W-NNE", "SYKM 221500 08004KT 9999 SCT018 SCT039 28/23 Q//// NOSIG", "SYMB 221500Z 09006KT 9999 VCSH FEW018CB BKN020 31/25 Q//// NOSIG CB N,E&WVCSH-ALQDS", "TAPA 221600Z 08008KT 040V140 9999 FEW024 30/24 Q1012 NOSIG", "TBPB 221600Z 12011KT 9999 VCSH SCT016TCU 31/24 Q1010 NOSIG", "TDCF 221600Z 26002KT 9999 FEW022 33/23 Q1011", "TDPD 221600Z 11006KT 9999 BKN017 29/25 Q1013", "TFFF 221600Z AUTO 10012KT 9999 FEW031 31/24 Q1011 NOSIG", "TFFR 221600Z AUTO 11006KT 060V160 9999 BKN034/// BKN040/// BKN046/// ///TCU 30/22 Q1012 TEMPO 2000 SHRA SCT010 SCT015CB BKN020TCU", "TGPY 221600Z 10015KT 9999 FEW014CB 31/25 Q1011 NOSIG RMK CB-ESE/ SE/ VCSH-SSE+SSW", "TIST 221553Z 06009KT 10SM SCT028 31/24 A2991 RMK AO2 SLP128 T03110239", "TISX 221610Z 11010KT 10SM SCT027 31/24 A2992 RMK AO2 T03110239 $", "TJBQ 221550Z 08013G16KT 10SM SCT024 29/23 A2995", "TJIG 221545Z 08011KT 10SM VCSH SCT030 BKN070 30/24 A2993 RMK VCSH SE MOV W", "TJNR 221553Z AUTO 06009KT 10SM CLR 29/23 A2994 RMK AO2 SLP139 T02940233", "TJSJ 221556Z 07008KT 10SM FEW033 SCT060 BKN075 28/26 A2993 RMK AO2 RAB42E56 SLP135 VCSH SE S-SW P0003 T02830256 $", "TKPK 221600Z 06009KT 9999 -SHRA SCT016 29/25 Q1013", "TKPN 221500Z 08010KT 9999 VCSH FEW016TCU 30/25 Q1013", "TLPC 221600Z 07006KT 9999 FEW024 30/24 Q1012 NOSIG", "TLPL 221600Z 10015KT 9999 FEW027 30/24 Q1011 NOSIG", "TNCA 221600Z 09015KT 9999 FEW021 31/24 Q1011 NOSIG", "TNCB 221555Z 10011KT 060V140 9999 SCT020 31/25 Q1011", "TNCC 221600Z 08009KT 9999 FEW025 32/24 Q1011 NOSIG", "TNCE 221555Z AUTO 06013KT 020V100 //// // ///////// 31/23 Q1013 RE//", "TNCM 221600Z 09008KT 060V130 9999 SCT018 31/23 Q1014 A2994 NOSIG ", "TQPF 221600Z 10011KT 9999 FEW020 29/24 Q1013", "TUPJ 221600Z 12007KT 10SM SCT019 30/26 A2993 RMK Q1013 VIS16KM", "TVSA 221600Z 06007KT 030V110 9999 SCT020 30/24 Q1011 NOSIG ", "TXKF 221555Z 15009KT 9999 FEW017 BKN300 28/23 Q1020 ", "UADD 221600Z 20003MPS 160V320 9999 SCT050CB OVC100 20/M02 Q1017 NOSIG RMK QFE706/0941", "UAIT 221600Z 31007MPS 5000 BLDU BKN023CB 16/05 Q1018 NOSIG RMK QFE737/0983", "UAKD 221600Z 24008MPS 9999 SCT041CB 07/M01 Q1012 NOSIG RMK QFE726/0968", "UAOO 221600Z 26004MPS 9999 BKN040CB 09/06 Q1021 NOSIG RMK QFE753/1005", "UARR 221600Z 30002MPS CAVOK 00/M05 Q1026 NOSIG RMK QFE766/1021", "UASK 221600Z 13008MPS 9999 BKN130 16/M01 Q1012 NOSIG RMK QFE734/0978", "UASP 221600Z 23009MPS 7000 -SHRA OVC050CB 14/10 Q0998 NOSIG RMK QFE738/0984", "UASS 221500Z 18014MPS 9999 BKN040CB 19/01 Q1007 NOSIG RMK QFE735/0980", "UAUU 221600Z 32006MPS 9999 SCT040 M03/M04 Q1012 NOSIG RMK QFE743/0991", "UBBB 221600Z 29004KT 9999 BKN043 14/10 Q1031 NOSIG", "UBBF 221600Z AUTO 10006KT 9999 // ///011/// 11/10 Q1030", "UBBG 221600Z 10006KT 9999 BKN067 13/07 Q1029 NOSIG", "UBBL 221600Z VRB02KT 9999 -RA OVC025 13/13 Q1030 NOSIG RMK MT OBSC", "UBBN 221600Z 15010KT 8000 BKN033CB OVC070 10/08 Q1026 NOSIG RMK MT OBSC QFE693", "UBBQ 221600Z 00000KT 9999 SCT030 OVC061 12/07 Q1030 NOSIG RMK MT OBSC", "UBBY 221600Z 10004KT 9999 SCT045 BKN100 12/07 Q1032 NOSIG RMK MT OP", "UBBZ 221600Z AUTO 04010KT 9999 // ///046/// 12/09 Q1030", "UBEE 221600Z 13003KT 9999 SCT043 OVC100 15/09 Q1029 NOSIG", "UCFL 221600Z 33003MPS 9999 FEW030 07/04 Q1026 R07/CLRD95", "UCFM 221600Z 14006MPS 9999 3800S FU FEW066CB 20/01 Q1015 R08/0///95 TEMPO 1500 FU", "UCFO 221600Z 16002MPS 1800 1400N BR FU NSC 09/06 Q1022 R12/0///95 NOSIG", "UDSG 221600Z 31004KT 9999 SCT049 05/02 Q1028 R02/CLRD70 NOSIG", "UDYZ 221600Z 33001KT 9999 SCT043 10/07 Q1026 R09/010070 NOSIG", "UEEE 221600Z 30001MPS 9999 -SHSN SCT010 BKN020CB M05/M06 Q1017 R23L/490136 NOSIG RMK QFE754", "UERP 221600Z 18003MPS 9999 FEW026 SCT100 M05/M07 Q1009 RMK QFE712", "UERR 221600Z 20002MPS 4000 BR FEW010 M06/M06 Q1015 R25/910050 NOSIG RMK QFE730/0973", "UGKO 221600Z VRB01KT CAVOK 09/07 Q1026 NOSIG", "UGSB 221600Z 12007KT CAVOK 12/10 Q1027 NOSIG", "UGTB 221600Z 04006KT CAVOK 10/04 Q1029 NOSIG", "UHBB 221600Z 26002MPS CAVOK M03/M08 Q1019 R36/090060 NOSIG RMK QFE747/0996", "UHHH 221600Z 21002MPS 190V250 3300 -SHSN SCT002 OVC030CB 00/M00 Q1016 R23R/290045 NOSIG RMK QBB070 QFE756/1008", "UHMA 221600Z 35002MPS 320V020 9999 -SN SCT010 OVC040 M02/M04 Q1003 R01/////// NOSIG RMK TDZ R01/35002MPS END R01/00000G01MPS QFE748/0998", "UHMM 221600Z 08002MPS 9999 NSC M19/M21 Q1009 RMK QFE742 R28/10002MPS", "UHPP 221600Z 00000MPS 9999 SCT050 BKN073 M01/M02 Q1007 R16R/CLRD65 NOSIG RMK QFE752/1003", "UHSS 221600Z 36008MPS 9999 -SHRA SCT009 BKN021CB 04/03 Q1009 R01/250255 NOSIG RMK MT OBSC QFE755/1007", "UHWW 221600Z 29002MPS 9999 NSC 01/M03 Q1019 R25L/0///70 NOSIG RMK QFE763", "UIAA 221600Z 29001MPS 9999 NSC M08/M10 Q1024 R29/70D NOSIG RMK QFE709/0946", "UIBB 221600Z AUTO 21003MPS 170V240 9000 // ///066/// 04/02 Q1017 RMK QFE719/0959", "UIII 221600Z 14004MPS CAVOK 04/00 Q1021 R12/60D NOSIG RMK QFE723/0964", "UIUU 221600Z VRB01MPS 9000 NSC M05/M06 Q1024 R26/60D NOSIG RMK QFE723/0965", "ULAA 221600Z 22004MPS 170V270 9999 BKN023 02/M02 Q1007 R26/190065 NOSIG RMK QFE754/1006", "ULLI 221600Z 19003MPS 160V240 9999 FEW013 OVC046 06/04 Q1014 R88/090060 NOSIG", "ULMM 221600Z 17003MPS 9000 -SHRA BKN024CB 02/02 Q0990 R13/290060 NOSIG RMK QFE736", "ULOO 221600Z 11002MPS 9999 FEW034 04/02 Q1013 R19/090060 NOSIG RMK QFE756", "ULPB 221600Z 20002MPS 9999 FEW008 OVC049 04/03 Q1012 R19/290150 NOSIG RMK QBB240 QFE755/1007", "ULWC 221600Z 00000MPS 9999 SCT033 M01/M02 Q1017 R21/010060 NOSIG RMK QFE753/1004", "UMGG 221600Z 12002MPS 9000 SCT058CB OVC100 06/05 Q1017 NOSIG", "UMII 221600Z 16003MPS CAVOK 05/02 Q1014 NOSIG", "UMKK 221600Z 00000MPS 4000 -RA BR BKN008 OVC019 10/10 Q1011 R24/290095 NOSIG RMK QFE757/1009", "UMMS 221600Z 17005MPS CAVOK 05/03 Q1013 NOSIG", "UNAA 221600Z 21003MPS 8000 NSC 07/04 Q1012 R02/CLRD65 NOSIG RMK QFE736", "UNBB 221600Z 20007MPS CAVOK 15/M01 Q1003 R24/CLRD66 NOSIG RMK QFE730", "UNEE 221600Z 21005MPS 9999 -SHRA SCT045CB 11/04 Q1005 R23/CLRD60 NOSIG RMK QFE731", "UNKL 221600Z 19004MPS CAVOK 08/05 Q1008 R29/290050 NOSIG RMK QFE731", "UNNT 221600Z 13003MPS 9999 -SHRA BKN039CB OVC048 09/06 Q1000 R25/290250 R34/090070 NOSIG RMK QFE740/0987", "UNOO 221600Z 01006MPS 6000 -SHSN BKN004 BKN020CB 01/01 Q0998 R07/290350 NOSIG RMK QBB120 OBST OBSC QFE740", "UNTT 221600Z 22008MPS 9999 -RA BKN041 10/06 Q1002 R21/////// NOSIG RMK QFE736", "UNWW 221600Z 14003MPS CAVOK 11/02 Q1008 R19/09//60 NOSIG RMK QFE729", "UOOO 221600Z 24005MPS 5000 -SHSN BR SCT003 BKN021CB M02/M02 Q0986 R19/592033 NOSIG RMK QFE724/0965", "URKA 221600Z 14003MPS 9999 FEW/// 09/05 Q1026 R22/010070 NOSIG RMK QFE765/1020", "URKK 221600Z 07002MPS CAVOK 08/04 Q1027 R05R/CLRD70 NOSIG RMK QFE767", "URMG 221600Z 05004MPS 030V110 CAVOK 09/03 Q1029 R08/090070 NOSIG RMK QFE757/1010", "URML 221600Z 24004MPS 9999 NSC 08/05 Q1030 R32/01//70 NOSIG RMK QFE772/1030", "URMM 221600Z 11002MPS 9999 NSC 07/03 Q1028 R30/090070 NOSIG RMK QFE743/0990", "URMN 221600Z 18001MPS 9999 NSC 07/04 Q1028 R24/010070 NOSIG RMK QFE734", "URMO 221600Z 10003MPS 9999 NSC 04/02 Q1028 R09/010070 NOSIG RMK QFE727/0970", "URMT 221600Z 28002MPS CAVOK 06/01 Q1028 R25/010070 NOSIG RMK QFE732", "URRP 221600Z 28002MPS 9999 FEW/// 08/03 Q1027 R23/CLRD70 NOSIG RMK QFE762/1016", "URSS 221600Z 04004MPS 9999 NSC 10/08 Q1027 R02/010070 R06/010070 NOSIG RMK R06/34001MPS QFE769", "URWA 221600Z 34001MPS CAVOK 04/M01 Q1029 R27/010070 TEMPO 3000 FU RMK QFE774/1032", "URWI 221600Z AUTO 29004MPS 9999 // ///////// 04/M03 Q1029", "URWW 221600Z 00000MPS 9999 BKN033 01/M01 Q1027 R24/010070 TEMPO 0300 FZFG OVC002", "USCC 221600Z 31008MPS 9999 BKN032 00/M06 Q1013 R27/000060 NOSIG RMK QFE740", "USCM 221600Z 32006MPS 9999 SCT020 M02/M08 Q1016 R36/090060 TEMPO 35013MPS RMK QFE724", "USDA 221600Z AUTO 10006MPS 8000 ///007/// M01/M01 Q0986 RMK QFE738/0984", "USHH 221600Z 27003MPS CAVOK M01/M03 Q1002 R24/010060 NOSIG", "USNN 221600Z 24003MPS 9999 OVC031 00/M04 Q1000 R21/0///65 NOSIG RMK QFE745", "USPP 221600Z 28004MPS 9999 OVC035 01/M05 Q1017 R21/190055 NOSIG RMK QFE752", "USRR 221600Z 25005MPS 9999 SCT016CB M00/M02 Q1000 R25/290050 NOSIG RMK QFE745", "USSS 221600Z 29006MPS 9999 OVC024 00/M04 Q1014 R26R/010060 R26L/010060 NOSIG RMK QFE739/0986", "USTR 221600Z 30005MPS 9999 BKN038 M00/M06 Q1008 R30/CLRD65 R21/CLRD65 NOSIG", "UTAA 221600Z 30008KT 9999 FEW034CB OVC034 16/10 Q1029 R88/70D NOSIG", "UTAK 221600Z 02006KT 9999 SCT033 BKN100 12/07 Q1030 R34L/CLRD70 NOSIG", "UTAM 221600Z 31006KT 6000 SCT230 19/10 Q1026 R88/CLRD70 NOSIG", "UTAT 221600Z 27004KT CAVOK 12/04 Q1027 R26/CLRD70 NOSIG", "UTAV 221600Z 32012KT CAVOK 18/08 Q1024 R31/CLRD70 NOSIG", "UTDD 221600Z VRB01MPS 9999 FEW066CB 17/03 Q1024 R09/D NOSIG RMK QFE699/0932", "UTDK 221600Z 02004MPS 9999 FEW060CB 18/06 Q1023 R01/09//70 RMK QFE710/0946", "UTDL 221600Z 21001MPS 5000 BR FEW086 11/08 Q1021 R08/CLRD70 NOSIG RMK QFE726/0968", "UTDT 221600Z VRB01MPS 9999 FEW066CB SCT080 17/04 Q1021 R35/CLRD70 RMK QFE726/0968", "UTFF 221600Z 14006KT 5000 BR NSC 12/08 Q1022 R18/CLRD70", "UTFN 221600Z 30002KT 5000 BR NSC 13/07 Q1021 R28/CLRD70 NOSIG", "UTNN 221600Z 28008KT CAVOK 11/01 Q1027 R33/CLRD60 NOSIG", "UTNU 221600Z 26006KT CAVOK 13/05 Q1027 R31/CLRD70 NOSIG", "UTO8 M M M 128/-01/-02/0201/M/ 2012 96MM", "UTSA 221600Z 31010KT 9000 DS SCT045 17/07 Q1023 R25/CLRD70 NOSIG", "UTSB 221600Z 33008KT 8000 NSC 18/08 Q1024 R01/CLRD70 NOSIG", "UTSK 221600Z 30004KT 4300 HZ NSC 18/05 Q1023 R16/CLRD70", "UTSS 221600Z 18004KT 140V250 6000 NSC 19/03 Q1021 R27/CLRD70 NOSIG", "UTST 221600Z 00000KT CAVOK 18/03 Q1022 R25/CLRD70 NOSIG", "UTTT 221600Z 09006KT 4000 FU NSC 17/05 Q1019 R08L/CLRD70 NOSIG", "UUBC 221600Z VRB01MPS 9999 BKN044 05/04 Q1020 R31/CLRD60 NOSIG RMK QFE748/0997", "UUBP 221600Z AUTO 10004MPS 9999 NCD 06/01 Q1018 RMK QFE746/0994", "UUBW 221600Z 13001MPS CAVOK 06/03 Q1020 R30/290050 NOSIG", "UUDD 221600Z 19003MPS CAVOK 05/03 Q1020 R14R/CLRD60 NOSIG", "UUDL 221600Z 19001MPS 9999 OVC040 03/01 Q1019 R23/190155 NOSIG RMK QFE756", "UUEE 221600Z 21003MPS 9999 OVC049 05/04 Q1019 R24L/290051 R24C/290051 NOSIG", "UUMO 221600Z 20002MPS CAVOK 06/05 Q1020 R25/CLRD60 NOSIG RMK QFE749/0999", "UUOB 221600Z 16004MPS CAVOK 07/01 Q1022 R11/010070 NOSIG", "UUOK 221600Z 15003MPS 120V180 CAVOK 06/01 Q1021 R30/090060 NOSIG RMK QFE747/0996", "UUOL 221600Z 19003MPS 9999 OVC017 05/04 Q1023 R15/090060 NOSIG", "UUOO 221600Z 21001MPS CAVOK 06/02 Q1023 R30/010070 NOSIG RMK QFE754", "UUWW 221600Z 18003MPS 9999 BKN048 05/03 Q1019 R24/000070 NOSIG", "UUYY 221600Z 25003MPS 9999 FEW040 M01/M04 Q1015 R18/19//55 NOSIG RMK QFE753/1004", "UWGG 221600Z 18002MPS CAVOK 03/00 Q1021 R36R/090060 NOSIG", "UWKD 221600Z 24002MPS CAVOK M00/M05 Q1023 R29/60D NOSIG RMK QFE756/1008", "UWKE 221600Z 28003MPS 9999 SCT040 M00/M06 Q1022 R21/090070 NOSIG RMK QFE750/1000", "UWKS 221600Z 23003MPS CAVOK M01/M05 Q1022 R24/010060 NOSIG RMK QFE752", "UWLL 221600Z 19003MPS CAVOK 00/M03 Q1024 R02/090065 NOSIG RMK QFE755/1007", "UWLW 221600Z 21002MPS CAVOK M01/M04 Q1024 R20/CLRD60 NOSIG RMK QFE762/1017", "UWOO 221600Z 31005MPS CAVOK 01/M04 Q1023 R26/65D NOSIG RMK QFE757/1009", "UWOR 221600Z 29005MPS CAVOK M00/M01 Q1019 R25/290155 NOSIG RMK QFE740/0987", "UWPS 221600Z 22002MPS 180V250 9999 OVC030 03/M00 Q1023 R20/CLRD60 NOSIG RMK QFE749", "UWSG 221600Z 26003MPS 9999 BKN040 05/01 Q1025 R26/CLRD70 NOSIG RMK QFE766/1021", "UWUU 221600Z 30001MPS 9999 OVC033 M01/M06 Q1022 R32L/0///60 NOSIG", "UWWW 221600Z 26002MPS CAVOK 01/M07 Q1024 R33/CLRD60 NOSIG RMK QFE757/1010", "VAAH 221600Z 01004KT 4000 FU NSC 27/13 Q1015 NOSIG", "VAAU 221500Z 00000KT 5000 HZ SCT020 SCT100 21/25 Q1017 NOSIG", "VABB 221600Z 05006KT 4000 FU FEW020 29/16 Q1014 NOSIG", "VABO 221500Z 05004KT 6000 NSC 29/19 Q1015 NOSIG", "VABP 221500Z 35002KT 6000 NSC 22/14 Q1018 NOSIG", "VAID 221530Z 00000KT 5000 HZ NSC 21/11 Q1020 NOSIG", "VAJB 221600Z 10001KT 4000 HZ NSC 22/19 Q1018 NOSIG", "VANP 221600Z 35002KT 3000 HZ NSC 24/16 Q1017 NOSIG", "VAOZ 221500Z VRB02KT 6000 FEW040 20/16 Q1019 NOSIG", "VARK 221500Z 07005KT 6000 FEW020 29/14 Q1015 NOSIG", "VASU 221600Z 07006KT 6000 NSC 29/21 Q1014 NOSIG", "VAUD 221500Z 25003KT 6000 NSC 20/12 Q1019 NOSIG", "VCBI 221510Z 17003KT 140V200 9000 SCT016 25/24 Q1013 NOSIG", "VCRI 221510Z 03004KT 9999 -SHRA SCT018 FEW020CB BKN080 25/25 Q1013 NOSIG RMK NE", "VDPP 221600Z VRB01KT 9000 SCT017 27/25 Q1012", "VDSR 221600Z 36005KT 9999 SCT015 26/24 Q1012", "VDSV 221600Z 06002KT 9000 SCT015 SCT040 25/24 Q1013", "VEBN 221530Z VRB02KT 2500 BR NSC 23/22 Q1016 NOSIG", "VEBS 221600Z 34005KT 3500 HZ FEW020 26/24 Q1013 NOSIG", "VECC 221600Z 34005KT 3500 HZ FEW100 28/24 Q1012 NOSIG", "VEDG 221600Z 350087KT 4500 HZ FEW020 25/19 Q1014 NOSIG", "VEGT 221600Z 00000KT 3000 BR FEW018 24/24 Q1014 NOSIG", "VEGY 221600Z 00000KT 2000 BR NSC 22/21 Q1016", "VEPT 221600Z 00000KT 3000 BR NSC 24/21 Q1014 NOSIG", "VERC 221600Z 34005KT 4000 HZ NSC 22/18 Q1018 NOSIG", "VERP 221600Z 06006KT 5000 HZ NSC 24/19 Q1016 NOSIG", "VGEG 221500Z 00000KT 5000 FEW018 SCT100 30/28 Q1011 NOSIG", "VGHS 221600Z 36003KT 4000 HZ NSC 30/23 Q1012 NOSIG", "VHHH 221600Z 04006KT 9999 FEW040 28/20 Q1015 NOSIG", "VIAR 221600Z 00000KT 3500 BR NSC 20/17 Q1017 NOSIG", "VIDP 221600Z 24002KT 3500 HZ NSC 25/14 Q1017 NOSIG", "VIJP 221600Z VRB03KT 2500 FU NSC 25/09 Q1018 NOSIG", "VILK 221600Z 00000KT 2000 BR NSC 24/23 Q1015 NOSIG", "VMMC 221600Z 24003KT 9999 FEW045 26/20 Q1015 NOSIG", "VNKT 221600Z 00000KT 8000 FEW020 16/10 Q1025 NOSIG", "VOAR 221500Z 05005KT 4500 BR FEW018 BKN100 27/23 Q1013 NOSIG", "VOBG 221600Z 09004KT 6000 SCT012 SCT080 23/20 Q1020 NOSIG", "VOBL 221600Z 01006KT 6000 SCT015 22/20 Q1019 NOSIG", "VOBZ 221600Z 00000KT 5000 HZ SCT020 27/21 Q1013 NOSIG", "VOCB 221600Z VRB03KT 3500 HZ FEW012 26/20 Q1016 NOSIG", "VOCI 221600Z 14003KT 3500 BR SCT015 FEW025CB SCT080 27/26 Q1014 NOSIG", "VOCL 221600Z 31003KT 6000 SCT012 BKN080 25/23 Q1014 NOSIG", "VOGO 221530Z 11005KT 5000 BR FEW012 SCT020 BKN090 25/24 Q1013 NOSIG", "VOHB 221600Z 07006KT 6000 NSC 24/21 Q1018", "VOHS 221600Z VRB04KT 5000 HZ SCT015 22/15 Q1019 NOSIG", "VOHY 221600Z VRB02KT 6000 FEW015 21/15 Q1019 NOSIG", "VOKN 221600Z VRB02KT 5000 BR SCT012 FEW025CB SCT080 28/26 Q1013 TEMPO 3000 BR", "VOMD 221600Z 19005KT 5000 BR FEW020 27/25 Q1014 NOSIG", "VOML 221600Z 00000KT 6000 FEW015 FEW025CB 26/24 Q1014 NOSIG", "VOMM 221600Z 03003KT 4000 -DZ SCT020 FEW025CB BKN100 28/25 Q1013 NOSIG", "VOPB 221600Z 18011KT 5000 BR SCT014 BKN080 27/25 Q1008 TEMPO -RA", "VORY 221600Z 00000KT 6000 FEW020 26/23 Q1013 NOSIG", "VOTP 221600Z 00000KT 4000 HZ SCT020 28/21 Q1014 NOSIG", "VOTR 221600Z 06004KT 2500 BR SCT016 FEW025CB BKN100 26/24 Q1014 TEMPO 2000 -RA", "VOTV 221600Z VRB02KT 3000 BR SCT012 FEW025CB BKN080 27/25 Q1014 TEMPO 2500 -RA BR", "VOVZ 221600Z VRB02KT 4500 HZ FEW018 27/20 Q1012 NOSIG", "VRMG 221600Z 21007KT 9999 FEW018TCU BKN120 27/24 Q1014 TEMPO FEW018CB", "VRMH 221500Z 22005KT 9999 FEW018TCU SCT120 27/25 Q1013", "VRMM 221600Z 24011KT 9999 -SHRA FEW017TCU BKN270 28/25 Q1014 TEMPO FEW018CB", "VTBD 221600Z 32006KT 9999 FEW020 SCT040 25/25 Q1014 RETSRA NOSIG", "VTBS 221600Z VRB02KT 9000 -RA FEW020CB SCT040 BKN100 26/24 Q1014 TEMPO TL1640 4000 TSRA", "VTBU 221600Z 03003KT 6000 FEW020 SCT100 26/23 Q1014 NOSIG", "VTCC 221600Z 23004KT 9999 BKN035 26/23 Q1016 NOSIG", "VTCT 221600Z 00000KT CAVOK 24/23 Q1017 NOSIG", "VTPH 221500Z 23003KT 150V280 9999 FEW030 26/25 Q1013 NOSIG", "VTPP 221500Z 00000KT CAVOK 26/25 Q1014 NOSIG", "VTSB 221500Z 00000KT 6000 -RA SCT018 BKN100 24/24 Q1014 NOSIG", "VTSF 221500Z 35003KT 320V030 6000 -RA FEW016CB BKN018 26/26 Q1014 NOSIG", "VTSG 221600Z 04003KT 350V080 9000 FEW018 SCT100 25/24 Q1014 NOSIG", "VTSM 221500Z VRB02KT 9999 -RA FEW020 26/24 Q1015 NOSIG", "VTSP 221600Z VRB02KT 9999 FEW020 25/24 Q1013 NOSIG", "VTSS 221600Z 00000KT 9999 FEW020 SCT028 BKN100 27/25 Q1014 NOSIG", "VTUD 221500Z VRB01KT 9999 FEW035 BKN080 24/21 Q1016 NOSIG", "VTUI 221500Z 18002KT 9999 FEW045 BKN100 24/22 Q1016 NOSIG", "VTUK 221600Z 01002KT 9000 FEW030 SCT100 25/21 Q1016 NOSIG", "VTUU 221600Z 02006KT CAVOK 25/22 Q1014 NOSIG", "VVCI 221600Z 00000KT 6000 NSC 25/22 Q1016 NOSIG", "VVCR 221600Z 30002KT 9999 FEW015 SCT050 26/24 Q1014 NOSIG", "VVCT 221600Z VRB02KT 9999 FEW013 FEW015CB SCT050 24/24 Q1013 NOSIG CB/N/OVER RWY", "VVDN 221600Z 36003KT 9999 FEW015 BKN050 26/22 Q1015 NOSIG", "VVNB 221600Z VRB01KT CAVOK 24/22 Q1016 NOSIG", "VVPB 221600Z 22004KT 6000 SCT015 BKN040 23/22 Q1016 NOSIG", "VVPQ 221600Z 00000KT 9999 SCT015 26/24 Q1013 NOSIG", "VVTS 221600Z 27003KT 9999 SCT017 SCT050 27/25 Q1013 NOSIG", "VYYY 221600Z 34003KT 6000 SCT015 FEW020CB BKN100 28/25 Q1012 NOSIG", "WAAA 221600Z 14002KT 8000 FEW019 24/23 Q1011 NOSIG", "WADD 221600Z VRB02KT 9999 FEW016 27/25 Q1010 NOSIG", "WADL 221600Z 08003KT 7000 SCT016 26/25 Q1012 NOSIG", "WAHS 221600Z AUTO VRB02KT 8000 OVC024 27/25 Q1011", "WAJJ 221600Z 27002KT 9999 SCT012 26/23 Q1007 NOSIG", "WALL 221600Z 33002KT 6000 SCTY020 25/25 Q1011", "WAMM 221600Z VRB02KT 9999 FEW020 25/24 Q1010 NOSIG", "WAOO 221600Z AUTO 05003KT 1700 BR BKN003 BKN230 OVC250 24/24 Q1011", "WAPP 221600Z 31003KT 9999 FEW015 24/23 Q1011 NOSIG", "WAQQ 221530Z 00000KT 8000 FEW015 27/25 Q1011 NOSIG", "WARR 221600Z VRB01KT 8000 FEW020 28/26 Q1011 NOSIG", "WBGB 221600Z 18003KT 070V230 9999 FEW016 25/24 Q1011", "WBGG 221600Z 00000KT 9999 FEW020 24/23 Q1012 NOSIG", "WBGR 221600Z 13004KT 090V170 9999 SCT014 26/26 Q1012", "WBGS 221600Z VRB01KT 9999 SCT018 25/24 Q1012", "WBGY 221600Z AUTO 00000KT //// // ////// 25/24 Q1011", "WBKK 221600Z 12004KT 070V140 9999 FEW014 26/25 Q1011 NOSIG", "WBKL 221600Z 00000KT 9999 -TSRA SCT007 FEW016CB BKN025 24/24 Q1012 RETSRA", "WBKS 221600Z VRB02KT 9999 FEW015 26/24 Q1011", "WBKT 221600Z VRB01KT 9999 FEW014 25/24 Q1011", "WBKW 221600Z 00000KT 9999 FEW016 25/24 Q1011", "WBSB 221600Z 22002KT 9999 -TSRA FEW003 FEW015CB BKN150 24/24 Q1013 NOSIG", "WIBB 221600Z AUTO 03006KT 9999 ////// 27/24 Q1011", "WIDD 221600Z 36005KT 8000 -RA FEW013CB SCT014 25/24 Q1015 NOSIG RMK CB TO S", "WIEE 221600Z 04002KT 9999 FEW020 25/24 Q1012 NOSIG", "WIII 221600Z 27005KT 6000 BKN020 27/26 Q1012 NOSIG", "WIMM 221600Z 24003KT 6000 SCT017 25/25 Q1013 NOSIG", "WIOO 221600Z AUTO 35002KT 9999 NCD 24/24 Q1012", "WIPP 221600Z 08002KT 9999 FEW010 25/23 Q1012 NOSIG", "WMAU 221600Z 22003KT 140V240 8000 -RA SCT025 24/23 Q1013", "WMBA 221600Z 00000KT 9000 FEW031 27/25 Q1013", "WMKA 221600Z VRB03KT 9999 FEW028 27/24 Q1013", "WMKB 221600Z 08005KT 8000 FEW024 26/23 Q1013 NOSIG", "WMKC 221600Z VRB01KT 9000 -RA FEW010 SCT020 26/25 Q1014", "WMKD 221600Z VRB01KT 8000 -RA FEW005 SCT024 25/24 Q1013 NOSIG", "WMKE 221600Z AUTO 00000KT //// // ////// 25/24 Q1013", "WMKI 221600Z VRB02KT 8000 SCT025 26/24 Q1013", "WMKJ 221600Z VRB03KT 8000 -RA FEW012 24/24 Q1013", "WMKK 221600Z VRB02KT 9000 -RA FEW012 SCT028 25/24 Q1013 NOSIG", "WMKL 221600Z VRB02KT 9999 FEW026 28/26 Q1013", "WMKM 221600Z 03003KT 350V070 9999 -RA FEW008 SCT026 23/23 Q1014", "WMKN 221600Z 35005KT 320V020 9999 -RA FEW010 SCT020 26/24 Q1014", "WMKP 221600Z 04007KT 010V070 8000 FEW025 28/23 Q1013 NOSIG", "WMSA 221600Z VRB02KT 9999 FEW026 27/25 Q1013", "WSAP 221600Z 26001KT 9999 -RA FEW015 BKN160 25/23 Q1013", "WSSL 221600Z 33003KT 270V020 9999 -RA FEW015 BKN170 25/24 Q1013", "WSSS 221600Z 33003KT 280V010 9999 -RA FEW016 BKN160 24/23 Q1013 NOSIG", "YAMB 221519Z AUTO 17008KT 9999 -DZ SCT018 SCT044 BKN076 17/17 Q1010", "YBAS 221600Z AUTO 01006KT 9999 // SCT120 24/11 Q1008 RF00.0/000.0", "YBBN 221600Z 17007KT 4500 RA OVC005 19/18 Q1009 RF00/4/020/4", "YBCG 221612Z AUTO 13017KT 6000 -RA SCT007 BKN016 BKN042 18/18 Q1010 RERA", "YBCS 221600Z AUTO 25001KT 9999 // SCT125 24/23 Q1007", "YBLN 221600Z AUTO 15004KT 9999 // ////// 12/10 Q1013 RF00.0/000.0", "YBRK 221600Z AUTO 00000KT 9999 // SCT110 19/18 Q1008 RF00.0/007.4", "YBRM 221600Z AUTO 27007KT 9999 // NCD 27/22 Q1009 RF00.0/000.0", "YBUD 221558Z AUTO 22009KT 9999 // OVC016 19/18 Q1007", "YBWW 221600Z AUTO 15007KT 9999 // BKN015 OVC120 16/15 Q1010", "YCBP 221601Z AUTO 21012KT 9999 SHRA BKN006 BKN056 OVC068 16/16 Q1012", "YCFS 221609Z AUTO 00000KT 6000 // SCT017 SCT036 SCT043 18/16 Q1013", "YCOM 221611Z AUTO 20007KT 9000 // OVC004 ///// Q1014", "YGEL 221612Z AUTO 13002KT 9999 // SCT016 14/12 Q1012", "YGFN 221607Z AUTO 00000KT 6000 // SCT014 SCT024 BKN047 17/17 Q1013", "YGTH 221558Z AUTO 13004KT 7000 // NCD 14/13 Q1010", "YKRY 221600Z AUTO 17009KT 9999 // OVC007 16/16 Q1010", "YLEC 221513Z AUTO 22015KT 9999 DZ OVC100 18/14 Q1011", "YLHI 221600Z AUTO 07022KT 9999 // BKN020 19/16 Q1017 RF00.0/000.0", "YLIS 221600Z AUTO 20004KT 120V220 9999 -RA SCT010 BKN014 BKN021 18/17 Q1011 RERA", "YMAV 221606Z AUTO 17008KT 9999 // OVC016 13/12 Q1013 RF00.0/001.8", "YMAY 221600Z AUTO 00000KT 0200 // OVC001 15/14 Q1011", "YMDG 221600Z AUTO 03005KT 9999 // OVC019 15/15 Q1012", "YMEN 221600Z AUTO 19009KT 9999 // OVC012 14/14 Q1013", "YMER 221612Z AUTO 00000KT 5000 BR OVC100 15/15 Q1012", "YMHB 221600Z AUTO 19013KT 9999 // OVC058 11/06 Q1016 RF00.0/017.2", "YMLT 221600Z AUTO 15016KT 9999 // OVC055 12/10 Q1014 RF00.0/019.6", "YMML 221600Z 23006KT 9999 OVC010 14/13 Q1013", "YMTG 221600Z AUTO 16009KT 3400 BR OVC006 OVC009 13/12 Q1013", "YNAR 221600Z AUTO 00000KT 0250 FG OVC001 14/14 Q1011", "YPAD 221600Z 12010KT CAVOK 15/10 Q1011", "YPCC 221600Z AUTO 14010KT 9999 // SCT027 26/22 Q1013 RF00.0/000.0", "YPDN 221600Z AUTO 28009KT 9999 // SCT017 29/25 Q1007", "YPKG 221600Z AUTO 09012KT 9999 // BKN018 13/09 Q1016 RF00.0/000.0", "YPLM 221600Z AUTO 24008KT 9999 // NCD 20/17 Q1011 RF00.0/000.0", "YPPD 221600Z AUTO 27012KT 9999 // NCD 24/20 Q1008 RF00.0/000.0", "YPPH 221600Z 21005KT CAVOK 15/12 Q1012", "YPWR 221528Z AUTO 19005KT 9999 // SCT066 SCT089 OVC105 17/15 Q1011", "YPXM 221600Z AUTO 11007KT 0300 -RA OVC002 23/23 Q1014 RF00.2/074.2", "YSCB 221600Z AUTO 01004KT 290V080 9999 // BKN012 BKN053 OVC073 14/14 Q1013", "YSNF 221600Z AUTO 08014KT 9999 // SCT022 17/13 Q1022 RF00.0/007.8", "YSNW 221600Z AUTO 21005KT 9999 -RA SCT003 BKN006 OVC110 17/17 Q1011", "YSSY 221600Z 02009KT 9999 VCSH FEW010 SCT025 BKN100 19/17 Q1011", "YSWG 221600Z AUTO 14005KT 9999 // BKN008 OVC013 16/15 Q1011", "YWGT 221600Z AUTO 05002KT //// // OVC002 15/15 Q1011", "ZBAA 221600Z VRB01MPS CAVOK 07/01 Q1026 NOSIG", "ZBAD 221600Z VRB01MPS CAVOK 07/00 Q1026 NOSIG", "ZBHH 221600Z 08002MPS CAVOK 01/M10 Q1029 NOSIG", "ZBSJ 221600Z 32002MPS 6000 NSC 08/04 Q1026 NOSIG", "ZBTJ 221600Z 16001MPS 7000 NSC 10/09 Q1026 NOSIG", "ZBYN 221600Z 11002MPS CAVOK 05/M02 Q1028 NOSIG", "ZGGG 221600Z 11002MPS CAVOK 23/15 Q1015 NOSIG", "ZGHA 221600Z 03003MPS CAVOK 20/10 Q1021 NOSIG", "ZGKL 221600Z 04005MPS CAVOK 27/13 Q1019 NOSIG", "ZGNN 221600Z VRB01MPS CAVOK 22/20 Q1017 NOSIG", "ZGOW 221600Z 00000MPS 6000 SCT017 BKN050 23/22 Q1016 NOSIG", "ZGSZ 221600Z 21002MPS CAVOK 26/23 Q1015 NOSIG", "ZHCC 221600Z 26001MPS 6000 NSC 13/08 Q1025 NOSIG", "ZHHH 221600Z 02003MPS 330V050 CAVOK 20/08 Q1022 NOSIG", "ZJHK 221600Z 21001MPS 6000 PRFG NSC 21/21 Q1016 NOSIG", "ZJSY 221600Z 01002MPS CAVOK 23/22 Q1015 NOSIG", "ZLLL 221600Z 30002MPS CAVOK 05/M04 Q1032 NOSIG", "ZLXY 221600Z 26002MPS 4200 BR NSC 14/11 Q1027 NOSIG", "ZMCK 221600Z 06004MPS CAVOK M02/M10 Q1026 NOSIG RMK QFE653.3 53", "ZMUB 221600Z 00000MPS CAVOK M07/M11 Q1027 NOSIG RMK QFE661.7 70", "ZPPP 221600Z 03001MPS 9999 BKN040 15/13 Q1031 NOSIG", "ZSAM 221600Z 04002MPS 9999 -RA OVC040 22/21 Q1017 NOSIG", "ZSFZ 221600Z 02006MPS 9999 FEW023 23/18 Q1018 NOSIG", "ZSHC 221600Z 36004MPS 5000 BR SCT040 20/16 Q1021 NOSIG", "ZSNB 221600Z 01002MPS 330V050 8000 SCT016 21/19 Q1021 NOSIG", "ZSNJ 221600Z 23001MPS 4000 BR BKN030 12/12 Q1022 NOSIG", "ZSOF 221600Z 03002MPS 5000 BR NSC 12/11 Q1023 NOSIG", "ZSPD 221600Z 36004MPS 9999 BKN033 19/17 Q1021 NOSIG", "ZSQD 221600Z 33002MPS CAVOK 10/07 Q1026 NOSIG", "ZSSS 221600Z 02004MPS 9999 FEW013 SCT040 19/17 Q1022 NOSIG", "ZUCK 221600Z 02001MPS 7000 NSC 22/13 Q1023 NOSIG", "ZUGY 221600Z 01002MPS 9999 SCT046 18/17 Q1025 NOSIG", "ZUTF 221600Z 00000MPS CAVOK 19/15 Q1023 NOSIG", "ZUUU 221600Z 34001MPS CAVOK 22/14 Q1024 NOSIG", "ZWSH 221600Z AUTO 35003MPS 270V360 7000 // ///////// 12/M04 Q1028", "ZWWW 221600Z 12002MPS CAVOK 09/04 Q1023 NOSIG", "ZYCC 221600Z 21002MPS CAVOK 01/M02 Q1022 NOSIG", "ZYHB 221600Z 21002MPS 4000 FU NSC 02/M03 Q1020 NOSIG", "ZYTL 221600Z 27002MPS CAVOK 08/03 Q1026 NOSIG", "ZYTX 221600Z 14002MPS 120V180 CAVOK 03/M01 Q1024 NOSIG"]}