{"station_id": ["AGGH", "ANYN", "AYMH", "AYNZ", "AYPY", "BGBW", "BGGH", "BGJN", "BGKK", "BGSF", "BGTL", "BIAR", "BIEG", "BIKF", "BIRK", "CAHR", "CBAR", "CBBC", "CERM", "CFOX", "CMFM", "CMGB", "CPBT", "CPEH", "CPFI", "CPIN", "CPIR", "CPRO", "CPRY", "CPST", "CPSV", "CTCK", "CTNK", "CTRA", "CWAF", "CWAJ", "CWAQ", "CWAR", "CWAV", "CWBA", "CWBK", "CWBO", "CWBS", "CWBT", "CWBU", "CWBV", "CWBY", "CWBZ", "CWCF", "CWCJ", "CWCO", "CWCT", "CWDA", "CWDC", "CWDJ", "CWDK", "CWDM", "CWDO", "CWDQ", "CWDV", "CWDZ", "CWEB", "CWEF", "CWEH", "CWEK", "CWEL", "CWEP", "CWEQ", "CWER", "CWEU", "CWEW", "CWEZ", "CWFD", "CWFF", "CWFJ", "CWFQ", "CWGB", "CWGD", "CWGH", "CWGL", "CWGM", "CWGR", "CWGT", "CWGW", "CWGY", "CWHI", "CWHL", "CWHO", "CWHP", "CWHQ", "CWHT", "CWHV", "CWID", "CWIG", "CWIJ", "CWIK", "CWIL", "CWIP", "CWIS", "CWIT", "CWIW", "CWIZ", "CWJB", "CWJC", "CWJD", "CWJH", "CWJI", "CWJO", "CWJR", "CWJT", "CWJU", "CWJV", "CWJW", "CWJX", "CWKG", "CWKH", "CWKK", "CWKM", "CWKO", "CWKP", "CWKX", "CWLC", "CWLE", "CWLI", "CWLM", "CWLS", "CWLX", "CWLY", "CWME", "CWMJ", "CWMM", "CWMQ", "CWMT", "CWNC", "CWND", "CWNE", "CWNH", "CWNK", "CWNM", "CWNP", "CWNQ", "CWNZ", "CWOB", "CWOC", "CWOD", "CWOE", "CWOY", "CWPC", "CWPD", "CWPE", "CWPF", "CWPK", "CWPO", "CWPR", "CWPX", "CWPZ", "CWQH", "CWQK", "CWQO", "CWQP", "CWQR", "CWQS", "CWQV", "CWRA", "CWRH", "CWRJ", "CWRK", "CWRM", "CWRN", "CWRO", "CWRT", "CWRU", "CWRX", "CWRY", "CWRZ", "CWSA", "CWSD", "CWSF", "CWSG", "CWSK", "CWSL", "CWSP", "CWSR", "CWSS", "CWST", "CWTA", "CWTG", "CWTN", "CWTT", "CWTY", "CWUS", "CWUW", "CWUX", "CWVF", "CWVH", "CWVI", "CWVN", "CWVP", "CWVQ", "CWVT", "CWVU", "CWWA", "CWWB", "CWWE", "CWWF", "CWWK", "CWWL", "CWWS", "CWWZ", "CWXA", "CWXC", "CWXI", "CWXL", "CWYJ", "CWYL", "CWYY", "CWZG", "CWZL", "CWZN", "CWZO", "CWZQ", "CWZW", "CXAF", "CXAG", "CXAJ", "CXAK", "CXAT", "CXBA", "CXBI", "CXBK", "CXBO", "CXBR", "CXBW", "CXCA", "CXCD", "CXCK", "CXCP", "CXCS", "CXDB", "CXDE", "CXDI", "CXDK", "CXDW", "CXEA", "CXEC", "CXEG", "CXET", "CXFM", "CXFR", "CXGH", "CXHA", "CXHD", "CXHM", "CXHP", "CXHR", "CXIB", "CXKA", "CXKE", "CXKI", "CXKM", "CXKT", "CXLB", "CXLL", "CXMD", "CXMG", "CXMI", "CXMM", "CXMO", "CXMY", "CXNM", "CXNP", "CXOL", "CXOX", "CXOY", "CXPA", "CXPC", "CXPL", "CXRB", "CXRH", "CXRL", "CXSC", "CXSE", "CXSH", "CXSL", "CXSP", "CXTD", "CXTH", "CXTN", "CXTO", "CXTP", "CXTV", "CXVM", "CXVN", "CXVW", "CXWM", "CXWN", "CXYH", "CXZC", "CXZV", "CYAH", "CYAM", "CYAT", "CYAY", "CYBC", "CYBG", "CYBK", "CYBQ", "CYBR", "CYBU", "CYBW", "CYBX", "CYCA", "CYCB", "CYCK", "CYCO", "CYCY", "CYDB", "CYDF", "CYDL", "CYDN", "CYDP", "CYDQ", "CYEG", "CYEK", "CYEN", "CYER", "CYET", "CYEV", "CYFB", "CYFC", "CYFS", "CYGL", "CYGV", "CYGW", "CYGX", "CYHD", "CYHE", "CYHK", "CYHM", "CYHU", "CYHY", "CYHZ", "CYIN", "CYIO", "CYIV", "CYJT", "CYKA", "CYKF", "CYKJ", "CYKL", "CYKY", "CYLH", "CYLL", "CYLW", "CYMA", "CYMH", "CYMM", "CYMO", "CYMT", "CYMX", "CYNA", "CYNE", "CYNM", "CYOD", "CYOJ", "CYOO", "CYOW", "CYPA", "CYPD", "CYPE", "CYPH", "CYPL", "CYPO", "CYPQ", "CYPR", "CYPX", "CYPY", "CYQA", "CYQB", "CYQD", "CYQF", "CYQG", "CYQH", "CYQI", "CYQK", "CYQL", "CYQM", "CYQQ", "CYQR", "CYQT", "CYQU", "CYQV", "CYQW", "CYQX", "CYQY", "CYQZ", "CYRB", "CYRJ", "CYRQ", "CYRT", "CYRV", "CYSB", "CYSC", "CYSF", "CYSJ", "CYSM", "CYTE", "CYTH", "CYTL", "CYTR", "CYTS", "CYTZ", "CYUA", "CYUL", "CYUS", "CYUX", "CYUY", "CYVC", "CYVL", "CYVM", "CYVO", "CYVP", "CYVQ", "CYVR", "CYVT", "CYVV", "CYWE", "CYWG", "CYWK", "CYWL", "CYXC", "CYXE", "CYXH", "CYXJ", "CYXL", "CYXR", "CYXS", "CYXT", "CYXU", "CYXX", "CYXY", "CYYB", "CYYC", "CYYD", "CYYE", "CYYF", "CYYG", "CYYH", "CYYJ", "CYYL", "CYYN", "CYYQ", "CYYR", "CYYT", "CYYU", "CYYW", "CYYY", "CYYZ", "CYZE", "CYZF", "CYZH", "CYZP", "CYZR", "CYZS", "CYZT", "CYZV", "CYZX", "CYZY", "CZBF", "CZCP", "CZCR", "CZDB", "CZEL", "CZEV", "CZFS", "CZHY", "CZKD", "CZMD", "CZMJ", "CZOL", "CZPC", "CZRP", "CZSJ", "CZSM", "CZSP", "CZTB", "CZUM", "CZVL", "CZZJ", "DAAG", "DAAP", "DAAT", "DAAY", "DABB", "DABC", "DAON", "DAOO", "DAOR", "DAUE", "DAUH", "DAUK", "DAUO", "DAUT", "DBBB", "DFFD", "DFOO", "DGAA", "DIAP", "DIBK", "DIYO", "DNAA", "DNGO", "DNIL", "DNJO", "DNKA", "DNMM", "DNMN", "DNSO", "DRRM", "DRRN", "DRRT", "DRZA", "DRZR", "DTKA", "DTMB", "DTNH", "DTTA", "DTTB", "DTTD", "DTTF", "DTTG", "DTTJ", "DTTK", "DTTL", "DTTN", "DTTR", "DTTZ", "DXNG", "DXXX", "EBAW", "EBBE", "EBBL", "EBBR", "EBCI", "EBCV", "EBDT", "EBFN", "EBFS", "EBLB", "EBLG", "EBOS", "EDAC", "EDAH", "EDBC", "EDDB", "EDDC", "EDDE", "EDDF", "EDDG", "EDDH", "EDDK", "EDDL", "EDDM", "EDDN", "EDDP", "EDDR", "EDDS", "EDDV", "EDDW", "EDFH", "EDFM", "EDGS", "EDHI", "EDHK", "EDHL", "EDJA", "EDLN", "EDLP", "EDLV", "EDLW", "EDMA", "EDMO", "EDNY", "EDQM", "EDSB", "EDTL", "EDTY", "EDVE", "EDVK", "EDXW", "EEEI", "EEKE", "EEPU", "EETN", "EETU", "EFET", "EFHA", "EFHK", "EFIV", "EFJO", "EFJY", "EFKE", "EFKI", "EFKK", "EFKS", "EFKT", "EFKU", "EFLP", "EFMA", "EFMI", "EFOU", "EFPO", "EFRO", "EFSA", "EFSI", "EFTP", "EFTU", "EFUT", "EFVA", "EGAA", "EGAC", "EGAE", "EGBB", "EGBJ", "EGCC", "EGCK", "EGCN", "EGDM", "EGDR", "EGDY", "EGFF", "EGGD", "EGGP", "EGGW", "EGHH", "EGHI", "EGHQ", "EGJA", "EGJB", "EGJJ", "EGKA", "EGKB", "EGKK", "EGLC", "EGLF", "EGLL", "EGMC", "EGMD", "EGNH", "EGNJ", "EGNM", "EGNR", "EGNS", "EGNT", "EGNV", "EGNX", "EGOM", "EGOP", "EGOS", "EGOV", "EGPA", "EGPB", "EGPC", "EGPD", "EGPE", "EGPF", "EGPH", "EGPI", "EGPK", "EGPL", "EGPN", "EGPO", "EGPU", "EGQK", "EGQL", "EGQM", "EGQS", "EGSH", "EGSS", "EGSY", "EGTC", "EGTE", "EGTK", "EGUB", "EGUL", "EGUN", "EGUW", "EGVN", "EGVO", "EGVP", "EGWC", "EGWU", "EGXC", "EGXE", "EGXP", "EGXS", "EGXT", "EGXV", "EGXW", "EGXZ", "EGYD", "EGYE", "EGYH", "EGYM", "EGYP", "EHAK", "EHAM", "EHBK", "EHDL", "EHDV", "EHEH", "EHFD", "EHFS", "EHGG", "EHGR", "EHHW", "EHJA", "EHJR", "EHKD", "EHKV", "EHLE", "EHLW", "EHMA", "EHMG", "EHPG", "EHQE", "EHRD", "EHSA", "EHSC", "EHVK", "EHVL", "EHWO", "EICK", "EIDW", "EIKN", "EIKY", "EIME", "EINN", "EISG", "EIWF", "EKAH", "EKBI", "EKCH", "EKEB", "EKKA", "EKOD", "EKRK", "EKRN", "EKSB", "EKSP", "EKVD", "EKVG", "EKYT", "ELLX", "ENAL", "ENAN", "ENAT", "ENBN", "ENBO", "ENBR", "ENBS", "ENBV", "ENCN", "ENDR", "ENDU", "ENEV", "ENFB", "ENFL", "ENGC", "ENGM", "ENHD", "ENHE", "ENHF", "ENHK", "ENHM", "ENHV", "ENJS", "ENKB", "ENKR", "ENLA", "ENLE", "ENMH", "ENML", "ENMS", "ENNA", "ENNE", "ENNM", "ENOA", "ENOL", "ENOV", "ENQA", "ENQR", "ENRA", "ENRM", "ENRO", "ENRS", "ENRY", "ENSB", "ENSD", "ENSE", "ENSF", "ENSK", "ENSL", "ENSR", "ENSS", "ENTC", "ENTO", "ENUG", "ENVA", "ENVD", "ENWV", "ENZV", "EPBY", "EPGD", "EPKK", "EPKT", "EPLB", "EPLL", "EPMO", "EPPO", "EPRZ", "EPSC", "EPSY", "EPWA", "EPWR", "EPZG", "ESCF", "ESCM", "ESDF", "ESGG", "ESGJ", "ESGP", "ESGT", "ESIA", "ESIB", "ESKM", "ESKN", "ESKS", "ESMK", "ESMQ", "ESMS", "ESMT", "ESMV", "ESMX", "ESND", "ESNG", "ESNK", "ESNL", "ESNN", "ESNO", "ESNQ", "ESNS", "ESNU", "ESNV", "ESNX", "ESNZ", "ESOE", "ESOH", "ESOK", "ESOW", "ESPA", "ESPE", "ESSA", "ESSB", "ESSD", "ESSL", "ESSP", "ESST", "ESSV", "ESTA", "ESTL", "ESUP", "ESUT", "ETAD", "ETAR", "ETEB", "ETGG", "ETHA", "ETHB", "ETHC", "ETHF", "ETHL", "ETHN", "ETHS", "ETIC", "ETIH", "ETIK", "ETMN", "ETNH", "ETNL", "ETNN", "ETNS", "ETNT", "ETNW", "ETOU", "ETSB", "ETSH", "ETSI", "ETSL", "ETSN", "ETWM", "EVLA", "EVRA", "EVVA", "EYKA", "EYPA", "EYSA", "EYVI", "FABL", "FACT", "FAEL", "FAGG", "FAKN", "FALA", "FALE", "FALW", "FAOR", "FAPE", "FAPP", "FAUP", "FBKE", "FBMN", "FBPM", "FBSK", "FCBB", "FCPP", "FDBB", "FDMY", "FDOT", "FDPP", "FDSK", "FDST", "FEFF", "FEFT", "FGBT", "FGSL", "FIMP", "FJDG", "FKKD", "FKKR", "FKYS", "FMCH", "FMCZ", "FMEE", "FMEP", "FMMI", "FMMT", "FMNM", "FMNN", "FMSD", "FNDU", "FNLU", "FNSA", "FNUB", "FNUE", "FOGM", "FOGR", "FOOB", "FOOG", "FOOL", "FOON", "FQBR", "FQCH", "FQIN", "FQLC", "FQMA", "FQNP", "FQPB", "FQTT", "FQXA", "FSIA", "FTTA", "FTTJ", "FWCL", "FYGF", "FYKM", "FYLZ", "FYRU", "FYWB", "FYWE", "FYWH", "FYWW", "FZAA", "GABS", "GAKD", "GAMB", "GBYD", "GCFV", "GCLA", "GCLP", "GCRR", "GCTS", "GCXO", "GECE", "GEML", "GFLL", "GGOV", "GLRB", "GMAD", "GMAT", "GMFF", "GMFK", "GMFO", "GMME", "GMMI", "GMMN", "GMMW", "GMMX", "GMMZ", "GMTA", "GMTN", "GMTT", "GOBD", "GOGG", "GOGK", "GOGS", "GOOD", "GOOG", "GOOY", "GOSM", "GOSP", "GOSS", "GQNO", "GQPP", "GVAC", "GVBA", "GVNP", "GVSV", "HCMF", "HCMM", "HEAT", "HEAX", "HEBA", "HEBL", "HECA", "HECP", "HEGN", "HEIS", "HELX", "HEMA", "HEMM", "HEPS", "HESG", "HESH", "HESN", "HESW", "HETR", "HKEL", "HKJK", "HKKI", "HKML", "HKMO", "HKNW", "HKWJ", "HRYR", "HRZA", "HTDA", "HTKJ", "HTMW", "HTZA", "HUEN", "K04V", "K04W", "K05U", "K06C", "K06D", "K08D", "K0A0", "K0A9", "K0CO", "K0E0", "K0F2", "K0R0", "K0R4", "K0S9", "K0VG", "K10G", "K11R", "K12N", "K13K", "K14Y", "K15M", "K17J", "K18A", "K18H", "K19S", "K1A6", "K1A9", "K1AM", "K1AW", "K1BM", "K1BW", "K1CM", "K1CW", "K1D1", "K1DM", "K1DW", "K1EW", "K1F0", "K1FM", "K1FW", "K1H2", "K1HM", "K1HW", "K1IM", "K1IW", "K1JM", "K1JW", "K1K1", "K1KM", "K1KW", "K1LM", "K1M4", "K1M5", "K1MM", "K1MW", "K1NM", "K1OM", "K1P1", "K1R7", "K1R8", "K1S3", "K1U7", "K1V4", "K1V6", "K1YT", "K20U", "K20V", "K21D", "K22N", "K24A", "K24J", "K27K", "K28J", "K2A0", "K2C8", "K2D5", "K2DP", "K2G2", "K2G9", "K2J3", "K2J5", "K2J9", "K2M2", "K2P2", "K2R9", "K2V5", "K2W6", "K2WX", "K33N", "K33V", "K35A", "K36K", "K38S", "K3AU", "K3D2", "K3F3", "K3J7", "K3K3", "K3LF", "K3N8", "K3S8", "K3U3", "K40B", "K40U", "K41U", "K42J", "K46D", "K46U", "K48A", "K49A", "K4A6", "K4A9", "K4BM", "K4F2", "K4I3", "K4M9", "K4MR", "K4O4", "K4R5", "K4S1", "K4S2", "K4V0", "K4V1", "K54A", "K54J", "K57C", "K5C1", "K5H4", "K5M9", "K5R8", "K5SM", "K5T9", "K63S", "K65S", "K66R", "K6A2", "K6B0", "K6B9", "K6I2", "K6L4", "K6P9", "K6R6", "K6S0", "K6S2", "K6S8", "K74V", "K79J", "K79S", "K7BM", "K7L2", "K7N0", "K7W4", "K81R", "K82C", "K82V", "K8A0", "K8A3", "K8D3", "K8T6", "K8W2", "K96D", "K9A5", "K9D7", "K9L2", "K9MN", "K9V9", "KAAA", "KAAF", "KAAO", "KAAS", "KAAT", "KABE", "KABH", "KABI", "KABQ", "KABR", "KABY", "KACB", "KACJ", "KACK", "KACP", "KACQ", "KACT", "KACV", "KACY", "KADC", "KADF", "KADG", "KADH", "KADM", "KADS", "KADT", "KADU", "KADW", "KAEG", "KAEJ", "KAEL", "KAEX", "KAFF", "KAFJ", "KAFK", "KAFN", "KAFO", "KAFP", "KAFW", "KAGC", "KAGI", "KAGO", "KAGS", "KAHN", "KAHQ", "KAIA", "KAID", "KAIG", "KAIK", "KAIO", "KAIT", "KAIZ", "KAJG", "KAJO", "KAJR", "KAJZ", "KAKH", "KAKO", "KAKQ", "KAKR", "KALB", "KALI", "KALK", "KALM", "KALN", "KALO", "KALS", "KALW", "KALX", "KAMA", "KAMG", "KAMN", "KAMW", "KANB", "KAND", "KANE", "KANJ", "KANK", "KANQ", "KANW", "KAOH", "KAOO", "KAPA", "KAPC", "KAPF", "KAPN", "KAPS", "KAQO", "KAQP", "KAQV", "KAQW", "KAQX", "KARA", "KARB", "KARG", "KARM", "KARR", "KART", "KARV", "KARW", "KASD", "KASE", "KASH", "KASJ", "KASL", "KASN", "KAST", "KASW", "KASX", "KATA", "KATL", "KATP", "KATS", "KATT", "KATY", "KAUG", "KAUH", "KAUM", "KAUN", "KAUO", "KAUS", "KAUW", "KAVC", "KAVK", "KAVL", "KAVP", "KAVQ", "KAVX", "KAWG", "KAWM", "KAWO", "KAXA", "KAXH", "KAXN", "KAXS", "KAXV", "KAXX", "KAYS", "KAZC", "KAZE", "KAZO", "KBAB", "KBAC", "KBAD", "KBAF", "KBAM", "KBAN", "KBAX", "KBAZ", "KBBB", "KBBD", "KBBG", "KBBP", "KBBW", "KBCB", "KBCE", "KBCK", "KBCR", "KBDE", "KBDG", "KBDH", "KBDL", "KBDN", "KBDR", "KBDU", "KBEA", "KBEC", "KBED", "KBEH", "KBFD", "KBFF", "KBFI", "KBFL", "KBFM", "KBGD", "KBGE", "KBGF", "KBGM", "KBGR", "KBHB", "KBHC", "KBHK", "KBHM", "KBID", "KBIE", "KBIF", "KBIH", "KBIJ", "KBIL", "KBIS", "KBIV", "KBIX", "KBJC", "KBJI", "KBJJ", "KBKB", "KBKD", "KBKE", "KBKF", "KBKL", "KBKS", "KBKT", "KBKV", "KBKW", "KBKX", "KBLF", "KBLH", "KBLI", "KBLM", "KBLU", "KBLV", "KBMC", "KBMG", "KBMI", "KBML", "KBMQ", "KBMT", "KBNA", "KBNL", "KBNO", "KBNW", "KBOI", "KBOK", "KBOS", "KBOW", "KBPC", "KBPG", "KBPI", "KBPK", "KBPT", "KBQK", "KBQP", "KBQX", "KBRD", "KBRG", "KBRL", "KBRO", "KBRY", "KBTA", "KBTL", "KBTN", "KBTP", "KBTR", "KBTV", "KBUF", "KBUR", "KBUU", "KBUY", "KBVI", "KBVN", "KBVO", "KBVS", "KBVU", "KBVX", "KBVY", "KBWG", "KBWI", "KBWP", "KBWW", "KBXA", "KBXK", "KBYG", "KBYI", "KBYL", "KBYS", "KBYY", "KBZN", "KC07", "KC09", "KC29", "KC35", "KC65", "KC75", "KC83", "KC99", "KCAD", "KCAE", "KCAG", "KCAK", "KCAO", "KCAR", "KCAV", "KCBE", "KCBF", "KCBG", "KCBK", "KCBM", "KCCA", "KCCB", "KCCO", "KCCR", "KCCU", "KCCY", "KCDA", "KCDC", "KCDD", "KCDH", "KCDI", "KCDJ", "KCDN", "KCDR", "KCDS", "KCDW", "KCEC", "KCEF", "KCEU", "KCEW", "KCEY", "KCEZ", "KCFD", "KCFE", "KCFJ", "KCFO", "KCFS", "KCFV", "KCGC", "KCGE", "KCGF", "KCGI", "KCGZ", "KCHA", "KCHK", "KCHO", "KCHS", "KCIC", "KCID", "KCIN", "KCIR", "KCIU", "KCJR", "KCKB", "KCKC", "KCKF", "KCKI", "KCKM", "KCKN", "KCKP", "KCKV", "KCKZ", "KCLE", "KCLI", "KCLK", "KCLL", "KCLM", "KCLS", "KCLT", "KCLW", "KCMA", "KCMD", "KCMH", "KCMI", "KCMR", "KCMX", "KCMY", "KCNB", "KCNC", "KCNI", "KCNK", "KCNM", "KCNO", "KCNU", "KCNY", "KCOD", "KCOE", "KCOF", "KCOM", "KCON", "KCOQ", "KCOS", "KCOT", "KCOU", "KCPC", "KCPK", "KCPR", "KCPS", "KCPT", "KCPU", "KCPW", "KCQB", "KCQC", "KCQF", "KCQM", "KCQT", "KCQW", "KCQX", "KCRE", "KCRG", "KCRP", "KCRQ", "KCRS", "KCRW", "KCRX", "KCSG", "KCSM", "KCSQ", "KCSV", "KCTB", "KCTJ", "KCTY", "KCTZ", "KCUB", "KCUH", "KCUL", "KCUT", "KCVC", "KCVG", "KCVH", "KCVN", "KCVO", "KCVS", "KCVX", "KCWA", "KCWC", "KCWF", "KCWI", "KCWN", "KCWV", "KCXE", "KCXO", "KCXP", "KCXU", "KCXW", "KCXY", "KCYD", "KCYS", "KCZL", "KCZT", "KD07", "KD25", "KD39", "KD50", "KD55", "KD57", "KD60", "KD73", "KD95", "KDAA", "KDAB", "KDAG", "KDAL", "KDAN", "KDAW", "KDAY", "KDBN", "KDBQ", "KDCA", "KDCM", "KDCU", "KDCY", "KDDC", "KDDH", "KDEC", "KDED", "KDEH", "KDEN", "KDEQ", "KDET", "KDEW", "KDFI", "KDFW", "KDGW", "KDHN", "KDHT", "KDIJ", "KDIK", "KDKB", "KDKK", "KDKR", "KDKX", "KDLF", "KDLH", "KDLN", "KDLO", "KDLS", "KDLZ", "KDMA", "KDMH", "KDMN", "KDMO", "KDMW", "KDNA", "KDNL", "KDNN", "KDNV", "KDOV", "KDPA", "KDPL", "KDQH", "KDRA", "KDRI", "KDRM", "KDRO", "KDRT", "KDSF", "KDSM", "KDSV", "KDTA", "KDTL", "KDTN", "KDTO", "KDTS", "KDTW", "KDUA", "KDUB", "KDUC", "KDUH", "KDUJ", "KDUX", "KDVK", "KDVL", "KDVN", "KDVO", "KDVP", "KDVT", "KDWA", "KDWH", "KDWU", "KDWX", "KDXR", "KDXX", "KDYA", "KDYB", "KDYL", "KDYR", "KDYS", "KDYT", "KDZB", "KDZJ", "KE11", "KE16", "KE38", "KE41", "KE42", "KEAN", "KEAR", "KEAT", "KEAU", "KEBA", "KEBG", "KEBS", "KECG", "KECP", "KECS", "KECU", "KEDE", "KEDJ", "KEDN", "KEDU", "KEDW", "KEED", "KEEN", "KEEO", "KEET", "KEFK", "KEGE", "KEGT", "KEGV", "KEHA", "KEHO", "KEHR", "KEIK", "KEKM", "KEKN", "KEKO", "KEKQ", "KEKS", "KEKX", "KEKY", "KELA", "KELD", "KELK", "KELM", "KELN", "KELO", "KELP", "KELY", "KELZ", "KEMM", "KEMP", "KEND", "KENV", "KENW", "KEOE", "KEPH", "KEQA", "KEQY", "KERI", "KERV", "KERY", "KESC", "KESF", "KESN", "KEST", "KETB", "KETC", "KETH", "KETN", "KEUF", "KEUG", "KEVM", "KEVU", "KEVV", "KEVW", "KEWB", "KEWK", "KEWN", "KEWR", "KEXX", "KEYE", "KEYF", "KEYW", "KEZF", "KEZM", "KEZZ", "KF00", "KF05", "KF17", "KF44", "KF46", "KF70", "KFAF", "KFAM", "KFAR", "KFAT", "KFAY", "KFBG", "KFBL", "KFCI", "KFCM", "KFCS", "KFDK", "KFDR", "KFDW", "KFDY", "KFEP", "KFET", "KFFC", "KFFL", "KFFM", "KFFO", "KFFT", "KFFX", "KFFZ", "KFGN", "KFGX", "KFHB", "KFHR", "KFHU", "KFIG", "KFIN", "KFIT", "KFKA", "KFKL", "KFKN", "KFKR", "KFKS", "KFLD", "KFLG", "KFLL", "KFLO", "KFLP", "KFLY", "KFME", "KFMH", "KFMM", "KFMN", "KFMY", "KFNB", "KFNL", "KFNT", "KFOA", "KFOD", "KFOE", "KFOK", "KFOT", "KFOZ", "KFPK", "KFPR", "KFPY", "KFQD", "KFRG", "KFRH", "KFRI", "KFRM", "KFRR", "KFSD", "KFSE", "KFSI", "KFSK", "KFSM", "KFSO", "KFST", "KFSW", "KFTK", "KFTN", "KFTW", "KFTY", "KFUL", "KFVE", "KFVX", "KFWA", "KFWB", "KFWC", "KFWN", "KFWS", "KFWZ", "KFXE", "KFXY", "KFYE", "KFYG", "KFYJ", "KFYM", "KFYV", "KFZG", "KGAD", "KGAG", "KGAI", "KGAO", "KGBD", "KGBG", "KGBK", "KGCC", "KGCD", "KGCK", "KGCM", "KGCN", "KGCY", "KGDB", "KGDJ", "KGDP", "KGDV", "KGED", "KGEG", "KGEV", "KGEY", "KGEZ", "KGFA", "KGFK", "KGFL", "KGGE", "KGGF", "KGGG", "KGGI", "KGGP", "KGGW", "KGHB", "KGHG", "KGHW", "KGIC", "KGIF", "KGJT", "KGKJ", "KGKT", "KGKY", "KGLD", "KGLE", "KGLH", "KGLR", "KGLS", "KGLW", "KGLX", "KGLY", "KGMJ", "KGMU", "KGNA", "KGNB", "KGNC", "KGNG", "KGNR", "KGNT", "KGNV", "KGOK", "KGON", "KGOO", "KGOP", "KGOV", "KGPC", "KGPI", "KGPM", "KGPT", "KGPZ", "KGRB", "KGRD", "KGRF", "KGRI", "KGRK", "KGRN", "KGRR", "KGRY", "KGSB", "KGSH", "KGSO", "KGSP", "KGTB", "KGTF", "KGTR", "KGTU", "KGUC", "KGUP", "KGUS", "KGUY", "KGVL", "KGVQ", "KGVT", "KGVW", "KGWB", "KGWO", "KGWR", "KGWW", "KGXF", "KGXY", "KGYB", "KGYF", "KGYH", "KGYI", "KGYL", "KGYY", "KGZH", "KGZL", "KGZN", "KGZS", "KH71", "KHAE", "KHAF", "KHAI", "KHAO", "KHBG", "KHBI", "KHBR", "KHBV", "KHCD", "KHCO", "KHCR", "KHDC", "KHDE", "KHDL", "KHDN", "KHDO", "KHEF", "KHEG", "KHEI", "KHEQ", "KHEY", "KHEZ", "KHFD", "KHFF", "KHFJ", "KHFY", "KHGR", "KHHF", "KHHG", "KHHR", "KHHV", "KHHW", "KHIB", "KHIE", "KHIF", "KHII", "KHIO", "KHJH", "KHJO", "KHKA", "KHKS", "KHKY", "KHLB", "KHLC", "KHLG", "KHLN", "KHLR", "KHLX", "KHMN", "KHMP", "KHMT", "KHMZ", "KHNB", "KHND", "KHNR", "KHOB", "KHOE", "KHON", "KHOP", "KHOT", "KHOU", "KHPN", "KHPT", "KHQG", "KHQG", "KHQM", "KHQU", "KHQZ", "KHRF", "KHRI", "KHRJ", "KHRL", "KHRO", "KHRT", "KHRX", "KHSB", "KHSD", "KHSE", "KHSG", "KHSI", "KHSP", "KHST", "KHSV", "KHTL", "KHTS", "KHUF", "KHUL", "KHUM", "KHUT", "KHVE", "KHVN", "KHVR", "KHVS", "KHWD", "KHWO", "KHWV", "KHWY", "KHXD", "KHYA", "KHYI", "KHYR", "KHYS", "KHYW", "KHYX", "KHZD", "KHZE", "KHZL", "KHZR", "KHZX", "KHZY", "KI23", "KI35", "KI63", "KI67", "KI68", "KI69", "KI74", "KI75", "KIAB", "KIAD", "KIAG", "KIAH", "KIBM", "KICL", "KICR", "KICT", "KIDA", "KIDI", "KIDP", "KIEN", "KIER", "KIFA", "KIFP", "KIGM", "KIGQ", "KIIB", "KIIY", "KIJD", "KIJX", "KIKK", "KIKV", "KIKW", "KILE", "KILG", "KILM", "KILN", "KIML", "KIMS", "KIMT", "KIND", "KINF", "KINJ", "KINK", "KINL", "KINS", "KINT", "KINW", "KIOB", "KIOW", "KIPJ", "KIPT", "KIRK", "KIRS", "KISM", "KISO", "KISP", "KISQ", "KISW", "KITH", "KITR", "KIUA", "KIWA", "KIWD", "KIWI", "KIXA", "KIXD", "KIYA", "KIZA", "KIZG", "KJAC", "KJAN", "KJAQ", "KJAS", "KJAU", "KJAX", "KJBR", "KJCA", "KJCT", "KJDD", "KJDN", "KJEF", "KJER", "KJES", "KJFK", "KJFX", "KJFZ", "KJHN", "KJHW", "KJKA", "KJKJ", "KJKL", "KJLN", "KJMR", "KJMS", "KJNX", "KJOT", "KJPX", "KJQF", "KJRB", "KJRO", "KJSL", "KJSO", "KJST", "KJSY", "KJTC", "KJVL", "KJVW", "KJVY", "KJWG", "KJWN", "KJWY", "KJXN", "KJYG", "KJYL", "KJYM", "KJYO", "KJYR", "KJZI", "KK62", "KK70", "KK88", "KKLS", "KKY8", "KL08", "KL18", "KL35", "KL52", "KLAA", "KLAF", "KLAL", "KLAM", "KLAN", "KLAR", "KLAS", "KLAW", "KLAX", "KLBB", "KLBE", "KLBF", "KLBL", "KLBO", "KLBT", "KLBX", "KLCG", "KLCH", "KLCI", "KLCK", "KLCQ", "KLDJ", "KLDM", "KLEB", "KLEE", "KLEW", "KLEX", "KLFI", "KLFK", "KLFT", "KLGA", "KLGB", "KLGC", "KLGD", "KLGF", "KLGU", "KLHB", "KLHM", "KLHQ", "KLHW", "KLHX", "KLHZ", "KLIC", "KLIT", "KLJF", "KLKR", "KLKU", "KLKV", "KLLJ", "KLLN", "KLLQ", "KLMO", "KLMT", "KLNA", "KLNC", "KLND", "KLNK", "KLNL", "KLNN", "KLNP", "KLNQ", "KLNR", "KLNS", "KLOL", "KLOM", "KLOR", "KLOT", "KLOU", "KLOZ", "KLPC", "KLPR", "KLQK", "KLRD", "KLRF", "KLRJ", "KLRO", "KLRU", "KLRY", "KLSE", "KLSF", "KLSV", "KLTS", "KLUA", "KLUD", "KLUF", "KLUG", "KLUK", "KLUL", "KLUM", "KLUV", "KLUX", "KLVJ", "KLVK", "KLVL", "KLVM", "KLVN", "KLVS", "KLWA", "KLWB", "KLWC", "KLWD", "KLWM", "KLWS", "KLWV", "KLXL", "KLXN", "KLXT", "KLXV", "KLXY", "KLYH", "KLYO", "KLYV", "KLZU", "KLZZ", "KM01", "KM02", "KM04", "KM08", "KM19", "KM21", "KM30", "KM40", "KM54", "KM75", "KM91", "KMAE", "KMAF", "KMAI", "KMAN", "KMAO", "KMAW", "KMBG", "KMBL", "KMBO", "KMBS", "KMBT", "KMBY", "KMCB", "KMCC", "KMCD", "KMCE", "KMCF", "KMCI", "KMCK", "KMCN", "KMCO", "KMCW", "KMDD", "KMDH", "KMDQ", "KMDS", "KMDT", "KMDW", "KMDZ", "KMEB", "KMEH", "KMEI", "KMEM", "KMER", "KMEV", "KMEZ", "KMFD", "KMFE", "KMFI", "KMFR", "KMFV", "KMGC", "KMGE", "KMGG", "KMGJ", "KMGM", "KMGN", "KMGR", "KMGW", "KMGY", "KMHE", "KMHK", "KMHL", "KMHP", "KMHR", "KMHS", "KMHT", "KMHV", "KMIA", "KMIB", "KMIC", "KMIE", "KMIO", "KMIV", "KMIW", "KMJD", "KMJQ", "KMKC", "KMKE", "KMKG", "KMKJ", "KMKL", "KMKN", "KMKO", "KMKS", "KMKT", "KMKY", "KMLB", "KMLC", "KMLE", "KMLF", "KMLI", "KMLJ", "KMLP", "KMLS", "KMLT", "KMLU", "KMMH", "KMMI", "KMMK", "KMML", "KMMT", "KMMU", "KMNE", "KMNH", "KMNI", "KMNM", "KMNN", "KMNV", "KMNZ", "KMOB", "KMOD", "KMOP", "KMOR", "KMOT", "KMOX", "KMPO", "KMPR", "KMPV", "KMPZ", "KMQB", "KMQI", "KMQS", "KMQW", "KMQY", "KMRB", "KMRC", "KMRF", "KMRH", "KMRJ", "KMRN", "KMRT", "KMRY", "KMSL", "KMSN", "KMSO", "KMSP", "KMSS", "KMSV", "KMSY", "KMTC", "KMTH", "KMTJ", "KMTK", "KMTN", "KMTO", "KMTP", "KMTV", "KMTW", "KMUI", "KMUO", "KMUT", "KMVE", "KMVH", "KMVL", "KMVN", "KMVY", "KMWA", "KMWC", "KMWH", "KMWK", "KMWL", "KMWM", "KMWN", "KMWO", "KMWT", "KMXF", "KMYF", "KMYJ", "KMYL", "KMYP", "KMYR", "KMYV", "KMYZ", "KMZH", "KMZZ", "KN03", "KN38", "KN60", "KNAK", "KNBC", "KNBG", "KNBT", "KNCA", "KNDZ", "KNEL", "KNEW", "KNFE", "KNFG", "KNFL", "KNFW", "KNGP", "KNGU", "KNHK", "KNID", "KNIP", "KNJK", "KNJM", "KNJW", "KNKT", "KNKX", "KNLC", "KNMM", "KNOG", "KNOW", "KNOZ", "KNPA", "KNQA", "KNQI", "KNQX", "KNRB", "KNRN", "KNRS", "KNSE", "KNSI", "KNTD", "KNTU", "KNUC", "KNUI", "KNUQ", "KNUW", "KNXF", "KNXP", "KNY0", "KNYC", "KNYG", "KNYL", "KNZY", "KO05", "KO22", "KO32", "KO69", "KOAJ", "KOAK", "KOAR", "KOBE", "KOCF", "KOCH", "KOCQ", "KOCW", "KODO", "KODX", "KOEB", "KOEL", "KOEO", "KOFF", "KOFK", "KOFP", "KOGA", "KOGB", "KOGD", "KOGS", "KOIC", "KOIN", "KOJA", "KOJC", "KOKB", "KOKC", "KOKK", "KOKM", "KOKV", "KOKZ", "KOLE", "KOLF", "KOLG", "KOLM", "KOLS", "KOLU", "KOLV", "KOLY", "KOLZ", "KOMA", "KOMH", "KOMK", "KONA", "KONL", "KONM", "KONO", "KONT", "KONX", "KONZ", "KOOA", "KOPF", "KOPL", "KOPN", "KOQN", "KOQT", "KORB", "KORD", "KORE", "KORF", "KORG", "KORH", "KORL", "KORS", "KOSA", "KOSC", "KOSH", "KOSU", "KOTG", "KOTH", "KOTM", "KOUN", "KOVE", "KOVL", "KOVS", "KOWA", "KOWB", "KOWD", "KOWP", "KOWX", "KOXC", "KOXD", "KOXI", "KOXR", "KOXV", "KOZA", "KOZR", "KOZS", "KOZW", "KP08", "KP28", "KP53", "KP58", "KP59", "KP60", "KP68", "KP69", "KPAE", "KPAH", "KPAM", "KPAN", "KPBF", "KPBG", "KPBH", "KPBI", "KPBX", "KPCD", "KPCM", "KPCW", "KPCZ", "KPDK", "KPDT", "KPDX", "KPEA", "KPEO", "KPEQ", "KPEX", "KPEZ", "KPGA", "KPGD", "KPGV", "KPHD", "KPHF", "KPHL", "KPHN", "KPHP", "KPHT", "KPHX", "KPIA", "KPIB", "KPIE", "KPIH", "KPIL", "KPIM", "KPIR", "KPIT", "KPKB", "KPKD", "KPKV", "KPLN", "KPLR", "KPLU", "KPMD", "KPMH", "KPMP", "KPMU", "KPMV", "KPNA", "KPNC", "KPNE", "KPNM", "KPNS", "KPNT", "KPOB", "KPOE", "KPOF", "KPOU", "KPOV", "KPOY", "KPPA", "KPPF", "KPPO", "KPPQ", "KPQI", "KPQL", "KPRB", "KPRC", "KPRG", "KPRN", "KPRO", "KPRS", "KPRX", "KPSC", "KPSF", "KPSK", "KPSM", "KPSN", "KPSO", "KPSP", "KPSX", "KPTB", "KPTD", "KPTK", "KPTN", "KPTS", "KPTT", "KPTV", "KPTW", "KPUB", "KPUC", "KPUJ", "KPUW", "KPVB", "KPVC", "KPVD", "KPVF", "KPVG", "KPVJ", "KPVU", "KPVW", "KPWA", "KPWC", "KPWD", "KPWK", "KPWM", "KPWT", "KPXE", "KPYM", "KPYX", "KPZQ", "KPZZ", "KQAZ", "KQBL", "KQD3", "KQEI", "KQEJ", "KQEN", "KQEP", "KQEQ", "KQER", "KQEV", "KQEW", "KQEX", "KQEY", "KQFB", "KQFT", "KQFU", "KQFV", "KQFW", "KQFX", "KQN3", "KQRH", "KQTZ", "KQVF", "KRAC", "KRAL", "KRAP", "KRAS", "KRAW", "KRBD", "KRBG", "KRBL", "KRBO", "KRBW", "KRCA", "KRCE", "KRCM", "KRCR", "KRCV", "KRCX", "KRCZ", "KRDG", "KRDK", "KRDM", "KRDR", "KRDU", "KREG", "KREO", "KRFD", "KRFI", "KRGA", "KRGK", "KRHI", "KRHP", "KRIC", "KRIL", "KRIV", "KRIW", "KRKD", "KRKP", "KRKR", "KRKS", "KRLD", "KRME", "KRMG", "KRMN", "KRMY", "KRNC", "KRND", "KRNH", "KRNM", "KRNO", "KRNP", "KRNT", "KRNV", "KROA", "KROC", "KROG", "KROS", "KROW", "KROX", "KRPD", "KRPH", "KRPJ", "KRPX", "KRQB", "KRQE", "KRQO", "KRRL", "KRRT", "KRSL", "KRSN", "KRST", "KRSV", "KRSW", "KRTN", "KRTS", "KRUE", "KRUG", "KRUQ", "KRUT", "KRVF", "KRVJ", "KRVL", "KRVS", "KRWF", "KRWI", "KRWL", "KRWV", "KRXE", "KRYM", "KRYV", "KRYW", "KRYY", "KRZL", "KRZN", "KRZR", "KRZT", "KS21", "KS24", "KS25", "KS32", "KS33", "KS34", "KS39", "KS52", "KS59", "KS71", "KS85", "KSAA", "KSAC", "KSAD", "KSAF", "KSAN", "KSAR", "KSAT", "KSAV", "KSAW", "KSAZ", "KSBD", "KSBM", "KSBN", "KSBO", "KSBP", "KSBS", "KSBY", "KSCD", "KSCK", "KSCR", "KSCX", "KSDA", "KSDB", "KSDC", "KSDF", "KSDL", "KSDM", "KSDY", "KSEA", "KSEE", "KSEF", "KSEG", "KSEM", "KSEP", "KSEQ", "KSET", "KSEZ", "KSFB", "KSFF", "KSFM", "KSFO", "KSFQ", "KSFY", "KSFZ", "KSGF", "KSGH", "KSGJ", "KSGR", "KSGS", "KSGT", "KSGU", "KSHD", "KSHL", "KSHN", "KSHR", "KSHV", "KSIF", "KSIK", "KSIY", "KSJC", "KSJS", "KSJT", "KSJX", "KSKA", "KSKF", "KSKX", "KSLB", "KSLC", "KSLE", "KSLG", "KSLH", "KSLI", "KSLK", "KSLN", "KSLO", "KSLR", "KSME", "KSMF", "KSMN", "KSMO", "KSMP", "KSMQ", "KSMS", "KSMX", "KSNA", "KSNC", "KSNH", "KSNK", "KSNL", "KSNS", "KSNT", "KSNY", "KSOA", "KSOP", "KSOW", "KSPA", "KSPB", "KSPD", "KSPF", "KSPG", "KSPI", "KSPS", "KSPW", "KSQI", "KSQL", "KSRB", "KSRC", "KSRE", "KSRQ", "KSRR", "KSSC", "KSSF", "KSSI", "KSTC", "KSTE", "KSTF", "KSTJ", "KSTK", "KSTL", "KSTP", "KSTS", "KSUA", "KSUE", "KSUN", "KSUS", "KSUT", "KSUU", "KSUX", "KSUZ", "KSVC", "KSVE", "KSVH", "KSVN", "KSWF", "KSWO", "KSWW", "KSXK", "KSXS", "KSXT", "KSXU", "KSYF", "KSYI", "KSYM", "KSYN", "KSYR", "KSZL", "KSZT", "KSZY", "KT20", "KT35", "KT41", "KT69", "KT70", "KT74", "KT78", "KT82", "KT89", "KTAD", "KTAN", "KTAZ", "KTBN", "KTBR", "KTCC", "KTCL", "KTCM", "KTCS", "KTCY", "KTDF", "KTDR", "KTDZ", "KTEB", "KTEW", "KTEX", "KTFP", "KTGI", "KTHA", "KTHV", "KTIF", "KTIK", "KTIP", "KTIW", "KTKC", "KTKI", "KTKV", "KTKX", "KTLH", "KTMB", "KTME", "KTMK", "KTMT", "KTNB", "KTNU", "KTOB", "KTOC", "KTOI", "KTOL", "KTOP", "KTPA", "KTPH", "KTPL", "KTQE", "KTQH", "KTQK", "KTQV", "KTRI", "KTRK", "KTRL", "KTRM", "KTSP", "KTTA", "KTTD", "KTTF", "KTTN", "KTTS", "KTUL", "KTUP", "KTUS", "KTVC", "KTVF", "KTVI", "KTVL", "KTVR", "KTVY", "KTWF", "KTWM", "KTWT", "KTXK", "KTXW", "KTYL", "KTYQ", "KTYR", "KTYS", "KTZR", "KU42", "KU55", "KU68", "KUAO", "KUBE", "KUCP", "KUCY", "KUDG", "KUES", "KUGN", "KUIL", "KUIN", "KUKF", "KUKI", "KUKL", "KUKT", "KULM", "KULS", "KUMP", "KUNI", "KUNO", "KUNU", "KUNV", "KUOX", "KUSE", "KUTA", "KUTS", "KUUU", "KUVA", "KUXL", "KUYF", "KUZA", "KVAD", "KVAF", "KVAY", "KVBG", "KVBT", "KVCB", "KVCT", "KVCV", "KVDF", "KVDI", "KVEL", "KVER", "KVES", "KVGC", "KVGT", "KVHN", "KVIH", "KVIS", "KVJI", "KVKS", "KVLD", "KVLL", "KVNW", "KVNY", "KVOA", "KVOK", "KVPC", "KVPS", "KVPZ", "KVQQ", "KVRB", "KVSF", "KVTA", "KVTI", "KVTN", "KVTP", "KVUJ", "KVUO", "KVVS", "KVVV", "KVWU", "KVYS", "KW22", "KW78", "KW81", "KW99", "KWAL", "KWBF", "KWDG", "KWDR", "KWJF", "KWLD", "KWMC", "KWRB", "KWRI", "KWRL", "KWST", "KWVI", "KWVL", "KWWD", "KWWR", "KX07", "KX26", "KX60", "KXBP", "KXER", "KXIF", "KXLL", "KXMR", "KXNA", "KXNO", "KXNX", "KXSA", "KXVG", "KXWA", "KY19", "KY23", "KY31", "KY49", "KY50", "KY51", "KY63", "KY70", "KYIP", "KYKM", "KYKN", "KYNG", "KZER", "KZPH", "KZZV", "LATI", "LBBG", "LBGO", "LBPD", "LBSF", "LBWN", "LCEN", "LCLK", "LCPH", "LDDU", "LDLO", "LDOS", "LDPL", "LDRI", "LDSP", "LDZA", "LDZD", "LEAB", "LEAG", "LEAL", "LEAM", "LEAO", "LEAS", "LEBA", "LEBB", "LEBG", "LEBL", "LEBR", "LEBT", "LEBZ", "LECH", "LECO", "LECV", "LEDA", "LEGE", "LEGR", "LEGT", "LEHC", "LEIB", "LEJR", "LELC", "LELL", "LELN", "LELO", "LEMD", "LEMG", "LEMH", "LEMI", "LEMO", "LEPA", "LEPP", "LERI", "LERS", "LERT", "LESA", "LESB", "LESO", "LEST", "LESU", "LETL", "LETO", "LETU", "LEVC", "LEVD", "LEVS", "LEVT", "LEVX", "LEXJ", "LEZG", "LEZL", "LFAC", "LFAQ", "LFAT", "LFBA", "LFBC", "LFBD", "LFBE", "LFBF", "LFBG", "LFBH", "LFBI", "LFBL", "LFBM", "LFBO", "LFBP", "LFBT", "LFBU", "LFBX", "LFBY", "LFBZ", "LFCK", "LFCR", "LFGA", "LFGJ", "LFHP", "LFJL", "LFJR", "LFKB", "LFKC", "LFKF", "LFKJ", "LFKS", "LFLB", "LFLC", "LFLH", "LFLL", "LFLN", "LFLP", "LFLS", "LFLU", "LFLV", "LFLW", "LFLX", "LFLY", "LFMC", "LFMD", "LFMH", "LFMI", "LFMK", "LFML", "LFMN", "LFMO", "LFMP", "LFMT", "LFMU", "LFMV", "LFMY", "LFOA", "LFOB", "LFOE", "LFOH", "LFOJ", "LFOK", "LFOP", "LFOT", "LFOV", "LFOZ", "LFPB", "LFPG", "LFPM", "LFPN", "LFPO", "LFPT", "LFPV", "LFQA", "LFQB", "LFQG", "LFQQ", "LFRB", "LFRC", "LFRD", "LFRG", "LFRH", "LFRI", "LFRJ", "LFRK", "LFRL", "LFRM", "LFRN", "LFRO", "LFRQ", "LFRS", "LFRT", "LFRU", "LFRV", "LFRZ", "LFSB", "LFSD", "LFSG", "LFSI", "LFSL", "LFSM", "LFSN", "LFSO", "LFST", "LFSX", "LFTH", "LFTW", "LFVP", "LFYR", "LGAD", "LGAL", "LGAV", "LGBL", "LGEL", "LGHI", "LGIO", "LGIR", "LGKF", "LGKL", "LGKO", "LGKP", "LGKR", "LGKV", "LGKZ", "LGLM", "LGMK", "LGMT", "LGNX", "LGPA", "LGPZ", "LGRP", "LGRX", "LGSA", "LGSK", "LGSM", "LGSO", "LGSR", "LGTS", "LGZA", "LHBP", "LHDC", "LHKE", "LHPA", "LHPP", "LHPR", "LHSM", "LHSN", "LIBA", "LIBC", "LIBD", "LIBF", "LIBG", "LIBN", "LIBP", "LIBQ", "LIBR", "LIBV", "LIBY", "LICA", "LICB", "LICC", "LICD", "LICF", "LICG", "LICJ", "LICR", "LICT", "LICZ", "LIEA", "LIEB", "LIED", "LIEE", "LIEO", "LIMA", "LIMC", "LIME", "LIMF", "LIMG", "LIMJ", "LIMK", "LIML", "LIMP", "LIMS", "LIMU", "LIMW", "LIMZ", "LIPB", "LIPC", "LIPE", "LIPF", "LIPH", "LIPI", "LIPK", "LIPL", "LIPO", "LIPQ", "LIPR", "LIPS", "LIPX", "LIPY", "LIPZ", "LIQC", "LIQN", "LIQO", "LIRA", "LIRE", "LIRF", "LIRI", "LIRK", "LIRM", "LIRN", "LIRP", "LIRQ", "LIRS", "LIRT", "LIRU", "LIRV", "LIRX", "LIRZ", "LIVC", "LIVD", "LIVE", "LIVF", "LIVM", "LIVP", "LIVR", "LIVT", "LJCE", "LJLJ", "LJMB", "LJPZ", "LKCV", "LKKB", "LKKU", "LKKV", "LKLN", "LKMT", "LKNA", "LKPD", "LKPR", "LKTB", "LLBG", "LLER", "LLHA", "LLIB", "LMML", "LOAN", "LOAV", "LOWG", "LOWI", "LOWK", "LOWL", "LOWS", "LOWW", "LOXZ", "LPAZ", "LPBJ", "LPFR", "LPHR", "LPLA", "LPMA", "LPMR", "LPMT", "LPPD", "LPPR", "LPPS", "LPPT", "LQBK", "LQMO", "LQSA", "LQTZ", "LRAR", "LRBC", "LRBM", "LRBO", "LRBS", "LRCK", "LRCL", "LRCT", "LRCV", "LRFT", "LRIA", "LROD", "LROP", "LRSB", "LRSM", "LRSV", "LRTC", "LRTM", "LRTR", "LRTZ", "LSGC", "LSGG", "LSGS", "LSMA", "LSMD", "LSME", "LSMM", "LSMP", "LSZA", "LSZB", "LSZC", "LSZG", "LSZH", "LSZL", "LSZR", "LSZS", "LTAC", "LTAE", "LTAF", "LTAG", "LTAI", "LTAJ", "LTAL", "LTAN", "LTAP", "LTAR", "LTAS", "LTAT", "LTAU", "LTAW", "LTAY", "LTAZ", "LTBA", "LTBD", "LTBF", "LTBH", "LTBJ", "LTBQ", "LTBR", "LTBS", "LTBU", "LTBY", "LTCA", "LTCB", "LTCC", "LTCD", "LTCE", "LTCF", "LTCG", "LTCI", "LTCJ", "LTCK", "LTCL", "LTCM", "LTCN", "LTCO", "LTCP", "LTCR", "LTCS", "LTCT", "LTCU", "LTCV", "LTCW", "LTDA", "LTFB", "LTFC", "LTFD", "LTFE", "LTFG", "LTFH", "LTFJ", "LTFM", "LTFO", "LUKK", "LWSK", "LXGB", "LYBE", "LYNI", "LYPG", "LYTV", "LZIB", "LZKZ", "LZPP", "LZTT", "LZZI", "MDPC", "MDSD", "MDST", "MGGT", "MGPB", "MKJP", "MKJS", "MMAA", "MMAS", "MMCZ", "MMGL", "MMHO", "MMMD", "MMML", "MMMM", "MMMX", "MMMY", "MMMZ", "MMQT", "MMSP", "MMTJ", "MMTO", "MMTP", "MMUN", "MMZC", "MNMG", "MPTO", "MROC", "MSLP", "MTPP", "MUCF", "MUCL", "MUCM", "MUCU", "MUGM", "MUHA", "MUHG", "MUVR", "NCAI", "NCAT", "NCMG", "NCMH", "NCMK", "NCMR", "NCNS", "NCPK", "NCPL", "NCPY", "NCRG", "NCRK", "NCSW", "NFFN", "NFNA", "NFTF", "NGFU", "NGTA", "NIUE", "NLWW", "NSFA", "NSTU", "NVSS", "NVVV", "NWWW", "NZAA", "NZCH", "NZCM", "NZWN", "OEAB", "OEAH", "OEAO", "OEBA", "OEBH", "OEDF", "OEDM", "OEDR", "OEGN", "OEGS", "OEGT", "OEHL", "OEJB", "OEJN", "OEKJ", "OEKM", "OEMA", "OEMN", "OENG", "OEPA", "OEPS", "OERF", "OERK", "OERR", "OESH", "OESK", "OETB", "OETF", "OETR", "OEWD", "OEWJ", "OEYN", "OIAA", "OIAG", "OIAH", "OIAI", "OIAM", "OIAW", "OIBA", "OIBB", "OIBH", "OIBJ", "OIBK", "OIBL", "OIBP", "OIBQ", "OIBS", "OIBV", "OICC", "OICJ", "OICK", "OICS", "OIFK", "OIFM", "OIFS", "OIGG", "OIGK", "OIHH", "OIHM", "OIHR", "OIIE", "OIII", "OIIK", "OIIP", "OIIS", "OIKB", "OIKK", "OIKO", "OIKQ", "OIMB", "OIMC", "OIMD", "OIMJ", "OIMM", "OIMN", "OIMQ", "OIMS", "OIMT", "OINB", "OINE", "OING", "OINK", "OINN", "OINR", "OINZ", "OISA", "OISF", "OISL", "OISR", "OISS", "OISY", "OITK", "OITL", "OITM", "OITP", "OITR", "OITT", "OITU", "OITZ", "OIYY", "OIZB", "OIZC", "OIZH", "OIZI", "OIZJ", "OJAI", "OJAM", "OJAQ", "OKAS", "OKBK", "OLBA", "OMAA", "OMAD", "OMAL", "OMDB", "OMDW", "OMFJ", "OMRK", "OMSJ", "OODQ", "OOKB", "OOMS", "OOSA", "OOSH", "OPFA", "OPIS", "OPKC", "OPLA", "OPPS", "OPSK", "OPST", "ORBI", "ORMM", "ORNI", "ORSU", "OSDI", "OSKL", "OSLK", "OTBD", "OTBH", "OTHH", "PAAD", "PAAK", "PAAQ", "PABA", "PABE", "PABL", "PABR", "PABT", "PABV", "PACD", "PACV", "PACZ", "PADK", "PADL", "PADM", "PADQ", "PADU", "PAED", "PAEH", "PAEI", "PAEN", "PAFA", "PAFB", "PAFE", "PAFM", "PAFR", "PAFS", "PAGA", "PAGK", "PAGL", "PAGM", "PAGN", "PAGS", "PAGY", "PAHL", "PAHN", "PAHO", "PAHX", "PAHY", "PAIG", "PAIK", "PAIL", "PAIM", "PAIN", "PAJC", "PAJN", "PAJZ", "PAKF", "PAKH", "PAKI", "PAKK", "PAKN", "PAKP", "PAKT", "PAKV", "PAKW", "PAKX", "PALG", "PALH", "PALU", "PAMB", "PAMD", "PAMH", "PAMK", "PAMR", "PANA", "PANC", "PANN", "PANV", "PANW", "PAOH", "PAOM", "PAOO", "PAOR", "PAOT", "PAOU", "PAPB", "PAPG", "PAPH", "PAPM", "PAPN", "PAQH", "PAQT", "PARC", "PARS", "PARY", "PASA", "PASC", "PASD", "PASH", "PASI", "PASK", "PASL", "PASM", "PASN", "PASO", "PASV", "PASX", "PASY", "PATA", "PATC", "PATE", "PATG", "PATK", "PATL", "PATO", "PATQ", "PAUN", "PAUT", "PAVA", "PAVC", "PAVD", "PAWD", "PAWI", "PAWM", "PAWN", "PAWS", "PAYA", "PAZK", "PFCL", "PFEL", "PFKT", "PFKW", "PFNO", "PFSH", "PFWS", "PFYU", "PGRO", "PGSN", "PGUA", "PGUM", "PGWT", "PHBK", "PHHI", "PHJR", "PHKO", "PHLI", "PHMK", "PHNG", "PHNL", "PHNY", "PHOG", "PHSF", "PHTO", "PKWA", "PLCH", "PMDY", "PPIZ", "PTPN", "PTRO", "PTTP", "PTYA", "PWAK", "RCFN", "RCKH", "RCMQ", "RCNN", "RCSS", "RCTP", "RJAA", "RJAF", "RJAH", "RJAW", "RJBB", "RJBD", "RJBE", "RJBT", "RJCB", "RJCC", "RJCH", "RJCK", "RJCM", "RJCN", "RJCO", "RJCW", "RJDB", "RJDC", "RJDT", "RJEC", "RJFE", "RJFF", "RJFG", "RJFK", "RJFM", "RJFO", "RJFR", "RJFS", "RJFT", "RJFU", "RJGG", "RJKA", "RJKI", "RJKN", "RJNK", "RJNS", "RJNT", "RJNW", "RJOA", "RJOB", "RJOC", "RJOH", "RJOI", "RJOK", "RJOM", "RJOO", "RJOR", "RJOS", "RJOT", "RJOW", "RJOY", "RJSA", "RJSC", "RJSF", "RJSI", "RJSK", "RJSM", "RJSN", "RJSR", "RJSS", "RJSY", "RJTT", "RJTY", "RKJB", "RKJK", "RKNY", "RKPC", "RKPK", "RKSG", "RKSI", "RKSM", "RKSO", "RKSS", "RKTN", "RKTU", "ROAH", "RODN", "ROIG", "ROMD", "ROMY", "RORK", "RORS", "RORY", "ROTM", "ROYN", "RPLB", "RPLI", "RPLL", "RPMD", "RPMZ", "RPVM", "SAAR", "SABE", "SACO", "SADF", "SAEZ", "SAME", "SANT", "SAOC", "SARC", "SARE", "SARF", "SARI", "SARL", "SARP", "SASA", "SASJ", "SAVC", "SAWE", "SAWG", "SAWH", "SAZM", "SAZN", "SCAP", "SCAR", "SCAT", "SCBA", "SCCF", "SCCH", "SCCI", "SCCY", "SCDA", "SCEL", "SCFA", "SCFT", "SCIC", "SCIE", "SCIP", "SCJO", "SCMK", "SCON", "SCPD", "SCPQ", "SCQP", "SCSE", "SCSN", "SCTE", "SCTN", "SCVD", "SCVM", "SECU", "SEGU", "SELT", "SGAS", "SKBO", "SKBQ", "SKCG", "SKCL", "SKLT", "SKRG", "SKSP", "SLCB", "SLLP", "SLVR", "SMJP", "SOCA", "SPJC", "SPQT", "SPRU", "SPSO", "SULS", "SUMU", "SVBC", "SVBI", "SVBM", "SVBS", "SVCB", "SVCJ", "SVCS", "SVFM", "SVGD", "SVGU", "SVJM", "SVLO", "SVMC", "SVMG", "SVMI", "SVMT", "SVPA", "SVPR", "SVSR", "SVVA", "SYCJ", "TAPA", "TBPB", "TFFF", "TFFR", "TGPY", "TIST", "TISX", "TJNR", "TJSJ", "TLPL", "TNCB", "TNCC", "TNCE", "TNCM", "TTCP", "TTPP", "TXKF", "UAAH", "UAAT", "UACK", "UACP", "UADD", "UAIT", "UAKD", "UAOO", "UARR", "UASK", "UASP", "UASS", "UAUU", "UBBB", "UBBF", "UBBG", "UBBL", "UBBN", "UBBQ", "UBBY", "UBBZ", "UBEE", "UCFL", "UCFM", "UCFO", "UDSG", "UDYZ", "UEEE", "UERP", "UERR", "UGKO", "UGSB", "UGTB", "UHBB", "UHHH", "UHMA", "UHMM", "UHPP", "UHSS", "UHWW", "UIAA", "UIBB", "UIII", "UIUU", "ULAA", "ULLI", "ULMM", "ULOO", "ULPB", "ULWC", "UMBB", "UMGG", "UMII", "UMKK", "UMMG", "UMMS", "UMOO", "UNAA", "UNBB", "UNEE", "UNKL", "UNNT", "UNOO", "UNTT", "UNWW", "UOOO", "URKA", "URKK", "URMG", "URML", "URMM", "URMN", "URMO", "URMT", "URRP", "URSS", "URWA", "URWI", "URWW", "USCC", "USCM", "USDA", "USHH", "USNN", "USPP", "USRR", "USSS", "USTR", "UTAA", "UTAK", "UTAM", "UTAT", "UTAV", "UTDD", "UTDK", "UTDL", "UTDT", "UTFF", "UTFN", "UTNN", "UTNU", "UTO8", "UTSA", "UTSB", "UTSK", "UTSS", "UTST", "UTTT", "UUBC", "UUBP", "UUBW", "UUDD", "UUDL", "UUEE", "UUMO", "UUOB", "UUOK", "UUOL", "UUOO", "UUWW", "UUYY", "UWGG", "UWKD", "UWKE", "UWKS", "UWLL", "UWLW", "UWOO", "UWOR", "UWPS", "UWSG", "UWUU", "UWWW", "VAAH", "VABB", "VABO", "VABP", "VABV", "VAID", "VAJB", "VAJJ", "VAKE", "VAKP", "VAKS", "VANP", "VAOZ", "VAPR", "VARK", "VASD", "VASU", "VAUD", "VCRI", "VDPP", "VDSR", "VDSV", "VEAT", "VEBN", "VEBS", "VEBU", "VECC", "VECO", "VEDG", "VEDO", "VEGT", "VEGY", "VEIM", "VEJH", "VEJR", "VEJS", "VEKI", "VELP", "VELR", "VEMN", "VEMR", "VEPT", "VEPY", "VERC", "VERP", "VGEG", "VGHS", "VHHH", "VIAR", "VIBR", "VIDP", "VIGG", "VIJP", "VILK", "VLLB", "VLLN", "VLPS", "VLSK", "VLVT", "VMMC", "VNKT", "VOAT", "VOBG", "VOBL", "VOBM", "VOBZ", "VOCB", "VOCI", "VOCL", "VOCP", "VOGB", "VOHB", "VOHS", "VOHY", "VOJV", "VOKN", "VOKU", "VOMD", "VOML", "VOMM", "VOMY", "VOPB", "VOPC", "VORY", "VOTK", "VOTP", "VOTR", "VOTV", "VOVZ", "VQPR", "VRMG", "VRMH", "VRMM", "VTBD", "VTBO", "VTBS", "VTBU", "VTCC", "VTCH", "VTCL", "VTCN", "VTCP", "VTCT", "VTPB", "VTPH", "VTPM", "VTPO", "VTPP", "VTSB", "VTSC", "VTSE", "VTSF", "VTSG", "VTSM", "VTSP", "VTSR", "VTSS", "VTST", "VTUD", "VTUI", "VTUK", "VTUL", "VTUO", "VTUQ", "VTUU", "VTUV", "VTUW", "VVCI", "VVCR", "VVCT", "VVDN", "VVNB", "VVPB", "VVPQ", "VVTS", "VYMD", "VYNT", "VYYY", "WAAA", "WADD", "WAHS", "WAJJ", "WAKK", "WALL", "WAMM", "WAOO", "WAPP", "WAQQ", "WARR", "WBGB", "WBGG", "WBGR", "WBGS", "WBGY", "WBKK", "WBKL", "WBKS", "WBKT", "WBKW", "WBSB", "WIBB", "WIDD", "WIEE", "WIII", "WIMM", "WIOO", "WIPP", "WMAU", "WMBA", "WMKA", "WMKB", "WMKC", "WMKD", "WMKE", "WMKI", "WMKJ", "WMKK", "WMKL", "WMKM", "WMKN", "WMKP", "WMSA", "WSAP", "WSSL", "WSSS", "YBAS", "YBBN", "YBCG", "YBCS", "YBDV", "YBLN", "YBRK", "YBRM", "YBWW", "YCBA", "YCFS", "YGEL", "YGFN", "YLHI", "YLIS", "YMAV", "YMAY", "YMER", "YMHB", "YMIA", "YMLT", "YMML", "YMTG", "YNAR", "YPAD", "YPBO", "YPCC", "YPDN", "YPKG", "YPLM", "YPPD", "YPPH", "YPXM", "YSCB", "YSNF", "YSNW", "YSSY", "ZBAA", "ZBAD", "ZBHH", "ZBSJ", "ZBTJ", "ZBYN", "ZGGG", "ZGHA", "ZGKL", "ZGNN", "ZGOW", "ZGSZ", "ZHCC", "ZHHH", "ZJHK", "ZJSY", "ZLLL", "ZLXY", "ZMUB", "ZPPP", "ZSAM", "ZSFZ", "ZSHC", "ZSNB", "ZSNJ", "ZSOF", "ZSPD", "ZSQD", "ZSSS", "ZUCK", "ZUGY", "ZUTF", "ZUUU", "ZWSH", "ZWWW", "ZYCC", "ZYHB", "ZYTL", "ZYTX"], "observation_time": ["2022-10-23T08:00:00Z", "2022-10-23T08:00:00Z", "2022-10-23T08:00:00Z", "2022-10-23T08:00:00Z", "2022-10-23T08:00:00Z", "2022-10-23T07:50:00Z", "2022-10-23T07:50:00Z", "2022-10-23T07:50:00Z", "2022-10-23T07:50:00Z", "2022-10-23T07:50:00Z", "2022-10-23T08:15:00Z", "2022-10-23T08:00:00Z", "2022-10-23T08:00:00Z", "2022-10-23T08:00:00Z", "2022-10-23T08:00:00Z", "2022-10-23T08:00:00Z", "2022-10-23T08:00:00Z", "2022-10-23T08:11:00Z", "2022-10-23T08:00:00Z", "2022-10-23T08:00:00Z", "2022-10-23T08:00:00Z", "2022-10-23T08:00:00Z", "2022-10-23T08:00:00Z", "2022-10-23T08:00:00Z", "2022-10-23T08:00:00Z", "2022-10-23T08:00:00Z", "2022-10-23T08:00:00Z", "2022-10-23T08:00:00Z", "2022-10-23T08:00:00Z", "2022-10-23T08:00:00Z", "2022-10-23T08:00:00Z", "2022-10-23T08:00:00Z", "2022-10-23T08:00:00Z", "2022-10-23T08:00:00Z", "2022-10-23T08:00:00Z", "2022-10-23T08:00:00Z", "2022-10-23T08:00:00Z", "2022-10-23T08:00:00Z", "2022-10-23T08:00:00Z", "2022-10-23T08:00:00Z", "2022-10-23T08:00:00Z", "2022-10-23T08:00:00Z", "2022-10-23T08:00:00Z", "2022-10-23T08:00:00Z", "2022-10-23T08:00:00Z", "2022-10-23T08:00:00Z", "2022-10-23T08:00:00Z", "2022-10-23T08:00:00Z", "2022-10-23T08:00:00Z", "2022-10-23T08:00:00Z", "2022-10-23T08:00:00Z", "2022-10-23T08:00:00Z", "2022-10-23T08:00:00Z", "2022-10-23T08:00:00Z", "2022-10-23T08:00:00Z", "2022-10-23T08:00:00Z", "2022-10-23T08:00:00Z", "2022-10-23T08:00:00Z", "2022-10-23T08:00:00Z", "2022-10-23T08:00:00Z", "2022-10-23T08:00:00Z", "2022-10-23T08:00:00Z", "2022-10-23T08:00:00Z", "2022-10-23T08:00:00Z", "2022-10-23T08:00:00Z", "2022-10-23T08:00:00Z", "2022-10-23T08:00:00Z", "2022-10-23T08:00:00Z", "2022-10-23T08:00:00Z", "2022-10-23T08:00:00Z", "2022-10-23T08:00:00Z", "2022-10-23T08:00:00Z", "2022-10-23T08:00:00Z", "2022-10-23T08:00:00Z", "2022-10-23T08:00:00Z", "2022-10-23T08:00:00Z", "2022-10-23T08:00:00Z", "2022-10-23T08:00:00Z", "2022-10-23T08:00:00Z", "2022-10-23T08:00:00Z", "2022-10-23T08:00:00Z", "2022-10-23T08:00:00Z", "2022-10-23T08:00:00Z", "2022-10-23T08:00:00Z", "2022-10-23T08:00:00Z", "2022-10-23T08:00:00Z", "2022-10-23T08:00:00Z", "2022-10-23T08:00:00Z", "2022-10-23T08:00:00Z", "2022-10-23T08:00:00Z", "2022-10-23T08:00:00Z", "2022-10-23T08:00:00Z", "2022-10-23T08:00:00Z", "2022-10-23T08:00:00Z", "2022-10-23T08:00:00Z", "2022-10-23T08:00:00Z", "2022-10-23T08:00:00Z", "2022-10-23T08:00:00Z", "2022-10-23T08:00:00Z", "2022-10-23T08:00:00Z", "2022-10-23T08:00:00Z", "2022-10-23T08:00:00Z", "2022-10-23T08:00:00Z", "2022-10-23T08:00:00Z", "2022-10-23T08:00:00Z", "2022-10-23T08:00:00Z", "2022-10-23T08:00:00Z", "2022-10-23T08:00:00Z", "2022-10-23T08:00:00Z", "2022-10-23T08:00:00Z", "2022-10-23T08:00:00Z", "2022-10-23T08:00:00Z", "2022-10-23T08:00:00Z", "2022-10-23T08:00:00Z", "2022-10-23T08:00:00Z", "2022-10-23T08:00:00Z", "2022-10-23T08:00:00Z", "2022-10-23T08:00:00Z", "2022-10-23T08:00:00Z", "2022-10-23T08:00:00Z", "2022-10-23T08:00:00Z", "2022-10-23T08:00:00Z", "2022-10-23T08:00:00Z", "2022-10-23T08:00:00Z", "2022-10-23T08:00:00Z", "2022-10-23T08:00:00Z", "2022-10-23T08:00:00Z", "2022-10-23T08:00:00Z", "2022-10-23T08:00:00Z", "2022-10-23T08:00:00Z", "2022-10-23T08:00:00Z", "2022-10-23T08:00:00Z", "2022-10-23T08:00:00Z", "2022-10-23T08:00:00Z", "2022-10-23T08:00:00Z", "2022-10-23T08:00:00Z", "2022-10-23T08:00:00Z", "2022-10-23T08:00:00Z", "2022-10-23T08:00:00Z", "2022-10-23T08:00:00Z", "2022-10-23T08:00:00Z", "2022-10-23T08:00:00Z", "2022-10-23T08:02:00Z", "2022-10-23T08:00:00Z", "2022-10-23T08:00:00Z", "2022-10-23T08:00:00Z", "2022-10-23T08:00:00Z", "2022-10-23T08:00:00Z", "2022-10-23T08:00:00Z", "2022-10-23T08:00:00Z", "2022-10-23T08:15:00Z", "2022-10-23T08:00:00Z", "2022-10-23T08:00:00Z", "2022-10-23T08:00:00Z", "2022-10-23T08:00:00Z", "2022-10-23T08:00:00Z", "2022-10-23T08:00:00Z", "2022-10-23T08:00:00Z", "2022-10-23T08:00:00Z", "2022-10-23T08:00:00Z", "2022-10-23T08:00:00Z", "2022-10-23T08:00:00Z", "2022-10-23T08:00:00Z", "2022-10-23T08:00:00Z", "2022-10-23T08:00:00Z", "2022-10-23T08:00:00Z", "2022-10-23T08:00:00Z", "2022-10-23T08:00:00Z", "2022-10-23T08:00:00Z", "2022-10-23T08:00:00Z", "2022-10-23T08:00:00Z", "2022-10-23T08:00:00Z", "2022-10-23T08:28:00Z", "2022-10-23T08:00:00Z", "2022-10-23T08:00:00Z", "2022-10-23T08:22:00Z", "2022-10-23T08:00:00Z", "2022-10-23T08:00:00Z", "2022-10-23T08:00:00Z", "2022-10-23T08:00:00Z", "2022-10-23T08:00:00Z", "2022-10-23T08:00:00Z", "2022-10-23T08:00:00Z", "2022-10-23T08:00:00Z", "2022-10-23T08:00:00Z", "2022-10-23T08:00:00Z", "2022-10-23T08:00:00Z", "2022-10-23T08:00:00Z", "2022-10-23T08:00:00Z", "2022-10-23T08:00:00Z", "2022-10-23T08:00:00Z", "2022-10-23T08:00:00Z", "2022-10-23T08:00:00Z", "2022-10-23T08:00:00Z", "2022-10-23T08:00:00Z", "2022-10-23T08:00:00Z", "2022-10-23T08:00:00Z", "2022-10-23T08:00:00Z", "2022-10-23T08:00:00Z", "2022-10-23T08:00:00Z", "2022-10-23T08:00:00Z", "2022-10-23T08:00:00Z", "2022-10-23T08:00:00Z", "2022-10-23T08:00:00Z", "2022-10-23T08:00:00Z", "2022-10-23T08:00:00Z", "2022-10-23T08:00:00Z", "2022-10-23T08:00:00Z", "2022-10-23T08:00:00Z", "2022-10-23T08:00:00Z", "2022-10-23T08:00:00Z", "2022-10-23T08:00:00Z", "2022-10-23T08:00:00Z", "2022-10-23T08:00:00Z", "2022-10-23T08:00:00Z", "2022-10-23T08:00:00Z", "2022-10-23T08:00:00Z", "2022-10-23T08:00:00Z", "2022-10-23T08:00:00Z", "2022-10-23T08:00:00Z", "2022-10-23T08:00:00Z", "2022-10-23T08:00:00Z", "2022-10-23T08:00:00Z", "2022-10-23T08:00:00Z", "2022-10-23T08:00:00Z", "2022-10-23T08:00:00Z", "2022-10-23T08:00:00Z", "2022-10-23T08:00:00Z", "2022-10-23T08:00:00Z", "2022-10-23T08:00:00Z", "2022-10-23T08:00:00Z", "2022-10-23T08:00:00Z", "2022-10-23T08:00:00Z", "2022-10-23T08:00:00Z", "2022-10-23T08:00:00Z", "2022-10-23T08:00:00Z", "2022-10-23T08:00:00Z", "2022-10-23T08:00:00Z", "2022-10-23T08:00:00Z", "2022-10-23T08:00:00Z", "2022-10-23T08:00:00Z", "2022-10-23T08:00:00Z", "2022-10-23T08:00:00Z", "2022-10-23T08:00:00Z", "2022-10-23T08:00:00Z", "2022-10-23T08:00:00Z", "2022-10-23T08:00:00Z", "2022-10-23T08:00:00Z", "2022-10-23T08:00:00Z", "2022-10-23T08:00:00Z", "2022-10-23T08:00:00Z", "2022-10-23T08:00:00Z", "2022-10-23T08:00:00Z", "2022-10-23T08:00:00Z", "2022-10-23T08:00:00Z", "2022-10-23T08:00:00Z", "2022-10-23T08:00:00Z", "2022-10-23T08:00:00Z", "2022-10-23T08:00:00Z", "2022-10-23T08:00:00Z", "2022-10-23T08:00:00Z", "2022-10-23T08:00:00Z", "2022-10-23T08:00:00Z", "2022-10-23T08:00:00Z", "2022-10-23T08:00:00Z", "2022-10-23T08:00:00Z", "2022-10-23T08:00:00Z", "2022-10-23T08:00:00Z", "2022-10-23T08:00:00Z", "2022-10-23T08:00:00Z", "2022-10-23T08:00:00Z", "2022-10-23T08:00:00Z", "2022-10-23T08:00:00Z", "2022-10-23T08:00:00Z", "2022-10-23T08:00:00Z", "2022-10-23T08:00:00Z", "2022-10-23T08:00:00Z", "2022-10-23T08:00:00Z", "2022-10-23T08:00:00Z", "2022-10-23T08:00:00Z", "2022-10-23T08:00:00Z", "2022-10-23T08:00:00Z", "2022-10-23T08:00:00Z", "2022-10-23T08:00:00Z", "2022-10-23T08:00:00Z", "2022-10-23T08:00:00Z", "2022-10-23T08:00:00Z", "2022-10-23T08:00:00Z", "2022-10-23T08:00:00Z", "2022-10-23T08:00:00Z", "2022-10-23T08:00:00Z", "2022-10-23T08:00:00Z", "2022-10-23T08:00:00Z", "2022-10-23T08:00:00Z", "2022-10-23T08:00:00Z", "2022-10-23T08:00:00Z", "2022-10-23T08:00:00Z", "2022-10-23T08:00:00Z", "2022-10-23T08:00:00Z", "2022-10-23T08:00:00Z", "2022-10-23T08:00:00Z", "2022-10-23T08:00:00Z", "2022-10-23T08:25:00Z", "2022-10-23T08:03:00Z", "2022-10-23T08:00:00Z", "2022-10-23T08:00:00Z", "2022-10-23T08:00:00Z", "2022-10-23T08:00:00Z", "2022-10-23T08:00:00Z", "2022-10-23T08:00:00Z", "2022-10-23T08:00:00Z", "2022-10-23T08:00:00Z", "2022-10-23T08:00:00Z", "2022-10-23T08:00:00Z", "2022-10-23T08:00:00Z", "2022-10-23T08:00:00Z", "2022-10-23T08:13:00Z", "2022-10-23T08:00:00Z", "2022-10-23T08:00:00Z", "2022-10-23T08:00:00Z", "2022-10-23T08:00:00Z", "2022-10-23T08:00:00Z", "2022-10-23T08:00:00Z", "2022-10-23T08:00:00Z", "2022-10-23T08:00:00Z", "2022-10-23T08:00:00Z", "2022-10-23T08:00:00Z", "2022-10-23T08:00:00Z", "2022-10-23T08:00:00Z", "2022-10-23T08:24:00Z", "2022-10-23T08:00:00Z", "2022-10-23T08:00:00Z", "2022-10-23T08:00:00Z", "2022-10-23T08:00:00Z", "2022-10-23T08:00:00Z", "2022-10-23T08:00:00Z", "2022-10-23T08:00:00Z", "2022-10-23T08:27:00Z", "2022-10-23T08:00:00Z", "2022-10-23T08:00:00Z", "2022-10-23T08:00:00Z", "2022-10-23T08:00:00Z", "2022-10-23T08:00:00Z", "2022-10-23T08:00:00Z", "2022-10-23T08:00:00Z", "2022-10-23T08:00:00Z", "2022-10-23T08:00:00Z", "2022-10-23T08:00:00Z", "2022-10-23T08:00:00Z", "2022-10-23T08:18:00Z", "2022-10-23T08:00:00Z", "2022-10-23T08:00:00Z", "2022-10-23T08:00:00Z", "2022-10-23T08:00:00Z", "2022-10-23T08:00:00Z", "2022-10-23T08:00:00Z", "2022-10-23T08:00:00Z", "2022-10-23T08:00:00Z", "2022-10-23T08:00:00Z", "2022-10-23T08:00:00Z", "2022-10-23T08:00:00Z", "2022-10-23T08:00:00Z", "2022-10-23T08:00:00Z", "2022-10-23T08:00:00Z", "2022-10-23T08:08:00Z", "2022-10-23T08:00:00Z", "2022-10-23T08:00:00Z", "2022-10-23T08:00:00Z", "2022-10-23T08:00:00Z", "2022-10-23T08:00:00Z", "2022-10-23T08:19:00Z", "2022-10-23T08:08:00Z", "2022-10-23T08:00:00Z", "2022-10-23T08:00:00Z", "2022-10-23T08:00:00Z", "2022-10-23T08:03:00Z", "2022-10-23T08:19:00Z", "2022-10-23T08:00:00Z", "2022-10-23T08:00:00Z", "2022-10-23T08:00:00Z", "2022-10-23T08:26:00Z", "2022-10-23T08:00:00Z", "2022-10-23T08:00:00Z", "2022-10-23T08:00:00Z", "2022-10-23T08:00:00Z", "2022-10-23T08:23:00Z", "2022-10-23T08:00:00Z", "2022-10-23T08:00:00Z", "2022-10-23T08:00:00Z", "2022-10-23T08:00:00Z", "2022-10-23T08:00:00Z", "2022-10-23T08:00:00Z", "2022-10-23T08:00:00Z", "2022-10-23T08:00:00Z", "2022-10-23T08:20:00Z", "2022-10-23T08:00:00Z", "2022-10-23T08:00:00Z", "2022-10-23T08:00:00Z", "2022-10-23T08:00:00Z", "2022-10-23T08:00:00Z", "2022-10-23T08:00:00Z", "2022-10-23T08:00:00Z", "2022-10-23T08:00:00Z", "2022-10-23T08:00:00Z", "2022-10-23T08:00:00Z", "2022-10-23T08:00:00Z", "2022-10-23T08:05:00Z", "2022-10-23T08:00:00Z", "2022-10-23T08:00:00Z", "2022-10-23T08:00:00Z", "2022-10-23T08:00:00Z", "2022-10-23T08:00:00Z", "2022-10-23T08:00:00Z", "2022-10-23T08:00:00Z", "2022-10-23T08:00:00Z", "2022-10-23T08:00:00Z", "2022-10-23T08:00:00Z", "2022-10-23T08:00:00Z", "2022-10-23T08:00:00Z", "2022-10-23T08:17:00Z", "2022-10-23T08:00:00Z", "2022-10-23T08:00:00Z", "2022-10-23T08:00:00Z", "2022-10-23T08:00:00Z", "2022-10-23T08:00:00Z", "2022-10-23T08:00:00Z", "2022-10-23T08:00:00Z", "2022-10-23T08:00:00Z", "2022-10-23T08:00:00Z", "2022-10-23T08:00:00Z", "2022-10-23T08:00:00Z", "2022-10-23T08:00:00Z", "2022-10-23T08:00:00Z", "2022-10-23T08:00:00Z", "2022-10-23T08:00:00Z", "2022-10-23T08:00:00Z", "2022-10-23T08:26:00Z", "2022-10-23T08:22:00Z", "2022-10-23T08:00:00Z", "2022-10-23T08:00:00Z", "2022-10-23T08:00:00Z", "2022-10-23T08:00:00Z", "2022-10-23T08:00:00Z", "2022-10-23T08:26:00Z", "2022-10-23T08:00:00Z", "2022-10-23T08:00:00Z", "2022-10-23T08:00:00Z", "2022-10-23T08:11:00Z", "2022-10-23T08:00:00Z", "2022-10-23T08:00:00Z", "2022-10-23T08:21:00Z", "2022-10-23T08:00:00Z", "2022-10-23T08:00:00Z", "2022-10-23T08:00:00Z", "2022-10-23T08:00:00Z", "2022-10-23T08:00:00Z", "2022-10-23T08:00:00Z", "2022-10-23T08:00:00Z", "2022-10-23T08:00:00Z", "2022-10-23T08:00:00Z", "2022-10-23T08:25:00Z", "2022-10-23T08:00:00Z", "2022-10-23T08:00:00Z", "2022-10-23T08:00:00Z", "2022-10-23T08:00:00Z", "2022-10-23T08:00:00Z", "2022-10-23T08:00:00Z", "2022-10-23T08:00:00Z", "2022-10-23T08:00:00Z", "2022-10-23T08:00:00Z", "2022-10-23T08:00:00Z", "2022-10-23T08:00:00Z", "2022-10-23T08:00:00Z", "2022-10-23T08:00:00Z", "2022-10-23T08:00:00Z", "2022-10-23T08:00:00Z", "2022-10-23T08:00:00Z", "2022-10-23T08:00:00Z", "2022-10-23T08:00:00Z", "2022-10-23T08:00:00Z", "2022-10-23T08:00:00Z", "2022-10-23T08:00:00Z", "2022-10-23T08:00:00Z", "2022-10-23T08:00:00Z", "2022-10-23T08:00:00Z", "2022-10-23T08:00:00Z", "2022-10-23T08:00:00Z", "2022-10-23T08:00:00Z", "2022-10-23T08:00:00Z", "2022-10-23T08:00:00Z", "2022-10-23T08:00:00Z", "2022-10-23T08:00:00Z", "2022-10-23T08:00:00Z", "2022-10-23T08:00:00Z", "2022-10-23T08:00:00Z", "2022-10-23T08:00:00Z", "2022-10-23T08:00:00Z", "2022-10-23T08:00:00Z", "2022-10-23T08:00:00Z", "2022-10-23T08:00:00Z", "2022-10-23T08:00:00Z", "2022-10-23T08:00:00Z", "2022-10-23T08:00:00Z", "2022-10-23T08:00:00Z", "2022-10-23T08:00:00Z", "2022-10-23T08:00:00Z", "2022-10-23T08:00:00Z", "2022-10-23T08:00:00Z", "2022-10-23T08:00:00Z", "2022-10-23T08:00:00Z", "2022-10-23T08:00:00Z", "2022-10-23T08:00:00Z", "2022-10-23T08:00:00Z", "2022-10-23T08:00:00Z", "2022-10-23T08:00:00Z", "2022-10-23T08:00:00Z", "2022-10-23T08:00:00Z", "2022-10-23T08:00:00Z", "2022-10-23T08:00:00Z", "2022-10-23T08:00:00Z", "2022-10-23T08:00:00Z", "2022-10-23T08:00:00Z", "2022-10-23T08:00:00Z", "2022-10-23T08:00:00Z", "2022-10-23T08:00:00Z", "2022-10-23T08:00:00Z", "2022-10-23T08:00:00Z", "2022-10-23T08:00:00Z", "2022-10-23T08:00:00Z", "2022-10-23T08:00:00Z", "2022-10-23T08:00:00Z", "2022-10-23T08:00:00Z", "2022-10-23T08:00:00Z", "2022-10-23T08:00:00Z", "2022-10-23T08:00:00Z", "2022-10-23T08:00:00Z", "2022-10-23T08:00:00Z", "2022-10-23T08:00:00Z", "2022-10-23T08:00:00Z", "2022-10-23T08:20:00Z", "2022-10-23T07:55:00Z", "2022-10-23T07:55:00Z", "2022-10-23T08:20:00Z", "2022-10-23T08:20:00Z", "2022-10-23T07:55:00Z", "2022-10-23T07:55:00Z", "2022-10-23T07:55:00Z", "2022-10-23T07:55:00Z", "2022-10-23T07:55:00Z", "2022-10-23T08:20:00Z", "2022-10-23T08:20:00Z", "2022-10-23T08:20:00Z", "2022-10-23T08:20:00Z", "2022-10-23T08:20:00Z", "2022-10-23T08:20:00Z", "2022-10-23T08:20:00Z", "2022-10-23T08:20:00Z", "2022-10-23T08:20:00Z", "2022-10-23T08:20:00Z", "2022-10-23T08:20:00Z", "2022-10-23T08:20:00Z", "2022-10-23T08:20:00Z", "2022-10-23T08:20:00Z", "2022-10-23T08:20:00Z", "2022-10-23T08:20:00Z", "2022-10-23T08:20:00Z", "2022-10-23T08:20:00Z", "2022-10-23T08:20:00Z", "2022-10-23T08:20:00Z", "2022-10-23T08:20:00Z", "2022-10-23T08:20:00Z", "2022-10-23T07:50:00Z", "2022-10-23T08:20:00Z", "2022-10-23T08:20:00Z", "2022-10-23T08:20:00Z", "2022-10-23T08:20:00Z", "2022-10-23T08:20:00Z", "2022-10-23T08:20:00Z", "2022-10-23T08:20:00Z", "2022-10-23T08:20:00Z", "2022-10-23T08:20:00Z", "2022-10-23T08:20:00Z", "2022-10-23T08:20:00Z", "2022-10-23T08:20:00Z", "2022-10-23T08:20:00Z", "2022-10-23T08:20:00Z", "2022-10-23T08:20:00Z", "2022-10-23T08:20:00Z", "2022-10-23T08:20:00Z", "2022-10-23T08:20:00Z", "2022-10-23T07:50:00Z", "2022-10-23T08:20:00Z", "2022-10-23T08:20:00Z", "2022-10-23T08:20:00Z", "2022-10-23T08:20:00Z", "2022-10-23T08:20:00Z", "2022-10-23T08:20:00Z", "2022-10-23T08:20:00Z", "2022-10-23T08:20:00Z", "2022-10-23T08:20:00Z", "2022-10-23T08:20:00Z", "2022-10-23T08:20:00Z", "2022-10-23T08:20:00Z", "2022-10-23T08:20:00Z", "2022-10-23T08:20:00Z", "2022-10-23T08:20:00Z", "2022-10-23T08:20:00Z", "2022-10-23T08:20:00Z", "2022-10-23T08:20:00Z", "2022-10-23T08:20:00Z", "2022-10-23T08:20:00Z", "2022-10-23T08:20:00Z", "2022-10-23T08:20:00Z", "2022-10-23T08:20:00Z", "2022-10-23T08:20:00Z", "2022-10-23T08:20:00Z", "2022-10-23T08:20:00Z", "2022-10-23T08:20:00Z", "2022-10-23T08:20:00Z", "2022-10-23T08:20:00Z", "2022-10-23T08:20:00Z", "2022-10-23T08:20:00Z", "2022-10-23T08:20:00Z", "2022-10-23T08:20:00Z", "2022-10-23T08:20:00Z", "2022-10-23T07:50:00Z", "2022-10-23T08:20:00Z", "2022-10-23T07:50:00Z", "2022-10-23T07:50:00Z", "2022-10-23T07:50:00Z", "2022-10-23T08:20:00Z", "2022-10-23T08:20:00Z", "2022-10-23T08:20:00Z", "2022-10-23T08:20:00Z", "2022-10-23T08:20:00Z", "2022-10-23T08:20:00Z", "2022-10-23T08:20:00Z", "2022-10-23T08:20:00Z", "2022-10-23T08:20:00Z", "2022-10-23T08:20:00Z", "2022-10-23T08:20:00Z", "2022-10-23T08:20:00Z", "2022-10-23T08:20:00Z", "2022-10-23T08:20:00Z", "2022-10-23T08:20:00Z", "2022-10-23T08:20:00Z", "2022-10-23T08:20:00Z", "2022-10-23T08:20:00Z", "2022-10-23T08:20:00Z", "2022-10-23T08:20:00Z", "2022-10-23T08:20:00Z", "2022-10-23T08:20:00Z", "2022-10-23T08:20:00Z", "2022-10-23T08:20:00Z", "2022-10-23T08:20:00Z", "2022-10-23T08:20:00Z", "2022-10-23T07:50:00Z", "2022-10-23T07:50:00Z", "2022-10-23T07:50:00Z", "2022-10-23T07:50:00Z", "2022-10-23T08:20:00Z", "2022-10-23T08:20:00Z", "2022-10-23T08:20:00Z", "2022-10-23T08:20:00Z", "2022-10-23T08:20:00Z", "2022-10-23T08:20:00Z", "2022-10-23T08:20:00Z", "2022-10-23T07:50:00Z", "2022-10-23T08:20:00Z", "2022-10-23T08:20:00Z", "2022-10-23T08:20:00Z", "2022-10-23T08:20:00Z", "2022-10-23T07:50:00Z", "2022-10-23T07:50:00Z", "2022-10-23T08:11:00Z", "2022-10-23T07:50:00Z", "2022-10-23T07:50:00Z", "2022-10-23T08:20:00Z", "2022-10-23T08:20:00Z", "2022-10-23T08:20:00Z", "2022-10-23T07:50:00Z", "2022-10-23T08:20:00Z", "2022-10-23T08:20:00Z", "2022-10-23T07:50:00Z", "2022-10-23T08:19:00Z", "2022-10-23T07:55:00Z", "2022-10-23T07:50:00Z", "2022-10-23T08:20:00Z", "2022-10-23T07:50:00Z", "2022-10-23T07:50:00Z", "2022-10-23T07:50:00Z", "2022-10-23T08:20:00Z", "2022-10-23T07:50:00Z", "2022-10-23T07:50:00Z", "2022-10-23T07:50:00Z", "2022-10-23T07:50:00Z", "2022-10-23T07:50:00Z", "2022-10-23T07:50:00Z", "2022-10-23T07:50:00Z", "2022-10-23T07:50:00Z", "2022-10-23T07:50:00Z", "2022-10-23T07:50:00Z", "2022-10-23T07:50:00Z", "2022-10-23T07:50:00Z", "2022-10-23T07:50:00Z", "2022-10-23T07:55:00Z", "2022-10-23T08:25:00Z", "2022-10-23T08:25:00Z", "2022-10-23T08:25:00Z", "2022-10-23T07:55:00Z", "2022-10-23T08:25:00Z", "2022-10-23T07:55:00Z", "2022-10-23T07:55:00Z", "2022-10-23T08:25:00Z", "2022-10-23T08:25:00Z", "2022-10-23T07:55:00Z", "2022-10-23T07:55:00Z", "2022-10-23T07:55:00Z", "2022-10-23T08:25:00Z", "2022-10-23T07:55:00Z", "2022-10-23T08:25:00Z", "2022-10-23T08:25:00Z", "2022-10-23T07:55:00Z", "2022-10-23T07:55:00Z", "2022-10-23T07:55:00Z", "2022-10-23T07:55:00Z", "2022-10-23T08:25:00Z", "2022-10-23T07:55:00Z", "2022-10-23T07:55:00Z", "2022-10-23T08:25:00Z", "2022-10-23T08:25:00Z", "2022-10-23T08:25:00Z", "2022-10-23T08:00:00Z", "2022-10-23T08:00:00Z", "2022-10-23T08:00:00Z", "2022-10-23T08:00:00Z", "2022-10-23T08:00:00Z", "2022-10-23T08:00:00Z", "2022-10-23T08:00:00Z", "2022-10-23T08:00:00Z", "2022-10-23T08:20:00Z", "2022-10-23T08:20:00Z", "2022-10-23T08:20:00Z", "2022-10-23T08:20:00Z", "2022-10-23T08:20:00Z", "2022-10-23T07:50:00Z", "2022-10-23T08:20:00Z", "2022-10-23T08:20:00Z", "2022-10-23T08:20:00Z", "2022-10-23T08:20:00Z", "2022-10-23T07:50:00Z", "2022-10-23T08:20:00Z", "2022-10-23T08:20:00Z", "2022-10-23T08:20:00Z", "2022-10-23T08:20:00Z", "2022-10-23T08:20:00Z", "2022-10-23T08:20:00Z", "2022-10-23T08:20:00Z", "2022-10-23T08:20:00Z", "2022-10-23T08:20:00Z", "2022-10-23T08:20:00Z", "2022-10-23T08:20:00Z", "2022-10-23T08:20:00Z", "2022-10-23T08:20:00Z", "2022-10-23T08:20:00Z", "2022-10-23T08:20:00Z", "2022-10-23T08:20:00Z", "2022-10-23T08:20:00Z", "2022-10-23T08:20:00Z", "2022-10-23T08:20:00Z", "2022-10-23T08:20:00Z", "2022-10-23T08:20:00Z", "2022-10-23T08:20:00Z", "2022-10-23T08:20:00Z", "2022-10-23T08:20:00Z", "2022-10-23T08:20:00Z", "2022-10-23T08:20:00Z", "2022-10-23T08:20:00Z", "2022-10-23T08:20:00Z", "2022-10-23T08:20:00Z", "2022-10-23T08:20:00Z", "2022-10-23T08:20:00Z", "2022-10-23T08:20:00Z", "2022-10-23T08:20:00Z", "2022-10-23T08:20:00Z", "2022-10-23T08:20:00Z", "2022-10-23T08:20:00Z", "2022-10-23T08:20:00Z", "2022-10-23T08:20:00Z", "2022-10-23T08:20:00Z", "2022-10-23T08:20:00Z", "2022-10-23T08:20:00Z", "2022-10-23T08:20:00Z", "2022-10-23T08:20:00Z", "2022-10-23T08:20:00Z", "2022-10-23T08:20:00Z", "2022-10-23T08:20:00Z", "2022-10-23T08:20:00Z", "2022-10-23T08:20:00Z", "2022-10-23T08:20:00Z", "2022-10-23T08:20:00Z", "2022-10-23T08:20:00Z", "2022-10-23T08:20:00Z", "2022-10-23T08:20:00Z", "2022-10-23T08:20:00Z", "2022-10-23T08:20:00Z", "2022-10-23T08:20:00Z", "2022-10-23T08:20:00Z", "2022-10-23T08:20:00Z", "2022-10-23T08:20:00Z", "2022-10-23T08:20:00Z", "2022-10-23T08:20:00Z", "2022-10-23T08:00:00Z", "2022-10-23T08:00:00Z", "2022-10-23T08:00:00Z", "2022-10-23T08:00:00Z", "2022-10-23T08:00:00Z", "2022-10-23T08:00:00Z", "2022-10-23T08:00:00Z", "2022-10-23T08:00:00Z", "2022-10-23T08:00:00Z", "2022-10-23T08:00:00Z", "2022-10-23T08:00:00Z", "2022-10-23T08:00:00Z", "2022-10-23T08:00:00Z", "2022-10-23T08:00:00Z", "2022-10-23T08:20:00Z", "2022-10-23T08:20:00Z", "2022-10-23T08:20:00Z", "2022-10-23T08:20:00Z", "2022-10-23T08:20:00Z", "2022-10-23T08:20:00Z", "2022-10-23T08:20:00Z", "2022-10-23T08:20:00Z", "2022-10-23T08:20:00Z", "2022-10-23T08:20:00Z", "2022-10-23T08:20:00Z", "2022-10-23T08:20:00Z", "2022-10-23T08:20:00Z", "2022-10-23T08:20:00Z", "2022-10-23T08:20:00Z", "2022-10-23T08:20:00Z", "2022-10-23T08:20:00Z", "2022-10-23T08:20:00Z", "2022-10-23T08:20:00Z", "2022-10-23T07:50:00Z", "2022-10-23T08:20:00Z", "2022-10-23T08:20:00Z", "2022-10-23T08:20:00Z", "2022-10-23T08:20:00Z", "2022-10-23T08:20:00Z", "2022-10-23T08:20:00Z", "2022-10-23T08:20:00Z", "2022-10-23T08:20:00Z", "2022-10-23T08:20:00Z", "2022-10-23T08:20:00Z", "2022-10-23T08:20:00Z", "2022-10-23T08:20:00Z", "2022-10-23T08:20:00Z", "2022-10-23T08:20:00Z", "2022-10-23T08:20:00Z", "2022-10-23T08:20:00Z", "2022-10-23T08:20:00Z", "2022-10-23T08:20:00Z", "2022-10-23T08:20:00Z", "2022-10-23T08:20:00Z", "2022-10-23T08:20:00Z", "2022-10-23T08:20:00Z", "2022-10-23T08:20:00Z", "2022-10-23T08:20:00Z", "2022-10-23T08:20:00Z", "2022-10-23T08:20:00Z", "2022-10-23T08:20:00Z", "2022-10-23T07:55:00Z", "2022-10-23T07:55:00Z", "2022-10-23T07:55:00Z", "2022-10-23T08:20:00Z", "2022-10-23T08:20:00Z", "2022-10-23T08:20:00Z", "2022-10-23T08:20:00Z", "2022-10-23T08:20:00Z", "2022-10-23T08:20:00Z", "2022-10-23T08:20:00Z", "2022-10-23T08:20:00Z", "2022-10-23T07:55:00Z", "2022-10-23T07:55:00Z", "2022-10-23T07:55:00Z", "2022-10-23T08:20:00Z", "2022-10-23T08:20:00Z", "2022-10-23T08:20:00Z", "2022-10-23T08:20:00Z", "2022-10-23T08:20:00Z", "2022-10-23T08:20:00Z", "2022-10-23T08:20:00Z", "2022-10-23T07:55:00Z", "2022-10-23T08:20:00Z", "2022-10-23T08:20:00Z", "2022-10-23T08:20:00Z", "2022-10-23T08:20:00Z", "2022-10-23T08:20:00Z", "2022-10-23T08:20:00Z", "2022-10-23T08:20:00Z", "2022-10-23T08:20:00Z", "2022-10-23T08:20:00Z", "2022-10-23T08:20:00Z", "2022-10-23T08:20:00Z", "2022-10-23T08:20:00Z", "2022-10-23T08:20:00Z", "2022-10-23T08:00:00Z", "2022-10-23T08:00:00Z", "2022-10-23T08:00:00Z", "2022-10-23T08:00:00Z", "2022-10-23T08:00:00Z", "2022-10-23T08:00:00Z", "2022-10-23T08:00:00Z", "2022-10-23T08:00:00Z", "2022-10-23T08:00:00Z", "2022-10-23T08:00:00Z", "2022-10-23T08:00:00Z", "2022-10-23T08:00:00Z", "2022-10-23T08:00:00Z", "2022-10-23T08:00:00Z", "2022-10-23T08:00:00Z", "2022-10-23T08:00:00Z", "2022-10-23T08:00:00Z", "2022-10-23T08:00:00Z", "2022-10-23T08:00:00Z", "2022-10-23T08:00:00Z", "2022-10-23T08:00:00Z", "2022-10-23T08:00:00Z", "2022-10-23T08:00:00Z", "2022-10-23T08:00:00Z", "2022-10-23T08:00:00Z", "2022-10-23T08:00:00Z", "2022-10-23T08:00:00Z", "2022-10-23T08:00:00Z", "2022-10-23T08:00:00Z", "2022-10-23T07:55:00Z", "2022-10-23T08:00:00Z", "2022-10-23T08:00:00Z", "2022-10-23T08:00:00Z", "2022-10-23T08:00:00Z", "2022-10-23T08:00:00Z", "2022-10-23T08:00:00Z", "2022-10-23T08:00:00Z", "2022-10-23T08:00:00Z", "2022-10-23T08:00:00Z", "2022-10-23T08:00:00Z", "2022-10-23T08:00:00Z", "2022-10-23T08:00:00Z", "2022-10-23T08:00:00Z", "2022-10-23T08:00:00Z", "2022-10-23T08:00:00Z", "2022-10-23T08:00:00Z", "2022-10-23T08:00:00Z", "2022-10-23T08:00:00Z", "2022-10-23T08:00:00Z", "2022-10-23T08:00:00Z", "2022-10-23T08:00:00Z", "2022-10-23T08:00:00Z", "2022-10-23T08:00:00Z", "2022-10-23T08:00:00Z", "2022-10-23T08:00:00Z", "2022-10-23T08:00:00Z", "2022-10-23T08:00:00Z", "2022-10-23T08:00:00Z", "2022-10-23T08:00:00Z", "2022-10-23T08:00:00Z", "2022-10-23T08:00:00Z", "2022-10-23T08:00:00Z", "2022-10-23T08:00:00Z", "2022-10-23T08:00:00Z", "2022-10-23T08:00:00Z", "2022-10-23T08:00:00Z", "2022-10-23T08:00:00Z", "2022-10-23T08:00:00Z", "2022-10-23T08:00:00Z", "2022-10-23T08:00:00Z", "2022-10-23T08:00:00Z", "2022-10-23T08:00:00Z", "2022-10-23T08:00:00Z", "2022-10-23T08:00:00Z", "2022-10-23T08:00:00Z", "2022-10-23T08:00:00Z", "2022-10-23T08:00:00Z", "2022-10-23T08:00:00Z", "2022-10-23T08:00:00Z", "2022-10-23T08:00:00Z", "2022-10-23T08:00:00Z", "2022-10-23T08:00:00Z", "2022-10-23T08:00:00Z", "2022-10-23T08:00:00Z", "2022-10-23T08:00:00Z", "2022-10-23T08:00:00Z", "2022-10-23T08:00:00Z", "2022-10-23T08:00:00Z", "2022-10-23T08:00:00Z", "2022-10-23T08:00:00Z", "2022-10-23T08:00:00Z", "2022-10-23T08:00:00Z", "2022-10-23T08:00:00Z", "2022-10-23T08:00:00Z", "2022-10-23T08:00:00Z", "2022-10-23T08:09:00Z", "2022-10-23T08:00:00Z", "2022-10-23T08:00:00Z", "2022-10-23T08:00:00Z", "2022-10-23T08:00:00Z", "2022-10-23T08:00:00Z", "2022-10-23T08:00:00Z", "2022-10-23T08:00:00Z", "2022-10-23T08:00:00Z", "2022-10-23T08:00:00Z", "2022-10-23T08:00:00Z", "2022-10-23T08:00:00Z", "2022-10-23T08:00:00Z", "2022-10-23T08:00:00Z", "2022-10-23T08:00:00Z", "2022-10-23T08:00:00Z", "2022-10-23T08:00:00Z", "2022-10-23T08:00:00Z", "2022-10-23T08:00:00Z", "2022-10-23T08:00:00Z", "2022-10-23T08:00:00Z", "2022-10-23T08:00:00Z", "2022-10-23T08:00:00Z", "2022-10-23T08:00:00Z", "2022-10-23T08:00:00Z", "2022-10-23T08:00:00Z", "2022-10-23T08:00:00Z", "2022-10-23T08:00:00Z", "2022-10-23T08:00:00Z", "2022-10-23T08:00:00Z", "2022-10-23T08:00:00Z", "2022-10-23T08:00:00Z", "2022-10-23T08:00:00Z", "2022-10-23T08:00:00Z", "2022-10-23T08:00:00Z", "2022-10-23T08:00:00Z", "2022-10-23T08:00:00Z", "2022-10-23T08:00:00Z", "2022-10-23T08:00:00Z", "2022-10-23T08:00:00Z", "2022-10-23T08:00:00Z", "2022-10-23T08:00:00Z", "2022-10-23T08:00:00Z", "2022-10-23T08:00:00Z", "2022-10-23T08:00:00Z", "2022-10-23T08:00:00Z", "2022-10-23T08:00:00Z", "2022-10-23T08:00:00Z", "2022-10-23T08:00:00Z", "2022-10-23T08:00:00Z", "2022-10-23T08:00:00Z", "2022-10-23T08:00:00Z", "2022-10-23T08:00:00Z", "2022-10-23T08:00:00Z", "2022-10-23T08:00:00Z", "2022-10-23T08:00:00Z", "2022-10-23T08:00:00Z", "2022-10-23T08:00:00Z", "2022-10-23T08:15:00Z", "2022-10-23T08:15:00Z", "2022-10-23T08:15:00Z", "2022-10-23T08:15:00Z", "2022-10-23T08:15:00Z", "2022-10-23T08:15:00Z", "2022-10-23T08:15:00Z", "2022-10-23T08:15:00Z", "2022-10-23T08:15:00Z", "2022-10-23T08:15:00Z", "2022-10-23T08:15:00Z", "2022-10-23T08:15:00Z", "2022-10-23T08:15:00Z", "2022-10-23T08:15:00Z", "2022-10-23T08:15:00Z", "2022-10-23T08:15:00Z", "2022-10-23T08:15:00Z", "2022-10-23T07:54:00Z", "2022-10-23T08:15:00Z", "2022-10-23T08:15:00Z", "2022-10-23T08:15:00Z", "2022-10-23T08:15:00Z", "2022-10-23T08:15:00Z", "2022-10-23T08:15:00Z", "2022-10-23T08:15:00Z", "2022-10-23T08:15:00Z", "2022-10-23T08:15:00Z", "2022-10-23T07:55:00Z", "2022-10-23T07:56:00Z", "2022-10-23T07:55:00Z", "2022-10-23T07:56:00Z", "2022-10-23T07:55:00Z", "2022-10-23T07:56:00Z", "2022-10-23T08:15:00Z", "2022-10-23T07:55:00Z", "2022-10-23T07:56:00Z", "2022-10-23T07:56:00Z", "2022-10-23T08:15:00Z", "2022-10-23T07:55:00Z", "2022-10-23T07:56:00Z", "2022-10-23T08:15:00Z", "2022-10-23T07:55:00Z", "2022-10-23T07:56:00Z", "2022-10-23T07:55:00Z", "2022-10-23T07:56:00Z", "2022-10-23T07:55:00Z", "2022-10-23T07:56:00Z", "2022-10-23T08:15:00Z", "2022-10-23T07:55:00Z", "2022-10-23T07:56:00Z", "2022-10-23T07:55:00Z", "2022-10-23T07:56:00Z", "2022-10-23T08:15:00Z", "2022-10-23T07:55:00Z", "2022-10-23T07:55:00Z", "2022-10-23T07:55:00Z", "2022-10-23T07:55:00Z", "2022-10-23T08:15:00Z", "2022-10-23T08:15:00Z", "2022-10-23T08:15:00Z", "2022-10-23T08:15:00Z", "2022-10-23T08:15:00Z", "2022-10-23T07:54:00Z", "2022-10-23T08:15:00Z", "2022-10-23T07:55:00Z", "2022-10-23T08:15:00Z", "2022-10-23T08:15:00Z", "2022-10-23T08:15:00Z", "2022-10-23T08:15:00Z", "2022-10-23T08:15:00Z", "2022-10-23T08:15:00Z", "2022-10-23T08:15:00Z", "2022-10-23T08:15:00Z", "2022-10-23T08:15:00Z", "2022-10-23T08:15:00Z", "2022-10-23T08:15:00Z", "2022-10-23T08:20:00Z", "2022-10-23T08:10:00Z", "2022-10-23T08:15:00Z", "2022-10-23T08:15:00Z", "2022-10-23T08:15:00Z", "2022-10-23T08:15:00Z", "2022-10-23T08:15:00Z", "2022-10-23T08:15:00Z", "2022-10-23T08:15:00Z", "2022-10-23T08:15:00Z", "2022-10-23T08:19:00Z", "2022-10-23T07:56:00Z", "2022-10-23T08:15:00Z", "2022-10-23T08:15:00Z", "2022-10-23T08:15:00Z", "2022-10-23T08:10:00Z", "2022-10-23T08:15:00Z", "2022-10-23T08:15:00Z", "2022-10-23T07:55:00Z", "2022-10-23T08:15:00Z", "2022-10-23T08:15:00Z", "2022-10-23T08:15:00Z", "2022-10-23T08:15:00Z", "2022-10-23T08:15:00Z", "2022-10-23T08:15:00Z", "2022-10-23T08:15:00Z", "2022-10-23T08:16:00Z", "2022-10-23T08:15:00Z", "2022-10-23T08:15:00Z", "2022-10-23T08:15:00Z", "2022-10-23T08:15:00Z", "2022-10-23T08:15:00Z", "2022-10-23T08:15:00Z", "2022-10-23T08:15:00Z", "2022-10-23T08:15:00Z", "2022-10-23T08:15:00Z", "2022-10-23T08:15:00Z", "2022-10-23T08:15:00Z", "2022-10-23T08:15:00Z", "2022-10-23T08:15:00Z", "2022-10-23T07:55:00Z", "2022-10-23T08:15:00Z", "2022-10-23T08:15:00Z", "2022-10-23T08:15:00Z", "2022-10-23T08:15:00Z", "2022-10-23T08:15:00Z", "2022-10-23T08:10:00Z", "2022-10-23T08:15:00Z", "2022-10-23T08:15:00Z", "2022-10-23T08:15:00Z", "2022-10-23T08:15:00Z", "2022-10-23T08:15:00Z", "2022-10-23T08:15:00Z", "2022-10-23T08:15:00Z", "2022-10-23T08:15:00Z", "2022-10-23T08:15:00Z", "2022-10-23T08:15:00Z", "2022-10-23T08:15:00Z", "2022-10-23T08:15:00Z", "2022-10-23T08:15:00Z", "2022-10-23T08:15:00Z", "2022-10-23T08:15:00Z", "2022-10-23T08:15:00Z", "2022-10-23T08:15:00Z", "2022-10-23T08:15:00Z", "2022-10-23T07:51:00Z", "2022-10-23T08:15:00Z", "2022-10-23T08:15:00Z", "2022-10-23T08:10:00Z", "2022-10-23T08:15:00Z", "2022-10-23T07:56:00Z", "2022-10-23T08:15:00Z", "2022-10-23T08:15:00Z", "2022-10-23T08:15:00Z", "2022-10-23T07:56:00Z", "2022-10-23T08:15:00Z", "2022-10-23T08:15:00Z", "2022-10-23T08:15:00Z", "2022-10-23T08:15:00Z", "2022-10-23T08:15:00Z", "2022-10-23T08:15:00Z", "2022-10-23T07:56:00Z", "2022-10-23T08:15:00Z", "2022-10-23T08:15:00Z", "2022-10-23T08:15:00Z", "2022-10-23T08:15:00Z", "2022-10-23T08:15:00Z", "2022-10-23T07:55:00Z", "2022-10-23T08:15:00Z", "2022-10-23T08:15:00Z", "2022-10-23T08:15:00Z", "2022-10-23T07:53:00Z", "2022-10-23T07:54:00Z", "2022-10-23T08:15:00Z", "2022-10-23T07:55:00Z", "2022-10-23T07:51:00Z", "2022-10-23T07:55:00Z", "2022-10-23T07:52:00Z", "2022-10-23T07:52:00Z", "2022-10-23T07:53:00Z", "2022-10-23T07:53:00Z", "2022-10-23T08:15:00Z", "2022-10-23T08:15:00Z", "2022-10-23T07:53:00Z", "2022-10-23T08:15:00Z", "2022-10-23T08:15:00Z", "2022-10-23T07:51:00Z", "2022-10-23T07:53:00Z", "2022-10-23T07:54:00Z", "2022-10-23T08:17:00Z", "2022-10-23T07:56:00Z", "2022-10-23T07:53:00Z", "2022-10-23T08:15:00Z", "2022-10-23T08:15:00Z", "2022-10-23T08:15:00Z", "2022-10-23T08:15:00Z", "2022-10-23T08:15:00Z", "2022-10-23T07:55:00Z", "2022-10-23T08:15:00Z", "2022-10-23T08:15:00Z", "2022-10-23T08:15:00Z", "2022-10-23T07:53:00Z", "2022-10-23T07:55:00Z", "2022-10-23T07:56:00Z", "2022-10-23T08:15:00Z", "2022-10-23T07:52:00Z", "2022-10-23T08:15:00Z", "2022-10-23T08:15:00Z", "2022-10-23T07:53:00Z", "2022-10-23T07:53:00Z", "2022-10-23T08:15:00Z", "2022-10-23T08:15:00Z", "2022-10-23T07:53:00Z", "2022-10-23T07:51:00Z", "2022-10-23T08:15:00Z", "2022-10-23T07:53:00Z", "2022-10-23T08:15:00Z", "2022-10-23T08:15:00Z", "2022-10-23T08:15:00Z", "2022-10-23T08:15:00Z", "2022-10-23T08:15:00Z", "2022-10-23T07:56:00Z", "2022-10-23T08:15:00Z", "2022-10-23T08:08:00Z", "2022-10-23T08:15:00Z", "2022-10-23T08:15:00Z", "2022-10-23T07:54:00Z", "2022-10-23T07:53:00Z", "2022-10-23T07:54:00Z", "2022-10-23T07:54:00Z", "2022-10-23T07:51:00Z", "2022-10-23T07:53:00Z", "2022-10-23T07:56:00Z", "2022-10-23T08:15:00Z", "2022-10-23T08:15:00Z", "2022-10-23T07:54:00Z", "2022-10-23T07:52:00Z", "2022-10-23T07:53:00Z", "2022-10-23T08:15:00Z", "2022-10-23T07:53:00Z", "2022-10-23T07:53:00Z", "2022-10-23T08:15:00Z", "2022-10-23T07:53:00Z", "2022-10-23T07:53:00Z", "2022-10-23T07:56:00Z", "2022-10-23T08:15:00Z", "2022-10-23T07:55:00Z", "2022-10-23T08:10:00Z", "2022-10-23T08:15:00Z", "2022-10-23T08:15:00Z", "2022-10-23T07:53:00Z", "2022-10-23T07:53:00Z", "2022-10-23T07:53:00Z", "2022-10-23T07:54:00Z", "2022-10-23T07:53:00Z", "2022-10-23T07:54:00Z", "2022-10-23T08:16:00Z", "2022-10-23T08:15:00Z", "2022-10-23T08:13:00Z", "2022-10-23T07:57:00Z", "2022-10-23T07:52:00Z", "2022-10-23T08:15:00Z", "2022-10-23T07:53:00Z", "2022-10-23T07:53:00Z", "2022-10-23T07:56:00Z", "2022-10-23T08:15:00Z", "2022-10-23T07:52:00Z", "2022-10-23T07:56:00Z", "2022-10-23T08:15:00Z", "2022-10-23T08:15:00Z", "2022-10-23T07:53:00Z", "2022-10-23T07:53:00Z", "2022-10-23T07:56:00Z", "2022-10-23T08:15:00Z", "2022-10-23T08:15:00Z", "2022-10-23T08:15:00Z", "2022-10-23T07:55:00Z", "2022-10-23T08:15:00Z", "2022-10-23T08:17:00Z", "2022-10-23T08:15:00Z", "2022-10-23T07:52:00Z", "2022-10-23T08:15:00Z", "2022-10-23T08:15:00Z", "2022-10-23T07:51:00Z", "2022-10-23T07:53:00Z", "2022-10-23T08:07:00Z", "2022-10-23T08:15:00Z", "2022-10-23T08:16:00Z", "2022-10-23T08:15:00Z", "2022-10-23T07:56:00Z", "2022-10-23T07:53:00Z", "2022-10-23T07:54:00Z", "2022-10-23T08:15:00Z", "2022-10-23T08:15:00Z", "2022-10-23T07:54:00Z", "2022-10-23T07:54:00Z", "2022-10-23T08:15:00Z", "2022-10-23T08:01:00Z", "2022-10-23T08:15:00Z", "2022-10-23T07:53:00Z", "2022-10-23T08:10:00Z", "2022-10-23T08:15:00Z", "2022-10-23T08:15:00Z", "2022-10-23T07:53:00Z", "2022-10-23T08:15:00Z", "2022-10-23T08:15:00Z", "2022-10-23T08:15:00Z", "2022-10-23T08:15:00Z", "2022-10-23T08:15:00Z", "2022-10-23T08:15:00Z", "2022-10-23T07:53:00Z", "2022-10-23T07:55:00Z", "2022-10-23T08:15:00Z", "2022-10-23T07:55:00Z", "2022-10-23T07:53:00Z", "2022-10-23T08:15:00Z", "2022-10-23T07:52:00Z", "2022-10-23T08:15:00Z", "2022-10-23T07:51:00Z", "2022-10-23T08:16:00Z", "2022-10-23T08:15:00Z", "2022-10-23T08:15:00Z", "2022-10-23T08:15:00Z", "2022-10-23T07:53:00Z", "2022-10-23T08:15:00Z", "2022-10-23T08:15:00Z", "2022-10-23T08:15:00Z", "2022-10-23T07:58:00Z", "2022-10-23T07:53:00Z", "2022-10-23T08:15:00Z", "2022-10-23T08:15:00Z", "2022-10-23T07:51:00Z", "2022-10-23T07:45:00Z", "2022-10-23T07:52:00Z", "2022-10-23T08:15:00Z", "2022-10-23T08:15:00Z", "2022-10-23T08:15:00Z", "2022-10-23T07:51:00Z", "2022-10-23T07:53:00Z", "2022-10-23T07:53:00Z", "2022-10-23T07:53:00Z", "2022-10-23T07:53:00Z", "2022-10-23T07:54:00Z", "2022-10-23T07:53:00Z", "2022-10-23T07:51:00Z", "2022-10-23T08:15:00Z", "2022-10-23T08:15:00Z", "2022-10-23T07:53:00Z", "2022-10-23T07:53:00Z", "2022-10-23T07:56:00Z", "2022-10-23T08:15:00Z", "2022-10-23T07:51:00Z", "2022-10-23T07:53:00Z", "2022-10-23T07:56:00Z", "2022-10-23T08:15:00Z", "2022-10-23T07:55:00Z", "2022-10-23T07:56:00Z", "2022-10-23T08:15:00Z", "2022-10-23T07:53:00Z", "2022-10-23T07:52:00Z", "2022-10-23T07:53:00Z", "2022-10-23T07:55:00Z", "2022-10-23T08:15:00Z", "2022-10-23T08:15:00Z", "2022-10-23T07:56:00Z", "2022-10-23T07:52:00Z", "2022-10-23T08:15:00Z", "2022-10-23T07:53:00Z", "2022-10-23T07:55:00Z", "2022-10-23T07:53:00Z", "2022-10-23T08:15:00Z", "2022-10-23T08:15:00Z", "2022-10-23T07:53:00Z", "2022-10-23T07:51:00Z", "2022-10-23T07:56:00Z", "2022-10-23T07:52:00Z", "2022-10-23T07:52:00Z", "2022-10-23T08:25:00Z", "2022-10-23T07:56:00Z", "2022-10-23T07:52:00Z", "2022-10-23T07:55:00Z", "2022-10-23T08:10:00Z", "2022-10-23T07:53:00Z", "2022-10-23T07:56:00Z", "2022-10-23T08:19:00Z", "2022-10-23T07:53:00Z", "2022-10-23T08:15:00Z", "2022-10-23T07:53:00Z", "2022-10-23T08:15:00Z", "2022-10-23T07:53:00Z", "2022-10-23T08:15:00Z", "2022-10-23T07:53:00Z", "2022-10-23T07:56:00Z", "2022-10-23T07:54:00Z", "2022-10-23T08:15:00Z", "2022-10-23T08:15:00Z", "2022-10-23T08:15:00Z", "2022-10-23T07:53:00Z", "2022-10-23T07:53:00Z", "2022-10-23T07:53:00Z", "2022-10-23T08:15:00Z", "2022-10-23T08:15:00Z", "2022-10-23T08:15:00Z", "2022-10-23T07:53:00Z", "2022-10-23T08:15:00Z", "2022-10-23T07:53:00Z", "2022-10-23T07:53:00Z", "2022-10-23T08:15:00Z", "2022-10-23T08:15:00Z", "2022-10-23T07:53:00Z", "2022-10-23T08:15:00Z", "2022-10-23T07:56:00Z", "2022-10-23T07:53:00Z", "2022-10-23T07:54:00Z", "2022-10-23T07:54:00Z", "2022-10-23T08:12:00Z", "2022-10-23T08:15:00Z", "2022-10-23T07:54:00Z", "2022-10-23T08:15:00Z", "2022-10-23T08:15:00Z", "2022-10-23T07:53:00Z", "2022-10-23T08:15:00Z", "2022-10-23T08:15:00Z", "2022-10-23T07:56:00Z", "2022-10-23T07:53:00Z", "2022-10-23T07:53:00Z", "2022-10-23T07:54:00Z", "2022-10-23T08:15:00Z", "2022-10-23T08:15:00Z", "2022-10-23T08:15:00Z", "2022-10-23T08:15:00Z", "2022-10-23T07:53:00Z", "2022-10-23T07:53:00Z", "2022-10-23T08:15:00Z", "2022-10-23T07:55:00Z", "2022-10-23T08:15:00Z", "2022-10-23T08:18:00Z", "2022-10-23T08:15:00Z", "2022-10-23T08:15:00Z", "2022-10-23T08:15:00Z", "2022-10-23T08:15:00Z", "2022-10-23T08:15:00Z", "2022-10-23T08:15:00Z", "2022-10-23T08:15:00Z", "2022-10-23T08:11:00Z", "2022-10-23T08:15:00Z", "2022-10-23T07:56:00Z", "2022-10-23T08:16:00Z", "2022-10-23T07:51:00Z", "2022-10-23T07:55:00Z", "2022-10-23T07:54:00Z", "2022-10-23T08:15:00Z", "2022-10-23T08:15:00Z", "2022-10-23T08:15:00Z", "2022-10-23T08:15:00Z", "2022-10-23T08:15:00Z", "2022-10-23T07:55:00Z", "2022-10-23T08:15:00Z", "2022-10-23T08:15:00Z", "2022-10-23T08:15:00Z", "2022-10-23T07:53:00Z", "2022-10-23T08:15:00Z", "2022-10-23T08:15:00Z", "2022-10-23T08:15:00Z", "2022-10-23T08:26:00Z", "2022-10-23T08:15:00Z", "2022-10-23T08:15:00Z", "2022-10-23T08:15:00Z", "2022-10-23T07:51:00Z", "2022-10-23T08:15:00Z", "2022-10-23T07:53:00Z", "2022-10-23T07:53:00Z", "2022-10-23T08:03:00Z", "2022-10-23T07:56:00Z", "2022-10-23T07:55:00Z", "2022-10-23T07:54:00Z", "2022-10-23T07:53:00Z", "2022-10-23T08:15:00Z", "2022-10-23T07:53:00Z", "2022-10-23T08:15:00Z", "2022-10-23T08:15:00Z", "2022-10-23T08:15:00Z", "2022-10-23T08:15:00Z", "2022-10-23T08:15:00Z", "2022-10-23T07:52:00Z", "2022-10-23T08:15:00Z", "2022-10-23T08:15:00Z", "2022-10-23T08:15:00Z", "2022-10-23T07:53:00Z", "2022-10-23T07:56:00Z", "2022-10-23T07:53:00Z", "2022-10-23T08:10:00Z", "2022-10-23T07:53:00Z", "2022-10-23T07:56:00Z", "2022-10-23T08:15:00Z", "2022-10-23T07:52:00Z", "2022-10-23T08:15:00Z", "2022-10-23T08:15:00Z", "2022-10-23T07:56:00Z", "2022-10-23T08:15:00Z", "2022-10-23T07:53:00Z", "2022-10-23T08:17:00Z", "2022-10-23T08:15:00Z", "2022-10-23T08:15:00Z", "2022-10-23T08:15:00Z", "2022-10-23T08:15:00Z", "2022-10-23T08:15:00Z", "2022-10-23T07:52:00Z", "2022-10-23T08:15:00Z", "2022-10-23T07:51:00Z", "2022-10-23T08:15:00Z", "2022-10-23T08:15:00Z", "2022-10-23T07:53:00Z", "2022-10-23T07:53:00Z", "2022-10-23T08:15:00Z", "2022-10-23T07:52:00Z", "2022-10-23T08:15:00Z", "2022-10-23T08:22:00Z", "2022-10-23T08:15:00Z", "2022-10-23T07:51:00Z", "2022-10-23T07:53:00Z", "2022-10-23T08:15:00Z", "2022-10-23T07:53:00Z", "2022-10-23T07:58:00Z", "2022-10-23T08:15:00Z", "2022-10-23T08:15:00Z", "2022-10-23T08:15:00Z", "2022-10-23T07:55:00Z", "2022-10-23T07:53:00Z", "2022-10-23T07:53:00Z", "2022-10-23T07:52:00Z", "2022-10-23T08:23:00Z", "2022-10-23T08:12:00Z", "2022-10-23T07:56:00Z", "2022-10-23T07:55:00Z", "2022-10-23T08:15:00Z", "2022-10-23T07:51:00Z", "2022-10-23T08:15:00Z", "2022-10-23T07:54:00Z", "2022-10-23T07:53:00Z", "2022-10-23T07:54:00Z", "2022-10-23T08:15:00Z", "2022-10-23T08:15:00Z", "2022-10-23T07:53:00Z", "2022-10-23T07:53:00Z", "2022-10-23T08:15:00Z", "2022-10-23T08:15:00Z", "2022-10-23T08:15:00Z", "2022-10-23T08:15:00Z", "2022-10-23T07:53:00Z", "2022-10-23T08:15:00Z", "2022-10-23T08:16:00Z", "2022-10-23T07:47:00Z", "2022-10-23T08:15:00Z", "2022-10-23T08:18:00Z", "2022-10-23T07:53:00Z", "2022-10-23T07:53:00Z", "2022-10-23T07:51:00Z", "2022-10-23T08:11:00Z", "2022-10-23T07:53:00Z", "2022-10-23T07:54:00Z", "2022-10-23T08:15:00Z", "2022-10-23T07:51:00Z", "2022-10-23T07:53:00Z", "2022-10-23T08:15:00Z", "2022-10-23T07:53:00Z", "2022-10-23T08:07:00Z", "2022-10-23T08:15:00Z", "2022-10-23T08:15:00Z", "2022-10-23T08:15:00Z", "2022-10-23T07:53:00Z", "2022-10-23T08:15:00Z", "2022-10-23T08:13:00Z", "2022-10-23T07:53:00Z", "2022-10-23T08:15:00Z", "2022-10-23T07:52:00Z", "2022-10-23T08:15:00Z", "2022-10-23T07:56:00Z", "2022-10-23T07:56:00Z", "2022-10-23T07:55:00Z", "2022-10-23T08:15:00Z", "2022-10-23T08:15:00Z", "2022-10-23T08:15:00Z", "2022-10-23T08:15:00Z", "2022-10-23T07:56:00Z", "2022-10-23T08:14:00Z", "2022-10-23T08:15:00Z", "2022-10-23T08:15:00Z", "2022-10-23T07:53:00Z", "2022-10-23T08:15:00Z", "2022-10-23T08:15:00Z", "2022-10-23T08:15:00Z", "2022-10-23T07:56:00Z", "2022-10-23T08:13:00Z", "2022-10-23T07:53:00Z", "2022-10-23T08:15:00Z", "2022-10-23T08:15:00Z", "2022-10-23T07:56:00Z", "2022-10-23T08:15:00Z", "2022-10-23T08:15:00Z", "2022-10-23T08:15:00Z", "2022-10-23T08:15:00Z", "2022-10-23T08:15:00Z", "2022-10-23T08:15:00Z", "2022-10-23T08:15:00Z", "2022-10-23T08:15:00Z", "2022-10-23T07:55:00Z", "2022-10-23T07:53:00Z", "2022-10-23T07:50:00Z", "2022-10-23T07:53:00Z", "2022-10-23T07:53:00Z", "2022-10-23T07:51:00Z", "2022-10-23T07:56:00Z", "2022-10-23T08:15:00Z", "2022-10-23T07:53:00Z", "2022-10-23T07:52:00Z", "2022-10-23T08:15:00Z", "2022-10-23T07:53:00Z", "2022-10-23T08:15:00Z", "2022-10-23T07:52:00Z", "2022-10-23T07:54:00Z", "2022-10-23T07:54:00Z", "2022-10-23T08:15:00Z", "2022-10-23T08:15:00Z", "2022-10-23T07:53:00Z", "2022-10-23T07:53:00Z", "2022-10-23T07:53:00Z", "2022-10-23T07:53:00Z", "2022-10-23T07:53:00Z", "2022-10-23T07:53:00Z", "2022-10-23T07:53:00Z", "2022-10-23T07:53:00Z", "2022-10-23T07:53:00Z", "2022-10-23T08:22:00Z", "2022-10-23T08:21:00Z", "2022-10-23T08:15:00Z", "2022-10-23T07:53:00Z", "2022-10-23T08:15:00Z", "2022-10-23T08:15:00Z", "2022-10-23T07:55:00Z", "2022-10-23T07:55:00Z", "2022-10-23T08:02:00Z", "2022-10-23T08:15:00Z", "2022-10-23T07:53:00Z", "2022-10-23T08:15:00Z", "2022-10-23T07:55:00Z", "2022-10-23T07:54:00Z", "2022-10-23T07:53:00Z", "2022-10-23T07:53:00Z", "2022-10-23T08:15:00Z", "2022-10-23T08:15:00Z", "2022-10-23T07:53:00Z", "2022-10-23T08:15:00Z", "2022-10-23T08:15:00Z", "2022-10-23T07:55:00Z", "2022-10-23T07:52:00Z", "2022-10-23T08:15:00Z", "2022-10-23T08:15:00Z", "2022-10-23T07:53:00Z", "2022-10-23T08:15:00Z", "2022-10-23T08:15:00Z", "2022-10-23T07:53:00Z", "2022-10-23T07:53:00Z", "2022-10-23T08:15:00Z", "2022-10-23T07:54:00Z", "2022-10-23T07:54:00Z", "2022-10-23T08:15:00Z", "2022-10-23T08:15:00Z", "2022-10-23T07:53:00Z", "2022-10-23T07:53:00Z", "2022-10-23T07:53:00Z", "2022-10-23T07:53:00Z", "2022-10-23T08:15:00Z", "2022-10-23T08:16:00Z", "2022-10-23T08:15:00Z", "2022-10-23T08:15:00Z", "2022-10-23T07:53:00Z", "2022-10-23T08:15:00Z", "2022-10-23T08:10:00Z", "2022-10-23T07:56:00Z", "2022-10-23T07:52:00Z", "2022-10-23T08:15:00Z", "2022-10-23T08:13:00Z", "2022-10-23T07:53:00Z", "2022-10-23T08:15:00Z", "2022-10-23T07:53:00Z", "2022-10-23T07:56:00Z", "2022-10-23T08:10:00Z", "2022-10-23T07:53:00Z", "2022-10-23T08:15:00Z", "2022-10-23T08:15:00Z", "2022-10-23T08:15:00Z", "2022-10-23T07:54:00Z", "2022-10-23T07:56:00Z", "2022-10-23T07:55:00Z", "2022-10-23T08:15:00Z", "2022-10-23T08:15:00Z", "2022-10-23T08:15:00Z", "2022-10-23T08:15:00Z", "2022-10-23T08:15:00Z", "2022-10-23T08:15:00Z", "2022-10-23T08:15:00Z", "2022-10-23T08:15:00Z", "2022-10-23T08:10:00Z", "2022-10-23T07:56:00Z", "2022-10-23T07:55:00Z", "2022-10-23T07:56:00Z", "2022-10-23T08:15:00Z", "2022-10-23T08:15:00Z", "2022-10-23T08:15:00Z", "2022-10-23T07:54:00Z", "2022-10-23T07:53:00Z", "2022-10-23T08:15:00Z", "2022-10-23T08:15:00Z", "2022-10-23T08:15:00Z", "2022-10-23T08:15:00Z", "2022-10-23T08:15:00Z", "2022-10-23T08:20:00Z", "2022-10-23T07:55:00Z", "2022-10-23T07:56:00Z", "2022-10-23T07:56:00Z", "2022-10-23T07:53:00Z", "2022-10-23T07:53:00Z", "2022-10-23T08:15:00Z", "2022-10-23T08:18:00Z", "2022-10-23T08:15:00Z", "2022-10-23T08:15:00Z", "2022-10-23T08:15:00Z", "2022-10-23T08:15:00Z", "2022-10-23T07:56:00Z", "2022-10-23T08:15:00Z", "2022-10-23T08:15:00Z", "2022-10-23T07:51:00Z", "2022-10-23T07:56:00Z", "2022-10-23T07:56:00Z", "2022-10-23T08:15:00Z", "2022-10-23T08:15:00Z", "2022-10-23T07:56:00Z", "2022-10-23T08:15:00Z", "2022-10-23T07:53:00Z", "2022-10-23T08:15:00Z", "2022-10-23T07:53:00Z", "2022-10-23T07:53:00Z", "2022-10-23T08:15:00Z", "2022-10-23T07:51:00Z", "2022-10-23T08:22:00Z", "2022-10-23T07:56:00Z", "2022-10-23T08:15:00Z", "2022-10-23T07:53:00Z", "2022-10-23T07:55:00Z", "2022-10-23T07:56:00Z", "2022-10-23T07:53:00Z", "2022-10-23T08:15:00Z", "2022-10-23T07:53:00Z", "2022-10-23T08:15:00Z", "2022-10-23T07:53:00Z", "2022-10-23T07:51:00Z", "2022-10-23T08:15:00Z", "2022-10-23T08:15:00Z", "2022-10-23T07:56:00Z", "2022-10-23T07:53:00Z", "2022-10-23T08:23:00Z", "2022-10-23T07:52:00Z", "2022-10-23T08:15:00Z", "2022-10-23T08:15:00Z", "2022-10-23T08:13:00Z", "2022-10-23T08:15:00Z", "2022-10-23T07:58:00Z", "2022-10-23T07:54:00Z", "2022-10-23T08:21:00Z", "2022-10-23T08:15:00Z", "2022-10-23T07:54:00Z", "2022-10-23T07:53:00Z", "2022-10-23T07:53:00Z", "2022-10-23T07:56:00Z", "2022-10-23T07:54:00Z", "2022-10-23T07:51:00Z", "2022-10-23T08:15:00Z", "2022-10-23T07:53:00Z", "2022-10-23T08:15:00Z", "2022-10-23T07:53:00Z", "2022-10-23T08:15:00Z", "2022-10-23T08:15:00Z", "2022-10-23T08:15:00Z", "2022-10-23T08:15:00Z", "2022-10-23T08:15:00Z", "2022-10-23T08:15:00Z", "2022-10-23T08:15:00Z", "2022-10-23T08:15:00Z", "2022-10-23T08:15:00Z", "2022-10-23T07:55:00Z", "2022-10-23T07:56:00Z", "2022-10-23T07:54:00Z", "2022-10-23T07:53:00Z", "2022-10-23T07:53:00Z", "2022-10-23T07:55:00Z", "2022-10-23T08:15:00Z", "2022-10-23T07:56:00Z", "2022-10-23T07:53:00Z", "2022-10-23T07:55:00Z", "2022-10-23T08:20:00Z", "2022-10-23T07:53:00Z", "2022-10-23T08:15:00Z", "2022-10-23T07:53:00Z", "2022-10-23T08:15:00Z", "2022-10-23T08:15:00Z", "2022-10-23T07:53:00Z", "2022-10-23T08:15:00Z", "2022-10-23T08:15:00Z", "2022-10-23T07:55:00Z", "2022-10-23T07:53:00Z", "2022-10-23T08:15:00Z", "2022-10-23T07:54:00Z", "2022-10-23T08:15:00Z", "2022-10-23T08:15:00Z", "2022-10-23T08:15:00Z", "2022-10-23T07:53:00Z", "2022-10-23T07:55:00Z", "2022-10-23T07:54:00Z", "2022-10-23T08:15:00Z", "2022-10-23T07:52:00Z", "2022-10-23T08:15:00Z", "2022-10-23T07:56:00Z", "2022-10-23T08:15:00Z", "2022-10-23T08:15:00Z", "2022-10-23T08:15:00Z", "2022-10-23T07:53:00Z", "2022-10-23T07:57:00Z", "2022-10-23T07:53:00Z", "2022-10-23T07:53:00Z", "2022-10-23T07:56:00Z", "2022-10-23T08:15:00Z", "2022-10-23T08:19:00Z", "2022-10-23T07:56:00Z", "2022-10-23T08:15:00Z", "2022-10-23T07:53:00Z", "2022-10-23T07:53:00Z", "2022-10-23T07:53:00Z", "2022-10-23T07:56:00Z", "2022-10-23T07:53:00Z", "2022-10-23T08:15:00Z", "2022-10-23T07:56:00Z", "2022-10-23T07:53:00Z", "2022-10-23T07:53:00Z", "2022-10-23T08:10:00Z", "2022-10-23T08:13:00Z", "2022-10-23T08:15:00Z", "2022-10-23T07:53:00Z", "2022-10-23T08:15:00Z", "2022-10-23T08:15:00Z", "2022-10-23T07:53:00Z", "2022-10-23T08:15:00Z", "2022-10-23T07:55:00Z", "2022-10-23T07:56:00Z", "2022-10-23T08:15:00Z", "2022-10-23T07:56:00Z", "2022-10-23T08:15:00Z", "2022-10-23T07:55:00Z", "2022-10-23T08:15:00Z", "2022-10-23T07:53:00Z", "2022-10-23T08:15:00Z", "2022-10-23T07:53:00Z", "2022-10-23T08:15:00Z", "2022-10-23T07:55:00Z", "2022-10-23T08:15:00Z", "2022-10-23T07:53:00Z", "2022-10-23T07:53:00Z", "2022-10-23T08:16:00Z", "2022-10-23T07:53:00Z", "2022-10-23T08:15:00Z", "2022-10-23T07:54:00Z", "2022-10-23T08:15:00Z", "2022-10-23T08:15:00Z", "2022-10-23T07:53:00Z", "2022-10-23T08:15:00Z", "2022-10-23T08:15:00Z", "2022-10-23T07:53:00Z", "2022-10-23T08:15:00Z", "2022-10-23T08:15:00Z", "2022-10-23T07:15:00Z", "2022-10-23T08:15:00Z", "2022-10-23T08:20:00Z", "2022-10-23T07:53:00Z", "2022-10-23T08:15:00Z", "2022-10-23T07:56:00Z", "2022-10-23T07:53:00Z", "2022-10-23T07:56:00Z", "2022-10-23T08:15:00Z", "2022-10-23T07:56:00Z", "2022-10-23T08:15:00Z", "2022-10-23T08:15:00Z", "2022-10-23T07:53:00Z", "2022-10-23T08:15:00Z", "2022-10-23T07:54:00Z", "2022-10-23T08:15:00Z", "2022-10-23T07:54:00Z", "2022-10-23T08:15:00Z", "2022-10-23T08:15:00Z", "2022-10-23T08:15:00Z", "2022-10-23T07:51:00Z", "2022-10-23T08:14:00Z", "2022-10-23T08:12:00Z", "2022-10-23T07:53:00Z", "2022-10-23T08:15:00Z", "2022-10-23T07:53:00Z", "2022-10-23T07:53:00Z", "2022-10-23T08:05:00Z", "2022-10-23T07:53:00Z", "2022-10-23T07:53:00Z", "2022-10-23T08:15:00Z", "2022-10-23T08:15:00Z", "2022-10-23T07:53:00Z", "2022-10-23T08:15:00Z", "2022-10-23T08:15:00Z", "2022-10-23T07:53:00Z", "2022-10-23T08:15:00Z", "2022-10-23T08:15:00Z", "2022-10-23T08:15:00Z", "2022-10-23T08:15:00Z", "2022-10-23T07:53:00Z", "2022-10-23T07:53:00Z", "2022-10-23T07:53:00Z", "2022-10-23T08:15:00Z", "2022-10-23T07:53:00Z", "2022-10-23T07:53:00Z", "2022-10-23T08:15:00Z", "2022-10-23T07:53:00Z", "2022-10-23T07:53:00Z", "2022-10-23T07:52:00Z", "2022-10-23T08:15:00Z", "2022-10-23T08:15:00Z", "2022-10-23T08:15:00Z", "2022-10-23T08:15:00Z", "2022-10-23T07:53:00Z", "2022-10-23T07:56:00Z", "2022-10-23T08:15:00Z", "2022-10-23T08:15:00Z", "2022-10-23T08:15:00Z", "2022-10-23T07:56:00Z", "2022-10-23T08:15:00Z", "2022-10-23T07:53:00Z", "2022-10-23T07:53:00Z", "2022-10-23T07:56:00Z", "2022-10-23T08:15:00Z", "2022-10-23T08:15:00Z", "2022-10-23T07:58:00Z", "2022-10-23T08:15:00Z", "2022-10-23T07:55:00Z", "2022-10-23T08:15:00Z", "2022-10-23T08:21:00Z", "2022-10-23T07:56:00Z", "2022-10-23T07:53:00Z", "2022-10-23T07:56:00Z", "2022-10-23T08:05:00Z", "2022-10-23T07:53:00Z", "2022-10-23T08:00:00Z", "2022-10-23T08:15:00Z", "2022-10-23T07:53:00Z", "2022-10-23T08:15:00Z", "2022-10-23T07:55:00Z", "2022-10-23T07:53:00Z", "2022-10-23T07:54:00Z", "2022-10-23T07:53:00Z", "2022-10-23T07:55:00Z", "2022-10-23T07:53:00Z", "2022-10-23T07:56:00Z", "2022-10-23T08:07:00Z", "2022-10-23T07:56:00Z", "2022-10-23T07:53:00Z", "2022-10-23T07:55:00Z", "2022-10-23T07:53:00Z", "2022-10-23T07:53:00Z", "2022-10-23T07:56:00Z", "2022-10-23T08:15:00Z", "2022-10-23T08:10:00Z", "2022-10-23T08:15:00Z", "2022-10-23T07:53:00Z", "2022-10-23T08:15:00Z", "2022-10-23T08:15:00Z", "2022-10-23T07:55:00Z", "2022-10-23T07:56:00Z", "2022-10-23T08:15:00Z", "2022-10-23T08:16:00Z", "2022-10-23T08:15:00Z", "2022-10-23T08:15:00Z", "2022-10-23T08:15:00Z", "2022-10-23T08:15:00Z", "2022-10-23T08:24:00Z", "2022-10-23T08:15:00Z", "2022-10-23T08:00:00Z", "2022-10-23T08:15:00Z", "2022-10-23T08:15:00Z", "2022-10-23T08:15:00Z", "2022-10-23T08:15:00Z", "2022-10-23T08:15:00Z", "2022-10-23T07:53:00Z", "2022-10-23T07:53:00Z", "2022-10-23T08:15:00Z", "2022-10-23T07:53:00Z", "2022-10-23T08:10:00Z", "2022-10-23T08:15:00Z", "2022-10-23T08:15:00Z", "2022-10-23T08:15:00Z", "2022-10-23T08:19:00Z", "2022-10-23T08:15:00Z", "2022-10-23T08:15:00Z", "2022-10-23T08:25:00Z", "2022-10-23T07:51:00Z", "2022-10-23T07:56:00Z", "2022-10-23T08:15:00Z", "2022-10-23T07:53:00Z", "2022-10-23T08:15:00Z", "2022-10-23T07:55:00Z", "2022-10-23T07:56:00Z", "2022-10-23T07:53:00Z", "2022-10-23T07:55:00Z", "2022-10-23T08:15:00Z", "2022-10-23T08:15:00Z", "2022-10-23T07:53:00Z", "2022-10-23T08:15:00Z", "2022-10-23T08:15:00Z", "2022-10-23T07:53:00Z", "2022-10-23T08:15:00Z", "2022-10-23T08:15:00Z", "2022-10-23T07:53:00Z", "2022-10-23T07:52:00Z", "2022-10-23T07:55:00Z", "2022-10-23T08:15:00Z", "2022-10-23T07:53:00Z", "2022-10-23T08:15:00Z", "2022-10-23T07:53:00Z", "2022-10-23T07:53:00Z", "2022-10-23T07:53:00Z", "2022-10-23T07:53:00Z", "2022-10-23T08:15:00Z", "2022-10-23T07:53:00Z", "2022-10-23T07:53:00Z", "2022-10-23T08:16:00Z", "2022-10-23T08:05:00Z", "2022-10-23T08:15:00Z", "2022-10-23T07:55:00Z", "2022-10-23T08:15:00Z", "2022-10-23T08:15:00Z", "2022-10-23T08:15:00Z", "2022-10-23T07:56:00Z", "2022-10-23T07:56:00Z", "2022-10-23T08:15:00Z", "2022-10-23T08:15:00Z", "2022-10-23T08:15:00Z", "2022-10-23T07:55:00Z", "2022-10-23T07:55:00Z", "2022-10-23T07:53:00Z", "2022-10-23T07:53:00Z", "2022-10-23T07:56:00Z", "2022-10-23T08:15:00Z", "2022-10-23T08:15:00Z", "2022-10-23T08:15:00Z", "2022-10-23T07:53:00Z", "2022-10-23T08:15:00Z", "2022-10-23T08:15:00Z", "2022-10-23T08:15:00Z", "2022-10-23T07:53:00Z", "2022-10-23T08:15:00Z", "2022-10-23T07:52:00Z", "2022-10-23T07:53:00Z", "2022-10-23T07:55:00Z", "2022-10-23T08:15:00Z", "2022-10-23T08:15:00Z", "2022-10-23T08:15:00Z", "2022-10-23T08:20:00Z", "2022-10-23T08:10:00Z", "2022-10-23T07:53:00Z", "2022-10-23T08:15:00Z", "2022-10-23T07:55:00Z", "2022-10-23T07:53:00Z", "2022-10-23T07:53:00Z", "2022-10-23T07:51:00Z", "2022-10-23T07:53:00Z", "2022-10-23T07:53:00Z", "2022-10-23T08:15:00Z", "2022-10-23T07:52:00Z", "2022-10-23T08:15:00Z", "2022-10-23T07:53:00Z", "2022-10-23T07:53:00Z", "2022-10-23T08:15:00Z", "2022-10-23T07:54:00Z", "2022-10-23T07:53:00Z", "2022-10-23T07:56:00Z", "2022-10-23T08:15:00Z", "2022-10-23T08:15:00Z", "2022-10-23T07:56:00Z", "2022-10-23T07:56:00Z", "2022-10-23T07:53:00Z", "2022-10-23T07:56:00Z", "2022-10-23T08:15:00Z", "2022-10-23T08:15:00Z", "2022-10-23T08:15:00Z", "2022-10-23T08:15:00Z", "2022-10-23T08:15:00Z", "2022-10-23T08:15:00Z", "2022-10-23T08:15:00Z", "2022-10-23T07:53:00Z", "2022-10-23T08:15:00Z", "2022-10-23T08:15:00Z", "2022-10-23T08:15:00Z", "2022-10-23T08:15:00Z", "2022-10-23T08:15:00Z", "2022-10-23T08:15:00Z", "2022-10-23T08:15:00Z", "2022-10-23T08:15:00Z", "2022-10-23T07:55:00Z", "2022-10-23T07:52:00Z", "2022-10-23T07:53:00Z", "2022-10-23T07:53:00Z", "2022-10-23T08:15:00Z", "2022-10-23T08:15:00Z", "2022-10-23T07:53:00Z", "2022-10-23T07:53:00Z", "2022-10-23T08:19:00Z", "2022-10-23T08:15:00Z", "2022-10-23T08:15:00Z", "2022-10-23T07:52:00Z", "2022-10-23T08:15:00Z", "2022-10-23T08:15:00Z", "2022-10-23T08:15:00Z", "2022-10-23T07:51:00Z", "2022-10-23T08:15:00Z", "2022-10-23T08:15:00Z", "2022-10-23T08:15:00Z", "2022-10-23T07:52:00Z", "2022-10-23T08:15:00Z", "2022-10-23T08:15:00Z", "2022-10-23T08:15:00Z", "2022-10-23T08:15:00Z", "2022-10-23T08:07:00Z", "2022-10-23T07:51:00Z", "2022-10-23T07:53:00Z", "2022-10-23T07:54:00Z", "2022-10-23T07:53:00Z", "2022-10-23T08:15:00Z", "2022-10-23T07:54:00Z", "2022-10-23T07:54:00Z", "2022-10-23T08:15:00Z", "2022-10-23T08:15:00Z", "2022-10-23T07:53:00Z", "2022-10-23T07:54:00Z", "2022-10-23T07:55:00Z", "2022-10-23T07:54:00Z", "2022-10-23T07:56:00Z", "2022-10-23T08:15:00Z", "2022-10-23T07:52:00Z", "2022-10-23T08:15:00Z", "2022-10-23T07:54:00Z", "2022-10-23T07:55:00Z", "2022-10-23T08:15:00Z", "2022-10-23T07:56:00Z", "2022-10-23T08:15:00Z", "2022-10-23T07:56:00Z", "2022-10-23T08:15:00Z", "2022-10-23T07:54:00Z", "2022-10-23T07:56:00Z", "2022-10-23T07:53:00Z", "2022-10-23T08:15:00Z", "2022-10-23T08:15:00Z", "2022-10-23T07:56:00Z", "2022-10-23T08:10:00Z", "2022-10-23T08:15:00Z", "2022-10-23T07:53:00Z", "2022-10-23T08:15:00Z", "2022-10-23T08:15:00Z", "2022-10-23T07:54:00Z", "2022-10-23T07:56:00Z", "2022-10-23T07:54:00Z", "2022-10-23T08:15:00Z", "2022-10-23T08:15:00Z", "2022-10-23T08:05:00Z", "2022-10-23T07:56:00Z", "2022-10-23T07:53:00Z", "2022-10-23T08:15:00Z", "2022-10-23T07:51:00Z", "2022-10-23T08:15:00Z", "2022-10-23T07:48:00Z", "2022-10-23T07:53:00Z", "2022-10-23T07:53:00Z", "2022-10-23T08:15:00Z", "2022-10-23T07:51:00Z", "2022-10-23T08:15:00Z", "2022-10-23T08:15:00Z", "2022-10-23T08:15:00Z", "2022-10-23T07:56:00Z", "2022-10-23T08:15:00Z", "2022-10-23T08:15:00Z", "2022-10-23T07:53:00Z", "2022-10-23T07:53:00Z", "2022-10-23T08:15:00Z", "2022-10-23T07:56:00Z", "2022-10-23T08:15:00Z", "2022-10-23T08:15:00Z", "2022-10-23T08:15:00Z", "2022-10-23T08:15:00Z", "2022-10-23T07:56:00Z", "2022-10-23T08:15:00Z", "2022-10-23T08:00:00Z", "2022-10-23T08:15:00Z", "2022-10-23T07:54:00Z", "2022-10-23T08:15:00Z", "2022-10-23T08:10:00Z", "2022-10-23T08:15:00Z", "2022-10-23T08:15:00Z", "2022-10-23T08:15:00Z", "2022-10-23T08:15:00Z", "2022-10-23T08:15:00Z", "2022-10-23T08:15:00Z", "2022-10-23T07:56:00Z", "2022-10-23T08:16:00Z", "2022-10-23T08:15:00Z", "2022-10-23T08:15:00Z", "2022-10-23T08:15:00Z", "2022-10-23T08:15:00Z", "2022-10-23T08:15:00Z", "2022-10-23T08:15:00Z", "2022-10-23T08:10:00Z", "2022-10-23T08:15:00Z", "2022-10-23T07:56:00Z", "2022-10-23T08:15:00Z", "2022-10-23T08:15:00Z", "2022-10-23T08:15:00Z", "2022-10-23T08:15:00Z", "2022-10-23T08:15:00Z", "2022-10-23T07:53:00Z", "2022-10-23T07:54:00Z", "2022-10-23T08:15:00Z", "2022-10-23T08:15:00Z", "2022-10-23T07:53:00Z", "2022-10-23T07:53:00Z", "2022-10-23T07:56:00Z", "2022-10-23T07:53:00Z", "2022-10-23T07:53:00Z", "2022-10-23T07:53:00Z", "2022-10-23T08:15:00Z", "2022-10-23T07:53:00Z", "2022-10-23T07:56:00Z", "2022-10-23T08:15:00Z", "2022-10-23T07:56:00Z", "2022-10-23T07:53:00Z", "2022-10-23T08:15:00Z", "2022-10-23T07:53:00Z", "2022-10-23T07:56:00Z", "2022-10-23T07:55:00Z", "2022-10-23T08:15:00Z", "2022-10-23T08:15:00Z", "2022-10-23T08:15:00Z", "2022-10-23T08:19:00Z", "2022-10-23T07:53:00Z", "2022-10-23T07:56:00Z", "2022-10-23T07:54:00Z", "2022-10-23T07:55:00Z", "2022-10-23T08:17:00Z", "2022-10-23T07:53:00Z", "2022-10-23T07:51:00Z", "2022-10-23T08:16:00Z", "2022-10-23T08:15:00Z", "2022-10-23T08:08:00Z", "2022-10-23T07:55:00Z", "2022-10-23T08:18:00Z", "2022-10-23T08:15:00Z", "2022-10-23T08:15:00Z", "2022-10-23T07:53:00Z", "2022-10-23T07:55:00Z", "2022-10-23T07:53:00Z", "2022-10-23T08:15:00Z", "2022-10-23T07:55:00Z", "2022-10-23T07:53:00Z", "2022-10-23T08:15:00Z", "2022-10-23T08:15:00Z", "2022-10-23T08:15:00Z", "2022-10-23T07:53:00Z", "2022-10-23T07:55:00Z", "2022-10-23T08:15:00Z", "2022-10-23T07:53:00Z", "2022-10-23T08:15:00Z", "2022-10-23T07:53:00Z", "2022-10-23T08:15:00Z", "2022-10-23T08:15:00Z", "2022-10-23T07:53:00Z", "2022-10-23T07:54:00Z", "2022-10-23T08:15:00Z", "2022-10-23T08:15:00Z", "2022-10-23T08:15:00Z", "2022-10-23T08:15:00Z", "2022-10-23T07:56:00Z", "2022-10-23T07:53:00Z", "2022-10-23T07:53:00Z", "2022-10-23T08:15:00Z", "2022-10-23T07:55:00Z", "2022-10-23T08:15:00Z", "2022-10-23T07:53:00Z", "2022-10-23T07:53:00Z", "2022-10-23T07:56:00Z", "2022-10-23T07:53:00Z", "2022-10-23T08:15:00Z", "2022-10-23T07:56:00Z", "2022-10-23T07:56:00Z", "2022-10-23T08:15:00Z", "2022-10-23T08:15:00Z", "2022-10-23T08:15:00Z", "2022-10-23T08:15:00Z", "2022-10-23T07:53:00Z", "2022-10-23T08:10:00Z", "2022-10-23T08:05:00Z", "2022-10-23T07:55:00Z", "2022-10-23T08:15:00Z", "2022-10-23T08:10:00Z", "2022-10-23T07:55:00Z", "2022-10-23T08:15:00Z", "2022-10-23T07:53:00Z", "2022-10-23T08:15:00Z", "2022-10-23T08:15:00Z", "2022-10-23T08:15:00Z", "2022-10-23T08:15:00Z", "2022-10-23T07:53:00Z", "2022-10-23T07:53:00Z", "2022-10-23T08:15:00Z", "2022-10-23T08:19:00Z", "2022-10-23T08:15:00Z", "2022-10-23T07:53:00Z", "2022-10-23T08:15:00Z", "2022-10-23T08:15:00Z", "2022-10-23T07:52:00Z", "2022-10-23T07:53:00Z", "2022-10-23T07:54:00Z", "2022-10-23T07:56:00Z", "2022-10-23T07:53:00Z", "2022-10-23T08:15:00Z", "2022-10-23T08:15:00Z", "2022-10-23T07:53:00Z", "2022-10-23T07:53:00Z", "2022-10-23T08:15:00Z", "2022-10-23T07:54:00Z", "2022-10-23T08:15:00Z", "2022-10-23T08:15:00Z", "2022-10-23T07:56:00Z", "2022-10-23T08:15:00Z", "2022-10-23T08:15:00Z", "2022-10-23T08:15:00Z", "2022-10-23T08:15:00Z", "2022-10-23T08:15:00Z", "2022-10-23T07:56:00Z", "2022-10-23T08:15:00Z", "2022-10-23T08:15:00Z", "2022-10-23T08:15:00Z", "2022-10-23T08:10:00Z", "2022-10-23T08:15:00Z", "2022-10-23T08:10:00Z", "2022-10-23T07:53:00Z", "2022-10-23T07:53:00Z", "2022-10-23T07:53:00Z", "2022-10-23T08:15:00Z", "2022-10-23T08:15:00Z", "2022-10-23T08:15:00Z", "2022-10-23T07:52:00Z", "2022-10-23T07:56:00Z", "2022-10-23T08:15:00Z", "2022-10-23T07:53:00Z", "2022-10-23T08:15:00Z", "2022-10-23T08:15:00Z", "2022-10-23T07:53:00Z", "2022-10-23T08:15:00Z", "2022-10-23T08:15:00Z", "2022-10-23T07:53:00Z", "2022-10-23T07:55:00Z", "2022-10-23T07:53:00Z", "2022-10-23T07:53:00Z", "2022-10-23T07:53:00Z", "2022-10-23T07:53:00Z", "2022-10-23T07:53:00Z", "2022-10-23T08:15:00Z", "2022-10-23T07:52:00Z", "2022-10-23T08:15:00Z", "2022-10-23T08:15:00Z", "2022-10-23T07:56:00Z", "2022-10-23T07:53:00Z", "2022-10-23T08:15:00Z", "2022-10-23T07:52:00Z", "2022-10-23T08:23:00Z", "2022-10-23T07:58:00Z", "2022-10-23T07:54:00Z", "2022-10-23T08:15:00Z", "2022-10-23T08:15:00Z", "2022-10-23T08:15:00Z", "2022-10-23T07:52:00Z", "2022-10-23T07:53:00Z", "2022-10-23T07:54:00Z", "2022-10-23T07:53:00Z", "2022-10-23T08:15:00Z", "2022-10-23T08:15:00Z", "2022-10-23T07:55:00Z", "2022-10-23T08:15:00Z", "2022-10-23T07:54:00Z", "2022-10-23T07:53:00Z", "2022-10-23T08:15:00Z", "2022-10-23T08:15:00Z", "2022-10-23T07:53:00Z", "2022-10-23T07:53:00Z", "2022-10-23T07:53:00Z", "2022-10-23T07:52:00Z", "2022-10-23T08:15:00Z", "2022-10-23T08:15:00Z", "2022-10-23T08:15:00Z", "2022-10-23T07:56:00Z", "2022-10-23T07:53:00Z", "2022-10-23T08:20:00Z", "2022-10-23T07:53:00Z", "2022-10-23T08:05:00Z", "2022-10-23T07:53:00Z", "2022-10-23T07:53:00Z", "2022-10-23T08:15:00Z", "2022-10-23T07:54:00Z", "2022-10-23T07:53:00Z", "2022-10-23T08:15:00Z", "2022-10-23T08:15:00Z", "2022-10-23T07:54:00Z", "2022-10-23T07:52:00Z", "2022-10-23T07:55:00Z", "2022-10-23T08:15:00Z", "2022-10-23T07:53:00Z", "2022-10-23T08:15:00Z", "2022-10-23T07:53:00Z", "2022-10-23T08:15:00Z", "2022-10-23T07:56:00Z", "2022-10-23T07:56:00Z", "2022-10-23T07:53:00Z", "2022-10-23T07:53:00Z", "2022-10-23T08:15:00Z", "2022-10-23T08:10:00Z", "2022-10-23T07:52:00Z", "2022-10-23T08:15:00Z", "2022-10-23T07:53:00Z", "2022-10-23T07:53:00Z", "2022-10-23T07:53:00Z", "2022-10-23T07:53:00Z", "2022-10-23T08:14:00Z", "2022-10-23T08:15:00Z", "2022-10-23T07:53:00Z", "2022-10-23T07:56:00Z", "2022-10-23T07:55:00Z", "2022-10-23T08:15:00Z", "2022-10-23T08:15:00Z", "2022-10-23T08:15:00Z", "2022-10-23T08:15:00Z", "2022-10-23T07:56:00Z", "2022-10-23T07:53:00Z", "2022-10-23T08:15:00Z", "2022-10-23T08:15:00Z", "2022-10-23T07:56:00Z", "2022-10-23T07:53:00Z", "2022-10-23T08:15:00Z", "2022-10-23T08:15:00Z", "2022-10-23T07:54:00Z", "2022-10-23T08:15:00Z", "2022-10-23T07:53:00Z", "2022-10-23T08:15:00Z", "2022-10-23T07:51:00Z", "2022-10-23T08:10:00Z", "2022-10-23T08:15:00Z", "2022-10-23T08:15:00Z", "2022-10-23T08:15:00Z", "2022-10-23T08:15:00Z", "2022-10-23T07:56:00Z", "2022-10-23T07:53:00Z", "2022-10-23T08:10:00Z", "2022-10-23T07:56:00Z", "2022-10-23T07:58:00Z", "2022-10-23T08:15:00Z", "2022-10-23T08:15:00Z", "2022-10-23T08:15:00Z", "2022-10-23T07:54:00Z", "2022-10-23T07:53:00Z", "2022-10-23T07:53:00Z", "2022-10-23T08:16:00Z", "2022-10-23T07:53:00Z", "2022-10-23T07:53:00Z", "2022-10-23T07:56:00Z", "2022-10-23T07:53:00Z", "2022-10-23T07:55:00Z", "2022-10-23T07:53:00Z", "2022-10-23T07:53:00Z", "2022-10-23T08:15:00Z", "2022-10-23T08:19:00Z", "2022-10-23T07:53:00Z", "2022-10-23T07:54:00Z", "2022-10-23T08:15:00Z", "2022-10-23T07:56:00Z", "2022-10-23T07:55:00Z", "2022-10-23T07:56:00Z", "2022-10-23T08:15:00Z", "2022-10-23T08:15:00Z", "2022-10-23T08:15:00Z", "2022-10-23T07:54:00Z", "2022-10-23T07:56:00Z", "2022-10-23T07:53:00Z", "2022-10-23T08:15:00Z", "2022-10-23T08:15:00Z", "2022-10-23T07:52:00Z", "2022-10-23T08:15:00Z", "2022-10-23T07:53:00Z", "2022-10-23T08:15:00Z", "2022-10-23T07:48:00Z", "2022-10-23T08:15:00Z", "2022-10-23T07:53:00Z", "2022-10-23T08:05:00Z", "2022-10-23T08:23:00Z", "2022-10-23T08:15:00Z", "2022-10-23T07:51:00Z", "2022-10-23T08:21:00Z", "2022-10-23T07:56:00Z", "2022-10-23T07:53:00Z", "2022-10-23T08:10:00Z", "2022-10-23T08:15:00Z", "2022-10-23T08:15:00Z", "2022-10-23T08:15:00Z", "2022-10-23T08:15:00Z", "2022-10-23T07:52:00Z", "2022-10-23T07:54:00Z", "2022-10-23T07:56:00Z", "2022-10-23T08:10:00Z", "2022-10-23T08:00:00Z", "2022-10-23T07:56:00Z", "2022-10-23T07:56:00Z", "2022-10-23T08:00:00Z", "2022-10-23T07:53:00Z", "2022-10-23T07:56:00Z", "2022-10-23T07:52:00Z", "2022-10-23T07:56:00Z", "2022-10-23T07:52:00Z", "2022-10-23T07:56:00Z", "2022-10-23T07:59:00Z", "2022-10-23T07:52:00Z", "2022-10-23T07:56:00Z", "2022-10-23T07:53:00Z", "2022-10-23T07:56:00Z", "2022-10-23T07:57:00Z", "2022-10-23T07:57:00Z", "2022-10-23T07:56:00Z", "2022-10-23T08:22:00Z", "2022-10-23T07:56:00Z", "2022-10-23T07:56:00Z", "2022-10-23T07:56:00Z", "2022-10-23T08:15:00Z", "2022-10-23T07:59:00Z", "2022-10-23T07:56:00Z", "2022-10-23T08:15:00Z", "2022-10-23T07:56:00Z", "2022-10-23T07:53:00Z", "2022-10-23T07:52:00Z", "2022-10-23T08:15:00Z", "2022-10-23T07:53:00Z", "2022-10-23T07:56:00Z", "2022-10-23T07:53:00Z", "2022-10-23T07:55:00Z", "2022-10-23T08:25:00Z", "2022-10-23T07:56:00Z", "2022-10-23T07:53:00Z", "2022-10-23T08:15:00Z", "2022-10-23T07:53:00Z", "2022-10-23T07:56:00Z", "2022-10-23T07:56:00Z", "2022-10-23T08:17:00Z", "2022-10-23T07:51:00Z", "2022-10-23T07:56:00Z", "2022-10-23T07:57:00Z", "2022-10-23T07:59:00Z", "2022-10-23T08:15:00Z", "2022-10-23T08:15:00Z", "2022-10-23T08:15:00Z", "2022-10-23T08:15:00Z", "2022-10-23T07:56:00Z", "2022-10-23T07:53:00Z", "2022-10-23T08:15:00Z", "2022-10-23T08:15:00Z", "2022-10-23T07:51:00Z", "2022-10-23T08:10:00Z", "2022-10-23T08:15:00Z", "2022-10-23T07:55:00Z", "2022-10-23T07:53:00Z", "2022-10-23T07:53:00Z", "2022-10-23T08:15:00Z", "2022-10-23T08:15:00Z", "2022-10-23T08:15:00Z", "2022-10-23T07:55:00Z", "2022-10-23T07:56:00Z", "2022-10-23T07:54:00Z", "2022-10-23T08:15:00Z", "2022-10-23T07:53:00Z", "2022-10-23T07:53:00Z", "2022-10-23T08:15:00Z", "2022-10-23T08:15:00Z", "2022-10-23T08:15:00Z", "2022-10-23T08:15:00Z", "2022-10-23T07:53:00Z", "2022-10-23T08:16:00Z", "2022-10-23T07:52:00Z", "2022-10-23T07:56:00Z", "2022-10-23T08:15:00Z", "2022-10-23T08:15:00Z", "2022-10-23T08:15:00Z", "2022-10-23T08:15:00Z", "2022-10-23T07:53:00Z", "2022-10-23T08:15:00Z", "2022-10-23T07:54:00Z", "2022-10-23T07:54:00Z", "2022-10-23T07:56:00Z", "2022-10-23T08:15:00Z", "2022-10-23T08:15:00Z", "2022-10-23T08:15:00Z", "2022-10-23T07:52:00Z", "2022-10-23T08:15:00Z", "2022-10-23T07:53:00Z", "2022-10-23T08:15:00Z", "2022-10-23T08:15:00Z", "2022-10-23T08:15:00Z", "2022-10-23T07:53:00Z", "2022-10-23T07:53:00Z", "2022-10-23T08:15:00Z", "2022-10-23T08:15:00Z", "2022-10-23T08:15:00Z", "2022-10-23T07:53:00Z", "2022-10-23T08:15:00Z", "2022-10-23T08:15:00Z", "2022-10-23T08:15:00Z", "2022-10-23T07:53:00Z", "2022-10-23T08:13:00Z", "2022-10-23T07:51:00Z", "2022-10-23T07:52:00Z", "2022-10-23T08:02:00Z", "2022-10-23T08:15:00Z", "2022-10-23T07:54:00Z", "2022-10-23T07:53:00Z", "2022-10-23T08:15:00Z", "2022-10-23T08:10:00Z", "2022-10-23T08:15:00Z", "2022-10-23T07:53:00Z", "2022-10-23T07:53:00Z", "2022-10-23T07:56:00Z", "2022-10-23T08:14:00Z", "2022-10-23T07:53:00Z", "2022-10-23T08:15:00Z", "2022-10-23T07:53:00Z", "2022-10-23T08:15:00Z", "2022-10-23T07:53:00Z", "2022-10-23T08:13:00Z", "2022-10-23T07:56:00Z", "2022-10-23T08:26:00Z", "2022-10-23T08:15:00Z", "2022-10-23T08:15:00Z", "2022-10-23T07:51:00Z", "2022-10-23T08:15:00Z", "2022-10-23T08:15:00Z", "2022-10-23T07:51:00Z", "2022-10-23T08:15:00Z", "2022-10-23T08:15:00Z", "2022-10-23T07:55:00Z", "2022-10-23T08:15:00Z", "2022-10-23T08:15:00Z", "2022-10-23T08:15:00Z", "2022-10-23T07:56:00Z", "2022-10-23T07:56:00Z", "2022-10-23T07:55:00Z", "2022-10-23T07:51:00Z", "2022-10-23T07:56:00Z", "2022-10-23T07:53:00Z", "2022-10-23T07:52:00Z", "2022-10-23T07:53:00Z", "2022-10-23T07:53:00Z", "2022-10-23T07:55:00Z", "2022-10-23T08:15:00Z", "2022-10-23T07:53:00Z", "2022-10-23T07:53:00Z", "2022-10-23T08:15:00Z", "2022-10-23T07:53:00Z", "2022-10-23T08:15:00Z", "2022-10-23T08:15:00Z", "2022-10-23T08:15:00Z", "2022-10-23T08:15:00Z", "2022-10-23T08:15:00Z", "2022-10-23T07:53:00Z", "2022-10-23T07:53:00Z", "2022-10-23T07:53:00Z", "2022-10-23T08:15:00Z", "2022-10-23T07:53:00Z", "2022-10-23T08:15:00Z", "2022-10-23T08:15:00Z", "2022-10-23T08:15:00Z", "2022-10-23T07:53:00Z", "2022-10-23T07:53:00Z", "2022-10-23T08:15:00Z", "2022-10-23T07:53:00Z", "2022-10-23T08:08:00Z", "2022-10-23T07:54:00Z", "2022-10-23T08:15:00Z", "2022-10-23T07:55:00Z", "2022-10-23T08:15:00Z", "2022-10-23T07:51:00Z", "2022-10-23T07:54:00Z", "2022-10-23T07:56:00Z", "2022-10-23T07:53:00Z", "2022-10-23T08:25:00Z", "2022-10-23T07:53:00Z", "2022-10-23T08:15:00Z", "2022-10-23T07:53:00Z", "2022-10-23T07:51:00Z", "2022-10-23T07:53:00Z", "2022-10-23T07:53:00Z", "2022-10-23T08:20:00Z", "2022-10-23T07:54:00Z", "2022-10-23T08:15:00Z", "2022-10-23T08:15:00Z", "2022-10-23T07:53:00Z", "2022-10-23T08:15:00Z", "2022-10-23T07:53:00Z", "2022-10-23T08:15:00Z", "2022-10-23T08:15:00Z", "2022-10-23T08:15:00Z", "2022-10-23T07:53:00Z", "2022-10-23T08:15:00Z", "2022-10-23T08:15:00Z", "2022-10-23T07:53:00Z", "2022-10-23T08:15:00Z", "2022-10-23T07:55:00Z", "2022-10-23T07:55:00Z", "2022-10-23T07:53:00Z", "2022-10-23T07:53:00Z", "2022-10-23T08:15:00Z", "2022-10-23T08:15:00Z", "2022-10-23T08:15:00Z", "2022-10-23T07:52:00Z", "2022-10-23T08:15:00Z", "2022-10-23T08:15:00Z", "2022-10-23T07:56:00Z", "2022-10-23T07:53:00Z", "2022-10-23T07:53:00Z", "2022-10-23T07:53:00Z", "2022-10-23T08:15:00Z", "2022-10-23T07:58:00Z", "2022-10-23T08:15:00Z", "2022-10-23T08:15:00Z", "2022-10-23T07:56:00Z", "2022-10-23T07:53:00Z", "2022-10-23T07:54:00Z", "2022-10-23T08:15:00Z", "2022-10-23T07:55:00Z", "2022-10-23T08:15:00Z", "2022-10-23T08:15:00Z", "2022-10-23T07:53:00Z", "2022-10-23T07:53:00Z", "2022-10-23T08:15:00Z", "2022-10-23T08:15:00Z", "2022-10-23T07:53:00Z", "2022-10-23T07:56:00Z", "2022-10-23T08:15:00Z", "2022-10-23T08:15:00Z", "2022-10-23T07:56:00Z", "2022-10-23T07:54:00Z", "2022-10-23T07:53:00Z", "2022-10-23T07:53:00Z", "2022-10-23T08:15:00Z", "2022-10-23T07:53:00Z", "2022-10-23T08:15:00Z", "2022-10-23T07:56:00Z", "2022-10-23T07:51:00Z", "2022-10-23T08:15:00Z", "2022-10-23T08:09:00Z", "2022-10-23T08:15:00Z", "2022-10-23T07:56:00Z", "2022-10-23T08:10:00Z", "2022-10-23T07:53:00Z", "2022-10-23T08:15:00Z", "2022-10-23T08:15:00Z", "2022-10-23T07:52:00Z", "2022-10-23T07:51:00Z", "2022-10-23T07:56:00Z", "2022-10-23T08:15:00Z", "2022-10-23T07:52:00Z", "2022-10-23T08:15:00Z", "2022-10-23T08:15:00Z", "2022-10-23T08:15:00Z", "2022-10-23T07:55:00Z", "2022-10-23T07:55:00Z", "2022-10-23T07:55:00Z", "2022-10-23T08:20:00Z", "2022-10-23T08:20:00Z", "2022-10-23T08:20:00Z", "2022-10-23T08:20:00Z", "2022-10-23T08:20:00Z", "2022-10-23T08:20:00Z", "2022-10-23T08:20:00Z", "2022-10-23T08:20:00Z", "2022-10-23T07:50:00Z", "2022-10-23T08:20:00Z", "2022-10-23T08:20:00Z", "2022-10-23T08:20:00Z", "2022-10-23T08:20:00Z", "2022-10-23T08:20:00Z", "2022-10-23T08:20:00Z", "2022-10-23T08:20:00Z", "2022-10-23T07:55:00Z", "2022-10-23T07:55:00Z", "2022-10-23T07:55:00Z", "2022-10-23T07:55:00Z", "2022-10-23T07:53:00Z", "2022-10-23T07:53:00Z", "2022-10-23T07:52:00Z", "2022-10-23T08:15:00Z", "2022-10-23T08:15:00Z", "2022-10-23T07:53:00Z", "2022-10-23T07:53:00Z", "2022-10-23T07:54:00Z", "2022-10-23T08:15:00Z", "2022-10-23T08:15:00Z", "2022-10-23T07:55:00Z", "2022-10-23T08:15:00Z", "2022-10-23T08:15:00Z", "2022-10-23T08:15:00Z", "2022-10-23T08:15:00Z", "2022-10-23T08:15:00Z", "2022-10-23T08:15:00Z", "2022-10-23T07:54:00Z", "2022-10-23T08:15:00Z", "2022-10-23T07:56:00Z", "2022-10-23T07:55:00Z", "2022-10-23T07:51:00Z", "2022-10-23T08:15:00Z", "2022-10-23T07:52:00Z", "2022-10-23T07:54:00Z", "2022-10-23T08:15:00Z", "2022-10-23T08:18:00Z", "2022-10-23T08:15:00Z", "2022-10-23T07:53:00Z", "2022-10-23T08:15:00Z", "2022-10-23T07:54:00Z", "2022-10-23T07:53:00Z", "2022-10-23T07:55:00Z", "2022-10-23T07:53:00Z", "2022-10-23T08:22:00Z", "2022-10-23T07:53:00Z", "2022-10-23T08:15:00Z", "2022-10-23T08:26:00Z", "2022-10-23T08:15:00Z", "2022-10-23T07:53:00Z", "2022-10-23T07:53:00Z", "2022-10-23T08:15:00Z", "2022-10-23T08:15:00Z", "2022-10-23T08:15:00Z", "2022-10-23T07:55:00Z", "2022-10-23T08:15:00Z", "2022-10-23T08:15:00Z", "2022-10-23T07:55:00Z", "2022-10-23T08:15:00Z", "2022-10-23T07:53:00Z", "2022-10-23T08:15:00Z", "2022-10-23T07:54:00Z", "2022-10-23T07:54:00Z", "2022-10-23T07:58:00Z", "2022-10-23T08:23:00Z", "2022-10-23T07:51:00Z", "2022-10-23T08:15:00Z", "2022-10-23T08:15:00Z", "2022-10-23T08:15:00Z", "2022-10-23T08:15:00Z", "2022-10-23T07:41:00Z", "2022-10-23T08:15:00Z", "2022-10-23T07:53:00Z", "2022-10-23T08:15:00Z", "2022-10-23T08:15:00Z", "2022-10-23T08:15:00Z", "2022-10-23T07:53:00Z", "2022-10-23T08:15:00Z", "2022-10-23T07:54:00Z", "2022-10-23T08:15:00Z", "2022-10-23T07:53:00Z", "2022-10-23T07:53:00Z", "2022-10-23T08:15:00Z", "2022-10-23T07:53:00Z", "2022-10-23T08:15:00Z", "2022-10-23T08:15:00Z", "2022-10-23T07:56:00Z", "2022-10-23T08:15:00Z", "2022-10-23T08:15:00Z", "2022-10-23T08:15:00Z", "2022-10-23T07:53:00Z", "2022-10-23T07:53:00Z", "2022-10-23T07:53:00Z", "2022-10-23T08:20:00Z", "2022-10-23T08:15:00Z", "2022-10-23T07:53:00Z", "2022-10-23T07:55:00Z", "2022-10-23T08:15:00Z", "2022-10-23T08:15:00Z", "2022-10-23T07:50:00Z", "2022-10-23T08:15:00Z", "2022-10-23T08:15:00Z", "2022-10-23T08:15:00Z", "2022-10-23T08:15:00Z", "2022-10-23T08:10:00Z", "2022-10-23T08:15:00Z", "2022-10-23T08:15:00Z", "2022-10-23T08:15:00Z", "2022-10-23T08:15:00Z", "2022-10-23T07:55:00Z", "2022-10-23T08:15:00Z", "2022-10-23T08:15:00Z", "2022-10-23T08:15:00Z", "2022-10-23T08:15:00Z", "2022-10-23T08:10:00Z", "2022-10-23T08:15:00Z", "2022-10-23T07:53:00Z", "2022-10-23T07:51:00Z", "2022-10-23T07:53:00Z", "2022-10-23T07:51:00Z", "2022-10-23T08:15:00Z", "2022-10-23T07:51:00Z", "2022-10-23T07:53:00Z", "2022-10-23T08:18:00Z", "2022-10-23T08:15:00Z", "2022-10-23T08:20:00Z", "2022-10-23T07:53:00Z", "2022-10-23T07:54:00Z", "2022-10-23T08:15:00Z", "2022-10-23T07:56:00Z", "2022-10-23T08:15:00Z", "2022-10-23T07:54:00Z", "2022-10-23T08:15:00Z", "2022-10-23T07:55:00Z", "2022-10-23T08:15:00Z", "2022-10-23T08:15:00Z", "2022-10-23T08:15:00Z", "2022-10-23T08:17:00Z", "2022-10-23T08:15:00Z", "2022-10-23T07:56:00Z", "2022-10-23T07:53:00Z", "2022-10-23T07:53:00Z", "2022-10-23T07:56:00Z", "2022-10-23T07:53:00Z", "2022-10-23T08:15:00Z", "2022-10-23T08:15:00Z", "2022-10-23T07:53:00Z", "2022-10-23T08:15:00Z", "2022-10-23T08:15:00Z", "2022-10-23T07:55:00Z", "2022-10-23T07:54:00Z", "2022-10-23T08:15:00Z", "2022-10-23T07:53:00Z", "2022-10-23T07:53:00Z", "2022-10-23T07:56:00Z", "2022-10-23T07:56:00Z", "2022-10-23T08:15:00Z", "2022-10-23T08:23:00Z", "2022-10-23T07:56:00Z", "2022-10-23T07:52:00Z", "2022-10-23T07:56:00Z", "2022-10-23T07:56:00Z", "2022-10-23T07:53:00Z", "2022-10-23T08:15:00Z", "2022-10-23T07:56:00Z", "2022-10-23T07:56:00Z", "2022-10-23T08:15:00Z", "2022-10-23T08:15:00Z", "2022-10-23T08:23:00Z", "2022-10-23T08:16:00Z", "2022-10-23T07:56:00Z", "2022-10-23T08:15:00Z", "2022-10-23T08:15:00Z", "2022-10-23T07:53:00Z", "2022-10-23T07:53:00Z", "2022-10-23T08:15:00Z", "2022-10-23T07:51:00Z", "2022-10-23T08:15:00Z", "2022-10-23T07:55:00Z", "2022-10-23T07:55:00Z", "2022-10-23T07:56:00Z", "2022-10-23T08:15:00Z", "2022-10-23T07:54:00Z", "2022-10-23T07:56:00Z", "2022-10-23T07:56:00Z", "2022-10-23T08:15:00Z", "2022-10-23T07:55:00Z", "2022-10-23T07:51:00Z", "2022-10-23T07:53:00Z", "2022-10-23T08:15:00Z", "2022-10-23T08:10:00Z", "2022-10-23T08:15:00Z", "2022-10-23T07:53:00Z", "2022-10-23T07:56:00Z", "2022-10-23T07:51:00Z", "2022-10-23T07:56:00Z", "2022-10-23T07:53:00Z", "2022-10-23T07:55:00Z", "2022-10-23T07:51:00Z", "2022-10-23T07:53:00Z", "2022-10-23T08:15:00Z", "2022-10-23T08:10:00Z", "2022-10-23T08:15:00Z", "2022-10-23T08:15:00Z", "2022-10-23T07:53:00Z", "2022-10-23T07:51:00Z", "2022-10-23T07:53:00Z", "2022-10-23T08:15:00Z", "2022-10-23T07:56:00Z", "2022-10-23T08:15:00Z", "2022-10-23T08:15:00Z", "2022-10-23T07:53:00Z", "2022-10-23T07:56:00Z", "2022-10-23T08:15:00Z", "2022-10-23T07:53:00Z", "2022-10-23T07:52:00Z", "2022-10-23T07:52:00Z", "2022-10-23T07:53:00Z", "2022-10-23T07:56:00Z", "2022-10-23T08:15:00Z", "2022-10-23T08:15:00Z", "2022-10-23T07:56:00Z", "2022-10-23T08:15:00Z", "2022-10-23T07:53:00Z", "2022-10-23T08:15:00Z", "2022-10-23T07:55:00Z", "2022-10-23T07:53:00Z", "2022-10-23T07:53:00Z", "2022-10-23T07:53:00Z", "2022-10-23T08:15:00Z", "2022-10-23T08:15:00Z", "2022-10-23T07:53:00Z", "2022-10-23T08:15:00Z", "2022-10-23T07:51:00Z", "2022-10-23T07:53:00Z", "2022-10-23T07:53:00Z", "2022-10-23T08:15:00Z", "2022-10-23T07:56:00Z", "2022-10-23T08:15:00Z", "2022-10-23T07:54:00Z", "2022-10-23T08:15:00Z", "2022-10-23T07:55:00Z", "2022-10-23T07:52:00Z", "2022-10-23T08:15:00Z", "2022-10-23T08:15:00Z", "2022-10-23T08:15:00Z", "2022-10-23T08:15:00Z", "2022-10-23T07:55:00Z", "2022-10-23T07:45:00Z", "2022-10-23T07:53:00Z", "2022-10-23T08:15:00Z", "2022-10-23T08:15:00Z", "2022-10-23T07:55:00Z", "2022-10-23T08:06:00Z", "2022-10-23T08:15:00Z", "2022-10-23T08:15:00Z", "2022-10-23T08:15:00Z", "2022-10-23T08:15:00Z", "2022-10-23T08:15:00Z", "2022-10-23T07:54:00Z", "2022-10-23T07:55:00Z", "2022-10-23T08:15:00Z", "2022-10-23T08:15:00Z", "2022-10-23T08:15:00Z", "2022-10-23T08:15:00Z", "2022-10-23T08:15:00Z", "2022-10-23T08:15:00Z", "2022-10-23T07:55:00Z", "2022-10-23T08:15:00Z", "2022-10-23T08:15:00Z", "2022-10-23T08:15:00Z", "2022-10-23T08:15:00Z", "2022-10-23T07:54:00Z", "2022-10-23T07:52:00Z", "2022-10-23T08:15:00Z", "2022-10-23T07:55:00Z", "2022-10-23T08:15:00Z", "2022-10-23T07:53:00Z", "2022-10-23T07:53:00Z", "2022-10-23T08:20:00Z", "2022-10-23T08:20:00Z", "2022-10-23T08:15:00Z", "2022-10-23T08:15:00Z", "2022-10-23T07:55:00Z", "2022-10-23T07:53:00Z", "2022-10-23T07:51:00Z", "2022-10-23T08:15:00Z", "2022-10-23T08:15:00Z", "2022-10-23T07:55:00Z", "2022-10-23T08:15:00Z", "2022-10-23T08:15:00Z", "2022-10-23T07:53:00Z", "2022-10-23T08:15:00Z", "2022-10-23T07:55:00Z", "2022-10-23T08:15:00Z", "2022-10-23T08:21:00Z", "2022-10-23T08:15:00Z", "2022-10-23T07:53:00Z", "2022-10-23T08:15:00Z", "2022-10-23T08:15:00Z", "2022-10-23T07:53:00Z", "2022-10-23T07:53:00Z", "2022-10-23T08:15:00Z", "2022-10-23T08:15:00Z", "2022-10-23T08:15:00Z", "2022-10-23T08:10:00Z", "2022-10-23T08:15:00Z", "2022-10-23T08:15:00Z", "2022-10-23T08:15:00Z", "2022-10-23T07:53:00Z", "2022-10-23T07:52:00Z", "2022-10-23T07:53:00Z", "2022-10-23T07:53:00Z", "2022-10-23T07:56:00Z", "2022-10-23T07:51:00Z", "2022-10-23T07:54:00Z", "2022-10-23T08:15:00Z", "2022-10-23T08:15:00Z", "2022-10-23T08:15:00Z", "2022-10-23T07:53:00Z", "2022-10-23T08:16:00Z", "2022-10-23T07:53:00Z", "2022-10-23T07:52:00Z", "2022-10-23T08:15:00Z", "2022-10-23T08:15:00Z", "2022-10-23T07:53:00Z", "2022-10-23T08:15:00Z", "2022-10-23T07:53:00Z", "2022-10-23T07:55:00Z", "2022-10-23T07:53:00Z", "2022-10-23T07:53:00Z", "2022-10-23T07:53:00Z", "2022-10-23T07:53:00Z", "2022-10-23T07:56:00Z", "2022-10-23T08:15:00Z", "2022-10-23T07:53:00Z", "2022-10-23T07:53:00Z", "2022-10-23T08:15:00Z", "2022-10-23T07:53:00Z", "2022-10-23T08:15:00Z", "2022-10-23T08:15:00Z", "2022-10-23T07:53:00Z", "2022-10-23T08:10:00Z", "2022-10-23T08:15:00Z", "2022-10-23T08:15:00Z", "2022-10-23T07:53:00Z", "2022-10-23T07:53:00Z", "2022-10-23T08:15:00Z", "2022-10-23T08:15:00Z", "2022-10-23T08:15:00Z", "2022-10-23T08:15:00Z", "2022-10-23T07:53:00Z", "2022-10-23T07:55:00Z", "2022-10-23T07:56:00Z", "2022-10-23T08:15:00Z", "2022-10-23T07:56:00Z", "2022-10-23T08:15:00Z", "2022-10-23T07:55:00Z", "2022-10-23T07:53:00Z", "2022-10-23T07:54:00Z", "2022-10-23T08:15:00Z", "2022-10-23T07:56:00Z", "2022-10-23T08:15:00Z", "2022-10-23T08:15:00Z", "2022-10-23T08:15:00Z", "2022-10-23T08:15:00Z", "2022-10-23T08:15:00Z", "2022-10-23T08:15:00Z", "2022-10-23T07:53:00Z", "2022-10-23T08:15:00Z", "2022-10-23T08:15:00Z", "2022-10-23T08:15:00Z", "2022-10-23T08:15:00Z", "2022-10-23T08:15:00Z", "2022-10-23T07:53:00Z", "2022-10-23T07:53:00Z", "2022-10-23T08:15:00Z", "2022-10-23T08:15:00Z", "2022-10-23T08:15:00Z", "2022-10-23T07:54:00Z", "2022-10-23T07:55:00Z", "2022-10-23T08:15:00Z", "2022-10-23T07:54:00Z", "2022-10-23T07:55:00Z", "2022-10-23T07:56:00Z", "2022-10-23T07:53:00Z", "2022-10-23T07:51:00Z", "2022-10-23T08:15:00Z", "2022-10-23T08:15:00Z", "2022-10-23T08:15:00Z", "2022-10-23T08:17:00Z", "2022-10-23T08:15:00Z", "2022-10-23T08:15:00Z", "2022-10-23T08:15:00Z", "2022-10-23T07:53:00Z", "2022-10-23T08:15:00Z", "2022-10-23T07:53:00Z", "2022-10-23T07:56:00Z", "2022-10-23T08:15:00Z", "2022-10-23T08:15:00Z", "2022-10-23T07:53:00Z", "2022-10-23T08:15:00Z", "2022-10-23T08:15:00Z", "2022-10-23T08:02:00Z", "2022-10-23T08:20:00Z", "2022-10-23T07:55:00Z", "2022-10-23T08:15:00Z", "2022-10-23T07:55:00Z", "2022-10-23T07:56:00Z", "2022-10-23T08:15:00Z", "2022-10-23T07:53:00Z", "2022-10-23T07:54:00Z", "2022-10-23T07:54:00Z", "2022-10-23T08:15:00Z", "2022-10-23T07:52:00Z", "2022-10-23T08:15:00Z", "2022-10-23T08:15:00Z", "2022-10-23T07:53:00Z", "2022-10-23T08:15:00Z", "2022-10-23T08:15:00Z", "2022-10-23T08:15:00Z", "2022-10-23T08:15:00Z", "2022-10-23T08:15:00Z", "2022-10-23T08:15:00Z", "2022-10-23T08:15:00Z", "2022-10-23T08:01:00Z", "2022-10-23T07:54:00Z", "2022-10-23T08:15:00Z", "2022-10-23T08:15:00Z", "2022-10-23T08:15:00Z", "2022-10-23T07:56:00Z", "2022-10-23T07:54:00Z", "2022-10-23T07:56:00Z", "2022-10-23T07:55:00Z", "2022-10-23T07:55:00Z", "2022-10-23T07:53:00Z", "2022-10-23T07:53:00Z", "2022-10-23T07:53:00Z", "2022-10-23T07:56:00Z", "2022-10-23T07:56:00Z", "2022-10-23T08:10:00Z", "2022-10-23T08:15:00Z", "2022-10-23T08:15:00Z", "2022-10-23T08:15:00Z", "2022-10-23T08:15:00Z", "2022-10-23T08:15:00Z", "2022-10-23T07:55:00Z", "2022-10-23T08:15:00Z", "2022-10-23T07:55:00Z", "2022-10-23T07:53:00Z", "2022-10-23T07:55:00Z", "2022-10-23T08:15:00Z", "2022-10-23T08:15:00Z", "2022-10-23T08:13:00Z", "2022-10-23T07:51:00Z", "2022-10-23T08:15:00Z", "2022-10-23T08:15:00Z", "2022-10-23T08:15:00Z", "2022-10-23T08:15:00Z", "2022-10-23T07:56:00Z", "2022-10-23T08:15:00Z", "2022-10-23T08:15:00Z", "2022-10-23T08:15:00Z", "2022-10-23T07:53:00Z", "2022-10-23T07:53:00Z", "2022-10-23T07:56:00Z", "2022-10-23T07:51:00Z", "2022-10-23T08:15:00Z", "2022-10-23T08:15:00Z", "2022-10-23T07:53:00Z", "2022-10-23T08:20:00Z", "2022-10-23T08:00:00Z", "2022-10-23T08:00:00Z", "2022-10-23T08:00:00Z", "2022-10-23T08:00:00Z", "2022-10-23T08:00:00Z", "2022-10-23T07:50:00Z", "2022-10-23T08:00:00Z", "2022-10-23T08:00:00Z", "2022-10-23T08:00:00Z", "2022-10-23T08:00:00Z", "2022-10-23T08:00:00Z", "2022-10-23T08:00:00Z", "2022-10-23T08:00:00Z", "2022-10-23T08:00:00Z", "2022-10-23T08:00:00Z", "2022-10-23T08:00:00Z", "2022-10-23T08:00:00Z", "2022-10-23T08:00:00Z", "2022-10-23T08:00:00Z", "2022-10-23T08:00:00Z", "2022-10-23T08:00:00Z", "2022-10-23T08:00:00Z", "2022-10-23T08:00:00Z", "2022-10-23T08:00:00Z", "2022-10-23T08:00:00Z", "2022-10-23T08:00:00Z", "2022-10-23T08:00:00Z", "2022-10-23T08:00:00Z", "2022-10-23T08:00:00Z", "2022-10-23T08:00:00Z", "2022-10-23T08:00:00Z", "2022-10-23T08:00:00Z", "2022-10-23T08:00:00Z", "2022-10-23T08:00:00Z", "2022-10-23T08:00:00Z", "2022-10-23T08:00:00Z", "2022-10-23T08:00:00Z", "2022-10-23T08:00:00Z", "2022-10-23T08:00:00Z", "2022-10-23T08:00:00Z", "2022-10-23T08:00:00Z", "2022-10-23T08:00:00Z", "2022-10-23T08:00:00Z", "2022-10-23T08:00:00Z", "2022-10-23T08:00:00Z", "2022-10-23T08:00:00Z", "2022-10-23T08:00:00Z", "2022-10-23T08:00:00Z", "2022-10-23T08:00:00Z", "2022-10-23T08:00:00Z", "2022-10-23T08:00:00Z", "2022-10-23T08:00:00Z", "2022-10-23T08:00:00Z", "2022-10-23T08:00:00Z", "2022-10-23T08:00:00Z", "2022-10-23T08:00:00Z", "2022-10-23T08:14:00Z", "2022-10-23T08:00:00Z", "2022-10-23T08:00:00Z", "2022-10-23T08:00:00Z", "2022-10-23T08:00:00Z", "2022-10-23T08:00:00Z", "2022-10-23T08:00:00Z", "2022-10-23T08:00:00Z", "2022-10-23T08:00:00Z", "2022-10-23T08:14:00Z", "2022-10-23T08:00:00Z", "2022-10-23T08:00:00Z", "2022-10-23T08:00:00Z", "2022-10-23T08:00:00Z", "2022-10-23T08:00:00Z", "2022-10-23T08:00:00Z", "2022-10-23T08:00:00Z", "2022-10-23T08:00:00Z", "2022-10-23T08:00:00Z", "2022-10-23T08:00:00Z", "2022-10-23T08:00:00Z", "2022-10-23T08:00:00Z", "2022-10-23T08:00:00Z", "2022-10-23T08:00:00Z", "2022-10-23T08:00:00Z", "2022-10-23T08:00:00Z", "2022-10-23T08:00:00Z", "2022-10-23T08:00:00Z", "2022-10-23T08:00:00Z", "2022-10-23T08:00:00Z", "2022-10-23T08:00:00Z", "2022-10-23T08:00:00Z", "2022-10-23T08:00:00Z", "2022-10-23T08:00:00Z", "2022-10-23T08:00:00Z", "2022-10-23T08:00:00Z", "2022-10-23T08:00:00Z", "2022-10-23T08:00:00Z", "2022-10-23T08:00:00Z", "2022-10-23T08:00:00Z", "2022-10-23T08:00:00Z", "2022-10-23T08:00:00Z", "2022-10-23T08:00:00Z", "2022-10-23T08:00:00Z", "2022-10-23T08:00:00Z", "2022-10-23T08:00:00Z", "2022-10-23T08:00:00Z", "2022-10-23T08:00:00Z", "2022-10-23T08:00:00Z", "2022-10-23T08:00:00Z", "2022-10-23T08:00:00Z", "2022-10-23T08:00:00Z", "2022-10-23T08:00:00Z", "2022-10-23T08:00:00Z", "2022-10-23T08:00:00Z", "2022-10-23T08:00:00Z", "2022-10-23T08:00:00Z", "2022-10-23T08:00:00Z", "2022-10-23T08:00:00Z", "2022-10-23T08:00:00Z", "2022-10-23T08:00:00Z", "2022-10-23T08:00:00Z", "2022-10-23T08:00:00Z", "2022-10-23T08:00:00Z", "2022-10-23T08:00:00Z", "2022-10-23T08:00:00Z", "2022-10-23T08:00:00Z", "2022-10-23T08:00:00Z", "2022-10-23T08:00:00Z", "2022-10-23T08:00:00Z", "2022-10-23T08:00:00Z", "2022-10-23T08:00:00Z", "2022-10-23T08:00:00Z", "2022-10-23T08:00:00Z", "2022-10-23T08:00:00Z", "2022-10-23T08:00:00Z", "2022-10-23T08:00:00Z", "2022-10-23T08:00:00Z", "2022-10-23T08:00:00Z", "2022-10-23T08:00:00Z", "2022-10-23T08:00:00Z", "2022-10-23T08:00:00Z", "2022-10-23T08:00:00Z", "2022-10-23T08:00:00Z", "2022-10-23T08:00:00Z", "2022-10-23T08:00:00Z", "2022-10-23T08:00:00Z", "2022-10-23T08:00:00Z", "2022-10-23T08:00:00Z", "2022-10-23T08:00:00Z", "2022-10-23T08:00:00Z", "2022-10-23T08:00:00Z", "2022-10-23T08:00:00Z", "2022-10-23T08:00:00Z", "2022-10-23T08:00:00Z", "2022-10-23T08:00:00Z", "2022-10-23T08:00:00Z", "2022-10-23T08:00:00Z", "2022-10-23T08:00:00Z", "2022-10-23T08:00:00Z", "2022-10-23T08:00:00Z", "2022-10-23T08:00:00Z", "2022-10-23T08:00:00Z", "2022-10-23T08:00:00Z", "2022-10-23T08:00:00Z", "2022-10-23T08:00:00Z", "2022-10-23T08:00:00Z", "2022-10-23T08:00:00Z", "2022-10-23T08:00:00Z", "2022-10-23T08:00:00Z", "2022-10-23T08:00:00Z", "2022-10-23T08:00:00Z", "2022-10-23T08:00:00Z", "2022-10-23T08:00:00Z", "2022-10-23T08:00:00Z", "2022-10-23T08:00:00Z", "2022-10-23T08:00:00Z", "2022-10-23T08:00:00Z", "2022-10-23T08:00:00Z", "2022-10-23T08:00:00Z", "2022-10-23T08:00:00Z", "2022-10-23T08:00:00Z", "2022-10-23T08:00:00Z", "2022-10-23T08:20:00Z", "2022-10-23T08:20:00Z", "2022-10-23T08:20:00Z", "2022-10-23T08:20:00Z", "2022-10-23T08:20:00Z", "2022-10-23T07:50:00Z", "2022-10-23T08:20:00Z", "2022-10-23T08:20:00Z", "2022-10-23T07:50:00Z", "2022-10-23T08:20:00Z", "2022-10-23T08:20:00Z", "2022-10-23T08:20:00Z", "2022-10-23T08:20:00Z", "2022-10-23T08:20:00Z", "2022-10-23T07:50:00Z", "2022-10-23T08:20:00Z", "2022-10-23T08:20:00Z", "2022-10-23T08:20:00Z", "2022-10-23T07:50:00Z", "2022-10-23T07:50:00Z", "2022-10-23T08:20:00Z", "2022-10-23T08:20:00Z", "2022-10-23T08:20:00Z", "2022-10-23T08:20:00Z", "2022-10-23T07:50:00Z", "2022-10-23T07:50:00Z", "2022-10-23T07:50:00Z", "2022-10-23T07:50:00Z", "2022-10-23T08:20:00Z", "2022-10-23T07:50:00Z", "2022-10-23T08:00:00Z", "2022-10-23T08:16:00Z", "2022-10-23T08:15:00Z", "2022-10-23T07:45:00Z", "2022-10-23T08:12:00Z", "2022-10-23T07:45:00Z", "2022-10-23T07:45:00Z", "2022-10-23T08:15:00Z", "2022-10-23T07:55:00Z", "2022-10-23T07:50:00Z", "2022-10-23T08:20:00Z", "2022-10-23T07:50:00Z", "2022-10-23T07:50:00Z", "2022-10-23T07:55:00Z", "2022-10-23T08:20:00Z", "2022-10-23T07:55:00Z", "2022-10-23T08:20:00Z", "2022-10-23T07:55:00Z", "2022-10-23T07:55:00Z", "2022-10-23T08:20:00Z", "2022-10-23T08:20:00Z", "2022-10-23T08:20:00Z", "2022-10-23T08:20:00Z", "2022-10-23T07:55:00Z", "2022-10-23T07:50:00Z", "2022-10-23T08:20:00Z", "2022-10-23T08:20:00Z", "2022-10-23T07:55:00Z", "2022-10-23T07:55:00Z", "2022-10-23T08:20:00Z", "2022-10-23T07:55:00Z", "2022-10-23T07:55:00Z", "2022-10-23T08:20:00Z", "2022-10-23T08:20:00Z", "2022-10-23T07:50:00Z", "2022-10-23T08:20:00Z", "2022-10-23T08:20:00Z", "2022-10-23T08:20:00Z", "2022-10-23T07:50:00Z", "2022-10-23T08:20:00Z", "2022-10-23T07:55:00Z", "2022-10-23T08:20:00Z", "2022-10-23T07:50:00Z", "2022-10-23T07:55:00Z", "2022-10-23T07:55:00Z", "2022-10-23T08:20:00Z", "2022-10-23T08:20:00Z", "2022-10-23T07:50:00Z", "2022-10-23T07:55:00Z", "2022-10-23T08:20:00Z", "2022-10-23T07:55:00Z", "2022-10-23T08:20:00Z", "2022-10-23T07:55:00Z", "2022-10-23T07:50:00Z", "2022-10-23T07:55:00Z", "2022-10-23T08:20:00Z", "2022-10-23T08:20:00Z", "2022-10-23T08:20:00Z", "2022-10-23T07:55:00Z", "2022-10-23T08:20:00Z", "2022-10-23T08:20:00Z", "2022-10-23T08:20:00Z", "2022-10-23T07:55:00Z", "2022-10-23T07:54:00Z", "2022-10-23T07:55:00Z", "2022-10-23T08:20:00Z", "2022-10-23T07:55:00Z", "2022-10-23T08:20:00Z", "2022-10-23T07:50:00Z", "2022-10-23T07:55:00Z", "2022-10-23T07:55:00Z", "2022-10-23T08:20:00Z", "2022-10-23T08:15:00Z", "2022-10-23T08:20:00Z", "2022-10-23T07:55:00Z", "2022-10-23T07:55:00Z", "2022-10-23T07:50:00Z", "2022-10-23T07:55:00Z", "2022-10-23T07:55:00Z", "2022-10-23T08:20:00Z", "2022-10-23T08:06:00Z", "2022-10-23T07:55:00Z", "2022-10-23T07:55:00Z", "2022-10-23T07:55:00Z", "2022-10-23T07:55:00Z", "2022-10-23T07:55:00Z", "2022-10-23T07:55:00Z", "2022-10-23T07:55:00Z", "2022-10-23T08:00:00Z", "2022-10-23T08:00:00Z", "2022-10-23T08:00:00Z", "2022-10-23T08:00:00Z", "2022-10-23T08:00:00Z", "2022-10-23T08:00:00Z", "2022-10-23T08:00:00Z", "2022-10-23T08:00:00Z", "2022-10-23T08:00:00Z", "2022-10-23T08:00:00Z", "2022-10-23T08:00:00Z", "2022-10-23T08:00:00Z", "2022-10-23T08:00:00Z", "2022-10-23T08:00:00Z", "2022-10-23T08:20:00Z", "2022-10-23T07:50:00Z", "2022-10-23T07:50:00Z", "2022-10-23T07:50:00Z", "2022-10-23T08:15:00Z", "2022-10-23T08:00:00Z", "2022-10-23T08:00:00Z", "2022-10-23T08:20:00Z", "2022-10-23T08:20:00Z", "2022-10-23T08:20:00Z", "2022-10-23T08:20:00Z", "2022-10-23T08:20:00Z", "2022-10-23T08:20:00Z", "2022-10-23T08:20:00Z", "2022-10-23T08:00:00Z", "2022-10-23T08:00:00Z", "2022-10-23T08:00:00Z", "2022-10-23T08:00:00Z", "2022-10-23T08:00:00Z", "2022-10-23T08:00:00Z", "2022-10-23T08:00:00Z", "2022-10-23T08:00:00Z", "2022-10-23T08:00:00Z", "2022-10-23T08:00:00Z", "2022-10-23T08:00:00Z", "2022-10-23T08:00:00Z", "2022-10-23T08:00:00Z", "2022-10-23T08:00:00Z", "2022-10-23T08:00:00Z", "2022-10-23T08:00:00Z", "2022-10-23T08:00:00Z", "2022-10-23T08:00:00Z", "2022-10-23T08:00:00Z", "2022-10-23T08:00:00Z", "2022-10-23T08:00:00Z", "2022-10-23T08:00:00Z", "2022-10-23T08:00:00Z", "2022-10-23T08:00:00Z", "2022-10-23T08:00:00Z", "2022-10-23T08:00:00Z", "2022-10-23T08:00:00Z", "2022-10-23T08:00:00Z", "2022-10-23T08:00:00Z", "2022-10-23T08:00:00Z", "2022-10-23T08:00:00Z", "2022-10-23T08:00:00Z", "2022-10-23T08:00:00Z", "2022-10-23T08:00:00Z", "2022-10-23T08:00:00Z", "2022-10-23T08:00:00Z", "2022-10-23T08:20:00Z", "2022-10-23T08:20:00Z", "2022-10-23T08:20:00Z", "2022-10-23T08:20:00Z", "2022-10-23T08:20:00Z", "2022-10-23T08:20:00Z", "2022-10-23T08:20:00Z", "2022-10-23T08:20:00Z", "2022-10-23T08:20:00Z", "2022-10-23T08:20:00Z", "2022-10-23T08:20:00Z", "2022-10-23T08:20:00Z", "2022-10-23T08:20:00Z", "2022-10-23T08:20:00Z", "2022-10-23T08:20:00Z", "2022-10-23T08:20:00Z", "2022-10-23T07:50:00Z", "2022-10-23T07:50:00Z", "2022-10-23T07:50:00Z", "2022-10-23T07:50:00Z", "2022-10-23T07:50:00Z", "2022-10-23T07:50:00Z", "2022-10-23T07:50:00Z", "2022-10-23T07:50:00Z", "2022-10-23T07:50:00Z", "2022-10-23T07:50:00Z", "2022-10-23T07:50:00Z", "2022-10-23T07:50:00Z", "2022-10-23T07:50:00Z", "2022-10-23T07:50:00Z", "2022-10-23T07:50:00Z", "2022-10-23T07:50:00Z", "2022-10-23T07:50:00Z", "2022-10-23T07:50:00Z", "2022-10-23T07:50:00Z", "2022-10-23T07:50:00Z", "2022-10-23T07:50:00Z", "2022-10-23T07:50:00Z", "2022-10-23T07:50:00Z", "2022-10-23T07:50:00Z", "2022-10-23T07:50:00Z", "2022-10-23T07:50:00Z", "2022-10-23T07:50:00Z", "2022-10-23T07:50:00Z", "2022-10-23T08:03:00Z", "2022-10-23T07:50:00Z", "2022-10-23T07:50:00Z", "2022-10-23T07:50:00Z", "2022-10-23T07:50:00Z", "2022-10-23T07:50:00Z", "2022-10-23T07:50:00Z", "2022-10-23T07:50:00Z", "2022-10-23T07:50:00Z", "2022-10-23T07:50:00Z", "2022-10-23T07:50:00Z", "2022-10-23T07:50:00Z", "2022-10-23T07:50:00Z", "2022-10-23T07:50:00Z", "2022-10-23T07:50:00Z", "2022-10-23T07:50:00Z", "2022-10-23T07:50:00Z", "2022-10-23T07:50:00Z", "2022-10-23T07:50:00Z", "2022-10-23T07:50:00Z", "2022-10-23T07:50:00Z", "2022-10-23T07:50:00Z", "2022-10-23T07:50:00Z", "2022-10-23T07:50:00Z", "2022-10-23T07:50:00Z", "2022-10-23T07:50:00Z", "2022-10-23T07:50:00Z", "2022-10-23T07:50:00Z", "2022-10-23T07:50:00Z", "2022-10-23T08:00:00Z", "2022-10-23T08:00:00Z", "2022-10-23T08:20:00Z", "2022-10-23T08:00:00Z", "2022-10-23T08:00:00Z", "2022-10-23T08:00:00Z", "2022-10-23T08:00:00Z", "2022-10-23T08:00:00Z", "2022-10-23T08:00:00Z", "2022-10-23T08:00:00Z", "2022-10-23T08:00:00Z", "2022-10-23T08:00:00Z", "2022-10-23T08:00:00Z", "2022-10-23T08:00:00Z", "2022-10-23T08:00:00Z", "2022-10-23T08:00:00Z", "2022-10-23T08:00:00Z", "2022-10-23T08:00:00Z", "2022-10-23T08:00:00Z", "2022-10-23T07:47:00Z", "2022-10-23T07:46:00Z", "2022-10-23T07:45:00Z", "2022-10-23T07:48:00Z", "2022-10-23T07:41:00Z", "2022-10-23T07:41:00Z", "2022-10-23T07:47:00Z", "2022-10-23T07:42:00Z", "2022-10-23T07:45:00Z", "2022-10-23T07:40:00Z", "2022-10-23T07:41:00Z", "2022-10-23T07:40:00Z", "2022-10-23T07:40:00Z", "2022-10-23T07:41:00Z", "2022-10-23T07:41:00Z", "2022-10-23T07:40:00Z", "2022-10-23T07:43:00Z", "2022-10-23T07:40:00Z", "2022-10-23T08:00:00Z", "2022-10-23T08:00:00Z", "2022-10-23T08:00:00Z", "2022-10-23T07:50:00Z", "2022-10-23T07:59:00Z", "2022-10-23T07:59:00Z", "2022-10-23T07:50:00Z", "2022-10-23T07:50:00Z", "2022-10-23T07:50:00Z", "2022-10-23T07:51:00Z", "2022-10-23T07:50:00Z", "2022-10-23T07:50:00Z", "2022-10-23T07:50:00Z", "2022-10-23T08:00:00Z", "2022-10-23T08:00:00Z", "2022-10-23T08:00:00Z", "2022-10-23T08:00:00Z", "2022-10-23T08:00:00Z", "2022-10-23T08:00:00Z", "2022-10-23T08:00:00Z", "2022-10-23T08:00:00Z", "2022-10-23T08:00:00Z", "2022-10-23T08:00:00Z", "2022-10-23T08:00:00Z", "2022-10-23T08:00:00Z", "2022-10-23T08:00:00Z", "2022-10-23T08:00:00Z", "2022-10-23T08:00:00Z", "2022-10-23T08:00:00Z", "2022-10-23T08:00:00Z", "2022-10-23T08:00:00Z", "2022-10-23T08:00:00Z", "2022-10-23T08:00:00Z", "2022-10-23T08:00:00Z", "2022-10-23T07:50:00Z", "2022-10-23T08:00:00Z", "2022-10-23T08:00:00Z", "2022-10-23T08:00:00Z", "2022-10-23T08:00:00Z", "2022-10-23T08:00:00Z", "2022-10-23T07:55:00Z", "2022-10-23T08:00:00Z", "2022-10-23T08:00:00Z", "2022-10-23T08:00:00Z", "2022-10-23T08:00:00Z", "2022-10-23T08:00:00Z", "2022-10-23T08:00:00Z", "2022-10-23T08:00:00Z", "2022-10-23T08:00:00Z", "2022-10-23T08:00:00Z", "2022-10-23T08:00:00Z", "2022-10-23T08:00:00Z", "2022-10-23T08:00:00Z", "2022-10-23T08:00:00Z", "2022-10-23T08:00:00Z", "2022-10-23T08:00:00Z", "2022-10-23T08:00:00Z", "2022-10-23T08:00:00Z", "2022-10-23T08:00:00Z", "2022-10-23T08:00:00Z", "2022-10-23T08:00:00Z", "2022-10-23T08:00:00Z", "2022-10-23T07:56:00Z", "2022-10-23T08:00:00Z", "2022-10-23T08:00:00Z", "2022-10-23T08:00:00Z", "2022-10-23T08:00:00Z", "2022-10-23T08:00:00Z", "2022-10-23T08:00:00Z", "2022-10-23T08:00:00Z", "2022-10-23T08:00:00Z", "2022-10-23T08:00:00Z", "2022-10-23T08:00:00Z", "2022-10-23T08:00:00Z", "2022-10-23T08:00:00Z", "2022-10-23T08:00:00Z", "2022-10-23T08:00:00Z", "2022-10-23T07:51:00Z", "2022-10-23T08:00:00Z", "2022-10-23T08:00:00Z", "2022-10-23T08:00:00Z", "2022-10-23T08:00:00Z", "2022-10-23T08:00:00Z", "2022-10-23T08:00:00Z", "2022-10-23T08:00:00Z", "2022-10-23T08:00:00Z", "2022-10-23T08:00:00Z", "2022-10-23T08:00:00Z", "2022-10-23T08:00:00Z", "2022-10-23T08:00:00Z", "2022-10-23T08:00:00Z", "2022-10-23T08:00:00Z", "2022-10-23T08:00:00Z", "2022-10-23T08:00:00Z", "2022-10-23T08:00:00Z", "2022-10-23T08:00:00Z", "2022-10-23T08:00:00Z", "2022-10-23T08:00:00Z", "2022-10-23T07:50:00Z", "2022-10-23T08:00:00Z", "2022-10-23T08:00:00Z", "2022-10-23T08:00:00Z", "2022-10-23T08:00:00Z", "2022-10-23T08:00:00Z", "2022-10-23T08:00:00Z", "2022-10-23T08:00:00Z", "2022-10-23T08:00:00Z", "2022-10-23T08:00:00Z", "2022-10-23T08:00:00Z", "2022-10-23T08:00:00Z", "2022-10-23T08:00:00Z", "2022-10-23T08:00:00Z", "2022-10-23T07:50:00Z", "2022-10-23T08:00:00Z", "2022-10-23T08:00:00Z", "2022-10-23T08:00:00Z", "2022-10-23T08:00:00Z", "2022-10-23T08:00:00Z", "2022-10-23T08:00:00Z", "2022-10-23T08:00:00Z", "2022-10-23T08:00:00Z", "2022-10-23T08:00:00Z", "2022-10-23T08:00:00Z", "2022-10-23T08:00:00Z", "2022-10-23T08:00:00Z", "2022-10-23T08:00:00Z", "2022-10-23T08:00:00Z", "2022-10-23T08:00:00Z", "2022-10-23T08:00:00Z", "2022-10-23T08:00:00Z", "2022-10-23T08:00:00Z", "2022-10-23T08:00:00Z", "2022-10-23T08:00:00Z", "2022-10-23T08:00:00Z", "2022-10-23T08:00:00Z", "2022-10-23T08:00:00Z", "2022-10-23T08:00:00Z", "2022-10-23T08:00:00Z", "2022-10-23T08:00:00Z", "2022-10-23T07:51:00Z", "2022-10-23T08:00:00Z", "2022-10-23T08:00:00Z", "2022-10-23T08:00:00Z", "2022-10-23T08:00:00Z", "2022-10-23T08:00:00Z", "2022-10-23T08:00:00Z", "2022-10-23T08:00:00Z", "2022-10-23T08:00:00Z", "2022-10-23T08:00:00Z", "2022-10-23T08:00:00Z", "2022-10-23T07:55:00Z", "2022-10-23T08:00:00Z", "2022-10-23T08:00:00Z", "2022-10-23T08:00:00Z", "2022-10-23T08:00:00Z", "2022-10-23T08:00:00Z", "2022-10-23T08:00:00Z", "2022-10-23T08:00:00Z", "2022-10-23T08:00:00Z", "2022-10-23T08:00:00Z", "2022-10-23T08:00:00Z", "2022-10-23T07:50:00Z", "2022-10-23T07:50:00Z", "2022-10-23T07:50:00Z", "2022-10-23T07:50:00Z", "2022-10-23T07:50:00Z", "2022-10-23T07:55:00Z", "2022-10-23T08:00:00Z", "2022-10-23T08:00:00Z", "2022-10-23T07:55:00Z", "2022-10-23T08:00:00Z", "2022-10-23T08:00:00Z", "2022-10-23T08:00:00Z", "2022-10-23T08:00:00Z", "2022-10-23T08:00:00Z", "2022-10-23T08:00:00Z", "2022-10-23T08:00:00Z", "2022-10-23T08:00:00Z", "2022-10-23T08:00:00Z", "2022-10-23T08:00:00Z", "2022-10-23T08:00:00Z", "2022-10-23T07:55:00Z", "2022-10-23T08:00:00Z", "2022-10-23T08:15:00Z", "2022-10-23T07:56:00Z", "2022-10-23T07:53:00Z", "2022-10-23T07:52:00Z", "2022-10-23T08:19:00Z", "2022-10-23T07:56:00Z", "2022-10-23T07:53:00Z", "2022-10-23T07:53:00Z", "2022-10-23T07:56:00Z", "2022-10-23T07:53:00Z", "2022-10-23T07:53:00Z", "2022-10-23T07:55:00Z", "2022-10-23T08:18:00Z", "2022-10-23T07:56:00Z", "2022-10-23T08:19:00Z", "2022-10-23T07:53:00Z", "2022-10-23T07:56:00Z", "2022-10-23T07:55:00Z", "2022-10-23T07:55:00Z", "2022-10-23T07:54:00Z", "2022-10-23T07:53:00Z", "2022-10-23T08:17:00Z", "2022-10-23T08:15:00Z", "2022-10-23T07:56:00Z", "2022-10-23T07:56:00Z", "2022-10-23T07:55:00Z", "2022-10-23T08:01:00Z", "2022-10-23T07:56:00Z", "2022-10-23T07:53:00Z", "2022-10-23T08:26:00Z", "2022-10-23T07:45:00Z", "2022-10-23T07:56:00Z", "2022-10-23T07:56:00Z", "2022-10-23T07:53:00Z", "2022-10-23T07:56:00Z", "2022-10-23T07:54:00Z", "2022-10-23T07:53:00Z", "2022-10-23T08:02:00Z", "2022-10-23T07:56:00Z", "2022-10-23T07:56:00Z", "2022-10-23T08:16:00Z", "2022-10-23T07:53:00Z", "2022-10-23T07:55:00Z", "2022-10-23T07:56:00Z", "2022-10-23T07:57:00Z", "2022-10-23T07:53:00Z", "2022-10-23T07:56:00Z", "2022-10-23T07:56:00Z", "2022-10-23T07:56:00Z", "2022-10-23T07:56:00Z", "2022-10-23T08:04:00Z", "2022-10-23T07:54:00Z", "2022-10-23T07:56:00Z", "2022-10-23T07:53:00Z", "2022-10-23T08:00:00Z", "2022-10-23T07:53:00Z", "2022-10-23T08:15:00Z", "2022-10-23T08:25:00Z", "2022-10-23T07:53:00Z", "2022-10-23T07:55:00Z", "2022-10-23T07:56:00Z", "2022-10-23T07:51:00Z", "2022-10-23T07:56:00Z", "2022-10-23T07:56:00Z", "2022-10-23T07:53:00Z", "2022-10-23T08:25:00Z", "2022-10-23T07:53:00Z", "2022-10-23T08:24:00Z", "2022-10-23T07:56:00Z", "2022-10-23T07:56:00Z", "2022-10-23T07:56:00Z", "2022-10-23T07:53:00Z", "2022-10-23T08:07:00Z", "2022-10-23T08:22:00Z", "2022-10-23T08:12:00Z", "2022-10-23T07:56:00Z", "2022-10-23T08:03:00Z", "2022-10-23T08:12:00Z", "2022-10-23T07:56:00Z", "2022-10-23T07:56:00Z", "2022-10-23T07:56:00Z", "2022-10-23T08:25:00Z", "2022-10-23T07:53:00Z", "2022-10-23T07:56:00Z", "2022-10-23T07:56:00Z", "2022-10-23T08:23:00Z", "2022-10-23T07:56:00Z", "2022-10-23T08:15:00Z", "2022-10-23T07:56:00Z", "2022-10-23T08:25:00Z", "2022-10-23T07:53:00Z", "2022-10-23T07:56:00Z", "2022-10-23T07:56:00Z", "2022-10-23T07:56:00Z", "2022-10-23T07:53:00Z", "2022-10-23T07:53:00Z", "2022-10-23T07:57:00Z", "2022-10-23T07:56:00Z", "2022-10-23T07:58:00Z", "2022-10-23T08:26:00Z", "2022-10-23T07:55:00Z", "2022-10-23T07:56:00Z", "2022-10-23T07:56:00Z", "2022-10-23T07:53:00Z", "2022-10-23T08:08:00Z", "2022-10-23T07:53:00Z", "2022-10-23T07:56:00Z", "2022-10-23T07:56:00Z", "2022-10-23T08:15:00Z", "2022-10-23T07:56:00Z", "2022-10-23T07:56:00Z", "2022-10-23T07:56:00Z", "2022-10-23T07:53:00Z", "2022-10-23T07:53:00Z", "2022-10-23T07:56:00Z", "2022-10-23T07:56:00Z", "2022-10-23T07:56:00Z", "2022-10-23T07:53:00Z", "2022-10-23T07:56:00Z", "2022-10-23T07:56:00Z", "2022-10-23T07:56:00Z", "2022-10-23T07:56:00Z", "2022-10-23T08:27:00Z", "2022-10-23T07:56:00Z", "2022-10-23T08:15:00Z", "2022-10-23T07:56:00Z", "2022-10-23T07:56:00Z", "2022-10-23T07:50:00Z", "2022-10-23T07:54:00Z", "2022-10-23T07:55:00Z", "2022-10-23T07:54:00Z", "2022-10-23T07:50:00Z", "2022-10-23T07:51:00Z", "2022-10-23T07:55:00Z", "2022-10-23T07:53:00Z", "2022-10-23T07:53:00Z", "2022-10-23T08:03:00Z", "2022-10-23T07:54:00Z", "2022-10-23T08:12:00Z", "2022-10-23T07:53:00Z", "2022-10-23T07:56:00Z", "2022-10-23T07:54:00Z", "2022-10-23T07:58:00Z", "2022-10-23T07:53:00Z", "2022-10-23T08:20:00Z", "2022-10-23T08:00:00Z", "2022-10-23T07:56:00Z", "2022-10-23T07:56:00Z", "2022-10-23T07:53:00Z", "2022-10-23T07:50:00Z", "2022-10-23T07:52:00Z", "2022-10-23T07:52:00Z", "2022-10-23T07:55:00Z", "2022-10-23T08:00:00Z", "2022-10-23T08:00:00Z", "2022-10-23T08:20:00Z", "2022-10-23T08:00:00Z", "2022-10-23T08:00:00Z", "2022-10-23T08:00:00Z", "2022-10-23T08:00:00Z", "2022-10-23T08:00:00Z", "2022-10-23T08:00:00Z", "2022-10-23T08:00:00Z", "2022-10-23T08:00:00Z", "2022-10-23T08:00:00Z", "2022-10-23T08:00:00Z", "2022-10-23T08:00:00Z", "2022-10-23T08:00:00Z", "2022-10-23T08:00:00Z", "2022-10-23T08:00:00Z", "2022-10-23T08:00:00Z", "2022-10-23T08:00:00Z", "2022-10-23T08:00:00Z", "2022-10-23T08:00:00Z", "2022-10-23T08:00:00Z", "2022-10-23T08:00:00Z", "2022-10-23T08:00:00Z", "2022-10-23T08:00:00Z", "2022-10-23T08:00:00Z", "2022-10-23T08:00:00Z", "2022-10-23T08:00:00Z", "2022-10-23T08:00:00Z", "2022-10-23T08:00:00Z", "2022-10-23T08:00:00Z", "2022-10-23T08:00:00Z", "2022-10-23T08:00:00Z", "2022-10-23T08:00:00Z", "2022-10-23T08:00:00Z", "2022-10-23T08:00:00Z", "2022-10-23T08:00:00Z", "2022-10-23T08:00:00Z", "2022-10-23T08:00:00Z", "2022-10-23T08:07:00Z", "2022-10-23T08:00:00Z", "2022-10-23T08:00:00Z", "2022-10-23T08:00:00Z", "2022-10-23T08:00:00Z", "2022-10-23T08:00:00Z", "2022-10-23T08:00:00Z", "2022-10-23T08:00:00Z", "2022-10-23T08:00:00Z", "2022-10-23T07:56:00Z", "2022-10-23T08:00:00Z", "2022-10-23T08:00:00Z", "2022-10-23T08:00:00Z", "2022-10-23T08:00:00Z", "2022-10-23T08:00:00Z", "2022-10-23T08:00:00Z", "2022-10-23T08:00:00Z", "2022-10-23T08:00:00Z", "2022-10-23T08:00:00Z", "2022-10-23T08:00:00Z", "2022-10-23T08:00:00Z", "2022-10-23T08:00:00Z", "2022-10-23T08:00:00Z", "2022-10-23T08:00:00Z", "2022-10-23T08:00:00Z", "2022-10-23T08:00:00Z", "2022-10-23T08:00:00Z", "2022-10-23T08:00:00Z", "2022-10-23T08:00:00Z", "2022-10-23T07:56:00Z", "2022-10-23T08:00:00Z", "2022-10-23T07:55:00Z", "2022-10-23T08:00:00Z", "2022-10-23T08:00:00Z", "2022-10-23T08:00:00Z", "2022-10-23T07:55:00Z", "2022-10-23T08:00:00Z", "2022-10-23T08:00:00Z", "2022-10-23T07:55:00Z", "2022-10-23T08:00:00Z", "2022-10-23T08:00:00Z", "2022-10-23T08:00:00Z", "2022-10-23T08:00:00Z", "2022-10-23T08:05:00Z", "2022-10-23T08:14:00Z", "2022-10-23T08:11:00Z", "2022-10-23T08:11:00Z", "2022-10-23T08:00:00Z", "2022-10-23T08:00:00Z", "2022-10-23T08:00:00Z", "2022-10-23T07:56:00Z", "2022-10-23T08:00:00Z", "2022-10-23T08:00:00Z", "2022-10-23T08:00:00Z", "2022-10-23T08:00:00Z", "2022-10-23T08:00:00Z", "2022-10-23T08:00:00Z", "2022-10-23T08:00:00Z", "2022-10-23T08:00:00Z", "2022-10-23T08:00:00Z", "2022-10-23T08:00:00Z", "2022-10-23T08:00:00Z", "2022-10-23T08:00:00Z", "2022-10-23T08:00:00Z", "2022-10-23T08:00:00Z", "2022-10-23T08:00:00Z", "2022-10-23T08:00:00Z", "2022-10-23T08:00:00Z", "2022-10-23T08:00:00Z", "2022-10-23T08:00:00Z", "2022-10-23T08:00:00Z", "2022-10-23T08:00:00Z", "2022-10-23T08:00:00Z", "2022-10-23T08:00:00Z", "2022-10-23T08:00:00Z", "2022-10-23T08:00:00Z", "2022-10-23T08:00:00Z", "2022-10-23T08:00:00Z", "2022-10-23T08:00:00Z", "2022-10-23T08:00:00Z", "2022-10-23T08:00:00Z", "2022-10-23T08:00:00Z", "2022-10-23T08:00:00Z", "2022-10-23T08:00:00Z", "2022-10-23T08:00:00Z", "2022-10-23T08:00:00Z", "2022-10-23T08:00:00Z", "2022-10-23T08:00:00Z", "2022-10-23T08:00:00Z", "2022-10-23T08:00:00Z", "2022-10-23T08:00:00Z", "2022-10-23T08:00:00Z", "2022-10-23T08:00:00Z", "2022-10-23T08:00:00Z", "2022-10-23T08:00:00Z", "2022-10-23T08:00:00Z", "2022-10-23T08:00:00Z", "2022-10-23T08:00:00Z", "2022-10-23T08:00:00Z", "2022-10-23T08:00:00Z", "2022-10-23T08:00:00Z", "2022-10-23T08:00:00Z", "2022-10-23T08:00:00Z", "2022-10-23T08:00:00Z", "2022-10-23T08:00:00Z", "2022-10-23T08:00:00Z", "2022-10-23T08:00:00Z", "2022-10-23T08:00:00Z", "2022-10-23T08:00:00Z", "2022-10-23T08:00:00Z", "2022-10-23T08:00:00Z", "2022-10-23T08:00:00Z", "2022-10-23T08:00:00Z", "2022-10-23T08:00:00Z", "2022-10-23T08:00:00Z", "2022-10-23T08:00:00Z", "2022-10-23T08:00:00Z", "2022-10-23T08:00:00Z", "2022-10-23T08:00:00Z", "2022-10-23T08:00:00Z", "2022-10-23T08:00:00Z", "2022-10-23T08:00:00Z", "2022-10-23T08:00:00Z", "2022-10-23T08:00:00Z", "2022-10-23T08:00:00Z", "2022-10-23T08:00:00Z", "2022-10-23T08:00:00Z", "2022-10-23T08:00:00Z", "2022-10-23T08:00:00Z", "2022-10-23T08:03:00Z", "2022-10-23T08:03:00Z", "2022-10-23T08:03:00Z", "2022-10-23T08:03:00Z", "2022-10-23T08:03:00Z", "2022-10-23T08:03:00Z", "2022-10-23T08:03:00Z", "2022-10-23T08:03:00Z", "2022-10-23T08:03:00Z", "2022-10-23T08:03:00Z", "2022-10-23T08:03:00Z", "2022-10-23T08:03:00Z", "2022-10-23T08:03:00Z", "2022-10-23T08:03:00Z", "2022-10-23T08:03:00Z", "2022-10-23T08:03:00Z", "2022-10-23T08:03:00Z", "2022-10-23T08:03:00Z", "2022-10-23T08:03:00Z", "2022-10-23T08:03:00Z", "2022-10-23T08:00:00Z", "2022-10-23T08:00:00Z", "2022-10-23T08:00:00Z", "2022-10-23T08:00:00Z", "2022-10-23T08:00:00Z", "2022-10-23T08:00:00Z", "2022-10-23T07:53:00Z", "2022-10-23T07:53:00Z", "2022-10-23T07:53:00Z", "2022-10-23T07:56:00Z", "2022-10-23T08:00:00Z", "2022-10-23T07:55:00Z", "2022-10-23T08:00:00Z", "2022-10-23T07:55:00Z", "2022-10-23T08:00:00Z", "2022-10-23T08:00:00Z", "2022-10-23T08:00:00Z", "2022-10-23T07:55:00Z", "2022-10-23T08:00:00Z", "2022-10-23T08:00:00Z", "2022-10-23T08:00:00Z", "2022-10-23T08:00:00Z", "2022-10-23T08:00:00Z", "2022-10-23T08:00:00Z", "2022-10-23T08:00:00Z", "2022-10-23T08:00:00Z", "2022-10-23T08:00:00Z", "2022-10-23T08:00:00Z", "2022-10-23T08:00:00Z", "2022-10-23T08:00:00Z", "2022-10-23T08:00:00Z", "2022-10-23T08:00:00Z", "2022-10-23T08:00:00Z", "2022-10-23T08:00:00Z", "2022-10-23T08:00:00Z", "2022-10-23T08:00:00Z", "2022-10-23T08:00:00Z", "2022-10-23T08:00:00Z", "2022-10-23T08:00:00Z", "2022-10-23T08:00:00Z", "2022-10-23T08:00:00Z", "2022-10-23T08:00:00Z", "2022-10-23T08:00:00Z", "2022-10-23T08:00:00Z", "2022-10-23T08:00:00Z", "2022-10-23T08:00:00Z", "2022-10-23T08:00:00Z", "2022-10-23T08:00:00Z", "2022-10-23T08:00:00Z", "2022-10-23T08:00:00Z", "2022-10-23T08:00:00Z", "2022-10-23T08:00:00Z", "2022-10-23T08:00:00Z", "2022-10-23T08:00:00Z", "2022-10-23T08:00:00Z", "2022-10-23T08:00:00Z", "2022-10-23T08:00:00Z", "2022-10-23T08:00:00Z", "2022-10-23T08:00:00Z", "2022-10-23T08:00:00Z", "2022-10-23T08:00:00Z", "2022-10-23T08:00:00Z", "2022-10-23T08:00:00Z", "2022-10-23T08:00:00Z", "2022-10-23T08:00:00Z", "2022-10-23T08:00:00Z", "2022-10-23T08:00:00Z", "2022-10-23T08:00:00Z", "2022-10-23T08:00:00Z", "2022-10-23T08:00:00Z", "2022-10-23T08:27:00Z", "2022-10-23T08:00:00Z", "2022-10-23T08:00:00Z", "2022-10-23T08:00:00Z", "2022-10-23T08:00:00Z", "2022-10-23T08:00:00Z", "2022-10-23T08:00:00Z", "2022-10-23T08:00:00Z", "2022-10-23T08:00:00Z", "2022-10-23T08:00:00Z", "2022-10-23T08:00:00Z", "2022-10-23T08:00:00Z", "2022-10-23T08:00:00Z", "2022-10-23T08:00:00Z", "2022-10-23T08:00:00Z", "2022-10-23T08:00:00Z", "2022-10-23T08:00:00Z", "2022-10-23T08:00:00Z", "2022-10-23T08:00:00Z", "2022-10-23T08:00:00Z", "2022-10-23T08:00:00Z", "2022-10-23T08:00:00Z", "2022-10-23T08:00:00Z", "2022-10-23T08:00:00Z", "2022-10-23T08:00:00Z", "2022-10-23T08:00:00Z", "2022-10-23T08:00:00Z", "2022-10-23T08:00:00Z", "2022-10-23T08:00:00Z", "2022-10-23T08:00:00Z", "2022-10-23T08:00:00Z", "2022-10-23T08:00:00Z", "2022-10-23T08:00:00Z", "2022-10-23T08:00:00Z", "2022-10-23T08:00:00Z", "2022-10-23T08:00:00Z", "2022-10-23T08:00:00Z", "2022-10-23T08:00:00Z", "2022-10-23T08:00:00Z", "2022-10-23T08:00:00Z", "2022-10-23T08:00:00Z", "2022-10-23T08:00:00Z", "2022-10-23T08:00:00Z", "2022-10-23T08:00:00Z", "2022-10-23T08:00:00Z", "2022-10-23T08:00:00Z", "2022-10-23T08:00:00Z", "2022-10-23T08:00:00Z", "2022-10-23T08:00:00Z", "2022-10-23T08:20:00Z", "2022-10-23T08:00:00Z", "2022-10-23T08:00:00Z", "2022-10-23T08:00:00Z", "2022-10-23T08:00:00Z", "2022-10-23T08:00:00Z", "2022-10-23T08:00:00Z", "2022-10-23T08:00:00Z", "2022-10-23T08:00:00Z", "2022-10-23T08:00:00Z", "2022-10-23T08:00:00Z", "2022-10-23T08:00:00Z", "2022-10-23T08:00:00Z", "2022-10-23T08:00:00Z", "2022-10-23T08:00:00Z", "2022-10-23T08:00:00Z", "2022-10-23T08:00:00Z", "2022-10-23T08:00:00Z", "2022-10-23T08:00:00Z", "2022-10-23T08:00:00Z", "2022-10-23T08:00:00Z", "2022-10-23T08:00:00Z", "2022-10-23T08:00:00Z", "2022-10-23T08:00:00Z", "2022-10-23T08:00:00Z", "2022-10-23T08:00:00Z", "2022-10-23T08:00:00Z", "2022-10-23T08:00:00Z", "2022-10-23T08:00:00Z", "2022-10-23T08:00:00Z", "2022-10-23T08:00:00Z", "2022-10-23T08:00:00Z", "2022-10-23T08:00:00Z", "2022-10-23T08:00:00Z", "2022-10-23T08:00:00Z", "2022-10-23T08:00:00Z", "2022-10-23T08:00:00Z", "2022-10-23T08:00:00Z", "2022-10-23T08:00:00Z", "2022-10-23T08:00:00Z", "2022-10-23T08:00:00Z", "2022-10-23T08:00:00Z", "2022-10-23T08:00:00Z", "2022-10-23T08:00:00Z", "2022-10-23T07:30:00Z", "2022-10-23T08:00:00Z", "2022-10-23T08:00:00Z", "2022-10-23T08:00:00Z", "2022-10-23T08:00:00Z", "2022-10-23T08:00:00Z", "2022-10-23T08:10:00Z", "2022-10-23T08:00:00Z", "2022-10-23T08:00:00Z", "2022-10-23T08:00:00Z", "2022-10-23T08:00:00Z", "2022-10-23T08:00:00Z", "2022-10-23T08:00:00Z", "2022-10-23T08:00:00Z", "2022-10-23T08:00:00Z", "2022-10-23T08:00:00Z", "2022-10-23T08:00:00Z", "2022-10-23T08:00:00Z", "2022-10-23T08:00:00Z", "2022-10-23T08:00:00Z", "2022-10-23T08:00:00Z", "2022-10-23T08:00:00Z", "2022-10-23T08:00:00Z", "2022-10-23T08:00:00Z", "2022-10-23T08:00:00Z", "2022-10-23T08:00:00Z", "2022-10-23T08:00:00Z", "2022-10-23T08:00:00Z", "2022-10-23T08:00:00Z", "2022-10-23T08:00:00Z", "2022-10-23T08:00:00Z", "2022-10-23T08:00:00Z", "2022-10-23T08:00:00Z", "2022-10-23T08:00:00Z", "2022-10-23T08:00:00Z", "2022-10-23T08:00:00Z", "2022-10-23T08:00:00Z", "2022-10-23T08:00:00Z", "2022-10-23T08:00:00Z", "2022-10-23T08:00:00Z", "2022-10-23T08:00:00Z", "2022-10-23T08:00:00Z", "2022-10-23T08:00:00Z", "2022-10-23T08:00:00Z", "2022-10-23T08:00:00Z", "2022-10-23T08:00:00Z", "2022-10-23T08:00:00Z", "2022-10-23T08:00:00Z", "2022-10-23T08:00:00Z", "2022-10-23T08:00:00Z", "2022-10-23T08:00:00Z", "2022-10-23T08:00:00Z", "2022-10-23T08:00:00Z", "2022-10-23T08:00:00Z", "2022-10-23T08:00:00Z", "2022-10-23T08:00:00Z", "2022-10-23T08:00:00Z", "2022-10-23T08:00:00Z", "2022-10-23T08:00:00Z", "2022-10-23T08:00:00Z", "2022-10-23T08:00:00Z", "2022-10-23T08:00:00Z", "2022-10-23T08:00:00Z", "2022-10-23T08:00:00Z", "2022-10-23T08:00:00Z", "2022-10-23T08:00:00Z", "2022-10-23T08:00:00Z", "2022-10-23T08:00:00Z", "2022-10-23T08:00:00Z", "2022-10-23T08:00:00Z", "2022-10-23T07:30:00Z", "2022-10-23T08:00:00Z", "2022-10-23T08:00:00Z", "2022-10-23T08:00:00Z", "2022-10-23T08:00:00Z", "2022-10-23T08:00:00Z", "2022-10-23T08:00:00Z", "2022-10-23T08:00:00Z", "2022-10-23T08:00:00Z", "2022-10-23T08:00:00Z", "2022-10-23T08:00:00Z", "2022-10-23T08:00:00Z", "2022-10-23T08:00:00Z", "2022-10-23T08:00:00Z", "2022-10-23T08:00:00Z", "2022-10-23T08:00:00Z", "2022-10-23T08:00:00Z", "2022-10-23T08:00:00Z", "2022-10-23T08:00:00Z", "2022-10-23T08:00:00Z", "2022-10-23T08:00:00Z", "2022-10-23T08:00:00Z", "2022-10-23T08:00:00Z", "2022-10-23T08:00:00Z", "2022-10-23T08:00:00Z", "2022-10-23T08:00:00Z", "2022-10-23T08:00:00Z", "2022-10-23T08:00:00Z", "2022-10-23T08:00:00Z", "2022-10-23T08:00:00Z", "2022-10-23T08:00:00Z", "2022-10-23T08:00:00Z", "2022-10-23T08:00:00Z", "2022-10-23T08:00:00Z", "2022-10-23T08:00:00Z", "2022-10-23T08:00:00Z", "2022-10-23T08:00:00Z", "2022-10-23T08:00:00Z", "2022-10-23T08:00:00Z", "2022-10-23T08:00:00Z", "2022-10-23T08:00:00Z", "2022-10-23T08:00:00Z", "2022-10-23T08:00:00Z", "2022-10-23T08:00:00Z", "2022-10-23T08:00:00Z", "2022-10-23T08:00:00Z", "2022-10-23T08:00:00Z", "2022-10-23T08:00:00Z", "2022-10-23T08:00:00Z", "2022-10-23T08:00:00Z", "2022-10-23T08:00:00Z", "2022-10-23T08:00:00Z", "2022-10-23T08:00:00Z", "2022-10-23T07:30:00Z", "2022-10-23T08:00:00Z", "2022-10-23T08:00:00Z", "2022-10-23T08:00:00Z", "2022-10-23T08:00:00Z", "2022-10-23T08:00:00Z", "2022-10-23T08:00:00Z", "2022-10-23T08:00:00Z", "2022-10-23T08:00:00Z", "2022-10-23T08:00:00Z", "2022-10-23T08:00:00Z", "2022-10-23T08:00:00Z", "2022-10-23T08:00:00Z", "2022-10-23T08:00:00Z", "2022-10-23T08:00:00Z", "2022-10-23T08:00:00Z", "2022-10-23T08:00:00Z", "2022-10-23T08:00:00Z", "2022-10-23T08:00:00Z", "2022-10-23T08:00:00Z", "2022-10-23T08:00:00Z", "2022-10-23T08:00:00Z", "2022-10-23T08:00:00Z", "2022-10-23T08:00:00Z", "2022-10-23T08:00:00Z", "2022-10-23T08:00:00Z", "2022-10-23T08:00:00Z", "2022-10-23T08:00:00Z", "2022-10-23T08:00:00Z", "2022-10-23T08:00:00Z", "2022-10-23T08:00:00Z", "2022-10-23T08:00:00Z", "2022-10-23T08:00:00Z", "2022-10-23T08:00:00Z", "2022-10-23T08:00:00Z", "2022-10-23T08:00:00Z", "2022-10-23T08:00:00Z", "2022-10-23T08:00:00Z", "2022-10-23T08:00:00Z", "2022-10-23T08:00:00Z", "2022-10-23T08:00:00Z", "2022-10-23T08:00:00Z", "2022-10-23T08:00:00Z", "2022-10-23T08:00:00Z", "2022-10-23T08:00:00Z", "2022-10-23T08:00:00Z", "2022-10-23T08:00:00Z", "2022-10-23T08:00:00Z", "2022-10-23T08:00:00Z", "2022-10-23T08:00:00Z", "2022-10-23T08:00:00Z", "2022-10-23T08:00:00Z", "2022-10-23T08:09:00Z", "2022-10-23T08:00:00Z", "2022-10-23T08:16:00Z", "2022-10-23T08:00:00Z", "2022-10-23T08:00:00Z", "2022-10-23T08:00:00Z", "2022-10-23T08:00:00Z", "2022-10-23T08:26:00Z", "2022-10-23T08:21:00Z", "2022-10-23T08:15:00Z", "2022-10-23T08:25:00Z", "2022-10-23T08:16:00Z", "2022-10-23T08:23:00Z", "2022-10-23T08:00:00Z", "2022-10-23T07:35:00Z", "2022-10-23T08:00:00Z", "2022-10-23T08:00:00Z", "2022-10-23T08:14:00Z", "2022-10-23T08:00:00Z", "2022-10-23T08:00:00Z", "2022-10-23T08:00:00Z", "2022-10-23T07:30:00Z", "2022-10-23T08:00:00Z", "2022-10-23T08:18:00Z", "2022-10-23T08:00:00Z", "2022-10-23T08:00:00Z", "2022-10-23T08:00:00Z", "2022-10-23T08:00:00Z", "2022-10-23T08:00:00Z", "2022-10-23T07:46:00Z", "2022-10-23T08:00:00Z", "2022-10-23T08:00:00Z", "2022-10-23T08:00:00Z", "2022-10-23T08:00:00Z", "2022-10-23T08:00:00Z", "2022-10-23T08:00:00Z", "2022-10-23T08:00:00Z", "2022-10-23T08:00:00Z", "2022-10-23T08:00:00Z", "2022-10-23T08:00:00Z", "2022-10-23T08:00:00Z", "2022-10-23T08:00:00Z", "2022-10-23T08:00:00Z", "2022-10-23T08:00:00Z", "2022-10-23T08:00:00Z", "2022-10-23T08:00:00Z", "2022-10-23T08:00:00Z", "2022-10-23T08:00:00Z", "2022-10-23T08:00:00Z", "2022-10-23T08:00:00Z", "2022-10-23T08:00:00Z", "2022-10-23T08:00:00Z", "2022-10-23T08:00:00Z", "2022-10-23T08:00:00Z", "2022-10-23T08:00:00Z", "2022-10-23T08:00:00Z", "2022-10-23T08:00:00Z", "2022-10-23T08:00:00Z", "2022-10-23T08:00:00Z", "2022-10-23T08:00:00Z", "2022-10-23T08:00:00Z", "2022-10-23T08:00:00Z", "2022-10-23T08:00:00Z", "2022-10-23T08:00:00Z", "2022-10-23T08:00:00Z", "2022-10-23T08:00:00Z", "2022-10-23T08:00:00Z", "2022-10-23T08:00:00Z", "2022-10-23T08:00:00Z", "2022-10-23T08:00:00Z", "2022-10-23T08:00:00Z", "2022-10-23T08:00:00Z", "2022-10-23T08:00:00Z", "2022-10-23T08:00:00Z"], "raw_text": ["AGGH 230800Z 20003KT 9999 SCT015 FEW016CB OVC029 25/25 Q1009 RMKS SH IN THE AREA", "ANYN 230800Z 09005KT 9999 FEW020 27/25 Q1010", "AYMH 230800Z 27015KT 9999 HZ FEW020 SCT060 19/17 Q1017", "AYNZ 230800Z 07010G20KT 9999 SCT050 28/22 Q1005", "AYPY 230800Z 21007KT 9999 FEW020 SCT035 30/24 Q1007", "BGBW 230750Z AUTO 22002KT 9999NDV -DZ OVC050/// 02/01 Q1006", "BGGH 230750Z AUTO 16029G41KT 5000NDV -SG OVC036/// 03/01 Q0996", "BGJN 230750Z AUTO 10015KT 9999NDV SCT074/// BKN150/// 04/M03 Q0996", "BGKK 230750Z AUTO VRB01KT 9999NDV FEW080/// BKN100/// M00/M03 Q1007", "BGSF 230750Z AUTO 04011KT 9999NDV SCT065/// BKN080/// 05/M01 Q0996", "BGTL 230815Z AUTO 17006KT 9999 SCT017 OVC041 M04/M07 A2941 RMK AO2 SLP946 TSNO $", "BIAR 230800Z 00000KT CAVOK M04/M05 Q1011", "BIEG 230800Z 19005KT 150V210 CAVOK M02/M03 Q1012", "BIKF 230800Z 15019KT 9999 -DZ FEW005 BKN014 BKN048 04/04 Q1009", "BIRK 230800Z 09007KT 060V120 9999 FEW024 SCT044 BKN150 05/01 Q1010", "CAHR 230800Z AUTO 20005KT 10/08 RMK AO1 SLP263 T01040082 51002", "CBAR 230800Z AUTO 20006KT ////SM OVC033 M08/M10 A3016", "CBBC 230811Z AUTO 00000KT 9SM BKN004 00/M00 A2996 RMK SLP149", "CERM 230800Z AUTO 00000KT 01/M00 RMK AO1 SLP261 T00061003 51014", "CFOX 230800Z AUTO ///// ////SM OVC039 M04/M05 A2939", "CMFM 230800Z AUTO 23001KT 02/01 RMK AO1 SLP263 T00190011 52012", "CMGB 230800Z AUTO 00000KT 07/03 RMK AO1 SLP255 T00740028 53011", "CPBT 230800Z AUTO 01016KT 00/00 RMK AO1 PK WND 01020/0742 T00000000", "CPEH 230800Z AUTO 00000KT M00/M00 RMK AO1 5PAST HR M P0002 T10011003 50010", "CPFI 230800Z AUTO 01015KT 02/01 RMK AO1 5PAST HR M PK WND 01021/0757 P0002 T00190012 50013", "CPIN 230800Z AUTO 27009KT ////SM FEW016 SCT023 BKN032 ///// A////", "CPIR 230800Z AUTO 36012KT M00/M00 RMK AO1 PK WND 01017/0759 T10031003 50006", "CPRO 230800Z AUTO 36006KT 02/M00 RMK AO1 T00211004", "CPRY 230800Z AUTO 35013KT M00/M00 RMK AO1 5PAST HR M P0002 T10021001 50005", "CPST 230800Z AUTO 03008KT M00/M00 RMK AO1 T10021002", "CPSV 230800Z AUTO 02013KT 03/02 RMK AO1 3PAST HR M PK WND 02021/0701 P0005 T00280022 50026", "CTCK 230800Z AUTO 00000KT 06/04 RMK AO1 SLP240 T00640036 51014", "CTNK 230800Z AUTO 10001KT 02/02 RMK AO1 SLP228 T00150021 51009", "CTRA 230800Z AUTO 05006KT 07/05 RMK AO1 SLP063 T00680049 57004", "CWAF 230800Z AUTO 21003KT 08/05 RMK AO1 T00770047", "CWAJ 230800Z AUTO 17009KT RMK AO1 51006", "CWAQ 230800Z AUTO 07014G20KT 05/03 RMK AO1 PK WND 07020/0750 SLP032 T00450030 58002", "CWAR 230800Z AUTO 20017KT 12/10 RMK AO1 PK WND 20022/0724 SLP263 T01230100 58005", "CWAV 230800Z AUTO 01002KT M00/M00 RMK AO1 SLP147 T10011004 51012", "CWBA 230800Z AUTO 16005KT 09/08 RMK AO1 T00900084", "CWBK 230800Z AUTO 20005KT 09/08 RMK AO1 SLP277 T00930081 55000", "CWBO 230800Z AUTO 01009KT 02/M00 RMK AO1 3PAST HR 1004 SLP107 P0001 T00181004 50003", "CWBS 230800Z AUTO 25003KT 12/06 RMK AO1 T01160059", "CWBT 230800Z AUTO 30002KT M01/M01 RMK AO1 SLP218 T10061006 51018", "CWBU 230800Z AUTO 06005KT M01/M05 RMK AO1 SLP150 T10101052 51011", "CWBV 230800Z AUTO 34003KT 12/12 RMK AO1 SLP270 T01210118 55001", "CWBY 230800Z AUTO 00000KT 04/03 RMK AO1 SLP222 T00410033 51014", "CWBZ 230800Z AUTO 00000KT 03/02 RMK AO1 SLP241 T00310021 51010", "CWCF 230800Z AUTO 03005KT M00/M02 RMK AO1 SLP140 T10041024 50004", "CWCJ 230800Z AUTO 04006KT 07/05 RMK AO1 SLP115 T00650053 51002", "CWCO 230800Z AUTO 16003KT 13/08 RMK AO1 SLP206 T01250075 52017", "CWCT 230800Z AUTO 04009KT 01/M00 RMK AO1 SLP134 T00101002 51007", "CWDA 230800Z AUTO 27019G25KT 11/ RMK AO1 PK WND 27036/0702 T0111", "CWDC 230800Z AUTO 06003KT M03/M07 RMK AO1 SLP196 T10261066 51012", "CWDJ 230800Z AUTO 07016G22KT 03/M00 RMK AO1 3PAST HR 0002 PK WND 08023/0705 SLP076 P0001 T00291003 50007", "CWDK 230800Z AUTO 36009KT M00/01 RMK AO1 2PAST HR SOG 17 1010 SLP126 P0001 T10010005 50004", "CWDM 230800Z AUTO 23006KT 07/07 RMK AO1 SLP194 T00710066 53009", "CWDO 230800Z AUTO 23017G24KT 09/05 RMK AO1 PK WND 25025/0708 SLP198 T00870046 56009", "CWDQ 230800Z AUTO 01001KT 04/03 RMK AO1 SLP247 T00360031 51011", "CWDV 230800Z AUTO 09003KT 07/05 RMK AO1 SLP078 T00680050 56005", "CWDZ 230800Z AUTO 32005KT 02/M00 RMK AO1 1007 SLP127 T00191004 50003", "CWEB 230800Z AUTO 00033KT 07/03 RMK AO1 SLP134 T00650026 51010", "CWEF 230800Z AUTO 25025KT 13/09 RMK AO1 PK WND 25029/0707 SLP243 T01300088 55000", "CWEH 230800Z AUTO 05018KT 00/M01 RMK AO1 1PAST HR SOG 04 8003 PK WND 06025/0749 SLP041 P0016 T00001008 50044", "CWEK 230800Z AUTO 08010KT 06/ RMK AO1 SLP112 T0064 56003", "CWEL 230800Z AUTO 28014KT 10/05 RMK AO1 PK WND 31021/0711 SLP134 T01010046 53023", "CWEP 230800Z AUTO 21010KT 11/08 RMK AO1 SLP270 T01120082 53001", "CWEQ 230800Z AUTO 04008KT 01/M01 RMK AO1 SLP138 T00131014 51004", "CWER 230800Z AUTO 23015KT RMK AO1 PK WND 22018/0753", "CWEU 230800Z 01009KT 15SM IC SKC M20/M25 A2966 RMK SLP061", "CWEW 230800Z AUTO 00000KT 05/04 RMK AO1 SLP255 T00510040 51012", "CWEZ 230800Z AUTO 33002KT 08/07 RMK AO1 SLP129 T00830068 51018", "CWFD 230800Z AUTO ///// ////SM OVC002 M03/M04 A2908", "CWFF 230800Z AUTO 05006KT M01/M05 RMK AO1 SLP141 T10061047 50008", "CWFJ 230800Z AUTO 35013G18KT M01/M01 RMK AO1 2PAST HR M PK WND 36018/0758 P0001 T10071009 50009", "CWFQ 230800Z AUTO 16004KT 13/02 RMK AO1 SLP253 T01250018 52007", "CWGB 230800Z AUTO 25012KT 10/ RMK AO1 PK WND 26018/0710 SLP132 T0096 51020", "CWGD 230800Z AUTO 16007KT 15/09 RMK AO1 SLP193 T01470088 51006", "CWGH 230800Z AUTO 00000KT 10/05 RMK AO1 SLP242 T00950048 51012", "CWGL 230800Z AUTO 13005KT 12/06 RMK AO1 SLP206 T01200061 51011", "CWGM 230800Z AUTO 02011KT M01/M02 RMK AO1 4PAST HR SOG 28 1008 PK WND 03017/0733 SLP108 P0002 T10121019 50013", "CWGR 230800Z AUTO 24013G19KT 11/08 RMK AO1 PK WND 23019/0751 SLP249 T01100082 53005", "CWGT 230800Z AUTO 31016KT 10/04 RMK AO1 PK WND 31020/0745 SLP137 T00990035 51021", "CWGW 230800Z AUTO 31003KT 01/M02 RMK AO1 SLP109 T00081019 51010", "CWGY 230800Z AUTO 34002KT 02/M02 RMK AO1 SLP114 T00161018 51012", "CWHI 230800Z AUTO 33005KT 01/M00 RMK AO1 5PAST HR M P0002 T00081002 50005", "CWHL 230800Z AUTO 09006KT 07/04 RMK AO1 SLP131 T00690039 56008", "CWHO 230800Z AUTO 00027KT 09/04 RMK AO1 SLP095 T00850038 53012", "CWHP 230800Z AUTO 23010KT 08/07 RMK AO1 SLP219 T00750068 53013", "CWHQ 230800Z AUTO 34001KT 02/02 RMK AO1 T00190015", "CWHT 230800Z AUTO 29003KT 01/M06 RMK AO1 SLP108 T00051059 58002", "CWHV 230800Z AUTO 18002KT 04/02 RMK AO1 SLP261 T00350023 53013", "CWID 230800Z AUTO 27003KT M06/M08 RMK AO1 SLP211 T10641077 51006", "CWIG 230800Z AUTO 19013KT RMK AO1 PK WND 19017/0758", "CWIJ 230800Z AUTO 32010KT M13/M15 RMK AO1 SOG 07 1009 SLP211 T11331152", "CWIK 230800Z AUTO 06013G20KT 02/01 RMK AO1 8PAST HR 5001 PK WND 05020/0752 SLP087 P0003 T00240011 50010", "CWIL 230800Z AUTO ///// ////SM OVC011 ///// A////", "CWIP 230800Z AUTO 33002KT 05/04 RMK AO1 T00480043", "CWIS 230800Z AUTO 25003KT 10/02 RMK AO1 SLP256 T01020023 53014", "CWIT 230800Z AUTO 14001KT 08/04 RMK AO1 SLP244 T00830040 52009", "CWIW 230800Z AUTO 07010KT 03/M01 RMK AO1 SLP113 T00301011 51007", "CWIZ 230800Z AUTO 18005KT 10/05 RMK AO1 T00950051", "CWJB 230800Z AUTO 22001KT 07/04 RMK AO1 T00680044", "CWJC 230800Z AUTO 33013KT M09/M11 RMK AO1 SOG 09 1024 PK WND 35017/0746 SLP206 T10901114", "CWJD 230800Z AUTO 05005KT 04/01 RMK AO1 SLP153 T00430005 50011", "CWJH 230800Z AUTO 08002KT 01/M02 RMK AO1 SLP187 T00141015 53023", "CWJI 230800Z AUTO 06020G26KT 03/01 RMK AO1 6PAST HR 8008 PK WND 06026/0748 SLP047 P0006 T00290012 50034", "CWJO 230800Z AUTO 07004KT 07/05 RMK AO1 SLP230 T00650046 51007", "CWJR 230800Z AUTO 14002KT 04/04 RMK AO1 SLP096 T00380035 53016", "CWJT 230800Z AUTO 06001KT 04/ RMK AO1 SLP246 T0036 51011", "CWJU 230800Z AUTO 17006KT 08/06 RMK AO1 SLP123 T00790055 56013", "CWJV 230800Z AUTO 36001KT 02/M00 RMK AO1 SLP116 T00161003 51021", "CWJW 230800Z AUTO 36005KT 01/M02 RMK AO1 SLP139 T00141015 51013", "CWJX 230800Z AUTO 03008KT 03/01 RMK AO1 5PAST HR 1009 SLP088 P0002 T00320006 50005", "CWKG 230800Z AUTO 03001KT 03/03 RMK AO1 SLP286 T00330029 53002", "CWKH 230800Z AUTO 06/03 RMK AO1 SLP123 T00560026 51019", "CWKK 230800Z AUTO 10014KT 09/ RMK AO1 SLP112 T0091 58005", "CWKM 230800Z AUTO 11015KT ////SM OVC003 M06/M07 A3005", "CWKO 230800Z AUTO 07004KT 03/02 RMK AO1 3PAST HR 3002 PK WND 04018/0704 SLP041 P0001 T00280019 50006", "CWKP 230800Z AUTO 25014KT ////SM OVC024 M11/M12 A3003", "CWKX 230800Z AUTO 35001KT M01/M01 RMK AO1 SLP135 T10091011 58010", "CWLC 230800Z AUTO 13013KT 07/04 RMK AO1 T00740042", "CWLE 230800Z AUTO 07012KT 03/02 RMK AO1 3PAST HR 0000 PK WND 08019/0708 SLP089 P0001 T00300016 50008", "CWLI 230800Z AUTO 11006KT ////SM OVC030 M09/M10 A3015", "CWLM 230800Z AUTO 35008KT 07/05 RMK AO1 SLP132 T00710046 51020", "CWLS 230800Z AUTO 17005KT 13/08 RMK AO1 SLP208 T01270076 51006", "CWLX 230800Z AUTO ///// ////SM ////// M07/M09 A2938", "CWLY 230800Z AUTO 00000KT 1/4SM FG VV002 03/03 A2993 RMK SLP144", "CWME 230800Z AUTO 07003KT 07/06 RMK AO1 SLP148 T00730057 51003", "CWMJ 230800Z AUTO 19003KT 07/04 RMK AO1 SLP232 T00680041 51008", "CWMM 230800Z AUTO 25001KT 05/04 RMK AO1 SLP139 T00510035 51019", "CWMQ 230800Z AUTO 05013KT 03/02 RMK AO1 6PAST HR 5004 PK WND 03018/0727 SLP068 P0002 T00340023 50015", "CWMT 230800Z AUTO 17004KT M06/M08 RMK AO1 SLP205 T10611076 50002", "CWNC 230800Z AUTO 05004KT 08/05 RMK AO1 SLP225 T00810051 50006", "CWND 230800Z AUTO 11016KT M08/M10 RMK AO1 PK WND 11020/0700 SLP170 T10751096 52002", "CWNE 230800Z AUTO 23021KT 12/09 RMK AO1 PK WND 23026/0709 SLP250 T01200094 53008", "CWNH 230800Z AUTO 19005KT 11/04 RMK AO1 SLP243 T01050038 51014", "CWNK 230800Z AUTO 03011G16KT 07/05 RMK AO1 PK WND 04019/0745 SLP060 T00700050 51004", "CWNM 230800Z AUTO 23002KT 05/05 RMK AO1 SLP097 T00510051 51017", "CWNP 230800Z AUTO 10003KT 05/02 RMK AO1 SLP100 T00480023 51018", "CWNQ 230800Z AUTO 09001KT 06/04 RMK AO1 SLP249 T00580039 51015", "CWNZ 230800Z AUTO 11003KT 01/01 RMK AO1 SLP144 T00130010 58003", "CWOB 230802Z AUTO 30009KT ////SM BKN015 BKN030 OVC046 M02/M02 A2920", "CWOC 230800Z AUTO 29007KT 10/06 RMK AO1 SLP243 T01000062 53014", "CWOD 230800Z AUTO 00000KT 04/03 RMK AO1 SLP224 T00360028 51006", "CWOE 230800Z AUTO 02015KT 01/M00 RMK AO1 6PAST HR SOG 03 1002 PK WND 03020/0708 SLP050 P0006 T00101004 50026", "CWOY 230800Z AUTO 08008KT 02/M03 RMK AO1 SLP120 T00231034 51006", "CWPC 230800Z AUTO 17008KT 14/06 RMK AO1 SLP232 T01420055 50006", "CWPD 230800Z AUTO 21006KT 01/01 RMK AO1 SLP246 T00120009 53012", "CWPE 230800Z AUTO 28002KT 11/10 RMK AO1 SLP271 T01080100 56002", "CWPF 230815Z AUTO 01004KT 06/05 RMK AO1 SLP134 T00610046 51020", "CWPK 230800Z AUTO 18003KT 09/04 RMK AO1 SLP229 T00900042 51009", "CWPO 230800Z AUTO 05016G22KT 06/05 RMK AO1 PK WND 06024/0717 SLP063 T00640051 52004", "CWPR 230800Z AUTO 34002KT 01/01 RMK AO1 SOG 01 2019 SLP135 T00070006", "CWPX 230800Z AUTO 31020KT ////SM //// OVC018 M16/M18 A2985", "CWPZ 230800Z AUTO 00000KT M07/M08 RMK AO1 SLP165 T10661079 53008", "CWQH 230800Z AUTO 06004KT 04/03 RMK AO1 SLP266 T00400026 51010", "CWQK 230800Z AUTO 33001KT 09/ RMK AO1 SLP135 T0087 51020", "CWQO 230800Z AUTO 20009KT 08/05 RMK AO1 T00820053", "CWQP 230800Z AUTO 13011KT 13/10 RMK AO1 PK WND 36018/0731 SLP234 T01250095 52008", "CWQR 230800Z AUTO 30006KT 07/05 RMK AO1 T00670051", "CWQS 230800Z AUTO 12009KT 09/06 RMK AO1 SLP125 T00940059 57015", "CWQV 230800Z AUTO 11001KT 06/05 RMK AO1 T00550052", "CWRA 230800Z AUTO 00025KT 11/10 RMK AO1 SLP273 T01140104 55000", "CWRH 230800Z AUTO 24044G53KT ////SM ////// ///// A2929", "CWRJ 230800Z AUTO 04013KT 03/M03 RMK AO1 PK WND 03017/0742 SLP097 T00301029 50003", "CWRK 230800Z AUTO 20001KT 02/02 RMK AO1 SLP231 T00170017 50008", "CWRM 230800Z AUTO 33002KT 00/M00 RMK AO1 SLP128 T00001001 51012", "CWRN 230800Z AUTO 27004KT 13/13 RMK AO1 SLP280 T01290126 58001", "CWRO 230800Z AUTO 21007KT 07/ RMK AO1 SLP127 T0069 56010", "CWRT 230800Z AUTO 13002KT M01/M02 RMK AO1 SLP114 T10121015 51009", "CWRU 230800Z AUTO 35017KT 09/ RMK AO1 PK WND 34022/0753 SLP145 T0089 51006", "CWRX 230828Z AUTO ///// ////SM SCT005 BKN029 OVC037 M03/M03 A2940", "CWRY 230800Z AUTO 36016G22KT M00/M00 RMK AO1 2PAST HR 3006 PK WND 01024/0710 SLP078 P0001 T10011003 50005", "CWRZ 230800Z AUTO 26010KT 09/05 RMK AO1 SLP234 T00880047 51018", "CWSA 230822Z AUTO 10006KT 3SM BR FEW250 13/13 A3037 RMK SLP286", "CWSD 230800Z AUTO 23010KT 11/07 RMK AO1 SLP263 T01100074 51004", "CWSF 230800Z AUTO 17004KT 11/04 RMK AO1 SLP221 T01060044 51013", "CWSG 230800Z AUTO 11/04 RMK AO1 SLP231 T01100043 51014", "CWSK 230800Z AUTO 05002KT 03/02 RMK AO1 SLP139 T00290017 51021", "CWSL 230800Z AUTO 18004KT M00/M03 RMK AO1 SLP120 T10031026 51022", "CWSP 230800Z AUTO 07003KT 08/06 RMK AO1 SLP135 T00810055 51018", "CWSR 230800Z AUTO 04005KT 01/M02 RMK AO1 SLP146 T00071018 51009", "CWSS 230800Z AUTO 15001KT 04/04 RMK AO1 SLP272 T00400038 51004", "CWST 230800Z AUTO 09003KT 10/04 RMK AO1 SLP240 T00950041 52016", "CWTA 230800Z AUTO 18002KT 12/05 RMK AO1 SLP248 T01150050 51011", "CWTG 230800Z AUTO 23009KT 06/05 RMK AO1 SLP226 T00600050 51011", "CWTN 230800Z AUTO 11001KT 06/05 RMK AO1 SLP250 T00560050 52020", "CWTT 230800Z AUTO 01002KT 06/04 RMK AO1 T00550039", "CWTY 230800Z AUTO 32002KT 08/07 RMK AO1 SLP253 T00780066 51016", "CWUS 230800Z AUTO 28007KT 06/M02 RMK AO1 SLP116 T00571023 51018", "CWUW 230800Z AUTO 04004KT 010V070 ////SM NCD M06/M07 A2926", "CWUX 230800Z AUTO 00000KT 04/02 RMK AO1 SLP238 T00380023 51006", "CWVF 230800Z AUTO 11005KT 10/07 RMK AO1 T00970074", "CWVH 230800Z AUTO VRB06KT ////SM OVC002 ///// A////", "CWVI 230800Z AUTO 01002KT M06/M06 RMK AO1 SLP160 T10601055 51013", "CWVN 230800Z AUTO 06015G21KT 02/01 RMK AO1 9PAST HR 8003 PK WND 06022/0738 SLP032 P0004 T00220006 50021", "CWVP 230800Z AUTO 04007KT M00/M01 RMK AO1 6PAST HR SOG 09 8004 SLP046 P0002 T10041010 50013", "CWVQ 230800Z AUTO 00000KT 05/04 RMK AO1 SLP249 T00480039 51014", "CWVT 230800Z AUTO 08004KT 01/M01 RMK AO1 SLP190 T00101013 53018", "CWVU 230800Z AUTO 14006KT 11/11 RMK AO1 SLP274 T01100109 55001", "CWWA 230800Z AUTO 02002KT 06/04 RMK AO1 SLP134 T00620035 51019", "CWWB 230800Z AUTO 35003KT 10/07 RMK AO1 SLP218 T00980072 51009", "CWWE 230800Z AUTO 36003KT 08/08 RMK AO1 SLP282 T00820081 55000", "CWWF 230800Z AUTO 09020G26KT 04/02 RMK AO1 SOG 01 8003 PK WND 09028/0720 SLP051 T00370018", "CWWK 230800Z AUTO 06001KT 05/04 RMK AO1 SLP138 T00530035 51019", "CWWL 230800Z AUTO 14003KT 07/04 RMK AO1 SLP136 T00710042 56007", "CWWS 230800Z AUTO 04018KT 04/01 RMK AO1 PK WND 04020/0753 SLP148 T00380009 50010", "CWWZ 230800Z AUTO 17012KT 15/06 RMK AO1 SLP211 T01460064 51004", "CWXA 230800Z AUTO 00010KT M01/M02 RMK AO1 SLP165 T10131020 51014", "CWXC 230800Z AUTO 01001KT 04/03 RMK AO1 SLP235 T00400032 51007", "CWXI 230800Z AUTO 23021G26KT 10/09 RMK AO1 PK WND 23027/0748 SLP167 T01000088 50002", "CWXL 230800Z AUTO 02012G18KT 02/01 RMK AO1 7PAST HR 1004 PK WND 02018/0742 SLP087 P0003 T00160009 50016", "CWYJ 230800Z AUTO 33002KT 04/03 RMK AO1 SLP135 T00430032 51020", "CWYL 230800Z AUTO 06004KT M03/M05 RMK AO1 SLP124 T10271052 51015", "CWYY 230800Z AUTO 32004KT 07/02 RMK AO1 SLP098 T00730019 51012", "CWZG 230800Z AUTO 02001KT M02/M02 RMK AO1 3PAST HR SOG 06 1012 SLP131 P0001 T10161023 50009", "CWZL 230800Z AUTO 24004KT 09/06 RMK AO1 SLP143 T00870064 56009", "CWZN 230800Z AUTO 26016KT 12/10 RMK AO1 PK WND 27022/0732 SLP259 T01160103 58004", "CWZO 230800Z AUTO 35008KT RMK AO1", "CWZQ 230800Z AUTO 17009KT 12/09 RMK AO1 SLP274 T01180086 55001", "CWZW 230800Z AUTO 06003KT 01/M01 RMK AO1 SLP121 T00051009 56008", "CXAF 230800Z AUTO 35002KT M01/M01 RMK AO1 T10071010", "CXAG 230800Z AUTO 35003KT M02/M02 RMK AO1 T10171022", "CXAJ 230800Z AUTO 03002KT M00/M00 RMK AO1 T10031001", "CXAK 230800Z AUTO 01005KT M00/M00 RMK AO1 T10041003", "CXAT 230800Z AUTO 06008KT M08/M12 RMK AO1 SOG 04 1009 SLP979 T10771115", "CXBA 230800Z AUTO 05008KT 01/M01 RMK AO1 T00071014", "CXBI 230800Z AUTO 01002KT 05/04 RMK AO1 SLP228 T00490036 51014", "CXBK 230800Z AUTO 05017KT 03/02 RMK AO1 5PAST HR SOG 01 8003 PK WND 06022/0718 SLP066 P0002 T00270017 50006", "CXBO 230800Z AUTO 26003KT 08/04 RMK AO1 T00760044", "CXBR 230800Z AUTO 02017KT RMK AO1 PK WND 02022/0718 50005", "CXBW 230800Z AUTO 35015KT 01/01 RMK AO1 5PAST HR M PK WND 35019/0709 P0002 T00120011 50011", "CXCA 230800Z AUTO 12001KT 06/06 RMK AO1 SLP100 T00600056 57002", "CXCD 230800Z AUTO 31001KT M02/M05 RMK AO1 T10211049", "CXCK 230800Z AUTO 00000KT M01/M02 RMK AO1 SLP113 T10131018 58004", "CXCP 230800Z AUTO 36013KT 00/M00 RMK AO1 4PAST HR M PK WND 00017/0759 P0002 T00001003 50004", "CXCS 230800Z AUTO 02011KT 01/M01 RMK AO1 T00081007", "CXDB 230800Z AUTO 34018KT M02/M02 RMK AO1 PK WND 33022/0751 T10151017", "CXDE 230800Z AUTO 08006KT M04/M08 RMK AO1 SOG 02 0000 SLP188 T10411075", "CXDI 230800Z AUTO 00000KT 08/06 RMK AO1 SLP213 T00790057 51005", "CXDK 230800Z AUTO 00000KT M03/M06 RMK AO1 SLP172 T10341056 58001", "CXDW 230800Z AUTO 03011KT 07/05 RMK AO1 PK WND 02017/0730 SLP060 T00660049 51001", "CXEA 230800Z AUTO 06006KT 06/05 RMK AO1 SLP081 T00630049 56012", "CXEC 230800Z AUTO 05002KT 02/M00 RMK AO1 SLP151 T00241001 51014", "CXEG 230800Z AUTO 03004KT 02/01 RMK AO1 SLP148 T00210009 51011", "CXET 230800Z AUTO 13006KT 11/07 RMK AO1 SLP216 T01080074 51012", "CXFM 230800Z AUTO 35013KT M00/M00 RMK AO1 9PAST HR M PK WND 35019/0717 P0004 T10011003 50015", "CXFR 230800Z AUTO 35002KT M02/M02 RMK AO1 T10171021", "CXGH 230800Z AUTO 03016KT 07/05 RMK AO1 PK WND 04020/0735 SLP090 T00740050 53001", "CXHA 230800Z AUTO 20006KT 14/09 RMK AO1 SLP193 T01360088 51008", "CXHD 230800Z AUTO 03003KT M05/M05 RMK AO1 T10451046", "CXHM 230800Z AUTO 32001KT 11/06 RMK AO1 SLP218 T01060062 51008", "CXHP 230800Z AUTO 31004KT 01/M00 RMK AO1 T00081002", "CXHR 230800Z AUTO 33010KT M00/01 RMK AO1 T10040005 50004", "CXIB 230800Z AUTO 24010G17KT 12/07 RMK AO1 PK WND 23018/0711 SLP252 T01190068 58007", "CXKA 230800Z AUTO 11001KT 05/04 RMK AO1 SLP156 T00460043 50002", "CXKE 230800Z AUTO 18003KT 10/04 RMK AO1 SLP242 T01000037 51013", "CXKI 230800Z AUTO 00014KT 03/03 RMK AO1 SLP175 T00300028 51010", "CXKM 230800Z AUTO 02006KT 01/M00 RMK AO1 T00071001", "CXKT 230800Z AUTO 20002KT 05/03 RMK AO1 SLP278 T00480030 55000", "CXLB 230800Z AUTO 36003KT 10/10 RMK AO1 SLP280 T01010095 55000", "CXLL 230800Z AUTO 00000KT M08/M09 RMK AO1 SOG 03 8001 SLP195 T10781088", "CXMD 230800Z AUTO 02007KT 07/05 RMK AO1 SLP058 T00670053 52006", "CXMG 230800Z AUTO 33006KT M02/M03 RMK AO1 T10181030", "CXMI 230800Z AUTO 33004KT 12/11 RMK AO1 SLP277 T01170113 58002", "CXMM 230800Z AUTO 11004KT 01/M00 RMK AO1 2PAST HR 1016 SLP174 P0001 T00081004 50002", "CXMO 230800Z AUTO 01006KT 01/01 RMK AO1 T00060006", "CXMY 230800Z AUTO 09/09 RMK AO1 T00870087", "CXNM 230800Z AUTO 25015G22KT 10/02 RMK AO1 PK WND 26023/0703 T01020024", "CXNP 230800Z AUTO 18006KT 08/06 RMK AO1 SLP268 T00760055 51003", "CXOL 230800Z AUTO 35005KT 00/00 RMK AO1 4PAST HR M P0002 T00000000 50004", "CXOX 230800Z AUTO 03003KT M02/M03 RMK AO1 SLP168 T10161031 51015", "CXOY 230800Z AUTO 04008KT 02/M02 RMK AO1 T00171017", "CXPA 230800Z AUTO 35004KT M00/M02 RMK AO1 T10041019", "CXPC 230800Z AUTO 12/08 RMK AO1 SLP204 T01220076 50007", "CXPL 230800Z AUTO 02010KT 02/02 RMK AO1 T00180018", "CXRB 230800Z AUTO 04016KT M20/M23 RMK AO1 SOG 04 3008 PK WND 04021/0705 SLP017 T12041234", "CXRH 230800Z AUTO 23011G19KT 11/08 RMK AO1 PK WND 22019/0755 SLP216 T01110078 53002", "CXRL 230800Z AUTO 13001KT M05/M05 RMK AO1 T10471049", "CXSC 230800Z AUTO 02012KT 03/02 RMK AO1 6PAST HR M PK WND 02017/0748 P0002 T00250015 50006", "CXSE 230800Z AUTO 34016G21KT M16/M18 RMK AO1 SOG 05 5001 PK WND 34022/0729 SLP071 T11601184", "CXSH 230800Z AUTO 36002KT 04/03 RMK AO1 SLP251 T00420034 51012", "CXSL 230800Z AUTO 12004KT M00/M01 RMK AO1 T10011007", "CXSP 230800Z AUTO 05004KT M02/M02 RMK AO1 T10171022 50004", "CXTD 230800Z AUTO 20005KT 10/08 RMK AO1 SLP287 T01030082 58005", "CXTH 230800Z AUTO 06004KT M03/M03 RMK AO1 T10281029", "CXTN 230800Z AUTO 23003KT M13/M15 RMK AO1 SOG 21 0000 SLP216 T11341151", "CXTO 230800Z AUTO 11/07 RMK AO1 SLP218 T01060066 51009", "CXTP 230800Z AUTO 23011KT 07/06 RMK AO1 PK WND 23018/0729 SLP233 T00680063 56007", "CXTV 230800Z AUTO 11002KT M13/M15 RMK AO1 SOG 07 2004 SLP202 T11301147", "CXVM 230800Z AUTO 32001KT M00/M00 RMK AO1 T10041003", "CXVN 230800Z AUTO 17007KT 14/05 RMK AO1 SLP212 T01350054 51005", "CXVW 230800Z AUTO 33010KT M01/M01 RMK AO1 SLP165 T10071013 52016", "CXWM 230800Z AUTO 36017KT M00/M00 RMK AO1 PK WND 01021/0752 T10041003 50007", "CXWN 230800Z AUTO 03007KT 08/05 RMK AO1 SLP062 T00810051 58002", "CXYH 230800Z AUTO 21004KT M03/M05 RMK AO1 SLP166 T10311053 58002", "CXZC 230800Z AUTO 04001KT 07/06 RMK AO1 SLP176 T00700058 52011", "CXZV 230800Z AUTO 00000KT M01/M02 RMK AO1 SLP221 T10101017 53014", "CYAH 230800Z AUTO 23006KT 9SM OVC034 01/M00 A3008 RMK SLP205", "CYAM 230800Z 07004KT 20SM SKC 09/09 A2997 RMK SLP154", "CYAT 230800Z AUTO 00000KT 9SM CLR M03/M03 A3008 RMK SLP188", "CYAY 230825Z AUTO 23012G17KT 9SM BKN016 BKN081 BKN091 10/07 A3005 RMK SLP178", "CYBC 230803Z AUTO VRB02KT 6SM BR CLR 02/02 A3020 RMK SLP230", "CYBG 230800Z 09004KT 25SM SKC 05/03 A3021 RMK SLP234", "CYBK 230800Z 32016KT 10SM -SN SCT020 OVC054 M06/M09 A2993 RMK SC3SC5 SLP140", "CYBQ 230800Z AUTO /////KT 9SM FEW018 M07/M07 A3003 RMK WIND MISG SLP192", "CYBR 230800Z 06023G32KT 15SM OVC091 04/00 A2969 RMK AC8 SLP071", "CYBU 230800Z AUTO 03005KT 7SM CLR M01/M04 A2994 RMK ICE SLP157", "CYBW 230800Z AUTO 34005KT 4SM -SN OVC008 M01/M01 A2983 RMK SLP151", "CYBX 230800Z 27009KT 3SM BR BKN005 BKN140 08/08 A3005 RMK ST5AC1 SLP181", "CYCA 230800Z AUTO 19005KT 9SM SCT170 OVC200 08/04 A2990 RMK SLP128", "CYCB 230800Z 31012KT 15SM DRSN OVC020 M17/M19 A2987 RMK SC8 SLP122", "CYCK 230800Z AUTO 20010KT 9SM CLR 14/10 A3011 RMK SLP200", "CYCO 230800Z 26015KT 15SM -SN OVC039 M09/M12 A3010 RMK SC8 SLP199", "CYCY 230800Z AUTO 31012KT 9SM OVC018 M05/M06 A2944 RMK SLP976", "CYDB 230813Z AUTO 27007KT 3SM -SN OVC020 M04/M07 A2974 RMK SLP121", "CYDF 230800Z VRB02KT 15SM SKC 01/01 A3018 RMK SLP224", "CYDL 230800Z AUTO 00000KT 9SM OVC060 M01/M01 A2980 RMK SLP119", "CYDN 230800Z AUTO 04009KT 9SM OVC076 04/M01 A2985 RMK SLP121", "CYDP 230800Z 27007KT 15SM FEW060 SCT230 07/02 A2976 RMK SC2CS2 SLP079", "CYDQ 230800Z AUTO 27004KT 9SM CLR M04/M06 A3000 RMK SLP196", "CYEG 230800Z 03005KT 20SM BKN022 OVC051 02/01 A2989 RMK SC5SC3 SLP152", "CYEK 230800Z AUTO /////KT RMK WIND MISG CLD MISG WX MISG VIS MISG PCPN MISG PRES MISG T MISG DP MISG ICE MISG DENSITY ALT MISG", "CYEN 230800Z AUTO 07017G27KT 9SM OVC012 05/03 A2964 RMK SLP056", "CYER 230800Z AUTO 22005KT 9SM BKN029 BKN250 M04/M04 A3003 RMK SLP173", "CYET 230800Z AUTO 00000KT 3/8SM FZFG VV002 M01/ A2990 RMK DP MISG SLP162", "CYEV 230800Z 08008KT 15SM FEW051 M12/M14 A3009 RMK SC2 SLP199", "CYFB 230800Z 30015KT 15SM OVC022 M00/M02 A2933 RMK SC8 INTMT -SN SLP938", "CYFC 230824Z AUTO 22003KT 3SM BR CLR 03/02 A3033 RMK SLP273", "CYFS 230800Z 11005KT 070V150 15SM BKN005 BKN015 M05/M06 A3008 RMK SC7SC1 SC TR CIG RAG SLP204", "CYGL 230800Z 00000KT 15SM BKN024 00/M00 A3009 RMK SC5 SLP204", "CYGV 230800Z AUTO 33003KT 9SM CLR 00/M00 A3016 RMK SLP216", "CYGW 230800Z AUTO 26007KT 9SM BKN026 OVC032 04/01 A3008 RMK SLP188", "CYGX 230800Z 01009KT 15SM SKC M01/M02 A3004 RMK SLP184", "CYHD 230800Z AUTO 06011G16KT 9SM CLR 07/05 A2971 RMK SLP075", "CYHE 230800Z AUTO 09003KT 9SM BKN034 05/05 A2993 RMK SLP140", "CYHK 230827Z AUTO 28017G22KT 6SM -SN OVC011 M16/M18 A2975 RMK SLP082", "CYHM 230800Z 14007KT 15SM SKC 11/07 A3017 RMK SLP219", "CYHU 230800Z AUTO 00000KT 9SM CLR 08/04 A3026 RMK SLP250", "CYHY 230800Z 25005KT 5SM -SN BKN033 OVC042 M03/M04 A3010 RMK SC7SC1 SLP207", "CYHZ 230800Z 21006KT 8SM SCT260 08/08 A3034 RMK CI4 SLP280", "CYIN 230800Z AUTO 28004KT 9SM CLR M03/M05 A2987 RMK SLP145", "CYIO 230800Z AUTO 16005KT 9SM -SN FEW050 SCT071 BKN092 BKN110 M10/M11 A2944 RMK SLP979", "CYIV 230800Z AUTO 04004KT 9SM CLR 02/M00 A2998 RMK SLP166", "CYJT 230800Z 19009KT 15SM SKC 11/08 A3024 RMK SLP243", "CYKA 230800Z 29007KT 40SM FEW070 05/M02 A2989 RMK AC2 SLP132", "CYKF 230800Z AUTO 11004KT 100V220 9SM CLR 06/05 A3016 RMK SLP216", "CYKJ 230800Z AUTO 10005KT 9SM OVC027 M02/M04 A3001 RMK SLP194", "CYKL 230818Z AUTO 29011G16KT 9SM FEW014 SCT020 02/00 A2996 RMK SLP173", "CYKY 230800Z 04012KT 15SM FEW040 OVC100 02/M02 A2976 RMK SC2AC6 SLP099", "CYLH 230800Z AUTO 07004KT 9SM -RA BKN060 OVC091 03/03 A2997 RMK SLP164", "CYLL 230800Z AUTO 06004KT 1/4SM +SN VV002 M01/M01 A2989 RMK ICE SLP152", "CYLW 230800Z AUTO 04002KT 9SM 00/M00 A2984 RMK CLD MISG SLP119", "CYMA 230800Z 01003KT 10SM -SN OVC067 M02/M04 A2982 RMK AC8 SLP131", "CYMH 230800Z AUTO 24006KT 9SM OVC140 08/05 A2997 RMK SLP152", "CYMM 230800Z AUTO 10003KT 9SM OVC008 01/M00 A2998 RMK SLP174", "CYMO 230800Z AUTO 05003KT 9SM OVC140 08/06 A3004 RMK SLP175", "CYMT 230800Z AUTO 14003KT 9SM BKN110 BKN200 06/05 A3011 RMK SLP209", "CYMX 230800Z 34002KT 25SM SKC 05/04 A3026 RMK SLP251", "CYNA 230800Z AUTO 29004KT 9SM CLR 05/04 A3014 RMK ICE MISG SLP209", "CYNE 230800Z AUTO 01003KT 9SM CLR M04/M04 A3001 RMK SLP178", "CYNM 230800Z AUTO 14004KT 9SM CLR 02/02 A3005 RMK SLP188", "CYOD 230800Z 00000KT 15SM FEW070 M01/M01 A2994 RMK AC1 DENSITY ALT 160FT SLP164", "CYOJ 230808Z AUTO 34005KT 5SM -SN OVC015 M03/M03 A3005 RMK SLP203", "CYOO 230800Z AUTO 03003KT 9SM CLR 06/04 A3018 RMK SLP223", "CYOW 230800Z 14003KT 15SM SKC 08/03 A3024 RMK SLP243", "CYPA 230800Z 07009KT 15SM OVC180 00/M04 A2993 RMK AC8 SLP156", "CYPD 230800Z AUTO 20004KT 9SM CLR 11/10 A3034 RMK SLP278", "CYPE 230800Z 02003KT 330V040 15SM BKN014 OVC055 M01/M03 A2998 RMK SC7SC1 SLP181", "CYPH 230819Z AUTO 27018G24KT 9SM -RA SCT019 OVC027 02/M00 A2989 RMK SLP126", "CYPL 230808Z AUTO 07007KT 9SM FEW071 SCT100 BKN120 03/02 A2989 RMK SLP140", "CYPO 230800Z AUTO 23003KT 9SM CLR M02/M03 A3006 RMK SLP183", "CYPQ 230800Z AUTO 00000KT 9SM CLR 02/02 A3020 RMK SLP231", "CYPR 230800Z AUTO 08005KT 9SM BKN180 03/03 A2992 RMK SLP137", "CYPX 230803Z AUTO 26017G22KT 9SM FEW016 SCT028 BKN034 BKN044 01/M01 A2974 RMK SLP074", "CYPY 230819Z AUTO 02004KT 9SM -SN OVC055 M03/M06 A3006 RMK SLP197", "CYQA 230800Z AUTO 15006KT 9SM CLR 08/06 A3016 RMK SLP218", "CYQB 230800Z 00000KT 15SM SKC 03/02 A3028 RMK SLP256", "CYQD 230800Z AUTO 00000KT 9SM BKN190 BKN210 BKN230 M04/M06 A2998 RMK SLP169", "CYQF 230826Z AUTO 36004KT 8SM BKN012 BKN039 OVC050 01/00 A2988 RMK SLP157", "CYQG 230800Z AUTO 19005KT 9SM CLR 13/09 A3010 RMK SLP194", "CYQH 230800Z 12011G17KT 10SM -SN OVC070 M01/M04 A2985 RMK AC8 SLP143", "CYQI 230800Z 04003KT 010V130 1/8SM FG SKC 07/07 A3036 RMK FG6 SLP283", "CYQK 230800Z 06012KT 20SM OVC150 08/05 A2967 RMK AC8 SLP059", "CYQL 230823Z AUTO 35013KT 3SM -SN OVC003 00/00 A2975 RMK ICE INTMT SLP108", "CYQM 230800Z 22009KT 15SM FEW220 07/05 A3031 RMK CI1 SLP266", "CYQQ 230800Z 32009KT 20SM FEW030 08/M00 A2993 RMK SC1 SLP137", "CYQR 230800Z 07015G23KT 15SM -RA SCT014 OVC049 03/01 A2971 RMK SC3SC5 SLP079", "CYQT 230800Z 08010KT 15SM SKC 08/07 A2977 RMK SLP088", "CYQU 230800Z 30010KT 25SM OVC020 M00/M04 A2998 RMK ST8 SLP183", "CYQV 230800Z AUTO 05008KT 9SM OVC046 04/M02 A2982 RMK SLP117", "CYQW 230800Z AUTO 05004KT 9SM BKN043 OVC071 02/M02 A2989 RMK SLP143", "CYQX 230800Z 22014G20KT 20SM FEW220 08/06 A3020 RMK CC1 SLP233", "CYQY 230820Z 23005KT 7SM FEW002 BKN240 10/10 A3034 RMK ST2CI3 CIG ESTD SLP278", "CYQZ 230800Z AUTO VRB02KT 3/8SM FZFG VV003 M00/M00 A2993 RMK SLP163", "CYRB 230800Z 03018KT 15SM FEW100 M21/M24 A2955 RMK AS1 SLP020", "CYRJ 230800Z 22012G18KT 25SM SKC 12/05 A3017 RMK SLP220", "CYRQ 230800Z AUTO 01002KT 9SM CLR 02/02 A3026 RMK SLP250", "CYRT 230800Z 34019KT 15SM FEW011 BKN110 M07/M09 A2989 RMK SC1AC6 SLP128", "CYRV 230800Z AUTO 03002KT 9SM OVC071 05/02 A2982 RMK SLP111", "CYSB 230800Z 19011KT 15SM SKC 12/09 A3008 RMK SLP191", "CYSC 230800Z AUTO 08003KT 020V090 9SM CLR 04/02 A3030 RMK SLP267", "CYSF 230800Z AUTO 14002KT 9SM SCT150 M11/M12 A3008 RMK SLP209", "CYSJ 230800Z 00000KT 3/4SM R05/0900V1600FT/D BR MIFG BKN003 04/04 A3034 RMK FG4SF3 SLP278", "CYSM 230800Z 00000KT 15SM BKN033 M03/M07 A3008 RMK SC7 SLP203", "CYTE 230805Z AUTO 28012KT 9SM BKN011 M01/M03 A2946 RMK SLP982", "CYTH 230800Z 35005KT 15SM BKN054 M00/M02 A3003 RMK SC7 PRESRR SLP185", "CYTL 230800Z AUTO VRB02KT 9SM CLR M03/M03 A3001 RMK SLP177", "CYTR 230800Z 04004KT 15SM SKC 03/03 A3021 RMK DENSITY ALT -1334FT SLP232", "CYTS 230800Z 16003KT 15SM FEW240 07/06 A3000 RMK CI2 SLP169", "CYTZ 230800Z AUTO 05010KT 9SM CLR 09/06 A3017 RMK SLP218", "CYUA 230800Z AUTO 10009KT ////SM BKN007 OVC039 M08/M09 A3003", "CYUL 230800Z 12002KT 15SM SKC 07/04 A3026 RMK SLP249", "CYUS 230800Z AUTO 27010G20KT 240V310 ////SM //// BKN017 OVC022 M11/M13 A2968", "CYUX 230800Z AUTO 31014KT 9SM BKN110 M06/M06 A2945 RMK SLP976", "CYUY 230800Z 18004KT 15SM FEW240 10/07 A3005 RMK CI2 SLP185", "CYVC 230800Z 03005KT 15SM SKC M02/M03 A2999 RMK SLP177", "CYVL 230800Z AUTO VRB02KT 8SM -SN OVC031 M08/M09 A3004 RMK SLP200", "CYVM 230817Z AUTO 20005KT 3SM -SN OVC029 M01/M01 A2923 RMK SLP899", "CYVO 230800Z AUTO 18006KT 9SM CLR 09/07 A3009 RMK SLP201", "CYVP 230800Z 27012G20KT 15SM FEW017 SCT032 BKN049 BKN120 02/M02 A2979 RMK CU2SC2SC1AC2 INTMT -RA SLP093", "CYVQ 230800Z 08003KT 15SM -SN FEW015 BKN035 OVC075 M05/M07 A3005 RMK SC1SC4AC3 SLP184", "CYVR 230800Z 08004KT 12SM MIFG FEW040 06/06 A2992 RMK SC1 SLP134", "CYVT 230800Z AUTO 10005KT 9SM SCT055 OVC082 01/M01 A2998 RMK SLP177", "CYVV 230800Z 18010KT 15SM SKC 15/09 A3009 RMK SLP190", "CYWE 230800Z AUTO 31005KT 9SM OVC025 M07/M11 A3004 RMK ICE MISG SLP207", "CYWG 230800Z 04015KT 15SM OVC150 08/06 A2969 RMK AC8 SLP065", "CYWK 230800Z AUTO 26003KT 220V290 9SM FEW018 SCT038 BKN055 05/03 A3005 RMK SLP199", "CYWL 230800Z 28003KT 220V320 1/2SM FZFG VV003 M01/M01 A2988 RMK FG8 SLP155", "CYXC 230800Z 33003KT 20SM FEW015 SCT040 OVC070 02/M00 A2977 RMK ST2SC2AC4 SLP106", "CYXE 230800Z 03010KT 15SM OVC110 02/M03 A2983 RMK AC8 SLP121", "CYXH 230800Z AUTO 36012KT 8SM -RA BKN009 OVC015 03/03 A2971 RMK PCPN 0.5MM PAST HR SLP080", "CYXJ 230800Z 33004KT 15SM FEW095 M04/M06 A2999 RMK AC1 SLP195", "CYXL 230800Z 06006KT 030V110 15SM OVC180 07/05 A2976 RMK AC8 SLP092", "CYXR 230800Z AUTO 20009KT 9SM CLR 11/09 A3005 RMK SLP181", "CYXS 230826Z AUTO 00000KT 5/8SM BR BKN001 OVC004 M01/M01 A2991 RMK SLP166", "CYXT 230822Z 03002KT 15SM FEW004 SCT020 01/00 A2996 RMK SF1SC3 SLP155", "CYXU 230800Z 11006KT 15SM SKC 09/07 A3014 RMK SLP211", "CYXX 230800Z 00000KT 10SM R07/3000VP6000FT/U SCT110 03/02 A2992 RMK AC3 SLP136", "CYXY 230800Z 00000KT 15SM FEW025 OVC060 01/M00 A2973 RMK ST1SC7 SLP106", "CYYB 230800Z AUTO 14007KT 9SM CLR 10/07 A3012 RMK SLP206", "CYYC 230800Z 01010KT 2 1/2SM -SN BR BKN005 OVC020 M00/M01 A2983 RMK CF5SC3 SLP147", "CYYD 230826Z AUTO 19002KT 7SM CLR M04/M05 A2994 RMK SLP166", "CYYE 230800Z 11005KT 15SM BKN026 OVC034 M02/M05 A3003 RMK SC7SC1 SLP194", "CYYF 230800Z 01007KT 15SM SCT070 04/M02 A2984 RMK AC4 SLP113", "CYYG 230800Z 22009KT 15SM SKC 11/08 A3030 RMK SLP264", "CYYH 230811Z 31008G15KT 12SM -SN FEW013 BKN018 M15/M18 A2967 RMK SC2SC5 SLP054", "CYYJ 230800Z 27005KT 30SM SCT036 06/06 A2992 RMK SC3 SLP135", "CYYL 230800Z AUTO 03004KT 9SM CLR M04/M04 A3004 RMK SLP198", "CYYN 230821Z AUTO 06016G21KT 9SM -RA BKN007 OVC012 03/02 A2967 RMK SLP074", "CYYQ 230800Z 30011KT 15SM BKN070 M02/M05 A3000 RMK AC7 SLP165", "CYYR 230800Z 24012KT 15SM FEW070 FEW150 09/04 A2995 RMK AC1AC1 SLP145", "CYYT 230800Z 28016KT 15SM SKC 09/08 A3028 RMK SLP259", "CYYU 230800Z 12004KT 15SM FEW240 SCT260 05/05 A2996 RMK CI2CI2 SLP155", "CYYW 230800Z AUTO 00000KT 9SM OVC230 04/ A2984 RMK DP MISG SLP112", "CYYY 230800Z 20008KT 30SM SKC 13/04 A3021 RMK SLP233", "CYYZ 230800Z 00000KT 15SM SKC 10/08 A3017 RMK SLP219", "CYZE 230800Z AUTO 17010KT 9SM CLR 13/09 A3002 RMK SLP171", "CYZF 230800Z 36003KT 15SM SKC M08/M09 A3010 RMK SLP212", "CYZH 230825Z AUTO 13003KT 9SM BKN017 OVC044 02/01 A2993 RMK SLP163", "CYZP 230800Z AUTO VRB02KT 9SM OVC130 07/03 A2992 RMK SLP135", "CYZR 230800Z AUTO 17005KT 9SM CLR 12/09 A3010 RMK SLP194", "CYZS 230800Z 33017G22KT 15SM SCT018 OVC035 M01/M02 A2955 RMK SC3SC5 SLP014", "CYZT 230800Z 23006KT 15SM FEW035 03/03 A2996 RMK SC1 SLP148", "CYZV 230800Z 01003KT 15SM FEW160 M01/M01 A3019 RMK AC1 AC TR SLP226", "CYZX 230800Z 26002KT 10SM SCT250 03/02 A3036 RMK CI3 SLP283", "CYZY 230800Z AUTO 00000KT 9SM OVC096 M03/M06 A2993 RMK SLP168", "CZBF 230800Z AUTO 24003KT 9SM CLR 03/03 A3027 RMK SLP256", "CZCP 230800Z AUTO VRB04KT ////SM //// OVC022 M07/M10 A3013", "CZCR 230800Z AUTO 05001KT 08/04 RMK AO1 SLP249 T00780044 53019", "CZDB 230800Z AUTO 05002KT 04/ RMK AO1 SLP284 T0040 53001", "CZEL 230800Z AUTO 11003KT 08/06 RMK AO1 SLP215 T00830063 50003", "CZEV 230800Z AUTO 08008KT M12/M14 RMK AO1 SOG 07 2005 SLP200 T11151139", "CZFS 230800Z AUTO 10004KT M05/M06 RMK AO1 SOG 01 0000 SLP202 T10541063", "CZHY 230800Z AUTO 26005KT M03/M04 RMK AO1 SLP203 T10271042 51009", "CZKD 230800Z AUTO 30001KT M02/M03 RMK AO1 SLP187 T10201026 53027", "CZMD 230800Z AUTO 05004KT 9SM FEW250 M01/M01 A2997 RMK SLP168", "CZMJ 230800Z AUTO 06012KT 04/02 RMK AO1 3PAST HR 0002 PK WND 07019/0705 SLP085 P0001 T00370020 50003", "CZOL 230800Z AUTO 01001KT 01/01 RMK AO1 T00100009", "CZPC 230800Z AUTO 34006KT 1 3/4SM -SN SCT004 BKN009 OVC012 M01/M01 A2977 RMK SLP124", "CZRP 230800Z AUTO 33020KT M19/M21 RMK AO1 SOG 53 3004 PK WND 33025/0732 SLP068 T11891206", "CZSJ 230800Z AUTO 04003KT 360V070 9SM SCT180 SCT200 M01/M01 A2995 RMK SLP159", "CZSM 230800Z AUTO 28001KT M03/M09 RMK AO1 SLP200 T10321086 51011", "CZSP 230800Z AUTO 21009KT 10/07 RMK AO1 SLP264 T00990073 54000", "CZTB 230800Z AUTO 09011KT 09/07 RMK AO1 SLP089 T00900071 55001", "CZUM 230800Z AUTO 26006G15KT 240V310 9SM SCT029 SCT060 BKN079 06/02 A2999 RMK SLP174", "CZVL 230800Z AUTO 33003KT 5SM BR SCT071 M00/ A2990 RMK DP MISG SLP155", "CZZJ 230800Z AUTO 00000KT M01/M01 RMK AO1 SLP162 T10071009 51015", "DAAG 230800Z 15007KT CAVOK 29/07 Q1020", "DAAP 230800Z 11006KT CAVOK 23/08 Q1026", "DAAT 230800Z 08016KT CAVOK 20/01 Q1027", "DAAY 230800Z 23010KT CAVOK 17/01 Q1028", "DABB 230800Z 24003KT 9999 FEW033 25/09 Q1020", "DABC 230800Z 13003KT CAVOK 18/05 Q1026", "DAON 230800Z 22008KT 9999 FEW030 26/02 Q1019", "DAOO 230800Z 20009KT CAVOK 27/05 Q1018", "DAOR 230800Z 01004KT CAVOK 18/M00 Q1026", "DAUE 230800Z 34004KT CAVOK 19/05 Q1026", "DAUH 230800Z 09004KT CAVOK 21/04 Q1024", "DAUK 230800Z 00000KT CAVOK 24/06 Q1025", "DAUO 230800Z VRB02KT CAVOK 22/07 Q1025", "DAUT 230800Z 08012KT CAVOK 21/02 Q1022", "DBBB 230800Z 23006KT 9999 SCT012 29/25 Q1014 NOSIG", "DFFD 230800Z VRB01KT 4000 HZ NSC 29/19 Q1015 BECMG 6000 NSW", "DFOO 230800Z VRB02KT CAVOK 27/21 Q1016", "DGAA 230800Z 27006KT 9999 BKN027 OVC033 26/24 Q1014 NOSIG", "DIAP 230800Z 36003KT 300V040 9999 SCT013 25/25 Q1014 NOSIG", "DIBK 230800Z 20006KT 6000 FEW005 OVC010 23/23 Q1015 NOSIG", "DIYO 230800Z 28004KT 8000 BKN011 24/23 Q1015 NOSIG", "DNAA 230800Z 07002KT CAVOK 28/22 Q1015 NOSIG", "DNGO 230800Z 06016KT CAVOK 29/10 Q1016", "DNIL 230800Z 24003KT CAVOK 27/23 Q1015", "DNJO 230800Z 11015KT CAVOK 23/08 Q1022", "DNKA 230800Z 05014KT CAVOK 21/18 Q1018 NOSIG", "DNMM 230800Z 28003KT 8000 FEW012 28/24 Q1015 NOSIG", "DNMN 230800Z 50007KT CAVOK 27/17 Q1014", "DNSO 230800Z 09013KT 9999 NSC 27/12 Q1016", "DRRM 230800Z 07014KT CAVOK 28/07 Q1016", "DRRN 230800Z 06012KT CAVOK 30/03 Q1015 NOSIG", "DRRT 230800Z 10010KT CAVOK 28/02 Q1017", "DRZA 230800Z 08019KT CAVOK 29/09 Q1018", "DRZR 230800Z 35011KT CAVOK 29/03 Q1017", "DTKA 230800Z 08009KT CAVOK 23/08 Q1021 NOSIG", "DTMB 230800Z 20008KT 8000 NSC 24/18 Q1023", "DTNH 230800Z 20005KT CAVOK 21/16 Q1023 NOSIG", "DTTA 230800Z 17003KT 130V200 CAVOK 24/14 Q1022", "DTTB 230800Z 14006KT CAVOK 23/13 Q1022", "DTTD 230800Z 00000KT CAVOK 23/06 Q1027", "DTTF 230800Z 19006KT CAVOK 23/08 Q1026 NOSIG", "DTTG 230800Z VRB04KT CAVOK 20/07 Q1025 NOSIG", "DTTJ 230800Z 18007KT CAVOK 25/12 Q1025 NOSIG", "DTTK 230800Z 00000KT CAVOK 23/12 Q1023", "DTTL 230800Z 16006KT 9999 SCT020 25/20 Q1023", "DTTN 230800Z 00000KT CAVOK 20/05 Q1023", "DTTR 230800Z 13005KT CAVOK 20/05 Q1027", "DTTZ 230800Z 12007KT CAVOK 22/09 Q1024", "DXNG 230800Z VRB01KT CAVOK 28/17 Q1017", "DXXX 230800Z 26007KT 230V290 9999 FEW013 28/24 Q1014 NOSIG", "EBAW 230820Z AUTO 12006KT CAVOK ///// Q1009", "EBBE 230755Z AUTO 13005KT 9999 BKN130/// OVC150/// 15/12 Q1009 BLU", "EBBL 230755Z AUTO 10003KT 9999 BKN160/// 13/12 Q1010 BLU", "EBBR 230820Z 14006KT CAVOK 15/12 Q1008 NOSIG", "EBCI 230820Z 16008KT 130V190 CAVOK 15/12 Q1009 NOSIG", "EBCV 230755Z AUTO 15006KT 9999 SCT086/// OVC120/// 16/13 Q1008 BLU", "EBDT 230755Z AUTO 13005KT 9999 BKN150/// 14/12 Q1009 BLU", "EBFN 230755Z AUTO 15011KT 9999 -RA OVC069/// 16/14 Q1006 BLU", "EBFS 230755Z AUTO 15010KT 9999 SCT110/// BKN130/// BKN150/// 14/12 Q1009 BLU", "EBLB 230755Z AUTO 18006KT 9999 BKN210/// 14/10 Q1012 BLU", "EBLG 230820Z 14010KT 110V170 CAVOK 16/11 Q1010 NOSIG", "EBOS 230820Z 15011KT 9999 -SHRA FEW025 15/13 Q1006 TEMPO 4000 SHRA", "EDAC 230820Z 20006KT CAVOK 14/11 Q1017", "EDAH 230820Z 21005KT 6000 BKN002 12/12 Q1016", "EDBC 230820Z AUTO 18008KT 9999 // BKN170/// 14/12 Q1015", "EDDB 230820Z AUTO 17003KT 120V200 CAVOK 13/12 Q1017 NOSIG", "EDDC 230820Z AUTO 15005KT 120V180 CAVOK 13/11 Q1018 NOSIG", "EDDE 230820Z AUTO 18007KT CAVOK 14/11 Q1016 NOSIG", "EDDF 230820Z AUTO 02005KT 360V060 CAVOK 13/11 Q1014 NOSIG", "EDDG 230820Z AUTO 13003KT 040V180 CAVOK 12/11 Q1012 NOSIG", "EDDH 230820Z AUTO 14004KT CAVOK 12/11 Q1014 NOSIG", "EDDK 230820Z AUTO 12007KT 070V160 CAVOK 15/11 Q1012 NOSIG", "EDDL 230820Z AUTO 15011KT CAVOK 17/12 Q1011 NOSIG", "EDDM 230820Z AUTO 09006KT CAVOK 11/09 Q1018 NOSIG", "EDDN 230820Z AUTO 11005KT CAVOK 13/11 Q1017 NOSIG", "EDDP 230820Z AUTO 15009KT CAVOK 12/11 Q1016 NOSIG", "EDDR 230820Z AUTO VRB02KT CAVOK 16/13 Q1013 NOSIG", "EDDS 230820Z AUTO VRB02KT CAVOK 12/10 Q1015 NOSIG", "EDDV 230820Z AUTO 12004KT 080V160 CAVOK 13/11 Q1014 NOSIG", "EDDW 230820Z AUTO 13004KT 090V160 CAVOK 11/10 Q1013 NOSIG", "EDFH 230820Z 14010KT CAVOK 12/11 Q1013", "EDFM 230820Z VRB01KT CAVOK 13/12 Q1015", "EDGS 230750Z 14007KT 9999 3000E BCFG NSC 11/10 Q1014", "EDHI 230820Z AUTO 10006KT 070V140 9999 // FEW200/// BKN230/// 12/12 Q1014", "EDHK 230820Z 18004KT R26/0600N VV/// 09/09 Q1014", "EDHL 230820Z VRB02KT 9999 FEW003 11/11 Q1015", "EDJA 230820Z VRB01KT CAVOK 11/08 Q1017", "EDLN 230820Z 13006KT 100V170 CAVOK 15/12 Q1011", "EDLP 230820Z 11003KT 070V160 CAVOK 16/11 Q1013", "EDLV 230820Z 13009KT CAVOK 15/12 Q1010", "EDLW 230820Z 14006KT 120V180 CAVOK 14/11 Q1012", "EDMA 230820Z 15004KT 120V180 CAVOK 12/10 Q1018", "EDMO 230820Z AUTO VRB01KT 9999 // NCD 13/10 Q1018", "EDNY 230820Z 04003KT 9999 4200 NSC 13/10 Q1017", "EDQM 230820Z 16005KT 110V190 9999 FEW005 11/11 Q1018", "EDSB 230820Z 00000KT CAVOK 13/12 Q1015", "EDTL 230820Z VRB03KT CAVOK 15/12 Q1014", "EDTY 230820Z VRB01KT CAVOK 12/10 Q1016", "EDVE 230820Z 10004KT CAVOK 11/10 Q1014", "EDVK 230820Z 15007KT 9999 FEW003 12/12 Q1014", "EDXW 230820Z 19008KT 7000 SCT002 13/12 Q1013", "EEEI 230750Z 25004KT 9999 SCT032 BKN040 08/08 Q1008 NOSIG", "EEKE 230820Z 30004KT 250V330 9999 FEW007 BKN017 OVC026 09/09 Q1009", "EEPU 230820Z AUTO 26004KT 230V290 8000 -RA FEW004/// BKN037/// OVC042/// 09/09 Q1008", "EETN 230820Z 28006KT 9999 OVC025 08/07 Q1007 NOSIG", "EETU 230820Z AUTO 24006KT 4400 BR OVC004/// 06/05 Q1008", "EFET 230820Z AUTO 28017KT CAVOK 00/M05 Q0993", "EFHA 230820Z AUTO 29006KT 9999 BKN010 05/03 Q1005", "EFHK 230820Z 31010KT 9999 BKN022 07/02 Q1007 NOSIG", "EFIV 230820Z AUTO 30020G32KT 9999 FEW026 03/M02 Q0987", "EFJO 230820Z AUTO 29010KT 9999 BKN019 05/01 Q1002", "EFJY 230820Z AUTO 30006KT 260V330 9999 FEW012 05/02 Q1005", "EFKE 230820Z AUTO 31014G24KT 270V340 CAVOK 04/M04 Q1000", "EFKI 230820Z AUTO 28015KT CAVOK 04/M01 Q1001", "EFKK 230820Z AUTO 29004KT 250V320 CAVOK 04/M01 Q1005", "EFKS 230820Z AUTO 29015KT CAVOK 01/M05 Q0994", "EFKT 230820Z AUTO 29015KT 260V320 CAVOK 02/M06 Q0994", "EFKU 230820Z AUTO 29009KT 260V320 9999 FEW014 04/01 Q1003", "EFLP 230820Z AUTO 28006KT 240V300 9999 BKN007 OVC029 06/05 Q1004", "EFMA 230820Z AUTO 32004KT 290V350 9999 BKN020 08/04 Q1010", "EFMI 230820Z AUTO 28008KT 260V320 9999 BKN015 06/02 Q1004", "EFOU 230820Z AUTO 31012KT CAVOK 05/M01 Q1002", "EFPO 230820Z AUTO 33006KT 300V360 9999 FEW021 BKN034 08/03 Q1008", "EFRO 230820Z AUTO 28012G24KT 240V320 CAVOK 02/M06 Q0997", "EFSA 230820Z AUTO 28008KT 9999 OVC017 06/03 Q1003", "EFSI 230820Z AUTO 29006KT CAVOK 03/00 Q1006", "EFTP 230820Z AUTO 30006KT 270V330 9999 BKN018 06/03 Q1006", "EFTU 230820Z AUTO 27006KT 9999 FEW021 08/05 Q1008", "EFUT 230820Z AUTO 27005KT 250V310 9999 OVC025 07/04 Q1005", "EFVA 230820Z AUTO 28004KT 250V320 CAVOK 04/M01 Q1007", "EGAA 230820Z AUTO 11007KT 080V140 9999 FEW005 BKN029 13/12 Q0999", "EGAC 230820Z AUTO 13005KT 100V170 9000 -RA BKN034/// //////TCU 14/13 Q1000 RERA", "EGAE 230820Z 12007KT 090V150 9999 9000E -SHRA FEW007 SCT025 13/13 Q0999", "EGBB 230820Z 12010KT 100V170 5000 RA SCT005 BKN020 14/13 Q1002", "EGBJ 230820Z 04004KT 9999 VCSH FEW004 SCT024CB 14/14 Q1000", "EGCC 230820Z VRB04KT 9999 FEW014 BKN032TCU 14/13 Q1002 TEMPO RA", "EGCK 230750Z AUTO 10013G23KT 9999 -RA FEW003/// SCT039/// 16/12 Q0998", "EGCN 230820Z 06003KT 010V100 5000 -RA BR SCT009 SCT027 BKN033 12/12 Q1004 RERA", "EGDM 230750Z AUTO 11007KT 9999 -RA BKN081/// BKN100/// 14/14 Q1000", "EGDR 230750Z AUTO 17007KT 8000 BR OVC004/// 14/13 Q0998", "EGDY 230750Z AUTO 10005KT 9999 -RA OVC088/// 14/13 Q0999", "EGFF 230820Z 11007KT 9999 BKN005 BKN017 14/14 Q0999", "EGGD 230820Z 09010KT 9999 2000E FEW001 13/13 Q0999", "EGGP 230820Z 10012KT 8000 -SHRA SCT008 OVC041 14/13 Q1000", "EGGW 230820Z 13008KT 8000 -SHRA FEW007 SCT042CB 14/11 Q1003", "EGHH 230820Z 08008KT 9999 FEW012 15/14 Q1000", "EGHI 230820Z 00000KT 7000 -SHRA FEW008 SCT020 BKN046 15/15 Q1001", "EGHQ 230820Z 15009KT 9999 SCT006 14/13 Q0999", "EGJA 230820Z 16010KT CAVOK 15/14 Q1001", "EGJB 230820Z 16010KT 9999 VCSH FEW006 15/14 Q1001", "EGJJ 230820Z 15011KT 9999 FEW015CB 16/15 Q1001", "EGKA 230820Z 20015KT 3500 RA SCT018 BKN035 16/15 Q1002", "EGKB 230820Z 14009KT 9999 VCSH SCT025 15/14 Q1003", "EGKK 230820Z 15006KT 110V180 3700 SHRA SCT014CB BKN029 16/15 Q1002 RESHGS RESHRA", "EGLC 230820Z AUTO 11008KT 9999 //////CB 15/14 Q1003", "EGLF 230820Z 31004KT 270V330 7000 -RA SCT005 SCT018CB BKN030 15/14 Q1002 RERA", "EGLL 230820Z 13008KT 9999 -RA SCT019CB BKN027 15/14 Q1002", "EGMC 230820Z 13004KT 9999 FEW012 SCT047 15/14 Q1004 RETS", "EGMD 230820Z 17016KT 9999 FEW025 17/15 Q1003", "EGNH 230820Z 11010KT 9999 -SHRA SCT019 14/12 Q1001 RESHRA", "EGNJ 230820Z 09007KT 8000 FEW005 13/13 Q1005", "EGNM 230820Z 09007KT 0250 R14/0225N -RADZ FG VV/// 12/11 Q1004", "EGNR 230820Z 16005KT 9000 3000NW VCSH FEW010 OVC035 14/13 Q1001", "EGNS 230820Z 10018KT 9999 BKN005 OVC008 14/13 Q0999 TEMPO RA", "EGNT 230820Z 13003KT 090V200 2000 BR FEW002 BKN004 12/12 Q1004", "EGNV 230820Z 08004KT 7000 BKN010 11/10 Q1004", "EGNX 230820Z 10008KT 3000 RA FEW006 SCT032 BKN042 13/12 Q1003", "EGOM 230750Z AUTO 07007KT 6000 BR SCT001/// BKN060/// BKN079/// 10/09 Q1003", "EGOP 230750Z AUTO 13012KT 9999 OVC019/// 15/13 Q0998", "EGOS 230750Z AUTO 10011KT 6000 RA FEW003/// BKN075/// 13/13 Q1000", "EGOV 230750Z AUTO 09011KT 9000 -RA OVC075/// 15/12 Q0998", "EGPA 230820Z 12005KT 1200 VCFG OVC002 11/11 Q1005", "EGPB 230820Z AUTO 08014KT 9000 OVC004/// 10/10 Q1007", "EGPC 230820Z AUTO 10006KT 0350 FG VV/// 11/11 Q1004", "EGPD 230820Z 34002KT 9999 VCFG NSC 09/09 Q1004", "EGPE 230820Z 00000KT 0300 R05/0800U FG VV/// 09/08 Q1004", "EGPF 230820Z AUTO 06007KT 9999 NCD 12/11 Q1002", "EGPH 230820Z 06004KT 9999 -RA NSC 12/11 Q1003", "EGPI 230750Z AUTO 12009KT 080V150 9999 FEW009/// 13/13 Q1000", "EGPK 230820Z 07008KT 9999 SCT028 12/11 Q1002", "EGPL 230820Z AUTO 14009KT 9999 BKN004/// OVC014/// 13/12 Q1000", "EGPN 230820Z 07005KT 9000 VCFG FEW003 BKN038 12/11 Q1004", "EGPO 230820Z AUTO 06003KT 9999 BKN032/// OVC041/// 12/11 Q1002", "EGPU 230750Z AUTO 16009KT 9999 BKN016/// BKN020/// 13/11 Q1000", "EGQK 230750Z AUTO 11004KT 9999 REFG NCD 07/07 Q1003", "EGQL 230811Z 06002KT 9999 3000W -SHRA SCT025 BKN050 10/10 Q1004 RMK YLO1", "EGQM 230750Z AUTO 18005KT 0600 FG VV/// 11/11 Q1005", "EGQS 230750Z 13006KT 9999 FEW025 09/08 Q1003 RMK BLU", "EGSH 230820Z 11009KT 8000 FEW007 15/15 Q1005 TEMPO RA BKN014", "EGSS 230820Z AUTO 11011KT 090V160 9000 -RA FEW041/// //////CB 15/14 Q1003 RETSRA", "EGSY 230820Z 10006KT 9999 BKN005 BKN018 15/14 Q0999", "EGTC 230750Z 08006KT 9999 -RA FEW014 SCT021 BKN027 13/13 Q1003", "EGTE 230820Z 18007KT 9999 VCSH FEW008 15/14 Q0999", "EGTK 230820Z VRB02KT 7000 -RA SCT005 BKN012 14/14 Q1002", "EGUB 230750Z AUTO 16009KT 4900 +RA OVC009/// 15/14 Q1002", "EGUL 230819Z AUTO 10008KT 9999 BKN035 15/15 A2963 RMK AO2 RAE19 SLP037 $", "EGUN 230755Z 12012KT 6000 -RA BKN040 BKN080 15/15 A2964 RMK AO2A VIS 4400V6000 RAB29 SLP040 P0003 T01480148 $", "EGUW 230750Z AUTO 12010KT 9999 BKN060/// BKN130/// 15/14 Q1004", "EGVN 230820Z 08005KT 9999 RA FEW006 BKN070 14/14 Q1001 TEMPO 7000 SHRA SCT010 RMK BLU TEMPO GRN", "EGVO 230750Z AUTO 09003KT 9999 -RA OVC002/// 15/14 Q1002", "EGVP 230750Z AUTO 09005KT 9999 RA FEW065/// BKN079/// 15/14 Q1001", "EGWC 230750Z 10007KT 3000 +RA BKN010 14/13 Q1002 RMK YLO1", "EGWU 230820Z 12006KT 9999 -RA FEW013 BKN022 BKN080 15/14 Q1002 TEMPO SCT013 RMK WHT TEMPO GRN", "EGXC 230750Z 11006KT 7000 -RA SCT050 OVC080 14/13 Q1004 RMK WHT", "EGXE 230750Z AUTO 00000KT 3300 BR OVC006/// 13/12 Q1004", "EGXP 230750Z AUTO 12004KT 9999 // FEW030/// BKN060/// 13/13 Q1004", "EGXS 230750Z AUTO 11011KT 9000 BR OVC100/// 14/13 Q1004", "EGXT 230750Z AUTO 08011KT 6000 RA FEW048/// BKN065/// 13/13 Q1003", "EGXV 230750Z AUTO 13003KT 5000 -RA FEW026/// OVC078/// 12/12 Q1005", "EGXW 230750Z AUTO 13008KT 7000 -RA OVC060/// 13/13 Q1004", "EGXZ 230750Z AUTO 12011KT 4900 -RA OVC003/// 13/12 Q1005", "EGYD 230750Z AUTO 17007KT 5000 FEW034/// 13/13 Q1004", "EGYE 230750Z AUTO 14010KT //// VV/// ///// Q////", "EGYH 230750Z AUTO 12007KT 9000 -RA OVC088/// 14/13 Q1004", "EGYM 230750Z AUTO 11011KT 9000 -RA OVC087/// 15/14 Q1004", "EGYP 230750Z 35014KT CAVOK 07/M03 Q1001", "EHAK 230755Z AUTO 16015KT 1900 BR OVC000/// 14/14 Q1009", "EHAM 230825Z 12009KT 090V150 CAVOK 14/12 Q1009 NOSIG", "EHBK 230825Z AUTO 15005KT 9999 NSC 17/13 Q1010 NOSIG", "EHDL 230825Z AUTO 12008KT 040V200 9999 BKN075 BKN089 OVC150 14/12 Q1010 BLU", "EHDV 230755Z AUTO 15020KT 9999 NSC 15/14 Q1008", "EHEH 230825Z AUTO 13006KT 100V180 9999 OVC140 15/12 Q1009 BLU NOSIG", "EHFD 230755Z AUTO /////KT //// // NSC 15/14 Q1010", "EHFS 230755Z AUTO 11016KT 080V140 9999 NSC 15/13 Q1007", "EHGG 230825Z AUTO 10006KT 070V150 8000 NSC 11/11 Q1011 NOSIG", "EHGR 230825Z AUTO 13007KT 9999 OVC130 14/13 Q1009 BLU", "EHHW 230755Z AUTO 14010KT 110V190 9999 NSC 14/13 Q1011", "EHJA 230755Z AUTO 12020KT 9999 FEW022/// 16/14 Q1008", "EHJR 230755Z AUTO 13017KT //// // ///////// 16/14 Q1008 RE// W16/H8", "EHKD 230825Z AUTO 12007KT 090V150 9999 OVC130 13/12 Q1009 BLU NOSIG", "EHKV 230755Z AUTO 15018KT 9999 NSC 16/14 Q1008", "EHLE 230825Z AUTO 10006KT 9999 SCT046 13/13 Q1010 NOSIG", "EHLW 230825Z AUTO 13008KT 090V150 9999 OVC120 13/11 Q1010 BLU", "EHMA 230755Z AUTO 13018KT 9000 NSC 12/11 Q1011", "EHMG 230755Z AUTO 15017KT 9999 NSC 14/12 Q1011", "EHPG 230755Z AUTO 12018KT 9999 NSC 16/14 Q1007", "EHQE 230755Z AUTO /////KT 9999 SCT036 SCT043 BKN047 15/13 Q1009", "EHRD 230825Z AUTO 11007KT 080V140 9999 NSC 14/13 Q1008 NOSIG", "EHSA 230755Z AUTO 11019KT 9999 ///////// 16/14 Q1007 W17/H8", "EHSC 230755Z AUTO 12016KT 9999 ///////// 15/13 Q1008 W16/H6", "EHVK 230825Z AUTO 11007KT 080V150 9999 BKN080 OVC150 14/12 Q1010 BLU", "EHVL 230825Z AUTO 13014KT 9999 FEW048 OVC120 13/12 Q1009 BLU", "EHWO 230825Z AUTO 12004KT 070V140 9999 FEW064 SCT078 BKN084 14/13 Q1008 BLU", "EICK 230800Z 19002KT 8000 SCT003 BKN005 12/12 Q0995 NOSIG", "EIDW 230800Z 11011KT 8000 -RA FEW006 SCT012 BKN020 14/13 Q0997 TEMPO BKN012", "EIKN 230800Z 10007KT 060V140 1200 R26/1000 -RA VV002 12/11 Q0997 NOSIG", "EIKY 230800Z VRB02KT 9999 FEW041 09/08 Q0995", "EIME 230800Z 09010KT 7000 RA SCT014 BKN018 14/13 Q0997", "EINN 230800Z 09007KT 9999 -RA FEW008 SCT013 BKN060 14/13 Q0995 NOSIG", "EISG 230800Z 08005KT 2000 RA BKN005 OVC018 12/11 Q0997", "EIWF 230800Z 19006KT 170V310 7000 SCT007 BKN011 13/13 Q0996", "EKAH 230820Z AUTO 22002KT 9999 OVC004/// 11/11 Q1013", "EKBI 230820Z AUTO 16003KT 0200 R09/0450N R27/0400N FG VV002 10/10 Q1013", "EKCH 230820Z AUTO 24006KT 9999 SCT004/// 13/11 Q1014 NOSIG", "EKEB 230820Z AUTO 16005KT 0300 R08/0500N R26/0600N FG VV002 12/12 Q1013", "EKKA 230820Z 20005KT 0250 R09/0800N R27/0900D FG BKN002 11/11 Q1012", "EKOD 230750Z 22005KT 9999 FEW005 BKN008 BKN010 12/11 Q1013", "EKRK 230820Z 24006KT 9999 OVC004 11/11 Q1014", "EKRN 230820Z AUTO 26010KT 9999 BKN005/// BKN038/// 13/13 Q1014", "EKSB 230820Z AUTO 21003KT 0800 R14/P1500D R32/1300D FG OVC002/// 12/11 Q1014", "EKSP 230820Z 19005KT 0800 R10/P2000N R28/P2000N FG BKN002 12/11 Q1013", "EKVD 230750Z 20006KT 170V230 0200 FG VV002 12/11 Q1013", "EKVG 230820Z AUTO VRB02KT 9999 FEW024/// 06/03 Q1011 RMK BKN017/// WIND SKEID 10010KT 060V120", "EKYT 230820Z AUTO 23007KT 9999 OVC031/// 11/11 Q1012", "ELLX 230820Z 14006KT 110V170 CAVOK 13/11 Q1012 NOSIG", "ENAL 230820Z 06013KT 9999 BKN012 07/05 Q1010", "ENAN 230820Z 32029KT 9999 VCSH FEW019CB SCT027 BKN039 03/M02 Q1005", "ENAT 230820Z 29020KT 9999 -SHRA FEW010 SCT013 BKN024 03/02 Q0990 RMK WIND 700FT 30022KT", "ENBN 230820Z AUTO 36009KT 9999NDV FEW028/// SCT039/// BKN050/// 05/M01 Q1011", "ENBO 230820Z 32016KT 9999 FEW030 SCT045 05/M04 Q1008 TEMPO SHRAGS SCT020TCU", "ENBR 230820Z VRB02KT 4000 DZ BR BKN004 BKN007 09/09 Q1008 NOSIG RMK WIND 1200FT 13012KT", "ENBS 230820Z AUTO 29009KT 9999 BKN019/// OVC028/// 02/M00 Q0982", "ENBV 230820Z AUTO 31020KT 9999 BKN024 BKN029 05/02 Q0983", "ENCN 230820Z 00000KT 2000 -DZ BR VV006 09/09 Q1011", "ENDR 230820Z AUTO 03011KT 9999NDV SCT026/// 06/01 Q1012 W///S5", "ENDU 230820Z 29019KT 9999 4000NE -SHSN FEW010 BKN020 01/M02 Q1003 TEMPO 28020G30KT 2000 SHSN VV010 RMK WIND 1100FT 29024G35KT WIND 2200FT 30028G38KT", "ENEV 230820Z VRB02KT 9999 VCSH FEW012 SCT022 SCT051 00/M01 Q1006 RMK WIND 1400FT 29013KT", "ENFB 230820Z AUTO 05023KT 9999NDV BKN010/// OVC040/// 09/07 Q1009 W///S4", "ENFL 230820Z AUTO 12005KT 9999NDV BKN110/// 05/03 Q1009", "ENGC 230820Z 06023KT 9999 SCT012 BKN040 10/08 Q1009 W09/S4", "ENGM 230820Z VRB02KT 0450 R19R/0650N R01R/0550N R19L/0600N R01L/0400N FG VV002 01/01 Q1011 NOSIG", "ENHD 230820Z 18009KT 9999 VCSH BKN003 BKN009 12/11 Q1008", "ENHE 230820Z 35003G16KT 9999 FEW010CB BKN025 03/01 Q1013 W///S5", "ENHF 230820Z AUTO VRB03KT 9999 FEW014/// SCT022/// BKN078/// 04/02 Q0990 RMK WIND 1254FT 32028KT", "ENHK 230820Z AUTO 31023KT 9999 -RA FEW013 BKN022 04/01 Q0992", "ENHM 230820Z AUTO 21011KT 0250NDV -SHRA FG NCD 11/11 Q1007 W12/S/", "ENHV 230820Z AUTO 32016KT 9999 SCT028/// 05/01 Q0987", "ENJS 230820Z 20015KT 9999 FEW010 12/11 Q1008 W11/S/", "ENKB 230820Z AUTO 04003KT 9999 OVC078/// 05/03 Q1011 RMK WIND 745FT 07006KT", "ENKR 230820Z 34008KT 9999 FEW009 SCT013 02/00 Q0983 RMK WIND 731FT 33011KT", "ENLA 230820Z AUTO 16015KT 9999NDV NCD 13/12 Q1008 W///S3", "ENLE 230820Z 16016KT CAVOK 13/12 Q1008 W13/S4", "ENMH 230820Z AUTO 34018KT 9999 DZRA FEW009 SCT015 BKN023 04/02 Q0985", "ENML 230820Z AUTO 06008KT 020V080 9999NDV OVC030/// 06/04 Q1011", "ENMS 230820Z AUTO VRB02KT 9999 -RA SCT019/// BKN034/// 00/M00 Q1010 REDZ RMK WIND 412FT VRB01KT", "ENNA 230820Z AUTO 30028KT 9999 OVC064/// 04/00 Q0988 RERA RMK WIND 1800FT 30034KT", "ENNE 230820Z 34012KT 9999 VCSH FEW030 BKN040 05/M02 Q1012 W///S5", "ENNM 230820Z AUTO 25003KT 9999 FEW011 SCT019 BKN033 04/02 Q1012", "ENOA 230820Z 07015KT 8000 SCT005 BKN012 10/09 Q1007 W///S3", "ENOL 230820Z 06004KT 9999 -RA FEW007 SCT013 BKN018 04/04 Q1012 TEMPO 4000 -RADZ BKN014", "ENOV 230820Z 00000KT 9999 FEW017 BKN039 06/05 Q1010 RMK WIND RWY24 00000KT WIND 2090FT VRB02KT", "ENQA 230820Z AUTO 09010KT 4600NDV -RA OVC004/// 10/09 Q1008 W17/S3", "ENQR 230820Z AUTO 05017KT 9999NDV NCD 10/07 Q1009 W10/S4", "ENRA 230820Z AUTO 23005KT 190V280 9999 OVC014/// 02/00 Q1009", "ENRM 230820Z AUTO 00000KT 9999 NCD 02/01 Q1012", "ENRO 230820Z AUTO 00000KT 9999 OVC008 M02/M03 Q1010", "ENRS 230820Z AUTO 34019KT 9999 BKN043 05/M03 Q1010", "ENRY 230820Z AUTO 36003KT 5000NDV SCT001/// BKN015/// OVC019/// 04/04 Q1011", "ENSB 230820Z 11010KT 9999 FEW035 BKN075 M06/M10 Q1007 RMK WIND 1400FT 12006KT", "ENSD 230820Z VRB01KT 9999 BKN066 04/04 Q1009 RMK WIND RWY26 00000KT WIND 1140FT 19004KT", "ENSE 230820Z AUTO 06025KT 9999NDV BKN012/// OVC042/// 09/07 Q1009 W///S4", "ENSF 230820Z AUTO 05023KT 9999NDV SCT010/// BKN041/// 11/07 Q1009 W///S4", "ENSK 230820Z AUTO 32013KT 2500 -SN VV015 01/M02 Q1007", "ENSL 230820Z AUTO 20015KT 9999NDV NCD 12/12 Q1012 W09/S3", "ENSR 230820Z AUTO 31020G40KT 270V330 8000 -RA ///020/// 03/00 Q0995 REDZ RMK WIND RWY32 29018G34KT WIND 1118FT 29043G54KT", "ENSS 230820Z AUTO 29013KT 9999 FEW049 SCT082 BKN127 02/M00 Q0982 RMK WIND 0500FT 30019KT", "ENTC 230820Z 30030G44KT 9999 -SHRASN FEW016 BKN024 BKN074 03/M02 Q1000 TEMPO 31020KT 2000 SHRASNGS BKN009CB RMK WIND 2600FT 32048G64KT", "ENTO 230820Z 36006KT 4500 -DZ OVC005 04/04 Q1011 TEMPO 5000 -DZ OVC003", "ENUG 230820Z AUTO 33030KT 9999NDV FEW018/// SCT020/// BKN110/// 04/00 Q0989 W///S6", "ENVA 230820Z 12003KT 9999 FEW002 SCT017 BKN027 04/04 Q1012 NOSIG RMK WIND 670FT 00000KT", "ENVD 230820Z AUTO 30008KT 270V340 9999 FEW110/// 02/M02 Q0983", "ENWV 230820Z AUTO 17015KT 9999NDV FEW007/// BKN110/// 13/13 Q1009 W///S3", "ENZV 230820Z 17006KT 9999 OVC030 12/11 Q1009", "EPBY 230800Z 25009KT 5000 BR OVC002 13/13 Q1016", "EPGD 230800Z 24007KT 8000 FEW003 BKN005 13/12 Q1014", "EPKK 230800Z 21004KT 9999 BKN030 12/11 Q1021", "EPKT 230800Z 23009KT 6000 FEW004 BKN024 11/10 Q1020", "EPLB 230800Z 28010KT 9999 BKN013 14/13 Q1018", "EPLL 230800Z 23007KT 190V250 7000 BKN005 13/12 Q1018", "EPMO 230800Z 20005KT 160V230 3600 BR BKN004 13/12 Q1017", "EPPO 230800Z 26004KT 2400 BR OVC001 12/12 Q1017", "EPRZ 230800Z 26010KT 9999 FEW009 14/11 Q1020", "EPSC 230800Z 18003KT 140V230 6000 OVC002 12/12 Q1016", "EPSY 230800Z 24007KT 210V280 7000 BKN007 12/12 Q1016", "EPWA 230800Z 23004KT 190V270 9999 BKN010 13/12 Q1017 TEMPO BKN005", "EPWR 230800Z 22008KT CAVOK 13/11 Q1019", "EPZG 230800Z 21003KT 0500 R24/1500U FG FEW000 11/11 Q1018", "ESCF 230820Z AUTO VRB01KT 9999 OVC012/// 08/07 Q1012", "ESCM 230820Z AUTO 30002KT 9999 NCD 02/02 Q1011", "ESDF 230820Z AUTO 19001KT 3500 BR SCT002/// BKN012/// OVC015/// 11/11 Q1013", "ESGG 230820Z 22008KT 3600 RA VV011 11/10 Q1011", "ESGJ 230820Z AUTO 20002KT 4000 DZ VV003 08/08 Q1011", "ESGP 230820Z 21007KT 9999 SCT006 BKN014 OVC042 13/12 Q1011", "ESGT 230820Z AUTO 14004KT 4000 OVC004/// 09/09 Q1011 RESHUP REDZ", "ESIA 230820Z AUTO 22002KT 9999 BKN009/// OVC012/// 08/07 Q1012", "ESIB 230820Z AUTO 09005KT 2300 DZRA BR OVC003/// 09/09 Q1010", "ESKM 230820Z AUTO 36002KT 9999 NCD 01/01 Q1011", "ESKN 230820Z 28009KT CAVOK 06/03 Q1012", "ESKS 230820Z AUTO VRB02KT 9999 NCD M02/M03 Q1010", "ESMK 230820Z AUTO 25004KT 220V290 9999 BKN038/// 14/12 Q1013", "ESMQ 230820Z AUTO 14003KT 9999 OVC010/// 10/10 Q1013", "ESMS 230820Z 25008KT 9999 BKN004 13/12 Q1014", "ESMT 230820Z AUTO 27007KT 9999 R01///// R19/P2000N FEW008/// OVC010/// 12/12 Q1013", "ESMV 230820Z AUTO 20003KT 160V230 8000 -DZ OVC002/// 10/// Q1012", "ESMX 230820Z AUTO 20005KT 2300 -RA BKN001/// OVC003/// 11/11 Q1012 REDZ", "ESND 230820Z AUTO 00000KT 9999 BKN096/// M01/M02 Q1011", "ESNG 230750Z AUTO 28015KT 9999 NCD 01/// Q0999", "ESNK 230820Z AUTO 01004KT 9999 SCT120/// 04/01 Q1010", "ESNL 230820Z AUTO 28008KT 9999 NCD 01/M03 Q1007", "ESNN 230820Z AUTO VRB01KT 9999 FEW082/// SCT100/// 02/01 Q1010", "ESNO 230820Z AUTO 30008KT 9999 OVC160/// 03/M01 Q1008", "ESNQ 230820Z AUTO 32020KT 9999 NCD M00/M05 Q0998", "ESNS 230820Z AUTO 29012KT 9999 NCD 03/M04 Q1005", "ESNU 230820Z 31013KT CAVOK 04/M02 Q1007", "ESNV 230820Z AUTO 28005KT 9999 NCD ///// Q1008", "ESNX 230820Z AUTO 27019KT 9999 NCD 01/M03 Q1004", "ESNZ 230820Z AUTO 33007KT 290V350 9999 NCD 03/01 Q1010", "ESOE 230820Z AUTO VRB02KT 9999 SCT078/// BKN120/// 06/04 Q1012", "ESOH 230820Z AUTO VRB02KT 2200 OVC001/// M02/M02 Q1012 REFZUP", "ESOK 230820Z 04005KT 3200 BR BKN002 T04/// Q1011", "ESOW 230820Z VRB02KT CAVOK 03/01 Q1012", "ESPA 230820Z 30014KT CAVOK 03/M03 Q1003", "ESPE 230820Z AUTO 34013KT 9999 NCD 02/M03 Q1004", "ESSA 230820Z VRB03KT 0200 R01L/0550N R19R/0450N R01R/1100D R19L/1300D FG OVC002 01/01 Q1011 BECMG 9999 NSW", "ESSB 230820Z AUTO VRB02KT 9000 BKN005/// 03/03 Q1011", "ESSD 230820Z AUTO 27002KT 9999 NCD 01/M00 Q1011", "ESSL 230820Z AUTO 28003KT 260V320 9999 BKN014/// BKN080/// 09/06 Q1012", "ESSP 230820Z AUTO 31005KT 9999 NCD 08/04 Q1012", "ESST 230820Z AUTO 00000KT 0550 R16/1200N R34/1000N FZFG OVC002/// M01/M01 Q1012", "ESSV 230820Z 27009KT 9999 OVC012 09/07 Q1012", "ESTA 230820Z AUTO 25008KT 9999 BKN007/// OVC015/// 12/11 Q1013", "ESTL 230820Z AUTO 25005KT 9999 NCD 13/12 Q1013", "ESUP 230820Z AUTO 28016KT //// // NCD 02/M05 Q0998", "ESUT 230820Z AUTO 30006KT 9999 FEW025/// BKN035/// OVC049/// 00/M03 Q1007", "ETAD 230755Z AUTO 09006KT 9999 FEW050 11/11 A2988 RMK AO2 SLP109 T01090107 $", "ETAR 230755Z AUTO 00000KT 9999 FEW070 11/11 A2993 RMK AO2 SLP140 T01050105 $", "ETEB 230755Z AUTO 12007KT 9999 CLR 12/09 A3002 RMK AO2 SLP179 T01220092 $", "ETGG 230820Z AUTO 19003KT 1800 // ////// 11/11 Q1014 ///", "ETHA 230820Z AUTO 23004KT 9999 // ////// 09/08 Q1018 ///", "ETHB 230820Z VRB02KT 9999 FEW140 BKN160 OVC200 15/11 Q1013 BLU", "ETHC 230820Z 09004KT 9999 FEW120 BKN160 BKN200 12/11 Q1014 BLU", "ETHF 230820Z 00000KT 0100 FG VV001 09/09 Q1015 RED", "ETHL 230820Z AUTO 06002KT 2700 // ////// 08/08 Q1017 ///", "ETHN 230820Z 14009KT 9999 SCT075 BKN200 15/10 Q1016 BLU+", "ETHS 230820Z AUTO 05003KT 6000 // ////// 10/10 Q1014 ///", "ETIC 230755Z AUTO 00000KT 9999 OVC004 11/10 A3006 RMK AO2 SLP185 T01060101 $", "ETIH 230755Z AUTO 11005KT 9999 OVC003 10/10 A3008 RMK AO2 SLP193 T01040098 $", "ETIK 230755Z AUTO 11005KT 9999 CLR 12/09 A3001 RMK AO2 SLP166 T01220085 $", "ETMN 230820Z AUTO 12005KT 6000 // ////// 10/09 Q1013 ///", "ETNH 230820Z AUTO 12003KT 0100 // ////// 10/10 Q1014 ///", "ETNL 230820Z 19005KT 0500 FG VV000 11/11 Q1015 RED", "ETNN 230820Z AUTO 11006KT 8000 // ////// 14/12 Q1011 ///", "ETNS 230820Z AUTO 14004KT 0150 // ////// 09/09 Q1014 ///", "ETNT 230820Z AUTO ///02KT //// // ////// 10/10 Q1012 ///", "ETNW 230820Z 15004KT 9999 FEW150 BKN170 BKN210 12/12 Q1014 BLU", "ETOU 230755Z AUTO 00000KT 9999 CLR 12/12 A2996 RMK AO2 SLP149 T01180115 $", "ETSB 230820Z AUTO 12006KT //// // ////// 13/10 Q1013 ///", "ETSH 230820Z 14004KT 9999 BKN180 12/12 Q1017 BLU", "ETSI 230820Z AUTO 06003KT 0400 // ////// 10/09 Q1018 ///", "ETSL 230820Z AUTO VRB01KT 9999 // ////// 12/09 Q1017 ///", "ETSN 230820Z 07005KT 2800 BR FEW001 BKN002 10/10 Q1018 AMB", "ETWM 230820Z AUTO 08003KT //// // ////// 11/11 Q1012 ///", "EVLA 230820Z AUTO 29006KT 240V330 9999 OVC021/// 10/07 Q1012", "EVRA 230820Z 26004KT 220V320 9999 SCT013 BKN015 OVC028 10/09 Q1010 NOSIG", "EVVA 230820Z AUTO 30008KT 9999 OVC018 10/09 Q1011", "EYKA 230820Z 27008KT 240V300 9999 OVC009 11/10 Q1012", "EYPA 230820Z 33004KT 270V080 9999 OVC015 11/08 Q1013", "EYSA 230820Z 27012KT 9999 FEW014 OVC034 11/08 Q1012 NOSIG", "EYVI 230820Z 27006KT 2300 -DZ BR OVC002 10/10 Q1012 NOSIG", "FABL 230800Z 03011KT CAVOK 22/14 Q1024 NOSIG", "FACT 230800Z 17018KT CAVOK 24/15 Q1015 NOSIG", "FAEL 230800Z 06012KT 030V100 CAVOK 23/15 Q1019", "FAGG 230800Z 09005KT 040V170 9999 FEW015 BKN035 20/16 Q1019", "FAKN 230800Z 10003KT 9999 BKN015 20/16 Q1024 NOSIG", "FALA 230800Z 02007KT 340V070 9999 FEW020 22/13 Q1026 NOSIG", "FALE 230800Z 09006KT 030V160 9999 FEW028 23/15 Q1020 NOSIG", "FALW 230800Z AUTO 12003KT //// // ////// 26/14 Q1014", "FAOR 230800Z 01008KT 330V050 CAVOK 21/13 Q1026 NOSIG", "FAPE 230800Z 05007KT 030V100 CAVOK 20/15 Q1018 NOSIG", "FAPP 230800Z 03011KT 9999 SCT025 21/16 Q1026 NOSIG", "FAUP 230800Z 36012KT 9999 FEW040 SCT050CB 30/10 Q1016 NOSIG", "FBKE 230800Z 08010KT 030V120 CAVOK 32/08 Q1019", "FBMN 230800Z VRB02KT CAVOK 25/13 Q1019", "FBPM 230800Z 09013KT 060V120 CAVOK 26/16 Q1021", "FBSK 230800Z 01007KT 340V040 9999 FEW030 BKN070 24/14 Q1022 NOSIG", "FCBB 230800Z 22003KT 180V270 9999 FEW013 SCT020 27/22 Q1016 NOSIG", "FCPP 230800Z 18012KT 8000 -DZ FEW008 SCT015 BKN021 27/24 Q1014 NOSIG", "FDBB 230800Z AUTO 01003KT //// // ////// 27/17 Q1019", "FDMY 230800Z AUTO 04001KT //// // ////// 23/17 Q1032", "FDOT 230800Z AUTO 07001KT //// // ////// 25/19 Q1022", "FDPP 230800Z AUTO /////KT //// // ////// 17/M02 Q1021", "FDSK 230800Z 23003KT 9999 SCT035 25/15 Q1022 NOSIG", "FDST 230800Z AUTO 10003KT //// // ////// 21/16 Q1020", "FEFF 230800Z VRB03KT 7000 FEW010 FEW033CB 28/24 Q1014 TEMPO TS", "FEFT 230800Z 36012KT 9999 FEW020 26/22 Q1017", "FGBT 230800Z 16006KT 9999 SCT010 29/25 Q1014", "FGSL 230800Z VRB02KT 9999 SCT010 FEW020CB BKN040 27/25 Q1015 NO SIG", "FIMP 230800Z 03012KT 9999 SCT017 BKN050 26/20 Q1022", "FJDG 230755Z 14015G22KT 9999 FEW020 SCT047 BKN110 32/25 A2992 RMK SLP129 T03170251", "FKKD 230800Z 04009KT 360V070 8000 -TSDZ SCT003 BKN010 FEW013CB 25/23 Q1014 TEMPO 3500 TSRADZ", "FKKR 230800Z 15006KT 110V190 9999 SCT014 27/22 Q1017 BECMG BKN016", "FKYS 230800Z 35005KT 9999 TS BKN006 FEW016CB 22/22 Q1019 BECMG NSW BKN010", "FMCH 230800Z 10017KT 9999 FEW020 30/20 Q1019 NOSIG", "FMCZ 230800Z AUTO 20005KT 160V230 9999 FEW025 29/21 Q1018 NOSIG", "FMEE 230800Z AUTO 07010KT 9999 BKN066/// OVC076/// 26/20 Q1021 NOSIG", "FMEP 230800Z AUTO 26009KT 230V290 9999 BKN045 BKN230 26/19 Q1021 NOSIG", "FMMI 230800Z VRB07KT 9999 SCT023 28/14 Q1023 NOSIG", "FMMT 230800Z 05010KT 010V100 9999 SCT017 28/21 Q1019 NOSIG", "FMNM 230800Z 33009KT 300V010 9999 FEW023 31/20 Q1018 NOSIG", "FMNN 230800Z 03008KT 9999 SCT020 31/// Q1018", "FMSD 230800Z 10018KT 9999 FEW020 29/20 Q1017", "FNDU 230800Z 00000KT CAVOK ///// Q////", "FNLU 230800Z 15009KT 9000 BKN020 26/22 Q1014", "FNSA 230800Z 00000KT CAVOK 24/19 Q1016", "FNUB 230800Z 05004KT 9999 BKN025 21/15 Q1026", "FNUE 230800Z 27004KT CAVOK 24/20 Q1024", "FOGM 230800Z /////KT 9999 SCT010 BKN023 27/23 Q////", "FOGR 230800Z /////KT 9999 SCT008 OVC025 25/23 Q////", "FOOB 230800Z /////KT 9999 SCT010 BKN023 22/21 Q1015", "FOOG 230800Z 17007KT 8000 SCT006 FEW016CB OVC026 25/24 Q1014", "FOOL 230800Z 13006KT 9000 -RA SCT008 FEW020CB SCT033 26/25 Q1014 NOSIG", "FOON 230800Z /////KT 9999 BKN011 27/23 Q1015", "FQBR 230800Z 12011KT 090V150 9999 BKN018 30/23 Q1018", "FQCH 230800Z /////KT 9999 FEW020 27/18 Q1023", "FQIN 230800Z 34004KT 9999 SCT020 BKN025 26/21 Q1020", "FQLC 230800Z 04012KT 9999 FEW015 24/13 Q1024", "FQMA 230800Z 16005KT 9999 BKN020 23/19 Q1019 NOSIG", "FQNP 230800Z 04010KT 350V090 CAVOK 30/11 Q1020", "FQPB 230800Z 05013KT 020V080 9999 FEW020 28/22 Q1019", "FQTT 230800Z 17003KT 090V210 CAVOK 34/17 Q1016", "FQXA 230800Z 19003KT 130V300 9999 FEW010 BKN020 OVC025 26/20 Q1021", "FSIA 230800Z 12013KT 9999 FEW021 29/23 Q1015 NOSIG", "FTTA 230800Z 21003KT CAVOK 27/23 Q1016", "FTTJ 230800Z 11004KT 110V240 6000 NSC 32/21 Q1014 NOSIG", "FWCL 230800Z 05010KT CAVOK 30/10 Q1020 NOSIG", "FYGF 230800Z 04003KT 9999 FEW030 BKN100 26/11 Q1023", "FYKM 230800Z 28007KT CAVOK 28/09 Q1018", "FYLZ 230800Z AUTO 19011KT //// // ////// 20/12 Q1014", "FYRU 230800Z 31006KT CAVOK 29/12 Q1022", "FYWB 230800Z 01007KT 9999 OVC010 15/13 Q1016", "FYWE 230800Z 00000KT CAVOK 28/06 Q1025", "FYWH 230800Z 11009KT CAVOK 25/10 Q1025 BECMG FEW050", "FYWW 230800Z 04004KT CAVOK 28/07 Q1024", "FZAA 230800Z 00000KT 6000 SCT020 BKN080 27/22 Q1016 NOSIG", "GABS 230800Z VRB02KT 9999 FEW020 24/22 Q1016 NOSIG", "GAKD 230800Z 30006KT CAVOK 26/24 Q1015", "GAMB 230800Z 00000KT 8000 NSC 30/21 Q1015", "GBYD 230800Z 00000KT CAVOK 26/25 Q1013", "GCFV 230800Z 01008KT 9999 FEW013 SCT025 22/20 Q1018", "GCLA 230800Z 28003KT 240V360 9999 FEW025 21/17 Q1019", "GCLP 230800Z 36010KT 9999 FEW025 22/18 Q1018 NOSIG", "GCRR 230800Z 03005KT 9999 FEW018 22/19 Q1018", "GCTS 230800Z 06008KT 020V080 9999 FEW022 SCT035 22/17 Q1018 NOSIG", "GCXO 230800Z 31003KT 8000 2200NW PRFG -DZ FEW001 BKN005 18/17 Q1020 NOSIG", "GECE 230800Z AUTO 07002KT CAVOK 20/17 Q1018", "GEML 230800Z 28006KT 240V320 9999 FEW010 22/19 Q1018", "GFLL 230800Z 13007KT 9999 BKN009 FEW027CB 24/23 Q1013 RMK CB NE/S", "GGOV 230800Z 10002KT 8000 FEW014 25/24 Q1014 NOSIG", "GLRB 230800Z 00000KT 9999 BKN010 FEW020CB 23/22 Q1014 NOSIG RMK CB-W", "GMAD 230800Z 04005KT CAVOK 21/04 Q1016 NOSIG", "GMAT 230800Z 01007KT 5000 SCT010 18/18 Q1018 NOSIG", "GMFF 230800Z 20005KT CAVOK 22/05 Q1020 NOSIG", "GMFK 230800Z 00000KT CAVOK 18/M02 Q1028 NOSIG", "GMFO 230800Z 16015KT 9999 NCD 24/01 Q1021 NOSIG", "GMME 230809Z 14003KT 360V160 2000 R21/0350V1200U BR BKN002 18/18 Q1017 TEMPO 5000", "GMMI 230800Z VRB03KT 6000 NSC 15/11 Q1017 NOSIG", "GMMN 230800Z 16003KT 8000 FEW010 SCT200 17/15 Q1019 NOSIG", "GMMW 230800Z 25004KT 210V270 6000 NSC 20/16 Q1019 NOSIG", "GMMX 230800Z 24006KT CAVOK 18/10 Q1019 NOSIG", "GMMZ 230800Z VRB02KT CAVOK 15/M02 Q1026 NOSIG", "GMTA 230800Z 21003KT 170V260 8000 FEW015 BKN200 21/18 Q1018 NOSIG", "GMTN 230800Z VRB02KT 8000 FEW016 BKN140 20/15 Q1018 NOSIG", "GMTT 230800Z VRB02KT 8000 SCT016 BKN160 21/19 Q1018 NOSIG", "GOBD 230800Z 32003KT 8000 FEW015 25/25 Q1014 NOSIG", "GOGG 230800Z 00000KT CAVOK 25/25 Q1014", "GOGK 230800Z 00000KT CAVOK 25/24 Q1012", "GOGS 230800Z 08004KT 9999 FEW015 26/26 Q1013", "GOOD 230800Z 00000KT CAVOK 26/26 Q1013", "GOOG 230800Z 25004KT CAVOK 26/26 Q1011", "GOOY 230800Z 34004KT 9999 SCT013 27/25 Q1013", "GOSM 230800Z 26004KT CAVOK 28/24 Q1013", "GOSP 230800Z 28004KT 9999 FEW011 26/23 Q1013", "GOSS 230800Z VRB02KT 9999 SCT010 28/27 Q1014", "GQNO 230800Z 34009KT 8000 NSC 23/18 Q1013 NOSIG", "GQPP 230800Z 01014KT 6000 SCT006 20/19 Q1015 NOSIG", "GVAC 230800Z 02013KT 9999 SCT014 24/21 Q1015 NOSIG", "GVBA 230800Z 03012KT 9999 SCT014 25/22 Q1015 NOSIG", "GVNP 230800Z 02014KT 9999 FEW017 25/21 Q1014 NOSIG", "GVSV 230800Z 05024KT 9999 FEW018 25/21 Q1014 NOSIG", "HCMF 230800Z 03008KT 9999 FEW038 28/24 Q1014", "HCMM 230800Z 17009KT 9999 BKN023 29/24 Q1016", "HEAT 230800Z 33010KT CAVOK 23/15 Q1022 NOSIG", "HEAX 230800Z 35008KT 9999 SCT020 SCT022 26/17 Q1020 NOSIG", "HEBA 230800Z 31004KT 9999 SCT020 25/16 Q1020 NOSIG", "HEBL 230800Z 34009KT CAVOK 27/10 Q1019 NOSIG", "HECA 230800Z 29006KT 6000 SCT025 23/17 Q1020", "HECP 230800Z 00000KT CAVOK 21/14 Q1019 NOSIG", "HEGN 230800Z 33012KT CAVOK 28/11 Q1018 NOSIG", "HEIS 230800Z 32007KT CAVOK 23/16 Q1019", "HELX 230800Z 00000KT 6000 NSC 27/13 Q1019 NOSIG", "HEMA 230800Z 32013KT CAVOK 29/10 Q1017 NOSIG", "HEMM 230800Z 32013KT 9999 SCT020 SCT022 23/17 Q1022 NOSIG", "HEPS 230800Z 24006KT CAVOK 23/19 Q1019 NOSIG", "HESG 230800Z 32006KT 8000 NSC 25/12 Q1019 NOSIG", "HESH 230800Z 01009KT CAVOK 29/18 Q1017 NOSIG", "HESN 230800Z 02008KT CAVOK 26/09 Q1020 NOSIG", "HESW 230800Z 27004KT CAVOK 21/11 Q1024", "HETR 230800Z 30023KT 9999 FEW025 27/20 Q1017", "HKEL 230800Z 12011KT 9999 FEW022 22/09 Q1028", "HKJK 230800Z 04008KT 9999 BKN025 23/12 Q1026 NOSIG", "HKKI 230800Z VRB04KT 9999 FEW025 SCT270 28/14 Q1020", "HKML 230800Z 11010KT 9999 SCT021 28/24 Q1017", "HKMO 230800Z 17005KT 9999 BKN020 BKN080 27/23 Q1018 NOSIG", "HKNW 230800Z 06008KT 9999 BKN024 22/11 Q1026", "HKWJ 230800Z 17005KT 9999 OVC031 28/18 Q1016", "HRYR 230800Z 14005KT 110V190 9999 SCT025 25/15 Q1024 NOSIG", "HRZA 230800Z 24003KT 9999 SCT025 24/17 Q1023 NOSIG", "HTDA 230800Z 07008KT 9999 -RA BKN014 26/23 Q1019 NOSIG", "HTKJ 230800Z 09010KT 9999 PO BKN033 27/15 Q1023 NOSIG", "HTMW 230800Z 08015KT 9999 FEW026 FEW027CB SCT100 29/10 Q1020 NOSIG", "HTZA 230800Z 27005KT 9999 -RA SCT016 BKN080 27/24 Q1018 NOSIG", "HUEN 230800Z 01010KT 9999 FEW023 FEW025CB 26/20 Q1020", "K04V 230815Z AUTO 00000KT 10SM 06/M01 A2967 RMK AO2", "K04W 230815Z AUTO 00000KT 10SM CLR 05/04 A2964 RMK AO2", "K05U 230815Z AUTO 00000KT 7SM M01/M03 A2975 RMK A01", "K06C 230815Z AUTO 17006KT 10SM CLR 16/13 A2990 RMK AO2 T01630134", "K06D 230815Z AUTO 04016KT 10SM OVC011 06/05 A2965 RMK AO2", "K08D 230815Z AUTO 06016KT 10SM OVC008 06/06 A2956 RMK AO2", "K0A0 230815Z AUTO 13009G15KT 10SM BKN055 BKN065 18/10 A2978 RMK AO2", "K0A9 230815Z AUTO 00000KT 9SM CLR 06/04 A3021 RMK A01", "K0CO 230815Z AUTO 25042G51KT 10SM CLR M01/M09 A2965 RMK AO2", "K0E0 230815Z AUTO 21016G20KT 10SM SCT065 13/09 A2979 RMK AO2 T01300094 TSNO", "K0F2 230815Z AUTO 16011G16KT 10SM CLR 21/14 A2975 RMK AO2 T02110140", "K0R0 230815Z AUTO 00000KT 10SM CLR 12/12 A3011 RMK AO2", "K0R4 230815Z AUTO 13011KT 10SM CLR 18/14 A3002 RMK AO2 T01820142", "K0S9 230815Z AUTO 00000KT 10SM OVC055 06/06 A2992 RMK AO2", "K0VG 230815Z AUTO 00000KT 10SM CLR 04/04 A3021 RMK AO2", "K10G 230815Z AUTO 16005KT 10SM CLR 15/05 A3017 RMK AO2", "K11R 230815Z AUTO 18004KT 10SM SCT043 20/17 A2990 RMK AO2 T02000174", "K12N 230754Z AUTO 00000KT 06/03 A3028 RMK AO1 SLP254 T00560033", "K13K 230815Z AUTO 17022KT 10SM CLR 21/14 A2957 RMK AO2 T02130135", "K14Y 230815Z AUTO 14003KT 10SM CLR 11/06 A2958 RMK AO2", "K15M 230815Z AUTO 17003KT 10SM CLR 15/11 A3010 RMK AO2 T01510110 $", "K17J 230815Z AUTO 00000KT 10SM CLR 07/05 A3014 RMK AO2 T00660046", "K18A 230815Z AUTO 03005KT 10SM CLR 10/05 A3020 RMK AO2 T00950047", "K18H 230815Z AUTO 16017KT 10SM CLR 26/15 A2996 RMK A01", "K19S 230815Z AUTO 21010KT 10SM CLR 19/09 A2951 RMK AO2 T01890088", "K1A6 230815Z AUTO 00000KT 10SM CLR 05/05 A3020 RMK AO2 T00530053", "K1A9 230815Z AUTO 00000KT 10SM CLR 07/07 A3014 RMK AO2 T00730069", "K1AM 230755Z AUTO 28011KT 1 7/8SM -SN FEW009 OVC014 00/00 A2956 RMK AO2 SLP032 P0001 T00010000 $", "K1AW 230756Z AUTO 02003KT 10SM BKN130 BKN170 OVC240 08/M08 A2935 RMK AO2 SLP890 T00801077 $", "K1BM 230755Z AUTO 26017KT 3SM -SN BKN015 OVC026 00/M00 A2952 RMK AO2 BKN V OVC SLP017 P0000 T00011005 $", "K1BW 230756Z AUTO 09003KT 10SM BKN150 BKN220 OVC240 13/M10 A2935 RMK AO2 SLP877 T01291102 $", "K1CM 230755Z AUTO 30023KT 6SM -SN SCT039 BKN050 OVC065 M00/M01 A2950 RMK AO2 PK WND 31027/47 SLP009 P0000 T10031007 $", "K1CW 230756Z AUTO 16005KT 10SM SCT220 BKN240 14/M10 A2931 RMK AO2 SLP868 T01351104 $", "K1D1 230815Z AUTO 00000KT 9SM CLR 05/02 A2951 RMK AO2", "K1DM 230755Z AUTO 32009KT 4SM -SN FEW011 OVC019 00/M00 A2952 RMK AO2 SLP018 P0002 T00021001 $", "K1DW 230756Z AUTO 34006KT 10SM SCT240 12/M09 A2936 RMK AO2 SLP882 T01171088 $", "K1EW 230756Z AUTO 00000KT 10SM BKN240 10/M08 A2934 RMK AO2 SLP888 T01031084 $", "K1F0 230815Z AUTO 18012G21KT 10SM CLR 23/15 A2974 RMK AO2 T02260145", "K1FM 230755Z AUTO 34021KT 4SM -SN BKN009 OVC020 M00/M01 A2959 RMK AO2 PK WND 34030/19 CIG 009V020 SLP042 P0001 T10051006 $", "K1FW 230756Z AUTO 34007KT 10SM CLR 07/M07 A2933 RMK AO2 SLP885 T00741071 $", "K1H2 230815Z AUTO 13013KT 10SM SCT060 18/11 A2996 RMK AO2 T01800108", "K1HM 230755Z AUTO 25013KT 1 7/8SM -SN OVC006 00/M01 A2957 RMK AO2 SLP037 P0000 T00001013 $", "K1HW 230756Z AUTO 28012KT 10SM CLR 05/M08 A2928 RMK AO2 SLP886 T00491079 $", "K1IM 230755Z AUTO 29008KT 2 1/4SM -SN OVC003 00/00 A2957 RMK AO2 SLPNO P0003 T00010001 $", "K1IW 230756Z AUTO 23011KT 10SM CLR 08/M07 A2928 RMK AO2 SLP880 T00821071 $", "K1JM 230755Z AUTO 33015KT 1 7/8SM BR BKN004 OVC010 M01/M01 A2956 RMK AO2 BKN V OVC SLP035 P0001 T10061009 PWINO $", "K1JW 230756Z AUTO 00000KT 10SM CLR 07/M09 A2919 RMK AO2 SLP844 T00711089 $", "K1K1 230815Z AUTO 18011G18KT 10SM CLR 21/11 A2954 RMK AO2 T02080110", "K1KM 230755Z AUTO 35006KT 10SM -RA BKN008 OVC013 01/01 A2947 RMK AO2 RAE0656DZB0656E0659RAB0659E15PLB15E30SNB30E41PLB41E47RAB47 SLP992 P0000 T00120005 $", "K1KW 230756Z AUTO 32008KT 10SM CLR 08/M07 A2929 RMK AO2 SLP879 T00831074 $", "K1LM 230755Z AUTO 01017KT 3SM -SN BKN004 OVC008 00/M00 A2947 RMK AO2 CIG 004V009 BKN V SCT SLP995 P0001 T00001001 $", "K1M4 230756Z AUTO 18006KT 10SM CLR 15/09 A3014 RMK AO2 SLP193 T01500094", "K1M5 230815Z AUTO 17004KT 10SM CLR 14/11 A3010 RMK A01", "K1MM 230755Z AUTO 00000KT 8SM -SN SCT003 BKN030 OVC100 00/M01 A2950 RMK AO2 SLP008 P0003 T00021007 $", "K1MW 230755Z AUTO 22004KT 10SM M 05/M08 A2499 RMK AO2 SLP389 T00461082 FZRANO $", "K1NM 230755Z AUTO 27012KT 4SM -SN BKN024 OVC038 01/01 A2945 RMK AO2 SLP989 P0002 T00090008 $", "K1OM 230755Z AUTO 28016KT 10SM -RA SCT012 BKN021 OVC027 01/01 A2947 RMK AO2 RAE33PLB33E50RAB50 CIG 012V024 BKN V OVC SLP998 P0003 T00120006 $", "K1P1 230815Z AUTO 00000KT 7SM CLR 00/00 A3034 RMK AO2 T00020002", "K1R7 230815Z AUTO 13003KT 10SM CLR 14/14 A3008 RMK AO2 PWINO", "K1R8 230815Z AUTO 00000KT 10SM FEW026 SCT037 BKN046 09/09 A3011 RMK AO2", "K1S3 230815Z AUTO 36003KT 10SM 07/05 A2941 ", "K1U7 230815Z AUTO 33004KT 10SM BKN042 OVC048 00/00 A2956 RMK A01", "K1V4 230754Z AUTO 02/01 A3033 RMK AO1 SLP269 T00220006 PNO", "K1V6 230815Z AUTO 26026G33KT 10SM CLR 18/M01 A2945 RMK AO2", "K1YT 230755Z AUTO 04004KT 10SM CLR 05/M03 A2978 RMK AO2 SLP091 T00451031 401370034 $", "K20U 230815Z AUTO 11014G20KT 10SM OVC090 07/05 A2944 RMK AO2", "K20V 230815Z AUTO 11005KT 10SM CLR 09/00 A2949 RMK AO2", "K21D 230815Z AUTO 16008KT 10SM CLR 17/07 A2966 RMK AO2", "K22N 230815Z AUTO 00000KT 7SM CLR 00/M01 A3031 RMK AO2", "K24A 230815Z AUTO 00000KT 10SM CLR 06/02 A3025 RMK AO2 T00640018", "K24J 230815Z AUTO 00000KT 10SM 05/05 A3011 RMK A01", "K27K 230815Z AUTO 17003KT 10SM CLR 12/07 A3014 RMK AO1", "K28J 230815Z AUTO 00000KT 10SM FEW018 FEW025 SCT030 09/08 A3009 RMK AO2 TSNO", "K2A0 230815Z AUTO 00000KT 3SM BR BKN002 06/06 A3016 RMK A01", "K2C8 230815Z AUTO 36007KT 10SM BKN055 07/07 A2964 RMK AO2", "K2D5 230815Z AUTO 05009KT 10SM FEW020 BKN026 BKN034 04/02 A2950 RMK AO2", "K2DP 230820Z AUTO 36009G17KT 10SM -RA BKN010 BKN100 BKN150 17/17 A3001 RMK AO2 CIG 010V100 BKN010 V SCT SLPNO $", "K2G2 230810Z AUTO 11005KT 10SM SCT047 09/05 A3018 RMK A01", "K2G9 230815Z AUTO 00000KT 10SM CLR 02/00 A3024 RMK AO2", "K2J3 230815Z AUTO 30003KT 10SM CLR 06/05 A3016 RMK AO2 T00590049", "K2J5 230815Z AUTO 00000KT 10SM CLR 06/05 A3016 RMK AO2 T00620051", "K2J9 230815Z AUTO 00000KT 10SM CLR 06/05 A3014 RMK AO2", "K2M2 230815Z AUTO 16005KT 10SM BKN032 BKN048 BKN055 14/10 A3011 RMK A01", "K2P2 230815Z AUTO 19010G16KT 10SM CLR 12/12 A2990 RMK AO2 T01160116", "K2R9 230815Z AUTO 14004KT 7SM CLR 19/18 A2988 RMK AO2 T01910177", "K2V5 230815Z AUTO 28008KT 10SM CLR 09/M06 A2933 RMK AO2", "K2W6 230819Z AUTO 00000KT 10SM CLR 09/09 A3023 RMK AO1", "K2WX 230756Z AUTO 07010KT 07/02 A2936 RMK AO1 SLP943 T00670022", "K33N 230815Z AUTO 35005KT 10SM BKN026 OVC033 11/11 A3022 RMK A01", "K33V 230815Z AUTO 15004KT 10SM SCT060 SCT085 05/00 A2952 RMK AO1", "K35A 230815Z AUTO 00000KT 10SM CLR 04/03 A3023 RMK A02 T00370034", "K36K 230810Z AUTO 21015KT 10SM CLR 17/07 A2950 RMK AO2", "K38S 230815Z AUTO 00000KT 10SM 01/01 A2965 ", "K3AU 230815Z AUTO 17014KT 10SM CLR 21/10 A2954 RMK AO2", "K3D2 230755Z AUTO 18009KT 10SM CLR 12/11 A2988 RMK AO2 T01220106", "K3F3 230815Z AUTO 15006G14KT 10SM CLR 19/17 A2998 RMK AO2 T01900165", "K3J7 230815Z AUTO 00000KT 10SM CLR 07/03 A3017 RMK AO2", "K3K3 230815Z AUTO 20011G16KT 10SM CLR 18/06 A2948 RMK AO2", "K3LF 230815Z AUTO 15012G17KT 10SM OVC070 18/11 A2989 RMK AO2 T01750106", "K3N8 230815Z AUTO 11004KT 10SM CLR 08/04 A2955 RMK AO2 T00780041", "K3S8 230815Z AUTO 00000KT 10SM BKN006 BKN010 OVC039 06/05 A3004 RMK AO2", "K3U3 230815Z AUTO 00000KT 10SM M01/M01 A2963 ", "K40B 230816Z AUTO 00000KT 03/ A3029 RMK AO1 SLP266 T0030 51011", "K40U 230815Z AUTO 00000KT 2SM -SN BR SCT003 BKN009 OVC014 00/00 A2955 RMK AO2 P0001 T00001002", "K41U 230815Z AUTO 17009KT 10SM SCT004 BKN038 OVC046 01/01 A2958 RMK AO1 T00070007", "K42J 230815Z AUTO 00000KT 10SM FEW034 SCT040 BKN049 09/09 A3009 RMK A01", "K46D 230815Z AUTO 03009KT 10SM CLR 06/04 A2956 RMK AO2", "K46U 230815Z AUTO 31003KT 10SM FEW023 BKN028 OVC045 02/M01 A2957 RMK A01", "K48A 230815Z AUTO 00000KT 10SM CLR 04/03 A3015 RMK AO2 T00420035", "K49A 230815Z AUTO 00000KT 10SM CLR 05/04 A3023 RMK AO2 T00500039", "K4A6 230815Z AUTO 00000KT 10SM FEW021 SCT039 BKN050 08/08 A3016 RMK AO2", "K4A9 230815Z AUTO 35004KT 10SM CLR 06/06 A3016 RMK AO2 T00650060", "K4BM 230815Z AUTO 14008G19KT 050V270 10SM CLR 02/M07 A2973 RMK AO2 LTG DSNT S", "K4F2 230815Z AUTO 13008KT 10SM BKN037 19/16 A2994 RMK AO2 T01900161", "K4I3 230815Z AUTO 00000KT 10SM CLR 12/08 A3017 RMK AO2", "K4M9 230815Z AUTO 17012KT 10SM CLR 20/13 A2992 RMK AO2 PWINO", "K4MR 230755Z AUTO 20013KT 10SM CLR 18/10 A2969 RMK AO2 LTG DSNT N SLP973 T01780099 $", "K4O4 230815Z AUTO 16011KT 9SM BKN027 BKN034 OVC040 20/16 A2987 RMK AO2", "K4R5 230815Z AUTO 00000KT 1/4SM FG OVC003 06/06 A2969 RMK AO2 T00550055", "K4S1 230815Z AUTO 06006KT 7SM CLR 08/07 A3002 RMK AO2", "K4S2 230815Z AUTO 31007KT 10SM CLR 07/05 A2990 RMK AO2", "K4V0 230815Z AUTO 07006KT 2 1/2SM -SN SCT009 OVC016 00/00 A2951 RMK AO2 LTG DSNT S T00030001", "K4V1 230810Z AUTO 23024G36KT 10SM CLR 17/00 A2957 RMK AO2 T01720000", "K54A 230815Z AUTO 02004KT 10SM CLR 18/18 A3003 RMK AO2", "K54J 230815Z AUTO 00000KT 10SM CLR 11/08 A3013 RMK AO2 T01060076", "K57C 230815Z AUTO 17007KT 10SM CLR 16/11 A2988 RMK AO2 T01580112", "K5C1 230815Z AUTO 20007KT 10SM OVC011 18/18 A2989 RMK AO1", "K5H4 230815Z AUTO 04013KT 10SM BKN037 BKN043 06/M06 A2957 RMK AO2", "K5M9 230815Z AUTO 17005KT 10SM SCT060 SCT065 16/10 A3003 RMK AO2 T01620102", "K5R8 230815Z AUTO 11003KT 10SM CLR 17/16 A2997 RMK AO2 T01660159", "K5SM 230815Z AUTO 21015G36KT 180V240 5SM -VCTSSN BKN018 BKN030 OVC042 00/M02 A2959 RMK AO2 LTG DSNT SW", "K5T9 230815Z AUTO 00000KT 10SM CLR 19/18 A2980 RMK A01", "K63S 230815Z AUTO 00000KT 10SM FEW034 FEW045 OVC070 04/02 A2977 RMK A01", "K65S 230815Z AUTO 00000KT 8SM OVC022 03/02 A2976 RMK AO2", "K66R 230815Z AUTO 00000KT 10SM OVC047 18/17 A2990 RMK AO2 T01840170", "K6A2 230815Z AUTO 00000KT 10SM CLR 05/04 A3018 RMK AO2", "K6B0 230815Z AUTO 00000KT 10SM CLR 06/04 A3030 RMK AO2 T00570035", "K6B9 230815Z AUTO VRB04KT 10SM CLR 05/05 A3024 RMK AO2", "K6I2 230815Z AUTO 15006KT 10SM CLR 14/08 A3013 RMK AO2", "K6L4 230815Z AUTO 20004KT 10SM CLR 14/03 A3018 RMK AO2", "K6P9 230815Z AUTO 21011G16KT 10SM CLR 21/13 A2978 RMK AO2 T02050127", "K6R6 230751Z AUTO 02005KT 16/13 A2982 RMK AO1 SLP068 T01610133", "K6S0 230815Z AUTO 25016G22KT 10SM SCT026 OVC032 02/M00 A2951 RMK A01", "K6S2 230815Z AUTO 00000KT 9SM -RA FEW021 SCT032 OVC044 08/08 A3001 RMK AO2", "K6S8 230810Z AUTO 31013KT 10SM 04/03 A2948 RMK A01 LAUREL", "K74V 230815Z AUTO 11003KT 10SM -DZ 06/00 A2950 RMK AO2", "K79J 230756Z AUTO 00000KT 10SM CLR 09/06 A3013 RMK AO2 SLP200 T00940061", "K79S 230815Z AUTO 24006KT 01/01 A2960 ", "K7BM 230815Z AUTO 29005G14KT 10SM SCT016 SCT030 OVC065 06/M04 A2967 RMK AO2 LTG DSNT SW", "K7L2 230815Z AUTO 07008KT 10SM CLR 06/03 A2946 RMK AO2", "K7N0 230756Z AUTO VRB04KT 10SM CLR 21/15 A3008 RMK AO2 SLP183 T02060150 PNO $", "K7W4 230815Z AUTO 00000KT 10SM CLR 06/06 A3023 RMK AO1 T00630060", "K81R 230815Z AUTO 20010G14KT 10SM CLR 20/17 A2984 RMK AO2 T02040171", "K82C 230815Z AUTO 13006KT 10SM CLR 15/11 A2979 RMK AO2 T01540110", "K82V 230815Z AUTO 27006KT 10SM CLR 03/M07 A2937 RMK AO2", "K8A0 230815Z AUTO 14003KT 10SM CLR 12/07 A3015 RMK AO2", "K8A3 230815Z AUTO 21004KT 10SM CLR 14/07 A3014 RMK A01", "K8D3 230756Z AUTO 00000KT 04/M01 A2950 RMK AO1 SLP985 T00391011", "K8T6 230815Z AUTO 14005KT 10SM FEW025 SCT036 BKN042 20/19 A2986 RMK AO2", "K8W2 230815Z AUTO 00000KT 7SM CLR 00/00 A3025 RMK AO1 T00011001", "K96D 230815Z AUTO 34007KT 10SM CLR 07/07 A2967 RMK AO2", "K9A5 230815Z AUTO 00000KT 5SM CLR 05/05 A3019 RMK AO2 T00520052", "K9D7 230815Z AUTO 05014G20KT 10SM FEW010 FEW120 06/06 A2963 RMK AO2 TSNO", "K9L2 230755Z AUTO 22016KT 10SM CLR 14/08 A2973 RMK AO2 SLP054 T01380076 402110128 $", "K9MN 230815Z AUTO 13009G17KT 10SM CLR 17/08 A2969 RMK AO1 T01710078", "K9V9 230815Z AUTO 11007KT 10SM CLR 08/03 A2936 RMK AO2 T00790027", "KAAA 230815Z AUTO 15008KT 10SM CLR 16/12 A2988 RMK AO2 T01620117", "KAAF 230753Z AUTO 05005KT 10SM CLR 11/09 A3010 RMK AO2 SLP192 T01110094", "KAAO 230754Z AUTO 18013G25KT 10SM CLR 22/12 A2953 RMK AO2 PK WND 17026/0719 SLP983 T02170117", "KAAS 230815Z AUTO 14004KT 10SM CLR 12/08 A3018 RMK AO1", "KAAT 230755Z AUTO 27008KT 10SM BKN055 OVC070 01/M02 A2988 RMK AO2 SLP121 T00061022 401281022", "KABE 230751Z 33003KT CLR 06/03 A3028 RMK AO2 SLP255 T00560033", "KABH 230755Z AUTO 20016G20KT 10SM CLR 14/M03 A2950 RMK AO2 SLP911 T01361028", "KABI 230752Z 19018G31KT 10SM CLR 22/13 A2976 RMK AO2 PK WND 19031/0747 SLP052 T02170128", "KABQ 230752Z 19012KT 10SM BKN060 OVC090 17/10 A2975 RMK AO2 SLP001 T01670100", "KABR 230753Z AUTO 02006KT 9SM CLR 03/00 A2946 RMK AO2 SLP976 T00330000", "KABY 230753Z AUTO 00000KT 10SM CLR 07/05 A3016 RMK AO2 SLP211 T00670050", "KACB 230815Z AUTO 00000KT 10SM CLR 16/11 A2997 RMK AO2 T01600106", "KACJ 230815Z AUTO 00000KT 10SM CLR 06/04 A3014 RMK AO2 T00610040", "KACK 230753Z AUTO 06006KT 10SM CLR 16/14 A3029 RMK AO2 SLP257 T01610144", "KACP 230815Z AUTO 11003KT 10SM CLR 17/15 A2999 RMK AO2", "KACQ 230815Z AUTO 14011KT 10SM CLR 15/07 A2964 RMK AO2", "KACT 230751Z AUTO 17017G26KT 10SM CLR 22/18 A2981 RMK AO2 PK WND 18027/0732 SLP088 T02170178 $", "KACV 230753Z AUTO 08003KT 8SM CLR 06/05 A3001 RMK AO2 SLP169 T00610050 401500061", "KACY 230754Z AUTO 01006KT 9SM OVC024 14/11 A3022 RMK AO2 SLP232 T01390111", "KADC 230817Z AUTO 10003KT 10SM CLR 07/03 A2956 RMK AO2 TSNO", "KADF 230756Z AUTO 16005KT 10SM CLR 19/15 A2994 RMK AO2 SLP135 T01940150", "KADG 230753Z AUTO 00000KT 10SM CLR 11/09 A3009 RMK AO2 SLP191 T01060089", "KADH 230815Z AUTO 18014G18KT 10SM CLR 21/14 A2975 RMK AO2", "KADM 230815Z AUTO 16008KT 10SM CLR 22/14 A2974 RMK AO2", "KADS 230815Z AUTO 18012G20KT 10SM CLR 21/16 A2983 RMK AO2 T02130158", "KADT 230815Z AUTO 20005KT 10SM CLR 16/M03 A2940 RMK AO2 T01641035", "KADU 230815Z AUTO 16008KT 10SM SCT046 SCT055 BKN090 17/11 A2956 RMK AO2", "KADW 230755Z AUTO 35005KT 10SM CLR 08/07 A3022 RMK AO2 SLP240 T00780066 $", "KAEG 230815Z AUTO 20008KT 10SM CLR 12/08 A2975 RMK AO2 T01210077", "KAEJ 230815Z AUTO 14005KT 10SM 10/M04 A2959 RMK AO2 T01021045", "KAEL 230815Z AUTO 15009KT 10SM CLR 16/09 A2964 RMK AO2", "KAEX 230753Z 15009KT 10SM CLR 18/15 A2998 RMK AO2 SLP155 T01780150", "KAFF 230755Z AUTO 10006G17KT 10SM CLR 13/M04 A2944 RMK AO2 SLP880 T01341038", "KAFJ 230756Z AUTO 00000KT 10SM CLR 03/03 A3022 RMK AO2 SLP235 T00330028", "KAFK 230815Z AUTO 15011G16KT 10SM CLR 18/13 A2950 RMK AO2 T01790126", "KAFN 230752Z AUTO 00000KT 10SM CLR 04/03 A3031 RMK AO2 SLP272 T00440028", "KAFO 230815Z AUTO 00000KT 10SM BKN032 OVC041 00/M03 A2956 RMK AO2", "KAFP 230815Z AUTO 00000KT 10SM CLR 06/05 A3017 RMK AO2 T00550048", "KAFW 230753Z 17014KT 10SM BKN250 22/17 A2977 RMK AO2 SLP068 T02170167", "KAGC 230753Z 11004KT 10SM CLR 11/02 A3019 RMK AO2 SLP226 T01060022", "KAGI 230815Z AUTO 16015KT 10SM CLR 25/14 A2998 RMK AO2 T02490142", "KAGO 230815Z AUTO 17007G12KT 10SM OVC039 20/16 A2994 RMK A01", "KAGS 230753Z 00000KT 10SM CLR 05/04 A3015 RMK AO2 SLP209 T00500039", "KAHN 230751Z AUTO 30003KT 10SM CLR 06/04 A3018 RMK AO2 SLP221 T00610039", "KAHQ 230815Z AUTO 13010KT 10SM CLR 15/11 A2946 RMK AO2 T01450113", "KAIA 230753Z AUTO 29009KT 10SM CLR 03/M03 A2934 RMK AO2 SLP902 T00331033", "KAID 230815Z AUTO 17004KT 10SM CLR 15/09 A3007 RMK AO2 T01530085", "KAIG 230815Z AUTO 15007KT 10SM CLR 10/09 A2984 RMK AO2 T01030086", "KAIK 230815Z AUTO 00000KT 10SM CLR 07/04 A3015 RMK AO2 T00690037", "KAIO 230815Z AUTO 16009G14KT 10SM CLR 18/13 A2953 RMK AO2", "KAIT 230815Z AUTO 00000KT 10SM CLR 04/03 A2961 RMK AO2", "KAIZ 230756Z AUTO 17009KT 10SM CLR 19/13 RMK AO2 SLPNO T01940128 $", "KAJG 230815Z AUTO 18011KT 10SM BKN060 19/11 A3000 RMK AO2 T01910112", "KAJO 230808Z AUTO 00000KT 10SM SCT025 15/13 A2980 RMK AO2", "KAJR 230815Z AUTO 02004KT 10SM CLR 07/06 A3020 RMK AO2 T00700055", "KAJZ 230815Z AUTO 24013G17KT 10SM VCTS SCT070 BKN075 OVC090 16/04 A2943 RMK AO2 LTG DSNT NE AND SW T01580039", "KAKH 230754Z AUTO 01005KT 10SM CLR 08/04 A3018 RMK AO2 SLP218 T00830039", "KAKO 230753Z AUTO 24013KT 10SM CLR 13/M06 A2937 RMK AO2 SLP890 T01331056 $", "KAKQ 230754Z AUTO VRB03KT 10SM CLR 11/09 A3017 RMK AO2 SLP216 T01060089", "KAKR 230754Z AUTO 17004KT 10SM CLR 14/04 A3016 RMK AO2 SLP208 T01440044", "KALB 230751Z 00000KT 10SM BKN250 06/03 A3031 RMK AO2 SLP264 T00610033", "KALI 230753Z AUTO 16007KT 10SM CLR 21/19 A2985 RMK AO2 SLP107 T02060189", "KALK 230756Z AUTO 23023G33KT 10SM CLR 17/11 A2987 RMK AO2 PK WND 23033/0755 SLP027 T01720106", "KALM 230815Z AUTO 16016G22KT 10SM FEW041 SCT075 BKN085 20/09 A2979 RMK AO2", "KALN 230815Z AUTO 14009KT 10SM SCT090 19/11 A2986 RMK AO2 T01860110", "KALO 230754Z AUTO 15013KT 10SM FEW080 18/10 A2968 RMK AO2 SLP045 T01830100", "KALS 230752Z AUTO 24028G55KT 4SM -RA SCT050 BKN090 11/00 A2971 RMK AO2 PK WND 21055/0746 RAB48 SLP970 P0000 T01110000", "KALW 230753Z AUTO 18009KT 10SM BKN100 06/02 A2981 RMK AO2 SLP098 T00610022 401000056 $", "KALX 230815Z AUTO 00000KT 10SM CLR 08/07 A3016 RMK AO2 T00750074", "KAMA 230753Z AUTO 22015KT 10SM CLR 19/11 A2966 RMK AO2 PK WND 22027/0654 SLP989 T01940106", "KAMG 230753Z AUTO 00000KT 10SM BKN026 08/06 A3013 RMK AO2 SLP201 T00780056", "KAMN 230815Z AUTO 16005KT 10SM CLR 13/09 A3003 RMK AO2 T01290091", "KAMW 230753Z AUTO 14010KT 10SM CLR 17/11 A2962 RMK AO2 SLP022 T01670106", "KANB 230753Z AUTO 05003KT 10SM CLR 08/07 A3017 RMK AO2 SLP215 T00780072", "KAND 230756Z AUTO 00000KT 10SM CLR 07/04 A3020 RMK AO2 SLP221 T00720039", "KANE 230815Z AUTO 15007KT 10SM CLR 17/08 A2962 RMK AO2", "KANJ 230755Z AUTO 08003KT 10SM CLR 10/08 A2997 RMK AO2 SLP149 T01000083", "KANK 230810Z AUTO 21012G18KT 10SM BKN080 BKN110 13/M03 A2967 RMK AO1 T01301030", "KANQ 230815Z AUTO 00000KT 10SM BKN048 BKN055 11/10 A3005 RMK AO2", "KANW 230815Z AUTO 15009KT 10SM CLR 12/04 A2935 RMK AO2 T01180040", "KAOH 230753Z AUTO 16007KT 10SM CLR 12/08 A3011 RMK AO2 SLP192 T01220083", "KAOO 230753Z AUTO 00000KT 10SM CLR 02/00 A3025 RMK AO2 SLP246 T00170000", "KAPA 230753Z 18010KT 10SM FEW220 15/M03 A2942 RMK AO2 SLP894 T01501033", "KAPC 230754Z AUTO VRB03KT 10SM CLR 10/03 A2985 RMK AO2 SLP100 T01000028 402440094", "KAPF 230753Z AUTO 04006KT 8SM CLR 19/19 A3001 RMK AO2 SLP162 T01940194 PWINO $", "KAPN 230754Z AUTO 19006KT 10SM CLR 15/09 A3000 RMK AO2 SLP157 T01500089", "KAPS 230816Z AUTO 00000KT 10SM CLR 15/14 A3006 RMK AO2", "KAQO 230815Z AUTO VRB05KT 10SM OVC023 21/17 A2985 RMK AO2", "KAQP 230813Z AUTO 15007KT 10SM 11/04 A2951 RMK AO2", "KAQV 230757Z AUTO 16003KT 10SM CLR 17/15 A2996 RMK AO2 SLP144 T01720150", "KAQW 230752Z AUTO 00000KT 10SM CLR 02/02 A3032 RMK AO2 SLP271 T00220017", "KAQX 230815Z AUTO 00000KT 10SM CLR 09/07 A3013 RMK AO2", "KARA 230753Z AUTO 13007KT 10SM BKN045 18/15 A3001 RMK AO2 SLP162 T01780150", "KARB 230753Z AUTO 00000KT 8SM CLR 06/04 A3008 RMK AO2 SLP186 T00560039", "KARG 230756Z AUTO 18017G21KT 10SM CLR 20/13 A2991 RMK AO2 SLP128 T02000128", "KARM 230815Z AUTO 14004KT 10SM CLR 17/17 A2990 RMK AO2 T01720170 TSNO", "KARR 230752Z AUTO 15007KT 10SM CLR 14/11 A2989 RMK AO2 SLP119 T01440111", "KART 230756Z AUTO 00000KT 10SM CLR 13/02 A3023 RMK AO2 SLP235 T01330022", "KARV 230815Z AUTO 16006KT 10SM CLR 16/09 A2979 RMK AO2 T01550092", "KARW 230815Z AUTO 35004KT 10SM CLR 12/10 A3011 RMK AO2", "KASD 230753Z AUTO 00000KT 10SM CLR 13/11 A3007 RMK AO2 SLP181 T01280111", "KASE 230753Z AUTO 17012G27KT 10SM -RA BKN060 OVC070 10/M02 A2952 RMK AO2 PK WND 16037/0714 SLP887 P0000 T01001017", "KASH 230756Z AUTO 00000KT 10SM CLR 04/04 A3032 RMK AO2 SLP274 T00440044 $", "KASJ 230815Z AUTO 33004KT 10SM CLR 11/11 A3014 RMK AO2 T01110111", "KASL 230815Z AUTO 00000KT 10SM FEW033 SCT041 20/16 A2991 RMK AO2 T01970160 TSNO $", "KASN 230815Z AUTO 00000KT 10SM CLR 07/06 A3017 RMK AO2 T00660063", "KAST 230755Z AUTO 13003KT 10SM BKN037 OVC047 07/06 A2994 RMK AO2 SLP138 T00720061 401440067", "KASW 230815Z AUTO 00000KT 10SM CLR 15/10 A3003 RMK AO2 T01510098", "KASX 230817Z AUTO 00000KT 1 1/2SM BR CLR 03/03 A2970 RMK AO2 T00280028", "KATA 230815Z AUTO 15006KT 10SM BKN037 20/17 A2990 RMK AO2 SLP026 T02020166 $", "KATL 230752Z 09004KT 10SM FEW250 11/05 A3018 RMK AO2 SLP217 T01110050", "KATP 230815Z AUTO 14007G14KT 10SM SCT050 SCT055 24/15 A3004 RMK A01", "KATS 230815Z AUTO 20007KT 10SM CLR 17/12 A2975 RMK AO2", "KATT 230751Z AUTO VRB04KT 10SM BKN022 21/18 A2988 RMK AO2 SLP105 T02110178", "KATY 230753Z AUTO 16009KT 10SM CLR 12/06 A2948 RMK AO2 SLP979 T01170056", "KAUG 230807Z AUTO 16004KT 1/4SM FG VV002 07/06 A3033 RMK AO2 T00670061", "KAUH 230815Z AUTO 15008KT 10SM CLR 13/09 A2940 RMK AO2 T01270085", "KAUM 230816Z AUTO 14005KT 10SM CLR 15/09 A2967 RMK AO2", "KAUN 230815Z AUTO 35005KT 10SM CLR 08/00 A2982 RMK A01", "KAUO 230756Z AUTO 08003KT 10SM CLR 09/06 A3017 RMK AO2 SLP238 T00940056", "KAUS 230753Z 19006KT 10SM FEW250 20/18 A2987 RMK AO2 SLP104 T02000178", "KAUW 230754Z AUTO A2980 RMK AO2 SLPNO PWINO FZRANO $", "KAVC 230815Z AUTO 36005KT 10SM CLR 09/09 A3024 RMK AO2 T00900087", "KAVK 230815Z AUTO 19013KT 10SM CLR 23/10 A2952 RMK AO2 PWINO", "KAVL 230754Z AUTO 00000KT 10SM CLR 03/02 A3024 RMK AO2 SLP231 T00330017", "KAVP 230754Z A3028 RMK AO2 SLPNO $", "KAVQ 230815Z AUTO 24004KT 10SM OVC039 20/13 A2977 RMK AO2 T02010133", "KAVX 230801Z AUTO 27019KT 9SM OVC007 13/11 A2980 RMK AO2 CIG 006V010 T01280106", "KAWG 230815Z AUTO 16012KT 10SM CLR 17/13 A2972 RMK AO2", "KAWM 230753Z AUTO 18011KT 10SM CLR 19/12 A2999 RMK AO2 SLP150 T01890117", "KAWO 230810Z AUTO 00000KT 10SM BKN015 BKN041 OVC050 06/06 A2994 RMK AO2", "KAXA 230815Z AUTO 15015G20KT 10SM CLR 17/10 A2958 RMK A01", "KAXH 230815Z AUTO 00000KT 10SM CLR 18/17 A2992 RMK AO2 T01800172", "KAXN 230753Z AUTO 15006KT 10SM CLR 12/06 A2957 RMK AO2 SLP011 T01220056", "KAXS 230815Z AUTO 19011KT 10SM CLR 23/12 A2967 RMK AO2 T02270116", "KAXV 230815Z AUTO 15006KT 10SM CLR 12/08 A3010 RMK AO2", "KAXX 230815Z AUTO 19013G24KT 170V240 10SM SCT043 BKN050 BKN080 10/01 A2979 RMK AO2 T00990014", "KAYS 230815Z AUTO 00000KT 10SM SCT024 08/07 A3013 RMK AO2 T00790072", "KAZC 230815Z AUTO 30009G19KT 7SM RA SCT007 BKN022 OVC030 05/03 A2968 RMK AO2 P0002", "KAZE 230815Z AUTO 00000KT 10SM CLR 08/06 A3013 RMK AO2 T00820064", "KAZO 230753Z 17005KT 10SM CLR 16/11 A3003 RMK AO2 SLP166 T01610106 $", "KBAB 230755Z AUTO 33013KT 10SM CLR 13/02 A2981 RMK AO2 SLP097 T01300016 402310125 VISNO RWY33 $", "KBAC 230815Z AUTO 03008KT 10SM CLR 06/05 A2952 RMK AO2", "KBAD 230755Z AUTO 15008KT 10SM BKN037 19/15 A2994 RMK AO2 SLP141 T01850146", "KBAF 230753Z AUTO 00000KT 10SM CLR 05/04 A3031 RMK AO2 SLP265 T00500039", "KBAM 230815Z AUTO 35004KT 10SM BKN037 BKN048 OVC110 02/00 A2979 RMK AO1", "KBAN 230752Z AUTO 00000KT 10SM CLR M03/M07 A2980 RMK AO2 SLP069 T10331072 401391033 $", "KBAX 230815Z AUTO 16005KT 10SM CLR 13/09 A3007 RMK AO2 T01250087", "KBAZ 230751Z AUTO 20008KT 10SM CLR 20/18 A2986 RMK AO2 SLP103 T02000178", "KBBB 230816Z AUTO 14005KT 10SM CLR 13/06 A2953 RMK AO2", "KBBD 230815Z AUTO 18011KT 10SM FEW024 FEW033 FEW040 20/15 A2983 RMK AO2", "KBBG 230815Z AUTO 17008KT 10SM FEW035 19/14 A2981 RMK AO2", "KBBP 230815Z AUTO 00000KT 10SM CLR 08/08 A3015 RMK AO2", "KBBW 230753Z AUTO 08005KT 10SM CLR 08/02 A2936 RMK AO2 SLP923 T00780022", "KBCB 230815Z AUTO 00000KT 10SM CLR 03/03 A3026 RMK AO2 T00290029", "KBCE 230815Z AUTO 29009KT 1/2SM SN FZFG VV009 M01/M02 A2959 RMK AO2 P0002 T10061017", "KBCK 230815Z AUTO 17005KT 10SM CLR 18/10 A2975 RMK AO2 T01760097", "KBCR 230758Z AUTO 00000KT 10SM CLR 07/05 A3014 RMK AO2 SLP164 T00670050 $", "KBDE 230753Z AUTO 05004KT 10SM CLR 08/04 A2962 RMK AO2 SLP035 T00830039", "KBDG 230815Z AUTO 23017G23KT 5SM 09/08 A2962 RMK AO1 T00900075", "KBDH 230815Z AUTO 11008KT 10SM CLR 12/06 A2958 RMK AO2", "KBDL 230751Z 00000KT 10SM FEW030 BKN250 07/05 A3031 RMK AO2 SLP262 T00670050", "KBDN 230745Z AUTO 10005KT 10SM SCT028 SCT040 02/M00 A2988 RMK AO2", "KBDR 230752Z AUTO 01006KT 10SM BKN047 11/09 A3029 RMK AO2 SLP256 T01110089", "KBDU 230815Z AUTO 16005KT 10SM CLR 11/M06 A2935 RMK AO2", "KBEA 230815Z AUTO 16005KT 10SM CLR 21/18 A2987 RMK AO2 T02090180 PWINO", "KBEC 230815Z AUTO 17014G18KT 10SM CLR 21/12 A2953 RMK AO2 T02100116", "KBED 230751Z AUTO 00000KT 8SM CLR 06/04 A3031 RMK AO2 SLP276 T00560044", "KBEH 230753Z AUTO 14005KT 10SM CLR 16/11 A2998 RMK AO2 SLP148 T01560111", "KBFD 230753Z AUTO 00000KT 10SM CLR 04/01 A3024 RMK AO2 SLP238 T00440011", "KBFF 230753Z AUTO 24005KT 10SM CLR 09/M05 A2932 RMK AO2 SLP886 T00891050", "KBFI 230753Z 00000KT 10SM SCT042 SCT050 OVC065 07/06 A2993 RMK AO2 SLP134 T00670056 401110056", "KBFL 230754Z AUTO 34007KT 10SM FEW070 14/07 A2978 RMK AO2 SLP079 T01440072 402440144", "KBFM 230753Z AUTO 32004KT 10SM CLR 13/11 A3012 RMK AO2 SLP200 T01280111", "KBGD 230751Z AUTO 21010G21KT 10SM CLR 23/11 A2962 RMK AO2 PK WND 18026/0701 SLP984 T02280106", "KBGE 230815Z AUTO 00000KT 10SM CLR 08/05 A3013 RMK AO2 T00780049", "KBGF 230815Z AUTO 17004KT 10SM CLR 11/08 A3013 RMK A01", "KBGM 230753Z AUTO 14005KT 10SM CLR 07/02 A3026 RMK AO2 SLP249 T00720017", "KBGR 230753Z 00000KT 1/8SM R15/1400V2200FT FG VV001 06/06 A3032 RMK AO2 SLP269 T00560056", "KBHB 230756Z AUTO 00000KT 8SM CLR 06/06 A3034 RMK AO2 SLP275 T00560056 PNO $", "KBHC 230815Z AUTO 00000KT 10SM CLR A3013 RMK AO2", "KBHK 230751Z AUTO 10014KT 10SM BKN110 07/03 A2939 RMK AO2 SLP952 T00720028", "KBHM 230753Z 00000KT 10SM SCT250 11/07 A3016 RMK AO2 SLP208 T01060072", "KBID 230756Z AUTO 04006KT 10SM FEW120 14/12 A3029 RMK AO2 SLP257 T01390117", "KBIE 230815Z AUTO 15010KT 10SM CLR 18/13 A2945 RMK AO2 T01750129", "KBIF 230755Z AUTO 13010G21KT 10SM CLR 23/09 A2979 RMK AO2 SLP021 T02260087 $", "KBIH 230756Z AUTO 32009KT 10SM CLR 07/M07 A2977 RMK AO2 SLP044 T00671072 402610067", "KBIJ 230815Z AUTO 00000KT 10SM CLR 04/03 A3015 RMK AO2", "KBIL 230753Z 31016KT 5SM -RA BR BKN017 OVC022 04/03 A2945 RMK AO2 SLP976 P0002 T00440033", "KBIS 230752Z AUTO 06012G21KT 10SM CLR 08/04 A2948 RMK AO2 SLP989 T00830039", "KBIV 230753Z AUTO 18008KT 10SM CLR 16/11 A2999 RMK AO2 SLP153 T01560111", "KBIX 230755Z AUTO 00000KT 10SM CLR 15/14 A3007 RMK AO2 SLP186 T01500137", "KBJC 230815Z AUTO 22007KT 10SM CLR 15/M04 A2938 RMK AO2", "KBJI 230815Z AUTO 00000KT 10SM CLR 06/04 A2957 RMK AO2 T00620040", "KBJJ 230756Z AUTO 00000KT 9SM CLR 06/05 A3017 RMK AO2 SLP216 T00610050", "KBKB 230752Z AUTO VRB03KT 10SM CLR 17/16 A2996 RMK AO2 SLP172 T01720156", "KBKD 230815Z AUTO 20012G17KT 10SM CLR 23/12 A2975 RMK AO2 T02330124", "KBKE 230753Z AUTO 36003KT 10SM OVC060 M02/M03 A2978 RMK AO2 SLP097 T10221028 400891028", "KBKF 230755Z 20016KT 10SM FEW220 15/M03 A2939 RMK AO2A SLP890 T01481035", "KBKL 230753Z AUTO 15011KT 10SM CLR 16/07 A3013 RMK AO2 SLP202 T01560072", "KBKS 230815Z AUTO 15007KT 10SM CLR 20/19 A2984 RMK AO2 SLP066 T02000193 $", "KBKT 230815Z AUTO 36006KT 10SM CLR 09/07 A3020 RMK AO1 T00880070", "KBKV 230753Z AUTO 00000KT 10SM CLR 16/14 A3008 RMK AO2 SLP186 T01560139", "KBKW 230751Z AUTO 13004KT 10SM CLR 10/01 A3023 RMK AO2 SLP220 T01000011", "KBKX 230756Z AUTO 14011KT 10SM CLR A2949 RMK AO2 SLPNO FZRANO $", "KBLF 230752Z AUTO 11003KT 10SM CLR 09/00 A3024 RMK AO2 SLP225 T00890000", "KBLH 230752Z AUTO 24017KT 10SM CLR 21/10 A2968 RMK AO2 PK WND 27034/0701 SLP043 T02060100 403170206 TSNO", "KBLI 230825Z AUTO 02003KT 1 3/4SM BR FEW001 02/02 A2993 RMK AO2 T00170017", "KBLM 230756Z AUTO 36004KT 10SM FEW039 13/13 A3026 RMK AO2 SLP246 T01280128", "KBLU 230752Z AUTO VRB03KT 10SM CLR 03/M08 A2984 RMK AO2 SLP078 T00281078 401330028 $", "KBLV 230755Z 16009KT 10SM BKN080 19/11 A2987 RMK AO2A SLP115 T01880109 $", "KBMC 230810Z AUTO 10SM BKN018 BKN110 04/02 A2961 RMK AO1 T00370018", "KBMG 230753Z AUTO 15005KT 10SM FEW060 15/10 A3004 RMK AO2 SLP168 T01500100", "KBMI 230756Z AUTO 16015KT 10SM CLR 16/11 A2990 RMK AO2 SLP117 T01560111", "KBML 230819Z AUTO 00000KT 10SM BKN001 M01/M02 A3034 RMK AO2 T10061017", "KBMQ 230753Z AUTO 19011G19KT 10SM OVC017 21/18 A2988 RMK AO2 SLP101 T02110178", "KBMT 230815Z AUTO 14004KT 10SM BKN038 OVC050 21/18 A2994 RMK AO2 T02050180", "KBNA 230753Z 18005KT 10SM CLR 14/09 A3012 RMK AO2 SLP194 T01390089 $", "KBNL 230815Z AUTO 00000KT 10SM BKN034 07/05 A3014 RMK AO2", "KBNO 230753Z AUTO 23004KT 10SM FEW060 SCT120 M03/M06 A2982 RMK AO2 SLP107 T10331056 400891033 $", "KBNW 230815Z AUTO 13011KT 10SM CLR 14/11 A2963 RMK AO2", "KBOI 230753Z 28008KT 10SM CLR 03/M01 A2972 RMK AO2 SLP065 T00331011", "KBOK 230756Z AUTO 00000KT 10SM -RA SCT049 OVC060 09/07 A3003 RMK AO2 RAB43 SLP169 P0000 T00890072 $", "KBOS 230754Z 36004KT 10SM OVC220 11/09 A3032 RMK AO2 SLP266 T01060089", "KBOW 230815Z AUTO 36004KT 10SM CLR 18/15 A3007 RMK AO2", "KBPC 230815Z AUTO 22011KT 10SM CLR 20/10 A2960 RMK AO2", "KBPG 230815Z AUTO 18017G22KT 10SM CLR 20/12 A2977 RMK AO2 T01990125", "KBPI 230753Z AUTO 35010KT 10SM OVC110 M01/M05 A2952 RMK AO2 SLP955 T10111050", "KBPK 230753Z AUTO 22013G22KT 10SM CLR 20/13 A2983 RMK AO2 SLP092 T02000128", "KBPT 230753Z AUTO 16009KT 10SM SCT042 SCT049 21/18 A2994 RMK AO2 SLP137 T02110178", "KBQK 230815Z AUTO 00000KT 10SM CLR 09/09 A3011 RMK AO2 T00920086", "KBQP 230815Z AUTO 00000KT 10SM CLR 18/14 A3002 RMK AO2 T01800140", "KBQX 230815Z AUTO 17023KT 9SM 26/20 A2990 RMK A01", "KBRD 230753Z AUTO 00000KT 9SM CLR 06/04 A2960 RMK AO2 SLP026 T00610039", "KBRG 230815Z AUTO 19012KT 10SM CLR 16/09 A2974 RMK AO2 T01620085", "KBRL 230753Z AUTO 14008KT 10SM CLR 17/12 A2977 RMK AO2 SLP076 T01670117", "KBRO 230753Z AUTO 16007KT 10SM CLR 23/20 A2987 RMK AO2 SLP114 T02280200", "KBRY 230815Z AUTO 00000KT 10SM SCT210 BKN230 14/09 A3009 RMK AO2 T01350092", "KBTA 230815Z AUTO 14012G17KT 10SM CLR 18/12 A2948 RMK AO2 T01830124", "KBTL 230753Z AUTO 17006KT 10SM CLR 14/10 A3004 RMK AO2 SLP170 T01390100", "KBTN 230815Z AUTO 02006KT 9SM CLR 04/00 A2947 RMK AO2", "KBTP 230756Z AUTO 07004KT 10SM CLR 04/03 A3021 RMK AO2 SLP237 T00390028 TSNO", "KBTR 230753Z AUTO 08005KT 10SM CLR 16/14 A3004 RMK AO2 SLP170 T01560144 $", "KBTV 230754Z AUTO 00000KT 10SM CLR 08/04 A3029 RMK AO2 SLP258 T00780039", "KBUF 230754Z 14006KT 10SM CLR 12/03 A3019 RMK AO2 SLP221 T01170028 $", "KBUR 230812Z 12008KT 10SM SCT017 BKN026 17/12 A2977 RMK AO2 T01720122", "KBUU 230815Z AUTO 18003KT 10SM CLR 16/12 A2989 RMK AO2 T01570115 PWINO", "KBUY 230754Z AUTO 00000KT 10SM CLR 07/06 A3018 RMK AO2 SLP217 T00720061", "KBVI 230815Z AUTO 12003KT 10SM CLR 11/03 A3020 RMK AO2 T01130026", "KBVN 230815Z AUTO 11004KT 10SM CLR 11/07 A2941 RMK AO2 T01110070", "KBVO 230753Z AUTO 18012G20KT 10SM CLR 23/14 A2964 RMK AO2 SLP025 T02330139", "KBVS 230815Z AUTO 00000KT 10SM BKN038 05/05 A2993 RMK A01", "KBVU 230815Z AUTO 15/24000015G21KT 10SM SCT038 BKN075 OVC110 16/04 A2963 RMK AO2", "KBVX 230756Z AUTO 12007KT 10SM CLR 19/13 A2991 RMK AO2 SLP124 T01940133", "KBVY 230753Z AUTO 00000KT 7SM CLR 06/06 A3031 RMK AO2 SLP259 T00610056", "KBWG 230753Z AUTO 00000KT 10SM CLR 12/09 A3010 RMK AO2 SLP190 T01220094", "KBWI 230754Z 00000KT 10SM BKN250 08/06 A3025 RMK AO2 SLP242 T00830061 $", "KBWP 230815Z AUTO 10005KT 10SM CLR 05/M01 A2950 RMK AO2", "KBWW 230815Z AUTO 08013KT 10SM SCT110 06/04 A2941 RMK AO2", "KBXA 230815Z AUTO 00000KT 10SM CLR 11/09 A3009 RMK AO2 T01050091", "KBXK 230815Z AUTO 20010G15KT 10SM BKN035 OVC045 21/15 A2969 RMK A01", "KBYG 230753Z AUTO 35011KT 10SM BKN060 OVC085 07/04 A2940 RMK AO2 SLP925 T00720039", "KBYI 230753Z AUTO 25012G24KT 10SM SCT014 BKN120 02/00 A2962 RMK AO2 SLP029 T00220000", "KBYL 230815Z AUTO 13006KT 10SM CLR 10/07 A3017 RMK AO1", "KBYS 230755Z AUTO 25022KT 10SM CLR 15/06 A2965 RMK AO2 PK WND 24028/43 SLP020 T01500063 402530148", "KBYY 230815Z AUTO 17006KT 10SM SCT034 OVC044 22/19 A2990 RMK AO2 T02180196", "KBZN 230818Z AUTO 28010KT 1 1/4SM -SN BR FEW003 OVC014 01/00 A2959 RMK AO2 P0001 T00060000", "KC07 230815Z AUTO 21014G31KT 10SM SCT021 01/M01 A2957 RMK AO2 LTG DSNT SW", "KC09 230815Z AUTO 17010G14KT 10SM CLR 16/11 A2989 RMK AO2 T01550113", "KC29 230815Z AUTO 16005KT 10SM CLR 16/12 A2983 RMK AO1 T01600117", "KC35 230815Z AUTO 15008KT 10SM CLR 16/11 A2980 RMK AO2 T01610111 PWINO", "KC65 230815Z AUTO 17004KT 10SM CLR 15/10 A3000 RMK A01", "KC75 230815Z AUTO 17010G16KT 10SM CLR 16/13 A2984 RMK AO2 T01600127", "KC83 230815Z AUTO 23011KT 10SM CLR 13/05 A2984 RMK AO2", "KC99 230811Z AUTO 26012G21KT 210V280 10SM CLR 02/M09 A2961 RMK AO2 LTG DSNT SW", "KCAD 230815Z AUTO 18004KT 10SM CLR 14/10 A2999 RMK AO2 T01360097", "KCAE 230756Z 16003KT 10SM CLR 07/06 A3015 RMK AO2 SLP208 T00720056", "KCAG 230816Z AUTO VRB03KT 1 1/4SM -SN BR OVC010 01/M01 A2949 RMK AO2 P0000 T00061006", "KCAK 230751Z 15005KT 10SM FEW250 13/06 A3017 RMK AO2 SLP212 T01280056", "KCAO 230755Z AUTO 22020G31KT 10SM CLR 17/09 A2964 RMK AO2 PK WND 22031/0755 SLP966 T01720089", "KCAR 230754Z AUTO 00000KT 10SM CLR 06/04 A3028 RMK AO2 SLP260 T00610044", "KCAV 230815Z AUTO 14016KT 10SM 16/11 A2961 RMK A01", "KCBE 230815Z AUTO 04003KT 10SM CLR 02/02 A3029 RMK AO2 T00240018", "KCBF 230815Z AUTO 14011KT 10SM CLR 16/11 A2948 RMK AO2", "KCBG 230815Z AUTO 00000KT 10SM CLR 16/06 A2962 RMK AO2", "KCBK 230815Z AUTO 19013G18KT 10SM CLR 15/M04 A2939 RMK AO2 T01501040", "KCBM 230755Z AUTO 14005KT 10SM CLR 13/10 A3005 RMK AO2 SLP177 T01270104 TSNO $", "KCCA 230815Z AUTO 00000KT 10SM BKN041 BKN048 14/12 A2990 RMK AO2", "KCCB 230815Z AUTO 25007KT 10SM BKN007 OVC012 14/14 A2979 RMK AO2", "KCCO 230815Z AUTO 00000KT 10SM CLR 07/05 A3017 RMK AO2 T00700049", "KCCR 230753Z AUTO 26006KT 10SM CLR 13/04 A2986 RMK AO2 SLP096 T01280044 402280128", "KCCU 230815Z AUTO 16016G22KT 10SM SCT025 BKN030 BKN040 02/M03 A2972 RMK AO2", "KCCY 230815Z AUTO 14011KT 10SM SCT070 BKN080 16/10 A2968 RMK AO2", "KCDA 230815Z AUTO 00000KT 10SM 05/03 A3034 RMK AO2 T00460025", "KCDC 230826Z AUTO 25007KT 1 1/4SM -SN BR OVC009 00/M01 A2963 RMK AO2 RAE0755SNB0755 T00001006 PNO $", "KCDD 230815Z AUTO 00000KT 10SM CLR 05/03 A2967 RMK AO2", "KCDH 230815Z AUTO 14005KT 10SM BKN042 BKN049 19/17 A2996 RMK AO2", "KCDI 230815Z AUTO 00000KT 10SM CLR 04/04 A3018 RMK AO2 T00380038", "KCDJ 230751Z AUTO 14006KT 20/12 A2966 RMK AO1 SLP029 T02000122", "KCDN 230815Z AUTO 00000KT 10SM CLR 10/07 A3016 RMK AO2", "KCDR 230753Z AUTO 00000KT 10SM CLR 03/M02 A2935 RMK AO2 SLP931 T00331022", "KCDS 230753Z AUTO 10SM CLR 21/11 A2967 RMK AO2 SLP020 T02110111", "KCDW 230803Z AUTO 00000KT 10SM BKN030 OVC039 09/06 A3028 RMK AO2 T00890061", "KCEC 230756Z AUTO 00000KT 7SM CLR 08/07 A3002 RMK AO2 SLP168 T00780067 401500078", "KCEF 230755Z AUTO 33003KT 10SM CLR 04/04 A3029 RMK AO2 SLP264 T00440043", "KCEU 230754Z AUTO 34005KT 10SM CLR 10/07 A3020 RMK AO2 SLP221 T01000072", "KCEW 230753Z AUTO 00000KT 9SM CLR 08/07 A3013 RMK AO2 SLP203 T00780067", "KCEY 230815Z AUTO 15007G13KT 10SM BKN060 17/12 A3004 RMK A01", "KCEZ 230753Z AUTO 19024G35KT 6SM HZ FEW041 FEW080 SCT110 15/02 A2961 RMK AO2 PK WND 17035/0706 SLP954 T01500017", "KCFD 230815Z AUTO 16007KT 10SM SCT037 20/17 A2990 RMK AO2 T02000167", "KCFE 230815Z AUTO 15007KT 10SM BKN022 BKN036 BKN048 15/08 A2960 RMK AO2", "KCFJ 230815Z AUTO 14009KT 10SM SCT055 SCT070 13/07 A3001 RMK AO2 T01320066", "KCFO 230815Z AUTO 18011KT 10SM CLR 16/M05 A2940 RMK AO2 T01581055", "KCFS 230815Z AUTO 17004KT 10SM CLR 16/09 A3006 RMK AO2 T01550090", "KCFV 230752Z AUTO 17018G27KT 10SM CLR 23/13 A2962 RMK AO2 PK WND 17029/0735 SLP023 T02330133 PWINO $", "KCGC 230815Z AUTO 12/11 A3009 RMK AO2 PWINO PNO", "KCGE 230815Z AUTO 35008KT 10SM OVC027 12/11 A3020 RMK A01", "KCGF 230815Z AUTO 14008KT 10SM CLR 15/06 A3017 RMK AO2 T01530062", "KCGI 230753Z AUTO 16012KT 10SM BLDU CLR 18/11 A2995 RMK AO2 SLP139 T01830111", "KCGZ 230756Z AUTO 19012G19KT 10SM CLR 21/13 A2972 RMK AO2 SLP051 T02060133 $", "KCHA 230753Z AUTO 16003KT 7SM CLR 08/07 A3017 RMK AO2 SLP212 T00830067", "KCHK 230810Z AUTO 18015G24KT 10SM CLR 23/12 A2962 RMK AO2 T02290123", "KCHO 230753Z AUTO 00000KT 10SM CLR 06/04 A3023 RMK AO2 SLP234 T00560039 $", "KCHS 230756Z 01005KT 10SM CLR 13/11 A3011 RMK AO2 SLP194 T01280111", "KCIC 230815Z AUTO 33013KT 10SM CLR 12/00 A2987 RMK AO1", "KCID 230752Z AUTO 16013KT 10SM FEW080 18/11 A2972 RMK AO2 SLP059 T01780111 $", "KCIN 230815Z AUTO 14005KT 10SM FEW045 11/10 A2955 RMK AO2", "KCIR 230815Z AUTO 19012KT 10SM CLR 19/12 A2997 RMK AO2 T01880122", "KCIU 230756Z AUTO 12008KT 10SM CLR 10/08 A2997 RMK AO2 SLP148 T01000083", "KCJR 230815Z AUTO 00000KT 10SM CLR 05/04 A3025 RMK AO2 T00450038", "KCKB 230753Z AUTO 00000KT 10SM CLR 06/03 A3020 RMK AO2 SLP219 T00610028", "KCKC 230817Z AUTO 05005KT 10SM CLR 07/06 A2974 RMK AO2", "KCKF 230815Z AUTO 00000KT 10SM CLR 05/03 A3016 RMK AO2 T00500030", "KCKI 230815Z AUTO 00000KT 10SM CLR 08/07 A3013 RMK AO2", "KCKM 230815Z AUTO 17009G14KT 10SM FEW035 SCT043 BKN050 19/13 A3002 RMK A01", "KCKN 230815Z AUTO 07006KT 10SM CLR 07/03 A2955 RMK AO2", "KCKP 230815Z AUTO 15004KT 10SM CLR 13/10 A2953 RMK AO2 T01310098", "KCKV 230752Z AUTO 16006KT 10SM OVC060 17/11 A3007 RMK AO2 SLP178 T01720106", "KCKZ 230815Z AUTO 00000KT 10SM SCT027 BKN034 05/05 A3027 RMK AO2", "KCLE 230751Z 17007KT 10SM FEW250 13/07 A3013 RMK AO2 SLP215 T01330067 $", "KCLI 230815Z AUTO 17007KT 10SM CLR 14/11 A2986 RMK AO2 T01400106", "KCLK 230815Z AUTO 19010KT 10SM CLR 20/11 A2962 RMK AO2", "KCLL 230753Z AUTO 17009KT 10SM SCT038 20/17 A2988 RMK AO2 SLP114 T02000167", "KCLM 230753Z AUTO 25010KT 10SM OVC050 08/03 A2993 RMK AO2 SLP136 T00830028 401330056", "KCLS 230815Z AUTO 00000KT 10SM FEW030 SCT038 SCT045 04/03 A2994 RMK AO2", "KCLT 230752Z 33004KT 10SM CLR 08/06 A3018 RMK SLP217 T00780061 $", "KCLW 230815Z AUTO 08003KT 10SM CLR 17/13 A3006 RMK AO2", "KCMA 230822Z AUTO 13005KT 9SM SCT021 15/12 A2976 RMK AO2 T01500117", "KCMD 230815Z AUTO VRB04KT 10SM CLR 15/10 A3014 RMK AO2", "KCMH 230751Z 12004KT 10SM CLR 13/08 A3014 RMK AO2 SLP202 T01330083 $", "KCMI 230753Z AUTO 14012KT 10SM CLR 16/11 A2994 RMK AO2 SLP134 T01560106", "KCMR 230815Z AUTO 22021G35KT 8SM SCT024 BKN033 OVC055 09/05 A2971 RMK AO2", "KCMX 230753Z AUTO 13005KT 10SM CLR 12/08 A2977 RMK AO2 SLP082 T01170083", "KCMY 230758Z AUTO 17011G17KT 7SM R29/5500FT FEW130 19/10 A2975 RMK AO2 SLP073 T01850104 $", "KCNB 230815Z AUTO 00000KT 10SM CLR 05/00 A2951 RMK AO2 T00490001", "KCNC 230815Z AUTO 14011KT 10SM CLR 17/12 A2964 RMK AO2", "KCNI 230815Z AUTO 00000KT 10SM CLR 08/04 A3020 RMK AO2 T00850040", "KCNK 230755Z AUTO 17020G28KT 10SM CLR 21/11 A2940 RMK AO2 PK WND 16028/0752 SLP941 T02060111", "KCNM 230753Z AUTO 21010KT 10SM SCT120 18/11 A2973 RMK AO2 SLP018 T01780106", "KCNO 230753Z AUTO 26004KT 10SM BKN016 BKN022 16/13 A2980 RMK AO2 SLP087 T01610133 402330156", "KCNU 230752Z AUTO 18020G29KT 10SM FEW120 23/13 A2962 RMK AO2 PK WND 19029/0743 SLP015 T02330128 $", "KCNY 230823Z AUTO 29023G29KT 10SM -RA FEW008 BKN012 OVC040 05/05 A2946 RMK AO2 PK WND 30036/0756 P0002 T00500050", "KCOD 230812Z AUTO 02010KT 10SM FEW007 OVC070 03/01 A2946 RMK AO2", "KCOE 230756Z AUTO 03006KT 10SM SCT015 03/02 A2974 RMK AO2 SLP098 T00330017 400890028 PNO $", "KCOF 230755Z AUTO 33006KT 10SM CLR 21/21 A3001 RMK AO2 SLP167 T02110209", "KCOM 230815Z AUTO 20012G16KT 10SM CLR 21/12 A2980 RMK AO2 T02070120", "KCON 230751Z AUTO 00000KT 10SM CLR 03/02 A3032 RMK AO2 SLP270 T00280022", "KCOQ 230815Z AUTO 11005KT 1/4SM FG OVC002 07/07 A2966 RMK AO2 TSNO", "KCOS 230754Z 18021G33KT 10SM FEW080 FEW200 15/M02 A2948 RMK AO2 PK WND 18033/0745 SLP898 T01501022 $", "KCOT 230753Z AUTO 15007KT 8SM CLR 22/18 A2984 RMK AO2 SLP096 T02220183", "KCOU 230754Z AUTO 15011KT 10SM CLR 19/12 A2975 RMK AO2 SLP065 T01940122", "KCPC 230815Z AUTO 00000KT 10SM CLR 14/10 A3013 RMK AO2 T01400102", "KCPK 230815Z AUTO 36003KT 15/12 A3012 RMK AO2 T01460120", "KCPR 230753Z AUTO 17012KT 10SM OVC070 09/01 A2942 RMK AO2 SLP917 T00890011", "KCPS 230753Z AUTO 15010KT 10SM FEW090 18/12 A2986 RMK AO2 SLP108 T01830117 $", "KCPT 230815Z AUTO 17011G16KT 10SM CLR 20/17 A2982 RMK A01", "KCPU 230815Z AUTO 00000KT 10SM CLR 07/M01 A2982 RMK AO2 T00701012", "KCPW 230815Z AUTO 22047G78KT 1 3/4SM -SN OVC002 M01/M01 A2978 RMK AO2 VIS 1/2V5 LTG DSNT E SE AND W", "KCQB 230815Z AUTO 17013G19KT 10SM CLR 23/13 A2967 RMK AO2 T02270135", "KCQC 230753Z AUTO 22022G32KT 10SM CLR 11/09 A2983 RMK AO2 PK WND 22035/0739 SLP018 T01110089", "KCQF 230815Z AUTO 00000KT 10SM CLR 11/08 A3011 RMK AO2", "KCQM 230816Z AUTO 00000KT 10SM CLR 06/03 A2963 RMK AO2", "KCQT 230747Z AUTO 00000KT 10SM SCT023 SCT055 17/13 A2978 RMK AO2 SLP084 T01670133 402110167", "KCQW 230815Z AUTO 00000KT 10SM CLR 08/07 A3015 RMK AO2 PWINO", "KCQX 230818Z AUTO 03003KT 10SM FEW003 14/13 A3032 RMK AO2 T01390128", "KCRE 230753Z AUTO 01006KT 10SM CLR 14/11 A3010 RMK AO1 SLP193 T01390111", "KCRG 230753Z AUTO 32004KT 10SM CLR 14/12 A3009 RMK AO2 SLP190 T01440117", "KCRP 230751Z 16005KT 10SM FEW250 21/18 A2987 RMK AO2 SLP113 T02060183", "KCRQ 230811Z AUTO 23011KT 9SM BKN007 BKN011 OVC032 17/16 A2980 RMK AO2 RAE03 CIG 005V008 P0000 T01670156", "KCRS 230753Z AUTO 16012KT 10SM CLR 22/15 A2986 RMK AO2 SLP108 T02170150 $", "KCRW 230754Z 00000KT 10SM CLR 07/06 A3017 RMK AO2 SLP213 T00670056", "KCRX 230815Z AUTO 14005KT 10SM SCT060 14/10 A3007 RMK AO2", "KCSG 230751Z AUTO 00000KT 10SM CLR 09/06 A3016 RMK AO2 SLP209 T00890056", "KCSM 230753Z AUTO 20018KT 10SM CLR 21/12 A2963 RMK AO2 SLP006 T02110117", "KCSQ 230815Z AUTO 15010G16KT 10SM CLR 18/12 A2959 RMK AO2", "KCSV 230753Z AUTO 00000KT 10SM CLR 11/06 A3017 RMK AO2 SLP208 T01110056", "KCTB 230807Z AUTO 35019KT 3/4SM -SN BR OVC005 M01/M01 A2966 RMK AO2 P0000 T10061006", "KCTJ 230815Z AUTO 00000KT 10SM CLR 05/04 A3022 RMK AO2 T00510042", "KCTY 230815Z AUTO 00000KT 10SM CLR 07/05 A3011 RMK AO2 T00650053", "KCTZ 230815Z AUTO 35003KT 10SM CLR 14/12 A3013 RMK AO2 T01360118", "KCUB 230753Z AUTO 00000KT 10SM CLR 09/07 A3016 RMK AO2 SLP212 T00940072", "KCUH 230815Z AUTO 18012G19KT 10SM CLR 23/13 A2964 RMK AO2 T02260132", "KCUL 230813Z AUTO 14008KT 10SM SCT060 17/11 A2999 RMK AO2", "KCUT 230753Z AUTO 31005KT 10SM FEW120 11/M03 A2942 RMK AO2 SLP907 T01061033", "KCVC 230815Z AUTO 00000KT 10SM CLR 05/03 A3017 RMK AO2", "KCVG 230752Z 18007KT 10SM OVC180 14/09 A3011 RMK AO2 SLP188 T01440089", "KCVH 230815Z AUTO 00000KT 10SM CLR 11/06 A2987 RMK A01", "KCVN 230756Z AUTO 22010KT 10SM CLR 16/10 A2975 RMK AO2 SLP035 T01610100", "KCVO 230756Z AUTO 21003KT 10SM BKN055 OVC075 07/06 A2999 RMK AO2 RAB12E23 SLP156 P0001 T00670061 401440067", "KCVS 230755Z AUTO 24006KT 10SM FEW130 15/11 A2973 RMK AO2 SLP012 T01520106 $", "KCVX 230815Z AUTO 17004KT 10SM CLR 16/11 A2996 RMK AO2 T01600105", "KCWA 230815Z AUTO 15006KT 10SM CLR 13/09 A2982 RMK AO2", "KCWC 230815Z AUTO 18012KT 10SM CLR 22/12 A2972 RMK AO2 T02200117", "KCWF 230815Z AUTO 12007KT 10SM CLR 17/16 A2998 RMK AO2 T01680156", "KCWI 230756Z AUTO 14011KT 10SM CLR 16/13 A2981 RMK AO2 SLP094 T01610128", "KCWN 230814Z AUTO 27013G32KT 10SM FEW210 14/M04 A2927 RMK AO2 WSHFT 13 SLP725 $", "KCWV 230815Z AUTO 00000KT 10SM CLR 07/06 A3014 RMK AO2 T00680060", "KCXE 230815Z AUTO 36005KT 10SM CLR 09/07 A3020 RMK AO1 T00850070", "KCXO 230753Z AUTO 14003KT 10SM CLR 18/18 A2991 RMK AO2 SLP127 T01830178", "KCXP 230815Z AUTO 00000KT 10SM CLR M00/M05 A2987 RMK AO2", "KCXU 230815Z AUTO 00000KT 10SM CLR 06/03 A3013 RMK AO1 T00600034", "KCXW 230815Z AUTO 19011G18KT 10SM OVC034 21/15 A2989 RMK A01", "KCXY 230756Z AUTO 00000KT 10SM CLR 06/04 A3027 RMK AO2 SLP253 T00610039", "KCYD 230813Z AUTO 13010G15KT 10SM SCT042 23/13 A3008 RMK A02 T02320135", "KCYS 230753Z AUTO 00000KT 10SM BKN120 09/M03 A2940 RMK AO2 SLP880 T00941028", "KCZL 230815Z AUTO 00000KT 10SM CLR 06/05 A3021 RMK AO2", "KCZT 230815Z AUTO 15006KT 10SM CLR 20/20 A2981 RMK AO2", "KD07 230756Z AUTO 07008KT 06/01 A2937 RMK AO1 SLP949 T00610011", "KD25 230815Z AUTO 16007KT 10SM CLR 14/09 A2978 RMK AO2 T01390090", "KD39 230815Z AUTO 11003KT 10SM CLR 11/06 A2958 RMK AO2 T01110060", "KD50 230815Z AUTO 07019G25KT 10SM OVC013 05/03 A2961 RMK AO2", "KD55 230815Z AUTO 05016G26KT 10SM BKN008 BKN038 07/07 A2964 RMK AO2", "KD57 230815Z AUTO 06011KT 10SM FEW036 SCT100 BKN120 07/04 A2947 RMK AO2", "KD60 230815Z AUTO 07020G25KT 10SM OVC010 05/05 A2956 RMK AO2", "KD73 230815Z AUTO 00000KT 10SM CLR 05/ A3020 RMK AO2 T0046////", "KD95 230815Z AUTO 19003KT 10SM CLR 15/07 A3008 RMK AO2 T01470066", "KDAA 230755Z AUTO 00000KT 10SM CLR 06/05 A3023 RMK AO2 SLP240 T00560049", "KDAB 230753Z 32005KT 10SM CLR 16/14 A3006 RMK AO2 SLP179 T01610139", "KDAG 230750Z AUTO 25018G29KT 10SM CLR 16/08 A2968 RMK AO2 PK WND 24034/0700 SLP029 T01610078 402830161", "KDAL 230753Z 18013G22KT 10SM FEW015 FEW250 22/16 A2981 RMK AO2 SLP088 T02220161", "KDAN 230753Z AUTO 00000KT 10SM CLR 04/03 A3020 RMK AO2 SLP220 T00440028", "KDAW 230751Z AUTO 32006KT 10SM CLR 06/04 A3030 RMK AO2 SLP259 T00610039", "KDAY 230756Z 18007KT 10SM BKN190 OVC250 16/09 A3012 RMK AO2 SLP194 T01560089", "KDBN 230815Z AUTO 00000KT 10SM CLR 05/04 A3017 RMK AO2", "KDBQ 230753Z AUTO 15012KT 10SM CLR 16/12 A2978 RMK AO2 SLP080 T01610117", "KDCA 230752Z 01005KT 10SM BKN250 10/08 A3025 RMK AO2 SLP243 T01000078 $", "KDCM 230815Z AUTO 00000KT 10SM CLR 06/03 A3018 RMK AO2", "KDCU 230753Z AUTO 13004KT 10SM CLR 13/11 A3012 RMK AO2 SLP195 T01280106", "KDCY 230815Z AUTO 17009KT 10SM BKN070 18/11 A3003 RMK AO2 T01780107", "KDDC 230752Z AUTO 22015G24KT 10SM CLR 22/08 A2948 RMK AO2 SLP948 T02170083 $", "KDDH 230754Z AUTO 00000KT 10SM CLR 04/M01 A3030 RMK AO2 SLP262 T00441006", "KDEC 230754Z AUTO 16014G21KT 10SM CLR 18/12 A2990 RMK AO2 SLP122 T01780117", "KDED 230815Z AUTO 30005KT 10SM CLR 15/13 A3008 RMK AO2 T01500134", "KDEH 230815Z AUTO 16008G14KT 10SM FEW049 BKN060 BKN070 16/10 A2971 RMK AO2", "KDEN 230753Z 18017KT 10SM FEW200 16/M04 A2938 RMK AO2 SLP870 T01611039", "KDEQ 230753Z AUTO VRB04KT 10SM 22/16 A2987 RMK AO2 SLP110 T02170156 $", "KDET 230753Z 18006KT 9SM CLR 16/09 A3010 RMK AO2 SLP189 T01560089", "KDEW 230753Z AUTO 05004KT 10SM CLR M01/M02 A2974 RMK AO2 SLP082 T10061022 401001011", "KDFI 230753Z AUTO 15004KT 10SM CLR 14/09 A3008 RMK AO2 SLP183 T01440089", "KDFW 230753Z 18017KT 10SM FEW020 FEW250 22/17 A2978 RMK AO2 PK WND 18026/0657 SLP076 T02170167", "KDGW 230753Z AUTO 31007KT 10SM OVC110 13/01 A2939 RMK AO2 SLP902 T01280011", "KDHN 230753Z AUTO 08003KT 10SM CLR 08/06 A3016 RMK AO2 SLP211 T00780061", "KDHT 230753Z AUTO 22011KT 10SM CLR 16/10 A2963 RMK AO2 SLP979 T01560100", "KDIJ 230822Z AUTO 03005KT 1 1/4SM -SN BR BKN014 BKN022 OVC030 M01/M03 A2957 RMK AO2 P0000", "KDIK 230821Z AUTO 06014KT 9SM BKN005 OVC110 06/04 A2944 RMK AO2 T00610044", "KDKB 230815Z AUTO 16009KT 10SM CLR 14/12 A2989 RMK AO2 T01350118", "KDKK 230753Z AUTO 17011KT 10SM CLR 16/02 A3018 RMK AO2 SLP217 T01610022", "KDKR 230815Z AUTO 13004KT 10SM CLR 19/19 A2990 RMK AO2", "KDKX 230815Z AUTO 00000KT M1/4SM FG OVC001 07/07 A3018 RMK A01", "KDLF 230755Z AUTO 09010KT 10SM CLR 18/15 A2980 RMK AO2 SLP081 T01770148 $", "KDLH 230755Z 12011KT 9SM CLR 08/07 A2967 RMK AO2 SLP052 T00830067", "KDLN 230802Z AUTO 11006KT 1SM -SN BR OVC014 M01/M01 A2958 RMK AO2 P0001 T10111011", "KDLO 230815Z AUTO 00000KT 10SM BKN090 12/07 A2980 RMK AO2 T01230066", "KDLS 230753Z AUTO 29006KT 10SM CLR 09/03 A2988 RMK AO2 SLP120 T00940028 401560083", "KDLZ 230815Z AUTO 15003KT 10SM CLR 11/06 A3014 RMK AO2", "KDMA 230755Z AUTO 25014KT 10SM CLR 21/13 A2977 RMK AO2 SLP082 T02060131 $", "KDMH 230754Z AUTO 11/06 A3026 RMK AO1 SLP247 T01060061", "KDMN 230753Z AUTO 22010KT 10SM CLR 19/11 A2981 RMK AO2 SLP022 T01890111", "KDMO 230753Z AUTO 16013KT 10SM CLR 20/12 A2969 RMK AO2 SLP046 T02000122", "KDMW 230815Z AUTO 00000KT 10SM CLR 07/06 A3026 RMK AO2", "KDNA 230815Z AUTO 22008KT 10SM CLR 20/08 A2982 RMK AO2", "KDNL 230753Z AUTO 33003KT 10SM CLR 11/03 A3016 RMK AO2 SLP209 T01110028", "KDNN 230815Z AUTO 00000KT 8SM CLR 06/05 A3019 RMK AO2 T00550048", "KDNV 230815Z AUTO 14008KT 10SM OVC055 17/11 A2997 RMK AO2 T01700106", "KDOV 230755Z 35007KT 10SM BKN024 OVC032 11/11 A3020 RMK AO2A SLP230 T01130113", "KDPA 230752Z 16008KT 10SM CLR 16/11 A2990 RMK AO2 SLP119 T01610111", "KDPL 230815Z AUTO 01007KT 10SM CLR 13/10 A3012 RMK AO2", "KDQH 230815Z AUTO 00000KT 10SM CLR 07/05 A3015 RMK AO2 T00660052", "KDRA 230753Z AUTO 02007KT 10SM OVC090 11/03 A2969 RMK AO2 SLP018 T01110028 402560106", "KDRI 230815Z AUTO 12004KT 10SM CLR 18/17 A2998 RMK AO2 T01760173 $", "KDRM 230815Z AUTO 00000KT 10SM CLR 08/08 A2999 RMK AO2 T00780077", "KDRO 230753Z AUTO 20007KT 10SM FEW065 12/03 A2970 RMK AO2 SLP988 T01170033", "KDRT 230753Z AUTO 09009KT 10SM CLR 19/14 A2981 RMK AO2 SLP086 T01890139", "KDSF 230815Z AUTO 08007KT 10SM CLR 23/14 A3007 RMK A01", "KDSM 230754Z 14011KT 10SM CLR 18/11 A2962 RMK AO2 SLP024 T01830111", "KDSV 230754Z AUTO 14009KT 10SM CLR 06/03 A3024 RMK AO2 SLP249 T00610028", "KDTA 230815Z AUTO 17010KT 10SM OVC003 01/01 A2961 RMK AO1", "KDTL 230815Z AUTO 12003KT 10SM CLR 08/04 A2954 RMK AO2", "KDTN 230753Z AUTO 16009KT 10SM BKN040 21/16 A2995 RMK AO2 SLP138 T02060156", "KDTO 230753Z AUTO 16011KT 10SM CLR 22/16 A2979 RMK AO2 SLP078 T02170161", "KDTS 230753Z AUTO 00000KT 10SM CLR 16/09 A3011 RMK AO2 SLP194 T01560094", "KDTW 230753Z 16004KT 10SM SCT230 12/08 A3009 RMK AO2 SLP189 T01220083 $", "KDUA 230815Z AUTO 18013KT 10SM CLR 22/15 A2980 RMK AO2", "KDUB 230816Z AUTO 29006KT 10SM CLR M02/M07 A2949 RMK AO2", "KDUC 230815Z AUTO 17013KT 10SM CLR 21/12 A2971 RMK AO2 T02100124", "KDUH 230815Z AUTO 17003KT 10SM CLR 13/08 A3009 RMK AO2 T01260082", "KDUJ 230753Z AUTO 08003KT 10SM CLR 09/01 A3023 RMK AO2 SLP232 T00890011", "KDUX 230815Z AUTO 20011KT 10SM CLR 18/10 A2964 RMK AO2 T01770096", "KDVK 230810Z AUTO 00000KT 10SM CLR 10/07 A3016 RMK AO2", "KDVL 230756Z AUTO 05012G19KT 10SM CLR 07/05 A2959 RMK AO2 SLP041 T00670050", "KDVN 230752Z AUTO 15010G19KT 10SM CLR 18/12 A2980 RMK AO2 SLP083 T01780122", "KDVO 230815Z AUTO 32014G21KT 10SM CLR 14/03 A2988 RMK AO2", "KDVP 230813Z AUTO 13007KT 10SM CLR 08/05 A2954 RMK AO2 T00820050", "KDVT 230753Z AUTO 22012KT 10SM CLR 21/13 A2968 RMK AO2 SLP029 T02060128", "KDWA 230815Z AUTO 34011G16KT 10SM CLR 15/M01 A2985 RMK AO2", "KDWH 230753Z AUTO 18003KT 10SM CLR 21/18 A2990 RMK AO2 SLP124 T02110178", "KDWU 230756Z AUTO 11003KT 10SM CLR 10/ A3016 RMK AO2 SLP212 T0100", "KDWX 230810Z AUTO 13004KT 1 1/4SM -SN OVC008 A2953 RMK AO2", "KDXR 230753Z AUTO 00000KT 9SM BKN027 08/06 A3031 RMK AO2 SLP263 T00780056", "KDXX 230815Z AUTO 10008KT 10SM CLR 08/03 A2952 RMK AO2", "KDYA 230815Z AUTO 00000KT 5SM BR CLR 10/10 A3012 RMK AO2 T00960096", "KDYB 230815Z AUTO 00000KT 10SM CLR 11/11 A3012 RMK AO2", "KDYL 230754Z AUTO 03004KT 10SM BKN027 BKN034 09/06 A3025 RMK AO2 SLP243 T00940061", "KDYR 230756Z AUTO 10SM CLR 17/12 A3001 RMK AO2 SLP165 T01720122", "KDYS 230755Z AUTO 18020G26KT 10SM CLR 21/11 A2972 RMK AO2 PK WND 19026/38 SLP019 T02140108", "KDYT 230815Z AUTO 07010G15KT 9SM OVC006 10/09 A2969 RMK AO2", "KDZB 230815Z AUTO 18007KT 10SM OVC020 22/17 A2987 RMK AO2 T02160172", "KDZJ 230815Z AUTO 00000KT 7SM CLR 02/02 A3023 RMK AO2 T00210019", "KE11 230815Z AUTO 19010KT 10SM CLR 18/13 A2979 RMK AO2 T01760128", "KE16 230815Z AUTO 32008KT 10SM SCT019 11/07 A2988 RMK AO2", "KE38 230815Z AUTO 20005KT 10SM CLR 18/05 A2995 RMK AO2 T01800045", "KE41 230815Z AUTO 17014G21KT 10SM CLR 19/12 A2982 RMK AO2 T01920122", "KE42 230815Z AUTO 21021G26KT 10SM CLR 20/10 A2958 RMK AO2 T02050104", "KEAN 230810Z AUTO 22003KT 10SM SCT120 12/M02 A2937 RMK AO2 T01151022", "KEAR 230756Z AUTO 14008KT 10SM -RA CLR 10/03 A2937 RMK AO2 RAB46 SLP929 P0000 T01000033", "KEAT 230755Z AUTO 33008KT 10SM FEW090 07/M02 A2981 RMK AO2 SLP097 T00671022 401440056", "KEAU 230756Z AUTO 15007KT 10SM CLR 17/09 A2970 RMK AO2 SLP054 T01670089", "KEBA 230815Z AUTO 30003KT 10SM CLR 07/04 A3020 RMK AO2 T00740044", "KEBG 230815Z AUTO 12004KT 10SM CLR 20/19 A2986 RMK AO2 T01990186 PWINO", "KEBS 230815Z AUTO 14014KT 10SM CLR 16/11 A2959 RMK AO2", "KECG 230754Z AUTO 34011KT 10SM OVC014 15/13 A3010 RMK AO2 SLP192 T01500133", "KECP 230753Z AUTO 00000KT 10SM CLR 09/07 A3011 RMK AO1 SLP207 T00940067", "KECS 230815Z AUTO 02009KT 10SM BKN110 12/M03 A2936 RMK AO2", "KECU 230815Z AUTO 15012KT 10SM CLR 18/16 A2992 RMK AO2", "KEDE 230815Z AUTO 36009KT 10SM SCT070 14/14 A3011 RMK AO2 T01440140", "KEDJ 230815Z AUTO 17006KT 10SM SCT050 14/09 A3013 RMK A01", "KEDN 230815Z AUTO 00000KT 10SM CLR 08/08 A3013 RMK AO2 T00750075", "KEDU 230820Z AUTO 35011G19KT 10SM CLR 15/M02 A2983 RMK AO1", "KEDW 230755Z AUTO 24018KT 10SM BKN060 14/08 A2973 RMK AO2 SLP054 T01410078 402090130", "KEED 230756Z AUTO 26014G23KT 10SM CLR 22/07 A2961 RMK AO2 PK WND 27028/0716 SLP000 T02220067 403170200", "KEEN 230756Z AUTO 00000KT 10SM CLR 02/02 A3033 RMK AO2 SLP278 T00220022 FZRANO $", "KEEO 230753Z AUTO 01008KT 9SM -RA BKN020 BKN027 OVC040 03/02 A2946 RMK AO2 SLP921 P0008 T00330022", "KEET 230753Z AUTO 00000KT 8SM CLR 10/08 A3014 RMK AO2 SLP202 T01000083", "KEFK 230815Z AUTO 20004KT 10SM CLR 07/02 A3033 RMK AO2 T00700024", "KEGE 230818Z AUTO 19007KT 10SM OVC095 14/M03 A2946 RMK AO2 WSHFT 0753", "KEGT 230815Z AUTO 19018G23KT 10SM CLR 23/12 A2955 RMK AO2", "KEGV 230815Z AUTO 16004KT 10SM CLR 13/08 A2981 RMK AO2 T01270081", "KEHA 230815Z AUTO 22026G35KT 10SM CLR 20/09 A2954 RMK AO2 T02020092", "KEHO 230815Z AUTO 00000KT 10SM CLR 04/03 A3020 RMK AO2 T00370033", "KEHR 230756Z AUTO 18017G25KT 10SM OVC060 19/11 A3003 RMK AO2 SLP166 T01940106", "KEIK 230815Z AUTO 16003KT 10SM CLR 09/M07 A2935 RMK AO2 T00851075 PWINO", "KEKM 230815Z AUTO 14005KT 9SM CLR 14/12 A3002 RMK AO2 T01380116", "KEKN 230751Z AUTO 00000KT 8SM CLR 00/M02 A3025 RMK AO2 SLP249 T00001017", "KEKO 230756Z AUTO VRB03KT 10SM OVC050 01/M02 A2970 RMK AO2 SLP063 T00111022 401670000", "KEKQ 230756Z AUTO 18005KT 10SM CLR 12/08 A3017 RMK AO2 SLP208 T01170078", "KEKS 230815Z AUTO 04011KT 1SM -SN OVC003 M01/M01 A2961 RMK AO2", "KEKX 230815Z AUTO 14004KT 10SM CLR 14/10 A3010 RMK AO2 T01370098", "KEKY 230756Z AUTO 13005KT 10SM CLR 13/07 A3015 RMK AO2 SLP055 T01330072", "KELA 230815Z AUTO 17003KT 10SM CLR 18/17 A2989 RMK AO2 T01770165", "KELD 230753Z AUTO 17007KT 10SM CLR 19/16 A2997 RMK AO2 SLP146 T01890156", "KELK 230815Z AUTO 19012KT 10SM OVC240 20/12 A2963 RMK AO2 SLP325 T02040116 $", "KELM 230753Z AUTO 00000KT 9SM CLR 01/00 A3027 RMK AO2 SLP251 T00060000", "KELN 230753Z AUTO 31011KT 10SM BKN080 06/M01 A2981 RMK AO2 SLP100 T00561011 401330056 $", "KELO 230815Z AUTO 00000KT 10SM CLR 03/02 A2968 RMK AO2", "KELP 230751Z 19012G26KT 10SM FEW120 SCT180 23/08 A2980 RMK AO2 PK WND 19026/0743 SLP019 T02280083", "KELY 230822Z AUTO 32004KT 1 1/4SM -SN BR OVC013 M01/M02 A2966 RMK AO2 P0001 T10111017", "KELZ 230756Z AUTO 00000KT 10SM CLR 08/01 A3025 RMK AO2 SLP244 T00830011", "KEMM 230815Z AUTO 29004KT 10SM CLR M02/M03 A2954 RMK AO2", "KEMP 230753Z AUTO 17017G26KT 10SM CLR 21/13 A2953 RMK AO2 PK WND 15029/0739 SLP990 T02110133", "KEND 230755Z AUTO 16019KT 10SM CLR 23/12 A2955 RMK AO2 PK WND 16027/0657 SLP993 T02250118", "KENV 230756Z AUTO 31017KT 10SM BKN085 OVC110 05/M03 A2963 RMK AO2 SLP036 T00501028", "KENW 230753Z AUTO 19009KT 10SM CLR 18/12 A2990 RMK AO2 SLP123 T01780117", "KEOE 230815Z AUTO 02004KT 10SM CLR 08/02 A3020 RMK AO2", "KEPH 230753Z AUTO 32008KT 10SM CLR 06/M03 A2978 RMK AO2 SLP087 T00611028 401500044", "KEQA 230815Z AUTO 17014KT 10SM CLR 21/12 A2955 RMK AO2", "KEQY 230753Z AUTO 04004KT 10SM CLR 10/05 A3016 RMK AO2 SLP221 T01000050", "KERI 230751Z AUTO 16013KT 10SM CLR 13/03 A3017 RMK AO2 SLP214 T01330033", "KERV 230815Z AUTO 17008KT 10SM OVC012 20/18 A2989 RMK AO2 T01980176", "KERY 230815Z AUTO 19012G17KT 10SM CLR 15/10 A2992 RMK AO2 T01520095", "KESC 230756Z AUTO 18003KT 10SM CLR 12/12 A2988 RMK AO2 SLP123 T01220117 PNO $", "KESF 230753Z AUTO 15004KT 10SM CLR 17/15 A3000 RMK AO2 SLP155 T01720150", "KESN 230823Z AUTO 36004KT 10SM OVC028 11/10 A3027 RMK AO2 T01060101", "KEST 230752Z AUTO 15010KT 10SM CLR 12/07 A2957 RMK AO2 SLP007 T01170072", "KETB 230815Z AUTO 17007KT 10SM CLR 15/11 A2988 RMK AO2", "KETC 230815Z AUTO 33003KT 10SM CLR 11/10 A3014 RMK AO2 T01150100", "KETH 230813Z AUTO 11007KT 10SM 03/M03 A2952 RMK AO2", "KETN 230815Z AUTO 18007KT 10SM CLR 20/12 A2978 RMK AO2 T02020122", "KEUF 230758Z AUTO 00000KT 10SM CLR 06/05 A3016 RMK AO2 SLP211 T00560050", "KEUG 230754Z AUTO 19003KT 10SM BKN050 08/07 A2998 RMK AO2 SLP153 T00780067 401500072 $", "KEVM 230821Z AUTO 04004KT 10SM CLR 07/05 A2966 RMK AO2", "KEVU 230815Z AUTO 14010KT 10SM CLR 18/13 A2956 RMK AO2 T01850131", "KEVV 230754Z 17006KT 10SM OVC065 18/11 A3003 RMK AO2 SLP167 T01830111", "KEVW 230753Z AUTO 28003KT 10SM OVC037 M01/M03 A2956 RMK AO2 SLP975 T10111033 $", "KEWB 230753Z AUTO 00000KT 10SM CLR 09/09 A3029 RMK AO2 SLP258 T00940094 $", "KEWK 230756Z AUTO 17019KT 10SM CLR 21/12 A2951 RMK AO2 PK WND 17030/0705 SLP977 T02110122", "KEWN 230754Z AUTO 36007KT 10SM SCT065 15/12 A3009 RMK AO2 SLP188 T01500117", "KEWR 230751Z 02007KT 10SM BKN036 OVC210 12/08 A3027 RMK AO2 SLP250 T01220083", "KEXX 230815Z AUTO 07007KT 10SM CLR 04/04 A3019 RMK AO2 T00440044", "KEYE 230753Z AUTO 00000KT 10SM CLR 13/10 A3004 RMK AO2 SLP167 T01330100", "KEYF 230815Z AUTO 34005KT 10SM CLR 13/10 A3013 RMK AO2 T01320105", "KEYW 230753Z AUTO 04007KT 10SM CLR 23/20 A2998 RMK AO2 SLP151 T02330200", "KEZF 230815Z AUTO 00000KT 10SM CLR 05/05 A3022 RMK AO2 T00540051", "KEZM 230815Z AUTO 00000KT 10SM CLR 03/03 A3016 RMK AO2", "KEZZ 230815Z AUTO 15012KT 10SM CLR 19/12 A2962 RMK AO2 T01880123", "KF00 230815Z AUTO 18013G17KT 10SM CLR 21/15 A2982 RMK AO2 T02100155", "KF05 230815Z AUTO 20015KT 10SM CLR 24/12 A2967 RMK AO2 T02350121", "KF17 230815Z AUTO 15004KT 10SM SCT036 20/16 A2995 RMK AO2", "KF44 230815Z AUTO 17006KT 10SM CLR 20/15 A2987 RMK AO2", "KF46 230815Z AUTO 19012G17KT 10SM CLR 21/16 A2983 RMK AO2 T02100156", "KF70 230815Z AUTO 22004KT 10SM SCT011 BKN027 OVC049 14/13 A2981 RMK AO2", "KFAF 230755Z AUTO 36005KT 10SM CLR 12/10 A3014 RMK AO2 SLP210 T01240099 $", "KFAM 230756Z AUTO 18014G19KT 10SM CLR 18/11 A2989 RMK AO2 SLP126 T01830111", "KFAR 230754Z COR 00000KT 10SM CLR 02/M01 A2953", "KFAT 230753Z 29010KT 10SM FEW200 14/06 A2978 RMK AO2 SLP083 T01390056 402440139", "KFAY 230753Z 02008KT 10SM CLR 13/11 A3015 RMK AO2 SLP203 T01330106 $", "KFBG 230755Z AUTO 00000KT 10SM CLR 12/10 A3014 RMK AO2 SLP208 T01240103 $", "KFBL 230815Z AUTO 14010KT 10SM CLR 17/08 A2964 RMK AO2", "KFCI 230756Z AUTO 01003KT 10SM CLR 09/09 A3021 RMK AO2 SLP242 T00890089", "KFCM 230753Z AUTO 13008KT 10SM CLR 16/07 A2961 RMK AO2 SLP021 T01560072 $", "KFCS 230755Z AUTO 21014G22KT 10SM CLR 16/M04 A2944 RMK AO2 SLP901 T01561038 $", "KFDK 230820Z AUTO 00000KT 1SM -SN VV007 03/03 A3026 RMK AO2", "KFDR 230753Z AUTO 18012KT 10SM CLR 22/11 A2964 RMK AO2 SLP014 T02220106", "KFDW 230815Z AUTO 03005KT 10SM CLR 11/06 A3016 RMK AO1", "KFDY 230753Z AUTO 15007KT 10SM CLR 13/09 A3010 RMK AO2 SLP186 T01330089", "KFEP 230815Z AUTO 15011KT 10SM CLR 16/14 A2984 RMK AO2 T01550142", "KFET 230815Z AUTO 12010KT 10SM CLR 18/13 A2946 RMK AO2 T01750125", "KFFC 230753Z AUTO 00000KT 10SM CLR 05/03 A3018 RMK AO2 SLP221 T00500033", "KFFL 230815Z AUTO 16012KT 10SM CLR 19/11 A2971 RMK A01", "KFFM 230815Z AUTO 10008KT 10SM CLR 10/02 A2952 RMK AO2", "KFFO 230755Z AUTO 00000KT 10SM CLR 11/08 A3008 RMK AO2 SLP186 T01100080", "KFFT 230753Z AUTO 00000KT 10SM CLR 13/08 A3012 RMK AO2 SLP193 T01280078", "KFFX 230815Z AUTO 15003KT 10SM CLR 16/11 A2998 RMK AO2 T01600109", "KFFZ 230754Z AUTO 19009KT 10SM FEW046 SCT060 22/12 A2969 RMK AO2 SLP031 T02170117", "KFGN 230815Z AUTO 06008KT 10SM CLR 09/04 A2965 RMK AO2", "KFGX 230815Z AUTO 20004KT 10SM CLR 13/07 A3016 RMK AO2 T01330071", "KFHB 230815Z AUTO 33005KT 10SM CLR 14/12 A3010 RMK AO2", "KFHR 230753Z AUTO 00000KT 6SM BR CLR 04/04 A2993 RMK AO2 SLP135 T00440039 401330039", "KFHU 230755Z AUTO 21005KT 10SM FEW041 18/09 A2987 RMK AO2 PK WND 21026/30 SLP054 T01830094", "KFIG 230754Z AUTO 35004KT 10SM CLR 03/01 A3025 RMK AO2 SLP245 T00280011", "KFIN 230815Z AUTO 00000KT 10SM CLR 13/13 A3007 RMK AO2 T01300125", "KFIT 230752Z AUTO 00000KT 10SM CLR 06/04 A3032 RMK AO2 SLP267 T00560039", "KFKA 230815Z AUTO 16010G16KT 10SM CLR 16/09 A2971 RMK AO2 T01600087", "KFKL 230756Z AUTO 11004KT 10SM CLR 07/03 A3022 RMK AO2 SLP235 T00720028", "KFKN 230815Z AUTO 33003KT 10SM CLR 11/10 A3015 RMK AO2 T01060098", "KFKR 230815Z AUTO 16008KT 10SM FEW045 BKN050 14/10 A3001 RMK AO2", "KFKS 230815Z AUTO 17008KT 10SM CLR 17/11 A2994 RMK AO2 T01700110", "KFLD 230753Z AUTO 18010KT 10SM CLR 16/11 A2986 RMK AO2 SLP108 T01610106", "KFLG 230757Z AUTO 23026G42KT 10SM FEW026 BKN048 OVC060 10/02 A2972 RMK AO2 PK WND 23046/0733 SLP980 T01000022", "KFLL 230753Z 34005KT 10SM FEW025 21/19 A2998 RMK AO2 SLP153 T02060189 $", "KFLO 230753Z AUTO 01003KT 10SM CLR 12/09 A3013 RMK AO2 SLP202 T01220094", "KFLP 230756Z AUTO VRB06G14KT 10SM CLR 21/14 A2983 RMK AO2 SLP096 T02060139", "KFLY 230815Z AUTO 18021G27KT 10SM CLR 13/M03 A2952 RMK AO2 T01271029", "KFME 230819Z AUTO 00000KT 7SM CLR 04/03 A3028 RMK AO1", "KFMH 230756Z 00000KT 10SM CLR 11/11 A3030", "KFMM 230815Z AUTO 00000G10KT 10SM CLR 08/M06 A2935 RMK AO2", "KFMN 230753Z AUTO 22011KT 10SM CLR 16/03 A2963 RMK AO2 SLP980 T01560033", "KFMY 230753Z AUTO 05005KT 10SM CLR 19/18 A3002 RMK AO2 SLP169 T01940183", "KFNB 230753Z AUTO 14011KT 10SM CLR 19/13 A2951 RMK AO2 SLP985 T01940133", "KFNL 230756Z 35003KT 10SM CLR 12/M02 A2936 RMK AO2 SLP883 T01171022", "KFNT 230753Z AUTO 17005KT 10SM CLR 13/09 A3007 RMK AO2 SLP181 T01280089", "KFOA 230815Z AUTO 16012KT 10SM BKN055 18/11 A2997 RMK AO2", "KFOD 230756Z AUTO 12007KT 10SM CLR 16/09 A2960 RMK AO2 SLP029 T01560089", "KFOE 230753Z AUTO 10SM CLR 21/15 A2954 RMK AO2 SLP993 T02110150 $", "KFOK 230753Z AUTO 04007KT 10SM BKN046 OVC120 14/13 A3028 RMK AO2 SLP254 T01440128 $", "KFOT 230810Z AUTO 00000KT 9SM SCT014 07/07 A3002 RMK AO1", "KFOZ 230813Z AUTO 10003KT 10SM CLR 06/04 A2965 RMK AO2", "KFPK 230815Z AUTO 19006KT 10SM CLR 13/09 A3003 RMK AO2 T01310093", "KFPR 230753Z AUTO 29004KT 6SM BR CLR 18/17 A3002 RMK AO2 SLP164 T01830172", "KFPY 230815Z AUTO 00000KT 10SM CLR 07/06 A3012 RMK AO2 T00660055 TSNO", "KFQD 230815Z AUTO 30003KT 10SM CLR 06/03 A3022 RMK AO2", "KFRG 230753Z AUTO 02004KT 10SM OVC044 14/10 A3027 RMK AO2 SLP250 T01390100 $", "KFRH 230815Z AUTO 15003KT 10SM CLR 16/09 A3006 RMK AO1", "KFRI 230755Z AUTO 15017G25KT 10SM CLR 22/13 A2946 RMK AO2 PK WND 15027/12 SLP964 T02150134 FZRANO $", "KFRM 230756Z AUTO 15012KT 10SM CLR 14/08 A2958 RMK AO2 SLP016 T01440083", "KFRR 230815Z AUTO 00000KT 10SM CLR 02/02 A3024 RMK AO1", "KFSD 230756Z AUTO 08005KT 10SM CLR 13/07 A2948 RMK AO2 SLP977 T01280072", "KFSE 230815Z AUTO 10003KT 10SM CLR 06/03 A2956 RMK AO2", "KFSI 230755Z AUTO 19008KT 10SM CLR 21/12 A2964 RMK AO2 SLP026 T02140120", "KFSK 230815Z AUTO 18019G29KT 10SM BKN120 22/13 A2964 RMK AO2 T02230125", "KFSM 230753Z AUTO 00000KT 10SM CLR 22/14 A2981 RMK AO2 SLP088 T02220144", "KFSO 230815Z AUTO 00000KT 10SM CLR 09/04 A3028 RMK AO2 T00870036", "KFST 230753Z AUTO 16007KT 10SM CLR 18/13 A2978 RMK AO2 SLP038 T01780133 $", "KFSW 230815Z AUTO 15007KT 10SM OVC001 17/12 A2976 RMK AO2", "KFTK 230755Z AUTO 16008KT 10SM BKN210 16/10 A3007 RMK AO2 SLP180 T01550098", "KFTN 230815Z AUTO 15010KT 10SM CLR 21/18 A2983 RMK A01", "KFTW 230753Z 17015G22KT 10SM CLR 22/17 A2978 RMK AO2 SLP076 T02170172 $", "KFTY 230753Z 00000KT 10SM CLR 06/04 A3018 RMK AO2 SLP218 T00560044", "KFUL 230816Z AUTO 19004KT 10SM FEW029 BKN041 17/13 A2977 RMK AO2 T01720128", "KFVE 230753Z AUTO 18004KT 10SM CLR 08/03 A3027 RMK AO2 SLP250 T00780033", "KFVX 230815Z AUTO 00000KT 7SM CLR 03/03 A3022 RMK AO2 T00320030", "KFWA 230754Z 14004KT 10SM FEW150 BKN210 13/09 A3006 RMK AO2 SLP178 T01280094 $", "KFWB 230815Z AUTO VRB04KT 10SM CLR 20/13 A2980 RMK AO2", "KFWC 230815Z AUTO 15010G15KT OVC060 19/11 A2997 RMK AO1 T01850105 PWINO", "KFWN 230753Z AUTO 00000KT 8SM CLR 03/02 A3030 RMK AO2 SLP262 T00280022 $", "KFWS 230815Z AUTO 17012G20KT 10SM CLR 21/16 A2981 RMK AO2 T02130165", "KFWZ 230815Z AUTO 00000KT 10SM OVC015 M01/M02 A2945 RMK AO2", "KFXE 230753Z 00000KT 10SM CLR 20/19 A2999 RMK AO2 SLP157 T02000194 $", "KFXY 230815Z AUTO 14010KT 10SM CLR 15/09 A2963 RMK AO2", "KFYE 230815Z AUTO 17007KT 10SM SCT050 BKN055 18/12 A3002 RMK A01", "KFYG 230715Z AUTO 13008KT 10SM CLR 20/13 A2981 RMK AO2", "KFYJ 230815Z AUTO 00000KT 10SM CLR 10/09 A3019 RMK AO1 T01000091", "KFYM 230820Z AUTO 16005KT 10SM CLR 12/10 A3014 RMK A01", "KFYV 230753Z AUTO 18012KT 10SM CLR 21/13 A2980 RMK AO2 SLP075 T02110133", "KFZG 230815Z AUTO 00000KT 10SM CLR 06/06 A3014 RMK AO2 T00630056", "KGAD 230756Z AUTO 00000KT 10SM CLR 06/06 A3017 RMK AO2 SLP217 T00610056 $", "KGAG 230753Z AUTO 20016KT 10SM CLR 23/11 A2956 RMK AO2 SLP978 T02280106", "KGAI 230756Z AUTO 00000KT 10SM CLR 04/04 A3026 RMK AO2 SLP260 T00440044", "KGAO 230815Z AUTO 12003KT 10SM SCT044 13/12 A3007 RMK AO2 T01290115", "KGBD 230756Z AUTO 19012KT 10SM CLR 19/08 A2945 RMK AO2 SLP953 T01940083", "KGBG 230815Z AUTO 15006KT 10SM CLR 17/13 A2981 RMK AO2 T01650131", "KGBK 230815Z AUTO 15011KT 9SM BKN040 BKN060 25/17 A2997 RMK A01", "KGCC 230753Z AUTO 32004KT 10SM FEW070 07/02 A2940 RMK AO2 SLP925 T00720017", "KGCD 230815Z AUTO 00000KT 1SM -SN OVC003 00/00 A2983 RMK AO2 T00000000", "KGCK 230754Z AUTO 21018G24KT 10SM CLR 19/08 A2947 RMK AO2 PK WND 21029/0728 SLP941 T01890083", "KGCM 230815Z AUTO 19013G17KT 10SM CLR 22/10 A2971 RMK AO2", "KGCN 230754Z AUTO 22022G32KT 10SM SCT039 BKN048 OVC075 08/03 A2967 RMK AO2 PK WND 23047/0711 RAE12 SLP976 P0001 T00830028", "KGCY 230815Z AUTO 00000KT 10SM CLR 09/03 A3018 RMK A01", "KGDB 230815Z AUTO 09006KT 10SM CLR 11/06 A2954 RMK AO2 T01060061", "KGDJ 230815Z AUTO 16011G15KT 10SM CLR 22/16 A2980 RMK AO2 T02160162", "KGDP 230751Z AUTO 24023KT 10SM CLR 17/07 A2989 RMK AO2 PK WND 25026/0747 SLP048 T01720067", "KGDV 230814Z AUTO 05010KT 10SM FEW015 07/05 A2944 RMK AO2", "KGED 230812Z AUTO 03008KT 10SM OVC028 15/12 A3019 RMK AO2 T01500122", "KGEG 230753Z 25005KT 10SM FEW065 SCT140 01/M03 A2973 RMK AO2 SLP077 T00061033 400890006", "KGEV 230815Z AUTO 00000KT 10SM CLR 03/01 A3024 RMK AO2 T00320007", "KGEY 230753Z AUTO 31008KT 10SM SCT060 OVC080 08/05 A2940 RMK AO2 RAB06E31 SLP945 P0000 T00780050", "KGEZ 230753Z AUTO 14007KT 10SM CLR 16/11 A3006 RMK AO2 SLP174 T01610106", "KGFA 230805Z AUTO 31006KT 2SM -SN OVC006 00/M00 A2959 RMK AO2 SLP047 $", "KGFK 230753Z AUTO 01008KT 10SM CLR 05/03 A2955 RMK AO2 SLP012 T00500028 $", "KGFL 230753Z AUTO 00000KT 10SM CLR 01/00 A3030 RMK AO2 SLP265 T00110000", "KGGE 230815Z AUTO 33003KT 10SM CLR 12/11 A3012 RMK AO2", "KGGF 230815Z AUTO 15009KT 10SM CLR 08/M06 A2931 RMK AO2", "KGGG 230753Z AUTO 17011G17KT 10SM FEW032 21/16 A2990 RMK AO2 SLP120 T02060161", "KGGI 230815Z AUTO 14013KT 10SM CLR 18/12 A2969 RMK AO2 T01780120", "KGGP 230815Z AUTO 16007KT 10SM CLR 12/08 A3002 RMK AO2", "KGGW 230753Z AUTO 07015G23KT 6SM -RA BR BKN010 OVC014 06/04 A2950 RMK AO2 CIG 007V013 SLP000 P0005 T00610044", "KGHB 230815Z AUTO 00000G10KT 8SM SCT041 BKN050 OVC060 25/18 A2999 RMK A01", "KGHG 230815Z AUTO 00000KT 10SM CLR 08/07 A3031 RMK AO2", "KGHW 230815Z AUTO 13006KT 10SM CLR 12/06 A2956 RMK AO2", "KGIC 230815Z AUTO 24006KT 10SM SCT034 BKN040 OVC048 01/00 A2976 RMK AO1", "KGIF 230753Z AUTO A3007 RMK AO2 SLPNO PWINO $", "KGJT 230753Z AUTO 02008KT 10SM -RA FEW046 OVC060 09/08 A2944 RMK AO2 LTG DSNT S SLP916 P0010 T00940078", "KGKJ 230753Z AUTO 00000KT 10SM CLR 11/03 A3020 RMK AO2 SLP223 T01110028", "KGKT 230815Z AUTO 00000KT 10SM CLR 06/06 A3018 RMK A01", "KGKY 230753Z AUTO 17009G19KT 10SM CLR 22/16 A2981 RMK AO2 SLP083 T02220161", "KGLD 230753Z AUTO 20009KT 10SM CLR 15/M02 A2937 RMK AO2 SLP900 T01501022", "KGLE 230815Z AUTO 17009G17KT 10SM CLR 21/15 A2978 RMK AO2 T02090149", "KGLH 230753Z AUTO 17014KT 10SM CLR 20/13 A3000 RMK AO2 SLP165 T02000128", "KGLR 230753Z AUTO 20009KT 10SM CLR 16/09 A3000 RMK AO2 SLP155 T01560089", "KGLS 230752Z AUTO 17015KT 10SM CLR 24/19 A2993 RMK AO2 SLP133 T02390194", "KGLW 230815Z AUTO 00000KT 10SM CLR 13/10 A3012 RMK AO2 T01300101", "KGLX 230815Z AUTO 00000G11KT 10SM FEW041 23/13 A3007 RMK A01", "KGLY 230815Z AUTO 16011KT 10SM CLR 20/13 A2967 RMK AO2", "KGMJ 230815Z AUTO 19018G29KT 10SM CLR 15/04 A2970 RMK AO2", "KGMU 230753Z AUTO 29004KT 10SM CLR 09/03 A3021 RMK AO2 SLP224 T00940033", "KGNA 230756Z AUTO 07006KT 10/07 A2973 RMK AO1 SLP067 T01000072", "KGNB 230815Z AUTO 00000KT 10SM SCT085 01/M07 A2954 RMK AO2 T00081072", "KGNC 230815Z AUTO 19012G16KT 10SM CLR 17/14 A2981 RMK AO2 T01720142", "KGNG 230815Z AUTO 27015KT 10SM CLR 01/01 A2966 RMK AO2", "KGNR 230756Z AUTO 04003KT 08/03 A3029 RMK AO1 SLP264 T00780033", "KGNT 230815Z AUTO 21003KT 10SM BKN085 07/04 A2981 RMK AO2 T00730043", "KGNV 230753Z AUTO 00000KT 10SM CLR 11/09 A3013 RMK AO2 SLP200 T01060089", "KGOK 230753Z AUTO 19018G30KT 10SM CLR 23/12 A2962 RMK AO2 PK WND 19030/0749 SLP017 T02330122", "KGON 230756Z AUTO 35006KT 10SM CLR 11/09 A3029 RMK AO2 SLP255 T01110089", "KGOO 230815Z AUTO 00000KT 10SM CLR 08/M06 A2981 RMK A01", "KGOP 230815Z AUTO 10SM CLR 21/17 A2985 RMK AO2", "KGOV 230758Z AUTO 17003KT 10SM CLR 10/07 A3001 RMK AO2 SLP168 T00950072 $", "KGPC 230815Z AUTO 16008KT 10SM CLR 14/10 A3003 RMK AO2 T01400100", "KGPI 230755Z AUTO 34004KT 10SM OVC085 02/01 A2969 RMK AO2 SLP068 T00220011", "KGPM 230815Z AUTO 18007G14KT 10SM CLR 22/16 A2983 RMK AO2 T02150159", "KGPT 230821Z AUTO 00000KT 7SM FEW002 14/13 A3008 RMK AO2 T01390133", "KGPZ 230756Z AUTO 14006KT 10SM CLR 08/06 A2964 RMK AO2 SLP042 T00780061", "KGRB 230753Z AUTO 18006KT 10SM CLR 17/11 A2986 RMK AO2 SLP110 T01670106 $", "KGRD 230756Z AUTO 34004KT 10SM CLR 05/03 A3020 RMK AO2 SLP223 T00500028", "KGRF 230805Z 14003KT 3/4SM R15/3500V5500FT BR CLR 05/04 A2990 RMK AO2A VIS 3/4V2 SLP130 $", "KGRI 230753Z AUTO 15010KT 10SM CLR 14/07 A2940 RMK AO2 SLP943 T01390072 $", "KGRK 230800Z AUTO 17015KT 10SM BKN018 20/17 A2979 RMK AO2 BKN V FEW SLP077", "KGRN 230815Z AUTO 00000KT 10SM CLR 01/M06 A2932 RMK AO2 T00071062", "KGRR 230753Z AUTO 17007KT 10SM CLR 13/10 A3002 RMK AO2 SLP162 T01330100 $", "KGRY 230815Z AUTO 16006KT 10SM BKN043 BKN049 24/12 A3004 RMK A01", "KGSB 230755Z 33006KT 10SM BKN250 14/08 A3011 RMK AO2A SLP199 T01350083 $", "KGSH 230753Z AUTO 15006KT 10SM CLR 16/11 A3002 RMK AO2 SLP163 T01560106", "KGSO 230754Z 35003KT 10SM FEW250 08/04 A3018 RMK AO2 SLP216 T00830044", "KGSP 230753Z AUTO 00000KT 10SM CLR 05/03 A3021 RMK AO2 SLP224 T00500028", "KGTB 230755Z AUTO 15011KT 10SM CLR 10/03 A3022 RMK AO2 SLP234 T00970032", "KGTF 230753Z 31009KT 1SM -SN BR OVC003 00/00 A2959 RMK AO2 SFC VIS 1 1/4 SLP050 P0003 T00000000 $", "KGTR 230756Z AUTO 16007KT 10SM CLR 16/12 A3009 RMK AO2 SLP196 T01560122", "KGTU 230807Z AUTO 19012KT 10SM BKN020 21/17 A2987 RMK AO2", "KGUC 230756Z AUTO 18012G20KT 10SM OVC090 11/M02 A2958 RMK AO2 SLP934 T01061022", "KGUP 230753Z AUTO 22017G26KT 10SM -RA CLR 12/06 A2973 RMK AO2 PK WND 22034/0704 SLP943 P0000 T01170061", "KGUS 230755Z AUTO 16006KT 10SM CLR 13/09 A3001 RMK AO2 SLP163 T01270093 $", "KGUY 230753Z AUTO 22017KT 10SM CLR 19/10 A2953 RMK AO2 PK WND 21027/0656 SLP950 T01940100", "KGVL 230753Z AUTO 00000KT 10SM CLR 08/04 A3021 RMK AO2 SLP223 T00830039", "KGVQ 230756Z AUTO 19005KT 10SM CLR 11/03 A3020 RMK AO2 SLP224 T01110028", "KGVT 230815Z AUTO 17011KT 10SM CLR 21/15 A2985 RMK AO2 TSNO T02070154", "KGVW 230810Z AUTO 15014G26KT 110V170 10SM CLR 25/18 A2994 RMK A01", "KGWB 230815Z AUTO 00000KT 10SM CLR 13/10 A3007 RMK AO2", "KGWO 230753Z AUTO 19008KT 10SM CLR 18/13 A3004 RMK AO2 SLP171 T01830128", "KGWR 230815Z AUTO 36008KT 10SM FEW048 03/03 A2951 RMK A01", "KGWW 230815Z AUTO 36006KT 10SM CLR 12/10 A3013 RMK AO2 T01220100", "KGXF 230755Z AUTO 20010KT 9SM CLR 22/14 A2969 RMK AO2 SLP042 T02150141 FZRANO $", "KGXY 230756Z 07004KT 10SM CLR 06/M04 A2936 RMK AO2 SLP915 T00611044 $", "KGYB 230815Z AUTO 20006KT 10SM SCT037 21/18 A2989 RMK AO2 T02070176", "KGYF 230816Z AUTO 18018KT 10SM BKN044 26/14 A2993 RMK AO2 T02630144", "KGYH 230815Z AUTO 34004KT 10SM CLR 09/03 A3020 RMK A02 T00890034", "KGYI 230815Z AUTO 18015G21KT 10SM CLR 21/16 A2979 RMK AO2 T02140158 TSNO", "KGYL 230815Z AUTO 13005KT 7SM CLR 12/07 A2960 RMK AO2 T01220067", "KGYY 230815Z AUTO 15006KT 10SM CLR 16/11 A2994 RMK AO2 T01600107", "KGZH 230824Z AUTO 00000KT 1 3/4SM BR CLR 07/06 A3013 RMK AO2 VIS 3/4V5 T00720061", "KGZL 230815Z AUTO 21016G22KT 10SM CLR 23/14 A2974 RMK AO2", "KGZN 230800Z AUTO 20012G18KT 10SM CLR 21/12 A2976 RMK AO2", "KGZS 230815Z AUTO 00000KT 3/4SM BR SCT038 BKN048 BKN060 08/08 A3011 RMK A01", "KH71 230815Z AUTO 18014G21KT 10SM CLR 23/13 A2969 RMK AO2", "KHAE 230815Z AUTO 16009G14KT 10SM SCT075 19/11 A2978 RMK AO2", "KHAF 230815Z AUTO 35014G21KT 6SM HZ CLR 12/09 A2988 RMK AO2", "KHAI 230815Z AUTO 17005KT 10SM CLR 14/10 A3003 RMK AO2 T01440102", "KHAO 230753Z AUTO 11003KT 10SM CLR 11/09 A3012 RMK AO2 SLP197 T01110089", "KHBG 230753Z AUTO 00000KT 10SM CLR 13/12 A3010 RMK AO2 SLP191 T01280117", "KHBI 230815Z AUTO 00000KT 10SM CLR 06/06 A3021 RMK AO2 T00600055", "KHBR 230753Z AUTO 20014KT 10SM CLR 21/12 A2964 RMK AO2 SLP016 T02060122", "KHBV 230810Z AUTO 16003KT 10SM CLR 19/18 A2986 RMK AO2 T01920182", "KHCD 230815Z AUTO 13004KT 10SM CLR 11/06 A2960 RMK AO2 T01070059", "KHCO 230815Z AUTO 04007KT 10SM CLR 09/06 A2962 RMK AO2", "KHCR 230815Z AUTO 00000KT 10SM OVC010 01/00 A2955 RMK AO2", "KHDC 230819Z AUTO 00000KT 10SM CLR 13/13 A3006 RMK AO2 TSNO", "KHDE 230815Z AUTO 15010KT 10SM CLR 09/01 A2935 RMK AO2 T00900010", "KHDL 230815Z AUTO 00000KT 10SM CLR 07/07 A3013 RMK AO2", "KHDN 230825Z AUTO 23005KT 10SM -RA OVC004 01/01 A2948 RMK AO2 P0000 FZRANO", "KHDO 230751Z AUTO 15005KT 10SM CLR 19/18 A2987 RMK AO2 SLP098 T01940178", "KHEF 230756Z AUTO 14004KT 10SM CLR 03/02 A3025 RMK AO2 SLP251 T00280022", "KHEG 230815Z AUTO 36004KT 10SM FEW020 SCT025 10/09 A3012 RMK AO2", "KHEI 230753Z AUTO 06009KT 10SM CLR 07/02 A2942 RMK AO2 SLP965 T00720022 $", "KHEQ 230815Z AUTO 00000KT 10SM CLR 03/M03 A2933 RMK AO2", "KHEY 230755Z AUTO 00000KT 10SM CLR 07/07 A3011 RMK AO2 SLP198 T00720071 $", "KHEZ 230756Z AUTO 13010KT 10SM CLR 16/14 A3004 RMK AO2 SLP170 T01610144", "KHFD 230753Z AUTO 05003KT 10SM CLR 09/06 A3031 RMK AO2 SLP264 T00890061", "KHFF 230755Z AUTO 01005KT 10SM CLR 09/09 A3013 RMK AO2 SLP205 T00890087 $", "KHFJ 230815Z AUTO 17012G21KT 10SM SCT120 21/12 A2975 RMK AO2", "KHFY 230815Z AUTO 15006KT 10SM CLR 15/12 A3006 RMK AO2 T01510115", "KHGR 230753Z AUTO 00000KT 9SM CLR 06/02 A3026 RMK AO2 SLP255 T00560022 $", "KHHF 230815Z AUTO 20012KT 10SM CLR 22/11 A2958 RMK AO2 T02230110", "KHHG 230815Z AUTO 15003KT 10SM CLR A3005 RMK AO2", "KHHR 230753Z AUTO 26006KT 10SM SCT035 18/14 A2978 RMK AO2 SLP082 T01780139 402110178", "KHHV 230815Z AUTO 18015G22KT 10SM FEW038 FEW048 25/16 A2990 RMK A01", "KHHW 230815Z AUTO 16010G14KT 10SM CLR 21/14 A2983 RMK AO2", "KHIB 230753Z AUTO 00000KT 9SM CLR 02/02 A2965 RMK AO2 SLP047 T00220022", "KHIE 230752Z AUTO 00000KT 10SM CLR M01/M02 A3033 RMK AO2 SLP277 T10111022", "KHIF 230755Z AUTO 02004KT 10SM FEW015 BKN060 OVC075 01/01 A2956 RMK AO2 RAE19 SLP991 P0002 T00090008 RVRNO $", "KHII 230815Z AUTO 25009KT 10SM CLR 22/07 A2963 RMK AO2", "KHIO 230753Z AUTO 00000KT 10SM BKN040 06/05 A2995 RMK AO2 SLP140 T00560050 401560044", "KHJH 230815Z AUTO 16012G17KT 10SM CLR 19/12 A2941 RMK AO2 T01860122", "KHJO 230753Z AUTO 33009KT 10SM CLR 13/06 A2979 RMK AO2 SLP089 T01280056 402500111", "KHKA 230753Z AUTO 17012KT 10SM CLR 18/11 A2996 RMK AO2 SLP144 T01830111 $", "KHKS 230753Z AUTO 14006KT 10SM CLR 16/12 A3007 RMK AO2 SLP175 T01560122", "KHKY 230753Z AUTO 31003KT 10SM CLR 07/05 A3020 RMK AO2 SLP213 T00720050", "KHLB 230815Z AUTO 17005KT 10SM CLR 14/09 A3010 RMK A01", "KHLC 230753Z AUTO 26003KT 10SM CLR 14/M01 A2939 RMK AO2 SLP930 T01391006", "KHLG 230753Z AUTO 10005KT 10SM CLR 12/02 A3019 RMK AO2 SLP221 T01170022", "KHLN 230816Z AUTO 32006KT 2 1/2SM -SN BR OVC022 01/M01 A2961 RMK AO2 P0001 T00111011", "KHLR 230805Z AUTO 18017G25KT 10SM BKN018 21/17 A2983 RMK AO2 SLP091", "KHLX 230815Z AUTO 21004KT 10SM CLR 05/02 A3022 RMK AO2 T00480015", "KHMN 230755Z AUTO 15013KT 10SM OVC070 21/09 A2981 RMK AO2 PK WND 19026/00 SLP026 T02070090 $", "KHMP 230815Z AUTO 00000KT 10SM CLR 04/04 A3022 RMK AO2 T00400036", "KHMT 230815Z AUTO 23009KT 10SM OVC010 14/ A2981 RMK AO2 T0138////", "KHMZ 230815Z AUTO 00000KT 10SM CLR M01/M01 A3027 RMK AO2 T10071010", "KHNB 230756Z AUTO 19010KT 10SM BKN070 19/12 A3006 RMK AO2 SLP175 T01890117", "KHND 230756Z AUTO 01010KT 10SM OVC065 15/04 A2965 RMK AO2 SLP038 T01500039", "KHNR 230815Z AUTO 16009KT 10SM CLR 17/13 A2953 RMK A01", "KHOB 230815Z AUTO 18009KT 10SM CLR 15/14 A2978 RMK AO2", "KHOE 230815Z AUTO 00000KT 10SM CLR 05/03 A3013 RMK AO2 T00480036", "KHON 230755Z AUTO 13007KT 10SM CLR 10/04 A2942 RMK AO2 SLP960 T01000044", "KHOP 230755Z AUTO 15008KT 10SM OVC060 17/12 A3005 RMK AO2 SLP175 T01680123", "KHOT 230753Z AUTO 18007KT 10SM SCT030 21/14 A2992 RMK AO2 SLP126 T02060144", "KHOU 230753Z 16006KT 10SM FEW042 FEW250 22/18 A2991 RMK AO2 SLP132 T02170183", "KHPN 230756Z 05004KT 10SM SCT032 BKN041 12/08 A3027 RMK AO2 SLP251 T01170083 $", "KHPT 230815Z AUTO 15010G15KT 10SM CLR 17/09 A2964 RMK AO2", "KHQG 230815Z AUTO 23014G19KT 10SM CLR 18/09 A2952 RMK AO2 T01820088", "KHQG 230815Z AUTO 23014G19KT 10SM CLR 18/09 A2952 RMK AO2 T01820088", "KHQM 230753Z AUTO 00000KT 9SM BKN033 07/04 A2993 RMK AO2 SLP137 T00670044 401440061", "KHQU 230815Z AUTO 32003KT 10SM CLR 05/04 A3018 RMK AO2 T00490035", "KHQZ 230815Z AUTO 17013G19KT 10SM CLR 21/16 A2983 RMK AO1 T02100155", "KHRF 230815Z AUTO 02005KT 10SM CLR 00/M01 A2968 RMK AO2", "KHRI 230753Z AUTO 23009KT 10SM CLR 07/04 A2983 RMK AO2 SLP100 T00720039 401500072", "KHRJ 230815Z AUTO 03005KT 10SM CLR 12/10 A3017 RMK AO2 T01220100", "KHRL 230752Z AUTO 14005KT 10SM CLR 21/19 A2987 RMK AO2 SLP113 T02060189 $", "KHRO 230753Z AUTO 15009G19KT 10SM CLR 19/13 A2982 RMK AO2 SLP084 T01940133", "KHRT 230755Z AUTO 00000KT 10SM CLR 09/07 A3010 RMK AO2 SLP195 T00890065 $", "KHRX 230815Z AUTO 21017G25KT 10SM CLR 21/10 A2970 RMK AO2 T02090103", "KHSB 230815Z AUTO 17013KT 10SM OVC060 19/14 A2999 RMK AO2 T01920138", "KHSD 230815Z AUTO 18018G29KT 10SM CLR 24/12 A2962 RMK A01", "KHSE 230820Z AUTO VRB05KT 9SM OVC009 17/17 A3001 RMK AO2 T01720167", "KHSG 230810Z AUTO 07005KT 10SM BKN021 OVC034 06/03 A2943 RMK AO2 T00550030", "KHSI 230753Z AUTO 15008KT 10SM CLR 14/07 A2940 RMK AO2 SLP940 T01390072 $", "KHSP 230815Z AUTO 00000KT 10SM CLR 08/00 A3026 RMK AO2 T00831003", "KHST 230755Z AUTO 00000KT 10SM CLR 19/18 A2997 RMK AO2 SLP152 T01940175 $", "KHSV 230753Z AUTO 11004KT 10SM CLR 13/10 A3012 RMK AO2 SLP193 T01280100", "KHTL 230753Z AUTO 17006KT 10SM CLR 13/08 A3002 RMK AO2 SLP165 T01280083", "KHTS 230751Z 00000KT 10SM CLR 11/08 A3015 RMK AO2 SLP207 T01060078", "KHUF 230753Z 16012KT 10SM BKN065 19/11 A3000 RMK AO2 SLP155 T01890111", "KHUL 230753Z AUTO 20003KT 10SM CLR 08/06 A3030 RMK AO2 SLP264 T00780056", "KHUM 230815Z AUTO 10005KT 15/14 A3005 RMK AO2 T01480139 PWINO", "KHUT 230752Z AUTO 18011KT 10SM CLR 21/09 A2948 RMK AO2 SLP959 T02060089", "KHVE 230815Z AUTO 31008G19KT 7SM OVC021 05/02 A2959 RMK AO2", "KHVN 230753Z AUTO 03004KT 9SM FEW048 11/09 A3029 RMK AO2 SLP257 T01110094", "KHVR 230753Z AUTO 06007KT -SN OVC005 01/00 A2959 RMK AO2 UPE0654SNB0654 SLP037 P0005 T00060000 $", "KHVS 230815Z AUTO 00000KT 10SM SCT034 BKN040 10/08 A3015 RMK AO2", "KHWD 230754Z 26003KT 10SM CLR 13/04 A2986 RMK AO2 SLP120 T01330044 402000128", "KHWO 230753Z AUTO 00000KT 10SM CLR 19/18 A3000 RMK AO2 SLP159 T01940183", "KHWV 230756Z AUTO 01003KT 10SM BKN047 BKN110 13/09 A3027 RMK AO2 SLP251 T01280094", "KHWY 230815Z AUTO 00000KT 7SM CLR 03/01 A3028 RMK AO2 T00250012", "KHXD 230815Z AUTO 00000KT 10SM CLR 14/12 A3012 RMK AO2", "KHYA 230756Z AUTO 00000KT 10SM CLR 11/11 A3029 RMK AO2 SLP259 T01060106 $", "KHYI 230756Z AUTO 20009KT 10SM CLR RMK AO2 SLPNO FZRANO $", "KHYR 230753Z AUTO 16006KT 10SM CLR 16/08 A2970 RMK AO2 SLP055 T01610083", "KHYS 230756Z AUTO 22005KT 10SM CLR 13/01 A2942 RMK AO2 SLP947 T01330011 $", "KHYW 230815Z AUTO 00000KT 3SM BR CLR 10/10 A3013 RMK AO2", "KHYX 230815Z AUTO 17006KT 10SM CLR 11/08 A3005 RMK AO2 T01100078", "KHZD 230815Z AUTO 17009G14KT 10SM OVC060 18/12 A3003 RMK A01", "KHZE 230815Z AUTO 06008G16KT 10SM OVC010 07/07 A2954 RMK AO2", "KHZL 230815Z AUTO 00000KT 10SM CLR 02/01 A3031 RMK AO2", "KHZR 230815Z AUTO 09003KT 10SM SCT050 14/13 A3004 RMK AO2 T01440132", "KHZX 230815Z AUTO 00000KT 10SM CLR 07/06 A2963 RMK AO2", "KHZY 230753Z AUTO 14006KT 10SM CLR 12/04 A3019 RMK AO2 SLP221 T01220039", "KI23 230815Z AUTO 00000KT 10SM CLR 09/07 A3013 RMK AO1", "KI35 230815Z AUTO 00000KT 10SM CLR 06/06 A3020 RMK AO2 T00640064", "KI63 230815Z AUTO 15008KT 10SM CLR 16/12 A2979 RMK AO2 T01600115", "KI67 230815Z AUTO 00000KT 10SM CLR 10/07 A3011 RMK AO1", "KI68 230815Z AUTO 11003KT 10SM CLR 14/09 A3012 RMK AO1 T01370091", "KI69 230815Z AUTO 00000KT 10SM CLR 14/09 A3013 RMK AO2 T01410086", "KI74 230815Z AUTO 00000KT 10SM CLR 07/07 A3013 RMK AO2", "KI75 230815Z AUTO 14010KT 10SM CLR 18/12 A2962 RMK AO2 T01760120", "KIAB 230755Z AUTO 20009KT 10SM CLR 22/12 A2951 RMK AO2 SLP982 T02150123", "KIAD 230752Z 32004KT 10SM SCT250 05/03 A3024 RMK AO2 SLP239 T00500033", "KIAG 230753Z AUTO 07003KT 10SM CLR 09/04 A3018 RMK AO2 SLP220 T00940039", "KIAH 230753Z 16005KT 10SM FEW040 FEW250 22/19 A2991 RMK AO2 SLP127 T02170189", "KIBM 230815Z AUTO 31007KT 10SM CLR 08/M07 A2934 RMK AO2 T00841074", "KICL 230815Z AUTO 17008G14KT 18/11 A2956 RMK AO2 PWINO", "KICR 230753Z AUTO 12011KT CLR 14/04 A2934 RMK AO2 SLP924 T01390039", "KICT 230753Z 17015KT 10SM CLR 21/12 A2952 RMK AO2 SLP981 T02110117", "KIDA 230819Z AUTO 22010KT 10SM BKN007 02/M01 A2960 RMK AO2 T00171006", "KIDI 230815Z AUTO 00000KT 10SM CLR 04/03 A3026 RMK A01", "KIDP 230815Z AUTO 17018G22KT 10SM CLR 22/13 A2963 RMK AO2 T02230130", "KIEN 230752Z AUTO 00000KT 10SM CLR 05/M02 A2933 RMK AO2 SLP915 T00501022", "KIER 230815Z AUTO 15005KT 10SM CLR 17/16 A2998 RMK AO2 T01680156", "KIFA 230815Z AUTO 13008KT 10SM CLR 16/11 A2966 RMK AO2 T01620107", "KIFP 230815Z AUTO 23011KT 10SM CLR 22/06 A2958 RMK AO2", "KIGM 230751Z AUTO 23021G28KT 10SM BKN050 OVC060 16/05 A2965 RMK AO2 PK WND 23034/0715 SLP979 T01610050", "KIGQ 230815Z AUTO 17010G15KT 10SM CLR 16/11 A2994 RMK AO2 T01640105", "KIIB 230815Z AUTO 15012KT 10SM CLR 17/11 A2973 RMK AO2 T01710111", "KIIY 230815Z AUTO 35004KT 10SM CLR 08/04 A3019 RMK AO2 T00770041", "KIJD 230752Z AUTO 00000KT 10SM CLR 06/06 A3032 RMK AO2 SLP266 T00560056", "KIJX 230815Z AUTO 14012G17KT 10SM SCT085 18/12 A2983 RMK AO2 T01760120", "KIKK 230815Z AUTO 16007KT 10SM CLR 16/10 A2994 RMK AO2 T01620101", "KIKV 230815Z AUTO 13007KT 10SM CLR 17/11 A2963 RMK AO2", "KIKW 230815Z AUTO 15003KT 10SM CLR 14/09 A3003 RMK AO2 T01360092", "KILE 230807Z AUTO 18017G25KT 10SM BKN020 21/17 A2984 RMK AO2", "KILG 230751Z AUTO 33007KT 10SM BKN035 08/07 A3025 RMK AO2 SLP242 T00830072", "KILM 230753Z AUTO 34009KT 10SM CLR 16/09 A3008 RMK AO2 SLP184 T01610089 PWINO", "KILN 230754Z AUTO 16003KT 10SM CLR 14/08 A3013 RMK AO2 SLP197 T01390078", "KIML 230753Z AUTO 18006KT 10SM CLR 11/M06 A2932 RMK AO2 SLP901 T01061056 $", "KIMS 230815Z AUTO 14004KT 10SM CLR 15/11 A3011 RMK AO2", "KIMT 230754Z AUTO 13004KT 4SM BR CLR 09/09 A2984 RMK AO2 SLP107 T00940089", "KIND 230754Z 14008KT 10SM BKN150 BKN200 14/10 A3004 RMK AO2 SLP167 T01440100 $", "KINF 230815Z AUTO 00000KT 10SM CLR 12/12 A3009 RMK AO2", "KINJ 230815Z AUTO 19014G20KT 10SM SCT023 21/17 A2983 RMK AO2 T02120170", "KINK 230753Z AUTO 14012KT 10SM CLR 18/14 A2975 RMK AO2 SLP030 T01780144", "KINL 230754Z AUTO 09007KT 10SM CLR 08/04 A2962 RMK AO2 SLP035 T00780044", "KINS 230755Z AUTO 29008KT 10SM SCT075 OVC090 12/04 A2968 RMK AO2 DZB0657E06DZB29E38 SLP016 P0000 T01160036 402510110 $", "KINT 230754Z AUTO 02004KT 10SM CLR 09/03 A3020 RMK AO2 SLP223 T00940033", "KINW 230756Z AUTO 20020G28KT 10SM CLR 15/06 A2967 RMK AO2 PK WND 22036/0710 SLP982 T01500056", "KIOB 230815Z AUTO 19005KT 10SM CLR 11/07 A3016 RMK AO2 PWINO", "KIOW 230752Z AUTO 13008KT 10SM CLR 17/11 A2976 RMK AO2 SLP072 T01670111", "KIPJ 230815Z AUTO 00000KT 10SM CLR 04/03 A3020 RMK AO2 T00380030", "KIPT 230754Z AUTO 00000KT 10SM CLR 03/02 A3028 RMK AO2 SLP254 T00330022", "KIRK 230755Z AUTO 14011KT 10SM CLR 16/11 A2972 RMK AO2 SLP059 T01610111", "KIRS 230815Z AUTO 17005KT 10SM CLR 14/12 A3003 RMK AO2 T01360119", "KISM 230756Z AUTO 34004KT 10SM CLR 17/15 A3008 RMK AO2 SLP185 T01720150 PNO $", "KISO 230815Z AUTO 34007KT 10SM CLR 13/11 A3012 RMK AO2 T01330107", "KISP 230756Z AUTO 03008KT 10SM OVC043 14/11 A3026 RMK AO2 SLP247 T01390106", "KISQ 230815Z AUTO 18005KT 10SM CLR 11/09 A2992 RMK AO2 T01100090", "KISW 230754Z AUTO 16004KT 10SM CLR 16/10 A2981 RMK AO2 SLP091 T01610100", "KITH 230756Z AUTO 08006KT 10SM CLR 06/02 A3026 RMK AO2 SLP248 T00560022", "KITR 230753Z AUTO 22017G27KT 10SM CLR 18/M01 A2941 RMK AO2 PK WND 22032/0714 SLP900 T01831006 $", "KIUA 230815Z AUTO 00000KT 10SM CLR 07/03 A3021 RMK AO2 T00670034", "KIWA 230815Z AUTO 21014KT 10SM OVC055 21/13 A2972 RMK AO2 T02150131", "KIWD 230756Z AUTO 17012G18KT 10SM CLR 17/09 A2972 RMK AO2 SLP061 T01720094", "KIWI 230810Z AUTO 00000KT 10SM BKN002 04/03 A3034 RMK AO2 T00440033", "KIXA 230815Z AUTO 05003KT 10SM CLR 09/09 A3016 RMK AO2", "KIXD 230753Z AUTO 17014G23KT 10SM CLR 21/13 A2960 RMK AO2 SLP012 T02110128 $", "KIYA 230815Z AUTO 09004KT 18/15 A3001 RMK AO2 T01780152 PWINO", "KIZA 230815Z AUTO 00000KT 9SM OVC015 11/09 A2982 RMK AO2", "KIZG 230754Z AUTO 00000KT 10SM CLR 01/00 A3032 RMK AO2 SLP270 T00110000", "KJAC 230756Z AUTO 23007KT 10SM BKN043 BKN050 OVC060 M01/M02 A2952 RMK AO2 SNE07 SLP001 T10061022 FZRANO PNO $", "KJAN 230754Z AUTO 15007KT 10SM CLR 14/12 A3007 RMK AO2 SLP180 T01440122", "KJAQ 230815Z AUTO 00000KT 10SM CLR 12/M03 A2980 RMK AO1 T01151032", "KJAS 230815Z AUTO 15004KT 9SM SCT038 OVC046 18/17 A2994 RMK AO2", "KJAU 230805Z AUTO 00000KT 4SM BR CLR 06/05 A3022 RMK A01", "KJAX 230756Z 00000KT 10SM CLR 12/09 A3010 RMK AO2 SLP192 T01170094", "KJBR 230753Z AUTO 17013KT 10SM CLR 18/11 A2995 RMK AO2 SLP137 T01830111 $", "KJCA 230815Z AUTO 02005KT 10SM CLR 07/04 A3020 RMK AO2 T00740044", "KJCT 230751Z AUTO VRB03KT 10SM CLR 21/16 A2986 RMK AO2 SLP073 T02060161 $", "KJDD 230815Z AUTO 16006KT CLR 20/16 A2987 RMK AO2", "KJDN 230748Z AUTO 05008KT 07/06 A2946 RMK AO1 SLP986 P0003 T00670056", "KJEF 230753Z AUTO 14007KT 10SM CLR 21/13 A2975 RMK AO2 SLP059 T02060128 $", "KJER 230753Z AUTO 27012KT 10SM CLR 01/M01 A2963 RMK AO2 SLP038 T00111006", "KJES 230815Z AUTO 00000KT 10SM CLR 05/03 A3015 RMK AO2", "KJFK 230751Z 04006KT 10SM BKN045 BKN140 BKN220 13/11 A3028 RMK AO2 SLP252 T01330111", "KJFX 230815Z AUTO 00000KT 5SM BR CLR 09/08 A3013 RMK AO2", "KJFZ 230815Z AUTO 00000KT 10SM CLR 11/01 A3022 RMK AO2 T01080007", "KJHN 230815Z AUTO 25003KT 10SM CLR 18/07 A2951 RMK AO2 T01750067", "KJHW 230756Z AUTO 19007KT 10SM CLR 10/02 A3023 RMK AO2 SLP238 T01000017", "KJKA 230815Z AUTO 00000KT 10SM CLR 11/10 A3010 RMK AO2", "KJKJ 230815Z AUTO 00000KT 10SM CLR 03/M01 A2953 RMK AO2 TSNO", "KJKL 230753Z AUTO 19003KT 10SM CLR 14/07 A3017 RMK AO2 SLP204 T01440067", "KJLN 230753Z AUTO 19025G48KT 10SM SCT120 23/12 A2969 RMK AO2 PK WND 19048/0747 SLP042 T02330122 $", "KJMR 230815Z AUTO 00000KT 10SM CLR 08/04 A2966 RMK AO2", "KJMS 230756Z AUTO 36009KT 10SM CLR 05/02 A2950 RMK AO2 SLP995 T00500022", "KJNX 230815Z AUTO 00000KT 10SM CLR 11/10 A3015 RMK AO2", "KJOT 230815Z AUTO 17008KT 10SM CLR 18/11 A2991 RMK AO2 T01750112", "KJPX 230815Z AUTO 36003KT 10SM OVC043 12/12 A3027 RMK AO2 T01230123", "KJQF 230815Z AUTO 00000KT 10SM CLR 06/03 A3021 RMK AO2", "KJRB 230756Z AUTO 03008KT 10SM BKN037 A3028 RMK AO2 SLPNO FZRANO $", "KJRO 230815Z AUTO 00000KT 10SM CLR 07/06 A3017 RMK AO2", "KJSL 230800Z AUTO 14010G15KT 130V200 10SM OVC070 A3000 RMK A01", "KJSO 230815Z AUTO 19007KT 10SM SCT016 19/17 A2992 RMK AO2 T01890170 TSNO", "KJST 230754Z AUTO 16004KT CLR 09/02 A3023 RMK AO2 SLP235 T00890017 $", "KJSY 230815Z AUTO 2 1/2SM -SN SCT014 BKN023 OVC050 M01/M03 A2977 RMK AO2 T10121032 TSNO", "KJTC 230810Z AUTO 21023G36KT 10SM CLR 13/03 A2977 RMK AO2", "KJVL 230815Z AUTO 16009KT 10SM CLR 16/10 A2985 RMK AO2", "KJVW 230815Z AUTO 13004KT 10SM CLR 15/15 A3006 RMK AO2", "KJVY 230815Z AUTO 00000KT 10SM CLR 11/10 A3009 RMK AO2 PWINO", "KJWG 230815Z AUTO 17011KT 10SM CLR 22/12 A2963 RMK AO2 T02170120", "KJWN 230815Z AUTO 06005KT 10SM 13/10 A3008 RMK A01", "KJWY 230815Z AUTO 18012G19KT 10SM CLR 21/17 A2984 RMK AO2 T02070167", "KJXN 230756Z AUTO 16007KT 10SM CLR 15/10 A3007 RMK AO2 SLP177 T01500100", "KJYG 230816Z AUTO 13009KT 10SM CLR 12/07 A2957 RMK AO2", "KJYL 230815Z AUTO 00000KT 10SM CLR 07/05 A3014 RMK AO2 T00700054", "KJYM 230815Z AUTO 15005KT 10SM CLR 12/09 A3007 RMK AO2 T01190090", "KJYO 230815Z AUTO 02003KT 10SM CLR 07/06 A3026 RMK AO2", "KJYR 230815Z AUTO 15007KT 10SM CLR 13/10 A2941 RMK AO2", "KJZI 230815Z AUTO 35005KT 14/12 A3011 RMK AO2", "KK62 230815Z AUTO 17005KT 10SM CLR 13/07 A3013 RMK AO2", "KK70 230810Z AUTO 35003KT 10SM CLR 23/21 A2997 RMK AO2", "KK88 230815Z AUTO 17018G23KT 10SM CLR 22/12 A2962 RMK AO1 T02150121", "KKLS 230756Z AUTO 00000KT 10SM FEW019 OVC045 07/06 A2995 RMK AO2 RAB21E45 SLP147 P0000 T00720061 401500067", "KKY8 230815Z AUTO 17011KT 10SM OVC070 19/13 A3006 RMK A01", "KL08 230815Z AUTO 23005KT 10SM SCT050 OVC065 19/12 A2973 RMK AO2", "KL18 230815Z AUTO 22006KT 7SM BKN004 OVC010 15/15 A2981 RMK AO2", "KL35 230815Z AUTO 24010G18KT 10SM SCT014 BKN019 BKN026 03/01 A2984 RMK AO2", "KL52 230815Z AUTO 00000KT 7SM CLR 10/10 A2984 RMK A01", "KLAA 230753Z AUTO 21018KT 10SM CLR 18/04 A2944 RMK AO2 PK WND 20026/0730 SLP914 T01830039", "KLAF 230754Z AUTO 15006KT 10SM SCT060 16/10 A2999 RMK AO2 SLP151 T01610100", "KLAL 230815Z AUTO 36003KT 10SM CLR 16/14 A3007 RMK AO2 T01610137", "KLAM 230815Z AUTO 19017G30KT 10SM SCT042 SCT050 BKN070 13/06 A2977 RMK AO2 LTG DSNT NE T01250057", "KLAN 230753Z 14003KT 10SM CLR 13/09 A3005 RMK AO2 SLP174 T01330089 $", "KLAR 230753Z AUTO 32008G17KT 10SM OVC075 07/M02 A2948 RMK AO2 SLP890 T00721022", "KLAS 230756Z 34015G26KT 10SM FEW050 BKN075 OVC100 16/04 A2963 RMK AO2 PK WND 33035/0726 SLP012 T01560039 402830150", "KLAW 230753Z AUTO 19013KT 10SM CLR 23/12 A2966 RMK AO2 SLP029 T02280117", "KLAX 230753Z 26010KT 10SM BKN024 17/13 A2978 RMK AO2 SLP081 T01720133 402060172", "KLBB 230753Z 20020G27KT 10SM CLR 19/13 A2974 RMK AO2 PK WND 20028/0726 SLP019 T01940128", "KLBE 230815Z AUTO 00000KT 10SM CLR 05/03 A3021 RMK AO2", "KLBF 230753Z AUTO 11009KT 10SM CLR 07/02 A2933 RMK AO2 SLP908 T00720017", "KLBL 230756Z AUTO 21013KT 10SM CLR 20/10 A2954 RMK AO2 SLP965 T02000100", "KLBO 230815Z AUTO 17013G22KT 10SM CLR 19/11 A2978 RMK AO2", "KLBT 230756Z AUTO 35003KT 10SM CLR 13/11 A3014 RMK AO2 SLP205 T01330106 TSNO", "KLBX 230753Z AUTO 16005KT 10SM SCT035 SCT046 BKN055 20/18 A2991 RMK AO2 SLP127 T02000178", "KLCG 230815Z AUTO 15004KT 10SM CLR 12/09 A2945 RMK AO2 T01150088", "KLCH 230753Z AUTO 14009KT 10SM CLR 17/16 A2997 RMK AO2 SLP156 T01670156", "KLCI 230756Z AUTO 00000KT 10SM CLR 05/05 A3032 RMK AO2 SLP268 T00500050", "KLCK 230755Z AUTO 00000KT 10SM CLR 11/07 A3014 RMK AO2 T01060072", "KLCQ 230815Z AUTO 00000KT 10SM CLR 07/07 A3011 RMK AO2", "KLDJ 230815Z AUTO 03004KT 10SM OVC036 13/07 A3026 RMK AO2 T01250069", "KLDM 230815Z AUTO 19010G18KT 10SM CLR 19/12 A2995 RMK AO2 T01900115", "KLEB 230819Z AUTO 00000KT 2 1/2SM BR BKN001 02/01 A3033 RMK AO2 T00220006", "KLEE 230753Z AUTO 35005KT 10SM CLR 16/13 A3009 RMK AO2 SLP187 T01560133", "KLEW 230756Z AUTO 36004KT 10SM CLR 03/03 A3032 RMK AO2 SLP276 T00280028", "KLEX 230754Z 15006KT 10SM CLR 14/08 A3014 RMK AO2 SLP198 T01440078", "KLFI 230755Z AUTO 02012KT 10SM OVC011 15/15 A3014 RMK AO2 OVC V BKN SLP213 T01500148 $", "KLFK 230817Z AUTO 13006KT 10SM BKN028 BKN039 20/17 A2992 RMK AO2 T02000172", "KLFT 230753Z AUTO 00000KT 10SM CLR 17/16 A3001 RMK AO2 SLP163 T01720156", "KLGA 230751Z 04006KT 10SM SCT031 BKN120 BKN250 13/10 A3028 RMK AO2 SLP259 T01330100 $", "KLGB 230816Z AUTO 22004KT 10SM BKN021 BKN042 18/13 A2978 RMK AO2 T01830128", "KLGC 230815Z AUTO 00000KT 7SM CLR 04/03 A3017 RMK AO2 T00360026", "KLGD 230808Z AUTO 36005KT 10SM FEW016 BKN037 OVC070 02/01 A2981 RMK AO2 RAE01 P0000 FZRANO", "KLGF 230755Z AUTO 32011KT 10SM CLR 21/09 A2968 RMK AO2 SLP048 T02060086 TSNO $", "KLGU 230818Z AUTO 24008KT 9SM FEW005 FEW010 BKN060 02/01 A2960 RMK AO2 T00170011", "KLHB 230815Z AUTO 14004KT 10SM CLR 20/16 A2988 RMK AO2 T01960162", "KLHM 230815Z AUTO 31003KT 10SM CLR 11/01 A2982 RMK AO1", "KLHQ 230753Z AUTO 00000KT 10SM CLR 08/07 A3015 RMK AO2 SLP208 T00780067", "KLHW 230755Z AUTO 00000KT 10SM CLR 09/07 A3010 RMK AO2 SLP196 T00920070 $", "KLHX 230753Z AUTO 18005KT 10SM 17/01 A2948 RMK AO2 SLP922 T01670011 $", "KLHZ 230815Z AUTO 00000KT 10SM CLR 08/07 A3019 RMK AO2", "KLIC 230755Z AUTO 20011KT 10SM CLR 14/M03 A2945 RMK AO2 SLP899 T01391028 $", "KLIT 230753Z 18014KT 10SM BKN250 21/14 A2993 RMK AO2 SLP134 T02110139", "KLJF 230815Z AUTO 14005KT 10SM CLR 12/06 A2957 RMK AO2", "KLKR 230815Z AUTO 00000KT 10SM SCT033 OVC039 05/04 A3017 RMK AO2", "KLKU 230815Z AUTO 00000KT 5SM HZ CLR 04/ A3023 RMK AO2 T0040////", "KLKV 230753Z AUTO 00000KT 10SM FEW037 BKN050 BKN095 M03/M04 A2986 RMK AO2 SLP132 T10281044 401171028 FZRANO", "KLLJ 230755Z AUTO 01005KT 10SM OVC060 01/M06 A2964 RMK AO2 SLP037 T00111061 $", "KLLN 230815Z AUTO 20011KT 10SM CLR 16/13 A2976 RMK AO2", "KLLQ 230753Z AUTO 17007KT 10SM CLR 19/13 A2999 RMK AO2 SLP153 T01940133", "KLMO 230815Z AUTO 18004KT 7SM CLR 09/M03 A2936 RMK AO2 T00871030", "KLMT 230753Z AUTO 30005KT 10SM SCT040 01/M02 A2990 RMK AO2 SLP124 T00061017 401001033", "KLNA 230815Z AUTO 32003KT 10SM CLR 21/20 A3000 RMK AO2 T02100201 PNO", "KLNC 230815Z AUTO 17011G19KT 10SM CLR 21/16 A2983 RMK AO2 T02120158", "KLND 230753Z AUTO 00000KT 10SM CLR 04/M01 A2942 RMK AO2 SLP925 T00441011 $", "KLNK 230754Z AUTO 14008KT 10SM CLR 17/12 A2945 RMK AO2 SLP962 T01720117", "KLNL 230815Z AUTO 16004KT 10SM CLR 14/09 A2982 RMK AO2 T01410087", "KLNN 230815Z AUTO 16005KT 10SM CLR 15/05 A3015 RMK AO1 T01470045", "KLNP 230815Z AUTO 17005KT 10SM CLR 11/01 A3023 RMK AO2", "KLNQ 230815Z AUTO 00000KT 10SM CLR 19/16 A3009 RMK AO2 T01890163", "KLNR 230756Z AUTO 14007KT 10SM CLR 19/12 A2979 RMK AO2 SLP080 T01890117", "KLNS 230753Z AUTO 27004KT 8SM CLR 06/04 A3027 RMK AO2 SLP249 T00610039", "KLOL 230753Z AUTO 00000KT 10SM CLR A2982 RMK AO2 SLPNO $", "KLOM 230815Z AUTO 34003KT 10SM OVC024 08/07 A3026 RMK AO2 T00750073", "KLOR 230755Z AUTO 00000KT 4SM BR CLR 05/05 A3014 RMK AO2 SLP190 T00500047 $", "KLOT 230815Z AUTO 16014KT 10SM CLR 16/11 A2992 RMK AO2", "KLOU 230753Z AUTO 12004KT 10SM CLR 15/11 A3009 RMK AO2 SLP186 T01500106", "KLOZ 230753Z AUTO 00000KT 10SM CLR 08/06 A3016 RMK AO2 SLP207 T00830061", "KLPC 230756Z AUTO 00000KT 10SM CLR 11/09 A2984 RMK AO2 SLP106 T01110094 402110106", "KLPR 230753Z AUTO 18007KT 10SM CLR 13/08 A3014 RMK AO2 SLP205 T01330078", "KLQK 230815Z AUTO 10SM CLR 03/03 A3019 RMK AO2 T00320030", "KLRD 230756Z AUTO 14011KT 10SM CLR 22/19 A2983 RMK AO2 SLP098 T02220189", "KLRF 230756Z AUTO 20008KT 10SM FEW035 21/15 A2991 RMK AO2 SLP129 T02090145", "KLRJ 230815Z AUTO 14010KT 10SM CLR 14/10 A2947 RMK AO2", "KLRO 230815Z AUTO 00000KT 10SM CLR 14/13 A3010 RMK AO2", "KLRU 230815Z AUTO 23013KT 10SM CLR 20/08 A2982 RMK AO2 T01960080", "KLRY 230815Z AUTO 17007KT 10SM CLR 19/12 A2966 RMK AO2", "KLSE 230753Z AUTO 17011G18KT 10SM CLR 19/10 A2972 RMK AO2 SLP054 T01890100 $", "KLSF 230810Z AUTO 00000KT 5/8SM R33/2800V5500FT BR CLR 04/04 M RMK AO2 SLPNO CHINO RWY15 $", "KLSV 230805Z AUTO 05015KT 10SM -RA OVC070 15/06 A2963 RMK AO2 RAB05 SLP016", "KLTS 230755Z AUTO 18008KT 10SM CLR 21/12 A2963 RMK AO2 SLP016 T02100119 $", "KLUA 230815Z AUTO 00000KT 10SM CLR 02/02 A3024 RMK AO2", "KLUD 230810Z AUTO 17012G17KT 7SM CLR 21/14 A2977 RMK AO2 T02100141", "KLUF 230755Z AUTO 19009KT 10SM CLR 21/14 A2966 RMK AO2 SLP032 T02110138 $", "KLUG 230815Z AUTO 00000KT 6SM BR CLR 08/08 A3011 RMK A01", "KLUK 230753Z AUTO 00000KT 6SM BR CLR 11/09 A3012 RMK AO2 SLP199 T01060094", "KLUL 230815Z AUTO 00000KT 10SM CLR 12/12 A3011 RMK A02 T01240120", "KLUM 230815Z AUTO 12004KT 10SM CLR 14/12 A2969 RMK AO2 T01390115", "KLUV 230815Z AUTO 19009KT 10SM BKN090 BKN120 17/13 A2978 RMK AO2", "KLUX 230815Z AUTO 34006KT 10SM CLR 06/04 A3019 RMK AO2", "KLVJ 230753Z AUTO 16004KT 10SM CLR 22/18 A2992 RMK AO2 SLP132 T02220183", "KLVK 230753Z AUTO 00000KT 10SM CLR 11/07 A2986 RMK AO2 SLP107 T01060067 402170106", "KLVL 230815Z AUTO 00000KT 10SM CLR 11/09 A3019 RMK AO1 T01070092", "KLVM 230819Z AUTO 28007KT 3SM -SN BR BKN009 OVC015 01/00 A2954 RMK AO2 P0001 T00110000 $", "KLVN 230815Z AUTO 00000KT 10SM CLR 13/06 A2964 RMK AO2", "KLVS 230753Z AUTO 22012G20KT 10SM VCTS -RA FEW045 SCT055 BKN070 12/08 A2977 RMK AO2 LTG DSNT SW-NW RAB11 SLP983 P0000 T01170083", "KLWA 230815Z AUTO 14004KT 10SM CLR 16/11 A2999 RMK AO2 T01550110", "KLWB 230815Z AUTO 00000KT 10SM CLR 02/01 A3024 RMK AO2 T00210005", "KLWC 230752Z AUTO 17012KT 10SM CLR 22/13 A2956 RMK AO1 SLP003 T02170133", "KLWD 230753Z AUTO 15009G19KT 10SM CLR 18/11 A2962 RMK AO2 SLP022 T01830111", "KLWM 230754Z AUTO 00000KT 9SM CLR 07/06 A3033 RMK AO2 SLP271 T00670056", "KLWS 230756Z AUTO 00000KT 10SM BKN042 BKN100 05/02 A2978 RMK AO2 SLP091 T00500022 401170050", "KLWV 230753Z AUTO 17010KT 10SM BKN070 18/11 A3001 RMK AO2 SLP158 T01780111 $", "KLXL 230815Z AUTO 13003KT 10SM CLR 13/06 A2959 RMK AO2", "KLXN 230815Z AUTO 13006KT 10SM CLR 09/03 A2935 RMK AO2 T00890026", "KLXT 230753Z AUTO 16013KT 10SM CLR 19/13 A2962 RMK AO2 SLP021 T01890128", "KLXV 230753Z AUTO 28006KT 10SM OVC055 03/M03 A2965 RMK AO2 SLP895 T00331033 $", "KLXY 230815Z AUTO 18014KT 10SM CLR 21/16 A2986 RMK AO2 T02120162", "KLYH 230754Z AUTO 32003KT 10SM CLR 07/03 A3022 RMK AO2 SLP228 T00670033", "KLYO 230815Z AUTO 18012KT 10SM CLR 19/07 A2946 RMK AO2 T01930069", "KLYV 230815Z AUTO 14005KT 10SM CLR 12/07 A2951 RMK AO2", "KLZU 230756Z AUTO 00000KT 10SM CLR 06/04 A3019 RMK AO2 SLP233 T00560044", "KLZZ 230815Z AUTO 21007KT 10SM CLR 20/17 A2981 RMK AO2 T02010170", "KM01 230815Z AUTO 17010KT 10SM CLR 19/13 A2999 RMK AO2 T01920132 $", "KM02 230815Z AUTO VRB05KT 10SM 16/11 A3008 RMK A01", "KM04 230815Z AUTO 19010G16KT 10SM FEW055 18/12 A3000 RMK A01", "KM08 230815Z AUTO 15007KT 10SM OVC055 18/12 A3004 RMK A01", "KM19 230756Z AUTO 18020KT 10SM CLR 19/12 A2991 RMK AO2 SLP126 T01890117 PNO $", "KM21 230815Z AUTO 16005KT 10SM OVC065 17/11 A3007 RMK AO2 T01720110", "KM30 230815Z AUTO 17010G16KT 10SM OVC060 20/11 A3000 RMK AO2 T01950108", "KM40 230815Z AUTO 15004KT 10SM CLR 14/12 A3010 RMK AO2", "KM54 230810Z AUTO 00000KT 10SM BKN040 BKN045 11/09 A3009 RMK A01", "KM75 230815Z AUTO 03014KT 8SM OVC019 05/05 A2951 RMK A01", "KM91 230810Z AUTO 15003KT 10SM OVC060 15/11 A3008 RMK A01", "KMAE 230753Z AUTO 28006KT 10SM CLR 09/04 A2980 RMK AO2 SLP088 T00890044 402500089", "KMAF 230753Z AUTO 18011KT 10SM CLR 18/13 A2978 RMK AO2 SLP038 T01830133", "KMAI 230753Z AUTO 00000KT 10SM CLR 07/05 A3012 RMK AO1 SLP199 T00720050 $", "KMAN 230815Z AUTO 31009KT 10SM FEW001 04/01 A2976 RMK A01", "KMAO 230815Z AUTO 02003KT 10SM CLR 11/09 A3013 RMK AO2", "KMAW 230815Z AUTO 17013KT 10SM CLR 17/11 A2996 RMK AO1", "KMBG 230752Z AUTO 04007G18KT 10SM CLR 08/02 A2939 RMK AO2 SLP953 T00830017", "KMBL 230756Z AUTO 11004KT 8SM CLR 13/11 A2995 RMK AO2 SLP142 T01330106", "KMBO 230815Z AUTO 00000KT 10SM CLR 15/15 A3007 RMK AO2", "KMBS 230753Z AUTO 18007KT 10SM CLR 14/09 A3005 RMK AO2 SLP172 T01390089", "KMBT 230815Z AUTO 00000KT 10SM FEW034 BKN044 BKN050 13/09 A3010 RMK A01", "KMBY 230815Z AUTO 15009KT 10SM CLR 18/11 A2973 RMK AO2", "KMCB 230753Z AUTO 15003KT 8SM CLR 14/12 A3007 RMK AO2 SLP178 T01390122", "KMCC 230815Z AUTO 34011KT 10SM CLR 13/01 A2981 RMK AO2", "KMCD 230815Z AUTO 19006KT 10SM CLR 11/09 A2997 RMK AO2 T01120089", "KMCE 230753Z AUTO 33008KT 10SM CLR 14/03 A2979 RMK AO2 SLP086 T01390028 402440117", "KMCF 230755Z AUTO 04007KT 10SM CLR 17/14 A3002 RMK AO2 SLP168 T01650143 FZRANO $", "KMCI 230753Z 17015KT 10SM CLR 21/13 A2958 RMK AO2 SLP006 T02110128", "KMCK 230753Z AUTO 23007KT 10SM CLR 14/M05 A2934 RMK AO2 SLP912 T01391050", "KMCN 230753Z AUTO 00000KT 10SM CLR 04/04 A3015 RMK AO2 SLP209 T00440039", "KMCO 230753Z 32005KT 10SM CLR 17/15 A3006 RMK AO2 SLP178 T01670150 $", "KMCW 230753Z AUTO 15012KT 10SM CLR 15/09 A2966 RMK AO2 SLP031 T01500089", "KMDD 230815Z AUTO 18014G19KT 10SM CLR 19/12 A2978 RMK AO2 T01940123", "KMDH 230752Z AUTO 17012KT 10SM CLR 19/11 A2994 RMK AO2 SLP135 T01890111", "KMDQ 230815Z AUTO 00000KT 10SM CLR 09/08 A3013 RMK A02 T00900081", "KMDS 230815Z AUTO 13006KT 10SM CLR 11/07 A2948 RMK AO2", "KMDT 230756Z 00000KT 8SM SCT080 04/03 A3027 RMK AO2 SLP250 T00440028", "KMDW 230753Z 18009KT 10SM FEW250 18/11 A2992 RMK AO2 SLP122 T01830106", "KMDZ 230815Z AUTO 15006KT 10SM CLR 13/09 A2978 RMK AO2 T01330093 PWINO", "KMEB 230752Z AUTO 02006KT 10SM CLR 13/09 A3015 RMK AO2 SLP208 T01280094", "KMEH 230823Z AUTO VRB03KT 10SM SCT009 BKN013 OVC024 01/00 A2978 RMK AO2 T00110000 ", "KMEI 230758Z AUTO 00000KT 10SM CLR 11/10 A3010 RMK AO2 SLP192 T01110100", "KMEM 230754Z 18009KT 10SM SCT250 18/12 A3001 RMK AO2 SLP159 T01780122", "KMER 230815Z AUTO 04003KT 10SM CLR 12/03 A2980 RMK AO1", "KMEV 230815Z AUTO 15004KT 10SM CLR M03/M04 A2985 RMK AO2", "KMEZ 230815Z AUTO 22008KT 170V360 10SM 20/15 A2988 RMK AO2 T02000155 $", "KMFD 230752Z AUTO 16007KT 10SM CLR 13/08 A3015 RMK AO2 SLP205 T01280078", "KMFE 230753Z AUTO 15006KT 10SM CLR 22/19 A2986 RMK AO2 SLP110 T02220194 $", "KMFI 230754Z AUTO 17007KT 10SM CLR 14/09 A2978 RMK AO2 SLP082 T01440094", "KMFR 230753Z AUTO 17004KT 10SM BKN043 07/05 A2999 RMK AO2 SLP157 T00670050 401280061", "KMFV 230815Z AUTO 01006KT 10SM BKN014 OVC021 12/10 A3015 RMK AO2 T01160100", "KMGC 230815Z AUTO 16005KT 10SM CLR 15/10 A2997 RMK AO2", "KMGE 230755Z AUTO 11003KT 10SM CLR 07/04 A3017 RMK AO2 SLP215 T00710042 $", "KMGG 230815Z AUTO 14003KT 10SM CLR 14/07 A2961 RMK AO2 T01350070 PWINO", "KMGJ 230754Z AUTO 00000KT 8SM CLR 02/02 A3029 RMK AO2 SLP258 T00220017", "KMGM 230753Z AUTO 00000KT 10SM CLR 07/07 A3014 RMK AO2 SLP206 T00720067", "KMGN 230815Z AUTO 21005KT 10SM CLR 17/11 A2997 RMK AO2 T01800108", "KMGR 230815Z AUTO 00000KT 10SM CLR 07/05 A3014 RMK AO2", "KMGW 230753Z AUTO 18004KT 10SM CLR 11/02 A3020 RMK AO2 SLP223 T01110022", "KMGY 230753Z AUTO 17005KT 10SM CLR 14/08 A3011 RMK AO2 SLP191 T01390083", "KMHE 230753Z AUTO 12010KT 10SM CLR 13/06 A2942 RMK AO2 SLP958 T01280056", "KMHK 230752Z AUTO 19012G21KT 10SM CLR 22/13 A2947 RMK AO2 SLP967 T02170133", "KMHL 230815Z AUTO 14009KT 10SM CLR 17/12 A2969 RMK AO2", "KMHP 230815Z AUTO 28003KT 10SM CLR 07/06 A3014 RMK AO2 T00660065", "KMHR 230815Z AUTO 33012KT 10SM CLR 14/00 A2980 RMK A01", "KMHS 230756Z AUTO 00000KT 10SM FEW022 SCT033 02/00 A2991 RMK AO2 UPB42E52 SLP149 P0000 T00220000 401440022", "KMHT 230753Z 00000KT 10SM SCT250 06/04 A3030 RMK AO2 SLP275 T00610044", "KMHV 230820Z AUTO 25015G20KT 10SM OVC039 13/05 A2975 RMK A01", "KMIA 230753Z 00000KT 10SM FEW040 22/19 A2999 RMK AO2 SLP155 T02220189 $", "KMIB 230805Z AUTO 08007KT 10SM BKN017 BKN130 06/04 A2958 RMK AO2 CIG 017V130 BKN017 V SCT SLP030 $", "KMIC 230753Z AUTO 15007KT 10SM CLR 16/08 A2961 RMK AO2 SLP024 T01610078", "KMIE 230753Z AUTO 18004KT 10SM CLR 17/09 A3007 RMK AO2 SLP172 T01670094", "KMIO 230815Z AUTO 16016G24KT 10SM CLR 22/12 A2968 RMK AO2", "KMIV 230754Z AUTO 04006KT 10SM SCT025 BKN030 BKN036 12/11 A3022 RMK AO2 SLP231 T01220106 $", "KMIW 230753Z AUTO 14013G22KT 10SM CLR 17/11 A2966 RMK AO2 SLP037 T01670106", "KMJD 230815Z AUTO 00000KT 10SM CLR 14/14 A3007 RMK AO2", "KMJQ 230815Z AUTO 15009KT 10SM CLR 13/08 A2957 RMK AO2", "KMKC 230754Z 15006KT 10SM CLR 21/13 A2959 RMK AO2 SLP014 T02060128", "KMKE 230752Z 16008KT 10SM CLR 17/11 A2989 RMK AO2 SLP119 T01670111", "KMKG 230755Z AUTO 18012G22KT 10SM CLR 19/12 A2997 RMK AO2 SLP147 T01940117", "KMKJ 230815Z AUTO 00000KT 10SM CLR 01/00 A3026 RMK AO2 T00070000", "KMKL 230753Z AUTO 18009KT OVC060 18/11 A3005 RMK AO2 SLP171 T01830111 $", "KMKN 230815Z AUTO 18010G16KT 10SM CLR 21/15 A2980 RMK AO2 T02050151", "KMKO 230753Z AUTO 17013G30KT 10SM CLR 23/13 A2975 RMK AO2 PK WND 17031/0742 SLP065 T02280133", "KMKS 230815Z AUTO 00000KT 10SM CLR 13/11 A3012 RMK AO2", "KMKT 230756Z AUTO 15012KT 10SM CLR 16/07 A2961 RMK AO2 SLP023 T01560072", "KMKY 230756Z AUTO 02007KT 10SM CLR 19/17 A3002 RMK AO2 SLP167 T01890172 TSNO $", "KMLB 230753Z AUTO 31003KT 10SM FEW038 18/18 A3003 RMK AO2 SLP168 T01780178", "KMLC 230753Z AUTO 17013G27KT 10SM FEW070 22/14 A2976 RMK AO2 PK WND 19028/0735 SLP069 T02170139", "KMLE 230815Z AUTO 12006KT 10SM CLR 18/12 A2948 RMK AO2 T01780122", "KMLF 230810Z AUTO 34007KT 5SM -SN BR FEW007 BKN012 OVC029 01/00 A2962 RMK AO2 P0000 T00060000 $", "KMLI 230752Z 16010KT 10SM CLR 18/12 A2977 RMK AO2 SLP078 T01780122", "KMLJ 230815Z AUTO 00000KT 10SM CLR 08/07 A3016 RMK AO2 LTG DSNT N", "KMLP 230753Z AUTO 34003KT 6SM BR OVC003 M02/M04 A2965 RMK AO2 SLP062 T10221044 410061033", "KMLS 230753Z AUTO 01008KT 10SM CLR 07/04 A2941 RMK AO2 SLP958 T00670044", "KMLT 230753Z AUTO 30003KT 9SM CLR 04/04 A3032 RMK AO2 SLP275 T00390039", "KMLU 230753Z AUTO 18007KT 10SM CLR 18/14 A3002 RMK AO2 SLP162 T01830144", "KMMH 230814Z AUTO 28008KT 10SM OVC045 M01/M08 A2983 RMK AO2", "KMMI 230815Z AUTO 00000KT 10SM FEW043 SCT050 05/05 A3018 RMK A01", "KMMK 230753Z AUTO 32003KT 10SM CLR 08/06 A3030 RMK AO2 SLP261 T00780056", "KMML 230756Z AUTO 15008KT 10SM CLR 14/08 A2951 RMK AO2 SLP991 T01440083", "KMMT 230755Z AUTO 00000KT 10SM CLR 08/08 A3013 RMK AO2 SLP205 T00790078 $", "KMMU 230815Z AUTO 00000KT 7SM OVC034 06/05 A3028 RMK AO2", "KMNE 230815Z AUTO 15005KT 10SM SCT039 19/17 A2997 RMK AO2 T01920167", "KMNH 230815Z AUTO 18006G18KT 10SM CLR 11/M02 A2951 RMK AO2", "KMNI 230815Z AUTO 00000KT 10SM CLR 09/08 A3014 RMK AO2", "KMNM 230756Z AUTO 00000KT 10SM CLR 12/11 A2988 RMK AO2 SLP116 T01170106 PNO $", "KMNN 230753Z AUTO 20007KT 8SM CLR 12/07 A3013 RMK AO2 SLP201 T01170072", "KMNV 230815Z AUTO 00000KT 10SM 06/06 A3016 RMK A01", "KMNZ 230815Z AUTO 18010KT 10SM CLR 20/17 A2984 RMK AO2 T02000170", "KMOB 230756Z AUTO 00000KT 10SM CLR 13/10 A3011 RMK AO2 SLP194 T01330100", "KMOD 230753Z AUTO 30011KT 10SM CLR 13/04 A2980 RMK AO2 SLP091 T01330039 402330133 $", "KMOP 230815Z AUTO 00000KT 10SM CLR 10/09 A3002 RMK AO2 T00960088", "KMOR 230815Z AUTO 00000KT 10SM CLR 08/07 A3017 RMK A01", "KMOT 230754Z AUTO 05007KT 10SM OVC013 07/04 A2959 RMK AO2 SLP030 T00720044", "KMOX 230815Z AUTO 13008KT 10SM CLR 10/02 A2953 RMK AO2", "KMPO 230753Z AUTO 00000KT 10SM CLR 03/02 A3028 RMK AO2 SLP259 T00280017", "KMPR 230815Z AUTO 17012KT 10SM CLR 20/09 A2948 RMK AO2 T01950095", "KMPV 230751Z AUTO 00000KT 10SM CLR 04/01 A3035 RMK AO2 SLP282 T00390011", "KMPZ 230810Z AUTO 15007KT 10SM CLR 17/14 A2975 RMK AO2", "KMQB 230815Z AUTO 14009KT 10SM CLR 15/11 A2982 RMK AO2 T01500109", "KMQI 230815Z AUTO 03019G24KT 10SM OVC010 17/16 A3005 RMK AO2 T01720156", "KMQS 230815Z AUTO 36004KT 10SM CLR 08/08 A3027 RMK AO2", "KMQW 230815Z AUTO 00000KT 10SM CLR 04/03 A3015 RMK AO2 T00410034", "KMQY 230756Z 12003KT 10SM CLR 11/09 A3013 RMK AO2 SLP208 T01060094", "KMRB 230753Z AUTO 00000KT 8SM CLR 04/02 A3024 RMK AO2 SLP243 T00390022 $", "KMRC 230810Z AUTO 00000KT 10SM CLR 13/13 A3008 RMK A01", "KMRF 230756Z AUTO 09003KT 10SM SCT095 13/07 A2994 RMK AO2 SLP076 T01280072", "KMRH 230758Z AUTO 35011KT 10SM FEW050 SCT080 SCT100 16/12 A3003 RMK AO2 RAB18E55 SLP170 P0000 T01560122", "KMRJ 230815Z AUTO 14008KT 10SM SCT120 15/10 A2981 RMK AO2", "KMRN 230815Z AUTO 00000KT 10SM CLR 02/02 A3024 RMK AO2 T00230018", "KMRT 230815Z AUTO 00000KT 10SM CLR 08/06 A3014 RMK AO2 T00840062", "KMRY 230754Z AUTO 28008G18KT 9SM CLR 13/09 A2987 RMK AO2 SLP128 T01280089 401830128", "KMSL 230753Z AUTO 15004KT 10SM CLR 14/11 A3010 RMK AO2 SLP187 T01440106", "KMSN 230753Z AUTO 18006KT 10SM CLR 16/11 A2983 RMK AO2 SLP099 T01560111", "KMSO 230816Z AUTO 35006KT 10SM OVC031 03/01 A2969 RMK AO2 RAE13 P0001 T00330006 $", "KMSP 230753Z 16008KT 10SM CLR 17/07 A2962 RMK AO2 SLP027 T01670072", "KMSS 230753Z AUTO 00000KT 10SM CLR 02/01 A3026 RMK AO2 SLP250 T00220006", "KMSV 230756Z AUTO 00000KT 10SM CLR 04/03 A3029 RMK AO2 SLP259 T00390028", "KMSY 230753Z 12007KT 10SM CLR 18/15 A3006 RMK AO2 SLP181 T01830150 $", "KMTC 230755Z AUTO 00000KT 10SM CLR 09/08 A3007 RMK AO2 SLP188 T00900076", "KMTH 230753Z AUTO 04007KT 10SM CLR 24/19 A2997 RMK AO2 SLP147 T02390194 $", "KMTJ 230753Z AUTO 19027G45KT 9SM FEW035 SCT110 16/02 A2941 RMK AO2 PK WND 19045/0753 RAB0656E01 SLP884 P0000 T01560017 $", "KMTK 230815Z AUTO 14009KT 10SM FEW042 23/13 A3006 RMK A01", "KMTN 230819Z AUTO 28005KT 10SM CLR 06/06 A3026 RMK AO2", "KMTO 230753Z AUTO 16014G21KT 10SM OVC060 18/11 A2994 RMK AO2 SLP134 T01830106", "KMTP 230754Z AUTO 05004KT 16/12 A3029 RMK AO1 SLP255 T01610122", "KMTV 230815Z AUTO 31003KT 10SM CLR 01/00 A3024 RMK AO2 T00091002", "KMTW 230756Z AUTO 16006KT 10SM CLR 12/11 A2990 RMK AO2 SLP124 T01170106", "KMUI 230755Z AUTO 00000KT 10SM CLR 04/03 A3026 RMK AO2 SLP251 T00400027", "KMUO 230756Z AUTO 29015KT 10SM CLR 03/M01 A2969 RMK AO2 SLP056 T00251008 $", "KMUT 230815Z AUTO 15006KT 10SM FEW075 17/13 A2976 RMK AO2", "KMVE 230815Z AUTO 12007KT 10SM CLR 09/05 A2952 RMK AO2", "KMVH 230815Z AUTO 31008G15KT 10SM OVC025 01/M01 A2949 RMK AO2 PWINO", "KMVL 230754Z AUTO 00000KT 10SM CLR 01/M01 A3032 RMK AO2 SLP272 T00061006", "KMVN 230756Z AUTO 17009KT 10SM CLR 18/11 A2995 RMK AO2 SLP145 T01780106", "KMVY 230753Z AUTO 05005KT 10SM CLR 12/12 A3029 RMK AO2 SLP257 T01220117", "KMWA 230815Z AUTO 17010G17KT 10SM CLR 18/12 A2997 RMK AO2 T01830115", "KMWC 230815Z AUTO 18006KT 10SM CLR 16/09 A2990 RMK AO2", "KMWH 230752Z AUTO 33009KT 10SM BKN100 04/M02 A2979 RMK AO2 SLP140 T00391017 401500028", "KMWK 230815Z AUTO 00000KT 10SM CLR 04/03 A3023 RMK AO2 T00410026", "KMWL 230753Z AUTO 15010KT 10SM CLR 22/14 A2976 RMK AO2 SLP062 T02220139", "KMWM 230815Z AUTO 14008KT 10SM CLR 14/08 A2955 RMK AO2", "KMWN 230748Z 13003KT 80SM SCT130 10/M11 RMK", "KMWO 230815Z AUTO 00000KT 10SM CLR 10/09 A3013 RMK AO2 T01000095", "KMWT 230753Z AUTO VRB04KT 10SM OVC029 22/15 A2988 RMK AO2 SLP107 T02170150", "KMXF 230805Z AUTO 00000KT 5SM BR CLR 09/08 A3013 RMK AO2 SLP205", "KMYF 230823Z AUTO 21008KT 3SM -RA BR FEW006 BKN016 OVC033 16/14 A2982 RMK AO2 RAB14 P0001 T01610144", "KMYJ 230815Z AUTO 15007KT 10SM CLR 17/12 A2976 RMK AO2", "KMYL 230751Z AUTO 31005KT 10SM OVC055 M01/M07 A2969 RMK AO2 SLP064 T10061067", "KMYP 230821Z AUTO 23033G43KT 10SM BKN024 OVC030 00/M05 A2984 RMK AO2", "KMYR 230756Z AUTO 36005KT 10SM CLR 13/12 A3011 RMK AO2 SLP197 T01330117", "KMYV 230753Z AUTO 34015G24KT 10SM CLR 14/01 A2982 RMK AO2 PK WND 32027/0657 SLP100 T01390006 402440139 $", "KMYZ 230810Z AUTO 16010G15KT 10SM CLR 20/13 A2946 RMK AO2", "KMZH 230815Z AUTO 05003KT 3SM BR CLR 07/06 A2966 RMK AO2", "KMZZ 230815Z AUTO 17006KT 10SM CLR 14/10 A3006 RMK AO2 T01380099", "KN03 230815Z AUTO 00000KT 10SM CLR 01/00 A3028 RMK AO2", "KN38 230815Z AUTO 00000KT 10SM CLR 04/03 A3025 RMK AO2", "KN60 230752Z AUTO 06013G24KT 07/05 A2952 RMK AO1 PRESFR SLP003 T00670050", "KNAK 230754Z AUTO 35004KT 10SM CLR 12/11 A3024 RMK AO2 SLP243 T01220106", "KNBC 230756Z AUTO 36004KT 10SM CLR 12/ A3011 RMK AO2 SLP197 T0122 $", "KNBG 230810Z AUTO 12003KT 10SM CLR 14/14 A3006 RMK AO2 T01440139 $", "KNBT 230800Z AUTO 35015G21KT 10SM BKN065 BKN085 19/14 A3004 RMK AO2 RAE0723 SLP176 P0000 T01890139", "KNCA 230756Z AUTO 35008KT 10SM 14/11 A3007 RMK AO2 SLP184 T01440111 $", "KNDZ 230756Z AUTO 35003KT CLR 07/07 A3012 RMK AO2 SLP185 T00720067 $", "KNEL 230800Z AUTO 03004KT 10SM OVC038 12/10 A3023 RMK AO2 SLP234 T01220100 $", "KNEW 230753Z AUTO 12006KT 10SM CLR 18/16 A3007 RMK AO2 SLP175 T01830156", "KNFE 230756Z AUTO 36008KT 10SM SCT017 BKN070 16/13 A3011 RMK AO2 SLP199 T01610128", "KNFG 230752Z AUTO 23005KT 10SM FEW015 BKN030 OVC034 17/16 A2979 RMK AO2 RAB02E46 SLP088 P0001 T01720156 402220167", "KNFL 230756Z AUTO 26006KT 10SM CLR 00/M04 A2982 RMK AO2 SLP076 T00001039", "KNFW 230752Z AUTO 18015G20KT 10SM CLR A2979 RMK AO2 SLP074 TSNO $", "KNGP 230756Z AUTO 17010KT 10SM CLR 26/20 A2987 RMK AO2 SLP113 T02560200", "KNGU 230759Z 02012KT 10SM BKN200 16/13 A3015 RMK AO2 SLP210 T01560133 $", "KNHK 230752Z AUTO 36007KT 10SM FEW024 14/11 A3022 RMK AO2 SLP232 T01440106 $", "KNID 230756Z AUTO 28011KT 10SM CLR 17/01 A2966 RMK AO2 SLP029 T01670006 402720167 $", "KNIP 230753Z 35010KT 10SM CLR 17/12 A3010 RMK AO2 SLP187 T01670122 $", "KNJK 230756Z AUTO 26025G38KT 10SM CLR 22/09 A2971 RMK AO2 PK WND 27039/0714 SLP074 T02220094 403330183 $", "KNJM 230757Z AUTO 01007G17KT 10SM CLR 17/11 A3006 RMK AO2 SLP182 T01720106", "KNJW 230757Z AUTO 17004KT 10SM CLR 14/12 A3012 RMK AO2 SLP115 T01440117", "KNKT 230756Z 36012KT 10SM FEW095 BKN120 16/12 A3007 RMK AO2 SLP178 T01560122", "KNKX 230822Z 22010KT 9SM SCT016 OVC029 16/15 A2981 RMK AO2 T01610150", "KNLC 230756Z AUTO 35008KT 10SM CLR 12/03 A2980 RMK AO2 SLP089 T01170033 402610106", "KNMM 230756Z AUTO 00000KT 10SM CLR 12/10 A3011 RMK AO2 VIS 1/4 SOUTH SLP206 T01170100 $", "KNOG 230756Z AUTO 15008KT 10SM CLR 21/18 A2987 RMK AO2 SLP095 T02060183 PNO $", "KNOW 230815Z AUTO 25005KT 10SM OVC050 09/06 A2993 RMK AO2 T00850056", "KNOZ 230759Z AUTO 02003KT 10SM CLR 18/09 A2971 RMK AO2 SLP012 T01780089", "KNPA 230756Z AUTO 34003KT 10SM CLR 10/ A3010 RMK AO2 SLP194 T0100 $", "KNQA 230815Z AUTO 15007KT 10SM CLR 17/12 A2999 RMK A01", "KNQI 230756Z AUTO 16006KT 10SM CLR 20/19 A2987 RMK AO2 SLP110 T02000189 $", "KNQX 230753Z AUTO 05007KT CLR 26/20 A2998 RMK AO2 SLP150 T02610200 $", "KNRB 230752Z AUTO 31004KT 10SM CLR A3009 RMK AO2 SLP190 $", "KNRN 230815Z AUTO 23007KT 10SM CLR 13/M01 A2940 RMK AO2", "KNRS 230753Z AUTO 22007KT 10SM FEW048 OVC060 18/16 A2982 RMK AO2 RAE01 SLP096 P0001 T01780156 402110172 $", "KNSE 230756Z AUTO 02004KT 10SM CLR 07/07 A3012 RMK AO2 SLP185 T00720067 PNO $", "KNSI 230753Z AUTO 32021G32KT CLR 14/09 A2981 RMK AO2 PK WND 30034/0737 SLP088 T01440094 401890139 PWINO $", "KNTD 230755Z AUTO 29007KT 8SM CLR 15/12 A2977 RMK AO2 SLP081 T01500117 402170150", "KNTU 230825Z 36011KT 10SM OVC014 16/14 A3010 RMK AO2 T01610139", "KNUC 230756Z AUTO 29018G23KT 10SM SCT024 15/ A2983 RMK AO2 SLP098 T0150 401780150 $", "KNUI 230753Z AUTO 00000KT FEW023 13/10 A3019 RMK AO2 SLP223 T01330100", "KNUQ 230815Z AUTO 24004KT 10SM CLR 13/06 A2988 RMK AO2", "KNUW 230753Z 14004KT 10SM SCT042 OVC050 08/07 A2996 RMK AO2 SLP145 T00780067 401280044 VISNO $", "KNXF 230756Z AUTO 9SM 17/15 A2979 RMK AO2 SLP171 T01720150 402110167 PWINO $", "KNXP 230756Z AUTO 25015KT 10SM CLR 16/08 A2977 RMK AO2 SLP050 T01560083 402940139 $", "KNY0 230817Z AUTO 10004KT 10SM CLR 05/05 A3031 RMK AO2", "KNYC 230751Z AUTO 02003KT 10SM FEW043 13/08 A3029 RMK AO2 SLP249 T01280078 $", "KNYG 230756Z AUTO 30005KT 9SM CLR 08/ A3026 RMK AO2 SLP246 T0083 $", "KNYL 230757Z AUTO 32011KT 10SM CLR 21/09 A2969 RMK AO2 SLP051 T02060089", "KNZY 230759Z AUTO 23009KT 10SM -DZ BKN038 OVC046 18/14 A2980 RMK AO2 P0000 T01830144 $", "KO05 230815Z AUTO 00000KT 10SM FEW040 02/M05 A2988 RMK A01", "KO22 230815Z AUTO 00000KT 10SM CLR 05/M00 A2980 RMK A01", "KO32 230815Z AUTO 25003KT 9SM CLR 11/06 A2978 RMK AO2 T01060059 $", "KO69 230815Z AUTO VRB05G11KT 10SM CLR 11/02 A2988 RMK A01", "KOAJ 230756Z AUTO 36006KT 10SM CLR 14/10 A3010 RMK AO2 SLP194 T01440100", "KOAK 230753Z 32007KT 10SM CLR 14/04 A2987 RMK AO2 SLP112 T01440044 402060139", "KOAR 230815Z AUTO 24005KT 7SM CLR M12/M18 A2986 RMK AO2 PWINO", "KOBE 230815Z AUTO 36005KT 10SM CLR 18/18 A3002 RMK AO2", "KOCF 230751Z AUTO 00000KT 10SM CLR 12/11 A3010 RMK AO2 SLP194 T01220111 PNO $", "KOCH 230810Z AUTO 16005KT 10SM BKN027 BKN033 OVC045 19/17 A2994 RMK AO2", "KOCQ 230815Z AUTO 14003KT 10SM CLR 10/10 A2986 RMK AO1 T01000099", "KOCW 230755Z AUTO 35005KT 10SM CLR 13/11 A3010 RMK AO2 T01330110", "KODO 230753Z AUTO 19011KT 10SM CLR 19/13 A2978 RMK AO2 SLP039 T01890133", "KODX 230753Z AUTO 00000KT 10SM CLR 08/04 A2938 RMK AO2 SLP940 T00780039", "KOEB 230815Z AUTO 16004KT 10SM CLR 13/09 A3005 RMK AO2 T01300093", "KOEL 230815Z AUTO 23010KT 10SM CLR 12/M05 A2940 RMK AO1 T01171055", "KOEO 230815Z AUTO 00000KT 10SM CLR 14/10 A2968 RMK AO2 T01440103", "KOFF 230755Z 13013KT 10SM CLR 18/11 A2951 RMK AO2A SLP989 T01790112 PWINO PNO FZRANO TSNO VISNO RWY13 $", "KOFK 230756Z AUTO 13009KT 10SM CLR 14/09 A2942 RMK AO2 SLP952 T01390089", "KOFP 230754Z AUTO 00000KT 10SM CLR 08/07 A3023 RMK AO2 SLP237 T00830067", "KOGA 230815Z AUTO 00000KT 10SM CLR 06/00 A2931 RMK AO2 T00581002", "KOGB 230753Z AUTO 00000KT 10SM CLR 09/08 A3014 RMK AO2 SLP204 T00940083", "KOGD 230753Z AUTO 03003KT 10SM OVC065 04/02 A2958 RMK AO2 SLP991 T00440017", "KOGS 230815Z AUTO 00000KT 10SM CLR 06/04 A3023 RMK AO2", "KOIC 230815Z AUTO 18003KT 10SM CLR 01/00 A3032 RMK AO2 T00050002", "KOIN 230815Z AUTO 21008KT 10SM CLR 12/M03 A2940 RMK AO1 T01171031", "KOJA 230815Z AUTO 20015G20KT 10SM CLR 22/12 A2962 RMK AO2 T02200121", "KOJC 230753Z AUTO 17014KT 10SM CLR 21/13 A2960 RMK AO2 SLP012 T02060128", "KOKB 230816Z AUTO 23008KT 4SM -RA BR FEW007 BKN026 OVC033 17/16 A2979 RMK AO2 RAE0753B13 P0000 T01720161", "KOKC 230752Z 18020G24KT 10SM CLR 23/12 A2965 RMK AO2 PK WND 19028/0716 SLP024 T02280122", "KOKK 230756Z AUTO 16007KT 10SM CLR 12/12 A3004 RMK AO2 SLP171 T01220117 PNO $", "KOKM 230815Z AUTO 18018G28KT 10SM CLR 23/14 A2971 RMK AO2 T02310139", "KOKV 230815Z AUTO 30003KT 7SM CLR 02/02 A3023 RMK AO2", "KOKZ 230815Z AUTO 00000KT 10SM CLR 06/04 A3016 RMK AO2 T00560042", "KOLE 230815Z AUTO 21006KT 10SM CLR 08/00 A3024 RMK AO2", "KOLF 230753Z AUTO 06013KT OVC015 07/04 A2951 RMK AO2 SLP002 T00670039", "KOLG 230815Z AUTO 02003KT 10SM CLR 05/04 A2968 RMK AO1", "KOLM 230754Z AUTO 00000KT 10SM CLR 04/03 A2992 RMK AO2 SLP133 T00390033 401280017 $", "KOLS 230754Z AUTO 19013KT 10SM CLR 17/09 A2986 RMK AO2 PK WND 20026/0733 SLP052 T01720094", "KOLU 230756Z AUTO 09007KT 10SM CLR 14/10 A2944 RMK AO2 SLP960 T01390100", "KOLV 230815Z AUTO 16005KT 10SM FEW050 17/12 A3002 RMK A01", "KOLY 230815Z AUTO 16012G17KT 10SM OVC060 20/10 A2998 RMK AO2 T01950098", "KOLZ 230815Z AUTO 14011KT 10SM BKN075 15/10 A2972 RMK A01", "KOMA 230752Z 14015KT 10SM CLR 18/12 A2949 RMK AO2 SLP980 T01780122", "KOMH 230815Z AUTO 00000KT 10SM CLR 04/03 A3026 RMK AO2", "KOMK 230753Z AUTO 30004KT 10SM OVC095 04/M01 A2981 RMK AO2 SLP098 T00441011 401440017", "KONA 230815Z AUTO 16004KT 10SM CLR 18/08 A2971 RMK AO2", "KONL 230815Z AUTO 13008KT 10SM CLR 12/06 A2938 RMK AO2 T01180057", "KONM 230815Z AUTO 19004KT 10SM SCT080 14/10 A2975 RMK AO2 T01430101", "KONO 230753Z AUTO 26006KT 10SM CLR 05/M01 A2978 RMK AO2 SLP090 T00501006", "KONT 230753Z 23007KT 10SM FEW009 BKN014 BKN043 15/13 A2979 RMK AO2 SLP078 T01500133 402220144 $", "KONX 230815Z AUTO 35009KT 10SM BKN010 OVC014 16/14 A3009 RMK AO2 T01560139", "KONZ 230815Z AUTO 18003KT 10SM BKN100 11/08 A3009 RMK AO2 T01070081", "KOOA 230815Z AUTO 15014KT 10SM CLR 18/15 A2969 RMK AO2 T01820146", "KOPF 230753Z AUTO 35004KT 10SM CLR 20/18 A2999 RMK AO2 SLP157 T02000178", "KOPL 230815Z AUTO 13006KT 10SM CLR 17/16 A3002 RMK AO2 T01670156", "KOPN 230815Z AUTO 00000KT 10SM CLR 08/05 A3018 RMK AO2", "KOQN 230815Z AUTO 00000KT 10SM SCT032 09/07 A3025 RMK AO2", "KOQT 230753Z AUTO 00000KT 9SM CLR 08/07 A3019 RMK AO2 SLP219 T00780067", "KORB 230813Z AUTO 14004KT 10SM CLR 09/06 A2961 RMK AO2", "KORD 230751Z 17009KT 10SM CLR 17/11 A2991 RMK AO2 SLP123 T01720111", "KORE 230752Z AUTO 00000KT 9SM CLR 03/02 A3032 RMK AO2 SLP271 T00330017", "KORF 230802Z AUTO 01012KT 10SM BKN017 16/14 A3013 RMK AO2 T01560139", "KORG 230815Z AUTO 00000KT 10SM BKN049 22/19 A2997 RMK AO2 T02190186", "KORH 230754Z AUTO 00000KT 10SM CLR 09/06 A3030 RMK AO2 SLP263 T00890061", "KORL 230753Z AUTO 31004KT 10SM CLR 17/14 A3006 RMK AO2 SLP183 T01720139", "KORS 230815Z AUTO 00000KT 9SM FEW040 SCT055 05/ A2992 RMK AO2", "KOSA 230810Z AUTO 15011KT 10SM CLR 20/17 A2988 RMK AO2 T02020169", "KOSC 230815Z AUTO 22004KT 10SM CLR 11/08 A3003 RMK AO2 T01100079", "KOSH 230753Z AUTO 19009KT 10SM CLR 15/11 A2985 RMK AO2 SLP098 T01500111", "KOSU 230753Z AUTO 00000KT 10SM CLR 13/08 A3013 RMK AO2 SLP201 T01280083", "KOTG 230756Z AUTO 15010KT 10SM CLR 14/08 A2955 RMK AO2 SLP000 T01390083", "KOTH 230814Z AUTO 16005KT 10SM SCT003 BKN039 BKN055 08/08 A3003 RMK AO2", "KOTM 230753Z AUTO 15015KT 10SM -RA CLR 18/12 A2969 RMK AO2 RAB20 SLP047 P0000 T01780117", "KOUN 230815Z AUTO 17016G22KT 10SM CLR 23/12 A2966 RMK AO2 T02340121", "KOVE 230753Z AUTO 32010G18KT 10SM CLR 14/01 A2984 RMK AO2 SLP104 T01390006 402280139", "KOVL 230815Z AUTO 13008KT 10SM CLR 12/06 A2955 RMK AO2", "KOVS 230753Z AUTO 00000KT 10SM CLR 18/11 A2978 RMK AO2 SLP080 T01780111 $", "KOWA 230813Z AUTO 14010KT 10SM CLR 17/08 A2964 RMK AO2", "KOWB 230756Z AUTO 16009KT 10SM OVC065 18/12 A3005 RMK AO2 SLP175 T01780117", "KOWD 230826Z AUTO 00000KT 6SM BR FEW003 06/06 A3031 RMK AO2 T00610056", "KOWP 230815Z AUTO 18012G24KT 10SM CLR 24/14 A2968 RMK AO2 T02430137", "KOWX 230815Z AUTO 00000KT 10SM CLR 11/05 A3012 RMK AO1", "KOXC 230751Z AUTO 00000KT 10SM CLR 09/08 A3030 RMK AO2 SLP273 T00890078", "KOXD 230815Z AUTO 18005KT 10SM CLR 17/09 A3011 RMK AO2 T01710091", "KOXI 230815Z AUTO 16008KT 10SM CLR 13/11 A2998 RMK AO1", "KOXR 230751Z AUTO 30008KT 10SM BKN019 16/12 A2975 RMK AO2 SLP074 T01560122 402000150", "KOXV 230815Z AUTO 14010KT 10SM CLR 17/11 A2965 RMK AO2", "KOZA 230815Z AUTO 18015G24KT 10SM CLR 20/12 A2985 RMK AO2", "KOZR 230755Z AUTO 00000KT 10SM CLR 08/05 A3012 RMK AO2 SLP201 T00780053 $", "KOZS 230815Z AUTO 17011G17KT 10SM CLR 19/11 A2975 RMK AO2", "KOZW 230815Z AUTO 16003KT 10SM CLR 14/10 A3007 RMK AO2 T01390098", "KP08 230815Z AUTO 20017G24KT 10SM CLR 20/14 A2972 RMK AO2", "KP28 230756Z AUTO 17010KT 21/09 A2950 RMK AO1 SLP972 T02060089 $", "KP53 230756Z AUTO 20008G15KT 15/11 A2985 RMK AO1 SLP109 T01500106", "KP58 230755Z AUTO 17005KT 14/10 A3005 RMK AO1 SLP171 T01440100", "KP59 230751Z AUTO 24008G16KT 12/09 A2976 RMK AO1 SLP077 T01220089 $", "KP60 230756Z AUTO VRB03KT M03/M04 A2952 RMK AO1 SLP991 P0001 T10281039 $", "KP68 230753Z AUTO 33007KT M02/M03 A2972 RMK AO1 SLP064 T10171033 401501022", "KP69 230752Z AUTO 00000KT 05/03 A2980 RMK AO1 SLP100 T00500033 400780044", "KPAE 230753Z AUTO 14003KT 10SM BKN033 OVC055 08/04 A2992 RMK AO2 SLP133 T00780044 401220056", "KPAH 230753Z AUTO 18007G18KT 150V210 10SM FEW065 19/11 A2999 RMK AO2 SLP150 T01940111", "KPAM 230755Z AUTO 06005KT 10SM CLR 14/09 A3010 RMK AO2 SLP196 T01390091 $", "KPAN 230815Z AUTO 24008G15KT 10SM BKN023 OVC030 12/08 A2981 RMK AO2 PWINO TSNO", "KPBF 230753Z AUTO 18012KT 10SM CLR 21/14 A2996 RMK AO2 SLP143 T02110144", "KPBG 230753Z AUTO 00000KT 10SM CLR 03/03 A3027 RMK AO2 SLP253 T00330028", "KPBH 230815Z AUTO 16007KT 10SM CLR 15/09 A2976 RMK AO2 T01510090", "KPBI 230753Z 31004KT 10SM FEW044 SCT055 20/19 A3001 RMK AO2 SLP160 T02000189 $", "KPBX 230815Z AUTO 13004KT 10SM CLR 12/05 A3018 RMK AO2 T01160052", "KPCD 230815Z AUTO 17012KT 10SM CLR 19/12 A2990 RMK AO2 T01850122", "KPCM 230815Z AUTO 02003KT 10SM CLR 17/15 A3009 RMK AO2", "KPCW 230815Z AUTO 19007KT 10SM FEW055 13/10 A3010 RMK AO2", "KPCZ 230815Z AUTO 14004KT 10SM CLR 15/11 A2984 RMK AO2 T01480105", "KPDK 230753Z AUTO 00000KT 9SM CLR 04/04 A3019 RMK AO2 SLP221 T00440044", "KPDT 230753Z AUTO 26011KT 10SM CLR 06/02 A2981 RMK AO2 SLP093 T00610022 401220061", "KPDX 230753Z 00000KT 10SM SCT032 SCT043 BKN060 09/06 A2995 RMK AO2 SLP142 T00940061 401610089", "KPEA 230815Z AUTO 14011G15KT 10SM CLR 17/11 A2967 RMK AO2 T01740112", "KPEO 230753Z AUTO 18003KT 10SM CLR 08/03 A3024 RMK AO2 SLP239 T00780033", "KPEQ 230815Z AUTO 00000KT 10SM CLR 16/12 A2976 RMK AO2 T01570119", "KPEX 230815Z AUTO 14007KT 10SM CLR 13/07 A2958 RMK AO2", "KPEZ 230815Z AUTO 18005KT 10SM CLR 21/19 A2987 RMK AO2 T02100185", "KPGA 230753Z AUTO 25012G24KT 10SM CLR 16/03 A2947 RMK AO2 PK WND 22028/0709 SLP923 T01610028", "KPGD 230753Z AUTO 03003KT 9SM CLR 18/17 A3005 RMK AO2 SLP175 T01780172", "KPGV 230815Z AUTO 34005KT 10SM CLR 12/12 A3012 RMK AO2", "KPHD 230753Z AUTO 00000KT 10SM CLR 07/05 A3018 RMK AO2 SLP220 T00670050", "KPHF 230808Z 01004KT 10SM BKN012 12/11 A3016 RMK AO2 T01170111", "KPHL 230754Z 36003KT 10SM OVC027 12/10 A3025 RMK AO2 SLP242 T01220100 $", "KPHN 230815Z AUTO 00000KT 10SM CLR 10/07 A3011 RMK AO2", "KPHP 230755Z AUTO 00000KT 10SM CLR 02/01 A2933 RMK AO2 SLP932 T00170006", "KPHT 230815Z AUTO 17013KT 10SM OVC060 18/11 A3003 RMK A01", "KPHX 230751Z 21007KT 10SM SCT060 24/10 A2965 RMK AO2 SLP024 T02390100 $", "KPIA 230754Z 17013G22KT 10SM CLR 18/12 A2985 RMK AO2 SLP103 T01780117", "KPIB 230756Z AUTO 00000KT 10SM CLR 12/12 A3011 RMK AO2 SLP194 T01220122 PNO $", "KPIE 230753Z AUTO 06006KT 10SM CLR 19/16 A3007 RMK AO2 SLP181 T01890161", "KPIH 230825Z AUTO 23009KT 10SM OVC015 02/M01 A2963 RMK AO2 T00221006 $", "KPIL 230753Z AUTO 17006KT 10SM SCT029 23/21 A2987 RMK AO2 SLP115 T02330211", "KPIM 230815Z AUTO 00000KT 10SM CLR 08/04 A3017 RMK AO2 T00810039", "KPIR 230753Z AUTO 06010KT 10SM CLR 06/02 A2935 RMK AO2 SLP937 T00610017", "KPIT 230751Z 00000KT 10SM FEW250 07/03 A3019 RMK AO2 SLP230 T00720033", "KPKB 230753Z AUTO 11004KT 9SM CLR 06/05 A3018 RMK AO2 SLP217 T00610050", "KPKD 230753Z AUTO 00000KT 10SM CLR 07/04 A2956 RMK AO2 SLP015 T00670039", "KPKV 230820Z AUTO 17004KT 10SM CLR 21/18 A2989 RMK AO2 T02100182", "KPLN 230754Z AUTO 19009G14KT 160V230 10SM CLR 19/11 A2996 RMK AO2 SLP143 T01890106 $", "KPLR 230815Z AUTO 00000KT 7SM FEW024 BKN035 BKN065 07/06 A3017 RMK A01", "KPLU 230815Z AUTO 00000KT 6SM -DZ OVC060 05/05 A2993 RMK AO2", "KPMD 230753Z AUTO 23012KT 10SM SCT040 BKN047 OVC055 14/09 A2977 RMK AO2 SLP062 T01390089 402060133", "KPMH 230815Z AUTO 00000KT 10SM CLR 09/06 A3017 RMK AO2 T00880064", "KPMP 230753Z AUTO 00000KT 10SM CLR 21/18 A2999 RMK AO2 SLP156 T02060178", "KPMU 230815Z AUTO 16003KT 10SM CLR 17/12 A3004 RMK AO2", "KPMV 230815Z AUTO 13011KT 10SM CLR 17/12 A2949 RMK AO2 T01730122", "KPNA 230815Z AUTO 29007KT 10SM OVC110 M02/M04 A2951 RMK AO2", "KPNC 230753Z AUTO 18011G19KT 10SM CLR 24/13 A2957 RMK AO2 SLP000 T02390128", "KPNE 230815Z AUTO 02006KT 10SM OVC030 12/07 A3026 RMK AO2 T01170072", "KPNM 230815Z AUTO 11004KT 10SM CLR 12/08 A2962 RMK AO2 TSNO", "KPNS 230753Z AUTO 00000KT 10SM CLR 13/10 A3010 RMK AO2 SLP196 T01280100", "KPNT 230815Z AUTO 14008KT 10SM CLR 15/13 A2990 RMK AO2 T01460125", "KPOB 230755Z AUTO 00000KT 10SM CLR 10/08 A3015 RMK AO2 SLP212 T00960084 $", "KPOE 230755Z AUTO 12005KT 10SM CLR 17/17 A2996 RMK AO2 SLP145 T01740172", "KPOF 230753Z AUTO 18007KT 10SM CLR 18/11 A2992 RMK AO2 SLP130 T01780106 $", "KPOU 230753Z AUTO 00000KT 10SM CLR 04/03 A3029 RMK AO2 SLP254 T00440033", "KPOV 230815Z AUTO 11004KT 10SM CLR 07/05 A3017 RMK AO2 T00700046 PWINO", "KPOY 230815Z AUTO 34017G24KT 10SM BKN070 00/00 A2943 RMK AO2", "KPPA 230815Z AUTO 21015KT 10SM CLR 21/12 A2964 RMK AO2 T02070118", "KPPF 230752Z AUTO 18013G26KT 10SM FEW120 23/12 A2964 RMK AO2 PK WND 19029/0718 SLP026 T02280122 PWINO $", "KPPO 230815Z AUTO 16006KT 10SM CLR 14/13 A2998 RMK AO2 T01400125", "KPPQ 230815Z AUTO 14008KT 10SM CLR 17/13 A2981 RMK AO2 T01660125", "KPQI 230756Z AUTO 18003KT 10SM CLR 06/05 A3031 RMK AO2 SLP292 T00560050", "KPQL 230753Z AUTO 00000KT 4SM BR CLR 10/09 A3010 RMK AO2 SLP193 T01000094", "KPRB 230753Z AUTO 30006KT 10SM CLR 10/06 A2988 RMK AO2 SLP115 T01000056 402060100", "KPRC 230753Z AUTO 20014G26KT 10SM FEW032 SCT041 12/07 A2974 RMK AO2 PK WND 18027/0726 SLP005 T01220072", "KPRG 230815Z AUTO 15013KT 10SM BKN055 17/12 A2999 RMK AO2 T01680117", "KPRN 230758Z AUTO 00000KT 10SM CLR 06/05 A3013 RMK AO2 SLP151 T00560050", "KPRO 230815Z AUTO 13008KT 10SM CLR 16/10 A2959 RMK AO2 T01570103", "KPRS 230815Z AUTO 00000KT 10SM CLR 21/09 A2983 RMK AO2 T02130088", "KPRX 230756Z AUTO 17016G19KT 10SM CLR 21/14 A2985 RMK AO2 SLP102 T02110144", "KPSC 230753Z AUTO 00000KT 10SM OVC120 08/02 A2981 RMK AO2 SLP096 T00780022 401500067 $", "KPSF 230754Z AUTO 00000KT 10SM CLR 03/02 A3030 RMK AO2 SLP251 T00330022", "KPSK 230815Z AUTO 00000KT 10SM CLR 03/02 A3022 RMK AO2 T00290024", "KPSM 230755Z 00000KT 10SM BKN250 06/05 A3031 RMK AO2A SLP267 T00600053", "KPSN 230815Z AUTO 16006KT 10SM CLR 19/18 A2988 RMK AO2", "KPSO 230815Z AUTO 22025G38KT 10SM BKN043 BKN049 BKN065 11/02 A2973 RMK AO2 LTG DSNT E AND NW T01140022", "KPSP 230753Z AUTO 18003KT 10SM CLR 19/11 A2970 RMK AO2 SLP056 T01940106 402940183 $", "KPSX 230753Z AUTO 17010KT 10SM CLR 24/19 A2989 RMK AO2 SLP120 T02390194", "KPTB 230815Z AUTO 00000KT 10SM CLR 10/08 A3021 RMK AO2 T00950078", "KPTD 230815Z AUTO 17004KT 10SM BKN060 12/02 A3025 RMK AO2", "KPTK 230753Z 00000KT 10SM CLR 09/07 A3009 RMK AO2 SLP188 T00940072 $", "KPTN 230756Z AUTO 12005KT 10SM SCT042 19/16 A3003 RMK AO2 SLP170 T01890161 $", "KPTS 230815Z AUTO 19022G27KT 10SM SCT120 22/13 A2965 RMK AO2 T02230130 PWINO", "KPTT 230815Z AUTO 19011KT 10SM CLR 19/07 A2949 RMK AO2 T01940065", "KPTV 230756Z AUTO 00000KT 10SM CLR 13/07 A2980 RMK AO2 SLP091 T01330067", "KPTW 230754Z AUTO 00000KT 6SM BR FEW035 04/03 A3029 RMK AO2 SLP254 T00390033", "KPUB 230753Z AUTO 24013KT 10SM CLR 20/M03 A2945 RMK AO2 PK WND 23027/0706 SLP903 T02001028", "KPUC 230753Z AUTO 33005KT 10SM FEW038 OVC044 05/M03 A2951 RMK AO2 SLP970 T00501033", "KPUJ 230815Z AUTO 00000KT 7SM CLR 10/03 A3019 RMK AO2", "KPUW 230753Z AUTO 00000KT 10SM BKN018 02/01 A2977 RMK AO2 SLP094 T00170006 400780017 $", "KPVB 230815Z AUTO 15013G17KT 10SM CLR 16/12 A2980 RMK AO1 T01630116", "KPVC 230756Z AUTO 05004KT 10SM CLR 12/12 A3032 RMK AO2 SLP267 T01220122", "KPVD 230751Z AUTO 30003KT 10SM CLR 09/08 A3031 RMK AO2 SLP264 T00940078 $", "KPVF 230815Z AUTO 08008KT 10SM CLR 08/M03 A2982 RMK AO1", "KPVG 230809Z AUTO VRB03KT 10SM BKN012 14/13 A3015 RMK AO2 PNO $", "KPVJ 230815Z AUTO 17009G16KT 10SM CLR 23/14 A2971 RMK AO2 T02250135", "KPVU 230756Z AUTO 15004KT 10SM OVC015 03/02 A2961 RMK AO2 UPE01 SLP008 P0001 T00330022", "KPVW 230810Z AUTO 21014G18KT 10SM CLR 17/11 A2972 RMK AO2 T01700109", "KPWA 230753Z AUTO 18020G26KT 10SM CLR 24/12 A2964 RMK AO2 PK WND 17027/0705 SLP018 T02390122", "KPWC 230815Z AUTO 13004KT 10SM CLR 08/06 A2963 RMK AO2", "KPWD 230815Z AUTO 08020G29KT 10SM OVC008 05/03 A2955 RMK AO2", "KPWK 230752Z AUTO 17009KT 10SM CLR 17/12 A2992 RMK AO2 SLP128 T01720117", "KPWM 230751Z AUTO 27003KT 10SM CLR 05/05 A3032 RMK AO2 SLP268 T00500050", "KPWT 230756Z AUTO 00000KT 10SM OVC060 04/04 A2992 RMK AO2 SLP138 T00390039 401170011", "KPXE 230815Z AUTO 36003KT 10SM CLR 04/03 A3016 RMK AO2 T00400035", "KPYM 230752Z AUTO 00000KT 10SM 10/08 A3030 RMK AO2 SLP263 T01000083 $", "KPYX 230815Z AUTO 22018KT 10SM CLR 20/09 A2956 RMK AO2 T01990091", "KPZQ 230815Z AUTO 20003KT 10SM CLR 16/10 A3000 RMK AO2 T01640099", "KPZZ 230815Z AUTO 14017KT 10SM FEW038 SCT044 BKN049 25/16 A3002 RMK A01", "KQAZ 230755Z AUTO 08014G21KT 9999 CLR 29/04 A3010 RMK AO2 SLP191 WND DATA ESTMD T02890039", "KQBL 230755Z AUTO 00000KT 10SM CLR 12/08 A3012 RMK AO2 SLP206 WND DATA ESTMD T01210076", "KQD3 230755Z AUTO 11010G21KT 070V160 9999 CLR 33/22 A3001 RMK AO2 SLP147 WND DATA ESTMD T03260215", "KQEI 230820Z AUTO 27001KT 9999 FEW065 11/10 A3005 RMK A02 TSNO", "KQEJ 230820Z AUTO 21001KT 9999 // FEW041 FEW070 SCT085 21/21 / RMK A02 TSNO", "KQEN 230820Z AUTO 11001KT 0400 -SHRA FG CLR / / RMK A02 TSNO", "KQEP 230820Z AUTO 34003KT 9999 CLR 17/M01 A3007 RMK A02 TSNO", "KQEQ 230820Z AUTO 34004G11KT 9999 CLR 15/M02 A3012 RMK A02 TSNO", "KQER 230820Z AUTO 19002G10KT 9999 CLR 15/M04 A3002 RMK A02 TSNO", "KQEV 230820Z AUTO 30003KT 9999 CLR 16/03 A3004 RMK A02 TSNO", "KQEW 230820Z AUTO 26003G11KT 9999 // CLR 17/06 A3001 RMK A02 TSNO", "KQEX 230750Z AUTO 33005KT 9999 CLR 19/06 A2993 RMK A02 TSNO", "KQEY 230820Z AUTO 29006KT 9999 FEW050 16/05 A2976 RMK A02 TSNO", "KQFB 230820Z AUTO 26002KT 9000 HZ CLR 18/07 A3004 RMK A02 TSNO", "KQFT 230820Z AUTO 30002G12KT 9999 CLR 17/M05 A3005 RMK A02 TSNO", "KQFU 230820Z AUTO 25003G12KT 9999 CLR 16/M03 A3012 RMK A02 TSNO", "KQFV 230820Z AUTO 27003KT 9999 FEW075 15/M02 A3008 RMK A02 TSNO", "KQFW 230820Z AUTO 03002KT 9999 BKN055 11/10 A2988 RMK A02 TSNO", "KQFX 230820Z AUTO 34001KT 9999 FEW049 18/16 / RMK A02 TSNO", "KQN3 230755Z AUTO VRB05G11KT 9999 CLR 30/03 A3000 RMK AO2 SLP148 WND DATA ESTMD T03010033", "KQRH 230755Z AUTO 07010G14KT 350V110 9999 CLR 32/22 A2997 RMK AO2 SLP151 WND DATA ESTMD T03230221", "KQTZ 230755Z 36003KT 9999 FEW150 29/15 A3003 RMK SLP167 WND DATA ESTMD ALSTG/SLP ESTMD", "KQVF 230755Z AUTO 13012G17KT 9999 CLR 29/24 A3006 RMK AO2 SLP182 WND DATA ESTMD T02910236", "KRAC 230753Z AUTO 16006KT 10SM CLR 16/11 A2992 RMK AO2 SLP130 T01560111", "KRAL 230753Z AUTO 00000KT 10SM SCT041 BKN049 OVC060 16/12 A2979 RMK AO2 SLP075 T01610122 402280156 $", "KRAP 230752Z AUTO 34009KT 10SM CLR 08/02 A2936 RMK AO2 SLP934 T00780022 $", "KRAS 230815Z AUTO 17011KT 10SM CLR A2989 RMK AO2", "KRAW 230815Z AUTO 18010G15KT 10SM CLR 19/11 A2971 RMK AO2", "KRBD 230753Z AUTO 19016G24KT 10SM CLR 21/17 A2981 RMK AO2 SLP085 T02110167", "KRBG 230753Z AUTO 00000KT 10SM SCT065 SCT095 06/05 A3000 RMK AO2 SLP161 T00560050 401330056", "KRBL 230754Z AUTO 31008KT 10SM CLR 13/01 A2988 RMK AO2 SLP115 T01280006 402330128", "KRBO 230815Z AUTO 10SM CLR 22/19 A2987 RMK AO2 T02240193", "KRBW 230815Z AUTO 00000KT 10SM CLR 10/10 A3014 RMK AO2", "KRCA 230755Z 02005KT 10SM FEW150 BKN170 08/01 A2934 RMK AO2A SLP931 T00780012 $", "KRCE 230815Z AUTO 19019G26KT 10SM CLR 22/12 A2963 RMK AO2", "KRCM 230815Z AUTO 16013G16KT 10SM CLR 20/11 A2965 RMK AO2", "KRCR 230815Z AUTO 16005KT 10SM CLR 15/11 A3001 RMK AO2", "KRCV 230815Z AUTO 25018G33KT 10SM -DZ SCT070 BKN090 OVC110 09/M01 A2969 RMK AO2 LTG DSNT S AND W T00901011", "KRCX 230815Z AUTO 14006KT 10SM CLR 16/12 A2975 RMK AO2 T01630115", "KRCZ 230815Z AUTO 36003KT 10SM CLR 10/09 A3016 RMK AO2 T01030088", "KRDG 230754Z AUTO 00000KT 8SM CLR 06/04 A3027 RMK AO2 SLP255 T00610044 $", "KRDK 230815Z AUTO 14013G18KT CLR 19/12 A2953 RMK AO2", "KRDM 230756Z AUTO 00000KT 10SM BKN040 OVC050 04/01 A2987 RMK AO2 RAE48 SLP116 P0001 T00440006 401000039", "KRDR 230755Z AUTO 01008KT 10SM CLR 06/04 A2954 RMK AO2 SLP011 T00620037 CHINO RWY17 $", "KRDU 230751Z 00000KT 10SM BKN250 11/09 A3018 RMK AO2 SLP215 T01110094", "KREG 230815Z AUTO 00000KT 10SM SCT044 16/14 A3004 RMK AO2 T01560142", "KREO 230752Z AUTO 27006KT 03/00 A2976 RMK AO1 SLP082 T00280000", "KRFD 230754Z 16007KT 10SM CLR 16/12 A2987 RMK AO2 SLP113 T01560117", "KRFI 230815Z AUTO 14007KT 10SM BKN024 BKN034 22/15 A2993 RMK AO2 T02210150", "KRGA 230818Z AUTO 00000KT 10SM CLR 15/08 A3016 RMK AO2", "KRGK 230815Z AUTO 12005KT 10SM CLR 16/08 A2966 RMK AO2", "KRHI 230753Z AUTO 18006KT 10SM CLR 15/08 A2981 RMK AO2 SLP092 T01500083", "KRHP 230815Z AUTO 00000KT 10SM CLR 01/00 A3023 RMK AO2 T00120003", "KRIC 230754Z 01006KT 10SM OVC300 09/07 A3021 RMK AO2 SLP235 T00890072 $", "KRIL 230753Z AUTO 25011KT 10SM -RA OVC060 09/07 A2944 RMK AO2 RAB51 SLP915 P0000 T00940067", "KRIV 230755Z AUTO 00000KT 10SM FEW019 FEW042 BKN055 14/11 A2980 RMK AO2 SLP082 T01430113 402200137", "KRIW 230753Z AUTO 29007KT 9SM -SN CLR 03/M01 A2942 RMK AO2 SNB46 SLP924 P0000 T00281006 $", "KRKD 230822Z AUTO 00000KT 3/4SM BR OVC002 04/04 A3033 RMK AO2", "KRKP 230753Z AUTO 18006KT 10SM CLR 24/20 A2987 RMK AO2 SLP115 T02440200", "KRKR 230815Z AUTO 10SM CLR 22/13 A2981 RMK AO2", "KRKS 230826Z AUTO 24010KT 2SM -SN BR FEW007 BKN011 OVC029 M01/M01 A2952 RMK AO2 SNB12 P0000 T10061006", "KRLD 230815Z AUTO 27006KT 10SM OVC090 08/03 A2981 RMK AO2 T00830027", "KRME 230753Z AUTO 13006KT 10SM CLR 04/02 A3029 RMK AO2 SLP256 T00390022", "KRMG 230753Z AUTO 00000KT 8SM CLR 07/05 A3017 RMK AO2 SLP212 T00670050", "KRMN 230815Z AUTO 00000KT 10SM CLR 07/06 A3027 RMK AO2 T00730060", "KRMY 230815Z AUTO 16003KT 10SM CLR 14/10 A3004 RMK AO2 T01400096", "KRNC 230815Z AUTO 00000KT 10SM FEW044 09/07 A3013 RMK A01", "KRND 230755Z AUTO 17008KT 10SM CLR 21/19 A2985 RMK AO2 SLP101 T02050190", "KRNH 230815Z AUTO 14004KT 10SM CLR 15/11 A2967 RMK AO2 T01540110", "KRNM 230815Z AUTO 23006KT 5SM -RA BR FEW010 BKN015 OVC037 14/13 A2981 RMK AO2 RAB14 P0000 T01440133", "KRNO 230755Z 27007KT 10SM FEW080 04/M08 A2985 RMK AO2 SLP086 T00391078 401890039", "KRNP 230815Z AUTO 16003KT 10SM CLR 15/09 A3005 RMK AO2 T01480090", "KRNT 230753Z AUTO 18003KT 10SM BKN035 OVC046 07/05 A2993 RMK AO2 SLP139 T00670050 401000056", "KRNV 230815Z AUTO 17010KT 10SM CLR A3002 RMK AO2 TSNO", "KROA 230754Z 30003KT 10SM CLR 05/03 A3025 RMK AO2 SLP240 T00500028 $", "KROC 230754Z 24004KT 10SM CLR 07/03 A3021 RMK AO2 SLP233 T00720033", "KROG 230758Z 10SM CLR 21/13 A2979 RMK AO2 SLP071 T02110128 $", "KROS 230823Z AUTO 15006KT 10SM CLR 17/09 A2964 RMK AO2", "KROW 230751Z AUTO 19010KT 10SM CLR 19/11 A2972 RMK AO2 SLP003 T01890111", "KROX 230815Z AUTO 06009KT 10SM CLR 08/06 A2961 RMK AO2", "KRPD 230815Z AUTO 12007KT 10SM CLR 14/11 A2971 RMK AO2 T01390110", "KRPH 230815Z AUTO VRB05KT 10SM CLR 23/12 A2973 RMK AO2 T02280123 $", "KRPJ 230815Z AUTO 16011KT 10SM CLR 15/13 A2987 RMK AO2 T01450126 TSNO", "KRPX 230741Z AUTO 10SM 04/02 A2943 RMK Roundup ", "KRQB 230815Z AUTO 00000KT 10SM CLR 12/10 A3000 RMK AO2 T01200095", "KRQE 230753Z AUTO 21020G35KT 10SM FEW038 12/04 A2972 RMK AO2 PK WND 21035/0747 SLP963 T01170039", "KRQO 230815Z AUTO 18018KT CLR 22/12 A2965 RMK AO2 PWINO T02170121", "KRRL 230815Z AUTO 11004KT 10SM CLR 13/09 A2980 RMK AO2 T01310092 TSNO", "KRRT 230815Z AUTO 04011G17KT 10SM 08/06 A2963 RMK AO2", "KRSL 230753Z AUTO 21011KT 10SM CLR 17/04 A2941 RMK AO2 SLP940 T01670039", "KRSN 230815Z AUTO 16006KT 10SM CLR 19/15 A3003 RMK AO2 T01850147", "KRST 230754Z AUTO 16012G19KT 10SM CLR 16/08 A2968 RMK AO2 SLP046 T01610083", "KRSV 230815Z AUTO 17012KT 10SM OVC060 17/11 A3000 RMK AO2 T01740106", "KRSW 230753Z 04004KT 10SM CLR 19/17 A3003 RMK AO2 SLP165 T01890172", "KRTN 230753Z AUTO 21004KT 10SM CLR 08/04 A2968 RMK AO2 SLP973 T00830044", "KRTS 230815Z AUTO 32005KT 10SM CLR M03/M09 A2986 RMK AO2", "KRUE 230753Z AUTO 00000KT 10SM CLR 18/14 A2987 RMK AO2 SLP107 T01830139", "KRUG 230815Z AUTO 06019G27KT 10SM FEW012 FEW044 FEW050 06/06 A2960 RMK AO2", "KRUQ 230815Z AUTO 00000KT 7SM CLR 03/02 A3019 RMK AO2 T00290022", "KRUT 230756Z AUTO 14007KT 10SM CLR 06/03 A3032 RMK AO2 SLP262 T00610028 $", "KRVF 230815Z AUTO 00000KT 1 3/4SM -SN OVC003 00/M00 A2961 RMK AO2", "KRVJ 230815Z AUTO 33003KT 10SM CLR 06/05 A3014 RMK AO2 T00630053", "KRVL 230815Z AUTO 00000KT 6SM BR CLR 01/M00 A3027 RMK AO2", "KRVS 230753Z AUTO 19015G23KT 10SM CLR 24/13 A2966 RMK AO2 PK WND 17027/0712 SLP047 T02390133", "KRWF 230753Z AUTO 12008KT 10SM CLR 12/06 A2955 RMK AO2 SLP003 T01170061", "KRWI 230753Z AUTO 01006KT 10SM CLR 11/09 A3016 RMK AO2 SLP212 T01110089", "KRWL 230820Z AUTO 24009KT 10SM SCT006 BKN055 OVC065 01/00 A2949 RMK AO2 SNE07 P0000 T00110000", "KRWV 230815Z AUTO 17006KT 10SM CLR 20/17 A2988 RMK AO2 T01950165", "KRXE 230753Z AUTO 21004KT 10SM OVC044 02/M01 A2958 RMK AO2 SLP015 T00221006", "KRYM 230755Z AUTO 00000KT 10SM CLR 11/06 A2957 RMK AO2 SLP016 T01050059 $", "KRYV 230815Z AUTO 17009KT 10SM CLR 15/11 A2986 RMK AO2 T01520106", "KRYW 230815Z AUTO 19013G20KT 10SM OVC014 21/18 A2988 RMK AO2 T02060175", "KRYY 230750Z AUTO 00000KT 10SM CLR 07/05 A3020 RMK AO2 SLP220 T00670050 $", "KRZL 230815Z AUTO 15010KT 10SM SCT055 16/10 A2998 RMK AO2", "KRZN 230815Z AUTO 16003KT 10SM CLR 13/07 A2966 RMK AO2 T01330069", "KRZR 230815Z AUTO 00000KT 7SM CLR 04/04 A3015 RMK A01", "KRZT 230815Z AUTO 00000KT 10SM CLR 10/08 A3014 RMK AO2 PWINO", "KS21 230810Z AUTO 20009KT 10SM FEW047 BKN060 OVC075 00/M02 A2990 RMK AO2", "KS24 230815Z AUTO 16007KT 10SM CLR 15/08 A3011 RMK AO2", "KS25 230815Z AUTO 08017G26KT 10SM OVC009 06/06 A2950 RMK AO2", "KS32 230815Z AUTO 03011KT 10SM BKN024 OVC030 06/06 A2954 RMK AO2 TSNO", "KS33 230815Z AUTO 14003KT 10SM CLR 00/M01 A2991 RMK AO2", "KS34 230755Z AUTO 00000KT 10SM 03/M12 A2973 RMK Plains ", "KS39 230815Z AUTO 00000KT 10SM BKN034 BKN041 OVC055 02/M00 A2988 RMK AO2", "KS52 230815Z AUTO 34004KT 10SM OVC080 M02/M06 A2983 RMK AO2 T10241057", "KS59 230815Z AUTO 00000KT 9SM 02/02 A2974 ", "KS71 230815Z AUTO 06003KT 7SM 03/03 A2959 ", "KS85 230810Z AUTO 07011G19KT 10SM OVC014 07/05 A2950 RMK A01 Culbertson ", "KSAA 230815Z AUTO 2SM -SN SCT003 OVC008 00/00 A2951 RMK AO2", "KSAC 230753Z AUTO 32012G21KT 10SM CLR 14/00 A2981 RMK AO2 SLP095 T01390000 402440139", "KSAD 230751Z AUTO 31006KT 10SM FEW090 21/10 A2971 RMK AO2 SLP014 T02060100", "KSAF 230753Z AUTO 23007KT 10SM SCT048 SCT055 BKN070 14/07 A2976 RMK AO2 SLP990 T01390067", "KSAN 230751Z 24007KT 10SM BKN042 19/14 A2982 RMK AO2 SLP098 T01890144 402110178", "KSAR 230815Z AUTO 16011KT 10SM CLR 18/11 A2991 RMK AO2 T01840106", "KSAT 230751Z 18009KT 10SM BKN017 21/18 A2988 RMK AO2 SLP100 T02110178", "KSAV 230753Z AUTO 35003KT 10SM CLR 11/08 A3013 RMK AO2 SLP202 T01060083", "KSAW 230818Z AUTO 18008KT 7SM CLR 10/09 A2985 RMK AO2 T00950087", "KSAZ 230815Z AUTO 00000KT 10SM CLR 12/06 A2957 RMK AO2", "KSBD 230820Z AUTO 08003KT 10SM BKN010 BKN030 OVC065 15/12 A2980 RMK AO2 T01520117", "KSBM 230753Z AUTO 17006KT 10SM CLR 13/11 A2989 RMK AO2 SLP120 T01280106", "KSBN 230754Z AUTO 14008KT 10SM CLR 15/11 A3001 RMK AO2 SLP160 T01500106", "KSBO 230815Z AUTO 00000KT 10SM CLR 08/07 A3016 RMK AO2", "KSBP 230756Z AUTO 00000KT 9SM CLR 10/08 A2984 RMK AO2 SLP104 T01000078 401940094", "KSBS 230815Z AUTO 09004KT 10SM SCT004 OVC009 02/02 A2946 RMK AO1 T00210021", "KSBY 230754Z AUTO 36007KT 10SM OVC016 13/11 A3018 RMK AO2 SLP220 T01280111", "KSCD 230815Z AUTO 00000KT 10SM SCT120 06/06 A3016 RMK AO2 T00620062", "KSCK 230755Z 30009KT 10SM CLR 13/04 A2981 RMK AO2 SLP095 T01330039 402500128", "KSCR 230815Z AUTO 00000KT 10SM CLR 07/07 A3017 RMK AO2 T00670067", "KSCX 230815Z AUTO 00000KT 10SM CLR 10/07 A3017 RMK A01", "KSDA 230815Z AUTO VRB05KT 10SM CLR 18/12 A2951 RMK AO2", "KSDB 230817Z AUTO 31019G27KT 10SM BKN022 OVC028 08/03 A2981 RMK AO2 PK WND 32031/0802 T00830028 $", "KSDC 230815Z AUTO 16004KT 10SM CLR 10/02 A3022 RMK AO2", "KSDF 230756Z 14007KT 10SM FEW070 BKN200 OVC250 16/11 A3009 RMK AO2 SLP185 T01610111", "KSDL 230753Z AUTO 00000KT 10SM OVC050 22/11 A2970 RMK AO2 SLP034 T02220111", "KSDM 230753Z AUTO 20008KT 10SM FEW040 BKN055 OVC070 16/15 A2982 RMK AO2 RAE34 SLP092 P0003 T01610150 402220161", "KSDY 230756Z AUTO 04010KT 10SM -RA OVC011 07/06 A2947 RMK AO2 RAB47 SLP992 T00720056 PNO $", "KSEA 230753Z 12005KT 10SM FEW042 OVC060 07/05 A2992 RMK AO2 SLP138 T00670050 401000061 $", "KSEE 230815Z AUTO 22005KT 8SM FEW020 BKN036 OVC043 17/15 A2981 RMK AO2", "KSEF 230815Z AUTO 33005KT 10SM CLR 17/ A3005 RMK AO2 T0169////", "KSEG 230753Z AUTO 00000KT 6SM HZ CLR 00/ A3028 RMK AO2 SLP255 T0000", "KSEM 230815Z AUTO 00000KT 10SM BKN016 BKN042 08/08 A3013 RMK AO2", "KSEP 230815Z AUTO 18011G16KT 10SM CLR 21/16 A2982 RMK AO2 T02050157", "KSEQ 230755Z AUTO 19008KT 10SM CLR 20/18 A2985 RMK AO2 SLP104 T01980181 $", "KSET 230754Z AUTO 14009KT 10SM BKN090 19/12 A2983 RMK AO2 SLP098 T01890117", "KSEZ 230815Z AUTO 18020G26KT 10SM 13/08 A2972 RMK AO2", "KSFB 230753Z AUTO 32005KT 10SM CLR 16/14 A3006 RMK AO2 SLP178 T01610144", "KSFF 230753Z AUTO 00000KT 10SM FEW070 03/01 A2975 RMK AO2 SLP080 T00280006 401000028", "KSFM 230756Z AUTO 00000KT 10SM CLR 02/02 A3031 RMK AO2 SLP269 T00220022 FZRANO", "KSFO 230756Z 28012KT 10SM CLR 13/07 A2987 RMK AO2 SLP114 T01280072 401890128 $", "KSFQ 230815Z AUTO 36005KT 10SM SCT013 14/12 A3015 RMK AO2 T01370121", "KSFY 230823Z AUTO 15007KT 10SM CLR 15/12 A2981 RMK AO2", "KSFZ 230756Z AUTO 00000KT 10SM CLR 08/08 A3031 RMK AO2 SLP264 T00830078", "KSGF 230752Z 16013G22KT 10SM CLR 19/12 A2975 RMK AO2 SLP062 T01890122 $", "KSGH 230756Z AUTO 15006KT 10SM CLR 13/08 A3013 RMK AO2 SLP200 T01330083", "KSGJ 230756Z AUTO 32004KT 10SM CLR 15/14 A3009 RMK AO2 SLP188 T01500144", "KSGR 230753Z AUTO 16005KT 10SM CLR 19/17 A2990 RMK AO2 SLP126 T01940167", "KSGS 230815Z AUTO 16004KT 10SM CLR 17/07 A2964 RMK AO2 T01670070", "KSGT 230756Z AUTO 16009KT 10SM CLR 20/13 A2997 RMK AO2 SLP147 T02000133", "KSGU 230756Z AUTO 18004KT 10SM -RA OVC047 08/07 A2964 RMK AO2 SLP013 P0010 T00830067", "KSHD 230815Z AUTO 00000KT 10SM CLR 00/00 A3026 RMK AO2 T00001002", "KSHL 230815Z AUTO 14011KT 10SM CLR 15/10 A2950 RMK AO2", "KSHN 230823Z AUTO 00000KT 5SM BR SCT002 01/01 A2991 RMK AO2 T00060006", "KSHR 230816Z AUTO 24003KT 10SM SCT012 OVC042 07/05 A2942 RMK AO2 T00720050", "KSHV 230756Z 16009KT 10SM BKN037 BKN045 20/16 A2994 RMK SLPNO", "KSIF 230815Z AUTO 00000KT 10SM CLR 02/02 A3021 RMK AO2 T00230023", "KSIK 230815Z AUTO 17008G17KT 10SM CLR 19/12 A2996 RMK AO2", "KSIY 230753Z AUTO 04003KT 10SM BKN037 03/02 A2997 RMK AO2 SLP161 T00280017 401560028", "KSJC 230753Z AUTO 31005KT 10SM CLR 13/06 A2987 RMK AO2 SLP115 T01280056 402170122", "KSJS 230815Z AUTO 12003KT 10SM CLR 11/07 A3018 RMK AO2 T01130065", "KSJT 230751Z AUTO 19017G25KT 10SM CLR 21/12 A2977 RMK AO2 SLP058 T02110122", "KSJX 230815Z AUTO 19006KT 10SM CLR 17/11 A2995 RMK AO2 T01660106", "KSKA 230755Z 26006KT 10SM SCT070 01/M04 A2972 RMK AO2A SLP310 T00071040 401011007 $", "KSKF 230755Z AUTO 16007KT 10SM CLR 20/19 A2985 RMK AO2 SLP101 T02030189 $", "KSKX 230756Z AUTO 22011KT 10SM SCT080 BKN100 11/04 A2977 RMK AO2 LTG DSNT NE-S SLP022 T01110044", "KSLB 230815Z AUTO 14014KT 10SM CLR 13/10 A2955 RMK AO2", "KSLC 230754Z 02010KT 3SM +RA BR FEW011 BKN023 OVC035 04/02 A2959 RMK AO2 RAB34 SLP996 P0001 T00440022 $", "KSLE 230756Z AUTO 00000KT 10SM -RA OVC055 08/06 A2995 RMK AO2 RAB46 SLP143 P0000 T00780061 401670061", "KSLG 230756Z AUTO 18015G23KT 10SM CLR 21/13 A2978 RMK AO2 PK WND 18027/0728 SLP070 T02110133", "KSLH 230815Z AUTO 00000KT 10SM CLR 09/07 A2996 RMK AO2", "KSLI 230755Z AUTO 24007KT 10SM FEW022 BKN031 OVC038 17/13 A2976 RMK AO2 SLP081 T01660133 402210163 $", "KSLK 230751Z AUTO 00000KT 10SM CLR M02/M02 A3029 RMK AO2 SLP262 T10171022", "KSLN 230753Z AUTO 17016G24KT 10SM CLR 21/10 A2944 RMK AO2 PK WND 16029/0717 SLP954 T02110100", "KSLO 230815Z AUTO 15006KT 10SM CLR 18/11 A2994 RMK AO2 T01780105", "KSLR 230810Z AUTO 17008KT 10SM CLR 21/15 A2987 RMK AO2 T02080146", "KSME 230815Z AUTO 00000KT 10SM CLR 11/10 A3014 RMK AO2", "KSMF 230753Z 33014KT 10SM CLR 14/00 A2981 RMK AO2 SLP093 T01440000 402500139", "KSMN 230756Z AUTO 00000KT 10SM OVC070 02/M04 A2967 RMK AO2 SLP753 T00171044 FZRANO", "KSMO 230751Z AUTO 21005KT 10SM FEW042 17/13 A2977 RMK AO2 SLP080 T01670128 401940167", "KSMP 230756Z AUTO VRB03KT 3/4SM BR BKN002 OVC024 00/M01 A2983 RMK AO2 SLP121 T00001011 400171006 $", "KSMQ 230753Z AUTO 00000KT 8SM SCT035 BKN043 07/06 A3026 RMK AO2 SLP246 T00720061", "KSMS 230755Z AUTO 00000KT 10SM CLR 08/08 A3015 RMK AO2", "KSMX 230751Z AUTO 00000KT 8SM CLR 10/09 A2984 RMK AO2 SLP106 T01000089 401890094", "KSNA 230753Z AUTO 25008KT 10SM BKN021 OVC027 19/12 A2979 RMK AO2 SLP085 T01890122 402280189", "KSNC 230815Z AUTO 33003KT 10SM CLR 09/09 A3030 RMK AO2", "KSNH 230810Z AUTO 16006KT 10SM FEW050 OVC060 17/11 A3007 RMK A01", "KSNK 230815Z AUTO 19009KT 10SM CLR 20/12 A2977 RMK AO2 T01970119", "KSNL 230815Z AUTO 18016G22KT 10SM CLR 22/11 A2968 RMK AO2 T02240108", "KSNS 230753Z AUTO 23007KT 10SM CLR 12/08 A2986 RMK AO2 SLP120 T01220078 401890122", "KSNT 230751Z AUTO 00000KT M03/M05 A2964 RMK AO1 SLP011 T10281050", "KSNY 230753Z AUTO 28010KT 10SM CLR 05/M07 A2930 RMK AO2 SLP884 T00501072", "KSOA 230815Z AUTO 10SM 20/13 A2988 RMK AO2", "KSOP 230756Z AUTO 00000KT 10SM CLR 08/08 A3017 RMK AO2 SLP219 T00780078 TSNO", "KSOW 230815Z AUTO 21024G33KT 10SM CLR 10/06 A2976 RMK AO2", "KSPA 230815Z AUTO 34003KT 10SM CLR 08/03 A3020 RMK AO2", "KSPB 230753Z AUTO 00000KT 10SM BKN040 OVC048 07/06 A2994 RMK AO2 SLP139 T00670056 401560050", "KSPD 230756Z AUTO 22016G29KT 18/08 A2953 RMK AO1 PK WND 22032/0712 SLP929 T01830078", "KSPF 230815Z AUTO 11004KT 10SM FEW120 09/00 A2936 RMK AO2", "KSPG 230753Z AUTO 04009KT 10SM CLR 20/18 A3005 RMK AO2 SLP175 T02000178", "KSPI 230752Z AUTO 16012G19KT 10SM SCT110 18/11 A2986 RMK AO2 SLP106 T01780111", "KSPS 230752Z AUTO 19015G24KT 10SM CLR 24/13 A2969 RMK AO2 PK WND 21028/0703 SLP036 T02390128", "KSPW 230753Z AUTO 14009KT 10SM CLR 15/08 A2955 RMK AO2 SLP000 T01500078", "KSQI 230756Z AUTO VRB06KT 10SM CLR 17/13 A2984 RMK AO2 SLP968 T01670128", "KSQL 230815Z AUTO 30008KT 10SM CLR 13/06 A2988 RMK AO2", "KSRB 230815Z AUTO 00000KT 10SM FEW048 08/07 A3014 RMK A01", "KSRC 230756Z AUTO 17006KT 10SM CLR 17/13 A2994 RMK AO2 SLP136 T01720133", "KSRE 230815Z AUTO 10SM CLR 22/13 A2972 RMK AO2", "KSRQ 230753Z AUTO 05005KT 10SM CLR 18/16 A3004 RMK AO2 SLP170 T01830161", "KSRR 230815Z AUTO 23021G32KT 10SM 14/07 A2987 RMK AO2", "KSSC 230755Z AUTO 00000KT 10SM CLR 12/09 A3013 RMK AO2 SLP204 T01240089 $", "KSSF 230753Z AUTO 18007KT 10SM CLR 21/18 A2985 RMK AO2 SLP096 T02110183", "KSSI 230753Z AUTO 34005KT 10SM CLR 15/10 A3010 RMK AO2 SLP194 T01500100", "KSTC 230753Z AUTO 10003KT 10SM CLR 13/07 A2959 RMK AO2 SLP025 T01330067", "KSTE 230815Z AUTO 15006KT 10SM CLR 16/09 A2982 RMK AO2 T01560085", "KSTF 230815Z AUTO 18004KT 9SM CLR 13/12 A3007 RMK AO2", "KSTJ 230753Z AUTO 16014G21KT 10SM CLR 19/13 A2957 RMK AO2 SLP005 T01940128", "KSTK 230815Z AUTO 26005KT 10SM CLR 06/M04 A2931 RMK AO2", "KSTL 230751Z 15007KT 10SM BKN080 19/11 A2985 RMK AO2 SLP098 T01890111 $", "KSTP 230753Z AUTO 16007KT 10SM CLR 13/08 A2964 RMK AO2 SLP033 T01330078", "KSTS 230753Z AUTO 36014G23KT 10SM CLR 12/03 A2988 RMK AO2 SLP111 T01220028 402220094", "KSUA 230815Z AUTO 30005KT 10SM CLR 20/18 A3002 RMK AO2 T02000175", "KSUE 230756Z AUTO 18011KT 10SM CLR 13/11 A2988 RMK AO2 SLP118 T01280111", "KSUN 230815Z AUTO 35005KT 10SM CLR 00/M03 A2961 RMK AO2", "KSUS 230754Z 18006KT 10SM FEW080 20/12 A2982 RMK AO2 SLP091 T02000117", "KSUT 230815Z AUTO 36007KT 10SM SCT060 16/09 A3008 RMK AO2 T01590090", "KSUU 230755Z 17004KT 10SM CLR 12/00 A2982 RMK AO2A SLP104 T01200001 402670103 $", "KSUX 230752Z AUTO 12008KT 10SM CLR 12/09 A2947 RMK AO2 SLP975 T01220089", "KSUZ 230815Z AUTO 19010KT 10SM BKN037 20/15 A2992 RMK A01", "KSVC 230815Z AUTO 22014G21KT 5SM TSRA SCT023 BKN060 OVC110 17/15 A2984 RMK AO2 P0006 T01650146", "KSVE 230815Z AUTO 30005KT 10SM SCT050 M01/M06 A2987 RMK AO2", "KSVH 230815Z AUTO 00000KT 10SM CLR 05/03 A3019 RMK AO2 T00450028", "KSVN 230755Z AUTO 33004KT 10SM CLR 13/10 A3009 RMK AO2 SLP193 T01280100 $", "KSWF 230745Z 00000KT 7SM BKN120 05/04 A2029", "KSWO 230753Z AUTO 18018G24KT 10SM CLR 24/13 A2961 RMK AO2 PK WND 19028/0712 SLP010 T02440128", "KSWW 230815Z AUTO 20020G25KT 10SM CLR 22/12 A2979 RMK AO2 T02150120", "KSXK 230815Z AUTO 13013KT 10SM SCT025 SCT036 SCT043 14/10 A2948 RMK AO2", "KSXS 230755Z AUTO 00000KT 10SM CLR 10/07 A3012 RMK AO2 SLP200 T00960070 $", "KSXT 230806Z AUTO 00000KT 3/4SM BR BKN009 BKN026 OVC060 01/01 A2995 RMK AO2 T00110006", "KSXU 230815Z AUTO 17011KT 10SM CLR 17/10 A2971 RMK AO2 T01720096", "KSYF 230815Z AUTO 19004KT 10SM CLR 09/M06 A2935 RMK AO2 T00851059 PWINO", "KSYI 230815Z AUTO 00000KT 10SM CLR 12/09 A3012 RMK A01", "KSYM 230815Z AUTO 15004KT 10SM CLR 13/07 A3016 RMK AO2", "KSYN 230815Z AUTO 16010G14KT 10SM CLR 18/07 A2964 RMK AO2 T01770073", "KSYR 230754Z 00000KT 10SM CLR 07/02 A3025 RMK AO2 SLP241 T00670022 $", "KSZL 230755Z 16013KT 10SM CLR 19/12 A2961 RMK AO2A SLP022 T01920120", "KSZT 230815Z AUTO 03005KT 10SM -RA OVC026 03/02 A2975 RMK AO2", "KSZY 230815Z AUTO 17007KT 10SM BKN055 15/11 A3007 RMK A01", "KT20 230815Z AUTO 17004KT 10SM CLR 21/19 A2988 RMK AO2 T02050185", "KT35 230815Z AUTO 19011G17KT 10SM CLR 21/17 A2986 RMK AO2 T02080172", "KT41 230815Z AUTO 10SM CLR 23/19 A2992 RMK AO2 T02260186", "KT69 230815Z AUTO 20003KT 10SM CLR 20/19 A2987 RMK A01", "KT70 230755Z AUTO 32003KT 9SM CLR 17/15 A2982 RMK AO2 SLP087 T01730151 $", "KT74 230815Z AUTO 19012KT 10SM CLR 21/18 A2986 RMK AO2 T02070177", "KT78 230815Z AUTO 15003KT 10SM SCT038 BKN048 19/18 A2992 RMK AO2", "KT82 230815Z AUTO 19013G18KT 10SM OVC014 20/17 A2989 RMK AO2 T02010172", "KT89 230815Z AUTO 11004KT 10SM CLR 21/04 A2981 RMK A01", "KTAD 230754Z AUTO 23017G28KT 10SM CLR 17/M01 A2959 RMK AO2 PK WND 23038/0708 SLP933 T01721011", "KTAN 230752Z AUTO A3031 RMK AO2 SLPNO PWINO FZRANO TSNO $", "KTAZ 230815Z AUTO 15011G15KT 10SM BKN065 16/11 A2988 RMK AO2 T01620110", "KTBN 230755Z AUTO 15011G18KT 10SM CLR 18/12 A2978 RMK AO2 SLP078 T01800118", "KTBR 230815Z AUTO 00000KT 10SM CLR 07/05 A3014 RMK AO2 T00680051", "KTCC 230753Z AUTO 22019G26KT 10SM CLR 17/12 A2965 RMK AO2 PK WND 22032/0712 SLP985 T01720117", "KTCL 230753Z 00000KT 8SM CLR 11/10 A3013 RMK AO2 SLP199 T01110100", "KTCM 230820Z AUTO 18004KT 1SM R16/3500VP6000FT BR OVC070 03/03 A2992 RMK AO2 SLP137 $", "KTCS 230820Z AUTO 25008KT 10SM -RA SCT034 BKN075 OVC110 16/11 A2977 RMK AO2 PK WND 27026/0754 LTG DSNT NE AND SW RAB0757 TSE0757 P0000 T01560111", "KTCY 230815Z AUTO 27010KT 10SM FEW055 15/01 A2983 RMK A01", "KTDF 230815Z AUTO 00000KT 10SM CLR 04/04 A3021 RMK AO2", "KTDR 230755Z AUTO 06007KT 10SM CLR 11/10 A3007 RMK AO2 SLP186 T01090101 $", "KTDZ 230753Z AUTO 18006KT 10SM CLR 13/09 A3011 RMK AO2 SLP192 T01280089", "KTEB 230751Z 34004KT 10SM BKN034 OVC045 11/08 A3027 RMK AO2 SLP251 T01060078", "KTEW 230815Z AUTO 16005KT 10SM CLR 14/10 A3006 RMK AO2 T01350095", "KTEX 230815Z AUTO 19008G27KT 160V250 10SM -VCTSRA SCT050 BKN060 OVC070 07/M02 A2965 RMK AO2 LTG DSNT N AND NW", "KTFP 230755Z AUTO 20008KT 10SM CLR 24/20 A2986 RMK AO2 T02440199", "KTGI 230815Z AUTO 36014G19KT 10SM SCT022 14/13 A3016 RMK AO1 T01440126", "KTHA 230815Z AUTO 15004KT 10SM CLR 11/08 A3012 RMK A01", "KTHV 230753Z AUTO 00000KT 10SM CLR 02/01 A3026 RMK AO2 SLP251 T00170011", "KTIF 230815Z AUTO 00000KT 10SM CLR 06/00 A2934 RMK AO2 T00590002", "KTIK 230755Z AUTO 18015G21KT 10SM CLR 23/12 A2964 RMK AO2 SLP028 T02260119", "KTIP 230815Z AUTO 15010KT 10SM CLR 15/11 A2994 RMK AO2 T01500106", "KTIW 230821Z AUTO 00000KT 2 1/2SM BR BKN065 07/05 A2993 RMK AO2 T00670050", "KTKC 230815Z AUTO 15009KT 10SM 15/07 A2953 RMK AO2 T01530070", "KTKI 230753Z AUTO 17013G24KT 10SM CLR 22/16 A2981 RMK AO2 PK WND 18027/0717 SLP088 T02170161", "KTKV 230815Z AUTO 00000KT 10SM CLR 12/09 A2981 RMK AO2 T01150086 PWINO", "KTKX 230815Z AUTO 18008KT 8SM CLR 17/12 A2995 RMK AO2 TSNO", "KTLH 230753Z AUTO 00000KT 10SM CLR 06/03 A3012 RMK AO2 SLP198 T00560033", "KTMB 230753Z 00000KT 10SM FEW041 21/19 A2999 RMK AO2 RAE0658 SLP154 P0000 T02060194", "KTME 230815Z AUTO 18006KT 10SM CLR 19/18 A2991 RMK AO2", "KTMK 230815Z AUTO 00000KT 1/2SM FG OVC001 05/05 A2999 RMK AO2", "KTMT 230815Z AUTO 24005KT 10SM SCT070 BKN085 M02/M03 A2979 RMK AO2 T10221030", "KTNB 230810Z AUTO 27003KT 10SM CLR 00/00 A3026 RMK AO2 T00010001", "KTNU 230815Z AUTO 14012KT 10SM CLR 16/12 A2965 RMK A01", "KTOB 230815Z AUTO 14010KT 10SM CLR 15/07 A2967 RMK AO2", "KTOC 230815Z AUTO 33004KT 10SM CLR 08/04 A3020 RMK AO2 T00750044", "KTOI 230753Z AUTO 00000KT 10SM CLR 06/04 A3015 RMK AO2 SLP206 T00610039", "KTOL 230752Z 00000KT 10SM CLR 09/08 A3009 RMK AO2 SLP187 T00940078", "KTOP 230753Z AUTO 17013G21KT 10SM CLR 23/14 A2953 RMK AO2 SLP989 T02280139", "KTPA 230753Z 02005KT 10SM CLR 18/14 A3007 RMK AO2 SLP183 T01780139", "KTPH 230756Z AUTO 32017KT 10SM CLR 02/M04 A2978 RMK AO2 SLP059 T00171039 401560017", "KTPL 230751Z AUTO 17015KT 10SM CLR 21/18 A2984 RMK AO2 SLP094 T02060178", "KTQE 230754Z AUTO 12010KT 10SM CLR 16/11 A2948 RMK AO2 SLP971 T01560106", "KTQH 230815Z AUTO 16010G19KT 10SM CLR 22/11 A2976 RMK AO2", "KTQK 230815Z AUTO 20010KT 10SM CLR 13/04 A2945 RMK AO2 T01270036", "KTQV 230815Z AUTO 02007KT 10SM CLR 12/08 A3017 RMK A01", "KTRI 230753Z 00000KT 10SM SCT250 04/03 A3022 RMK AO2 SLP218 T00440028 $", "KTRK 230816Z AUTO 00000KT 10SM CLR M07/M08 A2986 RMK AO2", "KTRL 230753Z AUTO 18013G22KT 10SM CLR 22/15 A2983 RMK AO2 PK WND 17027/0720 SLP096 T02170150", "KTRM 230752Z AUTO 00000KT 10SM OVC075 21/11 A2967 RMK AO2 SLP057 T02110111 403110144", "KTSP 230815Z AUTO 30016G26KT 9SM SCT036 BKN043 OVC048 09/04 A2979 RMK AO2", "KTTA 230815Z AUTO 00000KT 7SM CLR 05/05 A3017 RMK AO2 T00540054", "KTTD 230753Z AUTO 04003KT 10SM SCT043 BKN060 OVC095 08/06 A2995 RMK AO2 RAB22E34 SLP142 P0000 T00830056 401560061", "KTTF 230815Z AUTO 00000KT 10SM CLR 11/08 A3009 RMK AO2 T01080081", "KTTN 230753Z AUTO 34005KT 10SM OVC030 11/08 A3024 RMK AO2 SLP236 T01060078", "KTTS 230755Z AUTO 00000KT 10SM FEW033 19/17 A3002 RMK AO2 VIS 1/2 RWY15/33 DZB13E23DZB27E28DZB31E37 SLP170 P0000 T01870165 $", "KTUL 230753Z 17020G30KT 10SM CLR 23/13 A2966 RMK AO2 PK WND 16030/0751 SLP037 T02330133", "KTUP 230753Z AUTO 17004KT 10SM CLR 16/11 A3008 RMK AO2 SLP182 T01560106 $", "KTUS 230753Z 24013G21KT 10SM CLR 22/12 A2980 RMK AO2 SLP045 T02170122", "KTVC 230753Z AUTO 20006KT 10SM CLR 19/11 A2994 RMK AO2 SLP136 T01890111", "KTVF 230756Z AUTO 05009KT 10SM CLR 07/04 A2958 RMK AO2 SLP020 T00720044", "KTVI 230815Z AUTO 00000KT 10SM CLR 06/05 A3014 RMK AO2", "KTVL 230753Z AUTO 19005KT 10SM BKN044 OVC055 M01/M03 A2982 RMK AO2 SLP081 T10111033 401331017", "KTVR 230753Z AUTO 16010KT 10SM CLR 17/13 A3004 RMK AO2 SLP176 T01720133", "KTVY 230815Z AUTO 00000KT 10SM SCT029 BKN039 OVC046 03/02 A2961 RMK AO2", "KTWF 230753Z AUTO 26016G25KT 10SM CLR 01/M01 A2965 RMK AO2 SLP029 T00111011", "KTWM 230815Z AUTO 02004KT 10SM CLR 07/06 A2969 RMK AO2", "KTWT 230815Z AUTO 16006KT 10SM CLR 17/11 A3002 RMK AO2", "KTXK 230753Z 18012G19KT 10SM FEW036 22/16 A2992 RMK AO2 SLP126 T02170156", "KTXW 230810Z AUTO 15007KT 1 1/2SM HZ VV007 23/20 A2986 RMK AO2 VIS 1V2 1/2 T02300198", "KTYL 230815Z AUTO 22020G31KT 10SM FEW039 13/05 A2976 RMK AO2", "KTYQ 230815Z AUTO 15006KT 10SM CLR 14/10 A3005 RMK AO2 T01360100", "KTYR 230753Z AUTO 17011KT 10SM SCT030 21/18 A2988 RMK AO2 SLP112 T02060178 $", "KTYS 230753Z 00000KT 10SM CLR 09/07 A3016 RMK AO2 SLP210 T00890067", "KTZR 230815Z AUTO 00000KT 10SM CLR 12/08 A3015 RMK AO2 T01160076", "KU42 230815Z AUTO 16005KT 10SM BKN047 OVC065 03/03 A2959 RMK AO1 T00310031", "KU55 230815Z AUTO 03006KT 1 1/4SM BR 00/M00 A2961 RMK A01", "KU68 230815Z AUTO 30021G26KT 10SM SCT065 OVC095 05/03 A2943 RMK AO2", "KUAO 230753Z AUTO 19004KT 10SM -RA BKN045 OVC055 08/07 A2996 RMK AO2 RAB11 SLP145 P0001 T00830072 401610078", "KUBE 230755Z AUTO 13004KT 10SM CLR 13/11 A2969 RMK AO2", "KUCP 230756Z AUTO 00000KT 10SM CLR 06/04 A3021 RMK AO2 SLP243 T00610044", "KUCY 230815Z AUTO 18014G21KT 10SM OVC050 19/12 A2999 RMK A01", "KUDG 230756Z AUTO 34004KT 10SM CLR 11/09 A3015 RMK AO2 SLP209 T01060094", "KUES 230815Z AUTO 17004KT 10SM CLR 15/10 A2990 RMK AO2", "KUGN 230755Z AUTO 18010KT 10SM CLR 17/11 A2990 RMK AO2 SLP116 T01670111", "KUIL 230753Z AUTO 09004KT 10SM CLR 04/04 A2991 RMK AO2 SLP130 T00440039 401280044", "KUIN 230754Z AUTO 16010KT 10SM CLR 19/12 A2978 RMK AO2 SLP076 T01890117", "KUKF 230815Z AUTO 00000KT 10SM CLR 03/02 A3027 RMK AO2", "KUKI 230756Z AUTO 33006KT 10SM CLR 11/02 A2993 RMK AO2 SLP132 T01110017 402110111", "KUKL 230815Z AUTO 18020G27KT 10SM CLR A2957 RMK AO2", "KUKT 230815Z AUTO 00000KT 10SM BKN031 04/04 A3027 RMK A01", "KULM 230815Z AUTO 14008KT 10SM CLR 13/07 A2958 RMK AO2", "KULS 230815Z AUTO 20011KT 10SM CLR 17/07 A2948 RMK AO2", "KUMP 230815Z AUTO 00000KT 10SM CLR 16/12 A3006 RMK AO2 T01620120", "KUNI 230815Z AUTO 00000KT 7SM -SN CLR 05/05 A3016 RMK AO2 T00520052", "KUNO 230753Z AUTO 16009KT 10SM CLR 17/12 A2987 RMK AO2 SLP105 T01720122", "KUNU 230815Z AUTO 15008KT 10SM CLR 15/12 A2987 RMK AO2 T01450116", "KUNV 230815Z AUTO 00000KT 10SM CLR 04/03 A3026 RMK AO2 T00400027", "KUOX 230815Z AUTO 16006KT 10SM CLR 16/12 A3007 RMK AO2 PWINO", "KUSE 230815Z AUTO 16005KT 10SM CLR 10/10 A3008 RMK AO2", "KUTA 230815Z AUTO 18009KT 10SM CLR 19/13 A3001 RMK AO2 T01880132 $", "KUTS 230753Z AUTO 16004KT 10SM CLR 21/18 A2989 RMK AO2 SLP118 T02110183", "KUUU 230753Z AUTO 35003KT 9SM 11/11 A3029 RMK AO2 SLP257 T01060106 $", "KUVA 230815Z AUTO 00000KT 10SM CLR 18/18 A2988 RMK AO2 T01750175", "KUXL 230815Z AUTO 12004KT 10SM CLR 21/17 A2998 RMK AO2 T02050167", "KUYF 230815Z AUTO 19003KT 10SM CLR 08/07 A3013 RMK AO2", "KUZA 230754Z AUTO 00000KT 10SM CLR 06/04 A3018 RMK AO2 SLP216 T00610044", "KVAD 230755Z AUTO 00000KT 10SM CLR 07/05 A3011 RMK AO2 SLP198 T00650047 $", "KVAF 230815Z AUTO 17020KT 10SM SCT050 26/15 A2995 RMK A01", "KVAY 230754Z AUTO 02003KT 10SM SCT041 11/08 A3024 RMK AO2 SLP241 T01110083 $", "KVBG 230755Z AUTO 02003KT 10SM CLR 10/09 A2985 RMK AO2 SLP111 T01020088 401870096 TSNO $", "KVBT 230756Z AUTO 18012G22KT 10SM CLR 21/13 A2979 RMK AO2 SLP078 T02110133", "KVCB 230753Z AUTO 33010KT 10SM CLR 16/01 A2983 RMK AO2 SLP100 T01560006 402500150", "KVCT 230751Z AUTO 16007KT 10SM CLR 19/18 A2988 RMK AO2 SLP117 T01940178", "KVCV 230815Z AUTO 23007KT 10SM BKN049 12/08 A2979 RMK AO2", "KVDF 230815Z AUTO 00000KT 10SM CLR 16/15 A3007 RMK AO2", "KVDI 230815Z AUTO 00000KT 10SM CLR 11/05 A3015 RMK AO2", "KVEL 230817Z AUTO 06008KT 1 1/2SM -SN BR BKN008 OVC012 01/M01 A2951 RMK AO2 RAE0754SNB0754 P0003 T00111006", "KVER 230815Z AUTO 14012KT 10SM CLR 20/14 A2971 RMK AO2 T01980137", "KVES 230815Z AUTO 16003KT 10SM CLR 11/07 A3010 RMK AO2", "KVGC 230815Z AUTO 14003KT 7SM CLR 00/00 A3029 RMK AO2", "KVGT 230753Z AUTO 33012G22KT 10SM BKN060 OVC085 16/05 A2962 RMK AO2 PK WND 33037/0712 SLP026 T01560050 403000156 $", "KVHN 230815Z AUTO 21008KT 10SM CLR 18/07 A2987 RMK AO2 T01790074", "KVIH 230753Z AUTO 17012G22KT 10SM CLR 19/12 A2980 RMK AO2 SLP082 T01890117 $", "KVIS 230756Z AUTO 32008KT 10SM CLR 13/05 A2980 RMK AO2 SLP096 T01330050 402390122", "KVJI 230815Z AUTO 12004KT 10SM CLR 06/00 A3021 RMK AO2 T00610002", "KVKS 230815Z AUTO 14006KT 10SM CLR 17/15 A3003 RMK A01", "KVLD 230753Z AUTO 00000KT 10SM CLR 06/04 A3012 RMK AO2 SLP209 T00610044 $", "KVLL 230815Z AUTO 00000KT 10SM CLR 11/09 A3011 RMK AO2 T01050087", "KVNW 230815Z AUTO 16006KT 10SM CLR 12/08 A3009 RMK AO2", "KVNY 230802Z AUTO 12005KT 10SM OVC015 17/13 A2976 RMK AO2 T01720133 $", "KVOA 230820Z AUTO 13008KT 10SM CLR 23/11 A3008 RMK A01", "KVOK 230755Z AUTO 15008KT 10SM CLR 16/10 A2976 RMK AO2 SLP077 T01550103", "KVPC 230815Z AUTO 00000KT 10SM OVC047 07/06 A3020 RMK AO2", "KVPS 230755Z AUTO 00000KT 10SM CLR 11/06 A3008 RMK AO2 SLP193 T01050061 $", "KVPZ 230756Z AUTO 15007KT 10SM CLR 16/11 A2997 RMK AO2 SLP145 T01610106 $", "KVQQ 230815Z AUTO 00000KT 10SM FEW027 08/08 A3010 RMK AO2", "KVRB 230753Z AUTO 32006KT 10SM CLR 19/19 A3003 RMK AO2 SLP166 T01940189", "KVSF 230754Z AUTO 00000KT 10SM CLR 03/02 A3034 RMK AO2 SLP276 T00280017", "KVTA 230754Z AUTO 00000KT 10SM CLR 08/06 A3015 RMK AO2 SLPNO T00830061 $", "KVTI 230815Z AUTO 15010G17KT 10SM CLR 18/10 A2971 RMK AO2 T01770102", "KVTN 230752Z AUTO 15006KT 10SM CLR 12/02 A2934 RMK AO2 SLP920 T01220022", "KVTP 230815Z AUTO 26019G38KT 10SM -RA SCT031 SCT042 BKN050 M06/M12 A2973 RMK AO2", "KVUJ 230815Z AUTO 00000KT 10SM CLR 05/04 A3022 RMK AO2 T00460043", "KVUO 230753Z AUTO 00000KT 10SM BKN055 08/05 A2996 RMK AO2 SLP144 T00780050 401560072 $", "KVVS 230815Z AUTO 06005KT 10SM CLR 12/02 A3021 RMK AO2 T01180020", "KVVV 230815Z 10005KT 7SM 08/03 A2950 RMK AO2", "KVWU 230815Z AUTO 09004KT 10SM CLR 07/04 A2959 RMK AO2", "KVYS 230815Z AUTO 14009KT 10SM CLR 15/12 A2986 RMK AO2 T01510115", "KW22 230815Z AUTO 09003KT 3SM HZ CLR 06/02 A3020 RMK AO2", "KW78 230815Z AUTO 00000KT 10SM CLR 06/05 A3021 RMK AO1 T00610048", "KW81 230815Z AUTO 34003KT 10SM CLR 07/05 A3021 RMK AO1 T00740054", "KW99 230801Z AUTO 00000KT 10SM CLR 01/01 A3027 RMK AO2", "KWAL 230754Z AUTO 36007KT 10SM OVC015 14/12 A3017 RMK AO2 SLP212 T01390117", "KWBF 230815Z AUTO 12007G14KT 10SM 24/15 A3003 RMK A01", "KWDG 230815Z AUTO 19015G22KT 10SM CLR 23/11 A2957 RMK AO2", "KWDR 230815Z AUTO 00000KT 10SM CLR 07/03 A3021 RMK AO2", "KWJF 230756Z AUTO 26023G28KT 10SM CLR 14/07 A2975 RMK AO2 PK WND 26028/0756 SLP067 T01390067 402060128", "KWLD 230754Z AUTO 18015G26KT 10SM CLR 23/13 A2957 RMK AO2 PK WND 17026/0751 SLP999 T02330128", "KWMC 230756Z AUTO A2980 RMK AO2 SLPNO PWINO FZRANO $", "KWRB 230755Z 00000KT 10SM FEW250 05/05 A3015 RMK AO2A SLP212 T00530053", "KWRI 230755Z 01004KT 10SM OVC038 11/10 A3024 RMK AO2A SLP240 T01140096 $", "KWRL 230753Z AUTO 32005KT 10SM SCT035 OVC049 07/03 A2941 RMK AO2 SLP936 T00670033", "KWST 230753Z AUTO 01003KT 10SM CLR 09/08 A3029 RMK AO2 SLP256 T00940083", "KWVI 230753Z AUTO 34004KT 10SM CLR 08/06 A2986 RMK AO2 SLP112 T00830061 402220083", "KWVL 230756Z AUTO 00000KT 1/4SM FG OVC001 07/07 A3030 RMK AO2 SLP289 T00670067", "KWWD 230756Z AUTO 03010KT 10SM 14/12 A3020 RMK AO2 SLP230 T01440122 $", "KWWR 230810Z AUTO 21013G18KT 10SM CLR 23/10 A2959 RMK AO2", "KX07 230815Z AUTO 01004KT 10SM CLR 16/16 A3006 RMK A01", "KX26 230815Z AUTO 31006KT 10SM SCT042 19/18 A3003 RMK AO2 T01880180", "KX60 230815Z AUTO 00000KT 10SM CLR 09/09 A3010 RMK AO2 T00930087", "KXBP 230815Z AUTO 17010KT 10SM CLR 22/14 A2977 RMK AO2 T02200142", "KXER 230815Z AUTO 17012KT 10SM SCT044 SCT050 25/15 A2994 RMK A01", "KXIF 230755Z AUTO 00000KT 9SM CLR 04/03 A3024 RMK AO2 LTG DSNT S SLP245 T00380026 $", "KXLL 230815Z AUTO 00000KT 10SM SCT035 05/04 A3030 RMK AO2", "KXMR 230755Z AUTO 36004KT 10SM SCT043 21/18 A3001 RMK AO2 SLP165 T02090181 $", "KXNA 230753Z AUTO 18019G27KT 10SM CLR 21/13 A2977 RMK AO2 PK WND 18031/0719 RAB19E29 SLP067 P0000 T02110128", "KXNO 230755Z AUTO 00000KT 10SM CLR 08/07 A3015 RMK AO2 SLP212 T00750074 $", "KXNX 230815Z AUTO 00000KT 10SM CLR 11/10 A3013 RMK A01", "KXSA 230815Z AUTO 00000KT 10SM CLR 09/09 A3022 RMK AO2 T00870087", "KXVG 230813Z AUTO 12003KT 10SM CLR 08/05 A2959 RMK AO2", "KXWA 230751Z AUTO 07018G25KT 10SM OVC011 06/03 A2952 RMK AO2 SLP013 T00610033", "KY19 230815Z AUTO 06013KT 10SM CLR 07/05 A2947 RMK AO2", "KY23 230815Z AUTO 00000KT 10SM CLR 12/10 A2971 RMK AO2 T01240100", "KY31 230815Z AUTO 00000KT 10SM CLR 06/05 A3002 RMK AO2 T00550047", "KY49 230815Z AUTO 12003KT 10SM CLR 08/06 A2958 RMK AO2 T00760058", "KY50 230756Z AUTO 15005KT 10SM CLR 14/11 A2983 RMK AO2 SLP097 T01440111 $", "KY51 230815Z AUTO 15008KT 10SM CLR 16/12 A2977 RMK AO1 T01600116", "KY63 230815Z AUTO 11009KT 10SM CLR 09/04 A2953 RMK AO2 T00860036", "KY70 230815Z AUTO 16006KT 10SM CLR 12/10 A3002 RMK AO2 T01200097", "KYIP 230753Z AUTO 00000KT 10SM CLR 11/07 A3009 RMK AO2 SLP187 T01060067 TSNO", "KYKM 230753Z AUTO 17004KT 10SM CLR 04/M01 A2983 RMK AO2 SLP104 T00441011 401500028", "KYKN 230756Z AUTO 09008KT 10SM CLR 13/08 A2944 RMK AO2 SLP974 T01280078", "KYNG 230751Z 12008KT 10SM FEW250 09/03 A3019 RMK AO2 SLP221 T00940033", "KZER 230815Z AUTO 10004KT 10SM CLR 07/03 A3028 RMK AO2", "KZPH 230815Z AUTO 02004KT 10SM CLR 14/14 A3008 RMK A02 T01430136", "KZZV 230753Z AUTO 00000KT 10SM CLR 08/06 A3016 RMK AO2 SLP210 T00780061", "LATI 230820Z VRB02KT CAVOK 20/10 Q1025 NOSIG", "LBBG 230800Z 26012KT CAVOK 20/08 Q1019 NOSIG", "LBGO 230800Z AUTO 27023KT 9999 NCD 20/11 Q1021 NOSIG", "LBPD 230800Z AUTO 28021KT 9999 NCD 23/07 Q1021 NOSIG", "LBSF 230800Z 28013KT CAVOK 17/10 Q1024 NOSIG", "LBWN 230800Z 28018KT CAVOK 21/10 Q1018 NOSIG", "LCEN 230750Z 31006KT CAVOK 24/10 Q1020 NOSIG RMK RWY11 32006KT", "LCLK 230800Z 35010KT 310V010 CAVOK METAR LCNC Z NIL", "LCPH 230800Z 29004KT 240V340 CAVOK 24/12 Q1020", "LDDU 230800Z 08003KT 030V150 CAVOK 20/13 Q1025 NOSIG", "LDLO 230800Z 16010KT 9999 BKN015 21/18 Q1023", "LDOS 230800Z 18004KT 130V220 0100 FG VV001 12/12 Q1024", "LDPL 230800Z 16006KT 090V230 9999 FEW004 BKN008 20/18 Q1023 BECMG BKN010", "LDRI 230800Z 16008KT 120V210 9999 FEW010 SCT033 BKN046 18/17 Q1023", "LDSP 230800Z VRB01KT CAVOK 22/12 Q1025 NOSIG", "LDZA 230800Z 00000KT 1000 R04/1700D R22/P2000N BR OVC002 13/12 Q1023 BECMG 6000 NSW BKN007", "LDZD 230800Z 13005KT 100V170 9999 FEW055 19/14 Q1024 NOSIG", "LEAB 230800Z VRB02KT CAVOK 16/12 Q1020 NOSIG", "LEAG 230800Z AUTO 00000KT 9999 SCT025 21/18 Q1018", "LEAL 230800Z 21003KT 170V260 3500 BR NSC 20/17 Q1017 NOSIG", "LEAM 230800Z 11003KT 080V140 CAVOK 22/13 Q1017", "LEAO 230800Z 20010KT 160V250 9999 FEW040 19/13 Q1018", "LEAS 230800Z 21012G27KT 160V250 9999 -RA FEW057 15/10 Q1002 NOSIG", "LEBA 230800Z VRB02KT 9999 BKN017 OVC019 20/17 Q1018", "LEBB 230800Z 19013G28KT 130V240 9999 FEW030 SCT060 23/11 Q1006 NOSIG", "LEBG 230800Z 19023G35KT 9999 -RA BKN017 BKN025 OVC034 12/10 Q1012", "LEBL 230800Z 32007G17KT 210V350 9999 FEW020 20/13 Q1016 NOSIG", "LEBR 230800Z AUTO 11013KT 9999 NSC 18/14 Q1013", "LEBT 230800Z AUTO 30002KT CAVOK 19/17 Q1017", "LEBZ 230800Z 23006KT 9999 SCT019 SCT024 16/15 Q1016", "LECH 230800Z AUTO 16003KT 9000 NCD 16/15 Q1017", "LECO 230800Z 19010KT 140V240 9999 FEW027 FEW033TCU SCT036 BKN048 16/13 Q1000 TEMPO 3000 SHRA", "LECV 230800Z 22006KT 9999 FEW010 BKN020 12/12 Q1016", "LEDA 230800Z 09008KT 070V130 CAVOK 19/14 Q1016", "LEGE 230800Z VRB02KT 9999 FEW080 18/15 Q1016", "LEGR 230800Z 00000KT 9999 FEW090 18/07 Q1020", "LEGT 230800Z 20011KT 160V230 9999 FEW049 17/12 Q1016", "LEHC 230800Z 11005KT 9999 FEW060 17/14 Q1016", "LEIB 230800Z 23006KT CAVOK 24/21 Q1017 NOSIG", "LEJR 230800Z 15005KT 110V210 9999 FEW008 20/20 Q1017", "LELC 230800Z 27004KT 8000 NSC 20/19 Q1017 NOSIG", "LELL 230800Z VRB01KT 9999 FEW020 SCT045 18/12 Q1017", "LELN 230800Z 19015KT 160V220 9999 BKN020 BKN040 10/07 Q1009 RERA", "LELO 230800Z AUTO 19006KT 140V230 CAVOK 21/09 Q1011", "LEMD 230800Z 17009KT 9999 FEW055 17/13 Q1015 NOSIG", "LEMG 230800Z 28005KT CAVOK 20/13 Q1017 NOSIG", "LEMH 230800Z 18007KT CAVOK 24/22 Q1018", "LEMI 230800Z 00000KT CAVOK 20/18 Q1018", "LEMO 230800Z 17011KT 9999 FEW025 20/18 Q1017 NOSIG", "LEPA 230800Z 00000KT CAVOK 21/17 Q1018 NOSIG", "LEPP 230800Z 17021G31KT 140V200 9999 SCT055 21/10 Q1011", "LERI 230800Z 00000KT 7000 NSC 20/18 Q1017 NOSIG", "LERS 230800Z 04004KT 9999 SCT024 20/19 Q1016", "LERT 230800Z 18007KT 140V200 9000 FEW020 21/19 Q1017 NOSIG", "LESA 230800Z 23021G31KT 9999 SCT034 13/09 Q1014", "LESB 230800Z AUTO 35003KT 310V020 CAVOK 21/13 Q1018", "LESO 230800Z 19015KT 160V240 CAVOK 25/12 Q1007", "LEST 230814Z 23019G35KT 200V290 3000 -SHRA BKN006 BKN025TCU 14/13 Q1002 WS ALL RWY TEMPO SHRA", "LESU 230800Z VRB03KT 9999 -RA VCFG FEW005 BKN081 12/11 Q1019", "LETL 230800Z AUTO 19015KT 9999 -RA NSC 17/08 Q1019", "LETO 230800Z 20011KT 160V230 9999 FEW065 17/12 Q1015 NOSIG", "LETU 230800Z AUTO 10009KT 080V140 9999 NSC 18/14 Q1013", "LEVC 230800Z 31003KT 280V020 CAVOK 20/17 Q1017 NOSIG", "LEVD 230800Z 21019KT 9999 BKN022 11/08 Q1012", "LEVS 230800Z 20008KT 160V220 9999 SCT045 16/12 Q1016", "LEVT 230800Z 22016KT 190V250 9999 FEW065 SCT075 18/10 Q1010", "LEVX 230814Z 23021G38KT 190V260 0800 R19/1700U R01/1400U +RA SCT009 BKN016 15/14 Q1006 TEMPO BKN010", "LEXJ 230800Z 22009G27KT 160V320 9999 FEW070 21/08 Q1004", "LEZG 230800Z 20014G24KT 170V230 9999 FEW030 SCT080 25/10 Q1013", "LEZL 230800Z 19005KT 150V250 9999 FEW009 21/19 Q1017 NOSIG", "LFAC 230800Z AUTO 13009KT 9999 ///TCU 15/14 Q1004", "LFAQ 230800Z AUTO 11010KT 9999 FEW034 BKN084 14/14 Q1006 TEMPO 4000 RA BKN080TCU", "LFAT 230800Z AUTO 13012KT CAVOK 16/14 Q1003 TEMPO 4000 TSRA BKN060CB", "LFBA 230800Z AUTO 12003KT CAVOK 16/14 Q1009 NOSIG", "LFBC 230800Z AUTO 17008KT CAVOK 21/13 Q1006", "LFBD 230800Z AUTO 16011KT CAVOK 19/13 Q1006 BECMG 20015G25KT", "LFBE 230800Z AUTO 15009KT CAVOK 19/13 Q1008 TEMPO 16015G25KT", "LFBF 230800Z AUTO 14008KT 090V180 CAVOK 21/14 Q1010", "LFBG 230800Z AUTO 14009KT CAVOK 18/13 Q1006", "LFBH 230800Z AUTO 16014KT 9999 ///TCU 20/14 Q1004 BECMG 20020G42KT NSC", "LFBI 230800Z AUTO 16010KT CAVOK 18/13 Q1006 BECMG 20018G38KT", "LFBL 230800Z AUTO 16007KT 120V200 CAVOK 17/12 Q1009 BECMG 19015G25KT", "LFBM 230800Z AUTO 04002KT 9999 // NSC 16/15 Q1008", "LFBO 230800Z AUTO 14013KT CAVOK 22/14 Q1010 TEMPO 15018G28KT", "LFBP 230800Z AUTO 20007KT CAVOK 25/10 Q1008 BECMG 20016G26KT", "LFBT 230800Z AUTO 14006KT 050V200 9999 SCT100/// BKN120/// BKN170/// //////TCU 24/09 Q1010 TEMPO 20015G25KT FEW060CB BKN110", "LFBU 230800Z AUTO 14010KT 090V170 CAVOK 19/13 Q1007 TEMPO 16015G25KT", "LFBX 230800Z AUTO 13006KT 080V190 CAVOK 20/13 Q1008", "LFBY 230800Z AUTO 20014KT 9999 // ////// 25/11 Q1007", "LFBZ 230800Z AUTO 20013G29KT 150V270 CAVOK 25/11 Q1007 NOSIG", "LFCK 230800Z AUTO 13018KT CAVOK 21/14 Q1013 BECMG 12022G32KT", "LFCR 230800Z AUTO 13017KT CAVOK 19/13 Q1013 BECMG 14016G26KT", "LFGA 230800Z AUTO 00000KT CAVOK 15/11 Q1014", "LFGJ 230800Z AUTO 20008KT 160V220 CAVOK 14/13 Q1013 BECMG 20015G25KT", "LFHP 230800Z AUTO 17013G25KT 140V210 CAVOK 18/13 Q1015", "LFJL 230800Z AUTO 15013KT CAVOK 15/11 Q1012 NOSIG", "LFJR 230800Z AUTO 15010KT 120V190 CAVOK 17/14 Q1004", "LFKB 230800Z AUTO 26003KT 220V280 9999 OVC020 21/17 Q1021 NOSIG", "LFKC 230800Z AUTO 16004KT CAVOK 22/12 Q1020 NOSIG", "LFKF 230800Z AUTO 05005KT 030V110 CAVOK 22/18 Q1021 NOSIG", "LFKJ 230800Z AUTO 03006KT CAVOK 22/12 Q1021 NOSIG", "LFKS 230800Z AUTO 36006KT 9999 BKN011 OVC140 22/19 Q1021", "LFLB 230800Z AUTO 11001KT CAVOK 12/12 Q1016 BECMG 20010KT", "LFLC 230800Z AUTO 15018KT CAVOK 21/13 Q1011 TEMPO 18015G30KT", "LFLH 230800Z AUTO VRB03KT CAVOK 13/13 Q1012", "LFLL 230800Z 17019KT CAVOK 21/13 Q1013 NOSIG", "LFLN 230800Z AUTO 16011KT 140V200 CAVOK 21/14 Q1010 TEMPO 17018G35KT", "LFLP 230800Z AUTO 00000KT CAVOK 11/10 Q1017 BECMG 23010KT", "LFLS 230800Z AUTO 07004KT 040V100 CAVOK 16/14 Q1016 BECMG 21010KT", "LFLU 230800Z AUTO 16007KT 120V200 CAVOK 19/16 Q1015", "LFLV 230800Z AUTO 17009KT CAVOK 19/14 Q1011", "LFLW 230800Z AUTO 14016G27KT CAVOK 18/13 Q1012 NOSIG", "LFLX 230800Z AUTO 14007KT CAVOK 18/13 Q1007 BECMG 22015G27KT", "LFLY 230800Z AUTO 20015KT CAVOK 21/14 Q1013 BECMG 18015G25KT", "LFMC 230800Z AUTO 06006KT 9999 ////// 20/19 Q1020", "LFMD 230800Z AUTO 02003KT 330V060 CAVOK 19/16 Q1020 NOSIG", "LFMH 230800Z AUTO 19016G27KT 170V230 CAVOK 22/14 Q1013", "LFMI 230800Z AUTO 11009KT CAVOK 22/17 Q1017 BECMG 14015G25KT", "LFMK 230800Z AUTO 09014KT 060V130 9999 FEW010 OVC240 19/17 Q1014 BECMG 09015G25KT", "LFML 230800Z AUTO 12012KT CAVOK 23/15 Q1017 NOSIG", "LFMN 230800Z 34008KT CAVOK 19/13 Q1021 NOSIG", "LFMO 230800Z AUTO VRB02KT CAVOK 16/15 Q1017 NOSIG", "LFMP 230800Z AUTO VRB02KT CAVOK 17/15 Q1014 NOSIG", "LFMT 230800Z AUTO 13016KT 6000 SCT008 BKN013 BKN023 21/20 Q1016 TEMPO 14015G25KT 3000 BR OVC004", "LFMU 230800Z AUTO 11007KT 080V140 9999 BKN007 OVC011 21/20 Q1015 TEMPO 4000 BR OVC004", "LFMV 230800Z AUTO 14007KT CAVOK 21/16 Q1017 NOSIG", "LFMY 230800Z AUTO 09004KT 060V120 CAVOK 20/16 Q1017", "LFOA 230800Z AUTO 14006KT 110V170 CAVOK 18/14 Q1009 TEMPO 20015G25KT 4000 SHRA SCT050CB", "LFOB 230800Z AUTO 13007KT CAVOK 15/14 Q1006 NOSIG", "LFOE 230800Z AUTO 15010KT CAVOK 15/14 Q1005 NOSIG", "LFOH 230800Z AUTO 14010KT CAVOK 17/14 Q1003 NOSIG", "LFOJ 230800Z AUTO 15009KT CAVOK 16/13 Q1006 NOSIG", "LFOK 230800Z AUTO 17013KT CAVOK 16/14 Q1009 NOSIG", "LFOP 230800Z AUTO 13013KT 9999 FEW007 SCT056 BKN140 15/14 Q1005 NOSIG", "LFOT 230800Z AUTO 14006KT CAVOK 16/13 Q1006 TEMPO 4000 SHRA SCT030TCU BECMG 20015G25KT", "LFOV 230800Z AUTO 15006KT 9999 FEW025 BKN200 OVC220 16/14 Q1003", "LFOZ 230800Z AUTO 15010KT CAVOK 16/13 Q1007", "LFPB 230800Z AUTO 13006KT CAVOK 16/14 Q1007 NOSIG", "LFPG 230800Z 15010KT CAVOK 16/14 Q1007 NOSIG", "LFPM 230800Z AUTO 15011KT CAVOK 17/14 Q1007", "LFPN 230800Z AUTO 15008KT CAVOK 16/13 Q1007 NOSIG", "LFPO 230800Z 14005KT CAVOK 16/14 Q1007 NOSIG", "LFPT 230800Z AUTO 14005KT CAVOK 16/14 Q1006", "LFPV 230800Z AUTO 14009KT CAVOK 15/13 Q1007 TEMPO 4500 -SHRA BKN035TCU", "LFQA 230800Z AUTO 14012KT CAVOK 16/14 Q1009", "LFQB 230800Z AUTO 18010KT CAVOK 17/14 Q1009", "LFQG 230800Z AUTO 14008KT CAVOK 17/14 Q1010", "LFQQ 230800Z AUTO 11005KT 070V150 9999 -RA FEW025/// OVC094/// //////TCU 15/14 Q1007 TEMPO 4000 RA", "LFRB 230800Z AUTO 11008KT CAVOK 13/12 Q0999 TEMPO 2000 TSRAGR BKN008 BKN015CB BECMG 18010KT", "LFRC 230800Z AUTO 16006KT CAVOK 15/14 Q1002 TEMPO 18015G25KT 4000 SHRA BKN008 BKN015CB", "LFRD 230800Z AUTO 14006KT 110V170 CAVOK 16/13 Q1002 TEMPO 4000 SHRA BKN008 BKN015CB", "LFRG 230800Z AUTO 15013KT CAVOK 16/14 Q1003 TEMPO 18015G25KT 3000 SHRA BKN008 BKN015CB", "LFRH 230800Z AUTO 10009KT CAVOK 14/12 Q1000 BECMG 20015G30KT BKN030CB", "LFRI 230800Z AUTO 14008KT CAVOK 17/14 Q1003 TEMPO 3000 SHRA SCT020 SCT080CB BECMG 20018G35KT", "LFRJ 230800Z AUTO 14010KT CAVOK 13/12 Q0999", "LFRK 230800Z AUTO 14007KT 9999 BKN033 OVC066 16/14 Q1003 TEMPO 18015G25KT 3000 SHRA BKN008 BKN015CB", "LFRL 230800Z AUTO 13010KT CAVOK 13/13 Q0999", "LFRM 230800Z AUTO 16007KT 130V210 CAVOK 18/14 Q1004 TEMPO SHRA SCT080CB", "LFRN 230800Z AUTO 10003KT 040V140 9999 FEW040 BKN047 OVC054 16/14 Q1002 TEMPO 4000 SHRA BKN008 BKN015CB", "LFRO 230800Z AUTO 12005KT 090V150 CAVOK 12/11 Q1000", "LFRQ 230800Z AUTO 08005KT CAVOK 13/13 Q0999 TEMPO 2000 TSRAGR BKN008 BKN015CB BECMG 14015G30KT", "LFRS 230800Z AUTO 15006KT 9999 FEW008 17/16 Q1002 BECMG 20018G35KT", "LFRT 230800Z AUTO 14006KT 9999 //////TCU 13/11 Q1001", "LFRU 230800Z AUTO 14006KT CAVOK 13/11 Q0999", "LFRV 230800Z AUTO 11008KT CAVOK 15/12 Q1001", "LFRZ 230800Z AUTO 10003KT CAVOK 15/13 Q1002 BECMG 20018G38KT 4000 SHRA SCT020 BKN050CB", "LFSB 230800Z AUTO 14010KT CAVOK 16/11 Q1015 NOSIG", "LFSD 230800Z AUTO 05001KT 9999 ////// 13/13 Q1012", "LFSG 230800Z AUTO 19011KT CAVOK 17/13 Q1013", "LFSI 230800Z AUTO 16009KT CAVOK 18/13 Q1010", "LFSL 230800Z AUTO 16005KT CAVOK 19/13 Q1009 NOSIG", "LFSM 230800Z AUTO 09003KT 050V120 CAVOK 12/12 Q1014", "LFSN 230800Z AUTO 00000KT CAVOK 12/12 Q1013", "LFSO 230800Z AUTO 19013KT CAVOK 17/13 Q1012", "LFST 230800Z AUTO VRB01KT CAVOK 14/12 Q1014 NOSIG", "LFSX 230800Z AUTO 09007KT CAVOK 16/12 Q1013", "LFTH 230800Z AUTO 06005KT 9999 BKN019 BKN024 22/19 Q1019 NOSIG", "LFTW 230800Z AUTO 13007KT 090V180 9999 OVC014 20/18 Q1017 BECMG 14015G25KT", "LFVP 230800Z AUTO 25014KT 9999 BKN017 12/11 Q1027", "LFYR 230800Z AUTO 14007KT CAVOK 16/13 Q1007", "LGAD 230820Z 34004KT CAVOK 21/16 Q1024", "LGAL 230820Z VRB03KT 9999 FEW020 19/15 Q1021", "LGAV 230820Z VRB01KT CAVOK 21/11 Q1022 NOSIG", "LGBL 230820Z 00000KT CAVOK 22/11 Q1022", "LGEL 230820Z 00000KT CAVOK 22/12 Q1022", "LGHI 230750Z 00000KT CAVOK 20/13 Q1022", "LGIO 230820Z 34002KT CAVOK 14/10 Q1026", "LGIR 230820Z VRB02KT CAVOK 20/12 Q1023 NOSIG", "LGKF 230750Z 33006KT 9999 FEW020 21/18 Q1024", "LGKL 230820Z 35010KT CAVOK 22/12 Q1023", "LGKO 230820Z VRB03KT CAVOK 23/12 Q1022", "LGKP 230820Z 32015KT CAVOK 21/14 Q1022", "LGKR 230820Z 00000KT 9999 FEW018 20/17 Q1024 NOSIG", "LGKV 230820Z 00000KT 9999 FEW010 17/12 Q1021", "LGKZ 230750Z 18004KT CAVOK 18/09 Q1025", "LGLM 230820Z 19004KT CAVOK 20/14 Q1021", "LGMK 230820Z 29004KT CAVOK 18/11 Q1022", "LGMT 230820Z 13008KT CAVOK 18/08 Q1022", "LGNX 230750Z 00000KT CAVOK 20/11 Q1022", "LGPA 230750Z VRB02KT CAVOK 20/15 Q1023", "LGPZ 230820Z 07004KT CAVOK 20/15 Q1025", "LGRP 230820Z 25008KT CAVOK 21/14 Q1021 NOSIG", "LGRX 230820Z 00000KT CAVOK 21/15 Q1024", "LGSA 230820Z 00000KT CAVOK 21/13 Q1022", "LGSK 230750Z VRB02KT CAVOK 20/15 Q1020", "LGSM 230750Z 15005KT CAVOK 18/12 Q1022", "LGSO 230750Z 27005KT CAVOK 20/15 Q1022", "LGSR 230750Z 25007KT CAVOK 18/14 Q1023", "LGTS 230820Z 28007KT CAVOK 17/14 Q1022 NOSIG", "LGZA 230750Z 33009KT 9999 FEW018 22/17 Q1024", "LHBP 230800Z 22004KT 190V250 0400 R13R/0800U R13L/0325N FG VV002 10/10 Q1023 TEMPO TL0930 0700 FG BKN002 TEMPO FM0930 1000 BR BCFG SCT003", "LHDC 230816Z AUTO 18007KT 140V210 0600 R04/0750N FG VV002 10/10 Q1023", "LHKE 230815Z 28004KT 1000 BR BKN003 12/12 Q1023 BECMG 1500 RMK AMB", "LHPA 230745Z 14002KT CAVOK 14/14 Q1022 NOSIG RMK BLU", "LHPP 230812Z AUTO 00000KT 0250 R34/0400N FG VV001 13/13 Q1024", "LHPR 230745Z AUTO VRB02KT 0400 R29/0550N BCFG FEW001 11/10 Q1022 BECMG 0900 BCFG", "LHSM 230745Z AUTO VRB02KT 0450 R16/0750N FG VV002 11/11 Q1023 BECMG 0900 FG BKN003", "LHSN 230815Z 25006KT 2000 BR OVC003 12/12 Q1023 BECMG 5000 BR BKN005 RMK YLO", "LIBA 230755Z 15003KT CAVOK 19/15 Q1024 RMK FEW FEW200 VIS MIN 9999 WIND THR11 13003KT WIND THR29 /////KT BLU", "LIBC 230750Z 22003KT 180V240 CAVOK 23/14 Q1025", "LIBD 230820Z VRB02KT CAVOK 23/15 Q1024", "LIBF 230750Z VRB01KT CAVOK 20/14 Q1023", "LIBG 230750Z VRB02KT 0500 R35/////// FG NSC 18/18 Q1024", "LIBN 230755Z 08003KT 0800 FG BKN005 17/16 Q1024 RMK BKN VIS MIN 0800 WIND THR14 06003KT WIND THR32 10003KT AMB", "LIBP 230820Z AUTO VRB01KT 9999 NCD 19/16 Q1023", "LIBQ 230755Z AUTO 08004KT 030V150 //// 20/01 Q1033", "LIBR 230820Z 17004KT 3000 BR SCT003 BKN010 20/19 Q1024", "LIBV 230755Z VRB01KT 8000 NSC 18/18 Q1023 RMK FEW FEW200 VIS MIN 8000 WIND THR32 17003KT WIND THR14 VRB01KT BLU", "LIBY 230755Z 00000KT 9999 FEW020 21/19 Q1023 RMK BKN SCT200 QUK 0 QUL 0 VIS MAR 12 KM VIS MIN 9999", "LICA 230820Z AUTO 26006KT 9999 FEW019/// 22/17 Q1025", "LICB 230820Z AUTO VRB02KT 9999 NCD 22/17 Q1027", "LICC 230820Z 27011KT CAVOK 23/14 Q1025", "LICD 230820Z AUTO 19009KT 9999 NCD 25/19 Q1025", "LICF 230755Z 07009KT CAVOK 22/16 Q1024 RMK SKC QUK 1 QUL 0 VIS MAR 18 KM MON LIB NC VIS MIN 9999", "LICG 230750Z 19013KT CAVOK 22/19 Q1025", "LICJ 230820Z AUTO 23003KT 9999 NCD 22/14 Q1025", "LICR 230820Z AUTO 36008KT 330V030 9999 NCD 24/15 Q1025", "LICT 230755Z 14010KT CAVOK 23/19 Q1025 RMK SKC VIS MIN 9999 WIND THR13 16009KT BLU", "LICZ 230755Z /////KT CAVOK 21/11 Q1024 RMK SKC VIS MIN 9999 WIND THR28 29007KT WIND THR10 30007KT A3026 BLU", "LIEA 230820Z VRB02KT CAVOK 24/18 Q1021", "LIEB 230755Z 21014KT CAVOK 21/17 Q1021 RMK SKC QUK 4 QUL 3 S VIS MAR 20 KM MON LIB VIS MIN 9999", "LIED 230755Z 11006KT 9999 FEW010 22/19 Q1022 RMK FEW VIS MIN 9999 WIND THR35 /////KT WIND THR17 11006KT BLU", "LIEE 230820Z 15010KT CAVOK 24/21 Q1022", "LIEO 230820Z VRB01KT CAVOK 21/15 Q1021", "LIMA 230750Z VRB02KT 8000 BKN013 16/16 Q1022", "LIMC 230820Z 03003KT 9999 BKN020 17/16 Q1023 NOSIG", "LIME 230820Z VRB02KT 9999 SCT040 SCT060 18/16 Q1023 NOSIG", "LIMF 230820Z 03003KT 6000 FEW013 SCT025 18/16 Q1023", "LIMG 230750Z 23004KT 140V300 9999 SCT020 19/16 Q1021", "LIMJ 230820Z 13014KT 9999 FEW015 SCT025 22/20 Q1021", "LIMK 230755Z 36006KT 0100 FG VV/// 14/13 Q1022 RMK VAL FOSCHIA VIS MIN 0100", "LIML 230820Z 10004KT 080V160 9999 SCT030 BKN060 18/14 Q1022 NOSIG", "LIMP 230750Z 10005KT 070V130 0800 R20/0700D FG BKN004 15/15 Q1022", "LIMS 230755Z 01003KT 0800 R30/1000 R12/0900 FG BKN007 SCT015 14/14 Q1021", "LIMU 230755Z ///05KT 9999 FEW018 SCT020 17/13 Q1020 RMK BKN QUK 1 QUL 1 SE VIS MAR 12 KM VIS MIN 9999", "LIMW 230820Z AUTO VRB02KT 9999 SCT120/// 13/13 Q1023", "LIMZ 230820Z AUTO VRB02KT 9999 BKN014/// BKN020/// 17/15 Q1023", "LIPB 230750Z VRB01KT 9999 BKN050 13/10 Q1024", "LIPC 230755Z 18002KT CAVOK 18/16 Q1021 RMK SCT SCT200 VIS MIN 9999 WIND THR11 18002KT WIND THR29 19002KT BLU", "LIPE 230820Z VRB01KT 0350 R12/0550N R30/1200U FG VV002 16/16 Q1022", "LIPF 230755Z 01004KT 6000 NSC 15/13 Q1021 RMK FEW FEW200 VIS MIN 6000", "LIPH 230820Z VRB02KT CAVOK 17/14 Q1022", "LIPI 230755Z 34004KT 9999 SCT010 BKN040 15/11 Q1022 RMK OVC VIS MIN 9999 WIND THR06 02004KT WIND THR24 35004KT BLU", "LIPK 230750Z VRB01KT CAVOK 18/17 Q1022", "LIPL 230755Z 08007KT 9999 SCT060 17/15 Q1021 RMK BKN VIS MIN 9999 WIND THR31 08007KT WIND THR13 08008KT BLU", "LIPO 230820Z AUTO 06008KT 9999 FEW061/// BKN075/// 19/14 Q1022", "LIPQ 230820Z AUTO VRB02KT 9999 OVC008/// 18/17 Q1022", "LIPR 230820Z 19006KT 9999 FEW030 SCT060 23/16 Q1022", "LIPS 230755Z /////KT 9999 BKN060 18/15 Q1022 RMK BKN VIS MIN 9999 WIND THR26 00000KT WIND THR08 05002KT BLU", "LIPX 230820Z VRB02KT 9999 SCT090 19/14 Q1022", "LIPY 230820Z AUTO VRB02KT 9999 BKN130/// 20/17 Q1023", "LIPZ 230820Z 01006KT 9999 FEW010 17/13 Q1022 NOSIG", "LIQC 230755Z 00000KT 9999 SCT016 SCT026 18/16 Q1025 RMK BKN QUK 2 QUL 1 SE VIS MAR 15 KM VIS MIN 9999", "LIQN 230754Z 17003KT 100V250 CAVOK 16/11 Q1026", "LIQO 230755Z AUTO /////KT //// ///// Q////", "LIRA 230820Z 18008KT CAVOK 22/16 Q1025", "LIRE 230755Z 13011KT 9999 SCT020 21/18 Q1024 RMK SCT VIS MIN 9999 WIND THR13 15011KT WIND THR31 /////KT BLU", "LIRF 230820Z 14012KT 9999 SCT025 22/19 Q1024 NOSIG", "LIRI 230750Z 10002KT CAVOK 20/15 Q1025", "LIRK 230755Z AUTO 28011G21KT 230V020 //// 13/02 Q1031", "LIRM 230755Z 35004KT 4000 BR FEW018 SCT050 19/17 Q1025 RMK SCT VIS MIN 4000 WIND THR06 02004KT GRN", "LIRN 230820Z VRB02KT 8000 FEW050 21/17 Q1026 NOSIG", "LIRP 230815Z 12007KT 9999 BKN025 22/17 Q1022 NOSIG", "LIRQ 230820Z 12005KT 090V150 9999 BKN035 21/17 Q1023", "LIRS 230755Z 13012KT 8000 SCT015 21/19 Q1022 RMK BKN VIS MIN 8000 WIND THR03 14011KT WIND THR21 15009KT BLU", "LIRT 230755Z 28008KT CAVOK 18/M10 Q1027 RMK SKC MON LIB VAL MAR CLD VIS MIN 9999", "LIRU 230750Z VRB01KT 9999 SCT040 20/16 Q1024", "LIRV 230755Z 01005KT 9999 FEW016 17/15 Q1024 RMK SCT SCT070 MON E SE CIME INC VAR RAPID VIS MIN 9999 WIND THR04/////KT BLU", "LIRX 230755Z 17020KT 0000 FG VV/// 19/17 Q1021 RMK VIS MIN 0000 VIS MAR 30 M", "LIRZ 230820Z AUTO 13003KT 090V180 9999 FEW037/// 19/14 Q1025", "LIVC 230806Z AUTO 23022G33KT ///// 09/07 Q1029", "LIVD 230755Z AUTO VRB03KT //// 07/06 Q1027", "LIVE 230755Z VRB02KT 9999 FEW020 SCT030 06/04 Q1024 RMK BKN VIS MIN 9999", "LIVF 230755Z 15006KT 9999 FEW025 19/13 Q1022 RMK BKN SCT070 MON S W CIME INC NC VAL NIL VIS MIN 9999", "LIVM 230755Z AUTO /////KT //// ///// Q////", "LIVP 230755Z 21014KT 0000 FG VV/// 07/07 Q1025 RMK MON INVIS VAL INVIS VIS MIN 0000", "LIVR 230755Z 12003KT 9999 FEW030 06/04 Q1025 RMK SCT MON CLD SCT VIS MIN 9999", "LIVT 230755Z AUTO VRB03KT //// 20/18 Q1022", "LJCE 230800Z VRB02KT 9999 SCT005 BKN090 14/13 Q1023 RMK BLU", "LJLJ 230800Z 00000KT 9999 SCT001 BKN033 10/10 Q1023 NOSIG", "LJMB 230800Z VRB01KT 9999 FEW007 BKN190 12/11 Q1022", "LJPZ 230800Z 14007KT 100V170 9999 FEW013 SCT060 21/18 Q1022", "LKCV 230800Z 10004KT CAVOK 12/10 Q1020 NOSIG RMK BLU BLU", "LKKB 230800Z 06003KT CAVOK 09/09 Q1020 NOSIG", "LKKU 230800Z 31002KT 0200 FG BKN002 10/10 Q1022", "LKKV 230800Z VRB02KT CAVOK 12/11 Q1019", "LKLN 230800Z AUTO 00000KT 0200 FG VV002 07/07 Q1020", "LKMT 230800Z 20012KT 9999 OVC013 12/10 Q1021 NOSIG", "LKNA 230800Z 13004KT 0100 R30/0200N FG VV001 06/06 Q1021 NOSIG RMK RED RED", "LKPD 230800Z VRB02KT 0600 R27/0750D FG VV002 09/09 Q1021 NOSIG", "LKPR 230800Z 15003KT 100V170 9999 VCFG FEW002 12/11 Q1019 NOSIG", "LKTB 230800Z VRB02KT 0350 R27/0500N FG VV002 08/08 Q1022 NOSIG", "LLBG 230820Z VRB02KT CAVOK 28/14 Q1017 NOSIG RMK FEW090", "LLER 230750Z 01013KT 9000 NSC 26/15 Q1017", "LLHA 230750Z 13004KT 090V160 CAVOK 26/14 Q1017 RMK FEW100", "LLIB 230750Z AUTO 35005KT 270V060 9000 NSC 26/12 Q1018 RMK SCT140", "LMML 230815Z 22005KT 180V280 9999 FEW026 23/17 Q1026 NOSIG", "LOAN 230800Z 10004KT 9999 VCFG FEW001", "LOAV 230800Z VRB02KT CAVOK 11/08", "LOWG 230820Z VRB02KT 4000 1200N BCFG BR BKN001 09/09 Q1022 BECMG CAVOK", "LOWI 230820Z 27009KT 9999 FEW010 11/09 Q1022 NOSIG", "LOWK 230820Z AUTO 33004KT 290V350 9999 FEW007 BKN016 11/10 Q1024 NOSIG", "LOWL 230820Z AUTO VRB02KT 0350 R26/0400N FG VV001 09/09 Q1020 NOSIG", "LOWS 230820Z 15011KT CAVOK 12/08 Q1019 NOSIG", "LOWW 230820Z 12006KT 9999 3100S BR VCFG FEW000 SCT001 10/08 Q1021 TEMPO 2000 BR BKN002", "LOXZ 230820Z VRB01KT 9999 FEW010 BKN300 08/07 Q1023 NOSIG", "LPAZ 230800Z 27014KT 9999 FEW022 19/14 Q1016", "LPBJ 230800Z 19007KT 9999 FEW025 BKN045 16/15 Q1016", "LPFR 230800Z 21009KT 9999 FEW012 SCT025 20/18 Q1016", "LPHR 230800Z 30018KT 9999 -RA FEW014 20/18 Q1015", "LPLA 230800Z /////KT 9999 FEW015 SCT020 BKN030 19/18 Q1014", "LPMA 230800Z 26006KT 9999 SCT016 20/14 Q1018", "LPMR 230800Z 18010KT 9999 -SHRA BKN024 SCT035 17/14 Q1012", "LPMT 230800Z 20007KT 9999 FEW025 18/14 Q1014", "LPPD 230800Z 28012KT 9999 -SHRA FEW018 BKN040 19/14 Q1015", "LPPR 230800Z 20018KT 9999 -SHRA FEW009 SCT015 FEW020CB 17/16 Q1009", "LPPS 230800Z 31005KT 9999 FEW015 19/13 Q1018", "LPPT 230800Z 22010KT 9999 FEW020 18/14 Q1014", "LQBK 230800Z 16003KT 3000 R16/1200N BR BKN002 14/14 Q1023 TEMPO 5000 SCT005", "LQMO 230800Z VRB02KT CAVOK 16/11 Q1024", "LQSA 230800Z VRB01KT CAVOK 13/09 Q1025 NOSIG", "LQTZ 230800Z VRB01KT 8000 FEW002 13/13 Q1024", "LRAR 230800Z VRB02KT 9999 OVC008 13/11 Q1024", "LRBC 230800Z VRB01KT 9999 BKN055 15/11 Q1018", "LRBM 230800Z AUTO 27004KT 6000 FEW005/// SCT007/// BKN009/// 11/10 Q1023", "LRBO 230800Z 34020KT 9999 FEW060 SCT110 20/09 Q1018 BLU BLU", "LRBS 230800Z 24007KT CAVOK 18/09 Q1019 NOSIG", "LRCK 230800Z 28015KT CAVOK 18/07 Q1018 NOSIG", "LRCL 230800Z 29012KT 9999 SCT030 BKN042 14/10 Q1022", "LRCT 230800Z 29008KT 9999 FEW026 OVC038 15/10 Q1021 BLU BLU", "LRCV 230800Z 26014KT CAVOK 18/10 Q1021", "LRFT 230800Z 28014KT 9999 FEW100 18/07 Q1018 BLU BLU", "LRIA 230800Z 29006KT 6000 SCT015 BKN018 OVC021 12/12 Q1018", "LROD 230800Z 19007KT 9000 OVC007 12/10 Q1024", "LROP 230800Z 23006KT CAVOK 19/08 Q1019 NOSIG", "LRSB 230800Z 30014KT 9999 FEW040 15/09 Q1022", "LRSM 230800Z 27007KT 5000 BR OVC004 12/11 Q1023", "LRSV 230800Z 31015KT 9999 FEW018 BKN029 15/12 Q1018", "LRTC 230800Z 31018KT CAVOK 18/06 Q1017", "LRTM 230800Z 23004KT 9999 SCT015 BKN030 14/12 Q1022", "LRTR 230800Z 24003KT 200V260 9999 FEW005 OVC012 14/13 Q1024", "LRTZ 230800Z 31018KT 9999 FEW100 19/07 Q1017 BLU BLU", "LSGC 230820Z 19004KT 120V240 CAVOK 16/09 Q1016", "LSGG 230820Z VRB01KT 9999 2500SW R04/0800U R22/P2000N PRFG FEW002 12/12 Q1017 NOSIG", "LSGS 230820Z 05005KT 9999 BKN120 12/08 Q1020", "LSMA 230820Z AUTO VRB02KT 9999NDV SCT120 11/09 Q1017 RMK", "LSMD 230820Z AUTO 29003KT 250V360 0750NDV R11/0500V0900D R29/0700VP2000U BCFG BKN002 10/09 Q1017 RMK", "LSME 230820Z AUTO VRB01KT 0350NDV R04/0550V0750D R22/0450N FG VV001 09/09 Q1017 RMK", "LSMM 230820Z AUTO VRB02KT 9999NDV SCT120 09/09 Q1017 RMK", "LSMP 230820Z AUTO VRB02KT 0450NDV R23/1100N R05/0900N FG VV001 11/11 Q1017 RMK", "LSZA 230820Z VRB01KT 8000 RA FEW006 SCT021 BKN031 15/15 Q1023", "LSZB 230820Z 18003KT 9999 SCT130 11/11 Q1017", "LSZC 230820Z AUTO VRB02KT 9999 FEW120 11/10 Q1017", "LSZG 230820Z VRB01KT 0450 FG VV002 10/10 Q1017", "LSZH 230820Z VRB01KT 0500 0250N R14/0650N R16/0375N R28/P2000N R34/1200U PRFG VCFG VV001 09/09 Q1017 BECMG 1500 SCT005", "LSZL 230820Z AUTO 09003KT 060V120 9999NDV FEW030 BKN045 15/14 Q1023 RMK", "LSZR 230820Z 29005KT 9999 SCT006 13/12 Q1017 RMK A", "LSZS 230820Z VRB03KT 9999 FEW003 BKN060 BKN070 06/06 Q1025 RMK F TL170", "LTAC 230750Z 18003KT 110V240 CAVOK 11/M01 Q1025 NOSIG RMK RWY21L 23003KT 160V310 RWY03L VRB02KT RWY21R 25003KT 200V280", "LTAE 230750Z VRB02KT CAVOK 11/M00 Q1026 NOSIG RMK RWY21 VRB01KT", "LTAF 230750Z 02007KT 350V060 CAVOK 25/06 Q1020 NOSIG RMK RWY23 03007KT 360V080 SKC", "LTAG 230750Z 04008KT CAVOK 25/02 Q1019 NOSIG RMK SKC", "LTAI 230750Z 01006KT CAVOK 22/M00 Q1021 NOSIG RMK RWY18C 35006KT 320V030 RWY36R 01006KT 350V050 RWY18L 02005KT 330V050", "LTAJ 230750Z 09004KT 040V130 CAVOK 19/08 Q1023 NOSIG RMK RWY10 09006KT SKC", "LTAL 230750Z VRB03KT CAVOK 10/M01 Q1022", "LTAN 230750Z 16004KT 120V220 CAVOK 10/M03 Q1026 NOSIG", "LTAP 230750Z VRB02KT CAVOK 12/03 Q1024 NOSIG RMK RWY23 VRB02KT", "LTAR 230750Z 20005KT 140V240 CAVOK 07/M01 Q1026", "LTAS 230750Z 18007KT 140V220 9999 SCT035 BKN100 14/04 Q1020", "LTAT 230750Z 08003KT 020V120 CAVOK 14/01 Q1026 NOSIG RMK RWY03 VRB02KT", "LTAU 230750Z 00000KT CAVOK 09/01 Q1026 NOSIG RMK RWY07 09003KT 360V170", "LTAW 230750Z 28002KT CAVOK 10/05 Q1026", "LTAY 230750Z 08006KT CAVOK 12/M02 Q1025", "LTAZ 230750Z 10004KT 050V200 CAVOK 10/M02 Q1026 RMK RWY29 11004KT 070V170", "LTBA 230750Z 24009KT CAVOK 17/13 Q1021 RMK RWY23 25013KT", "LTBD 230750Z 07009KT CAVOK 17/00 Q1023", "LTBF 230750Z 01003KT 330V060 CAVOK 14/03 Q1023 NOSIG", "LTBH 230750Z 23005KT CAVOK 18/10 Q1023", "LTBJ 230750Z 19004KT 110V220 CAVOK 19/03 Q1022 NOSIG RMK RWY16 21004KT 170V240", "LTBQ 230750Z VRB02KT CAVOK 16/08 Q1021 NOSIG", "LTBR 230750Z 17004KT 130V230 CAVOK 14/04 Q1023 NOSIG RMK RWY07 15003KT 060V170", "LTBS 230750Z 04003KT 340V110 CAVOK 21/06 Q1021 BECMG TL0900 21012KT RMK RWY19 35004KT 320V040 SKC", "LTBU 230750Z 23009KT 8000 SCT012 18/13 Q1021 RMK RWY22 25009KT", "LTBY 230750Z 10005KT 040V170 CAVOK 11/01 Q1025", "LTCA 230750Z 00000KT CAVOK 16/04 Q1025 NOSIG", "LTCB 230750Z 08005KT 050V110 CAVOK 18/10 Q1021", "LTCC 230803Z 13004KT 080V170 4000 BR SCT002 12/12 Q1024 NOSIG RMK RWY16 16003KT 100V170 4ST002", "LTCD 230750Z VRB02KT CAVOK 12/04 Q1026 NOSIG", "LTCE 230750Z VRB02KT CAVOK 09/01 Q1026 NOSIG RMK RWY08R VRB02KT RWY26R VRB03KT RWY08L VRB02KT SKC", "LTCF 230750Z VRB03KT 9999 FEW040 07/02 Q1026", "LTCG 230750Z 09008KT CAVOK 17/09 Q1022 NOSIG RMK RWY29 09007KT", "LTCI 230750Z 30005KT 280V340 9999 FEW040 12/04 Q1028 NOSIG", "LTCJ 230750Z 20004KT 150V240 9999 BKN008 14/11 Q1024 NOSIG RMK RWY20 16004KT 140V220 7ST008", "LTCK 230750Z 32005KT 270V360 8000 SCT025 12/08 Q1025", "LTCL 230750Z 27003KT 200V330 9999 FEW040 16/12 Q1024", "LTCM 230750Z VRB01KT CAVOK 20/06 Q1020", "LTCN 230750Z VRB02KT CAVOK 19/04 Q1023 NOSIG", "LTCO 230750Z 09004KT 030V180 9999 FEW040 10/05 Q1026", "LTCP 230750Z 18004KT 070V220 CAVOK 20/02 Q1024", "LTCR 230750Z VRB04KT CAVOK 22/08 Q1022", "LTCS 230750Z 06007KT 030V090 CAVOK 18/02 Q1024 RMK RWY22 03006KT 340V060 SKC", "LTCT 230750Z VRB04KT 9999 FEW040 15/03 Q1025", "LTCU 230750Z VRB02KT 9999 FEW035 14/06 Q1025", "LTCV 230750Z 29005KT 240V320 9999 FEW040 20/12 Q1022", "LTCW 230750Z 13003KT 050V220 9999 SCT030 14/06 Q1026", "LTDA 230750Z 01004KT 300V060 CAVOK 22/13 Q1022 NOSIG", "LTFB 230750Z 08004KT 030V110 CAVOK 19/06 Q1022", "LTFC 230750Z VRB02KT CAVOK 11/00 Q1025 RMK RWY23 24004KT 170V310", "LTFD 230750Z 00000KT CAVOK 18/06 Q1023", "LTFE 230750Z 07003KT 360V110 CAVOK 18/02 Q1022 NOSIG RMK RWY10 09003KT 010V140", "LTFG 230750Z 25003KT 200V300 CAVOK 24/08 Q1021", "LTFH 230750Z 18006KT 150V230 CAVOK 21/06 Q1021 NOSIG", "LTFJ 230750Z 24015KT CAVOK 18/07 Q1021 NOSIG RMK RWY24 26011KT", "LTFM 230750Z 24016KT CAVOK 18/12 Q1021 NOSIG RMK RWY17L 24017KT RWY34L 22015KT RWY16R 23014KT RWY36 24016KT RWY18 25020KT", "LTFO 230750Z 05009KT CAVOK 17/08 Q1022", "LUKK 230800Z 33011KT 9999 BKN015 OVC052 13/10 Q1016 NOSIG", "LWSK 230800Z 19002KT CAVOK 13/10 Q1026 NOSIG", "LXGB 230820Z 22004KT 9999 FEW020 BKN150 BKN250 22/18 Q1018 NOSIG RMK BLU BLU", "LYBE 230800Z 21005KT 130V240 9999 FEW020 16/15 Q1025 NOSIG", "LYNI 230800Z VRB01KT 9999 SCT037 17/11 Q1025 NOSIG", "LYPG 230800Z VRB02KT CAVOK 17/08 Q1026 NOSIG", "LYTV 230800Z 00000KT CAVOK 19/14 Q1025 NOSIG", "LZIB 230800Z 05005KT 0250 R31/0400N R22/0375N FG VV001 09/09 Q1022 BECMG 0500 FG", "LZKZ 230800Z 15003KT 0200 R01/0300N FG VV001 08/08 Q1022 NOSIG", "LZPP 230800Z VRB01KT 0150 R01/0275N FG OVC002 09/09 Q1022", "LZTT 230800Z 23011KT 9999 FEW050 12/08 Q1022 NOSIG", "LZZI 230800Z VRB01KT 4300 BR FEW004 BKN013 11/10 Q1022", "MDPC 230800Z 09010KT 9999 FEW017CB BKN018 SCT300 25/24 Q1012 CB/SW/W/N", "MDSD 230800Z 00000KT 9999 FEW016 SCT300 23/23 Q1012", "MDST 230800Z 00000KT 9999 SCT016 BKN300 23/23 Q1012", "MGGT 230800Z 01010KT 9999 FEW004 BKN014 16/15 Q1021 A3015", "MGPB 230800Z 00000KT 9999 SCT018 BKN090 23/22 Q1012 A2988", "MKJP 230800Z 01006KT 9999 VCTS FEW020 FEW022CB SCT035 27/22 Q1011", "MKJS 230800Z VRB02KT 9999 FEW022CB 26/23 Q1011", "MMAA 230747Z 00000KT 5SM FEW015 FEW300 25/23 A2989 RMK 8/102 HZY", "MMAS 230746Z 16006KT 10SM SCT230 14/11 A3022 RMK 8/006", "MMCZ 230745Z 00000KT 7SM SKC 20/18 A2995", "MMGL 230748Z 00000KT 8SM BKN020 OVC090 18/15 A3014 RMK 8/57/", "MMHO 230741Z 20005KT 10SM SCT080 24/17 A2982 RMK 8/030 HZY", "MMMD 230741Z 17004KT 7SM SKC 18/17 A2999", "MMML 230747Z 27007KT 10SM SKC 20/08 A2968", "MMMM 230742Z 00000KT 7SM SCT030 SCT300 15/14 A3022 RMK 8/508 HZY", "MMMX 230745Z 30004KT 8SM SCT020 BKN100 BKN220 17/12 A3029 NOSIG RMK 8/538 HZY", "MMMY 230740Z 09004KT 10SM SKC 19/17 A2986", "MMMZ 230741Z 00000KT 10SM SCT030 BKN080 OVC240 25/25 A2977 RMK 8/477", "MMQT 230740Z 00000KT 8SM BKN020 16/11 A3027 RMK 8/500", "MMSP 230740Z 00000KT 7SM SKC 15/10 A3018 RMK SC/CI", "MMTJ 230741Z 18005KT 6SM BKN030 16/16 A2985 RMK 8/700 HZY", "MMTO 230741Z 00000KT 3SM BR HZ BKN015 OVC070 12/12 A3037 RMK 8/43/ BINOVC", "MMTP 230740Z 00000KT 8SM SCT100 24/24 A2989 RMK 8/060", "MMUN 230743Z 32003KT 7SM SKC 17/16 A2996", "MMZC 230740Z E16009KT 10SM SCT080 14/12 A3021 RMK 8/020", "MNMG 230800Z 00000KT 9999 FEW020CB SCT300 24/22 Q1011 A2985 CB/SW/NW/SE NOSIG", "MPTO 230800Z VRB02KT 9999 SCT018CB 23/23 Q1011 NOSIG RMK CB S", "MROC 230800Z 08004KT 9999 FEW005 20/17 A2999 NOSIG", "MSLP 230750Z VRB02KT 9999 SCT076 26/22 Q1010 A2983 NOSIG", "MTPP 230759Z AUTO 11005KT 9000 ////// 23/22 Q1011 A2986 NOSIG", "MUCF 230759Z AUTO 05005KT 23/21 Q1014", "MUCL 230750Z AUTO 07005KT 030V120 26/23 Q1013", "MUCM 230750Z 33005KT 7000 VCFG FEW020 22/22 Q1014", "MUCU 230750Z 36006KT 9000 FEW020 25/21 Q1012", "MUGM 230751Z 33008KT 10SM FEW030 BKN250 24/22 A2990 RMK AO2 SLP123 T02390222 $", "MUHA 230750Z 10002KT 8000 FEW005 18/18 Q1015", "MUHG 230750Z 09005KT 9000 FEW025 OVC165 22/22 Q1013", "MUVR 230750Z 27001KT 8000 FEW020 20/19 Q1015", "NCAI 230800Z AUTO 07002KT //// ////// 26/22 Q1013", "NCAT 230800Z AUTO 03002KT //// ////// ///// Q////", "NCMG 230800Z AUTO 04003KT //// ////// ///// Q////", "NCMH 230800Z AUTO 01002KT //// ////// ///// Q1012", "NCMK 230800Z AUTO NIL", "NCMR 230800Z AUTO 05002KT //// ////// ///// Q1013", "NCNS 230800Z AUTO 02003KT //// ////// 28/23 Q1011", "NCPK 230800Z AUTO NIL", "NCPL 230800Z AUTO 34002KT //// ///// 26/24 Q1012", "NCPY 230800Z AUTO 04009KT //// ////// 27/21 Q1012", "NCRG 230800Z AUTO 08006KT 9999 BKN009/// BKN019/// 24/24 Q1014", "NCRK 230800Z AUTO 04003KT //// ////// 27/22 Q1011", "NCSW 230800Z AUTO 07001KT //// ////// 28/24 Q1012", "NFFN 230800Z 14009KT 9999 FEW030 SCT048 25/20 Q1012 NOSIG", "NFNA 230800Z 14008KT 9999 SCT020 BKN048 25/22 Q1013", "NFTF 230800Z 14010KT 9999 FEW010 SCT015 BKN100 22/19 Q1015", "NGFU 230800Z VRB02KT 9999 FEW018TCU BKN300 29/23 Q1009", "NGTA 230800Z 10007KT 9999 FEW020 27/22 Q1009", "NIUE 230800Z AUTO 04001KT 24/23 Q1011", "NLWW 230800Z AUTO 09007KT 9999 FEW018/// 27/24 Q1011 TEMPO 4000 SHRA BKN014 FEW020CB", "NSFA 230800Z 09003KT 9999 FEW022 BKN250 26/24 Q1011", "NSTU 230750Z VRB05KT 8SM -SHRA SCT018 BKN040 OVC100 26/25 A2986 RMK SLP112 T02560252", "NVSS 230800Z 35004KT 9999 -RA SCT018 OVC100 23/23 Q1010", "NVVV 230800Z 07007KT 8000 -RA FEW010 BKN018 OVC090 23/22 Q1012", "NWWW 230800Z AUTO 07007KT 020V160 CAVOK 24/18 Q1012 TEMPO 3000 SHRA FEW020CB", "NZAA 230800Z AUTO 21011KT 9999 NCD 15/12 Q1030 NOSIG", "NZCH 230800Z AUTO 30013KT 9999 NCD 19/M02 Q1018 NOSIG", "NZCM 230755Z AUTO 06015KT 9999 CLR M21/M28 A2927 RMK AO2 SLP920 T12131277 $", "NZWN 230800Z AUTO 01023KT 9999 BKN019/// 14/11 Q1025 NOSIG", "OEAB 230800Z 03005KT CAVOK 23/00 Q1029 NOSIG", "OEAH 230800Z 21010KT CAVOK 37/M01 Q1017 NOSIG", "OEAO 230800Z 24002KT CAVOK 31/06 Q1019 NOSIG", "OEBA 230800Z 11008KT CAVOK 24/07 Q1026 NOSIG", "OEBH 230800Z 09009KT CAVOK 28/10 Q1022 NOSIG", "OEDF 230800Z 30006KT CAVOK 35/05 Q1017 NOSIG", "OEDM 230800Z 18012KT CAVOK 31/M02 Q1022", "OEDR 230800Z 28008KT CAVOK 36/03 Q1016", "OEGN 230800Z 21007KT 9999 FEW030 34/25 Q1015 NOSIG", "OEGS 230800Z 23010KT CAVOK 31/07 Q1020", "OEGT 230800Z 00000KT CAVOK 24/10 Q1018 NOSIG", "OEHL 230800Z 21014KT CAVOK 31/00 Q1022", "OEJB 230800Z AUTO 26006KT CAVOK 36/00 Q1017 NOSIG", "OEJN 230800Z 34006KT CAVOK 34/18 Q1014 NOSIG", "OEKJ 230800Z 16008KT CAVOK 33/M01 Q1023", "OEKM 230800Z 03012KT CAVOK 23/01 Q1029 NOSIG", "OEMA 230800Z 09007KT CAVOK 32/M05 Q1021 NOSIG", "OEMN 230800Z 20004KT CAVOK 35/20 Q1017", "OENG 230800Z 09006KT CAVOK 27/04 Q1023 NOSIG", "OEPA 230800Z 24008KT CAVOK 34/08 Q1018 NOSIG", "OEPS 230756Z 14006KT 9999 CLR 32/01 A3024 RMK A02A SLPNO WND DATA ESTMD T03100010 53010 $", "OERF 230800Z 20018KT CAVOK 36/M05 Q1017 NOSIG", "OERK 230800Z 23006KT CAVOK 32/03 Q1022 NOSIG", "OERR 230800Z 07012KT CAVOK 24/08 Q1019 NOSIG", "OESH 230800Z 09006KT CAVOK 33/06 Q1019 NOSIG", "OESK 230800Z 10007KT CAVOK 27/09 Q1021 NOSIG", "OETB 230800Z 00000KT CAVOK 25/08 Q1019 NOSIG", "OETF 230800Z 15010KT CAVOK 28/M07 Q1026 NOSIG", "OETR 230800Z 07011KT 7000 NSC 25/14 Q1020 NOSIG", "OEWD 230800Z 11008KT CAVOK 32/12 Q1020 NOSIG", "OEWJ 230800Z 30011KT CAVOK 29/22 Q1015 NOSIG", "OEYN 230800Z 15003KT CAVOK 33/22 Q1012 NOSIG", "OIAA 230800Z 12006KT CAVOK 35/20 Q1016", "OIAG 230800Z 24002KT 7000 NSC 33/19 Q1017", "OIAH 230800Z 12004KT CAVOK 31/04 Q1022", "OIAI 230751Z 32004KT CAVOK 31/07 Q1018", "OIAM 230800Z 00000KT 7000 NSC 33/25 Q1016", "OIAW 230800Z 08004KT 2500 HZ NSC 31/24 Q1017", "OIBA 230800Z 18006KT 5000 HZ NSC 32/23 Q1016", "OIBB 230800Z 30006KT 5000 HZ NSC 30/23 Q1017 A3003 NOSIG", "OIBH 230800Z 21008KT 5000 HZ NSC 32/24 Q1016 A3002", "OIBJ 230800Z AUTO 23003KT //// // ////// 32/04 Q1022", "OIBK 230800Z 17008KT CAVOK 33/23 Q1016 NOSIG", "OIBL 230800Z 13006KT 5000 HZ NSC 31/23 Q1016", "OIBP 230800Z 30004KT 7000 NSC 35/22 Q1016 A3001", "OIBQ 230800Z 09006KT 4000 HZ NSC 30/25 Q1017 A3005", "OIBS 230800Z 06006KT 3500 HZ FEW025 32/25 Q1017", "OIBV 230800Z 16010KT 8000 NSC 33/23 Q1016", "OICC 230800Z 30006KT 9999 FEW050 26/00 Q1024 A3026", "OICJ 230800Z 08006KT CAVOK 21/M01 Q1027", "OICK 230800Z 28008KT CAVOK 25/M01 Q1024", "OICS 230800Z 20004KT 8000 FEW040 21/08 Q1024 A3025 NOSIG", "OIFK 230800Z 00000KT CAVOK 27/M02 Q1022", "OIFM 230800Z 20006KT 5000 HZ NSC 24/M00 Q1028 A3037", "OIFS 230800Z 16004KT CAVOK 22/M06 Q1030", "OIGG 230800Z 27006KT 9999 BKN009 FEW015CB SCT080 17/16 Q1023", "OIGK 230750Z 28004KT 9999 SCT020 BKN070 13/07 Q1027", "OIHH 230800Z 01010KT 9999 SCT040 21/01 Q1026 A3031", "OIHM 230800Z 22010KT 9999 SCT040 23/M04 Q1026", "OIHR 230800Z 24018KT 8000 FEW035 25/06 Q1025", "OIIE 230800Z 14014KT 9999 FEW030CB SCT040 22/04 Q1024", "OIII 230800Z 17008KT 9999 FEW040 BKN100 21/03 Q1025 A3028 NOSIG", "OIIK 230800Z 02002KT 8000 -RA SCT035CB SCT040 BKN090 15/09 Q1026 RETS", "OIIP 230800Z 30014KT 8000 FEW030CB SCT040 BKN100 17/07 Q1024 A3027", "OIIS 230800Z 20004KT CAVOK 24/04 Q1025", "OIKB 230800Z 18008KT 5000 HZ NSC 32/24 Q1016 A3002 NOSIG", "OIKK 230800Z 35008KT CAVOK 25/M04 Q1027 A3034", "OIKO 230800Z 22004KT 7000 NSC 35/17 Q1016", "OIKQ 230800Z 13006KT 5000 HZ NSC 32/27 Q1016 NOSIG", "OIMB 230800Z 33004KT 9999 FEW040 29/M09 Q1025 A3028", "OIMC 230750Z 03008KT CAVOK 19/10 Q1027", "OIMD 230800Z 36006KT 7000 NSC 23/08 Q1021", "OIMJ 230800Z 04012KT 9999 FEW030 19/07 Q1025", "OIMM 230800Z 10010KT 9999 FEW030 18/11 Q1027 A3033", "OIMN 230800Z 00000KT 9999 FEW025 FEW025TCU 18/11 Q1026", "OIMQ 230800Z 12010KT CAVOK 22/08 Q1024", "OIMS 230800Z 10012KT 5000 HZ NSC 22/09 Q1025", "OIMT 230800Z 13002KT 7000 NSC 30/M01 Q1020", "OINB 230800Z 05002KT CAVOK 22/17 Q1023", "OINE 230800Z 28004KT 9999 FEW025 SCT080 23/15 Q1022", "OING 230800Z 00000KT 9999 FEW020 23/16 Q1025 NOSIG", "OINK 230800Z 23006KT 9999 FEW030 23/16 Q1021", "OINN 230800Z 10004KT 9999 FEW022TCU SCT190 21/17 Q1022", "OINR 230800Z 16006KT 9999 FEW022CB SCT025 BKN090 20/15 Q1019", "OINZ 230800Z 31006KT 7000 SCT025 22/17 Q1024", "OISA 230800Z 01002KT CAVOK 23/M09 Q1029 A3041", "OISF 230800Z 00000KT CAVOK 28/M01 Q1025 A3030", "OISL 230800Z 24006KT CAVOK 31/05 Q1020 A3013 NOSIG", "OISR 230800Z 00000KT CAVOK 34/11 Q1020 NOSIG", "OISS 230800Z 00000KT 6000 NSC 25/M03 Q1027 A3033", "OISY 230800Z 00000KT CAVOK 23/M04 Q1030", "OITK 230800Z 04008KT 9999 SCT035TCU FEW040 12/09 Q1025", "OITL 230800Z 30019KT 9000 VCFG SCT007 OVC020 08/06 Q1024 NOSIG", "OITM 230800Z 26004KT 7000 FEW035 17/09 Q1023", "OITP 230800Z 27004KT 4000 RADZ BR BKN020 OVC060 12/12 Q1027", "OITR 230800Z 07004KT 9999 SCT035CB SCT040 BKN100 13/08 Q1024", "OITT 230800Z 24004KT 9999 FEW030 FEW032TCU SCT080 13/07 Q1026 A3030", "OITU 230751Z 09004KT 9999 FEW020 BKN035 11/07 Q1026", "OITZ 230800Z 15004KT 9000 FEW015 SCT025CB BKN080 15/10 Q1023 A3022", "OIYY 230800Z 12002KT 5000 HZ NSC 26/02 Q1026 NOSIG", "OIZB 230800Z 35018KT 6000 NSC 29/09 Q1019", "OIZC 230800Z 24010KT 5000 HZ NSC 32/22 Q1014", "OIZH 230800Z 36004KT CAVOK 29/M05 Q1025 A3027 NOSIG", "OIZI 230800Z 28004KT CAVOK 33/08 Q1019", "OIZJ 230800Z 23006KT 8000 NSC 29/26 Q1016", "OJAI 230800Z 00000KT 4000 HZ SCT035 SCT080 21/08 Q1021 NOSIG", "OJAM 230800Z VRB02KT 4000 HZ NSC 23/11 Q1021 NOSIG", "OJAQ 230800Z 36009KT 6000 NSC 25/17 Q1017 NOSIG", "OKAS 230755Z 24012KT 9000 HZ CLR 38/M03 A3001 RMK AO2A SLP154 $", "OKBK 230800Z 00000KT CAVOK 37/02 Q1017 NOSIG", "OLBA 230800Z 33004KT 8000 FEW025 26/15 Q1019 NOSIG", "OMAA 230800Z 16006KT 110V230 CAVOK 33/14 Q1016 NOSIG", "OMAD 230800Z VRB03KT CAVOK 34/17 Q1016 BECMG 28008KT", "OMAL 230800Z 18013KT CAVOK 33/06 Q1018 NOSIG", "OMDB 230800Z 23007KT 190V250 CAVOK 35/09 Q1016 BECMG 34012KT", "OMDW 230800Z 17010KT CAVOK 35/10 Q1017 BECMG 34014KT", "OMFJ 230800Z 10007KT 070V130 7000 NSC 31/23 Q1017 A3003", "OMRK 230800Z 27006KT CAVOK 36/10 Q1017 A3003", "OMSJ 230800Z 24006G19KT 200V280 CAVOK 35/08 Q1017 BECMG 34012KT", "OODQ 230750Z AUTO 06010KT CAVOK ////// 28/23 Q1017 NOSIG RMK RH70? 0", "OOKB 230750Z 04007KT 010V070 CAVOK 34/16 Q1017 NOSIG", "OOMS 230750Z 36011KT CAVOK 31/24 Q1016 NOSIG", "OOSA 230750Z 14007KT 100V180 9999 FEW025 29/22 Q1017 NOSIG", "OOSH 230750Z AUTO VRB04KT //// ////// 33/22 Q1016 RMK 1012", "OPFA 230755Z 31004KT 4000 HZ NSC 31/13 Q1017 NOSIG", "OPIS 230800Z 00000KT 7000 NSC 27/07 Q1018 NOSIG", "OPKC 230800Z 23008KT 6000 NSC 36/05 Q1015 NOSIG", "OPLA 230755Z 30005KT 6000 NSC 29/10 Q1017 NOSIG RMK QFE991 A30.03", "OPPS 230800Z 36006KT 7000 HZ NSC 27/11 Q1018", "OPSK 230800Z 13006KT 5000 HZ NSC 35/15 Q1014 NOSIG", "OPST 230800Z 31006KT 4000 HZ NSC 26/12 Q1017 NOSIG 42%", "ORBI 230800Z 30007KT 5000 DU NSC 29/15 Q1017 NOSIG", "ORMM 230800Z 14008KT CAVOK 34/17 Q1017 NOSIG", "ORNI 230800Z 00000KT 5000 DU NSC 26/12 Q1016", "ORSU 230800Z VRB02KT 8000 FEW045 25/13 Q1023", "OSDI 230800Z 06010KT CAVOK 21/10 Q1022", "OSKL 230800Z 35004KT CAVOK 21/09 Q1021", "OSLK 230800Z 07004KT 9999 FEW030 27/13 Q1019", "OTBD 230800Z 08005KT 030V130 CAVOK 34/21 Q1017 NOSIG", "OTBH 230755Z 00000KT 9999 CLR 32/21 A3004 RMK AO2A SLPNO ALSTG ESTMD RVRNO PWINO FZRANO TSNO CHINO RWY34 $", "OTHH 230800Z 06005KT 030V090 CAVOK 33/20 Q1017 NOSIG", "PAAD 230815Z AUTO 12010KT 10SM OVC007 M08/M08 A3002 RMK AO2 T10761085", "PAAK 230756Z AUTO 20007KT 10SM FEW070 OVC085 A3032 RMK AO2 SLPNO FZRANO $", "PAAQ 230753Z AUTO 00000KT 10SM CLR M03/M04 A2977 RMK AO2 SLP087 I1000 T10281044 TSNO", "PABA 230752Z AUTO 09022G26KT 10SM OVC010 M04/M06 A3003 RMK AO2 PK WND 08028/0710 SLP175 T10441056 FZRANO PNO $", "PABE 230819Z 17005KT 1SM BR VV002 M04/M04 A3003 RMK AO2 I1000 T10391039 RVRNO", "PABL 230756Z AUTO 13012KT 10SM -RA OVC023 01/00 A2987 RMK AO2 RAB21 SLP116 P0000 T00060000 400171022 FZRANO $", "PABR 230753Z AUTO 11019KT 5SM -SN BR OVC007 M04/M05 A2995 RMK AO2 PK WND 10029/0712 UPB0655E0658SNE0655B01E11B49 SLP142 P0000 T10391050 TSNO", "PABT 230753Z 35003KT 10SM BKN022 M06/M08 A2997 RMK AO2 SLP166 T10561078", "PABV 230756Z AUTO 16003KT 10SM CLR M03/M04 A2980 RMK AO2 SLP097 T10331044 FZRANO", "PACD 230753Z AUTO 28012KT 10SM SCT023 BKN035 OVC043 05/04 A3015 RMK AO2 SLP212 T00500039 TSNO", "PACV 230753Z 00000KT 10SM BKN180 02/00 A2970 RMK AO2 SLP057 T00170000", "PACZ 230755Z AUTO 18017G24KT 10SM BKN011 BKN050 BKN070 03/01 A2989 RMK AO2 SLP129 T00310013", "PADK 230818Z AUTO 20023G28KT BKN027 OVC034 08/06 A3020 RMK AO2 PK WND 20029/0807 P0002 PWINO $", "PADL 230756Z AUTO 00000KT 10SM CLR M01/M03 A2999 RMK AO2 SLP158 T10111028 FZRANO", "PADM 230819Z AUTO 00000KT 10SM OVC003 M03/M03 A3005 RMK AO2 FZRANO", "PADQ 230753Z AUTO 32012KT 10SM -RA FEW026 OVC040 04/02 A2973 RMK AO2 SLP066 P0001 T00440022 TSNO", "PADU 230756Z AUTO 19009KT 10SM BKN042 06/03 A3024 RMK AO2 SLP245 T00610028 400780044", "PAED 230755Z 02009KT 10SM FEW009 BKN180 M00/M02 A2976 RMK AO2A SLP076 T10051022 $", "PAEH 230755Z AUTO 00000KT 10SM BKN020 BKN190 04/02 A3003 RMK AO2 SLP178 T00350016", "PAEI 230754Z 00000KT 1/4SM R32/2600V4000FT FZFG OVC002 M02/M02 A2990 AO2A", "PAEN 230753Z AUTO 01009KT 10SM CLR 02/M02 A2979 RMK AO2 SLP091 T00171022 TSNO", "PAFA 230817Z 00000KT 2 1/2SM BR BKN002 OVC055 M01/M02 A2993 RMK AO2 T10061017", "PAFB 230815Z AUTO 00000KT 1/2SM FZFG OVC055 M02/M02 A2992 RMK AO2 SLP143 RVRNO", "PAFE 230756Z AUTO 09007KT 10SM OVC043 05/02 A2988 RMK AO2 SLP129 T00500022", "PAFM 230756Z AUTO 13004KT 9SM -SN OVC025 M01/M02 A2998 RMK AO2 UPB00E11SNB22 SLP159 P0000 T10111022 400061011 FZRANO", "PAFR 230755Z AUTO 03003KT 10SM OVC170 M04/M05 A2973 RMK AO2 SLP078 T10441048 VISNO RWY35 CHINO RWY35 $", "PAFS 230801Z AUTO 00000KT 10SM OVC021 M03/M03 A2996 RMK AO2 SLP156 T10331033 FZRANO", "PAGA 230756Z AUTO 10SM OVC036 M02/M02 A2998 RMK AO2 SLP156 T10171022 FZRANO $", "PAGK 230753Z AUTO 29003KT 10SM OVC047 M03/M04 A2981 RMK AO2 SLP126 T10281039 TSNO", "PAGL 230826Z AUTO 19021G28KT 6SM BR OVC009 03/02 A2986 RMK AO2 PK WND 18028/0820 PWINO $", "PAGM 230745Z AUTO 2 1/2SM -RA BR FEW008 BKN017 OVC027 01/M01 A2977 RMK AO2 VIS 1 1/2V5 UPB00E12RAB37 P0000 FZRANO $", "PAGN 230756Z AUTO 06004KT 10SM OVC049 05/04 A2986 RMK AO2 SLP100 T00500039", "PAGS 230756Z AUTO 00000KT 10SM OVC040 02/01 A2983 RMK AO2 SLP102 T00170011 FZRANO", "PAGY 230753Z AUTO 00000KT 10SM FEW028 OVC065 04/03 A2985 RMK AO2 SLP110 T00390028 TSNO $", "PAHL 230756Z AUTO 00000KT 10SM FEW031 OVC042 M02/M03 A2997 RMK AO2 SLP153 T10171033 FZRANO", "PAHN 230754Z AUTO 11007KT 10SM BKN018 BKN055 OVC100 06/02 A2984 RMK AO2 SLP107 T00560022 TSNO", "PAHO 230753Z AUTO 02003KT 10SM CLR 01/M02 A2977 RMK AO2 SLP084 T00111017 TSNO", "PAHX 230802Z AUTO 00000KT 10SM OVC032 M02/M02 A3001 RMK AO2 SLP162 T10221022 410221022 FZRANO", "PAHY 230756Z AUTO 12007KT 10SM CLR 08/06 A2988 RMK AO2 SLP115 T00780056 $", "PAIG 230756Z AUTO 18003KT 10SM CLR M02/M02 A2991 RMK AO2 SLP136 T10171022 FZRANO $", "PAIK 230816Z AUTO 11005KT 10SM SCT024 OVC035 00/M02 A2991 RMK AO2 FZRANO", "PAIL 230753Z AUTO 00000KT 10SM CLR 01/M04 A2986 RMK AO2 SLP114 T00061039 TSNO", "PAIM 230755Z AUTO 00000KT 10SM OVC003 M04/M04 A2992 RMK AO2 SLP158 T10371037", "PAIN 230756Z AUTO 00000KT 10SM OVC025 M07/M09 A2987 RMK AO2 SLP154 T10721089 400171072 FZRANO $", "PAJC 230757Z AUTO 24016G23KT 10SM SCT038 BKN047 BKN055 06/01 A3002 RMK AO2 RAE19 SLP165 T00610011 400610044 PNO $", "PAJN 230753Z 10009KT 10SM FEW003 BKN041 04/03 A2985 RMK AO2 SLP106 T00390028 $", "PAJZ 230756Z AUTO 33010KT 8SM CLR M01/M02 A3000 RMK AO2 SLP165 T10061022 400331044 FZRANO $", "PAKF 230756Z AUTO 27008G15KT 10SM OVC025 A3018 RMK AO2 RAE0657B17E42UPB0657E05 SLPNO P0000 FZRANO $", "PAKH 230756Z AUTO 10SM FEW015 OVC100 A2981 RMK AO2 SLPNO FZRANO TSNO $", "PAKI 230756Z AUTO 19007KT 10SM CLR 01/ A3001 RMK AO2 SLP167 T0011 FZRANO PNO $", "PAKK 230804Z AUTO 18010KT 3SM -SN BR OVC005 00/00 A2986 RMK AO2 CIG 003V008 P0000 FZRANO", "PAKN 230754Z 32011KT 10SM SCT140 00/M01 A2990 RMK AO2 SLP126 T00001011", "PAKP 230756Z AUTO 19008KT 9SM -SN SCT050 OVC095 M08/M09 A2986 RMK AO2 SNB02 SLP166 P0000 T10781089 FZRANO", "PAKT 230753Z AUTO 15003KT 10SM OVC050 04/03 A2992 RMK AO2 SLP132 T00440028 TSNO", "PAKV 230800Z AUTO 00000KT 1/2SM FZFG OVC003 M03/M03 A2999 RMK AO2 T10281028 TSNO", "PAKW 230753Z AUTO VRB03KT 10SM CLR 05/03 A2986 RMK AO2 SLP112 T00500033 TSNO $", "PAKX 230815Z AUTO 17003KT 10SM CLR M01/M01 A2985 RMK AO2", "PALG 230825Z AUTO 00000KT 8SM BKN001 M05/M07 A3002 RMK AO2 FZRANO", "PALH 230753Z 02008KT 10SM CLR 00/M03 A2979 RMK AO2 SLP089 T00001028", "PALU 230755Z AUTO 18019KT 130V190 10SM OVC070 02/M02 A2974 RMK AO2 PK WND 16030/0657 SLP071 T00241021", "PAMB 230756Z AUTO 17003KT 10SM CLR M01/M02 A2999 RMK AO2 SLP160 T10111022 FZRANO $", "PAMD 230751Z AUTO 08014KT 10SM FEW030 BKN120 07/02 A2962 RMK AO2 SLP017 T00720022 400940061 PNO $", "PAMH 230756Z AUTO 00000KT 10SM OVC021 M02/M03 A2993 RMK AO2 SLP142 T10171033 FZRANO", "PAMK 230756Z AUTO 18011KT 10SM OVC065 00/M02 A2994 RMK AO2 SLP140 T00001017 FZRANO", "PAMR 230753Z 02003KT 10SM CLR 00/M03 A2979 RMK AO2 SLP088 T00001028", "PANA 230825Z AUTO 14004KT 2SM BR BKN003 M02/M03 A3003 RMK AO2 CIG 001V005 FZRANO TSNO $", "PANC 230753Z 36009KT 10SM OVC180 00/M03 A2978 RMK AO2 SLP086 T00001033", "PANN 230824Z AUTO 00000KT 1SM BR BKN002 OVC047 M02/M02 A2992 RMK AO2 I1000 T10171022 TSNO", "PANV 230756Z AUTO 00000KT 10SM CLR M01/M02 A2997 RMK AO2 SLP250 T10111017 FZRANO TSNO", "PANW 230756Z AUTO 34009KT 10SM CLR M01/M02 A2996 RMK AO2 SLP153 T10111022 FZRANO", "PAOH 230756Z AUTO 11003KT 10SM OVC035 02/02 A2982 RMK AO2 SLP099 T00170017 FZRANO", "PAOM 230753Z AUTO 26015KT 10SM OVC018 03/M01 A2981 RMK AO2 SLP094 T00281006 TSNO", "PAOO 230807Z AUTO 00000KT FEW014 SCT021 M01/M01 A3001 RMK AO2 PWINO FZRANO TSNO $", "PAOR 230822Z 00000KT 10SM SCT002 OVC026 M07/M08 A2982 RMK AO2 T10671083 $", "PAOT 230812Z 14016KT 1 1/4SM -SN BR FEW005 OVC013 M01/M01 A2979 RMK AO2 P0000 T10061006", "PAOU 230756Z AUTO 30016KT 10SM BKN024 BKN031 06/02 A3011 RMK AO2 SLP195 T00560022 PNO $", "PAPB 230803Z AUTO 22015KT 10SM BKN020 OVC039 06/ A3007 RMK AO2 T0061 TSNO $", "PAPG 230812Z AUTO 24003KT 3SM BR FEW002 00/00 A2989 RMK AO2 FZRANO", "PAPH 230756Z AUTO 32011KT 10SM FEW023 SCT029 SCT041 04/02 A3002 RMK AO2 RAE21 SLP166 P0000 T00440017 400560028", "PAPM 230756Z AUTO 34003KT 10SM CLR 01/01 A3003 RMK AO2 SLP172 T00110011 FZRANO", "PAPN 230756Z AUTO 35007KT 10SM BKN022 BKN029 03/01 A2996 RMK AO2 SLP148 T00280011 400440022 PNO $", "PAQH 230825Z AUTO 00000KT 3/4SM BR BKN002 M02/M03 A3005 RMK AO2 FZRANO", "PAQT 230753Z AUTO 10011KT 10SM OVC044 M05/M07 A3001 RMK AO2 SLP164 T10501067 TSNO", "PARC 230756Z AUTO 00000KT 10SM OVC033 M12/M13 A2987 RMK AO2 SLP181 T11171133 FZRANO", "PARS 230756Z AUTO 00000KT 1/4SM FG OVC003 A3001 RMK AO2 SLPNO FZRANO RVRNO $", "PARY 230823Z AUTO 00000KT 1 3/4SM BR OVC017 M02/M03 A2996 RMK AO2 FZRANO", "PASA 230756Z AUTO 19008KT 10SM SCT065 BKN080 00/M02 A2980 RMK AO2 SLP091 T00001017 FZRANO", "PASC 230815Z 10012KT 3SM BR OVC005 M06/M07 A3001 RMK AO2 I1001 T10611067 $", "PASD 230756Z AUTO 32012KT 10SM FEW028 SCT033 06/02 A3011 RMK AO2 SLP198 T00560022 400720044 PNO $", "PASH 230825Z AUTO 20009KT 10SM BKN014 OVC033 00/00 A2968 RMK AO2 FZRANO PNO $", "PASI 230753Z 10011KT 10SM BKN045 OVC080 08/02 A2977 RMK SLP081 T00830017", "PASK 230756Z AUTO 13008KT 10SM OVC050 M01/M02 A2991 RMK AO2 SLP125 T10061022 FZRANO", "PASL 230756Z AUTO 00000KT 10SM CLR M01/M02 A3000 RMK AO2 SLPNO T10111017 400281017 FZRANO", "PASM 230756Z AUTO 17007KT 1/2SM FZFG OVC002 M01/M01 A2999 RMK AO2 SLP167 T10061006 400391022 FZRANO", "PASN 230753Z AUTO 26015KT 10SM OVC023 05/02 A3004 RMK AO2 SLP172 T00500017 TSNO $", "PASO 230753Z AUTO 00000KT 10SM FEW020 02/01 A2977 RMK AO2 SLP080 T00220011 TSNO", "PASV 230757Z AUTO 34010KT 270V020 10SM BKN002 BKN190 M04/M05 A2985 RMK AO2 SLP135", "PASX 230756Z AUTO 00000KT 10SM CLR M03/M03 A2982 RMK AO2 SLP104 T10281028 FZRANO", "PASY 230758Z AUTO M 7SM OVC013 M M", "PATA 230826Z AUTO 00000KT 10SM OVC015 M02/M03 A2998 RMK AO2 T10171028 TSNO $", "PATC 230755Z AUTO 28023KT BKN006 01/01 A2967 RMK AO2 PK WND 28026/0729 SLP050 T00130007 PWINO FZRANO $", "PATE 230756Z AUTO 23026KT 10SM OVC009 01/00 A2972 RMK AO2 PK WND 23032/0751 UPE30 CIG 005V013 SLP070 P0000 T00060000 FZRANO", "PATG 230756Z AUTO 00000KT 10SM CLR M01/M02 A3002 RMK AO2 SLP166 T10061017 FZRANO", "PATK 230753Z AUTO 07003KT 10SM CLR M04/M07 A2981 RMK AO2 SLP103 T10391067 TSNO", "PATL 230808Z AUTO 00000KT 1SM BR VV002 M02/M02 A2997 RMK AO2 SLP164 TSNO $", "PATO 230753Z AUTO 00000KT 10SM BKN060 M02/M02 A2977 RMK AO2 SLP080 T10221022 TSNO", "PATQ 230756Z AUTO 10010KT 10SM CLR M11/M12 A2991 RMK AO2 SLP134 T11061117 FZRANO TSNO", "PAUN 230756Z AUTO 10006KT 10SM SCT035 OVC055 00/M02 A2996 RMK AO2 SLP150 T00001022 FZRANO", "PAUT 230815Z AUTO 25007KT 10SM BKN032 BKN037 OVC043 05/02 A3023 RMK AO2", "PAVA 230756Z AUTO 17010KT 10SM FEW065 00/M01 A2995 RMK AO2 SLP145 T00001006 400441017 FZRANO", "PAVC 230756Z AUTO 25011KT 10SM -RA FEW020 BKN025 OVC034 05/03 A3016 RMK AO2 SLP214 T00500028 PNO $", "PAVD 230756Z AUTO 01003KT SCT070 A2983 RMK AO2 SLPNO FZRANO TSNO PNO $", "PAWD 230753Z AUTO 02011KT 10SM CLR 03/M03 A2971 RMK AO2 SLP060 T00281033 TSNO", "PAWI 230753Z AUTO 10011KT 10SM CLR M11/M12 A2986 RMK AO2 SLP112 T11061122 TSNO $", "PAWM 230756Z AUTO 20015G24KT 5SM -RA BR OVC008 02/02 A2983 RMK AO2 UPB01E09RAB09 SLP105 T00220022 FZRANO PNO $", "PAWN 230756Z AUTO 13013KT 7SM -SN BKN005 OVC012 00/M01 A2981 RMK AO2 RAB00E16SNB16 CIG 005V009 SLP106 P0000 T00001006 400110000 FZRANO", "PAWS 230756Z AUTO 28003KT 10SM CLR M02/M05 A2980 RMK AO2 SLP098 T10171050 FZRANO", "PAYA 230753Z AUTO 07010KT 10SM FEW035 BKN070 OVC085 04/02 A2973 RMK AO2 RAE25 SLP068 P0000 T00390017 TSNO $", "PAZK 230756Z AUTO 01004KT 10SM FEW007 OVC022 M07/M09 A2972 RMK AO2 SLP126 T10721089 FZRANO", "PFCL 230756Z AUTO 33004KT 10SM CLR A2999 RMK AO2 SLPNO FZRANO TSNO $", "PFEL 230756Z AUTO 19012G18KT 10SM -RA OVC010 02/01 A2987 RMK AO2 SLP117 P0001 T00170011 FZRANO", "PFKT 230756Z AUTO 24025G30KT 10SM OVC011 02/01 A2974 RMK AO2 PK WND 24030/0751 UPB08E10RAB10E20 SLP070 P0000 T00170006 FZRANO", "PFKW 230827Z AUTO 18003KT 1 3/4SM BR BKN002 M03/M04 A3003 RMK AO2 FZRANO", "PFNO 230756Z AUTO 13014KT 10SM BKN017 BKN026 OVC034 00/M01 A2987 RMK AO2 UPE28 SLP198 P0000 T00001011 FZRANO", "PFSH 230815Z AUTO 20020KT 10SM BKN013 OVC049 03/01 A2993 RMK AO2", "PFWS 230756Z AUTO 34011KT 10SM CLR 01/M01 A2996 RMK AO2 SLP188 T00061011 FZRANO", "PFYU 230756Z AUTO 00000KT 10SM OVC055 M07/M07 A2999 RMK AO2 SLP171 T10671072 FZRANO", "PGRO 230750Z 11010KT 7SM BKN015 BKN090 26/24 A2977 RMK LAST", "PGSN 230754Z 12007KT 10SM FEW021 SCT028 28/25 A2981 RMK AO2 SLP114 T02830250", "PGUA 230755Z AUTO 14006KT 10SM FEW013 26/23 A2981 RMK AO2 SLP085 T02580234 $", "PGUM 230754Z 11005KT 10SM FEW015 27/25 A2980 RMK AO2 SLP084 T02720250", "PGWT 230750Z 11012KT 7SM SCT016 BKN100 29/25", "PHBK 230751Z AUTO 11003KT 10SM CLR 26/21 A3003 RMK AO2 SLP170 T02560211", "PHHI 230755Z AUTO 00000KT 10SM SCT028 BKN035 OVC044 24/17 A3009 RMK AO2 SLP178 T02380173 $", "PHJR 230753Z AUTO 05004KT 10SM CLR 25/19 A3006 RMK AO2 SLP184 T02500189 TSNO", "PHKO 230753Z 28007KT 10SM CLR 28/18 A3000 RMK AO2 SLP157 T02780183", "PHLI 230803Z AUTO 07013KT 10SM BKN026 26/22 A3008 RMK AO2 T02610217 TSNO $", "PHMK 230754Z AUTO 03006KT 10SM CLR 24/18 A3005 RMK AO2 SLP176 T02440183 TSNO", "PHNG 230812Z AUTO 08010G18KT 10SM SCT026 SCT034 A3003 RMK AO2", "PHNL 230753Z 06009KT 10SM FEW025 27/20 A3004 RMK AO2 SLP173 T02670200", "PHNY 230756Z AUTO 06005KT 10SM CLR 20/17 A3010 RMK AO2 SLP172 T02000172 $", "PHOG 230754Z 06012KT 10SM CLR 26/18 A3002 RMK AO2 SLP170 T02610183", "PHSF 230758Z AUTO 10009KT 10SM CLR 12/M01 A3036 RMK AO2 SLP159 T01181013 $", "PHTO 230753Z 24007KT 10SM FEW030 SCT041 22/17 A3007 RMK AO2 SLP182 T02220172", "PKWA 230820Z AUTO 12004KT 10SM CLR 26/24 A2981 RMK AO2 T02560236", "PLCH 230800Z 11005KT 9999 VCSH SCT020 25/23 Q1010", "PMDY 230756Z AUTO 03004KT 10SM FEW029 23/18 A3011 RMK AO2 SLP198 T02330183 TSNO", "PPIZ 230756Z AUTO 10007KT 10SM SCT050 M09/M11 A2983 RMK AO2 SLP104 T10941111 FZRANO", "PTPN 230753Z 13004KT 13SM BKN017TCU OVC130 26/24 A2976 RMK TCU ALQDS", "PTRO 230750Z 27005KT 14SM BKN015CB BKN120 OVC300 27/24 A2970 RMK CB ALQDS", "PTTP 230752Z 14004KT 12SM BKN017TCU OVC110 25/24 A2981 RMK TCU SE-S SLP093 T02490236", "PTYA 230752Z VRB03KT 12SM SCT016CB BKN130 OVC300 25/25 A2973 RMK SHRAE28 CB ALQDS SLP068 T02520250", "PWAK 230755Z AUTO 06013KT 9999 FEW017 BKN065 28/24 A2992 RMK AO2 LTG DSNT SE SLP138 T02770243 $", "RCFN 230800Z 03008KT 360V080 1600 +RA SCT004 BKN009 OVC013 22/22 Q1014 TEMPO 1000 +RA RMK A2996 RA AMT 11.4MM", "RCKH 230800Z 31004KT 260V350 8000 FEW015 SCT030 BKN150 30/23 Q1010 NOSIG RMK A2985", "RCMQ 230820Z 01011KT 4000 -RA BR FEW008 BKN020 BKN040 21/21 Q1013 RERA NOSIG RMK A2994", "RCNN 230800Z 01005KT 9999 -RA FEW012 SCT025 BKN050 27/21 Q1011 NOSIG RMK A2987", "RCSS 230800Z 28004KT 8000 -RA FEW012 SCT025 BKN040 23/22 Q1015 NOSIG RMK A3000 RA AMT 0.6MM", "RCTP 230800Z 04015KT 9999 -RA FEW008 BKN012 BKN020 23/22 Q1015 NOSIG RMK A3000", "RJAA 230800Z 07005KT 020V110 9999 FEW030 21/14 Q1008 NOSIG RMK 1CU030 A2977", "RJAF 230800Z 33011KT 9999 FEW035 SCT045 BKN080 17/09 Q1010", "RJAH 230800Z 07002KT 9999 FEW030 BKN250 20/16 Q1008", "RJAW 230800Z 34003KT 280V040 9999 SCT015 BKN/// 27/23 Q1010 RMK 3CU015 A2985", "RJBB 230800Z VRB02KT 9999 FEW030 22/11 Q1011 BECMG 34008KT", "RJBD 230800Z 32007KT 9999 FEW030 SCT/// 21/09 Q1010", "RJBE 230800Z 30007KT 9999 FEW030 22/11 Q1011", "RJBT 230800Z 35005KT 9999 FEW020 FEW025CB SCT030 17/14 Q1012", "RJCB 230800Z 35006KT 9999 FEW030 BKN040 09/05 Q1008", "RJCC 230800Z 36006KT 9999 FEW015 SCT025 BKN040 09/07 Q1010 RMK 1ST015 3CU025 7CU040 A2983", "RJCH 230800Z 28012KT 9999 FEW025 SCT070 10/03 Q1011", "RJCK 230800Z 36008KT 9999 -SHRA FEW010 BKN030 BKN040 08/06 Q1008", "RJCM 230800Z VRB01KT 9999 -SHRA FEW010 SCT015 BKN040 07/07 Q1010", "RJCN 230800Z 20004KT 170V240 9999 -SHRA FEW015 BKN045 07/06 Q1008", "RJCO 230800Z 32009KT 9999 -SHRA FEW015 SCT030 BKN050 08/06 Q1012", "RJCW 230800Z 08008KT 9999 FEW030 SCT080 05/02 Q1011", "RJDB 230800Z AUTO 36009KT 9999 SCT036 BKN042 BKN045 20/12 Q1014", "RJDC 230800Z 33006KT 270V050 9999 FEW035 21/12 Q1013", "RJDT 230800Z 33007KT 9999 FEW035 19/09 Q1014", "RJEC 230800Z VRB01KT 9999 -SHRA FEW003 SCT015 BKN035 06/05 Q1009", "RJFE 230800Z 34010G21KT 9999 FEW030 18/12 Q1014", "RJFF 230800Z 34012KT 320V030 9999 FEW035 SCT045 20/12 Q1013 NOSIG RMK 1CU035 3CU045 A2993", "RJFG 230800Z 30014KT 9999 FEW015 22/18 Q1012", "RJFK 230800Z 32010KT 9999 FEW030 22/13 Q1012 RMK 1CU030 A2990 VOLCANIC ASH CLOUD S", "RJFM 230800Z 08007KT 9999 FEW015 SCT022 24/19 Q1011", "RJFO 230800Z 32007KT 9999 FEW035 21/11 Q1012", "RJFR 230800Z 33011KT 9999 FEW020 SCT035 20/13 Q1013", "RJFS 230800Z 32008KT 9999 FEW030 22/13 Q1013", "RJFT 230800Z 28006KT 9999 FEW040 22/13 Q1012", "RJFU 230800Z 32017KT 9999 FEW045 21/13 Q1013", "RJGG 230800Z 31017KT 9999 FEW030 SCT/// 22/13 Q1010 NOSIG", "RJKA 230800Z 01014KT 9999 FEW020 BKN050 24/20 Q1011", "RJKI 230800Z AUTO 02018KT 9999 FEW018 OVC043 24/20 Q1011", "RJKN 230807Z AUTO 02014KT 9999 FEW014 SCT019 OVC050 23/21 Q1011 RMK A2987", "RJNK 230800Z 04013KT 9999 -SHRA FEW010 SCT020 BKN030 16/14 Q1013", "RJNS 230800Z 27017KT 9999 FEW030 21/08 Q1007", "RJNT 230800Z 02007KT 9999 -SHRA FEW005 SCT010 BKN015 15/13 Q1013", "RJNW 230800Z 36004KT 290V060 9999 FEW010 SCT025 BKN035 12/09 Q1014", "RJOA 230800Z 36006KT 9999 FEW030 19/12 Q1012", "RJOB 230800Z 36004KT 310V040 9999 FEW030 SCT060 19/10 Q1012", "RJOC 230800Z 36006KT 9999 VCSH FEW015 FEW025TCU BKN045 20/12 Q1012", "RJOH 230800Z 03012KT 9999 -SHRA FEW008 SCT015 BKN030 FEW030CB 19/14 Q1012", "RJOI 230756Z 06003KT 9999 SCT020 23/13 A2987 RMK AO2 SLP116 T02330133", "RJOK 230800Z VRB02KT 9999 FEW030 24/16 Q1010", "RJOM 230800Z 25005KT 9999 FEW035 22/15 Q1011", "RJOO 230800Z 36011KT 9999 FEW030 21/10 Q1011 RMK 1CU030 A2986", "RJOR 230800Z VRB01KT 9999 FEW035 19/12 Q1012", "RJOS 230800Z 34009KT 9999 FEW030 22/08 Q1011", "RJOT 230800Z 22003KT 9999 FEW030 20/12 Q1011", "RJOW 230800Z 36003KT 290V050 9999 FEW030 SCT035 19/12 Q1013", "RJOY 230800Z 27005KT 240V310 9999 FEW035 23/10 Q1011", "RJSA 230800Z 23008KT 9999 FEW010 SCT040 BKN060 08/06 Q1011", "RJSC 230800Z 02012KT 9999 FEW020 SCT030 BKN045 13/09 Q1012", "RJSF 230800Z 35011KT 9999 FEW020 SCT100 14/10 Q1010", "RJSI 230800Z 31006KT 260V360 9999 FEW030 BKN050 BKN100 13/07 Q1011", "RJSK 230800Z 28004KT 9999 FEW008 SCT035 BKN140 10/09 Q1013", "RJSM 230800Z 28011KT 9999 SCT015 BKN030 BKN040 11/05 Q1011", "RJSN 230800Z 35017KT 8000 -SHRA FEW015 SCT020 BKN025 14/11 Q1013", "RJSR 230800Z 20005KT 9999 FEW005 SCT040 BKN050 10/09 Q1012", "RJSS 230800Z 03004KT 9999 -SHRA FEW020 SCT070 BKN080 16/13 Q1010", "RJSY 230800Z 35006KT 310V050 9999 -SHRA FEW010 SCT025 BKN030 12/09 Q1013", "RJTT 230800Z VRB02KT 9999 FEW030 20/16 Q1007 NOSIG RMK 1CU030 A2976", "RJTY 230756Z 01003KT 7SM OVC080 20/10 A2979 RMK AO2A SLP090 T02010102 $", "RKJB 230800Z 35011KT CAVOK 15/07 Q1019 NOSIG", "RKJK 230755Z AUTO 33016G21KT 10SM CLR 15/03 A3006 RMK AO2 SLP184 T01540025 $", "RKNY 230800Z 24004KT 9999 FEW010 BKN025 11/11 Q1018 NOSIG", "RKPC 230800Z 33008KT 290V030 9999 SCT030 17/11 Q1019 NOSIG", "RKPK 230800Z 16002KT CAVOK 21/06 Q1015", "RKSG 230755Z 31010KT 10SM CLR 17/05 A3005 RMK AO2A SLP179 T01650045 TSNO $", "RKSI 230800Z 33017KT CAVOK 16/01 Q1019 NOSIG", "RKSM 230800Z 32009KT 9999 FEW050 17/M03 A3006", "RKSO 230755Z AUTO 34009KT 10SM CLR 17/03 A3007 RMK AO2 SLP186 T01720028 TSNO CHINO RWY09 $", "RKSS 230800Z 33015KT CAVOK 16/M02 Q1018 NOSIG", "RKTN 230800Z 31009KT CAVOK 20/05 Q1015", "RKTU 230800Z 29009KT 9999 FEW040 17/07 Q1017", "ROAH 230800Z 01025KT 9999 -SHRA FEW008 SCT010 BKN014 25/23 Q1010 RMK 1ST008 4CU010 6CU014 A2985", "RODN 230805Z COR AUTO 01013KT 10SM FEW013 BKN020 24/23 A2982 RMK AO2 SLP103 $ COR 0816", "ROIG 230814Z 01013KT 9999 -SHRA FEW007 SCT014 BKN038 23/23 Q1012 RMK 1ST007 3CU014 5SC038 A2990", "ROMD 230811Z AUTO 24008KT 210V280 9999 FEW002 SCT049 BKN050 25/25 Q1008 RMK A2978", "ROMY 230811Z 01014KT 4000 -SHRA BR FEW007 BKN009 FEW025TCU BKN030 24/23 Q1012 RMK 2ST007 5CU009 1TCU025 6CU030 A2990 TCU 20KM NE MOV SE", "RORK 230800Z AUTO 24011KT 9999 FEW010 SCT015 BKN029 27/25 Q1008", "RORS 230800Z 01022KT 5000 RA BR SCT007 SCT010 BKN060 24/23 Q1012", "RORY 230800Z AUTO 01018KT 9999 BKN017 BKN022 OVC030 25/22 Q1010", "ROTM 230756Z COR 01013G24KT 9999 BKN010 BKN030 24/24 A2983 RMK PK WND 01026/37 SHRAB48E43 SLP150 WND WRNG P0000 T02390239", "ROYN 230800Z AUTO 01023KT 9000 -RA FEW011 SCT020 BKN026 24/24 Q1013", "RPLB 230800Z 34005KT 270V050 9999 FEW018CB SCT020 BKN300 28/24 Q1008 RETS NOSIG RMK A2977 CB W", "RPLI 230800Z 23004KT 210V270 8000 TS VCSH SCT017CB SCT100 31/25 Q1008 NOSIG RMK A2977 CB/VCSH NE-S", "RPLL 230800Z 09005KT 050V120 9999 -SHRA FEW022CB FEW023 BKN100 27/25 Q1008 NOSIG RMK A2977 CB SW", "RPMD 230800Z 28005KT 250V310 9999 VCSH SCT015CB SCT090 BKN260 30/23 Q1006 RMK A2971 CBE/WSW-NW, VCSH WSW-W", "RPMZ 230800Z 28009KT 9999 FEW016CB BKN090 28/25 Q1007 RMK A2974 CB SW-W", "RPVM 230800Z 04005KT 9999 FEW018CB BKN300 30/26 Q1007 RMK A2974 CB SW-W/NW-N", "SAAR 230800Z 19004KT CAVOK 05/04 Q1021 RMK PP000", "SABE 230800Z 16004KT 130V200 9999 BKN038 12/07 Q1022 NOSIG RMK PP000", "SACO 230800Z 36005KT CAVOK 06/04 Q1020 NOSIG RMK PP000", "SADF 230800Z 18002KT 9999 SCT037 09/07 Q1022 RMK PP000", "SAEZ 230800Z 18003KT 9999 SCT035 05/05 Q1023 NOSIG RMK PP000", "SAME 230800Z 00000KT CAVOK 09/06 Q1015", "SANT 230800Z 12005KT 8000 FEW049 OVC067 17/12 Q1019 RMK PP000", "SAOC 230800Z 02014KT CAVOK 08/06 Q1019", "SARC 230800Z 16011KT 9999 FEW008 17/15 Q1017", "SARE 230800Z 15007KT 9999 FEW012 17/15 Q1017 RMK PP///", "SARF 230800Z 14004KT CAVOK 17/16 Q1015", "SARI 230800Z 19003KT 140V230 CAVOK 16/16 Q1015 RMK PP000", "SARL 230800Z 18008KT CAVOK 13/12 Q1019", "SARP 230800Z 16003KT CAVOK 17/15 Q1016", "SASA 230800Z 33003KT 300V360 9999 BKN050 18/09 Q1020 RMK PP000", "SASJ 230800Z VRB01KT 9999 BKN060 18/12 Q1018 RMK PP000", "SAVC 230800Z 25005KT 210V320 CAVOK 12/M10 Q1006 RMK PP000", "SAWE 230800Z 31010KT 9999 -RA BKN040 OVC070 07/06 Q0993 RMK PP000", "SAWG 230800Z 08004KT CAVOK 07/01 Q0995", "SAWH 230800Z 19003KT 130V230 9999 FEW080 OVC120 07/03 Q0990 RMK PP000", "SAZM 230800Z 00000KT CAVOK M02/M02 Q1024 RMK PP///", "SAZN 230800Z 14002KT CAVOK 13/04 Q1013", "SCAP 230800Z AUTO /////KT ///V/// //// // ////// ///// Q////", "SCAR 230800Z 07005KT 9999 FEW040 13/10 Q1015", "SCAT 230800Z AUTO 26006KT 9999 OVC011/// 12/10 Q1016", "SCBA 230800Z AUTO 31014KT 9999 BKN180/// 05/M08 Q1007", "SCCF 230800Z 12018KT CAVOK 06/M18 Q1026", "SCCH 230800Z AUTO 00000KT CAVOK 03/02 Q1017", "SCCI 230800Z 33011KT 9999 BKN020 06/04 Q0992 NOSIG", "SCCY 230800Z AUTO VRB02KT CAVOK 04/M02 Q1009", "SCDA 230800Z 18009KT 9999 FEW018 14/10 Q1015", "SCEL 230800Z 17005KT CAVOK 09/05 Q1017 NOSIG", "SCFA 230800Z 18006KT 9999 OVC017 14/09 Q1016 NOSIG", "SCFT 230800Z AUTO VRB02KT 9999 FEW062/// SCT240/// 04/03 Q1011", "SCIC 230800Z AUTO VRB01KT //// R/////// // VV002 09/04 Q1016", "SCIE 230800Z 28003KT 9999 FEW025 10/07 Q1017", "SCIP 230800Z 10004KT 9999 SCT040 BKN050 16/13 Q1021 NOSIG", "SCJO 230800Z AUTO VRB02KT 9999 FEW210/// BKN240/// 03/02 Q1016", "SCMK 230800Z AUTO 33008KT //// // FEW031/// SCT038/// BKN210/// 07/04 Q1013", "SCON 230800Z AUTO VRB02KT 9999 OVC032/// 05/04 Q1015", "SCPD 230800Z AUTO 00000KT //// ///////// 09/03 Q1017", "SCPQ 230800Z AUTO 36005KT 9999 OVC025 04/03 Q1014", "SCQP 230800Z AUTO 02001KT 1300 1000 R01/1500N FG SCT006 02/02 Q1017", "SCSE 230800Z AUTO VRB02KT 9999 OVC006/// 11/10 Q1016", "SCSN 230800Z AUTO VRB01KT //// R/////// // OVC011 10/09 Q1018", "SCTE 230800Z 00000KT 9999 SCT030 SCT200 03/03 Q1016 NOSIG", "SCTN 230800Z AUTO 35013KT 9999 FEW033 OVC041 08/05 Q1015", "SCVD 230800Z AUTO VRB01KT 9999 OVC031 05/05 Q1017", "SCVM 230800Z 35003KT 310V090 6000 OVC008 10/08 Q1018", "SECU 230800Z AUTO 00000KT ////NDV ////// 13/12 Q1024 A3026", "SEGU 230800Z 22008KT 9999 FEW013 BKN026 BKN100 22/19 Q1011 NOSIG RMK A2987", "SELT 230800Z 18004KT 9999 SCT016 SCT030 BKN100 10/10 Q1028", "SGAS 230800Z 15004KT CAVOK 19/16 Q1015", "SKBO 230800Z 20003KT 9999 FEW015 OVC070 12/11 Q1025 REDZ NOSIG RMK A3027", "SKBQ 230800Z VRB08G18KT 8000 RA BKN010 FEW012CB 23/22 Q1010 NOSIG RMK CB LTNG/W A2983", "SKCG 230800Z 05005KT 010V090 9999 BKN015 26/25 Q1009 RMK A2981", "SKCL 230800Z 00000KT 8000 VCFG SCT020 BKN050 20/20 Q1015 TEMPO DZ RMK A2998", "SKLT 230800Z 13003KT 9999 -RA SCT010 BKN080 24/23 Q1009 RETSRA RMK A2981", "SKRG 230800Z VRB02KT 9999 SCT008 BKN080 13/13 Q1024 NOSIG RMK A3025", "SKSP 230800Z 06007KT 040V100 999 FEW016 28/25 Q1009 RMK A2982", "SLCB 230800Z 12008KT 060V180 9999 FEW033 BKN070 16/08 Q1025", "SLLP 230800Z 09004KT 4000E VCFG FEW002 SCT200 01/00 Q1036", "SLVR 230800Z 30004KT 9999 BKN070 22/19 Q1013", "SMJP 230800Z 09002KT 9999 FEW002 25/24 Q1010 NOSIG", "SOCA 230800Z AUTO 00000KT CAVOK 24/23 Q1009", "SPJC 230800Z 18006KT 9999 OVC012 15/12 Q1014 NOSIG RMK PP000", "SPQT 230800Z 29007KT 4000 TSRA BKN005 FEW020CB OVC100 24/23 Q1009 NOSIG RMK PP036", "SPRU 230800Z 16010KT 9000 VCFG OVC015 16/13 Q1013 RMK PP000", "SPSO 230800Z VRB02KT 5000 BR BKN010 13/12 Q1014 RMK PP000", "SULS 230800Z 15010KT 9999 BKN015 12/08 Q1020", "SUMU 230800Z 16010KT 9999 BKN017 13/09 Q1021 NOSIG", "SVBC 230803Z AUTO 10003KT NCD 25/25 Q1010", "SVBI 230803Z AUTO 29003KT NCD 25/24 Q1013", "SVBM 230803Z AUTO NIL", "SVBS 230803Z AUTO 35002KT NCD 23/// Q1012", "SVCB 230803Z AUTO 12003KT NCD 24/22 Q1008", "SVCJ 230803Z AUTO NIL", "SVCS 230803Z AUTO 34001KT NCD 45/43 Q1014", "SVFM 230803Z AUTO 00000KT NCD 21/18 Q1013", "SVGD 230803Z AUTO 27003KT NCD 24/24 Q1010", "SVGU 230803Z AUTO NIL", "SVJM 230803Z AUTO 02002KT NCD 21/21 Q1010", "SVLO 230803Z AUTO NIL", "SVMC 230803Z AUTO NIL", "SVMG 230803Z AUTO 10009KT NCD 27/25 Q1009", "SVMI 230803Z AUTO 10004KT NCD ///// Q1010", "SVMT 230803Z AUTO 05003KT NCD 24/24 Q1010", "SVPA 230803Z AUTO NIL", "SVPR 230803Z AUTO 13002KT NCD 24/21 Q1011", "SVSR 230803Z AUTO NIL", "SVVA 230803Z AUTO 00000KT NCD 27/22 Q1011", "SYCJ 230800Z VRB02KT 9999 FEW015 25/25 Q1009 NOSIG", "TAPA 230800Z VRB02KT 9999 FEW020 23/22 Q1011 NOSIG", "TBPB 230800Z 09009KT 9999 FEW018 27/24 Q1009 NOSIG", "TFFF 230800Z AUTO VRB03KT CAVOK 24/23 Q1010", "TFFR 230800Z AUTO 07002KT CAVOK 23/22 Q1011", "TGPY 230800Z VRB02KT 9999 FEW018 27/24 Q1009 NOSIG", "TIST 230753Z AUTO 06003KT 10SM FEW022 26/23 A2988 RMK AO2 SLP120 T02560233", "TISX 230753Z AUTO 36005KT 10SM SCT023 26/23 A2988 RMK AO2 SLP118 T02560233 TSNO $", "TJNR 230753Z AUTO 31006KT 10SM CLR 24/22 A2990 RMK AO2 RAE16 SLP126 P0001 T02390217", "TJSJ 230756Z 19003KT 10SM FEW029 FEW070 26/24 A2989 RMK AO2 RAB02E34 SLP120 P0000 T02560239 $", "TLPL 230800Z 08010KT 9999 FEW025 27/23 Q1010 NOSIG", "TNCB 230755Z AUTO 08007KT 9999 NCD 27/25 Q1009", "TNCC 230800Z 09007KT 9999 FEW016 28/24 Q1010 NOSIG", "TNCE 230755Z AUTO VRB02KT //// // ///////// 24/23 Q1012 RE//", "TNCM 230800Z VRB02KT 9999 FEW020 26/24 Q1013 ", "TTCP 230800Z 04003KT 9999 VCSH FEW016 24/23 Q1009 NOSIG RMK VCSH SE", "TTPP 230800Z 10005KT 9999 -RA VCSH FEW014 23/22 Q1009 NOSIG RMK VCSH-ALQDS", "TXKF 230755Z 11013KT 9999 SCT010 SCT045 25/24 Q1019 ", "UAAH 230800Z 32009MPS 9999 SCT045 07/M05 Q1027 NOSIG RMK QFE731/0974", "UAAT 230800Z 27007MPS 9999 -SHRA SCT011 OVC023CB 07/05 Q1028 NOSIG RMK QFE719/0958", "UACK 230800Z 28009MPS 9999 BKN014 00/M03 Q1023 NOSIG RMK QFE743/0991", "UACP 230800Z 27007MPS 9999 BKN040CB 02/M03 Q1020 NOSIG RMK QFE752/1003", "UADD 230800Z 02004MPS 9999 OVC029CB 07/05 Q1029 NOSIG RMK QFE713/0951", "UAIT 230800Z 27002MPS 9999 SCT036CB 12/01 Q1030 NOSIG RMK QFE745/0994", "UAKD 230800Z 29002MPS 240V030 CAVOK 04/M10 Q1031 NOSIG RMK QFE739/0986", "UAOO 230800Z 08003MPS 020V120 9999 BKN040 09/02 Q1032 NOSIG RMK QFE762/1016", "UARR 230800Z 18005MPS 9999 SCT044 05/M01 Q1028 NOSIG RMK QFE767/1023", "UASK 230800Z 29012MPS 9999 BKN043CB OVC063 07/M02 Q1020 NOSIG RMK QFE740/0986", "UASP 230800Z 28009MPS 3000 SN OVC014 01/M01 Q1020 NOSIG RMK QFE753/1005", "UASS 230800Z 28013G19MPS 9999 BKN040CB 05/M04 Q1021 NOSIG RMK QFE747/0997", "UAUU 230800Z 20005MPS 170V230 9999 BKN043 00/M03 Q1026 NOSIG RMK QFE753/1004", "UBBB 230800Z 10012KT 9999 FEW039CB BKN039 16/11 Q1026 NOSIG", "UBBF 230800Z 16004KT 9999 -RA OVC010 12/10 Q1026 NOSIG RMK MT OBSC", "UBBG 230800Z 33006KT 290V010 9999 BKN033 14/08 Q1027 NOSIG", "UBBL 230800Z 34016KT 9999 -RA OVC050 12/12 Q1026 NOSIG RMK MT OBSC", "UBBN 230800Z VRB02KT 9999 SCT030CB BKN083 12/08 Q1025 NOSIG RMK MT OP QFE693", "UBBQ 230800Z 23004KT 9999 BKN070 13/07 Q1026 NOSIG RMK MT OBSC", "UBBY 230800Z 31006KT 9999 SCT100 14/07 Q1029 NOSIG RMK MT OP", "UBBZ 230800Z 10006KT 050V150 9999 SCT006 BKN050 12/10 Q1028 NOSIG RMK MT OBSC", "UBEE 230800Z 34004KT 9999 SCT015 BKN073 16/10 Q1026 NOSIG", "UCFL 230800Z 23004MPS 9999 OVC030CB 11/01 Q1024 R07/CLRD95", "UCFM 230800Z 18002MPS 140V230 9999 -SHRA SCT008 BKN033CB 08/07 Q1029 R26/2///95 NOSIG", "UCFO 230800Z 35003MPS 310V010 4400 FU FEW026 14/07 Q1028 R12/0///95 NOSIG", "UDSG 230800Z VRB01KT 9999 NSC 10/01 Q1027 R02/CLRD70 NOSIG", "UDYZ 230800Z 11003KT 080V150 9999 NSC 14/06 Q1025 R09/010070 NOSIG", "UEEE 230800Z 17001MPS 9999 SCT020CB M04/M05 Q1015 R23L/490143 NOSIG RMK QFE753", "UERP 230800Z 21004MPS 4000 -SN BKN010 OVC100 M02/M04 Q0995 RMK QFE702", "UERR 230800Z 18008MPS 9999 SCT018CB OVC033 01/M02 Q1002 R25/910050 NOSIG RMK QFE721/0961", "UGKO 230800Z 09018KT CAVOK 18/07 Q1022 NOSIG", "UGSB 230800Z 35006KT 320V030 CAVOK 17/10 Q1023 NOSIG", "UGTB 230800Z VRB03KT CAVOK 14/05 Q1027 NOSIG", "UHBB 230800Z 35002MPS CAVOK 04/M08 Q1019 R36/090060 NOSIG RMK QFE747/0996", "UHHH 230800Z 00000MPS CAVOK 03/M02 Q1017 R23R/090060 NOSIG RMK QFE756/1008", "UHMA 230800Z 29004MPS 9999 SCT009 OVC021 M04/M06 Q1006 R01/////// NOSIG RMK TDZ R01/29004G05MPS END R01/28004G05MPS QFE751/1001", "UHMM 230800Z 01001MPS 9999 SCT036 M08/M15 Q1010 R10/82//55 NOSIG RMK QFE743 R28/08001MPS", "UHPP 230800Z 06002MPS CAVOK M00/M07 Q1009 R34L/CLRD65 NOSIG RMK QFE753/1005", "UHSS 230800Z 10002MPS 9999 NSC 02/M01 Q1013 R01/70D NOSIG RMK QFE759/1012", "UHWW 230800Z 32004MPS 9999 BKN040CB 08/M02 Q1017 R25L/0///70 NOSIG RMK QFE762", "UIAA 230800Z VRB01MPS 9999 NSC 07/M07 Q1018 R29/70D NOSIG RMK QFE705/0940", "UIBB 230800Z 20002MPS 150V260 9999 NSC 10/02 Q1003 R12/60D NOSIG RMK QFE710/0946", "UIII 230800Z 15006MPS CAVOK 12/00 Q1008 R12/60D NOSIG RMK QFE714/0952", "UIUU 230800Z 11002MPS 060V140 9999 NSC 08/M02 Q1015 R26/60D NOSIG RMK QFE717/0956", "ULAA 230800Z 28006MPS 9999 SCT026 05/02 Q0993 R26/290060 NOSIG RMK QFE743/0991", "ULLI 230800Z 22003MPS CAVOK 05/03 Q1006 R28R/090060 NOSIG", "ULMM 230800Z 26004MPS 9000 -SHSNRA BKN013CB 01/01 Q0983 R31/690150 NOSIG RMK QFE730", "ULOO 230800Z 18002MPS 130V230 9999 FEW003 SCT049 02/02 Q1009 R19/090060 NOSIG RMK QBB110 OBST OBSC QFE752", "ULPB 230800Z 23005MPS 9999 SCT012 OVC033 06/04 Q1002 R19/120055 NOSIG RMK QFE747/0997", "ULWC 230800Z 20002G07MPS 9999 BKN032 06/02 Q1009 R21/010060 NOSIG RMK QFE746/0995", "UMBB 230800Z 28004G07MPS 5000 BR OVC009CB 13/12 Q1016 NOSIG", "UMGG 230800Z 28004MPS 5000 -SHRA BR OVC009CB 10/09 Q1011 NOSIG", "UMII 230827Z 27002MPS 3200 BR OVC004 05/05 Q1010 TEMPO 2000 BKN003 RMK QBB120", "UMKK 230800Z 28004MPS 230V300 9999 BKN020 13/11 Q1014 R24/290095 NOSIG RMK QFE759/1013", "UMMG 230800Z 28005MPS 8000 BKN015 BKN066 11/11 Q1014 NOSIG", "UMMS 230800Z 29003MPS 8000 OVC004 07/07 Q1012 NOSIG RMK QBB130", "UMOO 230800Z 29004MPS 5000 BR OVC005 06/05 Q1012 NOSIG RMK QBB150", "UNAA 230800Z 36002MPS CAVOK 14/04 Q1002 R02/CLRD65 NOSIG RMK QFE729", "UNBB 230800Z 25014MPS 9999 BKN018CB 04/01 Q1007 R24/190057 NOSIG RMK QFE733", "UNEE 230800Z 23014G21MPS 9000 -SHRA BKN015CB 08/03 Q0999 R23/CLRD60 NOSIG RMK QFE726", "UNKL 230800Z 24008G13MPS CAVOK 15/04 Q0995 R29/120065 NOSIG RMK QFE721", "UNNT 230800Z 31008MPS 9999 OVC023CB 02/M02 Q1005 R25/250155 R34/090070 NOSIG RMK QFE744/0992", "UNOO 230800Z 26006MPS 9999 SCT033CB BKN040 01/M02 Q1017 R25/290150 NOSIG RMK QFE754", "UNTT 230800Z 30006MPS 8000 -SHSN SCT010 BKN017CB 01/00 Q0997 R21/290250 NOSIG RMK QFE733", "UNWW 230800Z 22017G24MPS CAVOK 10/00 Q1004 R19/09//60 NOSIG RMK QFE726", "UOOO 230800Z 18003MPS 9999 BKN019CB M04/M04 Q0986 R19/39//42 NOSIG RMK QFE724/0965", "URKA 230800Z 20009MPS 9999 SCT031 17/09 Q1020 R22/010070 TEMPO 20012G17MPS 2000 TSRA BKN020CB RMK QFE760/1013", "URKK 230800Z 11004MPS CAVOK 14/07 Q1022 R05R/CLRD70 NOSIG RMK QFE763", "URMG 230800Z 13004MPS 090V160 CAVOK 12/05 Q1026 R08/090070 NOSIG RMK QFE754/1006", "URML 230800Z 15008MPS 9999 FEW016 SCT033 15/10 Q1026 R14/01//70 NOSIG RMK QFE769/1026", "URMM 230800Z 11006MPS 9999 NSC 13/02 Q1024 R12/090070 NOSIG RMK QFE739/0986", "URMN 230800Z 09004MPS 9999 NSC 13/03 Q1024 R24/010070 NOSIG RMK QFE731", "URMO 230800Z 08003MPS 050V110 9999 NSC 12/02 Q1025 R09/010070 NOSIG RMK QFE724/0966", "URMT 230800Z 16004MPS CAVOK 12/02 Q1023 R25/010070 NOSIG RMK QFE729", "URRP 230800Z 15004MPS CAVOK 12/04 Q1022 R05/CLRD70 NOSIG RMK QFE762/1016", "URSS 230800Z 00000MPS 9999 NSC 17/05 Q1023 R02/010070 R06/010070 NOSIG RMK R06/09001MPS QFE765", "URWA 230800Z 18002MPS 140V230 CAVOK 10/00 Q1029 R27/010070 NOSIG RMK QFE773/1031", "URWI 230800Z 19006MPS 160V220 CAVOK 12/02 Q1025 R09/010065 NOSIG", "URWW 230800Z 22005MPS 200V260 CAVOK 10/01 Q1025 R24/010070 NOSIG", "USCC 230800Z 30007MPS CAVOK 03/M09 Q1023 R27/000060 NOSIG RMK QFE747", "USCM 230800Z 23004MPS 9999 NSC 02/M09 Q1025 R18/090060 TEMPO 27013MPS RMK QFE731", "USDA 230800Z 33005MPS 9999 -SHSN SCT008 BKN033CB M01/M02 Q0986 R04/520245 NOSIG RMK QFE738/0985", "USHH 230800Z 26007MPS 9999 SCT022 00/M05 Q1007 R24/010060 NOSIG", "USNN 230800Z 29004MPS 9999 OVC020 00/M04 Q1001 R21/0///65 NOSIG RMK QFE746", "USPP 230800Z 23008MPS 9999 SCT040 03/M05 Q1020 R21/090060 NOSIG RMK QFE754", "USRR 230800Z 28007MPS 9999 SCT011 M01/M03 Q1003 R25/CLRD60 NOSIG RMK QFE747", "USSS 230800Z 27010MPS 9999 SCT039 02/M08 Q1021 R26R/010060 R26L/010060 TEMPO 27010G16MPS RMK QFE745/0993", "USTR 230800Z 29007MPS 9999 SCT036CB 02/M07 Q1018 R30/CLRD65 R21/CLRD65 NOSIG", "UTAA 230800Z 11006KT 080V140 9999 FEW017CB OVC017 14/11 Q1027 R88/CLRD70 NOSIG", "UTAK 230800Z 07012KT CAVOK 14/05 Q1026 R16R/CLRD70 NOSIG", "UTAM 230800Z 05006KT CAVOK 18/07 Q1029 R88/CLRD7 NOSIG", "UTAT 230800Z VRB02KT CAVOK 13/03 Q1030 R08/CLRD70 NOSIG", "UTAV 230800Z 36008KT 320V030 9999 FEW050CB BKN100 13/09 Q1029 R31/CLRD70 NOSIG", "UTDD 230800Z 23003MPS 180V270 4500 HZ FEW066 SCT130 21/07 Q1026 R09/CLRD// NOSIG RMK QFE701/0934", "UTDK 230800Z VRB02MPS 3600 HZ OVC025 21/09 Q1026 R01/09//70 RMK QFE712/0949", "UTDL 230800Z 24006MPS 9999 SCT060CB OVC086 12/07 Q1028 R26/CLRD70 NOSIG RMK QFE733/0977", "UTDT 230800Z 22002MPS 160V310 3600 HZ FEW026 SCT100 23/10 Q1024 R35/CLRD70 RMK QFE728/0971", "UTFF 230800Z 01008KT 9000 NSC 17/06 Q1027 R18/CLRD70", "UTFN 230800Z 03004KT 360V070 4800 -SHRA BR OVC050CB 13/08 Q1027 R28/290060 NOSIG", "UTNN 230800Z 14002KT 9999 SCT034 11/01 Q1031 R33/CLRD60 NOSIG", "UTNU 230800Z VRB02KT CAVOK 13/02 Q1030 R31/CLRD70 NOSIG", "UTO8 M M M 055/-11/-14/3513/M/ PK WND 2920 0725Z SOG 04 3005 37MM", "UTSA 230800Z VRB02KT 9000 NSC 15/07 Q1028 R25/CLRD70 NOSIG", "UTSB 230800Z 35008KT 320V020 CAVOK 15/07 Q1028 R01/CLRD70 NOSIG", "UTSK 230800Z 33010KT 9999 FEW050CB 14/11 Q1028 R34/190060", "UTSS 230800Z VRB02KT 9999 -SHRA BKN056CB 12/10 Q1027 R27/290255 NOSIG", "UTST 230800Z 27010KT 6000 NSC 22/06 Q1025 R25/CLRD70 NOSIG", "UTTT 230800Z 33006KT 300V360 7000 SCT010 BKN046CB 12/10 Q1029 R08L/29//50 NOSIG", "UUBC 230800Z 13002MPS 3900 -RA BR OVC002 05/05 Q1012 R31/190055 NOSIG RMK QBB080 QFE742/0990", "UUBP 230800Z 17003MPS 8000 -RA OVC005 08/08 Q1011 R16/////// NOSIG RMK QFE740/0987", "UUBW 230800Z 14003MPS 9999 SCT007 BKN020 05/03 Q1014 R30/010060 NOSIG", "UUDD 230800Z 17005MPS 9999 OVC007 05/03 Q1013 R88/60D NOSIG", "UUDL 230800Z 20003MPS 9999 BKN040 07/02 Q1013 R23/010060 NOSIG RMK QFE752", "UUEE 230800Z 18003MPS 150V210 9999 BKN012 06/03 Q1012 R24L/CLRD62 R24C/CLRD62 NOSIG", "UUMO 230800Z 17003MPS 130V200 9999 OVC009 05/05 Q1013 R25/CLRD60 NOSIG RMK QFE745/0993", "UUOB 230800Z 16005MPS 9999 OVC010 09/07 Q1015 R11/010070 NOSIG", "UUOK 230800Z 18005MPS 5000 -RA OVC004 08/07 Q1014 R12/190055 NOSIG RMK QBB120 QFE742/0990", "UUOL 230800Z 16006MPS 9999 -RA NSC 06/05 Q1017 R15/090060 NOSIG", "UUOO 230800Z 15005MPS CAVOK 07/04 Q1017 R12/010070 NOSIG RMK QFE749", "UUWW 230800Z 15003MPS 9999 BKN007 OVC016 04/02 Q1013 R24/000070 NOSIG", "UUYY 230800Z 21006MPS 9999 BKN033 00/M02 Q1006 R18/61D NOSIG RMK QFE746/0995", "UWGG 230800Z 18005MPS 9999 OVC046 05/02 Q1018 R18L/090060 NOSIG", "UWKD 230800Z 15003MPS 120V180 9999 OVC046 03/01 Q1022 R11/60D NOSIG RMK QFE756/1008", "UWKE 230800Z 20003MPS 9999 OVC044 01/M03 Q1023 R21/090070 NOSIG RMK QFE751/1001", "UWKS 230800Z 20004MPS 9999 BKN043 03/00 Q1020 R24/010060 NOSIG RMK QFE751", "UWLL 230800Z 22006MPS 9999 BKN014CB 05/02 Q1023 R20/090065 NOSIG RMK QFE757/1009", "UWLW 230800Z 21005MPS CAVOK 05/01 Q1023 R20/CLRD60 NOSIG RMK QFE762/1016", "UWOO 230800Z 11002MPS 030V150 9999 FEW024 04/M02 Q1030 R26/65D NOSIG RMK QFE762/1016", "UWOR 230800Z 28002MPS 240V340 CAVOK 01/M06 Q1030 R25/150060 NOSIG RMK QFE749/0998", "UWPS 230800Z 19006MPS 9999 OVC030 04/02 Q1021 R20/CLRD60 NOSIG RMK QFE748", "UWSG 230800Z 21003MPS 160V250 CAVOK 06/01 Q1025 R08/CLRD70 NOSIG RMK QFE766/1022", "UWUU 230800Z 20005MPS CAVOK 03/M04 Q1027 R14R/0///60 NOSIG", "UWWW 230800Z 19005MPS 9999 SCT033 02/M02 Q1024 R15/CLRD60 NOSIG RMK QFE757/1009", "VAAH 230800Z 36005KT 6000 NSC 36/13 Q1013 NOSIG", "VABB 230800Z 11006KT 4000 FU NSC 33/11 Q1012 NOSIG", "VABO 230800Z 03005KT 6000 NSC 34/16 Q1013 NOSIG", "VABP 230800Z 34010KT 6000 NSC 31/06 Q1016 NOSIG", "VABV 230800Z 35007KT 6000 NSC 34/11 Q1014", "VAID 230800Z 03003KT 6000 NSC 31/10 Q1017 NOSIG", "VAJB 230800Z 02003KT 5000 HZ NSC 30/16 Q1016 NOSIG", "VAJJ 230800Z 05008KT 5000 FU NSC 33/14 Q1012 NOSIG", "VAKE 230800Z 06004KT 5000 FU NSC 36/10 Q1014 NOSIG", "VAKP 230800Z 04008KT 8000 FEW020 29/11 Q1016", "VAKS 230800Z 07010KT 5000 FU NSC 36/05 Q1014 NOSIG", "VANP 230800Z 02006KT 5000 NSC 30/16 Q1014 NOSIG", "VAOZ 230730Z 10010KT 6000 NSC 29/09 Q1017 NOSIG", "VAPR 230800Z 05012KT 6000 NSC 33/16 Q1013 NOSIG", "VARK 230800Z 14005KT 6000 NSC 35/10 Q1014 NOSIG", "VASD 230800Z 07008KT 5000 HZ NSC 28/09 Q1016 NOSIG", "VASU 230800Z 05004KT 6000 NSC 34/13 Q1013 NOSIG", "VAUD 230800Z 36005KT 6000 NSC 32/08 Q1017 NOSIG", "VCRI 230810Z 23009KT 9000 SCT018 BKN080 29/26 Q1009 NOSIG", "VDPP 230800Z 02008KT 9999 SCT015 FEW017CB 32/25 Q1007 RMK CB:S/SE/NE", "VDSR 230800Z 20007KT 150V250 9999 SCT015 30/23 Q1008", "VDSV 230800Z 25008KT 9999 SCT015 FEW017CB 31/25 Q1008 RMK CB:N", "VEAT 230800Z 34003KT 3500 -RA SCT018 BKN100 30/27 Q1009 BECMG 3000 -RA BR", "VEBN 230800Z 31004KT 4000 HZ NSC 33/17 Q1013 NOSIG", "VEBS 230800Z 04005KT 3500 HZ SCT018 SCT100 29/25 Q1010 NOSIG", "VEBU 230800Z 34012KT 6000 NSC 30/16 Q1012 NOSIG", "VECC 230800Z 13005KT 3200 -RA SCT018 OVC090 29/24 Q1009 BECMG 3000 -RA", "VECO 230800Z 00000KT 6000 FEW025 32/22 Q1011", "VEDG 230800Z 36005KT 5000 HZ FEW020 SCT100 32/19 Q1010 NOSIG", "VEDO 230800Z 36005KT 5000 HZ SCT100 32/16 Q1012 NOSIG", "VEGT 230800Z 02002KT 3000 BR SCT018 BKN100 28/25 Q1011 NOSIG", "VEGY 230800Z 00000KT 3500 HZ FEW100 31/20 Q1012 NOSIG", "VEIM 230800Z 20004KT 5000 HZ SCT018 BKN100 28/21 Q1015 NOSIG", "VEJH 230800Z 03007KT 4000 HZ BKN100 30/18 Q1012", "VEJR 230800Z 02007KT 5000 HZ FEW025 SCT100 28/16 Q1013", "VEJS 230800Z 02005KT 5000 HZ SCT018 33/17 Q1010", "VEKI 230800Z 29007KT 5000 HZ NSC 31/16 Q1012 NOSIG", "VELP 230800Z 11005KT 5000 BR SCT018 SCT025 BKN100 28/24 Q1011 NOSIG", "VELR 230800Z 02002KT 6000 FEW010 SCT020 BKN090 28/23 Q1012", "VEMN 230800Z 03006KT 5000 HZ SCT020 BKN100 29/19 Q1012 NOSIG", "VEMR 230800Z 04005KT 5000 HZ BKN020 BKN100 28/22 Q1012 NOSIG", "VEPT 230800Z 31004KT 5000 HZ FEW020 SCT100 33/18 Q1010 NOSIG", "VEPY 230800Z 18003KT 5000 HZ FEW020 27/06 Q1020 NOSIG", "VERC 230800Z 36006KT 5000 HZ BKN100 27/17 Q1015 NOSIG", "VERP 230800Z 03006KT 5000 HZ NSC 31/17 Q1013 NOSIG", "VGEG 230800Z 33010KT 4000 HZ SCT016 FEW028CB BKN100 29/26 Q1008 NOSIG", "VGHS 230800Z 00000KT 3200 DZ SCT010 BKN100 29/25 Q1010 TEMPO RA", "VHHH 230800Z 14005KT 9999 FEW025 29/18 Q1012 NOSIG", "VIAR 230800Z 30005KT 6000 NSC 30/09 Q1017 NOSIG", "VIBR 230800Z 20005KT 6000 FEW030 24/08 Q1019", "VIDP 230800Z 27004KT 3500 HZ NSC 30/09 Q1016 NOSIG", "VIGG 230800Z 00000KT 6000 FEW035 27/16 Q1020", "VIJP 230800Z 31008KT 4000 HZ NSC 31/12 Q1017 NOSIG", "VILK 230800Z VRB02KT 5000 HZ SCT020 SCT025 31/23 Q1014 NOSIG", "VLLB 230800Z 36004KT 9999 FEW027 33/18 Q1011 NOSIG", "VLLN 230800Z 18004KT 9999 FEW020 33/18 Q1014 NOSIG", "VLPS 230800Z 36006KT 9999 FEW030 SCT050 SCT200 33/24 Q1010 NOSIG", "VLSK 230800Z 04006KT 9999 FEW020 33/18 Q1012 NOSIG", "VLVT 230800Z 09008KT 8000 FEW020 FEW200 33/22 Q1011 NOSIG", "VMMC 230800Z 06005KT 030V090 9999 SCT045 27/21 Q1012 NOSIG", "VNKT 230800Z 13006KT 9999 FEW025 SCT040 26/07 Q1021 NOSIG", "VOAT 230800Z 11003KT 6000 SCT015 31/25 Q1011 NOSIG", "VOBG 230800Z 30006KT 6000 FEW012 28/16 Q1016 NOSIG", "VOBL 230800Z 31010KT 8000 FEW012 26/13 Q1016 NOSIG", "VOBM 230800Z 04009KT 9999 FEW012 27/10 Q1017", "VOBZ 230800Z 33006KT 6000 NSC 33/22 Q1009 NOSIG", "VOCB 230800Z 20006KT 6000 SCT012 32/20 Q1012 NOSIG", "VOCI 230800Z 26004KT 6000 SCT015 SCT080 31/25 Q1010 NOSIG", "VOCL 230800Z 25006KT 6000 SCT012 SCT018 29/24 Q1010 NOSIG", "VOCP 230800Z 01005KT 6000 FEW020 31/15 Q1010 NOSIG", "VOGB 230800Z 02007KT 8000 FEW020 28/14 Q1014", "VOHB 230800Z 04011KT 8000 NSC 29/13 Q1015", "VOHS 230800Z 01012KT 6000 FEW020 28/14 Q1015 NOSIG", "VOHY 230800Z 02006KT 6000 NSC 28/11 Q1014 NOSIG", "VOJV 230800Z 34008KT 6000 NSC 28/19 Q1014", "VOKN 230800Z 30009KT 6000 SCT012 FEW025TCU 31/25 Q1010 NOSIG", "VOKU 230800Z 33009KT 5000 HZ FEW020 30/10 Q1013", "VOMD 230800Z 28005KT 5000 HZ FEW020 FEW025TCU 32/22 Q1010 NOSIG", "VOML 230800Z 25009KT 6000 SCT012 SCT020 FEW025TCU 32/22 Q1010 TEMPO 5000 HZ", "VOMM 230800Z 34010KT 6000 FEW020 FEW025TCU SCT100 32/22 Q1009 NOSIG", "VOMY 230800Z 34004KT 6000 FEW015 30/17 Q1015", "VOPB 230800Z 22005KT 4500 -RA SCT012 BKN080 27/25 Q1007 BECMG 3500 -RA", "VOPC 230730Z 28004KT 5000 HZ SCT015 BKN080 30/24 Q1011 NOSIG", "VORY 230800Z 00000KT 6000 NSC 35/20 Q1008 NOSIG", "VOTK 230800Z 15010KT 6000 SCT020 FEW030CB OVC080 31/23 Q1010 TEMPO 5000 HZ", "VOTP 230800Z 34008KT 6000 FEW020 32/15 Q1010 NOSIG", "VOTR 230800Z 31005KT 4000 HZ FEW016 SCT100 32/24 Q1010 NOSIG", "VOTV 230800Z 26006KT 6000 FEW015 FEW025TCU 30/24 Q1011 NOSIG", "VOVZ 230800Z 02007KT 5000 HZ FEW018 BKN220 30/20 Q1008 NOSIG", "VQPR 230800Z 15009KT 9999 FEW040 SCT060 22/M01 Q1024", "VRMG 230800Z 24007KT 9999 FEW018 FEW019CB BKN270 30/25 Q1012 CB E,S NOSIG", "VRMH 230800Z 24008KT 9999 FEW018TCU BKN260 30/26 Q1012", "VRMM 230800Z 22014KT 9999 SCT017 FEW018CB BKN240 28/25 Q1012 CB SE TEMPO 4000 SHRA", "VTBD 230800Z 04007KT 360V090 9999 FEW020 33/22 Q1009 NOSIG", "VTBO 230800Z 33002KT 9999 FEW025 33/23 Q1008", "VTBS 230800Z 03005KT 340V100 9999 FEW030 33/22 Q1009 NOSIG", "VTBU 230800Z 27004KT 7000 FEW020CB 30/26 Q1009 NOSIG", "VTCC 230800Z VRB03KT 9999 -RA FEW025CB BKN035 29/21 Q1012 NOSIG", "VTCH 230800Z VRB04KT 9999 FEW020TCU SCT025 31/23 Q1011 NOSIG", "VTCL 230800Z VRB02KT 9999 SCT025 33/22 Q1012 NOSIG", "VTCN 230800Z 30004KT 250V020 9999 FEW025 31/22 Q1011 NOSIG", "VTCP 230800Z 36007KT 320V050 9999 SCT047 32/22 Q1011 NOSIG", "VTCT 230800Z VRB03KT 9999 FEW040 30/21 Q1013 NOSIG", "VTPB 230800Z 04004KT 320V080 9999 FEW030 33/17 Q1011 NOSIG", "VTPH 230800Z 03007KT 360V060 9999 FEW030 30/24 Q1009 NOSIG", "VTPM 230800Z 07008KT 030V100 9999 FEW045 33/19 Q1010 NOSIG", "VTPO 230800Z VRB02KT 9999 FEW025 33/21 Q1011 NOSIG", "VTPP 230800Z 22004KT 160V280 CAVOK 32/19 Q1010 NOSIG", "VTSB 230800Z 28007KT 250V310 9999 VCSH FEW018CB SCT020 29/24 Q1009 NOSIG", "VTSC 230800Z 30003KT 9999 -RA FEW018 SCT100 28/23 Q1009 NOSIG", "VTSE 230800Z 05003KT 330V100 9999 VCSH FEW018CB SCT080 31/24 Q1009 NOSIG", "VTSF 230800Z 01006KT 320V050 9999 FEW016CB 33/25 Q1009 NOSIG", "VTSG 230800Z 23006KT 200V270 9999 3000E -RA FEW040CB SCT050 BKN100 33/24 Q1009 NOSIG", "VTSM 230800Z 31005KT 290V350 9999 FEW020 31/25 Q1010 NOSIG", "VTSP 230800Z 31007KT 9999 FEW020 32/25 Q1009 NOSIG", "VTSR 230800Z 22009KT 9999 FEW025 33/20 Q1009 NOSIG", "VTSS 230800Z VRB02KT 9999 SCT020 BKN100 30/25 Q1009 NOSIG", "VTST 230800Z 35004KT 250V050 9999 FEW030 32/24 Q1008 NOSIG", "VTUD 230800Z 09007KT 040V150 CAVOK 33/16 Q1011 NOSIG", "VTUI 230800Z 11006KT 070V150 CAVOK 33/16 Q1011 NOSIG", "VTUK 230800Z 07007KT 040V120 9999 FEW030 31/17 Q1011 NOSIG", "VTUL 230800Z VRB02KT 9999 SCT030 30/20 Q1012 NOSIG", "VTUO 230800Z 08007KT 040V110 9999 FEW040 31/22 Q1011 NOSIG", "VTUQ 230800Z 03004KT 330V080 9999 FEW035 30/23 Q1011 NOSIG", "VTUU 230800Z 03008KT 9999 FEW030 32/24 Q1010 NOSIG", "VTUV 230800Z 06007KT 020V080 9000 NSC 32/19 Q1010 NOSIG", "VTUW 230800Z 12004KT 090V150 CAVOK 33/16 Q1011 NOSIG", "VVCI 230800Z 13007KT CAVOK 31/21 Q1012 NOSIG", "VVCR 230800Z 04013KT 9999 FEW015 29/22 Q1010 NOSIG", "VVCT 230800Z 01004KT 9999 SCT013 FEW015TCU 31/25 Q1008 NOSIG TCU/NE", "VVDN 230800Z 36010KT 9999 FEW015 30/20 Q1012 NOSIG", "VVNB 230800Z 36003KT 290V100 CAVOK 33/20 Q1012 NOSIG", "VVPB 230800Z 32006KT 9999 FEW020 SCT060 27/24 Q1013 NOSIG", "VVPQ 230800Z 23005KT 9999 SCT015 32/24 Q1008 NOSIG", "VVTS 230800Z 23010KT 9999 -TSRA SCT015 FEW017CB 28/25 Q1008 NOSIG RMK CB/S/SW/NW", "VYMD 230730Z 18002KT 8000 SCT025 36/21 Q1009 NOSIG", "VYNT 230800Z 30004KT 7000 BKN017 FEW022CB BKN110 33/24 Q1009 NOSIG", "VYYY 230800Z 09010KT 7000 BKN018 FEW025CB 33/24 Q1008", "WAAA 230800Z 13004KT 7000 -TSRA FEW018CB SCT019 27/25 Q1007 TEMPO TL0830 13010G20KT 4000 RMK CB IN APCH", "WADD 230800Z 25009KT 9999 FEW017 31/26 Q1007 NOSIG", "WAHS 230800Z 23004KT 7000 SCT014 29/24 Q1007", "WAJJ 230800Z 08003KT 9999 SCT013 29/24 Q1005 NOSIG", "WAKK 230800Z 20007KT 9999 FEW017 29/25 Q1005 NOSIG", "WALL 230800Z VRB04KT 9999 FEW020CB FEW020 30/26 Q1005 RMK CB TO W AND SW", "WAMM 230800Z 27004KT 200V340 9999 SCT018 29/25 Q1007 NOSIG", "WAOO 230800Z 22008KT 180V240 9999 SCT017 29/23 Q1006 NOSIG", "WAPP 230800Z 22008KT 9999 FEW018 31/25 Q1006 NOSIG", "WAQQ 230800Z 05007KT 9999 SCT015 31/25 Q1006 NOSIG", "WARR 230800Z 29014KT 1000 +TSRA BKN010CB 25/24 Q1008 TEMPO TL0830 5000 -TSRA", "WBGB 230800Z 31008KT 250V030 9999 TS FEW015CB SCT016 29/26 Q1007", "WBGG 230800Z 32007KT 250V030 9999 BKN018 29/25 Q1006 NOSIG", "WBGR 230800Z 30008KT 240V360 9999 SCT016 30/25 Q1007", "WBGS 230800Z VRB04KT 9999 FEW015CB SCT018 30/25 Q1006", "WBGY 230800Z VRB01KT 9999 FEW015CB SCT022 33/25 Q1005", "WBKK 230800Z 00000KT 9999 FEW014 FEW016CB 29/25 Q1008 NOSIG", "WBKL 230800Z 34003KT 260V030 9999 FEW015 FEW017CB 29/25 Q1007", "WBKS 230800Z 33005KT 300V010 9999 FEW015 FEW017CB 28/25 Q1007", "WBKT 230800Z 26005KT 9999 FEW014 28/25 Q1008", "WBKW 230800Z 04003KT 330V100 9000 -TSRA FEW015CB SCT016 25/24 Q1008", "WBSB 230800Z 31007KT 9999 SCT015 FEW016CB SCT140 BKN280 29/27 Q1008 NOSIG", "WIBB 230800Z 27007KT 8000 SCT012 29/24 Q1007", "WIDD 230800Z 32004KT 9999 SCT014 28/25 Q1011 NOSIG", "WIEE 230800Z VRB02KT 9999 FEW020 29/24 Q1009 NOSIG", "WIII 230800Z 28006KT 9999 SCT020 32/25 Q1007 NOSIG", "WIMM 230800Z 01005KT 9999 SCT017 30/22 Q1009 NOSIG", "WIOO 230800Z 23012KT 9999 SCT013 30/25 Q1007 NOSIG", "WIPP 230800Z 25005KT 9999 SCT010 28/23 Q1008", "WMAU 230800Z 31006KT 230V040 9999 SCT025 29/25 Q1009", "WMBA 230800Z VRB03KT 8000 SHRA SCT020 30/27 Q1008", "WMKA 230800Z 36004KT 280V070 9999 FEW020 31/23 Q1009", "WMKB 230800Z 31006KT 260V350 9999 FEW020 30/24 Q1009 NOSIG", "WMKC 230800Z 35005KT 300V040 9999 FEW018 30/24 Q1009", "WMKD 230800Z 35003KT 290V050 9999 -RA FEW024 28/24 Q1008 NOSIG", "WMKE 230800Z VRB03KT 9999 FEW014CB 29/25 Q1008", "WMKI 230800Z 02007KT 340V050 9999 FEW017CB SCT020 33/23 Q1008", "WMKJ 230800Z VRB03KT 9999 FEW018 30/25 Q1009", "WMKK 230800Z VRB04KT 9999 SCT018 30/26 Q1008 NOSIG", "WMKL 230800Z 24004KT 160V300 9999 SCT020 30/25 Q1009", "WMKM 230800Z 25004KT 170V330 9999 FEW017CB SCT021 29/25 Q1009 RESH", "WMKN 230800Z 33010KT 260V030 9999 FEW018 29/24 Q1009", "WMKP 230800Z 36004KT 280V050 9999 FEW020 31/23 Q1009 NOSIG", "WMSA 230800Z 27008KT 240V320 9999 FEW019 30/24 Q1009", "WSAP 230800Z 31004KT 9999 SCT020 BKN150 30/22 Q1009", "WSSL 230800Z 33005KT 270V020 9999 FEW020 BKN160 30/22 Q1009", "WSSS 230800Z 33006KT 300V360 9999 FEW018 BKN160 29/23 Q1009 NOSIG", "YBAS 230800Z AUTO 17012KT 9999 // NCD 33/08 Q1005 RF00.0/000.0", "YBBN 230800Z 23014KT 9999 FEW009 SCT180 BKN210 21/19 Q1005", "YBCG 230809Z AUTO 19012KT 9999 DZ BKN019 BKN035 OVC041 19/17 Q1006 RERA", "YBCS 230800Z AUTO 01005KT 9999 // SCT021 SCT029 BKN042 28/24 Q1006", "YBDV 230816Z AUTO 16015G29KT 9999 // NCD 28/14 Q1005", "YBLN 230800Z AUTO 20010KT 9999 // ////// 20/11 Q1008 RF00.0/000.0", "YBRK 230800Z AUTO 28003KT 9999 // NCD 29/16 Q1005 RF00.0/000.0", "YBRM 230800Z AUTO 27012KT 9999 // NCD 29/23 Q1005 RF00.0/000.0", "YBWW 230800Z AUTO 17007KT 9999 // SCT017 19/17 Q1008 RF00.0/000.0", "YCBA 230826Z AUTO 26020KT 9999 TS SCT017 SCT032 BKN041 18/15 Q1007", "YCFS 230821Z AUTO 14008KT 7000 -RA SCT011 BKN029 OVC038 19/17 Q1012 RERA", "YGEL 230815Z AUTO 32010KT 6000 SHRA BKN013 BKN033 BKN053 20/18 Q1007", "YGFN 230825Z AUTO 21004KT 6000 -RA SCT008 BKN013 OVC020 18/17 Q1010 RERA", "YLHI 230816Z AUTO 07024KT 7000 // SCT017 20/17 Q1016 RF00.0/000.0", "YLIS 230823Z AUTO 18013KT 4200 +RA SCT006 SCT014 BKN026 18/17 Q1008", "YMAV 230800Z AUTO 11020G30KT 9999 // BKN031 17/13 Q1013 RF00.0/000.0", "YMAY 230735Z AUTO 08007KT 6000 // SCT035 SCT042 BKN050 21/19 Q1010", "YMER 230800Z AUTO 18006KT 9999 // BKN011 OVC021 16/15 Q1016", "YMHB 230800Z 13012KT 9999 FEW030 BKN055 BKN250 11/04 Q1026 RF00.0/000.2", "YMIA 230814Z AUTO 14010KT 9999 -RA BKN008 BKN037 BKN050 17/17 Q1007", "YMLT 230800Z AUTO 15018KT 9999 // OVC046 11/05 Q1022 RF00.0/000.4", "YMML 230800Z AUTO 15011KT 9999 // SCT030 SCT120 17/13 Q1012", "YMTG 230800Z AUTO 15011KT 9999 -RA BKN009 OVC012 12/12 Q1014", "YNAR 230730Z AUTO 11017KT 9999 // SCT043 SCT053 24/16 Q1008", "YPAD 230800Z 17007KT 9999 SCT021 BKN026 BKN043 16/14 Q1009", "YPBO 230818Z AUTO 27017G27KT 9999 // NCD 35/M01 Q1005", "YPCC 230800Z AUTO 14013KT 9999 // SCT032 28/21 Q1011 RF00.0/000.0", "YPDN 230800Z 30014KT 9999 FEW021 32/26 Q1004", "YPKG 230800Z AUTO 13009KT 9999 // SCT051 SCT061 OVC071 22/07 Q1010", "YPLM 230800Z AUTO 25018KT 9999 // NCD 28/15 Q1008 RF00.0/000.0", "YPPD 230800Z AUTO 29019KT 9999 // NCD 30/18 Q1005 RF00.0/000.0", "YPPH 230746Z AUTO 19010KT 9999 RA SCT010 SCT074 OVC091 17/15 Q1008", "YPXM 230800Z AUTO 17001KT 9999 -DZ BKN100 BKN125 24/24 Q1010", "YSCB 230800Z AUTO 11011KT 9999 // OVC019 15/12 Q1015", "YSNF 230800Z AUTO 08020KT 9999 // BKN028 OVC043 19/14 Q1023", "YSNW 230800Z AUTO 16008KT 4500 -SHRA SCT006 BKN011 OVC019 16/16 Q1014", "YSSY 230800Z AUTO 17012KT 9999 // BKN018 BKN026 BKN039 18/17 Q1013 RESHRA", "ZBAA 230800Z 10002MPS 060V120 CAVOK 21/M04 Q1022 NOSIG", "ZBAD 230800Z VRB01MPS CAVOK 21/M06 Q1022 NOSIG", "ZBHH 230800Z 23004MPS CAVOK 15/M08 Q1025 NOSIG", "ZBSJ 230800Z 19002MPS 140V250 CAVOK 24/M04 Q1021 NOSIG", "ZBTJ 230800Z 35006MPS CAVOK 20/M06 Q1023 NOSIG", "ZBYN 230800Z 20002MPS 140V250 CAVOK 21/M09 Q1024 NOSIG", "ZGGG 230800Z 03003MPS 350V070 CAVOK 34/16 Q1012 NOSIG", "ZGHA 230800Z 36003MPS 330V060 CAVOK 30/09 Q1017 NOSIG", "ZGKL 230800Z 07005MPS CAVOK 32/08 Q1014 NOSIG", "ZGNN 230800Z VRB02MPS CAVOK 33/17 Q1013 NOSIG", "ZGOW 230800Z 11005MPS CAVOK 28/18 Q1013 NOSIG", "ZGSZ 230800Z 10003MPS 050V160 CAVOK 32/16 Q1012 NOSIG", "ZHCC 230800Z 10002MPS 070V140 5000 HZ NSC 23/03 Q1023 NOSIG", "ZHHH 230800Z 05003MPS 020V100 CAVOK 29/08 Q1020 NOSIG", "ZJHK 230800Z 02003MPS CAVOK 28/19 Q1012 NOSIG", "ZJSY 230800Z 22002MPS 190V270 CAVOK 29/22 Q1011 NOSIG", "ZLLL 230800Z 13003MPS 090V170 CAVOK 17/M00 Q1024 NOSIG", "ZLXY 230800Z VRB01MPS 7000 NSC 20/04 Q1023 NOSIG", "ZMUB 230800Z 22003MPS 180V250 CAVOK 12/M08 Q1019 NOSIG RMK QFE657.0 24", "ZPPP 230800Z 15003MPS 120V200 9999 -SHRA SCT023 BKN040 17/14 Q1027 NOSIG", "ZSAM 230800Z 07005MPS CAVOK 27/17 Q1014 NOSIG", "ZSFZ 230800Z 05009MPS CAVOK 24/17 Q1017 NOSIG", "ZSHC 230800Z 36004MPS 320V030 8000 SCT033 23/13 Q1021 NOSIG", "ZSNB 230800Z 36004MPS 330V050 9999 BKN040 22/14 Q1020 NOSIG", "ZSNJ 230800Z 08004MPS 040V110 CAVOK 23/09 Q1022 NOSIG", "ZSOF 230800Z 03004MPS 8000 FEW043 24/10 Q1022 NOSIG", "ZSPD 230800Z 02007MPS CAVOK 20/10 Q1021 NOSIG", "ZSQD 230800Z 32004MPS CAVOK 20/01 Q1023 NOSIG", "ZSSS 230800Z 36007MPS CAVOK 21/07 Q1022 NOSIG", "ZUCK 230800Z 09002MPS 5000 HZ NSC 21/15 Q1020 NOSIG", "ZUGY 230800Z 05003MPS 020V090 CAVOK 23/08 Q1022 NOSIG", "ZUTF 230800Z 18002MPS CAVOK 26/14 Q1018 NOSIG", "ZUUU 230800Z 19003MPS 140V210 9999 SCT030 26/14 Q1018 NOSIG", "ZWSH 230800Z 14003MPS 080V170 8000 FEW040 18/M06 Q1022 NOSIG", "ZWWW 230800Z 34003MPS 320V020 CAVOK 17/01 Q1018 NOSIG", "ZYCC 230800Z 34004MPS 310V010 9999 BKN030 06/M07 Q1022 NOSIG", "ZYHB 230800Z 34002MPS CAVOK 06/M04 Q1021 NOSIG", "ZYTL 230800Z 36005MPS 330V040 9999 FEW033 15/01 Q1023 NOSIG", "ZYTX 230800Z 34005MPS 9999 SCT040 11/M09 Q1024 NOSIG"]}