{"station_id": ["AGGH", "AYPY", "BGBW", "BGGH", "BGJN", "BGKK", "BGSF", "BGTL", "BIAR", "BIEG", "BIKF", "BIRK", "BIVM", "BKPR", "CAHR", "CBAR", "CBBC", "CERM", "CMFM", "CMGB", "CPBT", "CPEH", "CPFI", "CPIN", "CPIR", "CPRO", "CPRY", "CPST", "CPSV", "CTCK", "CTNK", "CTRA", "CWAE", "CWAF", "CWAJ", "CWAQ", "CWAR", "CWAV", "CWBA", "CWBK", "CWBO", "CWBS", "CWBT", "CWBU", "CWBV", "CWBY", "CWBZ", "CWCF", "CWCI", "CWCJ", "CWCO", "CWCT", "CWDA", "CWDC", "CWDJ", "CWDK", "CWDM", "CWDO", "CWDQ", "CWDV", "CWDZ", "CWEB", "CWEE", "CWEF", "CWEH", "CWEL", "CWEP", "CWEQ", "CWER", "CWEU", "CWEW", "CWEZ", "CWFD", "CWFF", "CWFJ", "CWFQ", "CWGB", "CWGD", "CWGH", "CWGL", "CWGM", "CWGR", "CWGT", "CWGW", "CWGY", "CWHI", "CWHL", "CWHO", "CWHP", "CWHQ", "CWHT", "CWHV", "CWID", "CWIG", "CWII", "CWIJ", "CWIK", "CWIL", "CWIP", "CWIS", "CWIT", "CWIW", "CWIZ", "CWJB", "CWJC", "CWJD", "CWJH", "CWJI", "CWJO", "CWJR", "CWJT", "CWJU", "CWJV", "CWJW", "CWJX", "CWKD", "CWKG", "CWKH", "CWKM", "CWKO", "CWKX", "CWLB", "CWLC", "CWLE", "CWLM", "CWLP", "CWLS", "CWLX", "CWLY", "CWME", "CWMJ", "CWMM", "CWMQ", "CWMT", "CWNC", "CWND", "CWNE", "CWNH", "CWNK", "CWNM", "CWNP", "CWNQ", "CWNZ", "CWOB", "CWOC", "CWOD", "CWOE", "CWOY", "CWPD", "CWPE", "CWPF", "CWPK", "CWPO", "CWPR", "CWPZ", "CWQH", "CWQK", "CWQO", "CWQP", "CWQR", "CWQS", "CWQV", "CWRA", "CWRJ", "CWRK", "CWRM", "CWRN", "CWRO", "CWRT", "CWRU", "CWRY", "CWRZ", "CWSA", "CWSD", "CWSF", "CWSG", "CWSK", "CWSL", "CWSP", "CWSR", "CWSS", "CWST", "CWSW", "CWTA", "CWTG", "CWTN", "CWTT", "CWTY", "CWUS", "CWUW", "CWUX", "CWVF", "CWVI", "CWVN", "CWVP", "CWVQ", "CWVT", "CWVU", "CWWA", "CWWB", "CWWE", "CWWF", "CWWK", "CWWL", "CWWS", "CWWZ", "CWXA", "CWXC", "CWXI", "CWXL", "CWYJ", "CWYL", "CWYY", "CWZA", "CWZG", "CWZL", "CWZN", "CWZO", "CWZQ", "CWZW", "CWZZ", "CXAF", "CXAG", "CXAJ", "CXAK", "CXAT", "CXBA", "CXBI", "CXBK", "CXBO", "CXBR", "CXBW", "CXCA", "CXCD", "CXCK", "CXCP", "CXCS", "CXDB", "CXDE", "CXDI", "CXDK", "CXDW", "CXEA", "CXEC", "CXEG", "CXET", "CXFM", "CXFR", "CXGH", "CXHA", "CXHD", "CXHM", "CXHP", "CXHR", "CXIB", "CXKA", "CXKE", "CXKI", "CXKM", "CXKT", "CXLB", "CXLL", "CXMD", "CXMG", "CXMI", "CXMM", "CXMO", "CXMY", "CXNM", "CXNP", "CXOL", "CXOX", "CXOY", "CXPA", "CXPC", "CXPL", "CXRB", "CXRH", "CXRL", "CXSC", "CXSE", "CXSH", "CXSL", "CXSP", "CXTD", "CXTH", "CXTN", "CXTO", "CXTP", "CXTV", "CXVM", "CXVN", "CXVW", "CXWB", "CXWM", "CXWN", "CXYH", "CXZC", "CXZV", "CYAH", "CYAM", "CYAS", "CYAT", "CYAY", "CYAZ", "CYBC", "CYBD", "CYBG", "CYBK", "CYBL", "CYBQ", "CYBR", "CYBU", "CYBW", "CYBX", "CYCA", "CYCB", "CYCD", "CYCG", "CYCK", "CYCO", "CYCP", "CYCQ", "CYCY", "CYDA", "CYDB", "CYDC", "CYDF", "CYDL", "CYDN", "CYDP", "CYDQ", "CYEG", "CYEK", "CYEN", "CYER", "CYET", "CYEV", "CYFB", "CYFC", "CYFO", "CYFS", "CYFT", "CYGE", "CYGH", "CYGK", "CYGL", "CYGP", "CYGR", "CYGV", "CYGW", "CYGX", "CYHA", "CYHD", "CYHE", "CYHK", "CYHM", "CYHU", "CYHY", "CYHZ", "CYIN", "CYIO", "CYIV", "CYJT", "CYKA", "CYKD", "CYKF", "CYKG", "CYKJ", "CYKL", "CYKO", "CYKP", "CYKQ", "CYKY", "CYLA", "CYLD", "CYLH", "CYLJ", "CYLK", "CYLL", "CYLU", "CYLW", "CYMA", "CYMH", "CYMM", "CYMO", "CYMT", "CYMX", "CYNA", "CYND", "CYNE", "CYNM", "CYOC", "CYOD", "CYOJ", "CYOO", "CYOW", "CYPA", "CYPC", "CYPD", "CYPE", "CYPH", "CYPL", "CYPO", "CYPQ", "CYPR", "CYPW", "CYPX", "CYPY", "CYQA", "CYQB", "CYQD", "CYQF", "CYQG", "CYQH", "CYQI", "CYQK", "CYQL", "CYQM", "CYQQ", "CYQR", "CYQT", "CYQU", "CYQV", "CYQW", "CYQX", "CYQY", "CYQZ", "CYRB", "CYRJ", "CYRL", "CYRQ", "CYRT", "CYRV", "CYSB", "CYSC", "CYSF", "CYSJ", "CYSK", "CYSM", "CYSN", "CYSY", "CYTE", "CYTH", "CYTL", "CYTQ", "CYTR", "CYTS", "CYTZ", "CYUA", "CYUB", "CYUL", "CYUT", "CYUX", "CYUY", "CYVC", "CYVL", "CYVM", "CYVO", "CYVP", "CYVQ", "CYVR", "CYVT", "CYVV", "CYWE", "CYWG", "CYWH", "CYWK", "CYWL", "CYXC", "CYXE", "CYXH", "CYXJ", "CYXL", "CYXN", "CYXR", "CYXS", "CYXT", "CYXU", "CYXX", "CYXY", "CYXZ", "CYYB", "CYYC", "CYYD", "CYYE", "CYYF", "CYYG", "CYYJ", "CYYL", "CYYN", "CYYQ", "CYYR", "CYYT", "CYYU", "CYYW", "CYYY", "CYYZ", "CYZE", "CYZF", "CYZG", "CYZH", "CYZP", "CYZR", "CYZS", "CYZT", "CYZU", "CYZV", "CYZX", "CYZY", "CZBF", "CZCR", "CZDB", "CZEL", "CZEM", "CZEV", "CZFA", "CZFM", "CZFS", "CZHY", "CZKD", "CZMD", "CZMJ", "CZMT", "CZOL", "CZPC", "CZPS", "CZSM", "CZSP", "CZST", "CZTB", "CZUM", "CZVL", "CZZJ", "DAAG", "DAAS", "DAAT", "DABB", "DABC", "DABS", "DAOB", "DAOI", "DAON", "DAOO", "DAUA", "DAUB", "DAUG", "DAUH", "DBBB", "DGAA", "DIAP", "DIBK", "DIYO", "DNAA", "DNIB", "DNIL", "DNKN", "DNKT", "DNMM", "DNMN", "DNPO", "DNYO", "DNZA", "DRRM", "DRRN", "DRRT", "DRZA", "DRZR", "DTKA", "DTMB", "DTNH", "DTTA", "DTTB", "DTTD", "DTTF", "DTTG", "DTTJ", "DTTK", "DTTL", "DTTN", "DTTR", "DTTX", "DTTZ", "DXNG", "DXXX", "EBAW", "EBBE", "EBBL", "EBBR", "EBCI", "EBCV", "EBDT", "EBFN", "EBFS", "EBLB", "EBLG", "EBOS", "EDAC", "EDAH", "EDBC", "EDDB", "EDDC", "EDDE", "EDDF", "EDDG", "EDDH", "EDDK", "EDDL", "EDDM", "EDDN", "EDDP", "EDDR", "EDDS", "EDDV", "EDDW", "EDFH", "EDFM", "EDGS", "EDHI", "EDHK", "EDHL", "EDJA", "EDLN", "EDLP", "EDLV", "EDLW", "EDMA", "EDMO", "EDNY", "EDQM", "EDSB", "EDTL", "EDTY", "EDVE", "EDVK", "EDXW", "EEEI", "EEKA", "EEKE", "EEPU", "EETN", "EETU", "EFET", "EFHA", "EFHK", "EFIV", "EFJO", "EFJY", "EFKE", "EFKI", "EFKK", "EFKS", "EFKT", "EFKU", "EFLP", "EFMA", "EFMI", "EFOU", "EFPO", "EFRO", "EFSA", "EFSI", "EFTP", "EFTU", "EFUT", "EFVA", "EGAA", "EGAC", "EGAE", "EGBB", "EGBJ", "EGCC", "EGCK", "EGDM", "EGDR", "EGDY", "EGEO", "EGFF", "EGGD", "EGGP", "EGGW", "EGHH", "EGHI", "EGHQ", "EGJA", "EGJB", "EGJJ", "EGKA", "EGKB", "EGKK", "EGLC", "EGLF", "EGLL", "EGMC", "EGMD", "EGNH", "EGNJ", "EGNM", "EGNR", "EGNS", "EGNT", "EGNV", "EGNX", "EGOM", "EGOP", "EGOS", "EGOV", "EGPA", "EGPB", "EGPC", "EGPD", "EGPE", "EGPF", "EGPH", "EGPI", "EGPK", "EGPL", "EGPN", "EGPO", "EGQA", "EGQK", "EGQL", "EGQM", "EGQS", "EGSH", "EGSS", "EGSY", "EGTC", "EGTE", "EGTK", "EGUB", "EGUL", "EGUN", "EGUW", "EGVA", "EGVN", "EGVO", "EGVP", "EGWU", "EGXC", "EGXE", "EGXS", "EGXT", "EGXV", "EGXW", "EGXZ", "EGYD", "EGYE", "EGYH", "EGYM", "EGYP", "EHAK", "EHAM", "EHBK", "EHDL", "EHDV", "EHEH", "EHFD", "EHFS", "EHGG", "EHGR", "EHHW", "EHJA", "EHJR", "EHKD", "EHKV", "EHLE", "EHLW", "EHMG", "EHPG", "EHRD", "EHSA", "EHSC", "EHVK", "EHVL", "EHWO", "EICK", "EIDL", "EIDW", "EIKN", "EIKY", "EIME", "EINN", "EISG", "EIWF", "EKAH", "EKBI", "EKCH", "EKEB", "EKKA", "EKOD", "EKRK", "EKRN", "EKRS", "EKSB", "EKSP", "EKVD", "EKVG", "EKVJ", "EKYT", "ELLX", "ENAL", "ENAN", "ENAT", "ENBL", "ENBN", "ENBO", "ENBR", "ENBS", "ENBV", "ENCN", "ENDR", "ENDU", "ENEV", "ENFB", "ENFL", "ENGC", "ENGM", "ENHD", "ENHE", "ENHF", "ENHK", "ENHM", "ENHV", "ENJS", "ENKB", "ENKR", "ENLA", "ENLE", "ENLK", "ENMH", "ENML", "ENMS", "ENNA", "ENNE", "ENNM", "ENOA", "ENOL", "ENOV", "ENQA", "ENQC", "ENQR", "ENRA", "ENRM", "ENRO", "ENRS", "ENRY", "ENSB", "ENSD", "ENSE", "ENSF", "ENSG", "ENSH", "ENSK", "ENSL", "ENSR", "ENSS", "ENST", "ENTC", "ENTO", "ENUG", "ENUN", "ENVA", "ENVD", "ENVR", "ENWV", "ENZV", "EPBY", "EPGD", "EPKK", "EPKT", "EPLB", "EPLL", "EPMO", "EPPO", "EPRZ", "EPSC", "EPSY", "EPWA", "EPWR", "EPZG", "ESCF", "ESCM", "ESDF", "ESGG", "ESGJ", "ESGP", "ESGT", "ESIA", "ESIB", "ESKM", "ESKN", "ESKS", "ESMK", "ESMQ", "ESMS", "ESMT", "ESMX", "ESND", "ESNG", "ESNK", "ESNL", "ESNN", "ESNO", "ESNQ", "ESNS", "ESNU", "ESNV", "ESNX", "ESNZ", "ESOE", "ESOH", "ESOK", "ESOW", "ESPA", "ESPE", "ESSA", "ESSB", "ESSD", "ESSL", "ESSP", "ESST", "ESSV", "ESTA", "ESTL", "ESUP", "ESUT", "ETAD", "ETAR", "ETEB", "ETGG", "ETHA", "ETHB", "ETHC", "ETHF", "ETHL", "ETHN", "ETHS", "ETIC", "ETIK", "ETMN", "ETNH", "ETNL", "ETNN", "ETNS", "ETNT", "ETNW", "ETOU", "ETSB", "ETSH", "ETSI", "ETSL", "ETSN", "ETWM", "EVGA", "EVLA", "EVRA", "EVVA", "EYKA", "EYPA", "EYSA", "EYVI", "FABL", "FACT", "FAEL", "FAGG", "FAHS", "FAJB", "FAKM", "FAKN", "FALA", "FALE", "FALW", "FAMM", "FAOR", "FAPE", "FAPN", "FAPP", "FAUP", "FAUT", "FAVV", "FAWB", "FBKE", "FBMN", "FBPM", "FBSK", "FDBB", "FDMY", "FDPP", "FDSK", "FDST", "FGSL", "FIMP", "FJDG", "FMCZ", "FMEE", "FMEP", "FMMI", "FMMT", "FMNA", "FMNM", "FMNN", "FMSD", "FNLU", "FOGM", "FOGO", "FOGR", "FOOG", "FOOL", "FOON", "FQBR", "FQLC", "FQMA", "FQNC", "FQNP", "FQPB", "FQQL", "FQTT", "FQXA", "FSIA", "FTTA", "FTTC", "FTTJ", "FTTY", "FVFA", "FVJN", "FVKB", "FVRG", "FWCL", "FWKI", "FYGF", "FYWE", "FYWH", "FYWW", "GABS", "GAKD", "GBYD", "GCFV", "GCGM", "GCHI", "GCLA", "GCLP", "GCRR", "GCTS", "GCXO", "GECE", "GEML", "GFLL", "GGOV", "GLRB", "GMAD", "GMAG", "GMAT", "GMFB", "GMFF", "GMFK", "GMFM", "GMFO", "GMMB", "GMMC", "GMMD", "GMME", "GMMH", "GMMI", "GMML", "GMMN", "GMMW", "GMMX", "GMMZ", "GMTA", "GMTN", "GMTT", "GOBD", "GOGG", "GOGS", "GOOY", "GOSS", "GOTT", "GQNO", "GQPP", "GUCY", "GVAC", "GVBA", "GVNP", "GVSV", "HAAB", "HBBA", "HCMF", "HCMM", "HDAM", "HEAT", "HEAX", "HEBA", "HEBL", "HECA", "HECP", "HEGN", "HEIS", "HELX", "HEMA", "HEMM", "HEPS", "HERT", "HESG", "HESH", "HESN", "HESW", "HESX", "HKEL", "HKEM", "HKGA", "HKJK", "HKKI", "HKKT", "HKLO", "HKLU", "HKME", "HKML", "HKMO", "HKNI", "HKNK", "HKNW", "HKWJ", "HRYR", "HRZA", "HSSK", "HTAR", "HTBU", "HTDA", "HTDO", "HTIB", "HTIR", "HTKA", "HTKJ", "HTMG", "HTMP", "HTMT", "HTMU", "HTMW", "HTSO", "HTSU", "HTTB", "HTZA", "K04V", "K04W", "K05U", "K06C", "K06D", "K08D", "K0A0", "K0A9", "K0CO", "K0E0", "K0F2", "K0J4", "K0R0", "K0R4", "K0S9", "K0V4", "K0VG", "K10G", "K12N", "K13K", "K14Y", "K15M", "K17J", "K18A", "K19S", "K1A5", "K1A6", "K1A9", "K1AM", "K1AN", "K1BM", "K1BN", "K1BW", "K1CM", "K1CN", "K1CW", "K1D1", "K1DM", "K1EM", "K1EN", "K1EW", "K1F0", "K1FW", "K1GM", "K1GN", "K1H2", "K1HM", "K1HN", "K1HW", "K1IM", "K1IN", "K1IW", "K1JM", "K1JN", "K1JW", "K1KM", "K1KN", "K1LN", "K1LW", "K1M4", "K1M5", "K1MM", "K1MW", "K1NN", "K1NW", "K1OM", "K1ON", "K1OW", "K1P1", "K1R7", "K1R8", "K1S3", "K1S5", "K1U7", "K1V4", "K1YT", "K20U", "K20V", "K21D", "K22N", "K24A", "K24J", "K2A0", "K2C8", "K2D5", "K2DP", "K2G2", "K2G4", "K2G9", "K2I0", "K2IS", "K2J3", "K2J5", "K2J9", "K2M2", "K2P2", "K2R9", "K2V5", "K2V6", "K2W6", "K2WX", "K33N", "K33V", "K35A", "K36K", "K38S", "K3AU", "K3D2", "K3F3", "K3J7", "K3K3", "K3N8", "K3R7", "K3S8", "K3T5", "K3U3", "K40B", "K40U", "K41U", "K42J", "K46D", "K46U", "K48A", "K49A", "K4A6", "K4A9", "K4BM", "K4I3", "K4M9", "K4MR", "K4O4", "K4R5", "K4S1", "K4S2", "K4U6", "K4V0", "K4V1", "K54A", "K54J", "K57C", "K5A6", "K5C1", "K5H4", "K5R8", "K5SM", "K5T9", "K63S", "K65S", "K66R", "K6A1", "K6A2", "K6B0", "K6B9", "K6I2", "K6L4", "K6P9", "K6R3", "K6R6", "K6S0", "K6S2", "K6S8", "K74V", "K77S", "K79J", "K7BM", "K7L2", "K7W4", "K81R", "K82C", "K8A0", "K8A3", "K8B0", "K8D3", "K8T6", "K8W2", "K96D", "K9A5", "K9D7", "K9L2", "K9MN", "K9V9", "KA39", "KAAA", "KAAF", "KAAO", "KAAS", "KAAT", "KABE", "KABH", "KABI", "KABQ", "KABR", "KABY", "KACB", "KACK", "KACP", "KACQ", "KACT", "KACV", "KACY", "KACZ", "KADC", "KADF", "KADG", "KADH", "KADM", "KADS", "KADT", "KADU", "KADW", "KAEG", "KAEJ", "KAEL", "KAEX", "KAFF", "KAFJ", "KAFK", "KAFN", "KAFO", "KAFP", "KAFW", "KAGC", "KAGI", "KAGO", "KAGS", "KAHN", "KAHQ", "KAIA", "KAID", "KAIG", "KAIK", "KAIO", "KAIT", "KAIZ", "KAJG", "KAJO", "KAJR", "KAJZ", "KAKH", "KAKO", "KAKQ", "KAKR", "KALB", "KALI", "KALK", "KALM", "KALN", "KALO", "KALS", "KALW", "KAMA", "KAMG", "KAMN", "KAMW", "KANB", "KAND", "KANE", "KANJ", "KANK", "KANQ", "KANW", "KAOH", "KAOO", "KAPA", "KAPC", "KAPF", "KAPN", "KAPS", "KAPY", "KAQO", "KAQP", "KAQV", "KAQW", "KAQX", "KARA", "KARB", "KARG", "KARM", "KARR", "KART", "KARV", "KARW", "KASD", "KASE", "KASG", "KASH", "KASJ", "KASL", "KASN", "KAST", "KASW", "KASX", "KATA", "KATL", "KATP", "KATS", "KATT", "KATW", "KATY", "KAUG", "KAUH", "KAUM", "KAUN", "KAUO", "KAUS", "KAUW", "KAVC", "KAVK", "KAVL", "KAVP", "KAVQ", "KAVX", "KAWG", "KAWM", "KAWO", "KAXA", "KAXH", "KAXN", "KAXS", "KAXV", "KAXX", "KAYS", "KAZC", "KAZE", "KAZO", "KBAB", "KBAC", "KBAD", "KBAF", "KBAK", "KBAM", "KBAN", "KBAX", "KBAZ", "KBBB", "KBBD", "KBBG", "KBBP", "KBBW", "KBCB", "KBCE", "KBCK", "KBCR", "KBCT", "KBDE", "KBDG", "KBDH", "KBDL", "KBDN", "KBDR", "KBDU", "KBEA", "KBEC", "KBED", "KBEH", "KBFD", "KBFF", "KBFI", "KBFL", "KBFM", "KBFR", "KBGD", "KBGE", "KBGF", "KBGM", "KBGR", "KBHB", "KBHC", "KBHK", "KBHM", "KBID", "KBIE", "KBIF", "KBIH", "KBIL", "KBIS", "KBIV", "KBIX", "KBJC", "KBJI", "KBJJ", "KBKB", "KBKD", "KBKE", "KBKF", "KBKL", "KBKN", "KBKS", "KBKT", "KBKV", "KBKW", "KBKX", "KBLF", "KBLI", "KBLM", "KBLU", "KBLV", "KBMC", "KBMG", "KBMI", "KBML", "KBMQ", "KBMT", "KBNA", "KBNL", "KBNO", "KBNW", "KBOI", "KBOK", "KBOS", "KBOW", "KBPC", "KBPG", "KBPI", "KBPK", "KBPT", "KBQK", "KBQP", "KBQX", "KBRD", "KBRG", "KBRL", "KBRO", "KBRY", "KBTA", "KBTL", "KBTM", "KBTN", "KBTP", "KBTR", "KBTV", "KBUF", "KBUR", "KBUU", "KBUY", "KBVI", "KBVN", "KBVO", "KBVS", "KBVU", "KBVX", "KBVY", "KBWD", "KBWG", "KBWI", "KBWP", "KBWW", "KBXA", "KBXK", "KBYG", "KBYI", "KBYL", "KBYS", "KBYY", "KBZN", "KC09", "KC29", "KC35", "KC62", "KC65", "KC75", "KC83", "KC99", "KCAD", "KCAE", "KCAG", "KCAK", "KCAO", "KCAR", "KCAV", "KCBE", "KCBF", "KCBG", "KCBK", "KCBM", "KCCA", "KCCB", "KCCO", "KCCR", "KCCY", "KCDA", "KCDC", "KCDD", "KCDH", "KCDI", "KCDJ", "KCDN", "KCDR", "KCDS", "KCDW", "KCEC", "KCEF", "KCEU", "KCEW", "KCEY", "KCEZ", "KCFD", "KCFE", "KCFJ", "KCFS", "KCFV", "KCGC", "KCGE", "KCGF", "KCGI", "KCGS", "KCGZ", "KCHA", "KCHD", "KCHK", "KCHO", "KCHS", "KCIC", "KCID", "KCIN", "KCIR", "KCIU", "KCJR", "KCKB", "KCKC", "KCKF", "KCKI", "KCKM", "KCKN", "KCKP", "KCKV", "KCKZ", "KCLE", "KCLI", "KCLK", "KCLL", "KCLM", "KCLS", "KCLT", "KCLW", "KCMA", "KCMD", "KCMH", "KCMI", "KCMR", "KCMX", "KCMY", "KCNB", "KCNC", "KCNI", "KCNK", "KCNM", "KCNO", "KCNU", "KCNW", "KCNY", "KCOD", "KCOE", "KCOF", "KCOM", "KCON", "KCOQ", "KCOS", "KCOT", "KCOU", "KCPC", "KCPF", "KCPK", "KCPR", "KCPS", "KCPT", "KCPW", "KCQB", "KCQC", "KCQF", "KCQM", "KCQT", "KCQW", "KCQX", "KCRE", "KCRG", "KCRP", "KCRQ", "KCRS", "KCRW", "KCRX", "KCSG", "KCSM", "KCSQ", "KCSV", "KCTB", "KCTJ", "KCTY", "KCTZ", "KCUB", "KCUH", "KCUL", "KCUT", "KCVC", "KCVG", "KCVH", "KCVN", "KCVO", "KCVS", "KCVX", "KCWA", "KCWC", "KCWF", "KCWI", "KCWN", "KCWV", "KCXE", "KCXO", "KCXP", "KCXU", "KCXW", "KCXY", "KCYD", "KCYS", "KCZL", "KCZT", "KD07", "KD25", "KD39", "KD55", "KD57", "KD60", "KD73", "KD95", "KDAA", "KDAB", "KDAG", "KDAL", "KDAN", "KDAW", "KDAY", "KDBN", "KDBQ", "KDCA", "KDCM", "KDCU", "KDCY", "KDDC", "KDDH", "KDEC", "KDED", "KDEH", "KDEN", "KDEQ", "KDET", "KDEW", "KDFI", "KDFW", "KDGW", "KDHN", "KDHT", "KDIJ", "KDIK", "KDKK", "KDKR", "KDKX", "KDLF", "KDLH", "KDLL", "KDLN", "KDLO", "KDLP", "KDLS", "KDLZ", "KDMA", "KDMH", "KDMN", "KDMO", "KDMW", "KDNA", "KDNL", "KDNN", "KDNV", "KDOV", "KDPA", "KDPL", "KDQH", "KDRI", "KDRM", "KDRO", "KDRT", "KDSM", "KDSV", "KDTA", "KDTL", "KDTN", "KDTO", "KDTS", "KDTW", "KDUA", "KDUB", "KDUC", "KDUG", "KDUH", "KDUJ", "KDUX", "KDVK", "KDVL", "KDVN", "KDVO", "KDVP", "KDVT", "KDWA", "KDWH", "KDWU", "KDWX", "KDXR", "KDXX", "KDYA", "KDYB", "KDYL", "KDYR", "KDYS", "KDYT", "KDZB", "KDZJ", "KE11", "KE16", "KE38", "KE41", "KE42", "KEAN", "KEAR", "KEAT", "KEAU", "KEBA", "KEBG", "KEBS", "KECG", "KECP", "KECS", "KECU", "KEDC", "KEDE", "KEDJ", "KEDN", "KEDU", "KEDW", "KEED", "KEEN", "KEEO", "KEET", "KEFD", "KEFK", "KEFT", "KEGE", "KEGI", "KEGT", "KEGV", "KEHA", "KEHO", "KEHR", "KEIK", "KEKE", "KEKM", "KEKN", "KEKO", "KEKQ", "KEKS", "KEKX", "KEKY", "KELD", "KELK", "KELM", "KELN", "KELO", "KELP", "KELY", "KELZ", "KEMP", "KEMV", "KEND", "KENL", "KENV", "KENW", "KEOE", "KEOK", "KEPH", "KEQA", "KEQY", "KERI", "KERV", "KERY", "KESC", "KESF", "KESN", "KEST", "KETB", "KETC", "KETH", "KETN", "KEUF", "KEUG", "KEUL", "KEVB", "KEVM", "KEVU", "KEVV", "KEVW", "KEWB", "KEWK", "KEWN", "KEWR", "KEXX", "KEYE", "KEYF", "KEYW", "KEZF", "KEZM", "KEZP", "KEZS", "KEZZ", "KF00", "KF17", "KF44", "KF46", "KF70", "KFAF", "KFAM", "KFAR", "KFAT", "KFAY", "KFBG", "KFBL", "KFCI", "KFCM", "KFCS", "KFDK", "KFDR", "KFDW", "KFDY", "KFEP", "KFET", "KFFA", "KFFC", "KFFL", "KFFM", "KFFO", "KFFT", "KFFX", "KFFZ", "KFGN", "KFGX", "KFHB", "KFHR", "KFHU", "KFIG", "KFIN", "KFIT", "KFKA", "KFKL", "KFKN", "KFKR", "KFKS", "KFLD", "KFLG", "KFLL", "KFLO", "KFLP", "KFLY", "KFME", "KFMH", "KFMM", "KFMN", "KFMY", "KFNB", "KFNL", "KFNT", "KFOA", "KFOD", "KFOE", "KFOK", "KFOZ", "KFPK", "KFPR", "KFPY", "KFQD", "KFRG", "KFRH", "KFRI", "KFRM", "KFSD", "KFSE", "KFSI", "KFSK", "KFSM", "KFSO", "KFST", "KFSW", "KFTK", "KFTN", "KFTW", "KFTY", "KFUL", "KFVE", "KFVX", "KFWA", "KFWB", "KFWC", "KFWN", "KFWS", "KFXE", "KFXY", "KFYE", "KFYG", "KFYJ", "KFYM", "KFYV", "KFZG", "KFZY", "KGAD", "KGAF", "KGAG", "KGAI", "KGAO", "KGBD", "KGBG", "KGCC", "KGCD", "KGCK", "KGCM", "KGCN", "KGCY", "KGDA", "KGDB", "KGDJ", "KGDV", "KGED", "KGEG", "KGEU", "KGEV", "KGEY", "KGEZ", "KGFA", "KGFK", "KGFL", "KGGE", "KGGF", "KGGG", "KGGI", "KGGP", "KGGW", "KGHG", "KGHW", "KGIC", "KGIF", "KGJT", "KGKJ", "KGKT", "KGKY", "KGLD", "KGLE", "KGLH", "KGLR", "KGLS", "KGLW", "KGLY", "KGMJ", "KGMU", "KGNA", "KGNB", "KGNC", "KGNG", "KGNR", "KGNT", "KGNV", "KGOK", "KGON", "KGOO", "KGOP", "KGOV", "KGPC", "KGPH", "KGPI", "KGPM", "KGPT", "KGPZ", "KGRB", "KGRD", "KGRF", "KGRI", "KGRK", "KGRN", "KGRR", "KGRY", "KGSB", "KGSH", "KGSO", "KGSP", "KGTB", "KGTF", "KGTR", "KGTU", "KGUC", "KGUL", "KGUP", "KGUR", "KGUS", "KGUY", "KGVE", "KGVL", "KGVQ", "KGVT", "KGVW", "KGWB", "KGWO", "KGWR", "KGWW", "KGXA", "KGXF", "KGXY", "KGYB", "KGYF", "KGYH", "KGYI", "KGYL", "KGYR", "KGYY", "KGZL", "KGZN", "KGZS", "KH71", "KHAE", "KHAF", "KHAI", "KHAO", "KHBG", "KHBI", "KHBR", "KHBV", "KHCD", "KHCO", "KHCR", "KHDC", "KHDE", "KHDL", "KHDO", "KHEF", "KHEG", "KHEI", "KHEQ", "KHEY", "KHEZ", "KHFD", "KHFF", "KHFJ", "KHFY", "KHGR", "KHHF", "KHHG", "KHHR", "KHHW", "KHIE", "KHIF", "KHII", "KHIO", "KHJH", "KHJO", "KHKA", "KHKS", "KHKY", "KHLB", "KHLC", "KHLG", "KHLN", "KHLR", "KHLX", "KHMN", "KHMP", "KHMT", "KHMZ", "KHNB", "KHND", "KHNR", "KHNZ", "KHOB", "KHOE", "KHON", "KHOP", "KHOT", "KHOU", "KHPN", "KHPT", "KHQG", "KHQG", "KHQM", "KHQU", "KHQZ", "KHRF", "KHRI", "KHRJ", "KHRL", "KHRO", "KHRT", "KHRX", "KHSA", "KHSB", "KHSD", "KHSE", "KHSG", "KHSI", "KHSP", "KHST", "KHSV", "KHTH", "KHTL", "KHTS", "KHUA", "KHUF", "KHUL", "KHUM", "KHUT", "KHVE", "KHVN", "KHVR", "KHVS", "KHWD", "KHWO", "KHWV", "KHWY", "KHXD", "KHYA", "KHYI", "KHYR", "KHYS", "KHYW", "KHYX", "KHZD", "KHZE", "KHZR", "KHZX", "KHZY", "KI16", "KI19", "KI23", "KI35", "KI63", "KI67", "KI68", "KI69", "KI74", "KI75", "KIAB", "KIAD", "KIAG", "KIAH", "KIBM", "KICR", "KICT", "KIDA", "KIDI", "KIDP", "KIEN", "KIER", "KIFA", "KIFP", "KIGM", "KIGQ", "KIIB", "KIIY", "KIJD", "KIJX", "KIKG", "KIKK", "KIKT", "KIKV", "KIKW", "KILE", "KILG", "KILM", "KILN", "KIML", "KIMM", "KIMS", "KIMT", "KIND", "KINF", "KINJ", "KINK", "KINL", "KINS", "KINT", "KINW", "KIOB", "KIOW", "KIPJ", "KIPL", "KIPT", "KIRK", "KIRS", "KISM", "KISO", "KISP", "KISQ", "KISW", "KITH", "KITR", "KIUA", "KIWA", "KIWD", "KIWI", "KIXA", "KIXD", "KIYA", "KIZA", "KIZG", "KJAC", "KJAN", "KJAQ", "KJAS", "KJAU", "KJAX", "KJBR", "KJCA", "KJCT", "KJDD", "KJDN", "KJEF", "KJER", "KJES", "KJFK", "KJFX", "KJFZ", "KJHN", "KJHW", "KJKA", "KJKJ", "KJKL", "KJLN", "KJMR", "KJMS", "KJNX", "KJOT", "KJPX", "KJQF", "KJRB", "KJRO", "KJST", "KJSV", "KJSY", "KJTC", "KJVW", "KJVY", "KJWG", "KJWN", "KJWY", "KJXN", "KJYG", "KJYL", "KJYM", "KJYO", "KJYR", "KJZI", "KJZP", "KK62", "KK70", "KK82", "KKLS", "KKNB", "KKY8", "KL08", "KL18", "KL35", "KL52", "KLAA", "KLAF", "KLAL", "KLAM", "KLAN", "KLAR", "KLAS", "KLAW", "KLAX", "KLBB", "KLBE", "KLBF", "KLBL", "KLBO", "KLBT", "KLBX", "KLCG", "KLCH", "KLCI", "KLCK", "KLCQ", "KLDJ", "KLDM", "KLEB", "KLEE", "KLEW", "KLEX", "KLFI", "KLFK", "KLFT", "KLGA", "KLGB", "KLGC", "KLGD", "KLGF", "KLGU", "KLHB", "KLHM", "KLHQ", "KLHW", "KLHX", "KLHZ", "KLIC", "KLIT", "KLJF", "KLKR", "KLKU", "KLKV", "KLLJ", "KLLN", "KLLQ", "KLMO", "KLMS", "KLMT", "KLNA", "KLNC", "KLND", "KLNK", "KLNL", "KLNN", "KLNP", "KLNQ", "KLNR", "KLNS", "KLOL", "KLOM", "KLOR", "KLOT", "KLOU", "KLOZ", "KLPR", "KLQK", "KLRD", "KLRF", "KLRJ", "KLRO", "KLRU", "KLRY", "KLSE", "KLSF", "KLSV", "KLTS", "KLUA", "KLUD", "KLUF", "KLUG", "KLUK", "KLUL", "KLUM", "KLUV", "KLUX", "KLVJ", "KLVK", "KLVL", "KLVM", "KLVN", "KLWA", "KLWB", "KLWC", "KLWD", "KLWM", "KLWS", "KLWT", "KLWV", "KLXL", "KLXN", "KLXT", "KLXV", "KLXY", "KLYH", "KLYO", "KLYV", "KLZU", "KLZZ", "KM01", "KM02", "KM08", "KM19", "KM21", "KM30", "KM40", "KM54", "KM75", "KM91", "KMAF", "KMAI", "KMAN", "KMAO", "KMAW", "KMBG", "KMBL", "KMBO", "KMBS", "KMBT", "KMBY", "KMCB", "KMCC", "KMCD", "KMCE", "KMCF", "KMCI", "KMCJ", "KMCK", "KMCN", "KMCO", "KMCW", "KMCZ", "KMDD", "KMDH", "KMDQ", "KMDS", "KMDT", "KMDW", "KMDZ", "KMEB", "KMEH", "KMEI", "KMEM", "KMER", "KMEV", "KMEZ", "KMFD", "KMFE", "KMFI", "KMFR", "KMGC", "KMGE", "KMGG", "KMGJ", "KMGM", "KMGN", "KMGR", "KMGW", "KMGY", "KMHE", "KMHK", "KMHL", "KMHP", "KMHR", "KMHS", "KMHT", "KMHV", "KMIA", "KMIB", "KMIC", "KMIE", "KMIO", "KMIV", "KMIW", "KMJD", "KMJQ", "KMKC", "KMKE", "KMKG", "KMKJ", "KMKL", "KMKN", "KMKO", "KMKS", "KMKT", "KMKY", "KMLB", "KMLC", "KMLE", "KMLF", "KMLI", "KMLJ", "KMLP", "KMLS", "KMLT", "KMLU", "KMMH", "KMMI", "KMMK", "KMML", "KMMT", "KMMU", "KMMV", "KMNE", "KMNH", "KMNI", "KMNM", "KMNN", "KMNV", "KMNZ", "KMOB", "KMOD", "KMOP", "KMOT", "KMOX", "KMPO", "KMPR", "KMPV", "KMPZ", "KMQB", "KMQI", "KMQJ", "KMQS", "KMQW", "KMQY", "KMRB", "KMRC", "KMRF", "KMRH", "KMRJ", "KMRN", "KMRT", "KMRY", "KMSL", "KMSN", "KMSO", "KMSP", "KMSS", "KMSV", "KMSY", "KMTC", "KMTH", "KMTJ", "KMTN", "KMTO", "KMTP", "KMTV", "KMTW", "KMUO", "KMUT", "KMVE", "KMVH", "KMVL", "KMVN", "KMVY", "KMWA", "KMWC", "KMWH", "KMWK", "KMWL", "KMWM", "KMWN", "KMWO", "KMWT", "KMXF", "KMYF", "KMYJ", "KMYL", "KMYP", "KMYR", "KMYV", "KMYZ", "KMZH", "KMZZ", "KN03", "KN38", "KN60", "KN79", "KNAK", "KNBC", "KNBG", "KNCA", "KNDZ", "KNEW", "KNFE", "KNFG", "KNFL", "KNFW", "KNGP", "KNGU", "KNHK", "KNID", "KNIP", "KNJK", "KNJM", "KNJW", "KNKT", "KNKX", "KNLC", "KNMM", "KNOG", "KNOW", "KNOZ", "KNPA", "KNQA", "KNQI", "KNQX", "KNRB", "KNRN", "KNRS", "KNSE", "KNSI", "KNTD", "KNTU", "KNUC", "KNUI", "KNUQ", "KNUW", "KNXF", "KNXP", "KNY0", "KNYC", "KNYG", "KNYL", "KNZY", "KO05", "KO22", "KO32", "KO69", "KO86", "KOAJ", "KOAK", "KOBE", "KOCF", "KOCH", "KOCQ", "KOCW", "KODO", "KODX", "KOEB", "KOEL", "KOEO", "KOFF", "KOFK", "KOFP", "KOGA", "KOGB", "KOGD", "KOGS", "KOIC", "KOIN", "KOJA", "KOJC", "KOKB", "KOKC", "KOKK", "KOKM", "KOKV", "KOKZ", "KOLE", "KOLF", "KOLG", "KOLM", "KOLS", "KOLU", "KOLV", "KOLY", "KOLZ", "KOMA", "KOMH", "KOMK", "KOMN", "KONA", "KONL", "KONM", "KONO", "KONP", "KONT", "KONX", "KONZ", "KOOA", "KOPF", "KOPL", "KOPN", "KOQN", "KOQT", "KOQU", "KORB", "KORD", "KORE", "KORF", "KORG", "KORH", "KORK", "KORL", "KORS", "KOSA", "KOSC", "KOSH", "KOSU", "KOTG", "KOTH", "KOTM", "KOUN", "KOVE", "KOVL", "KOVS", "KOWA", "KOWB", "KOWD", "KOWI", "KOWP", "KOWX", "KOXB", "KOXC", "KOXD", "KOXI", "KOXR", "KOXV", "KOYM", "KOZA", "KOZR", "KOZS", "KOZW", "KP08", "KP28", "KP52", "KP53", "KP58", "KP59", "KP60", "KP68", "KP69", "KP92", "KPAE", "KPAH", "KPAM", "KPAN", "KPAO", "KPBF", "KPBG", "KPBH", "KPBI", "KPBX", "KPCD", "KPCM", "KPCW", "KPCZ", "KPDC", "KPDK", "KPDT", "KPDX", "KPEA", "KPEO", "KPEQ", "KPEX", "KPEZ", "KPGA", "KPGD", "KPGV", "KPHD", "KPHF", "KPHL", "KPHN", "KPHP", "KPHT", "KPHX", "KPIA", "KPIB", "KPIE", "KPIH", "KPIL", "KPIM", "KPIR", "KPIT", "KPJC", "KPKB", "KPKD", "KPKV", "KPLN", "KPLR", "KPLU", "KPMD", "KPMH", "KPMP", "KPMU", "KPMV", "KPNA", "KPNC", "KPNE", "KPNM", "KPNS", "KPO1", "KPOB", "KPOC", "KPOE", "KPOF", "KPOU", "KPOV", "KPOY", "KPPA", "KPPF", "KPPO", "KPPQ", "KPQI", "KPQL", "KPRB", "KPRC", "KPRG", "KPRN", "KPRO", "KPRS", "KPRX", "KPSC", "KPSF", "KPSK", "KPSM", "KPSN", "KPSO", "KPSP", "KPSX", "KPTB", "KPTD", "KPTK", "KPTN", "KPTS", "KPTT", "KPTV", "KPTW", "KPUB", "KPUC", "KPUJ", "KPUW", "KPVB", "KPVC", "KPVD", "KPVF", "KPVG", "KPVJ", "KPVU", "KPVW", "KPWA", "KPWC", "KPWD", "KPWG", "KPWK", "KPWM", "KPWT", "KPXE", "KPYM", "KPYX", "KPZQ", "KQAZ", "KQBL", "KQD3", "KQDG", "KQEI", "KQEJ", "KQEN", "KQEP", "KQEQ", "KQER", "KQES", "KQEV", "KQEW", "KQEY", "KQFB", "KQFT", "KQFU", "KQFV", "KQFW", "KQFX", "KQHY", "KQN3", "KQRH", "KQTZ", "KQVF", "KRAC", "KRAL", "KRAP", "KRAS", "KRAW", "KRBD", "KRBG", "KRBL", "KRBO", "KRBW", "KRCA", "KRCE", "KRCM", "KRCR", "KRCV", "KRCX", "KRCZ", "KRDD", "KRDG", "KRDK", "KRDM", "KRDR", "KRDU", "KREG", "KREO", "KRFD", "KRFI", "KRGA", "KRGK", "KRHI", "KRHP", "KRHV", "KRIC", "KRID", "KRIL", "KRIV", "KRIW", "KRKD", "KRKP", "KRKR", "KRKS", "KRKW", "KRLD", "KRME", "KRMG", "KRMN", "KRMY", "KRNC", "KRND", "KRNH", "KRNM", "KRNO", "KRNP", "KRNT", "KROA", "KROC", "KROG", "KROS", "KROW", "KROX", "KRPD", "KRPH", "KRPJ", "KRPX", "KRQB", "KRQE", "KRQO", "KRRT", "KRSL", "KRSN", "KRSP", "KRST", "KRSW", "KRTN", "KRTS", "KRUE", "KRUG", "KRUQ", "KRUT", "KRVF", "KRVJ", "KRVL", "KRVS", "KRWF", "KRWI", "KRWL", "KRWV", "KRXE", "KRYM", "KRYN", "KRYW", "KRYY", "KRZL", "KRZN", "KRZR", "KRZT", "KS21", "KS24", "KS25", "KS32", "KS33", "KS34", "KS39", "KS52", "KS59", "KS71", "KS85", "KSAA", "KSAC", "KSAD", "KSAF", "KSAN", "KSAR", "KSAT", "KSAV", "KSAW", "KSAZ", "KSBA", "KSBD", "KSBM", "KSBN", "KSBO", "KSBP", "KSBS", "KSBY", "KSCD", "KSCK", "KSCR", "KSCX", "KSDA", "KSDB", "KSDC", "KSDF", "KSDL", "KSDM", "KSDY", "KSEA", "KSEE", "KSEF", "KSEG", "KSEM", "KSEP", "KSEQ", "KSET", "KSEZ", "KSFB", "KSFF", "KSFM", "KSFO", "KSFQ", "KSFZ", "KSGF", "KSGH", "KSGJ", "KSGR", "KSGS", "KSGT", "KSGU", "KSHD", "KSHL", "KSHM", "KSHN", "KSHR", "KSHV", "KSIF", "KSIK", "KSIY", "KSJC", "KSJS", "KSJT", "KSJX", "KSKA", "KSKF", "KSKX", "KSLB", "KSLC", "KSLE", "KSLG", "KSLH", "KSLI", "KSLK", "KSLN", "KSLR", "KSMD", "KSME", "KSMF", "KSMN", "KSMO", "KSMP", "KSMQ", "KSMS", "KSMX", "KSNA", "KSNC", "KSNH", "KSNK", "KSNL", "KSNS", "KSNT", "KSNY", "KSOA", "KSOP", "KSOW", "KSPA", "KSPB", "KSPD", "KSPF", "KSPG", "KSPI", "KSPS", "KSPW", "KSQI", "KSQL", "KSRB", "KSRC", "KSRE", "KSRQ", "KSRR", "KSSC", "KSSF", "KSSI", "KSTC", "KSTE", "KSTF", "KSTJ", "KSTK", "KSTL", "KSTP", "KSTS", "KSUA", "KSUE", "KSUN", "KSUS", "KSUT", "KSUU", "KSUW", "KSUX", "KSUZ", "KSVC", "KSVE", "KSVH", "KSVN", "KSWF", "KSWO", "KSWW", "KSXK", "KSXS", "KSXU", "KSYF", "KSYI", "KSYN", "KSYR", "KSZL", "KSZT", "KSZY", "KT20", "KT35", "KT41", "KT69", "KT70", "KT74", "KT78", "KT82", "KT89", "KTAD", "KTAN", "KTAZ", "KTBN", "KTBR", "KTCC", "KTCL", "KTCM", "KTCS", "KTCY", "KTDF", "KTDR", "KTDZ", "KTEB", "KTEW", "KTEX", "KTFP", "KTGI", "KTHA", "KTHM", "KTHV", "KTIF", "KTIK", "KTIP", "KTIW", "KTIX", "KTKC", "KTKI", "KTKV", "KTKX", "KTLH", "KTMA", "KTMB", "KTMK", "KTMT", "KTNB", "KTNU", "KTOA", "KTOB", "KTOC", "KTOI", "KTOL", "KTOP", "KTOR", "KTPA", "KTPF", "KTPH", "KTPL", "KTQE", "KTQH", "KTQK", "KTQV", "KTRI", "KTRK", "KTRL", "KTRM", "KTSP", "KTTA", "KTTD", "KTTF", "KTTN", "KTTS", "KTUL", "KTUP", "KTUS", "KTVC", "KTVF", "KTVI", "KTVK", "KTVL", "KTVR", "KTVY", "KTWF", "KTWM", "KTWT", "KTXK", "KTXW", "KTYL", "KTYQ", "KTYR", "KTYS", "KTZR", "KU42", "KU55", "KU64", "KU68", "KU69", "KUAO", "KUBE", "KUCP", "KUCY", "KUDG", "KUES", "KUGN", "KUIL", "KUIN", "KUKF", "KUKI", "KUKL", "KUKT", "KULM", "KULS", "KUMP", "KUNI", "KUNO", "KUNU", "KUNV", "KUOX", "KUSE", "KUTA", "KUTS", "KUUU", "KUUV", "KUVA", "KUXL", "KUYF", "KUZA", "KVAD", "KVAF", "KVAY", "KVBG", "KVBT", "KVBW", "KVCB", "KVCT", "KVCV", "KVDF", "KVDI", "KVEL", "KVER", "KVES", "KVGC", "KVGT", "KVHN", "KVIH", "KVIS", "KVJI", "KVKS", "KVKY", "KVLD", "KVLL", "KVNC", "KVNW", "KVNY", "KVOA", "KVOK", "KVPC", "KVPS", "KVPZ", "KVQQ", "KVRB", "KVSF", "KVTA", "KVTI", "KVTN", "KVUJ", "KVUO", "KVVS", "KVVV", "KVWU", "KVYS", "KW22", "KW29", "KW40", "KW43", "KW63", "KW75", "KW78", "KW81", "KW99", "KWAL", "KWBF", "KWDG", "KWDR", "KWJF", "KWLD", "KWRB", "KWRI", "KWRL", "KWST", "KWVI", "KWVL", "KWWD", "KWWR", "KX07", "KX26", "KX60", "KXBP", "KXLL", "KXMR", "KXNA", "KXNO", "KXNX", "KXSA", "KXVG", "KXWA", "KY19", "KY23", "KY31", "KY49", "KY50", "KY51", "KY63", "KY70", "KYIP", "KYKM", "KYKN", "KYNG", "KZER", "KZPH", "KZZV", "LATI", "LBBG", "LBGO", "LBIA", "LBPD", "LBPG", "LBPL", "LBSF", "LBWN", "LCEN", "LCLK", "LCPH", "LCRA", "LDDU", "LDLO", "LDOS", "LDPL", "LDRI", "LDSP", "LDZA", "LDZD", "LEAB", "LEAG", "LEAL", "LEAM", "LEAO", "LEAS", "LEBA", "LEBB", "LEBG", "LEBL", "LEBR", "LEBT", "LEBZ", "LECH", "LECO", "LECV", "LEDA", "LEGE", "LEGR", "LEGT", "LEHC", "LEIB", "LEJR", "LELC", "LELL", "LELN", "LELO", "LEMD", "LEMG", "LEMH", "LEMI", "LEMO", "LEPA", "LEPP", "LERI", "LERS", "LERT", "LESA", "LESB", "LESO", "LEST", "LESU", "LETL", "LETO", "LETU", "LEVC", "LEVD", "LEVS", "LEVT", "LEVX", "LEXJ", "LEZG", "LEZL", "LFAC", "LFAQ", "LFAT", "LFBA", "LFBC", "LFBD", "LFBE", "LFBF", "LFBG", "LFBH", "LFBI", "LFBL", "LFBM", "LFBO", "LFBP", "LFBT", "LFBU", "LFBX", "LFBZ", "LFCK", "LFCR", "LFGA", "LFGJ", "LFHP", "LFJL", "LFJR", "LFKB", "LFKC", "LFKF", "LFKJ", "LFKS", "LFLB", "LFLC", "LFLH", "LFLL", "LFLN", "LFLP", "LFLS", "LFLU", "LFLV", "LFLW", "LFLX", "LFLY", "LFMC", "LFMD", "LFMH", "LFMI", "LFMK", "LFML", "LFMN", "LFMO", "LFMP", "LFMT", "LFMU", "LFMV", "LFMY", "LFOA", "LFOB", "LFOE", "LFOH", "LFOJ", "LFOK", "LFOP", "LFOT", "LFOV", "LFOZ", "LFPB", "LFPG", "LFPM", "LFPN", "LFPO", "LFPT", "LFPV", "LFQA", "LFQB", "LFQG", "LFQQ", "LFRB", "LFRC", "LFRD", "LFRG", "LFRH", "LFRI", "LFRJ", "LFRK", "LFRL", "LFRM", "LFRN", "LFRO", "LFRQ", "LFRS", "LFRT", "LFRU", "LFRV", "LFRZ", "LFSB", "LFSD", "LFSG", "LFSI", "LFSL", "LFSM", "LFSN", "LFSO", "LFST", "LFSX", "LFTH", "LFTW", "LFVP", "LFYR", "LGAD", "LGAL", "LGAV", "LGBL", "LGEL", "LGHI", "LGIO", "LGIR", "LGKC", "LGKF", "LGKL", "LGKO", "LGKP", "LGKR", "LGKV", "LGKZ", "LGLM", "LGMK", "LGMT", "LGNX", "LGPA", "LGPZ", "LGRP", "LGRX", "LGSA", "LGSM", "LGSO", "LGSR", "LGTS", "LGZA", "LHBP", "LHDC", "LHKE", "LHPA", "LHPP", "LHPR", "LHSM", "LHSN", "LIBA", "LIBC", "LIBD", "LIBF", "LIBG", "LIBN", "LIBP", "LIBQ", "LIBR", "LIBV", "LIBY", "LICA", "LICB", "LICC", "LICD", "LICF", "LICG", "LICJ", "LICR", "LICT", "LICZ", "LIEA", "LIEB", "LIED", "LIEE", "LIEO", "LIMA", "LIMC", "LIME", "LIMF", "LIMG", "LIMJ", "LIMK", "LIML", "LIMP", "LIMS", "LIMU", "LIMW", "LIMZ", "LIPB", "LIPC", "LIPE", "LIPF", "LIPH", "LIPI", "LIPK", "LIPL", "LIPO", "LIPQ", "LIPR", "LIPS", "LIPU", "LIPX", "LIPY", "LIPZ", "LIQC", "LIQN", "LIRA", "LIRE", "LIRF", "LIRI", "LIRK", "LIRM", "LIRN", "LIRP", "LIRQ", "LIRS", "LIRT", "LIRU", "LIRV", "LIRX", "LIRZ", "LIVC", "LIVD", "LIVE", "LIVF", "LIVM", "LIVP", "LIVR", "LIVT", "LJCE", "LJLJ", "LJMB", "LJPZ", "LKCV", "LKKB", "LKKU", "LKKV", "LKLN", "LKMT", "LKNA", "LKPD", "LKPR", "LKTB", "LLBG", "LLER", "LLHA", "LLIB", "LMML", "LOAN", "LOAV", "LOWG", "LOWI", "LOWK", "LOWL", "LOWS", "LOWW", "LOXZ", "LPAZ", "LPBJ", "LPCS", "LPFL", "LPFR", "LPHR", "LPLA", "LPMA", "LPMR", "LPMT", "LPOV", "LPPD", "LPPR", "LPPS", "LPPT", "LQBK", "LQMO", "LQSA", "LQTZ", "LRAR", "LRBC", "LRBM", "LRBS", "LRCK", "LRCL", "LRCV", "LRIA", "LROD", "LROP", "LRSB", "LRSM", "LRSV", "LRTC", "LRTM", "LRTR", "LSGC", "LSGG", "LSGS", "LSMA", "LSMD", "LSME", "LSMM", "LSMP", "LSZA", "LSZB", "LSZC", "LSZG", "LSZH", "LSZL", "LSZR", "LSZS", "LTAC", "LTAE", "LTAF", "LTAG", "LTAI", "LTAJ", "LTAN", "LTAP", "LTAR", "LTAS", "LTAT", "LTAU", "LTAY", "LTAZ", "LTBA", "LTBD", "LTBF", "LTBH", "LTBJ", "LTBQ", "LTBR", "LTBS", "LTBU", "LTBY", "LTCA", "LTCB", "LTCC", "LTCD", "LTCE", "LTCF", "LTCG", "LTCI", "LTCJ", "LTCK", "LTCN", "LTCO", "LTCP", "LTCR", "LTCS", "LTCT", "LTCV", "LTCW", "LTDA", "LTFB", "LTFC", "LTFD", "LTFE", "LTFG", "LTFH", "LTFJ", "LTFM", "LTFO", "LUKK", "LWOH", "LWSK", "LXGB", "LYBE", "LYBT", "LYKV", "LYNI", "LYPG", "LYTV", "LYVR", "LZIB", "LZKZ", "LZPP", "LZTT", "LZZI", "MBGT", "MBPV", "MDAB", "MDBH", "MDCY", "MDJB", "MDLR", "MDPC", "MDPP", "MDSD", "MDST", "MGCB", "MGES", "MGGT", "MGHT", "MGMM", "MGMT", "MGPB", "MGQZ", "MGRT", "MGTU", "MGZA", "MHCA", "MHCH", "MHGS", "MHLC", "MHLE", "MHLM", "MHNO", "MHPL", "MHPR", "MHRO", "MHSR", "MHTE", "MHTG", "MHTR", "MHYR", "MKJP", "MKJS", "MMAA", "MMAN", "MMAS", "MMBT", "MMCB", "MMCE", "MMCL", "MMCM", "MMCN", "MMCP", "MMCS", "MMCU", "MMCV", "MMCZ", "MMDO", "MMEP", "MMGM", "MMHO", "MMIA", "MMLM", "MMLO", "MMLP", "MMLT", "MMMA", "MMMD", "MMML", "MMMM", "MMMT", "MMMV", "MMMX", "MMMY", "MMMZ", "MMNL", "MMOX", "MMPA", "MMPB", "MMPG", "MMPN", "MMPQ", "MMPR", "MMPS", "MMQT", "MMRX", "MMSD", "MMSL", "MMSM", "MMSP", "MMTC", "MMTG", "MMTJ", "MMTM", "MMTO", "MMTP", "MMUN", "MMVA", "MMVR", "MMZC", "MMZH", "MMZO", "MNBL", "MNCH", "MNJG", "MNJU", "MNMG", "MNPC", "MNRS", "MPDA", "MPMG", "MPPA", "MPSM", "MPTO", "MRLB", "MRLM", "MROC", "MRPV", "MSAC", "MSLP", "MSSA", "MSSM", "MSSS", "MTPP", "MUCC", "MUCF", "MUCL", "MUCM", "MUCU", "MUGM", "MUHA", "MUHG", "MUSC", "MUVR", "MWCB", "MWCR", "MYEM", "MYGF", "MYNN", "MYSM", "MZBZ", "NCAI", "NCAT", "NCMG", "NCMH", "NCMK", "NCMR", "NCNS", "NCPK", "NCPL", "NCPY", "NCRG", "NCRK", "NCSW", "NFFN", "NFNA", "NFTF", "NFTV", "NGFU", "NGTA", "NIUE", "NLWW", "NSFA", "NSTU", "NTAA", "NWWW", "NZAA", "NZCH", "NZCM", "NZWN", "OBBI", "OEAB", "OEAH", "OEAO", "OEBA", "OEBH", "OEDF", "OEDM", "OEDR", "OEGN", "OEGS", "OEGT", "OEHL", "OEJB", "OEJN", "OEKJ", "OEKM", "OEMA", "OEMN", "OENG", "OEPA", "OEPS", "OERF", "OERK", "OERR", "OESH", "OESK", "OETB", "OETF", "OETR", "OEWD", "OEWJ", "OEYN", "OIAA", "OIAG", "OIAH", "OIAI", "OIAM", "OIAW", "OIBA", "OIBB", "OIBH", "OIBK", "OIBL", "OIBP", "OIBQ", "OIBS", "OIBV", "OICC", "OICI", "OICJ", "OICK", "OICM", "OICS", "OIFK", "OIFM", "OIFS", "OIGG", "OIGK", "OIHH", "OIHM", "OIIE", "OIII", "OIIK", "OIIP", "OIKB", "OIKK", "OIKO", "OIKQ", "OIMB", "OIMC", "OIMD", "OIMJ", "OIMM", "OIMN", "OIMQ", "OIMS", "OINB", "OINE", "OING", "OINK", "OINN", "OINR", "OINZ", "OISA", "OISF", "OISL", "OISR", "OISS", "OISY", "OITK", "OITL", "OITM", "OITP", "OITR", "OITT", "OITZ", "OIYY", "OIZB", "OIZC", "OIZH", "OIZI", "OIZJ", "OJAI", "OJAM", "OJAQ", "OKAS", "OKKK", "OLBA", "OMAA", "OMAD", "OMAL", "OMDB", "OMDW", "OMFJ", "OMRK", "OMSJ", "OOAD", "OODQ", "OOKB", "OOMS", "OOSA", "OPFA", "OPIS", "OPKC", "OPLA", "OPMT", "OPNH", "OPPS", "OPSK", "OPST", "ORBI", "ORER", "ORMM", "ORNI", "ORSU", "OSDI", "OSLK", "OTBD", "OTBH", "OTHH", "PAAD", "PAAK", "PAAQ", "PABA", "PABE", "PABI", "PABL", "PABR", "PABT", "PABV", "PACD", "PACV", "PACZ", "PADK", "PADL", "PADM", "PADQ", "PADU", "PAED", "PAEG", "PAEH", "PAEI", "PAEN", "PAFA", "PAFB", "PAFE", "PAFM", "PAFR", "PAFS", "PAGK", "PAGL", "PAGM", "PAGN", "PAGS", "PAGY", "PAHL", "PAHN", "PAHO", "PAHX", "PAHY", "PAIG", "PAIK", "PAIL", "PAIM", "PAIW", "PAJC", "PAJN", "PAJZ", "PAKF", "PAKH", "PAKI", "PAKN", "PAKP", "PAKT", "PAKU", "PAKV", "PAKW", "PALG", "PALH", "PALP", "PALU", "PAMB", "PAMC", "PAMD", "PAMH", "PAMK", "PAMM", "PAMO", "PAMR", "PANA", "PANC", "PANI", "PANV", "PANW", "PAOH", "PAOM", "PAOO", "PAOR", "PAOT", "PAOU", "PAPB", "PAPG", "PAPH", "PAPM", "PAPN", "PAPO", "PAQT", "PARC", "PART", "PASC", "PASD", "PASI", "PASK", "PASL", "PASM", "PASN", "PASO", "PASV", "PASX", "PASY", "PATA", "PATC", "PATE", "PATK", "PATL", "PATO", "PATQ", "PAUN", "PAVC", "PAVD", "PAVL", "PAWD", "PAWG", "PAWI", "PAWM", "PAWS", "PAYA", "PAZK", "PFCL", "PFEL", "PFKT", "PFNO", "PFSH", "PFWS", "PFYU", "PGSN", "PGUA", "PGUM", "PHBK", "PHHI", "PHJR", "PHKO", "PHLI", "PHMK", "PHNG", "PHNL", "PHNY", "PHOG", "PHSF", "PHTO", "PKMR", "PKWA", "PLCH", "PMDY", "PPIZ", "PTKK", "PTTP", "PTYA", "PWAK", "RCFN", "RCKH", "RCMQ", "RCNN", "RCSS", "RCTP", "RJAA", "RJAH", "RJBB", "RJBE", "RJCC", "RJDB", "RJFF", "RJFM", "RJFO", "RJFR", "RJFS", "RJGG", "RJKA", "RJKI", "RJNK", "RJOA", "RJOH", "RJOI", "RJOK", "RJOO", "RJOS", "RJSM", "RJTT", "RJTY", "RKJB", "RKJK", "RKNY", "RKPC", "RKPK", "RKSG", "RKSI", "RKSM", "RKSO", "RKSS", "RKTN", "RKTU", "ROAH", "RODE", "RODN", "ROIG", "ROMD", "ROMY", "RORK", "RORS", "RORT", "RORY", "ROTM", "ROYN", "RPLB", "RPLC", "RPLL", "RPMD", "RPVM", "SAAR", "SABE", "SACO", "SADF", "SAEZ", "SAME", "SANT", "SAOC", "SARC", "SARE", "SARF", "SARI", "SARL", "SARP", "SASA", "SASJ", "SAVC", "SAWE", "SAWG", "SAWH", "SAZM", "SAZN", "SAZS", "SBAF", "SBAN", "SBAR", "SBAT", "SBAU", "SBBE", "SBBG", "SBBH", "SBBI", "SBBQ", "SBBR", "SBBU", "SBBV", "SBBW", "SBCA", "SBCB", "SBCC", "SBCF", "SBCG", "SBCH", "SBCJ", "SBCO", "SBCP", "SBCR", "SBCT", "SBCX", "SBCY", "SBCZ", "SBDN", "SBEG", "SBES", "SBFI", "SBFL", "SBFN", "SBFS", "SBFZ", "SBGL", "SBGM", "SBGO", "SBGR", "SBGW", "SBHT", "SBIH", "SBIL", "SBIP", "SBIZ", "SBJP", "SBJR", "SBJU", "SBJV", "SBKG", "SBKP", "SBLE", "SBLO", "SBLS", "SBMA", "SBME", "SBMG", "SBMK", "SBML", "SBMN", "SBMO", "SBMQ", "SBMS", "SBMT", "SBMY", "SBNF", "SBNT", "SBOI", "SBPA", "SBPB", "SBPF", "SBPJ", "SBPK", "SBPL", "SBPP", "SBPS", "SBPV", "SBRB", "SBRF", "SBRJ", "SBRP", "SBSC", "SBSG", "SBSJ", "SBSL", "SBSM", "SBSN", "SBSP", "SBSR", "SBST", "SBSV", "SBTA", "SBTC", "SBTE", "SBTF", "SBTT", "SBTU", "SBUA", "SBUL", "SBUR", "SBUY", "SBVH", "SBVT", "SBYS", "SCAP", "SCAR", "SCAT", "SCBA", "SCCF", "SCCH", "SCCI", "SCCY", "SCDA", "SCEL", "SCFA", "SCFM", "SCFT", "SCGE", "SCHR", "SCIC", "SCIE", "SCIP", "SCIR", "SCJO", "SCMK", "SCNT", "SCON", "SCPD", "SCPQ", "SCQP", "SCRD", "SCRG", "SCRM", "SCSE", "SCSN", "SCTB", "SCTE", "SCTN", "SCVD", "SCVM", "SECA", "SECO", "SECU", "SEGS", "SEGU", "SEGZ", "SEJD", "SELT", "SEMC", "SEMT", "SENL", "SEQM", "SERO", "SESA", "SESM", "SEST", "SETN", "SGAS", "SGEN", "SGES", "SKAR", "SKBG", "SKBO", "SKBQ", "SKCC", "SKCG", "SKCL", "SKEJ", "SKIB", "SKIP", "SKLC", "SKLT", "SKMD", "SKMR", "SKMZ", "SKNV", "SKPC", "SKPE", "SKPS", "SKPV", "SKRG", "SKRH", "SKSM", "SKSP", "SKUC", "SKUI", "SKVP", "SKVV", "SLAL", "SLCB", "SLCO", "SLET", "SLLP", "SLSA", "SLTR", "SLVR", "SMJP", "SMZO", "SOCA", "SPCL", "SPHI", "SPHO", "SPJC", "SPJJ", "SPJR", "SPME", "SPMS", "SPNC", "SPQT", "SPQU", "SPRU", "SPSO", "SPST", "SPTN", "SPTU", "SPUR", "SPYL", "SPZO", "SUAA", "SUCA", "SUDU", "SULS", "SUMU", "SUSO", "SVBC", "SVBI", "SVBM", "SVBS", "SVCB", "SVCS", "SVFM", "SVGD", "SVGU", "SVJM", "SVLO", "SVMC", "SVMG", "SVMI", "SVMT", "SVPA", "SVPR", "SVSA", "SVSR", "SVVA", "SVVL", "SYCJ", "TAPA", "TBPB", "TDCF", "TDPD", "TFFF", "TFFR", "TGPY", "TIST", "TISX", "TJBQ", "TJIG", "TJNR", "TJPS", "TJSJ", "TKPK", "TLPC", "TLPL", "TNCA", "TNCB", "TNCC", "TNCE", "TNCM", "TQPF", "TRPG", "TTCP", "TTPP", "TUPJ", "TVSA", "TXKF", "UAAA", "UACC", "UACP", "UADD", "UAII", "UAIT", "UAKD", "UAKK", "UAOO", "UARR", "UASK", "UASP", "UATE", "UATG", "UATT", "UAUU", "UBBB", "UBBF", "UBBG", "UBBL", "UBBN", "UBBQ", "UBBY", "UBBZ", "UBEE", "UCFL", "UCFM", "UCFO", "UDSG", "UDYZ", "UEEE", "UERP", "UERR", "UGAM", "UGKO", "UGMS", "UGSB", "UGTB", "UHBB", "UHHH", "UHMA", "UHMM", "UHPP", "UHSS", "UHWW", "UIAA", "UIBB", "UIII", "UIUU", "ULAA", "ULLI", "ULMM", "ULOO", "ULPB", "ULWC", "UMBB", "UMGG", "UMII", "UMIO", "UMKK", "UMMG", "UMMS", "UMOO", "UNAA", "UNBB", "UNEE", "UNKL", "UNNT", "UNOO", "UNTT", "UNWW", "UOOO", "URKA", "URKK", "URMG", "URML", "URMM", "URMN", "URMO", "URMT", "URRP", "URSS", "URWA", "URWI", "URWW", "USCC", "USCM", "USDA", "USHH", "USNN", "USPP", "USRR", "USSS", "USTR", "UTAA", "UTAK", "UTAM", "UTAT", "UTAV", "UTDD", "UTDK", "UTDL", "UTDT", "UTFF", "UTFN", "UTNN", "UTNU", "UTO8", "UTSA", "UTSB", "UTSK", "UTSS", "UTST", "UTTT", "UUBC", "UUBP", "UUBW", "UUDD", "UUDL", "UUEE", "UUMO", "UUOB", "UUOK", "UUOL", "UUOO", "UUWW", "UUYY", "UWGG", "UWKD", "UWKE", "UWKS", "UWLL", "UWLW", "UWOO", "UWOR", "UWPS", "UWSG", "UWUU", "UWWW", "VAAH", "VABB", "VABO", "VABP", "VAID", "VAJB", "VANP", "VAOZ", "VASD", "VASU", "VAUD", "VCBI", "VCRI", "VDPP", "VDSR", "VDSV", "VEAT", "VEBN", "VEBS", "VECC", "VEDG", "VEGT", "VEGY", "VEJH", "VEKI", "VELR", "VEPT", "VERC", "VERP", "VGHS", "VHHH", "VIAR", "VIDN", "VIDP", "VIJP", "VILK", "VLVT", "VMMC", "VNKT", "VOAR", "VOBG", "VOBL", "VOBM", "VOBZ", "VOCB", "VOCI", "VOCL", "VOGA", "VOGO", "VOHB", "VOHS", "VOHY", "VOKN", "VOMD", "VOML", "VOMM", "VOMY", "VOPB", "VORY", "VOTP", "VOTR", "VOTV", "VOVZ", "VRMG", "VRMH", "VRMM", "VTBD", "VTBS", "VTBU", "VTCC", "VTCL", "VTCN", "VTCT", "VTPP", "VTSB", "VTSF", "VTSG", "VTSM", "VTSP", "VTSS", "VTST", "VTUD", "VTUI", "VTUK", "VTUO", "VTUQ", "VTUU", "VTUV", "VTUW", "VVCI", "VVCR", "VVCT", "VVDN", "VVNB", "VVPB", "VVPQ", "VVTS", "VVVD", "VYMD", "VYYY", "WAAA", "WABB", "WADD", "WADL", "WAHS", "WAJJ", "WALL", "WAMM", "WAOO", "WAPP", "WARR", "WBGB", "WBGG", "WBGR", "WBGS", "WBGY", "WBKK", "WBKL", "WBKS", "WBKT", "WBKW", "WBSB", "WIDD", "WIEE", "WIHH", "WIII", "WILL", "WIMM", "WIOO", "WIPP", "WMAU", "WMBA", "WMKA", "WMKB", "WMKC", "WMKD", "WMKE", "WMKI", "WMKJ", "WMKK", "WMKL", "WMKM", "WMKN", "WMKP", "WMSA", "WSAP", "WSSL", "WSSS", "YAMB", "YBAS", "YBBN", "YBCG", "YBCS", "YBHM", "YBLN", "YBMA", "YBRK", "YBRM", "YBSU", "YBTL", "YBWW", "YCFS", "YCIN", "YFRT", "YGEL", "YGLA", "YHID", "YLHI", "YMAV", "YMHB", "YMLT", "YMML", "YPAD", "YPCC", "YPDN", "YPEA", "YPGV", "YPJT", "YPKG", "YPKU", "YPLM", "YPPD", "YPPH", "YPTN", "YPWR", "YPXM", "YSCB", "YSDU", "YSNF", "YSRI", "YSSY", "YSTW", "YWLM", "ZBAA", "ZBAD", "ZBHH", "ZBSJ", "ZBTJ", "ZBYN", "ZGGG", "ZGHA", "ZGKL", "ZGNN", "ZGOW", "ZGSZ", "ZHCC", "ZHHH", "ZJHK", "ZJSY", "ZLLL", "ZLXY", "ZMCK", "ZMUB", "ZPPP", "ZSAM", "ZSFZ", "ZSHC", "ZSNB", "ZSNJ", "ZSOF", "ZSPD", "ZSQD", "ZSSS", "ZUCK", "ZUGY", "ZUTF", "ZUUU", "ZWSH", "ZWWW", "ZYCC", "ZYHB", "ZYTL", "ZYTX"], "observation_time": ["2023-04-09T13:00:00Z", "2023-04-09T14:00:00Z", "2023-04-09T13:50:00Z", "2023-04-09T13:50:00Z", "2023-04-09T13:50:00Z", "2023-04-09T13:50:00Z", "2023-04-09T13:50:00Z", "2023-04-09T13:55:00Z", "2023-04-09T14:00:00Z", "2023-04-09T14:00:00Z", "2023-04-09T14:00:00Z", "2023-04-09T14:00:00Z", "2023-04-09T14:00:00Z", "2023-04-09T14:00:00Z", "2023-04-09T13:00:00Z", "2023-04-09T14:00:00Z", "2023-04-09T14:00:00Z", "2023-04-09T13:00:00Z", "2023-04-09T13:00:00Z", "2023-04-09T13:00:00Z", "2023-04-09T13:00:00Z", "2023-04-09T13:00:00Z", "2023-04-09T13:00:00Z", "2023-04-09T14:00:00Z", "2023-04-09T13:00:00Z", "2023-04-09T13:00:00Z", "2023-04-09T13:00:00Z", "2023-04-09T13:00:00Z", "2023-04-09T13:00:00Z", "2023-04-09T13:00:00Z", "2023-04-09T13:00:00Z", "2023-04-09T13:00:00Z", "2023-04-09T14:00:00Z", "2023-04-09T13:00:00Z", "2023-04-09T13:00:00Z", "2023-04-09T13:00:00Z", "2023-04-09T13:00:00Z", "2023-04-09T13:00:00Z", "2023-04-09T13:00:00Z", "2023-04-09T13:00:00Z", "2023-04-09T13:00:00Z", "2023-04-09T13:00:00Z", "2023-04-09T13:00:00Z", "2023-04-09T13:00:00Z", "2023-04-09T13:00:00Z", "2023-04-09T13:00:00Z", "2023-04-09T13:00:00Z", "2023-04-09T13:00:00Z", "2023-04-09T13:00:00Z", "2023-04-09T13:00:00Z", "2023-04-09T13:00:00Z", "2023-04-09T13:00:00Z", "2023-04-09T13:00:00Z", "2023-04-09T13:00:00Z", "2023-04-09T13:00:00Z", "2023-04-09T13:00:00Z", "2023-04-09T13:00:00Z", "2023-04-09T13:00:00Z", "2023-04-09T13:00:00Z", "2023-04-09T13:00:00Z", "2023-04-09T13:00:00Z", "2023-04-09T13:00:00Z", "2023-04-09T13:00:00Z", "2023-04-09T13:00:00Z", "2023-04-09T13:00:00Z", "2023-04-09T13:00:00Z", "2023-04-09T13:00:00Z", "2023-04-09T13:00:00Z", "2023-04-09T13:00:00Z", "2023-04-09T14:00:00Z", "2023-04-09T13:00:00Z", "2023-04-09T13:00:00Z", "2023-04-09T14:00:00Z", "2023-04-09T13:00:00Z", "2023-04-09T13:00:00Z", "2023-04-09T13:00:00Z", "2023-04-09T13:00:00Z", "2023-04-09T13:00:00Z", "2023-04-09T13:00:00Z", "2023-04-09T13:00:00Z", "2023-04-09T13:00:00Z", "2023-04-09T13:00:00Z", "2023-04-09T13:00:00Z", "2023-04-09T13:00:00Z", "2023-04-09T13:00:00Z", "2023-04-09T13:00:00Z", "2023-04-09T13:00:00Z", "2023-04-09T13:00:00Z", "2023-04-09T13:00:00Z", "2023-04-09T13:00:00Z", "2023-04-09T13:00:00Z", "2023-04-09T13:00:00Z", "2023-04-09T13:00:00Z", "2023-04-09T13:00:00Z", "2023-04-09T13:00:00Z", "2023-04-09T13:00:00Z", "2023-04-09T13:00:00Z", "2023-04-09T14:00:00Z", "2023-04-09T13:00:00Z", "2023-04-09T13:00:00Z", "2023-04-09T13:00:00Z", "2023-04-09T13:00:00Z", "2023-04-09T13:00:00Z", "2023-04-09T13:00:00Z", "2023-04-09T13:00:00Z", "2023-04-09T13:00:00Z", "2023-04-09T13:00:00Z", "2023-04-09T13:00:00Z", "2023-04-09T13:00:00Z", "2023-04-09T13:00:00Z", "2023-04-09T13:00:00Z", "2023-04-09T13:00:00Z", "2023-04-09T13:00:00Z", "2023-04-09T13:00:00Z", "2023-04-09T13:00:00Z", "2023-04-09T13:00:00Z", "2023-04-09T13:00:00Z", "2023-04-09T13:00:00Z", "2023-04-09T14:00:00Z", "2023-04-09T13:00:00Z", "2023-04-09T13:00:00Z", "2023-04-09T13:00:00Z", "2023-04-09T13:00:00Z", "2023-04-09T13:00:00Z", "2023-04-09T13:00:00Z", "2023-04-09T13:00:00Z", "2023-04-09T13:00:00Z", "2023-04-09T14:00:00Z", "2023-04-09T14:00:00Z", "2023-04-09T13:00:00Z", "2023-04-09T13:00:00Z", "2023-04-09T13:00:00Z", "2023-04-09T13:00:00Z", "2023-04-09T13:00:00Z", "2023-04-09T13:00:00Z", "2023-04-09T13:08:00Z", "2023-04-09T13:00:00Z", "2023-04-09T13:00:00Z", "2023-04-09T13:00:00Z", "2023-04-09T13:00:00Z", "2023-04-09T13:00:00Z", "2023-04-09T13:00:00Z", "2023-04-09T13:00:00Z", "2023-04-09T14:00:00Z", "2023-04-09T13:00:00Z", "2023-04-09T13:00:00Z", "2023-04-09T13:00:00Z", "2023-04-09T13:00:00Z", "2023-04-09T13:00:00Z", "2023-04-09T13:00:00Z", "2023-04-09T13:45:00Z", "2023-04-09T13:00:00Z", "2023-04-09T13:00:00Z", "2023-04-09T13:00:00Z", "2023-04-09T13:00:00Z", "2023-04-09T13:00:00Z", "2023-04-09T13:00:00Z", "2023-04-09T13:00:00Z", "2023-04-09T13:00:00Z", "2023-04-09T13:00:00Z", "2023-04-09T13:00:00Z", "2023-04-09T13:00:00Z", "2023-04-09T13:00:00Z", "2023-04-09T13:00:00Z", "2023-04-09T13:00:00Z", "2023-04-09T13:00:00Z", "2023-04-09T13:00:00Z", "2023-04-09T13:00:00Z", "2023-04-09T13:00:00Z", "2023-04-09T13:00:00Z", "2023-04-09T13:00:00Z", "2023-04-09T13:00:00Z", "2023-04-09T14:00:00Z", "2023-04-09T13:00:00Z", "2023-04-09T13:00:00Z", "2023-04-09T13:00:00Z", "2023-04-09T13:00:00Z", "2023-04-09T13:00:00Z", "2023-04-09T13:00:00Z", "2023-04-09T13:00:00Z", "2023-04-09T13:00:00Z", "2023-04-09T13:00:00Z", "2023-04-09T14:00:00Z", "2023-04-09T13:00:00Z", "2023-04-09T13:00:00Z", "2023-04-09T13:00:00Z", "2023-04-09T13:00:00Z", "2023-04-09T13:00:00Z", "2023-04-09T13:00:00Z", "2023-04-09T14:00:00Z", "2023-04-09T13:00:00Z", "2023-04-09T13:00:00Z", "2023-04-09T13:00:00Z", "2023-04-09T13:00:00Z", "2023-04-09T13:00:00Z", "2023-04-09T13:00:00Z", "2023-04-09T13:00:00Z", "2023-04-09T13:00:00Z", "2023-04-09T13:00:00Z", "2023-04-09T13:00:00Z", "2023-04-09T13:00:00Z", "2023-04-09T13:00:00Z", "2023-04-09T13:00:00Z", "2023-04-09T13:00:00Z", "2023-04-09T13:00:00Z", "2023-04-09T13:00:00Z", "2023-04-09T13:00:00Z", "2023-04-09T13:00:00Z", "2023-04-09T13:00:00Z", "2023-04-09T13:00:00Z", "2023-04-09T13:00:00Z", "2023-04-09T13:00:00Z", "2023-04-09T13:00:00Z", "2023-04-09T13:00:00Z", "2023-04-09T13:00:00Z", "2023-04-09T13:00:00Z", "2023-04-09T13:00:00Z", "2023-04-09T13:00:00Z", "2023-04-09T13:00:00Z", "2023-04-09T13:00:00Z", "2023-04-09T14:00:00Z", "2023-04-09T13:00:00Z", "2023-04-09T13:00:00Z", "2023-04-09T13:00:00Z", "2023-04-09T13:00:00Z", "2023-04-09T13:00:00Z", "2023-04-09T13:00:00Z", "2023-04-09T13:00:00Z", "2023-04-09T13:00:00Z", "2023-04-09T13:00:00Z", "2023-04-09T13:00:00Z", "2023-04-09T13:00:00Z", "2023-04-09T13:00:00Z", "2023-04-09T13:00:00Z", "2023-04-09T13:00:00Z", "2023-04-09T13:00:00Z", "2023-04-09T13:00:00Z", "2023-04-09T13:00:00Z", "2023-04-09T13:00:00Z", "2023-04-09T13:00:00Z", "2023-04-09T13:00:00Z", "2023-04-09T13:00:00Z", "2023-04-09T13:00:00Z", "2023-04-09T13:00:00Z", "2023-04-09T13:00:00Z", "2023-04-09T13:00:00Z", "2023-04-09T13:00:00Z", "2023-04-09T13:00:00Z", "2023-04-09T13:00:00Z", "2023-04-09T13:00:00Z", "2023-04-09T13:00:00Z", "2023-04-09T13:00:00Z", "2023-04-09T13:00:00Z", "2023-04-09T13:00:00Z", "2023-04-09T13:00:00Z", "2023-04-09T13:00:00Z", "2023-04-09T13:00:00Z", "2023-04-09T13:00:00Z", "2023-04-09T13:00:00Z", "2023-04-09T13:00:00Z", "2023-04-09T13:00:00Z", "2023-04-09T13:00:00Z", "2023-04-09T13:00:00Z", "2023-04-09T13:00:00Z", "2023-04-09T13:00:00Z", "2023-04-09T13:00:00Z", "2023-04-09T13:00:00Z", "2023-04-09T13:00:00Z", "2023-04-09T13:00:00Z", "2023-04-09T13:00:00Z", "2023-04-09T13:00:00Z", "2023-04-09T13:00:00Z", "2023-04-09T13:00:00Z", "2023-04-09T13:00:00Z", "2023-04-09T13:00:00Z", "2023-04-09T13:00:00Z", "2023-04-09T13:00:00Z", "2023-04-09T13:00:00Z", "2023-04-09T13:00:00Z", "2023-04-09T13:00:00Z", "2023-04-09T13:00:00Z", "2023-04-09T13:00:00Z", "2023-04-09T13:00:00Z", "2023-04-09T13:00:00Z", "2023-04-09T13:00:00Z", "2023-04-09T13:00:00Z", "2023-04-09T13:00:00Z", "2023-04-09T13:00:00Z", "2023-04-09T13:00:00Z", "2023-04-09T13:00:00Z", "2023-04-09T13:00:00Z", "2023-04-09T13:00:00Z", "2023-04-09T13:00:00Z", "2023-04-09T13:00:00Z", "2023-04-09T13:00:00Z", "2023-04-09T13:00:00Z", "2023-04-09T13:00:00Z", "2023-04-09T13:00:00Z", "2023-04-09T13:00:00Z", "2023-04-09T14:00:00Z", "2023-04-09T14:00:00Z", "2023-04-09T14:00:00Z", "2023-04-09T14:00:00Z", "2023-04-09T14:00:00Z", "2023-04-09T14:00:00Z", "2023-04-09T14:00:00Z", "2023-04-09T14:00:00Z", "2023-04-09T14:00:00Z", "2023-04-09T14:00:00Z", "2023-04-09T14:00:00Z", "2023-04-09T14:00:00Z", "2023-04-09T14:00:00Z", "2023-04-09T14:00:00Z", "2023-04-09T14:00:00Z", "2023-04-09T14:00:00Z", "2023-04-09T14:00:00Z", "2023-04-09T14:00:00Z", "2023-04-09T13:00:00Z", "2023-04-09T14:00:00Z", "2023-04-09T14:00:00Z", "2023-04-09T14:00:00Z", "2023-04-09T14:00:00Z", "2023-04-09T14:00:00Z", "2023-04-09T14:00:00Z", "2023-04-09T14:00:00Z", "2023-04-09T14:00:00Z", "2023-04-09T14:00:00Z", "2023-04-09T14:00:00Z", "2023-04-09T14:00:00Z", "2023-04-09T14:00:00Z", "2023-04-09T14:00:00Z", "2023-04-09T14:00:00Z", "2023-04-09T14:00:00Z", "2023-04-09T14:00:00Z", "2023-04-09T14:00:00Z", "2023-04-09T14:00:00Z", "2023-04-09T14:00:00Z", "2023-04-09T14:00:00Z", "2023-04-09T14:00:00Z", "2023-04-09T14:00:00Z", "2023-04-09T14:00:00Z", "2023-04-09T14:00:00Z", "2023-04-09T14:00:00Z", "2023-04-09T14:00:00Z", "2023-04-09T14:00:00Z", "2023-04-09T14:00:00Z", "2023-04-09T14:00:00Z", "2023-04-09T14:00:00Z", "2023-04-09T14:00:00Z", "2023-04-09T14:00:00Z", "2023-04-09T14:00:00Z", "2023-04-09T13:00:00Z", "2023-04-09T14:00:00Z", "2023-04-09T14:00:00Z", "2023-04-09T14:00:00Z", "2023-04-09T14:00:00Z", "2023-04-09T13:00:00Z", "2023-04-09T14:00:00Z", "2023-04-09T14:00:00Z", "2023-04-09T14:00:00Z", "2023-04-09T14:00:00Z", "2023-04-09T14:00:00Z", "2023-04-09T14:00:00Z", "2023-04-09T14:00:00Z", "2023-04-09T14:00:00Z", "2023-04-09T14:00:00Z", "2023-04-09T14:00:00Z", "2023-04-09T13:03:00Z", "2023-04-09T14:00:00Z", "2023-04-09T14:00:00Z", "2023-04-09T14:00:00Z", "2023-04-09T14:00:00Z", "2023-04-09T14:00:00Z", "2023-04-09T14:00:00Z", "2023-04-09T14:00:00Z", "2023-04-09T14:00:00Z", "2023-04-09T14:00:00Z", "2023-04-09T14:00:00Z", "2023-04-09T14:00:00Z", "2023-04-09T14:00:00Z", "2023-04-09T14:00:00Z", "2023-04-09T14:00:00Z", "2023-04-09T14:00:00Z", "2023-04-09T14:00:00Z", "2023-04-09T14:00:00Z", "2023-04-09T14:00:00Z", "2023-04-09T14:00:00Z", "2023-04-09T14:00:00Z", "2023-04-09T14:00:00Z", "2023-04-09T14:00:00Z", "2023-04-09T14:00:00Z", "2023-04-09T14:00:00Z", "2023-04-09T14:00:00Z", "2023-04-09T14:00:00Z", "2023-04-09T14:00:00Z", "2023-04-09T14:00:00Z", "2023-04-09T14:00:00Z", "2023-04-09T14:00:00Z", "2023-04-09T14:00:00Z", "2023-04-09T14:00:00Z", "2023-04-09T14:00:00Z", "2023-04-09T14:00:00Z", "2023-04-09T14:00:00Z", "2023-04-09T14:00:00Z", "2023-04-09T14:00:00Z", "2023-04-09T14:00:00Z", "2023-04-09T14:00:00Z", "2023-04-09T14:00:00Z", "2023-04-09T14:00:00Z", "2023-04-09T14:00:00Z", "2023-04-09T14:00:00Z", "2023-04-09T14:00:00Z", "2023-04-09T14:00:00Z", "2023-04-09T14:00:00Z", "2023-04-09T14:00:00Z", "2023-04-09T14:00:00Z", "2023-04-09T14:00:00Z", "2023-04-09T14:00:00Z", "2023-04-09T14:00:00Z", "2023-04-09T14:00:00Z", "2023-04-09T14:00:00Z", "2023-04-09T14:00:00Z", "2023-04-09T14:00:00Z", "2023-04-09T14:00:00Z", "2023-04-09T14:00:00Z", "2023-04-09T14:00:00Z", "2023-04-09T14:00:00Z", "2023-04-09T14:00:00Z", "2023-04-09T14:00:00Z", "2023-04-09T14:00:00Z", "2023-04-09T14:00:00Z", "2023-04-09T14:00:00Z", "2023-04-09T14:00:00Z", "2023-04-09T14:00:00Z", "2023-04-09T14:00:00Z", "2023-04-09T14:00:00Z", "2023-04-09T14:00:00Z", "2023-04-09T14:00:00Z", "2023-04-09T14:00:00Z", "2023-04-09T14:00:00Z", "2023-04-09T14:00:00Z", "2023-04-09T14:00:00Z", "2023-04-09T14:00:00Z", "2023-04-09T14:00:00Z", "2023-04-09T14:00:00Z", "2023-04-09T14:00:00Z", "2023-04-09T14:00:00Z", "2023-04-09T14:00:00Z", "2023-04-09T14:00:00Z", "2023-04-09T14:00:00Z", "2023-04-09T14:00:00Z", "2023-04-09T14:00:00Z", "2023-04-09T14:00:00Z", "2023-04-09T14:00:00Z", "2023-04-09T14:00:00Z", "2023-04-09T14:00:00Z", "2023-04-09T14:06:00Z", "2023-04-09T14:00:00Z", "2023-04-09T14:00:00Z", "2023-04-09T14:00:00Z", "2023-04-09T14:00:00Z", "2023-04-09T14:00:00Z", "2023-04-09T14:00:00Z", "2023-04-09T14:00:00Z", "2023-04-09T14:00:00Z", "2023-04-09T14:00:00Z", "2023-04-09T14:00:00Z", "2023-04-09T14:00:00Z", "2023-04-09T14:00:00Z", "2023-04-09T14:00:00Z", "2023-04-09T14:00:00Z", "2023-04-09T14:00:00Z", "2023-04-09T14:00:00Z", "2023-04-09T14:00:00Z", "2023-04-09T14:00:00Z", "2023-04-09T14:00:00Z", "2023-04-09T14:00:00Z", "2023-04-09T14:00:00Z", "2023-04-09T14:00:00Z", "2023-04-09T14:00:00Z", "2023-04-09T14:00:00Z", "2023-04-09T14:00:00Z", "2023-04-09T14:00:00Z", "2023-04-09T14:00:00Z", "2023-04-09T14:00:00Z", "2023-04-09T14:00:00Z", "2023-04-09T14:00:00Z", "2023-04-09T14:00:00Z", "2023-04-09T14:00:00Z", "2023-04-09T14:00:00Z", "2023-04-09T14:00:00Z", "2023-04-09T14:00:00Z", "2023-04-09T14:00:00Z", "2023-04-09T14:00:00Z", "2023-04-09T14:00:00Z", "2023-04-09T14:00:00Z", "2023-04-09T14:00:00Z", "2023-04-09T14:00:00Z", "2023-04-09T14:00:00Z", "2023-04-09T14:00:00Z", "2023-04-09T14:00:00Z", "2023-04-09T14:00:00Z", "2023-04-09T14:00:00Z", "2023-04-09T14:00:00Z", "2023-04-09T14:00:00Z", "2023-04-09T13:00:00Z", "2023-04-09T14:00:00Z", "2023-04-09T14:00:00Z", "2023-04-09T14:00:00Z", "2023-04-09T14:00:00Z", "2023-04-09T14:00:00Z", "2023-04-09T13:00:00Z", "2023-04-09T13:00:00Z", "2023-04-09T13:00:00Z", "2023-04-09T14:00:00Z", "2023-04-09T13:00:00Z", "2023-04-09T14:00:00Z", "2023-04-09T14:00:00Z", "2023-04-09T13:00:00Z", "2023-04-09T13:00:00Z", "2023-04-09T13:00:00Z", "2023-04-09T14:00:00Z", "2023-04-09T13:00:00Z", "2023-04-09T14:00:00Z", "2023-04-09T13:00:00Z", "2023-04-09T14:00:00Z", "2023-04-09T13:00:00Z", "2023-04-09T13:00:00Z", "2023-04-09T13:00:00Z", "2023-04-09T14:00:00Z", "2023-04-09T13:00:00Z", "2023-04-09T14:00:00Z", "2023-04-09T14:00:00Z", "2023-04-09T13:00:00Z", "2023-04-09T14:00:00Z", "2023-04-09T14:00:00Z", "2023-04-09T14:00:00Z", "2023-04-09T13:00:00Z", "2023-04-09T14:00:00Z", "2023-04-09T14:00:00Z", "2023-04-09T14:00:00Z", "2023-04-09T14:00:00Z", "2023-04-09T14:00:00Z", "2023-04-09T14:00:00Z", "2023-04-09T14:00:00Z", "2023-04-09T14:00:00Z", "2023-04-09T14:00:00Z", "2023-04-09T14:00:00Z", "2023-04-09T13:00:00Z", "2023-04-09T13:00:00Z", "2023-04-09T14:00:00Z", "2023-04-09T13:00:00Z", "2023-04-09T13:00:00Z", "2023-04-09T13:00:00Z", "2023-04-09T13:00:00Z", "2023-04-09T13:00:00Z", "2023-04-09T13:00:00Z", "2023-04-09T13:00:00Z", "2023-04-09T13:00:00Z", "2023-04-09T13:00:00Z", "2023-04-09T13:00:00Z", "2023-04-09T13:00:00Z", "2023-04-09T13:00:00Z", "2023-04-09T13:00:00Z", "2023-04-09T13:00:00Z", "2023-04-09T13:00:00Z", "2023-04-09T13:00:00Z", "2023-04-09T13:00:00Z", "2023-04-09T14:00:00Z", "2023-04-09T13:30:00Z", "2023-04-09T13:30:00Z", "2023-04-09T13:30:00Z", "2023-04-09T14:00:00Z", "2023-04-09T13:00:00Z", "2023-04-09T14:00:00Z", "2023-04-09T14:00:00Z", "2023-04-09T13:30:00Z", "2023-04-09T14:00:00Z", "2023-04-09T14:00:00Z", "2023-04-09T14:00:00Z", "2023-04-09T14:00:00Z", "2023-04-09T14:00:00Z", "2023-04-09T14:00:00Z", "2023-04-09T13:00:00Z", "2023-04-09T13:00:00Z", "2023-04-09T13:50:00Z", "2023-04-09T13:55:00Z", "2023-04-09T13:55:00Z", "2023-04-09T13:50:00Z", "2023-04-09T13:50:00Z", "2023-04-09T13:55:00Z", "2023-04-09T13:55:00Z", "2023-04-09T13:55:00Z", "2023-04-09T13:55:00Z", "2023-04-09T13:55:00Z", "2023-04-09T13:50:00Z", "2023-04-09T13:50:00Z", "2023-04-09T13:50:00Z", "2023-04-09T13:50:00Z", "2023-04-09T13:50:00Z", "2023-04-09T13:50:00Z", "2023-04-09T13:50:00Z", "2023-04-09T13:50:00Z", "2023-04-09T13:50:00Z", "2023-04-09T13:50:00Z", "2023-04-09T13:50:00Z", "2023-04-09T13:50:00Z", "2023-04-09T13:50:00Z", "2023-04-09T13:50:00Z", "2023-04-09T13:50:00Z", "2023-04-09T13:50:00Z", "2023-04-09T13:50:00Z", "2023-04-09T13:50:00Z", "2023-04-09T13:50:00Z", "2023-04-09T13:50:00Z", "2023-04-09T13:50:00Z", "2023-04-09T13:50:00Z", "2023-04-09T13:50:00Z", "2023-04-09T13:50:00Z", "2023-04-09T13:50:00Z", "2023-04-09T13:50:00Z", "2023-04-09T13:50:00Z", "2023-04-09T13:50:00Z", "2023-04-09T13:50:00Z", "2023-04-09T13:50:00Z", "2023-04-09T13:50:00Z", "2023-04-09T13:50:00Z", "2023-04-09T13:50:00Z", "2023-04-09T13:50:00Z", "2023-04-09T13:50:00Z", "2023-04-09T13:50:00Z", "2023-04-09T13:50:00Z", "2023-04-09T13:50:00Z", "2023-04-09T13:50:00Z", "2023-04-09T13:50:00Z", "2023-04-09T13:50:00Z", "2023-04-09T13:50:00Z", "2023-04-09T13:50:00Z", "2023-04-09T13:50:00Z", "2023-04-09T13:50:00Z", "2023-04-09T13:50:00Z", "2023-04-09T13:50:00Z", "2023-04-09T13:50:00Z", "2023-04-09T13:50:00Z", "2023-04-09T13:50:00Z", "2023-04-09T13:50:00Z", "2023-04-09T13:50:00Z", "2023-04-09T13:50:00Z", "2023-04-09T13:50:00Z", "2023-04-09T13:50:00Z", "2023-04-09T13:50:00Z", "2023-04-09T13:50:00Z", "2023-04-09T13:50:00Z", "2023-04-09T13:50:00Z", "2023-04-09T13:50:00Z", "2023-04-09T13:50:00Z", "2023-04-09T13:50:00Z", "2023-04-09T13:50:00Z", "2023-04-09T13:50:00Z", "2023-04-09T13:50:00Z", "2023-04-09T13:50:00Z", "2023-04-09T13:50:00Z", "2023-04-09T13:50:00Z", "2023-04-09T13:50:00Z", "2023-04-09T13:50:00Z", "2023-04-09T13:50:00Z", "2023-04-09T13:50:00Z", "2023-04-09T13:50:00Z", "2023-04-09T13:50:00Z", "2023-04-09T13:50:00Z", "2023-04-09T13:50:00Z", "2023-04-09T13:50:00Z", "2023-04-09T13:50:00Z", "2023-04-09T13:50:00Z", "2023-04-09T13:50:00Z", "2023-04-09T13:50:00Z", "2023-04-09T13:50:00Z", "2023-04-09T13:50:00Z", "2023-04-09T13:50:00Z", "2023-04-09T13:50:00Z", "2023-04-09T13:50:00Z", "2023-04-09T13:50:00Z", "2023-04-09T13:50:00Z", "2023-04-09T13:50:00Z", "2023-04-09T13:50:00Z", "2023-04-09T13:50:00Z", "2023-04-09T13:50:00Z", "2023-04-09T13:50:00Z", "2023-04-09T13:50:00Z", "2023-04-09T13:50:00Z", "2023-04-09T13:50:00Z", "2023-04-09T13:50:00Z", "2023-04-09T13:50:00Z", "2023-04-09T13:50:00Z", "2023-04-09T13:50:00Z", "2023-04-09T13:50:00Z", "2023-04-09T13:50:00Z", "2023-04-09T13:50:00Z", "2023-04-09T13:50:00Z", "2023-04-09T13:50:00Z", "2023-04-09T13:50:00Z", "2023-04-09T13:50:00Z", "2023-04-09T13:50:00Z", "2023-04-09T13:50:00Z", "2023-04-09T13:50:00Z", "2023-04-09T13:50:00Z", "2023-04-09T13:50:00Z", "2023-04-09T13:50:00Z", "2023-04-09T13:50:00Z", "2023-04-09T13:50:00Z", "2023-04-09T13:50:00Z", "2023-04-09T13:50:00Z", "2023-04-09T13:50:00Z", "2023-04-09T13:50:00Z", "2023-04-09T13:50:00Z", "2023-04-09T13:50:00Z", "2023-04-09T13:50:00Z", "2023-04-09T13:50:00Z", "2023-04-09T13:50:00Z", "2023-04-09T13:50:00Z", "2023-04-09T13:50:00Z", "2023-04-09T13:50:00Z", "2023-04-09T13:50:00Z", "2023-04-09T13:50:00Z", "2023-04-09T13:50:00Z", "2023-04-09T13:50:00Z", "2023-04-09T13:50:00Z", "2023-04-09T13:50:00Z", "2023-04-09T13:50:00Z", "2023-04-09T13:50:00Z", "2023-04-09T13:50:00Z", "2023-04-09T13:55:00Z", "2023-04-09T13:55:00Z", "2023-04-09T13:50:00Z", "2023-04-09T13:55:00Z", "2023-04-09T13:50:00Z", "2023-04-09T13:50:00Z", "2023-04-09T13:50:00Z", "2023-04-09T13:50:00Z", "2023-04-09T13:50:00Z", "2023-04-09T13:50:00Z", "2023-04-09T13:50:00Z", "2023-04-09T13:50:00Z", "2023-04-09T13:50:00Z", "2023-04-09T13:50:00Z", "2023-04-09T13:50:00Z", "2023-04-09T13:50:00Z", "2023-04-09T13:50:00Z", "2023-04-09T13:50:00Z", "2023-04-09T13:50:00Z", "2023-04-09T13:50:00Z", "2023-04-09T13:55:00Z", "2023-04-09T13:55:00Z", "2023-04-09T13:55:00Z", "2023-04-09T13:55:00Z", "2023-04-09T13:55:00Z", "2023-04-09T13:55:00Z", "2023-04-09T13:55:00Z", "2023-04-09T13:55:00Z", "2023-04-09T13:55:00Z", "2023-04-09T13:55:00Z", "2023-04-09T13:55:00Z", "2023-04-09T13:55:00Z", "2023-04-09T13:55:00Z", "2023-04-09T14:04:00Z", "2023-04-09T13:55:00Z", "2023-04-09T13:55:00Z", "2023-04-09T13:55:00Z", "2023-04-09T13:55:00Z", "2023-04-09T13:55:00Z", "2023-04-09T13:55:00Z", "2023-04-09T13:55:00Z", "2023-04-09T13:55:00Z", "2023-04-09T13:55:00Z", "2023-04-09T13:55:00Z", "2023-04-09T13:55:00Z", "2023-04-09T14:00:00Z", "2023-04-09T14:00:00Z", "2023-04-09T14:00:00Z", "2023-04-09T14:00:00Z", "2023-04-09T14:00:00Z", "2023-04-09T14:00:00Z", "2023-04-09T14:00:00Z", "2023-04-09T14:00:00Z", "2023-04-09T14:00:00Z", "2023-04-09T13:50:00Z", "2023-04-09T13:50:00Z", "2023-04-09T13:50:00Z", "2023-04-09T13:50:00Z", "2023-04-09T13:50:00Z", "2023-04-09T13:50:00Z", "2023-04-09T13:50:00Z", "2023-04-09T13:50:00Z", "2023-04-09T13:50:00Z", "2023-04-09T13:50:00Z", "2023-04-09T13:50:00Z", "2023-04-09T13:50:00Z", "2023-04-09T13:50:00Z", "2023-04-09T13:50:00Z", "2023-04-09T13:50:00Z", "2023-04-09T13:50:00Z", "2023-04-09T13:50:00Z", "2023-04-09T13:50:00Z", "2023-04-09T13:50:00Z", "2023-04-09T13:50:00Z", "2023-04-09T13:50:00Z", "2023-04-09T13:50:00Z", "2023-04-09T13:50:00Z", "2023-04-09T13:50:00Z", "2023-04-09T13:50:00Z", "2023-04-09T13:50:00Z", "2023-04-09T13:50:00Z", "2023-04-09T13:50:00Z", "2023-04-09T13:50:00Z", "2023-04-09T13:50:00Z", "2023-04-09T13:50:00Z", "2023-04-09T13:50:00Z", "2023-04-09T13:50:00Z", "2023-04-09T13:50:00Z", "2023-04-09T13:50:00Z", "2023-04-09T13:50:00Z", "2023-04-09T13:50:00Z", "2023-04-09T13:50:00Z", "2023-04-09T13:50:00Z", "2023-04-09T13:50:00Z", "2023-04-09T13:50:00Z", "2023-04-09T13:50:00Z", "2023-04-09T13:50:00Z", "2023-04-09T13:50:00Z", "2023-04-09T13:20:00Z", "2023-04-09T13:50:00Z", "2023-04-09T13:50:00Z", "2023-04-09T13:50:00Z", "2023-04-09T13:50:00Z", "2023-04-09T13:50:00Z", "2023-04-09T13:50:00Z", "2023-04-09T13:50:00Z", "2023-04-09T13:50:00Z", "2023-04-09T13:50:00Z", "2023-04-09T13:50:00Z", "2023-04-09T13:50:00Z", "2023-04-09T13:50:00Z", "2023-04-09T13:50:00Z", "2023-04-09T13:50:00Z", "2023-04-09T13:50:00Z", "2023-04-09T13:50:00Z", "2023-04-09T13:50:00Z", "2023-04-09T13:50:00Z", "2023-04-09T13:50:00Z", "2023-04-09T13:50:00Z", "2023-04-09T13:50:00Z", "2023-04-09T13:50:00Z", "2023-04-09T13:50:00Z", "2023-04-09T13:50:00Z", "2023-04-09T13:50:00Z", "2023-04-09T13:50:00Z", "2023-04-09T13:50:00Z", "2023-04-09T13:50:00Z", "2023-04-09T13:50:00Z", "2023-04-09T13:50:00Z", "2023-04-09T13:50:00Z", "2023-04-09T13:50:00Z", "2023-04-09T13:50:00Z", "2023-04-09T13:50:00Z", "2023-04-09T13:50:00Z", "2023-04-09T13:50:00Z", "2023-04-09T13:50:00Z", "2023-04-09T14:00:00Z", "2023-04-09T14:00:00Z", "2023-04-09T14:00:00Z", "2023-04-09T14:00:00Z", "2023-04-09T14:00:00Z", "2023-04-09T14:00:00Z", "2023-04-09T14:00:00Z", "2023-04-09T14:00:00Z", "2023-04-09T14:00:00Z", "2023-04-09T14:00:00Z", "2023-04-09T14:00:00Z", "2023-04-09T14:00:00Z", "2023-04-09T14:00:00Z", "2023-04-09T14:00:00Z", "2023-04-09T13:50:00Z", "2023-04-09T13:50:00Z", "2023-04-09T13:50:00Z", "2023-04-09T13:50:00Z", "2023-04-09T13:50:00Z", "2023-04-09T13:50:00Z", "2023-04-09T13:50:00Z", "2023-04-09T13:50:00Z", "2023-04-09T13:50:00Z", "2023-04-09T13:50:00Z", "2023-04-09T13:50:00Z", "2023-04-09T13:50:00Z", "2023-04-09T13:50:00Z", "2023-04-09T13:50:00Z", "2023-04-09T13:50:00Z", "2023-04-09T13:50:00Z", "2023-04-09T13:50:00Z", "2023-04-09T13:50:00Z", "2023-04-09T13:50:00Z", "2023-04-09T13:50:00Z", "2023-04-09T13:50:00Z", "2023-04-09T13:50:00Z", "2023-04-09T13:50:00Z", "2023-04-09T13:50:00Z", "2023-04-09T13:50:00Z", "2023-04-09T13:50:00Z", "2023-04-09T13:50:00Z", "2023-04-09T13:50:00Z", "2023-04-09T13:50:00Z", "2023-04-09T13:50:00Z", "2023-04-09T13:50:00Z", "2023-04-09T13:50:00Z", "2023-04-09T13:50:00Z", "2023-04-09T13:50:00Z", "2023-04-09T13:50:00Z", "2023-04-09T13:50:00Z", "2023-04-09T13:50:00Z", "2023-04-09T13:50:00Z", "2023-04-09T13:50:00Z", "2023-04-09T13:50:00Z", "2023-04-09T13:50:00Z", "2023-04-09T13:50:00Z", "2023-04-09T13:50:00Z", "2023-04-09T13:50:00Z", "2023-04-09T13:50:00Z", "2023-04-09T13:50:00Z", "2023-04-09T13:55:00Z", "2023-04-09T13:55:00Z", "2023-04-09T13:55:00Z", "2023-04-09T13:20:00Z", "2023-04-09T13:20:00Z", "2023-04-09T13:20:00Z", "2023-04-09T13:20:00Z", "2023-04-09T13:20:00Z", "2023-04-09T13:20:00Z", "2023-04-09T13:20:00Z", "2023-04-09T13:20:00Z", "2023-04-09T13:55:00Z", "2023-04-09T13:55:00Z", "2023-04-09T13:20:00Z", "2023-04-09T13:20:00Z", "2023-04-09T13:20:00Z", "2023-04-09T13:20:00Z", "2023-04-09T13:20:00Z", "2023-04-09T13:20:00Z", "2023-04-09T13:20:00Z", "2023-04-09T13:55:00Z", "2023-04-09T13:20:00Z", "2023-04-09T13:20:00Z", "2023-04-09T13:20:00Z", "2023-04-09T13:20:00Z", "2023-04-09T13:20:00Z", "2023-04-09T13:20:00Z", "2023-04-09T13:50:00Z", "2023-04-09T13:50:00Z", "2023-04-09T13:50:00Z", "2023-04-09T13:50:00Z", "2023-04-09T13:50:00Z", "2023-04-09T13:50:00Z", "2023-04-09T13:50:00Z", "2023-04-09T13:50:00Z", "2023-04-09T13:00:00Z", "2023-04-09T14:00:00Z", "2023-04-09T14:00:00Z", "2023-04-09T14:00:00Z", "2023-04-09T14:00:00Z", "2023-04-09T14:00:00Z", "2023-04-09T14:00:00Z", "2023-04-09T14:00:00Z", "2023-04-09T14:00:00Z", "2023-04-09T14:00:00Z", "2023-04-09T13:00:00Z", "2023-04-09T14:00:00Z", "2023-04-09T14:00:00Z", "2023-04-09T14:00:00Z", "2023-04-09T14:00:00Z", "2023-04-09T14:00:00Z", "2023-04-09T14:00:00Z", "2023-04-09T14:00:00Z", "2023-04-09T14:00:00Z", "2023-04-09T14:00:00Z", "2023-04-09T13:00:00Z", "2023-04-09T13:00:00Z", "2023-04-09T13:00:00Z", "2023-04-09T14:00:00Z", "2023-04-09T13:00:00Z", "2023-04-09T13:00:00Z", "2023-04-09T13:00:00Z", "2023-04-09T14:00:00Z", "2023-04-09T13:00:00Z", "2023-04-09T14:00:00Z", "2023-04-09T14:00:00Z", "2023-04-09T12:55:00Z", "2023-04-09T14:00:00Z", "2023-04-09T14:00:00Z", "2023-04-09T14:00:00Z", "2023-04-09T14:03:00Z", "2023-04-09T13:00:00Z", "2023-04-09T13:00:00Z", "2023-04-09T13:00:00Z", "2023-04-09T13:00:00Z", "2023-04-09T13:00:00Z", "2023-04-09T13:00:00Z", "2023-04-09T13:00:00Z", "2023-04-09T13:00:00Z", "2023-04-09T13:00:00Z", "2023-04-09T14:00:00Z", "2023-04-09T13:00:00Z", "2023-04-09T13:00:00Z", "2023-04-09T13:00:00Z", "2023-04-09T14:00:00Z", "2023-04-09T14:00:00Z", "2023-04-09T13:00:00Z", "2023-04-09T14:00:00Z", "2023-04-09T14:00:00Z", "2023-04-09T14:00:00Z", "2023-04-09T14:00:00Z", "2023-04-09T14:00:00Z", "2023-04-09T14:00:00Z", "2023-04-09T13:00:00Z", "2023-04-09T13:00:00Z", "2023-04-09T13:00:00Z", "2023-04-09T13:00:00Z", "2023-04-09T14:00:00Z", "2023-04-09T14:00:00Z", "2023-04-09T14:00:00Z", "2023-04-09T14:00:00Z", "2023-04-09T14:00:00Z", "2023-04-09T14:00:00Z", "2023-04-09T13:00:00Z", "2023-04-09T13:00:00Z", "2023-04-09T13:00:00Z", "2023-04-09T13:00:00Z", "2023-04-09T13:30:00Z", "2023-04-09T13:00:00Z", "2023-04-09T14:00:00Z", "2023-04-09T14:00:00Z", "2023-04-09T14:00:00Z", "2023-04-09T14:00:00Z", "2023-04-09T14:00:00Z", "2023-04-09T14:00:00Z", "2023-04-09T14:00:00Z", "2023-04-09T14:00:00Z", "2023-04-09T14:00:00Z", "2023-04-09T14:00:00Z", "2023-04-09T14:00:00Z", "2023-04-09T13:00:00Z", "2023-04-09T13:00:00Z", "2023-04-09T14:00:00Z", "2023-04-09T14:00:00Z", "2023-04-09T14:00:00Z", "2023-04-09T14:00:00Z", "2023-04-09T14:00:00Z", "2023-04-09T14:00:00Z", "2023-04-09T14:00:00Z", "2023-04-09T14:00:00Z", "2023-04-09T14:00:00Z", "2023-04-09T14:00:00Z", "2023-04-09T14:00:00Z", "2023-04-09T14:00:00Z", "2023-04-09T14:00:00Z", "2023-04-09T14:00:00Z", "2023-04-09T14:00:00Z", "2023-04-09T14:00:00Z", "2023-04-09T14:00:00Z", "2023-04-09T14:00:00Z", "2023-04-09T13:00:00Z", "2023-04-09T14:00:00Z", "2023-04-09T14:00:00Z", "2023-04-09T14:00:00Z", "2023-04-09T14:00:00Z", "2023-04-09T13:30:00Z", "2023-04-09T13:00:00Z", "2023-04-09T13:00:00Z", "2023-04-09T13:00:00Z", "2023-04-09T13:00:00Z", "2023-04-09T13:00:00Z", "2023-04-09T13:30:00Z", "2023-04-09T13:00:00Z", "2023-04-09T13:00:00Z", "2023-04-09T14:00:00Z", "2023-04-09T14:00:00Z", "2023-04-09T14:00:00Z", "2023-04-09T14:00:00Z", "2023-04-09T14:00:00Z", "2023-04-09T13:00:00Z", "2023-04-09T13:00:00Z", "2023-04-09T13:00:00Z", "2023-04-09T14:00:00Z", "2023-04-09T13:00:00Z", "2023-04-09T13:00:00Z", "2023-04-09T13:00:00Z", "2023-04-09T13:00:00Z", "2023-04-09T14:00:00Z", "2023-04-09T13:00:00Z", "2023-04-09T13:00:00Z", "2023-04-09T13:00:00Z", "2023-04-09T13:00:00Z", "2023-04-09T13:00:00Z", "2023-04-09T13:00:00Z", "2023-04-09T13:00:00Z", "2023-04-09T13:00:00Z", "2023-04-09T13:00:00Z", "2023-04-09T13:00:00Z", "2023-04-09T13:00:00Z", "2023-04-09T13:00:00Z", "2023-04-09T13:00:00Z", "2023-04-09T13:00:00Z", "2023-04-09T13:00:00Z", "2023-04-09T13:00:00Z", "2023-04-09T13:30:00Z", "2023-04-09T13:30:00Z", "2023-04-09T13:00:00Z", "2023-04-09T13:00:00Z", "2023-04-09T13:00:00Z", "2023-04-09T13:00:00Z", "2023-04-09T13:00:00Z", "2023-04-09T13:30:00Z", "2023-04-09T13:00:00Z", "2023-04-09T13:00:00Z", "2023-04-09T13:00:00Z", "2023-04-09T13:00:00Z", "2023-04-09T14:00:00Z", "2023-04-09T14:00:00Z", "2023-04-09T13:30:00Z", "2023-04-09T13:00:00Z", "2023-04-09T13:00:00Z", "2023-04-09T13:00:00Z", "2023-04-09T13:00:00Z", "2023-04-09T13:00:00Z", "2023-04-09T13:00:00Z", "2023-04-09T13:00:00Z", "2023-04-09T13:00:00Z", "2023-04-09T13:00:00Z", "2023-04-09T13:00:00Z", "2023-04-09T13:00:00Z", "2023-04-09T13:00:00Z", "2023-04-09T13:00:00Z", "2023-04-09T13:00:00Z", "2023-04-09T13:00:00Z", "2023-04-09T13:00:00Z", "2023-04-09T13:00:00Z", "2023-04-09T13:49:00Z", "2023-04-09T13:59:00Z", "2023-04-09T13:55:00Z", "2023-04-09T13:55:00Z", "2023-04-09T13:55:00Z", "2023-04-09T13:55:00Z", "2023-04-09T13:55:00Z", "2023-04-09T13:55:00Z", "2023-04-09T13:55:00Z", "2023-04-09T13:55:00Z", "2023-04-09T13:55:00Z", "2023-04-09T13:58:00Z", "2023-04-09T13:55:00Z", "2023-04-09T13:55:00Z", "2023-04-09T13:55:00Z", "2023-04-09T13:55:00Z", "2023-04-09T13:55:00Z", "2023-04-09T13:55:00Z", "2023-04-09T13:54:00Z", "2023-04-09T13:55:00Z", "2023-04-09T13:55:00Z", "2023-04-09T13:55:00Z", "2023-04-09T13:55:00Z", "2023-04-09T13:55:00Z", "2023-04-09T13:55:00Z", "2023-04-09T13:55:00Z", "2023-04-09T13:55:00Z", "2023-04-09T13:55:00Z", "2023-04-09T13:55:00Z", "2023-04-09T13:55:00Z", "2023-04-09T13:55:00Z", "2023-04-09T13:55:00Z", "2023-04-09T13:55:00Z", "2023-04-09T13:55:00Z", "2023-04-09T13:55:00Z", "2023-04-09T13:55:00Z", "2023-04-09T13:55:00Z", "2023-04-09T13:55:00Z", "2023-04-09T13:55:00Z", "2023-04-09T13:55:00Z", "2023-04-09T13:55:00Z", "2023-04-09T13:55:00Z", "2023-04-09T13:55:00Z", "2023-04-09T13:55:00Z", "2023-04-09T13:55:00Z", "2023-04-09T13:55:00Z", "2023-04-09T13:55:00Z", "2023-04-09T13:55:00Z", "2023-04-09T13:55:00Z", "2023-04-09T13:55:00Z", "2023-04-09T13:55:00Z", "2023-04-09T13:55:00Z", "2023-04-09T13:55:00Z", "2023-04-09T13:55:00Z", "2023-04-09T13:55:00Z", "2023-04-09T13:55:00Z", "2023-04-09T13:55:00Z", "2023-04-09T13:55:00Z", "2023-04-09T13:55:00Z", "2023-04-09T13:56:00Z", "2023-04-09T13:55:00Z", "2023-04-09T13:55:00Z", "2023-04-09T13:55:00Z", "2023-04-09T13:55:00Z", "2023-04-09T13:55:00Z", "2023-04-09T13:55:00Z", "2023-04-09T13:55:00Z", "2023-04-09T13:55:00Z", "2023-04-09T13:55:00Z", "2023-04-09T13:55:00Z", "2023-04-09T13:55:00Z", "2023-04-09T14:00:00Z", "2023-04-09T13:55:00Z", "2023-04-09T13:55:00Z", "2023-04-09T13:54:00Z", "2023-04-09T13:55:00Z", "2023-04-09T13:55:00Z", "2023-04-09T13:55:00Z", "2023-04-09T13:55:00Z", "2023-04-09T13:55:00Z", "2023-04-09T13:45:00Z", "2023-04-09T13:55:00Z", "2023-04-09T13:55:00Z", "2023-04-09T13:55:00Z", "2023-04-09T13:55:00Z", "2023-04-09T13:55:00Z", "2023-04-09T13:50:00Z", "2023-04-09T13:55:00Z", "2023-04-09T13:55:00Z", "2023-04-09T13:55:00Z", "2023-04-09T13:55:00Z", "2023-04-09T13:55:00Z", "2023-04-09T13:55:00Z", "2023-04-09T13:55:00Z", "2023-04-09T13:55:00Z", "2023-04-09T13:55:00Z", "2023-04-09T13:55:00Z", "2023-04-09T13:55:00Z", "2023-04-09T13:59:00Z", "2023-04-09T13:49:00Z", "2023-04-09T13:56:00Z", "2023-04-09T13:55:00Z", "2023-04-09T13:55:00Z", "2023-04-09T13:55:00Z", "2023-04-09T13:55:00Z", "2023-04-09T14:00:00Z", "2023-04-09T13:55:00Z", "2023-04-09T13:55:00Z", "2023-04-09T13:55:00Z", "2023-04-09T13:55:00Z", "2023-04-09T13:55:00Z", "2023-04-09T13:55:00Z", "2023-04-09T13:55:00Z", "2023-04-09T13:55:00Z", "2023-04-09T13:55:00Z", "2023-04-09T14:00:00Z", "2023-04-09T13:16:00Z", "2023-04-09T13:55:00Z", "2023-04-09T13:55:00Z", "2023-04-09T13:55:00Z", "2023-04-09T13:55:00Z", "2023-04-09T13:55:00Z", "2023-04-09T13:55:00Z", "2023-04-09T13:55:00Z", "2023-04-09T13:55:00Z", "2023-04-09T13:55:00Z", "2023-04-09T13:55:00Z", "2023-04-09T13:55:00Z", "2023-04-09T13:55:00Z", "2023-04-09T13:55:00Z", "2023-04-09T13:55:00Z", "2023-04-09T13:55:00Z", "2023-04-09T13:55:00Z", "2023-04-09T13:55:00Z", "2023-04-09T13:55:00Z", "2023-04-09T13:55:00Z", "2023-04-09T13:55:00Z", "2023-04-09T13:55:00Z", "2023-04-09T13:55:00Z", "2023-04-09T13:55:00Z", "2023-04-09T13:55:00Z", "2023-04-09T13:55:00Z", "2023-04-09T13:55:00Z", "2023-04-09T13:55:00Z", "2023-04-09T13:55:00Z", "2023-04-09T13:50:00Z", "2023-04-09T13:55:00Z", "2023-04-09T13:55:00Z", "2023-04-09T13:55:00Z", "2023-04-09T13:55:00Z", "2023-04-09T13:55:00Z", "2023-04-09T13:55:00Z", "2023-04-09T13:55:00Z", "2023-04-09T13:55:00Z", "2023-04-09T13:55:00Z", "2023-04-09T13:55:00Z", "2023-04-09T13:55:00Z", "2023-04-09T13:51:00Z", "2023-04-09T13:55:00Z", "2023-04-09T13:55:00Z", "2023-04-09T13:55:00Z", "2023-04-09T13:55:00Z", "2023-04-09T13:55:00Z", "2023-04-09T13:56:00Z", "2023-04-09T13:55:00Z", "2023-04-09T13:55:00Z", "2023-04-09T13:55:00Z", "2023-04-09T13:55:00Z", "2023-04-09T13:55:00Z", "2023-04-09T13:55:00Z", "2023-04-09T13:55:00Z", "2023-04-09T13:55:00Z", "2023-04-09T13:56:00Z", "2023-04-09T13:55:00Z", "2023-04-09T13:55:00Z", "2023-04-09T13:55:00Z", "2023-04-09T13:55:00Z", "2023-04-09T13:55:00Z", "2023-04-09T13:55:00Z", "2023-04-09T13:55:00Z", "2023-04-09T13:55:00Z", "2023-04-09T13:55:00Z", "2023-04-09T13:58:00Z", "2023-04-09T13:53:00Z", "2023-04-09T13:54:00Z", "2023-04-09T13:55:00Z", "2023-04-09T13:55:00Z", "2023-04-09T13:51:00Z", "2023-04-09T13:55:00Z", "2023-04-09T13:52:00Z", "2023-04-09T13:52:00Z", "2023-04-09T13:53:00Z", "2023-04-09T13:53:00Z", "2023-04-09T13:55:00Z", "2023-04-09T13:53:00Z", "2023-04-09T13:55:00Z", "2023-04-09T13:55:00Z", "2023-04-09T13:51:00Z", "2023-04-09T13:53:00Z", "2023-04-09T13:54:00Z", "2023-04-09T13:45:00Z", "2023-04-09T13:56:00Z", "2023-04-09T13:56:00Z", "2023-04-09T13:53:00Z", "2023-04-09T13:50:00Z", "2023-04-09T13:50:00Z", "2023-04-09T13:47:00Z", "2023-04-09T13:55:00Z", "2023-04-09T13:55:00Z", "2023-04-09T13:55:00Z", "2023-04-09T13:50:00Z", "2023-04-09T13:55:00Z", "2023-04-09T13:55:00Z", "2023-04-09T14:05:00Z", "2023-04-09T13:55:00Z", "2023-04-09T13:56:00Z", "2023-04-09T13:55:00Z", "2023-04-09T13:52:00Z", "2023-04-09T13:55:00Z", "2023-04-09T13:49:00Z", "2023-04-09T13:53:00Z", "2023-04-09T13:53:00Z", "2023-04-09T13:55:00Z", "2023-04-09T13:55:00Z", "2023-04-09T13:53:00Z", "2023-04-09T13:51:00Z", "2023-04-09T13:55:00Z", "2023-04-09T13:53:00Z", "2023-04-09T13:55:00Z", "2023-04-09T13:55:00Z", "2023-04-09T13:55:00Z", "2023-04-09T13:55:00Z", "2023-04-09T13:55:00Z", "2023-04-09T13:56:00Z", "2023-04-09T13:55:00Z", "2023-04-09T13:56:00Z", "2023-04-09T13:55:00Z", "2023-04-09T13:55:00Z", "2023-04-09T13:54:00Z", "2023-04-09T13:53:00Z", "2023-04-09T13:54:00Z", "2023-04-09T13:54:00Z", "2023-04-09T13:51:00Z", "2023-04-09T13:53:00Z", "2023-04-09T13:56:00Z", "2023-04-09T13:55:00Z", "2023-04-09T13:50:00Z", "2023-04-09T13:54:00Z", "2023-04-09T13:52:00Z", "2023-04-09T13:53:00Z", "2023-04-09T13:53:00Z", "2023-04-09T13:53:00Z", "2023-04-09T13:55:00Z", "2023-04-09T13:53:00Z", "2023-04-09T13:53:00Z", "2023-04-09T13:56:00Z", "2023-04-09T13:45:00Z", "2023-04-09T13:55:00Z", "2023-04-09T13:55:00Z", "2023-04-09T13:55:00Z", "2023-04-09T13:55:00Z", "2023-04-09T13:53:00Z", "2023-04-09T13:53:00Z", "2023-04-09T13:53:00Z", "2023-04-09T13:54:00Z", "2023-04-09T13:53:00Z", "2023-04-09T14:04:00Z", "2023-04-09T13:59:00Z", "2023-04-09T13:55:00Z", "2023-04-09T13:55:00Z", "2023-04-09T13:53:00Z", "2023-04-09T13:57:00Z", "2023-04-09T13:52:00Z", "2023-04-09T13:55:00Z", "2023-04-09T13:53:00Z", "2023-04-09T13:53:00Z", "2023-04-09T13:56:00Z", "2023-04-09T13:55:00Z", "2023-04-09T13:52:00Z", "2023-04-09T13:56:00Z", "2023-04-09T13:55:00Z", "2023-04-09T13:55:00Z", "2023-04-09T13:53:00Z", "2023-04-09T13:53:00Z", "2023-04-09T13:48:00Z", "2023-04-09T13:56:00Z", "2023-04-09T13:45:00Z", "2023-04-09T13:55:00Z", "2023-04-09T13:55:00Z", "2023-04-09T13:55:00Z", "2023-04-09T13:55:00Z", "2023-04-09T13:53:00Z", "2023-04-09T13:55:00Z", "2023-04-09T13:52:00Z", "2023-04-09T13:55:00Z", "2023-04-09T13:55:00Z", "2023-04-09T13:51:00Z", "2023-04-09T13:45:00Z", "2023-04-09T13:53:00Z", "2023-04-09T13:53:00Z", "2023-04-09T13:55:00Z", "2023-04-09T13:56:00Z", "2023-04-09T13:55:00Z", "2023-04-09T13:53:00Z", "2023-04-09T13:53:00Z", "2023-04-09T13:54:00Z", "2023-04-09T13:55:00Z", "2023-04-09T14:00:00Z", "2023-04-09T13:54:00Z", "2023-04-09T13:54:00Z", "2023-04-09T13:55:00Z", "2023-04-09T13:51:00Z", "2023-04-09T13:55:00Z", "2023-04-09T13:53:00Z", "2023-04-09T13:56:00Z", "2023-04-09T13:55:00Z", "2023-04-09T13:55:00Z", "2023-04-09T13:53:00Z", "2023-04-09T13:55:00Z", "2023-04-09T13:55:00Z", "2023-04-09T13:55:00Z", "2023-04-09T13:55:00Z", "2023-04-09T13:55:00Z", "2023-04-09T13:55:00Z", "2023-04-09T13:53:00Z", "2023-04-09T13:55:00Z", "2023-04-09T13:55:00Z", "2023-04-09T13:55:00Z", "2023-04-09T13:53:00Z", "2023-04-09T13:55:00Z", "2023-04-09T13:55:00Z", "2023-04-09T13:52:00Z", "2023-04-09T13:55:00Z", "2023-04-09T13:51:00Z", "2023-04-09T13:57:00Z", "2023-04-09T13:55:00Z", "2023-04-09T13:45:00Z", "2023-04-09T13:55:00Z", "2023-04-09T13:53:00Z", "2023-04-09T13:55:00Z", "2023-04-09T13:53:00Z", "2023-04-09T13:55:00Z", "2023-04-09T13:58:00Z", "2023-04-09T13:53:00Z", "2023-04-09T13:53:00Z", "2023-04-09T13:55:00Z", "2023-04-09T13:55:00Z", "2023-04-09T13:51:00Z", "2023-04-09T13:55:00Z", "2023-04-09T13:52:00Z", "2023-04-09T13:55:00Z", "2023-04-09T13:55:00Z", "2023-04-09T13:55:00Z", "2023-04-09T13:51:00Z", "2023-04-09T13:53:00Z", "2023-04-09T13:53:00Z", "2023-04-09T13:53:00Z", "2023-04-09T13:53:00Z", "2023-04-09T13:54:00Z", "2023-04-09T13:53:00Z", "2023-04-09T13:55:00Z", "2023-04-09T13:51:00Z", "2023-04-09T13:55:00Z", "2023-04-09T13:55:00Z", "2023-04-09T13:53:00Z", "2023-04-09T13:53:00Z", "2023-04-09T13:56:00Z", "2023-04-09T13:55:00Z", "2023-04-09T13:51:00Z", "2023-04-09T13:53:00Z", "2023-04-09T13:56:00Z", "2023-04-09T13:55:00Z", "2023-04-09T12:55:00Z", "2023-04-09T13:56:00Z", "2023-04-09T13:53:00Z", "2023-04-09T13:52:00Z", "2023-04-09T13:53:00Z", "2023-04-09T13:55:00Z", "2023-04-09T13:48:00Z", "2023-04-09T13:55:00Z", "2023-04-09T13:56:00Z", "2023-04-09T13:52:00Z", "2023-04-09T13:55:00Z", "2023-04-09T13:53:00Z", "2023-04-09T13:58:00Z", "2023-04-09T13:53:00Z", "2023-04-09T13:55:00Z", "2023-04-09T13:55:00Z", "2023-04-09T13:55:00Z", "2023-04-09T13:53:00Z", "2023-04-09T13:51:00Z", "2023-04-09T13:56:00Z", "2023-04-09T13:52:00Z", "2023-04-09T13:53:00Z", "2023-04-09T13:56:00Z", "2023-04-09T13:52:00Z", "2023-04-09T13:55:00Z", "2023-04-09T13:55:00Z", "2023-04-09T13:53:00Z", "2023-04-09T13:56:00Z", "2023-04-09T13:52:00Z", "2023-04-09T13:53:00Z", "2023-04-09T13:55:00Z", "2023-04-09T13:53:00Z", "2023-04-09T13:55:00Z", "2023-04-09T13:53:00Z", "2023-04-09T13:55:00Z", "2023-04-09T13:53:00Z", "2023-04-09T13:56:00Z", "2023-04-09T13:54:00Z", "2023-04-09T13:15:00Z", "2023-04-09T13:55:00Z", "2023-04-09T13:55:00Z", "2023-04-09T13:53:00Z", "2023-04-09T13:53:00Z", "2023-04-09T13:53:00Z", "2023-04-09T13:55:00Z", "2023-04-09T13:55:00Z", "2023-04-09T13:55:00Z", "2023-04-09T13:53:00Z", "2023-04-09T13:55:00Z", "2023-04-09T13:53:00Z", "2023-04-09T13:53:00Z", "2023-04-09T13:55:00Z", "2023-04-09T13:55:00Z", "2023-04-09T13:53:00Z", "2023-04-09T13:53:00Z", "2023-04-09T13:55:00Z", "2023-04-09T13:56:00Z", "2023-04-09T13:53:00Z", "2023-04-09T13:54:00Z", "2023-04-09T13:54:00Z", "2023-04-09T14:00:00Z", "2023-04-09T13:55:00Z", "2023-04-09T13:54:00Z", "2023-04-09T13:55:00Z", "2023-04-09T13:55:00Z", "2023-04-09T13:53:00Z", "2023-04-09T13:55:00Z", "2023-04-09T13:55:00Z", "2023-04-09T13:56:00Z", "2023-04-09T13:53:00Z", "2023-04-09T13:55:00Z", "2023-04-09T13:53:00Z", "2023-04-09T13:54:00Z", "2023-04-09T13:55:00Z", "2023-04-09T13:55:00Z", "2023-04-09T13:55:00Z", "2023-04-09T13:55:00Z", "2023-04-09T13:53:00Z", "2023-04-09T13:53:00Z", "2023-04-09T13:55:00Z", "2023-04-09T13:55:00Z", "2023-04-09T13:55:00Z", "2023-04-09T13:56:00Z", "2023-04-09T13:55:00Z", "2023-04-09T13:55:00Z", "2023-04-09T13:55:00Z", "2023-04-09T13:55:00Z", "2023-04-09T13:55:00Z", "2023-04-09T13:55:00Z", "2023-04-09T13:55:00Z", "2023-04-09T13:55:00Z", "2023-04-09T13:55:00Z", "2023-04-09T13:56:00Z", "2023-04-09T13:53:00Z", "2023-04-09T13:51:00Z", "2023-04-09T13:55:00Z", "2023-04-09T13:54:00Z", "2023-04-09T13:55:00Z", "2023-04-09T13:40:00Z", "2023-04-09T13:55:00Z", "2023-04-09T13:55:00Z", "2023-04-09T13:55:00Z", "2023-04-09T13:55:00Z", "2023-04-09T13:55:00Z", "2023-04-09T13:55:00Z", "2023-04-09T13:55:00Z", "2023-04-09T13:53:00Z", "2023-04-09T13:55:00Z", "2023-04-09T13:55:00Z", "2023-04-09T13:53:00Z", "2023-04-09T13:53:00Z", "2023-04-09T13:55:00Z", "2023-04-09T13:55:00Z", "2023-04-09T13:51:00Z", "2023-04-09T13:55:00Z", "2023-04-09T13:53:00Z", "2023-04-09T13:53:00Z", "2023-04-09T13:53:00Z", "2023-04-09T13:56:00Z", "2023-04-09T13:55:00Z", "2023-04-09T13:54:00Z", "2023-04-09T13:53:00Z", "2023-04-09T13:55:00Z", "2023-04-09T13:53:00Z", "2023-04-09T13:55:00Z", "2023-04-09T13:55:00Z", "2023-04-09T13:55:00Z", "2023-04-09T13:55:00Z", "2023-04-09T13:52:00Z", "2023-04-09T13:55:00Z", "2023-04-09T13:45:00Z", "2023-04-09T13:45:00Z", "2023-04-09T13:53:00Z", "2023-04-09T13:50:00Z", "2023-04-09T13:56:00Z", "2023-04-09T13:53:00Z", "2023-04-09T13:48:00Z", "2023-04-09T13:55:00Z", "2023-04-09T13:53:00Z", "2023-04-09T13:56:00Z", "2023-04-09T13:55:00Z", "2023-04-09T13:52:00Z", "2023-04-09T13:55:00Z", "2023-04-09T13:55:00Z", "2023-04-09T13:56:00Z", "2023-04-09T13:55:00Z", "2023-04-09T13:53:00Z", "2023-04-09T13:55:00Z", "2023-04-09T13:55:00Z", "2023-04-09T13:55:00Z", "2023-04-09T13:55:00Z", "2023-04-09T13:55:00Z", "2023-04-09T13:55:00Z", "2023-04-09T13:52:00Z", "2023-04-09T13:55:00Z", "2023-04-09T13:51:00Z", "2023-04-09T13:55:00Z", "2023-04-09T13:55:00Z", "2023-04-09T13:53:00Z", "2023-04-09T13:53:00Z", "2023-04-09T13:55:00Z", "2023-04-09T13:52:00Z", "2023-04-09T13:55:00Z", "2023-04-09T13:55:00Z", "2023-04-09T13:55:00Z", "2023-04-09T13:51:00Z", "2023-04-09T13:53:00Z", "2023-04-09T13:55:00Z", "2023-04-09T13:53:00Z", "2023-04-09T13:55:00Z", "2023-04-09T13:55:00Z", "2023-04-09T13:55:00Z", "2023-04-09T13:55:00Z", "2023-04-09T13:55:00Z", "2023-04-09T13:53:00Z", "2023-04-09T13:53:00Z", "2023-04-09T13:52:00Z", "2023-04-09T13:55:00Z", "2023-04-09T13:53:00Z", "2023-04-09T13:56:00Z", "2023-04-09T13:56:00Z", "2023-04-09T13:55:00Z", "2023-04-09T13:55:00Z", "2023-04-09T13:51:00Z", "2023-04-09T13:55:00Z", "2023-04-09T13:54:00Z", "2023-04-09T13:53:00Z", "2023-04-09T13:54:00Z", "2023-04-09T13:50:00Z", "2023-04-09T13:55:00Z", "2023-04-09T13:55:00Z", "2023-04-09T13:53:00Z", "2023-04-09T13:53:00Z", "2023-04-09T13:55:00Z", "2023-04-09T13:55:00Z", "2023-04-09T13:55:00Z", "2023-04-09T13:53:00Z", "2023-04-09T13:55:00Z", "2023-04-09T13:55:00Z", "2023-04-09T13:47:00Z", "2023-04-09T13:55:00Z", "2023-04-09T13:52:00Z", "2023-04-09T13:53:00Z", "2023-04-09T14:00:00Z", "2023-04-09T13:51:00Z", "2023-04-09T13:53:00Z", "2023-04-09T13:53:00Z", "2023-04-09T13:54:00Z", "2023-04-09T13:55:00Z", "2023-04-09T13:51:00Z", "2023-04-09T13:53:00Z", "2023-04-09T13:55:00Z", "2023-04-09T13:53:00Z", "2023-04-09T13:56:00Z", "2023-04-09T13:55:00Z", "2023-04-09T13:55:00Z", "2023-04-09T13:45:00Z", "2023-04-09T13:53:00Z", "2023-04-09T13:55:00Z", "2023-04-09T13:59:00Z", "2023-04-09T13:53:00Z", "2023-04-09T13:55:00Z", "2023-04-09T13:52:00Z", "2023-04-09T13:55:00Z", "2023-04-09T13:56:00Z", "2023-04-09T13:56:00Z", "2023-04-09T13:55:00Z", "2023-04-09T13:55:00Z", "2023-04-09T13:47:00Z", "2023-04-09T13:55:00Z", "2023-04-09T13:45:00Z", "2023-04-09T13:56:00Z", "2023-04-09T13:55:00Z", "2023-04-09T13:55:00Z", "2023-04-09T13:55:00Z", "2023-04-09T13:53:00Z", "2023-04-09T13:55:00Z", "2023-04-09T13:55:00Z", "2023-04-09T13:55:00Z", "2023-04-09T13:56:00Z", "2023-04-09T13:55:00Z", "2023-04-09T13:53:00Z", "2023-04-09T13:55:00Z", "2023-04-09T13:55:00Z", "2023-04-09T13:56:00Z", "2023-04-09T13:55:00Z", "2023-04-09T13:55:00Z", "2023-04-09T13:55:00Z", "2023-04-09T13:55:00Z", "2023-04-09T13:55:00Z", "2023-04-09T13:55:00Z", "2023-04-09T13:12:00Z", "2023-04-09T13:55:00Z", "2023-04-09T13:53:00Z", "2023-04-09T13:50:00Z", "2023-04-09T13:53:00Z", "2023-04-09T13:53:00Z", "2023-04-09T13:51:00Z", "2023-04-09T13:56:00Z", "2023-04-09T13:55:00Z", "2023-04-09T13:53:00Z", "2023-04-09T13:52:00Z", "2023-04-09T13:55:00Z", "2023-04-09T13:53:00Z", "2023-04-09T13:55:00Z", "2023-04-09T13:52:00Z", "2023-04-09T13:54:00Z", "2023-04-09T13:54:00Z", "2023-04-09T13:50:00Z", "2023-04-09T13:55:00Z", "2023-04-09T13:53:00Z", "2023-04-09T13:53:00Z", "2023-04-09T13:53:00Z", "2023-04-09T13:53:00Z", "2023-04-09T13:53:00Z", "2023-04-09T13:53:00Z", "2023-04-09T13:53:00Z", "2023-04-09T13:53:00Z", "2023-04-09T13:53:00Z", "2023-04-09T13:56:00Z", "2023-04-09T13:56:00Z", "2023-04-09T13:53:00Z", "2023-04-09T13:55:00Z", "2023-04-09T13:55:00Z", "2023-04-09T13:55:00Z", "2023-04-09T13:55:00Z", "2023-04-09T13:55:00Z", "2023-04-09T13:53:00Z", "2023-04-09T13:55:00Z", "2023-04-09T13:55:00Z", "2023-04-09T13:53:00Z", "2023-04-09T13:55:00Z", "2023-04-09T13:55:00Z", "2023-04-09T13:54:00Z", "2023-04-09T13:53:00Z", "2023-04-09T13:53:00Z", "2023-04-09T13:45:00Z", "2023-04-09T13:55:00Z", "2023-04-09T13:53:00Z", "2023-04-09T13:55:00Z", "2023-04-09T13:55:00Z", "2023-04-09T13:55:00Z", "2023-04-09T13:52:00Z", "2023-04-09T13:45:00Z", "2023-04-09T13:55:00Z", "2023-04-09T13:55:00Z", "2023-04-09T13:55:00Z", "2023-04-09T13:53:00Z", "2023-04-09T13:53:00Z", "2023-04-09T13:54:00Z", "2023-04-09T13:54:00Z", "2023-04-09T13:55:00Z", "2023-04-09T13:55:00Z", "2023-04-09T13:53:00Z", "2023-04-09T13:53:00Z", "2023-04-09T13:53:00Z", "2023-04-09T13:53:00Z", "2023-04-09T13:55:00Z", "2023-04-09T13:57:00Z", "2023-04-09T13:55:00Z", "2023-04-09T13:56:00Z", "2023-04-09T13:55:00Z", "2023-04-09T13:53:00Z", "2023-04-09T13:55:00Z", "2023-04-09T13:50:00Z", "2023-04-09T13:56:00Z", "2023-04-09T13:52:00Z", "2023-04-09T13:55:00Z", "2023-04-09T13:53:00Z", "2023-04-09T13:53:00Z", "2023-04-09T13:55:00Z", "2023-04-09T13:53:00Z", "2023-04-09T13:56:00Z", "2023-04-09T13:55:00Z", "2023-04-09T13:53:00Z", "2023-04-09T13:55:00Z", "2023-04-09T13:55:00Z", "2023-04-09T13:55:00Z", "2023-04-09T13:54:00Z", "2023-04-09T13:56:00Z", "2023-04-09T13:55:00Z", "2023-04-09T13:55:00Z", "2023-04-09T13:55:00Z", "2023-04-09T13:55:00Z", "2023-04-09T13:55:00Z", "2023-04-09T13:55:00Z", "2023-04-09T13:55:00Z", "2023-04-09T13:55:00Z", "2023-04-09T13:55:00Z", "2023-04-09T13:50:00Z", "2023-04-09T13:56:00Z", "2023-04-09T13:55:00Z", "2023-04-09T13:56:00Z", "2023-04-09T13:55:00Z", "2023-04-09T13:55:00Z", "2023-04-09T13:55:00Z", "2023-04-09T13:54:00Z", "2023-04-09T13:53:00Z", "2023-04-09T13:55:00Z", "2023-04-09T13:55:00Z", "2023-04-09T13:35:00Z", "2023-04-09T13:50:00Z", "2023-04-09T13:55:00Z", "2023-04-09T13:55:00Z", "2023-04-09T13:55:00Z", "2023-04-09T12:55:00Z", "2023-04-09T13:56:00Z", "2023-04-09T13:56:00Z", "2023-04-09T13:53:00Z", "2023-04-09T13:53:00Z", "2023-04-09T13:54:00Z", "2023-04-09T13:55:00Z", "2023-04-09T13:55:00Z", "2023-04-09T13:56:00Z", "2023-04-09T14:03:00Z", "2023-04-09T13:55:00Z", "2023-04-09T13:55:00Z", "2023-04-09T13:55:00Z", "2023-04-09T13:55:00Z", "2023-04-09T13:56:00Z", "2023-04-09T13:55:00Z", "2023-04-09T13:55:00Z", "2023-04-09T13:55:00Z", "2023-04-09T13:51:00Z", "2023-04-09T13:56:00Z", "2023-04-09T13:56:00Z", "2023-04-09T13:55:00Z", "2023-04-09T13:55:00Z", "2023-04-09T13:56:00Z", "2023-04-09T14:04:00Z", "2023-04-09T13:55:00Z", "2023-04-09T13:53:00Z", "2023-04-09T13:53:00Z", "2023-04-09T13:55:00Z", "2023-04-09T13:51:00Z", "2023-04-09T13:53:00Z", "2023-04-09T13:56:00Z", "2023-04-09T13:53:00Z", "2023-04-09T13:55:00Z", "2023-04-09T13:55:00Z", "2023-04-09T13:55:00Z", "2023-04-09T13:56:00Z", "2023-04-09T13:53:00Z", "2023-04-09T13:55:00Z", "2023-04-09T13:55:00Z", "2023-04-09T13:53:00Z", "2023-04-09T13:55:00Z", "2023-04-09T13:53:00Z", "2023-04-09T13:51:00Z", "2023-04-09T13:55:00Z", "2023-04-09T13:55:00Z", "2023-04-09T13:56:00Z", "2023-04-09T13:53:00Z", "2023-04-09T13:50:00Z", "2023-04-09T13:52:00Z", "2023-04-09T13:55:00Z", "2023-04-09T13:40:00Z", "2023-04-09T13:53:00Z", "2023-04-09T13:50:00Z", "2023-04-09T14:02:00Z", "2023-04-09T13:54:00Z", "2023-04-09T13:56:00Z", "2023-04-09T13:47:00Z", "2023-04-09T14:02:00Z", "2023-04-09T13:55:00Z", "2023-04-09T13:54:00Z", "2023-04-09T13:53:00Z", "2023-04-09T13:53:00Z", "2023-04-09T13:56:00Z", "2023-04-09T13:54:00Z", "2023-04-09T13:51:00Z", "2023-04-09T13:50:00Z", "2023-04-09T13:53:00Z", "2023-04-09T13:50:00Z", "2023-04-09T13:53:00Z", "2023-04-09T13:55:00Z", "2023-04-09T13:55:00Z", "2023-04-09T14:05:00Z", "2023-04-09T13:55:00Z", "2023-04-09T13:55:00Z", "2023-04-09T13:55:00Z", "2023-04-09T13:48:00Z", "2023-04-09T13:55:00Z", "2023-04-09T13:55:00Z", "2023-04-09T13:55:00Z", "2023-04-09T12:55:00Z", "2023-04-09T13:56:00Z", "2023-04-09T13:53:00Z", "2023-04-09T13:53:00Z", "2023-04-09T13:53:00Z", "2023-04-09T13:55:00Z", "2023-04-09T13:55:00Z", "2023-04-09T13:56:00Z", "2023-04-09T13:53:00Z", "2023-04-09T13:55:00Z", "2023-04-09T13:47:00Z", "2023-04-09T13:53:00Z", "2023-04-09T13:55:00Z", "2023-04-09T13:53:00Z", "2023-04-09T13:55:00Z", "2023-04-09T13:55:00Z", "2023-04-09T13:50:00Z", "2023-04-09T13:53:00Z", "2023-04-09T13:55:00Z", "2023-04-09T13:55:00Z", "2023-04-09T13:55:00Z", "2023-04-09T13:53:00Z", "2023-04-09T13:55:00Z", "2023-04-09T13:54:00Z", "2023-04-09T13:55:00Z", "2023-04-09T13:55:00Z", "2023-04-09T13:55:00Z", "2023-04-09T13:53:00Z", "2023-04-09T13:55:00Z", "2023-04-09T13:54:00Z", "2023-04-09T13:50:00Z", "2023-04-09T13:52:00Z", "2023-04-09T13:55:00Z", "2023-04-09T13:56:00Z", "2023-04-09T13:55:00Z", "2023-04-09T13:55:00Z", "2023-04-09T13:55:00Z", "2023-04-09T13:53:00Z", "2023-04-09T13:57:00Z", "2023-04-09T13:53:00Z", "2023-04-09T13:53:00Z", "2023-04-09T13:56:00Z", "2023-04-09T13:55:00Z", "2023-04-09T13:49:00Z", "2023-04-09T13:45:00Z", "2023-04-09T13:55:00Z", "2023-04-09T13:53:00Z", "2023-04-09T13:53:00Z", "2023-04-09T13:53:00Z", "2023-04-09T13:56:00Z", "2023-04-09T13:53:00Z", "2023-04-09T13:55:00Z", "2023-04-09T13:56:00Z", "2023-04-09T13:53:00Z", "2023-04-09T13:53:00Z", "2023-04-09T13:53:00Z", "2023-04-09T13:55:00Z", "2023-04-09T14:00:00Z", "2023-04-09T13:55:00Z", "2023-04-09T13:50:00Z", "2023-04-09T13:53:00Z", "2023-04-09T13:55:00Z", "2023-04-09T13:55:00Z", "2023-04-09T13:56:00Z", "2023-04-09T13:56:00Z", "2023-04-09T13:55:00Z", "2023-04-09T13:55:00Z", "2023-04-09T13:55:00Z", "2023-04-09T13:53:00Z", "2023-04-09T13:55:00Z", "2023-04-09T13:53:00Z", "2023-04-09T13:55:00Z", "2023-04-09T13:55:00Z", "2023-04-09T13:55:00Z", "2023-04-09T13:53:00Z", "2023-04-09T13:53:00Z", "2023-04-09T13:53:00Z", "2023-04-09T13:53:00Z", "2023-04-09T13:55:00Z", "2023-04-09T13:54:00Z", "2023-04-09T13:55:00Z", "2023-04-09T13:55:00Z", "2023-04-09T13:53:00Z", "2023-04-09T13:50:00Z", "2023-04-09T13:53:00Z", "2023-04-09T13:55:00Z", "2023-04-09T13:55:00Z", "2023-04-09T13:55:00Z", "2023-04-09T13:55:00Z", "2023-04-09T13:55:00Z", "2023-04-09T13:53:00Z", "2023-04-09T13:55:00Z", "2023-04-09T13:54:00Z", "2023-04-09T13:56:00Z", "2023-04-09T13:55:00Z", "2023-04-09T13:53:00Z", "2023-04-09T13:56:00Z", "2023-04-09T13:55:00Z", "2023-04-09T13:56:00Z", "2023-04-09T13:55:00Z", "2023-04-09T13:53:00Z", "2023-04-09T13:55:00Z", "2023-04-09T13:54:00Z", "2023-04-09T13:55:00Z", "2023-04-09T13:54:00Z", "2023-04-09T13:55:00Z", "2023-04-09T13:55:00Z", "2023-04-09T13:55:00Z", "2023-04-09T13:55:00Z", "2023-04-09T13:56:00Z", "2023-04-09T13:54:00Z", "2023-04-09T13:53:00Z", "2023-04-09T13:47:00Z", "2023-04-09T13:50:00Z", "2023-04-09T13:53:00Z", "2023-04-09T13:53:00Z", "2023-04-09T13:55:00Z", "2023-04-09T13:53:00Z", "2023-04-09T13:53:00Z", "2023-04-09T13:55:00Z", "2023-04-09T13:55:00Z", "2023-04-09T14:02:00Z", "2023-04-09T13:55:00Z", "2023-04-09T13:55:00Z", "2023-04-09T13:53:00Z", "2023-04-09T13:55:00Z", "2023-04-09T13:55:00Z", "2023-04-09T13:55:00Z", "2023-04-09T13:53:00Z", "2023-04-09T13:53:00Z", "2023-04-09T13:53:00Z", "2023-04-09T13:55:00Z", "2023-04-09T13:53:00Z", "2023-04-09T13:53:00Z", "2023-04-09T13:55:00Z", "2023-04-09T13:53:00Z", "2023-04-09T13:53:00Z", "2023-04-09T13:52:00Z", "2023-04-09T13:55:00Z", "2023-04-09T13:55:00Z", "2023-04-09T13:55:00Z", "2023-04-09T13:53:00Z", "2023-04-09T13:56:00Z", "2023-04-09T13:55:00Z", "2023-04-09T13:50:00Z", "2023-04-09T14:00:00Z", "2023-04-09T13:56:00Z", "2023-04-09T13:55:00Z", "2023-04-09T13:53:00Z", "2023-04-09T13:53:00Z", "2023-04-09T13:56:00Z", "2023-04-09T13:55:00Z", "2023-04-09T13:55:00Z", "2023-04-09T13:55:00Z", "2023-04-09T13:55:00Z", "2023-04-09T13:55:00Z", "2023-04-09T13:55:00Z", "2023-04-09T13:50:00Z", "2023-04-09T13:53:00Z", "2023-04-09T13:56:00Z", "2023-04-09T13:53:00Z", "2023-04-09T13:56:00Z", "2023-04-09T13:55:00Z", "2023-04-09T13:53:00Z", "2023-04-09T13:55:00Z", "2023-04-09T13:55:00Z", "2023-04-09T13:53:00Z", "2023-04-09T13:55:00Z", "2023-04-09T13:55:00Z", "2023-04-09T13:53:00Z", "2023-04-09T13:54:00Z", "2023-04-09T13:53:00Z", "2023-04-09T13:55:00Z", "2023-04-09T13:53:00Z", "2023-04-09T13:56:00Z", "2023-04-09T13:56:00Z", "2023-04-09T13:56:00Z", "2023-04-09T14:00:00Z", "2023-04-09T13:53:00Z", "2023-04-09T13:55:00Z", "2023-04-09T13:55:00Z", "2023-04-09T13:53:00Z", "2023-04-09T13:55:00Z", "2023-04-09T13:53:00Z", "2023-04-09T13:56:00Z", "2023-04-09T13:55:00Z", "2023-04-09T13:55:00Z", "2023-04-09T13:55:00Z", "2023-04-09T13:53:00Z", "2023-04-09T13:55:00Z", "2023-04-09T13:55:00Z", "2023-04-09T13:55:00Z", "2023-04-09T13:55:00Z", "2023-04-09T13:56:00Z", "2023-04-09T13:55:00Z", "2023-04-09T13:55:00Z", "2023-04-09T13:47:00Z", "2023-04-09T13:50:00Z", "2023-04-09T13:55:00Z", "2023-04-09T13:47:00Z", "2023-04-09T13:45:00Z", "2023-04-09T13:55:00Z", "2023-04-09T13:40:00Z", "2023-04-09T13:55:00Z", "2023-04-09T13:55:00Z", "2023-04-09T13:55:00Z", "2023-04-09T13:55:00Z", "2023-04-09T13:55:00Z", "2023-04-09T13:53:00Z", "2023-04-09T13:53:00Z", "2023-04-09T13:45:00Z", "2023-04-09T13:53:00Z", "2023-04-09T13:55:00Z", "2023-04-09T13:55:00Z", "2023-04-09T13:55:00Z", "2023-04-09T13:55:00Z", "2023-04-09T13:55:00Z", "2023-04-09T13:55:00Z", "2023-04-09T13:55:00Z", "2023-04-09T13:51:00Z", "2023-04-09T13:56:00Z", "2023-04-09T13:55:00Z", "2023-04-09T13:53:00Z", "2023-04-09T13:55:00Z", "2023-04-09T13:55:00Z", "2023-04-09T13:56:00Z", "2023-04-09T13:53:00Z", "2023-04-09T13:55:00Z", "2023-04-09T13:55:00Z", "2023-04-09T13:55:00Z", "2023-04-09T13:53:00Z", "2023-04-09T13:55:00Z", "2023-04-09T13:55:00Z", "2023-04-09T13:53:00Z", "2023-04-09T13:38:00Z", "2023-04-09T13:52:00Z", "2023-04-09T13:55:00Z", "2023-04-09T13:55:00Z", "2023-04-09T13:53:00Z", "2023-04-09T13:50:00Z", "2023-04-09T13:53:00Z", "2023-04-09T13:53:00Z", "2023-04-09T13:53:00Z", "2023-04-09T13:53:00Z", "2023-04-09T13:55:00Z", "2023-04-09T13:53:00Z", "2023-04-09T13:53:00Z", "2023-04-09T13:53:00Z", "2023-04-09T13:55:00Z", "2023-04-09T13:55:00Z", "2023-04-09T13:55:00Z", "2023-04-09T13:55:00Z", "2023-04-09T13:55:00Z", "2023-04-09T13:55:00Z", "2023-04-09T13:56:00Z", "2023-04-09T13:56:00Z", "2023-04-09T13:55:00Z", "2023-04-09T13:55:00Z", "2023-04-09T13:50:00Z", "2023-04-09T13:55:00Z", "2023-04-09T13:55:00Z", "2023-04-09T13:55:00Z", "2023-04-09T13:53:00Z", "2023-04-09T13:53:00Z", "2023-04-09T13:56:00Z", "2023-04-09T13:55:00Z", "2023-04-09T13:55:00Z", "2023-04-09T13:55:00Z", "2023-04-09T14:03:00Z", "2023-04-09T13:55:00Z", "2023-04-09T13:50:00Z", "2023-04-09T14:00:00Z", "2023-04-09T13:53:00Z", "2023-04-09T13:45:00Z", "2023-04-09T13:52:00Z", "2023-04-09T13:53:00Z", "2023-04-09T13:55:00Z", "2023-04-09T13:55:00Z", "2023-04-09T13:50:00Z", "2023-04-09T13:55:00Z", "2023-04-09T13:55:00Z", "2023-04-09T13:51:00Z", "2023-04-09T13:50:00Z", "2023-04-09T13:53:00Z", "2023-04-09T13:55:00Z", "2023-04-09T13:55:00Z", "2023-04-09T13:53:00Z", "2023-04-09T13:55:00Z", "2023-04-09T13:53:00Z", "2023-04-09T13:51:00Z", "2023-04-09T13:55:00Z", "2023-04-09T13:53:00Z", "2023-04-09T13:53:00Z", "2023-04-09T13:47:00Z", "2023-04-09T13:52:00Z", "2023-04-09T13:55:00Z", "2023-04-09T13:53:00Z", "2023-04-09T13:53:00Z", "2023-04-09T13:55:00Z", "2023-04-09T13:54:00Z", "2023-04-09T13:53:00Z", "2023-04-09T13:56:00Z", "2023-04-09T13:55:00Z", "2023-04-09T13:50:00Z", "2023-04-09T13:56:00Z", "2023-04-09T13:56:00Z", "2023-04-09T13:53:00Z", "2023-04-09T13:56:00Z", "2023-04-09T13:55:00Z", "2023-04-09T13:55:00Z", "2023-04-09T13:55:00Z", "2023-04-09T13:55:00Z", "2023-04-09T13:55:00Z", "2023-04-09T13:55:00Z", "2023-04-09T13:53:00Z", "2023-04-09T13:55:00Z", "2023-04-09T13:55:00Z", "2023-04-09T13:55:00Z", "2023-04-09T14:01:00Z", "2023-04-09T13:55:00Z", "2023-04-09T13:55:00Z", "2023-04-09T13:55:00Z", "2023-04-09T13:55:00Z", "2023-04-09T13:55:00Z", "2023-04-09T13:55:00Z", "2023-04-09T13:55:00Z", "2023-04-09T13:52:00Z", "2023-04-09T13:53:00Z", "2023-04-09T13:53:00Z", "2023-04-09T13:55:00Z", "2023-04-09T13:53:00Z", "2023-04-09T13:53:00Z", "2023-04-09T13:53:00Z", "2023-04-09T13:55:00Z", "2023-04-09T13:55:00Z", "2023-04-09T13:52:00Z", "2023-04-09T13:55:00Z", "2023-04-09T13:55:00Z", "2023-04-09T13:55:00Z", "2023-04-09T13:51:00Z", "2023-04-09T13:55:00Z", "2023-04-09T13:55:00Z", "2023-04-09T13:55:00Z", "2023-04-09T13:52:00Z", "2023-04-09T13:55:00Z", "2023-04-09T13:55:00Z", "2023-04-09T13:55:00Z", "2023-04-09T14:00:00Z", "2023-04-09T13:55:00Z", "2023-04-09T13:55:00Z", "2023-04-09T13:56:00Z", "2023-04-09T13:51:00Z", "2023-04-09T14:00:00Z", "2023-04-09T13:54:00Z", "2023-04-09T13:53:00Z", "2023-04-09T13:55:00Z", "2023-04-09T13:55:00Z", "2023-04-09T13:54:00Z", "2023-04-09T13:54:00Z", "2023-04-09T13:55:00Z", "2023-04-09T13:55:00Z", "2023-04-09T13:53:00Z", "2023-04-09T13:54:00Z", "2023-04-09T13:55:00Z", "2023-04-09T13:54:00Z", "2023-04-09T13:56:00Z", "2023-04-09T13:55:00Z", "2023-04-09T13:52:00Z", "2023-04-09T13:50:00Z", "2023-04-09T13:53:00Z", "2023-04-09T13:54:00Z", "2023-04-09T13:55:00Z", "2023-04-09T13:55:00Z", "2023-04-09T13:56:00Z", "2023-04-09T13:56:00Z", "2023-04-09T13:56:00Z", "2023-04-09T13:55:00Z", "2023-04-09T13:54:00Z", "2023-04-09T13:56:00Z", "2023-04-09T13:53:00Z", "2023-04-09T13:55:00Z", "2023-04-09T13:53:00Z", "2023-04-09T13:56:00Z", "2023-04-09T13:53:00Z", "2023-04-09T13:50:00Z", "2023-04-09T13:53:00Z", "2023-04-09T13:55:00Z", "2023-04-09T13:55:00Z", "2023-04-09T13:54:00Z", "2023-04-09T13:56:00Z", "2023-04-09T13:54:00Z", "2023-04-09T13:55:00Z", "2023-04-09T13:55:00Z", "2023-04-09T13:50:00Z", "2023-04-09T13:56:00Z", "2023-04-09T13:53:00Z", "2023-04-09T13:55:00Z", "2023-04-09T13:51:00Z", "2023-04-09T13:55:00Z", "2023-04-09T13:48:00Z", "2023-04-09T13:53:00Z", "2023-04-09T13:53:00Z", "2023-04-09T13:55:00Z", "2023-04-09T13:51:00Z", "2023-04-09T13:55:00Z", "2023-04-09T13:55:00Z", "2023-04-09T13:55:00Z", "2023-04-09T13:56:00Z", "2023-04-09T13:56:00Z", "2023-04-09T13:55:00Z", "2023-04-09T13:53:00Z", "2023-04-09T13:53:00Z", "2023-04-09T13:55:00Z", "2023-04-09T13:56:00Z", "2023-04-09T13:50:00Z", "2023-04-09T13:55:00Z", "2023-04-09T13:55:00Z", "2023-04-09T13:55:00Z", "2023-04-09T13:56:00Z", "2023-04-09T13:55:00Z", "2023-04-09T13:54:00Z", "2023-04-09T13:55:00Z", "2023-04-09T13:55:00Z", "2023-04-09T13:55:00Z", "2023-04-09T12:55:00Z", "2023-04-09T13:55:00Z", "2023-04-09T13:55:00Z", "2023-04-09T13:50:00Z", "2023-04-09T13:55:00Z", "2023-04-09T13:56:00Z", "2023-04-09T13:55:00Z", "2023-04-09T13:55:00Z", "2023-04-09T13:55:00Z", "2023-04-09T13:55:00Z", "2023-04-09T13:55:00Z", "2023-04-09T13:55:00Z", "2023-04-09T13:55:00Z", "2023-04-09T13:55:00Z", "2023-04-09T13:50:00Z", "2023-04-09T13:55:00Z", "2023-04-09T13:56:00Z", "2023-04-09T13:55:00Z", "2023-04-09T13:55:00Z", "2023-04-09T13:55:00Z", "2023-04-09T13:55:00Z", "2023-04-09T13:55:00Z", "2023-04-09T13:55:00Z", "2023-04-09T13:53:00Z", "2023-04-09T13:54:00Z", "2023-04-09T13:53:00Z", "2023-04-09T13:55:00Z", "2023-04-09T13:53:00Z", "2023-04-09T13:53:00Z", "2023-04-09T13:56:00Z", "2023-04-09T13:53:00Z", "2023-04-09T13:53:00Z", "2023-04-09T13:53:00Z", "2023-04-09T13:47:00Z", "2023-04-09T13:53:00Z", "2023-04-09T13:56:00Z", "2023-04-09T13:55:00Z", "2023-04-09T13:56:00Z", "2023-04-09T14:03:00Z", "2023-04-09T13:55:00Z", "2023-04-09T13:53:00Z", "2023-04-09T13:56:00Z", "2023-04-09T13:55:00Z", "2023-04-09T13:55:00Z", "2023-04-09T13:55:00Z", "2023-04-09T13:55:00Z", "2023-04-09T13:53:00Z", "2023-04-09T13:53:00Z", "2023-04-09T13:56:00Z", "2023-04-09T13:54:00Z", "2023-04-09T13:55:00Z", "2023-04-09T13:53:00Z", "2023-04-09T13:53:00Z", "2023-04-09T13:51:00Z", "2023-04-09T13:53:00Z", "2023-04-09T13:55:00Z", "2023-04-09T13:56:00Z", "2023-04-09T13:55:00Z", "2023-04-09T14:01:00Z", "2023-04-09T13:55:00Z", "2023-04-09T13:55:00Z", "2023-04-09T13:53:00Z", "2023-04-09T13:55:00Z", "2023-04-09T13:53:00Z", "2023-04-09T13:55:00Z", "2023-04-09T13:55:00Z", "2023-04-09T14:05:00Z", "2023-04-09T13:55:00Z", "2023-04-09T13:55:00Z", "2023-04-09T13:55:00Z", "2023-04-09T13:53:00Z", "2023-04-09T13:55:00Z", "2023-04-09T13:55:00Z", "2023-04-09T13:53:00Z", "2023-04-09T13:55:00Z", "2023-04-09T13:55:00Z", "2023-04-09T13:53:00Z", "2023-04-09T13:55:00Z", "2023-04-09T13:55:00Z", "2023-04-09T13:53:00Z", "2023-04-09T13:54:00Z", "2023-04-09T13:55:00Z", "2023-04-09T13:55:00Z", "2023-04-09T13:55:00Z", "2023-04-09T13:55:00Z", "2023-04-09T13:56:00Z", "2023-04-09T13:53:00Z", "2023-04-09T13:53:00Z", "2023-04-09T13:55:00Z", "2023-04-09T13:55:00Z", "2023-04-09T13:45:00Z", "2023-04-09T13:53:00Z", "2023-04-09T13:53:00Z", "2023-04-09T13:53:00Z", "2023-04-09T13:55:00Z", "2023-04-09T13:56:00Z", "2023-04-09T13:55:00Z", "2023-04-09T13:55:00Z", "2023-04-09T13:55:00Z", "2023-04-09T13:55:00Z", "2023-04-09T13:55:00Z", "2023-04-09T13:53:00Z", "2023-04-09T13:55:00Z", "2023-04-09T13:55:00Z", "2023-04-09T13:55:00Z", "2023-04-09T13:55:00Z", "2023-04-09T13:55:00Z", "2023-04-09T13:55:00Z", "2023-04-09T13:55:00Z", "2023-04-09T13:53:00Z", "2023-04-09T13:55:00Z", "2023-04-09T13:55:00Z", "2023-04-09T13:55:00Z", "2023-04-09T13:55:00Z", "2023-04-09T13:53:00Z", "2023-04-09T13:53:00Z", "2023-04-09T13:55:00Z", "2023-04-09T13:53:00Z", "2023-04-09T13:55:00Z", "2023-04-09T13:55:00Z", "2023-04-09T13:45:00Z", "2023-04-09T13:52:00Z", "2023-04-09T13:53:00Z", "2023-04-09T13:54:00Z", "2023-04-09T13:56:00Z", "2023-04-09T13:54:00Z", "2023-04-09T13:53:00Z", "2023-04-09T13:55:00Z", "2023-04-09T13:55:00Z", "2023-04-09T13:53:00Z", "2023-04-09T13:53:00Z", "2023-04-09T13:55:00Z", "2023-04-09T13:54:00Z", "2023-04-09T13:55:00Z", "2023-04-09T13:55:00Z", "2023-04-09T13:56:00Z", "2023-04-09T13:35:00Z", "2023-04-09T13:55:00Z", "2023-04-09T13:55:00Z", "2023-04-09T13:55:00Z", "2023-04-09T13:56:00Z", "2023-04-09T13:55:00Z", "2023-04-09T13:55:00Z", "2023-04-09T13:55:00Z", "2023-04-09T13:50:00Z", "2023-04-09T13:55:00Z", "2023-04-09T13:50:00Z", "2023-04-09T13:53:00Z", "2023-04-09T13:53:00Z", "2023-04-09T13:55:00Z", "2023-04-09T13:55:00Z", "2023-04-09T13:55:00Z", "2023-04-09T13:52:00Z", "2023-04-09T13:56:00Z", "2023-04-09T13:55:00Z", "2023-04-09T13:53:00Z", "2023-04-09T13:55:00Z", "2023-04-09T13:55:00Z", "2023-04-09T13:53:00Z", "2023-04-09T13:55:00Z", "2023-04-09T13:55:00Z", "2023-04-09T13:53:00Z", "2023-04-09T13:55:00Z", "2023-04-09T13:53:00Z", "2023-04-09T13:55:00Z", "2023-04-09T13:53:00Z", "2023-04-09T13:53:00Z", "2023-04-09T13:53:00Z", "2023-04-09T13:53:00Z", "2023-04-09T13:45:00Z", "2023-04-09T13:55:00Z", "2023-04-09T13:52:00Z", "2023-04-09T13:55:00Z", "2023-04-09T13:55:00Z", "2023-04-09T13:56:00Z", "2023-04-09T13:53:00Z", "2023-04-09T13:55:00Z", "2023-04-09T13:52:00Z", "2023-04-09T13:56:00Z", "2023-04-09T13:58:00Z", "2023-04-09T13:54:00Z", "2023-04-09T13:53:00Z", "2023-04-09T13:55:00Z", "2023-04-09T13:55:00Z", "2023-04-09T13:52:00Z", "2023-04-09T13:53:00Z", "2023-04-09T13:54:00Z", "2023-04-09T13:53:00Z", "2023-04-09T13:55:00Z", "2023-04-09T13:55:00Z", "2023-04-09T13:55:00Z", "2023-04-09T13:54:00Z", "2023-04-09T13:53:00Z", "2023-04-09T13:55:00Z", "2023-04-09T13:55:00Z", "2023-04-09T13:53:00Z", "2023-04-09T13:53:00Z", "2023-04-09T13:53:00Z", "2023-04-09T13:52:00Z", "2023-04-09T13:55:00Z", "2023-04-09T13:55:00Z", "2023-04-09T13:50:00Z", "2023-04-09T13:56:00Z", "2023-04-09T13:53:00Z", "2023-04-09T13:40:00Z", "2023-04-09T13:53:00Z", "2023-04-09T13:55:00Z", "2023-04-09T13:53:00Z", "2023-04-09T13:53:00Z", "2023-04-09T13:55:00Z", "2023-04-09T13:54:00Z", "2023-04-09T13:53:00Z", "2023-04-09T13:55:00Z", "2023-04-09T13:55:00Z", "2023-04-09T13:54:00Z", "2023-04-09T13:52:00Z", "2023-04-09T13:55:00Z", "2023-04-09T13:55:00Z", "2023-04-09T13:53:00Z", "2023-04-09T13:55:00Z", "2023-04-09T13:53:00Z", "2023-04-09T13:55:00Z", "2023-04-09T13:56:00Z", "2023-04-09T13:56:00Z", "2023-04-09T14:00:00Z", "2023-04-09T13:53:00Z", "2023-04-09T13:55:00Z", "2023-04-09T13:52:00Z", "2023-04-09T13:52:00Z", "2023-04-09T13:55:00Z", "2023-04-09T13:53:00Z", "2023-04-09T13:53:00Z", "2023-04-09T13:53:00Z", "2023-04-09T14:00:00Z", "2023-04-09T13:55:00Z", "2023-04-09T13:55:00Z", "2023-04-09T13:53:00Z", "2023-04-09T13:56:00Z", "2023-04-09T13:55:00Z", "2023-04-09T13:45:00Z", "2023-04-09T13:53:00Z", "2023-04-09T13:59:00Z", "2023-04-09T13:55:00Z", "2023-04-09T13:55:00Z", "2023-04-09T13:57:00Z", "2023-04-09T13:53:00Z", "2023-04-09T13:55:00Z", "2023-04-09T13:55:00Z", "2023-04-09T13:56:00Z", "2023-04-09T13:53:00Z", "2023-04-09T13:55:00Z", "2023-04-09T13:54:00Z", "2023-04-09T13:55:00Z", "2023-04-09T13:53:00Z", "2023-04-09T13:55:00Z", "2023-04-09T13:51:00Z", "2023-04-09T13:55:00Z", "2023-04-09T13:55:00Z", "2023-04-09T13:50:00Z", "2023-04-09T13:55:00Z", "2023-04-09T13:55:00Z", "2023-04-09T13:55:00Z", "2023-04-09T13:56:00Z", "2023-04-09T13:53:00Z", "2023-04-09T13:50:00Z", "2023-04-09T13:56:00Z", "2023-04-09T13:58:00Z", "2023-04-09T13:55:00Z", "2023-04-09T13:45:00Z", "2023-04-09T13:59:00Z", "2023-04-09T13:54:00Z", "2023-04-09T13:53:00Z", "2023-04-09T13:53:00Z", "2023-04-09T13:53:00Z", "2023-04-09T13:53:00Z", "2023-04-09T13:53:00Z", "2023-04-09T13:56:00Z", "2023-04-09T13:53:00Z", "2023-04-09T13:56:00Z", "2023-04-09T13:53:00Z", "2023-04-09T13:53:00Z", "2023-04-09T13:54:00Z", "2023-04-09T13:53:00Z", "2023-04-09T13:54:00Z", "2023-04-09T13:55:00Z", "2023-04-09T13:56:00Z", "2023-04-09T13:55:00Z", "2023-04-09T13:55:00Z", "2023-04-09T13:55:00Z", "2023-04-09T14:00:00Z", "2023-04-09T13:54:00Z", "2023-04-09T13:56:00Z", "2023-04-09T13:53:00Z", "2023-04-09T13:45:00Z", "2023-04-09T13:45:00Z", "2023-04-09T13:52:00Z", "2023-04-09T13:45:00Z", "2023-04-09T13:53:00Z", "2023-04-09T13:55:00Z", "2023-04-09T13:48:00Z", "2023-04-09T13:55:00Z", "2023-04-09T13:53:00Z", "2023-04-09T13:55:00Z", "2023-04-09T13:53:00Z", "2023-04-09T13:55:00Z", "2023-04-09T13:51:00Z", "2023-04-09T13:55:00Z", "2023-04-09T13:56:00Z", "2023-04-09T13:53:00Z", "2023-04-09T13:55:00Z", "2023-04-09T13:55:00Z", "2023-04-09T13:55:00Z", "2023-04-09T13:55:00Z", "2023-04-09T13:55:00Z", "2023-04-09T13:52:00Z", "2023-04-09T13:55:00Z", "2023-04-09T13:54:00Z", "2023-04-09T13:56:00Z", "2023-04-09T13:55:00Z", "2023-04-09T13:56:00Z", "2023-04-09T13:56:00Z", "2023-04-09T13:53:00Z", "2023-04-09T13:56:00Z", "2023-04-09T13:58:00Z", "2023-04-09T13:56:00Z", "2023-04-09T13:52:00Z", "2023-04-09T13:56:00Z", "2023-04-09T13:59:00Z", "2023-04-09T13:52:00Z", "2023-04-09T13:56:00Z", "2023-04-09T13:53:00Z", "2023-04-09T13:56:00Z", "2023-04-09T13:57:00Z", "2023-04-09T12:57:00Z", "2023-04-09T13:56:00Z", "2023-04-09T13:55:00Z", "2023-04-09T13:56:00Z", "2023-04-09T13:56:00Z", "2023-04-09T13:56:00Z", "2023-04-09T13:55:00Z", "2023-04-09T13:59:00Z", "2023-04-09T13:56:00Z", "2023-04-09T13:50:00Z", "2023-04-09T13:29:00Z", "2023-04-09T13:53:00Z", "2023-04-09T13:52:00Z", "2023-04-09T13:55:00Z", "2023-04-09T13:53:00Z", "2023-04-09T13:11:00Z", "2023-04-09T13:53:00Z", "2023-04-09T13:55:00Z", "2023-04-09T13:56:00Z", "2023-04-09T13:56:00Z", "2023-04-09T13:53:00Z", "2023-04-09T13:55:00Z", "2023-04-09T13:53:00Z", "2023-04-09T13:59:00Z", "2023-04-09T13:56:00Z", "2023-04-09T13:40:00Z", "2023-04-09T13:51:00Z", "2023-04-09T13:56:00Z", "2023-04-09T13:57:00Z", "2023-04-09T13:52:00Z", "2023-04-09T13:55:00Z", "2023-04-09T13:55:00Z", "2023-04-09T13:55:00Z", "2023-04-09T13:55:00Z", "2023-04-09T13:55:00Z", "2023-04-09T13:56:00Z", "2023-04-09T13:53:00Z", "2023-04-09T13:55:00Z", "2023-04-09T13:51:00Z", "2023-04-09T13:56:00Z", "2023-04-09T13:55:00Z", "2023-04-09T13:45:00Z", "2023-04-09T13:53:00Z", "2023-04-09T13:53:00Z", "2023-04-09T13:55:00Z", "2023-04-09T13:55:00Z", "2023-04-09T13:55:00Z", "2023-04-09T13:55:00Z", "2023-04-09T13:56:00Z", "2023-04-09T13:54:00Z", "2023-04-09T13:55:00Z", "2023-04-09T13:53:00Z", "2023-04-09T13:53:00Z", "2023-04-09T13:55:00Z", "2023-04-09T13:55:00Z", "2023-04-09T13:55:00Z", "2023-04-09T13:55:00Z", "2023-04-09T13:53:00Z", "2023-04-09T13:52:00Z", "2023-04-09T13:52:00Z", "2023-04-09T13:56:00Z", "2023-04-09T13:55:00Z", "2023-04-09T13:55:00Z", "2023-04-09T13:55:00Z", "2023-04-09T13:35:00Z", "2023-04-09T13:53:00Z", "2023-04-09T13:55:00Z", "2023-04-09T13:54:00Z", "2023-04-09T13:54:00Z", "2023-04-09T13:56:00Z", "2023-04-09T13:50:00Z", "2023-04-09T13:50:00Z", "2023-04-09T13:55:00Z", "2023-04-09T13:52:00Z", "2023-04-09T13:55:00Z", "2023-04-09T13:53:00Z", "2023-04-09T13:50:00Z", "2023-04-09T13:55:00Z", "2023-04-09T13:55:00Z", "2023-04-09T13:55:00Z", "2023-04-09T13:53:00Z", "2023-04-09T13:55:00Z", "2023-04-09T13:53:00Z", "2023-04-09T13:45:00Z", "2023-04-09T13:55:00Z", "2023-04-09T13:55:00Z", "2023-04-09T13:53:00Z", "2023-04-09T13:55:00Z", "2023-04-09T13:55:00Z", "2023-04-09T13:55:00Z", "2023-04-09T13:53:00Z", "2023-04-09T13:50:00Z", "2023-04-09T13:53:00Z", "2023-04-09T13:51:00Z", "2023-04-09T13:52:00Z", "2023-04-09T13:51:00Z", "2023-04-09T13:55:00Z", "2023-04-09T13:54:00Z", "2023-04-09T13:55:00Z", "2023-04-09T13:53:00Z", "2023-04-09T13:55:00Z", "2023-04-09T13:55:00Z", "2023-04-09T13:55:00Z", "2023-04-09T13:53:00Z", "2023-04-09T13:53:00Z", "2023-04-09T13:56:00Z", "2023-04-09T14:03:00Z", "2023-04-09T13:53:00Z", "2023-04-09T13:45:00Z", "2023-04-09T13:53:00Z", "2023-04-09T13:55:00Z", "2023-04-09T13:53:00Z", "2023-04-09T13:53:00Z", "2023-04-09T13:56:00Z", "2023-04-09T13:53:00Z", "2023-04-09T13:55:00Z", "2023-04-09T13:55:00Z", "2023-04-09T13:55:00Z", "2023-04-09T13:53:00Z", "2023-04-09T13:51:00Z", "2023-04-09T13:55:00Z", "2023-04-09T13:55:00Z", "2023-04-09T14:02:00Z", "2023-04-09T13:55:00Z", "2023-04-09T13:35:00Z", "2023-04-09T13:55:00Z", "2023-04-09T13:55:00Z", "2023-04-09T13:55:00Z", "2023-04-09T13:55:00Z", "2023-04-09T13:55:00Z", "2023-04-09T13:56:00Z", "2023-04-09T13:55:00Z", "2023-04-09T13:56:00Z", "2023-04-09T13:55:00Z", "2023-04-09T13:51:00Z", "2023-04-09T13:56:00Z", "2023-04-09T13:53:00Z", "2023-04-09T13:52:00Z", "2023-04-09T13:59:00Z", "2023-04-09T13:53:00Z", "2023-04-09T13:53:00Z", "2023-04-09T12:55:00Z", "2023-04-09T13:55:00Z", "2023-04-09T13:47:00Z", "2023-04-09T13:53:00Z", "2023-04-09T13:53:00Z", "2023-04-09T13:55:00Z", "2023-04-09T13:53:00Z", "2023-04-09T13:55:00Z", "2023-04-09T13:55:00Z", "2023-04-09T13:55:00Z", "2023-04-09T13:55:00Z", "2023-04-09T13:55:00Z", "2023-04-09T13:55:00Z", "2023-04-09T13:53:00Z", "2023-04-09T13:53:00Z", "2023-04-09T13:53:00Z", "2023-04-09T13:55:00Z", "2023-04-09T13:53:00Z", "2023-04-09T13:55:00Z", "2023-04-09T13:55:00Z", "2023-04-09T13:55:00Z", "2023-04-09T13:53:00Z", "2023-04-09T13:53:00Z", "2023-04-09T13:45:00Z", "2023-04-09T13:53:00Z", "2023-04-09T13:54:00Z", "2023-04-09T13:54:00Z", "2023-04-09T13:55:00Z", "2023-04-09T13:55:00Z", "2023-04-09T13:55:00Z", "2023-04-09T13:51:00Z", "2023-04-09T13:54:00Z", "2023-04-09T13:56:00Z", "2023-04-09T13:53:00Z", "2023-04-09T13:53:00Z", "2023-04-09T13:53:00Z", "2023-04-09T13:55:00Z", "2023-04-09T13:53:00Z", "2023-04-09T13:51:00Z", "2023-04-09T13:55:00Z", "2023-04-09T13:53:00Z", "2023-04-09T13:53:00Z", "2023-04-09T13:55:00Z", "2023-04-09T13:54:00Z", "2023-04-09T13:55:00Z", "2023-04-09T13:55:00Z", "2023-04-09T13:53:00Z", "2023-04-09T13:55:00Z", "2023-04-09T13:53:00Z", "2023-04-09T13:55:00Z", "2023-04-09T13:55:00Z", "2023-04-09T13:55:00Z", "2023-04-09T13:53:00Z", "2023-04-09T13:54:00Z", "2023-04-09T13:55:00Z", "2023-04-09T13:53:00Z", "2023-04-09T14:00:00Z", "2023-04-09T13:55:00Z", "2023-04-09T13:47:00Z", "2023-04-09T13:55:00Z", "2023-04-09T13:53:00Z", "2023-04-09T13:53:00Z", "2023-04-09T13:55:00Z", "2023-04-09T13:55:00Z", "2023-04-09T13:55:00Z", "2023-04-09T13:52:00Z", "2023-04-09T13:55:00Z", "2023-04-09T13:55:00Z", "2023-04-09T13:56:00Z", "2023-04-09T13:53:00Z", "2023-04-09T13:53:00Z", "2023-04-09T13:53:00Z", "2023-04-09T13:55:00Z", "2023-04-09T12:58:00Z", "2023-04-09T13:55:00Z", "2023-04-09T13:55:00Z", "2023-04-09T13:56:00Z", "2023-04-09T13:53:00Z", "2023-04-09T13:54:00Z", "2023-04-09T13:55:00Z", "2023-04-09T13:55:00Z", "2023-04-09T13:55:00Z", "2023-04-09T13:55:00Z", "2023-04-09T13:53:00Z", "2023-04-09T13:53:00Z", "2023-04-09T13:55:00Z", "2023-04-09T13:55:00Z", "2023-04-09T13:53:00Z", "2023-04-09T13:56:00Z", "2023-04-09T13:55:00Z", "2023-04-09T13:55:00Z", "2023-04-09T13:56:00Z", "2023-04-09T13:54:00Z", "2023-04-09T13:53:00Z", "2023-04-09T13:53:00Z", "2023-04-09T13:55:00Z", "2023-04-09T13:53:00Z", "2023-04-09T13:55:00Z", "2023-04-09T13:56:00Z", "2023-04-09T13:51:00Z", "2023-04-09T13:55:00Z", "2023-04-09T13:56:00Z", "2023-04-09T13:55:00Z", "2023-04-09T13:56:00Z", "2023-04-09T13:55:00Z", "2023-04-09T13:53:00Z", "2023-04-09T13:55:00Z", "2023-04-09T13:55:00Z", "2023-04-09T13:56:00Z", "2023-04-09T13:52:00Z", "2023-04-09T13:51:00Z", "2023-04-09T13:56:00Z", "2023-04-09T13:55:00Z", "2023-04-09T13:52:00Z", "2023-04-09T13:55:00Z", "2023-04-09T13:55:00Z", "2023-04-09T13:55:00Z", "2023-04-09T14:00:00Z", "2023-04-09T13:55:00Z", "2023-04-09T13:55:00Z", "2023-04-09T14:00:00Z", "2023-04-09T14:00:00Z", "2023-04-09T14:00:00Z", "2023-04-09T14:00:00Z", "2023-04-09T14:00:00Z", "2023-04-09T14:00:00Z", "2023-04-09T13:50:00Z", "2023-04-09T14:00:00Z", "2023-04-09T14:00:00Z", "2023-04-09T14:00:00Z", "2023-04-09T14:00:00Z", "2023-04-09T14:00:00Z", "2023-04-09T14:00:00Z", "2023-04-09T14:00:00Z", "2023-04-09T14:00:00Z", "2023-04-09T14:00:00Z", "2023-04-09T13:55:00Z", "2023-04-09T13:55:00Z", "2023-04-09T14:00:00Z", "2023-04-09T13:55:00Z", "2023-04-09T13:55:00Z", "2023-04-09T13:53:00Z", "2023-04-09T13:53:00Z", "2023-04-09T13:52:00Z", "2023-04-09T13:55:00Z", "2023-04-09T13:55:00Z", "2023-04-09T13:53:00Z", "2023-04-09T13:53:00Z", "2023-04-09T13:54:00Z", "2023-04-09T13:55:00Z", "2023-04-09T13:55:00Z", "2023-04-09T13:55:00Z", "2023-04-09T13:55:00Z", "2023-04-09T13:55:00Z", "2023-04-09T13:55:00Z", "2023-04-09T13:55:00Z", "2023-04-09T13:55:00Z", "2023-04-09T13:55:00Z", "2023-04-09T13:53:00Z", "2023-04-09T13:54:00Z", "2023-04-09T13:55:00Z", "2023-04-09T13:56:00Z", "2023-04-09T13:55:00Z", "2023-04-09T13:51:00Z", "2023-04-09T13:55:00Z", "2023-04-09T13:52:00Z", "2023-04-09T13:54:00Z", "2023-04-09T13:55:00Z", "2023-04-09T13:55:00Z", "2023-04-09T13:55:00Z", "2023-04-09T13:53:00Z", "2023-04-09T13:56:00Z", "2023-04-09T13:55:00Z", "2023-04-09T13:54:00Z", "2023-04-09T13:55:00Z", "2023-04-09T13:53:00Z", "2023-04-09T13:55:00Z", "2023-04-09T13:53:00Z", "2023-04-09T13:56:00Z", "2023-04-09T13:53:00Z", "2023-04-09T13:55:00Z", "2023-04-09T13:54:00Z", "2023-04-09T13:55:00Z", "2023-04-09T13:55:00Z", "2023-04-09T13:53:00Z", "2023-04-09T14:04:00Z", "2023-04-09T13:55:00Z", "2023-04-09T13:55:00Z", "2023-04-09T13:55:00Z", "2023-04-09T13:55:00Z", "2023-04-09T13:55:00Z", "2023-04-09T14:03:00Z", "2023-04-09T13:55:00Z", "2023-04-09T13:55:00Z", "2023-04-09T13:53:00Z", "2023-04-09T13:54:00Z", "2023-04-09T13:54:00Z", "2023-04-09T13:58:00Z", "2023-04-09T13:55:00Z", "2023-04-09T13:51:00Z", "2023-04-09T13:55:00Z", "2023-04-09T13:55:00Z", "2023-04-09T13:55:00Z", "2023-04-09T13:55:00Z", "2023-04-09T14:02:00Z", "2023-04-09T13:55:00Z", "2023-04-09T13:53:00Z", "2023-04-09T13:55:00Z", "2023-04-09T13:55:00Z", "2023-04-09T13:53:00Z", "2023-04-09T13:55:00Z", "2023-04-09T13:54:00Z", "2023-04-09T13:54:00Z", "2023-04-09T13:53:00Z", "2023-04-09T13:53:00Z", "2023-04-09T13:55:00Z", "2023-04-09T13:53:00Z", "2023-04-09T13:55:00Z", "2023-04-09T13:45:00Z", "2023-04-09T13:56:00Z", "2023-04-09T13:55:00Z", "2023-04-09T13:55:00Z", "2023-04-09T13:55:00Z", "2023-04-09T13:53:00Z", "2023-04-09T13:53:00Z", "2023-04-09T13:53:00Z", "2023-04-09T13:53:00Z", "2023-04-09T13:55:00Z", "2023-04-09T13:53:00Z", "2023-04-09T13:55:00Z", "2023-04-09T13:45:00Z", "2023-04-09T13:55:00Z", "2023-04-09T13:50:00Z", "2023-04-09T13:55:00Z", "2023-04-09T13:55:00Z", "2023-04-09T13:55:00Z", "2023-04-09T13:55:00Z", "2023-04-09T13:55:00Z", "2023-04-09T13:55:00Z", "2023-04-09T13:55:00Z", "2023-04-09T13:55:00Z", "2023-04-09T13:55:00Z", "2023-04-09T13:55:00Z", "2023-04-09T13:55:00Z", "2023-04-09T13:55:00Z", "2023-04-09T14:00:00Z", "2023-04-09T14:00:00Z", "2023-04-09T13:55:00Z", "2023-04-09T13:55:00Z", "2023-04-09T13:53:00Z", "2023-04-09T13:51:00Z", "2023-04-09T13:53:00Z", "2023-04-09T14:02:00Z", "2023-04-09T13:55:00Z", "2023-04-09T13:51:00Z", "2023-04-09T13:53:00Z", "2023-04-09T13:47:00Z", "2023-04-09T13:55:00Z", "2023-04-09T13:53:00Z", "2023-04-09T14:00:00Z", "2023-04-09T13:53:00Z", "2023-04-09T13:54:00Z", "2023-04-09T13:55:00Z", "2023-04-09T13:56:00Z", "2023-04-09T13:55:00Z", "2023-04-09T13:54:00Z", "2023-04-09T13:55:00Z", "2023-04-09T13:55:00Z", "2023-04-09T13:45:00Z", "2023-04-09T13:55:00Z", "2023-04-09T13:55:00Z", "2023-04-09T13:53:00Z", "2023-04-09T13:55:00Z", "2023-04-09T13:56:00Z", "2023-04-09T13:53:00Z", "2023-04-09T14:01:00Z", "2023-04-09T13:56:00Z", "2023-04-09T13:53:00Z", "2023-04-09T13:47:00Z", "2023-04-09T13:55:00Z", "2023-04-09T13:53:00Z", "2023-04-09T13:55:00Z", "2023-04-09T13:55:00Z", "2023-04-09T13:55:00Z", "2023-04-09T13:54:00Z", "2023-04-09T13:55:00Z", "2023-04-09T13:53:00Z", "2023-04-09T13:53:00Z", "2023-04-09T13:56:00Z", "2023-04-09T13:56:00Z", "2023-04-09T13:55:00Z", "2023-04-09T13:56:00Z", "2023-04-09T13:52:00Z", "2023-04-09T13:56:00Z", "2023-04-09T13:56:00Z", "2023-04-09T13:53:00Z", "2023-04-09T13:55:00Z", "2023-04-09T13:56:00Z", "2023-04-09T13:56:00Z", "2023-04-09T13:55:00Z", "2023-04-09T13:55:00Z", "2023-04-09T13:55:00Z", "2023-04-09T13:53:00Z", "2023-04-09T13:53:00Z", "2023-04-09T13:56:00Z", "2023-04-09T13:45:00Z", "2023-04-09T13:55:00Z", "2023-04-09T13:53:00Z", "2023-04-09T13:53:00Z", "2023-04-09T13:55:00Z", "2023-04-09T13:51:00Z", "2023-04-09T13:55:00Z", "2023-04-09T13:55:00Z", "2023-04-09T13:55:00Z", "2023-04-09T13:56:00Z", "2023-04-09T13:55:00Z", "2023-04-09T13:54:00Z", "2023-04-09T13:56:00Z", "2023-04-09T13:56:00Z", "2023-04-09T13:55:00Z", "2023-04-09T13:55:00Z", "2023-04-09T13:51:00Z", "2023-04-09T13:53:00Z", "2023-04-09T13:55:00Z", "2023-04-09T13:55:00Z", "2023-04-09T13:55:00Z", "2023-04-09T13:53:00Z", "2023-04-09T13:56:00Z", "2023-04-09T14:02:00Z", "2023-04-09T13:56:00Z", "2023-04-09T13:53:00Z", "2023-04-09T13:55:00Z", "2023-04-09T13:51:00Z", "2023-04-09T13:53:00Z", "2023-04-09T13:55:00Z", "2023-04-09T13:55:00Z", "2023-04-09T13:55:00Z", "2023-04-09T13:55:00Z", "2023-04-09T13:53:00Z", "2023-04-09T13:51:00Z", "2023-04-09T13:53:00Z", "2023-04-09T13:55:00Z", "2023-04-09T13:56:00Z", "2023-04-09T13:55:00Z", "2023-04-09T13:55:00Z", "2023-04-09T13:53:00Z", "2023-04-09T13:56:00Z", "2023-04-09T13:55:00Z", "2023-04-09T13:53:00Z", "2023-04-09T13:52:00Z", "2023-04-09T13:52:00Z", "2023-04-09T13:53:00Z", "2023-04-09T13:56:00Z", "2023-04-09T13:55:00Z", "2023-04-09T13:55:00Z", "2023-04-09T13:56:00Z", "2023-04-09T13:55:00Z", "2023-04-09T14:04:00Z", "2023-04-09T13:55:00Z", "2023-04-09T13:55:00Z", "2023-04-09T13:53:00Z", "2023-04-09T13:53:00Z", "2023-04-09T13:53:00Z", "2023-04-09T13:55:00Z", "2023-04-09T13:55:00Z", "2023-04-09T13:53:00Z", "2023-04-09T13:55:00Z", "2023-04-09T13:51:00Z", "2023-04-09T13:53:00Z", "2023-04-09T13:53:00Z", "2023-04-09T13:47:00Z", "2023-04-09T13:56:00Z", "2023-04-09T13:55:00Z", "2023-04-09T13:54:00Z", "2023-04-09T13:50:00Z", "2023-04-09T13:55:00Z", "2023-04-09T13:55:00Z", "2023-04-09T13:52:00Z", "2023-04-09T13:55:00Z", "2023-04-09T13:55:00Z", "2023-04-09T13:55:00Z", "2023-04-09T13:45:00Z", "2023-04-09T13:55:00Z", "2023-04-09T13:45:00Z", "2023-04-09T13:53:00Z", "2023-04-09T13:55:00Z", "2023-04-09T13:55:00Z", "2023-04-09T13:55:00Z", "2023-04-09T13:55:00Z", "2023-04-09T13:55:00Z", "2023-04-09T13:55:00Z", "2023-04-09T13:55:00Z", "2023-04-09T13:54:00Z", "2023-04-09T13:55:00Z", "2023-04-09T13:55:00Z", "2023-04-09T13:55:00Z", "2023-04-09T13:55:00Z", "2023-04-09T13:55:00Z", "2023-04-09T13:55:00Z", "2023-04-09T13:55:00Z", "2023-04-09T13:55:00Z", "2023-04-09T13:55:00Z", "2023-04-09T13:55:00Z", "2023-04-09T13:55:00Z", "2023-04-09T13:55:00Z", "2023-04-09T13:54:00Z", "2023-04-09T13:52:00Z", "2023-04-09T13:55:00Z", "2023-04-09T13:55:00Z", "2023-04-09T13:55:00Z", "2023-04-09T13:53:00Z", "2023-04-09T13:53:00Z", "2023-04-09T14:03:00Z", "2023-04-09T13:53:00Z", "2023-04-09T13:55:00Z", "2023-04-09T13:45:00Z", "2023-04-09T13:55:00Z", "2023-04-09T13:53:00Z", "2023-04-09T13:51:00Z", "2023-04-09T13:55:00Z", "2023-04-09T13:55:00Z", "2023-04-09T13:15:00Z", "2023-04-09T13:55:00Z", "2023-04-09T13:55:00Z", "2023-04-09T12:55:00Z", "2023-04-09T13:53:00Z", "2023-04-09T13:55:00Z", "2023-04-09T13:55:00Z", "2023-04-09T13:55:00Z", "2023-04-09T13:53:00Z", "2023-04-09T13:50:00Z", "2023-04-09T13:55:00Z", "2023-04-09T13:53:00Z", "2023-04-09T13:55:00Z", "2023-04-09T13:55:00Z", "2023-04-09T13:53:00Z", "2023-04-09T13:55:00Z", "2023-04-09T13:53:00Z", "2023-04-09T13:50:00Z", "2023-04-09T13:55:00Z", "2023-04-09T13:55:00Z", "2023-04-09T13:55:00Z", "2023-04-09T13:47:00Z", "2023-04-09T13:55:00Z", "2023-04-09T13:55:00Z", "2023-04-09T13:53:00Z", "2023-04-09T13:52:00Z", "2023-04-09T13:53:00Z", "2023-04-09T13:53:00Z", "2023-04-09T13:53:00Z", "2023-04-09T13:55:00Z", "2023-04-09T13:56:00Z", "2023-04-09T13:51:00Z", "2023-04-09T13:54:00Z", "2023-04-09T13:55:00Z", "2023-04-09T13:55:00Z", "2023-04-09T13:55:00Z", "2023-04-09T13:53:00Z", "2023-04-09T13:44:00Z", "2023-04-09T13:53:00Z", "2023-04-09T13:52:00Z", "2023-04-09T13:55:00Z", "2023-04-09T13:45:00Z", "2023-04-09T13:53:00Z", "2023-04-09T13:55:00Z", "2023-04-09T13:53:00Z", "2023-04-09T13:55:00Z", "2023-04-09T13:53:00Z", "2023-04-09T13:53:00Z", "2023-04-09T13:53:00Z", "2023-04-09T13:53:00Z", "2023-04-09T13:56:00Z", "2023-04-09T13:55:00Z", "2023-04-09T13:55:00Z", "2023-04-09T13:53:00Z", "2023-04-09T13:53:00Z", "2023-04-09T13:55:00Z", "2023-04-09T13:53:00Z", "2023-04-09T13:55:00Z", "2023-04-09T13:55:00Z", "2023-04-09T13:53:00Z", "2023-04-09T13:55:00Z", "2023-04-09T13:55:00Z", "2023-04-09T13:55:00Z", "2023-04-09T13:53:00Z", "2023-04-09T13:53:00Z", "2023-04-09T13:45:00Z", "2023-04-09T13:55:00Z", "2023-04-09T13:55:00Z", "2023-04-09T13:55:00Z", "2023-04-09T13:55:00Z", "2023-04-09T13:55:00Z", "2023-04-09T13:53:00Z", "2023-04-09T13:55:00Z", "2023-04-09T13:56:00Z", "2023-04-09T13:55:00Z", "2023-04-09T13:56:00Z", "2023-04-09T13:45:00Z", "2023-04-09T13:51:00Z", "2023-04-09T14:05:00Z", "2023-04-09T13:54:00Z", "2023-04-09T13:45:00Z", "2023-04-09T13:56:00Z", "2023-04-09T13:55:00Z", "2023-04-09T13:55:00Z", "2023-04-09T13:55:00Z", "2023-04-09T13:50:00Z", "2023-04-09T13:55:00Z", "2023-04-09T13:55:00Z", "2023-04-09T13:53:00Z", "2023-04-09T13:55:00Z", "2023-04-09T13:53:00Z", "2023-04-09T13:55:00Z", "2023-04-09T13:55:00Z", "2023-04-09T13:55:00Z", "2023-04-09T13:53:00Z", "2023-04-09T13:53:00Z", "2023-04-09T13:55:00Z", "2023-04-09T13:55:00Z", "2023-04-09T13:55:00Z", "2023-04-09T13:55:00Z", "2023-04-09T13:54:00Z", "2023-04-09T13:55:00Z", "2023-04-09T13:55:00Z", "2023-04-09T13:54:00Z", "2023-04-09T14:00:00Z", "2023-04-09T13:56:00Z", "2023-04-09T13:55:00Z", "2023-04-09T13:53:00Z", "2023-04-09T13:51:00Z", "2023-04-09T13:55:00Z", "2023-04-09T13:55:00Z", "2023-04-09T13:55:00Z", "2023-04-09T13:53:00Z", "2023-04-09T13:55:00Z", "2023-04-09T13:50:00Z", "2023-04-09T13:55:00Z", "2023-04-09T13:53:00Z", "2023-04-09T13:55:00Z", "2023-04-09T13:53:00Z", "2023-04-09T13:56:00Z", "2023-04-09T13:55:00Z", "2023-04-09T13:55:00Z", "2023-04-09T13:55:00Z", "2023-04-09T13:53:00Z", "2023-04-09T13:55:00Z", "2023-04-09T13:55:00Z", "2023-04-09T13:55:00Z", "2023-04-09T13:51:00Z", "2023-04-09T14:05:00Z", "2023-04-09T13:55:00Z", "2023-04-09T13:55:00Z", "2023-04-09T13:55:00Z", "2023-04-09T13:56:00Z", "2023-04-09T13:50:00Z", "2023-04-09T13:53:00Z", "2023-04-09T13:54:00Z", "2023-04-09T13:54:00Z", "2023-04-09T13:55:00Z", "2023-04-09T13:52:00Z", "2023-04-09T13:45:00Z", "2023-04-09T13:53:00Z", "2023-04-09T13:55:00Z", "2023-04-09T13:55:00Z", "2023-04-09T13:55:00Z", "2023-04-09T13:55:00Z", "2023-04-09T13:55:00Z", "2023-04-09T13:45:00Z", "2023-04-09T13:45:00Z", "2023-04-09T13:55:00Z", "2023-04-09T13:55:00Z", "2023-04-09T13:55:00Z", "2023-04-09T13:55:00Z", "2023-04-09T13:55:00Z", "2023-04-09T14:03:00Z", "2023-04-09T13:54:00Z", "2023-04-09T13:55:00Z", "2023-04-09T13:55:00Z", "2023-04-09T13:55:00Z", "2023-04-09T13:56:00Z", "2023-04-09T13:54:00Z", "2023-04-09T13:55:00Z", "2023-04-09T13:55:00Z", "2023-04-09T13:53:00Z", "2023-04-09T13:53:00Z", "2023-04-09T13:53:00Z", "2023-04-09T13:56:00Z", "2023-04-09T13:56:00Z", "2023-04-09T13:55:00Z", "2023-04-09T13:55:00Z", "2023-04-09T13:55:00Z", "2023-04-09T13:55:00Z", "2023-04-09T13:55:00Z", "2023-04-09T13:55:00Z", "2023-04-09T13:55:00Z", "2023-04-09T13:53:00Z", "2023-04-09T13:55:00Z", "2023-04-09T13:55:00Z", "2023-04-09T13:55:00Z", "2023-04-09T13:53:00Z", "2023-04-09T13:51:00Z", "2023-04-09T13:55:00Z", "2023-04-09T13:55:00Z", "2023-04-09T13:55:00Z", "2023-04-09T13:55:00Z", "2023-04-09T13:56:00Z", "2023-04-09T13:55:00Z", "2023-04-09T13:55:00Z", "2023-04-09T13:55:00Z", "2023-04-09T13:53:00Z", "2023-04-09T13:53:00Z", "2023-04-09T13:56:00Z", "2023-04-09T13:51:00Z", "2023-04-09T13:55:00Z", "2023-04-09T13:55:00Z", "2023-04-09T13:53:00Z", "2023-04-09T13:50:00Z", "2023-04-09T14:00:00Z", "2023-04-09T14:00:00Z", "2023-04-09T14:00:00Z", "2023-04-09T14:00:00Z", "2023-04-09T14:00:00Z", "2023-04-09T14:00:00Z", "2023-04-09T14:00:00Z", "2023-04-09T14:00:00Z", "2023-04-09T13:50:00Z", "2023-04-09T14:00:00Z", "2023-04-09T14:00:00Z", "2023-04-09T13:50:00Z", "2023-04-09T14:00:00Z", "2023-04-09T14:00:00Z", "2023-04-09T14:00:00Z", "2023-04-09T14:00:00Z", "2023-04-09T14:00:00Z", "2023-04-09T14:00:00Z", "2023-04-09T14:00:00Z", "2023-04-09T14:00:00Z", "2023-04-09T14:00:00Z", "2023-04-09T14:00:00Z", "2023-04-09T14:00:00Z", "2023-04-09T14:00:00Z", "2023-04-09T14:00:00Z", "2023-04-09T14:00:00Z", "2023-04-09T14:00:00Z", "2023-04-09T14:00:00Z", "2023-04-09T14:00:00Z", "2023-04-09T14:00:00Z", "2023-04-09T14:00:00Z", "2023-04-09T14:00:00Z", "2023-04-09T14:00:00Z", "2023-04-09T14:00:00Z", "2023-04-09T14:00:00Z", "2023-04-09T14:00:00Z", "2023-04-09T14:00:00Z", "2023-04-09T14:00:00Z", "2023-04-09T14:00:00Z", "2023-04-09T14:00:00Z", "2023-04-09T14:00:00Z", "2023-04-09T14:00:00Z", "2023-04-09T14:00:00Z", "2023-04-09T14:00:00Z", "2023-04-09T14:00:00Z", "2023-04-09T14:00:00Z", "2023-04-09T14:00:00Z", "2023-04-09T14:00:00Z", "2023-04-09T14:00:00Z", "2023-04-09T14:00:00Z", "2023-04-09T14:00:00Z", "2023-04-09T14:00:00Z", "2023-04-09T14:00:00Z", "2023-04-09T14:00:00Z", "2023-04-09T14:00:00Z", "2023-04-09T14:00:00Z", "2023-04-09T14:00:00Z", "2023-04-09T14:00:00Z", "2023-04-09T14:00:00Z", "2023-04-09T14:00:00Z", "2023-04-09T14:00:00Z", "2023-04-09T14:00:00Z", "2023-04-09T14:00:00Z", "2023-04-09T14:00:00Z", "2023-04-09T14:00:00Z", "2023-04-09T14:00:00Z", "2023-04-09T14:00:00Z", "2023-04-09T14:00:00Z", "2023-04-09T14:00:00Z", "2023-04-09T14:00:00Z", "2023-04-09T14:00:00Z", "2023-04-09T14:00:00Z", "2023-04-09T14:00:00Z", "2023-04-09T14:00:00Z", "2023-04-09T14:00:00Z", "2023-04-09T14:00:00Z", "2023-04-09T14:00:00Z", "2023-04-09T14:00:00Z", "2023-04-09T14:00:00Z", "2023-04-09T14:00:00Z", "2023-04-09T14:00:00Z", "2023-04-09T14:00:00Z", "2023-04-09T14:00:00Z", "2023-04-09T14:00:00Z", "2023-04-09T14:00:00Z", "2023-04-09T14:00:00Z", "2023-04-09T14:00:00Z", "2023-04-09T14:00:00Z", "2023-04-09T14:00:00Z", "2023-04-09T14:00:00Z", "2023-04-09T14:00:00Z", "2023-04-09T14:00:00Z", "2023-04-09T14:00:00Z", "2023-04-09T14:00:00Z", "2023-04-09T14:00:00Z", "2023-04-09T14:00:00Z", "2023-04-09T14:00:00Z", "2023-04-09T14:00:00Z", "2023-04-09T14:00:00Z", "2023-04-09T14:00:00Z", "2023-04-09T14:00:00Z", "2023-04-09T14:00:00Z", "2023-04-09T14:00:00Z", "2023-04-09T14:00:00Z", "2023-04-09T14:00:00Z", "2023-04-09T14:00:00Z", "2023-04-09T14:00:00Z", "2023-04-09T14:00:00Z", "2023-04-09T14:00:00Z", "2023-04-09T14:00:00Z", "2023-04-09T14:00:00Z", "2023-04-09T14:00:00Z", "2023-04-09T14:00:00Z", "2023-04-09T14:00:00Z", "2023-04-09T14:00:00Z", "2023-04-09T14:00:00Z", "2023-04-09T14:00:00Z", "2023-04-09T14:00:00Z", "2023-04-09T14:00:00Z", "2023-04-09T14:00:00Z", "2023-04-09T14:00:00Z", "2023-04-09T14:00:00Z", "2023-04-09T14:00:00Z", "2023-04-09T14:00:00Z", "2023-04-09T14:00:00Z", "2023-04-09T14:00:00Z", "2023-04-09T14:00:00Z", "2023-04-09T14:00:00Z", "2023-04-09T14:00:00Z", "2023-04-09T14:00:00Z", "2023-04-09T14:00:00Z", "2023-04-09T14:00:00Z", "2023-04-09T14:00:00Z", "2023-04-09T14:00:00Z", "2023-04-09T14:00:00Z", "2023-04-09T14:00:00Z", "2023-04-09T14:00:00Z", "2023-04-09T14:00:00Z", "2023-04-09T14:00:00Z", "2023-04-09T14:00:00Z", "2023-04-09T14:00:00Z", "2023-04-09T14:00:00Z", "2023-04-09T14:00:00Z", "2023-04-09T14:00:00Z", "2023-04-09T14:00:00Z", "2023-04-09T14:00:00Z", "2023-04-09T14:00:00Z", "2023-04-09T14:00:00Z", "2023-04-09T13:30:00Z", "2023-04-09T14:00:00Z", "2023-04-09T14:00:00Z", "2023-04-09T14:00:00Z", "2023-04-09T14:00:00Z", "2023-04-09T14:00:00Z", "2023-04-09T14:00:00Z", "2023-04-09T14:00:00Z", "2023-04-09T14:00:00Z", "2023-04-09T14:00:00Z", "2023-04-09T14:00:00Z", "2023-04-09T14:00:00Z", "2023-04-09T14:00:00Z", "2023-04-09T14:00:00Z", "2023-04-09T14:00:00Z", "2023-04-09T14:00:00Z", "2023-04-09T14:00:00Z", "2023-04-09T14:00:00Z", "2023-04-09T14:00:00Z", "2023-04-09T14:00:00Z", "2023-04-09T14:00:00Z", "2023-04-09T14:00:00Z", "2023-04-09T14:00:00Z", "2023-04-09T14:00:00Z", "2023-04-09T14:00:00Z", "2023-04-09T14:00:00Z", "2023-04-09T14:00:00Z", "2023-04-09T14:00:00Z", "2023-04-09T14:00:00Z", "2023-04-09T14:00:00Z", "2023-04-09T14:00:00Z", "2023-04-09T14:00:00Z", "2023-04-09T14:00:00Z", "2023-04-09T14:00:00Z", "2023-04-09T13:50:00Z", "2023-04-09T13:50:00Z", "2023-04-09T13:50:00Z", "2023-04-09T13:50:00Z", "2023-04-09T13:50:00Z", "2023-04-09T13:50:00Z", "2023-04-09T13:50:00Z", "2023-04-09T13:50:00Z", "2023-04-09T13:50:00Z", "2023-04-09T13:50:00Z", "2023-04-09T13:50:00Z", "2023-04-09T13:50:00Z", "2023-04-09T13:50:00Z", "2023-04-09T13:50:00Z", "2023-04-09T13:50:00Z", "2023-04-09T13:50:00Z", "2023-04-09T13:50:00Z", "2023-04-09T13:50:00Z", "2023-04-09T13:50:00Z", "2023-04-09T13:50:00Z", "2023-04-09T13:50:00Z", "2023-04-09T13:50:00Z", "2023-04-09T13:50:00Z", "2023-04-09T13:50:00Z", "2023-04-09T13:50:00Z", "2023-04-09T13:50:00Z", "2023-04-09T13:50:00Z", "2023-04-09T13:50:00Z", "2023-04-09T13:50:00Z", "2023-04-09T13:50:00Z", "2023-04-09T14:00:00Z", "2023-04-09T13:45:00Z", "2023-04-09T13:45:00Z", "2023-04-09T13:45:00Z", "2023-04-09T13:45:00Z", "2023-04-09T13:45:00Z", "2023-04-09T13:45:00Z", "2023-04-09T13:45:00Z", "2023-04-09T13:55:00Z", "2023-04-09T13:50:00Z", "2023-04-09T13:50:00Z", "2023-04-09T13:50:00Z", "2023-04-09T13:50:00Z", "2023-04-09T13:55:00Z", "2023-04-09T13:50:00Z", "2023-04-09T13:55:00Z", "2023-04-09T13:50:00Z", "2023-04-09T13:55:00Z", "2023-04-09T12:55:00Z", "2023-04-09T13:50:00Z", "2023-04-09T13:50:00Z", "2023-04-09T13:50:00Z", "2023-04-09T13:50:00Z", "2023-04-09T12:55:00Z", "2023-04-09T13:50:00Z", "2023-04-09T13:50:00Z", "2023-04-09T13:50:00Z", "2023-04-09T13:55:00Z", "2023-04-09T13:55:00Z", "2023-04-09T13:50:00Z", "2023-04-09T12:55:00Z", "2023-04-09T13:55:00Z", "2023-04-09T13:50:00Z", "2023-04-09T13:50:00Z", "2023-04-09T13:50:00Z", "2023-04-09T13:50:00Z", "2023-04-09T13:50:00Z", "2023-04-09T13:50:00Z", "2023-04-09T13:50:00Z", "2023-04-09T13:50:00Z", "2023-04-09T13:55:00Z", "2023-04-09T13:50:00Z", "2023-04-09T13:50:00Z", "2023-04-09T13:55:00Z", "2023-04-09T13:55:00Z", "2023-04-09T13:50:00Z", "2023-04-09T13:50:00Z", "2023-04-09T13:50:00Z", "2023-04-09T13:55:00Z", "2023-04-09T13:50:00Z", "2023-04-09T13:55:00Z", "2023-04-09T13:50:00Z", "2023-04-09T13:55:00Z", "2023-04-09T13:50:00Z", "2023-04-09T13:55:00Z", "2023-04-09T13:50:00Z", "2023-04-09T13:50:00Z", "2023-04-09T13:50:00Z", "2023-04-09T13:55:00Z", "2023-04-09T13:50:00Z", "2023-04-09T13:50:00Z", "2023-04-09T13:50:00Z", "2023-04-09T13:50:00Z", "2023-04-09T12:55:00Z", "2023-04-09T13:50:00Z", "2023-04-09T13:50:00Z", "2023-04-09T13:55:00Z", "2023-04-09T13:50:00Z", "2023-04-09T13:50:00Z", "2023-04-09T13:55:00Z", "2023-04-09T13:55:00Z", "2023-04-09T13:50:00Z", "2023-04-09T13:45:00Z", "2023-04-09T13:50:00Z", "2023-04-09T13:55:00Z", "2023-04-09T13:55:00Z", "2023-04-09T13:50:00Z", "2023-04-09T13:55:00Z", "2023-04-09T13:55:00Z", "2023-04-09T13:50:00Z", "2023-04-09T13:55:00Z", "2023-04-09T13:55:00Z", "2023-04-09T13:55:00Z", "2023-04-09T13:55:00Z", "2023-04-09T13:55:00Z", "2023-04-09T13:55:00Z", "2023-04-09T13:55:00Z", "2023-04-09T13:55:00Z", "2023-04-09T14:00:00Z", "2023-04-09T14:00:00Z", "2023-04-09T14:00:00Z", "2023-04-09T14:00:00Z", "2023-04-09T14:00:00Z", "2023-04-09T13:00:00Z", "2023-04-09T13:00:00Z", "2023-04-09T14:00:00Z", "2023-04-09T14:00:00Z", "2023-04-09T14:00:00Z", "2023-04-09T14:00:00Z", "2023-04-09T14:00:00Z", "2023-04-09T14:00:00Z", "2023-04-09T14:00:00Z", "2023-04-09T13:50:00Z", "2023-04-09T13:50:00Z", "2023-04-09T13:50:00Z", "2023-04-09T13:50:00Z", "2023-04-09T13:45:00Z", "2023-04-09T13:00:00Z", "2023-04-09T13:00:00Z", "2023-04-09T13:50:00Z", "2023-04-09T13:50:00Z", "2023-04-09T13:50:00Z", "2023-04-09T13:50:00Z", "2023-04-09T13:50:00Z", "2023-04-09T13:50:00Z", "2023-04-09T13:50:00Z", "2023-04-09T14:00:00Z", "2023-04-09T14:00:00Z", "2023-04-09T14:00:00Z", "2023-04-09T14:00:00Z", "2023-04-09T14:00:00Z", "2023-04-09T14:00:00Z", "2023-04-09T14:00:00Z", "2023-04-09T14:00:00Z", "2023-04-09T13:00:00Z", "2023-04-09T13:00:00Z", "2023-04-09T13:00:00Z", "2023-04-09T14:00:00Z", "2023-04-09T14:00:00Z", "2023-04-09T14:00:00Z", "2023-04-09T14:00:00Z", "2023-04-09T14:00:00Z", "2023-04-09T14:00:00Z", "2023-04-09T14:00:00Z", "2023-04-09T14:00:00Z", "2023-04-09T14:00:00Z", "2023-04-09T14:00:00Z", "2023-04-09T14:00:00Z", "2023-04-09T14:00:00Z", "2023-04-09T14:00:00Z", "2023-04-09T14:00:00Z", "2023-04-09T14:00:00Z", "2023-04-09T14:00:00Z", "2023-04-09T14:00:00Z", "2023-04-09T14:00:00Z", "2023-04-09T14:00:00Z", "2023-04-09T14:00:00Z", "2023-04-09T14:00:00Z", "2023-04-09T14:00:00Z", "2023-04-09T14:00:00Z", "2023-04-09T14:00:00Z", "2023-04-09T13:50:00Z", "2023-04-09T13:50:00Z", "2023-04-09T13:50:00Z", "2023-04-09T13:50:00Z", "2023-04-09T13:50:00Z", "2023-04-09T13:50:00Z", "2023-04-09T13:50:00Z", "2023-04-09T13:50:00Z", "2023-04-09T13:50:00Z", "2023-04-09T13:50:00Z", "2023-04-09T13:50:00Z", "2023-04-09T13:50:00Z", "2023-04-09T13:50:00Z", "2023-04-09T13:50:00Z", "2023-04-09T13:50:00Z", "2023-04-09T13:50:00Z", "2023-04-09T13:50:00Z", "2023-04-09T13:50:00Z", "2023-04-09T13:50:00Z", "2023-04-09T13:50:00Z", "2023-04-09T13:50:00Z", "2023-04-09T13:50:00Z", "2023-04-09T13:50:00Z", "2023-04-09T13:50:00Z", "2023-04-09T13:50:00Z", "2023-04-09T13:50:00Z", "2023-04-09T13:50:00Z", "2023-04-09T13:50:00Z", "2023-04-09T13:50:00Z", "2023-04-09T13:50:00Z", "2023-04-09T13:50:00Z", "2023-04-09T13:50:00Z", "2023-04-09T13:50:00Z", "2023-04-09T13:50:00Z", "2023-04-09T13:50:00Z", "2023-04-09T13:50:00Z", "2023-04-09T13:50:00Z", "2023-04-09T13:50:00Z", "2023-04-09T13:50:00Z", "2023-04-09T13:50:00Z", "2023-04-09T13:50:00Z", "2023-04-09T13:50:00Z", "2023-04-09T13:50:00Z", "2023-04-09T13:50:00Z", "2023-04-09T13:50:00Z", "2023-04-09T13:50:00Z", "2023-04-09T13:50:00Z", "2023-04-09T13:50:00Z", "2023-04-09T13:50:00Z", "2023-04-09T13:50:00Z", "2023-04-09T13:50:00Z", "2023-04-09T13:50:00Z", "2023-04-09T13:50:00Z", "2023-04-09T13:50:00Z", "2023-04-09T13:50:00Z", "2023-04-09T13:50:00Z", "2023-04-09T13:50:00Z", "2023-04-09T13:50:00Z", "2023-04-09T13:50:00Z", "2023-04-09T13:50:00Z", "2023-04-09T13:50:00Z", "2023-04-09T13:50:00Z", "2023-04-09T13:50:00Z", "2023-04-09T13:50:00Z", "2023-04-09T13:50:00Z", "2023-04-09T13:50:00Z", "2023-04-09T13:50:00Z", "2023-04-09T13:50:00Z", "2023-04-09T14:00:00Z", "2023-04-09T14:00:00Z", "2023-04-09T14:00:00Z", "2023-04-09T13:50:00Z", "2023-04-09T14:00:00Z", "2023-04-09T14:00:00Z", "2023-04-09T14:00:00Z", "2023-04-09T14:00:00Z", "2023-04-09T14:00:00Z", "2023-04-09T14:00:00Z", "2023-04-09T14:00:00Z", "2023-04-09T14:00:00Z", "2023-04-09T14:00:00Z", "2023-04-09T14:00:00Z", "2023-04-09T14:00:00Z", "2023-04-09T14:00:00Z", "2023-04-09T13:00:00Z", "2023-04-09T13:00:00Z", "2023-04-09T14:00:00Z", "2023-04-09T14:00:00Z", "2023-04-09T14:00:00Z", "2023-04-09T14:00:00Z", "2023-04-09T14:00:00Z", "2023-04-09T14:00:00Z", "2023-04-09T14:00:00Z", "2023-04-09T14:00:00Z", "2023-04-09T14:00:00Z", "2023-04-09T14:00:00Z", "2023-04-09T14:00:00Z", "2023-04-09T14:00:00Z", "2023-04-09T14:00:00Z", "2023-04-09T14:00:00Z", "2023-04-09T14:00:00Z", "2023-04-09T14:00:00Z", "2023-04-09T14:00:00Z", "2023-04-09T14:00:00Z", "2023-04-09T14:00:00Z", "2023-04-09T14:00:00Z", "2023-04-09T13:00:00Z", "2023-04-09T14:00:00Z", "2023-04-09T14:00:00Z", "2023-04-09T14:00:00Z", "2023-04-09T14:00:00Z", "2023-04-09T14:00:00Z", "2023-04-09T14:00:00Z", "2023-04-09T14:00:00Z", "2023-04-09T14:00:00Z", "2023-04-09T14:00:00Z", "2023-04-09T14:00:00Z", "2023-04-09T14:00:00Z", "2023-04-09T14:00:00Z", "2023-04-09T14:00:00Z", "2023-04-09T14:00:00Z", "2023-04-09T13:00:00Z", "2023-04-09T14:00:00Z", "2023-04-09T13:45:00Z", "2023-04-09T13:40:00Z", "2023-04-09T13:46:00Z", "2023-04-09T13:50:00Z", "2023-04-09T13:40:00Z", "2023-04-09T13:41:00Z", "2023-04-09T13:41:00Z", "2023-04-09T13:53:00Z", "2023-04-09T13:43:00Z", "2023-04-09T13:40:00Z", "2023-04-09T13:46:00Z", "2023-04-09T13:40:00Z", "2023-04-09T13:40:00Z", "2023-04-09T13:44:00Z", "2023-04-09T13:46:00Z", "2023-04-09T13:45:00Z", "2023-04-09T13:53:00Z", "2023-04-09T13:40:00Z", "2023-04-09T13:09:00Z", "2023-04-09T14:07:00Z", "2023-04-09T13:43:00Z", "2023-04-09T13:42:00Z", "2023-04-09T14:04:00Z", "2023-04-09T13:47:00Z", "2023-04-09T13:40:00Z", "2023-04-09T13:44:00Z", "2023-04-09T14:01:00Z", "2023-04-09T13:40:00Z", "2023-04-09T13:42:00Z", "2023-04-09T13:42:00Z", "2023-04-09T13:40:00Z", "2023-04-09T13:42:00Z", "2023-04-09T13:40:00Z", "2023-04-09T13:41:00Z", "2023-04-09T13:52:00Z", "2023-04-09T13:46:00Z", "2023-04-09T13:40:00Z", "2023-04-09T13:40:00Z", "2023-04-09T13:44:00Z", "2023-04-09T13:45:00Z", "2023-04-09T13:45:00Z", "2023-04-09T13:42:00Z", "2023-04-09T13:44:00Z", "2023-04-09T13:40:00Z", "2023-04-09T12:55:00Z", "2023-04-09T13:46:00Z", "2023-04-09T13:40:00Z", "2023-04-09T13:40:00Z", "2023-04-09T13:43:00Z", "2023-04-09T13:45:00Z", "2023-04-09T14:00:00Z", "2023-04-09T13:42:00Z", "2023-04-09T13:40:00Z", "2023-04-09T13:49:00Z", "2023-04-09T13:45:00Z", "2023-04-09T13:55:00Z", "2023-04-09T13:40:00Z", "2023-04-09T13:44:00Z", "2023-04-09T13:40:00Z", "2023-04-09T14:00:00Z", "2023-04-09T14:00:00Z", "2023-04-09T14:00:00Z", "2023-04-09T14:00:00Z", "2023-04-09T14:00:00Z", "2023-04-09T14:00:00Z", "2023-04-09T14:00:00Z", "2023-04-09T14:00:00Z", "2023-04-09T14:00:00Z", "2023-04-09T14:00:00Z", "2023-04-09T14:00:00Z", "2023-04-09T14:00:00Z", "2023-04-09T14:00:00Z", "2023-04-09T14:00:00Z", "2023-04-09T14:00:00Z", "2023-04-09T14:00:00Z", "2023-04-09T13:50:00Z", "2023-04-09T13:50:00Z", "2023-04-09T13:50:00Z", "2023-04-09T13:50:00Z", "2023-04-09T13:50:00Z", "2023-04-09T14:00:00Z", "2023-04-09T13:50:00Z", "2023-04-09T13:50:00Z", "2023-04-09T13:50:00Z", "2023-04-09T13:50:00Z", "2023-04-09T13:50:00Z", "2023-04-09T13:51:00Z", "2023-04-09T13:50:00Z", "2023-04-09T13:50:00Z", "2023-04-09T13:50:00Z", "2023-04-09T13:50:00Z", "2023-04-09T14:00:00Z", "2023-04-09T14:00:00Z", "2023-04-09T14:00:00Z", "2023-04-09T14:00:00Z", "2023-04-09T14:00:00Z", "2023-04-09T14:00:00Z", "2023-04-09T14:00:00Z", "2023-04-09T14:00:00Z", "2023-04-09T14:00:00Z", "2023-04-09T14:00:00Z", "2023-04-09T14:00:00Z", "2023-04-09T14:00:00Z", "2023-04-09T14:00:00Z", "2023-04-09T14:00:00Z", "2023-04-09T14:00:00Z", "2023-04-09T14:00:00Z", "2023-04-09T14:00:00Z", "2023-04-09T14:00:00Z", "2023-04-09T14:00:00Z", "2023-04-09T14:00:00Z", "2023-04-09T14:00:00Z", "2023-04-09T14:00:00Z", "2023-04-09T14:00:00Z", "2023-04-09T14:00:00Z", "2023-04-09T14:00:00Z", "2023-04-09T14:00:00Z", "2023-04-09T14:00:00Z", "2023-04-09T14:00:00Z", "2023-04-09T14:00:00Z", "2023-04-09T13:55:00Z", "2023-04-09T14:00:00Z", "2023-04-09T14:00:00Z", "2023-04-09T14:00:00Z", "2023-04-09T14:00:00Z", "2023-04-09T13:55:00Z", "2023-04-09T14:00:00Z", "2023-04-09T14:00:00Z", "2023-04-09T14:00:00Z", "2023-04-09T13:00:00Z", "2023-04-09T13:00:00Z", "2023-04-09T13:00:00Z", "2023-04-09T13:00:00Z", "2023-04-09T14:00:00Z", "2023-04-09T13:00:00Z", "2023-04-09T14:00:00Z", "2023-04-09T13:00:00Z", "2023-04-09T13:00:00Z", "2023-04-09T13:00:00Z", "2023-04-09T13:00:00Z", "2023-04-09T13:00:00Z", "2023-04-09T14:00:00Z", "2023-04-09T13:00:00Z", "2023-04-09T13:00:00Z", "2023-04-09T14:00:00Z", "2023-04-09T13:00:00Z", "2023-04-09T13:00:00Z", "2023-04-09T13:00:00Z", "2023-04-09T13:55:00Z", "2023-04-09T13:00:00Z", "2023-04-09T14:00:00Z", "2023-04-09T13:00:00Z", "2023-04-09T13:00:00Z", "2023-04-09T13:00:00Z", "2023-04-09T13:00:00Z", "2023-04-09T13:00:00Z", "2023-04-09T13:00:00Z", "2023-04-09T13:00:00Z", "2023-04-09T13:00:00Z", "2023-04-09T13:00:00Z", "2023-04-09T14:00:00Z", "2023-04-09T14:00:00Z", "2023-04-09T14:00:00Z", "2023-04-09T14:00:00Z", "2023-04-09T14:00:00Z", "2023-04-09T14:00:00Z", "2023-04-09T14:00:00Z", "2023-04-09T14:00:00Z", "2023-04-09T14:00:00Z", "2023-04-09T14:00:00Z", "2023-04-09T14:00:00Z", "2023-04-09T14:00:00Z", "2023-04-09T14:00:00Z", "2023-04-09T14:00:00Z", "2023-04-09T14:00:00Z", "2023-04-09T14:00:00Z", "2023-04-09T14:00:00Z", "2023-04-09T14:00:00Z", "2023-04-09T14:00:00Z", "2023-04-09T14:00:00Z", "2023-04-09T14:00:00Z", "2023-04-09T14:00:00Z", "2023-04-09T14:00:00Z", "2023-04-09T14:00:00Z", "2023-04-09T14:00:00Z", "2023-04-09T13:50:00Z", "2023-04-09T14:00:00Z", "2023-04-09T14:00:00Z", "2023-04-09T14:00:00Z", "2023-04-09T14:00:00Z", "2023-04-09T14:00:00Z", "2023-04-09T14:00:00Z", "2023-04-09T14:00:00Z", "2023-04-09T14:00:00Z", "2023-04-09T14:00:00Z", "2023-04-09T14:00:00Z", "2023-04-09T14:00:00Z", "2023-04-09T13:50:00Z", "2023-04-09T14:00:00Z", "2023-04-09T14:00:00Z", "2023-04-09T14:00:00Z", "2023-04-09T14:00:00Z", "2023-04-09T14:00:00Z", "2023-04-09T14:00:00Z", "2023-04-09T14:00:00Z", "2023-04-09T14:00:00Z", "2023-04-09T14:00:00Z", "2023-04-09T14:00:00Z", "2023-04-09T14:00:00Z", "2023-04-09T14:00:00Z", "2023-04-09T14:00:00Z", "2023-04-09T14:00:00Z", "2023-04-09T14:00:00Z", "2023-04-09T14:00:00Z", "2023-04-09T14:00:00Z", "2023-04-09T14:00:00Z", "2023-04-09T14:00:00Z", "2023-04-09T14:00:00Z", "2023-04-09T14:00:00Z", "2023-04-09T14:00:00Z", "2023-04-09T14:00:00Z", "2023-04-09T14:00:00Z", "2023-04-09T14:00:00Z", "2023-04-09T14:00:00Z", "2023-04-09T14:00:00Z", "2023-04-09T14:00:00Z", "2023-04-09T14:00:00Z", "2023-04-09T14:00:00Z", "2023-04-09T14:00:00Z", "2023-04-09T14:00:00Z", "2023-04-09T14:00:00Z", "2023-04-09T14:00:00Z", "2023-04-09T13:00:00Z", "2023-04-09T13:55:00Z", "2023-04-09T14:00:00Z", "2023-04-09T14:00:00Z", "2023-04-09T13:00:00Z", "2023-04-09T14:00:00Z", "2023-04-09T14:00:00Z", "2023-04-09T14:00:00Z", "2023-04-09T14:00:00Z", "2023-04-09T14:00:00Z", "2023-04-09T14:00:00Z", "2023-04-09T14:00:00Z", "2023-04-09T13:50:00Z", "2023-04-09T13:50:00Z", "2023-04-09T13:50:00Z", "2023-04-09T13:50:00Z", "2023-04-09T13:50:00Z", "2023-04-09T13:55:00Z", "2023-04-09T14:00:00Z", "2023-04-09T14:00:00Z", "2023-04-09T13:55:00Z", "2023-04-09T14:00:00Z", "2023-04-09T14:00:00Z", "2023-04-09T14:00:00Z", "2023-04-09T13:00:00Z", "2023-04-09T14:00:00Z", "2023-04-09T14:02:00Z", "2023-04-09T14:00:00Z", "2023-04-09T14:00:00Z", "2023-04-09T14:00:00Z", "2023-04-09T14:00:00Z", "2023-04-09T14:00:00Z", "2023-04-09T14:00:00Z", "2023-04-09T14:00:00Z", "2023-04-09T13:55:00Z", "2023-04-09T14:00:00Z", "2023-04-09T13:55:00Z", "2023-04-09T13:56:00Z", "2023-04-09T14:03:00Z", "2023-04-09T14:03:00Z", "2023-04-09T13:53:00Z", "2023-04-09T13:53:00Z", "2023-04-09T13:56:00Z", "2023-04-09T13:53:00Z", "2023-04-09T13:53:00Z", "2023-04-09T13:56:00Z", "2023-04-09T14:03:00Z", "2023-04-09T14:04:00Z", "2023-04-09T13:55:00Z", "2023-04-09T14:05:00Z", "2023-04-09T13:56:00Z", "2023-04-09T13:56:00Z", "2023-04-09T13:53:00Z", "2023-04-09T13:56:00Z", "2023-04-09T13:55:00Z", "2023-04-09T13:53:00Z", "2023-04-09T13:55:00Z", "2023-04-09T13:55:00Z", "2023-04-09T13:53:00Z", "2023-04-09T13:53:00Z", "2023-04-09T13:45:00Z", "2023-04-09T13:56:00Z", "2023-04-09T13:56:00Z", "2023-04-09T13:55:00Z", "2023-04-09T14:01:00Z", "2023-04-09T13:53:00Z", "2023-04-09T14:05:00Z", "2023-04-09T13:17:00Z", "2023-04-09T13:56:00Z", "2023-04-09T13:56:00Z", "2023-04-09T13:53:00Z", "2023-04-09T13:56:00Z", "2023-04-09T13:54:00Z", "2023-04-09T13:53:00Z", "2023-04-09T14:02:00Z", "2023-04-09T13:56:00Z", "2023-04-09T13:56:00Z", "2023-04-09T13:56:00Z", "2023-04-09T13:59:00Z", "2023-04-09T13:55:00Z", "2023-04-09T13:56:00Z", "2023-04-09T13:57:00Z", "2023-04-09T13:53:00Z", "2023-04-09T13:56:00Z", "2023-04-09T14:06:00Z", "2023-04-09T13:56:00Z", "2023-04-09T13:56:00Z", "2023-04-09T13:54:00Z", "2023-04-09T13:56:00Z", "2023-04-09T14:00:00Z", "2023-04-09T13:46:00Z", "2023-04-09T13:53:00Z", "2023-04-09T13:53:00Z", "2023-04-09T13:56:00Z", "2023-04-09T13:53:00Z", "2023-04-09T13:45:00Z", "2023-04-09T13:55:00Z", "2023-04-09T13:56:00Z", "2023-04-09T13:53:00Z", "2023-04-09T13:59:00Z", "2023-04-09T13:56:00Z", "2023-04-09T13:56:00Z", "2023-04-09T13:56:00Z", "2023-04-09T13:56:00Z", "2023-04-09T14:04:00Z", "2023-04-09T13:56:00Z", "2023-04-09T13:53:00Z", "2023-04-09T13:56:00Z", "2023-04-09T13:56:00Z", "2023-04-09T13:56:00Z", "2023-04-09T13:56:00Z", "2023-04-09T13:53:00Z", "2023-04-09T13:56:00Z", "2023-04-09T13:53:00Z", "2023-04-09T13:53:00Z", "2023-04-09T13:56:00Z", "2023-04-09T13:53:00Z", "2023-04-09T13:56:00Z", "2023-04-09T13:56:00Z", "2023-04-09T13:56:00Z", "2023-04-09T13:56:00Z", "2023-04-09T13:56:00Z", "2023-04-09T13:53:00Z", "2023-04-09T14:04:00Z", "2023-04-09T13:10:00Z", "2023-04-09T13:53:00Z", "2023-04-09T13:56:00Z", "2023-04-09T13:53:00Z", "2023-04-09T13:56:00Z", "2023-04-09T13:56:00Z", "2023-04-09T13:56:00Z", "2023-04-09T13:53:00Z", "2023-04-09T13:53:00Z", "2023-04-09T14:05:00Z", "2023-04-09T13:56:00Z", "2023-04-09T13:58:00Z", "2023-04-09T13:52:00Z", "2023-04-09T13:55:00Z", "2023-04-09T13:56:00Z", "2023-04-09T13:53:00Z", "2023-04-09T13:55:00Z", "2023-04-09T14:04:00Z", "2023-04-09T13:56:00Z", "2023-04-09T13:56:00Z", "2023-04-09T13:56:00Z", "2023-04-09T13:56:00Z", "2023-04-09T13:53:00Z", "2023-04-09T13:53:00Z", "2023-04-09T13:56:00Z", "2023-04-09T13:53:00Z", "2023-04-09T13:56:00Z", "2023-04-09T13:56:00Z", "2023-04-09T13:53:00Z", "2023-04-09T14:06:00Z", "2023-04-09T13:56:00Z", "2023-04-09T13:56:00Z", "2023-04-09T13:56:00Z", "2023-04-09T13:56:00Z", "2023-04-09T13:56:00Z", "2023-04-09T13:56:00Z", "2023-04-09T14:06:00Z", "2023-04-09T13:54:00Z", "2023-04-09T13:55:00Z", "2023-04-09T13:51:00Z", "2023-04-09T13:51:00Z", "2023-04-09T13:55:00Z", "2023-04-09T13:53:00Z", "2023-04-09T13:53:00Z", "2023-04-09T14:01:00Z", "2023-04-09T13:54:00Z", "2023-04-09T13:57:00Z", "2023-04-09T13:53:00Z", "2023-04-09T13:56:00Z", "2023-04-09T13:54:00Z", "2023-04-09T14:00:00Z", "2023-04-09T13:53:00Z", "2023-04-09T13:51:00Z", "2023-04-09T14:00:00Z", "2023-04-09T13:00:00Z", "2023-04-09T14:05:00Z", "2023-04-09T13:56:00Z", "2023-04-09T13:50:00Z", "2023-04-09T12:54:00Z", "2023-04-09T13:52:00Z", "2023-04-09T13:55:00Z", "2023-04-09T13:30:00Z", "2023-04-09T13:30:00Z", "2023-04-09T13:30:00Z", "2023-04-09T13:30:00Z", "2023-04-09T13:30:00Z", "2023-04-09T13:30:00Z", "2023-04-09T14:00:00Z", "2023-04-09T14:00:00Z", "2023-04-09T14:00:00Z", "2023-04-09T13:00:00Z", "2023-04-09T14:00:00Z", "2023-04-09T14:00:00Z", "2023-04-09T14:00:00Z", "2023-04-09T14:00:00Z", "2023-04-09T13:00:00Z", "2023-04-09T14:00:00Z", "2023-04-09T14:00:00Z", "2023-04-09T14:00:00Z", "2023-04-09T14:00:00Z", "2023-04-09T14:00:00Z", "2023-04-09T14:00:00Z", "2023-04-09T13:00:00Z", "2023-04-09T14:00:00Z", "2023-04-09T13:56:00Z", "2023-04-09T14:00:00Z", "2023-04-09T14:00:00Z", "2023-04-09T14:00:00Z", "2023-04-09T14:00:00Z", "2023-04-09T14:00:00Z", "2023-04-09T13:55:00Z", "2023-04-09T14:00:00Z", "2023-04-09T13:55:00Z", "2023-04-09T14:00:00Z", "2023-04-09T14:00:00Z", "2023-04-09T14:00:00Z", "2023-04-09T13:55:00Z", "2023-04-09T14:00:00Z", "2023-04-09T13:00:00Z", "2023-04-09T13:55:00Z", "2023-04-09T14:00:00Z", "2023-04-09T14:00:00Z", "2023-04-09T14:00:00Z", "2023-04-09T14:00:00Z", "2023-04-09T13:59:00Z", "2023-04-09T13:55:00Z", "2023-04-09T14:00:00Z", "2023-04-09T14:00:00Z", "2023-04-09T14:00:00Z", "2023-04-09T14:00:00Z", "2023-04-09T14:00:00Z", "2023-04-09T14:00:00Z", "2023-04-09T14:00:00Z", "2023-04-09T12:56:00Z", "2023-04-09T14:00:00Z", "2023-04-09T14:00:00Z", "2023-04-09T14:00:00Z", "2023-04-09T14:00:00Z", "2023-04-09T14:00:00Z", "2023-04-09T14:00:00Z", "2023-04-09T14:00:00Z", "2023-04-09T14:00:00Z", "2023-04-09T14:00:00Z", "2023-04-09T14:00:00Z", "2023-04-09T14:00:00Z", "2023-04-09T14:00:00Z", "2023-04-09T14:00:00Z", "2023-04-09T14:00:00Z", "2023-04-09T14:00:00Z", "2023-04-09T14:00:00Z", "2023-04-09T13:00:00Z", "2023-04-09T14:00:00Z", "2023-04-09T14:00:00Z", "2023-04-09T14:00:00Z", "2023-04-09T14:00:00Z", "2023-04-09T14:00:00Z", "2023-04-09T14:00:00Z", "2023-04-09T14:00:00Z", "2023-04-09T14:00:00Z", "2023-04-09T14:00:00Z", "2023-04-09T14:00:00Z", "2023-04-09T14:00:00Z", "2023-04-09T14:00:00Z", "2023-04-09T13:00:00Z", "2023-04-09T13:00:00Z", "2023-04-09T14:00:00Z", "2023-04-09T13:00:00Z", "2023-04-09T13:00:00Z", "2023-04-09T14:00:00Z", "2023-04-09T14:00:00Z", "2023-04-09T13:00:00Z", "2023-04-09T13:00:00Z", "2023-04-09T13:00:00Z", "2023-04-09T14:00:00Z", "2023-04-09T13:00:00Z", "2023-04-09T14:00:00Z", "2023-04-09T13:00:00Z", "2023-04-09T13:00:00Z", "2023-04-09T14:00:00Z", "2023-04-09T13:00:00Z", "2023-04-09T14:00:00Z", "2023-04-09T14:00:00Z", "2023-04-09T13:00:00Z", "2023-04-09T14:00:00Z", "2023-04-09T13:00:00Z", "2023-04-09T14:00:00Z", "2023-04-09T14:00:00Z", "2023-04-09T14:00:00Z", "2023-04-09T13:00:00Z", "2023-04-09T14:00:00Z", "2023-04-09T14:00:00Z", "2023-04-09T13:00:00Z", "2023-04-09T14:00:00Z", "2023-04-09T13:00:00Z", "2023-04-09T14:00:00Z", "2023-04-09T14:00:00Z", "2023-04-09T14:00:00Z", "2023-04-09T13:00:00Z", "2023-04-09T14:00:00Z", "2023-04-09T14:00:00Z", "2023-04-09T13:00:00Z", "2023-04-09T14:00:00Z", "2023-04-09T14:00:00Z", "2023-04-09T13:00:00Z", "2023-04-09T13:00:00Z", "2023-04-09T13:00:00Z", "2023-04-09T13:00:00Z", "2023-04-09T13:00:00Z", "2023-04-09T13:00:00Z", "2023-04-09T14:00:00Z", "2023-04-09T13:00:00Z", "2023-04-09T13:00:00Z", "2023-04-09T13:00:00Z", "2023-04-09T13:00:00Z", "2023-04-09T14:00:00Z", "2023-04-09T13:00:00Z", "2023-04-09T14:00:00Z", "2023-04-09T13:00:00Z", "2023-04-09T14:00:00Z", "2023-04-09T13:00:00Z", "2023-04-09T13:00:00Z", "2023-04-09T13:00:00Z", "2023-04-09T13:00:00Z", "2023-04-09T14:00:00Z", "2023-04-09T14:00:00Z", "2023-04-09T14:00:00Z", "2023-04-09T13:00:00Z", "2023-04-09T13:00:00Z", "2023-04-09T13:00:00Z", "2023-04-09T14:00:00Z", "2023-04-09T14:00:00Z", "2023-04-09T14:00:00Z", "2023-04-09T14:00:00Z", "2023-04-09T14:00:00Z", "2023-04-09T13:00:00Z", "2023-04-09T14:00:00Z", "2023-04-09T14:00:00Z", "2023-04-09T14:00:00Z", "2023-04-09T14:00:00Z", "2023-04-09T14:00:00Z", "2023-04-09T14:00:00Z", "2023-04-09T14:00:00Z", "2023-04-09T14:00:00Z", "2023-04-09T14:00:00Z", "2023-04-09T14:00:00Z", "2023-04-09T13:00:00Z", "2023-04-09T14:00:00Z", "2023-04-09T14:00:00Z", "2023-04-09T14:00:00Z", "2023-04-09T13:00:00Z", "2023-04-09T14:00:00Z", "2023-04-09T14:00:00Z", "2023-04-09T13:00:00Z", "2023-04-09T13:00:00Z", "2023-04-09T14:00:00Z", "2023-04-09T13:00:00Z", "2023-04-09T13:00:00Z", "2023-04-09T14:00:00Z", "2023-04-09T14:00:00Z", "2023-04-09T14:00:00Z", "2023-04-09T13:00:00Z", "2023-04-09T13:00:00Z", "2023-04-09T13:00:00Z", "2023-04-09T13:00:00Z", "2023-04-09T13:00:00Z", "2023-04-09T13:00:00Z", "2023-04-09T14:00:00Z", "2023-04-09T13:00:00Z", "2023-04-09T14:00:00Z", "2023-04-09T14:00:00Z", "2023-04-09T14:00:00Z", "2023-04-09T14:00:00Z", "2023-04-09T14:00:00Z", "2023-04-09T14:00:00Z", "2023-04-09T14:00:00Z", "2023-04-09T14:00:00Z", "2023-04-09T14:00:00Z", "2023-04-09T14:00:00Z", "2023-04-09T14:00:00Z", "2023-04-09T14:00:00Z", "2023-04-09T14:00:00Z", "2023-04-09T14:00:00Z", "2023-04-09T14:00:00Z", "2023-04-09T14:00:00Z", "2023-04-09T14:00:00Z", "2023-04-09T14:00:00Z", "2023-04-09T14:00:00Z", "2023-04-09T14:00:00Z", "2023-04-09T14:00:00Z", "2023-04-09T14:00:00Z", "2023-04-09T14:00:00Z", "2023-04-09T14:00:00Z", "2023-04-09T14:00:00Z", "2023-04-09T14:00:00Z", "2023-04-09T14:00:00Z", "2023-04-09T14:00:00Z", "2023-04-09T14:00:00Z", "2023-04-09T14:00:00Z", "2023-04-09T14:00:00Z", "2023-04-09T14:00:00Z", "2023-04-09T14:00:00Z", "2023-04-09T14:00:00Z", "2023-04-09T14:00:00Z", "2023-04-09T14:00:00Z", "2023-04-09T14:00:00Z", "2023-04-09T14:00:00Z", "2023-04-09T13:00:00Z", "2023-04-09T14:00:00Z", "2023-04-09T14:00:00Z", "2023-04-09T14:00:00Z", "2023-04-09T14:00:00Z", "2023-04-09T14:00:00Z", "2023-04-09T14:00:00Z", "2023-04-09T14:00:00Z", "2023-04-09T14:00:00Z", "2023-04-09T14:00:00Z", "2023-04-09T13:00:00Z", "2023-04-09T14:00:00Z", "2023-04-09T13:00:00Z", "2023-04-09T14:00:00Z", "2023-04-09T14:00:00Z", "2023-04-09T14:00:00Z", "2023-04-09T14:00:00Z", "2023-04-09T14:00:00Z", "2023-04-09T13:00:00Z", "2023-04-09T14:00:00Z", "2023-04-09T14:00:00Z", "2023-04-09T14:00:00Z", "2023-04-09T14:00:00Z", "2023-04-09T14:00:00Z", "2023-04-09T14:00:00Z", "2023-04-09T13:00:00Z", "2023-04-09T13:00:00Z", "2023-04-09T13:00:00Z", "2023-04-09T13:00:00Z", "2023-04-09T14:00:00Z", "2023-04-09T13:00:00Z", "2023-04-09T13:00:00Z", "2023-04-09T13:00:00Z", "2023-04-09T13:00:00Z", "2023-04-09T13:00:00Z", "2023-04-09T14:00:00Z", "2023-04-09T13:00:00Z", "2023-04-09T13:00:00Z", "2023-04-09T14:00:00Z", "2023-04-09T13:00:00Z", "2023-04-09T13:00:00Z", "2023-04-09T14:00:00Z", "2023-04-09T13:00:00Z", "2023-04-09T13:00:00Z", "2023-04-09T13:00:00Z", "2023-04-09T13:00:00Z", "2023-04-09T14:00:00Z", "2023-04-09T14:00:00Z", "2023-04-09T14:00:00Z", "2023-04-09T14:00:00Z", "2023-04-09T14:00:00Z", "2023-04-09T14:00:00Z", "2023-04-09T14:00:00Z", "2023-04-09T14:00:00Z", "2023-04-09T14:00:00Z", "2023-04-09T14:00:00Z", "2023-04-09T14:00:00Z", "2023-04-09T14:00:00Z", "2023-04-09T14:00:00Z", "2023-04-09T14:00:00Z", "2023-04-09T14:00:00Z", "2023-04-09T14:00:00Z", "2023-04-09T14:00:00Z", "2023-04-09T14:00:00Z", "2023-04-09T14:00:00Z", "2023-04-09T14:00:00Z", "2023-04-09T14:00:00Z", "2023-04-09T14:00:00Z", "2023-04-09T14:00:00Z", "2023-04-09T14:00:00Z", "2023-04-09T14:00:00Z", "2023-04-09T14:00:00Z", "2023-04-09T14:00:00Z", "2023-04-09T14:00:00Z", "2023-04-09T14:00:00Z", "2023-04-09T14:00:00Z", "2023-04-09T14:00:00Z", "2023-04-09T14:00:00Z", "2023-04-09T14:00:00Z", "2023-04-09T14:00:00Z", "2023-04-09T13:00:00Z", "2023-04-09T14:00:00Z", "2023-04-09T14:03:00Z", "2023-04-09T14:03:00Z", "2023-04-09T14:03:00Z", "2023-04-09T14:03:00Z", "2023-04-09T14:03:00Z", "2023-04-09T14:03:00Z", "2023-04-09T14:03:00Z", "2023-04-09T14:03:00Z", "2023-04-09T14:03:00Z", "2023-04-09T14:03:00Z", "2023-04-09T14:03:00Z", "2023-04-09T14:03:00Z", "2023-04-09T14:03:00Z", "2023-04-09T14:03:00Z", "2023-04-09T14:03:00Z", "2023-04-09T14:03:00Z", "2023-04-09T14:03:00Z", "2023-04-09T14:03:00Z", "2023-04-09T14:03:00Z", "2023-04-09T14:03:00Z", "2023-04-09T14:03:00Z", "2023-04-09T14:00:00Z", "2023-04-09T14:00:00Z", "2023-04-09T14:00:00Z", "2023-04-09T13:00:00Z", "2023-04-09T13:00:00Z", "2023-04-09T14:00:00Z", "2023-04-09T14:00:00Z", "2023-04-09T14:00:00Z", "2023-04-09T13:53:00Z", "2023-04-09T13:53:00Z", "2023-04-09T13:50:00Z", "2023-04-09T13:45:00Z", "2023-04-09T13:53:00Z", "2023-04-09T13:55:00Z", "2023-04-09T13:56:00Z", "2023-04-09T14:00:00Z", "2023-04-09T14:00:00Z", "2023-04-09T14:00:00Z", "2023-04-09T14:00:00Z", "2023-04-09T13:55:00Z", "2023-04-09T14:01:00Z", "2023-04-09T13:55:00Z", "2023-04-09T14:00:00Z", "2023-04-09T14:00:00Z", "2023-04-09T14:00:00Z", "2023-04-09T14:00:00Z", "2023-04-09T14:00:00Z", "2023-04-09T14:00:00Z", "2023-04-09T14:00:00Z", "2023-04-09T13:55:00Z", "2023-04-09T14:00:00Z", "2023-04-09T14:00:00Z", "2023-04-09T13:30:00Z", "2023-04-09T14:00:00Z", "2023-04-09T14:00:00Z", "2023-04-09T14:00:00Z", "2023-04-09T14:00:00Z", "2023-04-09T14:00:00Z", "2023-04-09T14:00:00Z", "2023-04-09T14:00:00Z", "2023-04-09T14:00:00Z", "2023-04-09T14:00:00Z", "2023-04-09T14:00:00Z", "2023-04-09T14:00:00Z", "2023-04-09T14:00:00Z", "2023-04-09T14:00:00Z", "2023-04-09T14:00:00Z", "2023-04-09T14:00:00Z", "2023-04-09T14:00:00Z", "2023-04-09T14:00:00Z", "2023-04-09T14:00:00Z", "2023-04-09T14:00:00Z", "2023-04-09T14:00:00Z", "2023-04-09T14:00:00Z", "2023-04-09T14:00:00Z", "2023-04-09T14:00:00Z", "2023-04-09T14:00:00Z", "2023-04-09T14:00:00Z", "2023-04-09T14:00:00Z", "2023-04-09T14:00:00Z", "2023-04-09T14:00:00Z", "2023-04-09T14:00:00Z", "2023-04-09T14:00:00Z", "2023-04-09T14:00:00Z", "2023-04-09T14:00:00Z", "2023-04-09T14:00:00Z", "2023-04-09T14:00:00Z", "2023-04-09T14:00:00Z", "2023-04-09T14:00:00Z", "2023-04-09T14:00:00Z", "2023-04-09T14:00:00Z", "2023-04-09T14:00:00Z", "2023-04-09T14:00:00Z", "2023-04-09T14:00:00Z", "2023-04-09T14:00:00Z", "2023-04-09T14:00:00Z", "2023-04-09T14:00:00Z", "2023-04-09T14:00:00Z", "2023-04-09T14:00:00Z", "2023-04-09T14:00:00Z", "2023-04-09T14:00:00Z", "2023-04-09T14:00:00Z", "2023-04-09T14:00:00Z", "2023-04-09T14:00:00Z", "2023-04-09T14:00:00Z", "2023-04-09T14:00:00Z", "2023-04-09T14:00:00Z", "2023-04-09T13:00:00Z", "2023-04-09T14:00:00Z", "2023-04-09T14:00:00Z", "2023-04-09T13:00:00Z", "2023-04-09T14:00:00Z", "2023-04-09T13:00:00Z", "2023-04-09T14:00:00Z", "2023-04-09T14:00:00Z", "2023-04-09T14:00:00Z", "2023-04-09T14:00:00Z", "2023-04-09T14:00:00Z", "2023-04-09T14:00:00Z", "2023-04-09T14:00:00Z", "2023-04-09T14:00:00Z", "2023-04-09T14:00:00Z", "2023-04-09T14:00:00Z", "2023-04-09T14:00:00Z", "2023-04-09T14:00:00Z", "2023-04-09T14:00:00Z", "2023-04-09T14:00:00Z", "2023-04-09T14:00:00Z", "2023-04-09T14:00:00Z", "2023-04-09T14:00:00Z", "2023-04-09T14:00:00Z", "2023-04-09T14:00:00Z", "2023-04-09T14:00:00Z", "2023-04-09T14:00:00Z", "2023-04-09T14:00:00Z", "2023-04-09T14:00:00Z", "2023-04-09T14:00:00Z", "2023-04-09T14:00:00Z", "2023-04-09T14:00:00Z", "2023-04-09T14:00:00Z", "2023-04-09T14:00:00Z", "2023-04-09T14:00:00Z", "2023-04-09T14:00:00Z", "2023-04-09T14:00:00Z", "2023-04-09T14:00:00Z", "2023-04-09T14:00:00Z", "2023-04-09T14:00:00Z", "2023-04-09T14:00:00Z", "2023-04-09T14:00:00Z", "2023-04-09T14:00:00Z", "2023-04-09T14:00:00Z", "2023-04-09T14:00:00Z", "2023-04-09T14:00:00Z", "2023-04-09T14:00:00Z", "2023-04-09T14:00:00Z", "2023-04-09T14:00:00Z", "2023-04-09T14:00:00Z", "2023-04-09T13:31:00Z", "2023-04-09T14:00:00Z", "2023-04-09T14:00:00Z", "2023-04-09T14:00:00Z", "2023-04-09T14:00:00Z", "2023-04-09T14:00:00Z", "2023-04-09T14:00:00Z", "2023-04-09T14:00:00Z", "2023-04-09T14:00:00Z", "2023-04-09T14:00:00Z", "2023-04-09T14:00:00Z", "2023-04-09T14:00:00Z", "2023-04-09T14:00:00Z", "2023-04-09T14:00:00Z", "2023-04-09T14:00:00Z", "2023-04-09T14:00:00Z", "2023-04-09T14:00:00Z", "2023-04-09T14:00:00Z", "2023-04-09T14:00:00Z", "2023-04-09T14:00:00Z", "2023-04-09T14:00:00Z", "2023-04-09T14:00:00Z", "2023-04-09T14:00:00Z", "2023-04-09T14:00:00Z", "2023-04-09T14:00:00Z", "2023-04-09T14:00:00Z", "2023-04-09T14:00:00Z", "2023-04-09T14:00:00Z", "2023-04-09T14:00:00Z", "2023-04-09T14:00:00Z", "2023-04-09T14:00:00Z", "2023-04-09T14:00:00Z", "2023-04-09T14:00:00Z", "2023-04-09T13:30:00Z", "2023-04-09T13:30:00Z", "2023-04-09T14:00:00Z", "2023-04-09T14:00:00Z", "2023-04-09T14:00:00Z", "2023-04-09T14:00:00Z", "2023-04-09T14:00:00Z", "2023-04-09T13:00:00Z", "2023-04-09T13:30:00Z", "2023-04-09T14:00:00Z", "2023-04-09T13:10:00Z", "2023-04-09T13:10:00Z", "2023-04-09T14:00:00Z", "2023-04-09T13:30:00Z", "2023-04-09T14:00:00Z", "2023-04-09T14:00:00Z", "2023-04-09T14:00:00Z", "2023-04-09T13:30:00Z", "2023-04-09T14:00:00Z", "2023-04-09T13:30:00Z", "2023-04-09T14:00:00Z", "2023-04-09T13:00:00Z", "2023-04-09T14:00:00Z", "2023-04-09T13:00:00Z", "2023-04-09T13:00:00Z", "2023-04-09T14:00:00Z", "2023-04-09T14:00:00Z", "2023-04-09T14:00:00Z", "2023-04-09T14:00:00Z", "2023-04-09T14:00:00Z", "2023-04-09T14:00:00Z", "2023-04-09T13:30:00Z", "2023-04-09T14:00:00Z", "2023-04-09T14:00:00Z", "2023-04-09T14:00:00Z", "2023-04-09T14:00:00Z", "2023-04-09T13:30:00Z", "2023-04-09T14:00:00Z", "2023-04-09T13:00:00Z", "2023-04-09T13:00:00Z", "2023-04-09T14:00:00Z", "2023-04-09T13:00:00Z", "2023-04-09T14:00:00Z", "2023-04-09T14:00:00Z", "2023-04-09T14:00:00Z", "2023-04-09T14:00:00Z", "2023-04-09T14:00:00Z", "2023-04-09T13:00:00Z", "2023-04-09T13:00:00Z", "2023-04-09T14:00:00Z", "2023-04-09T13:30:00Z", "2023-04-09T13:30:00Z", "2023-04-09T14:00:00Z", "2023-04-09T14:00:00Z", "2023-04-09T14:00:00Z", "2023-04-09T14:00:00Z", "2023-04-09T13:00:00Z", "2023-04-09T14:00:00Z", "2023-04-09T14:00:00Z", "2023-04-09T14:00:00Z", "2023-04-09T14:00:00Z", "2023-04-09T13:30:00Z", "2023-04-09T14:00:00Z", "2023-04-09T14:00:00Z", "2023-04-09T14:00:00Z", "2023-04-09T14:00:00Z", "2023-04-09T14:00:00Z", "2023-04-09T14:00:00Z", "2023-04-09T14:00:00Z", "2023-04-09T13:00:00Z", "2023-04-09T13:00:00Z", "2023-04-09T14:00:00Z", "2023-04-09T14:00:00Z", "2023-04-09T14:00:00Z", "2023-04-09T14:00:00Z", "2023-04-09T14:00:00Z", "2023-04-09T14:00:00Z", "2023-04-09T14:00:00Z", "2023-04-09T14:00:00Z", "2023-04-09T13:00:00Z", "2023-04-09T14:00:00Z", "2023-04-09T14:00:00Z", "2023-04-09T14:00:00Z", "2023-04-09T13:00:00Z", "2023-04-09T14:00:00Z", "2023-04-09T14:00:00Z", "2023-04-09T14:00:00Z", "2023-04-09T14:00:00Z", "2023-04-09T14:00:00Z", "2023-04-09T14:00:00Z", "2023-04-09T14:00:00Z", "2023-04-09T14:00:00Z", "2023-04-09T14:00:00Z", "2023-04-09T14:00:00Z", "2023-04-09T14:00:00Z", "2023-04-09T14:00:00Z", "2023-04-09T14:00:00Z", "2023-04-09T13:30:00Z", "2023-04-09T14:00:00Z", "2023-04-09T13:30:00Z", "2023-04-09T13:30:00Z", "2023-04-09T13:30:00Z", "2023-04-09T14:00:00Z", "2023-04-09T13:30:00Z", "2023-04-09T14:00:00Z", "2023-04-09T13:30:00Z", "2023-04-09T13:30:00Z", "2023-04-09T13:30:00Z", "2023-04-09T13:30:00Z", "2023-04-09T13:30:00Z", "2023-04-09T13:00:00Z", "2023-04-09T13:30:00Z", "2023-04-09T13:00:00Z", "2023-04-09T13:00:00Z", "2023-04-09T13:00:00Z", "2023-04-09T13:40:00Z", "2023-04-09T13:00:00Z", "2023-04-09T13:00:00Z", "2023-04-09T13:00:00Z", "2023-04-09T13:00:00Z", "2023-04-09T13:30:00Z", "2023-04-09T13:30:00Z", "2023-04-09T13:30:00Z", "2023-04-09T13:30:00Z", "2023-04-09T14:00:00Z", "2023-04-09T13:00:00Z", "2023-04-09T13:30:00Z", "2023-04-09T13:30:00Z", "2023-04-09T13:30:00Z", "2023-04-09T13:00:00Z", "2023-04-09T13:00:00Z", "2023-04-09T13:00:00Z", "2023-04-09T13:00:00Z", "2023-04-09T13:00:00Z", "2023-04-09T13:00:00Z", "2023-04-09T13:00:00Z", "2023-04-09T13:00:00Z", "2023-04-09T13:00:00Z", "2023-04-09T13:30:00Z", "2023-04-09T13:00:00Z", "2023-04-09T13:00:00Z", "2023-04-09T13:00:00Z", "2023-04-09T13:30:00Z", "2023-04-09T13:00:00Z", "2023-04-09T14:00:00Z", "2023-04-09T14:00:00Z", "2023-04-09T14:00:00Z", "2023-04-09T14:00:00Z", "2023-04-09T14:00:00Z", "2023-04-09T14:00:00Z", "2023-04-09T14:00:00Z", "2023-04-09T14:00:00Z", "2023-04-09T14:00:00Z", "2023-04-09T14:00:00Z", "2023-04-09T14:00:00Z", "2023-04-09T14:00:00Z", "2023-04-09T14:00:00Z", "2023-04-09T14:00:00Z", "2023-04-09T14:00:00Z", "2023-04-09T14:00:00Z", "2023-04-09T14:00:00Z", "2023-04-09T14:00:00Z", "2023-04-09T14:00:00Z", "2023-04-09T14:00:00Z", "2023-04-09T14:00:00Z", "2023-04-09T14:00:00Z", "2023-04-09T14:01:00Z", "2023-04-09T14:00:00Z", "2023-04-09T14:00:00Z", "2023-04-09T14:00:00Z", "2023-04-09T13:52:00Z", "2023-04-09T14:00:00Z", "2023-04-09T14:00:00Z", "2023-04-09T14:00:00Z", "2023-04-09T14:00:00Z", "2023-04-09T14:00:00Z", "2023-04-09T14:00:00Z", "2023-04-09T14:00:00Z", "2023-04-09T14:00:00Z", "2023-04-09T14:00:00Z", "2023-04-09T14:00:00Z", "2023-04-09T14:00:00Z", "2023-04-09T14:00:00Z", "2023-04-09T14:00:00Z", "2023-04-09T14:00:00Z", "2023-04-09T14:00:00Z", "2023-04-09T14:00:00Z", "2023-04-09T14:00:00Z", "2023-04-09T14:00:00Z", "2023-04-09T14:00:00Z", "2023-04-09T14:00:00Z", "2023-04-09T14:00:00Z", "2023-04-09T14:00:00Z", "2023-04-09T14:00:00Z", "2023-04-09T14:00:00Z", "2023-04-09T14:00:00Z", "2023-04-09T14:00:00Z", "2023-04-09T14:00:00Z", "2023-04-09T14:00:00Z", "2023-04-09T14:00:00Z", "2023-04-09T14:00:00Z", "2023-04-09T14:00:00Z", "2023-04-09T14:00:00Z", "2023-04-09T14:00:00Z", "2023-04-09T14:00:00Z", "2023-04-09T14:00:00Z", "2023-04-09T14:00:00Z", "2023-04-09T14:00:00Z", "2023-04-09T14:00:00Z", "2023-04-09T14:00:00Z", "2023-04-09T14:00:00Z", "2023-04-09T14:00:00Z", "2023-04-09T14:00:00Z", "2023-04-09T14:00:00Z", "2023-04-09T14:00:00Z", "2023-04-09T14:00:00Z", "2023-04-09T14:00:00Z", "2023-04-09T14:00:00Z", "2023-04-09T14:00:00Z", "2023-04-09T14:00:00Z", "2023-04-09T14:00:00Z", "2023-04-09T14:00:00Z", "2023-04-09T14:00:00Z", "2023-04-09T14:00:00Z", "2023-04-09T14:00:00Z", "2023-04-09T14:00:00Z", "2023-04-09T14:00:00Z", "2023-04-09T14:00:00Z", "2023-04-09T14:00:00Z", "2023-04-09T14:00:00Z", "2023-04-09T14:00:00Z", "2023-04-09T14:00:00Z"], "raw_text": ["AGGH 091300Z 20003KT 9999 FEW014 FEW015CB 25/25 Q1010 RMK LGTNG SEEN TO N", "AYPY 091400Z 35005KT 9999 SCT050 BKN140 24/24 Q1012", "BGBW 091350Z AUTO 26004KT 200V300 9999NDV FEW017/// BKN075/// 01/M03 Q0985", "BGGH 091350Z 01006KT 9999 REW012 BKN025 M04/M05 Q0993", "BGJN 091350Z 01008KT 9999 BKN011 BKN160 M03/M06 Q0999", "BGKK 091350Z AUTO 07030G43KT 9999NDV -RA BKN020/// 05/M00 Q0994", "BGSF 091350Z AUTO 21004KT 9999NDV NCD M06/M10 Q0997", "BGTL 091355Z AUTO 09006KT 9999 OVC019 M20/M25 A2960 RMK AO2 OVC V BKN CIG 018 RWY26 SLP015 T12031254 TSNO $", "BIAR 091400Z 11008KT 080V160 9999 OVC040 10/03 Q1003", "BIEG 091400Z 19018KT 9999 VCSH SCT030 BKN042 09/04 Q1008", "BIKF 091400Z 11031G44KT 7000 -DZRA BR OVC013 09/07 Q0990", "BIRK 091400Z 10009KT 9000 R19/P1500N -RA OVC020 09/07 Q0992", "BIVM 091400Z 12035G51KT 8000 RA OVC004 08/07 Q0992 RERA", "BKPR 091400Z 05008KT 9999 SCT015 BKN025 08/05 Q1018 NOSIG", "CAHR 091300Z AUTO 33012G18KT M01/M09 RMK AO1 SOG 10 2014 PK WND 34018/1254 SLP280 T10121094", "CBAR 091400Z AUTO 09017KT ////SM OVC005 M18/M19 A2968", "CBBC 091400Z AUTO 14011KT 6SM -RA BR OVC037 07/06 A2937 RMK PCPN 1.0MM PAST HR SLP949", "CERM 091300Z AUTO 30003KT 00/M06 RMK AO1 SOG 82 0010 SLP306 T00001055", "CMFM 091300Z AUTO 34006KT M02/M12 RMK AO1 SOG 114 0008 SLP310 T10201119", "CMGB 091300Z AUTO 23005KT 02/M05 RMK AO1 SLP345 T00211051 51016", "CPBT 091300Z AUTO 23006KT 02/M04 RMK AO1 PK WND 28020/1204 T00201038", "CPEH 091300Z AUTO 00000KT 02/M03 RMK AO1 T00231028", "CPFI 091300Z AUTO 26010KT 04/M02 RMK AO1 PK WND 28020/1203 T00421021", "CPIN 091400Z AUTO 04003KT ////SM ////// ///// A////", "CPIR 091300Z AUTO 24013KT 03/M02 RMK AO1 T00261020", "CPRO 091300Z AUTO 19006KT M02/M03 RMK AO1 T10171032", "CPRY 091300Z AUTO 24009KT 02/M03 RMK AO1 T00191030", "CPST 091300Z AUTO 21008KT M00/M04 RMK AO1 T10011042", "CPSV 091300Z AUTO 26013KT 03/M01 RMK AO1 T00321013", "CTCK 091300Z AUTO 18001KT 02/M05 RMK AO1 SOG 16 1017 SLP348 T00191047", "CTNK 091300Z AUTO 00000KT M02/M07 RMK AO1 SOG 44 1016 SLP359 T10231068", "CTRA 091300Z AUTO 20005KT 04/M03 RMK AO1 SOG 31 5008 SLP151 T00371026", "CWAE 091400Z 00000KT 3SM -RA BKN004 OVC010 02/02 A2986 RMK ST6ST2 WIND EST SLP127", "CWAF 091300Z AUTO 30009KT M00/M07 RMK AO1 T10011067", "CWAJ 091300Z AUTO 07007KT RMK AO1 51017", "CWAQ 091300Z AUTO 24012KT 03/M02 RMK AO1 SLP170 T00271020 53011", "CWAR 091300Z AUTO 23016KT M01/M09 RMK AO1 PK WND 21020/1254 SLP195 T10071092 50001", "CWAV 091300Z AUTO 28005KT 01/M06 RMK AO1 SLP135 T00051061 51011", "CWBA 091300Z AUTO 15004KT M02/M05 RMK AO1 SOG 50 T10181052", "CWBK 091300Z AUTO 31016KT M01/M06 RMK AO1 PK WND 32019/1212 SLP284 T10091061 51011", "CWBO 091300Z AUTO 21005KT 02/M03 RMK AO1 SLP159 T00221033 51021", "CWBS 091300Z AUTO 22002KT M00/M06 RMK AO1 T10031055", "CWBT 091300Z AUTO 26006KT M04/M14 RMK AO1 SLP247 T10401136 58008", "CWBU 091300Z AUTO 21005KT M05/M06 RMK AO1 SOG 19 3010 SLP100 T10471058", "CWBV 091300Z AUTO 28006KT 02/M09 RMK AO1 SLP269 T00201087 51008", "CWBY 091300Z AUTO 26011KT M04/M13 RMK AO1 SOG 24 8004 SLP254 T10431127", "CWBZ 091300Z AUTO 25007KT 02/M06 RMK AO1 SLP343 T00201056 51017", "CWCF 091300Z AUTO 18005KT 02/M04 RMK AO1 SOG 03 8012 SLP109 T00191042", "CWCI 091300Z AUTO 15016G21KT 02/M01 RMK AO1 PK WND 15021/1257 SLP304 T00161009 55001", "CWCJ 091300Z AUTO 19006G15KT 03/01 RMK AO1 SOG 73 7006 SLP286 T00300005", "CWCO 091300Z AUTO 16002KT 02/M01 RMK AO1 SLP361 T00211013 51017", "CWCT 091300Z AUTO 27008KT M02/M05 RMK AO1 SOG 16 1016 SLP154 T10241052", "CWDA 091300Z AUTO 00029KT M06/ RMK AO1 T1059", "CWDC 091300Z AUTO 07002KT M07/M08 RMK AO1 SOG 54 1008 SLP026 T10721082", "CWDJ 091300Z AUTO 22003KT M01/M04 RMK AO1 SOG 03 3012 SLP146 T10141042", "CWDK 091300Z AUTO 25010G15KT 06/M04 RMK AO1 SOG 01 1010 PK WND 25020/1245 SLP163 T00631035", "CWDM 091300Z AUTO 28012G17KT M07/M17 RMK AO1 PK WND 29017/1251 SLP202 T10721173 58006", "CWDO 091300Z AUTO 28015G22KT M06/M14 RMK AO1 PK WND 29022/1258 SLP157 T10621136 50000", "CWDQ 091300Z AUTO 21002KT M05/M12 RMK AO1 SOG 49 0014 SLP339 T10501115", "CWDV 091300Z AUTO 18007KT 02/M03 RMK AO1 SOG 68 6016 SLP205 T00231026", "CWDZ 091300Z AUTO 12005KT M02/M04 RMK AO1 SLP152 T10161039 52012", "CWEB 091300Z AUTO 00012KT 08/08 RMK AO1 2PAST HR 6036 SLP058 P0001 T00830079 50002", "CWEE 091300Z AUTO M05/M11 RMK AO1 SLP299 T10471113 50004", "CWEF 091300Z AUTO 32024KT M02/M09 RMK AO1 PK WND 32028/1243 SLP218 T10181088 53003", "CWEH 091300Z AUTO 24012KT M02/M06 RMK AO1 SOG 43 2011 SLP178 T10231056", "CWEL 091300Z AUTO 10023KT 08/07 RMK AO1 PK WND 09028/1246 SLP114 T00830072 58013", "CWEP 091300Z AUTO 31018KT M00/M08 RMK AO1 PK WND 31022/1254 SLP270 T10011080 53011", "CWEQ 091300Z AUTO 23008KT M01/M03 RMK AO1 SOG 35 3004 SLP104 T10091031", "CWER 091300Z AUTO 23010KT RMK AO1", "CWEU 091400Z VRB05KT 15SM FEW040 M33/M37 A2976 RMK SC1 SC TR SLP096", "CWEW 091300Z AUTO 21002KT M00/M07 RMK AO1 SLP347 T10021071 51019", "CWEZ 091300Z AUTO 19022G27KT 09/07 RMK AO1 PK WND 19029/1211 SLP129 T00850068 50002", "CWFD 091400Z AUTO ///// ////SM ////// M20/M24 A////", "CWFF 091300Z AUTO 21011KT M02/M05 RMK AO1 SOG 18 1013 SLP107 T10211046", "CWFJ 091300Z AUTO 19003KT 05/M04 RMK AO1 T00481041", "CWFQ 091300Z AUTO 36003KT 02/M09 RMK AO1 SLP340 T00221089 51016", "CWGB 091300Z AUTO 11024G30KT 09/ RMK AO1 PK WND 10030/1251 SLP110 T0085 58011", "CWGD 091300Z AUTO 12006KT 05/01 RMK AO1 SLP347 T00460005 51013", "CWGH 091300Z AUTO 26001KT 04/M05 RMK AO1 SLP351 T00361050 51016", "CWGL 091300Z AUTO 25001KT M00/M03 RMK AO1 SLP345 T10041032 51020", "CWGM 091300Z AUTO 23019G27KT 06/M04 RMK AO1 PK WND 25030/1242 SLP168 T00571040 50016", "CWGR 091300Z AUTO 31016KT M02/M11 RMK AO1 PK WND 32023/1208 SLP257 T10181113 51020", "CWGT 091300Z AUTO 12031KT 08/07 RMK AO1 PK WND 12035/1229 SLP099 T00800070 58015", "CWGW 091300Z AUTO 18005KT 04/M04 RMK AO1 SLP203 T00391041 50001", "CWGY 091300Z AUTO 25012KT 01/M04 RMK AO1 SOG 19 1021 SLP142 T00091036", "CWHI 091300Z AUTO 11002KT M02/M05 RMK AO1 T10171049", "CWHL 091300Z AUTO 11017G31KT 07/03 RMK AO1 4PAST HR PRESFR 8064 PK WND 11031/1258 SLP912 P0002 T00660026 50004", "CWHO 091300Z AUTO 00027KT M11/M19 RMK AO1 SLP132 T11091187 58009", "CWHP 091300Z AUTO 31015KT M05/M14 RMK AO1 PK WND 32020/1259 SLP238 T10491143 50007", "CWHQ 091300Z AUTO 30003KT M01/M10 RMK AO1 T10071103", "CWHT 091300Z AUTO 34002KT M02/M04 RMK AO1 SOG 39 0009 SLP888 T10211036", "CWHV 091300Z AUTO 09001KT M01/M10 RMK AO1 SLP326 T10131098 51015", "CWID 091300Z AUTO 09002KT M06/M07 RMK AO1 SLP025 T10561066 50008", "CWIG 091300Z AUTO 23015KT RMK AO1 PK WND 23019/1257", "CWII 091300Z AUTO 21012KT 01/M03 RMK AO1 PK WND 22018/1230 SLP132 T00051030 55000", "CWIJ 091300Z AUTO 32013KT M15/M17 RMK AO1 SOG 77 3016 PK WND 33020/1209 SLP044 T11481167", "CWIK 091300Z AUTO 23006KT 02/M02 RMK AO1 SOG 08 3006 SLP139 T00151022", "CWIL 091400Z AUTO ///// ////SM ////// M12/M13 A2929", "CWIP 091300Z AUTO 29007KT M03/M14 RMK AO1 T10251135", "CWIS 091300Z AUTO 33005KT M01/M12 RMK AO1 SOG 146 1013 SLP302 T10131123", "CWIT 091300Z AUTO 28007KT 03/M06 RMK AO1 SLP342 T00331060 51017", "CWIW 091300Z AUTO 25012KT 01/M02 RMK AO1 SOG 15 3007 SLP116 T00141021", "CWIZ 091300Z AUTO 26005KT 03/M05 RMK AO1 4PAST HR M P0002 T00261048 50004", "CWJB 091300Z AUTO M01/M07 RMK AO1 SOG 74 T10081070", "CWJC 091300Z AUTO 26013KT M00/M02 RMK AO1 SOG 03 3006 PK WND 26018/1219 SLP992 T10011022", "CWJD 091300Z AUTO 23005KT M00/M02 RMK AO1 SOG 43 6005 SLP089 T10021024", "CWJH 091300Z AUTO 27002KT M00/M01 RMK AO1 SOG 60 2007 SLP062 T10021006", "CWJI 091300Z AUTO 24013KT 02/M02 RMK AO1 SOG 09 3012 PK WND 24018/1222 SLP154 T00221024", "CWJO 091300Z AUTO 00000KT M01/M10 RMK AO1 SLP311 T10121095 50013", "CWJR 091300Z AUTO 05002KT 05/01 RMK AO1 SLP212 T00450009 52001", "CWJT 091300Z AUTO 25001KT M02/M08 RMK AO1 SLP344 T10231083 51014", "CWJU 091300Z AUTO 11010G19KT 05/04 RMK AO1 PRESFR PK WND 11019/1255 SLP860 T00540035 58067", "CWJV 091300Z AUTO 10007KT 06/02 RMK AO1 SLP164 T00550015 55006", "CWJW 091300Z AUTO 12004KT 03/M03 RMK AO1 SLP117 T00331034 58004", "CWJX 091300Z AUTO 23009KT 01/M03 RMK AO1 SOG 25 3023 SLP149 T00051034", "CWKD 091300Z AUTO M05/M12 RMK AO1 SLP268 T10531118 58002", "CWKG 091300Z AUTO 32004KT 03/M07 RMK AO1 SLP300 T00331072 50009", "CWKH 091300Z AUTO 06/06 RMK AO1 6PAST HR 8006 SLP120 P0002 T00580056 50006", "CWKM 091400Z AUTO 08013G21KT ////SM FEW075 OVC090 M18/M21 A2959", "CWKO 091300Z AUTO 26015G21KT 02/M04 RMK AO1 SOG 06 2010 PK WND 26021/1257 SLP174 T00211035", "CWKX 091300Z AUTO 30002KT M02/M05 RMK AO1 SOG 31 8012 SLP969 T10161052", "CWLB 091300Z AUTO 16001KT 01/M04 RMK AO1 SOG 11 1017 SLP106 T00051041", "CWLC 091300Z AUTO 13020KT 05/04 RMK AO1 PK WND 13024/1229 T00540042", "CWLE 091300Z AUTO 24014KT 01/M02 RMK AO1 SOG 12 3015 PK WND 25019/1227 SLP136 T00101021", "CWLM 091300Z AUTO 05003KT 08/07 RMK AO1 SLP127 T00750067 58005", "CWLP 091300Z AUTO 13037G45KT 08/06 RMK AO1 PRESFR PK WND 13047/1233 SLP985 T00830057 58041", "CWLS 091300Z AUTO 15005KT 02/M02 RMK AO1 SLP350 T00181020 51017", "CWLX 091400Z AUTO ///// ////SM ////// M27/M31 A2981", "CWLY 091400Z AUTO 23010G22KT 180V290 9SM FEW044 BKN055 BKN076 OVC088 08/04 A2983 RMK SLP107", "CWME 091300Z AUTO 06012KT 06/05 RMK AO1 8PAST HR 6049 SLP979 P0003 T00550050 50008", "CWMJ 091300Z AUTO 00000KT M01/M10 RMK AO1 SOG 31 1014 SLP347 T10061102", "CWMM 091300Z AUTO 09002KT 07/06 RMK AO1 2PAST HR 8006 SLP151 P0001 T00720055 50002", "CWMQ 091300Z AUTO 25009KT 06/M03 RMK AO1 PK WND 25017/1201 SLP156 T00551033 53013", "CWMT 091300Z AUTO 09002KT M13/M15 RMK AO1 SOG 26 1009 SLP034 T11301146", "CWNC 091300Z AUTO 24001KT 03/M04 RMK AO1 SLP357 T00301044 51020", "CWND M01/M01 RMK SOG 25 0000 T10091006", "CWNE 091300Z AUTO 33015KT M02/M10 RMK AO1 PK WND 34021/1201 SLP281 T10201101 51016", "CWNH 091300Z AUTO 24003KT 01/M10 RMK AO1 SOG 51 1014 SLP308 T00051099", "CWNK 091300Z AUTO 18002KT M08/M09 RMK AO1 SLP148 T10771088 51005", "CWNM 091300Z AUTO 00000KT 04/04 RMK AO1 SLP211 T00430043 56001", "CWNP 091300Z AUTO 33001KT 04/03 RMK AO1 SLP193 T00420031 56003", "CWNQ 091300Z AUTO 21004KT M00/M06 RMK AO1 SLP339 T10041061 51017", "CWNZ 091300Z AUTO 20005KT 01/M09 RMK AO1 SOG 74 8004 SLP282 T00061089", "CWOB 091400Z AUTO 03010KT ////SM ////// M16/M21 A////", "CWOC 091300Z AUTO 28007KT M04/M14 RMK AO1 SOG 51 0010 SLP285 T10371143", "CWOD 091300Z AUTO 13001KT M04/M12 RMK AO1 SOG 41 1011 SLP316 T10381115", "CWOE 091300Z AUTO 14006KT 02/M04 RMK AO1 SOG 17 3016 SLP184 T00161039", "CWOY 091300Z AUTO 23010KT 03/M02 RMK AO1 SLP117 T00281015 53012", "CWPD 091300Z AUTO 34003KT M03/M11 RMK AO1 SLP306 T10301114 50010", "CWPE 091300Z AUTO 29007KT 03/M08 RMK AO1 SLP312 T00261082 51015", "CWPF 091345Z AUTO 34005KT 08/07 RMK AO1 SLP123 T00800067 58005", "CWPK 091300Z AUTO 31001KT M06/M13 RMK AO1 SOG 83 1011 SLP334 T10551134", "CWPO 091300Z AUTO 22008KT M05/M05 RMK AO1 SOG 50 3012 SLP168 T10531054", "CWPR 091300Z AUTO 29001KT 04/M00 RMK AO1 SLP146 T00361001 58008", "CWPZ 091300Z AUTO 31001KT M00/M03 RMK AO1 SOG 17 8030 SLP016 T10041026", "CWQH 091300Z AUTO 24001KT 01/M06 RMK AO1 SLP342 T00051063 51014", "CWQK 091300Z AUTO 32001KT 08/07 RMK AO1 SLP127 T00800066 58004", "CWQO 091300Z AUTO 23004KT M00/M04 RMK AO1 T10031041", "CWQP 091300Z AUTO 34002KT 04/M04 RMK AO1 SLP356 T00361037 51018", "CWQR 091300Z AUTO 27017KT M05/M12 RMK AO1 PK WND 27020/1251 T10501120", "CWQS 091300Z AUTO 12015G22KT 05/02 RMK AO1 PRESFR PK WND 12027/1217 SLP846 T00520023 58071", "CWQV 091300Z AUTO 28013KT 01/ RMK AO1 T0005", "CWRA 091300Z AUTO M01/M11 RMK AO1 SLP199 T10071107 50001", "CWRJ 091300Z AUTO 27009KT M00/M04 RMK AO1 SLP125 T10031035 53017", "CWRK 091300Z AUTO 00000KT M00/M05 RMK AO1 SOG 07 1016 SLP355 T10011054", "CWRM 091300Z AUTO 15002KT M03/M07 RMK AO1 SOG 08 3005 SLP107 T10261066", "CWRN 091300Z AUTO 28012KT M00/M07 RMK AO1 SLP271 T10021072 50007", "CWRO 091300Z AUTO 14035G44KT 05/ RMK AO1 PRESFR PK WND 15045/1206 SLP891 T0052 58057", "CWRT 091300Z AUTO 30010G17KT 04/M04 RMK AO1 PK WND 32022/1201 SLP187 T00401041 51008", "CWRU 091300Z AUTO 12059G68KT 07/ RMK AO1 0PAST HR 6062 PK WND 12068/1244 SLP947 P0008 T0073 50020", "CWRY 091300Z AUTO 32005KT M02/M04 RMK AO1 SOG 17 1019 T10161042", "CWRZ 091300Z AUTO 33009G16KT M04/M13 RMK AO1 SLP272 T10351130 50007", "CWSA 091400Z AUTO 30015G21KT 9SM CLR 03/M09 A3036 RMK SLP283", "CWSD 091300Z AUTO 33011G16KT 01/M09 RMK AO1 SOG 02 1015 SLP286 T00061090", "CWSF 091300Z AUTO 28010G16KT M02/M12 RMK AO1 SOG 09 0002 SLP266 T10241118", "CWSG 091300Z AUTO 25014KT M02/M10 RMK AO1 SLP284 T10191099 50002", "CWSK 091300Z AUTO 00000KT 05/05 RMK AO1 4PAST HR 8010 SLP139 P0002 T00540053 50004", "CWSL 091300Z AUTO 12002KT 08/02 RMK AO1 SLP161 T00760020 58007", "CWSP 091300Z AUTO 08005KT 08/07 RMK AO1 2PAST HR 8012 SLP123 P0001 T00810069 50002", "CWSR 091300Z AUTO 26003KT M04/M06 RMK AO1 SOG 12 3019 SLP106 T10391057", "CWSS 091300Z AUTO 03/M10 RMK AO1 SLP319 T00281096 51014", "CWST 091300Z AUTO 24010KT M00/M06 RMK AO1 SOG 13 1015 SLP309 T10011061", "CWSW 091400Z 15007KT 130V190 20SM BKN043 BKN065 05/M04 A3007 RMK SC5SC2 SLP208", "CWTA 091300Z AUTO 18002KT 04/M09 RMK AO1 SOG 29 1017 SLP340 T00431088", "CWTG 091300Z AUTO 23011KT M03/M10 RMK AO1 SLP283 T10271102 50001", "CWTN 091300Z AUTO 23004KT M00/M08 RMK AO1 SLP322 T10021075 51014", "CWTT 091300Z AUTO 22006KT M01/M05 RMK AO1 T10081046", "CWTY 091300Z AUTO 20006KT M00/M06 RMK AO1 SLP340 T10041061 51016", "CWUS 091300Z AUTO 14009G17KT 09/M00 RMK AO1 PK WND 14017/1257 SLP158 T00931003 58009", "CWUW 091400Z AUTO 10004KT ////SM NCD M19/M28 A2966", "CWUX 091300Z AUTO 29008KT M01/M11 RMK AO1 SLP316 T10111106 50014", "CWVF 091300Z AUTO 10017KT 08/07 RMK AO1 PK WND 10021/1257 T00840073", "CWVI 091300Z AUTO 25006KT M00/M04 RMK AO1 SOG 03 1015 SLP121 T10041038", "CWVN 091300Z AUTO 22004KT M02/M06 RMK AO1 SOG 11 1011 SLP187 T10151056", "CWVP 091300Z AUTO 29007KT 04/M06 RMK AO1 SOG 34 1014 SLP155 T00351058", "CWVQ 091300Z AUTO 24007KT 01/M06 RMK AO1 SLP345 T00141055 51017", "CWVT 091300Z AUTO 23003KT 05/M02 RMK AO1 SOG 32 1017 SLP090 T00451022", "CWVU 091300Z AUTO 32018KT 03/M06 RMK AO1 PK WND 29023/1210 SLP310 T00311057 51014", "CWWA 091300Z AUTO 06004KT 08/07 RMK AO1 2PAST HR 7008 SLP145 P0001 T00820073 50002", "CWWB 091300Z AUTO 02006KT 03/M01 RMK AO1 SLP363 T00301009 51018", "CWWE 091300Z AUTO 28010KT 05/M07 RMK AO1 SLP301 T00481070 50006", "CWWF 091300Z AUTO 24006KT 02/M02 RMK AO1 SOG 21 2011 SLP152 T00211023", "CWWK 091300Z AUTO 04003KT 09/07 RMK AO1 6PAST HR 6005 SLP149 P0002 T00870072 50006", "CWWL 091300Z AUTO 15040G51KT 06/04 RMK AO1 6PAST HR PRESFR 8061 PK WND 16056/1240 SLP902 P0010 T00600035 50026", "CWWS 091300Z AUTO 16014KT M04/M07 RMK AO1 SOG 73 6014 PK WND 14018/1220 SLP099 T10391067", "CWWZ 091300Z AUTO 01002KT 04/M00 RMK AO1 SLP358 T00391004 51018", "CWXA 091300Z AUTO 00024KT 05/M08 RMK AO1 SLP157 T00521081 51011", "CWXC 091300Z AUTO 24001KT M04/M07 RMK AO1 SLP302 T10421068 50007", "CWXI 091300Z AUTO 29012G17KT M08/M14 RMK AO1 PK WND 28017/1259 SLP156 T10841143 58005", "CWXL 091300Z AUTO 27012KT 03/M02 RMK AO1 SLP174 T00341016 51016", "CWYJ 091300Z AUTO 06001KT 07/07 RMK AO1 SLP129 T00730067 58005", "CWYL 091300Z AUTO 27016KT M00/M03 RMK AO1 SOG 87 8004 PK WND 27019/1257 SLP176 T10041030", "CWYY 091300Z AUTO 16004KT 09/01 RMK AO1 SLP174 T00890013 58002", "CWZA 091300Z AUTO 23002KT 07/07 RMK AO1 4PAST HR 8004 SLP155 P0002 T00700066 50004", "CWZG 091300Z AUTO 23006KT 04/M06 RMK AO1 SLP146 T00411061 58007", "CWZL 091300Z AUTO 16036G46KT 06/06 RMK AO1 PK WND 15050/1248 SLP876 T00600055 56065", "CWZN 091300Z AUTO 29024KT M03/M14 RMK AO1 PK WND 29028/1205 SLP198 T10281140 51005", "CWZO 091300Z AUTO 15014KT RMK AO1 PK WND 15017/1201", "CWZQ 091300Z AUTO 30015KT M01/M07 RMK AO1 PK WND 30020/1224 SLP261 T10071067 53009", "CWZW 091300Z AUTO 35002KT M01/M03 RMK AO1 SOG 55 8001 SLP939 T10081031", "CWZZ 091400Z AUTO 30009KT ////SM ////// ///// A2963", "CXAF 091300Z AUTO 12001KT M05/M08 RMK AO1 T10501076", "CXAG 091300Z AUTO 23001KT M03/M06 RMK AO1 T10251061", "CXAJ 091300Z AUTO 20002KT M02/M05 RMK AO1 SOG 30 T10171047", "CXAK 091300Z AUTO 19009KT 01/M04 RMK AO1 T00061035", "CXAT 091300Z AUTO 34002KT M29/M33 RMK AO1 SOG 08 1001 SLP110 T12901334", "CXBA 091300Z AUTO 25010KT 02/M04 RMK AO1 T00161040", "CXBI 091300Z AUTO 12001KT 01/M03 RMK AO1 SLP364 T00121028 51017", "CXBK 091300Z AUTO 26009KT 01/M02 RMK AO1 SOG 27 3015 SLP147 T00061020", "CXBO 091300Z AUTO 23008KT 01/M08 RMK AO1 T00051079", "CXBR 091300Z AUTO 24024KT RMK AO1 PK WND 24030/1244", "CXBW 091300Z AUTO 23009KT 02/M02 RMK AO1 PK WND 24017/1200 T00201015", "CXCA 091300Z AUTO 16006KT M00/01 RMK AO1 SOG 43 6014 SLP254 T10030005", "CXCD 091300Z AUTO 22005KT 01/M02 RMK AO1 T00081021", "CXCK 091300Z AUTO 12009KT 03/M04 RMK AO1 SOG 59 3014 PK WND 13017/1225 SLP885 T00331039", "CXCP 091300Z AUTO 21010KT M01/M04 RMK AO1 T10051035", "CXCS 091300Z AUTO 28009KT 01/M04 RMK AO1 T00091042", "CXDB 091300Z AUTO 20004KT M01/M05 RMK AO1 T10051046", "CXDE 091300Z AUTO 10010KT M07/M08 RMK AO1 SOG 25 0001 SLP022 T10711080", "CXDI 091300Z AUTO 10002KT 04/M04 RMK AO1 SLP349 T00391044 51016", "CXDK 091300Z AUTO M08/M09 RMK AO1 SOG 25 1007 SLP996 T10781089", "CXDW 091300Z AUTO 25021G26KT 01/M03 RMK AO1 SOG 31 0002 PK WND 25026/1259 SLP138 T00061029", "CXEA 091300Z AUTO 11005KT M00/M05 RMK AO1 SOG 56 6018 SLP142 T10021050", "CXEC 091300Z AUTO 25001KT 01/M05 RMK AO1 SLP113 T00051051 53010", "CXEG 091300Z AUTO 15004KT M02/M06 RMK AO1 SLP120 T10211060 53009", "CXET 091300Z AUTO 21003KT M01/M02 RMK AO1 SLP363 T10101019 51018", "CXFM 091300Z AUTO 25013KT 04/M03 RMK AO1 PK WND 25017/1252 T00371027", "CXFR 091300Z AUTO 17006KT 01/M02 RMK AO1 T00061016", "CXGH 091300Z AUTO 22006KT M02/M04 RMK AO1 SLP130 T10151039 56003", "CXHA 091300Z AUTO 08002KT 05/01 RMK AO1 SLP343 T00530009 53013", "CXHD 091300Z AUTO 23007KT M01/M04 RMK AO1 T10131035", "CXHM 091300Z AUTO 09003KT 05/M01 RMK AO1 SLP361 T00451012 51018", "CXHP 091300Z AUTO 00000KT M03/M06 RMK AO1 T10281058", "CXHR 091300Z AUTO 26012KT 02/M04 RMK AO1 T00201038", "CXIB 091300Z AUTO 32004KT M00/M08 RMK AO1 SOG 25 2001 SLP238 T10031077", "CXKA 091300Z AUTO 20006KT M03/M10 RMK AO1 SOG 79 1003 SLP305 T10321100", "CXKE 091300Z AUTO 32001KT 02/M08 RMK AO1 SLP351 T00161077 51017", "CXKI 091300Z AUTO 14001KT M04/M09 RMK AO1 SOG 69 1010 SLP325 T10371091", "CXKM 091300Z AUTO 24007KT M00/M04 RMK AO1 T10031042", "CXKT 091300Z AUTO 30008KT 01/M07 RMK AO1 PK WND 32017/1213 SLP295 T00121071 51014", "CXLB 091300Z AUTO 30012KT 02/M07 RMK AO1 PK WND 29018/1245 SLP293 T00231067 50004", "CXLL 091300Z AUTO M06/M08 RMK AO1 SOG 51 2010 SLP007 T10641077", "CXMD 091300Z AUTO 25005KT M00/M03 RMK AO1 SOG 26 3007 SLP145 T10031030", "CXMG 091300Z AUTO 22010KT 01/M02 RMK AO1 T00131021", "CXMI 091300Z AUTO 32011G16KT 02/M08 RMK AO1 SLP286 T00171076 51005", "CXMM 091300Z AUTO 22008KT 03/M03 RMK AO1 SOG 14 1017 SLP071 T00331033", "CXMO 091300Z AUTO 18006KT M01/M01 RMK AO1 T10101012", "CXMY 091300Z AUTO 02/M11 RMK AO1 T00191108", "CXNM 091300Z AUTO 30018G26KT M05/M09 RMK AO1 SOG 136 PK WND 28029/1242 T10471087", "CXNP 091300Z AUTO 33009KT 01/M09 RMK AO1 SLP289 T00051088 51016", "CXOL 091300Z AUTO 22011KT 01/M05 RMK AO1 T00111049", "CXOX 091300Z AUTO 22002KT M01/M03 RMK AO1 SOG 32 1010 SLP076 T10121027", "CXOY 091300Z AUTO 29013KT 01/M04 RMK AO1 PK WND 28017/1202 T00071035", "CXPA 091300Z AUTO 09005KT M00/M03 RMK AO1 T10041033", "CXPC 091300Z AUTO M03/M03 RMK AO1 SLP364 T10281033 51018", "CXPL 091300Z AUTO 19004KT M04/M04 RMK AO1 T10361036", "CXRB 091300Z AUTO 00000KT M27/M30 RMK AO1 SLP090 T12671303 51004", "CXRH 091300Z AUTO 29009G16KT M07/M15 RMK AO1 SOG 12 1011 PK WND 28017/1249 SLP201 T10671146", "CXRL 091300Z AUTO 33001KT M02/M05 RMK AO1 T10161050", "CXSC 091300Z AUTO 25014KT 01/M02 RMK AO1 T00051020", "CXSE 091300Z AUTO 30002KT M33/M36 RMK AO1 SOG 24 3008 SLP107 T13251361", "CXSH 091300Z AUTO 32004KT 02/M12 RMK AO1 SLP333 T00191116 51014", "CXSL 091300Z AUTO 00000KT 01/M05 RMK AO1 T00091052", "CXSP 091300Z AUTO 19003KT M03/M05 RMK AO1 T10291048", "CXTD 091300Z AUTO 31009KT M00/M07 RMK AO1 PK WND 29017/1239 SLP283 T10041073 51008", "CXTH 091300Z AUTO 19004KT 01/M04 RMK AO1 T00081035", "CXTN 091300Z AUTO 00000KT M19/M21 RMK AO1 SOG 41 6001 SLP073 T11871212", "CXTO 091300Z AUTO 05/M02 RMK AO1 SLP358 T00461015 51019", "CXTP 091300Z AUTO 27008KT M03/M14 RMK AO1 SLP170 T10301139 50001", "CXTV 091300Z AUTO 03008KT M17/M20 RMK AO1 SOG 44 8007 SLP027 T11701199", "CXVM 091300Z AUTO 26006KT 01/M01 RMK AO1 T00101011", "CXVN 091300Z AUTO 03002KT 04/01 RMK AO1 SLP360 T00390005 51019", "CXVW 091300Z AUTO 14007KT M01/M05 RMK AO1 SLP081 T10111051 53004", "CXWB 091300Z AUTO 12014KT M10/M12 RMK AO1 SOG 16 5006 PK WND 11023/1203 SLP976 T10991120", "CXWM 091300Z AUTO 26009KT 03/M04 RMK AO1 PK WND 26017/1218 T00261037", "CXWN 091300Z AUTO 21003KT M01/M04 RMK AO1 SLP142 T10121035 52007", "CXYH 091300Z AUTO 05001KT M07/M08 RMK AO1 SLP987 T10701081 51007", "CXZC 091300Z AUTO 24006KT 02/M10 RMK AO1 SOG 51 0003 SLP267 T00221102", "CXZV 091300Z AUTO 26005KT M05/M16 RMK AO1 SOG 76 8007 SLP257 T10461156", "CYAH 091400Z AUTO 25011G19KT 9SM CLR 00/M09 A3002 RMK SLP188", "CYAM 091400Z 11008KT 1 1/2SM BR OVC003 M01/M01 A3048 RMK FG4ST4 VIS VRB 1-2 SLP335", "CYAS 091400Z 32004KT 260V320 15SM FEW055 M17/M20 A2984 RMK SC2 SLP122", "CYAT 091400Z AUTO 24012G17KT 9SM CLR 03/M07 A3013 RMK SLP207", "CYAY 091400Z AUTO 26015G21KT 9SM CLR M09/M17 A2997 RMK SLP152", "CYAZ 091400Z 13023G30KT 5SM RA BR BKN007 OVC016 09/08 A2977 RMK SF6NS2 SLP082", "CYBC 091400Z AUTO 22012KT 9SM CLR M02/M08 A3036 RMK SLP284", "CYBD 091400Z 05008KT 010V080 8SM -RA OVC060 06/04 A2947 RMK SC8 SLP983", "CYBG 091400Z 28007KT 25SM FEW190 SCT240 01/M08 A3043 RMK AC1CI4 DENSITY ALT -1676FT SLP313", "CYBK 091400Z 33010KT 1SM BR OVC005 M07/M08 A2935 RMK SC8 SLP942", "CYBL 091400Z 12015G29KT 4SM -RA BR BKN005 OVC013 08/08 A2974 RMK SF5SC3 SLP077", "CYBQ 091400Z AUTO 23005KT 9SM CLR 03/M01 A2954 RMK SLP021", "CYBR 091400Z 26009KT 12SM FEW250 M02/M04 A2991 RMK CI1 SLP154", "CYBU 091400Z AUTO 18006KT 9SM CLR M03/M04 A2979 RMK SLP110", "CYBW 091400Z AUTO 21005KT 9SM SCT190 BKN220 02/M04 A2991 RMK SLP162", "CYBX 091400Z 24013KT 15SM FEW025 M09/M16 A2999 RMK SC1 SC TR SLP160", "CYCA 091400Z AUTO 28012KT 9SM CLR M10/M18 A2993 RMK SLP137", "CYCB 091400Z 02023G28KT 1SM BLSN SCT005 BKN030 M18/M21 A2954 RMK BLSN1SF2SC2 VIS VRB 3/4 - 1 1/4 SLP008", "CYCD 091300Z 12008KT 070V160 7SM -RA SCT006 BKN020 OVC035 08/07 A2989 RMK SF3SC3SC2 SLP125", "CYCG 091400Z VRB02KT 15SM FEW062 BKN073 BKN120 04/04 A3012 RMK SC2AC4AC2 SLP213", "CYCK 091400Z AUTO 12011KT 9SM CLR 07/M03 A3053 RMK SLP346", "CYCO 091400Z 31005KT 10SM -SN OVC015 M14/M16 A2973 RMK SC8 VIS SE-SW 5 SLP073", "CYCP 091400Z 00000KT 3SM -RA BR FEW012 OVC021 01/01 A2994 RMK SF2SC6 VIS S-SW 8 SLP164", "CYCQ 091400Z 08002KT 35SM FEW040 FEW045 BKN170 OVC220 M02/M04 A2962 RMK SC1SC1AS4CI2 GND FROST SUN DIMLY VISBL SLP059", "CYCY 091400Z AUTO VRB02KT 9SM CLR M20/M26 A2984 RMK SLP112", "CYDA 091400Z 00000KT 15SM BKN050 OVC055 M03/M06 A2908 RMK SC6SC2 SLP868", "CYDB 091400Z 13018G28KT 13SM FEW150 OVC170 M01/M07 A2897 RMK AC2AS6 SLP848", "CYDC 091400Z VRB04KT 20SM FEW056 BKN078 BKN084 03/00 A2993 RMK SC2AC3AC1 SLP147", "CYDF 091400Z 26013G23KT 240V320 15SM BKN045 M05/M15 A3011 RMK SC5 SLP199", "CYDL 091400Z AUTO VRB02KT 9SM FEW190 M02/M06 A2932 RMK SLP947", "CYDN 091400Z AUTO 25013KT 9SM CLR 03/M01 A2983 RMK SLP118", "CYDP 091400Z 31013G18KT 15SM SKC M10/M17 A2987 RMK SLP116", "CYDQ 091400Z AUTO 14007KT 9SM CLR M00/M02 A2964 RMK SLP063", "CYEG 091400Z 17006KT 20SM FEW140 FEW210 BKN250 02/M03 A2984 RMK AC1CI1CI6 AC TR SLP126", "CYEK 091400Z 25008KT 15SM OVC070 M03/M04 A2942 RMK AS8 SNW CVR/MEDIUM PACK SLP964", "CYEN 091400Z AUTO 24011G16KT 9SM CLR 02/M01 A2995 RMK SLP172", "CYER 091400Z AUTO 23012G17KT 9SM SCT240 04/M06 A2986 RMK SLP115", "CYET 091400Z AUTO VRB02KT 9SM CLR M01/M04 A2977 RMK SLP109", "CYEV 091400Z 06007KT 15SM BKN061 BKN097 M13/M17 A2955 RMK SC6AC1 SLP016", "CYFB 091400Z 34011KT 30SM IC FEW005 FEW250 M23/M27 A2989 RMK ST1CI1 ST TR SEASMOKE DIST S SLP130", "CYFC 091400Z AUTO 30009G15KT 9SM CLR 03/M09 A3043 RMK SLP309", "CYFO 091400Z 25005KT 15SM FEW070 FEW220 01/M02 A2972 RMK AC1CI1 AC TR SLP082", "CYFS 091400Z 14006KT 070V160 15SM FEW210 M02/M04 A2953 RMK CI1 CI TR SLP013", "CYFT 091400Z 28016KT 15SM FEW030 M12/M19 A2990 RMK CF1 CF TR SLP133", "CYGE 091400Z 15012G17KT 20SM VCSH OVC060 05/M01 A3001 RMK ST8 VCSH ALQDS SLP182", "CYGH 091400Z 08006KT 20SM FEW016 BKN025 M05/M08 A2948 RMK SC1SC6 SLP993", "CYGK 091400Z 16005KT 15SM SCT250 04/M07 A3058 RMK CI3 SLP361", "CYGL 091400Z 23012G18KT 15SM FEW130 BKN220 00/M07 A3007 RMK AC2CI4 SLP199", "CYGP 091400Z 30010G15KT 250V350 15SM FEW045 M01/M14 A3030 RMK CU1 CU TR SLP264", "CYGR 091400Z 31016KT 20SM FEW040 M01/M10 A3030 RMK SC2 SLP263", "CYGV 091400Z AUTO 27017G25KT 9SM CLR M04/M11 A3020 RMK SLP231", "CYGW 091400Z AUTO 23010G17KT 9SM CLR 02/M06 A2997 RMK SLP152", "CYGX 091300Z 21010G16KT 15SM FEW120 BKN250 03/M06 A2971 RMK AS2CI5 SLP072", "CYHA 091400Z 36007KT 10SM -SN OVC015 M13/M16 A2986 RMK SC8 SLP117", "CYHD 091400Z AUTO 18015G21KT 9SM FEW140 SCT160 06/M02 A2994 RMK SLP156", "CYHE 091400Z AUTO 11004KT 9SM -RA OVC066 06/06 A2998 RMK PCPN 0.5MM PAST HR SLP155", "CYHK 091400Z 08019KT 1/8SM +SN BLSN VV009 M10/M11 A2931 RMK SN8 /S02/ SLP933", "CYHM 091300Z 06007KT 15SM SKC 03/M02 A3055 RMK SLP355", "CYHU 091400Z AUTO VRB02KT 9SM CLR 05/M06 A3054 RMK SLP346", "CYHY 091400Z 10003KT 5/8SM BR VV002 M03/M04 A2960 RMK FG8 SLP036", "CYHZ 091400Z 32017KT 15SM BKN046 02/M09 A3036 RMK SC5 SLP289", "CYIN 091400Z AUTO 14015G22KT 9SM BKN022 BKN047 03/M00 A2972 RMK SLP086", "CYIO 091400Z AUTO 17007KT 9SM CLR M26/M29 A2985 RMK SLP121", "CYIV 091400Z AUTO 14007KT 9SM FEW160 02/M05 A2978 RMK PRESFR SLP099", "CYJT 091400Z 29016KT 15SM FEW024 SCT031 BKN048 M03/M13 A3017 RMK SC2SC2SC2 SLP221", "CYKA 091400Z 08010KT 40SM BKN078 10/01 A2988 RMK AC7 SLP127", "CYKD 091400Z 32004KT 15SM SCT040 BKN100 M21/M24 A2958 RMK SC3AC2 SNWCVR MEDPACK SLP021", "CYKF 091400Z AUTO 16005KT 110V180 9SM CLR 05/M03 A3054 RMK SLP354", "CYKG 091303Z VRB02KT 15SM FEW015 SCT250 M15/M19 A2979 RMK SC1CS4 SC TR LST OBS/ NEXT 101200 SLP109", "CYKJ 091400Z AUTO 26007KT 9SM CLR 03/M02 A2963 RMK SLP056", "CYKL 091400Z AUTO 27009G16KT 9SM BKN041 BKN076 M08/M13 A2982 RMK SLP147", "CYKO 091400Z 13024G29KT 1SM -SN BLSN SCT008 OVC100 M11/M13 A2969 RMK SN2SF2AC4 SLP059", "CYKP 091400Z AUTO 20007KT 9SM CLR 03/M06 A3014 RMK SLP218", "CYKQ 091400Z 23015G20KT 15SM FEW200 FEW250 02/M08 A3027 RMK CC1CS1 SLP253", "CYKY 091400Z 24005KT 15SM SKC M01/M04 A2989 RMK SLP151", "CYLA 091400Z 32006KT 15SM FEW020 SCT120 M14/M18 A2987 RMK SC1AC3 SC TR SLP121", "CYLD 091400Z 18008KT 15SM SKC 03/M09 A3038 RMK SLP316", "CYLH 091400Z AUTO 20009G16KT 9SM CLR 04/M04 A3003 RMK SLP185", "CYLJ 091400Z 24009KT 6SM BR FEW090 M00/M02 A2978 RMK AC1 AC TR SLP111", "CYLK 091400Z 33006KT 25SM FEW022 BKN054 M02/M05 A2958 RMK SC2SC5 SNW CVR/MEDUIM PACK SLP033", "CYLL 091400Z 25011KT 15SM SKC 02/M03 A2982 RMK SLP127", "CYLU 091400Z 15007KT 120V200 1SM -SN BKN021 OVC054 M13/M17 A2987 RMK SN2SC3SC3 SLP124", "CYLW 091400Z AUTO 16012G19KT 140V210 9SM BKN066 OVC110 09/01 A2997 RMK SLP158", "CYMA 091400Z 10007KT 20SM BKN050 BKN075 04/M05 A2913 RMK SC6AC1 SLP885", "CYMH 091400Z AUTO 33011G17KT 9SM CLR M10/M19 A2993 RMK SLP139", "CYMM 091400Z AUTO 23010KT 9SM CLR 05/M03 A2970 RMK SLP072", "CYMO 091400Z AUTO 20011KT 9SM CLR 02/M07 A3027 RMK SLP251", "CYMT 091400Z AUTO 25013G19KT 9SM CLR 01/M11 A3032 RMK SLP292", "CYMX 091400Z 22003KT 25SM SKC 02/M07 A3054 RMK SLP349", "CYNA 091400Z AUTO 27014G21KT 9SM CLR M05/M14 A3018 RMK SLP223", "CYND 091400Z 00000KT 15SM SKC 03/M07 A3056 RMK SLP353", "CYNE 091400Z AUTO 20009KT 9SM CLR 00/M04 A2976 RMK SLP090", "CYNM 091400Z AUTO 24008G15KT 220V280 9SM CLR 04/M10 A3035 RMK SLP295", "CYOC 091400Z 02013KT 25SM FEW011 SCT037 OVC054 M13/M17 A2939 RMK ST1SC3SC4 SLP980", "CYOD 091400Z 22002KT 15SM SKC 00/M02 A2980 RMK DENSITY ALT 495FT SLP113", "CYOJ 091400Z 00000KT 15SM FEW250 M01/M02 A2960 RMK CI2 SLP040", "CYOO 091400Z AUTO VRB03KT 9SM CLR 05/M02 A3057 RMK SLP360", "CYOW 091400Z VRB02KT 15SM FEW240 04/M08 A3056 RMK CI1 CI TR SLP355", "CYPA 091400Z 23007KT 10SM FEW100 FEW200 M04/M04 A2981 RMK AC1CI1 FROIN SLP122", "CYPC 091400Z 10005KT 15SM -SN OVC014 M18/M21 A2975 RMK SC8 SLP078", "CYPD 091400Z AUTO 30010G20KT 9SM FEW021 M00/M06 A3030 RMK SLP268", "CYPE 091400Z 24005KT 15SM FEW050 BKN210 00/M03 A2971 RMK SC1CI7 SC TR SLP086", "CYPH 091400Z AUTO 20017KT 9SM BKN170 M05/M07 A2973 RMK SLP072", "CYPL 091400Z AUTO 19017G24KT 9SM CLR 04/M04 A2997 RMK SLP167", "CYPO 091400Z AUTO 23011G17KT 9SM CLR 03/M08 A2996 RMK SLP151", "CYPQ 091400Z AUTO VRB02KT 9SM CLR 04/M03 A3056 RMK SLP360", "CYPR 091400Z AUTO 14013G22KT 8SM -RA OVC035 06/04 A2923 RMK PCPN 0.5MM PAST HR SLP902", "CYPW 091400Z 11016G24KT 15SM -RA SCT014 BKN028 BKN039 OVC054 08/08 A2981 RMK SF3SC2SC2SC1 CIG RAG SLP100", "CYPX 091400Z AUTO 13013KT 9SM SCT038 BKN100 M08/M10 A2973 RMK SLP071", "CYPY 091400Z AUTO 26006KT 9SM CLR 01/M04 A2959 RMK SLP034", "CYQA 091400Z AUTO VRB03KT 9SM CLR 03/M04 A3053 RMK SLP356", "CYQB 091400Z 22009KT 30SM FEW240 00/M07 A3049 RMK CI1 CI TR SLP331", "CYQD 091400Z AUTO 25010KT 9SM CLR 01/M01 A2974 RMK SLP087", "CYQF 091400Z AUTO 19010KT 9SM FEW230 M00/M05 A2988 RMK SLP149", "CYQG 091400Z AUTO 13005KT 9SM CLR 07/M04 A3054 RMK SLP348", "CYQH 091400Z 12006KT 20SM BKN120 OVC190 03/M06 A2937 RMK AC5AC3 SLP969", "CYQI 091400Z 35016KT 15SM FEW030 05/M06 A3045 RMK CU1 CU TR SLP316", "CYQK 091400Z 20013G20KT 20SM BKN240 04/M02 A2991 RMK CI5 SLP146", "CYQL 091400Z 22006KT 60SM SCT120 05/M03 A3000 RMK AC3 SLP182", "CYQM 091400Z 31014G20KT 15SM FEW054 01/M12 A3038 RMK CU1 CU TR SLP295", "CYQQ 091400Z 14026G35KT 12SM -RA FEW009 OVC047 08/07 A2977 RMK SF1SC8 PCPN VRY LGT SLP083", "CYQR 091400Z 24008KT 15SM FEW180 SCT240 M01/M03 A2991 RMK AC1CI3 SLP158", "CYQT 091400Z 09008KT 20SM BKN250 02/M01 A3021 RMK CI6 SLP244", "CYQU 091400Z VRB02KT 25SM BKN150 BKN240 M01/M03 A2969 RMK AC6CI1 SLP080", "CYQV 091400Z AUTO 23008KT 9SM CLR 02/M01 A2983 RMK SLP128", "CYQW 091400Z AUTO 26002KT 9SM CLR M01/M04 A2985 RMK SLP135", "CYQX 091400Z 28014G26KT 20SM BKN046 M04/M14 A3001 RMK CU5 SLP173", "CYQY 091400Z 27014G21KT 10SM -SN SCT018 BKN032 BKN056 M01/M06 A3027 RMK SC3SC2SC1 SLP254", "CYQZ 091400Z AUTO 18013KT 9SM FEW071 SCT100 BKN160 07/M01 A2964 RMK SLP050", "CYRB 091400Z 00000KT 25SM SKC M24/M29 A2977 RMK SLP096", "CYRJ 091400Z 31008KT 210V320 40SM FEW130 FEW220 04/M10 A3041 RMK AS1CS1 HALO SLP310", "CYRL 091400Z 19008KT 15SM FEW240 FEW260 03/M04 A2987 RMK CI1CC1 CC TR SLP134", "CYRQ 091400Z AUTO 29005KT 250V310 9SM CLR 05/M10 A3051 RMK SLP337", "CYRT 091400Z 18004KT 12SM BKN080 OVC160 M08/M09 A2936 RMK AC7AC1 SLP947", "CYRV 091400Z AUTO 34003KT 240V010 9SM -RA BKN014 OVC046 03/02 A3005 RMK PCPN 1.0MM PAST HR SLP192", "CYSB 091400Z 23007KT 1/2SM R22/1800V2200FT/N FZFG VV003 M04/M05 A3050 RMK FG8 SLP353", "CYSC 091400Z AUTO 28006KT 9SM FEW240 03/M08 A3050 RMK SLP341", "CYSF 091400Z AUTO 00000KT 9SM CLR M02/M03 A2957 RMK SLP029", "CYSJ 091400Z 31010G17KT 250V010 15SM FEW040 03/M09 A3041 RMK CU2 SLP307", "CYSK 091400Z 22020KT 15SM SCT120 M03/M07 A2985 RMK AS3 CALL OUT SLP112", "CYSM 091400Z 00000KT 15SM FEW160 FEW250 M02/M03 A2959 RMK AC1CI2 AC TR SLP034", "CYSN 091400Z 06006KT 010V100 15SM SKC 06/M02 A3057 RMK SLP359", "CYSY 091400Z 07010KT 1SM -SN BR BKN003 M16/M18 A2975 RMK FG4ST4 SNW CVR MUCH LOOSE SLP087", "CYTE 091400Z AUTO 11004KT 060V140 4SM -SN OVC009 M16/M17 A2978 RMK SLP092", "CYTH 091400Z 23012KT 15SM FEW140 02/M04 A2969 RMK AC2 SLP067", "CYTL 091400Z AUTO 18007KT 9SM CLR 00/M07 A2992 RMK PRESFR SLP147", "CYTQ 091400Z 29009KT 15SM FEW050 BKN240 M13/M17 A2988 RMK SC2CI3 SLP123", "CYTR 091400Z 12003KT 15SM FEW250 05/M05 A3058 RMK CI1 DENSITY ALT -1602FT SLP359", "CYTS 091400Z 17005KT 15SM FEW150 01/M09 A3041 RMK AC1 AC TR SLP317", "CYTZ 091400Z AUTO 08007KT 060V140 9SM CLR 05/M02 A3058 RMK SLP361", "CYUA 091400Z AUTO 31005KT ////SM SCT070 OVC085 M19/M22 A2955", "CYUB 091400Z 10017KT 15SM DRSN BKN066 M17/M20 A2963 RMK AS7 SLP035", "CYUL 091400Z 18004KT 140V280 30SM SKC 05/M05 A3055 RMK SLP347", "CYUT 091400Z 12026G31KT 0SM -SN BLSN VV015 M12/M14 A2953 RMK BLSN8 VIS 100 FT SNW CVR/TRACE LOOSE SLP005", "CYUX 091400Z 13011KT 10SM DRSN FEW005 BKN110 M18/M20 A2980 RMK SF1AS6 SLP095", "CYUY 091400Z 24006KT 15SM FEW150 FEW220 00/M07 A3044 RMK AC2CI1 CI TR SLP328", "CYVC 091400Z 23007KT 15SM FEW200 01/M01 A2975 RMK CI1 SLP094", "CYVL 091406Z AUTO 11011G16KT 9SM OVC010 M09/M11 A2953 RMK SLP028", "CYVM 091400Z 19007KT 15SM SKC M18/M24 A2986 RMK SLP115", "CYVO 091400Z 22006KT 170V260 15SM FEW140 FEW250 03/M09 A3044 RMK AC1CI1 SLP331", "CYVP 091400Z 17004KT 030V180 15SM FEW045 FEW075 FEW260 SCT340 M10/M16 A2986 RMK SC1AC1CI1CC1 SC TR CONTRAILS SLP119", "CYVQ 091400Z 08004KT 30SM FEW025 FEW110 M08/M09 A2948 RMK SC1AC1 SLP991", "CYVR 091400Z 09012KT 12SM -RA OVC024 09/09 A2993 RMK SC8 SLP136", "CYVT 091400Z AUTO 25006KT 9SM CLR 06/M02 A2972 RMK SLP083", "CYVV 091400Z 15004KT 15SM FEW015 FEW220 FEW250 03/01 A3053 RMK ST1CC1CI1 ST TR CC TR CI TR SLP352", "CYWE 091400Z AUTO 06007KT 9SM OVC005 M07/M08 A2959 RMK ICE MISG SLP052", "CYWG 091400Z 19010KT 15SM FEW240 M01/M03 A2992 RMK CI1 CI TR SLP146", "CYWH 091400Z 36003KT 300V010 15SM FEW012 SCT030 BKN065 OVC120 08/07 A2989 RMK CF1SC2SC3AC2 SLP125", "CYWK 091400Z 24014KT 15SM BKN046 OVC090 M08/M14 A2993 RMK SC5AC3 SLP183", "CYWL 091400Z 12020G28KT 15SM BKN070 04/M01 A2968 RMK AC6 SLP072", "CYXC 091400Z 24003KT 45SM BKN048 BKN080 03/M02 A3010 RMK SC6AC1 SLP216", "CYXE 091400Z 22009KT 15SM SKC 00/M02 A2982 RMK SLP124", "CYXH 091400Z 23009KT 30SM FEW270 05/M01 A2998 RMK CI1 SLP169", "CYXJ 091400Z 14007KT 60SM FEW045 BKN180 02/M02 A2963 RMK SC1AC7 SC TR SLP061", "CYXL 091400Z 18009KT 15SM BKN220 05/M03 A2996 RMK CI7 SLP165", "CYXN 091400Z 24008KT 15SM SCT064 BKN088 M06/M08 A2938 RMK SC3AC4 SN CVR/ HARD PACK SLP951", "CYXR 091400Z AUTO 15005KT 9SM FEW150 M05/M08 A3047 RMK SLP336", "CYXS 091400Z AUTO 16011KT 9SM OVC096 05/M00 A2959 RMK SLP041", "CYXT 091400Z 21002KT 10SM -RA FEW005 OVC028 03/02 A2938 RMK SF1SC7 PRESFR SLP960", "CYXU 091400Z 09006KT 15SM SKC 06/M04 A3054 RMK SLP351", "CYXX 091400Z 09007KT 040V110 20SM -RA FEW003 BKN039 OVC065 08/07 A2995 RMK CF1CU6NS2 CF TR SLP145", "CYXY 091400Z 16016KT 40SM FEW020 SCT060 BKN160 M00/M03 A2916 RMK SC1SC3AC2 SLP904", "CYXZ 091400Z 27003KT 210V300 15SM SKC 02/M04 A3039 RMK SLP309", "CYYB 091400Z 22004KT 190V250 1/8SM R08/0800V1200FT/N FZFG VV001 M03/M04 A3051 RMK FG8 SLP355", "CYYC 091400Z VRB05KT 40SM BKN220 BKN300 06/M07 A2990 RMK CC6CC1 SLP149", "CYYD 091400Z 15007KT 15SM -RA SCT033 OVC046 05/M01 A2946 RMK SC4SC4 SLP989", "CYYE 091400Z 18005KT 15SM SCT250 02/M05 A2952 RMK CI3 SLP011", "CYYF 091400Z 16009KT 15SM FEW060 BKN120 BKN170 09/01 A2999 RMK SC1AC4AC2 SLP162", "CYYG 091400Z 32014G20KT 15SM SCT045 M00/M10 A3035 RMK SC8 SLP283", "CYYJ 091400Z 11004KT 15SM -RA FEW010 FEW019 BKN058 OVC075 08/08 A2989 RMK SF1SC1SC5AC3 SF TR SC TR SLP125", "CYYL 091400Z AUTO 26005KT 9SM CLR 04/M01 A2963 RMK SLP051", "CYYN 091400Z AUTO 26017G22KT 9SM CLR 04/M01 A2992 RMK ICE MISG SLP156", "CYYQ 091400Z 24015G21KT 15SM FEW130 BKN250 04/M04 A2955 RMK AC2CI4 SLP010", "CYYR 091400Z 29011G17KT 15SM FEW038 M08/M17 A2999 RMK SC2 SLP159", "CYYT 091400Z 27016G23KT 15SM SCT040 M02/M11 A3003 RMK SC4 SLP181", "CYYU 091400Z 22007KT 15SM FEW260 03/M08 A3035 RMK CI2 SLP293", "CYYW 091400Z AUTO 14010KT 9SM CLR 01/M03 A3009 RMK SLP211", "CYYY 091400Z 26009KT 30SM FEW240 M00/M09 A3039 RMK CI2 SLP296", "CYYZ 091400Z VRB02KT 15SM FEW240 04/M01 A3057 RMK CI1 SLP360", "CYZE 091400Z AUTO 18008KT 9SM OVC006 M01/M03 A3054 RMK SLP353", "CYZF 091400Z 02005KT 15SM FEW014 BKN180 BKN240 M03/M04 A2960 RMK SC1AC5CI1 SLP041", "CYZG 091400Z 16020KT 13SM DRSN FEW060 BKN110 M13/M18 A2970 RMK SC2AS4 SUN DIMLY VSBL SLP087", "CYZH 091400Z AUTO 09004KT 9SM FEW220 M01/M04 A2976 RMK SLP100", "CYZP 091400Z AUTO 13032G43KT 2 1/4SM -RA BR BKN015 BKN021 OVC028 06/05 A2905 RMK PRESFR PCPN 2.5MM PAST HR SLP840", "CYZR 091400Z AUTO 15007KT 9SM CLR 07/M02 A3053 RMK SLP346", "CYZS 091400Z 09020KT 1 1/2SM -SN BLSN OVC018 M11/M12 A2957 RMK SC8 SLP022", "CYZT 091300Z 12015G24KT 10SM -SHRA SCT033 BKN044 BKN090 07/05 A2954 RMK SC3SC3AC1 CVCTV CLD EMBD SLP007", "CYZU 091400Z 21002KT 15SM BKN200 01/M06 A2978 RMK CI7 SLP108", "CYZV 091400Z 25011G17KT 30SM SCT100 BKN200 M03/M14 A3026 RMK AC3CI4 SLP252", "CYZX 091400Z 32009KT 15SM FEW040 03/M07 A3043 RMK CU1 DENSITY ALT -1880FT SLP305", "CYZY 091400Z AUTO 17003KT 9SM OVC071 01/M01 A2960 RMK SLP052", "CZBF 091400Z AUTO 32006G16KT 250V360 9SM CLR M00/M14 A3038 RMK SLP294", "CZCR 091300Z AUTO 29009KT M03/M12 RMK AO1 SOG 50 0010 SLP292 T10311115", "CZDB 091300Z AUTO 02/M12 RMK AO1 SLP288 T00151117 51012", "CZEL 091300Z AUTO 11004KT 02/M02 RMK AO1 SLP357 T00191019 51017", "CZEM 091400Z 21012KT 15SM BKN180 M03/M06 A3022 RMK AC5 SLP235", "CZEV 091300Z AUTO 07007KT M14/M18 RMK AO1 SOG 48 8008 SLP021 T11391175", "CZFA 091400Z 15010G18KT 30SM FEW075 BKN130 BKN180 BKN210 01/M04 A2920 RMK AC2AC3AC2CI1 SLP919", "CZFM 091400Z 32005KT 15SM BKN036 M15/M19 A2956 RMK SC7 SNW CVR/MUCH LOOSE SLP017", "CZFS 091300Z AUTO 11005KT M02/M04 RMK AO1 SOG 29 1007 SLP011 T10191039", "CZHY 091300Z AUTO 09002KT M04/M04 RMK AO1 SLP027 T10361041 51011", "CZKD 091300Z AUTO 21005KT 02/M05 RMK AO1 SOG 58 6013 SLP073 T00181049", "CZMD 091400Z AUTO 21007KT 9SM SCT230 02/M05 A2987 RMK SLP133", "CZMJ 091300Z AUTO 25014KT 03/M01 RMK AO1 PK WND 24020/1244 SLP145 T00281014 51015", "CZMT 091400Z 15021G38KT 6SM -RA OVC015TCU 05/04 A2910 RMK TCU8 /R10AFT 00UTC/ PRESFR SLP856", "CZOL 091300Z AUTO 22002KT 02/M06 RMK AO1 T00181064", "CZPC 091400Z AUTO 26017G22KT 9SM BKN180 06/M03 A3000 RMK SLP181", "CZPS 091300Z AUTO 22011KT 03/M06 RMK AO1 T00271056", "CZSM 091300Z AUTO 27001KT M03/M04 RMK AO1 SOG 15 3014 SLP030 T10331039", "CZSP 091300Z AUTO 32011G18KT M00/M09 RMK AO1 PK WND 30018/1259 SLP274 T10011093 53015", "CZST 091400Z VRB02KT 6SM BR SCT004 OVC060 02/02 A2938 RMK SC3SC5 PRESFR SLP950", "CZTB 091300Z AUTO 07007KT M00/M02 RMK AO1 SOG 38 6012 SLP253 T10031017", "CZUM 091400Z AUTO 26006KT 230V310 9SM FEW028 OVC045 M07/M14 A2991 RMK SLP168", "CZVL 091400Z AUTO 00000KT 9SM CLR 02/M04 A2982 RMK SLP114", "CZZJ 091300Z AUTO 34001KT M03/M06 RMK AO1 SOG 01 0004 SLP112 T10301061", "DAAG 091400Z 03009KT CAVOK 21/07 Q1021", "DAAS 091400Z 36008KT 9999 FEW026 20/M08 Q1021", "DAAT 091400Z 16003KT 9000 NSC 28/// Q1017", "DABB 091300Z 02013KT 9999 FEW023 18/12 Q1021", "DABC 091400Z 36010KT CAVOK 19/M04 Q1021", "DABS 091400Z 34012KT CAVOK 20/// Q1020", "DAOB 091400Z 32006KT CAVOK 23/// Q1022", "DAOI 091400Z 24006KT 180V340 CAVOK 28/M00 Q1020", "DAON 091400Z 30004KT CAVOK 27/M04 Q1020", "DAOO 091400Z 35007KT 320V020 CAVOK 24/05 Q1020", "DAUA 091400Z 04014KT CAVOK 29/// Q1017", "DAUB 091400Z 15004KT CAVOK 29/M04 Q1017", "DAUG 091400Z 04005KT CAVOK 28/// Q1019", "DAUH 091400Z 27004KT CAVOK 27/M01 Q1018", "DBBB 091300Z 23012KT 9999 FEW013 31/24 Q1010 NOSIG", "DGAA 091300Z 25009KT 220V290 9999 FEW041 30/24 Q1010 NOSIG", "DIAP 091400Z 16006KT 130V210 9999 FEW013 32/23 Q1010 NOSIG", "DIBK 091300Z 20006KT 9999 SCT013 30/24 Q1012 NOSIG", "DIYO 091300Z 22008KT 9999 SCT013 30/25 Q1011 NOSIG", "DNAA 091300Z 18003KT 9999 SCT012 33/21 Q1011 NOSIG", "DNIB 091300Z 17005KT 9999 BKN012 32/23 Q1011", "DNIL 091300Z 19006KT CAVOK 30/22 Q1011", "DNKN 091300Z 35009KT CAVOK 42/05 Q1010 NOSIG", "DNKT 091300Z 33014KT CAVOK 40/09 Q1009", "DNMM 091300Z 21005KT 9999 SCT014 32/23 Q1011 NOSIG", "DNMN 091300Z 22006KT CAVOK 34/19 Q1010", "DNPO 091300Z 26005KT 9999 BKN270M FEWCB600M 30/25 Q1010 NOSIG CB(W-E)", "DNYO 091300Z 33010KT CAVOK 40/22 Q1007", "DNZA 091300Z 25006KT 9999 38/17 Q1011", "DRRM 091300Z 06012KT 340V090 CAVOK 42/02 Q1008", "DRRN 091300Z 36014KT 9000 NSC 40/M07 Q1009 NOSIG", "DRRT 091300Z 02008KT CAVOK 39/M00 Q1009", "DRZA 091300Z 34010KT CAVOK 40/04 Q1009", "DRZR 091300Z 34012KT 280V010 8000 NSC 42/M01 Q1008", "DTKA 091400Z 32010KT 9999 SCT020 17/10 Q1022 NOSIG", "DTMB 091330Z 04011KT 9999 FEW023 19/10 Q1019", "DTNH 091330Z 33018KT 300V360 9999 SCT026 23/03 Q1019 NOSIG", "DTTA 091330Z 36013KT 9999 BKN026 18/09 Q1020", "DTTB 091400Z 33010KT 300V360 9999 SCT020 19/09 Q1021", "DTTD 091300Z 30006KT 250V020 9999 FEW026 22/06 Q1020", "DTTF 091400Z 24008KT 190V290 9999 FEW023 25/03 Q1018 TEMPO SCT023", "DTTG 091400Z 21005KT 150V260 8000 FEW020 24/05 Q1018 NOSIG", "DTTJ 091330Z 01010KT 340V050 CAVOK 20/11 Q1019 NOSIG", "DTTK 091400Z 33006KT 9999 SCT023 24/02 Q1019", "DTTL 091400Z 29007KT 220V360 9999 SCT020 19/09 Q1020", "DTTN 091400Z /////KT 9999 SCT020 21/04 Q1020", "DTTR 091400Z 00000KT CAVOK 23/04 Q1020", "DTTX 091400Z 08012KT 9999 FEW020 20/10 Q1019 NOSIG", "DTTZ 091400Z 24011KT CAVOK 26/00 Q1017", "DXNG 091300Z 25005KT 190V310 9999 FEW008 33/19 Q1013", "DXXX 091300Z 27008KT 240V300 9999 FEW012 30/24 Q1010 NOSIG", "EBAW 091350Z VRB01KT 9999 FEW031 14/05 Q1023 NOSIG", "EBBE 091355Z AUTO 14003KT 9999 SCT045/// 15/05 Q1022 BLU", "EBBL 091355Z AUTO 11004KT 9999 BKN047/// 14/04 Q1023 BLU", "EBBR 091350Z VRB01KT 9999 SCT048 15/05 Q1023 NOSIG", "EBCI 091350Z 13005KT 9999 SCT049 15/04 Q1022 NOSIG", "EBCV 091355Z AUTO VRB01KT 9999 FEW050/// 16/06 Q1022 BLU", "EBDT 091355Z AUTO 15004KT 9999 SCT047/// BKN052/// 16/05 Q1023 BLU", "EBFN 091355Z AUTO 13007KT 9999 FEW039/// 15/06 Q1021 BLU", "EBFS 091355Z AUTO 04003KT 9999 SCT050/// BKN160/// 14/03 Q1022 BLU", "EBLB 091355Z AUTO 19004KT 9999 FEW043/// 12/01 Q1022 BLU", "EBLG 091350Z VRB05KT 9999 FEW049 14/04 Q1023 NOSIG", "EBOS 091350Z 15005KT 120V190 9999 FEW040 15/04 Q1022 NOSIG", "EDAC 091350Z 03009KT 9999 FEW042 13/04 Q1025", "EDAH 091350Z 04008KT 010V070 CAVOK 07/04 Q1027", "EDBC 091350Z AUTO 11008KT 070V150 9999 // NCD 13/04 Q1025", "EDDB 091350Z AUTO 31003KT 240V020 CAVOK 13/05 Q1026 NOSIG", "EDDC 091350Z AUTO 35006KT 310V040 CAVOK 12/04 Q1025 NOSIG", "EDDE 091350Z AUTO 04006KT 010V080 CAVOK 12/03 Q1025 NOSIG", "EDDF 091350Z AUTO 16007KT 090V210 CAVOK 14/01 Q1024 NOSIG", "EDDG 091350Z AUTO 13005KT 050V190 CAVOK 14/04 Q1024 NOSIG", "EDDH 091350Z AUTO VRB05KT 9999 SCT026 12/06 Q1026 NOSIG", "EDDK 091350Z AUTO 14008KT 090V180 CAVOK 14/03 Q1024 NOSIG", "EDDL 091350Z AUTO 18008KT 100V210 CAVOK 15/03 Q1023 NOSIG", "EDDM 091350Z AUTO 07006KT 020V120 9999 FEW028 BKN044 09/02 Q1024 NOSIG", "EDDN 091350Z AUTO 14006KT 100V180 CAVOK 13/01 Q1024 NOSIG", "EDDP 091350Z AUTO 31003KT 250V360 CAVOK 13/02 Q1026 NOSIG", "EDDR 091350Z AUTO 09010KT CAVOK 14/02 Q1022 NOSIG", "EDDS 091350Z AUTO 07011KT 040V100 CAVOK 12/01 Q1022 NOSIG", "EDDV 091350Z AUTO 15004KT 100V200 9999 SCT027 BKN034 BKN041 10/04 Q1026 NOSIG", "EDDW 091350Z AUTO 18006KT 120V230 9999 FEW044 14/04 Q1025 NOSIG", "EDFH 091350Z 14007KT 9999 SCT043 10/02 Q1023", "EDFM 091350Z 07004KT 020V120 CAVOK 15/01 Q1024", "EDGS 091350Z 13009KT 100V160 9999 OVC036 08/01 Q1024", "EDHI 091350Z AUTO 07008KT 010V140 9999 // NCD 13/05 Q1026", "EDHK 091350Z 08009KT CAVOK 11/05 Q1027", "EDHL 091350Z 14004KT 080V220 9999 OVC016 09/06 Q1027", "EDJA 091350Z 09011KT 9999 SCT048 BKN061 10/02 Q1023", "EDLN 091350Z 14006KT 100V180 CAVOK 14/03 Q1023", "EDLP 091350Z 14007KT 110V180 9999 OVC041 11/02 Q1025", "EDLV 091350Z 13008KT 9999 SCT049 15/04 Q1023", "EDLW 091350Z 11007KT 050V160 CAVOK 13/02 Q1024", "EDMA 091350Z 05009KT 020V090 9999 SCT045 10/01 Q1024", "EDMO 091350Z AUTO 07008KT 040V120 9999 // BKN040/// 09/M00 Q1024", "EDNY 091350Z VRB04KT 9999 FEW056 13/01 Q1022", "EDQM 091350Z 08005KT 9999 FEW040 BKN065 09/02 Q1025", "EDSB 091350Z 13008KT 070V160 CAVOK 14/01 Q1022", "EDTL 091350Z 06006KT 340V120 CAVOK 15/01 Q1022", "EDTY 091350Z 10010KT CAVOK 12/02 Q1023", "EDVE 091350Z VRB03KT 9999 FEW038 13/03 Q1026", "EDVK 091350Z 15005KT 120V180 9999 FEW036 BKN049 12/01 Q1025", "EDXW 091350Z 18008KT 9999 FEW012 09/06 Q1026", "EEEI 091350Z 04011KT CAVOK 10/M04 Q1028 NOSIG", "EEKA 091350Z 33006KT CAVOK 05/01 Q1028", "EEKE 091350Z 18006KT 150V210 CAVOK 11/M03 Q1027", "EEPU 091350Z AUTO 04005KT 350V110 9999 FEW190/// 13/M02 Q1026", "EETN 091350Z 05012KT CAVOK 10/M04 Q1028 NOSIG", "EETU 091350Z AUTO 01003KT 300V100 9999 NCD 13/M02 Q1026", "EFET 091350Z AUTO VRB01KT CAVOK 06/M02 Q1032", "EFHA 091350Z AUTO 08004KT 020V180 CAVOK 09/M04 Q1029", "EFHK 091350Z 18007KT 130V230 CAVOK 11/M03 Q1028 NOSIG", "EFIV 091350Z AUTO 05004KT 010V090 9999 BKN031 05/M00 Q1033", "EFJO 091350Z AUTO 06006KT 020V110 CAVOK 09/M05 Q1030", "EFJY 091350Z AUTO 07008KT CAVOK 09/M05 Q1029", "EFKE 091350Z AUTO 10008KT CAVOK 10/M03 Q1033", "EFKI 091350Z AUTO 06006KT CAVOK 08/M03 Q1031", "EFKK 091350Z AUTO 35007KT CAVOK 06/M01 Q1031", "EFKS 091350Z AUTO VRB04KT 9999 FEW048 07/M05 Q1032", "EFKT 091350Z AUTO VRB01KT 9999 BKN047 08/M02 Q1033", "EFKU 091350Z AUTO 09005KT 030V130 CAVOK 09/M05 Q1030", "EFLP 091350Z AUTO 08008KT CAVOK 10/M06 Q1028", "EFMA 091350Z AUTO 35006KT 320V040 CAVOK 09/00 Q1029", "EFMI 091350Z AUTO 10008KT CAVOK 10/M05 Q1029", "EFOU 091350Z AUTO 09008KT CAVOK 10/M03 Q1032", "EFPO 091350Z AUTO 07005KT 040V110 CAVOK 11/M05 Q1029", "EFRO 091350Z AUTO VRB01KT CAVOK 09/M03 Q1033", "EFSA 091350Z AUTO 07006KT 040V100 CAVOK 10/M09 Q1029", "EFSI 091350Z AUTO VRB05KT CAVOK 10/M06 Q1029", "EFTP 091350Z AUTO 10008KT 050V120 CAVOK 10/M05 Q1029", "EFTU 091350Z AUTO VRB02KT CAVOK 12/M05 Q1028", "EFUT 091350Z AUTO 09006KT 050V110 CAVOK 09/M09 Q1028", "EFVA 091350Z AUTO 34009KT CAVOK 06/M01 Q1030", "EGAA 091350Z AUTO 17016KT 140V200 9999 FEW020/// BKN037/// //////TCU 11/07 Q1011", "EGAC 091350Z AUTO 18021KT 9999 SCT019 12/07 Q1012", "EGAE 091350Z 14014KT 9999 FEW015 BKN040 12/09 Q1008", "EGBB 091350Z 16010KT 9999 BKN030 13/07 Q1019", "EGBJ 091350Z 17010KT 130V200 9999 FEW020 SCT025 15/07 Q1018", "EGCC 091350Z AUTO 16006KT 100V210 9999 NCD 13/06 Q1018 NOSIG", "EGCK 091350Z 17016KT 130V190 CAVOK 15/07 Q1015", "EGDM 091350Z AUTO 19011KT 9999 SCT032/// 14/06 Q1019", "EGDR 091350Z AUTO 19011KT //// // VV/// ///// Q////", "EGDY 091350Z AUTO 16011KT 9999 FEW034/// BKN120/// 14/07 Q1018", "EGEO 091350Z 14016KT 9999 FEW049 13/03 Q1012", "EGFF 091350Z AUTO 15008KT 9999 NCD 14/07 Q1018", "EGGD 091350Z AUTO 16014KT 9999 NCD 14/05 Q1018", "EGGP 091350Z 15010KT 110V180 9999 FEW025 SCT032 13/07 Q1017", "EGGW 091350Z AUTO 18008KT 140V230 9999 NCD 15/03 Q1020", "EGHH 091350Z 16008KT 120V220 9999 FEW030 12/07 Q1019", "EGHI 091350Z 15006KT 120V200 9999 FEW030 14/07 Q1020", "EGHQ 091350Z 17015KT 9999 FEW012 12/09 Q1017", "EGJA 091350Z 17012KT CAVOK 13/06 Q1019", "EGJB 091350Z 14011KT CAVOK 13/07 Q1019", "EGJJ 091350Z 14013KT CAVOK 15/08 Q1019", "EGKA 091350Z 13007KT 100V160 3200 BR FEW002 SCT004 09/08 Q1021", "EGKB 091350Z 18008KT 080V250 CAVOK 14/04 Q1020", "EGKK 091350Z 18007KT 120V240 CAVOK 15/03 Q1020", "EGLC 091350Z AUTO 15008KT 120V190 9999 NCD 16/04 Q1020", "EGLF 091350Z AUTO 16010KT 100V220 9999 FEW040/// 15/06 Q1020", "EGLL 091350Z AUTO 17006KT 130V210 9999 SCT038 15/06 Q1020 NOSIG", "EGMC 091350Z 10010KT 060V120 9999 FEW020 14/08 Q1021", "EGMD 091350Z 12007KT 4500 2000NE VCFG NSC 11/09 Q1022", "EGNH 091350Z 17014KT CAVOK 13/07 Q1017", "EGNJ 091350Z 17010KT 150V220 7000 FEW010 BKN017 13/08 Q1020", "EGNM 091350Z 12009KT 080V170 9999 SCT012 SCT024 12/05 Q1018", "EGNR 091350Z 16013KT 9999 SCT027 13/07 Q1017", "EGNS 091350Z 13014KT CAVOK 12/07 Q1014 NOSIG", "EGNT 091350Z 18009KT 140V210 8000 BKN020 09/04 Q1018", "EGNV 091350Z 17010KT 140V200 6000 SCT014 BKN022 08/05 Q1019", "EGNX 091350Z 16011KT 9999 BKN038 14/06 Q1019", "EGOM 091350Z AUTO 17011KT 9999 FEW140/// 11/04 Q1016", "EGOP 091350Z AUTO 15016KT 9999 NCD 15/08 Q1016", "EGOS 091350Z AUTO 16015KT 9999 BKN025/// 13/06 Q1018", "EGOV 091350Z AUTO 16018KT 9999 OVC110/// 14/07 Q1014", "EGPA 091350Z 15026KT 9999 BKN007 BKN009 08/05 Q1016", "EGPB 091350Z 16013KT 9999 BKN015 08/04 Q1019 BECMG BKN012", "EGPC 091350Z 13024KT 9999 FEW004 08/06 Q1015", "EGPD 091350Z 16016KT 5000 BR OVC008 07/05 Q1018 TEMPO 8000 NSW", "EGPE 091350Z 17011KT 9999 FEW010 SCT035 14/02 Q1013", "EGPF 091350Z AUTO 14009KT 110V180 9999 //////TCU 13/04 Q1014", "EGPH 091350Z 15010KT 9999 FEW046 14/04 Q1015", "EGPI 091350Z 17024KT 9999 FEW023 10/06 Q1010", "EGPK 091350Z 14015KT 9999 FEW035 12/04 Q1014", "EGPL 091350Z AUTO 17030KT 9999 BKN009/// OVC014/// 10/06 Q1007", "EGPN 091350Z 10013KT 9999 FEW030 10/07 Q1016", "EGPO 091350Z 15004KT 120V180 CAVOK 11/06 Q1009", "EGQA 091350Z AUTO 12014KT 9999 SCT110/// 13/05 Q1013", "EGQK 091350Z AUTO 14012KT 9999 BKN110/// 12/03 Q1013", "EGQL 091350Z AUTO 15016KT 9999 FEW170/// OVC220/// 10/06 Q1016", "EGQM 091350Z AUTO 14014KT 8000 BR OVC028/// 09/07 Q1018", "EGQS 091350Z 14020KT 9999 FEW040 BKN120 11/03 Q1014 NOSIG RMK BLU BLU", "EGSH 091350Z 18010KT 130V220 7000 SCT030 15/07 Q1021 NOSIG", "EGSS 091350Z AUTO 18011KT 9999 FEW037 15/06 Q1020", "EGSY 091350Z AUTO 14007KT 090V170 9999 NCD 14/07 Q1018", "EGTC 091350Z 17008KT 110V210 9999 FEW041 14/05 Q1019", "EGTE 091350Z 17013KT CAVOK 13/08 Q1018", "EGTK 091350Z 17012KT 9999 FEW038 SCT041 15/06 Q1019", "EGUB 091350Z AUTO 16012KT 9999 BKN041/// 15/07 Q1019", "EGUL 091355Z AUTO 18010KT 9999 FEW039 16/07 A3011 RMK AO2 SLP200 T01580073 $", "EGUN 091355Z 18007KT 9999 SCT037 BKN140 15/09 A3012 RMK AO2A SLP203 T01510090 $", "EGUW 091350Z AUTO 14010KT 9999 OVC024/// 13/07 Q1020", "EGVA 091355Z AUTO 18011KT 9999 BKN040 15/07 A3007 RMK AO2 SLP187 T01480069 FZRANO $", "EGVN 091350Z 18009KT 9999 SCT038 BKN300 15/05 Q1019 NOSIG RMK BLU BLU", "EGVO 091350Z AUTO 15010KT 9999 NCD 15/05 Q1019", "EGVP 091350Z AUTO 16013KT 9999 FEW032/// 14/06 Q1019", "EGWU 091350Z 16007KT 9999 FEW042 SCT300 17/06 Q1020 NOSIG RMK BLU BLU", "EGXC 091350Z 17012KT 9999 SCT030 14/07 Q1020 RMK BLU", "EGXE 091350Z AUTO 15012KT 9999 OVC018/// 10/05 Q1019", "EGXS 091350Z AUTO 11016KT 8000 BR NCD 11/07 Q1020", "EGXT 091350Z AUTO 17010KT 9999 FEW036/// 14/05 Q1019", "EGXV 091350Z AUTO 18008KT 9999 BKN025/// 12/05 Q1019", "EGXW 091350Z AUTO 18013KT 9999 BKN031/// 13/05 Q1019", "EGXZ 091350Z AUTO 16014KT 9999 FEW020/// 11/06 Q1019", "EGYD 091350Z AUTO 17012KT 9999 FEW034/// 14/05 Q1019", "EGYE 091350Z AUTO 16011KT //// VV/// ///// Q////", "EGYH 091350Z AUTO 19010KT 9999 FEW033/// 14/07 Q1020", "EGYM 091350Z AUTO 16010KT 9999 SCT037/// 15/06 Q1020", "EGYP 091350Z 25014KT 9999 FEW028 SCT050 BKN120 07/M01 Q0998 NOSIG", "EHAK 091355Z AUTO 16020KT 7000 FEW001/// SCT004/// BKN005/// 07/06 Q1023", "EHAM 091355Z 15007KT 110V190 9999 FEW032 BKN037 14/07 Q1023 NOSIG", "EHBK 091355Z AUTO VRB02KT 9999 SCT046 14/04 Q1023 NOSIG", "EHDL 091355Z AUTO VRB08KT 9999 FEW044 14/04 Q1023 BLU", "EHDV 091355Z AUTO 16019KT 5000 HZ FEW010/// SCT017/// 08/// Q1022", "EHEH 091355Z AUTO 09005KT 050V220 9999 BKN045 OVC049 15/04 Q1023 BLU NOSIG", "EHFD 091355Z AUTO 14012KT 3800 BR OVC017/// 07/07 Q1024", "EHFS 091355Z AUTO 10003KT 060V140 7000 NCD 14/09 Q1022", "EHGG 091355Z AUTO 15008KT 090V210 9999 FEW038 14/05 Q1024 NOSIG", "EHGR 091355Z AUTO VRB03KT 9999 BKN043 16/05 Q1023 BLU", "EHHW 091355Z AUTO 12006KT 070V140 //// // SCT015/// 08/05 Q1025 RE//", "EHJA 091355Z AUTO 14016KT 6000 OVC015/// 08/07 Q1023", "EHJR 091355Z AUTO 15014KT //// // ///////// 09/07 Q1023 RE// W08/H7", "EHKD 091404Z AUTO 12005KT 070V150 9999 FEW021 BKN030 12/07 Q1023 BLU NOSIG", "EHKV 091355Z AUTO 14011KT 7000 FEW017 09/07 Q1023", "EHLE 091355Z AUTO VRB04KT 9999 BKN044 16/04 Q1023 NOSIG", "EHLW 091355Z AUTO 17007KT 110V170 9999 OVC029 14/07 Q1024 BLU", "EHMG 091355Z AUTO 13010KT 6000 FEW013 OVC015 08/06 Q1025", "EHPG 091355Z AUTO 10011KT 4500 BR OVC016 09/07 Q1023", "EHRD 091355Z AUTO 15004KT 070V210 8000 BKN033 BKN038 14/08 Q1023 NOSIG", "EHSA 091355Z AUTO 09005KT 6000 ///////// 09/07 Q1023 W07/H4", "EHSC 091355Z AUTO 09005KT 7000 ///////// 11/08 Q1023 W09/H4", "EHVK 091355Z AUTO VRB04KT 9999 OVC045 14/05 Q1023 BLU", "EHVL 091355Z AUTO 11009KT 9999 OVC170 12/07 Q1024 BLU", "EHWO 091355Z AUTO 18004KT 020V140 9999 SCT044 BKN049 16/06 Q1022 BLU", "EICK 091400Z 18014KT 150V210 9999 BKN008 BKN015 BKN060 11/10 Q1010 NOSIG", "EIDL 091400Z 17026KT 9999 -RA FEW019 BKN023 12/08 Q1006", "EIDW 091400Z 18012KT 140V210 9999 FEW012 SCT021 BKN026 12/07 Q1011 NOSIG", "EIKN 091400Z 17013G24KT 130V200 9999 -RA BKN013 BKN025 11/09 Q1005 RERA TEMPO 4000", "EIKY 091400Z 19016KT 9999 -SHRA FEW029 12/10 Q1007", "EIME 091400Z 17013KT 9999 FAW018 BKN060 BKN090 12/08 Q1010", "EINN 091400Z 17016KT 9999 -RA FEW020 BKN050 14/07 Q1007 NOSIG", "EISG 091400Z 16007KT 120V200 6000 FEW013 BKN024 OVC035 12/09 Q1006", "EIWF 091400Z 19015KT 160V220 8000 BKN005 11/10 Q1012", "EKAH 091350Z AUTO 12006KT 070V190 9999 SCT078/// 12/M02 Q1028", "EKBI 091350Z AUTO 13007KT 100V170 9999 FEW150/// 14/01 Q1027", "EKCH 091350Z AUTO 18009KT 9999 SCT050/// 08/01 Q1029 NOSIG", "EKEB 091350Z AUTO 25004KT 210V270 9999 BKN130/// 11/07 Q1026", "EKKA 091350Z AUTO 12007KT 090V170 9999 FEW056/// SCT130/// 14/02 Q1026", "EKOD 091350Z 12009KT 080V170 CAVOK 13/M02 Q1027", "EKRK 091350Z AUTO 14008KT 9999 NCD 09/M01 Q1028", "EKRN 091350Z AUTO 04009KT 9999 NCD 09/M01 Q1028", "EKRS 091350Z AUTO VRB05KT 9999 NCD 11/04 Q1028", "EKSB 091350Z 14009KT CAVOK 11/03 Q1027", "EKSP 091350Z 10009KT CAVOK 13/02 Q1027 RMK FEW140 BKN180", "EKVD 091350Z 13010KT CAVOK 12/M00 Q1027", "EKVG 091350Z AUTO 12026KT 9999 OVC011/// 07/05 Q1012 RMK OVC011/// WIND SKEID 13035KT", "EKVJ 091350Z 26009KT CAVOK 12/// Q1026", "EKYT 091350Z AUTO 10010KT 9999 OVC100/// 12/05 Q1028", "ELLX 091350Z 05006KT 360V140 9999 SCT046 12/01 Q1022 NOSIG", "ENAL 091350Z 30005KT 260V340 CAVOK 11/M01 Q1026", "ENAN 091350Z 18004KT 160V220 9999 FEW013 BKN019 04/01 Q1034", "ENAT 091350Z VRB03KT 9999 BKN035 04/00 Q1034 RMK WIND 700FT 22004KT", "ENBL 091350Z 14003KT 100V190 9999 SCT047 SCT065 09/M07 Q1025", "ENBN 091350Z 10016KT CAVOK 09/M00 Q1031", "ENBO 091350Z 09011KT CAVOK 09/M01 Q1033 NOSIG", "ENBR 091350Z 14008KT 9999 -RA FEW025 BKN035 08/03 Q1026 NOSIG RMK WIND 1200FT 13018KT", "ENBS 091350Z 25012KT 200V270 9999 FEW013 SCT030 02/M02 Q1031", "ENBV 091350Z AUTO 26012KT 9999 BKN020/// OVC034/// 02/M01 Q1032", "ENCN 091350Z 04009KT 9999 SCT019 BKN055 08/02 Q1029", "ENDR 091350Z AUTO 10025KT 9999NDV NCD 07/00 Q1027 W///S4", "ENDU 091350Z VRB03KT 9999 FEW025 08/00 Q1034 RMK WIND 1100FT VRB02KT WIND 2200FT 00000KT", "ENEV 091350Z 23004KT CAVOK 06/01 Q1034 RMK WIND 1400FT 14005KT", "ENFB 091350Z AUTO 15029KT 9999NDV OVC013/// ///// Q//// W///S4", "ENFL 091350Z 19004KT 170V250 9999 BKN050 10/M00 Q1026", "ENGC 091350Z 16025KT 7000 -RA OVC005 06/05 Q1023 W06/S5", "ENGM 091350Z 00000KT CAVOK 09/M04 Q1028 NOSIG", "ENHD 091350Z 11014KT 9999 -RA FEW021 BKN036 07/04 Q1026", "ENHE 091350Z 12022KT CAVOK 07/01 Q1028 W///S4", "ENHF 091350Z 24014KT 9999 -SHRA SCT009 BKN012 02/02 Q1032 RMK WIND 1254FT 27023KT", "ENHK 091350Z 27009KT 9999 FEW015 04/01 Q1034", "ENHM 091350Z AUTO /////KT //// SCT008/// BKN010/// 07/07 Q1022 W08/S/", "ENHV 091350Z AUTO 25014KT 9999 BKN025/// BKN033/// 04/M00 Q1032", "ENJS 091350Z 15021KT 4000 BR BKN004 07/06 Q1023 W07/S/", "ENKB 091350Z 06007KT CAVOK 10/M02 Q1026 RMK WIND 745FT 09005KT", "ENKR 091350Z 28008KT 9999 BKN029 03/M02 Q1033 RMK WIND 731FT 29013KT", "ENLA 091350Z AUTO 15022KT 3700NDV BR OVC009/// 07/07 Q1022 W///S3", "ENLE 091350Z 13019KT 4000 BR FEW005 OVC015 07/06 Q1023 W07/S3", "ENLK 091320Z 18005KT 9999 FEW010 SCT015 05/03 Q1034", "ENMH 091350Z AUTO 25010KT 9999 BKN018/// 03/01 Q1032", "ENML 091350Z 22002KT CAVOK 13/M01 Q1026", "ENMS 091350Z 11004KT 030V190 CAVOK 10/M03 Q1032 RMK WIND 412FT 05005KT", "ENNA 091350Z AUTO 27005KT 240V300 9999 OVC033/// 06/M01 Q1034 RMK WIND 1800FT 28017KT", "ENNE 091350Z 09022KT CAVOK 05/01 Q1029 W///S4", "ENNM 091350Z AUTO 13012KT 9999 NCD 10/M02 Q1030", "ENOA 091350Z 16033KT 9999 BKN012 07/04 Q1023 W///S4", "ENOL 091350Z 12019KT CAVOK 10/M03 Q1027 NOSIG", "ENOV 091350Z 25006KT 210V290 CAVOK 13/M04 Q1025 RMK WIND RWY24 26007KT WIND 2090FT 25008KT", "ENQA 091350Z AUTO 16020KT 9999NDV -SHRA OVC025/// 07/03 Q1025 W11/S3", "ENQC 091350Z AUTO 15019KT 9999NDV OVC031/// 07/04 Q1025 W///S3", "ENQR 091350Z AUTO 14025KT 9999NDV OVC030/// 08/04 Q1023 W08/S4", "ENRA 091350Z AUTO 13007KT 090V160 9999 NCD 08/M02 Q1033", "ENRM 091350Z 12010KT 090V150 CAVOK 10/M01 Q1030", "ENRO 091350Z 13011KT CAVOK 04/M06 Q1027", "ENRS 091350Z AUTO 10008KT 9999 NCD 05/01 Q1033", "ENRY 091350Z AUTO VRB04G15KT 9999 SCT066/// 13/M02 Q1028", "ENSB 091350Z 23020G32KT 3000 -SNRA VV010 02/M01 Q1011 RMK WIND 1400FT 25026KT", "ENSD 091350Z 25004KT 210V290 CAVOK 12/M01 Q1025 RMK WIND RWY26 VRB01KT WIND 1140FT VRB03KT", "ENSE 091350Z AUTO 16029KT //// OVC025/// 08/04 Q1023 W///S/", "ENSF 091350Z AUTO 15028KT 9999NDV OVC011/// ///// Q//// W///S4", "ENSG 091350Z AUTO 06005KT 030V100 9999 NCD 07/M06 Q1025 RMK WIND 3806FT 10009KT", "ENSH 091350Z AUTO 11006KT 9999 NCD 05/02 Q1034 RMK WIND 0150FT 13005KT", "ENSK 091350Z 08005KT 9999 FEW020 05/01 Q1034", "ENSL 091350Z AUTO 15019KT 9999NDV BKN005/// BKN014/// BKN017/// 07/06 Q1022 W05/S3", "ENSR 091350Z AUTO 36005KT 9999 SCT021/// 06/01 Q1034 RMK WIND RWY32 36005KT WIND 1118FT VRB03KT", "ENSS 091350Z AUTO 27010KT 9999 SCT035/// 02/M01 Q1032 RMK WIND 0500FT 27014KT", "ENST 091350Z 02006KT CAVOK 09/M01 Q1032 RMK WIND 300FT 03006KT", "ENTC 091350Z VRB02KT 9999 BKN026 05/01 Q1034 NOSIG RMK WIND 2600FT 21015KT", "ENTO 091350Z 13004KT 080V170 CAVOK 11/M01 Q1028 NOSIG", "ENUG 091350Z AUTO 26019KT 9999NDV BKN016/// 05/01 Q1031 W///S4", "ENUN 091350Z AUTO 14016KT 9999NDV BKN019/// 06/01 Q1030 W06/S4", "ENVA 091350Z 15010KT CAVOK 11/M05 Q1029 NOSIG RMK WIND 670FT 15020KT", "ENVD 091350Z 28007KT 9999 FEW023 BKN033 03/M01 Q1033", "ENVR 091350Z 06008KT 9999 FEW007 SCT025 04/02 Q1034", "ENWV 091350Z AUTO 14021KT 3000NDV BR OVC006/// 07/06 Q1023 W///S3", "ENZV 091350Z 12010KT 9999 SCT053 OVC074 10/04 Q1026 RERA", "EPBY 091400Z 04005KT 360V090 CAVOK 14/05 Q1025", "EPGD 091400Z 35009KT 320V020 9999 FEW030 11/02 Q1025", "EPKK 091400Z VRB02KT 9999 FEW043TCU BKN066 11/03 Q1023", "EPKT 091400Z 30005KT 260V340 CAVOK 10/04 Q1023", "EPLB 091400Z 12003KT 080V180 CAVOK 13/06 Q1023", "EPLL 091400Z 30005KT 9999 -SHRA SCT024CB BKN049 11/07 Q1024", "EPMO 091400Z 27005KT 220V310 9999 FEW033CB 15/07 Q1023", "EPPO 091400Z 31006KT 280V360 9999 BKN015 11/07 Q1025", "EPRZ 091400Z 14003KT 040V210 CAVOK 13/03 Q1023", "EPSC 091400Z 36007KT 320V040 CAVOK 13/02 Q1026", "EPSY 091400Z 33005KT 9999 SCT024 13/07 Q1024", "EPWA 091400Z 02005KT 360V060 9999 SCT040CB 14/06 Q1023 TEMPO SHRA", "EPWR 091400Z 34004KT 6000 BKN005 BKN009 08/07 Q1025", "EPZG 091400Z 31005KT 280V350 CAVOK 12/07 Q1025", "ESCF 091350Z AUTO VRB04KT 9999 BKN060/// 11/M02 Q1029", "ESCM 091350Z AUTO 04007KT 9999 OVC078/// 09/M02 Q1030", "ESDF 091350Z 04007KT 360V070 CAVOK 12/M03 Q1028", "ESGG 091350Z VRB04KT CAVOK 13/M07 Q1027", "ESGJ 091350Z AUTO 01008KT 9999 NCD 11/M01 Q1028", "ESGP 091350Z 27008KT CAVOK 10/M03 Q1028", "ESGT 091350Z AUTO 01008KT 330V040 9999 R15///// R33///// NCD 12/M01 Q1028", "ESIA 091350Z AUTO 08005KT 9999 NCD 10/M02 Q1029", "ESIB 091350Z AUTO 01008KT 9999 NCD 10/M03 Q1028", "ESKM 091350Z AUTO 11005KT 040V170 9999 OVC074/// 09/M05 Q1029", "ESKN 091350Z 36005KT 290V040 CAVOK 11/M05 Q1029", "ESKS 091350Z 05006KT 030V090 CAVOK 05/M07 Q1028", "ESMK 091350Z 13008KT 090V160 CAVOK 11/M03 Q1028", "ESMQ 091350Z 04009KT CAVOK 09/M03 Q1029", "ESMS 091350Z 17009KT CAVOK 11/M01 Q1028", "ESMT 091350Z AUTO 29007KT 250V320 9999 NCD 12/M03 Q1028", "ESMX 091350Z 36005KT 300V050 CAVOK 12/M08 Q1028", "ESND 091350Z AUTO 09005KT 060V140 9999 BKN068/// 07/M08 Q1029", "ESNG 091350Z AUTO 32002KT 9999 NCD ///// Q1032", "ESNK 091350Z AUTO 18007KT 9999 SCT046/// BKN066/// OVC094/// ///// Q////", "ESNL 091350Z AUTO 07009KT 9999 OVC046/// 07/M03 Q1032", "ESNN 091350Z AUTO 08005KT 030V110 9999 FEW030/// OVC051/// 06/M01 Q1032", "ESNO 091350Z AUTO 10009KT 9999 BKN086/// OVC120/// 05/M01 Q1031", "ESNQ 091350Z 25005KT CAVOK 06/M03 Q1032", "ESNS 091350Z 02009KT 350V050 CAVOK 04/M02 Q1033", "ESNU 091350Z 07009KT CAVOK 07/M03 Q1032", "ESNV 091350Z AUTO 08006KT 9999 OVC050/// 06/M03 Q1031", "ESNX 091350Z AUTO 10007KT 070V130 9999 SCT047/// 07/M03 Q1032", "ESNZ 091350Z 09007KT 060V140 9999 SCT049 06/M03 Q1029", "ESOE 091350Z 16005KT 080V210 CAVOK 12/M04 Q1029", "ESOH 091350Z AUTO VRB02KT 9999 NCD 11/M06 Q1028", "ESOK 091350Z AUTO 12009KT 9999 BKN083/// 10/M06 Q1029", "ESOW 091350Z AUTO 03004KT 350V050 9999 OVC064/// 10/M05 Q1030", "ESPA 091350Z 09005KT 070V130 CAVOK 08/M01 Q1034", "ESPE 091350Z AUTO 13007KT 080V160 9999 NCD 08/M01 Q1033", "ESSA 091350Z 02010KT CAVOK 10/M05 Q1029 NOSIG", "ESSB 091350Z 30006KT CAVOK 10/M06 Q1029", "ESSD 091350Z AUTO 10004KT 040V150 9999 NCD 09/M07 Q1029", "ESSL 091350Z 11004KT 070V150 CAVOK 11/M02 Q1029", "ESSP 091350Z AUTO 03005KT 360V070 9999 FEW082/// 11/M02 Q1029", "ESST 091350Z AUTO 26003KT 220V310 9999 FEW078/// 12/M04 Q1029", "ESSV 091350Z 35010KT CAVOK 06/02 Q1029", "ESTA 091350Z 23005KT CAVOK 13/M04 Q1028", "ESTL 091350Z AUTO VRB03KT 9999 NCD 14/M05 Q1028", "ESUP 091350Z AUTO 28003KT 9999 // NCD 10/// Q1033", "ESUT 091350Z AUTO 11009KT 9999 BKN048/// 05/M02 Q1031", "ETAD 091355Z 00000KT 9999 SCT047 13/00 A3019 RMK AO2A SLP219 T01310001 $", "ETAR 091355Z AUTO 12004KT 9999 BKN060 14/01 A3020 RMK AO2 SLP234 T01360009 $", "ETEB 091355Z AUTO 06006KT 9999 SCT060 11/M00 A3022 RMK AO2 SLP255 T01141004 $", "ETGG 091320Z AUTO 12011KT 9999 // ////// 12/01 Q1026 ///", "ETHA 091320Z AUTO 10010KT 9999 // ////// 08/M02 Q1023 ///", "ETHB 091320Z AUTO 10006KT 9999 // ////// 10/05 Q1025 ///", "ETHC 091320Z AUTO VRB03KT 6000 // ////// 10/03 Q1026 ///", "ETHF 091320Z AUTO 10003KT 6000 // ////// 12/02 Q1025 ///", "ETHL 091320Z AUTO 08011KT //// // ////// 11/M00 Q1023 ///", "ETHN 091320Z 15011KT 9999 SCT050 12/00 Q1024 BLU+", "ETHS 091320Z AUTO 10008KT 8000 // ////// 13/02 Q1025 ///", "ETIC 091355Z AUTO 14005KT 9999 BKN049 BKN060 BKN090 13/02 A3021 RMK AO2 RAB20E21DZB21E29RAB29E30 SLP241 P0000 T01260019 $", "ETIK 091355Z AUTO 13004KT 9999 SCT060 12/02 A3024 RMK AO2 SLP248 T01210017 FZRANO $", "ETMN 091320Z 15007KT 9999 FEW025 13/04 Q1026 BLU+", "ETNH 091320Z AUTO 10006KT 6000 // ////// 12/05 Q1026 ///", "ETNL 091320Z 09005KT 9999 FEW012 BKN016 08/05 Q1027 WHT", "ETNN 091320Z 13006KT 9999 FEW050 14/02 Q1023 BLU+", "ETNS 091320Z AUTO 09006KT 9999 // ////// 12/04 Q1026 ///", "ETNT 091320Z AUTO 11006KT //// // ////// 13/05 Q1025 ///", "ETNW 091320Z 13006KT 9999 SCT020 BKN028 10/05 Q1026 BLU", "ETOU 091355Z AUTO 09004KT 9999 OVC055 12/M22 A3025 RMK AO2 SLP249 T01241225", "ETSB 091320Z AUTO 12005KT //// // ////// 10/00 Q1023 ///", "ETSH 091320Z 36005KT 9999 FEW050 SCT090 14/01 Q1026 BLU+", "ETSI 091320Z AUTO 07010KT 9999 // ////// 10/01 Q1024 ///", "ETSL 091320Z AUTO 04013KT 9999 // ////// 10/M00 Q1023 ///", "ETSN 091320Z 05004G14KT 9999 SCT040 12/01 Q1024 BLU+", "ETWM 091320Z AUTO 16006KT //// // ////// 13/03 Q1024 ///", "EVGA 091350Z AUTO VRB03KT CAVOK 15/01 Q1024", "EVLA 091350Z AUTO 05006KT CAVOK 13/02 Q1026", "EVRA 091350Z 35011KT CAVOK 11/M01 Q1025 NOSIG", "EVVA 091350Z AUTO 35009KT CAVOK 11/02 Q1027", "EYKA 091350Z 36004KT 9999 -RA NSC 14/08 Q1023", "EYPA 091350Z 31003KT 250V030 CAVOK 09/05 Q1025", "EYSA 091350Z 07005KT 350V110 CAVOK 15/05 Q1025 NOSIG", "EYVI 091350Z 03009KT 9999 -SHRA BKN033CB 10/06 Q1024 TEMPO 3000 TSRA BKN015CB", "FABL 091300Z 01005KT 9999 SCT030 20/13 Q1016 NOSIG", "FACT 091400Z 24008KT 9999 SCT040 19/08 Q1018 NOSIG", "FAEL 091400Z 24015KT 9999 FEW019 BKN025 19/15 Q1012", "FAGG 091400Z 36005KT 9999 FEW015 BKN032 15/13 Q1016", "FAHS 091400Z AUTO 35004KT //// // ////// 32/19 Q1013", "FAJB 091400Z AUTO 36003G14KT //// // ////// 25/08 Q1018", "FAKM 091400Z 28004KT 9999 TSRA OVC040 FEW050CB 20/18 Q1014", "FAKN 091400Z 05010KT 9999 FEW035TCU 28/17 Q1016 NOSIG", "FALA 091400Z 34013KT 310V010 9999 FEW045 27/11 Q1017 NOSIG", "FALE 091400Z 04009KT 9999 FEW025 26/22 Q1007 NOSIG", "FALW 091300Z AUTO 21013KT //// // ////// 21/06 Q1017", "FAMM 091400Z AUTO 35011KT //// // ////// 26/12 Q1015", "FAOR 091400Z 32015KT CAVOK 25/09 Q1019 NOSIG", "FAPE 091400Z 24023KT 9999 FEW020 17/13 Q1013 NOSIG", "FAPN 091400Z AUTO 34004G15KT //// // ////// 30/11 Q1014", "FAPP 091400Z 01005KT 9999 FEW030 27/11 Q1019 NOSIG", "FAUP 091400Z AUTO 22007KT //// // ////// 25/02 Q1014", "FAUT 091400Z 19106KT 9999 FEW010 OVC020 16/15 Q1014", "FAVV 091400Z AUTO 32012KT //// // ////// 26/10 Q1019", "FAWB 091400Z AUTO 01006KT //// // ////// 28/11 Q1015", "FBKE 091300Z 34006KT 260V070 CAVOK 32/12 Q1015", "FBMN 091300Z 01008KT 340V050 9999 SCT030 33/12 Q1015", "FBPM 091300Z VRB05KT 9999 SCT030 34/08 Q1015", "FBSK 091400Z 34007KT 310V020 9999 FEW030 31/11 Q1013 NOSIG", "FDBB 091300Z AUTO 05005KT //// // ////// 34/23 Q1009", "FDMY 091300Z AUTO 10005KT //// // ////// 30/19 Q1022", "FDPP 091300Z AUTO 06010KT //// // ////// ///// Q1020", "FDSK 091400Z 04013KT 350V060 9999 FEW040 29/18 Q1012 NOSIG", "FDST 091300Z AUTO 25010KT //// // ////// 28/19 Q1012", "FGSL 091400Z 26009KT 9999 SCT010 FEW016CB 28/25 Q1009 NOSIG", "FIMP 091400Z 09006KT 8000 VCSH FEW014TCU SCT015 BKN250 28/23 Q1015", "FJDG 091255Z 00000KT 9999 FEW022 SCT220 30/24 A2983 RMK SLP098 T03000244", "FMCZ 091400Z AUTO 12003KT 080V140 9999 FEW024 31/25 Q1011 NOSIG", "FMEE 091400Z AUTO 12008KT 9999 NCD 25/21 Q1014 TEMPO 2500 SHRA SCT025TCU", "FMEP 091400Z AUTO 18003KT CAVOK 27/23 Q1014 TEMPO 2500 SHRA SCT020TCU", "FMMI 091403Z 20008KT 9999 TS VCSH FEW017CB SCT020 22/16 Q1018 NOSIG", "FMMT 091300Z 12004KT 070V170 9999 VCSH FEW007 SCT017CB 28/24 Q1013 NOSIG", "FMNA 091300Z 14006KT 9999 FEW020CB 31/22 Q1010", "FMNM 091300Z 33008KT 9999 FEW017CB 34/24 Q1010 NOSIG", "FMNN 091300Z 05002KT 9999 VCTS SCT020CB 32/// Q1010", "FMSD 091300Z 08017KT 9999 FEW023 28/22 Q1014", "FNLU 091300Z 26013KT 9999 SCT019 FEW023CB 32/25 Q1007 NOSIG", "FOGM 091300Z 00000KT 9999 BKN010 FEW020CB 26/24 Q////", "FOGO 091300Z /////KT 9999 SCT011 FEW018CB 28/22 Q////", "FOGR 091300Z /////KT 9999 SCT012 BKN030 31/25 Q////", "FOOG 091400Z 25009KT 9999 SCT010 FEW020CB BKN033 28/25 Q1010", "FOOL 091300Z 32004KT 8000 SCT010 28/24 Q1010 NOSIG", "FOON 091300Z 24006KT 9999 SCT013 30/23 Q1009", "FQBR 091300Z 17009KT 9999 FEW018 30/23 Q1012", "FQLC 091400Z 12004KT 9999 TS BKN016 FEW020CB 22/18 Q1020 RMK CB TO NE,E, SE, SW", "FQMA 091400Z 07015KT 9999 FEW020 30/23 Q1010 NOSIG", "FQNC 091300Z /////KT 9999 TS SCT020 FEW025CB SCT100 30/// Q1012 RMK CB TO W", "FQNP 091400Z 11007KT 9999 SCT020 29/21 Q1014", "FQPB 091400Z 15007KT 110V180 9999 FEW020 FEW025CB 30/25 Q1012 RMK CB TO S", "FQQL 091400Z 12009KT 9999 FEW010 SCT018 FEW025CB 30/24 Q1011 RMK CB TO W", "FQTT 091400Z 08006KT 040V140 9999 BKN020 35/22 Q1012", "FQXA 091400Z 04004KT 360V080 9999 FEW020 31/22 Q1013", "FSIA 091400Z 33011KT 9999 FEW019CB SCT021 30/26 Q1009 NOSIG", "FTTA 091300Z 17006KT 9999 FEW040 39/18 Q1007", "FTTC 091300Z 36006KT CAVOK 44/// Q1006", "FTTJ 091300Z 34006KT 8000 FEW040 43/14 Q1004 NOSIG", "FTTY 091300Z 18006KT CAVOK 46/M03 Q1006", "FVFA 091400Z 05011KT CAVOK 32/08 Q1015 NOSIG", "FVJN 091400Z VRB04KT CAVOK 31/11 Q1018 NOSIG", "FVKB 091400Z 00000KT CAVOK 34/19 Q1012 NOSIG", "FVRG 091400Z VRB04KT CAVOK 28/08 Q1020 NOSIG", "FWCL 091400Z 21003KT 9999 FEW020CB SCT025 24/22 Q1015 NOSIG", "FWKI 091400Z 10012KT 9999 FEW035CB SCT040 25/17 Q1018 NOSIG", "FYGF 091300Z AUTO 34003KT 9999 SCT025 BKN100 20/15 Q1020", "FYWE 091300Z 29011KT 260V320 9999 FEW045CB SCT050TCU 27/05 Q1020", "FYWH 091300Z 30010KT 9999 FEW040CB SCT045 29/09 Q1020 NOSIG", "FYWW 091300Z 28009KT 9999 FEW045CB SCT050TCU 28/07 Q1019", "GABS 091330Z VRB07KT 9999 FEW030 38/15 Q1010 NOSIG", "GAKD 091300Z 06008KT CAVOK 40/10 Q1009", "GBYD 091400Z 36005KT CAVOK 32/16 Q1010", "GCFV 091400Z 05012KT 9000 FEW015 SCT025 22/17 Q1017", "GCGM 091400Z 21006KT 170V250 9999 SCT035 22/12 Q1018 RMK R09/18005KT 110V240 ARP/20005KT 140V260", "GCHI 091400Z 03012KT 360V060 9999 FEW030 22/13 Q1018", "GCLA 091400Z 05007KT 360V090 9999 FEW030 BKN038 21/13 Q1018", "GCLP 091400Z 03018KT 9999 FEW025 22/14 Q1017 NOSIG", "GCRR 091400Z 36015KT 330V030 9999 SCT030 24/15 Q1017", "GCTS 091400Z 09017KT 060V130 9999 FEW030 22/12 Q1018 NOSIG", "GCXO 091400Z 01007KT 330V070 9999 FEW010 SCT028 17/09 Q1019 NOSIG", "GECE 091400Z AUTO 12006KT 070V160 CAVOK 20/15 Q1021", "GEML 091400Z VRB04KT CAVOK 21/08 Q1021", "GFLL 091300Z 26009KT 9999 NSC 28/24 Q1010", "GGOV 091300Z 02008KT 330V070 CAVOK 34/12 Q1011 NOSIG", "GLRB 091400Z 24004KT 9999 BKN022 FEW027CB 33/26 Q1009 NOSIG RMK CB/S-W", "GMAD 091400Z 36007KT 300V060 8000 NSC 33/00 Q1015 NOSIG", "GMAG 091400Z 13020KT 090V160 5000 FEW013 SCT100 30/M09 Q1015 NOSIG", "GMAT 091400Z 09018KT 4000 SA NSC 31/M00 Q1014 NOSIG", "GMFB 091400Z 02010KT CAVOK 25/M09 Q1023 NOSIG", "GMFF 091400Z 01006KT 290V050 9999 FEW030 28/01 Q1020 NOSIG", "GMFK 091400Z 35007KT CAVOK 25/M09 Q1023 NOSIG", "GMFM 091400Z 34006KT 290V060 CAVOK 28/10 Q1019 NOSIG", "GMFO 091400Z 02010KT CAVOK 27/M09 Q1020 NOSIG", "GMMB 091400Z 01016KT 6000 NSC 26/07 Q1019 NOSIG", "GMMC 091400Z 06006KT 6000 NSC 25/10 Q1019", "GMMD 091400Z 30007KT CAVOK 29/M06 Q1018 NOSIG", "GMME 091400Z 36010KT 330V030 5000 NSC 26/10 Q1018 NOSIG", "GMMH 091400Z 01019KT 8000 NSC 21/14 Q1015 NOSIG", "GMMI 091400Z 32012KT 5000 NSC 32/12 Q1016 NOSIG", "GMML 091400Z 04011KT CAVOK 28/12 Q1015 NOSIG", "GMMN 091400Z 36015KT CAVOK 27/13 Q1019 NOSIG", "GMMW 091400Z 05006KT 340V080 CAVOK 26/M02 Q1020 NOSIG", "GMMX 091300Z 33005KT 250V060 8000 NSC 28/08 Q1018 NOSIG", "GMMZ 091400Z VRB01KT 6000 SCT030 23/M06 Q1021 NOSIG", "GMTA 091400Z 35011KT 330V030 CAVOK 20/13 Q1020 NOSIG", "GMTN 091400Z 07008KT 030V100 9999 SCT013 20/14 Q1021 NOSIG", "GMTT 091400Z 05007KT CAVOK 27/17 Q1019 NOSIG", "GOBD 091330Z 36019KT CAVOK 27/14 Q1012 NOSIG", "GOGG 091300Z 02006KT CAVOK 35/17 Q1012", "GOGS 091300Z 02006KT CAVOK 32/16 Q1011", "GOOY 091300Z 36017KT CAVOK 25/18 Q1013", "GOSS 091300Z VRB12KT CAVOK 28/17 Q1013", "GOTT 091300Z 02008KT CAVOK 38/08 Q1010", "GQNO 091330Z 32020KT 8000 NSC 24/14 Q1012 NOSIG", "GQPP 091300Z 34018KT 8000 NSC 21/13 Q1015 NOSIG", "GUCY 091300Z 29008KT 9999 FEW015 31/21 Q1011 NOSIG", "GVAC 091400Z 05017KT 9999 FEW011 BKN013 25/14 Q1015 NOSIG", "GVBA 091400Z 03019KT 9999 FEW014 SCT200 25/14 Q1015 NOSIG", "GVNP 091400Z 02019KT 9999 FEW017 SCT200 25/14 Q1014 NOSIG", "GVSV 091400Z 06021KT 9999 FEW025 25/14 Q1015 NOSIG", "HAAB 091400Z 11014KT 9999 BKN024 23/10 Q1025 NOSIG", "HBBA 091300Z 00000KT 9999 FEW030 31/17 Q1011 NOSIG", "HCMF 091300Z 03018KT 9999 FEW033 29/26 Q1010", "HCMM 091300Z 08009KT 9999 SCT023 SCT080 30/26 Q1010", "HDAM 091400Z 060/12KT 9999 SCT023 30/20 Q1011", "HEAT 091300Z 21012KT 38/M02 Q1009", "HEAX 091300Z 22015KT 9999 SCT020 BKN100 25/17 Q1010", "HEBA 091300Z 31012KT 6000 SCT020 SCT022 27/11 Q1008", "HEBL 091300Z 07006KT CAVOK 36/10 Q1006", "HECA 091400Z 32007KT 6000 FEW025 BKN070 31/09 Q1009 NOSIG", "HECP 091300Z 29012KT 9999 SCY025 33/M01 Q1010", "HEGN 091300Z 05010KT CAVOK 31/16 Q1007", "HEIS 091300Z 32008KT CAVOK 32/11 Q1009", "HELX 091300Z 29007KT 8000 NSC 38/07 Q1006", "HEMA 091300Z 12009KT CAVOK 30/14 Q1009", "HEMM 091300Z 28008KT 6000 SCT020 BKN022 20/16 Q1010", "HEPS 091300Z 06004KT CAVOK 22/20 Q1009", "HERT 091300Z 15022KT 3500 SA FEW025 BKN100 34/12 Q1007", "HESG 091300Z 06012KT CAVOK 37/02 Q1006", "HESH 091300Z 12006KT CAVOK 34/11 Q1009", "HESN 091300Z 18010KT CAVOK 38/10 Q1006", "HESW 091300Z SAEG41 HECA 091300 METAR ", "HESX 091300Z 31011KT 9999 FEW025 SCT10 31/09 Q1009 NOSIG", "HKEL 091300Z 13014KT 9999 SCT023 24/10 Q1022", "HKEM 091300Z 07006KT 9999 FEW023CB 25/15", "HKGA 091300Z 00000KT 9999 BKN028 32/22 Q1008 RESHRA", "HKJK 091330Z 08010KT 9999 FEW024CB BKN026 20/16 Q1020 NOSIG", "HKKI 091330Z 22006KT 9999 FEW028CB SCT029 BKN280 29/18 Q1013", "HKKT 091300Z 36004KT 9999 BKN024 27/14", "HKLO 091300Z 11020KT 9999 FEW034 35/16 Q1006", "HKLU 091300Z 16008KT 9999 FEW028CB 33/22 Q1008", "HKME 091300Z 13003KT 9999 BKN025 24/16", "HKML 091300Z 14010KT 9999 FEW024CB 32/23 Q1008", "HKMO 091330Z 13011KT 9999 FEW025CB SCT260 31/23 Q1008 NOSIG", "HKNI 091300Z 10005KT 9999 FEW024CB BKN025 23/16 RETSRA", "HKNK 091300Z 02010KT 9999 FEW026CB SCT027 26/10", "HKNW 091300Z 09020KT 9999 FEW026CB BKN027 24/15 Q1021", "HKWJ 091300Z 06004KT 9999 BKN036 35/20 Q1007", "HRYR 091400Z 14005KT 100V170 9999 FEW023CB SCT025 25/16 Q1017 NOSIG", "HRZA 091400Z 26004KT 9999 SCT025 25/17 Q1018 NOSIG", "HSSK 091330Z 30005KT CAVOK 40/M02 Q1007 NOSIG", "HTAR 091300Z 09005KT 9999 BKN028 FEW030CB 26/17 Q1019 NOSIG", "HTBU 091300Z 12005KT 9999 FEW023 FEW025CB 27/20 Q1015 NOSIG", "HTDA 091300Z 18005KT 9999 SCT012 FEW016CB BKN070 28/25 Q1011 NO SIG", "HTDO 091300Z 06005KT 9999 SCT032 28/14 Q1015 NOSIG", "HTIB 091300Z 16007KT 9999 TS SCT030 FEW032CB 29/18 Q1013", "HTIR 091300Z 09006KT 9999 SCT024 FEW027CB BKN080 23/16 Q1019", "HTKA 091300Z 27010KT 9999 FEW024 FEW025CB 27/21 Q1012 NOSIG", "HTKJ 091300Z 12007KT 9999 FEW034CB SCT035 31/16 Q1014 NOSIG", "HTMG 091300Z 00000KT 9999 TS BKN024 FEW027CB 25/21 Q1013", "HTMP 091300Z 09005KT 9999 SCT023 FEW024CB 30/18 Q1016", "HTMT 091300Z 11013KT 9999 SCT023 FEW024CB 32/24 Q1011 NOSIG", "HTMU 091300Z 33012KT 9999 FEW028 FEW030CB 28/19 Q1015", "HTMW 091300Z 30007KT 9999 FEW026 FEW027CB 29/19 Q1014 NOSIG", "HTSO 091300Z 07003KT 9999 BKN020 FEW021CB 26/19 Q1017", "HTSU 091300Z 08004KT 9999 FEW024 FEW025CB 24/12 Q1021", "HTTB 091300Z 09010KT 9999 FEW025 29/18 Q1016 NOSIG", "HTZA 091300Z 17013KT 9999 FEW016 FEW018CB BKN080 29/25 Q1010 NO SIG", "K04V 091349Z AUTO 29012KT 10SM 02/M07 A3037 RMK AO2", "K04W 091359Z AUTO 18012KT 10SM CLR 08/M01 A3017 RMK AO2", "K05U 091355Z AUTO VRB04KT 10SM CLR A3031 RMK A01", "K06C 091355Z AUTO 17006KT 10SM CLR 12/02 A3046 RMK AO2 T01200018", "K06D 091355Z AUTO 22010KT 10SM CLR 02/M00 A2996 RMK AO2", "K08D 091355Z AUTO 28011KT 10SM CLR 03/01 A3000 RMK AO2", "K0A0 091355Z AUTO 34009KT 10SM CLR 10/M05 A3018 RMK AO2", "K0A9 091355Z AUTO VRB06KT 10SM CLR 10/M05 A3037 RMK AO2", "K0CO 091355Z AUTO 33019G27KT M08/M11 A3037 RMK AO2 PWINO", "K0E0 091355Z AUTO 04003KT 10SM CLR 02/M02 A3028 RMK AO2 T00211024", "K0F2 091355Z AUTO 10SM CLR 14/11 A3022 RMK AO2 T01350113", "K0J4 091358Z AUTO 04012G18KT 10SM OVC010 10/07 A3024 RMK AO2 SLP238 T01000067 $", "K0R0 091355Z AUTO 06007KT 10SM OVC011 12/09 A3025 RMK AO2", "K0R4 091355Z AUTO 04010KT 10SM 13/11 A3022 RMK AO2 T01320110", "K0S9 091355Z AUTO 14015G23KT 120V180 10SM SCT016 OVC120 10/08 A2991 RMK AO2", "K0V4 091355Z AUTO 06013KT 10SM CLR 09/M01 A3046 RMK AO1", "K0VG 091355Z AUTO 05007KT 10SM CLR 09/M06 A3039 RMK AO2", "K10G 091355Z AUTO 11004KT 10SM CLR 09/M02 A3051 RMK AO2", "K12N 091354Z AUTO 03007G15KT 350V050 09/M08 A3051 RMK AO1 SLP336 T00891083", "K13K 091355Z AUTO 14006KT 10SM CLR 10/01 A3026 RMK AO2 T00960009", "K14Y 091355Z AUTO 22008KT 7SM BKN110 05/M01 A3014 RMK AO2", "K15M 091355Z AUTO 07006KT 10SM OVC014 12/09 A3032 RMK AO2 CIG 011V018 OVC V BKN T01180093 $", "K17J 091355Z AUTO 06015KT 10SM OVC013 10/06 A3022 RMK AO2 T01030064", "K18A 091355Z AUTO 05008G15KT 360V090 10SM BKN080 10/00 A3043 RMK AO2 T00981004", "K19S 091355Z AUTO 14010KT 10SM BKN120 12/09 A3014 RMK AO2 T01250089", "K1A5 091355Z AUTO 00000KT 10SM SCT002 07/07 A3036 RMK AO2 T00730069", "K1A6 091355Z AUTO 00000KT 10SM CLR 08/01 A3039 RMK AO2 T00790008", "K1A9 091355Z AUTO 07009G14KT 10SM OVC016 10/07 A3028 RMK AO2 T01000065", "K1AM 091355Z AUTO 22012KT 10SM CLR 08/M04 A3009 RMK AO2 SLP204 T00781037 $", "K1AN 091355Z AUTO 29003KT 10SM BKN100 03/00 A2995 RMK AO2 RAE1259 SLP180 P0000 T00330002 $", "K1BM 091355Z AUTO 25018G24KT 10SM CLR 07/M03 A3007 RMK AO2 SLP196 T00721031 $", "K1BN 091355Z AUTO 25010KT 10SM FEW110 06/01 A2998 RMK AO2 SLP174 T00630006 $", "K1BW 091355Z AUTO 26011KT 10SM CLR 05/M03 A3023 RMK AO2 SLP233 T00511027 $", "K1CM 091355Z AUTO 26015KT 10SM CLR 08/M04 A3008 RMK AO2 SLP195 T00781037 $", "K1CN 091355Z AUTO 00000KT 9SM CLR M03/M04 A3000 RMK AO2 SLP189 T10281042 $", "K1CW 091355Z AUTO 27007KT 10SM CLR 05/M01 A3020 RMK AO2 SLP216 T00541011 $", "K1D1 091355Z AUTO 13007G12KT 10SM FEW032 FEW040 SCT060 04/02 A3011 RMK AO2", "K1DM 091355Z AUTO 25012KT 10SM CLR 06/M03 A3009 RMK AO2 SLP206 T00641027 $", "K1EM 091355Z AUTO 23011KT 10SM CLR 07/M03 A3007 RMK AO2 SLP195 T00711032 $", "K1EN 091355Z AUTO 00000KT 10SM CLR 02/02 A2977 RMK AO2 SLP115 T00190018 $", "K1EW 091355Z AUTO 10010KT 10SM CLR 06/M03 A3019 RMK AO2 SLP213 T00621029 $", "K1F0 091355Z AUTO 12006KT 10SM CLR 13/09 A3022 RMK AO2 T01280094", "K1FW 091355Z AUTO 33010KT 10SM CLR 07/M01 A3018 RMK AO2 SLP201 T00661013 $", "K1GM 091355Z AUTO 21010KT 10SM CLR 05/M02 M RMK AO2 SLPNO T00501019 $", "K1GN 091355Z AUTO 23007KT 10SM FEW230 00/M01 A2997 RMK AO2 SLP185 T00011008 $", "K1H2 091355Z AUTO 10006KT 10SM CLR 11/M01 A3045 RMK AO2 T01081010", "K1HM 091355Z AUTO 28005KT 10SM CLR 06/M03 A3004 RMK AO2 SLP188 T00581028 $", "K1HN 091355Z AUTO 00000KT 8SM SCT210 00/M01 A3000 RMK AO2 SLP187 T00001014 $", "K1HW 091355Z AUTO 30013KT 10SM CLR 07/01 A3014 RMK AO2 SLP197 T00730005 $", "K1IM 091355Z AUTO 21007KT 10SM CLR 06/M02 A3007 RMK AO2 SLP200 T00631018 $", "K1IN 091355Z AUTO 26005KT 10SM CLR 05/M01 A2997 RMK AO2 SLP177 T00451009 $", "K1IW 091355Z AUTO 30013KT 10SM CLR 07/M00 A3016 RMK AO2 SLP202 T00741003 $", "K1JM 091355Z AUTO 22004KT 10SM CLR 03/M03 A3005 RMK AO2 SLP198 T00341030 $", "K1JN 091355Z AUTO 26011KT 10SM CLR 02/01 A2996 RMK AO2 SLP175 T00240005 $", "K1JW 091355Z AUTO 30014KT 10SM CLR 09/M03 M RMK AO2 SLPNO T00881028 $", "K1KM 091355Z AUTO 26013KT 10SM CLR 04/M03 A3013 RMK AO2 SLP218 T00411030 $", "K1KN 091355Z AUTO 25014KT 10SM M M00/M00 A2997 RMK AO2 SLP178 T10021002 $", "K1LN 091355Z AUTO 24011KT 10SM FEW190 02/00 A2996 RMK AO2 SLP170 T00240003 $", "K1LW 091355Z AUTO 29012KT 10SM CLR 10/M02 A3019 RMK AO2 SLP204 T00981025 $", "K1M4 091356Z AUTO 12007KT 10SM OVC012 11/09 A3033 RMK AO2 SLP265 T01110094", "K1M5 091355Z AUTO 07007KT 10SM CLR 10/03 A3035 RMK A01", "K1MM 091355Z AUTO 22010KT 10SM CLR 07/M04 A3009 RMK AO2 SLP201 T00661039 $", "K1MW 091355Z AUTO 29004KT 10SM CLR 07/M03 A3018 RMK AO2 SLP207 T00741026 $", "K1NN 091355Z AUTO 27011KT 10SM CLR M A2998 RMK AO2 SLPNO ALSTG ESTMD $", "K1NW 091355Z AUTO 23007KT 10SM CLR 08/M01 A3019 RMK AO2 SLP204 T00751012 $", "K1OM 091355Z AUTO 21020KT 10SM CLR 09/M03 A3005 RMK AO2 SLP188 T00931030 $", "K1ON 091355Z AUTO 20003KT 10SM CLR M04/M07 M RMK AO2 SLPNO T10441069 $", "K1OW 091355Z AUTO 33014KT 10SM CLR 09/M03 A3031 RMK AO2 SLP248 T00871032 $", "K1P1 091355Z AUTO 00000KT 10SM CLR 02/M07 A3054 RMK AO2 T00231075", "K1R7 091355Z AUTO 00000KT 4SM BR OVC003 12/12 A3023 RMK AO2 PWINO", "K1R8 091355Z AUTO 04009G17KT 10SM OVC013 09/07 A3022 RMK AO2", "K1S3 091400Z AUTO 28003KT 10SM 06/M03 A3014 ", "K1S5 091355Z AUTO 00000KT 10SM -DZ SCT070 OVC075 09/05 A3009 RMK AO2 T00850053", "K1U7 091355Z AUTO 29003KT 3SM BR OVC055 M09/M09 A3033 RMK A01", "K1V4 091354Z AUTO 03/M08 A3052 RMK AO1 SLP345 T00281083", "K1YT 091355Z AUTO 00000KT 10SM -RA BKN050 OVC070 06/04 A3003 RMK AO2 SLP177 P0001 T00630040 $", "K20U 091355Z AUTO 26009KT 10SM CLR 05/00 A3009 RMK AO2", "K20V 091355Z AUTO 00000KT 10SM CLR M03/M03 A3038 RMK AO2", "K21D 091355Z AUTO 19010KT 10SM CLR 10/M01 A3023 RMK AO2", "K22N 091355Z AUTO 09006KT 10SM CLR 08/M09 A3052 RMK AO2", "K24A 091345Z AUTO 00000KT 10SM CLR 06/03 A3032 RMK AO2 T00650026", "K24J 091355Z AUTO 02008G17KT 10SM OVC007 10/10 A3018 RMK A01", "K2A0 091355Z AUTO VRB06G13KT 10SM CLR 11/02 A3035 RMK A01", "K2C8 091355Z AUTO 20007KT 3SM BR CLR M06/M06 A2997 RMK AO2", "K2D5 091355Z AUTO 18011KT 3SM BR SCT120 M02/M02 A3010 RMK AO2", "K2DP 091355Z AUTO 03015G20KT 10SM FEW095 11/09 A3030 RMK AO2 SLPNO T01080087 $", "K2G2 091350Z AUTO 05009KT 10SM CLR 08/M10 A3049 RMK A01", "K2G4 091355Z AUTO 35007KT 10SM CLR 07/M09 A3043 RMK AO2", "K2G9 091355Z AUTO 32004KT 10SM CLR 04/M06 A3045 RMK AO2", "K2I0 091355Z AUTO 09006KT 10SM CLR 12/M01 A3040 RMK AO2 T01171013", "K2IS 091355Z AUTO 35008KT 10SM CLR 25/20 A3003 RMK AO2 T02540198", "K2J3 091355Z AUTO 05008G18KT 10SM OVC013 08/06 A3031 RMK AO2 T00800057", "K2J5 091355Z AUTO 34011G16KT 10SM OVC012 08/06 A3030 RMK AO2 T00810059", "K2J9 091355Z AUTO 04011G16KT 020V080 10SM OVC009 10/09 A3021 RMK AO2", "K2M2 091355Z AUTO 05004KT 10SM OVC011 11/08 A3032 RMK A01", "K2P2 091355Z AUTO 19012G16KT 160V220 10SM CLR 05/04 A3040 RMK AO2 T00450040", "K2R9 091355Z AUTO 00000KT 5SM BR OVC003 15/14 A3021 RMK AO2 T01460139", "K2V5 091355Z AUTO 30007KT 10SM CLR 10/00 A3018 RMK AO2", "K2V6 091359Z AUTO 28007KT 10SM CLR 08/M01 A3019 RMK AO2", "K2W6 091349Z AUTO 05005KT 10SM CLR 10/M03 A3050 RMK AO1", "K2WX 091356Z AUTO 28009KT 07/M01 A3008 RMK AO1 SLP193 T00671011", "K33N 091355Z AUTO VRB05KT 10SM CLR 10/01 A3049 RMK A01", "K33V 091355Z AUTO 13004KT 10SM CLR M03/M06 A3033 RMK AO1", "K35A 091355Z AUTO 05007G17KT 010V110 10SM CLR 09/01 A3041 RMK A02 T00900014", "K36K 091355Z AUTO 32007KT 10SM CLR 12/M00 A3018 RMK AO2", "K38S 091400Z AUTO 27003KT 10SM 01/M01 A3024 ", "K3AU 091355Z AUTO 15007KT 10SM CLR 11/M03 A3023 RMK AO2", "K3D2 091355Z AUTO 20006KT 10SM 06/03 A3039 RMK AO2 T00640025", "K3F3 091355Z AUTO 06005KT 10SM OVC003 15/14 A3026 RMK AO2 T01450138", "K3J7 091355Z AUTO 03005KT 10SM SCT020 08/04 A3032 RMK AO2", "K3K3 091355Z AUTO 35004KT 10SM SCT110 11/M02 A3016 RMK AO2", "K3N8 091355Z AUTO 18011KT 10SM CLR 02/00 A3008 RMK AO2 T00210001", "K3R7 091355Z AUTO 03006KT 10SM OVC009 16/16 A3018 RMK AO2 T01560156", "K3S8 091355Z AUTO 00000KT 10SM BKN080 OVC100 07/05 A3015 RMK AO2", "K3T5 091355Z AUTO VRB03KT 10SM OVC032 15/15 A3020 RMK AO2 T01450145", "K3U3 091400Z AUTO 00000KT 10SM 02/M04 A3022 ", "K40B 091316Z AUTO VRB03KT 02/M12 A3040 RMK AO1 SLP326 T00231118 51010", "K40U 091355Z AUTO 00000KT 10SM CLR M08/M10 A3034 RMK AO2 T10841097", "K41U 091355Z AUTO 00000KT 10SM SCT085 00/00 A3031 RMK AO1 T00021005", "K42J 091355Z AUTO 01009G15KT 1 3/4SM BR OVC005 10/10 A3014 RMK A01", "K46D 091355Z AUTO 25008KT 10SM SCT095 03/01 A3005 RMK AO2", "K46U 091355Z AUTO 00000KT 10SM OVC055 M03/M05 A3034 RMK A01", "K48A 091355Z AUTO 04013G20KT 10SM OVC010 08/06 A3029 RMK AO2 T00790063", "K49A 091355Z AUTO 19003KT 10SM SCT005 OVC011 09/09 A3032 RMK AO2", "K4A6 091355Z AUTO 06007G12KT 10SM FEW017 11/08 A3034 RMK AO2", "K4A9 091355Z AUTO 05005KT 10SM OVC010 09/07 A3033 RMK AO2 T00910069", "K4BM 091355Z AUTO 27012G18KT 10SM CLR M02/M11 A3040 RMK AO2", "K4I3 091355Z AUTO 10004KT 10SM CLR 09/M02 A3051 RMK AO2", "K4M9 091355Z AUTO 06007KT 10SM 11/08 A3036 RMK AO2 PWINO", "K4MR 091355Z AUTO 14007KT 10SM CLR 13/07 A3016 RMK AO2 SLP159 T01300072 $", "K4O4 091355Z AUTO 06008KT 8SM CLR 13/12 A3026 RMK AO2", "K4R5 091355Z AUTO 23004KT 10SM CLR 03/00 A3020 RMK AO2 T00341002", "K4S1 091355Z AUTO 18012G18KT 7SM CLR 13/04 A3009 RMK AO2", "K4S2 091355Z AUTO 23003KT 10SM -RA OVC070 07/06 A3010 RMK AO2", "K4U6 091355Z AUTO 22008KT 10SM 03/01 A3006 RMK A01 Circle ", "K4V0 091355Z AUTO 10005KT 10SM CLR 01/M01 A3031 RMK AO2 T00071013", "K4V1 091355Z AUTO 26006KT 10SM CLR 07/M07 A3028 RMK AO2 T00711072", "K54A 091355Z AUTO VRB04KT 10SM BKN020 BKN032 BKN039 27/21 A3004 RMK AO2", "K54J 091355Z AUTO 04012G18KT 10SM OVC010 09/08 A3021 RMK AO2 T00940075", "K57C 091355Z AUTO 21008G15KT 10SM CLR 11/00 A3043 RMK AO2 T01051003", "K5A6 091355Z AUTO 08005KT 10SM 11/08 A3029 RMK AO2 T01060079", "K5C1 091355Z AUTO 06003KT 2 1/2SM OVC002 11/11 A3022 RMK AO1 VIS 1V5", "K5H4 091355Z AUTO 22007KT 10SM FEW095 SCT120 01/M11 A3003 RMK AO2", "K5R8 091355Z AUTO 00000KT 10SM OVC013 16/13 A3019 RMK AO2 T01570134", "K5SM 091355Z AUTO 26004KT 10SM CLR M04/M09 A3044 RMK AO2", "K5T9 091350Z AUTO 09010KT 2 1/2SM BR OVC004 15/15 A3016 RMK A01", "K63S 091355Z AUTO 00000KT 10SM OVC055 03/02 A3011 RMK A01", "K65S 091355Z AUTO 00000KT 10SM FEW050 BKN065 OVC080 05/M00 A3012 RMK AO2", "K66R 091355Z AUTO 00000KT 5SM HZ OVC031 A3021 RMK AO2", "K6A1 091355Z AUTO 07009KT 10SM OVC006 07/07 A3029 RMK AO2 T00740068", "K6A2 091355Z AUTO 04005KT 10SM OVC012 06/06 A3031 RMK AO2", "K6B0 091355Z AUTO 26004KT 10SM CLR 06/M09 A3055 RMK AO2 T00561087", "K6B9 091355Z AUTO 00000KT 10SM CLR 05/M08 A3054 RMK AO2", "K6I2 091355Z AUTO 06008KT 10SM CLR 12/M03 A3042 RMK AO2", "K6L4 091355Z AUTO 00000KT 10SM CLR 09/M05 A3042 RMK AO2", "K6P9 091355Z AUTO 22005KT 7SM SCT002 12/12 A3022 RMK AO2 T01200116", "K6R3 091355Z AUTO OVC030 18/15 A3020 RMK AO2 T01800153 PWINO TSNO", "K6R6 091351Z AUTO 11007KT 14/13 A3016 RMK AO1 SLP192 T01390133", "K6S0 091355Z AUTO 26014KT 10SM CLR 06/M04 A3018 RMK A01", "K6S2 091355Z AUTO 00000KT 10SM OVC029 09/09 A3005 RMK AO2", "K6S8 091355Z AUTO 20004KT 10SM 05/M03 A3018 RMK A01 LAUREL", "K74V 091355Z AUTO 00000KT 10SM 02/M01 A3032 RMK AO2", "K77S 091355Z AUTO 00000KT 10SM OVC070 09/08 A3007 RMK A01", "K79J 091356Z AUTO 04007G16KT 10SM OVC010 11/07 A3022 RMK AO2 SLP232 T01060067", "K7BM 091355Z AUTO 34004KT 10SM CLR 00/M10 A3036 RMK AO2", "K7L2 091355Z AUTO 12006KT 9SM CLR M01/M01 A3009 RMK AO2", "K7W4 091355Z AUTO 10SM CLR 09/00 A3048 RMK AO1 T00891002", "K81R 091355Z AUTO 00000KT 10SM OVC011 14/13 A3022 RMK AO2 T01450130", "K82C 091355Z AUTO 15006KT 10SM CLR 10/01 A3036 RMK AO2 T01000011", "K8A0 091355Z AUTO 10006KT 10SM OVC010 09/07 A3032 RMK AO2", "K8A3 091355Z AUTO 06007KT 040V100 10SM CLR 09/04 A3034 RMK A01", "K8B0 091355Z AUTO 26007KT 10SM CLR 01/M12 A3044 RMK AO2", "K8D3 091356Z AUTO 01004KT 03/00 A3009 RMK AO1 SLP206 T00280000", "K8T6 091355Z AUTO 01004KT 2SM BR OVC003 15/15 A3019 RMK AO2", "K8W2 091355Z AUTO 00000KT 10SM CLR 06/M01 A3048 RMK AO1 T00581010", "K96D 091355Z AUTO VRB04KT 10SM CLR 02/M00 A2996 RMK AO2", "K9A5 091355Z AUTO 04005KT 10SM OVC013 08/07 A3035 RMK AO2 T00820070", "K9D7 091355Z AUTO 25009KT 8SM CLR M03/M03 A3001 RMK AO2 TSNO", "K9L2 091355Z AUTO 34003KT 10SM CLR 04/01 A3015 RMK AO2 SLP205 T00360011", "K9MN 091355Z AUTO 19009G19KT 120V220 10SM CLR 11/M03 A3029 RMK AO1 T01131031", "K9V9 091355Z AUTO 00000KT 10SM CLR 07/04 A3011 RMK AO2 T00730039", "KA39 091355Z AUTO 13007KT 10SM SCT075 BKN095 BKN120 13/M03 A3010 RMK AO2", "KAAA 091358Z AUTO 14004KT 10SM CLR 10/01 A3044 RMK AO2", "KAAF 091353Z AUTO 05014G20KT 10SM BKN010 12/11 A3016 RMK AO2 SLP211 T01170106", "KAAO 091354Z AUTO 17006KT 10SM CLR 13/M02 A3022 RMK AO2 SLP231 T01281022", "KAAS 091355Z AUTO 12007KT 10SM CLR 11/M05 A3044 RMK AO1", "KAAT 091355Z AUTO 00000KT 10SM BKN100 M01/M03 A3022 RMK AO2 SLP232 T10061033", "KABE 091351Z 07009KT 10SM CLR 09/M06 A3050 RMK AO2 SLP331 T00891061", "KABH 091355Z AUTO 00000KT 10SM CLR 06/M04 A3026 RMK AO2 SLP225 T00641041", "KABI 091352Z 13010KT 10SM CLR 13/11 A3019 RMK AO2 SLP210 T01330111", "KABQ 091352Z 35010KT 10SM FEW190 BKN250 08/M04 A3024 RMK AO2 SLP197 T00831039", "KABR 091353Z AUTO 17004KT 7SM BKN120 01/M02 A3011 RMK AO2 SLP208 T00061017", "KABY 091353Z 05018G22KT 10SM OVC013 10/07 A3026 RMK AO2 SLP246 T01000072", "KACB 091355Z AUTO 09004KT 10SM CLR 05/00 A3046 RMK AO2 T00530004", "KACK 091353Z 05013G19KT 10SM CLR 07/M06 A3053 RMK AO2 SLP339 T00671056", "KACP 091355Z AUTO 02004KT 5SM BR OVC006 15/13 A3019 RMK AO2", "KACQ 091355Z AUTO 18017KT 10SM CLR 10/00 A3025 RMK AO2", "KACT 091351Z 00000KT 10SM OVC036 15/14 A3021 RMK AO2 SLP226 T01500144", "KACV 091353Z AUTO 00000KT 10SM CLR 06/04 A3014 RMK AO2 SLP214 T00610044", "KACY 091354Z 05007KT 10SM CLR 10/M02 A3049 RMK AO2 SLP326 T01001017 $", "KACZ 091345Z AUTO 01011G17KT 10SM -RA OVC009 08/07 A3032 RMK AO2 P0001 T00810070", "KADC 091356Z AUTO 25006KT 10SM CLR 06/M01 A3011 RMK AO2 TSNO", "KADF 091356Z AUTO 04005KT 10SM OVC007 13/12 A3029 RMK AO2 SLP254 T01330117", "KADG 091353Z AUTO 10003KT 10SM CLR 07/M01 A3053 RMK AO2 SLP344 T00721006", "KADH 091350Z AUTO 15008KT 10SM CLR 13/08 A3025 RMK AO2", "KADM 091350Z 00000KT 10SM CLR 12/09 A3023", "KADS 091347Z 08005KT 13SM OVC038 15/11 A3022", "KADT 091355Z AUTO 34007KT 10SM CLR 13/00 A3020 RMK AO2 T01301004", "KADU 091355Z AUTO 17012G16KT 10SM SCT005 BKN025 BKN049 12/M04 A3025 RMK AO2 PWINO", "KADW 091355Z AUTO 03007KT 10SM CLR 10/01 A3047 RMK AO2 SLP326 T00960007 $", "KAEG 091350Z 01007KT 10SM CLR 09/M06 A3025", "KAEJ 091355Z AUTO 00000KT 10SM CLR M02/M07 A3035 RMK AO2 T10231075", "KAEL 091355Z AUTO 18010G14KT 10SM 11/M01 A3026 RMK AO2", "KAEX 091405Z 06007KT 10SM OVC009 16/13 A3020 RMK AO2 T01560128", "KAFF 091355Z AUTO 35003KT 10SM CLR 04/M03 A3025 RMK AO2 SLP218 T00351033", "KAFJ 091356Z AUTO 01008KT 10SM CLR 08/M06 A3052 RMK AO2 SLP339 T00781056", "KAFK 091355Z AUTO 17012G18KT 10SM CLR 11/M02 A3024 RMK AO2 T01101017", "KAFN 091352Z AUTO VRB03KT 10SM CLR 06/M13 A3052 RMK AO2 SLP350 T00611128", "KAFO 091355Z AUTO 00000KT 10SM BKN050 M05/M08 A3032 RMK AO2", "KAFP 091349Z AUTO 01010G16KT 10SM CLR 09/04 A3037 RMK AO2 T00870038", "KAFW 091353Z 00000KT 9SM OVC037 14/12 A3020 RMK AO2 SLP222 T01390117", "KAGC 091353Z 01003KT 10SM CLR 08/M06 A3048 RMK AO2 SLP332 T00831061", "KAGI 091355Z AUTO 03009G15KT 10SM SCT017 OVC038 23/18 A3011 RMK AO2 T02320177", "KAGO 091355Z AUTO VRB04KT 9SM OVC008 14/12 A3024 RMK A01", "KAGS 091353Z 01012KT 10SM OVC018 09/06 A3031 RMK AO2 SLP264 T00890056", "KAHN 091351Z 06012G19KT 10SM CLR 09/03 A3034 RMK AO2 SLP277 T00890028", "KAHQ 091355Z AUTO 15013KT 10SM 10/M04 A3021 RMK AO2 T00991041", "KAIA 091353Z AUTO 29006KT 10SM CLR 03/M01 A3016 RMK AO2 SLP209 T00331006 $", "KAID 091355Z AUTO 10005KT 10SM CLR 10/M03 A3049 RMK AO2 T00961026", "KAIG 091355Z AUTO 18008KT 10SM CLR 03/00 A3036 RMK AO2 T00261005", "KAIK 091355Z AUTO 04013G22KT 10SM OVC016 08/05 A3032 RMK AO2 T00780049", "KAIO 091355Z AUTO 17011KT 10SM CLR 11/M01 A3026 RMK AO2", "KAIT 091355Z AUTO 19008KT 10SM CLR 07/M03 A3012 RMK AO2", "KAIZ 091356Z AUTO 14006KT 10SM CLR 12/01 RMK AO2 SLPNO T01170011 $", "KAJG 091355Z AUTO 08008KT 10SM CLR 11/M03 A3044 RMK AO2 T01141026", "KAJO 091356Z AUTO 00000KT 10SM CLR 08/08 A3010 RMK AO2 SLP191 T00780078", "KAJR 091355Z AUTO 05010G21KT 10SM CLR 09/M01 A3034 RMK AO2 T00921007", "KAJZ 091355Z AUTO 06005KT 10SM CLR 05/M03 A3032 RMK AO2 T00501030", "KAKH 091354Z AUTO 05016G23KT 10SM CLR 09/M02 A3039 RMK AO2 SLP294 T00891017", "KAKO 091353Z AUTO 23005KT 10SM CLR 08/M02 A3020 RMK AO2 SLP206 T00831017 $", "KAKQ 091354Z AUTO 07008G14KT 10SM CLR 11/01 A3043 RMK AO2 SLP307 T01060006 PWINO", "KAKR 091354Z AUTO 08008KT 10SM CLR 09/M07 A3050 RMK AO2 SLP334 T00941067", "KALB 091351Z 35003KT 10SM FEW250 06/M08 A3058 RMK AO2 SLP356 T00611083", "KALI 091353Z AUTO 03007KT 3SM BR OVC003 16/16 A3017 RMK AO2 SLP214 T01560156 PNO $", "KALK 091356Z AUTO 27004KT 10SM CLR 10/M07 A3021 RMK AO2 SLP163 T01001072", "KALM 091355Z AUTO 10SM CLR 13/M01 A3017 RMK AO2", "KALN 091350Z 12008KT 10SM CLR 10/00 A3041", "KALO 091354Z 16012KT 10SM CLR 11/M02 A3032 RMK AO2 SLP269 T01111017", "KALS 091352Z AUTO 24003KT 10SM CLR M01/M09 A3033 RMK AO2 SLP250 T10111094", "KALW 091353Z 09006KT 10SM SCT090 OVC120 09/02 A3007 RMK AO2 SLP185 T00890022", "KAMA 091353Z 14006KT 10SM OVC090 12/09 A3018 RMK AO2 RAB1256E36 SLP188 P0001 T01170094", "KAMG 091353Z AUTO 03007KT 10SM OVC011 10/07 A3022 RMK AO2 SLP233 T01000072", "KAMN 091355Z AUTO 00000KT 10SM CLR 06/00 A3051 RMK AO2 T00610001", "KAMW 091353Z AUTO 16013KT 10SM CLR 12/00 A3029 RMK AO2 SLP257 T01170000", "KANB 091353Z AUTO 06010KT 10SM CLR 11/04 A3031 RMK AO2 SLP268 T01060044", "KAND 091356Z AUTO 06015G21KT 10SM CLR 10/M01 A3036 RMK AO2 SLP281 T01001006", "KANE 091345Z 18010KT 10SM FEW150 BKN250 12/M02 A3019", "KANJ 091355Z AUTO 12006KT 7SM OVC004 M01/M01 A3049 RMK AO2 SLP331 T10111011", "KANK 091355Z AUTO 00000KT 10SM CLR 01/M07 A3042 RMK AO1 T00051066", "KANQ 091355Z AUTO 16004KT 10SM CLR 09/M03 A3050 RMK AO2", "KANW 091355Z AUTO 23003KT 10SM CLR 11/03 A3010 RMK AO2 T01090027", "KAOH 091353Z AUTO 14006KT 10SM CLR 11/M01 A3050 RMK AO2 SLP332 T01061011", "KAOO 091353Z AUTO VRB04KT 10SM CLR 06/M04 A3048 RMK AO2 SLP331 T00611039", "KAPA 091353Z 16004KT 10SM FEW090 SCT160 SCT220 07/M03 A3023 RMK AO2 SLP217 T00721028", "KAPC 091354Z AUTO 03003KT 10SM CLR A3018 RMK AO2 SLP213 $", "KAPF 091353Z VRB03KT 10SM CLR 27/21 A3003 RMK AO2 SLP166 T02670211", "KAPN 091404Z AUTO 17009KT 10SM OVC006 01/01 A3052 RMK AO2 CIG 004V009 T00110011", "KAPS 091359Z AUTO 06005KT 10SM OVC013 15/12 A3019 RMK AO2", "KAPY 091355Z AUTO 12003KT 10SM OVC009 19/17 A3017 RMK AO2 T01870167 TSNO", "KAQO 091355Z AUTO 00000KT 4SM BR OVC004 14/13 A3022 RMK AO2", "KAQP 091353Z AUTO 18005KT 10SM 06/M01 A3013 RMK AO2", "KAQV 091357Z AUTO VRB05KT 10SM OVC011 15/12 A3019 RMK AO2 SLP223 T01500122", "KAQW 091352Z AUTO 10SM CLR A3054 RMK AO2 SLPNO TSNO $", "KAQX 091355Z AUTO 01009G15KT 10SM OVC012 08/06 A3028 RMK AO2", "KARA 091353Z 05010KT 10SM OVC006 17/14 A3016 RMK AO2 SLP213 T01670144", "KARB 091353Z 11003KT 10SM CLR 08/M03 A3052 RMK AO2 SLP340 T00781033", "KARG 091356Z AUTO 06008KT 10SM OVC021 12/09 A3034 RMK AO2 SLP275 T01170089", "KARM 091355Z AUTO 04004KT 10SM CLR 15/15 A3019 RMK AO2 T01540154 TSNO", "KARR 091352Z 15007KT 8SM CLR 10/01 A3045 RMK AO2 SLP312 T01000006", "KART 091356Z AUTO 27006KT 10SM CLR 05/M02 A3057 RMK AO2 SLP356 T00501017", "KARV 091355Z AUTO 19008KT 10SM CLR 04/M01 A3030 RMK AO2 T00391013", "KARW 091355Z AUTO 02019G24KT 10SM OVC011 10/08 A3023 RMK AO2", "KASD 091353Z AUTO 03010G16KT 10SM BKN013 OVC028 14/10 A3019 RMK AO2 SLP221 T01390100", "KASE 091353Z 21005KT 10SM CLR M01/M09 A3034 RMK AO2 SLP240 T10061094 $", "KASG 091348Z 09009KT 10SM CLR 12/10 A3029", "KASH 091356Z VRB03KT 10SM CLR 06/M10 A3056 RMK AO2 SLP356 T00611100", "KASJ 091345Z AUTO 03014G18KT 10SM CLR 09/02 A3040 RMK AO2 T00860024", "KASL 091355Z AUTO VRB03KT 10SM OVC010 14/13 A3022 RMK AO2 CIG 009V011 T01400131 $", "KASN 091355Z AUTO 10006KT 10SM CLR 12/06 A3032 RMK AO2 T01170055", "KAST 091355Z AUTO VRB06KT 3SM -RA BR FEW007 OVC013 10/08 A2999 RMK AO2 RAE12B39 SLP155 P0002 T01000083", "KASW 091355Z AUTO 13006KT 10SM CLR 10/M01 A3049 RMK AO2 T01031014", "KASX 091353Z AUTO 20009KT 10SM CLR 07/M02 A3020 RMK AO2 SLP238 T00671017", "KATA 091355Z AUTO 06003KT 10SM SCT015 OVC032 13/12 A3024 RMK AO2 SLP140 T01290118 $", "KATL 091352Z 07016G23KT 10SM BKN023 09/03 A3031 RMK AO2 PK WND 07028/1307 SLP268 T00940033", "KATP 091355Z AUTO 02012G18KT 8SM FEW022 OVC034 24/20 A3008 RMK A01", "KATS 091355Z AUTO 00000KT 10SM CLR 10/04 A3019 RMK AO2", "KATT 091351Z AUTO 00000KT 10SM OVC030 16/14 A3022 RMK AO2 SLP230 T01560139", "KATW 091345Z 19009KT 10SM CLR 07/00 A3038", "KATY 091353Z AUTO 14008KT 10SM SCT070 BKN100 06/00 A3009 RMK AO2 RAB27E47 SLP199 P0000 T00560000 $", "KAUG 091353Z AUTO VRB03KT 10SM CLR 06/M11 A3051 RMK AO2 SLP336 T00611106", "KAUH 091355Z AUTO 19009G14KT 10SM SCT120 10/M03 A3015 RMK AO2 T01041034", "KAUM 091356Z AUTO 20017G21KT 10SM CLR 11/M01 A3028 RMK AO2", "KAUN 091355Z AUTO 00000KT 10SM CLR 09/07 A3017 RMK A01", "KAUO 091353Z AUTO 06011G16KT 10SM OVC008 08/07 A3029 RMK AO2 SLP256 T00780067 PNO $", "KAUS 091353Z 35003KT 10SM FEW016 OVC029 15/14 A3021 RMK AO2 SLP227 T01500139", "KAUW 091354Z AUTO 16004KT 10SM CLR 06/00 A3034 RMK AO2 SLP288 T00560000", "KAVC 091355Z AUTO 06006KT 10SM CLR 09/01 A3049 RMK AO2 T00920010", "KAVK 091400Z AUTO 19006KT 10SM CLR 11/01 A3019 RMK AO2 PWINO", "KAVL 091354Z 10SM CLR 09/M06 A3037 RMK AO2 SLP286 T00891061", "KAVP 091354Z 00000KT 10SM CLR 07/M08 A3050 RMK AO2 SLP332 T00671083", "KAVQ 091355Z AUTO 11006KT 10SM 12/M06 A3009 RMK AO2 T01221060", "KAVX 091351Z AUTO 00000KT 10SM CLR 12/08 A3009 RMK AO2 SLP189 T01220078", "KAWG 091355Z AUTO 17008KT 10SM CLR 11/M01 A3036 RMK AO2", "KAWM 091353Z AUTO 07006KT 10SM OVC017 13/11 A3031 RMK AO2 SLP264 T01330106", "KAWO 091356Z AUTO 13016KT 10SM CLR 11/07 A3000 RMK AO2 SLP162 T01060072", "KAXA 091355Z AUTO 18020KT 10SM CLR 10/M02 A3022 RMK A01", "KAXH 091355Z AUTO 06004KT 10SM BKN018 OVC025 17/17 A3019 RMK AO2 T01720165", "KAXN 091353Z AUTO 22009KT 10SM OVC110 04/M02 A3014 RMK AO2 SLP219 T00391017", "KAXS 091355Z AUTO 13003KT 10SM SCT046 12/10 A3023 RMK AO2 LTG DSNT NW T01160096", "KAXV 091355Z AUTO 11007KT 10SM CLR 09/M01 A3050 RMK AO2", "KAXX 091355Z AUTO 00000KT 10SM CLR M03/M05 A3036 RMK AO2 T10281049", "KAYS 091355Z AUTO 06007KT 10SM OVC010 10/09 A3022 RMK AO2 T00990092", "KAZC 091355Z AUTO 14005KT 10SM CLR 02/00 A3028 RMK AO2", "KAZE 091355Z AUTO 04012G17KT 10SM OVC008 09/08 A3024 RMK AO2 T00900075", "KAZO 091353Z 19008KT 10SM CLR 10/M02 A3049 RMK AO2 SLP331 T01001017", "KBAB 091355Z AUTO 01003KT 10SM CLR 07/06 A3016 RMK AO2 SLP216 T00700064 $", "KBAC 091355Z AUTO 18006KT 9SM CLR M02/M02 A3006 RMK AO2", "KBAD 091355Z AUTO 01003KT 10SM BKN008 OVC013 14/12 A3023 RMK AO2 CIG 008V011 SLP240 T01370121 $", "KBAF 091353Z 35003KT 10SM CLR 07/M09 A3055 RMK AO2 SLP351 T00671094", "KBAK 091355Z 00000KT 10SM CLR 09/M01 A3047", "KBAM 091355Z AUTO 20003KT 10SM CLR M01/M03 A3027 RMK AO1", "KBAN 091352Z AUTO 00000KT 10SM CLR M04/M08 A3028 RMK AO2 SLP255 I1000 T10441078 $", "KBAX 091355Z AUTO 19005KT 10SM CLR 07/03 A3052 RMK AO2 T00670025", "KBAZ 091351Z 33003KT 4SM BR OVC006 15/14 A3020 RMK AO2 SLP222 T01500139", "KBBB 091357Z AUTO 17004KT 10SM CLR 04/M02 A3015 RMK AO2", "KBBD 091355Z AUTO 12005KT 1/4SM FG OVC002 13/13 A3020 RMK AO2", "KBBG 091345Z 12008KT 10SM BKN017 10/09 A3032", "KBBP 091355Z AUTO 03014KT 10SM BKN019 BKN100 09/06 A3035 RMK AO2", "KBBW 091353Z AUTO 19008KT 10SM CLR 11/M02 A3012 RMK AO2 SLP191 T01061017", "KBCB 091355Z AUTO 11004KT 10SM CLR 07/M04 A3045 RMK AO2 T00661042", "KBCE 091353Z AUTO 28009KT 10SM CLR M04/M07 A3034 RMK AO2 SLP255 T10441072 $", "KBCK 091355Z AUTO 00000KT 10SM CLR 09/00 A3033 RMK AO2 T00941003", "KBCR 091358Z AUTO 02008G15KT 10SM OVC012 10/08 A3022 RMK AO2 SLP218 T01000083", "KBCT 091353Z 27008KT 10SM SCT060 26/20 A3002", "KBDE 091353Z AUTO 23009KT 10SM CLR 05/M01 A2999 RMK AO2 SLP165 T00501011 $", "KBDG 091355Z AUTO 36004KT 10SM 06/M06 A3034 RMK AO1 T00571057", "KBDH 091355Z AUTO 00000KT 10SM CLR 06/M02 A3020 RMK AO2", "KBDL 091351Z COR VRB03KT 10SM FEW250 07/M07 A3055 RMK AO2 SLP347 T00671072 $", "KBDN 091355Z AUTO 00000KT 10SM SCT055 BKN080 08/M01 A3008 RMK AO2", "KBDR 091352Z 06013KT 10SM CLR 08/M07 A3054 RMK AO2 SLP342 T00781067", "KBDU 091355Z AUTO 00000KT 10SM CLR 08/M03 A3020 RMK AO2", "KBEA 091355Z AUTO 02004KT 10SM BKN002 BKN012 OVC020 14/14 A3018 RMK AO2 T01410135 PWINO", "KBEC 091355Z AUTO 16007KT 10SM CLR 12/M02 A3022 RMK AO2 T01231025", "KBED 091351Z 15004KT 10SM CLR 07/M07 A3055 RMK AO2 SLP359 T00671072", "KBEH 091353Z AUTO 15006KT 10SM CLR 11/01 A3047 RMK AO2 SLP323 T01110006", "KBFD 091353Z AUTO 07007KT 10SM CLR 06/M07 A3049 RMK AO2 SLP337 T00561067", "KBFF 091353Z AUTO 31006KT 10SM CLR 03/M02 A3019 RMK AO2 SLP217 T00331017", "KBFI 091353Z 14005KT 7SM -RA FEW039 SCT047 OVC055 09/08 A3001 RMK AO2 SLP162 P0001 T00890078", "KBFL 091354Z 13004KT 7SM CLR 12/09 A3016 RMK AO2 SLP210 T01170089", "KBFM 091353Z 03013G20KT 10SM OVC013 12/08 A3023 RMK AO2 SLP234 T01170078 $", "KBFR 091355Z AUTO 09008KT 10SM CLR 11/M06 A3044 RMK AO2", "KBGD 091351Z AUTO VRB06G16KT 10SM OVC100 18/06 A3017 RMK AO2 PK WND 17026/1301 PRESRR SLP187 T01780061 $", "KBGE 091355Z AUTO 05013G19KT 10SM OVC012 10/08 A3022 RMK AO2 T01020080", "KBGF 091355Z AUTO VRB03KT 10SM CLR 10/06 A3032 RMK A01", "KBGM 091353Z 06005KT 10SM CLR 04/M12 A3050 RMK AO2 SLP340 T00441122 $", "KBGR 091353Z VRB06G15KT 10SM CLR 06/M10 A3049 RMK AO2 SLP328 T00561100", "KBHB 091356Z AUTO VRB05KT 10SM CLR 06/M11 A3050 RMK AO2 SLP330 T00561111", "KBHC 091355Z AUTO 05007KT 10SM OVC011 08/06 A3024 RMK AO2", "KBHK 091351Z AUTO 00000KT 10SM CLR 05/M02 A3012 RMK AO2 SLP205 T00501022", "KBHM 091353Z 08010G19KT 10SM FEW150 12/05 A3032 RMK AO2 SLP264 T01170050 $", "KBID 091356Z AUTO 05011G15KT 10SM CLR 06/M03 A3055 RMK AO2 SLP346 T00561033", "KBIE 091355Z AUTO 15010G14KT 10SM CLR 10/M03 A3021 RMK AO2 T01041035", "KBIF 091255Z AUTO 03005KT 10SM CLR 09/02 A3011 RMK AO2 SLP150 T00860022 $", "KBIH 091356Z AUTO 31004KT 10SM CLR 03/M01 A3022 RMK AO2 SLP214 T00281011", "KBIL 091353Z 20008KT 10SM CLR 05/M02 A3016 RMK AO2 SLP219 T00501022", "KBIS 091352Z 00000KT 6SM BR CLR M02/M04 A3005 RMK AO2 SLP199 T10221039", "KBIV 091353Z AUTO 19006KT 10SM CLR 10/01 A3047 RMK AO2 SLP324 T01000011", "KBIX 091355Z AUTO 05010KT 10SM OVC010 11/09 A3018 RMK AO2 SLP223 T01140086", "KBJC 091348Z 20003KT 10SM FEW120 09/M04 A3023", "KBJI 091355Z AUTO 22005KT 10SM CLR 05/M01 A3006 RMK AO2 T00521006", "KBJJ 091356Z AUTO 10007KT 10SM CLR 08/M02 A3051 RMK AO2 SLP340 T00781022", "KBKB 091352Z AUTO 00000KT 10SM OVC013 15/13 A3017 RMK AO2 SLP246 T01500133", "KBKD 091355Z AUTO 19004KT 5SM BR OVC003 13/13 A3022 RMK AO2 T01320132", "KBKE 091353Z AUTO 00000KT 10SM BKN110 M01/M02 A3017 RMK AO2 SLP230 T10111017 $", "KBKF 091358Z 20008KT 10SM FEW090 FEW220 07/M04 A3022 RMK AO2A SLP201 T00731042", "KBKL 091353Z 36004KT 10SM CLR 08/M04 A3052 RMK AO2 SLP338 T00781044", "KBKN 091355Z AUTO 12003KT CLR 10/M00 A3023 RMK AO2", "KBKS 091355Z AUTO 04007KT 9SM OVC007 17/17 A3015 RMK AO2 SLP171 T01700167 $", "KBKT 091355Z AUTO 04012G17KT 10SM CLR 09/M01 A3045 RMK AO1 T00881008", "KBKV 091353Z 04010KT 10SM OVC006 19/18 A3008 RMK AO2 SLP183 T01890178", "KBKW 091351Z AUTO VRB04KT 10SM CLR 08/M10 A3041 RMK AO2 SLP307 T00781100", "KBKX 091356Z AUTO 14007KT 10SM -RA BKN065 OVC080 07/00 A3014 RMK AO2 RAB38 SLP228 P0000 T00670000", "KBLF 091352Z AUTO 10007KT 10SM CLR 04/M06 A3040 RMK AO2 SLP302 T00391056", "KBLI 091353Z 15017G29KT 10SM -RA BKN034 BKN060 OVC090 12/08 A2992 RMK AO2 PK WND 17031/1311 RAB20 SLP140 P0000 T01170078", "KBLM 091356Z AUTO 06010KT 10SM CLR 08/M01 A3052 RMK AO2 SLP335 T00831006", "KBLU 091352Z AUTO 09003KT 10SM CLR 08/M05 A3024 RMK AO2 SLP210 T00781050", "KBLV 091355Z 12008KT 10SM FEW250 11/M00 A3040 RMK AO2A SLP298 T01081004 $", "KBMC 091355Z AUTO 32005KT 10SM CLR 03/00 A3028 RMK AO1 T00300000", "KBMG 091353Z 10007KT 10SM CLR 12/M05 A3045 RMK AO2 SLP311 T01171050", "KBMI 091356Z 16010KT 10SM CLR 12/M03 A3046 RMK AO2 SLP315 T01171028", "KBML 091352Z AUTO 00000KT 10SM CLR 03/M10 A3048 RMK AO2 SLP339 T00331100", "KBMQ 091353Z AUTO 00000KT 10SM BKN004 OVC022 14/13 A3023 RMK AO2 SLP230 T01390133 $", "KBMT 091355Z AUTO 06006KT 10SM OVC011 17/15 A3018 RMK AO2 T01700147", "KBNA 091353Z 06007KT 10SM SCT035 11/07 A3037 RMK AO2 SLP283 T01110067", "KBNL 091355Z AUTO 12014G19KT 10SM OVC013 08/06 A3030 RMK AO2", "KBNO 091353Z AUTO 00000KT 10SM OVC100 01/M02 A3020 RMK AO2 SLP235 T00061017 $", "KBNW 091355Z AUTO 18016KT 10SM CLR 12/M02 A3029 RMK AO2", "KBOI 091353Z 12005KT 10SM CLR 06/M01 A3020 RMK AO2 SLP224 T00611006", "KBOK 091356Z AUTO VRB05KT 10SM OVC028 11/02 A3014 RMK AO2 SLP208 T01110017 PNO $", "KBOS 091354Z 11004KT 10SM FEW250 06/M07 A3056 RMK AO2 SLP349 T00611067", "KBOW 091315Z AUTO 03010KT 10SM BKN014 BKN019 OVC036 23/19 A3004 RMK AO2", "KBPC 091355Z AUTO 21009KT 10SM SCT120 16/08 A3016 RMK AO2", "KBPG 091355Z AUTO 17011KT 10SM SCT009 15/12 A3018 RMK AO2 T01460117", "KBPI 091353Z AUTO 00000KT 10SM CLR M09/M10 A3031 RMK AO2 SLP300 T10891100", "KBPK 091353Z AUTO 12006KT 10SM OVC022 11/07 A3032 RMK AO2 SLP264 T01060072", "KBPT 091353Z 05010KT 10SM OVC013 17/14 A3018 RMK AO2 SLP218 T01720139", "KBQK 091355Z AUTO 01007G14KT 10SM OVC008 10/09 A3019 RMK AO2 T01010086", "KBQP 091355Z AUTO 08005KT 10SM OVC013 13/12 A3026 RMK AO2 T01320118", "KBQX 091355Z AUTO 04007KT 10SM CLR 21/18 A3017 RMK A01", "KBRD 091353Z AUTO 21009KT 10SM CLR 07/M03 A3013 RMK AO2 SLP211 T00721028", "KBRG 091355Z AUTO 33006KT 10SM CLR 09/M07 A3025 RMK AO2 T00941067", "KBRL 091353Z AUTO 19011KT 10SM CLR 12/M02 A3039 RMK AO2 SLP291 T01171022", "KBRO 091353Z 36005KT 10SM FEW065 BKN095 20/19 A3011 RMK AO2 SLP195 T02000189 $", "KBRY 091355Z AUTO 10004KT 10SM CLR 10/M05 A3040 RMK AO2 T01051048", "KBTA 091355Z AUTO 16013G17KT 10SM CLR 11/M04 A3022 RMK AO2 T01121038", "KBTL 091353Z 20005KT 10SM CLR 09/M03 A3049 RMK AO2 SLP331 T00941028", "KBTM 091353Z AUTO 19003KT 10SM CLR M04/M07 A3023 RMK AO2 SLP256 T10391067", "KBTN 091355Z AUTO 15006KT 10SM CLR 02/02 A3009 RMK AO2", "KBTP 091356Z AUTO 06007KT 10SM CLR 07/M07 A3051 RMK AO2 SLP345 T00721067 TSNO $", "KBTR 091353Z 05006KT 10SM BKN012 OVC026 16/12 A3018 RMK AO2 SLP220 T01560122", "KBTV 091354Z 23005KT 10SM CLR 06/M09 A3055 RMK AO2 SLP348 T00561089", "KBUF 091354Z 09005KT 10SM FEW220 06/M07 A3056 RMK AO2 SLP355 T00561072 $", "KBUR 091400Z 11003KT 1SM BR OVC002 11/11 A3010 RMK AO2 T01060106 RVRNO", "KBUU 091355Z AUTO 19006KT 10SM CLR 10/03 A3044 RMK AO2 T01020027 PWINO", "KBUY 091354Z AUTO 03010G16KT 10SM CLR 08/01 A3041 RMK AO2 SLP301 T00780006", "KBVI 091355Z AUTO 06004KT 10SM CLR 09/M10 A3051 RMK AO2 T00911097", "KBVN 091355Z AUTO 10003KT SCT120 10/M03 A3016 RMK AO2 T00971029", "KBVO 091353Z AUTO 14006KT 10SM CLR 13/07 A3027 RMK AO2 SLP246 T01280067", "KBVS 091355Z AUTO 14012G22KT 10SM FEW030 SCT050 BKN065 12/08 A2996 RMK A01", "KBVU 091355Z AUTO 00000KT 10SM CLR 13/M03 A3014 RMK AO2", "KBVX 091356Z AUTO 09005KT 10SM OVC010 12/11 A3034 RMK AO2 SLP272 T01220106", "KBVY 091353Z 32004KT 10SM CLR 06/M09 A3055 RMK AO2 SLP340 T00611089", "KBWD 091355Z AUTO 13006KT 7SM BKN006 14/14 A3022 RMK AO1", "KBWG 091353Z AUTO 06007KT 10SM CLR 11/M02 A3039 RMK AO2 SLP292 T01111022", "KBWI 091354Z 07004KT 10SM FEW250 11/M01 A3049 RMK AO2 SLP325 T01111006", "KBWP 091355Z AUTO 14005KT 10SM SCT120 02/M00 A3011 RMK AO2", "KBWW 091355Z AUTO 28013KT 10SM CLR 06/M01 A3008 RMK AO2", "KBXA 091355Z AUTO 05008KT 10SM OVC013 13/09 A3022 RMK AO2 T01270094", "KBXK 091355Z AUTO 00000KT 8SM CLR 12/M03 A3007 RMK A01", "KBYG 091353Z AUTO 24007KT 10SM CLR 06/M04 A3016 RMK AO2 SLP215 T00611039", "KBYI 091353Z AUTO 00000KT 10SM CLR 01/M01 A3026 RMK AO2 SLP246 T00061011", "KBYL 091355Z AUTO 06005KT 10SM CLR 09/00 A3038 RMK AO1", "KBYS 091355Z AUTO 04003KT 9SM CLR 10/00 A3011 RMK AO2 SLP184 T01040004 $", "KBYY 091355Z AUTO 03006KT 10SM 16/15 A3018 RMK AO2 T01610155", "KBZN 091356Z 11005KT 10SM CLR M01/M05 A3022 RMK AO2 SLP251 T10061050", "KC09 091355Z AUTO 16007KT 10SM CLR 11/01 A3046 RMK AO2 T01090007", "KC29 091355Z AUTO 20011KT 10SM CLR 12/00 A3040 RMK AO1 T01151004", "KC35 091355Z AUTO 18009KT 10SM CLR 10/00 A3037 RMK AO2 T01021002 PWINO", "KC62 091355Z AUTO 15005KT 10SM CLR 09/M01 A3050 RMK AO2 T00951016", "KC65 091355Z AUTO 13004KT 10SM CLR 09/M00 A3048 RMK A01", "KC75 091355Z AUTO 15007KT 130V230 10SM CLR 11/02 A3044 RMK AO2 T01090016", "KC83 091355Z AUTO 27005KT 10SM CLR 07/06 A3017 RMK AO2", "KC99 091355Z AUTO 30015G25KT 10SM CLR M02/M11 A3032 RMK AO2", "KCAD 091355Z AUTO 17003KT 10SM CLR 05/00 A3045 RMK AO2 T00510000", "KCAE 091356Z 02012G17KT 10SM BKN015 BKN060 09/05 A3033 RMK AO2 SLP270 T00890050", "KCAG 091353Z AUTO 00000KT 10SM CLR M06/M08 A3033 RMK AO2 SLP303 T10611083", "KCAK 091351Z 09009KT 10SM CLR 09/M04 A3051 RMK AO2 SLP338 T00891039 $", "KCAO 091355Z AUTO 33010KT 10SM CLR 12/M04 A3021 RMK AO2 SLP197 T01221044", "KCAR 091354Z AUTO 33006KT 10SM CLR 02/M07 A3040 RMK AO2 SLP304 T00171072", "KCAV 091355Z AUTO 19017KT 10SM CLR 12/M00 A3027 RMK A01", "KCBE 091340Z AUTO 00000KT 10SM CLR 05/M03 A3053 RMK AO2 T00531033", "KCBF 091355Z AUTO 15012KT 10SM CLR 10/M06 A3022 RMK AO2", "KCBG 091355Z AUTO 16007KT 10SM CLR 09/M02 A3018 RMK AO2", "KCBK 091355Z AUTO 34012KT 10SM CLR 13/M01 A3014 RMK AO2 T01291011", "KCBM 091355Z AUTO 09011G16KT 10SM OVC018 M A3028 RMK AO2 CIG 017 RWY13C SLPNO ALSTG ESTMD $", "KCCA 091355Z AUTO VRB03KT 10SM OVC011 13/12 A3032 RMK AO2", "KCCB 091355Z AUTO 08004KT 10SM CLR 12/06 A3009 RMK AO2", "KCCO 091355Z AUTO 07009G14KT 040V100 10SM OVC019 09/04 A3031 RMK AO2 T00860041", "KCCR 091353Z 16004KT 10SM CLR 07/05 A3018 RMK AO2 SLP204 T00720050", "KCCY 091355Z AUTO 18014KT 10SM BKN130 11/M01 A3031 RMK AO2", "KCDA 091355Z AUTO 00000KT 10SM 00/M09 A3053 RMK AO2 T00021088", "KCDC 091353Z AUTO 00000KT 10SM CLR 02/M02 A3027 RMK AO2 SLP232 T00221017", "KCDD 091353Z AUTO 18010G16KT 10SM CLR 08/M04 A3006 RMK AO2", "KCDH 091355Z AUTO 09004KT 4SM BR FEW004 SCT009 OVC013 13/13 A3027 RMK AO2", "KCDI 091355Z AUTO 05005KT 10SM CLR 10/M02 A3051 RMK AO2 T00951017", "KCDJ 091351Z AUTO 16007KT 12/01 A3033 RMK AO1 SLP270 T01220006", "KCDN 091355Z AUTO 02011G17KT 10SM SCT018 SCT023 09/05 A3035 RMK AO2", "KCDR 091353Z AUTO 24005KT 10SM CLR 05/00 A3017 RMK AO2 SLP229 T00500000", "KCDS 091353Z AUTO 17008KT 10SM CLR 12/10 A3021 RMK AO2 SLP219 T01170100", "KCDW 091353Z 09009KT 10SM CLR 09/M10 A3052 RMK AO2 SLP342 T00941100", "KCEC 091356Z AUTO 17008KT 8SM BKN042 OVC080 12/05 A3014 RMK AO2 SLP206 T01220050", "KCEF 091355Z AUTO 00000KT 10SM CLR 06/M09 A3053 RMK AO2 SLP347 T00561094", "KCEU 091354Z AUTO 08010G21KT 10SM CLR 10/M01 A3037 RMK AO2 SLP284 T01001011", "KCEW 091353Z AUTO VRB04KT 10SM OVC009 11/09 A3022 RMK AO2 CIG 008V013 SLP232 T01060089", "KCEY 091355Z AUTO 07005KT 10SM CLR 11/02 A3037 RMK A01", "KCEZ 091353Z AUTO 06003KT 10SM CLR 01/M04 A3029 RMK AO2 SLP234 T00111044", "KCFD 091355Z AUTO 00000KT 10SM OVC030 16/16 A3023 RMK AO2 T01610161", "KCFE 091355Z AUTO 20010KT 10SM CLR 08/M02 A3018 RMK AO2", "KCFJ 091355Z AUTO 11004KT 10SM CLR 10/M04 A3048 RMK AO2 T00951040", "KCFS 091355Z AUTO 16003KT 10SM CLR 08/M04 A3051 RMK AO2 T00811037", "KCFV 091352Z AUTO 15004KT 10SM CLR 12/07 A3026 RMK AO2 SLP246 T01220072", "KCGC 091355Z AUTO 01010G15KT 10SM OVC009 16/14 A3011 RMK AO2", "KCGE 091345Z AUTO 06012KT 10SM CLR 10/M03 A3048 RMK A01", "KCGF 091345Z 12006KT 10SM CLR 08/M04 A3052", "KCGI 091353Z 05006KT 10SM CLR 12/01 A3037 RMK AO2 SLP285 T01220006", "KCGS 091350Z AUTO 35006KT 10SM CLR 10/01 A3050 RMK AO2 T00950005", "KCGZ 091356Z AUTO 10SM CLR 12/M02 A3009 RMK AO2 SLP182 T01171022 PNO $", "KCHA 091353Z 05007KT 10SM SCT017 BKN025 BKN065 09/05 A3036 RMK AO2 SLP280 T00940050", "KCHD 091348Z 08003KT 10SM CLR 12/00 A3007", "KCHK 091355Z AUTO 00000KT 10SM CLR 10/04 A3019 RMK AO2 T01040044", "KCHO 091353Z VRB03KT 10SM CLR 09/M03 A3048 RMK AO2 SLP322 T00941033", "KCHS 091356Z 01012G20KT 10SM OVC010 10/07 A3024 RMK AO2 RAB01E12 SLP240 CIG 008V012 P0000 T01000072", "KCIC 091355Z AUTO 31005KT 10SM CLR 06/05 A3019 RMK AO1", "KCID 091352Z 17009KT 10SM CLR 10/M01 A3036 RMK AO2 SLP282 T01001011", "KCIN 091355Z AUTO 18017G22KT 10SM CLR 13/M02 A3023 RMK AO2", "KCIR 091355Z AUTO 10007KT 10SM CLR 12/00 A3038 RMK AO2 T01191004", "KCIU 091356Z AUTO 15013KT 1 1/4SM UP BR OVC001 M01/M01 A3048 RMK AO2 VIS 1/2V2 1/2 UPB48SNE40 SLP333 P0000 T10061006 FZRANO", "KCJR 091355Z AUTO 00000KT 10SM CLR 10/M02 A3051 RMK AO2 T01011016", "KCKB 091353Z 00000KT 10SM CLR 10/M03 A3047 RMK AO2 SLP316 T01001033", "KCKC 091355Z AUTO 15003KT 10SM CLR 03/M02 A3015 RMK AO2", "KCKF 091355Z AUTO 05010G14KT 3SM BR OVC007 09/07 A3028 RMK AO2 T00850070", "KCKI 091355Z AUTO 04008KT 010V080 10SM OVC010 07/05 A3030 RMK AO2", "KCKM 091355Z AUTO 09009KT 10SM OVC013 11/11 A3032 RMK A01", "KCKN 091355Z AUTO 17010KT 7SM CLR M01/M03 A3005 RMK AO2", "KCKP 091355Z AUTO 19012G17KT 10SM CLR 12/M03 A3021 RMK AO2 T01171035", "KCKV 091352Z AUTO 08008KT 10SM CLR 11/01 A3037 RMK AO2 SLP284 T01110006", "KCKZ 091355Z AUTO 05009KT 10SM CLR 08/M03 A3050 RMK AO2", "KCLE 091351Z 09007KT 10SM CLR 10/M06 A3050 RMK AO2 SLP350 T01001056", "KCLI 091355Z AUTO 00000KT 7SM BR SCT002 01/01 A3041 RMK AO2 T00110009", "KCLK 091355Z AUTO 20003KT 10SM CLR 10/05 A3022 RMK AO2 LTG DSNT W", "KCLL 091353Z 04004KT 10SM OVC031 18/15 A3020 RMK AO2 SLP224 T01780150", "KCLM 091353Z AUTO 00000KT 10SM SCT060 06/04 A2990 RMK AO2 SLP127 T00610044", "KCLS 091355Z AUTO 20007KT 10SM BKN046 OVC055 09/09 A3001 RMK AO2", "KCLT 091352Z 03009KT 10SM FEW110 09/00 A3039 RMK AO2 SLP309 T00890000", "KCLW 091355Z AUTO 05006KT 10SM BKN013 OVC038 22/19 A3003 RMK AO2", "KCMA 091355Z 00000KT 1/4SM FG VV002 11/11 A3009 RMK AO2 SLP200 T01060106", "KCMD 091355Z AUTO VRB03KT 10SM OVC011 11/09 A3032 RMK AO2", "KCMH 091351Z 11007KT 10SM CLR 11/M04 A3050 RMK AO2 SLP331 T01061039", "KCMI 091353Z 11009KT 10SM CLR 11/M02 A3045 RMK AO2 SLP315 T01111017", "KCMR 091355Z AUTO 17006KT 10SM CLR 01/M04 A3028 RMK AO2", "KCMX 091353Z AUTO 18009KT 10SM CLR 04/M01 A3026 RMK AO2 SLP258 T00441011 $", "KCMY 091355Z AUTO 20008G17KT 10SM CLR 12/M01 A3032 RMK AO2 SLP275 T01221014 FZRANO $", "KCNB 091355Z AUTO 24009G16KT 10SM OVC100 08/M01 A3014 RMK AO2 T00811011", "KCNC 091355Z AUTO 16015KT 10SM CLR 12/M02 A3031 RMK AO2", "KCNI 091355Z AUTO 13008KT 040V170 10SM CLR 09/02 A3035 RMK AO2 T00870021", "KCNK 091355Z AUTO 17013KT 10SM CLR 15/M03 A3018 RMK AO2 SLP216 T01501033", "KCNM 091353Z AUTO 00000KT 10SM CLR 13/08 A3015 RMK AO2 SLP173 T01280083 $", "KCNO 091353Z 00000KT 7SM CLR 09/08 A3010 RMK AO2 SLP192 T00890078", "KCNU 091352Z AUTO 14008KT 10SM CLR 13/05 A3026 RMK AO2 SLP246 T01330050", "KCNW 091355Z 00000KT 7SM OVC034 15/15 A3021", "KCNY 091353Z AUTO 00000KT 10SM CLR 06/M02 A3024 RMK AO2 SLP224 T00611022", "KCOD 091356Z AUTO 26012G17KT 10SM CLR 09/M04 A3019 RMK AO2 SLP212 T00891044", "KCOE 091356Z AUTO 09003KT 10SM CLR 04/01 A3013 RMK AO2 SLP228 T00390006 PNO $", "KCOF 091355Z AUTO 35019G24KT 10SM CLR 23/18 A3001 RMK AO2 SLP167 T02300183 $", "KCOM 091355Z AUTO 12005KT 7SM OVC003 13/12 A3021 RMK AO2 T01260118", "KCON 091351Z AUTO VRB03KT 10SM CLR 04/M07 A3055 RMK AO2 SLP350 T00441072", "KCOQ 091355Z AUTO 18007KT 10SM CLR 07/M04 A3013 RMK AO2 TSNO", "KCOS 091354Z 00000KT 10SM FEW120 FEW200 08/M04 A3027 RMK AO2 SLP214 T00781039", "KCOT 091353Z AUTO 07007KT 5SM BR OVC003 16/13 A3020 RMK AO2 SLP220 T01560133", "KCOU 091354Z 13008KT 10SM CLR 12/01 A3036 RMK AO2 SLP282 T01170006", "KCPC 091350Z AUTO 03006G17KT 10SM OVC014 08/07 A3031 RMK AO2 T00800065", "KCPF 091355Z AUTO 00000KT 10SM CLR 08/00 A3042 RMK AO2", "KCPK 091355Z AUTO 05012G18KT 10SM SCT029 10/02 A3041 RMK AO2 T01000023", "KCPR 091353Z 22014KT 10SM CLR 01/M04 A3020 RMK AO2 SLP235 T00111039", "KCPS 091353Z 13009KT 10SM CLR 11/00 A3040 RMK AO2 SLP295 T01110000", "KCPT 091355Z AUTO 00000KT 9SM OVC034 15/15 A3022 RMK A01", "KCPW 091355Z AUTO 33005KT 10SM CLR M04/M12 A3047 RMK AO2", "KCQB 091355Z AUTO 13005KT 10SM CLR 11/05 A3024 RMK AO2 T01050046", "KCQC 091353Z AUTO 00000KT 10SM CLR 09/01 A3029 RMK AO2 SLP198 T00890011", "KCQF 091355Z AUTO 33011G17KT 10SM OVC014 10/07 A3020 RMK AO2", "KCQM 091355Z AUTO 19007G16KT 10SM CLR 08/M04 A3007 RMK AO2", "KCQT 091347Z AUTO 00000KT 4SM BR OVC008 14/12 A3011 RMK AO2 SLP194 T01390117", "KCQW 091355Z AUTO 10SM FEW020 10/06 A3035 RMK AO2", "KCQX 091352Z AUTO 07010G15KT 10SM CLR 07/M05 A3054 RMK AO2 SLP345 T00671050", "KCRE 091353Z 04015G20KT 10SM OVC010 09/07 A3026 RMK AO1 RAE42 CIG 007V012 SLP246 P0001 T00890072", "KCRG 091400Z 01006KT 1 3/4SM -RA BR OVC004 14/13 A3015 RMK AO2 P0001 T01390128", "KCRP 091351Z 03011KT 10SM FEW003 FEW030 SCT090 SCT250 18/16 A3015 RMK AO2 SLP210 FU FEW003 T01780156 $", "KCRQ 091353Z 15003KT 3SM BR OVC003 12/11 A3009 RMK AO2 SLP190 T01170106", "KCRS 091353Z AUTO 08005KT 10SM OVC036 17/14 A3022 RMK AO2 SLP232 T01670139", "KCRW 091354Z 03004KT 10SM CLR 08/M04 A3046 RMK AO2 SLP315 T00781039", "KCRX 091355Z AUTO 12005KT 10SM OVC018 12/10 A3033 RMK AO2", "KCSG 091351Z 07010G21KT 10SM OVC014 09/06 A3028 RMK AO2 SLP255 T00890056", "KCSM 091353Z AUTO 17008KT 10SM CLR 13/11 A3021 RMK AO2 SLP223 T01330106 $", "KCSQ 091355Z AUTO 16014KT 10SM CLR 11/00 A3028 RMK AO2", "KCSV 091353Z AUTO 08007KT 10SM CLR 09/03 A3034 RMK AO2 SLP276 T00890028", "KCTB 091356Z AUTO 26017KT 10SM CLR 06/M02 A3004 RMK AO2 SLP178 T00611022", "KCTJ 091355Z AUTO 08007KT 10SM CLR 08/03 A3034 RMK AO2 T00830026", "KCTY 091355Z AUTO 04011KT 3 1/2SM RA BR OVC008 10/09 A3016 RMK AO2 P0007", "KCTZ 091345Z AUTO 03008G22KT 10SM BKN014 OVC110 08/08 A3035 RMK AO2 T00810080", "KCUB 091353Z AUTO VRB06KT 10SM FEW018 09/05 A3034 RMK AO2 SLP273 T00940050 $", "KCUH 091355Z AUTO 16006KT 10SM CLR 12/04 A3023 RMK AO2 T01200040", "KCUL 091359Z AUTO 08008KT 10SM CLR 12/M01 A3041 RMK AO2", "KCUT 091353Z AUTO 30004KT 10SM CLR 06/M06 A3017 RMK AO2 SLP209 T00561056", "KCVC 091355Z AUTO 07011G16KT 030V090 10SM SCT021 SCT027 08/03 A3032 RMK AO2", "KCVG 091352Z 09013KT 10SM CLR 11/M03 A3046 RMK AO2 SLP313 T01061033", "KCVH 091355Z AUTO 00000KT 10SM CLR 07/06 A3018 RMK A01", "KCVN 091356Z AUTO 00000KT 10SM FEW030 11/05 A3023 RMK AO2 SLP219 T01110050", "KCVO 091356Z AUTO 00000KT 10SM OVC042 10/07 A3006 RMK AO2 SLP182 T01000072", "KCVS 091355Z AUTO 14007KT 10SM FEW120 13/08 A3021 RMK AO2 SLP191 T01300081 $", "KCVX 091355Z AUTO 15005KT 10SM CLR 07/00 A3044 RMK AO2 T00651003", "KCWA 091347Z 17006KT 7SM CLR 06/01 A3037", "KCWC 091355Z AUTO 00000KT 10SM CLR 13/11 A3022 RMK AO2 T01280109", "KCWF 091345Z 05006KT 10SM OVC009 16/14 A3018", "KCWI 091356Z AUTO 16009KT 10SM CLR 10/01 A3041 RMK AO2 SLP305 T01000011", "KCWN 091355Z AUTO 00000KT 10SM CLR 10/M06 A3026 RMK AO2 SLP112 T01001059 $", "KCWV 091355Z AUTO 04008KT 7SM OVC009 09/08 A3026 RMK AO2 T00930076", "KCXE 091355Z AUTO 10SM CLR 09/M02 A3044 RMK AO1 T00861018", "KCXO 091353Z 07006KT 10SM OVC032 17/15 A3019 RMK AO2 SLP223 T01720150", "KCXP 091355Z AUTO 00000KT 10SM CLR 01/M00 A3027 RMK AO2", "KCXU 091355Z AUTO 06006KT 10SM OVC013 10/08 A3023 RMK AO1 T01010077", "KCXW 091355Z AUTO 04006KT 9SM OVC008 13/13 A3030 RMK A01", "KCXY 091356Z 00000KT 10SM CLR 11/M02 A3050 RMK AO2 SLP330 T01061017", "KCYD 091355Z AUTO 06015G22KT 10SM BKN013 OVC019 21/18 A3011 RMK A02 T02110183", "KCYS 091353Z 30004KT 10SM CLR 05/M02 A3022 RMK AO2 SLP210 T00501022", "KCZL 091355Z AUTO 00000KT 10SM BKN005 BKN015 OVC020 10/09 A3036 RMK AO2", "KCZT 091355Z AUTO 4SM BR OVC006 15/15 A3019 RMK AO2", "KD07 091356Z AUTO 00000KT 09/M01 A3009 RMK AO1 SLP202 T00891006 $", "KD25 091355Z AUTO 18009G14KT 10SM CLR 04/M01 A3028 RMK AO2 T00361015", "KD39 091355Z AUTO 23005KT 10SM OVC100 06/M02 A3014 RMK AO2 T00561018", "KD55 091355Z AUTO 23012KT 7SM CLR M05/M04 A2997 RMK AO2", "KD57 091355Z AUTO 28004KT 10SM CLR 03/M02 A3004 RMK AO2", "KD60 091355Z AUTO 25005KT 10SM CLR 01/01 A3002 RMK AO2", "KD73 091355Z AUTO 07015G20KT 10SM SCT025 09/03 A3034 RMK AO2 T00880029", "KD95 091312Z AUTO 00000KT 10SM CLR 05/M01 A3052 RMK AO2", "KDAA 091355Z AUTO 05003KT 10SM CLR 11/M00 A3048 RMK AO2 SLP325 T01101005", "KDAB 091353Z 36012G23KT 10SM SCT009 OVC011 18/16 A3009 RMK AO2 PK WND 01027/1321 SLP188 T01780156", "KDAG 091350Z AUTO 28009KT 10SM CLR 11/03 A3013 RMK AO2 SLP189 T01110028", "KDAL 091353Z 10007KT 10SM BKN036 16/13 A3021 RMK AO2 SLP225 T01560128 $", "KDAN 091353Z AUTO 05011KT 10SM CLR 08/M01 A3045 RMK AO2 SLP308 T00781006", "KDAW 091351Z AUTO 00000KT 10SM CLR 08/M11 A3052 RMK AO2 SLP336 T00781111", "KDAY 091356Z 09009KT 10SM CLR 11/M02 A3049 RMK AO2 SLP329 T01061022 VISNO RWY 6L $", "KDBN 091355Z AUTO 05008KT 10SM OVC009 08/06 A3032 RMK AO2", "KDBQ 091353Z 17010KT 10SM CLR 07/00 A3038 RMK AO2 SLP292 T00720000", "KDCA 091352Z 05006KT 10SM CLR 11/01 A3051 RMK AO2 SLP330 T01060011 $", "KDCM 091355Z AUTO 02014G19KT 10SM CLR 08/00 A3038 RMK AO2", "KDCU 091353Z AUTO 06005KT 10SM CLR 12/08 A3032 RMK AO2 SLP267 T01220078", "KDCY 091355Z AUTO 09003KT 10SM CLR 09/00 A3044 RMK AO2 T00891005", "KDDC 091352Z AUTO 22008KT 9SM FEW090 FEW100 12/08 A3013 RMK AO2 SLP190 T01220083", "KDDH 091354Z AUTO 00000KT 10SM CLR 07/M13 A3053 RMK AO2 SLP346 T00671133 $", "KDEC 091354Z 13007KT 10SM CLR 11/M01 A3044 RMK AO2 SLP309 T01061006 $", "KDED 091350Z AUTO 35015G20KT 10SM OVC010 17/14 A3010 RMK AO2 LTG DSNT E T01710143", "KDEH 091355Z AUTO 18011G22KT 10SM CLR 12/M03 A3031 RMK AO2", "KDEN 091353Z 20008KT 10SM FEW080 FEW120 SCT220 08/M02 A3022 RMK AO2 SLP199 T00781022", "KDEQ 091353Z AUTO 10SM CLR 15/10 A3025 RMK AO2 SLP239 T01500100", "KDET 091353Z 12008KT 10SM CLR 09/M09 A3054 RMK AO2 SLP345 T00891089", "KDEW 091353Z AUTO 10SM OVC080 05/02 A3011 RMK AO2 SLP202 T00500017", "KDFI 091353Z AUTO 00000KT 10SM CLR 08/M01 A3052 RMK AO2 SLP340 T00831006", "KDFW 091353Z 00000KT 10SM BKN036 16/13 A3020 RMK AO2 SLP222 T01560128", "KDGW 091353Z AUTO 00000KT 10SM CLR 01/M03 A3021 RMK AO2 SLP239 T00061033 $", "KDHN 091353Z 05008KT 10SM OVC011 09/07 A3025 RMK AO2 SLP244 T00940072", "KDHT 091353Z AUTO 25009KT 10SM CLR 12/02 A3019 RMK AO2 SLP193 T01220022", "KDIJ 091356Z AUTO 16006KT 10SM OVC048 01/M02 A3031 RMK AO2 SLP280 T00111022", "KDIK 091356Z AUTO 28009KT 10SM CLR 04/M01 A3003 RMK AO2 SLP189 T00441006", "KDKK 091353Z AUTO 35003KT 10SM CLR 08/M03 A3056 RMK AO2 SLP353 T00831028", "KDKR 091355Z AUTO 00000KT 10SM OVC027 17/16 A3021 RMK AO2", "KDKX 091355Z AUTO 00000KT 10SM CLR 11/01 A3037 RMK A01", "KDLF 091355Z AUTO 12009KT 10SM OVC006 15/14 A3015 RMK AO2 SLP204 T01480137 $", "KDLH 091355Z 18009KT 10SM SCT120 04/M01 A3014 RMK AO2 SLP223 T00441011", "KDLL 091355Z AUTO 19009KT 10SM CLR 12/00 A3038 RMK AO2 T01160002", "KDLN 091353Z AUTO 21008KT 10SM CLR 00/M03 A3022 RMK AO2 SLP239 T00001033 $", "KDLO 091355Z AUTO 00000KT 10SM CLR 08/07 A3016 RMK AO2 T00800066", "KDLP 091355Z AUTO 06015G23KT 10SM BKN011 19/15 A3005 RMK A01", "KDLS 091353Z AUTO 00000KT 10SM OVC085 09/06 A3009 RMK AO2 SLP191 T00890056 $", "KDLZ 091355Z AUTO 10006KT CLR 08/M03 A3051 RMK AO2 PWINO", "KDMA 091355Z AUTO 00000KT 10SM CLR 12/M05 A3011 RMK AO2 SLP211 T01221053 $", "KDMH 091354Z AUTO 11/M02 A3050 RMK AO1 SLP328 T01111022", "KDMN 091353Z AUTO 30004KT 10SM CLR 08/M06 A3017 RMK AO2 SLP171 T00781061", "KDMO 091353Z AUTO 14010KT 10SM CLR 12/01 A3034 RMK AO2 SLP273 T01170011", "KDMW 091345Z AUTO 05004KT 10SM CLR 11/M04 A3047 RMK AO2", "KDNA 091355Z AUTO 00000KT 10SM CLR 13/M04 A3016 RMK AO2", "KDNL 091353Z AUTO 02013G20KT 10SM OVC017 08/04 A3032 RMK AO2 SLP266 T00830044", "KDNN 091355Z AUTO 34004KT 5SM BR BKN006 OVC011 09/09 A3035 RMK AO2 CIG 005V007 T00920086", "KDNV 091355Z AUTO 11006KT 10SM CLR 11/M02 A3048 RMK AO2 T01101017", "KDOV 091355Z AUTO 07008KT 10SM CLR 10/M02 A3048 RMK AO2 SLP325 T01001020", "KDPA 091352Z 17009KT 10SM CLR 11/M01 A3045 RMK AO2 SLP313 T01111006 $", "KDPL 091345Z AUTO 03012G19KT 7SM OVC010 08/07 A3034 RMK AO2", "KDQH 091355Z AUTO 03011KT 10SM OVC010 10/07 A3025 RMK AO2 T00950073", "KDRI 091355Z AUTO 04007KT 8SM BKN007 BKN011 OVC017 15/15 A3021 RMK AO2 CIG 005V009 T01530153 $", "KDRM 091355Z AUTO 15006KT 3/4SM BR OVC002 00/00 A3050 RMK AO2 T00030002", "KDRO 091353Z AUTO 00000KT 10SM CLR M01/M07 A3030 RMK AO2 SLP252 T10111072 $", "KDRT 091353Z AUTO 11008KT 10SM OVC008 17/13 A3017 RMK AO2 SLP210 T01670133", "KDSM 091354Z 17013KT 10SM BKN250 12/M02 A3030 RMK AO2 SLP261 T01221022", "KDSV 091354Z AUTO 00000KT 10SM CLR 06/M06 A3056 RMK AO2 SLP363 T00561056", "KDTA 091355Z AUTO 16010KT 10SM CLR 03/00 A3027 RMK AO1", "KDTL 091355Z AUTO 18008KT 10SM BKN120 03/M00 A3010 RMK AO2", "KDTN 091353Z AUTO 05006KT 10SM OVC007 14/13 A3024 RMK AO2 SLP239 T01440128", "KDTO 091353Z 06003KT 10SM OVC041 14/12 A3021 RMK AO2 SLP227 T01390117", "KDTS 091353Z 02010G18KT 350V050 10SM OVC011 11/09 A3019 RMK AO2 SLP222 T01110089", "KDTW 091353Z 11004KT 10SM CLR 08/M05 A3054 RMK AO2 SLP344 T00831050 PNO", "KDUA 091355Z AUTO 12009KT 10SM CLR 13/10 A3025 RMK AO2", "KDUB 091357Z AUTO 31010KT 10SM OVC045 02/M06 A3026 RMK AO2", "KDUC 091355Z AUTO 11005KT 10SM CLR 12/07 A3023 RMK AO2 T01250069", "KDUG 091356Z AUTO 00000KT 10SM CLR 08/M07 A3018 RMK AO2 SLP180 T00831067 TSNO", "KDUH 091355Z AUTO 12003KT 10SM CLR 09/00 A3052 RMK AO2 T00870000", "KDUJ 091353Z AUTO 09007KT 10SM CLR 07/M07 A3048 RMK AO2 SLP330 T00671067", "KDUX 091355Z AUTO 28008KT 10SM SCT039 SCT060 15/04 A3019 RMK AO2 T01450039", "KDVK 091350Z AUTO 00000KT 10SM CLR 09/M02 A3043 RMK AO2", "KDVL 091356Z AUTO 21005KT 10SM FEW100 01/M03 A3002 RMK AO2 SLP199 T00061033 FZRANO", "KDVN 091352Z AUTO 17009KT 10SM CLR 12/M01 A3041 RMK AO2 SLP298 T01171011", "KDVO 091355Z AUTO 00000KT 10SM CLR 07/06 A3018 RMK AO2", "KDVP 091353Z AUTO 19013KT 10SM BKN110 07/M02 A3016 RMK AO2 T00671017", "KDVT 091353Z 05003KT 10SM CLR 14/M02 A3006 RMK AO2 SLP166 T01441017", "KDWA 091355Z AUTO 34005KT 10SM CLR 09/07 A3018 RMK AO2", "KDWH 091353Z 00000KT 10SM OVC031 18/16 A3019 RMK AO2 SLP223 T01780156", "KDWU 091356Z AUTO 00000KT 10SM CLR 09/01 A3048 RMK AO2 SLP323 T00890006", "KDWX 091355Z AUTO 04004KT 10SM CLR M03/M06 A3034 RMK AO2 T10341061", "KDXR 091353Z 05007KT 10SM CLR 08/M08 A3054 RMK AO2 SLP344 T00781083", "KDXX 091355Z AUTO 00000KT 10SM SCT100 07/01 A3015 RMK AO2", "KDYA 091355Z AUTO 09006KT 10SM OVC015 10/07 A3029 RMK AO2 T00990071", "KDYB 091355Z AUTO 01007G14KT 10SM OVC008 08/08 A3026 RMK AO2", "KDYL 091354Z AUTO 03007KT 10SM CLR 10/M03 A3049 RMK AO2 SLP328 T01001033", "KDYR 091356Z AUTO 11006KT 10SM FEW014 BKN032 12/09 A3036 RMK AO2 SLP286 T01220089", "KDYS 091355Z AUTO 14008KT 8SM OVC003 13/12 A3017 RMK AO2 CIG 002 RWY34 SLP193 T01260124 $", "KDYT 091355Z AUTO 02004KT 10SM SCT120 01/01 A3017 RMK AO2", "KDZB 091355Z AUTO 00000KT 3SM BR OVC004 14/13 A3022 RMK AO2 T01370132", "KDZJ 091355Z AUTO 21003KT 10SM OVC004 08/07 A3033 RMK AO2 T00810071", "KE11 091355Z AUTO 17009KT 10SM OVC008 14/12 A3018 RMK AO2 T01350116", "KE16 091355Z AUTO 00000KT 10SM CLR 08/07 A3019 RMK AO2 PWINO PNO", "KE38 091355Z AUTO 00000KT 10SM SCT120 13/08 A3024 RMK AO2 T01330075", "KE41 091355Z AUTO 18011G16KT 10SM OVC010 15/12 A3019 RMK AO2 T01490121", "KE42 091355Z AUTO 20009KT 10SM OVC110 14/08 A3015 RMK AO2 T01420080", "KEAN 091350Z AUTO 20004KT 10SM CLR 07/M01 A3021 RMK AO2 T00691013", "KEAR 091356Z AUTO 17009KT 10SM CLR 11/M01 A3013 RMK AO2 SLP200 T01111006", "KEAT 091355Z AUTO 30003KT 10SM -RA SCT060 BKN075 OVC085 06/03 A3007 RMK AO2 SLP188 P0000 T00560033 $", "KEAU 091356Z 18006KT 10SM CLR 10/M01 A3028 RMK AO2 SLP259 T01001006", "KEBA 091355Z AUTO 07008G17KT 360V100 10SM SCT080 09/03 A3036 RMK AO2 T00930025", "KEBG 091355Z AUTO 04007KT 10SM SCT055 BKN070 OVC110 19/17 A3014 RMK AO2 T01870169", "KEBS 091355Z AUTO 18016KT 10SM CLR 12/M03 A3026 RMK AO2", "KECG 091354Z 03018KT 10SM SCT034 10/04 A3038 RMK AO2 SLP286 T01000044", "KECP 091353Z 02012KT 10SM OVC010 11/08 A3017 RMK AO1 SLP228 T01110083", "KECS 091355Z AUTO 00000KT 10SM CLR 01/M01 A3019 RMK AO2", "KECU 091355Z AUTO 15007KT 1 1/2SM BR OVC003 14/14 A3024 RMK AO2", "KEDC 091335Z AUTO 00000KT 5SM BR FEW020 OVC033 14/14 A3021 RMK AO2", "KEDE 091350Z AUTO 02007KT 10SM SCT110 10/09 A3038 RMK AO2 T01010087", "KEDJ 091355Z AUTO VRB06KT 10SM 10/M06 A3050 RMK A01", "KEDN 091355Z AUTO 04008KT 360V060 10SM OVC011 09/07 A3022 RMK AO2 T00880072 PWINO", "KEDU 091355Z AUTO 35004KT 10SM CLR 09/07 A3017 RMK AO1", "KEDW 091255Z AUTO 01003KT 10SM CLR 06/03 A3011 RMK AO2 SLP189 T00610027", "KEED 091356Z AUTO 00000KT 10SM CLR 14/01 A3008 RMK AO2 SLP167 T01390011", "KEEN 091356Z AUTO 00000KT 10SM CLR 03/M08 RMK AO2 SLPNO T00331083 $", "KEEO 091353Z AUTO 06003KT 10SM CLR 01/M03 A3032 RMK AO2 SLP253 T00111028", "KEET 091353Z AUTO VRB06KT 10SM SCT021 BKN029 12/07 A3029 RMK AO2 SLP256 T01170072", "KEFD 091354Z 04007KT 10SM BKN019 18/15 A3017", "KEFK 091355Z AUTO 00000KT 10SM CLR 04/M07 A3052 RMK AO2 T00361072", "KEFT 091355Z AUTO 20009G15KT 10SM CLR 11/M01 A3040 RMK AO2 T01051006", "KEGE 091356Z 00000KT 10SM CLR 00/M02 A3039 RMK AO2 SLP184 T00001022 PNO $", "KEGI 091403Z AUTO 04009KT 10SM OVC005 10/08 A3020 RMK AO2 SLP228 $", "KEGT 091355Z AUTO 14007KT 10SM CLR 11/M01 A3023 RMK AO2 T01101014", "KEGV 091355Z AUTO 20005KT 10SM CLR 06/M02 A3031 RMK AO2 T00641021", "KEHA 091355Z AUTO 33013KT 10SM CLR 11/M03 A3017 RMK AO2 T01081027", "KEHO 091355Z AUTO 04011G15KT 10SM CLR 08/M02 A3041 RMK AO2 T00761016", "KEHR 091356Z AUTO 09010KT 10SM CLR 11/M04 A3041 RMK AO2 SLP300 T01111039", "KEIK 091355Z AUTO 00000KT 10SM CLR 06/M01 A3021 RMK AO2 T00551014", "KEKE 091355Z AUTO 01015KT 10SM BKN013 BKN018 BKN045 21/19 A3005 RMK A01", "KEKM 091355Z 14005KT 10SM CLR 10/M02 A3049 RMK AO2 T01011019 $", "KEKN 091351Z AUTO 00000KT 10SM CLR 04/M04 A3046 RMK AO2 SLP334 T00391039", "KEKO 091356Z AUTO 07004KT 10SM CLR 00/M02 A3029 RMK AO2 SLP257 T00001022", "KEKQ 091356Z AUTO 05010KT 10SM CLR 10/M02 A3040 RMK AO2 SLP294 T01001017", "KEKS 091355Z AUTO 19012KT 10SM CLR 01/M04 A3028 RMK AO2", "KEKX 091355Z AUTO 07008KT 10SM CLR 10/M04 A3042 RMK AO2 T01031040", "KEKY 091356Z AUTO 09009KT 10SM CLR 11/06 A3030 RMK AO2 SLP107 T01110061 PNO $", "KELD 091404Z AUTO 06010KT 10SM SCT009 OVC014 14/12 A3026 RMK AO2 T01390117", "KELK 091355Z AUTO 18007KT 10SM CLR 12/10 A3020 RMK AO2 SLP509 T01190102 $", "KELM 091353Z 00000KT 10SM CLR 05/M07 A3054 RMK AO2 SLP349 T00501072", "KELN 091353Z AUTO 08005KT 10SM FEW060 SCT075 OVC100 06/03 A3006 RMK AO2 RAE51 SLP185 P0000 T00610033", "KELO 091355Z AUTO 22014G18KT 10SM CLR 08/M04 A3009 RMK AO2", "KELP 091351Z 35005KT 10SM FEW200 FEW250 14/04 A3013 RMK AO2 SLP151 T01390039", "KELY 091353Z AUTO 18010KT 10SM CLR M02/M04 A3030 RMK AO2 SLP242 T10171039 $", "KELZ 091356Z AUTO VRB06KT 10SM CLR 04/M10 A3050 RMK AO2 SLP347 T00441100", "KEMP 091353Z AUTO 16013KT 10SM CLR 11/02 A3024 RMK AO2 SLP241 T01110017", "KEMV 091355Z AUTO 01009KT 10SM CLR 09/01 A3044 RMK AO2 T00880008", "KEND 091355Z AUTO 15007KT 10SM CLR 14/M01 A3018 RMK AO2 SLP219 T01351013 VISNO RWY35C $", "KENL 091355Z AUTO 11006KT 10SM CLR 11/01 A3041 RMK AO2 T01140006", "KENV 091356Z AUTO 00000KT 10SM CLR 03/M02 A3028 RMK AO2 SLP254 T00281017 PNO $", "KENW 091353Z 20009KT 10SM CLR 12/01 A3045 RMK AO2 SLP314 T01220011", "KEOE 091355Z AUTO 05016G20KT 10SM CLR 08/02 A3039 RMK AO2", "KEOK 091355Z AUTO 17008KT 10SM CLR 12/M02 A3038 RMK A01", "KEPH 091353Z AUTO 36004KT 10SM -RA OVC055 07/04 A3008 RMK AO2 RAB35 SLP190 P0000 T00670039", "KEQA 091355Z AUTO 15009KT 10SM CLR 15/M02 A3022 RMK AO2", "KEQY 091353Z AUTO 04014G21KT 10SM CLR 08/02 A3037 RMK AO2 SLP299 T00830017", "KERI 091351Z 04004KT 10SM CLR 08/M05 A3054 RMK AO2 SLP348 T00831050", "KERV 091355Z AUTO 07003KT OVC003 12/12 A3021 RMK AO2 T01200120 PWINO", "KERY 091355Z AUTO 15007KT 10SM CLR 02/M01 A3042 RMK AO2 T00151010", "KESC 091356Z AUTO 18008KT 10SM CLR 04/02 A3040 RMK AO2 SLP306 T00440022", "KESF 091353Z AUTO 04004KT 10SM BKN011 OVC017 16/14 A3020 RMK AO2 RAB28E36 SLP226 P0000 T01560139", "KESN 091350Z 04008KT 10SM CLR 10/00 A3053", "KEST 091352Z AUTO 19016G25KT 10SM CLR 10/M02 A3020 RMK AO2 SLP231 T01001022", "KETB 091355Z AUTO 18003KT 10SM CLR 08/02 A3042 RMK AO2", "KETC 091340Z AUTO 05008KT 360V070 7SM CLR 09/04 A3039 RMK AO2 T00900043", "KETH 091353Z AUTO 08005KT 10SM BKN110 01/M01 A3012 RMK AO2", "KETN 091350Z AUTO 18005KT 7SM OVC003 12/ A3022 RMK AO2 T0122////", "KEUF 091402Z AUTO 05007KT 10SM OVC011 10/08 A3028 RMK AO2 T01000083", "KEUG 091354Z 17005KT 10SM OVC070 10/08 A3006 RMK AO2 SLP180 T01000083", "KEUL 091356Z AUTO 12007KT 10SM CLR 04/01 A3022 RMK AO2 SLP238 T00390011", "KEVB 091347Z 02015G25KT 8SM BKN009 18/18 A3008", "KEVM 091402Z AUTO 20010G18KT 10SM BKN100 07/M02 A3011 RMK AO2", "KEVU 091355Z AUTO 16012KT 10SM CLR 12/02 A3027 RMK AO2 T01280023", "KEVV 091354Z 10006KT 10SM CLR 11/M02 A3042 RMK AO2 SLP303 T01111022", "KEVW 091353Z AUTO 15005KT 10SM CLR 00/M04 A3031 RMK AO2 SLP265 T00001044", "KEWB 091353Z 06008KT 10SM CLR 07/M07 A3054 RMK AO2 SLP342 T00671072", "KEWK 091356Z AUTO 16010KT 10SM CLR 13/M02 A3022 RMK AO2 SLP230 T01331017", "KEWN 091354Z 02015G20KT 10SM -RA BKN013 OVC025 09/08 A3032 RMK AO2 SLP268 P0001 T00940083", "KEWR 091351Z 03008KT 10SM FEW200 FEW250 11/M06 A3052 RMK AO2 SLP333 T01061061", "KEXX 091350Z AUTO 03009G16KT 10SM CLR 08/M02 A3041 RMK AO2 T00751017", "KEYE 091353Z AUTO 10005KT 10SM 11/M03 A3047 RMK AO2 SLP318 T01111028 $", "KEYF 091350Z AUTO 03008G18KT 010V070 10SM OVC010 08/06 A3032 RMK AO2 T00760064", "KEYW 091353Z 00000KT 10SM CLR 27/19 A3004 RMK AO2 SLP177 T02720194 $", "KEZF 091355Z AUTO 06008KT 10SM CLR 10/M01 A3048 RMK AO2 T01021006", "KEZM 091355Z AUTO 04010G16KT 10SM OVC007 07/07 A3028 RMK AO2", "KEZP 091405Z AUTO 04015KT 10SM OVC032 21/18 A3013 RMK A01", "KEZS 091355Z AUTO 00000KT M1/4SM -SN OVC003 01/01 A3040 RMK AO2 T00060006", "KEZZ 091355Z AUTO 15013KT 10SM CLR 12/02 A3031 RMK AO2 T01240015", "KF00 091355Z AUTO 10007KT 10SM CLR 14/12 A3024 RMK AO2 T01440121", "KF17 091348Z AUTO 00000KT 10SM SCT005 OVC011 15/14 A3023 RMK AO2", "KF44 091355Z AUTO 07003KT 10SM CLR 16/13 A3020 RMK AO2", "KF46 091355Z AUTO 11005KT 3SM BR CLR 15/14 A3022 RMK AO2 T01540142", "KF70 091355Z AUTO 00000KT 10SM CLR 09/09 A3010 RMK AO2", "KFAF 091255Z AUTO 07010G17KT 10SM CLR 10/00 A3040 RMK AO2 SLP298 T00970003 $", "KFAM 091356Z AUTO 09008KT 10SM CLR 11/M01 A3038 RMK AO2 SLP300 T01061006", "KFAR 091353Z 18012KT 10SM CLR 03/M01 A3009 RMK AO2 SLP199 T00281011", "KFAT 091353Z 00000KT 10SM FEW200 12/08 A3016 RMK AO2 SLP209 T01170083", "KFAY 091353Z 03014G22KT 10SM FEW016 BKN120 09/06 A3035 RMK AO2 SLP271 T00890056 $", "KFBG 091355Z AUTO 04011KT 10SM FEW120 09/06 A3034 RMK AO2 SLP278 T00870056 $", "KFBL 091355Z AUTO 17013G17KT 10SM CLR 11/00 A3024 RMK AO2", "KFCI 091356Z AUTO 07011G16KT 10SM CLR 09/M03 A3046 RMK AO2 SLP327 T00941028", "KFCM 091353Z 20013G20KT 10SM CLR 12/M02 A3019 RMK AO2 SLP227 T01171022", "KFCS 091355Z AUTO 36006KT 10SM CLR 07/M05 A3024 RMK AO2 SLP234 T00651055 $", "KFDK 091347Z 00000KT 10SM CLR 08/00 A3051", "KFDR 091353Z AUTO 09004KT 9SM CLR 13/11 A3019 RMK AO2 SLP216 T01280111", "KFDW 091355Z AUTO 03009G20KT 10SM CLR 08/05 A3034 RMK AO1", "KFDY 091353Z AUTO 14006KT 10SM CLR 09/M03 A3050 RMK AO2 SLP328 T00941028", "KFEP 091355Z AUTO 18012KT 10SM CLR 11/03 A3043 RMK AO2 T01140029", "KFET 091355Z AUTO 15011KT 10SM CLR 11/M03 A3020 RMK AO2 T01121034", "KFFA 091350Z AUTO 04009G19KT 350V090 10SM SCT031 OVC100 10/05 A3033 RMK AO2 T00990046", "KFFC 091353Z AUTO VRB06G18KT 10SM BKN020 OVC046 08/03 A3032 RMK AO2 SLP270 T00830033", "KFFL 091355Z AUTO 16014KT 10SM CLR 12/M05 A3036 RMK A01", "KFFM 091355Z AUTO 00000KT 10SM CLR 02/00 A3011 RMK AO2", "KFFO 091355Z AUTO 10006KT 10SM CLR 10/M02 A3046 RMK AO2 SLP321 T01021021", "KFFT 091353Z AUTO 06006KT 10SM CLR 10/M04 A3043 RMK AO2 SLP305 T01001044", "KFFX 091355Z AUTO 12004KT 10SM CLR 07/00 A3047 RMK AO2 T00720001", "KFFZ 091354Z 04005KT 10SM CLR 16/M02 A3007 RMK AO2 SLP163 T01611017", "KFGN 091355Z AUTO 23010KT 10SM CLR 01/M03 A2996 RMK AO2", "KFGX 091355Z AUTO 10011G15KT 10SM CLR 10/M05 A3047 RMK AO2 T00991051", "KFHB 091355Z AUTO 03013G22KT 7SM HZ BKN010 OVC015 13/ A3016 RMK AO2 P0001", "KFHR 091353Z AUTO 14012G20KT 10SM SCT016 OVC075 09/06 A2991 RMK AO2 SLP128 T00890061", "KFHU 091355Z AUTO 00000KT 10SM CLR 12/M07 A3020 RMK AO2 SLP187 T01221073", "KFIG 091354Z AUTO 09007KT 10SM CLR 06/M07 A3050 RMK AO2 SLP339 T00611067", "KFIN 091350Z 02013G19KT 10SM OVC010 16/16 A3011", "KFIT 091352Z AUTO 16004KT 10SM CLR 07/M09 A3055 RMK AO2 SLP349 T00671094", "KFKA 091355Z AUTO 19015KT 10SM CLR 10/M01 A3030 RMK AO2 T01011013", "KFKL 091356Z AUTO 08005KT 10SM CLR 06/M06 A3051 RMK AO2 SLP345 T00611061", "KFKN 091355Z AUTO 03012G18KT 10SM CLR 10/01 A3043 RMK AO2 T01000007", "KFKR 091355Z AUTO 11009KT 10SM 10/M02 A3047 RMK AO2", "KFKS 091355Z AUTO 16003KT 10SM CLR 09/01 A3043 RMK AO2 T00930010", "KFLD 091353Z AUTO 19009KT 10SM CLR 12/02 A3040 RMK AO2 SLP300 T01170017", "KFLG 091357Z 00000KT 10SM CLR M01/M05 A3029 RMK AO2 SLP225 T10111050", "KFLL 091353Z AUTO 28009KT 10SM BKN090 26/20 A3002 RMK AO2 SLP164 T02560200 PWINO", "KFLO 091353Z 03009KT 10SM BKN013 OVC017 08/06 A3032 RMK AO2 SLP265 T00830061", "KFLP 091356Z AUTO 07004KT 10SM OVC021 11/08 A3033 RMK AO2 SLP270 T01060078", "KFLY 091355Z AUTO 30005KT 10SM CLR 08/M05 A3029 RMK AO2 T00801055", "KFME 091349Z AUTO 06003KT 10SM CLR 10/M01 A3052 RMK AO1", "KFMH 091345Z 06007KT 10SM CLR 07/M06 A3047", "KFMM 091355Z AUTO 28007KT 10SM CLR 07/00 A3022 RMK AO2", "KFMN 091353Z 09005KT 10SM CLR 03/M07 A3028 RMK AO2 SLP239 T00281067", "KFMY 091353Z 33007KT 10SM FEW065 27/21 A3002 RMK AO2 SLP168 T02720211", "KFNB 091353Z AUTO 12003KT 10SM CLR 09/M01 A3026 RMK AO2 SLP246 T00941006 $", "KFNL 091356Z 08005KT 10SM CLR 06/M01 A3022 RMK AO2 SLP213 T00561006", "KFNT 091353Z 17008KT 10SM CLR 08/M06 A3052 RMK AO2 SLP339 T00831056", "KFOA 091355Z AUTO 11006KT 10SM CLR 11/00 A3043 RMK AO2", "KFOD 091356Z AUTO 17011KT 10SM CLR 12/M02 A3026 RMK AO2 SLP260 T01171022", "KFOE 091353Z 15012KT 10SM CLR 12/04 A3025 RMK AO2 SLP243 T01220044 $", "KFOK 091353Z 03012G18KT 10SM CLR 09/M01 A3054 RMK AO2 SLP341 T00941011", "KFOZ 091353Z AUTO 20013KT 10SM CLR 08/M02 A3009 RMK AO2", "KFPK 091355Z AUTO 16004KT 10SM CLR 08/M04 A3048 RMK AO2 T00801036", "KFPR 091400Z 01007G17KT 340V040 10SM BKN015 BKN022 OVC029 25/21 A3001 RMK AO2 T02500211 $", "KFPY 091355Z AUTO 03009G14KT 10SM OVC011 12/09 A3017 RMK AO2 T01150087", "KFQD 091350Z AUTO 06010G17KT 10SM CLR 08/M02 A3042 RMK AO2", "KFRG 091353Z 09010KT 10SM CLR 09/M03 A3052 RMK AO2 SLP334 T00891033", "KFRH 091355Z AUTO 08005KT 10SM CLR 10/M06 A3043 RMK AO1", "KFRI 091355Z AUTO 00000KT 10SM CLR 12/M02 A3022 RMK AO2 SLP231 T01181021 $", "KFRM 091356Z AUTO 18013KT 10SM CLR 09/M01 A3022 RMK AO2 SLP240 T00941006", "KFSD 091356Z 19011KT 10SM FEW080 OVC110 13/M04 A3014 RMK AO2 SLP206 T01281044", "KFSE 091355Z AUTO 19012KT 10SM CLR 01/M02 A3007 RMK AO2", "KFSI 091355Z AUTO 00000KT 10SM CLR 12/05 A3018 RMK AO2 SLP217 T01220049 FZRANO $", "KFSK 091355Z AUTO 15011G16KT 10SM CLR 13/07 A3029 RMK AO2 T01300074", "KFSM 091353Z 08010KT 10SM CLR 14/09 A3029 RMK AO2 SLP255 T01390094", "KFSO 091355Z AUTO 22003KT 10SM CLR 05/M07 A3055 RMK AO2 T00501074", "KFST 091353Z AUTO 17012KT 10SM CLR 15/11 A3013 RMK AO2 SLP168 T01500111 $", "KFSW 091355Z AUTO 17009KT 10SM 11/M01 A3038 RMK AO2", "KFTK 091355Z AUTO 07007KT 10SM CLR 10/M05 A3040 RMK AO2 SLP298 T01011055", "KFTN 091355Z AUTO 06007KT 7SM OVC008 17/15 A3020 RMK A01", "KFTW 091353Z 00000KT 5SM BR OVC036 14/14 A3020 RMK AO2 SLP223 T01440139", "KFTY 091353Z 07011G20KT 10SM CLR 09/03 A3032 RMK AO2 SLP270 T00940028", "KFUL 091353Z 00000KT 5SM HZ OVC008 14/12 A3009 RMK AO2 SLP189 T01440117", "KFVE 091353Z AUTO 26010KT 10SM CLR 00/M08 A3037 RMK AO2 SLP296 T00001078", "KFVX 091355Z AUTO 03008KT 10SM CLR 09/M01 A3046 RMK AO2 T00851011", "KFWA 091354Z 13006KT 10SM CLR 09/00 A3051 RMK AO2 SLP334 T00940000", "KFWB 091355Z AUTO VRBKT 10SM OVC018 13/08 A3031 RMK AO2", "KFWC 091355Z AUTO 11006KT 10SM CLR 11/M02 A3042 RMK AO1 T01111019", "KFWN 091353Z AUTO 04011KT 10SM CLR 07/M07 A3052 RMK AO2 SLP338 T00721067", "KFWS 091350Z 00000KT 5SM BR OVC039 14/13 A3022", "KFXE 091353Z VRB06KT 10SM FEW060 27/21 A3002 RMK AO2 SLP167 T02670211", "KFXY 091355Z AUTO 18014G22KT 10SM CLR 12/00 A3026 RMK AO2", "KFYE 091355Z AUTO 00000KT 10SM OVC010 13/10 A3032 RMK A01", "KFYG 091355Z AUTO 12007KT 10SM 12/M01 A3038 RMK AO2", "KFYJ 091355Z AUTO 04007G14KT 010V080 10SM CLR 10/00 A3046 RMK AO1 T01010001", "KFYM 091355Z AUTO 03006KT 10SM FEW016 11/08 A3034 RMK A01", "KFYV 091353Z 00000KT 10SM CLR 12/07 A3028 RMK AO2 SLP252 T01220072", "KFZG 091355Z AUTO 05007KT 340V080 10SM OVC010 10/08 A3025 RMK AO2 T00970075", "KFZY 091354Z AUTO 00000KT CLR 05/M07 A3057 RMK AO2 SLP357 T00501072 $", "KGAD 091356Z AUTO 07011KT 10SM OVC014 11/08 A3033 RMK AO2 SLP278 T01060083 PNO $", "KGAF 091355Z AUTO 20008KT 5SM BR CLR M04/M04 A3001 RMK AO2", "KGAG 091353Z AUTO 18025G30KT 10SM SCT120 14/10 A3013 RMK AO2 PK WND 18031/1326 LTG DSNT S SLP192 T01440100", "KGAI 091356Z AUTO 06003KT 10SM CLR 10/M04 A3050 RMK AO2 SLP343 T01001039", "KGAO 091355Z AUTO 04009G14KT 010V070 10SM OVC011 19/16 A3016 RMK AO2 T01850155", "KGBD 091356Z AUTO 17014KT 10SM -RA SCT070 OVC095 11/02 A3017 RMK AO2 LTG DSNT NW RAB24 SLP214 P0000 T01060017", "KGBG 091355Z AUTO 15008KT 10SM CLR 11/01 A3042 RMK AO2 T01060011 TSNO", "KGCC 091353Z AUTO 00000KT 10SM CLR 04/00 A3016 RMK AO2 SLP221 T00440000", "KGCD 091355Z AUTO 00000KT 10SM SCT060 SCT080 OVC095 05/00 A3015 RMK AO2 T00500002", "KGCK 091354Z 19006KT 10SM CLR 12/08 A3013 RMK AO2 SLP188 T01170078", "KGCM 091355Z AUTO 14010KT 10SM CLR 15/11 A3026 RMK AO2", "KGCN 091354Z AUTO 00000KT 10SM CLR M01/M05 A3030 RMK AO2 SLP235 T10111050", "KGCY 091355Z AUTO 04009KT 10SM CLR 08/M02 A3035 RMK A01", "KGDA 091355Z AUTO 09005KT 10SM CLR 11/M03 A3039 RMK AO2 T01061027 PWINO", "KGDB 091355Z AUTO 10003KT 10SM SCT070 BKN090 07/00 A3018 RMK AO2 T00650003", "KGDJ 091355Z AUTO 00000KT 4SM BR SCT001 OVC035 12/12 A3022 RMK AO2 T01150115", "KGDV 091356Z AUTO 30004KT 10SM CLR 06/01 A3009 RMK AO2 SLP201 T00560011 TSNO", "KGED 091354Z AUTO 08014KT 10SM CLR 12/M04 A3049 RMK AO2 SLP324 T01171044", "KGEG 091353Z 12004KT 10SM FEW050 BKN075 BKN100 OVC130 07/00 A3009 RMK AO2 SLP195 T00720000", "KGEU 091347Z 00000KT 10SM FEW250 14/01 A3005 RMK FIRST", "KGEV 091350Z AUTO 05004KT 10SM CLR 04/M05 A3038 RMK AO2 T00401053", "KGEY 091353Z AUTO 13003KT 10SM CLR A3019 RMK AO2 SLPNO $", "KGEZ 091353Z AUTO 10009KT 10SM CLR 12/M01 A3046 RMK AO2 SLP318 T01221011", "KGFA 091355Z AUTO 22009KT 10SM CLR 06/M02 A3009 RMK AO2 SLP208 T00601016 $", "KGFK 091353Z 15007KT 8SM FEW250 M03/M05 A3003 RMK AO2 SLP181 T10281050", "KGFL 091353Z AUTO 00000KT 10SM CLR 05/M08 A3056 RMK AO2 SLP356 T00501078 $", "KGGE 091355Z AUTO 01011G19KT 10SM OVC008 08/08 A3025 RMK AO2", "KGGF 091355Z AUTO 30011KT 10SM CLR 09/01 A3015 RMK AO2", "KGGG 091402Z 07008KT 10SM BKN015 16/13 A3023 RMK AO2 T01560128", "KGGI 091355Z AUTO 15014G18KT 10SM CLR 12/00 A3035 RMK AO2 T01160004", "KGGP 091355Z AUTO 12006KT 10SM CLR 08/01 A3050 RMK AO2", "KGGW 091353Z AUTO 00000KT 10SM CLR 02/M02 A3004 RMK AO2 SLP195 T00221022", "KGHG 091355Z AUTO VRB05KT 10SM CLR 06/M07 A3055 RMK AO2", "KGHW 091355Z AUTO 20011KT 10SM CLR 04/M01 A3014 RMK AO2", "KGIC 091355Z AUTO 00000KT 10SM CLR 02/00 A3016 RMK AO1", "KGIF 091353Z AUTO 04010KT 10SM OVC013 21/18 A3007 RMK AO2 SLP179 T02110178", "KGJT 091353Z 13009KT 10SM SCT100 05/M01 A3028 RMK AO2 SLP232 T00501011", "KGKJ 091353Z AUTO 10005KT 10SM CLR 07/M06 A3051 RMK AO2 SLP340 T00671061", "KGKT 091355Z AUTO 11004G10KT 10SM CLR 09/04 A3036 RMK A01", "KGKY 091353Z 00000KT 10SM OVC034 16/13 A3021 RMK AO2 SLP225 T01560133", "KGLD 091353Z AUTO 33011KT 10SM CLR 11/00 A3016 RMK AO2 SLP192 T01060000", "KGLE 091355Z AUTO 00000KT 10SM CLR 15/10 A3024 RMK AO2 T01450102", "KGLH 091353Z 07008KT 10SM OVC013 13/10 A3027 RMK AO2 SLP258 T01280100", "KGLR 091353Z AUTO 18006KT 10SM CLR 02/M01 A3045 RMK AO2 SLP327 T00221006", "KGLS 091352Z 05009KT 10SM FEW013 OVC040 19/17 A3017 RMK AO2 SLP217 T01940167", "KGLW 091355Z AUTO 07005KT 10SM CLR 10/00 A3039 RMK AO2 T00951002", "KGLY 091355Z AUTO 13011KT 9SM CLR 13/04 A3031 RMK AO2", "KGMJ 091355Z AUTO VRB04KT 10SM CLR 14/10 A3027 RMK AO2", "KGMU 091353Z 03017G25KT 10SM CLR 09/M01 A3037 RMK AO2 PK WND 04026/1314 SLP288 T00941011", "KGNA 091356Z AUTO 08005KT 02/00 A3020 RMK AO1 SLP237 T00220000", "KGNB 091355Z AUTO 00000KT 10SM CLR M05/M06 A3037 RMK AO2 T10521063", "KGNC 091350Z AUTO 12003KT 10SM OVC009 13/10 A3023 RMK AO2 T01250096", "KGNG 091400Z AUTO 10013KT 10SM CLR 03/03 A3028 RMK AO2", "KGNR 091356Z AUTO 32009KT 02/M11 A3041 RMK AO1 SLP316 T00221111", "KGNT 091355Z AUTO 32004KT 10SM CLR M01/M10 A3032 RMK AO2 T10091101", "KGNV 091353Z 01008G17KT 10SM OVC008 11/10 A3017 RMK AO2 SLP215 T01110100", "KGOK 091353Z AUTO 16008KT 10SM CLR 14/M01 A3020 RMK AO2 SLP225 T01391011", "KGON 091356Z 07009KT 10SM CLR 09/M08 A3054 RMK AO2 SLP341 T00891083", "KGOO 091355Z AUTO 00000KT 10SM CLR 09/06 A3018 RMK A01", "KGOP 091355Z AUTO 9SM BKN028 A3023 RMK AO2", "KGOV 091355Z AUTO 17005KT 10SM CLR 03/01 A3048 RMK AO2 SLP341 T00250007 $", "KGPC 091355Z AUTO 10006KT 10SM CLR 11/M02 A3047 RMK AO2 T01051019", "KGPH 091355Z AUTO 15008KT 10SM CLR 11/M01 A3030 RMK AO2", "KGPI 091355Z 00000KT 10SM CLR 01/M02 A3014 RMK AO2 SLP221 T00061022 $", "KGPM 091350Z 00000KT 10SM OVC034 16/12 A3022", "KGPT 091353Z 01011KT 10SM OVC008 12/09 A3019 RMK AO2 SLP224 T01170094", "KGPZ 091356Z AUTO 19010KT 10SM CLR 07/M03 A3010 RMK AO2 SLP205 T00721028", "KGRB 091353Z 19005KT 10SM CLR 06/02 A3040 RMK AO2 SLP303 T00560022", "KGRD 091356Z AUTO 05012G20KT 10SM CLR 09/03 A3037 RMK AO2 SLP285 T00890028", "KGRF 091355Z 00000KT 10SM -RA OVC040 09/07 A2997 RMK AO2A RAE16DZB16E26DZB35E40RAB40 SLP153 P0000 T00860071 $", "KGRI 091353Z 18016G25KT 10SM FEW110 12/M03 A3013 RMK AO2 SLP203 T01221033", "KGRK 091355Z AUTO 00000KT 9SM OVC026 15/13 A3021 RMK AO2 SLP228 T01520134", "KGRN 091355Z AUTO 33003KT 10SM CLR 06/00 A3014 RMK AO2 T00621004", "KGRR 091353Z 16005KT 10SM CLR 08/M01 A3048 RMK AO2 SLP327 T00781006", "KGRY 091355Z AUTO 05015KT 10SM SCT019 SCT025 BKN031 22/19 A3010 RMK A01", "KGSB 091355Z 03010G18KT 10SM FEW017 BKN100 08/06 A3033 RMK AO2A SLP275 WND DATA ESTMD T00810059 $", "KGSH 091353Z AUTO 15007KT 10SM CLR 11/M01 A3049 RMK AO2 SLP327 T01061006", "KGSO 091354Z 05014G19KT 10SM CLR 07/M02 A3041 RMK AO2 SLP299 T00721022", "KGSP 091353Z 05015G21KT 10SM CLR 09/M02 A3039 RMK AO2 PK WND 04026/1338 SLP291 T00891017", "KGTB 091355Z AUTO 25004KT 10SM CLR 05/M07 A3053 RMK AO2 SLP346 T00481067 $", "KGTF 091353Z 21011KT 10SM CLR 07/M02 A3009 RMK AO2 SLP203 T00671017 $", "KGTR 091356Z 08010KT 10SM OVC016 11/08 A3031 RMK AO2 SLP274 T01060078", "KGTU 091356Z 00000KT OVC033 14/13 A3023 RMK AO2 SLP236 T01440133 $", "KGUC 091356Z AUTO 00000KT 8SM CLR M07/M08 A3040 RMK AO2 SLP312 T10671083 FZRANO", "KGUL 091400Z AUTO 06005KT 10SM OVC029 22/17 A3011 RMK A01", "KGUP 091353Z AUTO 00000KT 10SM CLR M01/M08 A3030 RMK AO2 SLP217 T10111078", "KGUR 091355Z AUTO 30004KT 10SM CLR 02/M01 A3019 RMK AO2 SLP253 T00221007", "KGUS 091355Z AUTO 13009KT 10SM CLR 09/01 A3047 RMK AO2 SLP325 T00940006 $", "KGUY 091353Z AUTO 20011KT 10SM CLR 13/06 A3012 RMK AO2 SLP171 T01330061", "KGVE 091355Z AUTO 03007KT 10SM CLR 09/M03 A3048 RMK AO1 T00901031", "KGVL 091353Z AUTO 07011G23KT 10SM CLR 09/00 A3035 RMK AO2 SLP277 T00890000", "KGVQ 091356Z AUTO 10005KT 10SM CLR 04/M06 A3056 RMK AO2 SLP355 T00441056", "KGVT 091355Z AUTO 11005KT 10SM CLR 15/14 A3023 RMK AO2 TSNO T01480136", "KGVW 091355Z AUTO 07010KT 10SM FEW015 OVC040 19/16 A3017 RMK A01", "KGWB 091355Z AUTO 00000KT 10SM CLR 09/M01 A3051 RMK AO2", "KGWO 091353Z AUTO 08011KT 10SM OVC017 12/08 A3029 RMK AO2 SLP256 T01220083", "KGWR 091355Z AUTO 22011KT 10SM FEW120 01/01 A3010 RMK A01", "KGWW 091355Z AUTO 03012KT 10SM SCT120 08/05 A3037 RMK AO2 T00760053", "KGXA 091355Z AUTO 28004KT 10SM CLR 06/01 A3013 RMK AO2 SLP193 WND DATA ESTMD T00580006", "KGXF 091355Z AUTO 12004KT 10SM CLR 14/M05 A3005 RMK AO2 SLP168 T01391048 FZRANO $", "KGXY 091356Z 00000KT 10SM CLR 04/M01 A3023 RMK AO2 SLP236 T00441006", "KGYB 091355Z AUTO 00000KT 5SM BR OVC032 15/14 A3021 RMK AO2 T01490138", "KGYF 091355Z AUTO 04006KT 10SM SCT018 A3010 RMK AO2", "KGYH 091347Z 04015G22KT 10SM CLR 09/M01 A3037", "KGYI 091350Z 10007KT 10SM CLR 13/12 A3024", "KGYL 091355Z AUTO 19008KT 10SM CLR 08/00 A3019 RMK AO2 T00751004", "KGYR 091347Z 08005KT 10SM FEW250 14/00 A3007", "KGYY 091345Z 14006KT 10SM CLR 11/M01 A3048", "KGZL 091355Z AUTO 10008KT 10SM CLR 14/09 A3027 RMK AO2", "KGZN 091340Z AUTO 17008KT 1 3/4SM BR OVC003 12/12 A3019 RMK AO2", "KGZS 091355Z AUTO VRB04KT 10SM OVC014 11/10 A3033 RMK A01", "KH71 091355Z AUTO 14012KT 10SM CLR 15/09 A3025 RMK AO2", "KHAE 091355Z AUTO 14009G14KT 10SM CLR 12/M03 A3038 RMK AO2", "KHAF 091355Z AUTO 00000KT 10SM CLR 06/04 A3015 RMK AO2", "KHAI 091355Z AUTO 19006KT 10SM CLR 10/M02 A3050 RMK AO2 T00951019", "KHAO 091353Z AUTO 11007KT 10SM CLR 11/M03 A3049 RMK AO2 SLP327 T01111033", "KHBG 091353Z AUTO 05010G16KT 10SM OVC010 11/08 A3025 RMK AO2 SLP241 T01060083", "KHBI 091345Z AUTO 05010G16KT 10SM CLR 07/01 A3042 RMK AO2 T00720006", "KHBR 091353Z AUTO 20007KT 10SM CLR 13/10 A3021 RMK AO2 SLP225 T01330100", "KHBV 091355Z AUTO 09005KT 5SM BR OVC004 17/16 A3016 RMK AO2 T01700155", "KHCD 091355Z AUTO 17006KT 10SM SCT110 07/M01 A3020 RMK AO2 T00681011", "KHCO 091355Z AUTO 17010KT 7SM CLR M03/M04 A2999 RMK AO2", "KHCR 091355Z AUTO 11004KT 10SM OVC080 00/M02 A3031 RMK AO2", "KHDC 091355Z AUTO 06004KT 10SM OVC010 13/10 A3020 RMK AO2 T01260103", "KHDE 091355Z AUTO 16006KT 10SM BKN110 11/M02 A3013 RMK AO2 T01121017", "KHDL 091355Z AUTO 02007G14KT 340V090 10SM OVC011 09/09 A3022 RMK AO2", "KHDO 091351Z AUTO 09004KT 3SM BR OVC002 14/13 A3021 RMK AO2 SLP221 T01390133 $", "KHEF 091356Z 03007KT 10SM CLR 10/M02 A3050 RMK AO2 SLP336 T01001017", "KHEG 091355Z AUTO 34009KT 2SM -DZ FEW006 10/10 A3018 RMK AO2", "KHEI 091353Z AUTO 30005KT 10SM CLR 07/01 A3008 RMK AO2 SLP197 T00670006", "KHEQ 091355Z AUTO 31006KT 10SM CLR 12/00 A3018 RMK AO2", "KHEY 091355Z AUTO 05008KT 9SM OVC011 10/08 A3020 RMK AO2 SLP229 T00960077", "KHEZ 091356Z AUTO 08008KT 10SM OVC011 12/11 A3023 RMK AO2 SLP235 T01220111", "KHFD 091353Z 31005KT 10SM CLR 07/M05 A3056 RMK AO2 SLP348 T00721050", "KHFF 091355Z AUTO 07011KT 10SM FEW018 09/05 A3034 RMK AO2 SLP279 T00880050 $", "KHFJ 091355Z AUTO 12009KT 10SM CLR 11/07 A3029 RMK AO2", "KHFY 091355Z AUTO 09008KT 10SM CLR 12/M01 A3048 RMK AO2 T01171009", "KHGR 091353Z VRB03KT 10SM CLR 08/M02 A3049 RMK AO2 SLP338 T00781017 $", "KHHF 091355Z AUTO 23006KT 5SM RA SCT019 BKN043 OVC100 12/10 A3018 RMK AO2 LTG DSNT S T01210098", "KHHG 091355Z AUTO 11004KT 10SM CLR 10/00 A3049 RMK AO2 T00970002", "KHHR 091353Z 00000KT 4SM HZ OVC004 13/11 A3011 RMK AO2 SLP196 T01330106", "KHHW 091338Z AUTO 11006KT 10SM CLR 13/09 A3025 RMK AO2", "KHIE 091352Z AUTO 29004KT 10SM CLR 04/M10 A3051 RMK AO2 SLP346 T00391100", "KHIF 091355Z AUTO 11014KT 10SM CLR 04/M02 A3024 RMK AO2 SLP229 T00381018", "KHII 091355Z AUTO 00000KT 10SM CLR 15/M04 A3007 RMK AO2", "KHIO 091353Z 11006KT 10SM -RA OVC044 09/08 A3005 RMK AO2 SLP177 P0002 T00940083", "KHJH 091350Z AUTO 18011G15KT 10SM CLR 14/M04 A3018 RMK AO2 T01351036", "KHJO 091353Z AUTO 32006KT 10SM CLR 11/08 A3016 RMK AO2 SLP214 T01060083", "KHKA 091353Z AUTO 12006KT 10SM OVC029 13/08 A3033 RMK AO2 SLP272 T01330083 $", "KHKS 091353Z 07006KT 4SM -RA BR OVC009 12/11 A3024 RMK AO2 RAB49 CIG 006V011 SLP236 P0000 T01170106", "KHKY 091353Z 04012G19KT 10SM CLR 08/M03 A3041 RMK AO2 SLP291 T00831028", "KHLB 091355Z AUTO 08007KT 10SM CLR 11/M03 A3046 RMK A01", "KHLC 091353Z AUTO 17010KT 10SM FEW120 14/07 A3012 RMK AO2 SLP191 T01390067", "KHLG 091353Z 05009KT 10SM CLR 08/M07 A3049 RMK AO2 SLP332 T00831067", "KHLN 091353Z 14003KT 10SM CLR 06/M03 A3016 RMK AO2 SLP231 T00561028", "KHLR 091355Z AUTO 00000KT 10SM OVC028 15/14 A3021 RMK AO2 SLP227 T01540138", "KHLX 091355Z AUTO 36005KT 10SM CLR 04/M05 A3039 RMK AO2 T00361051", "KHMN 091355Z AUTO 32003KT 10SM CLR 12/M03 A3019 RMK AO2 SLP177 T01201026 $", "KHMP 091355Z AUTO 06007KT 10SM OVC018 08/05 A3035 RMK AO2 T00830046", "KHMT 091355Z AUTO 00000KT 10SM CLR 06/06 A3010 RMK AO2 T0063////", "KHMZ 091355Z AUTO 00000KT 10SM CLR 05/M05 A3048 RMK AO2 T00541053", "KHNB 091356Z AUTO 09008KT 10SM CLR 11/M02 A3043 RMK AO2 SLP307 T01061022", "KHND 091356Z 19005KT 10SM CLR 12/M03 A3017 RMK AO2 SLP222 T01171028", "KHNR 091355Z AUTO 17015G21KT 10SM CLR 11/M02 A3024 RMK A01", "KHNZ 091355Z AUTO 04010KT 10SM CLR 07/M01 A3042 RMK AO2 P0002 T00681008", "KHOB 091350Z VRB05KT 10SM OVC005 13/11 A3020", "KHOE 091355Z AUTO 02011G15KT 340V060 10SM OVC008 09/07 A3022 RMK AO2 T00950080", "KHON 091355Z AUTO 17003KT 10SM OVC110 04/01 A3012 RMK AO2 SLP210 T00440006", "KHOP 091355Z AUTO 09008KT 10SM CLR 10/00 A3035 RMK AO2 SLP280 T01020002", "KHOT 091353Z AUTO 09006KT 10SM OVC008 13/11 A3028 RMK AO2 CIG 007V011 SLP253 T01280111 PNO", "KHOU 091353Z 06005KT 10SM FEW011 BKN020 OVC036 18/16 A3018 RMK AO2 SLP223 T01830156 $", "KHPN 091356Z 10007KT 350V120 10SM CLR 08/M09 A3051 RMK AO2 SLP337 T00781089", "KHPT 091355Z AUTO 18014G18KT 10SM CLR 12/M03 A3029 RMK AO2", "KHQG 091355Z AUTO 20008KT 10SM CLR 13/07 A3012 RMK AO2 T01320071", "KHQG 091355Z AUTO 20008KT 10SM CLR 13/07 A3012 RMK AO2 T01320071", "KHQM 091403Z AUTO 11008KT 3SM -RA BR OVC009 09/08 A2997 RMK AO2 P0001 T00940083", "KHQU 091355Z AUTO 03013G23KT 360V060 10SM OVC018 09/04 A3033 RMK AO2 P0001 T00850043", "KHQZ 091350Z 09007KT 10SM BKN038 17/14 A3022", "KHRF 091400Z AUTO 20012G17KT 10SM CLR 04/M02 A3020 RMK AO2 Hamilton ", "KHRI 091353Z AUTO 23004KT 10SM BKN100 OVC120 07/05 A3009 RMK AO2 SLP190 T00720050", "KHRJ 091345Z AUTO 02017G21KT 10SM SCT120 09/05 A3038 RMK AO2 T00920048", "KHRL 091352Z 03008KT 10SM BKN080 BKN100 20/19 A3012 RMK AO2 SLP198 T02000189 $", "KHRO 091353Z AUTO 13005KT 10SM OVC012 10/07 A3031 RMK AO2 SLP261 T01000072 $", "KHRT 091355Z AUTO 05014KT 10SM OVC007 10/08 A3018 RMK AO2 DZB29E53 SLP222 P0000 T01020081 $", "KHRX 091355Z AUTO 16005KT 10SM SCT044 12/10 A3021 RMK AO2 T01190095", "KHSA 091350Z 02012KT 7SM OVC007 12/10 A3019", "KHSB 091355Z AUTO 00000KT 10SM CLR 11/02 A3041 RMK AO2 T01060019", "KHSD 091355Z AUTO 17009KT 10SM CLR 14/M00 A3021 RMK A01", "KHSE 091351Z AUTO 04012G23KT 10SM OVC085 11/ A3028 RMK AO2 RAE39 SLP252 P0002 T0106", "KHSG 091350Z AUTO 23004KT 10SM CLR 02/M01 A3021 RMK AO2 T00211010", "KHSI 091353Z AUTO 18009G15KT 10SM FEW120 11/M03 A3015 RMK AO2 SLP207 T01111028", "KHSP 091355Z AUTO 09007KT 10SM CLR 05/M16 A3039 RMK AO2 T00531157", "KHST 091355Z AUTO 30006KT 10SM CLR 27/20 A3002 RMK AO2 SLP169 T02670195 $", "KHSV 091353Z 06006KT 10SM FEW017 SCT037 12/08 A3032 RMK AO2 SLP265 T01220083 $", "KHTH 091355Z AUTO 13003KT 10SM CLR 04/M02 A3026 RMK A01", "KHTL 091353Z AUTO 16006KT 10SM CLR 02/M01 A3048 RMK AO2 SLP336 T00171006", "KHTS 091351Z VRB06KT 10SM CLR 09/M04 A3045 RMK AO2 SLP314 T00941039", "KHUA 091355Z AUTO 09005KT 10SM BKN036 12/08 A3031 RMK AO2 SLP265 T01210082", "KHUF 091353Z 12006KT 10SM CLR 11/M02 A3046 RMK AO2 SLP317 T01111017", "KHUL 091353Z AUTO 27010G16KT 10SM CLR 02/M09 A3042 RMK AO2 SLP307 T00221094", "KHUM 091347Z 05010KT 7SM OVC009 17/14 A3017", "KHUT 091352Z 16006KT 10SM CLR 11/M02 A3021 RMK AO2 SLP220 T01061017", "KHVE 091355Z AUTO 00000KT 10SM CLR 02/M05 A3028 RMK AO2", "KHVN 091353Z 07008KT 10SM CLR 10/M06 A3054 RMK AO2 SLP340 T01001061", "KHVR 091353Z AUTO 22014G21KT 10SM CLR 05/M02 A3005 RMK AO2 SLP186 T00501017", "KHVS 091355Z AUTO 04014KT 10SM BKN016 09/05 A3033 RMK AO2", "KHWD 091354Z 06005KT 10SM CLR 08/05 A3017 RMK AO2 SLP226 T00830050", "KHWO 091353Z 30008KT 10SM SCT021 26/19 A3004 RMK AO2 SLP172 T02610194 $", "KHWV 091356Z AUTO VRB06KT 10SM CLR 09/M04 A3053 RMK AO2 SLP338 T00891039", "KHWY 091355Z AUTO 02005KT 10SM CLR 10/M03 A3050 RMK AO2 T00991035", "KHXD 091350Z 05010G25KT 7SM OVC008 11/08 A3022", "KHYA 091356Z 04010G18KT 10SM CLR 07/M07 A3052 RMK AO2 SLP337 T00671072", "KHYI 091356Z 34004KT 10SM OVC014 14/14 A3021 RMK AO2 SLP225 T01400140 $", "KHYR 091353Z AUTO 18009KT 10SM CLR 07/M01 A3023 RMK AO2 SLP246 T00671011", "KHYS 091356Z AUTO 17018G23KT 10SM SCT120 14/07 A3015 RMK AO2 LTG DSNT SE SLP203 T01390067 $", "KHYW 091355Z AUTO 01013G16KT 10SM -RA OVC008 08/07 A3028 RMK AO2", "KHYX 091355Z AUTO 17004KT 10SM CLR 07/M01 A3052 RMK AO2 T00661007", "KHZD 091355Z AUTO 07008KT 10SM OVC011 11/09 A3033 RMK A01", "KHZE 091355Z AUTO 26005KT 9SM BKN100 01/01 A3005 RMK AO2", "KHZR 091355Z AUTO 06007KT 10SM SCT012 OVC022 15/13 A3020 RMK AO2 T01450125", "KHZX 091355Z AUTO 19007KT 10SM OVC110 07/M02 A3013 RMK AO2", "KHZY 091353Z AUTO 09009KT 10SM CLR 08/M05 A3053 RMK AO2 SLP345 T00831050", "KI16 091355Z AUTO 10SM CLR 09/M03 A3047 RMK AO2 T00901028", "KI19 091355Z AUTO 12007G14KT 10SM CLR 10/M02 A3048 RMK AO2", "KI23 091355Z AUTO 08010KT 10SM CLR 09/M04 A3048 RMK AO1", "KI35 091401Z AUTO 12003KT 10SM CLR 09/00 A3039 RMK AO2", "KI63 091355Z AUTO 18009KT 10SM CLR 11/M01 A3040 RMK AO2 T01111013", "KI67 091355Z AUTO 06003KT 10SM CLR 08/00 A3048 RMK AO1", "KI68 091355Z AUTO 09008KT 10SM 10/M01 A3048 RMK AO1 T01001013", "KI69 091355Z AUTO 09008KT 10SM CLR 11/M04 A3048 RMK AO2 T01101038", "KI74 091355Z AUTO 12004KT 10SM CLR 09/M03 A3050 RMK AO2", "KI75 091355Z AUTO 15010KT 10SM CLR 12/00 A3030 RMK AO2 T01240000", "KIAB 091355Z AUTO 18009KT 10SM CLR 13/M03 A3019 RMK AO2 SLP223 T01271028 $", "KIAD 091352Z 34005KT 10SM CLR 10/M02 A3049 RMK AO2 SLP327 T01001017", "KIAG 091353Z 10004KT 10SM CLR 07/M04 A3057 RMK AO2 SLP362 T00671044", "KIAH 091353Z 08004KT 10SM FEW011 FEW020 OVC033 17/16 A3019 RMK AO2 SLP222 T01670156", "KIBM 091355Z AUTO 28009KT 10SM CLR 06/M02 A3020 RMK AO2 T00571019", "KICR 091353Z AUTO 24007KT 10SM CLR 12/02 A3011 RMK AO2 SLP199 T01170022", "KICT 091353Z 16008KT 10SM BKN190 BKN250 12/M01 A3021 RMK AO2 SLP229 T01171011", "KIDA 091353Z 00000KT 10SM CLR M01/M02 A3030 RMK AO2 SLP268 T10061022 $", "KIDI 091355Z AUTO 10011KT 10SM CLR 06/M08 A3052 RMK A01", "KIDP 091355Z AUTO 15009KT 10SM CLR 13/07 A3026 RMK AO2 T01280073", "KIEN 091352Z AUTO 25006KT 10SM CLR 05/00 A3015 RMK AO2 SLP222 T00500000", "KIER 091355Z AUTO 08006KT 10SM OVC014 15/13 A3022 RMK AO2 T01540128", "KIFA 091355Z AUTO 17016G20KT 10SM CLR 12/00 A3030 RMK AO2 T01211002", "KIFP 091355Z AUTO 00000KT 10SM CLR 14/M01 A3008 RMK AO2", "KIGM 091351Z AUTO 00000KT 10SM CLR 07/M01 A3018 RMK AO2 SLP177 T00721006", "KIGQ 091355Z AUTO 15005KT 10SM CLR 10/01 A3048 RMK AO2 T01020008", "KIIB 091355Z AUTO 18013KT 10SM CLR 11/M01 A3036 RMK AO2 T01121010", "KIIY 091355Z AUTO 06010G21KT 10SM SCT021 09/04 A3035 RMK AO2 T00910039", "KIJD 091352Z AUTO 06007KT 10SM CLR 07/M08 A3054 RMK AO2 SLP344 T00721078", "KIJX 091355Z AUTO 16008KT 10SM CLR 12/M03 A3041 RMK AO2 T01171026", "KIKG 091355Z AUTO 01006KT 5SM BR OVC003 16/15 A3017 RMK AO2 T01610151", "KIKK 091355Z AUTO 14008KT 10SM CLR 10/01 A3048 RMK AO2 T01030009", "KIKT 091400Z AUTO 03015G27KT 10SM BKN015 BKN021 OVC026 20/18 A3011 RMK A01", "KIKV 091355Z AUTO 17012KT 10SM CLR 12/M02 A3031 RMK AO2", "KIKW 091355Z AUTO 00000KT 10SM CLR 04/02 A3051 RMK AO2 T00400016", "KILE 091356Z AUTO 00000KT 10SM OVC030 16/14 A3022 RMK AO2 SLP227 T01560139", "KILG 091351Z 04005KT 10SM CLR 11/M01 A3050 RMK AO2 SLP328 T01111006 $", "KILM 091400Z 02013KT 10SM -RA BKN015 OVC020 10/08 A3028 RMK AO2 P0000 T01000083", "KILN 091354Z AUTO 10008KT 10SM CLR 09/M02 A3048 RMK AO2 SLP334 T00941017", "KIML 091353Z AUTO 33005KT 10SM CLR 11/00 A3016 RMK AO2 SLP209 T01060000", "KIMM 091355Z AUTO VRB04G10KT 10SM SCT019 BKN025 BKN060 A3002 RMK AO2", "KIMS 091355Z AUTO 10008KT 10SM CLR 10/M03 A3047 RMK AO2", "KIMT 091354Z AUTO 14004KT 9SM CLR 00/00 A3034 RMK AO2 SLP289 T00000000", "KIND 091354Z 08006KT 10SM FEW250 11/M03 A3047 RMK AO2 SLP319 T01061028", "KINF 091355Z AUTO 03011KT 7SM OVC006 17/16 A3010 RMK AO2", "KINJ 091355Z AUTO 09006KT 10SM OVC034 16/16 A3020 RMK AO2 T01580158", "KINK 091353Z AUTO 12009KT 9SM CLR 14/12 A3013 RMK AO2 SLP173 T01440117", "KINL 091354Z AUTO 21013G20KT 10SM CLR 08/M02 A2999 RMK AO2 SLP166 T00831022 $", "KINS 091355Z AUTO 27005KT 10SM CLR 07/M02 A3018 RMK AO2 SLP197 T00681016 $", "KINT 091354Z 05014G19KT CLR 08/M02 A3043 RMK AO2 SLP305 T00831017", "KINW 091356Z AUTO 13003KT 10SM CLR 03/M07 A3026 RMK AO2 SLP224 T00331072", "KIOB 091355Z AUTO 10009KT 10SM CLR 10/M05 A3045 RMK AO2 PWINO", "KIOW 091352Z AUTO 15006KT 10SM CLR 10/01 A3039 RMK AO2 SLP292 T01000011", "KIPJ 091350Z AUTO 05011KT 10SM CLR 08/M01 A3041 RMK AO2 T00801007", "KIPL 091353Z AUTO 25003KT 10SM CLR 14/05 A3000 RMK AO2 SLP160 T01440050", "KIPT 091354Z 22004KT 10SM CLR 07/M06 A3052 RMK AO2 SLP339 T00721061", "KIRK 091355Z AUTO 16013KT 10SM CLR 11/M01 A3036 RMK AO2 SLP285 T01111006 $", "KIRS 091355Z AUTO 18007KT 10SM CLR 10/M09 A3049 RMK AO2 T00961088", "KISM 091356Z 05010KT 10SM OVC011 21/18 A3008 RMK AO2 SLP184 T02060178 PNO $", "KISO 091356Z 03013G19KT 7SM OVC013 09/07 A3036", "KISP 091356Z 06009KT 10SM FEW250 09/M04 A3052 RMK AO2 SLP334 T00891039", "KISQ 091355Z AUTO 13010KT 10SM CLR 03/01 A3042 RMK AO2 T00250010", "KISW 091354Z AUTO 20007KT 10SM CLR 09/01 A3037 RMK AO2 SLP290 T00940006 $", "KITH 091356Z VRB04KT 10SM CLR 04/M06 A3054 RMK AO2 SLP352 T00441061", "KITR 091353Z AUTO 32008KT 10SM CLR 11/M01 A3019 RMK AO2 SLP193 T01111006", "KIUA 091355Z AUTO 00000KT 10SM CLR 06/M07 A3055 RMK AO2 T00551067", "KIWA 091353Z 12006KT 10SM CLR 11/00 A3008", "KIWD 091356Z AUTO 18013G21KT 10SM CLR 07/M02 A3022 RMK AO2 SLP243 T00671022", "KIWI 091353Z AUTO VRB04KT 10SM CLR 07/M11 A3053 RMK AO2 SLP340 T00721106", "KIXA 091350Z AUTO 03012G18KT 10SM CLR 08/03 A3041 RMK AO2", "KIXD 091353Z 15014G24KT 10SM CLR 13/06 A3028 RMK AO2 SLP253 T01330056", "KIYA 091355Z AUTO 02003KT 10SM OVC006 16/14 A3018 RMK AO2 T01620137", "KIZA 091355Z AUTO 05004KT 1/4SM UP FG OVC002 10/10 A3009 RMK AO2", "KIZG 091354Z AUTO 00000KT 10SM CLR 06/M12 A3052 RMK AO2 SLP341 T00611122", "KJAC 091356Z 00000KT 10SM OVC050 M01/M04 A3029 RMK AO2 SLP284 T10111039", "KJAN 091354Z 06009G14KT 2SM BR BKN007 OVC011 12/11 A3025 RMK AO2 SLP241 T01220106", "KJAQ 091355Z AUTO 00000KT 10SM CLR 13/07 A3016 RMK AO1 T01250066", "KJAS 091355Z AUTO 07004KT 10SM OVC021 17/15 A3019 RMK AO2", "KJAU 091350Z AUTO 05004KT 10SM CLR 09/M00 A3042 RMK A01", "KJAX 091356Z 36009KT 2 1/2SM -DZ BR OVC006 12/11 A3016 RMK AO2 SLP213 P0001 T01170106 $", "KJBR 091353Z AUTO 05009KT 10SM OVC017 12/08 A3034 RMK AO2 SLP274 T01220083 TSNO $", "KJCA 091355Z AUTO 07012G21KT 10SM CLR 09/00 A3035 RMK AO2 T00900001", "KJCT 091351Z AUTO 00000KT M1/4SM FG VV002 12/12 A3021 RMK AO2 SLP206 T01220122", "KJDD 091355Z AUTO 11004KT 10SM CLR 15/13 A3023 RMK AO2", "KJDN 091348Z AUTO 30003KT 04/M01 A3008 RMK AO1 SLP199 T00441006", "KJEF 091353Z 11009KT 10SM CLR 12/00 A3037 RMK AO2 SLP273 T01170000 $", "KJER 091353Z AUTO 08009KT 10SM CLR 03/M01 A3025 RMK AO2 SLP247 T00281011", "KJES 091355Z AUTO 04008G14KT 10SM OVC009 10/08 A3024 RMK AO2", "KJFK 091351Z 06009KT 10SM FEW200 FEW250 09/M03 A3052 RMK AO2 SLP336 T00941033 $", "KJFX 091355Z AUTO 09008G13KT 10SM SCT019 11/08 A3032 RMK AO2", "KJFZ 091355Z AUTO 05003KT 10SM CLR A3039 RMK AO2", "KJHN 091355Z AUTO 33008KT 10SM CLR 12/M02 A3014 RMK AO2 T01161022", "KJHW 091356Z AUTO VRB05KT 10SM CLR 04/M06 A3052 RMK AO2 SLP354 T00441056 PNO $", "KJKA 091356Z 04010G16KT 10SM OVC010 11/09 A3019", "KJKJ 091355Z AUTO 17008KT 10SM CLR 01/M02 A3010 RMK AO2 TSNO", "KJKL 091353Z AUTO VRB03KT 10SM CLR 10/M04 A3042 RMK AO2 SLP300 T01001039", "KJLN 091353Z 15015G21KT 10SM CLR 13/07 A3029 RMK AO2 SLP252 T01330072", "KJMR 091355Z AUTO 17006KT 10SM SCT110 08/M02 A3020 RMK AO2", "KJMS 091356Z AUTO 00000KT 10SM SCT110 01/M02 A3004 RMK AO2 SLP190 T00111022", "KJNX 091350Z AUTO 04011G17KT 10SM CLR 09/05 A3038 RMK AO2", "KJOT 091355Z AUTO 16004KT 10SM CLR 12/00 A3047 RMK AO2 T01180000", "KJPX 091355Z AUTO 07007G16KT 040V100 10SM CLR 07/M04 A3053 RMK AO2 T00701039 FZRANO", "KJQF 091355Z 06012G23KT 10SM CLR 09/M01 A3043", "KJRB 091356Z AUTO 06011KT 10SM CLR 09/M02 A3053 RMK AO2 SLPNO T00941017", "KJRO 091355Z AUTO 06008KT 10SM CLR 11/M03 A3049 RMK AO2", "KJST 091354Z AUTO 03007KT 10SM CLR 06/M07 A3044 RMK AO2 SLP322 T00561067", "KJSV 091355Z AUTO 11012G19KT 10SM CLR 14/11 A3027 RMK AO2", "KJSY 091355Z AUTO 00000KT 10SM CLR 01/M02 A3016 RMK AO2 T00081023 TSNO", "KJTC 091355Z AUTO 18006KT 10SM CLR 04/M07 A3029 RMK AO2", "KJVW 091255Z AUTO VRB04KT OVC009 13/13 A3023 RMK AO2", "KJVY 091355Z AUTO 03003KT 10SM CLR 09/00 A3041 RMK AO2 PWINO", "KJWG 091355Z AUTO 21005KT 10SM CLR 14/03 A3023 RMK AO2 T01410034", "KJWN 091350Z 08008KT 10SM CLR 11/07 A3034", "KJWY 091355Z AUTO 00000KT 10SM OVC033 15/13 A3024 RMK AO2 T01450131", "KJXN 091356Z 16006KT 10SM CLR 09/M06 A3050 RMK AO2 SLP335 T00891056 $", "KJYG 091355Z AUTO 17013KT 10SM 08/M01 A3019 RMK AO2", "KJYL 091355Z AUTO 06010KT 10SM OVC011 08/07 A3027 RMK AO2 T00820065", "KJYM 091355Z AUTO 15005KT 10SM CLR 09/M09 A3050 RMK AO2 T00901094", "KJYO 091355Z AUTO 00000KT 10SM CLR 08/M01 A3051 RMK AO2", "KJYR 091355Z AUTO 16015KT 10SM CLR 10/M05 A3015 RMK AO2", "KJZI 091355Z AUTO 01011KT 1 3/4SM -DZ BKN012 BKN016 BKN044 10/09 A3023 RMK AO2", "KJZP 091355Z AUTO 16008KT 10SM CLR 09/02 A3036 RMK AO2 T00900021", "KK62 091355Z AUTO 07011G14KT 10SM CLR 09/M04 A3045 RMK AO2", "KK70 091350Z AUTO 27005KT 10SM CLR 26/24 A3001 RMK AO2", "KK82 091355Z AUTO 12009KT 10SM OVC100 09/M01 A3015 RMK AO2 T00911006", "KKLS 091356Z AUTO 14008G16KT BKN029 OVC046 11/07 A3004 RMK AO2 SLP176 P0001 T01060072 PWINO $", "KKNB 091355Z AUTO 07006KT 10SM CLR 03/M01 A3030 RMK A01", "KKY8 091355Z AUTO 01005KT 10SM CLR 11/00 A3042 RMK A01", "KL08 091355Z AUTO 30004KT 10SM CLR 11/04 A3003 RMK AO2", "KL18 091355Z AUTO 00000KT M1/4SM FG OVC002 09/09 A3011 RMK AO2", "KL35 091355Z AUTO 00000KT 10SM CLR M02/M03 A3028 RMK AO2", "KL52 091355Z AUTO M1/4SM FG 09/09 A3011 RMK A01", "KLAA 091353Z AUTO 27005KT 10SM CLR 12/M02 A3019 RMK AO2 SLP192 T01171022", "KLAF 091354Z 09005KT 10SM CLR 10/M02 A3048 RMK AO2 SLP324 T01001017", "KLAL 091353Z 01009KT 10SM OVC015 22/19 A3006", "KLAM 091355Z AUTO 01005KT 8SM CLR 08/M08 A3030 RMK AO2 T00821080 $", "KLAN 091353Z AUTO 20006KT 10SM CLR 09/M04 A3051 RMK AO2 SLP336 T00891044 $", "KLAR 091353Z AUTO 22014KT CLR 03/M04 A3023 RMK AO2 SLP209 T00281039 $", "KLAS 091356Z 22003KT 10SM FEW250 14/M02 A3015 RMK AO2 SLP195 T01391017", "KLAW 091353Z 00000KT 10SM CLR 12/05 A3021 RMK AO2 SLP227 T01220050", "KLAX 091353Z 00000KT 1 1/4SM BR OVC003 12/11 A3011 RMK AO2 SLP193 VIS SW-NW 3/4 T01170111", "KLBB 091353Z 26007KT 10SM FEW019 BKN110 BKN160 OVC260 15/09 A3021 RMK AO2 SLP197 SHRA DSNT SW-NW BINOVC DSNT NE T01500094", "KLBE 091347Z VRB05KT 10SM CLR 05/M04 A3049", "KLBF 091353Z AUTO 00000KT 10SM CLR 08/01 A3013 RMK AO2 SLP195 T00780006", "KLBL 091356Z AUTO 21009KT 10SM CLR 15/08 A3014 RMK AO2 SLP189 T01500083", "KLBO 091355Z AUTO 12005KT 10SM CLR 11/01 A3034 RMK AO2", "KLBT 091356Z AUTO 03015KT 10SM OVC015 09/07 A3033 RMK AO2 SLP269 T00890067", "KLBX 091403Z AUTO 03006KT 10SM BKN011 BKN043 18/16 A3017 RMK AO2 T01780161", "KLCG 091355Z AUTO 20009KT 10SM SCT120 11/M05 A3018 RMK AO2 T01061047", "KLCH 091353Z AUTO 04007KT 10SM OVC013 16/14 A3018 RMK AO2 SLP226 T01560139", "KLCI 091356Z AUTO VRB04KT 10SM CLR 05/M08 A3054 RMK AO2 SLP346 T00501083 $", "KLCK 091355Z AUTO 06006KT 10SM CLR 10/M03 A3050 RMK AO2 T00971028", "KLCQ 091355Z AUTO 03010G15KT 10SM OVC005 10/09 A3017 RMK AO2", "KLDJ 091355Z AUTO 10006KT 10SM CLR 10/M04 A3052 RMK AO2 T00951045", "KLDM 091355Z AUTO 18007KT 10SM CLR 10/M02 A3045 RMK AO2 T00971019", "KLEB 091353Z 00000KT 10SM CLR 03/M07 A3054 RMK AO2 SLP352 T00281072", "KLEE 091353Z 03013G20KT 10SM OVC008 18/16 A3009 RMK AO2 CIG 007V011 SLP188 T01780156", "KLEW 091356Z AUTO 32006KT 10SM CLR 05/M12 A3053 RMK AO2 SLP347 T00501117", "KLEX 091354Z 06009KT 10SM CLR 12/M04 A3043 RMK AO2 SLP304 T01171039", "KLFI 091355Z 01014KT 10SM CLR 11/04 A3042 RMK AO2A SLP308 T01050042 $", "KLFK 091353Z AUTO 07005KT 10SM CLR 18/14 A3021 RMK AO2 SLP225 T01780144", "KLFT 091353Z 05006KT 4SM BR OVC004 16/16 A3017 RMK AO2 SLP216 T01610156", "KLGA 091351Z 04013KT 10SM FEW180 FEW250 08/M03 A3052 RMK AO2 SLP336 T00781033", "KLGB 091353Z AUTO 00000KT 4SM HZ OVC004 14/11 A3011 RMK AO2 SLP194 T01390106", "KLGC 091355Z AUTO 09008KT 040V150 10SM OVC017 09/05 A3030 RMK AO2 T00900045", "KLGD 091356Z AUTO 04008KT 020V090 10SM CLR 08/02 A3015 RMK AO2 SLP214 T00780017", "KLGF 091355Z AUTO 00000KT 10SM CLR 16/M02 A3001 RMK AO2 SLP161 T01581022 TSNO $", "KLGU 091401Z AUTO 01005KT 4SM BR FEW002 M01/M02 A3030 RMK AO2 T10061017", "KLHB 091355Z AUTO 00000KT 10SM OVC032 16/15 A3022 RMK AO2 T01620147", "KLHM 091355Z AUTO 00000KT 10SM CLR 06/06 A3016 RMK AO1", "KLHQ 091353Z AUTO VRB03KT 10SM CLR 09/M02 A3050 RMK AO2 SLP333 T00941017", "KLHW 091355Z AUTO 01011KT 10SM OVC009 09/07 A3020 RMK AO2 SLP230 T00890072 $", "KLHX 091353Z AUTO VRB03KT 10SM CLR 09/M03 A3023 RMK AO2 SLP204 T00941033", "KLHZ 091355Z AUTO 04010KT 10SM CLR 08/01 A3042 RMK AO2", "KLIC 091355Z AUTO 29003KT 10SM CLR 08/M02 A3024 RMK AO2 SLP210 T00781022", "KLIT 091405Z 11007KT 10SM BKN015 OVC040 14/10 A3030 RMK AO2 T01440100", "KLJF 091355Z AUTO 00000KT 10SM SCT110 07/M03 A3016 RMK AO2", "KLKR 091355Z AUTO 04009G15KT 10SM CLR 09/03 A3036 RMK AO2", "KLKU 091355Z AUTO 01007KT 340V040 10SM CLR 09/M01 A3048 RMK AO2 T00901007", "KLKV 091353Z AUTO 00000KT 10SM CLR M01/M02 A3022 RMK AO2 SLP248 T10111022 FZRANO", "KLLJ 091355Z AUTO 00000KT 10SM SCT060 00/M04 A3026 RMK AO2 SLP245 T00001044", "KLLN 091355Z AUTO 00000KT 10SM FEW060 FEW075 SCT095 13/08 A3022 RMK AO2", "KLLQ 091353Z AUTO 07007KT 9SM OVC009 13/12 A3027 RMK AO2 CIG 007V013 SLP249 T01330117", "KLMO 091355Z AUTO 00000KT 10SM CLR 07/00 A3023 RMK AO2 T00690000", "KLMS 091355Z AUTO 08007KT 050V110 10SM OVC010 10/09 A3031 RMK AO2", "KLMT 091353Z 11004KT 10SM BKN075 04/M02 A3017 RMK AO2 SLP210 T00391022", "KLNA 091355Z AUTO 27007KT 10SM SCT070 26/22 A3002 RMK AO2 T02560216", "KLNC 091355Z AUTO 00000KT 10SM OVC037 15/13 A3022 RMK AO2 T01500126", "KLND 091353Z AUTO 16003KT 10SM CLR 01/M06 A3021 RMK AO2 SLP234 T00061056", "KLNK 091354Z 17009KT 10SM CLR 11/M04 A3022 RMK AO2 SLP232 T01111039", "KLNL 091355Z AUTO 21006KT 10SM CLR 06/M02 A3031 RMK AO2 T00591016", "KLNN 091355Z AUTO 12006KT 10SM CLR 09/M06 A3053 RMK AO1 T00941061", "KLNP 091355Z AUTO 06003KT CLR 05/M03 RMK AO1", "KLNQ 091355Z AUTO 04010G15KT 10SM OVC012 18/15 A3016 RMK AO2 T01840150", "KLNR 091356Z AUTO 18005KT 10SM CLR 11/01 A3039 RMK AO2 SLP289 T01110006", "KLNS 091353Z VRB04KT 10SM CLR 10/00 A3049 RMK AO2 SLP327 T01000000", "KLOL 091353Z AUTO 00000KT 10SM CLR M01/M06 A3023 RMK AO2 SLP239 T10111061", "KLOM 091355Z AUTO 07008KT 10SM CLR 09/M02 A3050 RMK AO2 T00911025", "KLOR 091355Z AUTO 04007KT 9SM OVC012 09/07 A3022 RMK AO2 SLP218 T00940072", "KLOT 091345Z 16007KT 10SM CLR 10/00 A3048", "KLOU 091353Z 03004KT 10SM CLR 11/M04 A3044 RMK AO2 SLP308 T01111039", "KLOZ 091353Z AUTO 08009KT 10SM CLR 10/M03 A3039 RMK AO2 SLP291 T01001033", "KLPR 091353Z AUTO VRB03KT 10SM CLR 08/M03 A3052 RMK AO2 SLP340 T00831033", "KLQK 091355Z AUTO 06009G16KT 020V090 10SM CLR 10/M01 A3036 RMK AO2 T01041014", "KLRD 091356Z 12007KT 10SM OVC010 18/16 A3016 RMK AO2 SLP213 T01830161", "KLRF 091355Z 07007KT 10SM BKN009 OVC015 14/13 A3028 RMK AO2A SLP256 T01360130", "KLRJ 091355Z AUTO 17015KT 10SM CLR 12/M05 A3016 RMK AO2", "KLRO 091355Z AUTO 36007G13KT 5SM BR SCT009 BKN013 BKN020 10/09 A3023 RMK AO2", "KLRU 091355Z AUTO 34003KT 10SM CLR 18/M03 A3017 RMK AO2 T01771035", "KLRY 091355Z AUTO 17007KT 10SM CLR 13/03 A3033 RMK AO2", "KLSE 091353Z 16010KT 10SM CLR 12/M01 A3033 RMK AO2 SLP270 T01221011", "KLSF 091355Z AUTO 04005KT 10SM BKN011 09/06 A3027 RMK AO2 SLP256 T00880062 $", "KLSV 091355Z AUTO 30003KT 10SM CLR 12/M01 A3012 RMK AO2 SLP188 T01201009 $", "KLTS 091355Z AUTO 15005KT 10SM CLR 12/10 A3019 RMK AO2 SLP220 T01190101 $", "KLUA 091355Z AUTO 00000KT 10SM CLR 08/M02 A3048 RMK AO2", "KLUD 091355Z AUTO 00000KT 7SM CLR 15/12 A3021 RMK AO2 T01450117", "KLUF 091355Z AUTO 32003KT 10SM CLR 15/M00 A3005 RMK AO2 SLP169 T01461003 $", "KLUG 091355Z AUTO VRB04KT 10SM FEW009 11/08 A3033 RMK A01", "KLUK 091353Z 01006KT 10SM CLR 11/M01 A3048 RMK AO2 SLP324 T01061006", "KLUL 091355Z AUTO 08010KT 10SM OVC010 10/09 A3025 RMK A02 T01050091", "KLUM 091355Z 09003KT 10SM CLR 09/01 A3028 RMK AO2 T00890005 PWINO", "KLUV 091355Z AUTO 17003KT 10SM OVC009 13/11 A3022 RMK AO2", "KLUX 091355Z AUTO 04010G20KT 10SM CLR 08/01 A3037 RMK AO2", "KLVJ 091353Z AUTO 05005KT 9SM FEW010 OVC016 19/16 A3019 RMK AO2 SLP221 T01890161", "KLVK 091353Z 00000KT 10SM CLR 07/04 A3017 RMK AO2 SLP214 T00720044", "KLVL 091355Z AUTO 03006KT 10SM CLR 10/01 A3044 RMK AO1 T01010005", "KLVM 091353Z AUTO 24021KT 10SM CLR 07/M04 A3018 RMK AO2 PK WND 23027/1348 SLP215 T00671039", "KLVN 091355Z AUTO 21007KT 193V283 10SM CLR 11/M03 A3023 RMK AO2", "KLWA 091355Z AUTO 17006KT 10SM CLR 11/M01 A3047 RMK AO2 T01121013", "KLWB 091345Z 04004KT 10SM CLR 04/M04 A3042", "KLWC 091352Z AUTO 15009KT 7SM CLR 13/06 A3028 RMK AO1 SLP252 T01330056", "KLWD 091353Z AUTO 17009G17KT 10SM CLR 11/M02 A3030 RMK AO2 SLP262 T01111017", "KLWM 091354Z VRB03KT 10SM CLR 07/M09 A3057 RMK AO2 SLP352 T00671089 $", "KLWS 091356Z 09006KT 10SM CLR 08/02 A3013 RMK AO2 SLP206 T00830017", "KLWT 091354Z AUTO 22013KT 10SM CLR 06/M03 A3012 RMK AO2 SLP198 T00611033", "KLWV 091353Z AUTO 10007KT 10SM CLR 11/00 A3044 RMK AO2 SLP309 T01060000", "KLXL 091355Z AUTO 16003KT 10SM BKN100 BKN120 07/M02 A3013 RMK AO2", "KLXN 091355Z AUTO 18003KT 10SM CLR 12/M03 A3013 RMK AO2 T01161035", "KLXT 091353Z AUTO 16013G19KT 10SM CLR 12/03 A3030 RMK AO2 SLP259 T01220033", "KLXV 091353Z AUTO 03003KT 10SM CLR M06/M09 A3037 RMK AO2 SLP248 T10561094", "KLXY 091355Z AUTO 17005KT 10SM OVC034 17/15 A3020 RMK AO2 T01700146", "KLYH 091354Z 03011KT 10SM CLR 09/M04 A3046 RMK AO2 SLP316 T00941039 $", "KLYO 091355Z AUTO 16011KT 10SM CLR 10/M02 A3018 RMK AO2 T00981015", "KLYV 091355Z AUTO 17007KT 10SM SCT080 BKN100 OVC120 08/M01 A3017 RMK AO2", "KLZU 091356Z 07010G16KT 10SM FEW025 09/01 A3034 RMK AO2 SLP287 T00890011", "KLZZ 091335Z AUTO 00000KT 10SM OVC021 14/13 A3020 RMK AO2 T01390133", "KM01 091355Z AUTO 06006KT 10SM OVC016 14/12 A3030 RMK AO2 CIG 013V019 T01350118 $", "KM02 091355Z AUTO VRB04KT 10SM CLR 11/06 A3033 RMK A01", "KM08 091355Z AUTO 04004KT 10SM FEW009 OVC014 12/11 A3032 RMK A01", "KM19 091356Z AUTO 05009KT 10SM OVC018 12/11 A3033 RMK AO2 SLP270 T01220106 PNO $", "KM21 091355Z AUTO 09006KT 10SM CLR 11/M01 A3040 RMK AO2 T01111011", "KM30 091355Z AUTO 09006KT 10SM CLR 11/M03 A3039 RMK AO2 T01091028", "KM40 091355Z AUTO 07005KT 10SM BKN019 OVC023 12/10 A3033 RMK AO2", "KM54 091350Z AUTO 08007KT 10SM CLR 10/05 A3034 RMK A01", "KM75 091355Z AUTO 25006KT 10SM CLR 01/M01 A3004 RMK A01", "KM91 091350Z AUTO 05005KT 10SM CLR 11/05 A3035 RMK A01", "KMAF 091353Z 13009KT 7SM OVC012 14/13 A3017 RMK AO2 SLP188 T01390128", "KMAI 091353Z AUTO 04012KT 10SM OVC013 10/08 A3020 RMK AO1 SLP227 T01000078", "KMAN 091355Z AUTO 12005KT 10SM CLR 04/01 A3022 RMK A01", "KMAO 091355Z AUTO 10SM OVC011 07/05 A3031 RMK AO2", "KMAW 091355Z AUTO 08007KT 10SM CLR 12/04 A3037 RMK AO1", "KMBG 091352Z AUTO 00000KT 8SM CLR 03/01 A3007 RMK AO2 SLP195 T00330006 $", "KMBL 091356Z AUTO VRB05KT 10SM CLR 08/01 A3045 RMK AO2 SLP318 T00780006", "KMBO 091355Z AUTO VRB03G10KT 10SM BKN012 11/11 A3025 RMK AO2 P0001", "KMBS 091353Z 18006KT 10SM CLR 06/M01 A3052 RMK AO2 SLP341 T00611006", "KMBT 091355Z AUTO VRB04KT 10SM CLR 10/07 A3033 RMK A01", "KMBY 091355Z AUTO 14011G15KT 10SM CLR 12/M01 A3035 RMK AO2", "KMCB 091353Z AUTO 05007KT 10SM OVC010 12/09 A3021 RMK AO2 SLP226 T01170089", "KMCC 091355Z AUTO 00000KT 10SM CLR 07/05 A3016 RMK AO2", "KMCD 091355Z AUTO 12003KT 4SM BR OVC002 M01/M01 A3047 RMK AO2 T10081008", "KMCE 091353Z AUTO 00000KT 10SM CLR 09/04 A3015 RMK AO2 SLP209 T00890044", "KMCF 091355Z AUTO 06012KT 10SM BKN013 BKN027 24/20 A3000 RMK AO2 CIG 013V027 SLP162 T02410196 FZRANO $", "KMCI 091353Z 17014KT 10SM BKN250 13/04 A3027 RMK AO2 SLP248 T01330044", "KMCJ 091355Z AUTO 08009KT 8SM FEW017 OVC032 17/15 A3017 RMK A01", "KMCK 091353Z AUTO 33003KT 10SM FEW120 11/00 A3014 RMK AO2 SLP197 T01110000", "KMCN 091353Z 04009KT 10SM OVC011 08/06 A3030 RMK AO2 SLP260 T00830061", "KMCO 091353Z 01013KT 10SM OVC012 21/17 A3006 RMK AO2 SLP178 T02060167", "KMCW 091353Z AUTO 18018G24KT 10SM CLR 12/M01 A3028 RMK AO2 SLP252 T01171011", "KMCZ 091345Z AUTO 02008G18KT 10SM CLR 08/05 A3038 RMK AO2 T00840055", "KMDD 091355Z AUTO 14008KT 10SM OVC008 14/12 A3019 RMK AO2 T01440117", "KMDH 091352Z 09006KT 10SM CLR 11/00 A3039 RMK AO2 SLP291 T01060000", "KMDQ 091355Z AUTO 10SM BKN032 11/06 A3033 RMK A02 T01130064", "KMDS 091355Z AUTO 18007KT 10SM BKN110 06/01 A3012 RMK AO2", "KMDT 091356Z 28005KT 10SM CLR 08/M02 A3049 RMK AO2 SLP327 T00831017", "KMDW 091353Z 18006KT 10SM SCT250 12/M02 A3047 RMK AO2 SLP319 T01171022", "KMDZ 091355Z AUTO 16008KT 10SM CLR 03/00 A3032 RMK AO2 T00300000 PWINO", "KMEB 091352Z AUTO 05018G22KT 10SM SCT017 BKN110 09/05 A3035 RMK AO2 SLP278 T00940050", "KMEH 091356Z AUTO 00000KT 10SM OVC065 02/01 A3012 RMK AO2 SLP211 T00220011 $", "KMEI 091358Z 07010G18KT 10SM OVC008 10/08 A3028 RMK AO2 SLP251 I1000 T01000078", "KMEM 091354Z 08006KT 10SM BKN016 OVC021 13/11 A3032 RMK AO2 SLP265 T01330106", "KMER 091353Z 00000KT 10SM CLR 09/05 A3014", "KMEV 091355Z AUTO 00000KT 10SM CLR M01/M02 A3026 RMK AO2", "KMEZ 091355Z AUTO 09005KT 10SM CLR 11/09 A3028 RMK AO2 T01080094 $", "KMFD 091352Z 10009KT 10SM CLR 09/M03 A3050 RMK AO2 SLP335 T00891033", "KMFE 091353Z 30003KT 10SM BKN048 OVC060 18/17 A3015 RMK AO2 RAE19 SLP207 P0001 T01830172", "KMFI 091354Z AUTO 17006KT 10SM CLR 07/02 A3033 RMK AO2 SLP282 T00670017", "KMFR 091353Z 00000KT 10SM OVC095 08/05 A3012 RMK AO2 SLP199 T00830050", "KMGC 091355Z AUTO 16005KT 10SM CLR 11/M02 A3049 RMK AO2", "KMGE 091355Z 09012G20KT 10SM FEW050 09/00 A3031 RMK AO2A SLP269 T00900002 $", "KMGG 091355Z AUTO 18009G15KT 10SM CLR 08/M02 A3018 RMK AO2 T00771023", "KMGJ 091354Z AUTO 02006KT 10SM CLR 07/M07 A3052 RMK AO2 SLP338 T00721067", "KMGM 091353Z 07012KT 10SM OVC016 11/07 A3028 RMK AO2 SLP252 T01060067", "KMGN 091355Z AUTO 08006KT 10SM CLR 02/00 A3045 RMK AO2 T00300001", "KMGR 091355Z AUTO 06008G15KT 10SM OVC010 09/07 A3022 RMK AO2 CIG 009V012 T00940075", "KMGW 091353Z VRB03KT 10SM CLR 07/M02 A3049 RMK AO2 SLP329 T00721022", "KMGY 091353Z AUTO 08004KT 10SM CLR 10/M03 A3047 RMK AO2 SLP322 T01001033", "KMHE 091353Z AUTO 17007KT 10SM BKN110 08/02 A3010 RMK AO2 SLP199 T00780017", "KMHK 091352Z 00000KT 10SM CLR 12/M03 A3023 RMK AO2 SLP235 T01221028", "KMHL 091355Z AUTO 13008KT 10SM CLR 10/00 A3034 RMK AO2", "KMHP 091355Z AUTO 04012G15KT 5SM HZ OVC009 08/ A3027 RMK AO2 T0078////", "KMHR 091350Z 00000KT 10SM CLR 07/06 A3015", "KMHS 091356Z AUTO 00000KT 10SM CLR 01/M02 A3019 RMK AO2 SLP246 T00111017", "KMHT 091353Z 28004KT 10SM CLR 06/M10 A3054 RMK AO2 SLP359 T00611100 $", "KMHV 091340Z AUTO 36003KT 10SM CLR 06/02 A3015 RMK AO2", "KMIA 091353Z 29006KT 10SM FEW030 SCT075 BKN250 27/20 A3003 RMK AO2 SLP168 T02670200 $", "KMIB 091355Z 27009KT 10SM CLR 04/M00 A2996 RMK AO2A SLP169 T00391005 $", "KMIC 091353Z 19017G28KT 10SM CLR 13/M03 A3019 RMK AO2 PK WND 21028/1353 SLP224 T01281028", "KMIE 091353Z 09007KT 10SM CLR 11/M01 A3048 RMK AO2 SLP322 T01061006 $", "KMIO 091355Z AUTO 12009KT 10SM CLR 14/08 A3027 RMK AO2", "KMIV 091354Z AUTO 04006KT 10SM CLR 10/M02 A3049 RMK AO2 SLP324 T01001017", "KMIW 091353Z AUTO 16012KT 10SM CLR 11/M01 A3031 RMK AO2 SLP266 T01061011", "KMJD 091355Z AUTO 05009G15KT 10SM OVC011 12/11 A3019 RMK AO2", "KMJQ 091355Z AUTO 19015G19KT 10SM CLR 10/M02 A3020 RMK AO2", "KMKC 091354Z 16009KT 10SM CLR 14/04 A3028 RMK AO2 SLP252 T01390039 $", "KMKE 091352Z 19007KT 10SM FEW250 12/00 A3044 RMK AO2 SLP309 T01220000", "KMKG 091355Z 17005KT 10SM FEW130 11/01 A3047 RMK AO2 SLP322 T01110006", "KMKJ 091355Z AUTO 11008KT 10SM CLR 05/M04 A3043 RMK AO2 T00521044", "KMKL 091353Z 11005KT 10SM OVC010 12/09 A3035 RMK AO2 SLP277 T01170094", "KMKN 091355Z AUTO 00000KT 10SM 13/13 A3022 RMK AO2 T01310131", "KMKO 091353Z AUTO 14011G17KT 10SM CLR 14/09 A3028 RMK AO2 SLP251 T01440094", "KMKS 091355Z AUTO 04011KT 10SM OVC008 08/07 A3027 RMK AO2 P0004", "KMKT 091356Z AUTO 19015G18KT 10SM CLR 11/M01 A3022 RMK AO2 SLP240 T01111006", "KMKY 091356Z AUTO 30005KT 10SM SCT022 BKN030 BKN035 27/21 A3004 RMK AO2 SLP172 T02670206 TSNO PNO $", "KMLB 091400Z 36015KT 10SM BKN018 BKN023 OVC100 23/18 A3003 RMK AO2 T02330183", "KMLC 091353Z AUTO VRB04KT 10SM CLR 14/08 A3025 RMK AO2 SLP241 T01390083", "KMLE 091355Z AUTO 16010KT 10SM CLR 12/M03 A3023 RMK AO2 T01171029", "KMLF 091352Z AUTO 20005KT 10SM CLR 03/M01 A3027 RMK AO2 SLP235 T00281006", "KMLI 091352Z 17007KT 10SM CLR 13/00 A3039 RMK AO2 SLP292 T01280000", "KMLJ 091355Z AUTO 06009KT 030V090 10SM OVC015 09/06 A3031 RMK AO2", "KMLP 091353Z AUTO 17005KT 10SM FEW080 01/M03 A3013 RMK AO2 SLP169 T00111028", "KMLS 091353Z AUTO 20004KT 10SM CLR 05/M02 A3013 RMK AO2 SLP208 T00501022", "KMLT 091353Z AUTO 29007KT 10SM CLR 04/M09 A3046 RMK AO2 SLP324 T00391089", "KMLU 091400Z 05008KT 10SM BKN012 OVC021 14/12 A3026 RMK AO2 T01390117", "KMMH 091355Z AUTO 00000KT 10SM CLR M06/M07 A3032 RMK AO2 T10601074", "KMMI 091355Z AUTO 05005G11KT 10SM CLR 10/04 A3037 RMK A01", "KMMK 091353Z AUTO 03005KT 10SM CLR 08/M07 A3055 RMK AO2 SLP346 T00781072", "KMML 091356Z AUTO 20012KT 10SM OVC100 08/M01 A3015 RMK AO2 SLP218 T00781011", "KMMT 091355Z 02009G19KT 10SM BKN014 08/08 A3031 RMK AO2A SLP268 T00800079 $", "KMMU 091345Z COR 08013KT 10SM SKC 10/M09 A3053", "KMMV 091353Z AUTO 09004KT 9SM OVC046 09/08 A3005 RMK AO2 RAE41 SLP174 P0000 T00890083", "KMNE 091359Z AUTO 08005KT 10SM SCT005 OVC010 13/13 A3025 RMK AO2", "KMNH 091355Z AUTO 19004KT 10SM CLR 05/M02 A3029 RMK AO2", "KMNI 091355Z AUTO 03009G15KT 10SM OVC008 07/06 A3029 RMK AO2", "KMNM 091357Z AUTO 10SM CLR 03/02 A3040 RMK AO2 SLP317 T00280022 PNO $", "KMNN 091353Z AUTO 16007KT 9SM CLR 10/M02 A3050 RMK AO2 SLP335 T01001022", "KMNV 091355Z AUTO 07005KT 10SM 10/ A3035 RMK A01", "KMNZ 091355Z AUTO 22003KT 7SM OVC022 15/15 A3022 RMK AO2 T01450145", "KMOB 091356Z 04011G19KT 7SM OVC010 11/08 A3022 RMK AO2 SLP232 T01060078", "KMOD 091353Z 31006KT 10SM CLR 08/04 A3016 RMK AO2 SLP211 T00830044", "KMOP 091355Z AUTO 00000KT 10SM SCT004 03/03 A3050 RMK AO2 T00260026", "KMOT 091354Z 21009KT 10SM FEW100 07/00 A2998 RMK AO2 SLP168 T00670000", "KMOX 091355Z AUTO 16006KT 10SM -RA 02/M02 A3013 RMK AO2", "KMPO 091353Z AUTO 03006KT 10SM CLR 06/M12 A3045 RMK AO2 SLP330 T00611117", "KMPR 091355Z AUTO 16012KT 10SM CLR 12/M02 A3021 RMK AO2 T01181024", "KMPV 091351Z AUTO 00000KT 10SM -RA CLR 03/M08 A3055 RMK AO2 RAB39 SLP361 P0000 T00281083", "KMPZ 091355Z AUTO 18011KT 10SM CLR 13/02 A3038 RMK AO2", "KMQB 091355Z AUTO 16006KT 10SM CLR 11/M01 A3043 RMK AO2 T01081007", "KMQI 091350Z AUTO 05014G21KT 10SM BKN029 OVC100 10/05 A3034 RMK AO2 T01030046", "KMQJ 091355Z AUTO 10008KT 10SM CLR 12/01 A3048 RMK AO1", "KMQS 091355Z AUTO 05004KT 10SM CLR 09/M05 A3049 RMK AO2", "KMQW 091355Z AUTO 06013KT 10SM OVC012 09/07 A3027 RMK AO2 T00900072", "KMQY 091356Z 08006KT 10SM SCT050 12/08 A3037 RMK AO2 SLP292 T01170078", "KMRB 091353Z 00000KT 10SM CLR 07/M02 A3048 RMK AO2 SLP326 T00671017", "KMRC 091350Z AUTO 06004KT 10SM BKN014 11/10 A3032 RMK A01", "KMRF 091356Z AUTO 00000KT 10SM CLR 14/07 A3022 RMK AO2 SLP185 T01390072", "KMRH 091358Z AUTO 03014G26KT 10SM -RA FEW080 OVC095 11/09 A3026 RMK AO2 PK WND 01029/1331 RAE29B48 SLP246 P0000 I1000 T01110089", "KMRJ 091355Z AUTO 17007KT 10SM CLR 09/00 A3041 RMK AO2 PWINO", "KMRN 091345Z AUTO 03005KT 10SM CLR 08/00 A3045 RMK AO2 T00821004", "KMRT 091359Z AUTO 11003KT 10SM CLR 09/M03 A3051 RMK AO1", "KMRY 091354Z 12004KT 10SM CLR 07/06 A3015 RMK AO2 SLP222 T00720061", "KMSL 091353Z AUTO 09007KT 10SM BKN017 13/10 A3032 RMK AO2 SLP264 T01330100", "KMSN 091353Z 18006KT 10SM SCT250 10/M01 A3040 RMK AO2 SLP299 T01001006", "KMSO 091353Z AUTO 00000KT 10SM CLR 02/M01 A3020 RMK AO2 SLP238 T00221011", "KMSP 091353Z 17009KT 10SM FEW150 BKN250 12/M03 A3022 RMK AO2 SLP234 T01221033", "KMSS 091353Z AUTO 19003KT 10SM CLR 04/M05 A3057 RMK AO2 SLP357 T00441050", "KMSV 091356Z AUTO 09008KT 10SM CLR 06/M12 A3049 RMK AO2 SLP337 T00611117", "KMSY 091353Z 04008KT 10SM OVC014 16/13 A3018 RMK AO2 SLP223 T01560128 $", "KMTC 091356Z 14007KT 10SM FEW200 07/M00 A3052 RMK AO2A SLP345 T00681004 $", "KMTH 091353Z AUTO 32005KT 10SM CLR 27/20 A3002 RMK AO2 SLP166 T02720200 $", "KMTJ 091353Z AUTO 14006KT 10SM CLR 03/M05 A3031 RMK AO2 SLP232 T00331050", "KMTN 091354Z 00000KT 10SM CLR 10/00 A3051", "KMTO 091353Z AUTO 12008KT 10SM CLR 11/M04 A3043 RMK AO2 SLP306 T01111044", "KMTP 091354Z AUTO 05009KT 08/ A3055 RMK AO1 SLP345 T0078 $ ", "KMTV 091355Z AUTO 07012G16KT 10SM CLR 08/M05 A3047 RMK AO2 T00751046", "KMTW 091356Z AUTO 18007KT 10SM CLR 08/02 A3042 RMK AO2 SLP309 T00780022", "KMUO 091355Z AUTO 09010KT 10SM CLR 04/03 A3021 RMK AO2 SLP233 T00360027", "KMUT 091355Z AUTO 18005KT 10SM CLR 10/02 A3040 RMK AO2", "KMVE 091355Z AUTO 19004KT 10SM CLR 07/M01 A3016 RMK AO2", "KMVH 091400Z AUTO 30010KT 10SM CLR 07/M04 A3012 RMK AO2 PWINO", "KMVL 091354Z AUTO 00000KT 10SM CLR 03/M09 A3054 RMK AO2 SLP351 T00331094", "KMVN 091356Z AUTO 10007KT 10SM CLR 12/M02 A3042 RMK AO2 SLP305 T01171022", "KMVY 091353Z 07010G18KT 10SM CLR 08/M06 A3054 RMK AO2 SLP341 T00781056", "KMWA 091345Z 09007KT 10SM CLR 11/M02 A3039", "KMWC 091345Z 20004KT 10SM CLR 09/01 A3044", "KMWH 091352Z 00000KT 10SM OVC065 07/04 A3008 RMK AO2 SLP190 T00670044", "KMWK 091345Z AUTO 06009KT 10SM CLR 08/M03 A3045 RMK AO2 T00751031", "KMWL 091353Z AUTO 14004KT 5SM BR FEW029 14/13 A3020 RMK AO2 SLP218 T01390133", "KMWM 091355Z AUTO 18011G18KT 10SM CLR 09/M03 A3017 RMK AO2", "KMWN 091348Z 32025G29KT 120SM FEW220 M10/M15 RMK", "KMWO 091355Z AUTO 06005KT 10SM CLR 10/M03 A3050 RMK AO2 T01021031", "KMWT 091353Z AUTO 00000KT 10SM OVC011 12/09 A3026 RMK AO2 SLP246 T01170089 $", "KMXF 091355Z AUTO 08010KT 10SM OVC016 10/05 A3026 RMK AO2 SLP250 T01030051", "KMYF 091353Z 30003KT 2 1/2SM BR OVC002 11/11 A3010 RMK AO2 SLP192 T01110106", "KMYJ 091355Z AUTO 13006KT 10SM CLR 10/01 A3037 RMK AO2", "KMYL 091351Z AUTO 00000KT CLR M03/M03 A3021 RMK AO2 SLP248 T10281028 $", "KMYP 091355Z AUTO 29013G17KT 10SM CLR M05/M11 A3051 RMK AO2", "KMYR 091356Z 02013G21KT 10SM OVC009 09/08 A3027 RMK AO2 RAE1258 SLP250 P0001 T00890083", "KMYV 091353Z AUTO 36003KT 10SM CLR 08/06 A3017 RMK AO2 SLP221 T00780061 $", "KMYZ 091355Z AUTO 00000KT 10SM CLR 11/M01 A3022 RMK AO2", "KMZH 091355Z AUTO 20008KT 10SM SCT120 09/M02 A3015 RMK AO2", "KMZZ 091355Z AUTO 11006KT 10SM CLR 09/00 A3050 RMK AO2 T00911002", "KN03 091355Z AUTO 05005KT 10SM CLR 05/M08 A3053 RMK AO2", "KN38 091355Z AUTO VRB05KT 10SM CLR 03/M11 A3049 RMK AO2", "KN60 091352Z AUTO 00000KT 01/M01 A3001 RMK AO1 SLP187 T00061011", "KN79 091355Z AUTO 01005KT 10SM CLR 08/M08 A3049 RMK AO2 T00791082", "KNAK 091354Z AUTO 06007KT 10SM CLR 10/01 A3050 RMK AO2 SLP330 T01000011", "KNBC 091356Z AUTO 03014KT 10SM OVC008 09/08 A3024 RMK AO2 SLP240 T00940078", "KNBG 091355Z 04008KT 10SM BKN012 OVC025 16/13 A3017 RMK AO2 SLP215 T01560133 $", "KNCA 091356Z AUTO 03012G26KT 10SM -RA BKN012 OVC017 09/08 A3029 RMK AO2 PK WND 04026/1353 SLP259 P0000 T00940083", "KNDZ 091356Z AUTO 03014G20KT 10SM OVC011 11/07 A3021 RMK AO2 SLP218 T01060072 $", "KNEW 091353Z 05012KT 10SM OVC013 16/12 A3018 RMK AO2 SLP214 T01560122", "KNFE 091356Z AUTO 06011G22KT 10SM CLR 12/03 A3041 RMK AO2 SLP299 T01220033", "KNFG 091358Z AUTO 00000KT 1 1/2SM BR OVC003 12/11 A3011 RMK AO2 T01220106 $", "KNFL 091356Z AUTO 15004KT 10SM CLR 03/M02 A3023 RMK AO2 SLP199 T00331017", "KNFW 091352Z COR 28007KT 5SM BR OVC037 13/12 A3021 RMK SLP213 T01330122", "KNGP 091356Z AUTO 03012KT 10SM FEW008 19/16 A3015 RMK AO2 SLP208 T01940161 $", "KNGU 091359Z 06016G25KT 10SM SCT030 SCT250 12/04 A3044 RMK AO2 PK WND 07026/1325 SLP306 T01170044 $", "KNHK 091352Z 04012KT 10SM FEW200 11/M01 A3048 RMK AO2 SLP323 T01111011 $", "KNID 091356Z AUTO 19006KT 10SM CLR 09/04 A3014 RMK AO2 SLP201 T00890039 $", "KNIP 091353Z 35015KT 2 1/2SM -RA BR OVC005 13/12 A3016 RMK AO2 RAB1259 SLP209 P0006 T01280117", "KNJK 091356Z AUTO 26005KT 10SM CLR 14/03 A3003 RMK AO2 SLP183 T01440033 $", "KNJM 091357Z AUTO 02012G26KT 6SM -RA OVC080 12/08 A3027 RMK AO2 PK WND 02026/1353 SLP255 P0003 T01170078", "KNJW 091257Z AUTO 07010G16KT 10SM OVC011 09/07 A3029 RMK AO2 SLP175 T00940067 $", "KNKT 091356Z 02017KT 10SM OVC095 10/10 A3029 RMK AO2 PK WND 03029/1305 RAE42 SLP255 P0001 T01000100 $", "KNKX 091355Z 00000KT 1/2SM FG VV002 10/10 A3010 RMK AO2 SLP189 T01000100 $", "KNLC 091356Z 29007KT 10SM FEW280 08/06 A3017 RMK AO2 SLP215 T00830061", "KNMM 091356Z AUTO 07007KT 10SM OVC012 10/07 A3029 RMK AO2 SLP267 T01000072 $", "KNOG 091356Z AUTO 04006KT 5SM BR OVC003 16/14 A3019 RMK AO2 SLP203 T01560144 TSNO PNO $", "KNOW 091355Z AUTO 00000KT 10SM SCT065 SCT120 07/07 A2990 RMK AO2 T00680068", "KNOZ 091359Z AUTO 05006KT 10SM CLR 16/M04 A3002 RMK AO2 SLP116 T01611044 $", "KNPA 091356Z AUTO 03014G21KT 10SM OVC011 11/08 A3019 RMK AO2 SLP225 T01110083 $", "KNQA 091350Z 08004KT 10SM OVC012 13/11 A3032", "KNQI 091329Z AUTO 03008KT 10SM FEW005 17/17 A3015 RMK AO2 T01670167 $", "KNQX 091353Z 00000KT 10SM FEW030 27/21 A3003 RMK AO2 SLP168 T02720206 $", "KNRB 091352Z AUTO 02020G29KT 5SM -RA BR BKN012 OVC020 17/14 A3015 RMK AO2 PK WND 04031/1342 RAB1253 SLP207 P0000 T01670144 $", "KNRN 091355Z AUTO 19009KT 10SM SCT120 13/06 A3016 RMK AO2", "KNRS 091353Z AUTO 00000KT 8SM OVC005 13/11 A3011 RMK AO2 SLP196 T01280111 $", "KNSE 091311Z AUTO 05007KT 350V090 10SM OVC010 10/07 A3021 RMK AO2 CIG 006V014 T01000072 PNO $", "KNSI 091353Z AUTO 29006KT 1/4SM FG VV002 11/11 A3010 RMK AO2 SLP188 T01060106 $", "KNTD 091355Z 18003KT 1/8SM FG VV002 11/11 A3011 RMK AO2 SLP196 T01060106 $", "KNTU 091356Z 07018G27KT 10SM FEW030 SCT150 SCT250 12/03 A3040 RMK AO2 PK WND 05027/1354 SLP298 T01170033", "KNUC 091356Z AUTO 28005KT OVC008 11/ A3013 RMK AO2 SLP201 T0106 $", "KNUI 091353Z AUTO 05011G19KT 020V080 10SM CLR 10/M03 A3048 RMK AO2 SLP319 T01001033 $", "KNUQ 091355Z AUTO 00000KT 10SM CLR 08/06 A3018 RMK AO2", "KNUW 091353Z 15028G39KT 10SM SCT025 BKN120 11/06 A2993 RMK AO2 PK WND 14040/1341 SLP137 T01060061 VISNO $", "KNXF 091359Z AUTO 00000KT 1 1/4SM BR OVC002 11/11 A3011 RMK AO2 T01110111 $", "KNXP 091356Z AUTO 27008KT 10SM CLR 14/03 A3018 RMK AO2 SLP193 T01390028", "KNY0 091340Z AUTO 00000KT 10SM CLR 03/M07 A3055 RMK AO2", "KNYC 091351Z AUTO 07007G14KT 10SM CLR 08/M04 A3054 RMK AO2 SLP334 T00831044 $", "KNYG 091356Z AUTO 03008KT 8SM CLR 10/ A3051 RMK AO2 SLP334 T0100 $", "KNYL 091357Z AUTO 00000KT 10SM CLR 17/01 A3002 RMK AO2 SLP162 T01670011 $", "KNZY 091352Z AUTO 31006KT 8SM OVC004 12/12 A3010 RMK AO2 SLP191 T01170117", "KO05 091355Z AUTO 00000KT 10SM CLR M04/M06 A3025 RMK A01", "KO22 091355Z AUTO 00000KT 10SM CLR 07/07 A3016 RMK A01", "KO32 091355Z AUTO 10004KT 8SM CLR 09/09 A3015 RMK AO2 T00910091 $", "KO69 091355Z AUTO 00000KT 10SM CLR 03/03 A3019 RMK A01", "KO86 091355Z AUTO 00000KT 10SM M00/M00 A3023 RMK A01", "KOAJ 091356Z 02012G19KT 10SM -RA BKN010 OVC015 08/07 A3032 RMK AO2 CIG 008V012 SLP269 P0002 T00830072", "KOAK 091353Z 07003KT 10SM CLR 07/04 A3018 RMK AO2 SLP220 T00720044", "KOBE 091355Z AUTO 03012KT 10SM BKN012 25/23 A3001 RMK AO2", "KOCF 091351Z 04009KT 360V060 10SM OVC007 14/12 A3013 RMK AO2 SLP202 T01390122 PNO $", "KOCH 091356Z AUTO 08007KT 10SM BKN007 15/14 A3022 RMK AO2 SLP239 T01500144 PWINO $", "KOCQ 091355Z AUTO 18003KT 7SM SCT003 01/01 A3040 RMK AO1 T00110011", "KOCW 091345Z AUTO 02010G17KT 10SM SCT017 BKN110 09/06 A3036 RMK AO2 T00900061", "KODO 091353Z AUTO 15009KT 9SM OVC011 15/12 A3018 RMK AO2 SLP188 T01500122", "KODX 091353Z AUTO 00000KT 10SM CLR 11/M01 A3013 RMK AO2 SLP201 T01061011", "KOEB 091355Z AUTO 19004KT 10SM CLR 10/M03 A3050 RMK AO2 T00961027", "KOEL 091355Z AUTO 02010KT 10SM CLR 12/M02 A3012 RMK AO1 T01201016", "KOEO 091355Z AUTO 17007KT 10SM CLR 10/02 A3024 RMK AO2 T00970018", "KOFF 091355Z COR 13009KT 10SM BKN180 11/M05 A3025 RMK AO2A SLP249 T01061046 PWINO PNO FZRANO TSNO CHINO RWY31 $ COR 1400", "KOFK 091356Z AUTO 23007KT 10SM FEW120 12/M04 A3018 RMK AO2 SLP219 T01221044", "KOFP 091354Z AUTO VRB05KT 10SM CLR 10/M01 A3048 RMK AO2 SLP322 T01001011", "KOGA 091355Z AUTO 32009G14KT 10SM CLR 13/00 A3015 RMK AO2 T01250002", "KOGB 091353Z AUTO 02014KT 10SM OVC011 08/06 A3030 RMK AO2 SLP261 T00780056 $", "KOGD 091353Z 17007KT 10SM CLR 06/M01 A3026 RMK AO2 SLP228 T00561011", "KOGS 091355Z AUTO 00000KT 10SM CLR 05/M06 A3054 RMK AO2", "KOIC 091355Z AUTO 06005KT 10SM CLR 03/M06 A3056 RMK AO2 T00311063", "KOIN 091355Z AUTO 03005KT 10SM CLR 09/02 A3017 RMK AO1 T00910020", "KOJA 091355Z AUTO 18007KT 10SM CLR 14/04 A3021 RMK AO2 T01430043", "KOJC 091353Z 16011KT 10SM CLR 12/04 A3028 RMK AO2 SLP253 T01220039", "KOKB 091352Z AUTO 05003KT 10SM OVC002 12/11 A3010 RMK AO2 SLP192 T01220111", "KOKC 091352Z 16007KT 10SM SCT250 12/02 A3022 RMK AO2 SLP229 T01170017", "KOKK 091356Z AUTO 12007KT 10SM CLR 09/01 A3050 RMK AO2 SLP331 T00940011 PNO $", "KOKM 091355Z AUTO 12010KT 10SM CLR 13/08 A3026 RMK AO2 T01310077", "KOKV 091355Z AUTO 00000KT 10SM CLR 07/M03 A3047 RMK AO2", "KOKZ 091355Z AUTO 03008G15KT 350V050 10SM OVC010 08/05 A3030 RMK AO2 T00770052", "KOLE 091335Z AUTO 07004KT 10SM CLR 01/M09 A3050 RMK AO2", "KOLF 091353Z AUTO 23008KT 10SM CLR 01/M02 A3006 RMK AO2 SLP198 T00111017", "KOLG 091355Z AUTO 19008G14KT 10SM CLR 08/M03 A3018 RMK AO1", "KOLM 091354Z AUTO 27004KT 10SM OVC041 08/08 A3000 RMK AO2 RAE38 SLP161 P0001 T00830078 $", "KOLS 091354Z AUTO 07003KT 10SM CLR 09/M06 A3015 RMK AO2 SLP170 T00891061", "KOLU 091356Z AUTO 15012KT 10SM CLR 12/M04 A3017 RMK AO2 SLP219 T01171044", "KOLV 091350Z 06005KT 10SM BKN012 OVC017 13/11 A3031", "KOLY 091350Z AUTO 11007KT 10SM CLR 11/M04 A3044 RMK AO2 T01111043 PWINO", "KOLZ 091355Z AUTO 19013G19KT 10SM CLR 11/M01 A3034 RMK A01", "KOMA 091352Z 17011KT 10SM FEW040 SCT160 OVC220 11/M03 A3023 RMK AO2 SLP237 T01111028", "KOMH 091355Z AUTO 03005KT 10SM CLR 08/M01 A3051 RMK AO2", "KOMK 091353Z AUTO 00000KT 10SM BKN055 OVC070 07/03 A3006 RMK AO2 SLP185 T00670028", "KOMN 091350Z 01012G22KT 2SM BR OVC009 17/17 A3009", "KONA 091355Z AUTO 18006KT 10SM CLR 12/M02 A3031 RMK AO2", "KONL 091355Z AUTO 17007KT 10SM BKN120 10/M02 A3012 RMK AO2 T01031020", "KONM 091355Z AUTO 36007KT 10SM CLR 10/M07 A3021 RMK AO2 T00981066", "KONO 091353Z AUTO 00000KT 10SM CLR 02/ A3023 RMK AO2 SLP246 T0022 $", "KONP 091355Z AUTO 18011KT 7SM -DZ SCT010 OVC016 09/08 A3006 RMK AO2", "KONT 091353Z 00000KT 10SM CLR 11/10 A3009 RMK AO2 SLP186 T01060100", "KONX 091345Z AUTO 03016G22KT 10SM SCT034 10/02 A3038 RMK AO2 T00990017", "KONZ 091355Z AUTO 08003KT 10SM CLR 07/M03 A3053 RMK AO2 T00721026", "KOOA 091355Z AUTO 17016KT 10SM CLR 13/M01 A3035 RMK AO2 T01291015", "KOPF 091353Z 29010KT 10SM FEW080 26/20 A3003 RMK AO2 SLP170 T02610200", "KOPL 091355Z AUTO 04007KT 7SM OVC008 15/14 A3019 RMK AO2 T01500136", "KOPN 091355Z AUTO 08008G16KT 050V120 10SM OVC009 07/03 A3031 RMK AO2", "KOQN 091355Z AUTO 08006KT 10SM CLR 08/M03 A3049 RMK AO2", "KOQT 091353Z AUTO 08006KT 10SM CLR 11/M01 A3037 RMK AO2 SLP288 T01111006", "KOQU 091350Z AUTO 04008KT 10SM SKC 07/M04 A3056", "KORB 091353Z AUTO 20012G17KT 10SM CLR 08/M03 A3003 RMK AO2", "KORD 091351Z 17007KT 10SM SCT250 11/M01 A3045 RMK AO2 SLP315 T01111011", "KORE 091352Z AUTO VRB03KT 10SM CLR 06/M10 A3055 RMK AO2 SLP351 T00561100", "KORF 091351Z 04015G23KT 10SM FEW028 11/04 A3041 RMK AO2 RAB41E51 SLP295 P0000 T01060044", "KORG 091355Z AUTO 04005KT 10SM OVC012 18/14 A3020 RMK AO2 T01760139", "KORH 091354Z 04005KT 10SM CLR 05/M11 A3051 RMK AO2 SLP341 T00501106", "KORK 091355Z AUTO 08010KT 10SM SCT012 BKN043 OVC048 13/12 A3028 RMK AO2", "KORL 091353Z 02013G20KT 10SM OVC012 20/16 A3007 RMK AO2 SLP186 T02000161", "KORS 091355Z AUTO 15009G20KT 10SM BKN024 BKN030 OVC075 11/07 A2990 RMK AO2", "KOSA 091355Z AUTO 06005KT 10SM CLR 14/12 A3025 RMK AO2 T01390120", "KOSC 091355Z AUTO 00000KT 10SM BKN002 03/03 A3053 RMK AO2 T00270027", "KOSH 091353Z 19011KT 10SM CLR 11/02 A3039 RMK AO2 SLP297 T01060017", "KOSU 091353Z 11006KT 10SM CLR 11/M04 A3050 RMK AO2 SLP331 T01111044", "KOTG 091356Z AUTO 19014KT 10SM CLR 09/M02 A3018 RMK AO2 SLP227 T00891022 PNO $", "KOTH 091403Z 15006KT 10SM -RA SCT027 BKN070 OVC100 09/08 A3008 RMK AO2 P0000", "KOTM 091353Z AUTO 17011KT 10SM CLR 11/M01 A3034 RMK AO2 SLP276 T01111011", "KOUN 091345Z 15007KT 10SM CLR 12/01 A3021 RMK LTG DSNT W", "KOVE 091353Z AUTO 31003KT 10SM CLR 08/06 A3018 RMK AO2 SLP221 T00780061", "KOVL 091355Z AUTO 16008KT 10SM CLR 06/M01 A3016 RMK AO2", "KOVS 091353Z AUTO 00000KT 10SM CLR 12/01 A3038 RMK AO2 SLP290 T01170011", "KOWA 091353Z AUTO 17016G24KT 10SM CLR 11/M01 A3024 RMK AO2", "KOWB 091356Z 08006KT 10SM CLR 11/M04 A3042 RMK AO2 SLP301 T01111039", "KOWD 091353Z VRB05KT 10SM CLR 08/M09 A3055 RMK AO2 SLP345 T00831094", "KOWI 091355Z AUTO 15012KT 10SM CLR 13/06 A3026 RMK AO2", "KOWP 091355Z AUTO 15008KT 10SM CLR 15/08 A3027 RMK AO2 T01450075", "KOWX 091355Z AUTO 17003KT 10SM CLR 10/M03 A3053 RMK AO1", "KOXB 091353Z AUTO 06012G19KT 10SM CLR 11/M01 A3048 RMK AO2 SLP320 T01061006", "KOXC 091351Z 07008KT 10SM CLR 07/M09 A3053 RMK AO2 SLP356 T00671089", "KOXD 091355Z AUTO 09003KT 10SM CLR 13/M05 A3047 RMK AO2 T01281053", "KOXI 091355Z AUTO 15008KT 10SM CLR 10/00 A3049 RMK AO1", "KOXR 091402Z 00000KT 1/4SM FG VV002 11/11 A3010 RMK AO2 T01060106", "KOXV 091355Z AUTO 17009KT 10SM CLR 12/M02 A3032 RMK AO2", "KOYM 091335Z AUTO 06007KT 10SM CLR 05/M06 A3052 RMK AO2", "KOZA 091355Z AUTO 13008KT 10SM SCT009 OVC018 15/12 A3020 RMK AO2", "KOZR 091355Z AUTO 03009KT 10SM OVC011 09/07 A3021 RMK AO2 SLP233 T00920066", "KOZS 091355Z AUTO 13006KT 10SM CLR 12/01 A3034 RMK AO2", "KOZW 091355Z AUTO 14005KT 10SM CLR 09/M04 A3051 RMK AO2 T00911040", "KP08 091355Z AUTO 11006KT 10SM CLR 12/M00 A3008 RMK AO2", "KP28 091356Z AUTO 13003KT 10/M01 A3019 RMK AO1 SLP221 T01001006", "KP52 091355Z AUTO 00000KT 10SM CLR 09/M03 A3019 RMK AO2", "KP53 091356Z AUTO 19011G21KT 04/01 A3036 RMK AO1 SLP286 T00440006", "KP58 091355Z AUTO 15006KT 06/02 A3051 RMK AO1 SLP340 T00610022", "KP59 091351Z AUTO 24014G24KT 05/00 A3024 RMK AO1 SLP251 T00500000", "KP60 091356Z AUTO 00000KT M03/M05 A3030 RMK AO1 SLP271 T10281050", "KP68 091353Z AUTO 20005KT 00/M02 A3028 RMK AO1 SLP234 T00001022", "KP69 091352Z AUTO 03003KT 02/00 A3025 RMK AO1 SLP256 T00220000 $", "KP92 091359Z AUTO VRB04KT 17/16 A3015 RMK AO1 SLP208 T01670156", "KPAE 091353Z 15011G18KT 10SM SCT039 BKN070 OVC120 09/07 A2999 RMK AO2 RAE32 SLP159 P0000 T00890067", "KPAH 091353Z 08008KT 10SM CLR 12/M02 A3037 RMK AO2 SLP282 T01171017", "KPAM 091255Z 04014G19KT 10SM OVC010 11/08 A3014 RMK AO2A SLP210 T01060077 $", "KPAN 091355Z AUTO 03006KT 10SM CLR 11/M07 A3022 RMK AO2 PWINO TSNO", "KPAO 091347Z 00000KT 10SM SKC 06/04 A3018", "KPBF 091353Z AUTO 07008KT 10SM OVC015 14/10 A3029 RMK AO2 SLP257 T01390100", "KPBG 091353Z AUTO 14006KT 10SM CLR 03/M06 A3055 RMK AO2 SLP349 T00331056 $", "KPBH 091355Z AUTO 18009KT 10SM CLR 06/M01 A3028 RMK AO2 T00561015", "KPBI 091353Z 31011KT 10SM SCT015 BKN090 BKN110 BKN230 27/21 A3002 RMK AO2 SLP163 T02670211", "KPBX 091355Z AUTO 04007KT 10SM CLR 08/M04 A3043 RMK AO2 T00841040", "KPCD 091355Z AUTO 17003KT 10SM CLR 10/03 A3039 RMK AO2 T01020027", "KPCM 091355Z AUTO 03008G15KT 10SM OVC009 23/19 A3007 RMK AO2", "KPCW 091355Z AUTO 13006KT 10SM CLR 09/M02 A3052 RMK AO2", "KPCZ 091355Z AUTO 00000KT 10SM CLR 06/02 A3040 RMK AO2 T00560019", "KPDC 091355Z AUTO 20006KT 10SM CLR 13/M03 A3037 RMK AO2 T01251026", "KPDK 091353Z VRB04G16KT 10SM CLR 09/02 A3033 RMK AO2 SLP276 T00890017", "KPDT 091353Z 07003KT 10SM BKN090 OVC110 08/03 A3008 RMK AO2 SLP180 T00830033 $", "KPDX 091353Z 11009KT 10SM -RA OVC050 09/07 A3008 RMK AO2 SLP184 P0002 T00890072", "KPEA 091355Z AUTO 15011KT 10SM CLR 11/M01 A3033 RMK AO2 T01131015", "KPEO 091353Z AUTO 00000KT 10SM CLR 04/M08 A3055 RMK AO2 SLP355 T00441078", "KPEQ 091355Z AUTO 00000KT 10SM CLR 13/09 A3013 RMK AO2 T01250093", "KPEX 091355Z AUTO 19010KT 10SM BKN100 07/M03 A3016 RMK AO2", "KPEZ 091355Z AUTO 02004KT 10SM OVC007 15/13 A3022 RMK AO2 T01480132", "KPGA 091353Z AUTO 13005KT 10SM CLR 11/M03 A3023 RMK AO2 SLP202 T01061028", "KPGD 091353Z VRB03KT 10SM BKN015 26/21 A3004 RMK AO2 SLP170 T02610211", "KPGV 091345Z AUTO 04011G16KT 10SM SCT120 08/08 A3037 RMK AO2", "KPHD 091353Z AUTO 06008KT 10SM CLR 09/M04 A3051 RMK AO2 SLP336 T00941039", "KPHF 091354Z 07015G24KT 10SM CLR 10/02 A3044 RMK AO2 SLP306 T01000022", "KPHL 091354Z 11006KT 10SM CLR 10/M01 A3050 RMK AO2 SLP328 T01001006", "KPHN 091355Z AUTO 13007KT 10SM CLR 08/M05 A3054 RMK AO2", "KPHP 091355Z AUTO 27007KT 10SM CLR 04/02 A3011 RMK AO2 SLP201 T00390017", "KPHT 091355Z AUTO 06007KT 10SM CLR 12/08 A3035 RMK A01", "KPHX 091351Z 08006KT 10SM SCT250 16/00 A3004 RMK AO2 SLP160 T01610000", "KPIA 091354Z 17007KT 10SM CLR 12/M02 A3043 RMK AO2 SLP306 T01171017", "KPIB 091356Z AUTO 08009KT 10SM OVC009 10/08 A3025 RMK AO2 SLP244 T01000083", "KPIE 091353Z 05009KT 10SM BKN008 BKN020 OVC025 23/20 A3003 RMK AO2 SLP170 T02280200", "KPIH 091353Z 00000KT 10SM CLR 00/M01 A3030 RMK AO2 SNE1256 SLP263 P0000 T00001011 $", "KPIL 091353Z AUTO 01006KT 10SM FEW021 BKN027 OVC085 21/19 A3012 RMK AO2 SLP198 T02060194 $", "KPIM 091355Z AUTO 06009KT 010V090 10SM OVC012 08/05 A3029 RMK AO2 T00820051", "KPIR 091353Z AUTO 00000KT 9SM CLR 04/02 A3010 RMK AO2 SLP203 T00390017", "KPIT 091351Z 03005KT 10SM CLR 08/M07 A3050 RMK AO2 SLP341 T00831067", "KPJC 091355Z AUTO 05003KT 10SM CLR 07/M05 A3052 RMK AO2", "KPKB 091353Z 08007KT 10SM CLR 10/M04 A3048 RMK AO2 SLP325 T01001039", "KPKD 091353Z AUTO 23006KT 10SM CLR 04/M01 A3009 RMK AO2 SLP204 T00391006", "KPKV 091355Z AUTO 01005KT 7SM BKN032 17/16 A3018 RMK AO2 T01700157", "KPLN 091354Z AUTO 15005KT 8SM BKN003 00/00 A3047 RMK AO2 SLP329 T00000000 $", "KPLR 091355Z AUTO 03007G13KT 10SM CLR 12/06 A3032 RMK A01", "KPLU 091355Z AUTO 00000KT 9SM -DZ SCT040 OVC049 10/09 A3000 RMK AO2", "KPMD 091353Z AUTO 17005KT 10SM CLR 06/02 A3015 RMK AO2 SLP201 T00610022", "KPMH 091355Z AUTO 06004KT 10SM CLR 11/M06 A3049 RMK AO2 T01091058", "KPMP 091353Z 27007KT 10SM FEW100 26/20 A3002 RMK AO2 SLP166 T02610200", "KPMU 091355Z AUTO VRB04KT 10SM OVC014 12/09 A3032 RMK AO2", "KPMV 091355Z AUTO 15011G16KT 10SM CLR 11/M03 A3023 RMK AO2 T01051029", "KPNA 091355Z AUTO 28006KT 10SM OVC047 M07/M10 A3032 RMK AO2", "KPNC 091353Z AUTO 15008KT 10SM CLR 13/00 A3023 RMK AO2 SLP232 T01280000", "KPNE 091354Z 06005KT 10SM CLR 10/M02 A3051 RMK AO2 SLP332 T01001017", "KPNM 091355Z AUTO 18010G18KT 10SM CLR 10/M03 A3018 RMK AO2 TSNO", "KPNS 091353Z 03007G18KT 360V080 10SM OVC009 11/09 A3019 RMK AO2 SLP226 T01110089", "KPO1 091400Z AUTO 00000KT 10SM CLR 01/M00 A3006 RMK AO2", "KPOB 091355Z AUTO 02016G21KT 10SM CLR 10/05 A3036 RMK AO2 SLP285 T00970053 $", "KPOC 091347Z 00000KT 10SM CLR 09/07 A3010", "KPOE 091355Z AUTO 06003KT 10SM BKN010 OVC014 15/14 A3019 RMK AO2 LTG DSNT N CIG 010V015 SLP225 T01520144", "KPOF 091353Z AUTO 05007KT 10SM CLR 11/03 A3036 RMK AO2 SLP280 T01110028", "KPOU 091353Z 00000KT 10SM CLR 07/M07 A3053 RMK AO2 SLP337 T00721072", "KPOV 091355Z AUTO 09008KT 10SM CLR 08/M06 A3051 RMK AO2 T00761061 PWINO", "KPOY 091355Z AUTO 06004KT 10SM CLR 05/M06 A3017 RMK AO2", "KPPA 091355Z AUTO 18011KT 10SM 14/10 A3019 RMK AO2 LTG DSNT SE T01390097", "KPPF 091352Z AUTO 14008KT 10SM CLR 13/05 A3027 RMK AO2 SLP249 T01280050", "KPPO 091355Z AUTO 17005KT 10SM CLR 10/03 A3049 RMK AO2 T00980030", "KPPQ 091355Z AUTO 00000KT 10SM CLR 11/00 A3041 RMK AO2 T01110003", "KPQI 091356Z AUTO 34004KT 10SM CLR 01/M08 A3042 RMK AO2 SLP336 T00111078", "KPQL 091353Z AUTO 03010G18KT 10SM OVC008 11/09 A3021 RMK AO2 SLP230 T01110089", "KPRB 091353Z AUTO 04003KT 10SM CLR 06/05 A3015 RMK AO2 SLP209 T00610050", "KPRC 091353Z 19006KT 10SM CLR 05/M04 A3022 RMK AO2 SLP193 T00501044", "KPRG 091355Z AUTO 12006KT 10SM CLR 11/00 A3046 RMK AO2 T01051005", "KPRN 091258Z AUTO 07010G17KT 10SM OVC007 07/06 A3024 RMK AO2 SLP189 T00720061", "KPRO 091355Z AUTO 17012KT 10SM CLR 11/M02 A3028 RMK AO2 T01101018", "KPRS 091355Z AUTO 01007KT 10SM CLR 18/12 A3016 RMK AO2 T01750116", "KPRX 091356Z AUTO 09009KT 10SM CLR 14/12 A3025 RMK AO2 SLP242 T01390117", "KPSC 091353Z 00000KT 10SM FEW065 BKN085 OVC100 06/04 A3010 RMK AO2 SLP192 T00610044", "KPSF 091354Z AUTO VRB04KT 10SM CLR 05/M12 A3050 RMK AO2 SLP335 T00501117", "KPSK 091355Z AUTO 06004KT 10SM CLR 05/M02 A3042 RMK AO2 T00471020", "KPSM 091355Z 26006KT 10SM CLR 07/M09 A3054 RMK AO2A SLP345 T00701094", "KPSN 091355Z AUTO 13005KT 10SM OVC036 16/15 A3020 RMK AO2", "KPSO 091355Z AUTO 10SM CLR 00/M08 A3033 RMK AO2 T10041080", "KPSP 091353Z 31008KT 10SM CLR 19/04 A3005 RMK AO2 SLP175 T01890044 $", "KPSX 091353Z AUTO 02008KT 9SM SCT030 18/16 A3017 RMK AO2 SLP214 T01780161", "KPTB 091355Z AUTO 03013G18KT 10SM CLR 09/M01 A3046 RMK AO2 T00931006", "KPTD 091355Z AUTO 25005KT 10SM CLR 05/M07 A3055 RMK AO2", "KPTK 091353Z 14009KT 10SM CLR 07/M11 A3051 RMK AO2 SLP339 T00721106", "KPTN 091356Z AUTO 06010KT 10SM OVC007 16/16 A3017 RMK AO2 SLPNO T01610156 $", "KPTS 091355Z AUTO 14010KT 10SM CLR 13/08 A3028 RMK AO2 T01310078 PWINO", "KPTT 091355Z AUTO 18013KT 10SM CLR 13/M01 A3018 RMK AO2 T01341007", "KPTV 091356Z AUTO 18003KT 10SM CLR 09/09 A3017 RMK AO2 SLP217 T00940089", "KPTW 091354Z AUTO VRB04KT 10SM CLR 08/M03 A3051 RMK AO2 SLP332 T00781028", "KPUB 091353Z 25008KT 10SM CLR 08/M05 A3024 RMK AO2 SLP212 T00781050 $", "KPUC 091353Z AUTO 00000KT 10SM CLR 06/M03 A3028 RMK AO2 SLP246 T00561028", "KPUJ 091355Z AUTO 10009G16KT 10SM CLR 08/02 A3031 RMK AO2", "KPUW 091353Z AUTO 09011KT 10SM FEW120 06/01 A3014 RMK AO2 SLP213 T00610011", "KPVB 091355Z AUTO 18013KT 10SM CLR 11/M02 A3039 RMK AO1 T01101022", "KPVC 091356Z AUTO 06006KT 10SM CLR 07/M06 A3056 RMK AO2 SLP347 T00671061", "KPVD 091351Z VRB04KT 10SM FEW250 06/M06 A3056 RMK AO2 SLP347 T00611056 $", "KPVF 091355Z AUTO 00000KT 10SM CLR 12/04 A3018 RMK AO1", "KPVG 091356Z AUTO 10SM BKN032 11/03 A3043 RMK AO2 SLP304 T01110033 $", "KPVJ 091355Z AUTO 15004KT 10SM CLR 11/08 A3022 RMK AO2 T01140075", "KPVU 091356Z 18004KT 10SM OVC090 06/02 A3029 RMK AO2 SLP244 T00610017", "KPVW 091355Z AUTO 25004KT 10SM BKN110 13/07 A3022 RMK AO2 T01270071", "KPWA 091353Z 17009KT 10SM CLR 14/00 A3022 RMK AO2 SLP226 T01390000", "KPWC 091355Z AUTO 21006KT 10SM CLR 08/M01 A3014 RMK AO2", "KPWD 091355Z AUTO 00000KT 10SM CLR 02/M01 A3000 RMK AO2", "KPWG 091356Z AUTO 00000KT 10SM OVC033 15/14 A3022 RMK AO2 SLP233 T01500139", "KPWK 091352Z 18009KT 10SM CLR 12/M01 A3047 RMK AO2 SLP319 T01221006", "KPWM 091351Z 30006KT 10SM CLR 07/M10 A3053 RMK AO2 SLP341 T00671100", "KPWT 091356Z AUTO VRB03KT 5SM -RA BR OVC004 08/08 A3000 RMK AO2 SLP162 P0003 T00780078", "KPXE 091355Z AUTO 04009KT 10SM OVC008 08/07 A3030 RMK AO2 T00760068", "KPYM 091352Z AUTO 01008KT 10SM CLR 07/M08 A3054 RMK AO2 SLP345 T00721083", "KPYX 091355Z AUTO 19013KT 10SM CLR 12/09 A3013 RMK AO2 T01230086", "KPZQ 091355Z AUTO 16007KT 7SM OVC005 00/00 A3052 RMK AO2 T00040003", "KQAZ 091355Z AUTO 33012G21KT 9999 CLR 39/M01 A2980 RMK AO2 SLP082 WND DATA ESTMD T03911011", "KQBL 091400Z AUTO 00000KT 10SM FEW006 BKN008 OVC011 11/10 A3020 RMK AO2 CIG 008V010 SLP233 WND DATA ESTMD", "KQD3 091355Z AUTO 05010KT 9999 FEW021 BKN032 30/24 A2984 RMK AO2 LTG DSNT S SHRAB28E31RAB31E32SHRAB32E43RAB43E44 SLP089 WND DATA ESTMD T03000237", "KQDG 091355Z AUTO 24004KT 9999 CLR 04/M01 A2999 RMK AO2 SLP157 T00421012 $", "KQEI 091400Z AUTO 15002KT 9999 CLR 10/M04 A3004 RMK A02 TSNO", "KQEJ 091400Z AUTO 13001KT 9999 CLR 06/M01 A3003 RMK A02 TSNO", "KQEN 091400Z AUTO 25012G23KT 9999 CLR 06/M05 A2996 RMK A02 TSNO", "KQEP 091400Z AUTO 06001KT 9999 CLR 07/02 A3010 RMK A02 TSNO", "KQEQ 091400Z AUTO 20002KT 9999 CLR 08/04 A3010 RMK A02 TSNO", "KQER 091400Z AUTO 04001KT 9999 CLR 06/00 A3001 RMK A02 TSNO", "KQES 091350Z AUTO 24001KT 9999 CLR 08/02 A3016 RMK A02 TSNO", "KQEV 091400Z AUTO 22001KT 9999 CLR 06/M01 A3005 RMK A02 TSNO", "KQEW 091400Z AUTO 26002KT 9999 CLR 09/M06 A3007 RMK A02 TSNO", "KQEY 091400Z AUTO 33002KT 9999 CLR 07/M04 A2979 RMK A02 TSNO", "KQFB 091400Z AUTO 06001KT 9999 CLR 10/M00 A3012 RMK A02 TSNO", "KQFT 091400Z AUTO 16002KT 9999 CLR 07/01 A3007 RMK A02 TSNO", "KQFU 091400Z AUTO 05001KT 9999 CLR 07/02 A3010 RMK A02 TSNO", "KQFV 091400Z AUTO 34002KT 9999 CLR 06/M00 A3009 RMK A02 TSNO", "KQFW 091400Z AUTO 02001KT 9999 CLR 05/M02 A2990 RMK A02 TSNO", "KQFX 091400Z AUTO 12002KT 9999 CLR 06/M01 A3007 RMK A02 TSNO", "KQHY 091355Z AUTO 03005KT 10SM OVC010 13/12 A3019 RMK AO2 SLP230 T01290115 $", "KQN3 091355Z 01006G13KT 9999 CLR 40/M02 A2980 RMK AO2A SLP079 WND DATA ESTMD T03991018", "KQRH 091400Z AUTO 05010G16KT 360V080 9999 FEW017 SCT031 30/25 A2980 RMK AO2 LTG DSNT S SLP094 WND DATA ESTMD", "KQTZ 091355Z 36006KT 9999 BKN180 BKN220 31/11 A2995 RMK SLP143", "KQVF 091355Z AUTO VRB06KT 9999 CLR 30/24 A2982 RMK AO2 SLP100 WND DATA ESTMD T03040240", "KRAC 091353Z AUTO 18006KT 10SM CLR 11/01 A3046 RMK AO2 SLP319 T01060011", "KRAL 091353Z 00000KT 10SM CLR 10/08 A3009 RMK AO2 SLP180 T01000078", "KRAP 091352Z 29009KT 10SM CLR 07/M01 A3012 RMK AO2 SLP208 T00721011 $", "KRAS 091355Z AUTO 01012KT 10SM BKN030 17/15 A3017 RMK AO2 T01750152", "KRAW 091355Z AUTO 17007KT 10SM CLR 11/01 A3033 RMK AO2", "KRBD 091353Z 00000KT 10SM OVC035 15/12 A3020 RMK AO2 SLP223 T01500122", "KRBG 091353Z AUTO 00000KT 10SM OVC080 09/07 A3008 RMK AO2 SLP187 T00940067", "KRBL 091354Z AUTO 33008KT 10SM CLR 08/04 A3019 RMK AO2 SLP222 T00780044", "KRBO 091355Z AUTO 03008KT 10SM CLR 17/15 A3016 RMK AO2 T01670149", "KRBW 091355Z AUTO 02008G17KT 10SM OVC008 07/07 A3027 RMK AO2", "KRCA 091355Z AUTO 29006KT 10SM CLR 07/M01 A3010 RMK AO2 SLP201 T00661011 $", "KRCE 091355Z AUTO 16008KT 10SM CLR 13/01 A3021 RMK AO2", "KRCM 091355Z AUTO 14009KT 10SM CLR 12/02 A3031 RMK AO2", "KRCR 091355Z AUTO 00000KT 10SM CLR 09/01 A3049 RMK AO2", "KRCV 091355Z AUTO 29013KT 10SM CLR 02/M09 A3035 RMK AO2 T00171095", "KRCX 091355Z AUTO 15008KT 10SM CLR 06/01 A3030 RMK AO2 T00620013", "KRCZ 091355Z AUTO 04011G16KT 10SM SCT016 09/05 A3036 RMK AO2 T00870047", "KRDD 091353Z 33003KT 10SM CLR 07/04 A3018 RMK AO2 SLP217 T00720039", "KRDG 091354Z 03009KT 10SM CLR 09/M05 A3049 RMK AO2 SLP332 T00941050", "KRDK 091355Z AUTO 18009KT 10SM CLR 11/M01 A3027 RMK AO2", "KRDM 091356Z 18006KT 10SM SCT085 08/M01 A3007 RMK AO2 SLP178 T00831011", "KRDR 091355Z AUTO 13004KT 10SM CLR M02/M05 A3000 RMK AO2 SLP175 T10201048 $", "KRDU 091351Z 05011G18KT 10SM FEW250 09/02 A3040 RMK AO2 SLP296 T00940022 $", "KREG 091355Z AUTO 04004KT 10SM OVC007 16/14 A3018 RMK AO2 T01550138", "KREO 091352Z AUTO 16006KT 02/M01 A3019 RMK AO1 SLP223 T00221011", "KRFD 091354Z 17006KT 10SM SCT250 11/00 A3045 RMK AO2 SLP312 T01110000", "KRFI 091355Z AUTO 09003KT 10SM OVC009 16/12 A3024 RMK AO2 T01630116", "KRGA 091355Z AUTO 08008KT 10SM CLR 10/M01 A3044 RMK AO2", "KRGK 091355Z AUTO 20006KT 10SM CLR 13/M03 A3026 RMK AO2", "KRHI 091353Z AUTO 20008KT 10SM CLR 07/M02 A3032 RMK AO2 SLP283 T00721022 $", "KRHP 091356Z AUTO 00000KT 10SM SCT070 11/07 A3031 RMK AO2 T01120069", "KRHV 091355Z 00000KT 10SM SKC 08/06 A3018", "KRIC 091354Z 04012G19KT 10SM CLR 11/M02 A3046 RMK AO2 SLP320 T01111022", "KRID 091355Z AUTO 10010KT 10SM CLR 09/M01 A3048 RMK AO2", "KRIL 091353Z AUTO 00000KT 10SM CLR 02/M02 A3033 RMK AO2 SLP258 T00171022", "KRIV 091355Z AUTO 00000KT 10SM CLR 07/07 A3009 RMK AO2 SLP187 T00720072 VISNO RWY14 $", "KRIW 091353Z AUTO 26008KT 10SM CLR 01/M04 A3020 RMK AO2 SLP233 T00061044", "KRKD 091356Z AUTO 29008KT 10SM CLR 06/M11 A3052 RMK AO2 SLP334 T00561111", "KRKP 091353Z AUTO 01008KT 6SM HZ BKN029 18/14 A3016 RMK AO2 SLP215 T01780144", "KRKR 091355Z AUTO 00000KT 10SM CLR 12/07 A3028 RMK AO2", "KRKS 091354Z AUTO 29003KT 10SM CLR M01/M03 A3030 RMK AO2 SLP273 T10111028", "KRKW 091355Z AUTO 08007KT 050V120 10SM CLR 09/M01 A3034 RMK A01", "KRLD 091355Z AUTO 00000KT 10SM -RA BKN080 OVC090 08/05 A3010 RMK AO2 T00760048", "KRME 091353Z 25003KT 10SM CLR 03/M07 A3058 RMK AO2 SLP358 T00281067", "KRMG 091404Z AUTO 05006KT 10SM SCT007 BKN015 BKN021 11/08 A3033 RMK AO2 T01110083", "KRMN 091355Z AUTO 00000KT 10SM CLR 12/02 A3050 RMK AO2 T01240022", "KRMY 091355Z AUTO 15006KT 10SM CLR 09/M04 A3049 RMK AO2 T00901037", "KRNC 091355Z AUTO 06005KT 10SM CLR 10/05 A3033 RMK A01", "KRND 091355Z AUTO 01003KT 10SM OVC006 15/14 A3018 RMK AO2 SLP218 T01450143", "KRNH 091355Z AUTO 18011KT 10SM CLR 09/02 A3023 RMK AO2 T00940023", "KRNM 091403Z AUTO 00000KT 5SM BR FEW002 06/05 A3009 RMK AO2 T00560050 $", "KRNO 091355Z 00000KT 10SM FEW140 05/01 A3025 RMK AO2 SLP224 T00500006", "KRNP 091355Z AUTO 17007KT 10SM CLR 08/M03 A3051 RMK AO2 T00801035", "KRNT 091353Z 17005KT 6SM -RA BR SCT045 OVC050 09/08 A3001 RMK AO2 SLP166 P0000 T00940078", "KROA 091354Z 00000KT 10SM CLR 08/M03 A3048 RMK AO2 SLP323 T00781028", "KROC 091354Z 10SM CLR 05/M06 A3057 RMK AO2 SLP361 T00501061", "KROG 091358Z 13010KT 10SM CLR 12/07 A3030 RMK AO2 SLP254 T01220072", "KROS 091355Z AUTO 16008KT 10SM CLR 10/00 A3019 RMK AO2 T00971002", "KROW 091351Z 00000KT 10SM CLR 14/06 A3016 RMK AO2 SLP168 T01440061", "KROX 091355Z AUTO 22009KT 10SM CLR 01/M01 A2999 RMK AO2", "KRPD 091355Z AUTO 13007KT 10SM CLR 05/02 A3027 RMK AO2 T00500023", "KRPH 091355Z AUTO 00000KT 9SM CLR 14/13 A3020 RMK AO2 T01370130 $", "KRPJ 091355Z AUTO 17011KT 10SM CLR 11/01 A3045 RMK AO2 T01100009 TSNO", "KRPX 091402Z AUTO 10SM 06/M04 A3004 RMK Roundup ", "KRQB 091355Z AUTO 14004KT 10SM CLR 03/00 A3048 RMK AO2 T00320002", "KRQE 091353Z AUTO 00000KT 10SM CLR M03/M08 A3030 RMK AO2 SLP227 T10331078 $", "KRQO 091355Z AUTO 17005KT CLR 12/03 A3022 RMK AO2 PWINO T01250030", "KRRT 091355Z AUTO 22009KT 10SM CLR 02/M01 A2998 RMK AO2", "KRSL 091353Z AUTO 18015KT 6SM -RA FEW065 SCT080 OVC100 11/06 A3013 RMK AO2 PK WND 19026/1305 LTG DSNT SW RAB15 SLP202 P0003 T01110056", "KRSN 091355Z AUTO 09006KT 7SM OVC006 13/13 A3024 RMK AO2 CIG 005V010 T01350135 $", "KRSP 091354Z AUTO 13009G14KT 10SM CLR A3044 RMK AO2 SLPNO $", "KRST 091354Z 19018KT 10SM CLR 11/00 A3029 RMK AO2 PK WND 19026/1323 SLP261 T01060000", "KRSW 091353Z COR 33008KT 10SM SCT035 27/21 A3003 RMK AO2 SLP165 T02670211", "KRTN 091353Z AUTO 04004KT 10SM CLR 08/M06 A3025 RMK AO2 SLP193 T00781056", "KRTS 091355Z AUTO 08004KT 10SM CLR 00/M02 A3026 RMK AO2", "KRUE 091353Z AUTO 07006KT 10SM BKN014 OVC021 13/10 A3029 RMK AO2 SLP253 T01330100", "KRUG 091355Z AUTO 18006KT 10SM CLR M01/M02 A3000 RMK AO2", "KRUQ 091345Z AUTO 04014G19KT 10SM CLR 07/M01 A3040 RMK AO2 T00721014", "KRUT 091356Z AUTO 00000KT 10SM CLR 05/M09 A3054 RMK AO2 SLP346 T00501089 $", "KRVF 091355Z AUTO 16007KT 10SM CLR 02/M03 A3026 RMK AO2", "KRVJ 091355Z AUTO 04009KT 7SM OVC009 09/08 A3025 RMK AO2 P0003 T00860084", "KRVL 091355Z AUTO 00000KT 10SM CLR 07/M03 A3050 RMK AO2", "KRVS 091353Z 15006KT 10SM CLR 13/07 A3025 RMK AO2 SLP248 T01280072", "KRWF 091353Z AUTO 15012KT 10SM FEW110 06/M01 A3017 RMK AO2 SLP223 T00611006 $", "KRWI 091353Z AUTO 04012G19KT 10SM CLR 10/03 A3039 RMK AO2 SLP292 T01000028", "KRWL 091353Z AUTO 10SM CLR 01/M04 A3027 RMK AO2 SLP248 T00111044", "KRWV 091355Z AUTO 35003KT 7SM OVC034 16/14 A3022 RMK AO2 T01560143", "KRXE 091353Z AUTO 03003KT 10SM CLR M01/M04 A3029 RMK AO2 SLP271 T10061039", "KRYM 091355Z AUTO 21004KT 10SM BKN100 06/M01 A3012 RMK AO2 SLP212 T00601014", "KRYN 091345Z 00000KT 10SM CLR 08/M08 A3010", "KRYW 091355Z AUTO 00000KT 10SM OVC022 14/13 A3022 RMK AO2 T01410134", "KRYY 091350Z 12012G17KT 10SM CLR 09/01 A3033 RMK AO2 SLP271 T00890006 $", "KRZL 091355Z AUTO 12006KT 10SM CLR 09/00 A3050 RMK AO2", "KRZN 091355Z AUTO 20010G19KT 10SM CLR 09/M03 A3020 RMK AO2 T00911031", "KRZR 091355Z AUTO VRB04KT 10SM OVC014 09/06 A3033 RMK A01", "KRZT 091355Z AUTO 07004KT 10SM CLR 09/M03 A3051 RMK AO2 PWINO", "KS21 091355Z AUTO 23010KT 10SM OVC049 05/M03 A3013 RMK AO2", "KS24 091355Z AUTO 13005KT 10SM CLR 10/M03 A3052 RMK AO2", "KS25 091355Z AUTO 22009KT 10SM CLR 03/03 A3004 RMK AO2", "KS32 091355Z AUTO 17005KT 9SM CLR M04/M04 A3004 RMK AO2 TSNO", "KS33 091355Z AUTO 17008KT 10SM OVC070 A3008 RMK AO2", "KS34 091355Z AUTO 00000KT 10SM 01/M19 A3016 RMK Plains ", "KS39 091355Z AUTO 16005KT 10SM SCT085 08/M01 A3009 RMK AO2", "KS52 091355Z AUTO 00000KT 10SM OVC110 04/02 A3006 RMK AO2 T00350018", "KS59 091400Z AUTO 00000KT 10SM 02/M01 A3013 ", "KS71 091400Z AUTO 00000KT 10SM 04/00 A3007 ", "KS85 091355Z AUTO 21006KT 10SM 03/02 A3003 RMK A01 Culbertson ", "KSAA 091355Z AUTO 14008KT 10SM CLR 00/M03 A3029 RMK AO2", "KSAC 091353Z 32004KT 10SM CLR 09/07 A3016 RMK AO2 SLP213 T00890072", "KSAD 091351Z AUTO 00000KT 10SM CLR 09/M04 A3013 RMK AO2 SLP172 T00891044", "KSAF 091353Z AUTO 02011KT 10SM CLR 06/M05 A3027 RMK AO2 SLP199 T00561050", "KSAN 091402Z 30004KT 9SM OVC003 13/11 A3012 RMK AO2 T01280111", "KSAR 091355Z AUTO 13006KT 10SM CLR 11/00 A3041 RMK AO2 T01051002", "KSAT 091351Z 07005KT 6SM BR OVC005 14/12 A3021 RMK AO2 SLP219 T01390122", "KSAV 091353Z 02015G18KT 10SM OVC010 09/07 A3023 RMK AO2 CIG 008V012 SLP237 T00940067", "KSAW 091347Z 20009KT 2 1/2SM BR BKN003 M01/M01 A3034", "KSAZ 091355Z AUTO 20003KT 10SM SCT110 07/M01 A3012 RMK AO2", "KSBA 091353Z 00000KT 1/8SM R07/1200V1400FT FG VV002 11/10 A3009 RMK AO2 SLP189 T01110100", "KSBD 091400Z 00000KT 7SM CLR 08/05 A3010", "KSBM 091353Z AUTO 20005KT 10SM CLR 08/03 A3042 RMK AO2 SLP307 T00780033", "KSBN 091354Z 14008KT 10SM CLR 11/M01 A3049 RMK AO2 SLP329 T01111011", "KSBO 091355Z AUTO 04009G16KT 10SM OVC010 08/08 A3029 RMK AO2", "KSBP 091356Z 00000KT 10SM CLR 09/08 A3010 RMK AO2 SLP194 T00940078", "KSBS 091355Z AUTO 00000KT 10SM CLR M04/M04 A3032 RMK AO1 T10451045", "KSBY 091354Z 08012KT 10SM CLR 11/M02 A3047 RMK AO2 SLP320 T01061017", "KSCD 091355Z AUTO 08007KT 10SM OVC030 12/07 A3029 RMK AO2 T01230067", "KSCK 091355Z 28005KT 10SM CLR 07/04 A3016 RMK AO2 SLP213 T00670044", "KSCR 091345Z AUTO 04010G17KT 10SM CLR 08/04 A3040 RMK AO2 T00770038", "KSCX 091355Z AUTO 07007KT 10SM CLR 10/M01 A3035 RMK A01", "KSDA 091355Z AUTO 16014KT 10SM CLR 13/00 A3025 RMK AO2", "KSDB NO CARRIER RING CONNECT 57600 SEAMTRNUW ALL TTAA00 KNUW 091353 METAR ", "KSDC 091355Z AUTO 00000KT 10SM CLR 06/M06 A3058 RMK AO2", "KSDF 091356Z 06005KT 10SM FEW250 12/M04 A3044 RMK AO2 SLP308 T01171044", "KSDL 091353Z 00000KT 9SM CLR 13/03 A3007 RMK AO2 SLP166 T01330033", "KSDM 091401Z AUTO 00000KT 2SM BR OVC003 12/11 A3010 RMK AO2 T01170106", "KSDY 091356Z AUTO 29012KT 10SM CLR 07/00 A3005 RMK AO2 SLP190 T00720000", "KSEA 091353Z 15006KT 6SM -RA BR OVC040 09/07 A3001 RMK AO2 SLP168 P0005 T00890072 $", "KSEE 091347Z 00000KT 06SM BR OVC006 12/10 A3010", "KSEF 091355Z AUTO 35010KT 10SM SCT013 BKN110 24/22 A3004 RMK AO2 T02400218", "KSEG 091353Z AUTO 05007G14KT 10SM CLR 08/M05 A3052 RMK AO2 SLP338 T00831050 $", "KSEM 091355Z AUTO 07010KT 10SM OVC014 10/08 A3028 RMK AO2", "KSEP 091355Z AUTO 00000KT 10SM BKN024 12/12 A3023 RMK AO2 T01210115", "KSEQ 091355Z AUTO 00000KT 8SM OVC005 14/14 A3019 RMK AO2 SLP223 T01430140", "KSET 091354Z AUTO 11010KT 10SM CLR 11/00 A3040 RMK AO2 SLP294 T01060000", "KSEZ 091355Z AUTO 05009KT 10SM CLR 12/M06 A3021 RMK AO2", "KSFB 091353Z 03012G22KT 10SM OVC012 19/16 A3007 RMK AO2 SLP182 T01890161", "KSFF 091353Z 00000KT 10SM OVC080 06/01 A3012 RMK AO2 SLP202 T00560006", "KSFM 091356Z AUTO 00000KT 10SM CLR 07/M12 A3054 RMK AO2 SLP346 T00671122", "KSFO 091356Z 20003KT 10SM FEW200 09/06 A3017 RMK AO2 SLP216 T00940056", "KSFQ 091355Z AUTO 04015G22KT 10SM BKN032 11/04 A3042 RMK AO2 T01120038", "KSFZ 091356Z AUTO 02008KT 10SM CLR 07/M08 A3054 RMK AO2 SLP346 T00671078", "KSGF 091352Z 14013KT 10SM CLR 12/07 A3030 RMK AO2 SLP258 T01220072", "KSGH 091356Z AUTO 11013KT 10SM CLR 09/M03 A3049 RMK AO2 SLP332 T00941028", "KSGJ 091356Z 01016G21KT 2SM -RA BR OVC005 16/14 A3014 RMK AO2 RAB14 SLP206 P0000 T01560144 $", "KSGR 091353Z 03003KT 10SM OVC025 17/16 A3018 RMK AO2 SLP221 T01720156", "KSGS 091355Z AUTO 16006KT 10SM CLR 11/M01 A3023 RMK AO2 T01061015", "KSGT 091356Z AUTO 11010KT 10SM OVC019 14/09 A3031 RMK AO2 SLP265 T01390094", "KSGU 091356Z AUTO 17003KT 10SM CLR 08/01 A3023 RMK AO2 SLP221 T00780006", "KSHD 091355Z AUTO 00000KT 10SM CLR 05/M03 A3050 RMK AO2 T00521026", "KSHL 091355Z AUTO 17011G16KT 10SM CLR 10/M04 A3017 RMK AO2", "KSHM 091355Z AUTO 30005KT 10SM CLR 10/M08 A3023 RMK AO2 SLP200 T01011076 $", "KSHN 091353Z AUTO 31003KT 5SM -RA BR SCT023 BKN029 OVC041 08/07 A2998 RMK AO2 SLP155 P0001 T00780072", "KSHR 091353Z AUTO 26003KT 10SM CLR 02/M04 A3017 RMK AO2 SLP238 T00171044", "KSHV 091356Z 06007KT 10SM OVC010 15/13 A3023 RMK SLPNO", "KSIF 091345Z AUTO 05005KT 10SM CLR 08/00 A3044 RMK AO2 T00790000", "KSIK 091355Z AUTO 00000KT 10SM CLR 12/03 A3037 RMK AO2", "KSIY 091353Z AUTO 05009KT 10SM OVC080 04/M01 A3017 RMK AO2 SLP228 T00441006", "KSJC 091353Z 00000KT 10SM FEW004 FEW100 09/07 A3017 RMK AO2 SLP217 FU FEW004 T00890067", "KSJS 091355Z AUTO 07004KT 10SM CLR 10/M02 A3044 RMK AO2 T00951024", "KSJT 091351Z 00000KT 10SM CLR 13/11 A3018 RMK AO2 SLP211 T01280106", "KSJX 091355Z AUTO 13008KT 10SM CLR 05/01 A3044 RMK AO2 T00490008", "KSKA 091355Z 00000KT 10SM SCT075 BKN090 06/M01 A3008 RMK AO2A SLP192 T00591013 $", "KSKF 091355Z AUTO 06004KT 8SM OVC007 14/14 A3019 RMK AO2 SLP221 T01430141", "KSKX 091356Z AUTO 34005KT 10SM CLR 02/M07 A3033 RMK AO2 SLP258 T00221067 FZRANO", "KSLB 091355Z AUTO 18022KT 10SM CLR 12/M04 A3021 RMK AO2", "KSLC 091354Z 13005KT 10SM FEW090 SCT240 07/02 A3026 RMK AO2 SLP229 T00720022", "KSLE 091356Z 13003KT 6SM BR FEW012 BKN034 OVC065 09/08 A3004 RMK AO2 RAE05 SLP174 P0000 T00940083", "KSLG 091356Z AUTO 12006KT 10SM CLR 12/08 A3029 RMK AO2 SLP252 T01220078", "KSLH 091355Z AUTO 13005KT 5SM BR OVC004 00/00 A3047 RMK AO2", "KSLI 091355Z 00000KT 5SM BR OVC005 12/11 A3008 RMK AO2A SLP189 T01150109", "KSLK 091351Z AUTO 22007KT 10SM CLR 03/M09 A3048 RMK AO2 SLP343 T00281089", "KSLN 091353Z 15010KT 10SM CLR 12/M01 A3020 RMK AO2 RAE1257 SLP224 P0000 T01221011", "KSLR 091355Z AUTO 10006KT 2 1/2SM BR CLR 14/13 A3026 RMK AO2 T01420129", "KSMD 091355Z AUTO 12006KT 10SM CLR 10/M02 A3051 RMK A01", "KSME 091355Z AUTO 10005KT 10SM CLR 10/M04 A3038 RMK AO2", "KSMF 091353Z 34004KT 10SM FEW250 09/07 A3016 RMK AO2 SLP213 T00890067", "KSMN 091356Z AUTO 00000KT 10SM CLR M01/M03 A3027 RMK AO2 SLP936 T10111028 FZRANO", "KSMO 091402Z 00000KT 2SM BR OVC003 12/11 A3011 RMK AO2 T01170106", "KSMP 091356Z AUTO VRB03KT 1/4SM FG SCT026 BKN031 OVC037 01/00 A3001 RMK AO2 UPE00 SLP181 P0001 T00110000 $", "KSMQ 091353Z AUTO 06010G14KT 10SM CLR 09/M07 A3050 RMK AO2 SLP329 T00941072", "KSMS 091355Z AUTO 03012KT 10SM OVC014 09/07 A3033 RMK AO2", "KSMX 091351Z 00000KT 4SM BR OVC004 11/11 A3010 RMK AO2 SLP197 T01110111", "KSNA 091353Z 00000KT 4SM BR OVC007 13/11 A3010 RMK AO2 SLP194 T01330106 $", "KSNC 091355Z AUTO 05007KT 10SM CLR 08/M10 A3053 RMK AO2", "KSNH 091355Z AUTO 00000KT 10SM OVC016 13/12 A3032 RMK A01", "KSNK 091355Z AUTO 17006KT 10SM CLR 13/12 A3019 RMK AO2 T01300121", "KSNL 091355Z AUTO 17015G20KT 10SM CLR 13/07 A3023 RMK AO2 T01320065", "KSNS 091353Z 12004KT 10SM CLR 09/07 A3015 RMK AO2 SLP218 T00890072", "KSNT 091351Z AUTO 00000KT M04/M07 A3027 RMK AO1 SLP235 T10391067", "KSNY 091353Z AUTO 30012KT 10SM CLR 07/M01 A3017 RMK AO2 SLP208 T00671011", "KSOA 091355Z AUTO 00000KT 4SM BR OVC001 14/14 A3023 RMK AO2", "KSOP 091356Z AUTO 03013G17KT 10SM SCT019 BKN110 09/05 A3038 RMK AO2 SLP294 T00890050 TSNO PNO $", "KSOW 091355Z AUTO 00000KT 10SM CLR 04/M04 A3027 RMK AO2", "KSPA 091355Z AUTO 06012G19KT 10SM CLR 08/M02 A3038 RMK AO2", "KSPB 091353Z AUTO 16005KT 8SM -RA FEW033 OVC042 09/07 A3006 RMK AO2 SLP177 P0003 T00890072", "KSPD 091356Z AUTO 34015KT 12/M03 A3019 RMK AO1 SLP181 T01221033", "KSPF 091355Z AUTO 00000KT 10SM CLR 06/M01 A3015 RMK AO2", "KSPG 091353Z 06012KT 10SM BKN013 OVC022 24/22 A3002 RMK AO2 SLP165 T02390217", "KSPI 091352Z 14006KT 10SM CLR 11/M02 A3043 RMK AO2 SLP305 T01111017 $", "KSPS 091352Z 11003KT 10SM CLR 12/10 A3020 RMK AO2 SLP223 T01220100 $", "KSPW 091353Z AUTO 19015G22KT 10SM CLR 12/M03 A3021 RMK AO2 SLP230 T01221033", "KSQI 091356Z AUTO VRB04KT 10SM CLR 11/01 A3044 RMK AO2 SLP171 T01110006", "KSQL 091355Z AUTO 00000KT 8SM CLR 08/05 A3018 RMK AO2", "KSRB 091355Z AUTO 00000KT 10SM CLR 10/06 A3035 RMK AO2", "KSRC 091356Z AUTO 07006KT 10SM BKN006 BKN012 OVC022 14/12 A3032 RMK AO2 SLP266 T01390122", "KSRE 091355Z AUTO 14009KT 10SM CLR 14/08 A3024 RMK AO2", "KSRQ 091404Z 16004KT 10SM TS BKN017 BKN027 OVC033 23/20 A3001 RMK AO2 RAE1354 TSB1359 P0000 T02330200", "KSRR 091355Z AUTO 00000KT 10SM 10/M02 A3030 RMK AO2", "KSSC 091355Z AUTO 03018G22KT 10SM OVC014 08/05 A3031 RMK AO2 SLP267 T00830054 $", "KSSF 091353Z VRB03KT 10SM OVC008 15/M02 A3020 RMK AO2 SLP222 T01501017 $", "KSSI 091353Z AUTO 01012G24KT 6SM HZ OVC009 13/10 A3017 RMK AO2 SLP218 T01330100", "KSTC 091353Z 17008KT 10SM FEW120 06/M02 A3015 RMK AO2 SLP225 T00611017", "KSTE 091355Z AUTO 18007KT 150V220 10SM CLR 09/M01 A3037 RMK AO2 T00921011", "KSTF 091355Z AUTO 08008KT 10SM OVC015 13/12 A3029 RMK AO2", "KSTJ 091353Z 17009KT 10SM CLR 13/03 A3028 RMK AO2 SLP253 T01280028", "KSTK 091355Z AUTO 18003KT 10SM CLR 06/00 A3018 RMK AO2", "KSTL 091351Z 13008KT 10SM SCT250 12/M02 A3041 RMK AO2 SLP296 T01221017 $", "KSTP 091353Z 15009KT 10SM CLR 11/00 A3023 RMK AO2 SLP236 T01110000", "KSTS 091353Z 00000KT 10SM CLR 06/04 A3017 RMK AO2 SLP211 T00560044", "KSUA 091347Z 01009G15KT 7SM SCT016 25/19 A3002", "KSUE 091356Z AUTO 20010KT 10SM CLR 08/03 A3041 RMK AO2 SLP303 T00780028", "KSUN 091355Z 30009KT 10SM SKC 01/M03 A3031", "KSUS 091354Z 12007KT 10SM CLR 11/M02 A3039 RMK AO2 SLP290 T01111017", "KSUT 091350Z AUTO 03008G15KT 10SM OVC014 10/09 A3025 RMK AO2 T01000085", "KSUU 091355Z AUTO 23004KT 5SM BR CLR 05/04 A3015 RMK AO2 SLP216 T00510036 $", "KSUW 091355Z AUTO 00000KT 10SM CLR 02/00 A3018 RMK AO2 T00200001", "KSUX 091352Z 13009KT 10SM CLR 11/M04 A3019 RMK AO2 SLP223 T01111039", "KSUZ 091355Z AUTO 07005G10KT 10SM OVC014 13/13 A3029 RMK A01", "KSVC 091355Z AUTO 32007KT 10SM CLR 13/M05 A3021 RMK AO2 T01251051", "KSVE 091355Z AUTO 29004KT 10SM CLR 01/M02 A3024 RMK AO2", "KSVH 091345Z AUTO 05013G19KT 10SM CLR 08/00 A3041 RMK AO2 T00751002", "KSVN 091355Z AUTO 02006KT 10SM OVC008 10/08 A3019 RMK AO2 CIG 007 RWY28 SLP227 T00950081 $", "KSWF 091345Z VRB05KT 10SM SKC 07/M09 A3052", "KSWO 091353Z 15010KT 10SM CLR 13/01 A3022 RMK AO2 SLP229 T01280011", "KSWW 091355Z AUTO 17009KT 10SM CLR 15/14 A3021 RMK AO2 T01510144", "KSXK 091355Z AUTO 18016KT 10SM CLR 11/M05 A3016 RMK AO2", "KSXS 091355Z AUTO 06011KT 10SM OVC011 09/08 A3022 RMK AO2 SLP236 T00910075 TSNO $", "KSXU 091355Z AUTO 00000KT 10SM CLR 11/05 A3021 RMK AO2 T01100045", "KSYF 091355Z AUTO 00000KT 10SM CLR 10/00 A3018 RMK AO2 T00950001 PWINO", "KSYI 091355Z AUTO VRB04KT 10SM CLR 11/08 A3033 RMK A01", "KSYN 091355Z AUTO 20014G21KT 10SM CLR 11/00 A3024 RMK AO2 T01101004", "KSYR 091354Z 00000KT 10SM CLR 06/M08 A3057 RMK AO2 SLP352 T00561083", "KSZL 091355Z AUTO 16009KT 10SM CLR 13/04 A3030 RMK AO2 SLP264 T01260038 $", "KSZT 091355Z AUTO 02003KT 10SM OVC065 05/00 A3013 RMK AO2", "KSZY 091355Z AUTO 12004KT 10SM 12/10 A3033 RMK A01", "KT20 091355Z AUTO 01003KT 7SM OVC015 16/15 A3020 RMK AO2 T01550152", "KT35 091355Z AUTO 00000KT 10SM OVC034 16/14 A3022 RMK AO2 T01550143", "KT41 091355Z AUTO 05006KT 10SM OVC021 18/15 A3019 RMK AO2 T01750150", "KT69 091355Z AUTO 04007KT 9SM CLR 17/15 A3016 RMK A01", "KT70 091355Z AUTO 10009KT 5SM BR OVC004 14/14 A3017 RMK AO2 SLP211 T01430140 $", "KT74 091355Z AUTO 00000KT 5SM BR OVC035 14/14 A3022 RMK AO2 T01440139", "KT78 091355Z AUTO 06007KT 10SM OVC033 17/15 A3018 RMK AO2", "KT82 091355Z AUTO 00000KT 1/2SM FG OVC003 12/12 A3021 RMK AO2 T01200118", "KT89 091355Z AUTO 14005KT 10SM CLR 17/11 A3013 RMK A01", "KTAD 091354Z AUTO 26009KT 10SM CLR 07/M07 A3027 RMK AO2 SLP209 T00671067", "KTAN 091352Z AUTO A3054 RMK AO2 SLPNO PWINO FZRANO TSNO PNO $", "KTAZ 091355Z AUTO 13008KT 10SM CLR 10/M02 A3043 RMK AO2 T01031016", "KTBN 091355Z AUTO 00000KT 10SM CLR 11/01 A3033 RMK AO2 SLP273 T01100007", "KTBR 091355Z AUTO 03007G14KT 4SM BR OVC007 08/06 A3027 RMK AO2 T00750060", "KTCC 091353Z AUTO 25005KT 10SM CLR 12/09 A3016 RMK AO2 SLP182 T01170089 $", "KTCL 091353Z 10007KT 10SM OVC022 11/07 A3030 RMK AO2 SLP260 T01110072", "KTCM 091403Z AUTO 00000KT 10SM OVC034 09/09 A2999 RMK AO2 RAE03 SLP160 $", "KTCS 091353Z AUTO 32007KT 10SM CLR 13/M08 A3018 RMK AO2 SLP163 T01281083", "KTCY 091355Z AUTO 00000KT 10SM CLR 09/08 A3017 RMK A01", "KTDF 091345Z AUTO 04010G15KT 10SM CLR 06/03 A3045 RMK AO2", "KTDR 091355Z AUTO 05017KT 10SM OVC010 11/09 A3012 RMK AO2 SLP203 T01130092 $", "KTDZ 091353Z AUTO 08003KT 10SM CLR 09/M03 A3053 RMK AO2 SLP342 T00941033", "KTEB 091351Z 09009KT 10SM CLR 08/M07 A3052 RMK AO2 SLP333 T00831072 $", "KTEW 091355Z AUTO 15006KT 10SM CLR 08/M03 A3050 RMK AO2 T00801034", "KTEX 091355Z AUTO 14005KT 10SM CLR M01/M10 A3039 RMK AO2", "KTFP 091315Z AUTO 05012KT 10SM BKN028 18/15 A3015 RMK AO2 T01750150", "KTGI 091355Z AUTO 04012G20KT 10SM CLR 10/02 A3046 RMK AO1 T00980017", "KTHA 091355Z AUTO 07004KT 10SM CLR 10/06 A3032 RMK A01", "KTHM 091255Z AUTO 00000KT 10SM 01/M02 A3018 RMK Thompson Falls ", "KTHV 091353Z AUTO VRB03KT 10SM CLR 09/M02 A3049 RMK AO2 SLP331 T00941017", "KTIF 091355Z AUTO 28006KT 10SM CLR 10/00 A3013 RMK AO2 T01020000", "KTIK 091355Z AUTO 18007KT 10SM CLR 13/02 A3019 RMK AO2 SLP228 T01280023", "KTIP 091355Z AUTO 00000KT 10SM CLR 10/00 A3046 RMK AO2 T01021003", "KTIW 091353Z 00000KT 9SM -RA OVC041 08/07 A3000 RMK AO2 SLP161 P0001 T00780067", "KTIX 091350Z 02018G23KT 6SM HZ OVC014 23/18 A3007", "KTKC 091355Z AUTO 20014G20KT 10SM FEW120 08/M01 A3014 RMK AO2", "KTKI 091353Z 10006KT 10SM FEW040 14/12 A3022 RMK AO2 SLP237 T01440122", "KTKV 091355Z AUTO 17007KT 130V200 10SM CLR 06/M01 A3033 RMK AO2 T00611008 PWINO", "KTKX 091355Z AUTO 07008KT 8SM OVC025 12/09 A3034 RMK AO2", "KTLH 091353Z 03010G16KT 10SM OVC011 12/09 A3018 RMK AO2 SLP218 T01170089", "KTMA 091355Z AUTO 04010KT 10SM OVC011 09/08 A3024 RMK AO2 T00930083 $", "KTMB 091353Z 29006KT 10SM CLR 27/21 A3003 RMK AO2 SLP168 T02720206", "KTMK 091350Z AUTO 13004KT 7SM OVC021 10/08 A3004 RMK AO2 P0001", "KTMT 091355Z AUTO 00000KT 10SM CLR M02/M03 A3030 RMK AO2 T10181030", "KTNB 091355Z AUTO 06006KT 10SM CLR 05/M07 A3037 RMK AO2 T00491072", "KTNU 091355Z AUTO 16013KT 10SM CLR 11/M01 A3032 RMK A01", "KTOA 091347Z 28004KT 1SM BR OVC005 11/11 A3011", "KTOB 091355Z AUTO 18017KT 10SM CLR 09/M01 A3027 RMK AO2", "KTOC 091355Z AUTO 05006KT 10SM CLR 09/02 A3037 RMK AO2 T00920021", "KTOI 091353Z AUTO 05008KT 10SM OVC012 10/07 A3026 RMK AO2 SLP246 T01000067", "KTOL 091352Z 11003KT 10SM CLR 09/M03 A3052 RMK AO2 SLP339 T00941028", "KTOP 091353Z 15009KT 10SM CLR 13/04 A3026 RMK AO2 SLP244 T01330044", "KTOR 091353Z AUTO 28005KT 10SM CLR 10/M02 A3019 RMK AO2 SLP198 T01001017", "KTPA 091353Z 04007G16KT 10SM FEW009 BKN013 BKN050 23/19 A3005 RMK AO2 SLP175 T02280194", "KTPF 091355Z AUTO 06010KT 10SM OVC012 23/20 A3005 RMK AO2", "KTPH 091356Z AUTO 36009KT 10SM CLR 03/M03 A3027 RMK AO2 SLP229 T00281033", "KTPL 091351Z AUTO 00000KT FEW017 OVC033 14/14 A3022 RMK AO2 SLP227 T01440144 PWINO RVRNO $", "KTQE 091354Z AUTO 15015KT 10SM CLR 12/M03 A3020 RMK AO2 SLP222 T01221028", "KTQH 091355Z AUTO 13006KT 10SM CLR 15/07 A3028 RMK AO2", "KTQK 091355Z AUTO 29004KT 10SM SCT120 12/M01 A3014 RMK AO2 T01231012", "KTQV 091355Z AUTO 05012G19KT 10SM CLR 07/M01 A3040 RMK A01", "KTRI 091353Z 08006KT 10SM CLR 09/M02 A3038 RMK AO2 SLP280 T00891022 $", "KTRK 091344Z AUTO 00000KT M1/4SM FZFG OVC002 M04/M04 A3029 RMK AO2 TSNO", "KTRL 091353Z AUTO 09005KT 10SM CLR 16/13 A3022 RMK AO2 SLP231 T01560128", "KTRM 091352Z AUTO 35006KT 8SM CLR 16/07 A3001 RMK AO2 SLP163 T01610067 $", "KTSP 091355Z AUTO 09003KT 8SM CLR 02/02 A3021 RMK AO2", "KTTA 091345Z AUTO 03012G17KT 10SM CLR 08/02 A3039 RMK AO2 T00810024", "KTTD 091353Z 10007KT 10SM -RA BKN050 OVC060 09/07 A3008 RMK AO2 SLP187 P0002 T00940067", "KTTF 091355Z AUTO 13004KT 10SM CLR 08/01 A3052 RMK AO2 T00790010", "KTTN 091353Z 04007KT 10SM CLR 09/M02 A3049 RMK AO2 SLP322 T00891022", "KTTS 091355Z AUTO 36016G22KT 10SM OVC014 20/18 A3004 RMK AO2 CIG 013 RWY15 CIG 012 RWY15/33 SLP177 T02040176 $", "KTUL 091353Z 15011KT 10SM FEW180 OVC250 14/09 A3025 RMK AO2 SLP240 T01440094", "KTUP 091353Z 08007KT 10SM OVC020 13/08 A3031 RMK AO2 SLP263 T01330083 $", "KTUS 091353Z 16008KT 10SM CLR 13/M06 A3013 RMK AO2 SLP173 T01281056", "KTVC 091353Z 18008KT 10SM CLR 07/01 A3044 RMK AO2 SLP312 T00720006", "KTVF 091356Z AUTO 20011KT 9SM CLR 00/M01 A3004 RMK AO2 SLP188 T00001011 FZRANO", "KTVI 091355Z AUTO 05011G16KT 10SM OVC008 09/08 A3022 RMK AO2", "KTVK 091355Z AUTO 15010KT 10SM CLR 11/M04 A3034 RMK AO2", "KTVL 091353Z AUTO 18003KT 10SM CLR M04/M04 A3028 RMK AO2 SLP253 T10391044", "KTVR 091353Z AUTO 05008KT 10SM OVC013 14/12 A3024 RMK AO2 SLP248 T01390117", "KTVY 091355Z AUTO 18005KT 10SM CLR 05/01 A3027 RMK AO2", "KTWF 091353Z VRB04KT 10SM CLR 05/M01 A3025 RMK AO2 SLP225 T00501011", "KTWM 091355Z AUTO 04003KT 10SM CLR 03/01 A3015 RMK AO2", "KTWT 091355Z AUTO 11007KT 10SM CLR 11/M01 A3041 RMK AO2", "KTXK 091353Z 06006KT 10SM FEW039 14/11 A3025 RMK AO2 SLP241 T01440106", "KTXW 091355Z AUTO 06006KT 10SM -RA SCT060 SCT070 OVC095 18/17 A3013 RMK AO2 LTG DSNT NE AND NW T01820170", "KTYL 091355Z AUTO 00000KT 10SM CLR 03/M04 A3027 RMK AO2", "KTYQ 091355Z AUTO 10005KT 7SM CLR 10/M02 A3048 RMK AO2 T01001020", "KTYR 091353Z 10008KT 10SM BKN007 16/13 A3022 RMK AO2 SLP228 T01560133", "KTYS 091353Z 05007KT 10SM FEW010 09/01 A3035 RMK A02 SLP276 CLDS OVR MTNS T00940011", "KTZR 091345Z 11009KT 10SM CLR 09/M04 A3050", "KU42 091355Z AUTO 00000KT 10SM CLR 08/01 A3028 RMK AO1 T00750012", "KU55 091355Z AUTO 14003KT 10SM CLR M01/M04 A3036 RMK A01", "KU64 091355Z AUTO 25008KT 10SM CLR 03/M06 A3031 RMK AO2 T00331055 $", "KU68 091355Z AUTO 06004KT 10SM CLR 05/M04 A3018 RMK AO2", "KU69 091355Z AUTO 29005KT 10SM FEW080 03/M03 A3031 RMK A01", "KUAO 091353Z 07004KT 10SM OVC055 09/08 A3006 RMK AO2 RAB02E53 SLP178 P0001 T00940083 $", "KUBE 091355Z AUTO 15007KT 10SM CLR 05/02 A3025 RMK AO2", "KUCP 091356Z AUTO VRB03KT 10SM CLR 07/M07 A3053 RMK AO2 SLP359 T00721067", "KUCY 091355Z AUTO 07006KT 10SM OVC029 12/08 A3034 RMK A01", "KUDG 091356Z AUTO 03014G19KT 10SM OVC014 09/07 A3034 RMK AO2 SLP274 T00890067", "KUES 091345Z 18005KT 10SM CLR 09/M01 A3044", "KUGN 091351Z 19005KT 10SM CLR 11/02 A3045 RMK AO2 SLP314 T01110017", "KUIL 091405Z AUTO 19011G26KT 150V220 6SM -RA BR BKN009 OVC013 09/09 A2988 RMK AO2 PK WND 16026/1357 RAB1357 CIG 006V010 P0000 T00940094 $", "KUIN 091354Z AUTO 16011KT 10SM CLR 12/M03 A3039 RMK AO2 SLP289 T01171028", "KUKF 091345Z AUTO 00000KT 10SM CLR 06/M01 A3047 RMK AO2", "KUKI 091356Z AUTO 00000KT 10SM CLR 06/03 A3019 RMK AO2 SLP220 T00560033", "KUKL 091355Z AUTO 16012KT 10SM CLR 13/03 A3026 RMK AO2 T01280029", "KUKT 091355Z AUTO 06005KT 10SM CLR 08/M02 A3050 RMK A01", "KULM 091355Z AUTO 18012KT 10SM CLR 09/M01 A3020 RMK AO2", "KULS 091350Z AUTO 32003KT 10SM CLR 12/05 A3012 RMK AO2", "KUMP 091355Z AUTO 10005KT 10SM CLR 12/00 A3049 RMK AO2 T01181004", "KUNI 091355Z AUTO 05008KT 10SM CLR 11/M05 A3048 RMK AO2 T01141048", "KUNO 091353Z AUTO 10008KT 10SM CLR 11/04 A3034 RMK AO2 SLP273 T01060044", "KUNU 091355Z AUTO 19010KT 10SM CLR 10/00 A3043 RMK AO2 T00960000", "KUNV 091353Z 05008KT 10SM CLR 05/M07 A3050", "KUOX 091355Z AUTO VRB05KT 10SM BKN016 BKN021 12/09 A3034 RMK AO2", "KUSE 091355Z AUTO 00000KT 10SM CLR 08/M02 A3051 RMK AO2", "KUTA 091355Z AUTO 12006KT 10SM OVC014 12/11 A3033 RMK AO2 T01240113 $", "KUTS 091353Z AUTO 00000KT 10SM OVC030 18/15 A3020 RMK AO2 SLP223 T01830150", "KUUU 091353Z AUTO 02007KT 10SM CLR 07/M07 A3054 RMK AO2 SLP341 T00671067", "KUUV 091355Z AUTO 13006KT 10SM CLR 10/M02 A3040 RMK AO2", "KUVA 091355Z AUTO 08006KT 1 1/2SM BR OVC002 14/14 A3022 RMK AO2 T01350135", "KUXL 091355Z AUTO 04004KT 10SM OVC014 17/14 A3019 RMK AO2 T01670143", "KUYF 091355Z AUTO 08007KT 10SM CLR 10/M06 A3049 RMK AO2", "KUZA 091354Z AUTO 03010G18KT 360V070 10SM CLR 08/M01 A3038 RMK AO2 SLP291 T00831006", "KVAD 091355Z AUTO 04012KT M M OVC007 09/07 A3019 RMK AO2 SLP226 T00920073 RVRNO $", "KVAF 091355Z AUTO 03011G17KT 10SM OVC028 23/15 A3013 RMK A01", "KVAY 091354Z AUTO VRB04KT 10SM CLR 09/00 A3050 RMK AO2 SLP327 T00940000", "KVBG 091400Z AUTO 02003KT 7/8SM R30/2600VP6000FT BR VV002 11/11 A3011 RMK AO2 VIS 1/4 RWY12 VIS 1/4 RWY12/30 CIG 001 RWY12 SLP200 TSNO $", "KVBT 091356Z AUTO 13008KT 10SM CLR 13/08 A3031 RMK AO2 SLP262 T01330078", "KVBW 091355Z AUTO 00000KT 10SM CLR 05/M03 A3047 RMK AO1 T00501028", "KVCB 091353Z AUTO 00000KT 10SM CLR 06/05 A3017 RMK AO2 SLP216 T00610050", "KVCT 091351Z 02004KT 6SM BR OVC033 16/16 A3018 RMK AO2 SLP219 T01610156", "KVCV 091355Z AUTO 15006KT 8SM CLR 07/02 A3019 RMK AO2", "KVDF 091355Z AUTO 03006KT 10SM OVC012 22/20 A3006 RMK AO2", "KVDI 091355Z AUTO 04009G15KT 10SM OVC008 08/07 A3026 RMK AO2", "KVEL 091353Z AUTO 00000KT 10SM CLR 02/M02 A3030 RMK AO2 SLP256 T00171022", "KVER 091355Z AUTO 13009KT 10SM CLR 11/01 A3035 RMK AO2 T01100014", "KVES 091350Z AUTO 11005KT 10SM CLR 09/M03 A3049 RMK AO2", "KVGC 091355Z AUTO 00000KT 10SM CLR 04/M08 A3053 RMK AO2", "KVGT 091353Z 28004KT 10SM CLR 14/M01 A3014 RMK AO2 SLP212 T01391006", "KVHN 091355Z AUTO 24007KT 10SM CLR 14/07 A3021 RMK AO2 T01420073", "KVIH 091353Z AUTO 11008KT 10SM CLR 10/00 A3036 RMK AO2 SLP280 T01000000", "KVIS 091356Z AUTO 00000KT 7SM CLR 09/09 A3017 RMK AO2 SLP223 T00940094", "KVJI 091355Z AUTO 11011KT 10SM CLR 07/M06 A3039 RMK AO2 T00701063", "KVKS 091355Z AUTO VRB04KT 3SM BR FEW007 BKN013 13/13 A3023 RMK A01", "KVKY 091355Z AUTO 07021KT 10SM OVC013 A3016 RMK A01", "KVLD 091353Z 03012KT 10SM OVC008 10/08 A3020 RMK AO1 SLP234 T01000083", "KVLL 091355Z AUTO 14003KT 10SM CLR 08/M06 A3055 RMK AO2 T00771057", "KVNC 091355Z AUTO 28006KT 4SM RA SCT012 SCT025 BKN048 22/22 A3004 RMK AO2 P0022", "KVNW 091355Z AUTO 00000KT 10SM CLR 08/00 A3052 RMK AO2", "KVNY 091351Z 00000KT 2 1/2SM BR OVC004 12/10 A3009 RMK AO2 SLP183 T01220100", "KVOA 091405Z AUTO 04021KT 8SM OVC009 16/15 A3014 RMK A01", "KVOK 091355Z AUTO 17007KT 10SM CLR 09/01 A3034 RMK AO2 SLP283 T00900009", "KVPC 091355Z AUTO 09010KT 10SM CLR 10/03 A3034 RMK AO2", "KVPS 091355Z AUTO 03007G16KT 10SM OVC010 11/08 A3019 RMK AO2 SLP230 T01050079 $", "KVPZ 091356Z AUTO 16006KT 10SM CLR 10/00 A3049 RMK AO2 SLP326 T01000000", "KVQQ 091350Z 36008G15KT 4SM -DZ OVC006 11/11 A3016", "KVRB 091353Z 36017G23KT 10SM FEW014 SCT021 BKN027 24/20 A3002 RMK AO2 SLP164 T02390200", "KVSF 091354Z AUTO 00000KT 10SM CLR 04/M08 A3055 RMK AO2 SLP354 T00391078", "KVTA 091354Z AUTO 05004KT 10SM CLR 09/M03 A3050 RMK AO2 SLP333 T00891033", "KVTI 091355Z AUTO 17010G15KT 10SM CLR 12/M01 A3035 RMK AO2 T01181007", "KVTN 091352Z AUTO 26008KT 10SM CLR 11/M01 A3013 RMK AO2 SLP201 T01111006", "KVUJ 091345Z AUTO 02014G18KT 10SM CLR 08/03 A3044 RMK AO2 T00800026", "KVUO 091353Z AUTO 12005KT 8SM -RA OVC047 09/07 A3009 RMK AO2 SLP188 P0003 T00890072", "KVVS 091355Z AUTO 01006KT 10SM CLR 06/M04 A3049 RMK AO2 T00611044", "KVVV 091355Z AUTO 12009KT 10SM SCT100 03/00 A3010 RMK AO2", "KVWU 091355Z AUTO 23010G14KT 10SM CLR 07/01 A3003 RMK AO2", "KVYS 091355Z AUTO 15008KT 10SM CLR 11/00 A3044 RMK AO2 T01100001", "KW22 091355Z AUTO 00000KT 10SM CLR 10/M07 A3045 RMK AO2", "KW29 091345Z AUTO 07004KT 10SM CLR 10/01 A3050 RMK AO2 T00970014", "KW40 091345Z AUTO 03012KT 10SM BKN015 OVC110 08/06 A3035 RMK AO2 T00830059", "KW43 091355Z AUTO 24003KT 10SM CLR 04/00 A3017 RMK AO2", "KW63 091355Z AUTO 04006G14KT 10SM CLR 08/00 A3043 RMK AO1", "KW75 091355Z AUTO 05012G19KT 10SM CLR 10/01 A3047 RMK AO1 T00950012", "KW78 091355Z AUTO 05008KT 350V080 10SM CLR 09/M01 A3045 RMK AO1 T00851011", "KW81 091355Z AUTO 04007KT 010V070 10SM CLR 08/M05 A3046 RMK AO1 T00811054", "KW99 091403Z AUTO 00000KT 10SM CLR 07/M01 A3049 RMK AO2", "KWAL 091354Z AUTO 06019G25KT 10SM CLR 11/02 A3046 RMK AO2 PK WND 05026/1333 SLP310 T01060022", "KWBF 091355Z AUTO VRB05KT 9SM FEW020 BKN038 BKN046 24/22 A3009 RMK A01", "KWDG 091355Z 15004KT 10SM SCT200 12/01 A3021", "KWDR 091355Z AUTO 00000KT 10SM SCT024 08/00 A3036 RMK AO2", "KWJF 091356Z 00000KT 10SM CLR 04/01 A3016 RMK AO2 SLP212 T00440006", "KWLD 091354Z AUTO 15007KT 10SM CLR 13/00 A3024 RMK AO2 SLP236 T01330000", "KWRB 091355Z AUTO 05008G15KT 10SM OVC010 08/07 A3029 RMK AO2 SLP261 T00790068", "KWRI 091355Z AUTO 04004KT 10SM CLR 11/M02 A3049 RMK AO2 SLP325 T01051016", "KWRL 091353Z AUTO 00000KT 10SM CLR 02/M01 A3019 RMK AO2 SLP235 T00221011", "KWST 091353Z AUTO VRB03KT 10SM CLR 08/M06 A3054 RMK AO2 SLP342 T00781061", "KWVI 091353Z AUTO 00000KT 10SM CLR 07/06 A3016 RMK AO2 SLP212 T00670061", "KWVL 091356Z AUTO 35004KT 10SM CLR 06/M11 A3048 RMK AO2 SLP354 T00561111", "KWWD 091356Z AUTO 07008KT 10SM CLR 10/M01 A3050 RMK AO2 SLP330 T01001011 $", "KWWR 091355Z AUTO 21010G15KT 10SM CLR 14/10 A3020 RMK AO2 LTG DSNT SW", "KX07 091355Z AUTO 04008KT 10SM OVC014 23/19 A3005 RMK A01", "KX26 091355Z AUTO 35015G20KT BKN014 BKN019 OVC025 23/20 A3003 RMK AO2 TSNO T02330202", "KX60 091355Z AUTO 04012G18KT 10SM OVC007 13/11 A3014 RMK AO2 T01250109", "KXBP 091355Z AUTO 00000KT 10SM CLR 13/13 A3024 RMK AO2 T01250125", "KXLL 091355Z AUTO 02008KT 10SM CLR 08/M05 A3052 RMK AO2", "KXMR 091355Z AUTO 01016G23KT 10SM FEW015 BKN023 OVC028 22/18 A3002 RMK AO2 SLP169 T02200180 $", "KXNA 091353Z 10006KT 10SM CLR 13/07 A3029 RMK AO2 SLP252 T01280072", "KXNO 091355Z AUTO 36010G19KT 10SM -DZ OVC012 07/07 A3032 RMK AO2 SLP272 P0000 T00730073 $", "KXNX 091355Z AUTO VRB04KT 10SM CLR 11/06 A3039 RMK A01", "KXSA 091355Z AUTO 05010KT 10SM CLR 10/M03 A3048 RMK AO2 T01031030", "KXVG 091353Z AUTO 20006KT 10SM CLR 07/M02 A3009 RMK AO2", "KXWA 091351Z AUTO 26012KT 10SM CLR 03/M01 A3001 RMK AO2 SLP192 T00281011 $", "KY19 091355Z AUTO 18011KT 10SM CLR 01/01 A3004 RMK AO2", "KY23 091355Z AUTO 15007KT 10SM CLR 06/02 A3027 RMK AO2 T00630018", "KY31 091355Z AUTO 00000KT 7SM OVC002 01/00 A3051 RMK AO2 T00080002", "KY49 091355Z AUTO 22009KT 10SM CLR 06/M01 A3007 RMK AO2 T00631012", "KY50 091356Z AUTO 17004KT 10SM CLR 07/02 A3040 RMK AO2 SLP297 T00720017 $", "KY51 091355Z AUTO 19008KT 10SM CLR 11/00 A3035 RMK AO1 T01050004", "KY63 091355Z AUTO 13004KT 10SM SCT070 SCT090 BKN110 03/00 A3013 RMK AO2 T00250001", "KY70 091355Z AUTO 14003KT 10SM CLR 07/M03 A3049 RMK AO2 T00701030", "KYIP 091353Z 13003KT 10SM CLR 07/M04 A3053 RMK AO2 SLP341 T00721039", "KYKM 091353Z AUTO 00000KT 10SM -RA BKN060 OVC070 08/06 A3008 RMK AO2 SLP190 P0002 T00780056", "KYKN 091356Z AUTO 15007KT 10SM BKN110 12/M04 A3014 RMK AO2 SLP218 T01221044", "KYNG 091351Z 08005KT 10SM CLR 08/M08 A3052 RMK AO2 SLP342 T00831078 $", "KZER 091355Z AUTO 09005KT 10SM CLR 07/M08 A3047 RMK AO2", "KZPH 091355Z AUTO 02008KT 10SM OVC008 19/18 A3008 RMK A02 T01950183", "KZZV 091353Z AUTO 07008KT 10SM CLR 10/M03 A3050 RMK AO2 SLP330 T01001033", "LATI 091350Z 33010KT 9999 OVC072 13/09 Q1016 NOSIG", "LBBG 091400Z AUTO 12012KT 9999 NSC 12/07 Q1020 NOSIG", "LBGO 091400Z AUTO 06012KT 030V090 9999 BKN091/// 18/01 Q1018 NOSIG", "LBIA 091400Z 10012KT 9999 FEW034 BKN200 15/01 Q1018", "LBPD 091400Z AUTO 10010KT 9999 FEW180/// 15/03 Q1018 NOSIG", "LBPG 091400Z 12012KT 9999 BKN100 15/00 Q1018", "LBPL 091400Z 02004KT 9999 SCT025 SCT100 BKN200 17/04 Q1019", "LBSF 091400Z 13006KT 080V200 9999 SCT053 OVC062 12/02 Q1018 NOSIG", "LBWN 091400Z 13014KT 9999 SCT035 12/04 Q1019 NOSIG", "LCEN 091350Z 02006KT 9999 FEW020 SCT025 BKN100 21/09 Q1013 NOSIG RMK RWY11 05006KT", "LCLK 091400Z 02019KT CAVOK 22/10 Q1011 NOSIG", "LCPH 091400Z 35002KT CAVOK 21/14 Q1011 NOSIG", "LCRA 091350Z 06017KT CAVOK 22/11 Q1011 NOSIG", "LDDU 091400Z 11006KT 080V140 9999 -RA FEW010 SCT057 10/08 Q1017 TEMPO TSRA FEW030CB BKN040", "LDLO 091400Z 03010KT 360V070 9999 FEW020 14/02 Q1019", "LDOS 091400Z 05008KT 9999 BKN033 11/04 Q1022", "LDPL 091400Z VRB07KT 9999 FEW045 SCT055 13/02 Q1020 NOSIG", "LDRI 091400Z 04014G25KT 330V070 9999 FEW036 13/M02 Q1020", "LDSP 091400Z 31012KT 9999 SCT060 SCT070 14/03 Q1018 TEMPO FEW040TCU", "LDZA 091400Z 04009KT 350V080 9999 FEW040 10/02 Q1023 NOSIG", "LDZD 091400Z 06008KT 010V110 9999 FEW050 15/01 Q1018 NOSIG", "LEAB 091400Z 34014KT 310V010 CAVOK 26/M05 Q1020 NOSIG", "LEAG 091400Z AUTO 13006KT 090V210 CAVOK 18/14 Q1021", "LEAL 091400Z 17007KT 110V230 CAVOK 21/12 Q1020 NOSIG", "LEAM 091400Z 19006KT 140V230 CAVOK 19/14 Q1021", "LEAO 091400Z 30006KT 260V360 CAVOK 27/M03 Q1020", "LEAS 091400Z 30006KT 240V010 9999 SCT007 SCT010 14/12 Q1021 NOSIG", "LEBA 091400Z 28004KT CAVOK 30/04 Q1019", "LEBB 091400Z 31012KT 280V340 CAVOK 21/10 Q1020 NOSIG", "LEBG 091400Z 28013KT 250V320 CAVOK 22/M02 Q1020", "LEBL 091400Z 22015KT CAVOK 17/09 Q1020 NOSIG", "LEBR 091400Z AUTO VRB05KT 9999 NCD 25/00 Q1018", "LEBT 091400Z AUTO 13011KT 100V160 CAVOK 20/11 Q1019", "LEBZ 091400Z 26005KT 230V330 CAVOK 29/05 Q1019", "LECH 091400Z AUTO 11012KT CAVOK 17/12 Q1020", "LECO 091400Z 32008KT 260V010 9999 SCT018 16/11 Q1021 NOSIG", "LECV 091400Z 04004KT 9999 FEW050 23/01 Q1021", "LEDA 091400Z 23006KT 170V280 CAVOK 22/00 Q1018", "LEGE 091400Z 15008KT 120V190 CAVOK 19/03 Q1019", "LEGR 091400Z 28008KT 240V340 9999 FEW070 29/M02 Q1020", "LEGT 091400Z 22007KT 160V280 CAVOK 28/01 Q1020", "LEHC 091400Z 26009KT 210V320 CAVOK 22/01 Q1019", "LEIB 091400Z 22010KT 180V260 CAVOK 19/12 Q1020 NOSIG", "LEJR 091400Z 20007KT 150V250 8000 NSC 28/12 Q1019", "LELC 091400Z 15012KT 110V190 CAVOK 22/14 Q1019 NOSIG", "LELL 091400Z 17008KT 140V210 CAVOK 20/01 Q1019", "LELN 091400Z 27014KT 230V310 CAVOK 22/M09 Q1020", "LELO 091400Z AUTO VRB02KT CAVOK 23/05 Q1018", "LEMD 091400Z 22008KT 190V270 CAVOK 27/01 Q1020 NOSIG", "LEMG 091400Z 12010KT 090V150 CAVOK 19/14 Q1021 NOSIG", "LEMH 091400Z 20008KT 160V250 CAVOK 16/10 Q1021", "LEMI 091400Z 15009KT 110V200 CAVOK 23/07 Q1019", "LEMO 091400Z 25005KT 200V340 CAVOK 29/05 Q1019 NOSIG", "LEPA 091400Z 23010KT 200V260 9999 FEW035 18/12 Q1020 NOSIG", "LEPP 091400Z 36001KT CAVOK 22/04 Q1019", "LERI 091400Z VRB03KT 9999 FEW060 28/07 Q1018 NOSIG", "LERS 091400Z 16008KT 110V240 9999 FEW020 19/12 Q1020", "LERT 091400Z 23008KT 180V260 CAVOK 22/13 Q1020 NOSIG", "LESA 091400Z 29010KT 230V330 CAVOK 25/02 Q1021", "LESB 091400Z AUTO 20010KT 170V230 CAVOK 18/09 Q1021", "LESO 091400Z 02004KT 350V060 CAVOK 20/09 Q1019", "LEST 091400Z 23007KT 190V300 CAVOK 20/06 Q1022 NOSIG", "LESU 091400Z 21008KT 180V250 9999 FEW080 21/02 Q1018", "LETL 091400Z AUTO 34014G24KT 300V020 CAVOK 24/M05 Q1020", "LETO 091400Z 19006KT 150V220 CAVOK 26/01 Q1019 NOSIG", "LETU 091400Z AUTO VRB02KT 9999 NCD 22/03 Q1019", "LEVC 091400Z 11009KT 070V160 9999 FEW050 20/11 Q1019 NOSIG", "LEVD 091400Z 24014KT 210V270 CAVOK 23/00 Q1021", "LEVS 091400Z 24008KT 170V290 CAVOK 25/00 Q1020", "LEVT 091400Z 06007KT 010V110 9999 FEW040 24/05 Q1019", "LEVX 091400Z 26012KT CAVOK 16/11 Q1022 NOSIG", "LEXJ 091400Z 29011KT 260V320 9999 FEW006 19/10 Q1020", "LEZG 091400Z 26002KT 9999 FEW050 24/02 Q1018", "LEZL 091400Z 25003KT CAVOK 29/06 Q1019 NOSIG", "LFAC 091400Z AUTO 32009KT 6000 FEW034 BKN044 13/09 Q1021", "LFAQ 091400Z AUTO 14007KT 9999 BKN044 15/07 Q1021 NOSIG", "LFAT 091400Z AUTO 33007KT 8000 FEW003 11/08 Q1021 TEMPO 4000 BR", "LFBA 091400Z AUTO VRB03KT CAVOK 22/04 Q1019 NOSIG", "LFBC 091400Z AUTO 23007KT 200V280 CAVOK 25/02 Q1018", "LFBD 091400Z AUTO 01003KT 310V080 CAVOK 23/M00 Q1019 NOSIG", "LFBE 091400Z AUTO VRB03KT CAVOK 22/07 Q1019 NOSIG", "LFBF 091400Z AUTO 04005KT 010V080 CAVOK 22/03 Q1019", "LFBG 091400Z AUTO VRB03KT CAVOK 23/04 Q1019", "LFBH 091400Z AUTO 19005KT 150V220 CAVOK 20/07 Q1019 NOSIG", "LFBI 091400Z AUTO VRB03KT CAVOK 20/03 Q1019 NOSIG", "LFBL 091400Z AUTO 24006KT 170V320 CAVOK 19/M03 Q1019 NOSIG", "LFBM 091400Z AUTO 05006KT 350V150 CAVOK 24/01 Q1018 NOSIG", "LFBO 091400Z AUTO 35003KT 290V070 CAVOK 22/05 Q1019 NOSIG", "LFBP 091400Z AUTO 35006KT 270V040 CAVOK 24/03 Q1018 NOSIG", "LFBT 091400Z AUTO 28010KT CAVOK 23/M05 Q1019 NOSIG", "LFBU 091400Z AUTO 29005KT 260V330 CAVOK 21/03 Q1019 NOSIG", "LFBX 091400Z AUTO 32003KT 230V020 CAVOK 23/02 Q1019", "LFBZ 091400Z AUTO 32008KT 290V350 CAVOK 23/M01 Q1019 NOSIG", "LFCK 091400Z AUTO 32006KT 280V360 CAVOK 21/00 Q1020 NOSIG", "LFCR 091400Z AUTO VRB03KT CAVOK 19/M05 Q1020 NOSIG", "LFGA 091400Z AUTO VRB04KT CAVOK 15/01 Q1022", "LFGJ 091400Z AUTO 33007KT 290V010 CAVOK 17/07 Q1020 NOSIG", "LFHP 091400Z AUTO VRB04KT CAVOK 15/00 Q1020", "LFJL 091400Z AUTO 09008KT 060V140 CAVOK 14/02 Q1022 NOSIG", "LFJR 091400Z AUTO VRB04KT CAVOK 20/05 Q1019", "LFKB 091400Z AUTO 08004KT 020V190 CAVOK 17/05 Q1019 NOSIG", "LFKC 091400Z AUTO 36008KT 320V030 9999 SCT045 16/10 Q1019 NOSIG", "LFKF 091400Z AUTO 05005KT 360V100 9999 BKN038 BKN044 BKN052 17/09 Q1020 TEMPO SHRA SCT030CB BECMG 23012KT", "LFKJ 091400Z AUTO 20011KT CAVOK 17/11 Q1020 TEMPO FEW035CB", "LFKS 091400Z AUTO 15008KT 120V180 CAVOK 16/06 Q1020", "LFLB 091400Z AUTO 34004KT 290V010 CAVOK 18/06 Q1019 NOSIG", "LFLC 091400Z AUTO 05006KT 360V100 CAVOK 18/02 Q1019 NOSIG", "LFLH 091400Z AUTO 07004KT 010V120 CAVOK 17/06 Q1021", "LFLL 091400Z 29007KT 230V330 CAVOK 17/03 Q1020 NOSIG", "LFLN 091400Z AUTO 03007KT CAVOK 17/04 Q1020 NOSIG", "LFLP 091400Z AUTO 27005KT 220V320 CAVOK 17/04 Q1019 NOSIG", "LFLS 091400Z AUTO VRB04KT CAVOK 17/03 Q1019 NOSIG", "LFLU 091400Z AUTO 01008KT 340V040 CAVOK 18/05 Q1019", "LFLV 091400Z AUTO 05005KT CAVOK 17/03 Q1020", "LFLW 091400Z AUTO 32005KT 230V010 CAVOK 19/M01 Q1020 NOSIG", "LFLX 091400Z AUTO 07003KT 030V110 CAVOK 19/07 Q1020 NOSIG", "LFLY 091400Z AUTO 30003KT 240V360 CAVOK 18/05 Q1020 NOSIG", "LFMC 091400Z AUTO 12008KT 040V180 9999 ////// 20/08 Q1018", "LFMD 091400Z AUTO 16007KT CAVOK 17/10 Q1019 TEMPO SHRA SCT060TCU", "LFMH 091400Z AUTO VRB04KT CAVOK 17/01 Q1020", "LFMI 091400Z AUTO 24005KT 190V320 CAVOK 22/05 Q1018 NOSIG", "LFMK 091400Z AUTO 29003KT 210V010 CAVOK 24/M01 Q1018 NOSIG", "LFML 091400Z AUTO 19009KT 160V220 CAVOK 19/06 Q1019 NOSIG", "LFMN 091400Z 16005KT 9999 FEW017 16/10 Q1020 NOSIG", "LFMO 091400Z AUTO VRB03KT CAVOK 22/05 Q1018 NOSIG", "LFMP 091400Z AUTO 10009KT CAVOK 18/06 Q1019 NOSIG", "LFMT 091400Z AUTO 21012KT CAVOK 19/06 Q1019 NOSIG", "LFMU 091400Z AUTO 17010KT 130V220 CAVOK 17/07 Q1019 NOSIG", "LFMV 091400Z AUTO 31004KT 270V050 CAVOK 21/03 Q1018 NOSIG", "LFMY 091400Z AUTO 21007KT 170V260 CAVOK 21/05 Q1018", "LFOA 091400Z AUTO 04003KT 350V120 CAVOK 18/05 Q1020 NOSIG", "LFOB 091400Z AUTO 17009KT 150V210 CAVOK 17/07 Q1021 NOSIG", "LFOE 091400Z AUTO 15006KT 110V200 CAVOK 17/04 Q1020 NOSIG", "LFOH 091400Z AUTO 14006KT 060V190 CAVOK 17/06 Q1020 NOSIG", "LFOJ 091400Z AUTO 11004KT 070V180 CAVOK 18/04 Q1020 NOSIG", "LFOK 091400Z AUTO VRB03KT 9999 FEW045 15/05 Q1022 NOSIG", "LFOP 091400Z AUTO 16007KT 110V230 CAVOK 16/06 Q1020 NOSIG", "LFOT 091400Z AUTO 16005KT 100V200 CAVOK 19/05 Q1020 NOSIG", "LFOV 091400Z AUTO 15007KT 100V200 CAVOK 18/06 Q1019", "LFOZ 091400Z AUTO VRB03KT CAVOK 18/05 Q1020", "LFPB 091400Z AUTO VRB04KT CAVOK 18/05 Q1021 NOSIG", "LFPG 091400Z 11007KT 070V160 CAVOK 17/05 Q1021 NOSIG", "LFPM 091400Z AUTO 07005KT 020V110 CAVOK 17/06 Q1021", "LFPN 091400Z AUTO 14006KT 080V200 CAVOK 17/05 Q1021 NOSIG", "LFPO 091400Z 10005KT 050V160 CAVOK 17/06 Q1021 NOSIG", "LFPT 091400Z AUTO 13006KT 090V160 CAVOK 18/05 Q1021", "LFPV 091400Z AUTO 18007KT 150V240 CAVOK 16/05 Q1021 NOSIG", "LFQA 091400Z AUTO 11003KT 060V140 CAVOK 16/04 Q1022", "LFQB 091400Z AUTO 05006KT 010V100 CAVOK 17/04 Q1021", "LFQG 091330Z AUTO 30004KT 230V360 CAVOK 18/06 Q1021", "LFQQ 091400Z AUTO 11004KT 060V170 9999 FEW041 BKN048 BKN054 16/07 Q1022 NOSIG", "LFRB 091400Z AUTO 19014KT CAVOK 16/09 Q1018 TEMPO BKN008", "LFRC 091400Z AUTO 11009KT CAVOK 14/07 Q1019 NOSIG", "LFRD 091400Z AUTO 17010KT 140V200 CAVOK 18/07 Q1018 NOSIG", "LFRG 091400Z AUTO 18009KT 120V230 CAVOK 18/08 Q1020 NOSIG", "LFRH 091400Z AUTO 17009KT CAVOK 15/09 Q1019 NOSIG", "LFRI 091400Z AUTO 18006KT 140V290 CAVOK 19/07 Q1019 NOSIG", "LFRJ 091400Z AUTO 19016KT CAVOK 17/06 Q1018", "LFRK 091400Z AUTO 16006KT 080V220 CAVOK 18/08 Q1019 NOSIG", "LFRL 091400Z AUTO 20012KT 170V230 CAVOK 15/09 Q1018", "LFRM 091400Z AUTO 16007KT 080V230 CAVOK 19/05 Q1020 NOSIG", "LFRN 091400Z AUTO 16011KT 120V190 CAVOK 19/07 Q1019 NOSIG", "LFRO 091400Z AUTO 20010KT 160V220 CAVOK 18/06 Q1018", "LFRQ 091400Z AUTO 18010KT CAVOK 14/10 Q1019 TEMPO BKN009", "LFRS 091400Z AUTO 17004KT 110V250 CAVOK 20/06 Q1019 NOSIG", "LFRT 091400Z AUTO 17009KT 140V230 CAVOK 18/05 Q1018", "LFRU 091400Z AUTO 20010KT 170V230 CAVOK 18/05 Q1017", "LFRV 091400Z AUTO 18006KT 140V240 CAVOK 17/07 Q1019", "LFRZ 091400Z AUTO 21009KT CAVOK 19/08 Q1019 NOSIG", "LFSB 091400Z AUTO VRB03KT 9999 FEW050 15/02 Q1021 NOSIG", "LFSD 091400Z AUTO 04004KT 330V090 CAVOK 16/05 Q1021", "LFSG 091400Z AUTO 04006KT 360V080 CAVOK 14/03 Q1021", "LFSI 091400Z AUTO VRB04KT CAVOK 17/03 Q1021", "LFSL 091400Z AUTO 06005KT 020V150 CAVOK 21/02 Q1019 NOSIG", "LFSM 091400Z AUTO 03011KT 360V060 CAVOK 14/03 Q1021", "LFSN 091400Z AUTO 08007KT 030V130 CAVOK 14/04 Q1022", "LFSO 091400Z AUTO 10009KT 050V150 CAVOK 14/02 Q1022", "LFST 091400Z AUTO 12007KT 070V160 9999 FEW060 15/02 Q1022 NOSIG", "LFSX 091400Z AUTO 18006KT 130V220 CAVOK 16/05 Q1021", "LFTH 091400Z AUTO 15006KT 090V200 CAVOK 16/11 Q1019 NOSIG", "LFTW 091400Z AUTO 34005KT 260V050 CAVOK 22/02 Q1018 TEMPO 20010KT", "LFVP 091400Z AUTO 28020KT 9999 FEW041 SCT049 02/M09 Q1021 TEMPO 4000 -SHSN BECMG 29022G32KT", "LFYR 091400Z AUTO 14005KT 080V170 CAVOK 19/04 Q1020", "LGAD 091350Z 30007KT 9999 SCT025 17/10 Q1015", "LGAL 091350Z 06013KT 9999 FEW020 17/06 Q1016", "LGAV 091350Z 08009KT 9999 SCT030 SCT070 17/07 Q1015 NOSIG", "LGBL 091350Z 10016KT 9999 FEW030 15/08 Q1016", "LGEL 091350Z 20008KT 9999 SCT025 18/06 Q1014", "LGHI 091350Z 02009KT 9999 FEW025 17/12 Q1013", "LGIO 091350Z AUTO 16008KT //// // ////// 13/01 Q1015 RE//", "LGIR 091350Z 34006KT 9999 SCT020 SCT080 17/12 Q1014 NOSIG", "LGKC 091350Z 06012KT 9999 FEW018 15/12 Q1016", "LGKF 091350Z 00000KT 9999 FEW018 SCT025 BKN070 15/07 Q1016", "LGKL 091350Z 15008KT 9999 FEW020 SCT030 17/09 Q1015", "LGKO 091350Z 35007KT 9999 FEW020 18/09 Q1013", "LGKP 091350Z 03006KT 9999 BKN016 20/07 Q1013", "LGKR 091350Z VRB02KT 9999 FEW018TCU BKN025 BKN080 14/10 Q1015 NOSIG", "LGKV 091350Z 11009KT 9999 FEW020 14/09 Q1017", "LGKZ 091350Z AUTO VRB02KT //// -RA ////// 10/04 Q1016 RE//", "LGLM 091350Z 04014KT 9999 FEW018 15/09 Q1016", "LGMK 091350Z 36013KT 9999 FEW018 16/10 Q1015", "LGMT 091350Z 34004KT 9999 FEW025 18/08 Q1015", "LGNX 091350Z /////KT 9999 FEW025 17/08 Q1015", "LGPA 091350Z 34009KT 9999 FEW025 18/07 Q1014", "LGPZ 091350Z 26008KT 9999 -RA SCT025 BKN080 15/08 Q1016 RMK BKN180 BLU", "LGRP 091350Z 29006KT 9999 FEW020 19/13 Q1012 NOSIG", "LGRX 091350Z 27004KT 9999 SCT025 18/09 Q1015 RMK SCT180 BLU", "LGSA 091350Z 05008KT 9999 FEW018 SCT025 15/11 Q1014", "LGSM 091350Z 14005KT 9999 FEW025 17/11 Q1014", "LGSO 091350Z AUTO 01014KT //// -RA ////// 16/10 Q1015 RE//", "LGSR 091350Z 36010KT 9999 FEW025 17/09 Q1014 RMK SCT080 BLU", "LGTS 091350Z 28006KT 240V330 9999 FEW040 16/06 Q1017 NOSIG", "LGZA 091350Z VRB03KT 9999 SCT025 SCT080 17/08 Q1016", "LHBP 091400Z 03003KT 320V070 9999 SCT035 BKN041 10/02 Q1023 NOSIG", "LHDC 091345Z AUTO 25004KT 190V290 CAVOK 13/04 Q1022 NOSIG", "LHKE 091345Z VRB02KT 9999 SCT040 10/03 Q1023 NOSIG RMK BLU", "LHPA 091345Z 04002KT 9999 SCT027 BKN053 08/02 Q1024 NOSIG RMK BLU", "LHPP 091345Z AUTO VRB03KT 9999 OVC024 08/03 Q1023", "LHPR 091345Z AUTO VRB03KT 9999 FEW026 BKN073 09/01 Q1024 NOSIG", "LHSM 091345Z AUTO 02004KT 340V070 CAVOK 08/02 Q1024 NOSIG", "LHSN 091345Z VRB02KT 9999 FEW033 BKN070 11/03 Q1023 NOSIG RMK BLU", "LIBA 091355Z 07011KT 9999 FEW030 BKN050 13/09 Q1017", "LIBC 091350Z 02007KT 360V060 9999 -RA SCT040 10/09 Q1016", "LIBD 091350Z 36005KT 310V020 9999 FEW015 SCT040 12/07 Q1017", "LIBF 091350Z 34006KT 9999 VCSH SCT025TCU 12/09 Q1017 RESHRA", "LIBG 091350Z 36010KT 9999 SCT025 13/06 Q1016", "LIBN 091355Z 33012KT 9999 FEW020TCU SCT025 12/10 Q1015", "LIBP 091350Z AUTO 35009KT 310V030 9999 SCT028/// BKN067/// 14/07 Q1020", "LIBQ 091355Z AUTO 25004KT 180V320 //// 03/01 Q1014", "LIBR 091350Z 34009KT 310V010 9999 FEW015TCU SCT030 12/08 Q1015", "LIBV 091355Z 02015KT 9999 BKN023 09/04 Q1015", "LIBY 091255Z ///08KT 9999 FEW020TCU SCT025 14/10 Q1014 RMK BKN QUK 2 QUL 1 S VIS MAR 20 KM VIS MIN 9999", "LICA 091350Z AUTO VRB01KT 9999 BKN063/// 13/08 Q1016", "LICB 091350Z AUTO 27017KT 9999 FEW057/// BKN084/// 17/09 Q1015", "LICC 091350Z 04014KT 9999 SCT070 17/07 Q1015", "LICD 091350Z AUTO 35014KT 9999 SCT044/// 17/09 Q1019", "LICF 091255Z 35007KT 9999 FEW020 SCT030 15/09 Q1016 RMK BKN QUK 2 QUL 0 VIS MAR 18 KM MON CIME INC NC VIS MIN 9999", "LICG 091350Z 33015KT 9999 FEW025 15/09 Q1020", "LICJ 091350Z 33010KT 9999 SCT025 15/09 Q1018", "LICR 091350Z AUTO 35007KT 310V010 9999 FEW045/// SCT074/// 15/09 Q1016", "LICT 091355Z 01014KT 9999 SCT025 16/11 Q1018", "LICZ 091355Z /////KT 9999 FEW025 BKN070 17/07 Q1013", "LIEA 091350Z 29007KT 240V340 9999 FEW020 18/10 Q1020", "LIEB 091255Z 05019KT 9999 SCT040 14/11 Q1018 RMK SCT QUK 3 QUL 1 NE VIS MAR 30 KM MON LIB VIS MIN 9999", "LIED 091355Z 32012KT 9999 FEW020 21/M01 Q1018", "LIEE 091350Z 36010KT 310V030 9999 FEW040 21/04 Q1019", "LIEO 091350Z 08011KT 040V110 9999 FEW040 18/08 Q1020", "LIMA 091350Z VRB03KT CAVOK 18/04 Q1018", "LIMC 091350Z 20006KT 100V260 9999 SCT050 17/04 Q1019 NOSIG", "LIME 091350Z 19005KT 140V250 9999 SCT040 16/04 Q1019 NOSIG", "LIMF 091350Z 08007KT 040V120 9999 SCT035 17/04 Q1018", "LIMG 091350Z 06011KT 030V090 CAVOK 18/06 Q1019", "LIMJ 091350Z 20004KT 9999 FEW018 15/10 Q1019", "LIMK 091355Z 00000KT 9999 SCT040 12/01 Q1017", "LIML 091350Z VRB04KT 9999 SCT030 18/03 Q1019 NOSIG", "LIMP 091350Z VRB04KT 9999 SCT040 17/05 Q1020", "LIMS 091355Z 08008KT 9999 BKN040 15/07 Q1018", "LIMU 091355Z 04005KT 9999 FEW025 16/09 Q1020", "LIMW 091350Z AUTO 10015KT 9999 NCD 18/02 Q1016", "LIMZ 091350Z AUTO VRB03KT 9999 NCD 18/02 Q1018", "LIPB 091350Z VRB04KT 9999 FEW070 19/M09 Q1017", "LIPC 091355Z 33003KT 9999 FEW035 14/05 Q1020", "LIPE 091350Z 08009KT 9999 FEW045 16/04 Q1020", "LIPF 091355Z 06004KT 9999 FEW070 17/03 Q1021", "LIPH 091350Z 15006KT 120V180 9999 FEW050 14/05 Q1021", "LIPI 091355Z 08013KT 9999 FEW040TCU SCT070 11/04 Q1021", "LIPK 091350Z 24006KT 9999 FEW015 13/07 Q1021", "LIPL 091355Z 12004KT 9999 BKN050 15/08 Q1019", "LIPO 091350Z AUTO 11008KT 060V160 9999 SCT046/// 16/05 Q1019", "LIPQ 091350Z AUTO 07006KT 330V120 9999 BKN063/// BKN100/// 14/M00 Q1021", "LIPR 091350Z 04006KT 340V080 CAVOK 13/07 Q1020", "LIPS 091355Z /////KT 9999 FEW025 SCT080 14/04 Q1021", "LIPU 091350Z 16006KT 130V220 9999 BKN025 14/03 Q1021", "LIPX 091350Z 10004KT 060V130 9999 SCT060 SCT090 15/04 Q1020", "LIPY 091350Z AUTO 36010KT 9999 NCD 12/05 Q1020", "LIPZ 091350Z 14007KT 9999 VCSH FEW015 SCT045 14/03 Q1021 NOSIG", "LIQC 091255Z 00000KT 9999 BKN030 15/07 Q1016 RMK BKN QUK 2 QUL 1 NE VIS MAR 20 KM VIS MIN 9999", "LIQN 091350Z 06012G22KT 9999 VCSH NSC 12/03 Q1018 RERA", "LIRA 091350Z 08008KT 040V110 9999 VCSH BKN040 16/04 Q1017", "LIRE 091355Z 28017KT 9999 FEW030 17/10 Q1017", "LIRF 091350Z 27015KT 9999 FEW050 16/10 Q1017 NOSIG", "LIRI 091350Z 07009KT 9999 BKN050 14/06 Q1017", "LIRK 091355Z AUTO /////KT //// ///// Q////", "LIRM 091355Z 06008KT 9999 SCT040 16/01 Q1017", "LIRN 091350Z 07009KT 030V110 9999 SCT045 16/05 Q1017 NOSIG", "LIRP 091345Z 29009KT 9999 FEW040 16/03 Q1019 NOSIG", "LIRQ 091350Z 36010KT 330V030 9999 SCT050 17/03 Q1019", "LIRS 091355Z 23012KT 9999 SCT060 17/09 Q1018", "LIRT 091355Z 04004KT 9999 OVC002 04/02 Q1016", "LIRU 091350Z 04012KT 9999 RA FEW025 16/07 Q1017", "LIRV 091355Z 02009KT 9999 SCT025 13/02 Q1018", "LIRX 091355Z 03002KT CAVOK 17/06 Q1018", "LIRZ 091350Z AUTO 05015KT 9999 FEW048/// 15/05 Q1018", "LIVC 091355Z AUTO 01010KT //// M01/M03 Q1018", "LIVD 091355Z AUTO 01008KT 310V120 //// 08/M10 Q1020", "LIVE 091355Z 02008G23KT CAVOK 09/M05 Q1018", "LIVF 091355Z 18002KT 9999 FEW015 SCT020 08/08 Q1017", "LIVM 091355Z AUTO /////KT //// ///// Q////", "LIVP 091355Z 01004KT 9999 FEW/// SCT010 00/M09 Q1017", "LIVR 091355Z 12010KT 9999 SCT015 SCT030 00/M03 Q1017", "LIVT 091355Z AUTO 07008KT //// 13/00 Q1021", "LJCE 091400Z 06007KT 030V100 9999 BKN035 10/01 Q1023 RMK BLU", "LJLJ 091400Z 09006KT 350V140 9999 -SHRA SCT025TCU BKN035 BKN060 07/03 Q1022 NOSIG", "LJMB 091400Z 35006KT 320V030 9999 FEW029 BKN042 08/01 Q1023", "LJPZ 091400Z 04011KT 010V100 CAVOK 16/M01 Q1020", "LKCV 091400Z 32006KT 8000 FEW018 OVC050 09/06 Q1025 NOSIG RMK BLU BLU", "LKKB 091300Z 16004KT 9999 -RA BKN030 OVC040 08/04 Q1025 NOSIG", "LKKU 091300Z VRB02KT 9999 FEW045 10/02 Q1024", "LKKV 091400Z 07007KT 030V100 CAVOK 10/M01 Q1024", "LKLN 091400Z AUTO 16003KT 120V200 9999 BKN073 10/03 Q1025", "LKMT 091400Z 35006KT 7000 SCT032 BKN037 09/06 Q1024 NOSIG", "LKNA 091400Z 36006KT 330V040 9999 -SHRA BKN025 07/03 Q1023 NOSIG RMK BLU BLU", "LKPD 091400Z 03006KT 350V060 9999 BKN036 OVC043 10/03 Q1025 RMK BLACK", "LKPR 091400Z 16004KT 9999 -RA FEW030 SCT045 08/04 Q1025 NOSIG", "LKTB 091400Z 14009KT 9999 VCSH FEW036 SCT044 10/02 Q1023 TEMPO SHRA", "LLBG 091350Z VRB03KT CAVOK 30/08 Q1008 NOSIG", "LLER 091350Z 16015KT CAVOK 33/09 Q1008", "LLHA 091350Z 27004KT 230V320 CAVOK 25/12 Q1008", "LLIB 091350Z AUTO VRB03KT CAVOK 31/11 Q1009", "LMML 091345Z 29016KT 9999 FEW022 17/09 Q1017 NOSIG RMK CB TOPS TO E", "LOAN 091300Z VRB02KT 9999 FEW020 SCT040 BKN060", "LOAV 091300Z 34004KT 8000 SCT015 BKN030 07/04", "LOWG 091350Z 01007KT 330V060 9999 BKN020 FEW030TCU 04/02 Q1024 RERA TEMPO SHRA", "LOWI 091350Z VRB05KT 9999 FEW060 SCT080 12/M01 Q1022 NOSIG", "LOWK 091350Z AUTO 11009KT 070V140 9999 SCT030 BKN055 08/03 Q1022 TEMPO SHRA", "LOWL 091350Z AUTO 23004KT 190V250 9999 FEW020 BKN024 08/04 Q1024 NOSIG", "LOWS 091350Z 20004KT 160V240 9999 FEW006 SCT014 BKN030 05/03 Q1025 NOSIG", "LOWW 091350Z VRB05KT 9999 4300E SHRA FEW024 SCT028 BKN042 06/02 Q1024 TEMPO -SHRA", "LOXZ 091350Z 10006KT 070V140 9999 FEW022 SCT038 BKN100 07/00 Q1022 NOSIG", "LPAZ 091400Z 22009KT 9999 FEW009 BKN012 17/14 Q1025", "LPBJ 091400Z 27005KT 210V310 CAVOK 27/06 Q1020", "LPCS 091400Z VRB05KT 9999 FEW018 24/14 Q1021", "LPFL 091400Z 34007KT 300V030 9999 FEW017 SCT036 20/14 Q1021", "LPFR 091400Z 22007KT 190V250 CAVOK 20/14 Q1020", "LPHR 091400Z 26012KT 9999 FEW008 SCT014 19/16 Q1023", "LPLA 091400Z /////KT 9999 SCT025 20/16 Q1023", "LPMA 091400Z 04013KT 360V060 9999 FEW016 20/11 Q1021", "LPMR 091300Z 34009KT 290V030 9999 FEW015 19/13 Q1022", "LPMT 091300Z 26004KT 220V300 CAVOK 24/07 Q1021", "LPOV 091300Z 31006KT CAVOK 18/14 Q1022", "LPPD 091400Z 25009KT 9999 FEW004 BKN007 BKN028 17/16 Q1024", "LPPR 091400Z 30006KT 270V330 CAVOK 18/14 Q1022", "LPPS 091400Z 06014KT 020V110 9999 FEW015 20/11 Q1021", "LPPT 091400Z 32007KT 280V360 CAVOK 25/13 Q1021", "LQBK 091400Z 01007KT 9999 FEW012 BKN015 OVC037 08/07 Q1022 NOSIG", "LQMO 091400Z 16015KT 130V190 9999 FEW050 16/02 Q1014", "LQSA 091400Z 34004KT 300V050 9999 BKN035 08/04 Q1019 NOSIG", "LQTZ 091400Z 02004KT 330V050 9000 SCT035 OVC045 09/04 Q1021", "LRAR 091400Z VRB01KT 9999 SCT034 12/05 Q1022", "LRBC 091400Z 03006KT 350V080 9999 SCT035 12/03 Q1021", "LRBM 091400Z 11003KT 050V170 9999 FEW055 13/02 Q1022", "LRBS 091400Z 08007KT 050V110 CAVOK 16/03 Q1021 NOSIG", "LRCK 091400Z 11006KT CAVOK 14/03 Q1020 NOSIG", "LRCL 091400Z 19003KT 100V250 9999 FEW058 13/01 Q1021", "LRCV 091400Z 06008KT 030V090 9999 -TSRA SCT033 SCT040CB 11/04 Q1019 RESHRA", "LRIA 091400Z 31007KT CAVOK 11/03 Q1022", "LROD 091400Z 29006KT 250V310 CAVOK 13/03 Q1022", "LROP 091400Z 13006KT CAVOK 15/03 Q1020 NOSIG", "LRSB 091400Z 08005KT 010V130 9999 SCT050CB SCT085 12/01 Q1020", "LRSM 091400Z AUTO 16004KT 9999 BKN090/// 14/01 Q1021", "LRSV 091400Z 00000KT CAVOK 14/03 Q1021", "LRTC 091400Z AUTO 01009KT 9999 SCT050/// 16/M00 Q1020", "LRTM 091400Z 07003KT 320V120 9999 FEW036 13/03 Q1021", "LRTR 091400Z 31004KT 9999 FEW028 11/05 Q1022", "LSGC 091350Z AUTO VRB03KT CAVOK 12/01 Q1020", "LSGG 091350Z 06007KT 9999 FEW040 14/03 Q1020 NOSIG", "LSGS 091350Z 26014KT 9999 FEW080 17/03 Q1018", "LSMA 091350Z AUTO 06011KT 020V100 9999NDV NCD 13/04 Q1021 RMK", "LSMD 091350Z AUTO 10006KT 360V150 9999NDV FEW043 12/02 Q1022 RM K", "LSME 091350Z AUTO VRB03KT 9999NDV FEW042 13/03 Q1022 RMK", "LSMM 091350Z AUTO 04015KT 360V080 9999NDV NCD 13/04 Q1020 RMK", "LSMP 091350Z AUTO VRB04KT 9999NDV NCD 13/03 Q1021 RMK", "LSZA 091350Z 19009KT 9999 FEW060 17/04 Q1018", "LSZB 091350Z 32007KT 280V360 CAVOK 14/03 Q1020", "LSZC 091350Z AUTO VRB04KT CAVOK 13/03 Q1021", "LSZG 091350Z 09008KT 050V120 9999 FEW040 13/03 Q1021", "LSZH 091350Z 03011KT 9999 FEW045 12/00 Q1022 NOSIG", "LSZL 091350Z AUTO 26006KT 220V320 9999NDV NCD 17/05 Q1018 RMK", "LSZR 091350Z AUTO 29005KT 240V340 CAVOK 11/03 Q1022", "LSZS 091350Z 34007KT 260V050 9999 FEW045 06/M11 Q1018 RMK Q TL170", "LTAC 091350Z 15006KT 130V190 9999 SCT040 BKN100 15/M00 Q1015 NOSIG RMK RWY21L 17007KT RWY03L 16006KT 140V210 RWY21R 18009KT", "LTAE 091350Z 16006KT 9999 SCT040 BKN110 15/03 Q1015 NOSIG RMK RWY21 20004KT 150V260", "LTAF 091350Z 05010KT 9999 SCT040 OVC100 21/10 Q1014 NOSIG RMK RWY23 07009KT 4CU040 8AC100", "LTAG 091350Z 06009KT 9999 SCT030 BKN070 21/09 Q1014 NOSIG RMK 4CU030 7AC070", "LTAI 091350Z 18009KT 140V200 9999 FEW030 BKN120 20/09 Q1013 NOSIG RMK RWY18C 17010KT RWY36R 17007KT RWY18L 18008KT", "LTAJ 091350Z 04009KT 9999 FEW040 BKN100 BKN200 16/06 Q1018 NOSIG RMK RWY10 04011KT", "LTAN 091350Z 11004KT 050V180 9999 SCT040 BKN100 18/04 Q1014 NOSIG", "LTAP 091350Z 02003KT 320V070 9999 FEW040 BKN080 16/05 Q1015 NOSIG RMK RWY23 05006KT 010V100", "LTAR 091350Z 17009KT 9999 -SHRA FEW023CB BKN030 BKN080 11/05 Q1018", "LTAS 091350Z 36012KT 320V040 9999 SCT015 SCT030 13/09 Q1018", "LTAT 091350Z VRB01KT 9999 BKN035 BKN100 14/05 Q1020 NOSIG RMK RWY03 01001KT", "LTAU 091350Z 01004KT 340V040 9999 SCT040 BKN080 18/04 Q1014 NOSIG RMK RWY07 33005KT 280V020", "LTAY 091350Z 10008KT 9999 SCT035 BKN090 14/06 Q1014 NOSIG", "LTAZ 091350Z VRB02KT 9999 FEW027CB BKN030 18/05 Q1015 RESHRA RMK RWY29 VRB02KT", "LTBA 091350Z 04022KT 9999 SCT030 13/06 Q1018 RMK RWY23 03019KT", "LTBD 091350Z 24005KT 200V260 9999 SCT040 BKN100 19/11 Q1013", "LTBF 091350Z 35008KT 9999 SCT020 SCT035 BKN090 13/08 Q1017 NOSIG", "LTBH 091350Z 09013KT CAVOK 16/08 Q1016", "LTBJ 091350Z 36011KT 9999 SCT035 BKN100 18/10 Q1013 NOSIG RMK RWY16 36012KT", "LTBQ 091350Z 02010KT 9999 SCT014 BKN026 12/07 Q1018 NOSIG", "LTBR 091350Z 34012KT 9999 FEW035 15/07 Q1015 NOSIG RMK RWY07 36011KT", "LTBS 091350Z 18007KT 150V230 9999 FEW030 SCT120 BKN180 19/13 Q1012 NOSIG RMK RWY19 20009KT 170V230 1CU030 3AC120 5CI180", "LTBU 091350Z 04017KT CAVOK 14/05 Q1018 RMK RWY22 /////KT", "LTBY 091350Z 09008KT 9999 BKN040 15/02 Q1014", "LTCA 091350Z 11007KT 9999 SCT035 BKN100 15/05 Q1020 NOSIG", "LTCB 091350Z 08004KT 9999 BKN090 11/08 Q1018 NOSIG", "LTCC 091350Z 13003KT 9999 SCT040 BKN100 15/10 Q1021 NOSIG RMK RWY16 10004KT 070V170 4CU040 6AC100", "LTCD 091350Z 10012KT 9999 SCT045 BKN090 15/02 Q1019 NOSIG", "LTCE 091350Z 24008KT 170V270 9999 SCT040 BKN080 09/M00 Q1021 NOSIG RMK RWY08R 25009KT RWY26R 25010KT RWY08L 25010KT 4CU040 7AC080", "LTCF 091350Z 20015KT 9999 FEW040 SCT100 10/M01 Q1021 NOSIG", "LTCG 091350Z 07006KT 040V100 CAVOK 12/10 Q1019 NOSIG RMK RWY29 09005KT", "LTCI 091350Z 02003KT 8000 -SHRA SCT030 BKN070 09/02 Q1026 NOSIG", "LTCJ 091350Z 08005KT 9999 -SHRA SCT035 BKN090 16/10 Q1020 NOSIG RMK RWY20 07006KT 050V110 3CU035 7AC090", "LTCK 091350Z 21008KT 9999 FEW040 BKN070 BKN180 12/04 Q1022", "LTCN 091350Z VRB02KT 9999 -SHRA SCT035 BKN100 14/09 Q1019", "LTCO 091350Z 22012KT 9999 SCT035 BKN070 10/01 Q1022", "LTCP 091350Z 01005KT 9999 -SHRA BKN030 BKN090 14/09 Q1021", "LTCR 091350Z 14003KT 9999 SCT040 BKN100 19/10 Q1019", "LTCS 091350Z 14007KT 9999 BKN040 BKN080 14/06 Q1020 RMK RWY22 11006KT 5CU040 7AC080", "LTCT 091350Z 13007KT 9999 FEW040 BKN080 16/M03 Q1021", "LTCV 091350Z 29008KT 9999 FEW040 SCT080 BKN180 19/08 Q1020", "LTCW 091350Z 07005KT 040V100 9999 SCT030 BKN080 11/01 Q1024", "LTDA 091350Z 04014KT 9999 SCT040 BKN100 20/08 Q1016 NOSIG", "LTFB 091350Z 23010KT 9999 BKN035 17/12 Q1013", "LTFC 091350Z 30004KT 260V340 9999 -SHRA SCT030 BKN080 15/08 Q1014 RMK RWY23 29005KT", "LTFD 091350Z 08016KT 9999 SCT035 SCT100 17/09 Q1015", "LTFE 091350Z 25010KT 9999 SCT035 BKN100 19/12 Q1013 NOSIG RMK RWY10 25010KT", "LTFG 091350Z 16003KT 100V200 9999 -SHRA SCT030 BKN080 18/12 Q1014 RESHRA", "LTFH 091350Z 11006KT 070V130 9999 FEW016 BKN100 14/08 Q1019 NOSIG", "LTFJ 091350Z 05019KT 9999 FEW018 SCT025 12/08 Q1018 NOSIG RMK RWY24 06014KT", "LTFM 091350Z 05018KT 9999 BKN008 10/07 Q1019 NOSIG RMK RWY17L 04016KT RWY34L 03016KT RWY16R 04016KT RWY36 04018G28KT RWY18 04016KT", "LTFO 091350Z 03010KT CAVOK 12/09 Q1018", "LUKK 091400Z 33006KT 200V010 9999 SCT048CB BKN056 12/05 Q1021 TEMPO SCT050CB", "LWOH 091400Z 25002KT 4500 -RA BR SCT010 OVC033 06/04 Q1016", "LWSK 091400Z 01006KT 9999 FEW010 SCT030 OVC060 11/07 Q1018 REDZ NOSIG", "LXGB 091350Z 09007KT CAVOK 19/14 Q1021 NOSIG RMK BLU BLU", "LYBE 091400Z 02008KT 340V060 9999 SCT030 12/05 Q1021 NOSIG", "LYBT 091400Z 02007KT 350V060 9999 SCT040 13/05 Q1021 NOSIG", "LYKV 091400Z 29004KT 240V330 9999 FEW033TCU BKN043 12/07 Q1020 NOSIG", "LYNI 091400Z 06005KT 360V120 9999 -RA FEW020 BKN040 10/07 Q1019 TEMPO 5000 SHRA SCT030TCU BKN040", "LYPG 091400Z 20005KT 150V240 9999 -RA FEW030 SCT050 BKN070 13/06 Q1017 NOSIG", "LYTV 091400Z 16004KT 120V200 9999 -RA FEW010 SCT040 OVC070 10/08 Q1018 NOSIG", "LYVR 091400Z AUTO 01005KT CAVOK 11/07 Q1022", "LZIB 091400Z 19003KT 150V260 9999 FEW024 09/04 Q1024 NOSIG", "LZKZ 091400Z 25003KT 200V290 CAVOK 11/00 Q1022 NOSIG", "LZPP 091400Z 25003KT 170V300 9999 SCT045 10/03 Q1023", "LZTT 091400Z 04006KT 9999 SCT036 BKN060 08/M00 Q1022 NOSIG", "LZZI 091400Z 26003KT 230V300 9999 BKN059 10/01 Q1023", "MBGT 091300Z 13008KT 9999 SCT015 26/20 Q1017", "MBPV 091300Z 20004KT 9999 SCT012 26/21 Q1015", "MDAB 091400Z 18006KT 9999 FEW018 26/22 Q1017", "MDBH 091400Z 11006KT 9999 FEW020 28/23 Q1017", "MDCY 091400Z 00000KT 9999 FEW020 25/22 Q1016", "MDJB 091400Z 00000KT 9999 SCT020 27/23 Q1017", "MDLR 091400Z 00000KT 9999 BKN020 28/24 Q1016", "MDPC 091400Z 12010KT 9999 FEW022 27/21 Q1018", "MDPP 091400Z 18005KT 9999 FEW018 27/21 Q1015", "MDSD 091400Z 12004KT SCT020 SCT080 27/23 Q1017", "MDST 091400Z 12004KT 100V170 9999 BKN020 28/21 Q1017", "MGCB 091400Z 00000KT 9999 SCT018 16/15 QFE 873.0", "MGES 091400Z 00000KT 8000 FEW018 21/15 QFE 911.1 HZ FEW090", "MGGT 091400Z 02016KT 9999 FEW016 18/13 Q1023 A3021", "MGHT 091400Z 00000KT CAVOK 14/08", "MGMM 091400Z 00000KT CAVOK 25/21 Q1018 A3006", "MGMT 091400Z 05012KT CAVOK 30/19 FEW200", "MGPB 091400Z 28006KT 9999 FEW020 FEW022CB 26/23 Q1015 A2997 CB N", "MGQZ 091400Z 00000KT CAVOK 12/08 QFE 774/5 FEW200", "MGRT 091400Z 00000KT CAVOK 26/18 Q1016 A3000 FEW200 VOL. STA. MARIA Y SANTIAGUITO EN ACTIVIDAD", "MGTU 091400Z 00000KT CAVOK 26/23", "MGZA 091400Z 00000KT 9999 FEW016 26/21 QFE 991/2", "MHCA 091300Z VRB02KT 9999 FEW028 25/19 Q1017", "MHCH 091400Z 04010KT 9999 BKN030 28/22", "MHGS 091400Z 36004KT 9999 FEW038 20/18", "MHLC 091400Z 00000KT 9999 FEW034 28/18 Q1015 A2997 NOSIG", "MHLE 091400Z 07004KT CAVOK 18/09", "MHLM 091400Z 24006KT 9999 FEW026 25/20 Q1016 A3000 NOSIG", "MHNO 091400Z 02004KT 9999 FEW040 23/15", "MHPL 091400Z 00000KT 9999 BKN024TCU 28/24 Q1014", "MHPR 091400Z 33010KT 8000 4000SW FU SCT046 23/17 Q1019 A3010 NOSIG", "MHRO 091400Z 10009KT 9999 FEW028 27/21 Q1016 A3000 NOSIG", "MHSR 091400Z 00000KT 9999 FEW025 19/16", "MHTE 091400Z VRB02KT 8000 FEW022 27/23 Q1012", "MHTG 091400Z 03005KT 010V070 8000 4000W -RA FU FEW008 BKN028 20/16 Q1020 A3012 NOSIG", "MHTR 091400Z 00000KT 9999 FEW025 27/21", "MHYR 091400Z 22004KT 9999 SCT020 22/21", "MKJP 091300Z 21006KT 9999 FEW022 27/21 Q1015", "MKJS 091400Z 27004KT 9999 FEW024 28/20 Q1015", "MMAA 091345Z 33005KT 7SM SKC 26/17 A2992 RMK HZY", "MMAN 091340Z 00000KT 1SM -DZ BR BKN003 OVC005 16/16 A3016 RMK 60025 8/6// TOPS071", "MMAS 091346Z 040056KT 9SM FEW200 13/01 A3030 RMK 8/008", "MMBT 091350Z 00000KT 7SM FEW020 28/21 A2997 RMK 8/100", "MMCB 091340Z 27003KT 6SM SCT070 BKN250 23/12 A3016 RMK 8/031 HZY", "MMCE 091341Z 00000KT 7SM SKC 26/23 A3002 RMK SC HZY", "MMCL 091341Z 00000KT 10SM SKC 16/10 A2996 RMK HZY", "MMCM 091353Z 00000KT 7SM SCT020 25/22 A3004 RMK 8/500", "MMCN 091343Z 05002KT 10SM SKC 12/M04 A2994 RMK FULYR NW", "MMCP 091340Z 00000KT 6SM SKC 25/19 A3004 RMK HZY", "MMCS 091346Z 00000KT 10SM FEW200 12/01 A3016 RMK 8/008", "MMCU 091340Z 19005KT 10SM SKC 12/M04 A3020", "MMCV 091340Z 31004KT 5SM BKN005 OVC010 17/17 A3016 RMK 8/5// BR LWR ST W", "MMCZ 091344Z 09007KT 8SM SCT015 28/22 A3003 RMK 8/500 CU", "MMDO 091346Z 00000KT 9SM SKC 09/M01 A3031 RMK ISOL CI HZY", "MMEP 091345Z 00000KT 12SM SCT250 11/09 A3009 RMK 8/001", "MMGM 091353Z 09006KT 10SM SKC 19/02 A2994 RMK RTS", "MMHO 091340Z 07002KT 10SM SKC 15/M02 A3002 RMK HZY", "MMIA 091309Z RTD 36010KT 6SM SKC 24/14 A3003 RMK RTS", "MMLM 091407Z RTD 00000KT 8SM SKC 15/09 A2998 RMK HZY RTS", "MMLO 091343Z 00000KT 10SM FEW220 16/08 A3034 RMK 8/001", "MMLP 091342Z 18005KT 10SM SKC 11/00 A3001 RMK HZY", "MMLT 091404Z RTD 00000KT 10SM SKC 21/M03 A2997 RMK RTS", "MMMA 091347Z 34006KT 9SM BKN025 OVC070 19/18 A3012 RMK 8/53/ HZY", "MMMD 091340Z 14008KT 7SM SKC 26/21 A3005 RMK HZY", "MMML 091344Z 33003KT 10SM SKC 15/03 A3002 RMK ISOL-CI", "MMMM 091401Z 00000KT 8SM SKC 16/05 A3029 RMK HZY CI", "MMMT 091340Z 00000KT 3SM BCFG BR SCT040 SCT070 20/20 A3002 RMK 8/140 VRB CONDS LWR VSBY S SE", "MMMV 091342Z 00000KT 8SM BKN050 OVC060 16/15 A3012 RMK 8/5// HZY RTS", "MMMX 091342Z 06007KT 7SM FEW220 14/11 A3036 NOSIG RMK 8/002 HZY ISOL AC", "MMMY 091340Z 00000KT 1SM DZ BR BKN003 OVC005 16/16 A3014 RMK 60015 8/6//", "MMMZ 091342Z 00000KT 12SM SKC 14/08 A2996 RMK ISOL CI", "MMNL 091340Z 13005KT 7SM OVC015 19/18 A3017 RMK 8/5// HZY", "MMOX 091341Z 31002KT 5SM SCT025 18/11 A3028 RMK 8/500 HZY", "MMPA 091352Z 00000KT 4SM BKN010 OVC018 20/19 A3007 RMK 8/8// HZY", "MMPB 091346Z 29003KT 6SM FEW220 14/10 A3037 RMK 8/002 HZY", "MMPG 091340Z 05008KT 3SM BR OVC050 16/15 A3017 RMK 8/6//", "MMPN 091340Z 00000KT 8SM SKC 15/09 A3023 RMK HZY CI", "MMPQ 091344Z 00000KT 5SM FEW030 23/22 A2992 RMK 8/100 LWR VSBY 2 Y 3ER QDT BCFG", "MMPR 091345Z 00000KT 15SM BKN240 19/16 A2994 RMK 8/008 RTS", "MMPS 091345Z 08007KT 12SM SKC 27/25 A2994 RMK HZY", "MMQT 091342Z 08002KT 5SM SKC 14/12 A3036 RMK HZY", "MMRX 091344Z 03003KT 5SM SCT009 OVC050 18/16 A3014 RMK 8/5// HZ OCNL DROPS", "MMSD 091340Z 01004KT 10SM SKC 15/M01 A3001", "MMSL 091255Z 31007KT 10SM SKC 18/03 A3001 RMK RTS", "MMSM 091346Z 07002KT 6SM FEW025 SCT200 12/09 A3034 RMK 8/502 HZY AC", "MMSP 091340Z 00000KT 7SM FEW010 OVC020 12/10 A3030 RMK 8/5// BINOVC", "MMTC 091340Z 00000KT 10SM SKC 19/10 A3016", "MMTG 091343Z 30012KT 7SM SKC 24/17 A3006 RMK HZY", "MMTJ 091345Z 36004KT 2 1/2SM BR OVC007 12/12 A3012 RMK 8/6//", "MMTM 091400Z RTD 00000KT 4SM SCT005 OVC010 20/19 A3010 RMK 8/7// BR", "MMTO 091342Z 00000KT 6SM SKC 11/07 A3042 RMK HZY ISOL CS", "MMTP 091340Z 00000KT 6SM FEW200 26/25 A2992 RMK 8/001 HZY", "MMUN 091349Z 04002KT 7SM FEW015 27/20 A3004 RMK 8/100", "MMVA 091345Z 28005KT 4SM SKC 25/23 A3004 RMK HZY", "MMVR 091355Z 34007KT 7SM FEW018 SCT030 25/20 A3007 RMK 8/800 HZY MSGTX MMMX", "MMZC 091340Z E00000KT 10SM SKC 12/00 A3030", "MMZH 091344Z 00000KT 7SM SKC 24/20 A2993 RMK HZY CI", "MMZO 091340Z 03008KT 10SM SCT210 21/16 A2991 RMK 8/006", "MNBL 091400Z 08004KT 9999 FEW019 28/24 Q1014", "MNCH 091400Z 00000KT 9999 FEW025 27/23 Q1013", "MNJG 091400Z 00000KT 9999 FEW020 20/15 Q1015", "MNJU 091400Z 09006KT 9999 SCT020 27/22 Q1013", "MNMG 091400Z 08010KT 9999 FEW022 27/20 Q1013 A2994 NOSIG", "MNPC 091400Z 05004KT 6000 VCRA SCT016TCU 28/25 Q1013 REDZ TCURA/SE/SW", "MNRS 091400Z 36006KT 9999 FEW014 28/22 Q1013", "MPDA 091400Z 07004KT 9999 FEW020 29/21 Q1011", "MPMG 091400Z 35012KT 9000 FEW020 29/22 Q1012 NOSIG", "MPPA 091400Z 35009KT 9000 FEW020 29/23 Q1012", "MPSM 091400Z 17007KT 9999 FEW020 29/20 Q1012", "MPTO 091400Z 26003KT 9000 FEW018 30/21 Q1012 NOSIG", "MRLB 091400Z 35005KT CAVOK 28/21 A2987", "MRLM 091400Z 27008KT 9999 FEW015 BKN100 24/22 A2997", "MROC 091400Z 11016G26KT 080V140 9999 FEW030 SCT220 24/16 A3003 NOSIG", "MRPV 091400Z 12013KT 9999 FEW035 BKN200 22/15 A3009 NOSIG", "MSAC 091350Z 10005KT 9999 FEW030 30/15 Q1010 A2984", "MSLP 091350Z 04010KT 9999 FEW078 30/17 Q1012 A2991 NOSIG", "MSSA 091350Z 01002KT CAVOK 25/14 Q1019 A3012", "MSSM 091350Z 00000KT CAVOK 27/22 Q1012 A2990", "MSSS 091350Z 33006KT CAVOK 23/16 Q1017 A3004", "MTPP 091400Z 11011KT 9999 FEW024 28/20 Q1016 A3000", "MUCC 091350Z 19004KT 140V310 9000 FEW020 28/19 Q1015", "MUCF 091350Z 21004KT 160V270 9999 FEW025 27/20 Q1016", "MUCL 091350Z 22004KT 180V310 9000 FEW020 28/21 Q1016", "MUCM 091350Z VRB04KT 9000 FEW022 27/19 Q1016", "MUCU 091350Z 21005KT 180V250 9000 SCT020 SCT050 27/20 Q1016", "MUGM 091351Z VRB03KT 10SM SCT030 SCT050 27/23 A3002 RMK AO2 SLP166 T02720228 $", "MUHA 091350Z VRB02KT 9000 FEW030 27/20 Q1017", "MUHG 091350Z 23004KT 190V300 9000 FEW020 26/21 Q1016", "MUSC 091350Z 15006KT 110V200 9000 NSC 27/18 Q1016", "MUVR 091350Z VRB01KT 9000 FEW025 27/20 Q1017", "MWCB 091400Z 03004KT 9999 FEW022 28/21 Q1016", "MWCR 091400Z 06004KT 9999 FEW018 28/21 Q1016", "MYEM 091400Z AUTO 21005KT 180V240 //// R33///// // SCT018 26/21 Q1015 A2999", "MYGF 091400Z 28003KT 240V310 9999 -SHRA FEW020TCU SCT040 SCT120 24/22 A3000 RAB09", "MYNN 091400Z 24007KT 200V280 9999 SCT020 SCT040 27/22 A3001", "MYSM 091400Z AUTO 22005KT 180V240 9999 SCT026/// 25/21 A3000", "MZBZ 091400Z 31003KT 9999 BKN024 26/22 A3002 Q1016 NOSIG", "NCAI 091400Z AUTO 15008KT //// ////// 28/23 Q1012", "NCAT 091400Z AUTO 15001KT //// ////// ///// Q////", "NCMG 091400Z AUTO 08002KT //// ////// ///// Q////", "NCMH 091400Z AUTO 11004KT //// ////// ///// Q1006", "NCMK 091400Z AUTO NIL", "NCMR 091400Z AUTO 08002KT //// ////// ///// Q1012", "NCNS 091400Z AUTO 08002KT //// ////// 28/25 Q1008", "NCPK 091400Z AUTO NIL", "NCPL 091400Z AUTO 07004KT //// ////// 28/24 Q1012", "NCPY 091400Z AUTO 10004KT //// ////// 29/24 Q1007", "NCRG 091400Z AUTO 13004KT 080V170 9999 FEW024/// OVC100/// 25/23 Q1013", "NCRK 091400Z AUTO 08004KT //// ////// 27/24 Q1006", "NCSW 091400Z AUTO 08002KT //// ////// 29/25 Q1008", "NFFN 091400Z 00000KT 9999 FEW030 25/23 Q1013 NOSIG", "NFNA 091400Z 00000KT 9999 FEW018TCU 24/24 Q1013", "NFTF 091400Z 10004KT 9999 FEW015 24/23 Q1015 RMK GRASS DEW", "NFTV 091400Z 09006KT 9999 FEW017TCU 27/24 Q1013", "NGFU 091400Z 12016KT 9999 VCSH FEW016CB FEW018TCU BKN110 28/27 Q1008", "NGTA 091400Z 02003KT 9999 FEW019 SCT100 BKN300 27/25 Q1008", "NIUE 091400Z AUTO 09006KT 26/24 Q1013", "NLWW 091400Z AUTO 12009KT 090V150 9999 SCT020/// SCT026/// 29/26 Q1009 TEMPO 2000 SHRA BKN012 FEW020CB", "NSFA 091400Z 17003KT 9999 FEW022 24/23 Q1010", "NSTU 091355Z 12016KT 10SM SCT019 29/27 A2981 RMK SLP095 T02870268", "NTAA 091400Z 13003KT 090V170 9999 FEW021 BKN250 26/23 Q1009 NOSIG", "NWWW 091400Z AUTO VRB02KT CAVOK 21/20 Q1011 NOSIG", "NZAA 091400Z AUTO 35007KT 9999 NCD 18/17 Q1002", "NZCH 091400Z AUTO 05015KT 9999 OVC007/// 15/14 Q0996", "NZCM 091355Z AUTO 00000KT 9999 OVC070 M22/M32 A2941 RMK AO2 SLP965 T12221317", "NZWN 091400Z AUTO 02004KT 9999 BKN060/// OVC080/// 16/14 Q1000", "OBBI 091400Z 35011KT CAVOK 28/09 Q1013 NOSIG", "OEAB 091400Z 19006KT 9999 FEW020 22/08 Q1023 NOSIG", "OEAH 091300Z 36012KT CAVOK 35/M06 Q1014 NOSIG", "OEAO 091300Z 16010KT 9999 FEW040 34/04 Q1012 NOSIG", "OEBA 091300Z 19008KT 8000 SCT030 29/06 Q1019 NOSIG", "OEBH 091300Z 12012KT 9000 NSC 30/10 Q1015 NOSIG", "OEDF 091400Z 36016KT CAVOK 32/M03 Q1013 NOSIG", "OEDM 091300Z 11010KT 9999 FEW040 30/00 Q1017", "OEDR 091400Z 36018KT CAVOK 31/M04 Q1012", "OEGN 091300Z 20012KT 9000 FEW030 32/25 Q1009 NOSIG", "OEGS 091300Z 09009KT CAVOK 32/12 Q1016", "OEGT 091300Z 19008KT CAVOK 34/M07 Q1010 NOSIG", "OEHL 091300Z 12010KT CAVOK 30/02 Q1018", "OEJB 091300Z AUTO 01016KT CAVOK 32/00 Q1014 NOSIG", "OEJN 091400Z 23008KT 8000 BKN040 34/18 Q1007 NOSIG", "OEKJ 091300Z 35004KT CAVOK 33/M05 Q1018", "OEKM 091300Z 21010KT 9999 FEW022 24/03 Q1023 NOSIG", "OEMA 091400Z 16016KT 9999 FEW035 BKN045 32/04 Q1014 NOSIG", "OEMN 091300Z 18004KT 8000 SCT040 37/14 Q1009", "OENG 091300Z 12010KT CAVOK 28/02 Q1019 NOSIG", "OEPA 091300Z 15006KT CAVOK 35/10 Q1016 NOSIG", "OEPS 091355Z 05008KT 9999 CLR 32/M07 A3007 RMK AO2A SLP168 WND DATA ESTMD T03201073", "OERF 091300Z 16014KT CAVOK 33/M05 Q1015 NOSIG", "OERK 091400Z 04006KT CAVOK 31/M02 Q1017 NOSIG", "OERR 091300Z 18014KT CAVOK 34/M05 Q1014 NOSIG", "OESH 091300Z 08011KT 8000 NSC 32/12 Q1015 NOSIG", "OESK 091300Z 18015KT CAVOK 33/M01 Q1017 NOSIG", "OETB 091300Z 31003KT 9999 FEW040 33/M03 Q1012 NOSIG", "OETF 091300Z 25012KT 9999 BKN030 28/09 Q1019 TEMPOTS", "OETR 091300Z 19014KT CAVOK 31/M05 Q1014 NOSIG", "OEWD 091300Z 14018KT CAVOK 31/07 Q1015", "OEWJ 091300Z 24011KT 9999 FEW040 30/18 Q1008 NOSIG", "OEYN 091300Z 17010KT 9999 SCT040 37/14 Q1005 NOSIG", "OIAA 091400Z 35014KT CAVOK 35/02 Q1014", "OIAG 091400Z 33016KT CAVOK 35/04 Q1012", "OIAH 091400Z 30006KT CAVOK 29/01 Q1017", "OIAI 091400Z 32004KT CAVOK 30/M06 Q1014", "OIAM 091400Z 30012KT CAVOK 34/08 Q1012", "OIAW 091400Z 33006KT CAVOK 33/07 Q1013", "OIBA 091400Z 30006KT 5000 HZ NSC 26/22 Q1012", "OIBB 091400Z 19010KT CAVOK 26/17 Q1012 A2989 NOSIG", "OIBH 091400Z 30012KT CAVOK 35/13 Q1011 A2986", "OIBK 091400Z 30008KT 7000 NSC 26/19 Q1013", "OIBL 091400Z 25008KT 6000 NSC 27/19 Q1012", "OIBP 091400Z 19004KT CAVOK 31/16 Q1012 A2990", "OIBQ 091400Z 30010KT CAVOK 27/16 Q1011 A2988", "OIBS 091400Z 22006KT 4000 BR NSC 24/21 Q1013", "OIBV 091400Z 33004KT 5000 HZ NSC 25/21 Q1013", "OICC 091400Z 32008KT 9999 FEW050 OVC120 22/M04 Q1022 A3021", "OICI 091400Z 19004KT CAVOK 22/02 Q1024 A3025", "OICJ 091400Z 34008KT 8000 NSC 21/M02 Q1023", "OICK 091400Z 29006KT 8000 NSC 20/08 Q1021 A3017", "OICM 091400Z 08002KT CAVOK 31/12 Q1012", "OICS 091400Z 19008KT 9000 FEW047 SCT100 22/M04 Q1022 A3018", "OIFK 091400Z 01006KT 9999 SCT040 BKN100 27/M06 Q1018 A3009", "OIFM 091400Z 31010KT 9999 FEW040 BKN200 23/M05 Q1024 A3024", "OIFS 091400Z 07002KT 9999 SCT040 SCT190 19/M08 Q1026", "OIGG 091400Z 02006KT 9999 SCT090 BKN160 16/10 Q1022", "OIGK 091350Z 24002G17KT 9999 SCT035 BKN070 14/M03 Q1022", "OIHH 091400Z 28010KT 9999 FEW040 OVC190 18/M05 Q1024 A3024", "OIHM 091400Z 29012KT 9999 FEW040 OVC180 18/M05 Q1024", "OIIE 091400Z 32014KT 9999 SCT090 BKN200 25/M04 Q1018", "OIII 091400Z 25014KT 9999 FEW040 BKN190 23/M05 Q1019 A3010 NOSIG", "OIIK 091400Z 28004KT 9999 FEW040 OVC120 21/03 Q1020", "OIIP 091400Z 30008KT 7000 SCT035 BKN100 22/M02 Q1019 A3009", "OIKB 091400Z 23010KT 9999 SCT100 29/04 Q1012 A2988 NOSIG", "OIKK 091400Z 35008KT 9999 FEW045 BKN200 23/M04 Q1022 A3019", "OIKO 091400Z 22004KT CAVOK 31/07 Q1012", "OIKQ 091400Z 24012KT 7000 NSC 27/21 Q1012 NOSIG", "OIMB 091400Z 35008KT 9999 FEW040 SCT100 BKN180 23/M11 Q1020 A3014", "OIMC 091350Z 34028KT 5000 SA NSC 26/04 Q1015", "OIMD 091400Z 33008KT 9999 SCT030 OVC170 25/M03 Q1015", "OIMJ 091400Z 07018KT 9999 FEW035 BKN190 19/M00 Q1019", "OIMM 091400Z 31012KT 9999 FEW035 BKN200 23/06 Q1017 A3004", "OIMN 091400Z 31012KT 9999 FEW035 BKN200 13/05 Q1022", "OIMQ 091400Z 25014KT 9999 FEW040 BKN190 23/M02 Q1019", "OIMS 091400Z 27006KT CAVOK 24/03 Q1019", "OINB 091400Z 05004KT CAVOK 16/12 Q1022", "OINE 091400Z 17004KT 9999 SCT040 BKN100 19/09 Q1022", "OING 091400Z 27006KT 8000 FEW035 BKN100 17/12 Q1024 NOSIG", "OINK 091400Z 25004KT 9999 SCT025 BKN100 19/08 Q1020 A3012", "OINN 091400Z 10006KT 9999 FEW025 BKN180 15/11 Q1022", "OINR 091400Z 09004KT 9999 FEW033 BKN180 15/11 Q1022", "OINZ 091400Z 34008KT CAVOK 16/10 Q1022", "OISA 091400Z 36008KT CAVOK 19/M07 Q1025 A3028", "OISF 091400Z 00000KT 9999 SCT040 27/00 Q1020 A3012", "OISL 091400Z 00000KT 9999 FEW040 30/07 Q1014 A2994 NOSIG", "OISR 091400Z 18006KT CAVOK 32/11 Q1014 A2997 NOSIG", "OISS 091400Z 00000KT 9999 FEW040 SCT200 25/M02 Q1021 A3016", "OISY 091400Z 30008KT 9999 FEW040 BKN186 20/M06 Q1026", "OITK 091400Z 03004KT 9999 FEW033CB SCT040 BKN090 16/01 Q1021 A3016 RESHRA", "OITL 091400Z 07017KT 9999 FEW008 FEW045TCU SCT090 BKN180 10/04 Q1020 NOSIG", "OITM 091400Z 29006KT 9999 OVC090 18/M00 Q1021", "OITP 091400Z 12012KT 9999 FEW035 SCT180 20/04 Q1020", "OITR 091400Z 03004KT 9999 FEW035CB SCT040 BKN100 16/02 Q1020 A3014", "OITT 091400Z 26017KT 9999 SCT030CB SCT035 17/01 Q1022 A3018", "OITZ 091400Z 27010KT 8000 FEW035 BKN180 17/M02 Q1022 A3019", "OIYY 091400Z 35010KT 8000 NSC 25/M04 Q1022 NOSIG", "OIZB 091400Z 23004KT 9999 FEW040 33/02 Q1014", "OIZC 091400Z 24010KT 9999 SCT035 BKN100 28/18 Q1011 A2988", "OIZH 091400Z 15016KT 9999 FEW035CB FEW040TCU 24/01 Q1021 A3016 NOSIG", "OIZI 091400Z 36004KT 9999 SCT040 32/03 Q1014", "OIZJ 091400Z 25004KT 7000 NSC 26/23 Q1012", "OJAI 091400Z 25014KT 4000 BLDU NSC 30/M02 Q1014 NOSIG", "OJAM 091400Z 25008KT 5000 HZ NSC 28/04 Q1013 NOSIG", "OJAQ 091300Z 19014KT 6000 NSC 35/00 Q1009 NOSIG", "OKAS 091355Z AUTO 03007KT 9999 CLR 35/M03 A2996 RMK AO2 SLP142 T03451030 FZRANO $", "OKKK 091400Z 03010KT CAVOK 35/01 Q1014 NOSIG", "OLBA 091400Z 05009KT 020V090 8000 NSC 27/11 Q1011 NOSIG", "OMAA 091300Z 31012KT CAVOK 29/12 Q1013 NOSIG", "OMAD 091400Z 34007KT 320V020 CAVOK 28/16 Q1013 NOSIG", "OMAL 091400Z 32017KT 8000 FEW045 31/13 Q1014 TEMPO VRB15G25KT 4000 BLDU RMK DIST TCU TO NE", "OMDB 091400Z 32010KT CAVOK 27/17 Q1013 NOSIG", "OMDW 091400Z 30011KT CAVOK 27/13 Q1014 NOSIG", "OMFJ 091400Z 10005KT 7000 FEW025 26/16 Q1013 A2993", "OMRK 091400Z 33006KT 9999 FEW035 29/11 Q1013 A2993", "OMSJ 091400Z 29007KT CAVOK 26/18 Q1014 NOSIG", "OOAD 091350Z AUTO 25012KT //// R31///// // NCD 32/08 Q1014 NOSIG", "OODQ 091350Z AUTO 29006KT CAVOK ////// 25/21 Q1014 NOSIG", "OOKB 091350Z 36014KT CAVOK 29/13 Q1012 NOSIG", "OOMS 091350Z 04008KT 9999 SCT020 27/24 Q1013 NOSIG", "OOSA 091350Z 19008KT 9999 FEW025 29/23 Q1013 NOSIG", "OPFA 091355Z 00000KT 5000 HZ FEW100 30/11 Q1013 NOSIG", "OPIS 091400Z 00000KT 8000 SCT040 SCT100 24/11 Q1014 NOSIG", "OPKC 091400Z 24009KT 7000 NSC 27/17 Q1012 NOSIG", "OPLA 091355Z 00000KT 7000 NSC 30/11 Q1012 NOSIG RMK QFE987 A29.91", "OPMT 091400Z 00000KT 5000 HZ SCT100 32/16 Q1011 NOSIG", "OPNH 091400Z 09004KT 6000 FEW100 FEW200 34/14 Q1011", "OPPS 091400Z 23008KT 7000 HZ SCT040 BKN100 27/11 Q1014", "OPSK 091300Z 31004KT 5000 HZ SCT100 36/15 Q1011 NOSIG", "OPST 091400Z 00000KT 4000 HZ NSC 29/14 Q1014 NOSIG 40%", "ORBI 091402Z 01004KT 340V060 CAVOK 31/12 Q1014 NOSIG", "ORER 091400Z 06004KT 8000 NSC 26/M00 Q1019", "ORMM 091400Z 31006KT CAVOK 35/00 Q1014 NOSIG", "ORNI 091400Z 07060KT 8000 NSC 33/09 Q1014", "ORSU 091400Z 13005KT 8000 NSC 21/13 Q1021", "OSDI 091400Z 05013KT 9999 SCT030 BKN100 28/M01 Q1013", "OSLK 091400Z 09008KT 8000 FEW030 SCT100 BKN200 25/09 Q1012", "OTBD 091400Z AUTO 08006KT 040V100 CAVOK 27/13 Q1014 NOSIG", "OTBH 091355Z 09010KT 9999 CLR 30/10 A2992 Q1013 RMK AO2A SLP133 T02970097 FZRANO $", "OTHH 091400Z 10004KT CAVOK 27/14 Q1014 NOSIG", "PAAD 091355Z AUTO 06012KT 10SM BKN033 OVC060 M20/M22 A2961 RMK AO2 T11981222 PWINO", "PAAK 091356Z AUTO 27014KT 5SM BR OVC005 06/06 A2993 RMK AO2 RAB03E35 SLP136 P0000 T00560056 $", "PAAQ 091403Z AUTO 23005KT 1 1/4SM -SN OVC015 M09/M13 A2924 RMK AO2 P0000 T10941128 TSNO", "PABA 091403Z AUTO 06018KT 2SM -SN BR OVC022 M17/M19 A2959 RMK AO2 FZRANO PNO $", "PABE 091353Z 27004KT 10SM FEW024 M23/M25 A2980 RMK AO2 SLP093 T12281250", "PABI 091353Z 27011KT 5SM -SN BKN044 OVC060 M16/M18 A2941 RMK AO2 SLP001 P0000 T11561183", "PABL 091356Z AUTO 20005KT 6SM -SN BKN030 M28/M31 A2967 RMK AO2 SLP048 P0000 T12781311 FZRANO", "PABR 091353Z AUTO 02006KT 8SM BKN070 BKN095 OVC110 M26/M28 A2976 RMK AO2 SLP080 T12561283 TSNO $", "PABT 091353Z 17006KT 5SM -SN BR FEW048 OVC100 M23/M26 A2949 RMK AO2 SLP009 PCPN VRY LGT T12281256 PNO", "PABV 091356Z AUTO 21006KT 4SM -SN BR OVC012 M11/M13 A2929 RMK AO2 SLP924 P0000 T11061128 FZRANO", "PACD 091403Z AUTO 15007KT 10SM BKN022 BKN042 OVC050 M04/M07 A2975 RMK AO2 T10441067 TSNO", "PACV 091404Z 00000KT 3/4SM -SN BR VV006 01/M01 A2901 RMK AO2 P0003 T00061006 RVRNO", "PACZ 091355Z AUTO 18008KT 10SM BKN034 M18/M21 A2968 RMK AO2 SNB1255E1256 SLP070 T11841211", "PADK 091405Z AUTO 24021KT SCT007 BKN110 04/04 A2996 RMK AO2 PWINO $", "PADL 091356Z AUTO 00000KT 10SM CLR M21/M25 A2972 RMK AO2 SLP070 T12111250 FZRANO", "PADM 091356Z AUTO 02006KT 9SM -SN FEW022 BKN065 M29/M32 A2981 RMK AO2 SLP103 P0000 T12941317 FZRANO", "PADQ 091353Z AUTO 27017G31KT 10SM OVC028 M07/M15 A2930 RMK AO2 PK WND 27033/1338 SLP922 T10671150 TSNO", "PADU 091356Z AUTO VRB03KT 10SM SCT015 BKN041 OVC065 01/M02 A2984 RMK AO2 UPB25E44 SLP110 P0000 T00111017 FZRANO", "PAED 091355Z 03006KT 2SM -SN FEW009 OVC025 M11/M14 A2926 RMK AO2A SLP907 P0000 T11131142", "PAEG 091353Z AUTO 28005KT 1 1/2SM -SN OVC022 M08/M11 A2924 RMK AO2 SLP913 P0001 T10781111 TSNO", "PAEH 091355Z AUTO 01006KT 10SM -SHSN OVC017 M16/M18 A2975 RMK AO2 SHSNB1206 SLP096 P0000 T11601184", "PAEI 091355Z 24006KT 6SM -SN BKN012 BKN017 BKN045 OVC070 M15/M18 A2945 RMK AO2A SLP989 T11531183 TSNO $", "PAEN 091353Z AUTO 02003KT 10SM CLR M14/M19 A2928 RMK AO2 SLP918 T11441189 TSNO $", "PAFA 091353Z 23006KT 4SM -SN BR BKN033 BKN047 OVC055 M14/M19 A2947 RMK AO2 SLP993 P0001 T11441194", "PAFB 091345Z AUTO 23010KT 8SM -SN FEW040 OVC070 M15/M18 A2946 RMK AO2 SNB29E42SNB45 SLP992", "PAFE 091356Z AUTO 08009KT 10SM -RA OVC030 04/03 A2921 RMK AO2 SLP904 P0003 T00390028", "PAFM 091356Z AUTO 02003KT 10SM CLR M33/M36 A2968 RMK AO2 SLP063 T13331361 FZRANO", "PAFR 091355Z AUTO 00000KT 6SM -SN BR OVC050 M12/M14 A2926 RMK AO2 SNE34SNB54 SLP920 P0001 T11171137 $", "PAFS 091401Z AUTO 00000KT 10SM CLR M28/M30 A2961 RMK AO2 SLP043 T12781300 FZRANO", "PAGK 091353Z AUTO 29003KT 1 1/4SM -SN BR OVC018 M07/M08 A2904 RMK AO2 SLP862 P0003 T10721083 TSNO", "PAGL 091405Z AUTO 15008KT 4SM -SN BR SCT010 BKN013 OVC065 M22/M24 A2964 RMK AO2 P0000 FZRANO", "PAGM 091317Z AUTO 00000KT 1 1/4SM -SN BR FEW007 BKN011 OVC018 M16/M18 A2966 RMK AO2 P0000 FZRANO", "PAGN 091356Z AUTO 09007KT 10SM -RA BKN032 BKN046 OVC080 04/03 A2921 RMK AO2 SLP881 P0000 T00390033", "PAGS 091356Z AUTO 35005KT 10SM BKN035 BKN050 OVC065 04/02 A2921 RMK AO2 RAE38 SLP891 P0000 T00390022", "PAGY 091353Z AUTO 03004KT 8SM -RA OVC017 03/03 A2925 RMK AO2 SLP906 P0003 T00330028 TSNO", "PAHL 091356Z AUTO 23004KT 10SM CLR M31/M33 A2966 RMK AO2 SLP052 T13111333 FZRANO", "PAHN 091354Z AUTO 07012G20KT 10SM -RA FEW018 OVC033 04/02 A2923 RMK AO2 SLP900 P0003 T00440017 TSNO", "PAHO 091353Z 36011KT 10SM FEW060 M08/M16 A2925 RMK AO2 SLP906 T10781161", "PAHX 091402Z AUTO 19003KT 10SM CLR M28/M30 A2975 RMK AO2 SLP075 T12781300 FZRANO", "PAHY 091356Z AUTO 09015G28KT 5SM -RA OVC020 05/02 A2915 RMK AO2 PK WND 09028/1351 SLP868 P0015 T00500022 $", "PAIG 091356Z AUTO 32010KT 10SM CLR M21/M24 A2968 RMK AO2 SLP061 T12061244 FZRANO $", "PAIK 091356Z AUTO 34008KT 8SM -SN SCT021 BKN030 BKN042 M31/M33 A2968 RMK AO2 SLP058 P0000 T13061333 FZRANO", "PAIL 091359Z 34007KT 10SM SKC M19/M25 A2956", "PAIM 091355Z AUTO 11001KT 10SM CLR M29/M32 A2945 RMK AO2 SLP032 T12951319", "PAIW 091356Z AUTO 00000KT 3SM -SN BR BKN022 OVC028 M21/M23 A2961 RMK AO2 SLP028 P0000 T12061228 FZRANO", "PAJC 091357Z AUTO 25015G31KT 8SM -SN SCT023 OVC029 M07/M12 A2972 RMK AO2 PK WND 24032/1321 SLP064 T10721122 FZRANO PNO $", "PAJN 091353Z 10017KT 10SM OVC033 03/02 A2922 RMK AO2 RAE31 SLP896 P0001 T00330017", "PAJZ 091356Z AUTO 34011KT 9SM CLR M21/M26 A2974 RMK AO2 SLP077 T12061261 FZRANO $", "PAKF 091406Z AUTO 13012KT 3SM -SN BR SCT004 BKN009 OVC026 M03/M04 A2976 RMK AO2 CIG 007V011 P0000 FZRANO", "PAKH 091356Z AUTO 10SM CLR A2946 RMK AO2 SLPNO FZRANO TSNO $", "PAKI 091356Z AUTO 10SM BKN013 A2980 RMK AO2 SLPNO FZRANO $", "PAKN 091354Z AUTO 33006KT 10SM CLR M20/M24 A2967 RMK AO2 SLP050 T12001244 TSNO", "PAKP 091356Z AUTO 04008KT 6SM -SN BKN042 OVC050 M26/M29 A2931 RMK AO2 SLP005 P0000 T12611294 FZRANO", "PAKT 091400Z 15013G21KT 10SM -RA SCT026 OVC033 06/03 A2921 RMK AO2 P0000 T00560028", "PAKU 091346Z 03011KT 10SM R06/P6000FT OVC030 M22/M24 A2966", "PAKV 091353Z AUTO 23003KT 10SM FEW027 M31/M33 A2971 RMK AO2 SLP066 T13111333 TSNO", "PAKW 091353Z AUTO 04008KT 9SM -RA OVC024 04/02 A2913 RMK AO2 SLP866 P0007 T00390022 TSNO", "PALG 091356Z AUTO 00000KT 10SM CLR M32/M36 A2978 RMK AO2 SLP088 T13171356 FZRANO", "PALH 091353Z 02012KT 7SM -SN OVC046 M11/M18 A2929 RMK AO2 SNB1259E10B47 SLP917 P0000 T11111178", "PALP 091345Z 03008KT 10SM OVC031 M22/M25 A2970", "PALU 091355Z AUTO 12013KT 10SM SCT075 M23/M28 A2968 RMK AO2 SLP050 T12311285", "PAMB 091356Z AUTO 03003KT 9SM M21/M26 A2972 RMK AO2 SLP071 T12061256 FZRANO $", "PAMC 091353Z AUTO 00000KT 10SM CLR M31/M34 A2965 RMK AO2 SLP053 T13061339 TSNO $", "PAMD 091359Z AUTO 00000KT 10SM -RA SCT021 BKN030 OVC049 02/M01 A2898 RMK AO2 P0000 FZRANO $", "PAMH 091356Z AUTO 00000KT CLR M24/M27 A2955 RMK AO2 SLP020 T12391267 PWINO FZRANO $", "PAMK 091356Z AUTO 22012KT 3SM -SN BR FEW029 OVC060 M20/M22 A2969 RMK AO2 SLP056 P0000 T12001217 FZRANO", "PAMM 091356Z AUTO 10017G25KT 8SM -RA SCT030 OVC037 06/02 A2921 RMK AO2 PK WND 09028/1336 SLP984 P0002 T00610022 $", "PAMO 091356Z AUTO 19006KT 5SM -SN BR SCT034 OVC043 M22/M24 A2972 RMK AO2 SLP076 P0000 T12221239 FZRANO", "PAMR 091404Z 36005KT 2SM -SN OVC024 M11/M14 A2928 RMK AO2 P0000 T11061144 $", "PANA 091356Z AUTO 00000KT 10SM BKN024 M24/M27 A2981 RMK AO2 SLP093 T12441272 FZRANO TSNO $", "PANC 091353Z 01011KT 10SM SCT060 OVC075 M11/M20 A2927 RMK AO2 SLP914 T11111200 $", "PANI 091356Z AUTO 00000KT 9SM BKN024 M31/M34 A2983 RMK AO2 SNB42E52 SLP095 P0000 T13111344 FZRANO $", "PANV 091356Z AUTO 23005KT 10SM CLR M25/M27 A2969 RMK AO2 SLP205 T12501272 FZRANO TSNO", "PANW 091356Z AUTO 01007KT 7SM CLR M23/M27 A2969 RMK AO2 SLP066 T12281272 FZRANO", "PAOH 091356Z AUTO 10003KT 10SM -RA FEW031 BKN050 OVC080 03/02 A2919 RMK AO2 RAE19B47UPB19E47 SLP885 P0000 T00280022", "PAOM 091353Z AUTO 00000KT 5SM -SN BR BKN027 OVC065 M21/M23 A2959 RMK AO2 SNE18B43 SLP022 P0000 T12111233 TSNO", "PAOO 091356Z AUTO CLR M22/M24 A2981 RMK AO2 SLP102 T12221239 PWINO FZRANO TSNO $", "PAOR 091353Z 31011G21KT 10SM OVC025 M13/M18 A2918 RMK AO2 SLP919 T11281178 PNO", "PAOT 091353Z AUTO 09012KT 10SM FEW032 M29/M32 A2963 RMK AO2 SLP035 T12941317 TSNO $", "PAOU 091356Z AUTO 35009KT 5SM -SN BR BKN016 OVC040 M06/M08 A2978 RMK AO2 SLP083 T10561078 FZRANO PNO $", "PAPB 091353Z AUTO 06006KT 10SM OVC042 M03/M06 A2974 RMK AO2 SNE1256 SLP060 P0000 T10281056 TSNO $", "PAPG 091356Z AUTO 14009G16KT 10SM -RA BKN034 OVC041 05/02 A2924 RMK AO2 SLP904 P0001 T00500022", "PAPH 091356Z AUTO 32015G22KT 9SM -SN FEW020 OVC030 M09/M13 A2973 RMK AO2 SLP071 P0000 T10941133 FZRANO", "PAPM 091356Z AUTO 36006KT 8SM OVC023 M17/M19 A2980 RMK AO2 SLP093 T11671189 FZRANO", "PAPN 091356Z AUTO 09004KT 3SM -SN OVC030 M15/M18 A2971 RMK AO2 SLP062 P0000 T11501183 FZRANO", "PAPO 091356Z AUTO 10013KT 10SM CLR M29/M33 A2965 RMK AO2 SLP040 T12941328 FZRANO", "PAQT 091353Z AUTO 01008KT 10SM OVC036 M22/M25 A2969 RMK AO2 SLP057 T12221250 TSNO PNO", "PARC 091404Z AUTO 36004KT 1 1/4SM -SN BR OVC014 M14/M16 A2924 RMK AO2 P0000 FZRANO", "PART 2 OF 2 METAR ", "PASC 091353Z 04012KT 10SM OVC036 M20/M23 A2963 RMK AO2 SLP037 T12001233", "PASD 091356Z AUTO 32007KT 10SM OVC022 M04/M07 A2977 RMK AO2 SNB38E50 SLP083 P0000 T10441072 FZRANO $", "PASI 091353Z 04005KT 10SM OVC065 04/01 A2912 RMK AO2 SLP860 T00390011", "PASK 091356Z AUTO 05004KT 9SM SCT034 M34/ A2970 RMK AO2 SNE31 SLP053 P0000 T1344 FZRANO", "PASL 091356Z AUTO 00000KT 10SM CLR M24/M27 A2975 RMK AO2 SLP070 T12391272 FZRANO", "PASM 091356Z AUTO 19008KT 6SM -SN BR FEW043 OVC060 M22/M24 A2974 RMK AO2 SLP085 P0000 T12171239 FZRANO", "PASN 091353Z AUTO 17007KT 10SM BKN055 OVC070 M02/M06 A2974 RMK AO2 SLP071 T10221061 TSNO $", "PASO 091353Z AUTO 02013KT 10SM BKN055 M04/M11 A2924 RMK AO2 SLP902 T10441111 TSNO", "PASV 091405Z AUTO 01011G17KT 320V050 1 3/4SM -SN BR OVC014 M24/M27 A2948 RMK AO2 SLP049", "PASX 091356Z AUTO 00000KT 10SM CLR M15/M19 A2930 RMK AO2 SLP930 T11501189 FZRANO", "PASY 091358Z AUTO 20027G33KT 7SM BKN040 OVC180 04/03 A2979 RMK AO2 PK WND 20033/39 SLP092 T00440031 PNO $", "PATA 091352Z AUTO 26003KT 10SM CLR M31/M34 A2958 RMK AO2 SLP025 T13111344 TSNO", "PATC 091355Z AUTO 36002KT 3SM -SN OVC032 M21/M24 A2956 RMK AO2 SNB1255 SLP022 P0000 T12151242", "PATE 091356Z AUTO 21003KT 2 1/2SM -SN BR SCT022 BKN026 OVC034 M22/M23 A2955 RMK AO2 SLP018 P0000 T12171233 FZRANO", "PATK 091353Z AUTO 00000KT 10SM BKN060 OVC070 M09/M12 A2922 RMK AO2 SLP903 T10941122 TSNO", "PATL 091355Z AUTO 00000KT 10SM CLR M22/M26 A2959 RMK AO2 SLP060 T12221261 TSNO $", "PATO 091404Z AUTO 27010G25KT 10SM OVC029 M08/M12 A2918 RMK AO2 T10831122 TSNO", "PATQ 091356Z AUTO 05010KT 3SM -SN OVC034 M28/M31 A2973 RMK AO2 SLP074 P0000 T12831311 FZRANO TSNO", "PAUN 091356Z AUTO 09007KT 2 1/2SM -SN OVC016 M23/M26 A2971 RMK AO2 SLP065 P0000 T12281256 FZRANO", "PAVC 091356Z AUTO 33006KT 9SM -SN BKN027 OVC045 M04/M07 A2978 RMK AO2 SLP088 P0000 T10441067 FZRANO", "PAVD 091356Z AUTO 00000KT -SN FEW008 OVC014 M01/M02 A2910 RMK AO2 UPB08E12SNE08B12 SLP851 P0000 T10111022 FZRANO TSNO $", "PAVL 091353Z AUTO 08010G23KT 10SM CLR M28/M32 A2962 RMK AO2 SLP030 T12831317 TSNO", "PAWD 091353Z AUTO 32019G31KT 10SM OVC065 M05/M14 A2912 RMK AO2 PK WND 31036/1319 UPB06E33 SLP861 P0000 T10501139 TSNO", "PAWG 091356Z 09008KT 10SM -RA BKN040 OVC047 05/03 A2926", "PAWI 091353Z AUTO 04007KT 4SM -SN BKN042 OVC075 M29/M32 A2973 RMK AO2 UPB46E50SNB50 SLP068 I1000 T12941322 TSNO $", "PAWM 091356Z AUTO 04004KT 8SM -SN BKN017 M24/M27 A2961 RMK AO2 SNE20B56 SLP035 P0000 T12441267 FZRANO", "PAWS 091356Z AUTO 27008KT 1 3/4SM -SN BR OVC016 M11/M13 A2925 RMK AO2 SLP912 P0000 T11111133 FZRANO", "PAYA 091353Z AUTO 07009KT 10SM SCT055 BKN100 03/00 A2915 RMK AO2 SLP872 T00280000 TSNO $", "PAZK 091406Z AUTO 21004KT 3SM -SN BR FEW004 BKN021 OVC028 M13/M14 A2893 RMK AO2 P0001 FZRANO", "PFCL 091356Z AUTO 13006KT 10SM CLR M21/M24 A2973 RMK AO2 SLP060 T12061244 FZRANO TSNO", "PFEL 091356Z AUTO 00000KT 10SM CLR M24/M27 A2963 RMK AO2 SLP041 T12391267 FZRANO", "PFKT 091356Z AUTO 10003KT 7SM -SN BKN030 OVC037 M22/M24 A2960 RMK AO2 SLP025 P0000 T12221244 FZRANO $", "PFNO 091356Z AUTO 07006KT 6SM HZ BKN033 M33/M36 A2968 RMK AO2 SLP139 T13281356 FZRANO $", "PFSH 091356Z AUTO 22011KT 5SM -SN BR FEW029 M21/M23 A2968 RMK AO2 SLP052 P0000 T12061228 FZRANO", "PFWS 091356Z AUTO 02009KT 10SM CLR M19/M24 A2971 RMK AO2 SLP109 T11891239 FZRANO", "PFYU 091406Z 26008KT 1SM -SN BR OVC015 M12/M14 A2937 RMK AO2 P0000", "PGSN 091354Z 11010KT 10SM FEW017 SCT028 27/24 A2990 RMK AO2 SLP146 T02720244 403110261 $", "PGUA 091355Z AUTO 15010KT 10SM SCT010 26/24 A2990 RMK AO2 SLP115 T02610235 402930251 $", "PGUM 091351Z 11007KT 10SM FEW016 SCT023 27/24 A2990 RMK AO2", "PHBK 091351Z AUTO 08004KT 10SM CLR 19/17 A2995 RMK AO2 SLP144 T01940167", "PHHI 091355Z AUTO 27003KT 5SM -RA BR SCT005 SCT009 BKN035 18/16 A2998 RMK AO2 RAB40 SLP145 P0001 T01800163 $", "PHJR 091353Z AUTO 01005KT 10SM CLR 21/17 A2996 RMK AO2 SLP150 T02060167 TSNO", "PHKO 091353Z AUTO 07004KT 10SM CLR 22/18 A2992 RMK AO2 SLP130 T02220178 TSNO $", "PHLI 091401Z AUTO 04015KT 10SM -RA SCT023 BKN038 OVC048 22/20 A2998 RMK AO2 P0000 T02220200 TSNO", "PHMK 091354Z AUTO 04006KT 10SM FEW045 OVC060 21/18 A2996 RMK AO2 SLP148 T02110183 TSNO", "PHNG 091357Z AUTO 05015KT 10SM FEW019 SCT026 OVC048 23/21 A2994 RMK AO2 RAB39E49 SLP133 P0000 T02330211", "PHNL 091353Z 03004KT 10SM FEW025 SCT060 BKN070 22/18 A2994 RMK AO2 SLP140 T02220183", "PHNY 091356Z AUTO 05008KT 10SM OVC055 18/17 A2999 RMK AO2 SLP137 T01830167", "PHOG 091354Z AUTO 04010KT 10SM FEW012 BKN060 21/18 A2994 RMK AO2 SLP144 T02060183 TSNO", "PHSF 091400Z AUTO 00000KT 3SM BR OVC004 09/09 A3024 RMK AO2 SLP135 $", "PHTO 091353Z AUTO 23005KT 10SM CLR 18/14 A2995 RMK AO2 SLP140 T01830144 TSNO", "PKMR 091351Z 11005KT 14SM -RA SCT014 BKN045 OVC130 26/23 A2982 RMK SHRAB08E21RAB21 SLP100 T02550233", "PKWA 091400Z AUTO 06018KT 10SM BKN020 BKN024 28/24 A2983 RMK AO2 T02750238 TSNO", "PLCH 091300Z VRB01KT 9999 FEW019 26/25 Q1006", "PMDY 091405Z AUTO 10SM BKN008 BKN015 BKN031 21/19 A3019 RMK AO2 CIG 005V013 TSNO $", "PPIZ 091356Z AUTO 02010KT 10SM CLR M36/ A2971 RMK AO2 SLP066 T1361 FZRANO", "PTKK 091350Z 10006KT 15SM SCT012CB BKN110 OVC280 27/24 A2985 RMK CB ALQDS MOV W SLP110 T02680243", "PTTP 091254Z 00000KT 15SM SCT018 BKN300 24/24 A2989 RMK SLP122 T02440238 403000240", "PTYA 091352Z VRB04KT 12SM FEW016TCU BKN130 OVC300 28/26 A2979 RMK TCU SE SLP088 T02750261", "PWAK 091355Z AUTO 07006KT 10SM SCT018 25/21 A2998 RMK AO2 SLP158 T02460211 $", "RCFN 091330Z 36005KT 280V070 9999 FEW020 BKN045 BKN060 20/15 Q1020 NOSIG RMK A3013", "RCKH 091330Z 20004KT 160V230 8000 -RA SCT012 BKN024 BKN038 21/18 Q1016 NOSIG RMK A3003", "RCMQ 091330Z 32001KT 9999 FEW010 SCT050 18/14 Q1016 RMK A3001", "RCNN 091330Z 26001KT 9999 FEW012 20/14 Q1017 RMK A3004", "RCSS 091330Z 09010KT 9999 FEW025 19/12 Q1017 NOSIG RMK A3004", "RCTP 091330Z 10016KT 9999 FEW020 20/14 Q1016 NOSIG RMK A3001", "RJAA 091400Z AUTO 13002KT 9999 NCD 06/04 Q1020 NOSIG RMK A3013", "RJAH 091400Z VRB02KT 9999 FEW030 03/02 Q1020", "RJBB 091400Z AUTO 19006KT 9999 NCD 13/07 Q1020 NOSIG", "RJBE 091300Z 23007KT 190V260 CAVOK 13/09 Q1019", "RJCC 091400Z 13003KT 9999 FEW010 M01/M02 Q1014 RMK 1ST010 A2995", "RJDB 091400Z AUTO 24005KT 180V300 9999 NCD 13/04 Q1019", "RJFF 091400Z AUTO VRB02KT 9999 NCD 11/07 Q1020 NOSIG RMK A3012", "RJFM 091400Z AUTO 26006KT 9999 NCD 12/04 Q1020", "RJFO 091300Z 25004KT CAVOK 09/04 Q1020", "RJFR 091400Z 23001KT CAVOK 13/07 Q1019", "RJFS 091400Z 04003KT CAVOK 11/07 Q1020", "RJGG 091400Z AUTO 28007KT 9999 NCD 13/03 Q1020 NOSIG", "RJKA 091400Z AUTO 32003KT 9999 FEW040 14/11 Q1020", "RJKI 091400Z AUTO 11003KT 9999 SCT038 BKN040 BKN042 15/12 Q1020", "RJNK 091400Z 18003KT 9999 NSC 05/01 Q1019", "RJOA 091300Z 28003KT CAVOK 09/02 Q1019", "RJOH 091400Z 21006KT 9999 FEW050 09/07 Q1018", "RJOI 091356Z 24004KT 10SM CLR 12/04 A3012 RMK AO2 SLP199 T01220039", "RJOK 091400Z AUTO 36008KT 9999 NCD 11/07 Q1020", "RJOO 091400Z AUTO 00000KT 9999 NCD 11/04 Q1020 RMK A3013", "RJOS 091400Z 26005KT 9999 FEW030 11/06 Q1020", "RJSM 091400Z 20003KT 170V230 9999 FEW040 05/M04 Q1016", "RJTT 091400Z VRB02KT 9999 FEW030 14/08 Q1019 BECMG 27005KT", "RJTY 091355Z AUTO 32003KT 10SM CLR 08/M02 A3015 RMK AO2 SLP215 T00751023 $", "RKJB 091400Z AUTO 19004KT 9999 NCD 08/03 Q1019", "RKJK 091355Z AUTO 13003KT 9SM CLR 07/M03 A3006 RMK AO2 SLP184 T00691028 $", "RKNY 091400Z AUTO 26011G24KT 200V310 9999 NCD 13/M07 Q1014", "RKPC 091400Z 09003KT 360V090 CAVOK 10/M01 Q1019 NOSIG", "RKPK 091400Z 20005KT CAVOK 12/02 Q1018", "RKSG 091355Z 14003KT 10SM CLR 07/04 A3007 RMK AO2A SLP186 T00690042 $", "RKSI 091400Z 17007KT CAVOK 07/05 Q1018 NOSIG", "RKSM 091300Z 17003KT 9999 SKC 08/02 A3007", "RKSO 091355Z AUTO 21003KT 10SM CLR 09/03 A3007 RMK AO2 SLP187 T00920032 $", "RKSS 091400Z 17004KT CAVOK 10/03 Q1018 NOSIG", "RKTN 091400Z 02001KT CAVOK 10/M02 Q1018", "RKTU 091400Z 13001KT CAVOK 06/M02 Q1018", "ROAH 091400Z AUTO 04004KT 9999 FEW044 18/10 Q1020 RMK A3012", "RODE 091359Z AUTO 12005KT BKN050 16/10 A3014 RMK AO2 SLP247 T01560100 $", "RODN 091355Z AUTO 00000KT 10SM CLR 12/09 A3009 RMK AO2 SLP197 T01190091 $", "ROIG 091400Z AUTO 10009KT 060V120 9999 FEW040 SCT048 20/12 Q1019", "ROMD 091400Z AUTO 06007KT 020V130 9999 BKN046 18/09 Q1019", "ROMY 091400Z AUTO 11004KT 9999 FEW042 17/11 Q1019", "RORK 091400Z AUTO 06008KT 9999 BKN046 19/10 Q1019", "RORS 091400Z AUTO 12003KT 9999 NCD 16/12 Q1019", "RORT 091400Z AUTO 08003KT 040V130 9999 FEW040 SCT050 18/12 Q1019", "RORY 091400Z AUTO 10004KT 9999 FEW046 17/09 Q1020", "ROTM 091256Z 08010KT 9999 BKN050 17/10 A3011 RMK SLP183 T01740100", "ROYN 091400Z AUTO 13006KT 9999 NSC 20/14 Q1018", "RPLB 091400Z 09007KT 9999 FEW020 28/21 Q1013 NOSIG RMK A2991", "RPLC 091400Z 20004KT 9999 SCT020 BKN300 27/21 Q1014 NOSIG RMK A2994", "RPLL 091400Z 12007KT 090V170 9999 FEW025 28/22 Q1013 NOSIG RMK A2991", "RPMD 091400Z 36008KT 9000 RA SCT016 BKN090 24/24 Q1012 RMK A2988", "RPVM 091400Z 01012KT 9999 FEW020 BKN250 28/23 Q1012 NOSIG RMK A2988", "SAAR 091400Z 03011KT CAVOK 24/16 Q1017 RMK PP000", "SABE 091400Z 34008KT 310V020 CAVOK 22/17 Q1018 NOSIG RMK PP000", "SACO 091400Z 04012KT CAVOK 25/14 Q1017 NOSIG RMK PP000", "SADF 091400Z 36007KT CAVOK 24/16 Q1018 RMK PP000", "SAEZ 091400Z 34009KT 9999 FEW030 24/13 Q1018 NOSIG RMK PP000", "SAME 091400Z 14004KT CAVOK 23/15 Q1014", "SANT 091400Z 22003KT 180V290 9999 FEW025 25/19 Q1016 RMK PP///", "SAOC 091400Z 36013KT CAVOK 24/14 Q1015", "SARC 091400Z 16002KT CAVOK 25/19 Q1017", "SARE 091400Z VRB02KT CAVOK 25/18 Q1017 RMK PP///", "SARF 091300Z 00000KT CAVOK 24/18 Q1017", "SARI 091400Z 04006KT 360V150 9999 BKN017 24/21 Q1019 RMK PP000", "SARL 091400Z 09006KT CAVOK 25/19 Q1018", "SARP 091400Z 32005KT 9999 FEW030 26/19 Q1018", "SASA 091400Z VRB01KT 9999 FEW018 SCT030 20/15 Q1022 RMK PP000", "SASJ 091400Z VRB03KT 9999 FEW020 23/18 Q1020 RMK PP///", "SAVC 091400Z 27020KT 9999 FEW045 17/05 Q1007 RMK PP000", "SAWE 091400Z 26020KT CAVOK 04/M01 Q1003 RMK PP000", "SAWG 091400Z 24024G34KT 9999 FEW025 05/M02 Q1010", "SAWH 091400Z 24013KT 9999 BKN035 02/M01 Q1003 RMK PP000", "SAZM 091400Z 32017KT CAVOK 22/16 Q1016 RMK PP///", "SAZN 091400Z 29006KT CAVOK 19/10 Q1011", "SAZS 091400Z 28015KT 9999 FEW040 SCT100 16/M02 Q1014 RMK PP///", "SBAF 091300Z 04003KT 6000 -RA SCT013 OVC020 23/23 Q1019", "SBAN 091300Z 10010KT 070V130 9999 FEW015 24/19 Q1022", "SBAR 091400Z 11008KT 070V140 9999 SCT025 29/24 Q1014", "SBAT 091300Z 09003KT 9999 FEW010 30/25 Q1017", "SBAU 091300Z 10008KT 4500 -RA SCT010 SCT020 BKN090 20/18 Q1018", "SBBE 091400Z 30006KT 9999 FEW012 BKN035 28/25 Q1014", "SBBG 091400Z AUTO 07007KT 040V100 9999 BKN021 23/18 Q1019", "SBBH 091300Z 09007KT 9999 BKN048 BKN100 22/19 Q1020", "SBBI 091300Z 08011KT 9999 BKN015 20/16 Q1023", "SBBQ 091300Z 16005KT 1000 -RA BR OVC007 18/17 Q1024", "SBBR 091400Z 10006KT 9999 SCT025 SCT070 25/18 Q1021", "SBBU 091300Z 13010KT 9999 SCT030 23/20 Q1020", "SBBV 091400Z 07011KT CAVOK 31/18 Q1014", "SBBW 091300Z 07004KT CAVOK 28/21 Q1017", "SBCA 091300Z 04014KT 9999 SCT020 22/19 Q1021", "SBCB 091400Z 20006KT 6000 SCT008 BKN020 OVC040 25/23 Q1017", "SBCC 091300Z 04002KT CAVOK 25/21 Q1018", "SBCF 091400Z 08008KT 9999 FEW013 BKN070 24/18 Q1020", "SBCG 091400Z VRB03KT 9999 BKN026 27/20 Q1018", "SBCH 091300Z 05006KT 9999 FEW012 22/18 Q1021", "SBCJ 091400Z 07002KT 5000 -RA BR BKN009 BKN080 24/21 Q1019", "SBCO 091300Z 04002KT 9999 FEW017 24/18 Q1019", "SBCP 091400Z 24010KT 9999 -RA BKN010 OVC080 24/23 Q1017", "SBCR 091400Z 28004KT 9999 FEW020 BKN070 27/23 Q1016", "SBCT 091400Z 10006KT 9999 OVC014 19/16 Q1024", "SBCX 091300Z 06006KT 9999 SCT036 19/14 Q1022", "SBCY 091400Z 19004KT 9999 BKN006 25/24 Q1017", "SBCZ 091400Z 15003KT 8000 -DZ SCT006 BKN007 OVC070 25/// Q1016", "SBDN 091300Z 11011KT 9999 BKN020 24/20 Q1019", "SBEG 091400Z VRB02KT 9999 SCT015 BKN090 27/24 Q1015", "SBES 091300Z 23003KT 7000 -RA FEW004 BKN009 OVC050 23/22 Q1017", "SBFI 091400Z 01006KT 9999 BKN020 SCT070 26/21 Q1018", "SBFL 091400Z 29003KT 9999 OVC049 25/20 Q1020", "SBFN 091400Z AUTO 10010KT 060V120 9999 FEW015 28/25 Q1012", "SBFS 091300Z 17011KT 9999 -RA FEW010 BKN015 OVC080 25/23 Q1016", "SBFZ 091400Z 19008KT 6000 -RA FEW008 SCT017 OVC080 24/23 Q1011", "SBGL 091400Z 35001KT 3000 -RA BR FEW005 BKN013 OVC021 22/21 Q1018", "SBGM 091300Z 13005KT 9000 BKN011 25/24 Q1015", "SBGO 091400Z 13005KT 9999 FEW020 SCT100 27/21 Q1019", "SBGR 091400Z 10006KT 9999 BKN019 BKN070 21/17 Q1022", "SBGW 091300Z VRB01KT 1500 -RA BR BKN010 BKN040 20/19 Q1022", "SBHT 091300Z 05002KT 9999 SCT012 BKN090 27/25 Q1015", "SBIH 091300Z 07005KT 9999 FEW016 31/24 Q1015", "SBIL 091300Z 08003KT 9999 SCT020 FEW025TCU SCT090 30/26 Q1015", "SBIP 091300Z AUTO 19006KT 140V220 9999 FEW019 27/17 Q1017", "SBIZ 091300Z 32002KT 9999 SCT012 BKN100 27/25 Q1014", "SBJP 091400Z 19010KT 9999 SCT008 BKN040 BKN070 26/24 Q1014", "SBJR 091300Z 18006KT 9999 SCT030 OVC060 26/23 Q1018", "SBJU 091300Z 14010KT 9999 SCT020 27/23 Q1018", "SBJV 091300Z 33002KT 9999 FEW010 BKN030 24/21 Q1020", "SBKG 091300Z 14006KT 9999 SCT010 OVC080 22/// Q1017", "SBKP 091400Z 11008KT 070V150 9999 FEW015 BKN043 22/18 Q1020", "SBLE 091300Z AUTO 10003KT 050V210 9999 FEW018 OVC024 25/22 Q1018", "SBLO 091400Z 10011KT 9999 BKN025 26/19 Q1020", "SBLS 091300Z 15008KT 9999 SCT007 BKN090 22/19 Q1020", "SBMA 091400Z 00000KT 9999 TS BKN007 BKN010 SCT025CB OVC100 24/24 Q1014 RERA", "SBME 091300Z 26003KT 5000 -RA BKN010 OVC080 24/24 Q1017", "SBMG 091300Z /////KT 9999 SCT020 25/19 Q1019", "SBMK 091300Z 07004KT CAVOK 31/18 Q1018", "SBML 091300Z 13002KT 9999 FEW012 SCT020 BKN080 23/20 Q1020", "SBMN 091400Z 18004KT 9999 SCT008 BKN080 27/24 Q1015", "SBMO 091400Z 10009KT 9999 BKN023 30/24 Q1014", "SBMQ 091400Z 01008KT 9999 BKN016 30/24 Q1014", "SBMS 091300Z 00000KT 9999 BKN015 BKN090 29/25 Q1012", "SBMT 091300Z 10008KT 9999 SCT019 BKN021 20/18 Q1022", "SBMY 091300Z AUTO 18004KT 9999 FEW010 27/24 Q1015", "SBNF 091400Z 22004KT 9999 SCT015 SCT030 23/19 Q1020", "SBNT 091400Z 16009KT 120V190 9999 FEW030TCU 29/23 Q1012", "SBOI 091400Z 36007KT 9999 FEW025 SCT032 BKN075 29/23 Q1015", "SBPA 091400Z VRB02KT 9999 FEW030 26/18 Q1019", "SBPB 091400Z 09004KT 9999 FEW016 BKN070 ///// Q1012", "SBPF 091300Z 08005KT 9999 FEW020 21/17 Q1021", "SBPJ 091400Z 31004KT 9999 TS SCT025 FEW030CB 28/25 Q1016", "SBPK 091400Z 12009KT 9999 SCT016 BKN030 24/20 Q1020", "SBPL 091400Z 16006KT 9999 SCT025 BKN080 29/22 Q1016", "SBPP 091400Z 02006KT 9999 FEW020 26/20 Q1020", "SBPS 091400Z 03007KT 340V070 9999 SCT020 FEW025TCU 30/24 Q1014", "SBPV 091400Z 28002KT 9999 BKN005 26/24 Q1015", "SBRB 091400Z 18003KT 9999 BKN013 27/24 Q1016", "SBRF 091400Z 33005KT 9999 FEW013 SCT023 FEW025TCU BKN050 28/23 Q1013", "SBRJ 091400Z 35005KT 4000 -RA BR BKN005 OVC013 23/22 Q1018 RERA", "SBRP 091400Z 13006KT 9999 FEW025 OVC100 25/21 Q1018", "SBSC 091300Z 16003KT 9999 SCT030 OVC080 25/22 Q1018", "SBSG 091400Z 20007KT 150V230 9999 FEW025 FEW030TCU BKN100 29/24 Q1012", "SBSJ 091400Z 09007KT 9999 OVC015 21/18 Q1022", "SBSL 091400Z 32007KT 9999 SCT020 29/26 Q1014", "SBSM 091300Z 11006KT 9999 SCT006 SCT010 22/19 Q1018", "SBSN 091400Z 13004KT 9999 FEW015 BKN100 28/27 Q1015", "SBSP 091400Z 15009KT 9999 BKN019 20/16 Q1023", "SBSR 091300Z 10002KT 9000 BKN010 BKN100 24/19 Q1019", "SBST 091300Z 12005KT 9999 BKN023 BKN045 26/20 Q1019", "SBSV 091400Z 08008KT 9999 SCT020 30/24 Q1014", "SBTA 091300Z VRB02KT 6000 SCT009 OVC035 20/19 Q1021", "SBTC 091300Z 01007KT 9999 SCT025 30/27 Q1014", "SBTE 091400Z 13003KT 080V180 9999 SCT010 BKN015 27/23 Q1014", "SBTF 091400Z 28003KT 9999 SCT012 SCT070 27/24 Q1015", "SBTT 091400Z 07002KT 7000 -RA FEW003 OVC080 22/21 Q1016 RERA", "SBTU 091300Z AUTO 11004KT 060V140 //// // BKN008/// BKN011/// 25/24 Q1016", "SBUA 091300Z VRB02KT 4000 -RA BR BKN010 BKN014 OVC067 23/23 Q1015", "SBUL 091300Z 07007KT 9999 VCSH FEW049 BKN070 23/18 Q1021", "SBUR 091300Z 16004KT 9999 SCT011 SCT100 22/20 Q1020", "SBUY 091300Z 26002KT 9999 BKN009 BKN100 24/23 Q1014", "SBVH 091300Z 13008KT 9999 BKN005 22/22 Q1017", "SBVT 091400Z 23011KT 9999 SCT020 BKN040 28/23 Q1015", "SBYS 091300Z 16004KT 9999 FEW010 22/20 Q1020", "SCAP 091400Z AUTO /////KT ///V/// //// // ////// ///// Q////", "SCAR 091400Z VRB03KT CAVOK 24/16 Q1013", "SCAT 091400Z 01003KT 330V050 9999 OVC017 17/13 Q1016", "SCBA 091400Z 30023KT 9999 FEW040 SCT200 11/06 Q1009", "SCCF 091400Z 08009KT CAVOK 18/00 Q1027", "SCCH 091400Z 23004KT CAVOK 15/05 Q1016", "SCCI 091400Z 25021KT 9999 FEW025 04/M01 Q1009 NOSIG", "SCCY 091400Z 00000KT 9999 BKN033 12/07 Q1011", "SCDA 091400Z 22010KT CAVOK 24/15 Q1014", "SCEL 091400Z 00000KT CAVOK 18/02 Q1016 NOSIG", "SCFA 091400Z 21005KT CAVOK 21/15 Q1015 NOSIG", "SCFM 091400Z 22020KT 9999 SCT025 04/M03 Q1008", "SCFT 091400Z AUTO 25004KT 190V300 9999 -SHRA FEW060/// OVC082/// 11/08 Q1016", "SCGE 091400Z 00000KT CAVOK 15/07 Q1017", "SCHR 091400Z AUTO 27010KT 200V300 CAVOK 08/M01 Q1011", "SCIC 091400Z 26003KT 220V320 CAVOK 16/03 Q1015", "SCIE 091400Z 19008KT CAVOK 15/10 Q1016", "SCIP 091400Z 12005KT CAVOK 19/16 Q1014 NOSIG", "SCIR 091400Z 34008KT 9999 SCT011 BKN020 21/17 Q////", "SCJO 091400Z VRB02KT 9999 SCT040 BKN045 BKN080 11/10 Q1015", "SCMK 091400Z AUTO 02013KT //// // OVC006/// 10/10 Q1015", "SCNT 091400Z 23008KT 9999 FEW025 04/M01 Q1014", "SCON 091400Z AUTO 05008KT 010V070 9999 -RA SCT007/// OVC043/// 10/09 Q1016 RERA", "SCPD 091400Z VRB02KT CAVOK 22/M00 Q1016", "SCPQ 091400Z 36006KT 330V040 2400 -RA BKN002 BKN004 OVC010 10/09 Q1014", "SCQP 091400Z VRB02KT 9999 FEW030 SCT230 11/10 Q1017", "SCRD 091400Z 33004KT 0100 FG VV000 11/10 Q1017", "SCRG 091400Z 01002KT CAVOK 19/01 Q1015", "SCRM 091400Z 12027KT 5000 -SHSN SCT004 BKN010 M03/M05 Q0976 NOSIG", "SCSE 091400Z 29005KT 270V330 9999 SCT008 OVC012 15/14 Q1017", "SCSN 091400Z 29004KT 250V330 3000 BR OVC007 12/11 Q1017", "SCTB 091400Z VRB03KT CAVOK 21/02 Q1017", "SCTE 091400Z 35005KT 320V020 9999 BKN025 OVC035 13/12 Q1015 NOSIG", "SCTN 091400Z 17003KT 140V200 3500 RA SCT008 OVC015 10/10 Q1016", "SCVD 091400Z 00000KT 9999 BKN003 OVC030 10/10 Q1016", "SCVM 091400Z /////KT 0200 FG VV001 11/11 Q1017", "SECA 091400Z 23003KT CAVOK 20/15 Q1019 RMK A3011", "SECO 091400Z 24003KT 8000 BCFG BKN016 OVC100 23/22 Q1018 RMK A3007", "SECU 091300Z 14002KT 9999 4000NE BCFG FEW003 OVC010 11/10 Q1029", "SEGS 091400Z 05003KT 350V110 9999 FEW026 29/23 Q1012 RMK A2989", "SEGU 091400Z 04004KT 9999 FEW010 SCT026 BKN100 27/25 Q1010 NOSIG RMK A2984", "SEGZ 091400Z 12002KT 9999 SCT005 BKN030 OVC100 20/19 Q1022", "SEJD 091400Z 27002KT 9999 VCFG SCT010 SCT030 OVC100 21/20 Q1018 RMK A3006", "SELT 091400Z 24004KT 9999 BKN020 11/08 Q1033", "SEMC 091400Z 18004KT 2000 BR OVC010 18/18 Q1021 RMK A3016", "SEMT 091400Z 12002KT 9999 BKN020 27/24 Q1011 RMK A2988", "SENL 091400Z 23001KT 9999 BKN010 OVC090 21/21 Q1018 RMK A3008", "SEQM 091400Z 16003KT 060V190 9999 FEW030 17/10 Q1027 NOSIG RMK A3035", "SERO 091300Z 00000KT 9999 FEW100 27/24 Q1010", "SESA 091400Z 04007KT 9999 SCT012 29/25 Q1011 RMK A2986", "SESM 091300Z 32005KT 290V350 9999 SCT033 BKN100 18/16 Q1020 RMK A3012", "SEST 091400Z 03003KT CAVOK 28/24 Q1009 RMK A2980", "SETN 091400Z VRB02KT 9999 SCT020 BKN030 26/25 Q1012 RMK A2989", "SGAS 091400Z 00000KT CAVOK 27/16 Q1017", "SGEN 091400Z 32003KT CAVOK 23/16 Q1017", "SGES 091400Z 08008KT 9999 SCT015 26/21 Q1018", "SKAR 091300Z 00000KT 9999 SCT023 22/19 Q1017 RMK A3005", "SKBG 091400Z VRB02KT 9999 SCT012 23/19 Q1017 RMK A3005", "SKBO 091400Z 05008KT 9999 FEW030 17/10 Q1028 NOSIG RMK A3038", "SKBQ 091400Z 07005KT 010V120 9999 FEW012 29/24 Q1012 NOSIG RMK A2989", "SKCC 091400Z VRB02KT 9999 FEW005 26/21 Q1015 RMK HZ A3000", "SKCG 091400Z 15003KT 9999 FEW017 29/25 Q1011 RMK A2987", "SKCL 091400Z VRB02KT 9999 FEW017 SCT150 25/20 Q1016 NOSIG RMK A3003 NOSIG RMK A3003", "SKEJ 091300Z 19004KT 9999 FEW020 27/24 Q1011 RMK A2988", "SKIB 091300Z 26005KT 7000 DZ VCFG BKN015 21/20 Q1020 RMK A3014", "SKIP 091300Z 00000KT 9999 BKN018 10/09 Q1030 RMK A3044", "SKLC 091300Z 36006KT 9999 FEW017 BKN080 27/24 Q1012 RMK A2989", "SKLT 091400Z VRB02KT 8000 -RA OVC004 23/22 Q1015 RMK A3000", "SKMD 091300Z 04008KT 9999 FEW035 22/17 Q1021 RMK A3017", "SKMR 091300Z VRB04KT 8000 BKN017 27/24 Q1012 RMK HZ A2988", "SKMZ 091300Z VRB02KT 9000 NSC 18/13 Q1026 RMK A3032", "SKNV 091300Z 21004KT 160V240 9999 FEW040 BKN110 25/21 Q1014 RMK A2997", "SKPC 091300Z 24005KT 9999 FEW013 27/25 Q1013 RMK A2993", "SKPE 091400Z 30005KT 280V350 9999 FEW020 23/18 Q1018 RKM A3008", "SKPS 091300Z 18003KT 9999 FEW020 SCT080 18/14 Q1021 RMK A3016", "SKPV 091300Z 05004KT 040V150 9999 SCT017 28/23 Q1014 RMK A2995", "SKRG 091400Z 10006KT 9999 SCT018 18/13 Q1027 NOSIG RMK A3032", "SKRH 091300Z 11008KT 9999 FEW020 28/22 Q1012 RMK A2991", "SKSM 091300Z 23003KT 8000 FEW020 28/24 Q1012 RMK HZ A2991", "SKSP 091400Z 07010KT 9999 FEW018 28/22 Q1014 RMK A2996", "SKUC 091300Z 21003KT 9999 BKN025 27/22 Q1014 RMK A2995", "SKUI 091300Z 02006KT 5000 BR SCT009 BKN015 25/24 Q1010 RMK A2985", "SKVP 091300Z 05010KT 9999 FEW020 27/21 Q1014 RMK A2996", "SKVV 091300Z 00000KT 9999 SCT020 BKN090 23/22 Q1016 RMK A3002", "SLAL 091400Z 09003KT 9999 SCT015 13/09 Q1034", "SLCB 091400Z 18003KT 9999 FEW030 20/08 Q1030", "SLCO 091400Z 13008KT 9999 FEW040 BKN080 27/23 Q1016", "SLET 091400Z 13012KT 9999 FEW015 27/19 Q1019", "SLLP 091400Z VRB02KT 9999 FEW008 SCT013 09/M01 Q1041", "SLSA 091400Z 15010KT 9999 FEW017 BKN080 28/21 Q1015", "SLTR 091400Z 12007KT 9999 FEW080 SCT200 29/20 Q1017", "SLVR 091400Z 16009KT 9999 FEW070 27/19 Q1018", "SMJP 091400Z 06006KT 9999 SCT015 30/22 Q1015 NOSIG", "SMZO 091400Z 04002KT 9999 SCT015 30/24 Q1015 NOSIG", "SOCA 091400Z AUTO VRB01KT CAVOK 28/23 Q1015 TEMPO 4000 SHRA SCT012 BKN018TCU", "SPCL 091400Z 11008KT 9999 SCT020 BKN070 26/23 Q1017 RMK BIRD HAZARD RWY 02/20 PP000", "SPHI 091400Z 15010KT 9999 SCT020 28/23 Q1011 RMK BIRD HAZARD RWY 19/01 PP000", "SPHO 091400Z 16003KT 080V220 9999 FEW020 BKN100 16/09 Q1032 RMK PP000", "SPJC 091400Z 17008KT 9999 FEW018 BKN023 26/21 Q1011 NOSIG RMK PP000", "SPJJ 091400Z 16006KT 9999 FEW025 12/// Q1035 RMK PP000", "SPJR 091400Z VRB02KT 9000 VCFG SCT025 BKN060 14/11 Q1029 RMK PP000", "SPME 091400Z 08003KT CAVOK 29/26 Q1011 RMK BIRD HAZARD RWY 32/14 PP000", "SPMS 091400Z 00000KT 9999 SCT010 OVC070 23/22 Q1015 RMK BIRD HAZARD RWY09/27 PP000", "SPNC 091400Z 11003KT 8000 FEW030 BKN120 21/15 Q1026 RMK PP000", "SPQT 091400Z VRB02KT 9999 OVC008 24/23 Q1016 NOSIG RMK BIRD HAZARD RWY 06/24 PP000", "SPQU 091400Z VRB03KT CAVOK 18/07 Q1027 NOSIG RMK PP000", "SPRU 091400Z 16010KT 8000 VCFG NSC 27/24 Q1011 RMK PP000", "SPSO 091400Z 23006KT CAVOK 25/21 Q1011 RMK BIRD HAZARD RWY 22/04 PP000", "SPST 091400Z 00000KT 9999 FEW012 SCT015 OVC080 24/23 Q1017 RMK PP000", "SPTN 091400Z 17002KT CAVOK 24/14 Q1015 RMK PP000", "SPTU 091400Z 15003KT 100V210 CAVOK 27/23 Q1015 RMK PP000", "SPUR 091400Z 15004KT 9999 SCT015 BKN040 27/24 Q1011 RMK BIRD HAZARD RWY 19/01 PP000", "SPYL 091400Z 12010KT 9999 BKN040 28/24 Q1011 RMK BIRD HAZARD RWY 17/35 PP000", "SPZO 091400Z 06003KT 360V120 9999 SCT043 13/04 Q1035 NOSIG RMK BIRD HAZARD RWY 28 PP000", "SUAA 091400Z 01009KT CAVOK 22/15 Q1019", "SUCA 091400Z 01010KT 320V060 9999 FEW015 25/15 Q1018", "SUDU 091400Z 02006KT 9999 FEW017 23/16 Q1019", "SULS 091400Z 01004KT 340V070 9999 FEW030 24/17 Q1019", "SUMU 091300Z 02008KT CAVOK 20/17 Q1020 NOSIG", "SUSO 091400Z 10004KT 9999 FEW023 24/18 Q1018", "SVBC 091403Z AUTO 16003KT NCD 28/23 Q1016", "SVBI 091403Z AUTO /////KT NCD 26/22 Q1018", "SVBM 091403Z AUTO 10008KT NCD 23/19 Q1017", "SVBS 091403Z AUTO 12003KT NCD 27/17 Q1017", "SVCB 091403Z AUTO 06005KT NCD 26/21 Q1015", "SVCS 091403Z AUTO 19002KT NCD 23/18 Q1019", "SVFM 091403Z AUTO NIL", "SVGD 091403Z AUTO 16003KT NCD 27/21 Q1015", "SVGU 091403Z AUTO 35006KT NCD 18/21 Q1015", "SVJM 091403Z AUTO 29004KT NCD 27/17 Q1015", "SVLO 091403Z AUTO NIL", "SVMC 091403Z AUTO 01006KT NCD 28/22 Q1012", "SVMG 091403Z AUTO 11014KT NCD 27/23 Q1015", "SVMI 091403Z AUTO 06005KT NCD 27/20 Q1015", "SVMT 091403Z AUTO 08007KT NCD 28/23 Q1016", "SVPA 091403Z AUTO NIL", "SVPR 091403Z AUTO 12009KT NCD 27/19 Q1017", "SVSA 091403Z AUTO NIL", "SVSR 091403Z AUTO NIL", "SVVA 091403Z AUTO 05005KT NCD 30/21 Q1016", "SVVL 091403Z AUTO ///01KT NCD ///// Q////", "SYCJ 091400Z 04006KT 9999 SCT020 31/21 Q1015 NOSIG", "TAPA 091400Z 10011KT 050V220 9999 SCT023 SCT042 27/21 Q1017 NOSIG", "TBPB 091400Z 11017KT 9999 FEW020 29/21 Q1016 NOSIG", "TDCF 091300Z 04004KT 9999 FEW028 SCT070 28/19 Q1016", "TDPD 091300Z 12007KT 9999 BKN019 SCT038 26/23 Q1018", "TFFF 091400Z AUTO 10012KT 060V130 9999 FEW030 SCT076 29/22 Q1017 TEMPO 4500 -SHRA BKN018TCU", "TFFR 091400Z AUTO 12014KT CAVOK 26/22 Q1016 TEMPO 4500 -SHRA", "TGPY 091400Z 09028KT 9999 FEW018 29/23 Q1016 NOSIG", "TIST 091353Z 12011KT 10SM SCT030 28/22 A3005 RMK AO2 SLP178 T02780217 $", "TISX 091353Z 10013KT 10SM FEW023 28/21 A3006 RMK AO2 SLP178 T02830211 PNO", "TJBQ 091350Z 03005KT 10SM CLR 27/19 A3007", "TJIG 091345Z 09006KT 10SM SCT040 SCT080 28/21 A3005", "TJNR 091353Z AUTO 10010KT 10SM FEW029 28/22 A3007 RMK AO2 SLP182 T02830217", "TJPS 091355Z AUTO 13012G17KT 10SM FEW027 FEW039 28/21 A3003 RMK AO2 TSNO", "TJSJ 091356Z 11007KT 10SM FEW033 SCT041 SCT085 28/21 A3005 RMK AO2 SLP175 T02780206 $", "TKPK 091400Z 08016KT 9999 SCT021 28/21 Q1018", "TLPC 091400Z 11010KT 9999 FEW024 27/23 Q1017 NOSIG", "TLPL 091400Z 09020KT 9999 FEW027 29/23 Q1017 NOSIG", "TNCA 091400Z 11018KT 9999 SCT023 29/22 Q1014 NOSIG", "TNCB 091355Z 10018KT 070V130 9999 FEW015 SCT019 29/23 Q1014", "TNCC 091401Z 11015KT 9999 BKN022 29/22 Q1014 NOSIG", "TNCE 091355Z AUTO 09015KT 050V120 //// // ///////// 28/21 Q1018 RE//", "TNCM 091400Z 09011KT 060V130 9999 FEW018 27/21 Q1019 NOSIG ", "TQPF 091400Z 11013KT 9999 FEW018 27/21 Q1018", "TRPG 091400Z 10021KT 9999 FEW020 BKN040 27/22 Q1018", "TTCP 091400Z 11012KT 9999 VCSH FEW018 29/22 Q1015 NOSIG RMK VCSH SE/ S", "TTPP 091400Z 10012KT 9999 FEW022 31/22 Q1015 NOSIG", "TUPJ 091400Z 11011KT 10SM BKN019 28/21 A3008 RMK Q1018 VIS16KM", "TVSA 091400Z 05011KT 010V090 9999 BKN020 28/23 Q1016 ", "TXKF 091355Z 19010KT 9999 FEW009 SCT028 BKN052 OVC250 Q1017 ", "UAAA 091400Z 01003MPS 9999 SCT050CB OVC100 13/08 Q1019 NOSIG", "UACC 091400Z 12001MPS CAVOK 07/M13 Q1025 NOSIG RMK QFE737/0982", "UACP 091330Z 24004MPS CAVOK 09/M07 Q1022 NOSIG RMK QFE754/1006", "UADD 091400Z 26002MPS 200V350 9999 SCT050 OVC100 17/05 Q1017 NOSIG RMK QFE705/0940", "UAII 091400Z VRB01MPS CAVOK 17/08 Q1016 NOSIG RMK QFE727/0969", "UAIT 091400Z 16004MPS 9999 SCT046 19/10 Q1015 NOSIG RMK QFE734/0979", "UAKD 091400Z 08004MPS 9999 BKN046 11/01 Q1020 NOSIG RMK QFE731/0975", "UAKK 091400Z 03003MPS CAVOK 03/M10 Q1024 NOSIG RMK QFE720/0960", "UAOO 091400Z 07004MPS CAVOK 21/06 Q1015 NOSIG RMK QFE749/0999", "UARR 091400Z 07006MPS 9999 BKN046CB 08/02 Q1024 NOSIG RMK QFE765/1020", "UASK 091400Z 11003MPS 9999 NSC 01/M06 Q1027 NOSIG RMK QFE745/0993", "UASP 091400Z 30002MPS CAVOK 06/M07 Q1025 NOSIG RMK QFE757/1010", "UATE 091400Z 31002MPS 280V340 9999 SCT053CB 15/12 Q1019 NOSIG RMK QFE763/1017", "UATG 091400Z 26005MPS 200V310 9999 BKN033CB 19/06 Q1020 NOSIG RMK QFE767/1023", "UATT 091400Z 10004MPS CAVOK 13/M11 Q1023 NOSIG RMK QFE748/0997", "UAUU 091400Z 21004MPS CAVOK 09/M08 Q1024 NOSIG RMK QFE752/1003", "UBBB 091400Z 34012KT CAVOK 13/08 Q1022 NOSIG", "UBBF 091400Z AUTO 09010KT 9999 // ///////// 17/04 Q1021", "UBBG 091400Z 10008KT 9999 BKN100 19/00 Q1020 NOSIG", "UBBL 091400Z 15010KT 9999 SCT080 14/09 Q1023 NOSIG RMK MT OP", "UBBN 091400Z 34004KT 9999 SCT046 OVC090 18/01 Q1019 NOSIG RMK MT OP QFE689", "UBBQ 091400Z 17010KT 9999 FEW200 16/07 Q1021 NOSIG RMK MT PT OBSC", "UBBY 091400Z 00000KT 9999 BKN100 19/02 Q1023 NOSIG RMK MT OP", "UBBZ 091400Z 04016KT 9999 FEW050 SCT100 18/02 Q1021 NOSIG RMK MT OP", "UBEE 091400Z 19008KT CAVOK 19/06 Q1020 NOSIG", "UCFL 091400Z VRB01MPS 9999 BKN030CB OVC083 09/03 Q1022", "UCFM 091400Z 17006MPS 140V200 9999 VCTS -SHRA BKN033CB 13/09 Q1020 NOSIG", "UCFO 091400Z 26005MPS 9999 SCT050CB 18/09 Q1020 NOSIG", "UDSG 091400Z 17012KT 9999 SCT049 12/M02 Q1022 NOSIG", "UDYZ 091400Z VRB02KT 9999 NSC 17/M04 Q1020 NOSIG", "UEEE 091400Z 33002MPS CAVOK M19/M25 Q1010 R23L/450150 NOSIG RMK QFE749", "UERP 091400Z 01001MPS 9999 SCT020 BKN100 M24/M30 Q1001 NOSIG RMK QFE707", "UERR 091400Z 34003MPS CAVOK M14/M24 Q1001 R25/820540 NOSIG RMK QFE720/0961", "UGAM 091400Z AUTO 20003KT //// ////// 19/05 Q1019", "UGKO 091400Z VRB02KT CAVOK 21/01 Q1018 NOSIG", "UGMS 091400Z AUTO 36006KT //// ////// 11/M03 Q1022", "UGSB 091400Z 33005KT CAVOK 14/10 Q1019 NOSIG", "UGTB 091400Z 31006KT 280V350 CAVOK 20/M03 Q1019 NOSIG", "UHBB 091400Z 04003MPS CAVOK 02/M08 Q1003 R36/090060 NOSIG RMK QFE735/0980", "UHHH 091400Z 12002MPS CAVOK 02/M04 Q1006 R88/090060 NOSIG RMK QFE748/0997", "UHMA 091400Z 04002MPS 010V100 CAVOK M25/M27 Q1007 R01/////// NOSIG RMK MID 02003MPS END R01/36003MPS QFE752/1002", "UHMM 091400Z 09003MPS 9999 NSC M14/M19 Q1001 RMK QFE736 R28/08003MPS", "UHPP 091400Z 34001MPS 8000 -SHSN SCT003 OVC021CB 00/00 Q0983 R16R/690632 NOSIG RMK QFE734/0979", "UHSS 091400Z 03001MPS 9999 NSC M02/M06 Q1009 R01/70D NOSIG RMK QFE756/1008", "UHWW 091400Z VRB01MPS 9999 NSC 01/M02 Q1008 R25L/0///70 NOSIG RMK QFE755", "UIAA 091400Z AUTO 02006MPS 9999 NCD 02/M05 Q0994 RMK QFE688/0917", "UIBB 091400Z 27004MPS 9999 SCT030CB M05/M10 Q1004 R30/820155 NOSIG RMK QFE711/0948", "UIII 091400Z 30003MPS 5000 BR FU FEW033CB M04/M05 Q1004 R30/950040 NOSIG RMK QFE709/0945", "UIUU 091400Z 33006MPS 300V360 9999 SCT040CB 00/M07 Q0999 R26/CLRD60 NOSIG RMK QFE706/0941", "ULAA 091400Z 30004MPS 9999 BKN038 04/M01 Q1031 R26/CLRD70 NOSIG RMK QFE772/1029", "ULLI 091400Z 07004MPS CAVOK 12/M06 Q1028 R88/090060 NOSIG", "ULMM 091400Z 33005MPS 9999 BKN032 03/M01 Q1033 R31/190060 NOSIG RMK QFE767", "ULOO 091400Z 32003MPS 290V350 CAVOK 15/M01 Q1025 R19/090060 NOSIG RMK QFE764", "ULPB 091400Z 09002MPS 030V130 CAVOK 10/M09 Q1030 R01/09//60 NOSIG RMK QFE768/1024", "ULWC 091400Z 04002MPS 9999 SCT026 12/M05 Q1026 R21/010060 NOSIG RMK QFE760/1013", "UMBB 091400Z 00000MPS 8000 BKN033CB 13/08 Q1022 NOSIG", "UMGG 091400Z 06005MPS 9999 SCT057CB BKN100 15/00 Q1023 NOSIG", "UMII 091300Z 24001MPS 9999 SCT040CB SCT100 15/02 Q1024 NOSIG", "UMIO 091400Z VRB01MPS CAVOK 16/01 Q1023 NOSIG RMK QFE750/1000", "UMKK 091400Z 32005MPS CAVOK 10/05 Q1025 R24/CLRD95 NOSIG RMK QFE767/1023", "UMMG 091300Z VRB01MPS 9999 SCT033 BKN066 15/07 Q1023 NOSIG", "UMMS 091400Z 05004MPS 010V100 9999 BKN059CB 16/04 Q1023 NOSIG", "UMOO 091300Z 05002MPS 9999 BKN051CB BKN/// 16/03 Q1024 NOSIG", "UNAA 091400Z 28005MPS CAVOK M04/M17 Q1020 R20/CLRD64 NOSIG RMK QFE742", "UNBB 091400Z 01003MPS 330V060 CAVOK M00/M09 Q1024 R24/CLRD66 NOSIG RMK QFE745", "UNEE 091400Z 25003MPS CAVOK M06/M15 Q1022 R23/CLRD60 NOSIG RMK QFE743", "UNKL 091400Z 29007MPS 9999 SCT044CB M08/M16 Q1016 R29/810150 NOSIG RMK QFE736", "UNNT 091400Z 28002MPS CAVOK M02/M15 Q1024 R25/120060 R34/////// NOSIG RMK QFE758/1011", "UNOO 091400Z 24003MPS CAVOK 03/M05 Q1023 R25/CLRD60 NOSIG RMK QFE759", "UNTT 091400Z 26002MPS CAVOK M06/M18 Q1021 R21/////// NOSIG RMK QFE751", "UNWW 091400Z 36002MPS CAVOK M04/M15 Q1023 R19/920245 NOSIG RMK QFE740", "UOOO 091400Z 06001MPS CAVOK M25/M27 Q1011 R01/810260 NOSIG RMK QFE744/0992", "URKA 091400Z 30003MPS 260V330 9999 FEW/// 13/07 Q1021 R22/010070 NOSIG RMK QFE761/1015", "URKK 091400Z 05004MPS 020V080 CAVOK 16/06 Q1021 R05R/CLRD70 NOSIG RMK QFE762", "URMG 091400Z 05002MPS 020V090 9999 SCT070 15/09 Q1022 R26/090070 NOSIG RMK QFE752/1003", "URML 091400Z 35004MPS 9999 NSC 17/10 Q1022 R32/01//70 NOSIG RMK QFE766/1022", "URMM 091400Z 10003MPS 9999 BKN060 14/07 Q1022 R12/090070 NOSIG RMK QFE738/0985", "URMN 091400Z 08002MPS 9999 OVC045CB 13/07 Q1021 R24/010070 NOSIG RMK QFE729", "URMO 091400Z VRB01MPS 9999 BKN034 13/07 Q1022 R09/010070 NOSIG RMK QFE723/0964", "URMT 091400Z 06003MPS 9999 SCT028 13/06 Q1022 R07/010070 NOSIG RMK QFE726", "URRP 091400Z 13004MPS 9999 SCT039CB 12/05 Q1023 R05/290050 TEMPO -TSRAGR BKN020CB RMK QFE762/1017", "URSS 091400Z 28004MPS 9999 NSC 13/06 Q1020 R02/010070 R06/010070 NOSIG RMK R06/32004G07MPS QFE763", "URWA 091400Z 02003MPS CAVOK 18/02 Q1022 R09/010070 NOSIG RMK QFE768/1025", "URWI 091400Z AUTO 11002MPS 080V160 9999 // ///053/// 15/03 Q1023", "URWW 091400Z VRB01MPS CAVOK 14/00 Q1023 R06/010070 NOSIG", "USCC 091400Z 27003MPS CAVOK 11/M09 Q1021 R27/000060 NOSIG RMK QFE746", "USCM 091400Z 19005MPS 9999 NSC 10/M11 Q1023 R36/090060 NOSIG RMK QFE728", "USDA 091400Z 10008MPS 6000 DRSN FEW003 M19/M22 Q1012 R04/420351 NOSIG RMK QBB110 QFE758/1010", "USHH 091400Z 29003MPS 250V320 CAVOK 05/M05 Q1011 R24/010060 NOSIG", "USNN 091400Z 20003MPS CAVOK M06/M09 Q1011 R21/450245 NOSIG RMK QFE753", "USPP 091400Z 29004MPS CAVOK 13/M11 Q1022 R21/090060 TEMPO 33006G13MPS RMK QFE756", "USRR 091400Z 17003MPS 140V200 CAVOK M00/M05 Q1009 R25/820255 NOSIG RMK QFE751", "USSS 091400Z 28006MPS CAVOK 12/M08 Q1021 R26R/010057 NOSIG RMK QFE745/0993", "USTR 091400Z 24004MPS CAVOK 10/M05 Q1018 R21/090065 R12/////99 NOSIG", "UTAA 091400Z 31016KT 7000 FEW050CB SCT050 OVC100 21/06 Q1018 R88/CLRD70 NOSIG", "UTAK 091400Z 29016KT 9999 FEW016 BKN200 12/08 Q1021 R34L/CLRD70 NOSIG", "UTAM 091400Z 31020G30KT 0300 DS VV003 26/03 Q1014 R88/CLRD70 TEMPO 31024G34KT -TSSHRA RMK QBB300", "UTAT 091400Z 33018G28KT 9999 FEW050CB OVC100 17/10 Q1016 R26/CLRD70 TEMPO 35018G28KT 3000 -TSRA", "UTAV 091400Z 03008KT CAVOK 26/11 Q1010 R13/19//55 NOSIG", "UTDD 091400Z VRB02MPS 9999 FEW066 20/07 Q1018 R09/CLRD// NOSIG RMK QFE695/0927", "UTDK 091400Z VRB01MPS 9999 SCT120 21/12 Q1017 R01/09//70 RMK QFE705/0940", "UTDL 091400Z 10002MPS 9999 FEW070CB SCT086 16/10 Q1017 R08/CLRD70 NOSIG RMK QFE723/0965", "UTDT 091400Z 00000MPS 9999 SCT100 22/12 Q1015 R35/CLRD70 RMK QFE721/0962", "UTFF 091400Z 16006KT 9999 NSC 19/07 Q1019 R18/CLRD70", "UTFN 091400Z 00000KT 9999 SCT050CB 19/09 Q1018 R28/CLRD70 NOSIG", "UTNN 091400Z 27014KT 9999 FEW050CB 15/10 Q1017 R33/290050 NOSIG", "UTNU 091400Z 36014KT CAVOK 20/07 Q1015 R31/CLRD70 NOSIG", "UTO8 M M M 997/-12/-14/1323+29/M/M PK WND 1331 1225Z 1001 45MM", "UTSA 091400Z 09014KT 9999 NSC 20/08 Q1013 R25/CLRD70 NOSIG", "UTSB 091400Z 06008KT 9999 FEW033 22/11 Q1012 R01/CLRD70 NOSIG", "UTSK 091400Z 05006KT CAVOK 25/08 Q1012 R16/CLRD70", "UTSS 091400Z 14008KT 9999 NSC 17/09 Q1015 R09/CLRD70 NOSIG", "UTST 091400Z 10004KT 9999 SCT066CB 25/11 Q1013 R25/CLRD70 NOSIG", "UTTT 091400Z 10004KT CAVOK 17/09 Q1017 R08L/CLRD70 NOSIG", "UUBC 091400Z 11003MPS 060V130 CAVOK 14/M01 Q1025 R31/CLRD60 NOSIG RMK QFE752/1002", "UUBP 091400Z 13004MPS CAVOK 15/02 Q1024 R34/////// NOSIG RMK QFE750/1000", "UUBW 091400Z 11004MPS CAVOK 14/M01 Q1026 R30/010060 NOSIG", "UUDD 091400Z 17003MPS CAVOK 13/M03 Q1026 R88/CLRD60 NOSIG", "UUDL 091400Z 02002MPS CAVOK 13/M02 Q1026 R23/010060 NOSIG RMK QFE761", "UUEE 091400Z 23004MPS 180V250 9999 FEW054CB 12/01 Q1025 R24L/CLRD62 R24C/CLRD62 NOSIG", "UUMO 091400Z VRB01MPS CAVOK 13/M01 Q1025 R07/CLRD60 NOSIG RMK QFE754/1006", "UUOB 091400Z 10004MPS CAVOK 13/03 Q1024 R11/010070 NOSIG", "UUOK 091400Z 21002MPS CAVOK 13/05 Q1024 R12/090060 NOSIG RMK QFE750/1000", "UUOL 091400Z 10003MPS 060V140 CAVOK 11/M02 Q1026 R15/////// NOSIG", "UUOO 091400Z 08003MPS CAVOK 12/M02 Q1026 R12/010070 NOSIG RMK QFE755", "UUWW 091400Z 19002MPS CAVOK 13/M01 Q1025 R24/000070 NOSIG", "UUYY 091400Z 32003G08MPS 9999 FEW033 10/M06 Q1023 R18/61D NOSIG RMK QFE759/1012", "UWGG 091400Z VRB01MPS CAVOK 13/M08 Q1026 R36R/090070 NOSIG", "UWKD 091400Z 23003MPS 200V260 CAVOK 12/M13 Q1025 R29/CLRD70 NOSIG RMK QFE758/1010", "UWKE 091400Z 34003MPS CAVOK 11/M12 Q1024 R21/090070 NOSIG RMK QFE752/1002", "UWKS 091400Z 06001MPS CAVOK 12/M12 Q1026 R06/010060 NOSIG RMK QFE754", "UWLL 091400Z 13002MPS 100V170 CAVOK 12/M10 Q1025 R20/090065 NOSIG RMK QFE759/1012", "UWLW 091400Z 34003MPS CAVOK 12/M08 Q1025 R02/CLRD60 NOSIG RMK QFE762/1016", "UWOO 091400Z 13002MPS 080V160 CAVOK 12/M12 Q1025 R08/CLRD60 NOSIG RMK QFE758/1011", "UWOR 091400Z 09002MPS CAVOK 11/M11 Q1024 R07/CLRD60 NOSIG RMK QFE743/0991", "UWPS 091400Z 01003MPS 340V050 CAVOK 13/M05 Q1025 R20/CLRD60 NOSIG RMK QFE751", "UWSG 091400Z 12002MPS CAVOK 13/M04 Q1024 R08/CLRD70 NOSIG RMK QFE766/1021", "UWUU 091400Z 33002MPS 300V360 CAVOK 13/M14 Q1024 R14R/0///60 NOSIG", "UWWW 091400Z VRB01MPS CAVOK 12/M15 Q1025 R15/CLRD60 NOSIG RMK QFE757/1009", "VAAH 091400Z 00000KT 4000 FU FEW020 35/10 Q1010 NOSIG", "VABB 091330Z 29004KT 3500 FU FEW100 32/18 Q1011 NOSIG", "VABO 091330Z 00000KT 6000 NSC 37/13 Q1010 NOSIG", "VABP 091400Z 14002KT 6000 SCT025 27/11 Q1014 NOSIG", "VAID 091400Z 34003KT 6000 FEW020 SCT100 30/07 Q1015 NOSIG", "VAJB 091400Z 05008KT 3500 HZ SCT025 SCT030 FEW035CB 31/17 Q1015 TEMPO 3000 -TSRA", "VANP 091400Z 33006KT 4000 HZ FEW020 BKN100 32/18 Q1014 NOSIG", "VAOZ 091400Z 19008KT 6000 TS SCT018 BKN030 FEW040CB 29/14 Q1015 TEMPO 3000 TSRA 15020G30KT", "VASD 091300Z 07013KT 4000 TS SCT020 FEW025 FEW030CB BKN080 29/12 Q1014 NOSIG", "VASU 091330Z 27004KT 6000 NSC 34/14 Q1010 NOSIG", "VAUD 091400Z 00000KT 6000 SCT030 29/09 Q1014 NOSIG", "VCBI 091310Z VRB02KT 9000 FEW016 FEW020CB 29/25 Q1011 NOSIG RMK CB N/SE", "VCRI 091310Z 10004KT 070V150 9999 FEW018 FEW020CB 28/26 Q1011 NOSIG RMK W", "VDPP 091400Z 19004KT 9000 SCT015 32/23 Q1010", "VDSR 091330Z 12003KT 9000 SCT015 30/24 Q1010", "VDSV 091400Z 06003KT 9000 SCT015 28/24 Q1012", "VEAT 091400Z 00000KT 3500 HZ NSC 29/23 Q1010 NOSIG", "VEBN 091400Z 21004KT 3000 HZ NSC 30/16 Q1011 NOSIG", "VEBS 091330Z 18007KT 4000 HZ FEW018 SCT100 31/28 Q1012 NOSIG", "VECC 091400Z 00000KT 3500 HZ FEW100 32/16 Q1009 NOSIG", "VEDG 091330Z 13004KT 4000 HZ NSC 30/14 Q1010 NOSIG", "VEGT 091400Z 00000KT 3000 BR FEW020 SCT100 30/27 Q1010 NOSIG", "VEGY 091300Z 30004KT 6000 NSC 34/10 Q1010", "VEJH 091400Z 23002KT 3000 HZ NSC 32/16 Q1012", "VEKI 091300Z 27007KT 4000 HZ NSC 30/04 Q1009 NOSIG", "VELR 091300Z 25001KT 3000 BR SCT020 BKN090 26/23 Q1010", "VEPT 091400Z 27004KT 4000 HZ FEW100 33/13 Q1010 NOSIG", "VERC 091400Z 00000KT 4500 HZ SCT100 31/15 Q1015 NOSIG", "VERP 091400Z 17004KT 5000 HZ SCT100 33/16 Q1012 NOSIG", "VGHS 091400Z 00000KT 4000 HZ NSC 30/19 Q1010 NOSIG", "VHHH 091400Z 10006KT 9999 FEW045 21/12 Q1017 NOSIG", "VIAR 091400Z 00000KT 5000 HZ NSC 28/13 Q1013 NOSIG", "VIDN 091330Z 03003KT 6000 SCT030 24/11 Q1014", "VIDP 091400Z 30004KT 4000 HZ NSC 30/00 Q1013 NOSIG", "VIJP 091400Z VRB03KT 5000 HZ NSC 31/M04 Q1014 NOSIG", "VILK 091400Z 32003KT 5000 HZ NSC 31/12 Q1011 NOSIG", "VLVT 091400Z 34004KT 4000 BR BKN200 28/25 Q1010 NOSIG", "VMMC 091330Z 12008KT 9999 FEW045 21/14 Q1016 NOSIG", "VNKT 091400Z 23005KT 7000 FEW015 22/02 Q1019 NOSIG", "VOAR 091300Z 10008KT 6000 FEW018 SCT100 31/22 Q1012 NOSIG", "VOBG 091300Z 10006KT 8000 FEW012 29/14 Q1017 NOSIG", "VOBL 091400Z 10008KT 8000 FEW015 28/12 Q1017 NOSIG", "VOBM 091300Z 06003KT 6000 NSC 32/15 Q1015", "VOBZ 091400Z 16003KT 5000 HZ NSC 31/20 Q1012 NOSIG", "VOCB 091400Z 06003KT 6000 FEW015 FEW020CB 31/13 Q1013 BECMG 5000 HZ", "VOCI 091400Z 24002KT 4000 BR SCT012 FEW025CB BKN080 30/26 Q1012 TEMPO 3000 TSRA", "VOCL 091400Z 25006KT 6000 FEW015 29/22 Q1011 NOSIG", "VOGA 091400Z 30006KT 4000 BR NSC 28/24 Q1012 NOSIG", "VOGO 091300Z 25008KT 6000 FEW090 30/25 Q1010 NOSIG", "VOHB 091300Z 12006KT 8000 NSC 34/07 Q1013", "VOHS 091400Z 11007KT 6000 FEW020 29/12 Q1017 NOSIG", "VOHY 091330Z 09007KT 6000 NSC 31/10 Q1015 NOSIG", "VOKN 091330Z 30004KT 5000 HZ FEW012 FEW025CB 30/25 Q1011 NOSIG", "VOMD 091400Z 23005KT 6000 FEW020 SCT100 29/22 Q1013 NOSIG", "VOML 091400Z 25004KT 6000 FEW015 30/23 Q1011 NOSIG", "VOMM 091400Z 11008KT 6000 SCT020 30/26 Q1012 NOSIG", "VOMY 091400Z 10004KT 6000 FEW015 30/14 Q1015", "VOPB 091300Z VRB02KT 5000 BR FEW014 SCT220 29/25 Q1011 NOSIG", "VORY 091400Z 21006KT 6000 NSC 32/23 Q1012 NOSIG", "VOTP 091400Z 04009KT 6000 FEW020 29/23 Q1013 NOSIG", "VOTR 091400Z 10010KT 6000 SCT016 31/23 Q1012 BECMG 5000 HZ", "VOTV 091400Z 00000KT 5000 HZ FEW015 BKN080 29/23 Q1011 NOSIG", "VOVZ 091330Z 23003KT 5000 HZ SCT018 FEW022TCU 30/19 Q1012 NOSIG", "VRMG 091400Z 00000KT 9999 FEW018 28/24 Q1011 NOSIG", "VRMH 091400Z 07008KT 9999 FEW018TCU BKN260 29/25 Q1011", "VRMM 091400Z 02003KT 9999 FEW018 29/26 Q1011TEMPO 5000 SHRA", "VTBD 091400Z 19009KT 9999 FEW020 31/25 Q1011 NOSIG", "VTBS 091400Z 21009KT 9999 FEW020 30/25 Q1011 NOSIG", "VTBU 091400Z 18008KT 9999 FEW020 29/25 Q1012 NOSIG", "VTCC 091400Z VRB02KT 6000 NSC 33/19 Q1010 NOSIG", "VTCL 091300Z 16005KT 120V200 CAVOK 33/20 Q1009 NOSIG", "VTCN 091300Z 18006KT CAVOK 33/21 Q1008 NOSIG", "VTCT 091400Z 00000KT 5000 FU NSC 30/22 Q1009 NOSIG", "VTPP 091400Z 17003KT 6000 NSC 31/23 Q1009 NOSIG", "VTSB 091400Z 33005KT 9999 FEW020 28/23 Q1011 NOSIG", "VTSF 091400Z 00000KT 9999 FEW018 28/25 Q1012 NOSIG", "VTSG 091400Z VRB01KT 9999 FEW030 SCT070 28/25 Q1012 NOSIG", "VTSM 091400Z VRB02KT 9999 FEW020 29/25 Q1013 NOSIG", "VTSP 091400Z 30003KT 9999 FEW020 28/24 Q1011 NOSIG", "VTSS 091400Z VRB02KT 9999 FEW020 27/24 Q1011 NOSIG", "VTST 091300Z 04003KT 010V070 9999 FEW030 29/23 Q1010 NOSIG", "VTUD 091400Z 00000KT 9999 FEW035 30/21 Q1011 NOSIG", "VTUI 091400Z 11002KT CAVOK 29/23 Q1011 NOSIG", "VTUK 091400Z VRB01KT 9000 NSC 30/23 Q1011 NOSIG", "VTUO 091300Z 10003KT 8000 NSC 32/22 Q1010 NOSIG", "VTUQ 091400Z VRB01KT 9000 NSC 28/23 Q1011 NOSIG", "VTUU 091400Z 29002KT 7000 NSC 30/23 Q1011 NOSIG", "VTUV 091400Z 00000KT CAVOK 28/25 Q1011 NOSIG", "VTUW 091400Z 12005KT 9000 NSC 28/22 Q1011 NOSIG", "VVCI 091400Z 07002KT 4100 BR SCT005 BKN007 BKN011 19/18 Q1014 NOSIG", "VVCR 091400Z 07011KT 9999 FEW015 27/23 Q1014 NOSIG", "VVCT 091400Z VRB03KT 8000 SCT015 28/22 Q1011 NOSIG", "VVDN 091400Z 36005KT 8000 FEW013 24/22 Q1014 NOSIG", "VVNB 091400Z 11006KT 3900 BR OVC005 19/18 Q1015 NOSIG", "VVPB 091400Z 30001KT 9999 SCT013 BKN040 23/21 Q1015 NOSIG", "VVPQ 091400Z VRB02KT CAVOK 27/24 Q1012 NOSIG", "VVTS 091400Z 17006KT 9999 FEW023 29/26 Q1012 NOSIG", "VVVD 091400Z 07003KT 3300 BR BKN006 OVC011 19/18 Q1015 NOSIG", "VYMD 091330Z 00000KT 6000 FEW020 28/15 Q1007", "VYYY 091400Z 16007KT 7000 NSC 30/24 Q1010 NOSIG", "WAAA 091330Z 06004KT 8000 FEW017CB SCT018 24/22 Q1011 NOSIG RMK CB IN APCH", "WABB 091330Z VRB02KT 9999 SCT018 27/25 Q1010 NOSIG", "WADD 091330Z 25008KT 9999 SCT016 28/26 Q1010 NOSIG", "WADL 091400Z 22004KT 7000 FEW015CB BKN016 25/23 Q1012 NOSIG RMK CB TO S", "WAHS 091330Z 28003KT 7000 SCT014 28/23 Q1011 NOSIG", "WAJJ 091400Z 35003KT 9999 FEW013 25/21 Q1009 NOSIG", "WALL 091330Z 00000KT 9000 FEW020 27/25 Q1010 NOSIG", "WAMM 091330Z VRB02KT 9999 SCT020 24/24 Q1011 NOSIG METAR ", "WAOO 091330Z 03002KT 9999 FEW018 27/25 Q1010", "WAPP 091330Z 34005KT 9999 SCT017 26/24 Q1010 NOSIG", "WARR 091330Z 33003KT 6000 -RA FEW018CB BKN020 25/25 Q1010 RETS NOSIG", "WBGB 091300Z VRB01KT 9999 FEW016 25/24 Q1011", "WBGG 091330Z 31004KT 280V340 9999 FEW020 26/23 Q1011 NOSIG", "WBGR 091300Z 32003KT 270V020 9999 SCT016 28/25 Q1010", "WBGS 091300Z VRB02KT 9999 SCT018 26/24 Q1010", "WBGY 091300Z AUTO VRB02KT //// // ////// 27/25 Q1010", "WBKK 091340Z 08004KT 020V130 6000 -TSRA SCT009 FEW016CB SCT030 25/24 Q1011 NOSIG", "WBKL 091300Z 35004KT 320V030 9999 FEW014 FEW017CB 27/23 Q1010", "WBKS 091300Z 04006KT 010V070 9999 FEW016 29/24 Q1010", "WBKT 091300Z 05005KT 340V100 9999 FEW014 29/25 Q1010", "WBKW 091300Z 00000KT 9999 FEW016 26/25 Q1010", "WBSB 091330Z 03006KT 8000 -SHRA FEW015 FEW016CB BKN280 27/25 Q1011 NOSIG", "WIDD 091330Z 03005KT 9999 FEW014 28/24 Q1013 NOSIG", "WIEE 091330Z 36006KT 9999 FEW020 24/23 Q1012 NOSIG", "WIHH 091330Z 28005KT 6000 FEW020 29/24 Q1011 NOSIG METAR ", "WIII 091400Z 26005KT 8000 FEW020 27/26 Q1012 NOSIG", "WILL 091300Z 04002KT 9999 BKN013 26/25 Q1011 NOSIG", "WIMM 091330Z 31004KT 4000 HZ SCT017 26/23 Q1011 NOSIG", "WIOO 091330Z 24005KT 6000 FEW015 26/24 Q1010 NOSIG", "WIPP 091330Z 03003KT 9000 FEW010 28/24 Q1011 NOSIG", "WMAU 091300Z 35004KT 290V060 9000 FEW020 28/24 Q1011", "WMBA 091300Z VRB02KT 9999 FEW031 28/25 Q1011", "WMKA 091300Z VRB02KT 9999 FEW030 29/25 Q1010", "WMKB 091300Z 13004KT 100V160 8000 FEW017CB 29/24 Q1010 NOSIG", "WMKC 091300Z 07005KT 030V120 9999 FEW020 28/24 Q1011", "WMKD 091300Z 33003KT 9999 FEW025 27/24 Q1011 NOSIG", "WMKE 091300Z AUTO VRB01KT //// // ////// 26/24 Q1011", "WMKI 091300Z VRB03KT 8000 FEW026 28/25 Q1011", "WMKJ 091300Z 05005KT 9999 FEW020 27/24 Q1010", "WMKK 091330Z 00000KT 9999 FEW030 27/25 Q1011 NOSIG", "WMKL 091300Z VRB02KT 9999 FEW026 29/25 Q1010", "WMKM 091300Z VRB01KT 9999 FEW029 25/24 Q1011", "WMKN 091300Z 04003KT 360V090 9999 FEW022 29/25 Q1011", "WMKP 091330Z 22008KT 8000 FEW025 29/26 Q1011 NOSIG", "WMSA 091300Z 30004KT 9999 FEW026 28/25 Q1011", "WSAP 091400Z 01005KT 9999 FEW018 BKN300 28/24 Q1012", "WSSL 091400Z 06006KT CAVOK 27/24 Q1011", "WSSS 091400Z 35006KT 9999 FEW018 BKN300 27/24 Q1011 NOSIG", "YAMB 091400Z AUTO 00000KT 9999 // NCD 12/09 Q1009 RF00.0/000.0", "YBAS 091400Z AUTO 34001KT 9999 // NCD 19/08 Q1016 RF00.0/000.0", "YBBN 091400Z AUTO 31005KT 9999 // NCD 16/08 Q1009 RF00/0/000/0", "YBCG 091400Z AUTO 23005KT 9999 // NCD 14/12 Q1008 RF00.0/000.0", "YBCS 091400Z AUTO 28002KT 9999 // NCD 23/20 Q1011 RF00.0/000.2", "YBHM 091400Z AUTO 34005KT 9999 // NCD 24/20 Q1011 RF00.0/000.0", "YBLN 091400Z AUTO 00000KT 9999 // BKN054 16/12 Q1012 RF00.0/000.0", "YBMA 091400Z AUTO 00000KT 9999 // NCD 15/07 Q1014 RF00.0/000.0", "YBRK 091400Z AUTO 00000KT 9999 // NCD 17/13 Q1011 RF00.0/000.0", "YBRM 091400Z AUTO 23005KT 9999 // NCD 30/27 Q1007 RF00.0/000.0", "YBSU 091400Z AUTO 30006KT 9999 // NCD 13/11 Q1010 RF00.0/000.0", "YBTL 091400Z AUTO 00000KT 9999 // NCD 23/20 Q1011 RF00.0/000.0", "YBWW 091400Z AUTO 33001KT 9999 // NCD 08/06 Q1011 RF00.0/000.0", "YCFS 091400Z AUTO 00000KT 9999 // NCD 11/09 Q1007 RF00.0/000.0", "YCIN 091400Z AUTO 00000KT 9999 // OVC110 27/24 Q1007 RF00.0/000.0", "YFRT 091400Z AUTO 12010KT 9999 // NCD 17/13 Q1013 RF00.0/000.2", "YGEL 091400Z AUTO 03005KT 9999 // NCD 15/12 Q1013 RF00.0/000.0", "YGLA 091400Z AUTO 22004KT 9999 // NCD 18/12 Q1011 RF00.0/000.0", "YHID 091400Z AUTO 19002KT 9999 // OVC098 25/25 Q1011 RF00.0/010.8", "YLHI 091401Z AUTO 24019G31KT 9999 -SHRA SCT047 BKN056 BKN065 20/13 Q1004", "YMAV 091400Z AUTO 25011KT 9999 // SCT027 SCT037 SCT042 10/09 Q1014", "YMHB 091400Z AUTO 24017KT 9999 -SHRA SCT030 SCT041 OVC057 08/05 Q1009", "YMLT 091400Z AUTO 19014KT 9999 // NCD 08/00 Q1009 RF00.0/000.0", "YMML 091352Z 24014KT 7000 -DZ FEW010 BKN017 BKN037 09/08 Q1014", "YPAD 091400Z 00000KT 9999 FEW017 12/09 Q1018", "YPCC 091400Z AUTO 21006KT 9999 // NCD 28/23 Q1012 RF00.0/000.0", "YPDN 091400Z AUTO 09009KT 9999 // SCT020 BKN050 OVC070 25/24 Q1009", "YPEA 091400Z AUTO 17005KT 9999 // SCT055 15/12 Q1013 RF00.0/000.0", "YPGV 091400Z AUTO 00000KT 9999 // NCD 26/25 Q1011 RF00.0/002.6", "YPJT 091400Z AUTO 00000KT 9999 // BKN055 16/13 Q1013 RF00.0/000.0", "YPKG 091400Z AUTO 14006KT 9999 // NCD 18/11 Q1012 RF00.0/000.0", "YPKU 091400Z AUTO 04003KT 9999 // NCD 26/24 Q1008 RF00.0/000.0", "YPLM 091400Z AUTO 23008KT 9999 // NCD 23/15 Q1011 RF00.0/000.0", "YPPD 091400Z AUTO 25007KT 9999 // NCD 27/22 Q1008 RF00.0/000.0", "YPPH 091400Z 18006KT 9999 FEW042 16/12 Q1013", "YPTN 091400Z AUTO 12007KT 9999 RA SCT086 OVC110 OVC125 24/23 Q1012", "YPWR 091400Z AUTO 11008KT 9999 // NCD 16/09 Q1016 RF00.0/000.0", "YPXM 091400Z AUTO 26004KT 9999 // OVC076 24/23 Q1014 RF00.0/002.2", "YSCB 091400Z AUTO 31012KT 9999 // NCD 09/04 Q1008 RF00.0/000.0", "YSDU 091400Z AUTO 25005KT 9999 // BKN050 09/04 Q1012 RF00.0/000.0", "YSNF 091400Z AUTO 31011KT 9999 // SCT024 OVC062 22/20 Q1007", "YSRI 091400Z AUTO /////KT 9999 // NCD ///// Q1008 RF//./////./", "YSSY 091400Z 27011KT 9999 FEW040 14/05 Q1007", "YSTW 091400Z AUTO 33007KT 9999 // NCD 10/05 Q1011 RF00.0/000.0", "YWLM 091400Z AUTO 29007KT 9999 // NCD 13/06 Q1008 RF00.0/000.0", "ZBAA 091400Z 07002MPS CAVOK 15/08 Q1004 NOSIG", "ZBAD 091400Z VRB02MPS CAVOK 18/10 Q1004 NOSIG", "ZBHH 091400Z 22001MPS 7000 NSC 11/M02 Q1007 NOSIG", "ZBSJ 091400Z 31003MPS CAVOK 18/07 Q1005 NOSIG", "ZBTJ 091400Z 20003MPS 8000 NSC 18/11 Q1005 NOSIG", "ZBYN 091400Z 20003MPS CAVOK 15/M05 Q1010 NOSIG", "ZGGG 091400Z VRB01MPS CAVOK 21/15 Q1016 NOSIG", "ZGHA 091400Z 18002MPS CAVOK 20/12 Q1014 NOSIG", "ZGKL 091400Z 00000MPS 6000 SCT033 OVC060 18/15 Q1016 NOSIG", "ZGNN 091400Z 11001MPS 2700 -DZ BR FEW002 SCT005 OVC030 18/17 Q1015 BECMG TL1520 3200", "ZGOW 091400Z 10002MPS 060V120 CAVOK 18/11 Q1018 NOSIG", "ZGSZ 091400Z 19003MPS CAVOK 21/15 Q1017 NOSIG", "ZHCC 091400Z 20003MPS 160V230 CAVOK 20/09 Q1010 NOSIG", "ZHHH 091400Z VRB01MPS CAVOK 18/07 Q1013 NOSIG", "ZJHK 091400Z 10003MPS 8000 BKN005 BKN016 21/21 Q1015 NOSIG", "ZJSY 091400Z 10004MPS 9000 -RA SCT017 BKN033 25/23 Q1015 NOSIG", "ZLLL 091400Z 33002MPS 7000 NSC 07/M12 Q1015 NOSIG", "ZLXY 091400Z 01002MPS 350V050 CAVOK 16/10 Q1010 NOSIG", "ZMCK 091400Z 29011MPS 9999 SCT100 01/M13 Q0996 NOSIG RMK QFE633.8 34 NT", "ZMUB 091400Z 32009G14MPS 280V350 9999 FEW033 SCT100 01/M05 Q0996 NOSIG RMK QFE642.2 63 NT", "ZPPP 091400Z 21006MPS CAVOK 19/02 Q1019 NOSIG", "ZSAM 091400Z 04003MPS CAVOK 16/11 Q1018 NOSIG", "ZSFZ 091400Z 36003MPS 330V030 CAVOK 15/11 Q1019 NOSIG", "ZSHC 091400Z 08002MPS CAVOK 15/09 Q1016 NOSIG", "ZSNB 091400Z 16004MPS CAVOK 14/08 Q1019 NOSIG", "ZSNJ 091400Z 12003MPS CAVOK 16/08 Q1014 NOSIG", "ZSOF 091400Z 15003MPS CAVOK 17/08 Q1013 NOSIG", "ZSPD 091400Z 16003MPS CAVOK 11/08 Q1018 NOSIG", "ZSQD 091400Z 16005MPS CAVOK 12/08 Q1011 NOSIG", "ZSSS 091400Z 15004MPS CAVOK 14/08 Q1018 NOSIG", "ZUCK 091400Z 01003MPS CAVOK 19/10 Q1013 NOSIG", "ZUGY 091400Z 10002MPS 9999 SCT015 OVC033 15/12 Q1016 NOSIG", "ZUTF 091400Z 35003MPS 9999 -RA NSC 21/10 Q1014 NOSIG", "ZUUU 091400Z 01003MPS 9999 FEW050TCU FEW050 20/11 Q1015 NOSIG", "ZWSH 091400Z VRB05MPS 9999 SCT040 21/M09 Q1012 NOSIG", "ZWWW 091400Z 24004MPS 9999 -SHRA FEW030 BKN046 09/06 Q1024 NOSIG", "ZYCC 091400Z 21007G12MPS CAVOK 14/M00 Q1004 NOSIG", "ZYHB 091400Z 20003MPS 7000 NSC 13/03 Q1001 NOSIG", "ZYTL 091400Z 19005MPS 150V240 CAVOK 15/04 Q1009 NOSIG", "ZYTX 091400Z 16005MPS CAVOK 14/03 Q1007 NOSIG"]}