station_id,raw_text
AGGA,TAF AGGA 241710Z 2418/2518 18010KT 9999 SCT018
AGGC,TAF AGGC 241710Z 2418/2518 01005KT 9999 SCT018
AGGH,TAF AGGH 241710Z 2418/2518 36010KT 9999 SCT018 T 23 26 30 31 Q 1008 1010 1010 1008
AGGK,TAF AGGK 241710Z 2418/2518 05010KT 9999 SCT018
AGGL,TAF AGGL 241710Z 2418/2518 14010KT 9999 SCT018
AGGM,TAF AGGM 241710Z 2418/2518 04005KT 9999 SCT018
AGGN,TAF AGGN 241710Z 2418/2518 04005KT 9999 SCT018
AGGR,TAF AGGR 241710Z 2418/2518 08010KT 9999 SCT018
ANYN,TAF ANYN 241540Z 2418/2518 09008KT 9999 FEW020
AYPY,TAF AYPY 241500Z 2418/2518 09005KT 9999 SCT030 FM242200 09005KT 9999 SCT020 SCT140 FM250300 19005KT 9999 -SHRA SCT018 BKN130 INTER 2504/2509 5000 TSRA BKN010 FEW018CB PROB30 2419/2421 VRB03KT 0600 FG
BGSF,TAF AMD BGSF 242017Z 2420/2524 29008KT 9999 FEW012 SCT020 BKN060 BECMG 2501/2504 BKN200
BGTL,TAF BGTL 241900Z 2419/2601 17010G15KT 9000 -SN FEW010 BKN030 OVC055 620309 520001 540103 QNH2955INS BECMG 2423/2424 12020G30KT 6000 -SN BKN010 OVC020 620109 530009 QNH2975INS BECMG 2505/2506 12030G40KT 5000 -SN SCT020 BKN025 OVC040 620259 560006 QNH2972INS BECMG 2515/2517 11035G45KT 9999 NSW SCT020 BKN040 OVC055 620409 560006 QNH2966INS TX01/2519Z TNM05/2423Z LAST NO AMDS AFT 2419 NEXT 2422
BIAR,TAF BIAR 241930Z 2421/2521 23034G45KT 9999 -RA SCT035 BKN045 TX15/2421Z TN03/2511Z TEMPO 2421/2507 23035G55KT RA BKN014 OVC030 BECMG 2507/2509 33025G35KT PROB40 TEMPO 2507/2516 3000 RA BR OVC012 BECMG 2519/2521 34015KT
BIEG,TAF BIEG 241934Z 2421/2521 21020G30KT 9999 SCT035 BKN055 TX16/2421Z TN04/2518Z BECMG 2421/2423 22030G40KT BECMG 2505/2507 29032G42KT TEMPO 2507/2519 32042G52KT RA BKN015 OVC030
BIIS,TAF BIIS 241601Z 2417/2502 22028G38KT 9999 -RA FEW018 OVC025 TEMPO 2417/2502 23042G55KT 0500 RA FG VV002
BIKF,TAF BIKF 241925Z 2421/2521 21036G46KT 7000 -RADZ BKN006 OVC012 TX11/2421Z TN05/2521Z TEMPO 2421/2423 1000 RADZ BR OVC003 BECMG 2423/2501 27046G57KT 9999 NSW SCT020 BKN035 BECMG 2508/2510 33030G40KT BECMG 2510/2512 35020G30KT BECMG 2513/2515 34015KT BECMG 2517/2519 28005KT
BIRK,TAF BIRK 241928Z 2421/2521 21032G42KT 7000 -RADZ BKN010 OVC016 TX12/2421Z TN06/2521Z TEMPO 2421/2422 2000 RADZ BR OVC004 BECMG 2422/2500 27042G52KT 9999 NSW SCT025 BKN035 PROB40 TEMPO 2506/2511 RADZ BKN008 OVC018 BECMG 2507/2509 29030G42KT BECMG 2509/2511 35020G30KT BECMG 2513/2515 34015KT
BIVM,TAF BIVM 241601Z 2417/2502 25025G35KT 9999 -DZ BKN014 OVC022 TEMPO 2419/2502 4000 DZ BR OVC006 BECMG 2419/2421 25035G45KT
BKPR,TAF BKPR 241730Z 2418/2518 22007KT CAVOK TEMPO 2504/2507 3000 BR
CBBC,TAF AMD CBBC 242007Z 2420/2505 10005KT P6SM OVC030 TEMPO 2420/2422 2SM -SHRA BR OVC020 FM242200 10005KT 6SM -RA BR OVC020 TEMPO 2422/2505 2SM -RA BR OVC008 RMK FCST BASED ON AUTO OBS. NXT FCST BY 250100Z
CWWU,TAF CWWU 241200Z 2412/2512 16020G35KT P6SM FEW020 SCT080 BKN200 FM242100 16020G30KT P6SM BKN015 BKN020 FM250300 20020G30KT P6SM BKN020 BECMG 2506/2508 20015G25KT RMK NXT FCST BY 241800Z 
CYAM,TAF CYAM 241941Z 2420/2508 12005KT P6SM SCT025 OVC060 TEMPO 2420/2424 P6SM -SHRA BKN025 OVC060 FM250000 11008KT P6SM -SHRA SCT020 OVC040 TEMPO 2500/2503 3SM -SHRA BR SCT008 OVC020 FM250300 06006KT 6SM -SHRA BR SCT008 OVC020 PROB30 2503/2506 3SM -SHRA BR BKN008 OVC020 FM250600 06006KT 3SM -SHRA BR BKN008 OVC012 RMK NXT FCST BY 250200Z
CYAY,TAF AMD CYAY 242010Z 2420/2508 10020G30KT P6SM FEW006 SCT040 TEMPO 2420/2424 5SM BR SCT006 BKN040 FM250000 12020G30KT P6SM OVC030 TEMPO 2500/2508 5SM -SHRA BR OVC020 BECMG 2504/2506 14030G45KT RMK FCST BASED ON AUTO OBS. NXT FCST BY 250200Z
CYAZ,TAF CYAZ 241840Z 2419/2501 VRB03KT P6SM SCT004 BKN080 OVC200 TEMPO 2419/2421 1SM BR BKN004 OVC080 FM242100 28010KT P6SM FEW010 SCT060 OVC120 RMK NXT FCST BY 251500Z
CYBB,TAF CYBB 241840Z 2419/2424 20015KT P6SM -RA BKN012 TEMPO 2419/2424 SCT012 BKN040 RMK NXT FCST BY 251900Z
CYBC,TAF CYBC 241940Z 2420/2508 33015G25KT P6SM FEW040 BECMG 2422/2424 30010KT BECMG 2504/2506 28008KT RMK FCST BASED ON AUTO OBS. NXT FCST BY 250200Z
CYBG,TAF CYBG 242040Z 2421/2518 28015G25KT P6SM FEW050 BECMG 2423/2501 29010KT BECMG 2505/2507 28005KT FM251500 30005KT P6SM BKN050 RMK NXT FCST BY 250000Z
CYBK,TAF CYBK 241740Z 2418/2506 22015KT P6SM FEW040 SCT180 BECMG 2419/2421 28018KT FM242300 28018KT P6SM SCT020 BKN030 TEMPO 2423/2506 BKN020 BECMG 2502/2504 32020KT RMK NXT FCST BY 250000Z
CYBL,TAF CYBL 241840Z 2419/2504 VRB03KT P6SM FEW008 SCT020 BKN080 TEMPO 2419/2421 SCT008 BKN020 OVC080 FM242100 08006KT P6SM BKN060 OVC120 BECMG 2500/2502 30005KT RMK NXT FCST BY 250100Z
CYBR,TAF CYBR 241740Z 2418/2506 27010KT P6SM FEW020 SCT120 BECMG 2418/2420 30018G28KT FM250000 31015G25KT P6SM FEW060 BECMG 2502/2504 31012G22KT RMK NXT FCST BY 250000Z
CYBW,TAF CYBW 241140Z 2412/2424 30005KT P6SM SCT120 FM241600 32012KT P6SM SKC RMK FCST BASED ON AUTO OBS. NXT FCST BY 241800Z
CYBX,TAF CYBX 241940Z 2420/2508 07025G35KT P6SM SCT015 BKN040 TEMPO 2420/2424 BKN015 OVC040 BECMG 2420/2422 10020G30KT FM250000 12020G30KT P6SM BKN025 OVC080 TEMPO 2500/2506 P6SM -SHRA BKN015 OVC025 FM250600 12025G35KT 6SM -SHRA SCT008 OVC015 TEMPO 2506/2508 4SM SHRA BR SCT006 OVC008 BECMG 2506/2508 18045G55KT RMK NXT FCST BY 250200Z
CYCA,TAF CYCA 241940Z 2420/2508 03010G20KT 1SM -DZ -RA BR OVC004 TEMPO 2420/2422 4SM -DZ -RA BR OVC008 BECMG 2420/2422 13010KT FM242200 13010KT P6SM OVC008 BECMG 2422/2424 SCT012 FM250200 14010KT P6SM BKN012 FM250600 14010KT P6SM -RA BKN012 OVC060 RMK FCST BASED ON AUTO OBS. NXT FCST BY 250200Z
CYCB,TAF CYCB 241840Z 2419/2507 36025G35KT P6SM OVC020 TEMPO 2419/2420 3SM -SN OVC008 FM242000 35025G35KT P6SM SCT008 BKN025 TEMPO 2420/2507 5SM -SN BR BKN008 BECMG 2501/2503 35020KT RMK NXT FCST BY 250100Z
CYCD,TAF CYCD 241741Z 2418/2504 VRB03KT P6SM SCT100 FM242100 05005KT P6SM SCT240 RMK NXT FCST BY 250000Z
CYCG,TAF CYCG 241840Z 2419/2504 34005KT P6SM SCT220 RMK NXT FCST BY 250100Z
CYCO,TAF CYCO 241840Z 2419/2507 36015G25KT P6SM SCT015 BKN025 TEMPO 2419/2507 BKN015 RMK NXT FCST BY 250100Z
CYCY,TAF CYCY 241840Z 2419/2507 20015KT P6SM SCT015 BKN070 TEMPO 2419/2423 P6SM -SG -SN BKN015 OVC030 FM242300 17020G30KT 3SM -SN BR SCT007 OVC020 TEMPO 2423/2505 1SM -SN BLSN OVC006 FM250500 17015G25KT P6SM FEW020 OVC040 TEMPO 2505/2507 BKN020 RMK FCST BASED ON AUTO OBS. NXT FCST BY 250100Z
CYDA,TAF CYDA 242046Z 2421/2502 04005KT P6SM SCT007 BKN180 TEMPO 2421/2423 BKN007 RMK NXT FCST BY 251400Z
CYDB,TAF CYDB 241740Z 2418/2506 16015G25KT P6SM FEW100 BECMG 2500/2502 14012KT RMK NXT FCST BY 250000Z
CYDF,TAF CYDF 241940Z 2420/2508 14020G40KT P6SM BKN030 OVC060 TEMPO 2420/2504 P6SM -SHRA BKN020 OVC030 BECMG 2500/2502 18025G40KT FM250400 18025G40KT P6SM -SHRA OVC025 TEMPO 2504/2508 5SM -SHRA BR SCT008 OVC015 BECMG 2504/2506 22020G35KT RMK NXT FCST BY 250200Z
CYDL,TAF CYDL 241740Z 2418/2424 VRB03KT P6SM OVC060 TEMPO 2418/2420 BKN050 BECMG 2418/2420 20008KT FM242000 20008KT P6SM SCT080 TEMPO 2420/2424 BKN080 RMK FCST BASED ON AUTO OBS. NXT FCST BY 251300Z
CYDN,TAF AMD CYDN 242129Z 2421/2506 30012G22KT P6SM FEW080 TEMPO 2421/2423 BKN080 FM250000 28012G22KT P6SM SKC RMK FCST BASED ON AUTO OBS. DP SENSOR INOP. NXT FCST BY 250000Z
CYDP,TAF CYDP 241940Z 2420/2423 03015G25KT 3SM -DZ -RA BR OVC008 TEMPO 2420/2421 P6SM NSW SCT008 OVC015 FM242100 03020G30KT 2SM RA BR OVC006 TEMPO 2421/2423 6SM -RA BR SCT006 OVC010 BECMG 2421/2423 03025G40KT RMK NXT FCST BY 251000Z
CYDQ,TAF CYDQ 241840Z 2419/2505 26017G27KT P6SM SKC BECMG 2502/2504 24012KT RMK FCST BASED ON AUTO OBS. NXT FCST BY 250100Z
CYEG,TAF CYEG 242040Z 2421/2518 30015G25KT P6SM FEW070 BECMG 2423/2501 VRB03KT FM251500 24005KT P6SM SCT080 RMK NXT FCST BY 250000Z
CYEK,TAF CYEK 241740Z 2418/2506 21010KT P6SM FEW200 FM250300 26010KT P6SM SCT040 TEMPO 2503/2506 P6SM -RA BKN030 BECMG 2504/2506 35015KT RMK NXT FCST BY 250000Z
CYEN,TAF CYEN 241740Z 2418/2424 31015G25KT P6SM SKC BECMG 2418/2420 31020G30KT BECMG 2422/2424 31015G25KT RMK FCST BASED ON AUTO OBS. NXT FCST BY 251200Z
CYEU,TAF AMD CYEU 241809Z 2418/2502 11012KT P6SM -SN SCT015 OVC030 TEMPO 2418/2423 2SM -SN BKN015 BKN030 FM242300 14012KT P6SM SCT020 OVC040 TEMPO 2423/2502 4SM -SN OVC015 RMK ADVISORY OFFSITE. NXT FCST BY 250000Z
CYEV,TAF CYEV 241840Z 2419/2507 08008KT P6SM SCT008 OVC020 TEMPO 2419/2507 OVC008 RMK NXT FCST BY 250100Z
CYFB,TAF CYFB 241740Z 2418/2518 14012KT P6SM FEW030 FM250200 14012KT P6SM FEW005 SCT010 TEMPO 2502/2515 4SM BR SCT005 OVC010 PROB30 2502/2513 2SM BR OVC005 FM251500 14010KT P6SM FEW005 RMK NXT FCST BY 250000Z
CYFC,TAF CYFC 241741Z 2418/2506 29015G30KT P6SM SCT100 BECMG 2419/2421 29015G25KT BECMG 2422/2424 27012KT RMK FCST BASED ON AUTO OBS. NXT FCST BY 250000Z
CYFS,TAF CYFS 241740Z 2418/2506 VRB03KT P6SM BKN050 TEMPO 2418/2419 P6SM -SHRA FM241900 VRB03KT P6SM FEW050 SCT140 RMK NXT FCST BY 250000Z
CYGH,TAF AMD CYGH 241903Z 2419/2423 VRB03KT P6SM OVC008 TEMPO 2419/2423 SCT008 OVC020 RMK NXT FCST BY 261400Z
CYGK,TAF CYGK 241945Z 2420/2503 22010KT P6SM FEW040 SCT240 RMK NXT FCST BY 251200Z
CYGL,TAF CYGL 241740Z 2418/2518 27005KT P6SM SKC FM250700 VRB03KT P6SM SKC PROB30 2507/2513 1/2SM FG VV002 FM251600 11005KT P6SM BKN040 RMK NXT FCST BY 250000Z
CYGP,TAF CYGP 241940Z 2420/2508 30018G28KT P6SM -RA SCT015 OVC040 TEMPO 2420/2424 4SM -RA BR OVC015 FM250000 30015G25KT P6SM SCT020 OVC060 TEMPO 2500/2502 P6SM -RA BKN020 OVC060 FM250200 30015G25KT P6SM SCT040 BECMG 2502/2504 28012KT RMK NXT FCST BY 250200Z
CYGQ,TAF CYGQ 241942Z 2420/2508 19005KT P6SM BKN040 OVC140 FM250600 24005KT P6SM BKN015 OVC040 RMK FCST BASED ON AUTO OBS. NXT FCST BY 250200Z
CYGV,TAF CYGV 241940Z 2420/2508 01020G40KT P6SM FEW040 BKN090 TEMPO 2420/2506 P6SM -RA BKN040 OVC090 BECMG 2500/2502 33015G25KT FM250600 29012G22KT P6SM BKN040 TEMPO 2506/2508 P6SM -SHRA RMK FCST BASED ON AUTO OBS. NXT FCST BY 250200Z
CYGW,TAF CYGW 241740Z 2418/2506 30005KT P6SM SKC BECMG 2420/2422 VRB03KT RMK FCST BASED ON AUTO OBS. NXT FCST BY 250000Z
CYGX,TAF CYGX 241840Z 2419/2507 24008KT P6SM BKN100 FM250200 26008KT P6SM SCT090 TEMPO 2502/2507 BKN090 RMK NXT FCST BY 250100Z
CYHD,TAF AMD CYHD 242145Z 2421/2508 16005KT P6SM OVC015 TEMPO 2421/2504 3SM -RA -DZ BR OVC008 FM250400 22005KT 4SM -SHRA BR BKN006 OVC015 PROB30 2504/2508 BKN004 OVC012 RMK FCST BASED ON AUTO OBS. NXT FCST BY 250200Z
CYHI,TAF CYHI 241840Z 2419/2424 01012KT P6SM FEW015 TEMPO 2419/2424 BKN015 RMK NXT FCST BY 251600Z
CYHK,TAF AMD CYHK 242200Z 2422/2506 25010KT 1/2SM -RA FG OVC004 TEMPO 2422/2504 4SM BR OVC008 BECMG 2502/2504 34025KT FM250400 34025KT P6SM SCT005 OVC015 TEMPO 2504/2506 2SM -SN BLSN OVC005 PROB30 2504/2506 3/4SM -SN BLSN VV003 RMK FCST BASED ON AUTO OBS. NXT FCST BY 250000Z
CYHM,TAF CYHM 241740Z 2418/2518 VRB03KT P6SM FEW040 BKN180 FM242000 20007KT P6SM SCT040 BKN100 FM242300 20006KT P6SM BKN040 OVC080 TEMPO 2423/2504 P6SM -SHRA BKN020 OVC040 FM250400 18005KT P6SM -SHRA BKN025 OVC040 TEMPO 2504/2507 4SM -SHRA BR BKN008 OVC025 FM250700 20005KT 6SM -SHRA BR SCT012 OVC025 TEMPO 2507/2514 2SM -SHRA BR BKN005 OVC012 BECMG 2514/2515 25008KT RMK NXT FCST BY 250000Z
CYHU,TAF CYHU 241740Z 2418/2518 27010G20KT P6SM SKC BECMG 2422/2424 26010KT FM250800 24008KT P6SM SCT160 BECMG 2510/2512 19007KT FM251200 19007KT P6SM SCT040 BKN140 FM251500 20010KT P6SM BKN040 BKN120 RMK FCST BASED ON AUTO OBS. NXT FCST BY 250000Z
CYHY,TAF CYHY 241740Z 2418/2506 30012KT P6SM FEW040 BKN080 TEMPO 2418/2506 FEW040 SCT080 BECMG 2501/2503 10008KT RMK NXT FCST BY 250000Z
CYHZ,TAF CYHZ 242042Z 2421/2518 28015G25KT P6SM BKN040 BKN170 BECMG 2422/2424 28012KT FM250300 27012KT P6SM SCT040 FM250600 26010KT P6SM FEW030 BECMG 2516/2518 22012KT RMK NXT FCST BY 250000Z
CYIO,TAF AMD CYIO 242011Z 2420/2507 06008KT P6SM -SN SCT020 OVC040 TEMPO 2420/2503 2 1/2SM -SN OVC015 FM250300 10010KT 1SM -SN BR OVC010 TEMPO 2503/2507 3SM -SN SCT010 OVC025 RMK FCST BASED ON AUTO OBS. AUTO OBS REP NON-REPRESENTATIVE CLD. NXT FCST BY 250100Z
CYIV,TAF AMD CYIV 242138Z 2421/2507 24006KT P6SM SCT015 BKN030 TEMPO 2421/2502 5SM -SHRA BR BKN020 OVC040 FM250200 26006KT 5SM -SHRA BR OVC015 TEMPO 2502/2506 P6SM NSW SCT015 OVC025 PROB30 2502/2506 OVC009 RMK FCST BASED ON AUTO OBS. NXT FCST BY 250100Z
CYJT,TAF CYJT 241740Z 2418/2518 14040G60KT P6SM BKN040 OVC060 TEMPO 2418/2424 P6SM -SHRA BKN020 OVC040 FM250000 16035G55KT P6SM -SHRA OVC020 TEMPO 2500/2502 4SM SHRA BR OVC008 BECMG 2500/2502 22035G45KT FM250200 22035G45KT 2SM SHRA BR SCT004 OVC006 FM250600 24025G35KT 6SM -SHRA BR OVC008 FM251000 24020G30KT P6SM -SHRA SCT008 OVC015 FM251400 24020G30KT P6SM BKN030 RMK NXT FCST BY 250000Z
CYKA,TAF CYKA 241840Z 2419/2507 VRB03KT P6SM FEW140 BECMG 2419/2421 07008KT RMK NXT FCST BY 250100Z
CYKF,TAF CYKF 241954Z 2420/2508 19008KT P6SM SCT040 OVC100 TEMPO 2420/2502 P6SM -SHRA BKN040 OVC100 FM250200 18007KT 6SM -RA BR BKN025 OVC040 TEMPO 2502/2504 3SM -SHRA BR BKN012 OVC025 FM250400 16007KT 2SM -SHRA BR BKN005 OVC012 TEMPO 2504/2508 6SM -RA BR SCT005 OVC012 RMK FCST BASED ON AUTO OBS. NXT FCST BY 250200Z
CYKL,TAF CYKL 241941Z 2420/2508 06008G18KT P6SM SCT020 BKN060 TEMPO 2420/2423 BKN020 OVC060 FM242300 03010G20KT P6SM -SHRA BKN015 OVC030 TEMPO 2423/2503 3SM -RASN BR BKN008 OVC015 FM250300 36012G22KT 3SM -RASN BR BKN008 OVC015 PROB30 2503/2508 2SM -SN -FZDZ BR BKN005 OVC012 RMK FCST BASED ON AUTO OBS. NXT FCST BY 250200Z
CYLD,TAF CYLD 241941Z 2420/2501 18005KT P6SM FEW050 BKN160 BECMG 2422/2424 10005KT RMK NXT FCST BY 251200Z
CYLL,TAF CYLL 241740Z 2418/2506 30020G30KT P6SM SKC BECMG 2501/2503 30010KT RMK NXT FCST BY 250000Z
CYLW,TAF CYLW 241840Z 2419/2507 VRB03KT P6SM FEW220 BECMG 2419/2421 34010KT BECMG 2503/2505 VRB03KT RMK FCST BASED ON AUTO OBS. NXT FCST BY 250100Z
CYMA,TAF AMD CYMA 241924Z 2419/2506 VRB03KT P6SM FEW020 SCT120 TEMPO 2419/2422 BKN090 RMK NXT FCST BY 250000Z
CYMH,TAF AMD CYMH 242204Z 2422/2503 13005KT WS010/14040KT 2SM -RA BR OVC003 TEMPO 2422/2424 6SM BR SCT003 BKN050 FM250000 14012KT P6SM SCT012 BKN050 TEMPO 2500/2503 5SM -RA BR BKN012 OVC050 RMK FCST BASED ON AUTO OBS. NXT FCST BY 250900Z
CYMJ,TAF AMD CYMJ 241304Z 2413/2501 26008KT P6SM SCT090 BKN140 BKN220 BECMG 2415/2417 30015G25KT RMK NXT FCST BY 241800Z
CYMM,TAF CYMM 241840Z 2419/2507 30018G28KT P6SM FEW140 BECMG 2423/2501 28010KT BECMG 2505/2507 22005KT RMK FCST BASED ON AUTO OBS. NXT FCST BY 250100Z
CYMO,TAF CYMO 241740Z 2418/2506 20010KT P6SM SKC FM242100 25008KT P6SM SCT040 TEMPO 2421/2503 BKN040 BECMG 2422/2424 26006KT FM250300 23005KT P6SM SCT040 RMK FCST BASED ON AUTO OBS. NXT FCST BY 250000Z
CYMT,TAF CYMT 241740Z 2418/2424 30008KT P6SM SKC FM242100 30010KT P6SM SCT040 BECMG 2422/2424 BKN040 RMK FCST BASED ON AUTO OBS. NXT FCST BY 251200Z
CYMX,TAF CYMX 241740Z 2418/2518 30008G18KT P6SM FEW050 BECMG 2422/2424 26005KT FM250600 VRB03KT P6SM SCT180 FM251200 VRB03KT P6SM SCT040 BKN120 FM251500 22005KT P6SM BKN040 BKN100 RMK NXT FCST BY 250000Z
CYNA,TAF CYNA 241940Z 2420/2508 01020G30KT 5SM -RA BR BKN020 OVC040 TEMPO 2420/2503 P6SM -RA SCT020 OVC040 FM250300 34020G30KT P6SM SCT020 BKN040 TEMPO 2503/2508 P6SM -RA BKN020 OVC040 BECMG 2504/2506 28015G25KT RMK FCST BASED ON AUTO OBS. NXT FCST BY 250200Z
CYND,TAF CYND 241740Z 2418/2501 26012KT P6SM FEW040 BECMG 2423/2501 29005KT RMK NXT FCST BY 251300Z
CYNE,TAF CYNE 241840Z 2419/2507 23006KT P6SM FEW160 FM242200 30008KT P6SM SCT060 TEMPO 2422/2424 BKN060 FM250400 30010KT P6SM BKN040 RMK FCST BASED ON AUTO OBS. NXT FCST BY 250100Z
CYOC,TAF CYOC 241840Z 2419/2501 04005KT P6SM FEW030 OVC060 TEMPO 2419/2423 P6SM -SN BKN030 BECMG 2420/2422 06008KT FM242300 06008KT P6SM -RA SCT020 OVC040 TEMPO 2423/2501 2SM -RASN BR OVC020 RMK NXT FCST BY 251500Z
CYOD,TAF CYOD 242040Z 2421/2518 29015G25KT P6SM FEW060 BECMG 2500/2502 28008KT FM250900 VRB03KT P6SM SKC PROB30 2511/2514 1SM BR RMK NXT FCST BY 250000Z
CYOJ,TAF CYOJ 241840Z 2419/2507 VRB03KT P6SM FEW060 SCT120 BECMG 2419/2421 29012G22KT BECMG 2500/2502 VRB03KT RMK NXT FCST BY 250100Z
CYOO,TAF CYOO 242001Z 2420/2508 17006KT P6SM FEW080 BKN160 FM250100 14006KT P6SM SCT040 OVC080 TEMPO 2501/2505 P6SM -SHRA BKN040 OVC080 FM250500 08005KT P6SM -SHRA SCT012 OVC025 TEMPO 2505/2507 4SM -SHRA BR BKN012 OVC025 FM250700 07005KT 6SM -RA BR SCT006 OVC012 TEMPO 2507/2508 3SM -RA BR BKN006 OVC012 RMK FCST BASED ON AUTO OBS. NXT FCST BY 250200Z
CYOW,TAF CYOW 242041Z 2421/2518 28010G20KT P6SM FEW050 FM250600 VRB03KT P6SM BKN040 BKN140 FM251000 VRB03KT P6SM SCT040 BKN080 PROB30 2510/2513 2SM BR FM251500 11005KT P6SM BKN060 OVC100 RMK NXT FCST BY 250000Z
CYPA,TAF CYPA 241840Z 2419/2507 29015G25KT P6SM SKC BECMG 2420/2422 29018G28KT FM250000 32012KT P6SM FEW060 BECMG 2504/2506 30006KT RMK NXT FCST BY 250100Z
CYPC,TAF CYPC 241840Z 2419/2423 VRB03KT P6SM SCT012 OVC030 TEMPO 2419/2423 P6SM -SN OVC012 RMK NXT FCST BY 251500Z
CYPE,TAF CYPE 241840Z 2419/2507 28018G28KT P6SM SKC BECMG 2501/2503 28010G20KT RMK NXT FCST BY 250100Z
CYPG,TAF CYPG 241740Z 2418/2506 30012KT P6SM FEW020 BKN080 FM242200 32010KT P6SM SCT070 BECMG 2423/2501 30005KT RMK NXT FCST BY 250000Z
CYPH,TAF AMD CYPH 242145Z 2421/2506 19010KT P6SM SCT008 TEMPO 2421/2502 5SM BR BKN008 BECMG 2500/2502 14010KT FM250200 14010KT P6SM SCT015 TEMPO 2502/2506 BKN015 RMK FCST BASED ON AUTO OBS. NXT FCST BY 250000Z
CYPL,TAF CYPL 241942Z 2420/2508 20015KT P6SM SCT025 BKN100 FM242200 20008KT P6SM BKN040 TEMPO 2422/2506 OVC020 FM250600 20005KT 6SM -SHRA BR SCT006 OVC015 PROB30 2506/2508 BKN006 OVC015 RMK FCST BASED ON AUTO OBS. NXT FCST BY 250200Z
CYPQ,TAF CYPQ 241946Z 2420/2502 29006KT P6SM SCT040 BKN180 FM242300 24005KT P6SM OVC120 RMK FCST BASED ON AUTO OBS. NXT FCST BY 251000Z
CYPR,TAF CYPR 241840Z 2419/2507 14012G22KT P6SM BKN030 OVC120 TEMPO 2419/2421 4SM -SHRA BR OVC020 FM242100 14010G20KT 6SM -RA BR OVC025 TEMPO 2421/2507 4SM -RA BR SCT006 OVC012 PROB30 2421/2507 2SM -RA BR OVC006 RMK FCST BASED ON AUTO OBS. NXT FCST BY 250100Z
CYPX,TAF CYPX 241751Z 2418/2506 16018KT P6SM OVC012 TEMPO 2418/2421 SCT012 FM242100 15015KT P6SM FEW015 FM242300 14012KT P6SM FEW015 TEMPO 2423/2502 BKN012 FM250200 14012KT P6SM BKN012 TEMPO 2502/2506 3SM BR OVC005 RMK FCST BASED ON AUTO OBS. NXT FCST BY 250000Z
CYPY,TAF AMD CYPY 241903Z 2419/2506 30015G25KT P6SM SCT040 BKN080 TEMPO 2419/2506 P6SM -SHRA BKN040 RMK FCST BASED ON AUTO OBS. NXT FCST BY 250000Z
CYQA,TAF CYQA 241947Z 2420/2502 VRB03KT P6SM SCT050 BKN160 FM250000 18005KT P6SM SCT040 OVC100 TEMPO 2500/2502 P6SM -SHRA BKN040 OVC100 RMK FCST BASED ON AUTO OBS. NXT FCST BY 251200Z
CYQB,TAF CYQB 241740Z 2418/2518 28008G18KT P6SM FEW030 FEW210 BECMG 2422/2424 27008KT FM250900 26006KT P6SM SKC PROB30 2509/2512 1SM BR SCT002 FM251200 26007KT P6SM SCT040 BKN180 FM251500 23008KT P6SM BKN040 BKN160 RMK NXT FCST BY 250000Z
CYQD,TAF CYQD 241840Z 2419/2507 28010KT P6SM SKC BECMG 2422/2424 30015KT FM250300 30015G25KT P6SM SCT060 TEMPO 2503/2507 BKN060 RMK FCST BASED ON AUTO OBS. NXT FCST BY 250100Z
CYQF,TAF CYQF 241740Z 2418/2506 24005KT P6SM FEW080 BECMG 2418/2420 30008KT BECMG 2501/2503 VRB03KT RMK FCST BASED ON AUTO OBS. NXT FCST BY 250000Z
CYQG,TAF CYQG 241740Z 2418/2518 17008KT P6SM SCT030 OVC060 TEMPO 2418/2502 P6SM -SHRA BKN030 OVC060 FM250200 VRB03KT P6SM -SHRA BKN025 OVC050 TEMPO 2502/2507 4SM -SHRA BR BKN012 OVC025 FM250700 25005KT 2SM -SHRA BR BKN005 OVC012 TEMPO 2507/2516 6SM -RA BR BKN012 OVC025 FM251600 29010KT P6SM -SHRA SCT008 OVC030 RMK FCST BASED ON AUTO OBS. NXT FCST BY 250000Z
CYQH,TAF CYQH 241740Z 2418/2506 21008KT P6SM SCT090 BKN230 TEMPO 2418/2502 BKN080 FM250200 24010KT P6SM FEW080 BECMG 2502/2504 VRB03KT RMK NXT FCST BY 250000Z
CYQI,TAF CYQI 241741Z 2418/2506 30025G40KT P6SM SCT100 BKN200 FM242100 30018G38KT P6SM BKN200 BECMG 2422/2424 30015G25KT FM250400 30012G22KT P6SM SKC RMK NXT FCST BY 250000Z
CYQK,TAF AMD CYQK 242117Z 2421/2508 VRB03KT P6SM SCT007 BKN030 TEMPO 2421/2423 3SM -SHRA BR BKN007 OVC015 FM242300 29008KT 5SM -SHRA BR BKN006 OVC020 TEMPO 2423/2502 P6SM NSW SCT006 OVC020 FM250200 30008KT P6SM BKN015 OVC040 FM250600 30010KT P6SM FEW020 BKN040 RMK NXT FCST BY 250200Z
CYQL,TAF CYQL 241740Z 2418/2506 28015KT P6SM SKC BECMG 2500/2502 VRB03KT BECMG 2504/2506 22008KT RMK NXT FCST BY 250000Z
CYQM,TAF AMD CYQM 242105Z 2421/2518 29015G25KT P6SM SCT015 OVC040 TEMPO 2421/2424 P6SM -SHRA BKN015 OVC040 FM250000 27012G22KT P6SM BKN050 FM250300 25010KT P6SM SCT050 FM250900 25010KT P6SM FEW040 FM251200 25012KT P6SM FEW180 RMK NXT FCST BY 250000Z
CYQQ,TAF CYQQ 241740Z 2418/2518 02005KT P6SM FEW030 SCT100 BKN210 FM242000 VRB03KT P6SM FEW100 SCT200 TEMPO 2501/2504 BKN100 BKN200 FM250600 31005KT P6SM FEW100 FEW200 RMK NXT FCST BY 250000Z
CYQR,TAF CYQR 241740Z 2418/2518 28015KT P6SM FEW080 BKN120 BECMG 2418/2420 30020G30KT FM250200 32015KT P6SM SKC BECMG 2507/2509 30010KT RMK NXT FCST BY 250000Z
CYQT,TAF CYQT 241942Z 2420/2508 09007KT P6SM OVC050 FM250400 VRB03KT 6SM BR SCT003 RMK NXT FCST BY 250200Z
CYQU,TAF CYQU 241840Z 2419/2507 28020G30KT P6SM FEW240 BECMG 2423/2501 26014G24KT FM250500 25010G20KT P6SM BKN080 RMK NXT FCST BY 250100Z
CYQV,TAF CYQV 241740Z 2418/2506 29012G22KT P6SM FEW180 BECMG 2418/2420 30015G25KT FM250000 31012G22KT P6SM SKC RMK FCST BASED ON AUTO OBS. NXT FCST BY 250000Z
CYQW,TAF CYQW 241740Z 2418/2506 29015G25KT P6SM SKC BECMG 2418/2420 30020G30KT BECMG 2500/2502 31010G20KT FM250400 31008KT P6SM SKC RMK FCST BASED ON AUTO OBS. NXT FCST BY 250000Z
CYQX,TAF CYQX 241740Z 2418/2518 16030G40KT P6SM SCT040 TEMPO 2418/2420 5SM -SHRA BR BKN040 BECMG 2418/2420 18035G50KT FM242100 17035G50KT P6SM BKN040 FM250000 17030G45KT P6SM BKN025 TEMPO 2500/2504 BKN020 BECMG 2500/2502 18025G40KT FM250400 18025G40KT P6SM -SHRA BKN025 BECMG 2506/2508 19020G35KT BECMG 2510/2512 22018G28KT FM251400 22018G28KT P6SM BKN040 RMK NXT FCST BY 250000Z
CYQY,TAF AMD CYQY 242105Z 2421/2506 23025G40KT P6SM -SHRA OVC020 TEMPO 2421/2503 5SM -SHRA OVC006 FM250300 25012KT P6SM OVC025 TEMPO 2503/2506 OVC020 RMK NXT FCST BY 250000Z
CYQZ,TAF CYQZ 241840Z 2419/2506 17005KT P6SM FEW008 TEMPO 2419/2421 3SM BR BKN008 FM242100 14005KT P6SM FEW080 FM250000 15005KT P6SM BKN120 TEMPO 2500/2503 BKN080 FM250300 VRB03KT P6SM SCT060 BKN100 TEMPO 2503/2506 P6SM -RA BKN060 RMK FCST BASED ON AUTO OBS. NXT FCST BY 250100Z
CYRB,TAF CYRB 241740Z 2418/2518 04008KT P6SM FEW030 FEW200 TEMPO 2418/2503 BKN020 FM250300 02015KT P6SM SCT005 BKN020 TEMPO 2503/2518 2SM BR BKN005 RMK NXT FCST BY 250000Z
CYRJ,TAF CYRJ 241940Z 2420/2502 31012G22KT P6SM FEW060 BECMG 2422/2424 28010KT RMK NXT FCST BY 251200Z
CYRL,TAF CYRL 241942Z 2420/2502 19005KT P6SM SCT008 OVC015 TEMPO 2420/2421 OVC025 FM242100 20007KT P6SM SCT008 OVC025 TEMPO 2421/2502 4SM -SHRA BR BKN008 OVC015 PROB30 2421/2502 2SM SHRA BR BKN006 OVC015 RMK NXT FCST BY 251100Z
CYRQ,TAF CYRQ 241941Z 2420/2508 30008G18KT P6SM SKC BECMG 2500/2502 25006KT SCT040 FM250600 23006KT P6SM BKN040 RMK FCST BASED ON AUTO OBS. NXT FCST BY 250200Z
CYRT,TAF CYRT 241740Z 2418/2506 21010KT P6SM FEW200 FM250300 26010KT P6SM SCT040 TEMPO 2503/2506 P6SM -RA BKN030 BECMG 2504/2506 35015KT RMK NXT FCST BY 250000Z
CYSB,TAF CYSB 241950Z 2420/2508 22008KT P6SM SCT040 OVC120 TEMPO 2422/2504 P6SM -SHRA BKN040 OVC120 FM250400 19005KT P6SM SCT015 OVC040 TEMPO 2504/2508 4SM -SHRA BR BKN015 OVC040 BECMG 2505/2507 14006KT RMK NXT FCST BY 250200Z
CYSC,TAF CYSC 241740Z 2418/2503 31012G22KT P6SM SCT040 BECMG 2422/2424 27007KT RMK FCST BASED ON AUTO OBS. NXT FCST BY 250000Z
CYSF,TAF CYSF 241740Z 2418/2506 26015G25KT P6SM BKN080 TEMPO 2418/2506 P6SM -SHRA BKN050 RMK FCST BASED ON AUTO OBS. NXT FCST BY 250000Z
CYSJ,TAF CYSJ 241741Z 2418/2506 30022G35KT P6SM BKN050 OVC090 FM242100 30018G28KT P6SM SCT050 BECMG 2422/2424 30012KT RMK NXT FCST BY 250000Z
CYSM,TAF CYSM 241740Z 2418/2506 29012G22KT P6SM SCT030 BKN100 TEMPO 2418/2419 P6SM -SHRA OVC040 FM241900 30015G25KT P6SM FEW040 SCT080 TEMPO 2419/2506 BKN080 RMK NXT FCST BY 250000Z
CYSN,TAF CYSN 241944Z 2420/2501 29005KT P6SM FEW040 BKN120 RMK NXT FCST BY 251300Z
CYSY,TAF CYSY 241840Z 2419/2423 VRB03KT P6SM BKN030 TEMPO 2419/2423 BKN020 RMK NXT FCST BY 251500Z
CYTE,TAF CYTE 241840Z 2419/2507 18015KT P6SM FEW010 FM242200 18015KT P6SM SCT010 BKN050 TEMPO 2422/2424 5SM -RA BR BKN010 PROB30 2422/2424 3/4SM BR FM250000 18016KT 1/2SM -DZ FG OVC002 TEMPO 2500/2507 3SM BR OVC005 RMK NXT FCST BY 250100Z
CYTH,TAF AMD CYTH 242126Z 2421/2507 31010KT P6SM BKN070 TEMPO 2421/2424 SCT070 BECMG 2505/2507 31012G22KT RMK NXT FCST BY 250100Z
CYTL,TAF CYTL 241942Z 2420/2508 20005KT P6SM SCT025 BKN200 FM242200 22005KT P6SM BKN040 TEMPO 2422/2506 OVC020 FM250600 25005KT 6SM -SHRA BR SCT008 OVC015 RMK FCST BASED ON AUTO OBS. NXT FCST BY 250200Z
CYTR,TAF CYTR 241740Z 2418/2518 22010KT P6SM FEW040 SCT250 FM250300 VRB03KT P6SM BKN060 FM250900 VRB03KT P6SM -RA SCT030 OVC040 FM251500 12005KT 4SM -RA BR BKN010 OVC020 RMK NXT FCST BY 250000Z
CYTS,TAF CYTS 241941Z 2420/2508 23005KT P6SM SCT040 BKN240 TEMPO 2420/2424 BKN040 BKN240 FM250000 23005KT P6SM BKN030 OVC050 FM250600 22005KT P6SM OVC030 RMK NXT FCST BY 250200Z
CYTZ,TAF CYTZ 241959Z 2420/2520 17006KT P6SM FEW080 BKN160 FM242200 16008KT P6SM SCT080 OVC120 FM250000 10006KT P6SM -SHRA BKN040 OVC080 FM250400 10006KT 6SM -SHRA BR SCT012 OVC030 FM250600 11005KT 4SM -RA BR BKN006 OVC012 PROB40 2507/2510 1 1/2SM -SHRA BR OVC003 FM251000 07006KT 1 1/2SM -SHRA BR OVC004 TEMPO 2510/2515 6SM -RA BR SCT004 OVC010 FM251500 VRB03KT 6SM -SHRA BR BKN006 OVC012 FM251800 27007KT P6SM -SHRA SCT012 OVC025 RMK FCST BASED ON AUTO OBS. NXT FCST BY 250200Z
CYUB,TAF CYUB 241840Z 2419/2505 09010KT P6SM SCT012 OVC025 TEMPO 2419/2505 OVC012 RMK NXT FCST BY 250100Z
CYUL,TAF CYUL 242041Z 2421/2518 27012G22KT P6SM FEW050 FEW240 BECMG 2422/2424 26012KT FM250300 26009KT P6SM SCT200 BECMG 2504/2506 23008KT FM250900 24008KT P6SM SCT060 BKN140 FM251500 21009KT P6SM SCT050 BKN100 BECMG 2516/2518 15008KT RMK NXT FCST BY 250000Z
CYUX,TAF CYUX 241840Z 2419/2507 18022G32KT P6SM -RA SCT006 OVC025 TEMPO 2419/2422 4SM -RASN BR OVC008 FM242200 20012KT P6SM SCT015 TEMPO 2422/2501 BKN015 FM250100 18015KT P6SM SCT015 BKN030 TEMPO 2501/2507 2 1/2SM BR OVC010 RMK NXT FCST BY 250100Z
CYUY,TAF CYUY 241740Z 2418/2506 25010G20KT P6SM FEW030 FM242100 26009KT P6SM SCT030 BECMG 2421/2423 BKN030 FM250500 21005KT P6SM BKN040 BKN190 RMK NXT FCST BY 250000Z
CYVC,TAF CYVC 241840Z 2419/2507 25012KT P6SM SKC FM242200 30015G25KT P6SM SCT060 TEMPO 2422/2503 BKN060 BECMG 2503/2505 30010G20KT RMK NXT FCST BY 250100Z
CYVM,TAF CYVM 241840Z 2419/2507 15010KT P6SM FEW030 SCT050 BKN100 TEMPO 2419/2507 SCT025 BKN060 RMK NXT FCST BY 250100Z
CYVO,TAF CYVO 241740Z 2418/2506 26007KT P6SM FEW040 FM242200 28008KT P6SM SCT030 BECMG 2422/2424 24007KT BKN030 FM250300 25006KT P6SM BKN030 RMK NXT FCST BY 250000Z
CYVP,TAF CYVP 241740Z 2418/2506 08006KT P6SM BKN020 TEMPO 2418/2502 BKN025 FM250200 01005KT P6SM FEW040 BKN120 RMK NXT FCST BY 250000Z
CYVQ,TAF AMD CYVQ 242003Z 2420/2506 09010KT P6SM SCT020 BKN040 TEMPO 2420/2422 BKN020 FM242200 12010KT P6SM SCT040 BKN080 TEMPO 2422/2503 P6SM -SHRA BKN040 FM250300 14006KT P6SM FEW040 SCT080 RMK NXT FCST BY 250000Z
CYVR,TAF CYVR 242040Z 2421/2524 29010KT P6SM SCT240 FM250800 VRB03KT P6SM FEW200 BECMG 2516/2518 26008KT RMK NXT FCST BY 250000Z
CYVT,TAF CYVT 242040Z 2421/2504 30012G22KT P6SM FEW060 RMK FCST BASED ON AUTO OBS. NXT FCST BY 251400Z
CYVV,TAF CYVV 241947Z 2420/2423 18005KT P6SM BKN050 OVC150 TEMPO 2420/2423 P6SM -SHRA BKN025 OVC050 RMK NXT FCST BY 251100Z
CYWE,TAF CYWE 241840Z 2419/2501 32015G25KT P6SM BKN025 TEMPO 2419/2423 BKN020 BECMG 2419/2421 32012KT FM242300 32010KT P6SM SCT030 RMK FCST BASED ON AUTO OBS. NXT FCST BY 251300Z
CYWG,TAF AMD CYWG 242131Z 2421/2518 31012KT P6SM SCT030 BKN080 BECMG 2421/2423 31012G22KT FM250200 29010KT P6SM FEW060 SCT140 FM250800 32015G25KT P6SM SCT060 TEMPO 2508/2512 BKN060 BECMG 2516/2518 32018G28KT RMK NXT FCST BY 250000Z
CYWH,TAF CYWH 242040Z 2421/2504 VRB03KT P6SM SCT240 RMK NXT FCST BY 251400Z
CYWJ,TAF CYWJ 241740Z 2418/2423 VRB03KT P6SM BKN020 TEMPO 2418/2423 SCT020 RMK NXT FCST BY 261400Z
CYWK,TAF CYWK 241940Z 2420/2508 01012G22KT P6SM SCT020 BKN050 TEMPO 2420/2424 BKN020 BKN050 FM250000 01015G30KT P6SM SCT012 OVC030 TEMPO 2500/2503 P6SM -RA OVC012 FM250300 36012G22KT 6SM -RA BR SCT006 OVC012 PROB30 2503/2506 2SM -RASN BR OVC006 FM250600 36015G25KT P6SM -SNRA BKN006 OVC020 PROB30 2506/2508 OVC005 RMK NXT FCST BY 250200Z
CYWL,TAF CYWL 241840Z 2419/2507 VRB03KT 2SM BR BKN003 TEMPO 2419/2421 P6SM NSW SCT003 BECMG 2419/2421 08007KT FM242100 08007KT P6SM FEW140 FM250000 10008KT P6SM SCT120 TEMPO 2500/2503 BKN100 BECMG 2501/2503 VRB03KT FM250300 VRB03KT P6SM BKN100 RMK NXT FCST BY 250100Z
CYXC,TAF CYXC 241840Z 2419/2507 12008KT P6SM FEW240 BECMG 2501/2503 VRB03KT RMK NXT FCST BY 250100Z
CYXE,TAF CYXE 241740Z 2418/2518 30020G30KT P6SM SKC FM250200 31012G22KT P6SM SKC BECMG 2505/2507 28010KT FM251200 27006KT P6SM SKC RMK NXT FCST BY 250000Z
CYXH,TAF CYXH 241740Z 2418/2506 21008KT P6SM FEW120 BECMG 2418/2420 30012KT RMK NXT FCST BY 250000Z
CYXJ,TAF CYXJ 241840Z 2419/2507 24020G30KT P6SM FEW050 BECMG 2502/2504 23012KT RMK NXT FCST BY 250100Z
CYXL,TAF AMD CYXL 242119Z 2421/2508 21005KT P6SM SCT008 OVC030 TEMPO 2421/2501 2 1/2SM -RA -DZ BR BKN008 OVC015 PROB40 2421/2501 2SM -RA -DZ BR BKN007 OVC015 FM250100 22005KT 2SM -SHRA BR OVC006 TEMPO 2501/2508 P6SM NSW OVC010 RMK NXT FCST BY 250200Z
CYXR,TAF CYXR 241740Z 2418/2424 24008KT P6SM FEW030 TEMPO 2418/2424 BKN030 BKN240 RMK FCST BASED ON AUTO OBS. NXT FCST BY 251200Z
CYXS,TAF CYXS 241840Z 2419/2507 16007KT P6SM SKC FM250100 20008KT P6SM SCT080 BKN160 TEMPO 2501/2504 BKN080 FM250400 19008KT P6SM SCT050 BKN080 TEMPO 2504/2507 P6SM -RA BKN050 RMK FCST BASED ON AUTO OBS. NXT FCST BY 250100Z
CYXT,TAF CYXT 241840Z 2419/2507 17015G25KT P6SM FEW008 FEW040 BKN080 TEMPO 2419/2422 P6SM -RA SCT010 OVC040 FM242200 17015KT P6SM SCT012 OVC040 TEMPO 2422/2503 5SM -SHRA BR BKN012 BECMG 2422/2424 18012KT FM250300 18008KT P6SM SCT005 BKN025 OVC040 TEMPO 2503/2507 2SM -RA BR OVC005 PROB30 2503/2507 1/2SM -RA FG VV002 RMK NXT FCST BY 250100Z
CYXU,TAF CYXU 241740Z 2418/2518 18010KT P6SM BKN040 OVC080 TEMPO 2418/2424 P6SM -SHRA BKN020 OVC040 FM250000 20006KT 6SM -RA BR BKN012 OVC025 TEMPO 2500/2504 3SM -SHRA BR BKN006 OVC012 FM250400 21005KT 1 1/2SM -SHRA BR OVC005 TEMPO 2504/2517 6SM -RA BR SCT005 OVC012 FM251700 30010KT 6SM -SHRA BR SCT006 OVC015 RMK NXT FCST BY 250000Z
CYXX,TAF CYXX 241741Z 2418/2518 VRB03KT P6SM FEW040 BECMG 2420/2422 27007KT BECMG 2504/2506 VRB03KT RMK NXT FCST BY 250000Z
CYXY,TAF CYXY 241740Z 2418/2518 16012KT P6SM FEW040 BKN070 BKN140 TEMPO 2418/2502 P6SM -SHRA BKN050 FM250200 16013KT P6SM BKN070 FM251000 17008KT P6SM FEW060 FM251600 16012KT P6SM BKN060 RMK NXT FCST BY 250000Z
CYXZ,TAF CYXZ 241941Z 2420/2424 24005KT P6SM BKN060 BKN190 TEMPO 2420/2422 BKN030 BKN060 FM242200 23005KT P6SM SCT020 BKN150 TEMPO 2422/2424 BKN020 BKN150 RMK NXT FCST BY 251300Z
CYYB,TAF CYYB 241953Z 2420/2508 27008KT P6SM FEW040 BKN150 FM242300 24007KT P6SM BKN040 OVC120 TEMPO 2500/2505 P6SM -SHRA BKN020 OVC040 FM250500 VRB03KT P6SM -RA SCT012 OVC030 TEMPO 2505/2508 3SM -SHRA BR BKN012 OVC030 RMK NXT FCST BY 250200Z
CYYC,TAF CYYC 242040Z 2421/2518 VRB03KT P6SM SKC BECMG 2500/2502 30008KT RMK NXT FCST BY 250000Z
CYYD,TAF CYYD 241840Z 2419/2506 17005KT P6SM BKN080 TEMPO 2419/2504 P6SM -SHRA OVC050 FM250400 VRB03KT P6SM SCT030 OVC050 TEMPO 2504/2506 P6SM -RA OVC025 RMK NXT FCST BY 250100Z
CYYE,TAF CYYE 241840Z 2419/2507 19005KT P6SM FEW060 SCT250 RMK NXT FCST BY 250100Z
CYYF,TAF CYYF 241840Z 2419/2507 36010KT P6SM FEW180 BECMG 2501/2503 35005KT RMK NXT FCST BY 250100Z
CYYG,TAF CYYG 241741Z 2418/2506 30025G40KT 6SM -RA BR OVC012 TEMPO 2418/2421 1 1/2SM -RA BR OVC008 FM242100 29015G45KT P6SM OVC040 TEMPO 2421/2424 OVC020 FM250300 27010KT P6SM SCT050 RMK NXT FCST BY 250000Z
CYYH,TAF AMD CYYH 241753Z 2418/2506 15010KT 6SM BR SCT003 OVC015 TEMPO 2418/2423 3SM -RA BR OVC008 FM242300 VRB03KT P6SM SCT008 OVC015 TEMPO 2423/2503 2 1/2SM -RASN BR OVC006 PROB30 2501/2503 1SM -SHSN OVC005 FM250300 02015KT P6SM -SN FEW005 SCT020 OVC040 TEMPO 2503/2506 3SM -SN SCT005 OVC020 RMK NXT FCST BY 250000Z
CYYJ,TAF CYYJ 241740Z 2418/2518 29006KT P6SM FEW040 BKN240 BECMG 2419/2421 07005KT FM242200 07005KT P6SM FEW040 SCT240 BECMG 2502/2504 28005KT BECMG 2516/2518 10005KT RMK NXT FCST BY 250000Z
CYYL,TAF AMD CYYL 242123Z 2421/2507 30012KT P6SM BKN070 TEMPO 2421/2424 SCT070 FM250000 30012KT P6SM BKN050 TEMPO 2500/2502 P6SM -SHRA FM250200 32015G25KT P6SM SCT020 OVC050 TEMPO 2502/2505 5SM -SHRA BR OVC020 FM250500 32012G22KT P6SM OVC020 TEMPO 2505/2507 SCT020 BKN025 RMK FCST BASED ON AUTO OBS. NXT FCST BY 250100Z
CYYN,TAF CYYN 241740Z 2418/2506 27012G22KT P6SM SKC BECMG 2419/2421 31020G30KT BECMG 2423/2501 32012G22KT FM250400 31008KT P6SM SKC RMK FCST BASED ON AUTO OBS. NXT FCST BY 250000Z
CYYQ,TAF CYYQ 241740Z 2418/2518 29005KT P6SM SCT140 BECMG 2418/2420 VRB03KT FM242200 VRB03KT P6SM FEW060 SCT140 BECMG 2503/2505 32015G25KT BECMG 2505/2507 32020G30KT FM250800 34020G30KT P6SM FEW020 BKN050 TEMPO 2508/2512 BKN020 OVC050 FM251200 34020G30KT P6SM BKN020 BECMG 2514/2516 34020KT RMK NXT FCST BY 250000Z
CYYR,TAF CYYR 241740Z 2418/2518 04022G37KT 1 1/2SM RA BR BKN005 OVC015 TEMPO 2418/2423 4SM -SHRA BR SCT005 OVC015 BECMG 2420/2422 04018G33KT FM242300 04015G25KT 1SM RA BR OVC004 TEMPO 2423/2512 5SM -RA BR OVC008 BECMG 2503/2505 04008KT FM251200 VRB03KT 2SM -RA BR OVC003 FM251600 24008KT 5SM -RA BR OVC008 BECMG 2516/2518 26012G22KT RMK NXT FCST BY 250000Z
CYYT,TAF CYYT 241740Z 2418/2518 20025G38KT P6SM SCT040 FM242200 21025G35KT P6SM BKN025 TEMPO 2422/2507 BKN020 BECMG 2503/2505 21020G30KT FM250700 22015G25KT P6SM BKN025 FM251400 25012G22KT P6SM -SHRA BKN025 RMK NXT FCST BY 250000Z
CYYU,TAF CYYU 241941Z 2420/2508 25006KT P6SM SCT040 BKN240 BECMG 2422/2424 18005KT FM250300 20005KT P6SM BKN040 BECMG 2504/2506 25005KT RMK NXT FCST BY 250200Z
CYYY,TAF CYYY 241940Z 2420/2508 33012G22KT P6SM FEW040 BKN240 BECMG 2500/2502 31012KT BECMG 2504/2506 29010KT RMK NXT FCST BY 250200Z
CYYZ,TAF CYYZ 242040Z 2421/2524 15007KT P6SM SCT060 BKN120 FM250000 18006KT P6SM BKN040 OVC080 TEMPO 2500/2503 P6SM -SHRA BKN020 OVC040 FM250300 17005KT P6SM -SHRA SCT012 OVC030 TEMPO 2503/2505 4SM -SHRA BR BKN012 OVC030 FM250500 15005KT 2 1/2SM -SHRA BR BKN006 OVC012 TEMPO 2505/2510 6SM -RA BR SCT006 OVC012 PROB30 2506/2510 2SM -DZ BR OVC003 FM251000 08006KT 1 1/2SM -SHRA BR OVC003 TEMPO 2510/2514 6SM -RA BR SCT003 OVC008 FM251400 VRB03KT 5SM -SHRA BR BKN006 OVC015 FM251700 32008KT P6SM -SHRA SCT015 OVC030 FM252200 30012KT P6SM FEW020 BKN040 RMK NXT FCST BY 250000Z
CYZF,TAF CYZF 241740Z 2418/2518 29015KT P6SM SCT030 BKN140 TEMPO 2418/2421 BKN030 FM242100 34012KT P6SM SCT030 FM250400 VRB03KT P6SM FEW030 BKN060 BECMG 2504/2506 09005KT FM251500 13012KT P6SM BKN080 RMK NXT FCST BY 250000Z
CYZH,TAF CYZH 241840Z 2419/2507 28022G32KT P6SM SKC BECMG 2423/2501 29015G25KT BECMG 2502/2504 27012KT RMK FCST BASED ON AUTO OBS. NXT FCST BY 250100Z
CYZP,TAF AMD CYZP 241951Z 2419/2507 16015G25KT P6SM SCT005 BKN030 OVC120 TEMPO 2419/2422 4SM -SHRA BR BKN005 OVC030 FM242200 16015G25KT P6SM -RA OVC030 TEMPO 2422/2507 4SM -RA BR SCT006 OVC012 PROB40 2422/2507 2SM -RA BR OVC006 RMK FCST BASED ON AUTO OBS. NXT FCST BY 250100Z
CYZR,TAF CYZR 241944Z 2420/2502 18010KT P6SM FEW020 OVC050 TEMPO 2420/2502 5SM -SHRA BR BKN020 OVC050 RMK FCST BASED ON AUTO OBS. NXT FCST BY 250800Z
CYZS,TAF CYZS 241840Z 2419/2507 17012KT 1/8SM -DZ FG OVC002 TEMPO 2419/2507 2SM -DZ BR OVC008 BECMG 2422/2424 VRB03KT RMK NXT FCST BY 250100Z
CYZT,TAF AMD CYZT 242057Z 2420/2507 VRB03KT P6SM FEW006 BKN040 OVC060 TEMPO 2420/2422 P6SM -SHRA SCT006 OVC030 FM242200 10008KT 6SM -RA BR SCT006 OVC025 TEMPO 2422/2501 2SM -RA BR BKN006 OVC020 FM250100 VRB03KT P6SM OVC030 TEMPO 2501/2507 5SM -DZ BR OVC020 RMK NXT FCST BY 250100Z
CYZU,TAF CYZU 241840Z 2419/2423 30025G35KT P6SM FEW060 BECMG 2421/2423 30014G24KT RMK NXT FCST BY 251400Z
CYZV,TAF CYZV 241740Z 2418/2518 35015G25KT P6SM FEW060 BKN120 TEMPO 2418/2420 P6SM -SHRA BKN060 OVC120 FM242000 33020G30KT P6SM SCT060 BECMG 2500/2502 32015G25KT FM251200 31012G22KT P6SM FEW040 BECMG 2512/2514 30012KT BECMG 2516/2518 24010KT RMK NXT FCST BY 250000Z
CYZW,TAF CYZW 241740Z 2418/2501 17010G20KT P6SM SCT080 BKN220 TEMPO 2418/2420 BKN060 FM242000 18008KT P6SM BKN060 TEMPO 2420/2501 P6SM -SHRA RMK NXT FCST BY 251500Z
CYZX,TAF CYZX 241740Z 2418/2518 28020G35KT P6SM OVC050 FM242100 29015G25KT P6SM BKN050 BECMG 2423/2501 27010G20KT FM250200 26010KT P6SM SCT050 FM250500 26008KT P6SM SKC FM251600 24010G20KT P6SM FEW030 SCT120 BKN220 RMK NXT FCST BY 250000Z
CYZY,TAF CYZY 241840Z 2419/2507 17010KT P6SM FEW070 FM242200 19008KT P6SM SCT070 TEMPO 2422/2504 BKN060 BECMG 2502/2504 VRB03KT FM250400 VRB03KT P6SM SCT060 BKN080 TEMPO 2504/2507 P6SM -SHRA BKN040 RMK FCST BASED ON AUTO OBS. NXT FCST BY 250100Z
CZBF,TAF CZBF 241940Z 2420/2503 32025G45KT P6SM SCT040 BKN120 BECMG 2420/2422 31020G35KT FM250000 31020G35KT P6SM SCT060 BECMG 2500/2502 30015G25KT RMK FCST BASED ON AUTO OBS. NXT FCST BY 250900Z
CZFA,TAF CZFA 241740Z 2418/2501 VRB03KT P6SM SCT060 TEMPO 2418/2420 BKN060 BECMG 2418/2420 27010KT RMK NXT FCST BY 251500Z
CZFM,TAF CZFM 241840Z 2419/2423 VRB03KT P6SM SCT004 OVC020 TEMPO 2419/2423 OVC004 PROB30 2419/2423 5SM -RASN BR OVC002 RMK NXT FCST BY 251600Z
CZUM,TAF CZUM 241940Z 2420/2508 02012G22KT 2SM -SN SCT008 OVC015 TEMPO 2420/2424 6SM -RA BR SCT015 OVC025 BECMG 2421/2423 36020G40KT FM250000 36020G40KT 3SM -RASN BR BKN008 OVC012 TEMPO 2500/2503 6SM -RA BR SCT008 OVC012 PROB30 2500/2503 OVC006 FM250300 02015G30KT 6SM -RA BR OVC008 PROB40 2503/2506 OVC006 FM250600 35015G30KT 6SM -RA BR OVC006 RMK FCST BASED ON AUTO OBS. NXT FCST BY 250200Z
CZVL,TAF CZVL 241740Z 2418/2506 30020G30KT P6SM SKC BECMG 2423/2501 VRB03KT RMK FCST BASED ON AUTO OBS. NXT FCST BY 250000Z
DAAD,TAF DAAD 241700Z 2418/2503 20013KT 9999 SCT030 PROB40 2418/2423 FEW033CB PROB30 TEMPO 2418/2421 18015G30KT 4000 DRSA
DAAE,TAF DAAE 241700Z 2418/2518 09008KT 9999 FEW020 PROB30 2418/2424 FEW026TCU PROB40 2500/2512 FEW023CB PROB30 TEMPO 2504/2512 5000 -TSRA PROB40 TEMPO 2512/2518 4000 TSRA SCT023CB
DAAG,TAF DAAG 241700Z 2418/2518 32010KT 9999 FEW033 SCT100 TEMPO 2418/2424 FEW030CB BECMG 2419/2421 VRB02KT PROB30 TEMPO 2420/2424 TS FEW030CB BECMG 2511/2512 32010KT TEMPO 2514/2518 FEW030CB BECMG 2516/2518 VRB02KT
DAAJ,TAF DAAJ 241700Z 2418/2518 10008KT 8000 SCT046 PROB30 TEMPO 2418/2424 4000 HZ FEW040TCU BECMG 2509/2511 18010KT
DAAP,TAF DAAP 242000Z 2421/2506 04006KT CAVOK
DAAS,TAF DAAS 241700Z 2418/2518 20009KT 9999 FEW026 PROB30 2418/2422 FEW026TCU PROB40 2422/2512 FEW026CB PROB30 TEMPO 2504/2512 5000 -TSRA PROB40 TEMPO 2512/2518 4000 TSRA FEW026CB
DAAT,TAF DAAT 241700Z 2418/2518 06006KT 9999 SCT046 SCT100 PROB30 TEMPO 2418/2422 SCT046TCU PROB30 TEMPO 2506/2512 FEW040TCU SCT080 BECMG 2510/2512 16012KT
DAAV,TAF DAAV 241700Z 2418/2518 06008KT 9999 FEW023 PROB30 2418/2424 FEW026TCU PROB40 2500/2512 FEW023CB PROB30 TEMPO 2505/2512 5000 -TSRA PROB40 TEMPO 2512/2518 3000 TSRA SCT023CB
DAAY,TAF DAAY 242000Z 2421/2506 19015G30KT 4000 DRSA FEW026TCU BKN030 TEMPO 2421/2424 2000 DRSA PROB40 TEMPO 2421/2424 5000 TSRA FEW26CB BECMG 2500/2503 02010KT 6000 NSW
DABB,TAF DABB 241700Z 2418/2518 07010KT 9999 FEW023 PROB30 2418/2503 FEW026TCU PROB40 2503/2512 FEW023CB
DABC,TAF DABC 241700Z 2418/2518 26011KT 9999 FEW030 PROB30 2418/2503 FEW026TCU BECMG 2419/2421 20008KT PROB40 2503/2518 FEW026CB PROB40 TEMPO 2515/2518 5000 -TSRA
DABS,TAF DABS 241700Z 2418/2518 20008KT 9999 SCT033 PROB30 2418/2503 FEW030TCU PROB40 2503/2512 FEW030CB
DABT,TAF DABT 241700Z 2418/2518 VRB02KT 9999 SCT023 PROB30 2418/2424 FEW030TCU PROB40 2500/2515 FEW026CB BECMG 2510/2512 23012KT PROB40 TEMPO 2514/2518 4000 TSRA SCT026CB
DAFH,TAF DAFH 241700Z 2418/2503 16006KT CAVOK
DAOB,TAF DAOB 241700Z 2418/2518 VRB02KT 8000 SCT026 SCT080 TEMPO 2418/2424 FEW030CB PROB30 TEMPO 2502/2506 VRB15G30KT TS FEW030CB BECMG 2508/2510 22014KT PROB40 TEMPO 2510/2518 22015G30KT 3000 DRSA FEW030CB PROB30 TEMPO 2512/2518 TS BKN010 FEW030CB
DAOF,TAF DAOF 242000Z 2421/2506 30025KT 2500 BLSA FEW046 SCT200 TEMPO 2421/2424 FEW033CB BECMG 2422/2424 30012KT 6000 NSW
DAOI,TAF DAOI 241700Z 2418/2518 26008KT 9999 FEW026TCU SCT030 PROB40 TEMPO 2418/2506 -TSRA FEW026CB TEMPO 2512/2518 5000 TSRA FEW026CB BKN026
DAON,TAF DAON 241700Z 2418/2518 34011KT 9999 FEW026 BECMG 2421/2424 VRB02KT BECMG 2509/2512 SCT026 SCT100 TEMPO 2509/2518 RA SCT026TCU PROB40 TEMPO 2509/2518 5000 TSRA FEW026CB BKN026
DAOO,TAF DAOO 241700Z 2418/2518 34011KT 9999 FEW023 BECMG 2422/2502 24012KT PROB40 TEMPO 2500/2506 26015G25KT -TSRA FEW030CB SCT033 BECMG 2509/2512 30011KT SCT030 SCT100 TEMPO 2512/2518 5000 TSRA FEW026CB
DAOR,TAF DAOR 242000Z 2421/2506 16008KT 6000 FEW033 PROB40 TEMPO 2421/2424 VRB15G25KT 4000 DRSA FEW030
DAOV,TAF DAOV 242000Z 2421/2506 VRB02KT 9999 FEW026CB SCT030 TEMPO 2421/2424 -TSRA BECMG 2500/2503 FEW033 SCT100
DATM,TAF DATM 241700Z 2418/2503 06008KT 9999 SCT040 SCT100 PROB30 TEMPO 2418/2422 VRB20G30KT 1500 BLSA FEW040CB
DAUA,TAF DAUA 241700Z 2418/2518 VRB02KT 9999 FEW046 SCT100 PROB30 TEMPO 2418/2421 VRB15G25KT 3000 HZ FEW040CB BECMG 2505/2507 16022KT PROB30 TEMPO 2507/2512 DRSA BECMG 2512/2514 18012KT
DAUB,TAF DAUB 241700Z 2418/2518 16007KT 9999 FEW033 PROB30 TEMPO 2500/2514 4000 HZ FEW030CB PROB40 TEMPO 2514/2518 4000 TSRA SCT030CB
DAUG,TAF DAUG 241700Z 2418/2518 14008KT CAVOK PROB30 TEMPO 2512/2518 3000 HZ FEW033TCU SCT080
DAUH,TAF DAUH 241700Z 2418/2518 08008KT CAVOK
DAUI,TAF DAUI 241700Z 2418/2518 08012KT CAVOK BECMG 2500/2502 10022KT PROB30 2507/2511 DRSA BECMG 2512/2514 10012KT
DAUK,TAF DAUK 242000Z 2421/2506 08006KT CAVOK
DAUL,TAF DAUL 242000Z 2421/2506 20012KT CAVOK
DAUO,TAF DAUO 242000Z 2421/2506 09006KT 9999 FEW040
DAUT,TAF DAUT 242000Z 2421/2506 08006KT CAVOK
DAUU,TAF DAUU 242000Z 2421/2506 08006KT CAVOK
DAUZ,TAF DAUZ 241700Z 2418/2518 VRB02KT 9999 FEW040 TEMPO 2418/2422 32010KT BECMG 2505/2507 10012KT BECMG 2510/2512 18010KT BECMG 2515/2517 VRB02KT
DBBB,TAF DBBB 241700Z 2418/2524 22012KT 9999 SCT012 PROB30 TEMPO 2418/2424 TS BKN012 FEW023CB TEMPO 2504/2511 VRB02KT -TSRA BKN012 FEW023CB
DFFD,TAF COR DFFD 241700Z 2418/2524 22008KT 9999 SCT020 TEMPO 2418/2421 TS SCT020 FEW033CB PROB40 TEMPO 2421/2503 06025G40KT 2500 BLSA SQ TSRA BKN020 FEW033CB PROB40 TEMPO 2515/2522 4000 TS SHRA BKN020 FEW033CB
DFOO,TAF DFOO 241700Z 2418/2518 20008KT 9999 SCT016 TEMPO 2419/2421 TS FEW016 FEW030CB TEMPO 2421/2505 4000 TS SHRA BKN016 FEW030CB
DGAA,TAF DGAA 241700Z 2418/2524 21012KT 9999 SCT014 BECMG 2500/2502 27008KT BKN012 BECMG 2511/2513 21015KT SCT015
DGLE,TAF DGLE 241100Z 2412/2512 23010KT 9999 BKN015 PROB30 TEMPO 2412/2416 TS FEW030CB BECMG 2418/2420 BKN013
DGSI,TAF DGSI 241100Z 2412/2512 23010KT 9999 SCT014 PROB30 TEMPO 2416/2420 5000 -TSRA BKN010 FEW030CB BECMG 2500/2502 BKN012
DIAP,TAF AMD DIAP 241958Z 2420/2524 20007KT 8000 SCT012 BECMG 2421/2423 4000 DZ BECMG 2508/2509 NSW PROB30 TEMPO 2516/2520 FEW013 FEW020CB
DIBK,TAF DIBK 241809Z 2418/2518 20006KT 8000 BKN015 FEW020CB PROB30 TEMPO 2418/2421 SCT015 FEW020CB PROB30 TEMPO 2421/2424 TS FEW010 FEW020CB PROB30 TEMPO 2504/2508 2000 BR FEW005 OVC010 PROB30 TEMPO 2515/2521 TS SCT013 FEW020CB
DIYO,TAF DIYO 241804Z 2418/2518 30004KT 8000 SCT015 FEW020CB PROB30 TEMPO 2418/2422 TS FEW011 FEW020CB PROB30 TEMPO 2503/2509 4000 DZ OVC010 PROB30 TEMPO 2512/2515 BKN013 PROB30 TEMPOI 2515/2520 SCT013 FEW020CB
DNAA,TAF DNAA 241100Z 2412/2518 25010KT 9999 BKN010 TEMPO 2416/2423 TS SCT013 FEW020CB PROB40 TEMPO 2418/2422 07018G32KT 5000 -TSRA BKN008 FEW018CB BECMG 2423/2501 15005KT FEW009 BECMG 2508/2511 24010KT BKN011 TEMPO 2515/2518 TS SCT013 FEW020CB
DNAK,TAF DNAK 241700Z 2418/2524 23010KT 9999 BKN011 TEMPO 2418/2423 TS BKN011 FEW019CB PROB30 2419/2422 5000 -TSRA BKN008 FEW018CB BECMG 2422/2424 VRB02KT SCT010 TEMPO 2505/2508 3000 BR BECMG 2509/2511 25010KT BKN012 TEMPO 2511/2516 TS BKN012 FEW020CB BECMG 2518/2520 VRB02KT SCT011
DNBE,TAF DNBE 241700Z 2418/2524 23010KT 5000 -TSRA BKN008 FEW019CB TEMPO 2420/2424 TS BECMG 2500/2502 VRB02KT NSW SCT008 TEMPO 2504/2508 2000 BR BECMG 2508/2510 21010KT BKN012 FEW020CB TEMPO 2511/2516 TS BECMG 2517/2519 VRB02KT SCT010
DNGO,TAF DNGO 241700Z 2418/2524 VRB02KT 9999 FEW011 BECMG 2421/2423 22010KT
DNIB,TAF DNIB 241700Z 2418/2524 VRB02KT 9999 SCT011 TEMPO 2418/2423 TS SCT011 FEW019CB TEMPO 2505/2508 4000 BR BECMG 2508/2510 24010KT BKN013 TEMPO 2512/2517 TS SCT013 FEW020CB BECMG 2517/2519 VRB02KT SCT011
DNIL,TAF DNIL 241100Z 2412/2518 19010KT 9999 BKN011 TEMPO 2413/2420 TS SCT012 FEW020CB PROB30 2414/2419 06016G32KT 5000 TSRA BKN008 FEW018CB BECMG 2420/2422 VRB02KT FEW009 BECMG 2508/2510 20010KT BKN010 TEMPO 2515/2518 TS SCT013 FEW020CB
DNJO,TAF DNJO 241100Z 2412/2518 24010KT 9999 SCT009 PROB30 TEMPO 2414/2420 08017G38KT 5000 TSRA BKN005 FEW015CB BECMG 2420/2423 12005KT FEW006 TEMPO 2503/2509 5000 BR BKN005 BECMG 2509/2511 25012KT BKN009 PROB40 TEMPO 2513/2518 05016G35KT 5000 TSRA BKN004 FEW016CB
DNKA,TAF DNKA 241100Z 2412/2518 23010KT 9999 SCT011 TEMPO 2413/2416 BKN013 TEMPO 2418/2501 09016G33KT 5000 TSRA BKN009 FEW018CB BECMG 2501/2503 17005KT BECMG 2508/2510 24010KT BKN010 PROB30 TEMPO 2517/2518 TS SCT013 FEW020CB
DNKN,TAF DNKN 241100Z 2412/2518 28007KT CAVOK TEMPO 2414/2418 FEW013 FEW019CB
DNKT,TAF DNKT 241700Z 2418/2524 VRB02KT 9999 FEW013 BECMG 2423/2501 24008KT
DNMA,TAF DNMA 241700Z 2418/2524 09005KT 9999 FEW013 BECMG 2423/2501 26008KT
DNMM,TAF DNMM 241700Z 2418/2524 20010KT 9999 BKN011 FEW020CB TEMPO 2418/2423 TS BECMG 2420/2422 VRB02KT SCT011 TEMPO 2502/2508 19010KT 5000 -TSRA BKN008 FEW018CB BECMG 2509/2511 22010KT BKN013 TEMPO 2511/2517 TS BKN013 FEW020CB BECMG 2518/2520 VRB02KT SCT011
DNSO,TAF DNSO 241700Z 2418/2524 VRB02KT 9999 FEW013 BECMG 2423/2501 27010KT
DNSU,TAF DNSU 241700Z 2418/2524 20010KT 8000 TS BKN010 FEW019CB TEMPO 2418/2422 5000 -TSRA BKN008 FEW018CB BECMG 2422/2424 VRB02KT NSW SCT008 TEMPO 2504/2508 2500 BR BECMG 2508/2510 21010KT BKN012 FEW020CB TEMPO 2511/2517 BECMG 2517/2519 VRB02KT SCT011
DNYO,TAF DNYO 241700Z 2418/2524 VRB02KT 9999 FEW013 BECMG 2423/2501 26005KT
DRRN,TAF DRRN 241700Z 2418/2524 22006KT 8000 NSC PROB30 TEMPO 2515/2520 TS FEW030 FEW035CB
DRZA,TAF DRZA 241700Z 2418/2518 10008KT CAVOK PROB30 TEMPO 2514/2518 TS FEW030 FEW040CB
DRZR,TAF DRZR 241700Z 2418/2518 26006KT CAVOK PROB30 TEMPO 2514/2518 TS FEW030 FEW035CB
DTKA,TAF DTKA 242100Z 2422/2507 19006KT 9999 FEW020
DTMB,TAF DTMB 241700Z 2418/2518 14014KT CAVOK
DTNH,TAF DTNH 241700Z 2418/2518 14015KT 9999 FEW026 BECMG 2507/2509 21012KT
DTTA,TAF DTTA 241700Z 2418/2518 13010KT 9999 FEW026 TEMPO 2423/2509 18016G26KT
DTTB,TAF DTTB 242100Z 2422/2507 18010KT 9999 FEW020 PROB30 TEMPO 2422/2504 17015G30KT
DTTF,TAF DTTF 242100Z 2422/2507 17007KT 9999 FEW026 BECMG 2501/2503 VRB02KT
DTTG,TAF DTTG 242100Z 2422/2507 09007KT 9999 FEW020 BECMG 2501/2503 15007KT
DTTJ,TAF DTTJ 241700Z 2418/2518 11009KT 9999 FEW020 BECMG 2501/2503 VRB03KT BECMG 2507/2509 18010KT BECMG 2513/2515 VRB03KT BECMG 2516/2518 10010KT
DTTR,TAF DTTR 242100Z 2422/2507 08010KT 9999 SCT023
DTTX,TAF DTTX 241700Z 2418/2518 14007KT 9999 FEW020 BECMG 2501/2503 VRB03KT BECMG 2507/2509 19010KT
DTTZ,TAF DTTZ 241700Z 2418/2518 20005KT 9999 SCT030 BECMG 2422/2424 09010KT BECMG 2509/2511 VRB02KT
DXNG,TAF DXNG 241700Z 2418/2518 VRB05KT 9999 FEW006 TEMPO 2419/2421 TS BKN006 FEW016CB PROB30 4000 TSRA
DXXX,TAF DXXX 241700Z 2418/2524 20010KT 9999 SCT012 BECMG 2500/2502 26005KT BECMG 2508/2510 20010KT TEMPO 2515/2521 TS BKN010 FEW020CB PROB30 4000 TSRA
EBAW,TAF EBAW 242000Z 2421/2506 36005KT 9999 SCT020 SCT040 TEMPO 2502/2506 4000 BR PROB30 TEMPO 2504/2506 1400 BCFG
EBBR,TAF EBBR 241720Z 2418/2524 01009KT 9999 SCT010 BKN020 TEMPO 2418/2509 4500 -DZRA BKN008 PROB30 TEMPO 2505/2507 1400 BR BKN005
EBCI,TAF EBCI 241720Z 2418/2524 01006KT 3500 -RADZ BKN004 PROB30 TEMPO 2503/2507 1200 BR BCFG BKN002 BECMG 2509/2511 9999 NSW SCT020
EBCV,TAF EBCV 241541Z 2419/2507 01005KT 9999 SCT010 BKN015 TEMPO 2419/2421 6000 -RA DZ SCT007 OVC012 BECMG 2420/2422 9999 FEW025 SCT080 BECMG 2502/2504 SKC PROB30 TEMPO 2504/2507 4000 BR BY EBWM
EBFN,TAF EBFN 241541Z 2419/2507 04015G25KT 9999 FEW020 SCT060 BECMG 2424/2502 04008KT SCT020TCU TEMPO 2502/2507 6000 -SHRA SCT015TCU BY EBWM
EBLG,TAF EBLG 241720Z 2418/2524 01006KT 8000 -RA SCT010 BKN020 BECMG 2419/2421 4500 -RADZ BKN008 TEMPO 2421/2509 2500 -DZRA BKN004 PROB30 TEMPO 2504/2508 1000 BR BCFG BKN002 BECMG 2509/2511 9999 NSW SCT020
EBOS,TAF EBOS 241720Z 2418/2524 03012KT 9999 SCT020 TEMPO 2418/2420 03015G25KT PROB30 TEMPO 2503/2518 02015G25KT 4500 SHRA BKN012TCU
EDAC,TAF EDAC 241700Z 2418/2503 VRB03KT CAVOK PROB40 TEMPO 2421/2503 3500 BR
EDAH,TAF EDAH 241700Z 2418/2503 17004KT CAVOK
EDDB,TAF EDDB 241700Z 2418/2518 05004KT CAVOK BECMG 2512/2515 27005KT
EDDC,TAF EDDC 241700Z 2418/2518 10005KT 9999 SCT045 BECMG 2418/2420 16004KT BECMG 2509/2512 29005KT PROB30 TEMPO 2511/2517 4500 SHRA BKN020CB
EDDE,TAF COR EDDE 241710Z 2418/2518 VRB03KT CAVOK PROB40 TEMPO 2421/2506 4000 BR BECMG 2512/2514 32005KT PROB30 TEMPO 2514/2517 SHRA BKN030CB
EDDF,TAF AMD EDDF 241918Z 2419/2524 VRB03KT 7000 BKN020 PROB40 TEMPO 2419/2522 3000 SHRA BKN012CB BECMG 2422/2424 BKN012 TEMPO 2422/2508 1200 RADZ BR BKN002 PROB30 TEMPO 2500/2504 TSRA BKN008CB BECMG 2511/2514 33008KT
EDDG,TAF AMD EDDG 241826Z 2418/2518 29005KT 9999 FEW014 BKN025 TEMPO 2418/2421 4000 -DZRA BR BKN008 BECMG 2421/2424 35006KT BKN011 TEMPO 2423/2505 3000 -DZRA BR BKN006 BECMG 2508/2511 BKN020 BECMG 2515/2518 28004KT
EDDH,TAF EDDH 241700Z 2418/2524 VRB03KT 7000 SCT007 BKN020 TEMPO 2418/2509 3000 -RA BR OVC006 PROB40 TEMPO 2419/2505 1500 SHRA BKN003 BKN012CB PROB30 TEMPO 2422/2501 1200 BCFG BECMG 2508/2510 30007KT BKN013 BECMG 2510/2512 SCT025
EDDK,TAF EDDK 241700Z 2418/2524 VRB03KT 9999 BKN035 PROB30 TEMPO 2418/2422 BKN013 BECMG 2422/2502 33006KT BKN012 TEMPO 2501/2507 4000 -DZRA BR BKN006 BECMG 2507/2510 BKN020 BECMG 2517/2520 VRB03KT
EDDL,TAF EDDL 241700Z 2418/2524 35005KT 9999 BKN035 PROB30 TEMPO 2418/2422 3000 -DZRA BKN008 BECMG 2423/2501 BKN013 PROB30 TEMPO 2423/2504 2500 BR BKN007 BECMG 2505/2508 BKN020 BECMG 2517/2520 25004KT
EDDM,TAF AMD EDDM 242149Z 2421/2524 VRB03KT 9999 FEW012 BKN030 BECMG 2421/2424 1500 BCFG BKN004 TEMPO 2423/2507 0700 FG BECMG 2507/2510 9999 BKN015 PROB40 TEMPO 2510/2520 30006KT SHRA BKN012TCU PROB30 TEMPO 2520/2524 BKN012
EDDN,TAF EDDN 241700Z 2418/2518 11003KT 9999 BKN030 PROB30 TEMPO 2418/2419 4000 SHRA BKN020TCU BECMG 2502/2505 4000 BR BKN004 TEMPO 2502/2507 0800 FG BECMG 2508/2510 9999 BKN008 BECMG 2510/2512 SCT015 PROB40 TEMPO 2510/2518 30005KT SHRA BKN012TCU
EDDP,TAF EDDP 241700Z 2418/2518 VRB03KT CAVOK PROB40 TEMPO 2421/2506 4000 BR BECMG 2514/2516 31005KT PROB30 TEMPO 2514/2517 SHRA BKN030CB
EDDR,TAF EDDR 241700Z 2418/2518 30004KT 9999 SCT030 BKN040 TEMPO 2501/2508 2500 BR SCT002 BKN005 PROB30 TEMPO 2503/2507 0500 FG VV002 PROB30 TEMPO 2512/2516 SHRA BKN020CB
EDDS,TAF AMD EDDS 241830Z 2418/2518 VRB03KT 9999 SCT040 PROB40 TEMPO 2418/2423 27012KT TSRA BKN025CB BECMG 2421/2423 4000 BR BKN012 PROB40 TEMPO 2423/2508 2000 -DZRA SCT002 BKN004 BECMG 2508/2511 32005KT BKN020 PROB30 TEMPO 2511/2516 SHRA SCT015 BKN025CB
EDDV,TAF EDDV 241700Z 2418/2518 VRB03KT 9999 SCT020 PROB30 TEMPO 2418/2422 24005KT 4500 SHRA BKN013CB TEMPO 2422/2507 32005KT 1500 -RA BR BKN004 BECMG 2508/2511 31006KT BKN013 BECMG 2511/2513 SCT025
EDDW,TAF COR EDDW 241756Z 2418/2518 22004KT 9999 SCT009 BKN015 TEMPO 2418/2502 34010KT 2000 SHRA BKN004 BKN012CB PROB40 TEMPO 2420/2423 1200 BCFG BKN002 BECMG 2502/2504 33006KT PROB30 TEMPO 2504/2506 4000 BR FM250930 31004KT 9999 SCT025 PROB30 TEMPO 2510/2516 33010KT SHRA SCT025TCU
EDFH,TAF EDFH 241700Z 2418/2518 33004KT 9999 SCT020 BKN040 BECMG 2419/2421 BKN010 PROB30 TEMPO 2420/2424 1500 DZRA SCT005 BKN008 PROB40 TEMPO 2500/2511 0400 -DZRA FG VV001 BECMG 2510/2512 BKN015
EDGS,TAF EDGS 241700Z 2418/2503 VRB03KT 9999 BKN030 BECMG 2421/2424 3000 BR BKN009 PROB30 TEMPO 2500/2503 0300 -DZRA FG BKN001
EDJA,TAF AMD EDJA 242018Z 2420/2503 VRB02KT 9999 FEW015 BKN040 BECMG 2420/2423 0700 FG VV002
EDLN,TAF EDLN 241700Z 2418/2503 VRB03KT 9999 BKN030 PROB30 TEMPO 2419/2424 4000 RA BKN012 TEMPO 2500/2503 3000 BR
EDLP,TAF EDLP 241700Z 2418/2518 VRB03KT 9999 SCT035 TEMPO 2418/2421 4500 DZRA BKN010 BECMG 2421/2424 4000 BR BKN008 PROB30 TEMPO 2500/2510 1800 -DZRA BR BKN002 BECMG 2509/2512 7000 BKN013 BECMG 2512/2515 BKN040
EDLV,TAF AMD EDLV 241829Z 2418/2518 VRB03KT 9999 FEW014 BKN030 PROB30 TEMPO 2418/2421 4500 DZ BKN003 TEMPO 2422/2507 2500 BR BKN004 BECMG 2508/2511 33005KT
EDLW,TAF EDLW 241700Z 2418/2518 VRB02KT 9999 BKN035 PROB30 TEMPO 2418/2422 BKN008 BECMG 2422/2501 4000 BR BKN006 TEMPO 2502/2505 0500 -RADZ FG BKN002 BECMG 2510/2512 34005KT BKN012
EDMA,TAF EDMA 241700Z 2418/2503 VRB02KT 9999 FEW015 BKN040 PROB30 TEMPO 2418/2419 4000 SHRA BKN020TCU BECMG 2421/2423 2000 BCFG BECMG 2423/2502 0500 FG VV001
EDNY,TAF AMD EDNY 241810Z 2418/2518 VRB03KT 9999 SCT030 PROB40 TEMPO 2418/2420 SHRA BKN012CB TEMPO 2418/2507 0600 FG BECMG 2422/2502 4000 BR BKN012 TEMPO 2502/2509 BKN004 BECMG 2509/2511 9999 SCT012 BKN020 PROB40 TEMPO 2509/2518 SHRA BKN012TCU PROB30 TEMPO 2515/2518 4000 TSRA BKN010CB
EDQM,TAF EDQM 241700Z 2418/2503 VRB03KT CAVOK PROB40 TEMPO 2500/2503 0500 FG VV001
EDSB,TAF EDSB 241700Z 2418/2518 VRB03KT 9999 BKN025 PROB40 TEMPO 2418/2420 SHRA SCT020 BKN030CB TEMPO 2422/2508 3000 BR PROB30 TEMPO 2502/2506 0800 FG OVC002
EDTL,TAF EDTL 241700Z 2418/2424 18004KT 9999 SCT030 PROB30 TEMPO 2418/2420 4500 TSRA SCT014 BKN020CB BECMG 2422/2424 4000 BR
EDTY,TAF EDTY 241700Z 2418/2503 VRB02KT 9999 FEW012 BKN040 PROB30 TEMPO 2418/2420 4000 SHRA BKN020TCU BECMG 2423/2501 2000 BCFG TEMPO 2501/2503 0700 FG
EDVK,TAF EDVK 241700Z 2418/2503 30004KT 9999 SCT030 BECMG 2422/2424 4000 BR BKN008
EEEI,TAF EEEI 241730Z 2418/2518 VRB02KT 9999 SCT035 TEMPO 2418/2504 1500 MIFG SCT003 BECMG 2506/2508 36007KT
EETN,TAF EETN 241730Z 2418/2518 VRB02KT 9999 SCT020 PROB30 TEMPO 2420/2505 1200 BR BKN003 BECMG 2505/2507 35010KT
EFHK,TAF EFHK 242036Z 2421/2521 34003KT 9999 FEW035 PROB30 2502/2506 2500 BCFG
EFJY,TAF EFJY 242036Z 2421/2521 VRB02KT 9999 FEW040 TEMPO 2421/2506 0600 BCFG PROB30 2500/2506 0500 FZFG VV001
EFKU,TAF EFKU 242021Z 2421/2521 01005KT CAVOK PROB30 2505/2510 BKN013 BECMG 2517/2519 BKN012 TEMPO 2519/2521 4000 -DZ BKN008
EFMA,TAF EFMA 242036Z 2421/2506 VRB02KT CAVOK TEMPO 2421/2506 SHRA FEW020CB PROB30 2502/2506 1200 BCFG
EFOU,TAF EFOU 242024Z 2421/2521 12004KT CAVOK PROB30 2500/2504 2000 BCFG
EFRO,TAF EFRO 242024Z 2421/2521 13007KT 9999 BKN040 TEMPO 2502/2504 3000 BR
EFTP,TAF EFTP 242036Z 2421/2521 VRB02KT CAVOK PROB30 2502/2506 1200 BCFG
EFTU,TAF EFTU 242036Z 2421/2521 VRB02KT CAVOK TEMPO 2421/2506 0500 BCFG PROB30 2519/2521 1200 BCFG
EFVA,TAF EFVA 242024Z 2421/2521 10002KT 1500 BCFG NSC TEMPO 2421/2505 0600 FG BKN001 BECMG 2505/2507 9999
EGAA,TAF AMD EGAA 242101Z 2421/2518 VRB04KT 9999 SCT035 BECMG 2508/2511 26010KT PROB40 TEMPO 2512/2516 8000 -SHRA BKN014 TEMPO 2516/2518 26016G28KT 6000 RA BKN008
EGBB,TAF EGBB 241654Z 2418/2518 04010KT 9999 FEW030 BECMG 2420/2423 30003KT PROB30 2503/2508 4500 BR
EGCC,TAF EGCC 241657Z 2418/2524 03010KT 9999 FEW020 BECMG 2418/2421 VRB03KT BECMG 2500/2503 4000 BR PROB30 2503/2508 0300 FG VV/// BECMG 2506/2509 9999 NSW BECMG 2512/2515 26010KT PROB30 TEMPO 2518/2521 8000 -RA BKN014 TEMPO 2521/2524 8000 -RA BKN012 PROB40 TEMPO 2521/2524 28015G30KT 4000 RA BKN008
EGCK,TAF EGCK 241959Z 2421/2506 VRB03KT 9999 FEW045
EGCN,TAF EGCN 241657Z 2418/2518 01010KT 9999 SCT035 BECMG 2421/2424 31006KT PROB30 TEMPO 2500/2508 8000 BECMG 2509/2512 25010KT
EGFF,TAF EGFF 241701Z 2418/2518 01008KT 9999 FEW045 PROB30 2503/2508 7000 BECMG 2512/2515 27012KT
EGGD,TAF EGGD 241701Z 2418/2518 03008KT 9999 FEW045 BECMG 2512/2515 26010KT
EGGP,TAF EGGP 241657Z 2418/2518 36006KT 9999 SCT020 BECMG 2508/2511 28012KT
EGGW,TAF EGGW 241703Z 2418/2518 02008KT 9999 FEW035 PROB30 2502/2508 8000 BKN005
EGHH,TAF EGHH 241953Z 2421/2424 01006KT 9999 FEW035
EGHI,TAF EGHI 241953Z 2421/2424 01007KT 9999 FEW040
EGHQ,TAF EGHQ 242002Z 2421/2506 36010KT 9999 FEW035 BECMG 2421/2424 06007KT
EGJA,TAF EGJA 241357Z 2415/2500 02012KT 9999 FEW018 PROB30 TEMPO 2418/2500 7000 SHRA BKN015TCU
EGJB,TAF EGJB 241958Z 2421/2506 02010KT 9999 FEW030 PROB40 TEMPO 2421/2506 7000 SHRA BKN015TCU
EGJJ,TAF EGJJ 241958Z 2421/2506 02010KT 9999 SCT030 PROB40 TEMPO 2421/2506 7000 SHRA BKN015TCU
EGKB,TAF EGKB 241656Z 2418/2503 02008KT 9999 SCT030 PROB30 2418/2419 9000 SHRA
EGKK,TAF EGKK 241656Z 2418/2524 02008KT 9999 SCT040 PROB30 TEMPO 2418/2419 8000 SHRA PROB30 TEMPO 2503/2507 8000 BKN007 BECMG 2517/2520 27010KT
EGLL,TAF EGLL 241656Z 2418/2524 02008KT 9999 SCT045 PROB30 TEMPO 2502/2509 BKN007 BECMG 2515/2518 26010KT
EGMC,TAF EGMC 241949Z 2421/2506 35007KT 9999 SCT045
EGMD,TAF EGMD 241949Z 2421/2506 35009KT 9999 SCT045 PROB30 TEMPO 2421/2424 9000 -RA
EGNJ,TAF EGNJ 241959Z 2421/2506 33007KT 9999 FEW045
EGNM,TAF EGNM 241657Z 2418/2518 01010KT 9999 SCT030 BECMG 2421/2424 31006KT BECMG 2509/2512 25015KT PROB40 TEMPO 2516/2518 30018G30KT
EGNT,TAF EGNT 241657Z 2418/2518 02012KT 9999 SCT030 BECMG 2418/2421 28002KT BECMG 2509/2512 28012KT PROB40 TEMPO 2514/2518 30015G25KT PROB30 TEMPO 2516/2518 8000 -RA BKN014
EGNX,TAF EGNX 241654Z 2418/2518 04010KT 9999 FEW030 BECMG 2421/2424 31005KT PROB30 2503/2508 6000
EGPA,TAF EGPA 241958Z 2421/2506 25005KT 9999 SCT040 BECMG 2500/2503 25015KT PROB30 TEMPO 2500/2504 BKN014 TEMPO 2504/2506 BKN014 PROB30 TEMPO 2504/2506 7000 -RA BKN009
EGPB,TAF EGPB 241958Z 2421/2506 31007KT 9999 SCT025 BECMG 2421/2424 25015KT TEMPO 2501/2506 BKN012 PROB30 TEMPO 2504/2506 7000 -RA BKN008
EGPC,TAF EGPC 241958Z 2421/2506 24005KT 9999 SCT040 PROB30 TEMPO 2500/2506 BKN012
EGPD,TAF EGPD 241654Z 2418/2518 32010KT 9999 FEW025 BECMG 2418/2421 22005KT BECMG 2509/2512 24015KT TEMPO 2515/2517 6000 RA PROB40 TEMPO 2515/2518 24018G28KT
EGPE,TAF EGPE 241958Z 2421/2506 25004KT 9999 FEW020 SCT040 BECMG 2503/2506 24014KT PROB30 TEMPO 2503/2506 25015G25KT
EGPF,TAF EGPF 241654Z 2418/2518 32007KT 9999 FEW030 PROB30 2502/2506 8000 BECMG 2506/2509 26012KT TEMPO 2506/2518 BKN014 PROB30 TEMPO 2510/2512 28015G25KT 8000 -RA BKN009 TEMPO 2512/2518 26018G30KT 7000 -RA BKN008 PROB40 TEMPO 2515/2518 4000 RA
EGPH,TAF EGPH 241654Z 2418/2518 32004KT 9999 FEW030 BECMG 2506/2509 25014KT PROB30 TEMPO 2509/2512 25017G27KT BKN014 TEMPO 2512/2518 25020G32KT 7000 -RA BKN012 PROB30 TEMPO 2515/2518 4000 RA BKN008
EGPK,TAF EGPK 241654Z 2418/2518 30012KT 9999 FEW030 BECMG 2418/2421 11005KT PROB30 TEMPO 2506/2510 BKN014 BECMG 2509/2512 24015KT TEMPO 2510/2518 BKN009 TEMPO 2513/2518 25020G32KT 7000 -RA
EGPO,TAF EGPO 241958Z 2421/2506 25006KT 9999 FEW015 SCT030 PROB30 TEMPO 2421/2424 BKN014 TEMPO 2500/2506 BKN014 PROB30 TEMPO 2500/2506 7000 -RA BKN009
EGQL,TAF EGQL 241931Z 2421/2506 27005KT 9999 SCT045
EGQS,TAF EGQS 241920Z 2421/2515 28008KT 9999 SCT040 PROB30 TEMPO 2502/2513 SCT020 BECMG 2509/2512 25017G27KT PROB30 TEMPO 2513/2515 25028G40KT 7000 RA
EGSH,TAF EGSH 241959Z 2421/2506 34006KT 9999 SCT035 PROB30 TEMPO 2421/2506 7000 SHRA
EGSS,TAF EGSS 241703Z 2418/2524 01008KT 9999 FEW035 PROB30 2502/2508 8000 BKN006 BECMG 2521/2524 25010KT PROB40 TEMPO 2523/2524 7000 RA
EGTE,TAF EGTE 242002Z 2421/2504 01006KT 9999 FEW030 PROB30 2502/2504 8000
EGUN,TAF EGUN 242000Z 2420/2602 35009KT 9000 BR VCSH SCT020 BKN050 QNH3010INS BECMG 2502/2504 32009KT 5000 BR SCT007 SCT050 QNH3010INS TEMPO 2504/2507 32003KT 3200 BR BKN007 BKN030 BECMG 2507/2509 32010KT 9999 NSW FEW007 SCT030 BKN160 QNH3004INS BECMG 2512/2513 30010G15KT 9999 BKN045 BKN120 QNH2991INS BECMG 2520/2521 25010KT 9999 VCSH BKN045 BKN100 QNH2988INS BECMG 2600/2602 23010G20KT 8000 -RA BR BKN020 OVC040 620805 510003 QNH2968INS TX17/2514Z TN06/2504Z
EGVN,TAF EGVN 241934Z 2421/2521 03008KT 9999 FEW045 PROB30 2503/2507 6000 BR
EGWU,TAF EGWU 241651Z 2418/2512 02010KT 9999 FEW045
EGXC,TAF EGXC 241926Z 2421/2515 33006KT 9999 FEW040 PROB30 2503/2507 5000 BR
EGXW,TAF EGXW 241637Z 2418/2512 36010KT 9999 FEW030 PROB30 2503/2507 6000 BR
EGYP,TAF EGYP 241947Z 2421/2515 25017KT 9999 SCT025 PROB40 TEMPO 2421/2423 6000 SHRA BKN022CB PROB30 TEMPO 2421/2423 23022G32KT 4000 SHGS BKN010 PROB40 TEMPO 2423/2503 22017G27KT -SHRA BKN014 BECMG 2503/2506 29015KT BECMG 2512/2515 31018G28KT
EHAM,TAF EHAM 241659Z 2418/2524 02010KT 9999 FEW030 BECMG 2420/2423 36005KT BECMG 2517/2520 23006KT
EHBK,TAF EHBK 241701Z 2418/2524 01004KT 9999 BKN020 PROB40 TEMPO 2418/2503 4000 DZRA BKN006 PROB30 TEMPO 2420/2502 1400 DZ BR BKN002 PROB30 2503/2508 4000 BR
EHEH,TAF EHEH 241731Z 2418/2524 34007KT 9999 SCT025 BKN040 TEMPO 2418/2419 4000 RADZ SCT012 BKN035 PROB30 2500/2507 4000 BR PROB40 TEMPO 2411/2519 4500 SHRA SCT022CB SCT025 BECMG 2516/2518 27005KT BECMG 2521/2524 21005KT
EHGG,TAF EHGG 241701Z 2418/2524 36006KT 9999 BKN040 PROB30 TEMPO 2512/2516 7000 -SHRA FEW020TCU
EHKD,TAF EHKD 241232Z 2413/2501 02012KT 9999 FEW030 PROB30 TEMPO 2421/2501 4500 SHRA FEW012 SCT018CB
EHLE,TAF EHLE 241700Z 2418/2524 02010KT 9999 FEW030 BECMG 2420/2423 36005KT BECMG 2514/2517 27006KT
EHLW,TAF EHLW 242039Z 2421/2509 35007KT 9999 SCT025 PROB30 TEMPO 2421/2509 35015KT 4000 SHRA SCT022CB SCT025
EHRD,TAF EHRD 241659Z 2418/2524 02008KT 9999 FEW030 PROB30 TEMPO 2501/2507 4000 MIFG BR BECMG 2513/2516 30006KT
EHVK,TAF EHVK 242042Z 2421/2509 35005KT 9999 SCT035 PROB40 2423/2507 3000 BR
EICK,TAF EICK 241700Z 2418/2518 35012KT 9999 SCT025 BKN050 BECMG 2500/2502 32005KT PROB30 TEMPO 2504/2507 4000 BR BECMG 2511/2513 29010KT
EIDL,TAF EIDL 241700Z 2418/2503 35010KT 9999 FEW025 SCT040 BECMG 2422/2424 VRB03KT
EIDW,TAF EIDW 241700Z 2418/2518 02008KT 9999 SCT020 SCT050 BECMG 2418/2420 34008KT BECMG 2422/2424 30006KT BECMG 2504/2506 27005KT BECMG 2509/2511 26012KT BECMG 2516/2518 27017G27KT
EIKN,TAF EIKN 241100Z 2412/2512 35012KT 9999 FEW020 BKN040 BECMG 2420/2422 30005KT BECMG 2422/2424 VRB03KT BECMG 2509/2511 25010KT PROB40 TEMPO 2509/2511 -SHRA BKN012
EIKY,TAF EIKY 241700Z 2418/2503 35010KT 9999 FEW020 SCT030 BECMG 2419/2421 03005KT BECMG 2422/2424 VRB03KT
EIME,TAF EIME 242000Z 2421/2506 32005KT 9999 SCT020 BKN050
EINN,TAF EINN 241700Z 2418/2518 36011KT 9999 FEW025 BKN050 BECMG 2503/2505 VRB03KT PROB30 TEMPO 2503/2507 4000 BR BECMG 2509/2511 25011KT BECMG 2513/2515 29015KT PROB40 TEMPO 2513/2515 -SHRA BKN012
EISG,TAF EISG 242000Z 2421/2506 VRB03KT 9999 SCT020 BKN040
EIWF,TAF EIWF 242000Z 2421/2506 36010KT 9999 FEW020 SCT050 PROB30 TEMPO 2504/2506 4000 BR
EKAH,TAF AMD EKAH 242018Z 2420/2518 VRB02KT 9999 FEW040 PROB40 2420/2507 0800 BCFG BKN002 SCT020TCU TEMPO 2507/2518 SCT020TCU
EKBI,TAF EKBI 241718Z 2418/2518 32005KT 9999 FEW020 TEMPO 2422/2507 0300 FG BKN001 TEMPO 2510/2516 SCT020TCU
EKCH,TAF EKCH 241718Z 2418/2518 18008KT 9999 FEW040 TEMPO 2418/2518 SCT020TCU
EKKA,TAF AMD EKKA 242100Z 2421/2521 28007KT 9999 FEW020 TEMPO 2421/2507 VRB02KT 0100 FG BKN001 TEMPO 2512/2520 -SHRA SCT020TCU
EKRK,TAF EKRK 242021Z 2421/2506 VRB02KT 9999 FEW040 PROB40 2421/2506 2000 BCFG BR SCT020TCU
EKRN,TAF EKRN 242019Z 2421/2506 07003KT 9999 BKN100
EKSP,TAF EKSP 242019Z 2421/2521 VRB02KT 9999 BKN050 TEMPO 2421/2422 2000 BR MIFG TEMPO 2422/2507 0300 FG BKN001 TEMPO 2512/2520 -SHRA SCT020TCU
EKVG,TAF EKVG 241721Z 2418/2503 25014KT 4000 DZRA BR OVC005 TEMPO 2420/2501 0800 DZRA FG OVC002
EKYT,TAF AMD EKYT 242151Z 2421/2521 30005KT 9999 FEW020 TEMPO 2421/2507 VRB02KT 0300 BCFG BKN001 TEMPO 2512/2520 7000 -SHRA SCT020TCU
ELLX,TAF ELLX 241700Z 2418/2524 01005KT 9999 BKN035 PROB40 TEMPO 2422/2506 3000 BR BKN006 BECMG 2516/2518 32005KT
ENAN,TAF ENAN 2418/2518 36005KT 9999 OVC008 TEMPO 2418/2424 FEW006 BKN020 BECMG 2421/2424 17015KT BKN020
ENBN,TAF ENBN 242000Z 2421/2506 VRB03KT 9999 FEW015 BKN030 TEMPO 2500/2506 18010KT
ENBO,TAF ENBO 2418/2518 24005KT 9999 FEW010 SCT020 BKN050 TEMPO 2506/2512 14010KT
ENBR,TAF ENBR 2418/2518 34008KT 9999 FEW030 PROB30 2500/2508 1500 BCFG BECMG 2506/2509 17012KT TEMPO 2512/2518 17015G28KT BECMG 2514/2516 4000 RADZ BKN010
ENDU,TAF ENDU 2418/2518 VRB03KT 9999 FEW010 BKN050 PROB40 2421/2507 0500 FG VV002 BECMG 2511/2513 15010KT
ENEV,TAF ENEV 2418/2518 VRB03KT 9999 FEW010 BKN040 PROB30 2421/2507 0800 FG VV003 BECMG 2512/2514 15010KT
ENFL,TAF ENFL 242000Z 2421/2506 34005KT 9999 FEW030 BECMG 2504/2506 16012KT
ENGC,TAF ENGC 2421/2521 30009KT 9999 FEW015 BECMG 2501/2503 23012KT BECMG 2504/2506 20022KT BECMG 2506/2509 21032KT TEMPO 2506/2518 2500 RADZ BKN008 BECMG 2513/2515 20042KT TEMPO 2518/2521 SHRA BKN012CB BECMG 2519/2521 25030KT
ENGM,TAF ENGM 2418/2518 36005KT 9999 FEW015 BKN020 PROB40 2418/2515 FEW012TCU PROB40 TEMPO 2503/2507 0500 FG VV002 BECMG 2510/2512 18010KT
ENHE,TAF ENHE 242000Z 2421/2506 21008KT 9999 BKN020 BECMG 2422/2424 20020KT BECMG 2502/2504 19030KT
ENKR,TAF ENKR 242000Z 2421/2506 18012KT CAVOK
ENLE,TAF ENLE 242000Z 2421/2506 34018KT 9999 FEW020TCU SCT050 PROB30 TEMPO 2500/2504 SHRA BKN014TCU
ENNA,TAF ENNA 2418/2518 17009KT 9999 -RA FEW015 BKN030 BECMG 2506/2508 17019KT
ENOA,ENOA 2421/2521 35010KT 9999 SCT018 BECMG 2422/2424 27008KT BECMG 2504/2506 21018KT BECMG 2507/2509 21030KT TEMPO 2507/2518 2500 RADZ BKN008 BECMG 2515/2518 20040KT TEMPO 2518/2521 SHRA BKN012CB
ENOL,TAF ENOL 2418/2518 21005KT 9999 FEW015 BKN030 TEMPO 2418/2421 -SHRA BKN020CB BECMG 2422/2424 13010KT BECMG 2513/2515 VRB05KT
ENRY,TAF ENRY 2418/2518 03005KT 9999 BKN020 TEMPO 2418/2515 FEW025TCU SCT030 PROB40 TEMPO 2501/2508 0500 FG VV002 TEMPO 2508/2511 BKN005 BECMG 2513/2515 18010KT
ENSB,TAF ENSB 2418/2518 15009KT 9999 FEW010 BKN030 TEMPO 2418/2424 18015G25KT SHRA FEW025CB BKN030
ENTC,AMD ENTC 2421/2518 VRB03KT 9999 -SHRA FEW005 SCT020 BKN030 PROB30 TEMPO 2421/2503 4000 -DZ BR BKN003
ENTO,TAF ENTO 2418/2518 01008KT 9999 FEW020 PROB40 TEMPO 2418/2509 FEW020TCU SCT030 BECMG 2513/2515 18010KT
ENVA,TAF ENVA 2418/2518 VRB05KT 9999 FEW010 SCT040 TEMPO 2418/2421 28010KT SHRA BKN014CB PROB30 2500/2506 0500 FG VV001 BECMG 2509/2511 15015KT
ENZV,TAF ENZV 2418/2518 34012KT 9999 FEW030 PROB30 TEMPO 2502/2506 2500 BR BKN010 BECMG 2504/2506 VRB05KT BECMG 2512/2515 17012KT BECMG 2515/2517 4000 BKN012
EPBY,TAF EPBY 241730Z 2418/2518 13004KT CAVOK PROB40 2421/2504 3000 BR BKN007
EPCE,TAF EPCE 242000Z 2421/2506 VRB03KT CAVOK PROB30 TEMPO 2421/2506 5000 BR MIFG SCT040
EPDA,TAF EPDA 242000Z 2421/2506 VRB03KT 5000 BR NSC TEMPO 2421/2506 14005KT 2000 BR BKN040 PROB30 2421/2505 0800 FG BKN002
EPDE,TAF EPDE 242000Z 2421/2506 VRB03KT CAVOK PROB30 2500/2506 5000 BR MIFG NSC
EPGD,TAF EPGD 241730Z 2418/2518 VRB04KT CAVOK PROB30 2503/2506 3000 BR BECMG 2507/2510 17010KT
EPKK,TAF EPKK 242030Z 2421/2521 VRB02KT CAVOK BECMG 2516/2518 BKN014
EPKS,TAF EPKS 242000Z 2421/2506 VRB03KT CAVOK TEMPO 2503/2506 5000 BR
EPKT,TAF EPKT 241730Z 2418/2518 16004KT CAVOK BECMG 2516/2518 BKN014
EPLB,TAF EPLB 241730Z 2418/2518 VRB01KT CAVOK PROB40 2500/2506 4000 BR
EPLK,TAF EPLK 242000Z 2421/2506 VRB03KT CAVOK
EPLL,TAF EPLL 241730Z 2418/2518 VRB02KT 9999 BKN045
EPMI,TAF EPMI 242000Z 2421/2506 VRB02KT CAVOK PROB30 TEMPO 2421/2506 3000 BR
EPMM,TAF EPMM 242000Z 2421/2506 VRB03KT CAVOK
EPMO,TAF EPMO 241730Z 2418/2518 VRB02KT CAVOK PROB40 2500/2506 4000 BR PROB30 TEMPO 2502/2506 0500 FG
EPOK,TAF EPOK 242000Z 2421/2506 18005KT CAVOK
EPPO,TAF EPPO 241730Z 2418/2518 VRB02KT CAVOK
EPPW,TAF EPPW 242000Z 2421/2506 VRB03KT CAVOK PROB30 2500/2506 4000 BR
EPRZ,TAF EPRZ 241730Z 2418/2518 20008KT CAVOK BECMG 2516/2518 BKN014
EPSC,TAF EPSC 241730Z 2418/2518 VRB03KT 9999 BKN045 PROB40 TEMPO 2419/2424 3000 -RA BR SCT009 BKN014 BECMG 2500/2503 BKN014 PROB40 TEMPO 2500/2509 3000 -RA BR BKN009 BECMG 2509/2511 18010KT BKN030
EPSY,TAF EPSY 242030Z 2421/2506 VRB02KT CAVOK PROB40 TEMPO 2421/2506 4000 BR
EPTM,TAF EPTM 242000Z 2421/2506 12006KT CAVOK
EPWA,TAF EPWA 242030Z 2421/2521 VRB02KT CAVOK
EPWR,TAF EPWR 242030Z 2421/2521 12002KT CAVOK PROB30 TEMPO 2500/2506 3000 BR
EPZG,TAF EPZG 242030Z 2421/2506 VRB02KT CAVOK PROB30 TEMPO 2500/2506 3000 BR
ESGG,TAF ESGG 242030Z 2421/2521 VRB02KT 9999 BKN035 PROB40 2423/2505 1200 BCFG PROB40 2505/2521 4000 SHRA BKN008 BKN025CB
ESKN,TAF ESKN 242030Z 2421/2521 VRB02KT CAVOK PROB40 2500/2506 2000 BCFG
ESMS,TAF ESMS 242005Z 2421/2521 12003KT 9999 FEW040 TEMPO 2421/2521 SCT020TCU PROB40 2500/2506 2000 BCFG BR
ESNU,TAF AMD ESNU 242118Z 2421/2506 12003KT 0100 FG VV002 BECMG 2421/2423 0700 PROB40 2423/2506 6000 NSW SCT004 BKN018 TEMPO 2500/2506 2000 BR BKN003
ESSA,TAF ESSA 242030Z 2421/2521 VRB02KT CAVOK PROB40 2500/2506 2000 BCFG
ESSL,TAF ESSL 242030Z 2421/2423 16003KT CAVOK
ETAD,TAF ETAD 242000Z 2420/2602 VRB06KT 9000 BR BKN015 QNH2988INS TEMPO 2420/2423 6000 -DZ BKN013 BECMG 2423/2424 35007KT 8000 BR BKN015 QNH2988INS TEMPO 2500/2503 6000 -DZ BKN012 BECMG 2503/2504 01009KT 6000 BR BKN014 QNH2987INS TEMPO 2504/2508 5000 -DZ BKN009 BECMG 2507/2508 36009KT 8000 BR SCT015 BKN040 QNH2988INS BECMG 2509/2510 01010G15KT 9999 NSW FEW020 BKN045 QNH2991INS BECMG 2514/2515 01010KT 9999 SCT030 QNH2990INS BECMG 2518/2519 VRB03KT 9999 FEW020 BKN080 QNH2991INS BECMG 2600/2601 VRB03KT 8000 BR SCT020 QNH2984INS TX15/2514Z TN10/2505Z
ETAR,TAF ETAR 241800Z 2418/2524 VRB06KT 9000 -SHRA BKN020 OVC060 QNH2989INS BECMG 2420/2421 01006KT 5000 BR BKN020 QNH2989INS TEMPO 2421/2505 BKN015 TEMPO 2505/2510 -RA BKN010 BECMG 2510/2511 02009KT 9999 NSW BKN035 QNH2988INS TX16/2514Z TN04/2503Z
ETIC,TAF ETIC 232100Z 2321/2424 16003KT 9999 SCT200 QNH2998INS BECMG 2402/2403 17003KT 5000 BR SCT200 QNH2996INS BECMG 2407/2408 16003KT 9999 NSW BKN180 QNH2995INS BECMG 2415/2416 19006KT 8000 -SHRA OVC100 QNH2994INS BECMG 2423/2424 16003KT 5000 BR BKN008 BKN030 QNH2993INS TX14/2413Z TN06/2404Z LAST NO AMDS AFT 2321 NEXT 2520
ETIK,TAF ETIK 232200Z 2322/2504 18006KT 9999 FEW060 SCT150 QNH2992INS BECMG 2402/2403 17006KT 9999 FEW050 SCT090 BKN100 QNH2992INS BECMG 2409/2410 22006KT 8000 -SHRA SCT035 BKN045 QNH2991INS BECMG 2416/2417 23006KT 9999 NSW SCT030 BKN050 QNH2988INS TEMPO 2500/2504 VRB06KT 5000 BR FEW015 BKN020 BKN030 TX18/2415Z TN01/2404Z LAST NO AMDS AFT 2322 NEXT 2606
ETNL,TAF ETNL 241611Z 2417/2505 VRB03KT 9999 NSW SCT020 BKN050 TEMPO 2420/2424 VRB02KT 8000 NSW BKN010 TEMPO 2500/2505 VRB02KT 3000 BR BKN004 BY ETGL
ETNW,TAF ETNW 241611Z 2417/2517 20004KT 8000 -RA SCT020 BKN040 BECMG 2417/2419 VRB03KT 8000 -RA SCT005 BKN008 TEMPO 2419/2507 VRB02KT 1500 RADZ BKN003 BECMG 2508/2510 30007KT 9999 NSW SCT015 BKN025 BY ETGL
ETOU,TAF AMD ETOU 241610Z 2416/2518 VRB05KT 9999 VCSH SCT060 BKN075 QNH2986INS TEMPO 2417/2420 9000 -SHRA BKN035 BECMG 2419/2420 VRB06KT 9000 -SHRA BKN020 OVC060 QNH2990INS TEMPO 2504/2507 VRB05KT 6000 BR BECMG 2508/2509 34012KT 9999 NSW SCT020 BKN035 QNH2991INS BECMG 2511/2512 35012KT 9000 -SHRA BKN020 OVC050 QNH2988INS TX17/2416Z TN09/2504Z LAST NO AMDS AFT 2416 NEXT 2504
ETSN,TAF ETSN 241929Z 2420/2505 VRB02KT 4000 BR SCT020 BKN040 BECMG 2420/2422 VRB02KT 1500 BCFG SCT001 SCT050 TEMPO 2422/2505 VRB01KT 0400 FG VV001 BY ETGL
EVGA,TAF EVGA 242004Z 2421/2521 VRB02KT CAVOK TEMPO 2421/2507 0600 FG BKN001 TEMPO 2518/2521 0700 FG
EVLA,TAF EVLA 242002Z 2421/2521 VRB02KT CAVOK TEMPO 2421/2507 0600 FG BKN001 TEMPO 2509/2516 SCT025CB TEMPO 2518/2521 0700 FG
EVRA,TAF EVRA 242001Z 2421/2521 VRB02KT CAVOK TEMPO 2421/2507 0600 FG TEMPO 2509/2512 SCT025CB TEMPO 2518/2521 0700 FG
EYKA,TAF EYKA 241702Z 2418/2518 VRB04KT 9000 SCT030 TEMPO 2421/2506 5000 BR SCT005
EYPA,TAF EYPA 241707Z 2418/2518 VRB04KT 5000 BR SCT005 TEMPO 2418/2424 0800 FG VV002 BECMG 2500/2501 0500 FG VV001 TEMPO 2506/2508 5000 BR SCT005 BECMG 2508/2509 9000 NSW SCT035
EYSA,TAF EYSA 242000Z 2421/2506 VRB04KT 9000 SCT030 TEMPO 2421/2502 1500 BR SCT005 TEMPO 2502/2506 0500 FG VV002
EYVI,TAF EYVI 241702Z 2418/2518 VRB04KT 9000 SCT030 TEMPO 2421/2505 5000 BR SCT005 TEMPO 2505/2507 SCT005
FABL,TAF FABL 241600Z 2418/2518 30008KT CAVOK TX32/2512Z TN11/2504Z
FACT,TAF FACT 241600Z 2418/2524 18015KT CAVOK TX21/2513Z TN09/2504Z BECMG 2423/2501 VRB03KT PROB30 TEMPO 2502/2506 2000 BR NSC FM250700 34005KT CAVOK FM251200 19012KT 9999 BKN025 BECMG 2518/2520 02010KT
FAGG,TAF FAGG 241600Z 2418/2518 34005KT CAVOK TX21/2512Z TN10/2504Z PROB40 TEMPO 2512/2515 BKN010 FM251700 24010KT 9999 SCT008 BKN020
FALA,TAF AMD FALA 241825Z 2418/2518 04008KT CAVOK TX30/2513Z TN14/2502Z BECMG 2419/2421 VRB03KT BECMG 2506/2508 34012KT BECMG 2514/2516 VRB03KT
FALE,TAF AMD FALE 241819Z 2418/2524 22008KT 9999 BKN010 TX34/2512Z TN16/2504Z TEMPO 2418/2422 4500 DZ OVC005 FM250800 03015KT CAVOK BECMG 2516/2518 VRB03KT BECMG 2522/2524 20015KT
FAOR,TAF FAOR 241600Z 2418/2524 36012KT CAVOK TX28/2513Z TN14/2502Z
FAPE,TAF FAPE 241600Z 2418/2518 04011KT 9999 FEW010 TX21/2511Z TN14/2504Z PROB30 TEMPO 2418/2506 3000 BR BKN003 BECMG 2507/2509 SCT015 BECMG 2510/2512 24018KT SCT010
FAPM,TAF FAPM 241800Z 2419/2506 VRB03KT 9999 BKN008 TX24/2506Z TN17/2503Z PROB30 TEMPO 2502/2505 3000 BR NSC FM250600 33010KT CAVOK
FAUP,TAF FAUP 241600Z 2418/2518 31008KT CAVOK TX33/2512Z TN10/2504Z
FBKE,FBKE 241200Z 2415/2424 08010KT CAVOK
FCBB,TAF FCBB 241700Z 2418/2524 24004KT 8000 FEW020 BECMG 2423/2501 BKN020 FEW030CB BECMG 2504/2506 BKN020 PROB40 2518/2524 BKN020 FEW030CB
FCPP,TAF FCPP 241700Z 2418/2518 22010KT 9999 SCT010 OVC023 PROB40 TEMPO 2503/2509 VRB05KT
FEFF,TAF FEFF 241700Z 2418/2524 20006KT 8000 BKN013 FEW033CB TEMPO 2418/2420 TS BECMG 2503/2505 3000 BR SCT004 FM250900 24006KT 9999 BKN016
FGBT,TAF FGBT 241700Z 2418/2518 24005KT 9999 SCT010 PROB30 TEMPO 2513/2517 4000 TSRA BKN010 FEW018CB
FGSL,TAF FGSL 241700Z 2418/2524 21006KT 9999 SCT010 PROB30 TEMPO 2502/2506 4000 TSRA SCT008 BKN010 FEW020CB PROB40 TEMPO 2513/2517 4000 TSRA BKN012 FEW018CB 
FIMP,TAF COR FIMP 241700Z 2418/2600 11015G25KT 9999 SCT016 PROB30 TEMPO 2418/2500 7000 -SHRA FEW010 BKN015
FIMR,TAF FIMR 241705Z 2418/2512 11020G35KT 9999 SCT017 PROB30 TEMPO 2418/2502 7000 -SHRA BKN016
FJDG,TAF FJDG 241700Z 2417/2523 14012KT 9999 FEW025 SCT070 BKN210 QNH2988INS TX28/2509Z TN24/2501Z FOR MIL USE ONLY
FKKD,TAF FKKD 241700Z 2418/2524 VRB03KT 9999 TS BKN013 FEW016CB TEMPO 2418/2421 4000 TSRA BECMG 2422/2424 NSW PROB40 2504/2508 2000 TSRADZ
FKYS,TAF FKYS 241700Z 2418/2518 28006KT 9999 SCT013 BECMG 2421/2423 BKN006 BECMG 2508/2510 BKN016
FMCH,TAF FMCH 241100Z 2412/2518 14012KT 9999 FEW020 SCT030 BECMG 2415/2417 07003KT BECMG 2505/2507 21010KT
FMCZ,TAF FMCZ 241700Z 2418/2518 15005KT CAVOK PROB30 TEMPO 2503/2509 4500 SHRA
FMEE,FMEE 241700Z 2418/2524 13010KT 9999 FEW021 SCT050 BECMG 2504/2506 12020KT TEMPO 2506/2512 12020G30KT BECMG 2514/2516 13010KT
FMMI,TAF FMMI 241700Z 2418/2524 08010G20KT 9999 FEW017 BKN020 BECMG 2500/2503 14010KT
FMMS,TAF FMMS 241700Z 2418/2518 16010KT 9999 SCT017 BKN033 PROB30 TEMPO 2500/2506 4000 SHRA
FMMT,TAF FMMT 241700Z 2418/2518 VRB04KT 9999 SCT017 BKN033 PROB30 TEMPO 2502/2508 4000 SHRA
FMNA,TAF FMNA 241700Z 2418/2518 14018G35KT 9999 FEW020 BKN040
FMNM,TAF FMNM 241700Z 2418/2518 06010KT 9999 FEW020 BECMG 2418/2421 12010KT BECMG 2509/2511 32010KT
FMNN,TAF FMNN 241700Z 2418/2518 08008KT 9999 FEW020 SCT040 BECMG 2508/2511 28010KT
FMSD,TAF FMSD 241700Z 2418/2518 08018G30KT 9999 FEW016
FMST,TAF FMST 241700Z 2418/2518 24010G20KT 9999 FEW020 BECMG 2418/2421 04005KT BECMG 2506/2509 24010KT
FOOG,TAF FOOG 241700Z 2418/2518 20010KT 9999 SCT008 BKN030
FOOL,TAF FOOL 241700Z 2418/2524 24008KT 9999 SCT012 BKN030 PROB30 TEMPO 2418/2421 -TSRA BKN010 FEW020CB
FSIA,TAF FSIA 241703Z 2418/2518 12010KT 9999 FEW021
FTTJ,TAF FTTJ 241700Z 2418/2524 20006KT 8000 FEW040 PROB30 TEMPO 2511/2518 TS
FVJN,TAF FVJN 241000Z 2412/2518 08008KT CAVOK
FVRG,TAF FVRG 241000Z 2412/2518 08008KT CAVOK
FWCL,TAF FWCL 240900Z 2412/2518 04006KT 9999 BKN025 TX30/2412Z TN20/2503Z BECMG 2417/2419 05004KT 9999 FEW030
FWKI,TAF FWKI 241530Z 2418/2524 07005KT CAVOK BECMG 2507/2509 08010KT 9999 FEW025 BECMG 2510/2513 SCT030 FM251400 06006KT CAVOK
FYGF,TAF FYGF 242000Z 2421/2506 00000KT CAVOK
FYKM,TAF FYKM 242000Z 2421/2506 00000KT CAVOK
FYLZ,TAF FYLZ 242000Z 2421/2506 18008KT CAVOK
FYRU,TAF FYRU 242000Z 2421/2506 00000KT CAVOK
FYWE,TAF FYWE 242000Z 2421/2506 16005KT CAVOK
FZAA,TAF FZAA 241700Z 2418/2524 24006KT 7000 SCT022 FEW030CB PROB30 TEMPO 2420/2501 TS BECMG 2503/2505 BKN016 BECMG 2508/2510 34012KT SCT020 BECMG 2514/2516 FEW024 FEW030CB
FZNA,TAF FZNA 241700Z 2418/2524 05006KT 6000 TS SCT016 FEW020CB BECMG 2419/2421 NSW SCT014 BECMG 2508/2510 22010KT SCT018 FEW022CB TEMPO 2512/2518 TS BECMG 2519/2521 05004KT SCT014
FZQA,TAF FZQA 241700Z 2418/2524 1105KT 7000 CAVOK BECMG 2500/2502 18010 BECMG 2507/2509 08014G20KT
GABS,TAF GABS 241700Z 2418/2524 22004KT 9999 SCT020 TEMPO 2418/2424 08020G35KT 4000 TSRA BKN020 FEW033CB
GAGO,TAF GAGO 241700Z 2418/2518 22006KT 9999 FEW030 TEMPO 2418/2424 VRB20G35KT 2000 TSRA BLDU BKN030 FEW040CB
GBYD,TAF GBYD 241700Z 2418/2524 20006KT 9999 SCT013 TEMPO 2420/2424 3000 TSRA BKN013 FEW030CB
GCFV,TAF GCFV 242000Z 2421/2521 05011KT 9999 BKN020 TX26/2514Z TN22/2506Z PROB30 TEMPO 2421/2503 RA TEMPO 2503/2521 4500 RA BKN010
GCGM,TAF GCGM 242000Z 2421/2521 VRB04KT 9999 BKN010 TX23/2514Z TN20/2506Z TEMPO 2421/2521 4500 RA BKN004 PROB40 TEMPO 2505/2521 3000 TS +SHRA SCT010CB PROB30 TEMPO 2421/2512 0800 FG BKN000
GCHI,TAF AMD GCHI 242134Z 2421/2521 13010KT 9000 BKN012 TX24/2514Z TN21/2506Z TEMPO 2421/2521 4500 RA BKN008 TEMPO 2503/2521 2500 TS +SHRA BKN010CB
GCLA,TAF GCLA 242000Z 2421/2521 35005KT 8000 BKN015 TX23/2514Z TN22/2506Z TEMPO 2421/2521 4500 RA BKN009 TEMPO 2503/2521 2500 TS +SHRA BKN010CB
GCLP,TAF GCLP 242000Z 2421/2521 35011KT 9999 BKN016 TX24/2514Z TN21/2506Z TEMPO 2421/2521 4500 RA BKN010 PROB40 TEMPO 2503/2521 2000 TS +SHRA SCT015CB
GCRR,TAF GCRR 242000Z 2421/2521 05009KT 9999 BKN020 TX26/2514Z TN21/2506Z PROB30 TEMPO 2421/2503 RA TEMPO 2503/2521 4500 RA BKN010
GCTS,TAF GCTS 242000Z 2421/2521 06012KT 9999 SCT020 TX25/2514Z TN21/2506Z TEMPO 2421/2521 4500 RA PROB40 TEMPO 2505/2521 2500 TS +SHRA SCT015CB BECMG 2510/2512 08022KT
GCXO,TAF GCXO 242000Z 2421/2521 12006KT 2000 BCFG BKN002 TX21/2514Z TN17/2506Z TEMPO 2421/2521 0400 RA FG OVC000 PROB40 TEMPO 2505/2521 TS +SHRA SCT005CB
GECE,TAF GECE 240800Z 2409/2509 VRB02KT 9999 FEW015 TX26/2414Z TN20/2506Z BECMG 2412/2414 27014KT PROB30 TEMPO 2415/2423 27015G25KT
GEML,TAF GEML 241700Z 2418/2518 27009KT 9999 FEW010 TX28/2513Z TN19/2506Z
GFLL,TAF GFLL 241700Z 2418/2524 21006KT 8000 -TSRA BKN008 FEW026CB TEMPO VRB03KT 8000 TS BKN006 TEMPO 2500/2506 VRB03KT 8000 RA BKN008 BECMG 2514/2516 28006KT 9999 BKN010
GGOV,TAF GGOV 241700Z 2418/2518 VRB05KT 8000 SCT012 TEMPO 2419/2501 4000 TSRA BKN010 FEW015CB TEMPO 2506/2510 4000 RA BKN010
GLRB,TAF GLRB 240500Z 2406/2506 22009KT 9000 BKN015 BECMG 2407/2409 32004KT 7000 -RA BKN011 FEW022CB TEMPO 2410/2414 21008KT BKN014 FEW023CB
GMAD,TAF GMAD 241700Z 2418/2524 20008KT 8000 BKN016 BKN100 TEMPO 2500/2518 4000 SHRA BKN010 SCT030CB
GMAG,TAF AMD GMAG 241700Z 2418/2524 23015KT 6000 SCT016 BKN100 BECMG 2419/2423 8000 NSC
GMFF,TAF GMFF 241700Z 2418/2524 30008KT 9999 SCT033 SCT200 TEMPO 2504/2508 SCT008 BKN026 BECMG 2512/2514 BKN030 FEW040CB BKN100 TEMPO 2513/2519 34014KT 3000 SHRA
GMFK,TAF GMFK 241700Z 2418/2524 22004KT 9999 FEW033 BKN200 TEMPO 2500/2518 6000 -RA BKN023 FEW040CB
GMFM,TAF GMFM 241700Z 2418/2524 32012KT 9999 FEW020 BKN200 BECMG 2422/2424 VRB02KT TEMPO 2504/2509 3000 BR SCT010 SCT020 TEMPO 2514/2524 SHRA SCT010 BKN020 FEW026CB
GMFO,TAF GMFO 240500Z 2406/2512 24004KT CAVOK TEMPO 2412/2418 36014KT
GMME,TAF GMME 241700Z 2418/2524 33005KT 5000 SCT016 SCT166 TEMPO 2420/2506 VRB02KT BKN013 BECMG 2508/2510 33012KT
GMMH,TAF AMD GMMH 241700Z 2418/2524 34016KT 8000 SCT020 BKN100 PROB40 TEMPO 2418/2503 4000 TSRA FEW030CB
GMMI,TAF AMD GMMI 241700Z 2418/2524 01010KT 8000 NSC
GMML,TAF AMD GMML 241700Z 2418/2524 36017KT 8000 NSC
GMMN,TAF GMMN 241700Z 2418/2524 34012KT 9999 FEW020 BKN200 BECMG 2419/2421 34006KT SCT013 BKN023 BECMG 2509/2511 30012KT
GMMW,TAF AMD GMMW 241700Z 2418/2524 34005KT CAVOK
GMMX,TAF GMMX 241700Z 2418/2524 24006KT 8000 SCT026 BKN100 PROB30 TEMPO 2500/2504 5000 RA BKN020 TEMPO 2509/2515 4000 RA FEW016 BKN020
GMMZ,TAF GMMZ 241700Z 2418/2524 22010KT 8000 SCT040 TEMPO 2501/2507 4000 RA BKN040 TEMPO 2510/2518 TSRA BKN040 FEW050CB
GMTA,TAF AMD GMTA 241700Z 2418/2524 VRB01KT 9999 FEW030
GMTT,TAF GMTT 241700Z 2418/2524 27010KT CAVOK BECMG 2502/2505 8000 SCT010 BKN015 BECMG 2511/2514 CAVOK
GOBD,TAF GOBD 241700Z 2418/2524 22010KT 9999 SCT015 PROB40 TEMPO 2420/2424 3000 TSRA BKN013 FEW030CB
GOGS,TAF GOGS 241700Z 2418/2518 21005KT 9999 SCT013 TEMPO 2420/2424 4000 TSRA BKN013 FEW030CB
GOOY,TAF GOOY 241700Z 2418/2524 22008KT 9999 SCT013 PROB30 TEMPO 2420/2424 3000 TSRA BKN013 FEW030CB
GOSS,TAF GOSS 241700Z 2418/2518 26010KT 9999 SCT010
GQNO,TAF GQNO 241700Z 2418/2524 24012KT 7000 SCT010 PROB30 TEMPO 2419/2501 TS FEW035CB
GQPP,TAF GQPP 241700Z 2418/2518 18012KT 7000 NSC PROB30 TEMPO 2419/2501 TS FEW034CB
GVAC,TAF GVAC 241700Z 2418/2524 34010KT 9999 SCT013 TEMPO 2418/2424 SCT012 BKN015
GVBA,TAF GVBA 241100Z 2412/2518 35008KT 9999 SCT015
GVNP,TAF GVNP 241700Z 2418/2524 34008KT 9999 SCT017 PROB30 TEMPO 2418/2424 VRB06KT 8000 -RADZ SCT012 BKN018
GVSV,TAF GVSV 241700Z 2418/2524 04012KT 9999 SCT022 TEMPO 2418/2424 VRB06KT
HAAB,TAF HAAB 241530Z 2418/2524 06004KT 9999 SCT030 BKN090 BECMG 2423/2504 36004KT 6000 SHRA BKN020
HADR,TAF HADR 241530Z 2418/2524 10004KT 9999 SCT030 BKN090 TEMPO 2506/2507 8000 -TSRA FEW023CB BKN025
HBBA,TAF HBBA 241700Z 2418/2524 18010G20KT 9999 FEW030 BECMG 2421/2423 00000KT CAVOK BECMG 2507/2509 18010G22KT 9999 FEW028 BKN120 BECMG 2517/2519 VRB04KT FEW030 BECMG 2520/2522 18004KT
HCMM,TAF HCMM 241100Z 2412/2518 19010KT 9999 FEW023 BECMG 2500/2503 SCT020 BECMG 2509/2512 FEW024
HDAM,TAF HDAM 241700Z 2418/2518 VRB05KT 8000 HZ SCT023 SCT133 BECMG 2500/2506 14010KT 9999 SCT023 SCT133 BECMG 2506/2512 12010KT 8000 HZ SCT023 SCT133
HEAL,TAF HEAL 241700Z 2418/2524 05007KT 9999 FEW020 TEMPO 2500/2508 VRB03KT
HEAR,TAF HEAR 241700Z 2418/2524 33008KT 9999 SCT020 BECMG 2421/2423 VRB03KT BECMG 2506/2508 36011KT
HEAT,TAF HEAT 241700Z 2418/2524 01013KT CAVOK
HEAX,TAF HEAX 241700Z 2418/2524 05008KT 9999 FEW020 PROB30 TEMPO 2500/2506 VRB03KT 4000 BR NSC
HEBA,TAF HEBA 241700Z 2418/2524 05008KT 9999 FEW020 PROB30 TEMPO 2500/2506 VRB03KT 4000 BR NSC
HEBL,TAF HEBL 241700Z 2418/2524 04007KT CAVOK
HECA,TAF HECA 241700Z 2418/2524 05013KT CAVOK
HEGN,TAF HEGN 241700Z 2418/2524 34014KT CAVOK
HELX,TAF HELX 241700Z 2418/2524 35007KT 7000 NSC
HEMA,TAF HEMA 241700Z 2418/2524 32008G22KT CAVOK
HEMM,TAF HEMM 241700Z 2418/2524 05007KT 9999 FEW020 TEMPO 2500/2508 VRB03KT
HEOW,TAF HEOW 241700Z 2418/2524 04008KT 6000 NSC
HEPS,TAF HEPS 241700Z 2418/2524 04012KT CAVOK
HESC,TAF HESC 241700Z 2418/2524 01010KT CAVOK BECMG 2421/2423 VRB04KT BECMG 2507/2509 02012KT
HESG,TAF HESG 241700Z 2418/2524 29006KT CAVOK
HESH,TAF HESH 241700Z 2418/2524 01015KT CAVOK
HESN,TAF HESN 241700Z 2418/2524 33008KT CAVOK
HETB,TAF HETB 241700Z 2418/2524 34011KT CAVOK BECMG 2421/2423 VRB03KT BECMG 2506/2508 01013KT
HETR,TAF HETR 241700Z 2418/2524 32010G24KT CAVOK
HKEL,TAF HKEL 241700Z 2418/2524 14005KT 9999 FEW017 BKN080 BECMG 2508/2511 FEW022CB SCT023 PROB30 TEMPO 2513/2517 -TSRA FEW018CB SCT019 BKN080 BECMG 2519/2522 VRB05KT CAVOK
HKJK,TAF HKJK 241700Z 2418/2524 VRB05KT 9999 FEW022 BECMG 2508/2511 08010KT SCT029 BECMG 2500/2523 VRB05KT FEW018
HKKI,TAF HKKI 241700Z 2418/2524 06005KT 9999 FEW020 BKN080 BECMG 2508/2511 23010KT FEW026CB SCT027 PROB30 TEMPO 2512/2516 -TSRA FEW022CB SCT023 BKN080 BECMG 2520/2523 06005KT FEW019 BKN080
HKML,TAF HKML 241700Z 2418/2518 18010KT 9999 FEW023 TEMPO 2500/2504 18005KT -RA SCT019 BKN080 BECMG 2509/2512 17015KT NSW SCT025
HKMO,TAF HKMO 241700Z 2418/2524 18010KT 9999 FEW023 TEMPO 2500/2504 22005KT -RA SCT019 BKN080 BECMG 2509/2512 14015KT NSW SCT025 BECMG 2521/2524 18005KT FEW023
HKNW,TAF HKNW 241700Z 2418/2518 00000KT 9999 FEW021 BECMG 2508/2511 09010KT SCT027
HLGD,TAF HLGD 241100Z 2412/2512 02010KT 8000 SCT025 BKN070 BROP30 TEMPO 2412/2416 6000 SHRA BKN020
HLGT,TAF HLGT 241100Z 2412/2512 01010KT 8000 NSC BECMG 2502/2504 VRB02KT
HLKF,TAF HLKF 241100Z 2412/2512 VRB02KT CAVOK BECMG 2502/2504 05008KT
HLLB,TAF HLLB 241100Z 2412/2512 02010KT 8000 SCT020 BKN070 BROP40 TEMPO 2412/2418 6000 TSRA FEW015CB BKN020 BKN070 BECMG 2500/2502 09010KT
HLLM,TAF HLLM 241100Z 2412/2512 07012KT 8000 SCT025
HLLQ,TAF HLLQ 241100Z 2412/2512 10010KT 8000 SCT020 SCT070 TEMPO 2412/2424 6000 TS SHRA FEW015CB BKN020 BKN060
HLLS,TAF HLLS 241100Z 2412/2512 03010KT 8000 SCT040 SCT080
HLMS,TAF HLMS 241100Z 2412/2512 03015KT 8000 SCT025 BECMG 2500/2502 VRB02KT
HLON,TAF HLON 241100Z 2412/2512 01010KT 8000 FEW035 BECMG 250/2504 09008KT
HLTD,TAF HLTD 241100Z 2412/2512 VRB02KT 8000 FEW035 SCT080 BECMG 2421/2423 36008KT
HLTQ,TAF HLTQ 241100Z 2412/2512 06015G25KT 8000 SCT025 SCT070 TEMPO 2412/2424 5000 SHRA FEW020 BKN024
HLUB,TAF HLUB 241100Z 2412/2512 05010KT 8000 NSC
HRYR,HRYR 241700Z 2418/2524 09006KT 9999 FEW025 BECMG 2423/2505 30004KT 6000 SCT026 SCT100 TEMPO 2509/2515 16012KT 9999 -TSRA FEW023CB BKN025 BECMG 2518/2521 07006KT NSW SCT025 BNK100
HSKA,HSKA 241700Z 2418/2524 18006KT 9999 FEW040 SCT140 TEMPO 2418/2424 6000 TSRA FEW045CB
HSOB,HSOB 241700Z 2418/2524 22008G18KT 9999 FEW040 SCT140 PROB30 TEMPO 25014/2520 6000 TSRA FEW045CB
HSPN,TAF COR HSPN 241700Z 2418/2524 32008KT 9999 FEW030 SCT130 BECMG 2410/2412 04012G22KT
HSSK,HSSK 241700Z 2418/2524 18008G18KT 9999 SCT140 TEMPO 2509/2518 9999 FEW040 SCT140
HTAR,HTAR 241700Z 2418/2518 12010KT 9999 RA BKN024
HTDA,HTDA 241700Z 2418/2524 15005KT 9999 SCT012 TEMPO 2505/2508 SHRA BKN018 BECMG 2509/2511 15015KT SCT028
HTDO,HTDO 241700Z 2418/2518 11014KT 9999 FEW024
HTKA,HTKA 241100Z 2412/2512 00000KT 9999 FWE022 TEMPO 2412/2416 21010KT
HTKJ,HTKJ 241700Z 2418/2518 06010KT 9999 BKN024
HTMW,HTMW 241700Z 2418/2518 33010KT 9999 FEW020 FEW021CB BECMG 2502/2504 12010KT
HTTB,HTTB 241700Z 2418/2518 10010KT 9999 FEW022
HTZA,HTZA 241800Z 2418/2518 13005KT 9999 SCT014 BECMG 2503/2505 19010KT BKN016 BECMG 2510/2512 13015KT FEW020
HUEN,TAF HUEN 241700Z 2418/2524 VRB08KT 9999 FEW021 FEW023CB FM2421/2424 34008KT SCT020 FEW022CB TEMPO 2505/2508 VRB08G18KT 8000 -TSRA BKN018 FEW020CB OVC100 FM251000 16005KT
HUSO,TAF HUSO 241100Z 2412/2512 36009KT 9999 FEW021 FEW023CB FM 250100 VRB06KT CAVOK BECMG 2508/2512 05009KT 9999 FEW021
KABE,KABE 241723Z 2418/2518 28008KT P6SM FEW250 FM250000 20005KT P6SM FEW120 SCT250 FM250300 VRB02KT P6SM BKN100 FM251500 23008G18KT P6SM VCSH BKN060 OVC120
KABI,KABI 241720Z 2418/2518 20012KT P6SM SKC FM250000 17007KT P6SM SKC
KABQ,KABQ 242114Z 2421/2518 31012G20KT P6SM FEW250 FM250400 06007KT P6SM SKC FM250900 08010G18KT P6SM SKC FM251700 09015G25KT P6SM FEW090
KABR,KABR 242045Z 2421/2518 28008KT P6SM VCSH OVC070 FM242300 32011KT P6SM BKN250 FM250200 30008KT P6SM SKC FM251500 32017G28KT P6SM SKC
KABY,KABY 241720Z 2418/2518 12004KT P6SM SKC
KACK,KACK 242012Z 2420/2518 28016G25KT P6SM FEW250 FM250300 28010G18KT P6SM FEW250 FM250900 25008KT P6SM FEW200 FM251300 23011KT P6SM BKN090 FM251600 22014KT P6SM BKN080
KACT,KACT 242052Z 2421/2518 18009KT P6SM SKC FM251500 27005KT P6SM SCT150 FM251700 33007KT P6SM BKN180
KACV,KACV 241737Z 2418/2518 26003KT 6SM BR FEW001 TEMPO 2418/2420 2SM BR BKN001 FM242100 27006KT 6SM HZ SCT004 FM250300 19002KT 2SM BR OVC002 FM251000 13002KT 4SM BR OVC002
KACY,KACY 241723Z 2418/2518 28011KT P6SM FEW250 FM250000 23003KT P6SM FEW120 SCT250 FM250400 18004KT P6SM BKN100 FM251600 22013G23KT P6SM SCT060 BKN120
KADF,KADF 241720Z 2418/2518 25009KT P6SM BKN100 FM241900 25009KT P6SM VCTS SCT040CB BKN100 FM250200 VRB03KT P6SM VCSH OVC120 FM251200 31005KT P6SM BKN250
KADW,TAF KADW 241700Z 2417/2523 VRB06KT 9999 BKN120 QNH2988INS BECMG 2508/2509 23011KT 9999 FEW030 BKN050 QNH2980INS BECMG 2515/2516 22012G20KT 9999 VCSH BKN030 QNH2970INS TX22/2517Z TN14/2505Z
KAEG,KAEG 242051Z 2421/2518 31010G20KT P6SM FEW200 FM250800 02007KT P6SM SKC FM251700 12011KT P6SM FEW090
KAEX,KAEX 241720Z 2418/2518 33006KT P6SM SKC FM250100 15003KT P6SM SKC FM251400 33006KT P6SM SKC
KAFF,TAF COR KAFF 242031Z 2419/2601 12012KT 9999 SKC 520006 QNH3019INS WND 060V210 BECMG 2501/2502 35009KT 9999 FEW080 QNH3021INS BECMG 2507/2508 02015KT 9999 VCSH FEW045 SCT060 QNH3030INS BECMG 2510/2511 36009KT 9999 NSW FEW070 QNH3036INS BECMG 2516/2517 14018KT 9999 FEW100 QNH3044INS BECMG 2518/2519 16015G25KT 9999 FEW080 FEW180 520006 QNH3031INS TX24/2421Z TN04/2512Z LAST NO AMDS AFT 2321 NEXT 2511
KAFW,KAFW 242052Z 2421/2518 20008KT P6SM SKC FM251400 28006KT P6SM SCT150 FM251700 32008KT P6SM BKN150
KAGC,KAGC 241736Z 2418/2518 23006KT P6SM BKN100 FM250800 18005KT P6SM VCSH BKN070 FM251300 21007KT P6SM VCSH BKN020 FM251600 23009G19KT 6SM -SHRA VCTS BKN030CB
KAGS,KAGS 242037Z 2421/2518 VRB03KT P6SM SKC FM251500 23007KT P6SM SCT150
KAHN,KAHN 241741Z 2418/2518 VRB04KT P6SM SKC FM251400 25006KT P6SM SCT150 PROB30 2516/2518 -SHRA BKN100
KAIA,KAIA 241720Z 2418/2518 28008KT P6SM SKC FM242000 32012G20KT P6SM SKC FM250000 35011KT P6SM SKC FM250300 36008KT P6SM SKC FM251400 31007KT P6SM SKC
KALB,KALB 241737Z 2418/2518 30011G17KT P6SM FEW045 SCT250 FM250000 27005KT P6SM FEW150 SCT250 FM250500 VRB03KT P6SM OVC150 FM251100 15005KT P6SM OVC070 FM251700 16009KT P6SM VCSH OVC060
KALI,KALI 241720Z 2418/2518 12010KT P6SM VCTS SCT030CB BKN100 TEMPO 2418/2420 5SM TSRA BKN025CB FM242200 13007KT P6SM SCT050 BKN250 TEMPO 2509/2512 5SM BR BKN025 FM251600 16008KT P6SM VCSH BKN250
KALO,KALO 241723Z 2418/2518 26009KT P6SM SCT050 FM242000 28011G20KT P6SM SCT100 FM242300 30010KT P6SM BKN100 FM251500 31011G21KT P6SM SKC
KALS,KALS 241724Z 2418/2518 VRB04KT P6SM SKC FM242130 21008KT P6SM SKC FM250300 VRB06KT P6SM SKC
KALW,KALW 241720Z 2418/2518 25006KT P6SM SKC FM250200 12007KT P6SM SKC
KAMA,KAMA 241720Z 2418/2518 32008KT P6SM FEW220 FM250300 03009KT P6SM FEW250 FM251700 04018KT P6SM FEW220
KANB,KANB 241725Z 2418/2518 11006KT P6SM SKC FM250200 15002KT P6SM FEW050 FM251500 23006KT 4SM SHRA OVC035 PROB30 2515/2518 4SM TSRA BR OVC025CB
KAND,KAND 241720Z 2418/2518 22007KT P6SM FEW120 FM250000 22003KT P6SM SCT100 FM251300 24006KT P6SM BKN070 FM251600 24009G18KT P6SM BKN050
KAOO,KAOO 242123Z 2421/2518 24006KT P6SM BKN070 OVC110 FM251400 23008KT P6SM VCSH OVC007 PROB30 2515/2517 -SHRA BKN050 FM251700 24008KT P6SM -SHRA OVC015
KAPA,KAPA 241740Z 2418/2518 VRB05KT P6SM FEW100 FEW220 FM242200 08006KT P6SM FEW220 FM250700 01006KT P6SM FEW220 FM251100 19006KT P6SM SKC FM251700 04006KT P6SM SKC
KAPC,KAPC 241730Z 2418/2518 VRB03KT P6SM SKC FM242000 21007KT P6SM SKC FM250500 VRB04KT P6SM SKC
KAPF,KAPF 242051Z 2421/2518 33010KT P6SM VCTS SCT020CB BKN250 TEMPO 2421/2423 5SM TSRA BKN025CB FM250100 06006KT P6SM SCT035 BKN060 BKN250 FM250600 VRB04KT P6SM FEW035 SCT060 FM251500 12006KT P6SM FEW035 SCT250
KAPN,KAPN 241732Z 2418/2518 17006KT P6SM VCSH OVC050 FM242200 17006KT P6SM VCSH OVC030 FM250300 16005KT P6SM VCSH BKN017 FM250600 VRB03KT 4SM BR BKN014 FM251300 30007KT P6SM VCSH BKN010
KARA,KARA 241720Z 2418/2518 33006KT P6SM SCT040 FM250100 20003KT P6SM SKC FM251400 34006KT P6SM SKC
KART,KART 241720Z 2418/2518 24010KT P6SM FEW040 SCT250 FM242300 20006KT P6SM BKN120 FM250700 17004KT P6SM BKN080 FM251300 15007KT P6SM VCSH BKN040 FM251500 15008KT 6SM -RA BR BKN035 FM251700 16010KT 5SM -RA BR OVC020
KASD,KASD 241720Z 2418/2518 00000KT P6SM SKC
KASE,KASE 241737Z 2418/2518 33008KT P6SM SKC FM250200 21006KT P6SM SKC FM251600 VRB03KT P6SM SKC
KASN,KASN 241725Z 2418/2518 13005KT P6SM SKC FM250200 16002KT P6SM SCT050 FM251500 23005KT 4SM SHRA OVC035 PROB30 2515/2518 4SM TSRA BR OVC025CB
KAST,KAST 241720Z 2418/2518 VRB03KT P6SM SCT210 FM242000 32005KT P6SM SCT240 FM242100 31007KT P6SM SCT250 FM250800 VRB03KT P6SM FEW250
KATL,KATL 242147Z 2422/2524 15005KT P6SM SKC FM242300 19004KT P6SM SKC FM250700 21003KT P6SM SCT150 PROB30 2514/2518 -SHRA BKN100 FM252300 28006KT P6SM FEW090 BKN200
KATW,KATW 241737Z 2418/2518 24006KT P6SM VCSH OVC014 FM250000 VRB03KT P6SM VCSH OVC021 FM250400 30006KT 4SM -SHRA BR BKN005 FM251000 30006KT 3SM -DZ BR BKN003 FM251600 30009G17KT P6SM -SHRA OVC011
KATY,KATY 241723Z 2418/2518 30014G22KT P6SM BKN250 FM250200 31008KT P6SM SKC FM251500 32017G27KT P6SM SKC
KAUG,KAUG 241736Z 2418/2518 31015G25KT P6SM SKC FM242300 27008G12KT P6SM SKC FM250300 25005KT P6SM SKC FM251300 23006KT P6SM FEW200
KAUS,KAUS 241720Z 2418/2524 18013KT P6SM SCT060 SCT250 FM250500 VRB04KT P6SM FEW250
KAUW,KAUW 242205Z 2422/2518 22004KT 5SM BR OVC010 FM250200 30003KT 4SM -SHRA BR OVC007 FM250600 31004KT 2SM -DZ BR BKN003 FM251400 30008G15KT 3SM -SHRA BR OVC007 FM251600 30011G20KT 5SM -SHRA BR BKN012
KAVL,KAVL 241720Z 2418/2518 20004KT P6SM BKN090 FM242300 19004KT P6SM SCT080 BKN200 FM250800 00000KT P6SM FEW060 BKN150 FM251400 20005KT P6SM BKN060 PROB30 2516/2518 5SM -SHRA BR BKN040
KAVP,KAVP 241731Z 2418/2518 27005KT P6SM SCT250 FM251300 14004KT P6SM BKN100 FM251600 21007G12KT P6SM VCSH SCT040 OVC070
KAXN,KAXN 241723Z 2418/2518 29012G20KT P6SM SCT009 BKN015 BKN040 FM241900 31013G20KT P6SM SCT010 BKN020 FM242100 31013G20KT P6SM SCT035 BKN045 FM251500 32018G30KT P6SM SKC
KAZO,KAZO 241740Z 2418/2518 22010G18KT P6SM BKN050 OVC100 FM242100 27007KT P6SM BKN035 FM250900 22007KT 4SM -SHRA BR SCT007 OVC012 FM251400 30010KT P6SM -SHRA OVC018
KBAB,TAF COR KBAB 241906Z 2419/2601 VRB06KT 9999 SKC QNH2992INS TX33/2500Z TN15/2514Z
KBAD,TAF KBAD 242000Z 2420/2602 24008KT 9000 HZ SKC QNH2993INS BECMG 2423/2424 18005KT 9999 NSW SKC QNH2990INS BECMG 2513/2514 27006KT 9999 FEW050 QNH2988INS BECMG 2523/2524 27006KT 9999 VCSH BKN060 QNH2991INS TX36/2421Z TN20/2512Z
KBAF,KBAF 242011Z 2420/2518 30010G18KT P6SM FEW250 FM242300 27006KT P6SM SCT250 FM250200 00000KT P6SM SKC FM250800 00000KT P6SM BKN120 FM251400 17004KT P6SM BKN080 FM251600 18007KT P6SM BKN100
KBAM,KBAM 241720Z 2418/2518 VRB06KT P6SM SKC
KBBD,KBBD 241720Z 2418/2518 16008KT P6SM SKC FM250100 13004KT P6SM SKC
KBBG,KBBG 241726Z 2418/2518 27008KT P6SM SCT220 FM250300 VRB05KT P6SM FEW250 FM251400 35005KT P6SM SKC FM251700 35008KT P6SM SKC
KBCB,KBCB 241722Z 2418/2518 27007KT P6SM SCT080 FM250000 00000KT P6SM SCT100 FM251500 26009G18KT P6SM BKN150
KBCE,KBCE 241734Z 2418/2518 VRB05KT P6SM SKC FM242200 32009KT P6SM SKC FM250300 VRB05KT P6SM SKC
KBDL,KBDL 242011Z 2420/2524 31008G16KT P6SM FEW250 FM242300 27006KT P6SM SCT250 FM250500 00000KT P6SM FEW200 FM251300 18004KT P6SM BKN080 FM251600 18008KT P6SM BKN100 FM252300 20007KT 6SM -SHRA BR OVC035
KBDN,KBDN 241720Z 2418/2518 VRB04KT P6SM SKC FM242100 35010KT P6SM SKC FM250600 21004KT P6SM SKC
KBDR,KBDR 241958Z 2420/2518 30011G18KT P6SM SCT150 BKN250 FM242200 29009KT P6SM SKC FM250000 27006KT P6SM BKN150 BKN250 FM250600 VRB03KT P6SM BKN120 BKN250 FM251400 19007KT P6SM SCT080 BKN100 FM251700 19010G16KT P6SM BKN080
KBED,KBED 242011Z 2420/2518 31012G20KT P6SM SKC FM242200 29009KT P6SM SKC FM250000 26004KT P6SM FEW250 FM251100 23003KT P6SM BKN120 FM251600 21007KT P6SM BKN080
KBFD,KBFD 242123Z 2421/2518 19006KT P6SM OVC100 FM251100 21008KT P6SM VCSH OVC035 FM251300 18005KT 6SM -SHRA BR OVC050
KBFF,KBFF 241720Z 2418/2518 29007KT P6SM SKC FM242000 32012G20KT P6SM SKC FM250100 01007KT P6SM SKC FM250500 34005KT P6SM SKC
KBFI,KBFI 241735Z 2418/2518 32008KT P6SM SCT200 FM250400 VRB03KT P6SM SCT200
KBFL,KBFL 241720Z 2418/2518 VRB04KT P6SM SKC
KBFM,KBFM 241738Z 2418/2518 10006KT P6SM FEW030 FM242100 13007KT P6SM FEW040 FM250200 VRB03KT P6SM FEW250
KBGM,KBGM 241731Z 2418/2518 29006KT P6SM FEW030 SCT250 FM250000 00000KT P6SM FEW200 FM251500 18010KT P6SM VCSH BKN050 FM251700 18012G20KT 6SM -SHRA BKN040 OVC120
KBGR,KBGR 241724Z 2418/2518 31017G36KT P6SM SCT150 FM242200 29012G28KT P6SM FEW250 FM242300 29010G24KT P6SM SKC WS020/30040KT FM250000 29009KT P6SM SKC
KBHB,KBHB 241724Z 2418/2518 30014G30KT P6SM FEW240 FM242300 28012G25KT P6SM FEW250 WS020/30040KT FM250000 28010G21KT P6SM SKC
KBHM,KBHM 241725Z 2418/2518 16007KT P6SM SKC FM250200 17003KT P6SM SCT050 FM251500 23006KT 4SM SHRA OVC035 PROB30 2515/2518 4SM TSRA BR OVC025CB
KBIF,TAF KBIF 241400Z 2414/2520 VRB06KT 9999 SKC QNH3012INS BECMG 2518/2519 09012G18KT 9999 BKN120 QNH3015INS TX33/2421Z TN19/2512Z
KBIH,KBIH 241720Z 2418/2518 33006KT P6SM SKC FM241900 16008KT P6SM SKC FM250500 32006KT P6SM SKC
KBIL,KBIL 241730Z 2418/2518 32020G30KT P6SM FEW100 SCT120 TEMPO 2418/2420 33025G35KT FM242100 32015G25KT P6SM FEW100 FM242300 35012KT P6SM SKC FM250200 29006KT P6SM SKC FM250600 VRB06KT P6SM SKC FM251200 21006KT P6SM SKC
KBIS,KBIS 241722Z 2418/2518 29010KT P6SM BKN090 OVC100 FM242000 32015G24KT P6SM FEW200 FM250100 31010KT P6SM FEW250 FM251400 32013G22KT P6SM SKC
KBIX,TAF KBIX 240200Z 2402/2508 05006KT 9999 FEW050 QNH2993INS TX32/2420Z TN22/2411Z LAST NO AMDS AFT 2404 NEXT 2610
KBJC,KBJC 241809Z 2418/2518 VRB05KT P6SM FEW100 FEW220 FM242100 05006KT P6SM FEW220 FM250500 36008KT P6SM FEW220 FM250900 31006KT P6SM SKC FM251500 VRB05KT P6SM SKC
KBJI,KBJI 241739Z 2418/2518 VRB03KT P6SM OVC008 FM242000 29006KT P6SM VCSH OVC006 FM242300 31006KT P6SM BKN013 FM250200 VRB03KT P6SM SCT090 FM251400 31012G25KT P6SM SKC
KBKE,KBKE 241731Z 2418/2518 VRB06KT P6SM SKC
KBKF,TAF KBKF 241700Z 2417/2523 VRB06KT 9999 SKC 510023 QNH3021INS TX24/2422Z TN07/2512Z
KBKW,KBKW 242154Z 2422/2518 26008KT P6SM BKN070 TEMPO 2422/2423 -SHRA BKN040 FM250000 21006KT P6SM BKN070 FM251200 22007KT P6SM BKN100 FM251400 24010G18KT P6SM BKN080 FM251700 26012G28KT P6SM BKN060
KBLF,KBLF 241722Z 2418/2518 28008KT P6SM FEW024 BKN090 FM242100 26008KT P6SM SCT070 FM250200 21006KT P6SM SCT050 BKN250 FM251400 24009G16KT P6SM BKN250 FM251600 25012G21KT P6SM BKN100
KBLH,KBLH 241720Z 2418/2518 03007KT P6SM FEW250 FM242200 VRB15G25KT P6SM VCSH SCT100 BKN150 BKN250 FM250100 34005KT P6SM FEW120 FEW250
KBLI,KBLI 241735Z 2418/2518 VRB03KT P6SM SCT200 FM242200 29006KT P6SM SCT200 FM250200 VRB03KT P6SM SCT200
KBLV,TAF KBLV 241600Z 2416/2522 26006KT 9999 SKC QNH2991INS BECMG 2513/2514 31012G25KT 9999 SKC QNH2993INS BECMG 2521/2522 31009KT 9999 FEW050 QNH2990INS TX27/2420Z TN19/2508Z
KBMG,KBMG 241720Z 2418/2518 22009KT P6SM FEW250 FM242300 23006KT P6SM FEW250 FM250900 25006KT P6SM SCT040 OVC080 FM251300 29008KT P6SM SCT190 FM251500 29011G23KT P6SM FEW035
KBMI,KBMI 241735Z 2418/2518 25011KT P6SM SKC FM242300 26010KT P6SM BKN180 FM250900 29011KT P6SM SCT150 FM251400 30015G25KT P6SM FEW250
KBNA,KBNA 241720Z 2418/2518 20006KT P6SM SCT070 BKN090 OVC120 FM250300 20007KT P6SM VCTS SCT050CB BKN100 TEMPO 2503/2506 6SM -TSRA FM250700 20008KT P6SM SCT050 OVC100 FM251400 25011KT P6SM BKN025 OVC100 FM251700 27012G17KT P6SM BKN050
KBNO,KBNO 241731Z 2418/2518 VRB06KT P6SM SKC
KBOI,KBOI 241731Z 2418/2518 13007KT P6SM SKC FM241900 31009KT P6SM SKC FM250300 14010KT P6SM SKC
KBOS,KBOS 242011Z 2420/2524 30013G25KT P6SM FEW250 FM250000 27007KT P6SM FEW250 FM251400 22007KT P6SM BKN110 FM251800 20010G18KT P6SM BKN070 FM252100 18009KT P6SM -SHRA BKN070
KBPI,KBPI 242050Z 2421/2518 34013G23KT P6SM SKC FM250200 36008KT P6SM SCT250 FM250700 VRB05KT P6SM SCT250
KBPK,KBPK 241720Z 2418/2518 24006KT P6SM SCT050 BKN110 FM250000 VRB03KT P6SM BKN250 FM251200 32005KT P6SM BKN250
KBPT,KBPT 241720Z 2418/2518 20006KT P6SM SCT035 FM250100 22003KT P6SM SKC FM251400 22008KT P6SM SKC
KBRD,KBRD 242008Z 2420/2518 26005KT 5SM -SHRA BR SCT008 OVC015 TEMPO 2420/2423 2SM -SHRA BR BKN008 OVC015 FM242300 29008G15KT P6SM -SHRA BKN015 OVC040 FM250200 29008KT P6SM BKN020 FM250500 30006KT P6SM SCT030 FM251600 31016G31KT P6SM SCT045
KBRL,KBRL 241721Z 2418/2518 25007KT P6SM SKC FM242100 25008KT P6SM BKN150 FM250300 29007KT P6SM SCT150 FM251400 30010G25KT P6SM SKC
KBRO,KBRO 241720Z 2418/2518 20004KT P6SM VCSH FEW070 FM242200 12010KT P6SM SCT250 FM250200 13006KT P6SM SCT250 FM250900 00000KT P6SM SCT110 FM251600 11005KT P6SM SCT110
KBTL,KBTL 241740Z 2418/2518 21010G18KT P6SM BKN050 OVC100 FM242100 27007KT P6SM BKN035 FM250900 22007KT 4SM -SHRA BR BKN007 OVC012 FM251400 30010KT P6SM -SHRA OVC018
KBTM,KBTM 241720Z 2418/2518 32005KT P6SM SCT250 FM241900 30009G15KT P6SM SKC FM242300 31008KT P6SM SKC
KBTR,KBTR 241720Z 2418/2518 00000KT P6SM SKC
KBTV,KBTV 241721Z 2418/2518 32013KT P6SM SCT045 FM250000 28005KT P6SM FEW250 FM251100 18007KT P6SM BKN120
KBUF,KBUF 241720Z 2418/2518 24008KT P6SM SCT035 BKN120 FM250000 17004KT P6SM BKN060 FM250800 15006KT P6SM VCSH OVC040 FM251000 16006KT 6SM -RA BR OVC035 FM251200 18009KT 5SM -RA BR OVC015 FM251500 22012G18KT P6SM VCSH OVC015
KBUR,KBUR 241740Z 2418/2518 00000KT P6SM SKC FM241900 17008KT P6SM SKC FM250300 VRB03KT P6SM SKC FM251000 00000KT P6SM SKC
KBVI,KBVI 241736Z 2418/2518 21005KT P6SM BKN100 FM250700 17004KT P6SM VCSH BKN070 FM251200 21005KT P6SM VCSH BKN025 FM251600 24007KT 6SM -SHRA VCTS BKN030CB
KBVO,KBVO 241720Z 2418/2518 26004KT P6SM SCT100 BKN250 FM250000 VRB03KT P6SM SCT150 FM251500 02010KT P6SM SCT250
KBWG,KBWG 241726Z 2418/2518 22012G19KT P6SM SCT090 FM242300 21007KT P6SM FEW250 FM251400 27012G19KT P6SM SCT120
KBWI,KBWI 242058Z 2421/2524 22009KT P6SM SCT120 FM250000 19003KT P6SM SCT080 FM251400 21008G16KT P6SM SCT050 BKN130 FM252000 23011G21KT 6SM -SHRA VCTS BKN060CB
KBYI,KBYI 241720Z 2418/2518 27007KT P6SM SKC FM250200 VRB05KT P6SM SKC
KBZN,KBZN 241731Z 2418/2524 29007KT P6SM FEW250
KCAE,KCAE 242037Z 2421/2518 VRB03KT P6SM FEW150 FM251500 23007KT P6SM SCT150
KCAK,KCAK 241740Z 2418/2518 19010KT P6SM BKN090 FM251400 25010KT P6SM -SHRA BKN025
KCAR,KCAR 241724Z 2418/2518 32021G46KT P6SM SCT150 FM242200 31015G34KT P6SM FEW210 WS020/31040KT FM250000 30012G23KT P6SM FEW140 WS020/32040KT FM250200 29010G18KT P6SM FEW230 FM250800 26005KT P6SM FEW160
KCBM,TAF AMD KCBM 232248Z 2322/2423 05008KT 9999 FEW100 QNH2999INS BECMG 2404/2405 09004KT 9999 SKC QNH3005INS BECMG 2412/2413 12008KT 9999 FEW080 QNH2999INS TX28/2322Z TN15/2411Z LAST NO AMDS AFT 2322 NEXT 2515
KCDC,KCDC 241734Z 2418/2518 VRB05KT P6SM SKC FM242000 36008KT P6SM SKC FM250200 VRB05KT P6SM SKC
KCDR,KCDR 241720Z 2418/2518 26008KT P6SM SKC FM242000 33015G25KT P6SM SKC FM250200 34007KT P6SM SKC FM250900 27005KT P6SM SKC
KCDS,KCDS 241720Z 2418/2518 23015KT P6SM SCT080 SCT200 FM242300 19009KT P6SM SCT200 FM251400 03017KT P6SM SCT200
KCEC,KCEC 241737Z 2418/2518 27004KT 6SM BR FEW002 FM242100 21007KT P6SM SKC FM250300 17005KT 2SM BR BKN003 FM251100 20003KT 1/2SM FG OVC003
KCEF,TAF KCEF 241810Z 2418/2524 32010G16KT 9999 FEW250 QNH2984INS BECMG 2420/2421 28009KT 9999 SCT230 QNH2985INS BECMG 2423/2424 26005KT 9999 SCT200 QNH2986INS BECMG 2505/2506 VRB03KT 9999 SCT140 BKN200 QNH2982INS BECMG 2508/2509 VRB03KT 9999 FEW060 BKN100 BKN200 QNH2979INS BECMG 2512/2513 18006KT 9999 FEW035 BKN060 BKN120 OVC200 QNH2969INS BECMG 2516/2517 18009KT 9999 BKN025 OVC055 QNH2961INS BECMG 2520/2521 17005KT 9000 -RA BR BKN015 OVC040 QNH2957INS TX21/2518Z TN07/2511Z
KCGI,KCGI 241720Z 2418/2518 26008KT P6SM SCT130 FM250200 VRB03KT P6SM BKN250 FM251400 34010G20KT P6SM SKC
KCHA,KCHA 241723Z 2418/2518 19007KT P6SM SKC FM251000 19007KT P6SM BKN040 PROB30 2510/2516 4SM -SHRA BR OVC025
KCHO,KCHO 241742Z 2418/2518 19012KT P6SM FEW050 BKN120 FM250000 21003KT P6SM BKN080 FM251500 21008G16KT P6SM BKN150
KCHS,KCHS 241729Z 2418/2518 VRB05KT P6SM SCT050 FM242000 17007KT P6SM FEW050 FM250100 VRB03KT P6SM SKC FM251400 22008KT P6SM FEW040
KCID,KCID 241721Z 2418/2518 25008KT P6SM SCT015 FM242000 27011G19KT P6SM SCT150 FM242300 28007KT P6SM BKN150 FM250700 30008KT P6SM SKC FM251400 31012G25KT P6SM SKC
KCIU,KCIU 241732Z 2418/2518 15007KT P6SM -SHRA OVC060 FM241900 15007KT P6SM VCSH OVC050 FM242200 13006KT P6SM VCSH OVC030 FM250100 13005KT P6SM VCSH OVC019 FM250600 10004KT 5SM BR OVC007 FM251300 36006KT 5SM -SHRA BKN008
KCKB,KCKB 241930Z 2420/2518 23007G12KT P6SM OVC080 FM242300 18004KT P6SM BKN080 FM251200 21005KT P6SM BKN045 FM251600 23010G20KT P6SM -SHRA BKN040
KCKV,KCKV 241720Z 2418/2518 20012KT P6SM BKN080 FM250100 20007KT P6SM VCTS SCT070CB OVC100 TEMPO 2501/2504 6SM -TSRA FM250600 21006KT P6SM BKN050 OVC100 FM251300 26010KT P6SM BKN050 OVC100
KCLE,KCLE 242051Z 2421/2524 19010KT P6SM BKN050 FM250700 22010KT P6SM VCSH BKN050 FM251400 24010KT P6SM -SHRA BKN035 FM251600 25010G20KT P6SM VCSH BKN030 FM251900 27012G22KT 6SM -SHRA BKN020
KCLL,KCLL 242141Z 2422/2518 16010KT P6SM SKC FM250400 18005KT P6SM FEW250 FM251200 18002KT 6SM BR FEW250 FM251500 21004KT P6SM SCT250
KCLM,KCLM 241735Z 2418/2518 VRB03KT P6SM SCT200 FM242200 29006KT P6SM SCT200 FM250200 VRB03KT P6SM SCT200
KCLT,KCLT 242202Z 2422/2524 25006KT P6SM BKN150 FM250100 21004KT P6SM SCT120 BKN250 FM251400 22007KT P6SM SCT150 FM251800 22008G17KT P6SM BKN050
KCMA,KCMA 241740Z 2418/2518 VRB03KT P6SM SKC FM241900 24008KT P6SM SKC FM250300 VRB03KT P6SM SKC FM251100 00000KT P6SM SKC
KCMH,KCMH 241747Z 2418/2518 20008KT P6SM BKN060 FM242100 19010KT P6SM SCT060 FM242300 17006KT P6SM FEW250 FM250600 20005KT P6SM BKN150 FM251000 22006KT P6SM VCSH BKN100 FM251300 21007KT P6SM VCSH BKN080 FM251500 24010G18KT P6SM SCT080 FM251700 26013G22KT P6SM SCT050
KCMI,KCMI 241735Z 2418/2518 24009KT P6SM SKC FM250000 25007KT P6SM BKN200 FM251000 28009KT P6SM SCT150 FM251400 30013G25KT P6SM FEW250
KCMX,KCMX 242001Z 2420/2518 13006KT P6SM VCSH OVC026 FM250000 VRB04KT 4SM BR VCSH OVC017 FM250400 VRB04KT 2SM BR OVC015 FM251100 VRB04KT 1 1/2SM -SHRA BR OVC004 FM251500 31007KT 3SM -SHRA BR BKN007
KCNM,KCNM 241736Z 2418/2518 34008KT P6SM SKC FM250200 19008KT P6SM SKC FM251200 33012KT P6SM FEW150 SCT250
KCNU,KCNU 241720Z 2418/2518 36005KT P6SM SKC FM251600 01011KT P6SM SKC AMD NOT SKED
KCNY,KCNY 241737Z 2418/2518 VRB04KT P6SM SKC
KCOD,KCOD 242050Z 2421/2518 04009KT P6SM SCT120 FM250200 35010KT P6SM SCT120 FM251000 21005KT P6SM SCT120 FM251700 04007KT P6SM SCT120
KCOE,KCOE 241720Z 2418/2518 11005KT P6SM SCT200 FM242000 21006KT P6SM SCT200 FM250200 06006KT P6SM SCT250
KCOF,TAF KCOF 240200Z 2402/2508 07010G15KT 9999 BKN040 QNH2989INS BECMG 2411/2412 05010G15KT 9999 SCT050 QNH2996INS TEMPO 2420/2422 06012G18KT 9000 -SHRA BKN020 OVC040 BECMG 2423/2424 09010KT 9999 SCT050 QNH2988INS TX31/2418Z TN23/2410Z LAST NO AMDS AFT 2404 NEXT 2610
KCON,KCON 241736Z 2418/2518 32015G28KT P6SM FEW040 FM242200 29007KT P6SM SKC FM250100 VRB04KT P6SM SKC FM250800 VRB02KT P6SM VCFG SKC FM251200 00000KT P6SM FEW080
KCOS,KCOS 241724Z 2418/2518 16012G22KT P6SM SKC FM242300 10008KT P6SM SKC FM250300 01007KT P6SM SKC FM250800 35014KT P6SM SCT080 FM251700 16008KT P6SM SCT080
KCOT,KCOT 241720Z 2418/2518 13008KT P6SM SCT050 SCT250
KCOU,KCOU 241728Z 2418/2518 28007KT P6SM SKC FM250700 31005KT P6SM SCT120 FM251600 32010G20KT P6SM SKC
KCPR,KCPR 241726Z 2418/2518 24014G24KT P6SM SKC FM242100 31014G22KT P6SM SCT130 FM250000 01012G20KT P6SM SCT130 FM250200 05009KT P6SM SCT120 FM250900 VRB05KT P6SM SCT120 FM251400 24006KT P6SM SCT120
KCPS,KCPS 241728Z 2418/2518 28007KT P6SM SKC FM250800 30006KT P6SM SCT120 FM251600 31011G21KT P6SM SKC
KCRE,KCRE 241720Z 2418/2518 VRB05KT P6SM SKC FM242000 17006KT P6SM SKC FM251300 25006KT P6SM SKC
KCRG,KCRG 241736Z 2418/2518 08012G18KT P6SM SCT045 SCT060 FM242300 08008KT P6SM SCT040 FM250300 VRB03KT P6SM FEW030 FM251500 04006KT P6SM SCT035 SCT100
KCRP,KCRP 241836Z 2419/2518 12011KT P6SM VCTS SCT035CB BKN250 FM242200 14010KT P6SM BKN250 TEMPO 2509/2513 BKN025 FM251300 14008KT P6SM VCSH BKN250
KCRQ,KCRQ 241720Z 2418/2518 27008KT P6SM SCT250 FM250200 VRB04KT P6SM FEW250
KCRW,KCRW 242200Z 2422/2518 23007KT P6SM SCT050 TEMPO 2422/2423 -SHRA BKN040 FM250000 20004KT P6SM BKN080 FM251300 22006KT P6SM BKN100 FM251400 23008G19KT P6SM BKN110 FM251700 24010G23KT P6SM BKN080
KCSG,KCSG 241741Z 2418/2518 14007KT P6SM SKC FM250000 VRB03KT P6SM SKC FM251500 27005KT P6SM FEW250
KCSM,KCSM 241736Z 2418/2518 22013G19KT P6SM VCSH OVC100 FM242300 19010KT P6SM SCT120 FM251100 02016G28KT P6SM SCT150
KCSV,KCSV 241720Z 2418/2518 18003KT P6SM VCSH FEW040 BKN120 FM241900 20005KT P6SM SCT100 FM250600 21006KT P6SM VCSH BKN050 FM251300 25008KT P6SM BKN020 OVC050
KCTB,KCTB 241731Z 2418/2518 30012G25KT P6SM FEW250 FM250200 27008KT P6SM SCT250 FM251400 VRB04KT P6SM FEW250
KCUB,KCUB 242037Z 2421/2518 VRB03KT P6SM FEW150 FM251500 23007KT P6SM SCT150
KCVG,KCVG 242053Z 2421/2524 20010G16KT P6SM FEW070 FM242300 21006KT P6SM FEW250 FM250600 22006KT P6SM BKN150 FM251000 22007KT P6SM BKN100 FM251300 24008KT P6SM SCT100 FM251500 26010KT P6SM SCT100 FM251700 28015G23KT P6SM FEW070
KCVS,TAF KCVS 241800Z 2418/2524 32009KT 9999 FEW120 QNH3004INS BECMG 2502/2503 02012KT 9999 SKC QNH3010INS BECMG 2514/2515 04012G20KT 9999 SKC QNH3022INS BECMG 2520/2521 09010G15KT 9999 FEW100 QNH3021INS TX31/2421Z TN15/2512Z LAST NO AMDS AFT 2418 NEXT 2518
KCWA,KCWA 242205Z 2422/2518 22004KT 4SM BR OVC008 FM250200 30003KT 4SM -SHRA BR OVC007 FM250600 31004KT 2SM -DZ BR BKN003 FM251400 30008G15KT 4SM -SHRA BR OVC007 FM251600 30011G20KT 5SM -SHRA BR BKN012
KCXO,KCXO 241727Z 2418/2518 00000KT P6SM SKC FM250200 VRB04KT P6SM FEW250 FM250900 VRB02KT 5SM BR FEW250 FM251500 24004KT P6SM SKC
KCXP,KCXP 241720Z 2418/2518 VRB04KT P6SM SKC FM242200 06008KT P6SM SKC FM250300 VRB03KT P6SM SKC
KCYS,KCYS 241720Z 2418/2518 31015G25KT P6SM SKC FM250100 33009KT P6SM SKC FM251300 VRB06KT P6SM SKC
KDAA,TAF KDAA 232000Z 2320/2502 32015G20KT 9999 SKC 510043 QNH3003INS BECMG 2322/2323 32009KT 9999 SKC 510043 QNH2997INS TX22/2320Z TN10/2411Z LAST NO AMDS AFT 2401 NEXT 2612
KDAB,KDAB 241739Z 2418/2518 06010G17KT P6SM SCT050 FM250000 06006KT P6SM SCT060 FM250400 08003KT P6SM FEW250 FM251400 07006KT P6SM SCT050
KDAG,KDAG 241720Z 2418/2518 29006KT P6SM FEW120 FM241900 VRB05KT P6SM SKC FM250400 25006KT P6SM FEW250
KDAL,KDAL 242052Z 2421/2518 20008KT P6SM SKC FM251400 27006KT P6SM SCT150 FM251700 31008KT P6SM BKN150
KDAN,KDAN 241722Z 2418/2518 24008KT P6SM BKN110 FM242200 25003KT P6SM SCT100 FM251500 23010G16KT P6SM BKN250
KDAY,KDAY 241747Z 2418/2518 18012G18KT P6SM BKN060 FM242100 20010G18KT P6SM FEW060 FM242300 20007KT P6SM FEW250 FM250600 21007KT P6SM BKN120 FM250900 23007KT P6SM VCSH BKN100 FM251300 25010KT P6SM BKN100 FM251500 27014G22KT P6SM SCT100 FM251700 28016G26KT P6SM SCT050
KDBQ,KDBQ 241721Z 2418/2518 23009KT P6SM OVC008 FM241900 24010KT P6SM BKN015 FM242000 25010KT P6SM SCT020 SCT150 FM250300 29007KT P6SM BKN150 FM251500 31014G25KT P6SM SKC
KDCA,KDCA 242058Z 2421/2524 21008KT P6SM SCT140 FM250000 19005KT P6SM SCT080 FM251400 20008G16KT P6SM SCT050 BKN130 FM252000 24010G19KT 6SM -SHRA VCTS BKN060CB
KDDC,KDDC 241720Z 2418/2518 02010KT P6SM SKC
KDEC,KDEC 241735Z 2418/2518 25008KT P6SM SKC FM250000 26007KT P6SM BKN200 FM250900 29010G18KT P6SM SCT150 FM251400 30014G24KT P6SM FEW250
KDEN,KDEN 242032Z 2421/2524 01009KT P6SM FEW100 FEW220 FM242230 04010KT P6SM FEW100 FEW220 FM250000 09006KT P6SM FEW220 FM250600 01006KT P6SM FEW220 FM251000 20006KT P6SM SKC FM251700 02007KT P6SM SKC FM252000 07007KT P6SM FEW120
KDET,KDET 241732Z 2418/2518 18006KT P6SM SCT060 OVC080 FM242000 16008KT P6SM BKN045 FM250200 20005KT 6SM -SHRA BKN045 OVC060 FM250600 25005KT P6SM VCSH BKN030 OVC050 FM251100 27008KT P6SM -RA SCT015 OVC025
KDFW,KDFW 242052Z 2421/2524 20008KT P6SM SKC FM251400 28006KT P6SM SCT150 FM251700 32008KT P6SM BKN150 FM252100 02012KT P6SM SCT090
KDHN,KDHN 241720Z 2418/2518 12004KT P6SM SKC
KDHT,KDHT 241720Z 2418/2518 04016KT P6SM FEW240 FM250700 03006KT P6SM SKC FM251500 03016KT P6SM SKC
KDIJ,KDIJ 241720Z 2418/2518 VRB06KT P6SM SKC FM242000 29007KT P6SM SKC FM250200 12005KT P6SM SKC AMD LTD TO CLD VIS AND WIND
KDIK,KDIK 241722Z 2418/2518 31013G22KT P6SM FEW110 FM250100 30009KT P6SM FEW250 FM251600 31013G21KT P6SM SKC
KDLF,TAF AMD KDLF 232325Z 2323/2501 13008KT 9999 FEW060 QNH2994INS BECMG 2414/2415 13006KT 9999 SKC QNH2993INS TX33/2420Z TN21/2411Z LAST NO AMDS AFT 2400 NEXT 2518
KDLH,KDLH 242201Z 2422/2518 VRB04KT 3SM BR VCSH OVC005 TEMPO 2422/2424 1SM -SHRA BR FM250300 31007KT 1SM -SHRA BR OVC003 FM250800 31009G15KT 5SM BR OVC003 FM251400 30014G22KT P6SM SCT010 FM251700 31018G27KT P6SM SCT015
KDLS,KDLS 241720Z 2418/2518 07007KT P6SM SKC FM250600 10004KT P6SM SKC
KDMA,TAF KDMA 241406Z 2414/2520 VRB06KT 9999 FEW100 SCT250 QNH3002INS BECMG 2419/2420 30009KT 9999 FEW100 FEW250 QNH2998INS BECMG 2502/2503 VRB06KT 9999 SCT080 BKN250 QNH2999INS TX35/2421Z TN20/2514Z
KDMN,KDMN 241720Z 2418/2518 VRB04KT P6SM FEW200 FM242000 29008KT P6SM FEW100 SCT250 FM250200 32010KT P6SM SCT100 BKN200 FM251000 04008KT P6SM BKN090 BKN150
KDNL,KDNL 242037Z 2421/2518 VRB03KT P6SM SKC FM251500 23007KT P6SM SCT150
KDOV,TAF KDOV 241600Z 2416/2522 29012KT 9999 SCT150 QNH2982INS BECMG 2513/2514 22010G15KT 9999 FEW035 BKN055 OVC080 QNH2967INS BECMG 2520/2521 20020G25KT 9999 BKN100 QNH2965INS TX26/2520Z TN15/2504Z
KDPA,KDPA 242101Z 2421/2518 27009KT P6SM SCT035 BKN150 FM250200 VRB04KT P6SM VCSH SCT035 BKN050 TEMPO 2504/2508 5SM SHRA BKN035 FM250800 30013G22KT P6SM BKN015
KDRO,KDRO 241737Z 2418/2518 25005KT P6SM SKC FM242100 27009KT P6SM SKC FM250100 30009KT P6SM SKC FM250300 VRB04KT P6SM SKC
KDRT,KDRT 241720Z 2418/2518 14012KT P6SM FEW060 FM250000 10006KT P6SM SKC
KDSM,KDSM 241723Z 2418/2518 28011G18KT P6SM FEW250 FM242000 30013G23KT P6SM BKN250 FM250000 30009KT P6SM BKN100 FM251500 31012G21KT P6SM SKC
KDTW,KDTW 242109Z 2421/2524 16008KT P6SM SCT045 BKN060 FM250200 21005KT 6SM -SHRA BKN045 OVC060 FM250600 25005KT P6SM VCSH BKN030 OVC050 FM251100 27008KT P6SM -RA SCT015 OVC025
KDUJ,KDUJ 241736Z 2418/2518 23007KT P6SM SCT100 FM250700 16003KT P6SM BKN070 FM251100 18004KT 6SM -SHRA BKN020 FM251200 19005KT 5SM SHRA BR BKN007 FM251600 23009G18KT 5SM -SHRA VCTS BKN020CB
KDVL,KDVL 241739Z 2418/2518 28015G20KT P6SM FEW030 FM242000 30018G26KT P6SM FEW250 FM250200 30012KT P6SM FEW250 FM251300 31014G23KT P6SM SKC FM251600 33020G29KT P6SM FEW250
KDVT,KDVT 242101Z 2421/2518 24007KT P6SM FEW120 FEW250 FM250500 03005KT P6SM FEW250
KDYS,TAF AMD KDYS 242142Z 2421/2520 18009KT 9999 SCT095 QNH2990INS BECMG 2510/2511 VRB06KT 9999 BKN100 QNH3000INS TX35/2421Z TN21/2512Z LAST NO AMD AFT 2422 NEXT 2513
KEAR,KEAR 242042Z 2421/2518 30011G18KT P6SM SKC FM242300 31009KT P6SM FEW100 FM250100 34006KT P6SM SKC FM251700 32013G18KT P6SM SKC
KEAT,KEAT 241720Z 2418/2518 27005KT P6SM SCT250 FM241900 11005KT P6SM SCT250 FM250400 33006KT P6SM FEW200
KEAU,KEAU 242116Z 2421/2518 23005KT P6SM VCSH BKN020 BKN050 FM242300 29005KT P6SM VCSH SCT020 BKN035 FM250300 30006KT 2SM BR OVC006 FM251500 31012G22KT P6SM BKN020
KECG,KECG 241913Z 2419/2518 22007KT P6SM SCT150 FM250800 21007KT P6SM BKN150 FM251500 22014G22KT P6SM SCT200
KECP,KECP 241720Z 2418/2518 10004KT P6SM FEW250
KEDW,TAF AMD KEDW 240300Z 2403/2503 VRB06KT 9999 SKC QNH2998INS BECMG 2420/2421 26012KT 9999 FEW060 QNH3006INS TX34/2422Z TN12/2414Z LAST NO AMDS AFT 2403 NEXT 2613
KEED,KEED 241720Z 2418/2518 03008KT P6SM FEW100 FM250300 34008KT P6SM FEW250 FM251600 35010KT P6SM FEW250
KEET,KEET 241725Z 2418/2518 16005KT P6SM SKC FM250200 16002KT P6SM FEW050 FM251500 22005KT 4SM SHRA OVC035 PROB30 2515/2518 4SM TSRA BR OVC025CB
KEFD,TAF KEFD 242000Z 2420/2602 VRB06KT 9999 FEW055 SCT200 QNH2988INS TX35/2421Z TN23/2512Z
KEFK,KEFK 241721Z 2418/2518 31012G19KT P6SM SCT045 FM242000 30011G18KT P6SM FEW240 FM242200 30007KT P6SM FEW250 FM251400 20006KT P6SM BKN090
KEGE,KEGE 242001Z 2420/2518 VRB03KT P6SM SKC FM242100 24010G15KT P6SM SKC FM250200 VRB03KT P6SM SKC
KEGI,TAF AMD KEGI 240500Z 2405/2507 03009KT 9999 SKC QNH2995INS BECMG 2410/2411 07009KT 9999 SCT030 QNH2994INS BECMG 2422/2423 12009KT 9999 FEW030 QNH2993INS TX31/2420Z TN19/2411Z LAST NO AMDS AFT 2405 NEXT 2609
KEKN,KEKN 242116Z 2421/2518 24007G12KT P6SM SCT050 FM251000 00000KT P6SM BKN022 FM251500 24008G18KT P6SM BKN030
KEKO,KEKO 241720Z 2418/2518 VRB06KT P6SM SKC
KEKS,KEKS 241731Z 2418/2518 VRB05KT P6SM FEW250 FM251400 00000KT P6SM FEW250
KELD,KELD 241720Z 2418/2518 25005KT P6SM FEW240 FM250000 VRB05KT P6SM SKC FM251400 26004KT P6SM SKC
KELM,KELM 241731Z 2418/2518 23006KT P6SM SCT250 FM242300 00000KT P6SM SCT150 FM251000 23003KT P6SM BKN100 FM251400 17009KT P6SM VCSH SCT040 BKN060
KELP,KELP 241720Z 2418/2518 28006KT P6SM FEW100 FM250300 34007KT P6SM SCT100 BKN200 FM251200 03007KT P6SM BKN090 BKN150
KELY,KELY 241720Z 2418/2518 VRB06KT P6SM SKC FM250500 17009KT P6SM SKC FM251500 VRB06KT P6SM SKC
KEND,TAF KEND 241800Z 2418/2600 VRB06KT 9999 BKN090 QNH2990INS BECMG 2500/2501 01008KT 9999 FEW100 QNH2993INS BECMG 2513/2514 02010G20KT 9999 SKC QNH3015INS BECMG 2522/2523 01010KT 9999 SKC QNH3015INS TX31/2421Z TN12/2511Z
KENV,KENV 241734Z 2418/2518 14007KT P6SM SKC FM250300 VRB05KT P6SM SKC
KENW,KENW 242051Z 2421/2518 25007KT P6SM BKN023 FM250000 VRB03KT P6SM OVC050 FM250400 VRB04KT P6SM -SHRA OVC035 FM250800 VRB04KT P6SM VCSH OVC017 FM251100 31007KT P6SM BKN015 FM251700 29013G22KT P6SM BKN017
KERI,KERI 241740Z 2418/2518 17005KT P6SM VCSH SCT035 BKN100 FM241900 18010KT P6SM BKN080 FM250500 18010KT P6SM BKN050 FM251200 19013KT P6SM -SHRA BKN025 FM251600 24012G22KT 5SM -SHRA OVC015
KEUG,KEUG 241720Z 2418/2518 01008KT P6SM SKC FM250400 VRB04KT P6SM SKC
KEUL,KEUL 241731Z 2418/2518 VRB06KT P6SM SKC
KEVV,KEVV 241720Z 2418/2518 23010KT P6SM BKN080 FM250200 VRB03KT P6SM BKN250 FM251400 32010G19KT P6SM SKC
KEVW,KEVW 241734Z 2418/2518 24010KT P6SM SKC FM242000 29012KT P6SM SKC FM250400 VRB05KT P6SM SKC
KEWN,KEWN 241745Z 2418/2518 22004KT P6SM SCT120 SCT220 FM251600 22010G15KT P6SM SCT120 BKN200
KEWR,KEWR 241958Z 2420/2524 30008KT P6SM SKC TEMPO 2420/2422 30008G15KT FM242200 28008KT P6SM SKC FM250300 25007KT P6SM BKN100 BKN250 FM250600 23004KT P6SM BKN100 BKN250 FM251500 20009KT P6SM SCT060 BKN100 BKN200 FM251700 21012G18KT P6SM BKN060 BKN100 BKN200 PROB30 2521/2524 3SM TSRA BKN050CB
KEYW,KEYW 241720Z 2418/2518 08006KT P6SM FEW030
KFAF,TAF KFAF 240200Z 2402/2508 35008KT 9999 SCT250 QNH3006INS BECMG 2413/2414 VRB06KT 9999 SCT120 BKN180 QNH2996INS BECMG 2500/2501 22010KT 9999 SCT060 BKN080 QNH2989INS TX23/2419Z TN12/2407Z LAST NO AMDS AFT 2403 NEXT 2610
KFAR,KFAR 241739Z 2418/2518 31016G23KT P6SM SCT025 FM250100 30010KT P6SM SCT250 FM251300 31014G23KT P6SM SKC FM251600 33020G28KT P6SM FEW250
KFAT,KFAT 241720Z 2418/2518 VRB03KT P6SM SKC
KFAY,KFAY 241720Z 2418/2518 21006KT P6SM SCT120 FM251500 22012G18KT P6SM VCSH SCT090 BKN150
KFBG,TAF KFBG 241700Z 2417/2523 VRB06KT 9999 BKN120 QNH3015INS BECMG 2423/2424 21008KT 9999 BKN080 QNH3005INS BECMG 2515/2516 21010G15KT 9999 BKN070 QNH2996INS BECMG 2519/2520 21010G20KT 9999 BKN050 QNH2992INS TX26/2519Z TN15/2509Z
KFCS,TAF COR KFCS 241720Z 2405/2511 34005KT 9999 SKC QNH3021INS BECMG 2418/2419 20010G15KT 9999 SKC QNH3019INS BECMG 2500/2501 34008KT 9999 SKC QNH3024INS TX25/2421Z TN08/2510Z
KFDY,KFDY 241740Z 2418/2518 19010KT P6SM BKN060 FM251000 24006KT P6SM -SHRA BKN045 FM251400 27012KT P6SM VCSH BKN025
KFFO,TAF KFFO 241900Z 2419/2601 19012KT 9999 SCT055 BKN080 QNH2987INS TEMPO 2419/2421 21012G18KT BECMG 2423/2424 21009KT 9999 SCT025 BKN050 510102 QNH2981INS BECMG 2504/2506 22009KT 9999 VCSH BKN025 BKN040 OVC120 510102 QNH2974INS BECMG 2509/2511 24012KT 9999 -RA BKN008 BKN015 OVC100 510102 QNH2971INS BECMG 2513/2515 27012KT 9999 NSW SCT018 BKN030 BKN110 510102 QNH2974INS TEMPO 2515/2521 27015G25KT VCSH BKN015 BECMG 2523/2601 28009KT 9999 SCT015 BKN020 OVC035 510102 QNH2976INS TX21/2420Z TN14/2511Z
KFHU,TAF KFHU 240600Z 2406/2512 28009KT 9999 VCTS FEW080CB SCT120 SCT220 QNH3016INS BECMG 2408/2409 34007KT 9999 FEW110 QNH3021INS BECMG 2418/2419 34009KT 9999 VCTS SCT050CB QNH3017INS TEMPO 2420/2502 VRB24G30KT 6000 TSRA OVC050CB BECMG 2502/2503 25009KT 9999 SCT070 BKN090 621002 QNH3017INS TX30/2421Z TN18/2411Z LAST NO AMDS AFT 2408 NEXT 2606
KFKL,KFKL 241736Z 2418/2518 22007KT P6SM BKN100 FM250900 18005KT 6SM -SHRA BKN040 FM251200 20005KT 5SM SHRA BR BKN008 FM251600 24007KT 4SM SHRA BR VCTS BKN020CB
KFLG,KFLG 241738Z 2418/2518 VRB05KT P6SM SKC FM241930 36008KT P6SM FEW120 FM250130 VRB04KT P6SM SKC
KFLL,KFLL 242051Z 2421/2524 08010KT P6SM VCTS SCT020CB BKN250 FM242300 09010KT P6SM BKN030 BKN250 FM250100 11005KT P6SM SCT035 BKN250 FM251500 11008KT P6SM SCT025 SCT050 PROB30 2515/2518 6SM SHRA BKN025 FM251800 11010KT P6SM VCTS SCT025CB BKN050
KFLO,KFLO 241720Z 2418/2518 VRB03KT P6SM SKC FM251400 23008KT P6SM SKC
KFMH,KFMH 242011Z 2420/2518 30012G22KT P6SM FEW250 FM242300 28007KT P6SM FEW250 FM250900 26003KT P6SM FEW200 FM251300 23007KT P6SM BKN110 FM251500 22010G18KT P6SM BKN080
KFMN,KFMN 242134Z 2422/2518 31010G18KT P6SM SKC FM250200 30008KT P6SM SKC FM250900 07006KT P6SM SKC
KFMY,KFMY 241741Z 2418/2518 06009KT P6SM SCT035 SCT100 FM241900 05011KT P6SM VCSH SCT040 BKN100 FM250300 06006KT P6SM FEW035 SCT250 FM251600 11006KT P6SM SCT040 BKN250
KFNT,KFNT 241732Z 2418/2518 18006KT P6SM OVC040 FM241900 16008KT P6SM BKN045 OVC060 FM250200 21005KT 6SM -SHRA BKN045 OVC060 FM250700 25005KT P6SM VCSH BKN022 OVC035 FM251300 25004KT 4SM BR OVC010
KFOD,KFOD 241900Z 2419/2518 29016G24KT P6SM SCT250 FM250000 32008KT P6SM SCT100 FM251400 31012G20KT P6SM SKC
KFOE,KFOE 241720Z 2418/2518 29007KT P6SM SKC FM251500 34011KT P6SM SKC
KFPR,KFPR 241858Z 2419/2518 07009KT P6SM VCSH BKN050 TEMPO 2419/2420 3SM SHRA FM250300 09008KT P6SM VCSH BKN035 FM251200 09006KT P6SM BKN035
KFRI,TAF KFRI 232009Z 2320/2502 22012KT 9999 BKN025 QNH2992INS BECMG 2321/2322 22012KT 9999 SCT080 QNH2993INS BECMG 2400/2401 20010KT 9999 SKC QNH2995INS BECMG 2409/2410 27010KT 9999 SKC QNH2996INS TX28/2420Z TN14/2412Z LAST NO AMDS AFT 2320 NEXT 2612
KFSD,KFSD 241720Z 2418/2518 31015G24KT P6SM BKN120 FM250000 32010KT P6SM BKN120 FM250300 31007KT P6SM SKC FM251500 31016G26KT P6SM SKC
KFSM,KFSM 241720Z 2418/2518 25005KT P6SM SCT120 SCT250 FM250000 VRB04KT P6SM BKN100 FM251500 33006KT P6SM SCT150
KFST,KFST 241736Z 2418/2518 14010KT P6SM SKC
KFTK,TAF COR KFTK 231949Z 2319/2501 06008KT 9999 BKN100 BKN150 QNH3008INS BECMG 2401/2402 11007KT 9999 VCSH BKN070 OVC120 QNH3002INS TEMPO 2408/2414 8000 -SHRA OVC060 BECMG 2415/2416 20009KT 9999 VCSH SCT065 BKN100 QNH2989INS TEMPO 2417/2422 23012G18KT TX22/2419Z TN12/2412Z LAST NO AMDS AFT 2403 NEXT 2611
KFTW,KFTW 242052Z 2421/2518 20008KT P6SM SKC FM251400 28006KT P6SM SCT150 FM251700 32008KT P6SM BKN150
KFTY,KFTY 241741Z 2418/2518 16005KT P6SM SKC FM251200 23005KT P6SM SCT150 PROB30 2514/2518 -SHRA BKN090
KFVE,KFVE 241724Z 2418/2518 32020G47KT P6SM SCT150 FM242200 31014G36KT P6SM FEW180 WS020/32045KT FM250200 30010G19KT P6SM FEW140 WS020/34040KT FM250500 29007KT P6SM FEW140 FM251600 25007KT P6SM FEW060
KFWA,KFWA 241725Z 2418/2518 20012KT P6SM SCT100 FM250000 22006KT P6SM SCT140 PROB30 2509/2513 -SHRA FM251300 27010G22KT P6SM BKN025
KFXE,KFXE 242051Z 2421/2518 08010KT P6SM VCTS SCT020CB BKN250 FM242300 08010KT P6SM BKN030 BKN250 FM250100 10005KT P6SM SCT035 BKN250 FM251500 10007KT P6SM SCT025 SCT050 PROB30 2515/2518 6SM SHRA BKN025
KFYV,KFYV 241720Z 2418/2518 22010G19KT P6SM SCT120 SCT250 FM250000 20003KT P6SM BKN100 FM251500 01009KT P6SM SCT250
KGBD,KGBD 241720Z 2418/2518 36005KT P6SM SKC FM251500 36010KT P6SM SKC
KGCC,KGCC 241738Z 2418/2518 32018G28KT P6SM FEW200 FM250100 35007KT P6SM SKC FM250800 25003KT P6SM SKC
KGCK,KGCK 241720Z 2418/2518 01010KT P6SM SKC
KGCN,KGCN 241738Z 2418/2518 35010KT P6SM SKC FM250200 VRB05KT P6SM SKC
KGDV,KGDV 241728Z 2418/2518 31015KT P6SM SCT110 FM250100 31010KT P6SM FEW070 FM251700 32007KT P6SM SKC
KGEG,KGEG 241720Z 2418/2518 14004KT P6SM FEW120 FEW200 FM241900 23005KT P6SM SCT200 FM250500 06003KT P6SM SCT250
KGFA,TAF AMD KGFA 240050Z 2400/2502 28015KT 9999 FEW110 SCT200 OVC290 530053 QNH2993INS BECMG 2423/2424 VRB06KT 9999 SKC 510073 QNH3017INS TX22/2420Z TN13/2411Z LAST NO AMDS AFT 2400 NEXT 2612
KGFK,KGFK 241739Z 2418/2518 31013KT P6SM BKN020 FM242000 33014G22KT P6SM SCT080 FM250100 30010KT P6SM SCT250 FM251300 31014G23KT P6SM SKC FM251600 33020G28KT P6SM FEW250
KGFL,KGFL 241737Z 2418/2518 34010KT P6SM FEW045 FEW250 FM250000 VRB03KT P6SM SCT250 FM250600 00000KT P6SM BKN150 FM251200 15004KT P6SM SCT060 OVC100 FM251600 17005KT P6SM VCSH SCT030 OVC060
KGGG,KGGG 241720Z 2418/2518 23005KT P6SM FEW250 FM250000 00000KT P6SM FEW250 FM251300 24003KT P6SM SKC
KGGW,KGGW 241728Z 2418/2518 30015KT P6SM FEW080 FM242300 32017G25KT P6SM SKC FM250200 33010KT P6SM FEW070
KGJT,KGJT 241737Z 2418/2518 VRB04KT P6SM SKC FM242000 30007KT P6SM SKC FM250200 03005KT P6SM SKC FM250500 10007KT P6SM SKC
KGKY,KGKY 242052Z 2421/2518 19008KT P6SM SKC FM251400 27006KT P6SM SCT150 FM251700 31008KT P6SM BKN150
KGLD,KGLD 241720Z 2418/2518 33012G20KT P6SM SKC FM242300 35007KT P6SM SKC
KGLH,KGLH 241731Z 2418/2518 22008KT P6SM SKC FM250700 VRB05KT P6SM SHRA SCT060 BKN100 FM251400 27007KT P6SM VCSH SCT060
KGLS,KGLS 241727Z 2418/2518 17005KT P6SM FEW028 FM250800 21006KT P6SM FEW025 FM251600 22006KT P6SM SCT250
KGMU,KGMU 241720Z 2418/2518 23006KT P6SM SCT100 FM250000 22003KT P6SM FEW100 SCT250 FM251300 23006KT P6SM SCT060 BKN200 FM251600 23008G17KT P6SM BKN060
KGNV,KGNV 241736Z 2418/2518 07007KT P6SM SCT045 FM242300 07005KT P6SM FEW045 FM250800 00000KT 5SM BR SKC FM251300 06005KT P6SM SKC
KGON,KGON 241958Z 2420/2518 29012G19KT P6SM FEW040 FEW150 SCT250 FM242200 29010KT P6SM FEW040 FEW150 SCT250 FM250000 29007KT P6SM FEW150 FEW250 FM250400 VRB04KT P6SM BKN150 BKN250 FM251400 21007KT P6SM FEW050 SCT080 BKN100 FM251600 19011G18KT P6SM SCT040 BKN080
KGPI,KGPI 241720Z 2418/2518 00000KT P6SM SCT060 FM242100 15007KT P6SM SCT250 FM250200 VRB04KT P6SM SCT250
KGPT,KGPT 241720Z 2418/2518 VRB04KT P6SM SKC
KGRB,KGRB 242205Z 2422/2518 23004KT P6SM OVC018 FM250000 VRB03KT 5SM BR VCSH OVC022 FM250400 30006KT 4SM -SHRA BR BKN006 FM251000 30006KT 3SM -DZ BR BKN004 FM251600 30009G17KT P6SM -SHRA OVC012
KGRF,TAF KGRF 242100Z 2421/2603 VRB06KT 9999 FEW100 SCT200 QNH3004INS TX21/2521Z TN11/2514Z
KGRI,KGRI 241739Z 2418/2518 29012G18KT P6SM SKC FM241900 30014G25KT P6SM SKC FM242300 31010KT P6SM FEW100 FM250100 34007KT P6SM SKC FM251700 32012G19KT P6SM SKC
KGRK,TAF KGRK 241600Z 2416/2522 19006KT 9999 SKC QNH3004INS BECMG 2418/2419 18010G15KT 9999 SKC QNH2997INS BECMG 2423/2500 17006KT 9999 SCT090 QNH2991INS TX35/2421Z TN22/2512Z
KGRR,KGRR 241740Z 2418/2518 21007KT P6SM SCT025 OVC050 FM242000 25008KT P6SM VCSH OVC025 FM250100 VRB04KT P6SM VCSH OVC035 FM250900 30005KT 4SM -SHRA BR SCT007 OVC012 FM251400 30008KT P6SM -SHRA OVC018
KGSO,KGSO 241720Z 2418/2518 23007KT P6SM BKN100 FM251500 23012G18KT P6SM VCSH OVC090
KGSP,KGSP 241720Z 2418/2518 22006KT P6SM SCT100 FM250000 22004KT P6SM FEW100 SCT250 FM251300 23006KT P6SM SCT060 BKN200 FM251600 23008G16KT P6SM BKN060
KGTB,TAF KGTB 241700Z 2417/2523 22009KT 9999 SKC QNH2982INS BECMG 2504/2505 16009KT 9999 SCT020 BKN050 QNH2958INS BECMG 2517/2518 11009KT 8000 -RA SCT015 OVC022 QNH2952INS TX17/2516Z TN09/2506Z
KGTF,KGTF 241731Z 2418/2518 28011G20KT P6SM FEW250 FM242300 31009KT P6SM FEW250 FM250400 VRB05KT P6SM FEW250
KGTR,KGTR 241731Z 2418/2518 18006KT P6SM SKC FM250900 36010KT P6SM SHRA VCTS SCT050CB BKN100 FM251100 18004KT P6SM VCSH BKN100
KGUC,KGUC 241737Z 2418/2518 VRB04KT P6SM SKC FM242000 25010KT P6SM SKC FM250200 VRB03KT P6SM SKC
KGUP,KGUP 241720Z 2418/2518 VRB03KT P6SM SKC FM242000 32009KT P6SM FEW150 FM250400 VRB03KT P6SM SKC
KGUR,TAF KGUR 240121Z 2401/2507 VRB06KT 9999 SKC QNH3000INS BECMG 2418/2419 30020G25KT 9999 SKC 510063 QNH3015INS BECMG 2500/2501 35009KT 9999 SKC QNH3016INS TX25/2421Z TN06/2413Z LAST NO AMDS AFT 2401 NEXT 2705
KGUS,TAF KGUS 242100Z 2421/2603 24010G15KT 9999 FEW070 QNH3082INS BECMG 2500/2501 VRB06KT 9999 BKN030 QNH2970INS TEMPO 2507/2511 VRB15G25KT 4800 -TSRA OVC025CB BECMG 2512/2513 27012G20KT 9999 BKN030 QNH2973INS TEMPO 2513/2519 27015G25KT 4800 -TSRA OVC015CB BECMG 2600/2601 29012KT 9999 BKN025 QNH2979INS TX21/2421Z TN14/2511Z LAST NO AMDS AFT 2503 NEXT 2513
KGUY,KGUY 241720Z 2418/2518 04015G23KT P6SM SKC FM250500 03005KT P6SM SKC FM251600 04014G22KT P6SM SKC
KGWO,KGWO 241731Z 2418/2518 21008KT P6SM SKC FM250600 36010KT P6SM SHRA VCTS SCT050CB BKN100 FM251000 18004KT P6SM VCSH BKN100
KGYY,KGYY 242101Z 2421/2518 26009KT P6SM SCT035 BKN150 FM250300 VRB04KT P6SM VCSH SCT035 BKN050 TEMPO 2504/2508 5SM SHRA BKN035 FM251000 30013G22KT P6SM BKN015
KHBG,KHBG 241731Z 2418/2518 VRB03KT P6SM SKC
KHCR,KHCR 241734Z 2418/2518 VRB05KT P6SM SKC
KHDC,KHDC 241720Z 2418/2518 00000KT P6SM SKC
KHDN,KHDN 241737Z 2418/2518 VRB03KT P6SM SKC FM242000 29010KT P6SM SKC FM250200 VRB04KT P6SM SKC FM250600 11008KT P6SM SKC
KHIB,KHIB 241924Z 2419/2518 VRB03KT 5SM BR VCSH OVC006 FM242200 VRB03KT 5SM -SHRA BR OVC006 FM250200 VRB03KT 3SM -SHRA BR OVC005 FM250700 32006KT 5SM BR VCSH OVC004 FM251200 32008G15KT P6SM SCT006 FM251600 32017G26KT P6SM SCT027
KHIE,KHIE 241736Z 2418/2518 26010G17KT P6SM SCT040 FM242300 25005KT P6SM SKC FM250800 00000KT 1SM BR SCT002 SCT150 FM251300 VRB02KT P6SM FEW080
KHIF,TAF KHIF 242100Z 2421/2603 29007KT 9999 SKC QNH3026INS BECMG 2503/2504 11014KT 9999 SKC QNH3028INS BECMG 2517/2518 29007KT 9999 SKC QNH3023INS TX25/2423Z TN10/2513Z LAST NO AMDS AFT 2423 NEXT 2513
KHIO,KHIO 241720Z 2418/2518 VRB04KT P6SM SKC FM250000 02006KT P6SM SKC FM250400 30006KT P6SM SKC FM251100 00000KT P6SM SKC
KHKS,KHKS 241731Z 2418/2518 VRB03KT P6SM FEW100
KHKY,KHKY 241720Z 2418/2518 21007KT P6SM BKN080 FM242300 21004KT P6SM BKN100 FM250400 21003KT P6SM SCT100 BKN200 FM251400 23006KT P6SM SCT060 BKN150 FM251600 23008KT P6SM BKN060
KHLG,KHLG 241736Z 2418/2518 21005KT P6SM BKN090 FM250700 19005KT P6SM VCSH BKN070 FM251300 22006KT P6SM VCSH BKN025 FM251600 23008KT 6SM -SHRA VCTS BKN030CB
KHLN,KHLN 241731Z 2418/2518 27010G19KT P6SM FEW250 FM250300 VRB05KT P6SM SCT250 FM251000 00000KT P6SM SCT250
KHMN,TAF KHMN 240100Z 2401/2507 VRB06KT 9999 FEW120 QNH3003INS TX33/2422Z TN15/2412Z LAST NO AMDS AFT 2401 NEXT 2614
KHNB,KHNB 241726Z 2418/2518 23011G17KT P6SM SKC FM242300 21005KT P6SM FEW250 FM251400 31012G19KT P6SM SCT080
KHND,KHND 241720Z 2418/2518 04007KT P6SM FEW100 FM250200 VRB05KT P6SM SKC FM251700 04008KT P6SM FEW250
KHOB,KHOB 241736Z 2418/2518 16008KT P6SM SKC FM251200 02010KT P6SM FEW150 SCT250
KHON,KHON 241720Z 2418/2518 32015G23KT P6SM BKN150 FM250100 31008KT P6SM SKC FM251500 32015G23KT P6SM SKC
KHOP,TAF AMD KHOP 241920Z 2419/2522 25010G15KT 9999 FEW050 BKN085 QNH2996INS BECMG 2421/2423 VRB06KT 9999 FEW085 QNH2992INS TEMPO 2501/2504 VCTS BKN040CB BECMG 2506/2507 VRB06KT 8000 BR FEW027 QNH2990INS BECMG 2516/2517 31010G15KT 9999 NSW SKC QNH2990INS TX28/2421Z TN17/2512Z
KHOT,KHOT 242201Z 2422/2518 25009KT P6SM VCTS SCT040CB BKN100 TEMPO 2422/2502 VRB10G25KT 5SM -TSRA BR BKN030CB FM250200 VRB03KT P6SM VCSH OVC120 FM251200 31005KT P6SM BKN250
KHOU,KHOU 242132Z 2422/2518 17007KT P6SM FEW040 FEW250 FM250300 VRB04KT P6SM FEW250 FM251500 23004KT P6SM SCT250
KHPN,KHPN 241958Z 2420/2518 30011KT P6SM SKC TEMPO 2420/2421 30011G17KT FM242100 30008KT P6SM SKC FM250000 29005KT P6SM SCT150 BKN250 FM250400 VRB03KT P6SM BKN120 BKN250 FM251400 19007KT P6SM SCT080 BKN100 FM251700 19011G17KT P6SM BKN080 AMD NOT SKED
KHQM,KHQM 241735Z 2418/2518 09006KT P6SM SCT020 FM242000 25008KT P6SM SCT200 FM251200 VRB03KT 4SM BR BKN002 FM251600 VRB03KT P6SM SCT200
KHRL,KHRL 241720Z 2418/2518 26004KT P6SM VCSH OVC120 FM242200 11010KT P6SM SCT250 FM250300 14005KT P6SM SCT250 FM250700 00000KT P6SM FEW250 FM251600 10005KT P6SM SCT110
KHRO,KHRO 241720Z 2418/2518 26007G16KT P6SM SCT050 BKN110 FM250000 23005KT P6SM BKN250 FM251200 32006KT P6SM BKN250
KHRT,TAF KHRT 240200Z 2402/2508 03008KT 9999 SKC QNH2999INS BECMG 2415/2416 18010KT 9999 FEW045 QNH2994INS BECMG 2422/2423 32005KT 9999 SKC QNH2995INS WND 03003KT AFT 2502 TX31/2417Z TN20/2411Z
KHST,TAF KHST 241900Z 2419/2601 33009KT 9999 VCTS BKN025CB BKN040 QNH2989INS TEMPO 2419/2423 VRB12G18KT 6000 -TSRA BKN020CB BECMG 2423/2424 VRB06KT 9999 NSW SCT025 SCT040 QNH2986INS BECMG 2514/2515 10009KT 9999 VCTS SCT025CB SCT040 QNH2988INS BECMG 2523/2524 VRB05KT 9999 NSW FEW025 SCT040 QNH2989INS TX28/2419Z TN25/2510Z
KHSV,KHSV 241720Z 2418/2518 19007KT P6SM FEW130 SCT250 FM250300 VRB04KT P6SM SCT025 BKN050 OVC200 PROB30 2507/2512 4SM -SHRA BR BKN025 OVC040 FM251200 22008KT 6SM -TSRA BKN025CB OVC040
KHTS,KHTS 241724Z 2418/2518 19007KT P6SM SKC FM251300 23007KT P6SM BKN090
KHUA,TAF AMD KHUA 240150Z 2401/2502 VRB06KT 9999 FEW130 QNH3001INS TX32/2421Z TN15/2411Z LAST NO AMDS AFT 2402 NEXT 2412
KHUF,KHUF 241720Z 2418/2518 23009KT P6SM FEW250 FM250000 23006KT P6SM FEW250 FM250800 25007KT P6SM SCT040 BKN110 FM251300 30009KT P6SM SCT100 FM251700 30014G23KT P6SM FEW035
KHUL,KHUL 241724Z 2418/2518 32020G35KT P6SM SCT200 FM242200 31016G36KT P6SM FEW250 FM242300 30014G30KT P6SM FEW250 WS020/31050KT FM251500 24007KT P6SM FEW250
KHUM,KHUM 241720Z 2418/2518 VRB04KT P6SM FEW250
KHUT,KHUT 241720Z 2418/2518 01006KT P6SM SKC FM250800 36008KT P6SM SKC FM251500 01012KT P6SM SKC
KHVR,KHVR 241731Z 2418/2518 30013KT P6SM SKC FM250000 32009KT P6SM FEW250 FM250200 VRB05KT P6SM SCT250
KHYA,KHYA 242011Z 2420/2518 30012G20KT P6SM SKC FM242300 28008KT P6SM SKC FM251100 24007KT P6SM SCT200 FM251500 22011G19KT P6SM BKN120
KHYR,KHYR 242038Z 2421/2518 22007KT 6SM BR VCSH BKN011 OVC018 FM242300 VRB04KT 6SM -SHRA BR OVC015 FM250100 VRB02KT 5SM -DZ BR OVC009 FM250600 VRB04KT 2SM -SHRA BR OVC003 FM251200 29006KT 2SM BR OVC003 FM251500 30008G18KT 6SM BR SCT005
KHYS,KHYS 241720Z 2418/2518 34008KT P6SM SKC
KIAB,TAF KIAB 241800Z 2418/2524 01009KT 9999 FEW200 QNH2995INS BECMG 2515/2516 36010G20KT 9999 SKC QNH3013INS TX31/2421Z TN16/2512Z
KIAD,KIAD 242058Z 2421/2524 17006KT P6SM SCT100 FM250000 18004KT P6SM SCT080 FM251400 21008G16KT P6SM SCT050 BKN130 FM251900 22010G18KT 6SM -SHRA VCTS BKN060CB FM252300 21008KT P6SM BKN050
KIAG,KIAG 241720Z 2418/2518 24008KT P6SM BKN040 FM250000 16004KT P6SM BKN060 FM250800 15004KT P6SM VCSH OVC040 FM251000 16007KT 6SM -RA BR OVC035 FM251200 18009KT 5SM -RA BR OVC015 FM251500 22012G18KT P6SM VCSH OVC015
KIAH,KIAH 242132Z 2422/2524 15005KT P6SM FEW060 FEW250 FM250300 VRB04KT P6SM FEW250 FM251500 24003KT P6SM FEW250
KICT,KICT 241720Z 2418/2518 01006KT P6SM FEW250 FM250900 36008KT P6SM FEW250 FM251500 01011KT P6SM SKC
KIDA,KIDA 241720Z 2418/2518 22010KT P6SM SKC FM250200 VRB05KT P6SM SKC
KIFP,KIFP 241720Z 2418/2518 01015KT P6SM FEW100 FM242100 34009KT P6SM FEW100 FM251400 01015G22KT P6SM FEW250
KILG,KILG 241723Z 2418/2518 29009KT P6SM FEW250 FM250000 23005KT P6SM FEW120 SCT250 FM250400 17003KT P6SM BKN100 FM251600 24013G23KT P6SM SCT060 BKN120
KILM,KILM 241912Z 2419/2518 13006G15KT P6SM SKC FM242100 16004KT P6SM FEW200 FM250100 20004KT P6SM FEW200
KILN,KILN 241747Z 2418/2518 19010G18KT P6SM BKN060 FM242100 21010G18KT P6SM FEW060 FM242300 20007KT P6SM FEW250 FM250600 22007KT P6SM BKN150 FM251000 23007KT P6SM BKN100 FM251300 23010KT P6SM BKN100 FM251500 25014G22KT P6SM SCT100 FM251700 27016G26KT P6SM SCT060
KIND,KIND 242030Z 2421/2524 22012G18KT P6SM SKC FM242300 23009KT P6SM BKN100 FM251600 29015G27KT P6SM SCT035
KINK,KINK 241736Z 2418/2518 13009KT P6SM SKC
KINL,KINL 242203Z 2422/2518 VRB03KT 6SM BR VCSH OVC011 FM250500 29006KT P6SM OVC007 FM251000 30007KT P6SM BKN018 FM251200 30008G16KT P6SM SCT020 FM251600 31014G27KT P6SM BKN040
KINS,TAF KINS 240442Z 2405/2511 22008KT 9999 FEW250 QNH3006INS BECMG 2409/2410 VRB06KT 9999 SCT070 QNH3009INS BECMG 2418/2419 09007KT 9999 SCT090 QNH3004INS BECMG 2502/2503 22008KT 9999 FEW090 QNH3008INS TX34/2422Z TN12/2413Z LAST NO AMDS AFT 2405 NEXT 2413
KINT,KINT 241720Z 2418/2518 23006KT P6SM BKN100 FM251500 23008G15KT P6SM VCSH OVC090
KINW,KINW 241738Z 2418/2518 VRB06KT P6SM SKC FM241900 34008KT P6SM SKC FM250200 30011KT P6SM SKC
KIPL,KIPL 241720Z 2418/2518 33005KT P6SM FEW100 SCT150 FM250300 25007KT P6SM FEW250 FM251500 33005KT P6SM SKC
KIPT,KIPT 242123Z 2421/2518 28006KT P6SM SKC FM242300 24007KT P6SM BKN120 FM250900 00000KT P6SM OVC050 FM251300 11002KT P6SM OVC050 PROB30 2515/2518 5SM -SHRA
KISM,KISM 241739Z 2418/2518 06009KT P6SM BKN040 FM242100 07011G18KT P6SM SCT050 FM250000 05004KT P6SM FEW250 FM251400 07006KT P6SM SCT040
KISO,KISO 241745Z 2418/2518 21004KT P6SM SCT120 SCT220 FM251600 22010G15KT P6SM SCT120 BKN200 AMD LTD TO CLD VIS AND WIND
KISP,KISP 241958Z 2420/2518 31010G17KT P6SM SCT150 SCT250 FM242200 30010KT P6SM SKC FM250000 28007KT P6SM SCT150 BKN250 FM250400 VRB04KT P6SM BKN150 BKN250 FM251400 19007KT P6SM SCT080 BKN100 FM251600 19011G17KT P6SM BKN080
KITH,KITH 241731Z 2418/2518 28005KT P6SM SCT035 BKN250 FM251200 16007KT P6SM BKN050 FM251500 17010KT P6SM -SHRA SCT030 BKN040
KIWA,KIWA 241720Z 2418/2518 08005KT P6SM FEW250 FM241900 28007KT P6SM FEW120 FEW250 FM250600 12006KT P6SM FEW250
KIWD,KIWD 241720Z 2418/2518 18007KT P6SM VCSH OVC011 FM241900 19005KT 4SM BR VCSH OVC009 FM250400 VRB04KT 2SM BR OVC005 FM250600 VRB03KT 1/2SM FG OVC002 FM251400 29008KT 1SM -SHRA BR OVC002 FM251700 31013G21KT 5SM -SHRA BR BKN006
KIXD,KIXD 241720Z 2418/2518 26008KT P6SM SCT120 FM251500 35012KT P6SM SKC
KJAC,KJAC 241726Z 2418/2518 24007KT P6SM SCT250 FM242100 26010G18KT P6SM SCT250 FM250100 25007KT P6SM SCT250 FM250300 01006KT P6SM SCT250
KJAN,KJAN 241731Z 2418/2518 VRB03KT P6SM FEW100
KJAX,KJAX 241736Z 2418/2518 09010KT P6SM SCT045 SCT060 FM242300 08006KT P6SM SCT040 FM250300 VRB02KT P6SM FEW040 FM251400 04005KT P6SM SCT035
KJBR,KJBR 241720Z 2418/2518 24009KT P6SM SCT045 SCT090 FM242300 23004KT P6SM OVC100 FM250100 22005KT P6SM VCTS SCT050CB OVC100 FM250400 21006KT P6SM VCSH OVC100 FM250900 24008KT P6SM OVC100 FM251200 27008KT P6SM SCT200
KJCT,KJCT 241720Z 2418/2518 25008KT P6SM SKC FM250200 VRB04KT P6SM SKC
KJEF,KJEF 241728Z 2418/2518 28007KT P6SM SKC FM250700 31004KT P6SM SCT120 FM251600 32010G20KT P6SM SKC
KJER,KJER 241731Z 2418/2518 VRB06KT P6SM SKC FM242000 27010KT P6SM SKC FM250300 07008KT P6SM SKC
KJFK,KJFK 241958Z 2420/2524 29010G17KT P6SM SKC FM242200 28011KT P6SM FEW040 FEW150 BKN250 FM250500 26007KT P6SM BKN120 BKN250 FM250800 22006KT P6SM BKN100 BKN250 FM251400 20012KT P6SM SCT060 BKN100 BKN200 FM251700 20015G21KT P6SM BKN060 BKN100 BKN200 PROB30 2522/2524 3SM TSRA BKN050CB
KJHW,KJHW 241720Z 2418/2518 24005KT P6SM SCT035 BKN120 FM250000 18005KT P6SM BKN070 FM250800 17005KT P6SM VCSH OVC040 FM251000 17006KT 6SM -RA BR OVC020 FM251200 19007KT 4SM SHRA BR OVC007 FM251500 23011G18KT P6SM VCSH OVC012
KJKA,KJKA 241738Z 2418/2518 15007KT P6SM SCT035 FM250200 VRB03KT P6SM FEW250
KJKL,KJKL 241720Z 2418/2518 18007G15KT P6SM SCT080 FM250000 VRB03KT P6SM FEW150 FM250500 VRB05KT P6SM SKC WS020/26030KT FM251200 23007KT P6SM VCSH SCT090 WS020/26030KT FM251500 24009G18KT P6SM VCTS SCT030CB SCT100
KJLN,KJLN 241726Z 2418/2518 27008KT P6SM FEW250 FM250200 VRB05KT P6SM SKC FM251400 03007KT P6SM SKC FM251700 01011KT P6SM SKC
KJMS,KJMS 241722Z 2418/2518 31020G30KT P6SM SCT150 FM250100 32014G20KT P6SM FEW250 FM250400 30011KT P6SM SKC FM251300 32015G25KT P6SM SKC
KJST,KJST 242123Z 2421/2518 24006KT P6SM BKN060 OVC100 FM251100 21008KT P6SM VCSH OVC035 FM251400 23008KT 4SM BR VCSH OVC007 PROB30 2514/2516 -SHRA BKN050 FM251600 24008KT P6SM -SHRA OVC015
KJVL,KJVL 242051Z 2421/2518 25007KT P6SM OVC015 FM242200 25007KT P6SM OVC023 FM250000 VRB03KT P6SM OVC060 FM250300 VRB03KT P6SM -SHRA OVC050 FM250700 29007KT P6SM BKN027 FM251000 30007KT P6SM OVC008 FM251500 31011G20KT P6SM BKN012
KJXN,KJXN 241740Z 2418/2518 18007KT P6SM BKN050 OVC100 FM242300 18003KT P6SM VCSH BKN040 FM251000 22004KT 4SM -SHRA BR BKN007 OVC012 FM251500 30008KT P6SM -SHRA OVC018
KJZI,KJZI 241729Z 2418/2518 12007KT P6SM FEW050 FM250100 VRB03KT P6SM SKC FM251400 20007KT P6SM FEW040
KLAF,KLAF 241720Z 2418/2518 25011G17KT P6SM SCT250 FM242200 26009KT P6SM SCT200 FM250300 25005KT P6SM SCT040 BKN100 FM251400 29012G23KT P6SM BKN035
KLAL,KLAL 241741Z 2418/2518 06010KT P6SM BKN035 BKN250 FM250200 05004KT P6SM FEW040 SCT250 FM251400 07008KT P6SM SCT025 BKN050
KLAN,KLAN 241740Z 2418/2518 19008KT P6SM OVC050 FM242200 25006KT P6SM VCSH BKN035 FM251000 22004KT 4SM -SHRA BR BKN007 OVC012 FM251500 30008KT P6SM -SHRA OVC018
KLAR,KLAR 241720Z 2418/2518 31015G25KT P6SM SKC FM250100 31011KT P6SM SKC FM250600 30005KT P6SM SKC
KLAS,KLAS 242026Z 2420/2524 06006KT P6SM FEW100 FM250300 22007KT P6SM SKC FM251700 04008KT P6SM FEW250
KLAW,KLAW 241736Z 2418/2518 22010KT P6SM SCT120 FM242300 15007KT P6SM BKN120 FM251300 02014G22KT P6SM SCT150
KLAX,KLAX 242121Z 2421/2524 26015KT P6SM FEW100 FEW200 FM250500 26006KT P6SM SKC FM250700 VRB03KT P6SM SKC FM251700 26006KT P6SM SKC FM252000 26012KT P6SM SKC
KLBB,KLBB 241720Z 2418/2518 21011KT P6SM SCT090 SCT250 FM250000 17008KT P6SM FEW200 FM251600 04016KT P6SM SCT080
KLBE,KLBE 241736Z 2418/2518 22006KT P6SM SCT100 FM250800 19004KT P6SM VCSH BKN080 FM251300 22009G19KT P6SM VCSH BKN025 FM251600 23010G20KT 6SM -SHRA VCTS BKN030CB
KLBF,KLBF 241720Z 2418/2518 29010G19KT P6SM FEW250 FM250000 32008KT P6SM FEW250 FM250200 35008KT P6SM SKC FM250800 32008KT P6SM SKC
KLBL,KLBL 241904Z 2419/2518 05010KT P6SM SKC
KLBT,KLBT 241720Z 2418/2518 VRB03KT P6SM SKC FM251300 22008KT P6SM FEW200 AMD NOT SKED
KLBX,KLBX 241727Z 2418/2518 VRB06KT P6SM SKC FM250300 VRB03KT P6SM FEW250 FM250800 VRB03KT 3SM BR FEW250 FM251500 19003KT P6SM SCT250
KLCH,KLCH 241720Z 2418/2518 21006KT P6SM SCT035 FM250100 24003KT P6SM SKC FM251400 33008KT P6SM SKC
KLCK,KLCK 241747Z 2418/2518 20008KT P6SM BKN060 FM242100 19010KT P6SM SCT060 FM242300 17006KT P6SM FEW250 FM250600 20005KT P6SM BKN150 FM251000 22006KT P6SM VCSH BKN100 FM251300 21007KT P6SM VCSH BKN080 FM251500 24010G18KT P6SM SCT080 FM251700 26013G22KT P6SM SCT050
KLEB,KLEB 241736Z 2418/2518 31010G15KT P6SM FEW045 FM242200 28003KT P6SM SKC FM250800 VRB03KT 1/2SM FG BKN001 FM251300 00000KT P6SM SCT080
KLEE,KLEE 241739Z 2418/2518 07007KT P6SM FEW045 FM242100 06010KT P6SM SCT050 FM250300 07004KT P6SM FEW250 FM251400 10005KT P6SM SCT045
KLEX,KLEX 241726Z 2418/2518 21012G18KT P6SM BKN110 FM242300 20010KT P6SM FEW250 FM251500 24014G23KT P6SM SCT080
KLFI,TAF KLFI 241700Z 2417/2523 29012KT 9999 FEW120 QNH3009INS BECMG 2509/2510 21012KT 9999 SCT060 BKN080 QNH2990INS BECMG 2513/2514 21010G15KT 9999 FEW045 QNH2989INS BECMG 2521/2522 21015G25KT 4800 -TSRA BKN045CB QNH2973INS TX25/2517Z TN16/2511Z LST NO AMNDS AFT 1700 NXT 260100
KLFK,KLFK 241720Z 2418/2518 21005KT P6SM FEW250 FM251200 00000KT 4SM BR SKC FM251500 25005KT P6SM SKC
KLFT,KLFT 241720Z 2418/2518 33006KT P6SM SCT040 FM250100 20003KT P6SM SKC FM251400 34006KT P6SM SKC
KLGA,KLGA 241958Z 2420/2524 30010KT P6SM SKC TEMPO 2420/2422 30010G16KT FM250400 28008KT P6SM BKN120 BKN250 FM250800 23005KT P6SM BKN100 BKN250 FM251400 20010KT P6SM SCT060 BKN100 BKN200 FM251700 20013G20KT P6SM BKN060 BKN100 BKN200 PROB30 2522/2524 3SM TSRA BKN050CB
KLGB,KLGB 241740Z 2418/2518 31003KT P6SM SKC FM241900 19008KT P6SM SKC FM242200 30010KT P6SM SKC FM250500 VRB03KT P6SM SKC FM251000 00000KT P6SM SKC
KLGU,KLGU 241734Z 2418/2518 VRB05KT P6SM SKC
KLIT,KLIT 242119Z 2421/2518 24008KT P6SM VCTS SCT050CB BKN110 TEMPO 2421/2424 VRB25G40KT 1SM TSRA BR BKN025CB FM250300 23005KT P6SM VCSH OVC080 FM251200 32007KT P6SM BKN250
KLLQ,KLLQ 242200Z 2422/2518 24008KT P6SM VCTS SCT050CB BKN110 TEMPO 2422/2502 VRB10G25KT 5SM -TSRA BR BKN030CB FM250300 21003KT P6SM VCSH OVC100 FM251300 32005KT P6SM BKN250
KLMT,KLMT 241737Z 2418/2518 00000KT P6SM SKC
KLND,KLND 241726Z 2418/2518 VRB06KT P6SM SKC FM250000 35006KT P6SM SCT250 FM250500 25005KT P6SM SCT250 FM251400 VRB05KT P6SM SCT250
KLNK,KLNK 241720Z 2418/2518 31012G18KT P6SM SKC FM242300 33006KT P6SM OVC250 FM251700 32015G22KT P6SM SKC
KLNS,KLNS 242123Z 2421/2518 28008KT P6SM SKC FM250100 23005KT P6SM OVC100 FM251200 12002KT P6SM BKN100
KLOZ,KLOZ 241720Z 2418/2518 22010G18KT P6SM SCT060 FM250000 21005KT P6SM FEW120 FM251200 23007KT P6SM VCSH SCT070 FM251400 25011G20KT P6SM VCTS SCT030CB SCT100
KLRD,KLRD 241720Z 2418/2518 13008KT P6SM SCT050 SCT250
KLRF,TAF AMD KLRF 242157Z 2421/2521 22012G20KT 6000 -TSRA BKN050CB BKN140 QNH2986INS TEMPO 2421/2423 26020G35KT 2400 TSRAGR BKN020CB BKN150 BECMG 2500/2501 21009KT 8000 -SHRA BKN060 QNH2986INS BECMG 2506/2507 26006KT 9999 NSW BKN080 QNH2988INS BECMG 2514/2515 35012G20KT 9999 FEW100 SCT200 QNH2992INS TX34/2421Z TN22/2511Z
KLRU,KLRU 241720Z 2418/2518 03004KT P6SM SCT100 FM242000 28008KT P6SM FEW100 SCT250 FM250300 31008KT P6SM SCT100 BKN200 FM251200 36006KT P6SM VCSH BKN090 BKN150
KLSE,KLSE 241720Z 2418/2518 20006KT P6SM BKN020 FM242100 24007KT P6SM BKN035 FM242300 29007KT P6SM VCSH OVC040 FM250400 30010KT P6SM OVC020 FM251100 31010KT P6SM SCT030
KLSF,TAF KLSF 232100Z 2321/2503 04007KT 9999 SKC QNH2999INS BECMG 2323/2400 10002KT 9999 SKC QNH3002INS TEMPO 2408/2412 4800 BR BECMG 2413/2414 11007KT 9999 SKC QNH3001INS TX30/2421Z TN11/2411Z LAST NO AMDS 2403 NEXT 2613
KLSV,TAF KLSV 241500Z 2415/2521 VRB06KT 9999 FEW250 QNH3009INS BECMG 2419/2420 16010KT 9999 FEW250 QNH2998INS BECMG 2501/2502 VRB06KT 9999 SKC QNH3002INS TX35/2423Z TN20/2512Z
KLTS,TAF KLTS 240100Z 2401/2507 17009KT 9999 SKC QNH2985INS BECMG 2415/2416 20012G18KT 9999 SCT100 510052 QNH2987INS BECMG 2423/2424 04009KT 9999 SCT100 BKN120 QNH2995INS TX37/2422Z TN19/2411Z
KLUF,TAF KLUF 241500Z 2415/2521 VRB06KT 9999 FEW150 FEW250 QNH2984INS TX38/2423Z TN23/2513Z LAST NO AMDS AFT 2418 NEXT 2612
KLUK,KLUK 241747Z 2418/2518 18010G18KT P6SM BKN070 FM242100 22010G18KT P6SM FEW070 FM242300 21006KT P6SM FEW250 FM250600 22006KT P6SM BKN150 FM251000 22007KT P6SM BKN100 FM251300 24008KT P6SM SCT100 FM251500 26010KT P6SM SCT100 FM251700 28015G23KT P6SM FEW070
KLVK,KLVK 241730Z 2418/2518 VRB03KT P6SM SKC FM242100 31009KT P6SM SKC FM250400 VRB03KT P6SM SKC
KLVM,KLVM 241730Z 2418/2518 24016KT P6SM FEW100 FM242100 26015KT P6SM FEW100 FM250200 23006KT P6SM SKC FM250900 25006KT P6SM SKC
KLVS,KLVS 241720Z 2418/2518 06011KT P6SM FEW080 FM242100 12010KT P6SM FEW090 FM250400 04007KT P6SM SKC FM251700 08009KT P6SM FEW070
KLWB,KLWB 241722Z 2418/2518 25008KT P6SM SCT070 FM242300 00000KT P6SM SCT070 FM251500 23008G16KT P6SM BKN150
KLWS,KLWS 241720Z 2418/2518 VRB03KT P6SM SCT250
KLWT,KLWT 241731Z 2418/2518 32013G25KT P6SM SKC FM250100 33007KT P6SM SKC FM251700 00000KT P6SM FEW250
KLYH,KLYH 241722Z 2418/2518 21008KT P6SM SCT120 FM250000 21002KT P6SM SCT090 FM251500 22008KT P6SM SCT250
KMAF,KMAF 241736Z 2418/2518 16011KT P6SM SKC
KMBG,KMBG 242046Z 2421/2518 28009KT P6SM BKN090 FM250200 32006KT P6SM SKC FM251500 33016G24KT P6SM SKC
KMBL,KMBL 242018Z 2420/2518 16004KT 6SM -SHRA OVC008 FM250500 24004KT P6SM VCSH BKN008 FM251300 33008KT P6SM -SHRA BKN008
KMBS,KMBS 241732Z 2418/2518 17004KT P6SM OVC040 FM250000 19006KT P6SM -SHRA BKN035 OVC050 FM250600 25005KT P6SM VCSH BKN015 OVC025 FM251300 24004KT 5SM BR OVC010
KMCB,KMCB 241720Z 2418/2518 00000KT P6SM SKC
KMCC,KMCC 241720Z 2418/2518 VRB05KT P6SM SKC
KMCE,KMCE 241720Z 2418/2518 VRB04KT P6SM SKC
KMCF,TAF KMCF 241700Z 2417/2523 07009KT 9999 SKC QNH2990INS BECMG 2417/2418 03009KT 9999 SCT040 BKN050 QNH2988INS BECMG 2501/2502 VRB06KT 9999 FEW040 QNH2986INS BECMG 2512/2513 07009KT 9999 SCT040 QNH2982INS TX32/2421Z TN23/2509Z
KMCI,KMCI 241720Z 2418/2518 26008KT P6SM SCT120 FM251500 35012KT P6SM SKC
KMCK,KMCK 241720Z 2418/2518 30011KT P6SM SKC
KMCN,KMCN 241741Z 2418/2518 VRB04KT P6SM SKC FM251300 22004KT P6SM SKC FM251700 27007KT P6SM FEW250
KMCO,KMCO 242056Z 2421/2524 05010KT P6SM FEW040 SCT060 FM250300 04004KT P6SM SCT025 SCT060 FM251400 07006KT P6SM FEW025 SCT050 FM251900 08010KT P6SM VCSH SCT030 SCT060
KMCW,KMCW 241723Z 2418/2518 28011KT P6SM SCT250 FM242100 30014G25KT P6SM BKN100 FM250000 32008KT P6SM SCT100 FM251400 31013G21KT P6SM SKC
KMDT,KMDT 242123Z 2421/2518 30008KT P6SM SCT120 FM250000 23005KT P6SM OVC100 FM251100 14002KT P6SM OVC100 FM251600 15004KT P6SM VCSH OVC100
KMDW,KMDW 242101Z 2421/2524 27009KT P6SM SCT035 BKN150 FM250300 25004KT P6SM VCSH SCT035 BKN050 TEMPO 2504/2508 5SM SHRA BKN035 FM250900 30013G22KT P6SM BKN015 FM251800 30016G27KT P6SM VCSH BKN025
KMEI,KMEI 241731Z 2418/2518 VRB03KT P6SM FEW100
KMEM,KMEM 242056Z 2421/2524 19007KT P6SM SCT150 BKN200 FM250200 23007KT P6SM VCTS SCT045CB OVC100 FM250600 20006KT P6SM VCSH SCT070 BKN120 FM251100 23008KT P6SM BKN120 FM251500 30008KT P6SM SCT250 FM251800 34008KT P6SM SCT250
KMER,KMER 241720Z 2418/2518 VRB04KT P6SM SKC
KMEV,KMEV 241720Z 2418/2518 VRB04KT P6SM SKC FM242100 33008KT P6SM SKC FM250300 VRB03KT P6SM SKC
KMFD,KMFD 241740Z 2418/2518 18010KT P6SM BKN060 FM251300 25010KT P6SM -SHRA BKN035 FM251700 26012G20KT P6SM VCSH BKN025
KMFE,KMFE 241720Z 2418/2518 09004KT P6SM VCSH SCT035 SCT045 FM242100 10008KT P6SM SCT110 FM250500 14005KT P6SM FEW250 FM250900 00000KT P6SM FEW250 FM251700 09005KT P6SM FEW250
KMFR,KMFR 241737Z 2418/2518 00000KT P6SM SKC
KMGE,TAF KMGE 242112Z 2421/2603 VRB05KT 9999 SKC QNH3002INS BECMG 2423/2424 VRB05KT 9999 FEW250 QNH3001INS BECMG 2514/2515 25009KT 9999 VCSH BKN040 BKN120 BKN250 QNH2997INS BECMG 2517/2518 27012G18KT 8000 -SHRA BR BKN025 BKN050 OVC120 QNH2988INS BECMG 2523/2524 29007KT 9999 NSW FEW040 FEW250 QNH2992INS TX27/2520Z TN16/2512Z LAST NO AMDS AFT 2503 NEXT 2510
KMGM,KMGM 241725Z 2418/2518 10007KT P6SM SKC FM250200 12003KT P6SM SKC FM251500 27005KT P6SM SCT040
KMGW,KMGW 241736Z 2418/2518 23006KT P6SM BKN100 FM251000 20005KT P6SM VCSH BKN070 FM251600 23009G18KT 6SM -SHRA VCTS BKN025CB
KMHK,KMHK 241953Z 2420/2518 27005KT P6SM SKC FM251500 35009KT P6SM SKC
KMHR,KMHR 241720Z 2418/2518 VRB04KT P6SM SKC
KMHT,KMHT 241736Z 2418/2518 31020G33KT P6SM SKC FM242100 30010G17KT P6SM SKC FM250100 27005KT P6SM SKC FM251300 VRB03KT P6SM FEW090
KMIA,KMIA 242051Z 2421/2524 08010KT P6SM VCTS SCT020CB BKN250 FM242300 09008KT P6SM BKN030 BKN250 FM250100 VRB04KT P6SM SCT035 BKN250 FM251500 11008KT P6SM SCT025 SCT050 PROB30 2515/2518 6SM SHRA BKN025 FM251800 11010KT P6SM VCTS SCT025CB BKN050
KMIB,TAF AMD KMIB 241815Z 2418/2523 32020G30KT 9999 FEW150 QNH2989INS BECMG 2421/2422 32020G30KT 9999 FEW200 510002 QNH2993INS BECMG 2423/2424 31012KT 9999 FEW050 SCT080 QNH2996INS TX21/2422Z TN08/2513Z LAST NO AMDS AFT 2418 NEXT 2609
KMIV,KMIV 241723Z 2418/2518 28009KT P6SM FEW250 FM250000 23002KT P6SM FEW120 SCT250 FM250400 19002KT P6SM BKN100 FM251600 24010G20KT P6SM SCT060 BKN120
KMKC,KMKC 241720Z 2418/2518 26008KT P6SM SCT120 FM251500 35012KT P6SM SKC
KMKE,KMKE 242051Z 2421/2524 25008KT P6SM OVC022 FM250200 VRB03KT P6SM OVC050 FM250400 VRB04KT P6SM -SHRA OVC035 FM250800 VRB04KT P6SM VCSH OVC017 FM251100 31008KT P6SM BKN018 FM251800 30015G24KT P6SM BKN028 FM252100 30015G28KT P6SM SCT070
KMKG,KMKG 241740Z 2418/2518 24009KT 6SM -SHRA BR OVC025 FM250000 VRB04KT P6SM VCSH OVC025 FM250900 30005KT 6SM -SHRA BR SCT007 OVC012 FM251500 30010G18KT P6SM -SHRA OVC018
KMKL,KMKL 241720Z 2418/2518 23007KT P6SM SCT060 SCT100 FM250300 22005KT P6SM VCTS SCT050CB BKN100 FM250600 20005KT P6SM VCSH BKN070 OVC250 FM251000 22008KT P6SM OVC100 FM251400 27008KT P6SM SCT200
KMKT,KMKT 241723Z 2418/2518 28007KT P6SM SCT030 BKN040 FM241900 31014G22KT P6SM SCT035 BKN050 FM250700 30008KT P6SM SCT250 FM251500 32018G30KT P6SM SKC
KMLB,KMLB 241739Z 2418/2518 05013G18KT P6SM SCT030 BKN045 FM242000 07015G22KT P6SM VCSH BKN050 FM250300 08010KT P6SM VCSH BKN050 FM250600 09008KT P6SM BKN040 FM251400 08090KT P6SM SCT030
KMLC,KMLC 241720Z 2418/2518 24011G17KT P6SM SCT120 FM250000 19004KT P6SM BKN100 FM251500 34010KT P6SM SCT150
KMLI,KMLI 241721Z 2418/2518 25008KT P6SM OVC015 FM241900 25009KT P6SM SCT020 FM250000 26007KT P6SM BKN150 FM251400 30011G25KT P6SM SKC
KMLS,KMLS 241730Z 2418/2518 30019G24KT P6SM BKN100 FM242100 31017G27KT P6SM FEW150 FM250000 32012KT P6SM SKC FM250300 32007KT P6SM SKC FM251500 30006KT P6SM SKC
KMLU,KMLU 241720Z 2418/2518 27005KT P6SM FEW230 FM250600 18002KT P6SM FEW250 FM251400 25006KT P6SM SCT250
KMMH,KMMH 241720Z 2418/2518 13006KT P6SM SKC FM242300 29010G16KT P6SM SKC FM250300 VRB04KT P6SM SKC
KMMT,TAF KMMT 241505Z 2415/2521 VRB04KT 9999 FEW075 SCT120 QNH3001INS BECMG 2516/2517 24012KT 9999 SCT070 SCT180 QNH2989INS TX23/2420Z TN14/2511Z
KMOB,KMOB 241738Z 2418/2518 04006KT P6SM FEW030 FM242300 14005KT P6SM FEW040 FM250300 VRB03KT P6SM FEW250
KMOD,KMOD 241720Z 2418/2518 33005KT P6SM SKC
KMOT,KMOT 241722Z 2418/2518 29019G28KT P6SM FEW200 FM250000 30014G22KT P6SM FEW250 FM250400 30010KT P6SM FEW250 FM251400 31015G23KT P6SM SKC
KMPV,KMPV 241721Z 2418/2518 31013G19KT P6SM SCT045 FM241900 30011G18KT P6SM FEW250
KMQY,KMQY 241720Z 2418/2518 19006KT P6SM VCSH BKN120 FM250300 20007KT P6SM VCTS SCT050CB BKN100 TEMPO 2503/2506 6SM -TSRA FM250800 20008KT P6SM SCT050 OVC100 FM251400 25011KT P6SM BKN025 OVC100 FM251700 27012G17KT P6SM BKN050
KMRB,KMRB 241742Z 2418/2518 21006KT P6SM FEW050 BKN130 FM250000 VRB03KT P6SM BKN060 FM251500 21008G16KT P6SM SCT060 OVC110
KMRY,KMRY 241730Z 2418/2518 31005KT P6SM SKC FM250300 VRB03KT P6SM FEW008 FM250800 00000KT 1SM BR BKN002 FM251700 VRB03KT 5SM BR BKN004
KMSL,KMSL 241720Z 2418/2518 20007KT P6SM FEW130 SCT250 FM250300 VRB04KT P6SM SCT025 BKN050 OVC200 PROB30 2507/2512 4SM -SHRA BR BKN025 OVC040 FM251200 22008KT 6SM -TSRA BKN025CB OVC040
KMSN,KMSN 242051Z 2421/2518 24006KT P6SM OVC015 FM242200 24006KT P6SM OVC021 FM250000 VRB03KT P6SM OVC050 FM250200 VRB03KT P6SM -SHRA OVC050 FM250700 31007KT P6SM BKN008 FM251500 30011G20KT P6SM BKN011
KMSO,KMSO 241720Z 2418/2518 VRB02KT P6SM SCT250 FM242200 30008KT P6SM FEW250 FM250200 36005KT P6SM FEW250
KMSP,KMSP 242048Z 2421/2524 30015G22KT P6SM VCSH OVC050 FM250000 30009KT P6SM SCT040 FM251500 30016G28KT P6SM SCT250 FM251800 31020G34KT P6SM FEW060
KMSS,KMSS 241721Z 2418/2518 26009G15KT P6SM FEW045 FM242200 25007KT P6SM FEW250
KMSY,KMSY 241720Z 2418/2524 01005KT P6SM SKC
KMTC,TAF KMTC 241700Z 2417/2523 18009KT 9000 -SHRA SCT030 BKN060 QNH2981INS BECMG 2502/2503 VRB06KT 9999 NSW BKN025 OVC040 QNH2974INS BECMG 2506/2507 VRB06KT 8000 -SHRA OVC015 QNH2965INS BECMG 2513/2514 31009KT 9000 -SHRA OVC008 QNH2957INS BECMG 2515/2516 VRB06KT 9000 -SHRA SCT020 OVC035 QNH2962INS BECMG 2520/2521 29010G15KT 9000 -SHRA FEW020 BKN035 OVC055 QNH2958INS TX17/2517Z TN13/2512Z
KMTH,KMTH 241720Z 2418/2518 08006KT P6SM FEW030
KMTJ,KMTJ 241737Z 2418/2518 26004KT P6SM SKC FM242000 32008KT P6SM SKC FM250200 15007KT P6SM SKC
KMTN,KMTN 241742Z 2418/2518 25006KT P6SM BKN150 FM250400 21003KT P6SM BKN080 FM251600 20011G18KT P6SM SCT060 BKN150
KMTW,KMTW 242205Z 2422/2518 25005KT P6SM OVC018 FM250000 20004KT P6SM VCSH OVC022 FM250400 30006KT 4SM -SHRA BR BKN006 FM251000 30006KT 3SM -DZ BR BKN004 FM251600 30009G17KT P6SM -SHRA OVC012
KMUI,TAF KMUI 240300Z 2403/2509 VRB06KT 9999 SKC QNH3008INS TX17/2420Z TN08/2408Z LAST NO AMDS AFT 2405 NEXT 2611
KMUO,TAF KMUO 241800Z 2418/2524 32009KT 9999 SKC QNH3019INS BECMG 2505/2506 VRB06KT 9999 SKC QNH3024INS BECMG 2516/2517 12009KT 9999 SKC QNH3014INS TX27/2423Z TN07/2511Z
KMVN,KMVN 241720Z 2418/2518 22009KT P6SM SCT080 FM250100 VRB03KT P6SM FEW250 FM251300 32010G20KT P6SM SKC
KMWH,KMWH 241720Z 2418/2518 VRB03KT P6SM SCT250 FM242000 23006KT P6SM SCT250 FM250400 02004KT P6SM FEW200
KMXF,TAF KMXF 241915Z 2419/2601 VRB04KT 9999 SKC QNH2995INS BECMG 2517/2518 VRB04KT 9999 SCT045 SCT120 QNH2984INS BECMG 2523/2524 17004KT 9000 -TSRA BKN035CB QNH2986INS TX29/2519Z TN16/2512Z LAST NO AMDS AFT 2423 NEXT 2511
KMYL,KMYL 241731Z 2418/2518 VRB04KT P6SM SKC
KMYR,KMYR 241720Z 2418/2518 15006KT P6SM SKC FM242000 15006KT P6SM SKC FM251200 25004KT P6SM SKC
KNBG,TAF KNBG 2415/2515 05005KT 9999 FEW030 SCT090 SCT250 QNH2994INS BECMG 2423/2501 08006KT 9999 SCT040 SCT120 SCT250 QNH2992INS BECMG 2504/2506 VRB04KT 9999 FEW030 SCT140 SCT250 QNH2990INS T32/2419Z T23/2511Z FN20040
KNCA,TAF KNCA 2421/2521 VRB06KT 9999 SCT080 QNH2995INS BECMG 2514/2516 22010KT 9999 SCT120 QNH2982INS T17/2510Z T27/2518Z
KNEW,KNEW 241720Z 2418/2518 01005KT P6SM SKC
KNFG,TAF KNFG 2421/2521 22010KT 9999 SCT250 QNH2997INS BECMG 2501/2503 VRB05KT 9999 FEW250 QNH2998INS BECMG 2517/2519 22008KT 9999 FEW250 QNH2994INS T30/2421Z T18/2514Z
KNFL,TAF KNFL 2415/2515 VRB06KT 9999 SKC QNH3017INS T28/2423Z T09/2513Z FS30190
KNFW,TAF KNFW 2407/2507 21010KT 9999 SKC QNH2992INS BECMG 2420/2422 VRB06KT 9999 SKC QNH2989INS AUTOMATED SENSOR METWATCH 2407 TIL 2411 T23/2412Z T36/2421Z FN00247
KNGP,TAF KNGP 2415/2515 VRB06KT 9999 VCTS SCT020CB SCT150 BKN250 QNH2996INS FM250000 13010KT 9999 SCT050CB QNH2991INS BECMG 2506/2508 VRB06KT 9999 VCSH SCT015 BKN035 QNH2985INS FM251200 VRB06KT 9999 VCTS SCT020CB BKN040 QNH2991INS AUTOMATED SENSOR METWATCH 2415 TIL 2611 T31/2421Z T26/2512Z FN00237
KNGU,TAF KNGU 2415/2515 VRB06KT 9999 BKN150 QNH3010INS BECMG 2421/2423 21008KT 9999 FEW075 SCT110 QNH2994INS BECMG 2503/2504 22013KT 9999 SCT065 BKN060 QNH2989INS BECMG 2510/2512 22015G20KT 9999 QNH2984INS T23/2421Z T16/2506Z FN00237
KNHK,TAF KNHK 2415/2515 VRB06KT 9999 FEW150 BKN180 QNH3000INS TEMPO 2417/2420 25008KT BECMG 2502/2504 20010KT 9999 SCT120 QNH2989INS FM250900 22013G18KT 9999 VCSH SCT055 BKN080 QNH2982INS T20/2421Z T17/2504Z FN00237
KNID,TAF KNID 2323/2423 VRB05KT 9999 SCT250 QNH2993INS BECMG 2401/2403 21007KT 9999 SKC QNH2998INS BECMG 2413/2415 VRB05KT 9999 FEW250 QNH3002INS LAST NO AMDS AFT 2403 NEXT 2615 T14/2414Z T36/2422Z
KNIP,TAF KNIP 2415/2515 08009KT 9999 SCT035 BKN250 QNH2999INS BECMG 2501/2503 VRB06KT 9999 BKN035 QNH2990INS FM251000 35007KT 9999 SCT015 SCT035 BKN055 QNH2988INS T28/2420Z T22/2509Z FN00237
KNJK,TAF KNJK 2415/2515 VRB06KT 9999 FEW080 SCT250 QNH2981INS FM250200 24007KT 9999 SKC QNH2985INS T42/2423Z T28/2513Z FS30190
KNKT,TAF KNKT 2421/2521 VRB06KT 9999 SCT080 QNH2995INS BECMG 2514/2516 22010KT 9999 SCT120 QNH2982INS T17/2510Z T27/2518Z
KNKX,TAF KNKX 2421/2521 30008KT 9999 SCT250 QNH2998INS BECMG 2501/2503 VRB05KT 9999 FEW250 QNH2999INS BECMG 2517/2519 31008KT 9999 FEW250 QNH2995INS T30/2421Z T18/2514Z
KNLC,TAF KNLC 2415/2515 32007KT 9999 SKC QNH2987INS T33/2422Z T12/2513Z FS30190
KNQI,TAF KNQI 2323/2423 11009KT 9999 FEW050 FEW080 QNH2989INS FM241000 VRB06KT 9999 VCSH SCT020 SCT050 QNH2996INS FM241600 10010G15KT 9999 VCTS SCT020 BKN040CB BKN250 QNH2992INS TEMPO 2418/2423 VRB20G30KT 6000 TSRA BKN020CB BKN200 LAST NO AMDS AFT 2323 NEXT 2515 T21/2412Z T35/2420Z FN20085
KNQX,TAF KNQX 2415/2515 03008KT 9999 FEW025 QNH2987INS FM242300 10006KT 9999 FEW025 QNH2977INS T34/2419Z T28/2510Z FN00237
KNSE,TAF KNSE 2415/2515 VRB06KT 9999 SKC QNH2997INS FM241800 VRB06KT 9999 FEW040 QNH2995INS FM250100 VRB06KT 9999 FEW085 SCT120 QNH2991INS T30/2420Z T20/2513Z FN00237
KNTD,TAF KNTD 2415/2515 VRB06KT 9999 FEW005 FEW090 SCT250 QNH2983INS FM242200 28009KT 9999 FEW250 QNH2990INS FM250600 VRB06KT 9999 FEW150 QNH2996INS T27/2421Z T17/2511Z FS30190
KNTU,TAF KNTU 2415/2515 VRB06KT 9999 SCT150 BKN200 QNH3009INS BECMG 2422/2500 20010KT 9999 SCT055 BKN090 QNH2992INS BECMG 2510/2512 22015G20KT 9999 QNH2984INS T23/2421Z T16/2506Z FN00237
KNUC,TAF COR KNUC 2323/2423 25009KT 9999 FEW008 FEW180 QNH2985INS TEMPO 2409/2415 VRB06KT BKN004 BKN180 FM242000 30010G15KT 9999 FEW010 SCT180 QNH2990INS LAST NO AMDS AFT 2404 NEXT 2515 T17/2412Z T23/2423Z COR 2316 FS30190
KNUW,TAF AMD KNUW 2416/2515 VRB06KT 9999 FEW005 SCT050 BKN150 641409 QNH3022INS FM242000 31008KT 9999 SCT150 621509 QNH3018INS FM250600 VRB06KT 9999 FEW005 SCT150 QNH3016INS TEMPO 2509/2515 4800 BR SCT005 SCT150 T21/2422Z T11/2512Z AMD 1557 FS30190
KNXP,TAF KNXP 2421/2521 VRB06KT 9999 VCTS SKC QNH3004INS BECMG 2500/2502 28008KT 9999 SKC QNH3006INS BECMG 2505/2507 VRB05KT 9999 SKC QNH3004INS T35/2423Z T23/2514Z
KNYL,TAF KNYL 2421/2521 VRB05KT 9999 SKC QNH2983INS FM250030 26008KT 9999 SKC QNH2985INS FM250530 VRB05KT 9999 SKC QNH2981INS T39/2423Z T28/2514Z
KNZY,TAF KNZY 2415/2515 VRB06KT 9999 FEW120 SCT250 QNH2992INS FM241800 30012KT 9999 FEW150 FEW250 QNH2995INS FM250600 33007KT 9999 FEW008 QNH2994INS T28/2420Z T20/2513Z FS30190
KOAJ,KOAJ 241745Z 2418/2518 22004KT P6SM SCT120 SCT220 FM251600 22010G15KT P6SM SCT120 BKN200 AMD LTD TO CLD VIS AND WIND
KOAK,KOAK 241730Z 2418/2524 VRB05KT P6SM SKC FM242100 29011KT P6SM SKC FM250900 VRB04KT P6SM FEW008 FM251200 VRB03KT P6SM SCT008 TEMPO 2513/2515 BKN008 FM252000 31008KT P6SM SKC
KOFK,KOFK 241720Z 2418/2518 31014G21KT P6SM BKN250 FM250000 31007KT P6SM OVC250 FM251700 32016G22KT P6SM SKC
KOGB,KOGB 242037Z 2421/2518 VRB03KT P6SM FEW150 FM251500 23007KT P6SM SCT150
KOGD,KOGD 241734Z 2418/2518 VRB05KT P6SM SKC FM242000 28007KT P6SM SKC FM250200 17005KT P6SM SKC
KOKC,KOKC 241736Z 2418/2518 24010KT P6SM VCSH BKN120 FM250100 28006KT P6SM SCT120 FM251200 02014G22KT P6SM SCT150
KOLF,KOLF 241728Z 2418/2518 29012KT P6SM SCT070 FM242300 32015KT P6SM FEW080 FM251200 VRB05KT P6SM SKC
KOLM,KOLM 241735Z 2418/2518 02006KT P6SM SCT200 FM251300 00000KT 4SM BR SCT001 FM251600 00000KT P6SM SCT200
KOLS,KOLS 241720Z 2418/2518 30006KT P6SM FEW200 FM242200 34008KT P6SM VCSH SCT070 BKN150 BKN200 FM250200 10007KT P6SM SCT150 SCT200 FM250900 VRB05KT P6SM FEW150
KOMA,KOMA 241720Z 2418/2518 31015G22KT P6SM BKN250 FM242300 33007KT P6SM OVC250 FM251700 33012G19KT P6SM SKC
KONP,KONP 241720Z 2418/2518 33007KT P6SM SKC FM242000 33011G24KT P6SM SKC FM250400 35007KT P6SM SCT250 FM250600 VRB04KT P6SM SCT250
KONT,KONT 241720Z 2418/2524 25006KT P6SM FEW250 FM242000 25011G18KT P6SM FEW100 SCT250 FM250300 25007KT P6SM FEW100 FEW250 FM250600 VRB04KT P6SM FEW250 FM252000 25010G18KT P6SM FEW250
KOPF,KOPF 242051Z 2421/2518 08010KT P6SM VCTS SCT020CB BKN250 FM242300 09008KT P6SM BKN030 BKN250 FM250100 VRB04KT P6SM SCT035 BKN250 FM251500 10007KT P6SM SCT025 SCT050 PROB30 2515/2518 6SM SHRA BKN025
KORD,KORD 242101Z 2421/2524 27009KT P6SM SCT035 BKN150 FM250300 VRB04KT P6SM VCSH SCT035 BKN050 TEMPO 2504/2508 5SM SHRA BKN035 FM250900 30013G22KT P6SM BKN015 FM251800 30016G27KT P6SM VCSH BKN025
KORF,KORF 241904Z 2419/2518 25008KT P6SM SCT250 FM250800 21009KT P6SM SCT090 BKN150 FM251400 22012G20KT P6SM SCT200
KORH,KORH 242011Z 2420/2518 30014G24KT P6SM SKC FM242200 29008KT P6SM FEW250 FM250300 26005KT P6SM SKC FM251000 25004KT P6SM BKN110 FM251500 21007KT P6SM BKN080
KOTH,KOTH 241737Z 2418/2518 15003KT P6SM SKC FM241900 34011KT P6SM SKC FM242000 35016G22KT P6SM SKC FM251000 36003KT 1/2SM FG BKN003
KOTM,KOTM 241723Z 2418/2518 27009KT P6SM FEW050 FM242100 28011G23KT P6SM BKN250 FM242300 29009KT P6SM BKN100 FM251500 31011G19KT P6SM SKC
KOUN,KOUN 241736Z 2418/2518 25010KT P6SM VCSH BKN120 FM250100 27007KT P6SM SCT120 FM251200 02013G21KT P6SM SCT150
KOWB,KOWB 241720Z 2418/2518 20010KT P6SM BKN100 FM250100 24005KT P6SM FEW250 FM251500 32010G19KT P6SM SKC
KOXR,KOXR 241740Z 2418/2518 29008KT P6SM SKC FM250300 VRB03KT P6SM SKC FM250900 VRB03KT 5SM BR SKC FM251200 00000KT P6SM SKC
KOZR,TAF COR KOZR 240000Z 2400/2506 06005KT 9999 SKC QNH2998INS TX29/2420Z TN16/2411Z
KPAE,KPAE 241735Z 2418/2518 35008KT P6SM SCT200 TEMPO 2513/2516 5SM BR SCT001
KPAH,KPAH 241720Z 2418/2518 24007KT P6SM BKN100 FM250000 VRB03KT P6SM BKN250 FM251500 34010G20KT P6SM SKC
KPAM,TAF KPAM 231900Z 2319/2501 30009KT 9999 SKC QNH2994INS BECMG 2401/2402 03009KT 9999 FEW030 QNH2998INS TX29/2320Z TN22/2412Z LAST NO AMDS 2322 NEXT 2611
KPBF,KPBF 242201Z 2422/2518 24009KT P6SM VCTS SCT050CB BKN110 TEMPO 2422/2502 VRB10G25KT 4SM -TSRA BR BKN030CB FM250300 22003KT P6SM VCSH OVC080 FM251300 32007KT P6SM BKN250
KPBG,KPBG 241721Z 2418/2518 31012G18KT P6SM SCT050 FM242200 31009KT P6SM FEW250 FM251200 18007KT P6SM SCT140 FM251600 16010KT P6SM BKN090
KPBI,KPBI 242051Z 2421/2518 07010KT P6SM VCTS SCT020CB BKN250 TEMPO 2421/2423 6SM -TSRA BKN025CB FM242300 07011KT P6SM BKN030 BKN250 FM250100 10005KT P6SM SCT035 BKN250 FM251500 10007KT P6SM SCT025 SCT050 PROB30 2515/2518 6SM SHRA BKN025
KPDK,KPDK 241741Z 2418/2518 19005KT P6SM SKC FM250800 VRB03KT P6SM FEW250 FM251400 26006KT P6SM SCT150 PROB30 2514/2518 -SHRA BKN090
KPDT,KPDT 241720Z 2418/2518 33008KT P6SM SKC FM250400 12005KT P6SM SKC
KPDX,KPDX 242054Z 2421/2518 30008KT P6SM FEW250
KPEQ,KPEQ 241736Z 2418/2518 08007KT P6SM SKC
KPGA,KPGA 241738Z 2418/2518 VRB05KT P6SM SKC
KPGD,KPGD 241741Z 2418/2518 06009KT P6SM SCT035 SCT100 FM241900 05011KT P6SM VCSH SCT040 BKN100 FM250300 06006KT P6SM FEW035 SCT250 FM250900 06004KT P6SM SCT007 BKN035 FM251600 10006KT P6SM SCT040 BKN250
KPGV,KPGV 241745Z 2418/2518 21004KT P6SM SCT120 SCT220 FM251600 22010G15KT P6SM SCT120 BKN200 AMD LTD TO CLD VIS AND WIND
KPHF,KPHF 241729Z 2418/2518 24009KT P6SM SCT150 FM250600 21007KT P6SM SCT090 BKN150 FM251400 22011G20KT P6SM SCT200
KPHL,KPHL 242035Z 2421/2524 27010KT P6SM FEW250 FM250000 24006KT P6SM FEW120 SCT250 FM250400 20004KT P6SM BKN100 FM251600 21010G20KT P6SM SCT060 BKN120 FM252200 23010G16KT P6SM VCTS BKN060CB
KPHX,KPHX 242100Z 2421/2524 27007KT P6SM FEW100 FEW250 FM250900 10005KT P6SM FEW250 FM251900 26007KT P6SM FEW250
KPIA,KPIA 241735Z 2418/2518 25008KT P6SM SKC FM242200 26009KT P6SM BKN180 FM250900 29008KT P6SM SCT200 FM251400 30012G24KT P6SM FEW250
KPIB,KPIB 241731Z 2418/2518 VRB03KT P6SM SKC
KPIE,KPIE 241741Z 2418/2518 07008KT P6SM SCT035 BKN060 FM241900 02010KT P6SM SCT040 BKN250 FM250200 07011KT P6SM FEW030 SCT250 FM250700 08006KT P6SM FEW030 BKN250
KPIH,KPIH 241720Z 2418/2518 27008KT P6SM SKC FM250200 VRB05KT P6SM SKC
KPIR,KPIR 242046Z 2421/2518 30013KT P6SM BKN110 FM250300 31007KT P6SM SKC FM251500 33015G24KT P6SM SKC
KPIT,KPIT 242101Z 2421/2524 23007KT P6SM BKN060 FM250900 17005KT P6SM VCSH BKN050 FM251200 20006KT P6SM VCSH BKN025 FM251600 24009G21KT 6SM -SHRA VCTS BKN030CB FM252000 25009G21KT 5SM -SHRA VCTS BKN045CB
KPKB,KPKB 241724Z 2418/2518 20007KT P6SM BKN070 FM242300 19004KT P6SM SCT080 FM250400 20004KT P6SM SCT170 FM251200 22005KT P6SM BKN080 FM251400 23010G19KT P6SM -SHRA BKN050
KPLN,KPLN 242038Z 2421/2518 15008KT P6SM VCSH OVC025 FM242200 14006KT P6SM -SHRA OVC019 FM250700 18004KT 5SM BR OVC008 FM251100 33004KT P6SM BKN012 FM251300 33008KT 5SM -SHRA BKN010
KPMD,KPMD 241740Z 2418/2518 VRB03KT P6SM SKC FM241900 05005KT P6SM SKC FM250000 26008KT P6SM SKC FM250700 VRB05KT P6SM SKC
KPNA,KPNA 241726Z 2418/2518 30011G16KT P6SM SKC FM241900 30014G22KT P6SM SKC FM250100 30007KT P6SM SCT250
KPNC,KPNC 241736Z 2418/2518 24007KT P6SM BKN120 FM250100 03007KT P6SM SCT120 FM251200 20014G24KT P6SM SKC
KPNE,KPNE 241723Z 2418/2518 29009KT P6SM FEW250 FM250000 25005KT P6SM FEW120 SCT250 FM250400 20002KT P6SM BKN100 FM251600 24009G19KT P6SM SCT060 BKN120
KPNS,KPNS 241738Z 2418/2518 17008KT P6SM SCT035 FM250200 VRB03KT P6SM FEW250
KPOB,TAF KPOB 231700Z 2317/2423 02010G15KT 9999 SKC QNH3004INS BECMG 2401/2402 05004KT 9999 SKC QNH3013INS TX25/2320Z TN08/2410Z LAST NO AMDS AFT 2322 NEXT 2617
KPOE,TAF KPOE 241800Z 2418/2524 23004KT 9999 FEW040 QNH2991INS TX35/2421Z TN24/2512Z
KPOU,KPOU 241737Z 2418/2518 30008KT P6SM FEW250 FM242300 VRB03KT P6SM FEW250 FM250400 00000KT P6SM BKN150 FM250900 00000KT P6SM OVC090 FM251500 19006KT P6SM VCSH OVC060
KPQI,KPQI 241724Z 2418/2518 32021G46KT P6SM SCT150 FM242200 31016G35KT P6SM FEW240 FM242300 31014G30KT P6SM FEW160 WS020/31045KT FM250500 27007KT P6SM FEW160 FM251500 24007KT P6SM FEW230
KPRB,KPRB 241740Z 2418/2518 00000KT P6SM SKC FM242200 20006KT P6SM SKC FM250000 19012KT P6SM SKC FM250600 VRB03KT P6SM SKC FM251000 00000KT P6SM SKC
KPRC,KPRC 241738Z 2418/2518 VRB06KT P6SM SKC FM242130 33008KT P6SM FEW130 FM250200 VRB05KT P6SM SKC
KPSC,KPSC 241720Z 2418/2518 36005KT P6SM SKC
KPSF,KPSF 241737Z 2418/2518 30012G20KT P6SM FEW040 SCT250 FM250000 29005KT P6SM SCT250 FM250500 00000KT P6SM SCT080 BKN150 FM251100 14004KT P6SM OVC080 FM251700 19009KT P6SM OVC050
KPSM,KPSM 241736Z 2418/2518 30015G25KT P6SM FEW050 FM242200 29008G12KT P6SM SKC FM250300 26004KT P6SM SKC FM251400 24007KT P6SM FEW150
KPSP,KPSP 241720Z 2418/2518 33005KT P6SM SKC FM242000 12007KT P6SM FEW250 FM250200 32008KT P6SM SCT200 FM250600 33004KT P6SM FEW250
KPTK,KPTK 241732Z 2418/2518 18006KT P6SM OVC040 FM241900 16008KT P6SM BKN045 OVC060 FM250200 21005KT 6SM -SHRA BKN035 OVC050 FM250600 25005KT P6SM VCSH BKN025 OVC040 FM251100 24004KT 4SM -RA BR OVC015
KPUB,KPUB 241724Z 2418/2518 VRB05KT P6SM SKC FM242000 12010KT P6SM SKC FM250230 04008KT P6SM SKC FM250900 02014KT P6SM SCT100 FM251400 VRB05KT P6SM SCT080
KPUW,KPUW 241720Z 2418/2518 10006KT P6SM FEW250 FM241900 VRB04KT P6SM SCT200 FM242000 26005KT P6SM SCT200 FM250100 VRB02KT P6SM SCT200 FM250900 10007KT P6SM SKC
KPVD,KPVD 242011Z 2420/2518 31010G18KT P6SM FEW250 FM242200 29008KT P6SM SCT250 FM250500 27004KT P6SM SKC FM251000 24003KT P6SM SCT120 FM251400 21007KT P6SM BKN090 FM251600 20010G18KT P6SM BKN120
KPVU,KPVU 241734Z 2418/2518 VRB05KT P6SM SKC FM242000 28008KT P6SM SKC FM250300 VRB05KT P6SM SKC FM250800 15004KT P6SM SKC
KPVW,KPVW 241720Z 2418/2518 22011KT P6SM SCT090 SCT250 FM250000 18008KT P6SM FEW200 FM251500 04017KT P6SM FEW080
KPWM,KPWM 241736Z 2418/2518 30015G27KT P6SM SCT250 FM242200 29009G17KT P6SM SKC FM250100 29006KT P6SM SKC FM251400 24005KT P6SM FEW150
KPWT,KPWT 241735Z 2418/2518 04008KT P6SM SCT200
KRAP,KRAP 242056Z 2421/2518 34025G38KT P6SM FEW200 FM250100 32009KT P6SM SKC
KRBG,KRBG 241737Z 2418/2518 00000KT P6SM SKC FM242200 36009G13KT P6SM SKC FM250300 VRB02KT P6SM SKC
KRBL,KRBL 241720Z 2418/2518 VRB05KT P6SM SKC
KRCA,TAF AMD KRCA 232228Z 2322/2501 32020G35KT 9999 BKN080 QNH2986INS BECMG 2403/2404 27006KT 9999 SKC QNH2994INS BECMG 2415/2416 30015G25KT 9999 FEW110 QNH3008INS TX22/2323Z TN10/2411Z LAST NO AMDS AFT 2322 NEXT 2611
KRDD,KRDD 241720Z 2418/2518 VRB05KT P6SM SKC
KRDG,KRDG 241723Z 2418/2518 28008KT P6SM FEW250 FM250000 21005KT P6SM FEW120 SCT250 FM250300 VRB02KT P6SM BKN100 FM251500 23008G18KT P6SM VCSH BKN060 OVC120
KRDM,KRDM 241720Z 2418/2518 VRB05KT P6SM SKC FM242100 34010KT P6SM SKC FM250600 17004KT P6SM SKC
KRDR,TAF AMD KRDR 242157Z 2421/2524 35010G20KT 9999 BKN038 QNH2978INS BECMG 2423/2424 33006KT 9999 SCT035 OVC050 QNH2983INS BECMG 2515/2516 31015G20KT 9999 SKC QNH3005INS BECMG 2516/2517 32020G30KT 9999 FEW040 510003 QNH3005INS BECMG 2523/2524 33012KT 9999 BKN055 QNH3007INS TX20/2421Z TN07/2512Z
KRDU,KRDU 241720Z 2418/2518 22007KT P6SM BKN100 FM251500 23012G18KT P6SM VCSH SCT090 BKN150
KRFD,KRFD 242101Z 2421/2518 26009KT P6SM SCT018 BKN150 TEMPO 2421/2423 BKN018 FM250100 VRB04KT P6SM VCSH BKN050 TEMPO 2502/2506 -SHRA BKN035 FM250800 30012KT P6SM BKN012 FM251200 31014G23KT P6SM BKN015
KRHI,KRHI 242205Z 2422/2518 22004KT P6SM OVC008 FM250200 30003KT 4SM -SHRA BR OVC007 FM250600 31004KT 2SM -DZ BR BKN002 FM251400 30008G15KT 4SM -SHRA BR OVC006 FM251600 30011G20KT 5SM -SHRA BR BKN011
KRIC,KRIC 242005Z 2420/2518 23010KT P6SM SCT100 FM250500 19007KT P6SM BKN250 FM251400 22015G22KT P6SM SCT250
KRIL,KRIL 241737Z 2418/2518 VRB03KT P6SM SKC FM242000 28006KT P6SM SKC FM250200 VRB04KT P6SM SKC
KRIV,TAF COR KRIV 242031Z 2420/2602 32009KT 9999 FEW120 FEW250 QNH3000INS TS OMTNS NE TEMPO 2421/2502 32012G20KT BECMG 2504/2505 VRB04KT 9999 FEW250 QNH3001INS BECMG 2517/2518 32006KT 9999 FEW250 QNH3000INS BECMG 2519/2520 32009KT 9999 FEW120 FEW250 510005 QNH2994INS TEMPO 2521/2602 32012G20KT TX36/2422Z TN18/2513Z
KRIW,KRIW 242051Z 2421/2518 01010KT P6SM SKC FM250200 05008KT P6SM SCT250 FM251000 VRB05KT P6SM SCT250
KRKD,KRKD 241736Z 2418/2518 29015G27KT P6SM SKC FM242300 29009G17KT P6SM SKC FM250400 27006KT P6SM SKC FM251400 23007KT P6SM FEW200
KRKS,KRKS 241726Z 2418/2518 27014G24KT P6SM SKC FM250200 31010KT P6SM SKC FM250900 06007KT P6SM SKC
KRME,KRME 241731Z 2418/2518 26007KT P6SM SCT040 SCT250 FM250000 00000KT P6SM FEW030 SCT250 FM251200 10004KT P6SM SCT060 BKN120 FM251700 14005KT P6SM -SHRA OVC028
KRNH,KRNH 241723Z 2418/2518 22006KT P6SM FEW009 BKN015 BKN090 FM241900 28007KT P6SM VCSH SCT020 BKN035 OVC050 FM250300 30006KT P6SM BKN012 FM251200 30008KT P6SM FEW012 FM251500 31015G28KT P6SM SCT020
KRNO,KRNO 241720Z 2418/2518 VRB05KT P6SM SKC
KROA,KROA 241722Z 2418/2518 20007KT P6SM SCT150 FM250000 22003KT P6SM BKN080 FM250500 24005KT P6SM SCT250 FM251500 25008G17KT P6SM BKN200
KROC,KROC 241720Z 2418/2518 25005KT P6SM SCT040 SCT250 FM242200 VRB03KT P6SM BKN120 FM250900 17005KT P6SM VCSH BKN050 FM251100 16008KT 6SM -RA BR OVC035 FM251400 18011KT 5SM -RA BR OVC015 FM251700 20013KT P6SM VCSH OVC025
KROG,KROG 241720Z 2418/2518 23010G17KT P6SM SCT120 SCT250 FM250000 VRB04KT P6SM BKN100 FM251500 01010KT P6SM SCT150
KROW,KROW 241720Z 2418/2518 36007KT P6SM SCT090 TEMPO 2500/2504 04008KT FM251600 05014G24KT P6SM FEW150
KRSL,KRSL 241720Z 2418/2518 33005KT P6SM SKC FM251500 35011KT P6SM SKC
KRST,KRST 242204Z 2422/2518 30012G25KT P6SM VCSH BKN050 FM250200 31010KT P6SM BKN070 FM250600 30010KT P6SM SCT015 FM251500 31014G23KT P6SM SKC
KRSW,KRSW 241741Z 2418/2518 06009KT P6SM SCT025 SCT100 FM241900 05011KT P6SM VCSH SCT040 BKN100 FM250300 06006KT P6SM FEW035 SCT250 FM251600 11006KT P6SM SCT040 BKN250
KRUT,KRUT 241721Z 2418/2518 29010G15KT P6SM FEW045 FM242000 30009KT P6SM FEW240 FM250400 VRB03KT P6SM FEW250 FM251500 VRB04KT P6SM BKN110
KRVS,KRVS 241720Z 2418/2518 00000KT P6SM VCSH BKN100 FM250000 VRB02KT P6SM SCT150 FM251500 01011KT P6SM SCT150
KRWF,KRWF 241723Z 2418/2518 29012G20KT P6SM SCT025 BKN035 BKN050 FM250100 29008KT P6SM SCT250 FM251500 32018G30KT P6SM SKC
KRWI,KRWI 241720Z 2418/2518 21006KT P6SM BKN100 FM251500 21012G18KT P6SM BKN150
KRWL,KRWL 241720Z 2418/2518 26015G25KT P6SM SKC FM250200 30009KT P6SM SKC FM250600 03005KT P6SM SKC
KRYY,KRYY 241741Z 2418/2518 10004KT P6SM SKC FM250100 VRB03KT P6SM FEW250 FM251200 23004KT P6SM BKN200 PROB30 2513/2518 -SHRA BKN100
KSAC,KSAC 241720Z 2418/2518 VRB04KT P6SM SKC
KSAF,KSAF 241720Z 2418/2518 01010G17KT P6SM SKC FM241900 26008KT P6SM SKC FM250200 01005KT P6SM SKC FM250900 06010KT P6SM SKC FM251700 13012KT P6SM FEW080
KSAN,KSAN 241720Z 2418/2524 30010KT P6SM SCT250 FM250300 VRB04KT P6SM FEW250 FM251800 30010KT P6SM FEW250
KSAT,KSAT 242150Z 2422/2524 17010KT P6SM VCSH SCT060 SCT250 FM250100 17009KT P6SM SCT250 FM250800 18006KT P6SM SCT020 SCT250 FM251500 16007KT P6SM SCT250
KSAV,KSAV 241729Z 2418/2518 10008KT P6SM SCT050 FM250100 VRB03KT P6SM SKC FM251400 22007KT P6SM FEW040
KSAW,KSAW 242002Z 2420/2518 15005KT P6SM VCSH OVC025 TEMPO 2420/2422 4SM -SHRA BR BKN008 FM242200 VRB04KT P6SM VCSH OVC013 FM250500 VRB03KT 2SM BR OVC008 FM251200 34006KT 3SM -SHRA BR BKN006 FM251600 34007KT 6SM -SHRA BR BKN010
KSBA,KSBA 241740Z 2418/2518 VRB04KT P6SM SCT005 FM242000 24008KT P6SM SKC FM250300 VRB03KT P6SM SKC FM251000 00000KT P6SM SKC
KSBD,KSBD 241720Z 2418/2518 VRB03KT P6SM SKC FM242100 26010KT P6SM SCT150 FM250500 VRB04KT P6SM FEW200
KSBM,KSBM 242051Z 2421/2518 26008KT P6SM OVC016 FM250000 VRB03KT P6SM OVC025 FM250300 VRB04KT P6SM VCSH OVC020 FM251000 32005KT P6SM BKN017 FM251500 30011KT P6SM OVC013
KSBN,KSBN 241725Z 2418/2518 21012KT P6SM BKN050 FM242300 28004KT P6SM BKN090 FM250900 28007KT P6SM -SHRA BKN050 FM251300 29010G22KT P6SM BKN020
KSBP,KSBP 241740Z 2418/2518 VRB03KT P6SM OVC005 FM241830 VRB03KT P6SM SCT005 FM242000 31010KT P6SM SKC FM250400 31005KT 3SM BR BKN004 FM250900 VRB03KT 1/2SM FG OVC003 FM251500 VRB03KT 3SM BR OVC005
KSBY,KSBY 241912Z 2419/2518 27008KT P6SM SCT150 FM250100 VRB03KT P6SM SCT200 FM250800 19004KT P6SM BKN150 FM251400 22012G20KT P6SM SCT250
KSCK,KSCK 241720Z 2418/2518 31005KT P6SM SKC
KSDF,KSDF 241726Z 2418/2524 22012G18KT P6SM FEW120 FM242300 21006KT P6SM FEW250 FM251400 27012G19KT P6SM SCT100 FM251800 31015G26KT P6SM FEW060
KSDL,KSDL 242101Z 2421/2518 24006KT P6SM FEW120 FEW250 FM250400 VRB05KT P6SM FEW250
KSDY,KSDY 241728Z 2418/2518 33011KT P6SM BKN080 FM242100 31014KT P6SM SCT100 FM250200 32007KT P6SM FEW070
KSEA,KSEA 242108Z 2421/2524 35010KT P6SM SCT200 FM250500 02006KT P6SM SCT200 FM251900 34006KT P6SM SCT200
KSEZ,KSEZ 241738Z 2418/2518 VRB05KT P6SM SKC FM242100 32009KT P6SM FEW130 FM250300 05011KT P6SM SKC
KSFB,KSFB 241739Z 2418/2518 07011KT P6SM BKN050 FM250000 07008KT P6SM FEW250 FM250300 05003KT P6SM SCT250 FM251400 07005KT P6SM SCT045
KSFF,KSFF 241720Z 2418/2518 VRB03KT P6SM SCT200
KSFO,KSFO 242101Z 2421/2524 29015G20KT P6SM SKC FM250400 29011KT P6SM SKC FM250900 29005KT P6SM FEW008 FM252100 31012KT P6SM SKC
KSGF,KSGF 241726Z 2418/2518 27008KT P6SM FEW250 FM250400 VRB05KT P6SM SKC FM251200 35005KT P6SM SKC FM251400 01007KT P6SM SKC
KSGJ,KSGJ 241736Z 2418/2518 08012G18KT P6SM SCT045 BKN060 FM242300 08009KT P6SM SCT040 FM250300 VRB03KT P6SM FEW035 FEW100 FM251500 07007KT P6SM VCSH SCT035 SCT100
KSGR,KSGR 241727Z 2418/2518 14007KT P6SM FEW025 FM250300 VRB04KT P6SM FEW250 FM251100 00000KT 6SM BR SCT250 FM251500 21003KT P6SM SCT250
KSGU,KSGU 241734Z 2418/2518 VRB05KT P6SM SKC FM242000 28007KT P6SM SKC FM250300 VRB05KT P6SM SKC
KSHR,KSHR 241730Z 2418/2518 32015G25KT P6SM FEW120 FM242200 33012G18KT P6SM FEW100 FM250200 VRB04KT P6SM SKC
KSHV,KSHV 241720Z 2418/2518 24006KT P6SM SKC FM250300 18003KT P6SM SKC FM251400 26007KT P6SM SKC
KSJC,KSJC 241730Z 2418/2518 VRB05KT P6SM SKC FM242200 33012KT P6SM SKC FM250500 VRB03KT P6SM SKC
KSJS,KSJS 241720Z 2418/2518 22006G15KT P6SM SCT100 FM250000 23006KT P6SM FEW150 FM250500 VRB04KT P6SM SKC WS020/26030KT FM251200 22008KT P6SM VCSH BKN060 FM251500 25008G20KT P6SM VCTS SCT040CB SCT090
KSJT,KSJT 241720Z 2418/2518 17012KT P6SM SKC FM242100 17007KT P6SM SKC
KSKA,TAF KSKA 241900Z 2419/2601 VRB06KT 9999 FEW140 QNH3014INS WND 03006KT AFT 2501 TX22/2422Z TN09/2512Z
KSKF,TAF KSKF 241800Z 2418/2524 14005KT 9999 SCT050 SCT250 QNH3000INS BECMG 2511/2512 15008KT 9999 BKN020 QNH2994INS TEMPO 2512/2515 BKN018 BECMG 2514/2515 10012KT 9999 SCT060 QNH2989INS TX35/2422Z TN22/2512Z
KSLC,KSLC 242100Z 2421/2524 33008KT P6SM SKC FM250400 15005KT P6SM SKC FM251700 33007KT P6SM SKC
KSLE,KSLE 241720Z 2418/2518 36006KT P6SM SKC FM250500 VRB04KT P6SM SKC
KSLI,TAF KSLI 242110Z 2421/2603 VRB06KT 9999 FEW095 QNH2988INS TX30/2600Z TN20/2514Z
KSLK,KSLK 241721Z 2418/2518 27007G15KT P6SM SCT045 FM242300 VRB04KT P6SM FEW250 FM250100 25007KT P6SM FEW210
KSLN,KSLN 241720Z 2418/2518 36005KT P6SM SKC FM251500 36010KT P6SM SKC
KSME,KSME 241720Z 2418/2518 22010G18KT P6SM SCT060 FM250000 22005KT P6SM FEW150 FM251200 24008KT P6SM VCSH SCT070 FM251600 25011G20KT P6SM VCTS SCT030CB SCT080
KSMF,KSMF 241720Z 2418/2518 VRB05KT P6SM SKC
KSMN,KSMN 241720Z 2418/2518 33002KT P6SM FEW250
KSMO,KSMO 241740Z 2418/2518 18005KT P6SM SKC FM242000 23008KT P6SM SKC FM250300 VRB03KT P6SM SKC FM251000 00000KT P6SM SKC
KSMX,KSMX 241740Z 2418/2518 VRB03KT 5SM BR SCT007 FM242000 30010KT P6SM SKC FM250600 VRB03KT 1/2SM FG OVC003 FM251300 VRB03KT 2SM BR OVC004
KSNA,KSNA 241720Z 2418/2518 VRB04KT P6SM FEW150 FM242000 23008KT P6SM FEW250 FM250400 VRB04KT P6SM FEW250
KSNS,KSNS 241730Z 2418/2518 31006KT P6SM SKC FM242100 30013KT P6SM SKC FM250300 32007KT P6SM FEW005 FM250900 VRB03KT 4SM BR BKN004 FM251600 VRB03KT P6SM FEW005
KSNY,KSNY 241720Z 2418/2518 32015G25KT P6SM SKC FM250100 01008KT P6SM SKC FM251400 32008KT P6SM SKC
KSOA,KSOA 241720Z 2418/2518 18008KT P6SM SKC FM250100 VRB03KT P6SM SKC
KSPI,KSPI 241735Z 2418/2518 26008KT P6SM SKC FM250000 25006KT P6SM BKN180 FM250800 28007KT P6SM SCT200 FM251400 30011G22KT P6SM FEW250
KSPS,KSPS 241736Z 2418/2518 23013KT P6SM FEW080 SCT150 FM250100 18010KT P6SM BKN150 FM251400 02013G21KT P6SM SCT150
KSRQ,KSRQ 241741Z 2418/2518 08009KT P6SM SCT035 BKN050 FM241900 03011KT P6SM SCT040 BKN060 FM250000 07010KT P6SM FEW050 BKN250 FM250600 07005KT P6SM SCT030 BKN250 FM251400 09008KT P6SM SCT025 BKN050
KSSC,TAF KSSC 241500Z 2415/2521 VRB06KT 9999 SKC QNH2998INS BECMG 2419/2420 VRB06KT 9999 SCT160 QNH2989INS BECMG 2422/2423 VRB06KT 9999 SKC QNH2983INS TX28/2420Z TN16/2511Z LAST NO AMDS AFT 2415 NEXT 2423
KSSF,KSSF 242152Z 2422/2518 17010KT P6SM VCSH SCT060 SCT250 FM250100 17009KT P6SM SCT250 FM250800 18006KT P6SM SCT020 SCT250 FM251500 16007KT P6SM SCT250
KSSI,KSSI 241736Z 2418/2518 07010KT P6SM FEW040 FM250200 09009KT P6SM SKC FM251700 12009KT P6SM FEW040
KSTC,KSTC 241723Z 2418/2518 23006KT P6SM VCSH SCT012 BKN020 OVC050 FM250000 31010G18KT P6SM SCT025 BKN050 FM250400 30006KT P6SM FEW250 FM251500 31015G24KT P6SM FEW020
KSTJ,KSTJ 241720Z 2418/2518 22008KT P6SM SCT120 FM250800 28003KT 4SM BR SKC FM251400 35012KT P6SM SKC
KSTL,KSTL 242058Z 2421/2524 26009KT P6SM SKC FM250800 30007KT P6SM SCT150 FM251600 31012G22KT P6SM FEW070
KSTS,KSTS 241730Z 2418/2518 VRB04KT P6SM SKC FM242100 20007KT P6SM SKC FM250500 VRB03KT P6SM SKC FM251200 00000KT 5SM BR FEW002 FM251500 VRB03KT P6SM SKC
KSUA,KSUA 241859Z 2419/2518 07011KT P6SM VCSH BKN040 TEMPO 2419/2420 4SM SHRA BKN025 FM250300 09008KT P6SM VCSH BKN035 FM251200 09007KT P6SM BKN035 AMD NOT SKED
KSUN,KSUN 241720Z 2418/2524 15008KT P6SM SKC FM250300 31008KT P6SM SKC FM251800 15007KT P6SM SKC
KSUS,KSUS 241728Z 2418/2518 27007KT P6SM SKC FM250800 30006KT P6SM SCT120 FM251600 31011G21KT P6SM SKC
KSUU,TAF KSUU 241100Z 2411/2517 VRB06KT 9999 SKC QNH2997INS BECMG 2418/2419 03010G15KT 9999 SKC QNH2990INS BECMG 2502/2503 VRB06KT 9999 SKC QNH2990INS TX32/2422Z TN12/2414Z
KSUX,KSUX 241720Z 2418/2518 30015G24KT P6SM BKN250 FM242100 31018G26KT P6SM BKN150 FM250100 33007KT P6SM FEW150 FM251500 31016G26KT P6SM SKC
KSVN,TAF AMD KSVN 240150Z 2401/2502 02009KT 9999 SKC QNH2999INS TX27/2418Z TN18/2409Z LAST NO AMDS AFT 2403 NEXT 2604
KSWF,KSWF 241958Z 2420/2524 30008KT P6SM SKC FM242200 28007KT P6SM SKC FM250000 27005KT P6SM SCT150 BKN250 FM250300 VRB02KT P6SM BKN120 BKN250 FM251500 23008KT P6SM SCT060 BKN100 BKN200 FM251700 24011KT P6SM BKN060 BKN100 BKN200 PROB30 2520/2524 3SM TSRA BKN050CB AMD NOT SKED
KSWO,KSWO 241736Z 2418/2518 22008KT P6SM VCSH BKN100 FM250400 34006KT P6SM SCT120 FM251200 02014G24KT P6SM SKC
KSYM,KSYM 241720Z 2418/2518 21007G15KT P6SM SCT070 FM250000 23006KT P6SM SCT100 FM251200 23008KT P6SM VCSH BKN060 FM251400 24012G25KT P6SM VCTS SCT040CB SCT100
KSYR,KSYR 241731Z 2418/2518 28007KT P6SM SCT035 BKN045 BKN250 TEMPO 2418/2421 BKN045 FM242300 VRB03KT P6SM FEW035 SCT250 FM251000 12004KT P6SM BKN070 FM251600 13007G13KT P6SM -SHRA OVC040 FM251700 15007G14KT P6SM -SHRA OVC030
KSZL,TAF KSZL 241900Z 2419/2601 31006KT 9999 SKC QNH2986INS BECMG 2514/2515 32012G18KT 9999 FEW040 QNH2999INS TX32/2421Z TN16/2512Z
KTCC,KTCC 241720Z 2418/2518 36008KT P6SM SKC FM242000 06009KT P6SM SCT080 FM250800 04007KT P6SM FEW100 FM251500 08012G22KT P6SM FEW080
KTCL,KTCL 241725Z 2418/2518 18005KT P6SM SKC FM250200 17002KT P6SM SCT050 FM251500 22005KT 4SM SHRA OVC035 PROB30 2515/2518 4SM TSRA BR OVC025CB
KTCM,TAF KTCM 242100Z 2421/2603 02010KT 9999 SCT100 BKN200 QNH3018INS BECMG 2507/2508 03006KT 9999 SKC QNH3004INS BECMG 2602/2603 02006KT 9999 SKC QNH3004INS TX23/2422Z TN12/2512Z
KTCS,KTCS 241720Z 2418/2518 01007KT P6SM SCT080 SCT250 FM250100 32008KT P6SM SCT100 BKN150 FM251300 01011KT P6SM BKN090 BKN150
KTEB,KTEB 241958Z 2420/2524 30008KT P6SM SKC TEMPO 2420/2421 30008G15KT FM242100 29009KT P6SM SKC FM250200 27006KT P6SM BKN120 BKN250 FM250500 23004KT P6SM BKN100 BKN250 FM251500 20008KT P6SM SCT060 BKN100 BKN200 FM251700 21011G17KT P6SM BKN060 BKN100 BKN200 PROB30 2521/2524 3SM TSRA BKN050CB
KTEX,KTEX 241737Z 2418/2518 VRB03KT P6SM SKC FM241900 29007KT P6SM SKC FM250200 13005KT P6SM SKC
KTIK,TAF KTIK 241700Z 2417/2523 23009KT 9999 OVC120 QNH2999INS BECMG 2420/2421 01009KT 9999 SCT150 QNH2996INS BECMG 2515/2516 03010G15KT 9999 SKC QNH3012INS TX34/2421Z TN21/2512Z
KTIX,KTIX 241739Z 2418/2518 07009KT P6SM SCT035 FM242000 07012G16KT P6SM SCT050 FM250000 08007KT P6SM VCSH SCT025 BKN050 FM250600 08006KT P6SM BKN050 FM251400 07009KT P6SM SCT040
KTLH,KTLH 241720Z 2418/2518 08005KT P6SM FEW250
KTMB,KTMB 242051Z 2421/2518 09010KT P6SM VCTS SCT020CB BKN250 FM242300 10008KT P6SM BKN030 BKN250 FM250100 VRB03KT P6SM SCT035 BKN250 FM251500 10007KT P6SM SCT025 SCT050 PROB30 2515/2518 6SM SHRA BKN025
KTOI,KTOI 241725Z 2418/2518 11007KT P6SM SKC FM250200 12002KT P6SM SKC FM251500 25005KT P6SM SCT050
KTOL,KTOL 241740Z 2418/2518 21007KT P6SM BKN060 FM242300 17005KT P6SM BKN050 FM250600 27006KT P6SM BKN050 FM251000 25005KT P6SM VCSH BKN040 FM251400 30010KT P6SM -SHRA BKN015
KTOP,KTOP 241720Z 2418/2518 28006KT P6SM SKC FM251500 34010KT P6SM SKC
KTPA,KTPA 242102Z 2421/2524 02008KT P6SM SCT050 BKN250 FM250300 07005KT P6SM FEW030 BKN250 FM252000 25007KT P6SM VCTS BKN050CB BKN250
KTPH,KTPH 241720Z 2418/2518 VRB06KT P6SM SKC FM250500 01010KT P6SM SKC FM251400 VRB06KT P6SM SKC
KTRI,KTRI 241723Z 2418/2518 22006KT P6SM BKN120 FM250000 22003KT P6SM SCT250 FM251000 22005KT P6SM BKN050 WS020/26035KT FM251600 24010G20KT P6SM BKN035
KTRK,KTRK 241720Z 2418/2518 VRB03KT P6SM SKC FM242100 25007G14KT P6SM SKC FM250200 VRB03KT P6SM SKC
KTRM,KTRM 241720Z 2418/2518 33005KT P6SM SKC FM241900 13009KT P6SM FEW250 FM250300 33007KT P6SM SCT200 FM251200 VRB04KT P6SM SCT200
KTTD,KTTD 241720Z 2418/2518 VRB04KT P6SM SKC FM242100 31006KT P6SM FEW250 FM250400 VRB04KT P6SM SKC
KTTN,KTTN 241723Z 2418/2518 29008KT P6SM FEW250 FM250000 26005KT P6SM FEW120 SCT250 FM250400 22002KT P6SM BKN100 FM251600 23009G19KT P6SM SCT060 BKN120
KTUL,KTUL 241720Z 2418/2518 25010KT P6SM VCSH BKN100 FM250000 20006KT P6SM SCT150 FM251500 01012KT P6SM SCT150
KTUP,KTUP 241720Z 2418/2518 19007KT P6SM SCT100 FM250300 25005KT P6SM VCSH BKN050 OVC250 FM250600 21005KT P6SM VCTS BKN050CB OVC250 FM250900 22005KT P6SM VCSH OVC100 FM251300 25008KT P6SM FEW060 OVC100 FM251700 26008KT P6SM BKN100
KTUS,KTUS 241720Z 2418/2518 15007KT P6SM FEW100 FEW250 FM241900 32010KT P6SM SCT100 SCT250 FM250500 19008KT P6SM SCT100 BKN250 FM250900 15007KT P6SM SCT100 BKN250
KTVC,KTVC 242010Z 2420/2518 17005KT 5SM BR VCSH OVC009 TEMPO 2420/2424 2SM -SHRA FM250700 23004KT 6SM BR BKN009 FM251100 29005KT P6SM BKN014 FM251300 30007KT P6SM -SHRA BKN010
KTVF,KTVF 241739Z 2418/2518 31010KT P6SM -RA OVC010 FM242100 31011G19KT P6SM BKN020 FM242200 32011G19KT P6SM SCT070 FM250100 30010KT P6SM SCT250 FM251300 31014G23KT P6SM SKC
KTVL,KTVL 241720Z 2418/2518 04007KT P6SM SKC FM250000 VRB03KT P6SM SKC
KTWF,KTWF 241731Z 2418/2518 VRB06KT P6SM SKC FM242000 30010KT P6SM SKC FM250300 20008KT P6SM SKC
KTXK,KTXK 241720Z 2418/2518 25008KT P6SM FEW240 FM242300 23005KT P6SM FEW250 FM250700 00000KT P6SM FEW250 FM251400 28005KT P6SM FEW240 FM251700 30007KT P6SM FEW200
KTYR,KTYR 241720Z 2418/2518 22006KT P6SM FEW250 FM242300 VRB04KT P6SM FEW250 FM250100 00000KT P6SM FEW250 FM250800 VRB03KT P6SM SKC FM251500 26006KT P6SM FEW250
KTYS,KTYS 241723Z 2418/2518 23008KT P6SM BKN150 FM250000 22005KT P6SM SCT250 FM251000 22008KT P6SM BKN060 WS020/26035KT FM251500 24015G25KT P6SM BKN040
KUAO,KUAO 241720Z 2418/2518 04005KT P6SM SKC FM250800 VRB04KT P6SM FEW250
KUES,KUES 242051Z 2421/2518 25007KT P6SM OVC015 FM250000 VRB03KT P6SM OVC023 FM250300 VRB03KT P6SM -SHRA OVC050 FM250700 VRB04KT P6SM VCSH OVC008 FM251100 30005KT P6SM BKN011 FM251400 30009KT P6SM OVC008 FM251700 30012G21KT P6SM BKN015
KUIN,KUIN 241728Z 2418/2518 26009KT P6SM FEW120 FM250600 31006KT P6SM BKN100 FM251500 31012G22KT P6SM SKC
KUKI,KUKI 241737Z 2418/2518 VRB02KT P6SM SKC FM242200 23005KT P6SM SKC FM250200 VRB03KT P6SM SKC FM250500 17001KT P6SM SKC
KUNV,KUNV 242123Z 2421/2518 00000KT P6SM SCT120 FM242200 26007KT P6SM OVC100 FM250800 23002KT P6SM OVC050 FM251500 22005KT 4SM -SHRA BR OVC050
KUTS,KUTS 241727Z 2418/2518 25005KT P6SM SKC FM250100 VRB04KT P6SM FEW250 FM251200 19003KT 6SM BR SKC FM251500 23006KT P6SM SKC
KVAD,TAF AMD KVAD 241853Z 2418/2518 03009KT 9999 SKC QNH3009INS BECMG 2417/2418 09009KT 9999 SCT050 QNH2998INS BECMG 2423/2424 09006KT 9999 SKC QNH2998INS TX29/2420Z TN17/2512Z LAST NO AMDS AFT 2418 NEXT 2515
KVBG,TAF KVBG 232208Z 2322/2504 30009KT 9999 FEW200 QNH2992INS BECMG 2401/2402 32006KT 9000 BR FEW005 FEW200 QNH2993INS BECMG 2405/2406 32006KT 4800 BR BKN004 QNH2998INS BECMG 2410/2411 32006KT 0400 FG VV001 QNH2998INS BECMG 2415/2416 31006KT 4800 BR OVC003 QNH3003INS BECMG 2416/2417 33009KT 9999 NSW FEW005 SCT100 QNH3002INS BECMG 2502/2503 32006KT 6000 BR SCT004 QNH3002INS TX27/2322Z TN12/2414Z LAST NO AMDS AFT 2400 NEXT 2614
KVCT,KVCT 241750Z 2418/2518 15011G17KT P6SM VCTS SCT035CB BKN120 TEMPO 2418/2420 2SM TSRA BKN025CB FM242200 15011KT P6SM SCT035 BKN250 TEMPO 2509/2513 5SM BR BKN025 FM251300 15006KT P6SM VCSH BKN250
KVEL,KVEL 241737Z 2418/2518 VRB04KT P6SM SKC
KVGT,KVGT 241720Z 2418/2518 08007KT P6SM FEW100 FM250200 32006KT P6SM SKC
KVIS,KVIS 241720Z 2418/2518 VRB05KT P6SM SKC
KVLD,KVLD 241720Z 2418/2518 10004KT P6SM FEW250 TEMPO 2511/2512 5SM BR
KVNY,KVNY 241740Z 2418/2518 00000KT P6SM SKC FM242100 15008KT P6SM SKC FM250300 VRB03KT P6SM SKC FM251000 00000KT P6SM SKC
KVOK,TAF AMD KVOK 231730Z 2317/2423 18010KT 9999 SCT200 QNH3001INS BECMG 2321/2322 17006KT 9999 BKN020 BKN100 QNH2999INS BECMG 2403/2404 18006KT 9000 -SHRA OVC016 QNH2985INS BECMG 2410/2411 19006KT 8000 BR OVC008 QNH2981INS BECMG 2417/2418 22009KT 9999 NSW BKN020 QNH2978INS BECMG 2422/2423 28010KT 9999 BKN040 QNH2980INS TX15/2321Z TN10/2407Z LAST NO AMDS AFT 2409 NEXT 2609
KVPS,TAF KVPS 241700Z 2417/2523 15007KT 9999 SCT040 QNH2996INS BECMG 2500/2501 10004KT 9999 SKC QNH2993INS BECMG 2514/2515 12005KT 9999 SCT250 QNH2988INS WND 27008KT AFT 2517 BECMG 2519/2520 24009KT 9999 FEW060 BKN250 QNH2987INS TX32/2420Z TN21/2511Z
KVQQ,KVQQ 241736Z 2418/2518 08009KT P6SM SCT040 FM242300 07006KT P6SM FEW045 FM250700 00000KT 4SM BR SKC FM251300 05005KT P6SM FEW035
KVRB,KVRB 241739Z 2418/2518 06011KT P6SM VCSH FEW030 SCT040 BKN050 TEMPO 2418/2419 4SM SHRA BKN025 FM250400 09007KT P6SM VCSH BKN035 FM251200 08007KT P6SM BKN035
KVTN,KVTN 241720Z 2418/2518 32015G25KT P6SM FEW250 FM250100 31007KT P6SM FEW250 FM251500 32013KT P6SM SKC
KWJF,KWJF 241740Z 2418/2518 00000KT P6SM SKC FM241900 06005KT P6SM SKC FM250000 26010KT P6SM SKC FM250700 VRB05KT P6SM SKC
KWMC,KWMC 241720Z 2418/2518 VRB06KT P6SM SKC
KWRB,TAF KWRB 241600Z 2416/2522 VRB06KT 9999 SKC QNH2994INS TX28/2421Z TN11/2511Z
KWRI,TAF KWRI 241800Z 2418/2524 33010G15KT 9999 SCT160 QNH2991INS BECMG 2422/2423 25006KT 9999 FEW100 SCT250 QNH2989INS BECMG 2503/2504 16007KT 9999 BKN080 QNH2975INS BECMG 2514/2515 23012G20KT 9999 BKN060 QNH2962INS BECMG 2521/2522 23015G25KT 9999 VCTS BKN050CB QNH2963INS TX21/2420Z TN11/2510Z
KWRL,KWRL 241726Z 2418/2518 VRB06KT P6SM SCT130 FM242300 36012KT P6SM SCT130 FM250200 34006KT P6SM SCT250 FM250600 VRB05KT P6SM SCT250
KWWR,KWWR 241736Z 2418/2518 06007KT P6SM SCT120 FM251000 03014G24KT P6SM SKC
KWYS,KWYS 241731Z 2418/2518 VRB06KT P6SM FEW250 FM251000 00000KT P6SM SCT250
KXNA,KXNA 241720Z 2418/2518 23010G18KT P6SM SCT120 SCT250 FM250000 21005KT P6SM BKN100 FM251500 01010KT P6SM SCT150
KXWA,KXWA 241722Z 2418/2518 32011KT P6SM BKN080 OVC100 FM242000 31015G23KT P6SM FEW200 FM250200 32010KT P6SM FEW250 FM251500 31012G20KT P6SM SKC
KYIP,KYIP 241732Z 2418/2518 18006KT P6SM SCT060 OVC080 FM242000 16008KT P6SM BKN045 FM250200 21005KT 6SM -SHRA BKN045 OVC060 FM250600 25005KT P6SM VCSH BKN030 OVC050 FM251100 27008KT P6SM -RA SCT015 OVC025
KYKM,KYKM 241720Z 2418/2518 28006KT P6SM FEW250 FM241900 13005KT P6SM FEW250 FM250400 28006KT P6SM SKC
KYNG,KYNG 241740Z 2418/2518 18005KT P6SM BKN100 FM251500 19005KT P6SM -SHRA BKN020
KZZV,KZZV 241736Z 2418/2518 20006KT P6SM BKN070 FM250600 VRB02KT P6SM BKN060 FM251600 23009G17KT 6SM BR VCTS BKN040CB
LATI,TAF LATI 241700Z 2418/2518 VRB02KT 9999 SCT070 BKN200 TX27/2512Z TN08/2504Z TEMPO 2511/2516 20010KT
LBBG,TAF LBBG 241700Z 2418/2518 13010KT CAVOK BECMG 2419/2421 VRB04KT BECMG 2510/2512 14010KT
LBGO,TAF LBGO 241700Z 2418/2518 VRB04KT CAVOK TEMPO 2502/2505 1500 BR BKN012 BECMG 2507/2509 16010KT
LBPD,TAF LBPD 241700Z 2418/2518 VRB04KT CAVOK BECMG 2508/2510 06010KT
LBSF,TAF LBSF 241700Z 2418/2518 VRB04KT CAVOK TEMPO 2502/2506 3000 BR SCT005 BKN010 PROB40 2503/2506 0800 BCFG SCT002 BKN005 BECMG 2512/2513 08010KT
LBWN,TAF LBWN 241700Z 2418/2518 VRB04KT CAVOK BECMG 2509/2511 14010KT
LCEN,TAF LCEN 241640Z 2418/2518 29012KT 9999 FEW025
LCLK,TAF LCLK 241730Z 2418/2518 35008KT CAVOK BECMG 2508/2511 09011KT BECMG 2514/2518 30006KT
LCPH,TAF LCPH 241730Z 2418/2518 36007KT CAVOK BECMG 2506/2509 14010KT BECMG 2511/2514 33008KT
LCRA,TAF LCRA 241927Z 2421/2515 26012KT CAVOK 03005KT PROB30 2421/2423 35005KT BECMG 2509/2513 20007KT
LDDU,TAF LDDU 241725Z 2418/2518 09007KT CAVOK TX21/2512Z TN16/2502Z BECMG 2505/2507 12015KT TEMPO 2511/2518 RA PROB40 TEMPO 2514/2518 3000 TSRA BKN010 FEW020CB
LDLO,TAF LDLO 241125Z 2412/2512 18014KT 9999 SCT030 TX22/2412Z TN16/2504Z PROB40 TEMPO 2423/2512 RA TEMPO 2504/2512 16022G35KT PROB30 TEMPO 2504/2512 4000 TSRA BKN014 FEW025CB OVC030
LDOS,TAF LDOS 241725Z 2418/2518 17006KT CAVOK TX20/2513Z TN10/2504Z TEMPO 2510/2514 25008KT
LDPL,TAF LDPL 241725Z 2418/2518 12008KT 9999 FEW020 BKN040 TX20/2512Z TN15/2504Z PROB40 TEMPO 2418/2509 4000 RA BKN010 OVC030 PROB30 TEMPO 2503/2512 TSRA BKN010 FEW020CB PROB40 TEMPO 2512/2518 15015G25KT 4000 TSRA BKN010 SCT020CB BKN030
LDRI,TAF LDRI 241725Z 2418/2518 16008KT 9999 FEW030 BKN040 TX19/2512Z TN13/2504Z TEMPO 2418/2518 RA BECMG 2504/2506 14010KT PROB30 TEMPO 2504/2518 14015G25KT 4000 TSRA BKN010 FEW020CB OVC030
LDSB,TAF LDSB 241125Z 2412/2512 12008KT CAVOK TX22/2413Z TN15/2502Z BECMG 2421/2423 12018KT BECMG 2508/2510 RA BKN010 OVC025
LDSP,TAF LDSP 241725Z 2418/2518 11008KT CAVOK TX21/2510Z TN17/2501Z TEMPO 2502/2518 RA PROB40 TEMPO 2510/2514 23008KT 3000 TSRA BKN014 FEW025CB
LDZA,TAF LDZA 241725Z 2418/2518 22006KT CAVOK TX20/2513Z TN11/2504Z TEMPO 2505/2510 RA PROB30 TEMPO 2505/2511 SHRA BKN010 FEW025TCU BECMG 2512/2514 08006KT PROB30 TEMPO 2514/2517 SHRA FEW030TCU
LDZD,TAF COR LDZD 241803Z 2418/2518 13010KT 9999 SCT040 TX20/2513Z TN14/2504Z PROB40 TEMPO 2503/2518 13015G25KT 4000 RA PROB30 TEMPO 2515/2518 TSRA BKN014 FEW020CB BKN030
LEAB,TAF LEAB 241700Z 2418/2518 32007KT CAVOK TX22/2515Z TN12/2506Z PROB40 TEMPO 2418/2419 FEW040TCU BECMG 2420/2421 07010KT PROB30 TEMPO 2502/2507 BKN015 PROB40 TEMPO 2512/2518 SHRA FEW035TCU FEW040CB PROB30 TEMPO 2516/2518 TSRA SCT035CB
LEAL,TAF AMD LEAL 241758Z 2418/2518 05008KT 9999 FEW020 TX25/2512Z TN18/2506Z TEMPO 2418/2420 SHRA FEW035TCU PROB30 TEMPO 2418/2420 3000 TSRA FEW030CB PROB30 TEMPO 2508/2518 3000 TSRA FEW030CB TEMPO 2510/2517 07020G30KT
LEAM,TAF LEAM 241700Z 2418/2518 21018KT CAVOK TX26/2514Z TN18/2506Z BECMG 2420/2422 VRB02KT BECMG 2508/2510 09010KT
LEAO,TAF LEAO 242000Z 2421/2521 27007KT CAVOK TX24/2515Z TN12/2506Z BECMG 2421/2423 03007KT TEMPO 2510/2513 VRB05KT BECMG 2513/2514 26006KT BECMG 2517/2519 03008KT
LEAS,TAF LEAS 242000Z 2421/2521 26008KT 9999 SCT025 BKN040 TX18/2513Z TN11/2505Z TEMPO 2421/2521 SCT030TCU TEMPO 2421/2521 3000 RA SHRA BKN010 SCT025TCU PROB40 TEMPO 2500/2509 1500 +RA +SHRA BKN005 SCT025TCU PROB30 TEMPO 2421/2507 TS FEW030CB PROB40 TEMPO 2512/2515 03010KT
LEBA,TAF LEBA 241400Z 2415/2515 22010KT CAVOK TX33/2415Z TN14/2506Z BECMG 2419/2421 VRB02KT
LEBB,TAF LEBB 241700Z 2418/2518 30009KT 9999 SCT020 BKN040 TX19/2514Z TN11/2505Z PROB40 TEMPO 2418/2518 3000 RA SHRA BKN010 SCT025TCU PROB30 TEMPO 2504/2511 TS FEW020CB
LEBG,TAF LEBG 242000Z 2421/2521 04009KT 9999 SCT035 TX16/2515Z TN07/2506Z PROB40 TEMPO 2500/2509 BKN008 PROB30 TEMPO 2513/2518 FEW040TCU PROB30 TEMPO 2515/2521 04015G25KT
LEBL,TAF LEBL 241700Z 2418/2518 07010KT 9999 FEW020 TX24/2512Z TN16/2505Z PROB40 TEMPO 2419/2424 4000 SHRA FEW030TCU PROB30 TEMPO 2419/2424 3000 TSRA FEW030CB BECMG 2422/2424 34012KT TEMPO 2422/2503 VRB04KT BECMG 2510/2512 21010KT TEMPO 2514/2518 18010KT
LEBZ,TAF LEBZ 242000Z 2421/2521 27005KT CAVOK TX27/2515Z TN15/2506Z
LECO,TAF LECO 242000Z 2421/2521 36009KT 9999 FEW020 SCT030 TX19/2513Z TN12/2505Z PROB30 TEMPO 2421/2512 3000 RA SHRA BKN010 SCT030TCU PROB30 TEMPO 2510/2519 36015G25KT
LECV,TAF LECV 241700Z 2418/2518 01010KT 9999 FEW050 TX19/2515Z TN11/2506Z PROB30 TEMPO 2418/2421 02013G23KT PROB30 TEMPO 2510/2518 02013G23KT
LEGE,TAF LEGE 241700Z 2418/2518 02008KT 9999 SCT020 BKN035 TX24/2513Z TN13/2506Z PROB40 TEMPO 2418/2424 SHRA FEW030TCU PROB30 TEMPO 2418/2424 3000 TSRA FEW030CB BECMG 2420/2422 VRB04KT PROB30 TEMPO 2422/2508 3000 BR BKN010 PROB30 TEMPO 2514/2518 FEW030TCU
LEGR,TAF LEGR 241700Z 2418/2518 29010KT 9999 FEW060 TX29/2515Z TN13/2506Z BECMG 2419/2420 VRB02KT BECMG 2510/2512 25010KT
LEGT,TAF LEGT 241700Z 2418/2518 01010KT CAVOK TX23/2515Z TN14/2506Z PROB30 TEMPO 2418/2422 04013G23KT PROB30 TEMPO 2509/2518 02013G23KT
LEHC,TAF LEHC 241400Z 2415/2515 30009KT 9999 SCT030 TX22/2513Z TN08/2505Z TEMPO 2415/2419 30015G25KT BECMG 2506/2508 VRB04KT
LEIB,TAF LEIB 242000Z 2421/2521 34008KT 9999 FEW020 TX25/2512Z TN17/2505Z PROB40 TEMPO 2421/2503 4000 SHRA FEW025TCU BECMG 2423/2501 03012KT TEMPO 2503/2521 3000 TSRA SCT020CB PROB40 TEMPO 2503/2521 1500 +TSRAGR BKN010 SCT015CB
LEJR,TAF LEJR 242000Z 2421/2521 17005KT CAVOK TX26/2514Z TN13/2506Z PROB40 TEMPO 2500/2507 4000 BR BECMG 2508/2510 23010KT
LELC,TAF LELC 241700Z 2418/2518 21010KT 9999 FEW040 TX26/2513Z TN18/2506Z BECMG 2418/2420 13010KT BECMG 2423/2501 06010KT BECMG 2502/2504 05020KT PROB40 TEMPO 2503/2505 05020G30KT
LELL,TAF LELL 241400Z 2415/2515 12008KT 9999 FEW030 BKN050 TX23/2512Z TN14/2505Z PROB40 TEMPO 2415/2421 SHRA FEW030TCU PROB30 TEMPO 2415/2421 3000 TSRA FEW030CB BECMG 2417/2419 04009KT BECMG 2420/2422 VRB04KT
LELN,TAF LELN 242000Z 2421/2521 34005KT 9999 FEW045 TX16/2515Z TN06/2506Z BECMG 2506/2508 02010KT PROB30 TEMPO 2513/2518 FEW040TCU
LELO,TAF LELO 242000Z 2421/2521 29008KT 9999 SCT045 TX19/2515Z TN12/2506Z PROB30 TEMPO 2513/2518 FEW040TCU
LEMD,TAF LEMD 241700Z 2418/2524 01010KT CAVOK TX23/2515Z TN11/2506Z PROB40 TEMPO 2418/2422 02013G23KT PROB30 TEMPO 2509/2518 02013G23KT
LEMG,TAF LEMG 241700Z 2418/2518 07006KT CAVOK TX29/2513Z TN17/2506Z PROB40 TEMPO 2418/2421 VRB02KT BECMG 2420/2422 29006KT
LEMH,TAF LEMH 242000Z 2421/2521 01009KT 9999 BKN030 TX27/2512Z TN17/2505Z TEMPO 2421/2521 3000 TSRA SCT020CB PROB40 TEMPO 2421/2506 VRB20G30KT 1500 +TSRAGR SCT020CB TEMPO 2423/2504 04020G30KT
LEMO,TAF LEMO 242000Z 2421/2521 19008KT CAVOK TX31/2515Z TN15/2506Z
LEPA,TAF AMD LEPA 241827Z 2418/2518 06012KT 9999 SCT030 TX25/2512Z TN18/2505Z TEMPO 2418/2420 FEW030CB PROB30 TEMPO 2420/2423 3000 TSRA SCT030CB PROB40 TEMPO 2423/2503 06020G30KT 3000 TSRA SCT030CB TEMPO 2503/2518 4000 SHRA SCT030TCU PROB30 TEMPO 2512/2518 3000 TSRA SCT030CB
LEPP,TAF LEPP 242000Z 2421/2521 34007KT 9999 SCT040 TX20/2514Z TN08/2505Z PROB40 TEMPO 2421/2521 FEW035TCU PROB30 TEMPO 2421/2509 3000 SHRA BKN010 SCT035TCU PROB30 TEMPO 2500/2507 3000 BR BKN010
LERI,TAF LERI 241700Z 2418/2518 35007KT 9999 FEW040 TX27/2513Z TN17/2506Z BECMG 2418/2420 06010KT BECMG 2500/2502 VRB02KT BECMG 2505/2507 09011KT
LERL,TAF LERL 241400Z 2415/2515 27012KT CAVOK TX28/2415Z TN14/2506Z BECMG 2421/2423 03007KT BECMG 2510/2511 26006KT
LERS,TAF AMD LERS 242113Z 2421/2521 VRB04KT 9999 FEW020 TX24/2512Z TN12/2505Z PROB40 TEMPO 2421/2501 TSRA FEW030CB PROB30 TEMPO 2500/2512 29010KT BECMG 2512/2514 16010KT
LERT,TAF LERT 242000Z 2421/2521 27009KT CAVOK TX24/2513Z TN17/2506Z BECMG 2423/2501 34010KT BECMG 2503/2505 VRB03KT BECMG 2507/2509 22010KT
LESA,TAF LESA 242000Z 2421/2521 04008KT 9999 FEW040 TX20/2515Z TN05/2506Z PROB30 TEMPO 2512/2521 04012G25KT
LESO,TAF LESO 241700Z 2418/2518 22005KT 9999 SCT015 BKN030 TX19/2513Z TN13/2505Z PROB40 TEMPO 2418/2518 30010KT 3000 RA SHRA BKN010 SCT020TCU PROB30 TEMPO 2418/2513 1500 +RA +SHRA SCT020TCU PROB30 TEMPO 2418/2421 TS SCT020CB
LEST,TAF LEST 241700Z 2418/2518 01009KT 9999 FEW015 SCT025 TX18/2514Z TN08/2505Z PROB40 TEMPO 2423/2506 BKN010 PROB30 TEMPO 2423/2506 3000 BR PROB40 TEMPO 2512/2518 01015G25KT
LESU,TAF LESU 241400Z 2415/2515 VRB03KT 9999 SCT030 BKN045 TX21/2513Z TN06/2505Z TEMPO 2415/2417 20010KT TEMPO 2415/2424 3000 TSRA SCT025CB PROB30 TEMPO 2415/2417 1500 TSRAGR BKN010 SCT015CB
LETO,TAF LETO 241700Z 2418/2518 01010KT CAVOK TX23/2515Z TN10/2506Z PROB40 TEMPO 2418/2422 02013G23KT PROB30 TEMPO 2509/2518 02013G23KT
LEVC,TAF LEVC 241700Z 2418/2518 05012KT 9999 BKN030 TX23/2512Z TN18/2506Z PROB30 TEMPO 2418/2422 4000 TSRA FEW030CB BECMG 2421/2423 VRB03KT BECMG 2509/2511 09012KT
LEVD,TAF LEVD 242000Z 2421/2521 05009KT 9999 SCT040 TX19/2515Z TN06/2506Z PROB40 TEMPO 2421/2422 04013G23KT PROB30 TEMPO 2513/2521 04012G25KT
LEVS,TAF LEVS 241700Z 2418/2518 02010KT CAVOK TX22/2515Z TN13/2506Z PROB30 TEMPO 2418/2422 03013G23KT PROB30 TEMPO 2509/2518 02013G23KT
LEVT,TAF LEVT 241700Z 2418/2518 33006KT 9999 SCT015 BKN030 TX16/2513Z TN07/2506Z PROB40 TEMPO 2418/2509 3000 RADZ BKN010 PROB30 TEMPO 2509/2512 3000 RA SHRA FEW025TCU TEMPO 2513/2518 03010KT
LEVX,TAF LEVX 241700Z 2418/2518 02009KT 9999 FEW030 TX22/2514Z TN10/2505Z TEMPO 2512/2518 01015G25KT
LEXJ,TAF LEXJ 242000Z 2421/2521 26009KT 9999 FEW015 BKN040 TX18/2514Z TN12/2506Z TEMPO 2421/2521 3000 RA SHRA BKN010 SCT030TCU PROB30 TEMPO 2500/2512 1500 +RA +SHRA SCT025TCU PROB30 TEMPO 2500/2512 TS FEW030CB PROB30 TEMPO 2510/2515 02010KT
LEZG,TAF LEZG 241700Z 2418/2518 30015KT 9999 FEW060 TX23/2512Z TN11/2506Z PROB30 TEMPO 2418/2421 30015G25KT
LEZL,TAF LEZL 242000Z 2421/2521 29010KT CAVOK TX30/2515Z TN17/2506Z BECMG 2421/2423 VRB03KT BECMG 2512/2514 22012KT
LFAQ,TAF LFAQ 241400Z 2415/2424 02010KT 9999 SCT025 BKN040
LFAT,TAF LFAT 241400Z 2415/2424 02012KT 9999 SCT025 BKN040 PROB30 TEMPO 2415/2424 4000 SHRA BKN025TCU
LFBA,TAF LFBA 241400Z 2415/2424 24006KT 9999 SCT012 BKN025TCU PROB40 TEMPO 2415/2421 4000 -SHRA BKN010 SCT040CB BECMG 2423/2424 BKN005
LFBC,TAF LFBC 242000Z 2421/2521 VRB02KT CAVOK TEMPO 2421/2501 4000 SHRA SCT025TCU PROB30 TEMPO 2502/2507 3000 BR
LFBD,TAF LFBD 241700Z 2418/2524 30008KT 9999 BKN030 TX22/2514Z TN11/2506Z TEMPO 2418/2424 4000 SHRA BKN020TCU PROB30 TEMPO 2503/2507 1500 MIFG TEMPO 2512/2520 SHRA BKN030TCU
LFBE,TAF AMD LFBE 241908Z 2419/2512 23005KT 9999 BKN030 TEMPO 2419/2422 4000 SHRA BKN020TCU PROB30 TEMPO 2419/2421 -TSRA BKN020CB PROB40 2500/2508 0500 FG VV///
LFBH,TAF LFBH 241700Z 2418/2518 36009KT 9999 SCT030 TEMPO 2418/2424 VRB15G25KT 3000 SHRA SCT010 BKN030CB PROB40 TEMPO 2503/2507 -RA BKN010 BECMG 2507/2510 BKN025
LFBI,TAF LFBI 241700Z 2418/2518 32010KT 9999 BKN030 TEMPO 2418/2420 VRB15G25KT 3000 SHRA SCT010 BKN030CB PROB40 TEMPO 2500/2508 -RA PROB30 TEMPO 2502/2507 VRB03KT 0500 FG VV/// BECMG 2507/2510 BKN003 BECMG 2510/2512 SCT025
LFBL,TAF AMD LFBL 242148Z 2421/2518 28006KT 9999 BKN030 TEMPO 2421/2423 SHRA BKN020CB TEMPO 2423/2510 1500 MIFG BKN005 PROB40 2500/2509 0300 FG VV/// TEMPO 2510/2517 -SHRA BKN020TCU PROB40 TEMPO 2510/2512 BKN008
LFBM,TAF LFBM 241400Z 2415/2515 28010KT 9999 FEW020 SCT030TCU TEMPO 2415/2424 4000 SHRA SCT040CB BECMG 2500/2502 BKN003 TEMPO 2502/2508 0600 FG VV/// TEMPO 2509/2515 4000 SHRA SCT030TCU
LFBO,TAF LFBO 241700Z 2418/2524 30010KT 9999 SCT020 BKN080 TEMPO 2418/2421 4000 -SHRA BKN030TCU BECMG 2502/2504 BKN013 TEMPO 2504/2508 BKN007 BECMG 2509/2511 SCT020 BECMG 2516/2518 CAVOK
LFBP,TAF LFBP 241700Z 2418/2518 26010KT 9999 SCT030 BKN090 PROB40 TEMPO 2418/2420 4000 SHRA BKN007 SCT040CB PROB40 TEMPO 2420/2424 3000 BR NSC PROB40 TEMPO 2500/2506 BKN007 BECMG 2515/2517 36010KT CAVOK
LFBT,TAF LFBT 241700Z 2418/2518 26010KT 9999 SCT020 BKN070 PROB40 TEMPO 2418/2420 4000 SHRA SCT040CB PROB30 TEMPO 2500/2506 BKN012 BECMG 2510/2512 24010KT TEMPO 2510/2515 BKN030TCU
LFBU,TAF AMD LFBU 241907Z 2419/2518 33005KT 9999 BKN030 TEMPO 2419/2421 4000 SHRA BKN030TCU PROB40 TEMPO 2419/2421 2000 TSRA BKN020CB TEMPO 2500/2504 1500 MIFG TEMPO 2504/2509 2000 BR OVC003 TEMPO 2510/2517 SHRA BKN020TCU PROB40 TEMPO 2510/2512 BKN012
LFBZ,TAF LFBZ 241700Z 2418/2518 24008KT 9999 BKN030 TEMPO 2418/2502 32015KT 4000 SHRA BKN020TCU PROB30 TEMPO 2418/2502 TSRA BKN010 BKN020CB TEMPO 2502/2510 -SHRA BKN010 BKN020TCU TEMPO 2510/2514 -SHRA BKN025TCU
LFCK,TAF LFCK 241700Z 2418/2503 29008KT 9999 SCT013 BKN030 PROB40 TEMPO 2418/2422 4000 SHRA BKN025TCU BECMG 2423/2501 BKN012
LFCR,TAF LFCR 241700Z 2418/2518 33006KT 9999 SCT020 BKN030 PROB30 TEMPO 2418/2424 4000 SHRA BKN013 SCT030CB BECMG 2422/2424 BKN012 TEMPO 2500/2509 BKN006 PROB40 TEMPO 2503/2508 3000 -RADZ OVC003 BECMG 2510/2512 BKN020
LFGJ,TAF LFGJ 241400Z 2415/2424 32006KT 9999 SCT040 BKN100 TEMPO 2415/2420 4000 -SHRA SCT020TCU
LFJL,TAF LFJL 241700Z 2418/2518 23008KT 9999 FEW040 BKN060 BECMG 2423/2502 4000 BR BKN004 PROB40 TEMPO 2502/2508 0500 FG VV/// BECMG 2509/2512 33010KT 9999 NSW SCT015 BKN025 PROB40 TEMPO 2512/2515 -SHRA FEW030TCU 
LFKB,TAF AMD LFKB 242138Z 2421/2521 24004KT 9999 BKN075 TX22/2512Z TN16/2505Z TEMPO 2421/2503 SHRA FEW050CB PROB40 TEMPO 2421/2503 5000 TSRAGR BECMG 2505/2507 BKN020 TEMPO 2506/2518 -SHRA SCT020TCU
LFKC,TAF LFKC 241400Z 2415/2515 22010KT 9999 FEW035TCU SCT090 BKN150 TX24/2512Z TN18/2503Z PROB40 TEMPO 2415/2418 SHRA FEW035CB BKN040 BKN150 TEMPO 2423/2504 RA BECMG 2514/2515 NSW NSC
LFKF,TAF AMD LFKF 241554Z 2415/2515 VRB05KT 9999 BKN050 BKN070 TEMPO 2415/2421 4000 RA BR FEW035CB BKN050 BKN120 BECMG 2421/2422 FEW020 BKN045 PROB40 TEMPO 2422/2505 BKN008
LFKJ,TAF AMD LFKJ 242135Z 2421/2521 05006KT 9999 BKN040 TEMPO 2421/2509 TSRA BKN020 SCT030CB PROB40 TEMPO 2421/2503 4000 TSRAGR PROB30 TEMPO 2506/2509 NSW BKN020 BECMG 2509/2512 NSW BKN020
LFKS,TAF AMD LFKS 241724Z 2417/2515 17015KT 9999 -RA OVC070 BECMG 2421/2422 27005KT NSW TEMPO 2422/2502 -SHRA SCT040TCU BECMG 2503/2505 BKN018
LFLB,TAF LFLB 241400Z 2415/2515 VRB05KT 9999 BKN060 PROB40 TEMPO 2415/2418 4000 SHRA BKN040TCU TEMPO 2422/2509 4000 RA BKN008 OVC040 PROB40 TEMPO 2423/2502 VRB15KT 2000 +RA SCT030CB OVC040 PROB40 TEMPO 2509/2515 SHRA SCT040TCU BKN060
LFLC,TAF LFLC 241700Z 2418/2518 VRB05KT 9999 BKN050 TEMPO 2418/2424 SHRA SCT040TCU BKN045 PROB40 TEMPO 2418/2420 VRB10KT 4000 TSRA SCT040CB BKN045 TEMPO 2500/2511 4000 RA BKN010 OVC035 BECMG 2509/2511 36008KT PROB30 TEMPO 2512/2518 FEW035TCU BKN040
LFLL,TAF AMD LFLL 241839Z 2418/2524 VRB03KT 9999 FEW030 SCT040 BKN096 TEMPO 2418/2424 4000 SHRA FEW028CB SCT033TCU BKN035 TEMPO 2418/2421 VRB15G25KT 2500 TSRA TEMPO 2500/2511 4500 -RA BKN011 FEW030TCU PROB30 TEMPO 2512/2519 33010KT SHRA FEW025CB BKN030
LFLN,TAF LFLN 241700Z 2418/2503 33006KT 9999 SCT030 BKN060 TEMPO 2418/2424 -SHRA FEW030TCU TEMPO 2418/2421 4000 TSRA FEW030CB
LFLP,TAF LFLP 241400Z 2415/2515 VRB03KT 9999 BKN040 PROB40 TEMPO 2415/2418 4000 SHRA BKN035TCU TEMPO 2423/2510 4000 RA BKN007 OVC025 PROB40 TEMPO 2423/2504 VRB15KT 2000 +RA SCT025CB OVC030 PROB40 TEMPO 2510/2515 4000 SHRA SCT035TCU BKN040
LFLS,TAF AMD LFLS 241740Z 2417/2515 VRB05KT 9999 BKN070 TEMPO 2417/2420 4000 SHRA BKN040TCU PROB40 2417/2419 VRB10KT TSRA BKN035CB TEMPO 2421/2508 4000 RA BKN010 OVC035 PROB40 TEMPO 2422/2501 VRB15KT 2000 RA SCT030CB OVC035 BECMG 2508/2510 36008KT PROB40 TEMPO 2511/2515 SHRA SCT035TCU BKN060
LFLW,TAF AMD LFLW 241603Z 2416/2424 27004KT 9999 BKN035 TEMPO 2416/2421 VRB10KT 4000 SHRA BKN025TCU PROB40 TEMPO 2416/2420 TSRA BKN025CB BECMG 2421/2423 OVC010 TEMPO 2422/2424 BKN005
LFLX,TAF LFLX 241700Z 2418/2524 32008KT 9999 BKN040 TEMPO 2418/2422 -SHRA SCT040TCU PROB40 TEMPO 2418/2420 SHRA FEW040CB TEMPO 2422/2510 -RA BKN012 PROB40 TEMPO 2502/2509 4000 -RA OVC004 PROB30 TEMPO 2513/2517 -SHRA SCT025TCU TEMPO 2522/2524 4000 BR
LFLY,TAF AMD LFLY 241840Z 2418/2518 VRB03KT 9999 FEW030 BKN096 TEMPO 2418/2424 4000 SHRA FEW028CB SCT033TCU BKN035 TEMPO 2419/2421 VRB15G25KT 3000 TSRA TEMPO 2500/2511 4500 -RA BKN011 FEW030TCU PROB30 TEMPO 2512/2518 33010KT SHRA FEW025CB BKN030
LFMD,TAF AMD LFMD 241936Z 2419/2515 01005KT 9999 FEW010 BKN030 TEMPO 2419/2424 RA BKN014 PROB40 TEMPO 2500/2508 4000 SHRA SCT020TCU
LFMI,TAF LFMI 242000Z 2421/2521 VRB04KT 9999 BKN020 OVC100 TX23/2514Z TN13/2506Z TEMPO 2421/2502 3000 SHRA SCT060TCU PROB40 TEMPO 2421/2424 TSRA BKN040CB TEMPO 2502/2506 1000 BR BKN010 BECMG 2508/2509 CAVOK BECMG 2510/2512 30010KT
LFMK,TAF LFMK 241400Z 2415/2515 28012KT 9999 SCT070 PROB40 TEMPO 2415/2421 4000 -SHRA SCT025TCU PROB30 TEMPO 2505/2507 BKN012
LFML,TAF LFML 242000Z 2421/2603 VRB04KT 9999 BKN030 TX23/2515Z TN14/2504Z TEMPO 2421/2502 3000 SHRA SCT060TCU PROB40 TEMPO 2421/2424 TSRA BKN040CB BECMG 2500/2502 3000 BR BKN010 BECMG 2508/2510 CAVOK BECMG 2510/2512 30010KT
LFMN,TAF LFMN 242000Z 2421/2603 33005KT 9999 SCT020 OVC040 TEMPO 2421/2503 RA PROB30 TEMPO 2421/2503 2000 TSRA BKN040CB TEMPO 2510/2518 19014KT PROB40 TEMPO 2513/2518 FEW040CB
LFMO,TAF LFMO 242000Z 2421/2521 VRB03KT 9999 SCT040 TX24/2515Z TN13/2505Z TEMPO 2421/2422 4000 SHRA BKN025TCU TEMPO 2501/2509 3000 BR BKN005 PROB30 TEMPO 2503/2506 0800 FG VV///
LFMP,TAF LFMP 241400Z 2415/2515 32010KT 9999 FEW060 BKN100 TEMPO 2415/2420 FEW045CB BKN050 PROB40 TEMPO 2415/2419 VRB10KT 4000 TSRA SCT040 BKN050 BECMG 2505/2507 NSC
LFMT,TAF LFMT 242000Z 2421/2521 26006KT CAVOK
LFMU,TAF LFMU 241400Z 2415/2515 28010KT CAVOK PROB40 TEMPO 2416/2419 27015G25KT RA FEW045CB BKN050 BKN090 BECMG 2419/2421 CAVOK
LFMV,TAF AMD LFMV 241933Z 2419/2515 VRB02KT 9999 OVC030 TEMPO 2419/2422 VRB12KT 2000 TSRA BKN030CB
LFOB,TAF LFOB 241700Z 2418/2518 01007KT 9999 BKN030 TEMPO 2418/2419 4000 RA BKN010 BKN030TCU
LFOE,TAF LFOE 242000Z 2421/2521 01008KT 9999 SCT035 OVC045 PROB40 TEMPO 2501/2507 4000 BR BKN014 PROB30 TEMPO 2514/2518 4000 SHRA SCT015 SCT025TCU
LFOH,TAF LFOH 241100Z 2412/2512 01012KT 9999 SCT020 BKN040 TEMPO 2412/2512 3000 SHRA BKN012 BKN025TCU PROB30 TEMPO 2415/2507 36017G27KT
LFOJ,TAF LFOJ 242000Z 2421/2521 36005KT 9999 BKN007 BKN030 TX19/2515Z TN11/2505Z PROB30 TEMPO 2500/2508 3000 -RADZ BKN004 BKN020 BECMG 2510/2512 BKN020
LFOK,TAF LFOK 241700Z 2418/2518 VRB04KT 9999 SCT020 BKN035 BECMG 2418/2420 36010KT TEMPO 2423/2509 2000 DZRA BKN003 OVC013 FM250900 02010KT 9999 BKN012 BECMG 2509/2511 BKN025
LFOP,TAF LFOP 241700Z 2418/2518 01007KT 9999 BKN030 TEMPO 2418/2420 4000 RA BKN012 BKN030TCU BECMG 2514/2516 31010KT
LFOT,TAF LFOT 241700Z 2418/2518 35008KT 9999 SCT030 BKN070 TEMPO 2421/2509 -RA BKN013 BKN030 PROB40 TEMPO 2500/2507 4000 -RA BKN008
LFPB,TAF LFPB 241700Z 2418/2518 01010KT 9999 SCT030TCU TEMPO 2418/2421 4000 SHRA BECMG 2421/2422 CAVOK TEMPO 2501/2507 BKN012 PROB40 TEMPO 2502/2506 BKN008
LFPG,TAF LFPG 241700Z 2418/2524 01010KT 9999 SCT025TCU TX19/2515Z TN11/2524Z TEMPO 2418/2420 4000 SHRA BECMG 2420/2422 CAVOK TEMPO 2501/2507 BKN010 PROB40 TEMPO 2502/2506 BKN005
LFPN,TAF LFPN 241700Z 2418/2503 36008KT 9999 FEW020 BKN060 TEMPO 2418/2421 -SHRA BKN015 SCT020TCU PROB40 TEMPO 2501/2503 BKN010
LFPO,TAF AMD LFPO 241937Z 2419/2524 01008KT 9999 BKN030 BECMG 2501/2504 BKN012 TEMPO 2504/2508 BKN006 BECMG 2511/2513 CAVOK BECMG 2517/2519 31010KT
LFPV,TAF LFPV 242000Z 2421/2521 04007KT 9999 SCT018 BKN030 OVC045 TX18/2515Z TN10/2506Z TEMPO 2421/2424 SCT025TCU BECMG 2500/2502 SCT012 TEMPO 2504/2508 BKN006 BECMG 2510/2512 CAVOK
LFQQ,TAF LFQQ 241700Z 2418/2524 01007KT 9999 SCT030 BECMG 2511/2513 31010KT TEMPO 2513/2516 4000 SHRA BKN030TCU BECMG 2517/2520 VRB03KT
LFRB,TAF LFRB 241700Z 2418/2524 01010KT 9999 BKN025 BECMG 2418/2420 01005KT PROB40 TEMPO 2422/2506 3000 BR PROB40 TEMPO 2500/2508 4000 SHRA BKN008 BKN020TCU BECMG 2504/2506 02010KT BECMG 2516/2518 VRB05KT TEMPO 2521/2524 3000 BR
LFRC,TAF LFRC 241400Z 2415/2424 01010KT 9999 BKN025 PROB30 TEMPO 2415/2420 01015G25KT 4000 SHRA BKN020CB PROB40 TEMPO 2420/2424 03015G25KT 4000 SHRA BKN012 BKN020CB
LFRD,TAF LFRD 241700Z 2418/2518 36010KT 9999 SCT030 PROB30 TEMPO 2418/2421 36015G25KT 4000 SHRA BKN020CB TEMPO 2421/2508 4000 SHRA BKN006 BKN020TCU BECMG 2422/2424 06007KT BECMG 2506/2508 04010KT TEMPO 2508/2513 4000 SHRA BKN020TCU BECMG 2516/2518 34010KT
LFRG,TAF LFRG 241400Z 2415/2424 01010KT 9999 BKN025 TEMPO 2415/2424 3000 SHRA BKN008 BKN020CB PROB40 TEMPO 2415/2424 TSRA PROB40 TEMPO 2415/2418 02015G25KT BECMG 2419/2421 VRB05KT
LFRH,TAF LFRH 241700Z 2418/2518 01010KT 9999 FEW030 PROB30 TEMPO 2500/2506 4000 BR PROB40 TEMPO 2509/2514 SHRA SCT030CB TEMPO 2509/2517 SCT025TCU BKN030
LFRI,TAF LFRI 241700Z 2418/2518 35008KT 9999 BKN020 TEMPO 2418/2419 VRB15G25KT 3000 SHRA SCT010 BKN030CB PROB40 TEMPO 2503/2506 -RA PROB30 TEMPO 2504/2507 VRB03KT 0500 FG VV///
LFRK,TAF LFRK 241400Z 2415/2424 36010KT 9999 BKN025 TEMPO 2415/2424 3000 SHRA BKN010 BKN020CB PROB40 TEMPO 2415/2424 TSRA PROB40 TEMPO 2415/2418 02015G25KT BECMG 2420/2422 VRB05KT
LFRM,TAF LFRM 241700Z 2418/2518 34010KT 9999 BKN030 TEMPO 2418/2508 -RA BKN012
LFRN,TAF LFRN 241700Z 2418/2518 36010KT 9999 SCT030 PROB30 TEMPO 2418/2421 4000 SHRA BKN020CB BECMG 2418/2420 36005KT TEMPO 2421/2508 4000 SHRA BKN006 BKN020TCU BECMG 2508/2510 03010KT PROB40 TEMPO 2512/2515 4000 SHRA BKN020TCU
LFRQ,TAF LFRQ 241700Z 2418/2518 36010KT 9999 SCT030 PROB30 TEMPO 2418/2420 4000 SHRA BKN020CB PROB30 TEMPO 2503/2508 4000 SHRA BKN010 BKN020TCU PROB30 TEMPO 2508/2514 4000 SHRA BKN020TCU
LFRS,TAF AMD LFRS 241806Z 2418/2524 34008KT 9999 SCT030 TEMPO 2500/2507 4500 -RA BKN008 BKN020
LFRZ,TAF LFRZ 241700Z 2418/2518 36010KT 9999 BKN030 PROB40 TEMPO 2501/2504 -RA PROB30 TEMPO 2503/2506 3000 BR BKN008 BECMG 2506/2510 BKN014
LFSB,TAF AMD LFSB 242004Z 2420/2518 18004KT 8000 FEW050 PROB40 TEMPO 2420/2424 0600 FG VV/// BECMG 2500/2503 0300 FG VV/// BECMG 2506/2509 6000 NSW SCT005 TEMPO 2509/2518 SHRA FEW020TCU PROB40 TEMPO 2513/2516 FEW030CB
LFSI,TAF LFSI 242000Z 2421/2521 VRB03KT CAVOK TEMPO 2421/2506 3000 -DZ BKN007 PROB30 TEMPO 2422/2501 0800 FG VV/// TEMPO 2512/2516 4000 -SHRA
LFSL,TAF AMD LFSL 241526Z 2415/2424 23008KT 9999 BKN030 TEMPO 2415/2424 3000 SHRA BKN020TCU PROB40 TEMPO 2415/2417 TSRA BKN010 BKN020CB PROB30 TEMPO 2417/2420 TSRA BKN010 BKN020CB
LFSO,TAF LFSO 240446Z 2404/2503 20005KT CAVOK TEMPO 2410/2418 4000 -SHRA SCT030TCU PROB40 TEMPO 2414/2418 30015KT 1500 SHRA FEW020CB BKN035
LFST,TAF AMD LFST 241953Z 2419/2518 VRB03KT 6000 FEW040 TEMPO 2419/2424 2000 BR PROB40 TEMPO 2420/2424 0600 FG VV/// BECMG 2500/2502 0300 FG VV/// TEMPO 2502/2508 4000 BR OVC003 BECMG 2508/2510 9999 NSW SCT010 TEMPO 2512/2518 SHRA FEW030TCU
LFTH,TAF LFTH 242000Z 2421/2521 VRB05KT 9999 BKN020 TEMPO 2421/2503 3000 SHRA SCT025TCU PROB40 TEMPO 2421/2502 TSRA BKN040CB BECMG 2504/2506 CAVOK BECMG 2510/2512 25010KT
LFTW,TAF LFTW 241400Z 2415/2515 VRB04KT CAVOK PROB40 TEMPO 2419/2422 SHRA SCT030TCU BECMG 2423/2501 2000 BR BKN007 BECMG 2507/2509 CAVOK
LGAD,TAF LGAD 242000Z 2421/2506 VRB03KT 9999 FEW025
LGAL,TAF LGAL 242000Z 2421/2506 VRB05KT 9999 FEW025
LGAV,TAF LGAV 241700Z 2418/2518 VRB05KT 9999 FEW030 TEMPO 2509/2515 05010KT
LGBL,TAF LGBL 242000Z 2421/2506 28006KT 9999 FEW025
LGEL,TAF LGEL 241700Z 2418/2518 VRB05KT 9999 FEW025 TEMPO 2509/2517 18010KT
LGHI,TAF LGHI 242000Z 2421/2506 VRB05KT 9999 FEW020
LGIO,TAF LGIO 242000Z 2421/2506 VRB03KT 9999 FEW025 PROB30 TEMPO 2503/2506 5000 BR SCT008
LGIR,TAF LGIR 241700Z 2418/2518 33008KT 9999 FEW020 TEMPO 2420/2507 VRB05KT
LGKC,TAF LGKC 242000Z 2421/2506 VRB05KT 9999 FEW015
LGKF,TAF LGKF 242000Z 2421/2506 VRB05KT 9999 FEW014
LGKL,TAF LGKL 242000Z 2421/2506 35006KT 9999 FEW030
LGKO,TAF LGKO 241700Z 2418/2518 34012KT 9999 FEW020
LGKP,TAF LGKP 242000Z 2421/2506 32015G25KT 9999 FEW025
LGKR,TAF LGKR 241700Z 2418/2518 VRB05KT 9999 FEW020 BECMG 2504/2506 12010KT
LGKV,TAF LGKV 241700Z 2418/2518 VRB03KT 9999 FEW025
LGLM,TAF LGLM 242000Z 2421/2506 VRB05KT 9999 FEW025
LGLR,TAF LGLR 242000Z 2421/2506 VRB03KT 9999 FEW025
LGMK,TAF LGMK 242000Z 2421/2506 36010KT 9999 FEW020
LGMT,TAF LGMT 242000Z 2421/2506 VRB05KT 9999 FEW020
LGPZ,TAF LGPZ 241700Z 2418/2518 27010KT 9999 FEW018 TEMPO 2420/2509 VRB05KT
LGRP,TAF LGRP 241700Z 2418/2518 28010KT 9999 FEW020 BECMG 2420/2422 VRB05KT
LGRX,TAF LGRX 242000Z 2421/2506 VRB03KT 9999 FEW025
LGSA,TAF LGSA 241700Z 2418/2518 VRB05KT 9999 FEW020 TEMPO 2509/2515 06010KT
LGSK,TAF LGSK 242000Z 2421/2506 VRB05KT 9999 FEW018
LGSM,TAF LGSM 242000Z 2421/2506 35010KT 9999 FEW020
LGSR,TAF LGSR 241700Z 2418/2518 36012KT 9999 FEW025
LGST,TAF LGST 242000Z 2421/2506 32014G24KT 9999 FEW025
LGSY,TAF LGSY 242000Z 2421/2506 02006KT 9999 FEW025
LGTG,TAF LGTG 242000Z 2421/2506 35006KT 9999 FEW025
LGTL,TAF LGTL 242000Z 2421/2506 35010KT 9999 FEW025
LGTS,TAF LGTS 241700Z 2418/2518 VRB03KT 9999 FEW025 PROB30 2502/2506 SCT008 BECMG 2510/2512 15013KT
LGZA,TAF LGZA 242000Z 2421/2506 VRB05KT 9999 FEW014
LHBP,TAF LHBP 241715Z 2418/2518 12006KT CAVOK BECMG 2420/2422 VRB03KT TEMPO 2503/2518 -RA BKN040 BECMG 2508/2511 11006KT
LHDC,TAF LHDC 242015Z 2421/2506 14005KT CAVOK PROB30 TEMPO 2503/2506 -RA BKN045 OVC090
LHKE,TAF LHKE 242015Z 2421/2506 16006KT CAVOK PROB30 TEMPO 2501/2506 9999 -RA SCT050 OVC080
LHPA,TAF LHPA 241715Z 2418/2518 20010KT CAVOK TEMPO 2505/2518 20016KT 9999 -RA SCT050 OVC080 PROB40 TEMPO 2511/2518 VRB03KT 5000 RA BR SCT020 OVC050
LHPP,TAF LHPP 241415Z 2415/2424 19010KT CAVOK BECMG 2415/2418 18005KT
LHPR,TAF LHPR 241715Z 2418/2503 13007KT CAVOK
LHSN,TAF LHSN 242015Z 2421/2506 16007KT CAVOK PROB30 TEMPO 2501/2506 9999 -RA SCT045 OVC070
LIBA,TAF LIBA 242000Z 2421/2506 20008KT 9999 FEW040 SCT060
LIBC,TAF LIBC 241100Z 2412/2512 20013KT 9999 FEW040
LIBD,TAF LIBD 241700Z 2418/2518 19007KT 9999 FEW040
LIBF,TAF LIBF 241100Z 2412/2512 22012KT 9999 SCT050 BECMG 2420/2422 16008KT TEMPO 2510/2512 4000 TSRA
LIBG,TAF LIBG 241400Z 2415/2424 20007KT CAVOK
LIBP,TAF LIBP 241700Z 2418/2518 23009KT 9999 SCT030 TEMPO 2503/2512 TSRA
LIBR,TAF LIBR 241700Z 2418/2518 13012KT CAVOK
LIBV,TAF LIBV 242000Z 2421/2506 18010KT CAVOK PROB30 2422/2502 3000 BR SCT008
LICA,TAF LICA 241700Z 2418/2518 08007KT CAVOK BECMG 2510/2512 27010KT BECMG 2516/2518 08007KT
LICB,TAF LICB 241700Z 2418/2518 21010KT 9999 FEW050 BECMG 2418/2420 12005KT BECMG 2508/2510 21011KT
LICC,TAF LICC 241700Z 2418/2518 VRB05KT 9999 FEW060 BECMG 2507/2509 20010KT
LICD,TAF LICD 241700Z 2418/2518 15012KT 9999 FEW050
LICG,TAF LICG 241400Z 2415/2424 18015KT 9999 FEW030 TEMPO 2419/2424 18015G25KT
LICJ,TAF LICJ 241700Z 2418/2518 20015KT CAVOK TEMPO 2501/2518 22020G30KT
LICR,TAF LICR 241700Z 2418/2518 19013KT CAVOK TEMPO 2509/2514 19015G25KT
LICT,TAF LICT 242000Z 2421/2506 17010KT 9999 FEW030
LICZ,TAF LICZ 241700Z 2418/2518 12013KT 9999 FEW020 TEMPO 2418/2422 VRB05KT SCT020 SCT080 BECMG 2422/2424 28007KT BECMG 2510/2512 19010KT
LIEA,TAF LIEA 241700Z 2418/2518 23010KT 9999 SCT040 TEMPO 2418/2503 4000 TSRA TEMPO 2507/2513 TSRA
LIED,TAF LIED 242000Z 2421/2506 VRB03KT 9999 FEW020 TEMPO 2501/2506 FEW030CB
LIEE,TAF LIEE 241700Z 2418/2518 18010KT CAVOK BECMG 2418/2420 VRB05KT BECMG 2510/2512 20010KT TEMPO 2512/2518 TSRA
LIEO,TAF LIEO 241700Z 2418/2518 VRB05KT 9999 SCT050 PROB40 TEMPO 2418/2424 TSRA
LIMC,TAF LIMC 241700Z 2418/2524 02006KT 9999 BKN030 TEMPO 2418/2424 3000 RA BR TEMPO 2509/2514 4000 TSRA
LIME,TAF LIME 241700Z 2418/2518 VRB05KT 9999 BKN030 TEMPO 2418/2422 4000 RA TEMPO 2509/2515 4000 TSRA
LIMF,TAF LIMF 241700Z 2418/2518 03006KT 6000 BKN030 TEMPO 2500/2509 3000 RA
LIMG,TAF LIMG 241100Z 2412/2512 VRB05KT 9999 SCT030 BKN050 TEMPO 2412/2416 4000 TSRA BECMG 2509/2511 13010KT
LIMJ,TAF LIMJ 241700Z 2418/2518 35012KT 9999 SCT020 BKN040 BECMG 2510/2512 17008KT TEMPO 2514/2518 SHRA
LIML,TAF LIML 241700Z 2418/2518 VRB05KT 9999 BKN030 TEMPO 2418/2424 4000 RA BR TEMPO 2509/2515 4000 TSRA
LIMP,TAF LIMP 241700Z 2418/2518 VRB05KT 9999 BKN030 TEMPO 2418/2502 4000 RA
LIMW,TAF LIMW 241400Z 2415/2424 09007KT 9999 BKN050
LIMZ,TAF LIMZ 241700Z 2418/2518 35007KT 4000 BR BKN010
LIPA,TAF LIPA 241700Z 2418/2503 03010KT 9999 SCT030 BKN060 TEMPO 2418/2503 5000 RA BKN020
LIPB,TAF LIPB 241700Z 2418/2518 VRB05KT 9999 BKN050 PROB40 TEMPO 2418/2503 4000 RA
LIPC,TAF LIPC 242000Z 2421/2506 13012KT 9999 SCT030 BKN060 TEMPO 2421/2503 20020KT 5000 RA BKN030
LIPE,TAF LIPE 241700Z 2418/2518 VRB05KT 9999 SCT030 TEMPO 2418/2508 4000 TSRA
LIPH,TAF LIPH 241700Z 2418/2518 05008KT 9999 SCT040 TEMPO 2418/2509 4000 TSRA
LIPK,TAF LIPK 241700Z 2418/2518 17008KT 9999 SCT030 TEMPO 2418/2506 4000 TSRA
LIPL,TAF LIPL 242000Z 2421/2506 05010KT 9999 FEW030 BKN060 TEMPO 2421/2503 5000 RA BKN030 BECMG 2423/2501 27010KT
LIPO,TAF LIPO 241700Z 2418/2518 VRB05KT 9999 BKN040 TEMPO 2418/2423 4000 RA
LIPQ,TAF LIPQ 241700Z 2418/2518 VRB05KT 9999 SCT030 TEMPO 2418/2512 4000 TSRA BECMG 2421/2423 12010KT
LIPR,TAF LIPR 241700Z 2418/2518 20012KT 9999 SCT030 TEMPO 2418/2508 4000 TSRA
LIPS,TAF LIPS 242000Z 2421/2506 10007KT 9999 FEW030 BKN070 PROB30 TEMPO 2421/2503 5000 RA SCT030 BKN040 BECMG 2423/2501 04015KT
LIPX,TAF LIPX 241700Z 2418/2518 VRB05KT 9999 BKN040 TEMPO 2506/2512 4000 RA
LIPY,TAF LIPY 241700Z 2418/2518 16008KT 9999 FEW045 TEMPO 2418/2510 4000 TSRA
LIPZ,TAF LIPZ 241700Z 2418/2524 06010KT 9999 BKN040 TEMPO 2418/2508 16012KT 4000 TSRA BECMG 2506/2508 VRB05KT
LIRA,TAF LIRA 241700Z 2418/2518 16012KT 9999 SCT070 TEMPO 2502/2510 16016G26KT 4000 TSRA
LIRE,TAF LIRE 242000Z 2421/2506 13015KT 9999 FEW020 SCT040 TEMPO 2500/2506 18018G30KT 5000 TSRA FEW015CB SCT025
LIRF,TAF LIRF 241700Z 2418/2524 14016G26KT 9999 BKN040 TEMPO 2423/2508 4000 TSRA BECMG 2505/2507 17012KT TEMPO 2512/2518 SHRA
LIRM,TAF LIRM 242000Z 2421/2506 11007KT 9999 FEW040 TEMPO 2503/2506 18015G25KT 5000 SHRA BKN030
LIRN,TAF LIRN 241700Z 2418/2518 22007KT 9999 SCT060 TEMPO 2504/2512 TSRA TEMPO 2512/2518 SHRA
LIRP,TAF LIRP 241700Z 2418/2518 19007KT 9999 BKN020 BKN040 TEMPO 2418/2506 3000 TSRA FEW020CB BKN030 BECMG 2500/2502 10012KT TEMPO 2512/2518 5000 SHRA BECMG 2514/2516 26010KT
LIRQ,TAF LIRQ 241700Z 2418/2518 VRB05KT 9999 BKN030 TEMPO 2418/2422 4000 SHRA TEMPO 2422/2506 4000 TSRA TEMPO 2510/2512 SHRA
LIRS,TAF LIRS 242000Z 2421/2506 15015KT 8000 RA SCT015 SCT025 TEMPO 2421/2424 18018G30KT 5000 TSRA FEW015CB SCT030 TEMPO 2503/2506 03007KT
LIRU,TAF LIRU 241400Z 2415/2424 17012KT 9999 FEW020 BKN050 PROB40 TEMPO 2422/2424 SHRA
LIRV,TAF LIRV 241400Z 2415/2424 17010KT 6000 RA FEW020 BKN040 TEMPO 2421/2424 17012G25KT 2000 TSRA FEW015CB SCT020 BKN040
LIRZ,TAF LIRZ 241700Z 2418/2518 VRB05KT 9999 BKN050 TEMPO 2418/2424 4000 RA TEMPO 2500/2509 4000 TSRA TEMPO 2512/2518 TSRA
LJCE,TAF LJCE 242000Z 2421/2506 25005KT 9999 BKN050 TEMPO 2422/2500 -RA BECMG 2500/2503 5000 RA FEW003 BKN015 OVC025
LJLJ,TAF LJLJ 241700Z 2418/2518 VRB02KT 9999 BKN050 TEMPO 2418/2509 5000 RA BR BKN015 OVC035 PROB40 TEMPO 2422/2518 3500 SHRA SCT010 BKN035TCU PROB30 TEMPO 2509/2516 VRB15KT 2000 TSRA SCT020CB BKN030
LJMB,TAF LJMB 241700Z 2418/2518 21007KT 9999 SCT040 TEMPO 2421/2509 5000 RA BR BKN010 OVC035 PROB40 TEMPO 2503/2518 3500 SHRA BKN030TCU PROB30 TEMPO 2515/2518 22015KT 2000 TSRA SCT020CB BKN030
LJPZ,TAF LJPZ 242000Z 2421/2506 13007KT 9999 -RA FEW025 SCT040 OVC060 TEMPO 2421/2506 SHRA BKN025TCU PROB40 TEMPO 2500/2506 14015G25KT 5000 TSRA BKN025CB
LKCV,TAF LKCV 241700Z 2418/2518 VRB02KT CAVOK BECMG 2420/2423 13006KT BKN040 PROB30 TEMPO 2419/2508 7000 RA SCT008 BKN025
LKKB,TAF LKKB 241700Z 2418/2518 08005KT CAVOK BECMG 2420/2422 VRB02KT PROB40 TEMPO 2502/2505 7000 RA SCT010 BKN020 TEMPO 2504/2507 5000 MIFG BR SCT010 BECMG 2513/2515 09006KT BKN025
LKKV,TAF LKKV 241700Z 2418/2600 VRB02KT 9999 SCT030 TEMPO 2418/2500 -RA BKN018 BECMG 2500/2502 6000 BKN011 TEMPO 2502/2510 3000 -RA BR BKN006 PROB30 TEMPO 2503/2510 1200 DZ BR BKN003 BECMG 2510/2512 9999 BKN017 TEMPO 2512/2521 2500 SHRA BKN012CB BECMG 2521/2522 4000 BR BKN009 TEMPO 2522/2600 1800 BR BKN004
LKMT,TAF LKMT 241700Z 2418/2600 20004KT CAVOK BECMG 2422/2500 VRB02KT BECMG 2502/2504 9999 BKN030 TEMPO 2504/2520 -RA BKN014 PROB30 TEMPO 2514/2520 5000 SHRA BKN013TCU BECMG 2520/2521 4000 BR BKN010 TEMPO 2521/2600 2000 RADZ BR BKN004
LKNA,TAF LKNA 241700Z 2418/2518 VRB02KT CAVOK BECMG 2422/2500 9999 BKN030 TEMPO 2501/2510 5000 RA SCT005 BKN013 BECMG 2513/2515 BKN020
LKPD,TAF LKPD 241700Z 2418/2518 VRB02KT CAVOK PROB30 TEMPO 2419/2506 7000 RA SCT010 BKN030 BECMG 2422/2500 13006KT
LKPR,TAF LKPR 241700Z 2418/2600 12004KT CAVOK TEMPO 2421/2501 23006KT 9000 -RA BKN030 BECMG 2501/2503 VRB02KT 9999 BKN017 TEMPO 2503/2510 4000 -RA BR BKN009 TEMPO 2512/2523 4000 SHRA BKN012CB TEMPO 2523/2600 5000 BR BKN007
LKTB,TAF LKTB 241700Z 2418/2600 07005KT CAVOK BECMG 2423/2501 9999 BKN030 TEMPO 2503/2600 -RA BKN020 BECMG 2510/2512 VRB02KT
LLBG,TAF LLBG 241706Z 2418/2518 02006KT CAVOK TEMPO 2423/2505 VRB03KT BECMG 2507/2509 33013KT BECMG 2515/2517 02005KT TX33/2510Z TN22/2503Z
LLER,TAF LLER 241705Z 2418/2518 01017KT CAVOK BECMG 2419/2421 36012KT BECMG 2505/2507 02018KT TEMPO 2507/2518 02020G30KT TX37/2513Z TN25/2503Z
LLHA,TAF LLHA 241708Z 2418/2518 36008KT CAVOK TEMPO 2423/2506 VRB04KT BECMG 2507/2509 33013KT BECMG 2515/2517 36006KT TX30/2510Z TN22/2503Z
LLHZ,TAF LLHZ 241707Z 2418/2518 03005KT CAVOK TEMPO 2423/2505 VRB03KT BECMG 2507/2509 33013KT BECMG 2515/2517 02007KT TX30/2509Z TN22/2503Z
LLIB,TAF LLIB 241102Z 2412/2512 35012KT CAVOK BECMG 2418/2420 VRB04KT BECMG 2506/2508 35010KT TX33/2412Z TN21/2504Z
LMML,TAF LMML 241700Z 2418/2518 11006KT 9999 FEW025 BECMG 2501/2504 17010KT
LOWG,TAF LOWG 241715Z 2418/2518 VRB03KT 9999 FEW060 TX14/2418Z TN09/2504Z TEMPO 2505/2518 -RA PROB40 TEMPO 2507/2515 4000 RA BKN009
LOWI,TAF LOWI 241715Z 2418/2518 VRB02KT 9999 SCT050 BKN070 TX15/2512Z TN09/2505Z TEMPO 2418/2509 -SHRA TEMPO 2509/2518 VRB12KT SHRA SCT040TCU BKN050
LOWK,TAF LOWK 241715Z 2418/2518 VRB03KT 9999 FEW040 BKN080 TX14/2515Z TN10/2505Z TEMPO 2500/2518 -RA TEMPO 2505/2515 4000 RA BKN008
LOWL,TAF LOWL 241715Z 2418/2518 05004KT 9999 BKN050 TX16/2513Z TN10/2504Z TEMPO 2418/2423 -RA TEMPO 2423/2507 2000 -RADZ SCT003
LOWS,TAF LOWS 241715Z 2418/2518 15005KT 9999 FEW060 BKN100 TX14/2513Z TN09/2505Z TEMPO 2418/2424 -RA BKN040 BECMG 2508/2510 34007KT TEMPO 2513/2518 SHRA FEW030TCU BKN050 PROB30 TEMPO 2513/2515 30015G25KT 4000 TSRA FEW030CB BKN040
LOWW,TAF LOWW 242015Z 2421/2603 09003KT CAVOK TX16/2513Z TN10/2502Z PROB30 TEMPO 2504/2506 0800 BCFG PROB30 TEMPO 2506/2508 2000 BKN005 FM250800 14006KT 9999 SCT020 TEMPO 2509/2518 -RA BECMG 2522/2524 29012KT TEMPO 2522/2603 -SHRA
LOXZ,TAF LOXZ 241415Z 2415/2424 20010KT 9999 FEW045 SCT060 BKN120 BECMG 2417/2419 VRB03KT FEW040 BKN060
LPAZ,TAF LPAZ 241700Z 2418/2524 12015KT 9999 SCT015 SCT030 BECMG 2502/2505 SCT012 BKN025 TEMPO 2505/2513 5000 -RADZ BR SCT004 BKN008 BECMG 2513/2516 08015KT SCT018 BKN035 TEMPO 2516/2524 SCT020
LPBJ,TAF LPBJ 241708Z 2418/2518 32010KT CAVOK
LPCS,TAF LPCS 241400Z 2415/2424 35020KT 9999 FEW020 PROB40 TEMPO 2415/2421 35020G32KT BECMG 2421/2423 35015KT
LPFR,TAF LPFR 241700Z 2418/2518 26015KT CAVOK BECMG 2418/2421 33010KT BECMG 2500/2503 36005KT BECMG 2510/2512 20010KT BECMG 2514/2516 25015KT
LPHR,TAF LPHR 241400Z 2415/2424 13025G38KT 6000 -RA SCT008 FEW018TCU BKN060 TEMPO 2415/2418 13020KT 9999 NSW SCT012 BKN040 BECMG 2418/2420 13018KT 9999 NSW SCT012 BKN040 PROB30 TEMPO 2420/2424 8000 SHRA SCT008 BKN015
LPLA,TAF LPLA 241708Z 2418/2518 14015KT 9999 SCT015 BKN030 TEMPO 2418/2518 6000 -SHRA SCT012 BKN018 TEMPO 2505/2518 15018G28KT
LPMA,TAF LPMA 241700Z 2418/2518 03013KT 9999 SCT015 SCT030 PROB40 TEMPO 2505/2512 6000 -RA SCT006 BKN013 PROB30 TEMPO 2512/2518 03015G25KT
LPMR,TAF LPMR 241704Z 2418/2518 34015KT 9999 FEW025 TEMPO 2418/2421 35018G28KT BECMG 2501/2503 33008KT BECMG 2507/2509 34015KT TEMPO 2508/2517 35015G28KT
LPMT,TAF LPMT 241707Z 2418/2518 33012KT 9999 FEW030 TEMPO 2418/2420 34012G22KT TEMPO 2512/2518 34015G25KT
LPOV,TAF LPOV 241702Z 2418/2518 34015KT CAVOK TEMPO 2418/2421 35020G30KT BECMG 2503/2505 33008KT TEMPO 2512/2516 34012G22KT
LPPD,TAF LPPD 241700Z 2418/2518 12013KT 9999 SCT020 BECMG 2501/2503 SCT008 BKN020 TEMPO 2503/2512 5000 -RADZ BR SCT004 BKN008 BECMG 2512/2514 SCT018 BKN030 TEMPO 2514/2518 SCT020
LPPR,TAF LPPR 241700Z 2418/2518 34015KT 9999 FEW035 TEMPO 2418/2420 34018G30KT BECMG 2422/2424 03010KT CAVOK BECMG 2512/2514 35015KT
LPPS,TAF LPPS 241700Z 2418/2524 05012KT 9999 SCT015 SCT030 TEMPO 2503/2510 5000 -RADZ BR SCT005 BKN010
LPPT,TAF LPPT 241700Z 2418/2524 34017KT 9999 FEW035 TEMPO 2418/2422 34020G30KT BECMG 2500/2503 35010KT BECMG 2509/2511 34015KT PROB40 TEMPO 2511/2521 34018G30KT
LPST,TAF LPST 241709Z 2418/2503 34015KT 9999 SCT020 TEMPO 2418/2503 34015G28KT
LQBK,TAF LQBK 241700Z 2418/2518 17006KT CAVOK TX22/2514Z TN09/2504Z PROB40 TEMPO 2503/2515 RA
LQMO,TAF LQMO 241700Z 2418/2518 20006KT CAVOK TX23/2512Z TN10/2504Z TEMPO 2510/2518 RA PROB30 TEMPO 2512/2518 4000 TSRA FEW040CB BKN043
LQSA,TAF LQSA 241700Z 2418/2518 12005KT CAVOK TX20/2512Z TN06/2504Z PROB30 TEMPO 2508/2513 15015G25KT PROB40 TEMPO 2513/2517 RA
LQTZ,TAF LQTZ 241700Z 2418/2518 11005KT CAVOK TX21/2514Z TN07/2504Z
LRAR,TAF LRAR 242000Z 2421/2506 14008KT CAVOK
LRBC,TAF LRBC 242000Z 2421/2506 VRB04KT CAVOK
LRBO,TAF LRBO 241700Z 2418/2518 34006KT 9999 SCT150 BECMG 2506/2508 26006KT TEMPO 2511/2514 27016KT SCT060 BKN100
LRBS,TAF LRBS 241700Z 2418/2518 VRB04KT CAVOK
LRCK,TAF LRCK 241700Z 2418/2518 VRB04KT CAVOK
LRCL,TAF LRCL 242000Z 2421/2506 VRB04KT CAVOK PROB30 TEMPO 2501/2506 5000 BR
LRCT,TAF LRCT 241700Z 2418/2518 10005KT 9999 SCT100 BKN100 PROB30 TEMPO 2502/2506 1000 BR
LRCV,TAF LRCV 242000Z 2421/2506 VRB04KT CAVOK
LRFT,TAF LRFT 241700Z 2418/2519 20005KT 9999 FEW150 BECMG 2512/2514 30010KT SCT150
LRIA,TAF LRIA 242000Z 2421/2506 VRB04KT CAVOK
LROD,TAF LROD 241700Z 2418/2503 18008KT CAVOK
LROP,TAF LROP 241700Z 2418/2518 VRB04KT CAVOK
LRSB,TAF LRSB 241700Z 2418/2518 VRB04KT CAVOK
LRSM,TAF LRSM 241400Z 2415/2500 22005KT CAVOK
LRSV,TAF LRSV 242000Z 2421/2506 VRB04KT CAVOK
LRTM,TAF LRTM 241700Z 2418/2503 08004KT CAVOK BECMG 2421/2423 5000 BR PROB30 TEMPO 2500/2503 3000 BR
LRTR,TAF LRTR 241700Z 2418/2518 14006KT CAVOK
LRTZ,TAF LRTZ 241700Z 2418/2518 VRB03KT 9999 SCT200 BECMG 2507/2509 18012KT
LSGC,TAF LSGC 241425Z 2415/2424 23004KT 9999 SCT015 BKN030 PROB40 TEMPO 2415/2419 SHRA SCT015TCU
LSGG,TAF LSGG 242025Z 2421/2603 VRB02KT 9999 FEW025 BKN070 TX17/2515Z TN11/2505Z TEMPO 2421/2515 SHRA SCT035TCU PROB30 TEMPO 2421/2502 24010KT TSRA SCT035CB
LSGS,TAF LSGS 241425Z 2415/2424 VRB02KT 9999 FEW010 SCT040 BKN080
LSZA,TAF AMD LSZA 241606Z 2416/2424 VRB02KT 6000 -RA FEW010 SCT030 BKN045 TEMPO 2416/2421 3000 RA BKN020
LSZB,TAF LSZB 241425Z 2415/2424 VRB02KT 9999 FEW015 SCT040 BKN070 PROB40 TEMPO 2415/2420 SHRA FEW030TCU
LSZG,TAF LSZG 241425Z 2415/2424 VRB02KT 9999 FEW012 SCT036 BKN055 TEMPO 2415/2420 SHRA SCT035TCU PROB30 TEMPO 2415/2418 4000 TSRA SCT030CB
LSZH,TAF LSZH 242025Z 2421/2603 VRB02KT 9999 FEW010 BKN060 TX14/2514Z TN09/2504Z PROB30 TEMPO 2421/2423 SHRA FEW020TCU PROB30 2501/2507 1500 BCFG BKN004 TEMPO 2506/2603 SHRA FEW030TCU TEMPO 2512/2517 28008KT PROB30 TEMPO 2512/2518 TSRA FEW030CB
LSZL,TAF AMD LSZL 242015Z 2420/2503 VRB02KT 8000 FEW012 SCT028 BKN046 TEMPO 2420/2503 4000 RA PROB40 TEMPO 2420/2503 2500 BKN012
LSZR,TAF LSZR 241425Z 2415/2424 VRB02KT 9999 FEW020 BKN060 PROB40 TEMPO 2415/2420 SHRA FEW020TCU
LSZS,TAF LSZS 241425Z 2415/2424 19006KT 9000 -RA FEW010 SCT022 BKN035 TX06/2415Z PROB40 TEMPO 2415/2420 4000 RA BKN014 PROB30 2420/2424 2500 BCFG SCT004
LTAB,TAF LTAB 241940Z 2421/2506 VRB02KT CAVOK
LTAC,TAF LTAC 241640Z 2418/2518 VRB02KT CAVOK
LTAD,TAF LTAD 241940Z 2421/2506 VRB02KT CAVOK
LTAE,TAF LTAE 241940Z 2421/2506 01008KT CAVOK
LTAF,TAF LTAF 241640Z 2418/2518 VRB02KT CAVOK
LTAG,TAF LTAG 241640Z 2418/2518 VRB02KT CAVOK TEMPO 2420/2422 03012KT
LTAH,TAF LTAH 241340Z 2415/2424 30008KT CAVOK
LTAI,TAF LTAI 241640Z 2418/2518 34008KT CAVOK BECMG 2507/2510 18010KT FEW030 BECMG 2515/2518 34006KT CAVOK
LTAJ,TAF LTAJ 241640Z 2418/2518 33007KT CAVOK TEMPO 2505/2508 35017KT
LTAL,TAF LTAL 241340Z 2415/2424 29009KT 9999 SCT028 BKN090
LTAN,TAF LTAN 241940Z 2421/2506 34006KT CAVOK
LTAO,TAF LTAO 241940Z 2421/2506 22007KT CAVOK
LTAP,TAF LTAP 241640Z 2418/2518 03008KT 9999 FEW040 BECMG 2419/2421 CAVOK
LTAR,TAF LTAR 241940Z 2421/2506 34009KT CAVOK PROB40 TEMPO 2501/2505 2500 BR SCT005
LTAS,TAF LTAS 241340Z 2415/2424 VRB02KT 9999 SCT035 BKN100
LTAT,TAF LTAT 241640Z 2418/2518 29009KT 9999 FEW040 BKN100 BECMG 2418/2420 CAVOK
LTAU,TAF LTAU 241640Z 2418/2518 VRB02KT CAVOK
LTAV,TAF LTAV 241340Z 2415/2424 30008KT CAVOK
LTAW,TAF LTAW 241340Z 2415/2424 VRB02KT 9999 SCT035 BKN100
LTAY,TAF LTAY 241940Z 2421/2506 VRB02KT CAVOK
LTAZ,TAF LTAZ 241640Z 2418/2518 29008KT CAVOK
LTBA,TAF LTBA 241640Z 2418/2518 12007KT CAVOK BECMG 2512/2515 05010KT
LTBD,TAF LTBD 241340Z 2415/2424 VRB02KT CAVOK
LTBF,TAF LTBF 241940Z 2421/2506 VRB02KT CAVOK
LTBG,TAF LTBG 241940Z 2421/2506 VRB02KT CAVOK
LTBH,TAF LTBH 241940Z 2421/2506 VRB02KT CAVOK
LTBI,TAF LTBI 241940Z 2421/2506 26006KT CAVOK
LTBJ,TAF LTBJ 241640Z 2418/2518 35016G26KT CAVOK BECMG 2418/2420 35012KT BECMG 2422/2501 VRB02KT TEMPO 2511/2515 35012KT
LTBK,TAF LTBK 241340Z 2415/2424 34016G26KT CAVOK BECMG 2417/2420 33012KT BECMG 2422/2424 VRB02KT
LTBL,TAF LTBL 241940Z 2421/2506 VRB02KT CAVOK
LTBN,TAF LTBN 241340Z 2415/2424 VRB02KT CAVOK
LTBO,TAF LTBO 241640Z 2418/2503 VRB02KT CAVOK
LTBP,TAF LTBP 241340Z 2415/2424 VRB02KT CAVOK
LTBQ,TAF LTBQ 241940Z 2421/2506 VRB02KT CAVOK PROB40 TEMPO 2502/2506 4000 BR SCT008
LTBR,TAF LTBR 241640Z 2418/2518 VRB02KT CAVOK PROB40 2502/2506 3500 BR BECMG 2506/2509 FEW040 PROB30 2511/2515 35012KT BECMG 2515/2518 CAVOK
LTBS,TAF LTBS 241640Z 2418/2518 VRB02KT CAVOK BECMG 2507/2509 21012KT FEW030 BECMG 2515/2517 VRB02KT CAVOK
LTBT,TAF LTBT 241340Z 2415/2424 35013KT CAVOK BECMG 2415/2417 VRB02KT
LTBU,TAF LTBU 241640Z 2418/2518 VRB02KT CAVOK
LTBV,TAF LTBV 241340Z 2415/2424 30012KT CAVOK BECMG 2415/2418 VRB02KT
LTBX,TAF LTBX 241340Z 2415/2424 VRB02KT CAVOK
LTBY,TAF LTBY 241940Z 2421/2506 26006KT CAVOK
LTBZ,TAF LTBZ 241940Z 2421/2506 VRB02KT CAVOK
LTCA,TAF LTCA 241940Z 2421/2506 27007KT CAVOK
LTCB,TAF LTCB 241940Z 2421/2506 19009KT 9999 BKN035 TEMPO 2421/2501 3500 SHRA BKN008 FEW020CB BKN025
LTCC,TAF LTCC 241640Z 2418/2518 31008KT 9999 FEW040 SCT100 BECMG 2421/2424 CAVOK
LTCD,TAF LTCD 241940Z 2421/2506 27008KT 9999 FEW080
LTCE,TAF LTCE 241640Z 2418/2518 27015KT 9999 SCT035 BKN070 BECMG 2418/2421 VRB02KT CAVOK
LTCF,TAF LTCF 241940Z 2421/2506 07009KT 9999 SCT035 BKN070 BECMG 2421/2423 CAVOK
LTCG,TAF LTCG 241640Z 2418/2518 21009KT 9999 BKN035 TEMPO 2418/2421 3500 SHRA SCT008 FEW020CB BKN025 TEMPO 2421/2501 -SHRA SCT008 FEW020CB BKN025 BECMG 2501/2505 SCT035 BECMG 2506/2510 09010KT
LTCI,TAF LTCI 241940Z 2421/2506 15008KT 9999 SCT035 SCT070 TEMPO 2423/2503 34012G22KT -TSRA FEW020CB BKN035 PROB30 TEMPO 2503/2506 -TSRA FEW020CB BKN035
LTCJ,TAF LTCJ 241640Z 2418/2518 VRB02KT CAVOK
LTCK,TAF LTCK 241340Z 2415/2424 21015G25KT 9999 SCT030 BKN070 TEMPO 2415/2419 -TSRA FEW020CB BKN030 BECMG 2416/2418 30009KT PROB40 TEMPO 2419/2423 22012G22KT -TSRA FEW020CB BKN030
LTCL,TAF LTCL 241340Z 2415/2424 VRB02KT 9999 FEW040 SCT100
LTCM,TAF LTCM 241340Z 2415/2424 31017G27KT 9999 SCT030 BKN100 TEMPO 2418/2421 -SHRA BKN028 BKN080
LTCN,TAF LTCN 241940Z 2421/2506 VRB02KT CAVOK
LTCO,TAF LTCO 241340Z 2415/2424 24012KT 9999 SCT035 BKN070 BECMG 2419/2421 31012KT
LTCP,TAF LTCP 241340Z 2415/2424 23015KT 9999 SCT040 BKN100 BECMG 2417/2419 35012KT CAVOK
LTCR,TAF LTCR 241340Z 2415/2424 24012KT CAVOK BECMG 2416/2419 34018KT
LTCS,TAF LTCS 241640Z 2418/2518 28012KT CAVOK BECMG 2420/2422 VRB02KT BECMG 2502/2504 01012KT
LTCT,TAF LTCT 241940Z 2421/2506 33020G30KT 9999 SCT040 BKN080 BECMG 2422/2424 29008KT BECMG 2500/2503 CAVOK
LTCU,TAF COR LTCU 241340Z 2415/2424 20020G30KT 9999 SCT035 BKN100 BECMG 2418/2421 20008KT CAVOK
LTCV,TAF LTCV 241640Z 2418/2518 26007KT CAVOK
LTCW,TAF LTCW 241940Z 2421/2506 13008KT 9999 FEW040 BECMG 2500/2501 CAVOK
LTDA,TAF LTDA 241940Z 2421/2506 VRB02KT CAVOK
LTFA,TAF LTFA 241340Z 2415/2424 33013KT CAVOK BECMG 2417/2418 VRB02KT
LTFB,TAF LTFB 241340Z 2415/2424 VRB02KT CAVOK
LTFC,TAF LTFC 241640Z 2418/2518 34008KT CAVOK
LTFD,TAF LTFD 241940Z 2421/2506 07008KT CAVOK
LTFE,TAF LTFE 241640Z 2418/2518 VRB02KT CAVOK BECMG 2507/2509 26012KT BECMG 2515/2517 VRB02KT
LTFG,TAF LTFG 241940Z 2421/2506 07008KT CAVOK
LTFH,TAF LTFH 241940Z 2421/2506 VRB02KT 9999 SCT036 BKN100
LTFJ,TAF LTFJ 241640Z 2418/2518 VRB02KT CAVOK BECMG 2509/2512 03012KT
LTFK,TAF LTFK 241340Z 2415/2424 VRB02KT CAVOK
LTFM,TAF LTFM 241640Z 2418/2524 18009KT CAVOK BECMG 2509/2512 07010KT BECMG 2518/2521 20009KT
LTFO,TAF LTFO 241940Z 2421/2506 18009KT 9999 BKN035 TEMPO 2421/2501 3500 SHRA BKN008 FEW020CB BKN025 TEMPO 2501/2505 -SHRA SCT008 FEW020CB BKN025
LUKK,TAF LUKK 241720Z 2418/2518 VRB04KT CAVOK BECMG 2507/2509 24008KT
LWOH,TAF LWOH 242030Z 2421/2521 VRB02KT 9999 FEW040
LWSK,TAF LWSK 242030Z 2421/2521 VRB02KT CAVOK
LYBE,TAF LYBE 241700Z 2418/2518 15005KT CAVOK TX23/2513Z TN08/2504Z
LYBT,TAF LYBT 241700Z 2418/2518 12004KT CAVOK TX22/2513Z TN07/2504Z
LYKV,TAF LYKV 241700Z 2418/2518 VRB02KT CAVOK TX22/2513Z TN05/2504Z BECMG 2501/2504 0400 FG VV002 BECMG 2507/2509 9000 NSW NSC
LYNI,TAF LYNI 241700Z 2418/2518 17005KT CAVOK TX23/2513Z TN07/2504Z
LYPG,TAF LYPG 241700Z 2418/2518 36005KT 9999 FEW050 TX21/2513Z TN10/2504Z
LYTV,TAF LYTV 241700Z 2418/2518 02005KT 9999 SCT050 TX21/2513Z TN11/2504Z BECMG 2507/2509 12010KT PROB30 TEMPO 2515/2518 4000 RA
LYVR,TAF LYVR 241700Z 2418/2518 17006KT CAVOK TX22/2513Z TN09/2503Z BECMG 2505/2507 14016KT BECMG 2512/2514 17006KT
LZIB,TAF LZIB 241715Z 2418/2518 06007KT CAVOK BECMG 2509/2511 22008KT 9999 FEW012 BKN040 TEMPO 2511/2518 5000 RA SCT010 OVC040
LZKZ,TAF LZKZ 241715Z 2418/2518 20006KT 9999 BKN040 TEMPO 2509/2515 -RA SCT020 BKN035 TEMPO 2515/2518 20015KT RA SCT012 OVC035
LZMC,TAF LZMC 241930Z 2421/2506 VRB03KT CAVOK BECMG 2423/2501 9999 SCT020 PROB30 TEMPO 2503/2506 7000 BCFG
LZPP,TAF LZPP 241715Z 2418/2503 15004KT CAVOK BECMG 2423/2501 9999 SCT032
LZPW,TAF LZPW 241930Z 2421/2506 VRB04KT CAVOK BECMG 2500/2502 9999 BKN035
LZSL,TAF LZSL 241930Z 2421/2506 VRB03KT 9999 BKN047
LZTT,TAF LZTT 241715Z 2418/2518 21005KT 9999 FEW045 BECMG 2422/2500 VRB02KT BECMG 2506/2508 25011KT FEW020 BKN045 TEMPO 2515/2518 RA SCT010 OVC040
LZZI,TAF LZZI 242015Z 2421/2506 VRB02KT 9999 BKN050 TEMPO 2501/2506 -RA FEW010 BKN035
MBGT,MBGT 241550Z 2418/2518 09012KT 9999 FEW015 SCT030 PROB30 TEMPO 2506/2512 08009KT 9000 SHRA SCT015CB SCT200
MBPV,MBPV 241550Z 2418/2518 09012KT 9999 FEW015 SCT030 PROB30 TEMPO 2506/2512 08009KT 9000 SHRA SCT015CB SCT200
MGGT,MGGT 241700Z 2418/2518 03008KT 9999 SCT018 SCT090 TX25/2420Z TN16/2512Z TEMPO 2418/2504 18008KT 7000 TSRA SCT020TCU FEW025CB BECMG 2500/2502 BKN016 PROB40 TEMPO 2504/2516 VRB03KT 5000 BRDZ BKN012 BECMG 2516/2518 SCT018
MGMM,MGMM 241700Z 2418/2518 09006KT 9999 SCT020 SCT090 TX33/2420Z TN21/2512Z TEMPO 2420/2506 14008KT 8000 TSRA SCT022TCU FEW025CB BECMG 2500/2502 00000KT SCT018 TEMPO 2506/2516 8000 SCT012 BECMG 2516/2518 14008KT SCT020
MGPB,MGPB 241700Z 2418/2518 06008KT 9999 SCT018 BKN090 TX30/2420Z TN22/2512Z TEMPO 2418/2506 7000 RADZ BKN018 PROB30 2420/2504 TS FEW025CB BECMG 2500/2502 00000KT SCT016 PROB30 TEMPO 2506/2518 8000 DZ BKN016 BECMG 2516/2518 05008KT SCT018
MGSJ,MGSJ 241700Z 2418/2518 18008KT 9999 SCT018 SCT090 TX32/2420Z TN21/2512Z TEMPO 2418/2508 22012KT 7000 TSRA SCT020TCU SCT025CB BECMG 2500/2502 00000KT SCT016 BECMG 2516/2518 20008KT SCT018
MHLC,TAF MHLC 241630Z 2418/2518 02008KT 9999 SCT030 TX31/2419Z TN22/2512Z TEMPO 2420/2501 5000 TSSHRA SCT035CB BKN080 BECMG 2501/2503 VRB03KT 9999 NSW SCT026 FEW028TCU BECMG 2515/2517 03006KT
MHLM,TAF MHLM 241630Z 2418/2518 03010KT 9999 SCT030TCU TX32/2420Z TN23/2512Z TEMPO 2420/2501 5000 TSSHRA SCT032CB BKN080 BECMG 2501/2503 VRB03KT 6000 RA BECMG 2504/2506 9999 NSW SCT026 BECMG 2516/2518 02008KT
MHPR,TAF MHPR 241700Z 2418/2518 33013KT 9999 SCT044TCU TX28/2419Z TN22/2511Z TEMPO 2420/2502 7000 TSRA SCT044TCU FEW046CB FM250200 VRB03KT 9999 BKN046 TEMP0 2510/2514 5000 BR FM251500 36012KT 9999 SCT048
MHRO,TAF MHRO 241630Z 2418/2518 05012KT 9999 SCT024TCU TX31/2419Z TN27/2512Z TEMPO 2510/2514 6000 RA
MHTG,TAF MHTG 241630Z 2418/2518 03008KT 7000 VCSH SCT028 SCT032TCU TX28/2419Z TN18/2512Z TEMPO 2420/2502 4000 TSSHRA SCT035CB BKN080 BECMG 2502/2504 VRB04KT 6000 RA FEW010 SCT026 FEW030CB BECMG 2504/2506 00000KT 7000 VCSH FEW006 BKN024 BECMG 2515/2517 02007KT 9999 NSW
MKJP,TAF MKJP 241715Z 2418/2518 15022KT 9999 SCT020 BKN022CB TEMPO 2418/2504 1000 TSRA BKN016 BKN018CB BKN032 BECMG 2504/2506 08015KT PROB40 TEMPO 2505/2512 SHRA BKN020CB BECMG 2514/2516 13022KT
MKJS,TAF MKJS 241715Z 2418/2518 07015KT 9999 FEW022 TEMPO 2419/2502 7000 TSRA BKN018CB BECMG 2503/2505 12015KT SCT018CB BKN034 BECMG 2514/2516 08018KT
MMAA,TAF MMAA 241631Z 2418/2524 24010KT P6SM SCT020 SCT160 TX30/2421Z TN26/2512Z PROB40 2422/2502 BKN020CB VC TS FM250200 29010KT P6SM SCT020 BKN160 BKN250 BECMG 2508/2509 34005KT FM251700 25010KT P6SM SCT020 BKN200
MMAN,TAF MMAN 241710Z 2418/2518 13010KT P6SM SCT020 PROB40 2504/2508 5SM TSRA BKN020CB FM250800 13005KT 4SM HZ SCT010 BKN250 TEMPO 2510/2514 3SM BR FM251400 13010KT P6SM SCT030
MMAS,TAF MMAS 241622Z 2418/2518 03010KT P6SM SCT040 SCT080 FM250300 07004KT P6SM SCT080 FM251600 06008KT P6SM BKN080
MMBT,TAF MMBT 241618Z 2418/2518 23008KT P6SM BKN020 BKN100 BKN200 BECMG 2420/2421 6SM -RA BKN020CB TEMPO 2422/2502 4SM RA FM250200 34004KT 6SM HZ SCT010 BKN020 BKN090 TEMPO 2502/2506 5SM RA FM251500 19006KT P6SM BKN030 BKN120
MMCB,TAF MMCB 241618Z 2418/2518 16008KT P6SM SCT020 SCT070 BECMG 2419/2420 BKN020 BKN070 FM242200 08008KT 6SM -RA BKN020CB TEMPO 2422/2502 4SM TSRA FM250200 00000KT 6SM -RA BKN015 OVC070 FM250900 00000KT 6SM HZ SCT010 BKN020 BKN080 BKN200 TEMPO 2510/2514 3SM BR FM251500 15004KT 6SM HZ SCT020 BKN070 BKN200
MMCE,TAF MMCE 241634Z 2418/2518 09010KT P6SM SCT015 BKN070 BECMG 2420/2421 01014KT FM250100 01014KT 6SM -RA SCT015 BKN030 BKN070 TEMPO 2504/2508 4SM TSRA BKN015CB FM250800 03008KT 5SM -RA BKN015CB OVC070 TEMPO 2508/2512 2SM RA FM251500 09006KT 6SM HZ SCT015 BKN030 BKN200
MMCL,TAF MMCL 241705Z 2418/2518 19006KT P6SM SCT030 SCT250 BECMG 2500/2501 BKN020 PROB40 2502/2506 5SM HZ -TSRA BKN020CB FM250600 04005KT 6SM BKN015 TEMPO 2510/2514 4SM HZ BKN015 FM251400 05005KT P6SM SCT030
MMCM,TAF MMCM 241634Z 2418/2518 07008KT P6SM -RA BKN020 BKN120 TEMPO 2418/2422 5SM RA BKN015CB FM250300 07006KT 6SM HZ BKN010 BKN250 TEMPO 2510/2514 2SM -DZ BR BKN004 OVC010 FM251500 06006KT 6SM HZ SCT010 BKN015
MMCN,TAF MMCN 241627Z 2418/2518 26010KT P6SM SCT030 FM250300 20005KT P6SM SKC BECMG 2509/2510 10004KT FM251600 29008KT P6SM SKC
MMCP,TAF COR MMCP 241945Z 2420/2518 00000KT 5SM -RA SCT020CB FM242100 34015KT P6SM SCT020CB BKN070 TEMPO 2421/2501 5SM TSRA BKN020CB FM250300 07014KT 6SM HZ BKN015 BKN120 TEMPO 2510/2514 3SM BR FM251500 09008KT 6SM HZ SCT015 BKN60
MMCS,TAF MMCS 241710Z 2418/2518 33010KT P6SM SCT030 BECMG 2503/2504 29005KT FM251700 07010KT P6SM SCT040 BKN250
MMCU,TAF MMCU 241710Z 2418/2518 06010KT P6SM SCT020 BECMG 2503/2504 05005KT FM251700 04010KT P6SM SCT020
MMCV,TAF MMCV 241735Z 2418/2518 01008KT P6SM SCT200 BECMG 2423/2424 10006KT SCT070 SCT200 FM250600 20005KT P6SM SCT020 SCT200 BECMG 2510/2511 00000KT TEMPO 2511/2515 3SM BR SCT010 FM251500 08005KT P6SM SCT025
MMCZ,TAF MMCZ 241654Z 2418/2524 04015KT P6SM SCT015 TEMPO 2422/2502 SCT015CB VC TS FM250200 03005KT P6SM SCT015 FM251700 04010KT P5SM SCT020 PROB40 2520/2524 5SM TSRA BKN015CB
MMDO,TAF MMDO 241627Z 2418/2518 01008KT P6SM SCT030 SCT080 TEMPO 2421/2501 SCT030CB FM250300 30004KT P6SM SKC FM251600 03006KT P6SM SKC
MMEP,TAF MMEP 241622Z 2418/2518 34008KT P6SM SCT030 SCT100 BECMG 2421/2422 BKN020CB TEMPO 2422/2502 5SM TSRA FM250300 00000KT 6SM HZ BKN010 TEMPO 2511/2515 3SM BR FM251600 00000KT 6SM HZ BKN020
MMGL,TAF MMGL 241643Z 2418/2524 28010KT 5SM HZ SCT025 TX27/2421Z TN16/2512Z TEMPO 2422/2502 BKN020CB VC TS FM250200 26005KT 5SM HZ SCT020 BKN080 FM251700 04010KT P6SM SCT020 BKN250 PROB40 2520/2524 BKN020CB VC TS
MMGM,TAF MMGM 241627Z 2418/2518 22010KT P6SM SKC FM250300 27004KT P6SM SKC FM251600 20008KT P6SM SKC
MMHO,TAF MMHO 241705Z 2418/2518 22005KT P6SM SCT090 BECMG 2422/2423 25010KT SCT100 FM250600 19005KT P6SM SCT080 FM251200 06005KT P6SM SCT030 BECMG 2516/2517 00000KT P6SM SKC
MMIA,TAF MMIA 241622Z 2418/2518 24010KT 5SM HZ SCT020 SCT200 BECMG 2420/2421 BKN020 BKN070 TEMPO 2421/2501 4SM TSRA BKN015CB FM250300 00000KT 4SM BR HZ BKN010 TEMPO 2510/2514 2SM BR FM251500 18005KT 4SM HZ BKN015
MMIO,TAF MMIO 241710Z 2418/2518 04010KT P6SM SCT020 PROB40 2423/2503 5SM TSRA BKN020CB FM250300 03005KT P6SM SCT020 BKN250 FM251700 02005KT P6SM SCT020
MMLM,TAF COR MMLM 241846Z 2418/2518 25012KT P6SM SCT030 SCT220 TEMPO 2418/2422 BKN020 FM250300 28005KT P6SM SKC BECMG 2509/2510 3SM BR SCT015 TEMPO 2511/2515 2SM BR BKN010 FM251600 35006KT P6SM SCT015
MMLO,TAF MMLO 241622Z 2418/2518 25008KT P6SM SCT030 SCT090 FM250300 00000KT P6SM SCT090 FM251600 09006KT P6SM SKC
MMLP,TAF MMLP 241705Z 2418/2518 23010KT P6SM SCT030 BECMG 2421/2422 SCT025 TEMPO 2423/2503 6SM -RA BKN020 OVC300 FM250300 22005KT P6SM SCT020 BECMG 2512/2513 17008KT SKC
MMLT,TAF MMLT 241627Z 2418/2518 10010KT P6SM SKC FM250300 23004KT P6SM SKC FM251600 03006KT P6SM SKC
MMMA,TAF MMMA 241735Z 2418/2518 15008KT P6SM BKN020 BKN250 TEMPO 2418/2422 6SM RA BKN020CB FM242200 13014KT P6SM SCT020 BKN050 BKN220 FM250300 14010KT P6SM BKN015 BECMG 2505/2506 SCT010 BKN015 TEMPO 2510/2514 4SM BR HZ FM251500 13010KT P6SM BKN015 BKN050 OVC220 PROB40 2515/2518 5SM TSRA BKN015CB
MMMD,TAF AMD MMMD 242120Z 2421/2524 36010KT P6SM BKN015CB BKN300 TX34/2521Z TN24/2512Z TEMPO 2422/2502 4SM TSRA OVC010CB FM250200 07005KT 5SM -TSRA BKN020CB BKN080 FM250600 09005KT P6SM SCT020 BKN090 BKN250 FM251800 09010KT P6SM SCT020 BKN250 PROB40 2520/2524 5SM TSRA BKN020CB
MMML,TAF MMML 241705Z 2418/2518 34005KT P6SM SKC BECMG 2502/2503 13005KT SCT200 FM251200 24005KT P6SM SKC BECMG 2516/2517 34007KT SCT050
MMMM,TAF MMMM 241643Z 2418/2524 01005KT P6SM SCT015 TEMPO 2423/2503 4SM TSRA BKN0165CB FM250300 34005KT 5SM HZ SCT020 BKN090 BKN250 PROB40 2510/2514 3SM DZ BR OVC010 FM251400 03005KT 5SM HZ SCT015
MMMT,TAF COR MMMT 241849Z 2418/2518 36010KT 5SM VC RA BKN030 BKN080 TEMPO 2419/2423 4SM TSRA BKN015CB FM242300 36010KT 5SM -RA BKN015CB OVC080 TEMPO 2500/2504 4SM RA FM250400 27004KT 4SM BR HZ SCT010 BKN080 TEMPO 2510/2514 2SM BR HZ BKN005 BKN070 FM251400 30006KT 4SM -RA BKN015 BKN080 BKN200 TEMPO 2515/2518 2SM RA BKN015CB
MMMV,TAF MMMV 241710Z 2418/2518 06010KT P6SM SCT020 BECMG 2503/2504 03005KT FM251700 04010KT P6SM SCT100
MMMX,TAF COR MMMX 242113Z 2418/2524 06010KT P6SM SCT020 TX24/2421Z TN14/2512Z BECMG 2420/2421 BKN020CB TEMPO 2423/2503 4SM TSRA OVC020CB FM250300 36005KT 5SM -RA BKN020 BKN080 BKN250 BECMG 2507/2508 4SM HZ FM251800 04005KT P6SM SCT020 BKN250 BECMG 2520/2521 04010KT
MMMY,TAF MMMY 241710Z 2418/2524 08010KT P6SM SCT020 TX32/2420Z TN22/2512Z PROB40 2503/2507 5SM TSRA BKN020CB FM250700 00000KT 5SM HZ SCT020 FM251700 13005KT P6SM SCT020 BKN250 PROB40 2520/2524 5SM TSRA BKN020CB
MMMZ,TAF MMMZ 241705Z 2418/2524 24006KT P6SM SCT025 SCT250 TX31/2421Z TN23/2512Z BECMG 2422/2423 31010KT BKN025CB TEMPO 2423/2503 5SM TSRA FM250300 00000KT P6SM VC TS BKN020 PROB40 2504/2508 5SM -TSRA BKN020CB FM251200 00000KT P6SM SCT025 FM252100 25010KT P6SM SCT030
MMNL,TAF COR MMNL 241851Z 2418/2518 11010KT P6SM SCT020 TEMPO 2419/2423 BKN020 BECMG 2500/2501 12014KT FM250600 15005KT P6SM SKC TEMPO 2510/2514 4SM BR HZ FM251600 07008KT P6SM SCT050
MMOX,TAF COR MMOX 241844Z 2418/2518 34005KT P6SM BKN030 BKN080 TEMPO 2422/2502 6SM RA BKN030 OVC080 FM250200 35004KT P6SM BKN030 OVC080 TEMPO 2510/2514 6SM HZ BKN015 BKN070 FM251500 11004KT P6SM SCT030 BKN070
MMPA,TAF MMPA 241735Z 2418/2518 04008KT P6SM SCT020 BKN160 BECMG 2421/2422 SCT020 BKN030 PROB40 2500/2504 5SM RA FM250500 00000KT 6SM HZ BKN020 TEMPO 2510/2514 3SM BR FM251500 28005KT 5SM HZ SCT020 SCT100 BKN180
MMPB,TAF MMPB 241618Z 2418/2518 17010KT P6SM SCT025 BKN080 BKN200 BECMG 2421/2422 6SM -RA BKN020 OVC070 TEMPO 2423/2503 4SM RA BKN020CB FM250300 01004KT 6SM -RA BKN015 OVC070 BECMG 2509/2510 5SM HZ TEMPO 2510/2514 3SM BR FM251500 08005KT 6SM HZ SCT025 BKN120
MMPG,TAF MMPG 241735Z 2418/2518 13008KT P6SM SKC TEMPO 2504/2508 13014KT FM250800 00000KT 6SM HZ SKC BECMG 2512/2513 SCT010 FM251500 10008KT P6SM BKN015
MMPN,TAF MMPN 241622Z 2418/2518 18008KT P6SM SCT030 BECMG 2419/2420 SCT030CB TEMPO 2421/2501 5SM TSRA BKN030CB FM250100 00000KT 6SM -RA BKN015 BKN080 BKN250 FM250300 00000KT 6SM HZ SCT010 SCT250 BECMG 2509/2510 3SM BR FM251500 13005KT 6SM HZ SKC
MMPQ,TAF MMPQ 241634Z 2418/2518 05006KT 5SM HZ BKN030 BKN090 BECMG 2421/2422 5SM -RA TEMPO 2423/2503 4SM TSRA SCT010 BKN015CB OVC080 FM250300 00000KT 4SM -RA BKN010 OVC030CB PROB40 2514/2518 2SM RA
MMPR,TAF MMPR 241643Z 2418/2524 29005KT P6SM SCT015 SCT080 BKN250 TX30/2420Z TN24/2512Z BECMG 2420/2421 28010KT PROB40 2506/2510 5SM TSRA BKN020CB FM251700 03005KT 6SM HZ SCT015 BKN250 BECMG 2520/2521 34010KT
MMPS,TAF MMPS 241618Z 2418/2518 24008KT P6SM SCT015 BKN030 BKN100 BECMG 2421/2422 P6SM VC RA TEMPO 2423/2503 4SM RA SCT015CB FM250300 04004KT 6SM -RA BKN015 OVC090 TEMPO 2506/2510 4SM TSRA BKN015CB FM251500 25006KT P6SM BKN020 BKN100
MMQT,TAF MMQT 241622Z 2418/2518 06010KT P6SM SCT020 SCT090 FM250300 10004KT 6SM HZ SCT090 BECMG 2509/2510 3SM BR TEMPO 2511/2515 2SM BR BKN010 FM251600 08005KT 5SM HZ SKC
MMRX,TAF MMRX 241735Z 2418/2518 11010KT P6SM SCT020 BKN050 BECMG 2419/2420 12014KT FM250300 11008KT P6SM SCT015 SCT250 BECMG 2508/2509 6SM HZ SCT010 BKN015 TEMPO 2510/2514 3SM BR HZ FM251400 12006KT 6SM VC RA SCT010 BKN015 PROB40 2514/2518 4SM RA SCT010 BKN015CB
MMSD,TAF MMSD 241627Z 2418/2518 19010KT P6SM SKC FM250200 29005KT 6SM HZ SCT010 SCT020 FM251600 12006KT P6SM SCT020
MMSL,TAF MMSL 241627Z 2418/2518 23010KT P6SM SCT020 BECMG 2423/2424 BKN015 FM250300 30006KT 6SM HZ SCT010 FM251700 26006KT P6SM SCT020
MMSM,TAF COR MMSM 242116Z 2418/2524 03010KT P6SM SCT020 BECMG 2422/2423 BKN020CB TEMPO 2423/2503 4SM TSRA FM250300 04005KT 5SM HZ BKN020 OVC090 TEMPO 2510/2514 4SM -RA BR FM251400 03005KT P6SM SCT020 BECMG 2520/2521 04010KT
MMSP,TAF MMSP 241643Z 2418/2524 10005KT P6SM SCT020 TX23/2421Z TN12/2512Z BECMG 2420/2421 13010KT FM250600 13005KT 4SM HZ SCT020 TEMPO 2510/2514 2SM BR HZ OVC020 FM251400 13005KT 5SM HZ SCT010 FM252000 04010KT P6SM SCT020
MMTC,TAF MMTC 241710Z 2418/2518 09010KT P6SM SCT030 BECMG 2503/2504 36005KT FM251700 03005KT P6SM SCT030
MMTG,TAF MMTG 241654Z 2418/2518 33010KT P6SM SCT015 BKN090 TEMPO 2423/2503 4SM TSRA BKN015CB FM250300 33005KT 5SM -RA BKN015 OVC070 TEMPO 2510/2514 3SM DZ BR OVC010 FM251400 34005KT 5SM HZ SCT020 BKN070
MMTJ,TAF MMTJ 241705Z 2418/2524 29010KT P6SM SCT120 TX30/2421Z TN20/2512Z FM250400 00000KT P6SM SKC BECMG 2517/2518 27010KT SCT020 FM252200 24013KT P6SM SKC
MMTM,TAF MMTM 241631Z 2418/2518 12010KT 5SM HZ SCT012 TEMPO 2422/2502 BKN020 FM250200 13005KT 5SM HZ SCT020 BKN060 TEMPO 2510/2514 3SM BR HZ BKN015 FM251400 13005KT P6SM SCT020
MMTO,TAF COR MMTO 242115Z 2418/2524 06005KT 4SM HZ SCT020 TX21/2421Z TN11/2512Z BECMG 2420/2421 BKN020CB TEMPO 2423/2503 4SM TSRA OVC015CB FM250300 02005KT 5SM -RA BKN015 OVC080 BECMG 2507/2508 3SM BR HZ FM251600 03005KT 5SM HZ SCT020 BKN080 BKN250 BECMG 2520/2521 04010KT
MMTP,TAF MMTP 241654Z 2418/2524 24010KT P6SM SCT030 BKN100 TEMPO 2423/2503 4SM TSRA BKN030CB FM250300 34010KT P5SM SCT015 BKN080 BKN250 PROB40 2510/2514 5SM -TSRA BKN020CB FM251700 27010KT P6SM SCT020 BKN100 BKN250
MMUN,TAF MMUN 241654Z 2418/2524 06010KT P6SM SCT015 TX32/2520Z TN24/2512Z BECMG 2420/2421 04015KT FM250400 03005KT P6SM SCT015 TEMPO 2510/2514 BKN015 FM251400 03005KT P6SM SCT015 PROB40 2520/2524 5SM TSRA BKN015CB
MMVA,TAF MMVA 241634Z 2418/2518 04010KT 6SM HZ BKN015 BKN100 BECMG 2419/2420 6SM -RA BKN015CB TEMPO 2420/2424 4SM TSRA FM250000 01006KT 4SM -RA BKN010 OVC030 TEMPO 2510/2514 2SM -RA BR FM251500 29005KT 4SM-RA BKN010 BKN020 BKN070
MMVR,TAF MMVR 241631Z 2418/2518 02005KT P6SM SCT020 BKN070 TX31/2420Z TN24/2512Z BECMG 2420/2421 04010KT FM250600 33005KT 6SM HZ SCT020 BKN060 TEMPO 2513/2517 3SM DZ BR OVC010 FM251700 04010KT 5SM HZ SCT015 BKN080 BKN250
MMZC,TAF MMZC 241643Z 2418/2524 02010KT P6SM BKN100 TX22/2421Z TN14/2512Z BECMG 2503/2504 03005KT FM251700 03010KT P6SM SCT020 BKN100
MMZH,TAF MMZH 241618Z 2418/2518 25008KT 6SM HZ SCT015 SCT120 SCT250 BECMG 2423/2424 SCT010 BKN015 BKN120 FM250300 35004KT 6SM HZ SCT010 BKN015 BKN120 FM251500 15005KT 6SM HZ BKN020 BKN120
MMZO,TAF MMZO 241643Z 2418/2518 28010KT P6SM SCT020 BKN250 PROB40 2423/2503 5SM TSRA BKN020CB FM250300 33005KT P6SM SCT020 BKN090 FM251700 24010KT P6SM SCT020 BKN250
MPDA,TAF MPDA 241700Z 2418/2506 19006KT 9999 SCT018 TEMPO 2420/2424 5000 TSRA SCT014CB BKN090 TEMPO 2501/2503 8000 RA TEMPO 2504/2506 9999 NSW
MPMG,TAF MPMG 241700Z 2418/2506 17008KT 9999 SCT018 SCT090 TEMPO 2418/2422 6000 TSRA SCT016CB BKN080 TEMPO 2423/2501 8000 RA TEMPO 2502/2506 9999 NSW
MPPA,TAF MPPA 241700Z 2418/2524 19008KT 9999 SCT018 SCT090 PROB30 2419/2423 6000 TSRA SCT015CB BKN090 TEMPO 2502/2506 00000KT
MPSM,TAF MPSM 241700Z 2418/2524 16008KT 9999 SCT018 SCT090 PROB30 2419/2423 6000 TSRA SCT015CB BKN090
MPTO,TAF MPTO 241700Z 2418/2524 18008KT 9999 SCT018 SCT090 TEMPO 2418/2422 6000 TSRA SCT016CB BKN080 TEMPO 2423/2501 8000 RA TEMPO 2502/2504 9999 NSW TEMPO 2506/2508 VRB02KT
MRLB,MRLB 241732Z 2418/2518 27006KT 9999 SCT025 BKN200 TX31/2419Z TN21/2510Z TEMPO 2419/2501 5000 SHRA SCT020TCU TEMPO 2508/2513 VRB02KT 1500 BR SCT005 
MRLM,MRLM 241732Z 2418/2518 04005KT 9999 FEW030 BKN180 TX31/2420Z TN21/2510Z BECMG 2500/2503 25005KT BECMG 2514/2517 05004KT 
MROC,MROC 241732Z 2418/2518 25008KT 9999 SCT030 BKN200 TX27/2419Z TN17/2511Z TEMPO 2419/2424 3000 TSRA SCT020CB TEMPO 2500/2505 5000 BR DZ BKN010 BECMG 2505/2508 08007KT BECMG 2514/2516 24007KT 
MRPV,TAF MRPV 241715Z 2418/2518 28010KT 9999 SCT035 BKN200 TX27/2518Z TN19/2511Z TEMPO 2420/2422 TSRA SCT020CB TEMPO 2422/2506 VRB02KT 5000 BR BKN010 TEMPO 2506/2514 12005KT
MTCH,TAF MTCH 241700Z 2418/2518 04013KT 9000 SCT026 PROB40 TEMPO 2421/2503 4800 TSRA SCTO22CB OVCO40 BECMG 2506/2510 VRB02KT 8000 NSW FEW016
MTPP,TAF MTPP 241120Z 2412/2512 10014KT 9000 FEW020 BECMG 2416/2420 10015G25KT FM250200 20010KT 9000 SCT030CB TEMPO 2508/2512 09010KT
MUCC,COR MUCC 241700Z 2418/2518 06011KT 9000 SCT020 TEMPO 2418/2501 VRB10KT 5000 TSRA FEW018CB BKN020 BECMG 2502/2505 09012KT
MUCF,MUCF 241700Z 2418/2506 VRB03KT 9000 SCT020 TEMPO 2418/2424 VRB10KT 5000 TSRA SCT018CB BKN020
MUCL,MUCL 241700Z 2418/2506 VRB03KT 9000 SCT025
MUCM,MUCM 241700Z 2418/2518 04012KT 9000 SCT020 TEMPO 2418/2501 VRB10KT 4000 TSRA SCT018CB BKN020 BECMG 2502/2505 08012KT
MUCU,MUCU 241700Z 2418/2518 VRB03KT 9000 SCT020 TEMPO 2418/2503 VRB10KT 3000 TSRA SCT018CB BKN020 TEMPO 2504/2510 TS SCT020CB BKN060
MUGM,TAF MUGM 2415/2515 VRB06KT 9999 SCT030 SCT100 BKN250 QNH2986INS FM242200 09008KT 9999 VCSH SCT030CB BKN100 BKN250 QNH2985INS TEMPO 2422/2504 6000 -SHRA BKN025 BKN080 BECMG 2507/2509 9999 VCSH SCT020 BKN035CB BKN100 QNH2982INS TEMPO 2510/2515 4800 TSRA SCT012 BKN025CB BKN080 T31/2416Z T25/2506Z FN00237
MUHA,MUHA 241700Z 2418/2518 06011KT 9000 SCT030 BECMG 2503/2505 FEW030
MUHG,MUHG 241700Z 2418/2518 07011KT 1000 SCT020 TEMPO 2418/2502 VRB10KT 3000 TSRA SCT018CB BKN020 BECMG 2503/2505 VRB03KT BKN060
MUSC,MUSC 241700Z 2418/2518 05008KT 9000 SCT020 TEMPO 2418/2424 SCT018CB BKN020 BECMG 2513/2515 08008KT SCT020
MUVR,MUVR 241700Z 2418/2518 04010KT 9000 SCT020 TEMPO 2418/2423 FEW018CB BKN020 BECMG 2501/2503 VRB03KT BECMG 2513/2515 08008KT
MWCB,TAF MWCB 241700Z 2418/2518 05010KT 9999 FEW016 PROB40 TEMPO 2418/2422 9000 SHRA SCT014TCU
MWCR,TAF MWCR 241700Z 2418/2518 05010KT 9999 FEW016 PROB40 TEMPO 2418/2422 9000 SHRA SCT014CB
MYGF,MYGF 241550Z 2418/2518 07010KT 9000 TSRA SCT015CB BKN040 PROB40 TEMPO 2500/2506 05006G20KT 3200 TSRA BKN012CB BKN020
MYNN,MYNN 241550Z 2418/2518 06008KT 9999 VCSH SCT018CB
MZBZ,TAF MZBZ 241500Z 2418/2518 06006KT 9999 SCT023 PROB30 TEMPO 2418/2421 5000 SHRA BKN015 BECMG 2500/2502 VRB02KT PROB30 TEMPO 2506/2512 5000 SHRA BKN015
NCRG,TAF NCRG 241705Z 2418/2518 08015KT 9999 FEW030 TEMPO 2418/2506 08015G30KT
NFFN,TAF NFFN 241705Z 2418/2518 12008KT 9999 FEW028 BKN100 PROB40 TEMPO 2418/2420 5000 TSRA BKN015 FEW018CB BECMG 2422/2424 31012KT PROB40 TEMPO 2503/2509 5000 TSRA BKN015 FEW018CB BECMG 2504/2506 12006KT
NFNA,TAF NFNA 241708Z 2418/2518 08005KT 9999 -SHRA FEW017 BKN048 PROB40 TEMPO 2418/2510 5000 TSRA BKN015 FEW016CB
NFTF,TAF NFTF 241707Z 2418/2518 08012KT 9999 FEW016 BKN030 PROB40 TEMPO 2418/2508 5000 SHRA BKN015 FEW018CB
NFTV,TAF NFTV 241709Z 2418/2518 08012KT 9999 SCT018 PROB40 TEMPO 2418/2510 5000 SHRA BKN016
NGFU,TAF NGFU 241709Z 2418/2518 08005KT 9999 FEW018
NGTA,TAF NGTA 241708Z 2418/2518 14008KT 9999 FEW020
NIUE,TAF NIUE 232321Z 2400/2424 09012KT 9999 SCT018 PROB40 TEMPO 2400/2412 09015G25KT PROB40 TEMPO 2418/2424 09015G25KT
NLWF,TAF NLWF 241700Z 2418/2518 07015KT 9999 BKN020 TEMPO 2418/2518 3000 SHRA BKN014 FEW020CB PROB40 TEMPO 2418/2518 2000 TSRA BKN010 SCT016CB 
NLWW,TAF NLWW 241700Z 2418/2518 08012KT 9999 BKN020 TEMPO 2418/2518 3000 SHRA BKN014 FEW020CB PROB40 TEMPO 2418/2501 2000 TSRA BKN010 SCT016CB 
NSFA,TAF NSFA 241708Z 2418/2518 05008KT 9999 SCT020 BKN100 PROB40 TEMPO 2418/2505 5000 SHRA BKN016
NSTU,NSTU 241743Z 2418/2518 13015G21KT P6SM SCT020 BKN040 BKN090 FM242100 10016G24KT P6SM VCSH SCT025 BKN040 BKN090
NTAA,TAF NTAA 241700Z 2418/2524 VRB05KT 9999 FEW025 BECMG 2420/2422 SCT020 BKN050 TEMPO 2420/2503 24010KT PROB30 TEMPO 2422/2509 3000 SHRA
NVSC,TAF NVSC 241100Z 2412/2512 VRB01KT 9999 SCT020
NVSG,TAF NVSG 241100Z 2412/2512 VRB02KT 9999 SCT025
NVSL,TAF NVSL 240500Z 2406/2506 07010KT 9999 SCT018 BKN040 INTER 2406/2412 9000 SHRA BKN018
NVSP,TAF NVSP 241100Z 2412/2512 07005KT 9999 SCT020
NVSS,TAF NVSS 241100Z 2412/2512 VRB01KT 9999 SCT020 INTER 2412/2418 9000 -SHRA SCT018
NVVA,TAF NVVA 241100Z 2412/2512 VRB02KT 9999 SCT020 BKN040 INTER 2412/2418 9000 SHRA FEW010 BKN018
NVVV,TAF NVVV 241100Z 2412/2512 VRB03KT 9999 SCT025
NVVW,TAF NVVW 241100Z 2412/2512 VRB04KT 9999 SCT020 BKN040 INTER 2412/2418 9000 SHRA FEW010 BKN018
NWWD,TAF NWWD 241700Z 2418/2518 VRB02KT CAVOK BECMG 2422/2424 21010KT TEMPO 2500/2506 FEW020CB
NWWE,TAF NWWE 241700Z 2418/2518 08008KT 9999 BKN016 SCT070 PROB40 TEMPO 2418/2424 4000 SHRA BKN010 FEW016CB PROB30 TEMPO 2500/2518 4000 SHRA BKN010 FEW016CB
NWWK,TAF NWWK 241700Z 2418/2518 VRB02KT CAVOK BECMG 2422/2424 19010KT TEMPO 2500/2506 FEW020CB
NWWL,TAF NWWL 241700Z 2418/2518 12006KT 9999 SCT012 BKN020 PROB40 TEMPO 2418/2424 4000 SHRA BKN008 FEW016CB TEMPO 2500/2518 3500 SHRA BKN010 FEW016CB PROB40 TEMPO 2500/2512 2000 +SHRA BKN008 SCT014CB
NWWM,TAF NWWM 241700Z 2418/2518 VRB02KT CAVOK BECMG 2422/2424 13014KT PROB40 TEMPO 2500/2506 FEW020TCU
NWWR,TAF NWWR 241700Z 2418/2518 10005KT 9999 SCT010 BKN020 PROB40 TEMPO 2418/2424 4000 SHRA BKN008 FEW016CB TEMPO 2500/2518 3500 SHRA BKN010 FEW016CB PROB40 TEMPO 2500/2515 2000 +SHRA BKN008 SCT014CB
NWWU,TAF NWWU 241700Z 2418/2518 18006KT CAVOK BECMG 2422/2424 12010KT TEMPO 2500/2507 FEW020CB PROB30 TEMPO 2501/2507 4000 SHRA FEW020CB
NWWW,TAF NWWW 241700Z 2418/2518 VRB02KT CAVOK TEMPO 2500/2506 4000 SHRA FEW020CB PROB30 TEMPO 2501/2506 2000 +SHRA SCT020CB
NZAA,TAF NZAA 241702Z 2418/2600 21010KT 9999 FEW020 SCT030 FM250300 03010KT 9999 -SHRA SCT030 BECMG 2508/2510 12005KT BECMG 2522/2600 03012KT
NZCH,TAF NZCH 241702Z 2418/2600 25010KT 9999 FEW015 BKN040 BECMG 2420/2422 VRB02KT TEMPO 2420/2500 4000 -RADZ BKN012 BECMG 2501/2503 07010KT
NZQN,TAF NZQN 241702Z 2418/2512 02010KT 9999 SKC BECMG 2422/2500 22010KT BECMG 2507/2509 04005KT
NZWN,TAF NZWN 241702Z 2418/2600 19020G30KT 9999 SCT014 BKN020 TEMPO 2418/2500 6000 SHRA BKN012 BECMG 2500/2502 16015KT FM251100 03005KT 9999 FEW020
OBBI,TAF OBBI 241700Z 2418/2600 33015KT CAVOK BECMG 2500/2502 33017G27KT PROB30 TEMPO 2514/2600 4000 DU NSC BECMG 2515/2517 33014KT
OEAB,TAF OEAB 241100Z 2412/2518 06016KT 7000 SCT020 TEMPO 2412/2418 BKN020 FEW025CB BECMG 2422/2500 02006KT 9999 FEW020 BECMG 2506/2508 06016KT 7000 SCT020 TEMPO 2509/2516 BKN020 FEW025CB
OEAH,TAF AMD OEAH 241500Z 2415/2518 33012KT 7000 NSC BECMG 2502/2504 34015G25KT 4000 BLDU PROB30 TEMPO 2505/2518 1000
OEAO,TAF OEAO 241100Z 2412/2518 27010KT CAVOK BECMG 2420/2422 02014KT BECMG 2509/2511 10012KT
OEBA,TAF OEBA 241100Z 2412/2518 09012KT 8000 SCT030 SCT090 TEMPO 2412/2420 FEW025CB BKN030 BECMG 2418/2420 30008KT 9999 FEW030 BECMG 2506/2508 06014KT
OEBH,TAF OEBH 241100Z 2412/2518 07014KT 8000 FEW030 BECMG 2420/2422 20010KT CAVOK BECMG 2508/2510 06010KT
OEDF,TAF OEDF 241500Z 2418/2524 33012KT 8000 NSC BECMG 2503/2505 34015G25KT 4000 BLDU PROB30 TEMPO 2508/2518 1000 BECMG 2516/2518 33012KT
OEDR,TAF OEDR 240900Z 2412/2518 33014G25KT 6000 NSC TEMPO 2500/2515 3000 BLDU PROB30 TEMPO 2502/2509 1200
OEGN,TAF OEGN 241100Z 2412/2518 25012KT 8000 FEW030 TEMPO 2412/2420 4000 BLDU TSRA SCT030 FEW035CB BKN100 BECMG 2416/2418 30006KT BECMG 2420/2422 18006KT BECMG 2506/2508 30010KT
OEGS,TAF OEGS 241100Z 2412/2518 02010KT CAVOK BECMG 2509/2511 03016KT 7000 NSC 
OEGT,TAF OEGT 241100Z 2412/2518 34010KT CAVOK BECMG 2506/2508 VRB03KT BECMG 2511/2513 35008KT
OEHL,TAF OEHL 241100Z 2412/2518 04008KT CAVOK BECMG 2500/2502 VRB03KT BECMG 2506/2508 03010KT
OEJN,TAF OEJN 241700Z 2418/2524 VRB03KT 7000 SCT040 BECMG 2506/2508 26010KT 9999 FEW040 BECMG 2518/2520 02010KT
OEKJ,TAF OEKJ 241100Z 2412/2518 02012KT CAVOK BECMG 2420/2422 32008KT BECMG 2506/2508 02016KT 6000 NSC PROB30 TEMPO 2508/2514 3000 BLDU
OEKM,TAF OEKM 241100Z 2412/2518 06016KT 7000 SCT020 TEMPO 2412/2418 BKN020 FEW025CB BECMG 2422/2500 02006KT 9999 FEW020 BECMG 2506/2508 06016KT 7000 SCT020 TEMPO 2509/2516 BKN020 FEW025CB
OEMA,TAF OEMA 241700Z 2418/2524 05012KT 7000 FEW045 BECMG 2506/2508 11014KT PROB30 TEMPO 2508/2516 4000 BLDU BECMG 2518/2520 05010KT
OENG,TAF OENG 241100Z 2412/2518 08014KT 8000 SCT030 BECMG 2418/2420 33008KT 9999 FEW030 BECMG 2508/2510 06012KT
OEPA,TAF OEPA 240900Z 2412/2518 33012KT CAVOK TEMPO 2506/2517 34022KT 4000 BLDU NSC PROB30 TEMPO 2512/2516 0800 DS
OEPS,TAF OEPS 241700Z 2417/2523 01009KT 9999 SKC QNH2981INS BECMG 2506/2507 35012G18KT 9999 SKC QNH2989INS BECMG 2508/2509 35015G20KT 9999 SKC QNH2976INS BECMG 2514/2515 02009KT 9000 HZ SKC QNH2981INS TX37/2512Z TN23/2503Z
OERF,TAF OERF 241100Z 2412/2518 35010KT CAVOK BECMG 2418/2420 VRB03KT BECMG 2506/2508 35016KT 7000 NSC
OERK,TAF OERK 241700Z 2418/2524 33012KT 7000 NSC BECMG 2505/2507 03022KT TEMPO 2506/2520 3000 BLDU PROB30 TEMPO 2508/2515 1000
OERR,TAF OERR 241100Z 2412/2518 32010KT CAVOK BECMG 2418/2420 02006KT
OESH,TAF OESH 241100Z 2412/2518 06010KT 8000 SCT040 BECMG 2418/2420 VRB03KT FEW040 BECMG 2508/2510 04010KT
OESK,TAF OESK 241100Z 2412/2518 34008KT CAVOK BECMG 2415/2417 VRB03KT BECMG 2422/2500 03008KT
OETB,TAF OETB 241100Z 2412/2518 09008KT CAVOK BECMG 2420/2422 VRB03KT BECMG 2506/2508 10008KT
OETF,TAF OETF 241100Z 2412/2518 34012KT 9999 SCT030 TEMPO 2412/2418 TS FEW025CB BKN030 BECMG 2420/2422 20008KT CAVOK BECMG 2506/2508 04010KT
OETR,TAF OETR 241100Z 2412/2518 30010KT CAVOK BECMG 2500/2502 03008KT BECMG 2508/2510 32010KT
OEWD,TAF OEWD 241100Z 2412/2518 08010KT 8000 SCT040 BECMG 2500/2502 35008KT 9999 FEW040 BECMG 2508/2510 05010KT
OEWJ,TAF OEWJ 241100Z 2412/2518 33010KT CAVOK BECMG 2500/2502 VRB03KT BECMG 2508/2510 28010KT
OEYN,TAF OEYN 241100Z 2412/2518 27014KT 9999 FEW040 BECMG 2420/2422 VRB03KT CAVOK BECMG 2508/2510 27016KT
OIAA,TAF OIAA 241730Z 2418/2524 30010KT CAVOK TEMPO 2516/2524 32020KT 4000 SA/DU NSC
OIAW,TAF OIAW 241730Z 2418/2524 30010KT CAVOK TEMPO 2501/2507 4000 HZ NSC
OIBB,TAF OIBB 242005Z 2421/2506 31006KT 8000 NSC BECMG 2500/2502 31016KT
OIBK,TAF OIBK 241730Z 2418/2524 28008KT 6000 NSC BECMG 2420/2422 4000 HZ/BR FEW030 TEMPO 2500/2504 06008KT 2000 BR SCT025 BECMG 2505/2507 12008KT 6000 NSC TEMPO 2507/2512 20014KT BECMG 2516/2518 4000 HZ/BBR
OIBP,TAF OIBP 242005Z 2421/2506 28006KT 8000 NSC PROB40 2423/2503 4000 BR PROB40 2509/2512 14008KT
OICC,TAF OICC 242005Z 2421/2506 15006KT 8000 NSC TEMPO 2421/2423 28010KT
OICI,TAF OICI 241730Z 2418/2524 12006KT CAVOK TEMPO 2508/2514 34014G24KT PROB40 TEMPO 2508/2516 5000 SA/DU
OIFM,TAF OIFM 241730Z 2418/2524 28008KT 7000 NSC TEMPO 2501/2505 5000 HZ BECMG 2508/2510 12008KT
OIGG,TAF OIGG 242005Z 2421/2506 21006KT 7000 FEW020CB SCT025 OVC070 BECMG 2423/2501 35010KT 5000 RA BKN010 FEW015CB OVC080 PROB40 2502/2506 35018KT 3000 BR/SHRA BKN005 SCT015CB OVC080
OIIE,TAF AMD OIIE 241750Z 2418/2524 35008KT CAVOK PROB40 TEMPO 2503/2506 34016KT BECMG 2505/2506 16010KT BECMG 2515/2517 35012KT TEMPO 2518/2524 35024KT 5000 SA NSC
OIII,TAF OIII 241730Z 2418/2524 02008KT CAVOK PROB40 2502/2506 5000 HZ NSC BECMG 2503/2505 16008KT
OIIP,TAF OIIP 242005Z 2421/2506 30006KT 7000 NSC TEMPO 2502/2506 4000 HZ
OIKB,TAF OIKB 241730Z 2418/2524 12008KT 4000 HZ/BR FEW030 TEMPO 2421/2504 2000 BR SCT025 SCT100 BECMG 2505/2507 20008KT 5000 HZ NSC TEMPO 2509/2515 24016KT 4000 SA/HZ BECMG 2516/2518 12008KT 4000 HZ TEMPO 2521/2524 3000 BR/HZ
OIKK,TAF OIKK 241730Z 2418/2524 12008KT 8000 NSC TEMPO 2509/2516 32016KT
OIMM,TAF OIMM 241730Z 2418/2524 20006KT CAVOK TEMPO 2511/2516 07014KT FEW040
OING,TAF OING 242005Z 2421/2506 34006KT 6000 NSC TEMPO 2422/2503 4000 BR BECMG 2502/2504 7000 SCT010 FEW025CB SCT080
OINZ,TAF OINZ 242005Z 2421/2506 33006KT 5000 BR FEW040 BECMG 2501/2503 RA SCT015 FEW020CB BKN080
OISL,TAF OISL 241730Z 2418/2524 20006KT CAVOK
OISS,TAF OISS 241730Z 2418/2524 32006KT CAVOK
OITL,TAF OITL 242005Z 2421/2506 07006KT 7000 FEW040 BECMG 2422/2424 5000 BR SCT010 FEW020CB SCT080 PROB40 2501/2505 1200 DZ BR OVC005
OITR,TAF OITR 241730Z 2418/2524 27008KT CAVOK BECMG 2503/2505 04010KT TEMPO 2506/2514 04018KT FEW030CB SCT035 SCT090
OITT,TAF OITT 241730Z 2418/2524 05006KT CAVOK BECMG 2513/2515 09014KT TEMPO 2515/2524 09022KT FEW032TCU
OIYY,TAF OIYY 242005Z 2421/2506 22006KT CAVOK
OIZH,TAF OIZH 241730Z 2418/2524 32008KT 7000 NSC TEMPO 2421/2505 03014KT TEMPO 2506/2515 03012G20KT 4000 SA
OJAI,TAF OJAI 241700Z 2418/2524 29010KT 5000 HZ NSC PROB30 2503/2506 3000 HZ TEMPO 2512/2517 30016KT
OJAM,TAF OJAM 241700Z 2418/2524 30008KT 5000 HZ NSC PROB30 2503/2506 3000 HZ
OJAQ,TAF OJAQ 241700Z 2418/2524 36012KT 7000 NSC TEMPO 2512/2517 35018KT 5000 BLDU
OKAS,TAF OKAS 241600Z 2416/2522 32015KT 8000 BLDU SKC QNH2973INS BECMG 2419/2420 33015KT 6000 BLDU SKC WS017/33030KT QNH2972INS BECMG 2423/2424 33015G20KT 8000 BLDU SKC QNH2973INS BECMG 2504/2505 31020G30KT 5000 BLDU SKC QNH2972INS BECMG 2508/2509 33020G30KT 2400 BLDU SKC QNH2968INS BECMG 2513/2514 33020G30KT 1600 BLDU SKC QNH2969INS TEMPO 2515/2518 1000 BLDU BECMG 2519/2520 33020KT 2400 BLDU SKC QNH2976INS WS 017/33040KT TX40/2511Z TN26/2503Z
OKBK,TAF OKBK 241700Z 2418/2524 34012G28KT 7000 NSC TEMPO 2418/2506 3000 BLDU PROB30 TEMPO 2508/2515 0800 DS VV///
OMAA,TAF OMAA 241700Z 2418/2600 30010KT 8000 NSC BECMG 2418/2420 20005KT PROB40 2422/2505 3000 BR BKN004 PROB30 2423/2505 VRB02KT 0200 FG VV/// BECMG 2507/2509 30012KT BECMG 2520/2522 12004KT PROB30 2522/2600 3000 BR
OMAD,TAF OMAD 241700Z 2418/2600 30010KT 8000 NSC BECMG 2418/2420 VRB02KT PROB30 2500/2505 1500 BR BKN006 BECMG 2506/2508 30012KT BECMG 2520/2522 VRB02KT PROB30 2522/2600 4000 HZ
OMAL,TAF OMAL 241700Z 2418/2600 32010KT 8000 NSC BECMG 2419/2421 05005KT PROB30 2422/2504 VRB02KT 1500 BR BKN003 BECMG 2507/2509 31010KT BECMG 2519/2521 08005KT
OMDB,TAF OMDB 241700Z 2418/2600 17005KT 8000 NSC PROB40 TEMPO 2422/2505 3000 BR BKN005 PROB30 2500/2504 0200 FG VV/// BECMG 2506/2508 29010KT BECMG 2515/2517 19005KT PROB30 TEMPO 2522/2600 3000 BR BKN005
OMDW,TAF OMDW 241700Z 2418/2600 18005KT 8000 NSC PROB40 TEMPO 2419/2505 3000 BR BKN005 PROB30 2421/2504 0100 FG VV/// BECMG 2507/2509 30010KT BECMG 2515/2517 18005KT PROB30 TEMPO 2519/2600 3000 BR BKN005
OMFJ,TAF OMFJ 241700Z 2418/2600 29012KT 7000 NSC PROB30 2418/2422 30016G26KT 5000 BLDU BECMG 2506/2508 09010KT BECMG 2515/2517 VRB03KT
OMRK,TAF OMRK 241700Z 2418/2600 VRB02KT 8000 NSC PROB40 TEMPO 2419/2505 3000 BR BKN005 PROB30 2421/2504 0100 FG VV/// BECMG 2506/2508 30010KT BECMG 2514/2516 VRB02KT PROB30 TEMPO 2519/2600 3000 BR BKN005
OMSJ,TAF OMSJ 241700Z 2418/2600 17005KT 8000 NSC PROB40 TEMPO 2419/2505 3000 BR BKN005 PROB30 2422/2504 0100 FG VV/// BECMG 2506/2508 28010KT BECMG 2515/2517 18005KT PROB30 TEMPO 2519/2600 3000 BR BKN005
OOMS,TAF OOMS 232300Z 2400/2506 VRB02KT 8000 NSC BECMG 2406/2408 03010KT BECMG 2415/2417 VRB02KT BECMG 2420/2422 23009KT
OOSA,TAF OOSA 232340Z 2400/2506 VRB03KT 9999 SCT025 BECMG 2404/2406 18010KT BECMG 2415/2417 VRB03KT BKN025
OOSH,TAF OOSH 232300Z 2400/2506 VRB02KT 8000 FEW030 BECMG 2406/2408 06012KT BECMG 2416/2418 VRB02KT
OPKC,TAF OPKC 241530Z 2418/2524 26012KT 6000 SCT030 BKN100 TEMPO 2423/2503 26010KT 5000 HZ SCT030 BKN100 FM250600 26012KT 6000 SCT030 BKN100 FM251800 26008KT 6000 FEW030
OPNH,TAF OPNH 241530Z 2418/2524 18008KT 5000 HZ SCT030 TEMPO 2423/2503 18005KT 3000 HZ SCT040 FM 250600 18008KT 5000 HZ FEW030
ORBI,TAF ORBI 241600Z 2418/2518 30010KT 8000 NSC
ORER,TAF ORER 240400Z 2406/2506 26003KT 7000 NSC BECMG 2409/2411 24012KT
ORMM,TAF ORMM 241600Z 2418/2518 28012KT 8000 NSC 
ORNI,TAF ORNI 241600Z 2418/2518 33012KT 7000 NSC
ORSU,TAF ORSU 241700Z 2418/2518 31008KT CAVOK BECMG 2510/2512 25012KT
OSAP,OSAP 241700Z 2418/2518 33008KT CAVOK
OSDI,OSDI 241700Z 2418/2524 24015G30KT CAVOK
OSLK,OSLK 241700Z 2418/2518 08008KT CAVOK TEMPO 2508/2518 30012KT 9999 FEW030
OTBD,TAF OTBD 241701Z 2418/2524 32012KT 8000 NSC
OTBH,TAF OTBH 241600Z 2416/2522 28009KT 9000 HZ SKC QNH2964INS BECMG 2419/2420 VRB06KT 9000 HZ SKC QNH2961INS BECMG 2504/2505 33010G15KT 9000 HZ SKC QNH2966INS BECMG 2507/2508 29018G28KT 8000 HZ SCT140 QNH2957INS BECMG 2513/2514 31015G22KT 8000 HZ SKC QNH2959INS BECMG 2517/2518 31009KT 9000 HZ SKC QNH2961INS TX41/2510Z TN28/2501Z
OTHH,TAF OTHH 241700Z 2418/2524 32013KT 8000 NSC
PAAQ,PAAQ 241720Z 2418/2518 35007KT P6SM VCSH SCT040 BKN100 FM242100 14009KT P6SM VCSH SCT040 BKN070 FM250800 11006KT P6SM -SHRA SCT030 OVC050 FM251400 VRB06KT P6SM VCSH SCT035 BKN050
PABE,PABE 241730Z 2418/2518 06005KT P6SM FEW025 BKN050 FM251500 11004KT P6SM SCT025 BKN050
PABI,TAF PABI 240600Z 2406/2512 VRB06KT 8000 BR OVC020 510063 QNH2934INS TEMPO 2408/2414 OVC006 BECMG 2419/2420 VRB06KT 9000 BR FEW002 SCT008 BKN016 510013 QNH2958INS BECMG 2420/2421 VRB06KT 9999 NSW FEW008 FEW060 BKN090 510013 QNH2959INS TX09/2500Z TN01/2416Z LAST NO AMDS AFT 2406 NEXT 2614
PABR,PABR 242102Z 2421/2518 08020KT 6SM BR SCT008 OVC010 TEMPO 2421/2423 1 1/2SM -SN BR OVC008
PABT,PABT 241757Z 2418/2518 32004KT P6SM VCSH SCT015 BKN035
PACD,PACD 241731Z 2418/2518 28015KT P6SM -SHRA SCT025 BKN035 FM242100 28012KT P6SM -SHRA SCT035 BKN050 FM250300 25010KT P6SM VCSH SCT050
PACV,PACV 241721Z 2418/2518 08008KT P6SM -SHRA SCT025 OVC035 TEMPO 2418/2421 2SM RA BR FM242300 10008KT 5SM -RA BR SCT015 OVC025 FM250400 09005KT 6SM -RA BR SCT025 OVC035
PADL,PADL 241730Z 2418/2518 03008KT P6SM -SHRA BKN025 OVC080 FM242000 04008KT 6SM -RA OVC025 FM242300 07009KT P6SM -SHRA BKN020 OVC030 FM251200 VRB04KT P6SM -SHRA OVC017
PADQ,PADQ 241720Z 2418/2518 15006KT P6SM -SHRA BKN035 FM250300 15006KT P6SM OVC050
PADU,PADU 241731Z 2418/2518 22006KT P6SM BKN040 OVC050 FM242300 29010G18KT P6SM VCSH BKN050
PAED,TAF PAED 241800Z 2418/2524 34009KT 9999 SCT070 BKN120 QNH2956INS BECMG 2503/2504 32006KT 9999 -SHRA FEW025 BKN040 BKN070 620409 QNH2957INS BECMG 2506/2507 36006KT 9000 -RA FEW012 BKN035 OVC070 620409 QNH2960INS BECMG 2512/2513 35009KT 9999 VCSH SCT050 BKN090 QNH2965INS TX11/2501Z TN05/2515Z
PAEI,TAF PAEI 242200Z 2422/2604 VRB06KT 9999 FEW070 BKN160 QNH2958INS BECMG 2509/2510 VRB06KT 6000 BR BKN180 QNH2963INS TEMPO 2510/2519 0800 FZFG BECMG 2518/2519 VRB06KT 9999 NSW BKN150 QNH2971INS TEMPO 2519/2522 SCT003 TX10/2501Z TNM01/2512Z
PAEN,PAEN 241720Z 2418/2518 VRB05KT P6SM SCT050 FM250300 03005KT P6SM -SHRA SCT025 OVC050 FM251200 03005KT P6SM OVC050
PAFA,PAFA 241757Z 2418/2524 VRB03KT P6SM VCSH SCT010 BKN050
PAFB,TAF AMD PAFB 240615Z 2406/2512 VRB06KT 9999 FEW025 BKN060 620609 QNH2939INS BECMG 2409/2412 VRB06KT 8000 -RA BKN010 OVC014 QNH2942INS TEMPO 2410/2415 BKN005 OVC010 BECMG 2415/2416 VRB06KT 4000 BR FEW003 SCT015 BKN050 620509 QNH2952INS TEMPO 2415/2418 1600 BR BKN003 OVC015 BECMG 2418/2419 VRB06KT 9999 NSW SCT020 QNH2962INS TX08/2502Z TN03/2416Z LAST NO AMDS AFT 2408 NEXT 2614
PAGA,PAGA 242103Z 2421/2518 VRB03KT P6SM -SHRA BKN025 OVC040 FM242300 VRB03KT P6SM VCSH SCT025 BKN040 AMD NOT SKED
PAGK,PAGK 241721Z 2418/2518 16012G20KT P6SM BKN060 FM250200 16010KT P6SM SCT045 BKN070 FM250900 16007KT P6SM VCSH BKN045
PAGS,PAGS 241734Z 2418/2518 13007KT P6SM VCSH SCT025 BKN045 OVC070 TEMPO 2418/2422 -SHRA BKN030 OVC050 FM250600 14007KT 5SM -RA BR FEW006 BKN025 OVC035 FM251200 14005KT 4SM -RA BR BKN015 OVC025 AMD LTD TO CLD VIS AND WIND
PAGY,PAGY 241734Z 2418/2518 21022G32KT P6SM VCSH SCT050 OVC080 TEMPO 2418/2422 -SHRA BKN040 OVC060 FM250300 20015G25KT 5SM -RA BR SCT015 OVC025 FM251200 21010KT 5SM BR SCT015 OVC025 AMD LTD TO CLD VIS AND WIND
PAHN,PAHN 241734Z 2418/2518 10010G20KT P6SM -SHRA SCT012 OVC050 TEMPO 2418/2422 6SM -SHRA BR BKN012 BKN020 OVC060 FM250300 10008G18KT 5SM -SHRA SCT007 BKN015 OVC040 FM250900 10005KT 4SM BR VCSH BKN007 OVC015 AMD NOT SKED
PAHO,PAHO 241720Z 2418/2518 05005KT P6SM SCT050 FM242300 12006KT P6SM -SHRA OVC050 FM250900 10005KT P6SM OVC050
PAIL,PAIL 241730Z 2418/2518 01006KT P6SM VCFG FEW001 SCT100 FM242100 10007KT P6SM -SHRA BKN025
PAJN,PAJN 241734Z 2418/2518 10012KT P6SM -SHRA FEW006 BKN035 OVC060 FM250000 10007KT 5SM -SHRA BR FEW006 BKN035 OVC050 FM250600 10011KT 4SM -RA BR SCT015 BKN025 OVC035 FM251200 11010KT 4SM -RA SCT007 BKN015 OVC025
PAKN,PAKN 241730Z 2418/2518 VRB05KT P6SM VCSH OVC070 FM242100 15009KT P6SM -SHRA BKN040 FM251200 15004KT P6SM SCT019 BKN030
PAKT,PAKT 242021Z 2420/2518 13012G22KT 3SM -RA BR SCT004 BKN014 OVC020 FM250000 14010KT 3SM -RA BR BKN014 OVC025 WS015/18030KT FM250600 14012KT 3SM -RA BR BKN007 OVC014 WS015/16035KT AMD LTD TO CLD VIS AND WIND 2506/2515
PAKW,PAKW 241734Z 2418/2518 17005KT P6SM VCSH SCT030 BKN040 BKN070 FM250000 VRB03KT 5SM -RA BR SCT010 OVC025 FM250600 05010KT 4SM -RA BR SCT007 OVC015 WS020/18030KT FM251200 19008KT 3SM -RA BR BKN007 OVC015 AMD LTD TO CLD VIS AND WIND
PAMC,PAMC 241757Z 2418/2518 VRB06KT 1/4SM FG VV003 TEMPO 2418/2420 2SM BR BKN002 OVC070 FM242000 VRB03KT 2SM BR BKN002 OVC070 FM242200 VRB04KT P6SM VCSH SCT002 BKN070 AMD LTD TO CLD VIS WX
PANC,PANC 241720Z 2418/2524 VRB05KT P6SM VCSH FEW050 BKN070 TEMPO 2418/2421 13008G17KT FM250000 14007KT P6SM VCSH SCT035 BKN050 FM250600 VRB06KT P6SM -SHRA SCT030 OVC050 FM251200 VRB06KT P6SM VCSH SCT040 BKN070 FM252100 15009G18KT P6SM VCSH SCT040 BKN060
PAOM,PAOM 241757Z 2418/2518 03008KT P6SM -SHRA BKN025 BKN040
PAOR,PAOR 241757Z 2418/2518 VRB04KT P6SM BKN120
PAOT,PAOT 242104Z 2421/2518 05008KT P6SM VCSH SCT025 OVC050 FM242200 09010KT P6SM -SHRA BKN025
PAPG,PAPG 241734Z 2418/2518 25004KT P6SM BCFG FEW002 OVC050 TEMPO 2418/2422 -SHRA SCT002 OVC020 FM242200 VRB04KT 5SM -SHRA BR BKN030 OVC050 FM250600 VRB03KT 4SM -RA BR SCT007 OVC025 FM250900 10005KT 4SM -RA BR BKN007 OVC015 FM251400 10002KT 2SM -RA BR SCT003 OVC007 AMD LTD TO CLD VIS AND WIND 2506/2515
PAQT,PAQT 241908Z 2419/2518 04009KT 2SM BR OVC005 TEMPO 2419/2420 1/2SM FG OVC003 FM242000 08012KT 3SM BR OVC005 FM242330 07018KT 6SM -SN BR OVC010
PASC,PASC 241757Z 2418/2518 08012KT 3SM BR OVC005 FM242330 07018KT 6SM -SN BR OVC010
PASD,PASD 241731Z 2418/2518 30006KT P6SM SCT025 BKN035 FM242100 25012KT P6SM -SHRA SCT020 BKN040 FM250200 22010KT P6SM VCSH BKN050 FM251000 VRB03KT P6SM SCT080
PASI,PASI 241734Z 2418/2518 09008KT P6SM VCSH FEW025 OVC070 TEMPO 2418/2422 4SM -SHRA BR BKN030 OVC040 FM242200 14007KT P6SM VCSH OVC050 FM250600 13009KT 4SM -RA BR FEW007 BKN025 OVC035 FM251200 13010KT 3SM -RA BR SCT007 BKN015 OVC025
PASN,PASN 241731Z 2418/2518 33015G25KT P6SM VCSH SCT015 BKN020 OVC050 TEMPO 2418/2421 SCT015 BKN035 FM242100 34020G30KT P6SM -SHRA OVC015 FM250900 34020G30KT P6SM -SHRA OVC035
PASY,TAF PASY 241400Z 2414/2520 VRB06KT 9999 FEW010 SCT025 QNH2988INS BECMG 2512/2513 15012G18KT 9999 BKN024 BKN045 OVC060 QNH2984INS BECMG 2517/2518 14025G35KT 8000 -RA BKN015 OVC030 510002 QNH2960INS TX11/2416Z TN07/2514Z LIMITED METWATCH 2414 TIL 2417
PATA,PATA 241757Z 2418/2518 09005KT P6SM VCSH BKN050
PATK,PATK 241720Z 2418/2518 VRB05KT P6SM VCSH SCT035 OVC060 FM251200 VRB04KT P6SM -SHRA BKN035 OVC060
PAUN,PAUN 241757Z 2418/2518 08009KT P6SM VCSH BKN035
PAVD,PAVD 241721Z 2418/2518 VRB05KT P6SM -RA FEW010 BKN040 FM250600 VRB03KT 6SM -RA BR SCT015 BKN025 FM251500 VRB03KT P6SM -RA SCT025 OVC035
PAWG,PAWG 241734Z 2418/2518 VRB04KT P6SM VCSH FEW025 BKN050 FM250300 12007KT 5SM -RA BR SCT015 OVC025 FM251200 11008KT 4SM -RA BR BKN007 OVC015 AMD LTD TO CLD VIS AND WIND 2506/2515
PAYA,PAYA 242126Z 2421/2518 10010KT P6SM VCTS SCT020CB OVC045 TEMPO 2421/2501 -SHRA BKN012 OVC020 FM250100 12008KT 5SM -SHRA VCTS FEW010 BKN020CB OVC035 FM250900 10004KT P6SM VCSH SCT035 OVC050 AMD LTD TO CLD VIS AND WIND
PGRO,PGRO 240520Z 2406/2506 08007KT P6SM VCSH SCT015 SCT100 TEMPO 2406/2410 3SM SHRA BKN015 BKN050
PGSN,PGSN 241728Z 2418/2518 23011KT 6SM -RA VCSH SCT015 SCT030 OVC070 TEMPO 2418/2422 VRB05G15KT 3SM +SHRA SCT008 BKN015 OVC030 FM242200 23015KT 6SM -RA VCSH SCT015 BKN025 OVC050
PGUA,TAF PGUA 241800Z 2418/2524 20009KT 9999 VCSH SCT015 QNH2966INS TEMPO 2422/2505 19015G25KT 1600 -TSRA OVC012CB TEMPO 2505/2518 20012G18KT 3200 -SHRA BKN012 TX29/2502Z TN23/2418Z
PGUM,PGUM 241728Z 2418/2524 23014KT 6SM -RA VCSH SCT020 BKN040 OVC100 TEMPO 2420/2424 23015G25KT 3SM +SHRA SCT015 BKN025 OVC040 FM250000 23014G22KT P6SM VCSH SCT020 BKN040 OVC100
PGWT,PGWT 240520Z 2406/2506 07009KT P6SM VCSH SCT015 SCT100
PHHI,TAF PHHI 240700Z 2407/2513 VRB06KT 9999 SCT030 QNH2998INS BECMG 2420/2421 13009KT 9999 BKN035 QNH2995INS TEMPO 2423/2504 18010G15KT 3200 SHRA SCT010 BKN020 BECMG 2504/2505 VRB06KT 9999 FEW035 QNH2994INS TX30/2423Z TN20/2415Z LAST NO AMDS AFT 2409 NEXT 2615
PHJH,PHJH 241743Z 2418/2518 13008KT P6SM FEW030 FM242100 03011KT P6SM SCT025 BKN045 FM250500 11008KT P6SM FEW030
PHJR,PHJR 241743Z 2418/2518 04004KT P6SM FEW040 FM242100 16010KT P6SM BKN040 FM250500 04004KT P6SM FEW030
PHKO,PHKO 241743Z 2418/2518 VRB06KT P6SM SCT050 BKN250 FM242000 23006KT P6SM SCT050 BKN250 FM250500 VRB06KT P6SM SCT050 FM251000 11006KT P6SM SKC
PHLI,PHLI 241743Z 2418/2518 28007KT P6SM FEW030 SCT045 FM242100 11008KT P6SM VCSH SCT025 BKN045 FM250500 28007KT P6SM FEW030 SCT045
PHMK,PHMK 241743Z 2418/2518 01004KT P6SM FEW030 FEW045 FM242100 06011KT P6SM SCT025 BKN045 FM250800 01004KT P6SM FEW025 FEW045
PHNG,TAF PHNG 2403/2503 10010G16KT 9999 FEW025 SCT035 SCT050 QNH2988INS TEMPO 2403/2409 VRB06KT BKN025 BKN035 T24/2416Z T29/2423Z LAST NO AMDS AFT 2403 NEXT 2615
PHNL,PHNL 242120Z 2421/2524 14011KT P6SM SCT025 BKN045 FM250300 08011KT P6SM SCT025 BKN045 FM251000 01004KT P6SM FEW025 FEW045 FM252100 13011KT P6SM FEW030 SCT045
PHNY,PHNY 241743Z 2418/2518 02008KT P6SM FEW035 FM242000 25006KT P6SM BKN025 FM250500 02008KT P6SM FEW035
PHOG,PHOG 241743Z 2418/2518 15005KT P6SM FEW040 FM242000 06015KT P6SM FEW030 SCT050 WS003/12020KT FM250500 15005KT P6SM FEW040
PHTO,PHTO 241743Z 2418/2518 24005KT P6SM VCSH SCT025 BKN035 BKN250 FM242000 11012KT P6SM SCT030 BKN045 BKN250 FM250500 24004KT P6SM VCSH SCT025 BKN040
PKMJ,PKMJ 241728Z 2418/2518 14008KT P6SM VCSH SCT015 SCT050
PKWA,PKWA 241728Z 2418/2518 09007KT P6SM VCSH SCT020 SCT120 TEMPO 2418/2421 3SM +TSRA BKN014CB OVC090
PLCH,TAF PLCH 241708Z 2418/2518 11004KT 9999 SCT020
PMDY,PMDY 241743Z 2418/2518 04010KT P6SM VCSH FEW025 BKN035
PTKK,PTKK 241728Z 2418/2518 11007KT P6SM VCSH FEW014 SCT120
PTPN,PTPN 242037Z 2421/2518 07007KT P6SM VCSH SCT020 BKN120
PTRO,PTRO 241728Z 2418/2518 27011KT P6SM VCSH SCT015 BKN110
PTSA,PTSA 240043Z 2401/2424 14006KT P6SM FEW020 FM241200 13006KT P6SM VCSH SCT020
PTYA,PTYA 241728Z 2418/2518 25015KT P6SM VCSH SCT016 BKN100
PWAK,TAF PWAK 242200Z 2422/2604 03020KT 9000 -SHRA FEW025 QNH2984INS TX29/2506Z TN27/2423Z FOR MIL USE ONLY LIMITED METWATCH 2422 TIL 2604
RCFN,TAF RCFN 241700Z 2418/2518 03010KT 9999 FEW012 BKN032 TEMPO 2420/2501 35005KT SCT010 BKN020 TEMPO 2504/2510 06015G25KT SCT010 BKN020
RCKH,TAF RCKH 241700Z 2418/2524 06005KT 9999 FEW012 BKN032 TEMPO 2418/2424 5000 BR FEW010 BKN020 BECMG 2500/2502 26008KT BECMG 2510/2512 20005KT TEMPO 2518/2524 06005KT
RCMQ,TAF RCMQ 241700Z 2418/2518 01006KT 9999 FEW012 TX30/2505Z TN23/2421Z TEMPO 2419/2423 FEW012 BKN060 BECMG 2500/2502 01015KT TEMPO 2503/2508 FEW012 BKN060 BECMG 2512/2515 01006KT FEW012 SCT060
RCNN,TAF RCNN 241700Z 2418/2518 06004KT 9999 FEW012 BKN050 TX32/2504Z TN24/2420Z BECMG 2419/2422 FEW012 SCT050 BECMG 2501/2504 34006KT FEW012 BKN100 TEMPO 2508/2513 8000 -RA SCT010 BKN025 BKN060 BECMG 2514/2517 03004KT FEW012 BKN050
RCSS,TAF RCSS 241700Z 2418/2518 10008KT 9999 FEW010 BKN022 BKN040 TEMPO 2420/2501 4000 RA SCT010 BKN015 BKN030 TEMPO 2503/2509 09015KT 4000 RA SCT010 BKN015 BKN030 BECMG 2511/2513 FEW012 BKN032
RCTP,TAF RCTP 241700Z 2418/2524 05018KT 9999 SCT010 BKN022 BKN040 TEMPO 2419/2501 4000 RA SCT006 BKN011 BKN030 TEMPO 2503/2509 04025KT 4000 RA SCT008 BKN015 BKN030 BECMG 2511/2513 FEW012 BKN032 TEMPO 2518/2524 08012KT
RJAA,TAF RJAA 241706Z 2418/2600 01014KT 9999 FEW030
RJAH,TAF RJAH 241707Z 2418/2600 02005KT 9999 FEW015 BKN040
RJBB,TAF RJBB 241705Z 2418/2600 04013KT 9999 FEW020 BECMG 2504/2506 29007KT BECMG 2512/2515 07005KT
RJCB,TAF RJCB 241706Z 2418/2600 16004KT 9999 FEW006 SCT015 TEMPO 2418/2421 1500 BR FEW001 BKN003 BECMG 2500/2502 34012KT
RJCC,TAF RJCC 241705Z 2418/2600 21005KT 9999 FEW020 SCT040 BECMG 2423/2501 36010KT BECMG 2521/2600 17006KT
RJCH,TAF RJCH 241708Z 2418/2600 28010KT 9999 FEW015 SCT030 BECMG 2512/2515 02005KT BECMG 2521/2600 27004KT
RJCK,TAF RJCK 241709Z 2418/2600 25006KT 9999 FEW015 SCT030 BECMG 2501/2503 20009KT BECMG 2509/2512 01007KT
RJCM,TAF RJCM 241711Z 2418/2600 20006KT 9999 FEW005 SCT015 BECMG 2500/2502 32006KT BECMG 2506/2509 20005KT
RJEC,TAF RJEC 241707Z 2418/2600 17006KT 9999 FEW025 BKN040 BECMG 2500/2502 29012KT BECMG 2509/2512 17006KT
RJFF,TAF RJFF 241705Z 2418/2600 11005KT 9999 FEW025 BECMG 2502/2504 32011KT BECMG 2509/2512 14004KT
RJFK,TAF RJFK 241706Z 2418/2600 01004KT 9999 FEW020 BECMG 2423/2501 13006KT
RJFM,TAF RJFM 241706Z 2418/2600 28004KT 9999 FEW020 BECMG 2423/2501 05008KT BECMG 2515/2518 28006KT
RJFO,TAF RJFO 241705Z 2418/2600 04008KT 9999 FEW030 BECMG 2509/2512 24004KT
RJFR,TAF RJFR 241705Z 2418/2600 03008KT 9999 FEW030 BECMG 2423/2501 10007KT BECMG 2506/2509 06005KT
RJFS,TAF RJFS 241706Z 2418/2600 03005KT 9999 FEW020 BECMG 2503/2505 24005KT BECMG 2515/2518 02005KT
RJFT,TAF RJFT 241706Z 2418/2600 06004KT 9999 FEW020 BECMG 2423/2501 23005KT BECMG 2515/2518 06004KT
RJFU,TAF RJFU 241705Z 2418/2600 14003KT 9999 FEW015 SCT030 BECMG 2501/2503 33005KT BECMG 2512/2515 13004KT
RJGG,TAF RJGG 241705Z 2418/2600 32012KT 9999 FEW030 BKN040 BECMG 2503/2505 15008KT BECMG 2515/2518 36006KT
RJNK,TAF RJNK 241705Z 2418/2600 04010KT 9999 FEW030 BECMG 2512/2515 14004KT
RJNS,TAF RJNS 241705Z 2418/2600 09005KT 9999 FEW015 BKN030 TEMPO 2418/2421 FEW003 BKN005 BECMG 2509/2512 31004KT
RJNT,TAF RJNT 241705Z 2418/2600 20004KT 9999 FEW020 BECMG 2422/2500 01010KT BECMG 2509/2512 22004KT
RJOA,TAF RJOA 241705Z 2418/2600 35006KT 9999 FEW025 BECMG 2422/2500 12006KT BECMG 2512/2515 32006KT
RJOB,TAF RJOB 241705Z 2418/2600 02004KT 9999 FEW030
RJOC,TAF RJOC 241705Z 2418/2600 18005KT 9999 FEW015 BECMG 2423/2501 06012KT BECMG 2512/2515 18005KT
RJOH,TAF RJOH 241706Z 2418/2600 18004KT 9999 FEW020 BECMG 2500/2502 05012KT BECMG 2512/2515 18004KT
RJOI,TAF RJOI 2415/2515 01010KT 9999 FEW020 BKN200 QNH2994INS FM250400 07008KT 9999 FEW030 SCT180 QNH2992INS BECMG 2512/2514 09006KT 9999 FEW020 SCT090 BKN180 QNH2997INS T19/2421Z T26/2506Z
RJOK,TAF RJOK 241708Z 2418/2600 35007KT 9999 FEW030 BECMG 2501/2503 19009KT BECMG 2509/2512 35006KT
RJOM,TAF RJOM 241706Z 2418/2600 07004KT 9999 FEW025 BECMG 2422/2500 35008KT BECMG 2509/2512 12006KT BECMG 2521/2600 35005KT
RJOO,TAF RJOO 241707Z 2418/2600 34005KT 9999 FEW020 BECMG 2501/2503 06004KT BECMG 2509/2512 32005KT
RJOT,TAF RJOT 241706Z 2418/2600 06008KT 9999 FEW025
RJSA,TAF RJSA 241705Z 2418/2600 22008KT 9999 FEW020 SCT040 BECMG 2422/2500 28010KT BECMG 2509/2512 20004KT
RJSF,TAF RJSF 241705Z 2418/2600 36010KT 9999 FEW020 SCT040 BECMG 2506/2509 12004KT
RJSI,TAF AMD RJSI 242045Z 2420/2600 01004KT 9999 FEW030 TEMPO 2420/2422 1500 BR FEW001 BKN003 BECMG 2503/2505 19005KT BECMG 2512/2515 01004KT
RJSK,TAF RJSK 241706Z 2418/2600 14004KT 1500 BR FEW001 BKN003 TEMPO 2418/2500 0500 FG BECMG 2500/2502 30010KT 9999 NSW FEW030 BECMG 2512/2515 12004KT
RJSN,TAF RJSN 241705Z 2418/2600 20006KT 9999 FEW020 SCT040 BECMG 2500/2502 02010KT BECMG 2512/2515 16004KT
RJSS,TAF RJSS 241705Z 2418/2600 34004KT 9999 FEW020 BECMG 2500/2502 12010KT BECMG 2512/2515 32004KT
RJTT,TAF RJTT 241705Z 2418/2600 04010KT 9999 FEW020 BKN060 BECMG 2503/2505 08010KT BECMG 2512/2515 02006KT
RJTY,TAF RJTY 242100Z 2421/2603 05006KT 9999 FEW050 FEW070 SCT160 BKN220 QNH2999INS TEMPO 2421/2424 SCT015 BKN050 BKN070 BECMG 2500/2502 08009KT 9999 SCT050 BKN160 BKN220 QNH3000INS BECMG 2511/2512 01006KT 9999 FEW035 BKN050 BKN160 QNH3006INS TEMPO 2518/2521 SCT008 BKN035 BECMG 2522/2523 09006KT 9999 FEW035 SCT050 BKN160 QNH3004INS TX27/2507Z TN19/2421Z
RKJB,TAF RKJB 241700Z 2418/2524 11006KT CAVOK TN16/2421Z TX23/2504Z TN16/2521Z BECMG 2503/2504 35007KT BECMG 2514/2515 11005KT
RKNY,TAF RKNY 241700Z 2418/2524 25005KT CAVOK TN14/2420Z TX22/2505Z TN15/2520Z BECMG 2423/2501 12006KT BECMG 2508/2510 18010KT BECMG 2512/2513 25006KT
RKPC,TAF RKPC 241700Z 2418/2524 13006KT CAVOK TN19/2420Z TX24/2504Z TN20/2520Z BECMG 2501/2502 07010KT 9999 SCT030 BKN150 BECMG 2510/2511 13006KT BECMG 2523/2524 03008KT
RKPK,TAF RKPK 241700Z 2418/2524 03006KT CAVOK TN16/2421Z TX25/2506Z
RKSG,TAF RKSG 241900Z 2419/2601 VRB06KT 9999 FEW150 BKN210 BKN290 QNH2999INS TX21/2506Z TN11/2421Z
RKSI,TAF RKSI 241700Z 2418/2524 06006KT CAVOK TN16/2420Z TX23/2505Z TN16/2520Z BECMG 2423/2501 16006KT TEMPO 2502/2504 25006KT BECMG 2504/2506 29007KT BECMG 2514/2516 07006KT
RKSM,TAF RKSM 241700Z 2418/2524 30006KT 9999 BKN200 TN14/2421Z TX24/2506Z
RKSO,TAF RKSO 241300Z 2413/2519 VRB06KT 9999 SCT240 QNH3002INS TX21/2505Z TN13/2421Z LAST NO AMDS AFT 2413 NEXT 2521
RKSS,TAF RKSS 241700Z 2418/2524 04005KT CAVOK TN14/2420Z TX25/2505Z TN13/2521Z BECMG 2420/2422 15005KT BECMG 2501/2503 30006KT BECMG 2513/2515 06005KT 6000 NSC
RKTN,TAF RKTN 241700Z 2418/2524 09006KT 9999 SCT030 BKN200 TN13/2421Z TX25/2506Z
RKTU,TAF RKTU 241700Z 2418/2524 36006KT CAVOK TN11/2421Z TX24/2506Z
ROAH,TAF AMD ROAH 241954Z 2419/2600 08012KT 9999 FEW015 SCT025 TEMPO 2419/2422 4000 SHRA FEW010 BKN020 FEW025CB BECMG 2512/2515 10010KT
RODN,TAF AMD RODN 242120Z 2421/2522 01009KT 9999 VCSH BKN025 QNH2983INS TEMPO 2421/2424 04010G15KT 6000 -TSRA BKN018CB TEMPO 2503/2508 08010G15KT 8000 -SHRA VCTS BKN020CB BECMG 2517/2518 09012KT 9999 NSW SCT018 QNH2979INS TX31/2503Z TN25/2421Z
ROIG,TAF ROIG 241706Z 2418/2600 05010KT 9999 FEW015 BKN025
ROTM,TAF ROTM 2421/2521 10005KT 9999 SCT015 SCT060 BKN150 QNH2977INS TEMPO 2501/2503 11007KT 9000 -SHRA BKN015 BKN060 BKN150 BECMG 2509/2511 11005KT 9999 FEW020 SCT060 BKN150 QNH2978INS FM252000 09010KT 9999 SCT015 SCT060 BKN150 QNH2976INS T30/2504Z T26/2518Z
RPLB,TAF RPLB 241700Z 2418/2518 12004KT 9999 SCT018 BKN080 TX30/2506Z TN24/2420Z TEMPO 2418/2424 07008KT 7000 -SHRA BKN018 OVC070
RPLC,TAF RPLC 241700Z 2418/2524 36012KT 7000 -RA SCT020 OVC100 TX30/2506Z TN25/2421Z TEMPO 2418/2424 34010KT SCT020 BKN100
RPLI,TAF RPLI 241700Z 2418/2518 02012KT 9999 FEW018 BKN100 TEMPO 2418/2424 06006KT 7000 -RA SCT018 OVC090
RPLL,TAF RPLL 241700Z 2418/2524 27008KT 9999 SCT023 BKN100 TX30/2506Z TN25/2420Z TEMPO 2418/2424 VRB03KT 7000 -RA SCT023 OVC090 TEMPO 2500/2506 29014KT 7000 -TSRA FEW020CB SCT022 OVC090
RPMD,TAF RPMD 241700Z 2418/2518 16008KT 9999 FEW016 SCT090 BKN290 TEMPO 2418/2424 32003KT FEW015CB BKN090
RPMR,TAF RPMR 241700Z 2418/2518 16008KT 9999 FEW018 BKN250 TEMPO 2418/2424 25003KT -SHRA FEW017CB BKN080
RPMZ,TAF RPMZ 241700Z 2418/2518 27007KT 9999 FEW017 BKN090 TEMPO 2418/2424 VRB02KT -SHRA FEW016CB BKN090
RPVD,TAF RPVD 241700Z 2418/2518 27008KT 9999 FEW015 BKN070 TEMPO 2418/2424 33004KT TEMPO 2503/2509 29012KT 7000 -TSRA FEW014CB OVC070
RPVM,TAF RPVM 241700Z 2418/2524 32012KT 9999 FEW020 BKN100 TEMPO 2418/2424 24010KT -RA SCT020 OVC090 TEMPO 2500/2506 22014KT -SHRA FEW018CB OVC100
RPVP,TAF RPVP 241700Z 2418/2518 27006KT 9999 FEW019 BKN080 TEMPO 2418/2424 33004KT -SHRA FEW017CB OVC080
SAAR,TAF SAAR 241700Z 2418/2518 06010KT CAVOK TX25/2419Z TN11/2510Z BECMG 2419/2421 11010KT BECMG 2504/2506 06005KT 
SABE,TAF SABE 241700Z 2418/2518 09010KT CAVOK TX20/2518Z TN13/2510Z BECMG 2506/2508 05010KT
SACO,TAF SACO 241700Z 2418/2518 02020G30KT CAVOK TX23/2518Z TN07/2510Z BECMG 2500/2503 34005KT 9999 SCT030 BKN060 BECMG 2507/2510 18010KT 7000 RA SCT040 FEW050CB BKN060
SADF,TAF SADF 271700Z 2418/2518 09010KT CAVOK TX23/2419Z TN11/2509Z BECMG 2503/2505 05005KT BECMG 2513/2515 02010KT
SAEZ,TAF SAEZ 241700Z 2418/2518 05010KT CAVOK TX23/2418Z TN09/2510Z BECMG 2504/2506 07005KT PROB40 2507/2510 VRB03KT 5000 BR BECMG 2512/2514 05010KT
SAME,TAF SAME 241700Z 2418/2518 16010KT 9999 SCT030 FEW045CB TX24/2420Z TN05/2510Z BECMG 2500/2502 18015KT PROB40 TEMPO 2502/2506 18017KT VIS6000M TSRA BKN030 FEW040CB BECMG 2508/2510 FEW040 BECMG 2510/2512 18008KT
SANR,TAF SANR 241700Z 2418/2518 18010KT CAVOK TX27/2518Z TN10/2510Z BECMG 2500/2503 09005KT 9999 SCT030 BECMG 2511/2514 20005KT 9999 BKN030
SANT,TAF SANT 241100Z 2412/2512 34005KT CAVOK TX28/2418Z TN07/2510Z BECMG 2413/2416 18005KT 6000 FU NSC BECMG 2419/2422 05010KT CAVOK BECMG 2502/2504 36005KT 8000 NSC
SARE,TAF SARE 241700Z 2418/2518 09010KT CAVOK TX26/2418Z TN11/2510Z
SARF,TAF SARF 241700Z 2418/2518 07010KT CAVOK TX26/2418Z TN12/2510Z
SARI,TAF SARI 241700Z 2418/2518 02005KT CAVOK TX25/2418Z TN09/2510Z
SARP,TAF SARP 241700Z 2418/2518 09010KT CAVOK TX25/2418Z TN11/2510Z
SASA,TAF SASA 241700Z 2418/2518 36010KT CAVOK TX25/2518Z TN05/2510Z BECMG 2419/2421 05010KT BECMG 2500/2503 32005KT BECMG 2515/2518 05010KT 9999 SCT025 FEW030TCU
SASJ,TAF SASJ 241700Z 2418/2518 05010KT CAVOK TX27/2518Z TN09/2510Z BECMG 2500/2503 29005KT BECMG 2515/2518 09010KT 9999 SCT030 FEW040TCU
SAVC,TAF SAVC 241700Z 2418/2518 27025G35KT CAVOK TX16/2418Z TN06/2510Z TEMPO 2419/2423 VRB05KT 9999 -DZ SCT030 BKN045 BECMG 2500/2502 35010KT CAVOK 
SAWE,TAF SAWE 241700Z 2418/2518 27015G30KT CAVOK TX07/2418Z TN00/2410Z BECMG 2504/2506 34015KT 9999 DZ BKN030 OVC050 
SAWG,TAF SAWG 241700Z 2418/2518 25020G30KT 9999 DZ FEW030 TX10/2418Z TN02/2510Z BECMG 2421/2423 VRB05KT CAVOK BECMG 2501/2503 35010KT 
SAWH,TAF SAWH 241700Z 2418/2518 21015KT 9999 RA-SN SCT020 OVC040 TX08/2418Z TN00/2510Z BECMG 2423/2501 36010KT 9999 DZ BKN035 BECMG 2508/2510 9999 NSW SCT030 
SAZM,TAF SAZM 241700Z 2418/2518 02010KT CAVOK TX21/2418Z TN08/2509Z BECMG 2420/2422 09010KT 9999 SCT040 BECMG 2502/2504 VRB03KT 9999 BKN020 BECMG 2512/2514 14010KT 9999 SCT030 
SAZN,TAF SAZN 241700Z 2418/2518 27005KT 9999 SCT030 BKN045 TX20/2419Z TN06/2510Z TEMPO 2418/2423 8000 -RA BKN035 BECMG 2423/2501 34005KT 9999 SCT045 BECMG 2505/2507 25010KT
SAZS,TAF SAZS 241700Z 2418/2518 29010KT CAVOK TX12/2419Z TNM01/2511Z BECMG 2423/2401 VRB03KT BECMG 2503/2505 16005KT 9999 FEW030 BECMG 2512/2514 29020KT
SBAC,TAF SBAC 240908Z 2412/2424 06012KT 9999 FEW025 TX31/2416Z TN27/2421Z RMK PHC
SBAF,TAF SBAF 241500Z 2418/2506 19005KT 9999 SCT030 TX23/2418Z TN18/2506Z RMK PDZ
SBAN,TAF SBAN 241500Z 2418/2506 14005KT 9999 SCT040 FEW045TCU TX29/2418Z TN20/2506Z TEMPO 2422/2503 6000 TSRA BKN015 FEW045CB RMK PDZ
SBAT,TAF SBAT 241500Z 2418/2506 16005KT 7000 SCT030 FEW035TCU TX27/2419Z TN26/2506Z RMK PGY
SBBE,TAF SBBE 241500Z 2418/2518 35005KT 9999 SCT030 TN25/2508Z TX30/2515Z TEMPO 2419/2421 35010G20KT SCT025 FEW030TCU BECMG 2500/2502 06005KT BECMG 2506/2508 07005KT BECMG 2514/2516 34010KT RMK PGY
SBBI,TAF SBBI 241500Z 2418/2506 07005KT 9999 SCT020 TX20/2418Z TN07/2506Z BECMG 2500/2502 BKN006 RMK PDZ
SBBU,TAF SBBU 241630Z 2418/2506 14015KT CAVOK TX26/2418Z TN12/2505Z TEMPO 2422/2502 15010G20KT RMK PGD
SBBV,TAF SBBV 241500Z 2418/2518 11010KT 9999 SCT020 TN25/2508Z TX35/2517Z BECMG 2418/2420 09006KT BECMG 2503/2505 05005KT RMK PGY
SBBW,TAF SBBW 241630Z 2418/2506 09005KT 9999 FEW023 TX33/2419Z TN25/2505Z RMK PGQ
SBCJ,TAF SBCJ 241500Z 2418/2506 05005KT 7000 NSC TX31/2419Z TN25/2506Z BECMG 2418/2421 09006KT SCT020 FEW030TCU RMK PGY
SBCO,TAF SBCO 241500Z 2418/2506 15012KT CAVOK TX19/2418Z TN11/2505Z BECMG 2503/2505 09004KT RMK PFP
SBCY,TAF SBCY 241500Z 2418/2518 13006KT CAVOK TN21/2509Z TX29/2517Z BECMG 2421/2423 09005KT BECMG 2502/2504 18005KT BECMG 2512/2514 13005KT FEW020 RMK PGY
SBCZ,TAF SBCZ 241500Z 2418/2518 18005KT 6000 NSC TN24/2508Z TX26/2517Z TEMPO 2419/2423 6000 TS BKN017 FEW030CB BECMG 2500/2502 22005KT SCT015 BECMG 2512/2514 12005KT 5000 TSRA FEW015 FEW030CB RMK PGY
SBDN,TAF SBDN 241630Z 2418/2506 14013KT CAVOK TX26/2418Z TN13/2505Z RMK PGD
SBEG,TAF SBEG 241500Z 2418/2518 03005KT 9999 SCT020 FEW030TCU TN24/2508Z TX34/2517Z BECMG 2500/2502 00000KT BECMG 2510/2512 31005KT BECMG 2514/2516 02005KT RMK PGY
SBGW,TAF SBGW 241500Z 2418/2506 30005KT 9999 FEW030 TX25/2418Z TN09/2506Z RMK PDZ
SBIH,TAF SBIH 241500Z 2418/2506 08005KT 7000 FEW020 TX36/2419Z TN26/2506Z RMK PGY
SBIL,TAF SBIL 241630Z 2418/2506 09010KT 8000 SCT020 TX28/2418Z TN26/2423Z BECMG 2422/2424 20005KT RMK PGQ
SBIZ,TAF SBIZ 241500Z 2418/2506 19006KT 9999 SCT030 TX37/2419Z TN26/2506Z TEMPO 2421/2423 TS BKN017 FEW030CB BECMG 2500/2502 08005KT RMK PGY
SBJE,TAF SBJE 240908Z 2412/2424 09012KT 9999 FEW020 TX34/2417Z TN27/2423Z BECMG 2412/2415 06012KT RMK PHC
SBJV,TAF SBJV 241700Z 2418/2506 09005KT 9999 SCT020 TX20/2418Z TN14/2505Z BECMG 2502/2504 25005KT RMK PFF
SBKG,TAF SBKG 241530Z 2418/2506 08010KT 8000 SCT030 TX31/2418Z TN21/2506Z BECMG 2421/2423 SCT015 BECMG 2503/2506 10007KT 4000 BR BKN007 RMK PHN
SBMA,TAF SBMA 241500Z 2418/2506 35005KT 9999 SCT030 TX37/2419Z TN26/2506Z BECMG 2500/2502 21005KT 5000 FU NSC RMK PGY
SBME,TAF SBME 241530Z 2418/2506 21013KT 8000 SCT020 TX25/2418Z TN19/2506Z PROB40 2418/2422 24015G25KT BECMG 2422/2424 24010KT BECMG 2503/2506 27007KT RMK PHN
SBMQ,TAF SBMQ 241500Z 2418/2518 08005KT 9999 SCT030 TN25/2508Z TX34/2517Z BECMG 2500/2502 02005KT BECMG 2510/2512 09005KT FEW035 RMK PGY
SBNT,TAF SBNT 241530Z 2418/2506 11015KT 8000 BKN022 TX30/2418Z TN25/2506Z BECMG 2420/2423 12010KT SCT017 RMK PHN
SBOI,TAF SBOI 241500Z 2418/2506 06005KT 9999 FEW020 TX34/2419Z TN28/2506Z RMK PGY
SBPK,TAF SBPK 241500Z 2418/2518 12007KT CAVOK TN09/2504Z TX18/2517Z BECMG 2501/2503 06004KT BECMG 2510/2512 9999 BKN020 PROB30 2513/2517 07010G20KT RMK PFP
SBPV,TAF SBPV 241500Z 2418/2518 16005KT 9999 FEW020 TN24/2508Z TX28/2517Z BECMG 2500/2502 21005KT FEW030 FEW035TCU PROB30 TEMPO 2508/2512 3500 BR BECMG 2514/2516 10005KT FEW020 FEW035TCU RMK PGY
SBRB,TAF SBRB 241500Z 2418/2506 24010KT 3500 FU BKN020 TX24/2419Z TN20/2506Z TEMPO 2500/2502 14005KT 4000 TSRA SCT020 FEW035CB RMK PGY
SBSC,TAF SBSC 241500Z 2418/2506 20005KT 9999 SCT030 TX23/2418Z TN19/2506Z RMK PDZ
SBSM,TAF SBSM 241500Z 2418/2506 09010KT CAVOK TX20/2418Z TN09/2505Z RMK PFP
SBSN,TAF SBSN 241500Z 2418/2518 05010KT CAVOK TN24/2508Z TX33/2517Z BECMG 2421/2423 13005KT BECMG 2500/2502 16005KT BECMG 2508/2510 09006KT BECMG 2514/2516 07010KT FEW020 RMK PGY
SBTD,TAF SBTD 240830Z 2412/2424 09010KT CAVOK TN15/2412Z TX22/2418Z TEMPO 2415/2418 03008KT PROB30 2422/2424 FEW025TCU RMK PHH
SBTF,TAF SBTF 241500Z 2418/2506 06005KT 9999 TS BKN017 FEW030CB TX35/2419Z TN26/2506Z BECMG 2500/2502 11005KT NSW NSC RMK PGY
SBTT,TAF SBTT 241500Z 2418/2518 16005KT 9999 SCT020 TN23/2508Z TX25/2517Z TEMPO 2419/2423 6000 TS BKN017 FEW030CB BECMG 2510/2512 23005KT TS SCT020 FEW025CB RMK PGY
SBUG,TAF SBUG 241500Z 2418/2506 09015KT CAVOK TX21/2418Z TN13/2504Z RMK PFP
SBUL,TAF SBUL 241630Z 2418/2506 19005KT CAVOK TX30/2418Z TN19/2505Z BECMG 2418/2420 19008KT RMK PGQ
SBUR,TAF SBUR 241630Z 2418/2506 19007KT CAVOK TX29/2419Z TN16/2505Z BECMG 2501/2503 08005KT RMK PGQ
SBVH,TAF SBVH 241500Z 2418/2506 07010KT CAVOK TX28/2419Z TN20/2506Z TEMPO 2419/2423 05010G20KT 6000 TS BKN017 FEW030CB RMK PGY
SBYS,TAF SBYS 241500Z 2418/2506 16005KT 9999 FEW030 TX26/2418Z TN12/2506Z RMK PDZ
SCAR,TAF SCAR 241612Z 2418/2518 22012KT CAVOK TX17/2418Z TN14/2510Z BECMG 2423/2501 21004KT OVC025 BECMG 2516/2518 22012KT CAVOK
SCAT,TAF COR SCAT 241640Z 2418/2518 28010KT 9999 FEW025 TX17/2418Z TN09/2510Z BECMG 2420/2422 24014KT CAVOK BECMG 2501/2503 24004KT BECMG 2504/2506 7000 OVC012 BECMG 2512/2514 CAVOK BECMG 2516/2518 24015KT
SCBA,TAF SCBA 241606Z 2418/2518 29020KT 9999 FEW040 TX12/2419Z TN00/2506Z BECMG 2504/2506 29008KT SCT020 BKN040 BECMG 2514/2516 29015KT SCT025 BKN070
SCCF,TAF SCCF 241613Z 2418/2518 27022KT CAVOK TX21/2418Z TNM02/2510Z TEMPO 2418/2421 29025G35KT BECMG 2423/2501 27010KT BECMG 2504/2506 11015KT BECMG 2516/2518 27018KT
SCCI,TAF SCCI 241635Z 2418/2518 26018KT 9999 SCT034 TN04/2504Z TX10/2518Z TEMPO 2418/2500 27025G35KT 8000 -SHRA BKN030 BECMG 2500/2502 FEW045 BECMG 2504/2506 33017G27KT SCT045 BECMG 2510/2512 BKN045
SCCY,TAF SCCY 241027Z 2412/2500 27007KT 9999 BKN035 TN07/2412Z TX11/2418Z
SCDA,TAF SCDA 241612Z 2418/2518 25012KT CAVOK TX17/2418Z TN14/2510Z BECMG 2422/2500 OVC025 BECMG 2501/2503 19007KT BECMG 2516/2518 22017KT CAVOK
SCEL,TAF SCEL 241600Z 2418/2518 18010KT 9999 SCT015 BKN030 TX13/2419Z TN08/2510Z BECMG 2500/2502 15005KT SCT020 BKN030 BECMG 2504/2506 VRB02KT BKN015 OVC025 TEMPO 2506/2512 5000 BR BKN009 BECMG 2516/2518 FEW030 SCT180
SCFA,TAF SCFA 241627Z 2418/2518 20014KT 9999 FEW030 TX16/2418Z TN13/2510Z BECMG 2422/2500 OVC022 BECMG 2504/2506 19007KT BECMG 2514/2516 20018KT FEW025
SCIE,TAF SCIE 241600Z 2418/2518 23010KT CAVOK TX15/2418Z TN07/2510Z BECMG 2500/2502 21005KT TEMPO 2506/2512 17004KT 6000 SCT010 SCT035 BECMG 2514/2516 23010KT
SCIP,TAF SCIP 241635Z 2418/2518 02008KT 9999 SCT020 SCT050 TX23/2420Z TN15/2506Z TEMPO 2419/2422 5000 -SHRA SCT015 BKN040 TEMPO 2505/2512 5000 -SHRA SCT015 BKN030
SCJO,TAF SCJO 241022Z 2412/2500 24003KT 5000 BR SCT010 TN01/2412Z TX13/2418Z BECMG 2413/2415 17007KT 9999 NSW BKN040
SCNT,TAF SCNT 241008Z 2412/2500 28010G20KT 9999 SCT040 TN03/2412Z TX11/2418Z TEMPO 2414/2418 31010G20KT 8000 -SHRA BKN025
SCQP,TAF SCQP 241605Z 2418/2518 22010KT 9999 FEW025 TX14/2419Z TN05/2506Z BECMG 2420/2422 27010KT BECMG 2500/2502 30004KT BKN040 BECMG 2503/2505 36004KT SCT014 BKN025 TEMPO 2505/2512 VRB02KT 3000 BR SCT007
SCSE,TAF SCSE 241600Z 2418/2518 30008KT 9999 SCT015 BKN020 TX15/2419Z TN09/2510Z BECMG 2419/2421 SCT025 BECMG 2500/2502 29004KT BKN020 BECMG 2506/2508 BKN012 BECMG 2516/2518 30010KT CAVOK
SCTE,TAF SCTE 241606Z 2418/2518 21004KT 9999 FEW025 BKN050 TX12/2419Z TN03/2506Z BECMG 2424/2502 33004KT FEW040 TEMPO 2504/2512 VRB02KT 2000 BR SCT003 BECMG 2512/2514 36010KT SCT020 BKN040
SCVM,TAF SCVM 241600Z 2418/2518 28008KT 9999 SCT010 BKN015 TX14/2419Z TN10/2510Z BECMG 2418/2420 SCT015 BKN025 BECMG 2502/2504 30004KT BKN020 TEMPO 2508/2512 5000 BR OVC008 BECMG 2516/2518 30010KT FEW025
SEGU,SEGU 241640Z 2418/2518 16008KT 9999 FEW023 SCT100 BECMG 2500/2502 21012KT BECMG 2506/2508 SCT026 BKN100 BECMG 2512/2514 SCT026 SCT100 TX29/2420Z TN21/2510Z
SELT,SELT 241640Z 2418/2518 18015KT 9999 SCT026 BKN080 BECMG 2422/2424 15004KT BECMG 2504/2506 FEW013 SCT026 BKN100 BECMG 2512/2514 SCT023 BKN080 TX16/2419Z TN06/2511Z
SEMT,SEMT 241640Z 2418/2518 27008KT 9999 SCT020 BECMG 2422/2424 20010KT BKN020 BECMG 2506/2508 OVC020 BECMG 2512/2514 20006KT BKN020 TX28/2420Z TN21/2510Z
SEQM,SEQM 241640Z 2418/2518 33012KT 9999 SCT030 BKN100 BECMG 2422/2424 06005KT BKN026 BKN100 BECMG 2504/2506 VRB03KT SCT010 BKN023 TEMPO 2506/2508 6000 BCFG BKN005 BECMG 2512/2514 SCT023 BKN100 TX22/2419Z TN10/2511Z
SGAS,TAF SGAS 241731Z 2418/2518 10006KT CAVOK TX23/2419Z TN16/2510Z BECMG 2420/2423 VRB06KT 9999 BKN027 PROB30 2508/2510 8000 -RA BKN015 BECMG 2512/2515 07008KT 4000 TSRA OVC013 FEW040CB
SGCO,TAF SGCO 241731Z 2418/2518 13010KT 9999 BKN030 TX26/2419Z TN18/2510Z PROB30 2512/2514 VRB06KT 8000 -RA BKN015 BECMG 2515/2518 21010KT 4000 TSRA OVC015 FEW040CB
SGEN,TAF SGEN 241731Z 2418/2518 VRB06KT CAVOK TX24/2419Z TN14/2510Z BECMG 2421/2500 9999 BKN027 PROB30 2508/2510 8000 -RA BKN015 BECMG 2512/2515 15008KT 6000 TSRA OVC015 FEW040CB
SGES,TAF SGES 241731Z 2418/2518 06010KT CAVOK TX23/2419Z TN16/2510Z BECMG 2419/2421 9999 BKN027 PROB30 2505/2508 11006KT 8000 -RA OVC017 BECMG 2508/2511 20012KT 4000 TSRA SCT010 OVC013 FEW040CB
SKAR,TAF SKAR 241630Z 2418/2518 VRB04KT 9999 SCT020 TEMPO 2420/2423 SCT017TCU TX27/2419Z TN17/2511Z
SKBG,TAF SKBG 241630Z 2418/2518 35005KT 9999 SCT012 BKN070 TEMPO 2419/2423 5000 TSRA BKN010CB BECMG 2500/2502 VRB02KT SCT010 SCT070 PROB40 TEMPO 2510/2513 4000 BCFG TX26/2418Z TN18/2510Z
SKBO,TAF SKBO 241630Z 2418/2518 29006KT 9999 SCT020 TEMPO 2419/2423 RADZ SCT017TCU BECMG 2501/2503 VRB02KT TEMPO 2509/2513 5000 BCFG BKN010 BECMG 2514/2516 30008KT TX19/2418Z TN09/2510Z
SKBQ,TAF SKBQ 241630Z 2418/2518 18007KT 9999 SCT015 TEMPO 2419/2424 TSRA SCT012CB TEMPO 2500/2502 RA SCT010CB BKN070 TEMPO 2509/2513 5000 BR BKN010 TX32/2516Z TN24/2510Z
SKCC,TAF SKCC 241630Z 2418/2518 01008KT 9999 SCT020 SCT080 TEMPO 2419/2423 5000 RA BKN017TCU BECMG 2501/2503 13003KT TEMPO 2506/2510 DZ TX31/2419Z TN23/2510Z
SKCG,TAF SKCG 241630Z 2418/2518 35006KT 9999 SCT015 BKN080 TEMPO 2420/2424 RADZ SCT012TCU BECMG 2501/2503 VRB03KT PROB40 TEMPO 2509/2512 DZ TX31/2418Z TN25/2510Z
SKCL,TAF SKCL 241630Z 2418/2518 VRB04KT 9999 SCT030 TEMPO 2420/2423 33012KT TX31/2419Z TN18/2511Z
SKLT,TAF SKLT 241630Z 2418/2518 21005KT 9999 SCT015 SCT080 TEMPO 2419/2423 7000 RA BKN010TCU BECMG 2501/2503 VRB02KT FEW015 TEMPO 2506/2510 3000 BR BECMG 2515/2517 19005KT TX29/2419Z TN23/2510Z
SKPE,TAF SKPE 241630Z 2418/2518 30004KT 9999 SCT020 TEMPO 2420/2423 SCT017TCU BECMG 2510/2511 5000 BR BKN010 BECMG 2514/516 9999 NSW SCT015 TX27/2419Z TN17/2511Z
SKRG,TAF SKRG 241630Z 2418/2518 12010KT 9999 SCT020 TEMPO 2419/2423 DZ SCT020TCU BECMG 2500/2502 VRB02KT TEMPO 2503/2507 5000 TSRA BKN010CB TEMPO 2508/2512 4000 BCFG DZ BKN005 BECMG 2513/2515 12010KT TX22/2419Z TN13/2511Z
SKSM,TAF SKSM 241630Z 2418/2518 20008KT 9999 SCT020 TEMPO 2418/2422 TSRA SCT017CB TEMPO 2422/2501 RA SCT017CB TX34/2419Z TN25/2510Z
SKSP,TAF SKSP 241630Z 2418/2518 25006KT 9999 SCT015 BKN100 TEMPO 2420/2424 SHRA BECMG 2501/2503 VRB03KT TEMPO 2509/2513 5000 RA BKN013TCU BECMG 2513/2515 18007KT TX31/2418Z TN25/2510Z
SLAL,TAF SLAL 232200Z 2400/2424 01012KT 9999 NSC TX23/2419Z TN05/2411Z BECMG 2403/2405 00000KT BECMG 2414/2416 01012KT
SLCB,TAF SLCB 2418/2518 04010KT 9999 FEW033 TX31/2419Z TN10/2511Z TEMPO 2419/2421 04010KT FEW040CB BECMG 2502/2504 00000KT
SLCO,TAF SLCO 241000Z 2412/2512 00000KT 5000 FU SCT080 TX31/2419Z TN21/ 2510Z BECMG 2414/2417 16006KT FEW030 BECMG 2418/2421 35010KT 8000 SCT033 BECMG 2423/2503 00000KT 4000 FU NSC
SLET,TAF SLET 241600Z 2418/2518 32010G25KT 8000 SCT080 TX31/2419Z TN21/ 2510Z BECMG 2501/2503 33008KT NSC BECMG 2516/2518 33020G30KT SCT020 SCT070
SLLP,TAF SLLP 241600Z 2418/2518 12010KT 9999 FEW020 FEW023CB TX18/2419Z TNM02/2510Z TEMPO 2419/2423 24010KT PROB30 TEMPO 2502/2504 22010KT SHRA BECMG 2504/2506 3000E BCFG BECMG 2512/2514 9999 NSW
SLTJ,TAF SLTJ 2418/2518 15010KT 9999 NSC TX26/2419Z TN09/2511Z BECMG 2423/2501 00000KT SCT070 BECMG 2514/2516 15012KT
SLTR,TAF SLTR 241000Z 2412/2512 00000KT 5000 FU SCT080 TX34/2419Z TN22/ 2510Z BECMG 2414/2417 23006KT 7000 SCT080 BECMG 2419/2422 33010KT BECMG 2502/2504 00000KT 3000 FU NSC
SLVR,TAF SLVR 241600Z 2418/2518 34010G25KT 8000 SCT080 TX32/2419Z TN21/ 2510Z BECMG 2501/2503 34008KT NSC BECMG 2516/2518 35020G30KT SCT020 SCT070
SMJP,TAF SMJP 241600Z 2418/2518 08005KT 9999 SCT020 TX34/2516Z TN23/2508Z PROB30 TEMPO 2508/2511 VRB01KT 3000 BR SCT005
SMZO,TAF SMZO 241600Z 2418/2518 06006KT 9999 SCT020 TX34/2517Z TN24/2509Z TEMPO 2418/2421 TS FEW018CB SCT025
SOCA,TAF SOCA 241700Z 2418/2518 09010KT CAVOK BECMG 2422/2424 VRB02KT BECMG 2513/2515 08010G20KT
SPCL,TAF SPCL 241700Z 2418/2518 12005KT 9999 BKN020 TX32/2420Z TN22/2511Z TEMPO 2510/2513 1 BCFG BKN005 SCT080
SPEO,TAF SPEO 241700Z 2418/2518 20018KT 9999 OVC012 TX19/2419Z TN14/2511Z BECMG 2421/2423 SCT012 BKN015 BECMG 2503/2506 19008KT OVC010
SPGM,TAF SPGM 241700Z 2418/2518 36004KT 9999 SCT030 SCT100 TX32/2420Z TN21/2511Z TEMPO 2503/2507 VRB03KT 5000 RA SCT015 BKN080
SPHI,TAF SPHI 241700Z 2418/2518 19017KT CAVOK TX22/2419Z TN15/2511Z BECMG 2506/2509 17007KT BKN010 BECMG 2516/2518 20017KT CAVOK
SPHO,TAF SPHO 241715Z 2418/2518 VRB05KT 9999 FEW020 SCT030 TX24/2419Z TN11/2511Z TEMPO 2421/2423 -TSRA FEW040CB BKN090
SPHY,TAF SPHY 241715Z 2418/2518 36010KT 9999 SCT012 BKN070 TX17/2419Z TN02/2511Z BECMG 2421/2423 00000KT
SPJC,TAF AMD SPJC 241310Z 2413/2512 17008KT 9999 OVC012 TX17/2419Z TN14/2511Z BECMG 2416/2418 19014KT FEW012 BKN016 BECMG 2503/2505 14007KT OVC010
SPJI,TAF SPJI 241700Z 2418/2518 12005KT 9999 SCT020 SCT100 TX30/2420Z TN19/2511Z TEMPO 2510/2514 2000 BCFG BKN010 SCT100
SPJL,TAF SPJL 241110Z 2412/2512 35004KT CAVOK TX19/2419Z TNM01/2510Z FM241730 24008KT 9000 SCT020 BKN080 TEMPO 2420/2423 24012KT SCT015TCU BKN060 FM250000 35004KT 9999 FEW020 BKN100
SPJR,TAF SPJR 241700Z 2418/2518 15009KT 9999 SCT025 BKN050 TX23/2420Z TN07/2511Z BECMG 2423/2501 08003KT SCT020 SCT050
SPLO,TAF SPLO 241700Z 2418/2518 18010KT 9999 OVC025 TX18/2419Z TN14/2510Z
SPME,TAF SPME 241700Z 2418/2518 35010KT 9999 BKN013 TX25/2419Z TN20/2511Z BECMG 2419/2421 BKN017 BECMG 2500/2503 29005KT BKN012
SPMS,TAF SPMS 241700Z 2418/2518 35005KT 9999 SCT015 SCT100 TX30/2420Z TN22/2511Z TEMPO 2410/2413 1000 BCFG BKN005 SCT100
SPNC,TAF SPNC 241700Z 2418/2518 07003KT 9999 FEW040 TX29/2420Z TN15/2511Z TEMPO 2418/2422 07018KT
SPPY,TAF SPPY 241700Z 2418/2518 10008KT 9999 SCT020 BKN050 TX18/2419Z TN08/2511Z TEMPO 2418/2422 4000 SHRA SCT008 SCT020 OVC040 TEMPO 2510/2515 2000 DZ BCFG BKN010 BKN040
SPQT,TAF SPQT 241700Z 2418/2518 15005KT 9999 BKN020 BKN100 TX30/2420Z TN22/2511Z TEMPO 2502/2507 4000 DZRA BKN010 BKN080 TEMPO 2508/2512 00000KT 0800 FG BKN002 BKN100
SPQU,TAF SPQU 241700Z 2418/2518 25011KT CAVOK TX20/2418Z TN07/2510Z BECMG 2500/2502 05007KT BECMG 2514/2516 25010KT
SPRU,TAF SPRU 241700Z 2418/2518 17010KT 8000 OVC012 TX18/2419Z TN14/2511Z BECMG 2419/2421 BKN015 BECMG 2423/2503 4500 BR BKN010 BECMG 2503/2506 OVC007
SPSO,TAF SPSO 241700Z 2418/2518 28009KT CAVOK TX19/2419Z TN13/2511Z TEMPO 2420/2423 22015KT BECMG 2501/2504 11005KT 7000 NSC TEMPO 2510/2513 VRB02KT 4000 BR BKN015
SPST,TAF SPST 241700Z 2418/2518 15005KT 9999 SCT020 SCT080 TX32/2420Z TN21/2511Z BECMG 2423 2501 VRB02KT SCT015 BKN080
SPTN,TAF SPTN 241700Z 2418/2518 22010KT 9999 FEW030 TX19/2418Z TN11/2510Z FM250100 25004KT 8000 OVC016 BECMG 2504/2506 4500 BR OVC010 BECMG 2510/2513 8000 OVC020 FM251600 22008KT CAVOK
SPTU,TAF SPTU 241715Z 2418/2518 33005KT 9999 FEW020 TX37/2420Z TN17/2511Z
SPYL,TAF SPYL 241700Z 2418/2518 20014KT CAVOK TX24/2419Z TN14/2511Z BECMG 2509/2512 14017KT SCT014 BKN040
SPZO,TAF SPZO 241715Z 2418/2518 09005KT 9999 SCT050 BKN100 TX20/2419Z TN05/2511Z TEMPO 2418/2420 28012KT 8000 -TSRA FEW040CB SCT050 BKN080 TEMPO 2500/2504 RA
SUAA,TAF SUAA 241730Z 2418/2518 VRB03KT CAVOK TX20/2518Z TN08/2510Z BECMG 2420/2424 08008KT BECMG 2503/2506 02005KT PROB40 TEMPO 2506/2510 3000 BR NSC
SUCA,TAF SUCA 241730Z 2418/2518 18005KT CAVOK TX20/2518Z TN11/2510Z BECMG 2500/2504 03012KT PROB30 TEMPO 2505/2510 4000 BR NSC
SUDU,TAF SUDU 241730Z 2418/2518 04006KT 9999 FEW030 TX19/2518Z TN08/2510Z BECMG 2422/2502 CAVOK TEMPO 2505/2511 2000 BR NSC
SULS,TAF SULS 241730Z 2418/2518 19010KT CAVOK TX19/2518Z TN09/2510Z BECMG 2420/2424 09010KT TEMPO 2501/2510 04005KT 3000 BR NSC
SUMU,TAF SUMU 241730Z 2418/2518 14010KT CAVOK TX19/2518Z TN09/2510Z BECMG 2502/2506 02006KT PROB30 TEMPO 2506/2510 5000 BR NSC BECMG 2514/2518 12012KT
SURV,TAF SURV 241730Z 2418/2518 13005KT CAVOK TX20/2518Z TN07/2510Z BECMG 2500/2502 1500 BR TEMPO 2503/2510 0800 BCFG NSC
SUSO,TAF SUSO 241730Z 2418/2518 03008KT CAVOK TX21/2518Z TN10/2510Z TEMPO 2504/2510 09005KT 4000 BR NSC
SVVA,TAF SVVA 241700Z 2418/2518 VRB04KT 9999 SCT016 TX32/2509 TN21/2419 TEMPO 2422/2502 23002KT 9999 BKN016 TEMPO 2502/2506 21002KT 9999 BKN016
SYCJ,TAF SYCJ 241700Z 2418/2518 07008KT 9999 FEW020CB SCT023 BECMG 2422/2500 04004KT CAVOK BECMG 2513/2515 07008KT 9999 SCT020
SYEB,TAF SYEB 241100Z 2412/2423 09010KT 9999 SCT020 SCT100 PROB40 TEMPO 2418/2423 11014KT 9000 TSRA FEW016CB BKN015
SYEC,TAF SYEC 241700Z 2418/2518 07008KT 9999 FEW022CB BECMG 2500/2503 06006KT CAVOK BECMG 2513/2515 07008KT 9999 BKN020
SYKA,TAF SYKA 241100Z 2412/2423 09010KT 9999 SCT020 SCT100 PROB40 TEMPO 2418/2423 11014KT 9000 TSRA FEW016CB BKN015
SYKM,TAF SYKM 241100Z 2412/2423 09010KT 9999 SCT020 SCT100 PROB40 TEMPO 2418/2423 11014KT 9000 TSRA FEW016CB BKN015
SYLT,TAF SYLT 241100Z 2412/2423 09010KT 9999 SCT021 SCT100 
SYMB,TAF SYMB 241100Z 2412/2423 09010KT 9999 SCT019 PROB40 TEMPO 2418/2423 11014KT 9000 TSRA FEW016CB BKN015
TAPA,TAF TAPA 241700Z 2418/2518 09010KT 9999 SCT018 PROB40 TEMPO 2500/2518 SHRA
TBPB,TAF TBPB 241700Z 2418/2518 11013KT 9999 SCT018
TDPD,TAF TDPD 241700Z 2418/2518 11010KT 9999 SCT018
TFFF,TAF TFFF 241700Z 2418/2518 09012KT 9999 SCT030 BECMG 2423/2501 VRB02KT TEMPO 2422/2518 4000 SHRA BKN018TCU BECMG 2512/2514 09012KT PROB30 TEMPO 2515/2518 09015G25KT 2000 SHRA SCT012CB BKN018TCU
TFFR,TAF TFFR 241700Z 2418/2518 10010KT 9999 SCT040 PROB30 2421/2518 4000 SHRA BKN020TCU BECMG 2423/2501 VRB02KT PROB30 TEMPO 2508/2518 2000 SHRA SCT012CB BKN018TCU BECMG 2512/2514 10012KT
TIST,TIST 241736Z 2418/2518 13009G18KT P6SM VCSH SCT030 FM242200 08008KT P6SM FEW025 FM250400 08005KT P6SM FEW030 FM251400 12011KT P6SM VCSH SCT025
TISX,TISX 241736Z 2418/2518 11011KT P6SM VCSH SCT028 FM242200 06010KT P6SM FEW030 FM251400 10011KT P6SM SCT024 FM251630 11013G18KT P6SM VCSH SCT026
TJBQ,TJBQ 241736Z 2418/2518 07012KT P6SM VCSH SCT030 FM241830 07013KT P6SM VCTS FEW022 SCT035CB BKN045 FM242300 08009KT P6SM FEW025 SCT050 FM250100 11003KT P6SM FEW025 FM251400 07010KT P6SM FEW030 FM251600 07014KT P6SM SCT035
TJPS,TJPS 241736Z 2418/2518 16016G20KT P6SM VCSH FEW030 SCT060 FM242300 11006KT P6SM FEW030 FM250100 05002KT P6SM FEW040 FM251400 06014KT P6SM FEW030 AMD NOT SKED
TJSJ,TJSJ 241736Z 2418/2518 06016KT P6SM VCSH FEW035 SCT060 SCT120 FM242200 09006KT P6SM FEW028 SCT060 FM250300 VRB02KT P6SM FEW024 FM251400 06014KT P6SM FEW030
TKPK,TAF TKPK 241700Z 2418/2518 08010KT 9999 SCT018 PROB40 TEMPO 2502/2518 SHRA
TKPN,TAF TKPN 241700Z 2418/2518 09010KT 9999 SCT018 PROB40 TEMPO 2501/2518 SHRA
TLPC,TAF TLPC 241700Z 2418/2518 09008KT 9999 SCT026 PROB40 TEMPO 2418/2510 SHRA FEW014CB BKN015
TLPL,TAF TLPL 241700Z 2418/2518 08013KT 9999 SCT026 PROB40 TEMPO 2418/2510 SHRA FEW014CB BKN015
TNCA,TAF TNCA 241118Z 2412/2512 11008KT 9999 SCT020 PROB30 TEMPO 2412/2415 5000 SHRA TS FEW012CB BKN015
TNCB,TAF TNCB 241658Z 2418/2524 10012KT 9999 SCT020 PROB30 TEMPO 2510/2520 4000 SHRA SCT015CB BKN020
TNCC,TAF TNCC 241715Z 2418/2518 12015KT 9999 FEW030
TNCM,TNCM 241600Z 2418/2518 08010KT 9999 SCT018 
TQPF,TAF TQPF 241700Z 2418/2518 09010KT 9999 SCT018 PROB40 TEMPO 2503/2518 SHRA
TRPG,TAF TRPG 241700Z 2418/2518 10015KT 9999 SCT018 PROB40 TEMPO 2500/2518 SHRA
TTCP,TAF TTCP 241000Z 2412/2512 10008KT 9999 FEW020 BECMG 2500/2502 07005KT 9999 FEW016
TTPP,TAF TTPP 241000Z 2412/2512 10008KT 9999 SCT020 PROB40 TEMPO 2416/2420 3000 TSRA FEW012CB BKN015 BECMG 2500/2502 00000KT 9999 FEW016
TUPJ,TAF TUPJ 241700Z 2418/2518 10010KT 9999 SCT018 PROB40 TEMPO 2504/2518 SHRA
TVSA,TAF TVSA 241700Z 2418/2518 07007KT 9999 SCT018
TXKF,TAF TXKF 241734Z 2418/2518 35007KT 9999 SCT040 
UAAA,TAF UAAA 241700Z 2418/2518 21003MPS 9999 SCT100 TX30/2509Z TN13/2501Z TEMPO 2418/2502 16003MPS BECMG 2502/2503 01003MPS FEW050CB SCT100 TEMPO 2502/2506 32003G08MPS TEMPO 2506/2513 05003G08MPS TEMPO 2513/2518 17003MPS 3100 FU
UACC,TAF UACC 241700Z 2418/2518 17003MPS CAVOK TX29/2509Z TN10/2501Z BECMG 2500/2502 22005MPS BECMG 2506/2508 26005MPS BECMG 2514/2516 18003MPS
UADD,TAF UADD 242000Z 2421/2506 22003G08MPS 9999 NSC
UAII,TAF UAII 241658Z 2418/2518 16003G08MPS CAVOK TX34/2510Z TN16/2501Z TEMPO 2418/2504 13003G08MPS 3100 FU TEMPO 2504/2508 23003G08MPS TEMPO 2508/2515 32006MPS
UAIT,TAF UAIT 242000Z 2421/2506 06005G10MPS CAVOK TEMPO 2421/2503 09008G13MPS
UAKK,TAF UAKK 241701Z 2418/2518 VRB02MPS 9999 SCT030 BKN100 TX27/2510Z TN04/2423Z TEMPO 2506/2512 28005MPS
UAOO,TAF UAOO 242000Z 2421/2506 03003MPS CAVOK TEMPO 2500/2503 06003MPS TEMPO 2503/2506 09003MPS
UARR,TAF UARR 242000Z 2421/2506 32005MPS 9999 BKN033CB TEMPO 2500/2506 5000 -SHRA BKN011 BKN020CB
UASK,TAF UASK 242001Z 2421/2506 04002MPS 9999 NSC TEMPO 2503/2506 26003MPS
UASP,TAF UASP 242000Z 2421/2506 16005G13MPS 9999 BKN020 TEMPO 2423/2506 22005G13MPS
UASS,TAF UASS 241400Z 2415/2424 36006MPS CAVOK TEMPO 2415/2421 04005G12MPS
UATE,TAF UATE 241700Z 2418/2518 33009G15MPS 9999 SCT040CB TX26/2509Z TN13/2503Z TEMPO 2418/2503 01016G22MPS 3100 -TSRA SQ SCT011 BKN020CB
UATG,TAF UATG 241700Z 2418/2518 33007MPS 9999 BKN033CB TX23/2510Z TN11/2503Z TEMPO 2418/2422 35007G12MPS -TSRA BECMG 2422/2424 30008G13MPS TEMPO 2422/2504 -TSRA FM250400 27010G15MPS 9999 SCT033CB
UATT,TAF UATT 241700Z 2418/2518 22005MPS 9999 SCT050 TX23/2512Z TN11/2501Z TEMPO 2418/2424 VRB10MPS 3100 -TSRA SCT033CB TEMPO 2500/2505 VRB01MPS TEMPO 2505/2512 26010MPS 5000 -SHRA BKN033CB
UAUU,TAF UAUU 242000Z 2421/2506 VRB02MPS CAVOK TEMPO 2421/2506 19003MPS SCT040
UBBB,TAF UBBB 241701Z 2418/2518 34024G34KT 9999 SCT023 TX23/2510Z TN18/2502Z TEMPO 2418/2419 34016KT TEMPO 2419/2506 34030G40KT -SHRA SCT012 SCT030CB BKN030 BECMG 2508/2510 36014KT
UBBF,TAF UBBF 241400Z 2415/2424 06010KT 9999 FEW050CB PROB40 TEMPO 2418/2424 VRB12KT -TSRA SCT040CB BKN040
UBBG,TAF UBBG 241700Z 2418/2518 31016KT 9999 SCT030 BKN070 TX23/2512Z TN13/2502Z TEMPO 2418/2420 30020G30KT TEMPO 2420/2424 VRB24KT -TSRA SCT035CB OVC060 BECMG 2502/2504 28010KT -RA OVC040
UBBL,TAF UBBL 241705Z 2418/2518 VRB04KT 9999 BKN050 TX24/2510Z TN18/2501Z BECMG 2420/2422 35012KT TEMPO 2422/2502 03020G30KT -SHRA SCT010 SCT030CB OVC030 PROB40 TEMPO 2422/2502 -TSRA SCT025CB BKN030 BECMG 2506/2508 03012KT
UBBN,TAF UBBN 241656Z 2418/2518 27008KT 9999 FEW050 SCT100 TX30/2512Z TN14/2502Z TEMPO 2418/2422 33010KT TEMPO 2422/2505 30012KT FEW045CB BKN086
UBBQ,TAF UBBQ 241710Z 2418/2518 VRB04KT 9999 FEW040 SCT070 TX21/2510Z TN14/2502Z BECMG 2420/2422 28012KT TEMPO 2422/2503 29026G36KT -TSRA SCT030CB BKN030 BECMG 2506/2508 15008KT
UBBY,TAF UBBY 242000Z 2421/2506 31012KT 6000 -SHRA SCT030CB BKN060
UBEE,TAF UBEE 242000Z 2421/2506 31022KT 9999 FEW040 BKN080 TEMPO 2422/2502 28014KT -SHRA SCT035CB OVC060
UCFL,TAF UCFL 241640Z 2418/2518 35003G08MPS 9999 SCT030CB BECMG 2504/2506 14003G08MPS TEMPO 2506/2512 26003G08MPS 3000 -SHRA BKN020CB BECMG 2513/2515 34003G08MPS
UCFM,TAF UCFM 241638Z 2418/2518 15003G08MPS 9999 SCT050 TEMPO 2418/2502 2000 BR FU BECMG 2506/2507 30003G08MPS FEW050CB
UCFO,TAF UCFO 241645Z 2418/2518 17003G08MPS 9999 NSC TEMPO 2418/2424 12003G08MPS 3000 FU FEW050CB BECMG 2503/2505 27003G08MPS
UDSG,TAF UDSG 241658Z 2418/2518 35006KT 9999 FEW050 TEMPO 2418/2423 VRB16KT -SHRA BKN040CB
UDYZ,TAF AMD UDYZ 241934Z 2420/2518 24006KT 9999 SCT040 TEMPO 2420/2424 VRB20G30KT -TSRA BKN040CB
UEEE,TAF UEEE 242000Z 2421/2603 04003G10MPS 3200 -SHRASN SCT008 BKN015CB OVC070 TEMPO 2421/2503 VRB01MPS 0300 SHSNRA FG VV002
UERP,TAF AMD UERP 242056Z 2421/2521 VRB01MPS 3000 -SHSN BR BKN006 OVC015CB TEMPO 2421/2424 0500 FZFG VV002
UERR,TAF UERR 242000Z 2421/2521 34003G08MPS 4000 -SHSN BKN005 OVC015CB TEMPO 2421/2424 1000 -SHSN BR VV003
UGKO,TAF UGKO 241700Z 2418/2518 26006KT 9999 SCT022 BKN040 TX19/2511Z TN12/2502Z TEMPO 2418/2501 27016KT 3000 TSRA BKN017CB OVC030 TEMPO 2501/2506 09010KT 4000 SHRA BKN022CB BECMG 2507/2510 BKN070 BECMG 2515/2518 08010KT
UGSB,TAF UGSB 241700Z 2418/2518 13013KT 9000 -RA SCT023 BKN050 TX17/2512Z TN13/2501Z TEMPO 2418/2503 VRB15KT 3000 TSRA SCT010 BKN023CB TEMPO 2503/2509 VRB15KT 4000 TSRA SCT015 BKN025CB
UGTB,TAF UGTB 241700Z 2418/2518 31035G47KT 9999 -SHRA SCT050CB OVC063 TX21/2512Z TN12/2502Z BECMG 2420/2422 31027KT BECMG 2501/2503 31017KT CAVOK TEMPO 2507/2516 31027G40KT
UHBB,TAF UHBB 241942Z 2421/2521 17003G08MPS 9999 SCT030CB BECMG 2505/2507 25003G08MPS
UHHH,TAF UHHH 241946Z 2421/2603 25005MPS CAVOK TEMPO 2421/2509 24010MPS
UHMA,TAF UHMA 241946Z 2421/2521 01008G13MPS 9999 SCT025 TEMPO 2421/2521 32003MPS 4000 -SHRASN FEW002 BKN015CB
UHMM,TAF UHMM 241954Z 2421/2603 08003MPS 9999 NSC
UHPP,TAF AMD UHPP 242002Z 2421/2603 14003G12MPS 4000 -SHRA BR BKN007 OVC015CB TEMPO 2421/2603 25005G15MPS 0700 SHRA FG VV002
UHSS,TAF UHSS 241955Z 2421/2603 19003MPS 9999 SCT030CB BECMG 2500/2502 27006G11MPS BECMG 2507/2509 19003MPS
UHWW,TAF AMD UHWW 242159Z 2422/2521 07003MPS 9999 FEW002 BKN016 TEMPO 2422/2423 0300 FG VV002 BECMG 2423/2501 19003G08MPS SCT030 BECMG 2513/2515 12003MPS
UIAA,TAF AMD UIAA 242020Z 2420/2521 27010G15MPS 9999 BKN030CB TEMPO 2420/2512 29005G10MPS 3100 -SHRA OVC014CB TEMPO 2512/2521 21003G08MPS
UIBB,TAF UIBB 242000Z 2421/2521 25003MPS 0500 FZFG BKN001 BKN011CB TEMPO 2421/2501 5000 -SHSNRA BR FEW002 BKN011CB BECMG 2501/2503 6000 -SHRASN FEW005 BKN013CB BECMG 2513/2515 13005MPS
UIII,TAF UIII 242000Z 2421/2521 30003MPS 9999 SCT030CB BECMG 2502/2504 14005MPS
UIUU,TAF UIUU 242000Z 2421/2521 27008G13MPS 9999 -SHRA BKN025CB TEMPO 2421/2512 34005G10MPS OVC009CB
ULAA,TAF ULAA 241955Z 2421/2521 09003MPS 9999 BKN018 TEMPO 2421/2509 06004G09MPS 6000 -SHRA BKN016CB
ULLI,TAF ULLI 241957Z 2421/2521 34005G11MPS 9999 SCT016 BKN030 BECMG 2502/2504 5000 -RA SCT010 BKN016 TEMPO 2504/2516 02003MPS 2000 SHRA BKN010 BKN017CB BECMG 2516/2518 3000 -DZ BR BKN007
ULMM,TAF ULMM 241950Z 2421/2521 16003MPS 6000 SCT030 BECMG 2422/2424 0800 FG VV003 TEMPO 2500/2504 0300 FG VV001 BECMG 2504/2506 9999 NSW SCT016
ULOO,TAF ULOO 241954Z 2421/2506 33005G10MPS 6000 BKN025 TEMPO 2503/2506 BKN010
ULPB,TAF ULPB 241954Z 2421/2506 03005G10MPS 6000 BKN016 TEMPO 2422/2506 3000 -SHRA BKN010 BKN018CB
ULWC,TAF ULWC 241700Z 2418/2503 04004G09MPS 6000 -RA OVC007 TEMPO 2418/2501 07006G11MPS 2000 SHRA BR BKN003 BKN014CB BECMG 2501/2503 08004G09MPS
UMGG,TAF UMGG 241651Z 2418/2518 27007MPS 9999 BKN015 TEMPO 2418/2505 29007G12MPS 2000 BR SCT020CB TEMPO 2505/2518 29009G14MPS BKN005
UMII,TAF UMII 242007Z 2421/2506 32004G09MPS 9999 BKN016 TEMPO 2421/2506 30007G12MPS 2000 SHRA BR BKN005 BKN020CB
UMIO,TAF UMIO 241402Z 2415/2424 32006G11MPS 9999 BKN010 TEMPO 2415/2424 34009G14MPS 3000 -SHRA BKN015CB
UMKK,TAF UMKK 241955Z 2421/2521 17003MPS 0900 PRFG FEW003 TEMPO 2421/2506 0300 FG VV002 BECMG 2506/2508 9999 NSW SCT016
UMMS,TAF UMMS 241705Z 2418/2518 30006MPS 6000 BKN007 TEMPO 2418/2508 0300 -RA FG OVC002 BECMG 2508/2509 34005G10MPS 9999 BKN015 TEMPO 2509/2518 32008G13MPS
UNAA,TAF UNAA 241951Z 2421/2521 12003MPS 6000 SCT020 TEMPO 2421/2501 2000 FU
UNBB,TAF UNBB 242000Z 2421/2521 19003G08MPS 8000 SCT040 TEMPO 2506/2515 23008G13MPS BECMG 2515/2516 36003G08MPS
UNEE,TAF UNEE 242000Z 2421/2521 08003G08MPS 8000 BKN040CB TEMPO 2421/2503 0300 -SHRA FG BKN002 BKN011CB TEMPO 2503/2518 -SHRA BKN016CB BECMG 2509/2512 36003G08MPS
UNKL,TAF UNKL 241953Z 2421/2521 27003G08MPS 9999 SCT016CB TEMPO 2517/2521 3000 -SHSNRA BKN007 BKN016CB
UNNT,TAF UNNT 242000Z 2421/2521 21003G08MPS 8000 SCT040CB TEMPO 2421/2503 16005G12MPS -SHRA SCT016CB BECMG 2508/2509 36003G08MPS TEMPO 2509/2515 04005G12MPS -SHRA BKN016CB TEMPO 2515/2521 01007G13MPS -SHRA BKN011CB
UNOO,TAF UNOO 241955Z 2421/2521 04001MPS 8000 SCT030CB BKN033 BECMG 2504/2506 05006G12MPS TEMPO 2418/2521 3100 -SHRA BKN010 BKN030CB
UNTT,TAF UNTT 242000Z 2421/2506 08003G08MPS 8000 -SHRA BKN016CB TEMPO 2500/2502 0300 FG VV002
UNWW,TAF UNWW 242000Z 2421/2521 18003G08MPS 8000 SCT040CB TEMPO 2421/2505 -SHRA BKN011CB TEMPO 2505/2515 23005G11MPS -SHRA BKN016CB TEMPO 2515/2521 -SHRA BKN016CB BECMG 2517/2519 33003G08MPS
UOOO,TAF UOOO 241957Z 2421/2521 36007G13MPS 6000 SCT006 BKN016CB TEMPO 2421/2503 2700 -SHSN DRSN BKN004 BKN013CB BECMG 2505/2508 02012G17MPS BECMG 2516/2519 02007G12MPS
URKA,TAF URKA 241954Z 2421/2521 28003G08MPS 9999 SCT030CB TEMPO 2421/2521 VRB07G16MPS 0500 +TSRA BKN004 BKN016CB
URKK,TAF URKK 241956Z 2421/2521 24003G08MPS 9999 SCT020CB BECMG 2506/2508 27007G14MPS SCT030CB BECMG 2515/2517 18003G08MPS
URMG,TAF URMG 242000Z 2421/2506 29003G08MPS 9999 BKN016 TEMPO 2421/2506 6000 -SHRA BKN016 BKN020CB
URML,TAF URML 242000Z 2421/2506 33009G15MPS 6000 -SHRA SCT016 BKN040CB TEMPO 2421/2424 VRB13G20MPS 3000 -TSRA SCT007 BKN033CB TEMPO 2500/2505 30005G11MPS
URMM,TAF URMM 242000Z 2421/2521 28003G08MPS 6000 -SHRA BKN016 BKN020CB TX17/2512Z TN09/2503Z TEMPO 2421/2505 0300 FG BKN002 BKN020CB BECMG 2505/2507 9999 NSW BKN030 TEMPO 2507/2515 29006G14MPS
URMN,TAF URMN 242000Z 2421/2506 24003G08MPS 6000 BKN020CB TEMPO 2500/2506 2100 -SHRA BR BKN005 BKN016CB
URMO,TAF URMO 241400Z 2415/2424 30003G08MPS 9999 BKN016 TEMPO 2415/2424 3100 -SHRA BKN005 BKN020CB
URMT,TAF URMT 242000Z 2421/2506 27004G10MPS 9999 BKN020 TEMPO 2421/2503 29007G13MPS 6000 -SHRA SCT016 BKN030CB
URRP,TAF URRP 241959Z 2421/2521 23006G14MPS 3000 BR SCT016 SCT020CB TX16/2512Z TN08/2502Z TEMPO 2421/2506 0500 FG SCT001 SCT020CB FM250600 25009G16MPS 9999 SCT020
URSS,TAF URSS 241955Z 2421/2521 05003G08MPS 9999 SCT016 BKN030CB OVC100 TEMPO 2421/2506 VRB06G13MPS 0800 +TSRA SCT006 BKN020CB OVC100 FM250600 18003G08MPS 9999 BKN030CB BKN100 TEMPO 2506/2511 VRB05G11MPS -TSRA BECMG 2511/2512 23003G08MPS SCT040CB SCT100 BECMG 2514/2515 05003G08MPS BECMG 2517/2518 04006MPS SCT100
URWA,TAF URWA 241959Z 2421/2506 27003G11MPS 6000 FEW005 SCT016 TEMPO 2500/2502 24003G10MPS 0500 FG BKN002 BECMG 2503/2505 27008G14MPS
URWW,TAF URWW 241957Z 2421/2506 22006G12MPS 6000 -SHRA BKN016 BKN020CB TEMPO 2421/2506 25008G15MPS -TSRAGR BKN005 BKN020CB
USCC,TAF USCC 241957Z 2421/2521 05003G10MPS 6000 BKN020CB TEMPO 2421/2506 34003G10MPS -TSRA BKN016CB TEMPO 2506/2521 06008G14MPS -SHRA BKN016CB
USCM,TAF USCM 241957Z 2421/2506 33003G10MPS 6000 BKN020CB TEMPO 2421/2506 27003G10MPS -TSRA BKN016CB
USHH,TAF USHH 241931Z 2421/2521 03003G10MPS 9999 BKN020 TEMPO 2421/2504 VRB01MPS 0300 FG SCT002 OVC016 TEMPO 2504/2509 5000 -SHRA FEW005 BKN016CB
USNN,TAF USNN 241945Z 2421/2521 02003G08MPS 9999 BKN016 TEMPO 2421/2503 VRB01MPS 0300 FZFG VV002 TEMPO 2506/2512 -SHRASN BKN016CB
USPP,TAF USPP 241957Z 2421/2521 10005G15MPS 6000 BKN016 BECMG 2504/2506 10007G20MPS 9999 BECMG 2511/2512 6000 -SHRA BKN016CB
USRR,TAF USRR 241955Z 2421/2521 03003G08MPS 9999 FEW007 SCT016 TEMPO 2421/2512 5000 -SHRA SCT004 BKN016CB
USSS,TAF USSS 241957Z 2421/2521 04003G08MPS 9999 SCT020 FM250500 07003G14MPS 6000 -SHRA BKN016CB TEMPO 2506/2521 -TSRA
USTR,TAF USTR 241955Z 2421/2521 05006G14MPS 9999 FEW007 SCT016CB TEMPO 2421/2506 07014MPS 4000 -SHRA BR FEW005 BKN016CB TEMPO 2506/2521 08014MPS -SHRA BKN016CB
UTAA,TAF UTAA 241645Z 2418/2518 18014KT 6000 NSC TEMPO 2418/2422 VRB04KT 3000 HZ TEMPO 2422/2504 12012KT BECMG 2504/2506 33016KT SCT050 TEMPO 2506/2512 30018G28KT 4000 DRDU
UTAK,TAF UTAK 241630Z 2418/2518 34018KT 5000 SCT010 BKN100 TEMPO 2418/2420 3000 BR BKN003 BKN100 BECMG 2420/2421 35022G32KT TEMPO 2421/2504 4000 BR BKN004 BKN100 PROB40 TEMPO 2421/2502 VRB32KT 3000 -TSSHRA BR BKN004 SCT030CB BKN100
UTAM,TAF UTAM 241630Z 2418/2518 02010KT 6000 NSC TEMPO 2418/2506 VRB04KT 3000 HZ FU BECMG 2509/2511 32014KT
UTAT,TAF UTAT 241641Z 2418/2518 10010KT CAVOK TEMPO 2418/2424 VRB04KT
UTAV,TAF UTAV 241630Z 2418/2518 34014KT CAVOK TEMPO 2418/2424 03012KT 3000 HZ
UTDD,TAF UTDD 242100Z 2422/2510 VRB02MPS 9999 FEW066CB SCT100 TEMPO 2507/2510 26006MPS
UTDK,TAF UTDK 242100Z 2422/2507 03005MPS 9999 FEW066CB SCT100 BECMG 2503/2504 VRB02MPS
UTDL,TAF UTDL 242100Z 2422/2510 VRB02MPS 9999 NSC BECMG 2503/2505 08005MPS TEMPO 2505/2510 VRB02MPS
UTDT,TAF UTDT 242100Z 2422/2507 VRB02MPS 9999 FEW066CB SCT100
UTFF,TAF UTFF 242100Z 2422/2507 14010KT 9999 NSC
UTFN,TAF UTFN 241700Z 2418/2518 33010KT 9999 NSC TEMPO 2418/2420 7000
UTNN,TAF COR UTNN 241700Z 2418/2518 VRB04KT CAVOK TEMPO 2505/2509 16008G18KT BECMG 2510/2512 28014G24KT
UTNU,TAF UTNU 241700Z 2418/2518 08008G18KT 7000 NSC TEMPO 2505/2512 14008G18KT BECMG 2512/2514 27014G24KT
UTSA,TAF UTSA 241701Z 2418/2518 VRB03KT 7000 NSC TX35/2511Z TN16/2501Z TEMPO 2418/2505 04008KT 4500 FU
UTSB,TAF UTSB 241700Z 2418/2518 VRB03KT 7000 NSC TX35/2511Z TN16/2501Z TEMPO 2418/2505 36008KT
UTSK,TAF UTSK 242100Z 2422/2507 32008KT CAVOK TEMPO 2422/2507 04008KT
UTSS,TAF UTSS 241700Z 2418/2518 10010KT 9999 NSC TEMPO 2418/2503 14010KT BECMG 2504/2506 34010KT
UTST,TAF UTST 241700Z 2418/2518 VRB06KT 6000 NSC TX35/2511Z TN14/2501Z TEMPO 2418/2504 23010G20KT
UTTT,TAF COR UTTT 241700Z 2418/2518 08010KT 7000 NSC TEMPO 2418/2424 VRB02KT 3000 FU
UUBC,TAF UUBC 241640Z 2418/2503 28003G08MPS 6000 -RA OVC011 TEMPO 2418/2503 30003MPS -SHRA BKN016CB
UUBP,TAF UUBP 241346Z 2415/2424 26005G10MPS 8000 OVC017 TEMPO 2415/2420 3100 -SHRA SCT005 BKN012CB PROB40 TEMPO 2420/2424 0500 DZ FG VV003
UUBW,TAF UUBW 241951Z 2421/2521 24003MPS 1100 -RA BR OVC007 TX10/2512Z TN06/2503Z TEMPO 2421/2507 0200 -DZ FG OVC002 BECMG 2507/2508 6000 NSW FEW003 BKN011 TEMPO 2508/2521 2100 -RA BR OVC005
UUDD,TAF UUDD 241955Z 2421/2603 19003MPS 2100 -RA BR BKN004 TX09/2511Z TN05/2503Z TEMPO 2421/2507 0300 FG OVC002 BECMG 2507/2509 6000 -RA FEW004 BKN008
UUDL,TAF UUDL 242000Z 2421/2521 09003MPS 8000 BKN020 TX11/2512Z TN08/2503Z TEMPO 2421/2508 BKN010
UUEE,TAF UUEE 241957Z 2421/2521 26003MPS 2100 -RA BR OVC004 TX09/2512Z TN06/2501Z TEMPO 2421/2508 0300 DZ FG OVC001 BECMG 2508/2511 6000 -RA FEW003 BKN011 TEMPO 2511/2521 2900 -SHRA BKN004 BKN012CB
UUMO,TAF UUMO 241957Z 2421/2506 26003MPS 4100 -RA BR OVC005 TEMPO 2421/2506 0500 FG VV001
UUOB,TAF UUOB 241959Z 2421/2506 27005G10MPS 6000 BKN016 TEMPO 2421/2503 2500 -RA BR BKN004
UUOK,TAF UUOK 241641Z 2418/2503 26003G08MPS 6000 OVC020 TEMPO 2418/2503 28003MPS -SHRA BKN016CB
UUOL,TAF UUOL 242000Z 2421/2506 22003G08MPS 6000 -SHRA BKN016CB
UUOO,TAF UUOO 242000Z 2421/2506 23003G08MPS 6000 BKN016 TEMPO 2500/2505 -SHRA BKN010CB
UUWW,TAF UUWW 241956Z 2421/2521 29003MPS 2100 -RA BR OVC003 TX08/2512Z TN04/2503Z TEMPO 2421/2507 0500 -DZ FG OVC001 BECMG 2507/2509 6000 NSW FEW004 BKN007 TEMPO 2509/2518 -SHRA BKN004 SCT020CB
UUYY,TAF UUYY 242000Z 2421/2521 07006G14MPS 9999 BKN020CB TEMPO 2421/2506 6000 -SHRA BKN005 BKN016CB
UWGG,TAF UWGG 241950Z 2421/2521 14003G09MPS 8000 BKN016 TX14/2512Z TN06/2501Z TEMPO 2421/2506 BKN010
UWKD,TAF UWKD 241956Z 2421/2521 23003MPS 9999 BKN020 TX13/2512Z TN07/2502Z TEMPO 2506/2516 3100 -SHRA BKN016CB BECMG 2509/2511 05003MPS
UWKE,TAF UWKE 241945Z 2421/2521 27003G10MPS 9999 BKN030 TEMPO 2421/2503 23005G14MPS 6000 -SHRA FEW005 BKN016CB TEMPO 2503/2521 34003G13MPS 3100 -SHRA BKN011 BKN020CB
UWKS,TAF UWKS 241948Z 2421/2506 17003G10MPS 8000 BKN040CB TX09/2506Z TN06/2503Z
UWLL,TAF UWLL 241955Z 2421/2521 23003MPS 9999 BKN020 TX14/2510Z TN08/2503Z TEMPO 2421/2505 18008MPS BKN016CB TEMPO 2510/2515 12006MPS -SHRA BKN016CB
UWLW,TAF UWLW 241959Z 2421/2521 20003MPS 9999 BKN017 TX15/2511Z TN07/2502Z TEMPO 2421/2506 23003G09MPS TEMPO 2506/2515 6000 -SHRA BKN016CB
UWOO,TAF UWOO 241948Z 2421/2521 28003G08MPS 9999 BKN020CB TX17/2510Z TN10/2502Z TEMPO 2421/2506 31003G12MPS 6000 -TSRA BKN016CB TEMPO 2506/2516 27008G16MPS 2000 TSRA BKN015CB
UWOR,TAF UWOR 241947Z 2421/2506 25003G08MPS 9999 SCT020CB TX20/2506Z TN14/2502Z TEMPO 2421/2506 20003G12MPS 6000 -TSRA BKN016CB
UWSG,TAF UWSG 241958Z 2421/2506 20003G08MPS 6000 BKN016 TX11/2506Z TN08/2503Z TEMPO 2421/2423 2100 BR FEW002 BKN007 TEMPO 2423/2506 0500 RA FG VV002
UWUU,TAF UWUU 242000Z 2421/2521 VRB01MPS 9999 BKN040 TX23/2510Z TN11/2503Z TEMPO 2421/2503 23003G08MPS 6000 -SHRA BKN016CB TEMPO 2503/2515 VRB03G14MPS 4000 -TSRAGR BKN010CB TEMPO 2515/2521 23006G13MPS 3100 -RA BR FEW006 OVC010
UWWW,TAF UWWW 241952Z 2421/2521 24003MPS 6000 -RA BKN016 TX14/2511Z TN10/2502Z TEMPO 2421/2505 1000 BR OVC003 TEMPO 2505/2515 28007G14MPS 2000 SHRA OVC007 BKN011CB TEMPO 2515/2521 23007G13MPS -SHRA OVC004 BKN011CB
VAAH,TAF VAAH 242000Z 2421/2506 25006KT 4000 HZ NSC BECMG 2423/2501 27004KT 3000 BR BECMG 2504/2506 23004KT 5000 HZ FEW0020
VAAU,VAAU 241100Z 2412/2518 29006KT 4000 HZ SCT020 SCT100 TEMPO 2412/2418 2000 -TSRA SHRA SCT018 FEW030TCU/CB SCT100 BECMG 2418/2420 VRB03KT 3000 HZ BECMG 2500/2502 2000 BR HZ BECMG 2504/2506 30007KT 4000 HZ FEW020 SCT025 BECMG 2515/2517 VRB03KT 3000 -DZ HZ SCT018 SCT025 BKN100 
VABB,TAF VABB 242000Z 2421/2506 VRB03KT 2500 -RA HZ SCT018 FEW025TCU BKN090 TEMPO 2421/2503 2000 -TSRA SHRA SCT012 SCT018 FEW030CB OVC080 BECMG 2504/2506 18005KT 2000 -RA HZ SCT020 BKN100 
VABJ,TAF VABJ 242000Z 2421/2506 20008KT 6000 SCT025 
VABO,TAF VABO 242000Z 2421/2506 23006KT 6000 FEW020 BECMG 2502/2505 25004KT
VABP,TAF VABP 241700Z 2418/2503 20008KT 3000 HZ SCT020 SCT100 BECMG 2423/2501 1500 BR
VABV,TAF VABV 242000Z 2421/2506 23008KT 6000 FEW020 
VADU,TAF VADU 242000Z 2421/2506 27010KT 5000 HZ FEW020 
VAID,TAF VAID 241700Z 2418/2503 26006KT 3000 HZ SCT020 SCT100 BECMG 2423/2501 1500 BR
VAJB,TAF VAJB 241700Z 2418/2503 18005KT 3000 HZ SCT020 SCT100 BECMG 2423/2501 1500 BR
VAJM,TAF VAJM 242000Z 2421/2506 20006KT 6000 SCT020 BECMG TEMPO 2501/2503 23006KT 5000 -DZ
VAKE,TAF VAKE 241400Z 2415/2424 23008KT 4000 HZ FU FEW020 BECMG 2418/2420 FEW080
VANP,TAF VANP 242000Z 2421/2506 25003KT 3000 HZ -RA SCT018 BKN090 BECMG 2503/2505 29005KT 4000 HZ FEW018 SCT090
VAOZ,TAF VAOZ 241400Z 2415/2503 27010KT 6000 SCT030 TEMPO 2500/2503 5000 BR
VAPO,TAF VAPO 2412/2518 25010KT 6000 SCT020 BKN090 TEMPO 2414/2418 -RA SCT015 BKN080 TEMPO 2500/2503 5000 RABR TEMPO 2508/2512 25015G25KT -RA SCT015 BKN080
VAPR,TAF VAPR 242000Z 2421/2506 23010KT 6000 FEW020 SCT025 BECMG 2501/2503 20005KT 5000 HZ FEW020
VARK,TAF VARK 242000Z 2421/2506 25010KT 6000 SCT020 BECMG 2503/2505 18004KT
VASU,TAF VASU 242000Z 2421/2506 18008KT 6000 FEW020 BECMG 2502/2504 23004KT SCT020
VCBI,TAF VCBI 241700Z 2418/2524 24006KT 9999 FEW018 TX31/2507Z TN26/2500Z
VCRI,TAF VCRI 241700Z 2418/2524 25008KT 9999 FEW018 TX36/2507Z TN24/2500Z BECMG 2503/2505 26010G20KT BECMG 2513/2515 25006KT
VDPP,TAF VDPP 241700Z 2418/2512 22007KT 9999 SCT017 SCT040 TEMPO 2506/2511 SCT015 FEW017CB BKN040
VDSR,TAF VDSR 241700Z 2418/2512 20007KT 9999 SCT017 SCT040 TEMPO 2506/2511 SCT015 FEW017CB BKN040
VDSV,TAF VDSV 241700Z 2418/2512 26008KT 9999 SCT017 SCT040 TEMPO 2506/2511 5000 TSRA SCT015 FEW017CB BKN040
VEAT,TAF VEAT 242000Z 2421/2506 00000KT 3000 -RA BR SCT018 BKN100 BECMG 2503/2505 20005KT 5000 HZ
VEBD,TAF VEBD 241100Z 2412/2518 VRB02KT 4000 TSRABR SCT025 FEW030CB BKN080 BECMG 2421/2423 6000 SCT025 BKN080 TEMPO 2510/2514 3000 TSRABR SCT025 FEW025CB BKN080
VEBN,TAF VEBN 241700Z 2418/2524 00000KT 3000 HZ BR SCT020 BKN100 TEMPO 2421/2501 2000 -TSRA -RA FEW030CB OVC090 BECMG 2504/2506 5000 HZ TEMPO 2507/2811 2000 -TSRA -RA FEW030CB OVC090 BECMG 2515/2517 3000 HZ BR
VEBS,TAF VEBS 242000Z 2421/2506 00000KT 3000 HZ BR SCT016 BKN100 BECMG 2502/2504 18006KT 4000 HZ SCT018 BKN100
VECC,TAF VECC 242000Z 2421/2506 16005KT 3000 HZ SCT018 SCT100 BECMG 2500/2502 2200 BR BECMG 2503/2505 4000 HZ
VEGT,TAF VEGT 242000Z 2421/2506 00000KT 3000 -RA BR SCT018 BKN100 BECMG 2503/2505 25005KT 5000 HZ
VEGY,TAF VEGY 241400Z 2415/2424 00000KT 3500 BR SCT018 BKN090 BECMG 2421/2423 2500 BR
VEIM,TAF VEIM 242000Z 2421/2506 00000KT 3000 -RA BR SCT018 BKN100 BECMG 2503/2505 14005KT 5000 HZ
VEMN,TAF VEMN 242000Z 2421/2506 00000KT 3000 -RA BR SCT018 BKN100 BECMG 2503/2505 07005KT 5000 HZ
VEMR,TAF VEMR 242000Z 2421/2506 00000KT 3000 -RA BR SCT018 BKN100 BECMG 2503/2505 23005KT 5000 HZ
VEPT,TAF VEPT 242000Z 2421/2506 00000KT 2800 -RA BR SCT018 SCT100 BECMG 2502/2504 3500 BR
VERC,TAF VERC 242000Z 2421/2506 00000KT 2500 -RA HZ SCT018 BKN100 BECMG 2503/2505 3500 -RA HZ FEW010 SCT015 BKN100
VETZ,TAF VETZ 241530Z 2418/2506 10010KT 3000 TSRABR SCT010 SCT015 FEW025CB BKN080
VGEG,TAF VGEG 241700Z 2418/2524 16010KT 3500 HZ SCT016 BKN100 TEMPO 2422/2504 17015/20KT 2000 RA/TSRA BKN008 FEW025CB OVC080 BECMG 2504/2506 16010KT 5000 HZ SCT016 BKN100 BECMG 2511/2513 27012KT 4000 HZ SCT016 BKN100 TEMPO 2519/2524 00000KT 1500 RA/TSRA BKN007 FEW025CB OVC080
VGHS,TAF VGHS 241700Z 2418/2524 12006KT 3500 HZ SCT012 BKN100 BECMG 2421/2423 08005KT 3200 HZ SCT015 BKN100 TEMPO 2500/2508 16020KT 2500 RA/TSRA BKN008 FEW025CB OVC090 BECMG 2509/2511 18001KT 4000 HZ SCT015 BKN100
VHHH,TAF VHHH 242000Z 2421/2603 08010KT 9999 FEW030 TX33/2506Z TN27/2422Z TN27/2522Z TEMPO 2503/2509 29010KT
VIAG,TAF VIAG 241700Z 2418/2600 18005KT 3000 BR SCT015 BKN090 TEMPO 2510/2512 23010KT 1500 TSRABR SCT015 FEW025CB BKN090
VIAR,TAF VIAR 242000Z 2421/2506 05005KT 3000 -RA BR SCT030 BKN090 TEMPO 2423/2503 1500 -TSRA FEW035CB BECMG 2504/2506 09006KT 3500 BR SCT030 BKN090
VICG,TAF VICG 241700Z 2418/2600 VRB02KT 3000 -RABR SCT010 SCT015 OVC080 TEMPO 2421/2424 2000 TSRA SCT010 SCT015 FEW030CB OVC080 BECMG 2500/2502 16010KT TEMPO 2508/2512 3000 TSRABR SCT015 SCT020 FEW030CB OVC080 BECMG 2515/2516 5000 -RA FEW015 SCT020 BKN090
VIDP,TAF VIDP 242000Z 2421/2506 14006KT 2500 BR -RA BKN025 OVC080 TEMPO 2423/2503 1500 -TSRA FEW035CB BECMG 2504/2506 27008KT 3500 BR -RA SCT030 BKN080
VIJP,TAF VIJP 241700Z 2418/2524 27008KT 2500 HZ BR SCT030 BECMG 2504/2506 27010KT 4000 HZ BR SCT030 SCT090 BECMG 2512/2514 VRB03KT 3000 BR -RA SCT030 BKN090
VIJU,TAF VIJU 240930Z 2418/2512 18005KT 5000 -RA FEW025 FEW030CB BKN090 TEMPO 2504/2509 31005KT 6000 TS FEW025 FEW030CB BKN090
VILH,TAF VILH 240930Z 2418/2512 29010KT 6000 SCT060 BKN100 TEMPO 2420/2422 5000 RA BECMG 2500/2504 5000 RA SCT040 SCT060 BKN100
VILK,TAF VILK 242000Z 2421/2506 VRB02KT 3000 HZ BR SCT020 BKN100 TEMPO 2421/2501 2000 -TSRA -RA FEW030CB OVC090 BECMG 2504/2506 5000 HZ
VISR,TAF VISR 241530Z 2418/2506 16005KT 6000 RA SCT020 FEW030CB BKN080 BECMG 2421/2423 4000 BR TEMPO 2424/2502 2000 BR BECMG 2503/2505 6000 SCT025 BKN080
VLLB,TAF VLLB 241700Z 2418/2518 12004KT 4000 BR SCT010 BKN080
VLLN,TAF VLLN 241700Z 2418/2518 09004KT 3000 BR SCT010 BKN090
VLPS,TAF VLPS 241700Z 2418/2518 32004KT 4000 BR SCT013 BKN050
VLSK,TAF VLSK 241700Z 2418/2518 27004KT 3000 BR SCT010 BKN080
VLVT,TAF VLVT 241700Z 2418/2518 22004KT 4000 BR SCT016 BKN083
VMMC,TAF VMMC 241700Z 2418/2524 03008KT 9999 FEW025 TEMPO 2418/2422 09010KT TEMPO 2508/2516 11010KT
VNKT,TAF VNKT 241700Z 2418/2518 VRB02KT 7000 FEW015 SCT030 BKN100 PROB30 2418/2420 5000 -TSRA FEW025CB BECMG 2500/2502 VRB02KT 6000 FEW010 SCT030 BKN100 BECMG 2504/2505 14004KT 7000 FEW015 SCT030 PROB30 2506/2510 6000 -TSRA FEW025CB BECMG 2508/2510 24008KT 8000 FEW015 SCT030 BKN100 BECMG 2514/2515 22004KT 7000 FEW015 SCT030
VOBG,VOBG 242000Z 2421/2506 29005KT 6000 SCT012 TEMPO 2422/2503 3000 BR SCT008 SCT012
VOBL,TAF VOBL 242000Z 2421/2506 29005KT 6000 SCT012 TEMPO 2422/2503 3000 BR SCT008 SCT012
VOBM,TAF VOBM 241700Z 2418/2503 27005KT 6000 SCT012 SCT080 TEMPO 2500/2503 3000 BR SCT008 SCT012
VOBZ,TAF VOBZ 242000Z 2421/2506 28007KT 6000 SCT010 SCT015 BKN100 TEMPO 2500/2503 VRB04KT 5000 BR SCT010 SCT015 BKN100 BECMG 2504/2506 27010KT 6000 SCT015 SCT025 BKN100
VOCB,TAF VOCB 241700Z 2418/2524 21010KT 5000 BR SCT015 SCT080 TEMPO 2500/2503 3000 BR BECMG 2505/2506 6000 TEMPO 2509/2515 SCT015 FEW020TCU/CB SCT080 BECMG 2512/2513 5000 BR
VOCI,TAF VOCI 242000Z 2421/2506 VRB03KT 3000 BR SCT015 BECMG 2503/2505 30010KT 6000 FEW015 FEW025TCU
VOCL,TAF VOCL 242000Z 2421/2506 VRB03KT 4000 BR SCT012 SCT080 BECMG 2503/2505 28010KT 6000 FEW015 FEW025TCU
VOGO,TAF VOGO 241700Z 2418/2503 22010KT 6000 FEW010 SCT020 BKN080 TEMPO 2422/2502 3000 RA/BR FEW008 SCT018 BKN080
VOHB,VOHB 242000Z 2421/2506 27005KT 6000 SCT012 SCT080 TEMPO 2500/2503 3000 BR SCT008 SCT012
VOHS,TAF VOHS 242000Z 2421/2506 28007KT 6000 SCT010 SCT015 BKN100 TEMPO 2500/2503 VRB04KT 5000 BR SCT010 SCT015 BKN100 BECMG 2504/2506 27010KT 6000 SCT015 SCT025 BKN100
VOHY,TAF VOHY 241400Z 2415/2424 28008KT 6000 SCT015 BKN100 TEMPO 2418/2422 5000 BR SCT015 BKN100
VOKN,TAF VOKN 242000Z 2421/2506 09005KT 2500 BR FEW004 SCT012 BECMG 2503/2505 32010KT 6000 SCT012 FEW025TCU
VOMD,TAF VOMD 241700Z 2418/2524 33005KT 5000 BR SCT020 SCT100 BECMG 2503/2504 6000 BECMG 2509/2510 09005KT TEMPO 2509/2515 SCT020 FEW025TCU/CB SCT100 BECMG 2518/2519 33005KT 5000 BR
VOML,VOML 242000Z 2421/2506 09005KT 6000 SCT012 BECMG 2422/2423 3000 BR FEW005 SCT012 TEMPO 2500/2503 1500 BR SCT005 SCT012 BECMG 2505/2506 27010KT 6000 SCT012 SCT080
VOMM,TAF VOMM 241700Z 2418/2524 20005KT 5000 HZ SCT020 SCT100 TEMPO 2418/2424 4000 -RA/DZ SCT018 SCT080 BECMG 2502/2503 28010KT BECMG 2506/2507 6000 BECMG 2508/2509 09010KT TEMPO 2509/2515 SCT020 FEW025TCU/CB SCT100 BECMG 2518/2519 20005KT 5000 HZ
VOPB,TAF VOPB 241800Z 2421/2506 VRB02KT 5000 BR SCT014 SCT080 TEMPO 2500/2504 25010KT 3000 RA SCT012 SCT020 BKN080 BECMG 2500/2502 25008KT 6000
VORY,TAF VORY 242000Z 2421/2506 28007KT 6000 SCT010 SCT015 BKN100 TEMPO 2500/2503 VRB04KT 5000 BR SCT010 SCT015 BKN100 BECMG 2504/2506 27010KT 6000 SCT015 SCT025 BKN100
VOTP,TAF VOTP 242000Z 2421/2506 28007KT 6000 SCT010 SCT015 BKN100 TEMPO 2500/2503 VRB04KT 5000 BR SCT010 SCT015 BKN100 BECMG 2504/2506 27010KT 6000 SCT015 SCT025 BKN100
VOTR,TAF VOTR 241700Z 2418/2524 29010KT 3000 HZ SCT020 SCT100 BECMG 2503/2504 29010G20KT 5000 HZ BECMG 2506/2507 6000 TEMPO 2509/2515 SCT020 FEW025TCU/CB SCT100 BECMG 2512/2513 29010KT 5000 HZ BECMG 2515/2516 3000 HZ/BR
VOTV,TAF VOTV 242000Z 2421/2506 32010KT 3000 BR SCT015 BECMG 2503/2505 30010G20KT 6000 FEW015 FEW025TCU
VOVZ,TAF VOVZ 242000Z 2421/2506 VRB02KT 5000 BR FEW018 BKN080 TEMPO 2422/2502 VRB02KT 3000 BR BECMG 2504/2506 25010KT 5000 BR FEW018 BKN080
VRMG,TAF VRMG 241700Z 2418/2524 26007KT 9999 FEW017TCU TEMPO 2418/2424 3000 TSRA SCT017CB
VRMH,TAF VRMH 241700Z 2418/2524 32008KT 9999 FEW018 TEMPO 2418/2424 FEW019CB
VRMM,TAF VRMM 241700Z 2418/2524 33009KT 9999 FEW018TCU TEMPO 2418/2424 5000 SHRA FEW017CB
VTBD,TAF VTBD 241700Z 2418/2524 33005KT 9999 FEW020 SCT040 TEMPO 2418/2422 VRB15KT 3000 TSRA FEW018CB SCT030 BKN100 BECMG 2502/2504 17005KT TEMPO 2506/2512 VRB15KT 3000 TSRA FEW018CB SCT030 BKN100
VTBO,TAF VTBO 241700Z 2418/2518 18005KT 8000 FEW020 BKN100 TEMPO 2421/2503 VRB10G25KT 3000 TSRA FEW018CB SCT030 BKN100
VTBS,TAF VTBS 241700Z 2418/2524 17005KT 9999 FEW020 SCT040 TEMPO 2418/2422 VRB15KT 3000 TSRA FEW018CB SCT030 BKN100 BECMG 2422/2424 33005KT BECMG 2502/2504 18005KT TEMPO 2506/2512 VRB15KT 3000 TSRA FEW018CB SCT030 BKN100
VTBU,TAF VTBU 241700Z 2418/2518 33004KT 9999 FEW020 TEMPO 2421/2502 VRB16KT 4000 TSRA FEW018CB SCT035 BKN100 BECMG 2502/2504 24008KT
VTCC,TAF VTCC 241700Z 2418/2524 36005KT 9999 BKN035 TEMPO 2418/2424 -TSRA FEW025CB BKN035 BECMG 2504/2506 20005KT TEMPO 2508/2514 24010G25KT 4000 TSRA FEW025CB BKN035 BECMG 2512/2514 02005KT
VTCH,TAF VTCH 241700Z 2418/2518 16005KT 9999 BKN025 TEMPO 2418/2424 -TSRA FEW020CB BKN025 TEMPO 2506/2512 24010G25KT 4000 TSRA FEW020CB BKN025
VTCL,TAF VTCL 241700Z 2418/2518 20005KT 9999 BKN025 TEMPO 2418/2422 02010G25KT 4000 TSRA FEW020CB BKN025 TEMPO 2506/2512 26010G25KT 3000 TSRA FEW020CB BKN025
VTCN,TAF VTCN 241700Z 2418/2518 18005KT 9999 SCT030 TEMPO 2506/2512 06010G25KT 3000 TSRA FEW018CB BKN030
VTCP,TAF VTCP 241700Z 2418/2518 20005KT 9999 BKN035 TEMPO 2418/2422 -TSRA FEW018CB BKN030 TEMPO 2506/2512 24010G25KT 3000 TSRA FEW018CB BKN030
VTCT,TAF VTCT 241700Z 2418/2524 06005KT 9999 SCT035 TEMPO 2506/2512 -TSRA FEW020CB BKN030 BECMG 2508/2510 16005KT BECMG 2514/2516 02005KT
VTPB,TAF VTPB 241700Z 2418/2518 04005KT 9999 BKN025 TEMPO 2418/2424 08010G25KT 3000 TSRA FEW018CB BKN025 TEMPO 2508/2516 24010G25KT 3000 TSRA FEW018CB BKN025
VTPH,TAF VTPH 241700Z 2418/2518 34003KT 9999 FEW020 BKN100 BECMG 2504/2506 11008KT BECMG 2513/2515 17003KT
VTPM,TAF VTPM 241700Z 2418/2518 24005KT 9999 BKN030 TEMPO 2418/2422 -TSRA FEW020CB BKN030 TEMPO 2506/2512 30010G25KT 4000 TSRA FEW020CB BKN030
VTPO,TAF VTPO 241700Z 2418/2518 20005KT 9999 BKN025 TEMPO 2418/2422 -TSRA FEW018CB BKN020 TEMPO 2508/2516 24010G25KT 4000 TSRA FEW018CB BKN020
VTPP,TAF VTPP 241700Z 2418/2518 12005KT 9999 BKN030 TEMPO 2508/2515 26010G25KT 4000 TSRA FEW020CB BKN030
VTSB,TAF VTSB 241700Z 2418/2518 00000KT 8000 FEW020 SCT100 BECMG 2503/2505 24008KT TEMPO 2506/2513 24015G25KT 4000 TSRA FEW016CB SCT018 BKN100 BECMG 2513/2515 00000KT
VTSC,TAF VTSC 241700Z 2418/2518 20004KT 9999 FEW020 BKN100 TEMPO 2418/2422 4000 RA BECMG 2504/2506 05008KT TEMPO 2506/2513 VRB15G25KT 4000 TSRA FEW016CB SCT018 BKN100 BECMG 2513/2515 18004KT
VTSE,TAF VTSE 241700Z 2418/2518 00000KT 8000 FEW020 SCT100 BECMG 2504/2506 26008KT BECMG 2513/2515 00000KT
VTSF,TAF VTSF 241700Z 2418/2518 00000KT 9999 FEW020 SCT100 BECMG 2504/2506 05006KT TEMPO 2506/2513 VRB15G25KT 4000 TSRA FEW016CB SCT018 BKN100 BECMG 2513/2515 21003KT
VTSG,TAF VTSG 241700Z 2418/2518 00000KT 9999 SCT020 TEMPO 2422/2504 24015G25KT 3000 TSRA FEW018CB SCT020 BKN100 BECMG 2504/2506 24006KT
VTSM,TAF VTSM 241700Z 2418/2518 29003KT 9999 SCT020 PROB40 TEMPO 2418/2422 4000 RA PROB40 TEMPO 2508/2513 VRB15G25KT 4000 TSRA FEW016CB SCT018 BKN100
VTSP,TAF VTSP 241700Z 2418/2524 00000KT 9999 SCT020 TEMPO 2420/2502 26015G25KT 3000 TSRA FEW018CB SCT020 BKN100 BECMG 2502/2504 26008KT
VTSR,TAF VTSR 241700Z 2418/2518 00000KT 9999 SCT020 TEMPO 2420/2502 24015G25KT 3000 TSRA FEW018CB SCT020 BKN100 BECMG 2502/2504 24006KT
VTSS,TAF VTSS 241700Z 2418/2518 00000KT 9999 FEW020 BKN100 BECMG 2503/2505 24010KT TEMPO 2505/2512 24015G25KT 4000 TSRA FEW016CB SCT018 BKN100 BECMG 2513/2515 00000KT
VTST,TAF VTST 241700Z 2418/2518 00000KT 9999 SCT020 BECMG 2504/2506 22006KT
VTUD,TAF VTUD 241700Z 2418/2518 08005KT 9999 SCT025 SCT080 TEMPO 2504/2511 VRB15KT 4000 TSRA FEW015CB BKN020 BKN080 TEMPO 2512/2518 VRB15KT 4000 TSRA FEW015CB BKN020 BKN080
VTUI,TAF VTUI 241700Z 2418/2518 12005KT 9999 SCT025 SCT080 TEMPO 2504/2511 VRB15KT 4000 TSRA FEW015CB BKN020 BKN080 TEMPO 2512/2518 VRB15KT 4000 TSRA FEW015CB BKN020 BKN080
VTUK,TAF VTUK 241700Z 2418/2518 07005KT 9000 SCT025 SCT080 TEMPO 2504/2511 VRB15KT 4000 TSRA FEW015CB BKN020 BKN080 TEMPO 2512/2518 VRB15KT 4000 TSRA FEW015CB BKN020 BKN080
VTUL,TAF VTUL 241700Z 2418/2518 03005KT 9000 SCT025 SCT080 TEMPO 2504/2511 VRB15KT 4000 TSRA FEW015CB BKN020 BKN080 TEMPO 2512/2518 VRB15KT 4000 TSRA FEW015CB BKN020 BKN080
VTUO,TAF VTUO 241700Z 2418/2518 16005KT 9000 SCT030 TEMPO 2509/2512 VRB15KT 4000 TSRA FEW018CB BKN025
VTUQ,TAF VTUQ 241700Z 2418/2518 18005KT 9000 SCT025
VTUU,TAF VTUU 241700Z 2418/2518 19005KT 9000 SCT030
VTUV,TAF VTUV 241700Z 2418/2518 16005KT 9000 SCT025
VTUW,TAF VTUW 241700Z 2418/2518 13005KT 9999 SCT025 SCT080 TEMPO 2504/2511 VRB15KT 4000 TSRA FEW015CB BKN020 BKN080 TEMPO 2512/2518 VRB15KT 4000 TSRA FEW015CB BKN020 BKN080
VVCI,TAF VVCI 241700Z 2418/2518 05008KT 9999 FEW020 BKN040 TEMPO 2418/2421 4000 TSRA SCT012 FEW027CB BKN040 TEMPO 2503/2507 4000 TSRA SCT020 FEW027CB BKN040
VVCR,TAF VVCR 241700Z 2418/2518 32005KT 8000 SCT015 BKN050 TEMPO 2418/2501 4500 RA BECMG 2502/2503 09010KT TEMPO 2509/2514 4500 TSRA SCT013 FEW017CB BKN050 BECMG 2514/2515 32005KT
VVCT,TAF VVCT 241700Z 2418/2518 VRB03KT 9999 SCT015 SCT040 BECMG 2501/2502 22010KT TEMPO 2503/2508 4000 TSRA BKN012 SCT015CB
VVDN,TAF VVDN 241700Z 2418/2518 21005KT 8000 SCT013 SCT050 TEMPO 2418/2501 4000 SHRA SCT010 FEW015CB BKN050 TEMPO 2509/2518 4000 TSRA SCT010 FEW015CB BKN050
VVNB,TAF VVNB 241700Z 2418/2518 04005KT 9999 FEW020 BKN040 TEMPO 2418/2421 4000 -RA BR SCT013 FEW025TCU BKN040 TEMPO 2504/2508 4000 TSRA SCT020 FEW027CB BKN040
VVPB,TAF VVPB 241700Z 2418/2518 25005KT 8000 SCT013 SCT040 TEMPO 2418/2502 4500 SHRA SCT010 FEW015CB BKN040 TEMPO 2508/2518 4000 TSRA SCT010 FEW015CB BKN040
VVPQ,TAF VVPQ 241700Z 2418/2518 23008KT 9999 SCT017 SCT040 TEMPO 2500/2506 23015G28KT 3000 TSRA BKN012 SCT015CB
VVTS,TAF VVTS 241700Z 2418/2524 VRB03KT 9999 SCT015 SCT040 BECMG 2500/2501 24010KT TEMPO 2504/2507 5000 SHRA SCT015 FEW017CB BKN040 TEMPO 2507/2512 24015G28KT 3000 TSRA SCT013 SCT015CB
VYMD,TAF VYMD 241100Z 2412/2512 14005KT 7000 BKN020 FEW025CB TEMPO 2412/2418 34008G18KT 4000 -TSRA BKN015 FEW018CB OVC100
VYNT,TAF VYNT 241700Z 2418/2518 21007KT 7000 BKN020 FEW025CB BKN120 TEMPO 2418/2424 19008KT 4000 -RA BKN018 FEW020CB BKN100
VYYY,TAF VYYY 241700Z 2418/2518 23006KT 7000 BKN014 FEW020CB BKN100 TEMPO 2418/2424 34005KT 5000 -RA TEMPO 2500/2506 12006KT 4000 RA BKN012 FEW018CB OVC090 TEMPO 2506/2512 21008G18KT 4000 TSRA BKN010 FEW016CB OVC080
WAAA,TAF WAAA 241700Z 2418/2524 10003KT 8000 FEW019 BECMG 2501/2503 30010KT
WABB,TAF WABB 241700Z 2418/2600 03004KT 9999 SCT018 TEMPO 2418/2422 5000 RA BKN018
WADD,TAF AMD WADD 241930Z 2419/2518 VRB05KT 9999 SCT016 TEMPO 2419/2423 5000 RA BKN014 BECMG 2500/2502 16010KT
WADL,TAF WADL 241700Z 2418/2518 15006KT 7000 BKN016
WALL,TAF WALL 241700Z 2418/2524 32003KT 9000 SCT020
WALS,TAF WALS 241700Z 2418/2506 35001KT 8000 SCT017 TEMPO 2422/2424 2500 BR
WAMM,TAF WAMM 241700Z 2418/2524 VRB02KT 9999 SCT020 BECMG 2501/2502 18009KT
WAOO,TAF WAOO 241700Z 2418/2518 08005KT 9000 SCT016 TEMPO 2418/2422 3000 BR
WAPP,TAF WAPP 241700Z 2418/2518 09003KT 9999 FEW020
WAQA,TAF WAQA 241700Z 2418/2506 22006KT 8000 FEW012CB SCT012 PROB30 TEMPO 2418/2421 4000 RA
WAQD,TAF WAQD 241700Z 2418/2506 21002KT 9000 SCT015
WAQJ,TAF WAQJ 241700Z 2418/2506 22003KT 8000 BKN015 BECMG 2420/2421 1000 BR BKN006 BECMG 2500/2501 8000 NSW BKN015
WAQQ,TAF WAQQ 241700Z 2418/2506 24008KT 8000 FEW015CB BKN015 PROB30 TEMPO 2418/2421 5000 RA
WAQT,TAF WAQT 241700Z 2418/2506 VRB02KT 8000 SCT015 TEMPO 2422/2424 3000 BR BKN010
WARR,TAF WARR 241700Z 2418/2518 25005KT 8000 FEW020 BECMG 2418/2420 5000 HZ BECMG 2500/2502 09010KT 9999 NSW
WATT,TAF WATT 241700Z 2418/2518 11004KT 8000 FEW018 BECMG 2501/2503 32012KT BECMG 2511/2513 13005KT
WBGB,TAF WBGB 241700Z 2418/2518 30006KT 9999 FEW016 TEMPO 2508/2511 5000 TSRA FEW015CB SCT018
WBGG,TAF WBGG 241700Z 2418/2518 VRB03KT 9999 FEW018 TEMPO 2508/2511 3000 +TSRA FEW015CB SCT018
WBGR,TAF WBGR 241700Z 2418/2518 30006KT 9999 FEW016 TEMPO 2421/2422 5000 TSRA FEW015CB SCT018
WBGS,TAF WBGS 241700Z 2418/2518 VRB03KT 9999 SCT018 TEMPO 2508/2511 5000 TSRA FEW015CB SCT018
WBKK,TAF AMD WBKK 241924Z 2419/2518 11006KT 9999 FEW015 TEMPO 2420/2501 28005G23KT 3000 +TSRA FEW014 FEW016CB SCT030 TEMPO 2505/2510 29005G25KT 2000 +TSRA FEW013 FEW016CB SCT030
WBKL,TAF WBKL 241700Z 2418/2518 24006KT 9999 FEW015 TEMPO 2507/2511 26005G18KT 3000 TSRA FEW010 FEW016CB SCT030
WBKS,TAF WBKS 241700Z 2418/2518 25007KT 9999 FEW016 TEMPO 2418/2422 5000 TSRA FEW010 FEW017CB SCT035 BECMG 2510/2512 04005KT
WBKW,TAF WBKW 241700Z 2418/2518 28006KT 9999 FEW017 TEMPO 2418/2422 4000 TSRA FEW014 FEW016CB SCT035 BECMG 2507/2509 15006KT
WBSB,TAF WBSB 241650Z 2418/2600 20003KT 9999 FEW014 FEW015CB TEMPO 2420/2423 24012KT 7000 SHRA BECMG 2502/2504 26012KT SCT015 FEW016CB
WIDD,TAF WIDD 241100Z 2412/2512 20005KT 9000 SCT014
WIEE,TAF AMD WIEE 241900Z 2419/2518 10004KT 9999 BKN018 TEMPO 2419/2422 2000 RA
WIHH,TAF WIHH 241700Z 2418/2518 06005KT 6000 FEW020 BECMG 2503/2505 24004KT SCT020
WIII,TAF WIII 241700Z 2418/2524 23005KT 4000 BR FEW020 BECMG 2500/2502 03010KT 9000 NSW
WIMM,TAF WIMM 241700Z 2418/2518 VRB03KT 3000 BR SCT018 BECMG 2502/2504 04010KT 9999 NSW
WIPP,TAF WIPP 241700Z 2418/2518 20005KT 9999 SCT010
WITT,TAF WITT 241700Z 2418/2518 13003KT 9999 BKN018 BECMG 2505/2507 28015KT FEW017CB BKN018 TEMPO 2512/2515 26016G29KT 5000 -RA FEW017CB BKN018
WMAP,TAF WMAP 241700Z 2418/2518 VRB02KT 9999 FEW025 TEMPO 2419/2500 4000 TSRA FEW017CB
WMBT,TAF WMBT 241700Z 2418/2518 VRB02KT 9999 FEW022
WMKA,TAF AMD WMKA 241647Z 2418/2518 VRB03KT 9999 FEW030 TEMPO 2422/2502 4000 +TSRA FEW010 FEW017CB BECMG 2504/2506 23007KT FEW020 BECMG 2510/2512 VRB03KT FEW030
WMKB,TAF WMKB 241700Z 2418/2518 VRB02KT 9999 FEW024 TEMPO 2420/2424 5000 TSRA FEW017CB BECMG 2502/2504 30008KT
WMKC,TAF WMKC 241700Z 2418/2518 VRB03KT 9999 FEW020 TEMPO 2510/2514 7000 -TSRA FEW017CB
WMKE,TAF WMKE 241700Z 2418/2518 VRB02KT 9999 FEW020
WMKI,TAF WMKI 241700Z 2418/2518 05005KT 8000 FEW026 TEMPO 2507/2511 22008KT 5000 TSRA FEW017CB
WMKJ,TAF WMKJ 241700Z 2418/2518 VRB02KT 9999 FEW022 TEMPO 2419/2501 4000 TSRA FEW017CB
WMKK,TAF AMD WMKK 241834Z 2418/2600 VRB02KT 9999 FEW022 TEMPO 2418/2423 4000 TSRA FEW017CB
WMKL,TAF AMD WMKL 241646Z 2418/2518 VRB03KT 9999 FEW026 TEMPO 2422/2502 4000 +TSRA FEW010 FEW017CB BECMG 2504/2506 23007KT FEW020 BECMG 2510/2512 00000KT FEW026
WMKM,TAF AMD WMKM 241834Z 2418/2518 VRB02KT 9999 FEW024 TEMPO 2418/2423 5000 TSRA FEW017CB
WMKN,TAF AMD WMKN 241850Z 2418/2518 VRB03KT 9999 FEW020 TEMPO 2419/2423 5000 TSRA FEW010 FEW017CB TEMPO 2511/2514 7000 -TSRA FEW017CB
WMKP,TAF WMKP 241700Z 2418/2518 00000KT 8000 FEW025 TEMPO 2422/2502 4000 +TSRA FEW010 FEW017CB BECMG 2504/2506 23007KT BECMG 2510/2512 00000KT
WMPA,TAF WMPA 240500Z 2406/2506 VRB02KT 9999 FEW021 TEMPO 2420/2424 6000 TSRA FEW017CB
WMSA,TAF AMD WMSA 241936Z 2419/2518 VRB02KT 9999 FEW024 TEMPO 2419/2423 5000 TSRA FEW017CB
WPDL,TAF WPDL 241706Z 2418/2506 15006KT 9999 FEW020 FM250000 36010KT 9999 SCT025
WSAP,TAF AMD WSAP 242030Z 2420/2600 20008KT 9999 FEW015 BKN020 TEMPO 2422/2502 3000 TSRA FEW012CB BKN015
WSSL,TAF AMD WSSL 242030Z 2420/2600 20008KT 9999 FEW015 BKN020 TEMPO 2422/2502 3000 TSRA FEW012CB BKN015
WSSS,TAF AMD WSSS 242030Z 2420/2600 20008KT 9999 FEW015 BKN020 TEMPO 2422/2502 3000 TSRA FEW012CB BKN015
YAMB,TAF YAMB 241704Z 2418/2518 27006KT CAVOK FM250500 08008KT CAVOK FM251000 VRB03KT 9999 FEW020 PROB30 2514/2518 0500 FG BKN001
YBAS,TAF AMD YBAS 242146Z 2421/2518 03010KT CAVOK BECMG 2423/2500 36017G27KT CAVOK FM250200 32013KT CAVOK FM251000 17007KT CAVOK
YBBN,TAF YBBN 242009Z 2421/2600 24008KT CAVOK FM250300 06008KT CAVOK FM251200 25005KT 9999 FEW020
YBCG,TAF YBCG 242010Z 2421/2518 24007KT CAVOK FM250200 09009KT 9999 FEW045 FM251000 VRB03KT 9999 FEW025
YBCS,TAF YBCS 242007Z 2421/2518 17005KT 9999 SCT030 FM250000 04010KT 9999 FEW030 FM251000 16005KT 9999 SCT030
YBHM,TAF YBHM 241708Z 2418/2506 VRB05KT 9999 SCT010 FM250100 09012KT 9999 SCT020
YBLN,TAF AMD YBLN 242140Z 2421/2518 08006KT 9999 -SHRA SCT018 BKN040 FM250100 20007KT 9999 NSW SCT030 FM250700 20010KT 9999 SCT025 BKN030 FM251300 18005KT 9999 SCT025 INTER 2421/2500 4000 SHRA BKN005
YBMA,TAF YBMA 241709Z 2418/2506 17005KT CAVOK FM242000 10007KT CAVOK FM250000 07010KT CAVOK
YBRK,TAF YBRK 241705Z 2418/2518 VRB03KT CAVOK FM250000 11006KT CAVOK FM250400 04008KT CAVOK FM251100 VRB03KT CAVOK PROB30 2516/2518 0500 FG BKN001
YBRM,TAF YBRM 241659Z 2418/2518 24008KT CAVOK FM250300 27014KT CAVOK FM251100 25008KT CAVOK
YBTL,TAF YBTL 241710Z 2418/2518 06005KT 9999 SCT020 FM250000 03014KT 9999 FEW040 FM250900 06007KT 9999 SCT020
YBWW,TAF YBWW 241705Z 2418/2518 16004KT CAVOK FM242200 22010KT CAVOK
YCFS,TAF YCFS 241703Z 2418/2518 23005KT CAVOK FM250100 10010KT 9999 FEW040 FM251100 30007KT 9999 SCT025
YCIN,TAF YCIN 241841Z 2420/2508 VRB03KT CAVOK FM250000 23008KT CAVOK FM250500 28012KT CAVOK
YFRT,TAF AMD YFRT 241851Z 2418/2508 19016G26KT 9999 -SHRA BKN012 BECMG 2500/2501 18016G28KT 9999 NSW BKN025 FM250300 18016G28KT 9999 BKN040
YGEL,TAF YGEL 241706Z 2418/2512 15008KT 9999 FEW040 FM250500 18014KT CAVOK
YGLA,TAF YGLA 241613Z 2418/2506 22005KT CAVOK FM250000 04010KT CAVOK
YHID,TAF AMD YHID 242137Z 2421/2518 14010KT 9999 FEW015 SCT025 FM250000 11018KT 9999 SCT025 FM250900 12012KT 9999 -SHRA SCT018
YLHI,TAF AMD YLHI 241707Z 2417/2518 27014KT 9999 -SHRA SCT010 BKN020 FM250400 25014KT 9999 -SHRA SCT015 BKN025 FM251000 23012KT 9999 NSW BKN025 TEMPO 2417/2504 5000 SHRA BKN010
YMAV,TAF YMAV 241722Z 2418/2518 30006KT CAVOK FM250900 VRB03KT CAVOK
YMHB,TAF YMHB 242015Z 2421/2518 33010KT CAVOK FM250300 26006KT 9999 BKN050 FM250600 15004KT 9999 SCT040 BKN050 FM251200 34005KT CAVOK
YMLT,TAF AMD YMLT 242051Z 2420/2518 18006KT CAVOK FM250000 32010KT 9999 BKN035 FM250300 34014KT 9999 -SHRA BKN025 FM250900 34010KT CAVOK INTER 2503/2508 5000 SHRA BKN015 PROB30 2420/2422 0500 FG
YMML,TAF YMML 242020Z 2421/2600 36010KT CAVOK FM250000 27004KT CAVOK FM250900 36010KT CAVOK FM252100 01014KT 9999 -SHRA NSC
YPAD,TAF YPAD 242023Z 2421/2600 05005KT CAVOK FM250200 24012KT CAVOK FM250400 02010KT 9999 -SHRA SCT050 FM251200 12005KT 9999 -SHRA FEW015 BKN045 FM251800 18006KT 9999 -SHRA FEW010 INTER 2506/2510 5000 SHRA BKN025 INTER 2518/2600 4000 SHRA BKN010
YPCC,TAF YPCC 241700Z 2418/2518 12018KT 9999 -SHRA BKN018
YPDN,TAF AMD YPDN 242201Z 2422/2600 32005KT 9999 BKN014 BECMG 2423/2500 32006KT 9999 SCT015 FM250200 31012KT 9999 SCT030 FM251100 29005KT 9999 FEW018 FM251400 VRB03KT 9999 SCT015
YPEA,TAF YPEA 241707Z 2418/2512 17005KT CAVOK FM242000 09005KT 9999 FEW050 FM250300 16008KT 9999 SCT040 FM250500 23012KT 9999 SCT040 FM251100 18008KT 9999 FEW040
YPGV,TAF YPGV 241852Z 2420/2508 16005KT 9999 FEW010 FM242300 08012KT 9999 SCT020
YPJT,TAF YPJT 241706Z 2418/2512 17008KT CAVOK FM242000 07005KT 9999 FEW050 FM250300 23012KT 9999 SCT040 FM251000 18008KT 9999 FEW040
YPKG,TAF YPKG 241706Z 2418/2518 15012KT 9999 SCT020 FM242300 16010KT CAVOK
YPKU,TAF YPKU 241841Z 2420/2508 06006KT CAVOK FM250000 05012KT CAVOK FM250500 02010KT CAVOK
YPLM,TAF YPLM 241700Z 2418/2518 20018KT CAVOK
YPPD,TAF YPPD 241700Z 2418/2518 25010KT CAVOK FM242100 18012KT CAVOK FM250400 29016KT CAVOK FM251000 27012KT CAVOK FM251500 23006KT CAVOK
YPPH,TAF YPPH 242011Z 2421/2600 07005KT CAVOK FM250300 23012KT 9999 SCT040 FM251200 17008KT CAVOK FM251800 11006KT CAVOK
YPTN,TAF YPTN 241705Z 2418/2518 09005KT CAVOK FM250200 09012KT CAVOK FM250900 10005KT CAVOK
YPWR,TAF YPWR 241721Z 2418/2512 06007KT CAVOK FM250000 01014KT CAVOK FM250200 36013KT 9999 -SHRA NSC
YPXM,TAF AMD YPXM 241700Z 2417/2518 12014KT 9999 BKN010 TEMPO 2417/2518 9999 BKN008
YSCB,TAF AMD YSCB 242106Z 2421/2518 VRB03KT 9999 BKN008 BECMG 2422/2423 14005KT 9999 SCT030 FM250000 32012KT CAVOK FM250800 28006KT CAVOK
YSDU,TAF AMD YSDU 241954Z 2419/2512 26010KT CAVOK FM250800 VRB03KT CAVOK PROB40 2419/2421 0300 FG BKN001
YSNF,TAF YSNF 241709Z 2418/2518 06012KT 9999 SCT040 FM251300 04012KT 9999 BKN030
YSRI,TAF AMD YSRI 241649Z 2416/2518 VRB02KT 0300 FG BKN001 BECMG 2421/2423 07005KT CAVOK
YSSY,TAF YSSY 242011Z 2421/2600 31007KT 9999 FEW030 FM250100 14006KT CAVOK FM250500 05010KT CAVOK FM251200 29006KT 9999 FEW025
YSTW,TAF YSTW 241704Z 2418/2512 VRB03KT CAVOK FM250000 28010KT CAVOK FM250900 10005KT CAVOK PROB30 2418/2422 0500 FG BKN003
YWLM,TAF AMD YWLM 241832Z 2418/2518 32007KT CAVOK FM250300 13009KT CAVOK FM250700 07006KT CAVOK PROB30 2418/2422 0500 FG
ZMCK,TAF ZMCK 241630Z 2418/2524 VRB02MPS 9999 FEW030CB SCT033 TN02/2421Z TX14/2507Z BECMG 2504/2506 28005MPS BECMG 2510/2512 VRB02MPS
ZMUB,TAF ZMUB 241638Z 2418/2524 VRB02MPS 9999 FEW030CB SCT033 TN01/2421Z TX14/2507Z
