{"station_id": ["AGGA", "AGGC", "AGGH", "AGGK", "AGGL", "AGGM", "AGGN", "AGGR", "AYPY", "BGSF", "BGTL", "BIAR", "BIEG", "BIKF", "BIRK", "BKPR", "CBBC", "CWSA", "CWWU", "CYAM", "CYAY", "CYAZ", "CYBB", "CYBC", "CYBG", "CYBK", "CYBL", "CYBR", "CYBW", "CYBX", "CYCA", "CYCB", "CYCD", "CYCG", "CYCO", "CYCY", "CYDB", "CYDF", "CYDL", "CYDN", "CYDQ", "CYEG", "CYEK", "CYEN", "CYEU", "CYEV", "CYFB", "CYFC", "CYFS", "CYGK", "CYGL", "CYGP", "CYGQ", "CYGR", "CYGV", "CYGW", "CYGX", "CYHD", "CYHI", "CYHK", "CYHM", "CYHU", "CYHY", "CYHZ", "CYIO", "CYIV", "CYJT", "CYKA", "CYKF", "CYKJ", "CYKL", "CYLD", "CYLL", "CYLW", "CYMA", "CYMH", "CYMM", "CYMO", "CYMT", "CYMX", "CYNA", "CYND", "CYNE", "CYOC", "CYOD", "CYOJ", "CYOO", "CYOW", "CYPA", "CYPE", "CYPH", "CYPL", "CYPQ", "CYPR", "CYPX", "CYPY", "CYQA", "CYQB", "CYQD", "CYQF", "CYQG", "CYQH", "CYQI", "CYQK", "CYQL", "CYQM", "CYQQ", "CYQR", "CYQT", "CYQU", "CYQV", "CYQW", "CYQX", "CYQY", "CYQZ", "CYRB", "CYRJ", "CYRL", "CYRQ", "CYRT", "CYSB", "CYSC", "CYSF", "CYSJ", "CYSM", "CYSN", "CYTE", "CYTH", "CYTL", "CYTR", "CYTS", "CYTZ", "CYUB", "CYUL", "CYUX", "CYUY", "CYVC", "CYVM", "CYVO", "CYVP", "CYVQ", "CYVR", "CYVT", "CYWE", "CYWG", "CYWH", "CYWK", "CYWL", "CYXC", "CYXE", "CYXH", "CYXJ", "CYXL", "CYXR", "CYXS", "CYXT", "CYXU", "CYXX", "CYXY", "CYXZ", "CYYB", "CYYC", "CYYD", "CYYE", "CYYF", "CYYG", "CYYH", "CYYJ", "CYYL", "CYYN", "CYYQ", "CYYR", "CYYT", "CYYU", "CYYY", "CYYZ", "CYZF", "CYZH", "CYZP", "CYZR", "CYZS", "CYZT", "CYZV", "CYZW", "CYZX", "CYZY", "CZBF", "CZMT", "CZUM", "CZVL", "DAAE", "DAAG", "DAAJ", "DAAS", "DAAT", "DAAV", "DABB", "DABC", "DABS", "DABT", "DAOB", "DAOI", "DAON", "DAOO", "DAUA", "DAUB", "DAUG", "DAUH", "DAUI", "DAUZ", "DBBB", "DFFD", "DFOO", "DGAA", "DIAP", "DIBK", "DIYO", "DNAA", "DNAK", "DNBE", "DNIB", "DNIL", "DNJO", "DNKA", "DNKN", "DNMA", "DNMM", "DNSO", "DNSU", "DNYO", "DRRN", "DRZA", "DRZR", "DTKA", "DTMB", "DTNH", "DTTA", "DTTF", "DTTG", "DTTJ", "DTTX", "DTTZ", "DXNG", "DXXX", "EBAW", "EBBR", "EBCI", "EBCV", "EBFN", "EBLG", "EBOS", "EDAC", "EDAH", "EDDB", "EDDC", "EDDE", "EDDF", "EDDG", "EDDH", "EDDK", "EDDL", "EDDM", "EDDN", "EDDP", "EDDR", "EDDS", "EDDV", "EDDW", "EDFH", "EDGS", "EDJA", "EDLN", "EDLP", "EDLW", "EDMA", "EDNY", "EDQM", "EDSB", "EDTL", "EDTY", "EDVK", "EEEI", "EETN", "EFHK", "EFJY", "EFKU", "EFMA", "EFOU", "EFRO", "EFSI", "EFTP", "EFTU", "EFVA", "EGAA", "EGBB", "EGCC", "EGCK", "EGCN", "EGFF", "EGGD", "EGGP", "EGGW", "EGHH", "EGHQ", "EGJA", "EGJB", "EGJJ", "EGKK", "EGLL", "EGMC", "EGMD", "EGNJ", "EGNM", "EGNT", "EGNX", "EGPA", "EGPB", "EGPC", "EGPD", "EGPE", "EGPF", "EGPH", "EGPK", "EGPO", "EGQL", "EGQS", "EGSH", "EGSS", "EGSY", "EGTE", "EGUN", "EGVN", "EGWU", "EGXC", "EGXW", "EGYP", "EHAM", "EHBK", "EHEH", "EHGG", "EHKD", "EHLE", "EHLW", "EHRD", "EHVK", "EICK", "EIDL", "EIDW", "EIKN", "EIKY", "EIME", "EINN", "EISG", "EIWF", "EKAH", "EKBI", "EKCH", "EKKA", "EKRK", "EKRN", "EKSP", "EKYT", "ELLX", "ENAN", "ENBN", "ENBO", "ENBR", "ENDU", "ENEV", "ENFL", "ENGC", "ENGM", "ENHE", "ENKR", "ENLE", "ENNA", "ENOA", "ENOL", "ENRY", "ENSB", "ENTC", "ENTO", "ENVA", "ENZV", "EPBY", "EPCE", "EPDA", "EPDE", "EPGD", "EPKK", "EPKS", "EPKT", "EPLB", "EPLK", "EPLL", "EPMI", "EPMM", "EPOK", "EPPO", "EPPW", "EPRZ", "EPSN", "EPSY", "EPTM", "EPWA", "EPWR", "EPZG", "ESGG", "ESKN", "ESMS", "ESNU", "ESSA", "ETAD", "ETAR", "ETIC", "ETIK", "ETNL", "ETNW", "ETOU", "ETSN", "EVLA", "EVRA", "EYKA", "EYPA", "EYSA", "EYVI", "FABL", "FACT", "FAGG", "FALA", "FALE", "FAOR", "FAPE", "FAPM", "FAUP", "FBKE", "FBMN", "FBPM", "FBSK", "FCBB", "FCPP", "FEFF", "FGBT", "FGSL", "FIMP", "FIMR", "FJDG", "FKKD", "FKYS", "FLCP", "FLHN", "FLKK", "FLKS", "FLMA", "FLMF", "FLSK", "FLSW", "FMCH", "FMCZ", "FMEE", "FMMI", "FMMS", "FMMT", "FMNA", "FMNM", "FMNN", "FMSD", "FMST", "FNBG", "FNCA", "FNCT", "FNDU", "FNGI", "FNHU", "FNKU", "FNLU", "FNMA", "FNME", "FNMO", "FNSA", "FNSO", "FNUB", "FNUE", "FOOG", "FOOL", "FQBR", "FQCH", "FQIN", "FQLC", "FQMA", "FQNC", "FQNP", "FQPB", "FQQL", "FQTT", "FQVL", "FQXA", "FSIA", "FTTJ", "FWCL", "FWKI", "FYGF", "FYKM", "FYLZ", "FYOA", "FYRU", "FYWB", "FYWE", "FYWH", "FZAA", "FZIC", "FZNA", "FZQA", "GABS", "GAGO", "GBYD", "GCFV", "GCGM", "GCHI", "GCLA", "GCLP", "GCRR", "GCTS", "GCXO", "GECE", "GEML", "GGOV", "GMAD", "GMAG", "GMFF", "GMFK", "GMFM", "GMFO", "GMME", "GMMH", "GMMI", "GMML", "GMMN", "GMMW", "GMMX", "GMMZ", "GMTA", "GMTT", "GOBD", "GOGS", "GOOY", "GOSS", "GQNO", "GQPP", "GUCY", "GVAC", "GVBA", "GVNP", "GVSV", "HAAB", "HABD", "HADC", "HADR", "HAGN", "HAJJ", "HALA", "HBBA", "HCMM", "HDAM", "HEAL", "HEAR", "HEAT", "HEAX", "HEBA", "HEBL", "HECA", "HEGN", "HELX", "HEMA", "HEMM", "HEOW", "HEPS", "HESC", "HESG", "HESH", "HESN", "HETB", "HETR", "HKEL", "HKJK", "HKKI", "HKML", "HKMO", "HKNW", "HLGD", "HLGT", "HLKF", "HLLB", "HLLM", "HLLQ", "HLLS", "HLMS", "HLON", "HLTD", "HLTQ", "HLUB", "HRYR", "HRZA", "HTAR", "HTDA", "HTDO", "HTKA", "HTKJ", "HTMW", "HTTB", "HTZA", "HUEN", "HUSO", "KABE", "KABI", "KABQ", "KABR", "KABY", "KACK", "KACT", "KACV", "KACY", "KADF", "KADW", "KAEG", "KAEX", "KAFF", "KAFW", "KAGC", "KAGS", "KAHN", "KAIA", "KALB", "KALI", "KALO", "KALS", "KALW", "KAMA", "KANB", "KAND", "KAOO", "KAPA", "KAPC", "KAPF", "KAPN", "KARA", "KART", "KASD", "KASE", "KASN", "KAST", "KATL", "KATW", "KATY", "KAUG", "KAUS", "KAUW", "KAVL", "KAVP", "KAXN", "KAZO", "KBAB", "KBAD", "KBAF", "KBAM", "KBBD", "KBBG", "KBCB", "KBCE", "KBDL", "KBDN", "KBDR", "KBED", "KBFD", "KBFF", "KBFI", "KBFL", "KBFM", "KBGM", "KBGR", "KBHB", "KBHM", "KBIF", "KBIH", "KBIL", "KBIS", "KBIX", "KBJC", "KBJI", "KBKE", "KBKF", "KBKW", "KBLF", "KBLH", "KBLI", "KBLV", "KBMG", "KBMI", "KBNA", "KBNO", "KBOI", "KBOS", "KBPI", "KBPK", "KBPT", "KBRD", "KBRL", "KBRO", "KBTL", "KBTM", "KBTR", "KBTV", "KBUF", "KBUR", "KBVI", "KBVO", "KBWG", "KBWI", "KBYI", "KBZN", "KCAE", "KCAK", "KCAR", "KCBM", "KCDC", "KCDR", "KCDS", "KCEC", "KCEF", "KCGI", "KCHA", "KCHO", "KCHS", "KCID", "KCIU", "KCKB", "KCKV", "KCLE", "KCLL", "KCLM", "KCLT", "KCMA", "KCMH", "KCMI", "KCMX", "KCNM", "KCNU", "KCNY", "KCOD", "KCOE", "KCOF", "KCON", "KCOS", "KCOT", "KCOU", "KCPR", "KCPS", "KCRE", "KCRG", "KCRP", "KCRQ", "KCRW", "KCSG", "KCSM", "KCSV", "KCTB", "KCUB", "KCVG", "KCVS", "KCWA", "KCXO", "KCXP", "KCYS", "KDAA", "KDAB", "KDAG", "KDAL", "KDAN", "KDAY", "KDBQ", "KDCA", "KDDC", "KDEC", "KDEN", "KDET", "KDFW", "KDHN", "KDHT", "KDIJ", "KDIK", "KDLF", "KDLH", "KDLS", "KDMA", "KDMN", "KDNL", "KDOV", "KDPA", "KDRO", "KDRT", "KDSM", "KDTW", "KDUJ", "KDVL", "KDVT", "KEAR", "KEAT", "KEAU", "KECG", "KECP", "KEDW", "KEED", "KEET", "KEFD", "KEFK", "KEGE", "KEGI", "KEKN", "KEKO", "KEKS", "KELD", "KELM", "KELP", "KELY", "KEND", "KENV", "KENW", "KERI", "KEUG", "KEUL", "KEVV", "KEVW", "KEWN", "KEWR", "KEYW", "KFAF", "KFAR", "KFAT", "KFAY", "KFBG", "KFCS", "KFDY", "KFFO", "KFHU", "KFKL", "KFLG", "KFLL", "KFLO", "KFMH", "KFMN", "KFMY", "KFNT", "KFOD", "KFOE", "KFPR", "KFRI", "KFSD", "KFSM", "KFST", "KFTK", "KFTW", "KFTY", "KFVE", "KFWA", "KFXE", "KFYV", "KGBD", "KGCC", "KGCK", "KGCN", "KGDV", "KGEG", "KGFA", "KGFK", "KGFL", "KGGG", "KGGW", "KGJT", "KGKY", "KGLD", "KGLH", "KGLS", "KGMU", "KGNV", "KGON", "KGPI", "KGPT", "KGRB", "KGRF", "KGRI", "KGRK", "KGRR", "KGSB", "KGSO", "KGSP", "KGTB", "KGTF", "KGTR", "KGUC", "KGUP", "KGUR", "KGUS", "KGUY", "KGWO", "KGYY", "KHBG", "KHCR", "KHDC", "KHDN", "KHIB", "KHIE", "KHIF", "KHIO", "KHKS", "KHKY", "KHLG", "KHLN", "KHNB", "KHND", "KHOB", "KHON", "KHOP", "KHOT", "KHOU", "KHPN", "KHQM", "KHRL", "KHRO", "KHRT", "KHST", "KHSV", "KHTS", "KHUA", "KHUF", "KHUL", "KHUM", "KHUT", "KHVR", "KHYA", "KHYR", "KHYS", "KIAB", "KIAD", "KIAG", "KIAH", "KICT", "KIDA", "KIFP", "KILG", "KILM", "KILN", "KIND", "KINK", "KINL", "KINS", "KINT", "KINW", "KIPL", "KIPT", "KISM", "KISO", "KISP", "KITH", "KIWA", "KIWD", "KIXD", "KJAC", "KJAN", "KJAX", "KJBR", "KJCT", "KJEF", "KJER", "KJFK", "KJHW", "KJKA", "KJKL", "KJLN", "KJMS", "KJST", "KJVL", "KJXN", "KJZI", "KLAF", "KLAL", "KLAN", "KLAR", "KLAS", "KLAW", "KLAX", "KLBB", "KLBE", "KLBF", "KLBL", "KLBT", "KLBX", "KLCH", "KLCK", "KLEB", "KLEE", "KLEX", "KLFI", "KLFK", "KLFT", "KLGA", "KLGB", "KLGU", "KLIT", "KLLQ", "KLMT", "KLND", "KLNK", "KLNS", "KLOZ", "KLRD", "KLRF", "KLRU", "KLSE", "KLSF", "KLSV", "KLTS", "KLUF", "KLUK", "KLVK", "KLVM", "KLVS", "KLWB", "KLWS", "KLWT", "KLYH", "KMAF", "KMBG", "KMBL", "KMBS", "KMCB", "KMCC", "KMCE", "KMCF", "KMCI", "KMCK", "KMCN", "KMCO", "KMCW", "KMDT", "KMDW", "KMEI", "KMEM", "KMER", "KMEV", "KMFD", "KMFE", "KMFR", "KMGE", "KMGM", "KMGW", "KMHK", "KMHR", "KMHT", "KMIA", "KMIV", "KMKC", "KMKE", "KMKG", "KMKL", "KMKT", "KMLB", "KMLC", "KMLI", "KMLS", "KMLU", "KMMH", "KMMT", "KMOB", "KMOD", "KMOT", "KMPV", "KMQY", "KMRB", "KMRY", "KMSL", "KMSN", "KMSO", "KMSP", "KMSS", "KMSY", "KMTC", "KMTH", "KMTJ", "KMTN", "KMTW", "KMUI", "KMUO", "KMVN", "KMWH", "KMXF", "KMYL", "KMYR", "KNBC", "KNBG", "KNCA", "KNEW", "KNFG", "KNFL", "KNFW", "KNGP", "KNGU", "KNHK", "KNIP", "KNJK", "KNKT", "KNKX", "KNLC", "KNQX", "KNSE", "KNTD", "KNTU", "KNUW", "KNXP", "KNYL", "KNZY", "KOAJ", "KOAK", "KOFF", "KOFK", "KOGB", "KOGD", "KOKC", "KOLF", "KOLM", "KOLS", "KOMA", "KONP", "KONT", "KOPF", "KORD", "KORF", "KORH", "KOTH", "KOTM", "KOUN", "KOWB", "KOXR", "KOZR", "KPAE", "KPAH", "KPAM", "KPBF", "KPBG", "KPBI", "KPDK", "KPDT", "KPDX", "KPEQ", "KPGA", "KPGD", "KPGV", "KPHF", "KPHL", "KPHX", "KPIA", "KPIB", "KPIE", "KPIH", "KPIR", "KPIT", "KPKB", "KPLN", "KPMD", "KPNA", "KPNC", "KPNE", "KPNS", "KPOE", "KPOU", "KPQI", "KPRB", "KPRC", "KPSC", "KPSF", "KPSM", "KPSP", "KPTK", "KPUB", "KPUW", "KPVD", "KPVU", "KPVW", "KPWM", "KPWT", "KRAP", "KRBG", "KRBL", "KRCA", "KRDD", "KRDG", "KRDM", "KRDR", "KRDU", "KRFD", "KRHI", "KRIC", "KRIL", "KRIV", "KRIW", "KRKD", "KRKS", "KRME", "KRNH", "KRNO", "KROA", "KROC", "KROG", "KROW", "KRSL", "KRST", "KRSW", "KRUT", "KRVS", "KRWF", "KRWI", "KRWL", "KRYY", "KSAC", "KSAF", "KSAN", "KSAT", "KSAV", "KSAW", "KSBA", "KSBD", "KSBM", "KSBN", "KSBP", "KSBY", "KSCK", "KSDF", "KSDL", "KSDY", "KSEA", "KSEZ", "KSFB", "KSFF", "KSFO", "KSGF", "KSGJ", "KSGR", "KSGU", "KSHR", "KSHV", "KSJC", "KSJS", "KSJT", "KSKA", "KSKF", "KSLC", "KSLE", "KSLI", "KSLK", "KSLN", "KSME", "KSMF", "KSMN", "KSMO", "KSMX", "KSNA", "KSNS", "KSNY", "KSOA", "KSPI", "KSPS", "KSRQ", "KSSC", "KSSF", "KSSI", "KSTC", "KSTJ", "KSTL", "KSTS", "KSUA", "KSUN", "KSUS", "KSUU", "KSUX", "KSVN", "KSWF", "KSWO", "KSYM", "KSYR", "KSZL", "KTBN", "KTCC", "KTCL", "KTCM", "KTCS", "KTEB", "KTEX", "KTIK", "KTIX", "KTLH", "KTMB", "KTOI", "KTOL", "KTOP", "KTPA", "KTPH", "KTRI", "KTRK", "KTRM", "KTTD", "KTTN", "KTUL", "KTUP", "KTUS", "KTVC", "KTVF", "KTVL", "KTWF", "KTXK", "KTYR", "KTYS", "KUAO", "KUES", "KUIN", "KUKI", "KUNV", "KUTS", "KVAD", "KVBG", "KVCT", "KVEL", "KVGT", "KVIS", "KVLD", "KVNY", "KVOK", "KVPS", "KVQQ", "KVRB", "KVTN", "KWJF", "KWMC", "KWRB", "KWRI", "KWRL", "KWWR", "KXNA", "KXWA", "KYIP", "KYKM", "KYNG", "KZZV", "LATI", "LBBG", "LBGO", "LBPD", "LBSF", "LBWN", "LCEN", "LCLK", "LCPH", "LCRA", "LDDU", "LDLO", "LDOS", "LDPL", "LDRI", "LDSB", "LDSP", "LDZA", "LDZD", "LEAB", "LEAL", "LEAM", "LEAO", "LEAS", "LEBA", "LEBB", "LEBG", "LEBL", "LEBZ", "LECO", "LECV", "LEGE", "LEGR", "LEGT", "LEHC", "LEIB", "LEJR", "LELC", "LELL", "LELN", "LELO", "LEMD", "LEMG", "LEMH", "LEMO", "LEPA", "LEPP", "LERI", "LERL", "LERS", "LERT", "LESA", "LESO", "LEST", "LESU", "LETO", "LEVC", "LEVD", "LEVS", "LEVT", "LEVX", "LEXJ", "LEZG", "LEZL", "LFAQ", "LFAT", "LFBA", "LFBD", "LFBE", "LFBH", "LFBI", "LFBL", "LFBM", "LFBO", "LFBP", "LFBT", "LFBU", "LFBZ", "LFCK", "LFCR", "LFGJ", "LFJL", "LFKB", "LFKC", "LFKF", "LFKJ", "LFLB", "LFLC", "LFLL", "LFLN", "LFLP", "LFLS", "LFLW", "LFLX", "LFLY", "LFMD", "LFMI", "LFMK", "LFML", "LFMN", "LFMO", "LFMP", "LFMT", "LFMU", "LFMV", "LFMY", "LFOB", "LFOE", "LFOH", "LFOJ", "LFOK", "LFOP", "LFOT", "LFPB", "LFPG", "LFPN", "LFPO", "LFPV", "LFQQ", "LFRB", "LFRC", "LFRD", "LFRG", "LFRH", "LFRI", "LFRK", "LFRM", "LFRN", "LFRQ", "LFRS", "LFRZ", "LFSB", "LFSL", "LFST", "LFTH", "LFTW", "LFVP", "LGAD", "LGAL", "LGAV", "LGBL", "LGEL", "LGHI", "LGIO", "LGIR", "LGKC", "LGKF", "LGKL", "LGKO", "LGKP", "LGKR", "LGKV", "LGLM", "LGLR", "LGMK", "LGMT", "LGPZ", "LGRP", "LGRX", "LGSA", "LGSK", "LGSM", "LGSR", "LGST", "LGSY", "LGTG", "LGTL", "LGTS", "LGZA", "LHBP", "LHDC", "LHKE", "LHPA", "LHPP", "LHPR", "LHSN", "LIBA", "LIBC", "LIBD", "LIBF", "LIBG", "LIBP", "LIBR", "LIBV", "LICA", "LICB", "LICC", "LICD", "LICG", "LICJ", "LICR", "LICT", "LICZ", "LIEA", "LIED", "LIEE", "LIEO", "LIMC", "LIME", "LIMF", "LIMJ", "LIML", "LIMP", "LIMW", "LIPA", "LIPB", "LIPC", "LIPE", "LIPH", "LIPK", "LIPL", "LIPO", "LIPQ", "LIPR", "LIPS", "LIPX", "LIPY", "LIPZ", "LIRA", "LIRE", "LIRF", "LIRM", "LIRN", "LIRP", "LIRQ", "LIRS", "LIRU", "LIRV", "LJCE", "LJLJ", "LJMB", "LJPZ", "LKCV", "LKKB", "LKKV", "LKMT", "LKNA", "LKPD", "LKPR", "LKTB", "LLBG", "LLER", "LLHA", "LLHZ", "LLIB", "LMML", "LOWG", "LOWI", "LOWK", "LOWL", "LOWS", "LOWW", "LPAZ", "LPCS", "LPFR", "LPHR", "LPLA", "LPMA", "LPPD", "LPPR", "LPPS", "LPPT", "LQBK", "LQMO", "LQSA", "LQTZ", "LRAR", "LRBC", "LRBO", "LRBS", "LRCK", "LRCL", "LRCT", "LRCV", "LRFT", "LRIA", "LROD", "LROP", "LRSB", "LRSM", "LRSV", "LRTC", "LRTM", "LRTR", "LRTZ", "LSGC", "LSGG", "LSGS", "LSZA", "LSZB", "LSZG", "LSZH", "LSZL", "LSZR", "LSZS", "LTAB", "LTAC", "LTAD", "LTAE", "LTAF", "LTAG", "LTAH", "LTAI", "LTAJ", "LTAL", "LTAN", "LTAO", "LTAP", "LTAR", "LTAS", "LTAT", "LTAU", "LTAV", "LTAW", "LTAY", "LTAZ", "LTBA", "LTBD", "LTBF", "LTBG", "LTBH", "LTBI", "LTBJ", "LTBK", "LTBL", "LTBN", "LTBO", "LTBP", "LTBQ", "LTBR", "LTBS", "LTBT", "LTBU", "LTBV", "LTBX", "LTBY", "LTBZ", "LTCA", "LTCB", "LTCC", "LTCD", "LTCE", "LTCF", "LTCG", "LTCI", "LTCJ", "LTCK", "LTCL", "LTCM", "LTCN", "LTCO", "LTCP", "LTCR", "LTCS", "LTCT", "LTCU", "LTCV", "LTCW", "LTDA", "LTFA", "LTFB", "LTFC", "LTFD", "LTFE", "LTFG", "LTFH", "LTFJ", "LTFK", "LTFM", "LTFO", "LUKK", "LWOH", "LWSK", "LYBE", "LYNI", "LYPG", "LYTV", "LZIB", "LZKZ", "LZMC", "LZPP", "LZPW", "LZSL", "LZTT", "LZZI", "MBGT", "MBPV", "MDBH", "MDLR", "MDPC", "MDPP", "MDSD", "MDST", "MHLC", "MHLM", "MHRO", "MHTG", "MKJP", "MKJS", "MMAA", "MMAS", "MMBT", "MMCE", "MMCL", "MMCM", "MMCN", "MMCP", "MMCS", "MMCU", "MMCV", "MMCZ", "MMDO", "MMEP", "MMGL", "MMGM", "MMHO", "MMIA", "MMIO", "MMLM", "MMLO", "MMLP", "MMLT", "MMMA", "MMMD", "MMML", "MMMM", "MMMT", "MMMX", "MMMY", "MMMZ", "MMNL", "MMOX", "MMPB", "MMPN", "MMPR", "MMPS", "MMQT", "MMRX", "MMSD", "MMSP", "MMTC", "MMTG", "MMTJ", "MMTM", "MMTO", "MMTP", "MMUN", "MMVA", "MMVR", "MMZC", "MMZH", "MMZO", "MNMG", "MNPC", "MPTO", "MRLB", "MRLM", "MROC", "MRPV", "MSLP", "MSSS", "MTCH", "MTPP", "MUCC", "MUCF", "MUCL", "MUCM", "MUCU", "MUGM", "MUHA", "MUHG", "MUSC", "MUVR", "MWCR", "MYGF", "MYNN", "MZBZ", "NCRG", "NFFN", "NFNA", "NFTF", "NFTV", "NGFU", "NGTA", "NLWF", "NLWW", "NSFA", "NSTU", "NTAA", "NVSC", "NVSG", "NVSL", "NVSP", "NVSS", "NVVA", "NVVV", "NVVW", "NWWD", "NWWE", "NWWK", "NWWL", "NWWM", "NWWR", "NWWU", "NWWW", "NZAA", "NZCH", "NZFX", "NZWN", "OBBI", "OEAB", "OEAH", "OEAO", "OEBA", "OEBH", "OEDF", "OEDR", "OEGN", "OEGS", "OEGT", "OEHL", "OEJN", "OEKJ", "OEKM", "OEMA", "OENG", "OEPA", "OEPS", "OERF", "OERK", "OERR", "OESH", "OESK", "OETB", "OETF", "OETR", "OEWD", "OEWJ", "OEYN", "OIAA", "OIAW", "OIBB", "OIBK", "OIBP", "OICC", "OIFM", "OIGG", "OIIE", "OIII", "OIIP", "OIKB", "OIKK", "OIMM", "OING", "OINZ", "OISS", "OITL", "OITR", "OITT", "OIYY", "OIZH", "OJAI", "OJAM", "OJAQ", "OKAS", "OKBK", "OLBA", "OMAA", "OMAD", "OMAL", "OMDB", "OMDW", "OMFJ", "OMRK", "OMSJ", "OODQ", "OOMS", "OOSA", "OOSH", "OPBW", "OPDG", "OPFA", "OPGD", "OPIS", "OPKC", "OPLA", "OPMT", "OPNH", "OPPS", "OPRK", "OPSK", "OPST", "ORBI", "ORER", "ORNI", "ORSU", "OSAP", "OSDI", "OSLK", "OTBD", "OTBH", "OTHH", "PAAQ", "PABE", "PABI", "PABR", "PABT", "PACD", "PACV", "PADL", "PADQ", "PADU", "PAED", "PAEI", "PAEN", "PAFA", "PAFB", "PAGA", "PAGK", "PAGS", "PAGY", "PAHN", "PAHO", "PAIL", "PAJN", "PAKN", "PAKT", "PAKW", "PAMC", "PANC", "PAOM", "PAOR", "PAOT", "PAPG", "PAQT", "PASC", "PASD", "PASI", "PASN", "PASY", "PATA", "PATK", "PAUN", "PAVD", "PAWG", "PAYA", "PGRO", "PGSN", "PGUA", "PGUM", "PGWT", "PHHI", "PHJH", "PHJR", "PHKO", "PHLI", "PHMK", "PHNG", "PHNL", "PHNY", "PHOG", "PHTO", "PKMJ", "PKWA", "PLCH", "PMDY", "PTKK", "PTPN", "PTRO", "PTSA", "PTYA", "PWAK", "RCFN", "RCKH", "RCMQ", "RCNN", "RCSS", "RCTP", "RJAA", "RJAH", "RJBB", "RJCB", "RJCC", "RJCH", "RJCK", "RJCM", "RJEC", "RJFF", "RJFK", "RJFM", "RJFO", "RJFR", "RJFS", "RJFT", "RJFU", "RJGG", "RJNK", "RJNS", "RJNT", "RJOA", "RJOB", "RJOC", "RJOH", "RJOI", "RJOK", "RJOM", "RJOO", "RJOT", "RJSA", "RJSF", "RJSI", "RJSK", "RJSN", "RJSS", "RJTT", "RJTY", "RKJB", "RKNY", "RKPC", "RKPK", "RKSG", "RKSI", "RKSM", "RKSO", "RKSS", "RKTN", "RKTU", "ROAH", "RODN", "ROIG", "ROTM", "RPLB", "RPLC", "RPLI", "RPLL", "RPMD", "RPMR", "RPMZ", "RPVD", "RPVM", "RPVP", "SAAR", "SABE", "SACO", "SADF", "SAEZ", "SAME", "SANR", "SANT", "SARE", "SARF", "SARI", "SARP", "SASA", "SASJ", "SAVC", "SAWE", "SAWG", "SAWH", "SAZM", "SAZN", "SAZS", "SBAF", "SBAN", "SBAR", "SBAT", "SBBE", "SBBI", "SBBR", "SBBU", "SBBV", "SBBW", "SBCF", "SBCG", "SBCJ", "SBCO", "SBCP", "SBCR", "SBCT", "SBCY", "SBDN", "SBEG", "SBFI", "SBFL", "SBFN", "SBFZ", "SBGL", "SBGO", "SBGR", "SBGW", "SBIH", "SBIL", "SBIZ", "SBJP", "SBJV", "SBKG", "SBKP", "SBLO", "SBME", "SBMN", "SBMO", "SBMQ", "SBNF", "SBNT", "SBPA", "SBPJ", "SBPK", "SBPL", "SBPP", "SBPS", "SBRB", "SBRF", "SBRJ", "SBRP", "SBSC", "SBSJ", "SBSL", "SBSM", "SBSN", "SBSP", "SBSV", "SBTE", "SBTT", "SBUG", "SBUL", "SBUR", "SBVH", "SBVT", "SBYS", "SCAR", "SCAT", "SCBA", "SCCF", "SCCI", "SCCY", "SCDA", "SCEL", "SCFA", "SCIE", "SCIP", "SCJO", "SCNT", "SCQP", "SCSE", "SCTE", "SCVM", "SGAS", "SGCO", "SGEN", "SGES", "SKAR", "SKBG", "SKBO", "SKBQ", "SKCC", "SKCG", "SKCL", "SKLT", "SKPE", "SKRG", "SKSM", "SKSP", "SLCB", "SLLP", "SLTJ", "SLTR", "SLVR", "SMJP", "SOCA", "SPHI", "SPJC", "SPJL", "SPQT", "SPQU", "SPRU", "SPSO", "SPTN", "SPYL", "SPZO", "SUAA", "SUCA", "SUDU", "SULS", "SUMU", "SURV", "SUSO", "SVBC", "SVJC", "SVMC", "SVMG", "SVMI", "SVPR", "SVSA", "SVVA", "SYCJ", "SYEC", "TAPA", "TBPB", "TDPD", "TFFF", "TFFR", "TGPY", "TIST", "TISX", "TJBQ", "TJPS", "TJSJ", "TKPK", "TKPN", "TLPC", "TLPL", "TNCA", "TNCB", "TNCC", "TNCM", "TQPF", "TRPG", "TTCP", "TTPP", "TUPJ", "TVSA", "TXKF", "UAAA", "UACC", "UADD", "UAII", "UAIT", "UAKD", "UAKK", "UAOO", "UARR", "UASK", "UASP", "UASS", "UATE", "UATG", "UATT", "UAUU", "UBBB", "UBBF", "UBBG", "UBBL", "UBBN", "UBBQ", "UBBY", "UBEE", "UCFL", "UCFM", "UCFO", "UDSG", "UDYZ", "UEEE", "UERP", "UERR", "UGKO", "UGSB", "UGTB", "UHBB", "UHHH", "UHMA", "UHMM", "UHPP", "UHSS", "UHWW", "UIAA", "UIBB", "UIII", "UIUU", "ULAA", "ULLI", "ULMM", "ULOO", "ULPB", "ULWC", "UMGG", "UMII", "UMKK", "UMMS", "UNAA", "UNBB", "UNEE", "UNKL", "UNNT", "UNOO", "UNTT", "UNWW", "UOOO", "URKA", "URKK", "URMG", "URML", "URMM", "URMN", "URMO", "URMT", "URRP", "URSS", "URWA", "URWW", "USCC", "USCM", "USHH", "USNN", "USPP", "USRR", "USSS", "USTR", "UTAA", "UTDD", "UTDK", "UTDL", "UTDT", "UTFF", "UTFN", "UTNN", "UTNU", "UTSA", "UTSB", "UTSK", "UTSS", "UTST", "UTTT", "UUBC", "UUBP", "UUBW", "UUDD", "UUDL", "UUEE", "UUMO", "UUOB", "UUOK", "UUOL", "UUOO", "UUWW", "UUYY", "UWGG", "UWKD", "UWKE", "UWKS", "UWLL", "UWLW", "UWOO", "UWOR", "UWPS", "UWSG", "UWUU", "UWWW", "VAAH", "VAAU", "VABB", "VABJ", "VABO", "VABV", "VADU", "VAJL", "VAJM", "VAKE", "VAKP", "VANP", "VAOZ", "VAPO", "VAPR", "VARK", "VASD", "VASL", "VASU", "VCBI", "VCRI", "VDPP", "VDSR", "VDSV", "VEAB", "VEAT", "VEBD", "VEBN", "VEBS", "VECC", "VECX", "VEGK", "VEGT", "VEGY", "VEIM", "VEJH", "VEJT", "VELP", "VEMN", "VEPT", "VERC", "VETZ", "VGEG", "VGHS", "VHHH", "VIAG", "VIAR", "VIBR", "VIBT", "VIBY", "VICG", "VIDN", "VIDP", "VIGG", "VIGR", "VIJO", "VIJP", "VIJU", "VILH", "VILK", "VISM", "VISR", "VLLB", "VLLN", "VLPS", "VLSK", "VLVT", "VMMC", "VNKT", "VOAR", "VOBG", "VOBL", "VOBM", "VOBZ", "VOCB", "VOCI", "VOCL", "VOCP", "VOGO", "VOHB", "VOHS", "VOHY", "VOKN", "VOKU", "VOLT", "VOMD", "VOML", "VOMM", "VOND", "VOPB", "VORY", "VOTP", "VOTR", "VOTV", "VOVZ", "VRMG", "VRMH", "VRMM", "VTBD", "VTBO", "VTBS", "VTBU", "VTCC", "VTCH", "VTCL", "VTCN", "VTCP", "VTCT", "VTPB", "VTPH", "VTPM", "VTPO", "VTPP", "VTSB", "VTSC", "VTSE", "VTSF", "VTSG", "VTSM", "VTSP", "VTSR", "VTSS", "VTST", "VTUD", "VTUI", "VTUK", "VTUL", "VTUO", "VTUQ", "VTUU", "VTUV", "VTUW", "VVNB", "VVTS", "VYMD", "VYNT", "VYYY", "WAAA", "WABB", "WADD", "WADL", "WALL", "WALS", "WAMM", "WAOO", "WAPP", "WAQA", "WAQD", "WAQJ", "WAQQ", "WAQT", "WARR", "WATT", "WBGB", "WBGG", "WBGR", "WBGS", "WBKK", "WBKL", "WBKS", "WBKW", "WBSB", "WIDD", "WIEE", "WIHH", "WIII", "WIMM", "WIPB", "WIPP", "WIPY", "WITT", "WMAP", "WMBT", "WMKA", "WMKB", "WMKC", "WMKE", "WMKI", "WMKJ", "WMKK", "WMKL", "WMKM", "WMKN", "WMKP", "WMPA", "WMSA", "WSAP", "WSSL", "WSSS", "YBAS", "YBBN", "YBCS", "YBRK", "YBRM", "YBTL", "YMHB", "YMML", "YPAD", "YPCC", "YPDN", "YPEA", "YPLM", "YPPD", "YPPH", "YPTN", "YPXM", "YSCB", "YSDU", "YSNF", "YSRI", "YSSY", "ZBAA", "ZBAD", "ZBHH", "ZBSJ", "ZBTJ", "ZBYN", "ZGGG", "ZGHA", "ZGKL", "ZGNN", "ZGOW", "ZGSZ", "ZHCC", "ZHHH", "ZJHK", "ZJSY", "ZKPY", "ZKWS", "ZLLL", "ZLXY", "ZMCK", "ZMUB", "ZPPP", "ZSAM", "ZSFZ", "ZSHC", "ZSJN", "ZSNB", "ZSNJ", "ZSOF", "ZSPD", "ZSQD", "ZSSS", "ZUCK", "ZUGY", "ZUUU", "ZWSH", "ZWWW", "ZYCC", "ZYHB", "ZYTL", "ZYTX"], "raw_text": ["TAF AGGA 222310Z 2300/2324 32015KT 9999 -SHRA FEW016 BKN100 INTER 2300/2309 5000 TSSH SCT013 FEW014CB BKN025", "TAF AGGC 222310Z 2300/2324 32015KT 9999 -SHRA FEW016 BKN100 INTER 2300/2306 5000 TSSH SCT013 FEW014CB BKN025 Q 1009 1007 1006 1008", "TAF AGGH 222310Z 2300/2324 32010KT 9999 -SHRA FEW016 BKN100 INTER 2300/2307 5000 TSSH SCT013 FEW014CB BKN025 T 30 31 30 29 Q 1009 1007 1006 1008", "TAF AGGK 222310Z 2300/2324 32015KT 9999 -SHRA FEW016 BKN100 INTER 2300/2309 5000 TSSH SCT013 FEW014CB BKN025", "TAF AGGL 222310Z 2300/2324 34015KT 9999 -SHRA FEW016 BKN100 INTER 2300/2309 5000 TSSH SCT013 FEW014CB BKN025 Q 1010 1008 1007 1009", "TAF AGGM 222310Z 2300/2324 27010KT 9999 -SHRA FEW016 BKN100 INTER 2300/2306 5000 TSSH SCT013 FEW014CB BKN025 Q 1009 1007 1006 1008", "TAF AGGN 222310Z 2300/2324 29015KT 9999 -SHRA FEW016 BKN100 INTER 2300/2306 5000 TSSH SCT013 FEW014CB BKN025 Q 1009 1007 1006 1008", "TAF AGGR 222310Z 2300/2324 32015KT 9999 -SHRA FEW016 BKN100 INTER 2300/2309 5000 TSSH SCT013 FEW014CB BKN025", "TAF AYPY 222140Z 2300/2400 34007KT 9999 SCT020 FM230300 26010KT 9999 -SHRA BKN018 INTER 2304/2309 5000 TSRA BKN010 FEW018CB", "TAF BGSF 221104Z 2212/2303 VRB06KT 9999 BKN100 TEMPO 2212/2303 BKN080", "TAF BGTL 211900Z 2119/2301 09009KT 9999 FEW080 QNH2942INS BECMG 2205/2206 VRB06KT 9999 FEW080 QNH2930INS TEMPO 2213/2217 8000 -SN BKN020 620204 BECMG 2216/2217 VRB06KT 6000 -SN OVC010 620109 QNH2928INS TXM06/2218Z TNM18/2121Z LAST NO AMDS AFT 2119 NEXT 2211", "TAF BIAR 222252Z 2300/2400 17005KT CAVOK TX03/2315Z TNM06/2309Z", "TAF BIEG 222252Z 2300/2400 20006KT 9999 FEW040 TX03/2318Z TNM06/2306Z", "TAF BIKF 222253Z 2300/2400 15008KT 9999 BKN020 TX06/2315Z TN04/2300Z TEMPO 2300/2306 2500 -RADZ BR BKN006 OVC015 BECMG 2304/2306 13018KT TEMPO 2315/2400 4000 -RADZ BKN010 BECMG 2322/2400 12020G30KT", "TAF BIRK 222252Z 2300/2400 11005KT 9999 SCT020 BKN030 TX06/2306Z TN03/2321Z PROB40 TEMPO 2300/2306 -RADZ BKN012 BECMG 2301/2303 13015KT", "TAF BKPR 222330Z 2300/2324 VRB03KT CAVOK TEMPO 2303/2306 3000 BR", "TAF AMD CBBC 222002Z 2220/2305 33006KT P6SM SCT020 TEMPO 2220/2305 BKN020 RMK FCST BASED ON AUTO OBS. NXT FCST BY 230100Z", "TAF CWSA 221940Z 2220/2224 10008KT P6SM FEW060 TEMPO 2220/2224 4SM BR RMK FCST BASED ON AUTO OBS. NXT FCST BY 230800Z", "TAF CWWU 221200Z 2212/2312 22006KT P6SM FEW030 FM221800 20009KT P6SM FEW030 SCT060 FM230000 18011G17KT P6SM SCT025 BKN050 FM230600 20013G22KT P6SM FEW025 SCT050 RMK NXT FCST BY 221800Z", "TAF CYAM 221940Z 2220/2308 10010KT P6SM FEW200 RMK NXT FCST BY 230200Z", "TAF CYAY 221940Z 2220/2308 22020G35KT P6SM FEW020 SCT200 BECMG 2221/2223 22020G30KT RMK FCST BASED ON AUTO OBS. NXT FCST BY 230200Z", "TAF CYAZ 221840Z 2219/2301 VRB03KT P6SM FEW220 BECMG 2219/2221 29012KT FM222200 29012KT P6SM SCT030 TEMPO 2222/2301 BKN030 RMK NXT FCST BY 231500Z", "TAF CYBB 221840Z 2219/2224 32012KT P6SM -SN OVC015 TEMPO 2219/2224 P6SM NSW SCT015 BECMG 2222/2224 29015KT RMK NXT FCST BY 231900Z", "TAF CYBC 221940Z 2220/2308 24015G25KT P6SM BKN150 BECMG 2223/2301 25008KT RMK FCST BASED ON AUTO OBS. NXT FCST BY 230200Z", "TAF CYBG 222040Z 2221/2318 24010KT P6SM FEW220 BECMG 2223/2301 12005KT FM230400 VRB03KT P6SM SKC BECMG 2314/2316 09005KT RMK NXT FCST BY 230000Z", "TAF CYBK 221740Z 2218/2306 33015KT P6SM FEW009 SCT060 BKN090 TEMPO 2218/2301 P6SM -SN SCT009 BKN060 BECMG 2219/2221 33018G28KT FM230100 33018G28KT P6SM SCT025 BKN080 TEMPO 2301/2306 P6SM -SN BKN020 OVC060 RMK NXT FCST BY 230000Z", "TAF CYBL 221840Z 2219/2304 31008KT P6SM FEW050 FEW110 FM222100 33010G20KT P6SM SCT040 TEMPO 2221/2304 P6SM -SHRA BKN040 RMK NXT FCST BY 230100Z", "TAF CYBR 221740Z 2218/2306 08014KT P6SM BKN120 BKN240 FM230200 07016KT P6SM -SHRA FEW020 OVC050 RMK NXT FCST BY 230000Z", "TAF CYBW 221740Z 2218/2304 34006KT 1 1/2SM -SN BR BKN009 TEMPO 2218/2221 1/2SM SHSN VV005 BECMG 2219/2221 02008KT FM222100 02008KT 4SM -SHSN SCT008 OVC015 TEMPO 2221/2304 1SM -SHSN VV008 RMK FCST BASED ON AUTO OBS. NXT FCST BY 230000Z", "TAF CYBX 221940Z 2220/2308 24020G30KT P6SM BKN015 TEMPO 2220/2304 FEW015 FM230400 25015G25KT P6SM FEW015 RMK NXT FCST BY 230200Z", "TAF CYCA 221940Z 2220/2308 22015G25KT P6SM FEW030 BECMG 2222/2224 23010KT RMK FCST BASED ON AUTO OBS. NXT FCST BY 230200Z", "TAF AMD CYCB 222243Z 2222/2307 31015KT P6SM SCT009 TEMPO 2222/2307 5SM -SN BKN009 RMK NXT FCST BY 230100Z", "TAF CYCD 221740Z 2218/2304 29008KT P6SM FEW030 FM230300 30006KT P6SM SCT030 TEMPO 2303/2304 BKN030 RMK NXT FCST BY 230000Z", "TAF CYCG 221840Z 2219/2304 VRB03KT P6SM FEW050 BKN140 FM222100 31008KT P6SM BKN060 RMK NXT FCST BY 230100Z", "TAF CYCO 221840Z 2219/2307 35012KT P6SM SCT015 BKN040 TEMPO 2219/2221 5SM -SN -SG BKN015 BECMG 2219/2221 29012KT FM222100 29012KT P6SM SCT015 BKN040 TEMPO 2221/2307 5SM -SN BKN015 RMK NXT FCST BY 230100Z", "TAF CYCY 221840Z 2219/2307 32010KT P6SM SCT020 OVC080 TEMPO 2219/2307 3SM -SHSN OVC020 RMK FCST BASED ON AUTO OBS. NXT FCST BY 230100Z", "TAF CYDB 221740Z 2218/2306 VRB03KT P6SM FEW020 OVC040 TEMPO 2218/2306 5SM -SN BR FEW005 BKN015 OVC030 RMK NXT FCST BY 230000Z", "TAF CYDF 221940Z 2220/2308 23015G25KT P6SM SKC BECMG 2220/2222 22010KT RMK NXT FCST BY 230200Z", "TAF CYDL 221740Z 2218/2224 VRB03KT P6SM SCT004 BKN025 TEMPO 2218/2221 2SM -SN BR OVC004 FM222100 VRB03KT P6SM SCT020 BKN030 TEMPO 2221/2224 3SM -SN BR SCT004 BKN020 RMK FCST BASED ON AUTO OBS. NXT FCST BY 231300Z", "TAF CYDN 221740Z 2218/2306 08010KT P6SM FEW100 FM222200 07014KT P6SM BKN110 OVC220 FM230500 05014KT P6SM -SHRA OVC060 RMK FCST BASED ON AUTO OBS. NXT FCST BY 230000Z", "TAF CYDQ 221840Z 2219/2305 30006KT P6SM -RA SCT006 OVC015 TEMPO 2219/2221 2SM -SHRASN VV006 FM222100 33012KT P6SM -SHRA OVC030 TEMPO 2221/2301 5SM -SHRASN OVC020 FM230100 33010KT P6SM BKN040 TEMPO 2301/2305 BKN020 RMK FCST BASED ON AUTO OBS. NXT FCST BY 230100Z", "TAF CYEG 222041Z 2221/2318 31005KT P6SM FEW008 BKN015 TEMPO 2221/2223 P6SM -SHRA BKN008 OVC015 FM222300 36006KT P6SM BKN020 TEMPO 2223/2305 SCT020 BKN040 FM230500 32004KT P6SM SCT002 FM231000 VRB03KT P6SM SCT002 BKN010 PROB30 2310/2316 1/2SM FZFG VV002 FM231600 VRB03KT P6SM BKN015 RMK NXT FCST BY 230000Z", "TAF CYEK 221740Z 2218/2306 32018KT P6SM -SHSN OVC012 TEMPO 2218/2306 P6SM NSW SCT012 OVC120 RMK NXT FCST BY 230000Z", "TAF CYEN 221747Z 2218/2224 10010KT P6SM BKN100 FM222300 10014G24KT P6SM SCT040 OVC120 RMK FCST BASED ON AUTO OBS. NXT FCST BY 231200Z", "TAF CYEU 221740Z 2218/2302 02012G22KT P6SM FEW150 RMK ADVISORY OFFSITE. NXT FCST BY 230000Z", "TAF CYEV 221840Z 2219/2307 09007KT P6SM FEW012 SCT040 TEMPO 2219/2307 BKN012 RMK NXT FCST BY 230100Z", "TAF AMD CYFB 222245Z 2222/2318 14010KT 6SM -SN BKN030 OVC070 TEMPO 2222/2301 1/2SM SHSN VV012 FM230100 16010KT P6SM OVC030 TEMPO 2301/2309 3SM -SN BKN012 OVC025 BECMG 2303/2305 30008KT FM230900 30015KT 5SM -SN BKN015 OVC025 RMK NXT FCST BY 230000Z", "TAF CYFC 221740Z 2218/2306 20012G22KT P6SM SKC BECMG 2222/2224 20008KT RMK FCST BASED ON AUTO OBS. NXT FCST BY 230000Z", "TAF CYFS 221740Z 2218/2306 33008KT P6SM BKN020 TEMPO 2218/2306 SCT020 BKN110 BECMG 2300/2302 VRB03KT RMK NXT FCST BY 230000Z", "TAF CYGK 221940Z 2220/2303 18010G20KT P6SM FEW150 RMK NXT FCST BY 231200Z", "TAF CYGL 221742Z 2218/2318 25015G25KT P6SM -SHRA BKN015 OVC040 TEMPO 2218/2224 P6SM NSW SCT015 OVC040 BECMG 2221/2223 27012KT FM230000 27012KT P6SM BKN020 TEMPO 2300/2304 SCT020 FM230400 24005KT P6SM SCT020 PROB30 2304/2308 2SM BR FM230800 VRB03KT 2SM BR FEW003 PROB30 2308/2313 1/2SM FZFG VV001 FM231300 VRB03KT 1SM BR SCT003 BECMG 2313/2315 P6SM NSW FEW003 RMK NXT FCST BY 230000Z", "TAF CYGP 221940Z 2220/2308 24012G22KT P6SM FEW100 SCT220 BECMG 2223/2301 27006KT RMK NXT FCST BY 230200Z", "TAF CYGQ 221941Z 2220/2308 17005KT P6SM FEW030 BKN080 FM230500 VRB03KT P6SM SKC PROB30 2307/2308 2SM BR BKN008 RMK FCST BASED ON AUTO OBS. NXT FCST BY 230200Z", "TAF CYGR 221940Z 2220/2302 22015G30KT P6SM SKC BECMG 2222/2224 23015KT RMK NXT FCST BY 231100Z", "TAF CYGV 221940Z 2220/2308 23010KT P6SM FEW200 BECMG 2222/2224 VRB03KT BECMG 2303/2305 27008KT RMK FCST BASED ON AUTO OBS. NXT FCST BY 230200Z", "TAF CYGW 221742Z 2218/2306 24020G30KT P6SM BKN025 TEMPO 2218/2222 4SM -SHRA BR BKN015 OVC025 FM222200 27012G22KT P6SM OVC025 TEMPO 2222/2303 4SM -SHRA BR OVC020 FM230300 22012KT 5SM -RA -DZ BR OVC020 TEMPO 2303/2306 P6SM NSW OVC025 RMK FCST BASED ON AUTO OBS. NXT FCST BY 230000Z", "TAF AMD CYGX 222312Z 2223/2307 28008KT P6SM BKN025 TEMPO 2223/2307 BKN020 RMK NXT FCST BY 230100Z", "TAF CYHD 221941Z 2220/2308 04007KT P6SM OVC050 TEMPO 2220/2303 P6SM -SHRA BKN030 FM230300 08008KT P6SM BKN160 RMK FCST BASED ON AUTO OBS. NXT FCST BY 230200Z", "TAF AMD CYHI 221955Z 2219/2224 36010KT P6SM SCT012 BKN230 TEMPO 2219/2224 BKN012 RMK NXT FCST BY 231600Z", "TAF AMD CYHK 221755Z 2218/2306 34020G30KT P6SM SCT015 BKN025 TEMPO 2218/2222 1SM -SN BLSN OVC015 FM222200 32020G30KT P6SM BKN050 TEMPO 2222/2306 3SM -SN BLSN SCT015 OVC040 BECMG 2304/2306 29015KT RMK FCST BASED ON AUTO OBS. NXT FCST BY 230000Z", "TAF CYHM 221740Z 2218/2318 20010G20KT P6SM SKC BECMG 2223/2301 18010KT BECMG 2303/2305 18005KT FM231400 13007KT P6SM FEW040 RMK NXT FCST BY 230000Z", "TAF CYHU 221740Z 2218/2318 18012G22KT P6SM FEW220 BECMG 2221/2223 18010KT FM230800 VRB03KT P6SM SKC BECMG 2314/2316 16007KT RMK FCST BASED ON AUTO OBS. NXT FCST BY 230000Z", "TAF AMD CYHY 221741Z 2218/2306 01010KT P6SM SCT012 BKN030 TEMPO 2218/2306 4SM -SHSN -SG SCT008 OVC012 RMK NXT FCST BY 230000Z", "TAF CYHZ 222040Z 2221/2318 20012KT P6SM FEW100 FM230000 20008KT P6SM SCT010 TEMPO 2300/2309 BKN008 PROB30 2300/2309 1SM BR BKN003 FM230900 29005KT P6SM FEW010 RMK NXT FCST BY 230000Z", "TAF CYIO 221840Z 2219/2307 VRB03KT P6SM FEW050 OVC070 TEMPO 2219/2221 P6SM -SN OVC050 FM222100 07007KT P6SM BKN025 OVC050 TEMPO 2221/2307 3SM -SN OVC020 RMK FCST BASED ON AUTO OBS. NXT FCST BY 230100Z", "TAF CYIV 221840Z 2219/2307 31006KT P6SM BKN025 TEMPO 2219/2223 BKN020 RMK FCST BASED ON AUTO OBS. NXT FCST BY 230100Z", "TAF CYJT 221740Z 2218/2318 24015G25KT P6SM FEW020 FM222200 24012KT P6SM SKC RMK NXT FCST BY 230000Z", "TAF CYKA 221840Z 2219/2307 11005KT P6SM SCT080 BECMG 2219/2221 28010KT FM222100 28010KT P6SM BKN060 TEMPO 2221/2303 P6SM VCSH FM230300 28008KT P6SM SCT060 RMK NXT FCST BY 230100Z", "TAF CYKF 221940Z 2220/2308 21012G22KT P6SM SKC BECMG 2223/2301 17012KT FM230500 19007KT P6SM SKC RMK FCST BASED ON AUTO OBS. NXT FCST BY 230200Z", "TAF AMD CYKJ 221938Z 2219/2224 28004KT 6SM -SNRA BR SCT008 BKN030 TEMPO 2219/2221 1SM -SNRA BR BKN008 OVC030 FM222100 32005KT P6SM BKN025 TEMPO 2221/2224 BKN020 RMK FCST BASED ON AUTO OBS. NXT FCST BY 231000Z", "TAF AMD CYKL 222221Z 2222/2308 22010G20KT P6SM SCT015 BKN050 TEMPO 2222/2224 5SM -RA BR BKN015 FM230000 23010G20KT 5SM -RA BR OVC015 TEMPO 2300/2308 P6SM NSW SCT015 BKN030 BECMG 2302/2304 27015G25KT RMK FCST BASED ON AUTO OBS. NXT FCST BY 230200Z", "TAF CYLD 221940Z 2220/2301 VRB03KT P6SM SCT160 BKN200 RMK NXT FCST BY 231200Z", "TAF CYLL 221740Z 2218/2306 35004KT P6SM SCT006 BKN060 TEMPO 2218/2221 BKN006 OVC060 FM222100 10005KT P6SM BKN020 TEMPO 2221/2303 SCT020 FM230300 08008KT P6SM SCT025 TEMPO 2303/2306 BKN025 RMK NXT FCST BY 230000Z", "TAF AMD CYLW 222311Z 2223/2307 VRB03KT P6SM SCT060 TEMPO 2223/2306 BKN060 FM230600 VRB03KT P6SM BKN050 RMK FCST BASED ON AUTO OBS. FCST BASED ON OBS BY OTHER SRCS. NXT FCST BY 230100Z", "TAF CYMA 221740Z 2218/2306 28003KT P6SM FEW012 BKN050 TEMPO 2218/2306 FEW008 BKN012 OVC040 BECMG 2221/2223 02005KT RMK NXT FCST BY 230000Z", "TAF CYMH 221940Z 2220/2303 23015G30KT P6SM SCT140 BECMG 2222/2224 24012KT RMK FCST BASED ON AUTO OBS. NXT FCST BY 230900Z", "TAF AMD CYMM 221903Z 2219/2307 02005KT P6SM SCT006 TEMPO 2219/2224 5SM -DZ BR BKN006 FM230000 05006KT P6SM SCT020 BKN030 TEMPO 2300/2307 BKN020 OVC030 RMK FCST BASED ON AUTO OBS. NXT FCST BY 230100Z", "TAF CYMO 221740Z 2218/2306 22010G20KT P6SM SCT070 BKN150 BECMG 2300/2302 18005KT RMK FCST BASED ON AUTO OBS. NXT FCST BY 230000Z", "TAF CYMT 221740Z 2218/2224 21012G22KT P6SM SCT030 BKN150 BECMG 2222/2224 21008KT RMK FCST BASED ON AUTO OBS. NXT FCST BY 231200Z", "TAF CYMX 221740Z 2218/2318 20008G18KT P6SM FEW200 BECMG 2222/2224 25005KT FM230600 VRB03KT P6SM SKC PROB30 2310/2312 1SM BR RMK NXT FCST BY 230000Z", "TAF CYNA 221940Z 2220/2308 22012KT P6SM FEW200 BECMG 2304/2306 27010KT RMK FCST BASED ON AUTO OBS. NXT FCST BY 230200Z", "TAF CYND 221740Z 2218/2301 22010G20KT P6SM FEW140 FM230000 20012KT P6SM SKC RMK NXT FCST BY 231300Z", "TAF CYNE 221840Z 2219/2307 32007KT P6SM BKN025 TEMPO 2219/2221 BKN020 FM222100 34005KT P6SM SCT040 RMK FCST BASED ON AUTO OBS. NXT FCST BY 230100Z", "TAF CYOC 221840Z 2219/2301 05007KT P6SM SCT015 OVC030 TEMPO 2219/2223 5SM -SN BR SCT008 BKN012 OVC030 FM222300 04007KT P6SM -SN OVC015 TEMPO 2223/2301 2SM -SN OVC008 RMK NXT FCST BY 231500Z", "TAF CYOD 222040Z 2221/2318 05005KT P6SM BKN030 BKN100 FM230500 VRB03KT P6SM SCT015 BKN020 RMK NXT FCST BY 230000Z", "TAF AMD CYOJ 222104Z 2221/2307 36010KT 3SM -SN OVC015 TEMPO 2221/2224 1/2SM SHSN VV004 FM230000 36012KT 4SM -SN OVC015 TEMPO 2300/2303 2SM -SN OVC008 FM230300 36012KT P6SM -SN SCT020 BKN030 TEMPO 2303/2307 5SM -SN BKN020 OVC030 RMK NXT FCST BY 230100Z", "TAF CYOO 221940Z 2220/2308 19010KT P6SM SKC BECMG 2300/2302 17007KT RMK FCST BASED ON AUTO OBS. NXT FCST BY 230200Z", "TAF CYOW 222040Z 2221/2318 19012G22KT P6SM FEW240 BECMG 2223/2301 18010KT BECMG 2302/2304 18005KT FM231100 VRB03KT P6SM SKC BECMG 2314/2316 15007KT RMK NXT FCST BY 230000Z", "TAF CYPA 221841Z 2219/2307 07007KT P6SM BKN050 BKN080 FM222200 07010KT P6SM FEW070 RMK NXT FCST BY 230100Z", "TAF AMD CYPE 222312Z 2223/2307 33010KT P6SM SCT009 BKN015 TEMPO 2223/2302 P6SM -SHRA BKN009 OVC015 FM230200 34010KT P6SM SCT012 BKN025 TEMPO 2302/2307 BKN012 OVC025 RMK NXT FCST BY 230100Z", "TAF CYPH 221742Z 2218/2306 26015G25KT P6SM BKN025 TEMPO 2218/2306 P6SM -RA -DZ BKN020 PROB30 2304/2306 BKN008 RMK FCST BASED ON AUTO OBS. NXT FCST BY 230000Z", "TAF CYPL 221941Z 2220/2308 18007KT P6SM BKN050 FM230000 09005KT P6SM BKN060 BKN100 FM230300 09008KT P6SM -SHRA OVC030 TEMPO 2303/2306 5SM -SHRA BR BKN012 FM230600 08007KT 2SM -SHRA BR OVC008 TEMPO 2306/2308 P6SM NSW OVC012 PROB30 2306/2308 BKN006 RMK FCST BASED ON AUTO OBS. NXT FCST BY 230200Z", "TAF CYPQ 221940Z 2220/2302 18012G22KT P6SM SKC BECMG 2222/2224 17012KT RMK FCST BASED ON AUTO OBS. NXT FCST BY 231000Z", "TAF CYPR 221840Z 2219/2307 35006KT P6SM SCT020 TEMPO 2219/2307 BKN020 BECMG 2301/2303 08005KT RMK FCST BASED ON AUTO OBS. NXT FCST BY 230100Z", "TAF AMD CYPX 222003Z 2220/2306 25018G28KT P6SM SCT015 BKN040 OVC060 TEMPO 2220/2221 5SM -RASN BR OVC015 FM222100 25025G35KT P6SM -RASN SCT012 OVC025 TEMPO 2221/2306 2SM -SN OVC012 RMK FCST BASED ON AUTO OBS. AUTO OBS NON-REPRESENTATIVE OF CRNT WX. NXT FCST BY 230000Z", "TAF CYPY 221740Z 2218/2306 03008KT P6SM SCT020 OVC040 TEMPO 2218/2306 5SM -SHSN OVC020 RMK FCST BASED ON AUTO OBS. NXT FCST BY 230000Z", "TAF CYQA 221940Z 2220/2302 16010G20KT P6SM FEW150 BECMG 2222/2224 17012KT RMK FCST BASED ON AUTO OBS. NXT FCST BY 231200Z", "TAF CYQB 221740Z 2218/2318 24010G20KT P6SM FEW140 BECMG 2221/2223 25006KT FM230600 VRB03KT P6SM SKC PROB30 2309/2312 1SM BR RMK NXT FCST BY 230000Z", "TAF CYQD 221840Z 2219/2307 VRB03KT P6SM SKC RMK FCST BASED ON AUTO OBS. NXT FCST BY 230100Z", "TAF AMD CYQF 222143Z 2221/2306 03006KT P6SM SCT020 BKN040 TEMPO 2221/2301 4SM -SNRA BR BKN020 OVC040 FM230100 01006KT P6SM SCT015 TEMPO 2301/2306 BKN015 RMK FCST BASED ON AUTO OBS. NXT FCST BY 230000Z", "TAF CYQG 221740Z 2218/2318 19012G22KT P6SM SKC BECMG 2300/2302 17010KT RMK FCST BASED ON AUTO OBS. NXT FCST BY 230000Z", "TAF CYQH 221740Z 2218/2306 16006KT P6SM -RASN OVC020 TEMPO 2218/2224 P6SM NSW OVC030 FM230000 11007KT P6SM BKN040 TEMPO 2300/2306 P6SM -SN OVC020 RMK NXT FCST BY 230000Z", "TAF CYQI 221740Z 2218/2306 22010KT P6SM FEW030 BECMG 2222/2224 VRB03KT RMK NXT FCST BY 230000Z", "TAF CYQK 221941Z 2220/2308 05007KT P6SM OVC080 TEMPO 2220/2301 P6SM -SHRA OVC030 FM230100 03009KT P6SM FEW030 OVC090 RMK NXT FCST BY 230200Z", "TAF AMD CYQL 222020Z 2220/2306 04012KT 6SM -RA BR SCT003 OVC006 TEMPO 2220/2302 2SM -RASN BR OVC003 FM230200 01015G25KT 2SM -SNRA OVC006 TEMPO 2302/2306 1/2SM SHSN OVC003 PROB30 2302/2306 1/4SM +SHSN RMK NXT FCST BY 230000Z", "TAF CYQM 221740Z 2218/2318 22012G22KT P6SM FEW040 BECMG 2222/2224 21008KT RMK NXT FCST BY 230000Z", "TAF CYQQ 221740Z 2218/2318 32006KT P6SM FEW030 FEW050 BECMG 2218/2220 34012G22KT FM230700 32005KT P6SM SCT025 FM231000 30005KT P6SM FEW015 BKN025 BECMG 2314/2316 25005KT RMK NXT FCST BY 230000Z", "TAF CYQR 221800Z 2218/2318 10005KT P6SM BKN070 BKN120 BECMG 2220/2222 10012KT FM230000 08012KT P6SM OVC060 TEMPO 2300/2305 P6SM -SHRA FM230500 07015G25KT P6SM -RA SCT008 OVC012 FM230900 07018G28KT 4SM -RASN BR OVC006 FM231200 07020G30KT 3/4SM -SHSN BR VV005 PROB30 2314/2318 1/4SM +SHSN VV003 RMK NXT FCST BY 230000Z", "TAF CYQT 221941Z 2220/2308 04007KT P6SM BKN060 OVC100 BECMG 2222/2224 09012KT FM230300 08008KT P6SM FEW015 PROB30 2307/2308 2SM BR RMK NXT FCST BY 230200Z", "TAF CYQU 221840Z 2219/2307 01008KT P6SM FEW020 TEMPO 2219/2221 BKN020 FM222100 36010KT P6SM SCT020 BKN050 TEMPO 2221/2301 P6SM -SHRA BKN020 OVC050 FM230100 34010KT P6SM SCT020 TEMPO 2301/2307 BKN020 RMK NXT FCST BY 230100Z", "TAF CYQV 221749Z 2218/2306 09008KT P6SM BKN090 BECMG 2302/2304 09012G22KT RMK FCST BASED ON AUTO OBS. NXT FCST BY 230000Z", "TAF CYQW 221741Z 2218/2306 09005KT P6SM FEW003 FM222000 08008KT P6SM FEW070 FM230400 09008KT P6SM SCT070 BKN200 RMK FCST BASED ON AUTO OBS. NXT FCST BY 230000Z", "TAF CYQX 221740Z 2218/2318 23015G25KT P6SM FEW030 BECMG 2220/2222 24012KT FM231200 26012G22KT P6SM FEW020 RMK NXT FCST BY 230000Z", "TAF CYQY 221740Z 2218/2306 23010G20KT P6SM FEW030 FM222300 23010KT P6SM SCT012 TEMPO 2223/2306 BKN009 RMK NXT FCST BY 230000Z", "TAF AMD CYQZ 221952Z 2219/2306 VRB03KT P6SM -RA FEW008 SCT020 OVC040 TEMPO 2219/2221 2SM -SHRASN BR BKN008 OVC020 FM222100 34008KT P6SM BKN040 TEMPO 2221/2306 P6SM -SHRA BKN020 OVC040 RMK FCST BASED ON AUTO OBS. NXT FCST BY 230100Z", "TAF CYRB 221740Z 2218/2318 03025KT P6SM SCT050 TEMPO 2218/2222 BKN050 BECMG 2220/2222 01015G25KT FM222200 01015G25KT P6SM SCT050 SCT120 FM230900 01010KT P6SM SCT008 TEMPO 2309/2318 P6SM -SN BKN008 RMK NXT FCST BY 230000Z", "TAF CYRJ 221940Z 2220/2302 22012G22KT P6SM BKN120 BECMG 2220/2221 22010KT RMK NXT FCST BY 231200Z", "TAF CYRL 221941Z 2220/2302 09005KT P6SM SCT040 FM230100 09008KT P6SM -SHRA BKN040 OVC090 RMK NXT FCST BY 231100Z", "TAF CYRQ 221940Z 2220/2308 21012G22KT P6SM FEW140 BECMG 2223/2301 20008KT RMK FCST BASED ON AUTO OBS. NXT FCST BY 230200Z", "TAF CYRT 221740Z 2218/2306 33015KT P6SM FEW015 SCT090 TEMPO 2218/2306 P6SM -SN SCT015 BKN090 BECMG 2218/2220 33020G30KT RMK NXT FCST BY 230000Z", "TAF CYSB 221940Z 2220/2308 19010G20KT P6SM FEW090 FM230000 18010KT P6SM FEW240 RMK NXT FCST BY 230200Z", "TAF CYSC 221740Z 2218/2303 21010KT P6SM SKC BECMG 2300/2302 VRB03KT RMK FCST BASED ON AUTO OBS. CLD SENSOR INOP. NXT FCST BY 230000Z", "TAF CYSF 221740Z 2218/2306 01006KT P6SM SCT020 BKN050 TEMPO 2218/2221 BKN020 FM222100 36006KT P6SM SCT030 TEMPO 2221/2306 BKN030 RMK FCST BASED ON AUTO OBS. NXT FCST BY 230000Z", "TAF CYSJ 221740Z 2218/2306 21012G22KT P6SM SCT025 BECMG 2222/2224 21010KT RMK NXT FCST BY 230000Z", "TAF CYSM 221740Z 2218/2306 36008KT P6SM BKN015 TEMPO 2218/2306 SCT015 BKN220 RMK NXT FCST BY 230000Z", "TAF CYSN 221940Z 2220/2301 20015G25KT P6SM FEW240 BECMG 2222/2224 18010G20KT RMK NXT FCST BY 231300Z", "TAF CYTE 221840Z 2219/2307 32010KT P6SM -RASN BKN008 OVC025 TEMPO 2219/2303 P6SM NSW SCT008 BKN025 FM230300 29010KT P6SM -SN OVC006 TEMPO 2303/2307 P6SM NSW BKN020 RMK NXT FCST BY 230100Z", "TAF CYTH 221840Z 2219/2307 30005KT P6SM SCT020 BKN060 TEMPO 2219/2221 BKN020 FM222100 33005KT P6SM BKN030 RMK NXT FCST BY 230100Z", "TAF CYTL 221941Z 2220/2308 27008KT P6SM BKN025 TEMPO 2220/2221 BKN020 FM222100 24007KT P6SM BKN030 FM230300 VRB03KT P6SM BKN030 TEMPO 2303/2308 BKN020 RMK FCST BASED ON AUTO OBS. NXT FCST BY 230200Z", "TAF CYTR 221740Z 2218/2318 22010G20KT P6SM SKC BECMG 2220/2222 VRB03KT FM231400 14005KT P6SM FEW280 RMK NXT FCST BY 230000Z", "TAF CYTS 221940Z 2220/2308 19007KT P6SM BKN190 FM230000 10007KT P6SM SCT150 FM230300 17007KT P6SM SCT200 RMK NXT FCST BY 230200Z", "TAF CYTZ 221940Z 2220/2320 19010G20KT P6SM SKC BECMG 2300/2302 18007KT FM230500 VRB03KT P6SM SKC BECMG 2314/2316 13007KT RMK FCST BASED ON AUTO OBS. NXT FCST BY 230200Z", "TAF CYUB 221840Z 2219/2305 11008KT P6SM FEW100 RMK NXT FCST BY 230100Z", "TAF CYUL 222040Z 2221/2318 21008KT P6SM FEW140 FM230600 VRB03KT P6SM SKC BECMG 2314/2316 11007KT RMK NXT FCST BY 230000Z", "TAF AMD CYUX 222108Z 2221/2307 VRB03KT 1/8SM FZFG VV002 TEMPO 2221/2223 3SM -SN BR OVC008 PROB40 2221/2223 1/8SM -FZDZ FZFG VV001 FM222300 30010KT 2SM -SN BR OVC005 TEMPO 2223/2307 P6SM -SN SCT005 OVC020 PROB30 2223/2307 1/2SM FZFG VV002 RMK NXT FCST BY 230100Z", "TAF CYUY 221740Z 2218/2306 26010G20KT P6SM SCT220 BECMG 2222/2224 19010KT FM230500 18005KT P6SM SCT200 RMK NXT FCST BY 230000Z", "TAF CYVC 221842Z 2219/2307 VRB03KT P6SM SCT210 FM222200 03005KT P6SM FEW040 RMK NXT FCST BY 230100Z", "TAF CYVM 221840Z 2219/2307 08005KT 1SM -SHSN VV015 TEMPO 2219/2302 6SM -SG SCT006 OVC025 FM230200 18005KT P6SM -SN OVC030 TEMPO 2302/2307 2SM -SHSN OVC015 RMK NXT FCST BY 230100Z", "TAF CYVO 221740Z 2218/2306 24010G20KT P6SM BKN150 FM230000 18010KT P6SM SCT150 RMK NXT FCST BY 230000Z", "TAF CYVP 221742Z 2218/2306 25015G25KT P6SM -RA SCT015 BKN030 TEMPO 2218/2306 5SM -RA BR BKN015 OVC030 RMK NXT FCST BY 230000Z", "TAF CYVQ 221740Z 2218/2306 VRB03KT P6SM -SN SCT012 OVC050 TEMPO 2218/2221 2SM -SN OVC012 PROB30 2218/2221 1SM -SN FM222100 VRB03KT P6SM SCT012 BKN050 TEMPO 2221/2306 BKN012 RMK NXT FCST BY 230000Z", "TAF CYVR 222040Z 2221/2324 20005KT P6SM SCT025 BKN060 FM222200 27008KT P6SM SCT060 FM230300 07005KT P6SM SCT030 FM230600 09006KT P6SM SCT012 BKN030 TEMPO 2306/2320 BKN012 FM232000 14008KT P6SM BKN040 OVC200 RMK NXT FCST BY 230000Z", "TAF CYVT 222041Z 2221/2304 01005KT P6SM SCT010 OVC080 TEMPO 2221/2224 BKN010 OVC080 RMK FCST BASED ON AUTO OBS. NXT FCST BY 231400Z", "TAF CYWE 221840Z 2219/2301 03008KT P6SM BKN015 TEMPO 2219/2301 BKN025 RMK FCST BASED ON AUTO OBS. NXT FCST BY 231300Z", "TAF CYWG 221740Z 2218/2318 10005KT P6SM BKN100 OVC200 FM222000 07012KT P6SM -SHRA FEW040 OVC060 FM230200 06015KT P6SM FEW012 SCT030 BKN100 TEMPO 2304/2307 BKN012 FM230700 05015KT P6SM BKN012 OVC180 FM231500 06015G25KT P6SM FEW012 SCT200 RMK NXT FCST BY 230000Z", "TAF CYWH 222040Z 2221/2304 17006KT P6SM FEW030 SCT100 FM222200 17006KT P6SM SCT050 TEMPO 2222/2302 BKN050 RMK NXT FCST BY 231400Z", "TAF CYWK 221940Z 2220/2308 22015G25KT P6SM OVC030 TEMPO 2220/2302 P6SM -SHRA OVC020 BECMG 2222/2224 23012KT FM230200 26015G25KT P6SM BKN015 TEMPO 2302/2308 BKN025 BECMG 2302/2303 26012KT RMK NXT FCST BY 230200Z", "TAF AMD CYWL 221921Z 2219/2307 29010KT P6SM -SN FEW005 SCT030 BKN040 TEMPO 2219/2222 5SM -SHSN OVC004 FM222200 29008KT P6SM BKN040 TEMPO 2222/2301 P6SM -SHRA BKN020 FM230100 31008KT P6SM SCT030 TEMPO 2301/2307 BKN030 RMK NXT FCST BY 230100Z", "TAF CYXC 221840Z 2219/2307 34005KT P6SM SCT008 OVC025 TEMPO 2219/2220 3SM -SHRASN BR BKN008 FM222000 36006KT P6SM -SHRA SCT008 OVC025 TEMPO 2220/2304 4SM -SHRA BR BKN008 FM230400 VRB03KT P6SM SCT008 BKN040 TEMPO 2304/2307 5SM -SHRA BR BKN008 RMK NXT FCST BY 230100Z", "TAF CYXE 221753Z 2218/2318 09009KT P6SM SKC FM230000 06012KT P6SM FEW060 SCT150 BKN220 FM231000 06012KT P6SM BKN040 OVC100 FM231200 04015KT P6SM -RASN BKN030 OVC080 RMK NXT FCST BY 230000Z", "TAF CYXH 221740Z 2218/2306 05010KT 4SM -RA BR BKN015 OVC030 TEMPO 2218/2221 P6SM NSW SCT015 BKN030 FM222100 03012KT P6SM SCT020 OVC040 TEMPO 2221/2304 5SM -RA BR OVC020 FM230400 03012G22KT 3SM -RA BR SCT008 OVC015 TEMPO 2304/2306 6SM -RA BR OVC025 RMK NXT FCST BY 230000Z", "TAF CYXJ 221840Z 2219/2307 35012G22KT P6SM SCT015 BKN040 TEMPO 2219/2221 6SM -SHRASN BKN015 FM222100 35012G22KT P6SM BKN040 TEMPO 2221/2307 P6SM -SN BKN020 BECMG 2302/2304 35008KT RMK NXT FCST BY 230100Z", "TAF CYXL 221941Z 2220/2308 04007KT P6SM OVC050 TEMPO 2220/2304 P6SM -SHRA BKN030 FM230400 08008KT P6SM BKN160 RMK NXT FCST BY 230200Z", "TAF CYXR 221740Z 2218/2224 20010KT P6SM FEW200 RMK FCST BASED ON AUTO OBS. NXT FCST BY 231200Z", "TAF CYXS 221840Z 2219/2307 VRB03KT P6SM -SHRA SCT005 OVC015 TEMPO 2219/2222 5SM -SHRASN BR OVC005 BECMG 2220/2222 30008KT FM222200 35008KT P6SM -RA SCT015 OVC030 TEMPO 2222/2305 5SM -SHRA BR OVC015 FM230500 VRB03KT P6SM SCT006 OVC015 TEMPO 2305/2307 5SM -SHRA BR BKN006 OVC020 RMK FCST BASED ON AUTO OBS. NXT FCST BY 230100Z", "TAF CYXT 221840Z 2219/2307 VRB03KT P6SM SCT012 BKN025 TEMPO 2219/2221 SCT004 BKN009 BKN015 FM222100 16005KT P6SM FEW005 SCT015 BKN030 TEMPO 2221/2303 P6SM -SHRA SCT005 BKN015 FM230300 16005KT P6SM SCT006 BKN015 RMK NXT FCST BY 230100Z", "TAF CYXU 221740Z 2218/2318 17015G25KT P6SM SKC BECMG 2222/2224 17010G20KT BECMG 2305/2307 15010KT RMK NXT FCST BY 230000Z", "TAF CYXX 221740Z 2218/2318 07005KT P6SM SCT008 BKN050 TEMPO 2218/2219 5SM BR SCT005 BKN008 FM222200 24005KT P6SM SCT020 BKN050 TEMPO 2222/2303 5SM -SHRA BR BKN020 FM230300 VRB03KT P6SM BKN030 FM230600 VRB03KT P6SM SCT008 BKN025 TEMPO 2306/2318 3SM BR BKN008 PROB30 2306/2317 1SM BR BKN004 RMK NXT FCST BY 230000Z", "TAF AMD CYXY 222213Z 2222/2306 VRB03KT P6SM SCT012 BKN050 TEMPO 2222/2303 BKN012 FM230300 16005KT P6SM SCT008 BKN050 TEMPO 2303/2306 BKN008 RMK NXT FCST BY 230000Z", "TAF CYXZ 221940Z 2220/2224 VRB03KT P6SM BKN190 BECMG 2220/2222 09005KT RMK NXT FCST BY 231300Z", "TAF CYYB 221940Z 2220/2308 21010G20KT P6SM FEW120 FM230000 17010KT P6SM FEW200 RMK NXT FCST BY 230200Z", "TAF AMD CYYC 222206Z 2222/2318 02008KT 4SM -SNRA BR SCT005 BKN020 TEMPO 2222/2302 3/4SM -SN BR BKN005 OVC020 FM230200 02010KT P6SM -SN SCT005 BKN025 TEMPO 2302/2308 4SM -SN BR BKN005 OVC025 FM230800 36008KT P6SM -SN SCT008 OVC015 FM230900 36008KT P6SM FEW008 BKN015 RMK NXT FCST BY 230000Z", "TAF CYYD 221840Z 2219/2306 VRB03KT P6SM SCT012 BKN060 TEMPO 2219/2222 BKN012 FM222200 33006KT P6SM SCT050 RMK NXT FCST BY 230100Z", "TAF CYYE 221847Z 2219/2307 33010KT P6SM BKN040 TEMPO 2219/2307 6SM -SN BKN020 OVC040 RMK NXT FCST BY 230100Z", "TAF CYYF 221840Z 2219/2307 36008KT P6SM SCT060 BKN150 TEMPO 2219/2220 BKN060 FM222000 36012KT P6SM BKN060 TEMPO 2220/2302 P6SM -SHRA FM230200 36010KT P6SM BKN050 RMK NXT FCST BY 230100Z", "TAF CYYG 221740Z 2218/2306 22012G22KT P6SM FEW025 BECMG 2222/2224 22010KT RMK NXT FCST BY 230000Z", "TAF CYYH 221740Z 2218/2306 34012KT P6SM -SN BKN020 OVC100 TEMPO 2218/2224 P6SM NSW SCT020 FM230000 31015KT P6SM SCT050 TEMPO 2300/2306 P6SM -SN SCT012 BKN050 RMK NXT FCST BY 230000Z", "TAF CYYJ 221740Z 2218/2318 27007KT P6SM BKN060 FM221900 27007KT P6SM SCT060 BECMG 2219/2221 09007KT FM230600 27006KT P6SM BKN030 FM231000 27006KT P6SM BKN025 TEMPO 2310/2318 BKN020 RMK NXT FCST BY 230000Z", "TAF AMD CYYL 222127Z 2221/2307 30006KT P6SM BKN025 TEMPO 2221/2223 1SM -SHSN VV008 FM222300 32006KT P6SM BKN025 TEMPO 2223/2307 BKN020 RMK FCST BASED ON AUTO OBS. NXT FCST BY 230100Z", "TAF CYYN 221746Z 2218/2306 06008KT P6SM BKN080 OVC200 FM222300 06012KT P6SM -SHRA OVC050 FM230300 06014KT P6SM -SHRA OVC020 BECMG 2303/2305 4SM -RASN BR OVC006 RMK FCST BASED ON AUTO OBS. AUTO OBS REP NON-REPRESENTATIVE CLD. NXT FCST BY 230000Z", "TAF AMD CYYQ 222022Z 2220/2318 32012KT P6SM OVC012 TEMPO 2220/2223 5SM -SN FM222300 31015KT P6SM SCT020 BKN040 TEMPO 2223/2304 P6SM -SN BKN020 OVC060 FM230400 30012KT P6SM BKN020 TEMPO 2304/2318 BKN025 RMK NXT FCST BY 230000Z", "TAF CYYR 221740Z 2218/2318 24015KT P6SM SCT050 SCT080 BKN140 TEMPO 2218/2222 BKN050 BECMG 2219/2221 24010KT FM230800 25012KT P6SM FEW025 SCT040 TEMPO 2308/2312 P6SM VCSH BKN040 FM231200 27012G22KT P6SM SCT025 BKN040 BECMG 2312/2314 27015G25KT RMK NXT FCST BY 230000Z", "TAF CYYT 221740Z 2218/2318 27012KT P6SM SCT030 TEMPO 2218/2308 BKN030 FM230800 28015KT P6SM SCT008 FM231000 28015KT P6SM BKN008 FM231300 28012G22KT P6SM SCT012 RMK NXT FCST BY 230000Z", "TAF CYYU 221940Z 2220/2308 20007KT P6SM OVC070 TEMPO 2220/2223 P6SM -SHRA FM230000 10005KT P6SM BKN150 FM230400 VRB03KT P6SM SKC PROB30 2304/2308 3/4SM BR BKN003 RMK NXT FCST BY 230200Z", "TAF CYYY 221940Z 2220/2308 21015G25KT P6SM SCT180 BECMG 2222/2224 22012KT RMK NXT FCST BY 230200Z", "TAF CYYZ 222040Z 2221/2324 16010KT P6SM SKC FM230500 18005KT P6SM SKC BECMG 2307/2309 VRB03KT BECMG 2314/2316 13007KT FM232000 10010KT P6SM SKC RMK NXT FCST BY 230000Z", "TAF CYZF 221740Z 2218/2318 34008KT P6SM FEW010 SCT050 FM222100 36008KT P6SM SCT020 TEMPO 2221/2318 BKN020 RMK NXT FCST BY 230000Z", "TAF CYZH 221840Z 2219/2307 25007KT P6SM SCT015 BKN025 TEMPO 2219/2223 P6SM -SHRA BKN015 OVC025 FM222300 28003KT P6SM BKN020 TEMPO 2223/2303 BKN030 FM230300 VRB03KT 5SM -RA BR BKN020 TEMPO 2303/2307 2 1/2SM -RA BR BKN008 PROB30 2305/2307 2SM -RA BR BKN006 RMK FCST BASED ON AUTO OBS. NXT FCST BY 230100Z", "TAF CYZP 221840Z 2219/2307 29015G25KT P6SM FEW040 TEMPO 2222/2302 BKN040 FM230200 29007KT P6SM SCT020 BKN040 TEMPO 2302/2307 P6SM -SHRA BKN020 BKN040 RMK FCST BASED ON AUTO OBS. NXT FCST BY 230100Z", "TAF CYZR 221940Z 2220/2302 19012G22KT P6SM SKC BECMG 2223/2301 18012KT RMK FCST BASED ON AUTO OBS. NXT FCST BY 230800Z", "TAF CYZS 221840Z 2219/2307 01012KT P6SM BKN030 TEMPO 2219/2307 P6SM -SN OVC020 RMK NXT FCST BY 230100Z", "TAF CYZT 221840Z 2219/2307 30008KT P6SM FEW030 BKN050 TEMPO 2219/2224 P6SM -SHRA BKN030 FM230000 31015KT P6SM SCT030 TEMPO 2300/2307 BKN030 BECMG 2304/2306 28008KT RMK NXT FCST BY 230100Z", "TAF CYZV 221740Z 2218/2318 20006KT P6SM BKN140 FM222000 21010KT P6SM FEW060 SCT240 BECMG 2222/2224 29006KT BECMG 2300/2302 VRB03KT FM230800 VRB03KT P6SM FEW100 PROB30 2309/2311 1SM BR FM231600 20006KT P6SM SCT120 RMK NXT FCST BY 230000Z", "TAF AMD CYZW 222234Z 2222/2224 25005KT P6SM FEW015 BKN060 TEMPO 2222/2224 5SM -RASN BKN015 RMK NXT FCST BY 231800Z", "TAF AMD CYZX 222124Z 2221/2318 VRB03KT P6SM FEW250 FM230800 00000KT P6SM FEW250 PROB30 2308/2312 3/4SM BR BKN002 FM231600 VRB03KT P6SM OVC200 RMK NXT FCST BY 230000Z", "TAF CYZY 221840Z 2219/2307 VRB03KT P6SM OVC080 TEMPO 2219/2302 P6SM -SHRA OVC050 FM230200 03005KT P6SM BKN060 RMK FCST BASED ON AUTO OBS. NXT FCST BY 230100Z", "TAF CZBF 221940Z 2220/2303 22010G20KT P6SM SKC BECMG 2223/2301 22006KT RMK FCST BASED ON AUTO OBS. NXT FCST BY 230900Z", "TAF CZMT 221840Z 2219/2301 34012G22KT P6SM FEW030 TEMPO 2219/2301 BKN030 RMK NXT FCST BY 231500Z", "TAF CZUM 221940Z 2220/2308 21010G20KT P6SM BKN030 BECMG 2220/2221 21008KT BECMG 2305/2307 28010KT RMK FCST BASED ON AUTO OBS. NXT FCST BY 230200Z", "TAF CZVL 221740Z 2218/2306 31005KT P6SM SCT015 OVC025 TEMPO 2218/2223 P6SM -SHRA BKN015 OVC025 FM222300 36005KT P6SM BKN025 TEMPO 2223/2303 BKN015 FM230300 35003KT P6SM -RA SCT008 BKN015 TEMPO 2303/2306 P6SM NSW BKN025 RMK FCST BASED ON AUTO OBS. NXT FCST BY 230000Z", "TAF DAAE 221700Z 2218/2318 24008KT CAVOK", "TAF DAAG 222300Z 2300/2324 20006KT CAVOK", "TAF DAAJ 222300Z 2300/2324 08008KT CAVOK", "TAF DAAS 221700Z 2218/2318 25007KT CAVOK", "TAF DAAT 222300Z 2300/2324 10010KT CAVOK PROB40 TEMPO 2306/2311 10015G25KT", "TAF DAAV 221700Z 2218/2318 18006KT 8000 NSC", "TAF DABB 221700Z 2218/2318 25006KT CAVOK", "TAF DABC 221700Z 2218/2318 22008KT CAVOK", "TAF DABS 221700Z 2218/2318 12008KT CAVOK", "TAF DABT 221700Z 2218/2318 25007KT CAVOK", "TAF DAOB 222300Z 2300/2324 22008KT CAVOK PROB30 TEMPO 2310/2314 22015G25KT", "TAF DAOI 222300Z 2300/2324 18008KT CAVOK BECMG 2313/2316 25011KT", "TAF DAON 222300Z 2300/2324 21012KT 8000 NSC PROB30 TEMPO 2303/2312 5000 HZ BECMG 2321/2324 VRB02KT", "TAF DAOO 222300Z 2300/2324 22014KT 7000 NSC PROB30 TEMPO 2303/2312 5000 HZ BECMG 2314/2317 32012KT BECMG 2320/2324 23010KT", "TAF DAUA 222300Z 2300/2324 08008KT CAVOK", "TAF DAUB 221700Z 2218/2318 14008KT CAVOK", "TAF DAUG 222300Z 2300/2324 VRB02KT CAVOK BECMG 2310/2312 16010KT BECMG 2316/2318 VRB02KT", "TAF DAUH 222300Z 2300/2324 12005KT CAVOK", "TAF DAUI 222300Z 2300/2324 06015KT CAVOK", "TAF DAUZ 222300Z 2300/2324 10006KT CAVOK", "TAF DBBB 222300Z 2300/2406 30005KT 9999 SCT012 TEMPO 2302/2310 3500 TSRA BKN010 FEW020CB PROB30 2302/2306 09015G30KT BECMG 2310/2312 22010KT", "TAF DFFD 222300Z 2300/2406 15008KT CAVOK TEMPO 2306/2310 4000 HZ", "TAF DFOO 222300Z 2300/2324 VRB08KT CAVOK PROB30 TEMPO 2316/2322 TS FEW020 FEW033CB", "TAF DGAA 222300Z 2300/2406 26005KT 9999 FEW010 BECMG 2310/2312 18010KT", "TAF DIAP 221748Z 2218/2324 24006KT 9999 SCT012 TEMPO 2218/2224 BKN012 FEW020CB PROB30 TEMPO 2302/2305 4000 TSRA BKN012 FEW020CB TEMPO 2315/2321 TS BKN012 FEW020CB", "TAF DIBK 221752Z 2218/2318 24005KT 9999 SCT013 PROB30 TEMPO 2222/2302 TS BKN013 FEW030CB TEMPO 2306/2312 BKN013 PROB30 TEMPO 2315/2318 BKN013 FEW030CB", "TAF DIYO 221754Z 2218/2318 25005KT 9999 SCT013 PROB30 TEMPO 2221/2302 TS BKN013 FEW025CB TEMPO 2306/2312 BKN013 PROB30 TEMPO 2315/2318 BKN013 FEW025CB", "TAF DNAA 222300Z 2300/2406 26002KT CAVOK TEMPO 2305/2306 VRB02KT 5000 BR SCT008 BECMG 2301/2303 07006KT BECMG 2312/2315 23010KT SCT013 BECMG 2318/2320 CAVOK", "TAF DNAK 221700Z 2218/2324 VRB02KT 9999 TS SCT010 FEW020CB TEMPO 2218/2224 5000 -TSRA BKN008 FEW018CB BECMG 2300/2302 VRB02KT NSW SCT008 BECMG 2308/2310 25010KT BKN013 TEMPO 2312/2317 SCT013 FEW020CB BECMG 2317/2319 VRB02KT SCT011", "TAF DNBE 221700Z 2218/2324 VRB02KT 9999 TS SCT010 FEW020CB TEMPO 2218/2224 5000 -TSRA BKN008 FEW018CB BECMG 2300/2302 VRB02KT NSW SCT008 TEMPO 2305/2308 4000 BR BECMG 2308/2310 22010KT BKN012 TEMPO 2312/2318 SCT012 FEW020CB BECMG 2318/2320 VRB02KT SCT010", "TAF DNIB 221700Z 2218/2324 VRB02KT 8000 -TSRA BKN008 FEW018CB TEMPO 2218/2222 5000 BECMG 2222/2224 NSW SCT008 BECMG 2308/2310 24010KT BKN013 TEMPO 2312/2317 SCT013 FEW020CB BECMG 2317/2319 VRB02KT SCT011", "TAF DNIL 222300Z 2300/2406 14003KT 9999 FEW011 BECMG 2310/2312 23010KT BKN012 2317/2321 PROB30 TEMPO TS SCT011 FEW012CB BECMG 2322/2324 VRB02KT CAVOK", "TAF DNJO 222300Z 2300/2406 10006KT CAVOK BECMG 2312/2314 24010KT SCT010 BECMG 2317/2319 12005KT CAVOK", "TAF DNKA 222300Z 2300/2406 05007KT CAVOK", "TAF DNKN 221100Z 2212/2318 07010KT CAVOK TEMPO 2301/2307 VRB02KT", "TAF DNMA 221100Z 2212/2318 09007KT CAVOK", "TAF DNMM 221700Z 2218/2324 20010KT 9999 TS SCT011 FEW020CB TEMPO 2218/2224 5000 -TSRA BKN008 FEW018CB BECMG 2300/2302 VRB02KT NSW SCT008 BECMG 2308/2310 23010KT BKN013 TEMPO 2312/2317 SCT013 FEW020CB BECMG 2317/2319 SCT011 BECMG 2322/2324 VRB02KT", "TAF DNSO 221100Z 2212/2318 07010KT CAVOK", "TAF DNSU 221700Z 2218/2324 VRB02KT 9999 SCT010 TEMPO 2218/2224 TS SCT010 FEW020CB PROB30 2219/2224 5000 -TSRA BKN008 FEW018CB BECMG 2300/2302 SCT008 TEMPO 2305/2308 3000 BR BECMG 2308/2310 20010KT BKN012 TEMPO 2312/2318 SCT012 FEW020CB BECMG 2318/2320 VRB02KT SCT010", "TAF DNYO 221100Z 2212/2318 22007KT 9999 SCT010 TEMPO 2212/2218 TS BKN012 FEW020CB", "TAF DRRN 222300Z 2300/2306 08008KT 8000 NSC TEMPO 2307/2309 4000 DU", "TAF DRZA 222300Z 2300/2324 10012KT 8000 NSC", "TAF DRZR 222300Z 2300/2324 02008KT 8000 NSC TEMPO 2306/2312 4000 DU", "TAF DTKA 222100Z 2222/2307 VRB03KT 9999 FEW020", "TAF DTMB 221700Z 2218/2318 15013KT CAVOK", "TAF DTNH 221700Z 2218/2318 13010KT CAVOK BECMG 2222/2224 19005KT BECMG 2313/2315 12012KT", "TAF DTTA 221700Z 2218/2318 13010KT 9999 FEW026 BECMG 2300/2302 19005KT PROB30 TEMPO 2314/2318 14015KT", "TAF DTTF 222100Z 2222/2307 VRB03KT CAVOK", "TAF DTTG 222100Z 2222/2307 15004KT CAVOK", "TAF DTTJ 221700Z 2218/2318 13012KT CAVOK BECMG 2303/2305 19008KT", "TAF DTTX 221700Z 2218/2318 15010KT CAVOK BECMG 2307/2309 21010KT BECMG 2316/2318 15008KT", "TAF DTTZ 221700Z 2218/2318 24005KT CAVOK", "TAF DXNG 222300Z 2300/2324 VRB05KT 9999 FEW006", "TAF DXXX 222300Z 2300/2406 VRB03KT 9999 SCT010 BECMG 2308/2310 20010KT PROB30 TEMPO 2312/2318 TS BKN010 FEW020CB BECMG 2322/2324 VRB03KT", "TAF EBAW 222309Z 2300/2309 13005KT 9999 SCT030", "TAF EBBR 222302Z 2300/2406 16006KT 9999 SCT030 PROB30 TEMPO 2314/2318 SHRA TEMPO 2318/2321 4500 SHRA PROB30 TEMPO 2318/2321 18016G28KT 2500 TSRA", "TAF EBCI 222302Z 2300/2406 16006KT 9999 SCT030 PROB30 TEMPO 2314/2317 SHRA TEMPO 2317/2320 4500 SHRA PROB30 TEMPO 2317/2320 18016G28KT 2500 TSRA", "TAF EBCV 221541Z 2219/2307 18005KT 9999 FEW030 SCT250 BY EBWM", "TAF EBFN 221541Z 2219/2307 20006KT FEW020 SCT025 BY EBWM", "TAF EBLG 222302Z 2300/2406 16006KT 9999 SCT030 PROB30 TEMPO 2314/2318 SHRA TEMPO 2318/2321 4500 SHRA PROB30 TEMPO 2318/2321 18016G28KT 2500 TSRA", "TAF EBOS 222302Z 2300/2406 15008KT 9999 SCT030 PROB30 TEMPO 2310/2317 4500 SHRA TEMPO 2317/2320 3500 SHRA PROB30 TEMPO 2317/2320 18018G30KT 2500 TSRA BECMG 2322/2324 19018G35KT", "TAF EDAC 221700Z 2218/2303 19004KT CAVOK", "TAF EDAH 221700Z 2218/2303 VRB03KT 5000 BR FEW030 BECMG 2218/2221 3000 BR TEMPO 2220/2224 SHRA BKN020CB", "TAF COR EDDB 221712Z 2218/2318 23006KT CAVOK TEMPO 2218/2220 SHRA BKN030CB TEMPO 2302/2307 1000 BCFG BECMG 2306/2309 17005KT", "TAF EDDC 221700Z 2218/2318 24005KT CAVOK BECMG 2303/2306 16008KT PROB30 TEMPO 2304/2307 1200 BCFG", "TAF EDDE 222300Z 2300/2324 19007KT CAVOK TEMPO 2320/2323 SHRA SCT050CB PROB30 TEMPO 2320/2322 TSRA", "TAF EDDF 222300Z 2300/2406 06005KT CAVOK PROB30 TEMPO 2304/2308 2000 BCFG BECMG 2315/2318 16005KT TEMPO 2318/2322 21015G30KT 4000 SHRA BKN045CB TEMPO 2400/2406 1200 BCFG", "TAF EDDG 222300Z 2300/2324 VRB02KT CAVOK TEMPO 2300/2306 4000 BCFG PROB40 TEMPO 2300/2305 0300 FG BECMG 2305/2308 12006KT PROB30 TEMPO 2315/2318 16011KT SHRA BKN030TCU BECMG 2319/2322 18007KT", "TAF EDDH 222300Z 2300/2406 17004KT CAVOK TEMPO 2300/2309 2500 BR PROB30 TEMPO 2300/2308 0700 FG BKN002 BECMG 2308/2310 14009KT PROB30 TEMPO 2320/2324 RA", "TAF EDDK 222300Z 2300/2406 12004KT 9999 SCT020 BECMG 2306/2308 13009KT PROB30 TEMPO 2314/2317 SHRA BKN030TCU", "TAF EDDL 222300Z 2300/2406 15007KT CAVOK BECMG 2305/2308 15012KT PROB30 TEMPO 2314/2317 SHRA BKN030TCU PROB30 TEMPO 2318/2320 18020G35KT 4500 TSRA BKN025CB", "TAF EDDM 222300Z 2300/2406 VRB02KT 1200 BCFG NSC TEMPO 2300/2307 0700 FG PROB30 TEMPO 2300/2307 0250 FG VV001 BECMG 2306/2308 4000 BR BECMG 2308/2310 09006KT CAVOK BECMG 2317/2319 VRB03KT PROB30 TEMPO 2401/2406 SHRA BKN050CB", "TAF EDDN 222300Z 2300/2324 10004KT CAVOK TEMPO 2300/2307 1200 BCFG PROB40 TEMPO 2300/2307 0500 FG PROB30 TEMPO 2307/2309 4000 BR BECMG 2307/2309 13009KT PROB40 TEMPO 2320/2324 SHRA BKN040CB", "TAF EDDP 222300Z 2300/2324 19006KT CAVOK BECMG 2310/2312 13008KT TEMPO 2321/2324 SHRA SCT050CB", "TAF EDDR 222300Z 2300/2324 08005KT CAVOK PROB30 TEMPO 2303/2308 2000 BCFG BECMG 2309/2312 16005KT TEMPO 2317/2321 21015G30KT 4000 SHRA BKN040CB BECMG 2319/2322 21010KT TEMPO 2321/2324 BKN008", "TAF EDDS 222300Z 2300/2324 VRB03KT CAVOK PROB30 TEMPO 2304/2308 2000 BCFG TEMPO 2319/2324 21015G30KT 4000 SHRA BKN045CB", "TAF EDDV 222300Z 2300/2324 VRB03KT CAVOK TEMPO 2300/2308 2500 BR PROB30 TEMPO 2302/2307 0600 FG BECMG 2309/2311 14008KT PROB30 TEMPO 2318/2322 RA", "TAF EDDW 222300Z 2300/2324 VRB03KT 2500 BR NSC TEMPO 2300/2307 0300 FG BECMG 2308/2310 14008KT 9999 PROB30 TEMPO 2317/2322 RA", "TAF EDFH 222300Z 2300/2324 14008KT CAVOK PROB30 TEMPO 2304/2308 0500 FG BKN001 TEMPO 2318/2322 21020G35KT 4000 SHRA BKN035CB BECMG 2321/2324 20012KT", "TAF EDGS 221700Z 2218/2303 19006KT 9999 FEW035", "TAF EDJA 221700Z 2218/2303 15003KT CAVOK TEMPO 2223/2303 0700 FG", "TAF EDLN 221700Z 2218/2303 VRB03KT CAVOK TEMPO 2221/2303 4500 BR PROB30 TEMPO 2221/2302 1200 BCFG", "TAF EDLP 222300Z 2300/2324 16005KT CAVOK BECMG 2306/2309 14010KT PROB30 TEMPO 2317/2320 SHRA BKN025CB", "TAF EDLW 221700Z 2218/2318 17007KT CAVOK", "TAF EDMA 221700Z 2218/2303 15003KT CAVOK BECMG 2221/2223 1200 BCFG BECMG 2223/2301 0700 FG PROB30 TEMPO 2301/2303 0500 VV002", "TAF EDNY 222300Z 2300/2324 VRB03KT CAVOK PROB30 TEMPO 2300/2307 4000 BR", "TAF EDQM 221700Z 2218/2303 22005KT 9999 FEW025 BECMG 2218/2220 VRB03KT TEMPO 2223/2303 0600 FG", "TAF EDSB 222300Z 2300/2324 VRB03KT CAVOK TEMPO 2300/2309 4000 BR BKN008 PROB30 TEMPO 2302/2308 0500 FG BKN001 BECMG 2317/2320 21007KT TEMPO 2318/2322 21015G30KT 4000 SHRA BKN045CB", "TAF EDTL 221700Z 2218/2224 VRB03KT CAVOK", "TAF EDTY 221700Z 2218/2303 VRB03KT CAVOK TEMPO 2300/2303 0800 FG", "TAF EDVK 221700Z 2218/2303 19004KT 9999 FEW035 PROB30 TEMPO 2223/2303 0800 FG BKN001", "TAF EEEI 222330Z 2300/2324 18006KT 9999 BKN015 TEMPO 2300/2302 BKN008 TEMPO 2302/2308 2000 DZRA BR OVC004 BECMG 2306/2308 32010KT TEMPO 2308/2311 BKN009", "TAF EETN 222330Z 2300/2324 23007KT 9999 BKN017 TEMPO 2300/2304 BKN010 TEMPO 2304/2310 4000 RA BKN006 BKN014 BECMG 2306/2308 30010KT", "TAF EFHK 222029Z 2221/2321 24003KT 9999 BKN020 TEMPO 2302/2308 BKN013 PROB30 TEMPO 2304/2307 BKN008 BECMG 2307/2310 30010KT", "TAF EFJY 222029Z 2221/2321 22008KT 9999 BKN020 BECMG 2221/2223 BKN013 TEMPO 2300/2305 BKN020 PROB30 TEMPO 2305/2307 BKN008 BECMG 2307/2309 30010KT SCT025", "TAF EFKU 222026Z 2221/2321 22011KT 9999 OVC030 PROB30 TEMPO 2223/2302 BKN014 BECMG 2302/2304 28008KT", "TAF EFMA 222029Z 2221/2306 30002KT 9999 OVC015 TEMPO 2221/2303 4500 -RA BKN008", "TAF EFOU 222025Z 2221/2321 27010KT CAVOK TEMPO 2310/2321 31015G30KT", "TAF EFRO 222025Z 2221/2321 26007KT CAVOK TEMPO 2308/2317 28015G25KT", "TAF EFSI 222029Z 2221/2306 23007KT 9999 OVC015 TEMPO 2221/2222 BKN013 BECMG 2302/2304 0700 FG BKN002 BECMG 2304/2306 9999 NSW SCT035", "TAF AMD EFTP 222123Z 2221/2321 21007KT 9999 OVC015 TEMPO 2221/2222 BKN014 BECMG 2222/2224 BKN009 BECMG 2300/2302 SCT020 PROB30 TEMPO 2302/2305 2500 BCFG BECMG 2309/2312 30010KT", "TAF AMD EFTU 222314Z 2223/2321 15003KT 9999 -RA BKN025 TEMPO 2223/2304 6000 BKN004 BECMG 2306/2308 30010KT", "TAF EFVA 222025Z 2221/2321 25006KT 9999 FEW020", "TAF EGAA 222258Z 2300/2324 11007KT 9999 FEW015 SCT035 PROB30 TEMPO 2300/2305 7000 SHRA BKN012 TEMPO 2305/2315 6000 RA SHRA BKN008 PROB40 TEMPO 2307/2315 3000 +SHRA PROB30 TEMPO 2309/2313 BKN004", "TAF EGBB 222301Z 2300/2324 13010KT 9999 SCT020 TEMPO 2300/2303 4000 BR SHRA BKN004 PROB30 2302/2303 0300 FG VV/// TEMPO 2303/2311 6000 SHRA BKN008 PROB30 TEMPO 2304/2311 13015G25KT 3000 +RA +SHRA BKN004CB TEMPO 2311/2324 6000 SHRA PROB40 TEMPO 2311/2315 BKN008 BECMG 2314/2317 VRB03KT PROB30 TEMPO 2316/2318 3000 +SHRA PROB30 2321/2324 4000 BR BKN004", "TAF EGCC 222259Z 2300/2406 15006KT 9999 SCT020 TEMPO 2300/2316 6000 RA SHRA BKN010 BECMG 2302/2305 08010KT PROB30 TEMPO 2304/2311 11015G25KT 3000 +RA +TSRA BKN006 BKN015CB BECMG 2310/2313 16006KT PROB30 TEMPO 2311/2317 3000 +SHRA TSGS BKN006 BKN015CB TEMPO 2321/2406 6000 SHRA PROB30 TEMPO 2321/2404 4000 +SHRA BKN012", "TAF EGCK 222300Z 2300/2309 18012KT 9999 SCT030 TEMPO 2300/2309 6000 RA SHRA BKN012 PROB30 TEMPO 2300/2303 17015G25KT 3000 +RA +SHRA BKN008 BKN020CB PROB30 TEMPO 2303/2309 12020G30KT 2000 +RA +TSRA BKN006 BKN015CB", "TAF EGCN 222300Z 2300/2324 15006KT 9999 FEW030 TEMPO 2300/2307 BKN006 PROB40 TEMPO 2300/2307 6000 BKN004 TEMPO 2307/2312 6000 SHRA RA BKN012 PROB30 TEMPO 2309/2312 12015G28KT 3000 +SHRA +TSRA BKN008 BKN015CB TEMPO 2312/2324 5000 RADZ BKN006 PROB30 TEMPO 2318/2324 4000 BR BKN002", "TAF EGFF 222308Z 2300/2324 10009KT 9999 SCT040 PROB30 TEMPO 2300/2304 8000 -SHRA BKN006 TEMPO 2304/2307 6000 RA SHRA BKN012 PROB30 TEMPO 2304/2306 13015G25KT 3000 +RA +TSRA BKN007 BECMG 2306/2309 19010KT PROB30 TEMPO 2307/2315 7000 SHRA PROB40 TEMPO 2315/2318 3000 +SHRA BKN014CB PROB40 TEMPO 2318/2324 6000 SHRA BKN014 BECMG 2320/2323 27008KT", "TAF EGGD 222308Z 2300/2324 11009KT 9999 SCT030 PROB30 TEMPO 2300/2303 8000 -SHRA BKN010 TEMPO 2303/2307 6000 RA SHRA BKN010 PROB30 TEMPO 2303/2307 13015G28KT 3000 +RA +TSRA BKN005 BECMG 2306/2309 19010KT PROB30 TEMPO 2307/2316 7000 SHRA BKN014 PROB40 TEMPO 2316/2320 3000 +SHRA BKN007 BKN012CB BECMG 2320/2323 27008KT PROB40 TEMPO 2320/2324 6000 SHRA BKN012", "TAF EGGP 222259Z 2300/2324 15007KT 9999 FEW030 TEMPO 2300/2316 6000 RA SHRA BKN012 BECMG 2302/2305 09010KT PROB30 TEMPO 2304/2311 11015G25KT 3000 +RA +TSRA BKN008 BKN015CB PROB30 TEMPO 2311/2316 3000 +SHRA TSGS BKN008 BKN015CB BECMG 2312/2315 15006KT TEMPO 2321/2324 6000 SHRA PROB30 TEMPO 2321/2324 4000 +SHRA BKN014", "TAF EGGW 222257Z 2300/2324 15008KT 9999 SCT020 PROB30 TEMPO 2300/2302 7000 SHRA BKN007 PROB30 TEMPO 2302/2305 BKN008 TEMPO 2305/2311 7000 RA SHRA BKN012 PROB30 TEMPO 2306/2310 3000 +RA +SHRA BKN004 TEMPO 2311/2315 BKN009 TEMPO 2315/2324 6000 RA SHRA PROB40 TEMPO 2315/2319 18018G30KT 2500 +RA +SHRA TSGS BKN007 BKN016CB PROB30 TEMPO 2319/2324 3000 +SHRA BKN009 BKN030CB", "TAF EGHH 221959Z 2221/2224 14008KT 9999 SCT020 PROB30 TEMPO 2221/2224 15015G25KT", "TAF EGHQ 222300Z 2300/2309 13012KT 9999 FEW040 TEMPO 2300/2303 6000 SHRA BKN008 PROB30 TEMPO 2300/2303 15015G25KT 3000 +SHRAGS BKN004CB PROB30 TEMPO 2303/2305 BKN004 BECMG 2304/2307 19010KT", "TAF EGJA 221406Z 2215/2300 16012KT 9999 FEW012 PROB40 TEMPO 2222/2300 16018G28KT", "TAF EGJB 222257Z 2300/2309 13015KT CAVOK TEMPO 2301/2305 6000 SHRA BKN020CB PROB30 TEMPO 2302/2305 3000 +TSRA BKN012CB BECMG 2305/2306 19010KT", "TAF EGJJ 222257Z 2300/2309 12015KT CAVOK TEMPO 2301/2305 6000 SHRA BKN020CB PROB30 TEMPO 2302/2305 3000 +TSRA BKN012CB BECMG 2304/2306 19008KT", "TAF EGKK 222252Z 2300/2406 11006KT 9999 SCT035 PROB30 TEMPO 2300/2303 8000 SHRA TEMPO 2303/2309 6000 SHRA BKN014 PROB30 TEMPO 2303/2310 15018G28KT 3000 +SHRA BKN009 BKN020CB BECMG 2310/2313 18010KT PROB30 TEMPO 2310/2312 6000 SHRA BKN012 TEMPO 2313/2324 6000 SHRA BKN014 PROB30 TEMPO 2313/2401 21015G28KT 3500 +SHRA TSGS BKN009 BKN020CB PROB30 TEMPO 2401/2406 BKN009", "TAF EGLL 222253Z 2300/2406 14008KT 9999 SCT045 TEMPO 2303/2311 6000 RA SHRA PROB40 TEMPO 2303/2311 2000 +SHRA BKN008 BKN030CB PROB30 TEMPO 2311/2315 6000 SHRA BKN010 TEMPO 2315/2402 6000 SHRA PROB40 TEMPO 2315/2401 2000 +SHRA BKN010 BKN030CB PROB30 TEMPO 2315/2318 18015G25KT TSGS BECMG 2321/2324 22011KT PROB30 TEMPO 2401/2406 BKN010", "TAF EGMC 222254Z 2300/2309 14008KT 9999 SCT045 PROB30 TEMPO 2303/2309 14015G25KT TEMPO 2307/2309 6000 SHRA BKN014 PROB30 TEMPO 2308/2309 3000 +SHRA BKN009 BKN020CB", "TAF EGMD 222254Z 2300/2309 14005KT 9999 SCT045 BECMG 2300/2303 14015KT TEMPO 2303/2309 14015G27KT TEMPO 2307/2309 6000 SHRA BKN014 PROB30 TEMPO 2308/2309 3000 +SHRA BKN009 BKN020CB", "TAF EGNJ 222300Z 2300/2309 17010KT 9999 FEW030 TEMPO 2300/2308 8000 BKN008 BECMG 2303/2306 10005KT PROB30 TEMPO 2304/2308 2000 BR BKN002 TEMPO 2308/2309 6000 SHRA RA BKN006 PROB30 TEMPO 2308/2309 12015G25KT 3000 +SHRA +TSRA BKN003 BKN015CB", "TAF EGNM 222300Z 2300/2324 14005KT 9999 SCT020 TEMPO 2300/2309 2000 BR RADZ BKN006 PROB30 TEMPO 2300/2309 0300 FG BKN001 TEMPO 2309/2315 6000 SHRA RA BKN006 PROB30 TEMPO 2309/2315 12015G25KT 3000 +SHRA +TSRA BKN003 BKN015CB BECMG 2315/2318 6000 BKN008 TEMPO 2318/2324 2000 BR RADZ BKN004 PROB30 TEMPO 2318/2324 0300 FG BKN001", "TAF EGNT 222300Z 2300/2324 16006KT 9999 SCT020 TEMPO 2300/2310 4000 BR RADZ BKN008 PROB30 TEMPO 2303/2310 0300 FG BKN001 TEMPO 2310/2316 6000 SHRA RA BKN006 PROB30 TEMPO 2310/2316 12015G25KT 3000 +SHRA +TSRA BKN003 BKN015CB BECMG 2316/2319 6000 BKN008 TEMPO 2319/2324 2000 BR RADZ BKN004 PROB30 TEMPO 2319/2324 0300 FG BKN001", "TAF EGNX 222301Z 2300/2324 17008KT 9999 SCT020 TEMPO 2300/2302 6000 SHRA BECMG 2301/2304 10010KT TEMPO 2302/2303 4000 BR BKN004 PROB30 2302/2303 0300 FG VV/// TEMPO 2303/2311 6000 SHRA BKN008 PROB30 TEMPO 2305/2312 3000 +RA +SHRA BKN004CB BECMG 2309/2312 16010KT TEMPO 2311/2324 6000 SHRA PROB40 TEMPO 2311/2315 BKN008 PROB30 TEMPO 2316/2318 3000 +SHRA BECMG 2318/2321 VRB03KT PROB30 2321/2324 4000 BR BKN004", "TAF EGPA 222257Z 2300/2309 08009KT 9999 SCT004 BKN012 TEMPO 2300/2309 2400 -DZ BR BKN003 PROB40 TEMPO 2300/2309 0300 FG OVC000 PROB40 TEMPO 2300/2303 DZ", "TAF EGPB 222257Z 2300/2309 08016KT 9999 SCT008 BKN012 TEMPO 2300/2309 4000 -DZ BR BKN006 PROB30 TEMPO 2300/2309 1400 DZ BKN002", "TAF EGPC 222257Z 2300/2309 09008KT 9999 SCT003 BKN012 TEMPO 2300/2309 2400 -DZ BR BKN003 PROB40 TEMPO 2300/2309 0300 FG OVC000 PROB30 TEMPO 2300/2303 DZ", "TAF EGPD 222255Z 2300/2324 17004KT 9999 FEW003 SCT030 PROB30 2300/2309 2000 BR BKN003 BECMG 2309/2312 OVC003 TEMPO 2309/2316 4000 BR BKN001 PROB40 TEMPO 2309/2324 0300 FG BECMG 2312/2315 11010KT TEMPO 2316/2324 4000 BR RA SHRA BKN001 PROB30 TEMPO 2316/2324 +SHRA", "TAF EGPE 222257Z 2300/2309 04003KT 9999 SCT004 BKN015 TEMPO 2300/2309 3000 -DZ BR BKN004 PROB40 TEMPO 2300/2309 0300 FG VV///", "TAF EGPF 222255Z 2300/2324 07006KT 9999 SCT025 TEMPO 2300/2306 6000 -RA PROB30 TEMPO 2300/2306 BKN010 PROB30 TEMPO 2306/2312 7000 BKN010 TEMPO 2312/2318 6000 RA SHRA BKN008 PROB30 TEMPO 2312/2316 07015G25KT 3000 +SHRA BKN004 PROB30 TEMPO 2318/2321 7000 -RA BKN006 TEMPO 2321/2324 6000 BKN006 PROB30 TEMPO 2321/2324 4000 BR BKN003", "TAF AMD EGPH 222324Z 2300/2324 06005KT 9999 FEW030 TEMPO 2300/2306 7000 -RA BKN014 PROB30 TEMPO 2300/2312 2400 BR BKN004 TEMPO 2306/2312 7000 TEMPO 2312/2316 6000 RA SHRA BKN010 PROB30 TEMPO 2312/2316 2400 +SHRA BR BKN006 PROB30 TEMPO 2316/2321 7000 -RA BKN006 TEMPO 2321/2324 4000 -DZ BR BKN004 PROB30 2321/2324 0300 FG OVC000", "TAF EGPK 222255Z 2300/2324 15007KT 9999 SCT030 TEMPO 2300/2305 6000 -RA BKN012 BECMG 2309/2312 09010KT TEMPO 2310/2318 6000 RA SHRA BKN014 PROB40 TEMPO 2310/2314 10015G25KT 3000 +SHRA BKN008", "TAF EGPO 222257Z 2300/2309 06014KT 9999 BKN005 BECMG 2300/2303 09004KT FEW005 BKN020 TEMPO 2300/2304 7000 -RADZ PROB40 TEMPO 2300/2303 4000 RADZ BR BKN001 TEMPO 2304/2307 6000 RA SHRA BKN014", "TAF EGQL 222243Z 2300/2309 11003KT 9999 FEW020 PROB30 TEMPO 2300/2306 4000 BR SHRA SCT014 BECMG 2307/2309 3000 BR BKN005", "TAF EGQS 222251Z 2300/2318 18003KT 9999 FEW003 SCT025 PROB40 2300/2305 4000 BR BKN003 PROB30 2300/2305 0700 FG OVC000 TEMPO 2315/2318 5000 RA BR BKN007 PROB40 TEMPO 2316/2318 3000 +RA BR SCT003 BKN005", "TAF EGSH 222254Z 2300/2309 16005KT 9999 FEW040 PROB30 TEMPO 2300/2301 7000 SHRA PROB30 TEMPO 2301/2309 8000 PROB30 TEMPO 2307/2309 11015G25KT", "TAF EGSS 222257Z 2300/2406 16008KT 9999 SCT020 PROB30 TEMPO 2300/2301 7000 SHRA BKN010 PROB30 TEMPO 2301/2306 13015G25KT BKN009 TEMPO 2306/2311 7000 RA SHRA BKN012 PROB30 TEMPO 2306/2311 3000 +RA +SHRA BKN006 PROB40 TEMPO 2311/2315 BKN009 TEMPO 2315/2405 6000 RA SHRA PROB40 TEMPO 2315/2320 19018G28KT 2500 +RA +SHRA TSGS BKN009 BKN020CB PROB30 TEMPO 2320/2403 3000 +SHRA BKN010 BKN030CB BECMG 2400/2403 26010KT", "TAF EGSY 222301Z 2300/2309 09010KT 9999 SCT025 TEMPO 2300/2307 6000 SHRA BKN008 PROB30 TEMPO 2303/2307 3000 +SHRA BKN004CB BECMG 2304/2307 18007KT", "TAF EGTE 222300Z 2300/2304 12012KT 9999 SCT020 TEMPO 2300/2304 6000 SHRA BKN008 PROB30 TEMPO 2301/2304 14015G28KT 3000 +SHRAGS BKN004CB", "TAF EGUN 222000Z 2220/2402 17008KT 9999 SCT060 BKN120 BKN250 QNH2984INS BECMG 2300/2301 15010KT 9000 -SHRA BR SCT030 OVC080 610808 QNH2982INS BECMG 2304/2305 14010KT 9999 NSW SCT030 BKN100 QNH2971INS BECMG 2307/2308 11010G20KT 8000 -SHRA SCT015 BKN030 640808 QNH2951INS TEMPO 2309/2314 14015G25KT 6000 VCTS BKN015 BKN025CB BECMG 2314/2315 15010G20KT 9999 VCSH SCT020 BKN040 QNH2949INS TEMPO 2317/2320 13012G22KT VCTS BKN015 BKN030CB BECMG 2322/2323 18015G25KT 8000 -SHRA SCT015 OVC030 510006 QNH2937INS BECMG 2401/2402 17012KT 9999 NSW OVC030 QNH2935INS TX17/2313Z TN12/2302Z", "TAF EGVN 222246Z 2300/2324 12010KT 9999 FEW015 PROB40 TEMPO 2300/2304 SCT006 PROB30 TEMPO 2300/2304 SCT004 TEMPO 2303/2310 4000 RA BKN007 PROB40 TEMPO 2304/2308 2500 +RA SCT005 BKN045CB PROB40 TEMPO 2310/2316 7000 SHRA SCT014 TEMPO 2316/2324 5000 RA SCT007 BKN030CB PROB30 TEMPO 2316/2321 3000 +RA BKN006", "TAF EGWU 221650Z 2218/2312 16005KT 9999 SCT025 TEMPO 2302/2309 7000 SHRA PROB30 TEMPO 2302/2310 3500 +SHRA SCT012 BKN030CB", "TAF EGXC 222224Z 2300/2318 16006KT 9999 SCT040 PROB30 TEMPO 2303/2307 3000 BR SCT003 TEMPO 2307/2311 7000 RA PROB30 TEMPO 2307/2311 3000 +RA SCT004 BKN022CB BECMG 2311/2314 BKN010 PROB30 TEMPO 2315/2318 3000 -DZ SCT004 BKN006", "TAF EGXW 221356Z 2215/2309 20014KT 9999 FEW035 TEMPO 2222/2307 BKN008 PROB30 TEMPO 2304/2307 5000 -RADZ BKN005 PROB40 TEMPO 2307/2309 2500 +RA BKN003", "TAF EGYP 222229Z 2300/2318 33008KT CAVOK BECMG 2304/2307 35015G25KT 520003 PROB40 TEMPO 2304/2308 530003 PROB30 TEMPO 2306/2318 VRB07KT 560003 PROB30 TEMPO 2306/2313 SCT007 PROB40 TEMPO 2308/2315 34025G35KT 530003", "TAF EHAM 222321Z 2300/2406 12007KT CAVOK PROB30 TEMPO 2302/2307 4000 BR BECMG 2312/2315 15012KT BECMG 2316/2319 17012KT PROB30 TEMPO 2319/2323 19017G27KT 3500 SHRA TSRA BKN035 SCT040CB BECMG 2403/2406 20020G30KT PROB30 TEMPO 2404/2406 6000 -SHRA SCT025TCU BKN030", "TAF EHBK 222321Z 2300/2406 15006KT CAVOK BECMG 2312/2315 18013KT PROB40 TEMPO 2315/2322 19015G25KT 7000 -SHRA FEW060CB PROB30 TEMPO 2318/2322 19020G30KT 3000 TSRA SCT030CB BECMG 2402/2405 21017G27KT", "TAF EHEH 221716Z 2218/2324 13005KT 9999 SCT022 BECMG 2312/2314 16010KT TEMPO 2313/2322 20015G30KT 4000 SHRA SCT012 SCT035 SCT060CB PROB30 TEMPO 2313/2322 20020G35KT 3000 TSRA SCT010 BKN030 SCT050CB", "TAF EHGG 222322Z 2300/2406 15004KT 4000 BR MIFG NSC TEMPO 2300/2307 0600 BCFG PROB30 2302/2308 0400 FG VV001 BECMG 2307/2310 13010KT BECMG 2316/2319 16010KT PROB30 TEMPO 2318/2324 6000 SHRA FEW040CB BECMG 2320/2323 19012KT PROB40 TEMPO 2322/2401 19020G30KT 4000 SHRA TSRA SCT040CB", "TAF EHKD 221215Z 2213/2301 24012KT 9999 BKN025 BECMG 2217/2219 19005KT", "TAF EHLE 222321Z 2300/2406 12007KT CAVOK PROB30 2300/2307 2000 BR BECMG 2312/2315 15010KT BECMG 2316/2319 17012KT PROB30 TEMPO 2319/2323 19020G33KT 3500 SHRA TSRA BKN035 SCT040CB BECMG 2403/2406 20015G25KT PROB30 TEMPO 2404/2406 6000 -SHRA SCT025TCU BKN030", "TAF EHLW 222015Z 2221/2309 18005KT CAVOK PROB40 2223/2304 VRB03KT 2500 BR MIFG", "TAF EHRD 222321Z 2300/2406 12007KT CAVOK PROB30 TEMPO 2301/2307 4000 BR BECMG 2312/2315 15012KT BECMG 2316/2319 17012KT PROB30 TEMPO 2319/2323 19017G27KT 3500 SHRA TSRA BKN035 SCT040CB BECMG 2402/2405 20020G33KT PROB30 TEMPO 2403/2406 6000 -SHRA SCT025TCU BKN030", "TAF EHVK 222015Z 2221/2309 15004KT CAVOK", "TAF EICK 222300Z 2300/2324 13009KT 9000 BKN015 TEMPO 2300/2306 16010KT 2000 RA BKN006 PROB40 TEMPO 2300/2306 0800 +RA FG BKN001 PROB40 TEMPO 2306/2310 4000 SHRA BKN008 PROB40 TEMPO 2310/2316 3000 SHRA BKN006 FEW020CB BECMG 2316/2318 23010KT TEMPO 2316/2324 3000 BR BKN005", "TAF EIDL 221700Z 2218/2303 VRB03KT 9999 BKN015 TEMPO 2218/2220 4000 RA BKN009 FEW020CB TEMPO 2220/2303 3000 BR BKN004", "TAF EIDW 222300Z 2300/2324 17008KT 9999 SCT020 BKN030 TEMPO 2300/2310 2500 RA BKN005 SCT020CB PROB40 TEMPO 2302/2308 14015G25KT 1200 +RA BR BKN002 TEMPO 2311/2315 VRB03KT BECMG 2318/2320 22008KT", "TAF EIKN 222300Z 2300/2324 15009KT 6000 -RA BKN015 TEMPO 2300/2312 3000 RA BKN004 PROB40 TEMPO 2300/2307 0800 FG BKN001 PROB40 TEMPO 2307/2311 2000 +RA FEW018CB TEMPO 2314/2317 4000 SHRA BKN008 BECMG 2319/2321 2000 BR BKN004", "TAF EIKY 221700Z 2218/2303 VRB03KT 9999 SCT030 BKN040 PROB40 TEMPO 2218/2221 4500 -RA BKN010 SCT020CB TEMPO 2221/2303 2000 +RA BKN005", "TAF EIME 222300Z 2300/2309 18008KT 9999 SCT030 TEMPO 2300/2309 4000 RA BKN009 SCT020CB PROB40 TEMPO 2300/2303 2500 +RA BKN004 PROB40 TEMPO 2307/2309 2500 +RA BKN004", "TAF EINN 222300Z 2300/2324 12009KT 9999 FEW020 BKN030 TEMPO 2300/2308 4000 -RA BKN007 SCT020CB PROB40 TEMPO 2300/2307 2000 RA BKN004 PROB30 TEMPO 2312/2318 4000 SHRA FEW018CB PROB40 TEMPO 2318/2324 3000 BR BKN004", "TAF EISG 222300Z 2300/2309 VRB03KT 9999 BKN015 TEMPO 2300/2309 3000 RADZ BR BKN004", "TAF EIWF 222300Z 2300/2309 20009KT 9999 -RA SCT008 TEMPO 2300/2306 12015G25KT 1500 RA BKN004 SCT018CB PROB30 TEMPO 2303/2306 0500 FG BKN001", "TAF EKAH 222304Z 2300/2324 21005KT 8000 BKN020 TEMPO 2300/2307 4000 BR BKN008 BECMG 2320/2322 12010KT", "TAF EKBI 222304Z 2300/2324 22008KT 9999 FEW007 BKN030 PROB40 2306/2311 1200 BCFG BKN002 BECMG 2317/2319 11012KT BECMG 2323/2324 2500 RA BKN003 SCT035CB", "TAF EKCH 222304Z 2300/2324 23005KT 0500 FG BKN002 BECMG 2300/2302 8000 NSW BKN015 TEMPO 2302/2308 4000 BR BKN008", "TAF EKKA 222303Z 2300/2324 22006KT 9999 FEW008 BKN020 TEMPO 2300/2306 4000 BR BKN006 PROB40 2306/2312 1200 BCFG BKN002 BECMG 2313/2316 09006KT", "TAF EKRK 222321Z 2300/2309 22006KT 1500 -RADZ BR BKN002 BECMG 2300/2302 8000 NSW BKN020 TEMPO 2302/2308 2000 BR BKN004", "TAF EKRN 222303Z 2300/2309 26008KT 0150 FG VV002 TEMPO 2300/2302 1500 SHRA BKN008 BKN030CB FM230200 24006KT 9999 FEW008 BKN015 TEMPO 2302/2309 3000 BR BKN006", "TAF EKSP 222303Z 2300/2324 21008KT 9999 SCT006 BKN020 TEMPO 2300/2305 4000 BR BKN005 PROB40 2305/2312 0800 BCFG BKN002 BECMG 2312/2315 11010KT", "TAF EKYT 222303Z 2300/2324 23006KT 3000 BR BKN004 TEMPO 2300/2309 8000 NSW SCT008 BKN020 BECMG 2309/2311 9999 NSW BKN020 BECMG 2314/2317 12006KT", "TAF ELLX 222300Z 2300/2406 12003KT CAVOK TEMPO 2303/2308 3000 BR BECMG 2310/2312 18010KT TEMPO 2317/2322 18015G25KT SHRA BKN030CB PROB30 2317/2322 18020G35KT 2500 TSRA BKN025CB", "TAF ENAN 221700Z 2218/2318 26032G45KT 9999 -SHRA FEW012 BKN025 TEMPO 2218/2318 2500 SHRASNGS BKN009 SCT014CB PROB40 TEMPO 2218/2224 30032G55KT", "TAF ENBN 222000Z 2221/2306 33012KT 9999 -SHRA FEW015 BKN030", "TAF ENBO 221700Z 2218/2318 30020KT 9999 -SHRA SCT012 BKN030 TEMPO 2218/2309 29025G35KT TEMPO 2221/2309 4000 SHRASNGS BKN012 SCT020CB BECMG 2309/2312 36012KT", "TAF ENBR 221700Z 2218/2318 03005KT 9999 FEW010 BKN030 PROB40 TEMPO 2305/2311 SHRA BKN012 SCT025CB TEMPO 2311/2318 4000 SHRA BR BKN008 SCT020CB BECMG 2311/2313 17010KT PROB30 TEMPO 2312/2316 0700 FG VV003", "TAF ENDU 221700Z 2218/2318 25009KT 9999 -SHRASN FEW015 BKN030 TEMPO 2218/2318 SCT030CB TEMPO 2218/2312 28020G35KT 2500 -SHSNRA VV012 BECMG 2220/2222 31015KT BECMG 2312/2315 27005KT", "TAF ENEV 221700Z 2218/2318 27009KT 9999 -SHRA FEW015 BKN030 TEMPO 2218/2222 2500 -SHSNRAGS VV012 TEMPO 2218/2312 SCT030CB PROB40 TEMPO 2218/2312 24015G25KT TEMPO 2222/2312 4000 -SHSNRA", "TAF ENFL 222300Z 2300/2309 07008KT 9999 FEW040 BKN070", "TAF ENGC 222000Z 2221/2321 08012KT 9999 FEW010 BKN030 BECMG 2223/2301 06023KT PROB40 TEMPO 2221/2302 BKN010", "TAF ENGM 221700Z 2218/2318 02005KT 9999 FEW010 SCT020 BECMG 2220/2222 0600 FZFG VV002 BECMG 2306/2309 2000 BR DZ OVC004", "TAF ENHE 222000Z 2221/2306 34017KT 9999 FEW015 BKN030 PROB30 TEMPO 2221/2224 SHRA BKN014TCU", "TAF ENKR 222300Z 2300/2309 27015KT 9999 SCT045 TEMPO 2305/2309 -SHRASN BKN008 FEW020CB", "TAF ENLE 222000Z 2221/2306 21015KT 9999 SCT020", "TAF AMD ENNA 221951Z 2219/2318 19012KT 9999 -SHRASN FEW030 BKN050 PROB40 TEMPO 2219/2318 SCT040CB TEMPO 2219/2222 24018G28KT TEMPO 2222/2306 30030G45KT PROB40 TEMPO 2306/2318 32020G35KT 4000 -SHSNRA VV014", "TAF ENOA 222000Z 2221/2321 07018KT 9999 SCT018 BKN040 PROB40 TEMPO 2306/2312 SHRA SCT015 BKN030CB PROB40 TEMPO 2315/2318 BKN012 TEMPO 2318/2321 BKN008", "TAF ENOL 221700Z 2218/2318 30009KT 9999 -SHRA FEW012 BKN025 PROB40 TEMPO 2218/2310 SHRA BKN014 SCT020TCU BECMG 2308/2310 09010KT", "TAF ENRY 221700Z 2218/2318 03003KT 9999 FEW010 BECMG 2218/2220 0500 FG VV001 TEMPO 2302/2310 2000 -RADZ SHRA BR OVC003 SCT040TCU", "TAF ENSB 221700Z 2218/2318 12008KT 9999 FEW020 SCT050", "TAF AMD ENTC 221938Z 2219/2318 28025KT 9999 -SHRA FEW010 BKN020 TEMPO 2219/2303 28035G50KT 4000 SHRASNGS BKN008 TEMPO 2219/2318 SCT020CB TEMPO 2303/2318 30028G40KT 2000 SHSNRAGS VV009 PROB30 TEMPO 2219/2309 TS", "TAF ENTO 221700Z 2218/2318 VRB05KT 9999 FEW010 PROB30 2220/2302 0800 FG VV002 BECMG 2302/2304 36010KT BKN008 TEMPO 2302/2312 1200 -RADZ SHRA BR OVC002 SCT040TCU", "TAF AMD ENVA 221824Z 2218/2318 VRB05KT 9999 -RA FEW015 BKN025 TEMPO 2218/2222 26010KT TEMPO 2219/2224 SHRA BKN010 SCT020TCU PROB40 TEMPO 2300/2309 4000 RADZ BR BKN008 BECMG 2315/2318 09010KT", "TAF ENZV 221700Z 2218/2318 VRB03KT 9999 FEW010 BKN020 TEMPO 2218/2224 4000 SHRA BKN012 SCT025CB BECMG 2300/2303 17012KT TEMPO 2300/2306 2500 -RADZ BR BKN004 PROB40 TEMPO 2306/2310 3500 BR BKN006 PROB40 TEMPO 2310/2314 BKN012", "TAF EPBY 222330Z 2300/2324 26006KT 5000 BR SCT006 BKN012 BECMG 2300/2303 2500 BR BKN004 PROB40 2301/2307 0800 FG OVC002 BECMG 2307/2310 6000 SCT007 BKN012 BECMG 2310/2312 9999 BKN025", "TAF EPCE 222300Z 2300/2309 26006KT 3000 BR SCT005 BKN010 TEMPO 2300/2309 1500 BR BKN003 PROB30 2300/2309 0300 FG BKN002", "TAF EPDA 222300Z 2300/2309 25006KT 3000 BR BKN010 TEMPO 2300/2309 1500 DZ BR BKN005 PROB30 TEMPO 2300/2309 0500 FG BKN002", "TAF EPDE 222300Z 2300/2309 25008KT 4000 RA BR BKN006 OVC012 BECMG 2301/2303 29006KT 0700 FG OVC003", "TAF EPGD 222330Z 2300/2324 26011KT 7000 BKN008 BKN012 PROB40 2300/2307 2000 BR BKN003 BKN005 PROB30 2302/2306 0200 FG OVC001 PROB40 TEMPO 2307/2314 3000 SHRA BR SCT008 BKN012CB BECMG 2312/2314 9999 SCT025 TEMPO 2314/2324 2000 BR", "TAF EPKK 222330Z 2300/2324 23006KT 7000 OVC007 TEMPO 2300/2307 3000 BR OVC004 PROB40 TEMPO 2301/2307 0700 FG BECMG 2307/2309 BKN020 BECMG 2316/2318 3000 BR", "TAF EPKS 222000Z 2221/2306 25006KT 6000 BKN020 TEMPO 2222/2306 2000 MIFG BR BKN006 PROB30 2300/2305 0800 FG BKN005", "TAF EPKT 222330Z 2300/2324 24006KT 7000 OVC007 TEMPO 2300/2308 1200 BR OVC003 BECMG 2309/2312 BKN016 BECMG 2316/2318 3000 BR", "TAF EPLB 222330Z 2300/2324 26007KT 7000 BKN005 BKN008 TEMPO 2300/2307 3000 -RADZ BR BKN003 PROB40 TEMPO 2300/2307 1200 RADZ BR BKN001 PROB30 2302/2306 0800 DZ FG BECMG 2308/2310 SCT030 PROB40 TEMPO 2320/2324 4000 BR", "TAF EPLK 222300Z 2300/2309 26008KT 5000 BR SCT007 BKN025 TEMPO 2300/2308 2000 BR BKN004 PROB30 2300/2307 0600 FG OVC002", "TAF EPLL 222330Z 2300/2324 26007KT 3000 BR BKN003 BKN005 TEMPO 2300/2308 1400 BR PROB30 TEMPO 2300/2307 0800 DZ FG BKN001 BECMG 2310/2313 SCT025 PROB40 TEMPO 2321/2324 3000 BR", "TAF EPMI 222300Z 2300/2309 VRB03KT 2000 BR BKN003 PROB30 2301/2309 0500 FG OVC002", "TAF EPMM 222300Z 2300/2309 25005KT 3000 BR BKN005 OVC010 TEMPO 2300/2306 1500 -RADZ BR BKN003 PROB30 2302/2306 0500 DZ FG OVC002", "TAF EPOK 222300Z 2300/2309 28008KT 5000 BR OVC010 PROB30 2303/2309 2000 DZRA BR OVC005", "TAF EPPO 222330Z 2300/2324 25004KT 0100 FG OVC001 TEMPO 2300/2307 1100 BR BKN002 BECMG 2307/2310 4000 BR OVC007 BECMG 2310/2312 8000 SCT015 BECMG 2318/2321 4000 BR BKN009", "TAF EPPW 222300Z 2300/2309 26006KT 4000 BR BKN005 PROB30 2300/2307 0400 FG BKN003 BECMG 2307/2309 8000 BKN015", "TAF EPRZ 222330Z 2300/2324 26012KT 6000 OVC007 TEMPO 2300/2308 3000 BR OVC003 BECMG 2308/2310 20010KT BKN020", "TAF EPSN 222300Z 2300/2309 25004KT 0500 FG OVC001 TEMPO 2300/2309 1200 BR OVC003", "TAF EPSY 222330Z 2300/2309 27005KT 5000 BR OVC004 PROB40 TEMPO 2300/2305 2700 -RADZ BR PROB30 TEMPO 2300/2305 1400 DZ BR OVC001", "TAF EPTM 222000Z 2221/2306 27006KT 5000 BR BKN005 OVC010", "TAF EPWA 222330Z 2300/2324 27008KT 8000 SCT030 TEMPO 2300/2307 4000 -DZ BR BKN003 BKN005 PROB30 TEMPO 2300/2303 1200 RADZ BR BKN001", "TAF EPWR 222330Z 2300/2324 23005KT 9999 FEW040 TEMPO 2300/2307 3000 BR PROB40 2300/2306 1300 BR BKN006 BECMG 2317/2320 16010KT", "TAF EPZG 222030Z 2221/2306 25004KT 0050 FG VV001 TEMPO 2221/2306 0800 FG OVC002", "TAF ESGG 222330Z 2300/2324 19005KT 6000 SCT003 OVC005 PROB40 2300/2302 2000 BR BKN003 TEMPO 2302/2307 1200 SHRA BR BKN004 BKN015CB PROB40 2307/2317 BKN005 BECMG 2317/2319 SCT008 BKN015", "TAF ESKN 222330Z 2300/2324 30008KT 9999 SCT006 OVC015 TEMPO 2300/2306 3500 BR BKN004 PROB40 2306/2308 BKN008", "TAF ESMS 222304Z 2300/2324 22005KT 0150 FG VV002 TEMPO 2300/2303 3000 SHRA BR BKN006 SCT020CB BECMG 2303/2305 8000 NSW BKN020 TEMPO 2305/2308 3000 BR BKN006", "TAF ESNU 222330Z 2300/2309 31006KT CAVOK", "TAF ESSA 222330Z 2300/2324 27007KT 9999 OVC005 TEMPO 2300/2308 0200 FG VV001 BECMG 2309/2311 NSC", "TAF ETAD 222000Z 2220/2402 VRB04KT 9999 SCT250 QNH2996INS BECMG 2300/2301 VRB04KT 8000 BR FEW030 SCT180 QNH2987INS BECMG 2307/2308 16008KT 9999 NSW SCT030 BKN100 QNH2982INS BECMG 2311/2312 18010G15KT 9999 BKN030 QNH2975INS BECMG 2316/2317 18010G20KT 9000 -SHRA BKN025 QNH2974INS BECMG 2319/2320 21010G18KT 9999 NSW BKN040 QNH2974INS TX19/2314Z TN09/2305Z", "TAF AMD ETAR 222234Z 2222/2324 15006KT 5000 BR SCT010 QNH2997INS TEMPO 2222/2302 0800 BCFG BECMG 2305/2306 20012KT 9999 NSW SCT050 BKN060 510006 QNH2984INS BECMG 2318/2319 20015G25KT 8000 -SHRA BKN020 QNH2983INS BECMG 2320/2321 19012KT 9999 NSW SCT020 BKN060 QNH2987INS TX21/2314Z TN10/2306Z", "TAF AMD ETIC 212030Z 2120/2224 VRB05KT 5000 BR BKN100 QNH2988INS BECMG 2202/2203 VRB03KT 8000 -SHRA BKN010 QNH2988INS BECMG 2208/2209 VRB05KT 8000 -SHRA BKN020 QNH2997INS BECMG 2217/2218 VRB05KT 9999 NSW BKN030 QNH3006INS BECMG 2221/2222 VRB03KT 6000 BR FEW050 QNH3009INS TX16/2214Z TN11/2218Z LAST NO AMDS AFT 2120 NEXT 2402", "TAF ETIK 212100Z 2121/2303 VRB06KT 9999 BKN100 QNH2990INS BECMG 2202/2203 27006KT 8000 -RA BKN030 OVC100 QNH2991INS BECMG 2211/2212 25009KT 9999 NSW SCT020 BKN040 QNH2998INS BECMG 2214/2215 VRB06KT 9999 SCT050 QNH3003INS BECMG 2221/2222 VRB06KT 9999 SKC QNH3005INS TX18/2213Z TN12/2206Z LAST NO AMDS AFT 2121 NEXT 2406", "TAF ETNL 222206Z 2223/2311 24005KT 9999 NSW BKN050 BKN250 TEMPO 2223/2302 23003KT 4000 BR BKN015 BKN040 TEMPO 2302/2308 20002KT 0500 FG BKN003 BKN250 BY ETGL", "TAF ETNW 222215Z 2223/2323 18003KT 9999 NSW FEW060 BKN050 BECMG 2223/2224 15004KT 9999 NSW BKN200 TEMPO 2300/2308 VRB02KT 3000 BR FEW010 BKN250 PROB30 2302/2307 VRB01KT 0800 FG FEW200 BECMG 2314/2316 16010KT 8000 -RA BKN050 BKN150 TEMPO 2317/2323 17010G20KT 4000 SHRA SCT012 BKN022CB PROB30 2317/2323 VRB20G35KT 2000 TSRA BKN010 BKN020CB BY ETGL", "TAF AMD ETOU 221230Z 2212/2318 23009KT 9999 SCT030 BKN090 QNH2999INS BECMG 2300/2301 VRB06KT 8000 BR BKN025 QNH2991INS TEMPO 2305/2309 4000 BR BECMG 2310/2311 15006KT 9999 NSW SCT012 BKN060 QNH2983INS TX23/2214Z TN10/2306Z LAST NO AMDS AFT 2212 NEXT 2304", "TAF COR ETSN 222229Z 2223/2308 16003KT 3000 MIFG BKN200 TEMPO 2223/2306 12005KT 0500 FG BKN200 BKN220 BECMG 2306/2308 08005KT 4000 BR SCT005 BKN220 BY ETGL", "TAF EVLA 222304Z 2300/2324 23007KT 9000 BKN005 TEMPO 2300/2303 0700 FG BKN001 BECMG 2303/2305 29010KT BKN020 TEMPO 2305/2309 BKN008 BECMG 2316/2318 12005KT", "TAF EVRA 222300Z 2300/2324 17005KT 9999 BKN020 TEMPO 2300/2303 3000 -RA BR BKN007 BKN012 TEMPO 2303/2307 0700 FG BKN001 TEMPO 2307/2312 3000 BR BKN005", "TAF EYKA 222300Z 2300/2324 VRB04KT 3000 BR OVC002 TEMPO 2300/2302 5000 OVC005 TEMPO 2302/2308 0300 FG BECMG 2308/2309 29014KT 9000 NSW OVC005 BECMG 2309/2310 OVC016 BECMG 2315/2316 VRB04KT TEMPO 2321/2324 3000 BR BKN005", "TAF EYPA 222300Z 2300/2324 29010KT 5000 BR OVC005 BECMG 2304/2306 9000 NSW OVC015 BECMG 2313/2314 OVC010 TEMPO 2317/2324 3000 DZ BR OVC005", "TAF EYSA 222300Z 2300/2309 VRB05KT 5000 BR OVC005 TEMPO 2300/2302 3000 RA TEMPO 2302/2306 0500 DZ FG OVC002 BECMG 2307/2309 9000 NSW BKN010 OVC015", "TAF EYVI 222300Z 2300/2324 VRB04KT 0200 FG OVC001 TEMPO 2300/2308 0800 DZ BECMG 2308/2310 29014KT 9000 NSW OVC005 BECMG 2311/2313 OVC016 BECMG 2315/2317 VRB04KT TEMPO 2321/2324 3000 BR BKN005", "TAF AMD FABL 222315Z 2300/2324 05012KT 9999 SCT035 TX27/2312Z TN14/2304Z PROB40 TEMPO 2300/2302 -TSRA FEW035CB PROB30 TEMPO 2300/2305 -SHRA BKN010 BKN080 PROB30 TEMPO 2308/2318 -TSRA FEW035CB PROB30 TEMPO 2318/2324 5000 TSRA BKN010 SCT035CB BECMG 2322/2324 11010KT", "TAF FACT 222200Z 2300/2406 20010KT CAVOK TX24/2313Z TN13/2304Z BECMG 2308/2310 18020KT PROB30 TEMPO 2310/2318 18025G35KT FM232200 16010KT CAVOK", "TAF FAGG 222200Z 2300/2324 VRB03KT 9999 SCT008 TX23/2312Z TN15/2304Z PROB40 TEMPO 2300/2305 BKN005 PROB30 TEMPO 2300/2304 1500 BR BKN002 FM230700 16008KT 9999 SCT015 BECMG 2314/2316 BKN005 ", "TAF FALA 222200Z 2300/2324 VRB03KT CAVOK TX28/2312Z TN14/2303Z PROB30 TEMPO 2302/2307 BKN012 BECMG 2305/2307 03010KT FM231000 VRB03KT 9999 BKN040 PROB40 TEMPO 2310/2322 18015G27KT -TSRA FEW045CB PROB30 TEMPO 2322/2324 -SHRA FEW040TCU", "TAF FALE 222200Z 2300/2406 VRB03KT 9999 SCT025 BKN040 TX24/2312Z TN16/2304Z FM230900 08010KT 9999 SCT030 PROB30 TEMPO 2315/2324 5000 RA BKN012 BECMG 2317/2319 VRB03KT", "TAF FAOR 222200Z 2300/2406 06010KT CAVOK TX26/2312Z TN13/2303Z TEMPO 2300/2307 BKN007 BECMG 2304/2306 35010KT FM231000 VRB03KT 9999 SCT035 PROB40 TEMPO 2310/2322 27014G25KT -TSRA FEW035CB PROB30 TEMPO 2322/2405 -SHRA BKN010 FEW040TCU BECMG 2402/2404 16010KT", "TAF FAPE 222200Z 2300/2324 07012KT 9999 SCT025 TX23/2312Z TN17/2303Z BECMG 2300/2302 CAVOK", "TAF FAPM 221800Z 2219/2306 VRB03KT 9999 BKN020 BKN035 TX15/2219Z TN12/2304Z TEMPO 2221/2303 3000 BR BKN010", "TAF AMD FAUP 222315Z 2300/2324 VRB03KT CAVOK TX36/2313Z TN20/2304Z PROB40 TEMPO 2300/2302 -TSRA FEW030CB PROB30 TEMPO 2300/2303 -SHRA FEW060TCU BECMG 2309/2311 28010KT", "FBKE 221200Z 2215/2224 10008KT CAVOK", "FBMN 222200Z 2300/2324 08006KT CAVOK BECMG 2313/2315 SCT025 FEW035CB", "FBPM 222200Z 2300/2324 07012KT CAVOK BECMG 2315/2317 FEW035CB", "FBSK 222200Z 2300/2406 04008KT CAVOK BECMG 2312/2314 SCT025 PROB30 TE MPO 2315/2324 TSRA FEW035CB", "TAF FCBB 222300Z 2300/2406 26004KT 9000 FEW020 PROB30 TEMPO 2303/2306 -TSRA BKN020 FEW030CB PROB40 TEMPO 2400/2403 4000 TSRA BKN013 FEW030CB", "TAF FCPP 222300Z 2300/2324 20007KT 9000 FEW010 BKN023 FEW030CB BECMG 2304/2306 SCT010 BKN023 BECMG 2309/2311 SCT016 FEW030CB BECMG 2315/2317 FEW015 BKN023", "TAF FEFF 221100Z 2212/2318 24005KT 9999 BKN023 FEW040CB PROB30 TEMPO 2213/2217 VRB15KT 4000 TSRA BECMG 2218/2219 BKN010 FEW033CB FM222000 VRB03KT 8000 FEW010 BECMG 2303/2305 4000 BR BKN006 FM230730 VRB03KT 9999 NSW FEW010", "TAF FGBT 222300Z 2300/2324 24005KT 9999 SCT010 TEMPO 2305/2309 TS BKN008 FEW018CB PROB40 TEMPO 2314/2320 4000 TSRA BKN010 FEW018CB", "TAF FGSL 222300Z 2300/2406 25010KT 9999 SCT010 TEMPO 2300/2305 2000 +TSRA BKN008 SCT018CB PROB40 TEMPO 2311/2316 4000 TSRA BKN010 FEW018CB", "TAF FIMP 222300Z 2300/2406 07007KT 9999 SCT017 TEMPO 2306/2312 7000 -SHRA BKN016", "TAF FIMR 222300Z 2300/2318 09015G25KT 9999 BKN017", "TAF AMD FJDG 222145Z 2221/2323 13012G18KT 9999 FEW025 SCT250 QNH2987INS TX33/2314Z TN25/2222Z FOR MIL USE ONLY", "TAF FKKD 222300Z 2300/2406 VRB04KT 9999 BKN013 FEW016CB PROB30 TEMPO 2304/2307 TS BECMG 2306/2308 BKN016 FEW023CB TEMPO 2314/2318 TS BECMG 2318/2320 BKN013 FEW016CB", "TAF FKYS 222300Z 2300/2324 VRB03KT 9999 BKN006 BECMG 2308/2310 BKN016 TEMPO 2314/2318 4000 TSRA BKN016 FEW023CB BECMG 2320/2322 BKN006", "TAF FLCP 221600Z 2218/2324 07010G20KT CAVOK BECMG 2305/2307 06010G15KT 9000 HZ NSC BECMG 2307/2309 08005KT SCT030 BECMG 2312/2314 NSC", "TAF FLHN 221600Z 2218/2324 09010KT CAVOK BECMG 2306/2308 05010G15KT 9000 HZ NSC BECMG 2307/2309 06005KT BECMG 2312/2314 VRB03KT NSC", "TAF FLKK 221600Z 2218/2324 12010KT CAVOK BECMG 2304/2306 08010G15KT 9000 HZ NSC BECMG 2307/2309 07010KT SCT030 BECMG 2312/2314 09005KT NSC", "TAF FLKS 221600Z 2218/2324 13010KT CAVOK BECMG 2304/2306 07005KT 9000 HZ NSC BECMG 2307/2309 VRB03KT SCT035 BECMG 2312/2314 NSC", "TAF FLMA 221600Z 2218/2324 13005KT CAVOK BECMG 2304/2306 09010KT 9000 HZ NSC BECMG 2307/2309 06005KT SCT035 BECMG 2312/2314 00000KT BKN048TCU", "TAF FLMF 221600Z 2218/2324 07010G20KT CAVOK BECMG 2305/2307 06010G15KT 9000 HZ NSC BECMG 2307/2309 08005KT SCT030 BECMG 2312/2314 NSC", "TAF FLSK 221600Z 2218/2324 13010G15KT CAVOK BECMG 2304/2306 09010KT 8000 FU NSC BECMG 2307/2309 09005KT SCT025 BECMG 2312/2314 VRB03KT NSC", "TAF FLSW 221600Z 2218/2324 13010G15KT CAVOK BECMG 2304/2306 12010KT 7000 FU NSC BECMG 2307/2309 07005KT SCT030 BECMG 2312/2314 VRB03KT NSC", "TAF FMCH 221100Z 2212/2318 11016KT 9999 FEW020 BECMG 2215/2217 11003KT BECMG 2305/2307 24012KT", "TAF FMCZ 221700Z 2218/2318 18007KT 9999 FEW030 PROB30 TEMPO 2222/2301 4500 SHRA", "TAF FMEE 221700Z 2218/2324 14010KT 9999 FEW030 BKN080 TEMPO 2222/2306 4000 SHRA SCT020TCU FM230700 06010KT 9999 FEW026 SCT046 BECMG 2316/2318 12010KT", "TAF FMMI 222300Z 2300/2406 VRB05KT 9999 FEW017 SCT020 PROB30 2301/2305 2000 BR BECMG 2308/2310 BKN020CB PROB30 TEMPO 2312/2319 VRB15KT 4000 TSRA BECMG 2318/2321 FEW017 SCT020", "TAF FMMS 222300Z 2300/2324 34005KT 9999 SCT017 SCT040 PROB30 TEMPO 2300/2310 4000 SHRA BECMG 2306/2309 06012KT", "TAF FMMT 222300Z 2300/2324 30005KT 9999 SCT017 BECMG 2306/2308 08012KT BECMG 2317/2319 34007KT", "TAF FMNA 222300Z 2300/2324 14013KT 9999 SCT020", "TAF FMNM 222300Z 2300/2324 10005KT 9999 SCT023 BECMG 2308/2310 32013KT BECMG 2319/2322 VRB03KT", "TAF FMNN 222300Z 2300/2324 VRB02KT 9999 SCT020 BECMG 2310/2312 26012KT BECMG 2317/2319 VRB02KT", "TAF FMSD 222300Z 2300/2324 06007KT 9999 FEW033 BECMG 2306/2308 08017KT BECMG 2318/2320 VRB04KT", "TAF FMST 222300Z 2300/2324 VRB02KT 9999 FEW023 SCT040 BECMG 2308/2310 26012KT BECMG 2317/2319 VRB02KT", "TAF FNBG 222300Z 2300/2312 23005KT 9999 SCT018 TEMPO 2309/2312 29010KT", "TAF FNCA 222300Z 2300/2312 18006KT 8000 SCT015 BKN020 PROB40 TEMPO 2307/2312 4000 -TSRA FEW022CB", "TAF FNCT 222300Z 2300/2312 29006KT 9999 BKN016", "TAF FNDU 222300Z 2300/2312 VRB03KT 8000 SCT016 FEW022CB", "TAF FNGI 222300Z 2300/2312 28005KT CAVOK", "TAF FNHU 222300Z 2300/2312 VRB03KT 9999 SCT015 PROB40 TEMPO 2309/2312 6000 TSRA BKN012 FEW018CB", "TAF FNKU 222300Z 2300/2312 12006KT 9999 SCT014 PROB30 TEMPO 2305/2309 7000 DZ", "TAF FNLU 2300/2406 16006KT 8000 BKN020 TEMPO 2306/2310 SCT018 BKN040 BECMG 2313/2317 22012KT", "TAF FNMA 222300Z 2300/2312 VRB03KT 8000 SCT012 TEMPO 2303/2307 3000 FG PROB40 TEMPO 2309/2312 5000 TSRA FEW018CB", "TAF FNME 222300Z 2300/2312 33005KT 9999 SCT018", "TAF FNMO 222300Z 2300/2312 29006KT 9999 BKN016", "TAF FNSA 222300Z 2300/2312 36005KT 9000 SCT020 FEW022CB PROB30 TEMPO 2309/2312 4000 TSRA", "TAF FNSO 222300Z 2300/2312 20006KT 8000 BKN012 PROB40 TEMPO 2307/2312 6000 DZ FEW020CB", "TAF FNUB 222300Z 2300/2312 VRB03KT 9999 FEW020 PROB30 TEMPO 2309/2312 3000 TSRA BKN012 FEW018CB", "TAF FNUE 222300Z 2300/2312 30005KT 9999 SCT022", "TAF FOOG 222300Z 2300/2324 24006KT 9999 SCT012 BKN032 PROB30 TEMPO 2302/2307 4000 TSRA BKN008 FEW018CB", "TAF FOOL 222300Z 2300/2306 22006KT 9999 SCT010 FEW020CB PROB30 TEMPO 2302/2307 4000 TSRA BKN008 FEW018CB", "TAF FQBR 221600Z 2218/2324 10011KT 9999 FEW018 SCT070 TX31/2313Z TN22/2303Z BECMG 2308/2310 03008KT PROB30 TEMPO 2309/2314 5000 DZ SCT015 BECMG 2315/2317 12008KT", "TAF FQCH 221600Z 2218/2318 16018KT 9999 FEW020 TX33/2313Z TN17/2303Z BECMG 2223/2301 12008KT SCT025 BECMG 2305/2307 05008KT", "TAF FQIN 221600Z 2218/2318 17008KT 9999 FEW020 TX30/2313Z TN23/2303Z PROB30 TEMPO 2218/2224 5000 -RA SCT015 BECMG 2306/2308 05008KT", "TAF FQLC 221600Z 2218/2318 10013KT 8000 NSC TX28/2313Z TN11/2303Z BECMG 2300/2302 07011KT 9999 FEW030", "TAF FQMA 221600Z 2218/2324 21016KT 9999 DZ BKN014 OVC020 TX29/2313Z TN21/2303Z BECMG 2305/2307 15008KT BKN020 BECMG 2317/2319 07010KT CAVOK", "TAF FQNC 221600Z 2218/2324 02012G22KT 9999 FEW020 TX32/2313Z TN19/2303Z BECMG 2219/2221 35008KT CAVOK BECMG 2308/2310 04015KT SCT025", "TAF FQNP 221600Z 2218/2318 08011KT 9999 FEW020 SCT020 TX33/2313Z TN19/2303Z", "TAF FQPB 221600Z 2218/2318 05011KT 9999 FEW020 SCT030 TX30/2313Z TN22/2303Z BECMG 2300/2302 11008KT FEW020", "TAF FQQL 221600Z 2218/2318 12012KT CAVOK TX33/2313Z TN22/2303Z BECMG 2303/2305 06008KT FEW020 BECMG 2312/2314 13010G20KT", "TAF FQTT 221600Z 2218/2318 09006KT 9999 FEW020 TX36/2313Z TN25/2303Z BECMG 2300/2302 16012KT FEW025", "TAF FQVL 221600Z 2218/2318 07010KT 9999 SCT020 BKN025 TX30/2313Z TN24/2303Z BECMG 2306/2308 22008KT SCT020 BECMG 2312/2314 06009KT", "TAF FQXA 221600Z 2218/2318 14007KT 9999 BKN025 TX29/2313Z TN22/2303Z PROB30 TEMPO 2218/2224 5000 -RA SCT015 BECMG 2300/2302 VRB03KT BECMG 2306/2308 23008KT", "TAF FSIA 222302Z 2300/2324 13012KT 9999 SCT021", "TAF FTTJ 222300Z 2300/2406 14006KT 8000 NSC TEMPO 2316/2319 4000 HZ", "TAF FWCL 220900Z 2212/2318 07008KT 9999 FEW035 BECMG 2214/2218 08008KT CAVOK BECMG 2304/2308 08012KT 8000 HZ SKC BECMG 2310/2314 06013KT 9999 FEW040 BECMG 2314/2318 07008KT CAVOK", "TAF FWKI 221430Z 2218/2324 07010KT 9999 FEW033 FM221800 09009KT CAVOK BECMG 2308/2310 05010KT 9999 FEW028 FM231500 05008KT CAVOK", "TAF FYGF 222000Z 2221/2306 26005KT 9999 -TSRA FEW040CB BECMG 2221/2222 00000KT NSW", "TAF FYKM 222000Z 2221/2306 00000KT CAVOK", "TAF FYLZ 222000Z 2221/2306 20015KT CAVOK", "TAF FYOA 222000Z 2221/2306 14013KT 9999 FEW045CB BECMG 2221/2222 09005KT NSC", "TAF FYRU 222000Z 2221/2306 00000KT CAVOK", "TAF FYWB 222200Z 2300/2400 36007KT 0700 FG OVC009 BECMG 2307/2309 9999 NSW BKN012", "TAF FYWE 222000Z 2221/2306 31005KT 9999 -TSRA FEW040CB BECMG 2221/2222 00000KT NSW", "TAF FYWH 222200Z 2300/2400 28005KT 9999 TS FEW030CB BECMG 2302/2304 22003KT SCT025", "TAF FZAA 221700Z 2218/2324 09012KT 6000 SCT024 FEW028CB PROB30 TEMPO 2219/2223 -TSRA BECMG 2300/2302 18004KT BKN016 BECMG 2310/2312 34010KT SCT022 FEW030CB", "TAF FZIC 221700Z 2218/2324 03004KT 6000 BKN013 FEW020CB FM230200 00000KT 1500 BR BKN002 FM230630 23006KT 7000 SCT014 BECMG 2309/2311 BKN024 FEW034CB TEMPO 2314/2317 03006G22KT 3000 TSRA BECMG 2317/2319 NSC", "TAF FZNA 221100Z 2212/2318 24010KT 7000 SCT020 FEW024CB TEMPO 2214/2218 TS BECMG 2219/2221 04004KT SCT014 BECMG 2308/2310 22010KT FEW022CB", "TAF FZQA 221700Z 2218/2324 09005KT 8000 SCT018 FEW028CB PROB30 2218/2222 TS BECMG 2300/2302 6000 NSC BECMG 2309/2311 36012KT SCT023 FEW030CB", "TAF GABS 222300Z 2300/2406 VRB04G16KT 9999 FEW020 PROB40 TEMPO 2315/2322 TS BKN015 FEW033CB", "TAF GAGO 221700Z 2218/2318 08012G22KT 6000 NSC TEMPO 2308/2314 09016G26KT 4000 BLDU", "TAF GBYD 222300Z 2300/2406 27003KT 9999 SCT013", "TAF GCFV 222000Z 2221/2321 36009KT 9999 SCT020 TX25/2314Z TN21/2306Z BECMG 2308/2310 06011KT", "TAF GCGM 222000Z 2221/2321 28005KT 9999 FEW030 TX27/2314Z TN22/2306Z", "TAF GCHI 222000Z 2221/2321 35010KT 9999 SCT025 TX26/2314Z TN22/2306Z", "TAF GCLA 222000Z 2221/2321 30005KT 9999 SCT025 TX25/2314Z TN21/2306Z", "TAF GCLP 222000Z 2221/2321 36016KT 9999 SCT020 TX25/2314Z TN20/2306Z", "TAF GCRR 222000Z 2221/2321 02009KT 9999 SCT020 TX28/2314Z TN20/2306Z TEMPO 2310/2318 08011KT", "TAF GCTS 222000Z 2221/2321 04008KT 9999 FEW030 TX27/2314Z TN19/2306Z", "TAF GCXO 222000Z 2221/2321 32015KT 9999 FEW008 TX22/2314Z TN16/2306Z BECMG 2307/2309 25005KT PROB40 TEMPO 2221/2309 2500 BCFG BKN005 PROB40 TEMPO 2318/2320 4000 BCFG BKN008", "TAF GECE 220800Z 2209/2309 VRB02KT 9999 SCT015 TX21/2219Z TN19/2306Z PROB30 TEMPO 2209/2309 4000 BR BKN008 PROB30 TEMPO 2301/2305 27010KT", "TAF GEML 222300Z 2300/2324 27007KT 9999 FEW030 TX28/2313Z TN19/2306Z PROB30 TEMPO 2312/2316 04010KT", "TAF GGOV 222300Z 2300/2324 VRB05KT 8000 SCT012 TEMPO 2315/2318 4000 TSRA BKN010 FEW015CB PROB30 TEMPO 2320/2323 4000 TSRA BKN010 FEW015CB", "TAF GMAD 222300Z 2300/2406 07008KT CAVOK BECMG 2314/2316 26012KT", "TAF GMAG 222300Z 2300/2406 12006KT 6000 NSC", "TAF GMFF 222300Z 2300/2406 18008KT CAVOK", "TAF GMFK 222300Z 2300/2406 35008KT CAVOK", "TAF GMFM 222300Z 2300/2406 17007KT CAVOK TEMPO 2315/2319 32010KT", "TAF GMFO 221700Z 2218/2324 20014KT CAVOK BECMG 2220/2223 12012KT 6000 FEW030 BKN120 PROB30 TEMPO 2304/2314 TSRA FEW040CB", "TAF GMME 222300Z 2300/2406 00000KT 2000 BR BKN010 PROB30 TEMPO 2305/2309 VRB02KT 0400 FG OVC005 BECMG 2310/2312 34010KT 5000 NSW NSC TEMPO 2318/2324 04004KT", "TAF GMMH 222300Z 2300/2406 02018KT 6000 BKN010 PROB30 2300/2308 2000 BR BKN008", "TAF GMMI 222300Z 2300/2406 VRB02KT 8000 NSC PROB30 2303/2308 2000 BR BKN008", "TAF GMML 222300Z 2300/2406 03012KT 8000 SCT010 PROB30 2300/2308 4000 BR BKN008", "TAF GMMN 222300Z 2300/2406 14006KT CAVOK TEMPO 2300/2308 3000 BR BKN003 BECMG 2312/2314 36012KT", "TAF GMMW 222300Z 2300/2406 VRB02KT 6000 NSC PROB30 2306/2308 3000 BR BKN008", "TAF GMMX 222300Z 2300/2406 28006KT 8000 NSC PROB30 TEMPO 2302/2309 4000 BR BKN010 TEMPO 2316/2321 32016KT", "TAF GMMZ 222300Z 2300/2406 07004KT CAVOK", "TAF GMTA 222300Z 2300/2406 VRB02KT CAVOK PROB30 2300/2306 4000 BR BKN008", "TAF GMTT 222300Z 2300/2406 19004KT 7000 NSC", "TAF GOBD 222300Z 2300/2406 29006KT 9999 SCT015", "TAF GOGS 222300Z 2300/2324 28005KT 9999 SCT013", "TAF GOOY 222300Z 2300/2406 30005KT 9999 SCT013", "TAF GOSS 222300Z 2300/2324 28006KT 9999 SCT010", "TAF GQNO 221700Z 2218/2324 36012KT 7000 NSC BECMG 2308/2310 06012KT BECMG 2316/2318 35012KT", "TAF GQPP 221700Z 2218/2318 36015KT 6000 NSC BECMG 2220/2223 BKN006 PROB40 TEMPO 2304/2310 2000 BR OVC005 BECMG 2310/2312 NSC", "TAF GUCY 212300Z 2200/2306 29006KT 9999 SCT015 SCT110 PROB30 TEMPO 2203/2209 13012KT TS SCT015 FEW023CB BKN110 26006KT 9999 SCT015 SCT110 PROB30 TEMPO 1503/1509 32008KT 5000 -TSRA BKN013 FEW023CB BKN100", "TAF GVAC 222300Z 2300/2406 03015KT 9999 FEW013", "TAF GVBA 221100Z 2212/2318 05016KT 9999 SCT014", "TAF GVNP 221700Z 2218/2324 01010KT 9999 FEW016 TEMPO 2311/2318 03020KT", "TAF GVSV 221700Z 2218/2324 06018KT 9999 FEW020 TEMPO 2312/2320 06020G30KT", "TAF HAAB 222130Z 2300/2406 14009KT 9999 SCT030 FEW090 BECMG 2310/2314 09007KT 9000 -RA BKN020", "TAF HABD 212130Z 2200/2306 36005KT 9999 FEW030 SCT090", "TAF HADC 212130Z 2200/2306 09005KT 9999 FEW025 SCT080", "TAF HADR 222130Z 2300/2406 32006KT 9999 SCT030 FEW090", "TAF HAGN 212130Z 2200/2306 VRB06KT 9999 SCT025 SCT080", "TAF HAJJ 212130Z 2200/2306 16007KT 9999 FEW030 SCT090 BECMG 2214/2219 7000 BR/-RA SCT024 BKN070", "TAF HALA 212130Z 2200/2306 34005KT 9999 FEW025 SCT080", "TAF HBBA 221700Z 2218/2324 36004KT 9999 FEW036 BECMG 2302/2304 36004K T 9999 FEW025 SCT100 BKN100 BECMG 2309/2311 18012G22KT 9999 FEW030 TEMPO 2315/2317 09015G25KT 7000 SCT OR SHRA BKN100 BECMG2320/2322 00000KT", "TAF HCMM 221100Z 2212/2318 16010KT 9999 SCT024 BECMG 2300/2303 BKN018", "TAF HDAM 221700Z 2218/2318 VRB06KT 9999 SCT023 BECMG 2300/2306 11005KT 9000 HZ SCT020 BECMG 2306/2615 10010G15KT SCT023 SCT133", "TAF HEAL 222318Z 2300/2406 26007KT 9999 SCT020 BECMG 2307/2309 35009KT TEMPO 2312/2321 8000 -SHRA BKN020", "TAF HEAR 222300Z 2300/2406 32008KT 9999 BKN020 TEMPO 2306/2321 6000 RA", "TAF HEAT 222300Z 2300/2406 33012KT CAVOK", "TAF HEAX 222300Z 2300/2406 01008KT 9999 SCT020 TEMPO 2300/2315 8000 -SHRA BKN020", "TAF COR HEBA 222325Z 2300/2406 01008KT 9999 SCT020 TEMPO 2300/2312 8000 -SHRA BKN020", "TAF HEBL 222300Z 2300/2406 31008KT CAVOK", "TAF HECA 222300Z 2300/2406 35008KT 9999 SCT025 TEMPO 2300/2307 VRB03KT 4000 BR NSC", "TAF HEGN 222300Z 2300/2406 28011KT CAVOK", "TAF HELX 222300Z 2300/2406 30006KT CAVOK", "TAF HEMA 222318Z 2300/2406 30006G18KT CAVOK", "TAF HEMM 222300Z 2300/2406 35010KT 9999 SCT020 TEMPO 2300/2312 6000 SHRA BKN020", "TAF HEOW 222300Z 2300/2406 01010KT CAVOK", "TAF HEPS 222300Z 2300/2406 35012KT 9999 SCT020 TEMPO 2300/2312 6000 RA BKN020", "TAF HESC 222318Z 2300/2406 35007KT 9999 SCT020 TEMPO 2309/2318 6000 RA BKN020", "TAF HESG 222300Z 2300/2406 32012KT CAVOK", "TAF HESH 222300Z 2300/2406 36010KT CAVOK", "TAF HESN 222300Z 2300/2406 34008KT CAVOK", "TAF HETB 222300Z 2300/2406 01009KT 9999 SCT020 TEMPO 2309/2318 6000 RA BKN020", "TAF HETR 222318Z 2300/2406 35006G20KT CAVOK", "TAF HKEL 221700Z 2218/2324 17005KT CAVOK BECMG 2308/2311 08010KT 9999 SCT025 BECMG 2313/2317 FEW022CB SCT023 BECMG 2320/2323 16005KT CAVOK", "TAF HKJK 221700Z 2218/2324 09010KT 9999 SCT023 BECMG 2221/2224 CAVOK BECMG 2300/2303 02005KT 9999 BKN015 BECMG 2308/2311 10010KT SCT028 BECMG 2320/2323 02005KT SCT020", "TAF HKKI 222300Z 2300/2406 04005KT CAVOK BECMG 2308/2311 22005KT 9999 FEW027 BECMG 2313/2317 -TSRA FEW022CB SCT023 BECMG 2320/2323 16005KT NSW CAVOK", "TAF HKML 221700Z 2218/2318 18010KT 9999 FEW024 BECMG 2300/2303 00000KT SCT019 BKN080", "TAF HKMO 221700Z 2218/2324 16010KT 9999 FEW025 BECMG 2300/2303 22005KT SCT019 BKN080", "TAF HKNW 222300Z 2300/2324 VRB02KT 9999 BKN016 BECMG 2308/2311 09010KT SCT026 BECMG 2320/2323 02005KT SCT020", "TAF HLGD 222300Z 2300/2424 VRB02KT CAVOK BECMG 2315/2317 03010KT", "TAF HLGT 222300Z 2300/2424 VRB02KT CAVOK ", "TAF HLKF 222300Z 2300/2424 VRB02KT CAVOK BECMG 2309/2311 34010KT", "TAF HLLB 222300Z 2300/2424 06010KT 8000 SCT020 BECMG 2315/2317 34012KT", "TAF HLLM 222300Z 2300/2424 10010KT 8000 FEW025 BECMG 2315/2317 33010KT", "TAF HLLQ 222300Z 2300/2424 36010KT 8000 FEW020 SCT060 ", "TAF HLLS 222300Z 2300/2424 VRB02KT 8000 NSC BECMG2309/2311 09010KT CAVOK BECMG 2315/2317 36010KT", "TAF HLMS 222300Z 2300/2424 18010KT 8000 NSC ", "TAF HLON 222300Z 2300/2424 VRB02KT CAVOK BECMG 2318/2320 06010KT", "TAF HLTD 222300Z 2300/2424 VRB02KT CAVOK ", "TAF HLTQ 222300Z 2300/2424 VRB02KT 8000 FEW025 SCT060 BECMG 2312/2314 34012KT", "TAF HLUB 222300Z 2300/2424 09010KT CAVOK BECMG 2318/2320 03010KT ", "TAF HRYR 222300Z 2300/2406 32005KT 9999 SCT025 SCT100 BECMG 2307/2310 14008KT TEMPO 2312/2317 03010G20KT TS FEW023CB SCT025 BECMG 2319/2322 33006KT SCT026 BECMG 2402/2405 00000KT", "TAF HRZA 221100Z 2212/2318 29006KT 9999 SCT025 TEMPO 2212/2217 13008G18KT TS FEW023CB BKN025 BECMG 2221/2223 30005KT BKN025 BECMG 2301/2303 00000KT 9000 BECMG 2306/2308 12006KT 9999 SCT025 TEMPO 2313/2317 27008KT TS FEW023CB SCT025", "HTAR 221700Z 2218/2318 12015KT 9999 FEW028", "TAF HTDA 221700Z 2218/2324 16005KT 9999 SCT012 BKN080 TEMPO 2306/2311 13010KT RA BECMG 2314/2317 SCT015", "HTDO 221700Z 2218/2318 10012KT 060V140 9999 FEW024", "HTKA 221100Z 2212/2312 00000KT 9999 FEW020 FEW021CB TEMPO 2212/2215 27010KT", "TAF HTKJ 221700Z 2218/2318 09010KT 9999 SCT026", "HTMW 221700Z 2218/2318 32010KT 9999 FEW022 FEW023CB BECMG 2306/2308 12010KT BECMG 2314/2316 33010KT", "HTTB 221700Z 2218/2318 10010KT 9999 CAVOK", "HTZA 221700Z 2218/2318 00000KT 9999 SCT014 BKN070 BECMG 2302/2304 12010KT BKN016 BECMG 2310/2312 SCT020", "TAF HUEN 221700Z 2218/2324 34012KT 9999 FEW023 FEW025CB BECMG 2309/2312 VRB10KT 9000 -DZ SCT021 FEW023CB FM 231300 17012KT BECMG 2221/2224 NSC", "TAF HUSO 221100Z 2212/2312 27003KT 9999 SCT020 FEW022CB FM 221600 07009KT -TSRA BKN018 FEW020CB BECMG 2302/2306 36004KT FEW020 FM 230900 05007KT SCT021 FEW023CB", "KABE 221742Z 2218/2318 VRB04KT P6SM FEW250", "KABI 222320Z 2300/2324 19019G26KT P6SM FEW250 FM231800 19021G28KT P6SM BKN250", "KABQ 222330Z 2300/2324 20015G25KT P6SM SCT060 SCT090 FM230300 18015G22KT P6SM SCT060 SCT090 FM231400 22024G34KT P6SM SCT050 SCT080 FM232000 26022G32KT P6SM SCT050 BKN080 FM232300 29022G32KT P6SM BKN050 BKN070", "KABR 221732Z 2218/2318 12004KT P6SM SCT250 FM230200 07004KT P6SM FEW250 FM231600 13012G21KT P6SM SCT210", "KABY 221720Z 2218/2318 05005KT P6SM SKC", "KACK 222326Z 2300/2324 08004KT P6SM OVC100 FM231200 05013KT P6SM VCSH SCT015 OVC040 FM231400 05014KT 4SM -RA BR OVC015 FM231800 05015G22KT 2SM -RA BR OVC003", "KACT 222320Z 2300/2324 19018G28KT P6SM SCT250 FM230800 18018G28KT P6SM BKN015 FM231700 18020G30KT P6SM SCT035 BKN250", "KACV 222137Z 2222/2318 32012KT P6SM SCT030 BKN080 FM230100 34006KT 6SM BR OVC050 FM230700 VRB03KT 2SM BR VCSH SCT025 FM231000 07003KT P6SM SCT050", "KACY 221742Z 2218/2318 11005KT P6SM FEW250 FM222100 VRB04KT P6SM BKN250 FM230300 VRB03KT P6SM BKN250 FM230600 VRB04KT P6SM OVC250 FM231300 04008KT P6SM OVC060", "KADF 222335Z 2300/2324 19008G16KT P6SM SCT250 FM230130 17007KT P6SM SCT250 WS020/20040KT FM231400 18010G18KT P6SM SCT025 BKN050", "TAF KADW 221700Z 2217/2323 VRB06KT 9999 SKC QNH3022INS BECMG 2310/2311 VRB06KT 9999 OVC020 QNH3019INS BECMG 2315/2316 VRB06KT 9999 VCSH OVC020 QNH3015INS TX20/2219Z TN09/2307Z", "KAEG 222330Z 2300/2324 22016G26KT P6SM SCT060 SCT090 FM230300 20015G22KT P6SM SCT060 SCT090 FM231400 22025G35KT P6SM SCT050 SCT080 FM232000 24025G35KT P6SM SCT050 BKN080 FM232300 27022G32KT P6SM BKN050 BKN070", "KAEX 221733Z 2218/2318 17018G27KT P6SM SCT050 FM230100 16012G18KT P6SM SCT050 FM230400 15008KT P6SM FEW040 FM231200 15007KT P6SM BKN050 FM231700 17014KT P6SM BKN100", "TAF COR KAFF 222155Z 2219/2401 21014KT 9999 FEW250 520009 QNH2957INS WND 120V060 ROTOR CONDS EXIST TEMPO 2219/2224 24015G25KT 530009 BECMG 2223/2224 23012KT 9999 FEW120 SCT200 520009 QNH2956INS WND 170V300 ROTOR CONDS EXIST BECMG 2302/2303 15010G15KT 9999 FEW120 SCT200 520003 560305 QNH2946INS WND 100V240 ROTOR CONDS EXIST BECMG 2306/2307 25045G55KT 9999 SCT120 SCT200 570009 QNH2938INS TEMPO 2308/2312 26055G65KT BECMG 2316/2317 25020G30KT 9999 SCT100 530009 QNH2942INS TEMPO 2317/2324 25030G40KT 560009 TX22/2221Z TN08/2312Z LAST NO AMDS AFT 2222 NEXT 2411", "KAFW 222320Z 2300/2324 18020G30KT P6SM BKN250 FM231000 18017G27KT P6SM BKN020 FM231700 18020G30KT P6SM SCT035 BKN250", "KAGC 222320Z 2300/2324 11005KT P6SM SKC", "KAGS 222329Z 2300/2324 00000KT P6SM SKC FM231500 03004KT P6SM SKC", "KAHN 222331Z 2300/2324 VRB05KT P6SM SCT250", "KAIA 222320Z 2300/2324 16015G25KT P6SM SCT150 FM230200 16010KT P6SM SCT150 FM231600 28015G25KT P6SM BKN120 FM231900 32023G33KT P6SM BKN120", "KALB 222320Z 2300/2324 16005KT P6SM SCT250 FM230500 VRB02KT P6SM BKN250 FM231700 35005KT P6SM BKN100 FM232100 34007KT P6SM VCSH SCT040 BKN060", "KALI 222320Z 2300/2324 15015G23KT P6SM SCT050 FM230500 16009KT P6SM SCT035 TEMPO 2311/2315 3SM BR BKN025 FM231500 16018G27KT P6SM FEW050 BKN250", "KALO 222333Z 2300/2324 16010G17KT P6SM SKC FM231300 14013G22KT P6SM FEW250 FM231600 16019G29KT P6SM SCT250", "KALS 222321Z 2300/2324 24018G28KT P6SM SCT250 FM230200 20015G25KT P6SM SCT250 FM230700 19020G30KT P6SM BKN120 FM231500 20030G40KT P6SM VCSH BKN060 FM231700 22027G39KT P6SM VCSH BKN040 TEMPO 2317/2321 2SM -SHRA BKN020 FM232100 25030G40KT P6SM BKN100", "KALW 222332Z 2300/2324 20012KT P6SM SCT030 BKN050 OVC100 FM230100 20010KT P6SM OVC050 FM231800 23010KT P6SM SCT060 BKN250", "KAMA 222333Z 2300/2324 21018G28KT P6SM BKN300 FM231600 21028G38KT P6SM SCT300", "KANB 221737Z 2218/2318 17007KT P6SM FEW250 FM222300 15007KT P6SM SCT250", "KAND 222326Z 2300/2324 VRB03KT P6SM FEW250 FM231500 10004KT P6SM FEW250", "KAOO 222321Z 2300/2324 17004KT P6SM SKC", "KAPA 222022Z 2220/2318 04010KT P6SM FEW120 FM230000 27010KT P6SM FEW120 FM230300 20012KT P6SM SCT120 SCT200 FM231200 21020G30KT P6SM SCT150 BKN200 FM231400 23030G40KT P6SM SCT150 BKN200", "KAPC 222320Z 2300/2324 28018G24KT P6SM FEW200 FM230300 27012KT P6SM SKC FM231500 29007KT P6SM SKC WS020/36035KT FM231700 35015G23KT P6SM SKC", "KAPF 222320Z 2300/2324 02008KT P6SM SKC FM230200 VRB05KT P6SM FEW050 FM231400 04008KT P6SM FEW050", "KAPN 222324Z 2300/2324 17007KT P6SM SKC WS020/21040KT FM231200 16006KT P6SM SKC FM231500 17008G14KT P6SM FEW250 FM231800 16010G18KT P6SM FEW250", "KARA 221733Z 2218/2318 18012G20KT P6SM SCT050 FM230000 17012G18KT P6SM SCT050 FM230400 15007KT P6SM BKN040 FM231000 15007KT P6SM SCT060 FM231500 14010G18KT P6SM BKN140", "KART 222105Z 2221/2318 18008KT P6SM SKC FM230800 15004KT P6SM SCT250", "KASD 222328Z 2300/2324 15013KT P6SM FEW040 FM230500 00000KT P6SM FEW250", "KASE 222002Z 2220/2318 21015G30KT P6SM FEW250 FM222200 21020G30KT P6SM SCT200 FM230200 20017G30KT P6SM VCSH BKN100 WS020/22050KT FM230900 21020G36KT P6SM -SHRA BKN040 WS020/23050KT FM231000 21019G34KT 5SM -SHRASN BR BKN020 WS020/23045KT", "KASN 221737Z 2218/2318 17007KT P6SM FEW250 FM222300 15007KT P6SM SCT250", "KAST 222330Z 2300/2324 30010KT P6SM VCSH SCT025 BKN050 TEMPO 2300/2301 4SM SHRA BKN025 OVC040 FM230300 30005KT P6SM BKN045 FM231100 VRB03KT P6SM SCT030 FM231900 VRB03KT P6SM SCT120 BKN200", "KATL 222331Z 2300/2406 VRB03KT P6SM FEW250", "KATW 222126Z 2221/2318 15008KT P6SM SCT200 FM222300 17007KT P6SM SKC WS018/21045KT FM231100 16011G19KT P6SM SCT250", "KATY 222132Z 2222/2318 20008KT P6SM OVC250 FM222300 21005KT P6SM FEW250 FM231400 13012G23KT P6SM FEW100 FM231700 14017G29KT P6SM SCT070", "KAUG 222320Z 2300/2324 20004KT P6SM SCT250 FM230600 00000KT 3SM BR SCT002 FM231200 01005KT P6SM BKN100", "KAUS 221739Z 2218/2324 19017G27KT P6SM SKC FM230000 18012G22KT P6SM SKC FM230700 18011KT P6SM OVC017 FM231700 18012G22KT P6SM OVC035", "KAUW 221720Z 2218/2318 16009G16KT P6SM SCT250 FM230000 16007KT P6SM SKC WS020/20045KT FM230900 15007KT P6SM SKC WS014/20035KT FM231300 15008G16KT P6SM SCT150 FM231600 15011G20KT P6SM BKN120", "KAVL 222326Z 2300/2324 00000KT P6SM FEW250 FM231200 36003KT P6SM SCT250 FM231900 15006KT P6SM FEW250", "KAVP 222320Z 2300/2324 00000KT P6SM FEW250", "KAXN 222325Z 2300/2324 15010KT P6SM FEW250 FM231200 14012G19KT P6SM SCT200 FM231500 14021G30KT P6SM BKN080 FM232300 14010G18KT P6SM BKN100", "KAZO 222325Z 2300/2324 16007KT P6SM SKC FM231500 18013KT P6SM SCT040 SCT100 FM231700 18014G24KT P6SM SCT040 SCT100 FM232100 17009KT P6SM SKC", "TAF AMD KBAB 212350Z 2123/2301 15012KT 9999 SCT200 QNH2969INS BECMG 2211/2212 14014KT 9999 SCT100 BKN200 QNH2969INS BECMG 2219/2220 31014G24KT 9999 SKC QNH2965INS TX29/2123Z TN14/2211Z", "TAF KBAD 222000Z 2220/2402 20015G25KT 9999 FEW050 QNH2987INS BECMG 2223/2224 19010KT 9999 FEW050 SCT250 QNH2987INS BECMG 2314/2315 22012G20KT 9999 BKN025 BKN250 QNH2990INS BECMG 2323/2324 17008KT 9999 SCT040 SCT250 QNH2993INS TX28/2221Z TN14/2312Z", "KBAF 222326Z 2300/2324 VRB03KT P6SM BKN150 FM231400 03004KT P6SM OVC100 FM231900 01005KT P6SM VCSH SCT025 OVC040 FM232200 02005KT 5SM -RA BR OVC020", "KBAM 222321Z 2300/2324 33017G24KT 6SM -SHSN BR SCT025 OVC035 FM230200 31010G18KT 5SM -SHSN BR SCT025 BKN100 FM230600 30008KT P6SM VCSH SCT035 BKN250 FM231800 33016G22KT P6SM BKN100", "KBBD 222320Z 2300/2324 17011KT P6SM FEW250 FM231300 16011G19KT P6SM BKN020 FM231600 17017G25KT P6SM BKN100", "KBBG 222326Z 2300/2324 16013G23KT P6SM SKC FM230600 17013G25KT P6SM SKC WS020/20045KT FM231600 19016G30KT P6SM SCT200 FM231900 18017G29KT P6SM SCT220", "KBCB 222320Z 2300/2324 09002KT P6SM FEW250", "KBCE 222320Z 2300/2324 22022G40KT P6SM BKN250 FM230100 22020G30KT 6SM -RASN SCT012 OVC030 FM230600 34025G45KT 1/2SM SN OVC012 FM230900 32015G25KT 3SM -SN BR OVC012", "KBDL 222326Z 2300/2406 21004KT P6SM BKN150 FM230400 02004KT P6SM BKN120 FM231900 01005KT P6SM VCSH SCT025 OVC040 FM232100 02005KT 6SM -RA BR OVC020 FM240000 02005KT 4SM -RA BR OVC015", "KBDN 222332Z 2300/2324 31015G25KT P6SM VCSH BKN050 FM230200 32011KT P6SM VCSH BKN050 FM231000 28005KT P6SM BKN035 FM231700 32007KT P6SM SCT040 SCT200", "KBDR 222320Z 2300/2324 VRB04KT P6SM BKN250 FM230600 03005KT P6SM FEW015 BKN250 FM231200 04008KT P6SM SCT025 BKN120 PROB30 2316/2319 6SM -RA BR BKN025 BKN080 FM231900 05011KT 6SM -RA BR BKN025 OVC050", "KBED 222326Z 2300/2324 21003KT P6SM BKN150 FM230500 34003KT P6SM BKN100 FM231700 03005KT P6SM VCSH SCT020 OVC050 FM231900 04005KT 3SM -RA BR OVC010", "KBFD 222321Z 2300/2324 00000KT P6SM SKC FM230600 00000KT P6SM SCT250", "KBFF 222320Z 2300/2324 16012G23KT P6SM SCT150 FM230900 07007KT P6SM OVC100 FM231500 31025G35KT P6SM BKN150", "KBFI 221728Z 2218/2318 30004KT P6SM VCSH SCT020 OVC040 TEMPO 2218/2222 4SM -SHRA SCT008 FM222300 31005KT P6SM VCSH BKN040 FM230500 00000KT P6SM BKN060 FM231300 05002KT 6SM BR OVC020", "KBFL 222320Z 2300/2324 32008KT P6SM BKN100 FM230300 32010G22KT P6SM -DZ OVC050 FM230900 VRB06KT P6SM SKC", "KBFM 222320Z 2300/2324 18006KT P6SM FEW250 FM230200 VRB03KT P6SM SCT250 FM231500 17008KT P6SM FEW070 FEW250", "KBGM 222320Z 2300/2324 18005KT P6SM SKC FM230700 15005KT P6SM SCT250", "KBGR 222325Z 2300/2324 18006KT P6SM SCT200 FM230900 VRB03KT 2SM BR SCT002 FM231200 VRB03KT P6SM BKN200 FM231800 17008KT P6SM BKN080", "KBHB 222325Z 2300/2324 20006KT P6SM BKN200 FM230800 VRB03KT 1SM BR SCT002 FM231200 VRB03KT P6SM BKN200 FM231800 13006KT P6SM BKN060 FM232100 08006KT P6SM VCSH OVC040", "KBHM 221737Z 2218/2318 18007KT P6SM SCT250 FM230600 15006KT P6SM SCT250", "TAF KBIF 221400Z 2214/2320 24009KT 9999 FEW250 QNH2992INS BECMG 2218/2219 26015G25KT 9999 SCT080 510009 QNH2987INS BECMG 2223/2224 25010G15KT 9999 SCT080 QNH2980INS BECMG 2314/2315 25020G30KT 9999 SCT080 QNH2990INS TX27/2222Z TN19/2312Z", "KBIH 222320Z 2300/2324 32022G32KT 6SM BLDU SCT060 BKN090 FM230800 35012G20KT P6SM FEW070 FM231600 35018G28KT P6SM FEW070", "KBIL 222332Z 2300/2324 03008KT P6SM VCSH FEW010 SCT050 OVC080 FM230100 36011KT P6SM VCSH SCT010 SCT025 OVC050 FM230400 36011KT P6SM VCSH SCT010 BKN025 OVC040 FM230900 35010KT 3SM -RASN BR SCT008 OVC015 FM231500 32016G24KT 2SM -RASN BR SCT008 OVC015 FM231800 32018G26KT 1SM -SN BR SCT004 BKN008 OVC012", "KBIS 222331Z 2300/2324 06006KT P6SM FEW120 OVC200 FM231500 07012G20KT P6SM OVC150 FM232200 03012KT P6SM BKN045", "TAF KBIX 220200Z 2202/2308 VRB06KT 9999 SKC QNH3006INS BECMG 2215/2216 15009KT 9999 SCT025 QNH3003INS TX26/2219Z TN14/2212Z LAST NO AMDS AFT 2204 NEXT 2410", "KBJC 222022Z 2220/2318 09008KT P6SM FEW120 FM230000 24010KT P6SM FEW120 FM231200 21014G24KT P6SM SCT150 BKN200 FM231600 26020G30KT P6SM SCT150 BKN200", "KBJI 222328Z 2300/2324 00000KT P6SM BKN150 FM231600 14010KT P6SM FEW250 FM231800 13013G21KT P6SM SCT250", "KBKE 222333Z 2300/2324 35015G25KT P6SM VCSH BKN050 FM232000 32015G25KT P6SM SCT050", "TAF KBKF 221700Z 2217/2323 20009KT 9999 SKC 510053 QNH2949INS BECMG 2306/2307 17009KT 9999 FEW090 530054 QNH2930INS BECMG 2315/2316 22020G30KT 9999 SKC 570103 QNH2930INS BECMG 2318/2319 27012G18KT 9999 FEW075 520023 QNH2937INS BECMG 2320/2321 22020G25KT 9999 SCT100 BKN130 530024 QNH2938INS TX21/2222Z TN10/2312Z", "KBKW 222320Z 2300/2324 14007KT P6SM FEW250 FM231700 14004KT P6SM FEW170", "KBLF 222320Z 2300/2324 15004KT P6SM FEW250", "KBLH 222320Z 2300/2324 22017G29KT P6SM SKC FM230900 26014KT P6SM SKC FM231600 32013KT P6SM FEW070", "KBLI 221728Z 2218/2318 VRB03KT P6SM VCSH FEW010 OVC015 FM222000 29002KT P6SM OVC020 FM222300 29002KT P6SM BKN050 FM230800 00000KT 3SM BR BKN010 FM231100 00000KT 1 1/2SM BR FEW005 BKN010", "TAF KBLV 221600Z 2216/2322 19012G18KT 9999 SCT250 QNH2984INS BECMG 2222/2223 17012KT 9999 FEW220 WS020/17040KT QNH2981INS BECMG 2314/2315 17020G30KT 9999 FEW020 SCT030 BKN075 QNH2992INS BECMG 2316/2317 19025G35KT 9999 BKN030 BKN040 OVC075 510003 QNH2992INS BECMG 2320/2321 19020G30KT 9999 FEW075 BKN100 OVC140 510003 QNH2983INS TX27/2219Z TN16/2312Z", "KBMG 222320Z 2300/2324 17008KT P6SM SCT080 BKN250 FM231500 18013G23KT P6SM FEW200 FM232300 16010G18KT P6SM SCT250 AMD LTD TO CLD VIS AND WIND 2301/2313", "KBMI 222329Z 2300/2324 16014G19KT P6SM FEW250 WS020/19050KT FM230800 16013G19KT P6SM SCT050 BKN250 FM231400 17021G33KT P6SM SCT060 BKN180", "KBNA 222324Z 2300/2324 17005KT P6SM FEW100 BKN200 FM231600 18009G16KT P6SM BKN200", "KBNO 222333Z 2300/2324 33012G25KT P6SM SCT025 BKN070 TEMPO 2300/2302 6SM -SHSN BKN025 OVC040 FM230300 26010KT P6SM BKN040 FM231800 30012KT P6SM FEW050", "KBOI 222333Z 2300/2324 31015KT P6SM FEW050 FM230200 30007KT P6SM BKN060 FM231600 31010KT P6SM BKN050 FM232000 32015G25KT P6SM FEW050", "KBOS 222326Z 2300/2406 21005KT P6SM BKN150 FM230700 01005KT P6SM BKN100 FM231600 04007KT P6SM VCSH SCT025 OVC060 FM231800 05008KT 4SM -RA BR OVC015 FM232300 02009KT 3SM -RA BR OVC008", "KBPI 222327Z 2300/2324 31015G25KT P6SM VCSH SCT020 OVC030 FM230300 32011KT P6SM VCSH SCT035 OVC070 FM231400 32018G30KT P6SM SCT050 OVC070", "KBPK 222335Z 2300/2324 19012G22KT P6SM SKC FM230130 17010G18KT P6SM SCT250 WS020/20045KT FM231500 18014G24KT P6SM SCT030 SCT250", "KBPT 221733Z 2218/2318 16018G27KT P6SM SCT050 FM230100 16012G18KT P6SM SCT060 FM230700 15009KT P6SM BKN040 FM231200 15008KT P6SM BKN100 FM231700 16016G22KT P6SM BKN150", "KBRD 222325Z 2300/2324 13007KT P6SM SCT250 FM230200 15006KT P6SM SKC WS020/18035KT FM230800 16008KT P6SM SKC FM231200 14012G22KT P6SM FEW250 FM232300 13016G27KT P6SM VCSH FEW040 BKN150", "KBRL 222320Z 2300/2324 16014G24KT P6SM SKC FM230200 16012G21KT P6SM SKC WS020/19040KT FM231400 17016G27KT P6SM SCT160 FM231800 17020G32KT P6SM SCT040 SCT160", "KBRO 222320Z 2300/2324 16013G21KT P6SM SCT050 SCT250 FM230200 16009KT P6SM SCT050 FM231500 16021G28KT P6SM SCT050 SCT250 FM231800 16023G30KT P6SM SCT040 SCT060 BKN250", "KBTL 222325Z 2300/2324 16007KT P6SM SKC FM231500 18013KT P6SM SCT040 SCT100 FM231700 18014G24KT P6SM SCT040 SCT100 FM232100 17009KT P6SM SKC", "KBTM 222334Z 2300/2324 33012KT 6SM -SNRA SCT029 BKN035 OVC050 FM230200 31012KT 5SM -SHSN SCT010 OVC025 FM230600 32008KT 1 1/2SM -SN BR OVC015 FM230900 31008KT 2SM -SN BKN015 OVC025 FM231200 31007KT 2SM -SN BKN010 OVC020", "KBTR 222328Z 2300/2324 17009KT P6SM SKC FM230200 14005KT P6SM SKC FM231600 13011KT P6SM FEW050 FM232000 15012G18KT P6SM SCT050 FM232300 15010KT P6SM FEW050", "KBTV 222320Z 2300/2324 18008KT P6SM SKC FM230900 00000KT P6SM SCT250 FM231800 17004KT P6SM BKN250", "KBUF 222105Z 2221/2318 18008KT P6SM SKC FM230300 17006KT P6SM SKC FM231400 VRB03KT P6SM SCT250", "KBUR 222105Z 2221/2318 18011G17KT P6SM BKN026 OVC035 FM222300 18012KT P6SM SCT025 BKN035 FM230300 18009KT P6SM OVC025 FM230900 33006KT P6SM SCT250", "KBVI 222320Z 2300/2324 11005KT P6SM SKC", "KBVO 222320Z 2300/2324 18020G30KT P6SM FEW250 FM230200 18014G22KT P6SM BKN250 WS020/20050KT FM231500 18022G35KT P6SM SCT100 OVC250", "KBWG 222320Z 2300/2324 17007KT P6SM BKN250 FM231100 17005KT P6SM SKC FM231400 19013G22KT P6SM SKC", "KBWI 222330Z 2300/2406 00000KT P6SM BKN250 FM230900 01003KT P6SM BKN200 FM231400 03006KT P6SM BKN050 BKN200 FM232100 02006KT P6SM VCSH BKN050 FM240100 02005KT P6SM BKN050", "KBYI 222320Z 2300/2324 27010G20KT P6SM OVC060 FM230300 25011KT P6SM BKN100 FM231000 27012G20KT P6SM OVC070 FM231800 27015G25KT P6SM BKN100", "KBZN 222324Z 2300/2406 31007KT 4SM -RASN BR SCT015 OVC025 TEMPO 2302/2305 2SM -SN BR OVC012 FM230500 30007KT 2SM -SN BR SCT008 OVC012 TEMPO 2305/2308 1SM -SN BR OVC004 FM231900 32015KT 4SM -SN BR SCT010 OVC018 FM240000 31011KT P6SM SCT015 OVC025 PROB30 2400/2406 4SM -SN BR OVC012", "KCAE 222329Z 2300/2324 VRB03KT P6SM SKC FM231500 01005KT P6SM SKC", "KCAK 222329Z 2300/2324 18007KT P6SM FEW250", "KCAR 222325Z 2300/2324 18008KT P6SM SCT250", "TAF AMD KCBM 222325Z 2223/2403 16012KT 9999 SCT050 BKN250 QNH3002INS BECMG 2304/2305 15009KT 9999 FEW040 SCT250 QNH3005INS BECMG 2323/2324 14009KT 9999 BKN200 QNH3005INS TX25/2321Z TN13/2312Z LAST NO AMDS AFT 2223 NEXT 2315", "KCDC 222320Z 2300/2324 22020G35KT 6SM -RA BKN250 FM230300 22025G35KT 5SM -RA OVC030 FM230900 35010KT 1SM -SNRA OVC018", "KCDR 222320Z 2300/2324 24013G23KT P6SM SCT150 FM230200 18010KT P6SM SCT150 FM231600 30012G23KT P6SM BKN120 FM231900 30025G35KT P6SM BKN120", "KCDS 222321Z 2300/2324 24018KT P6SM BKN250 FM230500 21015KT P6SM SCT250 FM231800 21020G30KT P6SM FEW150 BKN250", "KCEC 222202Z 2222/2318 31010KT 6SM BR BKN035 FM230200 35008KT 4SM -RA BR OVC025 FM230600 36007KT 6SM BR BKN050 FM231200 04007KT 6SM BR SCT050", "TAF KCEF 221810Z 2218/2324 23009KT 9999 FEW250 QNH3019INS BECMG 2221/2222 VRB06KT 9999 BKN250 QNH3023INS BECMG 2312/2313 03007KT 9999 BKN100 OVC150 QNH3027INS BECMG 2317/2318 02012KT 9999 -RA SCT030 OVC060 510207 QNH3026INS BECMG 2323/2324 02009KT 9000 -RA BR BKN015 OVC030 WS015/06035KT 510154 QNH3029INS TX20/2220Z TN04/2311Z", "KCGI 222330Z 2300/2324 17011G21KT P6SM SCT100 BKN200 FM231400 18015G27KT P6SM FEW050 SCT200", "KCHA 222325Z 2300/2324 16003KT P6SM FEW060 BKN250 FM231400 17006KT P6SM SKC", "KCHO 222330Z 2300/2324 00000KT P6SM SKC FM231300 01005KT P6SM SCT250 FM232000 05004KT P6SM SCT250", "KCHS 222320Z 2300/2324 36003KT P6SM FEW045 FEW250 FM231500 01008G15KT P6SM SKC", "KCID 222320Z 2300/2324 16012G21KT P6SM SKC WS020/18045KT FM231300 15014G22KT P6SM SKC FM231600 16022G35KT P6SM SCT040 SCT160", "KCIU 222324Z 2300/2324 12006KT P6SM FEW250 FM230800 12006KT P6SM SKC WS020/23035KT FM231100 12006KT P6SM SKC FM231800 15010G15KT P6SM FEW250", "KCKB 222320Z 2300/2324 00000KT P6SM SKC FM231700 10002KT P6SM FEW250", "KCKV 222324Z 2300/2324 17005KT P6SM FEW100 BKN200 FM231600 17010G17KT P6SM BKN200", "KCLE 222329Z 2300/2406 18010KT P6SM SCT250", "KCLL 222320Z 2300/2324 18014G22KT P6SM FEW035 FM230500 17012KT P6SM FEW025 FM230800 17008KT P6SM SCT025 FM231500 17016G24KT P6SM FEW030 SCT040 FM231900 17019G27KT P6SM FEW035 SCT050", "KCLM 221728Z 2218/2318 26008KT P6SM OVC060 FM230600 25005KT P6SM FEW060 FM231700 VRB04KT P6SM BKN050", "KCLT 222326Z 2300/2406 03004KT P6SM FEW250", "KCMA 222104Z 2221/2318 26009KT P6SM BKN026 FM222300 25012KT P6SM BKN035 FM230200 28008KT P6SM BKN035 FM230800 VRB03KT P6SM SKC FM231500 05005KT P6SM SKC", "KCMH 222320Z 2300/2324 15005KT P6SM SCT250 FM231600 17010KT P6SM SCT250 FM232300 14006KT P6SM BKN200", "KCMI 222329Z 2300/2324 16014G19KT P6SM FEW250 WS020/19048KT FM230800 16013G19KT P6SM SCT050 BKN250 FM231400 17020G31KT P6SM SCT060 BKN180", "KCMX 221720Z 2218/2318 10007KT P6SM BKN250 FM221900 09008KT P6SM SCT240 FM230000 07006KT P6SM SCT250 WS020/19030KT FM230400 08007KT P6SM FEW250 WS020/21045KT FM230900 11005KT P6SM FEW240 WS020/22030KT FM231100 13008KT P6SM FEW240", "KCNM 222327Z 2300/2324 22011KT P6SM FEW120 BKN250", "KCNU 222328Z 2300/2324 17018G26KT P6SM SKC FM230500 18020KT P6SM SKC WS020/19050KT FM232300 18024G36KT P6SM SCT240", "KCNY 222121Z 2221/2318 21020G30KT P6SM BKN250 FM230700 24030G40KT P6SM -SHRA OVC045 FM230900 27020G30KT 6SM -SHRA BR OVC030 FM231200 27015G25KT 6SM -SHRA BR OVC030", "KCOD 222327Z 2300/2324 36010G20KT P6SM BKN090 FM230400 36007KT P6SM BKN070 FM231600 01025G40KT P6SM FEW015 OVC070", "KCOE 222320Z 2300/2324 23008KT P6SM FEW035 OVC060 FM230100 02006KT P6SM -RA BKN030 FM230800 01004KT 4SM BR OVC015 FM231300 35002KT 2SM BR BKN004 FM231800 31005KT P6SM BKN050", "TAF AMD KCOF 222230Z 2222/2324 03012KT 9999 FEW040 SCT060 QNH2997INS BECMG 2309/2310 03009KT 9999 FEW050 QNH3000INS BECMG 2316/2317 03010G15KT 9999 FEW040 SCT050 QNH3008INS TX24/2222Z TN19/2311Z AMD LAST NO AMDS AFT 2223 NEXT 2410", "KCON 222320Z 2300/2324 VRB03KT P6SM SCT250 FM231200 01005KT P6SM BKN100", "KCOS 222321Z 2300/2324 22017G27KT P6SM FEW250 FM230200 22013G23KT P6SM FEW250 FM230700 18025G35KT P6SM FEW250 FM231800 20035G45KT P6SM SCT250 FM232100 25038G48KT P6SM SCT250 FM232300 26031G40KT P6SM SCT250", "KCOT 222320Z 2300/2324 15011G18KT P6SM SKC FM231000 13010KT P6SM SCT030 BKN250 TEMPO 2310/2314 BKN025 FM231400 15013G20KT P6SM SCT050 BKN250", "KCOU 222323Z 2300/2324 16017G30KT P6SM FEW150 BKN250 FM230500 16012G22KT P6SM SCT250 FM231400 18017G30KT P6SM SCT045 SCT250", "KCPR 222327Z 2300/2324 24032G45KT P6SM SCT080 BKN100 FM230100 24018G25KT P6SM BKN080 FM230300 24013G20KT P6SM SCT050 BKN080 FM231500 31015G25KT P6SM VCSH SCT040 OVC060", "KCPS 222323Z 2300/2324 17012G24KT P6SM SCT120 BKN250 FM230300 16009G18KT P6SM SCT120 BKN250 FM231400 17013G27KT P6SM SCT045 BKN250", "KCRE 222320Z 2300/2324 02007KT P6SM FEW250 FM231300 36009KT P6SM SKC", "KCRG 222320Z 2300/2324 VRB03KT P6SM SKC FM231400 01007KT P6SM FEW030 FM232200 05007KT P6SM FEW250", "KCRP 222320Z 2300/2324 15015G23KT P6SM SCT050 FM230500 16011KT P6SM FEW030 SCT050 FM231500 14013G20KT P6SM SCT050 BKN250 FM231800 14023G31KT P6SM BKN250", "KCRQ 221738Z 2218/2318 23010KT P6SM VCSH BKN030 FM230200 23013G20KT P6SM -RA OVC025 FM231100 26010G18KT P6SM VCSH OVC027 FM231600 23008KT P6SM OVC035", "KCRW 222320Z 2300/2324 VRB03KT P6SM FEW250 FM231300 15002KT P6SM SCT240 FM231800 11005KT P6SM SKC", "KCSG 222331Z 2300/2324 VRB05KT P6SM SCT250", "KCSM 222323Z 2300/2324 20020G30KT P6SM SCT250 FM231600 19024G37KT P6SM SCT120 BKN250", "KCSV 222324Z 2300/2324 15002KT P6SM FEW100 BKN200 FM231600 17006G12KT P6SM BKN200", "KCTB 222324Z 2300/2324 01017G25KT 4SM -RASN BR OVC008 TEMPO 2300/2304 2SM -SN OVC006 FM230400 36016G25KT 1SM -SN BR OVC004 TEMPO 2304/2308 3/4SM -SN BR OVC002 FM231600 34018G27KT 3SM -SN BR OVC010 FM232000 34017G25KT P6SM SCT008 BKN015", "KCUB 222329Z 2300/2324 00000KT P6SM SKC FM231500 VRB03KT P6SM SKC", "KCVG 222320Z 2300/2406 17007KT P6SM SCT250 FM231600 18013KT P6SM FEW250 FM232300 17007KT P6SM FEW250", "TAF COR KCVS 221815Z 2218/2324 24015G25KT 9999 BKN180 BKN240 QNH2974INS TEMPO 2219/2224 25020G35KT 9000 HZ 510008 BECMG 2223/2224 21012G20KT 9999 SCT180 BKN220 QNH2974INS BECMG 2303/2304 22015KT 9999 BKN120 BKN180 BKN220 QNH2973INS BECMG 2314/2315 22015G25KT 9999 FEW120 SCT180 BKN220 QNH2972INS BECMG 2316/2317 23020G35KT 9000 HZ FEW120 SCT180 BKN220 510009 QNH2972INS FEW120 SCT180 BKN220 QNH2963INS TEMPO 2318/2323 23025G45KT 8000 BLDU 520009 TX26/2222Z TN14/2312Z", "KCWA 221720Z 2218/2318 16008G15KT P6SM SCT250 FM230000 16008KT P6SM SKC WS020/20045KT FM230900 15007KT P6SM SKC WS015/20035KT FM231300 15010G17KT P6SM SCT150 FM231600 15012G20KT P6SM SCT120", "KCXO 222320Z 2300/2324 19012G22KT P6SM FEW060 FM230300 17010KT P6SM FEW025 FM230600 16005KT P6SM SCT025 FM231600 17012G22KT P6SM FEW030 SCT040 FM231800 16016G24KT P6SM FEW035 SCT050", "KCXP 222323Z 2300/2324 30009G20KT P6SM BKN040 BKN070 FM230200 33006KT P6SM SCT100 FM232000 03008G16KT P6SM SKC", "KCYS 222320Z 2300/2324 19015G25KT P6SM SCT150 FM230200 22010KT P6SM BKN150 FM231300 27008KT P6SM OVC100 FM231600 32025G35KT P6SM OVC070", "TAF KDAA 212000Z 2120/2302 VRB06KT 9999 SKC QNH3010INS TX19/2217Z TN06/2211Z LAST NO AMDS AFT 2201 NEXT 2412", "KDAB 222324Z 2300/2324 01008KT P6SM SKC FM230300 36005KT P6SM SKC FM231500 01010KT P6SM FEW040", "KDAG 222320Z 2300/2324 26035G45KT 6SM BLDU SCT050 SCT200 FM230800 26022G32KT P6SM BKN050 FM231200 27015G25KT P6SM SCT080 FM231700 32014KT P6SM SCT080", "KDAL 222320Z 2300/2324 18018G28KT P6SM BKN250 FM231000 18017G27KT P6SM BKN020 FM231700 18020G30KT P6SM SCT035 BKN250", "KDAN 222320Z 2300/2324 06003KT P6SM SCT250", "KDAY 222320Z 2300/2324 17007KT P6SM SCT180 SCT250 FM231600 18013KT P6SM FEW250 FM232300 16007KT P6SM FEW250", "KDBQ 222320Z 2300/2324 17015G26KT P6SM SKC WS020/18045KT FM231200 16014G24KT P6SM SKC FM231500 16019G30KT P6SM SCT160 FM231600 17021G34KT P6SM SCT040 SCT160", "KDCA 222330Z 2300/2406 12004KT P6SM BKN250 FM230200 VRB03KT P6SM BKN250 FM230800 35004KT P6SM BKN250 FM231400 02007KT P6SM BKN100 FM232000 02008KT P6SM SCT050 BKN100", "KDDC 222321Z 2300/2324 19010KT P6SM SKC FM230500 22013G21KT P6SM SKC WS020/25040KT FM231500 21024G34KT P6SM FEW250 FM231900 20034G49KT 3SM BLDU FEW250", "KDEC 222329Z 2300/2324 16014G19KT P6SM FEW250 WS020/19048KT FM230800 16013G19KT P6SM SCT050 BKN250 FM231500 17020G30KT P6SM SCT060 BKN180", "KDEN 222134Z 2222/2324 08006KT P6SM FEW120 FM230200 21012KT P6SM SCT120 SCT200 FM231200 21020G30KT P6SM SCT150 BKN200 FM231400 24030G40KT P6SM SCT150 BKN200 FM231900 28020G32KT P6SM SCT100 BKN150", "KDET 222320Z 2300/2324 16007KT P6SM BKN250 WS018/22035KT FM231000 17007KT P6SM SCT250 FM231600 16011KT P6SM FEW250", "KDFW 222320Z 2300/2406 18020G30KT P6SM BKN250 FM231000 18018G28KT P6SM BKN020 FM231700 18020G30KT P6SM SCT035 BKN250 FM240100 17017G27KT P6SM BKN250", "KDHN 221720Z 2218/2318 07006KT P6SM SKC", "KDHT 222333Z 2300/2324 22017G27KT P6SM SCT300 FM231600 22034G47KT P6SM SCT300", "KDIJ 222320Z 2300/2324 18011KT P6SM -RA OVC035 FM230300 34007KT 4SM -SN SCT010 OVC020 FM231800 30010KT P6SM -SN OVC040 AMD LTD TO CLD VIS AND WIND", "KDIK 222331Z 2300/2324 07009KT P6SM OVC150 FM230300 08012KT P6SM OVC050 FM230900 07013KT P6SM OVC020 FM231100 05012G20KT P6SM OVC008 FM231700 02014G22KT P6SM OVC014", "TAF AMD KDLF 212300Z 2123/2301 16012KT 9999 SKC QNH2998INS BECMG 2215/2216 14010G15KT 9999 FEW250 QNH2988INS TX28/2123Z TN13/2212Z LAST NO AMDS AFT 2123 NEXT 2318", "KDLH 222325Z 2300/2324 09011G20KT P6SM SCT250 FM230100 09008KT P6SM FEW250 WS020/19035KT FM230900 12006KT P6SM SCT250 FM231600 11013G22KT P6SM BKN150", "KDLS 222332Z 2300/2324 29015G25KT P6SM SCT040 BKN080 FM230600 30010KT P6SM FEW040 FM232000 30010G20KT P6SM BKN200", "TAF COR KDMA 222206Z 2214/2320 21010G20KT 9999 BKN090 QNH2992INS TEMPO 2222/2302 21020G30KT BECMG 2303/2304 20009KT 9999 SCT090 QNNH2993INS TX30/2222Z TN13/2314Z", "KDMN 222332Z 2300/2324 23016G26KT P6SM SCT080 BKN250 FM231500 26020G30KT P6SM BKN150 FM231800 24025G35KT P6SM BKN250", "KDNL 222329Z 2300/2324 VRB03KT P6SM SKC FM231500 02004KT P6SM SKC", "TAF KDOV 221600Z 2216/2322 VRB06KT 9999 SKC QNH3023INS BECMG 2303/2304 03006KT 9999 SCT020 QNH3024INS BECMG 2314/2315 02012KT 9000 -SHRA BKN015 QNH3025INS BECMG 2317/2318 02010G15KT 8000 -SHRA BKN010 OVC020 QNH3019INS TEMPO 2318/2322 02015G20KT BECMG 2321/2322 02012KT 9000 -RA BKN005 OVC012 QNH3017INS TX16/2219Z TN11/2304Z", "KDPA 222102Z 2221/2318 18015G25KT P6SM FEW300 FM230100 18012G18KT P6SM FEW200 WS015/20045KT FM231000 17009KT P6SM SCT050 FM231500 17014G25KT P6SM SCT050", "KDRO 221720Z 2218/2318 VRB04KT P6SM SKC FM221900 25014G24KT P6SM FEW250 FM230300 23020G33KT P6SM VCTS BKN080CB FM230600 24025G35KT P6SM -SHRA BKN050 FM231200 24022G34KT 6SM SHRA BR OVC030", "KDRT 221739Z 2218/2318 14012G22KT P6SM SKC FM230200 12011G21KT P6SM SKC FM231000 11010KT P6SM OVC012 FM231300 13012KT P6SM OVC007", "KDSM 222333Z 2300/2324 17009G15KT P6SM SKC FM231400 16016G25KT P6SM SCT250 FM232100 17021G33KT P6SM SCT250", "KDTW 222320Z 2300/2406 16007KT P6SM BKN250 WS018/22035KT FM231000 17007KT P6SM SCT250 FM231600 16011KT P6SM FEW250 FM240000 15006KT P6SM SKC", "KDUJ 222320Z 2300/2324 12005KT P6SM SKC", "KDVL 222328Z 2300/2324 05012KT P6SM BKN130 FM230700 05014KT P6SM BKN025 FM231000 05016KT P6SM OVC018 FM231700 07016G24KT P6SM BKN035 FM232000 07017G25KT P6SM BKN060", "KDVT 222320Z 2300/2324 24012G24KT P6SM SCT070 BKN080 FM230300 18012KT P6SM FEW060 SCT080 FM230900 21011G21KT P6SM BKN040 FM231100 24012KT P6SM FEW040 SCT060 FM231800 26010G20KT P6SM SCT070", "KEAR 222329Z 2300/2324 14010KT P6SM SKC FM231400 17013G20KT P6SM SKC FM231700 19028G42KT 4SM BLDU HZ SKC FM232300 20021G35KT 6SM BLDU HZ FEW100", "KEAT 222320Z 2300/2324 28012KT P6SM SKC FM231800 31005KT P6SM SKC", "KEAU 222325Z 2300/2324 14007KT P6SM SKC WS020/20040KT FM230800 14009KT P6SM SKC FM231400 15013G23KT P6SM SCT050 BKN150 FM231700 15020G30KT P6SM BKN050", "KECG 222328Z 2300/2324 01008KT P6SM BKN250 FM230800 36010KT P6SM VCSH OVC020 FM231100 34012KT P6SM VCSH OVC008 FM231400 35014G22KT 5SM -RA BR OVC006", "KECP 221720Z 2218/2318 06007KT P6SM SKC", "TAF AMD KEDW 220100Z 2201/2303 24012G22KT 9999 SKC QNH2982INS BECMG 2202/2203 24009KT 9999 SKC QNH2985INS BECMG 2217/2218 24012G22KT 9999 SCT060 510009 QNH2980INS BECMG 2220/2221 24020G30KT 9999 SCT060 520009 QNH2978INS BECMG 2300/2301 24020G30KT 8000 -RA BKN060 520009 QNH2977INS TX24/2222Z TN13/2214Z LAST NO AMDS AFT 2201 NEXT 2413", "KEED 222320Z 2300/2324 22022G32KT P6SM SCT200 FM230500 26018G28KT P6SM SCT080 FM230900 26014G22KT P6SM SCT080 FM231200 30011KT P6SM SCT080 FM231900 34012G22KT P6SM FEW080", "KEET 221737Z 2218/2318 17006KT P6SM FEW250 FM231500 14007KT P6SM FEW250", "TAF AMD KEFD 222033Z 2220/2402 18012G18KT 9999 FEW055 510025 QNH2991INS BECMG 2300/2301 17009KT 9999 FEW040 WS020/17042KT QNH2991INS BECMG 2316/2317 17012G18KT 9999 FEW040 510023 QNH2989INS BECMG 2400/2401 15009KT 9999 FEW030 510023 QNH2989INS TX30/2221Z TN21/2310Z", "KEFK 222320Z 2300/2324 19005KT P6SM SKC FM230900 00000KT P6SM SCT250 FM231800 12004KT P6SM BKN250", "KEGE 222119Z 2221/2318 22020G30KT P6SM SCT090 SCT200 FM230600 26012G25KT P6SM -SHRA SCT050 OVC070 FM230900 27015G35KT P6SM -SHRA SCT035 OVC050 FM231200 22015G30KT 2SM -SHRASN BR OVC020", "TAF AMD KEGI 220500Z 2205/2307 19006KT 9999 SKC QNH3007INS BECMG 2209/2210 08009KT 9999 SKC QNH3008INS BECMG 2221/2222 14009KT 9999 FEW250 QNH3006INS TX24/2221Z TN06/2209Z LAST NO AMDS AFT 2205 NEXT 2409", "KEKN 222320Z 2300/2324 00000KT P6SM SKC FM231100 12002KT 4SM BR SCT250 FM231200 00000KT 1SM BR SCT001 FM231300 12003KT P6SM FEW250", "KEKO 222321Z 2300/2324 28010KT 6SM -SHSN SCT010 OVC035 FM230300 25010G15KT 5SM -SHSN BR SCT020 OVC035 FM230600 25010G15KT P6SM VCSH SCT030 OVC060 FM231700 30016G22KT P6SM BKN050", "KEKS 222324Z 2300/2324 15011KT 3SM -RASN SCT010 OVC018 TEMPO 2301/2304 1SM -SN OVC008 FM230400 34007KT 1SM -SN BR SCT004 OVC008 TEMPO 2304/2308 1/2SM SN FZFG OVC002 FM231900 34015KT 3SM -SN BR SCT008 OVC015", "KELD 221741Z 2218/2318 19014G25KT P6SM SCT040 SCT250 FM230100 17009KT P6SM SCT250 FM231200 17008KT P6SM SCT030 BKN190 FM231500 18012G20KT P6SM SCT040 BKN200", "KELM 222320Z 2300/2324 16004KT P6SM SKC FM230900 VRB03KT 6SM BR FEW003 TEMPO 2309/2312 3SM BR FM231200 15005KT P6SM SCT250", "KELP 222332Z 2300/2324 24017G27KT P6SM FEW080 BKN250 FM231200 23020G30KT P6SM BKN150 FM231900 24025G35KT P6SM BKN250", "KELY 222325Z 2300/2324 33010KT 3SM -SHSN BR SCT010 BKN020 TEMPO 2300/2302 36010KT 1SM -SN BR FEW009 SCT017 FM230400 35007KT 6SM -SHSN SCT020 OVC035 FM230800 30007KT P6SM VCSH SCT020 OVC040 FM231900 34016G24KT P6SM BKN050", "TAF KEND 221800Z 2218/2324 19018G28KT 9999 SKC QNH2951INS BECMG 2223/2224 19012G18KT 9999 FEW100 QNH2951INS BECMG 2311/2312 18020G35KT 9999 FEW100 SCT170 QNH2960INS BECMG 2320/2321 19020G45KT 9999 FEW250 530002 QNH2953INS TX33/2221Z TN21/2312Z", "KENV 222320Z 2300/2324 31010G20KT P6SM VCSH FEW080 BKN100 FM231600 33015G30KT P6SM BKN100 FM232200 34012G25KT P6SM SKC", "KENW 222327Z 2300/2324 16008KT P6SM SKC WS020/19035KT FM230300 18009KT P6SM SKC WS020/20040KT FM230900 17006KT P6SM FEW250 WS020/22035KT FM231400 16012G22KT P6SM FEW250 FM232300 17014G24KT P6SM SCT180", "KERI 222329Z 2300/2324 17009KT P6SM FEW250", "KEUG 222330Z 2300/2324 25008KT P6SM VCSH SCT025 BKN045 BKN070 FM230600 21004KT P6SM BKN035 BKN060 FM231500 20004KT P6SM BKN045 FM231900 19005KT P6SM SCT045 BKN250", "KEUL 222333Z 2300/2324 29010G20KT P6SM SCT050 FM230200 30010KT P6SM BKN050 FM232000 29015G25KT P6SM FEW050 AMD NOT SKED", "KEVV 222330Z 2300/2324 17008KT P6SM SCT200 FM231400 18014G22KT P6SM SCT250", "KEVW 222329Z 2223/2324 20020G35KT 2SM -SN FEW010 BKN020 OVC030 TEMPO 2300/2304 1/4SM +SN FEW007 BKN010 OVC020 FM230600 29007KT P6SM OVC050 FM231800 28014G26KT P6SM -SN SCT040 OVC060", "KEWN 222333Z 2300/2324 05010KT P6SM BKN250 FM230400 02010KT P6SM SCT050 BKN120 FM231100 36010G20KT P6SM BKN025 FM231400 36010G20KT P6SM -SHRA BKN009 FM231900 35010G20KT P6SM SCT012 BKN035", "KEWR 222320Z 2300/2406 VRB04KT P6SM BKN250 FM230500 02005KT P6SM FEW015 BKN250 FM231200 03008KT P6SM SCT025 BKN120 PROB30 2318/2321 6SM -RA BR BKN025 BKN080 FM232100 04009KT 6SM -RA BR BKN025 OVC050 FM240100 01009KT 5SM -RA BR SCT008 BKN015 FM240400 01009KT 5SM -RA BR BKN008", "KEYW 222322Z 2300/2324 04010KT P6SM SKC", "TAF AMD KFAF 220300Z 2203/2308 VRB06KT 9999 FEW210 QNH3018INS BECMG 2301/2302 VRB06KT 9999 SCT045 QNH3020INS BECMG 2304/2305 04009KT 9999 BKN012 OVC025 QNH3017INS TX19/2219Z TN09/2207Z LAST NO AMDS AFT 2203 NEXT 2410", "KFAR 222328Z 2300/2324 06010KT P6SM SCT150 FM230600 VRB05KT P6SM SCT250 FM231600 13012G18KT P6SM FEW250 FM231900 13017G26KT P6SM FEW250", "KFAT 222320Z 2300/2324 25006KT P6SM BKN050 BKN250 FM232100 32013KT P6SM SKC", "KFAY 222320Z 2300/2324 05007KT P6SM FEW045 SCT250", "TAF KFBG 221700Z 2217/2323 04008KT 9999 FEW060 QNH3019INS TX21/2218Z TN08/2308Z", "TAF COR KFCS 222119Z 2213/2319 23015KT 9999 SKC QNH2968INS BECMG 2218/2219 25020G30KT 9999 FEW200 QNH2952INS BECMG 2300/2301 20008KT 9999 SKC QNH2950INS BECMG 2305/2306 23025G35KT 9999 SCT080 QNH2953INS BECMG 2308/2309 23035G45KT 9999 FEW080 QNH2949INS TX24/2222Z TN09/2313Z LAST NO AMDS AFT 2221 NEXT 2405", "KFDY 222329Z 2300/2324 19010KT P6SM SCT250", "TAF KFFO 221900Z 2219/2401 19012KT 9999 BKN250 510043 QNH3001INS TEMPO 2219/2222 18012G18KT BECMG 2302/2303 VRB06KT 9999 SCT220 510102 QNH3007INS BECMG 2313/2314 17012KT 9999 FEW050 SCT180 510072 QNH3008INS TEMPO 2315/2322 19012G18KT BECMG 2322/2323 17006KT 9999 SKC QNH3009INS 510102 TX25/2220Z TN12/2312Z", "TAF KFHU 212200Z 2122/2304 24011G16KT 9999 SCT070 BKN260 520005 QNH3003INS BECMG 2201/2202 23009KT 9999 SCT260 QNH3003INS BECMG 2215/2216 19012G22KT 9999 SCT060 BKN210 530104 QNH2986INS TEMPO 2219/2302 22025G37KT 560005 TX27/2122Z TN14/2213Z LAST NO AMDS AFT 2206 NEXT 2406", "KFKL 222320Z 2300/2324 12005KT P6SM SKC", "KFLG 222322Z 2300/2324 22023G38KT P6SM VCSH SCT040 FM230500 22028G48KT P6SM VCSH BKN030 TEMPO 2305/2309 4SM -SHRA OVC020 FM230900 23030G45KT P6SM VCSH OVC030 FM231600 24020G30KT P6SM VCSH OVC030", "KFLL 222320Z 2300/2406 04012KT P6SM FEW040 FM230200 01006KT P6SM FEW050 FM230600 35006KT P6SM FEW050 FM231500 02010KT P6SM FEW050 FM240200 05005KT P6SM SKC", "KFLO 222320Z 2300/2324 01004KT P6SM FEW250 FM231400 01006KT P6SM SKC", "KFMH 222326Z 2300/2324 VRB03KT P6SM BKN120 FM231400 05007KT P6SM VCSH SCT030 OVC050 FM231600 05008KT 5SM -RA BR OVC015 FM231900 04010G18KT 2SM -RA BR OVC005", "KFMN 222330Z 2300/2324 23015G22KT P6SM FEW070 FM230300 20012G22KT P6SM FEW050 FM230700 23020G30KT P6SM VCSH BKN050 OVC090 FM231500 27022G33KT P6SM VCSH BKN030 OVC080 FM231900 29020G30KT P6SM BKN040 BKN070 FM232300 29012KT P6SM BKN040", "KFMY 222325Z 2300/2324 32006KT P6SM SKC FM230200 04003KT P6SM SKC FM231500 04008KT P6SM FEW040 FEW250", "KFNT 222320Z 2300/2324 16007KT P6SM BKN250 WS018/22035KT FM231000 17007KT P6SM SCT250 FM231600 16012KT P6SM FEW250", "KFOD 222333Z 2300/2324 18010G18KT P6SM SKC FM231200 15015G25KT P6SM FEW250 FM231600 16021G30KT P6SM SCT250 FM232200 16023G35KT P6SM SCT250", "KFOE 222333Z 2300/2324 18014G25KT P6SM SKC FM230200 17015G23KT P6SM SKC WS015/18045KT FM231400 18019G30KT P6SM FEW250 FM231700 19025G37KT P6SM SCT200", "KFPR 222324Z 2300/2324 05006KT P6SM SCT035 FM230300 35004KT P6SM SCT030 FM231500 01008KT P6SM FEW050", "TAF KFRI 212003Z 2120/2302 21010G20KT 9999 SKC QNH2986INS BECMG 2123/2124 18009KT 9999 BKN025 QNH2965INS TX30/2121Z TN08/2212Z LAST NO AMDS AFT 2120 NEXT 2412", "KFSD 222328Z 2300/2324 15008KT P6SM FEW250 FM231300 13011KT P6SM SCT005 FM231500 13016G23KT P6SM SCT006 FM231700 15019G30KT P6SM FEW200 FM231900 17022G34KT P6SM FEW200", "KFSM 222320Z 2300/2324 18013G23KT P6SM SCT250 FM230100 15012KT P6SM BKN250 WS020/20040KT FM231400 17014G24KT P6SM BKN025 BKN100 FM231800 19014G26KT P6SM SCT035 BKN250", "KFST 222327Z 2300/2324 20010KT P6SM SCT250 FM230200 17015KT P6SM SCT250", "TAF KFTK 211900Z 2119/2301 19012G20KT 9999 SCT250 QNH2993INS BECMG 2122/2123 16008KT 9999 SCT250 QNH2994INS BECMG 2215/2216 18012G18KT 9999 FEW050 BKN250 510005 QNH2999INS BECMG 2222/2223 17008KT 9999 FEW050 BKN250 QNH3000INS TX24/2219Z TN10/2212Z LAST NO AMDS AFT 2203 NEXT 2411", "KFTW 222320Z 2300/2324 18020G30KT P6SM BKN250 FM231000 18017G27KT P6SM BKN020 FM231700 18020G30KT P6SM SCT035 BKN250", "KFTY 222331Z 2300/2324 VRB05KT P6SM SCT250", "KFVE 222325Z 2300/2324 18008KT P6SM SCT250", "KFWA 222331Z 2300/2324 16008KT P6SM SCT250 WS017/21040KT FM231400 18013G21KT P6SM FEW250", "KFXE 222320Z 2300/2324 03012KT P6SM FEW040 FM230200 01006KT P6SM FEW050 FM230600 35006KT P6SM FEW050 FM231500 02010KT P6SM FEW050", "KFYV 222320Z 2300/2324 18020G30KT P6SM FEW250 FM230200 18015G27KT P6SM BKN250 WS020/20045KT FM231500 18018G30KT P6SM BKN025 BKN100 FM231900 18020G34KT P6SM SCT100 BKN250", "KGBD 222328Z 2300/2324 16011KT P6SM SKC FM230600 19011G22KT P6SM FEW250 FM231900 21031G50KT 6SM BLDU FEW250", "KGCC 222324Z 2300/2324 22025G40KT P6SM BKN150 FM230300 21009KT P6SM SCT040 BKN120 FM231400 32015KT 3SM -SN OVC020 FM231800 32025G35KT 3/4SM -SN OVC005", "KGCK 222321Z 2300/2324 18010KT P6SM SKC FM230500 22013KT P6SM SKC WS020/24040KT FM231500 21024G34KT P6SM FEW250 FM232100 20035G50KT 3SM BLDU FEW250", "KGCN 222322Z 2300/2324 21025G35KT P6SM BKN050 FM230900 23024G42KT P6SM VCSH OVC020 TEMPO 2309/2313 4SM -SHRA OVC020 FM231500 26015G27KT P6SM SCT025", "KGDV 221733Z 2218/2318 05008KT 3/4SM BR OVC002 FM221900 08015G22KT P6SM OVC013 FM230100 04018G26KT P6SM OVC070 PROB30 2310/2315 6SM -RA BR OVC050 FM231600 02015KT 5SM -RA BR OVC010", "KGEG 222320Z 2300/2324 28005KT P6SM FEW045 BKN070 FM230300 23005KT P6SM -RA BKN030 FM230600 31004KT P6SM OVC060 FM231100 VRB03KT P6SM BCFG SCT005 BKN040 FM232300 31004KT P6SM BKN050", "TAF KGFA 212000Z 2120/2302 25012KT 9999 BKN040 OVC060 QNH2955INS TEMPO 2121/2123 VRB06KT 9000 -RA BKN030 OVC050 BECMG 2123/2124 VRB06KT 9000 -RA BKN026 OVC040 QNH2953INS BECMG 2203/2204 22009KT 9999 NSW SCT025 OVC040 QNH2944INS BECMG 2213/2214 VRB06KT 9999 BKN024 OVC030 QNH2939INS BECMG 2218/2219 31009KT 9000 -RA BKN010 OVC016 QNH2943INS BECMG 2222/2223 28006KT 9000 -RA OVC007 QNH2950INS BECMG 2300/2301 28006KT 9000 BR FEW001 OVC009 510012 QNH2953INS TX10/2122Z TN04/2220Z LAST NO AMDS AFT 2123 NEXT 2412", "KGFK 222328Z 2300/2324 06011KT P6SM OVC140 FM230500 02009KT P6SM SCT250 FM231500 06009KT P6SM BKN100 FM231800 09011KT P6SM BKN150 FM232100 11015G21KT P6SM BKN150", "KGFL 222320Z 2300/2324 VRB03KT P6SM BKN250 FM231800 04003KT P6SM BKN100 FM232200 36007KT P6SM FEW040 BKN080", "KGGG 221741Z 2218/2318 20019G30KT P6SM FEW040 FEW250 FM230100 17012G20KT P6SM SCT250 FM231000 17007KT P6SM SCT160 FM231500 17014G24KT P6SM SCT025 BKN070", "KGGW 221733Z 2218/2318 10015KT P6SM OVC013 FM222000 07015KT 2SM -RA BR OVC013 TEMPO 2221/2301 RA OVC005 FM230200 04015G25KT P6SM OVC013 PROB30 2313/2315 RA OVC008 FM231500 03015G23KT 1SM RA BR OVC013 PROB30 2315/2318 RA OVC005", "KGJT 222116Z 2221/2318 19020G30KT P6SM SCT110 SCT250 FM230200 17020G35KT P6SM VCSH SCT070 BKN100 FM230800 22015G23KT 6SM -SHRA BR SCT030 OVC070 FM231200 30012KT 4SM -SHRA BR OVC040", "KGKY 222320Z 2300/2324 18018G28KT P6SM BKN250 FM231000 18017G27KT P6SM BKN020 FM231700 18020G30KT P6SM SCT035 BKN250", "KGLD 221720Z 2218/2318 15008KT P6SM SKC FM222000 20010KT P6SM SKC FM230900 21015G25KT P6SM SKC FM231700 21029G40KT 6SM BLDU SKC", "KGLH 221731Z 2218/2318 19017G25KT P6SM SCT040 FM230000 17010KT P6SM SKC FM231600 18015G23KT P6SM SCT040", "KGLS 222320Z 2300/2324 16014KT P6SM FEW030 FM231200 16011KT P6SM FEW025 SCT040 FM231700 15015KT P6SM SCT045 SCT060", "KGMU 222326Z 2300/2324 02003KT P6SM FEW250 FM231500 07004KT P6SM FEW250", "KGNV 222320Z 2300/2324 VRB03KT P6SM SKC FM231400 02007KT P6SM FEW030 FM232100 05006KT P6SM FEW250", "KGON 222320Z 2300/2324 VRB04KT P6SM BKN250 FM230700 03006KT P6SM FEW015 BKN250 FM231200 04009KT P6SM SCT025 BKN120 PROB30 2316/2319 6SM -RA BR BKN025 BKN080 FM231900 04011G18KT 6SM -RA BR BKN020 OVC040", "KGPI 222334Z 2300/2324 01004KT 6SM -RA BR FEW015 BKN025 OVC035 FM230100 02007KT 5SM -RA BR SCT015 OVC025 FM230400 04012KT 6SM -SHRASN SCT015 OVC022 TEMPO 2306/2309 1 1/2SM -SN OVC015", "KGPT 222328Z 2300/2324 14009KT P6SM SKC FM230200 15003KT P6SM SKC FM231500 15005KT P6SM SKC FM231700 14011KT P6SM FEW050 FM232300 13006KT P6SM SKC", "KGRB 222125Z 2221/2318 20008KT P6SM SKC FM222300 18007KT P6SM SKC WS018/21045KT FM230900 16008KT P6SM SKC FM231400 16011G20KT P6SM SCT200", "TAF KGRF 222100Z 2221/2403 24006KT 9999 SCT015 BKN035 610503 QNH2973INS TEMPO 2221/2304 9000 -SHRA BECMG 2304/2305 02005KT 9999 BKN030 QNH2982INS BECMG 2312/2313 17005KT 6000 BR BKN015 QNH3003INS BECMG 2319/2320 18005KT 9999 NSW BKN030 QNH3013INS TX12/2221Z TN05/2314Z", "KGRI 222329Z 2300/2324 16010KT P6SM SKC FM231400 18012G18KT P6SM SKC FM231700 20027G40KT 4SM BLDU HZ SKC FM232300 21021G35KT 6SM BLDU HZ FEW100", "TAF KGRK 221600Z 2216/2322 18015G25KT 9999 SKC QNH2973INS BECMG 2300/2301 18014KT 9999 FEW300 QNH2973INS BECMG 2310/2311 17012G18KT 9999 SCT020 QNH2977INS BECMG 2315/2316 17020G30KT 9999 SCT020 QNH2972INS TX31/2221Z TN19/2312Z", "KGRR 222325Z 2300/2324 16008KT P6SM SKC FM231500 17013KT P6SM SCT040 SCT100 FM231700 17014G24KT P6SM SCT040 SCT100 FM232000 15010KT P6SM BKN250", "TAF KGSB 222000Z 2220/2402 03009KT 9999 FEW030 SCT200 QNH3009INS BECMG 2313/2314 34010G15KT 9999 OVC010 QNH3014INS TEMPO 2318/2322 OVC018 TX24/2221Z TN11/2308Z LAST NO AMDS AFT 2220 NEXT 2304", "KGSO 222320Z 2300/2324 VRB03KT P6SM FEW250", "KGSP 222326Z 2300/2324 VRB03KT P6SM FEW250 FM231700 08004KT P6SM FEW250", "TAF KGTB 221700Z 2217/2323 19012G20KT 9999 SKC 520053 QNH3010INS BECMG 2219/2220 18006KT 9999 SKC QNH3013INS TX22/2217Z TN07/2312Z", "KGTF 222324Z 2300/2324 34010KT 4SM RASN BR SCT006 OVC012 FM230200 34010KT 2SM RASN BR OVC006 TEMPO 2302/2306 1/2SM SN FZFG OVC003 FM230600 33013G21KT 1/2SM SN FZFG OVC002 FM231600 34016G25KT 1SM -SN BR OVC008 FM231900 34018G27KT 3SM -SN BR OVC012", "KGTR 221731Z 2218/2318 17010G17KT P6SM SCT070 FM222100 16009KT P6SM SKC", "KGUC 221720Z 2218/2318 24012G22KT P6SM FEW250 FM222000 26020G35KT P6SM FEW250 FM230200 25025G35KT P6SM VCSH SCT110 FM231100 26025G35KT P6SM -SHRA SCT040 OVC060", "KGUP 222330Z 2300/2324 23027G35KT P6SM BKN060 FM230100 22025G35KT P6SM SCT050 SCT200 WS020/22055KT FM231200 22025G33KT P6SM VCSH OVC030 TEMPO 2315/2318 23028G37KT 6SM -SHRA OVC020 FM231900 26020G30KT P6SM BKN040 FM232300 27012KT P6SM VCSH BKN030", "TAF AMD KGUR 221407Z 2213/2319 VRB06KT 9999 SKC QNH2952INS BECMG 2218/2219 24020G30KT 9999 SKC 510009 QNH2937INS BECMG 2223/2224 23012KT 9999 SKC 510009 QNH2932INS BECMG 2309/2310 23004KT 9999 FEW070 BKN100 OVC130 QNH2926INS BECMG 2316/2317 30020G25KT 9999 FEW023 SCT030 OVC050 510063 QNH2933INS TX23/2221Z TN04/2213Z LAST NO AMDS AFT 2205 TILL 2405", "TAF KGUS 222100Z 2221/2403 19015G25KT 9999 SKC QNH2990INS BECMG 2223/2224 17012KT 9999 SKC QNH2994INS BECMG 2306/2307 17012KT 9999 SCT030 QNH3003INS BECMG 2309/2310 17012KT 9999 SCT030 OVC065 QNH3003INS BECMG 2313/2314 18015G25KT 9999 SCT030 OVC065 QNH3007INS BECMG 2315/2316 18015G25KT 9999 FEW055 QNH2998INS BECMG 2323/2324 17012KT 9999 FEW060 BKN090 QNH3000INS TX22/2320Z TN14/2309Z LAST NO AMDS AFT 2303 NEXT 2313", "KGUY 222333Z 2300/2324 21019G29KT P6SM SKC FM231500 21034G50KT P6SM SCT300", "KGWO 221731Z 2218/2318 19015G22KT P6SM SCT040 FM222300 17010KT P6SM SKC FM231500 18014G21KT P6SM SCT040", "KGYY 222102Z 2221/2318 18015G25KT P6SM FEW300 FM230100 17012G18KT P6SM FEW200 WS015/20045KT FM231000 17009KT P6SM SCT050 FM231500 17015G25KT P6SM SCT050", "KHBG 221731Z 2218/2318 17009KT P6SM FEW060", "KHCR 222320Z 2300/2324 33010KT 4SM RASN OVC030 TEMPO 2301/2305 1/2SM SN FM230500 VRB04KT P6SM VCSH OVC030", "KHDC 222328Z 2300/2324 14006KT P6SM SKC FM230200 14003KT P6SM SKC FM231500 14006KT P6SM SKC FM231700 15010KT P6SM FEW040 FM232300 14004KT P6SM SKC", "KHDN 222119Z 2221/2318 24020G30KT P6SM SCT100 FM230400 25014G24KT P6SM -SHRA SCT040 OVC060 FM230600 25008KT 3SM -SHRA BR OVC020 FM231100 24006KT 2SM -SHSNRA BR OVC010", "KHIB 222325Z 2300/2324 09007KT P6SM SCT250 FM230200 11006KT P6SM FEW250 WS020/19035KT FM230900 15005KT P6SM FEW250 FM231500 15009G18KT P6SM SCT080 FM232300 12012G21KT P6SM BKN040", "KHIE 222320Z 2300/2324 00000KT P6SM SCT250 FM231500 21004KT P6SM BKN100", "TAF KHIF 212105Z 2121/2303 20012KT 9999 SKC QNH2979INS BECMG 2200/2201 16010G15KT 9999 SCT120 BKN180 QNH2975INS BECMG 2209/2210 17020G30KT 9999 SCT080 BKN120 510003 QNH2968INS BECMG 2215/2216 24010G20KT 8000 -SHRA BKN050 OVC080 QNH2965INS BECMG 2223/2224 14009KT 6000 -RASN BKN030 OVC050 620309 QNH2966INS TX22/2121Z TN08/2213Z", "KHIO 222330Z 2300/2324 32010KT P6SM VCSH SCT030 BKN060 FM230300 30005KT P6SM SCT050 FM230900 00000KT 2SM BR SCT002 BKN070 FM231600 00000KT P6SM BKN250 FM232000 23004KT P6SM SCT120 BKN200", "KHKS 221731Z 2218/2318 18012G20KT P6SM SCT080 FM230000 17009KT P6SM SKC FM231600 17012G18KT P6SM SCT080", "KHKY 222326Z 2300/2324 00000KT P6SM FEW250 FM231000 VRB03KT P6SM FEW250", "KHLG 222320Z 2300/2324 12005KT P6SM SKC", "KHLN 222324Z 2300/2324 31008KT 5SM -RASN BR SCT015 OVC025 TEMPO 2302/2305 2SM RASN BR BKN012 FM230500 32009KT 2SM -SN BR SCT008 OVC012 TEMPO 2305/2308 1SM -SN BR OVC008 FM231600 32013G22KT 3SM -SN BR OVC017 FM232100 33012G22KT 5SM -SN BR OVC020", "KHNB 222320Z 2300/2324 16008KT P6SM BKN250 FM231400 18017G23KT P6SM SKC", "KHND 222320Z 2300/2324 21034G45KT 4SM BLDU SCT120 BKN200 FM230400 25020G30KT P6SM SCT070 BKN100 FM230600 34015G25KT P6SM VCSH SCT070 BKN100 FM231100 34015G25KT P6SM SCT100", "KHOB 222327Z 2300/2324 20011KT P6SM FEW120 BKN250", "KHON 222328Z 2300/2324 VRB03KT P6SM SCT250 FM230400 14007KT P6SM SKC WS009/16035KT FM231500 14018G27KT P6SM SCT006 FM231700 15019G30KT P6SM SCT250 FM232100 17020G34KT P6SM FEW200 FM232300 19017G27KT P6SM FEW120", "TAF KHOP 221600Z 2216/2322 18012G18KT 9999 BKN060 BKN200 510006 QNH3000INS BECMG 2221/2222 17009KT 9999 BKN060 BKN200 WS015/18035KT 510006 QNH3004INS BECMG 2315/2316 18010G20KT 9999 SKC 510006 QNH3005INS TX22/2220Z TN15/2312Z", "KHOT 222335Z 2300/2324 18008G16KT P6SM FEW250 FM230100 17007G14KT P6SM SCT250 WS020/20045KT FM231400 19010G20KT P6SM SCT025 BKN050", "KHOU 222320Z 2300/2324 17016G25KT P6SM FEW060 SCT250 FM230100 17009KT P6SM FEW040 FEW060 FM230800 17005KT P6SM FEW025 SCT040 FM231530 17012G22KT P6SM FEW030 SCT040 FM231800 16015G24KT P6SM FEW035 SCT060", "KHPN 222320Z 2300/2324 VRB03KT P6SM BKN250 FM231300 03005KT P6SM FEW025 BKN120 PROB30 2317/2320 6SM -RA BR BKN025 BKN080 FM232000 06007KT 6SM -RA BR BKN025 OVC050 AMD NOT SKED", "KHQM 221728Z 2218/2318 31006KT P6SM FEW020 FM221900 26012KT P6SM BKN060 FM230400 30008KT P6SM SCT060 FM231200 02007KT P6SM SCT060", "KHRL 222320Z 2300/2324 15017G24KT P6SM SCT050 SCT250 FM230300 17010KT P6SM SCT050 FM231500 17020G28KT P6SM SCT050 SCT250 FM231900 16025G33KT P6SM SCT040 SCT060 BKN250", "KHRO 222335Z 2300/2324 16015G25KT P6SM SKC FM230100 16012G24KT P6SM SCT250 WS020/20050KT FM231400 18016G26KT P6SM FEW030 SCT250", "TAF KHRT 221800Z 2218/2324 17009KT 9999 SKC QNH3008INS WND 03006KT AFT 2303 TX24/2220Z TN07/2311Z", "TAF KHST 221900Z 2219/2401 04012G19KT 9999 FEW035 BKN070 QNH2993INS BECMG 2223/2224 35008KT 9999 SCT025 QNH2997INS BECMG 2314/2315 03009KT 9999 SCT035 SCT060 QNH2996INS BECMG 2323/2324 VRB06KT 9999 FEW025 QNH3000INS TX29/2219Z TN19/2310Z", "KHSV 222320Z 2300/2324 14006KT P6SM BKN250 FM231600 16007KT P6SM SCT250 FM232300 15005KT P6SM FEW250", "KHTS 222320Z 2300/2324 VRB04KT P6SM FEW250 FM231300 16003KT P6SM SCT180 FM231800 14006KT P6SM SKC", "TAF KHUA 212000Z 2120/2302 18009KT 9999 SKC QNH3000INS TX24/2121Z TN10/2212Z LAST NO AMDS AFT 2200 NEXT 2412", "KHUF 222320Z 2300/2324 17009KT P6SM SCT120 BKN250 FM231300 17011G24KT P6SM SCT250 FM231700 18017G28KT P6SM FEW250", "KHUL 222325Z 2300/2324 19006KT P6SM SKC FM230900 VRB03KT 3SM BR FEW002 FM231200 18008KT P6SM SCT250", "KHUM 222328Z 2300/2324 12005KT P6SM SKC FM230200 15003KT P6SM SKC FM231500 13008KT P6SM FEW250 FM231900 13011G17KT P6SM FEW040 FEW250 FM232200 13009KT P6SM FEW040", "KHUT 222328Z 2300/2324 17011KT P6SM SKC FM230700 18015KT P6SM FEW250 WS020/23045KT FM231600 19023G33KT P6SM FEW240 FM232100 20032G44KT 6SM BLDU SCT250", "KHVR 222324Z 2300/2324 04010G18KT 5SM -RA BR SCT008 OVC012 FM230200 04013G21KT 3SM RASN BR OVC008 TEMPO 2302/2304 1SM -SN BR OVC004 FM230400 03013G22KT 1/2SM SN FZFG OVC003 FM231800 36018G28KT 3SM -RASN BR OVC010 FM232100 34016KT 5SM -RASN BR OVC019 AMD NOT SKED", "KHYA 222326Z 2300/2324 VRB03KT P6SM BKN120 FM231400 05007KT P6SM VCSH SCT020 OVC040 FM231600 05008KT 5SM -RA BR OVC015 FM231900 03012G19KT 2SM -RA BR OVC007", "KHYR 222325Z 2300/2324 15007KT P6SM SKC WS020/20045KT FM230900 16008G16KT P6SM FEW250 FM231500 15011G24KT P6SM SCT150", "KHYS 222321Z 2300/2324 17009KT P6SM SKC FM231300 21013G23KT P6SM SKC FM231600 20022G31KT P6SM FEW250 FM232000 20034G49KT 3SM BLDU FEW250", "TAF KIAB 221800Z 2218/2324 18015G25KT 9999 SKC QNH2948INS BECMG 2223/2224 18012G18KT 9999 SKC QNH2950INS BECMG 2304/2305 18015G25KT 9999 FEW180 WS020/22050KT QNH2951INS BECMG 2316/2317 18025G35KT 9999 BKN180 QNH2953INS TX29/2220Z TN17/2311Z", "KIAD 222330Z 2300/2406 15004KT P6SM FEW250 FM230300 00000KT P6SM FEW250 FM230900 35003KT P6SM SCT250 FM231400 35005KT P6SM BKN200 FM232100 02006KT P6SM BKN150", "KIAG 222105Z 2221/2318 18008KT P6SM SKC FM230500 17006KT P6SM SKC FM231400 VRB03KT P6SM SCT250", "KIAH 222320Z 2300/2406 17014G24KT P6SM FEW060 SCT250 FM230200 17010KT P6SM FEW040 FEW060 FM230800 16005KT P6SM FEW025 SCT040 FM231530 16012G20KT P6SM FEW030 SCT040 FM231900 16015G23KT P6SM FEW035 SCT050 FM240200 15010KT P6SM FEW060 SCT220", "KICT 222328Z 2300/2324 17013KT P6SM FEW250 FM230100 16010KT P6SM SKC FM230900 18015KT P6SM FEW250 WS020/22045KT FM231500 19021G29KT P6SM SCT250 FM232000 18027G40KT 6SM BLDU SCT210", "KIDA 222320Z 2300/2324 20015G25KT P6SM VCSH OVC018 FM230300 22011KT P6SM -RASN BKN015 OVC030 FM231000 22011KT 6SM -SN OVC020 FM231800 35011KT P6SM VCSH OVC050", "KIFP 222320Z 2300/2324 19022G32KT P6SM SCT200 FM230700 26014G22KT P6SM SCT080 FM231000 30011KT P6SM SCT080 FM231700 34012G22KT P6SM FEW080", "KILG 221742Z 2218/2318 VRB04KT P6SM FEW250 FM231300 03007KT P6SM OVC250", "KILM 222320Z 2300/2324 01006KT P6SM SCT240 FM231400 35009KT P6SM SCT200", "KILN 222320Z 2300/2324 17006KT P6SM SCT250 FM231600 18013KT P6SM FEW250 FM232300 16007KT P6SM FEW250", "KIND 222320Z 2300/2406 17009KT P6SM SCT120 BKN250 FM231500 17012G23KT P6SM SCT250 FM232300 17013KT P6SM FEW250", "KINK 222327Z 2300/2324 20010KT P6SM FEW120 SCT250 FM230300 15011KT P6SM SCT250", "KINL 222325Z 2300/2324 08007KT P6SM SCT150 OVC250 FM231400 12006KT P6SM SCT150 FM231900 12010G18KT P6SM SCT070", "TAF KINS 220503Z 2205/2311 20008KT 9999 SKC QNH2965INS BECMG 2216/2217 21013G22KT 9999 FEW250 QNH2958INS BECMG 2218/2219 21018G33KT 9000 BLDU FEW210 BKN250 520009 QNH2945INS BECMG 2221/2222 22027G46KT 6000 BLDU FEW130 BKN150 530009 QNH2940INS VIRGA OMTNS TEMPO 2300/2302 22033G50KT 4800 BLDU 570009 BECMG 2302/2303 26016G27KT 9999 VCSH BKN070 510009 QNH2944INS BECMG 2303/2304 34014G25KT 8000 -SHRA BKN050 510009 QNH2949INS BECMG 2306/2307 34014G25KT 9999 NSW BKN050 510009 QNH2962INS TX24/2222Z TN10/2213Z LAST NO AMDS AFT 2205 NEXT 2405", "KINT 222320Z 2300/2324 VRB03KT P6SM FEW250", "KINW 222322Z 2300/2324 21020G35KT P6SM FEW070 FM230900 21024G45KT P6SM VCSH SCT090 FM231600 25022G35KT P6SM VCSH BKN035", "KIPL 222320Z 2300/2324 25016G29KT P6SM SKC TEMPO 2302/2306 27024G41KT 2SM BLDU FM230900 27013G24KT P6SM SKC FM231600 32011KT P6SM SKC", "KIPT 222321Z 2300/2324 09004KT P6SM SKC TEMPO 2308/2312 6SM BR SCT003", "KISM 222324Z 2300/2324 06012KT P6SM SKC FM230100 03005KT P6SM SKC FM231800 02008KT P6SM FEW050", "KISO 222333Z 2300/2324 04008KT P6SM BKN250 FM231000 03008KT P6SM SCT040 BKN120 FM231500 36010G20KT P6SM FEW009 BKN025 FM231900 35010G20KT P6SM SCT025 BKN035 AMD LTD TO CLD VIS AND WIND", "KISP 222320Z 2300/2324 VRB04KT P6SM BKN250 FM230500 03006KT P6SM FEW015 BKN250 FM231200 04009KT P6SM SCT025 BKN120 PROB30 2315/2318 6SM -RA BR BKN025 BKN080 FM231800 04012G19KT 5SM -RA BR BKN020 OVC040 FM232300 04011G18KT 4SM -RA BR BKN008 OVC015", "KITH 222320Z 2300/2324 13006KT P6SM SKC FM231600 16005KT P6SM SCT250", "KIWA 222320Z 2300/2324 21012G24KT P6SM SCT070 BKN080 FM230300 17012KT P6SM FEW060 SCT080 FM231000 22011G21KT P6SM BKN040 FM231200 25011KT P6SM FEW040 SCT060 FM231800 27011G22KT P6SM SCT070", "KIWD 221720Z 2218/2318 16006KT P6SM SCT250 FM230000 15008KT P6SM FEW250 WS020/19045KT FM230100 17007KT P6SM FEW250 WS020/19045KT", "KIXD 222331Z 2300/2324 18012G20KT P6SM SKC FM231400 18018G28KT P6SM SCT250 FM232200 18022G35KT P6SM SCT250", "KJAC 222327Z 2300/2324 21012G20KT 3SM -SN SCT012 OVC030 FM230300 19011KT P6SM VCSH SCT025 OVC035 FM231300 VRB05KT P6SM VCSH BKN040 OVC060", "KJAN 221731Z 2218/2318 18012G20KT P6SM SCT080 FM230000 17009KT P6SM SKC FM231600 17012G18KT P6SM SCT080", "KJAX 222320Z 2300/2324 VRB03KT P6SM SKC FM231500 01008KT P6SM FEW030 FM232200 06008KT P6SM FEW250", "KJBR 222327Z 2300/2324 19014G22KT P6SM SKC FM230400 18014G20KT P6SM SCT250 WS020/19050KT FM231400 19015G25KT P6SM SCT250", "KJCT 222320Z 2300/2324 18010KT P6SM FEW150 SCT250 FM231100 18009KT P6SM OVC015 FM231500 18016G24KT P6SM BKN015 FM231700 18016G24KT P6SM SCT100", "KJEF 222323Z 2300/2324 16017G30KT P6SM FEW150 BKN250 FM230400 16010G20KT P6SM SCT250 FM231400 18017G30KT P6SM SCT045 SCT250", "KJER 222333Z 2300/2324 27020G30KT P6SM FEW050 FM231900 27020G30KT P6SM SCT050", "KJFK 222320Z 2300/2406 VRB05KT P6SM BKN250 FM230500 03006KT P6SM FEW015 BKN250 FM231200 04011KT P6SM SCT025 BKN120 PROB30 2316/2320 6SM -RA BR BKN025 BKN080 FM232000 06012G18KT 6SM -RA BR BKN025 OVC050 FM240100 03010KT 5SM -RA BR SCT008 BKN015 FM240400 03009KT 5SM -RA BR BKN008", "KJHW 222105Z 2221/2318 19008KT P6SM SKC FM230000 16006KT P6SM SKC", "KJKA 222320Z 2300/2324 VRB03KT P6SM SCT250 FM231500 12009KT P6SM FEW070 FEW250", "KJKL 221722Z 2218/2318 VRB05KT P6SM FEW250", "KJLN 222326Z 2300/2324 18021G33KT P6SM SKC FM230500 18021G34KT P6SM SKC WS020/19050KT FM231100 19023G36KT P6SM SCT230", "KJMS 222331Z 2300/2324 05009KT P6SM BKN150 FM231600 09015G23KT P6SM BKN150", "KJST 222321Z 2300/2324 14007KT P6SM SKC FM230600 VRB03KT P6SM SKC AMD NOT SKED", "KJVL 222327Z 2300/2324 17011KT P6SM SKC WS020/18040KT FM230400 16009KT P6SM SKC WS020/20045KT FM231400 16012G24KT P6SM FEW200 FM232000 17017G28KT P6SM SCT180", "KJXN 222325Z 2300/2324 16007KT P6SM SKC FM231500 18011KT P6SM SCT040 SCT100 FM231700 18012G22KT P6SM SCT040 SCT100 FM232000 16010KT P6SM BKN250", "KJZI 222320Z 2300/2324 36003KT P6SM FEW045 FEW250 FM231500 01008G15KT P6SM SKC", "KLAF 222320Z 2300/2324 17009KT P6SM SCT100 BKN250 FM231300 17010G22KT P6SM SCT140 BKN250 FM231500 18014G27KT P6SM SCT200 AMD LTD TO CLD VIS AND WIND 2301/2313", "KLAL 222325Z 2300/2324 04009KT P6SM SKC FM230200 04003KT P6SM SKC FM231500 03007KT P6SM FEW040 FEW250 AMD NOT SKED 2302/2311", "KLAN 222325Z 2300/2324 16007KT P6SM SKC FM231500 18011KT P6SM SCT040 SCT100 FM231700 18012G22KT P6SM SCT040 SCT100 FM232000 16010KT P6SM BKN250", "KLAR 222320Z 2300/2324 21018G32KT P6SM BKN150 FM230300 19015G25KT P6SM OVC100 FM230600 19012KT P6SM OVC070 FM231100 27014KT P6SM -RA OVC045 FM231800 30020G30KT P6SM OVC025", "KLAS 222320Z 2300/2406 22032G43KT 4SM BLDU SCT120 BKN200 FM230400 25020G30KT P6SM SCT090 BKN120 FM230700 32015G25KT P6SM VCSH SCT070 BKN100 FM231100 28012G20KT P6SM SCT080 FM231800 34015G25KT P6SM SCT100 FM240100 34011KT P6SM SKC", "KLAW 222323Z 2300/2324 20016G26KT P6SM SCT250 FM230200 18014G22KT P6SM BKN250 WS020/21040KT FM231600 19020G28KT P6SM SCT120 BKN250", "KLAX 222105Z 2221/2324 26010KT P6SM BKN035 OVC040 FM222300 26014KT P6SM SCT035 BKN040 FM230200 26012KT P6SM OVC025 FM230800 29007KT P6SM BKN040 FM231200 36007KT P6SM SKC FM232000 26012KT P6SM SKC", "KLBB 222321Z 2300/2324 21015KT P6SM BKN250 FM231700 23022G32KT P6SM SCT120 BKN250", "KLBE 222320Z 2300/2324 11005KT P6SM SKC", "KLBF 222334Z 2300/2324 14008KT P6SM SKC FM231300 16009KT P6SM FEW250 WS015/22040KT FM231600 19014G33KT P6SM FEW250 WS020/22045KT FM231800 21021G37KT P6SM FEW250 FM232100 23021G39KT P6SM SCT250 FM232300 27019G35KT P6SM SCT150", "KLBL 222321Z 2300/2324 20014G23KT P6SM SKC FM231400 21023G31KT P6SM FEW250 WS020/23045KT FM231700 21033G47KT 5SM BLDU FEW250 FM232300 20029G40KT 3SM BLDU SCT240", "KLBT 222320Z 2300/2324 02004KT P6SM FEW250 FM231400 01008KT P6SM SKC", "KLBX 222320Z 2300/2324 19014G24KT P6SM FEW040 FEW060 FM230100 17010KT P6SM FEW040 FM230800 17006KT P6SM FEW025 SCT040 FM231530 17016G24KT P6SM SCT030 SCT040 FM231800 17016G28KT P6SM SCT045 SCT060", "KLCH 221733Z 2218/2318 18015G22KT P6SM SCT050 FM230000 16010G16KT P6SM SCT050 FM230400 15007KT P6SM BKN040 FM231000 15009KT P6SM BKN100 FM231500 17013G20KT P6SM BKN100", "KLCK 222320Z 2300/2324 15005KT P6SM SCT250 FM231600 17010KT P6SM SCT250 FM232300 14006KT P6SM BKN200", "KLEB 222320Z 2300/2324 18002KT P6SM SCT250 FM230900 00000KT 3SM BR SCT001 FM231200 34003KT P6SM BKN100", "KLEE 222324Z 2300/2324 05009KT P6SM SKC FM230100 02006KT P6SM SKC FM231800 03008KT P6SM FEW050", "KLEX 222320Z 2300/2324 17007KT P6SM BKN250 FM231500 18011KT P6SM SKC", "TAF KLFI 221700Z 2217/2323 06009KT 9999 FEW035 QNH3018INS BECMG 2304/2305 01012G18KT 9999 BKN015 QNH3013INS BECMG 2305/2306 02012G18KT 9000 BR BKN005 OVC020 QNH3012INS BECMG 2307/2308 36012KT 9000 BR OVC005 QNH3016INS BECMG 2312/2313 35015KT 8000 -SHRA OVC005 QNH3014INS BECMG 2321/2322 35015KT 8000 -SHRA OVC005 QNH3013INS TX20/2219Z TN14/2307Z", "KLFK 221741Z 2218/2318 19015G25KT P6SM SCT050 SCT250 FM230100 17011KT P6SM FEW050 FEW250 FM231300 16009KT P6SM BKN025 BKN100 FM231600 18013G23KT P6SM SCT030 SCT080", "KLFT 221733Z 2218/2318 18010G17KT P6SM SCT050 FM230100 17007KT P6SM SCT040 FM231000 15007KT P6SM SCT060 FM231500 14010G18KT P6SM BKN140", "KLGA 222320Z 2300/2406 15006KT P6SM SCT250 FM230100 VRB05KT P6SM BKN250 FM230500 04006KT P6SM FEW015 BKN250 FM231200 05009KT P6SM SCT025 BKN120 PROB30 2317/2320 6SM -RA BR BKN025 BKN080 FM232000 06012G18KT 6SM -RA BR BKN025 OVC050 FM240100 04010KT 5SM -RA BR SCT008 BKN015 FM240400 04009KT 5SM -RA BR BKN008", "KLGB 221740Z 2218/2318 19006KT P6SM BKN040 OVC050 FM222000 21010KT P6SM BKN045 FM230000 25008KT P6SM OVC025 FM230500 27010KT P6SM BKN015 FM230900 29006KT P6SM SCT025 BKN035 FM231200 32004KT P6SM SKC", "KLGU 222320Z 2300/2324 03010KT 6SM -RA BR SCT020 OVC050 FM230100 17010KT 5SM -SN BR OVC050 FM230600 29006KT 4SM BR FEW010 OVC030", "KLIT 222335Z 2300/2324 18010G20KT P6SM SCT250 FM230100 17008G18KT P6SM SCT250 WS020/20045KT FM231400 18012G22KT P6SM SCT040 BKN100", "KLLQ 222335Z 2300/2324 19010G20KT P6SM FEW040 OVC250 FM230100 18009KT P6SM FEW025 SCT250 FM231300 18010G20KT P6SM SCT025 BKN150", "KLMT 222334Z 2300/2324 30016G21KT P6SM VCSH FEW035 SCT050 FM230200 32011KT P6SM VCSH BKN050 FM230500 32006KT P6SM BKN070 FM231700 32014KT P6SM SCT070", "KLND 222327Z 2300/2324 09015G25KT P6SM BKN060 FM230300 34011KT P6SM BKN050 OVC080 FM231600 02011G22KT P6SM SCT070 OVC090", "KLNK 222320Z 2300/2324 15009KT P6SM SKC FM230500 15009KT P6SM FEW250 WS015/20040KT FM231500 17016G28KT P6SM FEW250 FM231800 19022G38KT P6SM SCT250", "KLNS 222321Z 2300/2324 18004KT P6SM BKN250", "KLOZ 221722Z 2218/2318 18008G15KT P6SM FEW250 FM222200 VRB05KT P6SM FEW250 FM231500 19006KT P6SM FEW250", "KLRD 222320Z 2300/2324 15011KT P6SM SKC FM230400 16012G19KT P6SM BKN050 TEMPO 2310/2314 BKN025 FM231500 15018G28KT P6SM SCT050 BKN250", "TAF KLRF 222300Z 2223/2405 18012G20KT 9999 SCT200 QNH2980INS BECMG 2305/2306 18009KT 9999 SCT200 WS020/22040KT QNH2986INS BECMG 2313/2314 19015G25KT 9999 SCT030 BKN150 QNH2992INS BECMG 2321/2322 18006KT 9999 SCT020 BKN090 WS020/18045KT QNH2987INS TX29/2321Z TN17/2311Z", "KLRU 222332Z 2300/2324 23018G25KT P6SM BKN090 FM230900 23022G32KT P6SM BKN150 FM231800 22025G35KT P6SM BKN250", "KLSE 222325Z 2300/2324 16009KT P6SM SKC WS020/18045KT FM230900 16009KT P6SM SKC FM231500 16012G22KT P6SM FEW050 FM231900 16015G28KT P6SM SCT050", "TAF KLSF 212100Z 2121/2303 32006KT 9999 SKC QNH3003INS BECMG 2209/2210 10003KT 3200 BR FEW000 QNH3015INS TEMPO 2211/2213 0800 FG SCT000 BECMG 2213/2214 07006KT 9999 NSW SKC QNH3005INS TX25/2222Z TN05/2212Z LAST NO AMDS AFT 2203 NEXT 2413", "TAF KLSV 222300Z 2223/2405 21020G35KT 8000 BLDU BKN160 530009 QNH2941INS TEMPO 2223/2302 23035G52KT BKN150 560009 BECMG 2305/2306 35015G25KT 9999 VCSH BKN140 520009 QNH2948INS BECMG 2316/2317 34010G18KT 9999 NSW SCT170 QNH2969INS TX28/2323Z TN12/2314Z", "TAF AMD KLTS 220626Z 2206/2307 19008KT 9999 SKC WS015/24037KT QNH2962INS BECMG 2215/2216 24015G25KT 9999 SKC QNH2967INS BECMG 2223/2224 23012KT 9999 FEW200 510102 QNH2957INS BECMG 2305/2306 20010KT 9999 SCT200 520152 QNH2963INS TX34/2221Z TN08/2212Z LAST NO AMDS AFT 2206 NEXT 2409", "TAF KLUF 212000Z 2120/2302 VRB06KT 9999 SCT220 QNH2960INS TEMPO 2221/2301 23010G15KT TX32/2123Z TN17/2213Z LAST NO AMDS AFT 2123 NEXT 2412", "KLUK 222320Z 2300/2324 17003KT P6SM SCT250 FM231600 18012KT P6SM FEW250 FM232300 16005KT P6SM FEW250", "KLVK 222320Z 2300/2324 28020KT P6SM SKC FM230600 27013KT P6SM SKC FM231200 VRB05KT P6SM SKC FM231700 29010G21KT P6SM SKC", "KLVM 222332Z 2300/2324 25009KT 6SM -RA BR SCT015 SCT025 OVC050 FM230100 26009KT 3SM -RASN BR SCT008 BKN025 OVC040 TEMPO 2301/2304 2SM -SN BR BKN008 OVC012 FM230400 27010KT 3SM -SN BR FEW008 SCT012 OVC020 FM231800 30012KT 2SM -SN BR FEW008 BKN012 OVC020", "KLVS 222330Z 2300/2324 26025G35KT P6SM SCT060 FM230300 22025G35KT P6SM SCT070 WS020/25045KT FM231400 22040G50KT P6SM BKN050 FM232200 25035G45KT P6SM BKN050", "KLWB 222320Z 2300/2324 00000KT P6SM FEW250", "KLWS 222320Z 2300/2324 28007KT P6SM BKN045 OVC080 FM231000 VRB03KT P6SM SCT008 SCT020 OVC060 FM231600 24003KT P6SM SCT008 BKN020 FM231800 26004KT P6SM BKN015 FM232100 27006KT P6SM BKN050", "KLWT 222324Z 2300/2324 32009KT 4SM -RASN BR SCT008 OVC012 TEMPO 2300/2304 1SM -SNRA BR BKN008 FM230400 31009KT 1/2SM SN FZFG OVC002 FM232000 32017G27KT 1SM -SN BR OVC011", "KLYH 222320Z 2300/2324 12003KT P6SM FEW250 FM230500 03004KT P6SM SCT250", "KMAF 222327Z 2300/2324 21011KT P6SM FEW120 SCT250 FM230200 18014KT P6SM SCT250", "KMBG 221732Z 2218/2318 01009KT P6SM FEW200 FM222200 10008KT P6SM FEW250 FM230700 10009KT P6SM FEW250 WS020/18035KT FM231600 10011G18KT P6SM SCT250", "KMBL 222324Z 2300/2324 16008KT P6SM SKC WS020/19040KT FM230500 16010G20KT P6SM SKC WS020/21045KT FM231100 15009G18KT P6SM SKC FM231700 17013G21KT P6SM FEW220", "KMBS 222320Z 2300/2324 16007KT P6SM BKN250 WS018/22035KT FM231000 17007KT P6SM SCT250 FM231600 16012G18KT P6SM FEW250", "KMCB 222328Z 2300/2324 14011KT P6SM SKC FM230200 15004KT P6SM SKC TEMPO 2309/2312 3SM BR FM231500 15007KT P6SM FEW250 FM231900 17010G17KT P6SM FEW050 FEW250 FM232200 16007KT P6SM FEW250", "KMCC 222320Z 2300/2324 32014G22KT P6SM SKC FM230300 32009KT P6SM SKC WS020/34030KT FM231600 34013G20KT P6SM SKC", "KMCE 222320Z 2300/2324 34010KT P6SM BKN045 FM230100 32009G17KT P6SM BKN100", "TAF KMCF 221700Z 2217/2323 04009KT 9999 SKC QNH3005INS TX26/2219Z TN15/2312Z", "KMCI 222331Z 2300/2324 18012G20KT P6SM SKC FM231400 18018G28KT P6SM SCT250 FM232200 18022G35KT P6SM SCT250", "KMCK 221720Z 2218/2318 17008KT P6SM SKC FM231300 20011KT P6SM SKC FM231600 21019G28KT P6SM SKC", "KMCN 222331Z 2300/2324 VRB05KT P6SM FEW250", "KMCO 222324Z 2300/2406 03010KT P6SM FEW050 FM230300 01006KT P6SM SKC FM231800 02009KT P6SM FEW050 FM240300 03005KT P6SM SCT040", "KMCW 222333Z 2300/2324 17009G15KT P6SM SKC FM231200 15014G22KT P6SM FEW250 FM231700 16022G33KT P6SM SCT250", "KMDT 222321Z 2300/2324 00000KT P6SM BKN250", "KMDW 221722Z 2218/2324 19015G25KT P6SM FEW300 FM230100 18013G20KT P6SM FEW200 WS015/20045KT FM231000 17010KT P6SM SCT050 FM231500 17015G26KT P6SM BKN050 FM231800 17020G31KT P6SM SCT050", "KMEI 221731Z 2218/2318 18009KT P6SM FEW050", "KMEM 222327Z 2300/2406 17012KT P6SM FEW060 FM230500 18012G18KT P6SM SCT250 WS020/19045KT FM231400 19014G23KT P6SM SCT250 FM231800 18016G24KT P6SM FEW050 SCT250", "KMER 222320Z 2300/2324 30008KT P6SM FEW040 FM230100 31009G18KT P6SM BKN100", "KMEV 222323Z 2300/2324 36015G25KT P6SM VCSH BKN090 FM230300 01006KT P6SM FEW090 FM232000 03008G16KT P6SM SKC", "KMFD 222329Z 2300/2324 18009KT P6SM FEW250", "KMFE 222320Z 2300/2324 15017G26KT P6SM FEW050 SCT250 FM230200 15012KT P6SM FEW060 FEW250 FM231500 15020G27KT P6SM SCT040 BKN250 FM231900 15022G29KT P6SM SCT045 BKN250", "KMFR 222334Z 2300/2324 01006KT 2SM +RA BR SCT020 OVC035 FM230200 29005KT P6SM -SHRA BKN035 FM230400 00000KT P6SM VCSH OVC040", "TAF KMGE 221305Z 2213/2319 VRB03KT 9999 SCT250 QNH3018INS BECMG 2214/2215 12008KT 9999 FEW250 QNH3014INS BECMG 2223/2224 VRB03KT 9999 SKC QNH3014INS BECMG 2314/2315 10008KT 9999 FEW250 QNH3018INS TX23/2221Z TN07/2312Z LAST NO AMDS AFT 2220 NEXT 2311", "KMGM 221737Z 2218/2318 12006KT P6SM SKC FM230000 11005KT P6SM SCT250", "KMGW 222320Z 2300/2324 11005KT P6SM SKC", "KMHK 222333Z 2300/2324 18012G19KT P6SM SKC FM230300 17010G18KT P6SM SKC WS015/19040KT FM231400 19018G27KT P6SM FEW250 FM231700 19025G37KT P6SM SCT200", "KMHR 222320Z 2300/2324 30013G21KT P6SM SCT120 FM230300 31008KT P6SM SKC WS020/34030KT FM231600 33012G19KT P6SM SKC", "KMHT 222320Z 2300/2324 18004KT P6SM SCT250 FM231200 36005KT P6SM BKN100", "KMIA 222320Z 2300/2406 03012KT P6SM FEW050 FM230200 01006KT P6SM FEW050 FM230600 35006KT P6SM FEW050 FM231500 03008KT P6SM FEW050 FM240200 05005KT P6SM SKC", "KMIV 221742Z 2218/2318 VRB03KT P6SM FEW250 FM230600 VRB03KT P6SM BKN250 FM230700 VRB03KT P6SM OVC250 FM231400 04008KT P6SM OVC060", "KMKC 222331Z 2300/2324 18012G20KT P6SM SKC FM231400 18018G28KT P6SM SCT250 FM232200 18022G35KT P6SM SCT250", "KMKE 222327Z 2300/2406 16010KT P6SM SKC WS020/19035KT FM230400 19010G19KT P6SM SKC WS020/21045KT FM230900 17007KT P6SM SKC WS020/22035KT FM231400 17012G21KT P6SM FEW250 FM231700 16014G24KT P6SM FEW200", "KMKG 222325Z 2300/2324 16010KT P6SM SKC FM231500 17011G20KT P6SM SCT040 SCT100 FM231700 17014G24KT P6SM SCT040 SCT100 FM232100 16012KT P6SM FEW250", "KMKL 222327Z 2300/2324 17006KT P6SM SKC FM230500 18009KT P6SM SCT250 WS020/19040KT FM231400 19013G21KT P6SM SCT250", "KMKT 222325Z 2300/2324 16009KT P6SM SCT250 WS020/19035KT FM230600 15009KT P6SM FEW250 FM231200 15012G20KT P6SM SCT140 FM231600 15019G30KT P6SM SCT050", "KMLB 222324Z 2300/2324 01006KT P6SM SCT030 FM231500 02009KT P6SM FEW040", "KMLC 222320Z 2300/2324 18018G28KT P6SM FEW250 FM230200 18015G23KT P6SM BKN250 WS020/19040KT FM231200 18015G25KT P6SM BKN020 FM231700 18018G31KT P6SM SCT035 BKN250", "KMLI 222320Z 2300/2324 17014G24KT P6SM SKC WS020/19045KT FM231400 16012G23KT P6SM SKC FM231600 16016G27KT P6SM SCT040 SCT160 FM231800 17021G34KT P6SM SCT040 SCT160", "KMLS 222332Z 2300/2324 06015KT P6SM SCT060 BKN120 FM230900 35015KT P6SM SCT012 BKN020 OVC040 FM231400 33015KT 2SM RA BR BKN008 OVC015 FM232200 32018G28KT 1/2SM SN FG SCT004 OVC008", "KMLU 221741Z 2218/2318 19014G22KT P6SM SCT050 BKN250 FM230100 18008KT P6SM FEW050 SCT250 FM231500 18012G21KT P6SM SCT030 SCT210", "KMMH 222323Z 2300/2324 29018G30KT P6SM VCSH SCT070 WS020/24055KT FM230300 33011G29KT P6SM VCSH SCT060 TEMPO 2303/2306 4SM -SHSN BR BKN050 BKN070 FM230600 34007KT P6SM FEW090 FM232000 34009G18KT P6SM SKC", "TAF KMMT 222300Z 2223/2405 VRB06KT 9999 FEW030 QNH3005INS TX23/2320Z TN09/2312Z", "KMOB 222320Z 2300/2324 16007KT P6SM FEW250 FM230200 00000KT P6SM SCT250 FM231500 15009KT P6SM FEW070 FEW250", "KMOD 222320Z 2300/2324 30014G20KT P6SM BKN120 FM230300 32008KT P6SM SKC FM231700 32014G22KT P6SM SKC", "KMOT 222331Z 2300/2324 03011KT P6SM FEW014 OVC150 FM230300 06012G20KT P6SM OVC020 FM230700 06014G22KT P6SM OVC008 FM231900 03019G27KT P6SM OVC015", "KMPV 222320Z 2300/2324 VRB05KT P6SM SKC FM230200 00000KT P6SM SKC FM230600 00000KT P6SM SCT250 FM231800 VRB03KT P6SM BKN250", "KMQY 222324Z 2300/2324 17005KT P6SM FEW100 BKN200 FM231600 18009G16KT P6SM BKN200", "KMRB 222330Z 2300/2324 10004KT P6SM SKC FM230200 00000KT P6SM SKC FM231300 36004KT P6SM SCT250 FM232000 03003KT P6SM SCT250", "KMRY 222320Z 2300/2324 30018G27KT P6SM FEW150 FM230200 30012KT P6SM SKC WS010/32040KT FM230600 30006KT P6SM FEW200 FM231100 VRB05KT P6SM SKC FM232300 31011G19KT P6SM SKC", "KMSL 222320Z 2300/2324 16006KT P6SM BKN250 FM231500 17007KT P6SM SCT250 FM232200 16007KT P6SM FEW250", "KMSN 222327Z 2300/2324 16009KT P6SM SKC WS020/18040KT FM230400 17009KT P6SM SKC WS020/20045KT FM231400 16012G23KT P6SM FEW200 FM232200 17016G28KT P6SM SCT200", "KMSO 222334Z 2300/2324 31012KT P6SM VCSH SCT030 OVC040 FM230600 36005KT 5SM -SNRA BR SCT010 OVC025 TEMPO 2309/2312 2SM -SN BKN015 FM231200 33004KT 2SM -SN BR OVC025 FM231500 34006KT 6SM -SN OVC035", "KMSP 222325Z 2300/2406 15008KT P6SM SCT200 WS020/20040KT FM230800 14007KT P6SM SCT200 FM231300 14011G20KT P6SM SCT200 FM231500 15021G30KT P6SM SCT050 FM240100 15014G22KT P6SM BKN080 WS020/18045KT", "KMSS 222320Z 2300/2324 00000KT P6SM SKC FM231200 16004KT P6SM FEW250 FM231600 07006KT P6SM SCT250", "KMSY 222328Z 2300/2406 15004KT P6SM SCT250 FM231500 14008KT P6SM FEW030 SCT250 FM231900 14010G17KT P6SM SCT040 SCT250 FM232300 14009KT P6SM FEW040 SCT250", "TAF KMTC 221900Z 2219/2401 17009KT 9999 SKC QNH2992INS TEMPO 2219/2221 19010G15KT BECMG 2308/2309 16006KT 9999 SCT020 BKN035 QNH3010INS TX21/2221Z TN07/2312Z LAST NO AMDS AFT 2303 NEXT 2311", "KMTH 222322Z 2300/2324 04008KT P6SM FEW050", "KMTJ 222117Z 2221/2318 21018G30KT P6SM FEW250 FM230000 21022G35KT P6SM SCT110 FM230500 18025G35KT P6SM VCSH BKN110 FM231200 25021G34KT 6SM -SHRA BR OVC040", "KMTN 222330Z 2300/2324 00000KT P6SM BKN250 FM230900 35003KT P6SM BKN250 FM231400 02005KT P6SM BKN050 BKN200 FM232200 02006KT P6SM VCSH BKN050", "KMTW 221720Z 2218/2318 17013G20KT P6SM SKC FM230000 18010G19KT P6SM SKC WS019/21045KT FM230600 17009KT P6SM SKC WS019/21040KT FM231300 16014G25KT P6SM SCT200", "TAF KMUI 220300Z 2203/2309 VRB06KT 9999 SKC QNH3015INS TX17/2219Z TN01/2211Z LAST NO AMDS AFT 2204 NEXT 2411", "TAF AMD KMUO 222005Z 2220/2324 32012G20KT 9999 VCSH SCT040 BKN090 QNH2953INS TEMPO 2220/2222 32015G25KT 510009 BECMG 2223/2224 32015G25KT 9999 VCSH SCT050 SCT100 510009 QNH2957INS BECMG 2301/2302 32012G18KT 9999 VCSH SCT070 BKN090 QNH2959INS BECMG 2308/2309 32015G25KT 9999 NSW SCT050 SCT100 510009 QNH2968INS TX11/2221Z TN02/2313Z", "KMVN 222330Z 2300/2324 17010KT P6SM SCT100 BKN200 FM231400 18016G26KT P6SM SCT250", "KMWH 222320Z 2300/2324 26008KT P6SM SCT070 BKN090 FM230300 28006KT P6SM SKC FM230600 31005KT P6SM SKC FM231500 VRB05KT P6SM SCT200", "TAF KMXF 221900Z 2219/2401 VRB06KT 9999 SKC QNH3009INS TX25/2220Z TN07/2312Z LAST NO AMDS AFT 2223 NEXT 2311", "KMYL 222333Z 2300/2324 31010KT P6SM VCSH FEW025 BKN040 TEMPO 2300/2302 6SM -SHRASN BKN025 FM230200 34006KT P6SM VCSH BKN035 FM231800 VRB04KT P6SM BKN040", "KMYR 222320Z 2300/2324 01006KT P6SM FEW250 FM231400 36009KT P6SM SKC", "TAF KNBC 2209/2309 02006KT 9999 SKC QNH3009INS T08/2212Z T23/2220Z", "TAF KNBG 2223/2323 13080KT 9999 FEW040 SCT250 QNH3000INS FM230100 15006KT 9999 SCT045 BKN250 QNH2998INS BECMG 2302/2304 VRB06KT 6000 BR SCT008 SCT035 BKN150 QNH2999INS TEMPO 2305/2312 0800 FG VV003 FM231500 14010G15KT 9999 SCT035 BKN250 QNH3006INS AUTOMATED SENSOR METWATCH 2223 TIL 2313 T14/2311Z T26/2320Z FN00237", "TAF COR KNCA 2221/2321 05012KT 9999 BKN150 QNH3012INS BECMG 2312/2314 35008KT 9999 BKN030 QNH3009INS T14/2309Z T19/2320Z", "KNEW 222328Z 2300/2324 14003KT P6SM SKC TEMPO 2309/2312 BKN003 FM231500 14007KT P6SM FEW040 FM231700 15010KT P6SM FEW040 FM232300 15004KT P6SM SKC", "TAF KNFG 2221/2321 21012G22KT 9999 SCT020 BKN030 520002 540204 520609 5201509 522409 523309 QNH2976INS FM222230 21012G22KT 9999 VCSH SCT020 BKN030 520002 540204 520609 5201509 522409 523309 QNH2975INS TEMPO 2223/2302 -SHRA BKN020 BECMG 2302/2304 22012G22KT 8000 SHRA BR OVC030 520002 540204 520609 5201509 522409 523309 QNH2975INS FM230730 22010KT 9999 VCSH OVC030 520002 540204 520609 5201509 522409 523309 QNH2979INS FM231130 VRB05KT 9999 BKN030 BKN040 520002 540204 520609 5201509 522409 523309 QNH2979INS BECMG 2318/2320 20010KT 9999 SCT030 520002 540204 520609 5201509 522409 523309 QNH2980INS T22/2221Z T13/2313Z", "TAF KNFL 2223/2323 33018G30KT 9999 VCSH FEW010 SCT010 BKN030 BKN130 650806 580009 580907 QNH2963INS TEMPO 2223/2302 9000 -RA SCT009 BKN020 BKN070 FM230200 29009KT 9999 SCT140 600000 500000 QNH2969INS BECMG 2306/2308 28007KT 9999 SCT140 581206 QNH2979INS FM231700 35012G18KT 9999 SCT025 BKN040 581206 QNH3000INS LAST NO AMDS AFT 2223 NEXT 2407 TM02/2312Z T11/2322Z FS30202", "TAF KNFW 2223/2323 18020G35KT 9999 SCT250 510009 QNH2962INS BECMG 2314/2316 18020G30KT SCT250 510009 QNH2972INS AUTOMATED SENSOR METWATCH 2223 TIL 2311 T31/2223Z T20/2309Z FN00237", "TAF KNGP 2223/2323 16020G25KT 9999 SCT025 510006 QNH2989INS BECMG 2318/2320 15017G24KT 9999 SCT030 500000 QNH2986INS T25/2310Z T30/2319Z FN00237", "TAF KNGU 2223/2323 04008KT 9999 SCT250 SCT300 QNH3015INS BECMG 2306/2308 02012G18KT 9999 BKN025 BKN300 QNH3014INS TEMPO 2309/2313 36014G22KT 9999 VCSH OVC012 T15/2309Z T18/2321Z FN00237", "TAF KNHK 2223/2323 VRB06KT 9999 SCT100 BKN320 QNH3016INS TEMPO 2309/2313 01010KT 9999 VCSH SCT020 BKN065 BKN300 BECMG 2313/2315 35010G18KT 9999 NSW SCT180 SCT340 QNH3018INS T13/2309Z T17/2321Z FN00237", "TAF KNIP 2223/2323 05008KT 9999 FEW040 QNH3003INS FM230300 35008KT 9999 SCT015 QNH3001INS BECMG 2315/2317 04010KT 9999 FEW025 QNH3006INS T15/2309Z T25/2319Z FN00237", "TAF COR KNJK 2220/2315 26018G25KT 9999 FEW070 FEW250 QNH2961INS FM222100 27020G35KT 6000 BLDU FEW070 FEW250 540009 540909 QNH2964INS FM230800 25015G25KT 9999 FEW030 540009 540909 QNH2962INS LAST NO AMDS AFT 2222 NEXT 2407 T31/2221Z T18/2313Z COR 2230 FS30186", "TAF COR KNKT 2221/2321 05012KT 9999 BKN150 QNH3012INS BECMG 2312/2314 35008KT 9999 BKN030 QNH3009INS T14/2309Z T19/2320Z", "TAF KNKX 2221/2321 24012KT 9999 BKN020 BKN030 520002 540204 520609 5201509 522409 523309 QNH2979INS FM222230 24012KT 9999 VCSH BKN020 BKN030 520002 540204 520609 5201509 522409 523309 QNH2976INS TEMPO 2223/2302 -SHRA BECMG 2302/2304 24012G22KT 8000 SHRA BR OVC030 520002 540204 520609 5201509 522409 523309 QNH2976INS FM230930 24010KT 9999 VCSH OVC030 520002 540204 520609 5201509 522409 523309 QNH2980INS FM231130 VRB05KT 9999 BKN030 BKN040 520002 540204 520609 5201509 522409 523309 QNH2980INS BECMG 2318/2320 24010KT 9999 SCT030 520002 540204 520609 5201509 522409 523309 QNH2981INS T21/2221Z T13/2313Z", "TAF KNLC 2223/2323 30012KT 9999 SCT030 BKN060 BKN200 QNH2964INS BECMG 2304/2306 30012KT 9999 SKC QNH2976INS FM231600 34013G18KT 9999 SKC QNH2988INS T22/2223Z T09/2314Z AUTOMATED SENSOR METWATCH 2301 TIL 2316 FS30202", "TAF COR KNQX 2223/2323 01010KT 9999 FEW035 SCT060 QNH2993INS FM230100 05006KT 9999 FEW040 QNH2996INS BECMG 2315/2317 05013KT 9999 SCT030 QNH3000INS AUTOMATED SENSOR METWATCH 2302 TIL 2310 T25/2310Z T30/2319Z COR 2318 FN00237", "TAF KNSE 2223/2323 VRB06KT 9999 FEW250 QNH3003INS AUTOMATED SENSOR METWATCH 2223 TIL 2411 T10/2310Z T25/2319Z FN00237", "TAF KNTD 2223/2323 28010KT 9999 SCT015 BKN040 QNH2972INS TEMPO 2223/2303 BKN020 FM230300 27010KT 9999 SCT030 QNH2968INS FM231200 VRB06KT 9999 FEW015 SCT035 QNH2976INS T12/2312Z T20/2321Z FS30186", "TAF KNTU 2223/2323 04010KT 9999 SCT250 SCT300 QNH3012INS BECMG 2306/2308 01012G18KT 9999 BKN025 BKN300 QNH3010INS TEMPO 2309/2313 36013G20KT 9999 VCSH OVC012 BECMG 2313/2315 01014G23KT 9999 NSW SCT040 BKN075 BKN230 QNH3013INS T15/2309Z T18/2321Z FN00237", "TAF KNUW 2223/2323 VRB06KT 9999 FEW020 BKN050 650503 QNH2979INS FM230700 29007KT 9999 SCT010 BKN030 650501 QNH2992INS FM231400 29007KT 9999 SCT008 BKN030 600000 QNH3005INS BECMG 2317/2319 13011KT SCT020 BKN030 BKN250 QNH3013INS T05/2307Z T12/2322Z FS30202", "TAF KNXP 2221/2321 22018G28KT 9999 520009 520909 521809 522709 523606 QNH2963INS TEMPO 2223/2305 22030G40KT 0800 BLDU SCT020 FM230930 24015G25KT 9999 SKC 520009 520909 521809 522709 523606 QNH2977INS BECMG 2312/2314 32012G22KT 9999 520009 520909 521809 522709 523606 QNH2987INS T28/2221Z T11/2314Z", "TAF KNYL 2221/2321 24012KT 9999 FEW100 521809 522709 523606 QNH2959INS BECMG 2222/2300 30015G25KT 9999 FEW100 521809 522709 523606 QNH2955INS TEMPO 2301/2307 30020G30KT FM230930 27010KT 9999 FEW100 520009 520901 541004 521409 522309 523209 524101 QNH2967INS BECMG 2315/2317 30012KT 9999 FEW100 520009 520901 541004 521409 522309 523209 524101 QNH2972INS TEMPO 2317/2321 30015G25KT T31/2221Z T18/2314Z", "TAF KNZY 2223/2323 23010KT 9999 VCSH BKN025 BKN035 QNH2974INS FM230100 22010KT 8000 -SHRA BKN025 OVC030 QNH2973INS TEMPO 2303/2309 6000 SHRA OVC020 FM230900 26015KT 9000 BR SCT015 BKN030 QNH2975INS FM231200 23010KT 9999 SCT020 BKN030 QNH2980INS FM231700 22008KT 9999 FEW015 SCT025 BKN035 QNH2982INS AUTOMATED SENSOR METWATCH 2309 TIL 2315 T13/2311Z T23/2323Z FS30186", "KOAJ 222333Z 2300/2324 05008KT P6SM BKN250 FM230700 03008KT P6SM SCT040 BKN120 FM231400 36010KT P6SM SCT009 BKN025 FM231800 36010G20KT P6SM SCT025 BKN035 AMD LTD TO CLD VIS AND WIND", "KOAK 222320Z 2300/2406 30021G28KT P6SM FEW200 FM230400 31015G22KT P6SM SKC FM231000 31012KT P6SM SKC FM231800 32014G20KT P6SM SKC FM240300 33006KT P6SM FEW250", "TAF KOFF 221800Z 2218/2324 18015G25KT 9999 SKC QNH2947INS BECMG 2223/2224 16009KT 9999 SKC QNH2949INS BECMG 2303/2304 16009KT 9999 SKC WS020/19035KT QNH2945INS BECMG 2311/2312 17015G25KT 9999 SKC WS020/19035KT QNH2943INS BECMG 2315/2316 17020G35KT 9999 SKC WS020/20040KT 520006 QNH2931INS TX28/2220Z TN14/2312Z", "KOFK 222320Z 2300/2324 15009KT P6SM SKC FM231500 16016G30KT P6SM FEW250 FM232000 19020G33KT P6SM SCT250", "KOGB 222329Z 2300/2324 00000KT P6SM SKC FM231500 01005KT P6SM SKC", "KOGD 222320Z 2300/2324 33014G25KT 6SM RA FEW020 OVC040 FM230200 VRB06KT 1SM -RASN OVC020 FM230700 34008KT P6SM BKN050 OVC070", "KOKC 222323Z 2300/2324 21018G28KT P6SM SCT250 FM230200 18016G24KT P6SM SCT250 WS020/21045KT FM231500 19022G32KT P6SM SCT120 BKN250", "KOLF 221733Z 2218/2318 08012G22KT P6SM OVC012 TEMPO 2218/2222 RA OVC009 FM222300 05016G28KT 4SM -RA BR OVC022 PROB30 2308/2314 6SM RA BR OVC013 FM231400 06013KT 2SM RA BR OVC011 PROB30 2314/2315 RA OVC008 FM231500 03015KT 1SM RA BR OVC011 PROB30 2315/2318 RA OVC005", "KOLM 221956Z 2220/2318 22004KT P6SM VCSH BKN015 BKN020 FM222200 36004KT P6SM VCSH BKN040 FM230700 VRB03KT 3SM BR SCT003 BKN015 FM231000 VRB03KT 1/4SM FG OVC003 FM231700 19004KT 3SM BR OVC003", "KOLS 222320Z 2300/2324 19017G27KT P6SM SCT050 TEMPO 2300/2302 BKN050 FM230700 17012KT P6SM SCT250 FM231700 21016G26KT P6SM SCT040 BKN200", "KOMA 222320Z 2300/2324 15010KT P6SM SKC FM230500 15011KT P6SM SKC WS015/20040KT FM231500 17016G30KT P6SM FEW250 FM232000 17022G37KT P6SM SCT250", "KONP 222330Z 2300/2324 30008KT P6SM VCSH SCT025 BKN045 FM230700 32004KT P6SM SCT035 FM231700 04005KT P6SM SCT250 FM232100 25004KT P6SM SCT120 BKN200 AMD NOT SKED", "KONT 221738Z 2218/2324 25009KT P6SM BKN045 FM222000 25011KT P6SM BKN035 FM230300 24014G24KT P6SM -RA BKN020 OVC030 FM230900 25010KT P6SM SCT020 BKN035 FM231200 VRB05KT P6SM BKN035 FM231500 VRB05KT P6SM SCT040 FM232200 27008KT P6SM FEW045", "KOPF 222320Z 2300/2324 03012KT P6SM FEW040 FM230200 01006KT P6SM FEW050 FM230600 35006KT P6SM FEW050 FM231500 03008KT P6SM FEW050", "KORD 221722Z 2218/2324 19015G25KT P6SM FEW300 FM230100 18013G20KT P6SM FEW200 WS015/20045KT FM231000 17010KT P6SM SCT050 FM231500 17015G26KT P6SM SCT050 FM231800 17020G31KT P6SM SCT050", "KORF 222328Z 2300/2324 03010KT P6SM BKN250 FM230800 02012KT P6SM VCSH OVC015 FM231200 02012G20KT P6SM VCSH SCT008 OVC012 FM231400 02014G22KT P6SM -RA OVC008 FM231800 01014G22KT 5SM -RA BR OVC008", "KORH 222326Z 2300/2324 24004KT P6SM BKN150 FM231000 01006KT P6SM OVC150 FM231700 04006KT P6SM VCSH SCT025 OVC060 FM231900 05007KT 5SM -RA BR OVC015 FM232200 04006KT 3SM -RA BR OVC008", "KOTH 222334Z 2300/2324 33003KT P6SM -SHRA SCT029 BKN035 FM230400 25007KT P6SM -SHRA SCT025 BKN035 FM230900 13005KT P6SM -SHRA BKN035 BKN060", "KOTM 222333Z 2300/2324 16011G21KT P6SM SKC FM231200 15014G25KT P6SM FEW250 FM231600 17019G29KT P6SM SCT230", "KOUN 222323Z 2300/2324 19016G24KT P6SM SCT250 FM230200 17015G23KT P6SM SCT250 WS020/21045KT FM231500 18020G30KT P6SM SCT120 BKN250", "KOWB 222330Z 2300/2324 17008KT P6SM SCT200 FM231400 18014G22KT P6SM SCT250", "KOXR 221740Z 2218/2318 28006KT P6SM SCT013 BKN035 FM222200 27014KT P6SM BKN035 FM230200 30010KT P6SM FEW035 FM230800 VRB03KT P6SM SKC FM231200 01007KT P6SM SKC", "TAF KOZR 220000Z 2200/2306 VRB06KT 9999 FEW250 QNH3005INS TX26/2220Z TN05/2211Z LAST NO AMDS AFT 2206 NEXT 2408", "KPAE 221728Z 2218/2318 30005KT P6SM VCSH BKN009 BKN035 OVC040 TEMPO 2218/2222 5SM -SHRA FM222200 31004KT P6SM VCSH OVC030 FM230500 00000KT P6SM BKN050 FM231200 36001KT P6SM OVC025", "KPAH 222330Z 2300/2324 19010G18KT P6SM BKN200 FM231400 19014G24KT P6SM SCT250", "TAF KPAM 221900Z 2219/2401 07006KT 9999 SKC QNH3006INS BECMG 2301/2302 VRB03KT 9999 SKC QNH3005INS BECMG 2314/2315 06009KT 9999 SKC QNH3004INS TX25/2219Z TN17/2311Z", "KPBF 222335Z 2300/2324 17012G22KT P6SM FEW040 BKN250 FM230100 17008KT P6SM FEW025 SCT250 WS020/20040KT FM231300 18012G22KT P6SM SCT025 BKN120", "KPBG 222320Z 2300/2324 00000KT P6SM SKC FM230900 00000KT P6SM SCT250 FM231800 12007KT P6SM BKN250", "KPBI 222320Z 2300/2324 02012KT P6SM SCT040 FM230200 01006KT P6SM FEW050 FM230700 35006KT P6SM FEW050 FM231500 02010KT P6SM FEW050 FM232300 VRB05KT P6SM SKC", "KPDK 222331Z 2300/2324 VRB05KT P6SM FEW250", "KPDT 222332Z 2300/2324 30012KT P6SM VCSH BKN050 OVC100 FM230100 26012KT P6SM OVC050 FM231800 26010KT P6SM SCT060 BKN250", "KPDX 222330Z 2300/2324 31009KT P6SM VCSH SCT030 BKN060 FM230300 31004KT P6SM SCT045 BKN080 FM231400 VRB02KT P6SM SCT040 BKN250 FM232100 25005KT P6SM SCT140 BKN220", "KPEQ 222327Z 2300/2324 14008KT P6SM SCT250", "KPGA 222322Z 2300/2324 22018G30KT P6SM SCT120 FM230300 20022G36KT P6SM VCSH BKN090 TEMPO 2308/2311 5SM -SHRA OVC030 FM231500 26013G22KT P6SM BKN040", "KPGD 222325Z 2300/2324 06005KT P6SM SKC FM231500 04008KT P6SM FEW040 FEW250", "KPGV 222333Z 2300/2324 VRB06KT P6SM BKN250 FM230600 03008KT P6SM SCT040 BKN120 FM231200 36010KT P6SM FEW009 BKN025 FM231500 36010KT P6SM -SHRA SCT009 BKN012 FM231900 36010KT P6SM SCT012 BKN035 AMD LTD TO CLD VIS AND WIND", "KPHF 222328Z 2300/2324 04004KT P6SM SCT250 FM230600 01005KT P6SM OVC250 FM230900 01008KT P6SM OVC020 FM231400 02012G18KT P6SM VCSH OVC010", "KPHL 222056Z 2221/2324 05004KT P6SM BKN200 FM231600 04007KT P6SM OVC070 FM232300 03010KT P6SM -RA OVC040", "KPHX 222320Z 2300/2406 23013G24KT P6SM SCT070 BKN080 FM230300 18012KT P6SM FEW060 SCT080 FM230900 23012G22KT P6SM BKN040 FM231100 26011KT P6SM FEW040 SCT060 FM231800 27012G22KT P6SM SCT070 FM240100 28008KT P6SM FEW080", "KPIA 222329Z 2300/2324 16014G19KT P6SM FEW250 WS020/19050KT FM230800 16013G19KT P6SM SCT050 BKN250 FM231500 17020G32KT P6SM SCT060 BKN180", "KPIB 221731Z 2218/2318 17009KT P6SM FEW060", "KPIE 222325Z 2300/2324 28005KT P6SM SKC FM230200 04004KT P6SM SKC FM231400 04007KT P6SM SKC FM231900 34007KT P6SM FEW250", "KPIH 222320Z 2300/2324 22015G25KT P6SM VCSH OVC090 FM230300 24015KT P6SM VCSH OVC050 FM231100 24010KT 6SM -SN OVC030 FM231800 27010G20KT P6SM VCSH OVC060", "KPIR 221732Z 2218/2318 30007KT P6SM SCT200 FM222300 09006KT P6SM FEW250 FM231500 12012G18KT P6SM FEW250", "KPIT 222320Z 2300/2406 11005KT P6SM SKC", "KPKB 222320Z 2300/2324 VRB03KT P6SM SKC FM231400 14003KT P6SM FEW180", "KPLN 222324Z 2300/2324 17005KT P6SM SKC WS020/21040KT FM230500 19008G16KT P6SM SKC WS020/22045KT FM231000 17006G14KT P6SM SKC FM231700 16010G19KT P6SM FEW250", "KPMD 221740Z 2218/2318 22017G23KT P6SM SKC FM222100 24030G40KT 4SM BLDU SCT150 FM230300 24025G35KT P6SM SKC FM230900 26018G25KT P6SM SKC FM231100 27013KT P6SM SKC FM231400 26010KT P6SM SKC", "KPNA 222327Z 2300/2324 19015G25KT P6SM VCSH SCT040 OVC080 FM230200 19010G20KT P6SM VCSH SCT020 BKN040 FM230800 30008G15KT P6SM SCT040 BKN080 FM231600 30015G28KT P6SM BKN070", "KPNC 222323Z 2300/2324 17013G22KT P6SM SCT250 WS020/21045KT FM231500 19020G30KT P6SM SCT120 BKN250", "KPNE 221742Z 2218/2318 VRB03KT P6SM FEW250 FM231500 04007KT P6SM OVC100", "KPNS 222320Z 2300/2324 17006KT P6SM FEW250 FM230200 VRB04KT P6SM SCT250 FM231500 14009KT P6SM FEW070 FEW250", "TAF KPOE 222300Z 2223/2405 18015G25KT 9999 SCT050 QNH2993INS BECMG 2302/2303 15012KT 9999 BKN050 QNH2998INS BECMG 2305/2306 16009KT 9999 BKN025 QNH2998INS TEMPO 2308/2311 SCT009 OVC025 BECMG 2315/2316 16012G18KT 9999 SCT025 BKN050 QNH3001INS BECMG 2318/2319 18015G25KT 9999 SCT050 QNH2994INS BECMG 2402/2403 16012KT 9999 BKN035 QNH2997INS TX29/2320Z TN16/2310Z LAST NO AMDS AFT 2305 NEXT 2315", "KPOU 222320Z 2300/2324 VRB03KT P6SM BKN250 FM231500 36005KT P6SM BKN100 FM231900 36009KT P6SM VCSH FEW030 OVC040 PROB30 2320/2324 4SM -SHRA BR OVC028", "KPQI 222325Z 2300/2324 18006KT P6SM SKC FM231000 VRB03KT 3SM BR FEW002 FM231200 18008KT P6SM SCT250", "KPRB 222020Z 2220/2318 22007KT P6SM BKN035 OVC040 FM222200 28012KT P6SM BKN035 FM230200 27014KT P6SM SKC FM230600 31011KT P6SM SKC FM231200 35006KT P6SM SKC", "KPRC 222322Z 2300/2324 20018G28KT P6SM SCT050 FM230400 20022G38KT P6SM VCSH BKN060 FM231000 22019G34KT P6SM SCT040 FM231600 24013G20KT P6SM SCT040", "KPSC 222332Z 2300/2324 24008KT P6SM BKN070 FM231600 27006KT P6SM SCT080 SCT250", "KPSF 222320Z 2300/2324 VRB03KT P6SM BKN250 FM231500 06006KT P6SM BKN100 FM232000 04009KT P6SM VCSH SCT025 OVC035 PROB30 2321/2324 4SM -SHRA BR OVC022", "KPSM 222320Z 2300/2324 19004KT P6SM SCT250 FM231200 36005KT P6SM BKN100", "KPSP 221832Z 2219/2318 34015G25KT P6SM BKN250 FM230400 32018G28KT P6SM BKN200 FM231200 35011G20KT P6SM FEW250", "KPTK 222320Z 2300/2324 16007KT P6SM BKN250 WS018/22035KT FM231000 17007KT P6SM SCT250 FM231600 16011KT P6SM FEW250", "KPUB 222321Z 2300/2324 23009KT P6SM FEW250 FM230100 26018G33KT P6SM FEW250 FM231500 26025G35KT P6SM SKC FM231800 26035G45KT P6SM SKC TEMPO 2318/2320 4SM BLDU FM232000 26040G50KT P6SM SKC TEMPO 2320/2323 2SM BLDU FM232300 27034G43KT P6SM SKC", "KPUW 222320Z 2300/2324 27007KT P6SM FEW050 BKN060 FM231100 25004KT 6SM BR OVC012 FM231500 VRB03KT 4SM BR OVC005 FM231900 27006KT P6SM BKN015 FM232200 26007KT P6SM BKN050", "KPVD 222326Z 2300/2324 20003KT P6SM BKN200 FM230500 02004KT P6SM OVC120 FM231500 03007KT P6SM VCSH SCT025 OVC040 FM231600 03009KT 5SM -RA BR OVC020 FM232200 02010KT 3SM -RA BR OVC007", "KPVU 222320Z 2300/2324 33020G30KT 5SM -RA OVC020 FM230200 VRB06KT 2SM -RASN OVC012 FM230800 31008KT P6SM BKN050 OVC070", "KPVW 222321Z 2300/2324 23011KT P6SM BKN250 FM231700 23022G32KT P6SM SCT120 BKN250", "KPWM 222320Z 2300/2324 20004KT P6SM SCT250 FM231100 01005KT P6SM BKN100", "KPWT 221728Z 2218/2318 03003KT P6SM VCSH BKN005 OVC035 FM221900 03003KT P6SM VCSH BKN010 OVC035 FM222300 03004KT P6SM VCSH BKN035 FM230500 00000KT P6SM BKN050 FM231100 00000KT 4SM BR OVC020 FM231400 00000KT 1/2SM FG BKN003", "KRAP 222324Z 2300/2324 14011KT P6SM BKN150 FM230500 28005KT P6SM BKN150 FM231200 32015KT P6SM BKN100 FM231600 34025G40KT P6SM BKN050", "KRBG 222334Z 2300/2324 16005KT P6SM -SHRA FEW045 BKN060 OVC080 FM231100 00000KT P6SM VCSH OVC035", "KRBL 222320Z 2300/2324 34011G19KT P6SM SKC FM230300 34009KT P6SM SKC FM231800 36015G24KT P6SM SKC", "TAF KRCA 211845Z 2119/2301 15012G18KT 9999 SCT250 QNH2942INS BECMG 2123/2124 VRB06KT 9999 SKC QNH2940INS BECMG 2218/2219 15008KT 9999 BKN120 QNH2934INS TX22/2122Z TN06/2211Z LAST NO AMDS AFT 2119 NEXT 2411", "KRDD 222320Z 2300/2324 34010G16KT P6SM SKC FM230200 35008KT P6SM SKC FM231800 36014G22KT P6SM SKC", "KRDG 221742Z 2218/2318 18005KT P6SM FEW250", "KRDM 222332Z 2300/2324 30012G22KT P6SM VCSH BKN050 FM230200 31010KT P6SM VCSH BKN050 FM231000 28004KT P6SM BKN035 FM231700 32007KT P6SM SCT040 SCT200", "TAF KRDR 221800Z 2218/2324 07010G15KT 9999 OVC120 QNH2946INS BECMG 2301/2302 04009KT 9999 BKN040 QNH2952INS BECMG 2303/2304 VRB06KT 6000 BR BKN010 QNH2950INS BECMG 2313/2314 05009KT 9999 NSW BKN020 QNH2949INS BECMG 2317/2318 08010G15KT 9999 BKN040 QNH2932INS TX15/2220Z TN06/2307Z", "KRDU 222320Z 2300/2324 06006KT P6SM FEW045 SCT250", "KRFD 222102Z 2221/2318 17015G25KT P6SM FEW300 FM230100 17012KT P6SM FEW200 WS015/20047KT FM231000 16010KT P6SM SCT050 FM231500 17014G26KT P6SM SCT050", "KRHI 221720Z 2218/2318 17008G17KT P6SM SCT250 FM222300 17008KT P6SM SKC WS019/21040KT FM231000 17007KT P6SM SKC FM231400 15010G20KT P6SM SCT090", "KRIC 222328Z 2300/2324 06003KT P6SM SCT250 FM231000 36006KT P6SM SCT040 OVC200 FM231200 36009KT P6SM BKN025 OVC150 FM232000 36008KT P6SM BKN035 OVC150", "KRIL 222001Z 2220/2318 23020G35KT P6SM BKN090 FM230300 25020G30KT P6SM -SHRA BKN060 FM230900 27020G30KT 5SM -SHRA BR OVC050 FM231100 27015G25KT 3SM SHRA BR OVC030", "TAF KRIV 222002Z 2220/2402 16010G18KT 9999 SCT025 BKN035 510003 520307 QNH2973INS WND 140V230 BECMG 2301/2302 23010G18KT 9999 VCSH SCT015 BKN025 510002 520208 QNH2975INS TEMPO 2302/2308 25012G18KT 8000 -RA BR SCT008 OVC015 BECMG 2308/2309 26006KT 9999 VCSH BKN008 OVC015 QNH2979INS BECMG 2312/2313 15006KT 9999 NSW SCT008 OVC015 QNH2980INS BECMG 2315/2316 15006KT 9999 SCT010 BKN025 QNH2985INS BECMG 2316/2317 15006KT 9999 SCT015 SCT025 QNH2986INS BECMG 2319/2320 31009KT 9999 SCT035 QNH2984INS TX22/2222Z TN16/2313Z", "KRIW 222327Z 2300/2324 19015G25KT P6SM SCT060 BKN090 FM230500 VRB06KT P6SM OVC100 FM230900 31012G22KT P6SM OVC100 FM231700 02008G15KT 3SM -SHSN FEW010 OVC040", "KRKD 222320Z 2300/2324 22004KT P6SM SCT250 FM230600 00000KT 3SM BR SCT002 FM231400 05005KT P6SM BKN100", "KRKS 222327Z 2300/2324 21020G35KT P6SM SCT040 BKN060 FM230200 29015G22KT 3SM -SN SCT020 BKN030 FM231200 29015G25KT P6SM VCSH SCT020 BKN040", "KRME 222320Z 2300/2324 13005KT P6SM FEW250", "KRNH 222325Z 2300/2324 14008KT P6SM SCT250 WS020/19040KT FM230800 14010KT P6SM SCT200 FM231400 15013G23KT P6SM SCT050 BKN150 FM231700 15019G30KT P6SM BKN050", "KRNO 222323Z 2300/2324 34016G25KT P6SM SCT060 BKN090 FM230200 33009KT P6SM SCT090 FM230900 34006KT P6SM FEW100 FM232000 05009G18KT P6SM SKC", "KROA 222320Z 2300/2324 07003KT P6SM FEW250", "KROC 222105Z 2221/2318 19006KT P6SM SKC FM231200 VRB03KT P6SM SCT250", "KROG 222320Z 2300/2324 18020G30KT P6SM FEW250 FM230200 18017G28KT P6SM BKN250 WS020/20045KT FM231500 18018G30KT P6SM BKN025 BKN100 FM231900 18020G34KT P6SM SCT100 BKN250", "KROW 222330Z 2300/2324 17012G20KT P6SM BKN250 FM230100 21012KT P6SM SCT150 BKN250 FM230600 18012G20KT P6SM BKN150 FM231600 21025G35KT P6SM SCT070 SCT150 FM232300 22015G25KT P6SM SCT080", "KRSL 222328Z 2300/2324 15012KT P6SM FEW250 FM230800 20012G21KT P6SM FEW250 FM231500 20021G29KT P6SM SKC FM232000 21034G50KT 6SM BLDU FEW250", "KRST 222325Z 2300/2324 17012KT P6SM SKC FM231500 15015G28KT P6SM FEW050 FM231800 15022G34KT P6SM SCT050", "KRSW 222325Z 2300/2324 05004KT P6SM SKC FM231500 04007KT P6SM FEW040 FEW250", "KRUT 222320Z 2300/2324 14006KT P6SM SKC FM230400 14006KT P6SM SCT250 FM231500 13004KT P6SM BKN250", "KRVS 222320Z 2300/2324 19020G30KT P6SM FEW250 FM230200 17015G23KT P6SM BKN250 WS020/19045KT FM231500 18020G30KT P6SM SCT025 OVC250 FM232000 18021G33KT P6SM SCT100 OVC250", "KRWF 222325Z 2300/2324 15010KT P6SM SCT250 WS020/20040KT FM230800 14010KT P6SM SCT200 FM231200 14014G23KT P6SM SCT120 FM231500 15023G31KT P6SM SCT120", "KRWI 222320Z 2300/2324 05007KT P6SM SCT045 SCT250 FM231400 36009KT P6SM BKN020 BKN250 FM232000 36011KT P6SM SCT030 SCT250", "KRWL 222320Z 2300/2324 24030G43KT P6SM BKN090 FM230100 24020G30KT P6SM OVC090 FM230600 24015G25KT P6SM -RA OVC025 FM230800 26012KT 3SM -SHRASN BR OVC010 FM231300 28015KT 1 1/2SM -SHSNRA BR OVC015", "KRYY 222331Z 2300/2324 VRB05KT P6SM SCT250", "KSAC 222320Z 2300/2324 30016G25KT P6SM SKC FM230300 31008KT P6SM SKC WS020/34030KT FM231600 34014G22KT P6SM SKC", "KSAF 222330Z 2300/2324 22020G30KT P6SM BKN060 FM230100 20014G22KT P6SM SCT050 FM230600 19018G28KT P6SM VCSH SCT050 BKN070 FM231600 22025G35KT P6SM VCSH BKN050 FM232000 25025G35KT P6SM VCSH BKN050 FM232300 27020G30KT P6SM BKN040", "KSAN 222042Z 2221/2324 23010G19KT P6SM VCSH BKN028 FM230300 24011G20KT P6SM -RA OVC025 FM231100 27011KT P6SM OVC035 FM231900 24008KT P6SM SCT050", "KSAT 221739Z 2218/2324 19013G23KT P6SM FEW035 FM222300 16012G22KT P6SM SKC FM230700 17011KT P6SM OVC011 TEMPO 2309/2313 OVC009 FM231800 18013G23KT P6SM OVC035", "KSAV 222320Z 2300/2324 02003KT P6SM SKC FM231500 03008KT P6SM SKC", "KSAW 221720Z 2218/2318 17008KT P6SM FEW220 FM230000 18010KT P6SM FEW250 WS020/21045KT FM231200 16007KT P6SM SKC", "KSBA 222019Z 2220/2318 24008KT P6SM BKN030 FM222300 26010KT P6SM BKN025 FM230100 30012G20KT P6SM FEW025 FM230800 35006KT P6SM SKC FM231500 VRB03KT P6SM SKC", "KSBD 221738Z 2218/2318 24004KT 5SM HZ SCT025 BKN035 FM222000 25009KT P6SM BKN035 FM230200 25011G17KT P6SM -RA BKN020 OVC035 FM231000 25008KT P6SM SCT020 OVC035 FM231600 VRB04KT P6SM SCT045", "KSBM 222327Z 2300/2324 17010KT P6SM SKC WS020/19035KT FM230400 19010KT P6SM SKC WS020/21045KT FM230900 18007KT P6SM SKC WS020/22035KT FM231300 16010G20KT P6SM FEW250 FM231500 16014G25KT P6SM FEW250 FM231900 16016G30KT P6SM FEW210", "KSBN 222331Z 2300/2324 16009KT P6SM SKC WS020/21044KT FM231400 18012G23KT P6SM SCT250 FM231600 18017G28KT P6SM SCT100 FM232300 17014G23KT P6SM SCT100", "KSBP 222106Z 2221/2318 23007KT P6SM OVC025 FM222300 31013G17KT P6SM SCT250 FM230300 32010KT P6SM SCT250 FM231500 33005KT P6SM SKC", "KSBY 222328Z 2300/2324 05003KT P6SM BKN250 FM230600 02003KT P6SM BKN045 FM230800 02006KT P6SM VCSH OVC015 FM231400 03012G18KT P6SM OVC015 FM231900 02012G18KT P6SM -RA SCT008 OVC012", "KSCK 222320Z 2300/2324 29014G20KT P6SM SKC FM230300 30011KT P6SM SKC FM231800 32014G21KT P6SM SKC", "KSDF 222320Z 2300/2406 16007KT P6SM BKN250 FM231400 18010G17KT P6SM SCT250", "KSDL 222320Z 2300/2324 22009G17KT P6SM SCT070 BKN080 FM230300 18011KT P6SM FEW060 SCT080 FM230900 21010KT P6SM BKN040 FM231100 23009KT P6SM FEW040 SCT060 FM231800 25010KT P6SM SCT070", "KSDY 221733Z 2218/2318 05007KT P6SM OVC011 FM222100 08013G21KT P6SM OVC020 FM230500 03015G22KT P6SM OVC035 FM231200 01011KT P6SM OVC022", "KSEA 222051Z 2221/2324 19007KT P6SM -SHRA FEW005 BKN015 OVC025 FM222300 31005KT P6SM VCSH BKN035 FM230400 VRB03KT P6SM BKN050 FM231300 08003KT P6SM OVC020 FM231500 05004KT 5SM BR BKN004 FM231900 18006KT P6SM BKN025", "KSEZ 222322Z 2300/2324 20019G30KT P6SM VCSH BKN060 TEMPO 2305/2309 4SM -SHRA OVC025 FM231100 21022G34KT P6SM VCSH BKN030 FM232000 23011G21KT P6SM SCT080", "KSFB 222324Z 2300/2324 01006KT P6SM SKC FM231800 03009KT P6SM FEW050", "KSFF 222320Z 2300/2324 30004KT P6SM SCT050 BKN070 FM230300 35004KT P6SM -RA BKN035 FM230600 23002KT P6SM OVC050 FM231000 02002KT P6SM BCFG SCT003 BKN028 FM231800 VRB03KT P6SM FEW050", "KSFO 222320Z 2300/2406 29026G35KT P6SM FEW025 FM230400 29020G27KT P6SM SKC FM230900 29018KT P6SM SKC FM231500 30011KT P6SM SKC FM231800 31016G24KT P6SM SCT250 FM240400 32010KT P6SM FEW250", "KSGF 222326Z 2300/2324 17020G30KT P6SM FEW250 FM230600 17021G30KT P6SM SKC WS020/20050KT FM231300 18020G33KT P6SM BKN240 FM231600 19023G35KT P6SM SCT210", "KSGJ 222320Z 2300/2324 VRB05KT P6SM SKC FM231400 01010KT P6SM SCT030 FM232000 06009KT P6SM FEW250", "KSGR 222320Z 2300/2324 17016G24KT P6SM FEW060 FM230200 17010KT P6SM FEW040 FM230800 17005KT P6SM FEW025 SCT040 FM231530 17014G22KT P6SM FEW030 SCT040 FM231800 17015G24KT P6SM FEW035 SCT060", "KSGU 222320Z 2300/2324 22020G40KT 5SM BLDU SCT100 FM230200 25010KT P6SM SCT070 OVC100 FM230900 34015G25KT P6SM VCSH BKN040 OVC070", "KSHR 222332Z 2300/2324 31011KT P6SM SCT100 BKN150 FM230800 31015KT P6SM VCSH SCT008 BKN025 OVC040 FM231000 31015G25KT 3SM RA BR BKN008 OVC015 FM231400 31015G25KT 1SM -SN BR OVC008 FM232000 31020G32KT 1/2SM SN FG SCT004 OVC008", "KSHV 221741Z 2218/2318 19015G25KT P6SM FEW040 SCT200 FM230100 17012G20KT P6SM FEW050 BKN250 FM231000 17009KT P6SM FEW025 SCT200 FM231500 17013G23KT P6SM SCT020 BKN030", "KSJC 222320Z 2300/2324 32020G27KT P6SM SKC FM230600 32012KT P6SM SKC FM231200 30006KT P6SM SKC FM231700 34012G20KT P6SM SKC", "KSJS 221722Z 2218/2318 VRB05KT P6SM FEW250", "KSJT 222320Z 2300/2324 19014G21KT P6SM SCT150 BKN250 FM231400 19015G25KT P6SM SCT018 TEMPO 2314/2317 BKN018 FM231800 19018G26KT P6SM BKN250", "TAF KSKA 221900Z 2219/2401 30012KT 9999 SCT030 QNH2954INS BECMG 2302/2303 VRB06KT 9999 BKN060 QNH2964INS BECMG 2308/2309 VRB06KT 6000 BR SCT015 BKN020 620205 QNH2973INS TEMPO 2311/2314 4800 BR BKN015 BECMG 2317/2318 35009KT 9999 NSW FEW010 BKN060 QNH2990INS TX08/2223Z TNM01/2313Z", "TAF KSKF 221800Z 2218/2400 18015G25KT 9999 FEW035 SCT300 QNH2988INS BECMG 2301/2302 16012KT 9999 FEW040 SCT300 QNH2987INS BECMG 2307/2308 16009KT 9999 OVC010 QNH2984INS TEMPO 2311/2314 OVC009 BECMG 2315/2316 16010G15KT 9999 SCT025 SCT110 BKN250 QNH2979INS BECMG 2318/2319 16017G27KT 9999 SCT030 BKN110 BKN250 510003 QNH2975INS TX32/2221Z TN19/2311Z", "KSLC 222320Z 2300/2406 33025G40KT 3SM RA SCT020 OVC060 TEMPO 2300/2303 OVC010 FM230300 15005KT 6SM -RASN BKN020 OVC050 FM231000 31007KT 6SM -SN OVC020", "KSLE 222330Z 2300/2324 28009KT P6SM VCSH SCT035 BKN060 FM230400 28004KT P6SM BKN060 FM231500 19004KT P6SM BKN045 FM231900 18005KT P6SM SCT120 BKN250", "TAF KSLI 222100Z 2221/2403 21009KT 9999 OVC023 QNH2972INS BECMG 2306/2307 25009KT 9999 SCT023 SCT050 QNH2976INS BECMG 2310/2311 VRB06KT 9999 BKN023 BKN035 QNH2976INS BECMG 2312/2313 VRB06KT 9000 BR SCT023 QNH2977INS TX22/2400Z TN15/2315Z", "KSLK 222320Z 2300/2324 00000KT P6SM SKC FM231200 00000KT P6SM SCT250 FM231800 08005KT P6SM SCT250", "KSLN 222328Z 2300/2324 16012G20KT P6SM SKC FM230700 18016KT P6SM SKC WS020/22040KT FM231400 19019G27KT P6SM FEW240 FM232000 20031G45KT 6SM BLDU FEW250", "KSME 221722Z 2218/2318 18008G15KT P6SM FEW250 FM222100 VRB05KT P6SM FEW250 FM231500 19006KT P6SM FEW250", "KSMF 222320Z 2300/2324 32016G26KT P6SM SKC FM230300 33009KT P6SM SKC WS020/34030KT FM231600 34015G25KT P6SM SKC", "KSMN 222334Z 2300/2324 01007KT P6SM -RA FEW050 OVC060 FM230600 05004KT 6SM -SNRA BR OVC050 FM231600 01004KT 5SM -SN BR OVC035", "KSMO 222018Z 2220/2318 22009KT P6SM BKN021 OVC027 FM230800 VRB03KT P6SM SKC", "KSMX 221740Z 2218/2318 30006KT P6SM BKN025 FM222000 30010KT P6SM OVC025 FM222300 30014G20KT P6SM BKN025 FM230100 30016G25KT P6SM SCT250 FM230400 32009KT P6SM SKC FM231500 33004KT P6SM SKC", "KSNA 221738Z 2218/2318 22009KT P6SM VCSH BKN025 FM230300 21010G17KT P6SM -RA OVC025 FM230800 21010G18KT P6SM OVC025 FM231200 VRB06KT P6SM BKN030 FM231600 19008KT P6SM SCT040", "KSNS 222320Z 2300/2324 29016G24KT P6SM SCT150 FM230500 25008KT P6SM SKC FM231700 30014G22KT P6SM SKC", "KSNY 222320Z 2300/2324 17015G25KT P6SM SKC FM230500 24009KT P6SM SCT150 FM231700 26018G28KT P6SM BKN150 FM231900 32028G40KT P6SM BKN120", "KSOA 222320Z 2300/2324 19010KT P6SM SCT250 FM231100 18011KT P6SM BKN012 FM231500 18015G23KT P6SM BKN012 FM231700 18016G24KT P6SM SCT050", "KSPI 222329Z 2300/2324 16014G19KT P6SM FEW250 WS020/19050KT FM230800 16013G19KT P6SM SCT050 BKN250 FM231500 17020G30KT P6SM SCT060 BKN180", "KSPS 222323Z 2300/2324 19018G28KT P6SM BKN250 WS020/22040KT FM231600 19022G32KT P6SM SCT120 BKN250", "KSRQ 222325Z 2300/2324 33006KT P6SM SKC FM230200 04004KT P6SM SKC FM231400 05008KT P6SM SKC FM231900 34008KT P6SM FEW250", "TAF KSSC 222300Z 2223/2405 VRB06KT 9999 SKC QNH3012INS TX23/2320Z TN10/2312Z LAST NO AMDS AFT 2223 NEXT 2407", "KSSF 221739Z 2218/2318 18013G23KT P6SM SKC FM222200 16011G21KT P6SM SKC FM230800 15008KT P6SM OVC011 FM231500 16010KT P6SM OVC025", "KSSI 222320Z 2300/2324 VRB05KT P6SM SKC FM231500 03010G16KT P6SM SCT030 FM232100 05008KT P6SM FEW250", "KSTC 222325Z 2300/2324 13006KT P6SM FEW250 WS020/20040KT FM230700 14010KT P6SM SCT200 FM231500 14017G26KT P6SM BKN060", "KSTJ 222331Z 2300/2324 18012G20KT P6SM SKC FM231400 18018G25KT P6SM SCT250 FM232200 18022G35KT P6SM SCT250", "KSTL 222323Z 2300/2406 17015G28KT P6SM SCT120 BKN250 FM230300 16011G20KT P6SM SCT120 BKN250 FM231400 17015G30KT P6SM SCT045 BKN250", "KSTS 222320Z 2300/2324 32024G30KT P6SM FEW200 FM230100 32020KT P6SM SKC FM230800 34016KT P6SM SKC FM231100 34007KT P6SM SKC WS010/32035KT FM231500 34008G16KT P6SM SKC FM231800 36013G21KT P6SM SKC", "KSUA 222324Z 2300/2324 36008KT P6SM SCT035 FM230300 01005KT P6SM SCT030 FM231500 02010KT P6SM FEW050 AMD NOT SKED", "KSUN 222320Z 2300/2406 25010G20KT P6SM VCSH OVC080 FM230200 32010KT P6SM VCSH SCT030 SCT080 FM231800 29015KT P6SM BKN080 FM240300 31010KT P6SM SKC AMD LTD TO CLD VIS AND WIND 2305/2313", "KSUS 222323Z 2300/2324 17012G24KT P6SM SCT120 BKN250 FM230300 16009G18KT P6SM SCT120 BKN250 FM231400 17013G27KT P6SM SCT045 BKN250", "TAF AMD KSUU 222300Z 2223/2401 01009KT 9999 SCT060 QNH2970INS BECMG 2300/2301 33015G25KT 9999 SKC QNH2970INS TX27/2223Z TN11/2313Z", "KSUX 222328Z 2300/2324 15009KT P6SM SKC FM230400 12007KT P6SM SKC WS009/17037KT FM231000 14011G17KT P6SM FEW250 FM231200 13013G21KT P6SM SCT005 FM231600 17021G30KT P6SM FEW250 FM231900 17024G37KT P6SM FEW250", "TAF KSVN 220400Z 2204/2310 VRB06KT 9999 SKC QNH3008INS BECMG 2215/2216 02010G15KT 9999 SKC QNH3008INS BECMG 2221/2222 VRB06KT 9999 SKC QNH3008INS TX22/2218Z TN09/2212Z LAST NO AMDS AFT 2204 NEXT 2404", "KSWF 222320Z 2300/2406 VRB04KT P6SM BKN250 FM231500 04005KT P6SM FEW025 BKN150 FM231800 08007KT P6SM SCT025 BKN120 PROB30 2320/2323 6SM -RA BR BKN025 BKN080 FM232300 05005KT 6SM -RA BR BKN025 OVC040 FM240300 VRB04KT 5SM -RA BR BKN008 BKN015 AMD NOT SKED", "KSWO 222323Z 2300/2324 17015G23KT P6SM SCT250 WS020/21050KT FM231500 19022G32KT P6SM SCT120 BKN250", "KSYM 221722Z 2218/2318 19008G15KT P6SM FEW250 FM222300 VRB05KT P6SM FEW250 FM231600 19006KT P6SM FEW250", "KSYR 222320Z 2300/2324 15005KT P6SM SKC FM231200 10005KT P6SM SCT250", "TAF KSZL 221900Z 2219/2401 18020G35KT 9999 FEW060 SCT200 520003 QNH2954INS BECMG 2223/2224 17015KT 9999 FEW200 QNH2958INS BECMG 2315/2316 19020G35KT 9999 FEW080 520003 QNH2955INS BECMG 2323/2324 18018KT 9999 SCT080 BKN200 QNH2956INS TX29/2220Z TN19/2310Z", "TAF KTBN 212100Z 2121/2303 20010G20KT 9999 FEW310 QNH2977INS BECMG 2214/2215 18020G25KT 9999 FEW200 FEW270 510052 QNH2979INS BECMG 2220/2221 18022G33KT 9999 SCT180 510042 QNH2975INS BECMG 2223/2224 17012KT 9999 FEW050 QNH2980INS TX28/2122Z TN15/2208Z LAST NO AMDS AFT 2203 NEXT 2413", "KTCC 222330Z 2300/2324 26025G35KT P6SM BKN200 FM230200 23015G25KT P6SM BKN200 FM231100 22023G33KT P6SM SKC WS020/23045KT FM231600 23035G45KT P6SM SKC FM232300 25025G35KT P6SM SCT070", "KTCL 221737Z 2218/2318 18008KT P6SM SCT250 FM230000 14005KT P6SM SCT250", "TAF KTCM 222100Z 2221/2403 19006KT 9999 BKN035 OVC050 QNH2977INS BECMG 2300/2301 06006KT 8000 -RA BKN015 OVC040 620509 QNH2973INS BECMG 2308/2309 04006KT 9000 -SHRA BKN009 OVC012 610509 QNH2977INS BECMG 2311/2312 12006KT 6000 -RA BR BKN005 OVC012 QNH2980INS TX12/2223Z TN03/2313Z", "KTCS 222332Z 2300/2324 22013KT P6SM BKN100 FM230300 21017G27KT P6SM BKN250 FM230900 22020G30KT P6SM BKN150 FM231700 23025G35KT P6SM BKN250", "KTEB 222320Z 2300/2406 VRB03KT P6SM BKN250 FM230700 01004KT P6SM BKN250 FM231300 03006KT P6SM SCT025 BKN120 PROB30 2318/2321 6SM -RA BR BKN025 BKN080 FM232100 05008KT 6SM -RA BR BKN025 OVC050 FM240100 02005KT 5SM -RA BR SCT008 BKN015 FM240400 01005KT 5SM -RA BR BKN008", "KTEX 222004Z 2220/2318 19015G25KT P6SM SCT090 FM222200 20021G35KT P6SM SCT090 FM230300 21030G40KT P6SM VCSH SCT070 BKN090 FM230500 21035G45KT 6SM SHRASN BR SCT040 OVC070 FM231200 25030G40KT 6SM -SHSNRA BR OVC030", "TAF KTIK 221700Z 2217/2323 19015G25KT 9999 FEW200 510003 QNH2956INS TEMPO 2217/2220 20025G35KT BECMG 2220/2221 18015G25KT 9999 SCT200 510003 QNH2956INS TEMPO 2313/2320 19025G35KT BECMG 2320/2321 20015G25KT 9999 BKN150 510003 QNH2960INS TX32/2222Z TN19/2311Z", "KTIX 222324Z 2300/2324 36012KT P6SM SCT090 FM230100 36005KT P6SM SCT040 FM231500 02011KT P6SM FEW030 AMD NOT SKED 2301/2311", "KTLH 221720Z 2218/2318 05006KT P6SM SKC", "KTMB 222320Z 2300/2324 04012KT P6SM FEW050 FM230200 01006KT P6SM FEW050 FM230600 35006KT P6SM FEW050 FM231500 03008KT P6SM FEW050", "KTOI 221737Z 2218/2318 11006KT P6SM SKC FM231600 12007KT P6SM FEW250", "KTOL 222329Z 2300/2324 19008KT P6SM FEW250", "KTOP 222333Z 2300/2324 16012G20KT P6SM SKC FM230200 17014G20KT P6SM SKC WS015/18045KT FM231400 18015G26KT P6SM FEW250 FM231700 19024G35KT P6SM SCT200", "KTPA 222325Z 2300/2406 06003KT P6SM SKC FM231500 04007KT P6SM FEW040 FM231900 34007KT P6SM FEW040 FEW250", "KTPH 222321Z 2300/2324 34027G37KT P6SM -SHRA SCT040 BKN060 FM230300 34023G33KT P6SM VCSH BKN100 FM230800 34020G30KT P6SM SKC FM231800 34027G35KT P6SM SKC", "KTRI 222325Z 2300/2324 VRB03KT P6SM SCT250", "KTRK 222323Z 2300/2324 32010G20KT P6SM FEW020 SCT040 BKN070 FM230300 34007KT P6SM FEW050 FM231800 02007G14KT P6SM SKC", "KTRM 221738Z 2218/2318 33008KT P6SM SCT250 FM222000 30012G22KT P6SM BKN250 FM230100 32015G25KT P6SM BKN250 FM230500 32020G30KT P6SM FEW250 FM230900 32011KT P6SM FEW250", "KTTD 222330Z 2300/2324 25007KT P6SM -SHRA SCT030 BKN060 FM230300 VRB03KT P6SM BKN045 BKN080 FM231000 00000KT P6SM BKN060 FM231800 00000KT P6SM SCT060 BKN250", "KTTN 221742Z 2218/2318 VRB03KT P6SM FEW250", "KTUL 222320Z 2300/2324 18022G33KT P6SM FEW250 FM230200 17018G28KT P6SM BKN250 WS020/19045KT FM231500 18023G33KT P6SM SCT025 OVC250 FM232000 18023G35KT P6SM SCT100 OVC250", "KTUP 222327Z 2300/2324 17008KT P6SM SKC FM231500 20013G18KT P6SM SCT250", "KTUS 222320Z 2300/2324 21013G23KT P6SM FEW070 SCT250 FM230700 20009KT P6SM FEW250 FM231800 25012G20KT P6SM SCT070 BKN200", "KTVC 222324Z 2300/2324 18009KT P6SM SKC WS020/20040KT FM230600 18010G20KT P6SM SKC WS020/22040KT FM231100 17008G19KT P6SM SKC FM231800 17013G24KT P6SM FEW240", "KTVF 222328Z 2300/2324 07011KT P6SM BKN150 FM230900 07009KT P6SM SCT150 FM231400 09009KT P6SM SCT250 FM231800 12013G19KT P6SM SCT250 FM232000 11016G24KT P6SM SCT250", "KTVL 222323Z 2300/2324 19008KT P6SM FEW040 SCT070 FM230300 VRB04KT P6SM FEW070 FM231900 02007G14KT P6SM SKC", "KTWF 222333Z 2300/2324 29015G25KT P6SM FEW060 FM231200 27020G30KT P6SM SCT060", "KTXK 221741Z 2218/2318 20018G27KT P6SM FEW040 BKN200 FM230000 18012G22KT P6SM FEW050 BKN250 FM231200 17011G22KT P6SM SCT025 BKN080 FM231600 19015G25KT P6SM SCT040 BKN120", "KTYR 221741Z 2218/2318 19019G30KT P6SM FEW040 SCT200 FM230100 17017G25KT P6SM FEW050 SCT250 FM231400 18015G25KT P6SM BKN027 FM231600 18016G26KT P6SM BKN035", "KTYS 222325Z 2300/2324 VRB05KT P6SM BKN250", "KUAO 222330Z 2300/2324 24007KT P6SM VCSH SCT035 BKN060 FM230300 VRB03KT P6SM BKN050 FM231200 22003KT P6SM FEW002 BKN025 FM231600 VRB02KT P6SM SCT025 BKN050 FM231900 22004KT P6SM SCT120 BKN250", "KUES 222327Z 2300/2324 16009KT P6SM SKC WS020/19035KT FM230400 19010KT P6SM SKC WS020/21045KT FM230900 17007KT P6SM SKC WS020/21035KT FM231400 16010G21KT P6SM FEW250 FM231900 17014G24KT P6SM SCT200", "KUIN 222323Z 2300/2324 16015G30KT P6SM FEW150 BKN250 FM230500 16012G22KT P6SM SCT250 FM231400 16018G30KT P6SM SCT045 SCT250", "KUKI 221739Z 2218/2318 33012G21KT P6SM SCT025 BKN200 FM222000 30020G29KT P6SM SCT035 BKN200 FM230100 32014G22KT P6SM SKC FM230400 33007G16KT P6SM SKC FM231200 VRB06KT P6SM SKC", "KUNV 222321Z 2300/2324 15004KT P6SM SKC", "KUTS 222320Z 2300/2324 18012G22KT P6SM FEW040 FM230400 17011KT P6SM FEW025 FM230800 17008KT P6SM SCT025 FM231500 17012G22KT P6SM FEW030 SCT040 FM231900 18014G25KT P6SM FEW035 SCT050", "TAF KVAD 221600Z 2216/2322 03009KT 9999 SKC QNH3015INS TX23/2218Z TN08/2309Z LAST NO AMDS AFT 2216 NEXT 2408", "TAF KVBG 221600Z 2216/2322 VRB06KT 9999 OVC014 QNH2987INS BECMG 2217/2218 33009KT 9999 BKN015 OVC130 QNH2984INS BECMG 2219/2220 31010G15KT 9999 BKN020 OVC080 QNH2981INS BECMG 2221/2222 30012G18KT 9999 SCT020 SCT080 QNH2979INS BECMG 2223/2224 31015G25KT 9999 FEW020 510006 QNH2979INS BECMG 2306/2307 33012G18KT 9999 FEW040 510006 QNH2983INS BECMG 2311/2312 34009KT 9999 SKC QNH2985INS BECMG 2316/2317 33010G15KT 9999 SKC QNH2994INS BECMG 2319/2320 33012G18KT 9999 SKC QNH2992INS TX20/2322Z TN10/2314Z LAST NO AMDS AFT 2221 NEXT 2414", "KVCT 222320Z 2300/2324 15013G21KT P6SM SCT050 FM230300 16009KT P6SM BKN050 FM231500 16012G19KT P6SM SCT050 BKN250 FM231700 15020G27KT P6SM BKN250", "KVEL 222121Z 2221/2318 24013G23KT P6SM VCSH BKN120 TEMPO 2221/2223 -SHRA OVC080 FM222300 23022G30KT P6SM VCSH OVC110 FM230300 24010KT P6SM -SHRA OVC040 FM230900 05009KT 5SM -SHRA BR SCT015 OVC035 FM231100 05009KT 6SM SHRASN BR OVC025", "KVGT 222320Z 2300/2324 23032G45KT 4SM BLDU SCT120 BKN200 FM230500 33025G35KT P6SM VCSH SCT070 BKN100 FM231100 33018G28KT P6SM SCT100", "KVIS 222320Z 2300/2324 34009KT P6SM SCT045 BKN060", "KVLD 221722Z 2218/2318 05008G17KT P6SM SKC FM230000 00000KT P6SM SKC", "KVNY 221832Z 2219/2318 19007KT P6SM SCT021 OVC035 FM222100 16012KT P6SM SCT025 BKN035 FM230200 20005KT P6SM OVC025 FM230900 35008KT P6SM SCT250", "TAF KVOK 221700Z 2217/2323 20009KT 9999 SKC 510062 QNH2963INS BECMG 2221/2222 17009KT 9999 SKC 510062 QNH2963INS BECMG 2316/2317 16020G25KT 9999 FEW022 FEW030 SCT045 QNH2966INS BECMG 2322/2323 15015KT 9999 BKN035 510062 QNH2966INS TX22/2220Z TN13/2312Z", "TAF KVPS 221700Z 2217/2323 16009KT 9999 SKC QNH3010INS WND 08007KT AFT 2223 BECMG 2314/2315 15009KT 9999 FEW250 QNH3003INS TX25/2220Z TN10/2312Z", "KVQQ 222320Z 2300/2324 VRB03KT P6SM SKC FM231400 01006KT P6SM FEW030 FM232200 06007KT P6SM FEW250", "KVRB 222324Z 2300/2324 36006KT P6SM VCSH SCT035 FM230300 36005KT P6SM SCT030 FM231500 01009KT P6SM FEW040", "KVTN 222334Z 2300/2324 16007KT P6SM FEW250 FM230500 18008KT P6SM SKC FM231900 21015G28KT P6SM FEW250 FM232100 24017G31KT P6SM FEW250 FM232200 26017G31KT P6SM SCT220 FM232300 28018G32KT P6SM SCT120", "KWJF 221740Z 2218/2318 22022G30KT P6SM SKC FM222100 24032G42KT 3SM BLDU SCT150 FM230300 24025G35KT P6SM SKC FM230800 26020G28KT P6SM SKC FM231100 27016G23KT P6SM SKC FM231400 28014KT P6SM SKC", "KWMC 222321Z 2300/2324 33017G24KT 6SM -SHSN BR SCT025 OVC035 FM230200 31010G18KT 5SM -SHSN BR SCT025 BKN100 FM230600 30008KT P6SM VCSH SCT035 BKN250 FM231800 33016G22KT P6SM BKN100 AMD NOT SKED", "TAF KWRB 221600Z 2216/2322 04006KT 9999 SKC QNH3012INS TX23/2220Z TN05/2310Z", "TAF KWRI 221800Z 2218/2324 19004KT 9999 SKC QNH3023INS BECMG 2305/2306 04004KT 9999 SCT030 QNH3024INS BECMG 2312/2313 03006KT 9999 BKN020 QNH3020INS BECMG 2322/2323 01007KT 9999 VCSH BKN010 OVC020 QNH3021INS TX21/2219Z TN09/2310Z", "KWRL 222327Z 2300/2324 19012G22KT P6SM SCT060 BKN080 FM230300 24010G20KT P6SM VCSH BKN060 OVC080 FM231000 36007KT P6SM VCSH SCT040 OVC060 FM231300 34015G30KT P6SM BKN070", "KWWR 222323Z 2300/2324 21014G22KT P6SM SCT250 FM231500 20024G36KT P6SM SCT120 BKN250", "KXNA 222320Z 2300/2324 18020G30KT P6SM FEW250 FM230200 18017G28KT P6SM BKN250 WS020/20045KT FM231500 18018G30KT P6SM BKN025 BKN100 FM231900 18020G34KT P6SM SCT100 BKN250", "KXWA 222331Z 2300/2324 11009KT P6SM VCSH OVC028 FM230300 06015G23KT P6SM VCSH OVC025 FM230900 05016G24KT 6SM -RA BR OVC010 FM231800 04021G30KT 6SM -RA BR OVC010", "KYIP 222320Z 2300/2324 16007KT P6SM BKN250 WS018/22035KT FM231000 17007KT P6SM SCT250 FM231600 16011KT P6SM FEW250", "KYKM 222332Z 2300/2324 31008KT P6SM BKN080 FM231600 VRB06KT P6SM SCT080 SCT250", "KYNG 222329Z 2300/2324 18005KT P6SM FEW250", "KZZV 222320Z 2300/2324 14005KT P6SM SKC", "TAF LATI 222300Z 2300/2324 VRB04KT CAVOK TX27/2312Z TN09/2304Z PROB30 2300/2305 2500 BCFG", "TAF LBBG 222300Z 2300/2324 27012KT CAVOK PROB30 TEMPO 2308/2312 30016G26KT BECMG 2311/2313 34010KT BECMG 2316/2318 VRB04KT", "TAF LBGO 222300Z 2300/2324 VRB04KT 9999 SCT060 BECMG 2304/2306 30014KT TEMPO 2306/2311 30020G30KT BECMG 2316/2318 VRB04KT", "TAF LBPD 222300Z 2300/2324 VRB04KT CAVOK BECMG 2306/2308 28014KT BECMG 2317/2319 VRB04KT", "TAF LBSF 222300Z 2300/2324 VRB04KT 9999 SCT050 TEMPO 2300/2305 3000 BR BECMG 2305/2307 28012KT BECMG 2316/2318 VRB04KT", "TAF LBWN 222300Z 2300/2324 VRB04KT CAVOK BECMG 2304/2306 29013KT PROB40 TEMPO 2306/2311 32020G30KT BECMG 2312/2314 35008KT", "TAF LCEN 222240Z 2300/2324 29012KT CAVOK", "TAF LCLK 222330Z 2300/2324 30007KT CAVOK BECMG 2306/2309 03012KT BECMG 2316/2319 32008KT", "TAF LCPH 222330Z 2300/2324 02008KT CAVOK BECMG 2307/2311 29012KT BECMG 2316/2319 36009KT", "TAF LCRA 222221Z 2300/2318 35004KT 9999 FEW040 PROB40 2221/2307 VRB03KT", "TAF LDDU 222325Z 2300/2400 08008KT 9999 SCT025 TX22/2310Z TN14/2302Z TEMPO 2309/2316 16008KT", "TAF LDLO 221125Z 2212/2312 17014KT 9999 FEW010 SCT025 TX22/2213Z TN18/2304Z PROB30 TEMPO 2212/2216 17015G25KT BKN014 PROB30 TEMPO 2216/2303 TSRA BKN010 FEW020CB BKN030 PROB40 2220/2308 19006KT PROB30 TEMPO 2308/2312 BKN010", "TAF LDOS 222325Z 2300/2400 24008KT CAVOK TX21/2311Z TN10/2304Z PROB40 2302/2309 VRB02KT 0200 FG VV002", "TAF LDPL 222325Z 2300/2400 13005KT 9999 SCT020 TX22/2312Z TN16/2304Z PROB30 TEMPO 2300/2315 BKN007", "TAF LDRI 222325Z 2300/2400 09006KT 9999 SCT020 BKN035 TX21/2312Z TN16/2304Z TEMPO 2300/2308 SHRA SCT030TCU", "TAF LDSB 221125Z 2212/2312 15015KT CAVOK TX19/2311Z TN15/2304Z BECMG 2221/2223 09008KT", "TAF LDSP 222325Z 2300/2400 07006KT 9999 SCT050 TX23/2312Z TN15/2323Z", "TAF LDZA 222325Z 2300/2400 VRB02KT CAVOK TX21/2311Z TN11/2305Z PROB40 2300/2311 3000 BR BKN003 PROB30 2303/2309 0200 FG VV001 BECMG 2310/2312 22008KT", "TAF LDZD 222325Z 2300/2400 12005KT CAVOK TX23/2311Z TN14/2305Z PROB40 TEMPO 2309/2314 15012KT PROB30 TEMPO 2320/2400 4000 BR", "TAF LEAB 222300Z 2300/2324 VRB05KT CAVOK TX26/2315Z TN16/2306Z BECMG 2310/2312 22012KT BECMG 2316/2318 VRB05KT", "TAF LEAL 222300Z 2300/2324 VRB04KT 9999 FEW020 TX27/2312Z TN17/2305Z PROB40 TEMPO 2300/2309 BKN010 PROB30 TEMPO 2300/2306 3000 BR BECMG 2310/2312 19010KT BECMG 2316/2318 VRB04KT", "TAF LEAM 222300Z 2300/2324 VRB03KT CAVOK TX25/2313Z TN18/2306Z PROB40 TEMPO 2300/2307 34010KT BECMG 2308/2311 21010KT BECMG 2317/2319 VRB02KT", "TAF LEAO 222000Z 2221/2321 20012KT 9999 FEW040 TX21/2315Z TN15/2306Z PROB30 TEMPO 2310/2317 20020G30KT PROB30 TEMPO 2312/2318 4000 SHRA SCT040TCU", "TAF LEAS 222000Z 2221/2321 20008KT 9999 FEW050 SCT070 TX21/2313Z TN12/2305Z TEMPO 2308/2318 24015G25KT PROB40 TEMPO 2310/2315 24020G35KT", "TAF LEBA 221400Z 2215/2315 25010KT 9999 SCT035 TX25/2215Z TN14/2306Z BECMG 2219/2221 VRB02KT PROB30 TEMPO 2222/2307 4000 BR BKN010 BECMG 2313/2315 23010KT", "TAF LEBB 222300Z 2300/2324 19009KT 9999 FEW050 SCT060 TX27/2314Z TN19/2305Z TEMPO 2302/2321 20015G25KT TEMPO 2303/2316 20020G35KT PROB40 TEMPO 2306/2314 20025G43KT PROB30 TEMPO 2308/2313 20030G53KT", "TAF LEBG 222000Z 2221/2321 20014KT 9999 FEW040 TX17/2315Z TN11/2306Z PROB30 TEMPO 2221/2305 20015G25KT TEMPO 2305/2318 20028G38KT PROB40 TEMPO 2303/2312 4000 RA BKN012", "TAF LEBL 222300Z 2300/2324 VRB04KT 9999 FEW020 TX26/2312Z TN18/2306Z PROB40 TEMPO 2300/2310 32008KT BECMG 2310/2313 20010KT BECMG 2318/2320 VRB04KT", "TAF LEBZ 222000Z 2221/2321 21010KT 9999 SCT025 TX22/2315Z TN14/2306Z PROB40 TEMPO 2301/2309 4000 SHRA BR BKN012 SCT025TCU", "TAF COR LECO 222140Z 2221/2321 20009KT 9999 SCT025 BKN035 TX18/2312Z TN12/2305Z TEMPO 2221/2318 20018G32KT PROB40 TEMPO 2223/2312 20025G43KT PROB40 TEMPO 2318/2321 20015G25KT TEMPO 2221/2315 3000 SHRA SCT035TCU PROB30 TEMPO 2315/2321 3000 SHRA SCT035TCU PROB30 TEMPO 2221/2315 3000 TS SCT035CB", "TAF LECV 222300Z 2300/2324 20010KT 9999 BKN030 TX16/2318Z TN10/2306Z PROB40 TEMPO 2303/2312 20018G28KT PROB40 TEMPO 2300/2312 3000 RA SHRA BKN004 SCT030TCU", "TAF LEGE 222300Z 2300/2324 VRB04KT 9999 FEW020 TX30/2313Z TN16/2305Z PROB40 TEMPO 2300/2309 1500 BR BKN010 PROB30 TEMPO 2300/2306 0800 BCFG VV002 BECMG 2312/2314 18012KT BECMG 2317/2319 VRB04KT", "TAF LEGR 222300Z 2300/2324 VRB02KT 9999 FEW100 TX28/2314Z TN15/2306Z BECMG 2311/2314 23012KT BECMG 2318/2320 VRB02KT", "TAF LEGT 222300Z 2300/2324 20010KT 9999 SCT040 TX20/2315Z TN12/2306Z TEMPO 2300/2303 VRB05KT PROB40 TEMPO 2303/2317 20018G28KT PROB30 TEMPO 2300/2318 4000 RA SHRA BKN010 SCT030TCU", "TAF LEHC 221400Z 2215/2315 10012KT 9999 FEW050 TX23/2313Z TN15/2305Z PROB30 TEMPO 2215/2221 RA BKN060", "TAF LEIB 222000Z 2221/2321 20008KT 9999 FEW010 TX26/2312Z TN19/2305Z PROB40 TEMPO 2221/2309 BKN010 PROB30 TEMPO 2300/2306 3000 BR BKN010 BECMG 2301/2303 VRB04KT TEMPO 2306/2309 06008KT BECMG 2309/2311 22010KT", "TAF LEJR 222000Z 2221/2321 19008KT 9999 BKN030 TX24/2315Z TN18/2306Z PROB40 TEMPO 2221/2308 4000 BR BKN010 PROB30 TEMPO 2304/2314 SHRA SCT025TCU", "TAF LELC 222300Z 2300/2324 30003KT 9999 SCT015 TX26/2313Z TN17/2306Z PROB40 TEMPO 2300/2309 3000 BR BKN005 BECMG 2311/2314 20011KT BECMG 2319/2322 33003KT", "TAF LELL 221400Z 2215/2315 20008KT 9999 FEW040 TX29/2313Z TN17/2305Z BECMG 2216/2218 VRB04KT PROB40 TEMPO 2303/2309 BKN010 PROB30 TEMPO 2303/2307 3000 BR BKN010 TEMPO 2309/2312 27008KT TEMPO 2312/2315 18008KT", "TAF LELN 222000Z 2221/2321 18010KT 9999 BKN030 TX17/2315Z TN09/2306Z TEMPO 2221/2321 18022G32KT PROB40 TEMPO 2221/2315 3000 RA SHRA BKN008 SCT030TCU", "TAF LELO 222000Z 2221/2321 10010KT 9999 FEW040 TX25/2315Z TN14/2306Z BECMG 2308/2310 20012KT BECMG 2314/2316 VRB05KT", "TAF LEMD 222300Z 2300/2406 20010KT 9999 SCT040 TX21/2315Z TN12/2306Z PROB40 TEMPO 2303/2317 20018G28KT PROB30 TEMPO 2300/2318 4000 RA SHRA BKN012 SCT030TCU", "TAF LEMG 222300Z 2300/2324 29006KT 9999 FEW040 TX26/2312Z TN17/2306Z BECMG 2309/2311 15007KT BECMG 2318/2320 VRB02KT BECMG 2322/2324 29006KT", "TAF LEMH 222000Z 2221/2321 15008KT 9999 FEW010 TX26/2312Z TN21/2305Z BECMG 2300/2302 VRB04KT PROB40 TEMPO 2221/2309 BKN010 PROB30 TEMPO 2221/2306 3000 BR BKN010 BECMG 2309/2311 22010KT", "TAF LEMO 222000Z 2221/2321 20007KT 9999 SCT030 TX24/2315Z TN16/2306Z PROB40 TEMPO 2221/2308 4000 BR BKN010 PROB30 TEMPO 2306/2315 SHRA SCT025TCU TEMPO 2312/2318 26010KT", "TAF LEPA 222300Z 2300/2324 VRB04KT 9999 SCT012 TX29/2312Z TN18/2306Z TEMPO 2300/2307 2000 BR OVC005 PROB40 TEMPO 2300/2307 0500 BCFG BECMG 2309/2311 20010KT BECMG 2318/2320 VRB03KT", "TAF LEPP 222000Z 2221/2321 15009KT 9999 FEW050 TX23/2314Z TN17/2306Z TEMPO 2221/2318 16018G30KT TEMPO 2318/2321 16015G25KT PROB40 TEMPO 2221/2223 3000 SHRA SCT035TCU PROB40 TEMPO 2308/2316 17025G45KT", "TAF LERI 221700Z 2218/2318 VRB02KT 9999 SCT020 TX29/2314Z TN17/2306Z PROB40 TEMPO 2222/2307 3000 BR BKN006 BECMG 2313/2316 19010KT", "TAF LERL 221400Z 2215/2315 20012KT 9999 FEW040 TX25/2215Z TN15/2306Z TEMPO 2215/2219 20016G26KT PROB30 TEMPO 2215/2218 FEW030TCU PROB30 TEMPO 2310/2315 20020G30KT PROB30 TEMPO 2312/2315 4000 SHRA SCT040TCU", "TAF LERS 222000Z 2221/2321 VRB04KT 9999 FEW020 TX27/2312Z TN18/2305Z PROB40 TEMPO 2221/2309 BKN010 TEMPO 2312/2315 14008KT", "TAF LERT 222000Z 2221/2321 19008KT 9999 BKN030 TX24/2315Z TN19/2306Z PROB40 TEMPO 2221/2308 4000 BR BKN010 PROB30 TEMPO 2303/2314 SHRA SCT025TCU", "TAF LESA 222000Z 2221/2321 20012KT 9999 SCT040 TX19/2315Z TN12/2306Z PROB30 TEMPO 2221/2302 20018G28KT PROB40 TEMPO 2302/2319 20022G32KT PROB40 TEMPO 2221/2309 4000 RA BKN012", "TAF LESO 222300Z 2300/2324 19009KT 9999 FEW050 TX28/2314Z TN18/2304Z TEMPO 2300/2318 20017G27KT PROB30 TEMPO 2311/2316 18022G35KT", "TAF LEST 222300Z 2300/2324 19009KT 9999 FEW010 BKN025 TX16/2313Z TN09/2305Z TEMPO 2300/2318 19018G32KT PROB40 TEMPO 2300/2312 20025G43KT TEMPO 2300/2324 3000 SHRA SCT035TCU PROB30 TEMPO 2300/2312 3000 TS SCT035CB PROB40 TEMPO 2300/2324 1500 +SHRA BR BKN005 BKN010 SCT030TCU", "TAF LESU 221400Z 2215/2315 VRB04KT 9999 SCT050 TX20/2313Z TN09/2305Z TEMPO 2215/2216 20008KT PROB40 TEMPO 2303/2315 RA SHRA BKN050 FEW060TCU", "TAF LETO 222300Z 2300/2324 20010KT 9999 SCT030 TX20/2315Z TN12/2306Z PROB40 TEMPO 2303/2317 20018G28KT PROB30 TEMPO 2300/2318 4000 RA SHRA BKN012 SCT030TCU", "TAF LEVC 222300Z 2300/2324 27005KT 9999 FEW020 TX30/2313Z TN17/2305Z TEMPO 2300/2308 2000 BR BKN010 PROB40 TEMPO 2300/2306 0800 BCFG VV002 TEMPO 2314/2320 14010KT", "TAF LEVD 222000Z 2221/2321 19010KT 9999 FEW040 TX17/2315Z TN11/2306Z PROB40 TEMPO 2304/2318 21022G32KT PROB40 TEMPO 2300/2309 4000 RA BKN008", "TAF LEVS 222300Z 2300/2324 20012KT 9999 SCT030 TX20/2315Z TN12/2306Z TEMPO 2300/2303 VRB05KT PROB40 TEMPO 2303/2317 20018G28KT PROB30 TEMPO 2300/2318 4000 RA SHRA BKN010 SCT030TCU", "TAF LEVT 222300Z 2300/2324 22009KT 9999 FEW030 SCT060 TX23/2314Z TN09/2306Z TEMPO 2306/2321 20018G30KT PROB40 TEMPO 2310/2317 20025G45KT PROB30 TEMPO 2310/2315 20030G55KT", "TAF LEVX 222300Z 2300/2324 20009KT 9000 SCT010 BKN020 TX18/2312Z TN12/2305Z TEMPO 2300/2318 18018G30KT PROB40 TEMPO 2300/2312 18025G43KT TEMPO 2300/2324 3000 SHRA BR BKN010 SCT035TCU PROB40 TEMPO 2300/2307 0800 +RA BCFG BKN002 BKN005 PROB30 TEMPO 2300/2307 0350 BCFG BKN001 PROB30 TEMPO 2300/2312 3000 TS SCT035CB PROB40 TEMPO 2318/2324 3000 RA", "TAF COR LEXJ 222148Z 2221/2321 19009KT 9999 FEW050 SCT070 TX25/2314Z TN18/2306Z TEMPO 2221/2321 18015G25KT TEMPO 2304/2321 21020G35KT PROB40 TEMPO 2305/2315 21025G43KT PROB30 TEMPO 2308/2311 21030G53KT", "TAF LEZG 222300Z 2300/2324 11012KT 9999 FEW060 TX28/2313Z TN17/2305Z BECMG 2308/2310 22015G27KT BECMG 2318/2320 VRB03KT", "TAF LEZL 222000Z 2221/2321 22007KT 9999 BKN030 TX24/2315Z TN18/2306Z PROB40 TEMPO 2221/2308 4000 BR BKN010 PROB30 TEMPO 2303/2316 SHRA SCT025TCU", "TAF LFAQ 221400Z 2215/2224 18005KT CAVOK", "TAF LFAT 221400Z 2215/2224 23005KT CAVOK", "TAF LFBA 221400Z 2215/2224 12010KT CAVOK", "TAF LFBD 222300Z 2300/2406 16010KT CAVOK TX26/2314Z TN17/2305Z BECMG 2308/2310 20015G25KT TEMPO 2311/2316 21020G35KT BECMG 2316/2318 23010KT PROB40 TEMPO 2316/2322 23015G25KT", "TAF LFBE 222300Z 2300/2324 15010KT CAVOK TEMPO 2300/2304 15015G25KT BECMG 2313/2315 21020G30KT BECMG 2317/2319 24010KT", "TAF LFBH 222300Z 2300/2324 16012KT CAVOK TEMPO 2300/2306 -SHRA SCT070CB BECMG 2308/2310 20018G40KT BECMG 2318/2320 22016G30KT TEMPO 2318/2324 3000 SHRA BKN030CB PROB30 TEMPO 2320/2324 TSRA", "TAF LFBI 222300Z 2300/2324 14008KT CAVOK TEMPO 2300/2306 4000 SHRA SCT080CB BECMG 2308/2310 20018G38KT BECMG 2322/2324 23015G25KT TEMPO 2322/2324 4000 SHRA BKN040CB", "TAF LFBL 222300Z 2300/2324 14010KT CAVOK TEMPO 2304/2308 16015G25KT BECMG 2308/2310 19015G25KT TEMPO 2310/2318 20020G35KT BKN050TCU BECMG 2318/2320 21010KT", "TAF LFBM 222000Z 2221/2321 19010KT CAVOK TEMPO 2221/2321 20015G30KT", "TAF LFBO 222300Z 2300/2406 15012KT CAVOK TEMPO 2305/2310 14015G25KT BECMG 2312/2314 23012KT BECMG 2316/2318 18004KT", "TAF LFBP 222300Z 2300/2324 20008KT CAVOK BECMG 2302/2304 20015G25KT PROB40 TEMPO 2309/2312 22020G35KT BECMG 2314/2316 20008KT", "TAF LFBT 222300Z 2300/2324 17008KT CAVOK BECMG 2302/2304 18015G25KT BECMG 2320/2322 26004KT", "TAF LFBU 221700Z 2218/2318 12008KT CAVOK TEMPO 2222/2302 15015G25KT -SHRA BKN080TCU TEMPO 2302/2308 15015G25KT BECMG 2308/2310 21015G25KT TEMPO 2312/2316 21025G35KT BKN050TCU", "TAF LFBZ 222300Z 2300/2324 18010KT CAVOK TEMPO 2300/2316 18015G30KT BECMG 2316/2318 24010KT", "TAF LFCK 221700Z 2218/2303 12015KT CAVOK TEMPO 2218/2303 12017G27KT", "TAF LFCR 222300Z 2300/2324 13013KT CAVOK BECMG 2304/2306 14016G26KT BECMG 2315/2317 16012KT TEMPO 2314/2318 SCT080TCU", "TAF LFGJ 221400Z 2215/2224 18006KT CAVOK BECMG 2216/2219 08005KT", "TAF LFJL 222300Z 2300/2324 12008KT CAVOK PROB30 TEMPO 2300/2306 4000 BR BECMG 2309/2311 18012KT TEMPO 2316/2321 20018G30KT 4000 SHRA SCT070TCU PROB40 TEMPO 2316/2319 20025G45KT 2500 TSRA SCT060CB", "TAF LFKB 222000Z 2221/2321 VRB05KT 9999 BKN013 TX26/2312Z TN15/2305Z BECMG 2310/2312 14010KT TEMPO 2312/2315 FEW020", "TAF LFKC 221400Z 2215/2315 22012KT CAVOK TX28/2312Z TN16/2303Z BECMG 2217/2218 17004KT BECMG 2308/2310 36006KT", "TAF LFKF 221400Z 2215/2315 26012KT CAVOK BECMG 2217/2219 05007KT BECMG 2307/2309 06012KT", "TAF LFKJ 222000Z 2221/2321 04005KT CAVOK BECMG 2310/2311 24008KT", "TAF LFLB 221400Z 2215/2315 VRB04KT CAVOK PROB40 TEMPO 2221/2306 0400 FG VV/// BECMG 2306/2309 18010KT", "TAF LFLC 222300Z 2300/2324 18010KT CAVOK TEMPO 2306/2318 18015G30KT PROB30 TEMPO 2313/2318 FEW070CB", "TAF LFLL 222300Z 2300/2406 16010KT CAVOK BECMG 2300/2302 18015G25KT BECMG 2302/2304 18020G35KT PROB40 TEMPO 2311/2315 18030G44KT", "TAF LFLN 221700Z 2218/2303 VRB04KT CAVOK BECMG 2301/2303 18015KT", "TAF LFLP 221400Z 2215/2315 VRB04KT CAVOK PROB40 TEMPO 2300/2307 0400 FG VV/// BECMG 2310/2312 24007KT", "TAF LFLS 221400Z 2215/2315 VRB06KT CAVOK PROB40 TEMPO 2221/2306 0500 BCFG VV/// PROB30 TEMPO 2306/2309 20010KT BECMG 2309/2311 20012KT PROB40 TEMPO 2312/2315 20015G25KT", "TAF LFLW 221400Z 2215/2224 12008KT CAVOK", "TAF LFLX 222300Z 2300/2406 12007KT CAVOK PROB40 TEMPO 2300/2307 -SHRA SCT080TCU BECMG 2309/2311 20015G25KT PROB40 TEMPO 2312/2317 22020G35KT PROB30 TEMPO 2314/2317 -SHRA SCT050CB", "TAF LFLY 222300Z 2300/2324 16010KT CAVOK BECMG 2300/2302 18015G25KT BECMG 2302/2304 18020G35KT PROB40 TEMPO 2311/2315 18030G44KT", "TAF LFMD 221400Z 2215/2315 20010KT CAVOK BECMG 2218/2220 35005KT PROB40 TEMPO 2218/2306 SCT006 BKN014 BECMG 2308/2310 10010KT FEW015 SCT030", "TAF LFMI 222000Z 2221/2321 12012KT 9999 SCT010 TX26/2314Z TN20/2305Z TEMPO 2221/2302 BKN008 PROB40 TEMPO 2302/2306 BKN012 BECMG 2308/2311 14015G25KT PROB30 TEMPO 2311/2315 15025G35KT BECMG 2318/2320 10012KT", "TAF LFMK 221400Z 2215/2315 10012KT CAVOK TEMPO 2215/2218 10015G25KT TEMPO 2301/2308 BKN007 TEMPO 2304/2315 10016G26KT", "TAF LFML 222000Z 2221/2403 12010KT CAVOK TX27/2314Z TN20/2305Z PROB30 TEMPO 2221/2301 BKN012 TEMPO 2312/2320 15020G30KT TEMPO 2320/2403 VRB03KT", "TAF LFMN 222000Z 2221/2403 34007KT 9999 SCT012 TEMPO 2221/2308 BKN008 PROB30 TEMPO 2221/2223 4000 BR BKN006 BECMG 2307/2309 VRB03KT NSC BECMG 2311/2313 09010KT BECMG 2319/2321 34010KT", "TAF LFMO 222000Z 2221/2321 16005KT CAVOK TX26/2313Z TN15/2309Z TEMPO 2221/2306 16015G25KT BECMG 2223/2301 BKN012 BECMG 2308/2310 CAVOK TEMPO 2310/2321 SCT015", "TAF LFMP 221400Z 2215/2315 06010KT 9999 FEW020 BECMG 2222/2224 VRB04KT", "TAF LFMT 222000Z 2221/2321 12015KT 9999 FEW015 TEMPO 2303/2315 OVC008 PROB30 TEMPO 2303/2315 3000 BR OVC004 TEMPO 2306/2313 14015G25KT TEMPO 2315/2320 SHRA SCT026TCU", "TAF AMD LFMU 221614Z 2216/2315 09011KT 9999 FEW015 BECMG 2222/2224 BKN007 BECMG 2303/2305 BKN007 OVC020 TEMPO 2300/2309 4000 BR OVC004 BECMG 2308/2310 13010KT", "TAF LFMV 221400Z 2215/2315 18006KT CAVOK", "TAF LFMY 220800Z 2209/2309 12008KT CAVOK TX25/2213Z TN17/2304Z TEMPO 2221/2303 BKN009", "TAF LFOB 222300Z 2300/2324 13003KT 9999 SCT030 TEMPO 2305/2308 3000 SHRA BKN050TCU BECMG 2308/2311 19013KT TEMPO 2315/2318 21015G25KT 3000 SHRA BKN040CB TEMPO 2318/2324 21025G35KT", "TAF LFOE 222000Z 2221/2321 14010KT 9999 SCT020 TEMPO 2303/2307 VRB15G25KT 4000 -SHRA SCT005 BKN070TCU PROB40 TEMPO 2303/2307 2500 TSRA SCT010 BKN050CB BECMG 2307/2309 18010G20KT BECMG 2311/2312 20020G30KT TEMPO 2312/2317 4000 SHRA SCT035CB PROB30 TEMPO 2312/2317 24025G40KT 2500 TSRA", "TAF LFOH 221100Z 2212/2312 18010KT CAVOK BECMG 2215/2218 12007KT TEMPO 2304/2312 4000 SHRA BKN050CB PROB30 2304/2312 14020G30KT TSRA BECMG 2308/2311 18010KT", "TAF LFOJ 222000Z 2221/2321 13008KT CAVOK TX22/2315Z TN14/2305Z PROB30 TEMPO 2303/2306 4000 -SHRA SCT070TCU BECMG 2310/2312 19015KT TEMPO 2313/2317 21020G30KT 4000 -SHRA SCT050CB", "TAF LFOK 222300Z 2300/2324 15005KT CAVOK BECMG 2309/2312 15015KT TEMPO 2315/2319 3000 SHRA BKN030CB", "TAF LFOP 221700Z 2218/2318 16003KT CAVOK TEMPO 2304/2307 4000 SHRA BKN050CB PROB30 2304/2307 TSRA BECMG 2308/2311 18010KT TEMPO 2313/2316 21015G25KT 3000 SHRA BKN030 SCT030CB", "TAF LFOT 222300Z 2300/2324 13007KT CAVOK PROB40 TEMPO 2300/2304 4000 SHRA SCT080CB BECMG 2309/2311 20015G25KT PROB40 TEMPO 2311/2324 22020G35KT PROB40 TEMPO 2312/2315 -SHRA SCT050CB PROB30 2313/2315 4000 -TSRA", "TAF LFPB 222300Z 2300/2324 14005KT CAVOK PROB40 TEMPO 2305/2317 SCT060TCU PROB30 TEMPO 2305/2307 4000 SHRA SCT060CB BECMG 2312/2314 18015G25KT PROB40 TEMPO 2314/2317 18015G35KT 4000 SHRA SCT040CB", "TAF LFPG 222300Z 2300/2406 14005KT CAVOK TX22/2313Z TN15/2302Z PROB40 TEMPO 2305/2317 SCT060TCU PROB30 TEMPO 2305/2307 4000 SHRA SCT060CB BECMG 2312/2314 18015G25KT PROB40 TEMPO 2314/2317 18015G35KT 4000 SHRA SCT040CB", "TAF LFPN 221700Z 2218/2303 14006KT CAVOK", "TAF LFPO 222300Z 2300/2406 14007KT CAVOK PROB40 TEMPO 2304/2307 4000 SHRA SCT075CB PROB40 TEMPO 2315/2317 18015G30KT -SHRA SCT040TCU PROB30 TEMPO 2315/2317 3500 -TSRA SCT050CB BECMG 2317/2319 20012G25KT ", "TAF LFPV 222000Z 2221/2321 14005KT CAVOK TX22/2314Z TN14/2305Z TEMPO 2303/2309 15010G20KT 4500 -SHRA BKN035TCU PROB40 TEMPO 2303/2306 2500 -TSRA BKN030CB BECMG 2312/2314 18015G30KT TEMPO 2312/2318 4500 -SHRA BKN035TCU PROB40 TEMPO 2315/2318 2500 -TSRA BKN030CB", "TAF LFQQ 222300Z 2300/2406 17003KT 9999 SCT040 BECMG 2308/2311 17013KT TEMPO 2316/2319 2000 TSRA BKN050CB BECMG 2400/2403 21015G25KT TEMPO 2403/2406 21025G35KT 3000 RA BKN030", "TAF LFRB 222300Z 2300/2406 18010KT 9999 BKN030 TEMPO 2300/2303 4000 SHRA BKN008 BKN015CB PROB40 TEMPO 2300/2303 VRB15G30KT 2000 TSRAGS TEMPO 2303/2309 3000 BR BKN005 TEMPO 2309/2316 4000 SHRA BKN008 BKN015CB PROB40 TEMPO 2309/2316 2000 TSRAGR BECMG 2310/2312 15015G30KT BECMG 2314/2316 22020G40KT PROB40 TEMPO 2316/2318 23025G50KT PROB40 TEMPO 2316/2406 3000 SHRA BKN008 BKN015CB BECMG 2318/2320 23015G30KT", "TAF LFRC 221400Z 2215/2224 19010KT 9999 BKN020 BECMG 2218/2220 13010KT TEMPO 2221/2224 13015G25KT PROB40 TEMPO 2222/2224 BKN008", "TAF LFRD 222300Z 2300/2324 15010KT 9999 BKN030 TEMPO 2300/2309 4000 SHRA BKN008 BKN015CB PROB40 TEMPO 2300/2306 2000 TSRAGS TEMPO 2309/2312 16015G30KT TEMPO 2309/2318 4000 SHRA BKN020CB PROB40 TEMPO 2312/2318 2000 TSRAGR BKN012CB BECMG 2312/2314 19015G30KT TEMPO 2314/2318 20020G40KT PROB30 TEMPO 2318/2324 4000 SHRA BKN008 BKN015CB ", "TAF LFRG 221400Z 2215/2224 18010KT 9999 BKN025 BECMG 2218/2220 13010KT", "TAF LFRH 222300Z 2300/2324 15010KT CAVOK TEMPO 2300/2304 2000 SHRA BKN020 BKN030CB PROB40 TEMPO 2300/2304 TSRA BKN008 BKN020CB BECMG 2308/2310 14015G30KT BKN030CB BECMG 2310/2312 20020G35KT TEMPO 2310/2324 20025G45KT 1500 TSRA BKN020CB", "TAF LFRI 221700Z 2218/2318 15010KT CAVOK TEMPO 2221/2306 VRB15G25KT 4500 SHRA SCT030 BKN050CB PROB30 TEMPO 2221/2309 2500 TSRA SCT010 BKN040CB BECMG 2306/2309 20016G26KT BECMG 2309/2312 20020G36KT", "TAF LFRK 221400Z 2215/2224 18010KT 9999 BKN025 BECMG 2218/2220 13010KT", "TAF LFRM 221700Z 2218/2318 16010KT 9999 SCT025 TEMPO 2300/2306 4500 SHRA SCT060CB PROB30 TEMPO 2300/2315 2500 TSRA SCT020 BKN060CB", "TAF LFRN 222300Z 2300/2324 15010KT 9999 BKN030 TEMPO 2300/2311 4000 SHRA BKN008 BKN015CB PROB40 TEMPO 2300/2305 2000 TSRAGS BECMG 2311/2313 19015G30KT TEMPO 2311/2318 4000 SHRA BKN020CB PROB40 TEMPO 2311/2318 2000 TSRAGR BKN012CB TEMPO 2314/2320 20020G40KT PROB40 TEMPO 2318/2324 4000 SHRA BKN008 BKN015CB", "TAF LFRQ 221700Z 2218/2318 13010KT 9999 BKN025 PROB40 TEMPO 2218/2223 16015G25KT 4000 SHRA BKN008 BKN012TCU TEMPO 2223/2303 4000 SHRA BKN012CB PROB40 TEMPO 2223/2302 VRB15G25KT 2000 TSRA BKN008 BECMG 2223/2301 19010KT TEMPO 2302/2309 3000 BR BKN008 TEMPO 2309/2318 4000 SHRA BKN012CB BECMG 2309/2311 15015G30KT PROB40 TEMPO 2310/2316 2000 TSRAGS TEMPO 2311/2314 15025G45KT BECMG 2314/2316 22015G30KT TEMPO 2314/2318 22025G45KT", "TAF LFRS 221700Z 2218/2324 15008KT CAVOK TEMPO 2223/2308 4500 SHRA SCT030 BKN050CB PROB30 TEMPO 2223/2308 VRB15G25KT 2500 TSRA SCT010 BKN040CB BECMG 2306/2308 18015G25KT TEMPO 2308/2321 18020G37KT 4000 SHRA SCT015 BKN040CB PROB30 TEMPO 2308/2324 2000 TSRA BKN015 BKN030CB ", "TAF LFRZ 221700Z 2218/2318 15010KT CAVOK TEMPO 2222/2312 VRB15G35KT 4500 SHRA SCT030 BKN050CB PROB30 TEMPO 2222/2318 2500 TSRA SCT010 BKN040CB TEMPO 2315/2318 20025G40KT", "TAF LFSB 221700Z 2218/2318 12006KT CAVOK", "TAF LFSL 221400Z 2215/2224 12008KT CAVOK PROB30 TEMPO 2220/2224 13015G25KT BKN080TCU", "TAF LFST 222300Z 2300/2324 20003KT CAVOK TEMPO 2300/2306 4000 MIFG PROB30 TEMPO 2300/2306 0400 FG VV/// PROB40 TEMPO 2321/2324 FEW060CB", "TAF LFTH 222000Z 2221/2321 07007KT 8000 SCT012 TEMPO 2221/2304 BKN009 PROB40 TEMPO 2221/2303 4000 BR BKN004 BECMG 2308/2310 SCT020", "TAF AMD LFTW 221846Z 2218/2315 13008KT CAVOK TEMPO 2218/2221 3000 BR BKN005 BECMG 2221/2223 BKN005 BECMG 2304/2306 13015G25KT", "TAF LFVP 221700Z 2218/2303 23010KT 9999 SCT010", "TAF LGAD 222300Z 2300/2309 VRB03KT 9999 FEW025 PROB30 TEMPO 2303/2306 5000 BR FEW008", "TAF LGAL 222300Z 2300/2309 26008KT 9999 FEW030", "TAF LGAV 222300Z 2300/2324 VRB05KT 9999 FEW025", "TAF LGBL 222300Z 2300/2309 29006KT 9999 FEW025", "TAF LGEL 222300Z 2300/2324 VRB05KT 9999 FEW025 TEMPO 2312/2315 18008KT", "TAF LGHI 222300Z 2300/2309 VRB03KT 9999 FEW030", "TAF LGIO 222300Z 2300/2309 VRB03KT CAVOK PROB40 2303/2306 5000 BR SCT005", "TAF LGIR 222300Z 2300/2324 VRB05KT 9999 FEW025 BECMG 2301/2303 30008KT", "TAF LGKC 222300Z 2300/2309 27010KT 9999 FEW018", "TAF LGKF 222300Z 2300/2309 33006KT 9999 FEW020", "TAF LGKL 222300Z 2300/2309 33005KT 9999 FEW025 PROB30 TEMPO 2303/2306 4000 BR FEW008", "TAF LGKO 222300Z 2300/2324 33010KT 9999 FEW020", "TAF LGKP 222300Z 2300/2309 32018KT 9999 FEW018", "TAF LGKR 222300Z 2300/2324 VRB05KT 9999 FEW018 TEMPO 2312/2317 30008KT", "TAF LGKV 222300Z 2300/2324 VRB03KT CAVOK PROB30 2303/2306 6000 FEW010", "TAF LGLM 222300Z 2300/2309 22006KT 9999 FEW025", "TAF LGLR 222300Z 2300/2309 VRB03KT 9999 FEW025 PROB30 TEMPO 2303/2306 5000 BR FEW008", "TAF LGMK 222300Z 2300/2309 31010KT 9999 FEW020", "TAF LGMT 222300Z 2300/2309 VRB03KT 9999 FEW030", "TAF LGPZ 222300Z 2300/2324 VRB05KT 9999 FEW020 BECMG 2307/2309 27010KT TEMPO 2302/2306 5000 BR SCT008", "TAF LGRP 222300Z 2300/2324 25010KT 9999 FEW020", "TAF LGRX 222300Z 2300/2309 VRB03KT 9999 FEW025 PROB30 TEMPO 2303/2306 4000 BR FEW008", "TAF LGSA 222300Z 2300/2324 VRB03KT 9999 FEW025 BECMG 2311/2313 28010KT", "TAF LGSK 222300Z 2300/2309 VRB03KT 9999 FEW018", "TAF LGSM 222300Z 2300/2309 VRB03KT 9999 FEW030", "TAF LGSR 222300Z 2300/2324 28010KT 9999 FEW025", "TAF LGST 222300Z 2300/2309 29012KT 9999 FEW025", "TAF LGSY 222300Z 2300/2309 20006KT 9999 FEW025", "TAF LGTG 222300Z 2300/2309 VRB03KT 9999 FEW025", "TAF LGTL 222300Z 2300/2309 03012KT 9999 SCT020", "TAF LGTS 222300Z 2300/2324 VRB03KT CAVOK PROB40 2303/2306 3000 BR SCT008 BECMG 2308/2310 34013KT BECMG 2318/2320 VRB03KT", "TAF LGZA 222300Z 2300/2309 31006KT 9999 FEW020", "TAF LHBP 222315Z 2300/2324 VRB03KT 5000 MIFG BR FEW006 TEMPO 2300/2309 0300 FG VV001 BECMG 2309/2312 17006KT 8000 SCT015 BKN040 BECMG 2314/2316 12006KT SCT010 BKN025 TEMPO 2316/2324 3000 -RADZ BR BKN009 BKN020 PROB40 TEMPO 2318/2324 0600 FG VV001", "TAF LHDC 222315Z 2300/2309 19005KT 5000 BR BKN015 TEMPO 2300/2309 0200 FG BKN001", "TAF LHKE 222015Z 2221/2306 28008KT 6000 NSC TEMPO 2222/2306 3000 BR MIFG BKN005 OVC010 PROB40 TEMPO 2223/2306 VRB02KT 0800 FG OVC002", "TAF LHPA 222315Z 2300/2324 20006KT 5000 BR NSC TEMPO 2300/2307 1500 BR MIFG NSC PROB40 TEMPO 2300/2306 VRB01KT 0350 FG BKN003 BECMG 2307/2309 CAVOK TEMPO 2310/2316 19009KT", "TAF LHPP 221415Z 2215/2224 31010KT 9999 SCT030 BKN070 TEMPO 2215/2221 6000 RA BKN025 OVC070 PROB30 TEMPO 2215/2219 32012G24KT 4000 SHRA BKN020TCU BECMG 2219/2221 28004KT BECMG 2221/2224 VRB02KT 3000 MIFG BR NSC", "TAF LHPR 221715Z 2218/2303 28005KT 7000 -RA SCT040 BKN070 BECMG 2220/2223 VRB02KT 3000 BR NSC BECMG 2223/2301 1500 BCFG BR SCT001 TEMPO 2301/2303 0400 FG VV001", "TAF LHSN 222015Z 2221/2306 26004KT 8000 NSC TEMPO 2300/2306 5000 BR NSC TEMPO 2303/2306 1500 BR MIFG NSC PROB30 TEMPO 2304/2306 0800 FG SCT005", "TAF LIBA 222300Z 2300/2309 VRB03KT CAVOK", "TAF LIBC 221100Z 2212/2312 20013KT CAVOK BECMG 2217/2219 VRB05KT BECMG 2309/2311 21010KT", "TAF LIBD 222300Z 2300/2324 19008KT CAVOK BECMG 2309/2311 08010KT BECMG 2316/2318 VRB05KT", "TAF LIBF 221700Z 2218/2318 22008KT CAVOK BECMG 2309/2311 10010KT", "TAF LIBG 221400Z 2215/2224 18008KT CAVOK", "TAF LIBP 222300Z 2300/2324 VRB05KT 8000 SCT030 TEMPO 2300/2307 3000 BR BECMG 2310/2312 07010KT BECMG 2316/2318 VRB05KT", "TAF LIBR 222300Z 2300/2324 VRB05KT 8000 SCT010 BECMG 2308/2310 12010KT", "TAF LIBV 222300Z 2300/2309 VRB03KT 3000 BR SCT005 TEMPO 2300/2305 0500 FG BKN001 BECMG 2306/2308 18008KT 9999 FEW030", "TAF LICA 222300Z 2300/2324 VRB05KT 9999 FEW020 BECMG 2309/2311 27010KT BECMG 2316/2318 VRB05KT", "TAF LICB 222300Z 2300/2324 VRB05KT CAVOK", "TAF LICC 222300Z 2300/2324 VRB05KT 9999 FEW040", "TAF LICD 222300Z 2300/2324 17012KT CAVOK", "TAF LICG 221400Z 2215/2224 19015KT 9999 FEW020", "TAF LICJ 222300Z 2300/2324 VRB05KT CAVOK BECMG 2309/2311 05010KT BECMG 2316/2318 VRB05KT", "TAF LICR 222300Z 2300/2324 36010KT 9999 FEW030 BECMG 2316/2318 VRB05KT", "TAF LICT 222300Z 2300/2309 13008KT CAVOK", "TAF LICZ 222300Z 2300/2324 29006KT CAVOK", "TAF LIEA 222300Z 2300/2324 VRB05KT 9999 SCT030 BECMG 2308/2310 19010KT BECMG 2316/2318 VRB05KT", "TAF LIED 222300Z 2300/2309 VRB02KT 7000 FEW010 TEMPO 2300/2306 3000 BR SCT005 SCT008", "TAF LIEE 222300Z 2300/2324 VRB05KT 9999 FEW020 BECMG 2308/2310 16010KT BECMG 2317/2319 VRB05KT", "TAF LIEO 222300Z 2300/2324 VRB05KT 9999 SCT030 BECMG 2312/2314 08010KT BECMG 2316/2318 VRB05KT", "TAF LIMC 222300Z 2300/2406 VRB05KT 8000 BKN020 TEMPO 2300/2308 3000 RA BR BKN010 TEMPO 2316/2322 4000 RA BR BKN010 TEMPO 2404/2406 3000 SHRA", "TAF LIME 222300Z 2300/2324 VRB05KT 9000 BKN040 TEMPO 2300/2307 4000 RA BR", "TAF LIMF 222300Z 2300/2324 VRB04KT 8000 BKN040 TEMPO 2300/2309 4000 BR BKN010 BECMG 2320/2322 4000 BR BKN008", "TAF LIMJ 222300Z 2300/2324 15013KT 8000 BKN010 TEMPO 2300/2306 4000 RA BKN005", "TAF LIML 222300Z 2300/2324 VRB05KT 8000 BKN030 TEMPO 2303/2309 3000 DZ BR BKN012", "TAF LIMP 221700Z 2218/2318 VRB05KT 8000 SCT050 BECMG 2302/2304 4000 BR BKN010 BECMG 2307/2309 6000 FEW020", "TAF LIMW 221400Z 2215/2224 VRB05KT CAVOK", "TAF LIPA 221700Z 2218/2303 05005KT 9999 FEW030 PROB40 TEMPO 2300/2303 5000 BR SCT015", "TAF LIPB 221700Z 2218/2318 VRB05KT 7000 SCT045", "TAF LIPC 222300Z 2300/2309 15005KT CAVOK", "TAF LIPE 222300Z 2300/2324 VRB05KT 6000 SCT060 TEMPO 2300/2308 2000 BCFG BKN005 BECMG 2320/2322 2000 BR", "TAF LIPH 222300Z 2300/2324 VRB05KT 8000 SCT025 TEMPO 2300/2307 3000 BR", "TAF LIPK 221700Z 2218/2318 VRB05KT 9999 FEW040", "TAF LIPL 222300Z 2300/2309 08007KT CAVOK", "TAF LIPO 222300Z 2300/2324 06007KT 9999 SCT040 TEMPO 2302/2307 4000 BR", "TAF LIPQ 222300Z 2300/2324 06008KT 9999 SCT020 TEMPO 2300/2306 RA BECMG 2308/2310 19010KT BECMG 2316/2318 VRB05KT", "TAF LIPR 222300Z 2300/2324 VRB05KT CAVOK", "TAF LIPS 222300Z 2300/2309 VRB03KT 6000 BKN040 TEMPO 2300/2306 3000 MIFG", "TAF LIPX 222300Z 2300/2324 07005KT 9999 FEW040 TEMPO 2302/2307 4000 BR", "TAF LIPY 222300Z 2300/2324 19008KT CAVOK BECMG 2310/2312 08010KT BECMG 2318/2321 VRB05KT 3000 BR", "TAF LIPZ 222300Z 2300/2406 VRB05KT 6000 SCT025 TEMPO 2300/2307 1500 BCFG BKN005 BECMG 2318/2321 3000 BR PROB40 TEMPO 2402/2406 1000 BCFG BKN005", "TAF LIRA 222300Z 2300/2324 VRB05KT 9999 FEW030 BECMG 2308/2310 17010KT BECMG 2316/2318 VRB05KT", "TAF LIRE 222300Z 2300/2309 14012KT 9999 SCT015 SCT030 TEMPO 2300/2304 BKN030", "TAF LIRF 222300Z 2300/2406 11007KT 9999 SCT030 BECMG 2308/2310 17014KT BECMG 2318/2320 11006KT", "TAF LIRM 222300Z 2300/2309 VRB03KT 5000 BR SCT015 TEMPO 2300/2305 1000 MIFG SCT008", "TAF LIRN 222300Z 2300/2324 VRB05KT 9999 FEW025", "TAF LIRP 222300Z 2300/2324 10008KT 9999 SCT020 SCT050 PROB40 TEMPO 2300/2306 4000 BR SCT010 SCT050", "TAF LIRQ 222300Z 2300/2324 VRB05KT 9999 BKN040", "TAF LIRS 222300Z 2300/2309 16010KT 9999 SCT015 TEMPO 2300/2304 5000 BR BKN015", "TAF LIRU 221400Z 2215/2224 16008KT 9999 FEW040", "TAF LIRV 221400Z 2215/2224 19012KT 9999 SCT025 TEMPO 2215/2217 19015G25KT TEMPO 2222/2224 5000 BR", "TAF LJCE 222300Z 2300/2309 27003KT 0300 FG BKN001 BECMG 2300/2301 VV001 BECMG 2308/2309 3000 BR BKN003", "TAF LJLJ 222300Z 2300/2400 VRB02KT 0300 FG BKN001 BECMG 2300/2302 VV001 BECMG 2307/2309 3000 BR BKN003 BECMG 2309/2310 9999 NSW SCT033 BECMG 2322/2400 3000 BR", "TAF LJMB 222300Z 2300/2400 18003KT 0200 FG NSC BECMG 2300/2302 VV001 BECMG 2307/2309 2000 BR BKN003 BECMG 2309/2310 9999 NSW FEW030 PROB30 TEMPO 2312/2316 20010KT BECMG 2321/2323 3000 BR", "TAF LJPZ 222300Z 2300/2309 13005KT 9999 FEW070", "TAF LKCV 221700Z 2218/2318 VRB02KT 3000 MIFG BR OVC003 TEMPO 2218/2308 2000 MIFG BR OVC002 TEMPO 2220/2306 0500 FG VV001 BECMG 2309/2311 CAVOK BECMG 2312/2314 15006KT", "TAF AMD LKKB 221900Z 2218/2318 22007KT CAVOK TEMPO 2220/2308 VRB02KT 4000 BR BKN007 PROB30 TEMPO 2223/2307 0400 FG VV001 BECMG 2308/2310 09006KT BECMG 2316/2318 VRB02KT 5000 BR", "TAF LKKV 222300Z 2300/2406 VRB02KT 8000 SCT026 BKN036 BECMG 2300/2302 0300 FG OVC001 TEMPO 2302/2308 1200 BR BKN005 BECMG 2308/2310 15005KT CAVOK BECMG 2322/2400 26009KT 8000 BKN015 TEMPO 2400/2404 24012G22KT 4000 RA BR BKN004", "TAF LKMT 222300Z 2300/2406 21008KT 6000 SCT007 BKN035 TEMPO 2300/2308 2500 BR BKN014 PROB30 TEMPO 2300/2307 0500 FG BKN003 TEMPO 2308/2312 23014KT BECMG 2314/2316 CAVOK BECMG 2401/2403 9999 BKN025 TEMPO 2403/2406 22014G26KT", "TAF LKNA 221700Z 2218/2318 30005KT 9999 SCT035 BECMG 2220/2222 VRB02KT 3000 BR BKN008 TEMPO 2300/2311 0400 FG OVC002 TEMPO 2311/2318 13005KT 5000 BR BKN015", "TAF LKPD 221700Z 2218/2318 VRB02KT 0500 FG VV002 BECMG 2309/2311 09006KT 5000 BR BKN015 BECMG 2311/2313 15008KT CAVOK", "TAF LKPR 222300Z 2300/2406 21008KT 9999 FEW045 BECMG 2300/2302 1500 BR BKN005 TEMPO 2302/2309 0800 FG BKN003 PROB40 TEMPO 2302/2309 VRB02KT 0300 FG OVC001 BECMG 2309/2312 14006KT 6000 SCT015 TEMPO 2316/2400 18004KT 2500 BR BECMG 2400/2402 28005KT 5000 BR BKN040 TEMPO 2402/2406 22014G24KT 1800 RA BR SCT005 BKN012", "TAF LKTB 222300Z 2300/2406 VRB02KT 0100 FG OVC001 TEMPO 2300/2310 0600 RADZ FG BKN004 PROB30 TEMPO 2300/2310 1200 BCFG SCT006 BECMG 2310/2312 4000 BR BKN015 TEMPO 2312/2321 6000 BKN015 TEMPO 2403/2406 32008KT 2000 RADZ BR BKN005 PROB30 TEMPO 2403/2406 0300 FG BKN001", "TAF LLBG 222306Z 2300/2324 VRB04KT CAVOK BECMG 2307/2309 33008KT 9999 SCT045 PROB40 TEMPO 2309/2314 33015KT RA FEW025TCU BKN030 BECMG 2314/2316 VRB03KT PROB40 TEMPO 2316/2324 VRB15G25KT 5000 TSRA FEW025CB BKN030 TX26/2310Z TN18/2303Z", "TAF LLER 222305Z 2300/2324 01010KT CAVOK BECMG 2306/2308 01015KT BECMG 2319/2321 01010KT 9999 SCT030 TEMPO 2321/2324 BKN025 TX30/2312Z TN22/2304Z", "TAF LLHA 222308Z 2300/2324 VRB03KT CAVOK BECMG 2307/2309 34010KT 9999 SCT045 PROB40 TEMPO 2309/2314 33015KT RA FEW025TCU BKN030 BECMG 2314/2316 VRB03KT TEMPO 2316/2324 VRB15G25KT 5000 TSRA FEW025CB BKN030 TX27/2311Z TN19/2304Z", "TAF LLHZ 222307Z 2300/2324 VRB03KT CAVOK BECMG 2307/2309 33008KT 9999 SCT045 PROB40 TEMPO 2309/2314 33015KT RA FEW025TCU BKN030 BECMG 2314/2316 VRB03KT TEMPO 2316/2324 VRB15G25KT 5000 TSRA FEW025CB BKN030 TX26/2310Z TN18/2304Z", "TAF LLIB 221113Z 2212/2312 35006KT CAVOK BECMG 2216/2218 VRB04KT BECMG 2309/2311 35006KT 9999 SCT050 TX27/2212Z TN18/2304Z", "TAF LMML 222300Z 2300/2324 23005KT 9999 FEW020", "TAF LOWG 222315Z 2300/2324 VRB03KT 9999 SCT060 TX17/2314Z TN07/2305Z TEMPO 2300/2309 0200 FG BKN003 PROB40 2300/2307 0100 FG VV001 TEMPO 2319/2324 0800 BCFG FEW002 TEMPO 2321/2324 0100 FG VV001", "TAF LOWI 222315Z 2300/2324 27007KT CAVOK TX21/2314Z TN08/2305Z BECMG 2309/2311 12015G25KT BECMG 2317/2319 27007KT", "TAF LOWK 222315Z 2300/2324 VRB05KT 9999 SCT050 TX19/2314Z TN09/2306Z TEMPO 2300/2310 0400 BCFG BKN003 PROB40 TEMPO 2300/2308 0300 FG BKN001 PROB30 TEMPO 2316/2324 BKN004 TEMPO 2319/2324 0300 FG BKN002", "TAF LOWL 222315Z 2300/2324 VRB03KT 0600 FG VV003 TX16/2315Z TN08/2304Z TEMPO 2300/2309 0200 FG VV001 BECMG 2309/2311 09005KT SCT005 BKN008 BECMG 2311/2314 CAVOK", "TAF LOWS 222315Z 2300/2324 15007KT 9999 FEW050 TX20/2314Z TN10/2301Z BECMG 2308/2310 04004KT BECMG 2316/2318 15006KT", "TAF LOWW 222315Z 2300/2406 VRB03KT CAVOK TX16/2314Z TN07/2306Z BECMG 2300/2303 2500 BCFG TEMPO 2303/2307 0500 FG VV001 TEMPO 2307/2309 1300 FEW001 BKN003 BECMG 2308/2310 13010KT 9000 SCT006 TEMPO 2312/2317 CAVOK BECMG 2320/2322 VRB03KT 2000 SCT002 BKN004 TEMPO 2322/2406 0400 FG FEW001 OVC002", "TAF LPAZ 222300Z 2300/2406 31017KT 9999 SCT025 BKN045 PROB30 TEMPO 2300/2306 31020G30KT BECMG 2306/2309 27020KT SCT012 BKN030 TEMPO 2309/2315 3000 RADZ BR SCT002 BKN004 BECMG 2313/2315 32017KT TEMPO 2315/2321 31020G30KT 8000 SHRA BKN015 FEW020CB BECMG 2321/2324 SCT020 BECMG 2404/2406 35012KT", "TAF LPCS 221400Z 2215/2224 22012KT 9999 SCT016 BKN035 TEMPO 2215/2222 22015G25KT 3000 RADZ BR SCT004 BKN008", "TAF LPFR 222300Z 2300/2324 21008KT 9999 SCT015 BKN040 TEMPO 2300/2309 5000 -RADZ BR SCT004 BKN008 BECMG 2312/2315 27008KT SCT020", "TAF LPHR 221400Z 2215/2224 31012KT 9999 SCT025 TEMPO 2215/2224 31015G25KT FEW015 BKN035", "TAF LPLA 222301Z 2300/2324 31015KT 9999 FEW020 BKN035 TEMPO 2302/2312 5000 -RADZ BR SCT012 BKN018 PROB40 TEMPO 2304/2308 3000 RA BR SCT008 BKN012 FEW022CB TEMPO 2306/2318 31020G32KT", "TAF LPMA 222300Z 2300/2324 VRB05KT 9999 SCT015 PROB40 TEMPO 2300/2306 34010KT 6000 -RA SCT008 BKN013 BECMG 2306/2309 SCT015 BECMG 2310/2312 22010KT", "TAF LPPD 222300Z 2300/2324 31012KT 9999 FEW015 BKN040 BECMG 2304/2306 26017KT SCT012 BKN030 TEMPO 2306/2312 26018G30KT 2000 RADZ BR SCT002 BKN004 BECMG 2312/2314 31015KT TEMPO 2314/2321 31018G30KT 8000 SHRA BKN015 FEW020CB BECMG 2321/2324 35010KT SCT020", "TAF LPPR 222300Z 2300/2324 18020KT 9999 SCT012 SCT030 TEMPO 2300/2318 19022G33KT 5000 SHRA BKN008 FEW018CB PROB30 TEMPO 2300/2314 19027G37KT 2000 +TSRA SCT015CB BECMG 2318/2320 17008KT", "TAF LPPS 222300Z 2300/2406 32010KT 9999 SCT013 PROB40 TEMPO 2300/2306 5000 -RADZ BR SCT006 BKN012 BECMG 2306/2309 30005KT SCT015 BECMG 2312/2314 25007KT BECMG 2316/2318 VRB05KT BECMG 2404/2406 21010KT", "TAF LPPT 222300Z 2300/2406 23012KT 9999 SCT015 SCT030 TEMPO 2300/2324 5000 SHRA SCT008 BKN015 FEW020TCU TEMPO 2300/2306 23015G25KT BECMG 2317/2319 19005KT", "TAF LQBK 222300Z 2300/2324 20005KT 9999 SCT040 TX24/2314Z TN11/2304Z PROB40 TEMPO 2301/2308 4000 BR PROB30 TEMPO 2303/2306 0400 FG", "TAF LQMO 222300Z 2300/2324 22005KT CAVOK TX24/2313Z TN10/2304Z", "TAF LQSA 222300Z 2300/2324 VRB02KT 9999 SCT040 TX24/2314Z TN08/2305Z PROB40 TEMPO 2300/2304 4000 -RA BR PROB40 2304/2308 0500 FG BKN002 TEMPO 2312/2318 25012KT", "TAF LQTZ 222300Z 2300/2324 VRB02KT 9999 SCT040 TX23/2314Z TN11/2304Z PROB40 TEMPO 2301/2309 2000 BR PROB30 TEMPO 2303/2308 0200 FG BKN002", "TAF LRAR 222300Z 2300/2309 25007KT 5000 BR NSC BECMG 2300/2302 3000 BR BKN005 TEMPO 2302/2306 1500 BR BKN002 BECMG 2307/2309 9999 NSW", "TAF LRBC 222300Z 2300/2309 VRB04KT 9999 SCT060 TEMPO 2300/2304 5000 -RA BKN015 BKN035", "TAF LRBO 221700Z 2218/2318 22010KT 9999 BKN150 BECMG 2303/2305 30008KT TEMPO 2310/2314 31018KT SCT040 BKN200 BECMG 2315/2317 SKC", "TAF LRBS 222300Z 2300/2400 26010KT CAVOK BECMG 2309/2311 VRB04KT", "TAF LRCK 222300Z 2300/2400 26009KT CAVOK PROB40 TEMPO 2303/2307 5000 -SHRA SCT040CB BKN045 BECMG 2307/2309 32014KT BECMG 2315/2317 VRB04KT", "TAF LRCL 222300Z 2300/2309 VRB04KT 5000 BR BKN035 BECMG 2300/2302 32010KT BKN010 BKN020 TEMPO 2302/2306 3000 BR BKN005 BECMG 2307/2309 9999 NSW SCT015 BKN025", "TAF LRCT 221700Z 2218/2318 20006KT 9999 BKN070 BECMG 2221/2223 VRB10KT 7000 RA SCT030 OVC050 BECMG 2304/2306 FEW020 BKN050 BECMG 2308/2310 33012KT", "TAF LRCV 222300Z 2300/2309 VRB04KT CAVOK BECMG 2300/2302 28012KT", "TAF LRFT 221700Z 2218/2318 19006KT 9999 BKN150 BECMG 2308/2310 30018KT SCT100", "TAF LRIA 222300Z 2300/2309 10007KT 9999 -RA SCT040 PROB30 TEMPO 2301/2303 5000 -RA TEMPO 2303/2307 5000 -RADZ BKN015 OVC035", "TAF LROD 221700Z 2218/2303 18010KT CAVOK BECMG 2218/2220 27008KT TEMPO 2220/2300 5000 -SHRA SCT030CB BKN040 BECMG 2300/2302 1500 BR BKN005", "TAF LROP 222300Z 2300/2400 26010KT CAVOK BECMG 2309/2311 VRB04KT", "TAF LRSB 222300Z 2300/2400 32012KT 9999 SCT040 BKN070 PROB40 TEMPO 2300/2303 5000 -RA BKN015 BKN050 PROB30 TEMPO 2303/2306 5000 BR BKN010 BECMG 2314/2316 VRB04KT", "TAF LRSM 221400Z 2215/2300 VRB04KT 9999 BKN045 TEMPO 2215/2219 5000 -SHRA SCT030CB BKN040 BECMG 2219/2221 3000 -RA BR BKN010 BKN030", "TAF LRSV 222300Z 2300/2309 33007KT 9999 BKN050 TEMPO 2300/2302 5000 -RA TEMPO 2303/2306 5000 -RA BR BKN010 BKN025 BECMG 2306/2308 32015G25KT", "TAF LRTC 221400Z 2215/2300 17010KT CAVOK PROB30 TEMPO 2215/2217 5000 -RA BKN020 OVC040 BECMG 2220/2222 VRB04KT", "TAF LRTM 221400Z 2215/2300 VRB04KT CAVOK BECMG 2219/2221 5000 -RA BKN015 BKN035", "TAF LRTR 222300Z 2300/2400 27010KT 5000 BR SCT005 SCT040 BECMG 2300/2302 3000 BR BKN005 PROB40 TEMPO 2303/2306 0800 FG BKN002 BECMG 2307/2309 VRB04KT 9999 NSW SCT015", "TAF LRTZ 221700Z 2218/2318 18012KT 9999 BKN120 BECMG 2221/2223 27010KT TEMPO 2302/2306 SCT030 BKN070 BECMG 2308/2310 36012KT SCT200", "TAF LSGC 221425Z 2215/2224 VRB02KT 9999 FEW030 BECMG 2215/2217 CAVOK", "TAF LSGG 222325Z 2300/2406 VRB02KT 9999 FEW020 TX20/2315Z TN10/2305Z TN14/2405Z BECMG 2313/2315 22007KT BECMG 2318/2320 VRB02KT", "TAF LSGS 221425Z 2215/2224 VRB02KT 9999 FEW080 BECMG 2215/2217 CAVOK", "TAF COR LSZA 221451Z 2215/2224 VRB02KT 9999 FEW035 TEMPO 2215/2218 CAVOK BECMG 2220/2223 BKN030", "TAF LSZB 221425Z 2215/2224 VRB02KT 9999 FEW035 BECMG 2215/2217 CAVOK BECMG 2220/2223 4000 MIFG NSC", "TAF LSZG 221425Z 2215/2224 VRB02KT 9999 FEW040 BECMG 2215/2218 CAVOK PROB40 2221/2224 4000 BCFG NSC", "TAF LSZH 222325Z 2300/2406 VRB02KT 2500 BCFG SCT002 TX19/2315Z TN08/2302Z TN12/2405Z BECMG 2301/2303 0400 FG VV002 BECMG 2307/2309 2500 BCFG SCT002 BECMG 2309/2311 CAVOK BECMG 2319/2322 9999 BKN080 PROB40 TEMPO 2321/2406 SHRA", "TAF LSZL 221725Z 2218/2303 VRB02KT CAVOK BECMG 2220/2223 BKN050", "TAF LSZR 221425Z 2215/2224 VRB02KT CAVOK", "TAF LSZS 221425Z 2215/2224 VRB02KT 9999 FEW055 TX12/2215Z BECMG 2215/2218 CAVOK", "TAF LTAB 222240Z 2300/2309 VRB02KT CAVOK", "TAF LTAC 222240Z 2300/2324 VRB02KT CAVOK BECMG 2307/2310 SCT040 BECMG 2316/2318 CAVOK", "TAF LTAD 222240Z 2300/2309 VRB02KT CAVOK", "TAF LTAE 222240Z 2300/2309 VRB02KT CAVOK", "TAF LTAF 222240Z 2300/2324 VRB02KT CAVOK", "TAF LTAG 222240Z 2300/2324 VRB02KT CAVOK", "TAF LTAH 221340Z 2215/2224 VRB02KT CAVOK", "TAF LTAI 222240Z 2300/2324 34008KT CAVOK BECMG 2307/2310 18010KT BECMG 2315/2318 34006KT", "TAF LTAJ 222240Z 2300/2324 VRB02KT CAVOK BECMG 2308/2310 FEW040 BECMG 2314/2316 CAVOK", "TAF LTAL 221340Z 2215/2224 VRB02KT CAVOK", "TAF LTAN 222240Z 2300/2309 VRB02KT CAVOK", "TAF LTAO 222240Z 2300/2309 VRB02KT CAVOK", "TAF LTAP 222240Z 2300/2324 VRB02KT CAVOK", "TAF LTAR 222240Z 2300/2309 VRB02KT CAVOK", "TAF LTAS 221340Z 2215/2224 VRB02KT CAVOK", "TAF LTAT 222240Z 2300/2324 21006KT CAVOK", "TAF LTAU 222240Z 2300/2324 VRB02KT CAVOK", "TAF LTAV 221340Z 2215/2224 10008KT CAVOK", "TAF LTAW 221340Z 2215/2224 24008KT CAVOK", "TAF LTAY 222240Z 2300/2309 VRB02KT CAVOK PROB30 2303/2306 4000 BR", "TAF LTAZ 222240Z 2300/2324 VRB02KT CAVOK", "TAF LTBA 222240Z 2300/2324 21012KT CAVOK BECMG 2312/2315 VRB02KT", "TAF LTBD 221340Z 2215/2224 VRB02KT CAVOK", "TAF LTBF 222240Z 2300/2309 VRB02KT CAVOK", "TAF LTBG 222240Z 2300/2309 VRB02KT CAVOK", "TAF LTBH 222240Z 2300/2309 VRB02KT CAVOK", "TAF LTBI 222240Z 2300/2309 VRB02KT CAVOK", "TAF LTBJ 222240Z 2300/2324 VRB02KT CAVOK BECMG 2309/2312 35012KT BECMG 2318/2320 VRB02KT", "TAF LTBK 221340Z 2215/2224 34015G25KT CAVOK BECMG 2218/2221 VRB02KT", "TAF LTBL 222240Z 2300/2309 VRB02KT CAVOK", "TAF LTBN 221340Z 2215/2224 VRB02KT CAVOK", "TAF LTBO 221640Z 2218/2303 VRB02KT CAVOK", "TAF LTBP 221340Z 2215/2224 VRB02KT CAVOK", "TAF LTBQ 222240Z 2300/2309 VRB02KT CAVOK", "TAF LTBR 222240Z 2300/2324 VRB02KT CAVOK BECMG 2300/2303 3500 BR SCT080 PROB30 2303/2306 1200 BCFG BECMG 2306/2308 CAVOK PROB40 TEMPO 2312/2316 02012KT", "TAF LTBS 222240Z 2300/2324 VRB02KT CAVOK BECMG 2307/2309 21012KT FEW030 BECMG 2315/2317 VRB02KT CAVOK", "TAF LTBT 221340Z 2215/2224 VRB02KT CAVOK", "TAF LTBU 222240Z 2300/2324 VRB02KT CAVOK", "TAF LTBV 221340Z 2215/2224 28012KT CAVOK BECMG 2215/2217 VRB02KT", "TAF LTBX 221340Z 2215/2224 VRB02KT CAVOK", "TAF LTBY 222240Z 2300/2309 VRB02KT CAVOK", "TAF LTBZ 222240Z 2300/2309 VRB02KT CAVOK", "TAF LTCA 222240Z 2300/2309 VRB02KT CAVOK", "TAF LTCB 222240Z 2300/2309 VRB02KT CAVOK BECMG 2306/2309 09012KT", "TAF LTCC 222240Z 2300/2324 VRB02KT CAVOK PROB30 TEMPO 2303/2306 2000 BCFG", "TAF LTCD 222240Z 2300/2309 VRB02KT CAVOK", "TAF LTCE 222240Z 2300/2324 VRB02KT CAVOK BECMG 2305/2307 FEW040 SCT080 BECMG 2310/2312 CAVOK BECMG 2322/2324 SCT040", "TAF LTCF 222240Z 2300/2309 VRB02KT 9999 FEW040", "TAF LTCG 222240Z 2300/2324 18008KT CAVOK BECMG 2306/2310 09012KT BECMG 2318/2322 SCT035 BKN100", "TAF LTCI 222240Z 2300/2309 08009KT 8000 SCT030 BKN070 TEMPO 2300/2303 SHRA BKN030 PROB40 TEMPO 2303/2306 -SHRA BKN030 BECMG 2305/2307 30010KT", "TAF LTCJ 222240Z 2300/2324 VRB02KT CAVOK BECMG 2300/2302 4000 BR TEMPO 2302/2304 1200 BCFG TEMPO 2304/2307 0700 FG BKN008 BECMG 2307/2309 CAVOK", "TAF LTCK 221340Z 2215/2224 25009KT 9999 SCT030 BKN080 TEMPO 2215/2219 32012G22KT -TSRA FEW020CB BKN030 PROB30 TEMPO 2219/2223 32012G22KT -TSRA FEW020CB BKN030", "TAF LTCL 221340Z 2215/2224 VRB02KT 9999 FEW025CB BKN040 BKN100 TEMPO 2215/2219 -TSRA BECMG 2219/2222 SCT040", "TAF LTCM 221340Z 2215/2224 13016KT CAVOK", "TAF LTCN 222240Z 2300/2309 VRB02KT CAVOK", "TAF LTCO 221340Z 2215/2224 VRB02KT 9999 SCT070 BECMG 2215/2217 08012KT", "TAF LTCP 221340Z 2215/2224 01007KT 9999 SCT040 BKN100 BECMG 2220/2222 CAVOK", "TAF LTCR 221340Z 2215/2224 VRB02KT 9999 SCT040 BKN100 TEMPO 2215/2218 VRB15G25KT -TSRA FEW025CB BKN035 BECMG 2220/2222 34012KT CAVOK", "TAF LTCS 222240Z 2300/2324 03007KT CAVOK TEMPO 2300/2303 4000 BR BECMG 2311/2313 33010KT", "TAF LTCT 222240Z 2300/2309 VRB02KT 9999 SCT040 BKN070 BECMG 2303/2305 SCT040", "TAF LTCU 221340Z 2215/2224 VRB02KT 9999 SCT035 BKN100 BECMG 2219/2221 CAVOK", "TAF LTCV 222240Z 2300/2324 28008KT CAVOK", "TAF LTCW 222240Z 2300/2309 11009KT 6000 SCT030 BKN080 TEMPO 2300/2303 26012G22KT 4000 TSRA FEW020CB BKN030 PROB40 TEMPO 2303/2306 -SHRA BECMG 2307/2308 18010KT", "TAF LTDA 222240Z 2300/2309 VRB02KT 9999 FEW045", "TAF LTFA 221340Z 2215/2224 33012KT CAVOK BECMG 2216/2218 VRB02KT", "TAF LTFB 221340Z 2215/2224 VRB02KT CAVOK", "TAF LTFC 222240Z 2300/2324 VRB02KT CAVOK PROB30 2303/2306 4000 BR SCT010", "TAF LTFD 222240Z 2300/2309 VRB02KT CAVOK", "TAF LTFE 222240Z 2300/2324 VRB02KT CAVOK BECMG 2309/2311 26012KT BECMG 2314/2316 VRB02KT", "TAF LTFG 222240Z 2300/2309 11006KT CAVOK BECMG 2306/2309 24010KT", "TAF LTFH 222240Z 2300/2309 VRB02KT CAVOK", "TAF LTFJ 222240Z 2300/2324 VRB02KT CAVOK BECMG 2305/2307 25012KT BECMG 2313/2316 VRB02KT", "TAF LTFK 221340Z 2215/2224 VRB02KT CAVOK", "TAF LTFM 222240Z 2300/2406 20013KT CAVOK BECMG 2312/2315 VRB02KT", "TAF LTFO 222240Z 2300/2309 VRB02KT CAVOK BECMG 2306/2309 04012KT", "TAF LUKK 222320Z 2300/2324 24006KT 9999 BKN020 BECMG 2304/2306 30008KT TEMPO 2304/2309 3000 RA BKN006 BECMG 2307/2309 32014KT PROB40 TEMPO 2309/2313 33016G26KT BECMG 2316/2318 28006KT", "TAF LWOH 222310Z 2300/2324 VRB02KT 9999 FEW050", "TAF LWSK 222310Z 2300/2324 VRB02KT CAVOK", "TAF LYBE 222300Z 2300/2324 22005KT 9999 SCT040 TX22/2313Z TN11/2305Z BECMG 2300/2302 3000 BR TEMPO 2302/2307 0500 FG OVC003 BECMG 2308/2310 9999 NSW", "TAF LYNI 222300Z 2300/2324 32012KT CAVOK TX22/2313Z TN10/2305Z BECMG 2303/2305 25005KT TEMPO 2305/2308 BKN015 BKN035", "TAF LYPG 222300Z 2300/2324 36005KT CAVOK TX24/2313Z TN10/2305Z", "TAF LYTV 222300Z 2300/2324 VRB02KT CAVOK TX23/2313Z TN08/2305Z", "TAF LZIB 222315Z 2300/2400 10005KT 9999 SCT030 TEMPO 2312/2318 07014KT", "TAF LZKZ 222315Z 2300/2400 18004KT 9999 SCT035 TEMPO 2300/2307 2000 BCFG BR BKN003", "TAF LZMC 221930Z 2221/2306 VRB02KT 3000 BCFG BR FEW008 SCT020 TEMPO 2222/2306 0500 FG BKN002", "TAF AMD LZPP 221846Z 2218/2303 VRB02KT 6000 SCT015 TEMPO 2218/2303 2500 BR BKN009 TEMPO 2221/2303 1500 BCFG BKN003", "TAF LZPW 221930Z 2221/2306 VRB04KT 2500 -RA OVC025 BECMG 2221/2223 1500 BR BKN015 OVC030 TEMPO 2301/2306 0500 FG OVC001", "TAF LZSL 221930Z 2221/2306 VRB02KT 3000 BR SCT005 BKN009 OVC020 BECMG 2221/2223 1500 BR SCT003 BKN007 PROB40 TEMPO 2223/2306 0300 FG BKN002", "TAF LZTT 222315Z 2300/2400 25004KT 9999 SCT030 TEMPO 2300/2306 2000 BR BCFG BKN004 BKN020", "TAF LZZI 222315Z 2300/2309 VRB02KT 6000 SCT013 BKN020 TEMPO 2300/2306 2500 BR BKN004 PROB40 TEMPO 2300/2306 0500 FG OVC002", "MBGT 221700Z 2218/2318 12010KT 9999 VCSH FEW020 SCT045 BKN200 PROB40 TEMPO 2300/2303 9000 SHRA SCT018CB SCT090", "MBPV 221700Z 2218/2318 12010KT 9999 VCSH FEW020 SCT045 BKN200 PROB40 TEMPO 2300/2303 9000 SHRA SCT018CB SCT090", "TAF MDBH 222200Z 2300/2400 13012KT 9999 FEW016CB SCT018 PROB30 2304/2310 8000-TSRA FEW015CB BKN016", "TAF MDLR 222200Z 2300/2400 09008KT 9999 SCT020 PROB30 2300/2306 7000-RA BKN018 BECMG 2301/2303 00000KT", "TAF MDPC 222200Z 2300/2400 06005KT 9999 SCT018 BECMG 2304/2306 00000KT PROB30 2307/2312 8000-TSRA FEW16CB BKN017", "TAF MDPP 222200Z 2300/2400 07014KT 9999 SCT020 BECMG 2302/2304 00000KT", "TAF MDSD 222200Z 2300/2400 16004KT 9999 SCT018 BECMG 2302/2304 05004KT PROB30 2312/2318 8000-TSRA FEW16CB BKN017", "TAF MDST 222200Z 2300/2400 10006KT FEW020 BKN300 BECMG 2303/2305 00000KT", "TAF MHLC 222250Z 2300/2324 VRB03KT 5000 RA SCT024 BKN070 TX29/2319Z TN22/2312Z BECMG 2306/2308 8000 VCSH SCT022 BKN080 BECMG 2314/2316 35006KT 9999 NSW SCT026TCU TEMPO 2321/2324 7000 RA SCT028TCU FEW030CB", "TAF MHLM 222250Z 2300/2324 VRB04KT 8000 VCSH SCT026 BKN080 TX30/2320Z TN23/2312Z BECMG 2302/2304 9999 NSW FEW025 BKN080 BECMG 2318/2320 05010KT 8000 VCSH SCT028TCU SCT080", "TAF MHRO 222250Z 2300/2324 36010KT 7000 RA SCT018TCU BKN080 TX29/2319Z TN26/2312Z TEMPO 2304/2310 4000 SHRA SCT020TCU BKN070 BECMG 2316/2318 06006KT 9999 NSW SCT022 SCT080", "TAF MHTG 222250Z 2300/2324 36008KT 7000 RA BKN030 SCT080 TX27/2320Z TN18/2312Z BECMG 2302/2304 8000 VCSH FEW010 BKN026 BECMG 2306/2308 7000 NSW FEW006 BKN024 BECMG 2313/2315 9999 SCT032 FM232000 06010KT 8000 VCSH SCT030 SCT036TCU", "TAF MKJP 222315Z 2300/2324 36008KT 9999 FEW020 FEW022CB BECMG 2315/2317 16014KT TEMPO 2317/2324 7000 TSRA FEW018 BKN020CB", "TAF MKJS 222315Z 2300/2324 14005KT 9999 FEW020 FEW022CB PROB40 TEMPO 2304/2312 TSRA SCT018CB BKN032 BECMG 2314/2316 06012KT SCT020 FEW022CB TEMPO 2317/2324 4000 TSRA SCT016 BKN018CB", "TAF MMAA 221747Z 2218/2324 24008KT P6SM SCT015 TX30/2218Z TN23/2312Z TEMPO 2223/2303 6SM RA BKN015CB FM230300 29004KT P6SM SCT015 BKN020 BKN300 FM231600 27008KT P6SM SCT015 SCT300", "TAF MMAS 221635Z 2218/2318 06010KT P6SM SCT020 BKN200 BECMG 2302/2304 22005KT PROB40 2313/2317 4SM -RA OVC020 FM231700 19010KT 5SM HZ SCT020 BKN090 BKN250", "TAF MMBT 221625Z 2218/2318 24010KT P6SM SCT020 BECMG 2220/2221 SCT020CB TEMPO 2222/2302 4SM TSRA BKN020CB FM230200 33005KT 5SM HZ SCT020 BKN090 BKN250 FM231700 14005KT P6SM SCT020 BKN250", "TAF MMCE 221653Z 2218/2318 10010KT P6SM SCT020 BECMG 2222/2223 04015KT FM230300 06005KT P6SM BKN020 FM231700 13010KT P6SM SCT020 BKN250", "TAF MMCL 221659Z 2218/2318 26010KT P6SM BKN250 FM230300 02004KT P6SM SCT120 BKN250 TEMPO 2306/2310 6SM HZ SCT010 FM231500 29008KT P6SM SCT250", "TAF MMCM 221653Z 2218/2318 07010KT P6SM SCT020 BECMG 2302/2303 09005KT FM231700 13010KT P6SM SCT020", "TAF MMCN 221645Z 2218/2318 22010KT P6SM SCT020 BKN200 FM230300 13005KT P6SM BKN020 FM231700 24010KT P6SM SCT020 BKN250", "TAF MMCP 221653Z 2218/2318 13010KT P6SM SCT020 BECMG 2303/2304 13005KT FM231700 34015KT P6SM SCT020 BKN250", "TAF MMCS 221631Z 2218/2318 25010G20KT P6SM SCT200 FM230300 22015KT P6SM SKC BECMG 2309/2310 SCT080 BKN120 BKN250 FM231500 25015G25KT P6SM BLDU SCT030 BKN120 BKN250", "TAF MMCU 221631Z 2218/2318 22010KT P6SM SCT250 FM230300 24014KT P6SM SCT250 FM231500 24010G20KT P6SM SKC", "TAF MMCV 221701Z 2218/2318 16015G25KT P6SM SCT020 BKN250 BECMG 2303/2304 18005KT FM231700 17010G20KT P6SM SCT015 BKN250", "TAF MMCZ 222300Z 2300/2406 06012KT P6SM SCT015 TX29/2318Z TN22/2309Z FM230300 07006KT P6SM SCT015 FM231500 07008KT P6SM SCT015 BECMG 2316/2317 SCT015 BKN020 FM232000 07012KT P6SM BKN015 FM240200 08010KT P6SM SCT010 BKN015", "TAF MMDO 221645Z 2218/2318 23005KT P6SM SCT020 OVC200 BECMG 2220/2221 24010KT FM230500 23005KT 5SM HZ BKN090 BKN250 PROB40 2313/2317 4SM -RA BKN020 FM231700 24010KT P6SM BKN100 BKN200", "TAF MMEP 221635Z 2218/2318 13005KT P6SM SCT025 BKN100 BECMG 2220/2221 BKN020CB TEMPO 2222/2302 4SM TSRA FM230200 19005KT 5SM -RA BKN015 OVC070 PROB40 2313/2317 4SM TSRA BKN015CB FM231700 24005KT 6SM -RA BKN015 OVC080", "TAF MMGL 222326Z 2300/2406 20010KT P6SM -RA BKN020 OVC100 TX24/2321Z TN15/2312Z BECMG 2306/2307 6SM -RA BKN015 OVC080 TEMPO 2307/2311 2SM TSRA BKN010 OVC015CB FM231500 23010KT 6SM HZ OVC020 FM240000 28006KT 6SM HZ SCT030 BKN280 BECMG 2403/2404 3SM BR BKN010", "TAF MMGM 221645Z 2218/2318 22010KT P6SM SCT030 BECMG 2303/2304 33005KT TEMPO 2313/2317 BKN020 FM231700 33010KT P6SM SCT020 BKN250", "TAF MMHO 221659Z 2218/2318 22012KT P6SM SCT040 SCT220 FM230300 23005KT P6SM SCT160 FM231600 25008KT P6SM BKN160", "TAF MMIA 221635Z 2218/2318 02010KT P6SM SCT020 OVC140 TEMPO 2222/2302 4SM TSRA OVC020CB FM230200 03005KT 6SM -RA BKN020 OVC070 TEMPO 2310/2314 3SM DZ BR OVC010 FM231400 23005KT 5SM HZ BKN020 OVC100", "TAF MMIO 221631Z 2218/2318 01008KT P6SM SCT250 FM230300 15004KT P6SM BKN240 FM231600 16010KT P6SM BKN100 OVC200", "TAF MMLM 221645Z 2218/2318 05005KT P6SM SCT015 BECMG 2220/2221 24010KT FM230400 18005KT 5SM HZ SCT015 TEMPO 2310/2314 2SM BR FM231400 24010KT P6SM SCT020 BKN250", "TAF MMLO 221635Z 2218/2318 28005KT P6SM SCT020 BKN250 PROB40 2222/2302 BKN020CB VC TS FM230200 00000KT P6SM SCT020 BKN100 BKN250 FM231700 27010KT P6SM BKN100 OVC250", "TAF MMLP 221659Z 2218/2318 26010KT P6SM SCT025 SCT300 FM230300 26006KT P6SM SCT015 TEMPO 2304/2308 6SM HZ SCT010 FM231500 26010KT P6SM SKC", "TAF MMLT 221645Z 2218/2318 26010KT P6SM BKN250 BECMG 2303/2304 24005KT FM231700 27010KT P6SM SCT020 BKN250", "TAF MMMA 221701Z 2218/2318 16010G20KT P6SM BKN030 BECMG 2303/2304 13008KT FM231700 16015G25KT P6SM SCT020 BKN250", "TAF MMMD 222300Z 2300/2406 07010KT P6SM BKN020 TX31/2320Z TN18/2311Z FM230200 10008KT P6SM SCT020 BECMG 2303/2304 SKC TEMPO 2310/2314 4SM BR SCT010 FM231500 08008KT P6SM SCT020 BECMG 2320/2321 05014KT FM240300 10012KT P6SM SCT010", "TAF MMML 221659Z 2218/2318 19010KT P6SM SKC BECMG 2220/2221 26015KT TEMPO 2222/2302 26010G20KT 4SM BLDU FM230300 26014KT P6SM SKC FM230900 27012KT P6SM SCT030 FM231600 29012KT P6SM SKC", "TAF MMMM 222326Z 2300/2406 19010KT P6SM VC RA SCT030CB BKN090 BKN250 TX26/2320Z TN11/2312Z TEMPO 2300/2304 5SM RA BKN030CB FM230400 18004KT 6SM HZ BKN015 BKN250 TEMPO 2310/2314 3SM BR BKN010 FM231500 18006KT 6SM HZ SCT030 SCT250 FM240200 16004KT 6SM HZ BKN015 BECMG 2403/2404 3SM BR BKN0010", "TAF MMMT 221653Z 2218/2318 07005KT P6SM SCT035 TEMPO 2223/2303 04010KT BKN020 FM230300 04010KT P6SM BKN020 BKN080 TEMPO 2310/2314 3SM DZ BR OVC010 FM231400 12005KT 4SM HZ SCT020 BKN040", "TAF MMMX 221747Z 2218/2324 06008KT 5SM HZ SCT020 SCT080 TX23/2220Z TN14/2312Z BECMG 2221/2222 29010KT TEMPO 2222/2302 BKN020 BKN080 FM230300 28005KT 6SM HZ SCT020 SCT080 TEMPO 2311/2315 4SM BR HZ FM231600 22005KT 6SM HZ SCT080 SCT220 FM232100 31010KT 6SM HZ SCT080", "TAF MMMY 222258Z 2300/2406 11010KT P6SM SCT200 TX28/2321Z TN14/2312Z FM230300 10004KT P6SM SKC BECMG 2306/2307 6SM HZ SCT010 FM230900 00000KT 2SM BR BKN010 TEMPO 2311/2315 1/2SM FG VV004 FM231600 12008KT 5SM HZ BKN015 BKN250 FM231900 13010KT P6SM SCT030 BKN120 BKN250 FM240200 10004KT P6SM BKN020 BKN120", "TAF MMMZ 222303Z 2300/2406 32006KT P6SM SCT015 BKN100 OVC200 TX29/2318Z TN22/2312Z BECMG 2303/2304 P6SM -RA FM231200 00000KT 6SM -RA BR BKN010 BKN100 BKN300 FM231800 17006KT 6SM HZ BKN015 BECMG 2321/2322 13008KT FM240100 10006KT P6SM BKN020", "TAF MMNL 221701Z 2218/2318 13015KT P6SM SCT020 TEMPO 2222/2302 13015G25KT FM230200 13005KT P6SM SCT020 BKN250 TEMPO 2310/2314 BKN020 FM231400 13015KT P6SM SCT020 BKN250", "TAF MMOX 221625Z 2218/2318 13005KT P6SM SCT025 BECMG 2220/2221 SCT020CB TEMPO 2223/2303 5SM TSRA BKN020CB FM230300 13005KT P6SM SCT020 BKN090 BKN250 TEMPO 2310/2314 3SM BR HZ SCT005 FM231400 03005KT P6SM SCT020 BKN250", "TAF MMPB 221625Z 2218/2318 27005KT 4SM HZ SCT015 FM222100 27005KT P6SM SCT020 BKN250 TEMPO 2223/2303 5SM TSRA BKN020CB FM230300 00000KT 5SM HZ SCT020 BKN250 TEMPO 2310/2314 3SM BR BKN010 FM231700 19010KT P6SM SCT020 BKN250", "TAF MMPN 221635Z 2218/2318 19005KT P6SM SCT020 BKN310 TEMPO 2222/2302 5SM TSRA BKN020CB FM230200 16005KT 5SM SCT020 BKN050 BKN080 TEMPO 2310/2314 1SM DZ BR OVC010 FM231400 16005KT 5SM HZ SCT020 BKN040 OVC090", "TAF MMPR 222326Z 2300/2406 24010KT P6SM -RA SCT010 BKN030CB OVC100 TX28/2318Z TN22/2310Z FM230300 07015KT 5SM RA SCT010 BKN020CB OVC080 BECMG 2306/2307 19035G45KT TEMPO 2307/2311 1/2SM TSRA BKN004 OVC010CB FM231200 23020KT 6SM -RA BKN015 BKN070 OVC260 FM232000 35010KT P6SM SCT015 BKN020 BKN300 FM240300 07006KT P6SM BKN020", "TAF MMPS 221625Z 2218/2318 24010KT P6SM SCT020 TEMPO 2222/2302 5SM TSRA BKN020CB FM230200 33005KT P6SM SCT020 BKN250 FM231700 24010KT P6SM SCT020 BKN250", "TAF MMQT 221635Z 2218/2318 04005KT P6SM SCT020 BKN250 BECMG 2220/2221 04010KT FM230400 26005KT P6SM SCT020 BKN090 BKN250 TEMPO 2310/2314 3SM BR FM231400 18005KT 5SM HZ SCT020 BKN090 BKN250", "TAF MMRX 221701Z 2218/2318 17010G20KT P6SM SCT020 FM230400 13008KT 5SM HZ SCT020 TEMPO 2310/2314 3SM BR BKN010 FM231400 13020KT P6SM SCT020 BKN250", "TAF MMSD 221645Z 2218/2318 33005KT P6SM BKN250 BECMG 2220/2221 13010KT FM230500 33005KT P6SM BKN250 FM231700 16005KT P6SM SCT020 BKN250", "TAF MMSP 222326Z 2300/2406 12008KT P6SM SCT100 BKN240 TX27/2322Z TN08/2311Z BECMG 2307/2308 22004KT TEMPO 2311/2315 4SM HZ FM231600 23008KT P6SM BKN240 TEMPO 2320/2324 23015KT FM240200 25008KT P6SM BKN240", "TAF MMTC 221631Z 2218/2318 07010KT P6SM SCT250 FM230300 15006KT P6SM BKN250 BECMG 2306/2307 BKN080 OVC200 FM231500 16012KT P6SM BKN040 OVC100", "TAF MMTG 221642Z 2218/2318 32010KT 6SM HZ BKN020 BKN070 TEMPO 2221/2301 32015KT FM230300 30006KT 5SM HZ BKN015 TEMPO 2310/2314 2SM BR BKN010 OVC015 FM231500 13006KT 4SM BR HZ BKN015", "TAF MMTJ 222303Z 2300/2406 24008KT P6SM VC SH BKN020 OVC030 TX22/2320Z TN16/2312Z FM230300 25014KT 6SM -RA BKN010 OVC020 TEMPO 2306/2310 4SM RA FM231000 27015KT 6SM HZ 24010KT 6SM HZ SCT015 BKN025 FM232000 22010KT P6SM BKN030 FM240200 16004KT 6SM HZ SKC", "TAF MMTM 221747Z 2218/2318 12012KT P6SM SCT015 BKN020 FM230300 14010KT 6SM HZ SCT015 BKN025 FM231500 16014KT 6SM HZ BKN015 BKN030", "TAF MMTO 221747Z 2218/2324 23008KT 5SM HZ SCT015 BKN080 TX20/2221Z TN10/2312Z TEMPO 2221/2301 5SM RA BKN015CB FM230300 00000KT 4SM HZ BKN015 BKN080 BECMG 2306/2307 3SM BR BKN010 TEMPO 2311/2315 1SM BR HZ OVC005 FM231500 30004KT 3SM BR BKN015 FM231700 29006KT 5SM HZ SCT015 SCT070 FM232000 26008KT 6SM HZ SCT020 SCT080 BKN220", "TAF MMTP 222300Z 2300/2406 26008KT P6SM SCT020 BKN090 TX32/2318Z TN24/2310Z BECMG 2301/2302 P6SM -RA TEMPO 2303/2307 5SM RA SCT015 OVC090 FM230900 34004KT P6SM SCT010 BKN090 FM231500 23006KT P6SM SCT020 SCT100 FM231900 25006KT P6SM BKN020 BKN100 FM240200 07004KT P6SM SCT015 SCT100", "TAF MMUN 222300Z 2300/2406 06008KT P6SM SCT015 TX28/2318Z TN18/2310Z TEMPO 2303/2307 BKN015 FM231500 08010KT P6SM SCT015 TEMPO 2315/2319 BKN015 FM240300 08008KT P6SM BKN015", "TAF MMVA 221653Z 2218/2318 07010KT P6SM SCT015 BKN250 BECMG 2220/2221 09010KT FM230400 13005KT P6SM SCT020 BKN040 TEMPO 2310/2314 3SM BR HZ OVC010 FM231400 07005KT P6SM SCT020 BKN050 BKN090", "TAF MMVR 221747Z 2218/2318 10010KT P6SM SCT015 BKN020 TX29/2219Z TN22/2311Z FM230300 16004KT 6SM HZ BKN015 BECMG 2309/2310 3SM BR BKN010 TEMPO 2310/2314 1SM BR BKN004 BKN010 FM231500 15010KT 6SM HZ BKN015", "TAF MMZC 222326Z 2300/2406 22006KT P6SM SCT100 BKN220 TX23/2321Z TN03/2313Z FM230300 19005KT P6SM SCT030 SCT100 BKN140 FM231600 20015KT P6SM SCT040 OVC200 BECMG 2317/2318 22012G22KT FM240200 20010KT 6SM HZ BKN020 BKN250", "TAF MMZH 221625Z 2218/2318 22010KT P6SM SCT020 BKN090 BKN250 TEMPO 2220/2224 5SM TSRA BKN020CB FM230100 03005KT 5SM -RA BKN015 OVC070 FM231700 23005KT P6SM SCT020 BKN090 OVC250", "TAF MMZO 221722Z 2218/2318 15015G25KT 5SM RA BKN020CB OVC070 TEMPO 2222/2302 1SM TSRA BKN004 OVC010CB FM230300 10012KT 5SM -RA BKN015 OVC080 FM231000 07005KT 6SM -RA BKN015 OVC100 BECMG 2315/2316 25008KT", "TAF COR MNMG 222100Z 2300/2324 VRB04KT 6000 DZ/RA SCT020CB SCT080 BECMG 2312/2315 VRB08KT 9999 FEW023 TEMPO 2318/2321 8000 VCRA/DZ SCT022TCU SCT070", "TAF COR MNPC 222100Z 2300/2324 VRB04KT 5000 DZ/TSRA FEW014CB SCT016TCU BECMG 2306/2309 34004KT 8000 HZ FEW016 TEMPO 2312/2316 VRB08KT 6000 VCRA BKN017", "TAF MPTO 222300Z 2300/2406 24004KT 9999 SCT016 SCT080 TEMPO 2300/2304 8000-RA SCT015 SCT100 PROB30 2315/2319 18006KT 6000 TSRA SCT015CB BKN080", "TAF MRLB 222307Z 2300/2324 29004KT 9999 FEW030 SCT200 TX30/2319Z TN21/2310Z TEMPO 2300/2302 RA FEW025TCU TEMPO 2308/2313 VRB02KT 3000 BR SCT002 TEMPO 2320/2324 SHRA SCT020TCU", "TAF MRLM 222307Z 2300/2324 04006KT 9999 FEW030 TX31/2320Z TN22/2311Z BECMG 2301/2303 26004KT TEMPO 2307/2313 RA BKN015 BECMG 2314/2316 04007KT", "TAF MROC 222307Z 2300/2324 25005KT 9999 SCT030 TX28/2318Z TN17/2311Z TEMPO 2300/2305 VRB02KT 5000 BR BKN010 BECMG 2306/2308 09006KT BECMG 2316/2318 25007KT TEMPO 2320/2324 5000 TSRA SCT010CB BKN020", "TAF MRPV 222315Z 2300/2324 12005KT 9999 FEW035 BKN200 TX28/2318Z TN19/2310Z TEMPO 2300/2304 VRB02KT BCFG BECMG 2316/2318 29008KT TEMPO 2319/2323 5000 TSRA BKN010CB", "TAF MSLP 222125Z 2300/2324 VRB03KT 9999 SCT023 FEW033CB TX33/2319Z TN24/2310Z PROB40 TEMPO 2305/2307 8000 TSRA SCT023 SCT033CB FM230700 02008KT 9999 FEW023 FM231800 21012KT 9999 SCT023 FEW033TCU", "TAF MSSS 222125Z 2300/2324 35008KT 9999 SCT047 TX28/2320Z TN21/2312Z FM231800 17012KT 9999 SCT023 FEW033TCU", "TAF MTCH 221700Z 2218/2318 03010KT 9000 SCT028TCU PROB40 TEMPO 2220/2305 4000 TSRA SCT020CB BKN040 BECMG 2306/2310 11005KT 8000 NSW FEW020 BKN200 BECMG 2314/2318 02012KT", "TAF MTPP 221700Z 2218/2318 13007KT 9999 SCT026TCU BECMG 2218/2220 28012KT PROB30 TEMPO 2220/2304 4500 -TSRA SCT022CB BKN040 BECMG 2306/2308 VRB02KT 7000 NSW FEW020 SCT050 FM231300 10005KT 9999 FEW024", "MUCC 222300Z 2300/2324 01007KT 9000 SCT020 BECMG 2301/2303 VRB03KT BECMG 2313/2314 01010KT TEMPO 2320/2324 5000 SHRA FEW020CB BKN020", "MUCF 221700Z 2218/2306 03008KT 9000 SCT020", "MUCL 221700Z 2218/2306 02010KT 9000 SCT020", "TAF MUCM 222300Z 2300/2324 36006KT 9000 FEW020CB SCT030 TEMPO 2300/2302 VRB10KT 5000 TSRA BKN020 BECMG 2303/2305 VRB03KT SCT020 BECMG 2313/2315 01008KT TEMPO 2319/2324 VRB10KT 4000 TSRA SCT018CB BKN020", "TAF MUCU 222300Z 2300/2324 VRB03KT 9000 FEW020CB SCT020 TEMPO 2300/2302 VRB10KT 4000 TSRA SCT018CB BKN020 BECMG 2303/2304 35005KT SCT025 BECMG 2313/2314 16005KT TEMPO 2319/2324 VRB10KT 4000 TSRA SCT018CB BKN020", "TAF MUGM 2223/2323 31010KT 9999 VCSH SCT025CB SCT120 BKN180 QNH2986INS FM230000 35006KT 9999 FEW025 FEW080 SCT250 QNH2986INS BECMG 2314/2315 06008KT 9999 FEW030 SCT100 BKN250 QNH2987INS BECMG 2316/2318 13013KT 9999 VCSH SCT030CB BKN100 BKN250 QNH2986INS T25/2310Z T30/2318Z FN00237", "TAF MUHA 222300Z 2300/2324 05009KT 9000 SCT030", "TAF MUHG 222300Z 2300/2324 36006KT 9000 FEW018CB SCT030 BKN080 TEMPO 2300/2302 VRB10KT 4000 TSRA SCT018CB BKN020 BECMG 2303/2305 VRB03KT SCT020", "MUSC 222300Z 2300/2324 03007KT 9000 SCT020 BECMG 2302/2304 VRB03KT BECMG 2313/2315 03008KT TEMPO 2320/2324 5000 SHRA FEW020CB BKN020", "TAF MUVR 222300Z 2300/2324 03010KT 9000 SCT020 BECMG 2303/2305 VRB03KT BECMG 2313/2315 04011KT", "TAF MWCR 222300Z 2300/2324 05012KT 9000 -RA SCT016CB BKN035 TEMPO 2306/2312 5000 TSRA BKN012CB", "MYGF 221700Z 2218/2318 03008KT 9999 FEW025 SCT040 PROB30 TEMPO 2303/2309 CAVOK", "MYNN 221700Z 2218/2318 03008KT 9999 FEW025 SCT040 PROB30 TEMPO 2303/2309 CAVOK", "TAF MZBZ 222200Z 2300/2324 06005KT 9999 FEW022 SCT045", "TAF NCRG 222307Z 2300/2324 01007KT 9999 FEW010 SCT018 BKN100 TEMPO 2306/2310 8000 SHRA BKN018 TEMPO 2310/2324 5000 TSRA BKN016 FEW018CB", "TAF NFFN 222303Z 2300/2324 14012KT 9999 FEW028", "TAF NFNA 221705Z 2218/2318 16009KT 9999 -RA BKN018 BKN045 TEMPO 2218/2224 5000 RA BKN015 TEMPO 2300/2318 3000 +RA BKN010", "TAF COR NFTF 221713Z 2218/2318 14015KT 9999 -RA FEW008 SCT016 BKN100 TEMPO 2218/2308 14015G25KT 5000 RA BKN012 FM230800 14012KT 9999 SCT020 BKN040", "TAF NFTV 221712Z 2218/2318 08005KT 9999 -RA SCT016 BKN100 PROB40 TEMPO 2218/2306 5000 TSRA BKN012 FEW018CB BECMG 2313/2315 15010KT PROB30 TEMPO 2315/2318 5000 SHRA BKN008", "TAF NGFU 222330Z 2300/2324 02010KT 9999 FEW018 SCT100 PROB40 TEMPO 2302/2318 5000 SHRA BKN018", "TAF NGTA 222320Z 2300/2324 12010KT 9999 SCT019", "TAF NLWF 222300Z 2300/2324 10005KT 9999 FEW025 SCT045 TEMPO 2310/2320 4000 SHRA BKN014 FEW020CB", "TAF NLWW 222300Z 2300/2324 08008KT 9999 FEW020 SCT030 TEMPO 2309/2323 4000 SHRA BKN014 FEW020CB PROB40 TEMPO 2315/2320 2000 TSRA BKN009 SCT018CB", "TAF NSFA 222316Z 2300/2324 05010KT 9999 SCT024 BKN100 PROB30 TEMPO 2312/2324 5000 SHRA BKN018", "NSTU 222328Z 2300/2324 07008KT P6SM FEW020 SCT100 FM231200 02008KT P6SM VCSH SCT020 BKN040 FM231500 34004KT P6SM VCSH SCT020 BKN040 BKN100", "TAF NTAA 222300Z 2300/2406 VRB05KT 9999 FEW026 TEMPO 2300/2303 05015KT", "TAF NVSC 221700Z 2218/2318 10006KT 9999 SCT020 BKN110INTER 2218/2224 8000 SHRA FEW008 BKN018", "TAF NVSG 221700Z 2218/2318 09006KT 9999 SCT020 BKN110 INTER 2218/2224 9000 -SHRA BKN018", "TAF NVSL 221700Z 2218/2318 07006KT 9999 SCT020 BKN110 INTER 2218/2224 9000 -SHRA BKN018", "TAF NVSP 221700Z 2218/2318 08006KT 9999 SCT020 BKN110 INTER 2218/2224 8000 SHRA FEW008 BKN018", "TAF NVSS 221700Z 2218/2318 01006KT 9999 SCT020 BKN110 INTER 2218/2224 8000 SHRA FEW008 BKN018", "TAF NVVA 221700Z 2218/2318 02006KT 9999 SCT020 INTER 2218/2224 9000 -SHRA BKN018", "TAF NVVV 221700Z 2218/2318 09008KT 9999 SCT020 BKN110 INTER 2218/2224 9000 -SHRA BKN018", "TAF NVVW 221700Z 2218/2318 09008KT 9999 SCT020 BKN110 INTER 2218/2224 9000 -SHRA BKN018", "TAF NWWD 222300Z 2300/2324 06010KT 9999 FEW030 SCT045 TEMPO 2300/2314 07012G25KT 4000 SHRA BKN012 FEW020CB PROB30 TEMPO 2303/2308 2500 +SHRA BKN008 SCT018CB PROB40 TEMPO 2314/2324 4000 SHRA BKN014 FEW020CB", "TAF NWWE 221700Z 2218/2318 08015KT 9999 SCT035 FM222200 09025G40KT 9999 SHRA BKN020", "TAF NWWK 222300Z 2300/2324 05010KT 9999 RA FEW035 SCT060 TEMPO 2300/2318 06012G25KT 4000 SHRA BKN012 FEW020CB PROB30 TEMPO 2302/2312 2500 +SHRA BKN008 SCT018CB PROB40 TEMPO 2318/2324 4000 SHRA BKN014 FEW020CB", "TAF AMD NWWL 221917Z 2219/2318 10015G25KT 9999 SCT025 BKN035 BKN055 TEMPO 2219/2221 SHRA BKN014 FEW020TCU FM222130 10020G30KT 9999 SHRA FEW020TCU BKN020 PROB40 2312/2318 2000 SHRA BKN010 FEW018CB", "TAF NWWM 221700Z 2218/2318 08018KT 9999 FEW050 FM222330 09025G35KT 9999 SHRA FEW020TCU SCT050 PROB40 TEMPO 2303/2306 4000 +SHRA BKN014 FEW020CB", "TAF NWWR 221700Z 2218/2318 09010G25KT 9999 SCT025 BKN035 BKN050 FM222230 10020G30KT 9999 SHRA FEW020TCU BKN020", "TAF NWWU 221700Z 2218/2318 10015KT 9999 SCT040 BKN050 BKN130 TEMPO 2218/2223 SHRA BKN014 FEW020TCU FM222300 12020G30KT 8000 SHRA FEW014 SCT020TCU BKN030 BKN060 TEMPO 2303/2306 2000 SHRA BKN012 FEW020CB", "TAF NWWW 222300Z 2300/2324 07008KT 9999 FEW040 SCT060 TEMPO 2300/2324 RA FEW020TCU PROB40 TEMPO 2300/2310 08010G25KT 3000 SHRA FEW020CB", "TAF NZAA 222307Z 2300/2406 24010KT CAVOK BECMG 2311/2313 18005KT FM232200 22015KT 9999 SCT025", "TAF NZCH 222303Z 2300/2406 06008KT CAVOK BECMG 2300/2302 31015KT BECMG 2302/2304 31015G25KT BECMG 2306/2308 29005KT FM232300 21015KT 9999 BKN030 TEMPO 2323/2402 21015G28KT TEMPO 2403/2406 7000 -RA", "TAF NZFX 222056Z 2221/2321 05012KT 9999 BKN025 BKN050 OVC180 QNH2934INS GRID22012KT BECMG 2306/2308 07015KT 9999 DRSN BKN025 BKN050 BKN180 QNH2928INS GRID24015KT TEMPO 2310/2315 16015G30KT 1600 BLSN GRID33015G30KT ", "TAF NZWN 222307Z 2300/2406 36022G35KT 9999 SCT025 BECMG 2313/2315 34015G25KT BECMG 2321/2323 34015KT FM240400 18025KT 9999 -SHRA BKN020", "TAF OBBI 222300Z 2300/2406 VRB05KT CAVOK", "TAF OEAB 222300Z 2300/2406 36005KT CAVOK BECMG 2306/2308 09010KT FEW020 PROB30 TEMPO 2312/2316 FEW025CB BECMG 2320/2323 VRB03KT CAVOK", "TAF OEAH 222230Z 2300/2406 25005KT CAVOK BECMG 2310/2312 07007KT BECMG 2316/2318 VRB03KT", "TAF OEAO 222300Z 2300/2406 VRB03KT CAVOK BECMG 2306/2308 19010KT BECMG 2318/2320 VRB03KT", "TAF OEBA 222300Z 2300/2406 20010KT CAVOK BECMG 2306/2308 12014KT BECMG 2318/2320 20008KT", "TAF OEBH 222300Z 2300/2406 18006KT CAVOK BECMG 2308/2310 12010KT BECMG 2320/2322 20005KT", "TAF OEDF 222230Z 2300/2406 25005KT CAVOK TEMPO 2300/2304 5000 BR NSC PROB30 TEMPO 2301/2303 3000 BECMG 2310/2312 05010KT BECMG 2318/2320 25005KT", "TAF OEDR 222230Z 2300/2406 25005KT CAVOK TEMPO 2300/2304 5000 BR NSC PROB30 TEMPO 2301/2303 3000 BECMG 2310/2312 05010KT BECMG 2318/2320 25005KT", "TAF OEGN 222300Z 2300/2406 VRB03KT 8000 FEW030 BECMG 2306/2308 24012KT 9999 SCT030 PROB30 TEMPO 2310/2320 TS FEW035CB BECMG 2318/2320 36008KT 7000 FEW030", "TAF OEGS 222300Z 2300/2406 19008KT CAVOK BECMG 2306/2308 23014KT BECMG 2318/2320 VRB03KT", "TAF OEGT 222300Z 2300/2406 30010KT CAVOK BECMG 2312/2314 35018KT 7000 FEW040 TEMPO 2312/2318 FEW035CB", "TAF OEHL 222300Z 2300/2406 25010KT CAVOK BECMG 2306/2308 19014KT BECMG 2316/2318 25008KT", "TAF OEJN 222300Z 2300/2406 VRB03KT 7000 NSC BECMG 2306/2308 33012KT CAVOK BECMG 2318/2320 VRB03KT 7000 NSC", "TAF OEKJ 222300Z 2300/2406 22008KT CAVOK BECMG 2306/2308 15010KT BECMG 2322/2400 VRB03KT", "TAF OEKM 222300Z 2300/2406 36005KT CAVOK BECMG 2306/2308 09010KT FEW020 PROB30 TEMPO 2312/2316 FEW025CB BECMG 2320/2323 VRB03KT CAVOK", "TAF OEMA 222300Z 2300/2406 VRB03KT CAVOK BECMG 2306/2308 11010KT 7000 NSC BECMG 2318/2320 32006KT CAVOK", "TAF OENG 222300Z 2300/2406 VRB03KT CAVOK BECMG 2306/2308 07010KT BECMG 2318/2320 VRB03KT", "TAF OEPA 222230Z 2300/2406 22010KT CAVOK BECMG 2310/2312 VRB03KT BECMG 2320/2322 15005KT", "TAF OEPS 221700Z 2217/2323 16009KT 9999 SKC QNH3018INS BECMG 2220/2221 VRB06KT 9999 SKC QNH3021INS BECMG 2308/2309 16009KT 9999 SKC QNH3017INS BECMG 2318/2319 VRB06KT 9999 SKC QNH3015INS TX35/2311Z TN18/2303Z", "TAF OERF 222300Z 2300/2406 20014KT 7000 NSC BECMG 2310/2312 19008KT", "TAF OERK 222300Z 2300/2406 18008KT CAVOK BECMG 2311/2313 13008KT BECMG 2321/2323 20006KT", "TAF OERR 222300Z 2300/2406 34008KT CAVOK BECMG 2306/2308 08014KT 7000 NSC TEMPO 2306/2316 3500 BLDU BECMG 2400/2402 02008KT", "TAF OESH 222300Z 2300/2406 VRB03KT CAVOK BECMG 2309/2311 06010KT", "TAF OESK 222300Z 2300/2406 VRB03KT CAVOK BECMG 2306/2308 04012KT 9999 FEW040 BECMG 2318/2320 27010KT", "TAF OETB 222300Z 2300/2406 28008KT CAVOK BECMG 2308/2310 24010KT 9999 FEW040 BECMG 2318/2320 VRB03KT", "TAF OETF 222300Z 2300/2406 19008KT 7000 NSC BECMG 2306/2308 14012KT 9999 FEW030 BECMG 2312/2314 30010KT BECMG 2318/2320 VRB03KT 6000 NSC PROB30 TEMPO 2318/2400 4000 HZ", "TAF OETR 222300Z 2300/2406 04010KT CAVOK BECMG 2310/2312 19012KT 7000 SCT040 TEMPO 2310/2323 VRB20KT 3000 BLDU TSRA FEW035CB BECMG 2320/2322 09010KT", "TAF OEWD 222300Z 2300/2406 08010KT CAVOK BECMG 2305/2307 14012KT 7000 NSC ", "TAF OEWJ 222300Z 2300/2406 36010KT CAVOK BECMG 2306/2308 30016KT BECMG 2320/2323 36008KT", "TAF OEYN 222300Z 2300/2406 VRB03KT 7000 NSC BECMG 2308/2310 29018KT BECMG 2320/2322 30008KT", "TAF OIAA 221750Z 2218/2324 12006KT 2000 BR NSC TEMPO 2222/2304 0800 FG BECMG 2305/2307 7000 BECMG 2318/2320 3000 BR", "TAF OIAW 222310Z 2300/2406 16008KT 2000 HZ NSC TEMPO 2300/2304 0700 FG BECMG 2305/2307 7000 BECMG 2320/2322 4000 HZ TEMPO 2323/2403 2000 BR BECMG 2405/2406 7000", "TAF OIBB 222330Z 2300/2309 09008KT 3000 BR HZ NSC BECMG 2306/2308 7000", "TAF OIBK 221750Z 2218/2324 21008KT 8000 NSC TEMPO 2222/2304 4000 HZ/BR", "TAF OIBP 222330Z 2300/2309 16008KT 7000 NSC TEMPO 2303/2308 4000 HZ", "TAF OICC 222330Z 2300/2309 24008KT 7000 FEW035 SCT100 BECMG 2302/2304 FEW035CB SCT040 SCT090 TEMPO 2306/2309 22024KT 4000 SA SHRA FEW030B SCT035 BKN090", "TAF OIFM 222310Z 2300/2406 26008KT 8000 NSC TEMPO 2305/2308 5000 HZ", "TAF OIGG 222330Z 2300/2309 22008KT 4000 RA BR BKN005 FEW015CB OVC060 TEMPO 2300/2304 1000 TSRA BR BECMG 2305/2307 6000 BKN015 FEW020CB OVC070 TEMPO 2307/2309 4000 RA BR", "TAF OIIE 221750Z 2218/2324 30010KT 7000 FEW040 SCT100 TEMPO 2218/2221 27020KT FEW035CB SCT040 BKN100 BECMG 2310/2312 FEW035CB SCT040 BKN100 BECMG 2328/2320 NSC", "TAF OIII 222310Z 2300/2406 31008KT 7000 FEW100 BECMG 2310/2312 FEW035CB SCT040 BKN100 BECMG 2318/2320 NSC", "TAF OIIP 222330Z 2300/2309 30010KT 6000 FEW030 SCT090 TEMPO 2300/2304 30020KT FEW030CB SCT040 BKN100", "TAF OIKB 222310Z 2300/2406 02006KT 5000 HZ NSC TEMPO 2301/2304 2000 BR BECMG 2307/2308 7000 TEMPO 2309/2314 24016KT BECMG 2318/2320 4000 HZ TEMPO 2400/2404 2000 BR", "TAF OIKK 222310Z 2300/2406 34006KT CAVOK", "TAF OIMM 222310Z 2300/2406 13010KT 6000 SCT020 BKN090 TEMPO 2300/2304 3000 BR BKN020 BECMG 2304/2305 NSC BECMG 2312/2314 FEW030CB SCT035 SCT100 TEMPO 2315/2321 5000 SHRA TEMPO 2321/2403 4000 BR BECMG 2403/2405 NSC", "TAF OING 222330Z 2300/2309 02008KT 6000 SCT020 FEW025CB OVC080 TEMPO 2300/2304 2000 RA/BR BKN010 FEW020CB OVC080 BECMG 2305/2307 6000 FEW030CB SCT035 BKN090", "TAF OINZ 222330Z 2300/2309 03008KT 4000 BR BKN010 FEW015CB OVC080 TEMPO 2300/2304 1000 DZ BR BECMG 2305/2307 7000 FEW025CB SCT030 BKN090", "TAF OISS 222310Z 2300/2406 24006KT 8000 NSC", "TAF OITL 222330Z 2300/2309 06010KT 4000 RA BR BKN020 FEW030CB OVC080 TEMPO 2300/2305 0700 FG RA BKN003 SCT030 FEW040CB OVC070 TEMPO 2305/2309 07024KT 1500 TSRA BR", "TAF OITR 221750Z 2218/2324 06008KT 5000 BR FEW035CB SCT040 BKN090 TEMPO 2218/2224 3000 TSRA BR SCT020 SCT030CB OVC080 TEMPO 2300/2305 2000 TSRA BR SCT020 SCT030CB OVC080 BECMG 2306/2308 7000 NSC", "TAF OITT 222310Z 2300/2406 05008KT 6000 FEW015 SCT030 FEW030CB OVC080 TEMPO 2300/2306 3000 TSRA BR SCT020 SCT030CB OVC080 BECMG 2307/2309 7000 NSC", "TAF OIYY 222330Z 2300/2309 16008KT CAVOK", "TAF OIZH 222310Z 2300/2406 19008KT 8000 NSC TEMPO 2309/2315 01016KT", "TAF OJAI 222255Z 2300/2406 28008KT 6000 FEW035 PROB30 2303/2306 VRB01KT 2000 BR BECMG 2306/2308 SCT035", "TAF OJAM 222255Z 2300/2406 27008KT 5000 FEW035 PROB30 2303/2306 VRB01KT 3000 BR BECMG 2306/2308 SCT030", "TAF OJAQ 222255Z 2300/2406 35010KT 7000 FEW035", "TAF OKAS 221600Z 2216/2322 12009KT 8000 HZ SKC QNH3000INS BECMG 2220/2221 16006KT 5000 BR SKC QNH2999INS BECMG 2223/2224 18006KT 3200 BR SKC QNH2999INS BECMG 2300/2301 18006KT 1600 BR SKC QNH3000INS BECMG 2302/2303 18006KT 0200 FG SKC QNH3002INS BECMG 2304/2305 18009KT 3200 BR SKC QNH3005INS BECMG 2305/2306 18009KT 6000 HZ SKC QNH3004INS BECMG 2310/2311 VRB06KT 8000 HZ SKC QNH2997INS BECMG 2313/2314 09012KT 9000 HZ SKC QNH2996INS TX38/2310Z TN21/2303Z", "TAF OKBK 222300Z 2300/2406 15008KT 6000 NSC TEMPO 2300/2306 VRB03KT 2000 BR PROB30 TEMPO 2301/2305 0200 FG VV///", "TAF OLBA 222200Z 2300/2406 VRB03KT 8000 NSC BECMG 2306/2308 05010KT BECMG 2318/2320 02013KT 7000 BKN023 TEMPO 2318/2406 5000 -TSRA OVC020", "TAF OMAA 222300Z 2300/2406 06005KT 8000 NSC PROB30 2301/2304 4000 HZ BECMG 2302/2304 14012KT PROB30 TEMPO 2304/2307 4000 DU BECMG 2309/2311 33012KT BECMG 2319/2321 06005KT", "TAF OMAD 222300Z 2300/2406 02005KT 8000 NSC PROB30 2301/2304 4000 HZ BECMG 2302/2304 14010KT PROB30 TEMPO 2304/2307 4000 DU BECMG 2309/2311 33010KT BECMG 2319/2321 06005KT", "TAF OMAL 222300Z 2300/2406 05006KT 8000 NSC BECMG 2301/2303 16012KT BECMG 2311/2313 33010KT BECMG 2319/2321 05005KT BECMG 2402/2404 16010KT", "TAF OMDB 222300Z 2300/2406 12005KT 8000 NSC PROB30 2300/2304 3000 HZ BECMG 2308/2310 34012KT BECMG 2316/2318 12005KT PROB30 2400/2405 4000 HZ", "TAF OMDW 222300Z 2300/2406 09005KT 4000 HZ NSC PROB30 2300/2305 1500 BR BECMG 2302/2304 18010KT 7000 NSW PROB30 2305/2307 17017KT 4000 BLDU BECMG 2309/2311 34014KT BECMG 2316/2318 12005KT PROB30 2321/2405 3000 HZ", "TAF OMFJ 222300Z 2300/2406 29005KT 7000 NSC PROB30 2300/2303 5000 HZ BECMG 2306/2308 09008KT BECMG 2314/2316 VRB03KT BECMG 2321/2323 29006KT", "TAF OMRK 222300Z 2300/2406 VRB02KT 8000 NSC PROB30 2300/2305 1500 BR BECMG 2308/2310 34010KT BECMG 2314/2316 VRB02KT PROB30 2321/2405 3000 HZ", "TAF OMSJ 222300Z 2300/2406 12005KT 8000 NSC PROB30 2300/2305 1500 BR BECMG 2308/2310 34012KT BECMG 2315/2317 12005KT PROB30 2321/2405 3000 HZ", "TAF OODQ 221700Z 2218/2318 08008KT 8000 NSC TEMPO 2222/2304 VRB02KT 4000 BR BKN010 PROB30 TEMPO 2223/2303 0800 FG OVC008 TEMPO 2300/2305 34005KT BECMG 2308/2310 07012KT", "TAF OOMS 221700Z 2218/2324 VRB02KT 8000 NSC TEMPO 2300/2305 21006KT BECMG 2306/2308 01010KT BECMG 2315/2317 VRB02KT", "TAF OOSA 221740Z 2218/2400 VRB03KT CAVOK BECMG 2306/2308 16013KT BECMG 2313/2315 VRB03KT", "TAF OOSH 221700Z 2218/2324 VRB02KT 8000 NSC PROB40 TEMPO 2220/2304 4000 BR BKN015 TEMPO 2221/2301 0900 FG BECMG 2306/2308 08012KT BECMG 2315/2317 VRB02KT", "TAF OPBW 222145Z 2300/2318 23010KT 4000 FU NSC TN18/2301Z TX34/2310Z PROB30 TEMPO 2300/2304 23005KT 2000 BR NSC", "TAF OPDG 222145Z 2300/2318 18010KT 4000 FU NSC TN18/2301Z TX33/2310Z", "TAF OPFA 222145Z 2300/2318 31006KT 5000 HZ NSC TX31/2309Z TN16/2301Z TEMPO 2300/2304 00000KT 1500 BR NSC FM23,1400 VRB02KT 4000 FU NSC", "TAF OPGD 222130Z 2300/2324 24010KT 8000 NSC TEMPO 2300/2304 00000KT 1000 BR NSC BECMG 2318/2320 23005KT 3000 BR NSC ", "TAF OPIS 222130Z 2300/2406 33008KT 6000 NSC FM230300 31005KT 8000 NSC FM231500 33008KT 6000 NSC TEMPO 2404/2406 33008G18KT 8000 NSC", "TAF OPKC 222130Z 2300/2406 24012KT 6000 NSC TEMPO 2300/2304 00000KT 4000 HZ NSC BECMG 2318/2320 36006KT 4000 HZ NSC TEMPO 2400/2404 00000KT 3000 HZ NSC", "TAF OPLA 222145Z 2300/2406 VRB02KT 2000 BR NSC TX31/2310Z TN17/2301Z BECMG 2304/2306 35008KT 5000 HZ NSC FM231600 30004KT 4000 FU NSC TEMPO 2401/2404 00000KT 2000 BR BECMG 2404/2406 27006KT 4000 HZ NSC", "TAF OPMT 222145Z 2300/2318 18010KT 4000 FU NSC TN19/2301Z TX33/2310Z PROB30 TEMPO 2301/2305 18005KT 2000 BR NSC", "TAF OPNH 222130Z 2300/2406 23010KT 5000 HZ NSC TEMPO 2300/2304 00000KT 2500 BR NSC BECMG 2318/2320 23005KT 4000 FU NSC TEMPO 2400/2405 00000KT 2500 BR NSC", "TAF OPPS 222130Z 2300/2406 VRB02KT 3000 BR FEW060 SCT100 BECMG 2303/2305 05006KT 6000 NSC BECMG 2313/2317 31006KT 4000 FU FEW080 TEMPO 2320/2324 VRB02KT 3000 BR FEW060 SCT100", "TAF OPRK 222145Z 2300/2318 23010KT 4000 FU NSC TN18/2301Z TX37/2310Z", "TAF OPSK 222130Z 2300/2324 23007KT 4000 HZ NSC TEMPO 2300/2304 00000KT 3000 FU NSC BECMG 2318/2320 VRB03KT 4000 FU NSC ", "TAF OPST 222145Z 2300/2406 31006KT 4000 FU NSC TX31/2310Z TN17/2301Z TEMPO 2300/2304 05004KT 2000 BR", "TAF ORBI 221600Z 2218/2318 10008KT 8000 FEW030", "TAF ORER 222300Z 2300/2324 33006KT 8000 NSC BECMG 2307/2309 FEW045", "TAF ORNI 221600Z 2218/2318 12010KT 6000 NSC", "TAF ORSU 222300Z 2300/2324 32006KT CAVOK PROB40 TEMPO 2302/2308 VRB02KT 1500 BR NSC BECMG 2308/2310 25010KT 9999 SCT045 SCT080 BECMG 2316/2318 31004KT CAVOK", "TAF OSAP 222300Z 2300/2324 VRB03KT CAVOK TEMPO 2312/2318 09008KT", "TAF OSDI 222300Z 2300/2406 VRB03KT CAVOK PROB30 TEMPO 2302/2306 VRB03KT 4000BR BECMG 2306/2309 22010KT 9999 FEW030 SCT100", "TAF OSLK 222300Z 2300/2324 09008KT CAVOK TEMPO 2306/2318 29012KT", "TAF OTBD 222305Z 2300/2406 16004KT CAVOK TEMPO 2300/2304 5000 HZ PROB30 TEMPO 2300/2303 3000 BR BECMG 2301/2303 27005KT TEMPO 2302/2306 VRB02KT BECMG 2306/2308 07008KT", "TAF AMD OTBH 221600Z 2216/2322 05006KT 9999 SKC QNH2994INS BECMG 2300/2301 19006KT 8000 BR SKC QNH2996INS TEMPO 2302/2303 4800 BR BECMG 2306/2307 18009KT 9999 NSW SKC QNH2995INS TEMPO 2310/2311 11009KT BECMG 2311/2312 07009KT 9999 SKC QNH2994INS BECMG 2314/2315 07006KT 9999 SKC QNH2991INS TX38/2311Z TN23/2302Z", "TAF OTHH 221701Z 2218/2324 09005KT 8000 NSC TEMPO 2300/2306 VRB03KT 5000 HZ", "PAAQ 221724Z 2218/2318 35008KT P6SM SCT200 FM230000 01005KT P6SM BKN200", "PABE 222325Z 2300/2324 VRB02KT 1SM BR VCFG OVC002 TEMPO 2300/2304 1/2SM FZFG FM230400 VRB02KT 4SM BR VCFG OVC003 FM230700 VRB02KT 2SM BR VCFG OVC002 FM231400 17006KT 6SM BR OVC006 FM232200 16007KT 4SM BR OVC004", "TAF PABI 222200Z 2222/2404 VRB06KT 9999 BKN045 620455 510043 QNH2985INS BECMG 2314/2316 VRB06KT 1600 BR SCT012 510043 QNH2986INS TEMPO 2316/2320 0800 FZFG TX00/2223Z TNM11/2303Z LAST NO AMDS AFT 2306 NEXT 2314", "PABR 221725Z 2218/2318 11020KT 6SM BR VCSH OVC011 FM230300 11018KT 4SM BR SCT007 OVC015 FM231500 11018KT 1 1/2SM -SN BR OVC007", "PABT 221959Z 2220/2318 35003KT 6SM -SHSN BR FEW012 SCT018 OVC024 FM230000 36003KT P6SM VCSH OVC015 FM230400 VRB03KT P6SM SCT020 OVC040", "PACD 222325Z 2300/2324 32012G22KT P6SM -RA BKN025 OVC045 FM230200 30012KT P6SM -SHRA OVC035 FM230500 26010KT P6SM VCSH BKN050 FM231800 22013KT P6SM -RA BKN030 OVC045 FM232200 22018G28KT P6SM -RA OVC020", "PACV 221734Z 2218/2318 VRB04KT P6SM SCT100 FM230300 VRB02KT P6SM VCSH BKN050 FM231400 VRB02KT 6SM BR VCFG SCT007", "PADL 222325Z 2300/2324 35009KT P6SM FEW020 BKN060 FM232200 16008KT P6SM BKN040", "PADQ 221734Z 2218/2318 VRB04KT P6SM OVC100 FM222100 02015KT 5SM -RA BR SCT015 OVC030 FM230000 35015KT 5SM -RA BR OVC015 FM230900 30009KT P6SM VCSH SCT030 BKN100", "PADU 222325Z 2300/2324 VRB06KT P6SM OVC025 FM230400 23008KT P6SM BKN050 FM231800 22010G18KT P6SM BKN035 FM232000 24013G25KT 5SM -RA BR OVC025", "TAF PAED 222100Z 2221/2403 02009KT 9999 FEW012 BKN200 QNH2985INS BECMG 2303/2304 02009KT 9999 VCFG FEW002 BKN200 QNH2975INS TEMPO 2304/2308 0800 FG BKN002 BECMG 2307/2308 01007KT 6000 BCFG SCT002 SCT200 QNH2977INS TEMPO 2308/2318 0800 FZFG VV001 BECMG 2318/2319 36009KT 9999 NSW FEW008 FEW200 QNH2985INS TX03/2223Z TNM03/2316Z", "TAF PAEI 222200Z 2222/2404 VRB06KT 9999 -SN FEW007 BKN030 620309 QNH2990INS BECMG 2303/2304 VRB02KT 8000 BR BKN003 OVC006 620037 QNH2989INS TEMPO 2304/2308 4800 BCFG BECMG 2308/2309 VRB02KT 3200 BCFG OVC003 620037 QNH2990INS BECMG 2311/2312 VRB02KT 0400 FZFG VV002 620028 QNH2993INS BECMG 2319/2320 VRB02KT 6000 BR OVC004 620046 QNH2995INS TX00/2222Z TNM06/2314Z", "PAEN 222118Z 2221/2318 03011KT P6SM BKN007 TEMPO 2221/2224 SCT007 FM230000 03008KT P6SM SCT010", "PAFA 222102Z 2221/2324 VRB03KT 1 1/2SM -SHSN BR BKN003 OVC010 FM222300 VRB03KT 4SM -SN BR BKN007 OVC015 FM230300 VRB03KT 6SM BR VCSH BKN007 OVC015 FM230600 VRB03KT 1 1/2SM BR OVC007 FM231800 VRB03KT 4SM BR VCSH SCT007 OVC015", "TAF PAFB 220600Z 2206/2312 VRB04KT 8000 -SN BR SCT010 OVC040 620409 QNH2985INS BECMG 2209/2210 VRB04KT 8000 BR SCT008 BKN015 620156 QNH2991INS BECMG 2219/2220 VRB04KT 8000 -SN BR SCT005 BKN010 OVC020 620156 QNH2989INS BECMG 2300/2301 VRB04KT 9000 BR SCT015 OVC030 620306 QNH2986INS TX01/2300Z TNM10/2214Z LAST NO AMDS AFT 2206 NEXT 2414", "PAGA 221725Z 2218/2318 15004KT P6SM VCSH FEW020 BKN040 FM222000 14003KT P6SM VCSH BKN025 AMD LTD TO CLD VIS WX", "PAGK 221734Z 2218/2318 VRB03KT P6SM BKN060 FM231200 VRB02KT 6SM BR VCFG SCT007", "PAGS 222325Z 2300/2324 12005KT P6SM BKN060 AMD LTD TO CLD VIS AND WIND", "PAGY 222325Z 2300/2324 22008KT P6SM SCT060 FM230500 04003KT P6SM OVC050 AMD LTD TO CLD VIS AND WIND", "PAHN 222325Z 2300/2324 14008KT P6SM BKN100 AMD LTD TO CLD VIS AND WIND", "PAHO 221724Z 2218/2318 VRB05KT P6SM BKN200", "PAIL 222325Z 2300/2324 36007KT P6SM BKN050", "PAJN 222325Z 2300/2324 VRB05KT P6SM BKN050 FM231200 11007KT P6SM -RA OVC050", "PAKN 222325Z 2300/2324 VRB06KT P6SM FEW020 SCT050 TEMPO 2300/2304 OVC004", "PAKT 222325Z 2300/2324 29004KT P6SM SCT025 FM230900 14010KT P6SM SCT025 OVC100 FM231500 15019G28KT 5SM -RA BKN050", "PAKW 222325Z 2300/2324 VRB03KT P6SM SKC FM231500 13015G25KT 5SM -RA OVC025", "PAMC 220531Z 2206/2306 20005KT 4SM -SHSN BR OVC015 AMD NOT SKED", "PANC 221724Z 2218/2324 35005KT P6SM SCT004 BKN170 FM222000 36008KT P6SM BKN200", "PAOM 221725Z 2218/2318 21006KT P6SM VCSH BKN025 OVC035 FM230300 17010KT 4SM -RASN BR BKN015 OVC025 FM230500 16013KT 2SM -RASN BR BKN015 OVC020", "PAOR 221958Z 2220/2318 25003KT 2SM -SHSN BR BKN025 OVC050 FM222200 VRB03KT P6SM VCSH SCT020 BKN040 FM230900 31003KT 6SM -SN BR BKN007 OVC015", "PAOT 222027Z 2220/2318 13011KT 4SM -SHSN BR SCT002 BKN035 OVC050 TEMPO 2220/2223 1/2SM FZFG OVC002 FM230200 15013KT P6SM -SHRASN SCT015 OVC025 FM230900 13018KT 4SM -SHSN BR OVC015", "PAPG 222325Z 2300/2324 VRB04KT P6SM SCT025 FM230700 VRB04KT 1/2SM FG BKN004", "PAQT 222102Z 2221/2318 09013KT P6SM SCT015 OVC035 FM230200 10013KT P6SM VCFG SCT007 OVC015 FM231400 10015KT 1 1/2SM -SN BR OVC007", "PASC 222100Z 2221/2318 10017KT P6SM VCSH SCT015 OVC040 FM230100 10015KT P6SM VCSH BKN015 OVC035 FM230600 12013KT 5SM -SN BR SCT007 OVC015 FM231400 11014KT 1 1/2SM -SN BR OVC007", "PASD 222325Z 2300/2324 31015KT P6SM -RA SCT025 BKN050 FM230600 30012KT P6SM VCSH OVC050 FM230900 28009KT P6SM BKN050 FM232200 23013KT P6SM BKN035", "PASI 222325Z 2300/2324 VRB04KT P6SM BKN100 FM230800 12015G25KT P6SM SCT060 OVC100 FM231600 11018G27KT 4SM -RA BR OVC050", "PASN 222325Z 2300/2324 23012KT P6SM SCT100 FM231200 20015KT 6SM BR OVC040 FM231500 22018G28KT 4SM -RA BR SCT009 OVC012 FM232000 26028G40KT 6SM -RA BR OVC015", "TAF PASY 222200Z 2222/2404 22020G30KT 9999 OVC012 650309 510004 QNH2976INS BECMG 2302/2303 22020G30KT 8000 -RA BKN012 OVC050 620604 520003 QNH2976INS BECMG 2314/2316 21018KT 6000 -RA BKN008 620704 510053 QNH2988INS TX08/2322Z TN05/2223Z LIMITED METWATCH 2301 TIL 2309", "PATA 222000Z 2220/2318 08007KT 4SM -SN BR SCT004 BKN010 OVC018 FM222200 VRB03KT P6SM BKN007 OVC015 FM230400 VRB03KT P6SM VCFG BKN007 OVC015", "PATK 221724Z 2218/2318 01005KT P6SM SCT200 FM230600 VRB04KT P6SM BKN200", "PAUN 222002Z 2220/2318 09008KT P6SM VCSH FEW020 OVC040 FM222200 20008KT P6SM VCSH BKN025 OVC040 FM230200 21008KT P6SM SCT025 BKN040 FM230600 18010KT P6SM SCT025 OVC050 FM231500 13015KT P6SM VCSH SCT025 OVC050", "PAVD 221734Z 2218/2318 VRB03KT P6SM SKC FM231200 07005KT 6SM BR VCFG SCT005", "PAWG 222325Z 2300/2324 VRB03KT P6SM SCT007 SCT025 FM230200 30007KT P6SM SCT025 BKN050", "PAYA 222325Z 2300/2324 09005KT P6SM FEW100 FM230800 08011KT P6SM BKN040 OVC060 FM231200 07002KT P6SM -RA OVC050 AMD LTD TO CLD VIS AND WIND", "PGRO 222320Z 2300/2324 10012KT P6SM VCSH SCT015 BKN100", "PGSN 222320Z 2300/2324 09012KT P6SM VCSH SCT020", "TAF PGUA 221800Z 2218/2324 11010KT 9999 SCT014 BKN180 QNH2985INS TEMPO 2218/2302 10012G18KT 4800 SHRA VCTS BKN014CB TEMPO 2302/2309 8000 -SHRA BKN014 TX30/2302Z TN24/2218Z", "TAF COR PGUM 222321Z 2300/2406 12012KT P6SM VCSH SCT022 TEMPO 2300/2304 10012G22KT -SHRA SCT018 BKN020 OVC100", "PGWT 222320Z 2300/2324 11010KT P6SM VCSH SCT016 SCT030 BKN120", "TAF PHHI 220700Z 2207/2313 30006KT 9999 FEW020 SCT035 QNH3004INS BECMG 2208/2209 VRB03KT 9999 SCT020 BKN030 QNH3002INS TEMPO 2209/2213 8000 -RA FEW011 BKN018 BECMG 2218/2219 11009KT 9999 SCT025 BKN040 QNH3001INS BECMG 2307/2308 01006KT 9999 SCT030 BKN035 QNH3002INS TX30/2223Z TN18/2214Z LAST NO AMDS AFT 2210Z NEXT 2415Z", "PHJH 222328Z 2300/2324 05014G22KT P6SM FEW050", "PHJR 222328Z 2300/2324 09010G15KT P6SM SCT050 FM230400 06005KT P6SM SKC", "PHKO 222328Z 2300/2324 24011KT P6SM SCT050 FM230500 VRB06KT P6SM FEW030 SCT050", "PHLI 222328Z 2300/2324 07012KT P6SM SCT025 SCT035", "PHMK 222328Z 2300/2324 04014G20KT P6SM FEW035 FM230500 05012KT P6SM FEW030", "TAF PHNG 2203/2303 12010KT 9999 FEW030 SCT050 QNH2993INS TEMPO 2203/2209 13010G30KT 8000 -SHRA BKN035 BKN060 TT26/2216Z T29/2223Z", "PHNL 222328Z 2300/2406 06014KT P6SM FEW040 FM230300 05009KT P6SM FEW040 FM231900 07014KT P6SM VCSH SCT025 BKN040 FM240000 06014G22KT P6SM SCT025 SCT045", "PHNY 222328Z 2300/2324 04011KT P6SM FEW025 FM230600 05008KT P6SM FEW030", "PHOG 222328Z 2300/2324 06015G26KT P6SM FEW050 FM230500 06011KT P6SM FEW040", "PHTO 222328Z 2300/2324 08010KT P6SM FEW030 SCT050 FM230600 24005KT P6SM FEW025", "TAF COR PKMJ 222330Z 2300/2324 14011KT P6SM VCSH SCT015 SCT050 BKN120 TEMPO 2300/2304 4SM SHRA BKN015 BKN045 OVC090", "TAF COR PKWA 222328Z 2300/2324 14014KT P6SM VCSH SCT020 BKN120 TEMPO 2300/2304 09015G25KT 2SM +SHRA BKN014 OVC090", "TAF PLCH 222321Z 2300/2324 10010KT 9999 SCT019", "PMDY 222328Z 2300/2324 03008KT P6SM FEW022 SCT040", "PTKK 222320Z 2300/2324 05007KT P6SM VCSH SCT014", "PTPN 221933Z 2220/2318 14008KT P6SM VCSH SCT018 BKN130 TEMPO 2301/2305 4SM SHRA SCT015 BKN030", "PTRO 222320Z 2300/2324 20007KT P6SM VCSH SCT015 BKN120 OVC300 TEMPO 2302/2306 VRB06G15KT 3SM SHRA BKN015", "PTSA 212331Z 2200/2224 09011KT P6SM VCSH BKN018 BKN130 TEMPO 2200/2201 4SM SHRA BKN020 FM220300 09011KT P6SM VCSH SCT018 BKN130", "PTYA 222320Z 2300/2324 20007KT P6SM VCSH SCT016 BKN120 TEMPO 2302/2306 4SM SHRA BKN015 OVC100", "TAF PWAK 222200Z 2222/2404 06015KT 9999 FEW030 BKN070 QNH2988INS TEMPO 2222/2302 07018G25KT TX31/2305Z TN25/2222Z FOR MIL USE ONLY", "TAF RCFN 222300Z 2300/2324 03008KT 8000 FEW012 BKN032 TEMPO 2304/2310 07010G20KT 5000 SHRA FEW010 FEW015TCU BKN020 BKN050 BECMG 2310/2312 35005KT", "TAF RCKH 222300Z 2300/2406 31008KT 8000 FEW012 BKN032 TEMPO 2304/2310 25008KT 5000 SHRA FEW010 FEW015TCU BKN020 BKN050 BECMG 2310/2312 35005KT TEMPO 2318/2324 06005KT 5000 RA BR FEW010 BKN020 BKN050 BECMG 2401/2403 31008KT", "TAF RCMQ 222300Z 2300/2324 01016KT 9999 SCT006 BKN012 BKN040 TX27/2305Z TN20/2321Z BECMG 2301/2303 FEW008 BKN030 BKN050 TEMPO 2304/2309 8000 -RA FEW006 BKN016 BKN030 BECMG 2321/2323 FEW008 SCT030 BKN060", "TAF RCNN 222300Z 2300/2324 10004KT 3200 BR SCT008 BKN021 BKN040 TX29/2305Z TN19/2321Z BECMG 2301/2303 03006KT 5000 BR BECMG 2304/2306 34008KT 9000 FEW012 SCT025 BKN060 TEMPO 2307/2312 6000 -RA SCT008 BKN021 BKN050 BECMG 2313/2316 05004KT 9999 FEW012 BKN050 TEMPO 2320/2323 5000 -RA BR", "TAF RCSS 222300Z 2300/2324 09012KT 8000 FEW012 BKN022 BKN050 TEMPO 2300/2304 5000 SHRA FEW010 BKN016 BKN040 TEMPO 2304/2310 08013G23KT TEMPO 2310/2314 5000 SHRA FEW010 BKN016 BKN040 TEMPO 2314/2320 FEW015 BKN032 BKN060", "TAF RCTP 222300Z 2300/2406 04020KT 8000 FEW012 SCT020 BKN032 TEMPO 2300/2304 5000 RA BR SCT006 BKN011 BKN030 TEMPO 2304/2310 05022G32KT TEMPO 2310/2314 5000 RA BR SCT006 BKN011 BKN030 TEMPO 2320/2324 SCT008 BKN016 BKN040", "TAF RJAA 222305Z 2300/2406 34004KT 9999 FEW030 BECMG 2304/2306 10006KT BECMG 2310/2312 02014KT", "TAF RJAH 222305Z 2300/2406 09008KT 9999 FEW030 BECMG 2312/2315 03012KT", "TAF RJBB 222306Z 2300/2406 26009KT 9999 FEW025 SCT050 BECMG 2309/2311 03020KT BECMG 2403/2406 27005KT", "TAF RJCB 222306Z 2300/2406 35007KT 9999 FEW015 BKN040 TEMPO 2309/2321 FEW006 BKN008", "TAF RJCC 222305Z 2300/2406 34010KT 9999 FEW010 BKN025 BECMG 2315/2318 17003KT BECMG 2400/2403 36011KT", "TAF RJCH 222306Z 2300/2406 28014KT 9999 FEW020 BKN040", "TAF RJCK 222306Z 2300/2406 02004KT 9999 FEW020 BKN050 TEMPO 2309/2315 4000 -SHRA BR FEW005 BKN008", "TAF RJCM 222306Z 2300/2406 34009KT 9999 FEW010 BKN030 TEMPO 2312/2315 4000 -SHRA BR BECMG 2315/2318 20005KT BECMG 2321/2400 36012KT TEMPO 2321/2406 3000 SHRA BR FEW004 BKN006", "TAF RJEC 222308Z 2300/2406 18005KT 9999 FEW008 BKN020 BECMG 2300/2302 35004KT TEMPO 2312/2321 4000 -SHRA BR FEW006 BKN008 TEMPO 2321/2403 3000 SHRA BR FEW004 BKN006", "TAF RJFF 222307Z 2300/2406 33012KT 9999 FEW030", "TAF RJFK 222307Z 2300/2406 32011KT 9999 FEW030", "TAF RJFM 222306Z 2300/2406 08006KT 9999 FEW030 BECMG 2312/2315 28012KT BECMG 2400/2403 03012KT", "TAF RJFO 222305Z 2300/2406 32012KT 9999 FEW030", "TAF RJFR 222306Z 2300/2406 32014KT 9999 FEW030 SCT040", "TAF RJFS 222308Z 2300/2406 31006KT 9999 FEW030", "TAF RJFT 222309Z 2300/2406 29006KT 9999 FEW040 BECMG 2309/2311 02005KT BECMG 2400/2403 31009KT", "TAF RJFU 222307Z 2300/2406 33013KT 9999 FEW040", "TAF RJGG 222305Z 2300/2406 34008KT 9999 FEW030 BECMG 2305/2307 32020KT", "TAF RJNK 222305Z 2300/2406 21008KT 9999 FEW015 BKN030 BECMG 2304/2306 04012KT TEMPO 2305/2308 36020G30KT 3000 TSRA BR FEW010 BKN020 FEW025CB", "TAF RJNS 222305Z 2300/2406 26014KT 9999 FEW030 BECMG 2318/2321 32006KT BECMG 2400/2403 20008KT", "TAF RJNT 222305Z 2300/2406 20008KT 9999 FEW030 BECMG 2301/2303 30008KT BECMG 2306/2308 36016KT TEMPO 2306/2310 4000 -TSRA BR FEW005 BKN008 FEW020CB BECMG 2312/2315 24004KT BECMG 2400/2403 01010KT", "TAF RJOA 222308Z 2300/2406 29005KT 9999 FEW025 BECMG 2310/2312 03007KT BECMG 2321/2400 33006KT", "TAF RJOB 222305Z 2300/2406 34004KT 9999 FEW030 SCT045 BECMG 2301/2303 29005KT BECMG 2306/2308 36007KT BECMG 2400/2403 28006KT", "TAF RJOC 222307Z 2300/2406 30009KT 9999 FEW030 SCT045 BECMG 2305/2307 04015KT BECMG 2400/2403 27010KT", "TAF RJOH 222309Z 2300/2406 30008KT 9999 FEW030 SCT045 BECMG 2305/2307 03015KT BECMG 2400/2403 26010KT", "TAF RJOI 2221/2321 33008KT 9999 FEW050 QNH2994INS BECMG 2302/2304 26008KT 9999 FEW050 QNH2987INS FM231500 34010KT 9999 FEW020 SCT035 QNH2990INS T17/2221Z T26/2306Z", "TAF RJOK 222305Z 2300/2406 30005KT 9999 FEW025 BECMG 2301/2303 19012KT BECMG 2306/2308 35010KT", "TAF RJOM 222307Z 2300/2406 28009KT 9999 FEW020 SCT030 BECMG 2308/2310 03011KT BECMG 2403/2406 30006KT", "TAF RJOO 222305Z 2300/2406 29005KT 9999 FEW025 BECMG 2302/2304 21007KT BECMG 2306/2308 34012KT", "TAF RJOT 222305Z 2300/2406 27010KT 9999 FEW030 BECMG 2308/2310 15004KT BECMG 2403/2406 29009KT", "TAF RJSA 222305Z 2300/2406 26010KT 8000 -SHRA FEW008 BKN015 BKN020 TEMPO 2300/2306 4000 -SHRA BR FEW005 BKN008 BKN015 BECMG 2312/2315 20005KT BECMG 2321/2400 26013KT", "TAF RJSF 222307Z 2300/2406 34013KT 9999 FEW020 SCT040", "TAF RJSI 222305Z 2300/2406 01005KT 0700 FG FEW001 BKN003 BECMG 2300/2302 9999 NSW FEW020 BKN040", "TAF RJSK 222305Z 2300/2406 13004KT 0700 -SHRA FG FEW001 BKN003 BKN015 BECMG 2301/2303 32008KT 8000 -SHRA FEW010 BKN020 BKN030 BECMG 2309/2311 13004KT BECMG 2400/2403 32005KT", "TAF RJSN 222305Z 2300/2406 20008KT 8000 -SHRA FEW008 BKN015 BECMG 2300/2302 34016KT TEMPO 2300/2303 4000 TSRA BR FEW008 BKN015 FEW020CB TEMPO 2305/2310 35026G36KT 4000 SHRA BR", "TAF RJSS 222305Z 2300/2406 32004KT 9999 FEW020 SCT030 BECMG 2301/2303 10005KT BECMG 2306/2308 34015KT BECMG 2312/2315 34005KT", "TAF RJTT 222305Z 2300/2406 36006KT 9999 FEW030 BECMG 2300/2302 14008KT BECMG 2309/2311 35020KT BECMG 2403/2406 08012KT", "TAF RJTY 222115Z 2221/2403 VRB06KT 9999 FEW030 SCT150 QNH2979INS BECMG 2314/2315 05009KT 8000 -SHRA FEW010 SCT020 BKN030 QNH2986INS TEMPO 2319/2324 4800 -SHRA BR FEW008 SCT012 BKN016 TX24/2305Z TN11/2221Z", "TAF RKJB 222300Z 2300/2406 35010KT 9999 FEW025 SCT200 TX18/2304Z TN08/2321Z TX15/2403Z BECMG 2302/2303 35015G25KT BECMG 2308/2309 36010KT BECMG 2312/2313 06006KT BECMG 2322/2323 36010KT BECMG 2401/2402 35017G30KT", "TAF RKNY 222300Z 2300/2406 05008KT 6000 FEW010 BKN025 OVC060 TX13/2301Z TN07/2321Z TX12/2405Z TEMPO 2300/2305 4000 -RA BECMG 2308/2310 23006KT SCT030 BECMG 2323/2324 32008G20KT FEW010 BKN028 OVC060 TEMPO 2403/2406 -RA", "TAF RKPC 222300Z 2300/2406 34008KT 9999 FEW010 BKN030 TX18/2305Z TN13/2320Z TX16/2404Z BECMG 2301/2302 34015G25KT SCT030 BECMG 2307/2308 35012KT CAVOK BECMG 2323/2324 35015G30KT", "TAF RKPK 222300Z 2300/2406 36006KT 9999 SCT030 TX22/2306Z TN08/2321Z BECMG 2302/2303 36009KT BECMG 2309/2310 36006KT", "TAF AMD RKSG 222010Z 2220/2401 VRB06KT 4800 BR BKN040 QNH3007INS TEMPO 2220/2223 3200 BR BECMG 2223/2224 VRB06KT 6000 BR SCT020 BKN050 QNH3007INS BECMG 2306/2307 33010G15KT 9999 NSW FEW040 510043 QNH3007INS BECMG 2308/2309 34009KT 9999 BKN045 510043 QNH3008INS TX15/2306Z TN05/2222Z", "TAF RKSI 222300Z 2300/2406 34010KT CAVOK TX17/2305Z TN08/2321Z TX14/2405Z BECMG 2302/2304 33015G25KT TEMPO 2306/2310 33018G35KT BECMG 2314/2316 33012KT BECMG 2319/2321 34015G25KT", "TAF RKSM 221700Z 2218/2324 30006KT 4800 BR BKN015 BECMG 2223/2224 30006KT 9999 NSW BKN030 BECMG 2303/2304 33008KT 9999 SCT030 TX18/2306Z TN06/2321Z", "TAF RKSO 221300Z 2213/2319 33009KT 6000 BR SCT030 QNH3009INS BECMG 2213/2214 32006KT 4800 BR BKN015 BKN020 QNH3005INS TEMPO 2214/2223 3200 BR BECMG 2223/2224 32006KT 6000 HZ FEW015 QNH3007INS BECMG 2305/2306 33012G18KT 9999 NSW SKC QNH3008INS TX16/2306Z TN07/2222Z LAST NO AMDS AFT 2213 NEXT 2321", "TAF RKSS 222300Z 2300/2406 33007KT CAVOK TX18/2305Z TN04/2321Z TX14/2405Z", "TAF RKTN 222300Z 2300/2406 30006KT 9999 SCT030 TN05/2321Z TX16/2406Z", "TAF RKTU 222300Z 2300/2406 33006KT 4800 BR SCT030 TX17/2306Z TN04/2321Z BECMG 2301/2302 9999 NSW", "TAF ROAH 222305Z 2300/2406 01022KT 9999 FEW008 BKN015", "TAF AMD RODN 221915Z 2219/2322 VRB06KT 9999 VCSH BKN012 BKN025 QNH2988INS TEMPO 2219/2222 30012KT 8000 -SHRA BKN007 BECMG 2223/2224 01012G18KT 8000 -SHRA BKN018 BKN030 QNH2984INS BECMG 2305/2306 02010G20KT 9999 VCSH BKN025 BKN040 QNH2980INS BECMG 2318/2319 02012G22KT 9999 NSW BKN040 QNH2987INS TX29/2303Z TN24/2219Z", "TAF ROIG 222306Z 2300/2406 03016KT 9999 FEW008 BKN015 TEMPO 2306/2400 02020G30KT", "TAF AMD ROTM 2222/2321 25010KT 9999 SCT010 BKN030 BKN100 QNH2979INS TEMPO 2222/2224 9000 -DZ BKN010 BECMG 2301/2303 36013G18KT 9999 VCSH SCT010 BKN030 BKN070 QNH2977INS TEMPO 2303/2309 36015G23KT 9000 -SHRA BKN010 BKN030 OVC060 BECMG 2309/23011 01014G20KT 9999 NSW SCT010 BKN030 BKN070 QNH2978INS TEMPO 2314/2320 02010KT SCT010 SCT030 BKN070 T28/2305Z T24/2318Z AMD 2202", "TAF RPLB 222300Z 2300/2324 06006KT 8000 FEW020 SCT080 BKN300 TX32/2306Z TN25/2321Z TEMPO 2300/2306 22010KT SCT020 BKN080", "TAF RPLC 222300Z 2300/2406 15006KT 9999 FEW020 BKN300 TX34/2306Z TN25/2321Z TEMPO 2300/2306 03008KT SCT020 BKN300", "TAF RPLI 222300Z 2300/2324 32006KT 9999 FEW018 SCT290 TEMPO 2300/2306 11012KT FEW017CB BKN290", "TAF RPLL 222300Z 2300/2406 11005KT 9999 FEW025 SCT300 TX33/2306Z TN27/2321Z TEMPO 2300/2306 09010KT FEW023 BKN100 TEMPO 2306/2312 26010KT -SHRA FEW022CB SCT023 BKN100", "TAF RPMD 222300Z 2300/2324 02006KT 9999 FEW016 SCT090 BKN260 TEMPO 2300/2306 35012KT -SHRA FEW015CB BKN090 BKN260", "TAF RPMR 222300Z 2300/2324 16007KT 9999 FEW018 SCT080 BKN250 TEMPO 2300/2306 02012KT -TSRA FEW017CB BKN080", "TAF RPMZ 222300Z 2300/2324 26006KT 9999 FEW017 SCT090 BKN300 TEMPO 2300/2306 23012KT -TSRA FEW016CB SCT017 BKN090", "TAF RPVD 222300Z 2300/2324 04006KT 9999 FEW015 BKN220 TEMPO 2300/2306 07012KT FEW014CB SCT015 BKN070", "TAF RPVM 222300Z 2300/2406 02005KT 9999 FEW020 BKN300 TEMPO 2300/2306 36004KT -SHRA FEW018CB BKN300 TEMPO 2306/2312 VRB03KT -TSRA FEW018CB BKN100", "TAF RPVP 222300Z 2300/2324 03006KT 9999 FEW019 BKN240 TEMPO 2300/2306 09012KT FEW017CB FEW019 BKN080", "TAF SAAR 221700Z 2218/2318 18015KT 9999 BKN035 TX26/2318Z TN10/2310Z BECMG 2301/2302 09010KT CAVOK", "TAF SABE 221700Z 2218/2318 16010G20KT 9999 BKN025 TX19/2318Z TN11/2310Z BECMG 2302/2304 10010G20KT OVC012 TEMPO 2305/2310 6000 DZ BECMG 2312/2314 CAVOK", "TAF SACO 221700Z 2218/2318 16010KT 9999 SCT030 BKN060 TX27/2318Z TN08/2310Z BECMG 2302/2305 34005KT BECMG 2312/2315 02010KT CAVOK", "TAF SADF 221700Z 2218/2318 16010KT 9999 BKN025 OVC035 TX19/2318Z TN10/2310Z BECMG 2301/2303 12010KT SCT010 BKN020 PROB30 TEMPO 2304/2308 7000 OVC010 BECMG 2313/2315 07010KT SCT030", "TAF SAEZ 221700Z 2218/2318 17010KT 9999 OVC020 TX18/2318Z TN06/2310Z BECMG 2220/2222 SCT030 BECMG 2300/2302 14005KT FEW008 BECMG 2309/2311 09010KT SCT020", "TAF SAME 221700Z 2218/2318 05008KT CAVOK TX20/2220Z TN06/2310Z BECMG 2300/2302 VRB03KT BECMG 2314/2316 05007KT", "TAF SANR 221700Z 2218/2318 27010KT 9999 SCT040 BKN060 TX32/2318Z TN14/2310Z BECMG 2300/2303 18005KT BECMG 2313/2316 05010KT CAVOK", "TAF SANT 221700Z 2218/2318 23010KT 6000 FU BKN045 TX33/2318Z TN15/2310Z BECMG 2300/2303 34005KT BECMG 2314/2317 05010KT CAVOK", "TAF SARE 221700Z 2218/2318 18010KT CAVOK TX31/2318Z TN13/2310Z", "TAF SARF 221700Z 2218/2318 18010KT 9999 SCT025 TX31/2318Z TN15/2310Z BECMG 2222/2224 CAVOK", "TAF SARI 221700Z 2218/2318 18005KT 9999 SCT040 TX28/2318Z TN15/2310Z BECMG 2222/2224 CAVOK", "TAF SARP 221700Z 2218/2318 16010KT 9999 BKN030 TX28/2318Z TN16/2310Z BECMG 2222/2224 CAVOK", "TAF SASA 221700Z 2218/2318 05015KT 9999 SCT050 TX29/2318Z TN12/2310Z BECMG 2300/2303 34010KT 9999 SCT035 BECMG 2313/2316 05010KT", "TAF SASJ 221700Z 2218/2318 05010KT 9999 SCT030 FEW035TCU TX31/2318Z TN16/2310Z BECMG 2300/2303 29010KT 9999 SCT035 BECMG 2313/2316 05010KT", "TAF SAVC 222300Z 2300/2324 29015G25KT CAVOK TX24/2318Z TN12/2310Z BECMG 2310/2312 29025G35KT 9999 BLDU NSC", "TAF SAWE 222300Z 2300/2324 29025G35KT 9999 DZ SCT030 BKN050 TX13/2319Z TN05/2310Z BECMG 2308/2315 9999 -RA BKN010 OVC025 BECMG 2316/2318 27015KT 9999 -DZ SCT030 OVC090", "TAF SAWG 222300Z 2300/2324 32015KT 9999 FEW035 OVC090 TX19/2318Z TN07/2310Z BECMG 2301/2303 VRB05KT 9999 SCT030 OVC060 BECMG 2317/2319 20015KT 8000 SHRA BKN035 OVC050", "TAF SAWH 222300Z 2300/2324 21010KT 9999 VCDZ SCT035 BKN090 TX10/2318Z TN03/2310Z BECMG 2301/2303 36010KT 4000 BRDZ BKN002 OVC018 BECMG 2315/2317 9999 -DZ SCT025 OVC050", "TAF SAZM 221700Z 2218/2318 14015KT 9999 SCT036 BKN042 TX17/2317Z TN03/2309Z BECMG 2301/2303 11005KT 4000 BR SCT010 PROB30 TEMPO 2306/2310 VRB03KT 0500 FG OVC005 BECMG 2312/2314 07005KT 9999 SCT030 BECMG 2316/2318 02010KT CAVOK", "TAF SAZN 221700Z 2218/2318 03010KT CAVOK TX26/2318Z TN11/2310Z BECMG 2302/2304 VRB05KT", "TAF SAZS 221700Z 2218/2318 29010KT CAVOK TX20/2219Z TN04/2310Z BECMG 2314/2316 30015G25KT", "TAF SBAF 221500Z 2218/2306 22008G18KT 8000 SCT030 TX25/2219Z TN20/2305Z PROB30 TEMPO 2218/2220 4000 TSRA BKN015 FEW030CB BECMG 2220/2222 23005KT 8000 RA SCT015 BKN040 RMK PFD", "TAF SBAN 221500Z 2218/2306 22007KT 8000 SCT030 TX29/2219Z TN18/2305Z PROB30 TEMPO 2218/2220 4000 TSRA BKN015 FEW030CB BECMG 2220/2222 16007KT RMK PFD", "TAF SBAR 221450Z 2218/2318 10012G22KT 9999 SCT025 TN24/2309Z TX29/2316Z BECMG 2307/2309 29004KT 5000 RA SCT015 BKN025 RMK PGU", "TAF SBAT 221546Z 2218/2306 31005KT 7000 SCT030 FEW035TCU TX34/2218Z TN31/2220Z TEMPO 2218/2221 4000 TSRA SCT015 FEW030CB RMK PHP", "TAF SBBE 221546Z 2218/2318 35010KT 9999 BKN035 FEW040TCU TN25/2309Z TX30/2316Z TEMPO 2218/2221 35012KT 4000 TSRA BKN020 FEW035CB BECMG 2221/2223 CAVOK BECMG 2303/2305 05003KT BECMG 2313/2315 BKN030 BECMG 2316/2318 35010KT BKN035 FEW040TCU RMK PHP", "TAF SBBI 221500Z 2218/2306 11008KT 8000 SCT035 TX23/2218Z TN13/2305Z BECMG 2220/2222 BKN008 FM230100 07005KT 4000 BR BKN004 RMK PFD", "TAF SBBR 222230Z 2300/2324 15008KT 9999 FEW045 TN21/2308Z TX28/2316Z PROB30 2300/2304 SHRA FEW045TCU TEMPO 2304/2307 35002KT CAVOK BECMG 2308/2310 09002KT PROB30 2316/2318 TSRA BKN030 FEW040CB TEMPO 2318/2324 14012KT 4000 TSRA BKN030 FEW040CB RMK PHH", "TAF SBBU 221400Z 2218/2306 24005KT 9999 SCT040 TX30/2218Z TN19/2305Z BECMG 2219/2221 21007KT CAVOK BECMG 2301/2303 13010KT RMK PGF", "TAF SBBV 221546Z 2218/2318 06007KT 9999 SCT035 FEW040TCU TX34/2219Z TN24/2310Z BECMG 2220/2222 12008KT BECMG 2312/2314 06008KT RMK PHP", "TAF SBBW 221500Z 2218/2306 25007KT 9999 FEW025 TX29/2218Z TN22/2306Z TEMPO 2218/2223 27005KT TSRA SCT020 FEW030CB BECMG 2300/2302 00000KT RMK PGN", "TAF SBCF 221500Z 2218/2318 05006KT 9999 FEW030 TX27/2218Z TN18/2309Z TEMPO 2218/2221 33008KT 7000 TSRA SCT025 FEW045CB BECMG 2221/2223 12005KT TEMPO 2223/2306 6000 RA BKN015 PROB30 2307/2311 6000 RA BKN012 RMK PGN", "TAF SBCG 222230Z 2300/2324 15007KT CAVOK TN18/2309Z TX30/2318Z BECMG 2313/2315 FEW040 PROB30 2318/2321 FEW040TCU RMK PHH", "TAF SBCJ 221546Z 2218/2306 03005KT 7000 SCT015 TX30/2218Z TN26/2221Z TEMPO 2218/2221 4000 TSRA BKN014 FEW030CB RMK PHP", "TAF SBCO 221500Z 2218/2306 22006KT 9999 SCT040 TX23/2218Z TN14/2306Z BECMG 2222/2224 CAVOK BECMG 2304/2306 17006KT 4000 BR BKN010 RMK PEG", "TAF SBCP 221450Z 2218/2306 16015G25KT 7000 BKN017 TX29/2218Z TN22/2306Z PROB40 2220/2224 5000 TSRA BKN020 FEW030CB BECMG 2300/2302 18007KT 5000 RA BKN015 RMK PGU", "TAF SBCR 222230Z 2300/2324 18005KT CAVOK TN21/2308Z TX33/2318Z BECMG 2310/2312 13005KT FEW025 BECMG 2320/2322 16005KT RMK PHH", "TAF SBCT 222100Z 2300/2324 11008KT 8000 BKN006 TN13/2309Z TX23/2318Z FM230100 07005KT 2000 BR BKN002 BECMG 2310/2312 8000 NSW SCT008 FM231300 23007KT CAVOK BECMG 2320/2322 05005KT BKN006 BECMG 2322/2324 2000 BR BKN004 RMK PFD", "TAF SBCY 222100Z 2300/2324 29005KT 9999 SCT020 TN24/2307Z TX33/2318Z RMK PHD", "TAF SBDN 221400Z 2218/2306 21008KT CAVOK TX30/2218Z TN19/2305Z BECMG 2303/2305 15005KT RMK PGF", "TAF SBEG 222100Z 2300/2324 18005KT 9999 SCT015 TN23/2309Z TX33/2318Z PROB30 2300/2302 TS SCT015 FEW025CB BECMG 2314/2316 33010KT SCT020 FEW025TCU PROB30 2317/2320 TS SCT020 FEW025CB BECMG 2321/2323 05005KT FEW020 RMK PHD", "TAF SBFI 222100Z 2300/2324 17007KT CAVOK TN15/2309Z TX27/2318Z RMK PFD", "TAF SBFL 222100Z 2300/2324 16008KT 9999 BKN030 TN18/2307Z TX24/2316Z BECMG 2300/2302 18006KT 8000 SCT015 BKN023 PROB30 2303/2308 7000 BKN014 BECMG 2308/2310 30005KT BECMG 2311/2313 33008KT 9999 BKN030 BECMG 2314/2316 02012KT SCT030 BECMG 2321/2323 36005KT 8000 BKN025 RMK PEJ", "TAF SBFN 221450Z 2218/2306 12015G25KT 9999 SCT020 TX28/2218Z TN25/2306Z RMK PGU", "TAF SBFZ 222121Z 2300/2324 11015KT 9999 SCT022 TN26/2309Z TX30/2317Z TEMPO 2308/2312 4000 SHRA BKN013 FEW025TCU RMK PHI", "TAF SBGL 222121Z 2300/2406 21010KT 8000 BKN017 TX25/2317Z TN21/2406Z TEMPO 2300/2303 4000 RA BKN010 BECMG 2304/2306 29005KT BECMG 2309/2311 17010KT BECMG 2321/2323 11004KT RMK PHI", "TAF SBGO 221500Z 2218/2318 26008KT 9999 FEW035 TN20/2308Z TX31/2316Z TEMPO 2218/2221 17005KT TS SCT030 FEW045CB BECMG 2223/2301 18002KT PROB30 2303/2308 7000 SHRA BKN020 FEW040TCU BECMG 2309/2311 15005KT FEW030 PROB30 2316/2318 33005KT TSRA SCT030 FEW040CB RMK PGN", "TAF SBGR 222100Z 2300/2406 15007KT 9999 BKN009 TN15/2309Z TX25/2315Z TEMPO 2300/2305 14013KT BECMG 2305/2307 10005KT BECMG 2312/2314 BKN023 BECMG 2314/2316 15010KT BECMG 2318/2320 BKN009 BECMG 2400/2402 11005KT BECMG 2404/2406 08004KT RMK PHH", "TAF SBGW 221500Z 2218/2306 24007KT 8000 SCT030 TX25/2219Z TN20/2305Z BECMG 2218/2220 4000 TSRA BKN025 FEW030CB BECMG 2220/2222 8000 RA BKN018 RMK PFD", "TAF SBIH 221546Z 2218/2306 35005KT 8000 SCT015 FEW025TCU TX33/2218Z TN31/2221Z TEMPO 2218/2221 06010KT 4000 TSRA BKN015 FEW025CB RMK PHP", "TAF SBIL 221500Z 2218/2306 07008KT 9999 SCT025 TX28/2218Z TN24/2306Z BECMG 2302/2304 04007KT SCT020 FEW030TCU RMK PGN", "TAF SBIZ 221546Z 2218/2306 08005KT 8000 BKN030 FEW035TCU TX37/2220Z TN28/2306Z PROB30 TEMPO 2218/2222 4000 TSRA BKN020 FEW035CB BECMG 2222/2224 SCT020 RMK PHP", "TAF SBJP 221450Z 2218/2318 10010G20KT 9999 BKN020 TN25/2308Z TX30/2316Z BECMG 2222/2224 08005KT RMK PGU", "TAF SBJV 221500Z 2218/2306 12010KT 9999 SCT025 TX25/2218Z TN17/2305Z BECMG 2218/2220 13005KT BKN025 PROB30 2220/2223 6000 -RA BKN012 BECMG 2223/2301 18005KT 8000 NSW SCT010 BKN025 BECMG 2302/2304 31005KT 4000 BR BKN008 RMK PEJ", "TAF SBKG 221450Z 2218/2306 10015KT 9999 SCT030 TX28/2218Z TN20/2306Z BECMG 2301/2303 BKN007 RMK PGU", "TAF SBKP 222100Z 2300/2324 14015KT CAVOK TN17/2309Z TX31/2317Z BECMG 2310/2312 10005KT BECMG 2314/2316 24005KT BECMG 2320/2322 14015KT RMK PHH", "TAF SBLO 222100Z 2300/2312 23005KT CAVOK TN16/2309Z TX21/2312Z BECMG 2303/2304 13005KT TEMPO 2305/2311 12010KT RMK PHH", "TAF SBME 221450Z 2218/2306 20010G23KT 5000 RA BKN015 TX27/2218Z TN23/2306Z PROB40 2218/2220 22008G18KT 4000 TSRA BKN015 FEW030CB RMK PGU", "TAF SBMN 221500Z 2218/2306 11005KT 8000 SHRA SCT017 FEW025TCU TX30/2219Z TN26/2304Z BECMG 2218/2220 07005KT 9999 NSW SCT023 FEW025TCU PROB30 2221/2224 24005KT TS SCT015 FEW030CB BECMG 2300/2302 25005KT CAVOK BECMG 2303/2305 16005KT 7000 FEW007 RMK PEJ", "TAF SBMO 221450Z 2218/2318 08010G20KT 9999 SCT030 TN22/2308Z TX29/2316Z BECMG 2222/2224 33005KT SCT017 BECMG 2310/2312 10010KT SCT025 RMK PGU", "TAF SBMQ 221546Z 2218/2318 08010KT 9999 SCT025 TX34/2218Z TN26/2309Z PROB30 2218/2220 TS BKN020 FEW030CB BECMG 2303/2305 02005KT BECMG 2309/2311 08010KT RMK PHP", "TAF SBNF 221500Z 2218/2318 12012KT 9999 SCT030 TN18/2307Z TX25/2317Z BECMG 2219/2221 14008KT BKN035 BECMG 2301/2303 26006KT 6000 -RA BKN014 BECMG 2309/2311 8000 NSW SCT007 BKN023 BECMG 2313/2315 06010KT 9999 SCT030 RMK PEJ", "TAF SBNT 222121Z 2300/2312 11010KT 9999 SCT020 TN25/2308Z TX28/2312Z RMK PHI", "TAF SBPA 222100Z 2300/2324 13006KT CAVOK TN14/2306Z TX23/2318Z BECMG 2304/2306 17006KT 4000 BR BKN010 BECMG 2310/2312 17010KT 9999 SCT020 BECMG 2315/2317 SCT040 BECMG 2320/2322 17006KT CAVOK RMK PEG", "TAF SBPJ 221450Z 2218/2318 21006KT 8000 SCT030 FEW040TCU TN25/2309Z TX34/2316Z BECMG 2221/2223 VRB03KT FEW030 BECMG 2302/2304 16003KT 5000 FU BECMG 2313/2315 23005KT SCT030 FEW040TCU RMK PGU", "TAF SBPK 221500Z 2218/2318 16007KT 9999 BKN035 TX22/2218Z TN15/2307Z BECMG 2300/2302 16010KT 8000 RA SCT012 BKN025 BECMG 2306/2308 9999 BKN008 BECMG 2310/2312 BKN014 BECMG 2313/2315 BKN018 RMK PEG", "TAF SBPL 221450Z 2218/2318 15013KT 9999 FEW040 TN23/2309Z TX36/2316Z RMK PGU", "TAF SBPP 222100Z 2300/2324 15005KT CAVOK TN16/2309Z TX27/2317Z BECMG 2321/2323 12007KT RMK PHH", "TAF SBPS 221450Z 2218/2318 06013KT 9999 SCT025 TN23/2308Z TX27/2316Z BECMG 2307/2309 02005KT 4500 RA BKN015 BECMG 2313/2315 06010KT RMK PGU", "TAF SBRB 221546Z 2218/2306 27005KT 7000 BKN020 FEW030TCU TX34/2218Z TN24/2306Z TEMPO 2218/2224 06010KT 4000 TSRA SCT010 BKN015 FEW030CB RMK PHP", "TAF SBRF 222121Z 2300/2324 07007KT 9999 SCT023 TN25/2308Z TX29/2316Z RMK PHI", "TAF SBRJ 221450Z 2218/2306 21015G25KT 9999 BKN025 TX26/2218Z TN24/2306Z PROB40 2219/2223 5000 TSRA BKN015 FEW030CB BECMG 2300/2302 25004KT 7000 BKN017 RMK PGU", "TAF SBRP 221500Z 2218/2306 29005KT 9999 FEW030 TX28/2218Z TN19/2306Z TEMPO 2218/2221 TSRA SCT025 FEW045CB BECMG 2221/2223 00000KT CAVOK BECMG 2302/2304 15005KT RMK PGN", "TAF SBSC 221500Z 2218/2306 20012G25KT 8000 RA BKN025 TX26/2219Z TN20/2305Z PROB30 TEMPO 2218/2220 4000 TSRA BKN025 FEW030CB BECMG 2220/2222 20007KT RMK PFD", "TAF SBSJ 222100Z 2300/2312 15004KT 9999 BKN018 TN17/2309Z TX22/2312Z PROB30 2308/2310 5000 BR RMK PHH", "TAF SBSL 221450Z 2218/2318 04015KT 9999 SCT020 TN26/2309Z TX30/2316Z BECMG 2311/2313 BKN025 RMK PGU", "TAF SBSM 221500Z 2218/2306 17006KT 9999 SCT040 TX24/2218Z TN15/2303Z BECMG 2220/2222 29006KT CAVOK BECMG 2304/2306 5000 BR BKN008 RMK PEG", "TAF SBSN 221546Z 2218/2318 06007KT 9999 FEW017 TX33/2218Z TN25/2309Z PROB40 2218/2221 4000 TSRA BKN014 FEW025CB BECMG 2221/2223 15002KT BECMG 2307/2309 07007KT PROB30 TEMPO 2309/2315 4000 TSRA BKN015 FEW025CB RMK PHP", "TAF SBSP 221400Z 2218/2306 16008KT 9999 BKN023 TX24/2218Z TN17/2305Z BECMG 2220/2222 BKN008 RMK PGF", "TAF SBSV 222000Z 2300/2324 09012KT 9999 FEW023 TN25/2308Z TX28/2316Z TEMPO 2308/2313 05010KT SHRA BKN020 FEW023TCU RMK PGN", "TAF SBTE 221450Z 2218/2306 12012KT 9999 FEW020 TX38/2218Z TN27/2306Z BECMG 2222/2224 01010KT RMK PGU", "TAF SBTT 221546Z 2218/2318 09005KT 9999 SCT020 FEW030TCU TX30/2218Z TN24/2311Z TEMPO 2218/2221 31005KT 4000 TSRA BKN015 FEW035CB PROB30 TEMPO 2315/2318 31005KT 4000 TSRA BKN015 FEW035CB RMK PHP", "TAF SBUG 221500Z 2218/2306 18008KT 9999 SCT030 TX26/2218Z TN12/2305Z BECMG 2221/2223 9999 SCT030 BECMG 2223/2224 CAVOK RMK PEG", "TAF SBUL 221500Z 2218/2306 25007KT 9999 FEW045 TX27/2218Z TN21/2306Z TEMPO 2218/2222 7000 TSRA SCT035 FEW045CB BECMG 2222/2224 18004KT TEMPO 2303/2306 15007KT 7000 TSRA BKN020 FEW045CB RMK PGN", "TAF SBUR 221500Z 2218/2306 26007KT 9999 FEW035 TX27/2218Z TN21/2306Z TEMPO 2218/2222 TSRA SCT035 FEW045CB BECMG 2222/2224 18004KT BECMG 2301/2303 09003KT RMK PGN", "TAF SBVH 221546Z 2218/2306 32010KT 8000 SCT030 FEW040TCU TX29/2218Z TN23/2223Z TEMPO 2218/2221 23015KT 4000 TSRA BKN015 FEW045CB RMK PHP", "TAF SBVT 221450Z 2218/2318 03015G25KT 9999 SCT030 TX28/2218Z TN23/2308Z BECMG 2223/2301 35005KT 7000 BKN017 BECMG 2311/2313 14005KT 5000 RA BKN015 RMK PGU", "TAF SBYS 221500Z 2218/2306 33007KT 8000 SCT035 TX28/2219Z TN20/2305Z BECMG 2222/2224 17007KT RMK PFD", "TAF SCAR 222210Z 2300/2324 21004KT CAVOK TN15/2310Z TX18/2318Z BECMG 2302/2304 OVC020 BECMG 2315/2317 22012KT CAVOK BECMG 2323/2324 21004KT", "TAF SCAT 222219Z 2300/2324 25004KT 9999 OVC012 TN12/2310Z TX19/2318Z BECMG 2304/2306 OVC007 BECMG 2312/2314 OVC012 BECMG 2317/2319 25010KT CAVOK BECMG 2322/2324 BKN015", "TAF SCBA 222221Z 2300/2324 30020KT CAVOK TN02/2310Z TX10/2318Z BECMG 2301/2303 30012KT BECMG 2312/2314 30025KT FEW040 BKN100 BECMG 2321/2323 30012KT BKN035", "TAF SCCF 222211Z 2300/2324 26010KT CAVOK TN02/2310Z TX24/2318Z BECMG 2303/2305 11018KT BECMG 2313/2314 10008KT BECMG 2316/2318 27018KT", "TAF SCCI 222250Z 2300/2400 31007KT 9000 -RA BKN030 TN06/2306Z TX12/2318Z TEMPO 2300/2304 5000 -RA SCT015 BKN025 BECMG 2306/2308 9999 SCT035 BKN045 BECMG 2312/2314 31018G30KT SCT040 BECMG 2320/2322 29010KT", "TAF SCCY 221015Z 2212/2224 VRB03KT CAVOK TN00/2213Z TX14/2219Z BECMG 2213/2215 29008KT", "TAF SCDA 222211Z 2300/2324 21012KT CAVOK TN14/2310Z TX18/2318Z BECMG 2302/2304 19007KT OVC020 BECMG 2315/2317 22012KT FEW025 BECMG 2322/2324 BKN020", "TAF SCEL 222216Z 2300/2324 21013KT CAVOK TX28/2319Z TN08/2310Z BECMG 2301/2303 16004KT TEMPO 2308/2312 VRB02KT 5000 HZ NSC BECMG 2316/2318 18008KT", "TAF SCFA 222214Z 2300/2324 20010KT 9999 FEW020 TN14/2310Z TX16/2318Z BECMG 2302/2304 19004KT OVC015 BECMG 2315/2317 20014KT FEW020 BECMG 2323/2324 BKN015", "TAF SCIE 222216Z 2300/2324 22004KT CAVOK TX16/2319Z TN08/2310Z BECMG 2304/2306 5000 BR FEW002 SCT006 TEMPO 2308/2312 2000 BR OVC002 BECMG 2315/2317 27010KT 9999 FEW008 BECMG 2318/2320 CAVOK", "TAF SCIP 222223Z 2300/2324 18012KT 9999 SCT035 TN15/2310Z TX22/2320Z TEMPO 2309/2318 24010KT 7000 -SHRA BKN025 BKN040", "TAF SCJO 221015Z 2212/2224 VRB02KT CAVOK TN01/2213Z TX18/2219Z BECMG 2218/2220 28007KT", "TAF COR SCNT 221658Z 2218/2306 30012KT 9000 SCT030 BKN050 TN07/2303Z TX12/2218Z TEMPO 2218/2222 5000 -RA SCT025 BKN040 BECMG 2300/2302 CAVOK", "TAF SCQP 222219Z 2300/2324 25010KT CAVOK TN03/2308Z TX19/2319Z BECMG 2301/2303 VRB02KT BECMG 2305/2307 0600 FG VV002 BECMG 2312/2314 9999 NSW BKN025 BECMG 2320/2322 25007KT FEW030 BKN100", "TAF SCSE 222215Z 2300/2324 28004KT 9999 OVC012 TX15/2319Z TN11/2310Z BECMG 2304/2306 BKN008 OVC012 TEMPO 2308/2314 4000 BR SCT005 OVC008 BECMG 2315/2317 30008KT SCT008 BKN012 BECMG 2318/2320 SCT012", "TAF SCTE 222220Z 2300/2324 24005KT CAVOK TN05/2302Z TX15/2318Z BECMG 2301/2303 VRB02KT OVC023 BECMG 2309/2311 01012KT BKN030 BECMG 2320/2322 9000 -RA BKN020 OVC070", "TAF SCVM 222215Z 2300/2324 30004KT 8000 SCT008 OVC010 TX14/2319Z TN11/2310Z BECMG 2306/2308 00000KT 3000 BR OVC003 TEMPO 2308/2314 0500 FG VV001 BECMG 2315/2317 30008KT 5000 BR SCT005 BKN010 BECMG 2318/2320 8000 SCT008 BKN012", "TAF SGAS 222132Z 2300/2400 21013KT 9999 FEW033 TX31/2319Z TN17/2310Z BECMG 2301/2304 CAVOK", "TAF SGCO 222132Z 2300/2400 18010KT CAVOK TX32/2319Z TN18/2310Z", "TAF SGEN 222132Z 2300/2400 13008KT 9999 SCT033 TX27/2219Z TN16/2310Z BECMG 2301/2304 CAVOK", "TAF SGES 222132Z 2300/2400 18010KT 9999 SCT033 TX30/2319Z TN16/2310Z BECMG 2301/2304 CAVOK", "TAF SKAR 222230Z 2300/2324 VRB03KT 9999 DZ BKN015 BKN070 BECMG 2302/2304 NSW SCT015 BECMG 2310/2312 3000 BR BKN005 BECMG 2315/2317 9999 NSW SCT017 BECMG 2318/2320 SCT017TCU TEMPO 2321/2324 TS SCT015CB TX27/2320Z TN17/2310Z", "TAF SKBG 222230Z 2300/2324 VRB02KT 9999 SCT010 BKN070 TEMPO 2300/2304 5000 TSRA BKN010CB PROB40 TEMPO 2307/2312 2000 RADZ BCFG BKN006 BECMG 2316/2318 32008KT SCT015 TX25/2318Z TN17/2310Z", "TAF SKBO 222230Z 2300/2324 VRB02KT 9999 SCT015 BKN070 TEMPO 2300/2303 5000 RADZ BKN015TCU BECMG 2316/2318 25010KT BKN020 PROB40 TEMPO 2318/2323 5000 RADZ BKN017TCU PROB40 TEMPO 2310/2312 5000 BR SCT010 TX20/2319Z TN10/2310Z", "TAF SKBQ 222230Z 2300/2324 VRB04KT 9999 FEW015 PROB30 TEMPO 2300/2301 RA SCT012 SCT070 TEMPO 2309/2313 3000 BR BKN008 TEMPO 2315/2317 RA SCT015TCU TEMPO 2318/2322 TSRA SCT015CB BKN070 TX32/2319Z TN24/2310Z", "TAF SKCC 222230Z 2300/2324 VRB02KT 9999 SCT018 SCT090 TEMPO 2300/2303 5000 RADZ BKN015TCU BECMG 2316/2318 02010KT PROB40 TEMPO 2318/2321 DZRA SCT017TCU TX29/2318Z TN23/2310Z", "TAF SKCG 222230Z 2300/2324 VRB02KT 9999 SCT017 TEMPO 2300/2303 5000 TSRA SCT015CB PROB40 TEMPO 2317/2321 5000 TSRA SCT015CB TX32/2319Z TN25/2310Z", "TAF SKCL 222230Z 2300/2324 34010KT 9999 SCT020 BECMG 2302/2303 06005KT TEMPO 2303/2307 DZ SCT017 BKN090 BECMG 2310/2312 3000 BR BKN012 BECMG 2315/2316 9999 NSW SCT020 TEMPO 2320/2324 34012KT TS SCT017CB TX30/2320Z TN19/2310Z", "TAF SKLT 222230Z 2300/2324 VRB02KT 9999 SCT010 BKN080 TEMPO 2303/2306 5000 TSRA BKN010CB PROB40 TEMPO 2316/2321 27006KT 5000 TSRA BKN015CB TX32/2319Z TN24/2310Z", "TAF SKPE 222230Z 2300/2324 11004KT 5000 DZ BKN015 BKN070 BECMG 2303/2304 9999 NSW SCT015 BECMG 2310/2312 3000 BCFG BKN008 BECMG 2315/2317 9999 NSW SCT017 TEMPO 2318/2321 SCT017TCU TEMPO 2321/2324 TSRA SCT015CB BKN070 TX27/2320Z TN17/2310Z", "TAF SKRG 222230Z 2300/2324 VRB02KT 9999 BKN015 TEMPO 2302/2306 DZ BKN010TCU TEMPO 2308/2312 4000 DZ BCFG BKN005 BECMG 2313/2315 10010KT SCT015 TEMPO 2319/2323 DZ SCT020TCU TX22/2319Z TN13/2310Z", "TAF SKSM 222230Z 2300/2324 02008KT 9999 FEW020 TEMPO 2315/2317 DZ FEW017TCU TEMPO 2318/2322 TSRA SCT018CB TX34/2318Z TN24/2309Z", "TAF SKSP 222230Z 2300/2324 06008KT 9999 FEW016 PROB40 TEMPO 2317/2319 TSRA SCT015CB TX32/2319Z TN26/2309Z", "TAF SLCB 222200Z 2300/2324 13010KT 9999 SCT033 FEW036CB BKN070 TX31/2319Z TN11/2311Z BECMG 2302/2304 00000KT SCT030 BKN070 BECMG 2317/2319 08010KT FEW033", "TAF SLLP 222200Z 2300/2324 12005KT 9999 FEW015 TX19/2319Z TNM01/2310Z BECMG 2303/2305 3000E BCFG FEW002 BKN013 BECMG 2312/2314 29010KT NSW SCT017", "TAF SLTJ 222200Z 2300/2324 00000KT 9999 SCT027 BKN070 TX27/2319Z TN11/2311Z BECMG 2314/2316 12010KT FEW036", "TAF SLTR 221000Z 2212/2312 15003KT 5000 -RA BKN005 FEW023CB OVC070 TX27/2219Z TN19/2310Z BECMG 2114/2216 03006KT 9999 NSW SCT017 BKN080 TEMPO 2217/2220 21013KT 6000 SHRA FEW025CB BECMG 2223/2303 00000KT 9999 SCT017 BKN070", "TAF COR SLVR 222200Z 2300/2324 12004KT 9999 FEW023 SCT070 TX32/2319Z TN21/2309Z BECMG 2319/2321 VRB02KT BECMG 2322/2324 33006KT SCT023 SCT070", "TAF SMJP 222200Z 2300/2324 VRB02KT 9999 SCT030 TX34/2317Z TN24/2309Z FM121200 10006KT 9999 SCT020 PROB30 TEMPO 2318/2320 5000 SHRA FEW015CB SCT025", "TAF SOCA 221600Z 2218/2318 07012KT 9999 FEW030 BECMG 2221/2223 VRB02KT BECMG 2313/2315 08012KT PROB30 TEMPO 2315/2318 4000 SHRA SCT015CB", "SPHI 221700Z 2218/2318 20011KT CAVOK TX22/2219Z TN15/2311Z TEMPO 2220/2222 19016KT BECMG 2303/2305 17006KT BKN011 FM231500 20013KT 9999 SCT020", "TAF SPJC 222300Z 2300/2324 18007KT 9999 OVC012 TX19/2319Z TN15/2311Z BECMG 2303/2306 7000 OVC008 TEMPO 2310/2313 5000 BR OVC005 BECMG 2314/2317 23010KT 9999 OVC015", "TAF SPJL 221700Z 2218/2318 23009KT CAVOK TX20/2219Z TN01/2310Z FM230000 26003KT CAVOK", "TAF SPQT 222300Z 2300/2324 VRB02KT 9999 SCT010 BKN100 TX33/2319Z TN22/2311Z TEMPO 2301/2305 4000 DZRA BKN008 OVC080 TEMPO 2308/2312 1000 BCFG BKN003 BKN100 BECMG 2313/2316 02005KT BKN020 SCT100 TEMPO 2319/2323 06015KT 3000 SHRA BKN010 FEW025CB BKN080", "TAF SPQU 221700Z 2218/2318 26010KT CAVOK TX21/2218Z TN08/2310Z FM230030 05006KT CAVOK FM231430 25007KT CAVOK", "SPRU 222300Z 2300/2324 17009KT 8000 OVC017 TX18/2319Z TN15/2311Z BECMG 2302/2304 12005KT 5000 BR BKN009 BECMG 2309/2311 OVC011 BECMG 2315/2317 19013KT BKN017", "TAF SPSO 222300Z 2300/2324 21010KT CAVOK TX20/2319Z TN12/2311Z BECMG 2303/2305 VRB03KT 5000 BR BKN011 BECMG 2309/2311 3000 OVC009 BECMG 2313/2316 7000 NSC FM232200 21012KT CAVOK", "TAF SPTN 222300Z 2300/2324 32005KT 9999 SCT030 TX21/2318Z TN12/2310Z FM230500 VRB02KT 9999 BKN020 FM231200 26005KT 9999 SCT040 FM231500 20010KT CAVOK", "TAF SPYL 221700Z 2218/2318 20012KT CAVOK TX24/2219Z TN13/2311Z BECMG 2307/2309 14017KT TEMPO 2312/2314 BKN015", "TAF SPZO 221705Z 2218/2318 28010KT 9999 FEW050 BKN100 TX23/2219Z TN05/2311Z TEMPO 2219/2221 FEW040TCU SCT080 BECMG 2222/2224 00000KT", "TAF SUAA 222330Z 2300/2324 15015KT 9999 BKN013 BKN070 TX18/2318Z TN10/2309Z TEMPO 2300/2304 3000 RADZ BKN008 OVC060 BECMG 2308/2311 12010KT 9999 SCT020", "TAF SUCA 222330Z 2300/2324 17015KT 9999 SCT017 TX17/2318Z TN11/2309Z BECMG 2309/2312 10012KT", "TAF SUDU 222330Z 2300/2324 18014KT 9999 BKN015 TX22/2318Z TN09/2309Z TEMPO 2300/2304 18017G27KT BECMG 2306/2309 9999 SCT020", "TAF SULS 222330Z 2300/2324 16017KT 9999 BKN013 BKN070 TX17/2318Z TN10/2309Z TEMPO 2300/2307 2000 RADZ OVC008 BECMG 2309/2312 12012KT 9999 SCT020", "TAF SUMU 222330Z 2300/2324 15015KT 9999 BKN013 BKN070 TX18/2318Z TN10/2309Z TEMPO 2300/2304 3000 RADZ BKN008 OVC060 BECMG 2308/2311 12010KT 9999 SCT020", "TAF SURV 222330Z 2300/2324 19007KT 9999 SCT023 TX20/2318Z TN08/2309Z TEMPO 2304/2310 3000 BR NSC PROB40 TEMPO 2307/2310 20005KT 0800 FG BKN007", "TAF SUSO 222330Z 2300/2324 17008KT 9999 SCT023 TX23/2318Z TN08/2309Z TEMPO 2304/2310 3000 BR NSC PROB40 TEMPO 2307/2310 17005KT 0800 FG BKN007", "TAF SVBC 222200Z 2300/2400 12002KT 9999 BKN010 TX34/2318Z TN34/2307Z TEMPO 2301/2322 11005KT 9000 DZ SCT090 SCT010", "TAF SVJC 222200Z 2300/2400 13005KT 9999 SCT016TX33/2319Z TN25/2307Z TEMPO 2302/2323 08004KT 9000 -DZ SCT100 BKN016", "TAF SVMC 222200Z 2300/2400 08005KT 9999 BKN016 TX34/2319Z TN24/2308Z TEMPO 2302/2319 11005KT 9000 DZ SCT090 BKN020", "TAF SVMG 222200Z 2300/2400 09012KT 9999 SCT013 TX33/2318Z TN34/2308Z TEMPO 2302/2318 07004KT 9000 DZ SCT016", "TAF SVMI 222200Z 2300/2400 09005KT 9999 BKN016 TX34/2318Z TN24/2307Z TEMPO 2301/2320 09011KT 9000 -DZ SCT070 SCT100", "TAF SVPR 222200Z 2300/2400 16005KT 9999 SCT016 TX34/2316Z TN25/2306Z TEMPO 2301/2320 09010KT 9000 DZ SCT060 BKN010", "TAF SVSA 222200Z 2300/2400 11005KT 9999 SCT016 TX32/2319Z TN25/2308Z TEMPO 2301/2319 07010KT 9000 SCT013 BKN016", "TAF SVVA 222200Z 2300/2400 24005KT 9999 SCT016 BKN080 TX32/2319 TN23/2309 TEMPO 2301/2305 07005KT 9000 DZ BKN020 FM 230530 00000KT 9999 SCT020 BKN100", "TAF SYCJ 222300Z 2300/2324 06008KT 9999 SCT019 BKN090 BECMG 2302/2304 VRB02KT FEW018 TEMPO 2307/2311 0900 FG FEW009 BECMG 2311/2313 10008KT 9999 SCT019", "TAF SYEC 222300Z 2300/2324 08008KT 9999 FEW018 BECMG 2308/2310 11008KT 5000 SHRA SCT016 SCT032 BECMG 2314/2316 07012KT 9999 SCT019", "TAF TAPA 222300Z 2300/2324 09008KT 9999 SCT020 PROB30 TEMPO 2312/2318 SHRA", "TAF TBPB 222300Z 2300/2324 09012KT 9999 SCT018", "TAF TDPD 222300Z 2300/2324 12007KT 9999 SCT016", "TAF TFFF 221700Z 2218/2318 09010KT 9999 SCT030 PROB30 TEMPO 2301/2304 3000 SHRA FEW015CB BKN020TCU BECMG 2301/2303 VRB02KT PROB30 TEMPO 2309/2312 3000 SHRA FEW015CB BKN020TCU BECMG 2312/2314 09010KT", "TAF TFFR 221700Z 2218/2318 12012KT 9999 SCT025 PROB40 TEMPO 2218/2220 2000 SHRA SCT010 SCT015CB BKN020TCU BECMG 2221/2223 VRB02KT PROB40 TEMPO 2307/2318 2000 SHRA SCT007 SCT012CB BKN015TCU BECMG 2313/2315 12010KT", "TGPY 222200Z 2300/2324 08010KT 9999 FEW015CB BECMG 2306/2308 FEW014CB SCT020 BECMG 2312/2314 09015KT", "TIST 221724Z 2218/2318 08010KT P6SM VCSH SCT030 FM222200 06006KT P6SM VCSH FEW030 SCT045 FM231400 10012KT P6SM FEW025 SCT050", "TISX 221724Z 2218/2318 08010KT P6SM VCSH SCT030 FM222200 05005KT P6SM FEW025 FM231400 09012KT P6SM FEW030 SCT050", "TJBQ 222043Z 2221/2318 07012G20KT P6SM VCSH FEW025 SCT035 SCT045 TEMPO 2221/2222 12010KT 3SM +SHRA BKN025 BKN035 OVC050 FM222200 10008KT P6SM SCT025 SCT040 FM231400 08014KT P6SM SCT025 FM231700 08014KT P6SM VCSH SCT025 SCT040", "TJPS 221724Z 2218/2318 06012KT P6SM VCSH SCT035 TEMPO 2218/2221 VRB15G25KT 3SM TSRA BKN025CB BKN035 FM222200 08006KT P6SM FEW040 FM230100 00000KT P6SM FEW035 FM231400 13015KT P6SM FEW030 SCT060", "TJSJ 221724Z 2218/2318 06014G20KT P6SM VCSH SCT030 SCT050 FM222300 09008KT P6SM FEW030 SCT045 FM230200 14003KT P6SM VCSH FEW024 SCT030 FM231400 06015KT P6SM FEW035 SCT050", "TAF TKPK 222300Z 2300/2324 09008KT 9999 SCT020 PROB30 TEMPO 2312/2318 SHRA", "TAF TKPN 221700Z 2218/2318 08010KT 9999 SCT020 PROB30 TEMPO 2218/2310 SHRA", "TAF TLPC 222300Z 2300/2324 08007KT 9999 SCT024 PROB40 TEMPO 2315/2324 SHRA FEW018TCU SCT022 BKN040", "TAF TLPL 222300Z 2300/2324 08012KT 9999 SCT025 PROB40 TEMPO 2315/2324 SHRA FEW018TCU SCT022 BKN040", "TAF TNCA 222315Z 2300/2324 07013KT 9999 SCT018 TEMPO 2306/2314 7000 SHRA BKN015", "TAF TNCB 222322Z 2300/2406 08012KT 9999 SCT020 PROB30 TEMPO 2302/2313 5000 SHRA SCT018CB", "TAF TNCC 222315Z 2300/2324 08011KT 9999 SCT018 TEMPO 2306/2314 7000 SHRA BKN015", "TNCM 222200Z 2300/2324 08008KT 9999 SCT018 ", "TAF TQPF 221700Z 2218/2318 08008KT 9999 SCT020 PROB30 TEMPO 2218/2310 SHRA", "TAF TRPG 221100Z 2212/2312 08010KT 9999 SCT020 PROB30 TEMPO 2212/2220 SHRA", "TAF TTCP 222200Z 2300/2324 08005KT 9999 FEW016 TEMPO 2300/2306 5000 SHRA FEW012CB SCT016 BECMG 2312/2314 10010KT 9999 SCT018 PROB30 TEMPO 2316/2320 3000 TSRA FEW012CB", "TAF TTPP 222200Z 2300/2324 00000KT 9999 SCT016 TEMPO 2300/2306 5000 SHRA FEW012CB BECMG 2312/2314 10010KT 9999 SCT018 PROB40 TEMPO 2316/2320 3000 TSRA FEW012CB", "TAF TUPJ 222300Z 2300/2324 09008KT 9999 SCT020 PROB30 TEMPO 2314/2320 SHRA", "TAF TVSA 222300Z 2300/2324 07009KT 9999 SCT018", "TAF TXKF 222332Z 2300/2324 11012KT 9999 SCT018 BKN300 PROB30 TEMPO 2304/2312 5000 SHRA SCT008 BKN014 ", "TAF UAAA 222304Z 2300/2324 24003G09MPS 9999 BKN050CB BKN100 TX13/2309Z TN07/2301Z TEMPO 2300/2309 29007G15MPS 3000 -SHRA BR BKN011CB OVC100 TEMPO 2309/2318 34005G15MPS 1500 SHRA BR BKN005 OVC020CB TEMPO 2318/2324 04003G10MPS 1200 -SHRA BR BKN005 OVC011CB", "TAF UACC 222302Z 2300/2324 28013MPS 3100 -RASN BKN011 OVC020 TX03/2309Z TNM06/2324Z TEMPO 2300/2305 30013G18MPS 0500 +FZRA +SHSN BKN004 BKN011CB TEMPO 2305/2307 30011G16MPS 1000 FZRA SHSN BKN004 BKN011CB FM230700 28009MPS 9999 BKN011 OVC040 TEMPO 2307/2310 29010G15MPS -SHRASN BKN005 BKN011CB BECMG 2313/2315 25006MPS", "TAF UADD 222307Z 2300/2309 34003G08MPS 5000 BR BKN020CB OVC100 TEMPO 2300/2305 3100 -SHRA BR BKN011CB", "TAF UAII 222259Z 2300/2324 29005G10MPS 7000 BKN040CB TX12/2310Z TN07/2301Z TEMPO 2300/2309 33005G10MPS 3100 -SHRA BR BKN005 OVC020CB BECMG 2312/2314 06003G08MPS TEMPO 2316/2321 10005MPS 3100 BR FU", "TAF UAIT 222300Z 2300/2309 28005G10MPS 6000 BKN020 BKN040CB TEMPO 2300/2306 26005G10MPS 3100 -SHRA BKN015 BKN025CB", "TAF UAKD 221704Z 2218/2303 28011G16MPS 9999 SCT015 BKN020CB TEMPO 2218/2222 30013G19MPS 3100 -SHRASN SCT007 BKN011CB BECMG 2222/2224 31008G13MPS SCT020 TEMPO 2222/2303 SCT015CB", "TAF UAKK 222301Z 2300/2324 28013MPS 5000 -SN BKN020 BKN100 TX02/2309Z TNM07/2324Z TEMPO 2300/2306 29018MPS 1000 FZRA SHSN BKN003 BKN015CB BECMG 2306/2308 28008MPS 9999 NSW TEMPO 2306/2309 29011MPS 5000 -SHSNRA BKN015CB BECMG 2314/2316 24003MPS SCT020 TEMPO 2316/2324 3100 BR BKN011", "TAF UAOO 222303Z 2300/2309 28004MPS 9999 BKN020CB BKN066 TEMPO 2303/2309 36006MPS", "TAF UARR 222300Z 2300/2309 VRB02MPS 9999 SCT026 TEMPO 2300/2304 3100 BR SCT011 BECMG 2304/2306 17005MPS", "TAF UASK 222300Z 2300/2309 20010G15MPS 9999 BKN020CB OVC080 TEMPO 2300/2306 25015G20MPS 3100 -SHRA BLDU FEW004 OVC011CB TEMPO 2306/2309 28010G15MPS", "TAF AMD UASP 222314Z 2300/2309 27015G25MPS 0500 +SHRASN FZRA BKN007 OVC011CB TEMPO 2300/2305 31028MPS 0200 +SHSN FZRA BKN001 OVC011CB FM230500 27012G18MPS 3100 -SHSNRA BKN011 OVC020CB TEMPO 2305/2309 30020G25MPS 1000 SHSNRA", "TAF UASS 222328Z 2300/2309 27012G18MPS 9999 BKN030 BKN100 TEMPO 2300/2304 23010G15MPS 3100 -SHRA BKN030CB", "TAF UATE 222300Z 2300/2324 VRB03MPS 9999 BKN011 BKN033CB TX13/2309Z TN05/2302Z PROB30 TEMPO 2300/2306 3100 BR BKN002", "TAF UATG 222300Z 2300/2324 VRB02MPS 5000 BR SCT033 TX10/2310Z TNM03/2303Z BECMG 2304/2306 10005MPS 9999 NSW TEMPO 2308/2312 20006MPS", "TAF UATT 222300Z 2300/2324 33006MPS 9999 SCT011 BKN030 TX05/2312Z TNM06/2302Z TEMPO 2300/2304 VRB02MPS 0500 FZFG VV002 BECMG 2304/2306 25002MPS SCT040", "TAF UAUU 222302Z 2300/2309 30006MPS 9999 BKN020 TEMPO 2300/2305 28007G12MPS 3100 BR BKN011 TEMPO 2305/2309 28008G13MPS", "TAF UBBB 222252Z 2300/2324 VRB04KT 9999 SCT033 TX16/2309Z TN12/2302Z TEMPO 2300/2304 30005KT -RA FEW010 BKN025 BECMG 2304/2306 12010KT TEMPO 2306/2318 15010KT -SHRA SCT030CB BKN040", "TAF UBBF 221400Z 2215/2224 08008KT 9999 FEW040CB BKN060 TEMPO 2215/2221 VRB04KT -SHRA SCT030CB OVC030", "TAF UBBG 222300Z 2300/2324 VRB04KT 9999 SCT020 BKN040 TX16/2312Z TN10/2303Z TEMPO 2300/2305 26008KT TEMPO 2315/2324 22008KT", "TAF UBBL 222253Z 2300/2324 33006KT 8000 BKN020 OVC040 TX16/2309Z TN11/2302Z TEMPO 2300/2305 VRB04KT 5000 -RA SCT008 OVC020 BECMG 2305/2307 32012KT TEMPO 2307/2316 -RA SCT010 BKN020 BECMG 2316/2318 VRB04KT", "TAF UBBN 222256Z 2300/2324 VRB04KT 9999 FEW040CB SCT045 BKN100 TX16/2312Z TN08/2303Z TEMPO 2300/2308 15012KT -SHRA SCT033CB OVC070 TEMPO 2309/2315 12010KT", "TAF UBBQ 222256Z 2300/2324 VRB04KT 6000 FEW010 BKN040 TX17/2310Z TN09/2301Z TEMPO 2300/2304 2000 BR BKN008 BECMG 2306/2308 26006KT 9999 SCT030 BKN100 TEMPO 2308/2318 VRB04KT", "TAF UBBY 222300Z 2300/2309 VRB04KT 9999 FEW030 SCT080", "TAF UBEE 222000Z 2221/2306 VRB04KT 9999 SCT030 BKN060 TEMPO 2221/2303 16008KT", "TAF UCFL 222238Z 2300/2324 34003G08MPS 9999 SCT030CB BKN100 BECMG 2305/2306 14003G08MPS TEMPO 2305/2312 26007G12MPS 3000 -SHRA BKN015CB TEMPO 2312/2318 27007G12MPS 1500 SHRA BKN015CB TEMPO 2318/2324 24003G08MPS 1500 SHRA BKN015CB", "TAF UCFM 222246Z 2300/2324 22003G08MPS 9999 BKN035CB OVC100 TEMPO 2300/2306 28010G15MPS 1200 SHRA BR FEW002 SCT005 BKN020CB TEMPO 2306/2312 28003G08MPS 2000 SHRA SCT007 BKN020CB TEMPO 2312/2318 30003G08MPS 1500 -SHRA BR FU SCT005 BKN015CB", "TAF UCFO 222253Z 2300/2324 32003G08MPS 9999 SCT050CB BKN100 TEMPO 2300/2306 25006G11MPS BKN030CB TEMPO 2306/2312 27008G13MPS 2000 BR FU SCT010 BKN020CB", "TAF UDSG 222258Z 2300/2324 VRB06KT 9999 FEW050 TEMPO 2300/2306 5000 BR SCT040", "TAF UDYZ 222300Z 2300/2324 16004KT 9999 SCT040", "TAF UEEE 222300Z 2300/2406 31003MPS 9999 -SHSN SCT008 BKN017CB OVC070 TEMPO 2300/2303 0300 SHSN FZFG VV002 TEMPO 2303/2315 2100 -SHSN", "TAF UERP 222300Z 2300/2324 15006G12MPS 8000 BKN017CB OVC100 TEMPO 2303/2312 18009G14MPS 2100 -SHSN DRSN BKN007 BKN017CB OVC100 TEMPO 2312/2324 0500 SHSN BLSN VV003", "TAF UERR 222300Z 2300/2324 19006G12MPS 9999 SCT009 BKN020CB TEMPO 2300/2306 2500 -SHSN SCT005 BKN015CB", "TAF UGKO 222300Z 2300/2324 08007KT CAVOK TX20/2311Z TN05/2302Z TEMPO 2304/2310 08017KT BECMG 2319/2322 BKN050", "TAF UGSB 222300Z 2300/2324 12017KT 9999 FEW035 TX18/2312Z TN10/2301Z BECMG 2307/2309 34007KT BECMG 2316/2319 12015KT", "TAF UGTB 222300Z 2300/2324 04006KT CAVOK TX15/2312Z TN07/2302Z PROB40 TEMPO 2301/2306 4000 BR SCT010", "TAF UHBB 222245Z 2300/2324 34003G08MPS 9999 SCT030 BECMG 2309/2311 27003G08MPS", "TAF UHHH 222258Z 2300/2406 03003MPS 9999 BKN005 BKN020CB TEMPO 2300/2303 3100 BR BKN003 BKN020CB FM230300 30003MPS 9999 SCT011 SCT020CB TEMPO 2303/2305 SCT006 BKN020CB", "TAF UHMA 222245Z 2300/2324 28003G08MPS 9999 SCT008 BKN017 TEMPO 2300/2324 34009MPS 5000 -SHSN BR BKN006 BKN015CB", "TAF UHMM 222257Z 2300/2406 02003G08MPS 9999 SCT040", "TAF UHPP 222239Z 2300/2406 34003G12MPS 9999 SCT030CB TEMPO 2312/2321 2000 SHSN BKN006 OVC013CB", "TAF UHSS 222300Z 2300/2406 36003G08MPS 9999 BKN025CB TEMPO 2300/2310 -SHRA BKN010 BKN016CB", "TAF UHWW 222250Z 2300/2324 34003G08MPS 9999 BKN030 TEMPO 2300/2312 34011MPS -SHRASN BKN020CB BECMG 2312/2314 36003MPS NSC", "TAF UIAA 222300Z 2300/2324 08003MPS 9999 SCT040CB", "TAF UIBB 222300Z 2300/2324 16005G12MPS 9999 SCT016CB BECMG 2313/2315 24005G12MPS", "TAF UIII 222300Z 2300/2324 16006G12MPS CAVOK", "TAF UIUU 222300Z 2300/2324 06003G08MPS 2900 BR NSC TEMPO 2300/2303 0700 FZFG BKN001 BECMG 2303/2304 9999 NSW", "TAF ULAA 222300Z 2300/2324 21004G11MPS 9999 BKN016 TEMPO 2300/2302 22006G14MPS 6000 -SHSNRA FEW005 BKN011CB FM230200 24005G12MPS 6000 FEW006 BKN016 TEMPO 2302/2308 26008G17MPS 2000 SHRASN BKN005 BKN011CB FM230800 27004G10MPS 9999 BKN017 TEMPO 2308/2320 28006G14MPS", "TAF ULLI 222252Z 2300/2324 20005MPS 8000 FEW010 BKN016 TEMPO 2303/2312 24003G08MPS 4000 -SHRA BR BKN010CB TEMPO 2312/2315 26003G08MPS BECMG 2315/2317 30003MPS", "TAF ULMM 222250Z 2300/2324 25005G11MPS 6000 -SHRASN BKN016CB TEMPO 2300/2303 BKN007 BKN016CB BECMG 2315/2317 33005G12MPS TEMPO 2318/2321 3100 -SHRASN BKN011 BKN016CB", "TAF ULOO 222256Z 2300/2309 19003MPS 6000 SCT020 TEMPO 2300/2306 0500 FZFG BKN002 TEMPO 2306/2307 BKN004 BKN020", "TAF ULPB 222257Z 2300/2309 23004G09MPS 8000 BKN016 TEMPO 2300/2309 4000 -RA BR BKN010", "TAF ULWC 221700Z 2218/2303 18003MPS 9999 BKN020 TEMPO 2218/2220 2100 BR BKN005 TEMPO 2220/2303 1000 BR BKN003", "TAF UMGG 222303Z 2300/2324 17007MPS 2000 -RA BR BKN005 TEMPO 2300/2307 22007MPS 1200 SHRA BKN003 BKN015CB FM230900 28007MPS 5000 BR BKN010 TEMPO 2309/2316 30006G11MPS 2000 SHRA BKN005 BKN020CB TEMPO 2316/2324 1200 DZ OVC004", "TAF UMII 222307Z 2300/2309 15003MPS 3000 BR BKN005 TEMPO 2300/2306 18003MPS 0800 SHRA FG BKN003 BKN013CB", "TAF UMKK 222259Z 2300/2324 27005G10MPS 4000 BR OVC004 TEMPO 2300/2305 1500 -DZ BR BKN002 OVC010 BECMG 2305/2306 6000 NSW BKN016 BECMG 2310/2312 VRB01MPS BKN010 TEMPO 2312/2324 BKN003", "TAF UMMS 222300Z 2300/2324 16006MPS 1200 -RA BR BKN003 TEMPO 2300/2308 18005G10MPS 0200 -SHRA FG OVC001 BKN015CB BECMG 2308/2309 22005G10MPS 9999 NSW BKN010 TEMPO 2309/2317 24008G13MPS 5000 -SHRA BKN020CB TEMPO 2317/2324 27005MPS 0200 FG VV001", "TAF UNAA 222254Z 2300/2324 28003MPS 6000 NSC TEMPO 2300/2302 0500 FG FM230200 23003G08MPS 9999 SCT030 TEMPO 2306/2318 26009G17MPS", "TAF UNBB 222300Z 2300/2324 20009G15MPS 8000 -SHRA BKN030CB TEMPO 2300/2303 24013G23MPS FM230300 24010G20MPS 9999 BKN026CB TEMPO 2303/2312 28014G25MPS TEMPO 2312/2318 3000 -SHSN SCT004 BKN010CB BECMG 2316/2317 25005G12MPS", "TAF UNEE 222300Z 2300/2324 21010G18MPS 8000 -SHRA BKN020CB TEMPO 2300/2312 25014G25MPS FM231200 25007G16MPS 6000 -SHSNRA BKN016CB TEMPO 2312/2318 29011G19MPS BKN011CB TEMPO 2318/2324 SCT011CB", "TAF UNKL 222243Z 2300/2324 21008G15MPS 9999 SCT020CB TEMPO 2306/2314 26010G20MPS BECMG 2314/2316 26008G15MPS", "TAF UNNT 222300Z 2300/2324 20010G20MPS 9999 BKN040CB TEMPO 2300/2307 23015G25MPS -SHRA BKN016CB FM230700 32008G18MPS 8000 -SHSNRA BKN020CB TEMPO 2307/2318 3000 -SHSNRA BKN005 BKN016CB BECMG 2310/2313 27005G12MPS", "TAF UNOO 222257Z 2300/2324 29007G16MPS 9999 BKN010 BKN020CB TEMPO 2300/2312 1500 SHSN BKN005 BKN020CB BECMG 2312/2314 24005G10MPS", "TAF UNTT 222300Z 2300/2309 23008G17MPS 6000 -SHRA BKN011 BKN016CB TEMPO 2300/2303 19005G14MPS 2900 -SHRA BKN004 BKN016CB BECMG 2303/2307 27010G20MPS BKN016CB", "TAF UNWW 222300Z 2300/2324 21010G20MPS 8000 BKN040CB TEMPO 2300/2314 23015G27MPS -SHRA BKN016CB BECMG 2314/2315 24007G16MPS TEMPO 2314/2324 3000 -SHSNRA BKN011CB", "TAF UOOO 222259Z 2300/2324 19005G10MPS 6000 -SHSN BKN016CB TEMPO 2300/2312 BKN005 BKN016CB TEMPO 2312/2321 2500 -SHSN BR BKN004 BKN012CB BECMG 2315/2318 14003G08MPS", "TAF URKA 222257Z 2300/2324 15003G08MPS 9999 SCT020 BECMG 2304/2306 17008G14MPS BKN020CB TEMPO 2309/2318 22010G17MPS 6000 -SHRA SCT006 BKN016CB TEMPO 2318/2324 6000 -SHRA SCT007 BKN016CB BECMG 2319/2321 30008G14MPS", "TAF URKK 222256Z 2300/2324 12003MPS 9999 SCT030 FM230900 17006G12MPS 6000 SCT020CB TEMPO 2309/2324 22006G12MPS -SHRA SCT007 BKN016CB", "TAF URMG 222300Z 2300/2309 09003G08MPS 6000 BKN016 TEMPO 2300/2306 0300 FG OVC002", "TAF URML 222300Z 2300/2309 25003G08MPS 9999 SCT030 PROB40 TEMPO 2300/2302 2500 BR SCT006 BECMG 2302/2303 16005G10MPS TEMPO 2303/2309 FEW006 SCT016", "TAF URMM 222300Z 2300/2324 09003G08MPS 6000 BKN016 TX13/2312Z TNM00/2303Z TEMPO 2300/2306 0300 FZFG OVC002 BECMG 2306/2308 9999 SCT030", "TAF URMN 222300Z 2300/2309 22003G08MPS 6000 BKN016", "TAF URMO 221400Z 2215/2224 10003G08MPS 6000 BKN016", "TAF URMT 222300Z 2300/2309 17003G08MPS 9999 SCT020 TEMPO 2306/2309 14003G08MPS", "TAF URRP 222255Z 2300/2324 14003G10MPS 6000 SCT016 TEMPO 2300/2315 17003G11MPS TEMPO 2315/2321 12006G12MPS -SHRA BKN020CB", "TAF URSS 222255Z 2300/2324 05007MPS 9999 SCT100 BECMG 2308/2309 14005G10MPS BECMG 2315/2316 04003G08MPS BKN070", "TAF URWA 222300Z 2300/2309 17003G08MPS 2000 BR BKN004 SCT016 TEMPO 2300/2304 0400 FZFG OVC002", "TAF URWW 222258Z 2300/2309 16005G10MPS 6000 BKN016 SCT020CB TEMPO 2300/2309 19006G12MPS -SHRA PROB40 TEMPO 2300/2309 1000 SHRA BKN004 BKN020CB", "TAF USCC 222300Z 2300/2324 28005G10MPS 9999 SCT030CB TEMPO 2300/2306 30010G15MPS FM230600 26003G10MPS CAVOK", "TAF USCM 222300Z 2300/2309 26003G10MPS 9999 SCT030", "TAF USHH 222250Z 2300/2324 28005G13MPS 9999 BKN020 TEMPO 2300/2306 5000 -SHSN BR SCT004 BKN016CB TEMPO 2306/2318 -SHSN FEW005 BKN016CB BECMG 2309/2311 24006G16MPS TEMPO 2318/2324 5000 BR SCT003 BKN016", "TAF USNN 222250Z 2300/2324 26003G08MPS 9999 BKN016 TEMPO 2300/2312 -SHSN SCT010 BKN016CB BECMG 2303/2304 28005G14MPS", "TAF USPP 222256Z 2300/2324 23003G14MPS 9999 BKN016", "TAF USRR 222255Z 2300/2324 27006G13MPS 9999 SCT016 TEMPO 2300/2315 5000 -SHSN FEW005 BKN016CB", "TAF USSS 222249Z 2300/2324 28005G15MPS 9999 BKN020CB TEMPO 2300/2305 -SHSN BECMG 2312/2314 23003G13MPS SCT030", "TAF USTR 222255Z 2300/2324 28007G14MPS 9999 SCT020 TEMPO 2300/2306 28014MPS TEMPO 2306/2312 27009G15MPS BECMG 2312/2313 23005G10MPS", "TAF UTAA 222245Z 2223/2324 09014KT 3000 BR OVC007 SCT030CB TEMPO 2223/2305 1500 BR -RA BKN004 BECMG 2305/2306 6000 NSW OVC015 BECMG 2310/2312 -RA TEMPO 2312/2318 02018KT 2000 RA BKN005", "TAF UTDD 222100Z 2222/2310 VRB02MPS 6000 SCT050CB BKN100 TEMPO 2222/2310 27008G13MPS 3100 HZ", "TAF UTDK 222100Z 2222/2307 03005MPS 6000 SCT050CB BKN100 TEMPO 2222/2307 21007G12MPS 3100 HZ", "TAF UTDL 222100Z 2222/2310 25007MPS 6000 SCT050CB OVC080 TEMPO 2222/2310 27010MPS 3100 -SHRA BR SCT011 BKN040CB", "TAF UTDT 222100Z 2222/2307 VRB02MPS 6000 SCT050CB BKN080 TEMPO 2222/2307 19007G12MPS 3100 HZ", "TAF UTFF 222100Z 2222/2307 14010KT 7000 FEW060CB TEMPO 2222/2307 VRB10G20KT 3500 -SHRA BR SCT040CB", "TAF UTFN 222300Z 2300/2324 14010KT 7000 SCT050CB TEMPO 2300/2312 VRB14KT 3000 -TSRA BR BKN040CB", "TAF UTNN 222300Z 2300/2324 01008G18KT 9999 SCT040 BKN100 TEMPO 2300/2306 VRB04KT", "TAF UTNU 222300Z 2300/2324 05008G18KT 9999 SCT040 BKN100 TEMPO 2300/2306 VRB04KT", "TAF UTSA 222301Z 2300/2324 36010KT 7000 FEW050CB TEMPO 2300/2311 31015G25KT 3000 -SHRA BR SCT007 BKN040CB", "TAF UTSB 222300Z 2300/2324 01010KT 7000 FEW050CB TEMPO 2300/2311 32015G25KT 3000 -SHRA BR SCT007 BKN033CB", "TAF UTSK 222100Z 2222/2307 32010KT 6000 SCT050CB BKN100 TEMPO 2222/2307 VRB20G30KT 2000 DS TSRA BKN033CB", "TAF COR UTSS 222303Z 2300/2324 30010G20KT 7000 SCT066CB BKN100 TEMPO 2300/2312 VRB20G30KT 2000 TSRA DS SCT009 BKN033CB", "TAF UTST 222300Z 2300/2324 27016G26KT 5000 -DS SCT060CB BKN100 TEMPO 2300/2309 24025G35KT 1000 DS BKN060CB BKN100", "TAF UTTT 222300Z 2300/2324 30012KT 5000 FU FEW050CB SCT100 TEMPO 2300/2312 35015G25KT 3000 -SHRA BR SCT040CB BKN100 PROB40 TEMPO 2300/2312 -TSRA BKN030CB", "TAF UUBC 221653Z 2218/2303 16003MPS 9999 BKN030 TEMPO 2218/2303 2000 BR BKN007", "TAF UUBP 221355Z 2215/2224 10003MPS 9999 BKN020", "TAF UUBW 222251Z 2300/2324 16003MPS 6000 BKN016 TX08/2312Z TN02/2303Z TEMPO 2300/2307 BKN007 PROB40 TEMPO 2300/2307 0300 FG OVC002 TEMPO 2307/2324 -SHRA BKN012CB", "TAF UUDD 222254Z 2300/2406 18003MPS 6000 FEW005 BKN016 TX08/2312Z TN02/2303Z TEMPO 2300/2312 BKN003 PROB40 TEMPO 2300/2308 0300 FG TEMPO 2312/2403 -SHRA FEW002 BKN016CB", "TAF UUDL 222300Z 2300/2324 20003MPS 8000 BKN020 TX07/2312Z TN02/2303Z TEMPO 2300/2318 OVC010", "TAF UUEE 222253Z 2300/2324 19003MPS 6000 FEW004 BKN016 TX06/2312Z TN01/2304Z TEMPO 2300/2307 BKN004 PROB40 TEMPO 2300/2307 0300 FG OVC002 TEMPO 2309/2324 -SHRA BKN004 SCT012CB", "TAF UUMO 222257Z 2300/2309 18003MPS 9999 BKN016 TEMPO 2300/2306 2000 BR BKN005", "TAF UUOB 222259Z 2300/2309 17005MPS 6000 BKN016 TEMPO 2305/2309 -SHRA BKN011CB", "TAF UUOK 221654Z 2218/2303 15003G08MPS 9999 BKN030", "TAF UUOL 222300Z 2300/2309 17003G08MPS 9999 OVC016", "TAF UUOO 222259Z 2300/2309 15003MPS 9999 BKN020", "TAF UUWW 222251Z 2300/2324 18003MPS 6000 FEW004 BKN016 TX06/2312Z TN02/2303Z TEMPO 2300/2307 BKN003 PROB40 TEMPO 2300/2307 0300 FG BKN001 BECMG 2307/2308 FEW004 BKN009 TEMPO 2308/2321 -SHRA BKN004 SCT020CB BECMG 2317/2320 28005MPS", "TAF UUYY 222300Z 2300/2324 21003G08MPS 9999 FEW011 BKN020 TEMPO 2300/2312 6000 -SHSN FEW007 BKN016CB BECMG 2303/2305 22005G14MPS FM231200 23006G14MPS 6000 -SHRASN BKN011 BKN017CB TEMPO 2312/2324 -SHRA BKN006 BKN016CB", "TAF UWGG 222251Z 2300/2324 21003G09MPS 6000 BKN030 TX06/2312Z TN01/2301Z TEMPO 2306/2318 21008G14MPS", "TAF UWKD 222255Z 2300/2324 21003MPS 9999 BKN020 TX05/2312Z TNM01/2301Z BECMG 2308/2311 21007G15MPS TEMPO 2322/2324 -SHRA BKN016CB", "TAF UWKE 222251Z 2300/2324 22003G10MPS 9999 BKN040 TEMPO 2300/2304 0700 FZFG BKN003 TEMPO 2304/2306 3100 BR FEW005 BKN011 BECMG 2318/2320 20007G14MPS BKN016", "TAF UWKS 222242Z 2300/2309 20003G10MPS 9999 BKN033 TX06/2309Z TN00/2303Z", "TAF UWLL 222254Z 2300/2324 20003MPS 9999 BKN016 TX06/2312Z TNM03/2303Z TEMPO 2300/2306 2000 BR OVC010 TEMPO 2306/2315 15008MPS", "TAF UWLW 222300Z 2300/2324 21003MPS 9999 BKN016 TX06/2310Z TNM02/2302Z TEMPO 2306/2315 18006G12MPS", "TAF UWOO 222244Z 2300/2324 25003G10MPS 6000 BKN020 TX04/2312Z TNM05/2303Z TEMPO 2300/2305 0300 FZFG FEW002 BECMG 2312/2314 18003G09MPS", "TAF UWOR 222248Z 2300/2309 23003G10MPS 6000 BKN020 TX04/2309Z TNM05/2303Z TEMPO 2300/2304 27005MPS", "TAF UWPS 222256Z 2300/2309 19003G08MPS 8000 BKN030 TX06/2309Z TN01/2301Z", "TAF UWSG 222258Z 2300/2309 22003MPS 9999 BKN020 TX05/2306Z TN02/2303Z TEMPO 2300/2306 VRB01MPS 2100 -RA BR FEW004 BKN007", "TAF UWUU 222253Z 2300/2324 21003G09MPS 9999 BKN040 TX04/2309Z TNM03/2303Z TEMPO 2300/2306 25003MPS TEMPO 2306/2324 18005G10MPS BKN030", "TAF UWWW 222252Z 2300/2324 18003G08MPS 9999 BKN016 TX06/2311Z TNM04/2302Z TEMPO 2301/2306 2000 BR BKN007 TEMPO 2306/2324 21006G12MPS", "TAF VAAH 222300Z 2300/2309 06005KT 4000 FU NSC BECMG 2301/2303 05005KT 3000 HZ NSC BECMG 2304/2306 08003KT 4000 HZ NSC BECMG 2307/2309 04004KT 4000 FU NSC", "TAF VAAU 222300Z 2300/2309 02003KT 3000 BR HZ FEW020 SCT100 BECMG 2304/2306 05010KT 4000 HZ FU FEW020 SCT100 BECMG 2307/2309 11008KT 5000 FU SCT020 SCT025", "TAF VABB 222300Z 2300/2309 07007KT 2500 HZ FU FEW020 SCT100 BECMG 2304/2306 07011KT 3000 FU FEW020 SCT025", "TAF VABJ 222300Z 2300/2309 10006KT 4000 FU NSC BECMG 2301/2303 15006KT 3000 HZ NSC BECMG 2304/2306 14007KT 4000 HZ NSC BECMG 2307/2309 08004KT 4000 FU NSC", "TAF VABO 222300Z 2300/2309 04004KT 4000 FU NSC BECMG 2301/2303 03004KT 3000 HZ NSC BECMG 2304/2306 04004KT 4000 HZ NSC BECMG 2307/2309 35006KT 4000 FU NSC", "TAF VABV 222300Z 2300/2309 11007KT 4000 FU NSC BECMG 2301/2303 04006KT 3000 HZ NSC BECMG 2304/2306 06007KT 4000 HZ NSC BECMG 2307/2309 04006KT 4000 FU NSC", "TAF VADU 222300Z 2300/2309 05007KT 4000 FU NSC BECMG 2301/2303 06007KT 3000 HZ NSC BECMG 2304/2306 10008KT 4000 HZ NSC BECMG 2307/2309 07009KT 4000 FU NSC", "TAF VAJL 222300Z 2300/2309 02003KT 3000 BR HZ FEW020 SCT100 BECMG 2304/2306 05010KT 4000 HZ FU FEW020 SCT100 BECMG 2307/2309 11008KT 5000 FU SCT020 SCT025", "TAF VAJM 222300Z 2300/2309 08005KT 4000 FU NSC BECMG 2301/2303 10005KT 3000 HZ NSC BECMG 2304/2306 05006KT 4000 HZ NSC BECMG 2307/2309 36006KT 4000 FU NSC", "TAF VAKE 221400Z 2215/2224 05006KT 3000 HZ FU NSC", "TAF VAKP 222300Z 2300/2309 07005KT 3000 HZ FEW020 SCT100 BECMG 2304/2306 04010KT 4000 HZ FU FEW020 SCT025", "TAF VANP 222000Z 2221/2306 03003KT 3000 HZ NSC BECMG 2300/2302 02002KT 2000 BR NSC BECMG 2300/2302 02002KT 2000 BR NSC", "TAF VAOZ 221400Z 2215/2303 08010KT 5000 BR NSC TEMPO 2301/2303 VRB02KT 1500 BR", "TAF VAPO 221700Z 2218/2400 07010KT 6000 SCT025 SCT090 TEMPO 2300/2304 VRB02KT 3000 BR TEMPO 2310/2313 SCT020 FEW025TCU SCT100 TEMPO 2322/2400 5000 BR", "TAF VAPR 222300Z 2300/2309 06005KT 4000 FU NSC BECMG 2301/2303 10006KT 3000 HZ NSC BECMG 2304/2306 08007KT 4000 HZ NSC BECMG 2307/2309 24003KT 4000 FU NSC", "TAF VARK 222300Z 2300/2309 14004KT 4000 FU NSC BECMG 2301/2303 08005KT 3000 HZ NSC BECMG 2304/2306 10006KT 4000 HZ NSC BECMG 2307/2309 05006KT 4000 FU NSC", "TAF VASD 222300Z 2300/2309 02003KT 3000 BR HZ FEW020 SCT100 BECMG 2304/2306 05010KT 4000 HZ FU FEW020 SCT100 BECMG 2307/2309 11008KT 5000 FU SCT020 SCT025", "TAF VASL 222300Z 2300/2309 04006KT 3000 HZ FEW020 SCT100 BECMG 2304/2306 05010KT 4000 FU FEW020 SCT025", "TAF VASU 222300Z 2300/2309 06006KT 4000 FU NSC BECMG 2301/2303 05006KT 3000 HZ NSC BECMG 2304/2306 07006KT 4000 HZ NSC BECMG 2307/2309 36006KT 4000 FU NSC", "TAF VCBI 222300Z 2300/2406 VRB05KT 9999 SCT016 TX29/2307Z TN25/2400Z PROB30 TEMPO 2300/2308 7000 -TSRA/SHRA FEW012 BKN015 FEW020CB BECMG 2303/2305 27008KT BECMG 2311/2313 VRB05KT", "TAF VCRI 221700Z 2218/2324 29005KT 9999 SCT018 SCT080 TX32/2307Z TN24/2300Z PROB30 TEMPO 2306/2312 7000 -SHRA SCT016 BKN080", "TAF VDPP 221700Z 2218/2312 05006KT 9999 SCT017 TEMPO 2306/2311 SCT015 FEW017CB SCT040", "TAF VDSR 221700Z 2218/2312 08006KT 9999 SCT017 TEMPO 2306/2311 SCT015 FEW017CB SCT040", "TAF VDSV 221700Z 2218/2312 07006KT 9999 SCT017 TEMPO2306/2311 SCT015 FEW017CB SCT040", "TAF VEAB 221530Z 2300/2312 VRB02KT 4000 BR SKC BECMG 2301/2302 VRB02KT 3000 BR SKC BECMG 2302/2303 02005KT 4000 BR SKC BECMG 2303/2304 34005KT 6000 FEW025", "TAF VEAT 222300Z 2300/2406 00000KT 3000 BR SCT100 BECMG 2303/2306 12003KT 5000 HZ SCT020 SCT100 TEMPO 2314/2318 15005KT 2500 -TSRA FEW010 SCT018 FEW030CB BKN100 BECMG 2322/2402 15010G20KT 2000 -RA FEW008 SCT018 FEW030CB OVC090", "TAF VEBD 221100Z 2212/2318 20005KT 6000 FEW030 TEMPO 2224/2303 4000 BR FEW030 FEW100", "TAF VEBN 221700Z 2218/2324 00000KT 2000 HZ BR NSC BECMG 2300/2302 1500 BR BECMG 2304/2306 3000 HZ BR BECMG 2306/2308 4000 HZ BECMG 2308/2310 5000 HZ BECMG 2315/2317 3000 HZ BR BECMG 2318/2320 2000 HZ BR", "TAF VEBS 222000Z 2221/2306 00000KT 2500 BR FEW020 BECMG 2303/2305 34005KT 4000 HZ SCT018 SCT100", "TAF VECC 222000Z 2221/2306 36007KT 3500 HZ SCT020 SCT100 BECMG 2300/2302 2500 HZ BECMG 2303/2305 07008KT 3500 -RA HZ SCT018 BKN100", "TAF VECX 221530Z 2300/2312 VRB02KT 1000 BR NSC BECMG 2303/2304 2500 HZ NSC BECMG 2305/2306 4500 HZ BECMG 2307/2308 27005KT 6000 NSC", "TAF VEGK 221530Z 2300/2312 VRB02KT 0800 FG BECMG 2301/2302 1500 BR BECMG 2303/2304 4000 HZ BECMG 2305/2306 05005KT 6000 SCT025 BECMG 2310/2311 VRB02KT 5000 BR", "TAF VEGT 222000Z 2221/2306 00000KT 3000 BR FEW018 SCT100 BECMG 2303/2305 05005KT 5000 HZ", "TAF VEGY 221400Z 2215/2224 00000KT 2000 BR NSC BECMG 2221/2223 1500 BR", "TAF VEIM 222000Z 2221/2306 00000KT 3000 BR FEW018 SCT100 BECMG 2303/2305 16005KT 5000 HZ SCT018 SCT100", "TAF VEJH 222300Z 2300/2309 00000KT 3000 HZ NSC BECMG 2303/2305 05005KT 4000 HZ FEW020", "TAF VEJT 221530Z 2300/2312 02005KT 0800 FG SCT008 BKN090 BECMG 2301/2302 1500 BR SCT010 BKN090 BECMG 2302/2303 04005KT 3000 BR SCT015 BKN090 BECMG 2304/2305 04005KT 6000 SCT020 SCT100 BKN250", "TAF VELP 222300Z 2300/2309 09003KT 2000 BR SCT016 SCT100 BECMG 2303/2306 4000 HZ SCT016 BKN100", "TAF VEMN 222000Z 2221/2306 00000KT 3000 BR FEW018 SCT100 BECMG 2303/2305 09005KT 5000 HZ", "TAF VEPT 222000Z 2221/2306 00000KT 2900 BR NSC BECMG 2304/2306 26005KT 3500 BR HZ", "TAF VERC 222000Z 2221/2306 35005KT 2500 BR NSC BECMG 2304/2306 4000 HZ", "TAF VETZ 221530Z 2218/2306 12010KT 5000 BR FEW025 SCT100 BECMG 2301/2303 6000 SCT100", "TAF VGEG 222300Z 2300/2406 25012/15KT 2500 RA/TSRA BKN008 FEW027CB OVC090 BECMG 2311/2313 28010KT 4000 HZ SCT016 BKN100 TEMPO 2318/2406 27030G40KT 1500 RA/TSRA BKN007 FEW025CB OVC090", "TAF VGHS 221700Z 2218/2324 02005KT 4000 HZ NSC BECMG 2223/2301 05005KT 3500 HZ SCT012 BKN100 TEMPO 2300/2309 17015KT 2500 RA/TSRA BKN008 FEW025CB OVC090 BECMG 2309/2311 10008KT 4000 HZ SCT015 BKN100", "TAF VHHH 222300Z 2300/2406 VRB05KT 9999 FEW020 TX30/2306Z TX29/2406Z TN24/2322Z TEMPO 2302/2307 33010KT BECMG 2307/2309 10015KT", "TAF VIAG 221700Z 2218/2400 VRB02KT 3000 HZ NSC BECMG 2220/2221 1500 BR TEMPO 2300/2302 0800 FG BECMG 2304/2305 06008KT 3000 HZ BECMG 2307/2308 5000 HZ BECMG 2315/2317 VRB02KT 3000 BR BECMG 2318/2320 1500 BR", "TAF VIAR 222300Z 2300/2406 00000KT 2200 BR NSC BECMG 2304/2306 27006KT 4000 HZ BECMG 2315/2317 VRB02KT 3000 BR BECMG 2400/2402 2000 BR BECMG 2404/2406 32006KT 3500 HZ", "TAF VIBR 222300Z 2300/2309 VRB02KT 5000 BR HZ FEW030 SCT060 ", "TAF VIBT 221530Z 2300/2312 34010KT 4000 FU SKC TEMPO 2300/2302 VRB02KT 1000 MIFG TEMPO 2310/2312 3000 FU SKC", "TAF VIBY 220930Z 2212/2224 29004KT 6000 NSC BECMG 2218/2222 00000KT 4000 BR", "TAF VICG 221700Z 2218/2400 VRB02KT 6000 NSC TEMPO 2300/2304 4000 BR BECMG 2306/2308 35005KT 6000 NSC TEMPO 2312/2315 4000 HZ", "TAF VIDN 222300Z 2300/2309 05005KT 3000 BR NSC BECMG 2303/2305 29005KT 6000 FEW030 ", "TAF VIDP 222300Z 2300/2406 00000KT 1200 BR FU NSC BECMG 2304/2306 27004KT 2200 FU HZ BECMG 2307/2309 32008KT 4000 HZ BECMG 2315/2317 VRB02KT 3000 HZ BECMG 2400/2402 1200 BR FU BECMG 2404/2406 29004KT 2000 FU HZ", "TAF VIGG 222300Z 2300/2309 VRB02KT 5000 BR HZ FEW030 SCT060 ", "TAF VIGR 221530Z 2300/2312 VRB02KT 3000 BR NSC BECMG 2305/2307 6000 NSC", "TAF VIJO 221530Z 2300/2312 25005KT 6000 FEW250 TEMPO 2301/2304 5000 HZ", "TAF VIJP 222000Z 2221/2306 36005KT 2500 HZ NSC", "TAF VIJU 220930Z 2218/2312 29005KT 6000 NSC", "TAF VILH 220930Z 2218/2312 30010KT 6000 FEW070 BECMG 2304/2306 SCT060 TEMPO 2310/2312 30010G20KT", "TAF VILK 222300Z 2300/2406 00000KT 1500 BR NSC BECMG 2304/2306 3000 HZ BR BECMG 2306/2308 4000 HZ BECMG 2308/2310 5000 HZ BECMG 2315/2317 3000 HZ BR BECMG 2318/2320 2000 HZ BECMG 2400/2402 1500 BR BECMG 2404/2406 3000 HZ", "TAF VISM 222300Z 2300/2309 VRB02KT 3000 BR NSC BECMG 2303/2305 5000 HZ FEW030 SCT080 ", "TAF VISR 222130Z 2300/2312 21003KT 6000 NSC TEMPO 2301/2302 2500 BR 2302/2304 4000 HZ TEMPO 23010/2312 24003KT FEW025 FEW030TCU SCT200", "TAF VLLB 221700Z 2218/2318 36004KT 5000 BR SCT010 SCT060", "TAF VLLN 221700Z 2218/2318 09004KT 3000 BR FEW020 SCT100", "TAF VLPS 221700Z 2218/2318 36004KT 5000 BR FEW020 FEW050 BKN100", "TAF VLSK 221700Z 2218/2318 14006KT 4000 BR FEW040 BKN100", "TAF VLVT 221700Z 2218/2318 12002KT 5000 BR FEW020 SCT040", "TAF VMMC 222300Z 2300/2406 01008KT 9999 FEW020 SCT040 TEMPO 2300/2306 4000 SHRA TEMPO 2310/2318 09014KT", "TAF VNKT 221700Z 2218/2318 12003KT 7000 FEW020 BECMG 2300/2302 00000KT 5000 BR FEW015 BECMG 2304/2305 12004KT 7000 FEW020 BECMG 2307/2309 27010KT 9999 FEW025 SCT100 BECMG 2314/2315 22004KT 8000 FEW020 SCT025", "TAF VOAR 220500Z 2206/2312 05010KT 6000 FEW018 BKN090 TEMPO 2209/2215 3000 TSRA/RA SCT018 FEW025CB BKN090 BECMG 2216/2218 VRB02KT 4500 BR FEW018 BKN090 TEMPO 2223/2302 3000 DZ/BR BECMG 2303/2305 08010KT 6000 TEMPO 2309/2312 FEW025TCU/CB", "TAF VOBG 222000Z 2221/2306 05005KT 3000 BR SCT008 SCT012 TEMPO 2300/2303 1000 MIFG SCT005 SCT012 BECMG 2304/2305 6000 SCT012", "TAF VOBL 222300Z 2300/2406 VRB02KT 3000 BR SCT008 SCT012 TEMPO 2300/2303 1000 MIFG BKN005 SCT012 BECMG 2304/2305 6000 SCT012 TEMPO 2309/2315 SCT012 SCT020 FEW025CB BECMG 2322/2323 3000 BR SCT008 SCT012", "TAF VOBM 221700Z 2218/2303 09005KT 6000 SCT012 TEMPO 2222/2303 3000 BR SCT008 SCT012", "TAF VOBZ 222300Z 2300/2406 34006KT 3000 HZ SCT020 TEMPO 2300/2302 VRB03KT 1500 BR SCT010 BECMG 2303/2305 07010KT 5000 HZ SCT015 BECMG 2305/2307 05010KT 6000 SCT015 SCT100 BECMG 2313/2315 05006KT 5000 HZ FEW020 BECMG 2321/2323 VRB04KT 3000 BR NSC TEMPO 2400/2402 VRB03KT 1500 BR SCT010 BECMG 2403/2405 07010KT 5000 HZ SCT015 SCT100", "TAF VOCB 221700Z 2218/2324 VRB02KT 5000 HZ SCT015 SCT100 BECMG 2306/2307 16005KT 6000 BECMG 2309/2310 23005KT TEMPO 2309/2315 SCT015 FEW020TCU/CB SCT100 BECMG 2318/2319 VRB02KT 5000 HZ", "TAF COR VOCI 222300Z 2300/2406 10005KT 2500 BR -RA SCT012 BKN080 BECMG 2303/2304 28010KT 5000 HZ -RA SCT015 SCT080 TEMPO 2310/2314 3000 -TSRA SCT012 FEW025CB BKN080 BECMG 2314/2315 3000 BR RA SCT015 BKN080 TEMPO 2322/2402 2500 BR RA SCT015 FEW025CB BKN080 BECMG 2403/2404 28010KT 5000 HZ -RA SCT015 BKN080", "TAF COR VOCL 222300Z 2300/2406 09005KT 3500 BR FEW012 BKN080 BECMG 2303/2304 5000 HZ -RA SCT015 SCT080 TEMPO 2310/2314 3000 -TSRA SCT012 FEW025CB BKN080 BECMG 2314/2315 08005KT 3500 BR RA SCT015 BKN080 TEMPO 2322/2402 2500 BR RA SCT015 FEW025CB BKN080 BECMG 2403/2404 5000 HZ -RA SCT015 BKN080", "TAF VOCP 222300Z 2300/2309 03008KT 4000 BR SCT015 TEMPO 2300/2303 VRB03KT 3000 BR SCT010 BECMG 2304/2306 08012KT 5000 HZ FEW020 SCT025", "TAF VOGO 221400Z 2215/2224 07004KT 6000 FEW012 SCT020 BKN090 TEMPO 2217/2221 4000 TSRA RA FEW010 SCT020 FEW025CB BKN090", "TAF VOHB 222300Z 2300/2406 09005KT 6000 SCT012 TEMPO 2300/2303 3000 BR SCT008 SCT012 TEMPO 2309/2315 SCT015 SCT020 FEW025CB TEMPO 2322/2403 3000 BR SCT008 SCT012", "TAF VOHS 222300Z 2300/2406 05006KT 4000 HZ FEW020 TEMPO 2300/2302 VRB03KT 1500 BR SCT010 BECMG 2303/2305 07010KT 5000 HZ SCT015 BECMG 2305/2307 05010KT 6000 SCT015 BECMG 2313/2315 05006KT 5000 HZ FEW020 BECMG 2321/2323 VRB04KT 3000 BR NSC TEMPO 2400/2402 VRB03KT 1500 BR SCT010 BECMG 2403/2405 07010KT 5000 HZ SCT015 SCT100", "TAF VOHY 222300Z 2300/2309 05006KT 4000 HZ FEW020 TEMPO 2300/2302 VRB03KT 1500 BR SCT010 BECMG 2303/2305 07010KT 5000 HZ SCT015 BECMG 2305/2307 05010KT 6000 SCT015", "TAF COR VOKN 222300Z 2300/2406 07005KT 2500 BR FEW004 SCT012 TEMPO 2300/2302 VRB02KT 1500 BR RA BECMG 2303/2304 22005KT 5000 HZ -RA SCT015 SCT080 TEMPO 2310/2314 3000 -TSRA SCT012 FEW025CB BKN080 BECMG 2314/2315 08005KT 3500 BR RA SCT015 BKN080 TEMPO 2322/2402 1500 BR RA SCT008 SCT012 BKN080 BECMG 2403/2404 5000 HZ -RA SCT015 BKN080", "TAF VOKU 222300Z 2300/2309 04008KT 4000 BR SCT015 TEMPO 2300/2303 VRB03KT 3000 BR SCT010 BECMG 2304/2306 07010KT 5000 HZ FEW020 SCT025", "TAF VOLT 222300Z 2300/2309 04006KT 3000 HZ FEW020 SCT100 BECMG 2304/2306 05010KT 4000 FU FEW020 SCT025", "TAF VOMD 221700Z 2218/2324 VRB02KT 5000 HZ FEW020 SCT100 TEMPO 2218/2224 SCT020 FEW025TCU/CB SCT100 BECMG 2303/2304 32005KT 6000 TEMPO 2306/2312 SCT020 FEW025TCU/CB SCT100 BECMG 2318/2319 VRB02KT 5000 HZ", "TAF VOML 222300Z 2300/2406 09005KT 3000 BR SCT005 SCT012 TEMPO 2300/2303 0800 FG SCT002 SCT012 BECMG 2304/2305 25010KT 6000 SCT012 SCT080 TEMPO 2309/2315 3000 TSRA RA SCT005 SCT012 FEW025CB BKN080 BECMG 2315/2316 09005KT BECMG 2322/2323 3000 BR SCT005 SCT012", "TAF VOMM 221700Z 2218/2324 02010KT 5000 BR SCT020 BKN100 TEMPO 2218/2221 SCT020 FEW025TCU/CB BKN100 TEMPO 2300/2303 3000 BR BECMG 2303/2304 32005KT BECMG 2306/2307 02010KT 6000 BECMG 2312/2313 5000 BR BECMG 2318/2319 VRB02KT", "TAF VOND 222300Z 2300/2309 02003KT 3000 BR HZ FEW020 SCT100 BECMG 2304/2306 05010KT 4000 HZ FU FEW020 SCT100 BECMG 2307/2309 11008KT 5000 FU SCT020 SCT025", "TAF VOPB 222100Z 2300/2309 21010KT 6000 SCT014 SCT020 BKN080 TEMPO 2300/2306 21012G22KT 2000 RA SCT012 SCT018 FEW022TCU OVC080", "TAF VORY 222300Z 2300/2406 35006KT 3000 HZ SCT020 TEMPO 2300/2302 VRB03KT 1500 BR SCT010 BECMG 2303/2305 08010KT 5000 HZ SCT015 BECMG 2305/2307 05010KT 6000 SCT015 SCT025 BECMG 2313/2315 05006KT 5000 HZ FEW020 BECMG 2321/2323 VRB04KT 3000 BR NSC TEMPO 2400/2402 VRB03KT 1500 BR SCT010 BECMG 2403/2405 07010KT 5000 HZ SCT015 SCT100", "TAF VOTP 222300Z 2300/2406 07006KT 4000 HZ SCT020 TEMPO 2300/2302 VRB03KT 1500 BR SCT010 BECMG 2303/2305 04010KT 5000 HZ SCT015 BECMG 2305/2307 05010KT 6000 SCT015 SCT025 TEMPO 2310/2315 FEW030CB BECMG 2315/2316 05006KT 5000 HZ FEW020 BECMG 2321/2323 VRB04KT 3000 BR NSC TEMPO 2400/2402 VRB03KT 1500 BR SCT010 BECMG 2403/2405 07010KT 5000 HZ SCT015 SCT100", "TAF VOTR 221700Z 2218/2324 05005KT 3000 BR SCT020 SCT100 BECMG 2221/2222 29005KT BECMG 2306/2307 5000 HZ BECMG 2309/2310 6000 BECMG 2312/2313 5000 HZ BECMG 2318/2319 VRB02KT 3000 BR", "TAF COR VOTV 222300Z 2300/2406 VRB02KT 2500 BR SCT015 SCT080 BECMG 2302/2304 28010KT 5000 HZ -RA SCT015 SCT080 TEMPO 2310/2314 3000 -TSRA SCT012 FEW025CB BKN080 BECMG 2314/2315 3000 BR RA SCT015 BKN080 TEMPO 2322/2402 2500 RA BR SCT012 FEW025CB BKN080 BECMG 2403/2404 29010KT 5000 HZ -RA SCT015 BKN080", "TAF VOVZ 222300Z 2300/2406 23005KT 4000 HZ BR FEW018 TEMPO 2300/2302 3000 BR BECMG 2303/2305 05004KT 4000 HZ FEW018 SCT080 TEMPO 2308/2312 02010G20KT FEW018 FEW022TCU SCT080 TEMPO 2314/2316 VRB02KT 4000 BR TEMPO 2322/2402 3000 BR BECMG 2403/2405 05004KT 4000 HZ FEW018 SCT080", "TAF VRMG 222300Z 2300/2406 20006KT 9999 FEW018 TEMPO 2300/2306 FEW018CB", "TAF VRMH 222300Z 2300/2406 25010KT 9999 FEW018TCU TEMPO 2300/2306 5000 TSRA FEW017CB", "TAF VRMM 222300Z 2300/2406 24015KT 8000 -RA FEW018TCU BKN110 TEMPO 2300/2306 4000 SHRA FEW018CB", "TAF VTBD 221700Z 2218/2324 35005KT 9000 FEW020 SCT080 BECMG 2300/2302 08005KT", "TAF VTBO 221700Z 2218/2318 10005KT 9000 FEW020 SCT080 BECMG 2300/2302 22005KT", "TAF VTBS 221700Z 2218/2324 01005KT 9000 FEW020 SCT080 BECMG 2300/2302 07008KT", "TAF VTBU 221700Z 2218/2318 01005KT 6000 FEW020 SCT100 BECMG 2301/2303 19008KT", "TAF VTCC 221700Z 2218/2324 02005KT 9999 SCT035 TEMPO 2218/2222 -TSRA FEW025CB BKN035 BECMG 2304/2306 16005KT BECMG 2310/2312 26005KT BECMG 2316/2318 36005KT", "TAF VTCH 221700Z 2218/2318 10005KT 9999 SCT025 TEMPO 2218/2222 -TSRA FEW025CB BKN025", "TAF VTCL 221700Z 2218/2318 06005KT 9999 FEW025", "TAF VTCN 221700Z 2218/2318 06005KT 9999 FEW025", "TAF VTCP 221700Z 2218/2318 36005KT 9999 FEW030", "TAF VTCT 221700Z 2218/2324 28005KT 9999 FEW035 BECMG 2222/2224 03005KT BECMG 2310/2312 30005KT", "TAF VTPB 221700Z 2218/2318 35005KT 9999 FEW030", "TAF VTPH 221700Z 2218/2318 33003KT 8000 SCT020 TEMPO 2220/2303 4000 RA BECMG 2303/2305 03006KT", "TAF VTPM 221700Z 2218/2318 08005KT 9999 SCT040", "TAF VTPO 221700Z 2218/2318 06005KT 9999 SCT025", "TAF VTPP 221700Z 2218/2318 02005KT 9999 FEW030", "TAF VTSB 221700Z 2218/2318 00000KT 8000 SCT020 BECMG 2220/2222 3000 BR BECMG 2301/2303 9999 NSW TEMPO 2306/2313 VRB15G25KT 3000 TSRA FEW016CB SCT018 BKN100", "TAF VTSC 221700Z 2218/2318 19005KT 8000 -RA SCT018 BKN100 BECMG 2300/2302 02010KT NSW TEMPO 2308/2318 VRB15G25KT 3000 TSRA FEW016CB SCT018 BKN100", "TAF VTSE 221700Z 2218/2318 00000KT 8000 SCT020 TEMPO 2300/2312 VRB15G25KT 3000 RA", "TAF VTSF 221700Z 2218/2318 00000KT 9999 SCT020 BKN100 TEMPO 2218/2224 3000 RA BECMG 2303/2305 07006KT TEMPO 2306/2315 VRB15G25KT 3000 TSRA FEW016CB SCT018 BKN100 BECMG 2316/2318 00000KT", "TAF VTSG 221700Z 2218/2318 00000KT 9999 FEW020 BECMG 2300/2302 06006KT BECMG 2312/2314 00000KT", "TAF VTSM 221700Z 2218/2318 33005KT 9999 SCT020 TEMPO 2300/2306 4000 RA TEMPO 2312/2318 4000 RA", "TAF VTSP 221700Z 2218/2324 00000KT 9999 FEW020 BECMG 2220/2222 10006KT BECMG 2304/2306 30006KT BECMG 2312/2314 00000KT", "TAF VTSR 221700Z 2218/2318 00000KT 9999 FEW020 BECMG 2302/2304 10006KT BECMG 2312/2314 00000KT", "TAF VTSS 221700Z 2218/2318 00000KT 9000 FEW020 BKN100 BECMG 2222/2224 3000 BR BECMG 2301/2303 06006KT 9999 NSW TEMPO 2306/2313 VRB15G25KT 3000 TSRA FEW016CB SCT018 BKN100 BECMG 2313/2315 00000KT", "TAF VTST 221700Z 2218/2318 00000KT 9999 FEW020 BECMG 2300/2302 06006KT BECMG 2312/2314 00000KT", "TAF VTUD 221700Z 2218/2318 07005KT 9999 FEW030", "TAF VTUI 221700Z 2218/2318 09005KT 9000 FEW030", "TAF VTUK 221700Z 2218/2318 04005KT 9000 FEW030", "TAF VTUL 221700Z 2218/2318 08005KT 9000 SCT030", "TAF VTUO 221700Z 2218/2318 04006KT 9999 FEW025", "TAF VTUQ 221700Z 2218/2318 04006KT 9999 FEW025", "TAF VTUU 221700Z 2218/2318 03006KT CAVOK", "TAF VTUV 221700Z 2218/2318 05006KT 9999 FEW025", "TAF VTUW 221700Z 2218/2318 08005KT 9000 FEW030", "TAF VVNB 221700Z 2218/2318 32005KT 7000 SCT020", "TAF VVTS 221700Z 2218/2324 VRB03KT 9999 SCT015 SCT040 BECMG 2221/2222 5000 BR BECMG 2300/2301 09010KT 9999 NSW TEMPO 2309/2312 TS SCT015 FEW017CB", "TAF VYMD 221100Z 2212/2312 18004KT 7000 FEW025 TEMPO 2212/2218 19005KT 7000 SCT020", "TAF VYNT 221700Z 2218/2318 30005KT 7000 BKN018 FEW020CB BKN110 TEMPO 2218/2224 34004KT 6000 BKN018 FEW023CB BKN100", "TAF VYYY 221700Z 2218/2318 14005KT 7000 BKN015 FEW020CB BKN090 TEMPO 2218/2224 5000 -RA TEMPO 2300/2306 4000 RA BKN012 FEW018CB OVC090 TEMPO 2306/2312 15008G18KT 4000 TSRA", "TAF WAAA 222300Z 2300/2406 28008KT 9999 SCT019 TEMPO 2307/2309 5000 TSRA FEW018CB BECMG 2310/2312 10003KT", "TAF WABB 222300Z 2300/2406 25006KT 9999 SCT015 TEMPO 2300/2302 5000 RA BKN013", "TAF WADD 222300Z 2300/2400 VRB05KT 9999 SCT016", "TAF WADL 222300Z 2300/2324 07010KT 7000 BKN016 PROB40 TEMPO 2305/2308 3000 -TSRA FEW015CB", "TAF WALL 222300Z 2300/2406 32003KT 9999 FEW020", "TAF WALS 222300Z 2300/2312 36003KT 9999 FEW018", "TAF WAMM 222300Z 2300/2406 16009KT 9999 SCT020 TEMPO 2304/2307 5000 RA FEW017CB BECMG 2310/2312 VRB02KT", "TAF COR WAOO 222300Z 2300/2324 06004KT 9999 SCT018 TEMPO 2305/2309 3000 TSRA FEW015CB", "TAF WAPP 222300Z 2300/2324 20010KT 9999 SCT018", "TAF WAQA 222300Z 2300/2312 16003KT 8000 FEW012", "TAF WAQD 222300Z 2300/2312 06003KT 8000 FEW012", "TAF WAQJ 222300Z 2300/2312 18003KT 8000 FEW012", "TAF WAQQ 222300Z 2300/2312 29005KT 9999 FEW015", "TAF WAQT 222300Z 2300/2312 35003KT 8000 FEW015", "TAF WARR 222300Z 2300/2400 25005KT 5000 HZ FEW020 BECMG 2301/2303 08010KT 9999 NSW BECMG 2312/2314 25005KT BECMG 2316/2318 5000 HZ", "TAF WATT 222300Z 2300/2324 18006KT 9999 SCT016 BECMG 2301/2303 30013KT PROB40 TEMPO 2305/2309 4000 -RA FEW015CB BKN016", "TAF WBGB 222300Z 2300/2400 VRB03KT 9999 FEW016 TEMPO 2307/2311 5000 TSRA SCT014 FEW015CB", "TAF WBGG 222300Z 2300/2400 VRB03KT 9999 FEW020 TEMPO 2306/2310 5000 TSRA FEW015CB SCT020", "TAF WBGR 222300Z 2300/2400 VRB03KT 9999 FEW014", "TAF WBGS 222300Z 2300/2400 VRB03KT 9999 FEW018 TEMPO 2306/2310 3000 TSRA FEW015CB SCT020", "TAF WBKK 222300Z 2300/2400 22005KT 9999 FEW014 TEMPO 2300/2304 4000 RA FEW014 SCT035 BECMG 2312/2314 12005KT", "TAF WBKL 222300Z 2300/2324 VRB02KT 9999 FEW015 PROB40 TEMPO 2312/2316 4000 TSRA FEW016CB SCT025", "TAF WBKS 222300Z 2300/2324 06005KT 9999 FEW015 TEMPO 2300/2304 5000 TSRA FEW016CB SCT045 BECMG 2312/2314 24005KT", "TAF WBKW 222300Z 2300/2324 VRB02KT 9999 FEW016", "TAF WBSB 222300Z 2300/2406 17003KT 9999 FEW005 FEW015CB BECMG 2302/2304 28008KT SCT015 FEW016CB TEMPO 2308/2312 5000 TSRA SCT014 FEW015CB", "TAF WIDD 222300Z 2300/2324 34007KT 9999 SCT014 PROB30 TEMPO 2305/2309 5000 -TSRA FEW013CB", "TAF WIEE 222300Z 2300/2324 28007KT 9999 SCT020", "TAF WIHH 222300Z 2300/2400 16006KT 6000 SCT020 TEMPO 2307/2311 24010KT 3000 RA FEW017CB BECMG 2313/2315 VRB03KT 5000 HZ SCT018", "TAF WIII 222300Z 2300/2406 22003KT 8000 SCT020 BECMG 2305/2307 33010KT TEMPO 2307/2310 5000 -TSRA FEW018CB BECMG 2314/2316 5000 HZ", "TAF WIMM 222300Z 2300/2400 VRB05KT 4000 -TSRA FEW016CB SCT017 BECMG 2302/2304 02010KT 9999 NSW TEMPO 2306/2308 VRB12KT 4000 -TSRA FEW016CB BECMG 2310/2312 VRB05KT 5000 HZ", "TAF WIPB 222300Z 2300/2312 36005KT 9999 SCT010 TEMPO 2300/2303 4000 -RA FEW010CB BKN011", "TAF WIPP 222300Z 2300/2324 32007KT 9999 SCT010 TEMPO 2304/2308 4000 -TSRA FEW010CB BKN011 TEMPO 2321/2324 5000 BR", "TAF WIPY 222300Z 2300/2312 23005KT 9999 SCT010 TEMPO 2300/2302 5000 BR TEMPO 2305/2309 3000 RA FEW009CB BKN010", "TAF WITT 222300Z 2300/2324 15007KT 9999 SCT018 PROB30 TEMPO 2306/2309 34008KT 5000 RA FEW015CB BKN017 TEMPO 2318/2321 BKN017", "TAF WMAP 222300Z 2300/2324 35005KT 9999 FEW018 TEMPO 2308/2314 3000 TSRA FEW008 FEW017CB", "TAF WMBT 222300Z 2300/2324 VRB02KT 9999 FEW020 TEMPO 2300/2304 4000 TSRA FEW017CB", "TAF WMKA 222300Z 2300/2324 VRB03KT 9999 FEW020 BECMG 2304/2306 25006KT TEMPO 2308/2312 6000 TSRA FEW010 FEW017CB", "TAF WMKB 222300Z 2300/2324 VRB02KT 8000 FEW020 BECMG 2304/2306 34006KT 9999 BECMG 2312/2314 VRB02KT 8000 FEW024", "TAF WMKC 222300Z 2300/2324 34006KT 9999 FEW018 TEMPO 2306/2310 6000 TSRA FEW017CB", "TAF WMKE 222300Z 2300/2324 VRB02KT 9999 FEW017 TEMPO 2306/2310 6000 TSRA FEW014CB", "TAF WMKI 222300Z 2300/2324 05005KT 9999 FEW020 PROB30 TEMPO 2309/2311 8000 TS FEW017CB BECMG 2312/2314 VRB02KT 8000 FEW026", "TAF WMKJ 222300Z 2300/2400 33005KT 9999 FEW017CB TEMPO 2308/2314 3000 TSRA FEW016CB SCT018", "TAF WMKK 222300Z 2300/2406 32005KT 9999 FEW017CB TEMPO 2305/2310 31010KT 3000 TSRA FEW017CB SCT018", "TAF WMKL 222300Z 2300/2324 VRB03KT 9999 FEW020 BECMG 2304/2306 25007KT TEMPO 2307/2312 6000 TSRA FEW010 FEW017CB", "TAF WMKM 222300Z 2300/2324 03005KT 9999 FEW018 TEMPO 2306/2310 3000 TSRA FEW017CB PROB30 TEMPO 2314/2318 4000 TSRA FEW008 FEW017CB", "TAF WMKN 222300Z 2300/2324 34006KT 9999 FEW018 TEMPO 2306/2310 6000 TSRA FEW017CB", "TAF WMKP 222300Z 2300/2400 00000KT 9000 FEW020 BECMG 2304/2306 22006KT TEMPO 2308/2312 6000 TSRA FEW010 FEW017CB", "TAF WMPA 222300Z 2300/2324 VRB02KT 9999 FEW021", "TAF WMSA 222300Z 2300/2400 VRB02KT 9999 FEW017CB TEMPO 2307/2312 4000 TSRA FEW017CB SCT018", "TAF WSAP 222300Z 2300/2406 32007KT 9999 FEW015 BKN020 TEMPO 2306/2310 3000 TSRA FEW012CB BKN015", "TAF WSSL 222300Z 2300/2406 32007KT 9999 FEW015 BKN020 TEMPO 2306/2310 3000 TSRA FEW012CB BKN015", "TAF WSSS 222300Z 2300/2406 32007KT 9999 FEW015 BKN020 TEMPO 2306/2310 3000 TSRA FEW012CB BKN015", "TAF YBAS 222300Z 2300/2400 15010KT CAVOK FM230800 17014G24KT CAVOK FM231000 15010KT CAVOK", "TAF AMD YBBN 222313Z 2300/2406 14014KT 9000 -RA SCT008 BKN015 FM230600 20012KT 9999 -SHRA SCT010 BKN020 FM231200 27010KT 9999 NSW FEW012 SCT020 FM231800 30010KT 9999 FEW020 TEMPO 2300/2306 3000 SHRA SCT005 BKN008 INTER 2306/2310 4000 SHRA SCT008 BKN010", "TAF AMD YBCS 222310Z 2300/2400 02010KT 9999 FEW030 FM230900 02006KT 9999 SCT018 FM232300 02010KT 9999 FEW025 TEMPO 2312/2321 9999 BKN016", "TAF AMD YBRK 222306Z 2300/2400 24010KT 9999 SCT040 FM230900 VRB03KT CAVOK FM231600 VRB03KT 9999 SCT010 FM232200 34008KT 9999 SCT020 TEMPO 2316/2322 9999 BKN010", "TAF YBRM 221727Z 2218/2318 26008KT 9999 FEW010 FM230000 26014KT CAVOK FM231000 25008KT CAVOK", "TAF AMD YBTL 222311Z 2300/2400 36012KT 9999 SCT025 FM230200 02014KT 9999 SCT035 FM231000 34006KT 9999 SCT015 TEMPO 2310/2322 9999 BKN016", "TAF AMD YMHB 222328Z 2300/2400 17016G26KT 9999 BKN045 FM230400 16012KT 9999 BKN045 FM231200 11010KT 9999 BKN040", "TAF AMD YMML 222222Z 2222/2400 17010KT 9999 SCT010 BKN013 FM222330 17010KT 9999 -DZ SCT012 BKN020 FM230030 18010KT 9999 NSW BKN025 FM230200 17012KT 9999 SCT040 FM231200 14006KT 9999 -RA FEW020 BKN050 TEMPO 2316/2400 5000 RA BKN015", "TAF YPAD 222032Z 2221/2400 15012KT 9999 FEW030 FM230000 15014KT 9999 -SHRA SCT030 FM231000 18012KT 9999 NSW SCT020", "TAF YPCC 221724Z 2218/2318 13010KT 9999 SCT025", "TAF YPDN 222008Z 2221/2400 28010KT 9999 FEW020", "TAF AMD YPEA 222308Z 2300/2318 05005KT CAVOK FM230200 02005KT 9999 -RA SCT045 FM230700 20010KT 9999 -RA FEW020 BKN045 FM231200 19006KT 9999 -SHRA BKN020 INTER 2306/2315 5000 -RA SCT020", "TAF YPLM 221725Z 2218/2318 23010KT CAVOK FM230400 25017KT CAVOK FM231300 23010KT 9999 SCT018", "TAF YPPD 221726Z 2218/2318 26010KT CAVOK BECMG 2302/2303 29018KT CAVOK FM231400 26013KT CAVOK", "TAF AMD YPPH 222307Z 2300/2406 05005KT CAVOK FM230200 02005KT 9999 -RA SCT045 FM230700 20010KT 9999 -RA FEW020 BKN045 FM231200 19006KT 9999 -SHRA BKN020 FM231800 21006KT 9999 -DZ BKN010 FM240000 23012KT 9999 -SHRA BKN030 INTER 2306/2315 5000 -RA SCT020 INTER 2400/2406 5000 SHRA BKN020", "TAF YPTN 222058Z 2221/2318 32006KT 9999 FU HZ SCT010 FM230000 29010KT CAVOK FM230900 36006KT CAVOK FM231300 31006KT CAVOK", "TAF AMD YPXM 222201Z 2222/2318 08008KT 9999 -SHRA SCT015 BKN050 BECMG 2307/2308 18005KT 9999 -SHRA BKN012 BECMG 2312/2314 16005KT 8000 -SHRA BKN008 TEMPO 2312/2318 0500 SHRA BKN002 PROB30 TEMPO 2314/2318 VRB15G25KT 0200 TSRA BKN001 SCT020CB", "TAF AMD YSCB 222309Z 2223/2400 12011KT 9999 -SHRA SCT010 BKN025 BECMG 2311/2313 12007KT 9999 NSW SCT010 BKN018 BECMG 2318/2320 11008KT 9999 -DZ SCT008 BKN015 BECMG 2322/2400 11010KT 9999 NSW BKN020 INTER 2223/2308 VRB20G30KT 3000 SHRA BKN010 SCT030TCU TEMPO 2318/2322 4000 DZ BKN008", "TAF YSDU 222322Z 2300/2318 36005KT 9999 -SHRA BKN035 BECMG 2312/2314 10010KT 9999 NSW SCT015 TEMPO 2300/2308 4000 SHRA BKN030", "TAF AMD YSNF 222123Z 2221/2318 08016G26KT 9999 -SHRA SCT025 FM230000 08022G35KT 9999 -SHRA SCT015 BKN025", "TAF YSRI 221715Z 2218/2318 03006KT 9999 -SHRA SCT010 FM222300 07008KT 9999 -SHRA FEW015 BKN025 FM231000 VRB03KT 9999 -SHRA BKN018 FM231500 VRB03KT 9999 -SHRA BKN010 INTER 2218/2318 3000 SHRA BKN008 PROB30 TEMPO 2301/2310 VRB20G35KT 2000 TSRA BKN008 SCT025CB", "TAF AMD YSSY 222133Z 2221/2400 04008KT 9999 -SHRA SCT012 BKN025 FM230000 05014KT 9999 -SHRA SCT025 FM230800 07012KT 9999 -SHRA BKN015 FM231600 08012KT 9999 -SHRA BKN010 INTER 2221/2223 3000 SHRA BKN008 TEMPO 2223/2302 3000 SHRA BKN008 INTER 2302/2304 3000 SHRA BKN012 INTER 2310/2315 3000 SHRA BKN008 TEMPO 2315/2400 2000 SHRA BKN005", "TAF ZBAA 222101Z 2300/2324 33004MPS CAVOK TX21/2307Z TN04/2321Z", "TAF ZBAD 222114Z 2300/2324 01004MPS 5000 BR NSC TX21/2307Z TN04/2321Z", "TAF ZBHH 222100Z 2300/2324 24004MPS CAVOK TX15/2307Z TN00/2322Z", "TAF ZBSJ 222116Z 2300/2324 15003MPS 4000 BR NSC TX24/2306Z TN07/2321Z", "TAF ZBTJ 222114Z 2300/2324 33003MPS 3000 BR NSC TX22/2306Z TN08/2321Z", "TAF ZBYN 222101Z 2300/2324 35004MPS 5000 HZ NSC TX21/2307Z TN03/2321Z", "TAF ZGGG 222102Z 2300/2324 03005MPS 8000 FEW040 TX34/2307Z TN21/2322Z", "TAF ZGHA 222101Z 2300/2324 35004MPS 6000 SCT040 TX30/2307Z TN18/2322Z", "TAF ZGKL 222111Z 2300/2324 05003MPS CAVOK TX34/2307Z TN20/2322Z", "TAF ZGNN 222106Z 2300/2324 36003MPS 5000 BR FEW033 TX33/2307Z TN19/2322Z", "TAF ZGOW 222105Z 2300/2324 11003MPS 5000 BR FEW020 SCT040 TX30/2306Z TN20/2322Z", "TAF ZGSZ 222108Z 2300/2324 03004MPS 8000 FEW040 TX31/2306Z TN23/2322Z BECMG 2307/2308 18004MPS BECMG 2311/2312 11004MPS", "TAF ZHCC 222112Z 2300/2324 12003MPS 5000 HZ NSC TX23/2307Z TN09/2322Z", "TAF ZHHH 222101Z 2300/2324 07003MPS 6000 NSC TX28/2307Z TN14/2321Z", "TAF ZJHK 222112Z 2300/2324 03003MPS 5000 BR SCT020 TX28/2306Z TN21/2321Z TEMPO 2320/2324 SHRA SCT020 SCT026CB", "TAF ZJSY 222105Z 2300/2324 09004MPS 9999 FEW020 TX30/2306Z TN22/2321Z", "TAF ZKPY 222100Z 2300/2324 35005MPS CAVOK TX15/2306Z TN03/2321Z", "TAF ZKWS 222100Z 2300/2324 29004MPS 9999 BKN033 TX15/2306Z TN10/2321Z TEMPO 2300/2305 6000 -RA OVC020 BECMG 2306/2308 CAVOK", "TAF ZLLL 222105Z 2300/2324 16003MPS 6000 NSC TX17/2308Z TN03/2323Z", "TAF ZLXY 222101Z 2300/2324 06003MPS 3000 HZ NSC TX22/2308Z TN12/2323Z", "TAF ZMCK 222234Z 2300/2406 VRB02MPS 9999 SCT100 TX12/2307Z TNM04/2322Z", "TAF ZMUB 222234Z 2300/2406 VRB02MPS 9999 SCT100 TX12/2307Z TNM09/2322Z", "TAF ZPPP 222110Z 2300/2324 04004MPS 3100 BR SCT026 BKN033 TX18/2308Z TN12/2323Z", "TAF ZSAM 222104Z 2300/2324 06004G09MPS 8000 BKN030 TX29/2306Z TN21/2321Z", "TAF ZSFZ 222105Z 2300/2324 03009MPS 6000 BKN030 TX25/2306Z TN20/2321Z", "TAF ZSHC 222102Z 2300/2324 02004MPS 3000 BR SCT020 TX24/2306Z TN12/2321Z", "TAF ZSJN 222102Z 2300/2324 20003MPS 3500 BR NSC TX21/2306Z TN04/2321Z", "TAF ZSNB 222111Z 2300/2324 01005G10MPS 6000 SCT030 TX22/2306Z TN14/2321Z", "TAF ZSNJ 222103Z 2300/2324 05004MPS 3000 BR NSC TX23/2306Z TN10/2322Z", "TAF ZSOF 222102Z 2300/2324 06003MPS 5000 HZ NSC TX24/2307Z TN10/2321Z", "TAF ZSPD 222110Z 2300/2324 02005MPS 6000 BKN015 TX23/2306Z TN15/2320Z", "TAF ZSQD 222107Z 2300/2324 34004MPS 3500 BR NSC TX19/2306Z TN06/2321Z", "TAF ZSSS 222104Z 2300/2324 02004MPS 6000 BKN015 TX23/2306Z TN16/2320Z", "TAF ZUCK 222102Z 2300/2324 33003MPS 6000 SCT040 TX24/2307Z TN19/2321Z", "TAF ZUGY 222107Z 2300/2324 02003MPS 6000 BKN033 TX25/2307Z TN15/2322Z", "TAF ZUUU 222102Z 2300/2324 02003MPS 6000 SCT050 TX27/2307Z TN14/2321Z", "TAF ZWSH 222103Z 2300/2324 32005MPS 8000 FEW040 TX18/2309Z TN09/2300Z BECMG 2307/2308 14004MPS BECMG 2316/2317 32005MPS", "TAF ZWWW 222104Z 2300/2324 15004G09MPS CAVOK TX16/2309Z TN09/2300Z BECMG 2302/2303 34004MPS", "TAF ZYCC 222101Z 2300/2324 32005MPS 6000 SCT030 TX08/2306Z TNM05/2321Z", "TAF ZYHB 222104Z 2300/2324 34004MPS 6000 SCT030 TX08/2306Z TNM02/2321Z", "TAF ZYTL 222101Z 2300/2324 34004G10MPS 6000 FEW033 TX16/2306Z TN07/2322Z", "TAF ZYTX 222102Z 2300/2324 34004MPS 6000 NSC TX14/2306Z TNM01/2321Z"]}