{"station_id": ["AGGH", "ANYN", "AYMH", "AYNZ", "AYPY", "BGBW", "BGGH", "BGJN", "BGKK", "BGSF", "BGTL", "BIAR", "BIEG", "BIIS", "BIKF", "BIRK", "BKPR", "CAHR", "CBAR", "CBBC", "CERM", "CMFM", "CMGB", "CPBT", "CPEH", "CPFI", "CPIN", "CPIR", "CPRO", "CPRY", "CPST", "CPSV", "CTCK", "CTNK", "CTRA", "CWAF", "CWAQ", "CWAR", "CWAV", "CWBA", "CWBK", "CWBO", "CWBS", "CWBT", "CWBU", "CWBV", "CWBY", "CWBZ", "CWCF", "CWCI", "CWCJ", "CWCT", "CWDA", "CWDC", "CWDJ", "CWDK", "CWDM", "CWDO", "CWDQ", "CWDV", "CWDZ", "CWEE", "CWEF", "CWEH", "CWEK", "CWEL", "CWEP", "CWEQ", "CWER", "CWEU", "CWEW", "CWEZ", "CWFF", "CWFJ", "CWFQ", "CWGB", "CWGD", "CWGH", "CWGL", "CWGM", "CWGR", "CWGT", "CWGW", "CWGY", "CWHI", "CWHL", "CWHO", "CWHP", "CWHQ", "CWHT", "CWHV", "CWID", "CWIG", "CWII", "CWIJ", "CWIK", "CWIL", "CWIP", "CWIS", "CWIT", "CWIW", "CWIZ", "CWJB", "CWJC", "CWJD", "CWJH", "CWJI", "CWJO", "CWJR", "CWJT", "CWJU", "CWJV", "CWJW", "CWJX", "CWKD", "CWKG", "CWKH", "CWKK", "CWKO", "CWKX", "CWLB", "CWLC", "CWLE", "CWLM", "CWLP", "CWLS", "CWLX", "CWLY", "CWME", "CWMJ", "CWMM", "CWMQ", "CWMT", "CWNC", "CWND", "CWNE", "CWNH", "CWNK", "CWNM", "CWNP", "CWNQ", "CWNZ", "CWOB", "CWOC", "CWOD", "CWOY", "CWPD", "CWPE", "CWPF", "CWPK", "CWPO", "CWPR", "CWPZ", "CWQH", "CWQK", "CWQO", "CWQP", "CWQR", "CWQS", "CWQV", "CWRA", "CWRJ", "CWRK", "CWRM", "CWRN", "CWRO", "CWRT", "CWRU", "CWRX", "CWRY", "CWRZ", "CWSA", "CWSD", "CWSF", "CWSG", "CWSK", "CWSL", "CWSP", "CWSR", "CWSS", "CWST", "CWSW", "CWTA", "CWTG", "CWTN", "CWTT", "CWTY", "CWUS", "CWUW", "CWUX", "CWVD", "CWVF", "CWVI", "CWVN", "CWVP", "CWVQ", "CWVT", "CWVU", "CWWA", "CWWB", "CWWE", "CWWF", "CWWK", "CWWL", "CWWS", "CWWZ", "CWXA", "CWXC", "CWXI", "CWXL", "CWYJ", "CWYL", "CWYY", "CWZA", "CWZG", "CWZL", "CWZN", "CWZO", "CWZQ", "CWZW", "CXAF", "CXAG", "CXAJ", "CXAK", "CXBA", "CXBI", "CXBK", "CXBO", "CXBR", "CXBW", "CXCA", "CXCD", "CXCK", "CXCP", "CXCS", "CXDB", "CXDE", "CXDI", "CXDK", "CXDW", "CXEA", "CXEC", "CXEG", "CXET", "CXFM", "CXFR", "CXGH", "CXHA", "CXHD", "CXHP", "CXHR", "CXIB", "CXKA", "CXKE", "CXKI", "CXKM", "CXKT", "CXLB", "CXLC", "CXLL", "CXMD", "CXMG", "CXMI", "CXMM", "CXMO", "CXMY", "CXNM", "CXNP", "CXOL", "CXOX", "CXOY", "CXPA", "CXPC", "CXPL", "CXRB", "CXRH", "CXRL", "CXSC", "CXSE", "CXSH", "CXSL", "CXSP", "CXTD", "CXTH", "CXTN", "CXTO", "CXTP", "CXTV", "CXVM", "CXVN", "CXVW", "CXWB", "CXWM", "CXWN", "CXYH", "CXZC", "CXZV", "CYAH", "CYAM", "CYAT", "CYAY", "CYAZ", "CYBB", "CYBC", "CYBD", "CYBG", "CYBK", "CYBL", "CYBQ", "CYBR", "CYBU", "CYBV", "CYBW", "CYBX", "CYCA", "CYCB", "CYCD", "CYCG", "CYCK", "CYCO", "CYCP", "CYCQ", "CYCS", "CYCY", "CYDA", "CYDB", "CYDC", "CYDF", "CYDL", "CYDN", "CYDP", "CYDQ", "CYED", "CYEG", "CYEK", "CYEN", "CYER", "CYET", "CYEV", "CYFB", "CYFC", "CYFO", "CYFR", "CYFS", "CYGE", "CYGH", "CYGK", "CYGL", "CYGP", "CYGR", "CYGT", "CYGV", "CYGW", "CYGX", "CYHD", "CYHK", "CYHM", "CYHU", "CYHY", "CYHZ", "CYIN", "CYIO", "CYIV", "CYJT", "CYKA", "CYKD", "CYKF", "CYKJ", "CYKL", "CYKQ", "CYKY", "CYLA", "CYLD", "CYLH", "CYLJ", "CYLL", "CYLW", "CYMA", "CYMH", "CYMJ", "CYMM", "CYMO", "CYMT", "CYMX", "CYNA", "CYND", "CYNE", "CYNM", "CYOD", "CYOJ", "CYOO", "CYOW", "CYPA", "CYPC", "CYPD", "CYPE", "CYPG", "CYPH", "CYPL", "CYPO", "CYPQ", "CYPR", "CYPW", "CYPX", "CYPY", "CYQA", "CYQB", "CYQD", "CYQF", "CYQG", "CYQH", "CYQI", "CYQK", "CYQL", "CYQM", "CYQQ", "CYQR", "CYQT", "CYQU", "CYQV", "CYQW", "CYQX", "CYQY", "CYQZ", "CYRA", "CYRB", "CYRJ", "CYRL", "CYRQ", "CYRT", "CYRV", "CYSB", "CYSC", "CYSF", "CYSJ", "CYSK", "CYSM", "CYSN", "CYSP", "CYTE", "CYTH", "CYTL", "CYTR", "CYTS", "CYTZ", "CYUA", "CYUB", "CYUL", "CYUT", "CYUX", "CYUY", "CYVC", "CYVL", "CYVM", "CYVO", "CYVP", "CYVQ", "CYVR", "CYVT", "CYVV", "CYWE", "CYWG", "CYWH", "CYWJ", "CYWK", "CYWL", "CYXC", "CYXE", "CYXH", "CYXJ", "CYXL", "CYXN", "CYXP", "CYXQ", "CYXR", "CYXS", "CYXT", "CYXU", "CYXX", "CYXY", "CYXZ", "CYYB", "CYYC", "CYYD", "CYYE", "CYYF", "CYYG", "CYYH", "CYYJ", "CYYL", "CYYN", "CYYQ", "CYYR", "CYYT", "CYYU", "CYYW", "CYYY", "CYYZ", "CYZE", "CYZF", "CYZG", "CYZH", "CYZP", "CYZR", "CYZS", "CYZT", "CYZU", "CYZV", "CYZW", "CYZX", "CYZY", "CZBF", "CZCP", "CZCR", "CZDB", "CZEL", "CZEV", "CZFA", "CZFM", "CZFN", "CZFS", "CZHY", "CZKD", "CZMD", "CZMJ", "CZMT", "CZOL", "CZPC", "CZPS", "CZSJ", "CZSM", "CZSP", "CZST", "CZTB", "CZUM", "CZVL", "CZZJ", "DAAE", "DAAG", "DAAJ", "DAAP", "DAAS", "DAAT", "DAAV", "DAAY", "DABB", "DABC", "DABS", "DABT", "DAOB", "DAOF", "DAOI", "DAOL", "DAON", "DAOO", "DAOR", "DAOV", "DAOY", "DAUA", "DAUB", "DAUE", "DAUG", "DAUH", "DAUI", "DAUK", "DAUL", "DAUO", "DAUT", "DAUU", "DAUZ", "DBBB", "DFFD", "DFOO", "DGAA", "DIAP", "DIBK", "DIYO", "DNAA", "DNIB", "DNIL", "DNKN", "DNMM", "DNPO", "DNYO", "DNZA", "DRRN", "DRRT", "DTKA", "DTMB", "DTNH", "DTTA", "DTTB", "DTTD", "DTTF", "DTTG", "DTTJ", "DTTK", "DTTL", "DTTN", "DTTR", "DTTX", "DTTZ", "DXNG", "DXSK", "DXXX", "EBAW", "EBBE", "EBBL", "EBBR", "EBCI", "EBCV", "EBDT", "EBFN", "EBFS", "EBLB", "EBLG", "EBOS", "EDAC", "EDAH", "EDBC", "EDDB", "EDDC", "EDDE", "EDDF", "EDDG", "EDDH", "EDDK", "EDDL", "EDDM", "EDDN", "EDDP", "EDDR", "EDDS", "EDDV", "EDDW", "EDFH", "EDFM", "EDGS", "EDHI", "EDHK", "EDHL", "EDJA", "EDLN", "EDLP", "EDLV", "EDLW", "EDMA", "EDMO", "EDNY", "EDQM", "EDSB", "EDTL", "EDTY", "EDVE", "EDVK", "EDWE", "EEEI", "EEKE", "EEPU", "EETN", "EETU", "EFET", "EFHA", "EFHK", "EFIV", "EFJO", "EFJY", "EFKE", "EFKI", "EFKK", "EFKS", "EFKT", "EFKU", "EFLP", "EFMA", "EFMI", "EFOU", "EFPO", "EFRO", "EFSA", "EFSI", "EFTP", "EFTU", "EFUT", "EFVA", "EGAA", "EGAC", "EGBB", "EGCC", "EGCK", "EGDM", "EGDR", "EGDY", "EGFF", "EGGD", "EGGP", "EGGW", "EGHH", "EGHQ", "EGJB", "EGJJ", "EGKB", "EGKK", "EGLC", "EGLF", "EGLL", "EGMC", "EGMD", "EGNJ", "EGNM", "EGNS", "EGNT", "EGNX", "EGOM", "EGOP", "EGOS", "EGOV", "EGPA", "EGPB", "EGPC", "EGPD", "EGPE", "EGPF", "EGPH", "EGPI", "EGPK", "EGPL", "EGPO", "EGPU", "EGQA", "EGQK", "EGQL", "EGQM", "EGQS", "EGSH", "EGSS", "EGSY", "EGTE", "EGTK", "EGUB", "EGUN", "EGUW", "EGVA", "EGVN", "EGVO", "EGVP", "EGWC", "EGWU", "EGXC", "EGXE", "EGXS", "EGXT", "EGXV", "EGXW", "EGXZ", "EGYD", "EGYE", "EGYH", "EGYM", "EGYP", "EHAK", "EHAM", "EHBK", "EHDL", "EHDV", "EHEH", "EHFD", "EHFS", "EHGG", "EHGR", "EHHW", "EHJA", "EHJR", "EHKD", "EHKV", "EHLE", "EHLW", "EHMA", "EHMG", "EHPG", "EHRD", "EHSA", "EHSC", "EHVK", "EHVL", "EHWO", "EICK", "EIDW", "EIME", "EINN", "EKAH", "EKBI", "EKCH", "EKEB", "EKKA", "EKRK", "EKRN", "EKRS", "EKSB", "EKSP", "EKVD", "EKVG", "EKYT", "ELLX", "ENAL", "ENAN", "ENAT", "ENBL", "ENBN", "ENBO", "ENBR", "ENBS", "ENBV", "ENCN", "ENDR", "ENDU", "ENEV", "ENFB", "ENFL", "ENGC", "ENGM", "ENHD", "ENHE", "ENHF", "ENHK", "ENHM", "ENHV", "ENJS", "ENKB", "ENKR", "ENLA", "ENLE", "ENMH", "ENML", "ENMS", "ENNA", "ENNE", "ENNM", "ENOA", "ENOL", "ENQA", "ENQC", "ENQR", "ENRA", "ENRM", "ENRO", "ENRS", "ENRY", "ENSB", "ENSD", "ENSE", "ENSG", "ENSH", "ENSK", "ENSL", "ENSR", "ENSS", "ENST", "ENTC", "ENTO", "ENUG", "ENUN", "ENVA", "ENVD", "ENWV", "ENZV", "EPBY", "EPGD", "EPKK", "EPKT", "EPLB", "EPLL", "EPMO", "EPPO", "EPRZ", "EPSC", "EPSY", "EPWA", "EPWR", "ESCF", "ESCM", "ESDF", "ESGG", "ESGJ", "ESGP", "ESGT", "ESIA", "ESIB", "ESKM", "ESKN", "ESMK", "ESMQ", "ESMS", "ESMT", "ESMV", "ESMX", "ESND", "ESNG", "ESNK", "ESNL", "ESNN", "ESNO", "ESNQ", "ESNS", "ESNU", "ESNV", "ESNX", "ESNZ", "ESOE", "ESOH", "ESOK", "ESPA", "ESPE", "ESSA", "ESSB", "ESSD", "ESSL", "ESSP", "ESST", "ESSV", "ESTA", "ESUP", "ESUT", "ETAD", "ETAR", "ETEB", "ETGG", "ETHA", "ETHB", "ETHC", "ETHF", "ETHL", "ETHN", "ETHS", "ETIC", "ETIH", "ETIK", "ETMN", "ETNH", "ETNL", "ETNN", "ETNS", "ETNT", "ETNW", "ETOU", "ETSB", "ETSH", "ETSI", "ETSL", "ETSN", "ETWM", "EVGA", "EVLA", "EVRA", "EVVA", "EYKA", "EYPA", "EYSA", "EYVI", "FABL", "FACT", "FAGG", "FAHS", "FAJB", "FAKM", "FAKN", "FALA", "FALE", "FALW", "FAMM", "FAOR", "FAPE", "FAPN", "FAPP", "FAUP", "FAUT", "FAVV", "FAWB", "FCBB", "FCPP", "FEFF", "FGSL", "FHAW", "FIMP", "FJDG", "FKKD", "FKYS", "FLKK", "FMCH", "FMCZ", "FMEE", "FMEP", "FMMI", "FMMT", "FMNM", "FMSD", "FNCA", "FNCT", "FNGI", "FNHU", "FNLU", "FNUB", "FNUE", "FOOG", "FOOL", "FQBR", "FQCH", "FQMA", "FQNP", "FQPB", "FQQL", "FQTT", "FQXA", "FSIA", "FTTA", "FTTJ", "FVRG", "FYGF", "FYKM", "FYKT", "FYLZ", "FYOA", "FYWB", "FYWW", "GABS", "GAKD", "GAMB", "GANR", "GBYD", "GCFV", "GCGM", "GCHI", "GCLA", "GCLP", "GCRR", "GCTS", "GCXO", "GECE", "GEML", "GGOV", "GLRB", "GMAD", "GMAG", "GMFF", "GMFK", "GMFM", "GMFO", "GMMB", "GMME", "GMMH", "GMMI", "GMML", "GMMN", "GMMW", "GMMX", "GMMZ", "GMTA", "GMTN", "GMTT", "GOBD", "GOGG", "GOGK", "GOGS", "GOOD", "GOOG", "GOOK", "GOOY", "GOSM", "GOSP", "GOSS", "GOTK", "GOTT", "GQNO", "GQPP", "GUCY", "GVAC", "GVNP", "GVSV", "HAAB", "HEAT", "HEBA", "HECA", "HEGN", "HELX", "HEMA", "HEMM", "HEPS", "HERT", "HESG", "HESH", "HESN", "HESW", "HKGO", "HKJK", "HKKT", "HKLO", "HKNI", "HKNW", "HRYR", "HTAR", "HTBU", "HTDA", "HTDO", "HTIB", "HTIR", "HTKA", "HTMG", "HTMT", "HTMU", "HTMW", "HTSO", "HTTB", "HTZA", "HUEN", "K04V", "K04W", "K05U", "K06C", "K06D", "K08D", "K0A0", "K0A9", "K0D8", "K0E0", "K0F2", "K0J4", "K0R0", "K0S9", "K0V4", "K0VG", "K10G", "K11R", "K12N", "K13K", "K14Y", "K15M", "K17J", "K18A", "K18H", "K19S", "K1A5", "K1A6", "K1A9", "K1AM", "K1AW", "K1BW", "K1CM", "K1CN", "K1CW", "K1D8", "K1DM", "K1DN", "K1DW", "K1EM", "K1EN", "K1EW", "K1F0", "K1FM", "K1FW", "K1GM", "K1GN", "K1H2", "K1HM", "K1HN", "K1HW", "K1IM", "K1IN", "K1IW", "K1JM", "K1JN", "K1JW", "K1KW", "K1LM", "K1M4", "K1M5", "K1MM", "K1MN", "K1MW", "K1NM", "K1NW", "K1OM", "K1OW", "K1P1", "K1R7", "K1R8", "K1S3", "K1S5", "K1U7", "K1V4", "K1V6", "K20U", "K20V", "K21D", "K22N", "K24A", "K24J", "K28J", "K2A0", "K2C8", "K2D5", "K2DP", "K2G2", "K2G4", "K2G9", "K2I0", "K2IS", "K2J3", "K2J5", "K2J9", "K2M2", "K2P2", "K2R9", "K2V5", "K2V6", "K2W6", "K2WX", "K33N", "K33V", "K35A", "K38S", "K3AU", "K3D2", "K3F3", "K3K3", "K3LF", "K3N8", "K3R7", "K3S8", "K3T5", "K3U3", "K40B", "K40U", "K41U", "K42J", "K46D", "K46U", "K48A", "K49A", "K4A9", "K4BM", "K4F2", "K4I3", "K4M9", "K4MR", "K4O4", "K4R5", "K4S1", "K4S2", "K4U6", "K4V0", "K4V1", "K54A", "K54J", "K57C", "K5A6", "K5C1", "K5H4", "K5R8", "K5SM", "K5T9", "K60R", "K63S", "K65S", "K66R", "K6A1", "K6A2", "K6B0", "K6B9", "K6I2", "K6L4", "K6P9", "K6R3", "K6R6", "K6S0", "K6S2", "K6S8", "K74V", "K77S", "K79J", "K7BM", "K7L2", "K7W4", "K7W6", "K81R", "K82C", "K82V", "K8A0", "K8A3", "K8B0", "K8D3", "K8T6", "K8W2", "K96D", "K9A5", "K9D7", "K9L2", "K9MN", "K9S9", "K9V9", "KA39", "KAAA", "KAAF", "KAAO", "KAAS", "KAAT", "KABE", "KABH", "KABI", "KABQ", "KABR", "KABY", "KACB", "KACJ", "KACK", "KACP", "KACQ", "KACT", "KACV", "KACY", "KACZ", "KADC", "KADF", "KADG", "KADH", "KADM", "KADS", "KADT", "KADU", "KADW", "KAEG", "KAEJ", "KAEL", "KAEX", "KAFF", "KAFJ", "KAFK", "KAFN", "KAFO", "KAFP", "KAFW", "KAGC", "KAGI", "KAGO", "KAGS", "KAHN", "KAHQ", "KAIA", "KAIG", "KAIK", "KAIO", "KAIT", "KAIZ", "KAJG", "KAJO", "KAJR", "KAJZ", "KAKH", "KAKO", "KAKQ", "KAKR", "KALB", "KALI", "KALK", "KALM", "KALN", "KALO", "KALS", "KALW", "KALX", "KAMA", "KAMN", "KAMW", "KANB", "KAND", "KANE", "KANJ", "KANK", "KANQ", "KANW", "KAOH", "KAOO", "KAPA", "KAPC", "KAPF", "KAPN", "KAPS", "KAPY", "KAQO", "KAQP", "KAQV", "KAQW", "KAQX", "KARA", "KARB", "KARG", "KARM", "KARR", "KART", "KARV", "KARW", "KASD", "KASE", "KASG", "KASH", "KASJ", "KASL", "KASN", "KAST", "KASW", "KASX", "KATA", "KATL", "KATP", "KATS", "KATT", "KATW", "KATY", "KAUG", "KAUH", "KAUM", "KAUN", "KAUS", "KAUW", "KAVC", "KAVL", "KAVP", "KAVQ", "KAVX", "KAWG", "KAWM", "KAWO", "KAXA", "KAXH", "KAXN", "KAXS", "KAXV", "KAXX", "KAYS", "KAZC", "KAZE", "KAZO", "KBAB", "KBAC", "KBAD", "KBAF", "KBAK", "KBAM", "KBAN", "KBAX", "KBAZ", "KBBB", "KBBD", "KBBG", "KBBP", "KBBW", "KBCB", "KBCE", "KBCK", "KBCR", "KBCT", "KBDE", "KBDH", "KBDL", "KBDN", "KBDR", "KBDU", "KBEA", "KBEC", "KBED", "KBEH", "KBFD", "KBFI", "KBFL", "KBFM", "KBGD", "KBGE", "KBGM", "KBGR", "KBHB", "KBHC", "KBHK", "KBHM", "KBID", "KBIE", "KBIF", "KBIH", "KBIJ", "KBIL", "KBIS", "KBIV", "KBIX", "KBJC", "KBJI", "KBJJ", "KBKB", "KBKD", "KBKE", "KBKF", "KBKL", "KBKN", "KBKS", "KBKT", "KBKV", "KBKW", "KBKX", "KBLF", "KBLH", "KBLI", "KBLM", "KBLU", "KBLV", "KBMC", "KBMG", "KBMI", "KBML", "KBMQ", "KBMT", "KBNA", "KBNL", "KBNO", "KBNW", "KBOI", "KBOK", "KBOS", "KBPC", "KBPG", "KBPI", "KBPK", "KBPT", "KBQP", "KBRG", "KBRL", "KBRO", "KBRY", "KBTA", "KBTL", "KBTM", "KBTN", "KBTP", "KBTR", "KBTV", "KBUF", "KBUR", "KBUU", "KBUY", "KBVI", "KBVN", "KBVO", "KBVS", "KBVU", "KBVX", "KBVY", "KBWD", "KBWI", "KBWP", "KBWW", "KBXA", "KBXK", "KBYG", "KBYI", "KBYL", "KBYS", "KBYY", "KBZN", "KC07", "KC09", "KC29", "KC35", "KC65", "KC75", "KC83", "KCAD", "KCAE", "KCAG", "KCAK", "KCAO", "KCAR", "KCAV", "KCBE", "KCBF", "KCBG", "KCBK", "KCBM", "KCCA", "KCCB", "KCCO", "KCCR", "KCCU", "KCCY", "KCDA", "KCDC", "KCDD", "KCDH", "KCDI", "KCDJ", "KCDN", "KCDR", "KCDS", "KCDW", "KCEC", "KCEF", "KCEU", "KCEW", "KCEY", "KCEZ", "KCFD", "KCFE", "KCFJ", "KCFO", "KCFS", "KCFV", "KCGC", "KCGE", "KCGF", "KCGI", "KCGS", "KCGZ", "KCHA", "KCHD", "KCHK", "KCHO", "KCHS", "KCIC", "KCID", "KCII", "KCIN", "KCIU", "KCJR", "KCKB", "KCKC", "KCKF", "KCKI", "KCKM", "KCKN", "KCKP", "KCKV", "KCKZ", "KCLE", "KCLI", "KCLK", "KCLL", "KCLM", "KCLS", "KCLT", "KCLW", "KCMA", "KCMD", "KCMH", "KCMI", "KCMR", "KCMX", "KCMY", "KCNB", "KCNC", "KCNI", "KCNK", "KCNM", "KCNO", "KCNU", "KCNW", "KCNY", "KCOD", "KCOE", "KCOF", "KCOM", "KCON", "KCOQ", "KCOS", "KCOT", "KCOU", "KCPC", "KCPK", "KCPP", "KCPR", "KCPT", "KCPU", "KCPW", "KCQB", "KCQC", "KCQF", "KCQM", "KCQT", "KCQW", "KCQX", "KCRE", "KCRG", "KCRP", "KCRQ", "KCRS", "KCRW", "KCRX", "KCSG", "KCSM", "KCSQ", "KCSV", "KCTB", "KCTJ", "KCTY", "KCTZ", "KCUB", "KCUH", "KCUL", "KCUT", "KCVB", "KCVC", "KCVG", "KCVH", "KCVN", "KCVO", "KCVS", "KCVX", "KCWA", "KCWC", "KCWF", "KCWI", "KCWN", "KCWV", "KCXE", "KCXO", "KCXP", "KCXU", "KCXW", "KCXY", "KCYD", "KCYS", "KCZL", "KCZT", "KD07", "KD09", "KD25", "KD39", "KD55", "KD57", "KD60", "KD73", "KD95", "KDAA", "KDAB", "KDAG", "KDAL", "KDAN", "KDAW", "KDAY", "KDBN", "KDBQ", "KDCA", "KDCM", "KDCU", "KDCY", "KDDC", "KDDH", "KDEC", "KDED", "KDEH", "KDEN", "KDEQ", "KDET", "KDEW", "KDFI", "KDFW", "KDGW", "KDHN", "KDHT", "KDIJ", "KDIK", "KDKB", "KDKK", "KDKR", "KDKX", "KDLF", "KDLH", "KDLL", "KDLN", "KDLO", "KDLP", "KDLS", "KDLZ", "KDMA", "KDMH", "KDMN", "KDMW", "KDNA", "KDNL", "KDNN", "KDNS", "KDNV", "KDOV", "KDPA", "KDPL", "KDQH", "KDRA", "KDRI", "KDRM", "KDRO", "KDRT", "KDSF", "KDSM", "KDSV", "KDTA", "KDTL", "KDTN", "KDTO", "KDTS", "KDTW", "KDUA", "KDUB", "KDUC", "KDUG", "KDUH", "KDUJ", "KDUX", "KDVK", "KDVL", "KDVN", "KDVO", "KDVP", "KDVT", "KDWA", "KDWH", "KDWU", "KDWX", "KDXR", "KDXX", "KDYA", "KDYB", "KDYL", "KDYR", "KDYS", "KDYT", "KDZB", "KDZJ", "KE11", "KE16", "KE38", "KE41", "KE42", "KE77", "KEAN", "KEAR", "KEAT", "KEAU", "KEBA", "KEBG", "KECG", "KECP", "KECS", "KECU", "KEDC", "KEDE", "KEDN", "KEDU", "KEDW", "KEED", "KEEN", "KEEO", "KEET", "KEFD", "KEFK", "KEFT", "KEGE", "KEGI", "KEGT", "KEHA", "KEHO", "KEHR", "KEIK", "KEKE", "KEKM", "KEKN", "KEKO", "KEKQ", "KEKS", "KEKX", "KEKY", "KELA", "KELD", "KELK", "KELM", "KELN", "KELO", "KELP", "KELY", "KELZ", "KEMM", "KEMP", "KEMT", "KEMV", "KEND", "KENV", "KENW", "KEOE", "KEOK", "KEPH", "KEQA", "KEQY", "KERI", "KERV", "KERY", "KESC", "KESF", "KESN", "KEST", "KETB", "KETC", "KETH", "KETN", "KEUG", "KEUL", "KEVB", "KEVM", "KEVU", "KEVV", "KEVW", "KEWB", "KEWK", "KEWN", "KEWR", "KEXX", "KEYE", "KEYF", "KEYW", "KEZF", "KEZM", "KEZP", "KEZS", "KEZZ", "KF00", "KF05", "KF44", "KF46", "KF70", "KFAF", "KFAM", "KFAR", "KFAT", "KFAY", "KFBG", "KFBL", "KFBR", "KFCI", "KFCM", "KFCS", "KFDK", "KFDR", "KFDW", "KFDY", "KFEP", "KFET", "KFEW", "KFFA", "KFFC", "KFFL", "KFFM", "KFFO", "KFFT", "KFFX", "KFFZ", "KFGN", "KFGX", "KFHB", "KFHR", "KFHU", "KFIG", "KFIN", "KFIT", "KFKA", "KFKL", "KFKN", "KFKR", "KFKS", "KFLD", "KFLG", "KFLL", "KFLO", "KFLP", "KFLY", "KFME", "KFMH", "KFMM", "KFMN", "KFMY", "KFNB", "KFNL", "KFNT", "KFOA", "KFOD", "KFOE", "KFOK", "KFOT", "KFOZ", "KFPK", "KFPR", "KFPY", "KFQD", "KFRG", "KFRH", "KFRI", "KFRM", "KFRR", "KFSD", "KFSE", "KFSI", "KFSK", "KFSM", "KFST", "KFSW", "KFTK", "KFTN", "KFTW", "KFTY", "KFUL", "KFVE", "KFVX", "KFWA", "KFWB", "KFWC", "KFWN", "KFWS", "KFXE", "KFXY", "KFYE", "KFYG", "KFYJ", "KFYM", "KFYV", "KFZY", "KGAD", "KGAF", "KGAG", "KGAI", "KGAO", "KGBD", "KGBG", "KGCC", "KGCD", "KGCK", "KGCM", "KGCN", "KGCY", "KGDB", "KGDJ", "KGDV", "KGED", "KGEG", "KGEU", "KGEV", "KGEY", "KGEZ", "KGFA", "KGFK", "KGFL", "KGGE", "KGGF", "KGGG", "KGGI", "KGGP", "KGGW", "KGHG", "KGHW", "KGIC", "KGIF", "KGJT", "KGKJ", "KGKT", "KGKY", "KGLD", "KGLE", "KGLH", "KGLR", "KGLS", "KGLW", "KGLY", "KGMJ", "KGMU", "KGNA", "KGNB", "KGNC", "KGNG", "KGNR", "KGNT", "KGNV", "KGOK", "KGON", "KGOO", "KGOP", "KGOV", "KGPC", "KGPH", "KGPI", "KGPM", "KGPT", "KGPZ", "KGRB", "KGRD", "KGRF", "KGRI", "KGRK", "KGRN", "KGRR", "KGRY", "KGSB", "KGSH", "KGSO", "KGSP", "KGTB", "KGTF", "KGTR", "KGTU", "KGUC", "KGUL", "KGUP", "KGUR", "KGUS", "KGUY", "KGVE", "KGVL", "KGVQ", "KGVT", "KGVW", "KGWB", "KGWO", "KGWR", "KGWW", "KGXA", "KGXF", "KGXY", "KGYB", "KGYF", "KGYH", "KGYI", "KGYL", "KGYR", "KGYY", "KGZH", "KGZL", "KGZN", "KGZS", "KHAE", "KHAF", "KHAI", "KHAO", "KHBG", "KHBI", "KHBR", "KHBV", "KHCD", "KHCO", "KHCR", "KHDC", "KHDE", "KHDL", "KHDN", "KHDO", "KHEF", "KHEG", "KHEI", "KHEQ", "KHEY", "KHEZ", "KHFD", "KHFF", "KHGR", "KHHF", "KHHG", "KHHR", "KHHW", "KHIB", "KHIE", "KHIF", "KHII", "KHIO", "KHJH", "KHJO", "KHKA", "KHKS", "KHKY", "KHLB", "KHLC", "KHLG", "KHLN", "KHLR", "KHLX", "KHMN", "KHMP", "KHMT", "KHMZ", "KHNB", "KHND", "KHNR", "KHNZ", "KHOB", "KHOE", "KHON", "KHOP", "KHOT", "KHOU", "KHPN", "KHPT", "KHQG", "KHQG", "KHQM", "KHQU", "KHQZ", "KHRF", "KHRI", "KHRJ", "KHRL", "KHRO", "KHRT", "KHRX", "KHSA", "KHSB", "KHSD", "KHSE", "KHSG", "KHSI", "KHSP", "KHST", "KHSV", "KHTH", "KHTL", "KHTS", "KHUA", "KHUF", "KHUL", "KHUM", "KHUT", "KHVC", "KHVE", "KHVN", "KHVR", "KHVS", "KHWD", "KHWO", "KHWV", "KHWY", "KHYA", "KHYI", "KHYR", "KHYS", "KHYW", "KHYX", "KHZD", "KHZE", "KHZL", "KHZX", "KHZY", "KI16", "KI19", "KI23", "KI35", "KI63", "KI67", "KI68", "KI69", "KI74", "KI75", "KI95", "KIAB", "KIAD", "KIAG", "KIAH", "KIBM", "KICL", "KICR", "KICT", "KIDA", "KIDI", "KIDP", "KIEN", "KIER", "KIFA", "KIFP", "KIGM", "KIGQ", "KIIB", "KIJD", "KIJX", "KIKG", "KIKK", "KIKT", "KIKV", "KIKW", "KILE", "KILG", "KILM", "KILN", "KIML", "KIMM", "KIMS", "KIMT", "KIND", "KINF", "KINJ", "KINK", "KINL", "KINS", "KINT", "KINW", "KIOB", "KIOW", "KIPJ", "KIPL", "KIPT", "KIRK", "KIRS", "KISM", "KISO", "KISP", "KISQ", "KISW", "KITH", "KITR", "KIWA", "KIWD", "KIWI", "KIXD", "KIYA", "KIZA", "KIZG", "KJAC", "KJAN", "KJAQ", "KJAS", "KJAU", "KJAX", "KJBR", "KJCA", "KJCT", "KJDD", "KJDN", "KJEF", "KJER", "KJES", "KJFK", "KJFX", "KJFZ", "KJHN", "KJHW", "KJKA", "KJKJ", "KJKL", "KJLN", "KJMR", "KJMS", "KJNX", "KJOT", "KJPX", "KJQF", "KJRB", "KJRO", "KJSO", "KJST", "KJSV", "KJTC", "KJVL", "KJVW", "KJVY", "KJWG", "KJWN", "KJWY", "KJXI", "KJXN", "KJYG", "KJYM", "KJYO", "KJYR", "KJZI", "KJZP", "KK62", "KK70", "KK82", "KK88", "KKLS", "KKNB", "KKY8", "KL08", "KL18", "KL35", "KLAA", "KLAF", "KLAL", "KLAM", "KLAN", "KLAR", "KLAS", "KLAW", "KLAX", "KLBB", "KLBE", "KLBL", "KLBO", "KLBT", "KLBX", "KLCG", "KLCH", "KLCI", "KLCK", "KLCQ", "KLDM", "KLEB", "KLEE", "KLEW", "KLEX", "KLFI", "KLFK", "KLFT", "KLGA", "KLGB", "KLGD", "KLGF", "KLGU", "KLHB", "KLHM", "KLHQ", "KLHW", "KLHX", "KLHZ", "KLIC", "KLIT", "KLJF", "KLKR", "KLKU", "KLKV", "KLLJ", "KLLN", "KLLQ", "KLMO", "KLMS", "KLMT", "KLNA", "KLNC", "KLND", "KLNK", "KLNL", "KLNN", "KLNP", "KLNQ", "KLNR", "KLNS", "KLOL", "KLOM", "KLOR", "KLOT", "KLOU", "KLOZ", "KLPR", "KLQK", "KLRD", "KLRF", "KLRJ", "KLRO", "KLRU", "KLRY", "KLSE", "KLSF", "KLSV", "KLTS", "KLUA", "KLUD", "KLUF", "KLUG", "KLUK", "KLUL", "KLUM", "KLUV", "KLUX", "KLVJ", "KLVK", "KLVL", "KLVM", "KLVN", "KLVS", "KLWA", "KLWB", "KLWC", "KLWM", "KLWS", "KLWT", "KLWV", "KLXL", "KLXN", "KLXT", "KLXV", "KLXY", "KLYH", "KLYO", "KLYV", "KLZU", "KLZZ", "KM01", "KM02", "KM04", "KM08", "KM19", "KM21", "KM25", "KM30", "KM40", "KM54", "KM75", "KMAE", "KMAF", "KMAI", "KMAN", "KMAO", "KMAW", "KMBG", "KMBL", "KMBO", "KMBS", "KMBT", "KMBY", "KMCB", "KMCC", "KMCD", "KMCE", "KMCF", "KMCI", "KMCJ", "KMCK", "KMCN", "KMCO", "KMCW", "KMCZ", "KMDH", "KMDQ", "KMDS", "KMDT", "KMDW", "KMDZ", "KMEB", "KMEH", "KMEI", "KMEM", "KMER", "KMEV", "KMEZ", "KMFD", "KMFE", "KMFI", "KMFR", "KMGC", "KMGE", "KMGG", "KMGJ", "KMGM", "KMGN", "KMGR", "KMGW", "KMGY", "KMHE", "KMHK", "KMHL", "KMHP", "KMHR", "KMHS", "KMHT", "KMHV", "KMIA", "KMIB", "KMIC", "KMIE", "KMIO", "KMIV", "KMIW", "KMJD", "KMJQ", "KMKC", "KMKE", "KMKG", "KMKJ", "KMKL", "KMKN", "KMKO", "KMKQ", "KMKS", "KMKT", "KMKY", "KMLB", "KMLC", "KMLE", "KMLF", "KMLI", "KMLJ", "KMLP", "KMLS", "KMLT", "KMLU", "KMMH", "KMMI", "KMMK", "KMML", "KMMT", "KMMU", "KMMV", "KMNE", "KMNH", "KMNN", "KMNZ", "KMOB", "KMOD", "KMOP", "KMOT", "KMOX", "KMPO", "KMPR", "KMPV", "KMPZ", "KMQB", "KMQI", "KMQJ", "KMQS", "KMQW", "KMQY", "KMRB", "KMRC", "KMRF", "KMRH", "KMRJ", "KMRT", "KMRY", "KMSL", "KMSN", "KMSO", "KMSP", "KMSS", "KMSY", "KMTC", "KMTH", "KMTJ", "KMTN", "KMTP", "KMTV", "KMTW", "KMUI", "KMUO", "KMUT", "KMVE", "KMVL", "KMVN", "KMVY", "KMWA", "KMWC", "KMWH", "KMWK", "KMWL", "KMWM", "KMWN", "KMWO", "KMWT", "KMXF", "KMYF", "KMYJ", "KMYL", "KMYP", "KMYR", "KMYV", "KMYZ", "KMZH", "KMZJ", "KMZZ", "KN03", "KN38", "KN60", "KN79", "KNAK", "KNBC", "KNBG", "KNBT", "KNCA", "KNDZ", "KNEL", "KNEW", "KNFE", "KNFG", "KNFL", "KNGP", "KNGU", "KNHK", "KNID", "KNIP", "KNJK", "KNJM", "KNJW", "KNKT", "KNKX", "KNLC", "KNMM", "KNOG", "KNOW", "KNPA", "KNQA", "KNQI", "KNQX", "KNRB", "KNRN", "KNRS", "KNSE", "KNSI", "KNTD", "KNTU", "KNUC", "KNUI", "KNUQ", "KNUW", "KNXF", "KNXP", "KNYC", "KNYG", "KNYL", "KNZY", "KO22", "KO32", "KO69", "KO86", "KOAJ", "KOAK", "KOAR", "KOBE", "KOCH", "KOCQ", "KOCW", "KODO", "KODX", "KOEB", "KOEL", "KOEO", "KOFF", "KOFK", "KOFP", "KOGA", "KOGB", "KOGD", "KOGS", "KOIC", "KOIN", "KOJA", "KOKB", "KOKC", "KOKK", "KOKM", "KOKV", "KOKZ", "KOLE", "KOLF", "KOLG", "KOLM", "KOLS", "KOLU", "KOLV", "KOLY", "KOLZ", "KOMA", "KOMH", "KOMK", "KOMN", "KONA", "KONL", "KONM", "KONO", "KONP", "KONT", "KONX", "KONZ", "KOOA", "KOPF", "KOPL", "KOPN", "KOQN", "KOQT", "KOQU", "KORB", "KORD", "KORE", "KORF", "KORG", "KORH", "KORK", "KORL", "KORS", "KOSA", "KOSC", "KOSH", "KOSU", "KOTG", "KOTH", "KOTM", "KOUN", "KOVE", "KOVL", "KOVS", "KOWA", "KOWB", "KOWD", "KOWI", "KOWP", "KOWX", "KOXC", "KOXD", "KOXI", "KOXR", "KOXV", "KOYM", "KOZA", "KOZR", "KOZS", "KOZW", "KP08", "KP28", "KP52", "KP53", "KP58", "KP59", "KP60", "KP68", "KP69", "KP92", "KPAE", "KPAH", "KPAM", "KPAN", "KPAO", "KPBF", "KPBG", "KPBH", "KPBI", "KPBX", "KPCD", "KPCM", "KPCW", "KPCZ", "KPDC", "KPDK", "KPDT", "KPDX", "KPEA", "KPEO", "KPEQ", "KPEX", "KPEZ", "KPGA", "KPGD", "KPGV", "KPHD", "KPHF", "KPHL", "KPHN", "KPHP", "KPHT", "KPHX", "KPIA", "KPIB", "KPIE", "KPIH", "KPIL", "KPIM", "KPIR", "KPIT", "KPJC", "KPKB", "KPKD", "KPKV", "KPLD", "KPLN", "KPLR", "KPLU", "KPMD", "KPMH", "KPMP", "KPMU", "KPMV", "KPNA", "KPNC", "KPNE", "KPNM", "KPNS", "KPNT", "KPO1", "KPOB", "KPOC", "KPOE", "KPOU", "KPOV", "KPOY", "KPPO", "KPPQ", "KPQI", "KPQL", "KPRB", "KPRC", "KPRG", "KPRN", "KPRO", "KPRS", "KPRX", "KPSC", "KPSF", "KPSK", "KPSM", "KPSN", "KPSO", "KPSP", "KPSX", "KPTB", "KPTD", "KPTK", "KPTN", "KPTS", "KPTT", "KPTV", "KPTW", "KPUB", "KPUC", "KPUJ", "KPUW", "KPVB", "KPVC", "KPVD", "KPVE", "KPVF", "KPVG", "KPVJ", "KPVU", "KPVW", "KPWA", "KPWC", "KPWD", "KPWG", "KPWK", "KPWM", "KPWT", "KPXE", "KPYM", "KPYX", "KPZQ", "KPZZ", "KQAZ", "KQBL", "KQBR", "KQD3", "KQDG", "KQEI", "KQEJ", "KQEN", "KQEP", "KQEQ", "KQER", "KQEV", "KQEW", "KQEX", "KQEY", "KQFB", "KQFT", "KQFU", "KQFV", "KQFW", "KQFX", "KQN3", "KQOA", "KQRH", "KQTZ", "KQVF", "KRAC", "KRAL", "KRAP", "KRAS", "KRAW", "KRBD", "KRBG", "KRBL", "KRBO", "KRBW", "KRCA", "KRCE", "KRCM", "KRCR", "KRCV", "KRCX", "KRCZ", "KRDD", "KRDG", "KRDK", "KRDM", "KRDR", "KRDU", "KREG", "KREO", "KRFD", "KRFI", "KRGA", "KRGK", "KRHI", "KRHP", "KRHV", "KRIC", "KRID", "KRIL", "KRIV", "KRIW", "KRKD", "KRKP", "KRKR", "KRKS", "KRKW", "KRLD", "KRME", "KRMG", "KRMN", "KRMY", "KRNC", "KRND", "KRNH", "KRNM", "KRNO", "KRNP", "KRNT", "KROA", "KROC", "KROG", "KROS", "KROW", "KROX", "KRPD", "KRPH", "KRPJ", "KRPX", "KRQB", "KRQE", "KRRL", "KRRT", "KRSL", "KRSP", "KRST", "KRSW", "KRTN", "KRTS", "KRUE", "KRUG", "KRUQ", "KRUT", "KRVF", "KRVJ", "KRVL", "KRVS", "KRWF", "KRWI", "KRWL", "KRWV", "KRXE", "KRYM", "KRYN", "KRYW", "KRYY", "KRZL", "KRZN", "KRZR", "KRZT", "KS12", "KS21", "KS24", "KS25", "KS32", "KS33", "KS39", "KS52", "KS59", "KS71", "KS85", "KSAA", "KSAC", "KSAD", "KSAF", "KSAN", "KSAR", "KSAT", "KSAV", "KSAW", "KSAZ", "KSBA", "KSBD", "KSBM", "KSBN", "KSBO", "KSBP", "KSBS", "KSBY", "KSCD", "KSCH", "KSCK", "KSCR", "KSCX", "KSDA", "KSDB", "KSDC", "KSDF", "KSDL", "KSDM", "KSDY", "KSEA", "KSEE", "KSEF", "KSEG", "KSEM", "KSEP", "KSEQ", "KSET", "KSEZ", "KSFB", "KSFF", "KSFM", "KSFO", "KSFQ", "KSFZ", "KSGF", "KSGH", "KSGJ", "KSGR", "KSGS", "KSGT", "KSGU", "KSHD", "KSHL", "KSHM", "KSHN", "KSHR", "KSHV", "KSIF", "KSIY", "KSJC", "KSJS", "KSJT", "KSJX", "KSKA", "KSKF", "KSKX", "KSLB", "KSLC", "KSLG", "KSLH", "KSLI", "KSLK", "KSLO", "KSLR", "KSMD", "KSME", "KSMF", "KSMN", "KSMO", "KSMP", "KSMQ", "KSMS", "KSMX", "KSNA", "KSNC", "KSNH", "KSNK", "KSNL", "KSNS", "KSNT", "KSNY", "KSOA", "KSOP", "KSOW", "KSPA", "KSPB", "KSPD", "KSPG", "KSPK", "KSPS", "KSPW", "KSQI", "KSQL", "KSRB", "KSRC", "KSRE", "KSRQ", "KSRR", "KSSC", "KSSF", "KSSI", "KSTC", "KSTE", "KSTF", "KSTK", "KSTL", "KSTP", "KSTS", "KSUA", "KSUE", "KSUN", "KSUS", "KSUT", "KSUU", "KSUW", "KSUX", "KSUZ", "KSVC", "KSVE", "KSVH", "KSVN", "KSWF", "KSWO", "KSWW", "KSXK", "KSXS", "KSXT", "KSXU", "KSYF", "KSYM", "KSYN", "KSYR", "KSZL", "KSZT", "KSZY", "KT20", "KT35", "KT41", "KT69", "KT70", "KT74", "KT78", "KT82", "KT89", "KTAD", "KTAN", "KTAZ", "KTBN", "KTBR", "KTBX", "KTCC", "KTCL", "KTCM", "KTCS", "KTCY", "KTDF", "KTDR", "KTDZ", "KTEB", "KTEW", "KTEX", "KTGI", "KTHA", "KTHM", "KTHV", "KTIF", "KTIK", "KTIP", "KTIW", "KTIX", "KTKC", "KTKI", "KTKV", "KTKX", "KTLH", "KTMB", "KTME", "KTMK", "KTMT", "KTNB", "KTNU", "KTOA", "KTOB", "KTOC", "KTOI", "KTOL", "KTOP", "KTOR", "KTPA", "KTPF", "KTPH", "KTPL", "KTQE", "KTQH", "KTQK", "KTQV", "KTRI", "KTRK", "KTRL", "KTRM", "KTSP", "KTTA", "KTTD", "KTTF", "KTTN", "KTTS", "KTUL", "KTUP", "KTUS", "KTVC", "KTVF", "KTVI", "KTVK", "KTVL", "KTVR", "KTVY", "KTWF", "KTWM", "KTWT", "KTXK", "KTXW", "KTYL", "KTYQ", "KTYR", "KTYS", "KTZR", "KU42", "KU55", "KU64", "KU68", "KU69", "KUAO", "KUBE", "KUCP", "KUCY", "KUDG", "KUES", "KUGN", "KUIL", "KUIN", "KUKF", "KUKI", "KUKL", "KUKT", "KULM", "KULS", "KUMP", "KUNI", "KUNU", "KUNV", "KUOX", "KUSE", "KUTA", "KUTS", "KUUU", "KUUV", "KUVA", "KUXL", "KUYF", "KUZA", "KVAD", "KVAY", "KVBG", "KVBT", "KVBW", "KVCB", "KVCT", "KVCV", "KVDF", "KVDI", "KVEL", "KVES", "KVGC", "KVGT", "KVHN", "KVIH", "KVIS", "KVJI", "KVKS", "KVLD", "KVLL", "KVNC", "KVNW", "KVNY", "KVOA", "KVOK", "KVPC", "KVPS", "KVPZ", "KVQQ", "KVRB", "KVSF", "KVTA", "KVTI", "KVTN", "KVTP", "KVUJ", "KVUO", "KVVS", "KVVV", "KVWU", "KVYS", "KW13", "KW22", "KW29", "KW31", "KW40", "KW43", "KW63", "KW75", "KW78", "KW81", "KW96", "KW99", "KWAL", "KWDG", "KWDR", "KWHP", "KWJF", "KWLD", "KWMC", "KWRB", "KWRI", "KWRL", "KWST", "KWVI", "KWVL", "KWWD", "KWWR", "KWYS", "KX07", "KXBP", "KXIF", "KXLL", "KXMR", "KXNA", "KXNO", "KXNX", "KXSA", "KXVG", "KXWA", "KY19", "KY23", "KY31", "KY49", "KY50", "KY51", "KY63", "KY70", "KYIP", "KYKM", "KYKN", "KYNG", "KZER", "KZPH", "KZZV", "LATI", "LBBG", "LBGO", "LBIA", "LBPD", "LBPG", "LBPL", "LBSF", "LBWN", "LCEN", "LCLK", "LCPH", "LCRA", "LDDU", "LDOS", "LDPL", "LDRI", "LDSP", "LDZA", "LDZD", "LEAB", "LEAG", "LEAL", "LEAM", "LEAO", "LEAS", "LEBA", "LEBB", "LEBG", "LEBL", "LEBR", "LEBT", "LECH", "LECO", "LEDA", "LEGE", "LEGR", "LEHC", "LEIB", "LEJR", "LELC", "LELL", "LELN", "LELO", "LEMD", "LEMG", "LEMH", "LEMI", "LEMO", "LEPA", "LEPP", "LERS", "LERT", "LESA", "LESB", "LESO", "LEST", "LETL", "LETO", "LETU", "LEVC", "LEVD", "LEVS", "LEVT", "LEVX", "LEXJ", "LEZG", "LEZL", "LFAQ", "LFAT", "LFBA", "LFBC", "LFBD", "LFBE", "LFBG", "LFBH", "LFBI", "LFBL", "LFBM", "LFBO", "LFBP", "LFBT", "LFBU", "LFBX", "LFBY", "LFBZ", "LFCK", "LFCR", "LFGA", "LFGJ", "LFJL", "LFJR", "LFKB", "LFKC", "LFKF", "LFKJ", "LFKS", "LFLB", "LFLC", "LFLL", "LFLN", "LFLP", "LFLS", "LFLW", "LFLX", "LFLY", "LFMC", "LFMD", "LFMH", "LFMI", "LFMK", "LFML", "LFMN", "LFMO", "LFMP", "LFMT", "LFMU", "LFMV", "LFMY", "LFOA", "LFOB", "LFOE", "LFOH", "LFOJ", "LFOK", "LFOP", "LFOT", "LFOV", "LFOZ", "LFPB", "LFPG", "LFPM", "LFPN", "LFPO", "LFPT", "LFPV", "LFQA", "LFQB", "LFQQ", "LFRB", "LFRC", "LFRD", "LFRG", "LFRH", "LFRI", "LFRJ", "LFRK", "LFRL", "LFRM", "LFRN", "LFRO", "LFRQ", "LFRS", "LFRT", "LFRV", "LFRZ", "LFSB", "LFSD", "LFSG", "LFSI", "LFSN", "LFSO", "LFST", "LFSX", "LFTH", "LFTW", "LFVP", "LFYR", "LGAD", "LGAL", "LGAV", "LGBL", "LGEL", "LGIO", "LGIR", "LGKL", "LGKO", "LGKP", "LGKR", "LGKZ", "LGLM", "LGMK", "LGPZ", "LGRP", "LGRX", "LGSA", "LGSO", "LGSR", "LGTS", "LHBP", "LHDC", "LHKE", "LHPA", "LHPP", "LHPR", "LHSM", "LHSN", "LIBA", "LIBD", "LIBN", "LIBP", "LIBQ", "LIBR", "LIBV", "LICA", "LICB", "LICC", "LICD", "LICJ", "LICR", "LICT", "LICZ", "LIEA", "LIEB", "LIED", "LIEE", "LIEO", "LIMC", "LIME", "LIMF", "LIMH", "LIMJ", "LIML", "LIMZ", "LIPB", "LIPC", "LIPE", "LIPH", "LIPI", "LIPK", "LIPL", "LIPO", "LIPQ", "LIPR", "LIPS", "LIPX", "LIPY", "LIPZ", "LIQC", "LIQO", "LIRA", "LIRE", "LIRF", "LIRK", "LIRM", "LIRN", "LIRP", "LIRQ", "LIRS", "LIRY", "LIRZ", "LIVC", "LIVD", "LIVE", "LIVF", "LIVM", "LIVP", "LIVR", "LIVT", "LJCE", "LJLJ", "LJMB", "LJPZ", "LKCV", "LKKB", "LKKV", "LKLN", "LKMT", "LKNA", "LKPD", "LKPR", "LKTB", "LLBG", "LMML", "LOWG", "LOWI", "LOWK", "LOWL", "LOWS", "LOWW", "LPAZ", "LPBJ", "LPCS", "LPFR", "LPLA", "LPMA", "LPMR", "LPMT", "LPPD", "LPPR", "LPPS", "LPPT", "LQBK", "LQMO", "LQSA", "LQTZ", "LRAR", "LRBC", "LRBM", "LRBS", "LRBV", "LRCK", "LRCL", "LRCV", "LRIA", "LROD", "LROP", "LRSB", "LRSM", "LRSV", "LRTC", "LRTM", "LRTR", "LSGC", "LSGG", "LSGS", "LSMA", "LSMD", "LSME", "LSMM", "LSMP", "LSZA", "LSZB", "LSZC", "LSZG", "LSZH", "LSZL", "LSZR", "LSZS", "LTAC", "LTAE", "LTAF", "LTAG", "LTAI", "LTAJ", "LTAN", "LTAP", "LTAR", "LTAT", "LTAU", "LTAY", "LTAZ", "LTBA", "LTBD", "LTBF", "LTBH", "LTBJ", "LTBQ", "LTBR", "LTBS", "LTBU", "LTBY", "LTCA", "LTCB", "LTCC", "LTCD", "LTCE", "LTCF", "LTCG", "LTCI", "LTCJ", "LTCN", "LTCS", "LTCT", "LTCV", "LTCW", "LTDA", "LTFC", "LTFD", "LTFE", "LTFG", "LTFH", "LTFJ", "LTFM", "LTFO", "LUKK", "LWOH", "LWSK", "LXGB", "LYBE", "LYBT", "LYKV", "LYNI", "LYPG", "LYTV", "LYVR", "LZIB", "LZKZ", "LZPP", "LZTT", "LZZI", "MBPV", "MDAB", "MDBH", "MDCY", "MDJB", "MDLR", "MDPC", "MDPP", "MDSD", "MDST", "MGCB", "MGES", "MGGT", "MGHT", "MGMM", "MGPB", "MGQZ", "MGRT", "MGTU", "MGZA", "MHCA", "MHCH", "MHGS", "MHLC", "MHLE", "MHLM", "MHNO", "MHPL", "MHPR", "MHRO", "MHSR", "MHTE", "MHTG", "MHTR", "MHYR", "MKJP", "MKJS", "MMAA", "MMAN", "MMAS", "MMBT", "MMCB", "MMCE", "MMCL", "MMCM", "MMCN", "MMCP", "MMCS", "MMCT", "MMCU", "MMCV", "MMCZ", "MMDO", "MMGL", "MMGM", "MMHO", "MMIA", "MMIO", "MMLM", "MMLO", "MMLP", "MMLT", "MMMA", "MMMD", "MMML", "MMMM", "MMMT", "MMMX", "MMMY", "MMMZ", "MMNL", "MMOX", "MMPA", "MMPB", "MMPG", "MMPN", "MMPQ", "MMPR", "MMPS", "MMQT", "MMRX", "MMSD", "MMSL", "MMSM", "MMSP", "MMTC", "MMTG", "MMTJ", "MMTM", "MMTO", "MMTP", "MMUN", "MMVA", "MMVR", "MMZC", "MMZH", "MMZO", "MNBL", "MNCH", "MNJG", "MNJU", "MNMG", "MNPC", "MNRS", "MPBO", "MPDA", "MPMG", "MPPA", "MPSM", "MPTO", "MRLB", "MRLM", "MROC", "MRPV", "MSLP", "MTCH", "MTPP", "MUCC", "MUCF", "MUCL", "MUCM", "MUCU", "MUGM", "MUHA", "MUHG", "MUSC", "MUVR", "MWCB", "MWCR", "MYAF", "MYCB", "MYGF", "MYNN", "MYSM", "MZBZ", "NCAI", "NCAT", "NCMG", "NCMH", "NCMK", "NCMR", "NCNS", "NCPK", "NCPL", "NCPY", "NCRG", "NCRK", "NCSW", "NFFN", "NFNA", "NFNL", "NFNM", "NFNS", "NFTF", "NFTL", "NFTV", "NGFU", "NGTA", "NIUE", "NLWW", "NSFA", "NSTU", "NTAA", "NVSC", "NVSG", "NVSS", "NVVA", "NVVV", "NVVW", "NWWW", "NZAA", "NZCH", "NZCM", "NZWN", "OBBI", "OEAB", "OEAH", "OEAO", "OEBA", "OEBH", "OEDF", "OEDM", "OEDR", "OEGN", "OEGS", "OEGT", "OEHL", "OEJN", "OEKJ", "OEKM", "OEMA", "OEMN", "OENG", "OEPA", "OEPS", "OERF", "OERK", "OERR", "OESH", "OESK", "OETB", "OETF", "OETR", "OEWD", "OEWJ", "OEYN", "OIAA", "OIAH", "OIAM", "OIAW", "OIBB", "OIBJ", "OIBK", "OIBL", "OIBP", "OICC", "OICI", "OICK", "OICS", "OIFM", "OIFS", "OIHH", "OIIE", "OIII", "OIIK", "OIIP", "OIKB", "OIKK", "OIKQ", "OIMB", "OIMJ", "OIMM", "OIMN", "OINE", "OING", "OINN", "OINR", "OINZ", "OISF", "OISL", "OISS", "OISY", "OITL", "OITM", "OITP", "OITR", "OITT", "OITZ", "OIYY", "OIZB", "OIZH", "OIZI", "OIZJ", "OJAI", "OJAM", "OJAQ", "OKAS", "OKKK", "OLBA", "OMAA", "OMAD", "OMAL", "OMDB", "OMDW", "OMFJ", "OMRK", "OMSJ", "OODQ", "OOKB", "OOMS", "OOSA", "OPFA", "OPIS", "OPKC", "OPLA", "OPMT", "OPNH", "OPPS", "OPSK", "ORER", "ORMM", "ORNI", "ORSU", "OSAP", "OSDI", "OSLK", "OTBD", "OTBH", "OTHH", "PAAD", "PAAK", "PAAQ", "PABE", "PABI", "PABL", "PABR", "PABT", "PABV", "PACD", "PACM", "PACV", "PACZ", "PADE", "PADK", "PADL", "PADM", "PADQ", "PADU", "PAED", "PAEG", "PAEH", "PAEI", "PAEN", "PAFA", "PAFB", "PAFM", "PAFR", "PAFS", "PAGA", "PAGK", "PAGN", "PAGS", "PAGY", "PAHC", "PAHL", "PAHN", "PAHO", "PAHY", "PAIG", "PAIK", "PAIL", "PAIN", "PAIW", "PAJN", "PAJZ", "PAKF", "PAKH", "PAKI", "PAKN", "PAKT", "PAKU", "PAKV", "PAKW", "PAKX", "PALG", "PALH", "PALU", "PAMB", "PAMC", "PAMD", "PAMH", "PAMK", "PAMO", "PAMR", "PAMY", "PANC", "PANI", "PANN", "PANV", "PANW", "PAOH", "PAOM", "PAOR", "PAOT", "PAOU", "PAPB", "PAPG", "PAPH", "PAPM", "PAPN", "PAPO", "PAPT", "PAQT", "PARC", "PARS", "PARY", "PASC", "PASD", "PASH", "PASI", "PASK", "PASL", "PASM", "PASN", "PASO", "PASV", "PASX", "PASY", "PATA", "PATC", "PATE", "PATG", "PATK", "PATL", "PATO", "PATQ", "PAUN", "PAVC", "PAVD", "PAVL", "PAWD", "PAWG", "PAWI", "PAWM", "PAWN", "PAWS", "PAYA", "PAZK", "PFCL", "PFEL", "PFKT", "PFNO", "PFYU", "PGRO", "PGSN", "PGUA", "PGUM", "PGWT", "PHBK", "PHHI", "PHJR", "PHKO", "PHLI", "PHMK", "PHNG", "PHNL", "PHNY", "PHOG", "PHSF", "PHTO", "PKMJ", "PKMR", "PKWA", "PLCH", "PMDY", "PPIZ", "PTPN", "PTSA", "PTTP", "PTYA", "PWAK", "RCFN", "RCKH", "RCMQ", "RCNN", "RCSS", "RCTP", "RJAA", "RJAH", "RJAW", "RJBB", "RJBE", "RJCC", "RJCH", "RJCK", "RJCO", "RJDB", "RJDC", "RJEC", "RJFF", "RJFK", "RJFM", "RJFO", "RJFR", "RJFS", "RJFT", "RJFU", "RJGG", "RJKA", "RJKI", "RJNK", "RJNT", "RJOA", "RJOB", "RJOC", "RJOF", "RJOH", "RJOI", "RJOK", "RJOM", "RJOO", "RJOR", "RJOS", "RJOT", "RJSA", "RJSF", "RJSK", "RJSM", "RJSN", "RJSS", "RJSY", "RJTE", "RJTL", "RJTT", "RJTY", "RKJB", "RKJK", "RKNY", "RKPC", "RKPK", "RKSG", "RKSI", "RKSM", "RKSO", "RKSS", "RKTN", "RKTU", "ROAH", "RODN", "ROIG", "ROMD", "ROMY", "RORK", "RORS", "RORT", "RORY", "ROTM", "ROYN", "RPLB", "RPLC", "RPLI", "RPLL", "RPMD", "RPMZ", "RPVD", "RPVM", "RPVP", "SAAP", "SAAR", "SABE", "SACO", "SADF", "SAEZ", "SAME", "SANT", "SAOC", "SARC", "SARE", "SARF", "SARI", "SARL", "SARP", "SASA", "SASJ", "SAVC", "SAWE", "SAWG", "SAWH", "SAZM", "SAZN", "SAZS", "SBAF", "SBAN", "SBAR", "SBAU", "SBAX", "SBBE", "SBBG", "SBBH", "SBBI", "SBBQ", "SBBR", "SBBU", "SBBV", "SBBW", "SBCA", "SBCB", "SBCF", "SBCG", "SBCH", "SBCJ", "SBCO", "SBCP", "SBCR", "SBCT", "SBCX", "SBCY", "SBCZ", "SBDN", "SBEG", "SBES", "SBFI", "SBFL", "SBFN", "SBFS", "SBFZ", "SBGL", "SBGO", "SBGR", "SBGW", "SBHT", "SBIH", "SBIL", "SBIP", "SBJE", "SBJP", "SBJR", "SBJU", "SBJV", "SBKG", "SBKP", "SBLB", "SBLE", "SBLO", "SBLS", "SBMA", "SBME", "SBMG", "SBMK", "SBMN", "SBMO", "SBMQ", "SBMS", "SBMT", "SBMY", "SBNF", "SBNT", "SBPA", "SBPB", "SBPF", "SBPJ", "SBPK", "SBPL", "SBPP", "SBPS", "SBPV", "SBRB", "SBRF", "SBRJ", "SBRP", "SBSC", "SBSG", "SBSJ", "SBSL", "SBSM", "SBSN", "SBSP", "SBSR", "SBST", "SBSV", "SBTA", "SBTE", "SBTF", "SBTT", "SBTU", "SBUL", "SBUR", "SBUY", "SBVH", "SBVT", "SBYS", "SCAR", "SCAT", "SCBA", "SCCF", "SCCH", "SCCI", "SCDA", "SCEL", "SCFA", "SCFT", "SCGE", "SCIC", "SCIE", "SCIP", "SCJO", "SCMK", "SCON", "SCPD", "SCPQ", "SCQP", "SCRD", "SCRG", "SCRM", "SCSE", "SCSN", "SCTB", "SCTE", "SCTN", "SCVD", "SCVM", "SEAM", "SECA", "SECO", "SECU", "SEGS", "SEGU", "SEJD", "SELT", "SEMC", "SEMT", "SENL", "SEQM", "SERB", "SERO", "SESA", "SESM", "SEST", "SETN", "SETU", "SGAS", "SGCO", "SGEN", "SGES", "SGGR", "SGME", "SGPC", "SGPI", "SGPJ", "SGSJ", "SGSP", "SKAR", "SKBG", "SKBO", "SKBQ", "SKCC", "SKCG", "SKCL", "SKEJ", "SKIB", "SKIP", "SKLC", "SKLT", "SKMD", "SKMR", "SKMZ", "SKNV", "SKPC", "SKPE", "SKPS", "SKPV", "SKRG", "SKRH", "SKSM", "SKSP", "SKUC", "SKUI", "SKVP", "SKVV", "SLAL", "SLCA", "SLCB", "SLCO", "SLCP", "SLET", "SLJO", "SLLP", "SLMG", "SLPO", "SLPS", "SLRI", "SLSA", "SLSV", "SLTJ", "SLTR", "SLVR", "SMJP", "SMZO", "SOCA", "SPCL", "SPEO", "SPHI", "SPHO", "SPJC", "SPJE", "SPJJ", "SPJL", "SPJR", "SPLO", "SPME", "SPMS", "SPNC", "SPPY", "SPQT", "SPQU", "SPRU", "SPSO", "SPST", "SPTN", "SPTU", "SPUR", "SPYL", "SPZO", "SUAA", "SUCA", "SULS", "SUMU", "SVBC", "SVBI", "SVBM", "SVBS", "SVCB", "SVCS", "SVFM", "SVGD", "SVGU", "SVJM", "SVLO", "SVMC", "SVMG", "SVMI", "SVMT", "SVPA", "SVPR", "SVSA", "SVSR", "SVVA", "SVVL", "SYCJ", "SYEC", "SYLT", "SYMB", "TAPA", "TBPB", "TDPD", "TFFF", "TFFJ", "TFFR", "TGPY", "TISX", "TJBQ", "TJIG", "TJNR", "TJPS", "TJSJ", "TKPK", "TKPN", "TLPC", "TLPL", "TNCA", "TNCB", "TNCC", "TNCE", "TNCM", "TQPF", "TRPG", "TTCP", "TTPP", "TUPJ", "TVSA", "TXKF", "UAAA", "UACC", "UADD", "UAII", "UAIT", "UAKK", "UAOO", "UARR", "UASK", "UASP", "UATE", "UATG", "UATT", "UAUU", "UBBB", "UBBF", "UBBG", "UBBL", "UBBN", "UBBQ", "UBBY", "UBBZ", "UCFL", "UCFM", "UCFO", "UDSG", "UDYZ", "UEEE", "UERP", "UERR", "UGAM", "UGKO", "UGMS", "UGSB", "UGTB", "UHBB", "UHHH", "UHMA", "UHMM", "UHPP", "UHSS", "UHWW", "UIAA", "UIBB", "UIII", "UIUU", "ULLI", "ULMM", "ULOO", "ULPB", "ULWC", "UMBB", "UMGG", "UMIO", "UMKK", "UMMS", "UNAA", "UNBB", "UNEE", "UNKL", "UNNT", "UNOO", "UNTT", "UNWW", "UOOO", "URKA", "URKK", "URMG", "URML", "URMM", "URMN", "URMO", "URMT", "URRP", "URSS", "URWA", "URWI", "URWW", "USCC", "USCM", "USDA", "USHH", "USNN", "USPP", "USRR", "USSS", "USTR", "UTAA", "UTAK", "UTAM", "UTAT", "UTAV", "UTDD", "UTDK", "UTDL", "UTDT", "UTFF", "UTFN", "UTNN", "UTNU", "UTO8", "UTSA", "UTSB", "UTSK", "UTSS", "UTST", "UTTT", "UUBC", "UUBW", "UUDD", "UUDL", "UUEE", "UUMO", "UUOB", "UUOK", "UUOL", "UUOO", "UUWW", "UUYY", "UWGG", "UWKD", "UWKE", "UWKS", "UWLL", "UWLW", "UWOO", "UWOR", "UWPS", "UWSG", "UWUU", "UWWW", "VAAH", "VABB", "VANP", "VCBI", "VCRI", "VDPP", "VDSR", "VDSV", "VEBN", "VEBS", "VECC", "VEGY", "VEPT", "VERC", "VGHS", "VHHH", "VIAR", "VIDP", "VIJP", "VILK", "VMMC", "VNKT", "VOBL", "VOCB", "VOCI", "VOCL", "VOHS", "VOKN", "VOML", "VOMM", "VOPB", "VOTR", "VOTV", "VOVZ", "VRMG", "VRMH", "VRMM", "VTBD", "VTBS", "VTBU", "VTCC", "VTCH", "VTCN", "VTCP", "VTCT", "VTPB", "VTPH", "VTPM", "VTPO", "VTPP", "VTPT", "VTSB", "VTSC", "VTSF", "VTSG", "VTSM", "VTSP", "VTSR", "VTSS", "VTST", "VTUD", "VTUI", "VTUK", "VTUL", "VTUO", "VTUQ", "VTUU", "VTUV", "VTUW", "VVCI", "VVCR", "VVCT", "VVDN", "VVNB", "VVPB", "VVPQ", "VVTS", "VVVD", "VYYY", "WAAA", "WABB", "WADD", "WADL", "WAHS", "WAJJ", "WAKK", "WALL", "WAMM", "WAOO", "WAPP", "WAQQ", "WARR", "WATT", "WAYY", "WBGB", "WBGG", "WBGR", "WBGS", "WBGY", "WBKK", "WBKL", "WBKS", "WBKT", "WBKW", "WBSB", "WIBB", "WIDD", "WIEE", "WIHH", "WIII", "WIMM", "WIOO", "WIPP", "WMAU", "WMBA", "WMKA", "WMKB", "WMKC", "WMKD", "WMKE", "WMKI", "WMKJ", "WMKK", "WMKL", "WMKM", "WMKN", "WMKP", "WMSA", "WSAP", "WSSL", "WSSS", "YAMB", "YBAS", "YBBN", "YBCG", "YBCS", "YBHM", "YBLN", "YBMA", "YBRK", "YBRM", "YBSU", "YBTL", "YBWW", "YCFS", "YCIN", "YFRT", "YGEL", "YGLA", "YHID", "YLHI", "YMAV", "YMHB", "YMLT", "YMML", "YPAD", "YPCC", "YPDN", "YPEA", "YPGV", "YPJT", "YPKG", "YPKU", "YPLM", "YPPD", "YPPH", "YPTN", "YPWR", "YPXM", "YSCB", "YSDU", "YSNF", "YSRI", "YSSY", "YSTW", "YWLM", "ZBAA", "ZBAD", "ZBHH", "ZBSJ", "ZBTJ", "ZBYN", "ZGGG", "ZGHA", "ZGKL", "ZGNN", "ZGOW", "ZGSZ", "ZHCC", "ZHHH", "ZJHK", "ZJSY", "ZLLL", "ZLXY", "ZMCK", "ZMUB", "ZPPP", "ZSAM", "ZSFZ", "ZSHC", "ZSNB", "ZSNJ", "ZSOF", "ZSPD", "ZSQD", "ZSSS", "ZUCK", "ZUGY", "ZUTF", "ZUUU", "ZWSH", "ZWWW", "ZYCC", "ZYHB", "ZYTL", "ZYTX"], "observation_time": ["2023-07-07T21:00:00Z", "2023-07-07T22:00:00Z", "2023-07-07T22:00:00Z", "2023-07-07T22:00:00Z", "2023-07-07T21:00:00Z", "2023-07-07T21:50:00Z", "2023-07-07T21:50:00Z", "2023-07-07T21:50:00Z", "2023-07-07T21:50:00Z", "2023-07-07T21:50:00Z", "2023-07-07T21:55:00Z", "2023-07-07T22:00:00Z", "2023-07-07T22:00:00Z", "2023-07-07T22:00:00Z", "2023-07-07T22:00:00Z", "2023-07-07T22:00:00Z", "2023-07-07T22:00:00Z", "2023-07-07T21:00:00Z", "2023-07-07T21:00:00Z", "2023-07-07T21:00:00Z", "2023-07-07T21:00:00Z", "2023-07-07T21:00:00Z", "2023-07-07T21:00:00Z", "2023-07-07T21:00:00Z", "2023-07-07T21:00:00Z", "2023-07-07T21:00:00Z", "2023-07-07T21:00:00Z", "2023-07-07T21:00:00Z", "2023-07-07T21:00:00Z", "2023-07-07T21:00:00Z", "2023-07-07T21:00:00Z", "2023-07-07T21:00:00Z", "2023-07-07T21:00:00Z", "2023-07-07T21:00:00Z", "2023-07-07T21:00:00Z", "2023-07-07T21:00:00Z", "2023-07-07T21:00:00Z", "2023-07-07T21:00:00Z", "2023-07-07T21:00:00Z", "2023-07-07T21:00:00Z", "2023-07-07T21:00:00Z", "2023-07-07T21:00:00Z", "2023-07-07T21:00:00Z", "2023-07-07T21:00:00Z", "2023-07-07T21:00:00Z", "2023-07-07T21:00:00Z", "2023-07-07T21:00:00Z", "2023-07-07T21:00:00Z", "2023-07-07T21:00:00Z", "2023-07-07T21:00:00Z", "2023-07-07T21:00:00Z", "2023-07-07T21:00:00Z", "2023-07-07T21:00:00Z", "2023-07-07T21:00:00Z", "2023-07-07T21:00:00Z", "2023-07-07T21:00:00Z", "2023-07-07T21:00:00Z", "2023-07-07T21:00:00Z", "2023-07-07T21:00:00Z", "2023-07-07T21:00:00Z", "2023-07-07T21:00:00Z", "2023-07-07T21:00:00Z", "2023-07-07T21:00:00Z", "2023-07-07T21:00:00Z", "2023-07-07T21:00:00Z", "2023-07-07T21:00:00Z", "2023-07-07T21:00:00Z", "2023-07-07T21:00:00Z", "2023-07-07T21:00:00Z", "2023-07-07T21:00:00Z", "2023-07-07T21:00:00Z", "2023-07-07T21:00:00Z", "2023-07-07T21:00:00Z", "2023-07-07T21:00:00Z", "2023-07-07T21:00:00Z", "2023-07-07T21:00:00Z", "2023-07-07T21:00:00Z", "2023-07-07T21:00:00Z", "2023-07-07T21:00:00Z", "2023-07-07T21:00:00Z", "2023-07-07T21:00:00Z", "2023-07-07T21:00:00Z", "2023-07-07T21:00:00Z", "2023-07-07T21:00:00Z", "2023-07-07T21:00:00Z", "2023-07-07T21:00:00Z", "2023-07-07T21:00:00Z", "2023-07-07T21:00:00Z", "2023-07-07T21:00:00Z", "2023-07-07T21:00:00Z", "2023-07-07T21:00:00Z", "2023-07-07T21:00:00Z", "2023-07-07T21:00:00Z", "2023-07-07T21:00:00Z", "2023-07-07T21:00:00Z", "2023-07-07T21:00:00Z", "2023-07-07T21:00:00Z", "2023-07-07T21:00:00Z", "2023-07-07T21:00:00Z", "2023-07-07T21:00:00Z", "2023-07-07T21:00:00Z", "2023-07-07T21:00:00Z", "2023-07-07T21:00:00Z", "2023-07-07T21:00:00Z", "2023-07-07T21:00:00Z", "2023-07-07T21:00:00Z", "2023-07-07T21:00:00Z", "2023-07-07T21:00:00Z", "2023-07-07T21:00:00Z", "2023-07-07T21:00:00Z", "2023-07-07T21:00:00Z", "2023-07-07T21:00:00Z", "2023-07-07T21:00:00Z", "2023-07-07T21:00:00Z", "2023-07-07T21:00:00Z", "2023-07-07T21:00:00Z", "2023-07-07T21:00:00Z", "2023-07-07T21:00:00Z", "2023-07-07T21:00:00Z", "2023-07-07T21:00:00Z", "2023-07-07T21:00:00Z", "2023-07-07T21:00:00Z", "2023-07-07T21:00:00Z", "2023-07-07T21:00:00Z", "2023-07-07T21:00:00Z", "2023-07-07T21:00:00Z", "2023-07-07T21:00:00Z", "2023-07-07T21:00:00Z", "2023-07-07T21:00:00Z", "2023-07-07T21:00:00Z", "2023-07-07T21:00:00Z", "2023-07-07T21:00:00Z", "2023-07-07T21:00:00Z", "2023-07-07T21:00:00Z", "2023-07-07T21:00:00Z", "2023-07-07T21:00:00Z", "2023-07-07T21:00:00Z", "2023-07-07T21:00:00Z", "2023-07-07T21:00:00Z", "2023-07-07T21:00:00Z", "2023-07-07T21:00:00Z", "2023-07-07T21:00:00Z", "2023-07-07T21:00:00Z", "2023-07-07T21:00:00Z", "2023-07-07T21:00:00Z", "2023-07-07T21:00:00Z", "2023-07-07T21:00:00Z", "2023-07-07T21:00:00Z", "2023-07-07T21:45:00Z", "2023-07-07T21:00:00Z", "2023-07-07T21:00:00Z", "2023-07-07T21:00:00Z", "2023-07-07T21:00:00Z", "2023-07-07T21:00:00Z", "2023-07-07T21:00:00Z", "2023-07-07T21:00:00Z", "2023-07-07T21:00:00Z", "2023-07-07T21:00:00Z", "2023-07-07T21:00:00Z", "2023-07-07T21:00:00Z", "2023-07-07T21:00:00Z", "2023-07-07T21:00:00Z", "2023-07-07T21:00:00Z", "2023-07-07T21:00:00Z", "2023-07-07T21:00:00Z", "2023-07-07T21:00:00Z", "2023-07-07T21:00:00Z", "2023-07-07T21:00:00Z", "2023-07-07T21:00:00Z", "2023-07-07T21:00:00Z", "2023-07-07T21:00:00Z", "2023-07-07T22:04:00Z", "2023-07-07T21:00:00Z", "2023-07-07T21:00:00Z", "2023-07-07T21:00:00Z", "2023-07-07T21:00:00Z", "2023-07-07T21:00:00Z", "2023-07-07T21:00:00Z", "2023-07-07T21:00:00Z", "2023-07-07T21:00:00Z", "2023-07-07T21:00:00Z", "2023-07-07T21:36:00Z", "2023-07-07T21:00:00Z", "2023-07-07T21:00:00Z", "2023-07-07T21:00:00Z", "2023-07-07T21:00:00Z", "2023-07-07T21:00:00Z", "2023-07-07T21:00:00Z", "2023-07-07T21:00:00Z", "2023-07-07T21:00:00Z", "2023-07-07T21:00:00Z", "2023-07-07T21:00:00Z", "2023-07-07T21:00:00Z", "2023-07-07T21:00:00Z", "2023-07-07T21:00:00Z", "2023-07-07T21:00:00Z", "2023-07-07T21:00:00Z", "2023-07-07T21:00:00Z", "2023-07-07T21:00:00Z", "2023-07-07T21:00:00Z", "2023-07-07T21:00:00Z", "2023-07-07T21:00:00Z", "2023-07-07T21:00:00Z", "2023-07-07T21:00:00Z", "2023-07-07T21:00:00Z", "2023-07-07T21:00:00Z", "2023-07-07T21:00:00Z", "2023-07-07T21:00:00Z", "2023-07-07T21:00:00Z", "2023-07-07T21:00:00Z", "2023-07-07T21:00:00Z", "2023-07-07T21:00:00Z", "2023-07-07T21:00:00Z", "2023-07-07T21:00:00Z", "2023-07-07T21:00:00Z", "2023-07-07T21:00:00Z", "2023-07-07T21:00:00Z", "2023-07-07T21:00:00Z", "2023-07-07T21:00:00Z", "2023-07-07T21:00:00Z", "2023-07-07T21:00:00Z", "2023-07-07T21:00:00Z", "2023-07-07T21:00:00Z", "2023-07-07T21:00:00Z", "2023-07-07T21:00:00Z", "2023-07-07T21:00:00Z", "2023-07-07T21:00:00Z", "2023-07-07T21:00:00Z", "2023-07-07T21:00:00Z", "2023-07-07T21:00:00Z", "2023-07-07T21:00:00Z", "2023-07-07T21:00:00Z", "2023-07-07T21:00:00Z", "2023-07-07T21:00:00Z", "2023-07-07T21:00:00Z", "2023-07-07T21:00:00Z", "2023-07-07T21:00:00Z", "2023-07-07T21:00:00Z", "2023-07-07T21:00:00Z", "2023-07-07T21:00:00Z", "2023-07-07T21:00:00Z", "2023-07-07T21:00:00Z", "2023-07-07T21:00:00Z", "2023-07-07T21:00:00Z", "2023-07-07T21:00:00Z", "2023-07-07T21:00:00Z", "2023-07-07T21:00:00Z", "2023-07-07T21:00:00Z", "2023-07-07T21:00:00Z", "2023-07-07T21:00:00Z", "2023-07-07T21:00:00Z", "2023-07-07T21:00:00Z", "2023-07-07T21:00:00Z", "2023-07-07T21:00:00Z", "2023-07-07T21:00:00Z", "2023-07-07T21:00:00Z", "2023-07-07T21:00:00Z", "2023-07-07T21:00:00Z", "2023-07-07T21:00:00Z", "2023-07-07T21:00:00Z", "2023-07-07T21:00:00Z", "2023-07-07T21:00:00Z", "2023-07-07T21:00:00Z", "2023-07-07T21:00:00Z", "2023-07-07T21:00:00Z", "2023-07-07T21:00:00Z", "2023-07-07T21:00:00Z", "2023-07-07T21:00:00Z", "2023-07-07T21:00:00Z", "2023-07-07T21:00:00Z", "2023-07-07T21:00:00Z", "2023-07-07T21:00:00Z", "2023-07-07T21:00:00Z", "2023-07-07T21:00:00Z", "2023-07-07T21:00:00Z", "2023-07-07T21:00:00Z", "2023-07-07T21:00:00Z", "2023-07-07T21:00:00Z", "2023-07-07T21:00:00Z", "2023-07-07T21:00:00Z", "2023-07-07T21:00:00Z", "2023-07-07T21:00:00Z", "2023-07-07T21:00:00Z", "2023-07-07T21:00:00Z", "2023-07-07T21:00:00Z", "2023-07-07T21:00:00Z", "2023-07-07T21:00:00Z", "2023-07-07T21:00:00Z", "2023-07-07T21:00:00Z", "2023-07-07T21:00:00Z", "2023-07-07T21:00:00Z", "2023-07-07T21:00:00Z", "2023-07-07T21:00:00Z", "2023-07-07T21:00:00Z", "2023-07-07T21:00:00Z", "2023-07-07T21:00:00Z", "2023-07-07T21:00:00Z", "2023-07-07T21:00:00Z", "2023-07-07T21:00:00Z", "2023-07-07T21:00:00Z", "2023-07-07T21:56:00Z", "2023-07-07T21:00:00Z", "2023-07-07T21:00:00Z", "2023-07-07T21:00:00Z", "2023-07-07T21:47:00Z", "2023-07-07T21:00:00Z", "2023-07-07T21:24:00Z", "2023-07-07T21:00:00Z", "2023-07-07T21:00:00Z", "2023-07-07T22:00:00Z", "2023-07-07T21:00:00Z", "2023-07-07T21:00:00Z", "2023-07-07T21:00:00Z", "2023-07-07T21:00:00Z", "2023-07-07T21:00:00Z", "2023-07-07T21:00:00Z", "2023-07-07T21:00:00Z", "2023-07-07T21:00:00Z", "2023-07-07T21:00:00Z", "2023-07-07T21:00:00Z", "2023-07-07T21:00:00Z", "2023-07-07T21:00:00Z", "2023-07-07T21:00:00Z", "2023-07-07T21:00:00Z", "2023-07-07T21:00:00Z", "2023-07-07T21:00:00Z", "2023-07-07T21:00:00Z", "2023-07-07T21:00:00Z", "2023-07-07T21:00:00Z", "2023-07-07T21:00:00Z", "2023-07-07T21:00:00Z", "2023-07-07T21:00:00Z", "2023-07-07T21:00:00Z", "2023-07-07T21:00:00Z", "2023-07-07T21:00:00Z", "2023-07-07T21:00:00Z", "2023-07-07T21:00:00Z", "2023-07-07T21:00:00Z", "2023-07-07T21:00:00Z", "2023-07-07T21:00:00Z", "2023-07-07T21:00:00Z", "2023-07-07T21:00:00Z", "2023-07-07T21:00:00Z", "2023-07-07T21:00:00Z", "2023-07-07T21:38:00Z", "2023-07-07T21:00:00Z", "2023-07-07T21:00:00Z", "2023-07-07T21:00:00Z", "2023-07-07T21:00:00Z", "2023-07-07T21:00:00Z", "2023-07-07T21:00:00Z", "2023-07-07T21:00:00Z", "2023-07-07T21:00:00Z", "2023-07-07T21:00:00Z", "2023-07-07T21:00:00Z", "2023-07-07T21:00:00Z", "2023-07-07T21:00:00Z", "2023-07-07T21:00:00Z", "2023-07-07T21:00:00Z", "2023-07-07T21:00:00Z", "2023-07-07T21:00:00Z", "2023-07-07T21:00:00Z", "2023-07-07T21:00:00Z", "2023-07-07T21:00:00Z", "2023-07-07T21:00:00Z", "2023-07-07T21:00:00Z", "2023-07-07T21:00:00Z", "2023-07-07T21:00:00Z", "2023-07-07T21:55:00Z", "2023-07-07T21:00:00Z", "2023-07-07T21:00:00Z", "2023-07-07T21:00:00Z", "2023-07-07T21:00:00Z", "2023-07-07T21:20:00Z", "2023-07-07T21:00:00Z", "2023-07-07T21:00:00Z", "2023-07-07T21:00:00Z", "2023-07-07T21:00:00Z", "2023-07-07T22:04:00Z", "2023-07-07T21:00:00Z", "2023-07-07T21:00:00Z", "2023-07-07T21:00:00Z", "2023-07-07T21:00:00Z", "2023-07-07T21:00:00Z", "2023-07-07T21:00:00Z", "2023-07-07T21:00:00Z", "2023-07-07T21:00:00Z", "2023-07-07T21:00:00Z", "2023-07-07T21:00:00Z", "2023-07-07T21:00:00Z", "2023-07-07T21:00:00Z", "2023-07-07T21:00:00Z", "2023-07-07T21:41:00Z", "2023-07-07T21:00:00Z", "2023-07-07T21:00:00Z", "2023-07-07T21:00:00Z", "2023-07-07T21:00:00Z", "2023-07-07T21:00:00Z", "2023-07-07T21:00:00Z", "2023-07-07T22:01:00Z", "2023-07-07T21:00:00Z", "2023-07-07T21:00:00Z", "2023-07-07T21:00:00Z", "2023-07-07T21:00:00Z", "2023-07-07T21:00:00Z", "2023-07-07T21:00:00Z", "2023-07-07T21:00:00Z", "2023-07-07T21:00:00Z", "2023-07-07T21:00:00Z", "2023-07-07T21:00:00Z", "2023-07-07T21:00:00Z", "2023-07-07T21:00:00Z", "2023-07-07T21:00:00Z", "2023-07-07T21:00:00Z", "2023-07-07T21:00:00Z", "2023-07-07T21:00:00Z", "2023-07-07T21:00:00Z", "2023-07-07T21:00:00Z", "2023-07-07T21:00:00Z", "2023-07-07T21:00:00Z", "2023-07-07T21:00:00Z", "2023-07-07T21:00:00Z", "2023-07-07T21:00:00Z", "2023-07-07T21:00:00Z", "2023-07-07T21:00:00Z", "2023-07-07T21:00:00Z", "2023-07-07T21:00:00Z", "2023-07-07T21:00:00Z", "2023-07-07T21:00:00Z", "2023-07-07T21:00:00Z", "2023-07-07T21:00:00Z", "2023-07-07T21:00:00Z", "2023-07-07T21:13:00Z", "2023-07-07T21:00:00Z", "2023-07-07T21:00:00Z", "2023-07-07T21:00:00Z", "2023-07-07T21:00:00Z", "2023-07-07T21:00:00Z", "2023-07-07T21:00:00Z", "2023-07-07T21:00:00Z", "2023-07-07T21:00:00Z", "2023-07-07T21:00:00Z", "2023-07-07T21:00:00Z", "2023-07-07T21:00:00Z", "2023-07-07T21:21:00Z", "2023-07-07T21:00:00Z", "2023-07-07T21:00:00Z", "2023-07-07T21:00:00Z", "2023-07-07T21:00:00Z", "2023-07-07T21:00:00Z", "2023-07-07T21:00:00Z", "2023-07-07T21:00:00Z", "2023-07-07T21:00:00Z", "2023-07-07T21:00:00Z", "2023-07-07T21:00:00Z", "2023-07-07T21:37:00Z", "2023-07-07T21:00:00Z", "2023-07-07T21:00:00Z", "2023-07-07T21:00:00Z", "2023-07-07T21:00:00Z", "2023-07-07T22:04:00Z", "2023-07-07T21:00:00Z", "2023-07-07T21:00:00Z", "2023-07-07T21:00:00Z", "2023-07-07T21:54:00Z", "2023-07-07T21:00:00Z", "2023-07-07T21:00:00Z", "2023-07-07T21:00:00Z", "2023-07-07T21:00:00Z", "2023-07-07T21:00:00Z", "2023-07-07T21:00:00Z", "2023-07-07T21:00:00Z", "2023-07-07T21:00:00Z", "2023-07-07T21:46:00Z", "2023-07-07T21:00:00Z", "2023-07-07T21:00:00Z", "2023-07-07T21:00:00Z", "2023-07-07T21:00:00Z", "2023-07-07T21:00:00Z", "2023-07-07T21:00:00Z", "2023-07-07T21:23:00Z", "2023-07-07T21:00:00Z", "2023-07-07T21:00:00Z", "2023-07-07T21:00:00Z", "2023-07-07T21:00:00Z", "2023-07-07T21:58:00Z", "2023-07-07T21:00:00Z", "2023-07-07T21:00:00Z", "2023-07-07T21:00:00Z", "2023-07-07T21:00:00Z", "2023-07-07T21:00:00Z", "2023-07-07T21:00:00Z", "2023-07-07T21:00:00Z", "2023-07-07T21:31:00Z", "2023-07-07T21:00:00Z", "2023-07-07T21:46:00Z", "2023-07-07T21:00:00Z", "2023-07-07T21:00:00Z", "2023-07-07T21:00:00Z", "2023-07-07T21:00:00Z", "2023-07-07T21:00:00Z", "2023-07-07T21:00:00Z", "2023-07-07T21:00:00Z", "2023-07-07T21:00:00Z", "2023-07-07T21:00:00Z", "2023-07-07T21:00:00Z", "2023-07-07T21:00:00Z", "2023-07-07T22:03:00Z", "2023-07-07T21:00:00Z", "2023-07-07T21:00:00Z", "2023-07-07T21:00:00Z", "2023-07-07T21:48:00Z", "2023-07-07T21:00:00Z", "2023-07-07T21:00:00Z", "2023-07-07T21:00:00Z", "2023-07-07T21:00:00Z", "2023-07-07T21:00:00Z", "2023-07-07T21:00:00Z", "2023-07-07T21:00:00Z", "2023-07-07T21:00:00Z", "2023-07-07T21:00:00Z", "2023-07-07T21:00:00Z", "2023-07-07T21:00:00Z", "2023-07-07T21:00:00Z", "2023-07-07T21:00:00Z", "2023-07-07T21:50:00Z", "2023-07-07T21:00:00Z", "2023-07-07T21:52:00Z", "2023-07-07T21:00:00Z", "2023-07-07T21:00:00Z", "2023-07-07T21:00:00Z", "2023-07-07T21:00:00Z", "2023-07-07T21:00:00Z", "2023-07-07T21:00:00Z", "2023-07-07T21:00:00Z", "2023-07-07T21:00:00Z", "2023-07-07T21:00:00Z", "2023-07-07T22:00:00Z", "2023-07-07T22:00:00Z", "2023-07-07T22:00:00Z", "2023-07-07T22:00:00Z", "2023-07-07T22:00:00Z", "2023-07-07T22:00:00Z", "2023-07-07T22:00:00Z", "2023-07-07T22:00:00Z", "2023-07-07T22:00:00Z", "2023-07-07T22:00:00Z", "2023-07-07T22:00:00Z", "2023-07-07T22:00:00Z", "2023-07-07T22:00:00Z", "2023-07-07T22:00:00Z", "2023-07-07T22:00:00Z", "2023-07-07T22:00:00Z", "2023-07-07T22:00:00Z", "2023-07-07T22:00:00Z", "2023-07-07T22:00:00Z", "2023-07-07T22:00:00Z", "2023-07-07T22:00:00Z", "2023-07-07T22:00:00Z", "2023-07-07T22:00:00Z", "2023-07-07T22:00:00Z", "2023-07-07T22:00:00Z", "2023-07-07T22:00:00Z", "2023-07-07T22:00:00Z", "2023-07-07T22:00:00Z", "2023-07-07T22:00:00Z", "2023-07-07T22:00:00Z", "2023-07-07T22:00:00Z", "2023-07-07T22:00:00Z", "2023-07-07T22:00:00Z", "2023-07-07T21:00:00Z", "2023-07-07T21:00:00Z", "2023-07-07T21:00:00Z", "2023-07-07T21:00:00Z", "2023-07-07T22:00:00Z", "2023-07-07T21:00:00Z", "2023-07-07T21:00:00Z", "2023-07-07T21:00:00Z", "2023-07-07T21:00:00Z", "2023-07-07T21:00:00Z", "2023-07-07T21:00:00Z", "2023-07-07T21:00:00Z", "2023-07-07T21:00:00Z", "2023-07-07T21:00:00Z", "2023-07-07T21:00:00Z", "2023-07-07T21:00:00Z", "2023-07-07T21:00:00Z", "2023-07-07T22:00:00Z", "2023-07-07T22:00:00Z", "2023-07-07T22:00:00Z", "2023-07-07T22:00:00Z", "2023-07-07T21:00:00Z", "2023-07-07T21:00:00Z", "2023-07-07T22:00:00Z", "2023-07-07T22:00:00Z", "2023-07-07T22:00:00Z", "2023-07-07T21:00:00Z", "2023-07-07T21:00:00Z", "2023-07-07T21:00:00Z", "2023-07-07T22:00:00Z", "2023-07-07T22:00:00Z", "2023-07-07T21:00:00Z", "2023-07-07T21:00:00Z", "2023-07-07T21:00:00Z", "2023-07-07T21:00:00Z", "2023-07-07T21:50:00Z", "2023-07-07T21:55:00Z", "2023-07-07T21:55:00Z", "2023-07-07T21:50:00Z", "2023-07-07T21:50:00Z", "2023-07-07T21:55:00Z", "2023-07-07T21:55:00Z", "2023-07-07T21:55:00Z", "2023-07-07T21:55:00Z", "2023-07-07T21:55:00Z", "2023-07-07T21:50:00Z", "2023-07-07T21:50:00Z", "2023-07-07T21:50:00Z", "2023-07-07T21:50:00Z", "2023-07-07T21:50:00Z", "2023-07-07T21:50:00Z", "2023-07-07T21:50:00Z", "2023-07-07T21:50:00Z", "2023-07-07T21:50:00Z", "2023-07-07T21:50:00Z", "2023-07-07T21:50:00Z", "2023-07-07T21:50:00Z", "2023-07-07T21:50:00Z", "2023-07-07T21:50:00Z", "2023-07-07T21:50:00Z", "2023-07-07T21:50:00Z", "2023-07-07T21:50:00Z", "2023-07-07T21:50:00Z", "2023-07-07T21:50:00Z", "2023-07-07T21:50:00Z", "2023-07-07T21:50:00Z", "2023-07-07T21:50:00Z", "2023-07-07T21:50:00Z", "2023-07-07T21:50:00Z", "2023-07-07T21:50:00Z", "2023-07-07T21:50:00Z", "2023-07-07T21:50:00Z", "2023-07-07T21:50:00Z", "2023-07-07T21:50:00Z", "2023-07-07T21:50:00Z", "2023-07-07T21:50:00Z", "2023-07-07T21:50:00Z", "2023-07-07T21:50:00Z", "2023-07-07T21:50:00Z", "2023-07-07T21:50:00Z", "2023-07-07T21:50:00Z", "2023-07-07T21:50:00Z", "2023-07-07T21:50:00Z", "2023-07-07T21:50:00Z", "2023-07-07T21:50:00Z", "2023-07-07T21:50:00Z", "2023-07-07T21:50:00Z", "2023-07-07T21:50:00Z", "2023-07-07T21:50:00Z", "2023-07-07T21:50:00Z", "2023-07-07T21:50:00Z", "2023-07-07T21:50:00Z", "2023-07-07T21:50:00Z", "2023-07-07T21:50:00Z", "2023-07-07T21:50:00Z", "2023-07-07T21:50:00Z", "2023-07-07T21:50:00Z", "2023-07-07T21:50:00Z", "2023-07-07T21:50:00Z", "2023-07-07T21:50:00Z", "2023-07-07T21:50:00Z", "2023-07-07T21:50:00Z", "2023-07-07T21:50:00Z", "2023-07-07T21:50:00Z", "2023-07-07T21:50:00Z", "2023-07-07T21:50:00Z", "2023-07-07T21:50:00Z", "2023-07-07T21:50:00Z", "2023-07-07T21:50:00Z", "2023-07-07T21:50:00Z", "2023-07-07T21:50:00Z", "2023-07-07T21:50:00Z", "2023-07-07T21:50:00Z", "2023-07-07T21:50:00Z", "2023-07-07T21:50:00Z", "2023-07-07T21:50:00Z", "2023-07-07T21:50:00Z", "2023-07-07T21:50:00Z", "2023-07-07T21:50:00Z", "2023-07-07T21:50:00Z", "2023-07-07T21:50:00Z", "2023-07-07T21:50:00Z", "2023-07-07T21:50:00Z", "2023-07-07T21:50:00Z", "2023-07-07T21:50:00Z", "2023-07-07T21:50:00Z", "2023-07-07T21:50:00Z", "2023-07-07T21:50:00Z", "2023-07-07T21:50:00Z", "2023-07-07T21:50:00Z", "2023-07-07T21:50:00Z", "2023-07-07T21:20:00Z", "2023-07-07T21:50:00Z", "2023-07-07T21:50:00Z", "2023-07-07T21:50:00Z", "2023-07-07T21:50:00Z", "2023-07-07T21:20:00Z", "2023-07-07T21:50:00Z", "2023-07-07T21:50:00Z", "2023-07-07T21:50:00Z", "2023-07-07T21:50:00Z", "2023-07-07T21:50:00Z", "2023-07-07T21:50:00Z", "2023-07-07T21:50:00Z", "2023-07-07T21:50:00Z", "2023-07-07T21:50:00Z", "2023-07-07T21:50:00Z", "2023-07-07T21:50:00Z", "2023-07-07T21:20:00Z", "2023-07-07T21:50:00Z", "2023-07-07T21:50:00Z", "2023-07-07T21:50:00Z", "2023-07-07T21:50:00Z", "2023-07-07T21:50:00Z", "2023-07-07T21:50:00Z", "2023-07-07T21:50:00Z", "2023-07-07T21:50:00Z", "2023-07-07T21:50:00Z", "2023-07-07T21:50:00Z", "2023-07-07T21:50:00Z", "2023-07-07T21:50:00Z", "2023-07-07T21:50:00Z", "2023-07-07T21:50:00Z", "2023-07-07T21:50:00Z", "2023-07-07T21:50:00Z", "2023-07-07T21:50:00Z", "2023-07-07T21:50:00Z", "2023-07-07T21:50:00Z", "2023-07-07T21:20:00Z", "2023-07-07T21:50:00Z", "2023-07-07T21:55:00Z", "2023-07-07T21:50:00Z", "2023-07-07T21:55:00Z", "2023-07-07T21:50:00Z", "2023-07-07T21:50:00Z", "2023-07-07T21:50:00Z", "2023-07-07T21:50:00Z", "2023-07-07T21:50:00Z", "2023-07-07T21:50:00Z", "2023-07-07T21:50:00Z", "2023-07-07T21:50:00Z", "2023-07-07T21:50:00Z", "2023-07-07T21:50:00Z", "2023-07-07T21:50:00Z", "2023-07-07T21:50:00Z", "2023-07-07T21:50:00Z", "2023-07-07T21:20:00Z", "2023-07-07T21:50:00Z", "2023-07-07T21:50:00Z", "2023-07-07T21:50:00Z", "2023-07-07T21:55:00Z", "2023-07-07T21:55:00Z", "2023-07-07T21:55:00Z", "2023-07-07T21:55:00Z", "2023-07-07T21:55:00Z", "2023-07-07T21:55:00Z", "2023-07-07T21:55:00Z", "2023-07-07T21:55:00Z", "2023-07-07T21:55:00Z", "2023-07-07T21:55:00Z", "2023-07-07T21:55:00Z", "2023-07-07T21:55:00Z", "2023-07-07T21:55:00Z", "2023-07-07T21:55:00Z", "2023-07-07T21:55:00Z", "2023-07-07T21:55:00Z", "2023-07-07T21:55:00Z", "2023-07-07T21:55:00Z", "2023-07-07T21:55:00Z", "2023-07-07T21:55:00Z", "2023-07-07T21:55:00Z", "2023-07-07T21:55:00Z", "2023-07-07T21:55:00Z", "2023-07-07T21:55:00Z", "2023-07-07T21:55:00Z", "2023-07-07T21:55:00Z", "2023-07-07T22:00:00Z", "2023-07-07T22:00:00Z", "2023-07-07T22:00:00Z", "2023-07-07T22:00:00Z", "2023-07-07T21:50:00Z", "2023-07-07T21:50:00Z", "2023-07-07T21:50:00Z", "2023-07-07T21:50:00Z", "2023-07-07T21:50:00Z", "2023-07-07T21:50:00Z", "2023-07-07T21:50:00Z", "2023-07-07T21:50:00Z", "2023-07-07T21:50:00Z", "2023-07-07T21:50:00Z", "2023-07-07T21:50:00Z", "2023-07-07T21:50:00Z", "2023-07-07T21:50:00Z", "2023-07-07T21:50:00Z", "2023-07-07T21:50:00Z", "2023-07-07T21:50:00Z", "2023-07-07T21:50:00Z", "2023-07-07T21:50:00Z", "2023-07-07T21:50:00Z", "2023-07-07T21:50:00Z", "2023-07-07T21:50:00Z", "2023-07-07T21:50:00Z", "2023-07-07T21:50:00Z", "2023-07-07T21:50:00Z", "2023-07-07T21:50:00Z", "2023-07-07T21:50:00Z", "2023-07-07T21:50:00Z", "2023-07-07T21:50:00Z", "2023-07-07T21:50:00Z", "2023-07-07T21:50:00Z", "2023-07-07T21:50:00Z", "2023-07-07T21:50:00Z", "2023-07-07T21:50:00Z", "2023-07-07T21:50:00Z", "2023-07-07T21:50:00Z", "2023-07-07T21:50:00Z", "2023-07-07T21:50:00Z", "2023-07-07T21:50:00Z", "2023-07-07T21:50:00Z", "2023-07-07T21:50:00Z", "2023-07-07T21:50:00Z", "2023-07-07T21:50:00Z", "2023-07-07T21:50:00Z", "2023-07-07T21:50:00Z", "2023-07-07T21:50:00Z", "2023-07-07T21:50:00Z", "2023-07-07T21:50:00Z", "2023-07-07T21:50:00Z", "2023-07-07T21:20:00Z", "2023-07-07T21:50:00Z", "2023-07-07T21:50:00Z", "2023-07-07T21:50:00Z", "2023-07-07T21:50:00Z", "2023-07-07T21:50:00Z", "2023-07-07T21:50:00Z", "2023-07-07T21:50:00Z", "2023-07-07T21:50:00Z", "2023-07-07T21:50:00Z", "2023-07-07T21:50:00Z", "2023-07-07T21:50:00Z", "2023-07-07T21:50:00Z", "2023-07-07T21:50:00Z", "2023-07-07T21:50:00Z", "2023-07-07T21:50:00Z", "2023-07-07T21:50:00Z", "2023-07-07T21:50:00Z", "2023-07-07T21:50:00Z", "2023-07-07T21:20:00Z", "2023-07-07T21:50:00Z", "2023-07-07T21:50:00Z", "2023-07-07T21:50:00Z", "2023-07-07T21:50:00Z", "2023-07-07T21:50:00Z", "2023-07-07T21:50:00Z", "2023-07-07T21:50:00Z", "2023-07-07T21:50:00Z", "2023-07-07T22:00:00Z", "2023-07-07T22:00:00Z", "2023-07-07T22:00:00Z", "2023-07-07T22:00:00Z", "2023-07-07T22:00:00Z", "2023-07-07T22:00:00Z", "2023-07-07T22:00:00Z", "2023-07-07T22:00:00Z", "2023-07-07T22:00:00Z", "2023-07-07T22:00:00Z", "2023-07-07T22:00:00Z", "2023-07-07T22:00:00Z", "2023-07-07T22:00:00Z", "2023-07-07T21:50:00Z", "2023-07-07T21:50:00Z", "2023-07-07T21:50:00Z", "2023-07-07T21:50:00Z", "2023-07-07T21:50:00Z", "2023-07-07T21:50:00Z", "2023-07-07T21:50:00Z", "2023-07-07T21:50:00Z", "2023-07-07T21:50:00Z", "2023-07-07T21:50:00Z", "2023-07-07T21:50:00Z", "2023-07-07T21:50:00Z", "2023-07-07T21:50:00Z", "2023-07-07T21:50:00Z", "2023-07-07T21:50:00Z", "2023-07-07T21:50:00Z", "2023-07-07T21:50:00Z", "2023-07-07T21:50:00Z", "2023-07-07T21:50:00Z", "2023-07-07T21:50:00Z", "2023-07-07T21:50:00Z", "2023-07-07T21:50:00Z", "2023-07-07T21:50:00Z", "2023-07-07T21:50:00Z", "2023-07-07T21:50:00Z", "2023-07-07T21:50:00Z", "2023-07-07T21:50:00Z", "2023-07-07T21:50:00Z", "2023-07-07T21:50:00Z", "2023-07-07T21:50:00Z", "2023-07-07T21:50:00Z", "2023-07-07T21:50:00Z", "2023-07-07T21:50:00Z", "2023-07-07T21:50:00Z", "2023-07-07T21:50:00Z", "2023-07-07T21:50:00Z", "2023-07-07T21:50:00Z", "2023-07-07T21:50:00Z", "2023-07-07T21:50:00Z", "2023-07-07T21:50:00Z", "2023-07-07T21:50:00Z", "2023-07-07T21:50:00Z", "2023-07-07T21:50:00Z", "2023-07-07T21:50:00Z", "2023-07-07T21:55:00Z", "2023-07-07T21:55:00Z", "2023-07-07T21:55:00Z", "2023-07-07T21:20:00Z", "2023-07-07T21:20:00Z", "2023-07-07T21:20:00Z", "2023-07-07T21:20:00Z", "2023-07-07T21:20:00Z", "2023-07-07T21:20:00Z", "2023-07-07T21:20:00Z", "2023-07-07T21:20:00Z", "2023-07-07T21:55:00Z", "2023-07-07T21:55:00Z", "2023-07-07T21:55:00Z", "2023-07-07T21:20:00Z", "2023-07-07T21:20:00Z", "2023-07-07T21:20:00Z", "2023-07-07T21:20:00Z", "2023-07-07T21:20:00Z", "2023-07-07T21:20:00Z", "2023-07-07T21:20:00Z", "2023-07-07T21:55:00Z", "2023-07-07T21:20:00Z", "2023-07-07T21:20:00Z", "2023-07-07T21:20:00Z", "2023-07-07T21:20:00Z", "2023-07-07T21:20:00Z", "2023-07-07T21:20:00Z", "2023-07-07T21:50:00Z", "2023-07-07T21:50:00Z", "2023-07-07T21:50:00Z", "2023-07-07T21:50:00Z", "2023-07-07T21:50:00Z", "2023-07-07T21:50:00Z", "2023-07-07T21:50:00Z", "2023-07-07T21:50:00Z", "2023-07-07T21:00:00Z", "2023-07-07T22:00:00Z", "2023-07-07T21:00:00Z", "2023-07-07T22:00:00Z", "2023-07-07T22:00:00Z", "2023-07-07T22:00:00Z", "2023-07-07T22:00:00Z", "2023-07-07T21:00:00Z", "2023-07-07T22:00:00Z", "2023-07-07T21:00:00Z", "2023-07-07T22:00:00Z", "2023-07-07T22:00:00Z", "2023-07-07T21:00:00Z", "2023-07-07T21:00:00Z", "2023-07-07T22:00:00Z", "2023-07-07T22:00:00Z", "2023-07-07T22:00:00Z", "2023-07-07T22:00:00Z", "2023-07-07T22:00:00Z", "2023-07-07T21:00:00Z", "2023-07-07T21:00:00Z", "2023-07-07T21:00:00Z", "2023-07-07T22:00:00Z", "2023-07-07T21:50:00Z", "2023-07-07T22:00:00Z", "2023-07-07T21:55:00Z", "2023-07-07T21:00:00Z", "2023-07-07T21:00:00Z", "2023-07-07T22:00:00Z", "2023-07-07T21:00:00Z", "2023-07-07T22:00:00Z", "2023-07-07T21:30:00Z", "2023-07-07T21:30:00Z", "2023-07-07T22:00:00Z", "2023-07-07T22:00:00Z", "2023-07-07T21:00:00Z", "2023-07-07T21:00:00Z", "2023-07-07T21:00:00Z", "2023-07-07T21:00:00Z", "2023-07-07T21:00:00Z", "2023-07-07T21:00:00Z", "2023-07-07T22:00:00Z", "2023-07-07T21:00:00Z", "2023-07-07T21:00:00Z", "2023-07-07T21:00:00Z", "2023-07-07T21:00:00Z", "2023-07-07T22:00:00Z", "2023-07-07T22:00:00Z", "2023-07-07T22:00:00Z", "2023-07-07T21:00:00Z", "2023-07-07T22:00:00Z", "2023-07-07T22:00:00Z", "2023-07-07T22:00:00Z", "2023-07-07T22:00:00Z", "2023-07-07T22:00:00Z", "2023-07-07T21:00:00Z", "2023-07-07T21:00:00Z", "2023-07-07T22:00:00Z", "2023-07-07T21:00:00Z", "2023-07-07T21:00:00Z", "2023-07-07T21:00:00Z", "2023-07-07T21:00:00Z", "2023-07-07T21:00:00Z", "2023-07-07T21:00:00Z", "2023-07-07T21:00:00Z", "2023-07-07T21:30:00Z", "2023-07-07T21:00:00Z", "2023-07-07T21:00:00Z", "2023-07-07T21:00:00Z", "2023-07-07T22:00:00Z", "2023-07-07T22:00:00Z", "2023-07-07T22:00:00Z", "2023-07-07T22:00:00Z", "2023-07-07T22:00:00Z", "2023-07-07T22:00:00Z", "2023-07-07T22:00:00Z", "2023-07-07T22:00:00Z", "2023-07-07T22:00:00Z", "2023-07-07T22:00:00Z", "2023-07-07T22:00:00Z", "2023-07-07T21:00:00Z", "2023-07-07T21:00:00Z", "2023-07-07T22:00:00Z", "2023-07-07T22:00:00Z", "2023-07-07T22:00:00Z", "2023-07-07T22:00:00Z", "2023-07-07T22:00:00Z", "2023-07-07T22:00:00Z", "2023-07-07T22:00:00Z", "2023-07-07T22:00:00Z", "2023-07-07T21:00:00Z", "2023-07-07T22:00:00Z", "2023-07-07T22:00:00Z", "2023-07-07T22:00:00Z", "2023-07-07T22:00:00Z", "2023-07-07T22:00:00Z", "2023-07-07T22:00:00Z", "2023-07-07T22:00:00Z", "2023-07-07T22:00:00Z", "2023-07-07T22:00:00Z", "2023-07-07T21:30:00Z", "2023-07-07T21:00:00Z", "2023-07-07T21:00:00Z", "2023-07-07T21:00:00Z", "2023-07-07T21:00:00Z", "2023-07-07T21:00:00Z", "2023-07-07T21:00:00Z", "2023-07-07T21:00:00Z", "2023-07-07T21:00:00Z", "2023-07-07T21:00:00Z", "2023-07-07T21:00:00Z", "2023-07-07T21:00:00Z", "2023-07-07T21:00:00Z", "2023-07-07T21:30:00Z", "2023-07-07T21:00:00Z", "2023-07-07T21:00:00Z", "2023-07-07T22:00:00Z", "2023-07-07T22:00:00Z", "2023-07-07T22:00:00Z", "2023-07-07T21:00:00Z", "2023-07-07T21:00:00Z", "2023-07-07T21:00:00Z", "2023-07-07T22:00:00Z", "2023-07-07T21:00:00Z", "2023-07-07T21:00:00Z", "2023-07-07T21:00:00Z", "2023-07-07T21:00:00Z", "2023-07-07T21:00:00Z", "2023-07-07T21:00:00Z", "2023-07-07T21:00:00Z", "2023-07-07T21:00:00Z", "2023-07-07T21:00:00Z", "2023-07-07T21:00:00Z", "2023-07-07T21:00:00Z", "2023-07-07T21:30:00Z", "2023-07-07T21:00:00Z", "2023-07-07T21:00:00Z", "2023-07-07T21:00:00Z", "2023-07-07T21:00:00Z", "2023-07-07T22:00:00Z", "2023-07-07T21:00:00Z", "2023-07-07T21:00:00Z", "2023-07-07T21:00:00Z", "2023-07-07T21:00:00Z", "2023-07-07T21:00:00Z", "2023-07-07T21:00:00Z", "2023-07-07T21:00:00Z", "2023-07-07T21:00:00Z", "2023-07-07T21:00:00Z", "2023-07-07T21:00:00Z", "2023-07-07T21:00:00Z", "2023-07-07T21:00:00Z", "2023-07-07T21:00:00Z", "2023-07-07T21:00:00Z", "2023-07-07T21:30:00Z", "2023-07-07T21:55:00Z", "2023-07-07T21:55:00Z", "2023-07-07T21:50:00Z", "2023-07-07T21:55:00Z", "2023-07-07T21:55:00Z", "2023-07-07T21:55:00Z", "2023-07-07T21:55:00Z", "2023-07-07T21:55:00Z", "2023-07-07T21:55:00Z", "2023-07-07T21:55:00Z", "2023-07-07T21:55:00Z", "2023-07-07T21:58:00Z", "2023-07-07T21:55:00Z", "2023-07-07T21:55:00Z", "2023-07-07T21:55:00Z", "2023-07-07T21:55:00Z", "2023-07-07T21:55:00Z", "2023-07-07T21:55:00Z", "2023-07-07T21:54:00Z", "2023-07-07T21:55:00Z", "2023-07-07T21:55:00Z", "2023-07-07T21:55:00Z", "2023-07-07T21:55:00Z", "2023-07-07T21:55:00Z", "2023-07-07T21:55:00Z", "2023-07-07T21:55:00Z", "2023-07-07T21:55:00Z", "2023-07-07T21:55:00Z", "2023-07-07T21:55:00Z", "2023-07-07T21:55:00Z", "2023-07-07T21:55:00Z", "2023-07-07T21:55:00Z", "2023-07-07T21:55:00Z", "2023-07-07T21:55:00Z", "2023-07-07T21:55:00Z", "2023-07-07T21:55:00Z", "2023-07-07T21:55:00Z", "2023-07-07T21:55:00Z", "2023-07-07T21:55:00Z", "2023-07-07T21:55:00Z", "2023-07-07T21:55:00Z", "2023-07-07T21:55:00Z", "2023-07-07T21:55:00Z", "2023-07-07T21:55:00Z", "2023-07-07T21:55:00Z", "2023-07-07T21:55:00Z", "2023-07-07T21:55:00Z", "2023-07-07T21:55:00Z", "2023-07-07T21:55:00Z", "2023-07-07T21:55:00Z", "2023-07-07T21:55:00Z", "2023-07-07T21:55:00Z", "2023-07-07T21:55:00Z", "2023-07-07T21:55:00Z", "2023-07-07T21:55:00Z", "2023-07-07T21:55:00Z", "2023-07-07T21:55:00Z", "2023-07-07T21:55:00Z", "2023-07-07T21:55:00Z", "2023-07-07T21:56:00Z", "2023-07-07T21:55:00Z", "2023-07-07T21:55:00Z", "2023-07-07T21:55:00Z", "2023-07-07T21:55:00Z", "2023-07-07T21:55:00Z", "2023-07-07T21:55:00Z", "2023-07-07T21:55:00Z", "2023-07-07T21:55:00Z", "2023-07-07T21:55:00Z", "2023-07-07T21:55:00Z", "2023-07-07T21:55:00Z", "2023-07-07T22:00:00Z", "2023-07-07T21:55:00Z", "2023-07-07T21:55:00Z", "2023-07-07T21:54:00Z", "2023-07-07T21:55:00Z", "2023-07-07T21:55:00Z", "2023-07-07T21:55:00Z", "2023-07-07T21:55:00Z", "2023-07-07T21:55:00Z", "2023-07-07T21:45:00Z", "2023-07-07T21:55:00Z", "2023-07-07T21:55:00Z", "2023-07-07T21:55:00Z", "2023-07-07T21:55:00Z", "2023-07-07T21:55:00Z", "2023-07-07T21:55:00Z", "2023-07-07T21:55:00Z", "2023-07-07T21:45:00Z", "2023-07-07T21:55:00Z", "2023-07-07T21:55:00Z", "2023-07-07T21:55:00Z", "2023-07-07T21:30:00Z", "2023-07-07T21:55:00Z", "2023-07-07T21:55:00Z", "2023-07-07T21:55:00Z", "2023-07-07T21:55:00Z", "2023-07-07T21:55:00Z", "2023-07-07T21:55:00Z", "2023-07-07T21:59:00Z", "2023-07-07T21:50:00Z", "2023-07-07T21:56:00Z", "2023-07-07T21:55:00Z", "2023-07-07T21:55:00Z", "2023-07-07T21:55:00Z", "2023-07-07T22:00:00Z", "2023-07-07T21:55:00Z", "2023-07-07T21:55:00Z", "2023-07-07T21:55:00Z", "2023-07-07T21:55:00Z", "2023-07-07T21:55:00Z", "2023-07-07T21:55:00Z", "2023-07-07T21:55:00Z", "2023-07-07T21:55:00Z", "2023-07-07T21:55:00Z", "2023-07-07T22:00:00Z", "2023-07-07T21:16:00Z", "2023-07-07T21:55:00Z", "2023-07-07T21:55:00Z", "2023-07-07T21:55:00Z", "2023-07-07T21:55:00Z", "2023-07-07T21:55:00Z", "2023-07-07T21:55:00Z", "2023-07-07T21:55:00Z", "2023-07-07T21:55:00Z", "2023-07-07T21:55:00Z", "2023-07-07T21:55:00Z", "2023-07-07T21:55:00Z", "2023-07-07T21:55:00Z", "2023-07-07T21:55:00Z", "2023-07-07T21:55:00Z", "2023-07-07T21:55:00Z", "2023-07-07T21:55:00Z", "2023-07-07T21:35:00Z", "2023-07-07T21:55:00Z", "2023-07-07T21:55:00Z", "2023-07-07T21:55:00Z", "2023-07-07T21:55:00Z", "2023-07-07T21:55:00Z", "2023-07-07T21:55:00Z", "2023-07-07T21:55:00Z", "2023-07-07T21:55:00Z", "2023-07-07T21:55:00Z", "2023-07-07T21:55:00Z", "2023-07-07T21:55:00Z", "2023-07-07T21:55:00Z", "2023-07-07T21:55:00Z", "2023-07-07T21:55:00Z", "2023-07-07T21:55:00Z", "2023-07-07T21:55:00Z", "2023-07-07T21:55:00Z", "2023-07-07T21:55:00Z", "2023-07-07T21:55:00Z", "2023-07-07T21:55:00Z", "2023-07-07T21:55:00Z", "2023-07-07T21:55:00Z", "2023-07-07T21:55:00Z", "2023-07-07T21:55:00Z", "2023-07-07T21:51:00Z", "2023-07-07T21:55:00Z", "2023-07-07T21:55:00Z", "2023-07-07T21:55:00Z", "2023-07-07T21:55:00Z", "2023-07-07T21:55:00Z", "2023-07-07T21:56:00Z", "2023-07-07T21:55:00Z", "2023-07-07T21:55:00Z", "2023-07-07T21:55:00Z", "2023-07-07T21:45:00Z", "2023-07-07T21:55:00Z", "2023-07-07T21:55:00Z", "2023-07-07T21:55:00Z", "2023-07-07T21:55:00Z", "2023-07-07T21:50:00Z", "2023-07-07T21:55:00Z", "2023-07-07T21:56:00Z", "2023-07-07T21:55:00Z", "2023-07-07T21:55:00Z", "2023-07-07T21:55:00Z", "2023-07-07T21:55:00Z", "2023-07-07T21:55:00Z", "2023-07-07T21:55:00Z", "2023-07-07T21:55:00Z", "2023-07-07T21:55:00Z", "2023-07-07T21:55:00Z", "2023-07-07T21:55:00Z", "2023-07-07T21:55:00Z", "2023-07-07T21:53:00Z", "2023-07-07T21:54:00Z", "2023-07-07T21:55:00Z", "2023-07-07T21:55:00Z", "2023-07-07T21:51:00Z", "2023-07-07T21:55:00Z", "2023-07-07T21:52:00Z", "2023-07-07T21:52:00Z", "2023-07-07T21:53:00Z", "2023-07-07T21:53:00Z", "2023-07-07T21:55:00Z", "2023-07-07T21:55:00Z", "2023-07-07T21:53:00Z", "2023-07-07T21:55:00Z", "2023-07-07T21:55:00Z", "2023-07-07T21:51:00Z", "2023-07-07T21:53:00Z", "2023-07-07T21:54:00Z", "2023-07-07T21:45:00Z", "2023-07-07T21:56:00Z", "2023-07-07T21:56:00Z", "2023-07-07T21:53:00Z", "2023-07-07T21:55:00Z", "2023-07-07T21:50:00Z", "2023-07-07T21:47:00Z", "2023-07-07T21:50:00Z", "2023-07-07T21:55:00Z", "2023-07-07T21:55:00Z", "2023-07-07T21:49:00Z", "2023-07-07T21:55:00Z", "2023-07-07T21:55:00Z", "2023-07-07T21:53:00Z", "2023-07-07T21:55:00Z", "2023-07-07T21:56:00Z", "2023-07-07T21:55:00Z", "2023-07-07T21:52:00Z", "2023-07-07T21:55:00Z", "2023-07-07T21:52:00Z", "2023-07-07T21:53:00Z", "2023-07-07T21:53:00Z", "2023-07-07T21:55:00Z", "2023-07-07T21:55:00Z", "2023-07-07T21:53:00Z", "2023-07-07T22:03:00Z", "2023-07-07T21:55:00Z", "2023-07-07T21:53:00Z", "2023-07-07T21:55:00Z", "2023-07-07T21:55:00Z", "2023-07-07T21:55:00Z", "2023-07-07T21:35:00Z", "2023-07-07T21:56:00Z", "2023-07-07T21:55:00Z", "2023-07-07T21:56:00Z", "2023-07-07T21:55:00Z", "2023-07-07T21:55:00Z", "2023-07-07T21:54:00Z", "2023-07-07T21:53:00Z", "2023-07-07T21:54:00Z", "2023-07-07T21:54:00Z", "2023-07-07T21:51:00Z", "2023-07-07T21:53:00Z", "2023-07-07T21:56:00Z", "2023-07-07T21:55:00Z", "2023-07-07T21:50:00Z", "2023-07-07T21:54:00Z", "2023-07-07T21:52:00Z", "2023-07-07T21:53:00Z", "2023-07-07T21:55:00Z", "2023-07-07T21:53:00Z", "2023-07-07T21:55:00Z", "2023-07-07T21:53:00Z", "2023-07-07T21:53:00Z", "2023-07-07T21:56:00Z", "2023-07-07T21:50:00Z", "2023-07-07T21:55:00Z", "2023-07-07T21:50:00Z", "2023-07-07T21:55:00Z", "2023-07-07T21:55:00Z", "2023-07-07T21:53:00Z", "2023-07-07T21:53:00Z", "2023-07-07T21:53:00Z", "2023-07-07T21:54:00Z", "2023-07-07T22:00:00Z", "2023-07-07T21:54:00Z", "2023-07-07T21:38:00Z", "2023-07-07T21:55:00Z", "2023-07-07T21:55:00Z", "2023-07-07T21:53:00Z", "2023-07-07T21:47:00Z", "2023-07-07T21:52:00Z", "2023-07-07T21:55:00Z", "2023-07-07T21:53:00Z", "2023-07-07T21:53:00Z", "2023-07-07T21:56:00Z", "2023-07-07T21:55:00Z", "2023-07-07T21:52:00Z", "2023-07-07T21:56:00Z", "2023-07-07T21:55:00Z", "2023-07-07T21:55:00Z", "2023-07-07T22:04:00Z", "2023-07-07T21:53:00Z", "2023-07-07T21:48:00Z", "2023-07-07T21:56:00Z", "2023-07-07T21:45:00Z", "2023-07-07T21:55:00Z", "2023-07-07T21:55:00Z", "2023-07-07T21:55:00Z", "2023-07-07T21:55:00Z", "2023-07-07T21:53:00Z", "2023-07-07T21:55:00Z", "2023-07-07T21:52:00Z", "2023-07-07T22:05:00Z", "2023-07-07T21:55:00Z", "2023-07-07T21:51:00Z", "2023-07-07T21:45:00Z", "2023-07-07T21:53:00Z", "2023-07-07T21:53:00Z", "2023-07-07T21:55:00Z", "2023-07-07T21:56:00Z", "2023-07-07T21:55:00Z", "2023-07-07T21:53:00Z", "2023-07-07T21:54:00Z", "2023-07-07T21:55:00Z", "2023-07-07T21:54:00Z", "2023-07-07T22:02:00Z", "2023-07-07T21:55:00Z", "2023-07-07T21:51:00Z", "2023-07-07T21:55:00Z", "2023-07-07T21:53:00Z", "2023-07-07T21:56:00Z", "2023-07-07T21:55:00Z", "2023-07-07T21:55:00Z", "2023-07-07T21:53:00Z", "2023-07-07T21:55:00Z", "2023-07-07T21:55:00Z", "2023-07-07T21:55:00Z", "2023-07-07T21:55:00Z", "2023-07-07T21:55:00Z", "2023-07-07T21:55:00Z", "2023-07-07T21:53:00Z", "2023-07-07T21:55:00Z", "2023-07-07T21:55:00Z", "2023-07-07T21:55:00Z", "2023-07-07T21:53:00Z", "2023-07-07T21:50:00Z", "2023-07-07T21:55:00Z", "2023-07-07T21:52:00Z", "2023-07-07T21:55:00Z", "2023-07-07T21:51:00Z", "2023-07-07T21:55:00Z", "2023-07-07T21:55:00Z", "2023-07-07T21:45:00Z", "2023-07-07T21:55:00Z", "2023-07-07T21:53:00Z", "2023-07-07T21:55:00Z", "2023-07-07T21:53:00Z", "2023-07-07T21:55:00Z", "2023-07-07T22:03:00Z", "2023-07-07T21:53:00Z", "2023-07-07T21:53:00Z", "2023-07-07T21:55:00Z", "2023-07-07T21:51:00Z", "2023-07-07T21:55:00Z", "2023-07-07T21:52:00Z", "2023-07-07T21:55:00Z", "2023-07-07T21:55:00Z", "2023-07-07T21:55:00Z", "2023-07-07T21:51:00Z", "2023-07-07T21:53:00Z", "2023-07-07T21:53:00Z", "2023-07-07T21:53:00Z", "2023-07-07T21:54:00Z", "2023-07-07T21:53:00Z", "2023-07-07T21:51:00Z", "2023-07-07T21:55:00Z", "2023-07-07T22:01:00Z", "2023-07-07T21:53:00Z", "2023-07-07T21:56:00Z", "2023-07-07T21:55:00Z", "2023-07-07T21:51:00Z", "2023-07-07T21:53:00Z", "2023-07-07T21:56:00Z", "2023-07-07T21:55:00Z", "2023-07-07T21:55:00Z", "2023-07-07T21:56:00Z", "2023-07-07T21:55:00Z", "2023-07-07T21:53:00Z", "2023-07-07T21:52:00Z", "2023-07-07T21:53:00Z", "2023-07-07T21:55:00Z", "2023-07-07T21:45:00Z", "2023-07-07T21:55:00Z", "2023-07-07T21:56:00Z", "2023-07-07T21:52:00Z", "2023-07-07T21:55:00Z", "2023-07-07T21:53:00Z", "2023-07-07T21:58:00Z", "2023-07-07T21:53:00Z", "2023-07-07T21:55:00Z", "2023-07-07T21:55:00Z", "2023-07-07T21:55:00Z", "2023-07-07T21:53:00Z", "2023-07-07T21:51:00Z", "2023-07-07T21:56:00Z", "2023-07-07T21:52:00Z", "2023-07-07T21:52:00Z", "2023-07-07T21:53:00Z", "2023-07-07T21:56:00Z", "2023-07-07T21:52:00Z", "2023-07-07T21:55:00Z", "2023-07-07T21:50:00Z", "2023-07-07T21:53:00Z", "2023-07-07T21:56:00Z", "2023-07-07T21:52:00Z", "2023-07-07T21:53:00Z", "2023-07-07T21:55:00Z", "2023-07-07T21:53:00Z", "2023-07-07T21:55:00Z", "2023-07-07T21:53:00Z", "2023-07-07T21:55:00Z", "2023-07-07T21:53:00Z", "2023-07-07T21:56:00Z", "2023-07-07T21:54:00Z", "2023-07-07T22:00:00Z", "2023-07-07T21:55:00Z", "2023-07-07T21:53:00Z", "2023-07-07T21:53:00Z", "2023-07-07T21:53:00Z", "2023-07-07T21:55:00Z", "2023-07-07T21:55:00Z", "2023-07-07T20:53:00Z", "2023-07-07T21:53:00Z", "2023-07-07T21:55:00Z", "2023-07-07T21:55:00Z", "2023-07-07T21:53:00Z", "2023-07-07T21:53:00Z", "2023-07-07T21:55:00Z", "2023-07-07T21:56:00Z", "2023-07-07T21:53:00Z", "2023-07-07T21:54:00Z", "2023-07-07T21:54:00Z", "2023-07-07T21:53:00Z", "2023-07-07T21:55:00Z", "2023-07-07T21:54:00Z", "2023-07-07T21:55:00Z", "2023-07-07T21:55:00Z", "2023-07-07T20:53:00Z", "2023-07-07T21:55:00Z", "2023-07-07T21:55:00Z", "2023-07-07T21:56:00Z", "2023-07-07T21:53:00Z", "2023-07-07T21:35:00Z", "2023-07-07T21:54:00Z", "2023-07-07T21:55:00Z", "2023-07-07T21:55:00Z", "2023-07-07T21:55:00Z", "2023-07-07T21:55:00Z", "2023-07-07T21:53:00Z", "2023-07-07T21:53:00Z", "2023-07-07T21:55:00Z", "2023-07-07T21:55:00Z", "2023-07-07T21:55:00Z", "2023-07-07T21:56:00Z", "2023-07-07T21:55:00Z", "2023-07-07T21:55:00Z", "2023-07-07T21:55:00Z", "2023-07-07T21:55:00Z", "2023-07-07T21:55:00Z", "2023-07-07T21:55:00Z", "2023-07-07T21:55:00Z", "2023-07-07T21:55:00Z", "2023-07-07T21:56:00Z", "2023-07-07T21:53:00Z", "2023-07-07T21:51:00Z", "2023-07-07T21:55:00Z", "2023-07-07T22:02:00Z", "2023-07-07T21:55:00Z", "2023-07-07T21:45:00Z", "2023-07-07T21:55:00Z", "2023-07-07T21:55:00Z", "2023-07-07T21:55:00Z", "2023-07-07T21:55:00Z", "2023-07-07T21:55:00Z", "2023-07-07T21:55:00Z", "2023-07-07T21:55:00Z", "2023-07-07T21:53:00Z", "2023-07-07T21:55:00Z", "2023-07-07T21:55:00Z", "2023-07-07T21:55:00Z", "2023-07-07T21:53:00Z", "2023-07-07T21:55:00Z", "2023-07-07T21:55:00Z", "2023-07-07T21:55:00Z", "2023-07-07T21:51:00Z", "2023-07-07T21:55:00Z", "2023-07-07T21:53:00Z", "2023-07-07T21:53:00Z", "2023-07-07T21:53:00Z", "2023-07-07T21:56:00Z", "2023-07-07T21:55:00Z", "2023-07-07T21:54:00Z", "2023-07-07T21:53:00Z", "2023-07-07T21:55:00Z", "2023-07-07T21:53:00Z", "2023-07-07T21:55:00Z", "2023-07-07T21:55:00Z", "2023-07-07T21:55:00Z", "2023-07-07T21:47:00Z", "2023-07-07T21:55:00Z", "2023-07-07T21:52:00Z", "2023-07-07T21:55:00Z", "2023-07-07T21:45:00Z", "2023-07-07T21:45:00Z", "2023-07-07T20:53:00Z", "2023-07-07T21:50:00Z", "2023-07-07T21:56:00Z", "2023-07-07T21:53:00Z", "2023-07-07T21:47:00Z", "2023-07-07T21:55:00Z", "2023-07-07T21:53:00Z", "2023-07-07T21:56:00Z", "2023-07-07T21:47:00Z", "2023-07-07T21:52:00Z", "2023-07-07T21:55:00Z", "2023-07-07T21:55:00Z", "2023-07-07T21:56:00Z", "2023-07-07T21:55:00Z", "2023-07-07T21:53:00Z", "2023-07-07T21:55:00Z", "2023-07-07T21:55:00Z", "2023-07-07T21:55:00Z", "2023-07-07T21:55:00Z", "2023-07-07T21:55:00Z", "2023-07-07T21:55:00Z", "2023-07-07T21:52:00Z", "2023-07-07T21:55:00Z", "2023-07-07T21:51:00Z", "2023-07-07T21:55:00Z", "2023-07-07T21:55:00Z", "2023-07-07T21:53:00Z", "2023-07-07T21:53:00Z", "2023-07-07T21:55:00Z", "2023-07-07T21:52:00Z", "2023-07-07T21:55:00Z", "2023-07-07T21:55:00Z", "2023-07-07T21:55:00Z", "2023-07-07T21:51:00Z", "2023-07-07T21:53:00Z", "2023-07-07T21:55:00Z", "2023-07-07T21:53:00Z", "2023-07-07T21:55:00Z", "2023-07-07T21:55:00Z", "2023-07-07T21:55:00Z", "2023-07-07T21:55:00Z", "2023-07-07T21:55:00Z", "2023-07-07T21:53:00Z", "2023-07-07T21:53:00Z", "2023-07-07T21:52:00Z", "2023-07-07T21:55:00Z", "2023-07-07T21:53:00Z", "2023-07-07T21:56:00Z", "2023-07-07T21:56:00Z", "2023-07-07T21:55:00Z", "2023-07-07T21:55:00Z", "2023-07-07T21:51:00Z", "2023-07-07T21:55:00Z", "2023-07-07T21:54:00Z", "2023-07-07T21:53:00Z", "2023-07-07T21:54:00Z", "2023-07-07T21:45:00Z", "2023-07-07T21:55:00Z", "2023-07-07T21:55:00Z", "2023-07-07T21:53:00Z", "2023-07-07T21:55:00Z", "2023-07-07T21:55:00Z", "2023-07-07T21:55:00Z", "2023-07-07T21:55:00Z", "2023-07-07T21:53:00Z", "2023-07-07T21:55:00Z", "2023-07-07T21:57:00Z", "2023-07-07T21:47:00Z", "2023-07-07T21:55:00Z", "2023-07-07T21:52:00Z", "2023-07-07T21:53:00Z", "2023-07-07T22:01:00Z", "2023-07-07T21:51:00Z", "2023-07-07T21:53:00Z", "2023-07-07T21:53:00Z", "2023-07-07T21:54:00Z", "2023-07-07T21:55:00Z", "2023-07-07T21:58:00Z", "2023-07-07T21:53:00Z", "2023-07-07T21:55:00Z", "2023-07-07T21:53:00Z", "2023-07-07T21:56:00Z", "2023-07-07T21:55:00Z", "2023-07-07T21:55:00Z", "2023-07-07T21:45:00Z", "2023-07-07T22:00:00Z", "2023-07-07T21:55:00Z", "2023-07-07T21:55:00Z", "2023-07-07T21:53:00Z", "2023-07-07T21:55:00Z", "2023-07-07T21:55:00Z", "2023-07-07T21:52:00Z", "2023-07-07T21:55:00Z", "2023-07-07T21:59:00Z", "2023-07-07T21:56:00Z", "2023-07-07T21:55:00Z", "2023-07-07T21:55:00Z", "2023-07-07T21:47:00Z", "2023-07-07T21:55:00Z", "2023-07-07T21:45:00Z", "2023-07-07T21:56:00Z", "2023-07-07T21:55:00Z", "2023-07-07T21:55:00Z", "2023-07-07T21:55:00Z", "2023-07-07T21:53:00Z", "2023-07-07T21:55:00Z", "2023-07-07T21:55:00Z", "2023-07-07T21:55:00Z", "2023-07-07T22:03:00Z", "2023-07-07T21:27:00Z", "2023-07-07T21:53:00Z", "2023-07-07T21:55:00Z", "2023-07-07T21:55:00Z", "2023-07-07T21:56:00Z", "2023-07-07T21:55:00Z", "2023-07-07T21:55:00Z", "2023-07-07T21:55:00Z", "2023-07-07T21:55:00Z", "2023-07-07T21:55:00Z", "2023-07-07T21:55:00Z", "2023-07-07T21:55:00Z", "2023-07-07T21:55:00Z", "2023-07-07T21:55:00Z", "2023-07-07T21:53:00Z", "2023-07-07T21:50:00Z", "2023-07-07T21:53:00Z", "2023-07-07T21:53:00Z", "2023-07-07T21:51:00Z", "2023-07-07T21:56:00Z", "2023-07-07T21:55:00Z", "2023-07-07T21:53:00Z", "2023-07-07T21:52:00Z", "2023-07-07T21:35:00Z", "2023-07-07T21:53:00Z", "2023-07-07T21:55:00Z", "2023-07-07T21:52:00Z", "2023-07-07T21:54:00Z", "2023-07-07T21:54:00Z", "2023-07-07T21:30:00Z", "2023-07-07T21:55:00Z", "2023-07-07T21:53:00Z", "2023-07-07T21:53:00Z", "2023-07-07T21:53:00Z", "2023-07-07T21:53:00Z", "2023-07-07T21:53:00Z", "2023-07-07T21:53:00Z", "2023-07-07T21:53:00Z", "2023-07-07T22:03:00Z", "2023-07-07T21:56:00Z", "2023-07-07T21:56:00Z", "2023-07-07T21:56:00Z", "2023-07-07T21:55:00Z", "2023-07-07T21:53:00Z", "2023-07-07T21:55:00Z", "2023-07-07T21:55:00Z", "2023-07-07T21:55:00Z", "2023-07-07T21:55:00Z", "2023-07-07T21:55:00Z", "2023-07-07T21:53:00Z", "2023-07-07T21:55:00Z", "2023-07-07T21:55:00Z", "2023-07-07T21:53:00Z", "2023-07-07T21:55:00Z", "2023-07-07T21:55:00Z", "2023-07-07T21:54:00Z", "2023-07-07T21:53:00Z", "2023-07-07T21:45:00Z", "2023-07-07T21:55:00Z", "2023-07-07T21:53:00Z", "2023-07-07T21:55:00Z", "2023-07-07T21:55:00Z", "2023-07-07T21:55:00Z", "2023-07-07T21:55:00Z", "2023-07-07T21:52:00Z", "2023-07-07T21:40:00Z", "2023-07-07T21:55:00Z", "2023-07-07T21:53:00Z", "2023-07-07T21:55:00Z", "2023-07-07T21:55:00Z", "2023-07-07T21:53:00Z", "2023-07-07T21:53:00Z", "2023-07-07T21:55:00Z", "2023-07-07T21:54:00Z", "2023-07-07T21:54:00Z", "2023-07-07T21:55:00Z", "2023-07-07T21:55:00Z", "2023-07-07T21:53:00Z", "2023-07-07T21:53:00Z", "2023-07-07T21:53:00Z", "2023-07-07T21:53:00Z", "2023-07-07T21:55:00Z", "2023-07-07T21:35:00Z", "2023-07-07T21:55:00Z", "2023-07-07T21:56:00Z", "2023-07-07T21:55:00Z", "2023-07-07T21:53:00Z", "2023-07-07T21:55:00Z", "2023-07-07T21:50:00Z", "2023-07-07T21:56:00Z", "2023-07-07T21:52:00Z", "2023-07-07T21:55:00Z", "2023-07-07T21:53:00Z", "2023-07-07T21:53:00Z", "2023-07-07T21:55:00Z", "2023-07-07T21:53:00Z", "2023-07-07T21:56:00Z", "2023-07-07T21:55:00Z", "2023-07-07T21:53:00Z", "2023-07-07T21:55:00Z", "2023-07-07T21:55:00Z", "2023-07-07T21:55:00Z", "2023-07-07T21:54:00Z", "2023-07-07T21:56:00Z", "2023-07-07T21:55:00Z", "2023-07-07T21:55:00Z", "2023-07-07T21:55:00Z", "2023-07-07T21:55:00Z", "2023-07-07T21:55:00Z", "2023-07-07T21:55:00Z", "2023-07-07T21:55:00Z", "2023-07-07T21:55:00Z", "2023-07-07T21:55:00Z", "2023-07-07T21:55:00Z", "2023-07-07T21:50:00Z", "2023-07-07T21:56:00Z", "2023-07-07T21:55:00Z", "2023-07-07T21:56:00Z", "2023-07-07T21:55:00Z", "2023-07-07T21:55:00Z", "2023-07-07T21:54:00Z", "2023-07-07T21:53:00Z", "2023-07-07T21:55:00Z", "2023-07-07T21:55:00Z", "2023-07-07T21:55:00Z", "2023-07-07T21:50:00Z", "2023-07-07T21:55:00Z", "2023-07-07T22:00:00Z", "2023-07-07T21:55:00Z", "2023-07-07T21:56:00Z", "2023-07-07T21:56:00Z", "2023-07-07T21:53:00Z", "2023-07-07T21:53:00Z", "2023-07-07T20:54:00Z", "2023-07-07T21:55:00Z", "2023-07-07T21:55:00Z", "2023-07-07T21:56:00Z", "2023-07-07T22:03:00Z", "2023-07-07T21:35:00Z", "2023-07-07T21:55:00Z", "2023-07-07T21:45:00Z", "2023-07-07T21:56:00Z", "2023-07-07T21:55:00Z", "2023-07-07T21:55:00Z", "2023-07-07T21:55:00Z", "2023-07-07T21:51:00Z", "2023-07-07T21:56:00Z", "2023-07-07T21:56:00Z", "2023-07-07T21:55:00Z", "2023-07-07T21:55:00Z", "2023-07-07T21:56:00Z", "2023-07-07T21:55:00Z", "2023-07-07T21:53:00Z", "2023-07-07T21:55:00Z", "2023-07-07T21:53:00Z", "2023-07-07T21:53:00Z", "2023-07-07T21:55:00Z", "2023-07-07T21:51:00Z", "2023-07-07T21:53:00Z", "2023-07-07T21:56:00Z", "2023-07-07T21:55:00Z", "2023-07-07T20:53:00Z", "2023-07-07T21:45:00Z", "2023-07-07T21:35:00Z", "2023-07-07T21:55:00Z", "2023-07-07T21:56:00Z", "2023-07-07T21:53:00Z", "2023-07-07T21:55:00Z", "2023-07-07T21:55:00Z", "2023-07-07T21:53:00Z", "2023-07-07T21:55:00Z", "2023-07-07T21:53:00Z", "2023-07-07T21:51:00Z", "2023-07-07T21:55:00Z", "2023-07-07T21:55:00Z", "2023-07-07T21:56:00Z", "2023-07-07T21:53:00Z", "2023-07-07T21:45:00Z", "2023-07-07T21:52:00Z", "2023-07-07T21:55:00Z", "2023-07-07T21:40:00Z", "2023-07-07T21:53:00Z", "2023-07-07T21:55:00Z", "2023-07-07T21:54:00Z", "2023-07-07T21:56:00Z", "2023-07-07T21:52:00Z", "2023-07-07T22:01:00Z", "2023-07-07T21:55:00Z", "2023-07-07T21:54:00Z", "2023-07-07T21:53:00Z", "2023-07-07T21:53:00Z", "2023-07-07T21:56:00Z", "2023-07-07T21:54:00Z", "2023-07-07T21:51:00Z", "2023-07-07T21:50:00Z", "2023-07-07T21:53:00Z", "2023-07-07T21:50:00Z", "2023-07-07T21:53:00Z", "2023-07-07T21:55:00Z", "2023-07-07T21:55:00Z", "2023-07-07T21:55:00Z", "2023-07-07T21:55:00Z", "2023-07-07T21:55:00Z", "2023-07-07T21:55:00Z", "2023-07-07T21:55:00Z", "2023-07-07T21:55:00Z", "2023-07-07T21:55:00Z", "2023-07-07T21:55:00Z", "2023-07-07T21:55:00Z", "2023-07-07T21:56:00Z", "2023-07-07T21:53:00Z", "2023-07-07T21:53:00Z", "2023-07-07T21:53:00Z", "2023-07-07T21:55:00Z", "2023-07-07T21:55:00Z", "2023-07-07T21:55:00Z", "2023-07-07T21:56:00Z", "2023-07-07T21:53:00Z", "2023-07-07T21:55:00Z", "2023-07-07T21:47:00Z", "2023-07-07T21:53:00Z", "2023-07-07T21:55:00Z", "2023-07-07T21:53:00Z", "2023-07-07T21:55:00Z", "2023-07-07T21:55:00Z", "2023-07-07T21:59:00Z", "2023-07-07T21:55:00Z", "2023-07-07T21:53:00Z", "2023-07-07T21:55:00Z", "2023-07-07T21:55:00Z", "2023-07-07T21:55:00Z", "2023-07-07T21:53:00Z", "2023-07-07T21:55:00Z", "2023-07-07T21:54:00Z", "2023-07-07T21:55:00Z", "2023-07-07T21:55:00Z", "2023-07-07T21:55:00Z", "2023-07-07T21:53:00Z", "2023-07-07T21:55:00Z", "2023-07-07T21:54:00Z", "2023-07-07T21:50:00Z", "2023-07-07T21:52:00Z", "2023-07-07T21:55:00Z", "2023-07-07T21:56:00Z", "2023-07-07T21:55:00Z", "2023-07-07T21:55:00Z", "2023-07-07T21:55:00Z", "2023-07-07T21:53:00Z", "2023-07-07T21:57:00Z", "2023-07-07T21:53:00Z", "2023-07-07T21:53:00Z", "2023-07-07T21:56:00Z", "2023-07-07T21:55:00Z", "2023-07-07T21:49:00Z", "2023-07-07T21:45:00Z", "2023-07-07T21:55:00Z", "2023-07-07T21:53:00Z", "2023-07-07T21:53:00Z", "2023-07-07T20:53:00Z", "2023-07-07T21:56:00Z", "2023-07-07T21:53:00Z", "2023-07-07T21:55:00Z", "2023-07-07T21:56:00Z", "2023-07-07T21:53:00Z", "2023-07-07T21:53:00Z", "2023-07-07T21:55:00Z", "2023-07-07T21:53:00Z", "2023-07-07T21:55:00Z", "2023-07-07T21:53:00Z", "2023-07-07T21:55:00Z", "2023-07-07T21:45:00Z", "2023-07-07T21:53:00Z", "2023-07-07T21:55:00Z", "2023-07-07T20:55:00Z", "2023-07-07T21:56:00Z", "2023-07-07T21:55:00Z", "2023-07-07T21:56:00Z", "2023-07-07T21:55:00Z", "2023-07-07T21:55:00Z", "2023-07-07T21:55:00Z", "2023-07-07T21:53:00Z", "2023-07-07T21:53:00Z", "2023-07-07T21:55:00Z", "2023-07-07T21:55:00Z", "2023-07-07T21:55:00Z", "2023-07-07T21:53:00Z", "2023-07-07T21:53:00Z", "2023-07-07T21:53:00Z", "2023-07-07T21:53:00Z", "2023-07-07T21:55:00Z", "2023-07-07T21:54:00Z", "2023-07-07T21:55:00Z", "2023-07-07T21:55:00Z", "2023-07-07T21:53:00Z", "2023-07-07T21:47:00Z", "2023-07-07T22:02:00Z", "2023-07-07T21:55:00Z", "2023-07-07T21:55:00Z", "2023-07-07T21:55:00Z", "2023-07-07T21:55:00Z", "2023-07-07T21:50:00Z", "2023-07-07T21:53:00Z", "2023-07-07T21:54:00Z", "2023-07-07T21:56:00Z", "2023-07-07T21:55:00Z", "2023-07-07T20:53:00Z", "2023-07-07T21:56:00Z", "2023-07-07T21:55:00Z", "2023-07-07T21:56:00Z", "2023-07-07T21:55:00Z", "2023-07-07T21:53:00Z", "2023-07-07T21:55:00Z", "2023-07-07T21:54:00Z", "2023-07-07T21:55:00Z", "2023-07-07T21:54:00Z", "2023-07-07T21:55:00Z", "2023-07-07T21:55:00Z", "2023-07-07T21:55:00Z", "2023-07-07T21:56:00Z", "2023-07-07T22:01:00Z", "2023-07-07T21:53:00Z", "2023-07-07T21:50:00Z", "2023-07-07T21:45:00Z", "2023-07-07T21:53:00Z", "2023-07-07T21:53:00Z", "2023-07-07T21:55:00Z", "2023-07-07T21:53:00Z", "2023-07-07T21:53:00Z", "2023-07-07T21:55:00Z", "2023-07-07T21:55:00Z", "2023-07-07T21:53:00Z", "2023-07-07T21:55:00Z", "2023-07-07T21:55:00Z", "2023-07-07T21:53:00Z", "2023-07-07T21:55:00Z", "2023-07-07T21:55:00Z", "2023-07-07T21:55:00Z", "2023-07-07T21:53:00Z", "2023-07-07T21:53:00Z", "2023-07-07T21:53:00Z", "2023-07-07T21:55:00Z", "2023-07-07T21:53:00Z", "2023-07-07T20:53:00Z", "2023-07-07T21:55:00Z", "2023-07-07T21:53:00Z", "2023-07-07T21:53:00Z", "2023-07-07T22:00:00Z", "2023-07-07T21:55:00Z", "2023-07-07T21:55:00Z", "2023-07-07T21:55:00Z", "2023-07-07T21:53:00Z", "2023-07-07T21:56:00Z", "2023-07-07T21:55:00Z", "2023-07-07T21:50:00Z", "2023-07-07T21:55:00Z", "2023-07-07T21:56:00Z", "2023-07-07T21:55:00Z", "2023-07-07T21:53:00Z", "2023-07-07T21:53:00Z", "2023-07-07T21:56:00Z", "2023-07-07T21:55:00Z", "2023-07-07T21:55:00Z", "2023-07-07T21:55:00Z", "2023-07-07T21:55:00Z", "2023-07-07T21:55:00Z", "2023-07-07T21:55:00Z", "2023-07-07T21:50:00Z", "2023-07-07T21:53:00Z", "2023-07-07T21:56:00Z", "2023-07-07T21:53:00Z", "2023-07-07T21:56:00Z", "2023-07-07T21:55:00Z", "2023-07-07T21:53:00Z", "2023-07-07T21:55:00Z", "2023-07-07T21:55:00Z", "2023-07-07T21:53:00Z", "2023-07-07T21:55:00Z", "2023-07-07T21:55:00Z", "2023-07-07T21:53:00Z", "2023-07-07T21:54:00Z", "2023-07-07T21:53:00Z", "2023-07-07T21:55:00Z", "2023-07-07T21:53:00Z", "2023-07-07T21:56:00Z", "2023-07-07T21:56:00Z", "2023-07-07T21:56:00Z", "2023-07-07T22:00:00Z", "2023-07-07T21:53:00Z", "2023-07-07T21:55:00Z", "2023-07-07T21:55:00Z", "2023-07-07T20:53:00Z", "2023-07-07T21:55:00Z", "2023-07-07T21:53:00Z", "2023-07-07T21:56:00Z", "2023-07-07T21:55:00Z", "2023-07-07T22:05:00Z", "2023-07-07T21:55:00Z", "2023-07-07T21:53:00Z", "2023-07-07T21:55:00Z", "2023-07-07T21:50:00Z", "2023-07-07T21:55:00Z", "2023-07-07T21:55:00Z", "2023-07-07T21:56:00Z", "2023-07-07T21:55:00Z", "2023-07-07T21:55:00Z", "2023-07-07T21:47:00Z", "2023-07-07T21:50:00Z", "2023-07-07T21:55:00Z", "2023-07-07T21:47:00Z", "2023-07-07T21:45:00Z", "2023-07-07T21:53:00Z", "2023-07-07T21:55:00Z", "2023-07-07T21:40:00Z", "2023-07-07T21:55:00Z", "2023-07-07T21:55:00Z", "2023-07-07T21:55:00Z", "2023-07-07T21:55:00Z", "2023-07-07T21:53:00Z", "2023-07-07T21:53:00Z", "2023-07-07T21:45:00Z", "2023-07-07T21:53:00Z", "2023-07-07T21:55:00Z", "2023-07-07T21:55:00Z", "2023-07-07T21:55:00Z", "2023-07-07T21:55:00Z", "2023-07-07T21:55:00Z", "2023-07-07T21:55:00Z", "2023-07-07T21:55:00Z", "2023-07-07T21:56:00Z", "2023-07-07T21:51:00Z", "2023-07-07T21:56:00Z", "2023-07-07T21:55:00Z", "2023-07-07T21:53:00Z", "2023-07-07T21:55:00Z", "2023-07-07T21:55:00Z", "2023-07-07T21:56:00Z", "2023-07-07T21:53:00Z", "2023-07-07T21:55:00Z", "2023-07-07T21:53:00Z", "2023-07-07T21:55:00Z", "2023-07-07T21:55:00Z", "2023-07-07T21:53:00Z", "2023-07-07T21:57:00Z", "2023-07-07T21:53:00Z", "2023-07-07T21:52:00Z", "2023-07-07T21:55:00Z", "2023-07-07T21:55:00Z", "2023-07-07T21:53:00Z", "2023-07-07T21:55:00Z", "2023-07-07T21:53:00Z", "2023-07-07T21:53:00Z", "2023-07-07T21:53:00Z", "2023-07-07T21:53:00Z", "2023-07-07T21:55:00Z", "2023-07-07T21:53:00Z", "2023-07-07T21:53:00Z", "2023-07-07T21:53:00Z", "2023-07-07T21:55:00Z", "2023-07-07T21:55:00Z", "2023-07-07T21:55:00Z", "2023-07-07T21:55:00Z", "2023-07-07T21:55:00Z", "2023-07-07T21:55:00Z", "2023-07-07T21:56:00Z", "2023-07-07T21:56:00Z", "2023-07-07T21:55:00Z", "2023-07-07T21:50:00Z", "2023-07-07T21:50:00Z", "2023-07-07T21:55:00Z", "2023-07-07T21:55:00Z", "2023-07-07T21:55:00Z", "2023-07-07T21:53:00Z", "2023-07-07T21:53:00Z", "2023-07-07T21:56:00Z", "2023-07-07T21:55:00Z", "2023-07-07T21:55:00Z", "2023-07-07T21:55:00Z", "2023-07-07T21:53:00Z", "2023-07-07T21:55:00Z", "2023-07-07T21:50:00Z", "2023-07-07T22:00:00Z", "2023-07-07T21:53:00Z", "2023-07-07T21:45:00Z", "2023-07-07T21:52:00Z", "2023-07-07T21:53:00Z", "2023-07-07T21:55:00Z", "2023-07-07T21:55:00Z", "2023-07-07T21:47:00Z", "2023-07-07T21:55:00Z", "2023-07-07T21:55:00Z", "2023-07-07T21:51:00Z", "2023-07-07T21:55:00Z", "2023-07-07T21:53:00Z", "2023-07-07T21:55:00Z", "2023-07-07T21:58:00Z", "2023-07-07T21:53:00Z", "2023-07-07T21:55:00Z", "2023-07-07T21:53:00Z", "2023-07-07T21:51:00Z", "2023-07-07T21:55:00Z", "2023-07-07T21:53:00Z", "2023-07-07T21:55:00Z", "2023-07-07T21:50:00Z", "2023-07-07T21:52:00Z", "2023-07-07T21:55:00Z", "2023-07-07T21:55:00Z", "2023-07-07T21:53:00Z", "2023-07-07T21:53:00Z", "2023-07-07T21:55:00Z", "2023-07-07T21:54:00Z", "2023-07-07T21:53:00Z", "2023-07-07T22:04:00Z", "2023-07-07T21:55:00Z", "2023-07-07T21:56:00Z", "2023-07-07T21:56:00Z", "2023-07-07T21:53:00Z", "2023-07-07T21:56:00Z", "2023-07-07T21:55:00Z", "2023-07-07T21:55:00Z", "2023-07-07T21:55:00Z", "2023-07-07T21:55:00Z", "2023-07-07T21:55:00Z", "2023-07-07T21:55:00Z", "2023-07-07T21:53:00Z", "2023-07-07T21:55:00Z", "2023-07-07T21:55:00Z", "2023-07-07T21:55:00Z", "2023-07-07T21:55:00Z", "2023-07-07T21:55:00Z", "2023-07-07T21:55:00Z", "2023-07-07T21:55:00Z", "2023-07-07T21:56:00Z", "2023-07-07T21:55:00Z", "2023-07-07T21:55:00Z", "2023-07-07T21:55:00Z", "2023-07-07T22:01:00Z", "2023-07-07T21:52:00Z", "2023-07-07T21:53:00Z", "2023-07-07T21:53:00Z", "2023-07-07T21:55:00Z", "2023-07-07T21:55:00Z", "2023-07-07T21:53:00Z", "2023-07-07T20:53:00Z", "2023-07-07T21:53:00Z", "2023-07-07T21:55:00Z", "2023-07-07T21:55:00Z", "2023-07-07T21:52:00Z", "2023-07-07T21:55:00Z", "2023-07-07T21:55:00Z", "2023-07-07T21:52:00Z", "2023-07-07T21:51:00Z", "2023-07-07T21:55:00Z", "2023-07-07T21:55:00Z", "2023-07-07T21:52:00Z", "2023-07-07T21:50:00Z", "2023-07-07T21:55:00Z", "2023-07-07T21:55:00Z", "2023-07-07T22:00:00Z", "2023-07-07T21:55:00Z", "2023-07-07T21:55:00Z", "2023-07-07T21:56:00Z", "2023-07-07T21:51:00Z", "2023-07-07T21:53:00Z", "2023-07-07T21:54:00Z", "2023-07-07T21:53:00Z", "2023-07-07T21:55:00Z", "2023-07-07T21:55:00Z", "2023-07-07T21:54:00Z", "2023-07-07T21:54:00Z", "2023-07-07T21:55:00Z", "2023-07-07T21:55:00Z", "2023-07-07T21:53:00Z", "2023-07-07T21:54:00Z", "2023-07-07T21:55:00Z", "2023-07-07T21:54:00Z", "2023-07-07T21:56:00Z", "2023-07-07T21:55:00Z", "2023-07-07T21:52:00Z", "2023-07-07T21:45:00Z", "2023-07-07T21:53:00Z", "2023-07-07T21:54:00Z", "2023-07-07T21:55:00Z", "2023-07-07T21:55:00Z", "2023-07-07T21:56:00Z", "2023-07-07T21:56:00Z", "2023-07-07T21:56:00Z", "2023-07-07T21:55:00Z", "2023-07-07T21:54:00Z", "2023-07-07T21:56:00Z", "2023-07-07T21:53:00Z", "2023-07-07T21:52:00Z", "2023-07-07T21:56:00Z", "2023-07-07T21:53:00Z", "2023-07-07T21:53:00Z", "2023-07-07T21:55:00Z", "2023-07-07T21:55:00Z", "2023-07-07T21:54:00Z", "2023-07-07T21:56:00Z", "2023-07-07T21:54:00Z", "2023-07-07T21:55:00Z", "2023-07-07T21:55:00Z", "2023-07-07T21:50:00Z", "2023-07-07T21:56:00Z", "2023-07-07T21:53:00Z", "2023-07-07T21:55:00Z", "2023-07-07T21:51:00Z", "2023-07-07T21:55:00Z", "2023-07-07T21:48:00Z", "2023-07-07T21:53:00Z", "2023-07-07T21:53:00Z", "2023-07-07T21:55:00Z", "2023-07-07T21:51:00Z", "2023-07-07T21:55:00Z", "2023-07-07T21:55:00Z", "2023-07-07T21:55:00Z", "2023-07-07T21:56:00Z", "2023-07-07T21:55:00Z", "2023-07-07T21:55:00Z", "2023-07-07T21:53:00Z", "2023-07-07T21:53:00Z", "2023-07-07T21:55:00Z", "2023-07-07T21:56:00Z", "2023-07-07T21:45:00Z", "2023-07-07T21:55:00Z", "2023-07-07T21:55:00Z", "2023-07-07T21:50:00Z", "2023-07-07T21:56:00Z", "2023-07-07T21:55:00Z", "2023-07-07T21:55:00Z", "2023-07-07T21:54:00Z", "2023-07-07T21:55:00Z", "2023-07-07T21:55:00Z", "2023-07-07T21:45:00Z", "2023-07-07T21:15:00Z", "2023-07-07T21:55:00Z", "2023-07-07T21:55:00Z", "2023-07-07T21:50:00Z", "2023-07-07T21:55:00Z", "2023-07-07T21:55:00Z", "2023-07-07T21:56:00Z", "2023-07-07T21:56:00Z", "2023-07-07T21:55:00Z", "2023-07-07T21:55:00Z", "2023-07-07T21:55:00Z", "2023-07-07T21:55:00Z", "2023-07-07T21:55:00Z", "2023-07-07T21:55:00Z", "2023-07-07T21:55:00Z", "2023-07-07T21:55:00Z", "2023-07-07T21:55:00Z", "2023-07-07T21:56:00Z", "2023-07-07T21:55:00Z", "2023-07-07T21:55:00Z", "2023-07-07T21:55:00Z", "2023-07-07T21:55:00Z", "2023-07-07T21:55:00Z", "2023-07-07T21:53:00Z", "2023-07-07T21:54:00Z", "2023-07-07T21:50:00Z", "2023-07-07T21:55:00Z", "2023-07-07T21:53:00Z", "2023-07-07T21:53:00Z", "2023-07-07T22:04:00Z", "2023-07-07T21:53:00Z", "2023-07-07T21:53:00Z", "2023-07-07T21:53:00Z", "2023-07-07T21:47:00Z", "2023-07-07T21:56:00Z", "2023-07-07T21:55:00Z", "2023-07-07T21:56:00Z", "2023-07-07T21:53:00Z", "2023-07-07T21:55:00Z", "2023-07-07T21:53:00Z", "2023-07-07T21:56:00Z", "2023-07-07T21:55:00Z", "2023-07-07T21:55:00Z", "2023-07-07T21:55:00Z", "2023-07-07T21:53:00Z", "2023-07-07T21:53:00Z", "2023-07-07T21:56:00Z", "2023-07-07T21:54:00Z", "2023-07-07T21:55:00Z", "2023-07-07T21:53:00Z", "2023-07-07T21:53:00Z", "2023-07-07T21:51:00Z", "2023-07-07T21:53:00Z", "2023-07-07T21:56:00Z", "2023-07-07T21:55:00Z", "2023-07-07T21:51:00Z", "2023-07-07T21:55:00Z", "2023-07-07T21:55:00Z", "2023-07-07T21:53:00Z", "2023-07-07T21:55:00Z", "2023-07-07T21:53:00Z", "2023-07-07T21:50:00Z", "2023-07-07T21:55:00Z", "2023-07-07T21:53:00Z", "2023-07-07T21:55:00Z", "2023-07-07T21:55:00Z", "2023-07-07T21:55:00Z", "2023-07-07T22:04:00Z", "2023-07-07T21:55:00Z", "2023-07-07T21:55:00Z", "2023-07-07T21:53:00Z", "2023-07-07T21:55:00Z", "2023-07-07T21:55:00Z", "2023-07-07T21:53:00Z", "2023-07-07T21:55:00Z", "2023-07-07T21:55:00Z", "2023-07-07T21:53:00Z", "2023-07-07T21:54:00Z", "2023-07-07T21:55:00Z", "2023-07-07T21:55:00Z", "2023-07-07T21:55:00Z", "2023-07-07T21:55:00Z", "2023-07-07T21:56:00Z", "2023-07-07T21:53:00Z", "2023-07-07T21:53:00Z", "2023-07-07T21:55:00Z", "2023-07-07T21:55:00Z", "2023-07-07T21:45:00Z", "2023-07-07T21:53:00Z", "2023-07-07T21:53:00Z", "2023-07-07T21:53:00Z", "2023-07-07T21:55:00Z", "2023-07-07T21:56:00Z", "2023-07-07T21:55:00Z", "2023-07-07T21:55:00Z", "2023-07-07T21:55:00Z", "2023-07-07T21:55:00Z", "2023-07-07T21:55:00Z", "2023-07-07T21:53:00Z", "2023-07-07T21:56:00Z", "2023-07-07T21:55:00Z", "2023-07-07T21:55:00Z", "2023-07-07T21:55:00Z", "2023-07-07T21:55:00Z", "2023-07-07T21:55:00Z", "2023-07-07T21:55:00Z", "2023-07-07T21:53:00Z", "2023-07-07T21:55:00Z", "2023-07-07T21:55:00Z", "2023-07-07T21:55:00Z", "2023-07-07T21:55:00Z", "2023-07-07T21:53:00Z", "2023-07-07T21:53:00Z", "2023-07-07T21:55:00Z", "2023-07-07T21:53:00Z", "2023-07-07T21:55:00Z", "2023-07-07T21:53:00Z", "2023-07-07T21:55:00Z", "2023-07-07T21:45:00Z", "2023-07-07T21:52:00Z", "2023-07-07T21:54:00Z", "2023-07-07T21:56:00Z", "2023-07-07T21:54:00Z", "2023-07-07T21:53:00Z", "2023-07-07T21:55:00Z", "2023-07-07T21:55:00Z", "2023-07-07T21:53:00Z", "2023-07-07T21:53:00Z", "2023-07-07T21:55:00Z", "2023-07-07T21:54:00Z", "2023-07-07T21:55:00Z", "2023-07-07T21:55:00Z", "2023-07-07T21:56:00Z", "2023-07-07T21:35:00Z", "2023-07-07T21:55:00Z", "2023-07-07T21:55:00Z", "2023-07-07T21:50:00Z", "2023-07-07T21:55:00Z", "2023-07-07T21:56:00Z", "2023-07-07T21:55:00Z", "2023-07-07T21:55:00Z", "2023-07-07T21:55:00Z", "2023-07-07T21:55:00Z", "2023-07-07T21:50:00Z", "2023-07-07T21:55:00Z", "2023-07-07T21:53:00Z", "2023-07-07T21:53:00Z", "2023-07-07T21:53:00Z", "2023-07-07T21:55:00Z", "2023-07-07T21:55:00Z", "2023-07-07T21:55:00Z", "2023-07-07T22:00:00Z", "2023-07-07T21:56:00Z", "2023-07-07T21:55:00Z", "2023-07-07T21:53:00Z", "2023-07-07T21:55:00Z", "2023-07-07T21:55:00Z", "2023-07-07T21:53:00Z", "2023-07-07T21:55:00Z", "2023-07-07T21:55:00Z", "2023-07-07T21:53:00Z", "2023-07-07T21:55:00Z", "2023-07-07T21:53:00Z", "2023-07-07T21:55:00Z", "2023-07-07T21:53:00Z", "2023-07-07T21:53:00Z", "2023-07-07T21:53:00Z", "2023-07-07T21:53:00Z", "2023-07-07T21:45:00Z", "2023-07-07T21:52:00Z", "2023-07-07T21:55:00Z", "2023-07-07T21:55:00Z", "2023-07-07T22:00:00Z", "2023-07-07T21:53:00Z", "2023-07-07T21:55:00Z", "2023-07-07T21:52:00Z", "2023-07-07T21:56:00Z", "2023-07-07T21:58:00Z", "2023-07-07T21:54:00Z", "2023-07-07T21:53:00Z", "2023-07-07T21:55:00Z", "2023-07-07T21:55:00Z", "2023-07-07T21:52:00Z", "2023-07-07T21:53:00Z", "2023-07-07T21:54:00Z", "2023-07-07T21:53:00Z", "2023-07-07T21:55:00Z", "2023-07-07T21:55:00Z", "2023-07-07T21:55:00Z", "2023-07-07T21:54:00Z", "2023-07-07T22:04:00Z", "2023-07-07T21:55:00Z", "2023-07-07T21:55:00Z", "2023-07-07T21:53:00Z", "2023-07-07T21:53:00Z", "2023-07-07T21:53:00Z", "2023-07-07T21:52:00Z", "2023-07-07T21:55:00Z", "2023-07-07T21:55:00Z", "2023-07-07T21:55:00Z", "2023-07-07T21:56:00Z", "2023-07-07T21:53:00Z", "2023-07-07T21:40:00Z", "2023-07-07T21:53:00Z", "2023-07-07T21:55:00Z", "2023-07-07T21:53:00Z", "2023-07-07T21:53:00Z", "2023-07-07T21:55:00Z", "2023-07-07T21:54:00Z", "2023-07-07T21:53:00Z", "2023-07-07T21:55:00Z", "2023-07-07T21:55:00Z", "2023-07-07T21:54:00Z", "2023-07-07T21:52:00Z", "2023-07-07T21:55:00Z", "2023-07-07T21:55:00Z", "2023-07-07T21:53:00Z", "2023-07-07T21:55:00Z", "2023-07-07T21:53:00Z", "2023-07-07T21:55:00Z", "2023-07-07T21:55:00Z", "2023-07-07T21:56:00Z", "2023-07-07T21:56:00Z", "2023-07-07T21:53:00Z", "2023-07-07T21:53:00Z", "2023-07-07T21:55:00Z", "2023-07-07T21:52:00Z", "2023-07-07T21:52:00Z", "2023-07-07T21:55:00Z", "2023-07-07T21:53:00Z", "2023-07-07T21:53:00Z", "2023-07-07T22:02:00Z", "2023-07-07T21:53:00Z", "2023-07-07T21:55:00Z", "2023-07-07T21:55:00Z", "2023-07-07T21:53:00Z", "2023-07-07T21:56:00Z", "2023-07-07T21:55:00Z", "2023-07-07T21:45:00Z", "2023-07-07T21:53:00Z", "2023-07-07T21:40:00Z", "2023-07-07T21:55:00Z", "2023-07-07T21:53:00Z", "2023-07-07T21:55:00Z", "2023-07-07T21:56:00Z", "2023-07-07T22:01:00Z", "2023-07-07T21:55:00Z", "2023-07-07T21:54:00Z", "2023-07-07T21:55:00Z", "2023-07-07T21:53:00Z", "2023-07-07T21:55:00Z", "2023-07-07T21:51:00Z", "2023-07-07T21:55:00Z", "2023-07-07T21:55:00Z", "2023-07-07T21:50:00Z", "2023-07-07T21:55:00Z", "2023-07-07T21:55:00Z", "2023-07-07T21:55:00Z", "2023-07-07T21:56:00Z", "2023-07-07T21:53:00Z", "2023-07-07T21:50:00Z", "2023-07-07T21:56:00Z", "2023-07-07T21:58:00Z", "2023-07-07T21:55:00Z", "2023-07-07T21:19:00Z", "2023-07-07T21:54:00Z", "2023-07-07T21:53:00Z", "2023-07-07T21:53:00Z", "2023-07-07T21:53:00Z", "2023-07-07T21:53:00Z", "2023-07-07T21:53:00Z", "2023-07-07T21:53:00Z", "2023-07-07T21:56:00Z", "2023-07-07T21:53:00Z", "2023-07-07T21:53:00Z", "2023-07-07T21:55:00Z", "2023-07-07T21:54:00Z", "2023-07-07T21:55:00Z", "2023-07-07T21:56:00Z", "2023-07-07T21:55:00Z", "2023-07-07T21:55:00Z", "2023-07-07T21:55:00Z", "2023-07-07T21:55:00Z", "2023-07-07T21:54:00Z", "2023-07-07T21:56:00Z", "2023-07-07T21:53:00Z", "2023-07-07T21:49:00Z", "2023-07-07T21:45:00Z", "2023-07-07T21:52:00Z", "2023-07-07T21:45:00Z", "2023-07-07T21:53:00Z", "2023-07-07T21:55:00Z", "2023-07-07T21:54:00Z", "2023-07-07T21:55:00Z", "2023-07-07T21:53:00Z", "2023-07-07T21:55:00Z", "2023-07-07T21:53:00Z", "2023-07-07T21:55:00Z", "2023-07-07T21:51:00Z", "2023-07-07T21:42:00Z", "2023-07-07T21:56:00Z", "2023-07-07T21:53:00Z", "2023-07-07T21:55:00Z", "2023-07-07T21:55:00Z", "2023-07-07T21:55:00Z", "2023-07-07T21:55:00Z", "2023-07-07T21:55:00Z", "2023-07-07T21:55:00Z", "2023-07-07T21:52:00Z", "2023-07-07T21:55:00Z", "2023-07-07T21:54:00Z", "2023-07-07T21:56:00Z", "2023-07-07T21:55:00Z", "2023-07-07T21:51:00Z", "2023-07-07T21:56:00Z", "2023-07-07T21:56:00Z", "2023-07-07T22:00:00Z", "2023-07-07T21:53:00Z", "2023-07-07T22:04:00Z", "2023-07-07T21:53:00Z", "2023-07-07T21:56:00Z", "2023-07-07T21:56:00Z", "2023-07-07T21:59:00Z", "2023-07-07T21:52:00Z", "2023-07-07T21:56:00Z", "2023-07-07T21:53:00Z", "2023-07-07T21:56:00Z", "2023-07-07T21:57:00Z", "2023-07-07T20:57:00Z", "2023-07-07T21:56:00Z", "2023-07-07T21:55:00Z", "2023-07-07T21:56:00Z", "2023-07-07T21:56:00Z", "2023-07-07T22:03:00Z", "2023-07-07T21:55:00Z", "2023-07-07T21:56:00Z", "2023-07-07T21:50:00Z", "2023-07-07T21:56:00Z", "2023-07-07T21:53:00Z", "2023-07-07T21:52:00Z", "2023-07-07T21:55:00Z", "2023-07-07T21:53:00Z", "2023-07-07T21:56:00Z", "2023-07-07T21:53:00Z", "2023-07-07T21:55:00Z", "2023-07-07T21:56:00Z", "2023-07-07T21:56:00Z", "2023-07-07T21:53:00Z", "2023-07-07T21:55:00Z", "2023-07-07T21:53:00Z", "2023-07-07T21:56:00Z", "2023-07-07T21:56:00Z", "2023-07-07T21:51:00Z", "2023-07-07T21:56:00Z", "2023-07-07T21:57:00Z", "2023-07-07T21:52:00Z", "2023-07-07T21:55:00Z", "2023-07-07T21:55:00Z", "2023-07-07T21:55:00Z", "2023-07-07T21:55:00Z", "2023-07-07T21:56:00Z", "2023-07-07T21:53:00Z", "2023-07-07T21:55:00Z", "2023-07-07T21:55:00Z", "2023-07-07T21:56:00Z", "2023-07-07T21:55:00Z", "2023-07-07T21:40:00Z", "2023-07-07T21:53:00Z", "2023-07-07T21:53:00Z", "2023-07-07T21:55:00Z", "2023-07-07T21:55:00Z", "2023-07-07T21:55:00Z", "2023-07-07T21:55:00Z", "2023-07-07T21:56:00Z", "2023-07-07T21:54:00Z", "2023-07-07T21:55:00Z", "2023-07-07T21:53:00Z", "2023-07-07T21:53:00Z", "2023-07-07T21:55:00Z", "2023-07-07T21:55:00Z", "2023-07-07T21:55:00Z", "2023-07-07T21:55:00Z", "2023-07-07T21:52:00Z", "2023-07-07T21:52:00Z", "2023-07-07T21:56:00Z", "2023-07-07T21:55:00Z", "2023-07-07T21:55:00Z", "2023-07-07T21:55:00Z", "2023-07-07T21:55:00Z", "2023-07-07T21:53:00Z", "2023-07-07T21:55:00Z", "2023-07-07T21:54:00Z", "2023-07-07T21:54:00Z", "2023-07-07T21:56:00Z", "2023-07-07T21:50:00Z", "2023-07-07T21:55:00Z", "2023-07-07T21:55:00Z", "2023-07-07T21:52:00Z", "2023-07-07T21:55:00Z", "2023-07-07T21:53:00Z", "2023-07-07T21:50:00Z", "2023-07-07T21:55:00Z", "2023-07-07T21:55:00Z", "2023-07-07T21:55:00Z", "2023-07-07T21:53:00Z", "2023-07-07T21:55:00Z", "2023-07-07T21:53:00Z", "2023-07-07T21:45:00Z", "2023-07-07T21:55:00Z", "2023-07-07T21:55:00Z", "2023-07-07T22:00:00Z", "2023-07-07T21:55:00Z", "2023-07-07T21:55:00Z", "2023-07-07T21:55:00Z", "2023-07-07T21:53:00Z", "2023-07-07T21:50:00Z", "2023-07-07T21:53:00Z", "2023-07-07T21:51:00Z", "2023-07-07T21:52:00Z", "2023-07-07T21:51:00Z", "2023-07-07T21:55:00Z", "2023-07-07T21:54:00Z", "2023-07-07T21:55:00Z", "2023-07-07T21:53:00Z", "2023-07-07T21:55:00Z", "2023-07-07T21:55:00Z", "2023-07-07T21:55:00Z", "2023-07-07T21:53:00Z", "2023-07-07T21:53:00Z", "2023-07-07T21:56:00Z", "2023-07-07T21:56:00Z", "2023-07-07T20:53:00Z", "2023-07-07T21:45:00Z", "2023-07-07T21:53:00Z", "2023-07-07T21:55:00Z", "2023-07-07T21:53:00Z", "2023-07-07T21:53:00Z", "2023-07-07T21:56:00Z", "2023-07-07T21:53:00Z", "2023-07-07T21:55:00Z", "2023-07-07T21:55:00Z", "2023-07-07T21:55:00Z", "2023-07-07T21:51:00Z", "2023-07-07T20:59:00Z", "2023-07-07T21:55:00Z", "2023-07-07T21:51:00Z", "2023-07-07T20:55:00Z", "2023-07-07T21:55:00Z", "2023-07-07T21:50:00Z", "2023-07-07T21:55:00Z", "2023-07-07T21:55:00Z", "2023-07-07T21:55:00Z", "2023-07-07T21:55:00Z", "2023-07-07T21:56:00Z", "2023-07-07T21:55:00Z", "2023-07-07T21:56:00Z", "2023-07-07T21:55:00Z", "2023-07-07T21:51:00Z", "2023-07-07T21:56:00Z", "2023-07-07T21:53:00Z", "2023-07-07T21:52:00Z", "2023-07-07T21:59:00Z", "2023-07-07T21:53:00Z", "2023-07-07T21:53:00Z", "2023-07-07T21:55:00Z", "2023-07-07T21:55:00Z", "2023-07-07T21:47:00Z", "2023-07-07T21:53:00Z", "2023-07-07T21:53:00Z", "2023-07-07T21:55:00Z", "2023-07-07T21:53:00Z", "2023-07-07T21:55:00Z", "2023-07-07T21:55:00Z", "2023-07-07T21:55:00Z", "2023-07-07T21:55:00Z", "2023-07-07T21:55:00Z", "2023-07-07T21:55:00Z", "2023-07-07T21:53:00Z", "2023-07-07T21:53:00Z", "2023-07-07T21:53:00Z", "2023-07-07T21:55:00Z", "2023-07-07T21:53:00Z", "2023-07-07T21:55:00Z", "2023-07-07T21:55:00Z", "2023-07-07T21:55:00Z", "2023-07-07T21:53:00Z", "2023-07-07T21:53:00Z", "2023-07-07T21:45:00Z", "2023-07-07T21:53:00Z", "2023-07-07T21:54:00Z", "2023-07-07T21:54:00Z", "2023-07-07T21:55:00Z", "2023-07-07T21:55:00Z", "2023-07-07T21:55:00Z", "2023-07-07T21:51:00Z", "2023-07-07T21:54:00Z", "2023-07-07T21:56:00Z", "2023-07-07T21:53:00Z", "2023-07-07T21:53:00Z", "2023-07-07T21:53:00Z", "2023-07-07T21:55:00Z", "2023-07-07T21:53:00Z", "2023-07-07T21:51:00Z", "2023-07-07T21:55:00Z", "2023-07-07T21:53:00Z", "2023-07-07T21:53:00Z", "2023-07-07T21:55:00Z", "2023-07-07T21:55:00Z", "2023-07-07T21:54:00Z", "2023-07-07T21:55:00Z", "2023-07-07T21:55:00Z", "2023-07-07T21:53:00Z", "2023-07-07T20:59:00Z", "2023-07-07T21:53:00Z", "2023-07-07T21:55:00Z", "2023-07-07T21:55:00Z", "2023-07-07T21:55:00Z", "2023-07-07T21:23:00Z", "2023-07-07T21:54:00Z", "2023-07-07T21:55:00Z", "2023-07-07T21:53:00Z", "2023-07-07T21:55:00Z", "2023-07-07T21:55:00Z", "2023-07-07T21:55:00Z", "2023-07-07T21:47:00Z", "2023-07-07T21:55:00Z", "2023-07-07T21:53:00Z", "2023-07-07T21:55:00Z", "2023-07-07T21:55:00Z", "2023-07-07T21:55:00Z", "2023-07-07T21:55:00Z", "2023-07-07T21:56:00Z", "2023-07-07T21:53:00Z", "2023-07-07T21:53:00Z", "2023-07-07T21:53:00Z", "2023-07-07T21:40:00Z", "2023-07-07T20:58:00Z", "2023-07-07T21:55:00Z", "2023-07-07T21:55:00Z", "2023-07-07T21:56:00Z", "2023-07-07T21:53:00Z", "2023-07-07T21:54:00Z", "2023-07-07T21:55:00Z", "2023-07-07T21:55:00Z", "2023-07-07T21:55:00Z", "2023-07-07T21:55:00Z", "2023-07-07T21:53:00Z", "2023-07-07T21:53:00Z", "2023-07-07T21:55:00Z", "2023-07-07T21:55:00Z", "2023-07-07T21:53:00Z", "2023-07-07T21:56:00Z", "2023-07-07T21:55:00Z", "2023-07-07T21:55:00Z", "2023-07-07T21:56:00Z", "2023-07-07T21:54:00Z", "2023-07-07T21:53:00Z", "2023-07-07T21:53:00Z", "2023-07-07T21:50:00Z", "2023-07-07T21:53:00Z", "2023-07-07T21:55:00Z", "2023-07-07T21:56:00Z", "2023-07-07T21:51:00Z", "2023-07-07T21:55:00Z", "2023-07-07T21:55:00Z", "2023-07-07T21:56:00Z", "2023-07-07T21:55:00Z", "2023-07-07T21:56:00Z", "2023-07-07T21:55:00Z", "2023-07-07T21:53:00Z", "2023-07-07T21:55:00Z", "2023-07-07T21:55:00Z", "2023-07-07T21:56:00Z", "2023-07-07T21:52:00Z", "2023-07-07T21:51:00Z", "2023-07-07T21:56:00Z", "2023-07-07T21:55:00Z", "2023-07-07T21:52:00Z", "2023-07-07T21:55:00Z", "2023-07-07T21:55:00Z", "2023-07-07T21:55:00Z", "2023-07-07T21:55:00Z", "2023-07-07T21:55:00Z", "2023-07-07T21:55:00Z", "2023-07-07T21:55:00Z", "2023-07-07T21:55:00Z", "2023-07-07T22:00:00Z", "2023-07-07T22:00:00Z", "2023-07-07T22:00:00Z", "2023-07-07T22:00:00Z", "2023-07-07T22:00:00Z", "2023-07-07T21:50:00Z", "2023-07-07T22:00:00Z", "2023-07-07T22:00:00Z", "2023-07-07T22:00:00Z", "2023-07-07T22:00:00Z", "2023-07-07T22:00:00Z", "2023-07-07T22:00:00Z", "2023-07-07T22:00:00Z", "2023-07-07T22:00:00Z", "2023-07-07T22:00:00Z", "2023-07-07T22:00:00Z", "2023-07-07T20:55:00Z", "2023-07-07T21:56:00Z", "2023-07-07T21:55:00Z", "2023-07-07T21:55:00Z", "2023-07-07T21:55:00Z", "2023-07-07T21:53:00Z", "2023-07-07T21:53:00Z", "2023-07-07T21:52:00Z", "2023-07-07T21:55:00Z", "2023-07-07T21:55:00Z", "2023-07-07T21:53:00Z", "2023-07-07T21:53:00Z", "2023-07-07T21:54:00Z", "2023-07-07T21:55:00Z", "2023-07-07T21:55:00Z", "2023-07-07T21:55:00Z", "2023-07-07T21:55:00Z", "2023-07-07T21:35:00Z", "2023-07-07T21:55:00Z", "2023-07-07T21:55:00Z", "2023-07-07T21:55:00Z", "2023-07-07T21:50:00Z", "2023-07-07T21:53:00Z", "2023-07-07T21:54:00Z", "2023-07-07T21:55:00Z", "2023-07-07T21:56:00Z", "2023-07-07T21:55:00Z", "2023-07-07T21:51:00Z", "2023-07-07T21:55:00Z", "2023-07-07T21:52:00Z", "2023-07-07T21:54:00Z", "2023-07-07T21:55:00Z", "2023-07-07T21:55:00Z", "2023-07-07T21:55:00Z", "2023-07-07T21:53:00Z", "2023-07-07T21:50:00Z", "2023-07-07T21:47:00Z", "2023-07-07T21:54:00Z", "2023-07-07T21:55:00Z", "2023-07-07T21:53:00Z", "2023-07-07T21:55:00Z", "2023-07-07T21:53:00Z", "2023-07-07T21:56:00Z", "2023-07-07T21:53:00Z", "2023-07-07T21:55:00Z", "2023-07-07T22:02:00Z", "2023-07-07T21:55:00Z", "2023-07-07T21:55:00Z", "2023-07-07T21:53:00Z", "2023-07-07T21:53:00Z", "2023-07-07T21:55:00Z", "2023-07-07T21:55:00Z", "2023-07-07T21:55:00Z", "2023-07-07T21:55:00Z", "2023-07-07T21:55:00Z", "2023-07-07T21:53:00Z", "2023-07-07T21:55:00Z", "2023-07-07T22:02:00Z", "2023-07-07T21:53:00Z", "2023-07-07T21:54:00Z", "2023-07-07T21:54:00Z", "2023-07-07T21:58:00Z", "2023-07-07T21:55:00Z", "2023-07-07T21:51:00Z", "2023-07-07T21:55:00Z", "2023-07-07T21:55:00Z", "2023-07-07T21:55:00Z", "2023-07-07T21:55:00Z", "2023-07-07T20:55:00Z", "2023-07-07T21:55:00Z", "2023-07-07T21:53:00Z", "2023-07-07T21:55:00Z", "2023-07-07T21:55:00Z", "2023-07-07T21:53:00Z", "2023-07-07T21:54:00Z", "2023-07-07T21:54:00Z", "2023-07-07T21:53:00Z", "2023-07-07T21:53:00Z", "2023-07-07T21:55:00Z", "2023-07-07T21:53:00Z", "2023-07-07T21:55:00Z", "2023-07-07T21:45:00Z", "2023-07-07T21:56:00Z", "2023-07-07T21:55:00Z", "2023-07-07T21:55:00Z", "2023-07-07T21:55:00Z", "2023-07-07T20:53:00Z", "2023-07-07T21:53:00Z", "2023-07-07T22:01:00Z", "2023-07-07T21:53:00Z", "2023-07-07T21:55:00Z", "2023-07-07T21:53:00Z", "2023-07-07T21:55:00Z", "2023-07-07T21:55:00Z", "2023-07-07T21:55:00Z", "2023-07-07T21:50:00Z", "2023-07-07T21:55:00Z", "2023-07-07T21:55:00Z", "2023-07-07T21:55:00Z", "2023-07-07T21:55:00Z", "2023-07-07T21:55:00Z", "2023-07-07T21:55:00Z", "2023-07-07T21:55:00Z", "2023-07-07T21:55:00Z", "2023-07-07T21:55:00Z", "2023-07-07T21:55:00Z", "2023-07-07T21:55:00Z", "2023-07-07T21:55:00Z", "2023-07-07T22:00:00Z", "2023-07-07T22:00:00Z", "2023-07-07T21:55:00Z", "2023-07-07T21:55:00Z", "2023-07-07T21:53:00Z", "2023-07-07T21:51:00Z", "2023-07-07T21:53:00Z", "2023-07-07T21:51:00Z", "2023-07-07T21:55:00Z", "2023-07-07T21:51:00Z", "2023-07-07T21:53:00Z", "2023-07-07T21:46:00Z", "2023-07-07T21:55:00Z", "2023-07-07T21:53:00Z", "2023-07-07T20:55:00Z", "2023-07-07T21:53:00Z", "2023-07-07T21:54:00Z", "2023-07-07T21:55:00Z", "2023-07-07T21:56:00Z", "2023-07-07T21:55:00Z", "2023-07-07T21:54:00Z", "2023-07-07T21:55:00Z", "2023-07-07T21:45:00Z", "2023-07-07T21:55:00Z", "2023-07-07T21:45:00Z", "2023-07-07T21:55:00Z", "2023-07-07T21:55:00Z", "2023-07-07T21:51:00Z", "2023-07-07T21:55:00Z", "2023-07-07T21:56:00Z", "2023-07-07T21:53:00Z", "2023-07-07T21:53:00Z", "2023-07-07T21:56:00Z", "2023-07-07T21:53:00Z", "2023-07-07T21:47:00Z", "2023-07-07T21:55:00Z", "2023-07-07T21:53:00Z", "2023-07-07T21:55:00Z", "2023-07-07T21:55:00Z", "2023-07-07T21:55:00Z", "2023-07-07T21:54:00Z", "2023-07-07T21:55:00Z", "2023-07-07T21:53:00Z", "2023-07-07T21:53:00Z", "2023-07-07T21:56:00Z", "2023-07-07T21:56:00Z", "2023-07-07T21:55:00Z", "2023-07-07T21:56:00Z", "2023-07-07T21:52:00Z", "2023-07-07T21:56:00Z", "2023-07-07T22:04:00Z", "2023-07-07T21:53:00Z", "2023-07-07T21:55:00Z", "2023-07-07T21:56:00Z", "2023-07-07T21:56:00Z", "2023-07-07T21:55:00Z", "2023-07-07T21:55:00Z", "2023-07-07T21:55:00Z", "2023-07-07T21:53:00Z", "2023-07-07T21:53:00Z", "2023-07-07T21:56:00Z", "2023-07-07T21:45:00Z", "2023-07-07T21:53:00Z", "2023-07-07T21:53:00Z", "2023-07-07T21:55:00Z", "2023-07-07T21:51:00Z", "2023-07-07T21:55:00Z", "2023-07-07T21:55:00Z", "2023-07-07T21:55:00Z", "2023-07-07T21:56:00Z", "2023-07-07T21:55:00Z", "2023-07-07T21:54:00Z", "2023-07-07T21:56:00Z", "2023-07-07T21:55:00Z", "2023-07-07T21:55:00Z", "2023-07-07T22:02:00Z", "2023-07-07T21:55:00Z", "2023-07-07T21:21:00Z", "2023-07-07T21:55:00Z", "2023-07-07T21:55:00Z", "2023-07-07T21:53:00Z", "2023-07-07T21:56:00Z", "2023-07-07T21:51:00Z", "2023-07-07T21:56:00Z", "2023-07-07T21:53:00Z", "2023-07-07T21:55:00Z", "2023-07-07T21:51:00Z", "2023-07-07T21:53:00Z", "2023-07-07T21:55:00Z", "2023-07-07T21:50:00Z", "2023-07-07T21:55:00Z", "2023-07-07T21:55:00Z", "2023-07-07T21:53:00Z", "2023-07-07T21:51:00Z", "2023-07-07T21:53:00Z", "2023-07-07T21:55:00Z", "2023-07-07T21:56:00Z", "2023-07-07T21:55:00Z", "2023-07-07T21:55:00Z", "2023-07-07T21:53:00Z", "2023-07-07T21:56:00Z", "2023-07-07T21:53:00Z", "2023-07-07T21:55:00Z", "2023-07-07T21:52:00Z", "2023-07-07T21:53:00Z", "2023-07-07T21:56:00Z", "2023-07-07T21:47:00Z", "2023-07-07T21:55:00Z", "2023-07-07T21:56:00Z", "2023-07-07T21:55:00Z", "2023-07-07T21:53:00Z", "2023-07-07T21:55:00Z", "2023-07-07T20:55:00Z", "2023-07-07T21:53:00Z", "2023-07-07T21:53:00Z", "2023-07-07T21:53:00Z", "2023-07-07T21:55:00Z", "2023-07-07T21:55:00Z", "2023-07-07T21:55:00Z", "2023-07-07T21:51:00Z", "2023-07-07T21:53:00Z", "2023-07-07T21:53:00Z", "2023-07-07T21:50:00Z", "2023-07-07T21:56:00Z", "2023-07-07T21:55:00Z", "2023-07-07T21:54:00Z", "2023-07-07T21:50:00Z", "2023-07-07T21:55:00Z", "2023-07-07T21:55:00Z", "2023-07-07T21:52:00Z", "2023-07-07T21:55:00Z", "2023-07-07T21:55:00Z", "2023-07-07T21:55:00Z", "2023-07-07T21:45:00Z", "2023-07-07T21:55:00Z", "2023-07-07T21:45:00Z", "2023-07-07T21:53:00Z", "2023-07-07T21:55:00Z", "2023-07-07T21:55:00Z", "2023-07-07T21:55:00Z", "2023-07-07T21:56:00Z", "2023-07-07T21:55:00Z", "2023-07-07T21:55:00Z", "2023-07-07T21:55:00Z", "2023-07-07T21:55:00Z", "2023-07-07T21:54:00Z", "2023-07-07T21:55:00Z", "2023-07-07T21:55:00Z", "2023-07-07T21:55:00Z", "2023-07-07T21:55:00Z", "2023-07-07T21:55:00Z", "2023-07-07T21:55:00Z", "2023-07-07T21:55:00Z", "2023-07-07T21:55:00Z", "2023-07-07T21:55:00Z", "2023-07-07T21:55:00Z", "2023-07-07T21:55:00Z", "2023-07-07T21:55:00Z", "2023-07-07T21:54:00Z", "2023-07-07T21:52:00Z", "2023-07-07T21:55:00Z", "2023-07-07T21:55:00Z", "2023-07-07T21:55:00Z", "2023-07-07T21:55:00Z", "2023-07-07T21:53:00Z", "2023-07-07T21:53:00Z", "2023-07-07T21:55:00Z", "2023-07-07T21:53:00Z", "2023-07-07T21:55:00Z", "2023-07-07T21:45:00Z", "2023-07-07T21:55:00Z", "2023-07-07T21:53:00Z", "2023-07-07T21:51:00Z", "2023-07-07T21:55:00Z", "2023-07-07T21:55:00Z", "2023-07-07T21:55:00Z", "2023-07-07T21:55:00Z", "2023-07-07T20:55:00Z", "2023-07-07T21:53:00Z", "2023-07-07T21:55:00Z", "2023-07-07T20:55:00Z", "2023-07-07T21:55:00Z", "2023-07-07T21:53:00Z", "2023-07-07T21:50:00Z", "2023-07-07T21:55:00Z", "2023-07-07T21:53:00Z", "2023-07-07T21:55:00Z", "2023-07-07T21:55:00Z", "2023-07-07T21:53:00Z", "2023-07-07T21:53:00Z", "2023-07-07T21:55:00Z", "2023-07-07T21:55:00Z", "2023-07-07T21:55:00Z", "2023-07-07T21:55:00Z", "2023-07-07T21:55:00Z", "2023-07-07T21:47:00Z", "2023-07-07T21:55:00Z", "2023-07-07T21:55:00Z", "2023-07-07T21:53:00Z", "2023-07-07T21:52:00Z", "2023-07-07T21:53:00Z", "2023-07-07T21:53:00Z", "2023-07-07T21:53:00Z", "2023-07-07T21:55:00Z", "2023-07-07T21:56:00Z", "2023-07-07T21:51:00Z", "2023-07-07T21:54:00Z", "2023-07-07T21:55:00Z", "2023-07-07T21:55:00Z", "2023-07-07T21:50:00Z", "2023-07-07T21:53:00Z", "2023-07-07T21:48:00Z", "2023-07-07T21:53:00Z", "2023-07-07T21:52:00Z", "2023-07-07T21:55:00Z", "2023-07-07T21:45:00Z", "2023-07-07T21:53:00Z", "2023-07-07T21:55:00Z", "2023-07-07T21:53:00Z", "2023-07-07T21:55:00Z", "2023-07-07T20:53:00Z", "2023-07-07T22:03:00Z", "2023-07-07T21:53:00Z", "2023-07-07T21:53:00Z", "2023-07-07T21:56:00Z", "2023-07-07T21:55:00Z", "2023-07-07T21:55:00Z", "2023-07-07T21:53:00Z", "2023-07-07T21:53:00Z", "2023-07-07T21:55:00Z", "2023-07-07T21:53:00Z", "2023-07-07T21:55:00Z", "2023-07-07T21:55:00Z", "2023-07-07T21:53:00Z", "2023-07-07T21:55:00Z", "2023-07-07T21:55:00Z", "2023-07-07T21:55:00Z", "2023-07-07T21:53:00Z", "2023-07-07T21:53:00Z", "2023-07-07T21:45:00Z", "2023-07-07T21:55:00Z", "2023-07-07T21:55:00Z", "2023-07-07T21:55:00Z", "2023-07-07T21:55:00Z", "2023-07-07T21:55:00Z", "2023-07-07T21:53:00Z", "2023-07-07T21:55:00Z", "2023-07-07T21:56:00Z", "2023-07-07T21:55:00Z", "2023-07-07T21:56:00Z", "2023-07-07T21:45:00Z", "2023-07-07T21:51:00Z", "2023-07-07T21:53:00Z", "2023-07-07T21:54:00Z", "2023-07-07T21:45:00Z", "2023-07-07T21:56:00Z", "2023-07-07T21:55:00Z", "2023-07-07T21:55:00Z", "2023-07-07T21:55:00Z", "2023-07-07T21:55:00Z", "2023-07-07T21:55:00Z", "2023-07-07T21:55:00Z", "2023-07-07T21:55:00Z", "2023-07-07T21:53:00Z", "2023-07-07T21:55:00Z", "2023-07-07T21:55:00Z", "2023-07-07T21:55:00Z", "2023-07-07T21:53:00Z", "2023-07-07T21:53:00Z", "2023-07-07T21:55:00Z", "2023-07-07T21:55:00Z", "2023-07-07T21:55:00Z", "2023-07-07T21:55:00Z", "2023-07-07T22:04:00Z", "2023-07-07T22:00:00Z", "2023-07-07T21:54:00Z", "2023-07-07T21:55:00Z", "2023-07-07T21:56:00Z", "2023-07-07T21:55:00Z", "2023-07-07T21:53:00Z", "2023-07-07T21:51:00Z", "2023-07-07T21:55:00Z", "2023-07-07T21:55:00Z", "2023-07-07T21:55:00Z", "2023-07-07T21:53:00Z", "2023-07-07T21:50:00Z", "2023-07-07T21:55:00Z", "2023-07-07T21:53:00Z", "2023-07-07T21:55:00Z", "2023-07-07T21:38:00Z", "2023-07-07T21:56:00Z", "2023-07-07T21:55:00Z", "2023-07-07T21:55:00Z", "2023-07-07T21:53:00Z", "2023-07-07T22:02:00Z", "2023-07-07T21:55:00Z", "2023-07-07T21:55:00Z", "2023-07-07T21:51:00Z", "2023-07-07T21:55:00Z", "2023-07-07T21:55:00Z", "2023-07-07T21:55:00Z", "2023-07-07T21:56:00Z", "2023-07-07T21:56:00Z", "2023-07-07T21:50:00Z", "2023-07-07T21:53:00Z", "2023-07-07T21:54:00Z", "2023-07-07T21:54:00Z", "2023-07-07T21:55:00Z", "2023-07-07T21:52:00Z", "2023-07-07T21:55:00Z", "2023-07-07T21:45:00Z", "2023-07-07T21:53:00Z", "2023-07-07T21:50:00Z", "2023-07-07T21:55:00Z", "2023-07-07T21:55:00Z", "2023-07-07T21:55:00Z", "2023-07-07T21:55:00Z", "2023-07-07T21:55:00Z", "2023-07-07T21:50:00Z", "2023-07-07T21:55:00Z", "2023-07-07T21:40:00Z", "2023-07-07T21:55:00Z", "2023-07-07T21:55:00Z", "2023-07-07T21:55:00Z", "2023-07-07T21:55:00Z", "2023-07-07T21:55:00Z", "2023-07-07T21:55:00Z", "2023-07-07T21:26:00Z", "2023-07-07T21:54:00Z", "2023-07-07T21:45:00Z", "2023-07-07T21:55:00Z", "2023-07-07T21:55:00Z", "2023-07-07T21:56:00Z", "2023-07-07T21:54:00Z", "2023-07-07T21:56:00Z", "2023-07-07T21:55:00Z", "2023-07-07T21:55:00Z", "2023-07-07T21:53:00Z", "2023-07-07T21:53:00Z", "2023-07-07T21:53:00Z", "2023-07-07T21:56:00Z", "2023-07-07T21:56:00Z", "2023-07-07T21:55:00Z", "2023-07-07T21:55:00Z", "2023-07-07T21:55:00Z", "2023-07-07T21:50:00Z", "2023-07-07T21:55:00Z", "2023-07-07T21:55:00Z", "2023-07-07T21:55:00Z", "2023-07-07T21:53:00Z", "2023-07-07T21:55:00Z", "2023-07-07T21:55:00Z", "2023-07-07T21:55:00Z", "2023-07-07T21:53:00Z", "2023-07-07T21:51:00Z", "2023-07-07T21:55:00Z", "2023-07-07T21:55:00Z", "2023-07-07T21:55:00Z", "2023-07-07T21:55:00Z", "2023-07-07T21:56:00Z", "2023-07-07T21:55:00Z", "2023-07-07T21:55:00Z", "2023-07-07T21:55:00Z", "2023-07-07T21:53:00Z", "2023-07-07T21:53:00Z", "2023-07-07T21:56:00Z", "2023-07-07T21:51:00Z", "2023-07-07T21:55:00Z", "2023-07-07T21:55:00Z", "2023-07-07T21:53:00Z", "2023-07-07T21:50:00Z", "2023-07-07T22:00:00Z", "2023-07-07T22:00:00Z", "2023-07-07T22:00:00Z", "2023-07-07T22:00:00Z", "2023-07-07T22:00:00Z", "2023-07-07T21:00:00Z", "2023-07-07T22:00:00Z", "2023-07-07T22:00:00Z", "2023-07-07T21:50:00Z", "2023-07-07T22:00:00Z", "2023-07-07T22:00:00Z", "2023-07-07T21:50:00Z", "2023-07-07T22:00:00Z", "2023-07-07T22:00:00Z", "2023-07-07T22:00:00Z", "2023-07-07T22:00:00Z", "2023-07-07T22:00:00Z", "2023-07-07T22:00:00Z", "2023-07-07T22:00:00Z", "2023-07-07T22:00:00Z", "2023-07-07T22:00:00Z", "2023-07-07T22:00:00Z", "2023-07-07T22:00:00Z", "2023-07-07T21:00:00Z", "2023-07-07T22:00:00Z", "2023-07-07T22:00:00Z", "2023-07-07T22:00:00Z", "2023-07-07T22:00:00Z", "2023-07-07T22:00:00Z", "2023-07-07T22:00:00Z", "2023-07-07T22:00:00Z", "2023-07-07T22:00:00Z", "2023-07-07T22:00:00Z", "2023-07-07T22:00:00Z", "2023-07-07T22:00:00Z", "2023-07-07T22:00:00Z", "2023-07-07T22:00:00Z", "2023-07-07T22:00:00Z", "2023-07-07T22:00:00Z", "2023-07-07T22:00:00Z", "2023-07-07T22:00:00Z", "2023-07-07T22:00:00Z", "2023-07-07T22:00:00Z", "2023-07-07T22:00:00Z", "2023-07-07T22:00:00Z", "2023-07-07T22:00:00Z", "2023-07-07T22:00:00Z", "2023-07-07T22:00:00Z", "2023-07-07T22:00:00Z", "2023-07-07T22:00:00Z", "2023-07-07T22:00:00Z", "2023-07-07T22:00:00Z", "2023-07-07T22:00:00Z", "2023-07-07T22:00:00Z", "2023-07-07T22:00:00Z", "2023-07-07T22:00:00Z", "2023-07-07T22:00:00Z", "2023-07-07T22:00:00Z", "2023-07-07T22:00:00Z", "2023-07-07T22:00:00Z", "2023-07-07T22:00:00Z", "2023-07-07T22:00:00Z", "2023-07-07T22:00:00Z", "2023-07-07T22:00:00Z", "2023-07-07T22:00:00Z", "2023-07-07T22:00:00Z", "2023-07-07T22:00:00Z", "2023-07-07T22:00:00Z", "2023-07-07T22:00:00Z", "2023-07-07T22:00:00Z", "2023-07-07T22:00:00Z", "2023-07-07T22:00:00Z", "2023-07-07T22:00:00Z", "2023-07-07T22:00:00Z", "2023-07-07T22:00:00Z", "2023-07-07T22:00:00Z", "2023-07-07T22:00:00Z", "2023-07-07T22:00:00Z", "2023-07-07T22:00:00Z", "2023-07-07T22:00:00Z", "2023-07-07T22:00:00Z", "2023-07-07T22:00:00Z", "2023-07-07T22:00:00Z", "2023-07-07T22:00:00Z", "2023-07-07T22:00:00Z", "2023-07-07T22:00:00Z", "2023-07-07T22:00:00Z", "2023-07-07T22:00:00Z", "2023-07-07T22:00:00Z", "2023-07-07T22:00:00Z", "2023-07-07T22:00:00Z", "2023-07-07T22:00:00Z", "2023-07-07T22:00:00Z", "2023-07-07T22:00:00Z", "2023-07-07T22:00:00Z", "2023-07-07T22:00:00Z", "2023-07-07T22:00:00Z", "2023-07-07T22:00:00Z", "2023-07-07T22:00:00Z", "2023-07-07T22:00:00Z", "2023-07-07T22:00:00Z", "2023-07-07T22:00:00Z", "2023-07-07T22:00:00Z", "2023-07-07T22:00:00Z", "2023-07-07T22:00:00Z", "2023-07-07T22:00:00Z", "2023-07-07T22:00:00Z", "2023-07-07T22:00:00Z", "2023-07-07T22:00:00Z", "2023-07-07T22:00:00Z", "2023-07-07T22:00:00Z", "2023-07-07T22:00:00Z", "2023-07-07T22:00:00Z", "2023-07-07T22:00:00Z", "2023-07-07T22:00:00Z", "2023-07-07T22:00:00Z", "2023-07-07T22:00:00Z", "2023-07-07T22:00:00Z", "2023-07-07T22:00:00Z", "2023-07-07T22:00:00Z", "2023-07-07T22:00:00Z", "2023-07-07T22:00:00Z", "2023-07-07T22:00:00Z", "2023-07-07T22:00:00Z", "2023-07-07T22:00:00Z", "2023-07-07T22:00:00Z", "2023-07-07T22:00:00Z", "2023-07-07T22:00:00Z", "2023-07-07T22:00:00Z", "2023-07-07T22:00:00Z", "2023-07-07T22:00:00Z", "2023-07-07T22:00:00Z", "2023-07-07T22:00:00Z", "2023-07-07T22:00:00Z", "2023-07-07T22:00:00Z", "2023-07-07T22:00:00Z", "2023-07-07T22:00:00Z", "2023-07-07T22:00:00Z", "2023-07-07T22:00:00Z", "2023-07-07T22:00:00Z", "2023-07-07T22:00:00Z", "2023-07-07T22:00:00Z", "2023-07-07T22:00:00Z", "2023-07-07T22:00:00Z", "2023-07-07T22:00:00Z", "2023-07-07T22:00:00Z", "2023-07-07T22:00:00Z", "2023-07-07T22:00:00Z", "2023-07-07T22:00:00Z", "2023-07-07T21:00:00Z", "2023-07-07T22:00:00Z", "2023-07-07T22:00:00Z", "2023-07-07T22:00:00Z", "2023-07-07T22:00:00Z", "2023-07-07T22:00:00Z", "2023-07-07T22:00:00Z", "2023-07-07T22:00:00Z", "2023-07-07T22:00:00Z", "2023-07-07T22:00:00Z", "2023-07-07T22:00:00Z", "2023-07-07T22:00:00Z", "2023-07-07T22:00:00Z", "2023-07-07T22:00:00Z", "2023-07-07T22:00:00Z", "2023-07-07T22:00:00Z", "2023-07-07T22:00:00Z", "2023-07-07T22:00:00Z", "2023-07-07T21:50:00Z", "2023-07-07T21:50:00Z", "2023-07-07T21:50:00Z", "2023-07-07T21:50:00Z", "2023-07-07T21:50:00Z", "2023-07-07T21:50:00Z", "2023-07-07T21:50:00Z", "2023-07-07T21:50:00Z", "2023-07-07T21:50:00Z", "2023-07-07T22:00:00Z", "2023-07-07T21:50:00Z", "2023-07-07T21:50:00Z", "2023-07-07T21:50:00Z", "2023-07-07T21:50:00Z", "2023-07-07T21:50:00Z", "2023-07-07T21:50:00Z", "2023-07-07T21:50:00Z", "2023-07-07T21:50:00Z", "2023-07-07T21:50:00Z", "2023-07-07T21:50:00Z", "2023-07-07T21:50:00Z", "2023-07-07T22:00:00Z", "2023-07-07T21:45:00Z", "2023-07-07T21:45:00Z", "2023-07-07T21:45:00Z", "2023-07-07T21:45:00Z", "2023-07-07T21:45:00Z", "2023-07-07T21:45:00Z", "2023-07-07T21:45:00Z", "2023-07-07T21:55:00Z", "2023-07-07T21:50:00Z", "2023-07-07T21:55:00Z", "2023-07-07T21:50:00Z", "2023-07-07T21:55:00Z", "2023-07-07T21:50:00Z", "2023-07-07T21:55:00Z", "2023-07-07T21:50:00Z", "2023-07-07T21:50:00Z", "2023-07-07T21:50:00Z", "2023-07-07T21:50:00Z", "2023-07-07T21:50:00Z", "2023-07-07T21:50:00Z", "2023-07-07T21:55:00Z", "2023-07-07T21:55:00Z", "2023-07-07T21:50:00Z", "2023-07-07T20:55:00Z", "2023-07-07T21:55:00Z", "2023-07-07T21:50:00Z", "2023-07-07T21:50:00Z", "2023-07-07T21:50:00Z", "2023-07-07T21:50:00Z", "2023-07-07T21:50:00Z", "2023-07-07T21:55:00Z", "2023-07-07T21:50:00Z", "2023-07-07T21:50:00Z", "2023-07-07T21:50:00Z", "2023-07-07T21:50:00Z", "2023-07-07T21:55:00Z", "2023-07-07T21:50:00Z", "2023-07-07T21:50:00Z", "2023-07-07T21:55:00Z", "2023-07-07T21:50:00Z", "2023-07-07T21:55:00Z", "2023-07-07T21:50:00Z", "2023-07-07T21:50:00Z", "2023-07-07T21:50:00Z", "2023-07-07T21:55:00Z", "2023-07-07T21:50:00Z", "2023-07-07T21:50:00Z", "2023-07-07T21:50:00Z", "2023-07-07T20:55:00Z", "2023-07-07T21:55:00Z", "2023-07-07T21:50:00Z", "2023-07-07T21:55:00Z", "2023-07-07T21:50:00Z", "2023-07-07T21:55:00Z", "2023-07-07T20:55:00Z", "2023-07-07T21:50:00Z", "2023-07-07T21:45:00Z", "2023-07-07T21:50:00Z", "2023-07-07T21:55:00Z", "2023-07-07T21:55:00Z", "2023-07-07T21:50:00Z", "2023-07-07T21:55:00Z", "2023-07-07T21:55:00Z", "2023-07-07T20:55:00Z", "2023-07-07T21:55:00Z", "2023-07-07T21:55:00Z", "2023-07-07T21:55:00Z", "2023-07-07T21:55:00Z", "2023-07-07T21:55:00Z", "2023-07-07T22:00:00Z", "2023-07-07T22:00:00Z", "2023-07-07T22:00:00Z", "2023-07-07T22:00:00Z", "2023-07-07T22:00:00Z", "2023-07-07T22:00:00Z", "2023-07-07T22:00:00Z", "2023-07-07T22:00:00Z", "2023-07-07T22:00:00Z", "2023-07-07T22:00:00Z", "2023-07-07T22:00:00Z", "2023-07-07T22:00:00Z", "2023-07-07T22:00:00Z", "2023-07-07T21:50:00Z", "2023-07-07T21:45:00Z", "2023-07-07T21:50:00Z", "2023-07-07T21:50:00Z", "2023-07-07T21:50:00Z", "2023-07-07T21:50:00Z", "2023-07-07T21:50:00Z", "2023-07-07T21:50:00Z", "2023-07-07T22:00:00Z", "2023-07-07T22:00:00Z", "2023-07-07T21:30:00Z", "2023-07-07T22:00:00Z", "2023-07-07T22:00:00Z", "2023-07-07T22:00:00Z", "2023-07-07T21:00:00Z", "2023-07-07T21:00:00Z", "2023-07-07T22:00:00Z", "2023-07-07T22:00:00Z", "2023-07-07T22:00:00Z", "2023-07-07T22:00:00Z", "2023-07-07T22:00:00Z", "2023-07-07T22:00:00Z", "2023-07-07T22:00:00Z", "2023-07-07T22:00:00Z", "2023-07-07T22:00:00Z", "2023-07-07T22:00:00Z", "2023-07-07T22:00:00Z", "2023-07-07T22:00:00Z", "2023-07-07T22:00:00Z", "2023-07-07T22:00:00Z", "2023-07-07T22:00:00Z", "2023-07-07T22:00:00Z", "2023-07-07T22:00:00Z", "2023-07-07T22:00:00Z", "2023-07-07T22:00:00Z", "2023-07-07T22:00:00Z", "2023-07-07T22:00:00Z", "2023-07-07T22:00:00Z", "2023-07-07T22:00:00Z", "2023-07-07T22:00:00Z", "2023-07-07T22:00:00Z", "2023-07-07T21:50:00Z", "2023-07-07T21:50:00Z", "2023-07-07T21:50:00Z", "2023-07-07T21:50:00Z", "2023-07-07T21:50:00Z", "2023-07-07T21:50:00Z", "2023-07-07T21:50:00Z", "2023-07-07T21:50:00Z", "2023-07-07T21:50:00Z", "2023-07-07T21:50:00Z", "2023-07-07T21:50:00Z", "2023-07-07T21:50:00Z", "2023-07-07T21:50:00Z", "2023-07-07T21:50:00Z", "2023-07-07T21:50:00Z", "2023-07-07T21:50:00Z", "2023-07-07T21:50:00Z", "2023-07-07T21:50:00Z", "2023-07-07T21:50:00Z", "2023-07-07T21:50:00Z", "2023-07-07T21:50:00Z", "2023-07-07T21:50:00Z", "2023-07-07T21:50:00Z", "2023-07-07T21:50:00Z", "2023-07-07T21:50:00Z", "2023-07-07T21:50:00Z", "2023-07-07T21:50:00Z", "2023-07-07T21:50:00Z", "2023-07-07T21:50:00Z", "2023-07-07T21:50:00Z", "2023-07-07T21:50:00Z", "2023-07-07T21:50:00Z", "2023-07-07T21:50:00Z", "2023-07-07T21:50:00Z", "2023-07-07T21:50:00Z", "2023-07-07T21:50:00Z", "2023-07-07T21:50:00Z", "2023-07-07T21:50:00Z", "2023-07-07T21:50:00Z", "2023-07-07T21:50:00Z", "2023-07-07T21:50:00Z", "2023-07-07T21:50:00Z", "2023-07-07T21:50:00Z", "2023-07-07T21:50:00Z", "2023-07-07T21:50:00Z", "2023-07-07T21:50:00Z", "2023-07-07T21:50:00Z", "2023-07-07T21:50:00Z", "2023-07-07T21:50:00Z", "2023-07-07T21:50:00Z", "2023-07-07T21:50:00Z", "2023-07-07T21:50:00Z", "2023-07-07T21:50:00Z", "2023-07-07T21:50:00Z", "2023-07-07T21:50:00Z", "2023-07-07T21:50:00Z", "2023-07-07T21:50:00Z", "2023-07-07T21:50:00Z", "2023-07-07T21:50:00Z", "2023-07-07T21:50:00Z", "2023-07-07T21:50:00Z", "2023-07-07T21:50:00Z", "2023-07-07T22:00:00Z", "2023-07-07T22:00:00Z", "2023-07-07T22:00:00Z", "2023-07-07T21:50:00Z", "2023-07-07T22:00:00Z", "2023-07-07T22:00:00Z", "2023-07-07T22:00:00Z", "2023-07-07T22:00:00Z", "2023-07-07T22:00:00Z", "2023-07-07T22:00:00Z", "2023-07-07T22:00:00Z", "2023-07-07T22:00:00Z", "2023-07-07T22:00:00Z", "2023-07-07T22:00:00Z", "2023-07-07T22:00:00Z", "2023-07-07T22:00:00Z", "2023-07-07T22:00:00Z", "2023-07-07T21:00:00Z", "2023-07-07T22:00:00Z", "2023-07-07T22:00:00Z", "2023-07-07T22:00:00Z", "2023-07-07T22:00:00Z", "2023-07-07T22:00:00Z", "2023-07-07T22:00:00Z", "2023-07-07T22:00:00Z", "2023-07-07T22:00:00Z", "2023-07-07T22:00:00Z", "2023-07-07T22:00:00Z", "2023-07-07T22:00:00Z", "2023-07-07T22:00:00Z", "2023-07-07T22:00:00Z", "2023-07-07T22:00:00Z", "2023-07-07T22:00:00Z", "2023-07-07T22:00:00Z", "2023-07-07T22:00:00Z", "2023-07-07T22:00:00Z", "2023-07-07T22:00:00Z", "2023-07-07T22:00:00Z", "2023-07-07T22:00:00Z", "2023-07-07T22:00:00Z", "2023-07-07T22:00:00Z", "2023-07-07T22:00:00Z", "2023-07-07T22:00:00Z", "2023-07-07T22:00:00Z", "2023-07-07T22:00:00Z", "2023-07-07T22:00:00Z", "2023-07-07T22:00:00Z", "2023-07-07T22:00:00Z", "2023-07-07T22:00:00Z", "2023-07-07T22:00:00Z", "2023-07-07T22:00:00Z", "2023-07-07T22:00:00Z", "2023-07-07T22:00:00Z", "2023-07-07T21:50:00Z", "2023-07-07T21:40:00Z", "2023-07-07T22:01:00Z", "2023-07-07T21:40:00Z", "2023-07-07T21:42:00Z", "2023-07-07T21:43:00Z", "2023-07-07T21:41:00Z", "2023-07-07T21:52:00Z", "2023-07-07T21:50:00Z", "2023-07-07T21:40:00Z", "2023-07-07T21:40:00Z", "2023-07-07T21:48:00Z", "2023-07-07T21:51:00Z", "2023-07-07T21:40:00Z", "2023-07-07T21:44:00Z", "2023-07-07T21:50:00Z", "2023-07-07T21:40:00Z", "2023-07-07T21:59:00Z", "2023-07-07T21:40:00Z", "2023-07-07T21:40:00Z", "2023-07-07T21:46:00Z", "2023-07-07T21:41:00Z", "2023-07-07T21:43:00Z", "2023-07-07T21:50:00Z", "2023-07-07T21:40:00Z", "2023-07-07T21:41:00Z", "2023-07-07T21:47:00Z", "2023-07-07T21:51:00Z", "2023-07-07T21:46:00Z", "2023-07-07T21:40:00Z", "2023-07-07T21:43:00Z", "2023-07-07T21:40:00Z", "2023-07-07T21:43:00Z", "2023-07-07T21:40:00Z", "2023-07-07T21:49:00Z", "2023-07-07T21:40:00Z", "2023-07-07T21:49:00Z", "2023-07-07T21:43:00Z", "2023-07-07T21:40:00Z", "2023-07-07T21:41:00Z", "2023-07-07T21:42:00Z", "2023-07-07T21:47:00Z", "2023-07-07T21:40:00Z", "2023-07-07T21:40:00Z", "2023-07-07T21:50:00Z", "2023-07-07T21:41:00Z", "2023-07-07T21:47:00Z", "2023-07-07T21:40:00Z", "2023-07-07T21:40:00Z", "2023-07-07T21:42:00Z", "2023-07-07T21:40:00Z", "2023-07-07T21:41:00Z", "2023-07-07T21:41:00Z", "2023-07-07T21:40:00Z", "2023-07-07T21:44:00Z", "2023-07-07T21:46:00Z", "2023-07-07T21:43:00Z", "2023-07-07T21:40:00Z", "2023-07-07T21:51:00Z", "2023-07-07T21:40:00Z", "2023-07-07T21:00:00Z", "2023-07-07T21:00:00Z", "2023-07-07T21:00:00Z", "2023-07-07T21:00:00Z", "2023-07-07T22:00:00Z", "2023-07-07T21:00:00Z", "2023-07-07T21:00:00Z", "2023-07-07T22:00:00Z", "2023-07-07T22:00:00Z", "2023-07-07T22:00:00Z", "2023-07-07T22:00:00Z", "2023-07-07T22:00:00Z", "2023-07-07T22:00:00Z", "2023-07-07T22:00:00Z", "2023-07-07T22:00:00Z", "2023-07-07T22:00:00Z", "2023-07-07T22:00:00Z", "2023-07-07T21:50:00Z", "2023-07-07T21:53:00Z", "2023-07-07T22:00:00Z", "2023-07-07T21:50:00Z", "2023-07-07T21:59:00Z", "2023-07-07T21:50:00Z", "2023-07-07T21:50:00Z", "2023-07-07T21:50:00Z", "2023-07-07T21:51:00Z", "2023-07-07T21:50:00Z", "2023-07-07T21:50:00Z", "2023-07-07T21:50:00Z", "2023-07-07T21:50:00Z", "2023-07-07T22:00:00Z", "2023-07-07T22:00:00Z", "2023-07-07T22:00:00Z", "2023-07-07T22:00:00Z", "2023-07-07T22:00:00Z", "2023-07-07T22:00:00Z", "2023-07-07T22:00:00Z", "2023-07-07T22:00:00Z", "2023-07-07T22:00:00Z", "2023-07-07T22:00:00Z", "2023-07-07T22:00:00Z", "2023-07-07T22:00:00Z", "2023-07-07T22:00:00Z", "2023-07-07T22:00:00Z", "2023-07-07T22:00:00Z", "2023-07-07T22:00:00Z", "2023-07-07T22:00:00Z", "2023-07-07T22:00:00Z", "2023-07-07T22:00:00Z", "2023-07-07T22:00:00Z", "2023-07-07T22:00:00Z", "2023-07-07T22:00:00Z", "2023-07-07T22:00:00Z", "2023-07-07T22:00:00Z", "2023-07-07T22:00:00Z", "2023-07-07T22:00:00Z", "2023-07-07T22:00:00Z", "2023-07-07T22:00:00Z", "2023-07-07T22:00:00Z", "2023-07-07T22:00:00Z", "2023-07-07T22:00:00Z", "2023-07-07T22:00:00Z", "2023-07-07T22:00:00Z", "2023-07-07T22:00:00Z", "2023-07-07T21:50:00Z", "2023-07-07T22:00:00Z", "2023-07-07T21:00:00Z", "2023-07-07T21:00:00Z", "2023-07-07T22:00:00Z", "2023-07-07T21:00:00Z", "2023-07-07T22:00:00Z", "2023-07-07T22:00:00Z", "2023-07-07T22:00:00Z", "2023-07-07T22:00:00Z", "2023-07-07T22:00:00Z", "2023-07-07T21:55:00Z", "2023-07-07T22:00:00Z", "2023-07-07T22:00:00Z", "2023-07-07T22:00:00Z", "2023-07-07T21:00:00Z", "2023-07-07T21:00:00Z", "2023-07-07T21:00:00Z", "2023-07-07T21:00:00Z", "2023-07-07T22:00:00Z", "2023-07-07T21:00:00Z", "2023-07-07T22:00:00Z", "2023-07-07T21:00:00Z", "2023-07-07T21:00:00Z", "2023-07-07T21:00:00Z", "2023-07-07T21:00:00Z", "2023-07-07T22:00:00Z", "2023-07-07T21:00:00Z", "2023-07-07T21:00:00Z", "2023-07-07T22:00:00Z", "2023-07-07T21:00:00Z", "2023-07-07T21:00:00Z", "2023-07-07T21:00:00Z", "2023-07-07T20:55:00Z", "2023-07-07T21:00:00Z", "2023-07-07T22:00:00Z", "2023-07-07T21:00:00Z", "2023-07-07T21:00:00Z", "2023-07-07T21:00:00Z", "2023-07-07T21:00:00Z", "2023-07-07T21:00:00Z", "2023-07-07T21:00:00Z", "2023-07-07T21:00:00Z", "2023-07-07T21:00:00Z", "2023-07-07T21:00:00Z", "2023-07-07T22:00:00Z", "2023-07-07T22:00:00Z", "2023-07-07T22:00:00Z", "2023-07-07T22:00:00Z", "2023-07-07T22:00:00Z", "2023-07-07T22:00:00Z", "2023-07-07T22:00:00Z", "2023-07-07T21:00:00Z", "2023-07-07T21:00:00Z", "2023-07-07T21:00:00Z", "2023-07-07T22:00:00Z", "2023-07-07T22:00:00Z", "2023-07-07T22:00:00Z", "2023-07-07T22:00:00Z", "2023-07-07T22:00:00Z", "2023-07-07T22:00:00Z", "2023-07-07T22:00:00Z", "2023-07-07T22:00:00Z", "2023-07-07T22:00:00Z", "2023-07-07T22:00:00Z", "2023-07-07T22:00:00Z", "2023-07-07T22:00:00Z", "2023-07-07T22:00:00Z", "2023-07-07T22:00:00Z", "2023-07-07T22:00:00Z", "2023-07-07T22:00:00Z", "2023-07-07T22:00:00Z", "2023-07-07T21:00:00Z", "2023-07-07T22:00:00Z", "2023-07-07T22:00:00Z", "2023-07-07T21:00:00Z", "2023-07-07T22:00:00Z", "2023-07-07T22:00:00Z", "2023-07-07T21:00:00Z", "2023-07-07T22:00:00Z", "2023-07-07T22:00:00Z", "2023-07-07T22:00:00Z", "2023-07-07T21:00:00Z", "2023-07-07T21:00:00Z", "2023-07-07T22:00:00Z", "2023-07-07T22:00:00Z", "2023-07-07T22:00:00Z", "2023-07-07T22:00:00Z", "2023-07-07T21:00:00Z", "2023-07-07T22:00:00Z", "2023-07-07T21:00:00Z", "2023-07-07T21:00:00Z", "2023-07-07T22:00:00Z", "2023-07-07T22:00:00Z", "2023-07-07T22:00:00Z", "2023-07-07T21:55:00Z", "2023-07-07T22:00:00Z", "2023-07-07T22:00:00Z", "2023-07-07T22:00:00Z", "2023-07-07T22:00:00Z", "2023-07-07T22:00:00Z", "2023-07-07T22:00:00Z", "2023-07-07T22:00:00Z", "2023-07-07T22:00:00Z", "2023-07-07T22:00:00Z", "2023-07-07T22:00:00Z", "2023-07-07T21:50:00Z", "2023-07-07T21:50:00Z", "2023-07-07T21:50:00Z", "2023-07-07T21:50:00Z", "2023-07-07T22:00:00Z", "2023-07-07T22:00:00Z", "2023-07-07T22:00:00Z", "2023-07-07T21:55:00Z", "2023-07-07T22:00:00Z", "2023-07-07T22:00:00Z", "2023-07-07T22:00:00Z", "2023-07-07T22:00:00Z", "2023-07-07T22:00:00Z", "2023-07-07T22:00:00Z", "2023-07-07T22:00:00Z", "2023-07-07T22:00:00Z", "2023-07-07T21:00:00Z", "2023-07-07T22:00:00Z", "2023-07-07T22:00:00Z", "2023-07-07T22:00:00Z", "2023-07-07T20:55:00Z", "2023-07-07T22:00:00Z", "2023-07-07T21:55:00Z", "2023-07-07T21:56:00Z", "2023-07-07T21:53:00Z", "2023-07-07T21:53:00Z", "2023-07-07T21:53:00Z", "2023-07-07T21:56:00Z", "2023-07-07T21:53:00Z", "2023-07-07T21:53:00Z", "2023-07-07T21:56:00Z", "2023-07-07T21:53:00Z", "2023-07-07T21:56:00Z", "2023-07-07T21:53:00Z", "2023-07-07T21:55:00Z", "2023-07-07T21:53:00Z", "2023-07-07T21:56:00Z", "2023-07-07T21:56:00Z", "2023-07-07T21:56:00Z", "2023-07-07T21:53:00Z", "2023-07-07T21:56:00Z", "2023-07-07T21:55:00Z", "2023-07-07T21:53:00Z", "2023-07-07T21:55:00Z", "2023-07-07T21:55:00Z", "2023-07-07T21:53:00Z", "2023-07-07T21:53:00Z", "2023-07-07T21:55:00Z", "2023-07-07T21:56:00Z", "2023-07-07T21:55:00Z", "2023-07-07T22:01:00Z", "2023-07-07T21:18:00Z", "2023-07-07T21:53:00Z", "2023-07-07T21:56:00Z", "2023-07-07T21:56:00Z", "2023-07-07T21:53:00Z", "2023-07-07T21:56:00Z", "2023-07-07T21:56:00Z", "2023-07-07T21:54:00Z", "2023-07-07T21:53:00Z", "2023-07-07T21:56:00Z", "2023-07-07T21:56:00Z", "2023-07-07T21:56:00Z", "2023-07-07T21:20:00Z", "2023-07-07T21:56:00Z", "2023-07-07T21:56:00Z", "2023-07-07T21:53:00Z", "2023-07-07T21:56:00Z", "2023-07-07T21:56:00Z", "2023-07-07T21:56:00Z", "2023-07-07T21:56:00Z", "2023-07-07T21:54:00Z", "2023-07-07T21:53:00Z", "2023-07-07T21:45:00Z", "2023-07-07T21:53:00Z", "2023-07-07T20:53:00Z", "2023-07-07T21:55:00Z", "2023-07-07T21:56:00Z", "2023-07-07T21:53:00Z", "2023-07-07T21:55:00Z", "2023-07-07T22:05:00Z", "2023-07-07T21:53:00Z", "2023-07-07T22:04:00Z", "2023-07-07T21:56:00Z", "2023-07-07T21:56:00Z", "2023-07-07T22:03:00Z", "2023-07-07T21:53:00Z", "2023-07-07T21:56:00Z", "2023-07-07T21:53:00Z", "2023-07-07T21:56:00Z", "2023-07-07T21:53:00Z", "2023-07-07T21:56:00Z", "2023-07-07T21:56:00Z", "2023-07-07T21:56:00Z", "2023-07-07T21:53:00Z", "2023-07-07T21:53:00Z", "2023-07-07T21:53:00Z", "2023-07-07T21:56:00Z", "2023-07-07T21:17:00Z", "2023-07-07T21:56:00Z", "2023-07-07T21:56:00Z", "2023-07-07T21:56:00Z", "2023-07-07T21:56:00Z", "2023-07-07T21:56:00Z", "2023-07-07T20:59:00Z", "2023-07-07T21:53:00Z", "2023-07-07T21:56:00Z", "2023-07-07T21:56:00Z", "2023-07-07T21:56:00Z", "2023-07-07T21:53:00Z", "2023-07-07T21:56:00Z", "2023-07-07T21:56:00Z", "2023-07-07T21:53:00Z", "2023-07-07T21:56:00Z", "2023-07-07T20:56:00Z", "2023-07-07T21:56:00Z", "2023-07-07T22:02:00Z", "2023-07-07T21:53:00Z", "2023-07-07T21:55:00Z", "2023-07-07T21:56:00Z", "2023-07-07T21:56:00Z", "2023-07-07T21:52:00Z", "2023-07-07T21:55:00Z", "2023-07-07T21:56:00Z", "2023-07-07T21:56:00Z", "2023-07-07T21:53:00Z", "2023-07-07T21:55:00Z", "2023-07-07T21:53:00Z", "2023-07-07T21:56:00Z", "2023-07-07T21:56:00Z", "2023-07-07T22:03:00Z", "2023-07-07T21:56:00Z", "2023-07-07T21:53:00Z", "2023-07-07T21:53:00Z", "2023-07-07T21:56:00Z", "2023-07-07T21:53:00Z", "2023-07-07T21:56:00Z", "2023-07-07T21:56:00Z", "2023-07-07T21:56:00Z", "2023-07-07T21:53:00Z", "2023-07-07T21:56:00Z", "2023-07-07T21:56:00Z", "2023-07-07T21:56:00Z", "2023-07-07T21:56:00Z", "2023-07-07T21:56:00Z", "2023-07-07T21:56:00Z", "2023-07-07T21:50:00Z", "2023-07-07T21:54:00Z", "2023-07-07T21:55:00Z", "2023-07-07T21:54:00Z", "2023-07-07T21:50:00Z", "2023-07-07T21:51:00Z", "2023-07-07T22:00:00Z", "2023-07-07T21:53:00Z", "2023-07-07T21:53:00Z", "2023-07-07T21:53:00Z", "2023-07-07T21:54:00Z", "2023-07-07T21:57:00Z", "2023-07-07T21:53:00Z", "2023-07-07T21:56:00Z", "2023-07-07T21:54:00Z", "2023-07-07T21:55:00Z", "2023-07-07T21:53:00Z", "2023-07-07T21:59:00Z", "2023-07-07T21:56:00Z", "2023-07-07T22:00:00Z", "2023-07-07T22:00:00Z", "2023-07-07T21:56:00Z", "2023-07-07T21:56:00Z", "2023-07-07T21:59:00Z", "2023-07-07T21:53:00Z", "2023-07-07T21:50:00Z", "2023-07-07T20:55:00Z", "2023-07-07T21:55:00Z", "2023-07-07T22:00:00Z", "2023-07-07T22:00:00Z", "2023-07-07T22:00:00Z", "2023-07-07T22:00:00Z", "2023-07-07T22:00:00Z", "2023-07-07T22:00:00Z", "2023-07-07T22:00:00Z", "2023-07-07T22:00:00Z", "2023-07-07T21:00:00Z", "2023-07-07T22:00:00Z", "2023-07-07T22:00:00Z", "2023-07-07T22:00:00Z", "2023-07-07T22:00:00Z", "2023-07-07T22:00:00Z", "2023-07-07T22:00:00Z", "2023-07-07T22:00:00Z", "2023-07-07T22:00:00Z", "2023-07-07T22:00:00Z", "2023-07-07T22:00:00Z", "2023-07-07T22:00:00Z", "2023-07-07T22:00:00Z", "2023-07-07T22:00:00Z", "2023-07-07T22:00:00Z", "2023-07-07T22:00:00Z", "2023-07-07T22:00:00Z", "2023-07-07T22:00:00Z", "2023-07-07T22:00:00Z", "2023-07-07T22:00:00Z", "2023-07-07T22:00:00Z", "2023-07-07T22:00:00Z", "2023-07-07T22:00:00Z", "2023-07-07T22:00:00Z", "2023-07-07T22:00:00Z", "2023-07-07T22:00:00Z", "2023-07-07T21:52:00Z", "2023-07-07T22:00:00Z", "2023-07-07T21:56:00Z", "2023-07-07T22:00:00Z", "2023-07-07T22:00:00Z", "2023-07-07T22:00:00Z", "2023-07-07T22:00:00Z", "2023-07-07T22:00:00Z", "2023-07-07T22:00:00Z", "2023-07-07T22:00:00Z", "2023-07-07T22:00:00Z", "2023-07-07T22:00:00Z", "2023-07-07T22:00:00Z", "2023-07-07T22:00:00Z", "2023-07-07T22:00:00Z", "2023-07-07T22:00:00Z", "2023-07-07T21:44:00Z", "2023-07-07T21:07:00Z", "2023-07-07T22:00:00Z", "2023-07-07T20:55:00Z", "2023-07-07T22:00:00Z", "2023-07-07T21:55:00Z", "2023-07-07T22:00:00Z", "2023-07-07T22:00:00Z", "2023-07-07T22:00:00Z", "2023-07-07T20:55:00Z", "2023-07-07T22:00:00Z", "2023-07-07T21:00:00Z", "2023-07-07T21:55:00Z", "2023-07-07T22:00:00Z", "2023-07-07T22:00:00Z", "2023-07-07T22:00:00Z", "2023-07-07T22:00:00Z", "2023-07-07T21:55:00Z", "2023-07-07T22:00:00Z", "2023-07-07T22:00:00Z", "2023-07-07T22:00:00Z", "2023-07-07T22:00:00Z", "2023-07-07T22:00:00Z", "2023-07-07T22:00:00Z", "2023-07-07T22:00:00Z", "2023-07-07T21:56:00Z", "2023-07-07T22:00:00Z", "2023-07-07T22:00:00Z", "2023-07-07T22:00:00Z", "2023-07-07T22:00:00Z", "2023-07-07T22:00:00Z", "2023-07-07T22:00:00Z", "2023-07-07T22:00:00Z", "2023-07-07T21:00:00Z", "2023-07-07T22:00:00Z", "2023-07-07T22:00:00Z", "2023-07-07T21:24:00Z", "2023-07-07T22:00:00Z", "2023-07-07T22:00:00Z", "2023-07-07T22:00:00Z", "2023-07-07T22:00:00Z", "2023-07-07T22:00:00Z", "2023-07-07T22:00:00Z", "2023-07-07T22:00:00Z", "2023-07-07T22:00:00Z", "2023-07-07T21:00:00Z", "2023-07-07T22:00:00Z", "2023-07-07T22:00:00Z", "2023-07-07T22:00:00Z", "2023-07-07T21:33:00Z", "2023-07-07T22:00:00Z", "2023-07-07T22:00:00Z", "2023-07-07T22:00:00Z", "2023-07-07T22:00:00Z", "2023-07-07T22:00:00Z", "2023-07-07T21:00:00Z", "2023-07-07T22:00:00Z", "2023-07-07T22:00:00Z", "2023-07-07T22:00:00Z", "2023-07-07T22:00:00Z", "2023-07-07T21:00:00Z", "2023-07-07T21:00:00Z", "2023-07-07T22:00:00Z", "2023-07-07T21:00:00Z", "2023-07-07T21:00:00Z", "2023-07-07T22:00:00Z", "2023-07-07T22:00:00Z", "2023-07-07T21:00:00Z", "2023-07-07T21:00:00Z", "2023-07-07T21:00:00Z", "2023-07-07T22:00:00Z", "2023-07-07T21:00:00Z", "2023-07-07T22:00:00Z", "2023-07-07T21:00:00Z", "2023-07-07T21:00:00Z", "2023-07-07T22:00:00Z", "2023-07-07T22:00:00Z", "2023-07-07T22:00:00Z", "2023-07-07T21:00:00Z", "2023-07-07T21:30:00Z", "2023-07-07T21:00:00Z", "2023-07-07T22:00:00Z", "2023-07-07T21:00:00Z", "2023-07-07T22:00:00Z", "2023-07-07T21:00:00Z", "2023-07-07T22:00:00Z", "2023-07-07T22:00:00Z", "2023-07-07T21:00:00Z", "2023-07-07T22:00:00Z", "2023-07-07T21:00:00Z", "2023-07-07T22:00:00Z", "2023-07-07T22:00:00Z", "2023-07-07T22:00:00Z", "2023-07-07T21:00:00Z", "2023-07-07T22:00:00Z", "2023-07-07T22:00:00Z", "2023-07-07T22:00:00Z", "2023-07-07T22:00:00Z", "2023-07-07T21:00:00Z", "2023-07-07T21:00:00Z", "2023-07-07T21:00:00Z", "2023-07-07T21:00:00Z", "2023-07-07T21:00:00Z", "2023-07-07T21:00:00Z", "2023-07-07T22:00:00Z", "2023-07-07T21:00:00Z", "2023-07-07T21:00:00Z", "2023-07-07T21:00:00Z", "2023-07-07T21:00:00Z", "2023-07-07T22:00:00Z", "2023-07-07T21:00:00Z", "2023-07-07T21:00:00Z", "2023-07-07T22:00:00Z", "2023-07-07T21:00:00Z", "2023-07-07T22:00:00Z", "2023-07-07T21:00:00Z", "2023-07-07T21:00:00Z", "2023-07-07T21:00:00Z", "2023-07-07T22:00:00Z", "2023-07-07T22:00:00Z", "2023-07-07T22:00:00Z", "2023-07-07T21:00:00Z", "2023-07-07T21:00:00Z", "2023-07-07T21:00:00Z", "2023-07-07T22:00:00Z", "2023-07-07T22:00:00Z", "2023-07-07T22:00:00Z", "2023-07-07T21:45:00Z", "2023-07-07T21:00:00Z", "2023-07-07T22:00:00Z", "2023-07-07T22:00:00Z", "2023-07-07T22:00:00Z", "2023-07-07T22:00:00Z", "2023-07-07T22:00:00Z", "2023-07-07T22:00:00Z", "2023-07-07T22:00:00Z", "2023-07-07T22:00:00Z", "2023-07-07T22:00:00Z", "2023-07-07T22:00:00Z", "2023-07-07T21:00:00Z", "2023-07-07T22:00:00Z", "2023-07-07T22:00:00Z", "2023-07-07T22:00:00Z", "2023-07-07T21:00:00Z", "2023-07-07T22:00:00Z", "2023-07-07T22:00:00Z", "2023-07-07T21:00:00Z", "2023-07-07T21:00:00Z", "2023-07-07T22:00:00Z", "2023-07-07T21:00:00Z", "2023-07-07T22:00:00Z", "2023-07-07T22:00:00Z", "2023-07-07T22:00:00Z", "2023-07-07T21:00:00Z", "2023-07-07T21:00:00Z", "2023-07-07T21:00:00Z", "2023-07-07T21:00:00Z", "2023-07-07T21:00:00Z", "2023-07-07T22:00:00Z", "2023-07-07T21:00:00Z", "2023-07-07T22:00:00Z", "2023-07-07T22:00:00Z", "2023-07-07T22:02:00Z", "2023-07-07T22:00:00Z", "2023-07-07T22:00:00Z", "2023-07-07T22:00:00Z", "2023-07-07T22:00:00Z", "2023-07-07T22:00:00Z", "2023-07-07T22:00:00Z", "2023-07-07T22:00:00Z", "2023-07-07T22:00:00Z", "2023-07-07T22:00:00Z", "2023-07-07T22:00:00Z", "2023-07-07T22:00:00Z", "2023-07-07T22:00:00Z", "2023-07-07T22:00:00Z", "2023-07-07T22:00:00Z", "2023-07-07T22:00:00Z", "2023-07-07T22:00:00Z", "2023-07-07T22:00:00Z", "2023-07-07T22:00:00Z", "2023-07-07T22:00:00Z", "2023-07-07T22:00:00Z", "2023-07-07T22:00:00Z", "2023-07-07T22:00:00Z", "2023-07-07T22:00:00Z", "2023-07-07T22:00:00Z", "2023-07-07T22:00:00Z", "2023-07-07T22:00:00Z", "2023-07-07T22:00:00Z", "2023-07-07T22:00:00Z", "2023-07-07T22:00:00Z", "2023-07-07T21:00:00Z", "2023-07-07T22:00:00Z", "2023-07-07T22:00:00Z", "2023-07-07T22:00:00Z", "2023-07-07T21:00:00Z", "2023-07-07T22:00:00Z", "2023-07-07T22:00:00Z", "2023-07-07T22:00:00Z", "2023-07-07T22:00:00Z", "2023-07-07T22:00:00Z", "2023-07-07T21:00:00Z", "2023-07-07T22:00:00Z", "2023-07-07T22:00:00Z", "2023-07-07T22:00:00Z", "2023-07-07T22:00:00Z", "2023-07-07T22:00:00Z", "2023-07-07T21:00:00Z", "2023-07-07T22:00:00Z", "2023-07-07T21:00:00Z", "2023-07-07T21:00:00Z", "2023-07-07T22:00:00Z", "2023-07-07T21:00:00Z", "2023-07-07T21:00:00Z", "2023-07-07T21:00:00Z", "2023-07-07T21:00:00Z", "2023-07-07T21:00:00Z", "2023-07-07T21:00:00Z", "2023-07-07T21:00:00Z", "2023-07-07T21:00:00Z", "2023-07-07T21:00:00Z", "2023-07-07T21:00:00Z", "2023-07-07T21:00:00Z", "2023-07-07T21:00:00Z", "2023-07-07T21:00:00Z", "2023-07-07T21:00:00Z", "2023-07-07T21:00:00Z", "2023-07-07T21:00:00Z", "2023-07-07T21:00:00Z", "2023-07-07T21:00:00Z", "2023-07-07T21:00:00Z", "2023-07-07T21:00:00Z", "2023-07-07T21:00:00Z", "2023-07-07T21:00:00Z", "2023-07-07T21:00:00Z", "2023-07-07T21:00:00Z", "2023-07-07T21:00:00Z", "2023-07-07T21:00:00Z", "2023-07-07T21:00:00Z", "2023-07-07T21:00:00Z", "2023-07-07T21:00:00Z", "2023-07-07T21:00:00Z", "2023-07-07T21:00:00Z", "2023-07-07T21:00:00Z", "2023-07-07T21:00:00Z", "2023-07-07T21:00:00Z", "2023-07-07T21:00:00Z", "2023-07-07T22:00:00Z", "2023-07-07T22:00:00Z", "2023-07-07T22:00:00Z", "2023-07-07T22:00:00Z", "2023-07-07T22:00:00Z", "2023-07-07T22:00:00Z", "2023-07-07T22:00:00Z", "2023-07-07T22:00:00Z", "2023-07-07T22:00:00Z", "2023-07-07T22:00:00Z", "2023-07-07T22:00:00Z", "2023-07-07T22:00:00Z", "2023-07-07T22:00:00Z", "2023-07-07T22:00:00Z", "2023-07-07T22:00:00Z", "2023-07-07T21:00:00Z", "2023-07-07T22:00:00Z", "2023-07-07T21:00:00Z", "2023-07-07T21:00:00Z", "2023-07-07T22:00:00Z", "2023-07-07T22:00:00Z", "2023-07-07T21:00:00Z", "2023-07-07T22:00:00Z", "2023-07-07T22:00:00Z", "2023-07-07T22:00:00Z", "2023-07-07T21:00:00Z", "2023-07-07T22:00:00Z", "2023-07-07T22:00:00Z", "2023-07-07T22:00:00Z", "2023-07-07T21:00:00Z", "2023-07-07T22:00:00Z", "2023-07-07T21:00:00Z", "2023-07-07T22:00:00Z", "2023-07-07T21:00:00Z", "2023-07-07T22:00:00Z", "2023-07-07T22:00:00Z", "2023-07-07T22:00:00Z", "2023-07-07T22:00:00Z", "2023-07-07T22:00:00Z", "2023-07-07T22:00:00Z", "2023-07-07T22:00:00Z", "2023-07-07T22:00:00Z", "2023-07-07T22:00:00Z", "2023-07-07T22:00:00Z", "2023-07-07T22:00:00Z", "2023-07-07T22:00:00Z", "2023-07-07T22:00:00Z", "2023-07-07T22:00:00Z", "2023-07-07T22:03:00Z", "2023-07-07T22:03:00Z", "2023-07-07T22:03:00Z", "2023-07-07T22:03:00Z", "2023-07-07T22:03:00Z", "2023-07-07T22:03:00Z", "2023-07-07T22:03:00Z", "2023-07-07T22:03:00Z", "2023-07-07T22:03:00Z", "2023-07-07T22:03:00Z", "2023-07-07T22:03:00Z", "2023-07-07T22:03:00Z", "2023-07-07T22:03:00Z", "2023-07-07T22:03:00Z", "2023-07-07T22:03:00Z", "2023-07-07T22:03:00Z", "2023-07-07T22:03:00Z", "2023-07-07T22:03:00Z", "2023-07-07T22:03:00Z", "2023-07-07T22:03:00Z", "2023-07-07T22:03:00Z", "2023-07-07T22:00:00Z", "2023-07-07T21:00:00Z", "2023-07-07T21:00:00Z", "2023-07-07T21:00:00Z", "2023-07-07T22:00:00Z", "2023-07-07T22:00:00Z", "2023-07-07T22:00:00Z", "2023-07-07T22:00:00Z", "2023-07-07T22:00:00Z", "2023-07-07T22:00:00Z", "2023-07-07T21:00:00Z", "2023-07-07T21:53:00Z", "2023-07-07T21:50:00Z", "2023-07-07T21:45:00Z", "2023-07-07T21:53:00Z", "2023-07-07T21:55:00Z", "2023-07-07T21:56:00Z", "2023-07-07T22:00:00Z", "2023-07-07T22:00:00Z", "2023-07-07T22:00:00Z", "2023-07-07T22:00:00Z", "2023-07-07T22:00:00Z", "2023-07-07T20:55:00Z", "2023-07-07T22:00:00Z", "2023-07-07T21:55:00Z", "2023-07-07T22:00:00Z", "2023-07-07T22:00:00Z", "2023-07-07T22:00:00Z", "2023-07-07T22:00:00Z", "2023-07-07T22:00:00Z", "2023-07-07T22:00:00Z", "2023-07-07T22:00:00Z", "2023-07-07T21:55:00Z", "2023-07-07T22:00:00Z", "2023-07-07T22:00:00Z", "2023-07-07T22:00:00Z", "2023-07-07T22:00:00Z", "2023-07-07T22:00:00Z", "2023-07-07T22:00:00Z", "2023-07-07T22:00:00Z", "2023-07-07T22:00:00Z", "2023-07-07T22:00:00Z", "2023-07-07T22:00:00Z", "2023-07-07T22:00:00Z", "2023-07-07T22:00:00Z", "2023-07-07T22:00:00Z", "2023-07-07T22:00:00Z", "2023-07-07T22:00:00Z", "2023-07-07T22:00:00Z", "2023-07-07T22:00:00Z", "2023-07-07T22:00:00Z", "2023-07-07T22:00:00Z", "2023-07-07T22:00:00Z", "2023-07-07T22:00:00Z", "2023-07-07T22:00:00Z", "2023-07-07T22:00:00Z", "2023-07-07T22:00:00Z", "2023-07-07T22:00:00Z", "2023-07-07T22:00:00Z", "2023-07-07T22:00:00Z", "2023-07-07T22:00:00Z", "2023-07-07T22:00:00Z", "2023-07-07T22:00:00Z", "2023-07-07T22:00:00Z", "2023-07-07T22:00:00Z", "2023-07-07T22:00:00Z", "2023-07-07T22:00:00Z", "2023-07-07T22:00:00Z", "2023-07-07T22:00:00Z", "2023-07-07T22:00:00Z", "2023-07-07T22:00:00Z", "2023-07-07T22:00:00Z", "2023-07-07T22:00:00Z", "2023-07-07T22:00:00Z", "2023-07-07T22:00:00Z", "2023-07-07T22:00:00Z", "2023-07-07T22:00:00Z", "2023-07-07T22:00:00Z", "2023-07-07T22:00:00Z", "2023-07-07T22:00:00Z", "2023-07-07T22:00:00Z", "2023-07-07T22:00:00Z", "2023-07-07T22:00:00Z", "2023-07-07T21:00:00Z", "2023-07-07T22:00:00Z", "2023-07-07T22:00:00Z", "2023-07-07T22:00:00Z", "2023-07-07T22:00:00Z", "2023-07-07T22:00:00Z", "2023-07-07T22:00:00Z", "2023-07-07T22:00:00Z", "2023-07-07T22:00:00Z", "2023-07-07T22:00:00Z", "2023-07-07T22:00:00Z", "2023-07-07T22:00:00Z", "2023-07-07T22:00:00Z", "2023-07-07T22:00:00Z", "2023-07-07T22:00:00Z", "2023-07-07T22:00:00Z", "2023-07-07T22:00:00Z", "2023-07-07T22:00:00Z", "2023-07-07T22:00:00Z", "2023-07-07T22:00:00Z", "2023-07-07T22:00:00Z", "2023-07-07T22:00:00Z", "2023-07-07T22:00:00Z", "2023-07-07T22:00:00Z", "2023-07-07T22:00:00Z", "2023-07-07T22:00:00Z", "2023-07-07T22:00:00Z", "2023-07-07T22:00:00Z", "2023-07-07T22:00:00Z", "2023-07-07T22:00:00Z", "2023-07-07T22:00:00Z", "2023-07-07T22:00:00Z", "2023-07-07T22:00:00Z", "2023-07-07T22:00:00Z", "2023-07-07T22:00:00Z", "2023-07-07T22:00:00Z", "2023-07-07T22:00:00Z", "2023-07-07T22:00:00Z", "2023-07-07T22:00:00Z", "2023-07-07T22:00:00Z", "2023-07-07T22:00:00Z", "2023-07-07T22:00:00Z", "2023-07-07T22:00:00Z", "2023-07-07T22:00:00Z", "2023-07-07T22:00:00Z", "2023-07-07T22:00:00Z", "2023-07-07T22:00:00Z", "2023-07-07T22:00:00Z", "2023-07-07T22:00:00Z", "2023-07-07T22:00:00Z", "2023-07-07T21:00:00Z", "2023-07-07T21:30:00Z", "2023-07-07T22:00:00Z", "2023-07-07T22:00:00Z", "2023-07-07T22:00:00Z", "2023-07-07T22:00:00Z", "2023-07-07T22:00:00Z", "2023-07-07T22:00:00Z", "2023-07-07T22:00:00Z", "2023-07-07T22:00:00Z", "2023-07-07T22:00:00Z", "2023-07-07T22:00:00Z", "2023-07-07T22:00:00Z", "2023-07-07T22:00:00Z", "2023-07-07T22:00:00Z", "2023-07-07T22:00:00Z", "2023-07-07T22:00:00Z", "2023-07-07T22:00:00Z", "2023-07-07T22:00:00Z", "2023-07-07T22:00:00Z", "2023-07-07T22:00:00Z", "2023-07-07T22:00:00Z", "2023-07-07T22:00:00Z", "2023-07-07T22:00:00Z", "2023-07-07T22:00:00Z", "2023-07-07T22:00:00Z", "2023-07-07T22:00:00Z", "2023-07-07T22:00:00Z", "2023-07-07T22:00:00Z", "2023-07-07T22:00:00Z", "2023-07-07T22:00:00Z", "2023-07-07T22:00:00Z", "2023-07-07T22:00:00Z", "2023-07-07T21:30:00Z", "2023-07-07T21:10:00Z", "2023-07-07T21:10:00Z", "2023-07-07T22:00:00Z", "2023-07-07T22:00:00Z", "2023-07-07T22:00:00Z", "2023-07-07T21:00:00Z", "2023-07-07T22:00:00Z", "2023-07-07T22:00:00Z", "2023-07-07T21:00:00Z", "2023-07-07T21:30:00Z", "2023-07-07T22:00:00Z", "2023-07-07T22:00:00Z", "2023-07-07T22:00:00Z", "2023-07-07T21:30:00Z", "2023-07-07T22:00:00Z", "2023-07-07T22:00:00Z", "2023-07-07T21:30:00Z", "2023-07-07T22:00:00Z", "2023-07-07T22:00:00Z", "2023-07-07T22:00:00Z", "2023-07-07T22:00:00Z", "2023-07-07T22:00:00Z", "2023-07-07T22:00:00Z", "2023-07-07T22:00:00Z", "2023-07-07T22:00:00Z", "2023-07-07T22:00:00Z", "2023-07-07T22:00:00Z", "2023-07-07T21:00:00Z", "2023-07-07T22:00:00Z", "2023-07-07T22:00:00Z", "2023-07-07T21:00:00Z", "2023-07-07T22:00:00Z", "2023-07-07T22:00:00Z", "2023-07-07T22:00:00Z", "2023-07-07T22:00:00Z", "2023-07-07T22:00:00Z", "2023-07-07T22:00:00Z", "2023-07-07T22:00:00Z", "2023-07-07T22:00:00Z", "2023-07-07T22:00:00Z", "2023-07-07T22:00:00Z", "2023-07-07T22:00:00Z", "2023-07-07T22:00:00Z", "2023-07-07T22:00:00Z", "2023-07-07T22:00:00Z", "2023-07-07T22:00:00Z", "2023-07-07T22:00:00Z", "2023-07-07T22:00:00Z", "2023-07-07T22:00:00Z", "2023-07-07T22:00:00Z", "2023-07-07T22:00:00Z", "2023-07-07T22:00:00Z", "2023-07-07T22:00:00Z", "2023-07-07T22:00:00Z", "2023-07-07T22:00:00Z", "2023-07-07T22:00:00Z", "2023-07-07T22:00:00Z", "2023-07-07T22:00:00Z", "2023-07-07T22:00:00Z", "2023-07-07T22:00:00Z", "2023-07-07T22:00:00Z", "2023-07-07T22:00:00Z", "2023-07-07T22:00:00Z", "2023-07-07T22:00:00Z", "2023-07-07T22:00:00Z", "2023-07-07T22:00:00Z", "2023-07-07T21:30:00Z", "2023-07-07T22:00:00Z", "2023-07-07T22:00:00Z", "2023-07-07T22:00:00Z", "2023-07-07T22:00:00Z", "2023-07-07T21:30:00Z", "2023-07-07T22:00:00Z", "2023-07-07T22:00:00Z", "2023-07-07T22:00:00Z", "2023-07-07T22:00:00Z", "2023-07-07T21:30:00Z", "2023-07-07T21:30:00Z", "2023-07-07T21:30:00Z", "2023-07-07T22:00:00Z", "2023-07-07T21:30:00Z", "2023-07-07T22:00:00Z", "2023-07-07T21:30:00Z", "2023-07-07T21:30:00Z", "2023-07-07T22:00:00Z", "2023-07-07T21:30:00Z", "2023-07-07T21:30:00Z", "2023-07-07T21:30:00Z", "2023-07-07T22:00:00Z", "2023-07-07T21:30:00Z", "2023-07-07T21:30:00Z", "2023-07-07T21:00:00Z", "2023-07-07T21:30:00Z", "2023-07-07T21:00:00Z", "2023-07-07T21:00:00Z", "2023-07-07T21:00:00Z", "2023-07-07T21:30:00Z", "2023-07-07T21:00:00Z", "2023-07-07T21:00:00Z", "2023-07-07T21:00:00Z", "2023-07-07T21:00:00Z", "2023-07-07T21:30:00Z", "2023-07-07T21:30:00Z", "2023-07-07T21:30:00Z", "2023-07-07T21:00:00Z", "2023-07-07T21:30:00Z", "2023-07-07T22:00:00Z", "2023-07-07T21:30:00Z", "2023-07-07T21:30:00Z", "2023-07-07T21:30:00Z", "2023-07-07T21:00:00Z", "2023-07-07T21:00:00Z", "2023-07-07T21:00:00Z", "2023-07-07T21:00:00Z", "2023-07-07T21:00:00Z", "2023-07-07T21:00:00Z", "2023-07-07T21:00:00Z", "2023-07-07T21:00:00Z", "2023-07-07T21:00:00Z", "2023-07-07T21:30:00Z", "2023-07-07T21:00:00Z", "2023-07-07T21:00:00Z", "2023-07-07T21:00:00Z", "2023-07-07T21:30:00Z", "2023-07-07T21:00:00Z", "2023-07-07T22:00:00Z", "2023-07-07T22:00:00Z", "2023-07-07T22:00:00Z", "2023-07-07T22:00:00Z", "2023-07-07T22:00:00Z", "2023-07-07T22:00:00Z", "2023-07-07T22:00:00Z", "2023-07-07T22:00:00Z", "2023-07-07T22:00:00Z", "2023-07-07T22:00:00Z", "2023-07-07T22:00:00Z", "2023-07-07T22:00:00Z", "2023-07-07T22:00:00Z", "2023-07-07T22:00:00Z", "2023-07-07T22:00:00Z", "2023-07-07T22:00:00Z", "2023-07-07T22:00:00Z", "2023-07-07T22:00:00Z", "2023-07-07T22:00:00Z", "2023-07-07T22:00:00Z", "2023-07-07T22:00:00Z", "2023-07-07T22:00:00Z", "2023-07-07T22:00:00Z", "2023-07-07T22:00:00Z", "2023-07-07T22:00:00Z", "2023-07-07T22:04:00Z", "2023-07-07T22:00:00Z", "2023-07-07T22:00:00Z", "2023-07-07T22:00:00Z", "2023-07-07T22:00:00Z", "2023-07-07T22:00:00Z", "2023-07-07T22:00:00Z", "2023-07-07T22:00:00Z", "2023-07-07T22:00:00Z", "2023-07-07T22:00:00Z", "2023-07-07T22:00:00Z", "2023-07-07T22:00:00Z", "2023-07-07T22:00:00Z", "2023-07-07T22:00:00Z", "2023-07-07T22:00:00Z", "2023-07-07T22:00:00Z", "2023-07-07T22:00:00Z", "2023-07-07T22:00:00Z", "2023-07-07T22:00:00Z", "2023-07-07T22:00:00Z", "2023-07-07T22:00:00Z", "2023-07-07T22:00:00Z", "2023-07-07T22:00:00Z", "2023-07-07T22:00:00Z", "2023-07-07T22:00:00Z", "2023-07-07T22:00:00Z", "2023-07-07T22:00:00Z", "2023-07-07T22:00:00Z", "2023-07-07T22:00:00Z", "2023-07-07T22:00:00Z", "2023-07-07T22:00:00Z", "2023-07-07T22:00:00Z", "2023-07-07T22:00:00Z", "2023-07-07T22:00:00Z", "2023-07-07T22:00:00Z", "2023-07-07T22:00:00Z", "2023-07-07T22:00:00Z", "2023-07-07T22:00:00Z", "2023-07-07T22:00:00Z", "2023-07-07T22:00:00Z", "2023-07-07T22:00:00Z", "2023-07-07T22:00:00Z", "2023-07-07T22:00:00Z", "2023-07-07T22:00:00Z", "2023-07-07T22:00:00Z", "2023-07-07T22:00:00Z", "2023-07-07T22:00:00Z", "2023-07-07T22:00:00Z", "2023-07-07T22:00:00Z", "2023-07-07T22:00:00Z", "2023-07-07T22:00:00Z", "2023-07-07T22:00:00Z", "2023-07-07T22:00:00Z", "2023-07-07T22:00:00Z", "2023-07-07T22:00:00Z", "2023-07-07T22:00:00Z", "2023-07-07T22:00:00Z", "2023-07-07T22:00:00Z", "2023-07-07T22:00:00Z", "2023-07-07T22:00:00Z", "2023-07-07T22:00:00Z", "2023-07-07T22:00:00Z", "2023-07-07T22:00:00Z"], "raw_text": ["AGGH 072100Z 00000KT 9999 FEW015 BKN100 24/23 Q1010", "ANYN 072200Z 08006KT 9999 +SHRA FEW018 SCT020 BKN300 28/27 Q1010", "AYMH 072200Z VRB04KT 9999 SCT004 BKN030 -/- Q1023", "AYNZ 072200Z 09005G10KT 5000 BKN015 OVC030 23/21 Q1014 RMK:SHRA ALL AROUND AD", "AYPY 072100Z VRB03KT 9999 FEW010 SCT025 BKN050 24/23 Q1011", "BGBW 072150Z 05005KT 9999 SCT200 16/06 Q1021", "BGGH 072150Z 22007KT 9999 4000W VCFG SCT003 BKN180 06/04 Q1022", "BGJN 072150Z 18012KT 9999 BCFG SCT003 BKN014 BKN022 08/07 Q1020", "BGKK 072150Z AUTO 25007KT //// NCD 07/02 Q1020", "BGSF 072150Z AUTO 05010KT 9999NDV SCT060/// BKN095/// 15/05 Q1019", "BGTL 072155Z AUTO 29004KT 9999 FEW034 OVC049 08/03 A2973 RMK AO2 SLP051 T00760033 TSNO $", "BIAR 072200Z 09007KT 9999 SCT055 13/07 Q1018", "BIEG 072200Z 01010KT 9999 FEW015 SCT025 BKN040 08/06 Q1021", "BIIS 072200Z 09005KT CAVOK 11/04 Q1018", "BIKF 072200Z 31010KT CAVOK 12/08 Q1015", "BIRK 072200Z 16006KT 050V190 CAVOK 15/10 Q1014", "BKPR 072200Z 34008KT 9999 FEW090 17/15 Q1022 NOSIG", "CAHR 072100Z AUTO 23007KT 28/20 RMK AO1 SLP097 T02750203 56009", "CBAR 072100Z AUTO 07006KT ////SM ////// ///// A////", "CBBC 072100Z AUTO 34006KT 320V020 9SM CLR 21/14 A2987 RMK TS/LTNG TEMPO UNAVBL SLP117 DENSITY ALT 900FT", "CERM 072100Z AUTO 22003KT 22/21 RMK AO1 SLP102 T02160206 53015", "CMFM 072100Z AUTO 24002KT 23/18 RMK AO1 SLP110 T02260179 55003", "CMGB 072100Z AUTO 20003KT 25/22 RMK AO1 SLP104 T02460218 53002", "CPBT 072100Z AUTO 11009KT 25/06 RMK AO1 T02450062", "CPEH 072100Z AUTO 24/12 RMK AO1 T02430119", "CPFI 072100Z AUTO 08010KT 26/07 RMK AO1 T02640071", "CPIN 072100Z AUTO 35006KT 330V030 ////SM ////// 16/08 A2981", "CPIR 072100Z AUTO 15004KT 25/07 RMK AO1 T02540071", "CPRO 072100Z AUTO 20008KT 26/09 RMK AO1 T02550090", "CPRY 072100Z AUTO 12008KT 25/06 RMK AO1 T02480063", "CPST 072100Z AUTO 13004KT 23/08 RMK AO1 T02330075", "CPSV 072100Z AUTO 02002KT 26/05 RMK AO1 T02620054", "CTCK 072100Z AUTO 29003KT 27/18 RMK AO1 SLP094 T02680182 55002", "CTNK 072100Z AUTO 35002KT 25/15 RMK AO1 SLP116 T02500151 56006", "CTRA 072100Z AUTO 32005KT 20/06 RMK AO1 SLP120 T02040055 53001", "CWAF 072100Z AUTO 34004KT 12/11 RMK AO1 T01170109", "CWAQ 072100Z AUTO 33007KT 25/04 RMK AO1 SLP182 T02490044 58004", "CWAR 072100Z AUTO 16010KT 13/12 RMK AO1 SLP092 T01340123 58002", "CWAV 072100Z AUTO 07005KT 22/10 RMK AO1 SLP190 T02180098 58008", "CWBA 072100Z AUTO 34004KT 24/14 RMK AO1 T02370143", "CWBK 072100Z AUTO 11007KT 20/18 RMK AO1 SLP096 T02030180 56010", "CWBO 072100Z AUTO 21005KT 27/10 RMK AO1 SLP167 T02700099 58013", "CWBS 072100Z AUTO 20009KT 25/22 RMK AO1 T02450215", "CWBT 072100Z AUTO 13004KT 18/13 RMK AO1 SLP098 T01800129 56006", "CWBU 072100Z AUTO 33004KT 20/01 RMK AO1 SLP186 T02020005 58008", "CWBV 072100Z AUTO 24017KT 17/15 RMK AO1 PK WND 24019/2057 SLP094 T01670153 56006", "CWBY 072100Z AUTO 13012G19KT 21/16 RMK AO1 PK WND 13019/2053 SLP098 T02070159 58003", "CWBZ 072100Z AUTO 27004KT 26/20 RMK AO1 SLP097 T02620202 53001", "CWCF 072100Z AUTO 32011KT 17/05 RMK AO1 PK WND 32020/2021 SLP162 T01650046 50004", "CWCI 072100Z AUTO 11007KT 15/09 RMK AO1 SLP131 T01480093 58022", "CWCJ 072100Z AUTO 19007G16KT 17/08 RMK AO1 SLP133 T01690078 56011", "CWCT 072100Z AUTO 04009KT 25/08 RMK AO1 SLP188 T02490076 58005", "CWDA 072100Z AUTO 00008KT 14/ RMK AO1 T0140", "CWDC 072100Z AUTO 25006KT 22/07 RMK AO1 PK WND 27017/2020 SLP147 T02150074 58012", "CWDJ 072100Z AUTO 33006KT 23/04 RMK AO1 SLP181 T02300044 58004", "CWDK 072100Z AUTO 13009G17KT 25/08 RMK AO1 PK WND 14017/2050 SLP166 T02530082 56014", "CWDM 072100Z AUTO 19005KT 15/13 RMK AO1 SLP101 T01480126 56010", "CWDO 072100Z AUTO 33004KT 11/11 RMK AO1 SLP088 T01050105 56005", "CWDQ 072100Z AUTO 18005KT 28/19 RMK AO1 SLP087 T02840186 55005", "CWDV 072100Z AUTO 24012G18KT 21/14 RMK AO1 PK WND 23018/2050 SLP108 T02130143 55004", "CWDZ 072100Z AUTO 05005KT 26/13 RMK AO1 SLP160 T02620127 58012", "CWEE 072100Z AUTO 24/15 RMK AO1 SLP091 T02400152 55004", "CWEF 072100Z AUTO 31008KT 15/14 RMK AO1 SLP100 T01520137 56007", "CWEH 072100Z AUTO 11005KT 23/05 RMK AO1 SLP174 T02300047 57006", "CWEK 072100Z AUTO 16004KT 18/14 RMK AO1 SLP115 T01780144 51001", "CWEL 072100Z AUTO 10015KT 17/14 RMK AO1 PK WND 10018/2002 SLP106 T01730137 58008", "CWEP 072100Z AUTO 09005KT 19/17 RMK AO1 SLP106 T01910168 57010", "CWEQ 072100Z AUTO 04004KT 19/03 RMK AO1 SLP178 T01850031 58003", "CWER 072100Z AUTO 23014KT RMK AO1 PK WND 22017/2015", "CWEU 072100Z 27019KT 15SM FEW047 FEW086 09/01 A2970 RMK SC1AC1 SC TR AC TR SLP067", "CWEW 072100Z AUTO 25004KT 28/21 RMK AO1 SLP095 T02840209 55000", "CWEZ 072100Z AUTO 22017KT 20/12 RMK AO1 PK WND 23018/2056 SLP114 T02000120 58007", "CWFF 072100Z AUTO 36004KT 20/02 RMK AO1 SLP193 T01950018 58007", "CWFJ 072100Z AUTO 13002KT 25/09 RMK AO1 T02460088", "CWFQ 072100Z AUTO 30003KT 23/20 RMK AO1 SLP110 T02260195 53007", "CWGB 072100Z AUTO 11013KT 18/ RMK AO1 SLP105 T0180 58009", "CWGD 072100Z AUTO 33006KT 20/11 RMK AO1 SLP150 T02030106 58013", "CWGH 072100Z AUTO 19003KT 28/22 RMK AO1 SLP100 T02760215 56004", "CWGL 072100Z AUTO 29011KT 23/13 RMK AO1 SLP113 T02270126 58005", "CWGM 072100Z AUTO 15004KT 19/09 RMK AO1 SLP188 T01850087 56006", "CWGR 072100Z AUTO 12006KT 18/15 RMK AO1 SLP105 T01810148 56006", "CWGT 072100Z AUTO 14019KT 18/15 RMK AO1 PK WND 14020/2026 SLP106 T01840152 58011", "CWGW 072100Z AUTO 07015G22KT 23/05 RMK AO1 PK WND 06022/2041 SLP159 T02300054 55014", "CWGY 072100Z AUTO 01010G18KT 25/08 RMK AO1 PK WND 00018/2050 SLP168 T02510075 56008", "CWHI 072100Z AUTO 02002KT 26/11 RMK AO1 T02550113", "CWHL 072100Z AUTO 30005KT 15/13 RMK AO1 SLP115 T01450131 58001", "CWHO 072100Z AUTO 00001KT 07/06 RMK AO1 SLP097 T00710057 58011", "CWHP 072100Z AUTO 15004KT 14/12 RMK AO1 SLP101 T01380118 57010", "CWHQ 072100Z AUTO 16002KT 25/21 RMK AO1 T02540208", "CWHT 072100Z AUTO 25005KT 27/08 RMK AO1 SLP123 T02720081 56024", "CWHV 072100Z AUTO 16003KT 24/21 RMK AO1 SLP101 T02380208 55000", "CWID 072100Z AUTO 34007KT 27/12 RMK AO1 SLP125 T02670117 57012", "CWIG 072100Z AUTO 21010KT RMK AO1", "CWII 072100Z AUTO 36009G15KT 18/09 RMK AO1 PK WND 03017/2000 SLP150 T01790091 52006", "CWIJ 072100Z AUTO 20006KT 16/05 RMK AO1 SLP120 T01590052 58016", "CWIK 072100Z AUTO 01007KT 21/05 RMK AO1 PK WND 35017/2030 SLP187 T02050054 58001", "CWIL 072100Z AUTO ///// ////SM FEW021 OVC027 05/05 A2979", "CWIP 072100Z AUTO 08005KT 16/15 RMK AO1 T01560152", "CWIS 072100Z AUTO 23003KT 21/19 RMK AO1 5002 SLP111 T02050194 50001", "CWIT 072100Z AUTO 15003KT 24/21 RMK AO1 SLP098 T02350210 53001", "CWIW 072100Z AUTO 02004KT 21/06 RMK AO1 SLP189 T02060064 58004", "CWIZ 072100Z AUTO 20005KT 22/21 RMK AO1 5PAST HR M PK WND 19022/2008 P0033 T02230214 50092", "CWJB 072100Z AUTO 25/21 RMK AO1 T02510213", "CWJC 072100Z AUTO 33013KT 18/04 RMK AO1 PK WND 33017/2050 SLP115 T01750040 58014", "CWJD 072100Z AUTO 24004KT 18/07 RMK AO1 SLP164 T01800067 58002", "CWJH 072100Z AUTO 28006KT 21/03 RMK AO1 PK WND 29017/2032 SLP158 T02090030 58012", "CWJI 072100Z AUTO 01005KT 23/04 RMK AO1 SLP185 T02270035 57006", "CWJO 072100Z AUTO 31010KT 25/20 RMK AO1 SLP085 T02530195 53003", "CWJR 072100Z AUTO 27005KT 32/12 RMK AO1 SLP106 T03240123 57022", "CWJT 072100Z AUTO 25001KT 26/21 RMK AO1 SLP096 T02640207 55001", "CWJU 072100Z AUTO 28007KT 11/10 RMK AO1 SLP131 T01110101 55003", "CWJV 072100Z AUTO 15011G16KT 29/07 RMK AO1 PK WND 17023/2032 SLP100 T02920068 56011", "CWJW 072100Z AUTO 29006KT 27/09 RMK AO1 SOG 01 8019 SLP144 T02660094", "CWJX 072100Z AUTO 25009KT 27/03 RMK AO1 SLP157 T02650028 58015", "CWKD 072100Z AUTO 21/15 RMK AO1 SLP107 T02100149 53006", "CWKG 072100Z AUTO 23005KT 29/20 RMK AO1 SLP117 T02940196 56007", "CWKH 072100Z AUTO 22/13 RMK AO1 SLP106 T02200131 58005", "CWKK 072100Z AUTO 17002KT 20/16 RMK AO1 1008 SLP105 T01950159 50018", "CWKO 072100Z AUTO 04003KT 22/03 RMK AO1 SLP190 T02150031 58004", "CWKX 072100Z AUTO 01004KT 27/04 RMK AO1 SLP148 T02730038 58017", "CWLB 072100Z AUTO 05004KT 22/05 RMK AO1 SLP193 T02230053 58006", "CWLC 072100Z AUTO 28010KT 16/13 RMK AO1 T01610133", "CWLE 072100Z AUTO 17002KT 24/04 RMK AO1 SLP182 T02400037 57010", "CWLM 072100Z AUTO 21010KT 15/10 RMK AO1 SLP119 T01460104 58009", "CWLP 072100Z AUTO 31011KT 11/ RMK AO1 SLP124 T0105 55000", "CWLS 072100Z AUTO 30009KT 20/11 RMK AO1 SLP149 T02010113 56004", "CWLX 072100Z AUTO ///// ////SM ////// 06/02 A2989", "CWLY 072100Z AUTO 01006KT 310V030 9SM CLR 36/10 A2976 RMK TS/LTNG TEMPO UNAVBL SLP072 DENSITY ALT 3500FT", "CWME 072100Z AUTO 23009KT 19/15 RMK AO1 SLP105 T01910147 57003", "CWMJ 072100Z AUTO 01007KT 28/17 RMK AO1 SLP102 T02820173 55003", "CWMM 072100Z AUTO 20005KT 22/13 RMK AO1 SLP116 T02230127 57009", "CWMQ 072100Z AUTO 33003KT 26/05 RMK AO1 SLP167 T02630051 58010", "CWMT 072100Z AUTO 28006KT 24/11 RMK AO1 SOG 01 8007 SLP123 T02430106", "CWNC 072100Z AUTO 32006KT 27/12 RMK AO1 SLP115 T02730124 53001", "CWND 072100Z AUTO 02006KT 13/10 RMK AO1 SLP067 T01340099 53003", "CWNE 072100Z AUTO 12011KT 20/19 RMK AO1 SLP088 T02040193 56011", "CWNH 072100Z AUTO 24004KT 21/17 RMK AO1 SLP093 T02050172 53003", "CWNK 072100Z AUTO 34012G19KT 20/08 RMK AO1 PK WND 31019/2052 SLP160 T02030080 53006", "CWNM 072100Z AUTO 17008G19KT 29/10 RMK AO1 PK WND 16019/2051 SLP112 T02920100 56011", "CWNP 072100Z AUTO 24002KT 28/10 RMK AO1 SLP102 T02800104 56024", "CWNQ 072100Z AUTO 22005KT 27/21 RMK AO1 SLP090 T02680214 58001", "CWNZ 072100Z AUTO 24009G15KT 23/07 RMK AO1 PK WND 27020/2002 SLP104 T02320072 56009", "CWOB 072100Z AUTO 06012KT ////SM ////// ///// A3002", "CWOC 072100Z AUTO 32001KT 22/20 RMK AO1 SLP087 T02220200 58003", "CWOD 072100Z AUTO 32003KT 26/17 RMK AO1 SLP091 T02570173 57003", "CWOY 072100Z AUTO 31004KT 19/06 RMK AO1 SLP195 T01890057 58004", "CWPD 072100Z AUTO 13003KT 22/16 RMK AO1 SLP077 T02200163 55001", "CWPE 072100Z AUTO 12002KT 14/14 RMK AO1 SLP117 T01440139 55004", "CWPF 072145Z AUTO 18010KT 18/11 RMK AO1 SLP107 T01770106 58013", "CWPK 072100Z AUTO 01004KT 25/14 RMK AO1 SLP111 T02530140 53002", "CWPO 072100Z AUTO 01011G16KT 20/09 RMK AO1 PK WND 00018/2022 SLP174 T01970090 53003", "CWPR 072100Z AUTO 09010G20KT 27/07 RMK AO1 PK WND 07020/2050 SLP111 T02660073 53001", "CWPZ 072100Z AUTO 10003KT 28/10 RMK AO1 SLP139 T02760098 58009", "CWQH 072100Z AUTO 17002KT 22/21 RMK AO1 0011 SLP108 T02190209 50292", "CWQK 072100Z AUTO 28031KT 13/10 RMK AO1 PK WND 28033/2050 SLP113 T01290102 58012", "CWQO 072100Z AUTO 07004KT 14/14 RMK AO1 T01400139", "CWQP 072100Z AUTO 25012G17KT 25/20 RMK AO1 PK WND 25017/2059 SLP114 T02460200 57003", "CWQR 072100Z AUTO 12011KT 13/11 RMK AO1 T01290113", "CWQS 072100Z AUTO 32015KT 10/10 RMK AO1 PK WND 32017/2029 SLP114 T01010096 55000", "CWQV 072100Z AUTO 09005KT 20/ RMK AO1 T0199", "CWRA 072100Z AUTO 26013KT 15/13 RMK AO1 PK WND 25018/2012 SLP094 T01500131 55000", "CWRJ 072100Z AUTO 04004KT 24/06 RMK AO1 SLP173 T02390058 57011", "CWRK 072100Z AUTO 31005KT 27/17 RMK AO1 SLP110 T02660166 56006", "CWRM 072100Z AUTO 10005KT 23/12 RMK AO1 SLP164 T02330116 58010", "CWRN 072100Z AUTO 20009KT 26/20 RMK AO1 SLP105 T02570197 56008", "CWRO 072100Z AUTO 28009KT 14/11 RMK AO1 SLP121 T01400109 56002", "CWRT 072100Z AUTO 13008G17KT 22/08 RMK AO1 PK WND 13017/2054 SLP177 T02150082 56012", "CWRU 072100Z AUTO 15012KT 11/ RMK AO1 SLP132 T0105 52005", "CWRX 072100Z AUTO ///// ////SM ////// 10/04 A2984", "CWRY 072100Z AUTO 04006KT 26/06 RMK AO1 SLP165 T02550063 58013", "CWRZ 072100Z AUTO 24005KT 17/16 RMK AO1 SLP099 T01660163 55000", "CWSA 072204Z AUTO 25010KT 8SM BKN003 BKN160 17/16 A2989 RMK TS/LTNG TEMPO UNAVBL SLP124 DENSITY ALT 300FT", "CWSD 072100Z AUTO 21009KT 27/20 RMK AO1 SLP094 T02730201 56007", "CWSF 072100Z AUTO 00000KT 17/16 RMK AO1 SLP084 T01670158 58006", "CWSG 072100Z AUTO 03005KT 18/16 RMK AO1 SLP084 T01800162 56006", "CWSK 072100Z AUTO 18009KT 27/13 RMK AO1 SLP096 T02690131 58010", "CWSL 072100Z AUTO 02007KT 33/14 RMK AO1 SLP100 T03310139 56019", "CWSP 072100Z AUTO 29028KT 14/10 RMK AO1 PK WND 29032/2040 SLP121 T01350102 58004", "CWSR 072100Z AUTO 03003KT 20/04 RMK AO1 SLP197 T01980044 58004", "CWSS 072100Z AUTO 19008KT 28/19 RMK AO1 PK WND 19018/2036 SLP099 T02750192 56002", "CWST 072100Z AUTO 02001KT 22/19 RMK AO1 SLP086 T02150190 55002", "CWSW 072136Z 07010G21KT 040V110 20SM BKN060CB BKN093 OVC230 25/06 A3003 RMK CB5AS2CS1 SLP159 DENSITY ALT 5800FT", "CWTA 072100Z AUTO 19004KT 26/21 RMK AO1 SLP098 T02640213 53002", "CWTG 072100Z AUTO 05016KT 17/15 RMK AO1 PK WND 05019/2045 SLP085 T01660149 50000", "CWTN 072100Z AUTO 01002KT 24/24 RMK AO1 5005 SLP088 T02350235 50002", "CWTT 072100Z AUTO 19003KT 20/18 RMK AO1 T02040182", "CWTY 072100Z AUTO 21011KT 25/21 RMK AO1 SLP092 T02520213 56002", "CWUS 072100Z AUTO 34008KT 32/07 RMK AO1 SLP091 T03170071 56013", "CWUW 072100Z AUTO 23016G21KT ////SM ////// 05/03 A2990", "CWUX 072100Z AUTO 07003KT 26/21 RMK AO1 SLP084 T02620211", "CWVD 072100Z AUTO 13006KT ////SM NCD 08/02 A2994", "CWVF 072100Z AUTO 14011KT 17/13 RMK AO1 T01660133", "CWVI 072100Z AUTO 02006KT 23/10 RMK AO1 SLP187 T02330100 58004", "CWVN 072100Z AUTO 34003KT 25/03 RMK AO1 SLP173 T02540029 58007", "CWVP 072100Z AUTO 23008KT 17/07 RMK AO1 4PAST HR 6003 SLP186 P0002 T01650072 50004", "CWVQ 072100Z AUTO 24007KT 28/19 RMK AO1 SLP097 T02750191 53001", "CWVT 072100Z AUTO 32005KT 21/06 RMK AO1 SLP197 T02100059 58009", "CWVU 072100Z AUTO 14010KT 14/13 RMK AO1 SLP122 T01360126 55006", "CWWA 072100Z AUTO 22002KT 23/12 RMK AO1 SLP116 T02290115 58007", "CWWB 072100Z AUTO 28008G15KT 25/12 RMK AO1 SLP128 T02540121 58005", "CWWE 072100Z AUTO 20012KT 16/14 RMK AO1 PK WND 21018/2048 SLP121 T01590140 56006", "CWWF 072100Z AUTO 36011G16KT 24/06 RMK AO1 PK WND 03018/2024 SLP181 T02400055 57002", "CWWK 072100Z AUTO 24005KT 18/13 RMK AO1 SLP127 T01790127 58006", "CWWL 072100Z AUTO 36003KT 13/11 RMK AO1 SLP115 T01290113 50001", "CWWS 072100Z AUTO 31011KT 17/08 RMK AO1 SLP162 T01730081 50002", "CWWZ 072100Z AUTO 29011KT 27/18 RMK AO1 SLP125 T02720178 58007", "CWXA 072100Z AUTO 00005KT 21/05 RMK AO1 SLP208 T02140050 56007", "CWXC 072100Z AUTO 35003KT 25/19 RMK AO1 SLP091 T02530193 53007", "CWXI 072100Z AUTO 05010KT 11/09 RMK AO1 SLP094 T01050087 58008", "CWXL 072100Z AUTO 03007KT 26/11 RMK AO1 SLP169 T02600108 58013", "CWYJ 072100Z AUTO 12002KT 19/12 RMK AO1 SLP118 T01880115 58009", "CWYL 072100Z AUTO 23004KT 20/08 RMK AO1 SLP169 T02030075 56008", "CWYY 072100Z AUTO 18003KT 33/11 RMK AO1 SLP081 T03280110 56012", "CWZA 072100Z AUTO 24005KT 25/14 RMK AO1 SLP103 T02520135 58014", "CWZG 072100Z AUTO 12004KT 16/11 RMK AO1 3PAST HR 5008 PK WND 05020/2038 SLP185 P0009 T01580110 50023", "CWZL 072100Z AUTO 12004KT 16/13 RMK AO1 SLP126 T01550127 50001", "CWZN 072100Z AUTO 27012KT 14/14 RMK AO1 SLP088 T01370137 58004", "CWZO 072100Z AUTO 16015KT RMK AO1 PK WND 18017/2003", "CWZQ 072100Z AUTO 32002KT 20/17 RMK AO1 SLP107 T02030170 58002", "CWZW 072100Z AUTO 19004KT 28/05 RMK AO1 SLP143 T02800048 58019", "CXAF 072100Z AUTO 11003KT 23/10 RMK AO1 T02290103", "CXAG 072100Z AUTO 05004KT 23/08 RMK AO1 T02270082", "CXAJ 072100Z AUTO 03003KT 23/07 RMK AO1 T02310071", "CXAK 072100Z AUTO 03007KT 24/10 RMK AO1 T02430103", "CXBA 072100Z AUTO 34008KT 25/09 RMK AO1 T02480087", "CXBI 072100Z AUTO 30009KT 22/12 RMK AO1 SLP138 T02220123 58004", "CXBK 072100Z AUTO 32008KT 24/05 RMK AO1 SLP185 T02390050 58003", "CXBO 072100Z AUTO 22007KT 26/21 RMK AO1 T02620212", "CXBR 072100Z AUTO 05007KT 25/08 RMK AO1 T02510083", "CXBW 072100Z AUTO 13007KT 27/10 RMK AO1 T02660102", "CXCA 072100Z AUTO 15005KT 18/16 RMK AO1 3PAST HR 3005 SLP106 P0001 T01780156 50080", "CXCD 072100Z AUTO 10006KT 25/04 RMK AO1 T02470044", "CXCK 072100Z AUTO 13009G20KT 33/08 RMK AO1 PK WND 14026/2007 SLP097 T03270084 56024", "CXCP 072100Z AUTO 13009KT 24/07 RMK AO1 T02410068", "CXCS 072100Z AUTO 35007KT 24/05 RMK AO1 T02430052", "CXDB 072100Z AUTO 11008KT 25/06 RMK AO1 T02490060", "CXDE 072100Z AUTO 12009KT 24/08 RMK AO1 SLP117 T02430077 58009", "CXDI 072100Z AUTO 33011G16KT 24/07 RMK AO1 PK WND 34018/2033 SLP140 T02400074 56006", "CXDK 072100Z AUTO 30/12 RMK AO1 SLP120 T02980121 56019", "CXDW 072100Z AUTO 35012G17KT 19/08 RMK AO1 PK WND 35020/2020 SLP163 T01930081 51007", "CXEA 072100Z AUTO 34009G15KT 18/08 RMK AO1 PK WND 33017/2001 SLP114 T01770075 51009", "CXEC 072100Z AUTO 11006KT 25/08 RMK AO1 SLP173 T02470077 58007", "CXEG 072100Z AUTO 16005KT 24/11 RMK AO1 SLP181 T02360109 58006", "CXET 072100Z AUTO 35008KT 23/13 RMK AO1 SLP134 T02270127 55003", "CXFM 072100Z AUTO 05005KT 25/07 RMK AO1 T02450074", "CXFR 072100Z AUTO 11006KT 24/04 RMK AO1 T02410044", "CXGH 072100Z AUTO 03014G25KT 17/12 RMK AO1 PK WND 01025/2059 SLP152 T01730116 53005", "CXHA 072100Z AUTO 19006KT 24/16 RMK AO1 SLP140 T02440155 56013", "CXHD 072100Z AUTO 02005KT 23/10 RMK AO1 T02320100", "CXHP 072100Z AUTO 07006KT 24/05 RMK AO1 T02370046", "CXHR 072100Z AUTO 29004KT 24/10 RMK AO1 T02360095", "CXIB 072100Z AUTO 08003KT 17/14 RMK AO1 SLP107 T01680143 57005", "CXKA 072100Z AUTO 23009G22KT 24/10 RMK AO1 PK WND 21022/2052 SLP109 T02440100 58009", "CXKE 072100Z AUTO 07001KT 27/18 RMK AO1 SLP099 T02650184 56006", "CXKI 072100Z AUTO 19003KT 24/13 RMK AO1 SLP110 T02360127 57006", "CXKM 072100Z AUTO 02003KT 24/11 RMK AO1 T02360107", "CXKT 072100Z AUTO 27007KT 28/20 RMK AO1 SLP104 T02840196 55009", "CXLB 072100Z AUTO 20017KT 23/17 RMK AO1 PK WND 20022/2013 SLP104 T02260168 56009", "CXLC 072100Z AUTO 32010G18KT 23/08 RMK AO1 PK WND 33018/2057 SLP117 T02280077 58005", "CXLL 072100Z AUTO 28/14 RMK AO1 SLP122 T02750138 58016", "CXMD 072100Z AUTO 36013G20KT 21/06 RMK AO1 PK WND 35023/2004 SLP159 T02080060 53005", "CXMG 072100Z AUTO 18002KT 27/05 RMK AO1 T02660052", "CXMI 072100Z AUTO 22014KT 25/18 RMK AO1 PK WND 22020/2044 SLP103 T02500179 56006", "CXMM 072100Z AUTO 29006KT 24/08 RMK AO1 SLP180 T02360081 58011", "CXMO 072100Z AUTO 05009KT 20/15 RMK AO1 T01990151", "CXMY 072100Z AUTO 29/22 RMK AO1 T02920216", "CXNM 072100Z AUTO 27003KT 24/14 RMK AO1 T02410135", "CXNP 072100Z AUTO 24011G16KT 26/18 RMK AO1 PK WND 25017/2006 SLP103 T02570175 55004", "CXOL 072100Z AUTO 03005KT 23/12 RMK AO1 T02280121", "CXOX 072100Z AUTO 13008KT 20/03 RMK AO1 SLP178 T01960028 58013", "CXOY 072100Z AUTO 36009KT 27/09 RMK AO1 T02670089", "CXPA 072100Z AUTO 09006KT 23/13 RMK AO1 T02260127", "CXPC 072100Z AUTO 20/14 RMK AO1 SLP136 T01950135 58002", "CXPL 072100Z AUTO 01008KT 24/10 RMK AO1 T02410095", "CXRB 072100Z AUTO 31007KT 06/03 RMK AO1 SLP100 T00580026 53007", "CXRH 072100Z AUTO 32005KT 18/14 RMK AO1 SLP100 T01760143 58011", "CXRL 072100Z AUTO 01003KT 22/07 RMK AO1 T02200073", "CXSC 072100Z AUTO 24006KT 26/06 RMK AO1 T02620058", "CXSE 072100Z AUTO 07004KT 03/M00 RMK AO1 SLP103 T00271001 53012", "CXSH 072100Z AUTO 19007KT 27/21 RMK AO1 SLP093 T02710214 56006", "CXSL 072100Z AUTO 35006KT 22/08 RMK AO1 T02240081", "CXSP 072100Z AUTO 33006KT 22/07 RMK AO1 T02190072", "CXTD 072100Z AUTO 03004KT 25/20 RMK AO1 SLP115 T02460195 58012", "CXTH 072100Z AUTO 36006KT 23/08 RMK AO1 T02290076", "CXTN 072100Z AUTO 21006KT 16/08 RMK AO1 SLP126 T01550082 50002", "CXTO 072100Z AUTO 27/10 RMK AO1 SLP122 T02720098 58007", "CXTP 072100Z AUTO 34003KT 18/15 RMK AO1 SLP087 T01790151 53001", "CXTV 072100Z AUTO 35009KT 24/16 RMK AO1 SLP086 T02430158 56001", "CXVM 072100Z AUTO 34005KT 23/09 RMK AO1 T02260091", "CXVN 072100Z AUTO 31006KT 26/14 RMK AO1 SLP126 T02560135 58006", "CXVW 072100Z AUTO 03003KT 23/07 RMK AO1 SLP180 T02270070 58006", "CXWB 072100Z AUTO 14005KT 13/01 RMK AO1 SLP069 T01260008 50001", "CXWM 072100Z AUTO 08004KT 24/07 RMK AO1 T02350074", "CXWN 072100Z AUTO 36009G15KT 20/08 RMK AO1 SLP150 T02030077 53006", "CXYH 072100Z AUTO 20004KT 29/14 RMK AO1 SLP104 T02920140 57019", "CXZC 072100Z AUTO 06006KT 23/14 RMK AO1 SLP092 T02300136 57011", "CXZV 072100Z AUTO 09006KT 16/15 RMK AO1 SLP089 T01600146 58008", "CYAH 072100Z AUTO VRB07KT 9SM CLR 21/08 A2982 RMK TS/LTNG TEMPO UNAVBL SLP108 DENSITY ALT 2000FT", "CYAM 072100Z 30004KT 260V360 20SM FEW044 FEW160 SCT220 24/09 A2992 RMK CU1AC1CI3 CU TR AC TR SLP134 DENSITY ALT 1900FT", "CYAT 072100Z AUTO 16011G17KT 110V220 9SM 25/12 A2973 RMK CLD MISG TS/LTNG TEMPO UNAVBL SLP069 DENSITY ALT 1400FT", "CYAY 072156Z AUTO 04007KT 9SM FEW009 OVC017 14/12 A2985 RMK TS/LTNG TEMPO UNAVBL SLP109", "CYAZ 072100Z 16007KT 15SM SCT003 BKN015 BKN021TCU 15/13 A2995 RMK SF1SC4TCU2 VIS LWR SW/TCU NW SLP143", "CYBB 072100Z 27006KT 15SM BKN040 08/03 A2976 RMK SC6 SLP081", "CYBC 072100Z AUTO 05008KT 6SM BR OVC003 16/15 A2978 RMK TS/LTNG TEMPO UNAVBL SLP088 DENSITY ALT 400FT", "CYBD 072147Z 21008KT 200V290 10SM TSRA SCT030CB BKN110 OVC150 23/17 A2981 RMK CB3AC3AC2 SLP096 DENSITY ALT 1200FT", "CYBG 072100Z 31008KT 20SM BKN035TCU BKN180 25/21 A2978 RMK TCU6AC1 DENSITY ALT 2269FT TCU OHD SLP085", "CYBK 072124Z 00000KT 25SM -RA BKN030 OVC040 10/07 A2975 RMK SC7SC1 SLP076", "CYBL 072100Z 08007KT 070V130 30SM FEW050 SCT250 23/13 A2985 RMK CU1CI2 SLP108 DENSITY ALT 1500FT", "CYBQ 072100Z AUTO 36011KT 310V040 9SM CLR 18/05 A2986 RMK TS/LTNG TEMPO UNAVBL SLP122 DENSITY ALT 1600FT", "CYBR 072200Z 01009KT 300V020 15SM SCT056 BKN085 21/08 A3001 RMK CU4AC1 SLP171 DENSITY ALT 2300FT", "CYBU 072100Z AUTO VRB02KT 9SM FEW071 20/02 A3007 RMK TS/LTNG TEMPO UNAVBL SLP192 DENSITY ALT 2000FT", "CYBV 072100Z 33012G18KT 15SM FEW045 SCT097 17/05 A2998 RMK CU1AC3 CU TR LAST STFD OBS/NEXT 101200UTC SLP160 DENSITY ALT 1100FT", "CYBW 072100Z AUTO 08011KT 040V140 9SM SCT060 22/12 A3009 RMK TS/LTNG TEMPO UNAVBL SLP187 DENSITY ALT 5500FT", "CYBX 072100Z 11006KT 090V150 15SM FEW025 SCT250 20/16 A2983 RMK SC1CI2 SLP103 DENSITY ALT 800FT", "CYCA 072100Z AUTO 10010G18KT 9SM CLR 25/16 A2979 RMK TS/LTNG TEMPO UNAVBL SLP089 DENSITY ALT 1500FT", "CYCB 072100Z 24007KT 15SM FEW025 FEW047 SCT190 BKN240 09/03 A2980 RMK CU1SC2AC2CI1 CU TR SLP096", "CYCD 072100Z 07007KT 040V140 20SM FEW028 24/13 A2984 RMK CF1 CF TR HZ ALOF SLP108 DENSITY ALT 1200FT", "CYCG 072100Z 12004KT 040V180 15SM BKN060CB BKN160 BKN250 33/06 A2985 RMK CB6AC1CI1 AC TR SLP099 DENSITY ALT 4100FT", "CYCK 072100Z AUTO 19009KT 9SM CLR 24/17 A2995 RMK TS/LTNG TEMPO UNAVBL SLP142 DENSITY ALT 1900FT", "CYCO 072100Z 02008KT 010V070 15SM FEW056 BKN100 22/08 A2977 RMK CU1AC4 SLP084 DENSITY ALT 1100FT", "CYCP 072100Z VRB03KT 15SM SCT055TCU BKN080 BKN230 30/07 A2988 RMK TCU4CU1CC1 CC TR HZ ALQDS SLP116 DENSITY ALT 4500FT", "CYCQ 072100Z 10004KT 020V130 7SM FEW025 FEW030 FEW100 BKN220 26/12 A2999 RMK SC1CU1AC1CI3 CU TR FU ALQDS VIS SW15 SLP161 DENSITY ALT 3700FT", "CYCS 072100Z 17007KT 15SM BKN039 BKN240 12/06 A2974 RMK SC5CI2 SLP073", "CYCY 072100Z AUTO 11009KT 9SM OVC096 03/02 A2981 RMK SLP099", "CYDA 072100Z 36004KT 320V080 20SM FEW230 31/13 A2974 RMK CI1 SLP075 DENSITY ALT 3500FT", "CYDB 072100Z 11009G15KT 15SM FEW100 26/08 A2985 RMK AC1 AC TR SLP118 DENSITY ALT 4600FT", "CYDC 072100Z 11012G25KT 25SM SCT090CB BKN097 BKN130 27/08 A2992 RMK CB3AC2AC2 SLP113 DENSITY ALT 4200FT", "CYDF 072100Z 09003KT 15SM BKN027 22/18 A2979 RMK SC6 SLP092 DENSITY ALT 1100FT", "CYDL 072100Z AUTO 02006KT 300V070 9SM CLR 28/05 A2996 RMK TS/LTNG TEMPO UNAVBL SLP135 DENSITY ALT 4700FT", "CYDN 072100Z AUTO 02009G15KT 9SM SCT071 SCT086 20/07 A3003 RMK TS/LTNG TEMPO UNAVBL SLP176 DENSITY ALT 1800FT", "CYDP 072100Z 06008KT 15SM FEW005 FEW008 FEW012 BKN230 07/05 A2986 RMK SC1SC1SF1CS6 SC TR SF TR SLP115", "CYDQ 072100Z AUTO 12008KT 070V160 9SM CLR 26/07 A3003 RMK TS/LTNG TEMPO UNAVBL SLP176 DENSITY ALT 3800FT", "CYED 072100Z 06007KT 10SM FEW056 BKN250 24/10 A3008 RMK CU1CI7 DENSITY ALT 3848FT FU SLP188", "CYEG 072100Z 16006KT 130V220 15SM BKN049 BKN220 24/13 A3006 RMK CU5CI1 CI TR SLP182 DENSITY ALT 3800FT", "CYEK 072100Z 33006KT 15SM BKN055 13/03 A2980 RMK SC7 SLP095", "CYEN 072100Z AUTO 33010G19KT 9SM CLR 24/06 A3004 RMK TS/LTNG TEMPO UNAVBL SLP178 DENSITY ALT 3300FT", "CYER 072100Z AUTO 04007KT 9SM FEW240 08/07 A2986 RMK TS/LTNG TEMPO UNAVBL SLP115", "CYET 072100Z AUTO 06009KT 030V120 9SM FEW043 24/13 A3005 RMK TS/LTNG TEMPO UNAVBL SLP176 DENSITY ALT 4600FT", "CYEV 072100Z 06003KT 320V130 15SM FEW062 FEW100 FEW260 28/12 A2974 RMK CU1AC1CI1 CU TR CI TR SLP074 DENSITY ALT 2000FT", "CYFB 072100Z 15003KT 30SM FEW028 BKN250 13/06 A3000 RMK SC1CI6 SC TR SLP162", "CYFC 072100Z AUTO 17008KT 9SM CLR 31/22 A2977 RMK TS/LTNG TEMPO UNAVBL SLP083 DENSITY ALT 2100FT", "CYFO 072100Z 33007G16KT 280V360 15SM BKN065 21/04 A3000 RMK CU5 SLP167 DENSITY ALT 1900FT", "CYFR 072100Z 27005KT 230V330 15SM FEW110 SCT230 BKN270 24/12 A2988 RMK AC1CC2CS3 SLP124 DENSITY ALT 1800FT", "CYFS 072100Z 13004KT 070V200 15SM FEW230 SCT250 27/11 A2987 RMK CS2CI2 SLP120 DENSITY ALT 2200FT", "CYGE 072138Z 27010KT 220V300 25SM FEW065TCU SCT070CB 30/07 A2993 RMK TCU2CB1 CB W TCU N E S SLP126 DENSITY ALT 4900FT", "CYGH 072100Z 13005KT 100V200 20SM FEW120 FEW210 31/11 A2976 RMK AC1CI1 AC TR SLP083 DENSITY ALT 2300FT", "CYGK 072100Z 19013KT 15SM FEW040 FEW140 SCT250 26/22 A2984 RMK CU1AC1CI2 SLP105 DENSITY ALT 1800FT", "CYGL 072100Z 13009KT 100V170 15SM SCT075 SCT240 22/04 A2982 RMK AC3CI1 SLP105 DENSITY ALT 1800FT", "CYGP 072100Z CCA VRB02KT 15SM FEW077 BKN130 BKN220 19/18 A2981 RMK AC2ACC3CI2 SLP095 DENSITY ALT 800FT", "CYGR 072100Z 13006KT 20SM SCT270 18/15 A2984 RMK CI4 SLP108 DENSITY ALT 500FT", "CYGT 072100Z 11006KT 15SM SCT017 BKN022 07/03 A2983 RMK SC3SC4 LAST STFD OBS/NXT/ 081500Z SLP106", "CYGV 072100Z AUTO 15006KT 9SM CLR 20/14 A2981 RMK TS/LTNG TEMPO UNAVBL SLP098 DENSITY ALT 900FT", "CYGW 072100Z AUTO 01006KT 310V030 9SM CLR 20/02 A2981 RMK TS/LTNG TEMPO UNAVBL SLP097 DENSITY ALT 800FT", "CYGX 072100Z 28006KT 250V320 15SM SCT045 BKN260 19/07 A2986 RMK CU4CI3 SLP117 DENSITY ALT 1200FT", "CYHD 072100Z AUTO 29008G16KT 270V340 9SM FEW071 21/07 A2985 RMK TS/LTNG TEMPO UNAVBL SLP114 DENSITY ALT 2400FT", "CYHK 072100Z 20005KT 4SM -DZ BR OVC019 05/05 A2978 RMK ST8 SLP090", "CYHM 072100Z 27010G15KT 15SM FEW045 FEW290 24/13 A2993 RMK CF1CI1 CF TR SLP135 DENSITY ALT 2000FT", "CYHU 072100Z AUTO 21012G17KT 9SM FEW055 26/21 A2981 RMK TS/LTNG TEMPO UNAVBL SLP098 DENSITY ALT 1600FT", "CYHY 072100Z 33007KT 15SM FEW100 FEW130 OVC250 25/14 A2989 RMK AC1AC1CI8 AC TR AC TR SLP128 DENSITY ALT 1900FT", "CYHZ 072100Z 22010G16KT 15SM FEW055TCU SCT120 29/20 A2986 RMK TCU2AC1 DIST SH NE QUAD SLP111 DENSITY ALT 2300FT", "CYIN 072100Z AUTO 35005KT 300V090 9SM CLR 25/09 A2998 RMK TS/LTNG TEMPO UNAVBL SLP136 DENSITY ALT 5600FT", "CYIO 072100Z 23014KT 15SM -RA FEW003 BKN018 OVC027 03/03 A2978 RMK ST1SC5SC3 ST TR SLP091", "CYIV 072100Z AUTO 27009KT 9SM SCT055 BKN079 17/08 A2993 RMK TS/LTNG TEMPO UNAVBL SLP143 DENSITY ALT 1200FT", "CYJT 072100Z 25010KT 15SM FEW035 SCT240 19/15 A2980 RMK SC1CI2 SLP095 DENSITY ALT 700FT", "CYKA 072100Z 19004KT 30SM FEW080CB SCT120 30/10 A2982 RMK CB2AC2 VIS LWR E FU SLP095 DENSITY ALT 3300FT", "CYKD 072100Z 01008KT 340V040 15SM FEW050 FEW160 SCT240 25/18 A2974 RMK SC1AC1CI1 SC TR SLP074 DENSITY ALT 1400FT", "CYKF 072100Z AUTO 30012G19KT 9SM CLR 23/09 A2995 RMK TS/LTNG TEMPO UNAVBL SLP140 DENSITY ALT 2200FT", "CYKJ 072100Z AUTO 29010G15KT 240V320 9SM BKN076 BKN089 21/03 A2998 RMK TS/LTNG TEMPO UNAVBL SLP169 DENSITY ALT 2700FT", "CYKL 072155Z AUTO 34006KT 3SM BR OVC004 14/14 A2978 RMK TS/LTNG TEMPO UNAVBL SLP097 DENSITY ALT 2200FT", "CYKQ 072100Z 32005KT 300V360 15SM FEW060 FEW220 FEW260 23/07 A2982 RMK CU1CI1CS1 CU TR CI TR CS TR LAST STFD OBS/NEXT 091300 UTC VIA CYQB SLP101 DENSITY ALT 1200FT", "CYKY 072100Z 36003KT 260V030 13SM SCT071 SCT150 25/08 A3002 RMK CU3AC1 AC TR SLP163 DENSITY ALT 3900FT", "CYLA 072100Z 04011KT 15SM SCT013 BKN120 BKN220 07/05 A2994 RMK SC3AC3CI1 LAST STFD OBS/ NXT 081200Z SLP141", "CYLD 072100Z 26007KT 190V320 15SM SCT070 24/06 A2990 RMK AC4 SLP132 DENSITY ALT 2900FT", "CYLH 072120Z AUTO 36009G18KT 320V020 9SM BKN018 BKN030 BKN042 OVC150 15/13 A2978 RMK TS/LTNG TEMPO UNAVBL SLP093 DENSITY ALT 1300FT", "CYLJ 072100Z VRB04KT 15SM FEW058 SCT200 21/07 A3006 RMK CU2CI1 SLP191 DENSITY ALT 2600FT", "CYLL 072100Z 33004KT 300V360 15SM SCT052 SCT270 22/08 A3007 RMK CU3CI1 SLP190 DENSITY ALT 3400FT", "CYLW 072100Z AUTO 10015G28KT 9SM CLR 31/07 A2983 RMK TS/LTNG TEMPO UNAVBL SLP096 DENSITY ALT 3700FT", "CYMA 072100Z 01005KT 300V110 20SM FEW060 31/10 A2980 RMK CU1 SLP096 DENSITY ALT 4000FT", "CYMH 072204Z AUTO 07006KT 5SM BR OVC007 11/10 A2987 RMK TS/LTNG TEMPO UNAVBL SLP116", "CYMJ 072100Z 03005KT 350V050 12SM FEW065 BKN090 BKN300 24/07 A3005 RMK CU2AC3CI1 DENSITY ALT 3449FT TCU ASOCTD HZ SLP180", "CYMM 072100Z AUTO 32006KT 250V340 9SM CLR 24/08 A3002 RMK TS/LTNG TEMPO UNAVBL SLP177 DENSITY ALT 2400FT", "CYMO 072100Z AUTO 07011G16KT 9SM FEW086 23/13 A2979 RMK TS/LTNG TEMPO UNAVBL SLP090 DENSITY ALT 1100FT", "CYMT 072100Z AUTO 26003KT 190V340 9SM FEW029 22/15 A2985 RMK TS/LTNG TEMPO UNAVBL SLP114 DENSITY ALT 2500FT", "CYMX 072100Z 22006KT 30SM FEW050TCU SCT140 BKN250 26/21 A2982 RMK TCU1AC3CI2 SLP100 DENSITY ALT 1800FT", "CYNA 072100Z AUTO 15008KT 9SM CLR 20/14 A2983 RMK TS/LTNG TEMPO UNAVBL SLP102 DENSITY ALT 800FT", "CYND 072100Z 27010G15KT 15SM SCT044 BKN240 28/19 A2980 RMK CU3CI2 SLP093 DENSITY ALT 2000FT", "CYNE 072100Z AUTO 31010G20KT 230V340 9SM BKN071 19/05 A2997 RMK TS/LTNG TEMPO UNAVBL SLP155 DENSITY ALT 1400FT", "CYNM 072100Z AUTO 00000KT 9SM BKN066 BKN084 23/09 A2985 RMK TS/LTNG TEMPO UNAVBL SLP114 DENSITY ALT 2200FT", "CYOD 072100Z 13004KT 15SM SCT060 BKN250 23/07 A3006 RMK CU3CI3 DENSITY ALT 3118FT SLP187", "CYOJ 072100Z 25005KT 210V300 6SM FU SCT030 BKN250 27/07 A2998 RMK FU4CI1 SLP162 DENSITY ALT 2700FT", "CYOO 072100Z AUTO 28008G16KT 9SM CLR 27/12 A2988 RMK TS/LTNG TEMPO UNAVBL SLP118 DENSITY ALT 2000FT", "CYOW 072100Z VRB07G17KT 15SM FEW044 FEW150 SCT240 29/18 A2982 RMK CU2AC1CI2 AC TR SLP097 DENSITY ALT 2200FT", "CYPA 072141Z 23010KT 15SM FEW062 FEW085 SCT250 20/08 A3008 RMK SC2AC1CI1 AC TR WSHFT 2133 CU ASOCTD SLP197 DENSITY ALT 2200FT", "CYPC 072100Z 07006KT 15SM BKN075 OVC130 14/10 A2980 RMK AC5AC3 -RA INTMNT SLP094", "CYPD 072100Z AUTO VRB02KT 9SM FEW086 27/20 A2983 RMK TS/LTNG TEMPO UNAVBL SLP104 DENSITY ALT 2000FT", "CYPE 072100Z VRB04KT 8SM SKC 25/03 A3005 RMK FU1 SLP183 DENSITY ALT 3400FT", "CYPG 072100Z 36013G18KT 15SM SCT042 BKN080 18/09 A3000 RMK CU4AC1 DENSITY ALT 1536FT SLP162", "CYPH 072100Z AUTO 20013KT 9SM FEW076 12/07 A2984 RMK TS/LTNG TEMPO UNAVBL SLP106", "CYPL 072100Z AUTO 35008G20KT 290V070 9SM SCT024 SCT028 BKN034 15/09 A2984 RMK TS/LTNG TEMPO UNAVBL SLP113 DENSITY ALT 1800FT", "CYPO 072201Z AUTO 35008KT 9SM UP BKN005 BKN036 OVC050 05/05 A2984 RMK TS/LTNG TEMPO UNAVBL SLP107", "CYPQ 072100Z AUTO 29012KT 9SM CLR 26/11 A2989 RMK TS/LTNG TEMPO UNAVBL SLP121 DENSITY ALT 2100FT", "CYPR 072100Z AUTO 29004KT 250V310 9SM CLR 18/14 A2986 RMK TS/LTNG TEMPO UNAVBL SLP114 DENSITY ALT 600FT", "CYPW 072100Z 28007KT 25SM FEW210 26/13 A2985 RMK CC1 CC TR FU ALF SLP110 DENSITY ALT 1900FT", "CYPX 072100Z AUTO 13015G20KT 9SM BKN130 18/07 A2983 RMK TS/LTNG TEMPO UNAVBL SLP106 DENSITY ALT 600FT", "CYPY 072100Z AUTO 27008KT 6SM HZ FEW110 25/11 A2994 RMK TS/LTNG TEMPO UNAVBL SLP146 DENSITY ALT 2100FT", "CYQA 072100Z AUTO 29008KT 240V320 9SM CLR 22/08 A2991 RMK TS/LTNG TEMPO UNAVBL SLP130 DENSITY ALT 2000FT", "CYQB 072100Z 22008KT 15SM FEW030 SCT170 BKN240 25/22 A2979 RMK CU1AC2CI4 HAZY SLP091 DENSITY ALT 1700FT", "CYQD 072100Z AUTO 28005KT 250V010 9SM SCT096 20/04 A3001 RMK TS/LTNG TEMPO UNAVBL SLP168 DENSITY ALT 1700FT", "CYQF 072100Z AUTO 02005KT 330V070 9SM CLR 22/13 A3008 RMK TS/LTNG TEMPO UNAVBL SLP193 DENSITY ALT 4300FT", "CYQG 072100Z AUTO 07007KT 020V090 9SM BKN066 26/13 A2995 RMK TS/LTNG TEMPO UNAVBL SLP140 DENSITY ALT 2000FT", "CYQH 072100Z 12004KT 100V210 40SM FEW040 FEW220 26/07 A2998 RMK CU1CI1 SLP153 DENSITY ALT 4000FT", "CYQI 072100Z 18008KT 12SM FEW008 FEW250 18/16 A2992 RMK SC2CI2 SLP133 DENSITY ALT 500FT", "CYQK 072100Z 32010KT 290V010 20SM BKN070 BKN210 21/05 A2989 RMK CU5CI1 SLP126 DENSITY ALT 2400FT", "CYQL 072100Z 10009G15KT 20SM FEW075 FEW290 27/08 A3003 RMK CU1CI1 SLP162 DENSITY ALT 5000FT", "CYQM 072100Z 21008KT 150V230 12SM FEW056 SCT230 32/21 A2979 RMK CF1CI3 CF TR CONTRAILS SLP091 DENSITY ALT 2400FT", "CYQQ 072100Z 13009KT 20SM FEW043 FEW100 SCT250 23/12 A2985 RMK CF1AC2CI1 DENSITY ALT 1303FT SLP107", "CYQR 072100Z 34008KT 260V020 15SM BKN064 23/07 A3005 RMK CU5 SLP186 DENSITY ALT 3200FT", "CYQT 072100Z 25007KT 220V290 20SM FEW030 SCT120 BKN270 24/16 A2982 RMK CU2AC1CI2 SLP103 DENSITY ALT 1900FT", "CYQU 072100Z 08011G18KT 15SM SCT160 26/08 A3004 RMK AC4 SLP179 DENSITY ALT 3800FT", "CYQV 072100Z AUTO VRB07KT 9SM FEW066 20/04 A3006 RMK TS/LTNG TEMPO UNAVBL SLP188 DENSITY ALT 2500FT", "CYQW 072100Z AUTO 11006KT 9SM BKN060 BKN075 23/09 A3008 RMK TS/LTNG TEMPO UNAVBL SLP192 DENSITY ALT 3000FT", "CYQX 072100Z 31009G17KT 20SM OVC010 15/13 A2981 RMK SC8 SLP098 DENSITY ALT 800FT", "CYQY 072100Z 12004KT 070V160 15SM FEW220 BKN250 21/17 A2985 RMK CI1CI5 SLP110 DENSITY ALT 1100FT", "CYQZ 072100Z AUTO VRB04KT 9SM CLR 28/08 A2990 RMK TS/LTNG TEMPO UNAVBL SLP126 DENSITY ALT 3800FT", "CYRA 072100Z 34009KT 15SM SCT150 BKN200 BKN220 25/07 A2986 RMK AS3CI2CS1 SLP118 DENSITY ALT 2200FT", "CYRB 072100Z 30008KT 30SM BKN034 OVC052 06/03 A2982 RMK SC6SC2 SLP105", "CYRJ 072100Z 30010KT 40SM SCT055 BKN070 BKN230 26/18 A2980 RMK CU3AC2CI2 SLP092 DENSITY ALT 2100FT", "CYRL 072100Z 01007KT 240V030 15SM BKN020TCU 17/07 A2990 RMK TCU7 OCNL -SHRA SLP133 DENSITY ALT 1900FT", "CYRQ 072100Z AUTO 20010KT 9SM BKN071 BKN089 27/20 A2980 RMK TS/LTNG TEMPO UNAVBL SLP091 DENSITY ALT 1800FT", "CYRT 072100Z CCA 30011G17KT 15SM SCT048 SCT170 BKN260 14/02 A2974 RMK SC3AC1CI1 TCU EMBD SH DIST E SLP076", "CYRV 072100Z AUTO VRB04KT 9SM SCT110 BKN130 OVC150 30/11 A2985 RMK TS/LTNG TEMPO UNAVBL SLP103 DENSITY ALT 3700FT", "CYSB 072100Z 02003KT 20SM SCT030 BKN085 BKN210 23/14 A2990 RMK CU3AC2CI1 SLP126 DENSITY ALT 2400FT", "CYSC 072113Z AUTO 16003KT 9SM SCT003 21/20 A2985 RMK TS/LTNG TEMPO UNAVBL SLP109 DENSITY ALT 1800FT", "CYSF 072100Z AUTO 28010G15KT 9SM FEW071 SCT094 BKN110 22/08 A2991 RMK TS/LTNG TEMPO UNAVBL SLP137 DENSITY ALT 1800FT", "CYSJ 072100Z 19011KT 15SM FEW005 20/17 A2987 RMK SF1 SLP119 DENSITY ALT 1100FT", "CYSK 072100Z 21013KT 15SM BKN130 19/10 A2979 RMK AC5 SLP092 DENSITY ALT 800FT", "CYSM 072100Z 19003KT 160V270 4SM FU FEW080 BKN090 25/10 A2990 RMK AC1ACC7 AC TR SLP133 DENSITY ALT 2100FT", "CYSN 072100Z 31010KT 15SM FEW050 FEW250 26/14 A2989 RMK SC1CI1 SLP122 DENSITY ALT 1800FT", "CYSP 072100Z 21003G17KT 15SM FEW070 SCT075 18/08 A2989 RMK AS2AC2 LAST STFD OBS/NEXT 081200UTC SLP131 DENSITY ALT 1700FT", "CYTE 072100Z AUTO 26005KT 9SM OVC081 06/02 A2996 RMK SLP150", "CYTH 072100Z 30006KT 260V320 15SM SCT068 BKN230 20/06 A2991 RMK CU4CI1 SLP136 DENSITY ALT 1600FT", "CYTL 072100Z AUTO 36008KT 310V050 9SM BKN026 OVC130 13/08 A2987 RMK TS/LTNG TEMPO UNAVBL SLP122", "CYTR 072100Z 20009G15KT 15SM FEW030 FEW250 27/20 A2983 RMK SC1CI1 DENSITY ALT 2177FT SLP101", "CYTS 072100Z 22005KT 200V300 15SM BKN060 24/09 A2988 RMK SC6 SLP122 DENSITY ALT 2300FT", "CYTZ 072121Z AUTO 30013G18KT 9SM CLR 27/10 A2988 RMK WSHFT AT 2106Z TS/LTNG TEMPO UNAVBL SLP120 DENSITY ALT 1800FT", "CYUA 072100Z AUTO 36005KT 290V030 ////SM SCT008 17/12 A2977", "CYUB 072100Z 29004KT 15SM FEW009 BKN072 19/15 A2977 RMK SC1AS7 SC TR SLP082 DENSITY ALT 700FT", "CYUL 072100Z 18008KT 15SM FEW030 SCT050 BKN140 BKN240 27/21 A2981 RMK CF1CU4AC1CC2 CF TR SLP097 DENSITY ALT 1700FT", "CYUT 072100Z 13013KT 25SM SCT020 BKN050 07/03 A2979 RMK CU4SC2 SLP091", "CYUX 072100Z 16008KT 10SM SCT025 05/04 A2984 RMK SC4 BR OVR BASIN SLP106", "CYUY 072100Z 20006KT 190V290 15SM SCT035 BKN085 24/13 A2988 RMK CU3AC2 SLP122 DENSITY ALT 2300FT", "CYVC 072100Z 15006KT 15SM SCT080 BKN250 20/06 A3004 RMK CU4CI1 SLP184 DENSITY ALT 2000FT", "CYVL 072100Z AUTO 24006KT 190V260 9SM CLR 25/09 A2982 RMK SLP106 DENSITY ALT 2500FT", "CYVM 072100Z 21013KT 15SM SKC 04/02 A2997 RMK SLP150", "CYVO 072100Z 32008KT 250V010 15SM SCT040 BKN090 24/12 A2988 RMK CU4AC1 SLP124 DENSITY ALT 2500FT", "CYVP 072137Z 02007KT 15SM BKN012 OVC049 10/09 A2989 RMK SC7SC1 CIG RAG SLP127", "CYVQ 072100Z 18005KT 12SM FEW120 SCT250 30/09 A2979 RMK FU2AC1CI2 AC TR SLP092 DENSITY ALT 2200FT", "CYVR 072100Z 12008KT 100V160 20SM FEW140 FEW230 22/13 A2986 RMK AC1CI1 CI TR ACC ASOCTD SLP115 DENSITY ALT 900FT", "CYVT 072100Z AUTO 32006KT 9SM SCT210 SCT230 21/06 A3004 RMK TS/LTNG TEMPO UNAVBL SLP183 DENSITY ALT 2400FT", "CYVV 072100Z 26008KT 15SM FEW040 FEW050 19/15 A2994 RMK SC1CU1 SLP142 DENSITY ALT 1400FT", "CYWE 072204Z AUTO 33007G15KT 300V010 5SM HZ FEW066 24/07 A2983 RMK SLP109 DENSITY ALT 2700FT", "CYWG 072100Z 36013G20KT 15SM FEW040TCU SCT067 SCT075 SCT085 SCT100 20/10 A2997 RMK TCU2AC1AC1AC1AC1 AC TR AC TR DIST VIRGA NE SLP152 DENSITY ALT 1500FT", "CYWH 072100Z CCA 19005G15KT 130V220 15SM FEW005 SCT230 18/12 A2987 RMK ST1CI3 ST TR SLP117 DENSITY ALT 400FT", "CYWJ 072100Z 10011G18KT 40SM SCT120 BKN170 BKN230 24/08 A2985 RMK AC3AS2CC1 FU DIST W-NW SLP115 DENSITY ALT 2100FT", "CYWK 072154Z 30006KT 12SM -SHRA FEW050CB OVC140 19/18 A2975 RMK CB2AC6 CB N MOVNG E SLP079 DENSITY ALT 2900FT", "CYWL 072100Z 00000KT 15SM FEW060 BKN150 25/07 A2996 RMK CU1AC5 SLP138 DENSITY ALT 5000FT", "CYXC 072100Z 10005KT 020V110 25SM FEW090TCU SCT250 28/04 A2996 RMK TCU2CI1 CB TOPS DIST NE+NW FU LYR ALFT SLP129 DENSITY ALT 5300FT", "CYXE 072100Z 03005KT 310V080 15SM BKN075 BKN300 23/07 A3006 RMK AC6CI1 SLP186 DENSITY ALT 2900FT", "CYXH 072100Z 31004KT 230V350 10SM FEW080TCU BKN130 OVC300 27/07 A3003 RMK TCU1AC4CI3 SLP161 DENSITY ALT 4200FT", "CYXJ 072100Z 13008KT 070V150 15SM BKN220 25/08 A3006 RMK FU5CI2 SLP182 DENSITY ALT 3800FT", "CYXL 072100Z 36013G22KT 330V060 15SM FEW055 22/08 A2983 RMK CU2 CB TOP DIST SE SLP107 DENSITY ALT 2500FT", "CYXN 072100Z 31011KT 15SM BKN069 13/02 A2976 RMK AC5 SLP080", "CYXP 072100Z 25012KT 15SM FEW250 12/05 A3001 RMK CI1 SLP167", "CYXQ 072146Z 09013KT 070V150 30SM SCT140 BKN250 31/03 A2976 RMK ACC3CI3 WSHFT 2131 SLP078 DENSITY ALT 4700FT", "CYXR 072100Z AUTO /////KT RMK WIND MISG CLD MISG WX MISG VIS MISG PCPN MISG PRES MISG T MISG DP MISG ICE MISG TS/LTNG TEMPO UNAVBL DENSITY ALT MISG", "CYXS 072100Z AUTO 34005KT 290V010 9SM CLR 26/12 A2993 RMK TS/LTNG TEMPO UNAVBL SLP139 DENSITY ALT 4100FT", "CYXT 072100Z 32009KT 280V360 20SM FEW065 FEW130 FEW230 31/12 A2985 RMK CU1AC1CI1 CU TR CI TR SLP110 DENSITY ALT 2800FT", "CYXU 072100Z 31009G16KT 15SM FEW050 FEW250 22/12 A2997 RMK CU1CI1 CU TR CI TR SLP151 DENSITY ALT 1900FT", "CYXX 072100Z 21008G15KT 25SM FEW130TCU FEW200 BKN270 22/15 A2986 RMK TCU1CC1CI5 CC TR TCU TR DIST E-SE HZ SLP113 DENSITY ALT 1200FT", "CYXY 072100Z 14010KT 060V190 40SM FEW140 FEW260 30/07 A2987 RMK FU1CI1 SLP117 DENSITY ALT 4700FT", "CYXZ 072123Z 24004KT 190V300 15SM SKC 18/09 A2993 RMK SLP144 DENSITY ALT 1500FT", "CYYB 072100Z 23008KT 190V250 30SM SCT035 BKN075 BKN280 24/16 A2989 RMK CU4AC1CI1 SLP122 DENSITY ALT 2700FT", "CYYC 072100Z 36011KT 350V080 12SM VCSH SCT048 BKN059CB BKN100 BKN250 22/11 A3008 RMK HZ1CU2CB4AC1CI1 AC TR CI TR CB SW-NE AND OHD MOVG S SLP185 DENSITY ALT 5100FT", "CYYD 072100Z 23005KT 130V240 6SM FU SCT060TCU BKN230 29/10 A2992 RMK TCU3CI2 SLP128 DENSITY ALT 3700FT", "CYYE 072100Z VRB03KT 6SM FU FEW050 FEW230 26/13 A2997 RMK CF1CI1 SLP154 DENSITY ALT 2800FT", "CYYF 072158Z 04013G19KT 15SM -TSRA SCT040CB BKN140 BKN240 28/10 A2984 RMK CB4AC2CI1 SLP100 DENSITY ALT 3000FT", "CYYG 072100Z 25007KT 15SM BKN250 29/20 A2981 RMK CI5 SLP096 DENSITY ALT 2000FT", "CYYH 072100Z CCA 06010KT 15SM -SHRA FEW011 BKN020 OVC025 05/03 A2977 RMK SC2SC5SC1 SLP085", "CYYJ 072100Z 12011KT 30SM FEW200 16/12 A2987 RMK CI1 SLP116 DENSITY ALT 300FT", "CYYL 072100Z AUTO 29010G18KT 250V330 9SM FEW071 SCT092 SCT110 21/05 A2992 RMK TS/LTNG TEMPO UNAVBL SLP142 DENSITY ALT 2100FT", "CYYN 072100Z AUTO VRB05KT 9SM BKN071 25/08 A3004 RMK TS/LTNG TEMPO UNAVBL SLP173 DENSITY ALT 4300FT", "CYYQ 072100Z VRB02KT 15SM FEW050 BKN060 BKN120 12/09 A2984 RMK SC1SC4AC1 SLP107", "CYYR 072100Z 04014KT 15SM FEW055 BKN300 26/16 A2970 RMK CU1CI6 DENSITY ALT 1959FT SLP060", "CYYT 072131Z 08003KT 360V140 15SM BKN016 15/14 A2980 RMK SC7 LWR VIS E 3 SLP095 DENSITY ALT 700FT", "CYYU 072100Z 26011G19KT 15SM FEW068 SCT075 SCT080 BKN085 24/08 A2983 RMK AC2AC1AC1AC2 SLP107 DENSITY ALT 2100FT", "CYYW 072146Z AUTO VRB02KT 9SM FEW050 OVC100 16/14 A2981 RMK PCPN 2.0MM PAST HR TS/LTNG TEMPO UNAVBL SLP090 DENSITY ALT 1600FT", "CYYY 072100Z 25006KT 15SM FEW030TCU BKN220 23/19 A2977 RMK TCU2CI5 SLP084 DENSITY ALT 1400FT", "CYYZ 072100Z 25012G17KT 230V300 15SM FEW030 FEW250 25/11 A2990 RMK CU1CI1 CU TR CI TR SLP125 DENSITY ALT 2000FT", "CYZE 072100Z AUTO 31015G22KT 9SM CLR 24/12 A2991 RMK TS/LTNG TEMPO UNAVBL SLP131 DENSITY ALT 1800FT", "CYZF 072100Z 31015G22KT 270V330 15SM BKN065TCU BKN240 26/11 A2984 RMK TCU5CI2 SLP111 DENSITY ALT 2200FT", "CYZG 072100Z 08018G24KT 15SM FEW050 SCT110 14/04 A2989 RMK SC2AC1 LST STFD OB/ NXT 081200Z SLP137", "CYZH 072100Z AUTO VRB06KT 9SM CLR 24/07 A3006 RMK TS/LTNG TEMPO UNAVBL SLP186 DENSITY ALT 3300FT", "CYZP 072100Z AUTO 13008KT 9SM CLR 18/12 A2988 RMK TS/LTNG TEMPO UNAVBL SLP119 DENSITY ALT 500FT", "CYZR 072100Z AUTO 04012KT 9SM CLR 22/12 A2996 RMK TS/LTNG TEMPO UNAVBL SLP148 DENSITY ALT 1500FT", "CYZS 072100Z 17007KT 12SM BKN004 OVC029 06/06 A2986 RMK ST5SC3 SLP118", "CYZT 072100Z 03005KT 20SM FEW120 SCT210 16/13 A2988 RMK AC2CI1 FG OVR WTR DIST N-E SLP119 DENSITY ALT 300FT", "CYZU 072100Z 09003KT 040V200 15SM FEW040 SCT240 22/11 A3007 RMK CU1CI3 HZ SLP186 DENSITY ALT 3800FT", "CYZV 072203Z 10011KT 2SM BR VV003 16/16 A2980 RMK FG8 SLP096 DENSITY ALT 500FT", "CYZW 072100Z 18006KT 30SM FEW055 28/06 A2994 RMK CU1 CU TR SLP140 DENSITY ALT 4400FT", "CYZX 072100Z 30012KT 15SM FEW050 26/19 A2986 RMK CU2 DENSITY ALT 1782FT SLP111", "CYZY 072100Z AUTO 34005KT 280V030 9SM BKN066 BKN075 27/11 A2997 RMK TS/LTNG TEMPO UNAVBL SLP148 DENSITY ALT 4200FT", "CZBF 072148Z AUTO 34006G20KT 290V010 6SM RA BR BKN044 BKN066 OVC075 21/21 A2982 RMK PCPN 3.3MM PAST HR TS/LTNG TEMPO UNAVBL SLP099 DENSITY ALT 1200FT", "CZCP 072100Z AUTO 10005KT ////SM OVC060 10/07 A2983", "CZCR 072100Z AUTO 23002KT 22/22 RMK AO1 8PAST HR 0010 SLP095 P0003 T02210220 50008", "CZDB 072100Z AUTO 23008KT 24/19 RMK AO1 SLP106 T02400189 56011", "CZEL 072100Z AUTO 31011G16KT 21/10 RMK AO1 PK WND 30020/2008 SLP143 T02140099 56006", "CZEV 072100Z AUTO 04004KT 28/13 RMK AO1 SLP079 T02760130 56007", "CZFA 072100Z VRB02KT 30SM FEW080 29/07 A2988 RMK CF1 CF TR SLP124 DENSITY ALT 4600FT", "CZFM 072100Z 07005KT 35SM SCT110 28/16 A2972 RMK AC3 SLP066 DENSITY ALT 2000FT", "CZFN 072100Z VRB04KT 2 1/2SM FU FEW002 FEW180 30/11 A2979 RMK FU2AC1 AC TR SLP092 DENSITY ALT 2300FT", "CZFS 072100Z AUTO 11004KT 27/12 RMK AO1 SLP120 T02710117 57015", "CZHY 072100Z AUTO 33007KT 26/14 RMK AO1 SLP125 T02560139 58012", "CZKD 072100Z AUTO 31009KT 19/03 RMK AO1 SLP132 T01940032 56005", "CZMD 072100Z AUTO 36009KT 340V050 9SM BKN055 BKN070 16/06 A2988 RMK TS/LTNG TEMPO UNAVBL SLP126 DENSITY ALT 1400FT", "CZMJ 072100Z AUTO 04006KT 22/06 RMK AO1 SLP192 T02150064 58006", "CZMT 072150Z 35007KT 330V070 15SM FEW004 SCT008 14/11 A2989 RMK SF2SF1 SLP122", "CZOL 072100Z AUTO 11003KT 24/12 RMK AO1 T02420115", "CZPC 072152Z AUTO 18014KT 9SM BKN066 OVC083 22/09 A3006 RMK WSHFT AT 2142Z TS/LTNG TEMPO UNAVBL SLP155 DENSITY ALT 5400FT", "CZPS 072100Z AUTO 11003KT 21/14 RMK AO1 T02060142", "CZSJ 072100Z AUTO /////KT 9SM FEW055 SCT080 BKN092 17/05 A2990 RMK WIND MISG TS/LTNG TEMPO UNAVBL SLP134 DENSITY ALT 1400FT", "CZSM 072100Z AUTO 27002KT 25/10 RMK AO1 SLP137 T02530096 58017", "CZSP 072100Z AUTO 13006KT 26/21 RMK AO1 SLP097 T02550213 57008", "CZST 072100Z 20004KT 160V230 12SM SKC 26/18 A2985 RMK FU ALQUADS SLP111 DENSITY ALT 1500FT", "CZTB 072100Z AUTO 25005KT 23/16 RMK AO1 8PAST HR 8003 SLP105 P0003 T02340160 50008", "CZUM 072100Z AUTO 33014G19KT 9SM CLR 22/18 A2972 RMK TS/LTNG TEMPO UNAVBL SLP069 DENSITY ALT 2900FT", "CZVL 072100Z AUTO 01005KT 350V100 9SM FEW055 24/10 A3006 RMK TS/LTNG TEMPO UNAVBL SLP182 DENSITY ALT 3700FT", "CZZJ 072100Z AUTO 07007KT 23/13 RMK AO1 SLP180 T02250127 58008", "DAAE 072200Z 26005KT 7000 FEW016 SCT233 27/22 Q1011", "DAAG 072200Z 34010KT 310V010 9999 FEW020 FEW026CB BKN200 27/23 Q1013", "DAAJ 072200Z 07010KT CAVOK 30/M06 Q1019", "DAAP 072200Z 08008KT CAVOK 33/M01 Q1018", "DAAS 072200Z 17005KT 9999 FEW030 32/02 Q1022", "DAAT 072200Z 33014G24KT 9999 SCT046 31/04 Q1022", "DAAV 072200Z VRB02KT 9999 FEW020 SCT200 28/24 Q1011", "DAAY 072200Z 19012KT 3000 BLSA SCT030 SCT033 33/M00 Q1022", "DABB 072200Z VRB02KT CAVOK 28/24 Q1012", "DABC 072200Z 18006KT CAVOK 31/10 Q1020", "DABS 072200Z 25004KT CAVOK 34/03 Q1022", "DABT 072200Z 18009KT 9999 FEW033 SCT090 34/06 Q1021", "DAOB 072200Z 20005KT 8000 SCT030 24/12 Q1022", "DAOF 072200Z 29014KT 8000 NSC 30/07 Q1014", "DAOI 072200Z 24006KT 8000 SCT030 BKN233 27/20 Q1016", "DAOL 072200Z 32008KT 7000 SCT026 BKN100 26/23 Q1016", "DAON 072200Z 34004KT 9999 FEW030 SCT233 24/21 Q1017", "DAOO 072200Z 32007KT 9999 SCT023 26/22 Q1015", "DAOR 072200Z 23007KT 6000 NSC 36/M01 Q1017", "DAOV 072200Z 30007KT 8000 FEW026CB SCT030 27/18 Q1018", "DAOY 072200Z 15014KT 8000 NSC 32/00 Q1023", "DAUA 072200Z 05007KT CAVOK 38/// Q1009", "DAUB 072200Z 10006KT CAVOK 38/07 Q1014", "DAUE 072200Z 11004KT CAVOK 37/01 Q1016", "DAUG 072200Z 14003KT CAVOK 36/02 Q1018", "DAUH 072200Z 12003KT 090V160 CAVOK 38/05 Q1015", "DAUI 072200Z 09021KT 7000 DRSA NSC 42/// Q1009", "DAUK 072200Z 14006KT CAVOK 38/08 Q1014", "DAUL 072200Z 17004KT 8000 NSC 34/08 Q1019", "DAUO 072200Z 16004KT 140V200 CAVOK 40/08 Q1014", "DAUT 072200Z 09010KT CAVOK 37/// Q1011", "DAUU 072200Z 15005KT CAVOK 37/04 Q1014", "DAUZ 072200Z 06005KT CAVOK 29/M03 Q1018", "DBBB 072100Z 22012KT 9999 SCT011 27/25 Q1013 NOSIG", "DFFD 072100Z 24003KT 200V290 9999 TS FEW020 FEW040CB 32/22 Q1012 TEMPO 4000 TSRA", "DFOO 072100Z VRB02KT 9999 TS FEW016 FEW033CB 26/22 Q1014", "DGAA 072100Z 22012KT 9999 FEW011 SCT036 26/24 Q1014 NOSIG", "DIAP 072200Z 24006KT 9999 FEW013 25/25 Q1014 NOSIG", "DIBK 072100Z 22004KT 8000 FEW011 25/24 Q1015 NOSIG", "DIYO 072100Z 24002KT CAVOK 25/23 Q1014 NOSIG", "DNAA 072100Z 23002KT 9999 SCT009 27/25 Q1015 NOSIG", "DNIB 072100Z 23005KT 9999 SCT010 25/24 Q1014", "DNIL 072100Z 09003KT 9999 TS SCT009 FEW020CB 23/22 Q1014", "DNKN 072100Z 24008KT 9999 -TSRA BKN009 FEW018CB 23/21 Q1016 NOSIG", "DNMM 072100Z 23005KT 8000 FEW010 26/24 Q1014 NOSIG", "DNPO 072100Z 00000KT 7000 -TSRA BKN007 FEW018CB 25/24 Q1013 NOSIG", "DNYO 072100Z 20009KT 9999 DZ SCT009 24/23 Q1014", "DNZA 072100Z 26004KT 9999 TS FEW010 FEW020CB 26/23 Q1017", "DRRN 072100Z 20004KT 8000 NSC 35/19 Q1010 NOSIG", "DRRT 072100Z 00000KT 9999 FEW050CB 31/21 Q1011", "DTKA 072200Z 02003KT 270V080 9999 FEW020 33/15 Q1013 NOSIG", "DTMB 072200Z 14010KT 9999 FEW046 30/19 Q1016", "DTNH 072200Z 16006KT CAVOK 28/18 Q1016", "DTTA 072200Z 12009KT 070V170 9999 FEW036 30/21 Q1015", "DTTB 072100Z 09011KT 9999 FEW020 30/22 Q1014", "DTTD 072100Z AUTO 08003KT 050V120 NCD 35/07 Q1019", "DTTF 072200Z 19007KT CAVOK 36/14 Q1018 NOSIG", "DTTG 072200Z 10007KT 8000 NSC 33/07 Q1017 NOSIG", "DTTJ 072200Z 14016KT 8000 NSC 30/16 Q1016 NOSIG", "DTTK 072100Z 13005KT 050V180 9999 FEW023 34/10 Q1016", "DTTL 072100Z 15006KT CAVOK 27/23 Q1017", "DTTN 072100Z 25003KT 8000 SCT020 31/20 Q1014", "DTTR 072200Z AUTO 07010KT NCD 37/09 Q1018", "DTTX 072200Z 14006KT CAVOK 30/19 Q1017", "DTTZ 072100Z 08008KT CAVOK 40/09 Q1015 NOSIG", "DXNG 072100Z 00000KT 9999 -TSRA BKN006 FEW016CB 22/22 Q1015", "DXSK 072100Z 00000KT 6000 TSRA FEW020CB BKN120 25/24 Q////", "DXXX 072100Z 21009KT 9999 SCT012 27/24 Q1014 NOSIG", "EBAW 072150Z AUTO 06005KT 9999 // VV/// 20/11 Q1016", "EBBE 072155Z AUTO 08003KT 9999 NCD 21/12 Q1016 BLU", "EBBL 072155Z AUTO VRB02KT 9999 NCD 18/10 Q1017 BLU", "EBBR 072150Z 09004KT CAVOK 21/12 Q1016 NOSIG", "EBCI 072150Z 10005KT 070V130 CAVOK 21/11 Q1017 NOSIG", "EBCV 072155Z AUTO 10004KT 9999 BKN200/// 20/13 Q1016 BLU", "EBDT 072155Z AUTO 06004KT 9999 NCD 21/10 Q1016 BLU", "EBFN 072155Z AUTO 08004KT 9999 NCD 20/14 Q1015 BLU", "EBFS 072155Z AUTO 08004KT 9999 SCT160/// BKN220/// 20/12 Q1017 BLU", "EBLB 072155Z AUTO 12003KT 9999 SCT085/// SCT110/// 17/11 Q1020 BLU", "EBLG 072150Z 13007KT 110V170 CAVOK 23/10 Q1017 NOSIG", "EBOS 072150Z 09006KT CAVOK 20/11 Q1016 NOSIG", "EDAC 072150Z AUTO VRB01KT 9999 // NCD 17/12 Q1021", "EDAH 072150Z AUTO 05004KT 020V080 9999 // NCD 18/11 Q1022", "EDBC 072150Z AUTO 06004KT 9999 // NCD 20/09 Q1021", "EDDB 072150Z AUTO 07005KT CAVOK 18/10 Q1021 NOSIG", "EDDC 072150Z AUTO VRB01KT CAVOK 21/09 Q1021", "EDDE 072150Z AUTO 06005KT CAVOK 22/09 Q1021", "EDDF 072150Z AUTO 06006KT CAVOK 22/11 Q1017 NOSIG", "EDDG 072150Z AUTO 06003KT 030V090 CAVOK 19/11 Q1019 NOSIG", "EDDH 072150Z AUTO 04004KT 010V070 CAVOK 17/12 Q1022 NOSIG", "EDDK 072150Z AUTO 07008KT CAVOK 22/08 Q1017 NOSIG", "EDDL 072150Z AUTO 06007KT CAVOK 21/11 Q1017 NOSIG", "EDDM 072150Z AUTO VRB02KT CAVOK 15/10 Q1021 NOSIG", "EDDN 072150Z AUTO 10007KT CAVOK 19/07 Q1020", "EDDP 072150Z AUTO 06007KT CAVOK 20/10 Q1021 NOSIG", "EDDR 072150Z AUTO 04007KT CAVOK 24/09 Q1017 RESHRA", "EDDS 072150Z AUTO 09003KT CAVOK 21/09 Q1019", "EDDV 072150Z AUTO 09002KT CAVOK 18/10 Q1021", "EDDW 072150Z AUTO 06010KT CAVOK 18/11 Q1021", "EDFH 072150Z 14007KT CAVOK 21/07 Q1019", "EDFM 072150Z AUTO 09003KT 060V120 9999 // NCD 25/08 Q1017", "EDGS 072150Z AUTO 07007KT 9999 // NCD 20/07 Q1021", "EDHI 072150Z AUTO 06005KT 9999 // NCD 19/12 Q1022", "EDHK 072150Z AUTO 08002KT 9999 // NCD 15/12 Q1023", "EDHL 072150Z AUTO 00000KT 9999 // NCD 15/11 Q1023", "EDJA 072150Z AUTO 07006KT 9999 // NCD 18/09 Q1020", "EDLN 072150Z AUTO 06003KT 9999 // BKN150/// 22/11 Q1017", "EDLP 072150Z 11005KT 090V150 CAVOK 20/09 Q1020", "EDLV 072150Z 05003KT 010V100 CAVOK 22/12 Q1018", "EDLW 072150Z AUTO 09007KT 9999 // NCD 20/10 Q1019", "EDMA 072150Z AUTO VRB02KT 9999 // NCD 16/08 Q1020", "EDMO 072150Z AUTO VRB01KT 9999 // NCD 16/09 Q1021", "EDNY 072150Z AUTO 02004KT 340V060 9999 FEW230/// 22/09 Q1018", "EDQM 072150Z AUTO VRB01KT 9999 // NCD 15/10 Q1022", "EDSB 072150Z AUTO VRB02KT 9999 // NCD 22/12 Q1015", "EDTL 072150Z AUTO VRB02KT 9999 // NCD 21/13 Q1016", "EDTY 072150Z AUTO 09007KT 9999 // NCD 16/09 Q1019", "EDVE 072150Z AUTO 08003KT 9999 NCD 16/10 Q1021", "EDVK 072150Z AUTO VRB01KT 9999 // NCD 18/10 Q1020", "EDWE 072150Z AUTO 06006KT 9999 // NCD 15/11 Q1021", "EEEI 072150Z AUTO 18004KT 9999 -RA FEW027/// BKN036/// 14/12 Q1016", "EEKE 072150Z AUTO 22006KT 9999NDV FEW043 15/13 Q1017", "EEPU 072150Z AUTO 23007KT 9999 BKN046/// BKN053/// OVC068/// 15/13 Q1017", "EETN 072150Z 18004KT 9999 BKN032 15/12 Q1016 TEMPO 4000 SHRA SCT020CB", "EETU 072150Z AUTO 24006KT 9999 FEW092/// 12/09 Q1018", "EFET 072150Z AUTO 07004KT 040V110 9999 BKN031 12/06 Q1019", "EFHA 072150Z AUTO 26005KT CAVOK 14/11 Q1014", "EFHK 072150Z 24006KT 9999 BKN025 15/12 Q1015 NOSIG", "EFIV 072150Z AUTO 06004KT CAVOK 08/05 Q1020", "EFJO 072150Z AUTO 29002KT 9999 OVC024 //////CB 14/14 Q1014", "EFJY 072150Z AUTO 30005KT CAVOK 14/12 Q1014", "EFKE 072150Z AUTO 03006KT CAVOK 14/09 Q1016", "EFKI 072150Z AUTO 07002KT 9999 BKN013 BKN047 //////CB 14/14 Q1014", "EFKK 072150Z AUTO 31003KT CAVOK 14/14 Q1015", "EFKS 072150Z AUTO 04004KT 010V090 CAVOK 11/09 Q1016", "EFKT 072150Z AUTO 05005KT 9999 FEW025 OVC035 12/07 Q1019", "EFKU 072150Z AUTO 15003KT 120V190 CAVOK 15/14 Q1013", "EFLP 072150Z AUTO 22005KT CAVOK 14/11 Q1014", "EFMA 072150Z AUTO 33002KT 9999 3200 NCD 11/11 Q1017", "EFMI 072150Z AUTO 27002KT CAVOK 14/13 Q1014", "EFOU 072150Z AUTO VRB01KT CAVOK 15/14 Q1015", "EFPO 072150Z AUTO 29003KT 9999 //////CB 14/13 Q1016", "EFRO 072150Z AUTO 03009KT CAVOK 13/09 Q1017", "EFSA 072150Z AUTO 13001KT 1700 0500 R12/2000N BCFG FEW001 BKN027 13/13 Q1014", "EFSI 072150Z AUTO 30003KT 9999 //////CB 13/13 Q1015", "EFTP 072150Z AUTO 26002KT CAVOK 13/12 Q1015", "EFTU 072150Z AUTO 29004KT 9999 FEW021 BKN041 13/12 Q1016", "EFUT 072150Z AUTO 24004KT CAVOK 13/11 Q1014", "EFVA 072150Z AUTO 33004KT CAVOK 14/13 Q1015", "EGAA 072150Z AUTO 10008KT 9999 NCD 15/13 Q1009", "EGAC 072150Z AUTO VRB01KT 9999 NCD 16/13 Q1010", "EGBB 072150Z 14004KT CAVOK 19/12 Q1013", "EGCC 072150Z AUTO 09004KT 050V120 9999 NCD 21/12 Q1012", "EGCK 072150Z AUTO VRB01KT 9999 NCD 17/14 Q1010", "EGDM 072150Z AUTO 11008KT 9999 SCT074/// 19/13 Q1012", "EGDR 072150Z AUTO 16008KT 9999 OVC045/// 18/15 Q1008", "EGDY 072150Z AUTO 12009KT 9999 FEW069/// 21/13 Q1011", "EGFF 072150Z AUTO 10008KT 9999 NCD 21/13 Q1011", "EGGD 072150Z AUTO 09009KT 9999 NCD 19/12 Q1012", "EGGP 072150Z 10007KT CAVOK 21/14 Q1011", "EGGW 072150Z AUTO 10005KT 9999 NCD 18/12 Q1015", "EGHH 072150Z 10007KT CAVOK 22/12 Q1012", "EGHQ 072150Z AUTO 15018KT 9999 FEW049/// 19/13 Q1008", "EGJB 072150Z 12007KT CAVOK 22/14 Q1011", "EGJJ 072150Z AUTO 11012KT 9999 NCD 23/15 Q1011", "EGKB 072120Z 12006KT 080V140 CAVOK 21/10 Q1015", "EGKK 072150Z 08006KT CAVOK 19/12 Q1014", "EGLC 072150Z AUTO 08008KT 9999 NCD 21/14 Q1014", "EGLF 072150Z AUTO 12002KT 9999 NCD 21/13 Q1013", "EGLL 072150Z AUTO 10007KT 9999 NCD 22/12 Q1014", "EGMC 072120Z 07004KT CAVOK 18/15 Q1014", "EGMD 072150Z AUTO 08008KT 9999 NCD 18/16 Q1014", "EGNJ 072150Z AUTO 11011KT 9999 NCD 19/14 Q1015", "EGNM 072150Z 11007KT CAVOK 19/14 Q1014", "EGNS 072150Z 07011KT CAVOK 18/13 Q1010 NOSIG", "EGNT 072150Z VRB02KT CAVOK 15/13 Q1015", "EGNX 072150Z 11009KT CAVOK 21/11 Q1014", "EGOM 072150Z AUTO 09007KT 9999 NCD 15/12 Q1014", "EGOP 072150Z AUTO 12012KT 9999 SCT074/// 22/12 Q1009", "EGOS 072150Z AUTO 13005KT 9999 NCD 21/10 Q1012", "EGOV 072150Z AUTO 07007KT 9999 NCD 17/13 Q1009", "EGPA 072150Z AUTO 16011KT 9999 NCD 15/13 Q1014", "EGPB 072120Z AUTO 11004KT 070V140 9999 NCD 14/13 Q1016", "EGPC 072150Z AUTO 15006KT 120V180 9999 NCD 15/13 Q1015", "EGPD 072150Z AUTO 17003KT 9999 NCD 14/12 Q1016", "EGPE 072150Z 16004KT 130V210 9999 FEW038 18/13 Q1014", "EGPF 072150Z AUTO 06008KT 9999 NCD 16/14 Q1013", "EGPH 072150Z 04005KT CAVOK 14/12 Q1014", "EGPI 072150Z AUTO 14013KT 9999 NCD 16/14 Q1010", "EGPK 072150Z 09009KT CAVOK 17/14 Q1012", "EGPL 072150Z AUTO 15018KT 9999 NCD 16/13 Q1010", "EGPO 072150Z AUTO 17004KT 9999 NCD 15/13 Q1012", "EGPU 072150Z AUTO 12016KT 9999 NCD 16/13 Q1010", "EGQA 072150Z AUTO 17011KT 9999 NCD 18/13 Q1014", "EGQK 072150Z AUTO 10005KT 9999 FEW240/// 17/13 Q1014", "EGQL 072150Z 07006KT CAVOK 14/12 Q1015 RMK BLU", "EGQM 072150Z AUTO 16003KT 9999 BR NCD 14/13 Q1015", "EGQS 072150Z 15011KT CAVOK 19/13 Q1014 RMK BLU", "EGSH 072150Z 10006KT CAVOK 17/11 Q1016", "EGSS 072150Z AUTO 09009KT 9999 NCD 20/12 Q1015", "EGSY 072150Z AUTO 09009KT 9999 NCD 21/12 Q1010", "EGTE 072150Z 11012KT CAVOK 22/12 Q1010", "EGTK 072120Z 08003KT CAVOK 20/13 Q1013", "EGUB 072150Z AUTO 10008KT 9999 NCD 21/14 Q1013", "EGUN 072155Z 11009KT 9999 FEW080 19/12 A2996 RMK AO2A SLP148 T01880116", "EGUW 072150Z AUTO 09007KT 9999 NCD 19/11 Q1015", "EGVA 072155Z AUTO 06007KT 9999 CLR 20/14 A2987 RMK AO2 SLP117 T01950139 $", "EGVN 072150Z 09004KT CAVOK 20/13 Q1013 NOSIG RMK BLU BLU", "EGVO 072150Z AUTO 10006KT 9999 NCD 20/13 Q1013", "EGVP 072150Z AUTO 09006KT 9999 BKN080/// 21/13 Q1012", "EGWC 072150Z AUTO 12006KT //// ///////// ///// Q////", "EGWU 072150Z AUTO 10006KT 9999 NCD 21/11 Q1014", "EGXC 072150Z 12009KT CAVOK 19/11 Q1014 RMK BLU", "EGXE 072150Z AUTO 21004KT 9999 NCD 17/12 Q1014", "EGXS 072150Z AUTO 11013KT 9999 NCD 18/14 Q1015", "EGXT 072150Z AUTO 11006KT 9999 NCD 19/11 Q1014", "EGXV 072150Z AUTO 12005KT 9999 NCD 18/12 Q1015", "EGXW 072150Z AUTO 13010KT 9999 NCD 19/11 Q1014", "EGXZ 072150Z AUTO 11011KT 9999 NCD 18/13 Q1014", "EGYD 072150Z AUTO 14009KT 9999 NCD 18/11 Q1015", "EGYE 072120Z AUTO 13008KT //// ///////// ///// Q////", "EGYH 072150Z AUTO 13010KT 9999 NCD 18/13 Q1015", "EGYM 072150Z AUTO 10011KT 9999 NCD 20/09 Q1015", "EGYP 072150Z 23011KT 9999 BKN029 01/M02 Q1006", "EHAK 072155Z AUTO 15019KT 120V180 9999 NCD 17/14 Q1020", "EHAM 072155Z 08008KT CAVOK 20/12 Q1018 NOSIG", "EHBK 072155Z AUTO 14004KT 100V160 9999 NSC 21/11 Q1017", "EHDL 072155Z AUTO 06007KT 360V120 9999 NCD 20/11 Q1018 BLU", "EHDV 072155Z AUTO 15026KT 9999 NCD 18/// Q1018", "EHEH 072155Z AUTO 06007KT 360V090 9999 BKN160 OVC310 23/11 Q1017 BLU", "EHFD 072155Z AUTO 13020KT 9999 NCD 18/14 Q1020", "EHFS 072155Z AUTO 07008KT 040V100 9999 NCD 24/13 Q1016", "EHGG 072155Z AUTO 07004KT 9999 NCD 16/11 Q1020", "EHGR 072155Z AUTO 06007KT 010V090 9999 OVC290 23/11 Q1017 BLU", "EHHW 072155Z AUTO 10012KT 9999 NCD 19/12 Q1021", "EHJA 072155Z AUTO 12029KT 9999 NCD 19/14 Q1018", "EHJR 072155Z AUTO 11028KT //// // ///////// 19/14 Q1018 RE// W16/H5", "EHKD 072155Z AUTO 08010KT 050V110 9999 NCD 21/16 Q1019 BLU", "EHKV 072155Z AUTO 11028KT 9999 NCD 19/15 Q1018", "EHLE 072155Z AUTO 06006KT 9999 NCD 20/12 Q1018", "EHLW 072155Z AUTO 09010KT 9999 NCD 18/13 Q1020 BLU", "EHMA 072155Z AUTO 11016KT 9999 NCD 20/13 Q1020", "EHMG 072155Z AUTO 11022KT 9999 NCD 19/14 Q1020", "EHPG 072155Z AUTO 09023KT 9999 NSC 20/15 Q1017", "EHRD 072155Z AUTO 08008KT 9999 NSC 22/11 Q1017 NOSIG", "EHSA 072155Z AUTO 08020KT 9999 ///////// 21/14 Q1016 W17/H4", "EHSC 072155Z AUTO 08020KT 9999 ///////// 24/12 Q1016 W19/H4", "EHVK 072155Z AUTO 06005KT 9999 NCD 19/12 Q1017 BLU", "EHVL 072155Z AUTO 09016KT 9999 NCD 19/15 Q1019 BLU", "EHWO 072155Z AUTO 07005KT 9999 NCD 20/11 Q1016 BLU", "EICK 072200Z 13021KT 9999 BKN012 16/12 Q1002 TEMPO 4000 BKN005", "EIDW 072200Z 09010KT 9999 FEW014 SCT050 BKN240 15/13 Q1008 NOSIG", "EIME 072200Z 08011KT 9999 FEW030 BKN200 16/12 Q1007", "EINN 072200Z 12017G29KT 100V160 9999 FEW020 SCT039 BKN060 18/11 Q1001 NOSIG", "EKAH 072150Z AUTO 00000KT 9999 BKN270/// 15/11 Q1023", "EKBI 072150Z AUTO 06001KT 9999 NCD 12/10 Q1023", "EKCH 072150Z AUTO 01001KT 9999 NCD 16/11 Q1023 NOSIG", "EKEB 072150Z AUTO 08004KT 9999 NCD 14/11 Q1023", "EKKA 072150Z AUTO 00000KT 9999 NCD 14/10 Q1022", "EKRK 072150Z AUTO 00000KT 9999 NCD 12/10 Q1023", "EKRN 072150Z AUTO 03002KT 9999 NCD 15/12 Q1022", "EKRS 072150Z AUTO VRB01KT 9999 NCD 13/13 Q1023", "EKSB 072150Z AUTO 02001KT 9999 NCD 16/12 Q1022", "EKSP 072150Z 00000KT CAVOK 14/12 Q1023 RMK FEW250", "EKVD 072150Z AUTO 00000KT //// ///////// 13/11 Q1023", "EKVG 072150Z AUTO 13013KT 9999 BKN032/// 13/12 Q1015 RMK BKN031/// OVC057/// WIND SKEID 13020KT", "EKYT 072150Z AUTO 27004KT 9999 NCD 15/10 Q1023", "ELLX 072150Z 04006KT CAVOK 22/09 Q1018 NOSIG", "ENAL 072150Z 05007KT CAVOK 13/11 Q1023", "ENAN 072150Z AUTO 30007KT 9999 NCD 10/08 Q1019", "ENAT 072150Z 07006KT CAVOK 14/09 Q1020 RMK WIND 700FT 14009KT", "ENBL 072150Z 00000KT 9999 SCT055 14/11 Q1022", "ENBN 072150Z AUTO 24007KT 8000NDV SCT006/// BKN008/// OVC011/// 12/11 Q1022", "ENBO 072150Z 28011KT 6000 OVC004 10/10 Q1021", "ENBR 072150Z 11004KT 9999 SCT048 BKN059 16/11 Q1021 RMK WIND 1200FT 12013KT", "ENBS 072150Z AUTO 28001KT 9999 FEW007/// 05/04 Q1021", "ENBV 072150Z AUTO 26003KT 9999 OVC009/// 07/05 Q1022", "ENCN 072150Z 16004KT CAVOK 16/13 Q1022", "ENDR 072150Z AUTO 02005KT 300V050 9999NDV OVC015/// 12/09 Q1023 W///S4", "ENDU 072150Z VRB01KT 9999 FEW050TCU SCT060 16/11 Q1018 RMK WIND 1100FT 21003KT WIND 2200FT 16003KT", "ENEV 072150Z 14005KT 9999 VCFG SCT070 13/11 Q1019 RMK WIND 1400FT 24013KT", "ENFB 072150Z AUTO 14020KT 9999NDV FEW007/// OVC038/// 15/14 Q1020 W///S4", "ENFL 072150Z AUTO 36004KT 9999NDV OVC068/// 16/10 Q1022", "ENGC 072150Z 15022KT 9999 BKN008 15/13 Q1020 W13/S4", "ENGM 072150Z 36003KT CAVOK 15/13 Q1020", "ENHD 072150Z 17005KT CAVOK 15/11 Q1021", "ENHE 072150Z 32004KT 270V350 9999 BKN015 11/08 Q1023 W///S3", "ENHF 072150Z 04007KT CAVOK 11/06 Q1020 RMK WIND 1254FT 10009KT", "ENHK 072150Z AUTO 10010KT 9999 NCD 14/08 Q1019", "ENHM 072150Z AUTO 16016KT //// NCD 14/14 Q1020 W15/S/", "ENHV 072150Z AUTO 01007KT 9999 NCD 08/07 Q1022", "ENJS 072150Z 17017KT 9000 NSC 14/14 Q1020 W14/S/", "ENKB 072150Z AUTO VRB02KT 9999 NCD 13/11 Q1023 RMK WIND 745FT 34003KT", "ENKR 072150Z 09003KT CAVOK 06/04 Q1021 RMK WIND 731FT 11004KT", "ENLA 072150Z AUTO 15010KT 9999NDV NCD 15/13 Q1019 W///S3", "ENLE 072150Z 13021KT CAVOK 16/11 Q1020 W15/S3", "ENMH 072150Z VRB02KT CAVOK 06/05 Q1022", "ENML 072150Z 03006KT 010V070 CAVOK 13/11 Q1023", "ENMS 072150Z AUTO 35006KT 9999 NCD 13/10 Q1021 RMK WIND 412FT VRB05KT", "ENNA 072150Z AUTO VRB02KT 9999 NCD 08/06 Q1021 RMK WIND 1800FT 07005KT", "ENNE 072150Z AUTO 35009KT 5000NDV OVC011/// 10/09 Q1022 W///S3", "ENNM 072150Z AUTO 30004KT 270V340 9999 OVC011/// 13/11 Q1022", "ENOA 072120Z 15020KT 9000 SCT030 SCT045 BKN070 15/14 Q1019 W///S3", "ENOL 072150Z 33003KT 9999 FEW009 12/12 Q1022", "ENQA 072150Z AUTO 14019KT 9999NDV FEW013/// SCT034/// BKN054/// 15/12 Q1021 W18/S3", "ENQC 072150Z AUTO 13020KT 9999NDV OVC034/// 17/13 Q1020 W///S3", "ENQR 072150Z AUTO 13017KT 5000NDV OVC004/// 14/13 Q1020 W11/S4", "ENRA 072150Z AUTO 27004KT 210V330 9999 SCT019/// 12/10 Q1020", "ENRM 072150Z AUTO 29003KT 260V330 9999 OVC015/// 12/09 Q1023", "ENRO 072150Z AUTO 28002KT 9999 OVC027/// 12/09 Q1022", "ENRS 072150Z AUTO 29008KT 8000 OVC004/// 10/10 Q1021", "ENRY 072150Z AUTO 16006KT 9999 NCD 16/13 Q1019", "ENSB 072150Z 26018KT 9999 FEW001 09/06 Q1022 RMK WIND 1400FT VRB01KT", "ENSD 072150Z AUTO VRB03KT 9999 FEW100/// 16/12 Q1022 RMK WIND RWY26 VRB03KT WIND 1140FT 29005KT", "ENSE 072150Z AUTO 13021KT //// OVC004/// 14/13 Q1020 W///S4", "ENSG 072150Z AUTO 00000KT 9999 SCT080/// BKN108/// 11/07 Q1022 RMK WIND 3806FT 29007KT", "ENSH 072150Z AUTO 22009KT 5000 OVC003/// 11/11 Q1020 RMK WIND 0150FT 19012KT", "ENSK 072150Z AUTO VRB03KT 9999 NCD 11/10 Q1019", "ENSL 072150Z AUTO 18019KT 9999NDV NCD 15/14 Q1019 W12/S3", "ENSR 072150Z AUTO 15008KT 9999 NCD 15/08 Q1018 RMK WIND RWY32 14007KT WIND 1118FT 14017KT", "ENSS 072150Z AUTO 32005KT 9999 NCD 06/05 Q1021 RMK WIND 0500FT 35014KT", "ENST 072120Z 27003KT 190V350 9999 -DZ SCT004 BKN006 12/11 Q1022 RMK WIND 300FT 25005KT", "ENTC 072150Z 01006KT CAVOK 12/08 Q1018 RMK WIND 2600FT 22004KT", "ENTO 072150Z 36003KT 310V030 CAVOK 17/12 Q1019", "ENUG 072150Z AUTO 09013G23KT 9999NDV NCD 09/06 Q1020 W///S3", "ENUN 072150Z AUTO 31008KT 9999NDV OVC005/// 09/09 Q1022 W11/S3", "ENVA 072150Z 27010KT 9999 SCT026 BKN083 15/12 Q1022 RMK WIND 670FT 28014KT", "ENVD 072150Z VRB02KT 9999 BKN010 07/05 Q1021", "ENWV 072150Z AUTO 14021KT 9999NDV NCD 16/13 Q1020 W///S3", "ENZV 072150Z 17003KT CAVOK 15/11 Q1022", "EPBY 072200Z 06006KT CAVOK 17/11 Q1023", "EPGD 072200Z 25003KT CAVOK 14/10 Q1023", "EPKK 072200Z VRB01KT CAVOK 15/10 Q1023", "EPKT 072200Z VRB01KT CAVOK 11/10 Q1023", "EPLB 072200Z 29003KT CAVOK 15/13 Q1022", "EPLL 072200Z 03002KT CAVOK 14/10 Q1023", "EPMO 072200Z VRB01KT CAVOK 16/08 Q1023", "EPPO 072200Z 14001KT CAVOK 15/12 Q1022", "EPRZ 072200Z 22002KT CAVOK 15/13 Q1022", "EPSC 072200Z 36004KT 330V030 CAVOK 15/11 Q1022", "EPSY 072200Z 01003KT CAVOK 13/09 Q1023", "EPWA 072200Z VRB01KT CAVOK 15/09 Q1022 NOSIG", "EPWR 072200Z VRB02KT CAVOK 15/10 Q1022", "ESCF 072150Z AUTO 25007KT 9999 FEW096/// 15/10 Q1020", "ESCM 072150Z AUTO 00000KT 9999 4400// NCD 12/12 Q1018", "ESDF 072150Z AUTO 00000KT 9999 NCD 12/10 Q1022", "ESGG 072150Z 22005KT CAVOK 13/11 Q1022", "ESGJ 072150Z 25007KT CAVOK 13/10 Q1021", "ESGP 072150Z AUTO 24007KT 9999 SCT150/// 15/13 Q1021", "ESGT 072150Z AUTO 16006KT 9999 FEW150/// 12/10 Q1021", "ESIA 072150Z AUTO 26006KT 9999 BKN100/// 15/11 Q1020", "ESIB 072150Z AUTO 20005KT 9999 OVC180/// 14/12 Q1020", "ESKM 072150Z AUTO VRB01KT 0250 R16/P2000N R34/0700N NCD 12/12 Q1019", "ESKN 072150Z 27007KT CAVOK 14/12 Q1019", "ESMK 072150Z AUTO 27004KT 9999 NCD 14/09 Q1022", "ESMQ 072150Z AUTO 27007KT 9999 NCD 16/10 Q1021", "ESMS 072150Z VRB01KT CAVOK 11/09 Q1023", "ESMT 072150Z AUTO 00000KT 9999 NCD 15/13 Q1022", "ESMV 072150Z AUTO 23004KT 9999 NCD 12/09 Q1022", "ESMX 072150Z AUTO 28004KT 9999 NCD 14/11 Q1022", "ESND 072150Z AUTO /////KT //// R09///// BKN070/// 13/10 Q1020", "ESNG 072150Z AUTO 10003KT 9999 ////// 14/10 Q1018", "ESNK 072150Z AUTO VRB02KT //// R17///// R35///// NCD 13/13 Q1017", "ESNL 072150Z AUTO 00000KT 9999 NCD 12/11 Q1017", "ESNN 072150Z AUTO 33003KT 0050 R16/0550N R34/0200N FG VV001 14/13 Q1017", "ESNO 072150Z AUTO 32004KT 9999 NCD 13/13 Q1016", "ESNQ 072150Z AUTO 10003KT 070V140 9999 OVC090/// 12/08 Q1019", "ESNS 072150Z AUTO 26003KT 9999 FEW100/// 13/13 Q1016", "ESNU 072150Z 00000KT CAVOK 12/11 Q1016", "ESNV 072150Z AUTO 00000KT 9999 FEW081/// SCT098/// 11/09 Q1018", "ESNX 072150Z AUTO /////KT 9999 ///////// 13/13 Q1018", "ESNZ 072150Z AUTO 28014KT 9999 FEW066/// 13/M02 Q1019", "ESOE 072150Z AUTO 24005KT 200V270 9999 NCD 14/12 Q1019", "ESOH 072150Z AUTO 00000KT 9999 NCD 12/11 Q1019", "ESOK 072150Z AUTO 24003KT 9999 NCD 14/12 Q1019 REDZ", "ESPA 072150Z 36004KT 9999 -RA NSC 17/14 Q1016", "ESPE 072150Z AUTO VRB02KT 9999 SCT076/// OVC098/// 14/14 Q1017", "ESSA 072150Z 24003KT CAVOK 12/12 Q1017 NOSIG", "ESSB 072150Z AUTO 26005KT 9999 SCT038/// 15/13 Q1018", "ESSD 072150Z AUTO 26005KT 9999 FEW090/// 13/12 Q1018", "ESSL 072150Z AUTO 26008KT 9999 NCD 16/09 Q1020", "ESSP 072150Z AUTO 26009KT 9999 FEW088/// 16/10 Q1019", "ESST 072150Z AUTO 33002KT 4700 NCD 14/14 Q1019", "ESSV 072150Z AUTO 30008KT 9999 NCD 17/12 Q1019", "ESTA 072150Z AUTO 00000KT 9999 NCD 13/12 Q1023", "ESUP 072150Z AUTO 06006KT 030V110 9999 // FEW058/// SCT100/// 13/09 Q1019", "ESUT 072150Z AUTO 29005KT 9999 BKN098/// OVC110/// 12/11 Q1019", "ETAD 072155Z AUTO 07006KT 9999 FEW090 21/07 A3005 RMK AO2 SLP161 T02060072 $", "ETAR 072155Z 14005KT 9999 -RA SCT027 SCT100 18/16 A3004 RMK AO2A RAB37 TSB25E44 SLPNO P0000 T01830157 $", "ETEB 072155Z AUTO 11006KT 9999 CLR 20/06 A3012 RMK AO2 SLP205 T02040056 PNO $", "ETGG 072120Z AUTO 17005KT //// // ////// 14/13 Q1022 ///", "ETHA 072120Z AUTO 07004KT 9999 // ////// 19/08 Q1021 ///", "ETHB 072120Z AUTO 09001KT 9999 // ////// 18/12 Q1020 ///", "ETHC 072120Z AUTO 09001KT 9999 // ////// 18/10 Q1020 ///", "ETHF 072120Z AUTO 29004KT 9000 // ////// 16/11 Q1019 ///", "ETHL 072120Z AUTO 08006KT 9999 // ////// 22/07 Q1020 ///", "ETHN 072120Z 12008KT 9999 FEW300 20/05 Q1020 BLU+", "ETHS 072120Z AUTO 05006KT 7000 // ////// 17/10 Q1021 ///", "ETIC 072155Z AUTO 00000KT 9999 CLR 15/10 A3013 RMK AO2 SLP201 T01450097 402920068 $", "ETIH 072155Z AUTO 00000KT 9999 CLR 14/07 A3015 RMK AO2 SLP207 T01390065 402840079 $", "ETIK 072155Z AUTO 12003KT 9999 CLR 17/08 A3011 RMK AO2 SLP193 T01650077 $", "ETMN 072120Z 09005KT 9999 FEW360 17/12 Q1021 BLU+", "ETNH 072120Z AUTO 01002KT 5000 // ////// 13/11 Q1022 ///", "ETNL 072120Z 05004KT 9999 FEW310 17/11 Q1022 BLU+", "ETNN 072120Z AUTO 23002KT 9999 // ////// 18/10 Q1017 ///", "ETNS 072120Z AUTO 08003KT 7000 // ////// 16/12 Q1022 ///", "ETNT 072120Z AUTO 08003KT //// // ////// 16/12 Q1021 ///", "ETNW 072120Z 08002KT 9999 18/12 Q1020 BLU+", "ETOU 072155Z AUTO 07006KT 9999 CLR 24/08 A3005 RMK AO2 SLP176 T02440079 $", "ETSB 072120Z AUTO 08005KT //// // ////// 22/05 Q1019 ///", "ETSH 072120Z 07003KT 9999 FEW300 19/09 Q1021 BLU+", "ETSI 072120Z AUTO 06002KT 6000 // ////// 19/09 Q1020 ///", "ETSL 072120Z AUTO 07005KT //// // ////// 17/08 Q1020 ///", "ETSN 072120Z 04003KT 9999 FEW320 19/09 Q1020 BLU+", "ETWM 072120Z AUTO 06005KT //// // ////// 19/12 Q1020 ///", "EVGA 072150Z AUTO 20003KT CAVOK 12/10 Q1020", "EVLA 072150Z AUTO 24008KT CAVOK 16/14 Q1020", "EVRA 072150Z 20003KT CAVOK 13/10 Q1019 NOSIG", "EVVA 072150Z AUTO 22009KT CAVOK 16/15 Q1018", "EYKA 072150Z 27001KT CAVOK 12/08 Q1022", "EYPA 072150Z 25005KT 190V320 CAVOK 17/13 Q1021", "EYSA 072150Z 24006KT CAVOK 13/09 Q1021 NOSIG", "EYVI 072150Z 28003KT CAVOK 16/07 Q1022 NOSIG", "FABL 072100Z AUTO VRB02KT //// R02///// // ///////// 08/M01 Q1026", "FACT 072200Z 34007KT 9999 FEW030 12/10 Q1016 NOSIG", "FAGG 072100Z AUTO 34004KT 310V010 9999 // FEW073/// 10/10 Q1014", "FAHS 072200Z AUTO 29001KT //// // ////// 16/08 Q1024", "FAJB 072200Z AUTO 00000KT //// // ////// 05/01 Q1029", "FAKM 072200Z AUTO 01007KT //// // ////// 11/M00 Q1024", "FAKN 072200Z AUTO 00000KT //// // ////// 15/02 Q1026", "FALA 072100Z AUTO 00000KT //// // ////// 09/02 Q1029", "FALE 072200Z 23002KT CAVOK 13/09 Q1014 NOSIG", "FALW 072100Z AUTO 34003KT //// // ////// 12/11 Q1017", "FAMM 072200Z AUTO 04005KT //// // ////// 06/M01 Q1027", "FAOR 072200Z 31005KT CAVOK 11/01 Q1029 NOSIG", "FAPE 072100Z 23008KT 9999 FEW017 15/13 Q1013 NOSIG", "FAPN 072100Z AUTO 24001KT //// // ////// 06/01 Q1027", "FAPP 072200Z AUTO 22004KT //// // ////// 05/01 Q1030", "FAUP 072200Z AUTO 33009KT //// // ////// 16/M01 Q1021", "FAUT 072200Z AUTO 00000KT //// // ////// 09/04 Q1016", "FAVV 072200Z AUTO 30001KT //// // ////// ///// Q1030", "FAWB 072200Z AUTO 00000KT //// // ////// 06/04 Q1027", "FCBB 072100Z 23007KT 8000 NSC 23/20 Q1016 NOSIG", "FCPP 072100Z 19004KT 150V220 6000 FEW010 OVC023 23/21 Q1016 NOSIG", "FEFF 072100Z 32004KT 8000 FEW010 22/21 Q1014 NOSIG", "FGSL 072200Z 22004KT 9999 TS FEW010 FEW020CB 25/23 Q1014 NOSIG", "FHAW 072150Z 13013KT 9999 FEW030 25/18 Q1016 NOSIG RMK BLU BLU", "FIMP 072200Z 14008KT 9999 SCT017 22/17 Q1025", "FJDG 072155Z VRB05KT 6000 RA SCT020 BKN040 OVC070 24/23 A2992 RMK SLP129 T2 SET P0009 60044 8/87/ T02380230 57017", "FKKD 072100Z VRB03KT 9999 SCT013 FEW016CB 26/25 Q1014 BECMG BKN013 FEW016CB", "FKYS 072100Z 28002KT 9999 SCT010 23/23 Q1019 NOSIG", "FLKK 072200Z 16003KT CAVOK 11/05 Q1027", "FMCH 072100Z 19004KT 140V220 9999 FEW020 24/20 Q1019 NOSIG", "FMCZ 072200Z AUTO 20008KT CAVOK 25/21 Q1019 TEMPO 12015KT", "FMEE 072130Z AUTO 14017KT 9999 SCT080 23/17 Q1024 NOSIG", "FMEP 072130Z AUTO 11011KT 9999 SCT027 BKN034 BKN044 22/18 Q1025", "FMMI 072200Z 14005KT 100V170 9999 FEW017 BKN020 13/12 Q1028 NOSIG", "FMMT 072200Z VRB02KT 9999 VCSH SCT017 SCT033 20/19 Q1024", "FMNM 072100Z 14007KT 9999 FEW040 21/11 Q1022", "FMSD 072100Z 10006KT 9999 FEW016 SCT033 19/18 Q1027", "FNCA 072100Z AUTO 19004KT 9000 OVC037 22/21 Q1016", "FNCT 072100Z AUTO 26007KT //// ////// ///// Q////", "FNGI 072100Z AUTO VRB02KT 9999 // ////// 14/02 Q1024", "FNHU 072100Z AUTO 12005KT 9999 // NCD 15/04 Q1026", "FNLU 072200Z 18005KT 140V200 9000 BKN020 21/19 Q1015", "FNUB 072100Z AUTO 19007KT 9999 ////// 16/01 Q1028", "FNUE 072100Z AUTO 15006KT 120V180 9999 NCD 18/06 Q1026", "FOOG 072100Z 18010KT 8000 FEW010 23/21 Q1015", "FOOL 072100Z 20006KT 170V230 9999 FEW012 26/21 Q1015 NOSIG", "FQBR 072200Z 16004KT 9999 FEW018 20/19 Q1024", "FQCH 072200Z /////KT CAVOK 12/12 Q1028", "FQMA 072200Z 01013KT 9999 FEW025 21/13 Q1021 NOSIG", "FQNP 072100Z 21007KT 9999 BKN020 19/18 Q1024", "FQPB 072200Z 17010KT 9999 SCT020 23/20 Q1021", "FQQL 072200Z 03003KT 9999 SCT018 21/19 Q1024", "FQTT 072200Z 35004KT 9999 SCT020 15/15 Q1025", "FQXA 072200Z 36010KT CAVOK 17/15 Q1024", "FSIA 072200Z 13009KT 070V190 9999 SCT020 26/22 Q1012 NOSIG", "FTTA 072100Z 19005KT 9999 TS FEW050CB 26/25 Q1015", "FTTJ 072100Z 14007KT 110V170 8000 -RA SCT026 25/20 Q1012 RETS NOSIG", "FVRG 072200Z 05007KT CAVOK 09/09 Q1028 NOSIG", "FYGF 072100Z AUTO 35001KT //// // ////// 08/M00 Q1028", "FYKM 072100Z AUTO 10003KT //// // ////// 15/05 Q1024", "FYKT 072100Z AUTO 28007KT //// // ////// 18/M02 Q1023", "FYLZ 072100Z AUTO /////KT //// // ////// 14/12 Q1021", "FYOA 072100Z AUTO 00000KT //// // ////// 15/M00 Q1021", "FYWB 072100Z AUTO 02003KT //// // ////// 13/11 Q1020", "FYWW 072100Z AUTO 10007KT //// // ////// 11/M03 Q1028", "GABS 072130Z VRB02KT 9999 FEW020 29/21 Q1014 NOSIG", "GAKD 072100Z 22010KT 9999 TS FEW030 FEW033CB 30/22 Q1014", "GAMB 072100Z 27003KT CAVOK 35/23 Q1010", "GANR 072100Z 24004KT CAVOK 27/22 Q1014", "GBYD 072200Z 27005KT 9999 FEW011 SCT210 27/23 Q1014", "GCFV 072200Z AUTO 36014KT 9999 FEW029 23/17 Q1019", "GCGM 072200Z AUTO VRB04KT CAVOK 22/18 Q1021 RMK R09/VRB01KT ARP/VRB01KT", "GCHI 072200Z AUTO 36014KT CAVOK 23/18 Q1021", "GCLA 072200Z AUTO 01010KT 340V040 CAVOK 23/18 Q1021", "GCLP 072200Z 36019KT 320V020 9999 FEW025 23/18 Q1020 NOSIG", "GCRR 072200Z 01012KT 340V040 9999 FEW025 23/17 Q1019", "GCTS 072200Z 06013KT 9999 FEW035 23/16 Q1020 NOSIG", "GCXO 072200Z 31014KT 9999 FEW007 BKN014 18/16 Q1023 NOSIG", "GECE 072200Z AUTO 34002KT CAVOK 23/18 Q1016", "GEML 072200Z AUTO 27005KT 190V340 CAVOK 26/23 Q1016", "GGOV 072100Z 18005KT 8000 FEW010 26/23 Q1014 NOSIG", "GLRB 072100Z 00000KT 9999 BKN014 FEW024CB 26/25 Q1015 NOSIG RMK CB-NE", "GMAD 072200Z 17007KT 140V200 8000 NSC 21/18 Q1016 NOSIG", "GMAG 072200Z AUTO 35006KT CAVOK 22/13 Q1016", "GMFF 072200Z 30007KT CAVOK 21/14 Q1020 NOSIG", "GMFK 072200Z 07004KT 040V110 CAVOK 34/M09 Q1018 NOSIG", "GMFM 072200Z 29005KT 270V330 CAVOK 20/15 Q1020 NOSIG", "GMFO 072200Z 35007KT 9999 FEW023 SCT063 24/20 Q1018 NOSIG", "GMMB 072200Z AUTO 35004KT 9999 BKN021/// 21/21 Q1019 NOSIG", "GMME 072200Z 36003KT 260V040 5000 BKN020 22/17 Q1018 NOSIG", "GMMH 072100Z 01015KT 6000 NSC 22/18 Q1017 NOSIG", "GMMI 072200Z AUTO 02007KT 8000 NSC 22/// Q1018 NOSIG", "GMML 072200Z 02015KT 8000 NSC 22/22 Q1018 NOSIG", "GMMN 072200Z 01008KT 9999 SCT026 21/17 Q1019 NOSIG", "GMMW 072200Z VRB01KT 9999 FEW024 24/20 Q1017 NOSIG", "GMMX 072200Z 35006KT 290V020 CAVOK 25/14 Q1019 NOSIG", "GMMZ 072200Z 26008KT CAVOK 33/M08 Q1018 NOSIG", "GMTA 072200Z VRB01KT CAVOK 25/20 Q1016 NOSIG", "GMTN 072200Z VRB02KT CAVOK 25/18 Q1016 NOSIG", "GMTT 072200Z 21004KT 180V250 8000 SCT013 22/21 Q1017 NOSIG", "GOBD 072130Z 25004KT 9999 FEW015 29/23 Q1015 NOSIG", "GOGG 072100Z 19008KT CAVOK 26/24 Q1015", "GOGK 072100Z 22004KT CAVOK 29/24 Q1013", "GOGS 072100Z 18006KT 9999 SCT013 28/24 Q1014", "GOOD 072100Z 24008KT 9999 SCT013 SCT015TCU 32/23 Q1014", "GOOG 072100Z 22004KT CAVOK 35/22 Q1010", "GOOK 072100Z 22008KT CAVOK 32/24 Q1014", "GOOY 072100Z 24004KT 9999 FEW030CB 30/24 Q1014", "GOSM 072100Z 22012KT 9999 SCT030CB 30/22 Q1013", "GOSP 072100Z 28004KT CAVOK 35/23 Q1012", "GOSS 072100Z 30008KT 250V350 9999 CAVOK 29/26 Q1014", "GOTK 072100Z 10008KT 9999 TS FEW013 SCT030CB 29/23 Q1015", "GOTT 072100Z 22006KT 9999 TS SCT026CB 32/24 Q1013", "GQNO 072130Z 28011KT 6000 FEW010 28/25 Q1014 NOSIG", "GQPP 072100Z 36017KT 7000 NSC 23/18 Q1013 NOSIG", "GUCY 072100Z 33006KT 9999 BKN015 BKN110 26/23 Q1015 NOSIG", "GVAC 072200Z 09010KT 9999 BKN014 BKN200 25/22 Q1015 NOSIG", "GVNP 072200Z 06010KT 9999 FEW018 26/23 Q1015 N0SIG", "GVSV 072200Z 05020KT 9999 FEW017 26/22 Q1015 NOSIG", "HAAB 072100Z 04003KT 9999 BKN025 14/14 Q1028 NOSIG", "HEAT 072100Z 35006KT CAVOK 29/14 Q1010 NOSIG", "HEBA 072100Z 30008KT CAVOK 25/22 Q1010 NOSIG", "HECA 072200Z 30008KT CAVOK 27/22 Q1010 NOSIG", "HEGN 072100Z 29010KT CAVOK 32/11 Q1005 NOSIG", "HELX 072100Z 27004KT CAVOK 31/11 Q1007 NOSIG", "HEMA 072100Z 30008KT CAVOK 30/05 Q1006 NOSIG", "HEMM 072100Z 27011KT 9999 SCT020 25/23 Q1012 NOSIG", "HEPS 072100Z 30010KT 9999 SCT030 26/23 Q1009 NOSIG", "HERT 072100Z 31018KT CAVOK 30/19 Q1004", "HESG 072100Z 30007KT CAVOK 30/11 Q1006 NOSIG", "HESH 072100Z 35010KT CAVOK 33/15 Q1004 NOSIG", "HESN 072100Z 33004KT CAVOK 33/07 Q1008 NOSIG", "HESW 072100Z 01011KT CAVOK 28/18 Q1013", "HKGO 072100Z AUTO 11005KT 14/11 Q1030 A30.41", "HKJK 072130Z 16006KT 9999 BKN018 17/10 Q1025 NOSIG", "HKKT 072100Z 00000KT 9999 -RA FEW017 BKN080 16/14", "HKLO 072100Z 00000KT CAVOK 28/13 Q1014", "HKNI 072100Z 00000KT 9999 BKN018 14/12", "HKNW 072100Z 12006KT 9999 BKN018 BKN080 16/10 Q1027", "HRYR 072200Z 21003KT 9999 SCT026 SCT100 20/10 Q1024 NOSIG", "HTAR 072100Z 12010KT 9999 SCT024 14/11 Q1027 NOSIG", "HTBU 072100Z 00000KT 9999 FEW018 FEW020CB BKN080 21/16 Q1020", "HTDA 072100Z 16006KT 9999 FEW012 22/20 Q1020 NOSIG", "HTDO 072100Z 05007KT 9999 FEW021 SCT080 18/10 Q1023 NOSIG", "HTIB 072100Z 12009KT 9999 FEW021 FEW022CB BKN080 21/10 Q1020", "HTIR 072100Z 17005KT 9999 FEW018 15/09 Q1026", "HTKA 072100Z 00000KT CAVOK 19/14 Q1019 NOSIG", "HTMG 072100Z 00000KT 9999 BKN021 22/13 Q1021", "HTMT 072100Z 18012KT 9999 FEW020 21/19 Q1021 NOSIG", "HTMU 072100Z 00000KT 9999 FEW020 FEW022CB BKN080 20/14 Q1022", "HTMW 072100Z 12008KT 9999 FEW018 FEW019CB 20/11 Q1021 NOSIG", "HTSO 072100Z 00000KT 9999 SCT017 18/11 Q1026", "HTTB 072100Z 12008KT 9999 FEW018 18/09 Q1023 NOSIG", "HTZA 072100Z 13010KT 9999 SCT015 25/22 Q1019 NOSIG", "HUEN 072130Z 16008KT 9999 FEW021 FEW023CB 22/17 Q1020", "K04V 072155Z AUTO 29013G23KT 10SM CLR 31/M05 A3014 RMK AO2", "K04W 072155Z AUTO 21008KT 10SM CLR 23/11 A2995 RMK AO2", "K05U 072150Z AUTO 02006G14KT 10SM CLR 32/M05 A2995 RMK A01", "K06C 072155Z AUTO 08006KT 10SM BKN060 26/18 A2992 RMK AO2 T02620183", "K06D 072155Z AUTO 01011KT 10SM FEW060 FEW070 20/08 A3002 RMK AO2", "K08D 072155Z AUTO 32009KT 10SM CLR 22/07 A3005 RMK AO2", "K0A0 072155Z AUTO 20012G24KT 170V230 10SM CLR 40/M01 A2990 RMK AO2", "K0A9 072155Z AUTO VRB04KT 10SM CLR 29/20 A2991 RMK AO2", "K0D8 072155Z AUTO 21007KT 10SM CLR 21/17 A2998 RMK A01", "K0E0 072155Z AUTO 25020G23KT 10SM CLR 34/01 A3007 RMK AO2 T03380007", "K0F2 072155Z AUTO 17014G21KT 130V190 10SM CLR 33/19 A2984 RMK AO2 T03340194", "K0J4 072158Z AUTO 23006KT 10SM FEW042 FEW050 33/22 A2991 RMK AO2 SLP122 T03280222", "K0R0 072155Z AUTO 26007KT A2994 RMK AO2 PWINO TSNO", "K0S9 072155Z AUTO 04004KT 10SM CLR 19/13 A2988 RMK AO2", "K0V4 072155Z AUTO 08006KT 10SM CLR 31/22 A2983 RMK AO1", "K0VG 072155Z AUTO VRB04KT 10SM CLR 31/19 A2993 RMK AO2", "K10G 072155Z AUTO 33007KT 10SM SCT043 27/16 A2996 RMK AO2", "K11R 072155Z AUTO 19005KT 10SM OVC085 32/22 A2992 RMK AO2 T03200221", "K12N 072154Z AUTO 20003KT 29/22 A2983 RMK AO1 SLP093 T02890222", "K13K 072155Z AUTO 22007KT 10SM CLR 27/20 A2990 RMK AO2 LTG DSNT SW AND W T02690197", "K14Y 072155Z AUTO 19007KT 10SM SCT090 23/09 A2994 RMK AO2", "K15M 072155Z AUTO 10003KT 10SM VCTS FEW007 SCT041 BKN055 OVC110 23/22 A2997 RMK AO2 RAE2151 T02260222 $", "K17J 072155Z AUTO 29006KT 10SM TS CLR 33/21 A2986 RMK AO2 LTG DSNT NW T03330207", "K18A 072155Z AUTO 02005KT 10SM SCT060 SCT085 SCT110 26/22 A2994 RMK AO2 LTG DSNT S T02560218", "K18H 072155Z AUTO 14008KT 9SM CLR 33/24 A2993 RMK A01", "K19S 072155Z AUTO 09004KT 10SM OVC055 27/21 A2993 RMK AO2 T02670205", "K1A5 072155Z AUTO 00000KT 10SM SCT050 29/20 A2998 RMK AO2 T02860202", "K1A6 072155Z AUTO 01003KT 10SM CLR 30/18 A2993 RMK AO2 T03000183", "K1A9 072155Z AUTO 31008KT 10SM SCT046 SCT070 33/22 A2986 RMK AO2 T03290224", "K1AM 072155Z AUTO 22006KT 10SM -RA OVC090 18/10 A3005 RMK AO2 RAE03RAB12 SLP175 P0001 T01760095 $", "K1AW 072155Z AUTO 01009KT 10SM BKN110 OVC140 19/09 A3015 RMK AO2 SLP165 T01890091 $", "K1BW 072155Z AUTO 02009KT 10SM CLR 20/08 A3015 RMK AO2 SLP169 T01970084 $", "K1CM 072155Z AUTO 06012KT 10SM FEW110 22/08 A3007 RMK AO2 SLP169 T02200078 $", "K1CN 072155Z AUTO 02011KT 10SM FEW070 22/10 A3000 RMK AO2 SLP162 T02160095 $", "K1CW 072155Z AUTO 34006KT 10SM FEW230 24/07 A3008 RMK AO2 SLP144 T02350067 $", "K1D8 072155Z AUTO VRB06G12KT 10SM BKN033 23/18 A2996 RMK AO2", "K1DM 072155Z AUTO 19009KT 10SM SCT170 20/06 A3005 RMK AO2 LTG DSNT NW-N RAE10 SLP172 P0000 T02020062 $", "K1DN 072155Z AUTO 06010KT 10SM SCT049 22/08 A2853 RMK AO2 SLP657 T02230077 $", "K1DW 072155Z AUTO 36010KT 10SM CLR 21/09 A3012 RMK AO2 SLP160 T02070090 $", "K1EM 072155Z AUTO 12009KT 10SM CLR 25/03 A3003 RMK AO2 SLP149 T02470033 $", "K1EN 072155Z AUTO 36007KT 10SM FEW070 23/05 A2980 RMK AO2 SLP098 T02300045 $", "K1EW 072155Z AUTO 35009KT 10SM BKN100 20/08 A3012 RMK AO2 SLP159 T02040081 $", "K1F0 072155Z AUTO 20006KT 10SM CLR 34/22 A2987 RMK AO2 T03380220", "K1FM 072155Z AUTO 14008G15KT 10SM CLR 24/03 A3003 RMK AO2 SLP143 T02440031 $", "K1FW 072155Z AUTO 00000KT 10SM FEW055 22/10 A3007 RMK AO2 SLP139 T02220100 $", "K1GM 072155Z AUTO 10010G17KT 9SM CLR 24/04 M RMK AO2 SLPNO T02430041 $", "K1GN 072155Z AUTO 04008KT 10SM FEW060 22/10 A3001 RMK AO2 SLP171 T02190097 $", "K1H2 072155Z AUTO 00000KT 10SM CLR 27/18 A2996 RMK AO2 T02680175", "K1HM 072155Z AUTO 26010KT 10SM M 26/04 A2999 RMK AO2 SLP135 T02560035 $", "K1HN 072155Z AUTO 01010KT 10SM FEW070 SCT090 24/07 A3000 RMK AO2 SLP163 T02430065 $", "K1HW 072155Z AUTO 36005G15KT 10SM SCT055 24/12 A3002 RMK AO2 SLP126 T02420115 $", "K1IM 072155Z AUTO 12013G22KT 10SM CLR 26/04 A2998 RMK AO2 PK WND 11026/28 LTG DSNT N SLP142 T02550040 $", "K1IN 072155Z AUTO 01012KT 10SM SCT060 BKN085 23/07 A3002 RMK AO2 SLP168 T02280069 $", "K1IW 072155Z AUTO 02013G16KT 10SM CLR 26/12 A3003 RMK AO2 SLP125 T02550120 $", "K1JM 072155Z AUTO 12007KT 10SM FEW130 FEW150 25/03 A3001 RMK AO2 LTG DSNT N SLP143 T02460033 $", "K1JN 072155Z AUTO 03007KT 10SM SCT050 21/11 A3002 RMK AO2 SLP169 T02140105 $", "K1JW 072155Z AUTO 02013KT 10SM CLR 23/10 M RMK AO2 SLPNO T02250100 PWINO $", "K1KW 072155Z AUTO 01012KT 10SM CLR 22/11 M RMK AO2 SLPNO T02240105 $", "K1LM 072155Z AUTO 11012G17KT 10SM CLR 22/09 A3007 RMK AO2 SLP160 T02160085 $", "K1M4 072156Z AUTO 35004KT 10SM SCT046 24/22 A2998 RMK AO2 LTG DSNT E AND SE TSE12 SLP137 T02390222", "K1M5 072155Z AUTO 00000KT 10SM CLR 30/20 A2991 RMK A01", "K1MM 072155Z AUTO 13010KT 10SM CLR 25/05 A3005 RMK AO2 SLP159 T02480045 $", "K1MN 072155Z AUTO 06006KT 10SM FEW060 21/10 A3001 RMK AO2 SLP167 T02140099 $", "K1MW 072155Z AUTO 03008KT 10SM FEW055 23/11 A3006 RMK AO2 SLP137 T02340114 PWINO $", "K1NM 072155Z AUTO 13006KT 10SM BKN075 OVC120 24/05 A3001 RMK AO2 LTG DSNT NW SLP144 T02420045 $", "K1NW 072155Z AUTO 03015G19KT 10SM M 22/11 A3007 RMK AO2 SLP135 T02220113 $", "K1OM 072155Z AUTO 13010KT 10SM FEW090 26/06 A3002 RMK AO2 LTG DSNT NW SLP142 T02550061 $", "K1OW 072155Z AUTO 36008KT 10SM OVC120 20/09 A3025 RMK AO2 LTG DSNT W SLP198 T02040090 $", "K1P1 072155Z AUTO 00000KT 7SM BKN050 OVC060 24/19 A2986 RMK AO2 LTG DSNT NE T02370186", "K1R7 072155Z AUTO 25007KT 10SM CLR 32/26 A2995 RMK AO2 PWINO", "K1R8 072155Z AUTO 16005KT 10SM FEW050 SCT060 27/23 A2991 RMK AO2 LTG DSNT N AND E AND S", "K1S3 072200Z AUTO 06011G17KT 10SM 25/06 A3002 ", "K1S5 072155Z AUTO 20005KT 10SM CLR 35/10 A2973 RMK AO2 T03450100", "K1U7 072155Z AUTO 19008KT 10SM FEW085 SCT120 23/12 A3004 RMK A01", "K1V4 072154Z AUTO 21/20 A2987 RMK AO1 SLP107 P0001 T02110200", "K1V6 072155Z AUTO 07021G26KT 10SM SCT050 28/15 A3001 RMK AO2 LTG DSNT N", "K20U 072155Z AUTO 03013G18KT 10SM CLR 24/05 A3007 RMK AO2", "K20V 072155Z AUTO 33008KT 10SM SCT120 26/02 A3011 RMK AO2", "K21D 072155Z AUTO 24004KT 10SM CLR 22/10 A2997 RMK AO2", "K22N 072155Z AUTO 00000KT 10SM CLR 26/21 A2986 RMK AO2 LTG DSNT N", "K24A 072145Z AUTO 00000KT 10SM CLR 26/19 A3001 RMK AO2 LTG DSNT SE T02560186", "K24J 072155Z AUTO 22010KT 10SM VCTS CLR 24/23 A2989 RMK A01 LTG DSNT ALQDS P0003", "K28J 072155Z AUTO 06009G16KT 9SM TS FEW015 SCT031 BKN043 24/21 A2992 RMK AO2 LTG DSNT ALQDS", "K2A0 072155Z AUTO VRB04KT 10SM CLR 32/21 A2988 RMK A01", "K2C8 072155Z AUTO 34013KT 10SM CLR 21/11 A2997 RMK AO2", "K2D5 072155Z AUTO 30009KT 9SM CLR 21/18 A2992 RMK AO2", "K2DP 072155Z AUTO 20005KT 10SM M M M RMK AO2 SLPNO $", "K2G2 072155Z AUTO 36009KT 10SM FEW041 FEW070 27/19 A2992 RMK A01", "K2G4 072145Z AUTO 31007KT 10SM SCT014 SCT026 SCT039 23/20 A3000 RMK AO2", "K2G9 072155Z AUTO 32009KT 10SM SCT026 23/18 A2995 RMK AO2", "K2I0 072155Z AUTO 32003KT 10SM CLR 32/19 A2993 RMK AO2 T03150194", "K2IS 072155Z AUTO 16008KT 10SM VCTS CLR 29/25 A2994 RMK AO2 LTG DSNT ALQDS T02940250", "K2J3 072130Z AUTO 33007KT 10SM VCTS CLR 28/22 A2986 RMK AO2 LTG DSNT NE E AND W T02830219", "K2J5 072155Z AUTO 28007KT 250V310 10SM SCT050 SCT070 SCT095 30/21 A2984 RMK AO2 LTG DSNT SE THRU W T02990214", "K2J9 072155Z AUTO 24007KT 220V300 10SM CLR 28/24 A2989 RMK AO2", "K2M2 072155Z AUTO 00000KT 10SM SCT110 28/21 A2995 RMK A01", "K2P2 072155Z AUTO 19008KT 10SM CLR 19/13 A2996 RMK AO2 T01930127", "K2R9 072155Z AUTO 13015G18KT 10SM SCT046 BKN050 BKN100 A2991 RMK AO2", "K2V5 072155Z AUTO 02009G14KT 10SM SCT055 27/12 A3002 RMK AO2", "K2V6 072159Z AUTO 06008KT 10SM 24/M02 A3003 RMK AO2", "K2W6 072150Z AUTO 00000KT 10SM CLR 26/25 A2984 RMK AO1 P0003", "K2WX 072156Z AUTO 02015KT 24/11 A3000 RMK AO1 SLP144 T02440111", "K33N 072155Z AUTO 10SM RMK A01 PNO", "K33V 072155Z AUTO 04010G19KT 350V050 10SM CLR 20/05 A3023 RMK AO1", "K35A 072155Z AUTO 13006KT 10SM SCT050 SCT065 SCT120 27/22 A2988 RMK A02 LTG DSNT N SE AND S T02740216", "K38S 072200Z AUTO 32007KT 10SM 21/12 A3006 ", "K3AU 072155Z AUTO 25005KT 10SM SCT026 SCT065 SCT070 21/19 A2994 RMK AO2", "K3D2 072155Z AUTO 16006KT 10SM CLR 21/13 A2996 RMK AO2 T02060125", "K3F3 072155Z AUTO 16004KT 10SM SCT065 35/22 A2994 RMK AO2 T03450216", "K3K3 072155Z AUTO 08008KT 10SM BKN027 BKN035 OVC055 26/20 A2995 RMK AO2", "K3LF 072155Z AUTO 20003KT 10SM CLR 26/17 A2996 RMK AO2 T02620166", "K3N8 072155Z AUTO 00000KT 10SM CLR 21/15 A2990 RMK AO2 LTG DSNT NE T02120150", "K3R7 072155Z AUTO 10SM SCT030 SCT041 OVC110 27/21 A2996 RMK AO2 T02720211", "K3S8 072155Z AUTO 35005KT 9SM CLR 32/06 A2984 RMK AO2", "K3T5 072155Z AUTO 15009KT 10SM BKN100 32/23 A2990 RMK AO2 T03180232 $", "K3U3 072200Z AUTO 08008KT 10SM 23/04 A3004 ", "K40B 072116Z AUTO 00000KT 22/20 A2984 RMK AO1 SLP093 T02150200 50012 60024", "K40U 072155Z AUTO 18010KT 10SM OVC110 20/08 A3008 RMK AO2 T02000082", "K41U 072155Z AUTO 25008KT 10SM CLR 32/M02 A2993 RMK AO1 T03221019", "K42J 072155Z AUTO 23008KT 10SM FEW100 FEW120 30/22 A2988 RMK A01", "K46D 072155Z AUTO 02014G19KT 10SM SCT055 SCT120 23/09 A3000 RMK AO2", "K46U 072155Z AUTO 00000KT 9SM CLR 25/06 A3000 RMK A01", "K48A 072155Z AUTO 33009KT 10SM VCTS CLR 32/24 A2986 RMK AO2 LTG DSNT NE AND E T03160235", "K49A 072155Z AUTO 35007KT 10SM FEW070 SCT100 31/20 A2991 RMK AO2", "K4A9 072155Z AUTO 35004KT 10SM SCT039 SCT120 28/19 A2990 RMK AO2 LTG DSNT S T02770186", "K4BM 072155Z AUTO 06009G17KT 10SM BKN004 BKN008 BKN110 13/08 A3046 RMK AO2 LTG DSNT N", "K4F2 072155Z AUTO 22003KT 10SM SCT075 34/22 A2989 RMK AO2 T03450222", "K4I3 072155Z AUTO 35006KT 10SM CLR 27/17 A2995 RMK AO2", "K4M9 072155Z AUTO 12006KT 10SM CLR 29/25 A2990 RMK AO2 PWINO", "K4MR 072155Z AUTO 09008KT 10SM FEW070 FEW120 30/13 A2989 RMK AO2 RAB33E45 PRESFR SLP031 P0000 T02990128 $", "K4O4 072155Z AUTO 20009G16KT M1/4SM -RA HZ VV000 31/24 A2990 RMK AO2 LTG DSNT N", "K4R5 072155Z AUTO 18004KT 10SM BKN060 BKN075 OVC110 23/14 A2989 RMK AO2 T02300135", "K4S1 072155Z AUTO 32008KT 7SM OVC025 16/11 A2998 RMK AO2", "K4S2 072135Z AUTO 29009G19KT 230V320 10SM CLR 26/12 A2978 RMK AO2", "K4U6 072155Z AUTO 01003G15KT 10SM 25/06 A3004 RMK A01 Circle ", "K4V0 072155Z AUTO 33004KT 10SM CLR 32/01 A2993 RMK AO2 T03190006", "K4V1 072155Z AUTO 10013G20KT 10SM SCT047 BKN055 OVC090 26/14 A3008 RMK AO2 T02600141", "K54A 072155Z AUTO 30007G13KT 260V320 10SM FEW026 FEW031 32/26 A2992 RMK AO2 LTG DSNT NE-SE", "K54J 072155Z AUTO 22005KT 10SM SCT046 SCT090 28/23 A2992 RMK AO2 LTG DSNT SW AND W T02770234", "K57C 072155Z AUTO 12007KT 10SM OVC050 24/14 A2993 RMK AO2 T02400135", "K5A6 072155Z AUTO 32005KT 10SM 30/23 A2992 RMK AO2 T02960233", "K5C1 072155Z AUTO 14007KT 10SM SCT035 SCT050 BKN085 30/21 A2994 RMK AO1", "K5H4 072155Z AUTO 36012G18KT 10SM CLR 23/22 A3001 RMK AO2", "K5R8 072155Z AUTO 00000KT 10SM CLR 32/24 A2994 RMK AO2 T03160238", "K5SM 072155Z AUTO 24008G17KT 120V290 10SM SCT090 BKN120 19/M02 A3041 RMK AO2", "K5T9 072155Z AUTO 12009KT 10SM FEW037 FEW050 33/24 A2985 RMK A01", "K60R 072155Z AUTO 20008KT 10SM FEW047 SCT070 SCT110 34/24 A2991 RMK AO2 SLP045 T03370235 $", "K63S 072155Z AUTO 00000KT 10SM CLR 32/05 A2983 RMK A01", "K65S 072155Z AUTO 04011G17KT 10SM SCT100 31/07 A2987 RMK AO2", "K66R 072155Z AUTO 17003KT 10SM OVC090 31/23 A2992 RMK AO2 T03100230", "K6A1 072155Z AUTO 35004KT 10SM TS BKN032 BKN048 OVC070 25/23 A2991 RMK AO2 LTG DSNT ALQS T02500231", "K6A2 072155Z AUTO 00000KT 10SM SCT042 SCT050 BKN080 24/23 A2992 RMK AO2 LTG DSNT NE AND E", "K6B0 072155Z AUTO 19003KT 5SM -RA OVC003 21/21 A2989 RMK AO2 LTG DSNT SE AND NW T02100210 P0004", "K6B9 072155Z AUTO 01005KT 10SM SCT016 SCT026 BKN037 25/23 A2990 RMK AO2", "K6I2 072155Z AUTO 00000KT 10SM CLR 32/18 A2994 RMK AO2", "K6L4 072155Z AUTO 00000KT 10SM CLR 27/22 A2995 RMK AO2", "K6P9 072155Z AUTO 18012G18KT 10SM CLR 34/18 A2989 RMK AO2 T03350181", "K6R3 072155Z AUTO 18010KT 10SM SCT039 SCT050 BKN085 35/24 A2993 RMK AO2 T03450240", "K6R6 072151Z AUTO 11011G23KT 34/19 A2990 RMK AO1 SLP084 T03440189", "K6S0 072155Z AUTO 13013KT 10SM CLR 24/06 A3008 RMK A01", "K6S2 072155Z AUTO 27007KT 10SM FEW029 16/13 A2998 RMK AO2", "K6S8 072155Z AUTO 12011KT 10SM 25/07 A3006 RMK A01 LAUREL", "K74V 072155Z AUTO 11008KT 070V140 10SM CLR 32/01 A2993 RMK AO2", "K77S 072155Z AUTO 00000KT 10SM CLR 23/11 A2990 RMK A01", "K79J 072156Z AUTO 30011KT 10SM CLR 32/22 A2988 RMK AO2 SLP114 T03170222", "K7BM 072155Z AUTO 25008G20KT 190V010 10SM SCT110 25/M06 A3030 RMK AO2", "K7L2 072155Z AUTO 02011G19KT 10SM CLR 23/15 A2998 RMK AO2", "K7W4 072155Z AUTO 09004KT 10SM CLR 29/23 A2982 RMK AO1 T02850231", "K7W6 072145Z AUTO 15008KT 10SM CLR 30/24 A2981 RMK AO2 T02960241", "K81R 072155Z AUTO 15009G15KT 10SM SCT060 34/19 A2992 RMK AO2 T03440193", "K82C 072155Z AUTO 00000KT 10SM CLR 23/10 A2994 RMK AO2 T02280100", "K82V 072155Z AUTO 01008KT 10SM 20/07 A3014 RMK AO2", "K8A0 072155Z AUTO 10SM CLR 29/21 A2993 RMK AO2", "K8A3 072150Z AUTO 00000KT 10SM FEW048 29/19 A2993 RMK A01", "K8B0 072155Z AUTO 00000KT 5SM -RA FEW070 SCT110 20/20 A2994 RMK AO2 LTG DSNT E AND S P0005", "K8D3 072156Z AUTO 23010G18KT 24/16 A2987 RMK AO1 SLP106 P0002 T02440161", "K8T6 072155Z AUTO 15012G18KT 9SM CLR 34/23 A2988 RMK AO2", "K8W2 072155Z AUTO 02003KT 10SM CLR 30/22 A2983 RMK AO1 T03000217", "K96D 072155Z AUTO 34016KT 10SM CLR 21/07 A2998 RMK AO2", "K9A5 072155Z AUTO 05003KT 7SM SCT046 31/20 A2989 RMK AO2 T03140195", "K9D7 072155Z AUTO 01012G19KT 10SM FEW055 SCT080 21/10 A3001 RMK AO2 TSNO", "K9L2 072155Z AUTO 24010G16KT 9SM CLR 35/M02 A2976 RMK AO2 SLP052 T03521025", "K9MN 072155Z AUTO 25004KT 10SM BKN060 22/06 A2996 RMK AO1 T02150062", "K9S9 072155Z AUTO 01011KT 9SM CLR 35/06 A2978 RMK AO2 PWINO", "K9V9 072155Z AUTO 11003KT 10SM SCT018 21/18 A2997 RMK AO2 T02070176", "KA39 072155Z AUTO 27007KT 250V320 10SM CLR 42/04 A2972 RMK AO2", "KAAA 072155Z AUTO 21004KT 10SM CLR 27/17 A2996 RMK AO2 T02730167", "KAAF 072153Z AUTO 25015G20KT 10SM CLR 32/24 A2988 RMK AO2 LTG DSNT SW SLP119 T03220244", "KAAO 072154Z AUTO 24005KT 10SM VCTS FEW049 BKN095 BKN110 22/18 A2994 RMK AO2 LTG DSNT SE-W RAB29E40 TSB07E31 SLP130 P0000 T02170183", "KAAS 072155Z AUTO 00000KT 10SM CLR 30/17 A2998 RMK AO1", "KAAT 072155Z AUTO 27010G14KT 10SM CLR 30/03 A2989 RMK AO2 SLP073 T03000033", "KABE 072151Z AUTO 00000KT 10SM CLR 26/21 A2983 RMK AO2 LTG DSNT NW SLP099 T02610211", "KABH 072155Z AUTO 08012KT 9SM FEW100 SCT160 OVC190 18/14 A3010 RMK AO2 LTG DSNT W-NW RAE10RAB20E31 SLP132 P0000 T01750136", "KABI 072152Z 16013G20KT 10SM CLR 33/20 A2989 RMK AO2 SLP093 T03280200", "KABQ 072152Z 21021G29KT 10SM -RA SCT120 BKN140 33/04 A3001 RMK AO2 PK WND 18035/2115 WSHFT 2039 RAB50 SLP060 VIRGA P0000 T03330044", "KABR 072153Z AUTO 28007G18KT 6SM VCTS -RA SCT039 BKN060 BKN070 22/16 A2994 RMK AO2 LTG DSNT SW AND W RAB53 SLP136 P0000 T02220156", "KABY 072153Z 25005KT 10SM VCTS FEW070 SCT100 32/22 A2986 RMK AO2 LTG DSNT W AND NW SLP110 T03170222", "KACB 072155Z AUTO 28003KT 10SM CLR 22/08 A2996 RMK AO2 T02200076", "KACJ 072155Z AUTO 25010KT 10SM FEW044 33/23 A2986 RMK AO2 LTG DSNT N AND NE AND SW T03260225 $", "KACK 072153Z 13007KT 1/4SM R24/2600FT FG VV002 20/20 A2987 RMK AO2 SLP115 T02000200", "KACP 072155Z AUTO 22008G20KT 170V260 10SM SCT050 SCT065 28/21 A2994 RMK AO2 TSNO", "KACQ 072155Z AUTO 22011KT 10SM BKN100 18/11 A2998 RMK AO2", "KACT 072151Z 18008KT 10SM CLR 34/21 A2988 RMK AO2 SLP109 T03440206", "KACV 072153Z AUTO 31012KT 10SM OVC022 17/11 A2999 RMK AO2 SLP161 T01670106", "KACY 072154Z 17006KT 10SM CLR 26/22 A2983 RMK AO2 SLP099 T02610217", "KACZ 072145Z AUTO 00000KT 10SM CLR 33/23 A2979 RMK AO2 T03310233", "KADC 072156Z AUTO 16007KT 10SM VCTS SCT050 22/11 A2990 RMK AO2 LTG DSNT NW THRU NE", "KADF 072156Z AUTO 19003KT 10SM FEW030 32/25 A2990 RMK AO2 SLP122 T03220250", "KADG 072153Z AUTO 26003KT 10SM CLR 27/14 A2994 RMK AO2 SLP135 T02720139", "KADH 072155Z AUTO 07006KT 10SM CLR 26/22 A2993 RMK AO2", "KADM 072150Z 17005KT 10SM CLR 34/22 A2986", "KADS 072147Z 19011G20KT 13SM SCT060 35/19 A2987", "KADT 072150Z AUTO 10SM CLR A3001 RMK AO2", "KADU 072155Z AUTO 08006KT 10SM SCT011 BKN016 OVC065 16/14 A2995 RMK AO2 P0001 PWINO", "KADW 072155Z AUTO 15003KT 10SM CLR 29/21 A2980 RMK AO2 SLP096 T02850212 CHINO RWY19L $", "KAEG 072149Z 17017G25KT 10SM CLR 31/04 A3005", "KAEJ 072155Z AUTO 25018G26KT 200V290 10SM CLR 28/M06 A3013 RMK AO2 T02751058", "KAEL 072155Z AUTO 19006KT 10SM -RA 17/13 A2998 RMK AO2", "KAEX 072153Z 22005KT 10SM FEW070 34/21 A2990 RMK AO2 SLP126 T03390206", "KAFF 072155Z 20006KT 10SM -TSRA BKN032 OVC045CB 17/15 A3014 RMK AO2A SHRAE01B32 TS 3S MOV E SLP132 P0000 T01730149", "KAFJ 072156Z AUTO 35007KT 10SM BKN038 27/20 A2994 RMK AO2 SLP130 T02720200", "KAFK 072155Z AUTO 19005KT 10SM OVC029 23/18 A2989 RMK AO2 LTG DSNT W T02260183", "KAFN 072152Z AUTO 22006KT 10SM CLR 29/18 A2988 RMK AO2 LTG DSNT W AND NW SLP115 T02890178", "KAFO 072155Z AUTO 25004KT 7SM TS SCT075 BKN090 OVC110 21/07 A3007 RMK AO2 LTG DSNT W THRU NE", "KAFP 072152Z AUTO 09003KT 10SM CLR 26/24 A2984 RMK AO2 P0005 T02570240", "KAFW 072153Z 18017KT 10SM SCT060 SCT250 35/19 A2985 RMK AO2 PK WND 17029/2123 SLP088 T03500194", "KAGC 072153Z 34007G17KT 10SM FEW036 28/18 A2990 RMK AO2 SLP121 T02780183", "KAGI 072155Z AUTO 16004KT 10SM TS CLR 30/25 A2995 RMK AO2 LTG DSNT SW THRU N P0004 T02980247", "KAGO 072155Z AUTO 22009KT 10SM CLR 33/24 A2988 RMK A01", "KAGS 072153Z 26010KT 10SM FEW065 28/21 A2981 RMK AO2 PK WND 26030/2126 LTG DSNT SE AND S TSB10E25 SLP094 T02830211", "KAHN 072203Z 26004KT 10SM VCTS FEW120 26/22 A2988 RMK AO2 LTG DSNT ALQDS T02610222", "KAHQ 072155Z AUTO 09006KT 10SM OVC011 19/17 A2992 RMK AO2 T01930169", "KAIA 072153Z AUTO 01008KT 10SM FEW050 SCT065 24/13 A3004 RMK AO2 SLP144 T02390128", "KAIG 072155Z AUTO 00000KT 10SM OVC055 22/10 A2997 RMK AO2 T02190101", "KAIK 072155Z AUTO 26007KT 10SM SCT050 SCT060 SCT095 32/22 A2984 RMK AO2 LTG DSNT NE THRU SW T03180223", "KAIO 072155Z AUTO 06010KT 10SM SCT020 OVC060 17/17 A2992 RMK AO2", "KAIT 072135Z AUTO 23005KT 10SM CLR 24/11 A2994 RMK AO2", "KAIZ 072156Z AUTO 00000KT 10SM FEW090 31/21 RMK AO2 LTG DSNT NE-SE TSE16RAE08 SLPNO P0000 T03060211 $", "KAJG 072155Z AUTO 23004KT 10SM CLR 30/17 A2994 RMK AO2 T02960174", "KAJO 072156Z AUTO 28014G19KT 10SM CLR 28/14 RMK AO2 SLPNO T02830144 $", "KAJR 072155Z AUTO 00000KT 10SM -RA SCT030 SCT050 BKN110 24/24 A2991 RMK AO2 LTG DSNT E T02440240", "KAJZ 072155Z AUTO 22013G19KT 7SM CLR 37/M05 A2991 RMK AO2 T03721048 PWINO", "KAKH 072154Z AUTO VRB05KT 10SM TS FEW110 29/20 A2984 RMK AO2 LTG DSNT E-SW TSB23E44B52 SLP097 T02890200", "KAKO 072153Z AUTO 03014G20KT 10SM CLR 24/13 A3007 RMK AO2 SLP129 T02390133", "KAKQ 072154Z AUTO 21003KT 10SM -RA FEW090 SCT110 26/22 A2981 RMK AO2 RAB49 SLP095 P0000 T02610222", "KAKR 072154Z AUTO 36009KT 10SM CLR 26/15 A2995 RMK AO2 SLP132 T02610150", "KALB 072151Z 34006KT 10SM BKN065 BKN130 BKN160 OVC250 24/20 A2988 RMK AO2 LTG DSNT SW-NW SLP116 T02440200", "KALI 072153Z AUTO 19017G30KT 5SM VCTS -SN SCT035 BKN047 OVC090 A2992 RMK AO2 PK WND 19032/2138 WSHFT 2110 LTG DSNT S-NW UPB43E45SNB45 TSB27E45 SLPNO PNO $", "KALK 072156Z AUTO VRB03KT 10SM SCT120 36/06 A2999 RMK AO2 SLP045 T03560056", "KALM 072155Z AUTO 21010G17KT 170V230 10SM CLR 39/04 A2988 RMK AO2", "KALN 072150Z 09009KT 10SM CLR 27/18 A2993", "KALO 072154Z 36004KT 10SM OVC070 21/12 A2997 RMK AO2 SLP146 T02060122", "KALS 072152Z AUTO 26018G29KT 10SM CLR 32/M01 A3011 RMK AO2 PK WND 25036/2109 SLP085 T03171011", "KALW 072153Z 07006KT 10SM CLR 36/07 A2973 RMK AO2 SLP055 T03610072", "KALX 072155Z AUTO 02006KT 10SM CLR 28/24 A2992 RMK AO2 LTG DSNT N S AND NW T02770244", "KAMA 072153Z 18019G30KT 10SM CLR 33/18 A2985 RMK AO2 PK WND 18033/2057 SLP048 T03280178", "KAMN 072155Z AUTO 29003KT 10SM SCT065 25/09 A2995 RMK AO2 T02520089", "KAMW 072153Z AUTO 13003KT 10SM -RA OVC041 17/14 A2997 RMK AO2 SLP146 P0004 T01720139", "KANB 072153Z AUTO 22007KT 10SM CLR 27/22 A2989 RMK AO2 LTG DSNT N AND NE AND SW RAE2055 SLP114 P0000 T02670222", "KAND 072156Z AUTO 33006KT 10SM FEW100 SCT110 28/19 A2987 RMK AO2 LTG DSNT SE-SW TSE2059 SLP103 T02830194", "KANE 072150Z 23008KT 10SM OVC200 24/07 A2995", "KANJ 072155Z AUTO VRB03KT 10SM CLR 24/09 A2991 RMK AO2 SLP126 T02440094", "KANK 072150Z AUTO 26012G28KT 10SM CLR A3017 RMK AO1", "KANQ 072155Z AUTO 00000KT 10SM CLR 27/15 A2993 RMK AO2", "KANW 072155Z AUTO 01012G15KT 10SM CLR 23/15 A2998 RMK AO2 T02270147", "KAOH 072153Z AUTO 19004KT 10SM SCT065 27/15 A2993 RMK AO2 SLP127 T02720150", "KAOO 072153Z AUTO 32008KT 10SM SCT050 BKN070 27/19 A2990 RMK AO2 SLP112 T02720194", "KAPA 072153Z VRB06KT 10SM FEW038 BKN055 BKN130 22/13 A3013 RMK AO2 SLP141 T02220128", "KAPC 072154Z 19015G21KT 10SM CLR 23/12 A2986 RMK AO2 SLP102 T02280122", "KAPF 072200Z 15007KT 8SM TS BKN028 BKN037 29/23 A2995 RMK AO2 LTG DSNT NE AND E T02940228", "KAPN 072154Z AUTO VRB03KT 10SM CLR 24/08 A2993 RMK AO2 SLP134 T02440083", "KAPS 072138Z AUTO 22004KT 10SM CLR 32/23 A2995 RMK AO2", "KAPY 072155Z AUTO 10014G22KT 10SM BKN070 BKN080 35/21 A2985 RMK AO2 T03530214 TSNO", "KAQO 072155Z AUTO 20007G12KT 160V230 10SM SCT075 34/19 A2991 RMK AO2", "KAQP 072153Z AUTO 27005KT 10SM SCT031 BKN038 BKN080 24/14 A2992 RMK AO2", "KAQV 072147Z AUTO VRB03KT 10SM BKN070 OVC100 36/18 A2989 RMK AO2 SLPNO T03560178", "KAQW 072152Z AUTO 26006KT 10SM FEW002 BKN039 28/20 A2986 RMK AO2 LTG DSNT N-SE SLP106 T02780200 $", "KAQX 072155Z AUTO 22004KT 10SM CLR 34/22 A2980 RMK AO2 LTG DSNT ALQDS", "KARA 072153Z 24008KT 10SM FEW120 30/22 A2994 RMK AO2 LTG DSNT N SLP138 T03000217", "KARB 072153Z VRB04KT 10SM CLR 26/13 A2993 RMK AO2 SLP132 T02610133", "KARG 072156Z AUTO 16006KT 10SM FEW031 30/23 A2990 RMK AO2 SLP122 T03000228", "KARM 072155Z AUTO 15012G17KT 10SM SCT036 BKN055 BKN075 33/24 A2993 RMK AO2 T03320239 TSNO", "KARR 072152Z 23005KT 9SM CLR 26/14 A2992 RMK AO2 SLP129 T02560139", "KART 072156Z AUTO 23010KT 10SM SCT023 27/20 A2985 RMK AO2 SLP104 T02670200", "KARV 072155Z AUTO 27009KT 10SM SCT100 22/11 A2996 RMK AO2 T02200112", "KARW 072155Z AUTO 18009KT 10SM SCT070 32/22 A2980 RMK AO2 LTG DSNT NE AND W", "KASD 072204Z AUTO 21005KT 10SM VCTS CLR 33/25 A2993 RMK AO2 LTG DSNT W AND NW T03280250", "KASE 072153Z 34009G17KT 300V010 10SM CLR 27/M04 A3013 RMK AO2 PK WND 27026/2055 WSHFT 2046 SLP074 T02721039", "KASG 072148Z 20013KT 10SM CLR 29/25 A2991", "KASH 072156Z 00000KT 10SM SCT050 31/21 A2983 RMK AO2 SLP102 HAZY T03060206", "KASJ 072145Z AUTO 00000KT 10SM CLR 25/25 A2983 RMK AO2 T02450245", "KASL 072155Z AUTO 18009KT 10SM CLR 33/23 A2988 RMK AO2 T03320231 $", "KASN 072155Z AUTO 22004KT 10SM -RA CLR 26/22 A2991 RMK AO2 LTG DSNT ALQDS T02640224", "KAST 072155Z AUTO 26010KT 10SM OVC030 17/12 A2996 RMK AO2 SLP144 T01720117", "KASW 072155Z AUTO 22004KT 10SM 26/12 A2993 RMK AO2 T02670126", "KASX 072153Z AUTO 22009KT 10SM BKN095 24/13 A2991 RMK AO2 SLP130 T02390133", "KATA 072155Z AUTO 24005KT 10SM FEW046 32/23 A2988 RMK AO2 SLP016 T03150231 $", "KATL 072152Z 13006KT 10SM FEW025TCU SCT050 BKN150 BKN200 27/22 A2991 RMK AO2 RAB20E45 TSB2058E52 SLP119 LTG DSNT NE-SE TS MOVD SE CB DSNT NE-SE TCU OHD-NW P0000 T02670217 $", "KATP 072205Z AUTO 12008KT CLR 31/24 A2997 RMK A01", "KATS 072155Z AUTO 16013G19KT 10SM BKN110 38/13 A2984 RMK AO2", "KATT 072151Z AUTO VRB03KT 10SM FEW090 33/21 A2992 RMK AO2 SLP118 T03280211 $", "KATW 072145Z 16004KT 10SM SCT050 25/08 A2996", "KATY 072153Z AUTO 20008KT 10SM FEW027 22/14 A2995 RMK AO2 SLP138 T02170144", "KAUG 072153Z AUTO 17007KT 10SM CLR 27/19 A2986 RMK AO2 LTG DSNT NW SLP109 T02670189", "KAUH 072155Z AUTO 00000KT 10SM SCT022 SCT028 BKN036 24/18 A2990 RMK AO2 T02360182", "KAUM 072156Z AUTO 22011KT 10SM CLR 19/12 A2999 RMK AO2", "KAUN 072155Z AUTO 21007KT 170V230 10SM CLR 27/11 A2986 RMK A01", "KAUS 072153Z 16010G18KT 10SM FEW043 BKN110 32/22 A2990 RMK AO2 SLP114 T03220222 $", "KAUW 072154Z AUTO 27005KT 10SM CLR 23/09 A2994 RMK AO2 SLP140 T02330094", "KAVC 072155Z AUTO 09003KT 10SM SCT032 BKN070 OVC110 25/24 A2989 RMK AO2 LTG DSNT NE AND S P0034 T02450242", "KAVL 072154Z 18005KT 10SM CLR 26/20 A2995 RMK AO2 SLP114 T02560200", "KAVP 072202Z 21008KT 2 1/2SM TSRA BR SCT041 SCT065 OVC095 23/21 A2987 RMK AO2 LTG DSNT ALQDS P0004 T02280206", "KAVQ 072155Z AUTO 22005KT 10SM 43/02 A2974 RMK AO2 T04280016", "KAVX 072151Z AUTO 27007KT 10SM CLR 18/13 A2989 RMK AO2 SLP109 T01830128", "KAWG 072155Z AUTO 26003KT 10SM SCT050 BKN065 19/19 A2996 RMK AO2", "KAWM 072153Z AUTO 00000KT 10SM SCT040 31/22 A2990 RMK AO2 SLP118 T03060217", "KAWO 072156Z AUTO 19006KT 10SM CLR 22/13 A2989 RMK AO2 SLP124 T02220128", "KAXA 072155Z AUTO 16004KT 9SM CLR 16/15 A2999 RMK A01 P0001", "KAXH 072155Z AUTO 18005KT 10SM CLR 33/22 A2993 RMK AO2 T03270223", "KAXN 072153Z AUTO 20012KT 10SM CLR 24/13 A2993 RMK AO2 SLP132 T02390128", "KAXS 072155Z AUTO 17014G24KT CLR 35/20 A2982 RMK AO2 PWINO", "KAXV 072155Z AUTO 01005KT 10SM CLR 28/15 A2993 RMK AO2", "KAXX 072155Z AUTO 27019G29KT 10SM CLR 26/03 A3023 RMK AO2 T02570027", "KAYS 072155Z AUTO 29008KT 10SM SCT060 36/21 A2982 RMK AO2 T03590212", "KAZC 072155Z AUTO 23016G23KT 10SM CLR 36/M07 A2996 RMK AO2", "KAZE 072155Z AUTO 23004KT 10SM SCT060 34/21 A2983 RMK AO2 LTG DSNT N AND NE T03390213", "KAZO 072153Z 18006KT 10SM FEW070 28/11 A2993 RMK AO2 SLP132 T02780106", "KBAB 072155Z AUTO 19011KT 10SM CLR 28/15 A2978 RMK AO2 SLP087 T02840146 $", "KBAC 072155Z AUTO 02014G21KT 9SM SCT044 SCT050 23/14 A2994 RMK AO2", "KBAD 072155Z AUTO 23005KT M M CLR 34/21 A2988 RMK AO2 SLP120 T03380205 RVRNO $", "KBAF 072153Z 18006KT 10SM CLR 28/20 A2983 RMK AO2 LTG DSNT N SLP097 T02830200", "KBAK 072150Z 00000KT 10SM CLR 28/16 A2992", "KBAM 072155Z AUTO 33011G17KT 10SM CLR 33/02 A2987 RMK AO1", "KBAN 072152Z AUTO 20009KT 10SM CLR 26/M02 A3004 RMK AO2 SLP071 T02611017 PWINO $", "KBAX 072155Z AUTO 30006KT 10SM SCT055 24/14 A2995 RMK AO2 T02420135", "KBAZ 072151Z 12008KT 10SM SCT044 BKN095 33/22 A2989", "KBBB 072155Z AUTO 22007KT 10SM SCT035 23/14 A2994 RMK AO2", "KBBD 072155Z AUTO 14011KT 10SM SCT050 SCT060 31/19 A2993 RMK AO2", "KBBG 072145Z 00000KT 10SM FEW045 30/22 A2991", "KBBP 072155Z AUTO 10004KT 10SM -RA SCT042 SCT080 OVC110 25/22 A2984 RMK AO2 P0002 LTG DSNT E AND SE", "KBBW 072153Z AUTO 36011G18KT 10SM FEW050 FEW070 27/16 A2994 RMK AO2 SLP117 T02670161", "KBCB 072155Z AUTO 33006KT 10SM SCT048 SCT060 28/19 A2996 RMK AO2 T02830194", "KBCE 072153Z AUTO 20013G20KT 10SM CLR 27/M03 A3014 RMK AO2 SLP089 T02671033", "KBCK 072155Z AUTO 26003KT 10SM SCT060 22/11 A2995 RMK AO2 T02200108", "KBCR 072203Z AUTO 22007KT 10SM TS CLR 30/23 A2989 RMK AO2 TSB00 T03000228 $", "KBCT 072153Z 00000KT 10SM SCT040 26/24 A2995", "KBDE 072153Z AUTO 33009KT 10SM CLR 23/10 A2991 RMK AO2 SLP129 T02330100", "KBDH 072155Z AUTO 20004KT 10SM SCT036 23/13 A2998 RMK AO2", "KBDL 072151Z 20007KT 10SM FEW044 SCT100 BKN200 BKN250 30/21 A2982 RMK AO2 SLP097 T03000206", "KBDN 072155Z AUTO 01009KT 320V050 10SM CLR 33/02 A2985 RMK AO2", "KBDR 072152Z 09006KT 10SM CLR 26/23 A2983 RMK AO2 SLP102 T02610228", "KBDU 072155Z AUTO 35009G15KT 10SM BKN050 OVC065 22/11 A3011 RMK AO2", "KBEA 072155Z AUTO 14013G18KT 10SM SCT065 33/19 A2989 RMK AO2 LTG DSNT S T03340193", "KBEC 072155Z AUTO 25004KT 10SM VCTS SCT039 SCT060 BKN110 21/20 A2994 RMK AO2 LTG DSNT S THRU W P0001 T02050200", "KBED 072151Z 19009KT 10SM CLR 28/21 A2981 RMK AO2 SLPNO T02830211", "KBEH 072153Z AUTO VRB04KT 10SM CLR 24/16 A2993 RMK AO2 SLP132 T02390161", "KBFD 072153Z AUTO 34007KT 10SM BKN049 24/16 A2996 RMK AO2 SLP128 T02440161", "KBFI 072153Z 15008KT 10SM FU CLR 22/12 A2989 RMK AO2 SLP122 T02220122", "KBFL 072154Z 31008KT 7SM CLR 33/09 A2979 RMK AO2 SLP079 T03330089 $", "KBFM 072153Z COR 08012KT 10SM VCTS -RA BKN040CB 29/22 A2993 RMK AO2 WSHFT 2121 LTG DSNT E RAB53 SLP134 CB NE AND E P0000 T02890217", "KBGD 072151Z AUTO 17014G23KT 10SM CLR 36/18 A2984 RMK AO2 SLP052 T03610183", "KBGE 072155Z AUTO 21010KT 10SM CLR 31/24 A2986 RMK AO2 LTG DSNT S AND NW T03050238", "KBGM 072201Z 36006KT 10SM FEW017 SCT022 BKN120 23/20 A2991 RMK AO2 LTG DSNT SE T02330200", "KBGR 072153Z 19011KT 10SM FEW030TCU FEW085 SCT220 26/19 A2985 RMK AO2 SLP103 TCU NW T02560194", "KBHB 072156Z AUTO 20012KT 10SM BKN005 20/18 A2988 RMK AO2 SLP120 T02000183", "KBHC 072155Z AUTO 30006G14KT 10SM CLR 33/20 A2983 RMK AO2 LTG DSNT N NE AND S", "KBHK 072151Z AUTO 36008G15KT 10SM FEW065 FEW090 25/08 A3006 RMK AO2 LTG DSNT E AND SE SLP160 T02500083", "KBHM 072153Z 36010KT 10SM FEW050 BKN110 29/21 A2992 RMK AO2 LTG DSNT ALQDS TSB24E39 SLP124 TS MOV SE T02940211", "KBID 072156Z AUTO 15006KT 10SM OVC006 23/22 A2988 RMK AO2 SLP117 T02330217", "KBIE 072155Z AUTO 00000KT 1 3/4SM /VCTSRA SCT028 BKN048 OVC065 21/20 A2990 RMK AO2 VIS 3/4V3 LTG DSNT ALQS P0023 T02100198", "KBIF 072155Z 19010KT 7SM SCT120 41/06 A2990 RMK SLPNO ALSTG WND DATA ESTMD $", "KBIH 072156Z AUTO 22006KT 10SM CLR 36/01 A2979 RMK AO2 SLP028 T03610011", "KBIJ 072155Z AUTO 00000KT 10SM SCT042 SCT050 BKN075 29/22 A2987 RMK AO2 LTG DSNT SW AND W", "KBIL 072153Z 06011KT 10SM SCT075 SCT250 26/07 A3006 RMK AO2 SLP155 CB DSNT NE NW T02560072", "KBIS 072152Z AUTO 02013G22KT 10SM BKN065 25/09 A2999 RMK AO2 SLP150 T02500094", "KBIV 072153Z AUTO 30007KT 10SM CLR 26/12 A2995 RMK AO2 SLP138 T02610122", "KBIX 072155Z AUTO 24010KT 10SM CLR 31/24 A2989 RMK AO2 SLP124 T03100239 $", "KBJC 072145Z 04009KT 10SM BKN070 23/09 A3014", "KBJI 072155Z AUTO 15008KT 10SM SCT010 19/16 A2990 RMK AO2 LTG DSNT N AND NW T01890155", "KBJJ 072156Z AUTO 02009KT 10SM CLR 26/16 A2995 RMK AO2 SLP134 T02610156", "KBKB 072152Z AUTO 21008G23KT 10SM FEW090 32/22 A2990 RMK AO2 SLP151 T03220217", "KBKD 072155Z AUTO 19016G21KT 5SM HZ CLR 35/19 A2987 RMK AO2 T03450186", "KBKE 072153Z AUTO 35004KT 10SM CLR 32/04 A2986 RMK AO2 SLP085 T03170039", "KBKF 072158Z 08007KT 10SM BKN040 BKN110 BKN220 22/12 A3011 RMK AO2A SLP129 T02170117", "KBKL 072153Z 02006KT 10SM CLR 24/15 A2996 RMK AO2 SLP140 T02440150", "KBKN 072155Z AUTO 07004G12KT 24/22 A2990 RMK AO2 LTG DSNT NW-NE", "KBKS 072155Z AUTO 04005KT 5SM RA BR VCTS FEW055 OVC085 24/24 A2992 RMK AO2 SLP093 P0001 T02400240 $", "KBKT 072155Z AUTO 15008KT 10SM SCT015 SCT026 BKN120 28/23 A2983 RMK AO1 T02790231", "KBKV 072153Z 26013KT 10SM FEW030 SCT035 31/24 A2993 RMK AO2 LTG DSNT E AND SE SLP134 T03110239", "KBKW 072151Z AUTO 33006KT 10SM CLR 26/18 A2999 RMK AO2 SLP119 T02560183", "KBKX 072156Z AUTO 21007KT 10SM FEW021 BKN095 18/12 A2998 RMK AO2 SLP163 T01830122", "KBLF 072152Z AUTO 35005KT 10SM FEW033 BKN055 OVC070 24/17 A3001 RMK AO2 SLP126 T02390172", "KBLH 072152Z AUTO 21013G21KT 10SM CLR 41/M06 A2965 RMK AO2 SLP031 T04111061", "KBLI 072153Z 19009G19KT 10SM CLR 18/14 A2987 RMK AO2 SLP120 T01780139", "KBLM 072156Z AUTO 15005KT 10SM CLR 26/26 A2984 RMK AO2 SLPNO T02610256", "KBLU 072152Z AUTO 19007KT 170V300 10SM CLR 23/07 A3007 RMK AO2 SLP088 T02280072", "KBLV 072155Z 05005KT 10SM FEW070 OVC250 28/19 A2990 RMK AO2A SLP125 T02810185 $", "KBMC 072150Z AUTO 32007KT 10SM CLR 32/M03 A2988 RMK AO1 T03201031", "KBMG 072153Z VRB05KT 10SM CLR 29/17 A2993 RMK AO2 SLP127 T02940172", "KBMI 072156Z 24011KT 10SM OVC120 25/16 A2997 RMK AO2 SLP142 T02500161", "KBML 072152Z AUTO 17003KT 5SM VCTS -RA BR FEW055 BKN110 21/20 A2991 RMK AO2 LTG DSNT E-SW TSE03 SLP125 P0002 T02060200", "KBMQ 072153Z AUTO 20007KT 10SM BKN047 33/21 A2994 RMK AO2 SLP117 T03330206", "KBMT 072155Z AUTO 16013G17KT 10SM SCT046 SCT085 34/23 A2992 RMK AO2 T03420226", "KBNA 072153Z 00000KT 10SM SCT055 SCT180 BKN250 33/19 A2991 RMK AO2 SLP121 T03280189", "KBNL 072155Z AUTO 00000KT 10SM CLR 33/22 A2981 RMK AO2 LTG DSNT E AND SW AND W", "KBNO 072153Z AUTO 16005KT 10SM CLR 32/04 A2988 RMK AO2 LTG DSNT N SLP077 T03170044", "KBNW 072155Z AUTO 06005KT 10SM FEW017 SCT023 OVC035 16/16 A2996 RMK AO2 P0002", "KBOI 072153Z 32009KT 10SM CLR 34/07 A2979 RMK AO2 SLP052 T03440072", "KBOK 072156Z AUTO 31007KT 270V340 10SM OVC020 16/11 A2999 RMK AO2 SLP155 T01560111", "KBOS 072154Z 18010KT 10SM FEW220 BKN250 29/19 A2983 RMK AO2 SLP100 T02890189", "KBPC 072200Z AUTO 16016G21KT 10SM CLR 32/20 A2985 RMK AO2", "KBPG 072155Z AUTO 15015KT 10SM CLR 35/15 A2990 RMK AO2 T03550151", "KBPI 072153Z AUTO 06010G18KT 10SM SCT080 SCT110 22/02 A3013 RMK AO2 LTG DSNT ALQDS RAE17 SLP123 P0000 T02170022", "KBPK 072153Z AUTO 22008KT 10SM VCTS SCT060 31/21 A2988 RMK AO2 LTG DSNT SW TSB2055E10 SLP108 T03060211", "KBPT 072153Z 19010G17KT 10SM CLR 34/24 A2992 RMK AO2 SLP133 T03440239", "KBQP 072155Z AUTO 22003KT 10SM SCT038 31/23 A2992 RMK AO2 T03130228", "KBRG 072155Z AUTO 30007G14KT 10SM CLR 35/01 A3000 RMK AO2 T03480007", "KBRL 072053Z AUTO 00000KT 10SM -RA FEW075 BKN090 OVC110 20/16 A2997 RMK AO2 RAB24 SLP146 P0002 60002 T02000161 58007", "KBRO 072153Z 12012KT 10SM FEW034 FEW046 33/25 A2986 RMK AO2 SLP111 T03280250", "KBRY 072155Z AUTO 00000KT 10SM CLR 31/16 A2990 RMK AO2 T03080160", "KBTA 072155Z AUTO 05008KT 10SM -DZ SCT008 OVC034 18/17 A2991 RMK AO2 T01820173", "KBTL 072153Z 00000KT 10SM FEW070 28/11 A2994 RMK AO2 SLP132 T02830111", "KBTM 072153Z AUTO 12007KT 10SM SCT110 22/02 A3007 RMK AO2 LTG DSNT SW AND W SLP144 T02220017", "KBTN 072155Z AUTO 23010KT 10SM FEW120 23/15 A2990 RMK AO2", "KBTP 072156Z AUTO 33007KT 10SM BKN043 26/18 A2993 RMK AO2 SLP132 T02610183 TSNO PNO $", "KBTR 072153Z 24006KT 10SM CLR 33/22 A2992 RMK AO2 SLP130 T03330217", "KBTV 072154Z 00000KT 10SM FEW021 OVC110 24/21 A2986 RMK AO2 LTG DSNT NW RAB2055E53 SLP108 P0000 T02390211", "KBUF 072154Z 22011KT 10SM BKN055 BKN095 BKN270 25/16 A2990 RMK AO2 SLP120 T02500156", "KBUR 072153Z 20011KT 10SM CLR 25/13 A2983 RMK AO2 SLP089 T02500128", "KBUU 072155Z AUTO 11007KT 10SM CLR 25/13 A2994 RMK AO2 T02510129 PWINO", "KBUY 072154Z AUTO 18003KT 10SM VCTS SCT055 SCT065 29/21 A2983 RMK AO2 LTG DSNT NE AND SW TSB16E31 SLP093 T02890206", "KBVI 072155Z AUTO 03007KT 10SM SCT045 28/15 A2994 RMK AO2 T02770151", "KBVN 072155Z AUTO 01009KT 10SM SCT017 BKN047 OVC060 21/19 A2992 RMK AO2 P0004 T02130188", "KBVO 072053Z AUTO 10SM FEW075 FEW090 SCT110 24/21 A2988 RMK AO2 LTG DSNT W AND NW RAB39E48 SLP107 P0000 60000 T02440206 58018", "KBVS 072155Z AUTO VRB06G11KT 10SM CLR 20/15 A2989 RMK A01", "KBVU 072155Z AUTO 13015G21KT 10SM CLR 38/M03 A2971 RMK AO2", "KBVX 072156Z AUTO 11008KT 8SM CLR 30/24 A2990 RMK AO2 SLP121 T03000239", "KBVY 072153Z 13010KT 10SM CLR 26/20 A2982 RMK AO2 SLP091 T02610200 $", "KBWD 072135Z AUTO 18008G17KT 10SM SCT050 34/18 A2991 RMK AO1", "KBWI 072154Z 13005KT 10SM SCT035CB SCT060 BKN130 BKN240 31/22 A2981 RMK AO2 SLP092 CB OHD-NW MOV SE T03060222", "KBWP 072155Z AUTO 20007G16KT 5SM -TSRA BR SCT023 BKN030 OVC042 18/16 A2990 RMK AO2 P0010", "KBWW 072155Z AUTO 04008KT 10SM FEW075 FEW120 23/13 A3005 RMK AO2", "KBXA 072155Z AUTO 18007KT 10SM CLR 34/23 A2992 RMK AO2 T03350227", "KBXK 072155Z AUTO VRB05KT 10SM CLR 40/07 A2970 RMK A01", "KBYG 072153Z AUTO VRB03KT 10SM SCT090 23/07 A3013 RMK AO2 SLP162 T02280067", "KBYI 072153Z AUTO 11009KT 10SM CLR 31/04 A2986 RMK AO2 SLP066 T03060044", "KBYL 072155Z AUTO 34005KT 10SM CLR 29/20 A2993 RMK AO1", "KBYS 072155Z AUTO 15012G17KT 10SM CLR 35/M01 A2973 RMK AO2 SLP036 T03501012 $", "KBYY 072155Z AUTO 18011G15KT 10SM CLR 32/22 A2992 RMK AO2 T03200228", "KBZN 072156Z 08009KT 10SM CLR 26/04 A3002 RMK AO2 LTG DSNT S SLP136 T02560044 $", "KC07 072155Z AUTO 00000KT 10SM SCT065 BKN090 OVC120 15/00 A3039 RMK AO2 LTG DSNT S THRU NW", "KC09 072155Z AUTO 26008KT 10SM SCT050 26/16 A2992 RMK AO2 T02620160", "KC29 072155Z AUTO 31003KT 10SM BKN060 24/11 A2995 RMK AO1 T02400105", "KC35 072155Z AUTO 00000KT 10SM SCT065 24/09 A2994 RMK AO2 T02350091 PWINO", "KC65 072155Z AUTO VRB05G10KT 10SM FEW055 FEW065 28/15 A2993 RMK A01", "KC75 072155Z AUTO 30006KT 10SM OVC110 24/13 A2995 RMK AO2 T02440129", "KC83 072155Z AUTO 24024G33KT 10SM CLR 24/10 A2983 RMK AO2", "KCAD 072155Z AUTO 24003KT 10SM SCT065 24/08 A2995 RMK AO2 T02430084", "KCAE 072156Z 21009KT 6SM TSRA BR SCT060CB BKN110 24/23 A2985 RMK AO2 PK WND 32033/2058 WSHFT 2045 LTG DSNT ALQDS SLP105 OCNL LTGICCC TS OH MOV E CB OHD MOVE E FROPA P0093 T02440233", "KCAG 072153Z AUTO VRB03KT 10SM CLR 29/02 A3003 RMK AO2 LTG DSNT E AND SE SLP098 T02890022", "KCAK 072151Z 35009KT 10SM SCT050 26/16 A2995 RMK AO2 SLP132 T02560156", "KCAO 072155Z AUTO 07019KT 10SM VCTS SCT033 SCT055 21/16 A2997 RMK AO2 PK WND 02042/2103 WSHFT 2058 LTG DSNT NE-SE RAB02E52 TSE52 SLP092 P0058 T02060156", "KCAR 072202Z AUTO 00000KT 10SM -RA FEW060 OVC110 23/21 A2982 RMK AO2 P0000 T02280211", "KCAV 072155Z AUTO 06010G15KT 10SM OVC055 17/12 A2998 RMK A01", "KCBE 072145Z AUTO 31009KT 10SM SCT080 30/20 A2989 RMK AO2 T03010197", "KCBF 072155Z AUTO 05006KT 6SM -RA BKN018 OVC047 20/18 A2989 RMK AO2", "KCBG 072155Z AUTO 23004KT 10SM CLR 23/11 A2995 RMK AO2", "KCBK 072155Z AUTO 01013KT 10SM CLR 28/16 A2995 RMK AO2 T02770157", "KCBM 072155Z 00000KT 10SM SCT120 25/24 A2988 RMK AO2A RAE12 TSE14 SLP122 ALSTG/SLP ESTMD $", "KCCA 072155Z AUTO 20004KT 10SM FEW055 FEW070 SCT080 31/24 A2990 RMK AO2", "KCCB 072155Z AUTO 26009KT 10SM CLR 27/10 A2984 RMK AO2", "KCCO 072155Z AUTO 29004KT 10SM CLR 27/23 A2991 RMK AO2 LTG DSNT NE AND S T02680227", "KCCR 072153Z 18019KT 10SM CLR 22/11 A2986 RMK AO2 SLP098 T02170111", "KCCU 072155Z AUTO 26008G14KT 10SM BKN080 BKN100 16/M02 A3050 RMK AO2", "KCCY 072155Z AUTO 00000KT 10SM -RA FEW060 18/16 A2999 RMK AO2", "KCDA 072155Z AUTO 00000KT 7SM SCT001 BKN047 OVC110 20/19 A2992 RMK AO2 T02000192 PWINO", "KCDC 072153Z AUTO 22015G26KT 10SM CLR 32/M06 A2997 RMK AO2 PK WND 23027/2137 SLP059 T03171061", "KCDD 072155Z AUTO 22005KT 10SM CLR 19/11 A2992 RMK AO2 LTG DSNT N PWINO", "KCDH 072155Z AUTO 00000KT 4SM HZ FEW043 SCT070 33/27 A2988 RMK AO2 P0001", "KCDI 072155Z AUTO 32004KT 10SM SCT075 28/19 A2991 RMK AO2 T02840188", "KCDJ 072151Z AUTO 12007KT 24/17 A2990 RMK AO1 SLP118 T02390172", "KCDN 072155Z AUTO 30007KT 10SM VCTS CLR 29/22 A2984 RMK AO2 LTG DSNT ALQDS", "KCDR 072153Z AUTO 01008KT 10SM FEW060 26/11 A3003 RMK AO2 SLP154 T02560111", "KCDS 072153Z AUTO 17018G26KT 10SM CLR 35/18 A2982 RMK AO2 PK WND 20031/2056 SLP067 T03500178", "KCDW 072153Z 16007KT 10SM CLR 28/20 A2981 RMK AO2 SLP098 T02830200", "KCEC 072156Z AUTO 28006KT 10SM OVC021 13/11 A3001 RMK AO2 SLP162 T01280106", "KCEF 072155Z 21008KT 10SM FEW050 FEW100 BKN200 29/19 A2980 RMK AO2A LTG DSNT NW SLP095 T02860192", "KCEU 072154Z AUTO 36004KT 10SM CLR 24/22 A2988 RMK AO2 LTG DSNT SE-SW RAE13 TSE2056 SLP110 P0000 T02440217", "KCEW 072153Z AUTO 19008KT 5SM VCTS -RA FEW044 BKN060 BKN085 27/24 A2991 RMK AO2 LTG DSNT ALQDS RAB43 SLP126 P0001 T02720239", "KCEY 072155Z AUTO VRB06KT 10SM FEW110 30/22 A2992 RMK A01", "KCEZ 072153Z AUTO 27014G20KT 10SM CLR 33/M02 A3002 RMK AO2 PK WND 26029/2102 SLP072 T03331017", "KCFD 072155Z AUTO 19008KT 10SM SCT047 SCT050 BKN090 32/22 A2993 RMK AO2 T03220221", "KCFE 072155Z AUTO 24006KT 10SM CLR 22/11 A2995 RMK AO2", "KCFJ 072155Z AUTO 23004KT 10SM 27/12 A2994 RMK AO2 T02650116", "KCFO 072147Z 05010KT 10SM BKN042 23/12 A3013", "KCFS 072155Z AUTO 23004KT 10SM SCT055 25/11 A2995 RMK AO2 T02520111", "KCFV 072152Z AUTO 32005KT 10SM CLR 26/22 A2988 RMK AO2 SLP111 T02610222", "KCGC 072155Z AUTO 28013G18KT 10SM BKN028 BKN041 BKN055 32/24 A2992 RMK AO2 LTG DSNT N THRU SE", "KCGE 072145Z AUTO 12009KT 10SM SCT025 27/25 A2984 RMK A01", "KCGF 072145Z 03006KT 10SM CLR 23/14 A2997", "KCGI 072053Z 19007KT 10SM FEW047 SCT090 SCT110 30/22 A2992 RMK AO2 SLP126 T03000217 58018", "KCGS 072150Z AUTO 16003KT 10SM CLR 31/21 A2982 RMK AO2 T03080214", "KCGZ 072156Z AUTO 31008KT 10SM CLR 43/04 A2971 RMK AO2 SLP040 T04280039 PNO $", "KCHA 072153Z VRB06KT 10SM SCT048 SCT160 SCT250 32/21 A2988 RMK AO2 SLPNO CB DSNT N AND S T03220206", "KCHD 072147Z 22006G16KT 10SM CLR 42/01 A2970", "KCHK 072155Z AUTO 09010KT 10SM CLR 31/23 A2985 RMK AO2 T03050231", "KCHO 072153Z 02004KT 10SM TS SCT050 31/23 A2983 RMK AO2 LTG DSNT N AND NE TSB46 SLP092 T03110228", "KCHS 072156Z 21005KT 7SM -RA SCT035 BKN050 BKN110 28/24 A2981 RMK AO2 TSE40 SLP094 CB DSNT N P0004 T02780239", "KCIC 072147Z 17008KT 10SM CLR 30/12 A2979", "KCID 072152Z 16004KT 10SM -RA BKN045 OVC055 17/13 A2997 RMK AO2 RAE13B47 SLP149 P0001 T01720128 $", "KCII 072155Z AUTO 12004G13KT 10SM 24/06 A3003 RMK A01 ", "KCIN 072155Z AUTO 07007KT 2 1/2SM -RA FEW014 BKN021 BKN030 15/15 A2996 RMK AO2 P0003", "KCIU 072156Z AUTO 25006KT 10SM CLR 23/09 A2993 RMK AO2 SLP132 T02330094", "KCJR 072155Z AUTO 00000KT 10SM SCT080 SCT090 SCT110 30/21 A2982 RMK AO2 LTG DSNT SW AND W T02960213", "KCKB 072153Z 30008KT 10SM CLR 28/18 A2991 RMK AO2 SLP110 T02830178", "KCKC 072155Z AUTO 26004KT 10SM SCT055 22/07 A2989 RMK AO2", "KCKF 072155Z AUTO 24006KT 10SM SCT060 33/22 A2986 RMK AO2 LTG DSNT N NE AND SW T03290222", "KCKI 072155Z AUTO 26003KT 10SM CLR 31/24 A2980 RMK AO2 LTG DSNT NE SE AND SW", "KCKM 072155Z AUTO 23003KT 10SM FEW029 FEW080 31/24 A2992 RMK A01", "KCKN 072155Z AUTO 35016G20KT 10SM SCT050 24/11 A2992 RMK AO2 LTG DSNT E", "KCKP 072155Z AUTO 10006KT 10SM SCT027 BKN032 OVC038 15/14 A2999 RMK AO2 T01450138", "KCKV 072152Z AUTO 26007KT 10SM CLR 32/18 A2991 RMK AO2 SLP123 T03170183", "KCKZ 072155Z AUTO 05003KT 10SM CLR 27/24 A2985 RMK AO2", "KCLE 072151Z 01007KT 10SM CLR 24/14 A2995 RMK AO2 SLP152 T02440139", "KCLI 072155Z AUTO 06003KT 10SM CLR 24/08 A2996 RMK AO2 T02410075", "KCLK 072155Z AUTO 15008G15KT 10SM SCT120 30/20 A2990 RMK AO2", "KCLL 072153Z 20009G18KT 10SM FEW045 SCT065 BKN090 34/22 A2991 RMK AO2 SLP123 T03390217", "KCLM 072153Z AUTO 30012G19KT 10SM CLR 18/11 A2990 RMK AO2 SLP126 T01830106", "KCLS 072155Z AUTO VRB05G12KT 10SM CLR 22/14 A2991 RMK AO2", "KCLT 072152Z 35008KT 10SM SCT060TCU SCT160 BKN250 32/19 A2984 RMK AO2 LTG DSNT E-SW SLP108 CB DSNT E-S TCU NE T03170189", "KCLW 072155Z AUTO 28007G14KT 10SM SCT021 SCT034 31/24 A2993 RMK AO2", "KCMA 072155Z 25009G18KT 10SM CLR 22/13 A2985 RMK AO2 SLP115 T02170133", "KCMD 072155Z AUTO 00000KT 10SM VCTS CLR 26/25 A2995 RMK AO2 LTG DSNT S AND SW", "KCMH 072151Z 02005KT 10SM SCT065 29/17 A2991 RMK AO2 SLP121 T02890172", "KCMI 072153Z 23007KT 10SM SCT110 26/17 A2995 RMK AO2 SLP140 T02610172", "KCMR 072155Z AUTO 22015G25KT 180V250 10SM CLR 29/M03 A3012 RMK AO2", "KCMX 072153Z AUTO 28012KT 10SM CLR 24/12 A2989 RMK AO2 SLP119 T02390117", "KCMY 072155Z AUTO 00000KT 9SM SCT130 22/10 A2993 RMK AO2 SLP140 T02220097 FZRANO $", "KCNB 072155Z AUTO 24007KT 10SM SCT025 SCT030 22/14 A2997 RMK AO2 T02220135", "KCNC 072155Z AUTO 08006KT 10SM BKN018 19/17 A2993 RMK AO2", "KCNI 072155Z AUTO 32007KT 10SM CLR 30/22 A2991 RMK AO2 LTG DSNT SE THRU NW T03030225", "KCNK 072155Z AUTO 20008KT 10SM FEW035 OVC085 27/19 A2989 RMK AO2 LTG DSNT NW-NE SLP106 T02720194", "KCNM 072153Z AUTO 15013G24KT 10SM CLR 39/13 A2983 RMK AO2 LTG DSNT SW-N SLP032 T03890133", "KCNO 072153Z 25012KT 10SM CLR 30/10 A2982 RMK AO2 SLP091 T03000100", "KCNU 072152Z AUTO 22008KT 10SM CLR 28/21 A2989 RMK AO2 SLP111 T02780211", "KCNW 072155Z 15010KT 10SM SCT049 35/20 A2989", "KCNY 072153Z AUTO 20011KT 10SM CLR 36/M06 A2984 RMK AO2 PK WND 27028/2122 SLP029 T03611056", "KCOD 072156Z AUTO VRB03KT 10SM BKN110 21/06 A3011 RMK AO2 LTG DSNT W SLP161 T02110061", "KCOE 072156Z AUTO 36012G16KT 10SM FEW110 33/05 A2984 RMK AO2 SLP097 T03280050 PNO $", "KCOF 072155Z AUTO 21005KT 10SM CLR 26/23 A2989 RMK AO2 LTG DSNT S AND W-NW SLP126 T02640228 $", "KCOM 072155Z AUTO 17008G20KT 10SM SCT050 34/17 A2992 RMK AO2 T03380173", "KCON 072151Z AUTO 17006KT 10SM CLR 29/19 A2982 RMK AO2 SLP095 T02940189", "KCOQ 072155Z AUTO 24011G15KT 10SM CLR 23/07 A2991 RMK AO2 TSNO", "KCOS 072154Z VRB06KT 10SM TS BKN040CB BKN070 BKN100 17/13 A3017 RMK AO2 LTG DSNT ALQDS RAE19B35E49 PRESRR SLP152 OCNL LTGIGCG NW-NE TS NW-NE MOV E P0002 T01670133", "KCOT 072153Z AUTO 13010G18KT 10SM FEW040 SCT049 SCT060 34/23 A2986 RMK AO2 SLP102 T03390233", "KCOU 072154Z 05006KT 10SM BKN055 OVC070 29/18 A2989 RMK AO2 SLP113 T02890183", "KCPC 072145Z AUTO 22003KT 4SM HZ CLR 33/22 A2980 RMK AO2 T03300220", "KCPK 072155Z AUTO 13003KT 10SM VCTS CLR 28/24 A2981 RMK AO2 LTG DSNT SW T02820238", "KCPP 072155Z AUTO 00000KT 10SM -RA SCT060 SCT080 BKN120 23/21 A2989 RMK AO2 LTG DSNT SE AND W", "KCPR 072153Z 04007KT 10SM FEW060 22/07 A3011 RMK AO2 SLP148 T02220067", "KCPT 072155Z AUTO 16013G18KT 7SM CLR 35/19 A2988 RMK A01", "KCPU 072155Z AUTO 35004KT 10SM CLR 29/10 A2985 RMK AO2 T02940098", "KCPW 072155Z AUTO 26015G30KT 220V280 10SM SCT090 17/M02 A3054 RMK AO2 LTG DSNT E", "KCQB 072155Z AUTO 12006KT 10SM CLR 25/21 A2992 RMK AO2 T02490213", "KCQC 072153Z AUTO 29013G25KT 10SM CLR 31/02 A3013 RMK AO2 PK WND 29031/2128 SLP079 T03110017", "KCQF 072155Z AUTO 36004KT 10SM SCT038 BKN050 BKN070 28/21 A2994 RMK AO2", "KCQM 072157Z AUTO 24006KT 10SM SCT070 17/13 A2991 RMK AO2 LTG DSNT NE", "KCQT 072147Z AUTO 26006KT 10SM CLR 23/14 A2985 RMK AO2 SLP105 T02280139", "KCQW 072155Z AUTO 19006KT 10SM BKN075 25/23 A2984 RMK AO2 LTG DSNT ALQDS", "KCQX 072152Z AUTO VRB05KT 2SM HZ OVC002 22/18 A2988 RMK AO2 VIS 1 1/4V2 1/2 SLP119 T02170183", "KCRE 072153Z 19010KT 10SM CLR 29/25 A2980 RMK AO1 LTG DSNT SW AND W SLP091 T02940250", "KCRG 072201Z 19010G19KT 10SM VCTS CLR 25/23 A2988 RMK AO2 LTG DSNT ALQDS TSE2155 T02500233", "KCRP 072151Z 16015G23KT 10SM FEW024 SCT038 BKN100 BKN180 BKN250 33/25 A2989 RMK AO2 LTG DSNT SW SLP121 CB DSNT SW-W MOV NW T03330250", "KCRQ 072153Z 24008KT 10SM CLR 19/12 A2985 RMK AO2 SLP105 T01940122", "KCRS 072153Z AUTO 17012KT 10SM SCT050 34/21 A2990 RMK AO2 SLP119 T03440211", "KCRW 072154Z 32007KT 280V350 10SM SCT045 SCT090 BKN200 29/19 A2990 RMK AO2 SLP115 T02940189", "KCRX 072155Z AUTO 13005KT 10SM FEW044 SCT065 23/22 A2995 RMK AO2 LTG DSNT E-S P0049", "KCSG 072158Z 02006KT 10SM FEW021 SCT070 26/22 A2989 RMK AO2 LTG DSNT E AND SW AND W T02560217", "KCSM 072153Z 13012KT 10SM FEW042 31/22 A2989 RMK AO2 SLP095 T03060222", "KCSQ 072155Z AUTO 06009KT 10SM OVC016 19/19 A2994 RMK AO2", "KCSV 072153Z AUTO 03007KT 10SM FEW042 29/19 A2997 RMK AO2 SLP125 T02890189", "KCTB 072156Z AUTO 01009KT 10SM TS OVC100 19/10 A3005 RMK AO2 RAB01E51 TSB11E26B48 SLP157 P0039 T01940100", "KCTJ 072155Z AUTO 31005KT 10SM CLR 29/22 A2994 RMK AO2 LTG DSNT SE T02910217", "KCTY 072155Z AUTO 25012KT 10SM SCT029 32/24 A2991 RMK AO2 LTG DSNT NW THRU E", "KCTZ 072145Z AUTO 00000KT 10SM CLR 33/25 A2980 RMK AO2 T03250252", "KCUB 072200Z AUTO 23007KT 10SM TS FEW035 SCT060 BKN080 25/22 A2984 RMK AO2 LTG DSNT ALQDS TSB2154 T02500222", "KCUH 072155Z AUTO 00000KT 10SM SCT100 SCT120 25/20 A2988 RMK AO2 T02500204", "KCUL 072155Z AUTO 00000KT 10SM CLR 31/19 A2992 RMK AO2 T03050188", "KCUT 072153Z AUTO 03007G15KT 10SM SCT065 21/06 A3013 RMK AO2 SLP148 T02110056", "KCVB 072155Z AUTO 17008G16KT 10SM SCT038 SCT044 BKN060 33/20 A2992 RMK AO2 T03310199", "KCVC 072155Z AUTO 00000KT 10SM -VCTSRA SCT110 22/22 A2989 RMK AO2 LTG DSNT SE AND W", "KCVG 072152Z 28004KT 10SM FEW300 30/16 A2991 RMK AO2 SLP118 T03000156", "KCVH 072155Z AUTO 26016KT 10SM CLR 23/12 A2990 RMK A01", "KCVN 072159Z AUTO 15011KT 10SM -TSRA FEW031 SCT065 BKN090 23/17 A2995 RMK AO2 WSHFT 2139 LTG DSNT ALQDS P0000", "KCVO 072156Z AUTO VRB03KT 10SM CLR 23/12 A2991 RMK AO2 SLP129 T02330122", "KCVS 072155Z 20007KT 10SM BKN130 26/12 A2997 RMK AO2A PK WND 26044/2059 LTG DSNT NE AND SE RAB2054E32DZB32E33RAB33E37 TSB2050E35 SLP089 P0001 T02620123 $", "KCVX 072155Z AUTO 31004KT 10SM CLR 23/04 A2997 RMK AO2 T02260038", "KCWA 072147Z 32004KT 10SM SCT020 23/09 A2997", "KCWC 072155Z AUTO 17019G28KT 10SM CLR 35/19 A2983 RMK AO2 T03470192", "KCWF 072145Z 12006KT 10SM BKN035 27/22 A2996 RMK RAB 41", "KCWI 072156Z AUTO 34008KT 10SM -RA SCT060 OVC075 18/16 A2998 RMK AO2 SLP153 P0003 T01780156", "KCWN 072155Z AUTO 33007KT 10SM VCTS OVC028 18/13 A3017 RMK AO2 SLP051 T01760127 $", "KCWV 072155Z AUTO 30005KT 10SM CLR 36/20 A2982 RMK AO2 LTG DSNT NW THRU NE T03600195", "KCXE 072155Z AUTO 35003KT 10SM SCT050 SCT070 SCT080 32/22 A2982 RMK AO1 T03210216", "KCXO 072153Z 21010KT 10SM SCT042 SCT075 33/22 A2993 RMK AO2 SLP132 T03330222", "KCXP 072155Z AUTO 24010G16KT 10SM CLR 30/02 A2994 RMK AO2", "KCXU 072155Z AUTO 22009KT 10SM SCT044 SCT050 32/25 A2986 RMK AO1 T03220246", "KCXW 072155Z AUTO 20003KT 10SM CLR 31/25 A2988 RMK A01", "KCXY 072203Z 08006KT 3SM -TSRA FEW011 BKN035 OVC050 26/21 A2985 RMK AO2 LTG DSNT NW-NE TS OVHD MOV E P0003 T02610206", "KCYD 072127Z AUTO 12010KT 7SM HZ CLR 27/23 A3001 RMK A02 LTG DSNT W T02730234", "KCYS 072153Z AUTO 08008KT 10SM -RA SCT060 BKN080 BKN100 16/10 A3016 RMK AO2 LTG DSNT S AND SW RAB11 SLP157 P0001 T01560100", "KCZL 072155Z AUTO 01005KT 10SM 32/21 A2990 RMK AO2", "KCZT 072155Z AUTO 10SM SCT036 SCT046 BKN065 33/23 A2985 RMK AO2", "KD07 072156Z AUTO 08007KT 24/13 A2999 RMK AO1 SLP147 T02390133", "KD09 072155Z AUTO 36008KT 340V040 10SM FEW060 FEW070 21/09 A3002 RMK AO2", "KD25 072155Z AUTO 22006KT 10SM BKN050 OVC060 21/12 A2995 RMK AO2 T02120122", "KD39 072155Z AUTO 20009KT 10SM CLR 24/10 A2994 RMK AO2 T02360104", "KD55 072155Z AUTO 02014G20KT 10SM CLR 20/11 A3000 RMK AO2", "KD57 072155Z AUTO 03010KT 10SM CLR 23/09 A3001 RMK AO2", "KD60 072155Z AUTO 36011KT 10SM SCT070 SCT075 SCT090 22/06 A3006 RMK AO2", "KD73 072155Z AUTO 29004KT 10SM CLR 24/24 A2990 RMK AO2 LTG DSNT SE P0001 T0239////", "KD95 072155Z AUTO 30005KT 10SM BKN060 25/10 A2996 RMK AO2 T02480102", "KDAA 072155Z AUTO 00000KT 10SM CLR 28/22 A2979 RMK AO2 SLP090 T02820219 $", "KDAB 072153Z 24003KT 10SM TSRA FEW037CB SCT075 BKN095 BKN200 26/24 A2990 RMK AO2 LTG DSNT ALQDS RAB2057 SLP122 OCNL LTGICCG SE-S TS SE-S MOV E CB DSNT W P0089 T02610244", "KDAG 072150Z AUTO 26010G22KT 230V300 10SM CLR 38/M07 A2972 RMK AO2 SLP034 T03781067", "KDAL 072153Z 18010G17KT 10SM FEW055 FEW250 34/21 A2985 RMK AO2 SLP101 T03440206", "KDAN 072153Z AUTO 29004KT 10SM CLR 31/21 A2981 RMK AO2 LTG DSNT S SLP084 T03110211", "KDAW 072151Z AUTO 13006KT 10SM CLR 28/22 A2982 RMK AO2 SLP094 T02830217", "KDAY 072156Z 35003KT 10SM FEW055 29/15 A2994 RMK AO2 SLP130 T02940150", "KDBN 072155Z AUTO 36012G25KT 325V025 10SM TS SCT048 SCT050 31/21 A2989 RMK AO2 LTG DSNT W THRU E", "KDBQ 072153Z 24004KT 7SM -RA OVC100 17/14 A2999 RMK AO2 SLP154 P0005 T01720144", "KDCA 072152Z 20005KT 10SM FEW055 FEW085 SCT140 BKN250 29/22 A2982 RMK AO2 LTG DSNT NE SLP097 T02890222", "KDCM 072135Z AUTO 22003KT 10SM VCTS CLR 26/22 A2986 RMK AO2 LTG DSNT NE THRU SW", "KDCU 072153Z AUTO 30008KT 10SM CLR 30/22 A2992 RMK AO2 LTG DSNT E AND S SLP124 T03000222", "KDCY 072155Z AUTO 29003KT 10SM CLR 28/18 A2992 RMK AO2 T02840181", "KDDC 072152Z AUTO 14009KT 9SM SCT060 BKN070 25/19 A2993 RMK AO2 SLP106 T02500189", "KDDH 072154Z AUTO 32007KT 10SM TS FEW027 SCT033 SCT075 25/20 A2988 RMK AO2 LTG DSNT NE-SE RAE02 TSB49 SLP112 P0000 T02500200", "KDEC 072154Z 21006KT 10SM BKN120 27/18 A2995 RMK AO2 SLP139 T02670178", "KDED 072130Z AUTO 16006KT 10SM SCT120 26/23 A2992 RMK AO2 LTG DSNT ALQDS T02570229", "KDEH 072155Z AUTO 00000KT 10SM SCT090 19/15 A2996 RMK AO2", "KDEN 072153Z 08011KT 10SM SCT045 BKN070 BKN130 22/13 A3011 RMK AO2 SLP128 T02170128", "KDEQ 072153Z AUTO 23005G16KT 10SM FEW040 32/22 A2988 RMK AO2 LTG DSNT N SLP112 T03170222", "KDET 072153Z 10004KT 10SM FEW070 26/12 A2994 RMK AO2 SLP136 T02560117", "KDEW 072153Z AUTO 10SM CLR 34/05 A2984 RMK AO2 SLP088 T03390050 $", "KDFI 072153Z AUTO 00000KT 10SM FEW060 SCT080 27/16 A2992 RMK AO2 SLP127 T02720156", "KDFW 072153Z 16018G25KT 10SM FEW055 FEW250 35/21 A2984 RMK AO2 SLP094 T03500206", "KDGW 072153Z AUTO 03007KT 10SM CLR 23/07 A3010 RMK AO2 SLP150 T02280072", "KDHN 072203Z 27008KT 10SM VCTS CLR 31/24 A2991 RMK AO2 LTG DSNT E-SW TSE2157 T03110244", "KDHT 072156Z AUTO 14012KT 3SM -TSRA FEW035 SCT070 BKN090 21/15 A2986 RMK AO2 LTG DSNT ALQDS PRESFR P0000 T02110150", "KDIJ 072156Z AUTO 31006KT 10SM FEW110 26/06 A3007 RMK AO2 SLP123 T02610061", "KDIK 072156Z AUTO 03008G15KT 10SM CLR 23/09 A3002 RMK AO2 SLP156 T02330089", "KDKB 072155Z AUTO 21007KT 10SM SCT048 SCT055 BKN100 25/16 A2996 RMK AO2 T02460161", "KDKK 072153Z AUTO 26009G18KT 10SM CLR 25/16 A2993 RMK AO2 SLP131 T02500161", "KDKR 072155Z AUTO 16005KT 10SM CLR 32/23 A2992 RMK AO2", "KDKX 072155Z AUTO 00000KT 10SM SCT055 32/21 A2988 RMK A01", "KDLF 072155Z AUTO 11013G18KT 10SM SCT045 33/21 A2983 RMK AO2 SLP088 T03280213 TSNO $", "KDLH 072155Z 24015G22KT 10SM BKN070 BKN090 23/09 A2991 RMK AO2 SLP128 T02330094 $", "KDLL 072155Z AUTO 00000KT 10SM BKN065 25/09 A2994 RMK AO2 T02460091", "KDLN 072153Z AUTO 03009KT 10SM CLR 25/07 A3001 RMK AO2 SLP120 T02500067", "KDLO 072155Z AUTO 33005KT 10SM CLR 31/05 A2979 RMK AO2 T03090052", "KDLP 072155Z AUTO 21004KT 10SM CLR 31/24 A2987 RMK A01", "KDLS 072153Z AUTO 32019G28KT 10SM CLR 29/12 A2972 RMK AO2 PK WND 32028/2151 SLP062 T02940122", "KDLZ 072155Z AUTO 29004KT 10SM CLR 26/15 A2994 RMK AO2", "KDMA 072155Z 33006KT 10SM CLR 41/03 A2978 RMK AO2A SLP029 T04100033 RVRNO $", "KDMH 072154Z AUTO 32/21 A2981 RMK AO1 SLP094 T03220211", "KDMN 072153Z AUTO 19009G17KT 10SM CLR 40/03 A2991 RMK AO2 SLP032 T04000033", "KDMW 072145Z AUTO 29009KT 10SM SCT045 31/22 A2985 RMK AO2", "KDNA 072155Z AUTO 21011KT 10SM CLR 40/02 A2990 RMK AO2", "KDNL 072153Z AUTO VRB04KT 10SM CLR 29/21 A2984 RMK AO2 LTG DSNT SE AND S SLP100 T02890206", "KDNN 072155Z AUTO VRB06KT 10SM CLR 31/22 A2989 RMK AO2 T03100221", "KDNS 072155Z AUTO 09008KT 2SM BR BKN013 15/15 A2996 RMK AO2 P0005", "KDNV 072155Z AUTO 24008KT 10SM BKN120 27/16 A2995 RMK AO2 T02740158", "KDOV 072155Z AUTO 13007KT 10SM FEW190 27/25 A2980 RMK AO2 LTG DSNT SW SLP095 T02660252", "KDPA 072152Z 19007KT 10SM FEW060 27/15 A2991 RMK AO2 SLP124 T02720150", "KDPL 072140Z AUTO 00000KT 7SM SCT048 31/25 A2980 RMK AO2", "KDQH 072155Z AUTO 28006KT 10SM CLR 35/20 A2986 RMK AO2 LTG DSNT ALQS T03450200", "KDRA 072153Z AUTO VRB03KT 10SM CLR 36/M02 A2979 RMK AO2 SLP032 T03611017", "KDRI 072155Z AUTO 14006KT 10SM FEW140 28/26 A2996 RMK AO2 T02760255 $", "KDRM 072155Z AUTO 24005KT 10SM CLR 24/12 A2993 RMK AO2 T02360118", "KDRO 072153Z AUTO 25024G33KT 10SM CLR 32/M01 A3007 RMK AO2 PK WND 23036/2108 SLP083 T03221006", "KDRT 072153Z AUTO 09011G17KT 10SM CLR 35/21 A2984 RMK AO2 SLP093 T03500211", "KDSF 072155Z AUTO 26005KT 9SM CLR 27/24 A2998 RMK A01", "KDSM 072154Z 09007KT 10SM OVC021 18/13 A2996 RMK AO2 SLP142 T01830128", "KDSV 072154Z AUTO 34009KT 10SM CLR 27/18 A2990 RMK AO2 SLP127 T02720178", "KDTA 072155Z AUTO 19006G09KT 10SM CLR 34/M06 A2988 RMK AO1", "KDTL 072155Z AUTO 36009KT 10SM FEW016 SCT095 20/16 A2990 RMK AO2 LTG DSNT ALQDS", "KDTN 072153Z AUTO 25006KT 10SM CLR 34/23 A2989 RMK AO2 SLP119 T03390228", "KDTO 072153Z 18019G25KT 10SM CLR 36/21 A2986 RMK AO2 PK WND 19026/2139 SLP099 T03560206", "KDTS 072153Z 26007KT 200V310 10SM TS FEW050 31/24 A2990 RMK AO2 LTG DSNT W-N TSB43 SLP123 T03110239", "KDTW 072153Z 00000KT 10SM SCT055 28/13 A2993 RMK SLPNO", "KDUA 072155Z AUTO 21008KT 10SM SCT048 35/18 A2990 RMK AO2", "KDUB 072135Z AUTO 12015G23KT 10SM SCT037 SCT048 BKN090 16/06 A3017 RMK AO2", "KDUC 072155Z AUTO 18011KT 10SM CLR 33/21 A2988 RMK AO2 T03320208", "KDUG 072156Z AUTO 10SM CLR 38/06 A2991 RMK AO2 SLP038 T03780061 TSNO", "KDUH 072155Z AUTO 07004KT 10SM SCT050 BKN070 26/16 A2993 RMK AO2 T02590159", "KDUJ 072153Z AUTO 32007KT 10SM FEW030 26/17 A2993 RMK AO2 SLP120 T02560172", "KDUX 072155Z AUTO 15009G14KT 10SM CLR 31/17 A2986 RMK AO2 T03100172", "KDVK 072150Z AUTO 00000KT 10SM CLR 29/15 A2995 RMK AO2", "KDVL 072156Z AUTO 35013KT 10SM FEW055 22/08 A2999 RMK AO2 SLP165 T02170083", "KDVN 072152Z AUTO 02004KT 10SM FEW038 SCT075 OVC095 19/16 A2997 RMK AO2 RAE45 SLP145 P0004 T01940156", "KDVO 072155Z AUTO 23015G21KT 10SM CLR 22/12 A2985 RMK AO2", "KDVP 072153Z AUTO 21004KT 10SM SCT022 SCT029 17/12 A3000 RMK AO2 T01710122", "KDVT 072153Z 00000KT 39/04 A2973 RMK AO2 SLP036 T03940039 $", "KDWA 072155Z AUTO 16007KT 10SM CLR 29/14 A2980 RMK AO2", "KDWH 072153Z 21006KT 10SM SCT100 32/24 A2993 RMK AO2 SLP131 T03220239", "KDWU 072156Z AUTO 00000KT 10SM FEW060 31/19 A2990 RMK AO2 SLP120 T03060189", "KDWX 072155Z AUTO 01005KT 10SM CLR 26/05 A3011 RMK AO2 T02580048", "KDXR 072153Z 17009KT 10SM CLR 28/22 A2985 RMK AO2 SLP102 T02830217", "KDXX 072155Z AUTO 24009KT 10SM SCT031 SCT085 24/16 A2995 RMK AO2", "KDYA 072155Z AUTO 27005KT 10SM CLR 27/22 A2991 RMK AO2 T02710222", "KDYB 072155Z AUTO VRB04KT 8SM VCTS SCT055 SCT070 31/24 A2980 RMK AO2 LTG DSNT NW-NE", "KDYL 072154Z AUTO 31003KT 10SM CLR 27/21 A2983 RMK AO2 RAE25 SLP094 P0000 T02670211", "KDYR 072156Z AUTO 25008KT 10SM CLR 31/20 A2993 RMK AO2 SLP137 T03060200 PNO $", "KDYS 072155Z AUTO 15015KT 10SM CLR 33/18 A2985 RMK AO2 SLP059 T03310176", "KDYT 072155Z AUTO 23014G22KT 10SM FEW075 25/13 A2988 RMK AO2", "KDZB 072155Z AUTO 14006KT 10SM SCT048 SCT060 33/20 A2992 RMK AO2 T03260201", "KDZJ 072155Z AUTO 31003KT 10SM CLR 29/20 A2995 RMK AO2 T02940199", "KE11 072155Z AUTO 16013G23KT 10SM CLR 36/16 A2991 RMK AO2 T03590156", "KE16 072155Z AUTO 33008KT 10SM CLR 25/10 A2990 RMK AO2 PWINO PNO", "KE38 072155Z AUTO 14013KT 10SM CLR 34/12 A3004 RMK AO2 T03410121", "KE41 072155Z AUTO 15013G19KT 10SM CLR 34/17 A2993 RMK AO2 T03430167", "KE42 072155Z AUTO 16019KT 10SM CLR 30/22 A2987 RMK AO2 T03030218", "KE77 072155Z AUTO 29013G19KT 250V310 10SM 41/03 A2990 RMK AO2", "KEAN 072150Z AUTO 03006KT 10SM CLR 25/05 A3009 RMK AO2 T02450049", "KEAR 072156Z AUTO 34009KT 10SM CLR A2993 RMK AO2 SLPNO FZRANO PNO $", "KEAT 072155Z AUTO VRB03KT 10SM CLR 35/06 A2975 RMK AO2 SLP062 T03500056", "KEAU 072156Z 26004KT 10SM BKN055 22/11 A2995 RMK AO2 SLP140 T02220111", "KEBA 072155Z AUTO 00000KT 10SM SCT055 SCT090 SCT110 28/23 A2985 RMK AO2 T02770231", "KEBG 072155Z AUTO 08013KT 10SM SCT044 31/26 A2988 RMK AO2 T03060264", "KECG 072154Z 09004KT 10SM VCTS FEW046 29/24 A2980 RMK AO2 LTG DSNT SW-NW SLP092 T02940239", "KECP 072153Z 22013G17KT 10SM SCT034 SCT041 32/24 A2988 RMK AO1 SLP129 T03170239", "KECS 072155Z AUTO 01006KT 10SM CLR 24/02 A3007 RMK AO2", "KECU 072155Z AUTO 14012KT 10SM FEW026 SCT035 SCT043 29/21 A3001 RMK AO2", "KEDC 072155Z AUTO 19008KT 10SM BKN042 BKN070 32/23 A2990 RMK AO2", "KEDE 072150Z AUTO 01005KT 10SM DZ SCT023 BKN044 OVC080 26/25 A2984 RMK AO2 T02640254", "KEDN 072155Z AUTO 28005KT 10SM SCT041 SCT050 SCT070 31/23 A2988 RMK AO2 LTG DSNT E AND S T03120233 PWINO", "KEDU 072200Z AUTO 18009KT 10SM CLR 27/14 A2980 RMK AO1", "KEDW 072155Z 28011G16KT 80SM CLR 35/M02 A2975 RMK AO2A PK WND 23029/52 SLP048 T03521025", "KEED 072156Z AUTO 21007G18KT 10SM CLR 41/M05 A2966 RMK AO2 SLP007 T04111050", "KEEN 072156Z AUTO 23004KT FEW060 28/20 A2984 RMK AO2 LTG DSNT SW-N SLP107 T02780200 PWINO $", "KEEO 072153Z AUTO 01008KT 10SM CLR 27/04 A3003 RMK AO2 SLP085 T02670044", "KEET 072153Z AUTO VRB05KT 10SM FEW049 FEW070 32/22 A2989 RMK AO2 LTG DSNT NW-E SLP115 T03220217", "KEFD 072054Z 14008KT 10SM SCT024 BKN110 32/23 A2993", "KEFK 072155Z AUTO 14003KT 10SM SCT018 SCT035 SCT043 23/21 A2989 RMK AO2 T02300206", "KEFT 072155Z AUTO 27009G15KT 10SM CLR 23/10 A2996 RMK AO2 T02270096", "KEGE 072156Z 21009G17KT 10SM SCT110 29/01 A3005 RMK AO2 SLP083 T02890011", "KEGI 072203Z AUTO 36006KT 5SM +TSRA SCT002 BKN048 OVC085 25/23 A2991 RMK AO2 TSE01TSB03 SLP128 $", "KEGT 072135Z AUTO 33003KT 7SM RA SCT028 SCT047 OVC100 20/19 A2996 RMK AO2 P0013 T02010191", "KEHA 072155Z AUTO 02007KT 10SM BKN029 BKN035 BKN055 27/21 A2998 RMK AO2 T02680207", "KEHO 072145Z AUTO 05004KT 10SM CLR 27/20 A2987 RMK AO2 T02700197", "KEHR 072156Z AUTO 19004KT 10SM CLR 30/18 A2992 RMK AO2 SLP129 T03000183", "KEIK 072155Z AUTO 02008KT 10SM SCT055 BKN075 OVC090 23/10 A3010 RMK AO2 T02340098", "KEKE 072155Z AUTO 08005KT 10SM CLR 31/25 A2989 RMK A01", "KEKM 072155Z VRB05KT 10SM BKN065 28/13 A2993 RMK AO2 T02780128 $", "KEKN 072151Z AUTO 31007KT 10SM FEW036 28/19 A2995 RMK AO2 SLP127 T02780189", "KEKO 072156Z AUTO 10SM CLR 33/03 A2989 RMK AO2 LTG DSNT S AND SW SLP057 T03280028", "KEKQ 072156Z AUTO 32005KT 10SM CLR 30/19 A2994 RMK AO2 SLP125 T03000194", "KEKS 072155Z AUTO 31011G20KT 10SM CLR 24/06 A3008 RMK AO2", "KEKX 072155Z AUTO 33003KT 10SM CLR 30/17 A2993 RMK AO2 T02980169", "KEKY 072156Z AUTO 32005KT 10SM FEW045 32/22 A2992 RMK AO2 LTG DSNT N AND NW SLP977 T03220222", "KELA 072155Z AUTO 00000KT 10SM BKN100 34/23 A2992 RMK AO2 T03350228", "KELD 072153Z AUTO 23006KT 10SM FEW039 32/24 A2990 RMK AO2 SLP122 T03170239", "KELK 072155Z AUTO 15008G16KT 9SM FEW060 31/23 A2987 RMK AO2 SLP403 T03060235 $", "KELM 072153Z AUTO 04008KT 10SM FEW029 27/21 A2988 RMK AO2 SLP110 T02670211", "KELN 072153Z AUTO 10SM CLR 36/06 A2979 RMK AO2 SLP069 T03560056", "KELO 072155Z AUTO 31005KT 10SM CLR 18/12 A2991 RMK AO2 LTG DSNT NW", "KELP 072151Z 18011G15KT 10SM SCT140 41/04 A2987 RMK AO2 SLP023 T04060044", "KELY 072153Z AUTO A2997 RMK AO2 SLPNO PWINO FZRANO $", "KELZ 072156Z AUTO 34009KT 10SM OVC090 25/17 A2996 RMK AO2 SLP132 T02500167", "KEMM 072155Z AUTO 24012KT 10SM CLR 22/03 A3014 RMK AO2 TSNO", "KEMP 072053Z AUTO 23005KT 10SM CLR 28/19 A2990 RMK AO2 SLP114 T02830189 56017", "KEMT 072145Z 20012G17KT 10SM CLR 27/12 A2982", "KEMV 072135Z AUTO 7SM +VCTSRA SCT046 BKN075 OVC110 RMK AO2 LTG DSNT S AND SW PNO", "KEND 072155Z AUTO 11013KT 10SM OVC110 27/20 A2986 RMK AO2 SLP101 T02660199 $", "KENV 072156Z AUTO 12009KT 10SM CLR 33/M01 A2985 RMK AO2 SLP058 T03331006 PNO $", "KENW 072153Z 09008KT 10SM CLR 24/13 A2994 RMK AO2 SLP138 T02390133", "KEOE 072155Z AUTO 07007KT 040V100 10SM SCT050 SCT065 28/19 A2988 RMK AO2 LTG DSNT E AND SE", "KEOK 072155Z AUTO 07006KT 10SM CLR 20/17 A2994 RMK A01", "KEPH 072153Z AUTO VRB04KT 10SM FEW120 36/05 A2975 RMK AO2 SLP062 T03560050", "KEQA 072155Z AUTO 25005KT 10SM CLR 25/20 A2993 RMK AO2", "KEQY 072153Z AUTO 21008KT 10SM VCTS -RA SCT120 24/23 A2985 RMK AO2 LTG DSNT ALQDS TSB2055E52 SLP106 P0001 T02440228", "KERI 072151Z 30008KT 10SM CLR 24/15 A2995 RMK AO2 SLP139 T02390150", "KERV 072155Z AUTO 17004KT 10SM CLR 31/21 A2995 RMK AO2 T03090208", "KERY 072155Z AUTO 19008KT 10SM CLR 23/06 A2992 RMK AO2 T02280063", "KESC 072156Z AUTO 18008KT 10SM CLR 21/11 A2995 RMK AO2 SLP143 T02110106", "KESF 072153Z AUTO 10SM CLR 36/19 A2990 RMK AO2 SLP124 T03560194", "KESN 072145Z 00000KT 10SM CLR 26/22 A2984", "KEST 072152Z AUTO 17008KT 10SM SCT017 BKN023 OVC085 17/13 A2998 RMK AO2 SLP151 T01670133", "KETB 072155Z AUTO 11006KT 10SM CLR 22/08 A2996 RMK AO2", "KETC 072140Z AUTO 00000KT 5SM BR SCT060 SCT120 25/23 A2982 RMK AO2 T02460230", "KETH 072153Z AUTO 23011G14KT 10SM SCT070 25/14 A2990 RMK AO2 LTG DSNT N AND NW", "KETN 072155Z AUTO 19013G19KT 10SM SCT050 33/19 A2988 RMK AO2 T03280192", "KEUG 072154Z 20004KT 10SM CLR 23/11 A2991 RMK AO2 SLP128 T02330111", "KEUL 072156Z AUTO 00000KT 10SM 34/07 A2978 RMK AO2 SLP059 T03390072 $", "KEVB 072152Z 11005KT 10SM FEW030 RMK AWOS OTS. T MOV SE", "KEVM 072201Z AUTO 28012G15KT 10SM BKN090 BKN110 19/12 A2993 RMK AO2", "KEVU 072155Z AUTO 16007KT 10SM SCT085 SCT100 24/19 A2989 RMK AO2 T02430193", "KEVV 072154Z 24004KT 10SM CLR 31/18 A2992 RMK AO2 SLP127 T03060183 $", "KEVW 072153Z AUTO 01015G20KT 10SM VCTS SCT090 BKN110 21/07 A3009 RMK AO2 LTG DSNT NW-NE SLP098 T02110072", "KEWB 072153Z COR 20008KT 10SM BKN019 26/22 A2986 RMK AO2 SLP110 T02560217", "KEWK 072156Z AUTO 21011KT 10SM FEW033 BKN110 24/20 A2994 RMK AO2 LTG DSNT SE-SW TSE01B32E47 SLP124 T02440200", "KEWN 072154Z 17008KT 10SM FEW037 SCT055 OVC070 32/24 A2980 RMK AO2 LTG DSNT N SLP090 T03220239", "KEWR 072151Z 12007KT 10SM FEW017 FEW040 SCT180 BKN250 28/22 A2982 RMK AO2 SLP097 T02780222", "KEXX 072150Z AUTO 00000KT 10SM CLR 28/21 A2984 RMK AO2 T02800206", "KEYE 072153Z AUTO 10SM CLR 29/16 A2992 RMK AO2 SLP125 T02940161", "KEYF 072150Z AUTO 18004KT 10SM SCT050 OVC065 33/23 A2979 RMK AO2 LTG DSNT W THRU N T03270232", "KEYW 072153Z 24008KT 10SM CLR 32/24 A2997 RMK AO2 SLP153 T03170239", "KEZF 072155Z AUTO 17004KT 10SM CLR 29/22 A2981 RMK AO2 T02900221", "KEZM 072155Z AUTO 26005KT 10SM CLR 33/21 A2984 RMK AO2 LTG DSNT NW THRU E", "KEZP 072155Z AUTO 13007KT 9SM BKN021 BKN028 BKN033 30/25 A2996 RMK A01", "KEZS 072155Z AUTO 00000KT 10SM CLR 25/10 A2995 RMK AO2 T02490101", "KEZZ 072155Z AUTO 12011KT 10SM CLR 23/18 A2991 RMK AO2 T02350180", "KF00 072155Z AUTO 19008KT 10SM CLR 33/23 A2988 RMK AO2 T03350228", "KF05 072155Z AUTO 17020G23KT 10SM CLR 36/20 A2982 RMK AO2 T03590198", "KF44 072155Z AUTO 19005G14KT 10SM CLR 32/22 A2989 RMK AO2", "KF46 072155Z AUTO 21012G20KT 10SM CLR 34/21 A2986 RMK AO2 T03400213", "KF70 072155Z AUTO 23010G14KT 10SM CLR 28/05 A2984 RMK AO2", "KFAF 072155Z 08004KT 10SM BKN040 29/24 A2979 RMK AO2A LTG DSNT S SLP091 T02940238 $", "KFAM 072156Z AUTO 15008KT 10SM FEW043 30/19 A2992 RMK AO2 SLP133 T03000194", "KFAR 072153Z AUTO 35013KT 10SM FEW044 BKN060 24/16 A2988 RMK AO2 LTG DSNT SE AND S TSE06 SLP118 T02440161", "KFAT 072153Z 27008KT 10SM CLR 32/10 A2980 RMK AO2 SLP086 MTNS OBSC HZ DSNT N-E-S T03220100", "KFAY 072153Z 30007KT 10SM CLR 30/24 A2979 RMK AO2 LTG DSNT ALQDS SLP082 T03000244", "KFBG 072155Z AUTO 28006KT 10SM CLR 30/22 A2978 RMK AO2 LTG DSNT S SLP085 T02970224", "KFBL 072155Z AUTO 22005KT 10SM CLR 21/11 A2996 RMK AO2", "KFBR 072155Z AUTO 12004KT 10SM CLR 25/02 A3012 RMK AO2 LTG DSNT NW T02520015", "KFCI 072156Z AUTO 10SM FEW100 29/21 RMK AO2 LTG DSNT NW-E SLPNO T02940211 PNO $", "KFCM 072153Z 22006KT 10SM CLR 22/11 A2994 RMK AO2 SLP139 T02220106", "KFCS 072155Z AUTO 04010KT 10SM VCTS BKN046 OVC060 21/13 A3008 RMK AO2 SLP136 T02070129 $", "KFDK 072147Z 00000KT 10SM SCT060 SCT075 32/23 A2983", "KFDR 072153Z AUTO 17020G27KT 10SM CLR 36/20 A2980 RMK AO2 PK WND 19030/2125 SLP068 T03560200", "KFDW 072155Z AUTO 06008G22KT 2SM -TSRA BKN013 BKN023 OVC065 22/21 A2988 RMK AO1 P0077 LTG DSNT ALQS", "KFDY 072153Z AUTO VRB03KT 10SM FEW065 28/16 A2992 RMK AO2 SLP121 T02780156", "KFEP 072155Z AUTO 26008KT 10SM -RA OVC100 22/14 A2999 RMK AO2 T02240137", "KFET 072155Z AUTO 09005KT 10SM OVC013 19/17 A2992 RMK AO2 T01880170", "KFEW 072159Z AUTO 09007KT 10SM FEW080 SCT110 BKN140 16/11 A3017 RMK AO2 LTG DSNT SE-S RAE59 SLP165 $", "KFFA 072155Z AUTO 10004KT 10SM SCT023 28/23 A2981 RMK AO2 T02810230", "KFFC 072153Z AUTO 00000KT 10SM SCT100 26/22 A2991 RMK AO2 LTG DSNT NE AND E SLP123 T02610222", "KFFL 072155Z AUTO VRB04KT 10SM BKN046 BKN120 20/14 A2996 RMK A01", "KFFM 072155Z AUTO 35016G22KT 335V035 1 1/2SM +TSRA SCT007 BKN019 OVC043 17/13 A2989 RMK AO2 VIS 3/4V4 LTG DSNT ALQDS P0024", "KFFO 072155Z 01005KT 10SM FEW055 29/16 A2988 RMK AO2A SLP115 T02860158", "KFFT 072153Z AUTO 03003KT 10SM CLR 31/15 A2992 RMK AO2 SLP123 T03060150", "KFFX 072155Z AUTO 30007KT 10SM BKN050 OVC075 26/15 A2995 RMK AO2 T02610147", "KFFZ 072154Z 24008G16KT 10SM CLR 41/03 A2971 RMK AO2 SLP030 T04110028", "KFGN 072155Z AUTO 32010G19KT 10SM SCT065 BKN090 21/07 A2991 RMK AO2", "KFGX 072155Z AUTO 34003KT 10SM CLR 30/15 A2993 RMK AO2 T02950148", "KFHB 072155Z AUTO 20005KT 10SM CLR 28/27 A2985 RMK AO2 LTG DSNT S THRU W", "KFHR 072153Z AUTO 21010G15KT 10SM CLR 24/11 A2989 RMK AO2 SLP121 T02390111", "KFHU 072155Z AUTO 00000KT 10SM BKN130 OVC150 35/02 A2999 RMK AO2 SLP077 T03540016", "KFIG 072154Z AUTO 30007KT 10SM FEW055 28/19 A2991 RMK AO2 SLP117 T02780189", "KFIN 072150Z 00000KT 10SM SCT060 28/27 A2991", "KFIT 072152Z AUTO 20008KT 10SM CLR 31/18 A2984 RMK AO2 SLP102 T03060183", "KFKA 072155Z AUTO 22008G16KT 10SM -RA CLR 18/12 A2997 RMK AO2", "KFKL 072156Z AUTO VRB05KT 10SM CLR 25/15 A2996 RMK AO2 SLP137 T02500150", "KFKN 072155Z AUTO 00000KT 10SM CLR 26/24 A2983 RMK AO2 LTG DSNT SE THRU W T02570242", "KFKR 072155Z AUTO 25007KT 10SM CLR 27/17 A2993 RMK AO2", "KFKS 072155Z AUTO 30004KT 10SM CLR 23/09 A2996 RMK AO2 T02340092", "KFLD 072153Z AUTO 07004KT 10SM BKN049 OVC060 24/13 A2994 RMK AO2 SLP138 T02440133", "KFLG 072157Z AUTO 21017G27KT 10SM CLR 28/M02 A3015 RMK AO2 PK WND 23028/2145 SLP101 T02831022", "KFLL 072153Z VRB05KT 10SM TS FEW030CB SCT110 BKN170 OVC250 28/26 A2995 RMK AO2 RAB20E38 TSE18B45 SLP142 OCNL LTGICCG SW-W TS SW-W MOV NE P0000 T02780256", "KFLO 072153Z 35008KT 10SM TS FEW060 SCT075 29/23 A2981 RMK AO2 LTG DSNT N-SE RAE50 SLP093 P0032 T02890228", "KFLP 072156Z AUTO VRB04KT 7SM -TSRA SCT044 27/24 A2990 RMK AO2 LTG DSNT N AND S AND SW RAB21 SLP116 T02670239 PNO $", "KFLY 072155Z AUTO 06013G18KT 3SM VCTSRA SCT028 BKN049 OVC090 15/13 A3018 RMK AO2 LTG DSNT ALQDS T01540126", "KFME 072149Z AUTO 19006KT 10SM SCT120 29/23 A2984 RMK AO1", "KFMH 072145Z 17010KT 10SM SCT012 24/21 A2987", "KFMM 072155Z AUTO 10SM CLR 23/14 A3008 RMK AO2", "KFMN 072153Z 26019G31KT 10SM CLR 36/M04 A2996 RMK AO2 PK WND 28035/2113 SLP069 T03561039", "KFMY 072153Z 27012KT 10SM SCT044 33/23 A2992 RMK VA RWY 23 ATIS L", "KFNB 072053Z AUTO 13009KT 10SM SCT090 24/19 A2988 RMK AO2 SLP110 T02440189 58015", "KFNL 072156Z 08003KT 10SM FEW044 BKN110 19/14 A3013 RMK AO2 LTG DSNT NW-NE TSE01RAE46 SLP158 P0000 T01940139", "KFNT 072153Z 16004KT 10SM BKN060 25/12 A2996 RMK AO2 SLP140 T02500117", "KFOA 072155Z AUTO 00000KT 10SM CLR 29/11 A2994 RMK AO2", "KFOD 072156Z AUTO 04004KT 10SM FEW034 OVC050 17/12 A2999 RMK AO2 SLP167 T01670117", "KFOE 072153Z 22008KT 10SM FEW034 29/20 A2987 RMK AO2 SLP107 T02890200 $", "KFOK 072153Z 17006KT 10SM OVC009 26/23 A2987 RMK AO2 CIG 007V012 SLP112 T02560228", "KFOT 072155Z AUTO 31009KT 10SM OVC017 14/12 A2999 RMK AO1", "KFOZ 072153Z AUTO 00000KT 10SM 17/15 A2997 RMK AO2", "KFPK 072155Z AUTO 28005KT 10SM SCT065 27/11 A2994 RMK AO2 T02660112", "KFPR 072153Z 09004KT 10SM VCTS CLR 26/24 A2994 RMK AO2 LTG DSNT ALQDS RAB2057E09 TSE09B22E47 SLP138 P0001 T02560239", "KFPY 072155Z AUTO 28013G29KT 10SM -TSRA SCT031 SCT046 BKN055 25/21 A2993 RMK AO2 LTG DSNT NE E AND W T02510209", "KFQD 072145Z AUTO 00000KT 10SM CLR 26/21 A2989 RMK AO2", "KFRG 072153Z AUTO 16007KT 10SM SCT018 27/22 A2984 RMK AO2 SLP104 T02670222", "KFRH 072155Z AUTO 24003KT 10SM CLR 28/15 A2993 RMK AO1", "KFRI 072055Z AUTO 18006KT 10SM CLR 26/20 A2987 RMK AO2 SLP106 T02640197 57020 $", "KFRM 072156Z AUTO 20005KT 10SM -RA OVC095 17/14 A2998 RMK AO2 SLP157 P0000 T01670139", "KFRR 072155Z AUTO 18005KT CLR 31/22 A2983 RMK AO1", "KFSD 072156Z 13005G16KT 10SM FEW018 BKN048 BKN090 19/12 A2998 RMK AO2 RAB07E53 SLP148 P0000 T01890122", "KFSE 072155Z AUTO 36009KT 10SM VCTS SCT036 SCT042 SCT049 20/14 A2991 RMK AO2 LTG DSNT E", "KFSI 072155Z AUTO 15010G19KT 10SM FEW190 33/21 A2982 RMK AO2 SLP087 T03290214 FZRANO $", "KFSK 072155Z AUTO 22005KT 10SM CLR 29/22 A2989 RMK AO2 T02930220", "KFSM 072153Z 27008KT 10SM FEW039 33/22 A2990 RMK AO2 SLP119 T03280222", "KFST 072153Z AUTO 13017G27KT 10SM CLR 35/17 A2989 RMK AO2 PK WND 12027/2146 SLP068 T03500167", "KFSW 072155Z AUTO 00000KT 10SM 19/18 A2994 RMK AO2 P0012", "KFTK 072155Z AUTO 31003KT 10SM CLR 29/18 A2991 RMK AO2 SLP124 T02900175 $", "KFTN 072155Z AUTO 04012KT 10SM CLR 35/23 A2986 RMK A01", "KFTW 072153Z 17007G20KT 10SM CLR 36/20 A2985 RMK AO2 SLP098 T03560200", "KFTY 072153Z 15013G22KT 10SM SCT041 27/21 A2990 RMK AO2 LTG DSNT E AND SE SLP114 T02720206", "KFUL 072153Z 23007KT 10SM CLR 24/13 A2982 RMK AO2 SLP098 T02440133", "KFVE 072153Z AUTO 08003KT 10SM -RA BKN110 21/19 A2983 RMK AO2 SLP094 P0007 T02110189", "KFVX 072155Z AUTO 00000KT 10SM CLR 32/22 A2981 RMK AO2 T03160224", "KFWA 072154Z 21007KT 10SM FEW065 28/13 A2993 RMK AO2 SLP131 T02830128", "KFWB 072155Z AUTO VRB05KT 10SM CLR 31/22 A2990 RMK AO2", "KFWC 072155Z AUTO 27003KT 10SM CLR 29/15 A2992 RMK AO1 T02900153", "KFWN 072153Z AUTO 22003KT 10SM CLR 28/22 A2984 RMK AO2 SLP099 T02830222", "KFWS 072147Z 17011G17KT 10SM SCT050 36/19 A2989", "KFXE 072202Z 00000KT 10SM VCTS CLR 28/26 A2995 RMK AO2 LTG DSNT SE-W T02830256", "KFXY 072155Z AUTO 21004KT 7SM -RA SCT012 SCT026 OVC060 16/13 A2999 RMK AO2", "KFYE 072155Z AUTO FEW100 29/23 A2991 RMK A01", "KFYG 072155Z AUTO 07003KT 10SM 28/20 A2989 RMK AO2 LTG DSNT SW", "KFYJ 072155Z AUTO 00000KT 10SM SCT038 29/24 A2983 RMK AO1 T02920235", "KFYM 072150Z AUTO 34006KT 9SM SCT035 30/22 A2994 RMK A01", "KFYV 072153Z 21008KT 10SM CLR 30/22 A2993 RMK AO2 SLP122 T03000217", "KFZY 072154Z AUTO 27008KT 10SM BKN020 BKN025 26/21 A2989 RMK AO2 SLP118 T02560206", "KGAD 072156Z AUTO 30009KT 10SM VCTS CLR 28/21 A2990 RMK AO2 LTG DSNT E AND W TSE14B37E52B56 SLP121 T02830206 PNO $", "KGAF 072155Z AUTO 34011G17KT 9SM FEW055 FEW080 22/09 A2996 RMK AO2", "KGAG 072053Z AUTO A2990 RMK AO2 SLPNO 57009 PWINO", "KGAI 072156Z AUTO VRB03KT 10SM CLR 28/23 A2984 RMK AO2 LTG DSNT E SLP114 T02830228", "KGAO 072155Z AUTO 22003KT 10SM CLR 35/23 A2996 RMK AO2 T03460234", "KGBD 072156Z AUTO 13007KT 10SM OVC042 24/19 A2992 RMK AO2 SLP117 T02440189", "KGBG 072155Z AUTO 00000KT 10SM -RA SCT047 BKN070 OVC085 21/16 A2998 RMK AO2 P0001 T02140163 TSNO", "KGCC 072153Z AUTO 04011G17KT 10SM SCT100 22/08 A3009 RMK AO2 SLP157 T02220083", "KGCD 072155Z AUTO 23017G23KT 10SM CLR 31/03 A2986 RMK AO2 T03120032", "KGCK 072154Z VRB03KT 10SM OVC038 26/20 A2992 RMK AO2 SLP102 T02610200", "KGCM 072155Z AUTO VRB06KT 10SM CLR 27/24 A2986 RMK AO2", "KGCN 072154Z 22021G27KT 10SM CLR 32/M03 A3010 RMK AO2 PK WND 21034/2104 SLP087 T03171033", "KGCY 072155Z AUTO 00000KT 10SM SCT090 29/17 A2992 RMK A01", "KGDB 072155Z AUTO 21008KT 10SM SCT032 SCT041 22/15 A2997 RMK AO2 T02210152", "KGDJ 072155Z AUTO 16008G17KT 10SM CLR 35/19 A2987 RMK AO2 T03520190", "KGDV 072156Z AUTO 02012G18KT 10SM FEW075 25/07 A3006 RMK AO2 SLP167 T02500072 TSNO", "KGED 072201Z AUTO 15004KT 3SM -RA BR FEW031 BKN060 OVC095 26/23 A2982 RMK AO2 LTG DSNT SW P0001 T02560233", "KGEG 072153Z 06006KT 10SM FEW070 SCT250 32/04 A2984 RMK AO2 SLP082 T03220039", "KGEU 072150Z VRB06KT 10SM SKC 41/01 A2968", "KGEV 072145Z AUTO 00000KT 10SM SCT085 SCT090 24/18 A3001 RMK AO2 T02440177", "KGEY 072153Z AUTO 00000KT 10SM CLR 24/09 A3004 RMK AO2 LTG DSNT E SLP145 T02440089", "KGEZ 072153Z AUTO VRB03KT 10SM CLR 30/17 A2992 RMK AO2 SLP124 T03000172", "KGFA 072155Z AUTO 14015G23KT 10SM BKN090 23/10 A3003 RMK AO2 PK WND 16030/2057 LTG DSNT NW SLP158 T02300097 $", "KGFK 072153Z 01018G24KT 10SM SCT055 24/10 A2993 RMK AO2 SLP133 T02440100", "KGFL 072153Z AUTO 01005KT 4SM RA BR SCT090 OVC110 21/21 A2986 RMK AO2 LTG DSNT E AND SW TSE24 SLP110 P0015 T02060206", "KGGE 072155Z AUTO 19005KT 10SM CLR 31/24 A2981 RMK AO2 LTG DSNT W AND NW", "KGGF 072155Z AUTO 02013KT 10SM BKN060 26/12 A3000 RMK AO2", "KGGG 072153Z 19010G17KT 10SM CLR 34/21 A2988 RMK AO2 SLP110 T03390211", "KGGI 072155Z AUTO 15004KT 10SM BKN037 BKN075 OVC100 19/14 A3000 RMK AO2 P0001 T01900144", "KGGP 072155Z AUTO 00000KT 10SM SCT050 27/15 A2994 RMK AO2", "KGGW 072153Z AUTO VRB03KT 10SM SCT110 27/06 A3003 RMK AO2 SLP160 T02720061", "KGHG 072155Z AUTO 20009KT 10SM CLR 28/20 A2984 RMK AO2", "KGHW 072155Z AUTO 19009KT 10SM CLR 23/12 A2993 RMK AO2 TSNO", "KGIC 072155Z AUTO 35005KT 10SM CLR 29/06 A2989 RMK AO1", "KGIF 072153Z AUTO 27006KT 10SM -RA OVC090 27/23 A2995 RMK AO2 LTG DSNT ALQDS RAB2058 TSE11 SLP140 P0001 T02670228", "KGJT 072153Z 29007G20KT 10SM CLR 35/M02 A2987 RMK AO2 SLP032 T03501022", "KGKJ 072153Z AUTO 36007KT 10SM CLR 24/14 A2997 RMK AO2 SLP139 T02390139", "KGKT 072155Z AUTO 36005KT 10SM CLR 31/19 A2990 RMK A01", "KGKY 072153Z 16011KT 10SM CLR 34/20 A2986 RMK AO2 SLP102 T03440200", "KGLD 072053Z AUTO 02013G21KT 10SM CLR 27/17 A2998 RMK AO2 SLP109 T02670167 58005", "KGLE 072155Z AUTO 21017G22KT 10SM CLR A2985 RMK AO2 PWINO", "KGLH 072153Z AUTO 24004KT 10SM CLR 32/23 A2990 RMK AO2 SLP130 T03170228", "KGLR 072153Z AUTO VRB04KT 10SM CLR 23/06 A2997 RMK AO2 SLP147 T02280061", "KGLS 072200Z 16025G34KT 10SM FEW012 BKN019 28/24 A2994 RMK AO2 PK WND 14034/2155 T02830239", "KGLW 072155Z AUTO 29003KT 10SM CLR 30/20 A2993 RMK AO2 T03040199", "KGLY 072155Z AUTO 26006KT 10SM CLR 30/20 A2986 RMK AO2", "KGMJ 072155Z AUTO 22007KT 10SM FEW026 29/24 A2989 RMK AO2", "KGMU 072153Z 30005KT 10SM SCT035 24/22 A2989 RMK AO2 RAE49 TSE04 SLP112 P0002 T02440222", "KGNA 072156Z AUTO 27008KT 13/08 A2986 RMK AO1 SLP113 T01330083", "KGNB 072155Z AUTO 00000KT 10SM SCT110 23/02 A3017 RMK AO2 T02290017", "KGNC 072150Z AUTO 17015G26KT 10SM CLR 37/15 A2992 RMK AO2 T03650153", "KGNG 072155Z AUTO 16005KT 10SM CLR 33/03 A2986 RMK AO2", "KGNR 072156Z AUTO 00000KT 20/19 A2989 RMK AO1 SLP118 P0009 T02000194", "KGNT 072155Z AUTO 28014G24KT 10SM SCT120 32/M03 A3011 RMK AO2 T03221026", "KGNV 072153Z 20007KT 10SM CLR 32/23 A2990 RMK AO2 LTG DSNT E AND W AND NW SLP121 T03170233", "KGOK 072153Z AUTO 11007KT 10SM SCT120 24/21 A2989 RMK AO2 SLP113 T02440206", "KGON 072156Z 17005KT 2SM BR BKN002 OVC008 25/22 A2986 RMK AO2 SLP110 T02500222", "KGOO 072155Z AUTO VRB03KT 10SM CLR 28/09 A2993 RMK A01", "KGOP 072155Z AUTO 13009KT 070V170 10SM FEW055 SCT070 SCT090 35/20 A2990 RMK AO2", "KGOV 072155Z AUTO 12003KT 10SM BKN060 24/09 A3000 RMK AO2 SLP165 T02360088 $", "KGPC 072155Z AUTO 22004KT 10SM CLR 28/17 A2994 RMK AO2 T02810168", "KGPH 072155Z AUTO 11005KT 10SM CLR 25/17 A2988 RMK AO2", "KGPI 072155Z VRB03KT 10SM CLR 30/03 A2991 RMK AO2 LTG DSNT NE SLP109 T03000033", "KGPM 072150Z 17011G16KT 10SM SCT060 35/19 A2988", "KGPT 072153Z 24006KT 10SM CLR 33/25 A2991 RMK AO2 SLP127 T03280250", "KGPZ 072156Z AUTO 25003KT 9SM RA BKN060 OVC070 16/14 A2996 RMK AO2 SLP149 P0015 T01560144", "KGRB 072153Z 21005KT 10SM CLR 24/08 A2994 RMK AO2 SLP137 T02440083", "KGRD 072156Z AUTO 34008KT 10SM CLR 29/22 A2986 RMK AO2 LTG DSNT W SLP105 T02890217", "KGRF 072155Z 20008KT 10SM CLR 23/11 A2987 RMK AO2A SLP118 T02260113 $", "KGRI 072153Z 32013KT 10SM SCT045 26/16 A2991 RMK AO2 SLP119 T02610156 $", "KGRK 072155Z AUTO 12011KT 10SM BKN055 BKN075 34/19 A2989 RMK AO2 SLP109 T03410189", "KGRN 072155Z AUTO 35009KT 10SM CLR 23/11 A3003 RMK AO2 T02290113", "KGRR 072153Z 00000KT 10SM BKN080 BKN190 BKN250 26/12 A2995 RMK AO2 SLP138 T02560122", "KGRY 072155Z AUTO 10004KT 10SM FEW027 30/23 A2998 RMK A01", "KGSB 072155Z 20007KT 10SM TS FEW060 SCT100CB 34/23 A2975 RMK AO2A TSB47 SLP077 WND DATA ESTMD T03370234 $", "KGSH 072153Z AUTO 20006KT 10SM CLR 28/13 A2992 RMK AO2 SLP128 T02830133", "KGSO 072154Z 29005KT 10SM SCT040 BKN090 BKN250 28/20 A2984 RMK AO2 SLP092 OCNL LTGIC DSNT S CB DSNT SE-SW TCU DSNT ALQDS T02830200", "KGSP 072153Z 05003KT 9SM -RA BKN110 24/21 A2988 RMK AO2 LTG DSNT E RAB17 TSE24 SLP108 P0000 T02440206", "KGTB 072155Z AUTO 23007KT 10SM SCT036 SCT043 SCT050 BKN130 26/20 A2983 RMK AO2 SLP098 T02640197", "KGTF 072153Z 13019G26KT 10SM CLR 24/06 A3004 RMK AO2 PK WND 15032/2125 SLP154 T02440056", "KGTR 072156Z 11005KT 10SM CLR 29/23 A2993 RMK AO2 LTG DSNT E-SW TSE39 SLP138 T02940233", "KGTU 072156Z 14009G17KT 10SM SCT050 BKN060 OVC095 33/21 A2993 RMK AO2 SLP126 T03330211", "KGUC 072156Z AUTO 25019G27KT 10SM CLR 27/M02 A3013 RMK AO2 PK WND 23031/2104 SLP111 T02721017", "KGUL 072200Z AUTO 05004KT 7SM CLR 27/24 A2995 RMK A01", "KGUP 072153Z AUTO 25016G34KT 10SM FEW120 33/01 A3008 RMK AO2 PK WND 22034/2145 SLP002 T03330011", "KGUR 072155Z AUTO 34007KT 10SM SCT065 M A3007 RMK AO2 SLPNO ALSTG ESTMD $", "KGUS 072155Z AUTO 28005KT 10SM CLR 28/14 A2991 RMK AO2 SLP127 T02790141 $", "KGUY 072053Z AUTO 13007KT 10SM FEW037 31/23 A2988 RMK AO2 SLP069 T03060233 56025", "KGVE 072155Z AUTO 32011G20KT 290V010 10SM SCT050 SCT065 SCT095 30/22 A2983 RMK AO1 T03000219", "KGVL 072153Z AUTO 10010G19KT 10SM VCTS CLR 26/20 A2992 RMK AO2 PK WND 03031/2111 WSHFT 2109 LTG DSNT E AND SE TSB28E43 SLP116 T02610200", "KGVQ 072156Z AUTO 30009KT 10SM CLR 25/14 A2991 RMK AO2 SLP122 T02500139", "KGVT 072155Z AUTO 21017G24KT 10SM CLR 33/22 A2985 RMK AO2 TSNO T03280215", "KGVW 072205Z AUTO 15017G31KT 7SM FEW031 FEW036 SCT085 27/23 A2996 RMK A01", "KGWB 072155Z AUTO 21003KT 10SM BKN050 BKN070 27/16 A2993 RMK AO2", "KGWO 072153Z AUTO VRB03KT 10SM CLR 31/24 A2992 RMK AO2 SLP129 T03060244", "KGWR 072155Z AUTO 34009KT 10SM FEW040 FEW045 22/21 A2990 RMK A01", "KGWW 072150Z AUTO 09007G17KT 10SM OVC060 30/23 A2980 RMK AO2 T02950225", "KGXA 072155Z AUTO 28009G14KT 10SM CLR 32/01 A2982 RMK AO2 SLP061 WND DATA ESTMD T03210007", "KGXF 072155Z AUTO 24008G15KT 10SM CLR 43/04 A2966 RMK AO2 SLP028 T04320035 FZRANO $", "KGXY 072156Z AUTO 01008KT 10SM -RA FEW060 OVC100 21/13 A3011 RMK AO2 LTG DSNT N AND NW RAB50 SLP169 P0000 T02060128", "KGYB 072155Z AUTO 16008KT 10SM SCT070 32/20 A2993 RMK AO2 T03230196", "KGYF 072155Z AUTO 11009KT 10SM SCT025 SCT032 SCT039 29/26 A2991 RMK AO2 T02910255", "KGYH 072147Z 01009KT 10SM SCT120 24/22 A2988", "KGYI 072150Z 20015G19KT 10SM CLR 33/20 A2987", "KGYL 072155Z AUTO 19004KT 10SM CLR 21/12 A2995 RMK AO2 T02080116", "KGYR 072147Z 2701G15KT 10SM FEW180 42/04 A2969", "KGYY 072145Z 03007KT 10SM FEW020 24/19 A2993", "KGZH 072153Z AUTO VRB03KT 10SM VCTS FEW100 30/23 A2991 RMK AO2 LTG DSNT ALQDS SLP123 T03000228", "KGZL 072155Z AUTO 25005KT 10SM CLR 30/22 A2992 RMK AO2", "KGZN 072140Z AUTO 17013KT 10SM FEW050 33/19 A2990 RMK AO2", "KGZS 072155Z AUTO 32004KT 10SM CLR 30/23 A2993 RMK A01", "KHAE 072155Z AUTO 02004KT 10SM VCTS OVC050 23/16 A2996 RMK AO2 LTG DSNT N AND NW", "KHAF 072155Z AUTO 32011G17KT 6SM HZ OVC013 14/11 A2997 RMK AO2", "KHAI 072155Z AUTO 17004KT 10SM SCT075 29/09 A2993 RMK AO2 T02860091", "KHAO 072153Z AUTO 30006KT 10SM CLR 30/14 A2992 RMK AO2 SLP127 T03000139", "KHBG 072153Z AUTO 30011G17KT 10SM FEW050 33/21 A2992 RMK AO2 SLP129 T03330211", "KHBI 072145Z AUTO 32009KT 290V350 10SM SCT042 SCT048 SCT055 32/22 A2985 RMK AO2 T03150218", "KHBR 072153Z AUTO 17017G25KT 10SM CLR 34/22 A2985 RMK AO2 SLP087 T03390217", "KHBV 072155Z AUTO 13010KT 1 3/4SM +RA SCT011 OVC017 24/23 A2994 RMK AO2 LTG DSNT ALQS P0027 T02440234", "KHCD 072155Z AUTO 23005KT 10SM 21/12 A2997 RMK AO2 T02110116", "KHCO 072155Z AUTO 33014G20KT 10SM BKN090 21/11 A2994 RMK AO2", "KHCR 072155Z AUTO 10SM CLR 32/00 A2994 RMK AO2", "KHDC 072155Z AUTO 25006KT 10SM CLR 34/20 A2992 RMK AO2 LTG DSNT E AND SE T03360196", "KHDE 072155Z AUTO 35009KT 10SM CLR 26/17 A2993 RMK AO2 T02610165", "KHDL 072155Z AUTO 27009KT 9SM TS FEW050 32/24 A2987 RMK AO2 LTG DSNT NE AND SE", "KHDN 072156Z AUTO 32008KT 10SM FEW100 26/03 A3007 RMK AO2 LTG DSNT SE SLP103 T02610033", "KHDO 072151Z AUTO 13010KT 10SM BKN060 BKN100 32/23 A2991 RMK AO2 SLP110 T03170233", "KHEF 072156Z 13005KT 10SM CLR 29/23 A2982 RMK AO2 SLP102 T02940228", "KHEG 072155Z AUTO 18009KT 10SM TS FEW045 FEW055 FEW095 26/24 A2989 RMK AO2 LTG DSNT ALQDS", "KHEI 072153Z AUTO 03011KT 10SM SCT048 SCT060 24/12 A3003 RMK AO2 SLP157 T02440122", "KHEQ 072155Z AUTO 04009KT 10SM SCT055 27/12 A3002 RMK AO2", "KHEY 072155Z AUTO 31005KT 10SM CLR 31/25 A2985 RMK AO2 LTG DSNT SE AND SW AND NW SLP107 T03100248", "KHEZ 072156Z AUTO 35005KT 10SM CLR 32/23 A2994 RMK AO2 SLP135 T03220228", "KHFD 072153Z 19008KT 10SM FEW039 29/21 A2982 RMK AO2 SLP098 T02940211", "KHFF 072155Z AUTO 25007KT 10SM FEW055 FEW090 26/24 A2981 RMK AO2 LTG DSNT NE-SE AND W RAE18RAB25E51 SLP094 P0000 T02580244", "KHGR 072153Z 29011KT 10SM CLR 32/20 A2983 RMK AO2 SLP103 T03170200", "KHHF 072155Z AUTO 16013G18KT 10SM SCT037 SCT044 31/22 A2986 RMK AO2 T03100216", "KHHG 072155Z AUTO 21005KT 10SM CLR 27/15 A2993 RMK AO2 T02730154", "KHHR 072153Z 26012G17KT 10SM CLR 24/13 A2985 RMK AO2 SLP108 T02390128", "KHHW 072157Z AUTO 19005KT 10SM 31/22 A2990 RMK AO2", "KHIB 072153Z AUTO 28008KT 8SM -RA FEW060 SCT070 OVC085 16/13 A2993 RMK AO2 RAB20 SLP139 P0000 T01560133", "KHIE 072152Z AUTO 00000KT 3SM -RA BR SCT090 OVC110 20/19 A2991 RMK AO2 LTG DSNT E-S TSE25 SLP127 P0014 T02000194", "KHIF 072155Z AUTO 00000KT 10SM CLR 32/M01 A2987 RMK AO2 SLP047 T03151014", "KHII 072155Z AUTO 20015G20KT 10SM 40/M10 A2966 RMK AO2", "KHIO 072153Z 32006KT 10SM CLR 23/12 A2990 RMK AO2 SLP123 T02280122", "KHJH 072155Z AUTO 10004KT 10SM SCT015 SCT028 OVC050 22/21 A2990 RMK AO2 LTG DSNT E AND SE P0028 T02200209", "KHJO 072153Z AUTO 31007KT 10SM CLR 33/09 A2979 RMK AO2 SLP089 T03330094", "KHKA 072153Z AUTO 24003KT 10SM CLR 30/21 A2990 RMK AO2 SLP123 T03000211 $", "KHKS 072153Z 30009KT 10SM FEW039 31/23 A2992 RMK AO2 SLP123 T03060233", "KHKY 072153Z AUTO 33004KT 10SM CLR 26/22 A2988 RMK AO2 SLP095 T02560222 $", "KHLB 072155Z AUTO 00000KT 10SM CLR 28/16 A2993 RMK A01", "KHLC 072153Z AUTO 10SM FEW043 28/18 A2992 RMK AO2 SLP109 T02780183 $", "KHLG 072153Z 33007KT 10SM FEW047 SCT060 26/18 A2992 RMK AO2 SLP124 T02610178", "KHLN 072153Z 07008G17KT 10SM CLR 28/05 A2999 RMK AO2 SLP140 T02830050", "KHLR 072155Z AUTO 16007KT 9SM FEW060 34/20 A2990 RMK AO2 SLP113 T03420198", "KHLX 072155Z AUTO 33005KT 10SM SCT041 26/18 A2996 RMK AO2 T02620179", "KHMN 072155Z AUTO 22013G18KT 10SM CLR 41/04 A2989 RMK AO2 SLP033 T04070044 $", "KHMP 072155Z AUTO 03003KT 10SM SCT034 SCT070 BKN120 24/23 A2995 RMK AO2 LTG DSNT NE AND SE T02370229", "KHMT 072155Z AUTO 19011G16KT 10SM CLR A2982 RMK AO2", "KHMZ 072155Z AUTO 35008KT 10SM SCT045 SCT050 SCT060 27/20 A2988 RMK AO2 T02700195", "KHNB 072156Z AUTO 28006KT 10SM CLR 30/18 A2992 RMK AO2 SLP128 T03000178", "KHND 072156Z 15009KT 10SM CLR 39/01 A2975 RMK AO2 SLP052 T03890006", "KHNR 072155Z AUTO 08008KT 10SM SCT012 BKN017 BKN055 17/17 A2994 RMK A01", "KHNZ 072150Z AUTO 00000KT 10SM SCT049 32/19 A2982 RMK AO2 T03150192", "KHOB 072150Z 14018G25KT 10SM SKC 36/13 A2988", "KHOE 072155Z AUTO 25009KT 10SM SCT055 35/20 A2984 RMK AO2 LTG DSNT SE AND SW T03470208", "KHON 072155Z AUTO 18006KT 10SM CLR 21/14 A2997 RMK AO2 SLP145 T02110144", "KHOP 072155Z AUTO 24006KT 10SM CLR 32/17 A2990 RMK AO2 SLP121 T03200174", "KHOT 072153Z AUTO 21004KT 10SM CLR 31/24 A2991 RMK AO2 SLP121 T03110239", "KHOU 072153Z 18010KT 10SM SCT035TCU SCT110 BKN250 33/23 A2992 RMK AO2 SLP134 TCU E SHRA DSNT NW-N T03330228", "KHPN 072156Z 13005KT 10SM CLR 27/22 A2983 RMK AO2 SLP095 T02720217", "KHPT 072155Z AUTO 02006KT 10SM OVC065 17/11 A2999 RMK AO2", "KHQG 072155Z AUTO 03006KT 10SM BKN030 BKN042 OVC065 27/21 A2993 RMK AO2 T02680206 PWINO", "KHQG 072155Z AUTO 03006KT 10SM BKN030 BKN042 OVC065 27/21 A2993 RMK AO2 T02680206 PWINO", "KHQM 072153Z AUTO 26012KT 10SM OVC023 17/12 A2996 RMK AO2 SLP149 T01670117", "KHQU 072155Z AUTO 19003KT 10SM CLR 27/22 A2986 RMK AO2 LTG DSNT S AND SW T02710221", "KHQZ 072150Z 17015G21KT 10SM CLR 34/20 A2986", "KHRF 072200Z AUTO 30006KT 10SM CLR 28/10 A2991 RMK AO2 Hamilton ", "KHRI 072153Z AUTO 35008KT 10SM CLR 37/08 A2971 RMK AO2 SLP054 T03720083", "KHRJ 072145Z AUTO 23011KT 10SM BKN080 33/23 A2980 RMK AO2 T03290234", "KHRL 072152Z 12011KT 10SM SCT039 BKN046 OVC055 31/26 A2986 RMK AO2 RAB24E33 SLP111 P0000 T03110256", "KHRO 072153Z AUTO 00000KT 10SM FEW043 SCT060 BKN070 31/21 A2992 RMK AO2 LTG DSNT E AND SE SLP114 T03110206", "KHRT 072155Z 24010KT 10SM TS SCT020 BKN150 30/24 A2989 RMK AO2A TSB52 SLP123 T02960240 $", "KHRX 072155Z AUTO 18019G26KT 10SM CLR 33/16 A2987 RMK AO2 T03250161 TSNO", "KHSA 072147Z 22005KT 10SM SCT050 31/24 A2992 VCTS", "KHSB 072155Z AUTO 21006KT 10SM CLR 30/20 A2992 RMK AO2 T03040203", "KHSD 072155Z AUTO 09009KT 070V130 10SM 28/20 A2990 RMK A01", "KHSE 072151Z AUTO VRB06KT 10SM CLR 26/25 A2981 RMK AO2 SLP095 T02610250", "KHSG 072155Z AUTO 34007KT 10SM VCTS SCT070 OVC100 18/08 A3012 RMK AO2 LTG DSNT S THRU NW T01820082", "KHSI 072153Z AUTO 35012KT 10SM SCT028 27/19 A2991 RMK AO2 SLP114 T02670189", "KHSP 072155Z AUTO 28008KT 10SM CLR 25/16 A3005 RMK AO2 T02450163", "KHST 072158Z AUTO 24009KT 10SM CLR 34/20 A2994 RMK AO2 LTG DSNT N DZE58 SLP142", "KHSV 072153Z 32007KT 10SM FEW045 BKN150 31/22 A2991 RMK AO2 LTG DSNT E-SW SLP118 T03060222 $", "KHTH 072155Z AUTO 33012KT 10SM CLR 34/03 A2983 RMK A01", "KHTL 072153Z AUTO VRB05KT 10SM CLR 24/09 A2996 RMK AO2 SLP146 T02390094", "KHTS 072151Z 27005KT 10SM BKN065 32/15 A2990 RMK AO2 SLP115 T03170150", "KHUA 072155Z AUTO 01004KT 10SM FEW045 BKN140 31/23 A2990 RMK AO2 LTG DSNT SW-W SLP119 T03120227", "KHUF 072153Z 24007KT 10SM FEW120 28/18 A2994 RMK AO2 SLP133 T02830183", "KHUL 072155Z AUTO 00000KT 1 3/4SM -TSRA BR SCT060 OVC075 22/20 A2983 RMK AO2 LTG DSNT ALQDS TSB55 P0002 T02170200 $", "KHUM 072150Z 27005KT 7SM SCT065 32/26 A2995", "KHUT 072152Z 17010KT 10SM OVC065 23/19 A2993 RMK AO2 LTG DSNT SE AND S RAB2057E12 TSB03E12 SLP116 P0006 T02330194", "KHVC 072155Z AUTO 28005KT 10SM CLR 31/18 A2991 RMK AO2", "KHVE 072155Z AUTO 20005KT 10SM CLR 36/M05 A2986 RMK AO2", "KHVN 072153Z 12008KT 10SM CLR 27/23 A2984 RMK AO2 SLP105 T02720228", "KHVR 072153Z AUTO 17015G21KT 10SM CLR 28/08 A3002 RMK AO2 SLP151 T02780078", "KHVS 072155Z AUTO VRB03KT 10SM FEW095 26/24 A2983 RMK AO2 LTG DSNT ALQDS P0001", "KHWD 072154Z 26015G20KT 10SM BKN013 17/12 A2994 RMK AO2 SLP147 T01670117", "KHWO 072153Z 23007KT 10SM TSRA FEW070 SCT090 OVC110 27/24 A2998 RMK AO2 LTG DSNT SE-W RAB10 TSE24B27 SLP153 P0003 T02670244", "KHWV 072204Z AUTO 15005KT 10SM BKN017 26/21 A2985 RMK AO2 T02610211", "KHWY 072155Z AUTO 14003KT 10SM SCT055 30/22 A2982 RMK AO2 LTG DSNT SW T02980217", "KHYA 072156Z 17005KT 9SM SCT004 SCT011 21/21 A2986 RMK AO2 SLP112 T02110206", "KHYI 072156Z 16011KT 10SM FEW042 BKN095 31/23 A2992 RMK AO2 SLP123 T03110228", "KHYR 072153Z AUTO VRB05KT 10SM SCT080 BKN090 23/11 A2996 RMK AO2 SLP146 T02280111", "KHYS 072156Z AUTO 17006KT 10SM OVC040 26/19 A2992 RMK AO2 SLP117 T02560189 $", "KHYW 072155Z AUTO 19004KT 10SM -TSRA 27/25 A2980 RMK AO2 LTG DSNT ALQDS", "KHYX 072155Z AUTO 28007KT 10SM BKN060 25/14 A2995 RMK AO2 T02500140", "KHZD 072155Z AUTO 00000KT 10SM FEW100 31/19 A2992 RMK A01", "KHZE 072155Z AUTO 02014KT 10SM FEW065 24/09 A3003 RMK AO2", "KHZL 072155Z AUTO 34005KT 3SM /VCTSRA SCT024 BKN032 OVC060 22/21 A2995 RMK AO2 LTG DSNT ALQS P0007", "KHZX 072155Z AUTO 21009G14KT 10SM SCT120 23/10 A2994 RMK AO2", "KHZY 072153Z AUTO 34005KT 10SM CLR 24/14 A2998 RMK AO2 SLP146 T02390139", "KI16 072155Z AUTO 10SM CLR 28/21 A3000 RMK AO2 T02790209 PNO", "KI19 072155Z AUTO 00000KT 10SM CLR 29/16 A2991 RMK AO2", "KI23 072155Z AUTO 00000KT 10SM CLR 27/18 A2992 RMK AO1", "KI35 072155Z AUTO 00000KT 10SM CLR 31/18 A2994 RMK AO2 T03050184", "KI63 072155Z AUTO 34003KT 10SM BKN050 OVC070 23/17 A2997 RMK AO2 LTG DSNT W T02250170", "KI67 072155Z AUTO 05004KT 10SM CLR 30/13 A2990 RMK AO1", "KI68 072155Z AUTO 00000KT 10SM CLR 29/15 A2991 RMK AO2", "KI69 072156Z AUTO 05003KT 10SM CLR 30/14 A2992 RMK AO1 T02990144", "KI74 072155Z AUTO 00000KT 10SM SCT050 SCT065 27/18 A2994 RMK AO2", "KI75 072155Z AUTO 07006KT 7SM OVC017 20/17 A2994 RMK AO2 T01950166", "KI95 072155Z AUTO VRB06KT 9SM CLR 26/17 A2993 RMK A01", "KIAB 072201Z AUTO 24006KT 10SM VCTS -RA FEW041 BKN100 BKN120 21/19 A2990 RMK AO2 DZE2155RAB2155 TSE01 SLP118 $", "KIAD 072152Z 17003KT 10SM FEW050 SCT080 SCT130 BKN150 BKN250 30/22 A2982 RMK AO2 SLP094 TCU DSNT SW-NW T03000222", "KIAG 072153Z 33012KT 10SM CLR 27/13 A2990 RMK AO2 SLP117 T02670133", "KIAH 072153Z VRB04KT 10SM SCT035TCU BKN100 BKN250 32/23 A2992 RMK AO2 SLP129 TCU AND VCSH E-SE AND SW T03220228", "KIBM 072155Z AUTO 36011KT 10SM CLR 21/11 A3011 RMK AO2 T02110107", "KICL 072155Z AUTO 05005KT 10SM SCT020 BKN045 OVC065 22/19 A2992 RMK AO2", "KICR 072153Z AUTO 06006KT 10SM CLR 22/14 A2997 RMK AO2 SLP138 T02220139", "KICT 072053Z 22011KT 10SM -TSRA SCT040CB SCT080 BKN120 21/19 A2991 RMK AO2 LTG DSNT ALQDS RAB1957 SLP117 FRQ LGTICCG ALQDS TS ALQDS MOV SE P0003 60003 T02110189 56012", "KIDA 072153Z 00000KT 10SM CLR 29/03 A2995 RMK AO2 LTG DSNT SE SLP100 T02890033", "KIDI 072155Z AUTO 33008KT 10SM SCT033 BKN040 BKN055 27/20 A2995 RMK A01", "KIDP 072155Z AUTO 33006KT 10SM CLR 25/22 A2990 RMK AO2 T02510222", "KIEN 072152Z AUTO 36006KT 10SM SCT055 24/11 A3002 RMK AO2 SLP143 T02440106", "KIER 072155Z AUTO 31005KT 10SM CLR 35/21 A2991 RMK AO2 T03480205", "KIFA 072155Z AUTO 03004KT 10SM -RA SCT044 OVC060 19/13 A2999 RMK AO2 T01860134", "KIFP 072152Z 20012KT 10SM CLR 40/M03 A2964", "KIGM 072151Z AUTO 23019G28KT 10SM CLR 37/M17 A2986 RMK AO2 PK WND 22033/2103 SLP033 T03671172", "KIGQ 072155Z AUTO 03007KT 10SM SCT041 BKN060 25/17 A2993 RMK AO2 T02530173", "KIIB 072155Z AUTO 00000KT 10SM BKN044 OVC070 19/13 A2999 RMK AO2 T01940128", "KIJD 072152Z AUTO 21008KT 10SM CLR 28/20 A2985 RMK AO2 SLP104 T02830200", "KIJX 072150Z AUTO 27003KT 10SM SCT050 BKN075 BKN110 26/18 A2995 RMK AO2 T02550178", "KIKG 072155Z AUTO 16005KT 7SM -RA SCT055 BKN070 OVC120 24/23 A2993 RMK AO2 P0008 T02360226", "KIKK 072155Z AUTO 26010KT 10SM CLR 27/14 A2995 RMK AO2 T02660140 PWINO", "KIKT 072200Z AUTO 23007KT 120V240 8SM CLR 28/25 A2998 RMK A01 P0001", "KIKV 072155Z AUTO 10007KT 9SM FEW030 SCT036 BKN090 18/14 A2996 RMK AO2", "KIKW 072155Z AUTO 10003KT 10SM OVC065 25/11 A2994 RMK AO2 T02500105", "KILE 072156Z AUTO 17012G16KT 10SM FEW085 34/21 A2990 RMK AO2 SLP111 T03440206", "KILG 072151Z AUTO 15013KT 10SM CLR 29/22 A2982 RMK AO2 SLP096 T02940217", "KILM 072153Z 17009KT 10SM CLR 32/24 A2980 RMK AO2 LTG DSNT W SLP089 T03170244", "KILN 072154Z AUTO 29005KT 10SM CLR 28/16 A2993 RMK AO2 SLP125 T02780161", "KIML 072153Z AUTO 02007KT 10SM FEW060 27/13 A2999 RMK AO2 SLP127 T02670133", "KIMM 072155Z AUTO 16013G25KT 10SM TS BKN041 BKN050 BKN065 40/35 A2993 RMK AO2 LTG DSNT ALQDS", "KIMS 072155Z AUTO 00000KT 10SM CLR 30/16 A2994 RMK AO2", "KIMT 072154Z AUTO 18007KT 10SM FEW065 24/11 A2993 RMK AO2 SLP135 T02390106", "KIND 072154Z VRB05KT 10SM FEW055 SCT250 28/15 A2993 RMK AO2 SLP127 T02830150", "KINF 072155Z AUTO 27005KT 7SM SCT033 SCT045 SCT090 32/25 A2991 RMK AO2 LTG DSNT N THRU SE", "KINJ 072155Z AUTO 15012G18KT 10SM SCT055 36/21 A2988 RMK AO2 T03590212", "KINK 072153Z AUTO A2985 RMK AO2 SLPNO PWINO PNO $", "KINL 072154Z AUTO 25008KT 10SM SCT028 BKN040 BKN050 21/14 A2988 RMK AO2 LTG DSNT SW RAE03 TSE04 SLP119 P0000 T02060139", "KINS 072155Z AUTO 05009G17KT 10SM CLR 36/M05 A2977 RMK AO2 SLP029 T03571055 $", "KINT 072154Z 00000KT 10SM VCTS CLR 29/19 A2986 RMK AO2 LTG DSNT E AND SE SLP098 T02940189", "KINW 072156Z AUTO 25018G31KT 10SM CLR 37/01 A2996 RMK AO2 PK WND 23032/2132 SLP057 T03670006", "KIOB 072155Z AUTO 00000KT 10SM CLR 30/15 A2995 RMK AO2 PWINO", "KIOW 072152Z AUTO 31005KT 10SM FEW043 SCT055 OVC110 19/15 A2998 RMK AO2 RAE43 SLP151 P0000 T01940150", "KIPJ 072145Z AUTO 00000KT 10SM CLR 26/20 A2987 RMK AO2 T02610195", "KIPL 072153Z AUTO 28005KT 10SM CLR 41/M06 A2961 RMK AO2 SLP028 T04111056", "KIPT 072154Z 00000KT 10SM TS FEW019 SCT034 OVC043 25/20 A2985 RMK AO2 LTG DSNT ALQDS RAB16E25 TSB14E29B45E53 SLP106 P0000 T02500200", "KIRK 072155Z AUTO 10008KT 10SM 19/16 A2993 RMK AO2 SLP137 T01940161 $", "KIRS 072155Z AUTO 25006KT 10SM SCT070 28/11 A2992 RMK AO2 T02760105", "KISM 072156Z 19004KT 10SM -RA CLR 26/24 A2994 RMK AO2 LTG DSNT ALQDS TSE44RAE07B40 SLP139 T02560239 PNO $", "KISO 072156Z 91010616KT 7SM SCT049 BKN060 28/22 A2981", "KISP 072156Z 17008KT 10SM SCT016 BKN250 26/22 A2984 RMK AO2 SLP102 T02610217", "KISQ 072155Z AUTO 19009KT 10SM CLR 21/12 A2994 RMK AO2 T02100115", "KISW 072154Z AUTO 10005KT 10SM CLR 24/07 A2995 RMK AO2 SLP141 T02440072", "KITH 072156Z 34006KT 10SM BKN018 OVC031 24/20 A2991 RMK AO2 SLP122 T02390200", "KITR 072153Z AUTO 02014KT 10SM CLR 26/13 A3002 RMK AO2 SLP113 T02610133", "KIWA 072152Z 27008KT 10SM CLR 41/02 A2972", "KIWD 072156Z AUTO 24010KT 10SM CLR 23/12 A2993 RMK AO2 SLP137 T02280117", "KIWI 072153Z AUTO 16006KT 10SM CLR 24/19 A2988 RMK AO2 SLP117 T02390189", "KIXD 072153Z 20008G16KT 10SM FEW037 28/20 A2988 RMK AO2 SLP109 T02780200", "KIYA 072155Z AUTO 21005KT 10SM SCT043 BKN095 OVC120 27/19 A2995 RMK AO2 T02670194", "KIZA 072155Z AUTO 27013KT 10SM CLR 22/14 A2986 RMK AO2", "KIZG 072154Z AUTO 00000KT 10SM CLR 29/22 A2983 RMK AO2 LTG DSNT W-N SLP100 T02890222", "KJAC 072156Z VRB03KT 10SM SCT110 24/06 A3004 RMK AO2 LTG DSNT SE AND S SLP117 T02440061", "KJAN 072154Z 27006KT 10SM FEW037 SCT047 BKN065 31/23 A2992 RMK AO2 SLP127 T03060233", "KJAQ 072155Z AUTO 26008KT 10SM CLR 27/11 A2988 RMK AO1 T02730109", "KJAS 072155Z AUTO 25006G12KT 10SM CLR 33/24 A2992 RMK AO2", "KJAU 072150Z AUTO 36004KT 10SM FEW060 FEW070 29/19 A2996 RMK A01", "KJAX 072156Z 19011G19KT 10SM TS FEW015 FEW040 BKN110 BKN250 29/24 A2985 RMK AO2 TSB52 SLP108 OCNL LTGIC DSNT SW TS DSNT SW MOV E T02890244 $", "KJBR 072153Z AUTO 15005KT 10SM FEW032 29/22 A2990 RMK AO2 SLP120 T02940217 $", "KJCA 072155Z AUTO 28017G30KT 3SM +TSRA BR SCT032 BKN050 OVC110 22/21 A2993 RMK AO2 LTG DSNT ALQDS P0027 T02160211", "KJCT 072151Z AUTO 14011G18KT 10SM FEW043 32/21 A2993 RMK AO2 SLP096 T03220211", "KJDD 072155Z AUTO 22014G21KT 10SM CLR 33/22 A2985 RMK AO2", "KJDN 072148Z AUTO VRB03KT 26/06 A3004 RMK AO1 SLP159 T02610061", "KJEF 072153Z 05008KT 10SM FEW060 BKN085 29/19 A2985 RMK AO2 LTG DSNT SE AND S RAE2055 SLP095 P0000 T02890194", "KJER 072153Z AUTO VRB04KT 10SM CLR 31/06 A2986 RMK AO2 SLP067 T03110056", "KJES 072155Z AUTO 31007KT 10SM SCT060 36/20 A2984 RMK AO2 LTG DSNT S AND SW", "KJFK 072151Z 14009KT 10SM SCT013 BKN250 26/22 A2984 RMK AO2 SLP103 T02560222", "KJFX 072155Z AUTO 32005KT 10SM VCTS RA FEW070 SCT085 25/24 A2992 RMK AO2 LTG DSNT ALQDS", "KJFZ 072155Z AUTO 32003KT 10SM SCT030 26/21 A3000 RMK AO2 T02560205", "KJHN 072155Z AUTO 04006KT 10SM SCT027 SCT033 SCT050 27/20 A2994 RMK AO2 T02650197", "KJHW 072156Z AUTO 33009KT 10SM CLR 23/14 A2997 RMK AO2 SLP145 T02280139", "KJKA 072155Z 27009G16KT 9SM FEW044 31/23 A2992", "KJKJ 072155Z AUTO 34004KT 10SM SCT035 SCT060 21/17 A2990 RMK AO2 LTG DSNT SE AND S P0003", "KJKL 072153Z AUTO 00000KT 10SM CLR 29/18 A2994 RMK AO2 SLP122 T02940183", "KJLN 072153Z 23012KT 10SM SCT025 BKN065 OVC150 31/22 A2989", "KJMR 072155Z AUTO 23006KT 10SM CLR 23/07 A2999 RMK AO2", "KJMS 072156Z AUTO 02012G23KT 10SM FEW049 23/12 A2995 RMK AO2 SLP140 T02330117", "KJNX 072145Z AUTO 35003KT 10SM SCT060 SCT070 SCT090 28/21 A2980 RMK AO2 LTG DSNT ALQS", "KJOT 072155Z AUTO 19003KT 10SM BKN050 28/16 A2992 RMK AO2 T02760157", "KJPX 072155Z AUTO 16005KT 10SM OVC005 24/23 A2986 RMK AO2 T02380226", "KJQF 072150Z 35013G17KT 10SM BKN050 31/21 A2987", "KJRB 072156Z AUTO 11007KT 10SM SCT019 27/21 A2984 RMK AO2 SLP102 T02670211", "KJRO 072155Z AUTO 31005KT 10SM CLR 30/17 A2992 RMK AO2", "KJSO 072155Z AUTO 25005KT 10SM CLR 32/21 A2995 RMK AO2 T03210219 TSNO", "KJST 072154Z AUTO 32009KT 10SM SCT047 25/19 A2994 RMK AO2 SLP124 T02500194", "KJSV 072155Z AUTO 24006KT 10SM CLR 30/23 A2991 RMK AO2", "KJTC 072155Z AUTO 23021G29KT 10SM FEW043 FEW060 FEW075 32/01 A3017 RMK AO2", "KJVL 072145Z 28008KT 10SM BKN060 OVC250 26/11 A2994", "KJVW 072115Z AUTO 30007KT 10SM FEW035 FEW050 32/29 A2993 RMK AO2", "KJVY 072155Z AUTO 00000KT 10SM CLR 31/16 A2991 RMK AO2", "KJWG 072155Z AUTO 13012KT 10SM CLR 29/22 A2991 RMK AO2 T02890220", "KJWN 072150Z 29007KT 10SM CLR 31/22 A2990", "KJWY 072155Z AUTO 16009G15KT 10SM BKN110 35/20 A2991 RMK AO2 T03500202", "KJXI 072155Z AUTO 17008KT 10SM CLR 32/19 A2988 RMK AO2 T03240191", "KJXN 072156Z 00000KT 10SM FEW060 27/12 A2995 RMK AO2 SLP136 T02670122", "KJYG 072156Z AUTO 21003KT 10SM -RA SCT014 SCT019 16/14 A2997 RMK AO2 TSNO", "KJYM 072155Z AUTO 14003KT 10SM SCT075 BKN100 BKN120 27/10 A2995 RMK AO2 T02650104", "KJYO 072155Z AUTO 13005KT 10SM SCT070 31/23 A2983 RMK AO2", "KJYR 072155Z AUTO 24003KT 10SM SCT023 SCT028 BKN040 24/19 A2990 RMK AO2", "KJZI 072155Z AUTO 00000KT 10SM CLR 29/22 A2981 RMK AO2 LTG DSNT N AND W P0003", "KJZP 072155Z AUTO 33004KT 10SM SCT080 BKN110 28/21 A2993 RMK AO2 LTG DSNT S T02760213", "KK62 072155Z AUTO 30005KT 10SM CLR 30/13 A2992 RMK AO2", "KK70 072155Z AUTO 23009KT 10SM CLR 33/23 A2992 RMK AO2 LTG DSNT N AND NW", "KK82 072155Z AUTO 23007KT 10SM BKN048 BKN060 BKN070 27/20 A2990 RMK AO2 T02690202", "KK88 072155Z AUTO 23007KT 10SM CLR 27/19 A2989 RMK AO1 T02710187", "KKLS 072156Z AUTO VRB05KT OVC029 21/12 A2994 RMK AO2 SLP141 T02060122 PWINO $", "KKNB 072155Z AUTO 24009G22KT 10SM CLR 34/M08 A2996 RMK A01", "KKY8 072155Z AUTO 26005KT 10SM CLR 30/19 A2992 RMK A01", "KL08 072155Z AUTO 25007G23KT 200V340 10SM CLR 39/M01 A2965 RMK AO2", "KL18 072155Z AUTO 21007KT 180V250 10SM CLR 24/13 A2985 RMK AO2", "KL35 072155Z AUTO 07010KT 10SM CLR 25/M02 A3010 RMK AO2", "KLAA 072153Z AUTO 13011KT 10SM FEW030 BKN040 25/19 A2996 RMK AO2 SLP097 T02500189", "KLAF 072154Z 23006KT 10SM FEW120 28/16 A2992 RMK AO2 SLP127 T02780156", "KLAL 072150Z 31006KT 7SM TSRA BKN060 BKN090 24/22 A2995 RMK LTG VCT AND DSNT ALQDS", "KLAM 072155Z AUTO 25008KT 7SM BKN110 29/01 A3016 RMK AO2 T02880005 $", "KLAN 072153Z 32003KT 10SM CLR 27/11 A2995 RMK AO2 SLP139 T02670111 $", "KLAR 072153Z AUTO 05007KT 010V080 10SM CLR 20/06 A3018 RMK AO2 LTG DSNT SE SLP129 T02000056", "KLAS 072204Z VRB05KT 10SM CLR 38/M01 A2970 RMK AO2 T03831006", "KLAW 072153Z 15009KT 10SM FEW055 35/22 A2985 RMK AO2 SLP091 T03500217", "KLAX 072153Z 25014KT 10SM FEW011 21/14 A2985 RMK AO2 SLP108 T02060139", "KLBB 072153Z 16020G28KT 10SM FEW070 BKN250 36/17 A2987 RMK AO2 PK WND 18032/2113 SLP054 T03560172", "KLBE 072147Z 32008KT 10SM SCT032 SCT080 27/20 A2990", "KLBL 072156Z AUTO 07006KT 10SM BKN037 OVC050 29/22 A2990 RMK AO2 SLP094 T02890222", "KLBO 072155Z AUTO 22010KT 10SM SCT055 SCT065 BKN085 31/15 A2990 RMK AO2 LTG DSNT NE", "KLBT 072156Z AUTO 02012KT 10SM TS BKN050 BKN070 OVC110 30/23 A2981 RMK AO2 LTG DSNT ALQDS TSB25 SLP094 T03000233", "KLBX 072153Z AUTO 18012KT 10SM FEW031 32/23 A2993 RMK AO2 SLP134 T03220228", "KLCG 072155Z AUTO 05010KT 5SM -DZ OVC006 17/16 A2995 RMK AO2 T01650157", "KLCH 072153Z AUTO 11010KT 10SM FEW110 31/24 A2995 RMK AO2 LTG DSNT E RAB19E30 SLP148 P0000 T03110244", "KLCI 072156Z AUTO 20006KT 10SM CLR 29/20 A2983 RMK AO2 LTG DSNT N SLP096 T02890200", "KLCK 072155Z AUTO 31005KT 10SM CLR 29/17 A2991 RMK AO2 T02910171", "KLCQ 072155Z AUTO 28004KT 10SM -VCTSRA SCT120 26/21 A2989 RMK AO2 LTG DSNT ALQS", "KLDM 072155Z AUTO 31006KT 10SM CLR 24/09 A2996 RMK AO2 T02380086", "KLEB 072153Z 26007KT 10SM -RA SCT044 BKN090 25/19 A2988 RMK AO2 LTG DSNT S-W RAB51 SLP108 P0000 T02500194", "KLEE 072153Z 08005KT 10SM TS SCT043 BKN060 BKN110 28/23 A2993 RMK AO2 LTG DSNT ALQDS TSB10 SLP133 T02830233", "KLEW 072156Z AUTO 14007KT 10SM CLR 26/20 A2984 RMK AO2 SLP109 T02610200", "KLEX 072154Z 34003KT 10SM CLR 31/16 A2993 RMK AO2 SLP124 T03110156", "KLFI 072155Z 09006KT 10SM SCT060 BKN180 27/27 A2981 RMK AO2A LTG DSNT S SLP101 T02720270 $", "KLFK 072153Z AUTO 19008KT 10SM CLR 34/23 A2991 RMK AO2 SLP125 T03390228", "KLFT 072153Z 20011G23KT 10SM TS BKN045 BKN090 32/23 A2994 RMK AO2 TSB48 SLP137 T03170228", "KLGA 072151Z 17010KT 10SM SCT030 SCT220 BKN260 28/21 A2981 RMK AO2 SLP096 T02780211 $", "KLGB 072153Z 21007KT 10SM CLR 22/12 A2984 RMK AO2 SLP105 T02220122", "KLGD 072156Z AUTO VRB04KT 10SM CLR 33/05 A2983 RMK AO2 SLP077 T03330050", "KLGF 072155Z AUTO 26009KT M M CLR 40/M09 A2966 RMK AO2 SLP039 T04031095 RVRNO PWINO TSNO $", "KLGU 072151Z AUTO 35007KT 10SM CLR 31/06 A2989 RMK AO2 SLP069 T03110056", "KLHB 072155Z AUTO 16006KT 10SM SCT055 BKN070 BKN080 34/21 A2991 RMK AO2 T03350214", "KLHM 072155Z AUTO 20006KT 10SM CLR 29/13 A2979 RMK AO1", "KLHQ 072153Z AUTO 36004KT 10SM CLR 29/19 A2992 RMK AO2 SLP124 T02890194", "KLHW 072155Z AUTO 23005KT 10SM FEW060 FEW100 34/23 A2977 RMK AO2 SLP084 T03380225 $", "KLHX 072153Z AUTO 09016G25KT 10SM FEW036 27/18 A2997 RMK AO2 SLP092 T02670178", "KLHZ 072150Z AUTO 10012G21KT 10SM SCT060 SCT070 SCT085 25/21 A2985 RMK AO2", "KLIC 072155Z AUTO 04011KT 10SM CLR 24/12 A3008 RMK AO2 LTG DSNT S SLP113 T02440122", "KLIT 072153Z 26006KT 10SM SCT041 OVC065 32/23 A2990 RMK AO2 SLP124 T03170233", "KLJF 072155Z AUTO 00000KT 10SM CLR 21/11 A2996 RMK AO2", "KLKR 072155Z AUTO 05008KT 10SM VCTS FEW050 SCT070 SCT090 27/22 A2988 RMK AO2 LTG DSNT ALQDS", "KLKU 072155Z AUTO 14005KT 10SM CLR 30/23 A2983 RMK AO2 LTG DSNT N AND NW T02970234", "KLKV 072204Z AUTO 23006KT 10SM CLR 31/04 A2992 RMK AO2 LTG DSNT NE AND NW TSE01", "KLLJ 072155Z AUTO 01006KT 10SM -RA BKN110 27/04 A2995 RMK AO2 RAB51 SLP082 P0000 T02720039", "KLLN 072155Z AUTO 17017G26KT 6SM HZ CLR 34/15 A2988 RMK AO2", "KLLQ 072153Z AUTO 27006KT 10SM FEW028 31/24 A2991 RMK AO2 SLP124 T03110244", "KLMO 072155Z AUTO 01012KT 10SM -RA SCT100 25/10 A3013 RMK AO2 T02540100", "KLMS 072155Z AUTO 33006KT 10SM FEW090 SCT110 28/24 A2996 RMK AO2", "KLMT 072153Z 27011G17KT 10SM CLR 31/05 A2990 RMK AO2 SLP078 T03060050", "KLNA 072155Z AUTO 11003KT SCT065 SCT070 SCT090 27/24 A2995 RMK AO2 LTG DSNT SW THRU NE T02680238", "KLNC 072155Z AUTO 18009G15KT 10SM SCT055 35/21 A2989 RMK AO2 T03490209", "KLND 072153Z AUTO VRB04KT 10SM SCT110 22/07 A3008 RMK AO2 LTG DSNT W AND NW SLP137 T02170067", "KLNK 072154Z 06007KT 10SM OVC030 23/18 A2990 RMK AO2 LTG DSNT S SLP118 T02280183", "KLNL 072155Z AUTO 24005KT 10SM OVC060 23/10 A2997 RMK AO2 T02260097", "KLNN 072155Z AUTO 04005KT 10SM CLR 23/11 A2996 RMK AO1 T02310114", "KLNP 072155Z AUTO 01006KT 10SM SCT033 26/18 A3002 RMK AO2", "KLNQ 072155Z AUTO 15006KT 10SM 32/25 A2996 RMK AO2 T03210250", "KLNR 072156Z AUTO 23004KT 10SM FEW110 24/09 A2994 RMK AO2 SLP132 T02390094", "KLNS 072153Z 11006KT 10SM CLR 28/23 A2982 RMK AO2 LTG DSNT W AND NW SLP095 T02830228", "KLOL 072153Z AUTO VRB05KT 10SM CLR 33/04 A2980 RMK AO2 SLP044 T03330039", "KLOM 072155Z AUTO 06003KT 10SM CLR 26/24 A2983 RMK AO2 T02640236", "KLOR 072155Z AUTO 28008KT 10SM FEW039 SCT049 33/23 A2987 RMK AO2 LTG DSNT SE AND SW SLP096 T03250234", "KLOT 072145Z 18010KT 10SM SCT055 27/16 A2993", "KLOU 072153Z VRB03KT 10SM CLR 31/13 A2991 RMK AO2 SLP122 T03060133", "KLOZ 072153Z AUTO 34003KT 10SM CLR 30/18 A2993 RMK AO2 SLP120 T03000183", "KLPR 072153Z AUTO 04007KT 10SM CLR 25/14 A2997 RMK AO2 SLP142 T02500139", "KLQK 072155Z AUTO 00000KT 10SM CLR 25/21 A2988 RMK AO2 T02510211", "KLRD 072156Z 12017G22KT 10SM SCT075 BKN120 38/19 A2982 RMK AO2 SLP093 T03830194", "KLRF 072155Z AUTO 28003KT 10SM SCT030 SCT045 BKN095 31/24 A2987 RMK AO2 SLP115 T03080237", "KLRJ 072155Z AUTO 08008G13KT 10SM BKN031 OVC039 15/15 A2997 RMK AO2", "KLRO 072155Z AUTO 00000KT 9SM VCTS DZ CLR 26/23 A2981 RMK AO2 LTG DSNT W AND NW", "KLRU 072155Z AUTO 19005G09KT 10SM CLR 40/03 A2992 RMK AO2 T03970027", "KLRY 072155Z AUTO 25006KT 10SM CLR 29/20 A2990 RMK AO2", "KLSE 072153Z 32003KT 10SM FEW120 23/09 A2994 RMK AO2 SLP133 T02280094", "KLSF 072156Z AUTO 36005KT 10SM CLR 25/22 A2985 RMK AO2 LTG DSNT S AND W RAE55 SLP111 $", "KLSV 072155Z AUTO 04009KT 10SM CLR 40/M03 A2966 RMK AO2 SLP015 T03951027 $", "KLTS 072155Z 16019G24KT 10SM CLR 35/19 A2980 RMK AO2A PK WND 17029/34 SLP073 T03530188 $", "KLUA 072155Z AUTO 30003KT 10SM CLR 30/20 A2985 RMK AO2 LTG DSNT SE", "KLUD 072155Z AUTO 20013G23KT 7SM CLR 35/19 A2987 RMK AO2 T03520186", "KLUF 072155Z AUTO 22008KT 10SM CLR 41/00 A2968 RMK AO2 SLP033 T04100002 $", "KLUG 072155Z AUTO 32004KT 10SM CLR 30/21 A2992 RMK A01", "KLUK 072153Z 36006KT 10SM CLR 32/13 A2990 RMK AO2 SLP119 T03220128", "KLUL 072155Z AUTO 30011KT 10SM SCT050 32/22 A2992 RMK A02 T03240217", "KLUM 072155Z 00000KT 10SM CLR 23/09 A2996 RMK AO2 T02250087 PWINO", "KLUV 072155Z AUTO 16021G29KT 7SM CLR A2989 RMK AO2", "KLUX 072155Z AUTO 35008KT 10SM SCT050 SCT070 28/21 A2985 RMK AO2 LTG DSNT SE", "KLVJ 072153Z AUTO 17008KT 10SM SCT038 33/23 A2994 RMK AO2 SLP137 T03280228", "KLVK 072153Z 30016KT 10SM CLR 21/11 A2989 RMK AO2 SLP119 T02060106 $", "KLVL 072155Z AUTO 00000KT 10SM SCT038 SCT055 SCT095 25/25 A2984 RMK AO1 T02530246", "KLVM 072153Z AUTO 07020G24KT 10SM CLR 24/08 A3004 RMK AO2 PK WND 06028/2133 LTG DSNT S SLP141 T02440078", "KLVN 072155Z AUTO 25003KT 10SM CLR 21/10 A2997 RMK AO2", "KLVS 072153Z AUTO 24015G32KT 10SM CLR 33/01 A3007 RMK AO2 PK WND 22041/2059 WSHFT 2109 SLP047 T03330011", "KLWA 072155Z AUTO 36007KT 10SM CLR 25/16 A2993 RMK AO2 T02530162", "KLWB 072145Z 33007KT 10SM CLR 27/18 A2996", "KLWC 072152Z AUTO 00000KT 10SM CLR 28/20 A2987 RMK AO1 SLP107 T02780200", "KLWM 072154Z 18006KT 10SM CLR 31/19 A2983 RMK AO2 SLP101 T03060189", "KLWS 072156Z 36008KT 10SM CLR 37/06 A2975 RMK AO2 SLP061 T03670056", "KLWT 072154Z AUTO 16008KT 10SM FEW080 FEW090 23/05 A3009 RMK AO2 SLP164 T02280050", "KLWV 072153Z AUTO 26004KT 10SM CLR 29/17 A2993 RMK AO2 SLP130 T02940172", "KLXL 072155Z AUTO 18006KT 10SM CLR 23/10 A2994 RMK AO2", "KLXN 072155Z AUTO 00000KT 10SM SCT060 BKN070 BKN080 27/15 A2994 RMK AO2 T02720153", "KLXT 072153Z AUTO 07009KT 10SM CLR 27/18 A2988 RMK AO2 SLP112 T02670183", "KLXV 072153Z AUTO 28011G21KT 10SM BKN110 23/M09 A3030 RMK AO2 PK WND 26031/2116 SLP078 T02281089", "KLXY 072155Z AUTO 16007G16KT 10SM SCT050 34/21 A2989 RMK AO2 T03390209", "KLYH 072154Z 00000KT 10SM CLR 31/22 A2985 RMK AO2 SLP095 T03110222", "KLYO 072155Z AUTO 18007KT 10SM OVC050 24/18 A2992 RMK AO2 T02390183", "KLYV 072155Z AUTO 18005KT 10SM -RA SCT015 BKN029 BKN049 16/13 A2999 RMK AO2", "KLZU 072156Z 21006KT 10SM CLR 27/23 A2990 RMK AO2 LTG DSNT ALQDS TSE34 SLPNO T02670228", "KLZZ 072135Z AUTO 19009KT 160V230 10SM SCT050 SCT080 34/20 RMK AO2 T03370197", "KM01 072155Z AUTO 20004KT 10SM CLR 30/23 A2988 RMK AO2 T03020231 $", "KM02 072155Z AUTO 35003KT 10SM FEW120 29/19 A2993 RMK A01", "KM04 072150Z AUTO 00000KT 10SM CLR 30/22 A2991 RMK A01", "KM08 072155Z AUTO 00000KT 10SM SCT110 27/23 A2992 RMK A01", "KM19 072156Z AUTO 15009KT 10SM CLR 30/23 A2990 RMK AO2 SLP120 T03000228 PNO $", "KM21 072155Z AUTO 29003KT 10SM CLR 31/18 A2992 RMK AO2 T03070181", "KM25 072155Z AUTO 00000KT 10SM SCT047 OVC060 29/19 A2993 RMK AO2 PWINO", "KM30 072155Z AUTO 00000KT 10SM SCT070 SCT080 30/19 A2991 RMK AO2 T03020189", "KM40 072155Z AUTO 21003KT 10SM CLR 27/25 A2992 RMK AO2", "KM54 072150Z AUTO 35006KT 10SM CLR 31/21 A2988 RMK A01", "KM75 072155Z AUTO 02005KT 10SM CLR 28/05 A3000 RMK A01", "KMAE 072153Z AUTO VRB03KT 10SM CLR 32/14 A2981 RMK AO2 SLP091 T03170144", "KMAF 072153Z 15019G29KT 10SM CLR 36/17 A2990 RMK AO2 PK WND 15029/2146 SLP071 T03560167 $", "KMAI 072153Z AUTO 24010KT 10SM FEW048 FEW060 31/23 A2986 RMK AO2 LTG DSNT N AND NW SLP109 T03060228", "KMAN 072155Z AUTO 01005KT 9SM CLR 34/07 A2978 RMK A01", "KMAO 072155Z AUTO 00000KT 10SM VCTS CLR 32/23 A2979 RMK AO2 LTG DSNT ALQDS", "KMAW 072155Z AUTO 24007KT 10SM SCT038 SCT043 SCT049 30/20 A2992 RMK AO1", "KMBG 072200Z AUTO 30006KT 10SM SCT055 27/15 A2993 RMK AO2 LTG DSNT E AND SE T02670150", "KMBL 072156Z AUTO VRB04KT 10SM CLR 23/10 A2996 RMK AO2 SLP146 T02330100", "KMBO 072155Z AUTO 26006KT 10SM FEW034 25/18 A2991 RMK AO2", "KMBS 072153Z 29005KT 10SM SCT065 24/11 A2995 RMK AO2 SLP141 T02440111", "KMBT 072155Z AUTO 33005G10KT 10SM SCT048 32/20 A2989 RMK A01", "KMBY 072155Z AUTO 07010KT 10SM SCT090 24/16 A2991 RMK AO2 LTG DSNT E", "KMCB 072153Z AUTO 29007KT 10SM FEW055 33/20 A2993 RMK AO2 SLP127 T03280200", "KMCC 072155Z AUTO 19008G17KT 10SM CLR 28/13 A2980 RMK AO2", "KMCD 072155Z AUTO 25008KT 10SM CLR 19/11 A2993 RMK AO2 T01930114", "KMCE 072153Z AUTO VRB06KT 10SM CLR 29/12 A2980 RMK AO2 SLP090 T02940117", "KMCF 072155Z AUTO 26008KT 10SM FEW039 FEW100 32/24 A2988 RMK AO2 DZB34E44 SLP121 P0000 T03170235 FZRANO $", "KMCI 072153Z 12007KT 10SM SCT200 26/19 A2988 RMK AO2 SLP108 T02560189", "KMCJ 072155Z AUTO 27007G13KT 10SM BKN100 OVC120 29/22 A2992 RMK A01", "KMCK 072153Z AUTO 05004KT 10SM CLR 28/14 A2995 RMK AO2 SLP116 T02830139", "KMCN 072153Z 02012KT 10SM SCT070 29/23 A2986 RMK AO2 LTG DSNT ALQDS SLP108 T02890228", "KMCO 072153Z 20010KT 10SM TS FEW030CB SCT100 BKN160 BKN210 BKN250 26/24 A2993 RMK AO2 LTG DSNT ALQDS RAE14 SLP134 OCNL LTGICCG SE TS SE MOV E VCSH SE P0005 T02610239", "KMCW 072153Z AUTO 18007KT 10SM SCT016 OVC075 16/13 A3000 RMK AO2 RAB01E46 SLP157 P0000 T01560128", "KMCZ 072145Z AUTO 22004KT 10SM -RA BKN120 24/23 A2982 RMK AO2 P0004 T02370228", "KMDH 072152Z 00000KT 10SM SCT075 30/18 A2991 RMK AO2 SLP123 T03000183", "KMDQ 072155Z AUTO 32007KT 10SM CLR 30/21 A2992 RMK A02 LTG DSNT W T02970214", "KMDS 072155Z AUTO 13007KT 10SM FEW021 BKN090 18/15 A2998 RMK AO2", "KMDT 072200Z VRB03KT 1/2SM R13/4000V5500FT +TSRA BKN027CB BKN039 OVC048 23/21 A2985 RMK AO2 LTG DSNT W-NE P0011 T02330206", "KMDW 072153Z 09009KT 10SM SCT055 BKN250 26/17 A2992 RMK AO2 SLP123 T02560172", "KMDZ 072155Z AUTO 27004KT 10SM CLR 21/11 A2997 RMK AO2 T02070110 PWINO", "KMEB 072152Z AUTO 27011KT 10SM VCTS FEW050 SCT070 BKN110 27/21 A2982 RMK AO2 LTG DSNT ALQDS TSB2056E25B31E46 SLP097 T02670211", "KMEH 072156Z AUTO VRB05KT 10SM CLR 31/04 A2989 RMK AO2 SLP095 T03060039", "KMEI 072158Z 00000KT 10SM CLR 32/23 A2992 RMK AO2 SLP126 T03170233 $", "KMEM 072154Z 00000KT 10SM SCT045 SCT200 29/21 A2992 RMK AO2 SLP126 TCU S AND DSNT NE-SE T02890211", "KMER 072153Z 31010KT 10SM CLR 32/12 A2981", "KMEV 072155Z AUTO 27015KT 10SM CLR 29/05 A2993 RMK AO2", "KMEZ 072155Z AUTO 00000KT 9SM VCTS CLR 29/24 A2994 RMK AO2 T02920243", "KMFD 072152Z 01007KT 10SM CLR 27/16 A2996 RMK AO2 SLP134 T02670161", "KMFE 072153Z 11012KT 10SM CLR 33/25 A2985 RMK AO2 SLP108 T03330250", "KMFI 072154Z AUTO 00000KT 10SM CLR 22/11 A2995 RMK AO2 SLP143 T02220111", "KMFR 072153Z 32011KT 10SM CLR 32/03 A2980 RMK AO2 SLP077 T03220028", "KMGC 072155Z AUTO 01006KT 10SM SCT050 23/16 A2993 RMK AO2", "KMGE 072155Z 01005KT 10SM FEW050CB FEW100 BKN250 31/20 A2988 RMK AO2A CB 20SE MOV SE TCU N SLP108 T03110197 $", "KMGG 072155Z AUTO 20004KT 10SM CLR 22/10 A2997 RMK AO2 T02220099", "KMGJ 072154Z AUTO 27003KT 10SM CLR 28/22 A2982 RMK AO2 SLP096 T02780217", "KMGM 072204Z 15009G18KT 3SM +TSRA SCT027 BKN039 OVC065 28/23 A2988 RMK AO2 LTG DSNT SE TSE01B03 P0024 T02780228", "KMGN 072155Z AUTO 27004KT 10SM CLR 21/08 A2995 RMK AO2 T02100085", "KMGR 072155Z AUTO 23006KT 10SM FEW180 30/24 A2987 RMK AO2 LTG DSNT N AND SE AND S AND W T02990235 $", "KMGW 072153Z 33005KT 10SM SCT035 SCT041 BKN060 29/21 A2991 RMK AO2 SLP118 T02890206", "KMGY 072153Z AUTO 29003KT 10SM CLR 29/14 A2992 RMK AO2 SLP122 T02890139", "KMHE 072153Z AUTO 17003KT 10SM FEW025 SCT034 20/14 A2997 RMK AO2 SLP146 T02000139", "KMHK 072152Z 22007KT 7SM FEW009 BKN100 29/20 A2987 RMK AO2 SLP104 T02890200", "KMHL 072155Z AUTO 06010G14KT 10SM CLR 25/17 A2989 RMK AO2", "KMHP 072155Z AUTO 10008KT 10SM VCTS BKN055 BKN075 BKN090 A2983 RMK AO2 LTG DSNT NW THRU E", "KMHR 072155Z AUTO 24007G14KT 210V270 10SM CLR 27/12 A2979 RMK AO2", "KMHS 072156Z AUTO VRB04KT 10SM CLR 31/12 A2987 RMK AO2 SLP096 T03110122", "KMHT 072153Z 19006KT 10SM FEW055 FEW130 BKN250 31/19 A2981 RMK AO2 SLP101 T03060189", "KMHV 072140Z AUTO 30021G27KT 10SM CLR 33/01 A2981 RMK AO2", "KMIA 072153Z 35010G15KT 10SM TS SCT035CB SCT050 BKN250 32/24 A2995 RMK AO2 SLP141 TSB36 OCNL LTGICCG NW-NE TS NW-NE MOV E T03170239 $", "KMIB 072155Z AUTO 02009G15KT 10SM SCT060 BKN070 23/07 A2999 RMK AO2 SLP159 T02270068 $", "KMIC 072153Z 10SM CLR 23/09 A2994 RMK AO2 SLP136 T02330094", "KMIE 072153Z 33004KT 10SM CLR 29/16 A2993 RMK AO2 SLP126 T02940156", "KMIO 072155Z AUTO VRB05KT 10SM CLR 29/23 A2988 RMK AO2", "KMIV 072154Z AUTO 00000KT 10SM FEW120 26/23 A2982 RMK AO2 SLP095 T02610228", "KMIW 072153Z AUTO 19005KT 8SM -RA FEW024 SCT031 OVC055 18/14 A2997 RMK AO2 SLP148 P0001 T01780139", "KMJD 072155Z AUTO 24009KT 7SM -RA FEW028 FEW035 SCT120 29/27 A2993 RMK AO2", "KMJQ 072155Z AUTO 18005KT 10SM SCT017 BKN024 BKN050 16/13 A2998 RMK AO2 PWINO", "KMKC 072154Z 08007KT 040V110 10SM CLR 27/18 A2987 RMK AO2 SLP106 T02670183", "KMKE 072152Z 11008KT 10SM FEW060 BKN250 23/14 A2994 RMK AO2 SLP134 T02330144", "KMKG 072155Z 29008KT 10SM FEW070 SCT220 BKN250 25/12 A2995 RMK AO2 SLP140 T02500122", "KMKJ 072155Z AUTO 30004KT 10SM CLR 26/18 A2999 RMK AO2 T02610176", "KMKL 072153Z 20004KT 10SM OVC055 29/23 A2993 RMK AO2 SLP131 T02890228", "KMKN 072155Z AUTO 17011KT 10SM 37/19 A2991 RMK AO2 T03710193", "KMKO 072153Z AUTO 21006KT 10SM CLR 28/22 A2994 RMK AO2 SLP130 T02830217", "KMKQ 072155Z AUTO 08008KT 10SM CLR 33/24 A2997 RMK A01", "KMKS 072155Z AUTO 25005KT 10SM TS SCT048 BKN070 OVC110 28/23 A2983 RMK AO2 LTG DSNT W THRU NE", "KMKT 072156Z AUTO 23007KT 10SM -RA SCT095 19/13 A2998 RMK AO2 RAB48 SLP152 P0000 T01890128", "KMKY 072156Z AUTO 30008KT 10SM SCT032 BKN039 32/24 A2997 RMK AO2 SLP147 T03220239 TSNO PNO $", "KMLB 072153Z 18005KT 10SM SCT050 SCT070 BKN090 25/23 A2992 RMK AO2 LTG DSNT SW AND W RAE50 SLP132 P0001 T02500228", "KMLC 072153Z AUTO 01004KT 10SM CLR 29/22 A2995 RMK AO2 SLP132 T02940217", "KMLE 072155Z AUTO 08003KT 10SM -DZ OVC024 20/16 A2991 RMK AO2 P0001 T01960163", "KMLF 072152Z AUTO 21013G21KT 10SM CLR 33/M08 A2990 RMK AO2 SLP056 T03331078", "KMLI 072152Z 00000KT 7SM -RA SCT090 OVC110 21/16 A2994 RMK AO2 SLP138 P0004 T02060156", "KMLJ 072155Z AUTO VRB06G15KT 10SM VCTS FEW065 24/24 A2987 RMK AO2 LTG DSNT SE AND SW P0001", "KMLP 072153Z AUTO 00000KT 10SM SCT070 22/04 A3008 RMK AO2 SLP086 T02170044", "KMLS 072153Z AUTO 04008KT 10SM VCTS FEW070 SCT100 25/08 A3003 RMK AO2 LTG DSNT SW AND W SLP157 T02500083", "KMLT 072202Z AUTO 11007KT 3SM -TSRA BR SCT043 SCT070 OVC090 21/20 A2988 RMK AO2 LTG DSNT ALQDS PRESRR P0002 T02110200", "KMLU 072153Z 06004KT 10SM BKN040 OVC055 33/23 A2991 RMK AO2 SLP127 T03280233", "KMMH 072155Z AUTO 24011G16KT 10SM CLR 28/M02 A3007 RMK AO2 T02801019", "KMMI 072155Z AUTO 03003KT 10SM CLR 32/21 A2990 RMK A01", "KMMK 072153Z AUTO 18006KT 10SM CLR 28/20 A2983 RMK AO2 SLP100 T02830200", "KMML 072156Z AUTO 22010KT 10SM FEW025 19/13 A2998 RMK AO2 SLP152 T01940133 $", "KMMT 072155Z AUTO 00000KT 10SM VCTS CLR 30/22 A2980 RMK AO2 SLP092 T03030222 $", "KMMU 072145Z 15007KT 10SM BKN250 30/20 A2983", "KMMV 072153Z AUTO VRB06KT 10SM CLR 24/12 A2990 RMK AO2 SLP122 T02390117", "KMNE 072140Z AUTO 24006KT 10SM SCT049 SCT070 34/24 A2992 RMK AO2", "KMNH 072155Z AUTO 05009KT 10SM SCT028 SCT037 OVC045 18/12 A3021 RMK AO2 LTG DSNT S", "KMNN 072153Z AUTO 05004KT 10SM CLR 27/16 A2994 RMK AO2 SLP132 T02720161", "KMNZ 072155Z AUTO 14011G15KT 35/18 A2992 RMK AO2 T03530177 PWINO", "KMOB 072156Z 27003KT 10SM VCTS SCT070 BKN095 BKN120 32/23 A2992 RMK AO2 LTG DSNT E SLP127 CB DSNT E T03170228", "KMOD 072201Z 34007KT 10SM BKN008 28/12 A2980 RMK AO2 T02830122", "KMOP 072155Z AUTO 26007KT 10SM SCT060 BKN070 26/11 A2994 RMK AO2 T02550106", "KMOT 072154Z 36008KT 10SM FEW060 BKN075 23/09 A3001 RMK AO2 SLP161 T02280089", "KMOX 072155Z AUTO 22011KT 10SM SCT032 24/13 A2991 RMK AO2", "KMPO 072153Z AUTO 15003KT 10SM -RA CLR 24/21 A2991 RMK AO2 LTG DSNT SW-N RAB2057 SLP117 P0000 T02440206", "KMPR 072155Z AUTO 21009KT 10SM OVC070 25/18 A2991 RMK AO2 T02500178", "KMPV 072151Z AUTO 00000KT 4SM RA BR FEW070 OVC100 20/19 A2994 RMK AO2 RAB05 SLP134 P0005 T02000189", "KMPZ 072155Z AUTO 09004KT 10SM SCT046 20/15 A2995 RMK AO2", "KMQB 072155Z AUTO 08003KT 3SM RA SCT041 SCT050 OVC060 24/19 A2997 RMK AO2 P0003 T02390190", "KMQI 072150Z AUTO 21007KT 10SM CLR 29/24 A2982 RMK AO2 T02890236", "KMQJ 072155Z AUTO 24004KT 10SM SCT060 29/17 A2993 RMK AO1", "KMQS 072155Z AUTO 00000KT 10SM CLR 26/23 A2985 RMK AO2", "KMQW 072155Z AUTO 28004KT 10SM SCT055 SCT065 34/22 A2983 RMK AO2 LTG DSNT N THRU E T03430220", "KMQY 072156Z 35004KT 10SM SCT065 32/21 A2992 RMK AO2 SLP133 T03220206", "KMRB 072153Z 36005KT 10SM CLR 30/21 A2982 RMK AO2 SLP091 T03000206", "KMRC 072150Z AUTO 00000KT 10SM CLR 30/20 A2992 RMK A01", "KMRF 072156Z AUTO 13007KT 10SM CLR 33/11 A3004 RMK AO2 LTG DSNT N SLP096 T03330106", "KMRH 072158Z AUTO 18009KT 10SM CLR 29/24 A2981 RMK AO2 SLP094 T02940244", "KMRJ 072155Z AUTO 22004KT 10SM SCT110 21/10 A2999 RMK AO2 PWINO", "KMRT 072119Z AUTO 01005KT 10SM SCT047 BKN050 28/16 A2995 RMK AO1", "KMRY 072154Z 29013G21KT 10SM BKN015 17/11 A2997 RMK AO2 SLP159 T01670111", "KMSL 072153Z AUTO 30010G20KT 10SM VCTS -RA SCT033 BKN060 OVC110 23/21 A2996 RMK AO2 LTG DSNT W AND NW RAB39 SLP139 P0001 T02330206", "KMSN 072153Z 00000KT 10SM FEW055 BKN190 BKN230 24/11 A2993 RMK AO2 SLP134 T02440106", "KMSO 072153Z VRB06KT 10SM CLR 31/06 A2989 RMK AO2 SLP098 T03060056", "KMSP 072153Z 24006KT 10SM FEW100 OVC180 23/09 A2995 RMK AO2 SLP139 T02280089", "KMSS 072153Z AUTO 25003KT 10SM FEW095 27/18 A2984 RMK AO2 SLP102 T02670183", "KMSY 072153Z 23006KT 10SM FEW035 SCT140 BKN200 31/23 A2993 RMK AO2 LTG DSNT N AND NE SLP140 CB DSNT N AND NE AND NW T03110228", "KMTC 072156Z 11005KT 10SM SCT065 25/13 A2991 RMK AO2A SLP131 T02490128 $", "KMTH 072153Z AUTO 22007KT 7SM CLR 33/24 A2995 RMK AO2 SLP141 T03330244", "KMTJ 072153Z AUTO 25011G18KT 10SM CLR 33/M01 A2999 RMK AO2 PK WND 25030/2107 SLP065 T03281011", "KMTN 072155Z 14004KT 10SM CLR 30/23 A2983", "KMTP 072154Z AUTO 00000KT 25/23 A2987 RMK AO1 SLP114 T02500228", "KMTV 072155Z AUTO 22003KT 10SM CLR 30/20 A2986 RMK AO2 T02960204", "KMTW 072156Z AUTO 12008KT 10SM CLR 20/13 A2997 RMK AO2 SLP150 T02000133", "KMUI 072155Z 00000KT 10SM VCTS FEW035CB BKN047 OVC080 26/21 A2982 RMK AO2A LTG DSNT SW-NW RAB15E46 TS 7SW-W MOV SE SLP098 T02560212", "KMUO 072155Z AUTO 13008KT 10SM FEW170 FEW200 34/05 A2976 RMK AO2 SLP039 T03400046 $", "KMUT 072155Z AUTO 00000KT 10SM 20/17 A2995 RMK AO2", "KMVE 072155Z AUTO 22007KT 10SM CLR 22/14 A2995 RMK AO2", "KMVL 072154Z AUTO 18005KT 10SM FEW045 BKN110 23/21 A2988 RMK AO2 RAE15 SLP115 P0000 T02280206", "KMVN 072156Z AUTO 00000KT 10SM CLR 31/17 A2993 RMK AO2 SLP134 T03110172", "KMVY 072153Z 16008KT 10SM CLR 23/21 A2987 RMK AO2 SLP112 T02330206", "KMWA 072149Z 00000KT 15SM FEW050 SCT200 29/20 A2992", "KMWC 072145Z 14010KT 10SM CLR 23/13 A2995", "KMWH 072152Z 00000KT 10SM SCT110 37/08 A2975 RMK AO2 SLP064 T03670078 $", "KMWK 072145Z AUTO 22004KT 10SM SCT050 SCT060 29/21 A2989 RMK AO2 T02890213", "KMWL 072153Z AUTO 17016G22KT 10SM CLR 36/19 A2984 RMK AO2 SLP090 T03560194", "KMWM 072155Z AUTO 00000KT 10SM -RA 16/13 A2998 RMK AO2", "KMWN 072154Z 27018KT 35SM TS -RA SCT/// OVC010CB 13/11 RMK RAB33 TSB08 TS SW MOV NE CB NE MOV NE TPS LWR SCT040", "KMWO 072155Z AUTO 00000KT 10SM CLR 29/14 A2992 RMK AO2 T02910137", "KMWT 072153Z AUTO VRB05KT 10SM FEW034 SCT047 32/22 A2990 RMK AO2 SLP112 T03170222", "KMXF 072155Z AUTO 21005KT 10SM FEW075 SCT120 SCT170 31/22 A2984 RMK AO2 SLP106 T03080224", "KMYF 072153Z 24009G17KT 10SM CLR 22/13 A2984 RMK AO2 SLP102 T02170128", "KMYJ 072155Z AUTO 05006KT 10SM SCT055 SCT070 OVC090 27/18 A2991 RMK AO2 LTG DSNT N", "KMYL 072151Z AUTO 34009KT 10SM FEW100 28/03 A2995 RMK AO2 SLP094 T02780033", "KMYP 072142Z AUTO 28037G44KT 10SM SCT060 BKN080 BKN120 17/M05 A3058 RMK AO2", "KMYR 072156Z 19010KT 10SM CLR 29/27 A2981 RMK AO2 LTG DSNT W AND NW SLP093 T02940272", "KMYV 072153Z AUTO 13009KT 10SM CLR 29/14 A2979 RMK AO2 SLP091 T02890144", "KMYZ 072155Z AUTO 00000KT 5SM +RA BKN036 BKN049 OVC090 25/20 A2988 RMK AO2 P0001 LTG DSNT ALQS", "KMZH 072155Z AUTO 23006KT 10SM CLR 24/10 A2993 RMK AO2", "KMZJ 072155Z AUTO 26014KT 240V300 10SM CLR 43/02 A2975 RMK AO2", "KMZZ 072155Z AUTO 22004KT 10SM CLR 27/15 A2995 RMK AO2 T02740153", "KN03 072155Z AUTO 33004KT 10SM SCT022 BKN033 BKN110 23/18 A2991 RMK AO2", "KN38 072155Z AUTO 35010KT 10SM FEW023 SCT030 25/20 A2991 RMK AO2", "KN60 072152Z AUTO VRB06G20KT 23/07 A3001 RMK AO1 SLP161 T02330067", "KN79 072155Z AUTO 00000KT 10SM FEW130 26/24 A2984 RMK AO2 T02590237", "KNAK 072154Z AUTO 10008KT 10SM CLR 29/24 A2982 RMK AO2 SLP098 T02890244 $", "KNBC 072156Z 16007KT 10SM CLR 33/26 A2980 RMK AO2 SLP092 T03330256", "KNBG 072155Z 23005KT 10SM FEW030 BKN120 BKN250 31/23 A2994 RMK AO2 SLP137 T2 SET T03110228 $ ", "KNBT 072151Z AUTO 17010KT 10SM CLR 34/24 A2980 RMK AO2 SLP096 T03390239", "KNCA 072156Z 19006KT 10SM FEW050 30/24 A2979 RMK AO2 SLP091 T03000239", "KNDZ 072156Z 26005KT 10SM TS FEW033 BKN040CB OVC060 26/23 A2992 RMK AO2 SLP116 TSB15 OCNL LTGICCG VC S TS S MOV SE T1 SET P0000 T02610228 $", "KNEL 072200Z AUTO 14008KT CLR 28/22 A2980 RMK AO2 SLP091 T02780222 PNO $", "KNEW 072153Z 24008KT 10SM CLR 32/22 A2994 RMK AO2 LTG DSNT N SLP132 T03220222", "KNFE 072204Z AUTO 12006KT 10SM CLR 29/22 A2981 RMK AO2 TSE01 T02890222 ", "KNFG 072153Z 22008KT 10SM CLR 24/13 A2984 RMK AO2 SLP103 T02390133 $", "KNFL 072156Z COR 27003KT 10SM SCT070 SCT120 33/06 A2982 RMK AO2 SLP075 T03330061", "KNGP 072156Z 13013KT 10SM FEW025 SCT110 BKN250 33/25 A2990 RMK AO2 SLP124 T03330250", "KNGU 072159Z 09007KT 10SM SCT040 BKN250 29/24 A2983 RMK AO2 SLP100 T2 SET T02890239 $", "KNHK 072152Z 00000KT 10SM FEW040 FEW110 SCT160 BKN250 29/23 A2982 RMK AO2 SLP097 CB DSNT SE T2 SET T02890228 $", "KNID 072156Z AUTO 00000KT 10SM FEW110 37/02 A2972 RMK AO2 SLP040 T03720017 $", "KNIP 072153Z 18012KT 3SM TSRA BR SCT017 BKN030CB BKN085 BKN250 26/24 A2988 RMK AO2 PK WND 19028/2122 WSHFT 2111 SLP114 FRQ LTGICCCCG SE TS SE MOV SE T1 SET P0014 T02610239", "KNJK 072156Z 24008G17KT 10SM CLR 43/M05 A2963 RMK AO2 SLP049 T04281050 $", "KNJM 072157Z AUTO 20008KT 7SM CLR 30/24 A2981 RMK AO2 SLP099 T03000244", "KNJW 072057Z AUTO 14007KT 10SM CLR 27/21 A2997 RMK AO2 TSB01B04E20 SLP062 T02720206 56012 $", "KNKT 072156Z 19006KT 10SM CLR 31/26 A2981 RMK AO2 SLP091 T03110256", "KNKX 072155Z 28008KT 10SM CLR 23/12 A2984 RMK AO2 SLP101 T02280122", "KNLC 072156Z VRB06KT 10SM CLR 33/11 A2979 RMK AO2 SLP086 RH/24 T03330106", "KNMM 072156Z 14003KT 10SM FEW020 SCT040 SCT060 BKN130 24/23 A2993 RMK AO2 RAE14 TSE14 SLP142 T2 SET P0000 T02440233 $", "KNOG 072203Z AUTO 19017G27KT 4SM -RA BR FEW026 BKN037 OVC046 25/23 A2993 RMK AO2 PK WND 18027/2159 WSHFT 2143 P0002 T02500233 TSNO $ ", "KNOW 072155Z AUTO 29015KT 10SM CLR 15/11 A2990 RMK AO2 T01530110", "KNPA 072156Z 34008G14KT 10SM BKN042 BKN160 BKN250 30/23 A2992 RMK AO2 SLP133 FRQ LTGIC DSNT NE CB DSNT NE T2 SET T03000228", "KNQA 072150Z 11004KT 10SM SCT034 30/23 A2990", "KNQI 072156Z 21011KT 10SM -RA SCT020 BKN035 OVC100 26/24 A2992 RMK AO2 PK WND 19035/2117 WSHFT 2107 RAB29 TSB31E56 SLP127 TS MOV NW T1 SET P0001 T02560239 $", "KNQX 072153Z 21008KT 10SM FEW028 32/25 A2996 RMK AO2 SLP144 T03220250 $", "KNRB 072152Z 22014G19KT 10SM SCT040 BKN100 OVC250 27/24 A2988 RMK AO2 RAE00 TSE00 PRESRR SLP116 FRQ LTG DSNT SW CB DSNT SW T2 SET P0000 T02670239 $", "KNRN 072155Z AUTO 04008KT 10SM SCT038 SCT046 BKN060 26/17 A2995 RMK AO2", "KNRS 072153Z 28010KT 10SM FEW022 20/13 A2987 RMK AO2 SLP113 T02000128", "KNSE 072156Z 27010G19KT 10SM TS SCT046CB SCT070 BKN130 BKN250 27/23 A2992 RMK AO2 SLP116 TSB07 OCNL LTGICCG VC SE-S TS SE-S MOV SE T1 SET T02670233 $", "KNSI 072153Z AUTO 32015KT 10SM OVC012 18/ A2988 RMK AO2 SLP114 T0178 $", "KNTD 072155Z 27009KT 10SM FEW022 20/14 A2987 RMK AO2 SLP115 T02000144 VISNO S $", "KNTU 072156Z 01007KT 10SM SCT030 BKN300 27/24 A2981 RMK AO2 SLP098 T2 SET T02720244 $", "KNUC 072156Z 30007KT 10SM BKN015 19/12 A2988 RMK SLP117 T01890122", "KNUI 072153Z AUTO 00000KT 10SM FEW110 28/23 A2981 RMK AO2 TSE24 SLP094 T02780228", "KNUQ 072155Z AUTO 34014KT 10SM CLR 18/12 A2992 RMK AO2", "KNUW 072153Z 26008KT 10SM FEW020 FEW070 SCT110 SCT220 16/12 A2991 RMK AO2 SLP131 T01610117 VISNO $", "KNXF 072156Z AUTO 26008KT 10SM CLR 22/ A2985 RMK AO2 SLP191 T0217 $", "KNXP 072156Z AUTO VRB05KT 10SM CLR 38/M03 A2981 RMK AO2 SLP052 T03781028", "KNYC 072151Z AUTO 00000KT 10SM CLR 27/21 A2985 RMK AO2 SLP098 T02670211 $", "KNYG 072156Z 16005KT 7SM SCT030 SCT080 BKN120 28/24 A2982 RMK AO2 RAE2057 SLP099 P0000 T02830239 $", "KNYL 072157Z VRB03KT 7SM CLR 39/M04 A2965 RMK AO2 SLP037 T03941039 $", "KNZY 072152Z 28009KT 10SM CLR 20/13 A2985 RMK AO2 SLP106 T02000128", "KO22 072155Z AUTO VRB04G10KT 10SM CLR 31/07 A2988 RMK A01", "KO32 072155Z AUTO 32004KT 9SM CLR 32/13 A2978 RMK AO2 T03180125 $", "KO69 072155Z AUTO 27009G15KT 10SM CLR 20/10 A2988 RMK A01", "KO86 072155Z AUTO 16011G16KT 9SM CLR 33/07 A2981 RMK A01", "KOAJ 072156Z 18007KT 10SM CLR 32/25 A2980 RMK AO2 SLP093 T03170250", "KOAK 072153Z 25013KT 10SM OVC015 17/11 A2995 RMK AO2 SLP141 T01670111 $", "KOAR 072155Z AUTO 10SM OVC012 11/06 A2995 RMK AO2", "KOBE 072155Z AUTO 16004KT 8SM VCTS RA FEW055 26/26 A2993 RMK AO2 LTG DSNT ALQDS P0023", "KOCH 072156Z AUTO 22008KT 10SM CLR 33/22 A2992 RMK AO2 SLP132 T03330222", "KOCQ 072155Z AUTO 11003KT 10SM CLR 23/09 A2994 RMK AO1 T02340086", "KOCW 072140Z AUTO 06006KT 2 1/2SM -RA SCT026 BKN060 OVC100 24/22 A2982 RMK AO2 VIS 3/4V5 P0010 T02430220", "KODO 072153Z AUTO 16016G26KT 10SM CLR 36/16 A2992 RMK AO2 PK WND 17027/2112 SLP075 T03560161", "KODX 072153Z AUTO 35009KT 10SM CLR 25/17 A2992 RMK AO2 SLP124 T02500167", "KOEB 072155Z AUTO 30004KT 10SM BKN065 28/11 A2993 RMK AO2 T02760111", "KOEL 072155Z AUTO 17006KT 10SM SCT030 BKN037 BKN045 29/18 A2995 RMK AO1 T02860180", "KOEO 072155Z AUTO 21006KT 10SM SCT090 23/12 A2998 RMK AO2 T02320120", "KOFF 072155Z 03004KT 10SM BKN032 OVC042 21/17 A2992 RMK AO2A RAB24E55 SLP132 P0000 T02070167 $", "KOFK 072156Z AUTO 03005KT 10SM SCT010 OVC020 19/16 A2993 RMK AO2 SLP129 T01940161", "KOFP 072154Z AUTO 00000KT 9SM FEW037 28/25 A2982 RMK AO2 LTG DSNT ALQDS RAB28E42 SLP095 P0000 T02780250", "KOGA 072155Z AUTO 02010KT 10SM SCT060 27/09 A3000 RMK AO2 T02740094", "KOGB 072153Z AUTO 06005KT 10SM SCT050 SCT065 BKN110 33/24 A2981 RMK AO2 LTG DSNT ALQDS SLP090 T03280244", "KOGD 072153Z 26008KT 10SM CLR 34/M01 A2986 RMK AO2 SLP039 T03391006", "KOGS 072155Z AUTO 00000KT 6SM HZ FEW033 BKN055 OVC080 26/22 A2982 RMK AO2", "KOIC 072155Z AUTO 35005KT 10SM SCT019 SCT031 BKN110 24/19 A2993 RMK AO2 T02350192", "KOIN 072155Z AUTO 03008G14KT 10SM SCT045 29/16 A2998 RMK AO1 T02860163", "KOJA 072155Z AUTO 17013G20KT 10SM SCT120 29/22 A2989 RMK AO2 T02920216", "KOKB 072152Z AUTO 26009KT 10SM CLR 22/13 A2984 RMK AO2 SLP104 T02170133", "KOKC 072152Z 11008KT 10SM FEW070 BKN130 BKN200 27/20 A2990 RMK AO2 SLP112 T02670200", "KOKK 072156Z AUTO 26005KT 10SM CLR 29/14 A2994 RMK AO2 SLP134 T02890144 PNO $", "KOKM 072155Z AUTO 12005KT 10SM SCT100 SCT120 27/21 A2990 RMK AO2 T02690207", "KOKV 072155Z AUTO 30005KT 10SM CLR 31/19 A2982 RMK AO2", "KOKZ 072155Z AUTO 21010G14KT 7SM -TSRA BR SCT050 SCT070 BKN080 25/22 A2988 RMK AO2 LTG DSNT ALQDS T02460222", "KOLE 072155Z AUTO 33005KT 10SM SCT042 22/14 A2997 RMK AO2", "KOLF 072153Z AUTO 10SM BKN110 26/05 A3003 RMK AO2 SLP166 T02610050", "KOLG 072155Z AUTO 24008KT 200V270 10SM SCT090 22/10 A2994 RMK AO1", "KOLM 072154Z 26008G17KT 10SM CLR 22/12 A2991 RMK AO2 SLP128 T02170122", "KOLS 072154Z AUTO 21010G18KT 10SM CLR 41/06 A2992 RMK AO2 SLP040 T04060061", "KOLU 072156Z AUTO 05006KT 10SM OVC009 20/20 A2992 RMK AO2 SLP128 T02000200", "KOLV 072150Z 01004KT 10SM SCT040 30/22 A2991", "KOLY 072155Z AUTO 34003KT 10SM CLR 28/16 A2995 RMK AO2 T02840157 PWINO", "KOLZ 072155Z AUTO 01004KT 10SM OVC065 19/13 A2997 RMK A01", "KOMA 072152Z 04006KT 10SM -RA FEW020 OVC047 21/17 A2990 RMK AO2 RAB00E18B36 SLP121 P0000 T02060167", "KOMH 072155Z AUTO 30012G17KT 10SM VCTS SCT065 BKN080 30/22 A2985 RMK AO2 LTG DSNT W THRU NE", "KOMK 072153Z AUTO 04015G23KT 10SM SCT110 34/07 A2980 RMK AO2 LTG DSNT N AND E AND W SLP077 T03440067", "KOMN 072150Z 00000KT 7SM SCT050 25/25 A2989", "KONA 072155Z AUTO 00000KT 10SM SCT055 22/10 A2995 RMK AO2", "KONL 072155Z AUTO 02010KT 10SM OVC006 17/15 A2997 RMK AO2 T01740151", "KONM 072155Z AUTO 33004KT 10SM SCT050 SCT070 SCT095 30/11 A2996 RMK AO2 LTG DSNT S P0002 T02970111", "KONO 072153Z AUTO VRB06KT 10SM CLR 35/08 A2978 RMK AO2 SLP064 T03500078", "KONP 072155Z AUTO 10SM OVC027 15/11 A3001 RMK AO2", "KONT 072153Z 25009KT 10SM CLR 29/10 A2981 RMK AO2 SLP083 T02890100", "KONX 072145Z AUTO 09003KT 10SM CLR 28/19 A2982 RMK AO2 T02780193", "KONZ 072155Z AUTO 18008KT 10SM CLR 25/18 A2993 RMK AO2 T02460178", "KOOA 072155Z AUTO 09004KT 10SM SCT110 21/15 A2997 RMK AO2 T02100148", "KOPF 072200Z 35009KT 5SM TS HZ FEW013 SCT036 BKN048 27/23 A2998 RMK AO2 LTG DSNT ALQDS RAE2154 P0000 T02720233 $", "KOPL 072155Z AUTO 21005KT 10SM SCT047 32/22 A2993 RMK AO2 T03230222", "KOPN 072155Z AUTO 00000KT 10SM -VCTSDZ SCT022 SCT028 SCT035 23/21 A2991 RMK AO2 LTG DSNT ALQS", "KOQN 072155Z AUTO 29003KT 10SM CLR 26/22 A2983 RMK AO2", "KOQT 072153Z AUTO 07006KT 10SM FEW075 31/19 A2991 RMK AO2 SLP110 T03110189", "KOQU 072150Z 19012KT 8SM BKN025 26/21 A2988", "KORB 072153Z AUTO 28009KT 10SM CLR 18/13 A2989 RMK AO2", "KORD 072151Z 06008KT 10SM SCT050 BKN300 26/16 A2992 RMK AO2 SLP127 T02610156", "KORE 072152Z AUTO 20004KT 10SM CLR 29/19 A2985 RMK AO2 LTG DSNT W-N SLP105 T02940194", "KORF 072151Z 10004KT 10SM CLR 29/24 A2981 RMK AO2 LTG DSNT SW SLP093 T02890239", "KORG 072155Z AUTO 18010G15KT 10SM CLR 34/23 A2995 RMK AO2 T03350231", "KORH 072154Z 20009KT 10SM FEW034 28/19 A2988 RMK AO2 SLP112 T02780194", "KORK 072155Z AUTO 25005KT 10SM SCT028 BKN036 BKN043 30/24 A2991 RMK AO2", "KORL 072153Z 19006KT 10SM FEW110 28/24 A2992 RMK AO2 LTG DSNT ALQDS RAE05 TSE06 SLP134 P0000 T02780239", "KORS 072155Z AUTO 16012G17KT 10SM CLR 19/12 A2985 RMK AO2", "KOSA 072155Z AUTO 22004KT 10SM SCT048 33/23 A2990 RMK AO2 T03300227", "KOSC 072155Z AUTO 10007KT 10SM CLR 24/12 A2993 RMK AO2 T02350120", "KOSH 072153Z 21004KT 10SM CLR 25/11 A2994 RMK AO2 SLP130 T02500106", "KOSU 072153Z 34005KT 10SM CLR 30/16 A2992 RMK AO2 SLP124 T03000161", "KOTG 072156Z AUTO 15007KT 10SM SCT060 BKN075 BKN100 17/12 A2998 RMK AO2 RAE47 SLP155 P0000 T01670122", "KOTH 072156Z 30011KT 10SM BKN027 17/11 A3000 RMK AO2 SLP157 T01720111", "KOTM 072053Z AUTO 15005KT 10SM BKN120 18/15 A2996 RMK AO2 SLP145 60016 T01830150 55015", "KOUN 072145Z 08010KT 10SM CLR 27/21 A2990", "KOVE 072153Z AUTO 18006G14KT 10SM CLR 31/14 A2980 RMK AO2 SLP091 T03060144", "KOVL 072155Z AUTO 23010KT 10SM CLR 20/13 A2996 RMK AO2", "KOVS 072153Z AUTO 28003KT 10SM BKN110 23/11 A2994 RMK AO2 SLP140 T02280111", "KOWA 072153Z AUTO 23004KT 10SM CLR 21/09 A2996 RMK AO2", "KOWB 072156Z 27005KT 10SM CLR 30/19 A2992 RMK AO2 SLP127 T03000194", "KOWD 072153Z 20009KT 10SM CLR 29/18 A2984 RMK AO2 SLP104 T02890183", "KOWI 072155Z AUTO 20006KT 10SM FEW029 29/21 A2986 RMK AO2 PWINO", "KOWP 072155Z AUTO 23003KT 10SM CLR 25/23 A2991 RMK AO2 T02510233", "KOWX 072155Z AUTO 00000KT 10SM SCT070 28/12 A2994 RMK AO1", "KOXC 072151Z 15009KT 10SM CLR 27/22 A2987 RMK AO2 SLP118 T02720222", "KOXD 072059Z AUTO 35004KT 10SM CLR 30/11 A2996 RMK AO2", "KOXI 072155Z AUTO 20004KT 10SM CLR 27/10 A2992 RMK AO1", "KOXR 072151Z 28011KT 10SM CLR 19/13 A2986 RMK AO2 SLPNO T01940133 $", "KOXV 072055Z AUTO VRB06KT 10SM FEW100 18/13 A2997 RMK AO2", "KOYM 072155Z AUTO 35006KT 10SM SCT029 BKN035 OVC048 25/18 A2997 RMK AO2 PWINO", "KOZA 072150Z AUTO 17014G21KT 10SM CLR 35/15 A2994 RMK AO2", "KOZR 072155Z AUTO 27010KT 10SM FEW040 33/22 A2987 RMK AO2 LTG DSNT E AND S-SW SLP114 T03280222 $", "KOZS 072155Z AUTO 27005KT 10SM SCT090 31/15 A2988 RMK AO2 LTG DSNT E", "KOZW 072155Z AUTO 03007KT 10SM CLR 25/10 A2996 RMK AO2 T02520104", "KP08 072155Z AUTO VRB05KT 10SM CLR 42/02 A2972 RMK AO2", "KP28 072156Z AUTO 06012KT 23/21 A2991 RMK AO1 SLP116 T02330206 $", "KP52 072155Z AUTO 18009G20KT 10SM CLR 37/M01 A2987 RMK AO2", "KP53 072156Z AUTO 22007KT 24/09 A2990 RMK AO1 SLP125 T02440094", "KP58 072155Z AUTO 05006KT 22/13 A2994 RMK AO1 SLP134 T02220133", "KP59 072151Z AUTO 33005KT 25/11 A2986 RMK AO1 SLP105 T02500111", "KP60 072156Z AUTO VRB05KT 18/02 A3019 RMK AO1 SLP163 T01830017", "KP68 072153Z AUTO 18008G17KT 32/M07 A2992 RMK AO1 SLP033 T03171072", "KP69 072152Z AUTO 00000KT 34/11 A2974 RMK AO1 SLP046 T03390106", "KP92 072159Z AUTO 21003KT 30/25 A2994 RMK AO1 SLP137 T03000250", "KPAE 072153Z 27009G17KT 10SM CLR 21/12 A2990 RMK AO2 SLP123 T02110122", "KPAH 072153Z 34003KT 10SM SCT055 OVC080 31/20 A2990 RMK AO2 SLP119 T03060200", "KPAM 072155Z 25014KT 10SM FEW030 FEW100 31/24 A2989 RMK AO2A LTG DSNT S SLP125 T03120238 $", "KPAN 072155Z AUTO 24015KT 10SM CLR 34/M01 A3005 RMK AO2 PWINO TSNO", "KPAO 072147Z 32013G20KT 10SM FEW020 19/12 A2992", "KPBF 072153Z AUTO 25004KT 10SM FEW034 BKN047 32/24 A2990 RMK AO2 SLP123 T03170239", "KPBG 072153Z AUTO 00000KT 10SM -RA SCT037 BKN075 OVC110 23/21 A2985 RMK AO2 LTG DSNT SW-N SLP108 P0006 T02280211", "KPBH 072155Z AUTO 24005KT 10SM SCT060 SCT090 21/12 A2997 RMK AO2 T02100119", "KPBI 072153Z 14004KT 10SM FEW022 SCT040 BKN100 28/23 A2995 RMK AO2 LTG DSNT E SLP141 CB DSNT E-S T02780228 $", "KPBX 072155Z AUTO 31004KT 10SM CLR 27/20 A2995 RMK AO2 T02710201", "KPCD 072155Z AUTO 17007KT 10SM SCT080 31/21 A2989 RMK AO2 T03140212", "KPCM 072155Z AUTO 00000KT 10SM SCT028 SCT050 BKN120 26/25 A2995 RMK AO2 P0083", "KPCW 072155Z AUTO 15008KT 10SM CLR 25/18 A2994 RMK AO2", "KPCZ 072155Z AUTO 17004KT 10SM CLR 25/06 A2995 RMK AO2 T02500058", "KPDC 072155Z AUTO 00000KT 10SM OVC100 21/10 A2996 RMK AO2 T02120096", "KPDK 072153Z 20008KT 10SM VCTS FEW080 FEW095 26/22 A2990 RMK AO2 LTG DSNT SE AND S TSB08E23 SLP108 T02610217", "KPDT 072153Z 35009G17KT 10SM CLR 37/07 A2975 RMK AO2 SLP053 T03670067", "KPDX 072153Z VRB03KT 10SM FEW035 FEW300 23/12 A2992 RMK AO2 SLP130 T02280122", "KPEA 072155Z AUTO 10005KT 10SM SCT019 BKN110 19/15 A2997 RMK AO2 T01920147", "KPEO 072153Z AUTO 32006KT 10SM SCT029 BKN037 26/19 A2990 RMK AO2 SLP117 T02610194", "KPEQ 072155Z AUTO 11019G25KT 10SM CLR 38/16 A2983 RMK AO2 T03790159", "KPEX 072155Z AUTO 24007KT 10SM CLR 23/11 A2996 RMK AO2", "KPEZ 072155Z AUTO 15010KT 100V170 10SM SCT048 SCT060 BKN080 34/22 A2989 RMK AO2 T03410219", "KPGA 072153Z AUTO 19006G15KT 10SM CLR 37/M04 A2986 RMK AO2 SLP030 T03671044", "KPGD 072153Z 28010G21KT 10SM CLR 33/23 A2994 RMK AO2 SLP139 T03280228", "KPGV 072145Z AUTO 00000KT 10SM CLR 26/25 A2980 RMK AO2", "KPHD 072153Z AUTO 34006KT 10SM BKN055 BKN065 27/18 A2992 RMK AO2 SLP126 T02720178", "KPHF 072154Z 10006KT 10SM CLR 27/23 A2982 RMK AO2 LTG DSNT NW SLP096 T02720233", "KPHL 072154Z 12003KT 10SM FEW030 SCT150 BKN200 28/21 A2981 RMK AO2 SLP095 T02830211", "KPHN 072155Z AUTO 01007KT 10SM CLR 23/12 A2995 RMK AO2", "KPHP 072155Z AUTO 00000KT 10SM CLR 24/11 A2998 RMK AO2 SLP133 T02440111", "KPHT 072155Z AUTO 00000KT 10SM BKN043 BKN055 30/21 A2992 RMK A01", "KPHX 072151Z 22006KT 10SM FEW150 FEW180 44/M01 A2967 RMK AO2 SLP024 T04391006", "KPIA 072154Z 27009KT 10SM FEW110 26/13 A2996 RMK AO2 SLP142 T02610128", "KPIB 072156Z AUTO VRB05KT 10SM SCT045 32/23 A2993 RMK AO2 SLP133 T03220233 $", "KPIE 072153Z 27012G20KT 10SM SCT033 SCT050 32/23 A2993 RMK AO2 LTG DSNT E SLP133 T03220233", "KPIH 072153Z 31008KT 10SM FEW050 30/08 A2992 RMK AO2 SLP086 T03000078", "KPIL 072153Z AUTO 12012KT 10SM CLR 32/26 A2987 RMK AO2 SLP115 T03220261", "KPIM 072155Z AUTO 00000KT 10SM SCT110 26/22 A2991 RMK AO2 LTG DSNT SE T02550223", "KPIR 072153Z AUTO 23003KT 10SM CLR 24/14 A2994 RMK AO2 SLP130 T02390139", "KPIT 072151Z 34012G17KT 10SM SCT039 BKN250 28/17 A2992 RMK AO2 SLP128 T02780172", "KPJC 072155Z AUTO 31006KT 10SM SCT045 26/16 A2991 RMK AO2", "KPKB 072153Z 27004KT 10SM FEW047 29/19 A2990 RMK AO2 SLP118 T02940189", "KPKD 072153Z AUTO 10007KT 10SM FEW045 BKN060 OVC070 16/14 A2993 RMK AO2 LTG DSNT E-SW RAE42 TSE19 SLP137 P0002 T01560144", "KPKV 072155Z AUTO 15007G14KT 10SM CLR 33/25 A2992 RMK AO2 T03260245", "KPLD 072155Z AUTO 22003KT 7SM SCT060 28/12 A2993 RMK AO2", "KPLN 072154Z AUTO 21004KT 10SM CLR 24/07 A2995 RMK AO2 SLP140 T02390067", "KPLR 072155Z AUTO 00000KT 10SM CLR 27/25 A2990 RMK A01", "KPLU 072155Z AUTO VRB04KT 10SM CLR 22/13 A2991 RMK AO2", "KPMD 072153Z 24013G23KT 10SM CLR 33/02 A2982 RMK AO2 SLP069 T03280022 $", "KPMH 072059Z AUTO 00000KT 10SM SCT060 SCT065 BKN085 31/14 A2993 RMK AO2", "KPMP 072153Z 17004KT 10SM CLR 27/24 A2995 RMK AO2 LTG DSNT NE AND S AND SW TSE02 SLP142 T02720244", "KPMU 072155Z AUTO 26006KT 10SM CLR 31/22 A2990 RMK AO2", "KPMV 072155Z AUTO 06005KT 10SM -RA OVC025 20/18 A2990 RMK AO2 T02000175", "KPNA 072155Z AUTO 27006KT 7SM SCT060 SCT070 OVC085 19/02 A3016 RMK AO2 LTG DSNT N S AND SW", "KPNC 072123Z AUTO 27005KT 10SM VCTS OVC110 22/20 A2989 RMK AO2 LTG DSNT NW-NE RAE2058 TSE2058B02E17 P0000 T02220200", "KPNE 072154Z 31003KT 10SM CLR 29/21 A2983 RMK AO2 SLP100 T02890211", "KPNM 072155Z AUTO 19004KT 10SM CLR 24/10 A2996 RMK AO2", "KPNS 072153Z 01005KT 4SM -TSRA FEW017 BKN044 OVC080 26/22 A2993 RMK AO2 PK WND 33026/2138 LTG DSNT N-E RAB40 SLP136 P0036 T02560222", "KPNT 072155Z AUTO 24007KT 10SM OVC110 26/14 A2995 RMK AO2 T02570135", "KPO1 072155Z AUTO 05009KT 10SM FEW090 26/06 A3004 RMK AO2", "KPOB 072155Z AUTO 26008KT 10SM CLR 30/21 A2979 RMK AO2 LTG DSNT SE SLP089 T02980214 $", "KPOC 072147Z 25008G15KT 10SM CLR 27/11 A2984", "KPOE 072155Z AUTO 19014KT 10SM FEW095 31/21 A2992 RMK AO2 SLP131 T03060214", "KPOU 072153Z AUTO 23003KT 10SM CLR 30/21 A2980 RMK AO2 SLP088 T03000206", "KPOV 072155Z AUTO 35007KT 310V010 10SM CLR 25/13 A2995 RMK AO2 T02450129 PWINO", "KPOY 072155Z AUTO 17004KT 10SM SCT060 22/03 A3010 RMK AO2 LTG DSNT W", "KPPO 072155Z AUTO 19003KT 10SM CLR 26/14 A2993 RMK AO2 T02640137", "KPPQ 072155Z AUTO 00000KT 10SM OVC080 26/18 A2996 RMK AO2 LTG DSNT NW T02570178", "KPQI 072156Z AUTO 04006KT 10SM FEW055 BKN110 22/21 A2982 RMK AO2 WSHFT 2103 LTG DSNT SE AND S TSE56RAB2058E40 PRESFR SLP121 P0013 T02170206", "KPQL 072153Z 24007KT 10SM CLR 33/24 A2991 RMK AO2 LTG DSNT NE SLP130 T03330244", "KPRB 072153Z AUTO 30011KT 10SM CLR 30/07 A2985 RMK AO2 SLP099 T03000067", "KPRC 072153Z 19014G25KT 10SM CLR 32/01 A3000 RMK AO2 PK WND 19026/2122 SLP065 T03220006", "KPRG 072140Z AUTO 26006KT 10SM SCT120 27/19 A2997 RMK AO2 T02650194", "KPRN 072058Z AUTO 27006KT 10SM SCT031 29/22 A2990 RMK AO2 SLP070 T02890222 56018", "KPRO 072155Z AUTO 08004KT 10SM -RA OVC027 17/15 A2997 RMK AO2 P0002 T01700145", "KPRS 072155Z AUTO 05005G15KT 10SM CLR 39/17 A2986 RMK AO2 T03920172", "KPRX 072156Z AUTO 20010KT 8SM CLR 33/24 A2989 RMK AO2 SLP117 T03280239 PNO $", "KPSC 072153Z 10SM CLR 37/11 A2970 RMK AO2 SLP053 T03670111", "KPSF 072154Z AUTO 23006KT 10SM FEW039 25/19 A2988 RMK AO2 LTG DSNT NE AND E RAB06E27 SLP093 P0000 T02500194", "KPSK 072155Z AUTO 33007KT 310V010 10SM CLR 28/18 A2993 RMK AO2 T02810177", "KPSM 072155Z 14012KT 10SM FEW030 FEW180 BKN250 26/21 A2981 RMK AO2A SLP097 T02610213", "KPSN 072155Z AUTO 16007G13KT 130V210 10SM CLR 33/21 A2990 RMK AO2", "KPSO 072155Z AUTO 23010G26KT 10SM SCT120 29/M02 A3017 RMK AO2 T02881017", "KPSP 072153Z 32016G21KT 10SM CLR 40/03 A2967 RMK AO2 SLP043 T04000033", "KPSX 072153Z AUTO 14011KT 10SM FEW120 32/24 A2992 RMK AO2 SLP129 T03170244", "KPTB 072155Z AUTO 00000KT 10SM CLR 27/23 A2983 RMK AO2 T02660226", "KPTD 072155Z AUTO 00000KT 10SM CLR 26/19 A2985 RMK AO2", "KPTK 072153Z 34007KT 10SM FEW060 SCT200 25/10 A2995 RMK AO2 SLP138 T02500100", "KPTN 072156Z AUTO 20005KT 10SM CLR 31/26 A2996 RMK AO2 SLP146 T03060256 PNO $", "KPTS 072155Z AUTO 26006KT 10SM BKN028 BKN039 BKN050 29/22 A2989 RMK AO2 T02880217 PWINO", "KPTT 072155Z AUTO 11009KT 10SM SCT048 OVC055 24/22 A2994 RMK AO2 LTG DSNT E AND SE T02370221", "KPTV 072156Z AUTO 30007KT 10SM CLR 32/10 A2981 RMK AO2 SLP090 T03220100", "KPTW 072154Z AUTO 02003KT 10SM CLR 25/22 A2984 RMK AO2 SLP101 T02500222 $", "KPUB 072153Z 08016G24KT 10SM SCT055 28/14 A2997 RMK AO2 PK WND 05029/2128 LTG DSNT N SLP083 T02830144 $", "KPUC 072153Z AUTO 15004KT 10SM CLR 31/M07 A2997 RMK AO2 SLP045 T03111067", "KPUJ 072150Z AUTO 00000KT CLR 28/21 A2992 RMK AO2 PWINO", "KPUW 072153Z AUTO 23003KT 9SM CLR 31/07 A2985 RMK AO2 SLP093 T03060067", "KPVB 072155Z AUTO 22008KT 10SM SCT048 BKN065 OVC080 19/12 A2998 RMK AO1 P0001 T01890121", "KPVC 072156Z AUTO 18012G16KT 10SM CLR 23/22 A2986 RMK AO2 SLP112 T02330217", "KPVD 072151Z 17013KT 10SM FEW009 SCT013 BKN250 26/22 A2986 RMK AO2 SLP111 T02560217", "KPVE 072155Z AUTO 00000KT 10SM CLR 30/18 A2993 RMK A01", "KPVF 072155Z AUTO 25004KT 10SM CLR 27/08 A2993 RMK AO1", "KPVG 072156Z AUTO 10SM -RA FEW047 27/26 A2982 RMK AO2 LTG DSNT S RAB50 SLP100 P0000 T02720256 $", "KPVJ 072155Z AUTO 06007KT 10SM CLR 29/23 A2989 RMK AO2 T02890225", "KPVU 072156Z VRB05KT 10SM CLR 33/01 A2987 RMK AO2 SLP051 T03280006", "KPVW 072155Z AUTO 17020G27KT 10SM CLR 32/18 A2988 RMK AO2 T03170178", "KPWA 072153Z 11008KT 10SM FEW120 28/19 A2990 RMK AO2 SLP107 T02780194", "KPWC 072155Z AUTO 31007KT 7SM +RA SCT020 SCT032 OVC050 16/13 A3002 RMK AO2 LTG DSNT NE AND W P0005", "KPWD 072155Z AUTO 36010KT 10SM FEW075 SCT100 25/06 A3005 RMK AO2", "KPWG 072156Z AUTO 13011KT 10SM FEW050 34/22 A2989 RMK AO2 SLP114 T03440217", "KPWK 072152Z 06007KT 10SM CLR 24/16 A2994 RMK AO2 SLP136 T02390156", "KPWM 072151Z 16010KT 10SM CLR 23/20 A2984 RMK AO2 SLP105 T02280200", "KPWT 072156Z AUTO 20008G16KT 10SM CLR 23/13 A2989 RMK AO2 SLP126 T02280133", "KPXE 072155Z AUTO 34007KT 10SM VCTS SCT049 BKN100 28/24 A2987 RMK AO2 LTG DSNT E THRU W T02800237", "KPYM 072152Z AUTO 22009KT 10SM CLR 27/20 A2985 RMK AO2 SLP110 T02720200", "KPYX 072155Z AUTO 15015G20KT 10SM CLR 27/18 A2986 RMK AO2 T02680182", "KPZQ 072155Z AUTO 36008KT 7SM CLR 22/12 A2994 RMK AO2 T02190121", "KPZZ 072155Z AUTO 10005KT 10SM CLR 31/24 A2997 RMK A01", "KQAZ 072155Z AUTO 00000KT 9999 CLR 34/08 A2987 RMK AO2 SLP105 WND DATA ESTMD T03380080", "KQBL 072155Z AUTO 24007KT 000V290 10SM FEW190 29/25 A2991 RMK AO2 LTG DSNT W-NW SLP134 WND DATA ESTMD T02910245", "KQBR 072155Z AUTO VRB04KT 10SM BKN150 32/04 A2988 RMK AO2 LTG DSNT N SLP988 WND DATA ESTMD T03240043", "KQD3 072155Z AUTO VRB03KT 9999 CLR 33/23 A2966 RMK AO2 SLP028 WND DATA ESTMD T03310234", "KQDG 072155Z AUTO 36003KT 9999 BKN190 21/20 A2972 RMK AO2 SLP066 T02140202 $", "KQEI 072200Z AUTO 29003KT 9999 BKN006 19/18 A2967 RMK A02 TSNO", "KQEJ 072200Z AUTO 33001KT 4800 // BKN002 19/18 A2965 RMK A02 TSNO", "KQEN 072200Z AUTO 24003KT 9999 CLR 14/13 A2976 RMK A02 TSNO", "KQEP 072200Z AUTO 01002KT 9999 OVC005 20/20 A2965 RMK A02 TSNO", "KQEQ 072200Z AUTO 01004KT 9999 BKN032 21/21 / RMK A02 TSNO", "KQER 072150Z AUTO 11001KT 9999 CLR 19/19 A2962 RMK A02 TSNO", "KQEV 072200Z AUTO 09003KT 9999 OVC005 21/20 A2960 RMK A02 TSNO", "KQEW 072200Z AUTO 04002KT 4800 -SHRA BKN002 OVC039 19/19 A2967 RMK A02 TSNO", "KQEX 072200Z AUTO 36001KT 4800 CLR 29/21 / RMK A02 TSNO", "KQEY 072200Z AUTO 11003KT 9999 OVC005 20/20 A2937 RMK A02 TSNO", "KQFB 072200Z AUTO 00000KT 6000 OVC005 21/20 A2972 RMK A02 TSNO", "KQFT 072200Z AUTO 03002KT 9999 OVC031 20/19 A2962 RMK A02 TSNO", "KQFU 072200Z AUTO 27001KT 9999 CLR 22/19 A2967 RMK A02 TSNO", "KQFV 072200Z AUTO 00000KT 9000 FEW003 17/17 A2970 RMK A02 TSNO", "KQFW 072200Z AUTO 36004KT 9999 SCT005 19/19 A2950 RMK A02 TSNO", "KQFX 072200Z AUTO 02002KT 9000 OVC005 20/19 A2963 RMK A02 TSNO", "KQN3 072055Z 20005KT 9999 FEW200 36/21 A2987 RMK AO2A SLP096 T03560212 53019", "KQOA 072156Z COR 19010G20KT 2400 +TSRA BR FEW015 BKN050CB OVC075 22/22 A2989 RMK OCNL LTGICCCCG RAB2053 TSB2054 SLP090 P0019 COR 2157", "KQRH 072155Z AUTO VRB03KT 9999 CLR 33/25 A2960 RMK AO2 SLP026 WND DATA ESTMD T03270253", "KQTZ 072155Z 03001KT 9999 SKC 34/03 A2949 RMK SLP983 WND DATA ESTMD ALSTG/SLP ESTMD", "KQVF 072155Z AUTO 15005KT 9999 SCT023 BKN050 25/22 A3006 RMK AO2 SLP182 WND DATA ESTMD T02490217", "KRAC 072153Z AUTO 11008KT 10SM CLR 23/14 A2996 RMK AO2 SLP143 T02280139", "KRAL 072153Z 28009G16KT 10SM CLR 31/11 A2980 RMK AO2 SLP077 T03060111", "KRAP 072152Z 05009KT 10SM CLR 24/12 A3003 RMK AO2 PK WND 02033/2107 WSHFT 2059 SLP151 T02440117", "KRAS 072155Z AUTO 10010KT 10SM CLR 30/25 A2992 RMK AO2 LTG DSNT SW T02960253", "KRAW 072155Z AUTO 29004KT 10SM CLR 30/18 A2988 RMK AO2", "KRBD 072153Z 19011G21KT 10SM CLR 34/21 A2987 RMK AO2 SLP103 T03390206", "KRBG 072153Z AUTO VRB05G16KT 10SM CLR 26/10 A2989 RMK AO2 SLP118 T02610100", "KRBL 072154Z AUTO 18010KT 10SM CLR 32/14 A2977 RMK AO2 SLP076 T03170139", "KRBO 072155Z AUTO 16009KT 10SM SCT036 SCT043 32/24 A2991 RMK AO2 LTG DSNT S T03170235", "KRBW 072155Z AUTO 23007KT 10SM SCT055 34/21 A2981 RMK AO2 LTG DSNT NE SW AND NW", "KRCA 072155Z AUTO 03007KT 10SM CLR 24/09 A3001 RMK AO2 SLP150 T02370089 $", "KRCE 072155Z AUTO 11010G17KT 28/20 RMK AO2 TSNO", "KRCM 072135Z AUTO 04008KT 10SM SCT044 BKN050 26/17 A2987 RMK AO2", "KRCR 072155Z AUTO 00000G11KT 10SM CLR 28/16 A2993 RMK AO2", "KRCV 072155Z AUTO 26023G30KT CLR 30/M03 A3015 RMK AO2 T02981034 PWINO", "KRCX 072155Z AUTO 20005KT 10SM CLR 22/15 A2998 RMK AO2 T02170150", "KRCZ 072150Z AUTO 00000KT 10SM -RA CLR 24/22 A2985 RMK AO2 P0001 T02370218", "KRDD 072153Z 18009G14KT 10SM CLR 34/13 A2974 RMK AO2 SLP063 T03440133", "KRDG 072154Z 00000KT 10SM CLR 27/21 A2982 RMK AO2 SLP100 T02670211", "KRDK 072155Z AUTO 08004KT 10SM BKN022 OVC050 21/17 A2992 RMK AO2", "KRDM 072156Z 33008G16KT 270V010 10SM CLR 33/05 A2984 RMK AO2 SLP075 T03280050", "KRDR 072155Z 01013KT 10SM FEW055 23/10 A2992 RMK AO2A SLP135 T02310095 VISNO RWY17 $", "KRDU 072151Z 08008KT 10SM TS SCT045CB SCT075 SCT250 29/21 A2981 RMK AO2 WSHFT 2125 TSB24 SLP088 OCNL LTGIC OHD-E TS OHD-E MOV SLWLY E T02940211", "KREG 072155Z AUTO 21006KT 10SM CLR 33/23 A2993 RMK AO2 T03330230", "KREO 072152Z AUTO 19012G21KT 33/06 A2983 RMK AO1 SLP053 T03280056", "KRFD 072154Z 19007KT 10SM FEW055 SCT100 OVC250 24/13 A2996 RMK AO2 SLP141 T02440128", "KRFI 072155Z AUTO 21004KT 10SM SCT050 SCT065 35/22 A2991 RMK AO2 T03470222", "KRGA 072155Z AUTO 32005KT 10SM CLR 31/18 A2994 RMK AO2", "KRGK 072155Z AUTO 29003KT 10SM CLR 23/09 A2993 RMK AO2", "KRHI 072153Z AUTO 24006KT 10SM FEW085 23/11 A2997 RMK AO2 SLP149 T02280106", "KRHP 072150Z AUTO 35004KT 10SM CLR 30/18 A2993 RMK AO2 T03000178", "KRHV 072147Z 29011KT 10SM SKC 22/12 A2991", "KRIC 072154Z 19003KT 10SM FEW035 SCT095 SCT120 BKN300 29/23 A2981 RMK AO2 RAB39E52 SLP095 P0000 T02940228", "KRID 072155Z AUTO 00000KT 10SM CLR 27/14 A2995 RMK AO2", "KRIL 072153Z AUTO 27013G17KT 10SM CLR 33/M02 A2993 RMK AO2 SLP059 T03331017", "KRIV 072155Z AUTO 32006KT 10SM CLR 30/11 A2982 RMK AO2 SLP086 T02980108", "KRIW 072153Z AUTO 10SM CLR 23/06 A3010 RMK AO2 LTG DSNT N AND NE SLP140 T02330061", "KRKD 072156Z AUTO 19005KT 10SM CLR 23/20 A2988 RMK AO2 SLP118 T02330200", "KRKP 072153Z AUTO 15014G19KT 9SM CLR 31/26 A2990 RMK AO2 SLP125 T03110256", "KRKR 072155Z AUTO 27006KT 10SM CLR 33/22 A2991 RMK AO2 LTG DSNT S", "KRKS 072202Z AUTO 18022G34KT 10SM VCTS BKN090 21/06 A3011 RMK AO2 PK WND 19034/2156 WSHFT 2142 LTG DSNT E AND SE T02110056", "KRKW 072155Z AUTO 02004KT 10SM CLR 29/19 A2994 RMK A01", "KRLD 072155Z AUTO 02003KT 10SM CLR 37/06 A2970 RMK AO2 T03680059", "KRME 072153Z 25007KT 10SM SCT015 24/21 A2988 RMK AO2 SLP113 T02440211", "KRMG 072153Z AUTO 35007KT 10SM CLR 33/21 A2987 RMK AO2 LTG DSNT SW SLP104 T03280206", "KRMN 072155Z AUTO 14005KT 10SM CLR 29/21 A2982 RMK AO2 LTG DSNT SE AND W T02900210", "KRMY 072155Z AUTO 00000KT 10SM CLR 28/10 A2994 RMK AO2 T02780099", "KRNC 072155Z AUTO 01007KT 10SM FEW047 30/20 A2991 RMK A01", "KRND 072155Z AUTO 17009KT 7SM SCT046 BKN085 34/21 A2988 RMK AO2 SLP109 T03360207", "KRNH 072155Z AUTO 22005KT 10SM CLR 22/14 A2997 RMK AO2 T02150144", "KRNM 072153Z 27010KT 10SM CLR 28/12 A2984 RMK AO2 SLP091 T02830117", "KRNO 072155Z 24011KT 10SM SCT090 33/06 A2989 RMK AO2 SLP055 T03280056", "KRNP 072202Z AUTO 00000KT 10SM SCT065 25/07 A2994 RMK AO2", "KRNT 072153Z 17007KT 10SM FU CLR 22/12 A2989 RMK AO2 SLP126 T02220122", "KROA 072154Z 33006KT 10SM FEW055 OVC200 32/19 A2987 RMK AO2 SLP100 T03170189", "KROC 072154Z 34007KT 10SM SCT035 SCT085 SCT180 26/17 A2989 RMK AO2 SLP123 T02610172", "KROG 072158Z 21009G17KT 10SM CLR 29/21 A2991 RMK AO2 SLP114 T02890211", "KROS 072155Z AUTO 23003KT 10SM OVC080 25/10 A2996 RMK AO2 T02460101", "KROW 072151Z 18016G25KT 10SM CLR 36/14 A2984 RMK AO2 PK WND 19033/2131 LTG DSNT E-S RAE05 TSE06 SLP025 P0000 T03560139", "KROX 072155Z AUTO 34009KT 10SM SCT070 SCT075 22/09 A2992 RMK AO2", "KRPD 072155Z AUTO 22006KT 7SM CLR 22/14 A2998 RMK AO2 T02170143", "KRPH 072155Z AUTO 16012G20KT 120V200 10SM CLR 35/19 A2980 RMK AO2 T03460190 $", "KRPJ 072155Z AUTO 24007KT 10SM SCT048 SCT050 BKN095 24/12 A2996 RMK AO2 T02350120 TSNO", "KRPX 072055Z AUTO 00000KT 25/04 A2999 RMK Roundup ", "KRQB 072155Z AUTO 24005KT 10SM CLR 25/09 A2995 RMK AO2 T02460085", "KRQE 072153Z AUTO 22024G35KT 10SM CLR 33/M01 A3009 RMK AO2 PK WND 22035/2151 SLP040 T03281011", "KRRL 072155Z AUTO 26007KT 10SM BKN060 22/11 A2995 RMK AO2 T02230111 TSNO", "KRRT 072155Z AUTO 33013G17KT 10SM SCT070 SCT080 22/12 A2992 RMK AO2", "KRSL 072153Z AUTO 23007KT 10SM OVC050 27/18 A2990 RMK AO2 SLP107 T02670183", "KRSP 072154Z AUTO 00000KT 10SM FEW110 31/22 A2990 RMK AO2 RAE2056 SLP923 P0000 T03110222 $", "KRST 072154Z 20005KT 10SM CLR 21/10 A2996 RMK AO2 SLP144 T02110100", "KRSW 072153Z 27010KT 10SM CLR 32/24 A2993 RMK AO2 LTG DSNT E-S SLP133 T03220239", "KRTN 072153Z AUTO 03007KT 10SM CLR 30/12 A3001 RMK AO2 LTG DSNT NE AND E RAE2057 SLP062 P0000 T03000117", "KRTS 072155Z AUTO 26008G14KT 240V300 10SM FEW090 27/07 A2996 RMK AO2", "KRUE 072153Z AUTO 10004KT 10SM FEW030 32/23 A2989 RMK AO2 LTG DSNT SE SLP112 T03170233", "KRUG 072155Z AUTO 35013KT 10SM FEW060 FEW085 22/09 A2999 RMK AO2", "KRUQ 072145Z AUTO 00000KT 10SM SCT037 SCT050 BKN090 25/21 A2985 RMK AO2 T02510208", "KRUT 072156Z AUTO 00000KT 9SM VCTS -RA FEW028 BKN050 OVC070 21/21 A2992 RMK AO2 LTG DSNT SE AND S SLP122 P0020 T02060206 $", "KRVF 072155Z AUTO 01012G19KT 10SM CLR 24/03 A3002 RMK AO2", "KRVJ 072155Z AUTO 27010G16KT 10SM CLR 35/21 A2982 RMK AO2 LTG DSNT ALQDS T03520209", "KRVL 072155Z AUTO 36008KT 10SM FEW070 28/21 A2985 RMK AO2", "KRVS 072053Z VRB03KT 10SM -RA FEW090 SCT110 26/21 A2993 RMK AO2 RAB51 SLP138 P0000 60000 T02610206 51023", "KRWF 072153Z AUTO 22008KT 10SM CLR 21/12 A2996 RMK AO2 SLP145 T02060122", "KRWI 072201Z AUTO 31012G20KT 10SM -TSRA FEW019 SCT055 BKN070 24/21 A2985 RMK AO2 WSHFT 2141 LTG DSNT ALQDS P0000 T02390206", "KRWL 072153Z AUTO 05008KT 350V110 10SM CLR 26/02 A3013 RMK AO2 SLP112 T02560017", "KRWV 072155Z AUTO 18012G15KT 10SM BKN048 BKN050 32/21 A2993 RMK AO2 T03250207", "KRXE 072153Z AUTO VRB03KT 10SM CLR 29/01 A2994 RMK AO2 SLP094 T02890011", "KRYM 072155Z AUTO 24008KT 10SM CLR 24/11 A2992 RMK AO2 LTG DSNT NW SLP134 T02420108 $", "KRYN 072155Z AUTO 32007G12KT 290V020 10SM CLR 41/02 A2976 RMK AO2", "KRYW 072155Z AUTO 17009G14KT 10SM SCT042 SCT100 33/21 A2994 RMK AO2 T03300205", "KRYY 072150Z 00000KT 10SM SCT039 32/22 A2990 RMK AO2 LTG DSNT SE SLP112 T03170217 $", "KRZL 072155Z AUTO 19005KT 10SM CLR 27/13 A2994 RMK AO2", "KRZN 072155Z AUTO 23007KT 10SM CLR 23/10 A2996 RMK AO2 T02280099", "KRZR 072155Z AUTO 36007KT 10SM FEW050 31/23 A2987 RMK A01", "KRZT 072155Z AUTO 28004KT 10SM CLR 29/13 A2992 RMK AO2 PWINO", "KS12 072155Z AUTO VRB05KT 10SM CLR 23/12 A2990 RMK AO2", "KS21 072155Z AUTO 26010KT 240V300 10SM CLR 29/02 A2995 RMK AO2", "KS24 072155Z AUTO 06007KT 030V090 10SM CLR 26/17 A2994 RMK AO2", "KS25 072155Z AUTO 02014KT 10SM CLR 24/06 A3005 RMK AO2", "KS32 072155Z AUTO 01012G21KT 10SM FEW060 23/10 A2996 RMK AO2 TSNO", "KS33 072155Z AUTO 26004KT 10SM CLR 32/01 A2984 RMK AO2", "KS39 072155Z AUTO 29007G18KT 10SM CLR 31/M00 A2985 RMK AO2", "KS52 072155Z AUTO 32019G25KT 10SM SCT100 SCT120 30/08 A2983 RMK AO2 T02950080", "KS59 072200Z AUTO 17008KT 10SM 27/08 A2988 ", "KS71 072200Z AUTO 00000KT 10SM 27/06 A3003 ", "KS85 072155Z AUTO VRB04G10KT 10SM 26/06 A3002 RMK A01 Culbertson ", "KSAA 072155Z AUTO 05003KT 10SM SCT110 21/00 A3015 RMK AO2", "KSAC 072153Z 20008KT 10SM CLR 27/13 A2981 RMK AO2 SLP093 T02720133", "KSAD 072151Z AUTO 27009G18KT 240V310 10SM CLR 41/05 A2981 RMK AO2 SLP023 T04110050", "KSAF 072153Z 29025G36KT 10SM CLR 33/02 A3006 RMK AO2 PK WND 27036/2140 LTG DSNT NE SLP057 T03330022", "KSAN 072151Z 29007G17KT 10SM FEW020 21/13 A2986 RMK AO2 SLP112 T02060128", "KSAR 072155Z AUTO 14006KT 10SM SCT050 SCT075 29/19 A2992 RMK AO2 T02940185", "KSAT 072151Z 14010KT 10SM FEW041 BKN075 BKN250 33/21 A2991 RMK AO2 RAB01E11 SLP108 TCU SHRA DSNT NE P0000 T03280211", "KSAV 072153Z 28008KT 10SM SCT060TCU BKN250 36/19 A2981 RMK AO2 LTG DSNT N AND NW SLP093 TCU OHD AND N-E CB DSNT NW T03560194", "KSAW 072146Z 19009KT 10SM SCT060 24/09 A2991", "KSAZ 072155Z AUTO 21007KT 10SM SCT085 24/11 A2992 RMK AO2 LTG DSNT NW", "KSBA 072153Z 19007KT 9SM SCT021 19/13 A2986 RMK AO2 SLP110 T01940133 $", "KSBD 072055Z 27006KT 5SM HZ CLR 30/05 A2983", "KSBM 072153Z AUTO 13006KT 10SM CLR 23/12 A2996 RMK AO2 SLP144 T02280122", "KSBN 072154Z 21007KT 10SM SCT060 28/14 A2993 RMK AO2 SLP130 T02780139", "KSBO 072155Z AUTO 32004KT 10SM TS SCT014 SCT027 BKN100 26/26 A2986 RMK AO2 LTG DSNT ALQS", "KSBP 072156Z 31013KT 10SM CLR 23/12 A2988 RMK AO2 SLP115 T02280122", "KSBS 072155Z AUTO 28008KT 10SM SCT100 26/02 A3007 RMK AO1 T02640023", "KSBY 072154Z 29005KT 6SM VCTS -RA BR FEW032 SCT085 BKN110 24/23 A2984 RMK AO2 LTG DSNT W AND NW SLP106 P0009 T02390228", "KSCD 072155Z AUTO 07008G14KT 10SM BKN037 BKN049 OVC100 28/20 A2992 RMK AO2 LTG DSNT N AND NE T02760203", "KSCH 072145Z 28003KT 15SM SCT010 BKN045 OVC050 23/22 A2988", "KSCK 072155Z 28011KT 10SM CLR 29/13 A2981 RMK AO2 SLP095 T02940128", "KSCR 072145Z AUTO 36003KT 10SM CLR 31/24 A2983 RMK AO2 T03110235", "KSCX 072155Z AUTO 32004KT 10SM CLR 28/18 A2994 RMK A01", "KSDA 072155Z AUTO 10006KT 10SM OVC021 22/19 A2988 RMK AO2", "KSDB 072151Z AUTO 34012G26KT 310V010 10SM CLR 27/04 A2998 RMK AO2 PK WND 32029/2136 SLP096 T02670039", "KSDC 072155Z AUTO 31005KT 10SM CLR 25/17 A2990 RMK AO2", "KSDF 072156Z 33006KT 10SM FEW065 FEW300 32/14 A2990 RMK AO2 SLP120 T03220144 $", "KSDL 072153Z AUTO VRB04KT 10SM CLR 41/03 A2973 RMK AO2 SLP036 T04060028", "KSDM 072153Z 28008G16KT 250V320 10SM CLR 22/12 A2985 RMK AO2 SLP103 T02170122", "KSDY 072156Z AUTO 06008KT 10SM SCT085 24/07 A3004 RMK AO2 SLP172 T02440067", "KSEA 072153Z 24010KT 10SM FEW025 FEW100 22/11 A2990 RMK AO2 SLP132 T02170111", "KSEE 072147Z 22008KT 10SM SKC 26/11 A2982", "KSEF 072155Z AUTO 35008G15KT 10SM TSRA SCT011 BKN031 OVC060 25/ A3000 RMK AO2 LTG DSNT ALQDS P0017 T0247////", "KSEG 072153Z AUTO 31007G19KT 270V330 10SM TS SCT080 SCT095 25/21 A2984 RMK AO2 LTG DSNT ALQDS TSB48 SLP102 T02500206", "KSEM 072155Z AUTO 30009KT 10SM CLR 32/24 A2988 RMK AO2 LTG DSNT N AND S", "KSEP 072155Z AUTO 17008G18KT 10SM CLR 35/17 A2993 RMK AO2 T03450172", "KSEQ 072155Z AUTO 15008KT 10SM SCT040 BKN050 BKN075 31/22 A2988 RMK AO2 SLP113 T03140215", "KSET 072154Z AUTO 10009KT 10SM CLR 29/18 A2990 RMK AO2 SLP120 T02890183", "KSEZ 072155Z AUTO 17020G25KT 150V210 10SM CLR 35/00 A2998 RMK AO2", "KSFB 072153Z 06006KT 10SM TS FEW110 29/22 A2990 RMK AO2 LTG DSNT ALQDS SLP122 T02940222", "KSFF 072153Z 11009G18KT 10SM SCT110 34/04 A2982 RMK AO2 SLP079 T03390044", "KSFM 072156Z AUTO VRB04KT 10SM CLR 26/21 A2984 RMK AO2 SLP105 T02610211", "KSFO 072156Z 26018KT 10SM FEW008 BKN013 17/11 A2993 RMK AO2 PK WND 28029/2122 SLP136 T01670106", "KSFQ 072155Z AUTO 00000KT 10SM VCTSRA SCT036 SCT070 OVC110 27/24 A2982 RMK AO2 LTG DSNT SE THRU W P0001 T02690239", "KSFZ 072156Z AUTO VRB05KT FEW022 27/23 A2987 RMK AO2 SLP110 T02670228 PWINO $", "KSGF 072152Z 23007KT 10SM CLR 31/21 A2988 RMK AO2 SLP103 T03110206", "KSGH 072156Z AUTO 00000KT 10SM CLR 28/15 A2993 RMK AO2 SLP130 T02830150", "KSGJ 072204Z 20007KT 3SM -TSRA BR OVC025 24/23 A2991 RMK AO2 LTG DSNT ALQDS P0000 $", "KSGR 072153Z 24007KT 10SM FEW035 BKN090 31/23 A2993 RMK AO2 SLP134 T03060228", "KSGS 072155Z AUTO 25005KT 10SM CLR 22/09 A2995 RMK AO2 T02220090", "KSGT 072156Z AUTO 24008KT 10SM FEW038 BKN050 31/24 A2990 RMK AO2 SLPNO T03110244", "KSGU 072156Z AUTO 24017G23KT 10SM CLR 38/M11 A2976 RMK AO2 SLP033 T03831106", "KSHD 072155Z AUTO 18006KT 10SM CLR 30/21 A2988 RMK AO2 LTG DSNT E T03000206", "KSHL 072155Z AUTO 15007KT 10SM FEW015 FEW023 OVC070 16/14 A2996 RMK AO2", "KSHM 072155Z AUTO 05012G19KT 8SM -RA SCT023 SCT037 BKN075 BKN090 OVC110 15/11 A3011 RMK AO2 LTG DSNT ALQDS TSE05 SLP142 P0023 T01520114 $", "KSHN 072153Z AUTO 22014G23KT 10SM CLR 21/12 A2988 RMK AO2 PK WND 23027/2110 SLP119 T02060117", "KSHR 072153Z AUTO 07006KT 10SM BKN070 24/09 A3008 RMK AO2 LTG DSNT W SLP162 T02390094", "KSHV 072156Z COR 21006KT 10SM FEW048 SCT180 SCT290 34/23 A2989 RMK SLPNO", "KSIF 072145Z AUTO 23003KT 10SM CLR 28/23 A2983 RMK AO2 T02810231", "KSIY 072153Z AUTO 30005G18KT 10SM CLR 33/07 A2982 RMK AO2 SLP078 T03330072", "KSJC 072153Z 33012KT 10SM FEW013 21/12 A2991 RMK AO2 SLP129 T02060122", "KSJS 072155Z AUTO 34003KT 10SM CLR 29/20 A2994 RMK AO2 T02900197", "KSJT 072151Z 13009G19KT 10SM CLR 34/19 A2989 RMK AO2 SLP094 T03440194", "KSJX 072155Z AUTO 25007KT 10SM CLR 21/12 A2996 RMK AO2 T02080119", "KSKA 072155Z AUTO 09007KT 10SM CLR 32/03 A2983 RMK AO2 SLP077 T03160027 $", "KSKF 072155Z 12010KT 10SM FEW042 BKN070 33/21 A2987 RMK AO2A SLP107 T03280213 $", "KSKX 072156Z AUTO 28021G29KT 10SM CLR 31/01 A3014 RMK AO2 PK WND 31039/2059 SLP118 T03060011", "KSLB 072155Z AUTO 07010G17KT 5SM BR CLR 13/13 A2998 RMK AO2 P0002", "KSLC 072154Z 14007KT 10SM FEW095 FEW170 SCT220 35/M01 A2983 RMK AO2 SLP032 TCU DSNT NE-E ACSL DSNT S T03501011", "KSLG 072156Z AUTO 20010KT 10SM FEW110 28/23 A2992 RMK AO2 SLP118 T02830228", "KSLH 072155Z AUTO 25005KT 10SM CLR 23/10 A2992 RMK AO2", "KSLI 072155Z 25010KT 10SM CLR 22/14 A2982 RMK AO2A SLP101 T02240137", "KSLK 072202Z AUTO 00000KT 3SM VCTS -RA BR FEW008 BKN035 OVC047 20/19 A2991 RMK AO2 LTG DSNT N AND NE TSE2159 P0004 T02000189", "KSLO 072155Z AUTO 31004KT 10SM CLR 29/16 A2994 RMK AO2 T02900157", "KSLR 072121Z AUTO 21020G25KT 10SM CLR 33/21 A2988 RMK AO2", "KSMD 072155Z AUTO 16005KT 9SM SCT055 27/16 A2993 RMK A01", "KSME 072155Z AUTO 02005KT 10SM BKN050 BKN055 31/20 A2990 RMK AO2", "KSMF 072153Z 19009G14KT 10SM CLR 29/13 A2979 RMK SLP087 T02890133", "KSMN 072156Z AUTO 32004KT 10SM CLR 28/07 A2991 RMK AO2 SLP822 T02830067", "KSMO 072151Z 24008KT 10SM CLR 20/13 A2986 RMK AO2 SLP109 T02000128", "KSMP 072156Z AUTO VRB06KT 10SM BKN100 22/12 A29 REQ SEAMTRSMP", "KSMQ 072153Z AUTO VRB03KT 8SM CLR 29/23 A2979 RMK AO2 SLP087 T02940228", "KSMS 072155Z AUTO 00000KT 10SM CLR 28/24 A2982 RMK AO2 LTG DSNT E AND S AND NW", "KSMX 072151Z 29017KT 10SM FEW010 19/13 A2990 RMK AO2 SLP127 T01890128", "KSNA 072153Z 24007KT 10SM CLR 22/13 A2984 RMK AO2 SLP104 T02170128", "KSNC 072155Z AUTO 14005KT 10SM SCT019 26/23 A2987 RMK AO2", "KSNH 072150Z AUTO 17006KT 10SM FEW011 FEW065 BKN090 25/24 A2994 RMK A01", "KSNK 072155Z AUTO 17019G25KT 10SM CLR 34/16 A2988 RMK AO2 T03390162", "KSNL 072155Z AUTO 10009KT 10SM CLR 29/22 A2992 RMK AO2 T02870216", "KSNS 072153Z AUTO 29012G19KT 10SM CLR 19/11 A2994 RMK AO2 SLP147 T01940111", "KSNT 072151Z AUTO 33007KT 25/01 A3005 RMK AO1 SLP089 T02500006", "KSNY 072153Z AUTO 03014G22KT 10SM FEW055 26/12 A3004 RMK AO2 SLP125 T02560117", "KSOA 072155Z AUTO A2997 RMK AO2 PWINO", "KSOP 072156Z AUTO 00000KT 10SM FEW050 SCT070 28/22 A2984 RMK AO2 LTG DSNT NE AND S AND W TSE02B08E23 SLP103 T02830222", "KSOW 072155Z AUTO 22019KT 10SM CLR 32/M01 A3014 RMK AO2", "KSPA 072155Z AUTO 26004KT 10SM -DZ BKN120 23/22 A2987 RMK AO2 P0001", "KSPB 072153Z AUTO 08008KT 10SM CLR 22/13 A2991 RMK AO2 SLP127 T02220133", "KSPD 072156Z AUTO 25/18 A2999 RMK AO1 SLP092 T02500178", "KSPG 072153Z 25011G18KT 10SM FEW035 31/24 A2991 RMK AO2 LTG DSNT NE AND E SLP128 T03110244 $", "KSPK 072155Z AUTO 01008KT 10SM CLR 32/02 A2986 RMK AO2", "KSPS 072152Z 18015G26KT 10SM FEW060 SCT250 34/21 A2980 RMK AO2 PK WND 16029/2106 SLP077 T03440211", "KSPW 072153Z AUTO 14010KT 10SM OVC070 17/11 A2998 RMK AO2 RAE27 SLP154 P0000 T01670106", "KSQI 072156Z AUTO 27011KT 10SM -RA FEW021 BKN095 22/14 A2998 RMK AO2 RAB43 SLP014 P0000 T02220139", "KSQL 072147Z 26018G26KT 10SM SCT020 17/11 A2995", "KSRB 072155Z AUTO 32005KT 10SM FEW042 FEW048 31/21 A2992 RMK AO2", "KSRC 072156Z AUTO VRB04KT 10SM SCT035 BKN045 31/24 A2990 RMK AO2 SLP123 T03110239", "KSRE 072155Z AUTO VRB04KT 9SM CLR 28/20 A2991 RMK AO2", "KSRQ 072153Z 28011KT 10SM FEW025 FEW033 33/24 A2991 RMK AO2 SLP129 T03280239", "KSRR 072155Z AUTO 23018KT 10SM CLR 33/02 A3014 RMK AO2", "KSSC 072055Z AUTO 16007KT 10SM FEW045 FEW130 33/23 A2980 RMK AO2 LTG DSNT SE AND W SLP090 T03270233 57016 $", "KSSF 072153Z 14009KT 10SM FEW043 SCT070 OVC100 32/22 A2988 RMK AO2 SLP106 T03220222 $", "KSSI 072153Z AUTO 17010KT 10SM CLR 32/25 A2983 RMK AO2 SLP103 T03220250", "KSTC 072153Z 25010KT 10SM CLR 23/10 A2995 RMK AO2 SLP147 T02330100", "KSTE 072155Z AUTO 00000KT 10SM CLR 25/02 A2996 RMK AO2 T02460024", "KSTF 072155Z AUTO 00000KT 10SM CLR 39/36 A2990 RMK AO2", "KSTK 072155Z AUTO 04007G15KT 002V062 10SM CLR 25/12 A3003 RMK AO2", "KSTL 072151Z 10008KT 10SM SCT070 SCT190 OVC250 29/18 A2991 RMK AO2 SLP118 T02940178", "KSTP 072153Z 25007KT 10SM CLR 23/10 A2995 RMK AO2 SLP140 T02280100", "KSTS 072153Z 16009KT 10SM CLR 27/13 A2984 RMK AO2 SLP096 T02670128", "KSUA 072150Z 12005KT 5SM VCTS SCT016 BKN030 27/23 A2996 RMK TSE2145", "KSUE 072156Z AUTO 20008KT 10SM CLR 21/11 A2997 RMK AO2 SLP146 T02110106 PNO $", "KSUN 072155Z 10007G15KT 10SM SCT060 BKN090 28/00 A2998", "KSUS 072154Z 07007KT 10SM BKN080 BKN090 28/19 A2989 RMK AO2 SLP113 T02780189", "KSUT 072150Z AUTO 17005KT 10SM CLR 32/25 A2981 RMK AO2 T03230250", "KSUU 072155Z AUTO 23018G24KT 10SM CLR 26/12 A2979 RMK AO2 PK WND 23026/35 SLP094 T02610122 $", "KSUW 072155Z AUTO 24012G17KT 10SM CLR 25/13 A2990 RMK AO2 T02490126", "KSUX 072152Z 08012G18KT 2 1/2SM -RA BR BKN006 OVC011 16/15 A2996 RMK AO2 SLP143 P0002 T01560150", "KSUZ 072155Z AUTO 20007KT 10SM FEW036 BKN045 30/26 A2990 RMK A01", "KSVC 072155Z AUTO 29008G19KT 10SM CLR 36/03 A3002 RMK AO2 T03610026", "KSVE 072155Z AUTO 19006KT 10SM CLR 29/09 A2988 RMK AO2", "KSVH 072145Z AUTO 31005KT 10SM CLR 26/21 A2986 RMK AO2 T02600205", "KSVN 072155Z AUTO 15011G16KT 10SM BKN060 34/24 A2977 RMK AO2 SLP084 T03350238 $", "KSWF 072145Z 22005KT 10SM BKN050 29/21 A2983", "KSWO 072153Z 14003KT 10SM CLR 27/22 A2989 RMK AO2 RAB11E24 SLP109 P0000 T02720217", "KSWW 072155Z AUTO 15016G24KT 10SM CLR 34/16 A2992 RMK AO2 T03430157", "KSXK 072155Z AUTO 14014KT 10SM OVC046 15/14 A2995 RMK AO2 P0001", "KSXS 072155Z AUTO 32007KT 10SM FEW041 32/23 A2986 RMK AO2 LTG DSNT E AND S-W SLP109 T03160231", "KSXT 072156Z AUTO VRB04KT 10SM CLR 24/08 A2997 RMK AO2 SLP101 T02440083", "KSXU 072155Z AUTO 15020KT 10SM CLR 33/10 A2990 RMK AO2 T03270100", "KSYF 072155Z AUTO 02013G17KT 10SM CLR 27/11 A2999 RMK AO2 T02700105 PWINO", "KSYM 072155Z AUTO VRB05KT 10SM CLR 29/14 A2994 RMK AO2", "KSYN 072155Z AUTO 27004KT 10SM OVC110 21/11 A2996 RMK AO2 T02110106", "KSYR 072154Z 33009KT 10SM FEW020 SCT029 BKN041TCU BKN130 BKN200 26/20 A2989 RMK AO2 SLP114 TCU E-S MOD CU W-N T02560200", "KSZL 072155Z AUTO 06011KT 10SM FEW220 26/18 A2985 RMK AO2 SLP105 T02620181 $", "KSZT 072155Z AUTO 09004KT 10SM CLR 31/06 A2986 RMK AO2", "KSZY 072155Z AUTO 00000KT 27/23 A2995 RMK A01", "KT20 072155Z AUTO 15009G14KT 10SM SCT070 BKN095 33/23 A2991 RMK AO2 T03250228", "KT35 072155Z AUTO 16007KT 10SM SCT050 34/21 A2990 RMK AO2 T03410212", "KT41 072155Z AUTO 15012KT 10SM BKN036 BKN044 OVC060 32/24 A2993 RMK AO2 T03180237", "KT69 072155Z AUTO 18012KT 9SM FEW110 33/23 A2990 RMK A01", "KT70 072155Z AUTO 13012KT 10SM FEW070 34/22 A2985 RMK AO2 SLP094 T03350222 $", "KT74 072155Z AUTO 17011KT 10SM SCT043 SCT060 OVC100 32/21 A2991 RMK AO2 T03230212", "KT78 072155Z AUTO 21008KT 10SM CLR 33/24 A2992 RMK AO2", "KT82 072155Z AUTO 14006KT SCT042 BKN050 BKN070 30/20 A2996 RMK AO2 T02980200 PWINO", "KT89 072155Z AUTO 00000G10KT 10SM CLR 38/14 A2984 RMK A01", "KTAD 072154Z AUTO 09015G25KT 10SM VCTS FEW055 27/15 A3000 RMK AO2 LTG DSNT N AND S AND NW SLP074 T02670150", "KTAN 072152Z AUTO 22007KT 10SM CLR 27/21 A2985 RMK AO2 SLP107 T02720211", "KTAZ 072155Z AUTO 20006KT 10SM CLR 27/18 A2995 RMK AO2 T02650180", "KTBN 072155Z AUTO 18008KT 9SM FEW180 31/19 A2985 RMK AO2 LTG DSNT NE DZB00E12 SLP099 P0000 T03110191", "KTBR 072155Z AUTO 20008KT 10SM VCTS SCT038 SCT055 SCT095 28/20 A2985 RMK AO2 LTG DSNT ALQS T02820201", "KTBX 072155Z AUTO 10SM SCT035 15/06 A3031 RMK AO2", "KTCC 072153Z AUTO 12011KT 10SM CLR 28/17 A2982 RMK AO2 PK WND 23036/2115 WSHFT 2125 LTG DSNT NE AND E RAB07E32 TSB2059E40 SLP037 P0005 T02780172 $", "KTCL 072153Z 26009G16KT 230V290 10SM VCTS FEW026 FEW039 27/23 A2991 RMK AO2 LTG DSNT ALQDS TSB16E53 SLP127 T02720228", "KTCM 072155Z AUTO 29006KT 10SM CLR 23/12 A2989 RMK AO2 SLP124 T02310121 $", "KTCS 072153Z AUTO 13010KT 10SM CLR 38/05 A2991 RMK AO2 LTG DSNT N SLP021 T03780050", "KTCY 072155Z AUTO 35010KT 10SM CLR 30/09 A2980 RMK A01", "KTDF 072145Z AUTO 28004KT 10SM 32/20 A2984 RMK AO2", "KTDR 072155Z AUTO 25009G17KT 10SM CLR 32/25 A2985 RMK AO2 LTG DSNT NW-N AND S SLP112 T03240252 $", "KTDZ 072153Z AUTO 09007KT 10SM BKN050 28/15 A2994 RMK AO2 SLP132 T02780150", "KTEB 072151Z 16007KT 10SM CLR 28/22 A2981 RMK AO2 SLP093 T02830217", "KTEW 072155Z AUTO 34003KT 10SM CLR 27/09 A2995 RMK AO2 T02700089", "KTEX 072155Z AUTO 26013G20KT 210V310 10SM SCT110 24/M13 A3031 RMK AO2", "KTGI 072155Z AUTO 00000KT 10SM CLR A2982 RMK AO1", "KTHA 072155Z AUTO 34005KT 10SM CLR 30/19 A2992 RMK A01", "KTHM 072055Z AUTO 07009G14KT 10SM 31/06 A2993 RMK Thompson Falls ", "KTHV 072153Z AUTO 20003KT 10SM SCT050 BKN085 29/22 A2983 RMK AO2 LTG DSNT NW-NE SLP098 T02890222", "KTIF 072155Z AUTO 01007G16KT 340V040 10SM SCT049 SCT055 SCT070 25/14 A2998 RMK AO2 T02500141", "KTIK 072055Z AUTO 10006KT 10SM FEW130 FEW160 27/20 A2990 RMK AO2 PK WND 01026/1956 RAB08E20 TSE11 SLP120 P0001 60001 T02660204 50011 $", "KTIP 072155Z AUTO 25006KT 10SM SCT120 26/17 A2995 RMK AO2 T02640166", "KTIW 072153Z 17006KT 10SM CLR 21/12 A2990 RMK AO2 SLP123 T02110117", "KTIX 072150Z 19008KT 7SM SCT037 SCT050 30/26 A2992", "KTKC 072155Z AUTO 22009KT 10SM SCT025 20/14 A2997 RMK AO2", "KTKI 072153Z 21016G26KT 10SM CLR 34/21 A2984 RMK AO2 PK WND 20026/2146 SLP098 T03390206", "KTKV 072155Z AUTO 26003KT 10SM BKN060 22/11 A2997 RMK AO2 T02200110 PWINO", "KTKX 072155Z AUTO 00000KT 10SM FEW035 30/21 A2990 RMK AO2", "KTLH 072153Z 00000KT 10SM SCT045 BKN090 26/24 A2988 RMK AO2 LTG DSNT E-S TSE49 SLP118 CB DSNT ALQDS MOV SE T02560244", "KTMB 072153Z 25009KT 10SM VCTS SCT050 SCT070 34/22 A2994 RMK AO2 LTG DSNT W-NE SLP138 T03440217", "KTME 072155Z AUTO 16014G21KT 10SM FEW033 FEW043 SCT055 30/24 A2995 RMK AO2", "KTMK 072155Z AUTO 30006KT 10SM OVC029 18/12 A2997 RMK AO2", "KTMT 072155Z AUTO 00000KT 10SM CLR 29/02 A2993 RMK AO2 T02890017", "KTNB 072155Z AUTO 29008KT 10SM CLR 26/15 A3001 RMK AO2 T02610151", "KTNU 072155Z AUTO 11007KT 10SM FEW041 SCT095 18/16 A2996 RMK A01 P0001", "KTOA 072147Z 27014KT 10SM SKC 23/14 A2985", "KTOB 072155Z AUTO 22005KT 10SM CLR 20/09 A2997 RMK AO2", "KTOC 072155Z AUTO 31003KT 10SM CLR 25/21 A2990 RMK AO2 P0002 T02500209", "KTOI 072153Z AUTO 27007KT 10SM SCT040 BKN050 33/22 A2989 RMK AO2 LTG DSNT NW SLP115 T03330222", "KTOL 072152Z VRB04KT 10SM CLR 28/15 A2992 RMK AO2 SLP128 T02830150", "KTOP 072153Z 08007KT 10SM FEW035 29/21 A2986 RMK AO2 SLP104 T02940211", "KTOR 072153Z AUTO 36011G20KT 10SM CLR 24/09 A3005 RMK AO2 SLP139 T02440094", "KTPA 072153Z 26010KT 10SM FEW055TCU SCT120 BKN190 BKN280 32/24 A2992 RMK AO2 LTG DSNT E SLP132 CB DSNT E-SE TCU W-SE T03170244", "KTPF 072155Z AUTO 28007KT 10SM SCT035 32/25 A2993 RMK AO2", "KTPH 072156Z AUTO VRB05G20KT 10SM CLR 32/M03 A2992 RMK AO2 SLP045 T03171033", "KTPL 072151Z AUTO 15009KT 10SM CLR 34/21 A2990 RMK AO2 SLP115 T03440206", "KTQE 072154Z AUTO 09006KT 10SM -RA BKN007 BKN019 OVC046 18/17 A2992 RMK AO2 RAE2056B52 SLP125 P0000 T01830167", "KTQH 072155Z AUTO 24003KT 10SM 30/21 A2993 RMK AO2", "KTQK 072155Z AUTO 14003KT 10SM SCT023 SCT028 BKN034 25/20 A2996 RMK AO2 T02510199", "KTQV 072150Z AUTO 31009KT 10SM FEW055 FEW070 SCT120 32/20 A2982 RMK A01", "KTRI 072153Z 36005KT 10SM SCT048 SCT075 BKN250 30/18 A2992 RMK AO2 SLP104 T03000183", "KTRK 072148Z 27012G19KT 10SM SCT120 26/06 A3004", "KTRL 072153Z AUTO 21014G25KT 10SM CLR 34/21 A2986 RMK AO2 SLP104 T03390206", "KTRM 072152Z AUTO VRB03KT 9SM CLR 40/04 A2961 RMK AO2 SLP030 T04000044", "KTSP 072155Z AUTO 32018G25KT 9SM CLR 26/05 A2996 RMK AO2", "KTTA 072145Z AUTO 28004KT 10SM CLR 33/21 A2980 RMK AO2 T03320207", "KTTD 072153Z 32005KT 10SM CLR 23/12 A2991 RMK AO2 SLP128 T02280117", "KTTF 072155Z AUTO 17007G14KT 10SM SCT060 26/16 A2993 RMK AO2 T02570159", "KTTN 072153Z 24004KT 10SM FEW033 SCT041 BKN050 28/22 A2981 RMK AO2 SLP086 T02780222", "KTTS 072155Z AUTO 18006KT 10SM VCTS CLR 28/25 A2988 RMK AO2 SLP123 T02780246 $", "KTUL 072053Z 26005KT 10SM -RA FEW015 BKN060 OVC110 27/22 A2992 RMK AO2 RAB48 SLP126 P0000 60000 T02670222 51016", "KTUP 072203Z 18010KT 3SM VCTS RA BR BKN020 24/22 A2991 RMK AO2 LTG DSNT ALQDS TSE03 P0006 T02440222 $", "KTUS 072153Z VRB04KT 10SM CLR 42/06 A2981 RMK AO2 SLP031 T04220056", "KTVC 072153Z 04007KT 10SM FEW050 SCT250 22/13 A2994 RMK AO2 SLP136 T02220128", "KTVF 072156Z AUTO 34013G21KT 10SM CLR 22/09 A2993 RMK AO2 SLP136 T02220094", "KTVI 072155Z AUTO 24008KT 10SM SCT048 SCT070 SCT080 27/25 A2988 RMK AO2 LTG DSNT SE SW AND NW", "KTVK 072155Z AUTO 06006KT 10SM CLR 20/17 A2995 RMK AO2", "KTVL 072153Z AUTO 10SM CLR 24/04 A3005 RMK AO2 SLP120 T02390039", "KTVR 072153Z AUTO 31005KT 10SM CLR 32/24 A2991 RMK AO2 SLP135 T03220239", "KTVY 072155Z AUTO 36010KT 10SM CLR 30/04 A2986 RMK AO2", "KTWF 072153Z 10009KT 10SM CLR 31/08 A2988 RMK AO2 LTG DSNT S SLP060 T03060083", "KTWM 072155Z AUTO 21006KT 10SM SCT065 23/15 A2989 RMK AO2", "KTWT 072155Z AUTO 00000KT 10SM CLR 31/18 A2991 RMK AO2", "KTXK 072153Z 21010KT 10SM FEW046 35/23 A2989 RMK AO2 SLP115 T03500228", "KTXW 072155Z AUTO 10011KT 10SM CLR A2986 RMK AO2", "KTYL 072155Z AUTO 22017G25KT 10SM CLR 34/00 A3007 RMK AO2", "KTYQ 072155Z AUTO 25006KT 10SM SCT050 29/16 A2994 RMK AO2 T02900157", "KTYR 072153Z 21020G24KT 10SM CLR 34/21 A2988 RMK AO2 SLP111 T03440211", "KTYS 072153Z 33005KT 10SM FEW050 32/18 A2988 RMK AO2 SLP106 T03170178", "KTZR 072145Z 30010KT 10SM CLR 28/17 A2994", "KU42 072155Z AUTO 07003KT 10SM CLR 33/M03 A2988 RMK AO1 T03281031", "KU55 072155Z AUTO 18014G21KT 10SM CLR 30/M08 A3007 RMK A01", "KU64 072155Z AUTO 19018G24KT 10SM CLR 29/M03 A3013 RMK AO2 T02941030 $", "KU68 072155Z AUTO 00000KT 10SM SCT060 25/07 A3005 RMK AO2 LTG DSNT SW AND W", "KU69 072155Z AUTO 04007KT 10SM CLR 29/00 A2997 RMK A01", "KUAO 072153Z VRB05KT 10SM CLR 23/12 A2991 RMK AO2 SLP128 T02330122", "KUBE 072155Z AUTO 22004KT 10SM CLR 21/15 A2997 RMK AO2", "KUCP 072156Z AUTO 02010KT 10SM BKN047 26/16 A2994 RMK AO2 SLP147 T02610161 $", "KUCY 072155Z AUTO VRB04KT 10SM CLR 31/21 A2989 RMK A01", "KUDG 072156Z AUTO 06009KT 10SM BKN034 27/24 A2984 RMK AO2 LTG DSNT NE-S TSE26RAE44 SLP104 P0000 T02720244", "KUES 072145Z 12010KT 10SM SCT048 BKN050 23/12 A2995", "KUGN 072151Z 10007KT 10SM CLR 23/13 A2994 RMK AO2 SLP129 T02330128", "KUIL 072153Z AUTO VRB06KT 10SM OVC020 18/11 A2995 RMK AO2 SLP141 T01830111", "KUIN 072154Z AUTO 11009KT 10SM -TSRA SCT048 BKN060 OVC100 23/17 A2993 RMK AO2 LTG DSNT SW-NW RAE09B48 TSB46 PRESFR SLP130 P0000 T02280167", "KUKF 072145Z AUTO 00000KT 10SM CLR 27/21 A2992 RMK AO2 LTG DSNT S", "KUKI 072156Z AUTO 36013G20KT 10SM CLR 31/03 A2982 RMK AO2 SLP091 T03110033", "KUKL 072155Z AUTO 22005KT 10SM CLR 28/20 A2988 RMK AO2 T02770198", "KUKT 072155Z AUTO 00000KT 10SM CLR 25/24 A2984 RMK A01", "KULM 072155Z AUTO 23007KT 10SM CLR 19/12 A2997 RMK AO2", "KULS 072155Z AUTO VRB03KT 10SM FEW029 SCT055 27/22 A2992 RMK AO2", "KUMP 072155Z AUTO 25005KT 10SM CLR 31/16 A2992 RMK AO2 T03120157", "KUNI 072155Z AUTO 27005KT 10SM CLR 31/13 A2991 RMK AO2 T03120132", "KUNU 072155Z AUTO 25003KT 10SM SCT055 24/11 A2995 RMK AO2 T02360109", "KUNV 072153Z 36003KT 10SM SCT044 SCT050 26/21 A2989", "KUOX 072155Z AUTO VRB04KT 10SM CLR 31/21 A2993 RMK AO2 PWINO", "KUSE 072155Z AUTO 16004KT 10SM FEW050 SCT070 27/16 A2993 RMK AO2", "KUTA 072155Z AUTO 00000KT 10SM FEW070 SCT090 32/25 A2991 RMK AO2 T03240247 $", "KUTS 072153Z AUTO 21008G16KT 10SM CLR 33/21 A2993 RMK AO2 SLP130 T03280211", "KUUU 072153Z AUTO 17004KT 10SM FEW010 24/22 A2987 RMK AO2 SLP113 T02390217", "KUUV 072155Z AUTO 10004KT 10SM SCT050 BKN065 BKN100 28/18 A2992 RMK AO2 LTG DSNT SW AND W", "KUVA 072155Z AUTO 12007KT SCT045 SCT055 OVC100 31/25 A2992 RMK AO2 T03050245 PWINO", "KUXL 072155Z AUTO 18007KT 7SM CLR 33/24 A2994 RMK AO2 T03310239", "KUYF 072155Z AUTO 00000KT 10SM CLR 28/15 A2993 RMK AO2", "KUZA 072204Z AUTO 36020G29KT 1 1/2SM +TSRA SCT038 BKN050 24/21 A2990 RMK AO2 PK WND 02029/2200 LTG DSNT ALQDS RAB01 PRESRR P0007 T02390206", "KVAD 072200Z AUTO 35020G42KT 6SM +RA SQ BKN049 BKN095 BKN120 28/24 A2986 RMK AO2 WSHFT 2156 LTG DSNT S AND W SLP112 $", "KVAY 072154Z AUTO 15005KT 10SM CLR 27/23 A2981 RMK AO2 SLP094 T02720233", "KVBG 072155Z 32015G20KT 8SM OVC009 16/14 A2993 RMK AO2A SLP138 T01620135", "KVBT 072156Z AUTO 20010G15KT 10SM CLR 28/21 A2992 RMK AO2 SLP121 T02830211", "KVBW 072155Z AUTO 36003KT 10SM CLR 30/21 A2985 RMK AO1 T02970207", "KVCB 072153Z AUTO 19011G17KT 10SM CLR 29/14 A2980 RMK AO2 SLP089 T02940139", "KVCT 072151Z 16011KT 10SM SCT041 SCT090 33/23 A2991 RMK AO2 SLP125 T03280233", "KVCV 072155Z AUTO 26007G17KT 240V300 10SM CLR 33/M04 A2985 RMK AO2", "KVDF 072155Z AUTO 28006KT 10SM SCT037 SCT045 SCT050 33/25 A2993 RMK AO2", "KVDI 072155Z AUTO 27005KT 10SM CLR 35/21 A2983 RMK AO2 LTG DSNT N THRU E", "KVEL 072153Z AUTO 36006KT 10SM CLR 31/03 A2995 RMK AO2 SLP070 T03110028", "KVES 072150Z AUTO 00000KT 10SM CLR 28/10 A2993 RMK AO2", "KVGC 072155Z AUTO 01005KT 10SM SCT030 BKN035 23/18 A2992 RMK AO2", "KVGT 072153Z 11010KT 10SM CLR 39/00 A2970 RMK AO2 SLP043 T03940000", "KVHN 072155Z AUTO 15007KT 070V180 10SM CLR 38/09 A2994 RMK AO2 T03770086", "KVIH 072138Z AUTO 18011G15KT 10SM TS BKN041 OVC055 28/19 A2989 RMK AO2 LTG DSNT ALQDS RAE16 TSB32 P0000 T02830194", "KVIS 072156Z AUTO VRB03KT 10SM CLR 32/09 A2980 RMK AO2 SLP094 T03170094", "KVJI 072155Z AUTO 34004KT 10SM BKN095 27/18 A2996 RMK AO2 T02650180", "KVKS 072155Z AUTO 29005KT 10SM CLR 32/M32 A2991 RMK A01", "KVLD 072153Z 20005KT 10SM VCTS FEW048 BKN060 BKN070 29/25 A2985 RMK AO2 LTG DSNT SE-W RAB27E41 SLP115 P0001 T02940250", "KVLL 072202Z AUTO 00000KT 10SM CLR 27/11 A2996 RMK AO2", "KVNC 072155Z AUTO 28011KT 240V310 10SM FEW024 32/26 A2995 RMK AO2 LTG DSNT E", "KVNW 072155Z AUTO 20004KT 10SM SCT055 28/15 A2993 RMK AO2", "KVNY 072151Z 13007KT 10SM CLR 28/13 A2982 RMK AO2 SLP088 T02780133", "KVOA 072155Z AUTO 26018KT 10SM CLR 30/23 A2994 RMK A01", "KVOK 072155Z AUTO 28004KT 10SM BKN160 22/12 A2992 RMK AO2 SLP136 T02180118", "KVPC 072155Z AUTO VRB04KT 10SM CLR 31/20 A2989 RMK AO2", "KVPS 072156Z 33019G29KT 1/4SM +TSRA FEW013CB FEW034 BKN045 27/23 A2990 RMK VIS 1 1/4 RWY12 SLP131 P0002 T02730229 $", "KVPZ 072156Z AUTO 18007KT 10SM CLR 27/15 A2992 RMK AO2 SLP128 T02720150", "KVQQ 072150Z 15007KT 10SM BKN045 26/26 A2987 RMK TSE50", "KVRB 072153Z 12003KT 10SM VCTS FEW060 BKN095 BKN110 26/23 A2994 RMK AO2 LTG DSNT ALQDS RAE2059B33E52 TSE04 SLP138 P0001 T02560233", "KVSF 072154Z AUTO 27005KT 10SM -TSRA SCT045 BKN110 24/19 A2987 RMK AO2 LTG DSNT ALQDS RAB22 TSE09B22 SLP114 P0000 T02390194", "KVTA 072154Z AUTO VRB05KT 10SM BKN047 29/17 A2991 RMK AO2 SLP121 T02940172", "KVTI 072155Z AUTO 16005KT 10SM OVC070 22/13 A2998 RMK AO2 T02160128", "KVTN 072152Z AUTO 02010G17KT 10SM FEW037 SCT120 24/14 A2998 RMK AO2 LTG DSNT NW SLP140 T02390144", "KVTP 072155Z AUTO 00000KT 10SM SCT110 19/07 A3038 RMK AO2", "KVUJ 072145Z AUTO 01003KT 10SM SCT055 33/20 A2987 RMK AO2 T03340199", "KVUO 072153Z AUTO VRB03KT 10SM CLR A2993 RMK AO2 SLP137 $", "KVVS 072150Z AUTO 32005KT 10SM BKN036 BKN050 OVC055 27/20 A2991 RMK AO2 T02720203", "KVVV 072155Z AUTO 20008KT 166V226 10SM CLR 23/16 A2991 RMK AO2", "KVWU 072155Z AUTO 00000KT 10SM SCT011 SCT043 BKN090 19/17 A2992 RMK AO2 LTG DSNT SW P0005", "KVYS 072155Z AUTO 28008KT 10SM BKN050 OVC110 24/15 A2996 RMK AO2 T02410152", "KW13 072155Z AUTO 00000KT 10SM SCT100 23/23 A2988 RMK AO1 P0043 T02300226", "KW22 072155Z AUTO 00000KT 10SM CLR 29/22 A2993 RMK AO2", "KW29 072150Z AUTO 11005KT 10SM SCT024 29/25 A2983 RMK AO2 T02930245", "KW31 072155Z AUTO 14005G17KT 10SM SCT032 SCT043 BKN055 28/23 A2983 RMK AO1 T02830225", "KW40 072140Z AUTO 17007KT 10SM CLR 32/24 A2979 RMK AO2 T03230238", "KW43 072155Z AUTO 29008KT 10SM BKN120 21/08 A3011 RMK AO2", "KW63 072155Z AUTO 34005KT 10SM SCT049 33/21 A2981 RMK AO1", "KW75 072155Z AUTO 13003KT 10SM BKN017 29/24 A2982 RMK AO1 T02870235", "KW78 072155Z AUTO 34003KT 10SM CLR 33/21 A2981 RMK AO1 T03250206", "KW81 072155Z AUTO 16007KT 10SM SCT085 28/21 A2982 RMK AO1 T02800208", "KW96 072155Z AUTO 00000KT 10SM SCT100 30/23 A2980 RMK AO1 T03000234", "KW99 072126Z AUTO 29008KT 10SM CLR 32/20 A2986 RMK AO2 LTG DSNT SE", "KWAL 072154Z 14005KT 10SM CLR 28/23 A2984 RMK AO2 LTG DSNT N AND NW SLP102 T02780228", "KWDG 072145Z 10010KT 10SM FEW030 BKN120 26/21 A2990", "KWDR 072155Z AUTO 04006KT 10SM -TSRA SCT048 BKN080 OVC110 25/21 A2994 RMK AO2 LTG DSNT ALQS", "KWHP 072155Z 00000KT 10SM SKC 25/12 A2987", "KWJF 072156Z 25020G28KT 10SM CLR 33/05 A2980 RMK AO2 PK WND 25029/2105 SLP069 T03330050", "KWLD 072154Z AUTO 00000KT 6SM -TSRA BR FEW055 SCT075 OVC110 22/21 A2992 RMK AO2 LTG DSNT ALQDS RAB01 TSB2055 SLP124 P0007 T02170206", "KWMC 072156Z AUTO 32007KT 10SM CLR 34/01 A2985 RMK AO2 SLP055 T03390006", "KWRB 072155Z AUTO 01008KT 10SM FEW080 FEW100 29/24 A2985 RMK AO2 RAE2059 SLP108 P0000 T02870236", "KWRI 072155Z AUTO 19006KT 10SM FEW200 25/23 A2981 RMK AO2 SLP093 T02530229", "KWRL 072153Z AUTO 29005KT 10SM CLR 22/08 A3006 RMK AO2 SLP154 T02170078", "KWST 072153Z AUTO 15004KT 1/2SM FG OVC002 22/22 A2987 RMK AO2 SLP114 T02220217", "KWVI 072153Z AUTO 23006KT 10SM CLR 20/12 A2993 RMK AO2 SLP134 T02000122", "KWVL 072156Z AUTO 26006KT 10SM CLR 26/18 A2986 RMK AO2 LTG DSNT W-N PRESRR SLP134 T02610178", "KWWD 072156Z AUTO 14007KT 10SM FEW012 A2983 RMK AO2 SLPNO FZRANO $", "KWWR 072155Z AUTO 16013KT 10SM SCT039 BKN050 OVC070 29/20 A2992 RMK AO2", "KWYS 072155Z AUTO 03014KT 10SM CLR 22/04 A3008 RMK AO2", "KX07 072155Z AUTO 15004KT 10SM CLR 27/25 A2995 RMK A01", "KXBP 072150Z AUTO 17015G20KT 10SM CLR 36/18 A2986 RMK AO2 T03580176", "KXIF 072155Z AUTO 00000KT 10SM CLR 27/23 A2984 RMK AO2 SLP101 T02660230 $", "KXLL 072155Z AUTO 00000KT 10SM 26/21 A2985 RMK AO2", "KXMR 072155Z AUTO 19007KT 10SM CLR 27/25 A2988 RMK AO2 LTG DSNT W-N SLP121 T02730249 $", "KXNA 072153Z 19009KT 10SM CLR 29/21 A2990 RMK AO2 SLP111 T02890211", "KXNO 072155Z AUTO 26008KT 10SM CLR 34/34 A2979 RMK AO2 LTG DSNT E AND NW SLP087 T03390338 $", "KXNX 072155Z AUTO 00000KT 10SM FEW050 FEW060 32/21 A2993 RMK A01", "KXSA 072155Z AUTO 00000KT 10SM VCTS CLR 25/25 A2982 RMK AO2 LTG DSNT SE AND S P0012 T02450245", "KXVG 072153Z AUTO 00000KT 4SM RA SCT016 BKN024 OVC060 14/14 A2996 RMK AO2 LTG DSNT SW P0024", "KXWA 072151Z AUTO 01014G21KT 10SM SCT070 SCT090 25/06 A3006 RMK AO2 SLP178 T02500056", "KY19 072155Z AUTO 02014KT 10SM BKN060 23/13 A3000 RMK AO2", "KY23 072155Z AUTO 24003KT 10SM CLR 23/14 A2996 RMK AO2 T02270137", "KY31 072155Z AUTO 24006KT 10SM CLR 24/09 A2994 RMK AO2 T02430088", "KY49 072155Z AUTO 18010KT 10SM SCT070 BKN085 14/14 A2991 RMK AO2 LTG DSNT N S AND NW T01430143 P0005", "KY50 072156Z AUTO VRB03KT 10SM CLR 24/07 A2995 RMK AO2 SLP138 T02440072 $", "KY51 072155Z AUTO 25006KT 10SM CLR 20/11 A2997 RMK AO1 T02000113", "KY63 072155Z AUTO 20013G17KT 10SM BKN040 BKN046 BKN060 25/15 A2989 RMK AO2 LTG DSNT W THRU N T02460149", "KY70 072155Z AUTO 00000KT 10SM BKN070 26/08 A2994 RMK AO2 T02570083", "KYIP 072153Z 06003KT 10SM SCT065 26/13 A2994 RMK AO2 SLP132 T02610128", "KYKM 072153Z AUTO 15010G15KT 10SM CLR 36/08 A2974 RMK AO2 SLP059 T03560078", "KYKN 072156Z AUTO 08012G16KT 10SM BKN009 OVC015 16/14 A2997 RMK AO2 RAE10 CIG 007V012 SLP161 P0000 T01610144", "KYNG 072151Z 35011KT 10SM FEW065 FEW250 26/14 A2996 RMK AO2 SLP137 T02560144", "KZER 072155Z AUTO 00000KT 10SM SCT038 25/21 A2992 RMK AO2 LTG DSNT NE", "KZPH 072155Z AUTO 18009KT 10SM VCTS CLR 30/24 A2993 RMK A02 LTG DSNT NE THRU S P0006 T03000243", "KZZV 072153Z AUTO VRB03KT 10SM FEW044 SCT060 29/19 A2992 RMK AO2 SLP123 T02890189", "LATI 072150Z VRB02KT 9999 FEW030 SCT070 23/22 Q1018 NOSIG", "LBBG 072200Z AUTO 30007KT 260V340 9999 NSC 24/17 Q1013 NOSIG", "LBGO 072200Z AUTO 11005KT 070V160 9999 FEW080/// 19/19 Q1015", "LBIA 072200Z 23004KT 9999 SCT100 20/18 Q1014", "LBPD 072200Z AUTO 28013KT 9999 FEW230/// 24/15 Q1016", "LBPG 072200Z 24010KT 9999 SCT100 22/15 Q1015", "LBPL 072100Z 28008KT 9999 FEW100 24/17 Q1014", "LBSF 072200Z AUTO 28008KT 250V310 9999 -RA NSC 20/15 Q1020 NOSIG", "LBWN 072200Z AUTO 36017KT 9999 NSC 23/17 Q1012 NOSIG", "LCEN 072150Z 00000KT CAVOK 25/21 Q1006 NOSIG RMK RWY11 00000KT", "LCLK 072200Z 20007KT 6000 FEW008 26/25 Q1005 NOSIG", "LCPH 072200Z 35002KT 8000 NSC 24/22 Q1005 NOSIG", "LCRA 072150Z 27008KT CAVOK 26/24 Q1005 TEMPO 7000 HZ SCT015", "LDDU 072200Z 03019KT 330V070 CAVOK 25/13 Q1018", "LDOS 072200Z 35005KT CAVOK 17/15 Q1021", "LDPL 072200Z 07004KT CAVOK 19/13 Q1021", "LDRI 072200Z 34006KT CAVOK 23/10 Q1021", "LDSP 072200Z AUTO 32005KT 290V350 CAVOK 24/08 Q1019", "LDZA 072200Z 24004KT CAVOK 16/14 Q1022 NOSIG", "LDZD 072200Z 07006KT CAVOK 21/09 Q1020 NOSIG", "LEAB 072200Z 16008KT 120V200 CAVOK 26/15 Q1018 NOSIG", "LEAG 072200Z AUTO VRB03KT CAVOK 24/17 Q1017", "LEAL 072200Z 23005KT 200V260 9999 BKN020 26/22 Q1015 NOSIG", "LEAM 072200Z AUTO 24008KT 9999 FEW033 27/23 Q1016", "LEAO 072100Z 22004KT 160V260 CAVOK 28/07 Q1016", "LEAS 072200Z 18003KT CAVOK 19/18 Q1013 NOSIG", "LEBA 072200Z AUTO 21002KT CAVOK 26/08 Q1015", "LEBB 072200Z AUTO VRB03KT CAVOK 23/20 Q1013", "LEBG 072200Z AUTO 03005KT CAVOK 17/15 Q1017", "LEBL 072200Z 04008KT 9999 FEW008 24/22 Q1016 NOSIG", "LEBR 072200Z AUTO 11007KT 090V150 CAVOK 20/16 Q1016", "LEBT 072200Z AUTO 32001KT CAVOK 22/21 Q1016", "LECH 072200Z AUTO 04006KT CAVOK 21/16 Q1016", "LECO 072200Z 19010KT 140V210 7000 -RA BKN020 BKN037 20/17 Q1013 NOSIG", "LEDA 072200Z AUTO 07009KT CAVOK 23/15 Q1017", "LEGE 072200Z 02010KT CAVOK 23/21 Q1018", "LEGR 072200Z 26008KT CAVOK 27/11 Q1018", "LEHC 072200Z AUTO 11006KT CAVOK 18/13 Q1017", "LEIB 072200Z 28004KT 230V320 CAVOK 27/20 Q1013 NOSIG", "LEJR 072200Z AUTO 17005KT 9000 NCD 21/19 Q1017", "LELC 072200Z AUTO 24005KT 9999 FEW020 27/23 Q1016", "LELL 072200Z AUTO 29004KT CAVOK 22/18 Q1017", "LELN 072200Z AUTO 28007KT 250V320 CAVOK 19/08 Q1016", "LELO 072200Z AUTO 07007KT 020V120 CAVOK 20/15 Q1016", "LEMD 072200Z 25005KT 220V280 CAVOK 29/08 Q1015 NOSIG", "LEMG 072200Z 12004KT 080V140 CAVOK 24/20 Q1016 NOSIG", "LEMH 072200Z 08008KT 050V120 9999 FEW045 26/23 Q1013", "LEMI 072200Z AUTO 21005KT CAVOK 25/21 Q1017", "LEMO 072200Z 23008KT 200V260 CAVOK 23/17 Q1017 NOSIG", "LEPA 072200Z 05006KT 030V100 CAVOK 28/22 Q1012 NOSIG", "LEPP 072200Z VRB02KT CAVOK 18/15 Q1016", "LERS 072200Z VRB02KT 9999 FEW020 22/21 Q1016", "LERT 072200Z 19004KT CAVOK 22/19 Q1017 NOSIG", "LESA 072200Z AUTO 29007KT 250V320 CAVOK 19/08 Q1018", "LESB 072200Z AUTO 05006KT 350V080 CAVOK 28/20 Q1012", "LESO 072200Z AUTO VRB04KT CAVOK 27/16 Q1011", "LEST 072200Z 20009KT 160V250 9999 -RA BKN009 18/17 Q1014 NOSIG", "LETL 072200Z AUTO 14005KT CAVOK 19/16 Q1020", "LETO 072200Z VRB01KT CAVOK 24/07 Q1015 NOSIG", "LETU 072200Z AUTO 10004KT 080V140 CAVOK 20/M21 Q1016", "LEVC 072200Z VRB02KT 9999 FEW015 25/22 Q1015 NOSIG", "LEVD 072200Z AUTO 29009KT CAVOK 22/08 Q1017", "LEVS 072200Z AUTO 26006KT CAVOK 23/08 Q1016", "LEVT 072200Z VRB01KT CAVOK 19/16 Q1015", "LEVX 072200Z 20011KT 2000 0700E RA BCFG SCT005 BKN016 OVC040 18/17 Q1015 NOSIG", "LEXJ 072200Z AUTO 26007KT 210V280 9999 BKN013 22/20 Q1013", "LEZG 072200Z 10003KT 9999 FEW060 22/17 Q1015", "LEZL 072200Z 21008KT CAVOK 24/16 Q1016 NOSIG", "LFAQ 072200Z AUTO 10007KT CAVOK 21/13 Q1015", "LFAT 072200Z AUTO 13006KT CAVOK 21/14 Q1014", "LFBA 072200Z AUTO 11012KT CAVOK 19/18 Q1015", "LFBC 072200Z AUTO 14005KT CAVOK 21/15 Q1012 BECMG 14015KT", "LFBD 072200Z AUTO 13016KT CAVOK 23/15 Q1013 NOSIG", "LFBE 072200Z AUTO 11007KT 080V170 CAVOK 21/15 Q1014", "LFBG 072200Z AUTO 16012KT CAVOK 24/16 Q1013", "LFBH 072200Z AUTO 14006KT CAVOK 22/18 Q1012 TEMPO SCT070CB", "LFBI 072200Z AUTO 17012G22KT 140V210 9999 ///CB 27/18 Q1012 TEMPO VRB20G40KT 4000 TSRA", "LFBL 072200Z AUTO 17010KT CAVOK 22/14 Q1015 NOSIG", "LFBM 072200Z AUTO 10008KT 070V140 CAVOK 20/16 Q1013", "LFBO 072200Z AUTO 10007KT CAVOK 19/17 Q1017 BECMG FEW060CB BKN110", "LFBP 072200Z AUTO 09005KT 060V120 CAVOK 19/15 Q1013 NOSIG", "LFBT 072200Z AUTO 34004KT 9999 FEW110 16/15 Q1015 NOSIG", "LFBU 072200Z AUTO 16009KT 120V190 CAVOK 24/15 Q1014", "LFBX 072200Z AUTO 11006KT 050V160 CAVOK 22/15 Q1014", "LFBY 072200Z AUTO 09007KT 060V120 9999 // ////// 20/15 Q1012", "LFBZ 072200Z AUTO 07009KT CAVOK 21/16 Q1012 BECMG 20010KT", "LFCK 072200Z AUTO /////KT CAVOK 18/17 Q1019", "LFCR 072200Z AUTO 12008KT 7000 RA SCT014/// BKN070/// BKN086/// ///CB 17/16 Q1021 BECMG NSW NSC", "LFGA 072200Z AUTO 27010KT CAVOK 23/12 Q1016", "LFGJ 072200Z AUTO 07003KT CAVOK 21/18 Q1015", "LFJL 072200Z AUTO 09009KT CAVOK 23/11 Q1017 NOSIG", "LFJR 072200Z AUTO 07009KT 9999 VCTS ///CB 21/17 Q1013", "LFKB 072200Z AUTO 15008KT 120V220 9999 ///CB 23/21 Q1017 BECMG NSC", "LFKC 072200Z AUTO 02005KT 350V080 CAVOK 27/22 Q1016", "LFKF 072200Z AUTO 08009KT 050V120 CAVOK 26/13 Q1018", "LFKJ 072200Z AUTO 09006KT CAVOK 25/17 Q1017 NOSIG", "LFKS 072200Z AUTO 32006KT 270V010 9999 ///CB 24/18 Q1019", "LFLB 072200Z AUTO 36003KT CAVOK 23/18 Q1017", "LFLC 072200Z AUTO 17012KT CAVOK 25/13 Q1016 TEMPO SHRA SCT070TCU BKN090", "LFLL 072200Z 17008KT CAVOK 27/15 Q1017 NOSIG", "LFLN 072200Z AUTO 17009KT CAVOK 23/15 Q1015", "LFLP 072200Z AUTO 05003KT 010V080 CAVOK 21/15 Q1019", "LFLS 072200Z AUTO 22009G20KT 180V250 CAVOK 24/14 Q1019", "LFLW 072200Z AUTO 14007KT 110V180 9999 -RA ///CB 17/16 Q1021", "LFLX 072200Z AUTO 20011KT 170V260 9999 -TSRA ///CB 23/19 Q1013 TEMPO VRB15G30KT 3000 -TSRA", "LFLY 072200Z AUTO 16011KT CAVOK 26/15 Q1017 TEMPO SHRA SCT070CB", "LFMC 072200Z AUTO 02003KT 330V060 9999 ////// 26/13 Q1017", "LFMD 072200Z AUTO 02005KT 340V050 9999 FEW090 BKN140 BKN160 26/17 Q1018 TEMPO FEW130TCU", "LFMH 072200Z AUTO 17007KT CAVOK 23/13 Q1018", "LFMI 072200Z AUTO 31011KT CAVOK 25/18 Q1019 TEMPO TS SCT090CB", "LFMK 072200Z AUTO VRB02KT CAVOK 20/18 Q1017", "LFML 072200Z AUTO 02005KT 350V060 CAVOK 29/12 Q1018 TEMPO VRB15KT TS SCT090CB", "LFMN 072200Z 01007KT 330V040 CAVOK 27/15 Q1019 NOSIG", "LFMO 072200Z AUTO 04001KT 9999 ///TCU 23/18 Q1019 TEMPO 3000 TSRA SCT060CB BECMG 23012KT", "LFMP 072200Z AUTO 01007KT 310V070 CAVOK 24/19 Q1018", "LFMT 072200Z AUTO 26008KT CAVOK 25/19 Q1019 NOSIG", "LFMU 072200Z AUTO 31009KT 9999 ///CB 24/18 Q1020", "LFMV 072200Z AUTO 28003KT 240V330 CAVOK 25/17 Q1019", "LFMY 072200Z AUTO VRB03KT 9999 ////// 26/15 Q1018", "LFOA 072200Z AUTO 11005KT CAVOK 25/17 Q1014", "LFOB 072200Z AUTO 08004KT CAVOK 19/13 Q1014 NOSIG", "LFOE 072200Z AUTO 14005KT CAVOK 25/14 Q1014 TEMPO 18015G30KT", "LFOH 072200Z AUTO 10008KT CAVOK 23/16 Q1012", "LFOJ 072200Z AUTO 09007KT CAVOK 24/15 Q1013 TEMPO 22020G30KT 4000 SHRA SCT080CB", "LFOK 072200Z AUTO 06006KT CAVOK 20/15 Q1015 NOSIG", "LFOP 072200Z AUTO 12007KT CAVOK 22/14 Q1014", "LFOT 072200Z AUTO 36003KT 320V040 9999 VCTS ///CB 25/17 Q1012 TEMPO NSW", "LFOV 072200Z AUTO 08007KT 9999 ///CB 20/17 Q1012", "LFOZ 072200Z AUTO 08007KT CAVOK 25/15 Q1014", "LFPB 072200Z AUTO 05005KT CAVOK 21/14 Q1014 BECMG 12010KT", "LFPG 072200Z 10008KT CAVOK 25/14 Q1014 NOSIG", "LFPM 072200Z AUTO 08005KT 050V110 CAVOK 20/12 Q1014", "LFPN 072200Z AUTO 10003KT CAVOK 23/14 Q1014", "LFPO 072200Z AUTO VRB02KT CAVOK 24/14 Q1014 NOSIG", "LFPT 072200Z AUTO 09003KT CAVOK 20/13 Q1014", "LFPV 072200Z AUTO 10005KT 9999 // NSC 25/14 Q1014", "LFQA 072200Z AUTO 00000KT CAVOK 17/13 Q1015", "LFQB 072200Z AUTO VRB03KT CAVOK 20/14 Q1014", "LFQQ 072200Z AUTO 07006KT CAVOK 22/12 Q1015 BECMG 13010KT", "LFRB 072200Z AUTO 18014KT CAVOK 19/17 Q1011 TEMPO BKN007", "LFRC 072200Z AUTO 10008KT CAVOK 21/13 Q1011", "LFRD 072200Z AUTO 14007KT 100V170 CAVOK 24/17 Q1011 TEMPO VRB15G30KT 2000 TSRAGR BKN040CB", "LFRG 072200Z AUTO 11005KT CAVOK 23/16 Q1013", "LFRH 072200Z AUTO 23009KT 9999 FEW005 19/18 Q1012 TEMPO 17010KT 4000 BR", "LFRI 072200Z AUTO 36003KT CAVOK 24/17 Q1011", "LFRJ 072200Z AUTO 18009KT CAVOK 19/17 Q1011", "LFRK 072200Z AUTO 13005KT CAVOK 22/16 Q1012", "LFRL 072200Z AUTO 19010KT CAVOK 19/17 Q1011", "LFRM 072200Z AUTO 17013KT 120V210 9999 TSRA ///CB 22/16 Q1014", "LFRN 072200Z AUTO 12005KT 090V150 CAVOK 24/17 Q1011 TEMPO VRB15G30KT 2000 TSRAGR BKN040CB", "LFRO 072100Z AUTO 16003KT CAVOK 22/16 Q1010", "LFRQ 072200Z AUTO 20005KT 8000 BKN002 18/18 Q1012", "LFRS 072200Z AUTO 06003KT CAVOK 23/17 Q1011 NOSIG", "LFRT 072200Z AUTO 18005KT CAVOK 22/16 Q1011", "LFRV 072200Z AUTO 24004KT CAVOK 20/16 Q1012", "LFRZ 072200Z AUTO 33004KT 300V010 CAVOK 23/18 Q1011 NOSIG", "LFSB 072200Z AUTO 25003KT CAVOK 18/16 Q1017 TEMPO VRB15G25KT 4000 -TSRA SCT050CB", "LFSD 072200Z AUTO 00000KT CAVOK 22/15 Q1015", "LFSG 072200Z AUTO VRB02KT CAVOK 22/12 Q1016", "LFSI 072200Z AUTO 08006KT CAVOK 23/13 Q1015", "LFSN 072200Z AUTO 04002KT CAVOK 21/12 Q1016", "LFSO 072200Z AUTO VRB02KT CAVOK 22/11 Q1017", "LFST 072200Z AUTO VRB03KT CAVOK 20/13 Q1016 TEMPO VRB15G25KT FEW060CB", "LFSX 072200Z AUTO VRB01KT CAVOK 21/15 Q1016", "LFTH 072200Z AUTO 07009KT 030V110 9999 ///TCU 28/16 Q1016 TEMPO TS FEW090CB", "LFTW 072200Z AUTO VRB02KT 9999 ///TCU 23/16 Q1019", "LFVP 072200Z AUTO 25009KT CAVOK 18/16 Q1009", "LFYR 072200Z AUTO 08004KT 9999 //////CB 22/17 Q1012", "LGAD 072150Z 00000KT CAVOK 25/19 Q1014", "LGAL 072150Z 00000KT 9999 FEW025 22/19 Q1013", "LGAV 072150Z 21003KT CAVOK 25/17 Q1014 NOSIG", "LGBL 072150Z 29004KT 9999 FEW035 26/16 Q1013", "LGEL 072150Z VRB03KT 9999 FEW070 28/15 Q1013", "LGIO 072150Z AUTO VRB02KT //// // ////// 20/15 Q1018 RE//", "LGIR 072150Z 00000KT CAVOK 26/22 Q1012 NOSIG", "LGKL 072150Z AUTO 33007KT //// // ////// 26/18 Q1013 RE//", "LGKO 072150Z 36006KT CAVOK 27/19 Q1009", "LGKP 072200Z AUTO 30019KT //// -RA ////// 25/22 Q1009 RE//", "LGKR 072150Z 16005KT CAVOK 25/16 Q1015 NOSIG", "LGKZ 072150Z AUTO 33006KT 310V010 //// // ////// 21/13 Q1019 RE//", "LGLM 072150Z 34003KT CAVOK 23/20 Q1013", "LGMK 072150Z 33005KT CAVOK 25/19 Q1012", "LGPZ 072150Z 00000KT 9999 FEW025 24/20 Q1015", "LGRP 072150Z 24011KT CAVOK 28/18 Q1007 NOSIG", "LGRX 072150Z 00000KT CAVOK 25/19 Q1014", "LGSA 072150Z VRB03KT CAVOK 25/20 Q1013", "LGSO 072150Z AUTO 01008KT //// // ////// 26/19 Q1013 RE//", "LGSR 072150Z 28008KT CAVOK 27/19 Q1012", "LGTS 072150Z 35008KT 320V020 9999 FEW025 28/17 Q1014 NOSIG", "LHBP 072200Z 00000KT CAVOK 19/11 Q1022 NOSIG", "LHDC 072145Z AUTO 01007KT CAVOK 20/13 Q1020 NOSIG", "LHKE 072145Z 05004KT CAVOK 19/10 Q1022 NOSIG RMK BLU", "LHPA 072145Z 14002KT CAVOK 14/12 Q1022 NOSIG RMK BLU", "LHPP 072145Z AUTO 34004KT CAVOK 19/12 Q1022", "LHPR 072145Z AUTO 26004KT CAVOK 16/11 Q1021", "LHSM 072145Z AUTO VRB03KT CAVOK 17/13 Q1022", "LHSN 072145Z 01004KT CAVOK 18/11 Q1021 NOSIG RMK BLU", "LIBA 072155Z 27009KT CAVOK 23/19 Q1020", "LIBD 072150Z 28005KT CAVOK 23/16 Q1019", "LIBN 072155Z 31004KT CAVOK 21/21 Q1019", "LIBP 072150Z AUTO 23005KT 9999 SCT041/// 22/19 Q1021", "LIBQ 072155Z AUTO 08005KT //// 17/13 Q1029", "LIBR 072150Z 33011KT CAVOK 24/20 Q1018", "LIBV 072155Z 31004KT CAVOK 20/18 Q1019", "LICA 072150Z AUTO 06004KT 9999 NCD 23/22 Q1019", "LICB 072150Z AUTO 09003KT 9999 NCD 22/11 Q1020", "LICC 072150Z VRB01KT CAVOK 24/18 Q1019", "LICD 072150Z AUTO 14010KT 9999 NCD 26/24 Q1018", "LICJ 072150Z 17003KT 130V210 CAVOK 26/19 Q1018", "LICR 072150Z AUTO VRB02KT 9999 NCD 24/15 Q1019", "LICT 072155Z 13010KT CAVOK 26/15 Q1018", "LICZ 072155Z 29003KT CAVOK 23/19 Q1018", "LIEA 072150Z 02006KT CAVOK 27/20 Q1015", "LIEB 072055Z 22008KT CAVOK 24/21 Q1017 RMK FEW FEW070 QUK / QUL / VIS MAR 20 KM MON INVIS VIS MIN 9999", "LIED 072155Z 12017KT 9999 FEW020 28/17 Q1014", "LIEE 072150Z 16017KT 9999 -DZ SCT060 28/19 Q1014", "LIEO 072150Z 11004KT 080V150 9999 FEW018 25/23 Q1017", "LIMC 072150Z 02003KT CAVOK 21/16 Q1022 NOSIG", "LIME 072150Z 36005KT CAVOK 22/17 Q1021 NOSIG", "LIMF 072150Z 34004KT 9999 BKN070 24/18 Q1022", "LIMH 072155Z AUTO 20014KT //// 02/00 Q1036", "LIMJ 072150Z 04010KT CAVOK 28/17 Q1019", "LIML 072150Z 34001KT CAVOK 22/17 Q1021 NOSIG", "LIMZ 072150Z AUTO 26004KT 9999 SCT220/// 22/19 Q1022", "LIPB 072150Z VRB03KT CAVOK 22/15 Q1021", "LIPC 072155Z 18002KT CAVOK 19/17 Q1021", "LIPE 072150Z 08003KT CAVOK 22/15 Q1020", "LIPH 072150Z AUTO VRB02KT 9999 NCD 22/17 Q1021", "LIPI 072155Z 01004KT CAVOK 20/18 Q1021", "LIPK 072150Z 00000KT CAVOK 19/14 Q1020", "LIPL 072155Z 06005KT CAVOK 23/21 Q1020", "LIPO 072150Z AUTO 02005KT 9999 NCD 24/17 Q1021", "LIPQ 072150Z AUTO 10005KT 9999 NCD 22/14 Q1021", "LIPR 072150Z AUTO 21005KT 9999 NCD 20/17 Q1020", "LIPS 072155Z 01004KT CAVOK 22/16 Q1021", "LIPX 072150Z 05003KT CAVOK 23/16 Q1021", "LIPY 072150Z AUTO 20005KT 9999 NCD 19/17 Q1021", "LIPZ 072150Z 17002KT CAVOK 23/17 Q1020 NOSIG", "LIQC 072055Z 05005KT CAVOK 26/19 Q1019 RMK SKC QUK / QUL / VIS MAR 20 KM VIS MIN 9999", "LIQO 072155Z AUTO 36000KT //// ///// Q////", "LIRA 072150Z AUTO 14004KT 9999 NCD 26/17 Q1019", "LIRE 072155Z 04003KT CAVOK 23/20 Q1018", "LIRF 072150Z 36004KT CAVOK 22/20 Q1018 NOSIG", "LIRK 072155Z AUTO 31006KT //// 15/06 Q1027", "LIRM 072055Z 09004KT CAVOK 24/22 Q1018 RMK FEW FEW200 VIS MIN 9999 WIND THR06 10005KT BLU", "LIRN 072150Z 35003KT CAVOK 26/19 Q1019 NOSIG", "LIRP 072145Z 17003KT CAVOK 23/21 Q1018 NOSIG", "LIRQ 072150Z VRB02KT CAVOK 25/17 Q1019", "LIRS 072155Z 35004KT CAVOK 23/21 Q1019", "LIRY 072155Z AUTO VRB01KT //// 24/18 Q1019", "LIRZ 072150Z AUTO 01009KT 9999 NCD 22/15 Q1020", "LIVC 072155Z AUTO /////KT //// ///// Q////", "LIVD 072155Z AUTO VRB02KT //// 14/11 Q1028", "LIVE 072055Z 00000KT CAVOK 16/09 Q1026 RMK SCT SCT180 VIS MIN 9999", "LIVF 072155Z 15005KT CAVOK 20/11 Q1021", "LIVM 072155Z AUTO VRB02KT //// 24/17 Q1020", "LIVP 072155Z 20006KT 0000 FG VV/// 10/09 Q1030", "LIVR 072155Z 11007KT 0000 FG VV/// 11/10 Q1029", "LIVT 072155Z AUTO 08007KT 040V130 //// 25/12 Q1021", "LJCE 072200Z AUTO 26002KT 9999 NSC 15/14 Q1023", "LJLJ 072200Z VRB02KT CAVOK 15/13 Q1023 NOSIG", "LJMB 072200Z AUTO VRB01KT 9999 NCD 15/13 Q1023", "LJPZ 072200Z AUTO 12007KT 9999 NCD 19/16 Q1021", "LKCV 072200Z 13003KT 080V160 CAVOK 15/10 Q1022 NOSIG RMK BLU BLU", "LKKB 072200Z 13006KT CAVOK 21/07 Q1021", "LKKV 072200Z 12008KT CAVOK 19/06 Q1022", "LKLN 072200Z AUTO VRB01KT 9999 // NCD 17/08 Q1021", "LKMT 072200Z 19003KT CAVOK 15/12 Q1023 NOSIG", "LKNA 072200Z 09005KT CAVOK 19/08 Q1023 RMK BLU", "LKPD 072200Z 09007KT CAVOK 16/10 Q1022 RMK BLU", "LKPR 072200Z 16005KT CAVOK 19/07 Q1022 NOSIG", "LKTB 072200Z 06006KT CAVOK 19/09 Q1022 NOSIG", "LLBG 072150Z 20006KT 9999 FEW025 26/22 Q1008 NOSIG", "LMML 072145Z 20005KT CAVOK 26/15 Q1019 NOSIG", "LOWG 072150Z AUTO VRB01KT 9999 NCD 16/14 Q1023", "LOWI 072150Z AUTO VRB01KT 9999 NCD 18/12 Q1021", "LOWK 072150Z AUTO 30004KT 9999 NCD 17/14 Q1024", "LOWL 072150Z AUTO 07007KT 9999 NCD 19/10 Q1021", "LOWS 072150Z AUTO 16005KT 9999 NCD 16/11 Q1021", "LOWW 072150Z 23003KT CAVOK 19/10 Q1022 NOSIG", "LPAZ 072200Z 02008KT 9999 FEW016 SCT021 19/16 Q1021", "LPBJ 072200Z 28008KT CAVOK 19/15 Q1018", "LPCS 072130Z 27004KT 240V310 9999 FEW010 19/18 Q1018", "LPFR 072200Z 31009KT CAVOK 23/14 Q1016", "LPLA 072200Z /////KT 9999 SCT025 20/15 Q1022", "LPMA 072200Z 28003KT 240V310 9999 FEW015 22/18 Q1021", "LPMR 072100Z 23005KT 9999 FEW018 20/18 Q1017", "LPMT 072100Z 25009KT CAVOK 20/18 Q1017", "LPPD 072200Z 33006KT 9999 FEW025 18/13 Q1021", "LPPR 072200Z 19011KT 9999 SCT005 BKN030 19/18 Q1016", "LPPS 072200Z 32007KT 9999 SCT014 22/18 Q1021", "LPPT 072200Z 27008KT 9999 FEW015 20/17 Q1018", "LQBK 072200Z 16005KT CAVOK 17/17 Q1022 NOSIG", "LQMO 072200Z 12004KT 9999 FEW060 24/09 Q1018", "LQSA 072200Z 14005KT CAVOK 13/13 Q1024", "LQTZ 072200Z VRB01KT CAVOK 14/14 Q1022", "LRAR 072200Z AUTO /////KT 9999 NCD 18/14 Q1020", "LRBC 072200Z 33017KT 9999 FEW025 BKN050 20/14 Q1016", "LRBM 072200Z AUTO VRB02KT 9999 SCT095/// BKN120/// OVC170/// 18/15 Q1019", "LRBS 072200Z 12003KT 090V170 CAVOK 22/17 Q1015 NOSIG", "LRBV 072200Z AUTO 13004KT 100V180 6000 R03///// RA SCT006/// BKN017/// OVC049/// 17/17 Q1019", "LRCK 072200Z 31015KT CAVOK 23/16 Q1013 NOSIG", "LRCL 072200Z 25004KT CAVOK 18/17 Q1020", "LRCV 072200Z 29004KT CAVOK 19/15 Q1015", "LRIA 072200Z 32013KT 9999 SHRA FEW006 SCT025CB OVC030 19/18 Q1015", "LROD 072200Z AUTO 02007KT 9999 18/12 Q1020", "LROP 072200Z 15006KT CAVOK 21/18 Q1015 NOSIG", "LRSB 072200Z 26008KT 9999 FEW034 SCT055 17/16 Q1019", "LRSM 072200Z AUTO 36006KT 9999 BKN140/// BKN160/// 19/12 Q1020", "LRSV 072200Z 31010KT 9999 BKN035 19/16 Q1018", "LRTC 072200Z AUTO 33020KT 9999 SCT140/// 23/15 Q1012", "LRTM 072200Z AUTO VRB02KT 9999 BKN055/// 18/17 Q1019", "LRTR 072200Z 33006KT CAVOK 18/15 Q1019", "LSGC 072150Z AUTO VRB01KT 9999 NCD 18/10 Q1021", "LSGG 072150Z AUTO 30001KT CAVOK 22/14 Q1018 NOSIG", "LSGS 072150Z AUTO VRB01KT CAVOK 23/12 Q1020", "LSMA 072150Z AUTO VRB04KT 9999NDV FEW190 21/14 Q1018 RMK", "LSMD 072150Z AUTO 12003KT 9999NDV NCD 20/13 Q1018 RMK", "LSME 072150Z AUTO 00000KT 9999NDV SCT230 21/16 Q1018 RMK", "LSMM 072150Z AUTO VRB01KT 9999NDV FEW230 19/13 Q1019 RMK", "LSMP 072150Z AUTO 20004KT 170V240 9999NDV BKN097 BKN140 23/16 Q1018 RMK", "LSZA 072150Z AUTO VRB01KT CAVOK 21/17 Q1022", "LSZB 072150Z AUTO 10007KT 9999 FEW100 22/14 Q1018", "LSZC 072150Z AUTO 26005KT CAVOK 21/13 Q1018", "LSZG 072150Z AUTO VRB01KT 9999 FEW060 21/13 Q1018", "LSZH 072150Z AUTO 01003KT 9999 NCD 20/11 Q1018 NOSIG", "LSZL 072150Z AUTO 00000KT 9999NDV NCD 21/17 Q1022 RMK", "LSZR 072150Z AUTO VRB02KT CAVOK 20/12 Q1018", "LSZS 072150Z AUTO 18005KT 140V210 9999 NSC 10/08 Q1028", "LTAC 072150Z VRB01KT CAVOK 21/13 Q1014 NOSIG RMK RWY21L 09003KT RWY03L 07003KT 040V110 RWY21R 11003KT 020V170", "LTAE 072150Z 01004KT 9999 SCT040 19/12 Q1014 NOSIG RMK RWY21 02007KT", "LTAF 072150Z 16003KT 130V200 9999 BKN025 26/24 Q1005 NOSIG RMK RWY23 20004KT 5CU025", "LTAG 072150Z 16003KT 9999 BKN030 25/23 Q1005 NOSIG RMK 5CU030", "LTAI 072150Z 33004KT CAVOK 27/25 Q1005 NOSIG RMK RWY18C 34005KT RWY36R 02003KT RWY18L 01003KT 330V040", "LTAJ 072150Z 24004KT CAVOK 24/18 Q1004 NOSIG RMK RWY10 26007KT SKC", "LTAN 072150Z 33015KT 9999 FEW040 23/12 Q1014 NOSIG", "LTAP 072150Z 28006KT 9999 FEW040 19/16 Q1011 NOSIG RMK RWY23 29006KT", "LTAR 072150Z 01007KT CAVOK 14/13 Q1016", "LTAT 072150Z 22004KT 190V340 CAVOK 26/09 Q1007 NOSIG RMK RWY03 VRB03KT", "LTAU 072150Z 04006KT CAVOK 19/15 Q1012 NOSIG RMK RWY07 01003KT", "LTAY 072150Z 26005KT 230V300 CAVOK 23/14 Q1014 NOSIG", "LTAZ 072150Z 24005KT 200V300 CAVOK 22/15 Q1012 RMK RWY29 25006KT", "LTBA 072150Z 33005KT CAVOK 26/16 Q1012 RMK RWY23 01006KT", "LTBD 072150Z 00000KT CAVOK 25/18 Q1009", "LTBF 072150Z 35008KT 9999 FEW035 24/19 Q1013 NOSIG", "LTBH 072150Z 12004KT CAVOK 22/18 Q1013", "LTBJ 072150Z 36009KT CAVOK 27/18 Q1011 NOSIG RMK RWY16 36008KT", "LTBQ 072150Z 22003KT 200V260 9999 SCT035 20/20 Q1013 NOSIG", "LTBR 072150Z VRB02KT CAVOK 21/19 Q1013 NOSIG RMK RWY07 32004KT 290V350", "LTBS 072150Z VRB03KT CAVOK 28/17 Q1005 NOSIG RMK RWY19 35010KT SKC", "LTBU 072150Z 33012KT 9999 SCT035 BKN080 21/17 Q1013 RMK RWY22 32010KT", "LTBY 072150Z 28008KT 9999 FEW040 20/17 Q1015", "LTCA 072150Z 24007KT CAVOK 24/10 Q1007 NOSIG", "LTCB 072150Z 20003KT 150V230 9999 SCT035 BKN090 24/21 Q1009 NOSIG", "LTCC 072150Z 32004KT CAVOK 28/14 Q1003 NOSIG RMK RWY16 32006KT 270V360 SKC", "LTCD 072150Z VRB02KT 9999 FEW080 18/14 Q1012 NOSIG", "LTCE 072150Z 28004KT 170V330 9999 FEW040 17/11 Q1016 NOSIG RMK RWY08R 26004KT 230V290 RWY26R 28004KT 240V300 RWY08L 27004KT 2CU040", "LTCF 072150Z 03009KT 9999 FEW040 15/11 Q1016 NOSIG", "LTCG 072150Z 24008KT 9999 FEW015 BKN028 24/22 Q1008 NOSIG RMK RWY29 25008KT", "LTCI 072150Z 31004KT 260V330 9999 FEW040 21/10 Q1015 NOSIG", "LTCJ 072150Z 28003KT 240V320 CAVOK 25/14 Q1003 NOSIG RMK RWY20 24004KT SKC", "LTCN 072150Z 26017KT CAVOK 26/19 Q1005", "LTCS 072150Z VRB04KT CAVOK 26/17 Q1005 RMK RWY22 24008KT SKC", "LTCT 072150Z 01001KT 9999 SCT100 25/14 Q1009", "LTCV 072150Z 27007KT CAVOK 29/08 Q1003", "LTCW 072150Z VRB01KT 9000 FEW040 14/09 Q1016", "LTDA 072150Z 25010KT 210V290 9999 FEW040 26/20 Q1004 NOSIG", "LTFC 072150Z 33019KT CAVOK 23/15 Q1013 RMK RWY23 35008KT 320V040", "LTFD 072150Z 08007KT CAVOK 25/16 Q1012", "LTFE 072150Z VRB02KT CAVOK 29/16 Q1008 NOSIG RMK RWY10 07006KT 010V090", "LTFG 072150Z 06003KT CAVOK 26/23 Q1005", "LTFH 072150Z 15004KT 9999 FEW036 21/20 Q1009 NOSIG", "LTFJ 072150Z 07005KT 9999 FEW035 SCT100 25/19 Q1012 NOSIG RMK RWY24 06004KT 030V090", "LTFM 072150Z 33008G19KT 290V350 CAVOK 25/16 Q1013 NOSIG RMK RWY17L 31009KT RWY34L 31006KT RWY16R 32006KT RWY36 33011KT RWY18 33010KT", "LTFO 072150Z 23010KT 9999 FEW020CB BKN035 25/21 Q1006 RESHRA", "LUKK 072200Z 34012KT CAVOK 22/18 Q1012 NOSIG", "LWOH 072200Z 34008KT 9999 FEW033 18/15 Q1021", "LWSK 072200Z 29004KT 9999 FEW050 18/17 Q1021 NOSIG", "LXGB 072150Z AUTO 29014KT 9999 NCD 23/18 Q1016", "LYBE 072200Z 30006KT CAVOK 19/16 Q1021 NOSIG", "LYBT 072200Z 32006KT CAVOK 18/16 Q1021 NOSIG", "LYKV 072200Z 30001KT 9999 FEW050 19/16 Q1021 NOSIG", "LYNI 072200Z 36003KT 320V040 9999 FEW040 20/16 Q1020 NOSIG", "LYPG 072200Z 34012KT CAVOK 24/14 Q1019 NOSIG", "LYTV 072200Z AUTO 01004KT 300V100 CAVOK 27/13 Q1018", "LYVR 072200Z AUTO 02004KT CAVOK 18/17 Q1019", "LZIB 072200Z 05004KT CAVOK 18/09 Q1022 NOSIG", "LZKZ 072200Z 34007KT CAVOK 18/11 Q1022 NOSIG", "LZPP 072200Z AUTO 02006KT 9999 NCD 17/11 Q1022", "LZTT 072200Z 28006KT 240V300 CAVOK 11/09 Q1024", "LZZI 072200Z 13002KT CAVOK 14/11 Q1023", "MBPV 072200Z 13007KT 9999 SCT015 31/23 Q1015", "MDAB 072100Z 09006KT 9999 FEW020 31/25 Q1014", "MDBH 072200Z 13012KT 9999 FEW022CB FEW026 33/25 Q1013 CB/W/NW METAR ", "MDCY 072200Z 06016KT 9999 FEW022 29/25 Q1015 NOSIG", "MDJB 072200Z 17010KT 9999 FEW020 32/24 Q1014", "MDLR 072200Z 06008KT 9999 FEW022 32/24 Q1013", "MDPC 072200Z 05008KT 9999 FEW020 29/24 Q1015", "MDPP 072200Z 00000KT 9999 FEW022 30/25 Q1014", "MDSD 072200Z 13008KT 9999 FEW025 SCT300 32/24 Q1014", "MDST 072200Z 08008KT 9999 FEW030 34/21 Q1014", "MGCB 072200Z 07004KT 9999 SCT018 FEW024CB 26/19 QFE 868.9 CB/PCPN NE/E CB SW", "MGES 072200Z 03006KT 9999 -TSRA SCT018 SCT025CB BKN090 23/21 QFE907.2 CB/TS SMC N", "MGGT 072200Z 22010KT 9999 -DZ SCT020 SCT090 20/18 Q1019 A3009", "MGHT 072200Z 27008KT 9999 SCT025 SCT028CB 20/14 CB/SMC N CB/S", "MGMM 072200Z 18006KT 9999 TS BKN020 FEW025CB 32/24 1010 A2983 CB/TS/PCPN SSW CB NE", "MGPB 072200Z 03004KT 9999 SCT020 FEW030CB 30/25 Q1008 A2977 CB TS ENE/E/ESE", "MGQZ 072200Z 00000KT 8000 VCSH SCT018 FEW025CB OVC080 15/14 QFE772/3 CB/PCPN N/NW", "MGRT 072200Z 04006KT 8000 -TSRA SCT016 FEW024CB OVC070 24/24 Q1013 A2991 CB/TS/LTNG SBR STN VOL STA MARIA Y SANTIAGUITO EN ACTIVIDAD", "MGTU 072200Z 12004KT 8000 TSVCSH BKN018 FEW022CB 28/23 CB/TS/PCPN/N/NE/NW", "MGZA 072200Z 08010KT 9999 FEW025 FEW030CB SCT200 34/22 QFE 982/8 CB N/SE/SSE/S CB DIST E", "MHCA 072200Z 10008KT 9999 SCT028TCU SCT030CB 30/24 Q1011 RMK CB NE E SE", "MHCH 072200Z 17010KT 5000 TSRA SCT030TCU FEW034CB BKN070 25/25", "MHGS 072200Z 36008KT 9999 2000N TSRA SCT040TCU SCT042CB 25/20", "MHLC 072200Z VRB02KT 9999 FEW025CB BKN070 30/26 Q1008 A2977 NOSIG", "MHLE 072200Z 18008KT 5000 -TSRA SCT016 SCT024CB 19/18", "MHLM 072200Z 06013KT 9999 TS FEW030 FEW034CB 31/24 Q1008 A2977 NOSIG", "MHNO 072200Z 00000KT 3000 -TSRA SCT038CB SCT040TCU 22/21", "MHPL 072200Z 16004KT 9999 FEW024CB OVC080 26/22 Q1011", "MHPR 072200Z 21012KT 8000 4000S -TSRA SCT046TCU FEW048CB BKN080 22/20 Q1013 A2992 NOSIG", "MHRO 072200Z 09023KT CAVOK 30/26 Q1009 A2980 NOSIG", "MHSR 072200Z 34004KT 9999 SCT028TCU FEW030CB 30/17", "MHTE 072200Z 02010KT 9999 SCT020 FEW024TCU FEW029CB BKN060 32/25 Q1007 A2974", "MHTG 072200Z 05004KT 9999 SCT034TCU FEW036CB 27/20 Q1015 A2997 NOSIG", "MHTR 072200Z 07009KT 9999 FEW025TCU 32/25", "MHYR 072200Z 02004KT 9999 SCT025TCU BKN070 22/21 RETS", "MKJP 072200Z 14019KT 9999 FEW022CB 32/24 Q1012", "MKJS 072200Z 08019KT 9999 SCT022 31/23 Q1012", "MMAA 072150Z 19009KT 7SM FEW015TCU SCT300 31/25 A2980 RMK 8/202 HZY", "MMAN 072140Z 13011KT 12SM BKN035 33/19 A2988 RMK 8/500", "MMAS 072201Z 19013KT 6SM RA BKN030TCU 17/15 A3012 RMK 8/200 RAB58", "MMBT 072140Z 21007KT 8SM BKN020 BKN100 29/25 A2985 RMK 8/420", "MMCB 072142Z 16007KT 10SM BKN020TCU 30/17 A3001 RMK 8/200 DSNT CB N/NE AC S", "MMCE 072143Z 36008KT 7SM SCT020TCU SCT260 32/26 A2979 RMK 8/208 CB FRMG NE HZY", "MMCL 072141Z 19008G18KT 8SM FEW030 SCT130 34/22 A2974 RMK 8/130 HZY", "MMCM 072152Z 12018KT 7SM SCT020 BKN200 30/24 A2986 RMK 8/504 HZY", "MMCN 072150Z 23015KT 10SM SKC 36/15 A2969 RMK ISOL CU HZY", "MMCP 072140Z 15010KT 6SM BKN030CB BKN200 30/24 A2984 RMK 8/302 DSNT RA SW -RAE20", "MMCS 072140Z 20008KT 10SM BKN030 39/06 A2990 RMK 8/100", "MMCT 072148Z 10005KT 6SM SCT025CB SCT100 BKN250 28/24 A2988 RMK 8/363", "MMCU 072151Z 36004KT 10SM FEW030 36/08 A2999 RMK 8/100 VCTCU", "MMCV 072140Z 19008KT 8SM FEW020 BKN100 30/18 A2989 RMK 8/460 DSNT TCU NE/W", "MMCZ 072144Z 10008KT 8SM SCT015TCU SCT250 32/25 A2991 RMK 8/206", "MMDO 072150Z 35007KT 9SM SCT025TCU SCT200 30/07 A3008 RMK 8/202 ISOL CB HZY", "MMGL 072140Z 00000KT 8SM FEW030 31/07 A3000 RMK 8/200 CB SE", "MMGM 072159Z RTD 22011KT 10SM SKC 35/26 A2967", "MMHO 072140Z 23004KT 10SM SKC 44/16 A2971 RMK DSNT CB 1ST QUAD", "MMIA 072140Z 22014KT 6SM BKN020 BKN050 31/24 A2984 RMK 8/800", "MMIO 072146Z 36010KT 10SM BKN040TCU 29/12 A3010 RMK 8/200", "MMLM 072141Z 19017KT 10SM SKC 34/21 A2974", "MMLO 072143Z 00000KT 10SM SCT030 BKN090 BKN250 28/11 A3014 RMK 8/263 CB NE W", "MMLP 072150Z 01008KT 10SM SKC 36/13 A2972 RMK ISOL CI", "MMLT 072140Z 16014KT 8SM SKC 34/20 A2969 RMK HZY", "MMMA 072141Z 15009KT 9SM BKN025TCU 33/25 A2987 RMK 8/200 ISOL AC", "MMMD 072147Z 09012KT 7SM FEW020 SCT070 BKN100 BKN300 30/23 A2989 RMK 8/463 DSNT CB S", "MMML 072151Z 17003KT 10SM SKC 41/M13 A2965", "MMMM 072146Z 20014KT 8SM FEW030 SCT070 26/13 A3013 RMK 8/130 HZY TCU E S", "MMMT 072140Z 34015KT 7SM FEW030 SCT100 29/27 A2977 RMK 8/170 HZY", "MMMX 072143Z 10012G22KT 10SM SCT020CB BKN080 BKN220 23/10 A3023 NOSIG RMK 8/363 HZY DSNT PCPN NW", "MMMY 072140Z 14011KT 12SM BKN040TCU 33/20 A2985 RMK 8/200", "MMMZ 072143Z 22005KT 15SM FEW030 SCT250 33/24 A2978 RMK 8/403 DSNT CB 1ST QUAD", "MMNL 072140Z 14010G20KT 10SM SCT035 SCT080 38/18 A2982 RMK 8/170", "MMOX 072149Z 09006KT 7SM -RA BKN025 BKN040 OVC080 21/15 A3009 RMK 60275 8/81/ RAB48 VCCB NE", "MMPA 072140Z 08005KT 4SM SCT030 BKN280 36/26 A2985 RMK 8/108 HZY", "MMPB 072149Z 17010KT 11SM FEW025 SCT230 24/10 A3022 RMK 8/102 DSNT CB SE", "MMPG 072143Z 08008KT 8SM BKN030 34/25 A2989 RMK 8/500 HZY", "MMPN 072140Z 19006KT 12SM FEW040TCU OVC080 24/18 A3010 RMK 8/25/ HZY BINOVC", "MMPQ 072141Z 00000KT 6SM FEW030 SCT200 34/24 A2967 RMK 8/104", "MMPR 072142Z 23011KT 13SM SCT030TCU BKN130 31/24 A2973 RMK 8/230 CB 2ND QUAD", "MMPS 072147Z 26005KT 10SM FEW030 SCT150 31/21 A2982 RMK 8/470 HZY", "MMQT 072140Z 00000KT 7SM SCT025TCU SCT100 BKN250 29/11 A3016 RMK 8/238", "MMRX 072140Z 16012G22KT 8SM SCT040 BKN090 33/21 A2985 RMK 8/530", "MMSD 072150Z 12012KT 10SM SKC 33/15 A2977", "MMSL 072141Z 23013KT 10SM SKC 31/17 A2977 RMK ISOL SC", "MMSM 072147Z 14006KT 8SM SCT020CB BKN080 BKN200 22/08 A3022 RMK 8/363 HZY DSNT PCPN SW/W", "MMSP 072140Z 06016KT 10SM BKN025CB 26/12 A3010 RMK 8/300 ISOL AC", "MMTC 072140Z 31005KT 15SM SCT035TCU 34/15 A2992 RMK 8/200 CB DSNT NNE SW", "MMTG 072142Z 30014KT 6SM TS SCT040CB BKN070 BKN300 26/19 A2985 RMK 8/963 LWR VSBY AND +SHRA 1ST AND 4TH QUAD / VRBL COND", "MMTJ 072140Z 27011KT 8SM SKC 22/14 A2987 RMK HZY", "MMTM 072141Z 11012KT 8SM SCT200 32/25 A2985 RMK 8/002 CU", "MMTO 072141Z 17013KT 8SM SCT020CB SCT070 21/09 A3030 RMK 8/360", "MMTP 072140Z 22010KT 6SM SCT025CB SCT070 BKN200 31/26 A2979 RMK 8/358 PCPN N NE OCNL LGTIC HZY", "MMUN 072144Z 13011KT 7SM FEW015TCU SCT250 31/24 A2993 RMK 8/208 HZY", "MMVA 072146Z 07009KT 8SM FEW015 SCT210 34/21 A2978 RMK 8/103", "MMVR 072143Z 06007KT 6SM SKC 32/25 A2982 RMK HZY DSNT CBS S", "MMZC 072140Z E14010KT 10SM OVC050 24/13 A3015 RMK 8/2// CB SE/ RA SE", "MMZH 072151Z 17008G18KT 7SM FEW020CB BKN090 BKN250 33/24 A2981 RMK 8/363 HZY", "MMZO 072140Z 15006KT 10SM FEW020 SCT210 32/27 A2976 RMK 8/104 DSNT CB NE", "MNBL 072100Z 12008KT 8000 SCT016CB SCT070 29/27 Q1010 CBRA/N/SW/W/NW", "MNCH 072100Z 18006KT 5000 TSRA FEW024CB SCT025 27/27 Q1008 4AC090 CB/NE/E/SE TCU/N/NW", "MNJG 072100Z 32004KT 9999 BKN012 25/18 Q1010", "MNJU 072100Z 09004KT 9999 SCT020 33/23 Q1008 2AC080 2CI300", "MNMG 072200Z 07010KT 9999 FEW023TCU SCT300 32/23 Q1008 A2978 TCU/N/E/W/NW NOSIG", "MNPC 072100Z 07004KT 6000 VCRA FEW014CB BKN016TCU 28/26 Q1009 2AC100 CBRA/E/SE TCURA/N/W/SW/W/NW", "MNRS 072100Z 00000KT 9999 FEW015CB BKN200 30/25 Q1009 CB/N/NE/E/SE", "MPBO 072200Z 03007KT 9999 SCT020 SCT090 28/27 Q1009", "MPDA 072200Z 19006KT 9999 FEW015CB SCT100 29/24 Q1008", "MPMG 072200Z 30004KT 9999 SCT015CB BKN080 27/24 Q1010 TEMPO TS", "MPPA 072200Z 35005KT 9999 FEW016CB 26/24 Q1009", "MPSM 072200Z 36005KT 9999 SCT020CB SCT090 27/24 Q1009", "MPTO 072200Z 02003KT 9000 VCSH SCT018CB SCT090 26/23 Q1009 TEMPO 6000 TSSHRA ", "MRLB 072200Z 12009KT 9999 SCT030 BKN200 29/24 A2978", "MRLM 072200Z 01009KT CAVOK 29/26 A2979", "MROC 072200Z 26008KT 9999 SCT010 BKN150 23/21 A2996 NOSIG", "MRPV 072200Z 30006KT 9999 FEW015 BKN120 23/20 A3000 NOSIG", "MSLP 072150Z 21004KT 150V260 9999 FEW037 FEW040CB 31/22 Q1008 A2979 NOSIG RMK CB N NE NW", "MTCH 072153Z 05014KT 8000 FEW024CB 30/24 Q1014 RMK: CB/SW", "MTPP 072200Z 31008KT 280V360 SCT027CB 33/23 Q1012 A2990 RMK:CB/N", "MUCC 072150Z 09011KT 060V120 9000 SCT020 32/25 Q1014", "MUCF 072159Z AUTO 22008KT 170V250 32/25 Q1014", "MUCL 072150Z 13009KT 9000 SKC 32/23 Q1014", "MUCM 072150Z 07006KT 040V100 9000 SCT025 33/23 Q1014", "MUCU 072150Z 21005KT 180V260 9000 FEW020 31/24 Q1014", "MUGM 072151Z 13011KT 8SM FEW030 FEW250 31/27 A2995 RMK AO2 SLP141 T03110267 $", "MUHA 072150Z VRB05KT 9000 SCT030 34/20 Q1014", "MUHG 072150Z 09011KT 9000 FEW030 32/25 Q1014", "MUSC 072150Z 09010KT 050V110 9000 FEW025 33/21 Q1014", "MUVR 072150Z 03009KT 9000 FEW020 32/23 Q1014", "MWCB 072200Z 09010KT 9999 FEW018 31/24 Q1013", "MWCR 072200Z 10011KT 9999 FEW018 32/24 Q1012", "MYAF 072200Z AUTO 09003KT 340V140 //// // BKN035 //////TCU 30/24 A2998", "MYCB 072200Z AUTO 16010KT 130V190 9999 FEW025 31/25 A2999", "MYGF 072200Z 26011G21KT 230V300 9999 VCSH FEW015CB BKN020TCU BKN250 29/25 A2996 RETS", "MYNN 072200Z 19006KT 170V230 9999 FEW015CB BKN050 31/24 A2999", "MYSM 072200Z AUTO 15009KT 9999 FEW027/// 30/24 A3000", "MZBZ 072200Z 09010KT 9999 SCT027 31/25 A2984 Q1010 NOSIG", "NCAI 072200Z AUTO 13005KT //// ///// 28/24 Q1015", "NCAT 072200Z AUTO NIL", "NCMG 072200Z AUTO 27002KT //// ////// ///// Q////", "NCMH 072200Z AUTO 10004KT //// ////// ///// Q1011", "NCMK 072200Z AUTO 07006KT //// ////// 28/24 Q1015", "NCMR 072200Z AUTO 04006KT //// ////// 28/23 Q1015", "NCNS 072200Z AUTO NIL", "NCPK 072200Z AUTO NIL", "NCPL 072200Z AUTO NIL", "NCPY 072200Z AUTO 06018KT //// ////// 30/24 Q1011", "NCRG 072200Z AUTO 10005KT 070V140 5000 -RA HZ FEW010/// BKN036/// OVC060/// 25/24 Q1016", "NCRK 072200Z AUTO 07004KT //// ////// 31/25 Q1011", "NCSW 072200Z AUTO NIL", "NFFN 072200Z VRB02KT 9999 FEW030 28/21 Q1016 NOSIG", "NFNA 072200Z 08006KT 9999 BKN017TCU SCT045 27/24 Q1015", "NFNL 072200Z 10008KT 9999 FEW028 SCT048 30/25 Q1015", "NFNM 072200Z 11010KT 9999 FEW018TCU SCT047 28/23 Q1015", "NFNS 072200Z 09004KT 9999 FEW024 SCT048 28/24 Q1015", "NFTF 072200Z 07006KT 9999 SCT017 25/19 Q1018", "NFTL 072200Z 06004KT 9999 FEW018 26/20 Q1016", "NFTV 072200Z 12008KT 9999 FEW018 26/21 Q1016", "NGFU 072200Z 12016KT 9999 FEW016CB FEW018TCU BKN110 31/28 Q1009", "NGTA 072200Z 09008KT 040V120 9999 FEW019 BKN300 30/27 Q1007", "NIUE 072200Z AUTO 08008KT NCD 26/20 Q1016", "NLWW 072200Z 11009KT 080V140 9999 SCT025 SCT040 30/24 Q1012 TEMPO 4500 SHRA BKN014 SCT020TCU", "NSFA 072200Z 24004KT 9999 FEW024 SCT170 31/25 Q1013", "NSTU 072150Z 12013KT 12SM FEW018TCU SCT045 BKN110 30/27 A2991 RMK TCU SE-S-SW SLP129 T03010268", "NTAA 072200Z 05019KT 9999 FEW026 29/23 Q1016 WS ALL RWY NOSIG", "NVSC 072100Z 12008KT 9999 BKN018 OVC040 27/24 Q1013", "NVSG 072100Z 13007KT 9999 FEW020 SCT040 27/23 Q1014", "NVSS 072200Z 21002KT 9999 BKN020 26/22 Q1015", "NVVA 072100Z 00000KT 9999 BKN020 22/21 Q1016", "NVVV 072200Z 11001KT 9999 SCT020 27/19 Q1016", "NVVW 072200Z VRB02KT 9999 SCT020 BKN120 26/21 Q1016", "NWWW 072200Z AUTO 01003KT 330V040 CAVOK 24/20 Q1017 NOSIG", "NZAA 072200Z AUTO 02008KT 9999 FEW009/// SCT090/// BKN100/// 15/14 Q0999", "NZCH 072200Z AUTO 01003KT 9000 -RA SCT075/// OVC090/// 06/05 Q1003", "NZCM 072155Z AUTO 03004KT 9000 CLR M33/M38 A2890 RMK AO2 SLP795 T13261381", "NZWN 072200Z AUTO 22003KT 9999 -RA OVC050/// 10/08 Q1003", "OBBI 072200Z 21003KT 170V260 CAVOK 34/23 Q0997 NOSIG", "OEAB 072200Z 00000KT CAVOK 22/08 Q1022 NOSIG", "OEAH 072100Z 23006KT CAVOK 34/01 Q0999 NOSIG", "OEAO 072100Z 22002KT CAVOK 34/05 Q1008 NOSIG", "OEBA 072100Z 25004KT 9999 FEW025CB SCT030 29/11 Q1018 NOSIG", "OEBH 072100Z 24004KT CAVOK 32/16 Q1011 NOSIG", "OEDF 072200Z 20004KT CAVOK 32/21 Q0997 NOSIG", "OEDM 072100Z 07010KT CAVOK 30/M05 Q1008", "OEDR 072200Z 00000KT CAVOK 31/29 Q0996", "OEGN 072100Z 29004KT 9999 FEW030 34/26 Q1004 NOSIG", "OEGS 072100Z 09006KT CAVOK 33/00 Q1004", "OEGT 072100Z 30010KT CAVOK 25/14 Q1008 NOSIG", "OEHL 072100Z 27006KT CAVOK 32/02 Q1010", "OEJN 072200Z 32007KT CAVOK 31/19 Q1003 NOSIG", "OEKJ 072100Z 03002KT CAVOK 32/M05 Q1006", "OEKM 072100Z 12006KT CAVOK 24/08 Q1022 NOSIG", "OEMA 072200Z 23005KT CAVOK 37/02 Q1008 NOSIG", "OEMN 072100Z 00000KT CAVOK 33/14 Q1007", "OENG 072100Z 34004KT CAVOK 32/M06 Q1012 NOSIG", "OEPA 072100Z 32004KT CAVOK 35/02 Q1002 NOSIG", "OEPS 072055Z 00000KT 9999 CLR 34/M02 A2970 RMK AO2A SLP031 WND DATA ESTMD T03391017 58002", "OERF 072100Z 00000KT CAVOK 32/M02 Q1004 NOSIG", "OERK 072200Z 27002KT CAVOK 32/M07 Q1005 NOSIG", "OERR 072100Z 32013KT CAVOK 34/M02 Q1005 NOSIG", "OESH 072100Z 00000KT CAVOK 33/00 Q1006 NOSIG", "OESK 072100Z 30005KT CAVOK 30/00 Q1009 NOSIG", "OETB 072100Z 36014KT CAVOK 30/06 Q1009 NOSIG", "OETF 072100Z 31015KT CAVOK 29/M01 Q1017 NOSIG", "OETR 072100Z 28012KT CAVOK 26/12 Q1010 NOSIG", "OEWD 072100Z 15004KT CAVOK 34/M06 Q1004", "OEWJ 072100Z 26005KT CAVOK 28/23 Q1005 NOSIG", "OEYN 072100Z 25010KT CAVOK 32/17 Q1002 NOSIG", "OIAA 072200Z 26004KT CAVOK 35/12 Q0997", "OIAH 072200Z 00000KT CAVOK 29/09 Q1005", "OIAM 072200Z 00000KT 7000 NSC 33/26 Q0996", "OIAW 072200Z 15004KT CAVOK 35/20 Q0996", "OIBB 072200Z 12004KT CAVOK 30/21 Q0996 A2942", "OIBJ 072200Z AUTO 00000KT //// // ////// 27/09 Q1003", "OIBK 072200Z 13004KT 5000 BR NSC 32/29 Q0996", "OIBL 072100Z 00000KT 5000 HZ NSC 34/26 Q0997", "OIBP 072100Z 00000KT CAVOK 30/24 Q0996 A2942", "OICC 072100Z 29008KT CAVOK 30/01 Q1010 A2984", "OICI 072200Z 12002KT CAVOK 26/06 Q1012 A2988", "OICK 072200Z 13008KT CAVOK 25/03 Q1008 A2978", "OICS 072200Z 05006KT CAVOK 28/01 Q1011 A2987", "OIFM 072200Z 15006KT CAVOK 24/01 Q1017 A3003", "OIFS 072200Z 31004KT CAVOK 20/01 Q1020", "OIHH 072200Z 11012KT CAVOK 23/03 Q1015 A3000", "OIIE 072200Z 34004KT CAVOK 26/04 Q1012", "OIII 072200Z 07006KT CAVOK 30/04 Q1014 A2995 NOSIG", "OIIK 072200Z 09006KT CAVOK 25/07 Q1014", "OIIP 072200Z 14006KT CAVOK 27/06 Q1013 A2992", "OIKB 072200Z 33004KT 4000 HZ NSC 32/28 Q0998 A2948", "OIKK 072200Z 02004KT CAVOK 25/01 Q1017 A3004", "OIKQ 072200Z 09010KT 5000 BR NSC 33/30 Q0997", "OIMB 072200Z 07008KT CAVOK 22/M02 Q1015 A2999", "OIMJ 072200Z AUTO 34006KT //// // ////// 19/05 Q1017", "OIMM 072200Z 15004KT CAVOK 23/09 Q1014 A2997", "OIMN 072200Z 25004KT CAVOK 18/05 Q1016", "OINE 072100Z 00000KT CAVOK 26/16 Q1009", "OING 072200Z 00000KT CAVOK 24/22 Q1009", "OINN 072200Z 00000KT CAVOK 24/22 Q1006", "OINR 072100Z 00000KT 9999 FEW027 25/22 Q1007", "OINZ 072200Z 00000KT CAVOK 23/20 Q1007", "OISF 072200Z 00000KT 9999 FEW040 27/04 Q1011 A2985", "OISL 072100Z 00000KT CAVOK 33/15 Q1003 A2963", "OISS 072200Z 27004KT 8000 FEW040 29/04 Q1012 A2988", "OISY 072200Z 00000KT CAVOK 21/08 Q1018", "OITL 072200Z 24004KT CAVOK 13/08 Q1015", "OITM 072100Z 09019KT CAVOK 28/08 Q1010", "OITP 072100Z 14010KT CAVOK 25/20 Q1006", "OITR 072200Z 20004KT CAVOK 19/10 Q1010 A2985", "OITT 072200Z 05012KT CAVOK 26/08 Q1012 A2990", "OITZ 072200Z 12010KT CAVOK 24/04 Q1015 A2998", "OIYY 072200Z 23008KT 7000 NSC 29/02 Q1014", "OIZB 072100Z 33021KT CAVOK 32/03 Q1002", "OIZH 072200Z 35004KT CAVOK 25/02 Q1012 A2989", "OIZI 072100Z 36006KT CAVOK 36/03 Q1003", "OIZJ 072100Z 13006KT 5000 BR NSC 32/29 Q0997", "OJAI 072200Z 28009KT 5000 HZ NSC 20/16 Q1011 NOSIG", "OJAM 072200Z 28006KT 7000 NSC 21/16 Q1012 NOSIG", "OJAQ 072200Z 36010KT 8000 NSC 30/16 Q1008 NOSIG", "OKAS 072155Z 31010KT 9999 CLR 36/01 A2949 RMK AO2A SLP979 T03550005 FZRANO $", "OKKK 072200Z 35010KT CAVOK 40/07 Q0997 NOSIG", "OLBA 072200Z 15005KT 8000 NSC 26/20 Q1009 NOSIG", "OMAA 072200Z 32004KT 300V360 7000 NSC 33/31 Q0997 NOSIG", "OMAD 072200Z 02003KT 360V060 6000 NSC 33/30 Q0997 NOSIG", "OMAL 072200Z 17010KT 6000 NSC 37/19 Q1000 TEMPO 4000 HZ", "OMDB 072200Z 01008KT 340V050 CAVOK 37/24 Q0997 NOSIG", "OMDW 072200Z 33005KT 8000 NSC 34/24 Q0998 NOSIG", "OMFJ 072200Z 06003KT 6000 NSC 31/29 Q0998 A2948", "OMRK 072200Z VRB02KT CAVOK 33/19 Q0997 A2946", "OMSJ 072200Z 35004KT CAVOK 36/21 Q0998 NOSIG", "OODQ 072150Z AUTO 21026KT 8000 OVC004 24/24 Q1000 NOSIG", "OOKB 072150Z AUTO 01004KT 9999 R01///// NCD 36/24 Q0997 NOSIG", "OOMS 072150Z 30002KT 9000 NSC 32/26 Q0998 NOSIG", "OOSA 072150Z 16006KT 6000 SCT007 BKN012 OVC020 27/26 Q1003 NOSIG", "OPFA 072200Z 05004KT 4000 FU FEW100 29/26 Q1001 NOSIG", "OPIS 072200Z 09004KT 4000 VCTS FEW030CB SCT040 SCT100 22/21 Q10 05 TEMPO 23015G35KT 3000 TSRA FEW030CB", "OPKC 072200Z 26004KT 4000 FU SCT030 BKN100 31/26 Q1000 TEMPO 03 015G25KT", "OPLA 072155Z 09006KT 5000 FU SCT040 SCT100 27/25 Q1001 NOSIG RMK QFE976 A29.59", "OPMT 072200Z 00000KT 4000 FU FEW040 SCT100 29/23 Q1001 NOSIG", "OPNH 072200Z 00000KT 6000 SCT035 BKN100 29/26 Q0998", "OPPS 072200Z 18004KT 6000 HZ FEW040 BKN100 26/21 Q1004", "OPSK 072200Z 18010KT 4000 HZ SCT040 SCT100 30/24 Q0998 NOSIG", "ORER 072200Z 30006KT 9000 NSC 34/06 Q1003", "ORMM 072200Z 30006KT CAVOK 33/08 Q0997 NOSIG", "ORNI 072200Z 30005KT 8000 NSC 33/05 Q0998", "ORSU 072200Z 29006KT CAVOK 28/07 Q1006", "OSAP 072100Z 26024KT CAVOK 25/19 Q1006", "OSDI 072200Z 22018KT CAVOK 20/15 Q1009", "OSLK 072200Z 12010KT 9999 FEW026 SCT030 24/20 Q1007", "OTBD 072200Z 23004KT CAVOK 36/15 Q0997 NOSIG", "OTBH 072055Z 21005KT 9999 CLR 34/18 A2949 Q0998 RMK AO2A SLPNO FZRANO TSNO VISNO RWY34 CHINO RWY34 $", "OTHH 072200Z 24004KT 220V320 CAVOK 34/18 Q0997 NOSIG", "PAAD 072155Z AUTO 08013KT 10SM CLR 11/08 A2975 RMK AO2 T01130081", "PAAK 072156Z AUTO 10005KT 10SM CLR 12/12 A2975 RMK AO2 SLP073 T01220117", "PAAQ 072153Z 24010KT 4SM HZ OVC014 12/08 A2995 RMK AO2 SLP144 T01220083", "PABE 072153Z 20010KT 10SM -RA FEW022 BKN028 OVC050 11/08 A2985 RMK AO2 RAB39 SLP108 P0000 T01060083", "PABI 072153Z 19019G28KT 10SM SCT045 BKN100 BKN140 26/08 A2973 RMK AO2 PK WND 19028/2148 SLP059 ACSL DSNT E-SE T02560083", "PABL 072156Z AUTO 27004KT 10SM -RA FEW023 SCT032 BKN055 14/11 A2972 RMK AO2 RAB31 SLP067 P0000 T01390111", "PABR 072153Z 07009KT 1SM R08/P6000FT BR OVC002 07/06 A2968 RMK AO2 RAE2055 SLP050 P0000 T00670061 $", "PABT 072153Z 19004KT 10SM -RA FEW024 BKN043 OVC100 18/13 A2975 RMK AO2 RAB49 SLP081 P0000 T01830133 $", "PABV 072156Z AUTO 23008KT 10SM OVC024 12/06 A2998 RMK AO2 SLP157 T01220061", "PACD 072153Z 15020G26KT 10SM BKN031 13/09 A2989 RMK AO2 PK WND 15028/2138 SLP123 T01330094", "PACM 072156Z AUTO 13010KT BKN018 OVC028 A2979 RMK AO2 SLPNO PWINO FZRANO $", "PACV 072153Z 24005KT 10SM SCT012 BKN016 BKN027 14/11 A3004 RMK AO2 SLP172 T01390111", "PACZ 072155Z AUTO 20014KT 10SM OVC009 09/07 A2974 RMK AO2 SLP074 T00860068", "PADE 072153Z AUTO 35005KT BKN035 OVC050 13/10 A2969 RMK AO2 SLP055 T01330100 TSNO $", "PADK 072156Z AUTO 22007KT 10SM FEW003 14/12 A2973 RMK AO2 SLP068 T01390117 $", "PADL 072156Z 20006KT 10SM -RA BKN015 OVC035 11/10 A2992 RMK AO2 RAB17 SLP133 P0000 T01060100", "PADM 072156Z AUTO 13010KT 10SM SCT021 BKN036 OVC050 13/08 A2985 RMK AO2 RAB11E39 SLP113 P0000 T01280083", "PADQ 072153Z COR 18012KT 10SM BKN034 13/07 A2999 RMK AO2 SLP157 T01330067", "PADU 072156Z 15008KT 10SM -RA FEW018 BKN032 OVC043 11/08 A2984 RMK AO2 SLP109 P0002 T01110083 $", "PAED 072155Z 23011KT 10SM VCSH SCT005 BKN011 OVC020 11/07 A2995 RMK AO2A DZB029E55 SLP138 LOW CLD RA SE OVR MTNS T01130074 $", "PAEG 072153Z AUTO VRB05KT 10SM FEW090 32/10 A2968 RMK AO2 SLP045 T03220100 TSNO $", "PAEH 072155Z AUTO 02012KT 010V180 10SM BKN006 09/09 A2989 RMK AO2 SLP126 T00860089", "PAEI 072155Z VRB06KT 10SM FEW020 FEW045 BKN140 22/15 A2971 RMK AO2A SLP063 T02240147 $", "PAEN 072153Z 22008KT 10SM OVC046 11/07 A2996 RMK AO2 SLP147 T01110072", "PAFA 072153Z 05004KT 10SM SCT065 BKN110 BKN180 22/15 A2973 RMK AO2 SLP069 T02170150", "PAFB 072155Z 00000KT 10SM SCT065 BKN110 BKN180 22/15 A2973 RMK AO2A SLP072 T02150153 FZRANO $", "PAFM 072156Z AUTO 16006KT 10SM -RA FEW033 BKN050 OVC065 16/12 A2978 RMK AO2 RAB43 SLPNO P0000 T01560122", "PAFR 072155Z AUTO 26003KT 4SM BR OVC005 10/09 A2997 RMK AO2 RAB14E27 SLP155 P0001 T01000092 $", "PAFS 072201Z AUTO 22005KT 10SM -RA FEW010 BKN017 OVC055 11/10 A2986 RMK AO2 RAB2155 SLP117 P0000 T01110100", "PAGA 072118Z 14008KT 10SM SCT034 BKN042 OVC110 16/08 A2980 RMK TSNO", "PAGK 072153Z AUTO 16019G29KT 10SM CLR 24/11 A2982 RMK AO2 PK WND 17032/2140 SLP088 T02390106 TSNO", "PAGN 072156Z AUTO VRB03KT 10SM CLR 17/12 A2990 RMK AO2 SLP115 T01720122", "PAGS 072156Z AUTO 22009KT 10SM CLR 22/12 A2991 RMK AO2 SLP129 T02220122", "PAGY 072153Z AUTO 24006KT 10SM CLR 21/12 A2982 RMK AO2 SLP096 T02110117 TSNO", "PAHC 072156Z AUTO 15007KT 10SM BKN028 BKN032 OVC041 13/08 A2981 RMK AO2 SLP100 T01330078", "PAHL 072156Z AUTO 21009KT 10SM BKN019 OVC024 16/11 A2978 RMK AO2 SLP085 T01610106", "PAHN 072154Z AUTO 13007KT 10SM CLR 24/11 A2984 RMK AO2 SLP107 T02440111 TSNO", "PAHO 072153Z 19009KT 10SM FEW038 BKN050 BKN120 14/08 A2998 RMK AO2 SLP154 T01440078", "PAHY 072156Z AUTO 00000KT 10SM CLR 22/12 A2985 RMK AO2 SLP107 T02220122 $", "PAIG 072156Z AUTO 20007KT 10SM FEW016 BKN055 OVC090 12/09 A2993 RMK AO2 RAE53 SLP142 T01170089 PNO $", "PAIK 072156Z AUTO 21003KT 10SM -RA BKN029 BKN035 OVC060 14/12 A2975 RMK AO2 RAB51 SLP074 P0000 T01390117", "PAIL 072120Z 11005KT 9SM -RA SCT007 BKN039 OVC046 10/08 A2996", "PAIN 072156Z AUTO 12008KT 090V160 10SM FEW050 BKN060 OVC085 22/10 A2978 RMK AO2 SLP086 T02170100", "PAIW 072156Z AUTO 19020KT 10SM OVC005 08/08 A2971 RMK AO2 PK WND 19028/2103 SLP064 T00830078 PNO $", "PAJN 072153Z 24006KT 10SM CLR 26/11 A2987 RMK AO2 SLP115 T02610111", "PAJZ 072156Z AUTO 18008KT 7SM SCT014 BKN035 OVC060 11/08 A2995 RMK AO2 RAE52 SLP151 P0000 T01110078 $", "PAKF 072156Z AUTO 16017G23KT 10SM SCT035 BKN110 09/07 A2990 RMK AO2 SLP125 T00940072 PNO $", "PAKH 072156Z AUTO 5SM BR OVC003 09/08 A3003 RMK AO2 SLP170 T00890083 PNO $", "PAKI 072156Z AUTO 20012KT 10SM OVC018 09/06 A2984 RMK AO2 SLP102 T00940056 PNO $", "PAKN 072154Z 20011KT 10SM BKN029 BKN036 OVC080 13/08 A2990", "PAKT 072153Z 33010KT 10SM CLR 23/13 A2986 RMK AO2 SLP110 HARBOR WIND 28008KT T02330128", "PAKU 072145Z 09008KT 10SM R06/P6000FT BKN080 17/13 A2972", "PAKV 072153Z AUTO VRB03KT 3SM -RA BR FEW019 BKN042 OVC050 12/11 A2981 RMK AO2 RAB27 SLP098 P0002 T01220106 TSNO $", "PAKW 072053Z AUTO 20007KT 10SM SCT110 23/13 A2986 RMK AO2 SLP109 T02280133 55000 TSNO", "PAKX 072155Z AUTO 00000KT 7SM SCT010 SCT026 BKN035 10/09 A2994 RMK AO2 P0002", "PALG 072156Z AUTO VRB04KT 10SM FEW016 SCT049 OVC100 12/09 A2983 RMK AO2 RAB03E42 SLP104 P0001 T01170089", "PALH 072153Z 27008KT 10SM OVC021 11/08 A2997 RMK AO2 RAB2059E12 SLP150 P0001 T01110083", "PALU 072155Z AUTO 07006KT 10SM SCT075 11/10 A2969 RMK AO2 SLP054 T01050097", "PAMB 072205Z AUTO 21011KT 8SM SCT016 BKN025 OVC036 11/08 A2992 RMK AO2 $", "PAMC 072153Z 19005KT 10SM -RA SCT023 SCT050 OVC080 12/09 A2985 RMK AO2 SLP112 P0000 T01220094", "PAMD 072204Z AUTO 26011G15KT 10SM FEW012 BKN024 12/09 A3006 RMK AO2 PNO $", "PAMH 072156Z AUTO 00000KT 3SM RA BR BKN038 OVC050 14/13 A2980 RMK AO2 SLP088 P0007 T01390133", "PAMK 072156Z AUTO 28009KT 10SM SCT020 BKN024 OVC075 13/09 A2979 RMK AO2 RAE25 SLP089 P0000 T01280094", "PAMO 072203Z AUTO 19007KT 9SM -RA FEW025 BKN032 OVC044 11/08 A2981 RMK AO2 RAB02 P0000", "PAMR 072153Z COR 23004KT 10SM SCT010 OVC021 11/09 A2996 RMK AO2 RAE25 SLP147 CIG VIS LWR NE-S P0001 T01110089", "PAMY 072156Z AUTO 18013KT 10SM OVC015 09/06 A2977 RMK AO2 RAB22E32 SLP080 T00940061 PNO $", "PANC 072153Z 25008KT 7SM OVC026 12/07 A2996 RMK AO2 SLP147 T01170072", "PANI 072156Z AUTO 11005KT 7SM -RA FEW008 BKN018 OVC028 11/09 A2988 RMK AO2 RAE33B50 SLP112 P0000 T01060094 $", "PANN 072153Z AUTO 32008KT 10SM CLR 21/14 A2972 RMK AO2 SLP068 T02110139 TSNO $", "PANV 072156Z AUTO 25007KT 210V290 10SM 13/09 A2979 RMK AO2 SLP150 T01280089 TSNO $", "PANW 072156Z AUTO 21009KT 180V240 10SM FEW022 SCT029 SCT043 11/07 A2992 RMK AO2 RAE22 SLP138 P0000 T01110067", "PAOH 072156Z AUTO 27010KT 10SM CLR 27/09 A2987 RMK AO2 SLP117 T02670089", "PAOM 072153Z 22004KT 10SM CLR 12/07 A2974 RMK AO2 SLP070 T01220072", "PAOR 072153Z VRB03KT 10SM FEW120 BKN200 28/12 A2976 RMK AO2 SLP063 ACSL DSNT S T02780117", "PAOT 072153Z 23009KT 10SM -RA BKN007 OVC011 11/11 A2970 RMK AO2 SLP057 P0002 T01110111", "PAOU 072156Z AUTO 34003KT 10SM BKN029 OVC038 09/07 A2994 RMK AO2 SLP138 T00890067 PNO $", "PAPB 072117Z AUTO 16018KT 2SM -RA BKN004 OVC009 A2968 RMK AO2 P0001 TSNO $", "PAPG 072156Z 10004KT 10SM CLR 21/13 A2989 RMK AO2 SLP124 T02060128", "PAPH 072156Z AUTO 28010KT 10SM FEW040 12/08 A2996 RMK AO2 SLP145 T01220078 PNO $", "PAPM 072156Z AUTO 24007KT 10SM FEW005 OVC035 09/08 A2989 RMK AO2 SLP123 T00890078", "PAPN 072156Z AUTO 30007KT 9SM FEW040 BKN048 11/08 A2994 RMK AO2 SLP142 T01060078 PNO $", "PAPO 072156Z AUTO 31005KT 10SM BKN050 14/09 A2969 RMK AO2 SLP052 T01390089 PNO $", "PAPT 072059Z 17010G16KT 25SM BKN065 16/07 A2978 RMK NO SPECI", "PAQT 072153Z AUTO 32007KT 10SM FEW036 21/12 A2971 RMK AO2 SLP062 T02110117 TSNO", "PARC 072156Z AUTO 10SM -RA FEW046 OVC070 17/12 A2979 RMK AO2 RAB39 SLP107 P0000 T01720117 $", "PARS 072156Z AUTO 19005KT 10SM FEW019 OVC048 12/08 A2982 RMK AO2 SLP100 T01220083 $", "PARY 072156Z AUTO VRB04KT 10SM SCT029 BKN037 OVC120 16/09 A2977 RMK AO2 SLP086 T01610094", "PASC 072153Z 08010KT 10SM FEW025 SCT080 BKN230 17/11 A2971 RMK AO2 SLP062 T01720111", "PASD 072156Z 18009KT 10SM FEW018 SCT023 BKN030 11/08 A2998 RMK AO2 SLP155 T01060078 $", "PASH 072156Z AUTO 27009KT 10SM OVC017 11/10 A2972 RMK AO2 SLP063 T01110100", "PASI 072153Z 30006KT 10SM CLR 19/12 A2989 RMK AO2 SLP120 T01890122", "PASK 072156Z AUTO VRB04KT 10SM BKN017 BKN036 OVC095 14/12 A2974 RMK AO2 SLP070 T01440122 PNO $", "PASL 072056Z AUTO VRB04KT 10SM BKN017 BKN023 OVC028 12/08 A2989 RMK AO2 RAE07 SLP115 P0000 60000 T01170083 56003", "PASM 072156Z AUTO 17009KT 10SM FEW012 OVC049 12/08 A2982 RMK AO2 RAE20 SLP104 P0000 T01170083", "PASN 072202Z AUTO 13011KT 1 1/2SM -RA BR BKN005 OVC010 07/07 A2965 RMK AO2 RAB2159 P0000 T00720067 TSNO", "PASO 072153Z AUTO VRB06KT 10SM SCT043 OVC110 14/09 A2998 RMK AO2 SLP152 T01390094 TSNO", "PASV 072155Z AUTO VRB05KT 10SM -RA OVC008 07/06 A2989 RMK AO2 RAB2055 SLP129 P0002 T00690060", "PASX 072156Z AUTO 22008KT 10SM OVC038 13/07 A2998 RMK AO2 SLP159 T01280067", "PASY 072156Z 19004KT 3/8SM FG VV001 09/09 A2961 RMK AO2A SLP030 T00920089 RVRNO PNO FZRANO $", "PATA 072152Z 23004KT 10SM BKN080 OVC090 18/13 A2977 RMK AO2 SLP082 CB ALQDS T01830133 $", "PATC 072155Z AUTO 21017KT 6SM BR BKN002 07/07 A2972 RMK AO2 SLP064 T00710069", "PATE 072156Z AUTO 23011KT 10SM BKN013 BKN023 OVC050 11/08 A2973 RMK AO2 SLP073 T01110083 PNO $", "PATG 072156Z AUTO 10SM FEW009 OVC049 11/09 A2991 RMK AO2 SLP130 T01110094 $", "PATK 072153Z 18010KT 10SM FEW008 BKN026 OVC033 13/12 A2991 RMK AO2 RAB07E49 SLP130 P0001 T01330117", "PATL 072155Z AUTO 10SM -SHRA BKN017 10/08 A2988 RMK AO2 SHRAB2036 SLP120 P0000 T01000084", "PATO 072153Z AUTO 14008G20KT 9SM FEW009 BKN034 OVC043 13/13 A2997 RMK AO2 SLP148 T01330133 TSNO", "PATQ 072156Z AUTO 21010KT 10SM BKN065 16/13 A2967 RMK AO2 SLP049 P0001 T01610128 TSNO", "PAUN 072156Z AUTO 07003KT 10SM -RA OVC042 12/10 A2980 RMK AO2 SLP093 T01170100 PNO $", "PAVC 072203Z AUTO 23008KT 200V260 10SM BKN003 BKN007 OVC011 08/08 A2998 RMK AO2 CIG 002V006 PNO $", "PAVD 072156Z 27011KT 6SM -RA BR FEW007 BKN015 OVC029 12/11 A3007 RMK AO2 SLP179 VIS E 2 PCPN VRY LGT T01220111 PNO $", "PAVL 072153Z AUTO 18007KT OVC002 13/12 A2966 RMK AO2 SLP043 T01280122 TSNO $", "PAWD 072153Z AUTO 18010KT 10SM OVC033 11/07 A3001 RMK AO2 SLP163 T01060072 TSNO", "PAWG 072156Z 29004KT 10SM CLR 25/12 A2988", "PAWI 072153Z AUTO 02011KT 10SM BKN003 11/08 A2967 RMK AO2 SLP046 T01060083 TSNO $", "PAWM 072156Z AUTO 00000KT 8SM BKN014 BKN021 OVC031 12/09 A2976 RMK AO2 RAB36E50 SLP080 P0000 T01220094", "PAWN 072156Z AUTO 14010KT 10SM BKN014 OVC028 14/12 RMK AO2 RAE10 SLPNO P0000 T01390117 $", "PAWS 072156Z AUTO VRB04KT 10SM FEW017 OVC023 12/08 A2997 RMK AO2 SLP154 T01170078", "PAYA 072153Z AUTO 23008KT 10SM CLR 16/12 A3000 RMK AO2 SLP160 T01610122 TSNO", "PAZK 072156Z AUTO 24008G14KT 10SM CLR 17/11 A2983 RMK AO2 SLP106 T01670106", "PFCL 072156Z AUTO 20009KT 10SM -RA FEW008 BKN014 OVC037 09/09 A2993 RMK AO2 RAB37 SLP128 P0001 T00940094 TSNO", "PFEL 072156Z AUTO 19007KT 10SM SCT010 BKN024 OVC065 12/11 A2976 RMK AO2 SLP077 T01220106", "PFKT 072156Z AUTO 22011KT 10SM FEW009 OVC055 11/08 A2975 RMK AO2 SLP074 T01060083", "PFNO 072156Z AUTO 21008KT 4SM +RA BR BKN013 BKN019 OVC025 13/12 A2973 RMK AO2 RAB06E21B50 SLP148 P0005 T01330117 $", "PFYU 072156Z 05003KT 10SM BKN065 BKN110 22/15 A2975 RMK AO2 SLP081 T02220150", "PGRO 072150Z 08014KT 7SM BKN010 BKN100 25/25 A2986", "PGSN 072154Z 13012G23KT 10SM BKN021 BKN030 BKN038 28/26 A2989 RMK AO2 RAB10E20 SLP143 P0000 T02780261 $", "PGUA 072155Z AUTO 08013G21KT 10SM BKN013 28/24 A2988 RMK AO2 BKN V OVC SLP109 T02760242 TSNO VISNO RWY06R $", "PGUM 072154Z 10012KT 10SM FEW020 28/25 A2988 RMK AO2 SLP110 T02830250", "PGWT 072150Z 07012KT 7SM -RA BR BKN016 OVC100 26/22 RMK FIRST", "PHBK 072151Z AUTO 29010KT 10SM FEW060 29/17 A3006 RMK AO2 SLP182 T02940172", "PHHI 072200Z AUTO 08011KT 10SM FEW006 SCT010 SCT014 BKN023 BKN030 OVC046 23/21 A3012 RMK AO2 CIG 010V023 SLP191 $", "PHJR 072153Z 09011G19KT 10SM SCT037 BKN047 OVC055 29/18 A3008 RMK AO2 SLP193 T02890183", "PHKO 072153Z 20010KT 10SM FEW045 BKN060 28/20 A3004 RMK AO2 SLP173 T02780200 $", "PHLI 072153Z 06014KT 10SM BKN070 30/20 A3012 RMK AO2 SLP195 T03000200", "PHMK 072154Z 05016G25KT 10SM SCT032 SCT055 27/19 A3009 RMK AO2 PK WND 04026/2111 RAB04E19 SLP189 P0000 T02720189", "PHNG 072157Z 08009KT 7SM SCT028 OVC060 29/18 A3007 RMK AO2 PK WND 06028/2059 RAB23E48 SLP176 P0000 T02890183 ", "PHNL 072153Z 05015G27KT 10SM FEW025 SCT040 BKN055 26/20 A3009 RMK AO2 PK WND 07028/2140 SLP187 VCSH NE T02610200", "PHNY 072156Z AUTO 04005KT 10SM -RA BKN022 OVC028 22/19 A3013 RMK AO2 RAB21 SLP182 P0003 T02170189", "PHOG 072154Z 04021G29KT 10SM FEW020 SCT050 BKN065 27/19 A3007 RMK AO2 PK WND 04029/2145 SLP187 T02720194", "PHSF 072155Z AUTO 28005KT 10SM FEW160 FEW210 FEW270 SCT290 BKN340 22/12 A3037 RMK AO2 SLP172 T02150121 $", "PHTO 072153Z 35006KT 10SM FEW029 BKN046 OVC055 26/20 A3008 RMK AO2 SLP186 T02610200", "PKMJ 072159Z 08012KT 15SM FEW015 SCT050 BKN300 30/25 A2983 ", "PKMR 072156Z 08007KT 20SM FEW015 SCT300 31/25 A2980 RMK SLP093 T03050249", "PKWA 072200Z AUTO 09012KT 10SM SCT020 SCT028 SCT040 30/25 A2983 RMK AO2 T02990250 TSNO", "PLCH 072200Z 07007KT 9999 SCT020 32/25 Q1010", "PMDY 072156Z AUTO 10SM CLR 27/23 A3014 RMK AO2 SLP207 T02720228 $", "PPIZ 072156Z AUTO 34013KT 10SM OVC055 12/11 A2968 RMK AO2 SLP054 T01220106", "PTPN 072159Z 17004KT 15SM BKN017 OVC130 27/25 A2980 RMK FIRST ", "PTSA 072153Z VRB03KT 10SM BKN020 BKN130 BKN300 30/25 A2976 RMK FIRST", "PTTP 072150Z 15003KT 15SM BKN018 OVC130 26/25 A2984 RMK SLP105 T02600254", "PTYA 072055Z VRB02KT 12SM FEW016 BKN300 27/26 A2982 RMK SLP098 8/101 T02670259 55002", "PWAK 072155Z AUTO 05013KT 8SM FEW024 30/22 A2998 RMK AO2 SLP158 T03010222", "RCFN 072200Z 32004KT 290V010 9999 FEW040 SCT300 26/23 Q1010 NOSIG RMK A2983", "RCKH 072200Z 04005KT 9999 FEW014 SCT025 28/23 Q1011 NOSIG RMK A2988", "RCMQ 072200Z 18007KT 9999 FEW012 SCT025 27/22 Q1012 NOSIG RMK A2991", "RCNN 072200Z 08002KT 9999 FEW012 SCT030 27/24 Q1012 NOSIG RMK A2989", "RCSS 072200Z 30010KT 9999 FEW025 30/21 Q1009 NOSIG RMK 28009KT/R10 A2982", "RCTP 072200Z 24014KT 9999 FEW020 30/25 Q1009 NOSIG RMK A2982", "RJAA 072200Z 18005KT 150V210 9999 BKN013 26/24 Q1007 NOSIG", "RJAH 072200Z VRB02KT 9999 -SHRA FEW010 BKN020 BKN080 23/23 Q1008", "RJAW 072100Z 13010KT 9999 VCSH FEW010 SCT015 BKN/// 26/24 Q1014 RMK 1CU010 3CU015 A2996 WIND BY EQPT/25", "RJBB 072200Z 19023G33KT 9999 FEW020 SCT060 BKN100 28/24 Q1005 NOSIG", "RJBE 072200Z 29006KT 7000 FEW003 SCT006 BKN070 26/24 Q1007", "RJCC 072200Z 14004KT 5000 BR FEW002 SCT003 BKN/// 19/18 Q1007", "RJCH 072200Z 01003KT 330V050 9999 FEW012 SCT040 BKN150 21/19 Q1007", "RJCK 072200Z VRB02KT 9999 FEW005 BKN/// 19/17 Q1007", "RJCO 072200Z 14008KT 9999 FEW008 SCT150 BKN210 21/20 Q1009", "RJDB 072200Z AUTO 21011KT 5000 BR FEW004 OVC013 26/25 Q1005", "RJDC 072200Z 08009KT 9999 FEW015 SCT030 BKN060 25/24 Q1005", "RJEC 072200Z VRB02KT 9999 FEW020 BKN/// 21/19 Q1008", "RJFF 072200Z 19005KT 9999 -SHRA FEW003 BKN025 BKN030 28/25 Q1005 NOSIG RMK 1ST003 5CU025 6CU030 A2969", "RJFK 072200Z 22009KT 9999 FEW007 SCT020 BKN050 27/24 Q1010", "RJFM 072200Z AUTO 18003KT 120V260 9999 FEW038 31/23 Q1008", "RJFO 072200Z 35004KT 9999 FEW020 SCT050 BKN/// 25/24 Q1006", "RJFR 072200Z 22012KT 9999 -SHRA FEW010 SCT020 BKN030 28/25 Q1005", "RJFS 072200Z 20017KT 9999 VCSH FEW025 SCT030 BKN045 27/26 Q1005", "RJFT 072200Z 21011KT 7000 -SHRA FEW010 BKN015 26/24 Q1008", "RJFU 072200Z 22026KT 8000 FEW015 SCT025 BKN050 29/25 Q1006", "RJGG 072200Z 09005KT 9999 VCSH FEW020 BKN170 BKN/// 27/25 Q1007 NOSIG", "RJKA 072200Z AUTO 22015KT 9999 BKN010 28/27 Q1010", "RJKI 072200Z AUTO 21010KT 9999 SCT009 SCT013 BKN019 28/26 Q1011", "RJNK 072200Z 21010KT 9999 -SHRA SCT030 BKN050 OVC100 26/24 Q1004", "RJNT 072200Z 20004KT 150V240 8000 -SHRA FEW003 SCT008 BKN060 23/22 Q1004", "RJOA 072200Z 23003KT 190V280 7000 -SHRA BCFG FEW000 SCT008 BKN025 24/23 Q1007", "RJOB 072200Z VRB01KT 6000 BCFG FEW000 SCT035 BKN045 24/23 Q1007", "RJOC 072200Z 20004KT 2000 +TSRA BR FEW002 SCT008 BKN020 FEW020CB 25/24 Q1004", "RJOF 072152Z 09004KT 050V120 9999 -SHRA FEW001 BKN030 BKN060 26/23 Q1005 RMK 1ST001 5CU030 7SC060 A2970", "RJOH 072200Z 24004KT 220V280 3000 R25/1000VP1800D SHRA BR FEW008 BKN015 BKN020 BKN030CB 25/25 Q1004", "RJOI 072156Z 01003KT 9000 BR SCT015 BKN020 OVC040 26/23 A2971 RMK AO2 SLP060 T02610233", "RJOK 072200Z 14006KT 5000 BR FEW003 SCT025 BKN040 26/26 Q1008", "RJOM 072200Z 18011KT 9999 FEW020 SCT060 BKN080 29/24 Q1005", "RJOO 072200Z 24004KT 190V300 9999 FEW008 SCT060 BKN100 28/24 Q1007", "RJOR 072200Z 19005KT 160V240 9999 -SHRA FEW015 SCT025 BKN040 27/23 Q1004", "RJOS 072200Z 17017KT 9999 FEW030 SCT100 BKN200 27/24 Q1005", "RJOT 072200Z 02003KT 330V060 9999 PRFG FEW001 SCT080 BKN/// 25/24 Q1007", "RJSA 072200Z 08002KT CAVOK 22/18 Q1007", "RJSF 072200Z 09003KT 040V160 9999 -RA FEW015 SCT080 BKN110 22/20 Q1009", "RJSK 072200Z 12006KT 090V150 9999 -RA FEW060 SCT100 BKN120 22/20 Q1006", "RJSM 072200Z 32004KT 9999 FEW030 BKN160 BKN230 21/19 Q1007", "RJSN 072200Z 07005KT 5000 SHRA BR FEW010 SCT030 BKN050 22/22 Q1006", "RJSS 072200Z 33005KT 9999 -RA FEW010 SCT080 BKN130 24/23 Q1007", "RJSY 072200Z 08006KT 9999 -RA FEW060 SCT100 BKN130 23/21 Q1007", "RJTE 072144Z 22015KT 8000 SCT005 BKN/// 26/25 Q1009 RMK 4ST005 A2980 PEAK GUST 23KT", "RJTL 072107Z 20005KT 150V280 9999 -SHRA FEW004 BKN007 BKN100 25/24 Q1007 RMK 2ST004 6ST007 7AC100 A2977", "RJTT 072200Z 20015KT 9999 -SHRA FEW005 SCT020 BKN100 27/25 Q1007 NOSIG RMK 1ST005 3CU020 7AC100 A2975", "RJTY 072055Z AUTO 00000KT 10SM FEW047 SCT060 23/21 A2980 RMK AO2 RAB20E21 SLP091 P0000 60002 T02330212 53004 $", "RKJB 072200Z 20005KT 9999 BKN010 OVC020 25/23 Q1003 NOSIG", "RKJK 072155Z AUTO 21009KT 7SM OVC003 24/23 A2958 RMK AO2 RAB2059E09DZB09E11RAB11E14 SLP021 P0001 T02350233 $", "RKNY 072200Z AUTO 32004KT 9999 ///010/// 21/19 Q1004", "RKPC 072200Z 21014G28KT 170V260 2000 R07/P2000D R25/1900N +TSRA BR SCT010CB BKN025 OVC080 25/25 Q1003 WS R07 R25 NOSIG", "RKPK 072200Z 32001KT 6000 SCT005 BKN010 OVC030 22/20 Q1004", "RKSG 072055Z 10005KT 10SM OVC013 21/21 A2958 RMK AO2A SLP019 T02140212 53005 $", "RKSI 072200Z 10005KT 060V140 9999 BKN008 23/21 Q1002 NOSIG", "RKSM 072100Z 21005KT 9999 BKN015 BKN030 22/20 A2961", "RKSO 072155Z 10006KT 10SM OVC012 26/23 A2963 RMK AO2A SLPNO ALSTG ESTMD RVRNO PWINO FZRANO VISNO RWY09 CHINO RWY09 $", "RKSS 072200Z 08008KT 9999 SCT015 BKN025 23/20 Q1002 NOSIG", "RKTN 072200Z 34003KT 4800 BR BKN010 OVC020 21/20 Q1004", "RKTU 072200Z 02002KT 9999 FEW005 BKN015 BKN030 22/21 Q1003", "ROAH 072200Z 19014KT 9999 VCSH SCT020 29/27 Q1011 RMK 4CU020 A2986", "RODN 072155Z 20005KT 10SM FEW014 29/25 A2983 RMK A02A SLP106 T02910197 FZRANO TSNO $", "ROIG 072200Z AUTO 20015KT 9999 FEW013 SCT023 29/27 Q1010", "ROMD 072200Z AUTO 20008KT 9999 NCD 29/26 Q1013", "ROMY 072200Z AUTO 20014KT 9999 FEW015 28/26 Q1010", "RORK 072200Z AUTO 21010KT 9999 FEW013 29/26 Q1013", "RORS 072200Z AUTO 19012KT 9999 FEW017 29/26 Q1010", "RORT 072200Z AUTO 19017KT 9999 FEW015 SCT017 BKN022 29/27 Q1010", "RORY 072200Z AUTO 20008KT 9999 NCD 29/26 Q1011", "ROTM 072156Z 19014G20KT 9999 FEW013 SCT200 28/27 A2988 RMK SLP102 T02830267", "ROYN 072200Z AUTO 19013KT 9999 SCT013 BKN017 BKN024 29/27 Q1009", "RPLB 072200Z 05005KT 9999 FEW020 26/23 Q1012 NOSIG RMK A2988", "RPLC 072200Z 29002KT 9999 FEW020 SCT300 26/23 Q1012 NOSIG RMK A2988", "RPLI 072200Z 10004KT 9999 SCT017 26/25 Q1011 NOSIG RMK A2985", "RPLL 072200Z VRB03KT 9000 FEW025 28/26 Q1011 NOSIG RMK A2985", "RPMD 072200Z 33003KT 300V010 9999 VCSH FEW015 BKN090 BKN260 25/25 Q1011 RMK A2985 VCSH E/SE", "RPMZ 072200Z VRB01KT 9999 FEW016CB SCT300 24/24 Q1011 RMK A2985 CB W", "RPVD 072100Z 27002KT 9999 SCT015 25/24 Q1010 RMK A2983", "RPVM 072200Z VRB01KT 9999 FEW020 BKN250 27/24 Q1011 NOSIG RMK A2985", "RPVP 072200Z 27006KT 9999 FEW019 SCT240 25/24 Q1011 RMK A2985", "SAAP 072124Z 09005KT 8000 RA SCT020 BKN050 14/13 Q1012", "SAAR 072200Z 13010KT CAVOK 15/07 Q1013 RMK PP000", "SABE 072200Z 11015KT 9999 SCT020 BKN200 12/08 Q1017 NOSIG RMK PP000", "SACO 072200Z 19007KT 9999 OVC024 11/05 Q1014 NOSIG RMK PP000", "SADF 072200Z 13011KT CAVOK 13/08 Q1016 RMK PP000", "SAEZ 072200Z 10008KT CAVOK 11/07 Q1016 NOSIG RMK PP000", "SAME 072200Z 05002KT CAVOK 11/M01 Q1011", "SANT 072200Z 15004KT 3500 -DZ BR BKN002 OVC004 14/14 Q1012 RMK PP999", "SAOC 072200Z 02008KT SCT020 BKN100 11//04 Q1013", "SARC 072100Z 18004KT 7000 FEW040TCU OVC100 22/20 Q1006", "SARE 072200Z VRB02KT 9999 SCT047 BKN110 22/18 Q1006 RMK PP///", "SARF 072200Z 03005KT 9999 BKN025 SCT100 26/20 Q1005", "SARI 072200Z 06003KT 010V090 CAVOK 22/17 Q1010 RMK PP000", "SARL 072133Z 14013KT 6000 RA OVC005 19/17 Q1009", "SARP 072200Z 11003KT 9999 SCT040 BKN100 20/19 Q1008", "SASA 072200Z 06007KT 9999 SCT029 SCT038 BKN050 18/13 Q1012 RMK PP000", "SASJ 072200Z 14006KT 9999 SCT020 OVC120 19/15 Q1011 RMK PP000", "SAVC 072200Z 30005KT CAVOK 02/M02 Q1018 RMK PP000", "SAWE 072200Z 22004KT CAVOK M04/M05 Q1013 RMK PP000", "SAWG 072100Z 25008KT 9999 VCSH FEW012 SCT025 M00/M03 Q1015", "SAWH 072200Z 25016KT 9999 SCT035 02/M03 Q1014 RMK PP000", "SAZM 072200Z 00000KT CAVOK 06/03 Q1019 RMK PP///", "SAZN 072200Z 09004KT CAVOK 09/00 Q1014", "SAZS 072200Z 19001KT 9999 -RA SCT015 BKN028 BKN050 02/00 Q1012 RMK PP///", "SBAF 072100Z 26005KT CAVOK 19/11 Q1015", "SBAN 072100Z 08002KT CAVOK 23/06 Q1020", "SBAR 072200Z 10011KT 9999 FEW020 SCT048 OVC080 26/23 Q1015", "SBAU 072100Z 06008KT CAVOK 24/08 Q1014", "SBAX 072100Z 00000KT CAVOK 21/10 Q1018", "SBBE 072200Z 07004KT 9999 FEW040 27/23 Q1011", "SBBG 072200Z AUTO 10012KT 9999 -RA OVC013 ///// Q//// RERA", "SBBH 072100Z 05002KT CAVOK 20/05 Q1019", "SBBI 072100Z 36005KT CAVOK 18/11 Q1017", "SBBQ 072100Z 00000KT CAVOK 15/04 Q1022", "SBBR 072200Z 16004KT CAVOK 22/04 Q1019", "SBBU 072100Z 04002KT CAVOK 25/12 Q1016", "SBBV 072200Z 05006KT 9999 FEW040 30/23 Q1010", "SBBW 072100Z 00000KT CAVOK 28/15 Q1014", "SBCA 072100Z 03015KT 9999 SCT040 BKN100 21/13 Q1014", "SBCB 072200Z 12006KT CAVOK 19/18 Q1016", "SBCF 072200Z 03006KT CAVOK 20/06 Q1019", "SBCG 072200Z 36005KT CAVOK 25/13 Q1013", "SBCH 072100Z 01010KT 9999 SCT030 SCT100 23/16 Q1011", "SBCJ 072130Z 00000KT CAVOK 24/19 Q1016", "SBCO 072100Z 10009KT 3000 -RA FEW005 BKN008 OVC020 17/17 Q1014 RERA", "SBCP 072200Z 34008KT CAVOK 20/16 Q1016", "SBCR 072100Z 05007KT CAVOK 29/20 Q1008", "SBCT 072200Z 02004KT 9000 NSC 18/11 Q1017", "SBCX 072100Z 12002KT 1800 0800SE -DZ BCFG OVC001 15/15 Q1015", "SBCY 072200Z 02004KT CAVOK 30/14 Q1011", "SBCZ 072200Z 00000KT 9999 FEW030 30/24 Q1009", "SBDN 072100Z 05005KT CAVOK 23/12 Q1014", "SBEG 072200Z 11009KT 9999 FEW025 30/22 Q1010", "SBES 072100Z 05002KT CAVOK 18/14 Q1015", "SBFI 072200Z 04004KT 9999 FEW030 BKN070 22/17 Q1010", "SBFL 072200Z 14006KT 9999 BKN025 OVC100 20/19 Q1014", "SBFN 072200Z AUTO 11010KT 090V150 9999 FEW021 26/23 Q1014", "SBFS 072100Z 02004KT CAVOK 22/18 Q1016", "SBFZ 072200Z 10006KT CAVOK 27/23 Q1012", "SBGL 072200Z 35006KT CAVOK 21/14 Q1015", "SBGO 072200Z 00000KT CAVOK 24/10 Q1017", "SBGR 072200Z 00000KT CAVOK 16/10 Q1018", "SBGW 072100Z 36004KT CAVOK 17/09 Q1017", "SBHT 072100Z 12003KT 9999 FEW030 31/23 Q1010", "SBIH 072100Z 03004KT 9999 FEW020 33/21 Q1009", "SBIL 072100Z 14002KT 9999 FEW020 BKN065 25/23 Q1017", "SBIP 072100Z AUTO VRB01KT CAVOK 20/09 Q1017", "SBJE 072100Z 04007KT CAVOK 30/22 Q1011", "SBJP 072200Z 18005KT 9999 FEW012 SCT070 23/23 Q1015", "SBJR 072100Z 00000KT CAVOK 17/15 Q1015", "SBJU 072100Z 18005KT 9999 SCT020 BKN070 30/20 Q1016", "SBJV 072100Z 14001KT CAVOK 19/18 Q1013", "SBKG 072100Z 10006KT 9999 BKN015 BKN070 22/21 Q1016", "SBKP 072200Z 00000KT CAVOK 21/07 Q1017", "SBLB 072100Z AUTO 01019KT 9999 NCD 24/18 Q1016 W24/S4", "SBLE 072100Z AUTO VRB01KT CAVOK 20/18 Q1018", "SBLO 072200Z 08004KT CAVOK 21/13 Q1015", "SBLS 072100Z 07003KT CAVOK 19/06 Q1019", "SBMA 072200Z 07003KT CAVOK 30/21 Q1011", "SBME 072100Z 08002KT CAVOK 21/14 Q1015", "SBMG 072100Z 03010KT CAVOK 23/13 Q1013", "SBMK 072100Z 00000KT CAVOK 24/08 Q1017", "SBMN 072200Z 08004KT 9999 FEW025 29/22 Q1010", "SBMO 072200Z 12013KT 2200 RA BR BKN004 OVC009 23/23 Q1015", "SBMQ 072200Z 06011KT 9999 FEW025 29/25 Q1011", "SBMS 072100Z 05008KT 9999 FEW030 29/21 Q1012", "SBMT 072100Z 31003KT CAVOK 20/08 Q1017", "SBMY 072100Z AUTO 09006KT 060V120 CAVOK 32/23 Q1009", "SBNF 072200Z 12005KT CAVOK 20/18 Q1014", "SBNT 072200Z 20004KT 170V230 CAVOK 24/24 Q1013", "SBPA 072200Z 11011KT 8000 -RA BKN006 BKN022 BKN072 17/17 Q1013 RERA", "SBPB 072145Z /////KT 9999 FEW016 28/23 Q1011", "SBPF 072100Z 15006KT 2000 -RA BR FEW005 BKN040 OVC100 16/16 Q1013", "SBPJ 072200Z VRB01KT CAVOK 26/19 Q1013", "SBPK 072200Z 13009KT 9999 -RA SCT025 BKN050 OVC100 15/13 Q1014", "SBPL 072200Z 17008KT 9999 BKN030 27/17 Q1016", "SBPP 072200Z 01004KT CAVOK 22/15 Q1013", "SBPS 072200Z 08006KT 9999 FEW025 23/19 Q1017", "SBPV 072200Z 05005KT 9999 FEW035 FEW037TCU 32/23 Q1009", "SBRB 072200Z 36004KT CAVOK 31/22 Q1009", "SBRF 072200Z 19001KT 9999 SCT010 BKN050 24/24 Q1014", "SBRJ 072200Z 19007KT CAVOK 22/14 Q1015", "SBRP 072200Z 00000KT CAVOK 21/10 Q1016", "SBSC 072100Z 03001KT CAVOK 19/13 Q1014", "SBSG 072200Z 18004KT 9999 FEW030 BKN080 24/23 Q1014", "SBSJ 072200Z 11002KT CAVOK 18/10 Q1018", "SBSL 072200Z 05009KT 9999 SCT020 29/24 Q1012", "SBSM 072100Z 10009KT 3000 -RA BKN002 OVC010 17/16 Q1011", "SBSN 072200Z 09002KT CAVOK 28/25 Q1010", "SBSP 072200Z 32005KT 270V350 CAVOK 21/07 Q1019", "SBSR 072100Z 00000KT CAVOK 25/06 Q1016", "SBST 072100Z 00000KT 7000 FEW042 22/16 Q1013", "SBSV 072200Z 17010KT 5000 -RA FEW007 BKN017 FEW023TCU BKN060 24/22 Q1017", "SBTA 072100Z VRB01KT 9999 FEW030 17/10 Q1017", "SBTE 072200Z 00000KT CAVOK 28/23 Q1011", "SBTF 072200Z 09009KT 9999 -TSRA SCT010 FEW030CB BKN080 29/26 Q1009", "SBTT 072200Z 12002KT 9999 VCSH SCT020 FEW022TCU SCT070 29/25 Q1009", "SBTU 072100Z AUTO 28005KT 250V310 //// // NCD 30/21 Q1012", "SBUL 072100Z 34006KT CAVOK 23/06 Q1019", "SBUR 072100Z 00000KT CAVOK 24/06 Q1018", "SBUY 072100Z 16002KT 9999 SCT025 BKN100 26/25 Q1008", "SBVH 072100Z 36009KT CAVOK 29/17 Q1014", "SBVT 072200Z 03009KT CAVOK 22/19 Q1017", "SBYS 072100Z 00000KT CAVOK 20/11 Q1017", "SCAR 072200Z 22011KT 9999 FEW020 OVC033 19/14 Q1014", "SCAT 072200Z 22010KT CAVOK 14/08 Q1016", "SCBA 072202Z AUTO 14004KT 100V170 0600 FZFG VV001 M02/M03 Q1014", "SCCF 072200Z 27015KT CAVOK 18/M17 Q1025", "SCCH 072200Z 03009KT 2000 -RA SCT010 OVC015 09/08 Q1014", "SCCI 072200Z 25006KT CAVOK M01/M04 Q1015 NOSIG", "SCDA 072200Z 22009KT 9999 FEW034 18/12 Q1014", "SCEL 072200Z 16008KT 9999 SCT130 BKN180 11/07 Q1017 NOSIG", "SCFA 072200Z 21014KT 9999 BKN021 17/11 Q1015 NOSIG", "SCFT 072200Z AUTO VRB02KT 9999 BKN180/// 01/M01 Q1014", "SCGE 072200Z 02006KT 2000 -RA BKN008 OVC025 08/07 Q1015", "SCIC 072200Z 34006KT 2500 BR BKN028 OVC100 11/10 Q1016", "SCIE 072200Z 07010KT 9999 SCT020 OVC025 11/09 Q1013", "SCIP 072200Z 25006KT 210V280 9999 SCT030 19/13 Q1024 NOSIG", "SCJO 072200Z 07005KT 040V100 8000 -RA SCT035 OVC050 07/05 Q1012", "SCMK 072200Z 15005KT CAVOK 06/04 Q1013", "SCON 072200Z AUTO 17003KT 9999 FEW110/// 05/05 Q1013", "SCPD 072200Z 14007KT 8000 FEW160 10/07 Q1017", "SCPQ 072200Z AUTO 16003KT CAVOK 06/05 Q1011", "SCQP 072200Z 12004KT 9999 -SHRA BKN027 OVC038 06/06 Q1013", "SCRD 072200Z 35010KT 9999 FEW006 BKN025 11/08 Q1017", "SCRG 072200Z 21001KT 3500 HZ SCT016 BKN070 09/09 Q1016", "SCRM 072200Z 13003KT CAVOK M10/M13 Q1002 NOSIG", "SCSE 072200Z 30005KT 9999 FEW030 13/08 Q1018", "SCSN 072200Z 35006KT 310V030 9999 FEW020 SCT035 13/11 Q1017", "SCTB 072200Z 20004KT 7000 OVC110 10/07 Q1017", "SCTE 072200Z 06003KT 9999 OVC070 07/07 Q1012 NOSIG", "SCTN 072200Z AUTO 00000KT //// R/////// // NCD 06/06 Q1012", "SCVD 072200Z 06005KT 010V100 5000 -RA BKN020 BKN025 OVC040 06/06 Q1012", "SCVM 072200Z 36007KT 9999 BKN025 13/07 Q1018", "SEAM 072200Z 00000KT 9999 SCT020 21/14 Q1025", "SECA 072200Z 27014KT 9999 BKN040 25/16 Q1014 RMK A2997", "SECO 072100Z 14004KT 9999 BKN020 30/24 Q1009 RMK A2981", "SECU 072200Z 05003KT 9999 SCT040 SCT100 18/12 Q1023", "SEGS 072200Z 16012KT 9999 SCT020 SCT030 29/21 Q1011 RMK A2985", "SEGU 072200Z 17008KT 9999 VCSH FEW010 SCT100 29/24 Q1009 NOSIG RMK A2979", "SEJD 072100Z 08003KT 9999 SCT023 29/23 Q1010 RMK A2985", "SELT 072200Z 17012KT 9999 BKN030 BKN080 15/09 Q1027", "SEMC 072200Z 19008KT 9999 SCT030 SCT100 24/20 Q1014 RMK A2994", "SEMT 072200Z 36005KT 8000 -RA BKN023 OVC100 25/24 Q1009 RMK A2980", "SENL 072200Z 11009KT 9999 BKN023 SCT300 28/23 Q1010 RMK A2984", "SEQM 072200Z 01012KT 9999 SCT030 19/12 Q1023 NOSIG RMK A3023", "SERB 072100Z 09012KT 9999 BKN040 20/11 Q1026", "SERO 072200Z 00000KT 8000 VCSH FEW010 OVC020 24/24 Q1010", "SESA 072200Z 21007KT 9999 BKN040 SCT100 27/22 Q1010 RMK A2984", "SESM 072200Z 00000KT 9999 SCT030 24/20 Q1013 RMK A2993", "SEST 072200Z 13016KT 9999 FEW023 BKN080 28/23 Q1008 RMK A2979", "SETN 072200Z VRB02KT 9999 SCT026 SCT100 BKN300 28/25 Q1010 RMK A2983", "SETU 072100Z 03005KT 9999 BKN020 15/11 Q1030", "SGAS 072200Z 06004KT 8000 FEW033 BKN070 25/18 Q1007", "SGCO 072100Z 08006KT 9999 FEW040 BKN070 28/19 Q1005", "SGEN 072100Z 08008KT 5000 RA BKN020 OVC070 19/18 Q1008", "SGES 072200Z 03006KT 9999 FEW025 BKN070 22/16 Q1009", "SGGR 072100Z 09004KT 9999 OVC020 23/16 Q1009", "SGME 072100Z 03010KT CAVOK 31/19 Q1003", "SGPC 072100Z 02006KT CAVOK 29/18 Q1005", "SGPI 072100Z 09002KT 9999 BKN027 25/19 Q1004", "SGPJ 072100Z 36012KT CAVOK 25/15 Q1012", "SGSJ 072100Z 07004KT 9999 OVC020 24/14 Q1010", "SGSP 072100Z 00000KT CAVOK 26/20 Q1004", "SKAR 072100Z 00000KT 9999 VCSH FEW015 BKN023 21/20 Q1016 RMK VCSH/N/NE", "SKBG 072100Z 32006KT 9999 SCT012 25/21 Q1013", "SKBO 072100Z 23010KT 9999 VCSH SCT018 SCT070 16/14 Q1025 NOSIG RMK VCSH/NE/S", "SKBQ 072100Z 05008KT 350V070 9999 VCSH FEW015CB 30/26 Q1008 NOSIG RMK CB VCSH/SW", "SKCC 072100Z VRB06KT 9999 SCT023 33/22 Q1010", "SKCG 072100Z 23005KT 200V270 9999 FEW017 28/25 Q1009", "SKCL 072100Z 03007KT 350V070 9999 SCT020TCU SCT100 29/19 Q1013 NOSIG RMK TCUSE/NW", "SKEJ 072100Z 04003KT 9999 FEW017 31/22 Q1007", "SKIB 072100Z 10005KT 9999 BKN010 BKN080 23/21 Q1018", "SKIP 072100Z 00000KT 9999 BKN018 14/10 Q1027 RERA", "SKLC 072100Z 23005KT 9999 SCT020 33/24 Q1008", "SKLT 072100Z VRB02KT 9999 SCT020 30/25 Q1008", "SKMD 072100Z VRB02KT 9999 VCSH SCT035TCU SCT080 27/17 Q1018 RMK TCUVCSH//E/SE", "SKMR 072100Z 36004KT 310V050 9999 FEW017 31/26 Q1008", "SKMZ 072100Z 00000KT 7000 VCFG BKN015 16/16 Q1025", "SKNV 072100Z 12005KT 9000 -DZ FEW030 OVC100 24/21 Q1011", "SKPC 072100Z 22005KT 9999 FEW015 25/24 Q1008", "SKPE 072100Z 13007KT 8000 -RA BKN010 SCT080 20/18 Q1017", "SKPS 072100Z VRB04KT 9999 VCSH BKN020 22/15 Q1019 RMK VCSH/S", "SKPV 072100Z 07010KT 9999 SCT017 26/24 Q1010 REDZ", "SKRG 072100Z 06005KT 010V180 9999 VCSH SCT018CB 22/14 Q1023 TEMPO FM2200 5000 RA SCT015CB RMK CB VCSH/SE/S", "SKRH 072100Z 04011KT 010V080 9999 FEW018 30/26 Q1008", "SKSM 072100Z 33007KT 9999 FEW017 BKN100 32/26 Q1009", "SKSP 072100Z 08013KT 050V110 9999 SCT016 29/26 Q1009 RMK VCSH/S", "SKUC 072100Z 08004KT 9999 SCT023 31/24 Q1010", "SKUI 072100Z 25005KT 9999 OVC015TCU 27/25 Q1008 RMK TCUS/SW", "SKVP 072100Z 110V200 9999 VCSH FEW020TCU SCT070 33/24 Q1010 RMK TCU VCSH/NE/E", "SKVV 072100Z 21008KT 8000 VCSH SCT015 BKN080 26/23 Q1012 REDZ RMK VCSH/S/SW", "SLAL 072200Z 01003KT 9999 NSC 18/M06 Q1023", "SLCA 072200Z 00000KT 9999 BKN036 27/19 Q1009", "SLCB 072200Z 22009KT 200V280 9999 NSC 23/M01 Q1017", "SLCO 072200Z 35005KT 9999 FEW035 SCT200 32/24 Q1008", "SLCP 072200Z 36006KT 9999 FEW020 26/22 Q1013", "SLET 072200Z 31018G30KT 9999 FEW008 BKN020 BKN070 25/21 Q1007", "SLJO 072200Z 32004KT 9999 FEW017 31/21 Q1011", "SLLP 072200Z 30008KT 9999 NSC 15/M14 Q1035", "SLMG 072200Z 00000KT 9999 NSC 32/22 Q1010", "SLPO 072200Z 24010KT 9999 NSC 14/M03 Q1036", "SLPS 072200Z 00000KT 9999 NSC 28/22 Q1009", "SLRI 072200Z 00000KT 9999 NSC 32/23 Q1009", "SLSA 072200Z 34007KT 9999 FEW020 31/20 Q1008", "SLSV 072200Z 36005KT 9999 SCT017 27/18 Q1009", "SLTJ 072200Z 16012KT 9999 NSC 20/12 Q1012", "SLTR 072100Z 35008KT 9999 FEW025 BKN080 32/21 Q1008", "SLVR 072200Z 34015KT 7000 SCT025 BKN070 26/22 Q1007", "SMJP 072100Z 06002KT 9999 FEW010 FEW015CB SCT020 26/24 Q1010 NOSIG", "SMZO 072100Z 03007KT 9999 FEW012CB SCT015 30/23 Q1010 NOSIG", "SOCA 072200Z AUTO 09006KT 9999 FEW032 27/24 Q1011 NOSIG", "SPCL 072200Z 04006KT 9999 SCT025 31/23 Q1008 RMK TX34.4 BIRD HAZARD RWY 02/20 PP000", "SPEO 072100Z 19017KT 9999 FEW015 24/18 Q1012 RMK PP000", "SPHI 072200Z 19012KT 9999 BKN040 24/19 Q1012 RMK TX 25.8 BIRD HAZARD RWY 19/01 PP000", "SPHO 072200Z 09002KT CAVOK 25/M04 Q1022 RMK TX25.7 BIRD HAZARD RWY 02/20 PP000", "SPJC 072200Z 16012KT 9999 OVC045 21/16 Q1013 NOSIG RMK BIRD HAZARD RWY 16 PP000", "SPJE 072100Z 33005KT 9999 VCSH SCT040 SCT090 32/21 Q1010 RMK TX34.0 BIRD HAZARD RWY 16/34 PP000", "SPJJ 072200Z VRB02KT CAVOK 23/// Q1028 RMK TX//./ PP000", "SPJL 072200Z /////KT CAVOK 15/M07 Q1032 RMK WIND RWY12 05008KT/TX21.5 PP000", "SPJR 072200Z 10005KT 040V140 9999 SCT027 19/08 Q1024 RMK TX24.7 PP000", "SPLO 072100Z 19008KT 9999 OVC025 21/17 Q1014 RMK TX22.8 PP000", "SPME 072200Z 26004KT 9999 BKN013 28/21 Q1010 RMK BIRD HAZARD RWY 32/14 PP000", "SPMS 072100Z 03005KT 9999 SCT015 33/24 Q1008 RMK BIRD HAZARD RWY 09/27 PP000", "SPNC 072200Z 05011KT 9999 FEW040 25/16 Q1017 RMK TX27.8 PP000", "SPPY 072100Z 04006KT 9999 FEW025 SCT070 19/11 Q1024 RMK TX22.2 PP000", "SPQT 072200Z VRB02KT 9999 SCT020 28/25 Q1008 NOSIG RMK TX33.1 PP000", "SPQU 072200Z VRB01KT CAVOK 17/00 Q1025 NOSIG RMK TX21.4 PP000", "SPRU 072200Z 16009KT 7000 BCFG FEW015 BKN040 23/20 Q1012 RMK TX24.7 PP000", "SPSO 072200Z 21014KT 9999 BKN038 22/14 Q1013 RMK TX23.9 BIRD HAZARD RWY 22/04 PP000", "SPST 072200Z 06008KT 9999 FEW020 33/22 Q1007 RMK TX35.0 PP000", "SPTN 072200Z 21009KT 9999 BKN030 16/12 Q1015 RMK TX20.0 PP000", "SPTU 072200Z 31003KT 9999 FEW025 BKN100 25/22 Q1007 RMK TX33.5 BIRD HAZARD RWY 01/19 PP100", "SPUR 072200Z 20008KT 9999 OVC040 26/19 Q1011 RMK BIRD HAZARD RWY 19/01 TX.27.6 PP000", "SPYL 072200Z 22003KT 9999 OVC040 26/19 Q1011 RMK TX 28.8 BIRD HAZARD RWY 17/35 PP000", "SPZO 072200Z 28010KT 9999 NSC 22/M05 Q1026 NOSIG RMK TX24.9 BIRD HAZARD RWY 10/28 PP000", "SUAA 072200Z 11008KT 9999 FEW026 SCT200 10/06 Q1017", "SUCA 072200Z 13011KT CAVOK 12/09 Q1016", "SULS 072200Z 11004KT CAVOK 09/06 Q1018", "SUMU 072200Z 12011KT 9999 FEW023 11/08 Q1018 NOSIG", "SVBC 072203Z AUTO 02006KT NCD 29/22 Q1011", "SVBI 072203Z AUTO NIL", "SVBM 072203Z AUTO 10010KT NCD 30/14 Q1012", "SVBS 072203Z AUTO 28004KT NCD 33/18 Q1012", "SVCB 072203Z AUTO 11001KT NCD 26/24 Q1009", "SVCS 072203Z AUTO 10007KT NCD 27/20 Q1015", "SVFM 072203Z AUTO NIL", "SVGD 072203Z AUTO 05005KT NCD 31/23 Q1011", "SVGU 072203Z AUTO 08006KT NCD 29/22 Q1011", "SVJM 072203Z AUTO 35004KT NCD 30/19 Q1010", "SVLO 072203Z AUTO NIL", "SVMC 072203Z AUTO 03010KT NCD 33/21 Q1008", "SVMG 072203Z AUTO 08014KT NCD 31/24 Q1011", "SVMI 072203Z AUTO 07008KT NCD 28/22 Q1012", "SVMT 072203Z AUTO 05006KT NCD 29/28 Q1011", "SVPA 072203Z AUTO NIL", "SVPR 072203Z AUTO 13009KT NCD 26/22 Q1013", "SVSA 072203Z AUTO NIL", "SVSR 072203Z AUTO NIL", "SVVA 072203Z AUTO 09003KT NCD 35/21 Q1011", "SVVL 072203Z AUTO ///01KT NCD ///// Q////", "SYCJ 072200Z 04010KT 9999 FEW017CB 28/24 Q1011 NOSIG RMK CB SE-WSW", "SYEC 072100Z 08012KT 9999 SCT024 30/24 Q1011 NOSIG", "SYLT 072100Z 09012KT 9999 FEW012CB SCT014 32/23 Q//// NOSIG RMK CB E,SE & S", "SYMB 072100Z 22006KT 9999 FEW020CB BKN021 28/25 Q//// NOSIG RMK CB-N", "TAPA 072200Z 07011KT 030V110 9999 SCT018 29/24 Q1014 NOSIG", "TBPB 072200Z 13008KT 9999 FEW016 27/25 Q1013 NOSIG", "TDPD 072200Z 13004KT 9999 FEW015 28/26 Q1014", "TFFF 072200Z AUTO 10010KT 9999 FEW017/// BKN050/// ///TCU 29/25 Q1013 TEMPO 2000 -TSRA SCT010 SCT013CB", "TFFJ 072200Z AUTO 04019KT //// // BKN023 30/25 Q1014", "TFFR 072200Z AUTO 05005KT 010V090 9999 FEW017 27/25 Q1013 TEMPO 2000 -TSRA SCT010 SCT013CB", "TGPY 072100Z 10014KT 9999 FEW015CB SCT035 30/26 Q1011 NOSIG RMK CB-S/VCSH-N/NE", "TISX 072153Z 07013KT 10SM SCT035 29/22 A2997 RMK AO2 WSHFT 2103 SLP146 T02940222", "TJBQ 072150Z 07017G22KT 10SM SCT021 29/24 A2999", "TJIG 072145Z 08013G19KT 6SM HZ SCT030 SCT080 30/26 A2997", "TJNR 072153Z AUTO 07006KT 3SM -RA SCT038 BKN048 OVC075 28/25 A2999 RMK AO2 RAB26 SLP156 P0000 T02780250", "TJPS 072155Z AUTO 12015KT 10SM FEW055 SCT065 30/24 A2994 RMK AO2 TSNO", "TJSJ 072156Z 07014KT 9SM SCT028 29/24 A2999 RMK AO2 SLP153 HZ ALQDS T02940244", "TKPK 072200Z 05014KT 9999 FEW018 29/24 Q1014", "TKPN 072200Z 08017KT 9999 SCT022 30/26 Q1014", "TLPC 072200Z 11005KT 9999 FEW017CB 28/25 Q1013 NOSIG", "TLPL 072200Z 13008KT 9999 -SHRA FEW016CB BKN021 28/25 Q1013 NOSIG", "TNCA 072200Z 08019KT 9999 FEW023 30/24 Q1011 NOSIG", "TNCB 072055Z 09014KT 060V130 9999 SCT018 BKN022 BKN029 30/24 Q1011", "TNCC 072200Z 09009KT 9999 FEW023 30/25 Q1011 NOSIG", "TNCE 072155Z AUTO 07016KT 040V100 //// // ///////// 29/24 Q1014 RE//", "TNCM 072200Z 06010KT 020V090 9999 FEW019 30/24 Q1016 NOSIG ", "TQPF 072200Z 09010KT 9999 FEW020 29/24 Q1015", "TRPG 072200Z 09014KT 9999 FEW018 29/25 Q1015", "TTCP 072200Z 11007KT 9999 VCSH FEW016 26/24 Q1012 NOSIG RMK VCSH-W/NW", "TTPP 072200Z 12004KT 9999 VCSH SCT016TCU 27/24 Q1012 NOSIG RMK TCU-E/ VCSH E", "TUPJ 072200Z 09010KT 10SM FEW020 30/23 A2998 RMK 11015 VIS16KM", "TVSA 072200Z 09003KT 9999 FEW016 28/25 Q1013 NOSIG ", "TXKF 072155Z 21011KT 9999 FEW016 SCT180 BKN220 BKN240 28/25 Q1014 ", "UAAA 072200Z 17002MPS 140V210 9999 FEW050CB SCT100 15/13 Q1012 NOSIG", "UACC 072200Z 00000MPS CAVOK 17/14 Q1011 NOSIG RMK QFE727/0970", "UADD 072200Z 18003MPS 9999 NSC 16/10 Q1012 NOSIG RMK QFE702/0936", "UAII 072200Z 13003MPS CAVOK 21/10 Q1010 NOSIG RMK QFE722/0963", "UAIT 072200Z 05004MPS 9999 SCT046CB 20/11 Q1010 NOSIG RMK QFE733/0977", "UAKK 072200Z 00000MPS CAVOK 13/11 Q1011 NOSIG RMK QFE712/0949", "UAOO 072200Z 03003MPS CAVOK 21/10 Q1010 NOSIG RMK QFE746/0994", "UARR 072200Z 36003MPS CAVOK 19/13 Q1015 NOSIG RMK QFE758/1011", "UASK 072200Z 06002MPS 9999 BKN100 15/15 Q1007 NOSIG RMK QFE730/0974", "UASP 072200Z 21002MPS 7000 SCT053CB 17/16 Q1006 NOSIG RMK QFE743/0991", "UATE 072200Z 06003MPS CAVOK 25/09 Q1008 NOSIG RMK QFE754/1006", "UATG 072200Z 06004MPS CAVOK 28/11 Q1010 NOSIG RMK QFE759/1013", "UATT 072200Z 07002MPS CAVOK 24/12 Q1016 NOSIG RMK QFE742/0989", "UAUU 072200Z 35002MPS CAVOK 18/13 Q1015 NOSIG RMK QFE745/0993", "UBBB 072200Z 16004KT CAVOK 25/24 Q1008 NOSIG", "UBBF 072200Z AUTO 31010KT 9999 // ///////// 24/12 Q1009", "UBBG 072200Z 11006KT 9999 FEW100 24/15 Q1009 NOSIG", "UBBL 072200Z VRB02KT 9999 SCT060 21/17 Q1008 NOSIG RMK MT OP", "UBBN 072200Z 10012KT 9999 NSC 27/08 Q1007 NOSIG RMK MT OP QFE681", "UBBQ 072200Z 15007KT 9999 NSC 23/12 Q1010 NOSIG RMK MT OP", "UBBY 072200Z 09012KT 9999 SCT070 25/15 Q1013 NOSIG RMK MT OP", "UBBZ 072200Z AUTO 32004KT 9999 // NSC 25/11 Q1011", "UCFL 072200Z 34004MPS 9999 FEW030CB 14/08 Q1017", "UCFM 072200Z 15002MPS 9999 BKN066CB 17/16 Q1012 NOSIG", "UCFO 072200Z 13003MPS CAVOK 16/09 Q1012 NOSIG", "UDSG 072200Z 06017KT 9999 NSC 20/11 Q1014 NOSIG", "UDYZ 072200Z 04012KT 9999 NSC 27/11 Q1007 NOSIG", "UEEE 072200Z 27006MPS 9999 BKN020CB 17/13 Q0995 R05/09//60 NOSIG RMK QFE738", "UERP 072200Z 27005MPS 9999 BKN020CB BKN100 11/07 Q1009 NOSIG RMK QFE712", "UERR 072200Z 30006MPS CAVOK 14/09 Q1009 R25/CLRD60 NOSIG RMK QFE726/0968", "UGAM 072200Z AUTO 00000KT //// ////// 21/21 Q1012", "UGKO 072200Z 28007KT 190V330 9999 -SHRA SCT045CB OVC055 22/21 Q1009 NOSIG", "UGMS 072200Z AUTO 11003KT //// ////// 18/15 Q1019", "UGSB 072200Z 09008KT 9999 -SHRA SCT022CB BKN037 23/23 Q1008 NOSIG", "UGTB 072200Z 34005KT CAVOK 25/15 Q1011 NOSIG", "UHBB 072200Z 04001MPS 0800 0150N FG VV002 17/17 Q1004 R36/090060 NOSIG RMK QBB070 QFE736/0981", "UHHH 072200Z 19002MPS 160V220 CAVOK 23/18 Q1004 R88/090060 NOSIG RMK QFE747/0996", "UHMA 072200Z 08005MPS 9999 VCFG BKN011 BKN017 BKN027 09/08 Q1002 R01/////// NOSIG RMK MID 10006G09MPS END R01/11006G09MPS MT OBSC QFE747/0997", "UHMM 072200Z 00000MPS 9999 NSC 17/08 Q0999 R10/70D NOSIG RMK QFE734 R28/21002MPS 190V290", "UHPP 072200Z 31003MPS 8000 -SHRA BKN004 OVC021CB 13/13 Q0990 R16R/290255 NOSIG RMK MT OBSC QFE740/0986", "UHSS 072200Z 21001MPS 9999 SCT013 20/16 Q1006 R19/70D NOSIG RMK MT OBSC QFE753/1004", "UHWW 072200Z 23002MPS 9999 OVC008 19/18 Q1006 R25L/0///70 NOSIG RMK MT OBSC QFE753", "UIAA 072200Z 22001MPS 9000 FEW050CB 16/16 Q1007 R29/CLRD70 NOSIG RMK QFE697/0929", "UIBB 072200Z 24002MPS 200V260 9999 NSC 16/13 Q1010 R30/CLRD60 NOSIG RMK QFE714/0953", "UIII 072200Z 00000MPS 0550 0300NW R30/0750D FG VV001 15/15 Q1009 R30/CLRD60 NOSIG RMK QBB050 QFE712/0950", "UIUU 072200Z 00000MPS 9999 SCT040CB 18/16 Q1008 R26/CLRD60 NOSIG RMK QFE712/0950", "ULLI 072200Z 26003MPS CAVOK 15/11 Q1016 R28L/090060 NOSIG", "ULMM 072200Z 10002MPS 9999 BKN015 06/05 Q1021 R31/090070 NOSIG RMK QFE758", "ULOO 072200Z 19001MPS CAVOK 12/11 Q1018 NOSIG RMK QFE759", "ULPB 072200Z AUTO 00000MPS 9999 // ///066/// 16/15 Q1013 RMK QFE756/1008", "ULWC 072100Z 27003MPS 5000 -SHRA BKN004 OVC013CB 18/18 Q1011 R21/290260 NOSIG RMK QBB140 QFE748/0997", "UMBB 072200Z 00000MPS 7000 NSC 16/12 Q1022 NOSIG", "UMGG 072200Z 33006MPS 8000 NSC 18/16 Q1018 NOSIG", "UMIO 072200Z 28002MPS CAVOK 14/11 Q1019 NOSIG RMK QFE747/0996", "UMKK 072200Z 22002MPS CAVOK 13/10 Q1022 R24/CLRD95 NOSIG RMK QFE765/1021", "UMMS 072200Z 32003MPS CAVOK 13/09 Q1020 NOSIG", "UNAA 072200Z 11002MPS 9999 FEW047CB 19/15 Q1005 R02/CLRD64 TEMPO -TSRA RMK QFE731", "UNBB 072200Z 21003MPS CAVOK 19/13 Q1006 R24/CLRD66 NOSIG RMK QFE732", "UNEE 072200Z 14002MPS 9999 FEW040 17/15 Q1005 R23/CLRD60 NOSIG RMK QFE731", "UNKL 072200Z 00000MPS CAVOK 15/14 Q1005 R11/CLRD65 NOSIG RMK QFE729", "UNNT 072200Z 26003MPS 7000 SCT050CB 15/15 Q1005 R07/150065 R34/150065 NOSIG RMK QFE743/0991", "UNOO 072200Z 33003MPS 9999 SCT033CB 18/14 Q1008 R25/CLRD60 NOSIG RMK QFE748", "UNTT 072200Z 02001MPS 9000 NSC 15/14 Q1003 R21/090060 NOSIG RMK QFE737", "UNWW 072200Z 22001MPS 9999 BKN040CB 16/16 Q1006 R19/220255 NOSIG RMK QFE728", "UOOO 072200Z 17005MPS CAVOK 16/12 Q1006 R19/CLRD60 NOSIG RMK QFE738/0984", "URKA 072200Z 18004MPS CAVOK 23/22 Q1006 R22/010070 NOSIG RMK QFE750/1000", "URKK 072200Z 24004MPS 9999 FEW///CB 26/20 Q1006 R05R/CLRD70 TEMPO 3000 -TSRA SCT030CB RMK QFE752", "URMG 072200Z 33002MPS CAVOK 24/15 Q1005 R26/090070 NOSIG RMK QFE739/0986", "URML 072200Z 22003MPS 9999 NSC 23/17 Q1005 R14/01//70 NOSIG RMK QFE754/1005", "URMM 072200Z 25004MPS 9999 NSC 24/18 Q1008 R30/090070 TEMPO -TSRA BKN030CB RMK QFE728/0970", "URMN 072200Z 25003MPS 9999 SCT/// 23/17 Q1007 R24/////// NOSIG RMK QFE719", "URMO 072200Z 13002MPS 100V170 9999 NSC 21/18 Q1008 R27/010070 NOSIG RMK QFE711/0949", "URMT 072200Z 16003MPS CAVOK 22/13 Q1009 R07/010070 NOSIG RMK QFE717", "URRP 072200Z 10005MPS 9999 FEW///CB 28/14 Q1006 R05/CLRD70 TEMPO VRB08G15MPS 1000 TSRA SCT005 BKN020CB RMK QFE750/1000", "URSS 072200Z 05003MPS 9999 FEW015 BKN031CB OVC100 23/20 Q1008 R02/010070 R06/010070 NOSIG RMK R06/07004MPS MT OBSC QFE755", "URWA 072200Z 07004MPS CAVOK 25/19 Q1009 R09/010070 NOSIG RMK QFE758/1011", "URWI 072200Z AUTO 14004MPS 9999 // ///////// 25/13 Q1009", "URWW 072200Z 09005MPS CAVOK 27/10 Q1011 R05/010070 NOSIG", "USCC 072200Z 28003MPS CAVOK 15/10 Q1017 R27/000060 NOSIG RMK QFE742", "USCM 072200Z 04001MPS 9999 NSC 17/12 Q1019 R18/////// NOSIG RMK QFE726", "USDA 072200Z AUTO 29005MPS 9999 ///005/// ///016/// 05/04 Q1005 RMK QFE753/1004", "USHH 072200Z 27003MPS CAVOK 15/13 Q1008 R24/010060 NOSIG", "USNN 072200Z 31001MPS 9999 MIFG NSC 17/17 Q1005 R21/0///65 NOSIG RMK QFE749", "USPP 072200Z 23003MPS CAVOK 16/11 Q1016 R21/090060 NOSIG RMK QFE751", "USRR 072200Z 28003MPS CAVOK 16/14 Q1006 R25/CLRD60 NOSIG RMK QFE749", "USSS 072200Z 00000MPS CAVOK 12/10 Q1017 R26L/010060 R26R/010060 NOSIG RMK QFE742/0989", "USTR 072200Z 30003MPS CAVOK 18/10 Q1014 R30/090065 R03/090065 NOSIG", "UTAA 072200Z 00000KT 9999 NSC 27/07 Q1009 R88/CLRD70 NOSIG", "UTAK 072200Z 01004KT CAVOK 29/05 Q1009 R16R/CLRD70 NOSIG", "UTAM 072200Z 01004KT 6000 NSC 25/08 Q1007 R88/CLRD70 NOSIG", "UTAT 072200Z 01008KT CAVOK 25/12 Q1009 R26/CLRD70 NOSIG", "UTAV 072200Z 02006KT CAVOK 26/10 Q1008 R31/CLRD70 NOSIG", "UTDD 072200Z 06003MPS 9999 FEW066CB 21/09 Q1010 R09/CLRD// NOSIG RMK QFE689/0919", "UTDK 072200Z 02003MPS 9999 NSC 24/10 Q1009 R01/09//70 RMK QFE700/0933", "UTDL 072200Z 23001MPS 9999 FEW086 20/08 Q1010 R26/CLRD70 NOSIG RMK QFE720/0960", "UTDT 072200Z 00000MPS 9999 FEW130 22/11 Q1006 R35/CLRD70 RMK QFE715/0954", "UTFF 072200Z 15006KT 9999 NSC 22/08 Q1011 R18/CLRD70", "UTFN 072200Z 33006KT 9999 NSC 22/13 Q1010 R28/CLRD70 NOSIG", "UTNN 072200Z 35004KT CAVOK 24/07 Q1010 R33/CLRD60 NOSIG", "UTNU 072200Z 06006KT CAVOK 25/10 Q1009 R31/CLRD70 NOSIG", "UTO8 M M M 090/32/10/0907/M/M SOG 01 7028 77MM", "UTSA 072130Z 12002KT 9999 NSC 23/06 Q1009 R07/CLRD70 NOSIG", "UTSB 072200Z 02004KT CAVOK 22/10 Q1008 R01/CLRD70 NOSIG", "UTSK 072200Z 35010KT CAVOK 25/10 Q1007 R16/CLRD70", "UTSS 072200Z VRB02KT 9999 NSC 20/08 Q1011 R09/CLRD70 NOSIG", "UTST 072200Z 34004KT 320V020 9999 FEW066CB 25/10 Q1006 R25/CLRD70 NOSIG", "UTTT 072200Z 09008KT CAVOK 19/12 Q1009 R08R/CLRD70 NOSIG", "UUBC 072200Z VRB01MPS 9999 BKN024 19/19 Q1015 R13/CLRD60 NOSIG RMK QFE743/0991", "UUBW 072200Z 30003MPS 4900 BR NSC 18/18 Q1014 R30/010060 NOSIG RMK QFE750", "UUDD 072200Z 29002MPS 7000 2000NE BR FEW001 18/17 Q1014 R32L/190050 TEMPO 0500 FG RMK QBB040", "UUDL 072200Z 21002MPS 9999 SCT040 20/19 Q1013 R23/290550 NOSIG RMK QFE751", "UUEE 072200Z 28004MPS CAVOK 20/17 Q1014 R24C/CLRD62 NOSIG", "UUMO 072200Z 32002MPS 1300 R25/P2000U BR NSC 18/18 Q1014 R25/290050 NOSIG RMK QFE745/0994", "UUOB 072200Z 13005MPS CAVOK 22/16 Q1012 R29/010070 NOSIG", "UUOK 072200Z AUTO 06006MPS 350V130 9999 // ///////// 21/18 Q1014 RMK QFE743/0990", "UUOL 072200Z AUTO 06003MPS 9999 NCD 22/22 Q1013", "UUOO 072200Z 08002MPS 9999 BKN/// ///// Q//// R30/010070 NOSIG", "UUWW 072200Z 31003MPS CAVOK 19/17 Q1015 R06/000070 NOSIG", "UUYY 072200Z 06002MPS 9999 SCT030 15/12 Q1015 R36/61D NOSIG RMK QFE752/1003", "UWGG 072200Z 17002MPS CAVOK 23/19 Q1014 R18L/090070 NOSIG", "UWKD 072200Z 12002MPS CAVOK 17/13 Q1017 R29/CLRD70 NOSIG RMK QFE751/1002", "UWKE 072200Z 19001MPS CAVOK 18/10 Q1018 R21/090070 NOSIG RMK QFE747/0996", "UWKS 072200Z 19003MPS CAVOK 21/14 Q1016 R24/010060 NOSIG RMK QFE748", "UWLL 072200Z VRB01MPS CAVOK 21/14 Q1017 R20/090065 NOSIG RMK QFE752/1003", "UWLW 072200Z VRB01MPS CAVOK 20/12 Q1017 R02/CLRD60 NOSIG RMK QFE755/1007", "UWOO 072200Z 02003MPS CAVOK 22/12 Q1016 R08/CLRD60 NOSIG RMK QFE751/1002", "UWOR 072200Z 18003MPS CAVOK 19/12 Q1017 R07/CLRD65 NOSIG RMK QFE738/0984", "UWPS 072200Z 14002MPS CAVOK 20/16 Q1016 R20/CLRD60 NOSIG RMK QFE744", "UWSG 072200Z VRB01MPS CAVOK 19/17 Q1015 R26/CLRD70 NOSIG RMK QFE758/1011", "UWUU 072200Z 26003MPS CAVOK 16/11 Q1018 R32L/0///60 NOSIG", "UWWW 072200Z 29001MPS CAVOK 21/11 Q1017 R33/CLRD60 NOSIG RMK QFE752/1003", "VAAH 072200Z 17003KT 3000 BR BKN012 SCT020 BKN080 27/25 Q1000 NOSIG", "VABB 072200Z 22012KT 2100 BR FEW012 SCT018 FEW030CB BKN090 27/27 Q1003 TEMPO 1500 SHRA", "VANP 072130Z 21003KT 2500 -RA SCT018 FEW030CB BKN080 26/25 Q1004 TEMPO 1800 -RA", "VCBI 072110Z 15003KT 090V170 9999 FEW016 25/24 Q1011 NOSIG", "VCRI 072110Z 24004KT 9999 FEW018 25/23 Q1010 NOSIG", "VDPP 072200Z 12003KT 9999 FEW017 SCT040 27/27 Q1008", "VDSR 072200Z 19002KT 9000 SCT015 27/25 Q1008", "VDSV 072200Z 06002KT 9000 SCT015 26/25 Q1009", "VEBN 072100Z 09006KT 2500 BR SCT020 FEW030CB BKN100 28/28 Q1001 NOSIG", "VEBS 072200Z 34002KT 4000 HZ SCT018 BKN100 26/26 Q1005 NOSIG", "VECC 072200Z 12003KT 3200 -RA SCT018 BKN090 28/27 Q1004 NOSIG", "VEGY 072100Z 08006KT 3000 BR FEW020 SCT100 25/25 Q1002", "VEPT 072130Z 09008KT 2500 BR SCT018 BKN100 29/27 Q1002 NOSIG", "VERC 072200Z 20003KT 3000 HZ SCT018 BKN100 25/24 Q1007 NOSIG", "VGHS 072200Z 15008KT 4000 HZ SCT015 BKN100 28/25 Q1005 NOSIG", "VHHH 072200Z 19005KT 9999 FEW018 29/24 Q1010 NOSIG", "VIAR 072130Z 11005KT 3500 BR SCT030 BKN090 28/26 Q1002 NOSIG", "VIDP 072200Z 10006G16KT 1500 TSRA BKN030 FEW035CB OVC090 27/26 Q1003 TEMPO 13020G30KT 0800 TSRA", "VIJP 072200Z VRB02KT 2500 BR FEW020 SCT030 BKN100 25/24 Q1003 NOSIG", "VILK 072130Z 09006KT 3000 BR SCT018 FEW030CB BKN090 28/27 Q1001 NOSIG", "VMMC 072200Z 22005KT 9999 FEW015 28/26 Q1010 NOSIG", "VNKT 072200Z 19004KT 8000 FEW010 21/20 Q1013 NOSIG", "VOBL 072200Z 25010KT 6000 FEW008 SCT015 BKN080 21/19 Q1013 NOSIG", "VOCB 072200Z 22008KT 5000 BR SCT008 BKN080 24/23 Q1010 NOSIG", "VOCI 072200Z 13002KT 1800 BR FEW004 SCT012 FEW025CB OVC080 24/24 Q1010 NOSIG", "VOCL 072200Z 28002KT 4000 BR FEW008 SCT012 BKN080 23/22 Q1009 NOSIG", "VOHS 072200Z 26011G21KT 5000 HZ SCT015 BKN080 24/20 Q1009 NOSIG", "VOKN 072200Z 34003KT 2000 -RA BR FEW002 SCT012 FEW025CB OVC080 24/23 Q1009 TEMPO 1500 RA BR", "VOML 072200Z 08004KT 3000 -DZ BR FEW001 SCT012 OVC080 24/23 Q1008 NOSIG", "VOMM 072200Z 26007KT 6000 SCT020 SCT100 30/25 Q1007 NOSIG", "VOPB 072100Z 28004KT 5000 DZ BR SCT014 OVC080 27/26 Q1009 TEMPO 4000 -RA", "VOTR 072200Z 26008KT 4000 HZ SCT016 BKN100 27/21 Q1009 NOSIG", "VOTV 072200Z 00000KT 3000 BR SCT012 BKN080 27/25 Q1010 NOSIG", "VOVZ 072100Z 26008KT 4500 BR SCT018 FEW022TCU BKN080 29/25 Q1005 NOSIG", "VRMG 072200Z 34003KT 9999 SCT018TCU BKN260 29/26 Q1011 NOSIG", "VRMH 072200Z 29007KT 9999 FEW018 BKN270 28/23 Q1010", "VRMM 072200Z 28007KT 9999 FEW018 BKN280 29/25 Q1011 NOSIG", "VTBD 072200Z 13002KT 9999 FEW020 30/26 Q1008 NOSIG", "VTBS 072200Z 20004KT 150V220 9999 -RA FEW018 BKN090 29/26 Q1008 NOSIG", "VTBU 072200Z 01003KT 9999 FEW020CB SCT040 27/26 Q1009 NOSIG", "VTCC 072200Z 36003KT 340V050 9999 FEW035 SCT048 26/24 Q1010 NOSIG", "VTCH 072200Z 00000KT 6000 FEW015 SCT025 25/24 Q1010", "VTCN 072200Z 00000KT 9999 FEW035 26/25 Q1008 NOSIG", "VTCP 072200Z 18002KT 9999 FEW035 27/25 Q1008 NOSIG", "VTCT 072200Z 29003KT 9999 FEW030 25/25 Q1010 NOSIG", "VTPB 072200Z 00000KT CAVOK 26/26 Q1009 NOSIG", "VTPH 072200Z 00000KT 9999 FEW030 27/24 Q1008 NOSIG", "VTPM 072200Z 11002KT 9999 FEW030 26/24 Q1010 NOSIG", "VTPO 072200Z VRB02KT CAVOK 28/24 Q1007 NOSIG", "VTPP 072200Z 14005KT 9999 BKN045 OVC060 28/26 Q1008 NOSIG", "VTPT 072200Z /////KT 9999 FEW026 26/23 Q1007 NOSIG", "VTSB 072200Z 21004KT 7000 -RA FEW020 SCT100 25/25 Q1009 NOSIG", "VTSC 072200Z 28003KT 220V310 9999 FEW020 24/23 Q1009 NOSIG", "VTSF 072200Z 00000KT 7000 FEW018 26/26 Q1010 NOSIG", "VTSG 072200Z 10001KT 9999 FEW002 SCT020 25/25 Q1010 RERA NOSIG", "VTSM 072200Z VRB01KT 9999 -RA FEW020 BKN100 26/24 Q1010 NOSIG", "VTSP 072200Z 28006KT 9999 SCT020 28/25 Q1009 NOSIG", "VTSR 072200Z VRB01KT 9999 SCT020 26/24 Q1009 NOSIG", "VTSS 072200Z 24005KT 190V260 9999 FEW020 27/24 Q1009 NOSIG", "VTST 072200Z 31003KT 8000 FEW030 SCT065 25/25 Q1009 NOSIG", "VTUD 072200Z 16003KT 9999 FEW035 27/26 Q1008 NOSIG", "VTUI 072200Z 36001KT 9000 NSC 28/27 Q1008 NOSIG", "VTUK 072200Z 17003KT 9000 FEW030 BKN100 28/25 Q1009 NOSIG", "VTUL 072200Z VRB01KT CAVOK 25/25 Q1009 NOSIG", "VTUO 072200Z 23003KT 8000 NSC 26/26 Q1009 NOSIG", "VTUQ 072200Z 00000KT 9000 NSC 25/24 Q1009 NOSIG", "VTUU 072200Z 19003KT 150V230 CAVOK 27/27 Q1009 NOSIG", "VTUV 072200Z 18003KT 9000 NSC 27/27 Q1009 NOSIG", "VTUW 072200Z 00000KT 9999 FEW030 28/28 Q1009 NOSIG", "VVCI 072130Z 16009KT 9999 FEW020 30/26 Q1007 NOSIG", "VVCR 072200Z 29002KT 9999 FEW015 26/23 Q1011 NOSIG", "VVCT 072200Z 00000KT 6000 FEW013 BKN040 24/24 Q1009 NOSIG", "VVDN 072200Z 20003KT 160V230 9999 FEW015 27/24 Q1009 NOSIG", "VVNB 072200Z 13009KT 9999 FEW017 SCT078 29/26 Q1007 NOSIG", "VVPB 072130Z VRB02KT 9999 FEW020 28/24 Q1009 NOSIG", "VVPQ 072200Z 24002KT 9999 SCT015 27/26 Q1009 NOSIG", "VVTS 072200Z VRB01KT 8000 BKN019 28/27 Q1009 NOSIG", "VVVD 072200Z 19006KT 150V210 9999 FEW022 29/27 Q1008 NOSIG", "VYYY 072200Z 00000KT 7000 SCT020 FEW025TCU SCT120 27/26 Q1008 NOSIG", "WAAA 072130Z 28003KT 210V010 8000 FEW019 25/22 Q1010 NOSIG", "WABB 072130Z 31004KT 130V310 9999 FEW018 BKN100 25/24 Q1010 NOSIG", "WADD 072130Z 12014KT 9999 SCT016 26/24 Q1012 NOSIG", "WADL 072200Z 13008KT 6000 BKN016 24/24 Q1013 NOSIG", "WAHS 072130Z 00000KT 6000 -RA SCT014 25/24 Q1011 NOSIG", "WAJJ 072200Z 15002KT 9999 FEW012 26/23 Q1010 NOSIG", "WAKK 072130Z 07005KT 1000 -RA BR FEW013CB OVC015 24/24 Q1012", "WALL 072130Z 29004KT 9000 SCT022 26/25 Q1011 NOSIG", "WAMM 072200Z VRB01KT 9999 FEW019 23/22 Q1011 NOSIG", "WAOO 072130Z AUTO VRB02KT 5000 FEW002 BKN050 OVC080 25/25 Q1011", "WAPP 072130Z 15009KT 100V190 9000 -RA SCT017 28/23 Q1011 NOSIG", "WAQQ 072130Z 09003KT 7000 -RA BKN013 25/24 Q1011 NOSIG", "WARR 072200Z 28004KT 4000 BR FEW020 25/25 Q1012 NOSIG ", "WATT 072130Z 12005KT 8000 FEW017 24/22 Q1014 NOSIG", "WAYY 072130Z 00000KT 9999 FEW013 23/22 Q1013 NOSIG", "WBGB 072100Z 14002KT 9999 -RA SCT016 24/23 Q1013", "WBGG 072130Z 12003KT 9999 FEW020 25/23 Q1011 NOSIG", "WBGR 072100Z 12003KT 9999 SCT014 25/24 Q1012", "WBGS 072100Z 16004KT 080V220 8000 -RA FEW007 SCT016 24/24 Q1013", "WBGY 072100Z AUTO VRB02KT //// // ////// 24/23 Q1012", "WBKK 072130Z 12004KT 9999 FEW014 23/23 Q1011 NOSIG", "WBKL 072100Z 00000KT 9999 FEW017CB 24/23 Q1012", "WBKS 072100Z 24004KT 210V270 9999 FEW016 24/24 Q1011", "WBKT 072100Z 22003KT 190V250 9999 FEW014 24/24 Q1011", "WBKW 072100Z 00000KT 9999 FEW016 24/23 Q1011", "WBSB 072130Z 15002KT 9999 FEW003 FEW015CB BKN140 25/25 Q1012 NOSIG", "WIBB 072130Z AUTO 18002KT 9999 FEW130 SCT200 OVC240 23/22 Q1009", "WIDD 072130Z 24003KT 9999 FEW014 26/25 Q1012 NOSIG", "WIEE 072100Z AUTO 00000KT 9999 BKN180 OVC190 24/24 Q1010 NOSIG", "WIHH 072130Z 24003KT 3000 BR SCT020 24/24 Q1011 NOSIG ", "WIII 072200Z 19002KT 3000 BR SCT020 25/24 Q1011 NOSIG", "WIMM 072130Z 28003KT 5000 BR BKN017 24/24 Q1010 NOSIG", "WIOO 072130Z AUTO 09003KT 9999 -RA SCT260 BKN270 24/24 Q1011", "WIPP 072130Z AUTO VRB02KT 5000NDV OVC095 24/24 Q1012", "WMAU 072100Z VRB02KT 7000 FEW002 24/23 Q1011", "WMBA 072100Z 00000KT 9000 SCT031 25/24 Q1010", "WMKA 072100Z VRB02KT 9999 FEW017CB 26/24 Q1009", "WMKB 072100Z VRB02KT 8000 FEW024 26/25 Q1009 NOSIG", "WMKC 072100Z 21005KT 140V260 9999 FEW020 25/23 Q1008", "WMKD 072100Z 21004KT 160V250 9000 FEW000 24/23 Q1009 NOSIG", "WMKE 072100Z AUTO 00000KT //// // ////// 25/24 Q1008", "WMKI 072100Z 00000KT 8000 FEW026 24/23 Q1010", "WMKJ 072100Z VRB01KT 7000 FEW008 25/24 Q1010", "WMKK 072130Z 00000KT 8000 FEW008 SCT030 24/23 Q1010 NOSIG", "WMKL 072100Z VRB02KT 9999 FEW026 27/25 Q1009", "WMKM 072100Z 00000KT 9999 FEW010 25/24 Q1011", "WMKN 072100Z 19003KT 150V240 9999 SCT022 25/24 Q1008", "WMKP 072130Z 00000KT 8000 -RA FEW010 SCT025 26/23 Q1010 NOSIG", "WMSA 072100Z 15003KT 9999 FEW010 25/24 Q1010", "WSAP 072200Z 02003KT 9999 FEW016 BKN160 26/24 Q1011", "WSSL 072200Z 18001KT 9000 FEW018 BKN150 26/26 Q1010", "WSSS 072200Z 00000KT 9999 FEW018 BKN150 25/24 Q1010 NOSIG", "YAMB 072200Z AUTO 00000KT 9999 // NCD 06/05 Q1021 RF00.0/000.0", "YBAS 072200Z AUTO /////KT 9999 // NCD 03/02 Q1025 RF00.0/000.0", "YBBN 072200Z 26006KT CAVOK 12/06 Q1020", "YBCG 072200Z AUTO 23004KT 9999 // NCD 09/06 Q1019 RF00.0/000.0", "YBCS 072200Z AUTO 17007KT 9999 // NCD 23/17 Q1018 RF00.0/000.0", "YBHM 072200Z AUTO 15018KT 9999 // NCD 21/12 Q1020 RF00.0/000.0", "YBLN 072200Z AUTO 03004KT 9999 // OVC043 09/09 Q1025 RF00.0/000.0", "YBMA 072200Z AUTO 19004KT 9999 // NCD 09/03 Q1023 RF00.0/000.0", "YBRK 072200Z AUTO 00000KT 9999 // NCD 13/04 Q1022 RF00.0/000.0", "YBRM 072200Z AUTO 11006KT 9999 // SCT075 16/09 Q1018 RF00.0/000.0", "YBSU 072200Z AUTO 29006KT 9999 // NCD 11/08 Q1020 RF00.0/000.0", "YBTL 072200Z AUTO 18003KT 9999 // NCD 22/09 Q1020 RF00.0/000.0", "YBWW 072200Z AUTO 14003KT 9999 // NCD 07/05 Q1021 RF00.0/000.0", "YCFS 072200Z AUTO 29003KT 9999 // NCD 09/06 Q1019 RF00.0/000.0", "YCIN 072200Z AUTO 13011KT 9999 // SCT074 17/06 Q1017 RF00.0/000.0", "YFRT 072200Z AUTO 29009KT 9999 // SCT046 08/05 Q1024 RF00.0/000.0", "YGEL 072200Z AUTO 04009KT 9999 // NCD 09/09 Q1027 RF00.0/000.2", "YGLA 072200Z AUTO 21005KT 9999 // NCD 13/03 Q1022 RF00.0/000.0", "YHID 072200Z AUTO 13013KT 9999 // NCD 26/22 Q1013 RF00.0/000.0", "YLHI 072200Z AUTO 25014KT 9999 // SCT038 SCT075 18/12 Q1015", "YMAV 072200Z AUTO 31020KT 9999 // NCD 11/05 Q1002 RF00.0/000.2", "YMHB 072200Z 01014KT 9999 VCSH SCT050 BKN145 BKN240 12/07 Q0989", "YMLT 072204Z AUTO 31019KT 3000 +RA BKN013 OVC018 10/08 Q0993", "YMML 072200Z 35013KT 9999 FEW030 BKN190 FEW040CB 10/05 Q1004", "YPAD 072200Z 30013KT 8000 -SHRA BKN040 SCT080 13/08 Q1013 RF00.0/007.6", "YPCC 072200Z AUTO 11012KT 9999 // BKN075 26/21 Q1014 RF00.0/000.2", "YPDN 072200Z 11006KT CAVOK 22/15 Q1015", "YPEA 072200Z AUTO 06005KT 9999 // SCT033 SCT046 11/10 Q1026", "YPGV 072200Z AUTO 14015KT 9999 // NCD 24/17 Q1015 RF00.0/000.0", "YPJT 072200Z AUTO 03004KT 5000 BR BKN002 BKN031 OVC038 12/12 Q1026", "YPKG 072200Z AUTO 27002KT 9999 // NCD 05/04 Q1026 RF00.0/000.0", "YPKU 072200Z AUTO 15006KT 9999 // NCD 21/15 Q1017 RF00.0/000.0", "YPLM 072200Z AUTO 22009KT 9999 // NCD 11/02 Q1023 RF00.0/000.0", "YPPD 072200Z AUTO 16009KT 9999 // NCD 12/02 Q1021 RF00.0/000.0", "YPPH 072200Z 36004KT 9999 FEW010 SCT049 10/10 Q1026 RF00.0/002.4", "YPTN 072200Z AUTO 13005KT 9999 // NCD 17/13 Q1017 RF00.0/000.0", "YPWR 072200Z AUTO 33009KT 9999 // NCD 07/02 Q1020 RF00.0/000.0", "YPXM 072200Z AUTO 14011KT 9999 // BKN003 BKN006 OVC010 22/21 Q1015", "YSCB 072200Z AUTO 35014KT 9999 // SCT036 06/03 Q1014 RF00.0/000.0", "YSDU 072200Z AUTO 00000KT 9999 // NCD 05/04 Q1020 RF00.0/000.0", "YSNF 072200Z AUTO 26017KT 9999 // SCT025 18/13 Q1012 RF00.0/002.8", "YSRI 072200Z AUTO 02007KT 9999 // NCD 11/06 Q1014 RF00.0/000.0", "YSSY 072200Z 34014KT 9999 FEW035 13/03 Q1014", "YSTW 072200Z AUTO 32003KT 9999 // OVC042 08/06 Q1022 RF00.0/000.2", "YWLM 072200Z AUTO 29008KT 9999 // NCD 13/05 Q1016 RF00.0/000.0", "ZBAA 072200Z VRB01MPS CAVOK 26/20 Q0998 NOSIG", "ZBAD 072200Z 31002MPS 280V340 CAVOK 27/20 Q0998 NOSIG", "ZBHH 072200Z 32003MPS 9999 FEW040 18/11 Q1008 NOSIG", "ZBSJ 072200Z 29002MPS 260V340 CAVOK 28/16 Q0999 NOSIG", "ZBTJ 072200Z VRB01MPS CAVOK 27/22 Q0997 NOSIG", "ZBYN 072200Z 17001MPS CAVOK 19/13 Q1006 NOSIG", "ZGGG 072200Z 13001MPS 9999 FEW030 28/25 Q1010 NOSIG", "ZGHA 072200Z 17004MPS CAVOK 29/24 Q1004 NOSIG", "ZGKL 072200Z 18006MPS 9999 FEW030 BKN046 29/24 Q1008 NOSIG", "ZGNN 072200Z 10002MPS CAVOK 28/25 Q1008 NOSIG", "ZGOW 072200Z 00000MPS CAVOK 26/25 Q1011 NOSIG", "ZGSZ 072200Z 18004MPS 9999 FEW026 29/26 Q1010 NOSIG", "ZHCC 072200Z VRB01MPS CAVOK 23/21 Q0999 NOSIG", "ZHHH 072200Z 21004MPS CAVOK 31/25 Q1001 NOSIG", "ZJHK 072200Z 16003MPS 140V200 CAVOK 27/25 Q1009 NOSIG", "ZJSY 072200Z 11002MPS 080V140 9999 SCT020 BKN060 28/26 Q1010 NOSIG", "ZLLL 072200Z 25001MPS CAVOK 18/08 Q1015 NOSIG", "ZLXY 072200Z 27001MPS CAVOK 20/20 Q1004 NOSIG", "ZMCK 072200Z 00000MPS 0150 R29/0600U FG ////// 12/12 Q1013 TEMPO 0350 FG RMK QFE644.6 100 E W MO", "ZMUB 072200Z VRB02MPS 9999 FEW033 SCT100 11/10 Q1012 NOSIG RMK QFE652.5 91 MOP", "ZPPP 072200Z 22006MPS 9999 SCT020 BKN040 19/17 Q1019 NOSIG", "ZSAM 072200Z 23003MPS CAVOK 29/25 Q1010 NOSIG", "ZSFZ 072200Z 17002MPS CAVOK 28/26 Q1008 NOSIG", "ZSHC 072200Z 00000MPS CAVOK 31/25 Q1002 NOSIG", "ZSNB 072200Z 16003MPS CAVOK 32/25 Q1003 NOSIG", "ZSNJ 072200Z 24006MPS 210V270 2000 +TSRA BR SCT010 SCT040CB SCT040 27/27 Q1001 BECMG TL2240 3000 -SHRA SCT010 SCT033", "ZSOF 072200Z 18004MPS CAVOK 27/26 Q1001 NOSIG", "ZSPD 072200Z 14002MPS 080V170 8000 NSC 29/29 Q1002 BECMG TL2230 28005MPS TSRA SCT030CB", "ZSQD 072200Z 16004MPS 130V190 1800 BR BKN004 26/26 Q0998 BECMG TL2330 3000 BKN005", "ZSSS 072200Z 23003MPS 200V260 9999 -TSRA FEW030CB 27/26 Q1003 RESHRA BECMG TL2250 NSW", "ZUCK 072200Z 00000MPS CAVOK 26/23 Q1004 NOSIG", "ZUGY 072200Z 21006MPS 9999 SCT040 26/21 Q1010 NOSIG", "ZUTF 072200Z 18001MPS 5000 BR NSC 24/23 Q1003 NOSIG", "ZUUU 072200Z VRB01MPS 8000 NSC 24/21 Q1004 NOSIG", "ZWSH 072200Z VRB02MPS 9999 SCT040 20/07 Q1010 NOSIG", "ZWWW 072200Z 26004MPS 9999 -SHRA NSC 25/13 Q1010 NOSIG", "ZYCC 072200Z 14002MPS 6000 NSC 21/19 Q1002 NOSIG", "ZYHB 072200Z 12002MPS 080V160 CAVOK 20/19 Q1002 NOSIG", "ZYTL 072200Z 13003MPS CAVOK 22/19 Q0999 NOSIG", "ZYTX 072200Z 11002MPS 080V140 8000 NSC 23/21 Q1001 NOSIG"]}