No errors
No warnings
937 ms
data source=metars
4944 results
raw_text,station_id,observation_time,latitude,longitude,temp_c,dewpoint_c,wind_dir_degrees,wind_speed_kt,wind_gust_kt,visibility_statute_mi,altim_in_hg,sea_level_pressure_mb,corrected,auto,auto_station,maintenance_indicator_on,no_signal,lightning_sensor_off,freezing_rain_sensor_off,present_weather_sensor_off,wx_string,sky_cover,cloud_base_ft_agl,sky_cover,cloud_base_ft_agl,sky_cover,cloud_base_ft_agl,sky_cover,cloud_base_ft_agl,flight_category,three_hr_pressure_tendency_mb,maxT_c,minT_c,maxT24hr_c,minT24hr_c,precip_in,pcp3hr_in,pcp6hr_in,pcp24hr_in,snow_in,vert_vis_ft,metar_type,elevation_m
KSFY 311943Z AUTO 28006KT 10SM CLR 19/03 A2983 RMK AO2,KSFY,2022-10-31T19:43:00Z,42.05,-90.12,19.0,3.0,280,6,,10.0,29.828741,,,TRUE,TRUE,,,,,,,CLR,,,,,,,,VFR,,,,,,,,,,,,METAR,188.0
PAHY 311942Z AUTO 11010KT 6SM -SN BR BKN012 03/01 A2958 RMK AO2 RAE20UPB01E08B31E34SNB20E31B34 P0001 $,PAHY,2022-10-31T19:42:00Z,55.2,-132.83,3.0,1.0,110,10,,6.0,29.58071,,,TRUE,TRUE,TRUE,,,,,-SN BR,BKN,1200,,,,,,,MVFR,,,,,,0.01,,,,,,METAR,0.0
KROS 311942Z AUTO 21006KT 10SM CLR 19/M01 A2981 RMK AO2,KROS,2022-10-31T19:42:00Z,45.7,-92.95,19.0,-1.0,210,6,,10.0,29.811024,,,TRUE,TRUE,,,,,,,CLR,,,,,,,,VFR,,,,,,,,,,,,METAR,282.0
CYCK 311942Z AUTO 22012KT 9SM SCT005 16/15 A2980 RMK SLP094 DENSITY ALT 1000FT,CYCK,2022-10-31T19:42:00Z,42.3,-82.08,16.0,15.0,220,12,,9.0,29.799213,1009.4,,TRUE,,,,,,,,SCT,500,,,,,,,VFR,,,,,,,,,,,,SPECI,196.0
SAWG 311941Z 27027G41KT CAVOK 18/M03 Q1011,SAWG,2022-10-31T19:41:00Z,-51.62,-69.27,18.0,-3.0,270,27,41,6.21,29.852362,,,,,,,,,,,CAVOK,,,,,,,,VFR,,,,,,,,,,,,METAR,15.0
MMCV 311941Z 11008KT 10SM SCT015 28/17 A2986 RMK 8/100,MMCV,2022-10-31T19:41:00Z,23.72,-98.97,28.0,17.0,110,8,,10.0,29.861221,,,,,,,,,,,SCT,1500,,,,,,,VFR,,,,,,,,,,,,METAR,230.0
KHSB 311941Z AUTO 26007KT 10SM SCT021 BKN027 OVC036 17/15 A2990 RMK AO2,KHSB,2022-10-31T19:41:00Z,37.82,-88.55,17.0,15.0,260,7,,10.0,29.899607,,,TRUE,TRUE,,,,,,,SCT,2100,BKN,2700,OVC,3600,,,MVFR,,,,,,,,,,,,METAR,118.0
CYYL 311941Z AUTO 30017G23KT 9SM BKN025 OVC035 00/M03 A2935 RMK SLP960,CYYL,2022-10-31T19:41:00Z,56.87,-101.07,0.0,-3.0,300,17,23,9.0,29.350393,996.0,,TRUE,,,,,,,,BKN,2500,OVC,3500,,,,,MVFR,,,,,,,,,,,,SPECI,351.0
CWLI 311941Z AUTO 04012KT ////SM FEW005 OVC016 M13/M15 A3007,CWLI,2022-10-31T19:41:00Z,69.6,-130.9,-13.0,-15.0,40,12,,,30.070866,,,TRUE,,,,,,,,FEW,500,OVC,1600,,,,,,,,,,,,,,,,,SPECI,92.0
CFOX 311941Z AUTO ///// ////SM FEW007 FEW019 BKN026 M12/M14 A2956,CFOX,2022-10-31T19:41:00Z,,,-12.0,-14.0,,,,,29.56004,,,TRUE,,,,,,,,FEW,700,FEW,1900,BKN,2600,,,,,,,,,,,,,,,SPECI,
PKWA 311940Z AUTO 05008KT 10SM SCT026 27/25 A2981 RMK AO2 T02710246,PKWA,2022-10-31T19:40:00Z,8.72,167.72,27.1,24.6,50,8,,10.0,29.811024,,,TRUE,TRUE,,,,,,,SCT,2600,,,,,,,VFR,,,,,,,,,,,,METAR,6.0
PAMD 311940Z AUTO 32009KT 10SM -RA SCT024 BKN029 OVC037 04/01 A2947 RMK AO2 PNO $,PAMD,2022-10-31T19:40:00Z,59.43,-146.3,4.0,1.0,320,9,,10.0,29.471457,,,TRUE,TRUE,TRUE,,,,,-RA,SCT,2400,BKN,2900,OVC,3700,,,MVFR,,,,,,,,,,,,METAR,20.0
PABA 311940Z AUTO 08015KT 2SM -SN BR OVC011 M09/M11 A3014 RMK AO2 VIS 1V5 FZRANO PNO $,PABA,2022-10-31T19:40:00Z,70.13,-143.58,-9.0,-11.0,80,15,,2.0,30.138779,,,TRUE,TRUE,TRUE,,,TRUE,,-SN BR,OVC,1100,,,,,,,IFR,,,,,,,,,,,,METAR,1.0
MMIO 311940Z RTD 36005KT 10SM SKC 18/07 A3011,MMIO,2022-10-31T19:40:00Z,25.55,-100.93,18.0,7.0,360,5,,10.0,30.109253,,,,,,,,,,,SKC,,,,,,,,VFR,,,,,,,,,,,,METAR,1430.0
KVOA 311940Z AUTO 36004KT 10SM CLR 22/15 A3001 RMK A01,KVOA,2022-10-31T19:40:00Z,29.23,-87.78,22.0,15.0,360,4,,10.0,30.008858,,,TRUE,TRUE,,,,,,,CLR,,,,,,,,VFR,,,,,,,,,,,,METAR,53.0
KQFX 311940Z AUTO 06001KT 6000 BKN002 OVC011 18/16 / RMK A02 TSNO,KQFX,2022-10-31T19:40:00Z,,,18.0,16.0,60,1,,3.73,,,,TRUE,TRUE,,,TRUE,,,,BKN,200,OVC,1100,,,,,LIFR,,,,,,,,,,,,METAR,
KQFW 311940Z AUTO 28001KT 4800 FEW180 04/04 A3004 RMK A02 TSNO,KQFW,2022-10-31T19:40:00Z,,,4.0,4.0,280,1,,2.98,30.041338,,,TRUE,TRUE,,,TRUE,,,,FEW,18000,,,,,,,IFR,,,,,,,,,,,,METAR,
KQFV 311940Z AUTO 14001KT 9000 CLR 04/04 A3023 RMK A02 TSNO,KQFV,2022-10-31T19:40:00Z,,,4.0,4.0,140,1,,5.59,30.230314,,,TRUE,TRUE,,,TRUE,,,,CLR,,,,,,,,VFR,,,,,,,,,,,,METAR,
KQFU 311940Z AUTO 13001KT M0400 FG CLR 10/10 A3024 RMK A02 TSNO,KQFU,2022-10-31T19:40:00Z,,,10.0,10.0,130,1,,0.25,30.239174,,,TRUE,TRUE,,,TRUE,,,FG,CLR,,,,,,,,LIFR,,,,,,,,,,,,METAR,
KQFT 311940Z AUTO 04001KT 8000 FEW004 BKN170 08/07 A3020 RMK A02 TSNO,KQFT,2022-10-31T19:40:00Z,,,8.0,7.0,40,1,,4.97,30.200787,,,TRUE,TRUE,,,TRUE,,,,FEW,400,BKN,17000,,,,,MVFR,,,,,,,,,,,,METAR,
KQFB 311940Z AUTO 31001KT 9000 BR CLR 06/05 A3024 RMK A02 TSNO,KQFB,2022-10-31T19:40:00Z,,,6.0,5.0,310,1,,5.59,30.239174,,,TRUE,TRUE,,,TRUE,,,BR,CLR,,,,,,,,VFR,,,,,,,,,,,,METAR,
KQEX 311940Z AUTO 35002KT 9000 CLR 08/07 A3013 RMK A02 TSNO,KQEX,2022-10-31T19:40:00Z,,,8.0,7.0,350,2,,5.59,30.129921,,,TRUE,TRUE,,,TRUE,,,,CLR,,,,,,,,VFR,,,,,,,,,,,,METAR,
KQEW 311940Z AUTO 10001KT 8000 CLR 06/05 A3020 RMK A02 TSNO,KQEW,2022-10-31T19:40:00Z,,,6.0,5.0,100,1,,4.97,30.200787,,,TRUE,TRUE,,,TRUE,,,,CLR,,,,,,,,MVFR,,,,,,,,,,,,METAR,
KQEV 311940Z AUTO 33003KT 3200 BR SCT010 07/07 A3018 RMK A02 TSNO,KQEV,2022-10-31T19:40:00Z,,,7.0,7.0,330,3,,1.99,30.180119,,,TRUE,TRUE,,,TRUE,,,BR,SCT,1000,,,,,,,IFR,,,,,,,,,,,,METAR,
KQEQ 311940Z AUTO 07002KT M0400 FG CLR 11/12 / RMK A02 TSNO,KQEQ,2022-10-31T19:40:00Z,,,11.0,12.0,70,2,,0.25,,,,TRUE,TRUE,,,TRUE,,,FG,CLR,,,,,,,,LIFR,,,,,,,,,,,,METAR,
KQEP 311940Z AUTO 12002KT 6000 BKN180 08/07 A3022 RMK A02 TSNO,KQEP,2022-10-31T19:40:00Z,,,8.0,7.0,120,2,,3.73,30.221457,,,TRUE,TRUE,,,TRUE,,,,BKN,18000,,,,,,,MVFR,,,,,,,,,,,,METAR,
KQEN 311940Z AUTO 26008KT 9999 BKN080 OVC0100 / / RMK A02 TSNO,KQEN,2022-10-31T19:40:00Z,,,,,260,8,,6.21,,,,TRUE,TRUE,,,TRUE,,,,BKN,8000,,,,,,,VFR,,,,,,,,,,,,METAR,
KQEJ 311940Z AUTO 00000KT 9999 FEW120 SCT200 21/21 / RMK A02 TSNO,KQEJ,2022-10-31T19:40:00Z,,,21.0,21.0,0,0,,6.21,,,,TRUE,TRUE,,,TRUE,,,,FEW,12000,SCT,20000,,,,,VFR,,,,,,,,,,,,METAR,
KQEI 311940Z AUTO 13001KT 9000 OVC003 06/05 A3020 RMK A02 TSNO,KQEI,2022-10-31T19:40:00Z,,,6.0,5.0,130,1,,5.59,30.200787,,,TRUE,TRUE,,,TRUE,,,,OVC,300,,,,,,,LIFR,,,,,,,,,,,,METAR,
KPIA 311940Z 35007KT 10SM BKN015 16/12 A2985 RMK AO2 T01610117,KPIA,2022-10-31T19:40:00Z,40.67,-89.68,16.1,11.7,350,7,,10.0,29.84941,,,,TRUE,,,,,,,BKN,1500,,,,,,,MVFR,,,,,,,,,,,,SPECI,200.0
KMTK 311940Z AUTO VRB04KT 10SM CLR 23/14 A3001 RMK A01,KMTK,2022-10-31T19:40:00Z,,,23.0,14.0,0,4,,10.0,30.008858,,,TRUE,TRUE,,,,,,,CLR,,,,,,,,VFR,,,,,,,,,,,,METAR,
KMQB 311940Z AUTO 31006KT 10SM CLR A2989 RMK AO2,KMQB,2022-10-31T19:40:00Z,40.52,-90.65,,,310,6,,10.0,29.890747,,,TRUE,TRUE,,,,,,,CLR,,,,,,,,VFR,,,,,,,,,,,,METAR,205.0
KMIE 311940Z 25011KT 10SM BKN016 OVC023 17/13 A2983 RMK AO2 RAE14 P0000 T01720133,KMIE,2022-10-31T19:40:00Z,40.23,-85.4,17.2,13.3,250,11,,10.0,29.828741,,,,TRUE,,,,,,,BKN,1600,OVC,2300,,,,,MVFR,,,,,,0.005,,,,,,METAR,286.0
KMHV 311940Z AUTO 13003KT 10SM CLR 21/M09 A3000 RMK A01,KMHV,2022-10-31T19:40:00Z,35.07,-118.15,21.0,-9.0,130,3,,10.0,30.0,,,TRUE,TRUE,,,,,,,CLR,,,,,,,,VFR,,,,,,,,,,,,METAR,841.0
KMDH 311940Z 29008KT 10SM BKN022 OVC031 16/12 A2991 RMK AO2 T01560117,KMDH,2022-10-31T19:40:00Z,37.78,-89.25,15.6,11.7,290,8,,10.0,29.911417,,,,TRUE,,,,,,,BKN,2200,OVC,3100,,,,,MVFR,,,,,,,,,,,,METAR,122.0
KFYM 311940Z AUTO VRB05G12KT 10SM FEW021 FEW026 OVC055 18/14 A2998 RMK A01,KFYM,2022-10-31T19:40:00Z,35.07,-86.57,18.0,14.0,0,5,12,10.0,29.97933,,,TRUE,TRUE,,,,,,,FEW,2100,FEW,2600,OVC,5500,,,VFR,,,,,,,,,,,,METAR,297.0
KBMG 311940Z 23009KT 10SM BKN013 BKN022 OVC090 16/13 A2986 RMK AO2 T01560133,KBMG,2022-10-31T19:40:00Z,39.15,-86.62,15.6,13.3,230,9,,10.0,29.861221,,,,TRUE,,,,,,,BKN,1300,BKN,2200,OVC,9000,,,MVFR,,,,,,,,,,,,SPECI,254.0
CYXU 311940Z 19006KT 2 1/2SM BR OVC002 14/14 A2981 RMK ST8 SLP100 DENSITY ALT 1200FT,CYXU,2022-10-31T19:40:00Z,43.03,-81.15,14.0,14.0,190,6,,2.5,29.811024,1010.0,,,,,,,,,BR,OVC,200,,,,,,,LIFR,,,,,,,,,,,,METAR,278.0
CYCB 311940Z 31012KT 4SM BR SCT004 OVC015 M21/M24 A2986 RMK SF4SC4 SLP120,CYCB,2022-10-31T19:40:00Z,69.1,-105.12,-21.0,-24.0,310,12,,4.0,29.861221,1012.0,,,,,,,,,BR,SCT,400,OVC,1500,,,,,MVFR,,,,,,,,,,,,SPECI,19.0
KLOU 311939Z 21007KT 10SM BKN026 OVC080 18/14 A2988 RMK AO2 T01780139,KLOU,2022-10-31T19:39:00Z,38.22,-85.67,17.8,13.9,210,7,,10.0,29.878937,,,,TRUE,,,,,,,BKN,2600,OVC,8000,,,,,MVFR,,,,,,,,,,,,METAR,165.0
KIND 311939Z 22009KT 10SM -RA SCT014 OVC060 15/13 A2984 RMK AO2 P0003 T01500133,KIND,2022-10-31T19:39:00Z,39.72,-86.27,15.0,13.3,220,9,,10.0,29.840551,,,,TRUE,,,,,,-RA,SCT,1400,OVC,6000,,,,,VFR,,,,,,0.03,,,,,,METAR,242.0
KHDC 311939Z AUTO 03003KT 10SM BKN050 25/12 A3000 RMK AO2,KHDC,2022-10-31T19:39:00Z,30.52,-90.42,25.0,12.0,30,3,,10.0,30.0,,,TRUE,TRUE,,,,,,,BKN,5000,,,,,,,VFR,,,,,,,,,,,,METAR,12.0
KGEZ 311939Z AUTO 21010KT 10SM SCT007 BKN011 OVC028 17/15 A2984 RMK AO2 RAB1857E27 P0001 T01720150,KGEZ,2022-10-31T19:39:00Z,39.58,-85.8,17.2,15.0,210,10,,10.0,29.840551,,,TRUE,TRUE,,,,,,,SCT,700,BKN,1100,OVC,2800,,,MVFR,,,,,,0.01,,,,,,METAR,245.0
KFME 311939Z AUTO 20005KT 10SM OVC024 18/12 A3002 RMK AO1,KFME,2022-10-31T19:39:00Z,39.08,-76.77,18.0,12.0,200,5,,10.0,30.02067,,,TRUE,TRUE,,,,,,,OVC,2400,,,,,,,MVFR,,,,,,,,,,,,METAR,43.0
KEKN 311939Z AUTO 18005KT 10SM BKN029 OVC037 17/14 A2996 RMK AO2 RAE17 P0004 T01720144,KEKN,2022-10-31T19:39:00Z,38.88,-79.85,17.2,14.4,180,5,,10.0,29.958662,,,TRUE,TRUE,,,,,,,BKN,2900,OVC,3700,,,,,MVFR,,,,,,0.04,,,,,,SPECI,596.0
KDET 311939Z 22005KT 3SM HZ BKN009 OVC013 18/15 A2980 RMK AO2 CIG 008V011 T01780150,KDET,2022-10-31T19:39:00Z,42.4,-83.02,17.8,15.0,220,5,,3.0,29.799213,,,,TRUE,,,,,,HZ,BKN,900,OVC,1300,,,,,IFR,,,,,,,,,,,,METAR,190.0
KCLT 311939Z 32003KT 4SM -RA BR SCT003 BKN009 OVC065 17/16 A3000 RMK P0017 T01670161 $,KCLT,2022-10-31T19:39:00Z,35.22,-80.95,16.7,16.1,320,3,,4.0,30.0,,,,,TRUE,,,,,-RA BR,SCT,300,BKN,900,OVC,6500,,,IFR,,,,,,0.17,,,,,,METAR,223.0
KAVL 311939Z 19008KT 10SM SCT014 SCT060 18/14 A2999 RMK AO2 T01830139,KAVL,2022-10-31T19:39:00Z,35.43,-82.53,18.3,13.9,190,8,,10.0,29.991142,,,,TRUE,,,,,,,SCT,1400,SCT,6000,,,,,VFR,,,,,,,,,,,,METAR,646.0
K2W6 311939Z AUTO 20005KT 10SM SCT028 SCT041 BKN095 20/13 A3002 RMK AO1,K2W6,2022-10-31T19:39:00Z,38.32,-76.55,20.0,13.0,200,5,,10.0,30.02067,,,TRUE,TRUE,,,,,,,SCT,2800,SCT,4100,BKN,9500,,,VFR,,,,,,,,,,,,METAR,40.0
LEBB 311938Z VRB01KT 8000 -RA SCT025 BKN040 16/15 Q1018 RERA TEMPO 3000 RA,LEBB,2022-10-31T19:38:00Z,43.28,-2.92,16.0,15.0,0,1,,4.97,30.059055,,,,,,,,,,-RA,SCT,2500,BKN,4000,,,,,MVFR,,,,,,,,,,,,SPECI,38.0
KRGA 311938Z AUTO 00000KT 10SM SCT029 SCT036 OVC060 18/13 A2993 RMK AO2,KRGA,2022-10-31T19:38:00Z,37.63,-84.33,18.0,13.0,0,0,,10.0,29.929134,,,TRUE,TRUE,,,,,,,SCT,2900,SCT,3600,OVC,6000,,,VFR,,,,,,,,,,,,METAR,301.0
KLWV 311938Z AUTO 26011KT 2 1/2SM HZ BKN021 OVC028 17/13 A2987 RMK AO2 T01720128 $,KLWV,2022-10-31T19:38:00Z,38.77,-87.6,17.2,12.8,260,11,,2.5,29.870079,,,TRUE,TRUE,TRUE,,,,,HZ,BKN,2100,OVC,2800,,,,,IFR,,,,,,,,,,,,METAR,128.0
KAKH 311938Z AUTO 00000KT 9SM BKN005 OVC013 16/16 A3000 RMK AO2 RAE05B26E37 P0001 T01610156,KAKH,2022-10-31T19:38:00Z,35.2,-81.15,16.1,15.6,0,0,,9.0,30.0,,,TRUE,TRUE,,,,,,,BKN,500,OVC,1300,,,,,IFR,,,,,,0.01,,,,,,METAR,242.0
CYMJ 311938Z 33006KT 12SM -SHRA BKN045 OVC065 07/M01 A2970 RMK SC5SC3 VIS W-NW 8 SLP072,CYMJ,2022-10-31T19:38:00Z,50.32,-105.55,7.0,-1.0,330,6,,12.0,29.698818,1007.2,,,,,,,,,-SHRA,BKN,4500,OVC,6500,,,,,VFR,,,,,,,,,,,,SPECI,578.0
PMDY 311937Z AUTO 09009KT 10SM BKN023 25/21 A3011 RMK AO2 TSNO,PMDY,2022-10-31T19:37:00Z,28.22,-177.37,25.0,21.0,90,9,,10.0,30.109253,,,TRUE,TRUE,,,TRUE,,,,BKN,2300,,,,,,,MVFR,,,,,,,,,,,,METAR,6.0
PHNY 311937Z AUTO 01007KT 070V060 10SM BKN025 26/20 A3010 RMK AO2 $,PHNY,2022-10-31T19:37:00Z,20.77,-156.95,26.0,20.0,10,7,,10.0,30.100393,,,TRUE,TRUE,TRUE,,,,,,BKN,2500,,,,,,,MVFR,,,,,,,,,,,,METAR,395.0
MKJP 311937Z 10028KT 9999 -SHRA BKN016 BKN018CB 26/23 Q1009,MKJP,2022-10-31T19:37:00Z,17.93,-76.78,26.0,23.0,100,28,,6.21,29.793306,,,,,,,,,,-SHRA,BKN,1600,BKN,1800,,,,,MVFR,,,,,,,,,,,,SPECI,3.0
KGVL 311937Z AUTO 00000KT 7SM BKN007 OVC014 18/16 A3000 RMK AO2 T01780156,KGVL,2022-10-31T19:37:00Z,34.27,-83.83,17.8,15.6,0,0,,7.0,30.0,,,TRUE,TRUE,,,,,,,BKN,700,OVC,1400,,,,,IFR,,,,,,,,,,,,METAR,387.0
KCKC 311937Z AUTO 19008G14KT 10SM CLR 13/M01 A2972 RMK AO2,KCKC,2022-10-31T19:37:00Z,47.83,-90.38,13.0,-1.0,190,8,14,10.0,29.719488,,,TRUE,TRUE,,,,,,,CLR,,,,,,,,VFR,,,,,,,,,,,,METAR,544.0
CYXS 311937Z AUTO 16006KT 9SM CLR 02/M01 A2956 RMK SLP038,CYXS,2022-10-31T19:37:00Z,53.88,-122.68,2.0,-1.0,160,6,,9.0,29.56004,1003.8,,TRUE,,,,,,,,CLR,,,,,,,,VFR,,,,,,,,,,,,SPECI,685.0
CYPQ 311937Z AUTO 12005KT 080V170 9SM BKN023 BKN032 OVC060 12/10 A2985 RMK SLP113,CYPQ,2022-10-31T19:37:00Z,44.22,-78.37,12.0,10.0,120,5,,9.0,29.84941,1011.3,,TRUE,,,,,,,,BKN,2300,BKN,3200,OVC,6000,,,MVFR,,,,,,,,,,,,SPECI,190.0
CYIN 311937Z AUTO 30004KT 3/4SM -SN SCT007 OVC012 00/M00 A2954 RMK SLP034,CYIN,2022-10-31T19:37:00Z,51.27,-121.68,0.0,0.0,300,4,,0.75,29.53937,1003.4,,TRUE,,,,,,,-SN,SCT,700,OVC,1200,,,,,LIFR,,,,,,,,,,,,SPECI,1127.0
KSPB 311936Z AUTO 29005KT 9SM -RA FEW005 BKN030 OVC038 13/11 A2991 RMK AO2 P0001 T01280106,KSPB,2022-10-31T19:36:00Z,45.77,-122.87,12.8,10.6,290,5,,9.0,29.911417,,,TRUE,TRUE,,,,,,-RA,FEW,500,BKN,3000,OVC,3800,,,MVFR,,,,,,0.01,,,,,,METAR,15.0
KGUS 311936Z AUTO 24011KT 10SM FEW002 OVC006 15/14 A2979 RMK AO2 RAB1855E31DZB31E36 SLP090 PNO $,KGUS,2022-10-31T19:36:00Z,40.63,-86.15,15.0,14.0,240,11,,10.0,29.790354,1009.0,,TRUE,TRUE,TRUE,,,,,,FEW,200,OVC,600,,,,,IFR,,,,,,,,,,,,SPECI,245.0
KAPS 311936Z AUTO 29005KT 10SM BKN050 24/12 A3000 RMK AO2,KAPS,2022-10-31T19:36:00Z,30.08,-90.58,24.0,12.0,290,5,,10.0,30.0,,,TRUE,TRUE,,,,,,,BKN,5000,,,,,,,VFR,,,,,,,,,,,,METAR,1.0
EGUB 311936Z 12012KT 9999 -RA FEW009 SCT024 BKN080 14/13 Q1001 TEMPO 4000 RA BKN010 RMK WHT TEMPO GRN,EGUB,2022-10-31T19:36:00Z,51.62,-1.08,14.0,13.0,120,12,,6.21,29.557087,,,,,,,,,,-RA,FEW,900,SCT,2400,BKN,8000,,,VFR,,,,,,,,,,,,SPECI,56.0
CYMH 311936Z AUTO 33014G23KT 9SM -RA OVC016 03/01 A2970 RMK PRESRR SLP061,CYMH,2022-10-31T19:36:00Z,52.3,-55.82,3.0,1.0,330,14,23,9.0,29.698818,1006.1,,TRUE,,,,,,,-RA,OVC,1600,,,,,,,MVFR,,,,,,,,,,,,SPECI,18.0
CYKF 311936Z AUTO 15005KT 3SM BR BKN004 OVC012 13/12 A2982 RMK SLP102 DENSITY ALT 1200FT,CYKF,2022-10-31T19:36:00Z,43.47,-80.38,13.0,12.0,150,5,,3.0,29.819881,1010.2,,TRUE,,,,,,,BR,BKN,400,OVC,1200,,,,,LIFR,,,,,,,,,,,,SPECI,312.0
CBBC 311936Z AUTO 13006KT 9SM FEW013 BKN023 OVC033 05/04 A2975 RMK SLP079,CBBC,2022-10-31T19:36:00Z,52.18,-128.15,5.0,4.0,130,6,,9.0,29.749016,1007.9,,TRUE,,,,,,,,FEW,1300,BKN,2300,OVC,3300,,,MVFR,,,,,,,,,,,,SPECI,36.0
YMOR 311935Z AUTO 30014KT 8000 // SCT017 SCT030 SCT064 12/11 Q1003,YMOR,2022-10-31T19:35:00Z,-29.5,149.85,12.0,11.0,300,14,,4.97,29.616142,,,TRUE,,,,,,,,SCT,1700,SCT,3000,SCT,6400,,,MVFR,,,,,,,,,,,,SPECI,211.0
SBGL 311935Z 32015G25KT 2000 TSRA SCT005 SCT020 SCT025CB OVC060 24/23 Q1009,SBGL,2022-10-31T19:35:00Z,-22.82,-43.25,24.0,23.0,320,15,25,1.24,29.793306,,,,,,,,,,TSRA,SCT,500,SCT,2000,SCT,2500,OVC,6000,IFR,,,,,,,,,,,,METAR,3.0
PAUT 311935Z AUTO 19009KT 10SM SCT050 SCT120 03/00 A3021 RMK AO2,PAUT,2022-10-31T19:35:00Z,54.13,-165.6,3.0,0.0,190,9,,10.0,30.209646,,,TRUE,TRUE,,,,,,,SCT,5000,SCT,12000,,,,,VFR,,,,,,,,,,,,METAR,25.0
PAAD 311935Z AUTO 11012KT 10SM OVC015 M10/M13 A3010 RMK AO2 T11051130,PAAD,2022-10-31T19:35:00Z,70.13,-146.28,-10.5,-13.0,110,12,,10.0,30.100393,,,TRUE,TRUE,,,,,,,OVC,1500,,,,,,,MVFR,,,,,,,,,,,,METAR,8.0
KZPH 311935Z AUTO 32004KT 10SM SCT060 31/19 A2996 RMK A02 T03070185,KZPH,2022-10-31T19:35:00Z,28.23,-82.15,30.7,18.5,320,4,,10.0,29.958662,,,TRUE,TRUE,,,,,,,SCT,6000,,,,,,,VFR,,,,,,,,,,,,METAR,26.0
KZER 311935Z AUTO 15005KT 7SM BKN007 OVC013 11/10 A3000 RMK AO2,KZER,2022-10-31T19:35:00Z,,,11.0,10.0,150,5,,7.0,30.0,,,TRUE,TRUE,,,,,,,BKN,700,OVC,1300,,,,,IFR,,,,,,,,,,,,SPECI,
KY70 311935Z AUTO 00000KT 7SM OVC006 14/14 A2980 RMK AO2 T01390139,KY70,2022-10-31T19:35:00Z,42.93,-85.07,13.9,13.9,0,0,,7.0,29.799213,,,TRUE,TRUE,,,,,,,OVC,600,,,,,,,IFR,,,,,,,,,,,,METAR,247.0
KY63 311935Z AUTO 21009KT 10SM CLR 19/M01 A2977 RMK AO2 T01891007,KY63,2022-10-31T19:35:00Z,45.98,-96.0,18.9,-0.7,210,9,,10.0,29.769686,,,TRUE,TRUE,,,,,,,CLR,,,,,,,,VFR,,,,,,,,,,,,METAR,367.0
KY51 311935Z AUTO 00000KT 10SM CLR 17/06 A2983 RMK AO1 T01710060,KY51,2022-10-31T19:35:00Z,43.58,-90.9,17.1,6.0,0,0,,10.0,29.828741,,,TRUE,TRUE,,,,,,,CLR,,,,,,,,VFR,,,,,,,,,,,,METAR,390.0
KY49 311935Z AUTO 22009KT 10SM CLR 16/M01 A2973 RMK AO2 T01581008,KY49,2022-10-31T19:35:00Z,47.15,-94.65,15.8,-0.8,220,9,,10.0,29.731298,,,TRUE,TRUE,,,,,,,CLR,,,,,,,,VFR,,,,,,,,,,,,METAR,413.0
KY31 311935Z AUTO 30004KT 10SM CLR 18/09 A2978 RMK AO2 T01820085,KY31,2022-10-31T19:35:00Z,44.25,-84.18,18.2,8.5,300,4,,10.0,29.778543,,,TRUE,TRUE,,,,,,,CLR,,,,,,,,VFR,,,,,,,,,,,,METAR,264.0
KY23 311935Z AUTO 20006KT 10SM CLR 18/03 A2981 RMK AO2 T01800029,KY23,2022-10-31T19:35:00Z,45.3,-91.63,18.0,2.9,200,6,,10.0,29.811024,,,TRUE,TRUE,,,,,,,CLR,,,,,,,,VFR,,,,,,,,,,,,METAR,322.0
KY19 311935Z AUTO 27005KT 10SM CLR 15/03 A2976 RMK AO2,KY19,2022-10-31T19:35:00Z,46.77,-100.9,15.0,3.0,270,5,,10.0,29.760826,,,TRUE,TRUE,,,,,,,CLR,,,,,,,,VFR,,,,,,,,,,,,METAR,591.0
KXSA 311935Z AUTO 17006KT 10SM BKN032 BKN055 21/15 A3002 RMK AO2 T02130150,KXSA,2022-10-31T19:35:00Z,37.87,-76.9,21.3,15.0,170,6,,10.0,30.02067,,,TRUE,TRUE,,,,,,,BKN,3200,BKN,5500,,,,,VFR,,,,,,,,,,,,SPECI,41.0
KXNX 311935Z AUTO 21005KT 10SM FEW028 SCT042 OVC065 19/15 A2996 RMK A01,KXNX,2022-10-31T19:35:00Z,36.38,-86.42,19.0,15.0,210,5,,10.0,29.958662,,,TRUE,TRUE,,,,,,,FEW,2800,SCT,4200,OVC,6500,,,VFR,,,,,,,,,,,,SPECI,178.0
KXLL 311935Z AUTO 18004KT 10SM BKN024 OVC030 17/12 A3000 RMK AO2,KXLL,2022-10-31T19:35:00Z,40.57,-75.48,17.0,12.0,180,4,,10.0,30.0,,,TRUE,TRUE,,,,,,,BKN,2400,OVC,3000,,,,,MVFR,,,,,,,,,,,,METAR,118.0
KXER 311935Z AUTO 36008KT 10SM 23/16 A2992 RMK A01,KXER,2022-10-31T19:35:00Z,,,23.0,16.0,360,8,,10.0,29.920275,,,TRUE,TRUE,,,,,,,,,,,,,,,,,,,,,,,,,,,METAR,
KXBP 311935Z AUTO 09004KT 10SM CLR 24/07 A3003 RMK AO2 T02410071,KXBP,2022-10-31T19:35:00Z,33.18,-97.83,24.1,7.1,90,4,,10.0,30.029528,,,TRUE,TRUE,,,,,,,CLR,,,,,,,,VFR,,,,,,,,,,,,SPECI,256.0
KX60 311935Z AUTO 00000KT 10SM SCT050 OVC070 29/18 A2996 RMK AO2,KX60,2022-10-31T19:35:00Z,29.35,-82.47,29.0,18.0,0,0,,10.0,29.958662,,,TRUE,TRUE,,,,,,,SCT,5000,OVC,7000,,,,,VFR,,,,,,,,,,,,SPECI,21.0
KX26 311935Z AUTO 06009KT 10SM SCT023 BKN028 28/23 A2995 RMK AO2 T02810229,KX26,2022-10-31T19:35:00Z,27.82,-80.5,28.1,22.9,60,9,,10.0,29.949802,,,TRUE,TRUE,,,,,,,SCT,2300,BKN,2800,,,,,MVFR,,,,,,,,,,,,METAR,5.0
KX07 311935Z AUTO 00000KT 10SM CLR 31/20 A2995 RMK A01,KX07,2022-10-31T19:35:00Z,27.9,-81.62,31.0,20.0,0,0,,10.0,29.949802,,,TRUE,TRUE,,,,,,,CLR,,,,,,,,VFR,,,,,,,,,,,,METAR,36.0
KWWR 311935Z AUTO 24007KT 10SM CLR 23/01 A3000 RMK AO2,KWWR,2022-10-31T19:35:00Z,36.45,-99.52,23.0,1.0,240,7,,10.0,30.0,,,TRUE,TRUE,,,,,,,CLR,,,,,,,,VFR,,,,,,,,,,,,METAR,664.0
KWDR 311935Z AUTO 00000KT 5SM BR OVC004 17/16 A3000 RMK AO2,KWDR,2022-10-31T19:35:00Z,33.98,-83.67,17.0,16.0,0,0,,5.0,30.0,,,TRUE,TRUE,,,,,,BR,OVC,400,,,,,,,LIFR,,,,,,,,,,,,METAR,280.0
KWBF 311935Z AUTO 00000KT 27/18 A3000 RMK A01,KWBF,2022-10-31T19:35:00Z,26.93,-90.5,27.0,18.0,0,0,,,30.0,,,TRUE,TRUE,,,,,,,,,,,,,,,,,,,,,,,,,,,METAR,40.0
KW96 311935Z AUTO 19004KT 10SM SCT095 22/14 A3001 RMK AO1 T02160136,KW96,2022-10-31T19:35:00Z,37.5,-77.12,21.6,13.6,190,4,,10.0,30.008858,,,TRUE,TRUE,,,,,,,SCT,9500,,,,,,,VFR,,,,,,,,,,,,SPECI,35.0
KW81 311935Z AUTO 15006KT 10SM BKN033 BKN040 21/12 A3000 RMK AO1 T02110122,KW81,2022-10-31T19:35:00Z,37.18,-78.1,21.1,12.2,150,6,,10.0,30.0,,,TRUE,TRUE,,,,,,,BKN,3300,BKN,4000,,,,,VFR,,,,,,,,,,,,SPECI,121.0
KW78 311935Z AUTO 19004KT 10SM OVC032 21/15 A3001 RMK AO1 T02070152,KW78,2022-10-31T19:35:00Z,36.7,-78.85,20.7,15.2,190,4,,10.0,30.008858,,,TRUE,TRUE,,,,,,,OVC,3200,,,,,,,VFR,,,,,,,,,,,,METAR,120.0
KW43 311935Z AUTO 23009KT 10SM CLR 17/M05 A2986 RMK AO2,KW43,2022-10-31T19:35:00Z,44.67,-104.57,17.0,-5.0,230,9,,10.0,29.861221,,,TRUE,TRUE,,,,,,,CLR,,,,,,,,VFR,,,,,,,,,,,,METAR,1292.0
KW31 311935Z AUTO 00000KT 10SM SCT032 OVC038 21/15 A3001 RMK AO1 T02060150,KW31,2022-10-31T19:35:00Z,36.95,-78.18,20.6,15.0,0,0,,10.0,30.008858,,,TRUE,TRUE,,,,,,,SCT,3200,OVC,3800,,,,,VFR,,,,,,,,,,,,SPECI,159.0
KW29 311935Z AUTO 17007KT 10SM BKN029 OVC060 19/14 A3001 RMK AO2 T01860138,KW29,2022-10-31T19:35:00Z,38.98,-76.33,18.6,13.8,170,7,,10.0,30.008858,,,TRUE,TRUE,,,,,,,BKN,2900,OVC,6000,,,,,MVFR,,,,,,,,,,,,METAR,1.0
KW22 311935Z AUTO 00000KT 10SM 17/17 A2995 RMK AO2,KW22,2022-10-31T19:35:00Z,39.0,-80.27,17.0,17.0,0,0,,10.0,29.949802,,,TRUE,TRUE,,,,,,,,,,,,,,,,,,,,,,,,,,,METAR,497.0
KVYS 311935Z AUTO 29006KT 10SM OVC020 16/12 A2983 RMK AO2 T01550121,KVYS,2022-10-31T19:35:00Z,41.35,-89.15,15.5,12.1,290,6,,10.0,29.828741,,,TRUE,TRUE,,,,,,,OVC,2000,,,,,,,MVFR,,,,,,,,,,,,METAR,198.0
KVWU 311935Z AUTO 25005KT 10SM CLR 13/03 A2969 RMK AO2,KVWU,2022-10-31T19:35:00Z,48.15,-94.52,13.0,3.0,250,5,,10.0,29.68996,,,TRUE,TRUE,,,,,,,CLR,,,,,,,,VFR,,,,,,,,,,,,METAR,359.0
KVVV 311935Z 21004KT 10SM 21/M02 A2976 RMK AO2,KVVV,2022-10-31T19:35:00Z,45.3,-96.42,21.0,-2.0,210,4,,10.0,29.760826,,,,TRUE,,,,,,,,,,,,,,,,,,,,,,,,,,,METAR,334.0
KVVS 311935Z AUTO 22007KT 10SM OVC011 17/15 A2994 RMK AO2 T01700148,KVVS,2022-10-31T19:35:00Z,39.95,-79.65,17.0,14.8,220,7,,10.0,29.940945,,,TRUE,TRUE,,,,,,,OVC,1100,,,,,,,MVFR,,,,,,,,,,,,METAR,386.0
KVUJ 311935Z AUTO 18006KT 10SM BKN017 BKN032 OVC100 22/18 A3002 RMK AO2 T02220181,KVUJ,2022-10-31T19:35:00Z,35.42,-80.15,22.2,18.1,180,6,,10.0,30.02067,,,TRUE,TRUE,,,,,,,BKN,1700,BKN,3200,OVC,10000,,,MVFR,,,,,,,,,,,,SPECI,174.0
KVTP 311935Z AUTO 26011G16KT 10SM CLR 02/M09 A3017 RMK AO2,KVTP,2022-10-31T19:35:00Z,37.5,-105.17,2.0,-9.0,260,11,16,10.0,30.171259,,,TRUE,TRUE,,,,,,,CLR,,,,,,,,VFR,,,,,,,,,,,,METAR,3086.0
KVTI 311935Z AUTO 29006KT 10SM CLR 20/03 A2986 RMK AO2 T02020030,KVTI,2022-10-31T19:35:00Z,42.22,-92.02,20.2,3.0,290,6,,10.0,29.861221,,,TRUE,TRUE,,,,,,,CLR,,,,,,,,VFR,,,,,,,,,,,,METAR,256.0
KVPC 311935Z AUTO VRB04KT 10SM FEW041 BKN050 21/12 A2998 RMK AO2,KVPC,2022-10-31T19:35:00Z,34.1,-84.85,21.0,12.0,0,4,,10.0,29.97933,,,TRUE,TRUE,,,,,,,FEW,4100,BKN,5000,,,,,VFR,,,,,,,,,,,,METAR,234.0
KVNW 311935Z AUTO 23006KT 7SM SCT029 BKN044 OVC050 16/13 A2983 RMK AO2,KVNW,2022-10-31T19:35:00Z,40.87,-84.62,16.0,13.0,230,6,,7.0,29.828741,,,TRUE,TRUE,,,,,,,SCT,2900,BKN,4400,OVC,5000,,,VFR,,,,,,,,,,,,SPECI,238.0
KVLL 311935Z AUTO 23003KT 10SM OVC007 15/13 A2982 RMK AO2 T01450132,KVLL,2022-10-31T19:35:00Z,42.55,-83.18,14.5,13.2,230,3,,10.0,29.819881,,,TRUE,TRUE,,,,,,,OVC,700,,,,,,,IFR,,,,,,,,,,,,METAR,214.0
KVKS 311935Z AUTO 27006KT 10SM CLR 24/13 A2999 RMK A01,KVKS,2022-10-31T19:35:00Z,32.23,-90.93,24.0,13.0,270,6,,10.0,29.991142,,,TRUE,TRUE,,,,,,,CLR,,,,,,,,VFR,,,,,,,,,,,,METAR,31.0
KVJI 311935Z AUTO 00000KT 10SM SCT010 SCT029 BKN065 18/17 A2998 RMK AO2 T01800165,KVJI,2022-10-31T19:35:00Z,36.68,-82.03,18.0,16.5,0,0,,10.0,29.97933,,,TRUE,TRUE,,,,,,,SCT,1000,SCT,2900,BKN,6500,,,VFR,,,,,,,,,,,,METAR,636.0
KVHN 311935Z AUTO 00000KT 10SM CLR 20/04 A3005 RMK AO2 T02040036,KVHN,2022-10-31T19:35:00Z,31.07,-104.78,20.4,3.6,0,0,,10.0,30.050198,,,TRUE,TRUE,,,,,,,CLR,,,,,,,,VFR,,,,,,,,,,,,METAR,1200.0
KVGC 311935Z AUTO 16006KT 10SM BKN034 15/07 A2993 RMK AO2,KVGC,2022-10-31T19:35:00Z,42.85,-75.57,15.0,7.0,160,6,,10.0,29.929134,,,TRUE,TRUE,,,,,,,BKN,3400,,,,,,,VFR,,,,,,,,,,,,METAR,346.0
KVES 311935Z AUTO 26010G15KT 10SM SCT027 BKN038 OVC055 17/12 A2985 RMK AO2,KVES,2022-10-31T19:35:00Z,40.2,-84.53,17.0,12.0,260,10,15,10.0,29.84941,,,TRUE,TRUE,,,,,,,SCT,2700,BKN,3800,OVC,5500,,,VFR,,,,,,,,,,,,METAR,308.0
KVER 311935Z AUTO 28007KT 10SM CLR 19/07 A2992 RMK AO2 T01940066,KVER,2022-10-31T19:35:00Z,38.95,-92.68,19.4,6.6,280,7,,10.0,29.920275,,,TRUE,TRUE,,,,,,,CLR,,,,,,,,VFR,,,,,,,,,,,,METAR,209.0
KVDI 311935Z AUTO 22008KT 10SM BKN035 BKN042 OVC060 29/19 A2997 RMK AO2,KVDI,2022-10-31T19:35:00Z,32.2,-82.37,29.0,19.0,220,8,,10.0,29.970472,,,TRUE,TRUE,,,,,,,BKN,3500,BKN,4200,OVC,6000,,,VFR,,,,,,,,,,,,SPECI,81.0
KVDF 311935Z AUTO 00000KT 10SM CLR 31/20 A2995 RMK AO2,KVDF,2022-10-31T19:35:00Z,28.02,-82.33,31.0,20.0,0,0,,10.0,29.949802,,,TRUE,TRUE,,,,,,,CLR,,,,,,,,VFR,,,,,,,,,,,,SPECI,5.0
KVCV 311935Z AUTO 00000KT 10SM CLR 22/M09 A3002 RMK AO2,KVCV,2022-10-31T19:35:00Z,34.58,-117.38,22.0,-9.0,0,0,,10.0,30.02067,,,TRUE,TRUE,,,,,,,CLR,,,,,,,,VFR,,,,,,,,,,,,METAR,871.0
KVAF 311935Z AUTO 07010KT 10SM FEW038 26/14 A2999 RMK A01,KVAF,2022-10-31T19:35:00Z,27.35,-94.63,26.0,14.0,70,10,,10.0,29.991142,,,TRUE,TRUE,,,,,,,FEW,3800,,,,,,,VFR,,,,,,,,,,,,METAR,38.0
KUYF 311935Z AUTO 21013KT 10SM SCT024 SCT029 OVC065 17/12 A2987 RMK AO2,KUYF,2022-10-31T19:35:00Z,39.93,-83.47,17.0,12.0,210,13,,10.0,29.870079,,,TRUE,TRUE,,,,,,,SCT,2400,SCT,2900,OVC,6500,,,VFR,,,,,,,,,,,,METAR,326.0
KUXL 311935Z AUTO 32004KT 10SM CLR 25/12 A3001 RMK AO2 T02540115,KUXL,2022-10-31T19:35:00Z,30.13,-93.38,25.4,11.5,320,4,,10.0,30.008858,,,TRUE,TRUE,,,,,,,CLR,,,,,,,,VFR,,,,,,,,,,,,METAR,2.0
KUVA 311935Z AUTO 11007KT 10SM SCT046 BKN080 25/13 A3000 RMK AO2 T02450127,KUVA,2022-10-31T19:35:00Z,29.22,-99.75,24.5,12.7,110,7,,10.0,30.0,,,TRUE,TRUE,,,,,,,SCT,4600,BKN,8000,,,,,VFR,,,,,,,,,,,,METAR,285.0
KUTA 311935Z AUTO 28005KT 10SM BKN035 BKN045 21/14 A2996 RMK AO2 T02140135 $,KUTA,2022-10-31T19:35:00Z,34.68,-90.35,21.4,13.5,280,5,,10.0,29.958662,,,TRUE,TRUE,TRUE,,,,,,BKN,3500,BKN,4500,,,,,VFR,,,,,,,,,,,,METAR,58.0
KUSE 311935Z AUTO 24013KT 10SM SCT023 BKN030 OVC070 17/17 A2980 RMK AO2,KUSE,2022-10-31T19:35:00Z,41.62,-84.13,17.0,17.0,240,13,,10.0,29.799213,,,TRUE,TRUE,,,,,,,SCT,2300,BKN,3000,OVC,7000,,,MVFR,,,,,,,,,,,,METAR,237.0
KUOX 311935Z AUTO 30008G14KT 10SM BKN035 OVC041 20/12 A2998 RMK AO2,KUOX,2022-10-31T19:35:00Z,34.38,-89.53,20.0,12.0,300,8,14,10.0,29.97933,,,TRUE,TRUE,,,,,,,BKN,3500,OVC,4100,,,,,VFR,,,,,,,,,,,,SPECI,123.0
KUNU 311935Z AUTO 24005KT 10SM CLR 17/05 A2981 RMK AO2 T01720050,KUNU,2022-10-31T19:35:00Z,43.42,-88.7,17.2,5.0,240,5,,10.0,29.811024,,,TRUE,TRUE,,,,,,,CLR,,,,,,,,VFR,,,,,,,,,,,,SPECI,281.0
KUNI 311935Z AUTO 20003KT 10SM OVC065 19/14 A2989 RMK AO2 T01930144,KUNI,2022-10-31T19:35:00Z,39.22,-82.23,19.3,14.4,200,3,,10.0,29.890747,,,TRUE,TRUE,,,,,,,OVC,6500,,,,,,,VFR,,,,,,,,,,,,METAR,232.0
KUMP 311935Z AUTO 24004KT 1 3/4SM BKN010 OVC016 16/16 A2984 RMK AO2 P0004 T01600155,KUMP,2022-10-31T19:35:00Z,39.93,-86.05,16.0,15.5,240,4,,1.75,29.840551,,,TRUE,TRUE,,,,,,,BKN,1000,OVC,1600,,,,,IFR,,,,,,0.04,,,,,,METAR,247.0
KULS 311935Z AUTO 26009KT 10SM CLR 22/00 A2993 RMK AO2,KULS,2022-10-31T19:35:00Z,37.6,-101.37,22.0,0.0,260,9,,10.0,29.929134,,,TRUE,TRUE,,,,,,,CLR,,,,,,,,VFR,,,,,,,,,,,,METAR,934.0
KULM 311935Z AUTO 22005KT 10SM CLR 19/M04 A2982 RMK AO2,KULM,2022-10-31T19:35:00Z,44.32,-94.5,19.0,-4.0,220,5,,10.0,29.819881,,,TRUE,TRUE,,,,,,,CLR,,,,,,,,VFR,,,,,,,,,,,,METAR,305.0
KUKT 311935Z AUTO 22005KT 10SM OVC022 17/13 A3000 RMK A01,KUKT,2022-10-31T19:35:00Z,40.43,-75.38,17.0,13.0,220,5,,10.0,30.0,,,TRUE,TRUE,,,,,,,OVC,2200,,,,,,,MVFR,,,,,,,,,,,,METAR,156.0
KUKL 311935Z AUTO 24005KT 10SM CLR A2996 RMK AO2,KUKL,2022-10-31T19:35:00Z,38.3,-95.73,,,240,5,,10.0,29.958662,,,TRUE,TRUE,,,,,,,CLR,,,,,,,,VFR,,,,,,,,,,,,SPECI,357.0
KUKF 311935Z AUTO 00000KT 10SM OVC005 13/13 A3005 RMK AO2,KUKF,2022-10-31T19:35:00Z,36.22,-81.1,13.0,13.0,0,0,,10.0,30.050198,,,TRUE,TRUE,,,,,,,OVC,500,,,,,,,IFR,,,,,,,,,,,,METAR,383.0
KUCY 311935Z AUTO 23011KT 10SM FEW017 SCT037 OVC050 18/15 A2992 RMK A01,KUCY,2022-10-31T19:35:00Z,36.38,-88.98,18.0,15.0,230,11,,10.0,29.920275,,,TRUE,TRUE,,,,,,,FEW,1700,SCT,3700,OVC,5000,,,VFR,,,,,,,,,,,,METAR,97.0
KUBE 311935Z AUTO 24008KT 10SM CLR 17/03 A2981 RMK AO2,KUBE,2022-10-31T19:35:00Z,45.5,-91.98,17.0,3.0,240,8,,10.0,29.811024,,,TRUE,TRUE,,,,,,,CLR,,,,,,,,VFR,,,,,,,,,,,,METAR,376.0
KU68 311935Z AUTO 13012G17KT 10SM CLR 13/M06 A2989 RMK AO2,KU68,2022-10-31T19:35:00Z,44.92,-108.45,13.0,-6.0,130,12,17,10.0,29.890747,,,TRUE,TRUE,,,,,,,CLR,,,,,,,,VFR,,,,,,,,,,,,METAR,1244.0
KU55 311935Z AUTO 02003KT 10SM 11/M07 A3016 RMK A01,KU55,2022-10-31T19:35:00Z,37.85,-112.38,11.0,-7.0,20,3,,10.0,30.159449,,,TRUE,TRUE,,,,,,,,,,,,,,,,,,,,,,,,,,,METAR,2060.0
KU42 311935Z AUTO 13005KT 10SM CLR 14/01 A3010 RMK AO1 T01360013,KU42,2022-10-31T19:35:00Z,40.62,-111.98,13.6,1.3,130,5,,10.0,30.100393,,,TRUE,TRUE,,,,,,,CLR,,,,,,,,VFR,,,,,,,,,,,,METAR,1399.0
KTYQ 311935Z AUTO 22011KT 10SM BKN013 OVC020 16/14 A2983 RMK AO2 T01550136,KTYQ,2022-10-31T19:35:00Z,40.03,-86.25,15.5,13.6,220,11,,10.0,29.828741,,,TRUE,TRUE,,,,,,,BKN,1300,OVC,2000,,,,,MVFR,,,,,,,,,,,,METAR,279.0
KTYL 311935Z AUTO 03004KT 10SM CLR 16/M07 A3012 RMK AO2,KTYL,2022-10-31T19:35:00Z,34.45,-110.12,16.0,-7.0,30,4,,10.0,30.121063,,,TRUE,TRUE,,,,,,,CLR,,,,,,,,VFR,,,,,,,,,,,,METAR,1748.0
KTWT 311935Z AUTO 27005KT 10SM SCT036 BKN055 OVC070 17/15 A2989 RMK AO2,KTWT,2022-10-31T19:35:00Z,37.55,-87.95,17.0,15.0,270,5,,10.0,29.890747,,,TRUE,TRUE,,,,,,,SCT,3600,BKN,5500,OVC,7000,,,VFR,,,,,,,,,,,,METAR,113.0
KTWM 311935Z AUTO 19009KT 10SM CLR 16/00 A2974 RMK AO2,KTWM,2022-10-31T19:35:00Z,47.05,-91.75,16.0,0.0,190,9,,10.0,29.740158,,,TRUE,TRUE,,,,,,,CLR,,,,,,,,VFR,,,,,,,,,,,,METAR,331.0
KTVY 311935Z AUTO 08004KT 10SM CLR 15/00 A3010 RMK AO2,KTVY,2022-10-31T19:35:00Z,40.62,-112.35,15.0,0.0,80,4,,10.0,30.100393,,,TRUE,TRUE,,,,,,,CLR,,,,,,,,VFR,,,,,,,,,,,,METAR,1310.0
KTVI 311935Z AUTO 22006KT 10SM SCT033 BKN043 BKN049 27/18 A2997 RMK AO2,KTVI,2022-10-31T19:35:00Z,30.9,-83.88,27.0,18.0,220,6,,10.0,29.970472,,,TRUE,TRUE,,,,,,,SCT,3300,BKN,4300,BKN,4900,,,VFR,,,,,,,,,,,,SPECI,74.0
KTTF 311935Z AUTO 24012KT 10SM BKN016 OVC022 18/15 A2980 RMK AO2 T01810147,KTTF,2022-10-31T19:35:00Z,41.93,-83.42,18.1,14.7,240,12,,10.0,29.799213,,,TRUE,TRUE,,,,,,,BKN,1600,OVC,2200,,,,,MVFR,,,,,,,,,,,,METAR,186.0
KTTA 311935Z AUTO 00000KT 7SM -RA SCT028 BKN035 OVC050 20/20 A3000 RMK AO2 T02010200,KTTA,2022-10-31T19:35:00Z,35.58,-79.1,20.1,20.0,0,0,,7.0,30.0,,,TRUE,TRUE,,,,,,-RA,SCT,2800,BKN,3500,OVC,5000,,,VFR,,,,,,,,,,,,METAR,71.0
KTSP 311935Z AUTO 13013KT 10SM CLR 21/M09 A3004 RMK AO2,KTSP,2022-10-31T19:35:00Z,35.13,-118.43,21.0,-9.0,130,13,,10.0,30.041338,,,TRUE,TRUE,,,,,,,CLR,,,,,,,,VFR,,,,,,,,,,,,METAR,1209.0
KTQV 311935Z AUTO VRB03KT 10SM FEW040 SCT085 20/14 A3001 RMK A01,KTQV,2022-10-31T19:35:00Z,36.0,-78.93,20.0,14.0,0,3,,10.0,30.008858,,,TRUE,TRUE,,,,,,,FEW,4000,SCT,8500,,,,,VFR,,,,,,,,,,,,METAR,230.0
KTQK 311935Z AUTO 20011KT 10SM CLR 22/01 A2994 RMK AO2 T02220008,KTQK,2022-10-31T19:35:00Z,38.47,-100.88,22.2,0.8,200,11,,10.0,29.940945,,,TRUE,TRUE,,,,,,,CLR,,,,,,,,VFR,,,,,,,,,,,,SPECI,906.0
KTQH 311935Z AUTO 22004KT 10SM CLR 24/M01 A2999 RMK AO2,KTQH,2022-10-31T19:35:00Z,35.93,-95.0,24.0,-1.0,220,4,,10.0,29.991142,,,TRUE,TRUE,,,,,,,CLR,,,,,,,,VFR,,,,,,,,,,,,METAR,265.0
KTOC 311935Z AUTO 00000KT 10SM OVC006 17/15 A3000 RMK AO2 T01660152,KTOC,2022-10-31T19:35:00Z,34.6,-83.3,16.6,15.2,0,0,,10.0,30.0,,,TRUE,TRUE,,,,,,,OVC,600,,,,,,,IFR,,,,,,,,,,,,METAR,292.0
KTOB 311935Z AUTO 25007KT 10SM CLR 17/00 A2984 RMK AO2,KTOB,2022-10-31T19:35:00Z,44.02,-92.82,17.0,0.0,250,7,,10.0,29.840551,,,TRUE,TRUE,,,,,,,CLR,,,,,,,,VFR,,,,,,,,,,,,METAR,394.0
KTNU 311935Z AUTO 26006G12KT 10SM CLR 18/02 A2987 RMK A01,KTNU,2022-10-31T19:35:00Z,41.67,-93.02,18.0,2.0,260,6,12,10.0,29.870079,,,TRUE,TRUE,,,,,,,CLR,,,,,,,,VFR,,,,,,,,,,,,METAR,287.0
KTMT 311935Z AUTO 28004KT 10SM CLR 14/M07 A3007 RMK AO2 T01351070,KTMT,2022-10-31T19:35:00Z,39.47,-117.2,13.5,-7.0,280,4,,10.0,30.070866,,,TRUE,TRUE,,,,,,,CLR,,,,,,,,VFR,,,,,,,,,,,,METAR,1748.0
KTMK 311935Z AUTO 16004KT 10SM BKN045 BKN060 OVC090 13/11 A2995 RMK AO2 P0001,KTMK,2022-10-31T19:35:00Z,45.42,-123.82,13.0,11.0,160,4,,10.0,29.949802,,,TRUE,TRUE,,,,,,,BKN,4500,BKN,6000,OVC,9000,,,VFR,,,,,,0.01,,,,,,SPECI,8.0
KTME 311935Z AUTO 00000KT 10SM CLR 26/12 A3001 RMK AO2,KTME,2022-10-31T19:35:00Z,29.8,-95.9,26.0,12.0,0,0,,10.0,30.008858,,,TRUE,TRUE,,,,,,,CLR,,,,,,,,VFR,,,,,,,,,,,,METAR,49.0
KTKX 311935Z AUTO 30009G14KT 7SM OVC046 20/12 A2992 RMK AO2 TSNO,KTKX,2022-10-31T19:35:00Z,36.22,-90.03,20.0,12.0,300,9,14,7.0,29.920275,,,TRUE,TRUE,,,TRUE,,,,OVC,4600,,,,,,,VFR,,,,,,,,,,,,SPECI,73.0
KTKV 311935Z AUTO 28003KT 10SM CLR 18/01 A2979 RMK AO2 T01810005 PWINO,KTKV,2022-10-31T19:35:00Z,45.47,-89.82,18.1,0.5,280,3,,10.0,29.790354,,,TRUE,TRUE,,,,,TRUE,,CLR,,,,,,,,VFR,,,,,,,,,,,,METAR,449.0
KTKC 311935Z AUTO 23011KT 10SM CLR 19/M01 A2980 RMK AO2,KTKC,2022-10-31T19:35:00Z,44.25,-95.62,19.0,-1.0,230,11,,10.0,29.799213,,,TRUE,TRUE,,,,,,,CLR,,,,,,,,VFR,,,,,,,,,,,,METAR,408.0
KTIP 311935Z AUTO 25009KT 10SM -RA OVC004 13/13 A2983 RMK AO2 T01340132,KTIP,2022-10-31T19:35:00Z,40.28,-88.15,13.4,13.2,250,9,,10.0,29.828741,,,TRUE,TRUE,,,,,,-RA,OVC,400,,,,,,,LIFR,,,,,,,,,,,,METAR,224.0
KTIF 311935Z AUTO 00000KT 10SM CLR 21/M04 A2985 RMK AO2 T02091042,KTIF,2022-10-31T19:35:00Z,41.97,-100.57,20.9,-4.2,0,0,,10.0,29.84941,,,TRUE,TRUE,,,,,,,CLR,,,,,,,,VFR,,,,,,,,,,,,METAR,888.0
KTHA 311935Z AUTO 23009G14KT 10SM SCT027 SCT038 OVC055 18/12 A2996 RMK A01,KTHA,2022-10-31T19:35:00Z,35.38,-86.25,18.0,12.0,230,9,14,10.0,29.958662,,,TRUE,TRUE,,,,,,,SCT,2700,SCT,3800,OVC,5500,,,VFR,,,,,,,,,,,,METAR,333.0
KTGI 311935Z AUTO 19003KT 10SM CLR 18/15 A3002 RMK AO1 T01830148,KTGI,2022-10-31T19:35:00Z,37.82,-75.98,18.3,14.8,190,3,,10.0,30.02067,,,TRUE,TRUE,,,,,,,CLR,,,,,,,,VFR,,,,,,,,,,,,SPECI,1.0
KTEX 311935Z AUTO 25007KT 10SM CLR 10/M16 A3020 RMK AO2,KTEX,2022-10-31T19:35:00Z,37.95,-107.9,10.0,-16.0,250,7,,10.0,30.200787,,,TRUE,TRUE,,,,,,,CLR,,,,,,,,VFR,,,,,,,,,,,,METAR,2760.0
KTEW 311935Z AUTO 00000KT 10SM OVC008 16/14 A2980 RMK AO2 T01620136,KTEW,2022-10-31T19:35:00Z,42.57,-84.42,16.2,13.6,0,0,,10.0,29.799213,,,TRUE,TRUE,,,,,,,OVC,800,,,,,,,IFR,,,,,,,,,,,,METAR,281.0
KTDF 311935Z AUTO 18003KT 7SM RA BKN021 BKN033 OVC120 18/16 A3003 RMK AO2,KTDF,2022-10-31T19:35:00Z,36.28,-78.98,18.0,16.0,180,3,,7.0,30.029528,,,TRUE,TRUE,,,,,,RA,BKN,2100,BKN,3300,OVC,12000,,,MVFR,,,,,,,,,,,,METAR,180.0
KTCY 311935Z AUTO 34006KT 10SM CLR 18/09 A2994 RMK A01,KTCY,2022-10-31T19:35:00Z,37.68,-121.43,18.0,9.0,340,6,,10.0,29.940945,,,TRUE,TRUE,,,,,,,CLR,,,,,,,,VFR,,,,,,,,,,,,METAR,51.0
KTBX 311935Z AUTO 10SM CLR 07/M07 A3007 RMK AO2,KTBX,2022-10-31T19:35:00Z,43.47,-108.23,7.0,-7.0,,,,10.0,30.070866,,,TRUE,TRUE,,,,,,,CLR,,,,,,,,VFR,,,,,,,,,,,,SPECI,2230.0
KTBR 311935Z AUTO 23004KT 10SM SCT043 BKN060 BKN075 29/17 A2996 RMK AO2 T02890168,KTBR,2022-10-31T19:35:00Z,32.48,-81.73,28.9,16.8,230,4,,10.0,29.958662,,,TRUE,TRUE,,,,,,,SCT,4300,BKN,6000,BKN,7500,,,VFR,,,,,,,,,,,,SPECI,54.0
KTAZ 311935Z AUTO 25006KT 3SM BR OVC006 13/13 A2987 RMK AO2 T01330126,KTAZ,2022-10-31T19:35:00Z,39.53,-89.33,13.3,12.6,250,6,,3.0,29.870079,,,TRUE,TRUE,,,,,,BR,OVC,600,,,,,,,IFR,,,,,,,,,,,,METAR,188.0
KT89 311935Z AUTO 09003G10KT 10SM CLR 22/07 A2995 RMK A01,KT89,2022-10-31T19:35:00Z,29.27,-103.68,22.0,7.0,90,3,10,10.0,29.949802,,,TRUE,TRUE,,,,,,,CLR,,,,,,,,VFR,,,,,,,,,,,,METAR,801.0
KT82 311935Z AUTO 00000KT 10SM CLR 23/08 A3002 RMK AO2 T02340079,KT82,2022-10-31T19:35:00Z,30.25,-98.92,23.4,7.9,0,0,,10.0,30.02067,,,TRUE,TRUE,,,,,,,CLR,,,,,,,,VFR,,,,,,,,,,,,METAR,509.0
KT78 311935Z AUTO 00000KT 10SM CLR 25/10 A2999 RMK AO2,KT78,2022-10-31T19:35:00Z,30.08,-94.7,25.0,10.0,0,0,,10.0,29.991142,,,TRUE,TRUE,,,,,,,CLR,,,,,,,,VFR,,,,,,,,,,,,METAR,21.0
KT74 311935Z AUTO 18005KT 10SM CLR 25/11 A3000 RMK AO2 T02470106,KT74,2022-10-31T19:35:00Z,30.57,-97.45,24.7,10.6,180,5,,10.0,30.0,,,TRUE,TRUE,,,,,,,CLR,,,,,,,,VFR,,,,,,,,,,,,METAR,169.0
KT69 311935Z AUTO 11008G14KT 090V150 10SM CLR 26/14 A2997 RMK A01,KT69,2022-10-31T19:35:00Z,28.03,-97.55,26.0,14.0,110,8,14,10.0,29.970472,,,TRUE,TRUE,,,,,,,CLR,,,,,,,,VFR,,,,,,,,,,,,METAR,15.0
KT41 311935Z AUTO 10SM CLR 25/13 A3000 RMK AO2 T02480130,KT41,2022-10-31T19:35:00Z,29.67,-95.07,24.8,13.0,,,,10.0,30.0,,,TRUE,TRUE,,,,,,,CLR,,,,,,,,VFR,,,,,,,,,,,,METAR,8.0
KT35 311935Z AUTO 00000KT 10SM CLR 25/10 A3001 RMK AO2 T02540101,KT35,2022-10-31T19:35:00Z,30.88,-96.97,25.4,10.1,0,0,,10.0,30.008858,,,TRUE,TRUE,,,,,,,CLR,,,,,,,,VFR,,,,,,,,,,,,METAR,122.0
KT20 311935Z AUTO 00000KT 10SM CLR 26/11 A2998 RMK AO2 T02620109,KT20,2022-10-31T19:35:00Z,29.52,-97.47,26.2,10.9,0,0,,10.0,29.97933,,,TRUE,TRUE,,,,,,,CLR,,,,,,,,VFR,,,,,,,,,,,,SPECI,107.0
KSZY 311935Z AUTO VRB05KT 10SM SCT037 OVC055 19/13 A2995 RMK A01,KSZY,2022-10-31T19:35:00Z,35.2,-88.5,19.0,13.0,0,5,,10.0,29.949802,,,TRUE,TRUE,,,,,,,SCT,3700,OVC,5500,,,,,VFR,,,,,,,,,,,,METAR,184.0
KSZT 311935Z AUTO 24005KT 10SM OVC019 09/08 A2975 RMK AO2,KSZT,2022-10-31T19:35:00Z,48.3,-116.57,9.0,8.0,240,5,,10.0,29.749016,,,TRUE,TRUE,,,,,,,OVC,1900,,,,,,,MVFR,,,,,,,,,,,,METAR,649.0
KSYN 311935Z AUTO 23006KT 10SM CLR 18/00 A2983 RMK AO2 T01800000,KSYN,2022-10-31T19:35:00Z,44.47,-93.02,18.0,0.0,230,6,,10.0,29.828741,,,TRUE,TRUE,,,,,,,CLR,,,,,,,,VFR,,,,,,,,,,,,METAR,280.0
KSYM 311935Z AUTO 23008KT 10SM FEW049 OVC060 19/11 A2992 RMK AO2,KSYM,2022-10-31T19:35:00Z,38.22,-83.58,19.0,11.0,230,8,,10.0,29.920275,,,TRUE,TRUE,,,,,,,FEW,4900,OVC,6000,,,,,VFR,,,,,,,,,,,,METAR,307.0
KSYI 311935Z AUTO 22008KT 10SM SCT050 SCT065 19/13 A2995 RMK A01,KSYI,2022-10-31T19:35:00Z,35.57,-86.45,19.0,13.0,220,8,,10.0,29.949802,,,TRUE,TRUE,,,,,,,SCT,5000,SCT,6500,,,,,VFR,,,,,,,,,,,,METAR,244.0
KSYF 311935Z AUTO 00000KT 10SM CLR 20/M08 A2993 RMK AO2 T02021085 PWINO,KSYF,2022-10-31T19:35:00Z,39.77,-101.8,20.2,-8.5,0,0,,10.0,29.929134,,,TRUE,TRUE,,,,,TRUE,,CLR,,,,,,,,VFR,,,,,,,,,,,,METAR,1041.0
KSXU 311935Z AUTO 20013KT 10SM CLR 19/00 A3002 RMK AO2 T01941005,KSXU,2022-10-31T19:35:00Z,34.93,-104.65,19.4,-0.5,200,13,,10.0,30.02067,,,TRUE,TRUE,,,,,,,CLR,,,,,,,,VFR,,,,,,,,,,,,METAR,1465.0
KSXK 311935Z AUTO 21013KT 10SM CLR 20/M01 A2982 RMK AO2,KSXK,2022-10-31T19:35:00Z,42.98,-96.17,20.0,-1.0,210,13,,10.0,29.819881,,,TRUE,TRUE,,,,,,,CLR,,,,,,,,VFR,,,,,,,,,,,,METAR,430.0
KSWW 311935Z AUTO 00000KT 10SM CLR 23/11 A3006 RMK AO2 T02260108,KSWW,2022-10-31T19:35:00Z,32.47,-100.47,22.6,10.8,0,0,,10.0,30.059055,,,TRUE,TRUE,,,,,,,CLR,,,,,,,,VFR,,,,,,,,,,,,METAR,718.0
KSVH 311935Z AUTO 00000KT 5SM DZ BKN003 BKN014 OVC055 14/14 A3000 RMK AO2 P0003 T01410135,KSVH,2022-10-31T19:35:00Z,35.75,-80.95,14.1,13.5,0,0,,5.0,30.0,,,TRUE,TRUE,,,,,,DZ,BKN,300,BKN,1400,OVC,5500,,,LIFR,,,,,,0.03,,,,,,METAR,286.0
KSVE 311935Z AUTO 00000KT 10SM CLR 04/M11 A3004 RMK AO2,KSVE,2022-10-31T19:35:00Z,40.37,-120.57,4.0,-11.0,0,0,,10.0,30.041338,,,TRUE,TRUE,,,,,,,CLR,,,,,,,,VFR,,,,,,,,,,,,METAR,1263.0
KSVC 311935Z AUTO 22003KT 10SM CLR 20/M02 A3008 RMK AO2 T02041019,KSVC,2022-10-31T19:35:00Z,32.63,-108.15,20.4,-1.9,220,3,,10.0,30.079725,,,TRUE,TRUE,,,,,,,CLR,,,,,,,,VFR,,,,,,,,,,,,METAR,1638.0
KSUZ 311935Z AUTO VRB05G12KT 9SM CLR 23/08 A2996 RMK A01,KSUZ,2022-10-31T19:35:00Z,34.58,-92.48,23.0,8.0,0,5,12,9.0,29.958662,,,TRUE,TRUE,,,,,,,CLR,,,,,,,,VFR,,,,,,,,,,,,METAR,114.0
KSUW 311935Z AUTO 24007KT 10SM CLR 18/M02 A2976 RMK AO2 T01781025,KSUW,2022-10-31T19:35:00Z,46.68,-92.1,17.8,-2.5,240,7,,10.0,29.760826,,,TRUE,TRUE,,,,,,,CLR,,,,,,,,VFR,,,,,,,,,,,,SPECI,205.0
KSUT 311935Z AUTO 07004KT 10SM BKN034 OVC050 25/19 A3003 RMK AO2 T02450194,KSUT,2022-10-31T19:35:00Z,33.93,-78.08,24.5,19.4,70,4,,10.0,30.029528,,,TRUE,TRUE,,,,,,,BKN,3400,OVC,5000,,,,,VFR,,,,,,,,,,,,METAR,6.0
KSTK 311935Z AUTO 17007KT 10SM CLR 20/M05 A2993 RMK AO2,KSTK,2022-10-31T19:35:00Z,40.62,-103.27,20.0,-5.0,170,7,,10.0,29.929134,,,TRUE,TRUE,,,,,,,CLR,,,,,,,,VFR,,,,,,,,,,,,METAR,1228.0
KSTF 311935Z AUTO 28005KT 10SM FEW034 OVC060 21/14 A2997 RMK AO2,KSTF,2022-10-31T19:35:00Z,33.43,-88.85,21.0,14.0,280,5,,10.0,29.970472,,,TRUE,TRUE,,,,,,,FEW,3400,OVC,6000,,,,,VFR,,,,,,,,,,,,METAR,99.0
KSTE 311935Z AUTO 25006KT 10SM CLR 19/02 A2981 RMK AO2 T01850021,KSTE,2022-10-31T19:35:00Z,44.55,-89.53,18.5,2.1,250,6,,10.0,29.811024,,,TRUE,TRUE,,,,,,,CLR,,,,,,,,VFR,,,,,,,,,,,,METAR,335.0
KSRR 311935Z AUTO 00000KT 10SM 14/M05 A3013 RMK AO2,KSRR,2022-10-31T19:35:00Z,33.47,-105.52,14.0,-5.0,0,0,,10.0,30.129921,,,TRUE,TRUE,,,,,,,,,,,,,,,,,,,,,,,,,,,METAR,2063.0
KSRE 311935Z AUTO VRB06KT 10SM CLR 22/02 A3000 RMK AO2,KSRE,2022-10-31T19:35:00Z,35.27,-96.68,22.0,2.0,0,6,,10.0,30.0,,,TRUE,TRUE,,,,,,,CLR,,,,,,,,VFR,,,,,,,,,,,,METAR,306.0
KSRB 311935Z AUTO 25008G13KT 10SM SCT029 BKN050 OVC055 18/13 A2995 RMK A01,KSRB,2022-10-31T19:35:00Z,36.05,-85.53,18.0,13.0,250,8,13,10.0,29.949802,,,TRUE,TRUE,,,,,,,SCT,2900,BKN,5000,OVC,5500,,,VFR,,,,,,,,,,,,METAR,303.0
KSPF 311935Z AUTO 31009KT 10SM CLR 18/M04 A2984 RMK AO2,KSPF,2022-10-31T19:35:00Z,44.47,-103.78,18.0,-4.0,310,9,,10.0,29.840551,,,TRUE,TRUE,,,,,,,CLR,,,,,,,,VFR,,,,,,,,,,,,METAR,1191.0
KSPA 311935Z AUTO 00000KT 10SM OVC006 16/14 A3000 RMK AO2,KSPA,2022-10-31T19:35:00Z,34.92,-81.95,16.0,14.0,0,0,,10.0,30.0,,,TRUE,TRUE,,,,,,,OVC,600,,,,,,,IFR,,,,,,,,,,,,SPECI,242.0
KSOW 311935Z AUTO VRB04KT 10SM CLR 14/M07 A3014 RMK AO2,KSOW,2022-10-31T19:35:00Z,34.27,-110.0,14.0,-7.0,0,4,,10.0,30.138779,,,TRUE,TRUE,,,,,,,CLR,,,,,,,,VFR,,,,,,,,,,,,METAR,1954.0
KSOA 311935Z AUTO 12006G11KT 10SM FEW050 SCT065 22/09 A3005 RMK AO2,KSOA,2022-10-31T19:35:00Z,30.58,-100.65,22.0,9.0,120,6,11,10.0,30.050198,,,TRUE,TRUE,,,,,,,FEW,5000,SCT,6500,,,,,VFR,,,,,,,,,,,,METAR,654.0
KSNL 311935Z AUTO 28004KT 10SM CLR 22/M01 A2999 RMK AO2 T02221011,KSNL,2022-10-31T19:35:00Z,35.35,-96.95,22.2,-1.1,280,4,,10.0,29.991142,,,TRUE,TRUE,,,,,,,CLR,,,,,,,,VFR,,,,,,,,,,,,SPECI,327.0
KSNK 311935Z AUTO 18005KT 10SM CLR 20/07 A3005 RMK AO2 T01970074,KSNK,2022-10-31T19:35:00Z,32.7,-100.95,19.7,7.4,180,5,,10.0,30.050198,,,TRUE,TRUE,,,,,,,CLR,,,,,,,,VFR,,,,,,,,,,,,METAR,738.0
KSNC 311935Z AUTO 17006KT 10SM 17/12 A3001 RMK AO2,KSNC,2022-10-31T19:35:00Z,41.38,-72.5,17.0,12.0,170,6,,10.0,30.008858,,,TRUE,TRUE,,,,,,,,,,,,,,,,,,,,,,,,,,,METAR,114.0
KSMS 311935Z AUTO 16010KT 10SM SCT034 SCT120 27/19 A2998 RMK AO2,KSMS,2022-10-31T19:35:00Z,34.0,-80.37,27.0,19.0,160,10,,10.0,29.97933,,,TRUE,TRUE,,,,,,,SCT,3400,SCT,12000,,,,,VFR,,,,,,,,,,,,METAR,53.0
KSME 311935Z AUTO 24010KT 10SM OVC060 19/14 A2992 RMK AO2,KSME,2022-10-31T19:35:00Z,37.05,-84.62,19.0,14.0,240,10,,10.0,29.920275,,,TRUE,TRUE,,,,,,,OVC,6000,,,,,,,VFR,,,,,,,,,,,,METAR,279.0
KSMD 311935Z AUTO VRB06G12KT 10SM SCT018 BKN023 BKN035 17/15 A2981 RMK A01,KSMD,2022-10-31T19:35:00Z,41.15,-85.15,17.0,15.0,0,6,12,10.0,29.811024,,,TRUE,TRUE,,,,,,,SCT,1800,BKN,2300,BKN,3500,,,MVFR,,,,,,,,,,,,METAR,252.0
KSLR 311935Z AUTO 35004KT 10SM CLR 23/06 A3003 RMK AO2 T02300059,KSLR,2022-10-31T19:35:00Z,33.17,-95.62,23.0,5.9,350,4,,10.0,30.029528,,,TRUE,TRUE,,,,,,,CLR,,,,,,,,VFR,,,,,,,,,,,,METAR,144.0
KSLH 311935Z AUTO 06003KT 10SM CLR 12/07 A2978 RMK AO2,KSLH,2022-10-31T19:35:00Z,45.65,-84.52,12.0,7.0,60,3,,10.0,29.778543,,,TRUE,TRUE,,,,,,,CLR,,,,,,,,VFR,,,,,,,,,,,,METAR,193.0
KSLB 311935Z AUTO 23009KT 10SM CLR 18/M01 A2986 RMK AO2,KSLB,2022-10-31T19:35:00Z,42.6,-95.23,18.0,-1.0,230,9,,10.0,29.861221,,,TRUE,TRUE,,,,,,,CLR,,,,,,,,VFR,,,,,,,,,,,,METAR,450.0
KSJX 311935Z AUTO 26007KT 10SM CLR 16/04 A2979 RMK AO2 T01600044,KSJX,2022-10-31T19:35:00Z,45.7,-85.57,16.0,4.4,260,7,,10.0,29.790354,,,TRUE,TRUE,,,,,,,CLR,,,,,,,,VFR,,,,,,,,,,,,METAR,202.0
KSJS 311935Z AUTO 27006KT 7SM -RA SCT035 SCT045 OVC055 17/17 A2993 RMK AO2 T01710169,KSJS,2022-10-31T19:35:00Z,37.75,-82.63,17.1,16.9,270,6,,7.0,29.929134,,,TRUE,TRUE,,,,,,-RA,SCT,3500,SCT,4500,OVC,5500,,,VFR,,,,,,,,,,,,METAR,359.0
KSIK 311935Z AUTO 27008KT 10SM SCT027 BKN035 OVC042 18/12 A2992 RMK AO2,KSIK,2022-10-31T19:35:00Z,36.9,-89.57,18.0,12.0,270,8,,10.0,29.920275,,,TRUE,TRUE,,,,,,,SCT,2700,BKN,3500,OVC,4200,,,VFR,,,,,,,,,,,,METAR,95.0
KSIF 311935Z AUTO 00000KT 4SM BR BKN003 OVC025 15/15 A3001 RMK AO2 P0003 T01460146,KSIF,2022-10-31T19:35:00Z,36.43,-79.85,14.6,14.6,0,0,,4.0,30.008858,,,TRUE,TRUE,,,,,,BR,BKN,300,OVC,2500,,,,,LIFR,,,,,,0.03,,,,,,METAR,206.0
KSHL 311935Z AUTO 21012KT 10SM CLR 19/M01 A2982 RMK AO2,KSHL,2022-10-31T19:35:00Z,43.22,-95.83,19.0,-1.0,210,12,,10.0,29.819881,,,TRUE,TRUE,,,,,,,CLR,,,,,,,,VFR,,,,,,,,,,,,METAR,430.0
KSHD 311935Z AUTO 00000KT 10SM -RA SCT003 BKN008 OVC028 13/13 A3003 RMK AO2 T01320130,KSHD,2022-10-31T19:35:00Z,38.27,-78.9,13.2,13.0,0,0,,10.0,30.029528,,,TRUE,TRUE,,,,,,-RA,SCT,300,BKN,800,OVC,2800,,,IFR,,,,,,,,,,,,SPECI,360.0
KSGS 311935Z AUTO 22005KT 10SM CLR 18/M01 A2982 RMK AO2 T01801012,KSGS,2022-10-31T19:35:00Z,44.87,-93.03,18.0,-1.2,220,5,,10.0,29.819881,,,TRUE,TRUE,,,,,,,CLR,,,,,,,,VFR,,,,,,,,,,,,METAR,250.0
KSFQ 311935Z AUTO 20007KT 10SM CLR 23/13 A3003 RMK AO2 T02320134,KSFQ,2022-10-31T19:35:00Z,36.68,-76.6,23.2,13.4,200,7,,10.0,30.029528,,,TRUE,TRUE,,,,,,,CLR,,,,,,,,VFR,,,,,,,,,,,,METAR,19.0
KSEZ 311935Z AUTO 24003KT 10SM 20/M03 A3007 RMK AO2,KSEZ,2022-10-31T19:35:00Z,34.85,-111.78,20.0,-3.0,240,3,,10.0,30.070866,,,TRUE,TRUE,,,,,,,,,,,,,,,,,,,,,,,,,,,METAR,1455.0
KSEP 311935Z AUTO 34003KT 10SM CLR 25/05 A3004 RMK AO2 T02470051,KSEP,2022-10-31T19:35:00Z,32.22,-98.17,24.7,5.1,340,3,,10.0,30.041338,,,TRUE,TRUE,,,,,,,CLR,,,,,,,,VFR,,,,,,,,,,,,METAR,399.0
KSEM 311935Z AUTO 23006KT 10SM OVC048 21/11 A3000 RMK AO2,KSEM,2022-10-31T19:35:00Z,32.35,-86.98,21.0,11.0,230,6,,10.0,30.0,,,TRUE,TRUE,,,,,,,OVC,4800,,,,,,,VFR,,,,,,,,,,,,METAR,48.0
KSDA 311935Z AUTO 00000KT 10SM CLR 20/00 A2990 RMK AO2,KSDA,2022-10-31T19:35:00Z,40.75,-95.42,20.0,0.0,0,0,,10.0,29.899607,,,TRUE,TRUE,,,,,,,CLR,,,,,,,,VFR,,,,,,,,,,,,METAR,293.0
KSCR 311935Z AUTO 00000KT 10SM BKN022 OVC026 20/20 A3001 RMK AO2 T02030195,KSCR,2022-10-31T19:35:00Z,35.7,-79.5,20.3,19.5,0,0,,10.0,30.008858,,,TRUE,TRUE,,,,,,,BKN,2200,OVC,2600,,,,,MVFR,,,,,,,,,,,,METAR,182.0
KSCD 311935Z AUTO 23007KT 10SM OVC048 20/13 A3000 RMK AO2 T01990125,KSCD,2022-10-31T19:35:00Z,33.17,-86.3,19.9,12.5,230,7,,10.0,30.0,,,TRUE,TRUE,,,,,,,OVC,4800,,,,,,,VFR,,,,,,,,,,,,METAR,164.0
KSBS 311935Z AUTO 28003KT 10SM CLR 09/M05 A3011 RMK AO1 T00881051,KSBS,2022-10-31T19:35:00Z,40.52,-106.87,8.8,-5.1,280,3,,10.0,30.109253,,,TRUE,TRUE,,,,,,,CLR,,,,,,,,VFR,,,,,,,,,,,,METAR,2097.0
KSBO 311935Z AUTO 23006KT 10SM SCT033 SCT043 SCT049 27/20 A2998 RMK AO2,KSBO,2022-10-31T19:35:00Z,32.62,-82.37,27.0,20.0,230,6,,10.0,29.97933,,,TRUE,TRUE,,,,,,,SCT,3300,SCT,4300,SCT,4900,,,VFR,,,,,,,,,,,,METAR,98.0
KSAZ 311935Z 21007KT 10SM 20/M04 A2976 RMK AO2,KSAZ,2022-10-31T19:35:00Z,46.37,-94.8,20.0,-4.0,210,7,,10.0,29.760826,,,,TRUE,,,,,,,,,,,,,,,,,,,,,,,,,,,METAR,391.0
KSAR 311935Z AUTO 27008KT 10SM OVC014 14/12 A2992 RMK AO2 T01390115,KSAR,2022-10-31T19:35:00Z,38.15,-89.7,13.9,11.5,270,8,,10.0,29.920275,,,TRUE,TRUE,,,,,,,OVC,1400,,,,,,,MVFR,,,,,,,,,,,,METAR,162.0
KSAA 311935Z AUTO 24013G21KT 10SM CLR 10/M05 A3009 RMK AO2,KSAA,2022-10-31T19:35:00Z,41.45,-106.8,10.0,-5.0,240,13,21,10.0,30.088583,,,TRUE,TRUE,,,,,,,CLR,,,,,,,,VFR,,,,,,,,,,,,METAR,2093.0
KS52 311935Z AUTO 36003KT 10SM SCT070 BKN100 BKN120 10/05 A2969 RMK AO2 T01050050,KS52,2022-10-31T19:35:00Z,48.42,-120.15,10.5,5.0,360,3,,10.0,29.68996,,,TRUE,TRUE,,,,,,,SCT,7000,BKN,10000,BKN,12000,,,VFR,,,,,,,,,,,,METAR,517.0
KS39 311935Z AUTO 22006KT 10SM CLR 15/03 A2990 RMK AO2,KS39,2022-10-31T19:35:00Z,44.28,-120.9,15.0,3.0,220,6,,10.0,29.899607,,,TRUE,TRUE,,,,,,,CLR,,,,,,,,VFR,,,,,,,,,,,,METAR,987.0
KS33 311935Z AUTO 23008KT 10SM CLR 15/05 A2990 RMK AO2,KS33,2022-10-31T19:35:00Z,44.67,-121.15,15.0,5.0,230,8,,10.0,29.899607,,,TRUE,TRUE,,,,,,,CLR,,,,,,,,VFR,,,,,,,,,,,,METAR,739.0
KS32 311935Z AUTO 27014KT 10SM CLR 17/00 A2971 RMK AO2 TSNO,KS32,2022-10-31T19:35:00Z,47.42,-98.1,17.0,0.0,270,14,,10.0,29.71063,,,TRUE,TRUE,,,TRUE,,,,CLR,,,,,,,,VFR,,,,,,,,,,,,METAR,435.0
KS25 311935Z AUTO 22005KT 10SM CLR 15/02 A2972 RMK AO2,KS25,2022-10-31T19:35:00Z,47.8,-103.25,15.0,2.0,220,5,,10.0,29.719488,,,TRUE,TRUE,,,,,,,CLR,,,,,,,,VFR,,,,,,,,,,,,METAR,632.0
KS24 311935Z AUTO 22011G17KT 10SM OVC070 18/13 A2982 RMK AO2,KS24,2022-10-31T19:35:00Z,,,18.0,13.0,220,11,17,10.0,29.819881,,,TRUE,TRUE,,,,,,,OVC,7000,,,,,,,VFR,,,,,,,,,,,,METAR,
KRZR 311935Z AUTO 23008KT 200V270 10SM SCT035 BKN044 OVC060 20/14 A2995 RMK A01,KRZR,2022-10-31T19:35:00Z,35.22,-84.8,20.0,14.0,230,8,,10.0,29.949802,,,TRUE,TRUE,,,,,,,SCT,3500,BKN,4400,OVC,6000,,,VFR,,,,,,,,,,,,METAR,259.0
KRZN 311935Z AUTO 25009KT 10SM CLR 17/M03 A2981 RMK AO2 T01721029,KRZN,2022-10-31T19:35:00Z,45.82,-92.37,17.2,-2.9,250,9,,10.0,29.811024,,,TRUE,TRUE,,,,,,,CLR,,,,,,,,VFR,,,,,,,,,,,,METAR,301.0
KRZL 311935Z AUTO 26008KT 10SM OVC011 15/14 A2981 RMK AO2,KRZL,2022-10-31T19:35:00Z,40.95,-87.18,15.0,14.0,260,8,,10.0,29.811024,,,TRUE,TRUE,,,,,,,OVC,1100,,,,,,,MVFR,,,,,,,,,,,,METAR,210.0
KRYW 311935Z AUTO 14005KT 10SM CLR 25/07 A3001 RMK AO2 T02460073,KRYW,2022-10-31T19:35:00Z,30.5,-97.97,24.6,7.3,140,5,,10.0,30.008858,,,TRUE,TRUE,,,,,,,CLR,,,,,,,,VFR,,,,,,,,,,,,METAR,370.0
KRYV 311935Z AUTO 24003KT 10SM CLR 18/04 A2981 RMK AO2 T01800042,KRYV,2022-10-31T19:35:00Z,43.17,-88.72,18.0,4.2,240,3,,10.0,29.811024,,,TRUE,TRUE,,,,,,,CLR,,,,,,,,VFR,,,,,,,,,,,,METAR,249.0
KRWV 311935Z AUTO 13004KT 10SM CLR 24/11 A3001 RMK AO2 T02380107,KRWV,2022-10-31T19:35:00Z,30.52,-96.7,23.8,10.7,130,4,,10.0,30.008858,,,TRUE,TRUE,,,,,,,CLR,,,,,,,,VFR,,,,,,,,,,,,METAR,116.0
KRVL 311935Z AUTO 00000KT 10SM OVC022 14/09 A2997 RMK AO2,KRVL,2022-10-31T19:35:00Z,40.68,-77.63,14.0,9.0,0,0,,10.0,29.970472,,,TRUE,TRUE,,,,,,,OVC,2200,,,,,,,MVFR,,,,,,,,,,,,METAR,250.0
KRVJ 311935Z AUTO 25006KT 10SM SCT042 BKN065 BKN070 29/19 A2995 RMK AO2 T02880186,KRVJ,2022-10-31T19:35:00Z,32.07,-82.15,28.8,18.6,250,6,,10.0,29.949802,,,TRUE,TRUE,,,,,,,SCT,4200,BKN,6500,BKN,7000,,,VFR,,,,,,,,,,,,METAR,60.0
KRVF 311935Z AUTO 19016G25KT 10SM CLR 17/M01 A2988 RMK AO2,KRVF,2022-10-31T19:35:00Z,45.53,-112.3,17.0,-1.0,190,16,25,10.0,29.878937,,,TRUE,TRUE,,,,,,,CLR,,,,,,,,VFR,,,,,,,,,,,,METAR,1445.0
KRUQ 311935Z AUTO 00000KT 1 3/4SM RA BKN003 BKN007 OVC010 16/15 A2999 RMK AO2 T01600154,KRUQ,2022-10-31T19:35:00Z,35.65,-80.52,16.0,15.4,0,0,,1.75,29.991142,,,TRUE,TRUE,,,,,,RA,BKN,300,BKN,700,OVC,1000,,,LIFR,,,,,,,,,,,,METAR,231.0
KRUG 311935Z AUTO 29011KT 10SM CLR 13/02 A2969 RMK AO2,KRUG,2022-10-31T19:35:00Z,48.38,-100.02,13.0,2.0,290,11,,10.0,29.68996,,,TRUE,TRUE,,,,,,,CLR,,,,,,,,VFR,,,,,,,,,,,,METAR,469.0
KRTS 311935Z AUTO 00000KT 10SM CLR 12/M09 A3005 RMK AO2,KRTS,2022-10-31T19:35:00Z,39.67,-119.88,12.0,-9.0,0,0,,10.0,30.050198,,,TRUE,TRUE,,,,,,,CLR,,,,,,,,VFR,,,,,,,,,,,,METAR,1537.0
KRSV 311935Z AUTO 23007G16KT 10SM SCT022 SCT026 OVC033 16/12 A2987 RMK AO2 T01620118,KRSV,2022-10-31T19:35:00Z,39.02,-87.65,16.2,11.8,230,7,16,10.0,29.870079,,,TRUE,TRUE,,,,,,,SCT,2200,SCT,2600,OVC,3300,,,VFR,,,,,,,,,,,,METAR,139.0
KRSN 311935Z AUTO VRB04KT 10SM CLR 24/12 A2999 RMK AO2 LTG DSNT SW T02380118,KRSN,2022-10-31T19:35:00Z,32.52,-92.58,23.8,11.8,0,4,,10.0,29.991142,,,TRUE,TRUE,,,,,,,CLR,,,,,,,,VFR,,,,,,,,,,,,METAR,86.0
KRRT 311935Z AUTO 24012G16KT 10SM CLR 15/04 A2964 RMK AO2,KRRT,2022-10-31T19:35:00Z,48.93,-95.33,15.0,4.0,240,12,16,10.0,29.639763,,,TRUE,TRUE,,,,,,,CLR,,,,,,,,VFR,,,,,,,,,,,,METAR,327.0
KRRL 311935Z AUTO 24004KT 10SM CLR 18/05 A2978 RMK AO2 T01790045 TSNO,KRRL,2022-10-31T19:35:00Z,45.2,-89.72,17.9,4.5,240,4,,10.0,29.778543,,,TRUE,TRUE,,,TRUE,,,,CLR,,,,,,,,VFR,,,,,,,,,,,,SPECI,397.0
KRQO 311935Z AUTO 21005KT 23/08 A3001 RMK AO2 PWINO T02290085,KRQO,2022-10-31T19:35:00Z,35.47,-98.0,22.9,8.5,210,5,,,30.008858,,,TRUE,TRUE,,,,,TRUE,,,,,,,,,,,,,,,,,,,,,,METAR,431.0
KRQB 311935Z AUTO 16005KT 10SM CLR 18/11 A2978 RMK AO2 T01800110,KRQB,2022-10-31T19:35:00Z,43.72,-85.5,18.0,11.0,160,5,,10.0,29.778543,,,TRUE,TRUE,,,,,,,CLR,,,,,,,,VFR,,,,,,,,,,,,METAR,282.0
KRPJ 311935Z AUTO 29006KT 10SM CLR 16/12 A2983 RMK AO2 T01610116 TSNO,KRPJ,2022-10-31T19:35:00Z,41.88,-89.08,16.1,11.6,290,6,,10.0,29.828741,,,TRUE,TRUE,,,TRUE,,,,CLR,,,,,,,,VFR,,,,,,,,,,,,METAR,234.0
KRPH 311935Z AUTO 00000KT 10SM CLR 23/05 A3000 RMK AO2 T02330047 $,KRPH,2022-10-31T19:35:00Z,33.12,-98.55,23.3,4.7,0,0,,10.0,30.0,,,TRUE,TRUE,TRUE,,,,,,CLR,,,,,,,,VFR,,,,,,,,,,,,METAR,341.0
KRPD 311935Z AUTO 20006KT 10SM CLR 17/04 A2982 RMK AO2 T01730037,KRPD,2022-10-31T19:35:00Z,45.42,-91.77,17.3,3.7,200,6,,10.0,29.819881,,,TRUE,TRUE,,,,,,,CLR,,,,,,,,VFR,,,,,,,,,,,,METAR,334.0
KROX 311935Z AUTO 23012G18KT 10SM CLR 16/02 A2965 RMK AO2,KROX,2022-10-31T19:35:00Z,48.85,-95.7,16.0,2.0,230,12,18,10.0,29.648623,,,TRUE,TRUE,,,,,,,CLR,,,,,,,,VFR,,,,,,,,,,,,METAR,320.0
KRNV 311935Z AUTO 30008KT 10SM SCT037 BKN045 22/13 A2998 RMK AO2 T02230131 TSNO,KRNV,2022-10-31T19:35:00Z,33.77,-90.75,22.3,13.1,300,8,,10.0,29.97933,,,TRUE,TRUE,,,TRUE,,,,SCT,3700,BKN,4500,,,,,VFR,,,,,,,,,,,,SPECI,42.0
KRNP 311935Z AUTO 00000KT 4SM BR OVC003 14/12 A2981 RMK AO2 T01350123,KRNP,2022-10-31T19:35:00Z,43.0,-84.13,13.5,12.3,0,0,,4.0,29.811024,,,TRUE,TRUE,,,,,,BR,OVC,300,,,,,,,LIFR,,,,,,,,,,,,METAR,224.0
KRNH 311935Z AUTO 20007KT 10SM CLR 17/05 A2982 RMK AO2 T01700045,KRNH,2022-10-31T19:35:00Z,45.15,-92.53,17.0,4.5,200,7,,10.0,29.819881,,,TRUE,TRUE,,,,,,,CLR,,,,,,,,VFR,,,,,,,,,,,,METAR,302.0
KRNC 311935Z AUTO 21006KT 10SM FEW029 FEW038 OVC060 18/13 A2995 RMK A01,KRNC,2022-10-31T19:35:00Z,35.7,-85.85,18.0,13.0,210,6,,10.0,29.949802,,,TRUE,TRUE,,,,,,,FEW,2900,FEW,3800,OVC,6000,,,VFR,,,,,,,,,,,,METAR,310.0
KRMY 311935Z AUTO 29003KT 10SM BKN010 OVC013 15/14 A2980 RMK AO2 T01530137,KRMY,2022-10-31T19:35:00Z,42.25,-84.95,15.3,13.7,290,3,,10.0,29.799213,,,TRUE,TRUE,,,,,,,BKN,1000,OVC,1300,,,,,MVFR,,,,,,,,,,,,METAR,285.0
KRMN 311935Z AUTO 20003KT 10SM -RA BKN027 BKN110 20/14 A3004 RMK AO2 T01970135,KRMN,2022-10-31T19:35:00Z,38.4,-77.45,19.7,13.5,200,3,,10.0,30.041338,,,TRUE,TRUE,,,,,,-RA,BKN,2700,BKN,11000,,,,,MVFR,,,,,,,,,,,,METAR,50.0
KRLD 311935Z AUTO 20012G16KT 10SM OVC090 18/10 A2980 RMK AO2 T01770096,KRLD,2022-10-31T19:35:00Z,46.3,-119.3,17.7,9.6,200,12,16,10.0,29.799213,,,TRUE,TRUE,,,,,,,OVC,9000,,,,,,,VFR,,,,,,,,,,,,METAR,118.0
KRKW 311935Z AUTO 25007G13KT 220V310 10SM OVC049 18/10 A2996 RMK A01,KRKW,2022-10-31T19:35:00Z,35.92,-84.68,18.0,10.0,250,7,13,10.0,29.958662,,,TRUE,TRUE,,,,,,,OVC,4900,,,,,,,VFR,,,,,,,,,,,,METAR,505.0
KRKR 311935Z AUTO 18006KT 10SM CLR 22/07 A2998 RMK AO2,KRKR,2022-10-31T19:35:00Z,35.02,-94.62,22.0,7.0,180,6,,10.0,29.97933,,,TRUE,TRUE,,,,,,,CLR,,,,,,,,VFR,,,,,,,,,,,,METAR,136.0
KRHP 311935Z AUTO 26007KT 10SM SCT035 BKN042 BKN050 20/12 A2997 RMK AO2 T02020117,KRHP,2022-10-31T19:35:00Z,35.18,-83.85,20.2,11.7,260,7,,10.0,29.970472,,,TRUE,TRUE,,,,,,,SCT,3500,BKN,4200,BKN,5000,,,VFR,,,,,,,,,,,,SPECI,515.0
KRGK 311935Z AUTO 00000KT 10SM CLR 18/M01 A2981 RMK AO2,KRGK,2022-10-31T19:35:00Z,44.58,-92.48,18.0,-1.0,0,0,,10.0,29.811024,,,TRUE,TRUE,,,,,,,CLR,,,,,,,,VFR,,,,,,,,,,,,METAR,238.0
KRFI 311935Z AUTO 00000KT 10SM CLR 26/04 A3001 RMK AO2 T02620036,KRFI,2022-10-31T19:35:00Z,32.15,-94.85,26.2,3.6,0,0,,10.0,30.008858,,,TRUE,TRUE,,,,,,,CLR,,,,,,,,VFR,,,,,,,,,,,,METAR,133.0
KREG 311935Z AUTO 33003KT 10SM SCT050 25/12 A2999 RMK AO2 T02470120,KREG,2022-10-31T19:35:00Z,30.17,-90.93,24.7,12.0,330,3,,10.0,29.991142,,,TRUE,TRUE,,,,,,,SCT,5000,,,,,,,VFR,,,,,,,,,,,,METAR,3.0
KRDK 311935Z AUTO VRB04KT 10SM CLR 20/M00 A2991 RMK AO2,KRDK,2022-10-31T19:35:00Z,41.02,-95.27,20.0,0.0,0,4,,10.0,29.911417,,,TRUE,TRUE,,,,,,,CLR,,,,,,,,VFR,,,,,,,,,,,,METAR,317.0
KRCZ 311935Z AUTO 20006KT 10SM CLR 24/19 A2999 RMK AO2 T02400187,KRCZ,2022-10-31T19:35:00Z,34.88,-79.77,24.0,18.7,200,6,,10.0,29.991142,,,TRUE,TRUE,,,,,,,CLR,,,,,,,,VFR,,,,,,,,,,,,SPECI,110.0
KRCX 311935Z AUTO 21004KT 10SM CLR 18/05 A2982 RMK AO2 T01760049,KRCX,2022-10-31T19:35:00Z,45.5,-91.0,17.6,4.9,210,4,,10.0,29.819881,,,TRUE,TRUE,,,,,,,CLR,,,,,,,,VFR,,,,,,,,,,,,METAR,373.0
KRCV 311935Z AUTO 08006KT 10SM CLR 11/M07 A3013 RMK AO2 T01091068,KRCV,2022-10-31T19:35:00Z,37.72,-106.35,10.9,-6.8,80,6,,10.0,30.129921,,,TRUE,TRUE,,,,,,,CLR,,,,,,,,VFR,,,,,,,,,,,,METAR,2418.0
KRCR 311935Z AUTO 23009KT 9SM UP OVC005 15/15 A2980 RMK AO2,KRCR,2022-10-31T19:35:00Z,41.07,-86.18,15.0,15.0,230,9,,9.0,29.799213,,,TRUE,TRUE,,,,,,UP,OVC,500,,,,,,,IFR,,,,,,,,,,,,SPECI,240.0
KRCM 311935Z AUTO 25004KT 10SM CLR 20/05 A2993 RMK AO2,KRCM,2022-10-31T19:35:00Z,38.78,-93.8,20.0,5.0,250,4,,10.0,29.929134,,,TRUE,TRUE,,,,,,,CLR,,,,,,,,VFR,,,,,,,,,,,,SPECI,242.0
KRCE 311935Z AUTO 21005KT 10SM CLR 22/06 A2999 RMK AO2,KRCE,2022-10-31T19:35:00Z,35.48,-97.82,22.0,6.0,210,5,,10.0,29.991142,,,TRUE,TRUE,,,,,,,CLR,,,,,,,,VFR,,,,,,,,,,,,SPECI,412.0
KRBW 311935Z AUTO 17008KT 10SM SCT035 SCT042 27/18 A2998 RMK AO2,KRBW,2022-10-31T19:35:00Z,32.92,-80.63,27.0,18.0,170,8,,10.0,29.97933,,,TRUE,TRUE,,,,,,,SCT,3500,SCT,4200,,,,,VFR,,,,,,,,,,,,METAR,30.0
KRBO 311935Z AUTO 10SM SCT070 25/14 A2997 RMK AO2 T02520143,KRBO,2022-10-31T19:35:00Z,27.78,-97.68,25.2,14.3,,,,10.0,29.970472,,,TRUE,TRUE,,,,,,,SCT,7000,,,,,,,VFR,,,,,,,,,,,,SPECI,24.0
KRAW 311935Z AUTO 31006KT 10SM CLR 18/06 A2994 RMK AO2,KRAW,2022-10-31T19:35:00Z,38.35,-93.35,18.0,6.0,310,6,,10.0,29.940945,,,TRUE,TRUE,,,,,,,CLR,,,,,,,,VFR,,,,,,,,,,,,SPECI,285.0
KRAS 311935Z AUTO 08010KT 10SM BKN080 OVC100 A2999 RMK AO2,KRAS,2022-10-31T19:35:00Z,27.82,-97.08,,,80,10,,10.0,29.991142,,,TRUE,TRUE,,,,,,,BKN,8000,OVC,10000,,,,,VFR,,,,,,,,,,,,METAR,3.0
KPZZ 311935Z AUTO 04006KT 9SM FEW026 22/16 A3002 RMK A01,KPZZ,2022-10-31T19:35:00Z,28.43,-91.03,22.0,16.0,40,6,,9.0,30.02067,,,TRUE,TRUE,,,,,,,FEW,2600,,,,,,,VFR,,,,,,,,,,,,METAR,25.0
KPZQ 311935Z AUTO 02004KT 7SM CLR 13/09 A2981 RMK AO2 T01290092,KPZQ,2022-10-31T19:35:00Z,45.4,-83.82,12.9,9.2,20,4,,7.0,29.811024,,,TRUE,TRUE,,,,,,,CLR,,,,,,,,VFR,,,,,,,,,,,,METAR,199.0
KPYX 311935Z AUTO 22013KT 10SM CLR 21/00 A2998 RMK AO2 T02140002,KPYX,2022-10-31T19:35:00Z,36.42,-100.75,21.4,0.2,220,13,,10.0,29.97933,,,TRUE,TRUE,,,,,,,CLR,,,,,,,,VFR,,,,,,,,,,,,METAR,890.0
KPXE 311935Z AUTO 22009G15KT 10SM BKN030 BKN037 OVC065 26/18 A2997 RMK AO2 T02560185,KPXE,2022-10-31T19:35:00Z,32.52,-83.77,25.6,18.5,220,9,15,10.0,29.970472,,,TRUE,TRUE,,,,,,,BKN,3000,BKN,3700,OVC,6500,,,MVFR,,,,,,,,,,,,SPECI,126.0
KPWD 311935Z AUTO 21008KT 10SM CLR 16/01 A2966 RMK AO2,KPWD,2022-10-31T19:35:00Z,48.78,-104.52,16.0,1.0,210,8,,10.0,29.660433,,,TRUE,TRUE,,,,,,,CLR,,,,,,,,VFR,,,,,,,,,,,,METAR,690.0
KPWC 311935Z AUTO 21009KT 190V250 10SM CLR 18/01 A2978 RMK AO2,KPWC,2022-10-31T19:35:00Z,46.72,-94.38,18.0,1.0,210,9,,10.0,29.778543,,,TRUE,TRUE,,,,,,,CLR,,,,,,,,VFR,,,,,,,,,,,,METAR,394.0
KPVJ 311935Z AUTO 00000KT 10SM CLR 22/06 A3000 RMK AO2 T02230059,KPVJ,2022-10-31T19:35:00Z,34.72,-97.22,22.3,5.9,0,0,,10.0,30.0,,,TRUE,TRUE,,,,,,,CLR,,,,,,,,VFR,,,,,,,,,,,,METAR,287.0
KPVF 311935Z AUTO 20004KT 10SM CLR 17/01 A2999 RMK AO1,KPVF,2022-10-31T19:35:00Z,38.72,-120.75,17.0,1.0,200,4,,10.0,29.991142,,,TRUE,TRUE,,,,,,,CLR,,,,,,,,VFR,,,,,,,,,,,,METAR,788.0
KPVB 311935Z AUTO 30005KT 10SM CLR 19/02 A2983 RMK AO1 T01860022,KPVB,2022-10-31T19:35:00Z,42.68,-90.43,18.6,2.2,300,5,,10.0,29.828741,,,TRUE,TRUE,,,,,,,CLR,,,,,,,,VFR,,,,,,,,,,,,METAR,311.0
KPUJ 311935Z AUTO 29003KT 7SM BKN039 OVC046 21/11 A2998 RMK AO2,KPUJ,2022-10-31T19:35:00Z,33.92,-84.93,21.0,11.0,290,3,,7.0,29.97933,,,TRUE,TRUE,,,,,,,BKN,3900,OVC,4600,,,,,VFR,,,,,,,,,,,,METAR,385.0
KPTT 311935Z AUTO 22007KT 10SM CLR 23/M06 A2996 RMK AO2 T02301059,KPTT,2022-10-31T19:35:00Z,37.7,-98.75,23.0,-5.9,220,7,,10.0,29.958662,,,TRUE,TRUE,,,,,,,CLR,,,,,,,,VFR,,,,,,,,,,,,SPECI,594.0
KPTS 311935Z AUTO 25006KT 10SM CLR 21/07 A2993 RMK AO2 T02140074 PWINO,KPTS,2022-10-31T19:35:00Z,37.45,-94.73,21.4,7.4,250,6,,10.0,29.929134,,,TRUE,TRUE,,,,,TRUE,,CLR,,,,,,,,VFR,,,,,,,,,,,,SPECI,286.0
KPTB 311935Z AUTO 00000KT 10SM CLR 22/13 A3001 RMK AO2 T02240131,KPTB,2022-10-31T19:35:00Z,37.17,-77.52,22.4,13.1,0,0,,10.0,30.008858,,,TRUE,TRUE,,,,,,,CLR,,,,,,,,VFR,,,,,,,,,,,,SPECI,56.0
KPSO 311935Z AUTO 26004KT 10SM CLR 12/M06 A3014 RMK AO2 T01221060,KPSO,2022-10-31T19:35:00Z,37.28,-107.05,12.2,-6.0,260,4,,10.0,30.138779,,,TRUE,TRUE,,,,,,,CLR,,,,,,,,VFR,,,,,,,,,,,,METAR,2332.0
KPSN 311935Z AUTO 28006KT 10SM CLR 25/11 A2999 RMK AO2,KPSN,2022-10-31T19:35:00Z,31.78,-95.7,25.0,11.0,280,6,,10.0,29.991142,,,TRUE,TRUE,,,,,,,CLR,,,,,,,,VFR,,,,,,,,,,,,METAR,124.0
KPSK 311935Z AUTO 14005KT 2 1/2SM +RA SCT005 BKN016 OVC033 14/14 A3000 RMK AO2 P0008 T01400140,KPSK,2022-10-31T19:35:00Z,37.13,-80.67,14.0,14.0,140,5,,2.5,30.0,,,TRUE,TRUE,,,,,,+RA,SCT,500,BKN,1600,OVC,3300,,,IFR,,,,,,0.08,,,,,,METAR,629.0
KPRS 311935Z AUTO 00000KT 10SM SCT120 23/10 A2997 RMK AO2 T02290098,KPRS,2022-10-31T19:35:00Z,29.63,-104.35,22.9,9.8,0,0,,10.0,29.970472,,,TRUE,TRUE,,,,,,,SCT,12000,,,,,,,VFR,,,,,,,,,,,,METAR,890.0
KPRO 311935Z AUTO 29006KT 10SM CLR 20/M01 A2989 RMK AO2 T02001012,KPRO,2022-10-31T19:35:00Z,41.83,-94.17,20.0,-1.2,290,6,,10.0,29.890747,,,TRUE,TRUE,,,,,,,CLR,,,,,,,,VFR,,,,,,,,,,,,METAR,308.0
KPRG 311935Z AUTO 23012KT 10SM OVC012 14/13 A2986 RMK AO2 T01430134,KPRG,2022-10-31T19:35:00Z,39.7,-87.67,14.3,13.4,230,12,,10.0,29.861221,,,TRUE,TRUE,,,,,,,OVC,1200,,,,,,,MVFR,,,,,,,,,,,,SPECI,197.0
KPPQ 311935Z AUTO 30007G16KT 10SM SCT100 18/10 A2989 RMK AO2 T01750097,KPPQ,2022-10-31T19:35:00Z,39.63,-90.78,17.5,9.7,300,7,16,10.0,29.890747,,,TRUE,TRUE,,,,,,,SCT,10000,,,,,,,VFR,,,,,,,,,,,,SPECI,215.0
KPPO 311935Z AUTO 00000KT 4SM +RA BKN006 BKN018 OVC055 14/14 A2980 RMK AO2 P0006 T01380138,KPPO,2022-10-31T19:35:00Z,41.57,-86.73,13.8,13.8,0,0,,4.0,29.799213,,,TRUE,TRUE,,,,,,+RA,BKN,600,BKN,1800,OVC,5500,,,IFR,,,,,,0.06,,,,,,METAR,242.0
KPPA 311935Z AUTO 21012G18KT 10SM CLR 23/05 A3001 RMK AO2 T02270049,KPPA,2022-10-31T19:35:00Z,35.62,-101.0,22.7,4.9,210,12,18,10.0,30.008858,,,TRUE,TRUE,,,,,,,CLR,,,,,,,,VFR,,,,,,,,,,,,SPECI,989.0
KPOY 311935Z AUTO 24013KT 10SM CLR 13/M05 A2988 RMK AO2,KPOY,2022-10-31T19:35:00Z,44.87,-108.8,13.0,-5.0,240,13,,10.0,29.878937,,,TRUE,TRUE,,,,,,,CLR,,,,,,,,VFR,,,,,,,,,,,,METAR,1547.0
KPOV 311935Z AUTO 19004KT 10SM SCT026 SCT035 OVC055 18/12 A2985 RMK AO2 T01770117 PWINO,KPOV,2022-10-31T19:35:00Z,41.22,-81.25,17.7,11.7,190,4,,10.0,29.84941,,,TRUE,TRUE,,,,,TRUE,,SCT,2600,SCT,3500,OVC,5500,,,VFR,,,,,,,,,,,,METAR,363.0
KPNT 311935Z AUTO 31008KT 10SM OVC008 14/14 A2984 RMK AO2 T01370137,KPNT,2022-10-31T19:35:00Z,40.92,-88.62,13.7,13.7,310,8,,10.0,29.840551,,,TRUE,TRUE,,,,,,,OVC,800,,,,,,,IFR,,,,,,,,,,,,METAR,199.0
KPNM 311935Z AUTO 20006KT 10SM CLR 18/M02 A2981 RMK AO2 TSNO,KPNM,2022-10-31T19:35:00Z,45.53,-93.6,18.0,-2.0,200,6,,10.0,29.811024,,,TRUE,TRUE,,,TRUE,,,,CLR,,,,,,,,VFR,,,,,,,,,,,,METAR,298.0
KPNA 311935Z AUTO 29011G16KT 10SM CLR 10/M03 A3008 RMK AO2,KPNA,2022-10-31T19:35:00Z,42.8,-109.8,10.0,-3.0,290,11,16,10.0,30.079725,,,TRUE,TRUE,,,,,,,CLR,,,,,,,,VFR,,,,,,,,,,,,METAR,2158.0
KPMV 311935Z AUTO 23004KT 10SM CLR 20/00 A2991 RMK AO2 T02001005 PWINO,KPMV,2022-10-31T19:35:00Z,40.95,-95.92,20.0,-0.5,230,4,,10.0,29.911417,,,TRUE,TRUE,,,,,TRUE,,CLR,,,,,,,,VFR,,,,,,,,,,,,METAR,365.0
KPMU 311935Z AUTO 23006KT 10SM BKN033 BKN040 22/13 A2996 RMK AO2,KPMU,2022-10-31T19:35:00Z,34.37,-89.9,22.0,13.0,230,6,,10.0,29.958662,,,TRUE,TRUE,,,,,,,BKN,3300,BKN,4000,,,,,VFR,,,,,,,,,,,,METAR,67.0
KPMH 311935Z AUTO 17005KT 10SM SCT033 SCT039 OVC065 21/13 A2989 RMK AO2 T02100132,KPMH,2022-10-31T19:35:00Z,38.83,-82.85,21.0,13.2,170,5,,10.0,29.890747,,,TRUE,TRUE,,,,,,,SCT,3300,SCT,3900,OVC,6500,,,VFR,,,,,,,,,,,,METAR,200.0
KPLU 311935Z AUTO 23006G11KT 10SM BKN060 BKN070 11/10 A2989 RMK AO2,KPLU,2022-10-31T19:35:00Z,47.1,-122.28,11.0,10.0,230,6,11,10.0,29.890747,,,TRUE,TRUE,,,,,,,BKN,6000,BKN,7000,,,,,VFR,,,,,,,,,,,,METAR,164.0
KPLR 311935Z AUTO 00000KT 10SM BKN050 OVC055 20/14 A3000 RMK A01,KPLR,2022-10-31T19:35:00Z,33.57,-86.25,20.0,14.0,0,0,,10.0,30.0,,,TRUE,TRUE,,,,,,,BKN,5000,OVC,5500,,,,,VFR,,,,,,,,,,,,METAR,145.0
KPKV 311935Z AUTO 13010KT 10SM CLR 27/13 A2999 RMK AO2 T02730134,KPKV,2022-10-31T19:35:00Z,28.65,-96.68,27.3,13.4,130,10,,10.0,29.991142,,,TRUE,TRUE,,,,,,,CLR,,,,,,,,VFR,,,,,,,,,,,,METAR,8.0
KPIM 311935Z AUTO 25007KT 10SM SCT039 22/12 A2999 RMK AO2 T02200119,KPIM,2022-10-31T19:35:00Z,32.83,-84.88,22.0,11.9,250,7,,10.0,29.991142,,,TRUE,TRUE,,,,,,,SCT,3900,,,,,,,VFR,,,,,,,,,,,,METAR,274.0
KPHT 311935Z AUTO 25010G17KT 9SM BKN024 OVC030 17/13 A2992 RMK A01,KPHT,2022-10-31T19:35:00Z,36.33,-88.38,17.0,13.0,250,10,17,9.0,29.920275,,,TRUE,TRUE,,,,,,,BKN,2400,OVC,3000,,,,,MVFR,,,,,,,,,,,,METAR,172.0
KPHN 311935Z AUTO 23004KT 10SM OVC006 16/14 A2979 RMK AO2,KPHN,2022-10-31T19:35:00Z,42.92,-82.52,16.0,14.0,230,4,,10.0,29.790354,,,TRUE,TRUE,,,,,,,OVC,600,,,,,,,IFR,,,,,,,,,,,,METAR,195.0
KPGV 311935Z AUTO 17004KT 10SM SCT045 BKN050 26/18 A3001 RMK AO2,KPGV,2022-10-31T19:35:00Z,35.63,-77.4,26.0,18.0,170,4,,10.0,30.008858,,,TRUE,TRUE,,,,,,,SCT,4500,BKN,5000,,,,,VFR,,,,,,,,,,,,METAR,6.0
KPEZ 311935Z AUTO 10006KT 10SM BKN080 28/11 A2998 RMK AO2 T02830110,KPEZ,2022-10-31T19:35:00Z,28.95,-98.52,28.3,11.0,100,6,,10.0,29.97933,,,TRUE,TRUE,,,,,,,BKN,8000,,,,,,,VFR,,,,,,,,,,,,METAR,126.0
KPEX 311935Z AUTO 21008KT 10SM CLR 18/M01 A2980 RMK AO2,KPEX,2022-10-31T19:35:00Z,45.37,-94.73,18.0,-1.0,210,8,,10.0,29.799213,,,TRUE,TRUE,,,,,,,CLR,,,,,,,,VFR,,,,,,,,,,,,METAR,359.0
KPEQ 311935Z AUTO 12007KT 10SM CLR 22/08 A3000 RMK AO2 T02170080,KPEQ,2022-10-31T19:35:00Z,31.38,-103.52,21.7,8.0,120,7,,10.0,30.0,,,TRUE,TRUE,,,,,,,CLR,,,,,,,,VFR,,,,,,,,,,,,METAR,794.0
KPEA 311935Z AUTO 25006KT 10SM CLR 18/03 A2988 RMK AO2 T01780026,KPEA,2022-10-31T19:35:00Z,41.4,-92.95,17.8,2.6,250,6,,10.0,29.878937,,,TRUE,TRUE,,,,,,,CLR,,,,,,,,VFR,,,,,,,,,,,,METAR,264.0
KPDC 311935Z AUTO 00000KT 10SM CLR 18/05 A2983 RMK AO2 T01810046,KPDC,2022-10-31T19:35:00Z,43.02,-91.12,18.1,4.6,0,0,,10.0,29.828741,,,TRUE,TRUE,,,,,,,CLR,,,,,,,,VFR,,,,,,,,,,,,SPECI,201.0
KPCZ 311935Z AUTO 26008KT 10SM CLR 20/04 A2980 RMK AO2 T01980036,KPCZ,2022-10-31T19:35:00Z,44.33,-89.02,19.8,3.6,260,8,,10.0,29.799213,,,TRUE,TRUE,,,,,,,CLR,,,,,,,,VFR,,,,,,,,,,,,METAR,248.0
KPCW 311935Z AUTO 23011G16KT 9SM FEW024 FEW030 OVC075 18/16 A2981 RMK AO2,KPCW,2022-10-31T19:35:00Z,41.52,-82.87,18.0,16.0,230,11,16,9.0,29.811024,,,TRUE,TRUE,,,,,,,FEW,2400,FEW,3000,OVC,7500,,,VFR,,,,,,,,,,,,METAR,179.0
KPCM 311935Z AUTO 10003KT 10SM OVC050 33/20 A2997 RMK AO2,KPCM,2022-10-31T19:35:00Z,28.0,-82.17,33.0,20.0,100,3,,10.0,29.970472,,,TRUE,TRUE,,,,,,,OVC,5000,,,,,,,VFR,,,,,,,,,,,,SPECI,43.0
KPCD 311935Z AUTO 31004KT 10SM OVC021 15/13 A2991 RMK AO2 T01520129,KPCD,2022-10-31T19:35:00Z,37.87,-89.87,15.2,12.9,310,4,,10.0,29.911417,,,TRUE,TRUE,,,,,,,OVC,2100,,,,,,,MVFR,,,,,,,,,,,,METAR,112.0
KPBX 311935Z AUTO 23004KT 3SM BR SCT014 BKN036 OVC065 16/16 A2994 RMK AO2 T01560156,KPBX,2022-10-31T19:35:00Z,37.57,-82.57,15.6,15.6,230,4,,3.0,29.940945,,,TRUE,TRUE,,,,,,BR,SCT,1400,BKN,3600,OVC,6500,,,MVFR,,,,,,,,,,,,METAR,447.0
KPBH 311935Z AUTO 24004KT 10SM CLR 17/00 A2979 RMK AO2 T01671005,KPBH,2022-10-31T19:35:00Z,45.7,-90.4,16.7,-0.5,240,4,,10.0,29.790354,,,TRUE,TRUE,,,,,,,CLR,,,,,,,,VFR,,,,,,,,,,,,SPECI,445.0
KPAN 311935Z AUTO 00000KT 3SM HZ CLR 18/M08 A3008 RMK AO2 PWINO TSNO,KPAN,2022-10-31T19:35:00Z,34.25,-111.33,18.0,-8.0,0,0,,3.0,30.079725,,,TRUE,TRUE,,,TRUE,,TRUE,HZ,CLR,,,,,,,,MVFR,,,,,,,,,,,,METAR,1575.0
KP08 311935Z AUTO 26007KT 10SM CLR 23/00 A2994 RMK AO2,KP08,2022-10-31T19:35:00Z,32.93,-111.43,23.0,0.0,260,7,,10.0,29.940945,,,TRUE,TRUE,,,,,,,CLR,,,,,,,,VFR,,,,,,,,,,,,METAR,477.0
KOZW 311935Z AUTO 25003KT 10SM OVC005 15/14 A2980 RMK AO2 T01540141,KOZW,2022-10-31T19:35:00Z,42.62,-83.98,15.4,14.1,250,3,,10.0,29.799213,,,TRUE,TRUE,,,,,,,OVC,500,,,,,,,IFR,,,,,,,,,,,,METAR,288.0
KOZS 311935Z AUTO 30008KT 10SM CLR 20/04 A2994 RMK AO2,KOZS,2022-10-31T19:35:00Z,37.97,-92.68,20.0,4.0,300,8,,10.0,29.940945,,,TRUE,TRUE,,,,,,,CLR,,,,,,,,VFR,,,,,,,,,,,,SPECI,321.0
KOZA 311935Z AUTO 17005G09KT 10SM SCT047 BKN065 22/08 A3002 RMK AO2,KOZA,2022-10-31T19:35:00Z,30.73,-101.2,22.0,8.0,170,5,9,10.0,30.02067,,,TRUE,TRUE,,,,,,,SCT,4700,BKN,6500,,,,,VFR,,,,,,,,,,,,METAR,721.0
KOYM 311935Z AUTO 13003KT 5SM OVC003 12/11 A2996 RMK AO2 PWINO,KOYM,2022-10-31T19:35:00Z,41.42,-78.5,12.0,11.0,130,3,,5.0,29.958662,,,TRUE,TRUE,,,,,TRUE,,OVC,300,,,,,,,LIFR,,,,,,,,,,,,METAR,582.0
KOXV 311935Z AUTO 29009KT 260V320 10SM CLR 18/01 A2988 RMK AO2,KOXV,2022-10-31T19:35:00Z,41.28,-93.12,18.0,1.0,290,9,,10.0,29.878937,,,TRUE,TRUE,,,,,,,CLR,,,,,,,,VFR,,,,,,,,,,,,METAR,280.0
KOXI 311935Z AUTO 30005KT 10SM SCT008 BKN017 OVC030 15/15 A2979 RMK AO1,KOXI,2022-10-31T19:35:00Z,41.33,-86.67,15.0,15.0,300,5,,10.0,29.790354,,,TRUE,TRUE,,,,,,,SCT,800,BKN,1700,OVC,3000,,,MVFR,,,,,,,,,,,,METAR,208.0
KOXD 311935Z AUTO 22009KT 10SM BKN023 BKN033 OVC046 20/13 A2986 RMK AO2 T02000131,KOXD,2022-10-31T19:35:00Z,39.5,-84.78,20.0,13.1,220,9,,10.0,29.861221,,,TRUE,TRUE,,,,,,,BKN,2300,BKN,3300,OVC,4600,,,MVFR,,,,,,,,,,,,METAR,317.0
KOWX 311935Z AUTO 23006G14KT 10SM OVC065 18/12 A2984 RMK AO1,KOWX,2022-10-31T19:35:00Z,41.03,-83.98,18.0,12.0,230,6,14,10.0,29.840551,,,TRUE,TRUE,,,,,,,OVC,6500,,,,,,,VFR,,,,,,,,,,,,METAR,232.0
KOWP 311935Z AUTO 25006KT 10SM CLR 24/02 A3000 RMK AO2 T02400018,KOWP,2022-10-31T19:35:00Z,36.18,-96.15,24.0,1.8,250,6,,10.0,30.0,,,TRUE,TRUE,,,,,,,CLR,,,,,,,,VFR,,,,,,,,,,,,METAR,267.0
KOVL 311935Z AUTO 21010KT 7SM CLR 19/M02 A2980 RMK AO2,KOVL,2022-10-31T19:35:00Z,44.78,-95.03,19.0,-2.0,210,10,,7.0,29.799213,,,TRUE,TRUE,,,,,,,CLR,,,,,,,,VFR,,,,,,,,,,,,METAR,329.0
KOSC 311935Z AUTO 10007KT 10SM SCT030 16/09 A2978 RMK AO2 T01620091,KOSC,2022-10-31T19:35:00Z,44.45,-83.4,16.2,9.1,100,7,,10.0,29.778543,,,TRUE,TRUE,,,,,,,SCT,3000,,,,,,,VFR,,,,,,,,,,,,METAR,191.0
KOSA 311935Z AUTO 20005KT 10SM CLR 23/09 A3001 RMK AO2 T02340093,KOSA,2022-10-31T19:35:00Z,33.1,-94.97,23.4,9.3,200,5,,10.0,30.008858,,,TRUE,TRUE,,,,,,,CLR,,,,,,,,VFR,,,,,,,,,,,,METAR,108.0
KORS 311935Z AUTO 20007G12KT 10SM FEW055 11/06 A2980 RMK AO2,KORS,2022-10-31T19:35:00Z,48.7,-122.92,11.0,6.0,200,7,12,10.0,29.799213,,,TRUE,TRUE,,,,,,,FEW,5500,,,,,,,VFR,,,,,,,,,,,,METAR,7.0
KORG 311935Z AUTO 00000KT 10SM SCT050 26/12 A3002 RMK AO2 T02630115,KORG,2022-10-31T19:35:00Z,30.07,-93.8,26.3,11.5,0,0,,10.0,30.02067,,,TRUE,TRUE,,,,,,,SCT,5000,,,,,,,VFR,,,,,,,,,,,,SPECI,2.0
KOQN 311935Z AUTO 16003KT 10SM OVC019 16/12 A3001 RMK AO2,KOQN,2022-10-31T19:35:00Z,39.98,-75.58,16.0,12.0,160,3,,10.0,30.008858,,,TRUE,TRUE,,,,,,,OVC,1900,,,,,,,MVFR,,,,,,,,,,,,SPECI,141.0
KOPN 311935Z AUTO 22007KT 10SM SCT030 BKN043 OVC055 26/16 A2999 RMK AO2,KOPN,2022-10-31T19:35:00Z,32.95,-84.27,26.0,16.0,220,7,,10.0,29.991142,,,TRUE,TRUE,,,,,,,SCT,3000,BKN,4300,OVC,5500,,,VFR,,,,,,,,,,,,METAR,241.0
KOPL 311935Z AUTO 00000KT 10SM CLR 25/11 A3000 RMK AO2 T02490105,KOPL,2022-10-31T19:35:00Z,30.55,-92.1,24.9,10.5,0,0,,10.0,30.0,,,TRUE,TRUE,,,,,,,CLR,,,,,,,,VFR,,,,,,,,,,,,METAR,22.0
KOOA 311935Z AUTO 28007KT 10SM CLR 20/11 A2988 RMK AO2 T01960105,KOOA,2022-10-31T19:35:00Z,41.23,-92.5,19.6,10.5,280,7,,10.0,29.878937,,,TRUE,TRUE,,,,,,,CLR,,,,,,,,VFR,,,,,,,,,,,,METAR,256.0
KONZ 311935Z AUTO 22004KT 1 1/4SM -RA BKN007 OVC010 15/12 A2980 RMK AO2 T01460118 P0001,KONZ,2022-10-31T19:35:00Z,42.1,-83.15,14.6,11.8,220,4,,1.25,29.799213,,,TRUE,TRUE,,,,,,-RA,BKN,700,OVC,1000,,,,,IFR,,,,,,0.01,,,,,,METAR,179.0
KONX 311935Z AUTO 10004KT 10SM SCT110 21/12 A3003 RMK AO2 T02070119,KONX,2022-10-31T19:35:00Z,36.4,-76.02,20.7,11.9,100,4,,10.0,30.029528,,,TRUE,TRUE,,,,,,,SCT,11000,,,,,,,VFR,,,,,,,,,,,,METAR,4.0
KONM 311935Z AUTO 35006KT 10SM CLR 17/M06 A3007 RMK AO2 T01661059,KONM,2022-10-31T19:35:00Z,34.02,-106.9,16.6,-5.9,350,6,,10.0,30.070866,,,TRUE,TRUE,,,,,,,CLR,,,,,,,,VFR,,,,,,,,,,,,METAR,1467.0
KONL 311935Z AUTO 17010KT 10SM CLR 22/M06 A2983 RMK AO2 T02161061,KONL,2022-10-31T19:35:00Z,42.47,-98.68,21.6,-6.1,170,10,,10.0,29.828741,,,TRUE,TRUE,,,,,,,CLR,,,,,,,,VFR,,,,,,,,,,,,METAR,619.0
KONA 311935Z AUTO 00000KT 10SM CLR 18/05 A2982 RMK AO2,KONA,2022-10-31T19:35:00Z,44.07,-91.7,18.0,5.0,0,0,,10.0,29.819881,,,TRUE,TRUE,,,,,,,CLR,,,,,,,,VFR,,,,,,,,,,,,SPECI,200.0
KOMH 311935Z AUTO 22004KT 10SM RA BKN022 BKN075 OVC110 14/14 A3003 RMK AO2 P0002,KOMH,2022-10-31T19:35:00Z,38.25,-78.05,14.0,14.0,220,4,,10.0,30.029528,,,TRUE,TRUE,,,,,,RA,BKN,2200,BKN,7500,OVC,11000,,,MVFR,,,,,,0.02,,,,,,SPECI,136.0
KOLZ 311935Z AUTO 29007KT 9SM CLR 17/04 A2985 RMK A01,KOLZ,2022-10-31T19:35:00Z,42.67,-91.97,17.0,4.0,290,7,,9.0,29.84941,,,TRUE,TRUE,,,,,,,CLR,,,,,,,,VFR,,,,,,,,,,,,METAR,328.0
KOLY 311935Z AUTO 24004KT 10SM BKN019 BKN024 OVC033 17/12 A2988 RMK AO2 T01660120,KOLY,2022-10-31T19:35:00Z,38.72,-88.18,16.6,12.0,240,4,,10.0,29.878937,,,TRUE,TRUE,,,,,,,BKN,1900,BKN,2400,OVC,3300,,,MVFR,,,,,,,,,,,,METAR,144.0
KOLG 311935Z AUTO 21008KT 10SM CLR 16/M05 A2979 RMK AO1,KOLG,2022-10-31T19:35:00Z,46.3,-91.82,16.0,-5.0,210,8,,10.0,29.790354,,,TRUE,TRUE,,,,,,,CLR,,,,,,,,VFR,,,,,,,,,,,,METAR,334.0
KOLE 311935Z AUTO 21005KT 3SM BR OVC003 11/11 A2991 RMK AO2,KOLE,2022-10-31T19:35:00Z,42.23,-78.37,11.0,11.0,210,5,,3.0,29.911417,,,TRUE,TRUE,,,,,,BR,OVC,300,,,,,,,LIFR,,,,,,,,,,,,SPECI,651.0
KOKZ 311935Z AUTO 22005KT 10SM BKN027 OVC035 24/19 A2996 RMK AO2 T02450188,KOKZ,2022-10-31T19:35:00Z,32.97,-82.83,24.5,18.8,220,5,,10.0,29.958662,,,TRUE,TRUE,,,,,,,BKN,2700,OVC,3500,,,,,MVFR,,,,,,,,,,,,METAR,128.0
KOKV 311935Z AUTO 00000KT 5SM RA SCT046 SCT070 OVC100 13/12 A2997 RMK AO2,KOKV,2022-10-31T19:35:00Z,39.13,-78.15,13.0,12.0,0,0,,5.0,29.970472,,,TRUE,TRUE,,,,,,RA,SCT,4600,SCT,7000,OVC,10000,,,MVFR,,,,,,,,,,,,SPECI,213.0
KOKM 311935Z AUTO 28005KT 10SM CLR 23/M02 A2998 RMK AO2 T02331022,KOKM,2022-10-31T19:35:00Z,35.67,-95.95,23.3,-2.2,280,5,,10.0,29.97933,,,TRUE,TRUE,,,,,,,CLR,,,,,,,,VFR,,,,,,,,,,,,METAR,215.0
KOJA 311935Z AUTO 24008KT 10SM CLR 23/05 A3000 RMK AO2 T02310049,KOJA,2022-10-31T19:35:00Z,35.55,-98.67,23.1,4.9,240,8,,10.0,30.0,,,TRUE,TRUE,,,,,,,CLR,,,,,,,,VFR,,,,,,,,,,,,METAR,490.0
KOIN 311935Z AUTO 26008KT 10SM CLR 22/M02 A2995 RMK AO1 T02221017,KOIN,2022-10-31T19:35:00Z,39.83,-100.53,22.2,-1.7,260,8,,10.0,29.949802,,,TRUE,TRUE,,,,,,,CLR,,,,,,,,VFR,,,,,,,,,,,,SPECI,810.0
KOIC 311935Z AUTO 18007KT 10SM OVC100 15/09 A2996 RMK AO2 T01520089,KOIC,2022-10-31T19:35:00Z,42.57,-75.52,15.2,8.9,180,7,,10.0,29.958662,,,TRUE,TRUE,,,,,,,OVC,10000,,,,,,,VFR,,,,,,,,,,,,SPECI,311.0
KOGS 311935Z AUTO 21004KT 10SM BKN110 15/05 A2988 RMK AO2,KOGS,2022-10-31T19:35:00Z,44.67,-75.47,15.0,5.0,210,4,,10.0,29.878937,,,TRUE,TRUE,,,,,,,BKN,11000,,,,,,,VFR,,,,,,,,,,,,METAR,88.0
KOGA 311935Z AUTO 29010G17KT 250V310 10SM CLR 21/M06 A2990 RMK AO2 T02111056,KOGA,2022-10-31T19:35:00Z,41.12,-101.77,21.1,-5.6,290,10,17,10.0,29.899607,,,TRUE,TRUE,,,,,,,CLR,,,,,,,,VFR,,,,,,,,,,,,SPECI,991.0
KOEO 311935Z AUTO 24006KT 10SM CLR 18/02 A2984 RMK AO2 T01820020,KOEO,2022-10-31T19:35:00Z,45.32,-92.7,18.2,2.0,240,6,,10.0,29.840551,,,TRUE,TRUE,,,,,,,CLR,,,,,,,,VFR,,,,,,,,,,,,METAR,269.0
KOEL 311935Z AUTO 21008KT 10SM CLR 22/M07 A2993 RMK AO1 T02231067,KOEL,2022-10-31T19:35:00Z,39.12,-100.82,22.3,-6.7,210,8,,10.0,29.929134,,,TRUE,TRUE,,,,,,,CLR,,,,,,,,VFR,,,,,,,,,,,,METAR,924.0
KOEB 311935Z AUTO 26004KT 5SM -DZ BKN007 BKN014 OVC060 15/14 A2981 RMK AO2 T01500142,KOEB,2022-10-31T19:35:00Z,41.92,-85.05,15.0,14.2,260,4,,5.0,29.811024,,,TRUE,TRUE,,,,,,-DZ,BKN,700,BKN,1400,OVC,6000,,,IFR,,,,,,,,,,,,METAR,291.0
KOCQ 311935Z AUTO 17006KT 10SM CLR 17/07 A2978 RMK AO1 T01670069,KOCQ,2022-10-31T19:35:00Z,44.87,-87.92,16.7,6.9,170,6,,10.0,29.778543,,,TRUE,TRUE,,,,,,,CLR,,,,,,,,VFR,,,,,,,,,,,,METAR,181.0
KOBE 311935Z AUTO VRB04KT 10SM CLR 31/25 A2992 RMK AO2,KOBE,2022-10-31T19:35:00Z,27.27,-80.85,31.0,25.0,0,4,,10.0,29.920275,,,TRUE,TRUE,,,,,,,CLR,,,,,,,,VFR,,,,,,,,,,,,METAR,11.0
KOAR 311935Z AUTO 00000KT 10SM CLR M01/M06 A2996 RMK AO2 PWINO,KOAR,2022-10-31T19:35:00Z,36.67,-121.77,-1.0,-6.0,0,0,,10.0,29.958662,,,TRUE,TRUE,,,,,TRUE,,CLR,,,,,,,,VFR,,,,,,,,,,,,METAR,41.0
KO69 311935Z AUTO VRB04KT 9SM CLR 15/10 A2995 RMK A01,KO69,2022-10-31T19:35:00Z,38.25,-122.6,15.0,10.0,0,4,,9.0,29.949802,,,TRUE,TRUE,,,,,,,CLR,,,,,,,,VFR,,,,,,,,,,,,METAR,26.0
KO32 311935Z AUTO 25004KT 10SM FEW230 19/07 A2992 RMK AO2 T01930073 $,KO32,2022-10-31T19:35:00Z,36.67,-119.45,19.3,7.3,250,4,,10.0,29.920275,,,TRUE,TRUE,TRUE,,,,,,FEW,23000,,,,,,,VFR,,,,,,,,,,,,METAR,117.0
KO22 311935Z AUTO 00000KT 10SM CLR 20/00 A2995 RMK A01,KO22,2022-10-31T19:35:00Z,38.03,-120.42,20.0,0.0,0,0,,10.0,29.949802,,,TRUE,TRUE,,,,,,,CLR,,,,,,,,VFR,,,,,,,,,,,,SPECI,637.0
KO05 311935Z AUTO 00000KT 5SM HZ CLR 12/M05 A3004 RMK A01,KO05,2022-10-31T19:35:00Z,40.28,-121.23,12.0,-5.0,0,0,,5.0,30.041338,,,TRUE,TRUE,,,,,,HZ,CLR,,,,,,,,MVFR,,,,,,,,,,,,METAR,1380.0
KNUQ 311935Z AUTO 34004KT 7SM CLR 16/11 A2994 RMK AO2,KNUQ,2022-10-31T19:35:00Z,37.4,-122.05,16.0,11.0,340,4,,7.0,29.940945,,,TRUE,TRUE,,,,,,,CLR,,,,,,,,VFR,,,,,,,,,,,,SPECI,9.0
KNRN 311935Z AUTO 25011G16KT 10SM CLR 25/M02 A2992 RMK AO2,KNRN,2022-10-31T19:35:00Z,39.85,-99.9,25.0,-2.0,250,11,16,10.0,29.920275,,,TRUE,TRUE,,,,,,,CLR,,,,,,,,VFR,,,,,,,,,,,,SPECI,726.0
KNOW 311935Z AUTO 31017G22KT 10SM BKN065 OVC075 11/08 A2982 RMK AO2 T01090076,KNOW,2022-10-31T19:35:00Z,48.13,-123.4,10.9,7.6,310,17,22,10.0,29.819881,,,TRUE,TRUE,,,,,,,BKN,6500,OVC,7500,,,,,VFR,,,,,,,,,,,,SPECI,3.0
KN38 311935Z AUTO 20008KT 10SM OVC012 11/09 A2993 RMK AO2,KN38,2022-10-31T19:35:00Z,41.73,-77.4,11.0,9.0,200,8,,10.0,29.929134,,,TRUE,TRUE,,,,,,,OVC,1200,,,,,,,MVFR,,,,,,,,,,,,METAR,576.0
KN03 311935Z AUTO 17006KT 10SM BKN041 OVC050 15/08 A2992 RMK AO2,KN03,2022-10-31T19:35:00Z,42.6,-76.22,15.0,8.0,170,6,,10.0,29.920275,,,TRUE,TRUE,,,,,,,BKN,4100,OVC,5000,,,,,VFR,,,,,,,,,,,,METAR,361.0
KMZZ 311935Z AUTO 22010KT 10SM SCT015 BKN027 OVC044 16/14 A2983 RMK AO2 T01560143,KMZZ,2022-10-31T19:35:00Z,40.48,-85.68,15.6,14.3,220,10,,10.0,29.828741,,,TRUE,TRUE,,,,,,,SCT,1500,BKN,2700,OVC,4400,,,MVFR,,,,,,,,,,,,SPECI,260.0
KMZJ 311935Z AUTO 00000KT 10SM CLR 25/M04 A2995 RMK AO2,KMZJ,2022-10-31T19:35:00Z,32.52,-111.32,25.0,-4.0,0,0,,10.0,29.949802,,,TRUE,TRUE,,,,,,,CLR,,,,,,,,VFR,,,,,,,,,,,,METAR,574.0
KMZH 311935Z AUTO 20007KT 10SM CLR 18/00 A2977 RMK AO2,KMZH,2022-10-31T19:35:00Z,46.42,-92.8,18.0,0.0,200,7,,10.0,29.769686,,,TRUE,TRUE,,,,,,,CLR,,,,,,,,VFR,,,,,,,,,,,,METAR,331.0
KMYP 311935Z AUTO 24016G21KT 10SM CLR 00/M08 A3034 RMK AO2,KMYP,2022-10-31T19:35:00Z,38.48,-106.32,0.0,-8.0,240,16,21,10.0,30.339567,,,TRUE,TRUE,,,,,,,CLR,,,,,,,,VFR,,,,,,,,,,,,METAR,3629.0
KMYJ 311935Z AUTO 27003KT 10SM CLR 19/09 A2990 RMK AO2,KMYJ,2022-10-31T19:35:00Z,39.15,-91.82,19.0,9.0,270,3,,10.0,29.899607,,,TRUE,TRUE,,,,,,,CLR,,,,,,,,VFR,,,,,,,,,,,,SPECI,249.0
KMWO 311935Z AUTO 22012KT 10SM SCT029 BKN048 OVC075 19/12 A2987 RMK AO2 T01870125,KMWO,2022-10-31T19:35:00Z,39.53,-84.4,18.7,12.5,220,12,,10.0,29.870079,,,TRUE,TRUE,,,,,,,SCT,2900,BKN,4800,OVC,7500,,,VFR,,,,,,,,,,,,METAR,197.0
KMWM 311935Z AUTO 20008G14KT 10SM CLR 19/M02 A2982 RMK AO2,KMWM,2022-10-31T19:35:00Z,43.9,-95.1,19.0,-2.0,200,8,14,10.0,29.819881,,,TRUE,TRUE,,,,,,,CLR,,,,,,,,VFR,,,,,,,,,,,,METAR,427.0
KMWK 311935Z AUTO 00000KT 5SM RA OVC007 14/13 A3003 RMK AO2 T01390134,KMWK,2022-10-31T19:35:00Z,36.47,-80.55,13.9,13.4,0,0,,5.0,30.029528,,,TRUE,TRUE,,,,,,RA,OVC,700,,,,,,,IFR,,,,,,,,,,,,METAR,374.0
KMVH 311935Z AUTO 25013G20KT 10SM CLR 16/M00 A2975 RMK AO2 PWINO,KMVH,2022-10-31T19:35:00Z,46.83,-108.93,16.0,0.0,250,13,20,10.0,29.749016,,,TRUE,TRUE,,,,,TRUE,,CLR,,,,,,,,VFR,,,,,,,,,,,,METAR,1352.0
KMVE 311935Z AUTO 19004KT 10SM CLR 19/00 A2979 RMK AO2,KMVE,2022-10-31T19:35:00Z,44.97,-95.72,19.0,0.0,190,4,,10.0,29.790354,,,TRUE,TRUE,,,,,,,CLR,,,,,,,,VFR,,,,,,,,,,,,METAR,319.0
KMUT 311935Z AUTO 29009KT 10SM CLR 20/05 A2986 RMK AO2,KMUT,2022-10-31T19:35:00Z,41.37,-91.15,20.0,5.0,290,9,,10.0,29.861221,,,TRUE,TRUE,,,,,,,CLR,,,,,,,,VFR,,,,,,,,,,,,METAR,166.0
KMTV 311935Z AUTO 00000KT 7SM RA OVC017 14/12 A3003 RMK AO2 P0005 T01360124,KMTV,2022-10-31T19:35:00Z,36.63,-80.02,13.6,12.4,0,0,,7.0,30.029528,,,TRUE,TRUE,,,,,,RA,OVC,1700,,,,,,,MVFR,,,,,,0.05,,,,,,SPECI,276.0
KMRT 311935Z AUTO 23013KT 10SM SCT023 SCT046 OVC070 18/12 A2987 RMK AO2 T01750124,KMRT,2022-10-31T19:35:00Z,40.22,-83.35,17.5,12.4,230,13,,10.0,29.870079,,,TRUE,TRUE,,,,,,,SCT,2300,SCT,4600,OVC,7000,,,VFR,,,,,,,,,,,,METAR,302.0
KMRN 311935Z AUTO 00000KT 10SM OVC006 15/14 A3004 RMK AO2 T01500140,KMRN,2022-10-31T19:35:00Z,35.82,-81.62,15.0,14.0,0,0,,10.0,30.041338,,,TRUE,TRUE,,,,,,,OVC,600,,,,,,,IFR,,,,,,,,,,,,SPECI,375.0
KMRJ 311935Z AUTO 00000KT 10SM CLR 18/02 A2982 RMK AO2,KMRJ,2022-10-31T19:35:00Z,42.88,-90.23,18.0,2.0,0,0,,10.0,29.819881,,,TRUE,TRUE,,,,,,,CLR,,,,,,,,VFR,,,,,,,,,,,,METAR,350.0
KMQW 311935Z AUTO 00000KT 10SM OVC028 26/20 A2996 RMK AO2 T02560201,KMQW,2022-10-31T19:35:00Z,32.1,-82.88,25.6,20.1,0,0,,10.0,29.958662,,,TRUE,TRUE,,,,,,,OVC,2800,,,,,,,MVFR,,,,,,,,,,,,SPECI,62.0
KMQS 311935Z AUTO VRB04KT 10SM OVC011 15/14 A3002 RMK AO2,KMQS,2022-10-31T19:35:00Z,39.98,-75.87,15.0,14.0,0,4,,10.0,30.02067,,,TRUE,TRUE,,,,,,,OVC,1100,,,,,,,MVFR,,,,,,,,,,,,SPECI,200.0
KMQJ 311935Z AUTO 22006KT 7SM BKN009 OVC014 15/15 A2984 RMK AO1,KMQJ,2022-10-31T19:35:00Z,39.85,-85.9,15.0,15.0,220,6,,7.0,29.840551,,,TRUE,TRUE,,,,,,,BKN,900,OVC,1400,,,,,IFR,,,,,,,,,,,,METAR,262.0
KMQI 311935Z AUTO 13003KT 10SM OVC065 20/13 A3005 RMK AO2 T02030125,KMQI,2022-10-31T19:35:00Z,35.92,-75.7,20.3,12.5,130,3,,10.0,30.050198,,,TRUE,TRUE,,,,,,,OVC,6500,,,,,,,VFR,,,,,,,,,,,,METAR,3.0
KMPR 311935Z AUTO 31003KT 10SM CLR 21/M02 A2995 RMK AO2 T02081024,KMPR,2022-10-31T19:35:00Z,38.35,-97.68,20.8,-2.4,310,3,,10.0,29.949802,,,TRUE,TRUE,,,,,,,CLR,,,,,,,,VFR,,,,,,,,,,,,METAR,455.0
KMOX 311935Z AUTO 19007KT 10SM CLR 18/M04 A2978 RMK AO2,KMOX,2022-10-31T19:35:00Z,45.57,-95.97,18.0,-4.0,190,7,,10.0,29.778543,,,TRUE,TRUE,,,,,,,CLR,,,,,,,,VFR,,,,,,,,,,,,METAR,346.0
KMOR 311935Z AUTO 29010G16KT 250V330 10SM SCT018 BKN041 OVC070 19/16 A2993 RMK A01,KMOR,2022-10-31T19:35:00Z,36.18,-83.37,19.0,16.0,290,10,16,10.0,29.929134,,,TRUE,TRUE,,,,,,,SCT,1800,BKN,4100,OVC,7000,,,VFR,,,,,,,,,,,,METAR,393.0
KMOP 311935Z AUTO 00000KT 10SM SCT014 OVC100 15/11 A2979 RMK AO2 T01500113,KMOP,2022-10-31T19:35:00Z,43.62,-84.73,15.0,11.3,0,0,,10.0,29.790354,,,TRUE,TRUE,,,,,,,SCT,1400,OVC,10000,,,,,VFR,,,,,,,,,,,,METAR,229.0
KMNZ 311935Z AUTO 14004KT 7SM CLR 25/08 A3002 RMK AO2 T02460082,KMNZ,2022-10-31T19:35:00Z,31.67,-98.15,24.6,8.2,140,4,,7.0,30.02067,,,TRUE,TRUE,,,,,,,CLR,,,,,,,,VFR,,,,,,,,,,,,METAR,397.0
KMNV 311935Z AUTO 27010KT 10SM 19/14 A2996 RMK A01,KMNV,2022-10-31T19:35:00Z,35.55,-84.38,19.0,14.0,270,10,,10.0,29.958662,,,TRUE,TRUE,,,,,,,,,,,,,,,,,,,,,,,,,,,METAR,306.0
KMNI 311935Z AUTO 19005KT 10SM SCT031 SCT120 26/18 A2997 RMK AO2,KMNI,2022-10-31T19:35:00Z,33.58,-80.22,26.0,18.0,190,5,,10.0,29.970472,,,TRUE,TRUE,,,,,,,SCT,3100,SCT,12000,,,,,VFR,,,,,,,,,,,,SPECI,29.0
KMNH 311935Z AUTO 19004KT 10SM CLR 14/M30 A3004 RMK AO2,KMNH,2022-10-31T19:35:00Z,39.22,-104.65,14.0,-30.0,190,4,,10.0,30.041338,,,TRUE,TRUE,,,,,,,CLR,,,,,,,,VFR,,,,,,,,,,,,METAR,2152.0
KMNE 311935Z AUTO 22004KT 10SM CLR 24/14 A3000 RMK AO2 T02430143,KMNE,2022-10-31T19:35:00Z,32.65,-93.3,24.3,14.3,220,4,,10.0,30.0,,,TRUE,TRUE,,,,,,,CLR,,,,,,,,VFR,,,,,,,,,,,,METAR,84.0
KMMI 311935Z AUTO 25006KT 10SM FEW026 SCT040 BKN047 19/14 A2998 RMK A01,KMMI,2022-10-31T19:35:00Z,35.4,-84.57,19.0,14.0,250,6,,10.0,29.97933,,,TRUE,TRUE,,,,,,,FEW,2600,SCT,4000,BKN,4700,,,VFR,,,,,,,,,,,,METAR,252.0
KMLJ 311935Z AUTO VRB04KT 10SM FEW024 SCT028 BKN080 25/20 A2995 RMK AO2,KMLJ,2022-10-31T19:35:00Z,33.15,-83.25,25.0,20.0,0,4,,10.0,29.949802,,,TRUE,TRUE,,,,,,,FEW,2400,SCT,2800,BKN,8000,,,VFR,,,,,,,,,,,,METAR,115.0
KMLE 311935Z AUTO 23006KT 10SM CLR 20/00 A2990 RMK AO2 T02010001,KMLE,2022-10-31T19:35:00Z,41.2,-96.12,20.1,0.1,230,6,,10.0,29.899607,,,TRUE,TRUE,,,,,,,CLR,,,,,,,,VFR,,,,,,,,,,,,METAR,318.0
KMKS 311935Z AUTO 21005KT 10SM -RA SCT034 SCT047 SCT055 26/18 A2998 RMK AO2,KMKS,2022-10-31T19:35:00Z,33.18,-80.03,26.0,18.0,210,5,,10.0,29.97933,,,TRUE,TRUE,,,,,,-RA,SCT,3400,SCT,4700,SCT,5500,,,VFR,,,,,,,,,,,,METAR,22.0
KMKN 311935Z AUTO 19006KT 10SM CLR 27/10 A3003 RMK AO2 T02670099,KMKN,2022-10-31T19:35:00Z,31.92,-98.6,26.7,9.9,190,6,,10.0,30.029528,,,TRUE,TRUE,,,,,,,CLR,,,,,,,,VFR,,,,,,,,,,,,METAR,428.0
KMKJ 311935Z AUTO 02003KT 10SM BKN005 OVC037 15/14 A3002 RMK AO2 T01450135,KMKJ,2022-10-31T19:35:00Z,36.88,-81.33,14.5,13.5,20,3,,10.0,30.02067,,,TRUE,TRUE,,,,,,,BKN,500,OVC,3700,,,,,IFR,,,,,,,,,,,,METAR,777.0
KMJQ 311935Z AUTO 24008KT 10SM CLR 18/M01 A2985 RMK AO2,KMJQ,2022-10-31T19:35:00Z,43.63,-94.98,18.0,-1.0,240,8,,10.0,29.84941,,,TRUE,TRUE,,,,,,,CLR,,,,,,,,VFR,,,,,,,,,,,,METAR,439.0
KMJD 311935Z AUTO 00000KT 10SM BKN041 BKN047 BKN055 24/14 A2999 RMK AO2,KMJD,2022-10-31T19:35:00Z,30.48,-89.65,24.0,14.0,0,0,,10.0,29.991142,,,TRUE,TRUE,,,,,,,BKN,4100,BKN,4700,BKN,5500,,,VFR,,,,,,,,,,,,METAR,17.0
KMHR 311935Z AUTO 00000KT 10SM CLR 18/05 A2993 RMK A01,KMHR,2022-10-31T19:35:00Z,38.55,-121.28,18.0,5.0,0,0,,10.0,29.929134,,,TRUE,TRUE,,,,,,,CLR,,,,,,,,VFR,,,,,,,,,,,,METAR,30.0
KMHP 311935Z AUTO 21005KT 10SM BKN039 BKN060 BKN070 27/19 A2996 RMK AO2 T02720193,KMHP,2022-10-31T19:35:00Z,32.37,-82.08,27.2,19.3,210,5,,10.0,29.958662,,,TRUE,TRUE,,,,,,,BKN,3900,BKN,6000,BKN,7000,,,VFR,,,,,,,,,,,,METAR,60.0
KMHL 311935Z AUTO 28006KT 10SM CLR 19/06 A2993 RMK AO2,KMHL,2022-10-31T19:35:00Z,39.1,-93.2,19.0,6.0,280,6,,10.0,29.929134,,,TRUE,TRUE,,,,,,,CLR,,,,,,,,VFR,,,,,,,,,,,,SPECI,236.0
KMGR 311935Z AUTO 21005KT 10SM SCT033 SCT048 26/18 A2997 RMK AO2,KMGR,2022-10-31T19:35:00Z,31.08,-83.8,26.0,18.0,210,5,,10.0,29.970472,,,TRUE,TRUE,,,,,,,SCT,3300,SCT,4800,,,,,VFR,,,,,,,,,,,,METAR,86.0
KMGN 311935Z AUTO 22004KT 10SM CLR 13/07 A2979 RMK AO2 T01400075,KMGN,2022-10-31T19:35:00Z,45.43,-84.92,14.0,7.5,220,4,,10.0,29.790354,,,TRUE,TRUE,,,,,,,CLR,,,,,,,,VFR,,,,,,,,,,,,METAR,205.0
KMGG 311935Z AUTO 20006KT 10SM CLR 18/M03 A2982 RMK AO2 T01821034,KMGG,2022-10-31T19:35:00Z,45.23,-93.98,18.2,-3.4,200,6,,10.0,29.819881,,,TRUE,TRUE,,,,,,,CLR,,,,,,,,VFR,,,,,,,,,,,,METAR,310.0
KMGC 311935Z AUTO 33004KT 5SM -RA OVC003 13/12 A2980 RMK AO2,KMGC,2022-10-31T19:35:00Z,41.7,-86.82,13.0,12.0,330,4,,5.0,29.799213,,,TRUE,TRUE,,,,,,-RA,OVC,300,,,,,,,LIFR,,,,,,,,,,,,METAR,199.0
KMEZ 311935Z AUTO 00000KT 10SM 22/08 A2999 RMK AO2 T02180084,KMEZ,2022-10-31T19:35:00Z,34.55,-94.2,21.8,8.4,0,0,,10.0,29.991142,,,TRUE,TRUE,,,,,,,,,,,,,,,,,,,,,,,,,,,METAR,320.0
KMEV 311935Z AUTO 00000KT 10SM CLR 13/M08 A3004 RMK AO2,KMEV,2022-10-31T19:35:00Z,38.98,-119.75,13.0,-8.0,0,0,,10.0,30.041338,,,TRUE,TRUE,,,,,,,CLR,,,,,,,,VFR,,,,,,,,,,,,METAR,1437.0
KMDZ 311935Z AUTO 22004KT 10SM CLR 16/04 A2981 RMK AO2 T01630044 PWINO,KMDZ,2022-10-31T19:35:00Z,45.1,-90.3,16.3,4.4,220,4,,10.0,29.811024,,,TRUE,TRUE,,,,,TRUE,,CLR,,,,,,,,VFR,,,,,,,,,,,,METAR,446.0
KMDS 311935Z AUTO 22011KT 10SM CLR 19/01 A2980 RMK AO2,KMDS,2022-10-31T19:35:00Z,44.02,-97.08,19.0,1.0,220,11,,10.0,29.799213,,,TRUE,TRUE,,,,,,,CLR,,,,,,,,VFR,,,,,,,,,,,,METAR,524.0
KMDD 311935Z AUTO 15011KT 10SM CLR 22/07 A3003 RMK AO2 T02230069,KMDD,2022-10-31T19:35:00Z,32.03,-102.1,22.3,6.9,150,11,,10.0,30.029528,,,TRUE,TRUE,,,,,,,CLR,,,,,,,,VFR,,,,,,,,,,,,METAR,853.0
KMCJ 311935Z AUTO VRB04G10KT 10SM CLR 25/09 A2998 RMK A01,KMCJ,2022-10-31T19:35:00Z,29.72,-95.4,25.0,9.0,0,4,10,10.0,29.97933,,,TRUE,TRUE,,,,,,,CLR,,,,,,,,VFR,,,,,,,,,,,,SPECI,70.0
KMCD 311935Z AUTO 23003KT 10SM CLR 15/05 A2978 RMK AO2 T01490053,KMCD,2022-10-31T19:35:00Z,45.85,-84.63,14.9,5.3,230,3,,10.0,29.778543,,,TRUE,TRUE,,,,,,,CLR,,,,,,,,VFR,,,,,,,,,,,,METAR,228.0
KMCC 311935Z AUTO 33004KT 10SM CLR 19/06 A2994 RMK AO2,KMCC,2022-10-31T19:35:00Z,38.67,-121.4,19.0,6.0,330,4,,10.0,29.940945,,,TRUE,TRUE,,,,,,,CLR,,,,,,,,VFR,,,,,,,,,,,,SPECI,21.0
KMBY 311935Z AUTO 27008KT 10SM CLR 19/05 A2991 RMK AO2,KMBY,2022-10-31T19:35:00Z,39.47,-92.43,19.0,5.0,270,8,,10.0,29.911417,,,TRUE,TRUE,,,,,,,CLR,,,,,,,,VFR,,,,,,,,,,,,SPECI,263.0
KMBT 311935Z AUTO 24010KT 10SM SCT030 BKN060 OVC070 19/12 A2993 RMK A01,KMBT,2022-10-31T19:35:00Z,35.88,-86.38,19.0,12.0,240,10,,10.0,29.929134,,,TRUE,TRUE,,,,,,,SCT,3000,BKN,6000,OVC,7000,,,VFR,,,,,,,,,,,,METAR,187.0
KMBO 311935Z AUTO 28008KT 10SM CLR 23/14 A2999 RMK AO2,KMBO,2022-10-31T19:35:00Z,32.43,-90.1,23.0,14.0,280,8,,10.0,29.991142,,,TRUE,TRUE,,,,,,,CLR,,,,,,,,VFR,,,,,,,,,,,,METAR,98.0
KMAW 311935Z AUTO 26008KT 10SM BKN039 OVC047 18/12 A2994 RMK AO1,KMAW,2022-10-31T19:35:00Z,36.6,-90.0,18.0,12.0,260,8,,10.0,29.940945,,,TRUE,TRUE,,,,,,,BKN,3900,OVC,4700,,,,,VFR,,,,,,,,,,,,SPECI,88.0
KMAO 311935Z AUTO 15006KT 10SM SCT029 SCT034 SCT049 24/18 A2998 RMK AO2,KMAO,2022-10-31T19:35:00Z,34.18,-79.33,24.0,18.0,150,6,,10.0,29.97933,,,TRUE,TRUE,,,,,,,SCT,2900,SCT,3400,SCT,4900,,,VFR,,,,,,,,,,,,METAR,27.0
KMAN 311935Z AUTO 16004KT 10SM CLR 17/01 A2995 RMK A01,KMAN,2022-10-31T19:35:00Z,43.58,-116.52,17.0,1.0,160,4,,10.0,29.949802,,,TRUE,TRUE,,,,,,,CLR,,,,,,,,VFR,,,,,,,,,,,,METAR,773.0
KM75 311935Z AUTO 22004KT 10SM CLR 18/02 A2963 RMK A01,KM75,2022-10-31T19:35:00Z,48.37,-107.92,18.0,2.0,220,4,,10.0,29.630905,,,TRUE,TRUE,,,,,,,CLR,,,,,,,,VFR,,,,,,,,,,,,METAR,687.0
KM40 311935Z AUTO VRB06G12KT 10SM FEW030 FEW034 OVC060 21/15 A2999 RMK AO2,KM40,2022-10-31T19:35:00Z,33.87,-88.48,21.0,15.0,0,6,12,10.0,29.991142,,,TRUE,TRUE,,,,,,,FEW,3000,FEW,3400,OVC,6000,,,VFR,,,,,,,,,,,,SPECI,68.0
KM30 311935Z AUTO 24005KT 10SM SCT024 SCT033 OVC055 17/15 A2991 RMK AO2 T01710145,KM30,2022-10-31T19:35:00Z,37.18,-88.75,17.1,14.5,240,5,,10.0,29.911417,,,TRUE,TRUE,,,,,,,SCT,2400,SCT,3300,OVC,5500,,,VFR,,,,,,,,,,,,METAR,116.0
KM21 311935Z AUTO 21009KT 10SM SCT020 SCT027 OVC065 18/14 A2991 RMK AO2 T01800142,KM21,2022-10-31T19:35:00Z,37.22,-87.15,18.0,14.2,210,9,,10.0,29.911417,,,TRUE,TRUE,,,,,,,SCT,2000,SCT,2700,OVC,6500,,,VFR,,,,,,,,,,,,METAR,127.0
KM08 311935Z AUTO 25006G13KT 10SM FEW028 BKN034 OVC050 19/13 A2994 RMK A01,KM08,2022-10-31T19:35:00Z,35.22,-89.05,19.0,13.0,250,6,13,10.0,29.940945,,,TRUE,TRUE,,,,,,,FEW,2800,BKN,3400,OVC,5000,,,VFR,,,,,,,,,,,,METAR,149.0
KM04 311935Z AUTO 24008KT 10SM FEW029 SCT044 OVC050 19/13 A2994 RMK A01,KM04,2022-10-31T19:35:00Z,35.58,-89.58,19.0,13.0,240,8,,10.0,29.940945,,,TRUE,TRUE,,,,,,,FEW,2900,SCT,4400,OVC,5000,,,VFR,,,,,,,,,,,,METAR,83.0
KM02 311935Z AUTO 22008KT 10SM SCT021 BKN029 OVC065 17/13 A2993 RMK A01,KM02,2022-10-31T19:35:00Z,36.13,-87.43,17.0,13.0,220,8,,10.0,29.929134,,,TRUE,TRUE,,,,,,,SCT,2100,BKN,2900,OVC,6500,,,MVFR,,,,,,,,,,,,METAR,268.0
KM01 311935Z AUTO 26004KT 10SM SCT031 OVC049 20/14 A2993 RMK AO2 T02010138 $,KM01,2022-10-31T19:35:00Z,35.2,-90.05,20.1,13.8,260,4,,10.0,29.929134,,,TRUE,TRUE,TRUE,,,,,,SCT,3100,OVC,4900,,,,,VFR,,,,,,,,,,,,METAR,69.0
KLYV 311935Z AUTO 20008KT 10SM CLR 18/00 A2983 RMK AO2,KLYV,2022-10-31T19:35:00Z,43.62,-96.22,18.0,0.0,200,8,,10.0,29.828741,,,TRUE,TRUE,,,,,,,CLR,,,,,,,,VFR,,,,,,,,,,,,METAR,435.0
KLYO 311935Z AUTO 00000KT 10SM CLR 21/M03 A2995 RMK AO2 T02121033,KLYO,2022-10-31T19:35:00Z,38.35,-98.23,21.2,-3.3,0,0,,10.0,29.949802,,,TRUE,TRUE,,,,,,,CLR,,,,,,,,VFR,,,,,,,,,,,,METAR,515.0
KLXY 311935Z AUTO 24006KT 10SM CLR 26/10 A3000 RMK AO2 T02550103,KLXY,2022-10-31T19:35:00Z,31.63,-96.52,25.5,10.3,240,6,,10.0,30.0,,,TRUE,TRUE,,,,,,,CLR,,,,,,,,VFR,,,,,,,,,,,,METAR,164.0
KLXN 311935Z AUTO 20009KT 10SM CLR 22/M05 A2988 RMK AO2 T02201046,KLXN,2022-10-31T19:35:00Z,40.78,-99.77,22.0,-4.6,200,9,,10.0,29.878937,,,TRUE,TRUE,,,,,,,CLR,,,,,,,,VFR,,,,,,,,,,,,METAR,734.0
KLXL 311935Z AUTO 23008KT 10SM CLR 17/M01 A2979 RMK AO2,KLXL,2022-10-31T19:35:00Z,45.95,-94.33,17.0,-1.0,230,8,,10.0,29.790354,,,TRUE,TRUE,,,,,,,CLR,,,,,,,,VFR,,,,,,,,,,,,METAR,335.0
KLWA 311935Z AUTO 33004KT 1 3/4SM BR OVC001 14/13 A2980 RMK AO2 T01400132,KLWA,2022-10-31T19:35:00Z,42.35,-86.25,14.0,13.2,330,4,,1.75,29.799213,,,TRUE,TRUE,,,,,,BR,OVC,100,,,,,,,LIFR,,,,,,,,,,,,METAR,199.0
KLVN 311935Z AUTO 24005KT 10SM CLR 18/M03 A2983 RMK AO2,KLVN,2022-10-31T19:35:00Z,44.63,-93.23,18.0,-3.0,240,5,,10.0,29.828741,,,TRUE,TRUE,,,,,,,CLR,,,,,,,,VFR,,,,,,,,,,,,METAR,292.0
KLVL 311935Z AUTO 15004KT 10SM CLR 23/15 A3002 RMK AO1 T02250152,KLVL,2022-10-31T19:35:00Z,36.78,-77.8,22.5,15.2,150,4,,10.0,30.02067,,,TRUE,TRUE,,,,,,,CLR,,,,,,,,VFR,,,,,,,,,,,,METAR,98.0
KLUX 311935Z AUTO 00000KT 1 1/2SM BR OVC003 16/16 A3000 RMK AO2,KLUX,2022-10-31T19:35:00Z,34.5,-81.95,16.0,16.0,0,0,,1.5,30.0,,,TRUE,TRUE,,,,,,BR,OVC,300,,,,,,,LIFR,,,,,,,,,,,,METAR,213.0
KLUV 311935Z AUTO 16012KT 10SM CLR 20/06 A3005 RMK AO2,KLUV,2022-10-31T19:35:00Z,32.75,-101.92,20.0,6.0,160,12,,10.0,30.050198,,,TRUE,TRUE,,,,,,,CLR,,,,,,,,VFR,,,,,,,,,,,,SPECI,910.0
KLUM 311935Z AUTO 27005KT 10SM CLR 18/07 A2982 RMK AO2 T01830073 PWINO,KLUM,2022-10-31T19:35:00Z,44.9,-91.87,18.3,7.3,270,5,,10.0,29.819881,,,TRUE,TRUE,,,,,TRUE,,CLR,,,,,,,,VFR,,,,,,,,,,,,METAR,271.0
KLUL 311935Z AUTO 34005KT 10SM BKN048 OVC050 23/12 A3000 RMK A02 T02270117,KLUL,2022-10-31T19:35:00Z,31.67,-89.17,22.7,11.7,340,5,,10.0,30.0,,,TRUE,TRUE,,,,,,,BKN,4800,OVC,5000,,,,,VFR,,,,,,,,,,,,METAR,74.0
KLUG 311935Z AUTO 23008G14KT 10SM OVC065 18/14 A2995 RMK A01,KLUG,2022-10-31T19:35:00Z,35.52,-86.8,18.0,14.0,230,8,14,10.0,29.949802,,,TRUE,TRUE,,,,,,,OVC,6500,,,,,,,VFR,,,,,,,,,,,,METAR,218.0
KLUD 311935Z AUTO 21004KT 10SM CLR 23/07 A3002 RMK AO2 T02320065,KLUD,2022-10-31T19:35:00Z,33.25,-97.58,23.2,6.5,210,4,,10.0,30.02067,,,TRUE,TRUE,,,,,,,CLR,,,,,,,,VFR,,,,,,,,,,,,METAR,319.0
KLUA 311935Z AUTO 20006KT 7SM -RA SCT033 SCT040 OVC047 15/15 A2999 RMK AO2 P0008,KLUA,2022-10-31T19:35:00Z,38.67,-78.5,15.0,15.0,200,6,,7.0,29.991142,,,TRUE,TRUE,,,,,,-RA,SCT,3300,SCT,4000,OVC,4700,,,VFR,,,,,,0.08,,,,,,METAR,273.0
KLRY 311935Z AUTO 32007KT 10SM CLR 22/01 A2995 RMK AO2,KLRY,2022-10-31T19:35:00Z,38.62,-94.35,22.0,1.0,320,7,,10.0,29.949802,,,TRUE,TRUE,,,,,,,CLR,,,,,,,,VFR,,,,,,,,,,,,METAR,272.0
KLRU 311935Z AUTO 17003KT 10SM CLR 20/M03 A3005 RMK AO2 T02041032,KLRU,2022-10-31T19:35:00Z,32.28,-106.92,20.4,-3.2,170,3,,10.0,30.050198,,,TRUE,TRUE,,,,,,,CLR,,,,,,,,VFR,,,,,,,,,,,,METAR,1355.0
KLRO 311935Z AUTO 16005KT 9SM FEW110 26/22 A2998 RMK AO2,KLRO,2022-10-31T19:35:00Z,32.9,-79.78,26.0,22.0,160,5,,9.0,29.97933,,,TRUE,TRUE,,,,,,,FEW,11000,,,,,,,VFR,,,,,,,,,,,,METAR,3.0
KLRJ 311935Z AUTO 20011KT 10SM CLR 20/00 A2983 RMK AO2,KLRJ,2022-10-31T19:35:00Z,42.77,-96.2,20.0,0.0,200,11,,10.0,29.828741,,,TRUE,TRUE,,,,,,,CLR,,,,,,,,VFR,,,,,,,,,,,,SPECI,363.0
KLQK 311935Z AUTO 7SM OVC007 16/15 A3000 RMK AO2 T01600153,KLQK,2022-10-31T19:35:00Z,34.82,-82.7,16.0,15.3,,,,7.0,30.0,,,TRUE,TRUE,,,,,,,OVC,700,,,,,,,IFR,,,,,,,,,,,,SPECI,291.0
KLOT 311935Z AUTO 33005KT 2SM BR BKN003 14/14 A2982 RMK AO2,KLOT,2022-10-31T19:35:00Z,41.6,-88.1,14.0,14.0,330,5,,2.0,29.819881,,,TRUE,TRUE,,,,,,BR,BKN,300,,,,,,,LIFR,,,,,,,,,,,,SPECI,205.0
KLOM 311935Z AUTO 20008KT 10SM OVC023 17/13 A3001 RMK AO2 T01680126,KLOM,2022-10-31T19:35:00Z,40.13,-75.27,16.8,12.6,200,8,,10.0,30.008858,,,TRUE,TRUE,,,,,,,OVC,2300,,,,,,,MVFR,,,,,,,,,,,,METAR,87.0
KLNQ 311935Z AUTO 03003KT 10SM CLR 25/14 A3002 RMK AO2 T02500139,KLNQ,2022-10-31T19:35:00Z,29.35,-89.43,25.0,13.9,30,3,,10.0,30.02067,,,TRUE,TRUE,,,,,,,CLR,,,,,,,,VFR,,,,,,,,,,,,METAR,1.0
KLNP 311935Z AUTO 23008KT 10SM SCT027 BKN033 OVC040 16/12 A2999 RMK AO2,KLNP,2022-10-31T19:35:00Z,36.98,-82.52,16.0,12.0,230,8,,10.0,29.991142,,,TRUE,TRUE,,,,,,,SCT,2700,BKN,3300,OVC,4000,,,VFR,,,,,,,,,,,,METAR,817.0
KLNN 311935Z AUTO 25004KT 10SM SCT030 BKN034 OVC040 19/13 A2982 RMK AO1 T01900126,KLNN,2022-10-31T19:35:00Z,41.68,-81.38,19.0,12.6,250,4,,10.0,29.819881,,,TRUE,TRUE,,,,,,,SCT,3000,BKN,3400,OVC,4000,,,VFR,,,,,,,,,,,,METAR,190.0
KLNA 311935Z AUTO 11011G14KT 10SM SCT020 SCT026 30/25 A2994 RMK AO2 T03010250 PNO,KLNA,2022-10-31T19:35:00Z,26.6,-80.08,30.1,25.0,110,11,14,10.0,29.940945,,,TRUE,TRUE,,,,,,,SCT,2000,SCT,2600,,,,,VFR,,,,,,,,,,,,METAR,3.0
KLMO 311935Z AUTO 14003KT 10SM CLR 21/M09 A2995 RMK AO2 T02091086,KLMO,2022-10-31T19:35:00Z,40.17,-105.17,20.9,-8.6,140,3,,10.0,29.949802,,,TRUE,TRUE,,,,,,,CLR,,,,,,,,VFR,,,,,,,,,,,,SPECI,1535.0
KLKU 311935Z AUTO 00000KT 4SM -RA BR SCT075 BKN090 OVC110 16/16 A3002 RMK AO2 P0002 T01600156,KLKU,2022-10-31T19:35:00Z,38.02,-77.97,16.0,15.6,0,0,,4.0,30.02067,,,TRUE,TRUE,,,,,,-RA BR,SCT,7500,BKN,9000,OVC,11000,,,MVFR,,,,,,0.02,,,,,,SPECI,146.0
KLKR 311935Z AUTO 20009KT 10SM SCT022 BKN026 OVC037 23/19 A2998 RMK AO2,KLKR,2022-10-31T19:35:00Z,34.72,-80.85,23.0,19.0,200,9,,10.0,29.97933,,,TRUE,TRUE,,,,,,,SCT,2200,BKN,2600,OVC,3700,,,MVFR,,,,,,,,,,,,SPECI,166.0
KLJF 311935Z AUTO 23006KT 10SM CLR 18/M05 A2981 RMK AO2,KLJF,2022-10-31T19:35:00Z,45.1,-94.52,18.0,-5.0,230,6,,10.0,29.811024,,,TRUE,TRUE,,,,,,,CLR,,,,,,,,VFR,,,,,,,,,,,,METAR,347.0
KLHZ 311935Z AUTO 16004KT 10SM SCT060 22/15 A3003 RMK AO2,KLHZ,2022-10-31T19:35:00Z,36.02,-78.33,22.0,15.0,160,4,,10.0,30.029528,,,TRUE,TRUE,,,,,,,SCT,6000,,,,,,,VFR,,,,,,,,,,,,SPECI,104.0
KLHM 311935Z AUTO 30004KT 10SM CLR 19/05 A2993 RMK AO1,KLHM,2022-10-31T19:35:00Z,38.92,-121.35,19.0,5.0,300,4,,10.0,29.929134,,,TRUE,TRUE,,,,,,,CLR,,,,,,,,VFR,,,,,,,,,,,,METAR,36.0
KLHB 311935Z AUTO 15003KT 10SM CLR 25/12 A3002 RMK AO2 T02460118,KLHB,2022-10-31T19:35:00Z,30.87,-96.62,24.6,11.8,150,3,,10.0,30.02067,,,TRUE,TRUE,,,,,,,CLR,,,,,,,,VFR,,,,,,,,,,,,METAR,83.0
KLGC 311935Z AUTO 24006KT 10SM BKN043 BKN049 23/11 A2998 RMK AO2 T02330113,KLGC,2022-10-31T19:35:00Z,33.0,-85.07,23.3,11.3,240,6,,10.0,29.97933,,,TRUE,TRUE,,,,,,,BKN,4300,BKN,4900,,,,,VFR,,,,,,,,,,,,METAR,209.0
KLDM 311935Z AUTO 30006KT 10SM CLR 16/07 A2980 RMK AO2 T01550070,KLDM,2022-10-31T19:35:00Z,43.97,-86.4,15.5,7.0,300,6,,10.0,29.799213,,,TRUE,TRUE,,,,,,,CLR,,,,,,,,VFR,,,,,,,,,,,,METAR,194.0
KLDJ 311935Z AUTO 22003KT 10SM SCT031 SCT110 18/10 A2999 RMK AO2 T01810101,KLDJ,2022-10-31T19:35:00Z,40.62,-74.25,18.1,10.1,220,3,,10.0,29.991142,,,TRUE,TRUE,,,,,,,SCT,3100,SCT,11000,,,,,VFR,,,,,,,,,,,,METAR,6.0
KLCQ 311935Z AUTO 19004KT 10SM SCT120 28/17 A2995 RMK AO2,KLCQ,2022-10-31T19:35:00Z,30.18,-82.58,28.0,17.0,190,4,,10.0,29.949802,,,TRUE,TRUE,,,,,,,SCT,12000,,,,,,,VFR,,,,,,,,,,,,METAR,59.0
KLCG 311935Z AUTO 21011G14KT 10SM CLR 22/00 A2985 RMK AO2 T02171005,KLCG,2022-10-31T19:35:00Z,42.25,-96.98,21.7,-0.5,210,11,14,10.0,29.84941,,,TRUE,TRUE,,,,,,,CLR,,,,,,,,VFR,,,,,,,,,,,,METAR,434.0
KLBO 311935Z AUTO 28010G16KT 10SM CLR 19/04 A2995 RMK AO2,KLBO,2022-10-31T19:35:00Z,37.65,-92.65,19.0,4.0,280,10,16,10.0,29.949802,,,TRUE,TRUE,,,,,,,CLR,,,,,,,,VFR,,,,,,,,,,,,SPECI,399.0
KLAM 311935Z AUTO 00000KT 10SM CLR 11/M07 A3013 RMK AO2 T01141073,KLAM,2022-10-31T19:35:00Z,35.87,-106.27,11.4,-7.3,0,0,,10.0,30.129921,,,TRUE,TRUE,,,,,,,CLR,,,,,,,,VFR,,,,,,,,,,,,METAR,2166.0
KL52 311935Z AUTO VRB05KT 2SM BR BKN003 12/12 A2993 RMK A01 VIS 1 1/4V4,KL52,2022-10-31T19:35:00Z,35.1,-120.62,12.0,12.0,0,5,,2.0,29.929134,,,TRUE,TRUE,,,,,,BR,BKN,300,,,,,,,LIFR,,,,,,,,,,,,METAR,3.0
KL35 311935Z AUTO 09007KT 10SM CLR 14/M10 A3013 RMK AO2,KL35,2022-10-31T19:35:00Z,34.27,-116.85,14.0,-10.0,90,7,,10.0,30.129921,,,TRUE,TRUE,,,,,,,CLR,,,,,,,,VFR,,,,,,,,,,,,METAR,2062.0
KL18 311935Z AUTO 22010KT 10SM CLR 28/M02 A2989 RMK AO2,KL18,2022-10-31T19:35:00Z,33.35,-117.25,28.0,-2.0,220,10,,10.0,29.890747,,,TRUE,TRUE,,,,,,,CLR,,,,,,,,VFR,,,,,,,,,,,,METAR,215.0
KL08 311935Z AUTO 13005KT 10SM CLR 28/M09 A2989 RMK AO2,KL08,2022-10-31T19:35:00Z,33.27,-116.32,28.0,-9.0,130,5,,10.0,29.890747,,,TRUE,TRUE,,,,,,,CLR,,,,,,,,VFR,,,,,,,,,,,,METAR,156.0
KKY8 311935Z AUTO 19006KT 10SM SCT027 BKN046 OVC075 19/17 A2988 RMK A01,KKY8,2022-10-31T19:35:00Z,37.95,-86.87,19.0,17.0,190,6,,10.0,29.878937,,,TRUE,TRUE,,,,,,,SCT,2700,BKN,4600,OVC,7500,,,VFR,,,,,,,,,,,,SPECI,124.0
KKNB 311935Z AUTO 00000KT 10SM CLR 19/M07 A3011 RMK A01,KKNB,2022-10-31T19:35:00Z,37.02,-112.53,19.0,-7.0,0,0,,10.0,30.109253,,,TRUE,TRUE,,,,,,,CLR,,,,,,,,VFR,,,,,,,,,,,,METAR,1476.0
KK88 311935Z AUTO 31005KT 10SM CLR 22/03 A2996 RMK AO1 T02150032,KK88,2022-10-31T19:35:00Z,37.87,-95.38,21.5,3.2,310,5,,10.0,29.958662,,,TRUE,TRUE,,,,,,,CLR,,,,,,,,VFR,,,,,,,,,,,,METAR,308.0
KK70 311935Z AUTO 08007KT 10SM CLR 30/26 A2991 RMK AO2,KK70,2022-10-31T19:35:00Z,25.32,-80.28,30.0,26.0,80,7,,10.0,29.911417,,,TRUE,TRUE,,,,,,,CLR,,,,,,,,VFR,,,,,,,,,,,,METAR,20.0
KK62 311935Z AUTO 21005KT 10SM SCT049 SCT060 OVC070 17/14 A2989 RMK AO2,KK62,2022-10-31T19:35:00Z,38.7,-84.4,17.0,14.0,210,5,,10.0,29.890747,,,TRUE,TRUE,,,,,,,SCT,4900,SCT,6000,OVC,7000,,,VFR,,,,,,,,,,,,SPECI,274.0
KJZI 311935Z AUTO 22006KT 10SM BKN070 26/20 A2999 RMK AO2,KJZI,2022-10-31T19:35:00Z,32.7,-80.0,26.0,20.0,220,6,,10.0,29.991142,,,TRUE,TRUE,,,,,,,BKN,7000,,,,,,,VFR,,,,,,,,,,,,SPECI,5.0
KJYR 311935Z AUTO 19008KT 10SM CLR 21/M01 A2989 RMK AO2,KJYR,2022-10-31T19:35:00Z,40.9,-97.62,21.0,-1.0,190,8,,10.0,29.890747,,,TRUE,TRUE,,,,,,,CLR,,,,,,,,VFR,,,,,,,,,,,,METAR,508.0
KJYO 311935Z AUTO 00000KT 10SM SCT060 BKN090 OVC110 16/14 A3001 RMK AO2,KJYO,2022-10-31T19:35:00Z,39.07,-77.57,16.0,14.0,0,0,,10.0,30.008858,,,TRUE,TRUE,,,,,,,SCT,6000,BKN,9000,OVC,11000,,,VFR,,,,,,,,,,,,SPECI,112.0
KJYM 311935Z AUTO 25003KT 10SM -DZ SCT011 BKN035 OVC045 15/14 A2981 RMK AO2 T01460137 P0001,KJYM,2022-10-31T19:35:00Z,41.92,-84.58,14.6,13.7,250,3,,10.0,29.811024,,,TRUE,TRUE,,,,,,-DZ,SCT,1100,BKN,3500,OVC,4500,,,VFR,,,,,,0.01,,,,,,METAR,357.0
KJYL 311935Z AUTO 23004KT 10SM BKN041 BKN046 OVC070 29/19 A2997 RMK AO2 T02910185,KJYL,2022-10-31T19:35:00Z,32.65,-81.6,29.1,18.5,230,4,,10.0,29.970472,,,TRUE,TRUE,,,,,,,BKN,4100,BKN,4600,OVC,7000,,,VFR,,,,,,,,,,,,METAR,54.0
KJYG 311935Z AUTO 21005KT 10SM CLR 18/M04 A2982 RMK AO2 TSNO,KJYG,2022-10-31T19:35:00Z,43.98,-94.55,18.0,-4.0,210,5,,10.0,29.819881,,,TRUE,TRUE,,,TRUE,,,,CLR,,,,,,,,VFR,,,,,,,,,,,,METAR,323.0
KJXI 311935Z AUTO 10SM CLR 24/08 A3001 RMK AO2 T02350084,KJXI,2022-10-31T19:35:00Z,32.7,-94.95,23.5,8.4,,,,10.0,30.008858,,,TRUE,TRUE,,,,,,,CLR,,,,,,,,VFR,,,,,,,,,,,,SPECI,130.0
KJWY 311935Z AUTO 00000KT 10SM CLR 24/10 A3002 RMK AO2 T02440095,KJWY,2022-10-31T19:35:00Z,32.45,-96.92,24.4,9.5,0,0,,10.0,30.02067,,,TRUE,TRUE,,,,,,,CLR,,,,,,,,VFR,,,,,,,,,,,,METAR,211.0
KJWG 311935Z AUTO 20008KT 10SM CLR 23/03 A3001 RMK AO2 T02260032,KJWG,2022-10-31T19:35:00Z,35.87,-98.42,22.6,3.2,200,8,,10.0,30.008858,,,TRUE,TRUE,,,,,,,CLR,,,,,,,,VFR,,,,,,,,,,,,METAR,469.0
KJVW 311935Z AUTO 31006KT 10SM BKN060 23/12 A2999 RMK AO2,KJVW,2022-10-31T19:35:00Z,32.3,-90.42,23.0,12.0,310,6,,10.0,29.991142,,,TRUE,TRUE,,,,,,,BKN,6000,,,,,,,VFR,,,,,,,,,,,,SPECI,73.0
KJTC 311935Z AUTO 03007KT 350V050 10SM CLR 16/M09 A3013 RMK AO2,KJTC,2022-10-31T19:35:00Z,34.13,-109.32,16.0,-9.0,30,7,,10.0,30.129921,,,TRUE,TRUE,,,,,,,CLR,,,,,,,,VFR,,,,,,,,,,,,METAR,2148.0
KJSY 311935Z AUTO 10SM CLR 16/M01 A2985 RMK AO2 T01561006 TSNO,KJSY,2022-10-31T19:35:00Z,45.35,-117.25,15.6,-0.6,,,,10.0,29.84941,,,TRUE,TRUE,,,TRUE,,,,CLR,,,,,,,,VFR,,,,,,,,,,,,METAR,1256.0
KJSV 311935Z AUTO 23006KT 10SM CLR 23/03 A2997 RMK AO2,KJSV,2022-10-31T19:35:00Z,35.43,-94.8,23.0,3.0,230,6,,10.0,29.970472,,,TRUE,TRUE,,,,,,,CLR,,,,,,,,VFR,,,,,,,,,,,,METAR,158.0
KJSO 311935Z AUTO 23003KT 10SM CLR 24/11 A3003 RMK AO2 T02430107 TSNO,KJSO,2022-10-31T19:35:00Z,31.87,-95.22,24.3,10.7,230,3,,10.0,30.029528,,,TRUE,TRUE,,,TRUE,,,,CLR,,,,,,,,VFR,,,,,,,,,,,,METAR,204.0
KJRO 311935Z AUTO 19008KT 10SM SCT025 OVC070 20/14 A2990 RMK AO2,KJRO,2022-10-31T19:35:00Z,,,20.0,14.0,190,8,,10.0,29.899607,,,TRUE,TRUE,,,,,,,SCT,2500,OVC,7000,,,,,VFR,,,,,,,,,,,,METAR,
KJPX 311935Z AUTO 22005KT 10SM OVC020 16/13 A3002 RMK AO2 T01610125,KJPX,2022-10-31T19:35:00Z,40.95,-72.25,16.1,12.5,220,5,,10.0,30.02067,,,TRUE,TRUE,,,,,,,OVC,2000,,,,,,,MVFR,,,,,,,,,,,,METAR,10.0
KJOT 311935Z AUTO 36004KT 2 1/2SM -DZ BKN003 OVC018 15/14 A2982 RMK AO2 P0001 T01490143,KJOT,2022-10-31T19:35:00Z,41.52,-88.18,14.9,14.3,360,4,,2.5,29.819881,,,TRUE,TRUE,,,,,,-DZ,BKN,300,OVC,1800,,,,,LIFR,,,,,,0.01,,,,,,SPECI,175.0
KJNX 311935Z AUTO 16003KT 10SM CLR 24/16 A3000 RMK AO2,KJNX,2022-10-31T19:35:00Z,35.53,-78.38,24.0,16.0,160,3,,10.0,30.0,,,TRUE,TRUE,,,,,,,CLR,,,,,,,,VFR,,,,,,,,,,,,METAR,41.0
KJMR 311935Z AUTO 23008KT 210V270 10SM CLR 17/M02 A2984 RMK AO2,KJMR,2022-10-31T19:35:00Z,45.88,-93.27,17.0,-2.0,230,8,,10.0,29.840551,,,TRUE,TRUE,,,,,,,CLR,,,,,,,,VFR,,,,,,,,,,,,METAR,301.0
KJKJ 311935Z AUTO 23007G16KT 10SM CLR 18/00 A2972 RMK AO2 TSNO,KJKJ,2022-10-31T19:35:00Z,46.83,-96.67,18.0,0.0,230,7,16,10.0,29.719488,,,TRUE,TRUE,,,TRUE,,,,CLR,,,,,,,,VFR,,,,,,,,,,,,METAR,280.0
KJHN 311935Z AUTO 27005KT 10SM CLR 22/M01 A2994 RMK AO2 T02151013,KJHN,2022-10-31T19:35:00Z,37.58,-101.73,21.5,-1.3,270,5,,10.0,29.940945,,,TRUE,TRUE,,,,,,,CLR,,,,,,,,VFR,,,,,,,,,,,,METAR,1013.0
KJFZ 311935Z AUTO 00000KT 10SM BKN013 OVC020 16/15 A2999 RMK AO2 T01550146,KJFZ,2022-10-31T19:35:00Z,37.07,-81.8,15.5,14.6,0,0,,10.0,29.991142,,,TRUE,TRUE,,,,,,,BKN,1300,OVC,2000,,,,,MVFR,,,,,,,,,,,,METAR,809.0
KJFX 311935Z AUTO 00000KT 10SM SCT023 SCT033 OVC055 20/15 A2999 RMK AO2,KJFX,2022-10-31T19:35:00Z,33.9,-87.32,20.0,15.0,0,0,,10.0,29.991142,,,TRUE,TRUE,,,,,,,SCT,2300,SCT,3300,OVC,5500,,,VFR,,,,,,,,,,,,SPECI,144.0
KJES 311935Z AUTO 00000KT 10SM BKN046 BKN070 29/18 A2998 RMK AO2,KJES,2022-10-31T19:35:00Z,31.55,-81.88,29.0,18.0,0,0,,10.0,29.97933,,,TRUE,TRUE,,,,,,,BKN,4600,BKN,7000,,,,,VFR,,,,,,,,,,,,METAR,26.0
KJDD 311935Z AUTO 00000KT 10SM CLR 24/09 A3001 RMK AO2,KJDD,2022-10-31T19:35:00Z,32.75,-95.5,24.0,9.0,0,0,,10.0,30.008858,,,TRUE,TRUE,,,,,,,CLR,,,,,,,,VFR,,,,,,,,,,,,METAR,127.0
KJCA 311935Z AUTO 07003KT 7SM BR OVC004 17/17 A2999 RMK AO2 T0170////,KJCA,2022-10-31T19:35:00Z,34.18,-83.57,17.0,17.0,70,3,,7.0,29.991142,,,TRUE,TRUE,,,,,,BR,OVC,400,,,,,,,LIFR,,,,,,,,,,,,METAR,287.0
KJAU 311935Z AUTO 24004KT 10SM FEW039 OVC060 20/12 A2998 RMK A01,KJAU,2022-10-31T19:35:00Z,36.33,-84.17,20.0,12.0,240,4,,10.0,29.97933,,,TRUE,TRUE,,,,,,,FEW,3900,OVC,6000,,,,,VFR,,,,,,,,,,,,METAR,350.0
KJAS 311935Z AUTO 28005KT 9SM CLR 25/10 A3000 RMK AO2,KJAS,2022-10-31T19:35:00Z,30.88,-94.03,25.0,10.0,280,5,,9.0,30.0,,,TRUE,TRUE,,,,,,,CLR,,,,,,,,VFR,,,,,,,,,,,,METAR,60.0
KJAQ 311935Z AUTO 27004KT 10SM CLR 19/03 A2996 RMK AO1 T01850027,KJAQ,2022-10-31T19:35:00Z,38.37,-120.8,18.5,2.7,270,4,,10.0,29.958662,,,TRUE,TRUE,,,,,,,CLR,,,,,,,,VFR,,,,,,,,,,,,METAR,518.0
KIZA 311935Z AUTO 27004KT 10SM CLR 20/02 A2991 RMK AO2,KIZA,2022-10-31T19:35:00Z,34.6,-120.07,20.0,2.0,270,4,,10.0,29.911417,,,TRUE,TRUE,,,,,,,CLR,,,,,,,,VFR,,,,,,,,,,,,METAR,200.0
KIYA 311935Z AUTO 00000KT 10SM SCT050 26/09 A3000 RMK AO2 T02550090,KIYA,2022-10-31T19:35:00Z,29.98,-92.08,25.5,9.0,0,0,,10.0,30.0,,,TRUE,TRUE,,,,,,,SCT,5000,,,,,,,VFR,,,,,,,,,,,,METAR,4.0
KIXA 311935Z AUTO 14004KT 7SM SCT080 21/18 A3002 RMK AO2,KIXA,2022-10-31T19:35:00Z,36.33,-77.63,21.0,18.0,140,4,,7.0,30.02067,,,TRUE,TRUE,,,,,,,SCT,8000,,,,,,,VFR,,,,,,,,,,,,SPECI,43.0
KIUA 311935Z AUTO 12005KT 10SM OVC100 15/08 A2988 RMK AO2 T01500079,KIUA,2022-10-31T19:35:00Z,42.92,-77.33,15.0,7.9,120,5,,10.0,29.878937,,,TRUE,TRUE,,,,,,,OVC,10000,,,,,,,VFR,,,,,,,,,,,,METAR,248.0
KISQ 311935Z AUTO 19005KT 10SM CLR 12/07 A2978 RMK AO2 T01220066,KISQ,2022-10-31T19:35:00Z,45.97,-86.17,12.2,6.6,190,5,,10.0,29.778543,,,TRUE,TRUE,,,,,,,CLR,,,,,,,,VFR,,,,,,,,,,,,METAR,206.0
KIRS 311935Z AUTO 00000KT 10SM SCT006 BKN050 OVC070 15/14 A2979 RMK AO2 T01520139 P0001,KIRS,2022-10-31T19:35:00Z,41.8,-85.43,15.2,13.9,0,0,,10.0,29.790354,,,TRUE,TRUE,,,,,,,SCT,600,BKN,5000,OVC,7000,,,VFR,,,,,,0.01,,,,,,METAR,282.0
KIPJ 311935Z AUTO 00000KT 7SM -DZ BKN004 BKN008 OVC027 15/14 A3001 RMK AO2 T01450141,KIPJ,2022-10-31T19:35:00Z,35.48,-81.17,14.5,14.1,0,0,,7.0,30.008858,,,TRUE,TRUE,,,,,,-DZ,BKN,400,BKN,800,OVC,2700,,,LIFR,,,,,,,,,,,,SPECI,266.0
KIOB 311935Z AUTO 24009G14KT 10SM OVC060 18/13 A2993 RMK AO2 PWINO,KIOB,2022-10-31T19:35:00Z,38.05,-83.98,18.0,13.0,240,9,14,10.0,29.929134,,,TRUE,TRUE,,,,,TRUE,,OVC,6000,,,,,,,VFR,,,,,,,,,,,,METAR,301.0
KINJ 311935Z AUTO 18003KT 10SM CLR 25/10 A3000 RMK AO2 T02470098,KINJ,2022-10-31T19:35:00Z,32.08,-97.1,24.7,9.8,180,3,,10.0,30.0,,,TRUE,TRUE,,,,,,,CLR,,,,,,,,VFR,,,,,,,,,,,,METAR,208.0
KINF 311935Z AUTO 14004KT 7SM CLR 30/20 A2996 RMK AO2,KINF,2022-10-31T19:35:00Z,28.8,-82.32,30.0,20.0,140,4,,7.0,29.958662,,,TRUE,TRUE,,,,,,,CLR,,,,,,,,VFR,,,,,,,,,,,,SPECI,14.0
KIMS 311935Z AUTO 21007KT 10SM BKN013 OVC018 16/16 A2990 RMK AO2 P0001,KIMS,2022-10-31T19:35:00Z,38.75,-85.47,16.0,16.0,210,7,,10.0,29.899607,,,TRUE,TRUE,,,,,,,BKN,1300,OVC,1800,,,,,MVFR,,,,,,0.01,,,,,,METAR,244.0
KIKW 311935Z AUTO 24003KT 10SM BKN025 BKN029 OVC095 17/12 A2979 RMK AO2 T01690117,KIKW,2022-10-31T19:35:00Z,43.67,-84.27,16.9,11.7,240,3,,10.0,29.790354,,,TRUE,TRUE,,,,,,,BKN,2500,BKN,2900,OVC,9500,,,MVFR,,,,,,,,,,,,METAR,190.0
KIKV 311935Z AUTO VRB06KT 10SM CLR 18/02 A2989 RMK AO2,KIKV,2022-10-31T19:35:00Z,41.68,-93.57,18.0,2.0,0,6,,10.0,29.890747,,,TRUE,TRUE,,,,,,,CLR,,,,,,,,VFR,,,,,,,,,,,,SPECI,270.0
KIKK 311935Z AUTO 00000KT 5SM -RA BKN006 OVC011 15/14 A2982 RMK AO2 P0002 T01470139,KIKK,2022-10-31T19:35:00Z,41.07,-87.85,14.7,13.9,0,0,,5.0,29.819881,,,TRUE,TRUE,,,,,,-RA,BKN,600,OVC,1100,,,,,IFR,,,,,,0.02,,,,,,METAR,188.0
KIJX 311935Z AUTO 29007KT 10SM CLR 16/12 A2987 RMK AO2 T01590119,KIJX,2022-10-31T19:35:00Z,39.77,-90.25,15.9,11.9,290,7,,10.0,29.870079,,,TRUE,TRUE,,,,,,,CLR,,,,,,,,VFR,,,,,,,,,,,,METAR,187.0
KIIY 311935Z AUTO 35003KT 7SM OVC002 19/18 A2998 RMK AO2 T01870183,KIIY,2022-10-31T19:35:00Z,33.78,-82.82,18.7,18.3,350,3,,7.0,29.97933,,,TRUE,TRUE,,,,,,,OVC,200,,,,,,,LIFR,,,,,,,,,,,,METAR,192.0
KIGQ 311935Z AUTO 36005KT 3SM BR OVC004 13/13 A2981 RMK AO2 T01300130,KIGQ,2022-10-31T19:35:00Z,41.53,-87.53,13.0,13.0,360,5,,3.0,29.811024,,,TRUE,TRUE,,,,,,BR,OVC,400,,,,,,,LIFR,,,,,,,,,,,,METAR,187.0
KIFA 311935Z AUTO 29007KT 10SM CLR 19/02 A2988 RMK AO2 T01860018,KIFA,2022-10-31T19:35:00Z,42.47,-93.27,18.6,1.8,290,7,,10.0,29.878937,,,TRUE,TRUE,,,,,,,CLR,,,,,,,,VFR,,,,,,,,,,,,METAR,344.0
KIER 311935Z AUTO 28005KT 10SM CLR 25/10 A3001 RMK AO2 T02520103,KIER,2022-10-31T19:35:00Z,31.73,-93.1,25.2,10.3,280,5,,10.0,30.008858,,,TRUE,TRUE,,,,,,,CLR,,,,,,,,VFR,,,,,,,,,,,,METAR,35.0
KIDP 311935Z AUTO 00000KT 10SM CLR 22/03 A2996 RMK AO2 T02230029,KIDP,2022-10-31T19:35:00Z,37.17,-95.78,22.3,2.9,0,0,,10.0,29.958662,,,TRUE,TRUE,,,,,,,CLR,,,,,,,,VFR,,,,,,,,,,,,METAR,252.0
KIDI 311935Z AUTO 22004KT 10SM BKN010 OVC015 16/16 A2996 RMK A01,KIDI,2022-10-31T19:35:00Z,40.63,-79.1,16.0,16.0,220,4,,10.0,29.958662,,,TRUE,TRUE,,,,,,,BKN,1000,OVC,1500,,,,,MVFR,,,,,,,,,,,,METAR,425.0
KICL 311935Z AUTO VRB06KT 10SM CLR 20/M02 A2993 RMK AO2,KICL,2022-10-31T19:35:00Z,40.72,-95.02,20.0,-2.0,0,6,,10.0,29.929134,,,TRUE,TRUE,,,,,,,CLR,,,,,,,,VFR,,,,,,,,,,,,SPECI,299.0
KIBM 311935Z AUTO 29008G14KT 10SM CLR 18/M10 A2994 RMK AO2 T01801099,KIBM,2022-10-31T19:35:00Z,41.18,-103.68,18.0,-9.9,290,8,14,10.0,29.940945,,,TRUE,TRUE,,,,,,,CLR,,,,,,,,VFR,,,,,,,,,,,,SPECI,1494.0
KI75 311935Z AUTO 30003KT 7SM CLR 19/02 A2990 RMK AO2 T01900021,KI75,2022-10-31T19:35:00Z,41.05,-93.68,19.0,2.1,300,3,,7.0,29.899607,,,TRUE,TRUE,,,,,,,CLR,,,,,,,,VFR,,,,,,,,,,,,METAR,336.0
KI74 311935Z AUTO 00000KT 10SM SCT021 SCT029 OVC070 16/15 A2986 RMK AO2,KI74,2022-10-31T19:35:00Z,40.12,-83.75,16.0,15.0,0,0,,10.0,29.861221,,,TRUE,TRUE,,,,,,,SCT,2100,SCT,2900,OVC,7000,,,VFR,,,,,,,,,,,,METAR,322.0
KI69 311935Z AUTO 22010KT 10SM SCT022 BKN026 OVC070 18/14 A2989 RMK AO2 T01780137,KI69,2022-10-31T19:35:00Z,39.08,-84.22,17.8,13.7,220,10,,10.0,29.890747,,,TRUE,TRUE,,,,,,,SCT,2200,BKN,2600,OVC,7000,,,MVFR,,,,,,,,,,,,METAR,238.0
KI68 311935Z AUTO 21010KT 10SM SCT024 SCT031 OVC075 18/14 A2987 RMK AO1 T01810138,KI68,2022-10-31T19:35:00Z,39.47,-84.25,18.1,13.8,210,10,,10.0,29.870079,,,TRUE,TRUE,,,,,,,SCT,2400,SCT,3100,OVC,7500,,,VFR,,,,,,,,,,,,METAR,274.0
KI67 311935Z AUTO 22012G15KT 10SM OVC046 19/12 A2986 RMK AO1,KI67,2022-10-31T19:35:00Z,39.25,-84.78,19.0,12.0,220,12,15,10.0,29.861221,,,TRUE,TRUE,,,,,,,OVC,4600,,,,,,,VFR,,,,,,,,,,,,METAR,177.0
KI63 311935Z AUTO 31008KT 10SM CLR 17/08 A2987 RMK AO2 T01650077,KI63,2022-10-31T19:35:00Z,39.98,-90.8,16.5,7.7,310,8,,10.0,29.870079,,,TRUE,TRUE,,,,,,,CLR,,,,,,,,VFR,,,,,,,,,,,,METAR,221.0
KI35 311935Z AUTO 23004KT 10SM SCT023 BKN039 OVC060 18/14 A2995 RMK AO2 T01770137,KI35,2022-10-31T19:35:00Z,36.87,-83.37,17.7,13.7,230,4,,10.0,29.949802,,,TRUE,TRUE,,,,,,,SCT,2300,BKN,3900,OVC,6000,,,VFR,,,,,,,,,,,,METAR,467.0
KI23 311935Z AUTO 21010KT 10SM CLR 17/13 A2987 RMK AO1,KI23,2022-10-31T19:35:00Z,39.57,-83.42,17.0,13.0,210,10,,10.0,29.870079,,,TRUE,TRUE,,,,,,,CLR,,,,,,,,VFR,,,,,,,,,,,,METAR,298.0
KHZX 311935Z AUTO 21010KT 10SM CLR 16/00 A2977 RMK AO2,KHZX,2022-10-31T19:35:00Z,46.62,-93.32,16.0,0.0,210,10,,10.0,29.769686,,,TRUE,TRUE,,,,,,,CLR,,,,,,,,VFR,,,,,,,,,,,,METAR,374.0
KHZR 311935Z AUTO 03004KT 10SM CLR 25/12 A3000 RMK AO2 T02470120,KHZR,2022-10-31T19:35:00Z,30.72,-91.48,24.7,12.0,30,4,,10.0,30.0,,,TRUE,TRUE,,,,,,,CLR,,,,,,,,VFR,,,,,,,,,,,,SPECI,11.0
KHZL 311935Z AUTO 14004KT 10SM OVC015 14/10 A3002 RMK AO2,KHZL,2022-10-31T19:35:00Z,40.98,-76.0,14.0,10.0,140,4,,10.0,30.02067,,,TRUE,TRUE,,,,,,,OVC,1500,,,,,,,MVFR,,,,,,,,,,,,METAR,481.0
KHZE 311935Z AUTO 25008KT 10SM CLR 15/02 A2975 RMK AO2,KHZE,2022-10-31T19:35:00Z,47.28,-101.58,15.0,2.0,250,8,,10.0,29.749016,,,TRUE,TRUE,,,,,,,CLR,,,,,,,,VFR,,,,,,,,,,,,METAR,542.0
KHZD 311935Z AUTO 26006G12KT 10SM SCT026 OVC050 18/14 A2992 RMK A01,KHZD,2022-10-31T19:35:00Z,36.08,-88.47,18.0,14.0,260,6,12,10.0,29.920275,,,TRUE,TRUE,,,,,,,SCT,2600,OVC,5000,,,,,VFR,,,,,,,,,,,,METAR,147.0
KHYX 311935Z AUTO 00000KT 10SM OVC027 15/12 A2980 RMK AO2 T01500119,KHYX,2022-10-31T19:35:00Z,43.43,-83.87,15.0,11.9,0,0,,10.0,29.799213,,,TRUE,TRUE,,,,,,,OVC,2700,,,,,,,MVFR,,,,,,,,,,,,METAR,181.0
KHYW 311935Z AUTO 15007KT 10SM SCT019 25/20 A3000 RMK AO2,KHYW,2022-10-31T19:35:00Z,33.83,-79.12,25.0,20.0,150,7,,10.0,30.0,,,TRUE,TRUE,,,,,,,SCT,1900,,,,,,,VFR,,,,,,,,,,,,METAR,10.0
KHWY 311935Z AUTO 21005KT 7SM RA SCT060 OVC095 17/15 A3004 RMK AO2 T01650150,KHWY,2022-10-31T19:35:00Z,38.58,-77.72,16.5,15.0,210,5,,7.0,30.041338,,,TRUE,TRUE,,,,,,RA,SCT,6000,OVC,9500,,,,,VFR,,,,,,,,,,,,SPECI,93.0
KHVS 311935Z AUTO VRB05KT 10SM FEW030 FEW038 SCT045 26/19 A2998 RMK AO2,KHVS,2022-10-31T19:35:00Z,34.4,-80.12,26.0,19.0,0,5,,10.0,29.97933,,,TRUE,TRUE,,,,,,,FEW,3000,FEW,3800,SCT,4500,,,VFR,,,,,,,,,,,,METAR,110.0
KHVE 311935Z AUTO 00000KT 10SM CLR 14/M03 A3013 RMK AO2,KHVE,2022-10-31T19:35:00Z,38.42,-110.7,14.0,-3.0,0,0,,10.0,30.129921,,,TRUE,TRUE,,,,,,,CLR,,,,,,,,VFR,,,,,,,,,,,,SPECI,1351.0
KHSP 311935Z AUTO 22015G21KT 10SM OVC005 A3004 RMK AO2,KHSP,2022-10-31T19:35:00Z,37.95,-79.82,,,220,15,21,10.0,30.041338,,,TRUE,TRUE,,,,,,,OVC,500,,,,,,,IFR,,,,,,,,,,,,SPECI,1148.0
KHSD 311935Z AUTO 25005KT 10SM CLR 22/01 A2999 RMK A01,KHSD,2022-10-31T19:35:00Z,35.6,-97.72,22.0,1.0,250,5,,10.0,29.991142,,,TRUE,TRUE,,,,,,,CLR,,,,,,,,VFR,,,,,,,,,,,,METAR,358.0
KHRX 311935Z AUTO 23013G18KT 10SM CLR 22/02 A3003 RMK AO2 T02200024,KHRX,2022-10-31T19:35:00Z,34.87,-102.33,22.0,2.4,230,13,18,10.0,30.029528,,,TRUE,TRUE,,,,,,,CLR,,,,,,,,VFR,,,,,,,,,,,,METAR,1153.0
KHRJ 311935Z AUTO 17006KT 10SM SCT035 SCT043 BKN060 24/17 A3001 RMK AO2 T02420167,KHRJ,2022-10-31T19:35:00Z,35.38,-78.73,24.2,16.7,170,6,,10.0,30.008858,,,TRUE,TRUE,,,,,,,SCT,3500,SCT,4300,BKN,6000,,,VFR,,,,,,,,,,,,SPECI,55.0
KHRF 311935Z AUTO 17014G20KT 10SM BKN060 OVC065 15/03 A2982 RMK AO2,KHRF,2022-10-31T19:35:00Z,46.25,-114.13,15.0,3.0,170,14,20,10.0,29.819881,,,TRUE,TRUE,,,,,,,BKN,6000,OVC,6500,,,,,VFR,,,,,,,,,,,,METAR,1112.0
KHQU 311935Z AUTO 21004KT 10SM BKN013 BKN050 23/20 A2997 RMK AO2 T02300200,KHQU,2022-10-31T19:35:00Z,33.53,-82.52,23.0,20.0,210,4,,10.0,29.970472,,,TRUE,TRUE,,,,,,,BKN,1300,BKN,5000,,,,,MVFR,,,,,,,,,,,,METAR,141.0
KHQG 311935Z AUTO 22014G19KT 10SM CLR 23/01 A2995 RMK AO2 T02280008,KHQG,2022-10-31T19:35:00Z,37.17,-101.37,22.8,0.8,220,14,19,10.0,29.949802,,,TRUE,TRUE,,,,,,,CLR,,,,,,,,VFR,,,,,,,,,,,,SPECI,956.0
KHQG 311935Z AUTO 22014G19KT 10SM CLR 23/01 A2995 RMK AO2 T02280008,KHQG,2022-10-31T19:35:00Z,37.17,-101.37,22.8,0.8,220,14,19,10.0,29.949802,,,TRUE,TRUE,,,,,,,CLR,,,,,,,,VFR,,,,,,,,,,,,SPECI,956.0
KHPT 311935Z AUTO 27007KT 10SM CLR 18/M01 A2986 RMK AO2,KHPT,2022-10-31T19:35:00Z,42.72,-93.23,18.0,-1.0,270,7,,10.0,29.861221,,,TRUE,TRUE,,,,,,,CLR,,,,,,,,VFR,,,,,,,,,,,,METAR,354.0
KHOE 311935Z AUTO 18005KT 10SM SCT085 29/17 A2996 RMK AO2 T02940178,KHOE,2022-10-31T19:35:00Z,31.05,-82.78,29.4,17.8,180,5,,10.0,29.958662,,,TRUE,TRUE,,,,,,,SCT,8500,,,,,,,VFR,,,,,,,,,,,,METAR,56.0
KHNZ 311935Z AUTO 13005KT 10SM SCT025 SCT033 SCT050 19/14 A3002 RMK AO2 T01920139,KHNZ,2022-10-31T19:35:00Z,36.37,-78.53,19.2,13.9,130,5,,10.0,30.02067,,,TRUE,TRUE,,,,,,,SCT,2500,SCT,3300,SCT,5000,,,VFR,,,,,,,,,,,,SPECI,158.0
KHNR 311935Z AUTO 29010KT 8SM CLR 19/01 A2989 RMK A01,KHNR,2022-10-31T19:35:00Z,41.58,-95.33,19.0,1.0,290,10,,8.0,29.890747,,,TRUE,TRUE,,,,,,,CLR,,,,,,,,VFR,,,,,,,,,,,,SPECI,364.0
KHMZ 311935Z AUTO 34005KT 10SM BKN040 OVC080 15/11 A2995 RMK AO2 T01520106,KHMZ,2022-10-31T19:35:00Z,40.08,-78.52,15.2,10.6,340,5,,10.0,29.949802,,,TRUE,TRUE,,,,,,,BKN,4000,OVC,8000,,,,,VFR,,,,,,,,,,,,SPECI,351.0
KHMT 311935Z AUTO 23003KT 10SM CLR 27/M07 A2991 RMK AO2 T02731075,KHMT,2022-10-31T19:35:00Z,33.73,-117.02,27.3,-7.5,230,3,,10.0,29.911417,,,TRUE,TRUE,,,,,,,CLR,,,,,,,,VFR,,,,,,,,,,,,METAR,462.0
KHMP 311935Z AUTO 22007KT 190V250 10SM SCT034 SCT043 22/15 A3000 RMK AO2 T02250147,KHMP,2022-10-31T19:35:00Z,33.38,-84.33,22.5,14.7,220,7,,10.0,30.0,,,TRUE,TRUE,,,,,,,SCT,3400,SCT,4300,,,,,VFR,,,,,,,,,,,,METAR,263.0
KHLX 311935Z AUTO 20005KT 3SM DZ BKN003 OVC011 14/11 A3000 RMK AO2 P0003 T01350105,KHLX,2022-10-31T19:35:00Z,36.77,-80.82,13.5,10.5,200,5,,3.0,30.0,,,TRUE,TRUE,,,,,,DZ,BKN,300,OVC,1100,,,,,LIFR,,,,,,0.03,,,,,,METAR,819.0
KHLB 311935Z AUTO VRB05KT 8SM SCT023 BKN035 BKN065 15/14 A2986 RMK A01,KHLB,2022-10-31T19:35:00Z,39.35,-85.27,15.0,14.0,0,5,,8.0,29.861221,,,TRUE,TRUE,,,,,,,SCT,2300,BKN,3500,BKN,6500,,,VFR,,,,,,,,,,,,METAR,297.0
KHJH 311935Z AUTO 22006KT 10SM CLR 21/00 A2992 RMK AO2 T02061002,KHJH,2022-10-31T19:35:00Z,40.15,-97.58,20.6,-0.2,220,6,,10.0,29.920275,,,TRUE,TRUE,,,,,,,CLR,,,,,,,,VFR,,,,,,,,,,,,METAR,449.0
KHII 311935Z AUTO 24003KT 10SM CLR 25/M04 A2992 RMK AO2,KHII,2022-10-31T19:35:00Z,34.57,-114.37,25.0,-4.0,240,3,,10.0,29.920275,,,TRUE,TRUE,,,,,,,CLR,,,,,,,,VFR,,,,,,,,,,,,METAR,241.0
KHHV 311935Z AUTO 11013KT 10SM BKN090 27/16 A2994 RMK A01,KHHV,2022-10-31T19:35:00Z,26.93,-94.68,27.0,16.0,110,13,,10.0,29.940945,,,TRUE,TRUE,,,,,,,BKN,9000,,,,,,,VFR,,,,,,,,,,,,METAR,25.0
KHHG 311935Z AUTO 22006G16KT 10SM BKN017 BKN024 OVC050 16/14 A2980 RMK AO2 T01640140,KHHG,2022-10-31T19:35:00Z,40.85,-85.45,16.4,14.0,220,6,16,10.0,29.799213,,,TRUE,TRUE,,,,,,,BKN,1700,BKN,2400,OVC,5000,,,MVFR,,,,,,,,,,,,SPECI,247.0
KHHF 311935Z AUTO 21006KT 10SM CLR 24/03 A2998 RMK AO2 T02400032,KHHF,2022-10-31T19:35:00Z,35.9,-100.4,24.0,3.2,210,6,,10.0,29.97933,,,TRUE,TRUE,,,,,,,CLR,,,,,,,,VFR,,,,,,,,,,,,METAR,729.0
KHFY 311935Z AUTO 25007KT 10SM OVC012 17/16 A2985 RMK AO2 T01700156,KHFY,2022-10-31T19:35:00Z,39.63,-86.08,17.0,15.6,250,7,,10.0,29.84941,,,TRUE,TRUE,,,,,,,OVC,1200,,,,,,,MVFR,,,,,,,,,,,,METAR,250.0
KHFJ 311935Z AUTO 23007G14KT 10SM CLR 20/06 A2996 RMK AO2,KHFJ,2022-10-31T19:35:00Z,36.9,-94.02,20.0,6.0,230,7,14,10.0,29.958662,,,TRUE,TRUE,,,,,,,CLR,,,,,,,,VFR,,,,,,,,,,,,METAR,398.0
KHEQ 311935Z AUTO 27010KT 10SM CLR 23/M07 A2992 RMK AO2,KHEQ,2022-10-31T19:35:00Z,40.57,-102.28,23.0,-7.0,270,10,,10.0,29.920275,,,TRUE,TRUE,,,,,,,CLR,,,,,,,,VFR,,,,,,,,,,,,METAR,1136.0
KHEG 311935Z AUTO 16005KT 9SM FEW044 FEW055 SCT065 32/20 A2997 RMK AO2,KHEG,2022-10-31T19:35:00Z,30.28,-81.8,32.0,20.0,160,5,,9.0,29.970472,,,TRUE,TRUE,,,,,,,FEW,4400,FEW,5500,SCT,6500,,,VFR,,,,,,,,,,,,METAR,25.0
KHDL 311935Z AUTO 23005KT 10SM CLR 24/15 A2997 RMK AO2,KHDL,2022-10-31T19:35:00Z,31.37,-85.32,24.0,15.0,230,5,,10.0,29.970472,,,TRUE,TRUE,,,,,,,CLR,,,,,,,,VFR,,,,,,,,,,,,METAR,109.0
KHDE 311935Z AUTO 22010KT 10SM CLR 20/M02 A2989 RMK AO2 T01981016,KHDE,2022-10-31T19:35:00Z,40.45,-99.33,19.8,-1.6,220,10,,10.0,29.890747,,,TRUE,TRUE,,,,,,,CLR,,,,,,,,VFR,,,,,,,,,,,,METAR,703.0
KHCR 311935Z AUTO 00000KT 10SM CLR 11/M04 A3010 RMK AO2,KHCR,2022-10-31T19:35:00Z,40.48,-111.43,11.0,-4.0,0,0,,10.0,30.100393,,,TRUE,TRUE,,,,,,,CLR,,,,,,,,VFR,,,,,,,,,,,,METAR,1708.0
KHCO 311935Z AUTO 20010KT 10SM CLR 14/04 A2964 RMK AO2,KHCO,2022-10-31T19:35:00Z,48.75,-96.93,14.0,4.0,200,10,,10.0,29.639763,,,TRUE,TRUE,,,,,,,CLR,,,,,,,,VFR,,,,,,,,,,,,METAR,250.0
KHCD 311935Z AUTO 19003KT 10SM CLR 19/M03 A2982 RMK AO2 T01861029,KHCD,2022-10-31T19:35:00Z,44.87,-94.38,18.6,-2.9,190,3,,10.0,29.819881,,,TRUE,TRUE,,,,,,,CLR,,,,,,,,VFR,,,,,,,,,,,,METAR,320.0
KHBI 311935Z AUTO 17005KT 10SM OVC017 21/18 A3002 RMK AO2 T02100179,KHBI,2022-10-31T19:35:00Z,35.65,-79.9,21.0,17.9,170,5,,10.0,30.02067,,,TRUE,TRUE,,,,,,,OVC,1700,,,,,,,MVFR,,,,,,,,,,,,SPECI,199.0
KHAI 311935Z AUTO 00000KT 4SM -DZ BKN006 BKN010 OVC027 15/14 A2981 RMK AO2 T01520144,KHAI,2022-10-31T19:35:00Z,41.97,-85.6,15.2,14.4,0,0,,4.0,29.811024,,,TRUE,TRUE,,,,,,-DZ,BKN,600,BKN,1000,OVC,2700,,,IFR,,,,,,,,,,,,METAR,250.0
KHAF 311935Z AUTO 17006KT 6SM BR CLR 13/12 A2996 RMK AO2,KHAF,2022-10-31T19:35:00Z,37.52,-122.5,13.0,12.0,170,6,,6.0,29.958662,,,TRUE,TRUE,,,,,,BR,CLR,,,,,,,,VFR,,,,,,,,,,,,METAR,11.0
KHAE 311935Z AUTO 31005KT 10SM CLR 17/08 A2989 RMK AO2,KHAE,2022-10-31T19:35:00Z,39.73,-91.45,17.0,8.0,310,5,,10.0,29.890747,,,TRUE,TRUE,,,,,,,CLR,,,,,,,,VFR,,,,,,,,,,,,SPECI,230.0
KGZS 311935Z AUTO 21007KT 10SM FEW035 OVC055 19/14 A2996 RMK A01,KGZS,2022-10-31T19:35:00Z,35.15,-87.05,19.0,14.0,210,7,,10.0,29.958662,,,TRUE,TRUE,,,,,,,FEW,3500,OVC,5500,,,,,VFR,,,,,,,,,,,,METAR,198.0
KGZL 311935Z AUTO 25005KT 10SM CLR 23/03 A2997 RMK AO2,KGZL,2022-10-31T19:35:00Z,35.28,-95.1,23.0,3.0,250,5,,10.0,29.970472,,,TRUE,TRUE,,,,,,,CLR,,,,,,,,VFR,,,,,,,,,,,,METAR,176.0
KGYL 311935Z AUTO 20007KT 10SM CLR 18/M02 A2982 RMK AO2 T01801021,KGYL,2022-10-31T19:35:00Z,44.77,-94.08,18.0,-2.1,200,7,,10.0,29.819881,,,TRUE,TRUE,,,,,,,CLR,,,,,,,,VFR,,,,,,,,,,,,METAR,304.0
KGYF 311935Z AUTO 09017KT 10SM SCT033 25/17 A2994 RMK AO2 T02450171,KGYF,2022-10-31T19:35:00Z,26.13,-94.9,24.5,17.1,90,17,,10.0,29.940945,,,TRUE,TRUE,,,,,,,SCT,3300,,,,,,,VFR,,,,,,,,,,,,METAR,65.0
KGYB 311935Z AUTO 00000KT 10SM CLR 24/10 A3001 RMK AO2 T02400104,KGYB,2022-10-31T19:35:00Z,30.17,-96.98,24.0,10.4,0,0,,10.0,30.008858,,,TRUE,TRUE,,,,,,,CLR,,,,,,,,VFR,,,,,,,,,,,,METAR,140.0
KGWW 311935Z AUTO 00000KT 10SM SCT070 SCT080 25/16 A3001 RMK AO2 T02520161,KGWW,2022-10-31T19:35:00Z,35.47,-77.97,25.2,16.1,0,0,,10.0,30.008858,,,TRUE,TRUE,,,,,,,SCT,7000,SCT,8000,,,,,VFR,,,,,,,,,,,,SPECI,40.0
KGWR 311935Z AUTO 24012KT 10SM CLR 19/M02 A2974 RMK A01,KGWR,2022-10-31T19:35:00Z,46.22,-97.65,19.0,-2.0,240,12,,10.0,29.740158,,,TRUE,TRUE,,,,,,,CLR,,,,,,,,VFR,,,,,,,,,,,,METAR,381.0
KGWB 311935Z AUTO 00000KT 10SM SCT044 SCT065 BKN080 16/15 A2981 RMK AO2,KGWB,2022-10-31T19:35:00Z,41.3,-85.07,16.0,15.0,0,0,,10.0,29.811024,,,TRUE,TRUE,,,,,,,SCT,4400,SCT,6500,BKN,8000,,,VFR,,,,,,,,,,,,METAR,268.0
KGVT 311935Z AUTO 29003KT 10SM CLR 24/07 A3001 RMK AO2 TSNO T02370067,KGVT,2022-10-31T19:35:00Z,33.07,-96.07,23.7,6.7,290,3,,10.0,30.008858,,,TRUE,TRUE,,,TRUE,,,,CLR,,,,,,,,VFR,,,,,,,,,,,,METAR,165.0
KGUL 311935Z AUTO 09005KT 10SM FEW035 24/16 A2998 RMK A01,KGUL,2022-10-31T19:35:00Z,27.3,-93.53,24.0,16.0,90,5,,10.0,29.97933,,,TRUE,TRUE,,,,,,,FEW,3500,,,,,,,VFR,,,,,,,,,,,,METAR,20.0
KGRY 311935Z AUTO 02008G13KT 10SM BKN032 22/16 A3001 RMK A01,KGRY,2022-10-31T19:35:00Z,27.63,-90.45,22.0,16.0,20,8,13,10.0,30.008858,,,TRUE,TRUE,,,,,,,BKN,3200,,,,,,,VFR,,,,,,,,,,,,METAR,58.0
KGRN 311935Z AUTO 29011KT 10SM CLR 17/M07 A2985 RMK AO2 T01741075,KGRN,2022-10-31T19:35:00Z,42.8,-102.17,17.4,-7.5,290,11,,10.0,29.84941,,,TRUE,TRUE,,,,,,,CLR,,,,,,,,VFR,,,,,,,,,,,,METAR,1080.0
KGPC 311935Z AUTO 24009KT 10SM BKN016 OVC022 16/13 A2984 RMK AO2 T01560130,KGPC,2022-10-31T19:35:00Z,39.63,-86.82,15.6,13.0,240,9,,10.0,29.840551,,,TRUE,TRUE,,,,,,,BKN,1600,OVC,2200,,,,,MVFR,,,,,,,,,,,,METAR,254.0
KGOP 311935Z AUTO 10SM CLR 25/09 A3001 RMK AO2,KGOP,2022-10-31T19:35:00Z,31.42,-97.8,25.0,9.0,,,,10.0,30.008858,,,TRUE,TRUE,,,,,,,CLR,,,,,,,,VFR,,,,,,,,,,,,METAR,272.0
KGOO 311935Z AUTO 00000KT 10SM CLR 19/01 A2998 RMK A01,KGOO,2022-10-31T19:35:00Z,39.22,-121.0,19.0,1.0,0,0,,10.0,29.97933,,,TRUE,TRUE,,,,,,,CLR,,,,,,,,VFR,,,,,,,,,,,,METAR,950.0
KGNT 311935Z AUTO 00000KT 10SM CLR 15/M08 A3014 RMK AO2 T01481082,KGNT,2022-10-31T19:35:00Z,35.17,-107.9,14.8,-8.2,0,0,,10.0,30.138779,,,TRUE,TRUE,,,,,,,CLR,,,,,,,,VFR,,,,,,,,,,,,SPECI,1988.0
KGNG 311935Z AUTO 00000KT 10SM CLR 16/M03 A3003 RMK AO2,KGNG,2022-10-31T19:35:00Z,42.92,-114.77,16.0,-3.0,0,0,,10.0,30.029528,,,TRUE,TRUE,,,,,,,CLR,,,,,,,,VFR,,,,,,,,,,,,METAR,1128.0
KGNC 311935Z AUTO 15009KT 10SM CLR 20/04 A3008 RMK AO2 T02000041,KGNC,2022-10-31T19:35:00Z,32.68,-102.65,20.0,4.1,150,9,,10.0,30.079725,,,TRUE,TRUE,,,,,,,CLR,,,,,,,,VFR,,,,,,,,,,,,METAR,1002.0
KGNB 311935Z AUTO 25004KT 10SM CLR 07/M08 A3016 RMK AO2 T00721083,KGNB,2022-10-31T19:35:00Z,40.08,-105.92,7.2,-8.3,250,4,,10.0,30.159449,,,TRUE,TRUE,,,,,,,CLR,,,,,,,,VFR,,,,,,,,,,,,METAR,2500.0
KGMJ 311935Z AUTO 22009KT 10SM CLR 15/M02 A2995 RMK AO2,KGMJ,2022-10-31T19:35:00Z,36.6,-94.73,15.0,-2.0,220,9,,10.0,29.949802,,,TRUE,TRUE,,,,,,,CLR,,,,,,,,VFR,,,,,,,,,,,,METAR,251.0
KGLY 311935Z AUTO 22006KT 10SM CLR 19/09 A2993 RMK AO2,KGLY,2022-10-31T19:35:00Z,38.35,-93.68,19.0,9.0,220,6,,10.0,29.929134,,,TRUE,TRUE,,,,,,,CLR,,,,,,,,VFR,,,,,,,,,,,,METAR,247.0
KGLX 311935Z AUTO 35006KT 10SM CLR 26/15 A3001 RMK A01,KGLX,2022-10-31T19:35:00Z,28.23,-88.98,26.0,15.0,350,6,,10.0,30.008858,,,TRUE,TRUE,,,,,,,CLR,,,,,,,,VFR,,,,,,,,,,,,METAR,32.0
KGLW 311935Z AUTO 22006KT 10SM BKN021 OVC028 17/14 A2993 RMK AO2 T01720138,KGLW,2022-10-31T19:35:00Z,37.03,-85.95,17.2,13.8,220,6,,10.0,29.929134,,,TRUE,TRUE,,,,,,,BKN,2100,OVC,2800,,,,,MVFR,,,,,,,,,,,,SPECI,216.0
KGLE 311935Z AUTO 00000KT 10SM CLR 22/08 A3003 RMK AO2 T02200082 PWINO,KGLE,2022-10-31T19:35:00Z,33.65,-97.2,22.0,8.2,0,0,,10.0,30.029528,,,TRUE,TRUE,,,,,TRUE,,CLR,,,,,,,,VFR,,,,,,,,,,,,METAR,250.0
KGKT 311935Z AUTO 30005KT 10SM BKN019 BKN024 OVC055 20/16 A2995 RMK A01,KGKT,2022-10-31T19:35:00Z,35.85,-83.53,20.0,16.0,300,5,,10.0,29.949802,,,TRUE,TRUE,,,,,,,BKN,1900,BKN,2400,OVC,5500,,,MVFR,,,,,,,,,,,,METAR,305.0
KGIC 311935Z AUTO 21011G24KT 10SM OVC075 15/01 A2984 RMK AO1,KGIC,2022-10-31T19:35:00Z,45.95,-116.12,15.0,1.0,210,11,24,10.0,29.840551,,,TRUE,TRUE,,,,,,,OVC,7500,,,,,,,VFR,,,,,,,,,,,,METAR,1002.0
KGHW 311935Z AUTO 21012KT 10SM CLR 18/M02 A2979 RMK AO2,KGHW,2022-10-31T19:35:00Z,45.63,-95.32,18.0,-2.0,210,12,,10.0,29.790354,,,TRUE,TRUE,,,,,,,CLR,,,,,,,,VFR,,,,,,,,,,,,METAR,423.0
KGHG 311935Z AUTO 20008G14KT 10SM 17/14 A3000 RMK AO2,KGHG,2022-10-31T19:35:00Z,42.1,-70.67,17.0,14.0,200,8,14,10.0,30.0,,,TRUE,TRUE,,,,,,,,,,,,,,,,,,,,,,,,,,,METAR,3.0
KGHB 311935Z AUTO 05006KT 10SM SCT034 SCT039 23/16 A3001 RMK A01,KGHB,2022-10-31T19:35:00Z,27.83,-91.98,23.0,16.0,50,6,,10.0,30.008858,,,TRUE,TRUE,,,,,,,SCT,3400,SCT,3900,,,,,VFR,,,,,,,,,,,,METAR,30.0
KGGP 311935Z AUTO 24008KT 5SM RA OVC006 14/13 A2982 RMK AO2 P0005,KGGP,2022-10-31T19:35:00Z,40.72,-86.37,14.0,13.0,240,8,,5.0,29.819881,,,TRUE,TRUE,,,,,,RA,OVC,600,,,,,,,IFR,,,,,,0.05,,,,,,SPECI,224.0
KGGI 311935Z AUTO 29009KT 10SM CLR 19/03 A2988 RMK AO2 T01920027,KGGI,2022-10-31T19:35:00Z,41.72,-92.73,19.2,2.7,290,9,,10.0,29.878937,,,TRUE,TRUE,,,,,,,CLR,,,,,,,,VFR,,,,,,,,,,,,METAR,305.0
KGGF 311935Z AUTO 28020G25KT 10SM 20/M08 A2990 RMK AO2,KGGF,2022-10-31T19:35:00Z,,,20.0,-8.0,280,20,25,10.0,29.899607,,,TRUE,TRUE,,,,,,,,,,,,,,,,,,,,,,,,,,,METAR,
KGGE 311935Z AUTO 12007KT 10SM BKN033 BKN048 OVC095 25/20 A3000 RMK AO2,KGGE,2022-10-31T19:35:00Z,33.32,-79.32,25.0,20.0,120,7,,10.0,30.0,,,TRUE,TRUE,,,,,,,BKN,3300,BKN,4800,OVC,9500,,,VFR,,,,,,,,,,,,SPECI,9.0
KGEV 311935Z AUTO 15003KT 7SM SCT003 OVC010 13/13 A3002 RMK AO2 P0001 T01270126,KGEV,2022-10-31T19:35:00Z,36.43,-81.42,12.7,12.6,150,3,,7.0,30.02067,,,TRUE,TRUE,,,,,,,SCT,300,OVC,1000,,,,,MVFR,,,,,,0.01,,,,,,SPECI,961.0
KGDJ 311935Z AUTO 03004KT 10SM CLR 23/06 A3003 RMK AO2 T02310056,KGDJ,2022-10-31T19:35:00Z,32.45,-97.82,23.1,5.6,30,4,,10.0,30.029528,,,TRUE,TRUE,,,,,,,CLR,,,,,,,,VFR,,,,,,,,,,,,METAR,235.0
KGDB 311935Z AUTO 18007KT 10SM CLR 21/00 A2981 RMK AO2 T02050001,KGDB,2022-10-31T19:35:00Z,44.75,-95.55,20.5,0.1,180,7,,10.0,29.811024,,,TRUE,TRUE,,,,,,,CLR,,,,,,,,VFR,,,,,,,,,,,,METAR,316.0
KGCY 311935Z AUTO 35006KT 10SM SCT022 BKN028 BKN036 19/14 A2994 RMK A01,KGCY,2022-10-31T19:35:00Z,36.2,-82.82,19.0,14.0,350,6,,10.0,29.940945,,,TRUE,TRUE,,,,,,,SCT,2200,BKN,2800,BKN,3600,,,MVFR,,,,,,,,,,,,METAR,488.0
KGCM 311935Z AUTO 25006KT 10SM CLR 22/02 A2998 RMK AO2,KGCM,2022-10-31T19:35:00Z,36.3,-95.48,22.0,2.0,250,6,,10.0,29.97933,,,TRUE,TRUE,,,,,,,CLR,,,,,,,,VFR,,,,,,,,,,,,METAR,215.0
KGCD 311935Z AUTO 20012G17KT 10SM OVC110 14/01 A2991 RMK AO2 T01420006,KGCD,2022-10-31T19:35:00Z,44.4,-118.97,14.2,0.6,200,12,17,10.0,29.911417,,,TRUE,TRUE,,,,,,,OVC,11000,,,,,,,VFR,,,,,,,,,,,,METAR,1122.0
KGBK 311935Z AUTO VRB04KT 9SM SCT036 27/16 A2999 RMK A01,KGBK,2022-10-31T19:35:00Z,27.2,-92.2,27.0,16.0,0,4,,9.0,29.991142,,,TRUE,TRUE,,,,,,,SCT,3600,,,,,,,VFR,,,,,,,,,,,,METAR,20.0
KGBG 311935Z AUTO 32004KT 10SM CLR 16/11 A2987 RMK AO2 T01560106,KGBG,2022-10-31T19:35:00Z,40.93,-90.43,15.6,10.6,320,4,,10.0,29.870079,,,TRUE,TRUE,,,,,,,CLR,,,,,,,,VFR,,,,,,,,,,,,SPECI,230.0
KGAO 311935Z AUTO 00000KT 10SM SCT048 25/13 A3001 RMK AO2 T02450132,KGAO,2022-10-31T19:35:00Z,29.45,-90.27,24.5,13.2,0,0,,10.0,30.008858,,,TRUE,TRUE,,,,,,,SCT,4800,,,,,,,VFR,,,,,,,,,,,,METAR,0.0
KFZG 311935Z AUTO 27007KT 230V300 10SM SCT028 SCT035 BKN043 28/20 A2997 RMK AO2 T02790198,KFZG,2022-10-31T19:35:00Z,31.68,-83.27,27.9,19.8,270,7,,10.0,29.970472,,,TRUE,TRUE,,,,,,,SCT,2800,SCT,3500,BKN,4300,,,VFR,,,,,,,,,,,,METAR,105.0
KFYJ 311935Z AUTO 00000KT 1 3/4SM VV007 21/14 A3003 RMK AO1 VIS 1V4 T02080135,KFYJ,2022-10-31T19:35:00Z,37.52,-76.77,20.8,13.5,0,0,,1.75,30.029528,,,TRUE,TRUE,,,,,,,OVX,0,,,,,,,LIFR,,,,,,,,,,,700,SPECI,3.0
KFYG 311935Z AUTO 00000KT 6SM BR OVC027 15/15 A2991 RMK AO2,KFYG,2022-10-31T19:35:00Z,38.58,-91.0,15.0,15.0,0,0,,6.0,29.911417,,,TRUE,TRUE,,,,,,BR,OVC,2700,,,,,,,MVFR,,,,,,,,,,,,METAR,147.0
KFXY 311935Z AUTO 28006KT 10SM CLR 17/00 A2985 RMK AO2,KFXY,2022-10-31T19:35:00Z,43.23,-93.62,17.0,0.0,280,6,,10.0,29.84941,,,TRUE,TRUE,,,,,,,CLR,,,,,,,,VFR,,,,,,,,,,,,METAR,366.0
KFWZ 311935Z AUTO 24012KT 10SM CLR 08/M04 A3006 RMK AO2,KFWZ,2022-10-31T19:35:00Z,42.52,-108.78,8.0,-4.0,240,12,,10.0,30.059055,,,TRUE,TRUE,,,,,,,CLR,,,,,,,,VFR,,,,,,,,,,,,SPECI,2605.0
KFWC 311935Z AUTO 22008KT BKN018 OVC024 16/13 A2987 RMK AO1 T01570125 PWINO,KFWC,2022-10-31T19:35:00Z,38.38,-88.42,15.7,12.5,220,8,,,29.870079,,,TRUE,TRUE,,,,,TRUE,,BKN,1800,OVC,2400,,,,,,,,,,,,,,,,,METAR,131.0
KFWB 311935Z AUTO 32008G15KT 10SM CLR 21/06 A2996 RMK AO2,KFWB,2022-10-31T19:35:00Z,36.7,-93.4,21.0,6.0,320,8,15,10.0,29.958662,,,TRUE,TRUE,,,,,,,CLR,,,,,,,,VFR,,,,,,,,,,,,SPECI,392.0
KFVX 311935Z AUTO 00000KT 10SM RA SCT031 BKN100 OVC120 19/15 A3000 RMK AO2 T01910147,KFVX,2022-10-31T19:35:00Z,37.35,-78.43,19.1,14.7,0,0,,10.0,30.0,,,TRUE,TRUE,,,,,,RA,SCT,3100,BKN,10000,OVC,12000,,,VFR,,,,,,,,,,,,SPECI,129.0
KFTN 311935Z AUTO 12005KT 10SM OVC050 23/13 A2998 RMK A01,KFTN,2022-10-31T19:35:00Z,28.22,-100.02,23.0,13.0,120,5,,10.0,29.97933,,,TRUE,TRUE,,,,,,,OVC,5000,,,,,,,VFR,,,,,,,,,,,,METAR,236.0
KFSW 311935Z AUTO 30005KT 10SM OVC001 18/07 A2986 RMK AO2,KFSW,2022-10-31T19:35:00Z,40.67,-91.32,18.0,7.0,300,5,,10.0,29.861221,,,TRUE,TRUE,,,,,,,OVC,100,,,,,,,LIFR,,,,,,,,,,,,METAR,219.0
KFSO 311935Z AUTO 22003KT 10SM CLR 16/05 A2992 RMK AO2 T01580047,KFSO,2022-10-31T19:35:00Z,44.93,-73.1,15.8,4.7,220,3,,10.0,29.920275,,,TRUE,TRUE,,,,,,,CLR,,,,,,,,VFR,,,,,,,,,,,,METAR,70.0
KFSK 311935Z AUTO 29007KT 10SM CLR 23/06 A2994 RMK AO2 T02280058,KFSK,2022-10-31T19:35:00Z,37.8,-94.77,22.8,5.8,290,7,,10.0,29.940945,,,TRUE,TRUE,,,,,,,CLR,,,,,,,,VFR,,,,,,,,,,,,METAR,276.0
KFSE 311935Z AUTO 22013KT 10SM CLR 15/M02 A2972 RMK AO2,KFSE,2022-10-31T19:35:00Z,47.58,-95.77,15.0,-2.0,220,13,,10.0,29.719488,,,TRUE,TRUE,,,,,,,CLR,,,,,,,,VFR,,,,,,,,,,,,METAR,389.0
KFRR 311935Z AUTO 00000KT 7SM BKN043 BKN060 OVC090 14/13 A2998 RMK AO1 P0003,KFRR,2022-10-31T19:35:00Z,38.92,-78.25,14.0,13.0,0,0,,7.0,29.97933,,,TRUE,TRUE,,,,,,,BKN,4300,BKN,6000,OVC,9000,,,VFR,,,,,,0.03,,,,,,SPECI,213.0
KFRH 311935Z AUTO 24004KT 10SM SCT010 BKN018 OVC047 A2988 RMK AO1,KFRH,2022-10-31T19:35:00Z,38.5,-86.63,,,240,4,,10.0,29.878937,,,TRUE,TRUE,,,,,,,SCT,1000,BKN,1800,OVC,4700,,,MVFR,,,,,,,,,,,,SPECI,241.0
KFQD 311935Z AUTO 00000KT 10SM OVC008 15/14 A3002 RMK AO2,KFQD,2022-10-31T19:35:00Z,35.42,-81.93,15.0,14.0,0,0,,10.0,30.02067,,,TRUE,TRUE,,,,,,,OVC,800,,,,,,,IFR,,,,,,,,,,,,SPECI,325.0
KFPY 311935Z AUTO 23008KT 10SM SCT029 29/20 A2997 RMK AO2 T02910204 TSNO,KFPY,2022-10-31T19:35:00Z,30.07,-83.57,29.1,20.4,230,8,,10.0,29.970472,,,TRUE,TRUE,,,TRUE,,,,SCT,2900,,,,,,,VFR,,,,,,,,,,,,METAR,12.0
KFPK 311935Z AUTO 00000KT 5SM BR OVC007 14/13 A2979 RMK AO2 T01400128,KFPK,2022-10-31T19:35:00Z,42.57,-84.82,14.0,12.8,0,0,,5.0,29.790354,,,TRUE,TRUE,,,,,,BR,OVC,700,,,,,,,IFR,,,,,,,,,,,,METAR,269.0
KFOT 311935Z AUTO 34005KT 10SM OVC023 14/10 A2998 RMK AO1,KFOT,2022-10-31T19:35:00Z,40.55,-124.13,14.0,10.0,340,5,,10.0,29.97933,,,TRUE,TRUE,,,,,,,OVC,2300,,,,,,,MVFR,,,,,,,,,,,,METAR,118.0
KFOA 311935Z AUTO 25009KT 10SM OVC019 15/13 A2988 RMK AO2,KFOA,2022-10-31T19:35:00Z,38.67,-88.45,15.0,13.0,250,9,,10.0,29.878937,,,TRUE,TRUE,,,,,,,OVC,1900,,,,,,,MVFR,,,,,,,,,,,,METAR,141.0
KFMM 311935Z AUTO 16006KT 10SM CLR 18/M08 A2994 RMK AO2,KFMM,2022-10-31T19:35:00Z,40.33,-103.8,18.0,-8.0,160,6,,10.0,29.940945,,,TRUE,TRUE,,,,,,,CLR,,,,,,,,VFR,,,,,,,,,,,,METAR,1376.0
KFLY 311935Z AUTO 14004G14KT CLR 16/M08 A3004 RMK AO2 T01621084 PWINO,KFLY,2022-10-31T19:35:00Z,38.95,-104.57,16.2,-8.4,140,4,14,,30.041338,,,TRUE,TRUE,,,,,TRUE,,CLR,,,,,,,,,,,,,,,,,,,,METAR,2096.0
KFKS 311935Z AUTO 00000KT 10SM CLR 15/08 A2980 RMK AO2 T01530076,KFKS,2022-10-31T19:35:00Z,44.63,-86.2,15.3,7.6,0,0,,10.0,29.799213,,,TRUE,TRUE,,,,,,,CLR,,,,,,,,VFR,,,,,,,,,,,,METAR,189.0
KFKR 311935Z AUTO 26013KT 10SM SCT013 BKN018 OVC025 16/14 A2981 RMK AO2,KFKR,2022-10-31T19:35:00Z,40.27,-86.57,16.0,14.0,260,13,,10.0,29.811024,,,TRUE,TRUE,,,,,,,SCT,1300,BKN,1800,OVC,2500,,,MVFR,,,,,,,,,,,,METAR,260.0
KFKN 311935Z AUTO 16005KT 10SM CLR 23/13 A3003 RMK AO2 T02260126,KFKN,2022-10-31T19:35:00Z,36.7,-76.9,22.6,12.6,160,5,,10.0,30.029528,,,TRUE,TRUE,,,,,,,CLR,,,,,,,,VFR,,,,,,,,,,,,METAR,9.0
KFKA 311935Z AUTO 29003KT 10SM CLR 17/03 A2985 RMK AO2 T01700033,KFKA,2022-10-31T19:35:00Z,43.68,-92.17,17.0,3.3,290,3,,10.0,29.84941,,,TRUE,TRUE,,,,,,,CLR,,,,,,,,VFR,,,,,,,,,,,,METAR,388.0
KFHB 311935Z AUTO 14011KT 10SM CLR 27/22 A2997 RMK AO2,KFHB,2022-10-31T19:35:00Z,30.62,-81.47,27.0,22.0,140,11,,10.0,29.970472,,,TRUE,TRUE,,,,,,,CLR,,,,,,,,VFR,,,,,,,,,,,,METAR,4.0
KFGX 311935Z AUTO 27010G17KT 250V320 10SM OVC060 18/12 A2991 RMK AO2 T01840116,KFGX,2022-10-31T19:35:00Z,38.55,-83.75,18.4,11.6,270,10,17,10.0,29.911417,,,TRUE,TRUE,,,,,,,OVC,6000,,,,,,,VFR,,,,,,,,,,,,METAR,279.0
KFGN 311935Z AUTO 23010KT 10SM CLR 13/02 A2962 RMK AO2,KFGN,2022-10-31T19:35:00Z,49.32,-94.9,13.0,2.0,230,10,,10.0,29.619095,,,TRUE,TRUE,,,,,,,CLR,,,,,,,,VFR,,,,,,,,,,,,METAR,327.0
KFFX 311935Z AUTO 00000KT 10SM SCT050 19/10 A2979 RMK AO2 T01880097,KFFX,2022-10-31T19:35:00Z,43.43,-86.0,18.8,9.7,0,0,,10.0,29.790354,,,TRUE,TRUE,,,,,,,SCT,5000,,,,,,,VFR,,,,,,,,,,,,METAR,234.0
KFFM 311935Z AUTO 20008KT 10SM CLR 19/01 A2974 RMK AO2,KFFM,2022-10-31T19:35:00Z,46.28,-96.15,19.0,1.0,200,8,,10.0,29.740158,,,TRUE,TRUE,,,,,,,CLR,,,,,,,,VFR,,,,,,,,,,,,METAR,362.0
KFFL 311935Z AUTO 30009KT 270V330 10SM CLR 19/03 A2987 RMK A01,KFFL,2022-10-31T19:35:00Z,41.05,-91.97,19.0,3.0,300,9,,10.0,29.870079,,,TRUE,TRUE,,,,,,,CLR,,,,,,,,VFR,,,,,,,,,,,,METAR,240.0
KFFA 311935Z AUTO 11003KT 10SM BKN065 19/12 A3004 RMK AO2 T01920124,KFFA,2022-10-31T19:35:00Z,36.02,-75.67,19.2,12.4,110,3,,10.0,30.041338,,,TRUE,TRUE,,,,,,,BKN,6500,,,,,,,VFR,,,,,,,,,,,,SPECI,2.0
KFET 311935Z AUTO 20007KT 10SM CLR 21/00 A2989 RMK AO2 T02140000,KFET,2022-10-31T19:35:00Z,41.45,-96.52,21.4,0.0,200,7,,10.0,29.890747,,,TRUE,TRUE,,,,,,,CLR,,,,,,,,VFR,,,,,,,,,,,,METAR,366.0
KFEP 311935Z AUTO 30004KT 10SM CLR 18/08 A2984 RMK AO2 T01820080,KFEP,2022-10-31T19:35:00Z,42.25,-89.58,18.2,8.0,300,4,,10.0,29.840551,,,TRUE,TRUE,,,,,,,CLR,,,,,,,,VFR,,,,,,,,,,,,METAR,255.0
KFDW 311935Z AUTO 21005KT 10SM SCT022 BKN031 OVC055 23/18 A2998 RMK AO1,KFDW,2022-10-31T19:35:00Z,34.32,-81.12,23.0,18.0,210,5,,10.0,29.97933,,,TRUE,TRUE,,,,,,,SCT,2200,BKN,3100,OVC,5500,,,VFR,,,,,,,,,,,,SPECI,174.0
KFBL 311935Z AUTO 24006KT 10SM CLR 17/01 A2983 RMK AO2,KFBL,2022-10-31T19:35:00Z,44.33,-93.32,17.0,1.0,240,6,,10.0,29.828741,,,TRUE,TRUE,,,,,,,CLR,,,,,,,,VFR,,,,,,,,,,,,METAR,318.0
KF70 311935Z AUTO 21004KT 10SM CLR 27/M05 A2991 RMK AO2,KF70,2022-10-31T19:35:00Z,33.57,-117.13,27.0,-5.0,210,4,,10.0,29.911417,,,TRUE,TRUE,,,,,,,CLR,,,,,,,,VFR,,,,,,,,,,,,METAR,406.0
KF46 311935Z AUTO 30005KT 10SM CLR 24/06 A3002 RMK AO2 T02370060,KF46,2022-10-31T19:35:00Z,32.93,-96.43,23.7,6.0,300,5,,10.0,30.02067,,,TRUE,TRUE,,,,,,,CLR,,,,,,,,VFR,,,,,,,,,,,,METAR,175.0
KF44 311935Z AUTO 27004KT 10SM CLR 24/10 A2999 RMK AO2,KF44,2022-10-31T19:35:00Z,32.17,-95.83,24.0,10.0,270,4,,10.0,29.991142,,,TRUE,TRUE,,,,,,,CLR,,,,,,,,VFR,,,,,,,,,,,,METAR,137.0
KF17 311935Z AUTO 00000KT 10SM CLR 24/09 A3001 RMK AO2,KF17,2022-10-31T19:35:00Z,31.83,-94.15,24.0,9.0,0,0,,10.0,30.008858,,,TRUE,TRUE,,,,,,,CLR,,,,,,,,VFR,,,,,,,,,,,,METAR,93.0
KF05 311935Z AUTO 23004KT 10SM CLR 24/08 A3001 RMK AO2 T02400083,KF05,2022-10-31T19:35:00Z,34.23,-99.28,24.0,8.3,230,4,,10.0,30.008858,,,TRUE,TRUE,,,,,,,CLR,,,,,,,,VFR,,,,,,,,,,,,METAR,384.0
KF00 311935Z AUTO 32003KT 10SM CLR 23/05 A3001 RMK AO2 T02340049,KF00,2022-10-31T19:35:00Z,33.62,-96.18,23.4,4.9,320,3,,10.0,30.008858,,,TRUE,TRUE,,,,,,,CLR,,,,,,,,VFR,,,,,,,,,,,,METAR,189.0
KEZZ 311935Z AUTO 31005KT 10SM CLR 19/02 A2993 RMK AO2 T01930020,KEZZ,2022-10-31T19:35:00Z,39.72,-94.28,19.3,2.0,310,5,,10.0,29.929134,,,TRUE,TRUE,,,,,,,CLR,,,,,,,,VFR,,,,,,,,,,,,METAR,317.0
KEZS 311935Z AUTO 27007KT 10SM CLR 20/06 A2979 RMK AO2 T01970057,KEZS,2022-10-31T19:35:00Z,44.78,-88.57,19.7,5.7,270,7,,10.0,29.790354,,,TRUE,TRUE,,,,,,,CLR,,,,,,,,VFR,,,,,,,,,,,,SPECI,247.0
KEZP 311935Z AUTO 08008KT 10SM SCT034 23/15 A3001 RMK A01,KEZP,2022-10-31T19:35:00Z,28.22,-92.8,23.0,15.0,80,8,,10.0,30.008858,,,TRUE,TRUE,,,,,,,SCT,3400,,,,,,,VFR,,,,,,,,,,,,METAR,30.0
KEZM 311935Z AUTO 23006KT 10SM SCT032 SCT044 BKN055 26/19 A2997 RMK AO2,KEZM,2022-10-31T19:35:00Z,32.22,-83.13,26.0,19.0,230,6,,10.0,29.970472,,,TRUE,TRUE,,,,,,,SCT,3200,SCT,4400,BKN,5500,,,VFR,,,,,,,,,,,,SPECI,86.0
KEZF 311935Z AUTO 21004KT 10SM SCT030 SCT120 20/13 A3000 RMK AO2 T02010134,KEZF,2022-10-31T19:35:00Z,38.27,-77.45,20.1,13.4,210,4,,10.0,30.0,,,TRUE,TRUE,,,,,,,SCT,3000,SCT,12000,,,,,VFR,,,,,,,,,,,,METAR,26.0
KEYF 311935Z AUTO 17006KT 10SM -RA SCT036 BKN043 BKN050 25/19 A2999 RMK AO2 T02510191,KEYF,2022-10-31T19:35:00Z,34.6,-78.58,25.1,19.1,170,6,,10.0,29.991142,,,TRUE,TRUE,,,,,,-RA,SCT,3600,BKN,4300,BKN,5000,,,VFR,,,,,,,,,,,,SPECI,39.0
KEXX 311935Z AUTO 00000KT 5SM +RA BKN014 OVC019 18/18 A2998 RMK AO2 T01800180,KEXX,2022-10-31T19:35:00Z,35.78,-80.3,18.0,18.0,0,0,,5.0,29.97933,,,TRUE,TRUE,,,,,,+RA,BKN,1400,OVC,1900,,,,,MVFR,,,,,,,,,,,,METAR,221.0
KEVU 311935Z AUTO 34004KT 10SM CLR 20/02 A2992 RMK AO2 T02030028,KEVU,2022-10-31T19:35:00Z,40.35,-94.92,20.3,2.8,340,4,,10.0,29.920275,,,TRUE,TRUE,,,,,,,CLR,,,,,,,,VFR,,,,,,,,,,,,METAR,351.0
KEVM 311935Z AUTO 23011KT 10SM CLR 17/00 A2973 RMK AO2 T01681004,KEVM,2022-10-31T19:35:00Z,47.42,-92.5,16.8,-0.4,230,11,,10.0,29.731298,,,TRUE,TRUE,,,,,,,CLR,,,,,,,,VFR,,,,,,,,,,,,METAR,419.0
KETN 311935Z AUTO 12006KT 10SM CLR 23/08 A3002 RMK AO2 T02330075,KETN,2022-10-31T19:35:00Z,32.42,-98.82,23.3,7.5,120,6,,10.0,30.02067,,,TRUE,TRUE,,,,,,,CLR,,,,,,,,VFR,,,,,,,,,,,,SPECI,445.0
KETC 311935Z AUTO 14006KT 7SM 24/16 A3001 RMK AO2 T02430156,KETC,2022-10-31T19:35:00Z,35.93,-77.55,24.3,15.6,140,6,,7.0,30.008858,,,TRUE,TRUE,,,,,,,,,,,,,,,,,,,,,,,,,,,METAR,15.0
KETB 311935Z AUTO 00000KT 10SM CLR 18/05 A2980 RMK AO2,KETB,2022-10-31T19:35:00Z,43.42,-88.13,18.0,5.0,0,0,,10.0,29.799213,,,TRUE,TRUE,,,,,,,CLR,,,,,,,,VFR,,,,,,,,,,,,SPECI,269.0
KERY 311935Z AUTO 20005KT 10SM CLR 15/05 A2978 RMK AO2 T01540053,KERY,2022-10-31T19:35:00Z,46.3,-85.45,15.4,5.3,200,5,,10.0,29.778543,,,TRUE,TRUE,,,,,,,CLR,,,,,,,,VFR,,,,,,,,,,,,METAR,261.0
KERV 311935Z AUTO 14006KT 10SM SCT060 25/08 A3002 RMK AO2 T02480081,KERV,2022-10-31T19:35:00Z,29.98,-99.08,24.8,8.1,140,6,,10.0,30.02067,,,TRUE,TRUE,,,,,,,SCT,6000,,,,,,,VFR,,,,,,,,,,,,METAR,483.0
KEQA 311935Z AUTO 30005KT 10SM CLR 22/M03 A2996 RMK AO2,KEQA,2022-10-31T19:35:00Z,37.78,-96.82,22.0,-3.0,300,5,,10.0,29.958662,,,TRUE,TRUE,,,,,,,CLR,,,,,,,,VFR,,,,,,,,,,,,METAR,422.0
KEOK 311935Z AUTO VRB05KT 10SM CLR 18/08 A2987 RMK A01,KEOK,2022-10-31T19:35:00Z,40.47,-91.42,18.0,8.0,0,5,,10.0,29.870079,,,TRUE,TRUE,,,,,,,CLR,,,,,,,,VFR,,,,,,,,,,,,METAR,206.0
KEOE 311935Z AUTO 00000KT 7SM CLR 18/18 A3002 RMK AO2,KEOE,2022-10-31T19:35:00Z,34.32,-81.63,18.0,18.0,0,0,,7.0,30.02067,,,TRUE,TRUE,,,,,,,CLR,,,,,,,,VFR,,,,,,,,,,,,SPECI,166.0
KEMV 311935Z AUTO 13005KT 10SM SCT065 23/14 A3003 RMK AO2 T02250141,KEMV,2022-10-31T19:35:00Z,36.68,-77.48,22.5,14.1,130,5,,10.0,30.029528,,,TRUE,TRUE,,,,,,,SCT,6500,,,,,,,VFR,,,,,,,,,,,,SPECI,35.0
KEMM 311935Z AUTO 29012G22KT 10SM CLR 09/M05 A3012 RMK AO2,KEMM,2022-10-31T19:35:00Z,41.82,-110.55,9.0,-5.0,290,12,22,10.0,30.121063,,,TRUE,TRUE,,,,,,,CLR,,,,,,,,VFR,,,,,,,,,,,,METAR,2219.0
KELO 311935Z AUTO 25011KT 10SM CLR 16/M03 A2971 RMK AO2,KELO,2022-10-31T19:35:00Z,47.82,-91.83,16.0,-3.0,250,11,,10.0,29.71063,,,TRUE,TRUE,,,,,,,CLR,,,,,,,,VFR,,,,,,,,,,,,METAR,438.0
KELK 311935Z AUTO 21009KT 9SM CLR 22/03 A3000 RMK AO2 SLP443 T02240034 $,KELK,2022-10-31T19:35:00Z,35.43,-99.4,22.4,3.4,210,9,,9.0,30.0,1044.3,,TRUE,TRUE,TRUE,,,,,,CLR,,,,,,,,VFR,,,,,,,,,,,,METAR,603.0
KELA 311935Z AUTO 00000KT 10SM SCT055 27/11 A2999 RMK AO2 T02660110,KELA,2022-10-31T19:35:00Z,29.6,-96.32,26.6,11.0,0,0,,10.0,29.991142,,,TRUE,TRUE,,,,,,,SCT,5500,,,,,,,VFR,,,,,,,,,,,,METAR,56.0
KEKX 311935Z AUTO 21008KT 10SM BKN024 BKN030 OVC070 17/13 A2991 RMK AO2 T01740133,KEKX,2022-10-31T19:35:00Z,37.68,-85.92,17.4,13.3,210,8,,10.0,29.911417,,,TRUE,TRUE,,,,,,,BKN,2400,BKN,3000,OVC,7000,,,MVFR,,,,,,,,,,,,METAR,234.0
KEKS 311935Z AUTO 18027KT 10SM OVC070 13/M01 A2996 RMK AO2,KEKS,2022-10-31T19:35:00Z,45.27,-111.65,13.0,-1.0,180,27,,10.0,29.958662,,,TRUE,TRUE,,,,,,,OVC,7000,,,,,,,VFR,,,,,,,,,,,,METAR,1636.0
KEKM 311935Z 00000KT 10SM FEW008 SCT013 BKN031 OVC080 16/16 A2981 RMK AO2 RAE1926 FEW V SCT P0000 T01610161,KEKM,2022-10-31T19:35:00Z,41.72,-86.0,16.1,16.1,0,0,,10.0,29.811024,,,,TRUE,,,,,,,FEW,800,SCT,1300,BKN,3100,OVC,8000,VFR,,,,,,0.005,,,,,,METAR,236.0
KEIK 311935Z AUTO 13006KT 10SM CLR 19/M12 A2995 RMK AO2 T01871119 PWINO,KEIK,2022-10-31T19:35:00Z,40.02,-105.05,18.7,-11.9,130,6,,10.0,29.949802,,,TRUE,TRUE,,,,,TRUE,,CLR,,,,,,,,VFR,,,,,,,,,,,,METAR,1551.0
KEHO 311935Z AUTO 00000KT 10SM BKN003 BKN017 OVC022 16/15 A3001 RMK AO2 T01550149,KEHO,2022-10-31T19:35:00Z,35.25,-81.6,15.5,14.9,0,0,,10.0,30.008858,,,TRUE,TRUE,,,,,,,BKN,300,BKN,1700,OVC,2200,,,LIFR,,,,,,,,,,,,SPECI,261.0
KEHA 311935Z AUTO 21015G19KT 10SM CLR 23/00 A2998 RMK AO2 T02270001,KEHA,2022-10-31T19:35:00Z,37.0,-101.87,22.7,0.1,210,15,19,10.0,29.97933,,,TRUE,TRUE,,,,,,,CLR,,,,,,,,VFR,,,,,,,,,,,,METAR,1103.0
KEGT 311935Z AUTO 29006KT 10SM CLR 22/M02 A2997 RMK AO2 T02211018,KEGT,2022-10-31T19:35:00Z,37.32,-97.38,22.1,-1.8,290,6,,10.0,29.970472,,,TRUE,TRUE,,,,,,,CLR,,,,,,,,VFR,,,,,,,,,,,,SPECI,387.0
KEFT 311935Z AUTO 00000KT 10SM CLR 18/04 A2981 RMK AO2 T01830035,KEFT,2022-10-31T19:35:00Z,42.62,-89.6,18.3,3.5,0,0,,10.0,29.811024,,,TRUE,TRUE,,,,,,,CLR,,,,,,,,VFR,,,,,,,,,,,,SPECI,332.0
KEFK 311935Z AUTO 21004KT 10SM CLR 16/00 A2992 RMK AO2 T01591002,KEFK,2022-10-31T19:35:00Z,44.88,-72.23,15.9,-0.2,210,4,,10.0,29.920275,,,TRUE,TRUE,,,,,,,CLR,,,,,,,,VFR,,,,,,,,,,,,METAR,282.0
KEDN 311935Z AUTO 30003KT 10SM CLR 23/13 A2998 RMK AO2 T02310126,KEDN,2022-10-31T19:35:00Z,31.3,-85.9,23.1,12.6,300,3,,10.0,29.97933,,,TRUE,TRUE,,,,,,,CLR,,,,,,,,VFR,,,,,,,,,,,,METAR,103.0
KEDE 311935Z AUTO 09003KT 10SM CLR 24/18 A3004 RMK AO2 T02360178,KEDE,2022-10-31T19:35:00Z,36.03,-76.57,23.6,17.8,90,3,,10.0,30.041338,,,TRUE,TRUE,,,,,,,CLR,,,,,,,,VFR,,,,,,,,,,,,SPECI,4.0
KEDC 311935Z AUTO 17005KT 10SM CLR 24/10 A2999 RMK AO2,KEDC,2022-10-31T19:35:00Z,30.4,-97.57,24.0,10.0,170,5,,10.0,29.991142,,,TRUE,TRUE,,,,,,,CLR,,,,,,,,VFR,,,,,,,,,,,,METAR,184.0
KECU 311935Z AUTO 13006KT 10SM CLR 21/13 A3006 RMK AO2,KECU,2022-10-31T19:35:00Z,29.95,-100.17,21.0,13.0,130,6,,10.0,30.059055,,,TRUE,TRUE,,,,,,,CLR,,,,,,,,VFR,,,,,,,,,,,,METAR,725.0
KECS 311935Z AUTO 00000KT 10SM CLR 15/M11 A2989 RMK AO2,KECS,2022-10-31T19:35:00Z,43.88,-104.32,15.0,-11.0,0,0,,10.0,29.890747,,,TRUE,TRUE,,,,,,,CLR,,,,,,,,VFR,,,,,,,,,,,,METAR,1273.0
KEBG 311935Z AUTO 07011G16KT 10SM SCT036 OVC060 26/18 A2992 RMK AO2 T02580178 PWINO,KEBG,2022-10-31T19:35:00Z,26.45,-98.13,25.8,17.8,70,11,16,10.0,29.920275,,,TRUE,TRUE,,,,,TRUE,,SCT,3600,OVC,6000,,,,,VFR,,,,,,,,,,,,METAR,21.0
KEBA 311935Z AUTO 00000KT 3SM BR OVC002 17/17 A2999 RMK AO2 T01750170,KEBA,2022-10-31T19:35:00Z,34.1,-82.82,17.5,17.0,0,0,,3.0,29.991142,,,TRUE,TRUE,,,,,,BR,OVC,200,,,,,,,LIFR,,,,,,,,,,,,METAR,180.0
KE42 311935Z AUTO 20012KT 10SM CLR 22/04 A2999 RMK AO2 T02150043,KE42,2022-10-31T19:35:00Z,36.22,-101.2,21.5,4.3,200,12,,10.0,29.991142,,,TRUE,TRUE,,,,,,,CLR,,,,,,,,VFR,,,,,,,,,,,,METAR,942.0
KE41 311935Z AUTO 15007KT 10SM CLR 20/09 A3003 RMK AO2 T01980088,KE41,2022-10-31T19:35:00Z,31.2,-101.47,19.8,8.8,150,7,,10.0,30.029528,,,TRUE,TRUE,,,,,,,CLR,,,,,,,,VFR,,,,,,,,,,,,METAR,825.0
KE38 311935Z AUTO 04005KT 10SM OVC100 18/06 A3009 RMK AO2 T01830055,KE38,2022-10-31T19:35:00Z,30.38,-103.68,18.3,5.5,40,5,,10.0,30.088583,,,TRUE,TRUE,,,,,,,OVC,10000,,,,,,,VFR,,,,,,,,,,,,SPECI,1372.0
KE16 311935Z AUTO 15005KT 10SM CLR 14/08 A2996 RMK AO2,KE16,2022-10-31T19:35:00Z,37.08,-121.6,14.0,8.0,150,5,,10.0,29.958662,,,TRUE,TRUE,,,,,,,CLR,,,,,,,,VFR,,,,,,,,,,,,METAR,84.0
KE11 311935Z AUTO 16009KT 10SM CLR 19/07 A3005 RMK AO2 T01910072,KE11,2022-10-31T19:35:00Z,32.33,-102.53,19.1,7.2,160,9,,10.0,30.050198,,,TRUE,TRUE,,,,,,,CLR,,,,,,,,VFR,,,,,,,,,,,,METAR,966.0
KDZJ 311935Z AUTO 19006G14KT 10SM BKN036 BKN048 20/12 A2999 RMK AO2 T02010120,KDZJ,2022-10-31T19:35:00Z,34.85,-84.0,20.1,12.0,190,6,14,10.0,29.991142,,,TRUE,TRUE,,,,,,,BKN,3600,BKN,4800,,,,,VFR,,,,,,,,,,,,METAR,578.0
KDZB 311935Z AUTO 07003KT 7SM CLR 24/10 A3001 RMK AO2 T02410095,KDZB,2022-10-31T19:35:00Z,30.53,-98.37,24.1,9.5,70,3,,7.0,30.008858,,,TRUE,TRUE,,,,,,,CLR,,,,,,,,VFR,,,,,,,,,,,,METAR,329.0
KDYT 311935Z AUTO 23009KT 10SM CLR 17/M00 A2975 RMK AO2,KDYT,2022-10-31T19:35:00Z,46.72,-92.03,17.0,0.0,230,9,,10.0,29.749016,,,TRUE,TRUE,,,,,,,CLR,,,,,,,,VFR,,,,,,,,,,,,METAR,185.0
KDYR 311935Z AUTO 23012KT 10SM SCT026 BKN038 OVC050 18/13 A2995 RMK AO2,KDYR,2022-10-31T19:35:00Z,36.0,-89.4,18.0,13.0,230,12,,10.0,29.949802,,,TRUE,TRUE,,,,,,,SCT,2600,BKN,3800,OVC,5000,,,VFR,,,,,,,,,,,,METAR,98.0
KDYB 311935Z AUTO 20006KT 10SM CLR 26/20 A2997 RMK AO2,KDYB,2022-10-31T19:35:00Z,33.07,-80.28,26.0,20.0,200,6,,10.0,29.970472,,,TRUE,TRUE,,,,,,,CLR,,,,,,,,VFR,,,,,,,,,,,,METAR,15.0
KDYA 311935Z AUTO 26006KT 10SM SCT042 BKN049 OVC060 22/14 A2999 RMK AO2 T02150136,KDYA,2022-10-31T19:35:00Z,32.47,-87.95,21.5,13.6,260,6,,10.0,29.991142,,,TRUE,TRUE,,,,,,,SCT,4200,BKN,4900,OVC,6000,,,VFR,,,,,,,,,,,,METAR,33.0
KDXX 311935Z AUTO 21010KT 10SM CLR 22/M06 A2978 RMK AO2,KDXX,2022-10-31T19:35:00Z,44.98,-96.18,22.0,-6.0,210,10,,10.0,29.778543,,,TRUE,TRUE,,,,,,,CLR,,,,,,,,VFR,,,,,,,,,,,,METAR,327.0
KDWA 311935Z AUTO 36003KT 10SM CLR 18/07 A2996 RMK AO2,KDWA,2022-10-31T19:35:00Z,38.58,-121.85,18.0,7.0,360,3,,10.0,29.958662,,,TRUE,TRUE,,,,,,,CLR,,,,,,,,VFR,,,,,,,,,,,,METAR,28.0
KDVO 311935Z AUTO 22005KT 9SM CLR 16/11 A2995 RMK AO2,KDVO,2022-10-31T19:35:00Z,38.15,-122.55,16.0,11.0,220,5,,9.0,29.949802,,,TRUE,TRUE,,,,,,,CLR,,,,,,,,VFR,,,,,,,,,,,,METAR,1.0
KDUX 311935Z AUTO 17010KT 10SM CLR 20/01 A3000 RMK AO2 T02010007,KDUX,2022-10-31T19:35:00Z,35.85,-102.02,20.1,0.7,170,10,,10.0,30.0,,,TRUE,TRUE,,,,,,,CLR,,,,,,,,VFR,,,,,,,,,,,,SPECI,1129.0
KDUH 311935Z AUTO 24004KT 10SM SCT060 OVC075 18/14 A2980 RMK AO2 T01800140,KDUH,2022-10-31T19:35:00Z,41.73,-83.65,18.0,14.0,240,4,,10.0,29.799213,,,TRUE,TRUE,,,,,,,SCT,6000,OVC,7500,,,,,VFR,,,,,,,,,,,,METAR,203.0
KDUC 311935Z AUTO 27007KT 10SM CLR 23/10 A3002 RMK AO2 T02250099,KDUC,2022-10-31T19:35:00Z,34.47,-97.97,22.5,9.9,270,7,,10.0,30.02067,,,TRUE,TRUE,,,,,,,CLR,,,,,,,,VFR,,,,,,,,,,,,METAR,339.0
KDUA 311935Z AUTO 00000KT 10SM CLR 25/02 A3003 RMK AO2,KDUA,2022-10-31T19:35:00Z,33.95,-96.4,25.0,2.0,0,0,,10.0,30.029528,,,TRUE,TRUE,,,,,,,CLR,,,,,,,,VFR,,,,,,,,,,,,METAR,209.0
KDTL 311935Z AUTO 21013KT 10SM CLR 17/M01 A2974 RMK AO2,KDTL,2022-10-31T19:35:00Z,46.82,-95.88,17.0,-1.0,210,13,,10.0,29.740158,,,TRUE,TRUE,,,,,,,CLR,,,,,,,,VFR,,,,,,,,,,,,METAR,425.0
KDTA 311935Z AUTO 15008KT 10SM CLR 11/M05 A3012 RMK AO1,KDTA,2022-10-31T19:35:00Z,39.38,-112.5,11.0,-5.0,150,8,,10.0,30.121063,,,TRUE,TRUE,,,,,,,CLR,,,,,,,,VFR,,,,,,,,,,,,METAR,1452.0
KDSF 311935Z AUTO VRB04KT 10SM CLR 26/16 A3000 RMK A01,KDSF,2022-10-31T19:35:00Z,28.35,-88.27,26.0,16.0,0,4,,10.0,30.0,,,TRUE,TRUE,,,,,,,CLR,,,,,,,,VFR,,,,,,,,,,,,METAR,40.0
KDRM 311935Z AUTO 15005KT 10SM CLR 16/05 A2979 RMK AO2 T01550052,KDRM,2022-10-31T19:35:00Z,46.0,-83.75,15.5,5.2,150,5,,10.0,29.790354,,,TRUE,TRUE,,,,,,,CLR,,,,,,,,VFR,,,,,,,,,,,,METAR,201.0
KDRI 311935Z AUTO VRB03KT 9SM CLR 24/12 A3002 RMK AO2 T02430118 $,KDRI,2022-10-31T19:35:00Z,30.83,-93.33,24.3,11.8,0,3,,9.0,30.02067,,,TRUE,TRUE,TRUE,,,,,,CLR,,,,,,,,VFR,,,,,,,,,,,,METAR,59.0
KDQH 311935Z AUTO 20004KT 10SM SCT033 SCT039 SCT047 28/19 A2997 RMK AO2 T02780189,KDQH,2022-10-31T19:35:00Z,31.48,-82.87,27.8,18.9,200,4,,10.0,29.970472,,,TRUE,TRUE,,,,,,,SCT,3300,SCT,3900,SCT,4700,,,VFR,,,,,,,,,,,,SPECI,76.0
KDPL 311935Z AUTO 17004KT 10SM SCT033 SCT041 BKN070 26/19 A3000 RMK AO2,KDPL,2022-10-31T19:35:00Z,35.0,-77.97,26.0,19.0,170,4,,10.0,30.0,,,TRUE,TRUE,,,,,,,SCT,3300,SCT,4100,BKN,7000,,,VFR,,,,,,,,,,,,METAR,39.0
KDNV 311935Z AUTO 23009KT 5SM BR OVC003 14/13 A2984 RMK AO2 T01370130,KDNV,2022-10-31T19:35:00Z,40.2,-87.6,13.7,13.0,230,9,,5.0,29.840551,,,TRUE,TRUE,,,,,,BR,OVC,300,,,,,,,LIFR,,,,,,,,,,,,METAR,208.0
KDNS 311935Z AUTO 22010G16KT 10SM CLR 19/M01 A2989 RMK AO2,KDNS,2022-10-31T19:35:00Z,41.98,-95.37,19.0,-1.0,220,10,16,10.0,29.890747,,,TRUE,TRUE,,,,,,,CLR,,,,,,,,VFR,,,,,,,,,,,,METAR,382.0
KDNN 311935Z AUTO VRB04KT 10SM SCT036 OVC050 21/12 A2997 RMK AO2 T02050117,KDNN,2022-10-31T19:35:00Z,34.72,-84.87,20.5,11.7,0,4,,10.0,29.970472,,,TRUE,TRUE,,,,,,,SCT,3600,OVC,5000,,,,,VFR,,,,,,,,,,,,METAR,216.0
KDNA 311935Z AUTO 00000KT 10SM CLR 21/M01 A3004 RMK AO2,KDNA,2022-10-31T19:35:00Z,31.88,-106.7,21.0,-1.0,0,0,,10.0,30.041338,,,TRUE,TRUE,,,,,,,CLR,,,,,,,,VFR,,,,,,,,,,,,METAR,1254.0
KDMW 311935Z AUTO 17004KT 10SM BKN017 BKN065 17/14 A2999 RMK AO2,KDMW,2022-10-31T19:35:00Z,39.6,-77.0,17.0,14.0,170,4,,10.0,29.991142,,,TRUE,TRUE,,,,,,,BKN,1700,BKN,6500,,,,,MVFR,,,,,,,,,,,,METAR,239.0
KDLZ 311935Z AUTO 21010G16KT 10SM OVC065 17/12 A2987 RMK AO2,KDLZ,2022-10-31T19:35:00Z,40.28,-83.12,17.0,12.0,210,10,16,10.0,29.870079,,,TRUE,TRUE,,,,,,,OVC,6500,,,,,,,VFR,,,,,,,,,,,,METAR,287.0
KDLO 311935Z AUTO 34005KT 10SM CLR 21/02 A2992 RMK AO2 T02070019,KDLO,2022-10-31T19:35:00Z,35.75,-119.23,20.7,1.9,340,5,,10.0,29.920275,,,TRUE,TRUE,,,,,,,CLR,,,,,,,,VFR,,,,,,,,,,,,METAR,97.0
KDKX 311935Z AUTO 26007G12KT 230V300 10SM 19/15 A2995 RMK A01,KDKX,2022-10-31T19:35:00Z,35.97,-83.87,19.0,15.0,260,7,12,10.0,29.949802,,,TRUE,TRUE,,,,,,,,,,,,,,,,,,,,,,,,,,,METAR,253.0
KDKR 311935Z AUTO 00000KT 10SM CLR 24/12 A3000 RMK AO2,KDKR,2022-10-31T19:35:00Z,31.3,-95.4,24.0,12.0,0,0,,10.0,30.0,,,TRUE,TRUE,,,,,,,CLR,,,,,,,,VFR,,,,,,,,,,,,METAR,105.0
KDKB 311935Z AUTO 00000KT 10SM OVC025 15/12 A2983 RMK AO2 T01540120,KDKB,2022-10-31T19:35:00Z,41.93,-88.7,15.4,12.0,0,0,,10.0,29.828741,,,TRUE,TRUE,,,,,,,OVC,2500,,,,,,,MVFR,,,,,,,,,,,,METAR,277.0
KDFI 311935Z AUTO 21008KT 10SM BKN020 OVC080 18/14 A2981 RMK AO2 T01780139,KDFI,2022-10-31T19:35:00Z,41.33,-84.43,17.8,13.9,210,8,,10.0,29.811024,,,TRUE,TRUE,,,,,,,BKN,2000,OVC,8000,,,,,MVFR,,,,,,,,,,,,METAR,215.0
KDEH 311935Z AUTO VRB04KT 10SM CLR 17/03 A2982 RMK AO2,KDEH,2022-10-31T19:35:00Z,43.27,-91.73,17.0,3.0,0,4,,10.0,29.819881,,,TRUE,TRUE,,,,,,,CLR,,,,,,,,VFR,,,,,,,,,,,,METAR,348.0
KDED 311935Z AUTO 13004KT 10SM CLR 30/19 A2996 RMK AO2 T03010186,KDED,2022-10-31T19:35:00Z,29.07,-81.28,30.1,18.6,130,4,,10.0,29.958662,,,TRUE,TRUE,,,,,,,CLR,,,,,,,,VFR,,,,,,,,,,,,SPECI,21.0
KDCY 311935Z AUTO 25006KT 10SM SCT020 OVC032 17/13 A2987 RMK AO2 T01680130,KDCY,2022-10-31T19:35:00Z,38.7,-87.13,16.8,13.0,250,6,,10.0,29.870079,,,TRUE,TRUE,,,,,,,SCT,2000,OVC,3200,,,,,VFR,,,,,,,,,,,,METAR,143.0
KDCM 311935Z AUTO 00000KT 3SM RA BKN003 BKN007 OVC024 17/17 A3000 RMK AO2 P0016,KDCM,2022-10-31T19:35:00Z,34.78,-81.2,17.0,17.0,0,0,,3.0,30.0,,,TRUE,TRUE,,,,,,RA,BKN,300,BKN,700,OVC,2400,,,LIFR,,,,,,0.16,,,,,,METAR,191.0
KDBN 311935Z AUTO 26005KT 10SM BKN027 BKN038 OVC046 26/18 A2998 RMK AO2,KDBN,2022-10-31T19:35:00Z,32.57,-82.98,26.0,18.0,260,5,,10.0,29.97933,,,TRUE,TRUE,,,,,,,BKN,2700,BKN,3800,OVC,4600,,,MVFR,,,,,,,,,,,,METAR,90.0
KD95 311935Z AUTO 00000KT 5SM BR OVC005 15/13 A2980 RMK AO2 T01470130,KD95,2022-10-31T19:35:00Z,43.07,-83.27,14.7,13.0,0,0,,5.0,29.799213,,,TRUE,TRUE,,,,,,BR,OVC,500,,,,,,,IFR,,,,,,,,,,,,METAR,253.0
KD73 311935Z AUTO 08004KT 10SM SCT008 BKN012 OVC042 20/19 A2997 RMK AO2 T02020193,KD73,2022-10-31T19:35:00Z,33.78,-83.7,20.2,19.3,80,4,,10.0,29.970472,,,TRUE,TRUE,,,,,,,SCT,800,BKN,1200,OVC,4200,,,MVFR,,,,,,,,,,,,METAR,254.0
KD60 311935Z AUTO 25009KT 10SM CLR 14/01 A2971 RMK AO2,KD60,2022-10-31T19:35:00Z,48.38,-102.9,14.0,1.0,250,9,,10.0,29.71063,,,TRUE,TRUE,,,,,,,CLR,,,,,,,,VFR,,,,,,,,,,,,METAR,682.0
KD57 311935Z AUTO 26007KT 10SM CLR 17/M01 A2974 RMK AO2,KD57,2022-10-31T19:35:00Z,46.82,-101.87,17.0,-1.0,260,7,,10.0,29.740158,,,TRUE,TRUE,,,,,,,CLR,,,,,,,,VFR,,,,,,,,,,,,METAR,636.0
KD55 311935Z AUTO 25010KT 10SM CLR 13/03 A2967 RMK AO2,KD55,2022-10-31T19:35:00Z,48.75,-98.4,13.0,3.0,250,10,,10.0,29.66929,,,TRUE,TRUE,,,,,,,CLR,,,,,,,,VFR,,,,,,,,,,,,METAR,488.0
KD50 311935Z AUTO 25009KT 10SM CLR 15/01 A2969 RMK AO2,KD50,2022-10-31T19:35:00Z,48.93,-103.3,15.0,1.0,250,9,,10.0,29.68996,,,TRUE,TRUE,,,,,,,CLR,,,,,,,,VFR,,,,,,,,,,,,METAR,591.0
KD39 311935Z AUTO 23009KT 10SM OVC002 18/M01 A2979 RMK AO2 T01761013,KD39,2022-10-31T19:35:00Z,45.7,-94.93,17.6,-1.3,230,9,,10.0,29.790354,,,TRUE,TRUE,,,,,,,OVC,200,,,,,,,LIFR,,,,,,,,,,,,METAR,378.0
KD25 311935Z AUTO 26005KT 10SM CLR 16/M03 A2979 RMK AO2 T01581031,KD25,2022-10-31T19:35:00Z,46.12,-89.88,15.8,-3.1,260,5,,10.0,29.790354,,,TRUE,TRUE,,,,,,,CLR,,,,,,,,VFR,,,,,,,,,,,,METAR,490.0
KCZT 311935Z AUTO 14008KT 10SM SCT046 OVC075 24/11 A2995 RMK AO2,KCZT,2022-10-31T19:35:00Z,28.52,-99.82,24.0,11.0,140,8,,10.0,29.949802,,,TRUE,TRUE,,,,,,,SCT,4600,OVC,7500,,,,,VFR,,,,,,,,,,,,SPECI,176.0
KCZL 311935Z AUTO 27006KT 10SM SCT050 21/12 A2999 RMK AO2,KCZL,2022-10-31T19:35:00Z,34.47,-84.93,21.0,12.0,270,6,,10.0,29.991142,,,TRUE,TRUE,,,,,,,SCT,5000,,,,,,,VFR,,,,,,,,,,,,METAR,197.0
KCXW 311935Z AUTO 22008KT 10SM CLR 23/11 A2995 RMK A01,KCXW,2022-10-31T19:35:00Z,35.02,-92.55,23.0,11.0,220,8,,10.0,29.949802,,,TRUE,TRUE,,,,,,,CLR,,,,,,,,VFR,,,,,,,,,,,,METAR,84.0
KCXU 311935Z AUTO 31005KT 10SM OVC037 27/15 A2997 RMK AO1 T02680145,KCXU,2022-10-31T19:35:00Z,31.22,-84.23,26.8,14.5,310,5,,10.0,29.970472,,,TRUE,TRUE,,,,,,,OVC,3700,,,,,,,VFR,,,,,,,,,,,,METAR,48.0
KCXP 311935Z AUTO 00000KT 10SM CLR 12/M09 A3005 RMK AO2,KCXP,2022-10-31T19:35:00Z,39.18,-119.73,12.0,-9.0,0,0,,10.0,30.050198,,,TRUE,TRUE,,,,,,,CLR,,,,,,,,VFR,,,,,,,,,,,,METAR,1431.0
KCXE 311935Z AUTO 12003KT 10SM SCT033 SCT070 OVC100 20/16 A3001 RMK AO1 T02000156,KCXE,2022-10-31T19:35:00Z,36.78,-78.5,20.0,15.6,120,3,,10.0,30.008858,,,TRUE,TRUE,,,,,,,SCT,3300,SCT,7000,OVC,10000,,,VFR,,,,,,,,,,,,METAR,154.0
KCWV 311935Z AUTO 25005KT 10SM SCT043 SCT050 SCT065 29/18 A2996 RMK AO2 T02930176,KCWV,2022-10-31T19:35:00Z,32.2,-81.87,29.3,17.6,250,5,,10.0,29.958662,,,TRUE,TRUE,,,,,,,SCT,4300,SCT,5000,SCT,6500,,,VFR,,,,,,,,,,,,METAR,32.0
KCWC 311935Z AUTO 24004KT 10SM CLR 23/07 A3002 RMK AO2 T02340069,KCWC,2022-10-31T19:35:00Z,33.85,-98.48,23.4,6.9,240,4,,10.0,30.02067,,,TRUE,TRUE,,,,,,,CLR,,,,,,,,VFR,,,,,,,,,,,,METAR,304.0
KCVX 311935Z AUTO 30005KT 10SM CLR 14/06 A2979 RMK AO2 T01420060,KCVX,2022-10-31T19:35:00Z,45.3,-85.27,14.2,6.0,300,5,,10.0,29.790354,,,TRUE,TRUE,,,,,,,CLR,,,,,,,,VFR,,,,,,,,,,,,METAR,196.0
KCVH 311935Z AUTO 00000KT 10SM CLR 16/08 A2995 RMK A01,KCVH,2022-10-31T19:35:00Z,36.9,-121.42,16.0,8.0,0,0,,10.0,29.949802,,,TRUE,TRUE,,,,,,,CLR,,,,,,,,VFR,,,,,,,,,,,,METAR,68.0
KCVC 311935Z AUTO 00000KT 10SM SCT030 BKN035 OVC065 22/18 A2996 RMK AO2,KCVC,2022-10-31T19:35:00Z,33.63,-83.85,22.0,18.0,0,0,,10.0,29.958662,,,TRUE,TRUE,,,,,,,SCT,3000,BKN,3500,OVC,6500,,,VFR,,,,,,,,,,,,METAR,240.0
KCUH 311935Z AUTO 30009KT 10SM CLR 22/11 A2998 RMK AO2 T02230107,KCUH,2022-10-31T19:35:00Z,35.95,-96.77,22.3,10.7,300,9,,10.0,29.97933,,,TRUE,TRUE,,,,,,,CLR,,,,,,,,VFR,,,,,,,,,,,,METAR,274.0
KCTZ 311935Z AUTO 16003KT 10SM SCT033 SCT042 26/20 A3000 RMK AO2 T02570204,KCTZ,2022-10-31T19:35:00Z,34.98,-78.37,25.7,20.4,160,3,,10.0,30.0,,,TRUE,TRUE,,,,,,,SCT,3300,SCT,4200,,,,,VFR,,,,,,,,,,,,METAR,43.0
KCTY 311935Z AUTO 26008KT 10SM BKN110 30/19 A2996 RMK AO2 T03020185,KCTY,2022-10-31T19:35:00Z,29.63,-83.1,30.2,18.5,260,8,,10.0,29.958662,,,TRUE,TRUE,,,,,,,BKN,11000,,,,,,,VFR,,,,,,,,,,,,METAR,12.0
KCTJ 311935Z AUTO 28006KT 10SM BKN045 BKN050 20/11 A3002 RMK AO2 T02000106,KCTJ,2022-10-31T19:35:00Z,33.63,-85.15,20.0,10.6,280,6,,10.0,30.02067,,,TRUE,TRUE,,,,,,,BKN,4500,BKN,5000,,,,,VFR,,,,,,,,,,,,SPECI,351.0
KCSQ 311935Z AUTO 31007KT 10SM CLR 18/01 A2990 RMK AO2,KCSQ,2022-10-31T19:35:00Z,41.02,-94.37,18.0,1.0,310,7,,10.0,29.899607,,,TRUE,TRUE,,,,,,,CLR,,,,,,,,VFR,,,,,,,,,,,,METAR,394.0
KCRX 311935Z AUTO 24007G14KT 10SM BKN027 BKN035 OVC040 19/12 A2995 RMK AO2,KCRX,2022-10-31T19:35:00Z,34.92,-88.6,19.0,12.0,240,7,14,10.0,29.949802,,,TRUE,TRUE,,,,,,,BKN,2700,BKN,3500,OVC,4000,,,MVFR,,,,,,,,,,,,METAR,128.0
KCQW 311935Z AUTO 15004KT 10SM SCT023 SCT027 SCT120 26/19 A2997 RMK AO2 PWINO,KCQW,2022-10-31T19:35:00Z,34.72,-79.95,26.0,19.0,150,4,,10.0,29.970472,,,TRUE,TRUE,,,,,TRUE,,SCT,2300,SCT,2700,SCT,12000,,,VFR,,,,,,,,,,,,SPECI,67.0
KCQM 311935Z AUTO 23010G19KT 10SM SCT070 17/M03 A2970 RMK AO2,KCQM,2022-10-31T19:35:00Z,47.82,-92.68,17.0,-3.0,230,10,19,10.0,29.698818,,,TRUE,TRUE,,,,,,,SCT,7000,,,,,,,VFR,,,,,,,,,,,,METAR,406.0
KCQF 311935Z AUTO 00000KT 10SM CLR 22/13 A3000 RMK AO2,KCQF,2022-10-31T19:35:00Z,30.47,-87.88,22.0,13.0,0,0,,10.0,30.0,,,TRUE,TRUE,,,,,,,CLR,,,,,,,,VFR,,,,,,,,,,,,METAR,21.0
KCPW 311935Z AUTO 24008G15KT 10SM CLR 01/M08 A3032 RMK AO2,KCPW,2022-10-31T19:35:00Z,37.45,-106.8,1.0,-8.0,240,8,15,10.0,30.318897,,,TRUE,TRUE,,,,,,,CLR,,,,,,,,VFR,,,,,,,,,,,,SPECI,3570.0
KCPU 311935Z AUTO 00000KT 10SM CLR 21/01 A2995 RMK AO2 T02070007,KCPU,2022-10-31T19:35:00Z,38.15,-120.65,20.7,0.7,0,0,,10.0,29.949802,,,TRUE,TRUE,,,,,,,CLR,,,,,,,,VFR,,,,,,,,,,,,METAR,400.0
KCPT 311935Z AUTO 00000KT 10SM CLR 25/07 A3002 RMK A01,KCPT,2022-10-31T19:35:00Z,32.35,-97.43,25.0,7.0,0,0,,10.0,30.02067,,,TRUE,TRUE,,,,,,,CLR,,,,,,,,VFR,,,,,,,,,,,,METAR,260.0
KCPK 311935Z AUTO 20004KT 23/13 A3002 RMK AO2 T02300130,KCPK,2022-10-31T19:35:00Z,36.67,-76.32,23.0,13.0,200,4,,,30.02067,,,TRUE,TRUE,,,,,,,,,,,,,,,,,,,,,,,,,,,SPECI,4.0
KCPF 311935Z AUTO 19004KT 10SM SCT009 SCT032 OVC065 17/16 A2994 RMK AO2,KCPF,2022-10-31T19:35:00Z,37.38,-83.27,17.0,16.0,190,4,,10.0,29.940945,,,TRUE,TRUE,,,,,,,SCT,900,SCT,3200,OVC,6500,,,VFR,,,,,,,,,,,,SPECI,382.0
KCPC 311935Z AUTO 19007KT 10SM SCT060 SCT080 26/19 A3001 RMK AO2 T02600187,KCPC,2022-10-31T19:35:00Z,34.28,-78.72,26.0,18.7,190,7,,10.0,30.008858,,,TRUE,TRUE,,,,,,,SCT,6000,SCT,8000,,,,,VFR,,,,,,,,,,,,METAR,27.0
KCOQ 311935Z AUTO 23009KT 192V262 10SM CLR 17/M04 A2975 RMK AO2 TSNO,KCOQ,2022-10-31T19:35:00Z,46.7,-92.5,17.0,-4.0,230,9,,10.0,29.749016,,,TRUE,TRUE,,,TRUE,,,,CLR,,,,,,,,VFR,,,,,,,,,,,,METAR,390.0
KCOM 311935Z AUTO 00000KT CLR 22/07 A3003 RMK AO2 T02170074 PWINO,KCOM,2022-10-31T19:35:00Z,31.83,-99.4,21.7,7.4,0,0,,,30.029528,,,TRUE,TRUE,,,,,TRUE,,CLR,,,,,,,,,,,,,,,,,,,,METAR,516.0
KCNI 311935Z AUTO 30005KT 10SM SCT018 SCT027 BKN033 20/15 A2998 RMK AO2 T02010146,KCNI,2022-10-31T19:35:00Z,34.32,-84.42,20.1,14.6,300,5,,10.0,29.97933,,,TRUE,TRUE,,,,,,,SCT,1800,SCT,2700,BKN,3300,,,VFR,,,,,,,,,,,,SPECI,371.0
KCNC 311935Z AUTO 31009KT 10SM CLR 18/02 A2989 RMK AO2,KCNC,2022-10-31T19:35:00Z,41.02,-93.37,18.0,2.0,310,9,,10.0,29.890747,,,TRUE,TRUE,,,,,,,CLR,,,,,,,,VFR,,,,,,,,,,,,METAR,319.0
KCNB 311935Z AUTO 23007KT 180V250 10SM CLR 22/M03 A2978 RMK AO2 T02151029,KCNB,2022-10-31T19:35:00Z,44.73,-96.27,21.5,-2.9,230,7,,10.0,29.778543,,,TRUE,TRUE,,,,,,,CLR,,,,,,,,VFR,,,,,,,,,,,,METAR,363.0
KCMR 311935Z AUTO 27011KT 7SM CLR 16/M06 A3013 RMK AO2,KCMR,2022-10-31T19:35:00Z,35.3,-112.2,16.0,-6.0,270,11,,7.0,30.129921,,,TRUE,TRUE,,,,,,,CLR,,,,,,,,VFR,,,,,,,,,,,,METAR,2039.0
KCMD 311935Z AUTO VRB06KT 10SM FEW022 OVC050 19/14 A3000 RMK AO2,KCMD,2022-10-31T19:35:00Z,34.27,-86.85,19.0,14.0,0,6,,10.0,30.0,,,TRUE,TRUE,,,,,,,FEW,2200,OVC,5000,,,,,VFR,,,,,,,,,,,,METAR,294.0
KCLW 311935Z AUTO 30004KT 10SM CLR 28/20 A2996 RMK AO2,KCLW,2022-10-31T19:35:00Z,27.98,-82.75,28.0,20.0,300,4,,10.0,29.958662,,,TRUE,TRUE,,,,,,,CLR,,,,,,,,VFR,,,,,,,,,,,,SPECI,21.0
KCLS 311935Z AUTO 21005KT 10SM FEW036 SCT043 SCT050 12/09 A2989 RMK AO2,KCLS,2022-10-31T19:35:00Z,46.68,-122.98,12.0,9.0,210,5,,10.0,29.890747,,,TRUE,TRUE,,,,,,,FEW,3600,SCT,4300,SCT,5000,,,VFR,,,,,,,,,,,,METAR,52.0
KCLK 311935Z AUTO 20003KT 10SM CLR 22/03 A3001 RMK AO2,KCLK,2022-10-31T19:35:00Z,35.53,-98.93,22.0,3.0,200,3,,10.0,30.008858,,,TRUE,TRUE,,,,,,,CLR,,,,,,,,VFR,,,,,,,,,,,,METAR,489.0
KCLI 311935Z AUTO 22003KT 10SM CLR 18/05 A2980 RMK AO2 T01840052,KCLI,2022-10-31T19:35:00Z,44.62,-88.73,18.4,5.2,220,3,,10.0,29.799213,,,TRUE,TRUE,,,,,,,CLR,,,,,,,,VFR,,,,,,,,,,,,METAR,248.0
KCKZ 311935Z AUTO 19005KT 10SM OVC023 17/13 A3001 RMK AO2,KCKZ,2022-10-31T19:35:00Z,40.38,-75.28,17.0,13.0,190,5,,10.0,30.008858,,,TRUE,TRUE,,,,,,,OVC,2300,,,,,,,MVFR,,,,,,,,,,,,METAR,160.0
KCKP 311935Z AUTO 22008KT 10SM CLR 20/M01 A2986 RMK AO2 T01951009,KCKP,2022-10-31T19:35:00Z,42.73,-95.55,19.5,-0.9,220,8,,10.0,29.861221,,,TRUE,TRUE,,,,,,,CLR,,,,,,,,VFR,,,,,,,,,,,,METAR,369.0
KCKN 311935Z 20011KT 10SM 18/M01 A2969 RMK AO2,KCKN,2022-10-31T19:35:00Z,47.85,-96.62,18.0,-1.0,200,11,,10.0,29.68996,,,,TRUE,,,,,,,,,,,,,,,,,,,,,,,,,,,METAR,272.0
KCKM 311935Z AUTO 25006KT 10SM FEW037 21/15 A2997 RMK A01,KCKM,2022-10-31T19:35:00Z,34.3,-90.52,21.0,15.0,250,6,,10.0,29.970472,,,TRUE,TRUE,,,,,,,FEW,3700,,,,,,,VFR,,,,,,,,,,,,METAR,52.0
KCKI 311935Z AUTO 19005KT 10SM SCT035 SCT046 BKN075 25/19 A2998 RMK AO2,KCKI,2022-10-31T19:35:00Z,33.72,-79.85,25.0,19.0,190,5,,10.0,29.97933,,,TRUE,TRUE,,,,,,,SCT,3500,SCT,4600,BKN,7500,,,VFR,,,,,,,,,,,,SPECI,19.0
KCKF 311935Z AUTO 25004KT 10SM BKN032 BKN044 BKN060 27/18 A2997 RMK AO2 T02650179,KCKF,2022-10-31T19:35:00Z,31.98,-83.77,26.5,17.9,250,4,,10.0,29.970472,,,TRUE,TRUE,,,,,,,BKN,3200,BKN,4400,BKN,6000,,,VFR,,,,,,,,,,,,METAR,92.0
KCJR 311935Z AUTO 21005KT 10SM DZ SCT028 BKN055 OVC110 16/14 A3002 RMK AO2 P0002 T01610140,KCJR,2022-10-31T19:35:00Z,38.53,-77.87,16.1,14.0,210,5,,10.0,30.02067,,,TRUE,TRUE,,,,,,DZ,SCT,2800,BKN,5500,OVC,11000,,,VFR,,,,,,0.02,,,,,,METAR,90.0
KCIR 311935Z AUTO 27005KT 10SM BKN024 BKN033 OVC039 18/14 A2991 RMK AO2 T01810135,KCIR,2022-10-31T19:35:00Z,37.07,-89.22,18.1,13.5,270,5,,10.0,29.911417,,,TRUE,TRUE,,,,,,,BKN,2400,BKN,3300,OVC,3900,,,MVFR,,,,,,,,,,,,METAR,96.0
KCIN 311935Z AUTO 31007KT 10SM CLR 19/01 A2987 RMK AO2,KCIN,2022-10-31T19:35:00Z,42.03,-94.78,19.0,1.0,310,7,,10.0,29.870079,,,TRUE,TRUE,,,,,,,CLR,,,,,,,,VFR,,,,,,,,,,,,METAR,365.0
KCGS 311935Z AUTO 19003KT 10SM BKN024 BKN030 OVC042 19/14 A3000 RMK AO2 T01890135,KCGS,2022-10-31T19:35:00Z,38.98,-76.92,18.9,13.5,190,3,,10.0,30.0,,,TRUE,TRUE,,,,,,,BKN,2400,BKN,3000,OVC,4200,,,MVFR,,,,,,,,,,,,SPECI,15.0
KCGE 311935Z AUTO 20008KT 170V230 10SM FEW027 SCT070 20/14 A3002 RMK A01,KCGE,2022-10-31T19:35:00Z,38.53,-76.03,20.0,14.0,200,8,,10.0,30.02067,,,TRUE,TRUE,,,,,,,FEW,2700,SCT,7000,,,,,VFR,,,,,,,,,,,,METAR,5.0
KCGC 311935Z AUTO 29008KT 10SM CLR 28/20 A2996 RMK AO2,KCGC,2022-10-31T19:35:00Z,28.87,-82.57,28.0,20.0,290,8,,10.0,29.958662,,,TRUE,TRUE,,,,,,,CLR,,,,,,,,VFR,,,,,,,,,,,,SPECI,3.0
KCFS 311935Z AUTO 00000KT 10SM SCT007 BKN016 OVC032 15/13 A2979 RMK AO2 T01500126,KCFS,2022-10-31T19:35:00Z,43.47,-83.45,15.0,12.6,0,0,,10.0,29.790354,,,TRUE,TRUE,,,,,,,SCT,700,BKN,1600,OVC,3200,,,MVFR,,,,,,,,,,,,METAR,214.0
KCFJ 311935Z AUTO 23011KT 10SM OVC014 14/09 A2984 RMK AO2 T01380090,KCFJ,2022-10-31T19:35:00Z,39.98,-86.92,13.8,9.0,230,11,,10.0,29.840551,,,TRUE,TRUE,,,,,,,OVC,1400,,,,,,,MVFR,,,,,,,,,,,,METAR,243.0
KCFE 311935Z AUTO 23009KT 10SM CLR 18/M02 A2981 RMK AO2 LTG DSNT S,KCFE,2022-10-31T19:35:00Z,45.17,-93.85,18.0,-2.0,230,9,,10.0,29.811024,,,TRUE,TRUE,,,,,,,CLR,,,,,,,,VFR,,,,,,,,,,,,METAR,292.0
KCFD 311935Z AUTO 14004KT 7SM CLR 24/12 A3003 RMK AO2 T02380116,KCFD,2022-10-31T19:35:00Z,30.72,-96.33,23.8,11.6,140,4,,7.0,30.029528,,,TRUE,TRUE,,,,,,,CLR,,,,,,,,VFR,,,,,,,,,,,,METAR,106.0
KCEY 311935Z AUTO 22016KT 10SM OVC041 17/14 A2993 RMK A01,KCEY,2022-10-31T19:35:00Z,36.67,-88.37,17.0,14.0,220,16,,10.0,29.929134,,,TRUE,TRUE,,,,,,,OVC,4100,,,,,,,VFR,,,,,,,,,,,,SPECI,172.0
KCDN 311935Z AUTO 21008G14KT 10SM SCT027 SCT041 BKN090 26/19 A2998 RMK AO2,KCDN,2022-10-31T19:35:00Z,34.28,-80.57,26.0,19.0,210,8,14,10.0,29.97933,,,TRUE,TRUE,,,,,,,SCT,2700,SCT,4100,BKN,9000,,,VFR,,,,,,,,,,,,METAR,90.0
KCDI 311935Z AUTO 17005KT 10SM SCT023 BKN029 OVC075 20/15 A2988 RMK AO2 T01960153,KCDI,2022-10-31T19:35:00Z,39.97,-81.58,19.6,15.3,170,5,,10.0,29.878937,,,TRUE,TRUE,,,,,,,SCT,2300,BKN,2900,OVC,7500,,,MVFR,,,,,,,,,,,,METAR,241.0
KCDH 311935Z AUTO 24004KT 10SM CLR 24/15 A2998 RMK AO2,KCDH,2022-10-31T19:35:00Z,33.62,-92.77,24.0,15.0,240,4,,10.0,29.97933,,,TRUE,TRUE,,,,,,,CLR,,,,,,,,VFR,,,,,,,,,,,,SPECI,38.0
KCDA 311935Z AUTO 00000KT 10SM 14/01 A2994 RMK AO2 T01430008,KCDA,2022-10-31T19:35:00Z,44.57,-72.02,14.3,0.8,0,0,,10.0,29.940945,,,TRUE,TRUE,,,,,,,,,,,,,,,,,,,,,,,,,,,METAR,357.0
KCCY 311935Z AUTO 27009KT 10SM CLR 17/02 A2985 RMK AO2,KCCY,2022-10-31T19:35:00Z,43.07,-92.62,17.0,2.0,270,9,,10.0,29.84941,,,TRUE,TRUE,,,,,,,CLR,,,,,,,,VFR,,,,,,,,,,,,METAR,340.0
KCCU 311935Z AUTO 29010KT 10SM CLR 03/M12 A3026 RMK AO2,KCCU,2022-10-31T19:35:00Z,39.48,-106.15,3.0,-12.0,290,10,,10.0,30.259842,,,TRUE,TRUE,,,,,,,CLR,,,,,,,,VFR,,,,,,,,,,,,METAR,3672.0
KCCO 311935Z AUTO 30004KT 10SM BKN039 22/12 A2998 RMK AO2 T02180116,KCCO,2022-10-31T19:35:00Z,33.32,-84.77,21.8,11.6,300,4,,10.0,29.97933,,,TRUE,TRUE,,,,,,,BKN,3900,,,,,,,VFR,,,,,,,,,,,,SPECI,290.0
KCCA 311935Z AUTO 23007KT 200V270 10SM CLR 23/10 A2994 RMK AO2,KCCA,2022-10-31T19:35:00Z,35.6,-92.45,23.0,10.0,230,7,,10.0,29.940945,,,TRUE,TRUE,,,,,,,CLR,,,,,,,,VFR,,,,,,,,,,,,SPECI,152.0
KCBK 311935Z AUTO 24008KT 220V280 10SM CLR 22/M04 A2994 RMK AO2 T02171045,KCBK,2022-10-31T19:35:00Z,39.43,-101.05,21.7,-4.5,240,8,,10.0,29.940945,,,TRUE,TRUE,,,,,,,CLR,,,,,,,,VFR,,,,,,,,,,,,METAR,970.0
KCBG 311935Z AUTO 00000KT 10SM CLR 18/04 A2981 RMK AO2,KCBG,2022-10-31T19:35:00Z,45.57,-93.27,18.0,4.0,0,0,,10.0,29.811024,,,TRUE,TRUE,,,,,,,CLR,,,,,,,,VFR,,,,,,,,,,,,METAR,285.0
KCBE 311935Z AUTO 20004KT 10SM OVC100 13/10 A3001 RMK AO2 T01350101,KCBE,2022-10-31T19:35:00Z,39.62,-78.77,13.5,10.1,200,4,,10.0,30.008858,,,TRUE,TRUE,,,,,,,OVC,10000,,,,,,,VFR,,,,,,,,,,,,METAR,226.0
KCAV 311935Z AUTO 27008KT 10SM CLR 18/01 A2986 RMK A01,KCAV,2022-10-31T19:35:00Z,42.75,-93.77,18.0,1.0,270,8,,10.0,29.861221,,,TRUE,TRUE,,,,,,,CLR,,,,,,,,VFR,,,,,,,,,,,,METAR,352.0
KCAK 311935Z 21010KT 10SM SCT024 BKN041 OVC060 18/13 A2987 RMK AO2 T01830133,KCAK,2022-10-31T19:35:00Z,40.92,-81.45,18.3,13.3,210,10,,10.0,29.870079,,,,TRUE,,,,,,,SCT,2400,BKN,4100,OVC,6000,,,VFR,,,,,,,,,,,,METAR,369.0
KCAD 311935Z AUTO 24004KT 10SM CLR 19/06 A2978 RMK AO2 T01850058,KCAD,2022-10-31T19:35:00Z,44.27,-85.42,18.5,5.8,240,4,,10.0,29.778543,,,TRUE,TRUE,,,,,,,CLR,,,,,,,,VFR,,,,,,,,,,,,METAR,397.0
KC99 311935Z AUTO 31012G21KT 10SM CLR 02/M11 A3018 RMK AO2,KC99,2022-10-31T19:35:00Z,39.87,-105.55,2.0,-11.0,310,12,21,10.0,30.180119,,,TRUE,TRUE,,,,,,,CLR,,,,,,,,VFR,,,,,,,,,,,,METAR,3334.0
KC75 311935Z AUTO 29005KT 7SM SCT015 15/13 A2984 RMK AO2 T01470132,KC75,2022-10-31T19:35:00Z,41.02,-89.38,14.7,13.2,290,5,,7.0,29.840551,,,TRUE,TRUE,,,,,,,SCT,1500,,,,,,,VFR,,,,,,,,,,,,METAR,166.0
KC65 311935Z AUTO 18004KT 6SM BR BKN021 OVC028 15/14 A2978 RMK A01,KC65,2022-10-31T19:35:00Z,41.37,-86.3,15.0,14.0,180,4,,6.0,29.778543,,,TRUE,TRUE,,,,,,BR,BKN,2100,OVC,2800,,,,,MVFR,,,,,,,,,,,,METAR,241.0
KC35 311935Z AUTO 30004KT 10SM CLR 18/04 A2980 RMK AO2 T01830042 PWINO,KC35,2022-10-31T19:35:00Z,43.53,-89.98,18.3,4.2,300,4,,10.0,29.799213,,,TRUE,TRUE,,,,,TRUE,,CLR,,,,,,,,VFR,,,,,,,,,,,,METAR,272.0
KC29 311935Z AUTO 31005KT 10SM CLR 19/03 A2982 RMK AO1 T01850030,KC29,2022-10-31T19:35:00Z,43.12,-89.53,18.5,3.0,310,5,,10.0,29.819881,,,TRUE,TRUE,,,,,,,CLR,,,,,,,,VFR,,,,,,,,,,,,METAR,282.0
KC09 311935Z AUTO 31004KT 7SM OVC005 13/13 A2981 RMK AO2 T01340134,KC09,2022-10-31T19:35:00Z,41.43,-88.42,13.4,13.4,310,4,,7.0,29.811024,,,TRUE,TRUE,,,,,,,OVC,500,,,,,,,IFR,,,,,,,,,,,,METAR,179.0
KC07 311935Z AUTO 28008KT 250V310 10SM CLR 00/M05 A3021 RMK AO2,KC07,2022-10-31T19:35:00Z,40.35,-106.7,0.0,-5.0,280,8,,10.0,30.209646,,,TRUE,TRUE,,,,,,,CLR,,,,,,,,VFR,,,,,,,,,,,,METAR,3224.0
KBYY 311935Z AUTO 09007KT 10SM CLR 26/11 A2998 RMK AO2 T02580120,KBYY,2022-10-31T19:35:00Z,28.97,-95.87,25.8,12.0,90,7,,10.0,29.97933,,,TRUE,TRUE,,,,,,,CLR,,,,,,,,VFR,,,,,,,,,,,,METAR,12.0
KBYL 311935Z AUTO 25006KT 10SM FEW033 SCT041 BKN060 18/12 A2995 RMK AO1,KBYL,2022-10-31T19:35:00Z,36.8,-84.2,18.0,12.0,250,6,,10.0,29.949802,,,TRUE,TRUE,,,,,,,FEW,3300,SCT,4100,BKN,6000,,,VFR,,,,,,,,,,,,METAR,355.0
KBXK 311935Z AUTO 12009KT 10SM CLR 25/M01 A2992 RMK A01,KBXK,2022-10-31T19:35:00Z,33.42,-112.68,25.0,-1.0,120,9,,10.0,29.920275,,,TRUE,TRUE,,,,,,,CLR,,,,,,,,VFR,,,,,,,,,,,,METAR,303.0
KBXA 311935Z AUTO 27006KT 10SM SCT049 26/11 A3000 RMK AO2 T02560111,KBXA,2022-10-31T19:35:00Z,30.82,-89.87,25.6,11.1,270,6,,10.0,30.0,,,TRUE,TRUE,,,,,,,SCT,4900,,,,,,,VFR,,,,,,,,,,,,METAR,35.0
KBWW 311935Z AUTO 27014G20KT 10SM CLR 17/M03 A2977 RMK AO2,KBWW,2022-10-31T19:35:00Z,46.17,-103.3,17.0,-3.0,270,14,20,10.0,29.769686,,,TRUE,TRUE,,,,,,,CLR,,,,,,,,VFR,,,,,,,,,,,,METAR,911.0
KBWP 311935Z AUTO 25011KT 10SM CLR 20/M03 A2973 RMK AO2,KBWP,2022-10-31T19:35:00Z,46.25,-96.62,20.0,-3.0,250,11,,10.0,29.731298,,,TRUE,TRUE,,,,,,,CLR,,,,,,,,VFR,,,,,,,,,,,,METAR,294.0
KBVU 311935Z AUTO 00000KT 10SM CLR 22/M06 A2999 RMK AO2,KBVU,2022-10-31T19:35:00Z,35.95,-114.87,22.0,-6.0,0,0,,10.0,29.991142,,,TRUE,TRUE,,,,,,,CLR,,,,,,,,VFR,,,,,,,,,,,,METAR,654.0
KBVS 311935Z AUTO 26007KT 210V300 10SM OVC095 11/07 A2983 RMK A01,KBVS,2022-10-31T19:35:00Z,48.47,-122.42,11.0,7.0,260,7,,10.0,29.828741,,,TRUE,TRUE,,,,,,,OVC,9500,,,,,,,VFR,,,,,,,,,,,,METAR,31.0
KBVN 311935Z AUTO 20013G16KT 10SM CLR 21/M01 A2985 RMK AO2 T02131015,KBVN,2022-10-31T19:35:00Z,41.73,-98.05,21.3,-1.5,200,13,16,10.0,29.84941,,,TRUE,TRUE,,,,,,,CLR,,,,,,,,VFR,,,,,,,,,,,,METAR,547.0
KBVI 311935Z AUTO 21004KT 10SM OVC010 18/15 A2990 RMK AO2 T01750145,KBVI,2022-10-31T19:35:00Z,40.77,-80.37,17.5,14.5,210,4,,10.0,29.899607,,,TRUE,TRUE,,,,,,,OVC,1000,,,,,,,MVFR,,,,,,,,,,,,METAR,387.0
KBUU 311935Z AUTO 00000KT 10SM SCT030 17/10 A2981 RMK AO2 T01660104 PWINO,KBUU,2022-10-31T19:35:00Z,42.68,-88.3,16.6,10.4,0,0,,10.0,29.811024,,,TRUE,TRUE,,,,,TRUE,,SCT,3000,,,,,,,VFR,,,,,,,,,,,,METAR,238.0
KBTN 311935Z AUTO 21011KT 8SM CLR 18/M03 A2974 RMK AO2,KBTN,2022-10-31T19:35:00Z,45.82,-97.75,18.0,-3.0,210,11,,8.0,29.740158,,,TRUE,TRUE,,,,,,,CLR,,,,,,,,VFR,,,,,,,,,,,,METAR,400.0
KBTA 311935Z AUTO 21007KT 10SM CLR 20/00 A2990 RMK AO2 T01950002,KBTA,2022-10-31T19:35:00Z,41.42,-96.12,19.5,0.2,210,7,,10.0,29.899607,,,TRUE,TRUE,,,,,,,CLR,,,,,,,,VFR,,,,,,,,,,,,METAR,400.0
KBRY 311935Z AUTO 22005KT 10SM BKN028 BKN037 OVC070 18/13 A2988 RMK AO2 RAE1856 CIG 026V032 P0000 T01840132,KBRY,2022-10-31T19:35:00Z,37.82,-85.5,18.4,13.2,220,5,,10.0,29.878937,,,TRUE,TRUE,,,,,,,BKN,2800,BKN,3700,OVC,7000,,,MVFR,,,,,,0.005,,,,,,METAR,192.0
KBRG 311935Z AUTO 00000KT 10SM CLR 17/M06 A3009 RMK AO2 T01651064,KBRG,2022-10-31T19:35:00Z,34.65,-106.83,16.5,-6.4,0,0,,10.0,30.088583,,,TRUE,TRUE,,,,,,,CLR,,,,,,,,VFR,,,,,,,,,,,,METAR,1585.0
KBQX 311935Z AUTO 08007G13KT 030V100 10SM CLR 23/16 A3000 RMK A01,KBQX,2022-10-31T19:35:00Z,28.5,-95.72,23.0,16.0,80,7,13,10.0,30.0,,,TRUE,TRUE,,,,,,,CLR,,,,,,,,VFR,,,,,,,,,,,,METAR,34.0
KBQP 311935Z AUTO 28006KT 10SM SCT050 24/11 A3000 RMK AO2 T02410107,KBQP,2022-10-31T19:35:00Z,32.75,-91.88,24.1,10.7,280,6,,10.0,30.0,,,TRUE,TRUE,,,,,,,SCT,5000,,,,,,,VFR,,,,,,,,,,,,METAR,50.0
KBQK 311935Z AUTO 14009KT 10SM CLR 27/19 A2997 RMK AO2 T02740193,KBQK,2022-10-31T19:35:00Z,31.25,-81.47,27.4,19.3,140,9,,10.0,29.970472,,,TRUE,TRUE,,,,,,,CLR,,,,,,,,VFR,,,,,,,,,,,,METAR,7.0
KBPG 311935Z AUTO 21003KT 10SM CLR 21/08 A3004 RMK AO2 T02060076,KBPG,2022-10-31T19:35:00Z,32.22,-101.52,20.6,7.6,210,3,,10.0,30.041338,,,TRUE,TRUE,,,,,,,CLR,,,,,,,,VFR,,,,,,,,,,,,METAR,782.0
KBNW 311935Z AUTO VRB04G10KT 10SM CLR 18/01 A2990 RMK AO2,KBNW,2022-10-31T19:35:00Z,42.03,-93.83,18.0,1.0,0,4,10,10.0,29.899607,,,TRUE,TRUE,,,,,,,CLR,,,,,,,,VFR,,,,,,,,,,,,METAR,350.0
KBNL 311935Z AUTO 19008KT 10SM SCT075 SCT095 28/18 A2996 RMK AO2,KBNL,2022-10-31T19:35:00Z,33.25,-81.38,28.0,18.0,190,8,,10.0,29.958662,,,TRUE,TRUE,,,,,,,SCT,7500,SCT,9500,,,,,VFR,,,,,,,,,,,,SPECI,76.0
KBMT 311935Z AUTO 00000KT 10SM CLR 25/10 A3000 RMK AO2 T02450097,KBMT,2022-10-31T19:35:00Z,30.07,-94.22,24.5,9.7,0,0,,10.0,30.0,,,TRUE,TRUE,,,,,,,CLR,,,,,,,,VFR,,,,,,,,,,,,METAR,8.0
KBKT 311935Z AUTO 18006KT 10SM BKN036 22/14 A3001 RMK AO1 T02150142,KBKT,2022-10-31T19:35:00Z,37.07,-77.95,21.5,14.2,180,6,,10.0,30.008858,,,TRUE,TRUE,,,,,,,BKN,3600,,,,,,,VFR,,,,,,,,,,,,METAR,134.0
KBKS 311935Z AUTO 10007KT 9SM FEW035 OVC060 25/18 A2994 RMK AO2 SLP098 T02480180 $,KBKS,2022-10-31T19:35:00Z,27.2,-98.12,24.8,18.0,100,7,,9.0,29.940945,1009.8,,TRUE,TRUE,TRUE,,,,,,FEW,3500,OVC,6000,,,,,VFR,,,,,,,,,,,,METAR,34.0
KBKD 311935Z AUTO 00000KT 7SM CLR 24/06 A3002 RMK AO2 T02400062,KBKD,2022-10-31T19:35:00Z,32.72,-98.88,24.0,6.2,0,0,,7.0,30.02067,,,TRUE,TRUE,,,,,,,CLR,,,,,,,,VFR,,,,,,,,,,,,METAR,383.0
KBJI 311935Z AUTO 23007KT 10SM CLR 16/M01 A2971 RMK AO2 T01621007,KBJI,2022-10-31T19:35:00Z,47.5,-94.92,16.2,-0.7,230,7,,10.0,29.71063,,,TRUE,TRUE,,,,,,,CLR,,,,,,,,VFR,,,,,,,,,,,,SPECI,422.0
KBIJ 311935Z AUTO 00000KT 10SM SCT043 BKN050 22/15 A2998 RMK AO2,KBIJ,2022-10-31T19:35:00Z,31.4,-84.9,22.0,15.0,0,0,,10.0,29.97933,,,TRUE,TRUE,,,,,,,SCT,4300,BKN,5000,,,,,VFR,,,,,,,,,,,,SPECI,63.0
KBIE 311935Z AUTO 25006KT 10SM CLR 21/M01 A2992 RMK AO2 T02111009,KBIE,2022-10-31T19:35:00Z,40.28,-96.75,21.1,-0.9,250,6,,10.0,29.920275,,,TRUE,TRUE,,,,,,,CLR,,,,,,,,VFR,,,,,,,,,,,,METAR,398.0
KBHC 311935Z AUTO 21006KT 10SM CLR 28/17 A2996 RMK AO2,KBHC,2022-10-31T19:35:00Z,31.72,-82.4,28.0,17.0,210,6,,10.0,29.958662,,,TRUE,TRUE,,,,,,,CLR,,,,,,,,VFR,,,,,,,,,,,,SPECI,61.0
KBGF 311935Z AUTO 26011KT 10SM BKN050 OVC055 18/13 A2996 RMK A01,KBGF,2022-10-31T19:35:00Z,35.18,-86.07,18.0,13.0,260,11,,10.0,29.958662,,,TRUE,TRUE,,,,,,,BKN,5000,OVC,5500,,,,,VFR,,,,,,,,,,,,METAR,295.0
KBGE 311935Z AUTO 27007KT 10SM SCT031 SCT060 25/16 A2998 RMK AO2 T02530161,KBGE,2022-10-31T19:35:00Z,30.97,-84.63,25.3,16.1,270,7,,10.0,29.97933,,,TRUE,TRUE,,,,,,,SCT,3100,SCT,6000,,,,,VFR,,,,,,,,,,,,METAR,40.0
KBEC 311935Z AUTO 00000KT 10SM CLR 20/M02 A2996 RMK AO2 T01991016,KBEC,2022-10-31T19:35:00Z,37.7,-97.22,19.9,-1.6,0,0,,10.0,29.958662,,,TRUE,TRUE,,,,,,,CLR,,,,,,,,VFR,,,,,,,,,,,,SPECI,421.0
KBEA 311935Z AUTO 06007KT 10SM SCT080 OVC095 26/09 A2996 RMK AO2 T02640085 PWINO,KBEA,2022-10-31T19:35:00Z,28.37,-97.78,26.4,8.5,60,7,,10.0,29.958662,,,TRUE,TRUE,,,,,TRUE,,SCT,8000,OVC,9500,,,,,VFR,,,,,,,,,,,,METAR,83.0
KBDU 311935Z AUTO 00000KT 10SM CLR 19/M08 A2994 RMK AO2,KBDU,2022-10-31T19:35:00Z,40.03,-105.23,19.0,-8.0,0,0,,10.0,29.940945,,,TRUE,TRUE,,,,,,,CLR,,,,,,,,VFR,,,,,,,,,,,,METAR,1614.0
KBDH 311935Z AUTO 20006KT 10SM CLR 19/M02 A2983 RMK AO2,KBDH,2022-10-31T19:35:00Z,45.12,-95.13,19.0,-2.0,200,6,,10.0,29.828741,,,TRUE,TRUE,,,,,,,CLR,,,,,,,,VFR,,,,,,,,,,,,METAR,341.0
KBDG 311935Z AUTO 19007KT 150V230 10SM 13/M05 A3019 RMK AO1 T01261053,KBDG,2022-10-31T19:35:00Z,37.58,-109.47,12.6,-5.3,190,7,,10.0,30.188976,,,TRUE,TRUE,,,,,,,,,,,,,,,,,,,,,,,,,,,METAR,1778.0
KBCK 311935Z AUTO 33005KT 10SM CLR 19/04 A2981 RMK AO2 T01870042,KBCK,2022-10-31T19:35:00Z,44.25,-90.85,18.7,4.2,330,5,,10.0,29.811024,,,TRUE,TRUE,,,,,,,CLR,,,,,,,,VFR,,,,,,,,,,,,METAR,256.0
KBCB 311935Z AUTO 00000KT 4SM -RA BKN002 OVC022 13/13 A3004 RMK AO2 T01300130,KBCB,2022-10-31T19:35:00Z,37.22,-80.42,13.0,13.0,0,0,,4.0,30.041338,,,TRUE,TRUE,,,,,,-RA,BKN,200,OVC,2200,,,,,LIFR,,,,,,,,,,,,SPECI,642.0
KBBP 311935Z AUTO 00000KT 10SM SCT026 SCT050 SCT070 26/20 A2998 RMK AO2,KBBP,2022-10-31T19:35:00Z,34.62,-79.73,26.0,20.0,0,0,,10.0,29.97933,,,TRUE,TRUE,,,,,,,SCT,2600,SCT,5000,SCT,7000,,,VFR,,,,,,,,,,,,METAR,44.0
KBBD 311935Z AUTO 20007KT 090V220 10SM CLR 23/06 A3002 RMK AO2,KBBD,2022-10-31T19:35:00Z,31.18,-99.32,23.0,6.0,200,7,,10.0,30.02067,,,TRUE,TRUE,,,,,,,CLR,,,,,,,,VFR,,,,,,,,,,,,METAR,554.0
KBBB 311935Z AUTO 21007KT 10SM CLR 19/M02 A2979 RMK AO2,KBBB,2022-10-31T19:35:00Z,45.32,-95.65,19.0,-2.0,210,7,,10.0,29.790354,,,TRUE,TRUE,,,,,,,CLR,,,,,,,,VFR,,,,,,,,,,,,METAR,315.0
KBAX 311935Z AUTO 00000KT 10SM BKN011 OVC033 15/15 A2980 RMK AO2 T01480148,KBAX,2022-10-31T19:35:00Z,43.78,-82.98,14.8,14.8,0,0,,10.0,29.799213,,,TRUE,TRUE,,,,,,,BKN,1100,OVC,3300,,,,,MVFR,,,,,,,,,,,,METAR,229.0
KBAM 311935Z AUTO 06005KT 10SM CLR 16/M03 A3005 RMK AO1,KBAM,2022-10-31T19:35:00Z,40.6,-116.87,16.0,-3.0,60,5,,10.0,30.050198,,,TRUE,TRUE,,,,,,,CLR,,,,,,,,VFR,,,,,,,,,,,,METAR,1381.0
KBAC 311935Z AUTO 27010KT 10SM CLR 18/01 A2972 RMK AO2,KBAC,2022-10-31T19:35:00Z,46.93,-98.02,18.0,1.0,270,10,,10.0,29.719488,,,TRUE,TRUE,,,,,,,CLR,,,,,,,,VFR,,,,,,,,,,,,METAR,423.0
KAZE 311935Z AUTO 23005KT 10SM SCT034 SCT050 28/19 A2996 RMK AO2 T02780191,KAZE,2022-10-31T19:35:00Z,31.88,-82.65,27.8,19.1,230,5,,10.0,29.958662,,,TRUE,TRUE,,,,,,,SCT,3400,SCT,5000,,,,,VFR,,,,,,,,,,,,SPECI,78.0
KAZC 311935Z AUTO 15008KT 100V170 10SM CLR 19/M06 A3011 RMK AO2,KAZC,2022-10-31T19:35:00Z,36.97,-113.02,19.0,-6.0,150,8,,10.0,30.109253,,,TRUE,TRUE,,,,,,,CLR,,,,,,,,VFR,,,,,,,,,,,,METAR,1476.0
KAYS 311935Z AUTO 25005KT 10SM SCT045 SCT050 SCT055 30/19 A2996 RMK AO2 T03000185,KAYS,2022-10-31T19:35:00Z,31.25,-82.4,30.0,18.5,250,5,,10.0,29.958662,,,TRUE,TRUE,,,,,,,SCT,4500,SCT,5000,SCT,5500,,,VFR,,,,,,,,,,,,METAR,42.0
KAXX 311935Z AUTO 27012G15KT 10SM CLR 11/M07 A3013 RMK AO2 T01121074,KAXX,2022-10-31T19:35:00Z,36.42,-105.28,11.2,-7.4,270,12,15,10.0,30.129921,,,TRUE,TRUE,,,,,,,CLR,,,,,,,,VFR,,,,,,,,,,,,SPECI,2543.0
KAXV 311935Z AUTO 21012G17KT 10SM BKN023 BKN039 OVC045 17/12 A2984 RMK AO2,KAXV,2022-10-31T19:35:00Z,40.5,-84.3,17.0,12.0,210,12,17,10.0,29.840551,,,TRUE,TRUE,,,,,,,BKN,2300,BKN,3900,OVC,4500,,,MVFR,,,,,,,,,,,,METAR,278.0
KAXS 311935Z AUTO 21005KT 10SM CLR 22/10 A3003 RMK AO2 T02210095,KAXS,2022-10-31T19:35:00Z,34.7,-99.33,22.1,9.5,210,5,,10.0,30.029528,,,TRUE,TRUE,,,,,,,CLR,,,,,,,,VFR,,,,,,,,,,,,METAR,433.0
KAXH 311935Z AUTO 00000KT 5SM HZ CLR 25/11 A3000 RMK AO2 T02540110,KAXH,2022-10-31T19:35:00Z,29.52,-95.48,25.4,11.0,0,0,,5.0,30.0,,,TRUE,TRUE,,,,,,HZ,CLR,,,,,,,,MVFR,,,,,,,,,,,,METAR,18.0
KAXA 311935Z AUTO 27009KT 7SM CLR 19/M01 A2984 RMK A01,KAXA,2022-10-31T19:35:00Z,43.07,-94.27,19.0,-1.0,270,9,,7.0,29.840551,,,TRUE,TRUE,,,,,,,CLR,,,,,,,,VFR,,,,,,,,,,,,METAR,371.0
KAWG 311935Z AUTO 27009KT 6SM HZ CLR 20/05 A2985 RMK AO2,KAWG,2022-10-31T19:35:00Z,41.27,-91.67,20.0,5.0,270,9,,6.0,29.84941,,,TRUE,TRUE,,,,,,HZ,CLR,,,,,,,,VFR,,,,,,,,,,,,METAR,229.0
KAVQ 311935Z AUTO 00000KT 10SM CLR 25/M06 A2993 RMK AO2 T02521056,KAVQ,2022-10-31T19:35:00Z,32.4,-111.22,25.2,-5.6,0,0,,10.0,29.929134,,,TRUE,TRUE,,,,,,,CLR,,,,,,,,VFR,,,,,,,,,,,,METAR,618.0
KAVK 311935Z AUTO 18008KT 10SM CLR 23/M01 A2997 RMK AO2 PWINO,KAVK,2022-10-31T19:35:00Z,36.77,-98.67,23.0,-1.0,180,8,,10.0,29.970472,,,TRUE,TRUE,,,,,TRUE,,CLR,,,,,,,,VFR,,,,,,,,,,,,METAR,450.0
KAVC 311935Z AUTO 17005KT 10SM SCT050 22/16 A3007 RMK AO2 T02180156,KAVC,2022-10-31T19:35:00Z,36.68,-78.05,21.8,15.6,170,5,,10.0,30.070866,,,TRUE,TRUE,,,,,,,SCT,5000,,,,,,,VFR,,,,,,,,,,,,METAR,119.0
KAUN 311935Z AUTO 25006KT 9SM CLR 18/02 A2996 RMK A01,KAUN,2022-10-31T19:35:00Z,38.95,-121.08,18.0,2.0,250,6,,9.0,29.958662,,,TRUE,TRUE,,,,,,,CLR,,,,,,,,VFR,,,,,,,,,,,,METAR,453.0
KAUM 311935Z AUTO 00000KT 10SM CLR 18/03 A2984 RMK AO2,KAUM,2022-10-31T19:35:00Z,43.67,-92.92,18.0,3.0,0,0,,10.0,29.840551,,,TRUE,TRUE,,,,,,,CLR,,,,,,,,VFR,,,,,,,,,,,,METAR,376.0
KAUH 311935Z AUTO 21012KT 10SM CLR 21/M01 A2989 RMK AO2 T02121015,KAUH,2022-10-31T19:35:00Z,40.88,-98.0,21.2,-1.5,210,12,,10.0,29.890747,,,TRUE,TRUE,,,,,,,CLR,,,,,,,,VFR,,,,,,,,,,,,METAR,549.0
KATS 311935Z AUTO 15007KT 10SM CLR 19/07 A3004 RMK AO2,KATS,2022-10-31T19:35:00Z,32.85,-104.47,19.0,7.0,150,7,,10.0,30.041338,,,TRUE,TRUE,,,,,,,CLR,,,,,,,,VFR,,,,,,,,,,,,METAR,1073.0
KATP 311935Z AUTO 02008KT 10SM CLR 24/17 A3000 RMK A01,KATP,2022-10-31T19:35:00Z,27.2,-90.03,24.0,17.0,20,8,,10.0,30.0,,,TRUE,TRUE,,,,,,,CLR,,,,,,,,VFR,,,,,,,,,,,,METAR,50.0
KATA 311935Z AUTO 33005KT 10SM CLR 24/10 A2999 RMK AO2 SLP055 T02400097 $,KATA,2022-10-31T19:35:00Z,33.1,-94.2,24.0,9.7,330,5,,10.0,29.991142,1005.5,,TRUE,TRUE,TRUE,,,,,,CLR,,,,,,,,VFR,,,,,,,,,,,,METAR,85.0
KASW 311935Z AUTO 22005KT 7SM -RA SCT017 BKN036 OVC055 15/13 A2980 RMK AO2 T01550137,KASW,2022-10-31T19:35:00Z,41.27,-85.83,15.5,13.7,220,5,,7.0,29.799213,,,TRUE,TRUE,,,,,,-RA,SCT,1700,BKN,3600,OVC,5500,,,VFR,,,,,,,,,,,,METAR,253.0
KASN 311935Z AUTO 25007KT 10SM OVC047 20/13 A3000 RMK AO2 T02000133,KASN,2022-10-31T19:35:00Z,33.57,-86.05,20.0,13.3,250,7,,10.0,30.0,,,TRUE,TRUE,,,,,,,OVC,4700,,,,,,,VFR,,,,,,,,,,,,METAR,159.0
KASL 311935Z AUTO VRB04KT 10SM CLR 24/08 A2998 RMK AO2 T02450078 TSNO $,KASL,2022-10-31T19:35:00Z,32.52,-94.3,24.5,7.8,0,4,,10.0,29.97933,,,TRUE,TRUE,TRUE,,TRUE,,,,CLR,,,,,,,,VFR,,,,,,,,,,,,METAR,104.0
KASJ 311935Z AUTO 15003KT 10SM -RA BKN050 BKN070 BKN090 22/15 A3003 RMK AO2 T02200148,KASJ,2022-10-31T19:35:00Z,36.28,-77.17,22.0,14.8,150,3,,10.0,30.029528,,,TRUE,TRUE,,,,,,-RA,BKN,5000,BKN,7000,BKN,9000,,,VFR,,,,,,,,,,,,METAR,20.0
KARW 311935Z AUTO 19007KT 10SM CLR 26/19 A2998 RMK AO2,KARW,2022-10-31T19:35:00Z,32.42,-80.63,26.0,19.0,190,7,,10.0,29.97933,,,TRUE,TRUE,,,,,,,CLR,,,,,,,,VFR,,,,,,,,,,,,SPECI,2.0
KARV 311935Z AUTO 25004KT 10SM CLR 16/M03 A2979 RMK AO2 T01611028,KARV,2022-10-31T19:35:00Z,45.92,-89.72,16.1,-2.8,250,4,,10.0,29.790354,,,TRUE,TRUE,,,,,,,CLR,,,,,,,,VFR,,,,,,,,,,,,METAR,494.0
KARM 311935Z AUTO 08005KT 10SM CLR 25/10 A3000 RMK AO2 T02540102 TSNO,KARM,2022-10-31T19:35:00Z,29.25,-96.15,25.4,10.2,80,5,,10.0,30.0,,,TRUE,TRUE,,,TRUE,,,,CLR,,,,,,,,VFR,,,,,,,,,,,,METAR,29.0
KAQX 311935Z AUTO 15006KT 10SM FEW043 SCT050 BKN070 28/18 A2995 RMK AO2,KAQX,2022-10-31T19:35:00Z,32.98,-81.27,28.0,18.0,150,6,,10.0,29.949802,,,TRUE,TRUE,,,,,,,FEW,4300,SCT,5000,BKN,7000,,,VFR,,,,,,,,,,,,METAR,48.0
KAQO 311935Z AUTO 35003KT 10SM CLR 24/08 A3001 RMK AO2,KAQO,2022-10-31T19:35:00Z,30.78,-98.67,24.0,8.0,350,3,,10.0,30.008858,,,TRUE,TRUE,,,,,,,CLR,,,,,,,,VFR,,,,,,,,,,,,METAR,334.0
KANW 311935Z AUTO 25008KT 10SM CLR 22/M07 A2983 RMK AO2 T02161075,KANW,2022-10-31T19:35:00Z,42.57,-100.0,21.6,-7.5,250,8,,10.0,29.828741,,,TRUE,TRUE,,,,,,,CLR,,,,,,,,VFR,,,,,,,,,,,,METAR,788.0
KANQ 311935Z AUTO 00000KT 10SM SCT014 BKN065 OVC080 16/15 A2979 RMK AO2,KANQ,2022-10-31T19:35:00Z,41.63,-85.08,16.0,15.0,0,0,,10.0,29.790354,,,TRUE,TRUE,,,,,,,SCT,1400,BKN,6500,OVC,8000,,,VFR,,,,,,,,,,,,METAR,299.0
KAMN 311935Z AUTO 00000KT 5SM BR OVC008 15/13 A2981 RMK AO2 T01490126,KAMN,2022-10-31T19:35:00Z,43.32,-84.68,14.9,12.6,0,0,,5.0,29.811024,,,TRUE,TRUE,,,,,,BR,OVC,800,,,,,,,IFR,,,,,,,,,,,,METAR,228.0
KALX 311935Z AUTO 27006KT 10SM SCT035 BKN049 20/12 A3000 RMK AO2 T02000118,KALX,2022-10-31T19:35:00Z,32.92,-85.97,20.0,11.8,270,6,,10.0,30.0,,,TRUE,TRUE,,,,,,,SCT,3500,BKN,4900,,,,,VFR,,,,,,,,,,,,METAR,198.0
KALM 311935Z AUTO 21006KT 10SM CLR 20/M01 A3004 RMK AO2,KALM,2022-10-31T19:35:00Z,32.83,-105.98,20.0,-1.0,210,6,,10.0,30.041338,,,TRUE,TRUE,,,,,,,CLR,,,,,,,,VFR,,,,,,,,,,,,METAR,1267.0
KAJZ 311935Z AUTO 00000KT 10SM CLR 14/M03 A3012 RMK AO2 T01361030,KAJZ,2022-10-31T19:35:00Z,38.78,-108.07,13.6,-3.0,0,0,,10.0,30.121063,,,TRUE,TRUE,,,,,,,CLR,,,,,,,,VFR,,,,,,,,,,,,METAR,1583.0
KAJR 311935Z AUTO 00000KT 5SM BR OVC006 18/18 A2999 RMK AO2 T01760176,KAJR,2022-10-31T19:35:00Z,34.5,-83.55,17.6,17.6,0,0,,5.0,29.991142,,,TRUE,TRUE,,,,,,BR,OVC,600,,,,,,,IFR,,,,,,,,,,,,METAR,441.0
KAJG 311935Z AUTO 27010KT 10SM SCT019 BKN023 OVC095 18/14 A2987 RMK AO2 P0001 T01760137,KAJG,2022-10-31T19:35:00Z,38.62,-87.73,17.6,13.7,270,10,,10.0,29.870079,,,TRUE,TRUE,,,,,,,SCT,1900,BKN,2300,OVC,9500,,,MVFR,,,,,,0.01,,,,,,METAR,130.0
KAIT 311935Z AUTO 21010G14KT 10SM CLR 17/M02 A2976 RMK AO2,KAIT,2022-10-31T19:35:00Z,46.53,-93.67,17.0,-2.0,210,10,14,10.0,29.760826,,,TRUE,TRUE,,,,,,,CLR,,,,,,,,VFR,,,,,,,,,,,,METAR,367.0
KAIO 311935Z AUTO 30006KT 10SM CLR 19/01 A2988 RMK AO2,KAIO,2022-10-31T19:35:00Z,41.4,-95.03,19.0,1.0,300,6,,10.0,29.878937,,,TRUE,TRUE,,,,,,,CLR,,,,,,,,VFR,,,,,,,,,,,,METAR,349.0
KAIK 311935Z AUTO 24009KT 10SM SCT018 BKN028 OVC037 24/20 A2999 RMK AO2 T02370195,KAIK,2022-10-31T19:35:00Z,33.65,-81.68,23.7,19.5,240,9,,10.0,29.991142,,,TRUE,TRUE,,,,,,,SCT,1800,BKN,2800,OVC,3700,,,MVFR,,,,,,,,,,,,SPECI,155.0
KAIG 311935Z AUTO 24004KT 10SM CLR 17/01 A2980 RMK AO2 T01710014,KAIG,2022-10-31T19:35:00Z,45.15,-89.12,17.1,1.4,240,4,,10.0,29.799213,,,TRUE,TRUE,,,,,,,CLR,,,,,,,,VFR,,,,,,,,,,,,METAR,462.0
KAHQ 311935Z AUTO 22006G10KT 10SM CLR 22/M01 A2989 RMK AO2 T02181015,KAHQ,2022-10-31T19:35:00Z,41.23,-96.6,21.8,-1.5,220,6,10,10.0,29.890747,,,TRUE,TRUE,,,,,,,CLR,,,,,,,,VFR,,,,,,,,,,,,METAR,372.0
KAGO 311935Z AUTO VRB04KT 10SM CLR 24/09 A2998 RMK A01,KAGO,2022-10-31T19:35:00Z,33.23,-93.22,24.0,9.0,0,4,,10.0,29.97933,,,TRUE,TRUE,,,,,,,CLR,,,,,,,,VFR,,,,,,,,,,,,METAR,91.0
KAGI 311935Z AUTO 06006KT 10SM CLR 27/14 A3000 RMK AO2 T02650140,KAGI,2022-10-31T19:35:00Z,27.55,-92.45,26.5,14.0,60,6,,10.0,30.0,,,TRUE,TRUE,,,,,,,CLR,,,,,,,,VFR,,,,,,,,,,,,METAR,41.0
KAFP 311935Z AUTO 19005KT 10SM SCT024 SCT031 SCT120 25/18 A2998 RMK AO2 T02510182,KAFP,2022-10-31T19:35:00Z,35.02,-80.08,25.1,18.2,190,5,,10.0,29.97933,,,TRUE,TRUE,,,,,,,SCT,2400,SCT,3100,SCT,12000,,,VFR,,,,,,,,,,,,METAR,91.0
KAFO 311935Z AUTO 00000KT 10SM CLR 10/M02 A3010 RMK AO2,KAFO,2022-10-31T19:35:00Z,42.72,-110.95,10.0,-2.0,0,0,,10.0,30.100393,,,TRUE,TRUE,,,,,,,CLR,,,,,,,,VFR,,,,,,,,,,,,SPECI,1881.0
KAFK 311935Z AUTO 26007KT 10SM CLR 20/00 A2992 RMK AO2 T01991003,KAFK,2022-10-31T19:35:00Z,40.6,-95.85,19.9,-0.3,260,7,,10.0,29.920275,,,TRUE,TRUE,,,,,,,CLR,,,,,,,,VFR,,,,,,,,,,,,METAR,353.0
KAEL 311935Z AUTO 20005KT 10SM CLR 17/02 A2984 RMK AO2,KAEL,2022-10-31T19:35:00Z,43.68,-93.37,17.0,2.0,200,5,,10.0,29.840551,,,TRUE,TRUE,,,,,,,CLR,,,,,,,,VFR,,,,,,,,,,,,METAR,382.0
KAEJ 311935Z AUTO 21003KT 10SM 12/M14 A3009 RMK AO2 T01201140,KAEJ,2022-10-31T19:35:00Z,38.82,-106.12,12.0,-14.0,210,3,,10.0,30.088583,,,TRUE,TRUE,,,,,,,,,,,,,,,,,,,,,,,,,,,METAR,2420.0
KADU 311935Z AUTO 25006KT 10SM SCT031 SCT048 BKN070 19/M03 A2990 RMK AO2 PWINO,KADU,2022-10-31T19:35:00Z,41.7,-94.92,19.0,-3.0,250,6,,10.0,29.899607,,,TRUE,TRUE,,,,,TRUE,,SCT,3100,SCT,4800,BKN,7000,,,VFR,,,,,,,,,,,,METAR,391.0
KADT 311935Z AUTO 19006KT 10SM CLR 22/M06 A2997 RMK AO2 T02171063,KADT,2022-10-31T19:35:00Z,39.83,-101.05,21.7,-6.3,190,6,,10.0,29.970472,,,TRUE,TRUE,,,,,,,CLR,,,,,,,,VFR,,,,,,,,,,,,METAR,899.0
KADH 311935Z AUTO 13004KT 10SM CLR 22/03 A3001 RMK AO2,KADH,2022-10-31T19:35:00Z,34.8,-96.67,22.0,3.0,130,4,,10.0,30.008858,,,TRUE,TRUE,,,,,,,CLR,,,,,,,,VFR,,,,,,,,,,,,METAR,301.0
KADC 311935Z AUTO 23011G16KT 10SM CLR 19/M08 A2975 RMK AO2 TSNO,KADC,2022-10-31T19:35:00Z,46.45,-95.22,19.0,-8.0,230,11,16,10.0,29.749016,,,TRUE,TRUE,,,TRUE,,,,CLR,,,,,,,,VFR,,,,,,,,,,,,METAR,416.0
KACQ 311935Z AUTO 24005KT 10SM CLR 16/01 A2985 RMK AO2,KACQ,2022-10-31T19:35:00Z,44.07,-93.55,16.0,1.0,240,5,,10.0,29.84941,,,TRUE,TRUE,,,,,,,CLR,,,,,,,,VFR,,,,,,,,,,,,METAR,339.0
KACP 311935Z AUTO 00000KT 10SM SCT046 25/11 A3001 RMK AO2,KACP,2022-10-31T19:35:00Z,30.75,-92.68,25.0,11.0,0,0,,10.0,30.008858,,,TRUE,TRUE,,,,,,,SCT,4600,,,,,,,VFR,,,,,,,,,,,,METAR,31.0
KACB 311935Z AUTO 29004KT 10SM CLR 18/06 A2979 RMK AO2 T01770056,KACB,2022-10-31T19:35:00Z,44.98,-85.2,17.7,5.6,290,4,,10.0,29.790354,,,TRUE,TRUE,,,,,,,CLR,,,,,,,,VFR,,,,,,,,,,,,METAR,189.0
KAAS 311935Z AUTO 23011KT 10SM SCT030 SCT036 OVC065 17/12 A2996 RMK AO1,KAAS,2022-10-31T19:35:00Z,37.35,-85.32,17.0,12.0,230,11,,10.0,29.958662,,,TRUE,TRUE,,,,,,,SCT,3000,SCT,3600,OVC,6500,,,VFR,,,,,,,,,,,,METAR,270.0
KAAA 311935Z AUTO 00000KT 3SM BR OVC004 14/14 A2986 RMK AO2 T01390139,KAAA,2022-10-31T19:35:00Z,40.17,-89.33,13.9,13.9,0,0,,3.0,29.861221,,,TRUE,TRUE,,,,,,BR,OVC,400,,,,,,,LIFR,,,,,,,,,,,,METAR,179.0
K9V9 311935Z AUTO 30003KT 10SM CLR 19/M03 A2981 RMK AO2 T01871028,K9V9,2022-10-31T19:35:00Z,43.77,-99.32,18.7,-2.8,300,3,,10.0,29.811024,,,TRUE,TRUE,,,,,,,CLR,,,,,,,,VFR,,,,,,,,,,,,METAR,511.0
K9MN 311935Z AUTO 28003KT 10SM CLR 18/02 A2984 RMK AO1 T01780019,K9MN,2022-10-31T19:35:00Z,44.02,-92.48,17.8,1.9,280,3,,10.0,29.840551,,,TRUE,TRUE,,,,,,,CLR,,,,,,,,VFR,,,,,,,,,,,,METAR,308.0
K9A5 311935Z AUTO 27005KT 10SM SCT048 OVC050 20/10 A2998 RMK AO2 T02020097,K9A5,2022-10-31T19:35:00Z,34.68,-85.28,20.2,9.7,270,5,,10.0,29.97933,,,TRUE,TRUE,,,,,,,SCT,4800,OVC,5000,,,,,VFR,,,,,,,,,,,,METAR,234.0
K96D 311935Z AUTO 27012G22KT 10SM CLR 14/02 A2963 RMK AO2,K96D,2022-10-31T19:35:00Z,48.93,-97.9,14.0,2.0,270,12,22,10.0,29.630905,,,TRUE,TRUE,,,,,,,CLR,,,,,,,,VFR,,,,,,,,,,,,METAR,290.0
K8W2 311935Z AUTO 00000KT 7SM SCT009 SCT030 OVC065 16/15 A2999 RMK AO1 P0004 T01550148,K8W2,2022-10-31T19:35:00Z,38.65,-78.7,15.5,14.8,0,0,,7.0,29.991142,,,TRUE,TRUE,,,,,,,SCT,900,SCT,3000,OVC,6500,,,VFR,,,,,,0.04,,,,,,SPECI,295.0
K8T6 311935Z AUTO 11008G13KT 10SM BKN065 BKN080 OVC100 27/11 A2996 RMK AO2,K8T6,2022-10-31T19:35:00Z,28.37,-98.12,27.0,11.0,110,8,13,10.0,29.958662,,,TRUE,TRUE,,,,,,,BKN,6500,BKN,8000,OVC,10000,,,VFR,,,,,,,,,,,,METAR,39.0
K8A3 311935Z AUTO 23007G14KT 10SM FEW021 FEW028 OVC055 17/12 A2994 RMK A01,K8A3,2022-10-31T19:35:00Z,36.42,-85.32,17.0,12.0,230,7,14,10.0,29.940945,,,TRUE,TRUE,,,,,,,FEW,2100,FEW,2800,OVC,5500,,,VFR,,,,,,,,,,,,METAR,413.0
K8A0 311935Z AUTO 26008KT 10SM BKN050 18/12 A2999 RMK AO2,K8A0,2022-10-31T19:35:00Z,34.23,-86.25,18.0,12.0,260,8,,10.0,29.991142,,,TRUE,TRUE,,,,,,,BKN,5000,,,,,,,VFR,,,,,,,,,,,,SPECI,313.0
K82V 311935Z AUTO 21009G16KT 10SM CLR 18/M10 A2995 RMK AO2,K82V,2022-10-31T19:35:00Z,41.15,-104.13,18.0,-10.0,210,9,16,10.0,29.949802,,,TRUE,TRUE,,,,,,,CLR,,,,,,,,VFR,,,,,,,,,,,,METAR,1563.0
K82C 311935Z AUTO 27003KT 10SM CLR 19/06 A2980 RMK AO2 T01910062,K82C,2022-10-31T19:35:00Z,43.83,-90.13,19.1,6.2,270,3,,10.0,29.799213,,,TRUE,TRUE,,,,,,,CLR,,,,,,,,VFR,,,,,,,,,,,,METAR,273.0
K81R 311935Z AUTO 26003KT 10SM CLR 23/09 A3003 RMK AO2 T02350086,K81R,2022-10-31T19:35:00Z,31.23,-98.72,23.5,8.6,260,3,,10.0,30.029528,,,TRUE,TRUE,,,,,,,CLR,,,,,,,,VFR,,,,,,,,,,,,METAR,381.0
K7W4 311935Z AUTO 21003KT 10SM BKN029 BKN043 OVC090 19/14 A3002 RMK AO1 T01920135,K7W4,2022-10-31T19:35:00Z,37.97,-77.75,19.2,13.5,210,3,,10.0,30.02067,,,TRUE,TRUE,,,,,,,BKN,2900,BKN,4300,OVC,9000,,,MVFR,,,,,,,,,,,,METAR,115.0
K7L2 311935Z AUTO 26006KT 10SM CLR 17/M00 A2977 RMK AO2,K7L2,2022-10-31T19:35:00Z,46.22,-100.25,17.0,0.0,260,6,,10.0,29.769686,,,TRUE,TRUE,,,,,,,CLR,,,,,,,,VFR,,,,,,,,,,,,METAR,541.0
K7BM 311935Z AUTO 00000KT 10SM CLR 10/M12 A3016 RMK AO2,K7BM,2022-10-31T19:35:00Z,38.78,-106.22,10.0,-12.0,0,0,,10.0,30.159449,,,TRUE,TRUE,,,,,,,CLR,,,,,,,,VFR,,,,,,,,,,,,METAR,2996.0
K74V 311935Z AUTO 08004KT 10SM 10/M04 A3014 RMK AO2,K74V,2022-10-31T19:35:00Z,40.28,-110.05,10.0,-4.0,80,4,,10.0,30.138779,,,TRUE,TRUE,,,,,,,,,,,,,,,,,,,,,,,,,,,METAR,1567.0
K6S2 311935Z AUTO 00000KT 3SM UP BR SCT024 13/13 A2997 RMK AO2,K6S2,2022-10-31T19:35:00Z,43.98,-124.12,13.0,13.0,0,0,,3.0,29.970472,,,TRUE,TRUE,,,,,,BR UP,SCT,2400,,,,,,,MVFR,,,,,,,,,,,,METAR,16.0
K6S0 311935Z AUTO 26025G31KT 10SM CLR 17/M01 A2981 RMK A01,K6S0,2022-10-31T19:35:00Z,45.8,-109.97,17.0,-1.0,260,25,31,10.0,29.811024,,,TRUE,TRUE,,,,,,,CLR,,,,,,,,VFR,,,,,,,,,,,,METAR,1364.0
K6P9 311935Z AUTO 04003KT 10SM CLR 23/07 A3002 RMK AO2 T02300070,K6P9,2022-10-31T19:35:00Z,32.43,-98.6,23.0,7.0,40,3,,10.0,30.02067,,,TRUE,TRUE,,,,,,,CLR,,,,,,,,VFR,,,,,,,,,,,,SPECI,451.0
K6L4 311935Z AUTO VRB05KT 10SM FEW013 FEW060 18/17 A2993 RMK AO2,K6L4,2022-10-31T19:35:00Z,37.85,-81.92,18.0,17.0,0,5,,10.0,29.929134,,,TRUE,TRUE,,,,,,,FEW,1300,FEW,6000,,,,,VFR,,,,,,,,,,,,METAR,504.0
K6I2 311935Z AUTO 21008KT 8SM FEW027 BKN036 OVC055 17/13 A2992 RMK AO2,K6I2,2022-10-31T19:35:00Z,37.63,-85.25,17.0,13.0,210,8,,8.0,29.920275,,,TRUE,TRUE,,,,,,,FEW,2700,BKN,3600,OVC,5500,,,VFR,,,,,,,,,,,,SPECI,258.0
K6B9 311935Z AUTO VRB04KT 10SM OVC042 17/08 A2990 RMK AO2,K6B9,2022-10-31T19:35:00Z,42.92,-76.43,17.0,8.0,0,4,,10.0,29.899607,,,TRUE,TRUE,,,,,,,OVC,4200,,,,,,,VFR,,,,,,,,,,,,METAR,306.0
K6B0 311935Z AUTO 17005KT 10SM CLR 15/05 A2993 RMK AO2 T01500053,K6B0,2022-10-31T19:35:00Z,43.98,-73.1,15.0,5.3,170,5,,10.0,29.929134,,,TRUE,TRUE,,,,,,,CLR,,,,,,,,VFR,,,,,,,,,,,,METAR,149.0
K6A2 311935Z AUTO 24008KT 10SM SCT034 SCT040 BKN050 22/13 A2997 RMK AO2,K6A2,2022-10-31T19:35:00Z,33.23,-84.27,22.0,13.0,240,8,,10.0,29.970472,,,TRUE,TRUE,,,,,,,SCT,3400,SCT,4000,BKN,5000,,,VFR,,,,,,,,,,,,METAR,290.0
K6A1 311935Z AUTO 19008KT 180V250 10SM BKN036 BKN045 BKN050 24/15 A2998 RMK AO2 T02390154,K6A1,2022-10-31T19:35:00Z,32.57,-84.25,23.9,15.4,190,8,,10.0,29.97933,,,TRUE,TRUE,,,,,,,BKN,3600,BKN,4500,BKN,5000,,,VFR,,,,,,,,,,,,METAR,198.0
K66R 311935Z AUTO 12005KT 10SM CLR 26/11 A3000 RMK AO2 T02560105,K66R,2022-10-31T19:35:00Z,29.65,-96.52,25.6,10.5,120,5,,10.0,30.0,,,TRUE,TRUE,,,,,,,CLR,,,,,,,,VFR,,,,,,,,,,,,METAR,70.0
K65S 311935Z AUTO 16006KT 9SM FEW009 BKN039 BKN044 09/08 A2971 RMK AO2,K65S,2022-10-31T19:35:00Z,48.73,-116.3,9.0,8.0,160,6,,9.0,29.71063,,,TRUE,TRUE,,,,,,,FEW,900,BKN,3900,BKN,4400,,,VFR,,,,,,,,,,,,METAR,708.0
K63S 311935Z AUTO 00000KT 10SM FEW017 SCT028 BKN040 11/08 A2971 RMK A01,K63S,2022-10-31T19:35:00Z,48.53,-117.88,11.0,8.0,0,0,,10.0,29.71063,,,TRUE,TRUE,,,,,,,FEW,1700,SCT,2800,BKN,4000,,,VFR,,,,,,,,,,,,METAR,571.0
K5SM 311935Z AUTO 23004KT 10SM CLR 01/M11 A3027 RMK AO2,K5SM,2022-10-31T19:35:00Z,39.43,-107.38,1.0,-11.0,230,4,,10.0,30.268702,,,TRUE,TRUE,,,,,,,CLR,,,,,,,,VFR,,,,,,,,,,,,METAR,3229.0
K5R8 311935Z AUTO 01004KT 10SM CLR 24/12 A3001 RMK AO2 T02360117,K5R8,2022-10-31T19:35:00Z,30.43,-93.47,23.6,11.7,10,4,,10.0,30.008858,,,TRUE,TRUE,,,,,,,CLR,,,,,,,,VFR,,,,,,,,,,,,SPECI,26.0
K5M9 311935Z AUTO 22005KT 5SM RA SCT023 BKN038 OVC046 16/13 A2991 RMK AO2 T01580131,K5M9,2022-10-31T19:35:00Z,37.33,-88.12,15.8,13.1,220,5,,5.0,29.911417,,,TRUE,TRUE,,,,,,RA,SCT,2300,BKN,3800,OVC,4600,,,MVFR,,,,,,,,,,,,METAR,199.0
K5H4 311935Z AUTO 25010KT 10SM CLR 15/02 A2971 RMK AO2,K5H4,2022-10-31T19:35:00Z,47.78,-99.93,15.0,2.0,250,10,,10.0,29.71063,,,TRUE,TRUE,,,,,,,CLR,,,,,,,,VFR,,,,,,,,,,,,METAR,490.0
K5C1 311935Z AUTO 00000KT 10SM CLR 23/08 A3001 RMK AO1,K5C1,2022-10-31T19:35:00Z,29.72,-98.7,23.0,8.0,0,0,,10.0,30.008858,,,TRUE,TRUE,,,,,,,CLR,,,,,,,,VFR,,,,,,,,,,,,SPECI,422.0
K57C 311935Z AUTO 00000KT 10SM CLR 17/09 A2981 RMK AO2 T01710092,K57C,2022-10-31T19:35:00Z,42.8,-88.37,17.1,9.2,0,0,,10.0,29.811024,,,TRUE,TRUE,,,,,,,CLR,,,,,,,,VFR,,,,,,,,,,,,METAR,454.0
K54J 311935Z AUTO 00000KT 10SM SCT046 24/13 A2999 RMK AO2 T02420125,K54J,2022-10-31T19:35:00Z,30.73,-86.15,24.2,12.5,0,0,,10.0,29.991142,,,TRUE,TRUE,,,,,,,SCT,4600,,,,,,,VFR,,,,,,,,,,,,SPECI,87.0
K54A 311935Z AUTO 28009KT 10SM FEW031 FEW044 32/23 A2991 RMK AO2,K54A,2022-10-31T19:35:00Z,26.85,-82.25,32.0,23.0,280,9,,10.0,29.911417,,,TRUE,TRUE,,,,,,,FEW,3100,FEW,4400,,,,,VFR,,,,,,,,,,,,METAR,2.0
K4S2 311935Z AUTO 00000KT 10SM -RA SCT012 BKN042 OVC050 13/11 A2987 RMK AO2 P0001,K4S2,2022-10-31T19:35:00Z,45.68,-121.55,13.0,11.0,0,0,,10.0,29.870079,,,TRUE,TRUE,,,,,,-RA,SCT,1200,BKN,4200,OVC,5000,,,VFR,,,,,,0.01,,,,,,METAR,183.0
K4S1 311935Z AUTO 22005KT 1SM BR VV007 11/10 A2999 RMK AO2,K4S1,2022-10-31T19:35:00Z,42.42,-124.42,11.0,10.0,220,5,,1.0,29.991142,,,TRUE,TRUE,,,,,,BR,OVX,0,,,,,,,LIFR,,,,,,,,,,,700,METAR,7.0
K4R5 311935Z AUTO 21004KT 10SM BKN110 17/00 A2976 RMK AO2 T01690002,K4R5,2022-10-31T19:35:00Z,46.78,-90.77,16.9,0.2,210,4,,10.0,29.760826,,,TRUE,TRUE,,,,,,,BKN,11000,,,,,,,VFR,,,,,,,,,,,,METAR,195.0
K4O4 311935Z AUTO VRB04KT 7SM CLR 23/08 A3000 RMK AO2,K4O4,2022-10-31T19:35:00Z,33.92,-94.87,23.0,8.0,0,4,,7.0,30.0,,,TRUE,TRUE,,,,,,,CLR,,,,,,,,VFR,,,,,,,,,,,,METAR,148.0
K4M9 311935Z AUTO 30009KT 10SM SCT050 SCT055 19/13 A2994 RMK AO2 PWINO,K4M9,2022-10-31T19:35:00Z,36.4,-90.65,19.0,13.0,300,9,,10.0,29.940945,,,TRUE,TRUE,,,,,TRUE,,SCT,5000,SCT,5500,,,,,VFR,,,,,,,,,,,,SPECI,86.0
K4I3 311935Z AUTO 21003KT 10SM BKN065 18/13 A2987 RMK AO2,K4I3,2022-10-31T19:35:00Z,40.33,-82.53,18.0,13.0,210,3,,10.0,29.870079,,,TRUE,TRUE,,,,,,,BKN,6500,,,,,,,VFR,,,,,,,,,,,,METAR,361.0
K4F2 311935Z AUTO 27005KT 10SM CLR 25/09 A3000 RMK AO2 T02500093,K4F2,2022-10-31T19:35:00Z,32.18,-94.3,25.0,9.3,270,5,,10.0,30.0,,,TRUE,TRUE,,,,,,,CLR,,,,,,,,VFR,,,,,,,,,,,,METAR,76.0
K4A9 311935Z AUTO 24008KT 10SM 19/13 A2998 RMK AO2 T01890126,K4A9,2022-10-31T19:35:00Z,34.47,-85.72,18.9,12.6,240,8,,10.0,29.97933,,,TRUE,TRUE,,,,,,,,,,,,,,,,,,,,,,,,,,,METAR,273.0
K4A6 311935Z AUTO 00000KT 10SM FEW027 FEW038 OVC049 18/15 A2999 RMK AO2,K4A6,2022-10-31T19:35:00Z,34.68,-86.0,18.0,15.0,0,0,,10.0,29.991142,,,TRUE,TRUE,,,,,,,FEW,2700,FEW,3800,OVC,4900,,,VFR,,,,,,,,,,,,SPECI,191.0
K49A 311935Z AUTO 28007KT 10SM SCT025 SCT030 BKN035 19/13 A3001 RMK AO2 T01900126,K49A,2022-10-31T19:35:00Z,34.63,-84.53,19.0,12.6,280,7,,10.0,30.008858,,,TRUE,TRUE,,,,,,,SCT,2500,SCT,3000,BKN,3500,,,VFR,,,,,,,,,,,,METAR,449.0
K48A 311935Z AUTO 23007KT 10SM SCT034 BKN044 BKN050 27/19 A2997 RMK AO2 T02670188,K48A,2022-10-31T19:35:00Z,32.4,-83.27,26.7,18.8,230,7,,10.0,29.970472,,,TRUE,TRUE,,,,,,,SCT,3400,BKN,4400,BKN,5000,,,VFR,,,,,,,,,,,,METAR,115.0
K46U 311935Z AUTO VRB04KT 10SM CLR 10/M02 A3010 RMK A01,K46U,2022-10-31T19:35:00Z,43.18,-111.05,10.0,-2.0,0,4,,10.0,30.100393,,,TRUE,TRUE,,,,,,,CLR,,,,,,,,VFR,,,,,,,,,,,,METAR,1718.0
K46D 311935Z AUTO 28013KT 10SM CLR 17/01 A2973 RMK AO2,K46D,2022-10-31T19:35:00Z,47.45,-99.15,17.0,1.0,280,13,,10.0,29.731298,,,TRUE,TRUE,,,,,,,CLR,,,,,,,,VFR,,,,,,,,,,,,METAR,488.0
K42J 311935Z AUTO 24006G12KT 10SM FEW046 FEW060 30/16 A2995 RMK A01,K42J,2022-10-31T19:35:00Z,29.85,-82.05,30.0,16.0,240,6,12,10.0,29.949802,,,TRUE,TRUE,,,,,,,FEW,4600,FEW,6000,,,,,VFR,,,,,,,,,,,,SPECI,57.0
K41U 311935Z AUTO 16004KT 10SM CLR 11/M04 A3012 RMK AO1 T01141040,K41U,2022-10-31T19:35:00Z,39.33,-111.6,11.4,-4.0,160,4,,10.0,30.121063,,,TRUE,TRUE,,,,,,,CLR,,,,,,,,VFR,,,,,,,,,,,,METAR,1676.0
K40U 311935Z AUTO 10007KT 10SM CLR 13/M05 A3009 RMK AO2 T01291053,K40U,2022-10-31T19:35:00Z,40.98,-109.68,12.9,-5.3,100,7,,10.0,30.088583,,,TRUE,TRUE,,,,,,,CLR,,,,,,,,VFR,,,,,,,,,,,,METAR,1882.0
K3S8 311935Z AUTO 00000KT 10SM BKN008 11/08 A3000 RMK AO2,K3S8,2022-10-31T19:35:00Z,42.5,-123.4,11.0,8.0,0,0,,10.0,30.0,,,TRUE,TRUE,,,,,,,BKN,800,,,,,,,IFR,,,,,,,,,,,,METAR,339.0
K3R7 311935Z AUTO 33005KT 10SM CLR 25/11 A3000 RMK AO2 T02470108,K3R7,2022-10-31T19:35:00Z,30.25,-92.67,24.7,10.8,330,5,,10.0,30.0,,,TRUE,TRUE,,,,,,,CLR,,,,,,,,VFR,,,,,,,,,,,,SPECI,5.0
K3N8 311935Z AUTO 21007KT 10SM CLR 15/00 A2972 RMK AO2 T01491004,K3N8,2022-10-31T19:35:00Z,47.25,-95.92,14.9,-0.4,210,7,,10.0,29.719488,,,TRUE,TRUE,,,,,,,CLR,,,,,,,,VFR,,,,,,,,,,,,METAR,379.0
K3LF 311935Z AUTO 24007KT 1 1/2SM BR OVC004 12/12 A2990 RMK AO2 T01220121,K3LF,2022-10-31T19:35:00Z,39.17,-89.67,12.2,12.1,240,7,,1.5,29.899607,,,TRUE,TRUE,,,,,,BR,OVC,400,,,,,,,LIFR,,,,,,,,,,,,METAR,207.0
K3K3 311935Z AUTO 24003KT 10SM CLR 20/M02 A2996 RMK AO2,K3K3,2022-10-31T19:35:00Z,38.0,-101.75,20.0,-2.0,240,3,,10.0,29.958662,,,TRUE,TRUE,,,,,,,CLR,,,,,,,,VFR,,,,,,,,,,,,METAR,1010.0
K3J7 311935Z AUTO 00000KT 10SM SCT008 BKN013 BKN021 22/19 A2997 RMK AO2,K3J7,2022-10-31T19:35:00Z,33.6,-83.13,22.0,19.0,0,0,,10.0,29.970472,,,TRUE,TRUE,,,,,,,SCT,800,BKN,1300,BKN,2100,,,MVFR,,,,,,,,,,,,METAR,207.0
K3I2 311935Z AUTO 20007KT 10SM SCT031 21/15 A2991 RMK AO2 T02090153,K3I2,2022-10-31T19:35:00Z,38.92,-82.1,20.9,15.3,200,7,,10.0,29.911417,,,TRUE,TRUE,,,,,,,SCT,3100,,,,,,,VFR,,,,,,,,,,,,METAR,195.0
K3F3 311935Z AUTO 23005KT 10SM CLR 25/10 A3003 RMK AO2 T02460104,K3F3,2022-10-31T19:35:00Z,32.07,-93.77,24.6,10.4,230,5,,10.0,30.029528,,,TRUE,TRUE,,,,,,,CLR,,,,,,,,VFR,,,,,,,,,,,,METAR,96.0
K3D2 311935Z AUTO 16003KT 10SM CLR 16/06 A2978 RMK AO2 T01610059,K3D2,2022-10-31T19:35:00Z,45.13,-87.18,16.1,5.9,160,3,,10.0,29.778543,,,TRUE,TRUE,,,,,,,CLR,,,,,,,,VFR,,,,,,,,,,,,METAR,233.0
K3AU 311935Z AUTO 27006KT 10SM CLR 20/M06 A2997 RMK AO2,K3AU,2022-10-31T19:35:00Z,37.67,-97.08,20.0,-6.0,270,6,,10.0,29.970472,,,TRUE,TRUE,,,,,,,CLR,,,,,,,,VFR,,,,,,,,,,,,METAR,403.0
K36K 311935Z AUTO 24008KT 10SM CLR 21/M02 A2998 RMK AO2,K36K,2022-10-31T19:35:00Z,37.97,-101.25,21.0,-2.0,240,8,,10.0,29.97933,,,TRUE,TRUE,,,,,,,CLR,,,,,,,,VFR,,,,,,,,,,,,METAR,938.0
K35A 311935Z AUTO 36003KT 5SM HZ OVC004 16/ A3004 RMK A02 T0162////,K35A,2022-10-31T19:35:00Z,34.68,-81.63,16.2,,360,3,,5.0,30.041338,,,TRUE,TRUE,,,,,,HZ,OVC,400,,,,,,,LIFR,,,,,,,,,,,,SPECI,186.0
K33V 311935Z AUTO 21014G18KT 10SM CLR 08/M07 A3011 RMK AO1,K33V,2022-10-31T19:35:00Z,40.75,-106.28,8.0,-7.0,210,14,18,10.0,30.109253,,,TRUE,TRUE,,,,,,,CLR,,,,,,,,VFR,,,,,,,,,,,,METAR,2486.0
K33N 311935Z AUTO 18004KT 10SM BKN027 OVC038 20/14 A3000 RMK A01,K33N,2022-10-31T19:35:00Z,39.22,-75.6,20.0,14.0,180,4,,10.0,30.0,,,TRUE,TRUE,,,,,,,BKN,2700,OVC,3800,,,,,MVFR,,,,,,,,,,,,METAR,17.0
K2V5 311935Z AUTO 15005KT 10SM CLR 22/M09 A2993 RMK AO2,K2V5,2022-10-31T19:35:00Z,40.1,-102.25,22.0,-9.0,150,5,,10.0,29.929134,,,TRUE,TRUE,,,,,,,CLR,,,,,,,,VFR,,,,,,,,,,,,METAR,1117.0
K2R9 311935Z AUTO 09007KT 10SM SCT080 26/11 A2998 RMK AO2 T02630113,K2R9,2022-10-31T19:35:00Z,28.82,-97.87,26.3,11.3,90,7,,10.0,29.97933,,,TRUE,TRUE,,,,,,,SCT,8000,,,,,,,VFR,,,,,,,,,,,,METAR,88.0
K2P2 311935Z AUTO 19007KT 10SM BKN095 OVC110 13/06 A2978 RMK AO2 T01300055,K2P2,2022-10-31T19:35:00Z,45.38,-86.92,13.0,5.5,190,7,,10.0,29.778543,,,TRUE,TRUE,,,,,,,BKN,9500,OVC,11000,,,,,VFR,,,,,,,,,,,,METAR,182.0
K2J9 311935Z AUTO 30007KT 10SM OVC037 27/17 A2998 RMK AO2,K2J9,2022-10-31T19:35:00Z,30.6,-84.55,27.0,17.0,300,7,,10.0,29.97933,,,TRUE,TRUE,,,,,,,OVC,3700,,,,,,,VFR,,,,,,,,,,,,SPECI,62.0
K2J5 311935Z AUTO 24005KT 10SM SCT033 BKN042 BKN050 26/19 A2997 RMK AO2 T02610188,K2J5,2022-10-31T19:35:00Z,32.9,-81.97,26.1,18.8,240,5,,10.0,29.970472,,,TRUE,TRUE,,,,,,,SCT,3300,BKN,4200,BKN,5000,,,VFR,,,,,,,,,,,,METAR,72.0
K2J3 311935Z AUTO 26004KT 10SM SCT025 SCT030 BKN060 25/20 A2997 RMK AO2 T02520204,K2J3,2022-10-31T19:35:00Z,32.98,-82.38,25.2,20.4,260,4,,10.0,29.970472,,,TRUE,TRUE,,,,,,,SCT,2500,SCT,3000,BKN,6000,,,VFR,,,,,,,,,,,,METAR,97.0
K2IS 311935Z AUTO 06004KT 10SM SCT036 SCT044 BKN049 30/23 A2992 RMK AO2 T03010226,K2IS,2022-10-31T19:35:00Z,26.73,-81.05,30.1,22.6,60,4,,10.0,29.920275,,,TRUE,TRUE,,,,,,,SCT,3600,SCT,4400,BKN,4900,,,VFR,,,,,,,,,,,,METAR,5.0
K2G9 311935Z AUTO 23011G15KT 10SM OVC006 14/13 A2995 RMK AO2,K2G9,2022-10-31T19:35:00Z,40.03,-79.02,14.0,13.0,230,11,15,10.0,29.949802,,,TRUE,TRUE,,,,,,,OVC,600,,,,,,,IFR,,,,,,,,,,,,METAR,677.0
K2G4 311935Z AUTO 23005KT 10SM BKN012 BKN050 OVC065 13/12 A2997 RMK AO1,K2G4,2022-10-31T19:35:00Z,39.58,-79.33,13.0,12.0,230,5,,10.0,29.970472,,,TRUE,TRUE,,,,,,,BKN,1200,BKN,5000,OVC,6500,,,MVFR,,,,,,,,,,,,METAR,908.0
K2G2 311935Z AUTO 22008KT 10SM SCT011 BKN015 OVC027 17/16 A2990 RMK A01,K2G2,2022-10-31T19:35:00Z,,,17.0,16.0,220,8,,10.0,29.899607,,,TRUE,TRUE,,,,,,,SCT,1100,BKN,1500,OVC,2700,,,MVFR,,,,,,,,,,,,METAR,
K2D5 311935Z AUTO 22010KT 9SM CLR 18/M01 A2975 RMK AO2,K2D5,2022-10-31T19:35:00Z,46.17,-98.08,18.0,-1.0,220,10,,9.0,29.749016,,,TRUE,TRUE,,,,,,,CLR,,,,,,,,VFR,,,,,,,,,,,,METAR,407.0
K2C8 311935Z AUTO 28009G15KT 10SM CLR 15/04 A2963 RMK AO2,K2C8,2022-10-31T19:35:00Z,48.78,-97.63,15.0,4.0,280,9,15,10.0,29.630905,,,TRUE,TRUE,,,,,,,CLR,,,,,,,,VFR,,,,,,,,,,,,METAR,271.0
K2A0 311935Z AUTO 21007KT 10SM OVC060 20/14 A2995 RMK A01,K2A0,2022-10-31T19:35:00Z,35.48,-84.93,20.0,14.0,210,7,,10.0,29.949802,,,TRUE,TRUE,,,,,,,OVC,6000,,,,,,,VFR,,,,,,,,,,,,METAR,219.0
K28J 311935Z AUTO 00000KT 9SM BKN047 BKN055 BKN060 28/17 A2996 RMK AO2 TSNO,K28J,2022-10-31T19:35:00Z,29.65,-81.68,28.0,17.0,0,0,,9.0,29.958662,,,TRUE,TRUE,,,TRUE,,,,BKN,4700,BKN,5500,BKN,6000,,,VFR,,,,,,,,,,,,METAR,9.0
K27K 311935Z AUTO 21009KT 10SM SCT026 SCT042 OVC050 17/12 A2990 RMK AO1,K27K,2022-10-31T19:35:00Z,38.23,-84.43,17.0,12.0,210,9,,10.0,29.899607,,,TRUE,TRUE,,,,,,,SCT,2600,SCT,4200,OVC,5000,,,VFR,,,,,,,,,,,,SPECI,283.0
K24J 311935Z AUTO 21004KT 10SM FEW047 FEW055 FEW110 29/18 A2994 RMK A01,K24J,2022-10-31T19:35:00Z,30.3,-83.03,29.0,18.0,210,4,,10.0,29.940945,,,TRUE,TRUE,,,,,,,FEW,4700,FEW,5500,FEW,11000,,,VFR,,,,,,,,,,,,METAR,30.0
K24A 311935Z AUTO 19006G15KT 10SM SCT038 SCT044 SCT060 18/11 A3001 RMK AO2 T01810108,K24A,2022-10-31T19:35:00Z,35.32,-83.2,18.1,10.8,190,6,15,10.0,30.008858,,,TRUE,TRUE,,,,,,,SCT,3800,SCT,4400,SCT,6000,,,VFR,,,,,,,,,,,,SPECI,864.0
K22N 311935Z AUTO 00000KT 10SM -RA BKN021 OVC026 15/10 A3000 RMK AO2,K22N,2022-10-31T19:35:00Z,40.8,-75.77,15.0,10.0,0,0,,10.0,30.0,,,TRUE,TRUE,,,,,,-RA,BKN,2100,OVC,2600,,,,,MVFR,,,,,,,,,,,,METAR,159.0
K21D 311935Z AUTO 22007KT 10SM CLR 17/M02 A2983 RMK AO2,K21D,2022-10-31T19:35:00Z,45.0,-92.85,17.0,-2.0,220,7,,10.0,29.828741,,,TRUE,TRUE,,,,,,,CLR,,,,,,,,VFR,,,,,,,,,,,,METAR,281.0
K20V 311935Z AUTO 00000KT 10SM CLR 09/M05 A3014 RMK AO2,K20V,2022-10-31T19:35:00Z,40.05,-106.37,9.0,-5.0,0,0,,10.0,30.138779,,,TRUE,TRUE,,,,,,,CLR,,,,,,,,VFR,,,,,,,,,,,,METAR,2259.0
K20U 311935Z AUTO 23008KT 10SM CLR 15/M02 A2975 RMK AO2,K20U,2022-10-31T19:35:00Z,46.93,-103.98,15.0,-2.0,230,8,,10.0,29.749016,,,TRUE,TRUE,,,,,,,CLR,,,,,,,,VFR,,,,,,,,,,,,METAR,839.0
K1V6 311935Z AUTO 28007KT 10SM CLR 20/M11 A2996 RMK AO2,K1V6,2022-10-31T19:35:00Z,38.43,-105.1,20.0,-11.0,280,7,,10.0,29.958662,,,TRUE,TRUE,,,,,,,CLR,,,,,,,,VFR,,,,,,,,,,,,METAR,1658.0
K1U7 311935Z AUTO 32004KT 10SM CLR 10/M03 A3009 RMK A01,K1U7,2022-10-31T19:35:00Z,42.25,-111.33,10.0,-3.0,320,4,,10.0,30.088583,,,TRUE,TRUE,,,,,,,CLR,,,,,,,,VFR,,,,,,,,,,,,METAR,1808.0
K1S5 311935Z AUTO 00000KT 10SM OVC090 16/08 A2980 RMK AO2 T01620076,K1S5,2022-10-31T19:35:00Z,46.33,-119.97,16.2,7.6,0,0,,10.0,29.799213,,,TRUE,TRUE,,,,,,,OVC,9000,,,,,,,VFR,,,,,,,,,,,,SPECI,228.0
K1R8 311935Z AUTO 00000KT 10SM BKN050 BKN055 22/13 A2999 RMK AO2,K1R8,2022-10-31T19:35:00Z,30.87,-87.82,22.0,13.0,0,0,,10.0,29.991142,,,TRUE,TRUE,,,,,,,BKN,5000,BKN,5500,,,,,VFR,,,,,,,,,,,,METAR,76.0
K1R7 311935Z AUTO 00000KT 10SM SCT046 SCT055 23/18 A3002 RMK AO2 PWINO,K1R7,2022-10-31T19:35:00Z,31.6,-90.42,23.0,18.0,0,0,,10.0,30.02067,,,TRUE,TRUE,,,,,TRUE,,SCT,4600,SCT,5500,,,,,VFR,,,,,,,,,,,,SPECI,142.0
K1P1 311935Z AUTO 17003KT 10SM CLR 18/01 A2994 RMK AO2 T01840005,K1P1,2022-10-31T19:35:00Z,43.78,-71.75,18.4,0.5,170,3,,10.0,29.940945,,,TRUE,TRUE,,,,,,,CLR,,,,,,,,VFR,,,,,,,,,,,,METAR,155.0
K1M5 311935Z AUTO 22010KT 10SM SCT022 OVC065 18/14 A2992 RMK A01,K1M5,2022-10-31T19:35:00Z,36.6,-86.48,18.0,14.0,220,10,,10.0,29.920275,,,TRUE,TRUE,,,,,,,SCT,2200,OVC,6500,,,,,VFR,,,,,,,,,,,,METAR,239.0
K1K1 311935Z AUTO 27003KT 10SM CLR 20/M03 A2997 RMK AO2 T01961030,K1K1,2022-10-31T19:35:00Z,37.77,-97.12,19.6,-3.0,270,3,,10.0,29.970472,,,TRUE,TRUE,,,,,,,CLR,,,,,,,,VFR,,,,,,,,,,,,METAR,411.0
K1H2 311935Z AUTO 25010KT 10SM OVC014 15/13 A2989 RMK AO2 T01460125,K1H2,2022-10-31T19:35:00Z,39.07,-88.53,14.6,12.5,250,10,,10.0,29.890747,,,TRUE,TRUE,,,,,,,OVC,1400,,,,,,,MVFR,,,,,,,,,,,,METAR,174.0
K1F0 311935Z AUTO 23005KT 10SM CLR 23/08 A3001 RMK AO2 T02270079,K1F0,2022-10-31T19:35:00Z,34.15,-97.12,22.7,7.9,230,5,,10.0,30.008858,,,TRUE,TRUE,,,,,,,CLR,,,,,,,,VFR,,,,,,,,,,,,METAR,256.0
K1D1 311935Z AUTO 24010G15KT 10SM CLR 21/M02 A2976 RMK AO2,K1D1,2022-10-31T19:35:00Z,45.23,-96.57,21.0,-2.0,240,10,15,10.0,29.760826,,,TRUE,TRUE,,,,,,,CLR,,,,,,,,VFR,,,,,,,,,,,,METAR,341.0
K1A9 311935Z AUTO 26006KT 10SM OVC049 21/11 A3000 RMK AO2 T02080110,K1A9,2022-10-31T19:35:00Z,32.43,-86.52,20.8,11.0,260,6,,10.0,30.0,,,TRUE,TRUE,,,,,,,OVC,4900,,,,,,,VFR,,,,,,,,,,,,METAR,65.0
K1A6 311935Z AUTO 16005KT 10SM OVC065 18/15 A2995 RMK AO2 T01840149,K1A6,2022-10-31T19:35:00Z,36.62,-83.73,18.4,14.9,160,5,,10.0,29.949802,,,TRUE,TRUE,,,,,,,OVC,6500,,,,,,,VFR,,,,,,,,,,,,SPECI,348.0
K1A5 311935Z AUTO 00000KT 10SM SCT045 BKN060 OVC070 21/13 A3000 RMK AO2 T02060127,K1A5,2022-10-31T19:35:00Z,35.22,-83.42,20.6,12.7,0,0,,10.0,30.0,,,TRUE,TRUE,,,,,,,SCT,4500,BKN,6000,OVC,7000,,,VFR,,,,,,,,,,,,SPECI,611.0
K19S 311935Z AUTO 21014KT 10SM CLR 23/01 A2995 RMK AO2 T02290015,K19S,2022-10-31T19:35:00Z,37.48,-100.83,22.9,1.5,210,14,,10.0,29.949802,,,TRUE,TRUE,,,,,,,CLR,,,,,,,,VFR,,,,,,,,,,,,METAR,886.0
K18H 311935Z AUTO 06007KT 10SM FEW033 26/17 A2996 RMK A01,K18H,2022-10-31T19:35:00Z,26.13,-92.03,26.0,17.0,60,7,,10.0,29.958662,,,TRUE,TRUE,,,,,,,FEW,3300,,,,,,,VFR,,,,,,,,,,,,METAR,30.0
K18A 311935Z AUTO 00000KT 10SM OVC005 17/16 A3000 RMK AO2 T01740161,K18A,2022-10-31T19:35:00Z,34.35,-83.13,17.4,16.1,0,0,,10.0,30.0,,,TRUE,TRUE,,,,,,,OVC,500,,,,,,,IFR,,,,,,,,,,,,METAR,260.0
K17J 311935Z AUTO 29004KT 10SM OVC038 24/14 A2998 RMK AO2 T02420144,K17J,2022-10-31T19:35:00Z,31.0,-84.87,24.2,14.4,290,4,,10.0,29.97933,,,TRUE,TRUE,,,,,,,OVC,3800,,,,,,,VFR,,,,,,,,,,,,SPECI,42.0
K15M 311935Z AUTO VRB03KT 10SM BKN019 OVC028 17/15 A2998 RMK AO2 CIG 018V025 T01740153 $,K15M,2022-10-31T19:35:00Z,34.77,-88.17,17.4,15.3,0,3,,10.0,29.97933,,,TRUE,TRUE,TRUE,,,,,,BKN,1900,OVC,2800,,,,,MVFR,,,,,,,,,,,,METAR,192.0
K14Y 311935Z AUTO 24009G15KT 10SM CLR 17/M01 A2980 RMK AO2,K14Y,2022-10-31T19:35:00Z,45.9,-94.87,17.0,-1.0,240,9,15,10.0,29.799213,,,TRUE,TRUE,,,,,,,CLR,,,,,,,,VFR,,,,,,,,,,,,METAR,404.0
K13K 311935Z AUTO 00000KT 10SM CLR 17/02 A2997 RMK AO2 T01660017,K13K,2022-10-31T19:35:00Z,37.85,-96.3,16.6,1.7,0,0,,10.0,29.970472,,,TRUE,TRUE,,,,,,,CLR,,,,,,,,VFR,,,,,,,,,,,,METAR,367.0
K11R 311935Z AUTO 00000KT 10SM CLR 25/12 A3001 RMK AO2 T02490117,K11R,2022-10-31T19:35:00Z,30.22,-96.37,24.9,11.7,0,0,,10.0,30.008858,,,TRUE,TRUE,,,,,,,CLR,,,,,,,,VFR,,,,,,,,,,,,METAR,87.0
K10G 311935Z AUTO 20009KT 10SM SCT030 SCT041 OVC065 18/12 A2987 RMK AO2,K10G,2022-10-31T19:35:00Z,,,18.0,12.0,200,9,,10.0,29.870079,,,TRUE,TRUE,,,,,,,SCT,3000,SCT,4100,OVC,6500,,,VFR,,,,,,,,,,,,METAR,
K0VG 311935Z AUTO 23010KT 10SM SCT021 BKN028 OVC065 18/15 A2996 RMK AO2,K0VG,2022-10-31T19:35:00Z,36.65,-83.22,18.0,15.0,230,10,,10.0,29.958662,,,TRUE,TRUE,,,,,,,SCT,2100,BKN,2800,OVC,6500,,,MVFR,,,,,,,,,,,,METAR,426.0
K0V4 311935Z AUTO 08006KT 7SM SCT029 SCT065 OVC100 16/15 A3001 RMK AO1,K0V4,2022-10-31T19:35:00Z,37.15,-79.02,16.0,15.0,80,6,,7.0,30.008858,,,TRUE,TRUE,,,,,,,SCT,2900,SCT,6500,OVC,10000,,,VFR,,,,,,,,,,,,SPECI,186.0
K0S9 311935Z AUTO 29006KT 2SM -RA FEW026 FEW030 OVC045 10/07 A2981 RMK AO2,K0S9,2022-10-31T19:35:00Z,48.05,-122.82,10.0,7.0,290,6,,2.0,29.811024,,,TRUE,TRUE,,,,,,-RA,FEW,2600,FEW,3000,OVC,4500,,,IFR,,,,,,,,,,,,METAR,33.0
K0R4 311935Z AUTO 30003KT 10SM BKN048 24/11 A3000 RMK AO2 T02400109,K0R4,2022-10-31T19:35:00Z,31.57,-91.5,24.0,10.9,300,3,,10.0,30.0,,,TRUE,TRUE,,,,,,,BKN,4800,,,,,,,VFR,,,,,,,,,,,,METAR,16.0
K0R0 311935Z AUTO 28005KT 10SM SCT048 SCT055 25/12 A3003 RMK AO2,K0R0,2022-10-31T19:35:00Z,31.3,-89.82,25.0,12.0,280,5,,10.0,30.029528,,,TRUE,TRUE,,,,,,,SCT,4800,SCT,5500,,,,,VFR,,,,,,,,,,,,METAR,76.0
K0F2 311935Z AUTO 12004KT 10SM CLR 23/09 A3002 RMK AO2 P0003 T02310094,K0F2,2022-10-31T19:35:00Z,33.6,-97.78,23.1,9.4,120,4,,10.0,30.02067,,,TRUE,TRUE,,,,,,,CLR,,,,,,,,VFR,,,,,,0.03,,,,,,METAR,330.0
K0E0 311935Z AUTO 27005KT 10SM CLR 17/M10 A3010 RMK AO2 T01681103 TSNO,K0E0,2022-10-31T19:35:00Z,34.98,-106.0,16.8,-10.3,270,5,,10.0,30.100393,,,TRUE,TRUE,,,TRUE,,,,CLR,,,,,,,,VFR,,,,,,,,,,,,METAR,1887.0
K0CO 311935Z AUTO 32016G25KT 10SM CLR M04/M11 A3023 RMK AO2,K0CO,2022-10-31T19:35:00Z,39.8,-105.77,-4.0,-11.0,320,16,25,10.0,30.230314,,,TRUE,TRUE,,,,,,,CLR,,,,,,,,VFR,,,,,,,,,,,,METAR,3804.0
K0A9 311935Z AUTO 06003KT 10SM SCT037 BKN044 BKN050 20/15 A2994 RMK A01,K0A9,2022-10-31T19:35:00Z,36.37,-82.17,20.0,15.0,60,3,,10.0,29.940945,,,TRUE,TRUE,,,,,,,SCT,3700,BKN,4400,BKN,5000,,,VFR,,,,,,,,,,,,METAR,479.0
K0A0 311935Z AUTO VRB05KT 10SM CLR 20/M05 A3004 RMK AO2,K0A0,2022-10-31T19:35:00Z,32.98,-106.97,20.0,-5.0,0,5,,10.0,30.041338,,,TRUE,TRUE,,,,,,,CLR,,,,,,,,VFR,,,,,,,,,,,,METAR,1401.0
K08D 311935Z AUTO 26012KT 10SM CLR 15/01 A2972 RMK AO2,K08D,2022-10-31T19:35:00Z,48.3,-102.4,15.0,1.0,260,12,,10.0,29.719488,,,TRUE,TRUE,,,,,,,CLR,,,,,,,,VFR,,,,,,,,,,,,METAR,683.0
K06D 311935Z AUTO 25008KT 10SM CLR 11/03 A2968 RMK AO2,K06D,2022-10-31T19:35:00Z,48.88,-99.62,11.0,3.0,250,8,,10.0,29.681103,,,TRUE,TRUE,,,,,,,CLR,,,,,,,,VFR,,,,,,,,,,,,METAR,554.0
K06C 311935Z AUTO 34003KT 3SM OVC006 13/13 A2982 RMK AO2 T01290129,K06C,2022-10-31T19:35:00Z,41.98,-88.1,12.9,12.9,340,3,,3.0,29.819881,,,TRUE,TRUE,,,,,,,OVC,600,,,,,,,IFR,,,,,,,,,,,,METAR,243.0
K05U 311935Z AUTO 00000KT 10SM CLR 15/M06 A3010 RMK A01,K05U,2022-10-31T19:35:00Z,39.6,-116.0,15.0,-6.0,0,0,,10.0,30.100393,,,TRUE,TRUE,,,,,,,CLR,,,,,,,,VFR,,,,,,,,,,,,METAR,1813.0
K04W 311935Z AUTO 23007KT 10SM CLR 17/00 A2980 RMK AO2,K04W,2022-10-31T19:35:00Z,46.02,-92.9,17.0,0.0,230,7,,10.0,29.799213,,,TRUE,TRUE,,,,,,,CLR,,,,,,,,VFR,,,,,,,,,,,,METAR,310.0
K04V 311935Z AUTO 20004KT 10SM 11/M07 A3015 RMK AO2,K04V,2022-10-31T19:35:00Z,38.1,-106.17,11.0,-7.0,200,4,,10.0,30.15059,,,TRUE,TRUE,,,,,,,,,,,,,,,,,,,,,,,,,,,SPECI,2389.0
CYZR 311935Z AUTO 22005KT 6SM BR OVC007 16/15 A2979 RMK SLP089 DENSITY ALT 1000FT,CYZR,2022-10-31T19:35:00Z,43.0,-82.3,16.0,15.0,220,5,,6.0,29.790354,1008.9,,TRUE,,,,,,,BR,OVC,700,,,,,,,IFR,,,,,,,,,,,,SPECI,181.0
CYZF 311935Z 08009KT 1 1/2SM -SN BKN025 OVC036 M10/M12 A2974 RMK SC6SC2 SLP091,CYZF,2022-10-31T19:35:00Z,62.47,-114.45,-10.0,-12.0,80,9,,1.5,29.740158,1009.1,,,,,,,,,-SN,BKN,2500,OVC,3600,,,,,IFR,,,,,,,,,,,,SPECI,202.0
YPAD 311934Z 26018G30KT 9999 VCSH FEW034CB SCT035 10/06 Q0993 REGS,YPAD,2022-10-31T19:34:00Z,-34.95,138.52,10.0,6.0,260,18,30,6.21,29.320866,,,,,,,,,,VCSH,FEW,3400,SCT,3500,,,,,VFR,,,,,,,,,,,,SPECI,2.0
RKJK 311934Z 10004KT M1/8SM R36/0700V0800FT FG VV000 09/09 A3019 RMK SLP228,RKJK,2022-10-31T19:34:00Z,35.9,126.62,9.0,9.0,100,4,,0.13,30.188976,1022.8,,,,,,,,,FG,OVX,0,,,,,,,LIFR,,,,,,,,,,,0,METAR,8.0
KNY0 311934Z AUTO 16004KT 10SM SCT050 14/04 A2995 RMK AO2,KNY0,2022-10-31T19:34:00Z,42.98,-74.33,14.0,4.0,160,4,,10.0,29.949802,,,TRUE,TRUE,,,,,,,SCT,5000,,,,,,,VFR,,,,,,,,,,,,METAR,266.0
KMMH 311934Z AUTO 00000KT 10SM CLR 11/M14 A3013 RMK AO2,KMMH,2022-10-31T19:34:00Z,37.62,-118.83,11.0,-14.0,0,0,,10.0,30.129921,,,TRUE,TRUE,,,,,,,CLR,,,,,,,,VFR,,,,,,,,,,,,METAR,2167.0
KLFI 311934Z 15005KT 10SM FEW150 21/15 A3002 RMK SLP172 $,KLFI,2022-10-31T19:34:00Z,37.08,-76.33,21.0,15.0,150,5,,10.0,30.02067,1017.2,,,,TRUE,,,,,,FEW,15000,,,,,,,VFR,,,,,,,,,,,,SPECI,2.0
KHHW 311934Z AUTO 00000KT 10SM CLR 22/04 A3000 RMK AO2,KHHW,2022-10-31T19:34:00Z,34.03,-95.55,22.0,4.0,0,0,,10.0,30.0,,,TRUE,TRUE,,,,,,,CLR,,,,,,,,VFR,,,,,,,,,,,,METAR,178.0
KDUB 311934Z AUTO 33017G24KT 10SM CLR 11/M04 A3001 RMK AO2,KDUB,2022-10-31T19:34:00Z,43.55,-109.68,11.0,-4.0,330,17,24,10.0,30.008858,,,TRUE,TRUE,,,,,,,CLR,,,,,,,,VFR,,,,,,,,,,,,METAR,2205.0
KCYD 311934Z AUTO 01003KT 10SM CLR 25/15 A3002 RMK A02 T02530154,KCYD,2022-10-31T19:34:00Z,28.17,-89.22,25.3,15.4,10,3,,10.0,30.02067,,,TRUE,TRUE,,,,,,,CLR,,,,,,,,VFR,,,,,,,,,,,,METAR,30.0
KCDD 311934Z AUTO 22004KT 10SM CLR 16/M05 A2970 RMK AO2,KCDD,2022-10-31T19:34:00Z,48.27,-92.48,16.0,-5.0,220,4,,10.0,29.698818,,,TRUE,TRUE,,,,,,,CLR,,,,,,,,VFR,,,,,,,,,,,,METAR,344.0
UAII 311933Z 00000MPS 2900 BR NSC 06/04 Q1020 NOSIG RMK QFE727/0970,UAII,2022-10-31T19:33:00Z,42.37,69.48,6.0,4.0,0,0,,1.8,30.11811,,,,,,TRUE,,,,BR,CLR,,,,,,,,IFR,,,,,,,,,,,,SPECI,410.0
PAIN 311933Z AUTO 36007KT 6SM -SN SCT020 OVC034 M12/M15 A2987 RMK AO2 P0000 FZRANO,PAIN,2022-10-31T19:33:00Z,63.73,-148.92,-12.0,-15.0,360,7,,6.0,29.870079,,,TRUE,TRUE,,,,TRUE,,-SN,SCT,2000,OVC,3400,,,,,VFR,,,,,,0.005,,,,,,SPECI,525.0
PAGL 311933Z AUTO 04003KT 8SM BKN009 M10/M11 A3013 RMK AO2 PWINO FZRANO $,PAGL,2022-10-31T19:33:00Z,64.55,-163.0,-10.0,-11.0,40,3,,8.0,30.129921,,,TRUE,TRUE,TRUE,,,TRUE,TRUE,,BKN,900,,,,,,,IFR,,,,,,,,,,,,SPECI,20.0
KXVG 311933Z AUTO 20005KT 10SM CLR 18/M02 A2973 RMK AO2,KXVG,2022-10-31T19:33:00Z,46.98,-94.2,18.0,-2.0,200,5,,10.0,29.731298,,,TRUE,TRUE,,,,,,,CLR,,,,,,,,VFR,,,,,,,,,,,,METAR,407.0
KOWA 311933Z AUTO 23005KT 10SM CLR 17/02 A2984 RMK AO2,KOWA,2022-10-31T19:33:00Z,44.12,-93.25,17.0,2.0,230,5,,10.0,29.840551,,,TRUE,TRUE,,,,,,,CLR,,,,,,,,VFR,,,,,,,,,,,,METAR,345.0
KORB 311933Z AUTO 22007G14KT 10SM CLR 17/00 A2967 RMK AO2,KORB,2022-10-31T19:33:00Z,48.02,-92.87,17.0,0.0,220,7,14,10.0,29.66929,,,TRUE,TRUE,,,,,,,CLR,,,,,,,,VFR,,,,,,,,,,,,METAR,407.0
KOQT 311933Z AUTO VRB03KT 10SM SCT019 SCT045 BKN065 19/15 A2996 RMK AO2 T01940150,KOQT,2022-10-31T19:33:00Z,36.02,-84.23,19.4,15.0,0,3,,10.0,29.958662,,,TRUE,TRUE,,,,,,,SCT,1900,SCT,4500,BKN,6500,,,VFR,,,,,,,,,,,,SPECI,276.0
KJST 311933Z AUTO 22009KT 10SM SCT006 BKN025 OVC065 15/14 A2994 RMK AO2 T01500144,KJST,2022-10-31T19:33:00Z,40.32,-78.83,15.0,14.4,220,9,,10.0,29.940945,,,TRUE,TRUE,,,,,,,SCT,600,BKN,2500,OVC,6500,,,MVFR,,,,,,,,,,,,SPECI,695.0
KHLG 311933Z 19006KT 10SM SCT024 SCT030 OVC045 17/14 A2991 RMK AO2 T01670144,KHLG,2022-10-31T19:33:00Z,40.17,-80.65,16.7,14.4,190,6,,10.0,29.911417,,,,TRUE,,,,,,,SCT,2400,SCT,3000,OVC,4500,,,VFR,,,,,,,,,,,,SPECI,365.0
KFOZ 311933Z AUTO 22010KT 10SM CLR 17/M01 A2976 RMK AO2,KFOZ,2022-10-31T19:33:00Z,47.77,-93.65,17.0,-1.0,220,10,,10.0,29.760826,,,TRUE,TRUE,,,,,,,CLR,,,,,,,,VFR,,,,,,,,,,,,METAR,412.0
KEYE 311933Z AUTO 22004KT 10SM -RA SCT015 BKN047 OVC070 16/14 A2983 RMK AO2 RAE03B19 P0001 T01560139,KEYE,2022-10-31T19:33:00Z,39.83,-86.3,15.6,13.9,220,4,,10.0,29.828741,,,TRUE,TRUE,,,,,,-RA,SCT,1500,BKN,4700,OVC,7000,,,VFR,,,,,,0.01,,,,,,SPECI,248.0
KETH 311933Z AUTO 26005KT 10SM 20/M01 A2976 RMK AO2,KETH,2022-10-31T19:33:00Z,45.78,-96.55,20.0,-1.0,260,5,,10.0,29.760826,,,TRUE,TRUE,,,,,,,,,,,,,,,,,,,,,,,,,,,METAR,309.0
KDVP 311933Z AUTO 21012KT 10SM CLR 18/00 A2983 RMK AO2 T01821005,KDVP,2022-10-31T19:33:00Z,43.98,-95.78,18.2,-0.5,210,12,,10.0,29.828741,,,TRUE,TRUE,,,,,,,CLR,,,,,,,,VFR,,,,,,,,,,,,METAR,493.0
KCVO 311933Z AUTO 16003KT 10SM BKN010 OVC016 13/12 A2996 RMK AO2 RAB1857E33 CIG 005V013 P0001,KCVO,2022-10-31T19:33:00Z,44.5,-123.28,13.0,12.0,160,3,,10.0,29.958662,,,TRUE,TRUE,,,,,,,BKN,1000,OVC,1600,,,,,MVFR,,,,,,0.01,,,,,,SPECI,75.0
KBTP 311933Z AUTO 19003KT 10SM OVC007 16/15 A2991 RMK AO2 CIG 005V009 TSNO,KBTP,2022-10-31T19:33:00Z,40.77,-79.95,16.0,15.0,190,3,,10.0,29.911417,,,TRUE,TRUE,,,TRUE,,,,OVC,700,,,,,,,IFR,,,,,,,,,,,,SPECI,375.0
KAQP 311933Z AUTO 23006KT 10SM SCT090 20/M04 A2977 RMK AO2,KAQP,2022-10-31T19:33:00Z,45.22,-96.0,20.0,-4.0,230,6,,10.0,29.769686,,,TRUE,TRUE,,,,,,,SCT,9000,,,,,,,VFR,,,,,,,,,,,,METAR,312.0
CYZS 311933Z 09024G31KT 1/4SM SN BLSN VV013 M06/M07 A2951 RMK SN8 PRESFR SLP001,CYZS,2022-10-31T19:33:00Z,64.2,-83.35,-6.0,-7.0,90,24,31,0.25,29.509842,1000.1,,,,,,,,,SN BLSN,OVX,0,,,,,,,LIFR,,,,,,,,,,,1300,SPECI,60.0
CYHE 311933Z AUTO 24008G19KT 200V320 9SM FEW016 SCT025 SCT044 BKN055 10/08 A2974 RMK SLP072,CYHE,2022-10-31T19:33:00Z,49.37,-121.5,10.0,8.0,240,8,19,9.0,29.740158,1007.2,,TRUE,,,,,,,,FEW,1600,SCT,2500,SCT,4400,BKN,5500,VFR,,,,,,,,,,,,SPECI,43.0
SBFN 311932Z AUTO 18006KT 140V240 9999 FEW018 27/23 Q1011,SBFN,2022-10-31T19:32:00Z,-3.85,-32.42,27.0,23.0,180,6,,6.21,29.852362,,,TRUE,,,,,,,,FEW,1800,,,,,,,VFR,,,,,,,,,,,,METAR,52.0
KRCA 311932Z 00000KT 10SM CLR 19/M09 A2980 RMK SLP092 $,KRCA,2022-10-31T19:32:00Z,44.15,-103.12,19.0,-9.0,0,0,,10.0,29.799213,1009.2,,,,TRUE,,,,,,CLR,,,,,,,,VFR,,,,,,,,,,,,SPECI,993.0
KMPO 311932Z AUTO 22008KT 10SM BKN017 OVC110 12/09 A2999 RMK AO2 T01220094,KMPO,2022-10-31T19:32:00Z,41.13,-75.38,12.2,9.4,220,8,,10.0,29.991142,,,TRUE,TRUE,,,,,,,BKN,1700,OVC,11000,,,,,MVFR,,,,,,,,,,,,SPECI,576.0
KHUF 311932Z 25007KT 10SM FEW013 OVC019 16/13 A2985 RMK AO2 T01560128,KHUF,2022-10-31T19:32:00Z,39.45,-87.32,15.6,12.8,250,7,,10.0,29.84941,,,,TRUE,,,,,,,FEW,1300,OVC,1900,,,,,MVFR,,,,,,,,,,,,SPECI,174.0
KHOP 311932Z AUTO 21006KT 10SM SCT016 SCT020 BKN050 17/17 A2991 RMK AO2 DZB01E17 SLP129,KHOP,2022-10-31T19:32:00Z,36.67,-87.5,17.0,17.0,210,6,,10.0,29.911417,1012.9,,TRUE,TRUE,,,,,,,SCT,1600,SCT,2000,BKN,5000,,,VFR,,,,,,,,,,,,SPECI,170.0
KERI 311932Z 19008KT 10SM SCT014 BKN060 OVC075 17/14 A2985 RMK AO2 T01720139,KERI,2022-10-31T19:32:00Z,42.08,-80.18,17.2,13.9,190,8,,10.0,29.84941,,,,TRUE,,,,,,,SCT,1400,BKN,6000,OVC,7500,,,VFR,,,,,,,,,,,,SPECI,222.0
KCUL 311932Z AUTO 24008KT BKN016 BKN026 OVC035 18/14 A2988 RMK AO2 PWINO,KCUL,2022-10-31T19:32:00Z,38.08,-88.12,18.0,14.0,240,8,,,29.878937,,,TRUE,TRUE,,,,,TRUE,,BKN,1600,BKN,2600,OVC,3500,,,,,,,,,,,,,,,METAR,116.0
DIAP 311932Z 17003KT 130V300 9999 FEW011 BKN028 25/25 Q1011 RETS NOSIG,DIAP,2022-10-31T19:32:00Z,5.25,-3.92,25.0,25.0,170,3,,6.21,29.852362,,,,,,TRUE,,,,,FEW,1100,BKN,2800,,,,,MVFR,,,,,,,,,,,,SPECI,4.0
CYZY 311932Z AUTO 15008KT 9SM SCT011 OVC030 M01/M02 A2952 RMK SLP031,CYZY,2022-10-31T19:32:00Z,55.3,-123.13,-1.0,-2.0,150,8,,9.0,29.518702,1003.1,,TRUE,,,,,,,,SCT,1100,OVC,3000,,,,,MVFR,,,,,,,,,,,,SPECI,694.0
CYQG 311932Z AUTO 23010KT 9SM FEW009 SCT017 OVC025 17/16 A2980 RMK SLP093 DENSITY ALT 1200FT,CYQG,2022-10-31T19:32:00Z,42.27,-82.97,17.0,16.0,230,10,,9.0,29.799213,1009.3,,TRUE,,,,,,,,FEW,900,SCT,1700,OVC,2500,,,MVFR,,,,,,,,,,,,SPECI,189.0
YSNW 311931Z 30015G26KT 9999 FEW032 SCT044 15/07 Q0989,YSNW,2022-10-31T19:31:00Z,-34.95,150.53,15.0,7.0,300,15,26,6.21,29.202755,,,,,,,,,,,FEW,3200,SCT,4400,,,,,VFR,,,,,,,,,,,,SPECI,109.0
PANI 311931Z AUTO 29007KT 10SM SCT019 OVC038 M08/M10 A3019 RMK AO2 FZRANO $,PANI,2022-10-31T19:31:00Z,61.58,-159.53,-8.0,-10.0,290,7,,10.0,30.188976,,,TRUE,TRUE,TRUE,,,TRUE,,,SCT,1900,OVC,3800,,,,,VFR,,,,,,,,,,,,SPECI,21.0
LESO 311931Z 27004KT 220V360 9999 RA BKN023 OVC042 19/15 Q1018,LESO,2022-10-31T19:31:00Z,43.35,-1.8,19.0,15.0,270,4,,6.21,30.059055,,,,,,,,,,RA,BKN,2300,OVC,4200,,,,,MVFR,,,,,,,,,,,,SPECI,3.0
KPKB 311931Z 16007KT 10SM BKN016 BKN027 BKN080 19/16 A2991 RMK AO2 T01890161,KPKB,2022-10-31T19:31:00Z,39.35,-81.43,18.9,16.1,160,7,,10.0,29.911417,,,,TRUE,,,,,,,BKN,1600,BKN,2700,BKN,8000,,,MVFR,,,,,,,,,,,,SPECI,245.0
KIAG 311931Z 21006KT 2 1/2SM RA BR BKN021 BKN049 OVC065 15/13 A2984 RMK AO2 VIS 1 3/4V5 RAB1858 P0002 T01500133,KIAG,2022-10-31T19:31:00Z,43.12,-78.93,15.0,13.3,210,6,,2.5,29.840551,,,,TRUE,,,,,,RA BR,BKN,2100,BKN,4900,OVC,6500,,,IFR,,,,,,0.02,,,,,,SPECI,179.0
CYYH 311931Z 30014KT 1SM -SN DRSN SCT007 BKN015 OVC022 M15/M17 A2967 RMK SN2ST1SC3SC2 SLP052,CYYH,2022-10-31T19:31:00Z,69.53,-93.57,-15.0,-17.0,300,14,,1.0,29.66929,1005.2,,,,,,,,,-SN DRSN,SCT,700,BKN,1500,OVC,2200,,,IFR,,,,,,,,,,,,SPECI,19.0
ZYTX 311930Z VRB01MPS CAVOK 03/M06 Q1026 NOSIG,ZYTX,2022-10-31T19:30:00Z,41.63,123.48,3.0,-6.0,0,2,,6.21,30.295275,,,,,,TRUE,,,,,CAVOK,,,,,,,,VFR,,,,,,,,,,,,METAR,56.0
ZYTL 311930Z 36003MPS 320V060 CAVOK 10/M01 Q1025 NOSIG,ZYTL,2022-10-31T19:30:00Z,38.97,121.55,10.0,-1.0,360,6,,6.21,30.265747,,,,,,TRUE,,,,,CAVOK,,,,,,,,VFR,,,,,,,,,,,,METAR,33.0
ZWWW 311930Z 11001MPS CAVOK 05/M02 Q1026 NOSIG,ZWWW,2022-10-31T19:30:00Z,43.9,87.47,5.0,-2.0,110,2,,6.21,30.295275,,,,,,TRUE,,,,,CAVOK,,,,,,,,VFR,,,,,,,,,,,,METAR,654.0
ZSSS 311930Z 36003MPS CAVOK 13/12 Q1022 NOSIG,ZSSS,2022-10-31T19:30:00Z,31.2,121.33,13.0,12.0,360,6,,6.21,30.177166,,,,,,TRUE,,,,,CAVOK,,,,,,,,VFR,,,,,,,,,,,,METAR,2.0
ZSPD 311930Z 01006MPS CAVOK 17/13 Q1021 NOSIG,ZSPD,2022-10-31T19:30:00Z,31.15,121.8,17.0,13.0,10,12,,6.21,30.147638,,,,,,TRUE,,,,,CAVOK,,,,,,,,VFR,,,,,,,,,,,,METAR,4.0
ZSHC 311930Z 35003MPS CAVOK 16/13 Q1022 NOSIG,ZSHC,2022-10-31T19:30:00Z,30.22,120.43,16.0,13.0,350,6,,6.21,30.177166,,,,,,TRUE,,,,,CAVOK,,,,,,,,VFR,,,,,,,,,,,,METAR,8.0
ZMCK 311930Z 08004MPS 9999 BKN100 M07/M12 Q1020 NOSIG RMK QFE649.4 65 NT,ZMCK,2022-10-31T19:30:00Z,47.65,106.82,-7.0,-12.0,80,8,,6.21,30.11811,,,,,,TRUE,,,,,BKN,10000,,,,,,,VFR,,,,,,,,,,,,METAR,1366.0
ZGGG 311930Z 01008MPS CAVOK 22/12 Q1010 NOSIG,ZGGG,2022-10-31T19:30:00Z,23.4,113.3,22.0,12.0,10,16,,6.21,29.822834,,,,,,TRUE,,,,,CAVOK,,,,,,,,VFR,,,,,,,,,,,,METAR,11.0
ZBYN 311930Z 14002MPS 110V180 CAVOK 01/M03 Q1025 NOSIG,ZBYN,2022-10-31T19:30:00Z,37.73,112.63,1.0,-3.0,140,4,,6.21,30.265747,,,,,,TRUE,,,,,CAVOK,,,,,,,,VFR,,,,,,,,,,,,METAR,778.0
ZBTJ 311930Z 01002MPS CAVOK 07/M04 Q1027 NOSIG,ZBTJ,2022-10-31T19:30:00Z,39.12,117.35,7.0,-4.0,10,4,,6.21,30.324802,,,,,,TRUE,,,,,CAVOK,,,,,,,,VFR,,,,,,,,,,,,METAR,4.0
ZBAD 311930Z 27002MPS CAVOK 00/M04 Q1027 NOSIG,ZBAD,2022-10-31T19:30:00Z,39.5,116.42,0.0,-4.0,270,4,,6.21,30.324802,,,,,,TRUE,,,,,CAVOK,,,,,,,,VFR,,,,,,,,,,,,METAR,25.0
ZBAA 311930Z 17001MPS CAVOK 01/M05 Q1027 NOSIG,ZBAA,2022-10-31T19:30:00Z,40.07,116.6,1.0,-5.0,170,2,,6.21,30.324802,,,,,,TRUE,,,,,CAVOK,,,,,,,,VFR,,,,,,,,,,,,METAR,31.0
YWLM 311930Z AUTO 33014KT 9999 // SCT050 SCT069 BKN088 19/15 Q0991,YWLM,2022-10-31T19:30:00Z,-32.8,151.83,19.0,15.0,330,14,,6.21,29.26181,,,TRUE,,,,,,,,SCT,5000,SCT,6900,BKN,8800,,,VFR,,,,,,,,,,,,SPECI,7.0
YSWG 311930Z AUTO 29015KT 9999 // BKN015 OVC019 10/09 Q0992,YSWG,2022-10-31T19:30:00Z,-35.15,147.47,10.0,9.0,290,15,,6.21,29.291338,,,TRUE,,,,,,,,BKN,1500,OVC,1900,,,,,MVFR,,,,,,,,,,,,SPECI,212.0
YSTW 311930Z AUTO 35013KT 9999 -RA SCT017 SCT036 OVC110 14/13 Q0999 RERA,YSTW,2022-10-31T19:30:00Z,-31.08,150.85,14.0,13.0,350,13,,6.21,29.498032,,,TRUE,,,,,,,-RA,SCT,1700,SCT,3600,OVC,11000,,,VFR,,,,,,,,,,,,METAR,404.0
YSSY 311930Z 30021KT 9999 FEW042 SCT070 BKN190 20/07 Q0990,YSSY,2022-10-31T19:30:00Z,-33.95,151.17,20.0,7.0,300,21,,6.21,29.232283,,,,,,,,,,,FEW,4200,SCT,7000,BKN,19000,,,VFR,,,,,,,,,,,,METAR,3.0
YSRI 311930Z AUTO 31009KT 9999 // NCD 18/08 Q0992 RF00.0/001.0,YSRI,2022-10-31T19:30:00Z,-33.6,150.77,18.0,8.0,310,9,,6.21,29.291338,,,TRUE,,,,,,,,CLR,,,,,,,,VFR,,,,,,,,,,,,SPECI,19.0
YSNF 311930Z AUTO 06006KT 9999 // ////// 18/15 Q1013 RF00.0/000.0,YSNF,2022-10-31T19:30:00Z,-29.03,167.93,18.0,15.0,60,6,,6.21,29.911417,,,TRUE,,,,,,,,,,,,,,,,,,,,,,,,,,,,SPECI,113.0
YSDU 311930Z AUTO 28012KT 9999 // SCT027 BKN032 12/10 Q0998,YSDU,2022-10-31T19:30:00Z,-32.22,148.57,12.0,10.0,280,12,,6.21,29.468504,,,TRUE,,,,,,,,SCT,2700,BKN,3200,,,,,VFR,,,,,,,,,,,,SPECI,285.0
YSCB 311930Z AUTO 32015KT 9999 // SCT032 09/06 Q0990,YSCB,2022-10-31T19:30:00Z,-35.3,149.18,9.0,6.0,320,15,,6.21,29.232283,,,TRUE,,,,,,,,SCT,3200,,,,,,,VFR,,,,,,,,,,,,SPECI,577.0
YPXM 311930Z AUTO 12011KT 9999 // BKN019 BKN025 OVC032 24/20 Q1012,YPXM,2022-10-31T19:30:00Z,-10.45,105.68,24.0,20.0,120,11,,6.21,29.88189,,,TRUE,,,,,,,,BKN,1900,BKN,2500,OVC,3200,,,MVFR,,,,,,,,,,,,SPECI,262.0
YPWR 311930Z AUTO 25022KT 9999 // SCT045 SCT064 BKN078 10/08 Q1001,YPWR,2022-10-31T19:30:00Z,-31.15,136.82,10.0,8.0,250,22,,6.21,29.557087,,,TRUE,,,,,,,,SCT,4500,SCT,6400,BKN,7800,,,VFR,,,,,,,,,,,,METAR,169.0
YPTN 311930Z AUTO 33007KT 9999 // NCD 27/20 Q1007 RF00.0/000.0,YPTN,2022-10-31T19:30:00Z,-14.52,132.38,27.0,20.0,330,7,,6.21,29.734253,,,TRUE,,,,,,,,CLR,,,,,,,,VFR,,,,,,,,,,,,SPECI,135.0
YPPH 311930Z 15005KT CAVOK 06/04 Q1025,YPPH,2022-10-31T19:30:00Z,-31.93,115.98,6.0,4.0,150,5,,6.21,30.265747,,,,,,,,,,,CAVOK,,,,,,,,VFR,,,,,,,,,,,,METAR,16.0
YPPD 311930Z AUTO 15007KT 9999 // NCD 15/M07 Q1015 RF00.0/000.0,YPPD,2022-10-31T19:30:00Z,-20.37,118.62,15.0,-7.0,150,7,,6.21,29.970472,,,TRUE,,,,,,,,CLR,,,,,,,,VFR,,,,,,,,,,,,SPECI,6.0
YPLM 311930Z AUTO 23008KT 9999 // NCD 13/M02 Q1016 RF00.0////./,YPLM,2022-10-31T19:30:00Z,-22.23,114.08,13.0,-2.0,230,8,,6.21,30.0,,,TRUE,,,,,,,,CLR,,,,,,,,VFR,,,,,,,,,,,,SPECI,5.0
YPKU 311930Z AUTO 17007KT 9999 // NCD 28/15 Q1008 RF00.0/000.0,YPKU,2022-10-31T19:30:00Z,-15.77,128.7,28.0,15.0,170,7,,6.21,29.763779,,,TRUE,,,,,,,,CLR,,,,,,,,VFR,,,,,,,,,,,,SPECI,42.0
YPKG 311930Z AUTO 20006KT 9999 // NCD 07/05 Q1022 RF00.0/000.0,YPKG,2022-10-31T19:30:00Z,-30.78,121.45,7.0,5.0,200,6,,6.21,30.177166,,,TRUE,,,,,,,,CLR,,,,,,,,VFR,,,,,,,,,,,,SPECI,372.0
YPJT 311930Z AUTO 17004KT 9999 // NCD 07/05 Q1025 RF00.0/000.0,YPJT,2022-10-31T19:30:00Z,-32.1,115.88,7.0,5.0,170,4,,6.21,30.265747,,,TRUE,,,,,,,,CLR,,,,,,,,VFR,,,,,,,,,,,,METAR,29.0
YPGV 311930Z AUTO 31007KT 9999 // NCD 26/24 Q1007 RF00.0/000.0,YPGV,2022-10-31T19:30:00Z,-12.27,136.82,26.0,24.0,310,7,,6.21,29.734253,,,TRUE,,,,,,,,CLR,,,,,,,,VFR,,,,,,,,,,,,SPECI,53.0
YPEA 311930Z AUTO 00000KT 9999 // NCD 07/05 Q1025,YPEA,2022-10-31T19:30:00Z,-31.67,116.02,7.0,5.0,0,0,,6.21,30.265747,,,TRUE,,,,,,,,CLR,,,,,,,,VFR,,,,,,,,,,,,SPECI,38.0
YPDN 311930Z AUTO 27005KT 9999 // NCD 28/25 Q1008,YPDN,2022-10-31T19:30:00Z,-12.42,130.9,28.0,25.0,270,5,,6.21,29.763779,,,TRUE,,,,,,,,CLR,,,,,,,,VFR,,,,,,,,,,,,SPECI,32.0
YPCC 311930Z AUTO 12010KT 9999 // SCT028 BKN039 BKN044 26/20 Q1012,YPCC,2022-10-31T19:30:00Z,-12.18,96.83,26.0,20.0,120,10,,6.21,29.88189,,,TRUE,,,,,,,,SCT,2800,BKN,3900,BKN,4400,,,VFR,,,,,,,,,,,,SPECI,3.0
YOLD 311930Z AUTO 27024G34KT 9999 // SCT030 BKN036 OVC043 12/08 Q1002,YOLD,2022-10-31T19:30:00Z,-30.48,136.88,12.0,8.0,270,24,34,6.21,29.586615,,,TRUE,,,,,,,,SCT,3000,BKN,3600,OVC,4300,,,VFR,,,,,,,,,,,,SPECI,102.0
YNAR 311930Z AUTO 27013G24KT 9999 // BKN014 BKN027 10/08 Q0994,YNAR,2022-10-31T19:30:00Z,-34.7,146.52,10.0,8.0,270,13,24,6.21,29.350393,,,TRUE,,,,,,,,BKN,1400,BKN,2700,,,,,MVFR,,,,,,,,,,,,SPECI,142.0
YMML 311930Z 30007KT 9999 FEW020 BKN040 08/06 Q0990,YMML,2022-10-31T19:30:00Z,-37.67,144.82,8.0,6.0,300,7,,6.21,29.232283,,,,,,,,,,,FEW,2000,BKN,4000,,,,,VFR,,,,,,,,,,,,METAR,115.0
YMLT 311930Z AUTO 00000KT 9999 // NCD 04/04 Q0983 RF00.0/001.6,YMLT,2022-10-31T19:30:00Z,-41.53,147.2,4.0,4.0,0,0,,6.21,29.02559,,,TRUE,,,,,,,,CLR,,,,,,,,VFR,,,,,,,,,,,,SPECI,167.0
YMHB 311930Z 31007KT 9999 FEW040 08/04 Q0983,YMHB,2022-10-31T19:30:00Z,-42.83,147.52,8.0,4.0,310,7,,6.21,29.02559,,,,,,,,,,,FEW,4000,,,,,,,VFR,,,,,,,,,,,,METAR,2.0
YMAV 311930Z AUTO 31009KT 9999 // NCD 07/05 Q0989 RF00.0/002.4,YMAV,2022-10-31T19:30:00Z,-38.03,144.48,7.0,5.0,310,9,,6.21,29.202755,,,TRUE,,,,,,,,CLR,,,,,,,,VFR,,,,,,,,,,,,SPECI,11.0
YHID 311930Z AUTO 12003KT 9999 // NCD 26/// Q1007 RF00.0/000.0,YHID,2022-10-31T19:30:00Z,-10.58,142.3,,,120,3,,6.21,29.734253,,,TRUE,,,,,,,,CLR,,,,,,,,VFR,,,,,,,,,,,,METAR,5.0
YGTH 311930Z AUTO 27011KT 9999 // BKN012 09/08 Q0995,YGTH,2022-10-31T19:30:00Z,-34.25,146.07,9.0,8.0,270,11,,6.21,29.379921,,,TRUE,,,,,,,,BKN,1200,,,,,,,MVFR,,,,,,,,,,,,SPECI,132.0
YGLA 311930Z AUTO 36010KT 9999 // BKN017 BKN025 BKN033 25/21 Q1004,YGLA,2022-10-31T19:30:00Z,-23.87,151.22,25.0,21.0,360,10,,6.21,29.64567,,,TRUE,,,,,,,,BKN,1700,BKN,2500,BKN,3300,,,MVFR,,,,,,,,,,,,METAR,17.0
YGFN 311930Z AUTO 33008KT 6000 +RA ////// 22/21 Q0997,YGFN,2022-10-31T19:30:00Z,-29.77,153.03,22.0,21.0,330,8,,3.73,29.438976,,,TRUE,,,,,,,+RA,,,,,,,,,,,,,,,,,,,,,SPECI,26.0
YGEL 311930Z AUTO 14009KT 9999 // NCD 10/08 Q1024 RF00.0/000.0,YGEL,2022-10-31T19:30:00Z,-28.8,114.7,10.0,8.0,140,9,,6.21,30.236221,,,TRUE,,,,,,,,CLR,,,,,,,,VFR,,,,,,,,,,,,METAR,32.0
YFRT 311930Z AUTO 26017KT 9999 // SCT013 SCT018 BKN032 11/09 Q1015,YFRT,2022-10-31T19:30:00Z,-30.83,128.12,11.0,9.0,260,17,,6.21,29.970472,,,TRUE,,,,,,,,SCT,1300,SCT,1800,BKN,3200,,,VFR,,,,,,,,,,,,SPECI,159.0
YESP 311930Z AUTO 20016KT 6000 -SHRA BKN004 OVC008 13/12 Q1020,YESP,2022-10-31T19:30:00Z,-33.68,121.82,13.0,12.0,200,16,,3.73,30.11811,,,TRUE,,,,,,,-SHRA,BKN,400,OVC,800,,,,,LIFR,,,,,,,,,,,,SPECI,143.0
YEML 311930Z AUTO 35008KT 9999 TS BKN026 BKN031 OVC048 25/23 Q1004,YEML,2022-10-31T19:30:00Z,-23.57,148.18,25.0,23.0,350,8,,6.21,29.64567,,,TRUE,,,,,,,TS,BKN,2600,BKN,3100,OVC,4800,,,MVFR,,,,,,,,,,,,SPECI,192.0
YCIN 311930Z AUTO 14015KT 9999 // NCD 24/M04 Q1010 RF00.0/000.0,YCIN,2022-10-31T19:30:00Z,-17.58,123.83,24.0,-4.0,140,15,,6.21,29.822834,,,TRUE,,,,,,,,CLR,,,,,,,,VFR,,,,,,,,,,,,SPECI,83.0
YCFS 311930Z AUTO 21009KT 2000 +RA SCT006 SCT018 BKN029 21/19 Q0996,YCFS,2022-10-31T19:30:00Z,-30.32,153.12,21.0,19.0,210,9,,1.24,29.409449,,,TRUE,,,,,,,+RA,SCT,600,SCT,1800,BKN,2900,,,IFR,,,,,,,,,,,,SPECI,2.0
YCDU 311930Z AUTO 22026G36KT 9999 // BKN042 OVC049 12/05 Q1005,YCDU,2022-10-31T19:30:00Z,-32.12,133.7,12.0,5.0,220,26,36,6.21,29.675198,,,TRUE,,,,,,,,BKN,4200,OVC,4900,,,,,VFR,,,,,,,,,,,,SPECI,21.0
YCBP 311930Z AUTO 26032G42KT 9999 // SCT041 BKN053 13/07 Q1006,YCBP,2022-10-31T19:30:00Z,-29.03,134.72,13.0,7.0,260,32,42,6.21,29.704725,,,TRUE,,,,,,,,SCT,4100,BKN,5300,,,,,VFR,,,,,,,,,,,,SPECI,227.0
YCAS 311930Z AUTO 35019G31KT //// // ////// 22/18 Q0997,YCAS,2022-10-31T19:30:00Z,-28.88,153.07,22.0,18.0,350,19,31,,29.438976,,,TRUE,,,,,,,,,,,,,,,,,,,,,,,,,,,,SPECI,25.0
YBWW 311930Z AUTO 34006KT 9999 // SCT017 BKN022 BKN069 18/17 Q1001,YBWW,2022-10-31T19:30:00Z,-27.55,151.8,18.0,17.0,340,6,,6.21,29.557087,,,TRUE,,,,,,,,SCT,1700,BKN,2200,BKN,6900,,,MVFR,,,,,,,,,,,,METAR,460.0
YBTL 311930Z AUTO 36010KT 9999 // SCT017 BKN029 28/25 Q1006,YBTL,2022-10-31T19:30:00Z,-19.25,146.75,28.0,25.0,360,10,,6.21,29.704725,,,TRUE,,,,,,,,SCT,1700,BKN,2900,,,,,MVFR,,,,,,,,,,,,SPECI,4.0
YBRM 311930Z AUTO 13013KT 9999 // NCD 24/02 Q1011 RF00.0/000.0,YBRM,2022-10-31T19:30:00Z,-17.93,122.23,24.0,2.0,130,13,,6.21,29.852362,,,TRUE,,,,,,,,CLR,,,,,,,,VFR,,,,,,,,,,,,SPECI,11.0
YBRK 311930Z AUTO 05008KT 9999 // BKN105 24/21 Q1003 RF00.0/000.4 DL-SW/DL-W,YBRK,2022-10-31T19:30:00Z,-23.37,150.47,24.0,21.0,50,8,,6.21,29.616142,,,TRUE,,,,,,,,BKN,10500,,,,,,,VFR,,,,,,,,,,,,SPECI,10.0
YBMA 311930Z AUTO 17011KT 9999 // NCD 22/13 Q1010 RF00.0/000.6,YBMA,2022-10-31T19:30:00Z,-20.67,139.48,22.0,13.0,170,11,,6.21,29.822834,,,TRUE,,,,,,,,CLR,,,,,,,,VFR,,,,,,,,,,,,SPECI,346.0
YBLN 311930Z AUTO 21004KT 9999 // ////// 10/10 Q1025 RF00.0/000.0,YBLN,2022-10-31T19:30:00Z,-33.68,115.4,10.0,10.0,210,4,,6.21,30.265747,,,TRUE,,,,,,,,,,,,,,,,,,,,,,,,,,,,METAR,17.0
YBHM 311930Z AUTO 34016KT //// // SCT020 BKN115 27/24 Q1006,YBHM,2022-10-31T19:30:00Z,-20.35,148.95,27.0,24.0,340,16,,,29.704725,,,TRUE,,,,,,,,SCT,2000,BKN,11500,,,,,,,,,,,,,,,,,SPECI,4.0
YBCS 311930Z AUTO 29002KT 9999 // BKN036 27/23 Q1007,YBCS,2022-10-31T19:30:00Z,-16.87,145.75,27.0,23.0,290,2,,6.21,29.734253,,,TRUE,,,,,,,,BKN,3600,,,,,,,VFR,,,,,,,,,,,,SPECI,2.0
YBCG 311930Z AUTO 33014KT 9999 -SHRA SCT059 SCT090 BKN115 21/18 Q1001 RESHRA,YBCG,2022-10-31T19:30:00Z,-28.17,153.5,21.0,18.0,330,14,,6.21,29.557087,,,TRUE,,,,,,,-SHRA,SCT,5900,SCT,9000,BKN,11500,,,VFR,,,,,,,,,,,,METAR,5.0
YBBN 311930Z 35007KT 9000 RA NSC 22/20 Q1002,YBBN,2022-10-31T19:30:00Z,-27.38,153.13,22.0,20.0,350,7,,5.59,29.586615,,,,,,,,,,RA,CLR,,,,,,,,VFR,,,,,,,,,,,,METAR,3.0
YBAS 311930Z AUTO 24005KT 9999 // NCD 09/M01 Q1015 RF00.0/000.2,YBAS,2022-10-31T19:30:00Z,-23.8,133.9,9.0,-1.0,240,5,,6.21,29.970472,,,TRUE,,,,,,,,CLR,,,,,,,,VFR,,,,,,,,,,,,SPECI,549.0
YAMB 311930Z AUTO 07004KT 9999 -RA SCT042 SCT061 BKN074 19/18 Q1001 RERA,YAMB,2022-10-31T19:30:00Z,-27.63,152.72,19.0,18.0,70,4,,6.21,29.557087,,,TRUE,,,,,,,-RA,SCT,4200,SCT,6100,BKN,7400,,,VFR,,,,,,,,,,,,METAR,26.0
WSSS 311930Z 32005KT 280V340 9999 FEW018 BKN160 27/25 Q1008 NOSIG,WSSS,2022-10-31T19:30:00Z,1.37,103.97,27.0,25.0,320,5,,6.21,29.763779,,,,,,TRUE,,,,,FEW,1800,BKN,16000,,,,,VFR,,,,,,,,,,,,METAR,17.0
WMKP 311930Z 00000KT 7000 FEW025 26/25 Q1009 NOSIG,WMKP,2022-10-31T19:30:00Z,5.28,100.27,26.0,25.0,0,0,,4.35,29.793306,,,,,,TRUE,,,,,FEW,2500,,,,,,,MVFR,,,,,,,,,,,,METAR,4.0
WMKK 311930Z 00000KT 9999 SCT030 26/24 Q1009 NOSIG,WMKK,2022-10-31T19:30:00Z,2.75,101.72,26.0,24.0,0,0,,6.21,29.793306,,,,,,TRUE,,,,,SCT,3000,,,,,,,VFR,,,,,,,,,,,,METAR,21.0
WIOO 311930Z AUTO VRB02KT 9999 FEW140 25/25 Q1008,WIOO,2022-10-31T19:30:00Z,-0.15,109.4,25.0,25.0,0,2,,6.21,29.763779,,,TRUE,,,,,,,,FEW,14000,,,,,,,VFR,,,,,,,,,,,,METAR,4.0
WIMM 311930Z 26007KT 230V290 4000 BR BKN017 24/24 Q1009 NOSIG,WIMM,2022-10-31T19:30:00Z,3.57,98.67,24.0,24.0,260,7,,2.49,29.793306,,,,,,TRUE,,,,BR,BKN,1700,,,,,,,IFR,,,,,,,,,,,,METAR,27.0
WIII 311930Z VRB03KT 9000 FEW022 25/23 Q1009 NOSIG,WIII,2022-10-31T19:30:00Z,-6.13,106.67,25.0,23.0,0,3,,5.59,29.793306,,,,,,TRUE,,,,,FEW,2200,,,,,,,VFR,,,,,,,,,,,,METAR,9.0
WIDD 311930Z 00000KT 9999 FEW014 27/26 Q1010 NOSIG,WIDD,2022-10-31T19:30:00Z,1.12,104.12,27.0,26.0,0,0,,6.21,29.822834,,,,,,TRUE,,,,,FEW,1400,,,,,,,VFR,,,,,,,,,,,,METAR,26.0
WIBB 311930Z AUTO 27002KT 9999 -RA SCT050 BKN070 BKN075 24/24 Q1007,WIBB,2022-10-31T19:30:00Z,0.47,101.45,24.0,24.0,270,2,,6.21,29.734253,,,TRUE,,,,,,,-RA,SCT,5000,BKN,7000,BKN,7500,,,VFR,,,,,,,,,,,,METAR,41.0
WBSB 311930Z 19005KT 8000 -RA FEW003 BKN150 24/24 Q1009 NOSIG,WBSB,2022-10-31T19:30:00Z,4.93,114.92,24.0,24.0,190,5,,4.97,29.793306,,,,,,TRUE,,,,-RA,FEW,300,BKN,15000,,,,,MVFR,,,,,,,,,,,,METAR,15.0
WBKK 311930Z 19007KT 7000 -RA FEW013 SCT035 24/24 Q1008 RERA NOSIG,WBKK,2022-10-31T19:30:00Z,5.93,116.05,24.0,24.0,190,7,,4.35,29.763779,,,,,,TRUE,,,,-RA,FEW,1300,SCT,3500,,,,,MVFR,,,,,,,,,,,,METAR,9.0
WBGG 311930Z VRB02KT 9999 FEW020 25/24 Q1009 NOSIG,WBGG,2022-10-31T19:30:00Z,1.48,110.35,25.0,24.0,0,2,,6.21,29.793306,,,,,,TRUE,,,,,FEW,2000,,,,,,,VFR,,,,,,,,,,,,METAR,26.0
WAPP 311930Z 34005KT 9999 FEW018 25/24 Q1007 NOSIG,WAPP,2022-10-31T19:30:00Z,-3.7,128.08,25.0,24.0,340,5,,6.21,29.734253,,,,,,TRUE,,,,,FEW,1800,,,,,,,VFR,,,,,,,,,,,,METAR,20.0
WAOO 311930Z AUTO 29001KT 7000 NCD 25/25 Q1007,WAOO,2022-10-31T19:30:00Z,-3.45,114.77,25.0,25.0,290,1,,4.35,29.734253,,,TRUE,,,,,,,,CLR,,,,,,,,MVFR,,,,,,,,,,,,METAR,23.0
WAMM 311930Z VRB01KT 9999 SCT021 23/23 Q1007 NOSIG,WAMM,2022-10-31T19:30:00Z,1.55,124.92,23.0,23.0,0,1,,6.21,29.734253,,,,,,TRUE,,,,,SCT,2100,,,,,,,VFR,,,,,,,,,,,,METAR,86.0
WALL 311930Z 25004KT 9000 SCT018 27/24 Q1007 NOSIG,WALL,2022-10-31T19:30:00Z,-1.27,116.9,27.0,24.0,250,4,,5.59,29.734253,,,,,,TRUE,,,,,SCT,1800,,,,,,,VFR,,,,,,,,,,,,METAR,3.0
WAJJ 311930Z 30004KT 9999 FEW012 24/22 Q1008 NOSIG,WAJJ,2022-10-31T19:30:00Z,-2.58,140.52,24.0,22.0,300,4,,6.21,29.763779,,,,,,TRUE,,,,,FEW,1200,,,,,,,VFR,,,,,,,,,,,,METAR,93.0
WAHS 311930Z AUTO 25001KT 7000 FEW055 25/23 Q1008,WAHS,2022-10-31T19:30:00Z,-6.98,110.38,25.0,23.0,250,1,,4.35,29.763779,,,TRUE,,,,,,,,FEW,5500,,,,,,,MVFR,,,,,,,,,,,,METAR,3.0
WADL 311930Z 00000KT 7000 SCT016 24/23 Q1009 NOSIG,WADL,2022-10-31T19:30:00Z,-8.75,116.28,24.0,23.0,0,0,,4.35,29.793306,,,,,,TRUE,,,,,SCT,1600,,,,,,,MVFR,,,,,,,,,,,,METAR,97.0
WADD 311930Z VRB01KT 9999 FEW017 25/23 Q1009 NOSIG,WADD,2022-10-31T19:30:00Z,-8.73,115.17,25.0,23.0,0,1,,6.21,29.793306,,,,,,TRUE,,,,,FEW,1700,,,,,,,VFR,,,,,,,,,,,,METAR,3.0
WABB 311930Z VRB02KT 9999 FEW018 26/26 Q1008 NOSIG,WABB,2022-10-31T19:30:00Z,-1.18,136.12,26.0,26.0,0,2,,6.21,29.763779,,,,,,TRUE,,,,,FEW,1800,,,,,,,VFR,,,,,,,,,,,,METAR,12.0
WAAA 311930Z 09002KT 8000 FEW019 25/24 Q1008 NOSIG,WAAA,2022-10-31T19:30:00Z,-5.07,119.55,25.0,24.0,90,2,,4.97,29.763779,,,,,,TRUE,,,,,FEW,1900,,,,,,,MVFR,,,,,,,,,,,,METAR,13.0
VYYY 311930Z 21003KT 7000 FEW016 27/24 Q1010 NOSIG,VYYY,2022-10-31T19:30:00Z,16.9,96.13,27.0,24.0,210,3,,4.35,29.822834,,,,,,TRUE,,,,,FEW,1600,,,,,,,MVFR,,,,,,,,,,,,METAR,31.0
VVTS 311930Z 33004KT 9999 FEW020 26/24 Q1008 NOSIG,VVTS,2022-10-31T19:30:00Z,10.82,106.67,26.0,24.0,330,4,,6.21,29.763779,,,,,,TRUE,,,,,FEW,2000,,,,,,,VFR,,,,,,,,,,,,METAR,10.0
VVPB 311930Z 28004KT 8000 FEW015 BKN060 23/19 Q1012 NOSIG,VVPB,2022-10-31T19:30:00Z,16.38,107.7,23.0,19.0,280,4,,4.97,29.88189,,,,,,TRUE,,,,,FEW,1500,BKN,6000,,,,,MVFR,,,,,,,,,,,,METAR,15.0
VVNB 311930Z VRB01KT CAVOK 21/14 Q1015 NOSIG,VVNB,2022-10-31T19:30:00Z,21.22,105.8,21.0,14.0,0,1,,6.21,29.970472,,,,,,TRUE,,,,,CAVOK,,,,,,,,VFR,,,,,,,,,,,,METAR,6.0
VVDN 311930Z 30004KT 270V340 9999 FEW015 24/17 Q1011 NOSIG,VVDN,2022-10-31T19:30:00Z,16.03,108.2,24.0,17.0,300,4,,6.21,29.852362,,,,,,TRUE,,,,,FEW,1500,,,,,,,VFR,,,,,,,,,,,,METAR,7.0
VVCR 311930Z 31003KT 8000 FEW015 23/21 Q1009 NOSIG,VVCR,2022-10-31T19:30:00Z,12.0,109.22,23.0,21.0,310,3,,4.97,29.793306,,,,,,TRUE,,,,,FEW,1500,,,,,,,MVFR,,,,,,,,,,,,METAR,12.0
VVCI 311930Z 31005KT CAVOK 21/14 Q1013 NOSIG,VVCI,2022-10-31T19:30:00Z,20.82,106.73,21.0,14.0,310,5,,6.21,29.911417,,,,,,TRUE,,,,,CAVOK,,,,,,,,VFR,,,,,,,,,,,,METAR,6.0
VTSS 311930Z 00000KT 9999 FEW020 BKN100 25/24 Q1009 NOSIG,VTSS,2022-10-31T19:30:00Z,6.92,100.38,25.0,24.0,0,0,,6.21,29.793306,,,,,,TRUE,,,,,FEW,2000,BKN,10000,,,,,VFR,,,,,,,,,,,,METAR,28.0
VTSP 311930Z 00000KT 9999 FEW020 SCT100 25/25 Q1009 NOSIG,VTSP,2022-10-31T19:30:00Z,8.12,98.32,25.0,25.0,0,0,,6.21,29.793306,,,,,,TRUE,,,,,FEW,2000,SCT,10000,,,,,VFR,,,,,,,,,,,,METAR,12.0
VTCC 311930Z 07003KT 360V140 9999 FEW035 22/20 Q1013 NOSIG,VTCC,2022-10-31T19:30:00Z,18.77,98.97,22.0,20.0,70,3,,6.21,29.911417,,,,,,TRUE,,,,,FEW,3500,,,,,,,VFR,,,,,,,,,,,,METAR,308.0
VTBU 311930Z 36006KT 4000 BR NSC 25/18 Q1010 NOSIG,VTBU,2022-10-31T19:30:00Z,12.68,101.0,25.0,18.0,360,6,,2.49,29.822834,,,,,,TRUE,,,,BR,CLR,,,,,,,,IFR,,,,,,,,,,,,METAR,12.0
VTBS 311930Z 10004KT 8000 FEW020 26/21 Q1010 NOSIG,VTBS,2022-10-31T19:30:00Z,13.68,100.75,26.0,21.0,100,4,,4.97,29.822834,,,,,,TRUE,,,,,FEW,2000,,,,,,,MVFR,,,,,,,,,,,,METAR,1.0
VTBD 311930Z 08003KT 9999 FEW020 26/21 Q1010 NOSIG,VTBD,2022-10-31T19:30:00Z,13.92,100.6,26.0,21.0,80,3,,6.21,29.822834,,,,,,TRUE,,,,,FEW,2000,,,,,,,VFR,,,,,,,,,,,,METAR,6.0
VOTV 311930Z 00000KT 3000 BR SCT012 FEW025CB BKN080 25/24 Q1011 NOSIG,VOTV,2022-10-31T19:30:00Z,8.48,76.92,25.0,24.0,0,0,,1.86,29.852362,,,,,,TRUE,,,,BR,SCT,1200,FEW,2500,BKN,8000,,,IFR,,,,,,,,,,,,METAR,9.0
VOTR 311930Z VRB02KT 3000 HZ SCT016 BKN100 26/23 Q1010 NOSIG,VOTR,2022-10-31T19:30:00Z,10.77,78.72,26.0,23.0,0,2,,1.86,29.822834,,,,,,TRUE,,,,HZ,SCT,1600,BKN,10000,,,,,IFR,,,,,,,,,,,,METAR,90.0
VOMM 311930Z 03004KT 2200 -TSRA SCT018 FEW025CB BKN080 25/24 Q1011 NOSIG,VOMM,2022-10-31T19:30:00Z,13.0,80.17,25.0,24.0,30,4,,1.37,29.852362,,,,,,TRUE,,,,-TSRA,SCT,1800,FEW,2500,BKN,8000,,,IFR,,,,,,,,,,,,METAR,7.0
VOHS 311930Z 09005KT 5000 BR FEW020 19/18 Q1015 NOSIG,VOHS,2022-10-31T19:30:00Z,17.23,78.43,19.0,18.0,90,5,,3.11,29.970472,,,,,,TRUE,,,,BR,FEW,2000,,,,,,,MVFR,,,,,,,,,,,,METAR,607.0
VOCL 311930Z 15004KT 4000 BR FEW012 FEW025CB BKN080 23/22 Q1010 NOSIG,VOCL,2022-10-31T19:30:00Z,11.13,75.95,23.0,22.0,150,4,,2.49,29.822834,,,,,,TRUE,,,,BR,FEW,1200,FEW,2500,BKN,8000,,,IFR,,,,,,,,,,,,METAR,104.0
VOCI 311930Z 00000KT 3000 BR SCT012 BKN080 24/24 Q1011 NOSIG,VOCI,2022-10-31T19:30:00Z,10.15,76.4,24.0,24.0,0,0,,1.86,29.852362,,,,,,TRUE,,,,BR,SCT,1200,BKN,8000,,,,,IFR,,,,,,,,,,,,METAR,8.0
VOBL 311930Z 35005KT 5000 BR FEW012 SCT080 19/17 Q1016 NOSIG,VOBL,2022-10-31T19:30:00Z,13.2,77.7,19.0,17.0,350,5,,3.11,30.0,,,,,,TRUE,,,,BR,FEW,1200,SCT,8000,,,,,MVFR,,,,,,,,,,,,METAR,908.0
VNKT 311930Z 00000KT 7000 FEW015 14/12 Q1021 NOSIG,VNKT,2022-10-31T19:30:00Z,27.68,85.37,14.0,12.0,0,0,,4.35,30.147638,,,,,,TRUE,,,,,FEW,1500,,,,,,,MVFR,,,,,,,,,,,,METAR,1334.0
VMMC 311930Z 36023KT 9999 FEW045 24/16 Q1006 NOSIG,VMMC,2022-10-31T19:30:00Z,22.15,113.58,24.0,16.0,360,23,,6.21,29.704725,,,,,,TRUE,,,,,FEW,4500,,,,,,,VFR,,,,,,,,,,,,METAR,1.0
VILK 311930Z 00000KT 2500 BR NSC 20/19 Q1013 NOSIG,VILK,2022-10-31T19:30:00Z,26.75,80.88,20.0,19.0,0,0,,1.55,29.911417,,,,,,TRUE,,,,BR,CLR,,,,,,,,IFR,,,,,,,,,,,,METAR,121.0
VIJP 311930Z VRB02KT 2500 FU NSC 21/14 Q1016 NOSIG,VIJP,2022-10-31T19:30:00Z,26.82,75.8,21.0,14.0,0,2,,1.55,30.0,,,,,,TRUE,,,,FU,CLR,,,,,,,,IFR,,,,,,,,,,,,METAR,383.0
VIDP 311930Z 00000KT 1500 R28/P2000 R29/P2000 BR NSC 22/19 Q1015 NOSIG,VIDP,2022-10-31T19:30:00Z,28.57,77.12,22.0,19.0,0,0,,0.93,29.970472,,,,,,TRUE,,,,BR,CLR,,,,,,,,LIFR,,,,,,,,,,,,SPECI,236.0
VHHH 311930Z 01018KT 9999 FEW030 24/12 Q1007 NOSIG,VHHH,2022-10-31T19:30:00Z,22.32,113.92,24.0,12.0,10,18,,6.21,29.734253,,,,,,TRUE,,,,,FEW,3000,,,,,,,VFR,,,,,,,,,,,,METAR,9.0
VGHS 311930Z 33004KT 3500 HZ NSC 28/22 Q1012 NOSIG,VGHS,2022-10-31T19:30:00Z,23.85,90.4,28.0,22.0,330,4,,2.17,29.88189,,,,,,TRUE,,,,HZ,CLR,,,,,,,,IFR,,,,,,,,,,,,METAR,11.0
VEPT 311930Z 27003KT 2500 BR FEW100 24/20 Q1012 NOSIG,VEPT,2022-10-31T19:30:00Z,25.6,85.08,24.0,20.0,270,3,,1.55,29.88189,,,,,,TRUE,,,,BR,FEW,10000,,,,,,,IFR,,,,,,,,,,,,METAR,53.0
VECC 311930Z 31003KT 3200 HZ NSC 25/20 Q1012 NOSIG,VECC,2022-10-31T19:30:00Z,22.65,88.43,25.0,20.0,310,3,,1.99,29.88189,,,,,,TRUE,,,,HZ,CLR,,,,,,,,IFR,,,,,,,,,,,,METAR,11.0
VEBS 311930Z 32001KT 3000 HZ FEW020 22/22 Q1013 NOSIG,VEBS,2022-10-31T19:30:00Z,20.25,85.82,22.0,22.0,320,1,,1.86,29.911417,,,,,,TRUE,,,,HZ,FEW,2000,,,,,,,IFR,,,,,,,,,,,,METAR,42.0
VDPP 311930Z 35002KT 9000 FEW017 26/22 Q1008,VDPP,2022-10-31T19:30:00Z,11.55,104.83,26.0,22.0,350,2,,5.59,29.763779,,,,,,,,,,,FEW,1700,,,,,,,VFR,,,,,,,,,,,,METAR,10.0
VANP 311930Z 00000KT 3000 HZ NSC 20/17 Q1015 NOSIG,VANP,2022-10-31T19:30:00Z,21.08,79.05,20.0,17.0,0,0,,1.86,29.970472,,,,,,TRUE,,,,HZ,CLR,,,,,,,,IFR,,,,,,,,,,,,METAR,309.0
VABB 311930Z 09003KT 3500 FU NSC 25/15 Q1011 NOSIG,VABB,2022-10-31T19:30:00Z,19.1,72.87,25.0,15.0,90,3,,2.17,29.852362,,,,,,TRUE,,,,FU,CLR,,,,,,,,IFR,,,,,,,,,,,,METAR,14.0
VAAH 311930Z 00000KT 4000 HZ NSC 21/16 Q1013 NOSIG,VAAH,2022-10-31T19:30:00Z,23.07,72.63,21.0,16.0,0,0,,2.49,29.911417,,,,,,TRUE,,,,HZ,CLR,,,,,,,,IFR,,,,,,,,,,,,METAR,52.0
UWWW 311930Z 28002MPS 9999 SCT033 01/M03 Q1000 R33/CLRD60 NOSIG RMK QFE740/0986,UWWW,2022-10-31T19:30:00Z,53.5,50.17,1.0,-3.0,280,4,,6.21,29.52756,,,,,,TRUE,,,,,SCT,3300,,,,,,,VFR,,,,,,,,,,,,SPECI,124.0
UWUU 311930Z 31002MPS 9999 -RA OVC014 01/01 Q0999 R32L/290344 NOSIG,UWUU,2022-10-31T19:30:00Z,54.57,55.87,1.0,1.0,310,4,,6.21,29.498032,,,,,,TRUE,,,,-RA,OVC,1400,,,,,,,MVFR,,,,,,,,,,,,SPECI,137.0
UWSG 311930Z 28004MPS CAVOK M01/M02 Q1003 R26/CLRD70 NOSIG RMK QFE749/0999,UWSG,2022-10-31T19:30:00Z,51.72,46.17,-1.0,-2.0,280,8,,6.21,29.616142,,,,,,TRUE,,,,,CAVOK,,,,,,,,VFR,,,,,,,,,,,,METAR,31.0
UWPS 311930Z 27004MPS 9999 BKN018 00/M02 Q1001 R20/CLRD60 NOSIG RMK QFE733,UWPS,2022-10-31T19:30:00Z,54.12,45.2,0.0,-2.0,270,8,,6.21,29.557087,,,,,,TRUE,,,,,BKN,1800,,,,,,,MVFR,,,,,,,,,,,,METAR,206.0
UWOO 311930Z 29003MPS 9999 -RA OVC012 06/05 Q0998 R26/290356 NOSIG RMK QFE738/0985,UWOO,2022-10-31T19:30:00Z,51.8,55.47,6.0,5.0,290,6,,6.21,29.468504,,,,,,TRUE,,,,-RA,OVC,1200,,,,,,,MVFR,,,,,,,,,,,,SPECI,90.0
UWLL 311930Z 27003MPS CAVOK 01/M02 Q1000 R20/090065 NOSIG RMK QFE740/0987,UWLL,2022-10-31T19:30:00Z,54.27,48.23,1.0,-2.0,270,6,,6.21,29.52756,,,,,,TRUE,,,,,CAVOK,,,,,,,,VFR,,,,,,,,,,,,SPECI,119.0
UWKS 311930Z 24004MPS 9999 OVC020CB M00/M01 Q0998 R24/690348 NOSIG RMK QFE735,UWKS,2022-10-31T19:30:00Z,56.08,47.35,0.0,-1.0,240,8,,6.21,29.468504,,,,,,TRUE,,,,,OVC,2000,,,,,,,MVFR,,,,,,,,,,,,METAR,165.0
UWKE 311930Z 21003MPS 9999 OVC018 M00/M01 Q0999 R21/090070 NOSIG RMK QFE733/0977,UWKE,2022-10-31T19:30:00Z,55.57,52.08,0.0,-1.0,210,6,,6.21,29.498032,,,,,,TRUE,,,,,OVC,1800,,,,,,,MVFR,,,,,,,,,,,,SPECI,193.0
UWKD 311930Z 26003MPS 9999 OVC030 00/M01 Q0999 R29/250055 NOSIG RMK QFE738/0984,UWKD,2022-10-31T19:30:00Z,55.62,49.28,0.0,-1.0,260,6,,6.21,29.498032,,,,,,TRUE,,,,,OVC,3000,,,,,,,MVFR,,,,,,,,,,,,SPECI,114.0
UWGG 311930Z 33004MPS 9999 -SN OVC007 01/01 Q1001 R36R/290050 NOSIG,UWGG,2022-10-31T19:30:00Z,56.23,43.78,1.0,1.0,330,8,,6.21,29.557087,,,,,,TRUE,,,,-SN,OVC,700,,,,,,,IFR,,,,,,,,,,,,SPECI,73.0
UUYY 311930Z 01003MPS 9999 BKN006 BKN020CB 02/01 Q1000 R36/29//51 NOSIG RMK QFE741/0988,UUYY,2022-10-31T19:30:00Z,61.65,50.83,2.0,1.0,10,6,,6.21,29.52756,,,,,,TRUE,,,,,BKN,600,BKN,2000,,,,,IFR,,,,,,,,,,,,METAR,107.0
UUWW 311930Z 33007MPS 9999 BKN016 01/M02 Q1011 R24/190045 NOSIG,UUWW,2022-10-31T19:30:00Z,55.6,37.27,1.0,-2.0,330,14,,6.21,29.852362,,,,,,TRUE,,,,,BKN,1600,,,,,,,MVFR,,,,,,,,,,,,METAR,195.0
UUOO 311930Z 31008G13MPS 9999 -SN OVC017 02/M01 Q1010 R30/010070 NOSIG RMK QFE744,UUOO,2022-10-31T19:30:00Z,51.82,39.23,2.0,-1.0,310,16,25,6.21,29.822834,,,,,,TRUE,,,,-SN,OVC,1700,,,,,,,MVFR,,,,,,,,,,,,SPECI,154.0
UUOL 311930Z 31008MPS 9999 BKN020 01/00 Q1008 R15/290150 NOSIG,UUOL,2022-10-31T19:30:00Z,52.7,39.53,1.0,0.0,310,16,,6.21,29.763779,,,,,,TRUE,,,,,BKN,2000,,,,,,,MVFR,,,,,,,,,,,,METAR,176.0
UUOK 311930Z AUTO 31006MPS 9999 // ///////// 00/M03 Q1014 RMK QFE742/0989,UUOK,2022-10-31T19:30:00Z,51.75,36.28,0.0,-3.0,310,12,,6.21,29.940945,,,TRUE,,,,,,,,,,,,,,,,,,,,,,,,,,,,METAR,203.0
UUOB 311930Z 31004MPS CAVOK 00/M03 Q1015 R29/010070 NOSIG,UUOB,2022-10-31T19:30:00Z,50.65,36.58,0.0,-3.0,310,8,,6.21,29.970472,,,,,,TRUE,,,,,CAVOK,,,,,,,,VFR,,,,,,,,,,,,METAR,218.0
UUMO 311930Z 34006MPS 9999 BKN018 02/M01 Q1011 R25/CLRD60 NOSIG RMK QFE743/0991,UUMO,2022-10-31T19:30:00Z,55.52,37.5,2.0,-1.0,340,12,,6.21,29.852362,,,,,,TRUE,,,,,BKN,1800,,,,,,,MVFR,,,,,,,,,,,,METAR,167.0
UUEE 311930Z 31007MPS 9999 OVC013 01/M02 Q1011 R24L/150051 R24C/150051 NOSIG,UUEE,2022-10-31T19:30:00Z,55.97,37.42,1.0,-2.0,310,14,,6.21,29.852362,,,,,,TRUE,,,,,OVC,1300,,,,,,,MVFR,,,,,,,,,,,,METAR,186.0
UUDL 311930Z 33005MPS 9999 OVC011 02/01 Q1008 R23/290245 NOSIG RMK QFE747,UUDL,2022-10-31T19:30:00Z,57.57,40.17,2.0,1.0,330,10,,6.21,29.763779,,,,,,TRUE,,,,,OVC,1100,,,,,,,MVFR,,,,,,,,,,,,METAR,88.0
UUDD 311930Z 33010MPS 9999 BKN017 02/M02 Q1010 R32L/190050 NOSIG,UUDD,2022-10-31T19:30:00Z,55.4,37.9,2.0,-2.0,330,19,,6.21,29.822834,,,,,,TRUE,,,,,BKN,1700,,,,,,,MVFR,,,,,,,,,,,,METAR,165.0
UUBW 311930Z 31008MPS 9999 BKN017 02/M01 Q1010 R30/010060 NOSIG,UUBW,2022-10-31T19:30:00Z,55.55,38.15,2.0,-1.0,310,16,,6.21,29.822834,,,,,,TRUE,,,,,BKN,1700,,,,,,,MVFR,,,,,,,,,,,,METAR,111.0
UUBP 311930Z AUTO 30005MPS 9999 NCD 01/M03 Q1016 RMK QFE743/0991,UUBP,2022-10-31T19:30:00Z,53.22,34.18,1.0,-3.0,300,10,,6.21,30.0,,,TRUE,,,,,,,,CLR,,,,,,,,VFR,,,,,,,,,,,,SPECI,197.0
UUBC 311930Z AUTO 34007MPS 9999 // ///020/// 02/M01 Q1013 RMK QFE743/0990,UUBC,2022-10-31T19:30:00Z,54.55,36.37,2.0,-1.0,340,14,,6.21,29.911417,,,TRUE,,,,,,,,,,,,,,,,,,,,,,,,,,,,METAR,198.0
UTTT 311930Z VRB02KT 4000 BR NSC 10/07 Q1020 R08L/CLRD70 NOSIG,UTTT,2022-10-31T19:30:00Z,41.27,69.27,10.0,7.0,0,2,,2.49,30.11811,,,,,,TRUE,,,,BR,CLR,,,,,,,,IFR,,,,,,,,,,,,METAR,429.0
UTST 311930Z 02006KT CAVOK 13/10 Q1018 R25/CLRD70 NOSIG,UTST,2022-10-31T19:30:00Z,37.28,67.32,13.0,10.0,20,6,,6.21,30.059055,,,,,,TRUE,,,,,CAVOK,,,,,,,,VFR,,,,,,,,,,,,METAR,311.0
UTSS 311930Z 12006KT 9999 NSC 08/06 Q1018 R09/CLRD70 NOSIG,UTSS,2022-10-31T19:30:00Z,39.7,66.98,8.0,6.0,120,6,,6.21,30.059055,,,,,,TRUE,,,,,CLR,,,,,,,,VFR,,,,,,,,,,,,METAR,665.0
UTSK 311930Z 09002KT CAVOK 12/04 Q1018 R16/CLRD70,UTSK,2022-10-31T19:30:00Z,38.8,65.77,12.0,4.0,90,2,,6.21,30.059055,,,,,,,,,,,CAVOK,,,,,,,,VFR,,,,,,,,,,,,METAR,399.0
UTSB 311930Z 08004KT CAVOK 08/03 Q1017 R01/CLRD70 NOSIG,UTSB,2022-10-31T19:30:00Z,39.77,64.48,8.0,3.0,80,4,,6.21,30.029528,,,,,,TRUE,,,,,CAVOK,,,,,,,,VFR,,,,,,,,,,,,METAR,225.0
UTSA 311930Z 10008KT 6000 NSC 10/06 Q1018 R07/CLRD70 NOSIG,UTSA,2022-10-31T19:30:00Z,40.12,65.17,10.0,6.0,100,8,,3.73,30.059055,,,,,,TRUE,,,,,CLR,,,,,,,,MVFR,,,,,,,,,,,,METAR,346.0
UTNU 311930Z 12010KT CAVOK 11/06 Q1015 R13/CLRD70 NOSIG,UTNU,2022-10-31T19:30:00Z,41.58,60.63,11.0,6.0,120,10,,6.21,29.970472,,,,,,TRUE,,,,,CAVOK,,,,,,,,VFR,,,,,,,,,,,,METAR,97.0
UTNN 311930Z 12010KT CAVOK 13/06 Q1014 R33/CLRD60 NOSIG,UTNN,2022-10-31T19:30:00Z,42.48,59.63,13.0,6.0,120,10,,6.21,29.940945,,,,,,TRUE,,,,,CAVOK,,,,,,,,VFR,,,,,,,,,,,,METAR,76.0
UTFN 311930Z 32006KT 9000 NSC 10/04 Q1022 R28/CLRD70 NOSIG,UTFN,2022-10-31T19:30:00Z,40.98,71.57,10.0,4.0,320,6,,5.59,30.177166,,,,,,TRUE,,,,,CLR,,,,,,,,VFR,,,,,,,,,,,,METAR,477.0
UTFF 311930Z VRB02KT 5000 BR NSC 08/06 Q1023 R18/CLRD70,UTFF,2022-10-31T19:30:00Z,40.37,71.73,8.0,6.0,0,2,,3.11,30.206694,,,,,,,,,,BR,CLR,,,,,,,,MVFR,,,,,,,,,,,,METAR,612.0
UTDT 311930Z 18001MPS 5000 BR FEW130 11/10 Q1018 R35/////// RMK QFE724/0965,UTDT,2022-10-31T19:30:00Z,37.87,68.87,11.0,10.0,180,2,,3.11,30.059055,,,,,,,,,,BR,FEW,13000,,,,,,,MVFR,,,,,,,,,,,,METAR,443.0
UTDL 311930Z 07008MPS 9999 NSC 12/09 Q1021 R08/CLRD70 NOSIG RMK QFE726/0969,UTDL,2022-10-31T19:30:00Z,40.22,69.7,12.0,9.0,70,16,,6.21,30.147638,,,,,,TRUE,,,,,CLR,,,,,,,,VFR,,,,,,,,,,,,SPECI,436.0
UTDK 311930Z 05002MPS 9999 NSC 13/09 Q1020 R01/09//70 RMK QFE707/0943,UTDK,2022-10-31T19:30:00Z,37.98,69.8,13.0,9.0,50,4,,6.21,30.11811,,,,,,,,,,,CLR,,,,,,,,VFR,,,,,,,,,,,,METAR,675.0
UTDD 311930Z 01001MPS 9999 NSC 11/08 Q1021 R09/D NOSIG RMK QFE697/0929,UTDD,2022-10-31T19:30:00Z,38.53,68.82,11.0,8.0,10,2,,6.21,30.147638,,,,,,TRUE,,,,,CLR,,,,,,,,VFR,,,,,,,,,,,,METAR,785.0
USTR 311930Z 18005MPS 9999 -DZ OVC007 02/01 Q1007 R21/CLRD65 R12/CLRD65 TEMPO BKN003 BKN016CB,USTR,2022-10-31T19:30:00Z,57.18,65.32,2.0,1.0,180,10,,6.21,29.734253,,,,,,,,,,-DZ,OVC,700,,,,,,,IFR,,,,,,,,,,,,SPECI,93.0
USSS 311930Z 14005MPS 7000 OVC002 03/03 Q1001 R08R/290050 R08L/590232 TEMPO 3100 BR VV002 RMK QFE731/0975,USSS,2022-10-31T19:30:00Z,56.75,60.78,3.0,3.0,140,10,,4.35,29.557087,,,,,,,,,,,OVC,200,,,,,,,LIFR,,,,,,,,,,,,SPECI,222.0
USRR 311930Z 17004MPS 130V210 CAVOK M02/M05 Q1011 R07/CLRD60 NOSIG RMK QFE754,USRR,2022-10-31T19:30:00Z,61.33,73.42,-2.0,-5.0,170,8,,6.21,29.852362,,,,,,TRUE,,,,,CAVOK,,,,,,,,VFR,,,,,,,,,,,,SPECI,52.0
USPP 311930Z 25006MPS 9999 -RASN SCT007 OVC014 02/00 Q0998 R21/290250 TEMPO 30005G11MPS RMK QFE738,USPP,2022-10-31T19:30:00Z,57.92,56.02,2.0,0.0,250,12,,6.21,29.468504,,,,,,,,,,-RA -SN,SCT,700,OVC,1400,,,,,MVFR,,,,,,,,,,,,SPECI,120.0
USNN 311930Z 17005MPS CAVOK M05/M06 Q1016 R21/0///65 NOSIG RMK QFE757,USNN,2022-10-31T19:30:00Z,60.95,76.48,-5.0,-6.0,170,10,,6.21,30.0,,,,,,TRUE,,,,,CAVOK,,,,,,,,VFR,,,,,,,,,,,,SPECI,52.0
USHH 311930Z 16004G09MPS 9999 -SHSN BKN008CB M02/M02 Q1008 R06/490537 TEMPO 0500 +SHSN BKN003 OVC010CB,USHH,2022-10-31T19:30:00Z,61.03,69.08,-2.0,-2.0,160,8,17,6.21,29.763779,,,,,,,,,,-SHSN,BKN,800,,,,,,,IFR,,,,,,,,,,,,METAR,46.0
USDA 311930Z AUTO 20010MPS 8000 ///018/// M03/M04 Q0997 RMK QFE747/0996,USDA,2022-10-31T19:30:00Z,71.2,72.05,-3.0,-4.0,200,19,,4.97,29.438976,,,TRUE,,,,,,,,,,,,,,,,,,,,,,,,,,,,METAR,5.0
USCM 311930Z 16009MPS 2800 -DZ BR VV002 06/06 Q0999 R18/290155 TEMPO 15016MPS 0300 DZ FG RMK QBB060 QFE712,USCM,2022-10-31T19:30:00Z,53.4,58.75,6.0,6.0,160,17,,1.74,29.498032,,,,,,,,,,-DZ BR,OVX,0,,,,,,,LIFR,,,,,,,,,,,200,METAR,425.0
USCC 311930Z 14005MPS 2000 R09/P2000D BR FU VV001 02/02 Q1003 R09/290045 NOSIG RMK QBB050 QFE732,USCC,2022-10-31T19:30:00Z,55.3,61.5,2.0,2.0,140,10,,1.24,29.616142,,,,,,TRUE,,,,FU BR,OVX,0,,,,,,,LIFR,,,,,,,,,,,100,SPECI,227.0
URWW 311930Z 29006MPS CAVOK M00/M02 Q1007 R24/290051 TEMPO OVC004,URWW,2022-10-31T19:30:00Z,48.78,44.33,0.0,-2.0,290,12,,6.21,29.734253,,,,,,,,,,,CAVOK,,,,,,,,VFR,,,,,,,,,,,,SPECI,131.0
URWI 311930Z AUTO 30009MPS 9999 // ///064/// 03/M02 Q1010,URWI,2022-10-31T19:30:00Z,46.37,44.33,3.0,-2.0,300,17,,6.21,29.822834,,,TRUE,,,,,,,,,,,,,,,,,,,,,,,,,,,,SPECI,145.0
URWA 311930Z 28010MPS 9999 BKN012CB 08/06 Q1005 R27/290055 NOSIG RMK QFE756/1008,URWA,2022-10-31T19:30:00Z,46.28,47.98,8.0,6.0,280,19,,6.21,29.675198,,,,,,TRUE,,,,,BKN,1200,,,,,,,MVFR,,,,,,,,,,,,SPECI,-19.0
URSS 311930Z 05003MPS 030V100 9999 -SHRA OVC040CB 12/11 Q1015 WS ALL RWY R02/210260 R06/210260 NOSIG RMK R06/09003MPS MT OBSC QFE760,URSS,2022-10-31T19:30:00Z,43.45,39.92,12.0,11.0,50,6,,6.21,29.970472,,,,,,TRUE,,,,-SHRA,OVC,4000,,,,,,,VFR,,,,,,,,,,,,SPECI,4.0
URRP 311930Z 31005MPS CAVOK 02/M02 Q1015 R05/CLRD70 NOSIG RMK QFE757/1009,URRP,2022-10-31T19:30:00Z,47.5,39.92,2.0,-2.0,310,10,,6.21,29.970472,,,,,,TRUE,,,,,CAVOK,,,,,,,,VFR,,,,,,,,,,,,METAR,73.0
URMT 311930Z 33007MPS 9999 SCT013 BKN028CB 03/01 Q1013 R25/290155 NOSIG RMK QFE721,URMT,2022-10-31T19:30:00Z,45.12,42.12,3.0,1.0,330,14,,6.21,29.911417,,,,,,TRUE,,,,,SCT,1300,BKN,2800,,,,,MVFR,,,,,,,,,,,,SPECI,448.0
URMO 311930Z 00000MPS 9999 SCT034 07/05 Q1011 R09/010070 NOSIG RMK QFE715/0954,URMO,2022-10-31T19:30:00Z,43.2,44.6,7.0,5.0,0,0,,6.21,29.852362,,,,,,TRUE,,,,,SCT,3400,,,,,,,VFR,,,,,,,,,,,,METAR,505.0
URMM 311930Z 32006MPS 9999 OVC015CB 05/02 Q1014 WS R30 R30/290250 NOSIG RMK MT OBSC QFE732/0977,URMM,2022-10-31T19:30:00Z,44.22,43.07,5.0,2.0,320,12,,6.21,29.940945,,,,,,TRUE,,,,,OVC,1500,,,,,,,MVFR,,,,,,,,,,,,SPECI,318.0
URML 311930Z 27005MPS 9999 NSC 12/06 Q1008 R14/01//70 NOSIG RMK QFE756/1008,URML,2022-10-31T19:30:00Z,42.82,47.65,12.0,6.0,270,10,,6.21,29.763779,,,,,,TRUE,,,,,CLR,,,,,,,,VFR,,,,,,,,,,,,SPECI,4.0
URMG 311930Z 35008MPS 9999 BKN048 12/09 Q1010 R08/090070 NOSIG RMK QFE743/0990,URMG,2022-10-31T19:30:00Z,43.38,45.7,12.0,9.0,350,16,,6.21,29.822834,,,,,,TRUE,,,,,BKN,4800,,,,,,,VFR,,,,,,,,,,,,METAR,160.0
URKK 311930Z 33004MPS 300V020 9999 SCT/// 06/01 Q1018 R23L/290060 NOSIG RMK QFE760,URKK,2022-10-31T19:30:00Z,45.03,39.15,6.0,1.0,330,8,,6.21,30.059055,,,,,,TRUE,,,,,,,,,,,,,,,,,,,,,,,,,SPECI,29.0
URKA 311930Z 02003MPS 9999 SCT041 07/03 Q1018 R04/010070 NOSIG RMK QFE760/1013,URKA,2022-10-31T19:30:00Z,45.0,37.35,7.0,3.0,20,6,,6.21,30.059055,,,,,,TRUE,,,,,SCT,4100,,,,,,,VFR,,,,,,,,,,,,SPECI,41.0
UNWW 311930Z 16002MPS 9999 BKN012 OVC023CB 00/00 Q1022 R19/290250 NOSIG RMK QFE739,UNWW,2022-10-31T19:30:00Z,53.82,86.88,0.0,0.0,160,4,,6.21,30.177166,,,,,,TRUE,,,,,BKN,1200,OVC,2300,,,,,MVFR,,,,,,,,,,,,SPECI,307.0
UNTT 311930Z 00000MPS CAVOK M07/M07 Q1021 R21/////// NOSIG RMK QFE751,UNTT,2022-10-31T19:30:00Z,56.38,85.22,-7.0,-7.0,0,0,,6.21,30.147638,,,,,,TRUE,,,,,CAVOK,,,,,,,,VFR,,,,,,,,,,,,METAR,179.0
UNOO 311930Z 15002MPS 8000 NSC M06/M06 Q1020 R25/190055 NOSIG RMK QFE757,UNOO,2022-10-31T19:30:00Z,54.97,73.32,-6.0,-6.0,150,4,,4.97,30.11811,,,,,,TRUE,,,,,CLR,,,,,,,,MVFR,,,,,,,,,,,,SPECI,85.0
UNNT 311930Z 27002MPS CAVOK M07/M08 Q1023 R07/150060 R16/150060 NOSIG RMK QFE757/1009,UNNT,2022-10-31T19:30:00Z,55.02,82.65,-7.0,-8.0,270,4,,6.21,30.206694,,,,,,TRUE,,,,,CAVOK,,,,,,,,VFR,,,,,,,,,,,,SPECI,106.0
UNKL 311930Z 00000MPS CAVOK M12/M13 Q1024 R29/CLRD65 NOSIG RMK QFE742,UNKL,2022-10-31T19:30:00Z,56.17,92.48,-12.0,-13.0,0,0,,6.21,30.236221,,,,,,TRUE,,,,,CAVOK,,,,,,,,VFR,,,,,,,,,,,,SPECI,278.0
UNEE 311930Z 18002MPS 9999 OVC009 M00/M01 Q1021 R23/120155 NOSIG RMK QFE742,UNEE,2022-10-31T19:30:00Z,55.27,86.1,0.0,-1.0,180,4,,6.21,30.147638,,,,,,TRUE,,,,,OVC,900,,,,,,,IFR,,,,,,,,,,,,SPECI,261.0
UNBB 311930Z 27006MPS 2300 R24/P2000N BR SCT003 BKN017CB M00/M01 Q1022 R24/290245 NOSIG RMK QFE744,UNBB,2022-10-31T19:30:00Z,53.37,83.53,0.0,-1.0,270,12,,1.43,30.177166,,,,,,TRUE,,,,BR,SCT,300,BKN,1700,,,,,IFR,,,,,,,,,,,,SPECI,249.0
UNAA 311930Z 00000MPS 8000 NSC M05/M07 Q1024 R02/150060 NOSIG RMK QFE745,UNAA,2022-10-31T19:30:00Z,53.75,91.4,-5.0,-7.0,0,0,,4.97,30.236221,,,,,,TRUE,,,,,CLR,,,,,,,,MVFR,,,,,,,,,,,,SPECI,249.0
UMMS 311930Z 32003MPS CAVOK 01/M01 Q1021 NOSIG,UMMS,2022-10-31T19:30:00Z,53.88,28.03,1.0,-1.0,320,6,,6.21,30.147638,,,,,,TRUE,,,,,CAVOK,,,,,,,,VFR,,,,,,,,,,,,METAR,196.0
UMKK 311930Z 15002MPS 120V190 9000 BKN009 OVC013 11/11 Q1020 R24/95D NOSIG RMK QFE764/1018,UMKK,2022-10-31T19:30:00Z,54.88,20.57,11.0,11.0,150,4,,5.59,30.11811,,,,,,TRUE,,,,,BKN,900,OVC,1300,,,,,IFR,,,,,,,,,,,,METAR,6.0
UMIO 311930Z 31002MPS CAVOK 01/M03 Q1020 NOSIG RMK QFE747/0996,UMIO,2022-10-31T19:30:00Z,54.43,30.3,1.0,-3.0,310,4,,6.21,30.11811,,,,,,TRUE,,,,,CAVOK,,,,,,,,VFR,,,,,,,,,,,,METAR,189.0
ULWC 311930Z 32004MPS 9000 -SHSNRA BKN010 OVC020CB 00/M01 Q1012 R21/690150 NOSIG RMK QFE749/0999,ULWC,2022-10-31T19:30:00Z,59.28,38.02,0.0,-1.0,320,8,,5.59,29.88189,,,,,,TRUE,,,,-SHSN -SHRA,BKN,1000,OVC,2000,,,,,MVFR,,,,,,,,,,,,METAR,113.0
ULOO 311930Z 15001MPS 5000 BR NSC M01/M01 Q1020 R01/090060 NOSIG RMK QFE760,ULOO,2022-10-31T19:30:00Z,57.78,28.4,-1.0,-1.0,150,2,,3.11,30.11811,,,,,,TRUE,,,,BR,CLR,,,,,,,,MVFR,,,,,,,,,,,,SPECI,46.0
ULMM 311930Z 00000MPS 9999 BKN021 M00/M00 Q1010 R31/690153 NOSIG RMK QFE750,ULMM,2022-10-31T19:30:00Z,68.78,32.75,0.0,0.0,0,0,,6.21,29.822834,,,,,,TRUE,,,,,BKN,2100,,,,,,,MVFR,,,,,,,,,,,,SPECI,79.0
ULLI 311930Z 24001MPS CAVOK 00/M03 Q1018 R28L/090060 NOSIG,ULLI,2022-10-31T19:30:00Z,59.8,30.27,0.0,-3.0,240,2,,6.21,30.059055,,,,,,TRUE,,,,,CAVOK,,,,,,,,VFR,,,,,,,,,,,,METAR,25.0
ULAA 311930Z 00000MPS 9999 FEW026 00/M00 Q1010 R26/190065 NOSIG RMK QFE756/1008,ULAA,2022-10-31T19:30:00Z,64.6,40.72,0.0,0.0,0,0,,6.21,29.822834,,,,,,TRUE,,,,,FEW,2600,,,,,,,VFR,,,,,,,,,,,,SPECI,10.0
UIUU 311930Z VRB01MPS 9999 FEW040 M13/M15 Q1025 R26/CLRD60 NOSIG RMK QFE725/0966,UIUU,2022-10-31T19:30:00Z,51.8,107.45,-13.0,-15.0,0,2,,6.21,30.265747,,,,,,TRUE,,,,,FEW,4000,,,,,,,VFR,,,,,,,,,,,,SPECI,508.0
UIII 311930Z 09002MPS CAVOK M13/M15 Q1026 R12/CLRD60 NOSIG RMK QFE727/0970,UIII,2022-10-31T19:30:00Z,52.27,104.37,-13.0,-15.0,90,4,,6.21,30.295275,,,,,,TRUE,,,,,CAVOK,,,,,,,,VFR,,,,,,,,,,,,SPECI,480.0
UIBB 311930Z AUTO 08002MPS 9999 // NCD M11/M15 Q1027 RMK QFE727/0969,UIBB,2022-10-31T19:30:00Z,56.37,101.7,-11.0,-15.0,80,4,,6.21,30.324802,,,TRUE,,,,,,,,CLR,,,,,,,,VFR,,,,,,,,,,,,SPECI,485.0
UIAA 311930Z 29004MPS 9999 NSC M11/M15 Q1020 R29/490160 NOSIG RMK QFE706/0942,UIAA,2022-10-31T19:30:00Z,52.02,113.32,-11.0,-15.0,290,8,,6.21,30.11811,,,,,,TRUE,,,,,CLR,,,,,,,,VFR,,,,,,,,,,,,SPECI,650.0
UHWW 311930Z 34002MPS 9999 -SHRA SCT006 BKN023CB 09/09 Q1019 R25L/290060 NOSIG RMK QFE763,UHWW,2022-10-31T19:30:00Z,43.4,132.15,9.0,9.0,340,4,,6.21,30.088583,,,,,,TRUE,,,,-SHRA,SCT,600,BKN,2300,,,,,MVFR,,,,,,,,,,,,METAR,11.0
UHSS 311930Z 19001MPS 9999 BKN012 06/05 Q1024 R01/70D NOSIG RMK MT OBSC QFE767/1023,UHSS,2022-10-31T19:30:00Z,46.88,142.72,6.0,5.0,190,2,,6.21,30.236221,,,,,,TRUE,,,,,BKN,1200,,,,,,,MVFR,,,,,,,,,,,,METAR,14.0
UHPP 311930Z 01002MPS CAVOK M06/M12 Q1023 R34L/110065 NOSIG RMK QFE764/1018,UHPP,2022-10-31T19:30:00Z,53.17,158.45,-6.0,-12.0,10,4,,6.21,30.206694,,,,,,TRUE,,,,,CAVOK,,,,,,,,VFR,,,,,,,,,,,,METAR,33.0
UHHH 311930Z 15004MPS 9999 SCT040CB 04/02 Q1016 R23R/290045 NOSIG RMK QFE756/1008,UHHH,2022-10-31T19:30:00Z,48.52,135.18,4.0,2.0,150,8,,6.21,30.0,,,,,,TRUE,,,,,SCT,4000,,,,,,,VFR,,,,,,,,,,,,METAR,74.0
UGTB 311930Z 31019KT CAVOK 13/04 Q1012 NOSIG,UGTB,2022-10-31T19:30:00Z,41.67,44.95,13.0,4.0,310,19,,6.21,29.88189,,,,,,TRUE,,,,,CAVOK,,,,,,,,VFR,,,,,,,,,,,,METAR,468.0
UGSB 311930Z 24013G23KT 7000 -SHRA SCT014 BKN025CB 14/13 Q1018 NOSIG,UGSB,2022-10-31T19:30:00Z,41.62,41.6,14.0,13.0,240,13,23,4.35,30.059055,,,,,,TRUE,,,,-SHRA,SCT,1400,BKN,2500,,,,,MVFR,,,,,,,,,,,,METAR,32.0
UGMS 311930Z AUTO VRB02KT //// ////// 01/01 Q1017,UGMS,2022-10-31T19:30:00Z,43.05,42.75,1.0,1.0,0,2,,,30.029528,,,TRUE,,,,,,,,,,,,,,,,,,,,,,,,,,,,METAR,1442.0
UGKO 311930Z AUTO 36006KT 9999 -RA FEW022/// SCT028/// BKN170/// 11/10 Q1016 NOSIG,UGKO,2022-10-31T19:30:00Z,42.18,42.48,11.0,10.0,360,6,,6.21,30.0,,,TRUE,,,TRUE,,,,-RA,FEW,2200,SCT,2800,BKN,17000,,,VFR,,,,,,,,,,,,METAR,44.0
UGAM 311930Z AUTO VRB02KT //// ////// 07/07 Q1016,UGAM,2022-10-31T19:30:00Z,42.53,43.13,7.0,7.0,0,2,,,30.0,,,TRUE,,,,,,,,,,,,,,,,,,,,,,,,,,,,METAR,544.0
UEEE 311930Z 32003MPS 9999 SCT024 M15/M18 Q1019 R23L/450155 NOSIG RMK QFE755,UEEE,2022-10-31T19:30:00Z,62.08,129.77,-15.0,-18.0,320,6,,6.21,30.088583,,,,,,TRUE,,,,,SCT,2400,,,,,,,VFR,,,,,,,,,,,,METAR,106.0
UDYZ 311930Z VRB02KT 9999 NSC 10/00 Q1012 R09/010070 NOSIG,UDYZ,2022-10-31T19:30:00Z,40.15,44.4,10.0,0.0,0,2,,6.21,29.88189,,,,,,TRUE,,,,,CLR,,,,,,,,VFR,,,,,,,,,,,,SPECI,851.0
UDSG 311930Z 23006KT 9999 FEW049 08/M02 Q1015 R02/////// NOSIG,UDSG,2022-10-31T19:30:00Z,40.75,43.87,8.0,-2.0,230,6,,6.21,29.970472,,,,,,TRUE,,,,,FEW,4900,,,,,,,VFR,,,,,,,,,,,,METAR,1515.0
UCFO 311930Z 18002MPS 150V220 4500 BR NSC 06/04 Q1022 R12/0///95 NOSIG,UCFO,2022-10-31T19:30:00Z,40.6,72.8,6.0,4.0,180,4,,2.8,30.177166,,,,,,TRUE,,,,BR,CLR,,,,,,,,IFR,,,,,,,,,,,,METAR,881.0
UCFM 311930Z 09003MPS 2200 BR NSC 03/03 Q1022 R08/0///95 NOSIG,UCFM,2022-10-31T19:30:00Z,43.07,74.48,3.0,3.0,90,6,,1.37,30.177166,,,,,,TRUE,,,,BR,CLR,,,,,,,,IFR,,,,,,,,,,,,METAR,632.0
UBBZ 311930Z AUTO 00000KT 9999 // ///////// 14/07 Q1011,UBBZ,2022-10-31T19:30:00Z,,,14.0,7.0,0,0,,6.21,29.852362,,,TRUE,,,,,,,,,,,,,,,,,,,,,,,,,,,,METAR,
UBBN 311930Z 01008KT 9999 FEW046 SCT100 10/02 Q1011 NOSIG RMK MT OP QFE684,UBBN,2022-10-31T19:30:00Z,39.18,45.45,10.0,2.0,10,8,,6.21,29.852362,,,,,,TRUE,,,,,FEW,4600,SCT,10000,,,,,VFR,,,,,,,,,,,,SPECI,857.0
UBBG 311930Z 28016KT 9999 SCT100 15/01 Q1011 NOSIG,UBBG,2022-10-31T19:30:00Z,40.73,46.32,15.0,1.0,280,16,,6.21,29.852362,,,,,,TRUE,,,,,SCT,10000,,,,,,,VFR,,,,,,,,,,,,METAR,333.0
UBBF 311930Z AUTO 30010KT 9999 // ///////// 12/03 Q1009,UBBF,2022-10-31T19:30:00Z,39.6,47.2,12.0,3.0,300,10,,6.21,29.793306,,,TRUE,,,,,,,,,,,,,,,,,,,,,,,,,,,,METAR,370.0
UBBB 311930Z 14006KT CAVOK 12/11 Q1007 NOSIG,UBBB,2022-10-31T19:30:00Z,40.47,50.07,12.0,11.0,140,6,,6.21,29.734253,,,,,,TRUE,,,,,CAVOK,,,,,,,,VFR,,,,,,,,,,,,METAR,94.0
UAUU 311930Z 14007MPS 9999 BKN003 OVC040 02/01 Q1009 NOSIG RMK QBB090 QFE740/0987,UAUU,2022-10-31T19:30:00Z,53.2,63.55,2.0,1.0,140,14,,6.21,29.793306,,,,,,TRUE,,,,,BKN,300,OVC,4000,,,,,LIFR,,,,,,,,,,,,SPECI,177.0
UATT 311930Z 20008MPS 9999 BKN016 09/08 Q1002 NOSIG RMK QFE732/0976,UATT,2022-10-31T19:30:00Z,50.25,57.2,9.0,8.0,200,16,,6.21,29.586615,,,,,,TRUE,,,,,BKN,1600,,,,,,,MVFR,,,,,,,,,,,,METAR,217.0
UATG 311930Z 23009MPS 5000 -SHRA BR SCT008 OVC033CB 10/09 Q1002 NOSIG RMK QFE754/1005,UATG,2022-10-31T19:30:00Z,47.12,51.83,10.0,9.0,230,17,,3.11,29.586615,,,,,,TRUE,,,,-SHRA BR,SCT,800,OVC,3300,,,,,MVFR,,,,,,,,,,,,SPECI,-23.0
UATE 311930Z 21002MPS 180V240 8000 NSC 12/11 Q1007 NOSIG RMK QFE754/1005,UATE,2022-10-31T19:30:00Z,43.87,51.1,12.0,11.0,210,4,,4.97,29.734253,,,,,,TRUE,,,,,CLR,,,,,,,,MVFR,,,,,,,,,,,,METAR,21.0
UASP 311930Z 20001MPS CAVOK M01/M02 Q1024 NOSIG RMK QFE757/1009,UASP,2022-10-31T19:30:00Z,52.2,77.07,-1.0,-2.0,200,2,,6.21,30.236221,,,,,,TRUE,,,,,CAVOK,,,,,,,,VFR,,,,,,,,,,,,SPECI,122.0
UAKK 311930Z 21004MPS 9999 BKN033 02/01 Q1023 NOSIG RMK QFE720/0960,UAKK,2022-10-31T19:30:00Z,49.68,73.35,2.0,1.0,210,8,,6.21,30.206694,,,,,,TRUE,,,,,BKN,3300,,,,,,,VFR,,,,,,,,,,,,SPECI,532.0
UAIT 311930Z 07005MPS CAVOK 05/03 Q1021 NOSIG RMK QFE741/0988,UAIT,2022-10-31T19:30:00Z,43.32,68.55,5.0,3.0,70,10,,6.21,30.147638,,,,,,TRUE,,,,,CAVOK,,,,,,,,VFR,,,,,,,,,,,,METAR,301.0
UADD 311930Z 16002MPS 5000 BR NSC 03/02 Q1021 NOSIG RMK QFE709/0945,UADD,2022-10-31T19:30:00Z,42.85,71.3,3.0,2.0,160,4,,3.11,30.147638,,,,,,TRUE,,,,BR,CLR,,,,,,,,MVFR,,,,,,,,,,,,SPECI,663.0
UACC 311930Z 19003MPS CAVOK M01/M02 Q1021 NOSIG RMK QFE735/0980,UACC,2022-10-31T19:30:00Z,51.02,71.47,-1.0,-2.0,190,6,,6.21,30.147638,,,,,,TRUE,,,,,CAVOK,,,,,,,,VFR,,,,,,,,,,,,METAR,354.0
UAAA 311930Z 15002MPS 3900 BR FEW100 03/01 Q1024 NOSIG,UAAA,2022-10-31T19:30:00Z,43.35,77.03,3.0,1.0,150,4,,2.42,30.236221,,,,,,TRUE,,,,BR,FEW,10000,,,,,,,IFR,,,,,,,,,,,,METAR,673.0
TFFR 311930Z AUTO 13011KT 100V160 CAVOK 30/24 Q1011,TFFR,2022-10-31T19:30:00Z,16.27,-61.53,30.0,24.0,130,11,,6.21,29.852362,,,TRUE,,,,,,,,CAVOK,,,,,,,,VFR,,,,,,,,,,,,METAR,6.0
TFFF 311930Z AUTO 11014KT 9999 FEW026 BKN033 30/24 Q1011,TFFF,2022-10-31T19:30:00Z,14.6,-61.0,30.0,24.0,110,14,,6.21,29.852362,,,TRUE,,,,,,,,FEW,2600,BKN,3300,,,,,VFR,,,,,,,,,,,,METAR,3.0
SPZO 311930Z 01012KT 340V050 9999 SCT050 23/M04 Q1023 NOSIG RMK BIRD HAZARD RWY 10/28,SPZO,2022-10-31T19:30:00Z,-13.55,-71.93,23.0,-4.0,10,12,,6.21,30.206694,,,,,,TRUE,,,,,SCT,5000,,,,,,,VFR,,,,,,,,,,,,METAR,3249.0
SPJR 311930Z 18008KT 9999 FEW027 24/00 Q1022,SPJR,2022-10-31T19:30:00Z,-7.13,-78.48,24.0,0.0,180,8,,6.21,30.177166,,,,,,,,,,,FEW,2700,,,,,,,VFR,,,,,,,,,,,,METAR,2622.0
SOCA 311930Z AUTO 07012KT 9999 BKN019 BKN026 BKN036 30/25 Q1010 TEMPO 3000 SHRA SCT015 BKN020CB BECMG VRB02KT,SOCA,2022-10-31T19:30:00Z,4.82,-52.37,30.0,25.0,70,12,,6.21,29.822834,,,TRUE,,,,,,,,BKN,1900,BKN,2600,BKN,3600,,,MVFR,,,,,,,,,,,,METAR,7.0
SBRJ 311930Z 14016G34KT 9000 TS SCT020 FEW030CB BKN040 OVC100 28/23 Q1007,SBRJ,2022-10-31T19:30:00Z,-22.9,-43.17,28.0,23.0,140,16,34,5.59,29.734253,,,,,,,,,,TS,SCT,2000,FEW,3000,BKN,4000,OVC,10000,VFR,,,,,,,,,,,,METAR,6.0
ROIG 311930Z AUTO 03024G36KT 2500 RA BR BKN005 BKN007 OVC012 //////TCU 23/23 Q1007 RMK A2975 RI007 TCU 10KM NW MOV N,ROIG,2022-10-31T19:30:00Z,24.38,124.23,23.0,23.0,30,24,36,1.55,29.734253,,,TRUE,,,,,,,RA BR,BKN,500,BKN,700,OVC,1200,,,IFR,,,,,,,,,,,,SPECI,37.0
ROAH 311930Z AUTO 04016KT 9000 -RA FEW007 BKN010 OVC035 22/21 Q1009 RMK A2981,ROAH,2022-10-31T19:30:00Z,26.18,127.65,22.0,21.0,40,16,,5.59,29.793306,,,TRUE,,,,,,,-RA,FEW,700,BKN,1000,OVC,3500,,,MVFR,,,,,,,,,,,,METAR,6.0
RKSI 311930Z 14002KT 3500 BR SCT020 11/11 Q1022 NOSIG,RKSI,2022-10-31T19:30:00Z,37.47,126.45,11.0,11.0,140,2,,2.17,30.177166,,,,,,TRUE,,,,BR,SCT,2000,,,,,,,IFR,,,,,,,,,,,,METAR,7.0
RJTT 311930Z 35011KT 9999 FEW030 SCT100 BKN/// 14/09 Q1025 NOSIG RMK 1CU030 4AC100 A3027,RJTT,2022-10-31T19:30:00Z,35.55,139.77,14.0,9.0,350,11,,6.21,30.265747,,,,,,TRUE,,,,,FEW,3000,SCT,10000,,,,,VFR,,,,,,,,,,,,METAR,5.0
RJGG 311930Z AUTO 04005KT 9999 NSC 16/10 Q1021 NOSIG,RJGG,2022-10-31T19:30:00Z,34.87,136.8,16.0,10.0,40,5,,6.21,30.147638,,,TRUE,,,TRUE,,,,,CLR,,,,,,,,VFR,,,,,,,,,,,,METAR,5.0
RJFF 311930Z AUTO VRB01KT 9999 NSC 14/11 Q1018 BECMG 15005KT RMK A3008,RJFF,2022-10-31T19:30:00Z,33.58,130.45,14.0,11.0,0,1,,6.21,30.059055,,,TRUE,,,,,,,,CLR,,,,,,,,VFR,,,,,,,,,,,,METAR,7.0
RJCC 311930Z 14009KT 9999 -SHRA FEW015 SCT025 BKN040 10/08 Q1026 RMK 1ST015 3CU025 7CU040 A3030,RJCC,2022-10-31T19:30:00Z,42.77,141.68,10.0,8.0,140,9,,6.21,30.295275,,,,,,,,,,-SHRA,FEW,1500,SCT,2500,BKN,4000,,,VFR,,,,,,,,,,,,METAR,19.0
RJBB 311930Z AUTO 07010KT 9999 SCT050 BKN090 BKN110 17/14 Q1019 NOSIG,RJBB,2022-10-31T19:30:00Z,34.43,135.25,17.0,14.0,70,10,,6.21,30.088583,,,TRUE,,,TRUE,,,,,SCT,5000,BKN,9000,BKN,11000,,,VFR,,,,,,,,,,,,METAR,8.0
RJAA 311930Z AUTO 30004KT 270V330 9999 NSC 10/08 Q1024 NOSIG RMK A3026,RJAA,2022-10-31T19:30:00Z,35.77,140.38,10.0,8.0,300,4,,6.21,30.236221,,,TRUE,,,TRUE,,,,,CLR,,,,,,,,VFR,,,,,,,,,,,,METAR,36.0
RCTP 311930Z 05016KT 9999 -RA FEW006 BKN011 BKN025 21/20 Q1012 NOSIG RMK A2990,RCTP,2022-10-31T19:30:00Z,25.07,121.22,21.0,20.0,50,16,,6.21,29.88189,,,,,,TRUE,,,,-RA,FEW,600,BKN,1100,BKN,2500,,,MVFR,,,,,,,,,,,,METAR,33.0
RCNN 311930Z 33009KT 8000 -RA FEW010 BKN020 BKN040 20/18 Q1005 RMK A2969,RCNN,2022-10-31T19:30:00Z,22.93,120.2,20.0,18.0,330,9,,4.97,29.675198,,,,,,,,,,-RA,FEW,1000,BKN,2000,BKN,4000,,,MVFR,,,,,,,,,,,,METAR,15.0
OTBD 311930Z 11004KT CAVOK 29/21 Q1014 NOSIG,OTBD,2022-10-31T19:30:00Z,25.25,51.57,29.0,21.0,110,4,,6.21,29.940945,,,,,,TRUE,,,,,CAVOK,,,,,,,,VFR,,,,,,,,,,,,METAR,13.0
OPPS 311930Z 18006KT 3600 -RA FEW030TCU SCT040 BKN100 22/15 Q10 17,OPPS,2022-10-31T19:30:00Z,33.98,71.52,22.0,15.0,180,6,,2.24,,,,,,,,,,,-RA,FEW,3000,SCT,4000,BKN,10000,,,IFR,,,,,,,,,,,,SPECI,356.0
OPKC 311930Z 26004KT 5000 FU NSC 24/22 Q1014 NOSIG,OPKC,2022-10-31T19:30:00Z,24.9,67.13,24.0,22.0,260,4,,3.11,29.940945,,,,,,TRUE,,,,FU,CLR,,,,,,,,MVFR,,,,,,,,,,,,METAR,20.0
OPIS 311930Z 31005KT 4000 FU FEW040 SCT100 17/15 Q1017 TEMPO 30 00,OPIS,2022-10-31T19:30:00Z,33.55,72.83,17.0,15.0,310,5,,2.49,30.029528,,,,,,,,,,FU,FEW,4000,SCT,10000,,,,,IFR,,,,,,,,,,,,METAR,542.0
OIYY 311930Z 00000KT CAVOK 19/01 Q1019,OIYY,2022-10-31T19:30:00Z,31.9,54.28,19.0,1.0,0,0,,6.21,30.088583,,,,,,,,,,,CAVOK,,,,,,,,VFR,,,,,,,,,,,,METAR,1226.0
OITT 311930Z 30004KT CAVOK 09/06 Q1016 A3001,OITT,2022-10-31T19:30:00Z,38.13,46.23,9.0,6.0,300,4,,6.21,30.0,,,,,,,,,,,CAVOK,,,,,,,,VFR,,,,,,,,,,,,METAR,1353.0
OISS 311930Z 00000KT 8000 NSC 16/08 Q1022 A3019,OISS,2022-10-31T19:30:00Z,29.53,52.58,16.0,8.0,0,0,,4.97,30.177166,,,,,,,,,,,CLR,,,,,,,,MVFR,,,,,,,,,,,,METAR,1484.0
OIMM 311930Z 00000KT CAVOK 13/07 Q1016 A3002,OIMM,2022-10-31T19:30:00Z,36.23,59.63,13.0,7.0,0,0,,6.21,30.0,,,,,,,,,,,CAVOK,,,,,,,,VFR,,,,,,,,,,,,METAR,995.0
OIKB 311930Z 36004KT 6000 NSC 25/21 Q1013 A2993,OIKB,2022-10-31T19:30:00Z,27.22,56.37,25.0,21.0,360,4,,3.73,29.911417,,,,,,,,,,,CLR,,,,,,,,MVFR,,,,,,,,,,,,METAR,6.0
OIII 311930Z 24004KT 9999 FEW035CB BKN100 19/03 Q1017 A3004,OIII,2022-10-31T19:30:00Z,35.68,51.3,19.0,3.0,240,4,,6.21,30.029528,,,,,,,,,,,FEW,3500,BKN,10000,,,,,VFR,,,,,,,,,,,,METAR,1182.0
OIFM 311930Z 00000KT CAVOK 15/M03 Q1021 A3016,OIFM,2022-10-31T19:30:00Z,32.75,51.87,15.0,-3.0,0,0,,6.21,30.147638,,,,,,,,,,,CAVOK,,,,,,,,VFR,,,,,,,,,,,,METAR,1539.0
OIAW 311930Z 15010KT 5000 HZ NSC 26/22 Q1011,OIAW,2022-10-31T19:30:00Z,31.33,48.77,26.0,22.0,150,10,,3.11,29.852362,,,,,,,,,,HZ,CLR,,,,,,,,MVFR,,,,,,,,,,,,METAR,25.0
OBBI 311930Z 13009KT CAVOK 29/22 Q1014 NOSIG,OBBI,2022-10-31T19:30:00Z,26.27,50.63,29.0,22.0,130,9,,6.21,29.940945,,,,,,TRUE,,,,,CAVOK,,,,,,,,VFR,,,,,,,,,,,,METAR,6.0
NZWN 311930Z AUTO 34013KT 9999 SCT022/// 16/11 Q1010 NOSIG,NZWN,2022-10-31T19:30:00Z,-41.32,174.8,16.0,11.0,340,13,,6.21,29.822834,,,TRUE,,,TRUE,,,,,SCT,2200,,,,,,,VFR,,,,,,,,,,,,METAR,12.0
NZCH 311930Z AUTO 02002KT 9999 NCD 12/11 Q1006 NOSIG,NZCH,2022-10-31T19:30:00Z,-43.48,172.52,12.0,11.0,20,2,,6.21,29.704725,,,TRUE,,,TRUE,,,,,CLR,,,,,,,,VFR,,,,,,,,,,,,METAR,36.0
NZAA 311930Z AUTO 18005KT 120V210 9999 SCT011/// 17/15 Q1013 NOSIG,NZAA,2022-10-31T19:30:00Z,-37.02,174.8,17.0,15.0,180,5,,6.21,29.911417,,,TRUE,,,TRUE,,,,,SCT,1100,,,,,,,VFR,,,,,,,,,,,,METAR,7.0
NWWW 311930Z AUTO VRB02KT CAVOK 20/19 Q1010 NOSIG,NWWW,2022-10-31T19:30:00Z,-22.02,166.22,20.0,19.0,0,2,,6.21,29.822834,,,TRUE,,,TRUE,,,,,CAVOK,,,,,,,,VFR,,,,,,,,,,,,METAR,16.0
NTAA 311930Z 23007KT 9999 FEW023 BKN300 28/22 Q1014 NOSIG,NTAA,2022-10-31T19:30:00Z,-17.55,-149.62,28.0,22.0,230,7,,6.21,29.940945,,,,,,TRUE,,,,,FEW,2300,BKN,30000,,,,,VFR,,,,,,,,,,,,METAR,2.0
NLWW 311930Z 17003KT 9999 FEW015 SCT021 BKN056 26/25 Q1011 TEMPO 4000 SHRA BKN014 SCT018TCU,NLWW,2022-10-31T19:30:00Z,-13.23,-176.18,26.0,25.0,170,3,,6.21,29.852362,,,,,,,,,,,FEW,1500,SCT,2100,BKN,5600,,,VFR,,,,,,,,,,,,METAR,24.0
NCRG 311930Z AUTO 11011KT 070V140 9999 BKN023/// BKN080/// 24/20 Q1017,NCRG,2022-10-31T19:30:00Z,-21.2,-159.82,24.0,20.0,110,11,,6.21,30.029528,,,TRUE,,,,,,,,BKN,2300,BKN,8000,,,,,MVFR,,,,,,,,,,,,METAR,7.0
LZZI 311930Z 26007KT 0900 R06/P2000N FG OVC002 10/09 Q1022,LZZI,2022-10-31T19:30:00Z,49.23,18.62,10.0,9.0,260,7,,0.56,30.177166,,,,,,,,,,FG,OVC,200,,,,,,,LIFR,,,,,,,,,,,,METAR,311.0
LZTT 311930Z VRB01KT 0300 R27/0400U FG SCT001 04/04 Q1023,LZTT,2022-10-31T19:30:00Z,49.07,20.25,4.0,4.0,0,1,,0.19,30.206694,,,,,,,,,,FG,SCT,100,,,,,,,LIFR,,,,,,,,,,,,SPECI,693.0
LZPP 311930Z 15006KT 120V190 8000 OVC006 11/10 Q1022,LZPP,2022-10-31T19:30:00Z,48.62,17.83,11.0,10.0,150,6,,4.97,30.177166,,,,,,,,,,,OVC,600,,,,,,,IFR,,,,,,,,,,,,METAR,160.0
LZKZ 311930Z 22003KT 180V240 7000 OVC005 10/10 Q1024 NOSIG,LZKZ,2022-10-31T19:30:00Z,48.67,21.23,10.0,10.0,220,3,,4.35,30.236221,,,,,,TRUE,,,,,OVC,500,,,,,,,IFR,,,,,,,,,,,,METAR,227.0
LZIB 311930Z 07006KT 2900 -DZ BR BKN004 OVC006 11/10 Q1022 NOSIG,LZIB,2022-10-31T19:30:00Z,48.17,17.22,11.0,10.0,70,6,,1.8,30.177166,,,,,,TRUE,,,,-DZ BR,BKN,400,OVC,600,,,,,LIFR,,,,,,,,,,,,METAR,129.0
LYVR 311930Z AUTO VRB02KT 0400 R19/0450N R01/0450N -SHRA FG VV002 10/10 Q1024,LYVR,2022-10-31T19:30:00Z,45.13,21.32,10.0,10.0,0,2,,0.25,30.236221,,,TRUE,,,,,,,-SHRA FG,OVX,0,,,,,,,LIFR,,,,,,,,,,,200,METAR,82.0
LYTV 311930Z AUTO VRB01KT CAVOK 12/11 Q1021,LYTV,2022-10-31T19:30:00Z,42.4,18.72,12.0,11.0,0,1,,6.21,30.147638,,,TRUE,,,,,,,,CAVOK,,,,,,,,VFR,,,,,,,,,,,,METAR,3.0
LYPG 311930Z 00000KT CAVOK 16/10 Q1021 NOSIG,LYPG,2022-10-31T19:30:00Z,42.37,19.25,16.0,10.0,0,0,,6.21,30.147638,,,,,,TRUE,,,,,CAVOK,,,,,,,,VFR,,,,,,,,,,,,METAR,32.0
LYNI 311930Z VRB01KT CAVOK 13/08 Q1023 NOSIG,LYNI,2022-10-31T19:30:00Z,43.33,21.85,13.0,8.0,0,1,,6.21,30.206694,,,,,,TRUE,,,,,CAVOK,,,,,,,,VFR,,,,,,,,,,,,METAR,197.0
LYKV 311930Z 00000KT CAVOK 10/10 Q1023 NOSIG,LYKV,2022-10-31T19:30:00Z,43.82,20.58,10.0,10.0,0,0,,6.21,30.206694,,,,,,TRUE,,,,,CAVOK,,,,,,,,VFR,,,,,,,,,,,,METAR,209.0
LYBT 311930Z 03003KT 5000 BR NSC 10/10 Q1023 BECMG FM2030 0300 FG,LYBT,2022-10-31T19:30:00Z,44.93,20.25,10.0,10.0,30,3,,3.11,30.206694,,,,,,,,,,BR,CLR,,,,,,,,MVFR,,,,,,,,,,,,METAR,78.0
LYBE 311930Z 04004KT 1500 BR NSC 11/11 Q1023 BECMG FM2030 0400 FG,LYBE,2022-10-31T19:30:00Z,44.82,20.28,11.0,11.0,40,4,,0.93,30.206694,,,,,,,,,,BR,CLR,,,,,,,,LIFR,,,,,,,,,,,,SPECI,93.0
LWSK 311930Z 27002KT CAVOK 13/09 Q1023 NOSIG,LWSK,2022-10-31T19:30:00Z,41.97,21.63,13.0,9.0,270,2,,6.21,30.206694,,,,,,TRUE,,,,,CAVOK,,,,,,,,VFR,,,,,,,,,,,,METAR,232.0
LWOH 311930Z 32006KT CAVOK 10/05 Q1024,LWOH,2022-10-31T19:30:00Z,41.18,20.75,10.0,5.0,320,6,,6.21,30.236221,,,,,,,,,,,CAVOK,,,,,,,,VFR,,,,,,,,,,,,METAR,700.0
LUKK 311930Z 31005KT CAVOK 05/02 Q1023 NOSIG,LUKK,2022-10-31T19:30:00Z,46.93,28.93,5.0,2.0,310,5,,6.21,30.206694,,,,,,TRUE,,,,,CAVOK,,,,,,,,VFR,,,,,,,,,,,,METAR,102.0
LRTR 311930Z 06005KT 4500 BR OVC003 10/10 Q1023,LRTR,2022-10-31T19:30:00Z,45.82,21.33,10.0,10.0,60,5,,2.8,30.206694,,,,,,,,,,BR,OVC,300,,,,,,,LIFR,,,,,,,,,,,,METAR,104.0
LRTM 311930Z AUTO 00000KT 7000 OVC012/// 12/10 Q1025,LRTM,2022-10-31T19:30:00Z,46.47,24.42,12.0,10.0,0,0,,4.35,30.265747,,,TRUE,,,,,,,,OVC,1200,,,,,,,MVFR,,,,,,,,,,,,METAR,289.0
LRTC 311930Z AUTO 36008KT 7000 NCD 10/01 Q1023,LRTC,2022-10-31T19:30:00Z,45.07,28.72,10.0,1.0,360,8,,4.35,30.206694,,,TRUE,,,,,,,,CLR,,,,,,,,MVFR,,,,,,,,,,,,METAR,52.0
LRSV 311930Z 00000KT CAVOK 11/09 Q1023,LRSV,2022-10-31T19:30:00Z,47.68,26.35,11.0,9.0,0,0,,6.21,30.206694,,,,,,,,,,,CAVOK,,,,,,,,VFR,,,,,,,,,,,,METAR,406.0
LRSM 311930Z AUTO 11003KT 9999 OVC010/// 12/10 Q1024,LRSM,2022-10-31T19:30:00Z,47.7,22.88,12.0,10.0,110,3,,6.21,30.236221,,,TRUE,,,,,,,,OVC,1000,,,,,,,MVFR,,,,,,,,,,,,METAR,123.0
LRSB 311930Z 26002KT 4000 BR NSC 07/06 Q1025,LRSB,2022-10-31T19:30:00Z,45.78,24.08,7.0,6.0,260,2,,2.49,30.265747,,,,,,,,,,BR,CLR,,,,,,,,IFR,,,,,,,,,,,,METAR,442.0
LROP 311930Z 05002KT CAVOK 14/10 Q1022 NOSIG,LROP,2022-10-31T19:30:00Z,44.57,26.1,14.0,10.0,50,2,,6.21,30.177166,,,,,,TRUE,,,,,CAVOK,,,,,,,,VFR,,,,,,,,,,,,METAR,92.0
LROD 311930Z AUTO 00000KT 6000 OVC007/// 11/10 Q1024,LROD,2022-10-31T19:30:00Z,47.03,21.88,11.0,10.0,0,0,,3.73,30.236221,,,TRUE,,,,,,,,OVC,700,,,,,,,IFR,,,,,,,,,,,,METAR,132.0
LRIA 311930Z 24003KT CAVOK 09/07 Q1023,LRIA,2022-10-31T19:30:00Z,47.17,27.62,9.0,7.0,240,3,,6.21,30.206694,,,,,,,,,,,CAVOK,,,,,,,,VFR,,,,,,,,,,,,METAR,71.0
LRCV 311930Z 15003KT CAVOK 16/09 Q1021,LRCV,2022-10-31T19:30:00Z,44.32,23.88,16.0,9.0,150,3,,6.21,30.147638,,,,,,,,,,,CAVOK,,,,,,,,VFR,,,,,,,,,,,,METAR,192.0
LRCL 311930Z 13003KT 8000 OVC010 11/10 Q1024,LRCL,2022-10-31T19:30:00Z,46.78,23.68,11.0,10.0,130,3,,4.97,30.236221,,,,,,,,,,,OVC,1000,,,,,,,MVFR,,,,,,,,,,,,METAR,313.0
LRCK 311930Z 03008KT CAVOK 11/08 Q1022 NOSIG,LRCK,2022-10-31T19:30:00Z,44.37,28.48,11.0,8.0,30,8,,6.21,30.177166,,,,,,TRUE,,,,,CAVOK,,,,,,,,VFR,,,,,,,,,,,,METAR,108.0
LRBS 311930Z 00000KT CAVOK 12/09 Q1022 NOSIG,LRBS,2022-10-31T19:30:00Z,44.5,26.08,12.0,9.0,0,0,,6.21,30.177166,,,,,,TRUE,,,,,CAVOK,,,,,,,,VFR,,,,,,,,,,,,METAR,91.0
LRBM 311930Z AUTO 07003KT 9999 BKN010/// 12/10 Q1024,LRBM,2022-10-31T19:30:00Z,47.67,23.47,12.0,10.0,70,3,,6.21,30.236221,,,TRUE,,,,,,,,BKN,1000,,,,,,,MVFR,,,,,,,,,,,,METAR,180.0
LRBC 311930Z 32004KT CAVOK 10/07 Q1023,LRBC,2022-10-31T19:30:00Z,46.52,26.92,10.0,7.0,320,4,,6.21,30.206694,,,,,,,,,,,CAVOK,,,,,,,,VFR,,,,,,,,,,,,METAR,183.0
LRAR 311930Z 05004KT 3800 BR FEW002 OVC004 11/10 Q1024,LRAR,2022-10-31T19:30:00Z,46.18,21.27,11.0,10.0,50,4,,2.36,30.236221,,,,,,,,,,BR,FEW,200,OVC,400,,,,,LIFR,,,,,,,,,,,,METAR,102.0
LQTZ 311930Z VRB01KT CAVOK 10/10 Q1022,LQTZ,2022-10-31T19:30:00Z,44.47,18.73,10.0,10.0,0,1,,6.21,30.177166,,,,,,,,,,,CAVOK,,,,,,,,VFR,,,,,,,,,,,,METAR,242.0
LQSA 311930Z 00000KT CAVOK 09/08 Q1025 NOSIG,LQSA,2022-10-31T19:30:00Z,43.82,18.32,9.0,8.0,0,0,,6.21,30.265747,,,,,,TRUE,,,,,CAVOK,,,,,,,,VFR,,,,,,,,,,,,METAR,505.0
LQBK 311930Z VRB01KT 6000 NSC 10/10 Q1022 NOSIG,LQBK,2022-10-31T19:30:00Z,44.93,17.3,10.0,10.0,0,1,,3.73,30.177166,,,,,,TRUE,,,,,CLR,,,,,,,,MVFR,,,,,,,,,,,,METAR,114.0
LPPT 311930Z 34007KT 9999 FEW016 BKN022 17/15 Q1020,LPPT,2022-10-31T19:30:00Z,38.77,-9.13,17.0,15.0,340,7,,6.21,30.11811,,,,,,,,,,,FEW,1600,BKN,2200,,,,,MVFR,,,,,,,,,,,,METAR,98.0
LPPS 311930Z 31005KT 9999 FEW015 22/18 Q1022,LPPS,2022-10-31T19:30:00Z,33.07,-16.35,22.0,18.0,310,5,,6.21,30.177166,,,,,,,,,,,FEW,1500,,,,,,,VFR,,,,,,,,,,,,METAR,89.0
LPPR 311930Z 34005KT 310V020 CAVOK 14/12 Q1021,LPPR,2022-10-31T19:30:00Z,41.23,-8.68,14.0,12.0,340,5,,6.21,30.147638,,,,,,,,,,,CAVOK,,,,,,,,VFR,,,,,,,,,,,,METAR,64.0
LPPD 311930Z 36004KT 9999 FEW025 14/10 Q1024,LPPD,2022-10-31T19:30:00Z,37.73,-25.68,14.0,10.0,360,4,,6.21,30.236221,,,,,,,,,,,FEW,2500,,,,,,,VFR,,,,,,,,,,,,METAR,62.0
LPMA 311930Z 24003KT 9999 SCT015 22/18 Q1022,LPMA,2022-10-31T19:30:00Z,32.7,-16.77,22.0,18.0,240,3,,6.21,30.177166,,,,,,,,,,,SCT,1500,,,,,,,VFR,,,,,,,,,,,,METAR,54.0
LPHR 311930Z 01006KT 9999 FEW020 BKN045 16/11 Q1023,LPHR,2022-10-31T19:30:00Z,38.52,-28.72,16.0,11.0,10,6,,6.21,30.206694,,,,,,,,,,,FEW,2000,BKN,4500,,,,,VFR,,,,,,,,,,,,METAR,39.0
LPFR 311930Z 29003KT 250V350 9999 FEW025 19/18 Q1020,LPFR,2022-10-31T19:30:00Z,37.02,-7.97,19.0,18.0,290,3,,6.21,30.11811,,,,,,,,,,,FEW,2500,,,,,,,VFR,,,,,,,,,,,,METAR,3.0
LPFL 311930Z 25005KT 9999 FEW030 16/09 Q1022,LPFL,2022-10-31T19:30:00Z,39.45,-31.12,16.0,9.0,250,5,,6.21,30.177166,,,,,,,,,,,FEW,3000,,,,,,,VFR,,,,,,,,,,,,METAR,35.0
LPCS 311930Z 36009KT 9999 FEW008 SCT018 17/14 Q1020,LPCS,2022-10-31T19:30:00Z,38.73,-9.35,17.0,14.0,360,9,,6.21,30.11811,,,,,,,,,,,FEW,800,SCT,1800,,,,,VFR,,,,,,,,,,,,METAR,99.0
LPAZ 311930Z 10006KT 9999 FEW032 15/11 Q1023,LPAZ,2022-10-31T19:30:00Z,36.97,-25.17,15.0,11.0,100,6,,6.21,30.206694,,,,,,,,,,,FEW,3200,,,,,,,VFR,,,,,,,,,,,,METAR,96.0
LKTB 311930Z 14005KT 110V170 3200 -DZ BR OVC002 10/10 Q1021 NOSIG,LKTB,2022-10-31T19:30:00Z,49.15,16.68,10.0,10.0,140,5,,1.99,30.147638,,,,,,TRUE,,,,-DZ BR,OVC,200,,,,,,,LIFR,,,,,,,,,,,,METAR,233.0
LKPR 311930Z 01003KT 0350 R24/0400D R30/0350N FG VV001 08/08 Q1019 NOSIG,LKPR,2022-10-31T19:30:00Z,50.1,14.27,8.0,8.0,10,3,,0.22,30.088583,,,,,,TRUE,,,,FG,OVX,0,,,,,,,LIFR,,,,,,,,,,,100,SPECI,364.0
LKPD 311930Z 06003KT 0200 R27/0200D FG VV001 10/10 Q1019 NOSIG RMK RED RED,LKPD,2022-10-31T19:30:00Z,50.02,15.73,10.0,10.0,60,3,,0.12,30.088583,,,,,,TRUE,,,,FG,OVX,0,,,,,,,LIFR,,,,,,,,,,,100,SPECI,226.0
LKNA 311930Z 11006KT 0100 R30/0300 FG VV001 08/08 Q1021 NOSIG RMK RED RED,LKNA,2022-10-31T19:30:00Z,49.17,16.12,8.0,8.0,110,6,,0.06,30.147638,,,,,,TRUE,,,,FG,OVX,0,,,,,,,LIFR,,,,,,,,,,,100,SPECI,460.0
LKMT 311930Z 22010KT 0400 R22/2000D R04/1700N FG VV002 09/09 Q1021 NOSIG,LKMT,2022-10-31T19:30:00Z,49.68,18.12,9.0,9.0,220,10,,0.25,30.147638,,,,,,TRUE,,,,FG,OVX,0,,,,,,,LIFR,,,,,,,,,,,200,SPECI,251.0
LKCV 311930Z VRB02KT 0200 R31/0250N FG VV001 11/11 Q1019 NOSIG RMK RED RED,LKCV,2022-10-31T19:30:00Z,49.93,15.38,11.0,11.0,0,2,,0.12,30.088583,,,,,,TRUE,,,,FG,OVX,0,,,,,,,LIFR,,,,,,,,,,,100,SPECI,234.0
LJPZ 311930Z 10004KT CAVOK 14/13 Q1022,LJPZ,2022-10-31T19:30:00Z,45.47,13.62,14.0,13.0,100,4,,6.21,30.177166,,,,,,,,,,,CAVOK,,,,,,,,VFR,,,,,,,,,,,,METAR,2.0
LJMB 311930Z VRB02KT 0200 R32/0600N FG VV002 11/11 Q1022,LJMB,2022-10-31T19:30:00Z,46.47,15.67,11.0,11.0,0,2,,0.12,30.177166,,,,,,,,,,FG,OVX,0,,,,,,,LIFR,,,,,,,,,,,200,METAR,263.0
LJLJ 311930Z VRB02KT 9999 MIFG NSC 10/10 Q1022 NOSIG,LJLJ,2022-10-31T19:30:00Z,46.22,14.47,10.0,10.0,0,2,,6.21,30.177166,,,,,,TRUE,,,,MIFG,CLR,,,,,,,,VFR,,,,,,,,,,,,METAR,363.0
LJCE 311930Z AUTO VRB01KT 0150 R09///// FG SCT002/// 11/10 Q1022,LJCE,2022-10-31T19:30:00Z,45.9,15.52,11.0,10.0,0,1,,0.09,30.177166,,,TRUE,,,,,,,FG,SCT,200,,,,,,,LIFR,,,,,,,,,,,,METAR,153.0
LHBP 311930Z 11004KT 080V140 3400 -DZ BR OVC002 11/10 Q1024 BECMG 2800,LHBP,2022-10-31T19:30:00Z,47.43,19.27,11.0,10.0,110,4,,2.11,30.236221,,,,,,,,,,-DZ BR,OVC,200,,,,,,,LIFR,,,,,,,,,,,,SPECI,141.0
LGKP 311930Z AUTO 30015KT //// // ////// 18/14 Q1016 RE//,LGKP,2022-10-31T19:30:00Z,35.42,27.15,18.0,14.0,300,15,,,30.0,,,TRUE,,,,,,,,,,,,,,,,,,,,,,,,,,,,SPECI,20.0
LFYR 311930Z AUTO 19011KT 160V220 CAVOK 17/13 Q1011,LFYR,2022-10-31T19:30:00Z,47.32,1.68,17.0,13.0,190,11,,6.21,29.852362,,,TRUE,,,,,,,,CAVOK,,,,,,,,VFR,,,,,,,,,,,,METAR,83.0
LFVP 311930Z AUTO 25019KT CAVOK 12/09 Q1012 NOSIG,LFVP,2022-10-31T19:30:00Z,46.77,-56.18,12.0,9.0,250,19,,6.21,29.88189,,,TRUE,,,TRUE,,,,,CAVOK,,,,,,,,VFR,,,,,,,,,,,,METAR,5.0
LFTW 311930Z AUTO 14015KT 9999 -RADZ BKN013 BKN019 OVC049 20/18 Q1019,LFTW,2022-10-31T19:30:00Z,43.75,4.42,20.0,18.0,140,15,,6.21,30.088583,,,TRUE,,,,,,,-RA -DZ,BKN,1300,BKN,1900,OVC,4900,,,MVFR,,,,,,,,,,,,METAR,91.0
LFTH 311930Z AUTO 04003KT 9999 BKN026 BKN160 18/15 Q1022 NOSIG,LFTH,2022-10-31T19:30:00Z,43.1,6.15,18.0,15.0,40,3,,6.21,30.177166,,,TRUE,,,TRUE,,,,,BKN,2600,BKN,16000,,,,,MVFR,,,,,,,,,,,,METAR,3.0
LFSX 311930Z AUTO 08007KT CAVOK 14/11 Q1016,LFSX,2022-10-31T19:30:00Z,47.77,6.35,14.0,11.0,80,7,,6.21,30.0,,,TRUE,,,,,,,,CAVOK,,,,,,,,VFR,,,,,,,,,,,,METAR,266.0
LFST 311930Z AUTO 15003KT 120V190 8000 NSC 12/11 Q1016 TEMPO 4500 BR,LFST,2022-10-31T19:30:00Z,48.53,7.63,12.0,11.0,150,3,,4.97,30.0,,,TRUE,,,,,,,,CLR,,,,,,,,MVFR,,,,,,,,,,,,SPECI,149.0
LFSO 311930Z AUTO 15009KT CAVOK 17/10 Q1015,LFSO,2022-10-31T19:30:00Z,48.57,5.97,17.0,10.0,150,9,,6.21,29.970472,,,TRUE,,,,,,,,CAVOK,,,,,,,,VFR,,,,,,,,,,,,METAR,328.0
LFSN 311930Z AUTO 14005KT CAVOK 14/10 Q1015,LFSN,2022-10-31T19:30:00Z,48.68,6.22,14.0,10.0,140,5,,6.21,29.970472,,,TRUE,,,,,,,,CAVOK,,,,,,,,VFR,,,,,,,,,,,,METAR,214.0
LFSL 311930Z AUTO 18003KT 150V220 9999 ///TCU 16/14 Q1016 TEMPO 20015G25KT 4000 SHRA BKN040CB,LFSL,2022-10-31T19:30:00Z,45.03,1.48,16.0,14.0,180,3,,6.21,30.0,,,TRUE,,,,,,,,,,,,,,,,,,,1.5,,,,,,,,,SPECI,300.0
LFSI 311930Z AUTO 16010KT 130V190 CAVOK 19/12 Q1013,LFSI,2022-10-31T19:30:00Z,48.62,4.9,19.0,12.0,160,10,,6.21,29.911417,,,TRUE,,,,,,,,CAVOK,,,,,,,,VFR,,,,,,,,,,,,METAR,136.0
LFSG 311930Z AUTO VRB01KT CAVOK 13/10 Q1015,LFSG,2022-10-31T19:30:00Z,48.33,6.07,13.0,10.0,0,1,,6.21,29.970472,,,TRUE,,,,,,,,CAVOK,,,,,,,,VFR,,,,,,,,,,,,METAR,320.0
LFSD 311930Z AUTO 19007KT 150V220 CAVOK 18/12 Q1015,LFSD,2022-10-31T19:30:00Z,47.27,5.08,18.0,12.0,190,7,,6.21,29.970472,,,TRUE,,,,,,,,CAVOK,,,,,,,,VFR,,,,,,,,,,,,METAR,218.0
LFSB 311930Z AUTO 17003KT CAVOK 12/11 Q1017 NOSIG,LFSB,2022-10-31T19:30:00Z,47.6,7.52,12.0,11.0,170,3,,6.21,30.029528,,,TRUE,,,TRUE,,,,,CAVOK,,,,,,,,VFR,,,,,,,,,,,,METAR,262.0
LFRZ 311930Z AUTO 26018G29KT 9999 FEW022 BKN042 15/12 Q1009 BECMG 26025G42KT,LFRZ,2022-10-31T19:30:00Z,47.32,-2.17,15.0,12.0,260,18,29,6.21,29.793306,,,TRUE,,,,,,,,FEW,2200,BKN,4200,,,,,VFR,,,,,,,,,,,,SPECI,2.0
LFRV 311930Z AUTO 26012G28KT 220V290 9999 SCT021 BKN031 BKN037 13/10 Q1009,LFRV,2022-10-31T19:30:00Z,47.72,-2.72,13.0,10.0,260,12,28,6.21,29.793306,,,TRUE,,,,,,,,SCT,2100,BKN,3100,BKN,3700,,,VFR,,,,,,,,,,,,METAR,132.0
LFRT 311930Z AUTO 25022KT 9999 FEW014 SCT020 BKN026 13/09 Q1005,LFRT,2022-10-31T19:30:00Z,48.53,-2.85,13.0,9.0,250,22,,6.21,29.675198,,,TRUE,,,,,,,,FEW,1400,SCT,2000,BKN,2600,,,MVFR,,,,,,,,,,,,METAR,134.0
LFRS 311930Z AUTO 26010KT 9999 FEW017 BKN023 BKN035 15/13 Q1010 BECMG 25020G35KT,LFRS,2022-10-31T19:30:00Z,47.17,-1.6,15.0,13.0,260,10,,6.21,29.822834,,,TRUE,,,,,,,,FEW,1700,BKN,2300,BKN,3500,,,MVFR,,,,,,,,,,,,SPECI,26.0
LFRQ 311930Z AUTO 26015KT 9999 BKN026 BKN033 13/09 Q1008 TEMPO 26020G40KT 3000 SHRA BKN004 BKN020CB,LFRQ,2022-10-31T19:30:00Z,47.97,-4.17,13.0,9.0,260,15,,6.21,29.763779,,,TRUE,,,,,,,,BKN,2600,BKN,3300,,,,,MVFR,,,,,,,,,,,,SPECI,94.0
LFRO 311930Z AUTO 24019KT 9999 BKN019 BKN024 BKN030 12/10 Q1005,LFRO,2022-10-31T19:30:00Z,48.75,-3.47,12.0,10.0,240,19,,6.21,29.675198,,,TRUE,,,,,,,,BKN,1900,BKN,2400,BKN,3000,,,MVFR,,,,,,,,,,,,METAR,86.0
LFRN 311930Z AUTO 23014KT 200V260 9999 BKN022 15/12 Q1007 TEMPO 24020G40KT 3000 SHRA BKN008 BKN015CB,LFRN,2022-10-31T19:30:00Z,48.07,-1.73,15.0,12.0,230,14,,6.21,29.734253,,,TRUE,,,,,,,,BKN,2200,,,,,,,MVFR,,,,,,,,,,,,SPECI,35.0
LFRM 311930Z AUTO 18010KT 150V220 9999 SCT036/// BKN042/// //////CB 18/14 Q1008,LFRM,2022-10-31T19:30:00Z,47.95,0.2,18.0,14.0,180,10,,6.21,29.763779,,,TRUE,,,,,,,,SCT,3600,BKN,4200,,,,,VFR,,,,,,,,,,,,METAR,51.0
LFRL 311930Z AUTO 26019G31KT 9999 FEW019 BKN026 BKN031 13/10 Q1007,LFRL,2022-10-31T19:30:00Z,48.27,-4.43,13.0,10.0,260,19,31,6.21,29.734253,,,TRUE,,,,,,,,FEW,1900,BKN,2600,BKN,3100,,,MVFR,,,,,,,,,,,,METAR,80.0
LFRK 311930Z AUTO 19012KT 9999 -RA FEW019/// OVC094/// //////CB 15/14 Q1004 TEMPO 3000 SHRA BECMG 18020G30KT,LFRK,2022-10-31T19:30:00Z,49.17,-0.45,15.0,14.0,190,12,,6.21,29.64567,,,TRUE,,,,,,,-RA,FEW,1900,OVC,9400,,,,,VFR,,,,,,,,,,,,METAR,66.0
LFRJ 311930Z AUTO 24021KT 9999 SCT022 BKN028 BKN037 12/09 Q1006,LFRJ,2022-10-31T19:30:00Z,48.52,-4.15,12.0,9.0,240,21,,6.21,29.704725,,,TRUE,,,,,,,,SCT,2200,BKN,2800,BKN,3700,,,MVFR,,,,,,,,,,,,METAR,109.0
LFRI 311930Z AUTO 25015G26KT 220V280 9999 OVC018 16/13 Q1011 NOSIG,LFRI,2022-10-31T19:30:00Z,46.7,-1.37,16.0,13.0,250,15,26,6.21,29.852362,,,TRUE,,,TRUE,,,,,OVC,1800,,,,,,,MVFR,,,,,,,,,,,,METAR,89.0
LFRH 311930Z AUTO 27024KT 9999 BKN027 BKN035 14/10 Q1009 TEMPO 4000 SHRA BKN008 SCT012CB BECMG 25015G30KT,LFRH,2022-10-31T19:30:00Z,47.77,-3.45,14.0,10.0,270,24,,6.21,29.793306,,,TRUE,,,,,,,,BKN,2700,BKN,3500,,,,,MVFR,,,,,,,,,,,,METAR,46.0
LFRG 311930Z AUTO 19012KT 150V210 5000 RA BR OVC006/// ///CB 15/14 Q1005 TEMPO SCT008 BKN030CB BECMG 20020G30KT,LFRG,2022-10-31T19:30:00Z,49.37,0.15,15.0,14.0,190,12,,3.11,29.675198,,,TRUE,,,,,,,RA BR,OVC,600,,,,,,,IFR,,,2.0,,,,,,,,,SPECI,146.0
LFRD 311930Z AUTO 22018KT 9999 FEW025 BKN031 BKN038 14/12 Q1005 TEMPO 25020G45KT 3000 SHRA BKN008 BKN015CB,LFRD,2022-10-31T19:30:00Z,48.58,-2.07,14.0,12.0,220,18,,6.21,29.675198,,,TRUE,,,,,,,,FEW,2500,BKN,3100,BKN,3800,,,VFR,,,,,,,,,,,,SPECI,56.0
LFRC 311930Z AUTO 19014KT 9999 OVC011 14/13 Q1002,LFRC,2022-10-31T19:30:00Z,49.63,-1.47,14.0,13.0,190,14,,6.21,29.586615,,,TRUE,,,,,,,,OVC,1100,,,,,,,MVFR,,,,,,,,,,,,METAR,137.0
LFRB 311930Z AUTO 25018KT 9999 BKN024 BKN031 12/09 Q1007 TEMPO 25025G45KT 3000 SHRA BKN005 BKN020CB,LFRB,2022-10-31T19:30:00Z,48.45,-4.42,12.0,9.0,250,18,,6.21,29.734253,,,TRUE,,,,,,,,BKN,2400,BKN,3100,,,,,MVFR,,,,,,,,,,,,SPECI,91.0
LFQQ 311930Z AUTO 16013KT 9999 -RA FEW007/// SCT080/// BKN098/// ///TCU 16/13 Q1009 TEMPO 4000 RA BKN014 OVC040TCU BECMG 18015G25KT,LFQQ,2022-10-31T19:30:00Z,50.57,3.1,16.0,13.0,160,13,,6.21,29.793306,,,TRUE,,,,,,,-RA,FEW,700,SCT,8000,BKN,9800,,,VFR,,,,,,,,,,,,SPECI,43.0
LFQB 311930Z AUTO 19006KT 9999 -RA //////TCU 17/13 Q1013,LFQB,2022-10-31T19:30:00Z,48.32,4.02,17.0,13.0,190,6,,6.21,29.911417,,,TRUE,,,,,,,-RA,,,,,,,,,,,,,,,,,,,,,SPECI,107.0
LFQA 311930Z AUTO 20012KT 9999 -RA FEW044/// SCT070/// BKN090/// ///CB 16/14 Q1012,LFQA,2022-10-31T19:30:00Z,49.2,4.15,16.0,14.0,200,12,,6.21,29.88189,,,TRUE,,,,,,,-RA,FEW,4400,SCT,7000,BKN,9000,,,VFR,,,,,,,,,,,,METAR,92.0
LFPV 311930Z AUTO 16012KT 9999 FEW011 BKN054 OVC100 16/14 Q1009 TEMPO 20015G35KT 2500 SHRA BKN025CB,LFPV,2022-10-31T19:30:00Z,48.77,2.2,16.0,14.0,160,12,,6.21,29.793306,,,TRUE,,,,,,,,FEW,1100,BKN,5400,OVC,10000,,,VFR,,,1.5,,,,,,,,,SPECI,171.0
LFPT 311930Z AUTO 17009KT CAVOK 16/15 Q1008,LFPT,2022-10-31T19:30:00Z,49.1,2.03,16.0,15.0,170,9,,6.21,29.763779,,,TRUE,,,,,,,,CAVOK,,,,,,,,VFR,,,,,,,,,,,,METAR,91.0
LFPO 311930Z 17010KT CAVOK 16/15 Q1010 NOSIG,LFPO,2022-10-31T19:30:00Z,48.72,2.38,16.0,15.0,170,10,,6.21,29.822834,,,,,,TRUE,,,,,CAVOK,,,,,,,,VFR,,,,,,,,,,,,METAR,88.0
LFPN 311930Z AUTO 17012KT 9999 FEW013 BKN049 OVC058 16/14 Q1009 TEMPO 20020G35KT 4000 SHRA SCT020TCU,LFPN,2022-10-31T19:30:00Z,48.75,2.12,16.0,14.0,170,12,,6.21,29.793306,,,TRUE,,,,,,,,FEW,1300,BKN,4900,OVC,5800,,,VFR,,,2.0,,,,,,,,,SPECI,152.0
LFPM 311930Z AUTO 15011KT 9999 //////TCU 16/15 Q1010,LFPM,2022-10-31T19:30:00Z,48.62,2.67,16.0,15.0,150,11,,6.21,29.822834,,,TRUE,,,,,,,,,,,,,,,,,,,,,,,,,,,,METAR,91.0
LFPG 311930Z 17013KT 9999 FEW020 BKN051 16/15 Q1010 NOSIG,LFPG,2022-10-31T19:30:00Z,49.02,2.53,16.0,15.0,170,13,,6.21,29.822834,,,,,,TRUE,,,,,FEW,2000,BKN,5100,,,,,VFR,,,,,,,,,,,,METAR,107.0
LFPB 311930Z AUTO 16012KT CAVOK 17/15 Q1009 TEMPO 4000 RA SCT040TCU BECMG 20018G30KT,LFPB,2022-10-31T19:30:00Z,48.97,2.42,17.0,15.0,160,12,,6.21,29.793306,,,TRUE,,,,,,,,CAVOK,,,,,,,,VFR,,,1.8,,,,,,,,,SPECI,50.0
LFOZ 311930Z AUTO 17011KT CAVOK 16/14 Q1011,LFOZ,2022-10-31T19:30:00Z,47.9,2.17,16.0,14.0,170,11,,6.21,29.852362,,,TRUE,,,,,,,,CAVOK,,,,,,,,VFR,,,,,,,,,,,,METAR,121.0
LFOV 311930Z AUTO 21010KT 9999 FEW023 SCT090 BKN130 14/13 Q1008,LFOV,2022-10-31T19:30:00Z,48.03,-0.75,14.0,13.0,210,10,,6.21,29.763779,,,TRUE,,,,,,,,FEW,2300,SCT,9000,BKN,13000,,,VFR,,,,,,,,,,,,METAR,99.0
LFOT 311930Z AUTO 20014KT 9999 BKN035 BKN043 18/14 Q1010 TEMPO 24020G35KT BKN014,LFOT,2022-10-31T19:30:00Z,47.43,0.72,18.0,14.0,200,14,,6.21,29.822834,,,TRUE,,,,,,,,BKN,3500,BKN,4300,,,,,VFR,,,,,,,,,,,,SPECI,107.0
LFOP 311930Z AUTO 16016KT 9999 BKN012 BKN018 BKN032 15/14 Q1006 TEMPO 4000 RA BKN014 OVC040CB BECMG 18015G25KT,LFOP,2022-10-31T19:30:00Z,49.37,1.17,15.0,14.0,160,16,,6.21,29.704725,,,TRUE,,,,,,,,BKN,1200,BKN,1800,BKN,3200,,,MVFR,,,,,,,,,,,,SPECI,149.0
LFOK 311930Z AUTO 19013KT 9999 -RA ///TCU 17/13 Q1013 TEMPO 4000 RA BECMG 18020G30KT,LFOK,2022-10-31T19:30:00Z,48.78,4.15,17.0,13.0,190,13,,6.21,29.911417,,,TRUE,,,,,,,-RA,,,,,,,,,,,,,,,,,,,,,SPECI,166.0
LFOJ 311930Z AUTO 17015KT CAVOK 17/14 Q1009 TEMPO 22020G30KT 2000 SHRA BKN012 SCT040CB,LFOJ,2022-10-31T19:30:00Z,47.98,1.75,17.0,14.0,170,15,,6.21,29.793306,,,TRUE,,,,,,,,CAVOK,,,,,,,,VFR,,,,,,,,,,,,SPECI,122.0
LFOH 311930Z AUTO 17011KT 140V200 9999 RA SCT012/// BKN017/// BKN060/// //////CB 16/14 Q1005,LFOH,2022-10-31T19:30:00Z,49.52,0.08,16.0,14.0,170,11,,6.21,29.675198,,,TRUE,,,,,,,RA,SCT,1200,BKN,1700,BKN,6000,,,MVFR,,,,,,,,,,,,SPECI,87.0
LFOE 311930Z AUTO 18017KT 9999 FEW019 SCT026 BKN035 17/14 Q1007 BECMG 20015G25KT,LFOE,2022-10-31T19:30:00Z,49.02,1.22,17.0,14.0,180,17,,6.21,29.734253,,,TRUE,,,,,,,,FEW,1900,SCT,2600,BKN,3500,,,VFR,,,1.5,,,,,,,,,SPECI,132.0
LFOB 311930Z AUTO 16013KT 9999 -RADZ FEW013/// OVC046/// ///TCU 16/15 Q1008 TEMPO 4000 RA BKN014 OVC040CB BECMG 18015G25KT,LFOB,2022-10-31T19:30:00Z,49.47,2.12,16.0,15.0,160,13,,6.21,29.763779,,,TRUE,,,,,,,-RA -DZ,FEW,1300,OVC,4600,,,,,VFR,,,,,,,,,,,,SPECI,99.0
LFOA 311930Z AUTO 17010KT 9999 //////TCU 17/15 Q1013,LFOA,2022-10-31T19:30:00Z,47.05,2.63,17.0,15.0,170,10,,6.21,29.911417,,,TRUE,,,,,,,,,,,,,,,,,,,,,,,,,,,,METAR,174.0
LFMY 311930Z AUTO 12005KT 080V160 9999 ////// 20/15 Q1021,LFMY,2022-10-31T19:30:00Z,43.6,5.1,20.0,15.0,120,5,,6.21,30.147638,,,TRUE,,,,,,,,,,,,,,,,,,,,,,,,,,,,METAR,57.0
LFMV 311930Z AUTO 14012KT 100V160 9999 FEW032 BKN068 OVC150 21/14 Q1020 TEMPO 14015G25KT 4000 SHRA FEW080TCU,LFMV,2022-10-31T19:30:00Z,43.9,4.9,21.0,14.0,140,12,,6.21,30.11811,,,TRUE,,,,,,,,FEW,3200,BKN,6800,OVC,15000,,,VFR,,,,,,,,,,,,SPECI,33.0
LFMU 311930Z AUTO 14009KT 110V170 CAVOK 21/18 Q1017 BECMG OVC013,LFMU,2022-10-31T19:30:00Z,43.32,3.35,21.0,18.0,140,9,,6.21,30.029528,,,TRUE,,,,,,,,CAVOK,,,,,,,,VFR,,,,,,,,,,,,SPECI,14.0
LFMT 311930Z AUTO 14019KT 9999 BKN016/// BKN022/// BKN046/// ///CB 21/19 Q1019 TEMPO 14015G25KT 4000 RA OVC013 SCT030CB,LFMT,2022-10-31T19:30:00Z,43.57,3.97,21.0,19.0,140,19,,6.21,30.088583,,,TRUE,,,,,,,,BKN,1600,BKN,2200,BKN,4600,,,MVFR,,,,,,,,,,,,SPECI,1.0
LFMP 311930Z AUTO 18015KT CAVOK 23/14 Q1015 BECMG 30008KT,LFMP,2022-10-31T19:30:00Z,42.73,2.87,23.0,14.0,180,15,,6.21,29.970472,,,TRUE,,,,,,,,CAVOK,,,,,,,,VFR,,,,,,,,,,,,SPECI,41.0
LFMO 311930Z AUTO 14009KT 9999 FEW037/// BKN044/// BKN052/// //////TCU 21/14 Q1020 TEMPO 4000 TSRA BKN030CB,LFMO,2022-10-31T19:30:00Z,44.13,4.87,21.0,14.0,140,9,,6.21,30.11811,,,TRUE,,,,,,,,FEW,3700,BKN,4400,BKN,5200,,,VFR,,,,,,,,,,,,SPECI,56.0
LFMN 311930Z 33004KT 9999 FEW015 SCT260 18/16 Q1022 NOSIG,LFMN,2022-10-31T19:30:00Z,43.65,7.2,18.0,16.0,330,4,,6.21,30.177166,,,,,,TRUE,,,,,FEW,1500,SCT,26000,,,,,VFR,,,,,,,,,,,,METAR,4.0
LFML 311930Z AUTO 11012KT 9999 FEW025 BKN035 BKN048 21/16 Q1020 NOSIG,LFML,2022-10-31T19:30:00Z,43.45,5.22,21.0,16.0,110,12,,6.21,30.11811,,,TRUE,,,TRUE,,,,,FEW,2500,BKN,3500,BKN,4800,,,VFR,,,,,,,,,,,,METAR,20.0
LFMK 311930Z AUTO 08009KT 060V120 9999 FEW016 BKN150 OVC200 20/17 Q1016,LFMK,2022-10-31T19:30:00Z,43.22,2.32,20.0,17.0,80,9,,6.21,30.0,,,TRUE,,,,,,,,FEW,1600,BKN,15000,OVC,20000,,,VFR,,,,,,,,,,,,METAR,124.0
LFMI 311930Z AUTO 13014KT 9999 BKN026 BKN032 BKN047 21/17 Q1020 BECMG 15015G25KT,LFMI,2022-10-31T19:30:00Z,43.52,4.93,21.0,17.0,130,14,,6.21,30.11811,,,TRUE,,,,,,,,BKN,2600,BKN,3200,BKN,4700,,,MVFR,,,,,,,,,,,,SPECI,20.0
LFMH 311930Z AUTO 19012KT CAVOK 19/12 Q1016,LFMH,2022-10-31T19:30:00Z,45.52,4.28,19.0,12.0,190,12,,6.21,30.0,,,TRUE,,,,,,,,CAVOK,,,,,,,,VFR,,,,,,,,,,,,METAR,400.0
LFMD 311930Z AUTO 00000KT CAVOK 16/15 Q1022,LFMD,2022-10-31T19:30:00Z,43.53,6.95,16.0,15.0,0,0,,6.21,30.177166,,,TRUE,,,,,,,,CAVOK,,,,,,,,VFR,,,,,,,,,,,,METAR,2.0
LFMC 311930Z AUTO 07003KT 9999 ////// 17/15 Q1022,LFMC,2022-10-31T19:30:00Z,43.37,6.38,17.0,15.0,70,3,,6.21,30.177166,,,TRUE,,,,,,,,,,,,,,,,,,,,,,,,,,,,METAR,79.0
LFLY 311930Z AUTO /////KT CAVOK 20/12 Q1016,LFLY,2022-10-31T19:30:00Z,45.72,4.95,20.0,12.0,,,,6.21,30.0,,,TRUE,,,,,,,,CAVOK,,,,,,,,VFR,,,,,,,,,,,,SPECI,197.0
LFLX 311930Z AUTO 19013KT CAVOK 18/13 Q1012 TEMPO 24020G35KT,LFLX,2022-10-31T19:30:00Z,46.87,1.73,18.0,13.0,190,13,,6.21,29.88189,,,TRUE,,,,,,,,CAVOK,,,,,,,,VFR,,,,,,,,,,,,SPECI,157.0
LFLW 311930Z AUTO 19004KT 140V240 9999 FEW016/// SCT025/// BKN110/// ///CB 16/14 Q1018,LFLW,2022-10-31T19:30:00Z,44.88,2.42,16.0,14.0,190,4,,6.21,30.059055,,,TRUE,,,,,,,,FEW,1600,SCT,2500,BKN,11000,,,VFR,,,,,,,,,,,,METAR,638.0
LFLS 311930Z AUTO 15004KT 120V180 CAVOK 15/11 Q1018 TEMPO 21015G25KT,LFLS,2022-10-31T19:30:00Z,45.37,5.32,15.0,11.0,150,4,,6.21,30.059055,,,TRUE,,,,,,,,CAVOK,,,,,,,,VFR,,,-1.5,,,,,,,,,SPECI,386.0
LFLP 311930Z AUTO 06009KT CAVOK 13/11 Q1018 NOSIG,LFLP,2022-10-31T19:30:00Z,45.92,6.1,13.0,11.0,60,9,,6.21,30.059055,,,TRUE,,,TRUE,,,,,CAVOK,,,,,,,,VFR,,,,,,,,,,,,METAR,460.0
LFLN 311930Z AUTO 18012KT 9999 -RA NSC 20/13 Q1015,LFLN,2022-10-31T19:30:00Z,46.42,4.02,20.0,13.0,180,12,,6.21,29.970472,,,TRUE,,,,,,,-RA,CLR,,,,,,,,VFR,,,,,,,,,,,,METAR,238.0
LFLL 311930Z 16011KT 130V200 CAVOK 20/13 Q1016 NOSIG,LFLL,2022-10-31T19:30:00Z,45.72,5.07,20.0,13.0,160,11,,6.21,30.0,,,,,,TRUE,,,,,CAVOK,,,,,,,,VFR,,,,,,,,,,,,METAR,234.0
LFLC 311930Z AUTO 25017KT 200V280 9999 RA BKN048/// BKN064/// BKN092/// ///CB 19/12 Q1016 TEMPO 26020G35KT 2000 TSRA,LFLC,2022-10-31T19:30:00Z,45.78,3.17,19.0,12.0,250,17,,6.21,30.0,,,TRUE,,,,,,,RA,BKN,4800,BKN,6400,BKN,9200,,,VFR,,,,,,,,,,,,SPECI,325.0
LFLB 311930Z AUTO 12003KT CAVOK 11/10 Q1018 BECMG 22010KT,LFLB,2022-10-31T19:30:00Z,45.63,5.87,11.0,10.0,120,3,,6.21,30.059055,,,TRUE,,,,,,,,CAVOK,,,,,,,,VFR,,,,,,,,,,,,SPECI,234.0
LFKS 311930Z AUTO 27006KT 240V300 CAVOK 16/12 Q1023,LFKS,2022-10-31T19:30:00Z,41.92,9.4,16.0,12.0,270,6,,6.21,30.206694,,,TRUE,,,,,,,,CAVOK,,,,,,,,VFR,,,,,,,,,,,,METAR,22.0
LFKJ 311930Z AUTO 06005KT CAVOK 15/12 Q1023 NOSIG,LFKJ,2022-10-31T19:30:00Z,41.92,8.8,15.0,12.0,60,5,,6.21,30.206694,,,TRUE,,,TRUE,,,,,CAVOK,,,,,,,,VFR,,,,,,,,,,,,METAR,9.0
LFKF 311930Z AUTO 05003KT CAVOK 10/09 Q1023 NOSIG,LFKF,2022-10-31T19:30:00Z,41.5,9.08,10.0,9.0,50,3,,6.21,30.206694,,,TRUE,,,TRUE,,,,,CAVOK,,,,,,,,VFR,,,,,,,,,,,,METAR,15.0
LFKC 311930Z AUTO VRB03KT CAVOK 15/11 Q1023 NOSIG,LFKC,2022-10-31T19:30:00Z,42.52,8.8,15.0,11.0,0,3,,6.21,30.206694,,,TRUE,,,TRUE,,,,,CAVOK,,,,,,,,VFR,,,,,,,,,,,,METAR,38.0
LFKB 311930Z AUTO 22003KT CAVOK 14/13 Q1023 NOSIG,LFKB,2022-10-31T19:30:00Z,42.55,9.48,14.0,13.0,220,3,,6.21,30.206694,,,TRUE,,,TRUE,,,,,CAVOK,,,,,,,,VFR,,,,,,,,,,,,METAR,7.0
LFJR 311930Z AUTO 24019KT 9999 BKN029/// BKN036/// ///CB 18/13 Q1009,LFJR,2022-10-31T19:30:00Z,47.57,-0.32,18.0,13.0,240,19,,6.21,29.793306,,,TRUE,,,,,,,,BKN,2900,BKN,3600,,,,,MVFR,,,,,,,,,,,,METAR,50.0
LFJL 311930Z AUTO 14012KT CAVOK 16/10 Q1015 BECMG 22010KT,LFJL,2022-10-31T19:30:00Z,48.97,6.25,16.0,10.0,140,12,,6.21,29.970472,,,TRUE,,,,,,,,CAVOK,,,,,,,,VFR,,,,,,,,,,,,SPECI,259.0
LFGJ 311930Z AUTO 19011KT CAVOK 18/11 Q1015,LFGJ,2022-10-31T19:30:00Z,47.05,5.43,18.0,11.0,190,11,,6.21,29.970472,,,TRUE,,,,,,,,CAVOK,,,,,,,,VFR,,,,,,,,,,,,METAR,191.0
LFGA 311930Z AUTO VRB02KT CAVOK 12/10 Q1017,LFGA,2022-10-31T19:30:00Z,48.1,7.35,12.0,10.0,0,2,,6.21,30.029528,,,TRUE,,,,,,,,CAVOK,,,,,,,,VFR,,,,,,,,,,,,METAR,191.0
LFCR 311930Z AUTO 26004KT 230V290 9999 SCT046/// BKN056/// BKN072/// //////CB 17/14 Q1018 TEMPO SHRA,LFCR,2022-10-31T19:30:00Z,44.4,2.47,17.0,14.0,260,4,,6.21,30.059055,,,TRUE,,,,,,,,SCT,4600,BKN,5600,BKN,7200,,,VFR,,,,,,,,,,,,SPECI,576.0
LFCK 311930Z AUTO 10010KT 070V130 CAVOK 20/16 Q1017 TEMPO BKN035 SCT060CB,LFCK,2022-10-31T19:30:00Z,43.55,2.28,20.0,16.0,100,10,,6.21,30.029528,,,TRUE,,,,,,,,CAVOK,,,,,,,,VFR,,,,,,,,,,,,METAR,223.0
LFBZ 311930Z AUTO 26009KT 9999 -RA BKN026/// BKN047/// OVC054/// ///TCU 18/16 Q1018 TEMPO VRB15G25KT TSRA BKN008 BKN030CB,LFBZ,2022-10-31T19:30:00Z,43.47,-1.53,18.0,16.0,260,9,,6.21,30.059055,,,TRUE,,,,,,,-RA,BKN,2600,BKN,4700,OVC,5400,,,MVFR,,,,,,,,,,,,SPECI,70.0
LFBY 311930Z AUTO 27004KT 240V320 9999 // ////// 18/15 Q1017,LFBY,2022-10-31T19:30:00Z,43.68,-1.07,18.0,15.0,270,4,,6.21,30.029528,,,TRUE,,,,,,,,,,,,,,,,,,,,,,,,,,,,METAR,32.0
LFBX 311930Z AUTO VRB02KT 9999 //////TCU 18/14 Q1015,LFBX,2022-10-31T19:30:00Z,45.2,0.82,18.0,14.0,0,2,,6.21,29.970472,,,TRUE,,,,,,,,,,,,,,,,,,,,,,,,,,,,METAR,97.0
LFBU 311930Z AUTO 21011KT 190V250 9999 FEW019/// BKN076/// OVC098/// ///TCU 19/12 Q1014 TEMPO 22015G30KT 3000 SHRA SCT030CB,LFBU,2022-10-31T19:30:00Z,45.72,0.22,19.0,12.0,210,11,,6.21,29.940945,,,TRUE,,,,,,,,FEW,1900,BKN,7600,OVC,9800,,,VFR,,,,,,,,,,,,METAR,124.0
LFBT 311930Z AUTO VRB03KT 9999 BKN100/// OVC160/// //////TCU 18/10 Q1017 TEMPO BKN015,LFBT,2022-10-31T19:30:00Z,43.18,0.0,18.0,10.0,0,3,,6.21,30.029528,,,TRUE,,,,,,,,BKN,10000,OVC,16000,,,,,VFR,,,,,,,,,,,,METAR,359.0
LFBP 311930Z AUTO 25004KT 9999 FEW068/// BKN088/// BKN100/// ///TCU 19/12 Q1016 TEMPO 4000 RA BKN022,LFBP,2022-10-31T19:30:00Z,43.38,-0.42,19.0,12.0,250,4,,6.21,30.0,,,TRUE,,,,,,,,FEW,6800,BKN,8800,BKN,10000,,,VFR,,,,,,,,,,,,SPECI,182.0
LFBO 311930Z AUTO 12006KT 9999 -RA NSC 20/16 Q1016 TEMPO SCT060TCU BKN090,LFBO,2022-10-31T19:30:00Z,43.62,1.37,20.0,16.0,120,6,,6.21,30.0,,,TRUE,,,,,,,-RA,CLR,,,,,,,,VFR,,,,,,,,,,,,SPECI,150.0
LFBM 311930Z AUTO 26014KT 9999 // NSC 20/13 Q1016,LFBM,2022-10-31T19:30:00Z,43.92,-0.5,20.0,13.0,260,14,,6.21,30.0,,,TRUE,,,,,,,,CLR,,,,,,,,VFR,,,,,,,,,,,,SPECI,56.0
LFBL 311930Z AUTO /////KT 9999 -RA ////// 16/13 Q1015,LFBL,2022-10-31T19:30:00Z,45.87,1.17,16.0,13.0,,,,6.21,29.970472,,,TRUE,,,,,,,-RA,,,,,,,,,,,,,,,,,,,,,SPECI,402.0
LFBI 311930Z AUTO 21017KT 9999 FEW031 SCT054 BKN066 18/14 Q1012 TEMPO 20020G40KT 3000 SHRA BKN014 BKN025CB,LFBI,2022-10-31T19:30:00Z,46.58,0.32,18.0,14.0,210,17,,6.21,29.88189,,,TRUE,,,,,,,,FEW,3100,SCT,5400,BKN,6600,,,VFR,,,2.0,,,,,,,,,SPECI,117.0
LFBH 311930Z AUTO 24015KT 9999 BKN021 18/15 Q1012 BECMG 26020G37KT,LFBH,2022-10-31T19:30:00Z,46.18,-1.2,18.0,15.0,240,15,,6.21,29.88189,,,TRUE,,,,,,,,BKN,2100,,,,,,,MVFR,,,,,,,,,,,,SPECI,18.0
LFBG 311930Z AUTO 23011KT CAVOK 18/14 Q1014,LFBG,2022-10-31T19:30:00Z,45.67,-0.32,18.0,14.0,230,11,,6.21,29.940945,,,TRUE,,,,,,,,CAVOK,,,,,,,,VFR,,,,,,,,,,,,METAR,28.0
LFBE 311930Z AUTO 17006KT 9999 //////TCU 19/14 Q1014 TEMPO 20015G25KT SHRA BKN010 BKN030CB,LFBE,2022-10-31T19:30:00Z,44.82,0.52,19.0,14.0,170,6,,6.21,29.940945,,,TRUE,,,,,,,,,,,,,,,,,,,1.5,,,,,,,,,SPECI,49.0
LFBD 311930Z AUTO 26013KT 9999 -RA FEW030/// BKN060/// OVC092/// ///CB 18/15 Q1015 TEMPO 18010KT 4000 SHRA BECMG NSC,LFBD,2022-10-31T19:30:00Z,44.82,-0.7,18.0,15.0,260,13,,6.21,29.970472,,,TRUE,,,,,,,-RA,FEW,3000,BKN,6000,OVC,9200,,,VFR,,,,,,,,,,,,SPECI,48.0
LFBC 311930Z AUTO 27014KT 240V300 9999 FEW028/// OVC054/// ///CB 18/14 Q1016,LFBC,2022-10-31T19:30:00Z,44.52,-1.12,18.0,14.0,270,14,,6.21,30.0,,,TRUE,,,,,,,,FEW,2800,OVC,5400,,,,,VFR,,,,,,,,,,,,SPECI,22.0
LFBA 311930Z AUTO 15005KT 100V210 9999 -RA //////TCU 19/14 Q1015 BECMG 28010KT,LFBA,2022-10-31T19:30:00Z,44.17,0.6,19.0,14.0,150,5,,6.21,29.970472,,,TRUE,,,,,,,-RA,,,,,,,,,,,,,,,,,,,,,SPECI,68.0
LFAT 311930Z AUTO 14015KT 9999 -RA SCT021/// BKN027/// BKN032/// //////CB 16/15 Q1005,LFAT,2022-10-31T19:30:00Z,50.52,1.62,16.0,15.0,140,15,,6.21,29.675198,,,TRUE,,,,,,,-RA,SCT,2100,BKN,2700,BKN,3200,,,MVFR,,,,,,,,,,,,SPECI,2.0
LFAQ 311930Z AUTO 18012KT 9999 -RA FEW024 BKN043 BKN054 16/14 Q1009,LFAQ,2022-10-31T19:30:00Z,49.97,2.7,16.0,14.0,180,12,,6.21,29.793306,,,TRUE,,,,,,,-RA,FEW,2400,BKN,4300,BKN,5400,,,VFR,,,,,,,,,,,,METAR,107.0
LFAC 311930Z AUTO 15008KT 9999 -RA ///CB 15/14 Q1006,LFAC,2022-10-31T19:30:00Z,50.97,1.95,15.0,14.0,150,8,,6.21,29.704725,,,TRUE,,,,,,,-RA,,,,,,,,,,,,,,,,,,,,,METAR,3.0
LEZL 311930Z 14002KT CAVOK 19/15 Q1020 NOSIG,LEZL,2022-10-31T19:30:00Z,37.42,-5.9,19.0,15.0,140,2,,6.21,30.11811,,,,,,TRUE,,,,,CAVOK,,,,,,,,VFR,,,,,,,,,,,,METAR,26.0
LEZG 311930Z VRB02KT 9999 FEW060 19/13 Q1019,LEZG,2022-10-31T19:30:00Z,41.67,-1.02,19.0,13.0,0,2,,6.21,30.088583,,,,,,,,,,,FEW,6000,,,,,,,VFR,,,,,,,,,,,,METAR,245.0
LEXJ 311930Z 29014KT 260V320 9999 SCT025 BKN035 17/13 Q1018,LEXJ,2022-10-31T19:30:00Z,43.42,-3.82,17.0,13.0,290,14,,6.21,30.059055,,,,,,,,,,,SCT,2500,BKN,3500,,,,,VFR,,,,,,,,,,,,METAR,1.0
LEVX 311930Z 00000KT 9999 BKN042 14/10 Q1021 NOSIG,LEVX,2022-10-31T19:30:00Z,42.23,-8.62,14.0,10.0,0,0,,6.21,30.147638,,,,,,TRUE,,,,,BKN,4200,,,,,,,VFR,,,,,,,,,,,,METAR,253.0
LEVT 311930Z 23006KT 9999 FEW055 BKN075 16/12 Q1018,LEVT,2022-10-31T19:30:00Z,42.87,-2.72,16.0,12.0,230,6,,6.21,30.059055,,,,,,,,,,,FEW,5500,BKN,7500,,,,,VFR,,,,,,,,,,,,METAR,501.0
LEVS 311930Z AUTO 24007KT 220V280 9999 FEW035 SCT042 BKN069 15/12 Q1022,LEVS,2022-10-31T19:30:00Z,40.37,-3.78,15.0,12.0,240,7,,6.21,30.177166,,,TRUE,,,,,,,,FEW,3500,SCT,4200,BKN,6900,,,VFR,,,,,,,,,,,,METAR,683.0
LEVD 311930Z 24004KT 9999 BKN012 13/12 Q1020,LEVD,2022-10-31T19:30:00Z,41.72,-4.85,13.0,12.0,240,4,,6.21,30.11811,,,,,,,,,,,BKN,1200,,,,,,,MVFR,,,,,,,,,,,,METAR,844.0
LEVC 311930Z 29003KT CAVOK 20/17 Q1020 NOSIG,LEVC,2022-10-31T19:30:00Z,39.5,-0.47,20.0,17.0,290,3,,6.21,30.11811,,,,,,TRUE,,,,,CAVOK,,,,,,,,VFR,,,,,,,,,,,,METAR,58.0
LETU 311930Z AUTO 02005KT 9999 NSC 16/15 Q1019,LETU,2022-10-31T19:30:00Z,,,16.0,15.0,20,5,,6.21,30.088583,,,TRUE,,,,,,,,CLR,,,,,,,,VFR,,,,,,,,,,,,METAR,
LETO 311930Z 20003KT 9999 SCT035 BKN069 15/12 Q1022 NOSIG,LETO,2022-10-31T19:30:00Z,40.48,-3.47,15.0,12.0,200,3,,6.21,30.177166,,,,,,TRUE,,,,,SCT,3500,BKN,6900,,,,,VFR,,,,,,,,,,,,METAR,598.0
LETL 311930Z AUTO 22011KT CAVOK 16/06 Q1023,LETL,2022-10-31T19:30:00Z,40.42,-1.22,16.0,6.0,220,11,,6.21,30.206694,,,TRUE,,,,,,,,CAVOK,,,,,,,,VFR,,,,,,,,,,,,METAR,1024.0
LEST 311930Z VRB02KT 9999 FEW020 11/10 Q1020 NOSIG,LEST,2022-10-31T19:30:00Z,42.88,-8.42,11.0,10.0,0,2,,6.21,30.11811,,,,,,TRUE,,,,,FEW,2000,,,,,,,VFR,,,,,,,,,,,,METAR,363.0
LESB 311930Z AUTO VRB02KT CAVOK 20/17 Q1021,LESB,2022-10-31T19:30:00Z,39.6,2.7,20.0,17.0,0,2,,6.21,30.147638,,,TRUE,,,,,,,,CAVOK,,,,,,,,VFR,,,,,,,,,,,,METAR,48.0
LESA 311930Z AUTO VRB02KT 5000 RA SCT015 BKN022 14/13 Q1021,LESA,2022-10-31T19:30:00Z,40.95,-5.5,14.0,13.0,0,2,,3.11,30.147638,,,TRUE,,,,,,,RA,SCT,1500,BKN,2200,,,,,MVFR,,,,,,,,,,,,METAR,788.0
LERT 311930Z 13005KT 8000 FEW010 20/19 Q1020 NOSIG,LERT,2022-10-31T19:30:00Z,36.63,-6.33,20.0,19.0,130,5,,4.97,30.11811,,,,,,TRUE,,,,,FEW,1000,,,,,,,MVFR,,,,,,,,,,,,METAR,27.0
LERS 311930Z VRB02KT 9999 FEW017 19/18 Q1020,LERS,2022-10-31T19:30:00Z,41.13,1.17,19.0,18.0,0,2,,6.21,30.11811,,,,,,,,,,,FEW,1700,,,,,,,VFR,,,,,,,,,,,,METAR,68.0
LEPP 311930Z 08006KT 020V110 9999 SCT055 17/11 Q1018,LEPP,2022-10-31T19:30:00Z,42.77,-1.65,17.0,11.0,80,6,,6.21,30.059055,,,,,,,,,,,SCT,5500,,,,,,,VFR,,,,,,,,,,,,METAR,448.0
LEPA 311930Z VRB01KT 9000 FEW020 19/17 Q1020 NOSIG,LEPA,2022-10-31T19:30:00Z,39.55,2.73,19.0,17.0,0,1,,5.59,30.11811,,,,,,TRUE,,,,,FEW,2000,,,,,,,VFR,,,,,,,,,,,,METAR,8.0
LEMO 311930Z 24003KT CAVOK 19/14 Q1021 NOSIG,LEMO,2022-10-31T19:30:00Z,37.17,-5.62,19.0,14.0,240,3,,6.21,30.147638,,,,,,TRUE,,,,,CAVOK,,,,,,,,VFR,,,,,,,,,,,,METAR,82.0
LEMI 311930Z VRB01KT 9999 FEW020 20/17 Q1021,LEMI,2022-10-31T19:30:00Z,37.8,-1.12,20.0,17.0,0,1,,6.21,30.147638,,,,,,,,,,,FEW,2000,,,,,,,VFR,,,,,,,,,,,,METAR,193.0
LEMH 311930Z 16006KT 9999 FEW018 21/18 Q1021,LEMH,2022-10-31T19:30:00Z,39.87,4.22,21.0,18.0,160,6,,6.21,30.147638,,,,,,,,,,,FEW,1800,,,,,,,VFR,,,,,,,,,,,,METAR,82.0
LEMG 311930Z 30007KT 270V340 CAVOK 20/16 Q1020 NOSIG,LEMG,2022-10-31T19:30:00Z,36.67,-4.47,20.0,16.0,300,7,,6.21,30.11811,,,,,,TRUE,,,,,CAVOK,,,,,,,,VFR,,,,,,,,,,,,METAR,5.0
LEMD 311930Z 18005KT 9999 SCT040 BKN070 16/12 Q1021 NOSIG,LEMD,2022-10-31T19:30:00Z,40.45,-3.57,16.0,12.0,180,5,,6.21,30.147638,,,,,,TRUE,,,,,SCT,4000,BKN,7000,,,,,VFR,,,,,,,,,,,,METAR,589.0
LELO 311930Z AUTO VRB02KT 9999 SCT065 16/13 Q1018,LELO,2022-10-31T19:30:00Z,42.45,-2.32,16.0,13.0,0,2,,6.21,30.059055,,,TRUE,,,,,,,,SCT,6500,,,,,,,VFR,,,,,,,,,,,,METAR,352.0
LELN 311930Z 29010KT 250V330 9999 FEW050 10/07 Q1019,LELN,2022-10-31T19:30:00Z,42.58,-5.65,10.0,7.0,290,10,,6.21,30.088583,,,,,,,,,,,FEW,5000,,,,,,,VFR,,,,,,,,,,,,METAR,911.0
LELL 311930Z AUTO 19001KT 9000 FEW004 SCT038 19/18 Q1020,LELL,2022-10-31T19:30:00Z,41.52,2.1,19.0,18.0,190,1,,5.59,30.11811,,,TRUE,,,,,,,,FEW,400,SCT,3800,,,,,VFR,,,,,,,,,,,,METAR,136.0
LELC 311930Z 25004KT 210V320 9999 FEW020 21/19 Q1020 NOSIG,LELC,2022-10-31T19:30:00Z,37.77,-0.8,21.0,19.0,250,4,,6.21,30.11811,,,,,,TRUE,,,,,FEW,2000,,,,,,,VFR,,,,,,,,,,,,METAR,3.0
LEJR 311930Z 15003KT 8000 NSC 20/17 Q1020,LEJR,2022-10-31T19:30:00Z,36.75,-6.07,20.0,17.0,150,3,,4.97,30.11811,,,,,,,,,,,CLR,,,,,,,,MVFR,,,,,,,,,,,,METAR,25.0
LEIB 311930Z 15002KT 9999 FEW016 20/18 Q1020 NOSIG,LEIB,2022-10-31T19:30:00Z,38.87,1.38,20.0,18.0,150,2,,6.21,30.11811,,,,,,TRUE,,,,,FEW,1600,,,,,,,VFR,,,,,,,,,,,,METAR,4.0
LEHC 311930Z AUTO 11003KT 060V150 9999 -RA SCT060 OVC070 15/14 Q1021,LEHC,2022-10-31T19:30:00Z,42.08,-0.32,15.0,14.0,110,3,,6.21,30.147638,,,TRUE,,,,,,,-RA,SCT,6000,OVC,7000,,,,,VFR,,,,,,,,,,,,METAR,540.0
LEGR 311930Z VRB01KT 9999 FEW110 19/09 Q1022,LEGR,2022-10-31T19:30:00Z,37.18,-3.78,19.0,9.0,0,1,,6.21,30.177166,,,,,,,,,,,FEW,11000,,,,,,,VFR,,,,,,,,,,,,METAR,560.0
LEGE 311930Z 20006KT 9999 SCT045 19/17 Q1019,LEGE,2022-10-31T19:30:00Z,41.9,2.77,19.0,17.0,200,6,,6.21,30.088583,,,,,,,,,,,SCT,4500,,,,,,,VFR,,,,,,,,,,,,METAR,140.0
LEDA 311930Z AUTO 18007KT CAVOK 19/16 Q1020,LEDA,2022-10-31T19:30:00Z,41.73,0.53,19.0,16.0,180,7,,6.21,30.11811,,,TRUE,,,,,,,,CAVOK,,,,,,,,VFR,,,,,,,,,,,,METAR,352.0
LECO 311930Z 22007KT 9999 FEW025 13/11 Q1020 NOSIG,LECO,2022-10-31T19:30:00Z,43.3,-8.37,13.0,11.0,220,7,,6.21,30.11811,,,,,,TRUE,,,,,FEW,2500,,,,,,,VFR,,,,,,,,,,,,METAR,80.0
LECH 311930Z AUTO 22004KT 9000 NSC 18/16 Q1020,LECH,2022-10-31T19:30:00Z,40.2,0.07,18.0,16.0,220,4,,5.59,30.11811,,,TRUE,,,,,,,,CLR,,,,,,,,VFR,,,,,,,,,,,,METAR,360.0
LEBZ 311930Z 22006KT 190V250 9999 FEW018 SCT030 19/17 Q1020,LEBZ,2022-10-31T19:30:00Z,38.87,-6.82,19.0,17.0,220,6,,6.21,30.11811,,,,,,,,,,,FEW,1800,SCT,3000,,,,,VFR,,,,,,,,,,,,METAR,183.0
LEBT 311930Z AUTO VRB01KT CAVOK 19/16 Q1020,LEBT,2022-10-31T19:30:00Z,39.58,-0.45,19.0,16.0,0,1,,6.21,30.11811,,,TRUE,,,,,,,,CAVOK,,,,,,,,VFR,,,,,,,,,,,,METAR,50.0
LEBR 311930Z AUTO 12008KT 9000 NSC 17/16 Q1019,LEBR,2022-10-31T19:30:00Z,42.2,-1.43,17.0,16.0,120,8,,5.59,30.088583,,,TRUE,,,,,,,,CLR,,,,,,,,VFR,,,,,,,,,,,,METAR,347.0
LEBL 311930Z 21005KT 170V250 9999 SCT016 BKN040 21/19 Q1020 NOSIG,LEBL,2022-10-31T19:30:00Z,41.28,2.07,21.0,19.0,210,5,,6.21,30.11811,,,,,,TRUE,,,,,SCT,1600,BKN,4000,,,,,VFR,,,,,,,,,,,,METAR,2.0
LEBG 311930Z AUTO 21012KT 170V230 9999 BKN009 BKN013 13/11 Q1020,LEBG,2022-10-31T19:30:00Z,42.37,-3.62,13.0,11.0,210,12,,6.21,30.11811,,,TRUE,,,,,,,,BKN,900,BKN,1300,,,,,IFR,,,,,,,,,,,,METAR,892.0
LEBA 311930Z 19003KT CAVOK 19/16 Q1021,LEBA,2022-10-31T19:30:00Z,37.85,-4.83,19.0,16.0,190,3,,6.21,30.147638,,,,,,,,,,,CAVOK,,,,,,,,VFR,,,,,,,,,,,,METAR,88.0
LEAS 311930Z 28016KT 9999 SCT020 SCT045 15/12 Q1019 NOSIG,LEAS,2022-10-31T19:30:00Z,43.57,-6.03,15.0,12.0,280,16,,6.21,30.088583,,,,,,TRUE,,,,,SCT,2000,SCT,4500,,,,,VFR,,,,,,,,,,,,METAR,120.0
LEAO 311930Z 00000KT 9999 FEW049 16/10 Q1022,LEAO,2022-10-31T19:30:00Z,38.95,-3.73,16.0,10.0,0,0,,6.21,30.177166,,,,,,,,,,,FEW,4900,,,,,,,VFR,,,,,,,,,,,,METAR,621.0
LEAM 311930Z 23003KT 190V300 CAVOK 21/18 Q1020,LEAM,2022-10-31T19:30:00Z,36.85,-2.37,21.0,18.0,230,3,,6.21,30.11811,,,,,,,,,,,CAVOK,,,,,,,,VFR,,,,,,,,,,,,METAR,16.0
LEAL 311930Z 28003KT CAVOK 20/18 Q1020 NOSIG,LEAL,2022-10-31T19:30:00Z,38.27,-0.55,20.0,18.0,280,3,,6.21,30.11811,,,,,,TRUE,,,,,CAVOK,,,,,,,,VFR,,,,,,,,,,,,METAR,26.0
LEAG 311930Z AUTO VRB01KT CAVOK 20/18 Q1021,LEAG,2022-10-31T19:30:00Z,36.12,-5.45,20.0,18.0,0,1,,6.21,30.147638,,,TRUE,,,,,,,,CAVOK,,,,,,,,VFR,,,,,,,,,,,,METAR,4.0
LEAB 311930Z 21002KT CAVOK 17/08 Q1024 NOSIG,LEAB,2022-10-31T19:30:00Z,38.95,-1.85,17.0,8.0,210,2,,6.21,30.236221,,,,,,TRUE,,,,,CAVOK,,,,,,,,VFR,,,,,,,,,,,,METAR,704.0
LDZD 311930Z VRB01KT CAVOK 12/11 Q1021,LDZD,2022-10-31T19:30:00Z,44.1,15.33,12.0,11.0,0,1,,6.21,30.147638,,,,,,,,,,,CAVOK,,,,,,,,VFR,,,,,,,,,,,,METAR,82.0
LDZA 311930Z 00000KT 0100 R04/0400N R22/0400N FG VV001 11/10 Q1022 NOSIG,LDZA,2022-10-31T19:30:00Z,45.72,16.07,11.0,10.0,0,0,,0.06,30.177166,,,,,,TRUE,,,,FG,OVX,0,,,,,,,LIFR,,,,,,,,,,,100,SPECI,103.0
LDSP 311930Z 26001KT CAVOK 17/12 Q1021 NOSIG,LDSP,2022-10-31T19:30:00Z,43.53,16.3,17.0,12.0,260,1,,6.21,30.147638,,,,,,TRUE,,,,,CAVOK,,,,,,,,VFR,,,,,,,,,,,,METAR,16.0
LDPL 311930Z 06003KT CAVOK 13/12 Q1021,LDPL,2022-10-31T19:30:00Z,44.88,13.92,13.0,12.0,60,3,,6.21,30.147638,,,,,,,,,,,CAVOK,,,,,,,,VFR,,,,,,,,,,,,METAR,63.0
LDOS 311930Z 06005KT 0150 FG VV001 10/10 Q1023,LDOS,2022-10-31T19:30:00Z,45.47,18.82,10.0,10.0,60,5,,0.09,30.206694,,,,,,,,,,FG,OVX,0,,,,,,,LIFR,,,,,,,,,,,100,METAR,82.0
LDDU 311930Z 10005KT 020V160 CAVOK 19/12 Q1021 NOSIG,LDDU,2022-10-31T19:30:00Z,42.57,18.27,19.0,12.0,100,5,,6.21,30.147638,,,,,,TRUE,,,,,CAVOK,,,,,,,,VFR,,,,,,,,,,,,METAR,156.0
LCPH 311930Z 01005KT 360V060 CAVOK 19/13 Q1015,LCPH,2022-10-31T19:30:00Z,34.72,32.47,19.0,13.0,10,5,,6.21,29.970472,,,,,,,,,,,CAVOK,,,,,,,,VFR,,,,,,,,,,,,METAR,8.0
LCLK 311930Z 30007KT 9999 FEW050 21/16 Q1014 NOSIG,LCLK,2022-10-31T19:30:00Z,34.87,33.62,21.0,16.0,300,7,,6.21,29.940945,,,,,,TRUE,,,,,FEW,5000,,,,,,,VFR,,,,,,,,,,,,METAR,2.0
LBWN 311930Z AUTO VRB02KT 9999 NCD 12/08 Q1022 NOSIG,LBWN,2022-10-31T19:30:00Z,43.22,27.82,12.0,8.0,0,2,,6.21,30.177166,,,TRUE,,,TRUE,,,,,CLR,,,,,,,,VFR,,,,,,,,,,,,METAR,74.0
LBSF 311930Z 00000KT CAVOK 12/07 Q1024 NOSIG,LBSF,2022-10-31T19:30:00Z,42.65,23.37,12.0,7.0,0,0,,6.21,30.236221,,,,,,TRUE,,,,,CAVOK,,,,,,,,VFR,,,,,,,,,,,,METAR,592.0
LBPD 311930Z AUTO 15007KT 9999 NCD 17/08 Q1022 NOSIG,LBPD,2022-10-31T19:30:00Z,42.05,24.85,17.0,8.0,150,7,,6.21,30.177166,,,TRUE,,,TRUE,,,,,CLR,,,,,,,,VFR,,,,,,,,,,,,METAR,182.0
LBGO 311930Z AUTO 08003KT 9999 NCD 08/06 Q1022 NOSIG,LBGO,2022-10-31T19:30:00Z,43.15,25.72,8.0,6.0,80,3,,6.21,30.177166,,,TRUE,,,TRUE,,,,,CLR,,,,,,,,VFR,,,,,,,,,,,,METAR,84.0
LBBG 311930Z AUTO 35002KT 9999 NCD 13/09 Q1022 NOSIG,LBBG,2022-10-31T19:30:00Z,42.57,27.52,13.0,9.0,350,2,,6.21,30.177166,,,TRUE,,,TRUE,,,,,CLR,,,,,,,,VFR,,,,,,,,,,,,METAR,41.0
KTXW 311930Z AUTO 08008KT M1/4SM HZ BKN035 OVC050 26/18 A2992 RMK AO2 T02590180,KTXW,2022-10-31T19:30:00Z,26.18,-97.97,25.9,18.0,80,8,,0.25,29.920275,,,TRUE,TRUE,,,,,,HZ,BKN,3500,OVC,5000,,,,,LIFR,,,,,,,,,,,,METAR,21.0
KS71 311930Z AUTO 24014G23KT 10SM 18/03 A2964 ,KS71,2022-10-31T19:30:00Z,48.6,-109.25,18.0,3.0,240,14,23,10.0,29.639763,,,TRUE,,,,,,,,,,,,,,,,,,,,,,,,,,,,METAR,736.0
KS21 311930Z AUTO 20010KT 10SM FEW120 11/01 A2998 RMK AO2,KS21,2022-10-31T19:30:00Z,43.88,-121.45,11.0,1.0,200,10,,10.0,29.97933,,,TRUE,TRUE,,,,,,,FEW,12000,,,,,,,VFR,,,,,,,,,,,,METAR,1269.0
KQEY 311930Z AUTO 06001KT 9999 CLR 05/05 A2992 RMK A02 TSNO,KQEY,2022-10-31T19:30:00Z,,,5.0,5.0,60,1,,6.21,29.920275,,,TRUE,TRUE,,,TRUE,,,,CLR,,,,,,,,VFR,,,,,,,,,,,,METAR,
KQER 311930Z AUTO 12001KT 8000 FEW026 05/05 A3017 RMK A02 TSNO,KQER,2022-10-31T19:30:00Z,,,5.0,5.0,120,1,,4.97,30.171259,,,TRUE,TRUE,,,TRUE,,,,FEW,2600,,,,,,,MVFR,,,,,,,,,,,,METAR,
KPVW 311930Z AUTO 21010KT 10SM CLR 20/04 A3003 RMK AO2 T01990041,KPVW,2022-10-31T19:30:00Z,34.17,-101.72,19.9,4.1,210,10,,10.0,30.029528,,,TRUE,TRUE,,,,,,,CLR,,,,,,,,VFR,,,,,,,,,,,,METAR,1029.0
KMYZ 311930Z AUTO 00000KT 10SM CLR 20/00 A2993 RMK AO2,KMYZ,2022-10-31T19:30:00Z,39.85,-96.63,20.0,0.0,0,0,,10.0,29.929134,,,TRUE,TRUE,,,,,,,CLR,,,,,,,,VFR,,,,,,,,,,,,METAR,388.0
KMRC 311930Z AUTO 22009KT 10SM SCT023 BKN042 OVC060 18/16 A2994 RMK A01,KMRC,2022-10-31T19:30:00Z,35.55,-87.18,18.0,16.0,220,9,,10.0,29.940945,,,TRUE,TRUE,,,,,,,SCT,2300,BKN,4200,OVC,6000,,,VFR,,,,,,,,,,,,METAR,205.0
KMPZ 311930Z AUTO 29004KT 10SM CLR 19/10 A2987 RMK AO2,KMPZ,2022-10-31T19:30:00Z,40.95,-91.52,19.0,10.0,290,4,,10.0,29.870079,,,TRUE,TRUE,,,,,,,CLR,,,,,,,,VFR,,,,,,,,,,,,METAR,222.0
KMBS 311930Z 00000KT 10SM SCT028 BKN045 OVC100 16/12 A2981 RMK AO2 T01610117,KMBS,2022-10-31T19:30:00Z,43.53,-84.08,16.1,11.7,0,0,,10.0,29.811024,,,,TRUE,,,,,,,SCT,2800,BKN,4500,OVC,10000,,,VFR,,,,,,,,,,,,SPECI,201.0
KM91 311930Z AUTO 22007KT 9SM FEW019 SCT037 BKN042 18/14 A2992 RMK A01,KM91,2022-10-31T19:30:00Z,36.53,-86.92,18.0,14.0,220,7,,9.0,29.920275,,,TRUE,TRUE,,,,,,,FEW,1900,SCT,3700,BKN,4200,,,VFR,,,,,,,,,,,,METAR,214.0
KM54 311930Z AUTO 24007KT 10SM SCT026 BKN036 OVC065 18/14 A2992 RMK A01,KM54,2022-10-31T19:30:00Z,36.18,-86.32,18.0,14.0,240,7,,10.0,29.920275,,,TRUE,TRUE,,,,,,,SCT,2600,BKN,3600,OVC,6500,,,VFR,,,,,,,,,,,,METAR,168.0
KHSG 311930Z AUTO 10006KT 10SM CLR 16/M04 A2990 RMK AO2 T01551041,KHSG,2022-10-31T19:30:00Z,43.72,-108.38,15.5,-4.1,100,6,,10.0,29.899607,,,TRUE,TRUE,,,,,,,CLR,,,,,,,,VFR,,,,,,,,,,,,METAR,1497.0
KHNB 311930Z AUTO 24006KT 9SM FEW008 SCT049 OVC060 16/14 A2989 RMK AO2 RAE24 P0001,KHNB,2022-10-31T19:30:00Z,38.25,-86.95,16.0,14.0,240,6,,9.0,29.890747,,,TRUE,TRUE,,,,,,,FEW,800,SCT,4900,OVC,6000,,,VFR,,,,,,0.01,,,,,,SPECI,159.0
KHGR 311930Z 17005KT 10SM OVC013 14/12 A2998 RMK AO2 RAB03E24 P0001 T01440117,KHGR,2022-10-31T19:30:00Z,39.7,-77.73,14.4,11.7,170,5,,10.0,29.97933,,,,TRUE,,,,,,,OVC,1300,,,,,,,MVFR,,,,,,0.01,,,,,,SPECI,206.0
KHBV 311930Z AUTO 10007G15KT 4SM HZ SCT033 BKN048 OVC055 21/17 A2998 RMK AO2 T02060167,KHBV,2022-10-31T19:30:00Z,27.35,-98.73,20.6,16.7,100,7,15,4.0,29.97933,,,TRUE,TRUE,,,,,,HZ,SCT,3300,BKN,4800,OVC,5500,,,MVFR,,,,,,,,,,,,METAR,200.0
KH71 311930Z AUTO 25008KT 10SM CLR 23/06 A2996 RMK AO2,KH71,2022-10-31T19:30:00Z,36.22,-95.33,23.0,6.0,250,8,,10.0,29.958662,,,TRUE,TRUE,,,,,,,CLR,,,,,,,,VFR,,,,,,,,,,,,METAR,190.0
KGVW 311930Z AUTO 07006KT 10SM CLR 22/15 A3002 RMK A01,KGVW,2022-10-31T19:30:00Z,29.13,-94.55,22.0,15.0,70,6,,10.0,30.02067,,,TRUE,TRUE,,,,,,,CLR,,,,,,,,VFR,,,,,,,,,,,,METAR,37.0
KFYE 311930Z AUTO 24009G15KT 220V280 10SM FEW038 OVC047 19/12 A2994 RMK A01,KFYE,2022-10-31T19:30:00Z,35.2,-89.38,19.0,12.0,240,9,15,10.0,29.940945,,,TRUE,TRUE,,,,,,,FEW,3800,OVC,4700,,,,,VFR,,,,,,,,,,,,METAR,133.0
KEDU 311930Z AUTO 00000KT 10SM CLR 17/08 A2996 RMK AO1,KEDU,2022-10-31T19:30:00Z,38.53,-121.78,17.0,8.0,0,0,,10.0,29.958662,,,TRUE,TRUE,,,,,,,CLR,,,,,,,,VFR,,,,,,,,,,,,METAR,20.0
KEBS 311930Z AUTO 31006G12KT 10SM CLR 18/00 A2985 RMK AO2,KEBS,2022-10-31T19:30:00Z,42.43,-93.87,18.0,0.0,310,6,12,10.0,29.84941,,,TRUE,TRUE,,,,,,,CLR,,,,,,,,VFR,,,,,,,,,,,,METAR,340.0
KEAN 311930Z AUTO 25012G20KT 10SM CLR 18/M06 A2992 RMK AO2 T01791059,KEAN,2022-10-31T19:30:00Z,42.05,-104.93,17.9,-5.9,250,12,20,10.0,29.920275,,,TRUE,TRUE,,,,,,,CLR,,,,,,,,VFR,,,,,,,,,,,,METAR,1452.0
KDWX 311930Z AUTO 10SM CLR 09/M08 A3013 RMK AO2 T00911084,KDWX,2022-10-31T19:30:00Z,41.03,-107.5,9.1,-8.4,,,,10.0,30.129921,,,TRUE,TRUE,,,,,,,CLR,,,,,,,,VFR,,,,,,,,,,,,METAR,1974.0
KDVK 311930Z AUTO 23010KT 10SM SCT027 SCT039 OVC048 17/12 A2993 RMK AO2,KDVK,2022-10-31T19:30:00Z,37.58,-84.77,17.0,12.0,230,10,,10.0,29.929134,,,TRUE,TRUE,,,,,,,SCT,2700,SCT,3900,OVC,4800,,,VFR,,,,,,,,,,,,METAR,309.0
KCQB 311930Z AUTO 29006KT 10SM CLR 23/03 A2999 RMK AO2 T02290027,KCQB,2022-10-31T19:30:00Z,35.72,-96.82,22.9,2.7,290,6,,10.0,29.991142,,,TRUE,TRUE,,,,,,,CLR,,,,,,,,VFR,,,,,,,,,,,,METAR,298.0
KCHK 311930Z AUTO 25008KT 10SM CLR 23/09 A2997 RMK AO2 T02340085,KCHK,2022-10-31T19:30:00Z,35.1,-97.97,23.4,8.5,250,8,,10.0,29.970472,,,TRUE,TRUE,,,,,,,CLR,,,,,,,,VFR,,,,,,,,,,,,METAR,346.0
KBMC 311930Z AUTO 10SM CLR 13/M04 A3012 RMK AO1 T01311040,KBMC,2022-10-31T19:30:00Z,41.55,-112.07,13.1,-4.0,,,,10.0,30.121063,,,TRUE,TRUE,,,,,,,CLR,,,,,,,,VFR,,,,,,,,,,,,METAR,1289.0
KBDN 311930Z AUTO 22011KT 10SM CLR 14/04 A2992 RMK AO2,KBDN,2022-10-31T19:30:00Z,44.1,-121.2,14.0,4.0,220,11,,10.0,29.920275,,,TRUE,TRUE,,,,,,,CLR,,,,,,,,VFR,,,,,,,,,,,,METAR,1044.0
KANK 311930Z AUTO 21012G17KT 10SM CLR 15/M11 A3014 RMK AO1 T01511108,KANK,2022-10-31T19:30:00Z,38.53,-106.05,15.1,-10.8,210,12,17,10.0,30.138779,,,TRUE,TRUE,,,,,,,CLR,,,,,,,,VFR,,,,,,,,,,,,METAR,2293.0
K3U3 311930Z AUTO 19012G23KT 10SM 13/M01 A2986 ,K3U3,2022-10-31T19:30:00Z,46.15,-112.87,13.0,-1.0,190,12,23,10.0,29.861221,,,TRUE,,,,,,,,,,,,,,,,,,,,,,,,,,,,METAR,1534.0
K38S 311930Z AUTO 20008KT 10SM 14/01 A2986 ,K38S,2022-10-31T19:30:00Z,46.38,-112.77,14.0,1.0,200,8,,10.0,29.861221,,,TRUE,,,,,,,,,,,,,,,,,,,,,,,,,,,,METAR,1430.0
K2M2 311930Z AUTO 24005KT 10SM FEW020 SCT029 BKN043 17/14 A2996 RMK A01,K2M2,2022-10-31T19:30:00Z,35.23,-87.25,17.0,14.0,240,5,,10.0,29.958662,,,TRUE,TRUE,,,,,,,FEW,2000,SCT,2900,BKN,4300,,,VFR,,,,,,,,,,,,METAR,286.0
K1S3 311930Z AUTO 25012G22KT 10SM 19/M03 A2973 ,K1S3,2022-10-31T19:30:00Z,46.27,-106.62,19.0,-3.0,250,12,22,10.0,29.731298,,,TRUE,,,,,,,,,,,,,,,,,,,,,,,,,,,,METAR,831.0
HRYR 311930Z 35008KT 9999 FEW026 SCT100 22/15 Q1019 NOSIG,HRYR,2022-10-31T19:30:00Z,-1.97,30.13,22.0,15.0,350,8,,6.21,30.088583,,,,,,TRUE,,,,,FEW,2600,SCT,10000,,,,,VFR,,,,,,,,,,,,METAR,1493.0
HECA 311930Z 08006KT 9999 SCT025 23/13 Q1016 NOSIG,HECA,2022-10-31T19:30:00Z,30.12,31.4,23.0,13.0,80,6,,6.21,30.0,,,,,,TRUE,,,,,SCT,2500,,,,,,,VFR,,,,,,,,,,,,METAR,68.0
GQNO 311930Z 05007KT 8000 NSC 31/M02 Q1011 NOSIG,GQNO,2022-10-31T19:30:00Z,18.3,-15.97,31.0,-2.0,50,7,,4.97,29.852362,,,,,,TRUE,,,,,CLR,,,,,,,,MVFR,,,,,,,,,,,,METAR,1.0
GOBD 311930Z 34007KT 7000 NSC 28/19 Q1011 NOSIG,GOBD,2022-10-31T19:30:00Z,14.67,-17.07,28.0,19.0,340,7,,4.35,29.852362,,,,,,TRUE,,,,,CLR,,,,,,,,MVFR,,,,,,,,,,,,METAR,90.0
GMTT 311930Z 26005KT 230V290 6000 NSC 20/18 Q1021 NOSIG,GMTT,2022-10-31T19:30:00Z,35.72,-5.9,20.0,18.0,260,5,,3.73,30.147638,,,,,,TRUE,,,,,CLR,,,,,,,,MVFR,,,,,,,,,,,,METAR,19.0
GMMX 311930Z 30004KT 260V340 9999 FEW100 26/03 Q1022 NOSIG,GMMX,2022-10-31T19:30:00Z,31.62,-8.03,26.0,3.0,300,4,,6.21,30.177166,,,,,,TRUE,,,,,FEW,10000,,,,,,,VFR,,,,,,,,,,,,METAR,465.0
GMMN 311930Z 03005KT 360V080 CAVOK 22/17 Q1021 NOSIG,GMMN,2022-10-31T19:30:00Z,33.37,-7.58,22.0,17.0,30,5,,6.21,30.147638,,,,,,TRUE,,,,,CAVOK,,,,,,,,VFR,,,,,,,,,,,,METAR,196.0
GMME 311930Z 00000KT 5000 SCT010 SCT016 21/20 Q1020 NOSIG,GMME,2022-10-31T19:30:00Z,34.05,-6.77,21.0,20.0,0,0,,3.11,30.11811,,,,,,TRUE,,,,,SCT,1000,SCT,1600,,,,,MVFR,,,,,,,,,,,,METAR,84.0
GMFO 311930Z 32012KT CAVOK 19/13 Q1022 NOSIG,GMFO,2022-10-31T19:30:00Z,34.78,-1.92,19.0,13.0,320,12,,6.21,30.177166,,,,,,TRUE,,,,,CAVOK,,,,,,,,VFR,,,,,,,,,,,,METAR,452.0
GMFF 311930Z 25005KT CAVOK 22/01 Q1023 NOSIG,GMFF,2022-10-31T19:30:00Z,33.92,-4.97,22.0,1.0,250,5,,6.21,30.206694,,,,,,TRUE,,,,,CAVOK,,,,,,,,VFR,,,,,,,,,,,,METAR,575.0
GMAD 311930Z 14010KT CAVOK 26/M02 Q1019 NOSIG,GMAD,2022-10-31T19:30:00Z,30.32,-9.42,26.0,-2.0,140,10,,6.21,30.088583,,,,,,TRUE,,,,,CAVOK,,,,,,,,VFR,,,,,,,,,,,,METAR,66.0
GEML 311930Z 29001KT CAVOK 21/17 Q1021,GEML,2022-10-31T19:30:00Z,35.27,-2.95,21.0,17.0,290,1,,6.21,30.147638,,,,,,,,,,,CAVOK,,,,,,,,VFR,,,,,,,,,,,,METAR,48.0
GECE 311930Z AUTO 22003KT 160V260 CAVOK 20/19 Q1020,GECE,2022-10-31T19:30:00Z,35.88,-5.3,20.0,19.0,220,3,,6.21,30.11811,,,TRUE,,,,,,,,CAVOK,,,,,,,,VFR,,,,,,,,,,,,METAR,2.0
GCXO 311930Z 26008KT CAVOK 19/17 Q1022 NOSIG,GCXO,2022-10-31T19:30:00Z,28.48,-16.35,19.0,17.0,260,8,,6.21,30.177166,,,,,,TRUE,,,,,CAVOK,,,,,,,,VFR,,,,,,,,,,,,METAR,623.0
GCTS 311930Z 06005KT 010V080 9999 FEW020 22/19 Q1020 NOSIG,GCTS,2022-10-31T19:30:00Z,28.05,-16.57,22.0,19.0,60,5,,6.21,30.11811,,,,,,TRUE,,,,,FEW,2000,,,,,,,VFR,,,,,,,,,,,,METAR,59.0
GCRR 311930Z 36011KT CAVOK 24/19 Q1019,GCRR,2022-10-31T19:30:00Z,28.95,-13.58,24.0,19.0,360,11,,6.21,30.088583,,,,,,,,,,,CAVOK,,,,,,,,VFR,,,,,,,,,,,,METAR,9.0
GCLP 311930Z 01013KT 9999 FEW020 23/20 Q1020 NOSIG,GCLP,2022-10-31T19:30:00Z,27.92,-15.38,23.0,20.0,10,13,,6.21,30.11811,,,,,,TRUE,,,,,FEW,2000,,,,,,,VFR,,,,,,,,,,,,METAR,16.0
GCLA 311930Z 01009KT 330V030 9999 SCT020 23/19 Q1021,GCLA,2022-10-31T19:30:00Z,28.62,-17.75,23.0,19.0,10,9,,6.21,30.147638,,,,,,,,,,,SCT,2000,,,,,,,VFR,,,,,,,,,,,,METAR,20.0
GCHI 311930Z AUTO 36009KT 320V040 9999 SCT014 23/20 Q1020,GCHI,2022-10-31T19:30:00Z,27.82,-17.88,23.0,20.0,360,9,,6.21,30.11811,,,TRUE,,,,,,,,SCT,1400,,,,,,,VFR,,,,,,,,,,,,METAR,21.0
GCGM 311930Z AUTO 09003KT CAVOK 22/19 Q1020 RMK R09/VRB02KT ARP/VRB01KT,GCGM,2022-10-31T19:30:00Z,28.03,-17.22,22.0,19.0,90,3,,6.21,30.11811,,,TRUE,,,,,,,,CAVOK,,,,,,,,VFR,,,,,,,,,,,,METAR,217.0
GCFV 311930Z 01007KT 9999 FEW010 23/20 Q1019,GCFV,2022-10-31T19:30:00Z,28.43,-13.87,23.0,20.0,10,7,,6.21,30.088583,,,,,,,,,,,FEW,1000,,,,,,,VFR,,,,,,,,,,,,METAR,11.0
GABS 311930Z 07004KT CAVOK 27/13 Q1013 NOSIG,GABS,2022-10-31T19:30:00Z,12.53,-7.95,27.0,13.0,70,4,,6.21,29.911417,,,,,,TRUE,,,,,CAVOK,,,,,,,,VFR,,,,,,,,,,,,METAR,375.0
FOOG 311930Z 22003KT 180V240 9999 SCT010 BKN023 27/26 Q1011,FOOG,2022-10-31T19:30:00Z,-0.7,8.75,27.0,26.0,220,3,,6.21,29.852362,,,,,,,,,,,SCT,1000,BKN,2300,,,,,MVFR,,,,,,,,,,,,METAR,4.0
FMMI 311930Z 07004KT 040V120 9999 FEW017 15/15 Q1023 NOSIG,FMMI,2022-10-31T19:30:00Z,-18.8,47.47,15.0,15.0,70,4,,6.21,30.206694,,,,,,TRUE,,,,,FEW,1700,,,,,,,VFR,,,,,,,,,,,,METAR,1269.0
FMEP 311930Z AUTO 04003KT CAVOK 22/17 Q1019,FMEP,2022-10-31T19:30:00Z,-21.32,55.42,22.0,17.0,40,3,,6.21,30.088583,,,TRUE,,,,,,,,CAVOK,,,,,,,,VFR,,,,,,,,,,,,METAR,21.0
FMEE 311930Z AUTO 13015KT 9999 FEW082/// BKN140/// 23/18 Q1020 TEMPO 4500 SHRA SCT020TCU,FMEE,2022-10-31T19:30:00Z,-20.88,55.52,23.0,18.0,130,15,,6.21,30.11811,,,TRUE,,,,,,,,FEW,8200,BKN,14000,,,,,VFR,,,,,,,,,,,,METAR,20.0
FMCZ 311930Z AUTO 01005KT 320V040 9999 FEW022 26/21 Q1015 NOSIG,FMCZ,2022-10-31T19:30:00Z,-12.8,45.27,26.0,21.0,10,5,,6.21,29.970472,,,TRUE,,,TRUE,,,,,FEW,2200,,,,,,,VFR,,,,,,,,,,,,METAR,7.0
FAOR 311930Z 07010KT 9999 BKN008 14/12 Q1025 NOSIG,FAOR,2022-10-31T19:30:00Z,-26.13,28.23,14.0,12.0,70,10,,6.21,30.265747,,,,,,TRUE,,,,,BKN,800,,,,,,,IFR,,,,,,,,,,,,METAR,1684.0
EPZG 311930Z 04002KT 0400 R24/0300N FG SCT000 09/09 Q1019,EPZG,2022-10-31T19:30:00Z,52.13,15.77,9.0,9.0,40,2,,0.25,30.088583,,,,,,,,,,FG,SCT,0,,,,,,,LIFR,,,,,,,,,,,,METAR,59.0
EPWR 311930Z VRB01KT 0800 R29/P2000N FG NSC 09/08 Q1020,EPWR,2022-10-31T19:30:00Z,51.1,16.88,9.0,8.0,0,1,,0.5,30.11811,,,,,,,,,,FG,CLR,,,,,,,,LIFR,,,,,,,,,,,,METAR,118.0
EPWA 311930Z 17003KT 1400 1100W R33/1700U -DZ BR OVC002 12/12 Q1021 TEMPO 0800 FG,EPWA,2022-10-31T19:30:00Z,52.17,20.97,12.0,12.0,170,3,,0.87,30.147638,,,,,,,,,,-DZ BR,OVC,200,,,,,,,LIFR,,,,,,,,,,,,SPECI,107.0
EPSY 311930Z 20002KT 2600 BR VV003 09/09 Q1021,EPSY,2022-10-31T19:30:00Z,53.47,20.93,9.0,9.0,200,2,,1.62,30.147638,,,,,,,,,,BR,OVX,0,,,,,,,LIFR,,,,,,,,,,,300,METAR,136.0
EPSC 311930Z VRB02KT 2500 -DZ BR OVC002 12/12 Q1020,EPSC,2022-10-31T19:30:00Z,53.58,14.9,12.0,12.0,0,2,,1.55,30.11811,,,,,,,,,,-DZ BR,OVC,200,,,,,,,LIFR,,,,,,,,,,,,METAR,47.0
EPRZ 311930Z VRB01KT CAVOK 10/09 Q1021,EPRZ,2022-10-31T19:30:00Z,50.1,22.02,10.0,9.0,0,1,,6.21,30.147638,,,,,,,,,,,CAVOK,,,,,,,,VFR,,,,,,,,,,,,METAR,206.0
EPPO 311930Z 07004KT 0050 R28/0325N FG VV001 11/11 Q1020,EPPO,2022-10-31T19:30:00Z,52.42,16.83,11.0,11.0,70,4,,0.03,30.11811,,,,,,,,,,FG,OVX,0,,,,,,,LIFR,,,,,,,,,,,100,METAR,87.0
EPMO 311930Z 21005KT 180V240 0900 R08/1000N FG VV001 12/12 Q1021,EPMO,2022-10-31T19:30:00Z,52.45,20.65,12.0,12.0,210,5,,0.56,30.147638,,,,,,,,,,FG,OVX,0,,,,,,,LIFR,,,,,,,,,,,100,METAR,102.0
EPLL 311930Z 07004KT 0050 R25/0400N FG VV000 09/09 Q1020,EPLL,2022-10-31T19:30:00Z,51.72,19.4,9.0,9.0,70,4,,0.03,30.11811,,,,,,,,,,FG,OVX,0,,,,,,,LIFR,,,,,,,,,,,0,METAR,176.0
EPLB 311930Z 11004KT 0050 FG VV001 09/09 Q1022,EPLB,2022-10-31T19:30:00Z,51.23,22.72,9.0,9.0,110,4,,0.03,30.177166,,,,,,,,,,FG,OVX,0,,,,,,,LIFR,,,,,,,,,,,100,METAR,206.0
EPKT 311930Z 09004KT 4200 0500NW BCFG BR NSC 08/07 Q1020,EPKT,2022-10-31T19:30:00Z,50.47,19.08,8.0,7.0,90,4,,2.61,30.11811,,,,,,,,,,BCFG BR,CLR,,,,,,,,IFR,,,,,,,,,,,,SPECI,296.0
EPKK 311930Z 31002KT CAVOK 11/10 Q1021,EPKK,2022-10-31T19:30:00Z,50.07,19.8,11.0,10.0,310,2,,6.21,30.147638,,,,,,,,,,,CAVOK,,,,,,,,VFR,,,,,,,,,,,,METAR,237.0
EPGD 311930Z 29006KT 7000 OVC007 12/12 Q1020,EPGD,2022-10-31T19:30:00Z,54.37,18.47,12.0,12.0,290,6,,4.35,30.11811,,,,,,,,,,,OVC,700,,,,,,,IFR,,,,,,,,,,,,METAR,136.0
EPBY 311930Z VRB02KT 0600 R26/1700D FG VV002 11/11 Q1020,EPBY,2022-10-31T19:30:00Z,53.1,18.0,11.0,11.0,0,2,,0.37,30.11811,,,,,,,,,,FG,OVX,0,,,,,,,LIFR,,,,,,,,,,,200,METAR,66.0
EIWF 311930Z 33005KT 290V010 9999 -RA FEW006 10/10 Q0998,EIWF,2022-10-31T19:30:00Z,52.18,-7.08,10.0,10.0,330,5,,6.21,29.468504,,,,,,,,,,-RA,FEW,600,,,,,,,VFR,,,,,,,,,,,,METAR,26.0
EISG 311930Z 00000KT CAVOK 09/08 Q0999,EISG,2022-10-31T19:30:00Z,54.28,-8.6,9.0,8.0,0,0,,6.21,29.498032,,,,,,,,,,,CAVOK,,,,,,,,VFR,,,,,,,,,,,,METAR,1.0
EINN 311930Z 26007KT 9999 FEW005 SCT015 BKN040 10/09 Q1000 NOSIG,EINN,2022-10-31T19:30:00Z,52.7,-8.92,10.0,9.0,260,7,,6.21,29.52756,,,,,,TRUE,,,,,FEW,500,SCT,1500,BKN,4000,,,VFR,,,,,,,,,,,,METAR,20.0
EIDW 311930Z 13006KT 100V170 7000 SCT015 BKN100 13/11 Q0999 NOSIG,EIDW,2022-10-31T19:30:00Z,53.42,-6.28,13.0,11.0,130,6,,4.35,29.498032,,,,,,TRUE,,,,,SCT,1500,BKN,10000,,,,,MVFR,,,,,,,,,,,,METAR,75.0
EIDL 311930Z 09004KT 9999 FEW040 10/09 Q0999,EIDL,2022-10-31T19:30:00Z,55.05,-8.33,10.0,9.0,90,4,,6.21,29.498032,,,,,,,,,,,FEW,4000,,,,,,,VFR,,,,,,,,,,,,METAR,2.0
EICK 311930Z 28010KT 9999 FEW005 SCT009 BKN070 09/08 Q1000 NOSIG,EICK,2022-10-31T19:30:00Z,51.85,-8.47,9.0,8.0,280,10,,6.21,29.52756,,,,,,TRUE,,,,,FEW,500,SCT,900,BKN,7000,,,VFR,,,,,,,,,,,,METAR,158.0
DTTJ 311930Z 10005KT CAVOK 21/13 Q1023 NOSIG,DTTJ,2022-10-31T19:30:00Z,33.87,10.77,21.0,13.0,100,5,,6.21,30.206694,,,,,,TRUE,,,,,CAVOK,,,,,,,,VFR,,,,,,,,,,,,METAR,3.0
DTTA 311930Z 12005KT 070V170 CAVOK 22/17 Q1022,DTTA,2022-10-31T19:30:00Z,36.85,10.22,22.0,17.0,120,5,,6.21,30.177166,,,,,,,,,,,CAVOK,,,,,,,,VFR,,,,,,,,,,,,METAR,4.0
DTNH 311930Z 15007KT CAVOK 21/15 Q1021,DTNH,2022-10-31T19:30:00Z,36.07,10.43,21.0,15.0,150,7,,6.21,30.147638,,,,,,,,,,,CAVOK,,,,,,,,VFR,,,,,,,,,,,,METAR,1.0
DTMB 311930Z 17004KT 9999 SCT023 22/15 Q1022,DTMB,2022-10-31T19:30:00Z,35.77,10.75,22.0,15.0,170,4,,6.21,30.177166,,,,,,,,,,,SCT,2300,,,,,,,VFR,,,,,,,,,,,,METAR,1.0
DAOO 311930Z 34004KT 8000 NSC 19/17 Q1020,DAOO,2022-10-31T19:30:00Z,35.62,-0.62,19.0,17.0,340,4,,4.97,30.11811,,,,,,,,,,,CLR,,,,,,,,MVFR,,,,,,,,,,,,METAR,87.0
DAON 311930Z 36003KT CAVOK 19/17 Q1022,DAON,2022-10-31T19:30:00Z,35.02,-1.47,19.0,17.0,360,3,,6.21,30.177166,,,,,,,,,,,CAVOK,,,,,,,,VFR,,,,,,,,,,,,METAR,245.0
DABC 311930Z 19004KT CAVOK 17/03 Q1024,DABC,2022-10-31T19:30:00Z,36.27,6.62,17.0,3.0,190,4,,6.21,30.236221,,,,,,,,,,,CAVOK,,,,,,,,VFR,,,,,,,,,,,,METAR,686.0
DABB 311930Z 03003KT CAVOK 20/18 Q1020,DABB,2022-10-31T19:30:00Z,36.82,7.82,20.0,18.0,30,3,,6.21,30.11811,,,,,,,,,,,CAVOK,,,,,,,,VFR,,,,,,,,,,,,METAR,3.0
DAAT 311930Z VRB04KT CAVOK 20/M02 Q1025,DAAT,2022-10-31T19:30:00Z,22.82,5.47,20.0,-2.0,0,4,,6.21,30.265747,,,,,,,,,,,CAVOK,,,,,,,,VFR,,,,,,,,,,,,METAR,1376.0
DAAG 311930Z 26003KT CAVOK 18/13 Q1020,DAAG,2022-10-31T19:30:00Z,36.68,3.22,18.0,13.0,260,3,,6.21,30.11811,,,,,,,,,,,CAVOK,,,,,,,,VFR,,,,,,,,,,,,METAR,18.0
CYZT 311930Z 22009KT 20SM FEW018 BKN042 BKN090 07/04 A2981 RMK CU2SC3AC2 SLP096,CYZT,2022-10-31T19:30:00Z,50.68,-127.37,7.0,4.0,220,9,,20.0,29.811024,1009.6,,,,,,,,,,FEW,1800,BKN,4200,BKN,9000,,,VFR,,,,,,,,,,,,SPECI,13.0
CYQA 311930Z AUTO VRB02KT 5SM -RA BR BKN005 OVC010 10/09 A2983 RMK PCPN 0.5MM PAST HR SLP108,CYQA,2022-10-31T19:30:00Z,44.97,-79.3,10.0,9.0,0,2,,5.0,29.828741,1010.8,,TRUE,,,,,,,-RA BR,BKN,500,OVC,1000,,,,,IFR,,,,,,,,,,,,SPECI,277.0
CYDC 311930Z VRB02KT 15SM FEW039 SCT049 BKN072 BKN200 08/05 A2963 RMK SC1SC2AC3CI1 CI TR SLP044 DENSITY ALT 2400FT,CYDC,2022-10-31T19:30:00Z,49.47,-120.52,8.0,5.0,0,2,,15.0,29.630905,1004.4,,,,,,,,,,FEW,3900,SCT,4900,BKN,7200,BKN,20000,VFR,,,,,,,,,,,,SPECI,703.0
CWPF 311930Z AUTO 24009KT 10/06 RMK AO1 SLP098 T01040060 52019,CWPF,2022-10-31T19:30:00Z,48.43,-123.43,10.4,6.0,240,9,,,,1009.8,,TRUE,TRUE,,,,,,,,,,,,,,,,1.9,,,,,,,,,,,METAR,5.0
CBAR 311930Z AUTO 03013KT ////SM OVC011 M15/M16 A3006,CBAR,2022-10-31T19:30:00Z,,,-15.0,-16.0,30,13,,,30.059055,,,TRUE,,,,,,,,OVC,1100,,,,,,,,,,,,,,,,,,,SPECI,
BKPR 311930Z 31001KT CAVOK 12/06 Q1024 NOSIG,BKPR,2022-10-31T19:30:00Z,42.58,21.03,12.0,6.0,310,1,,6.21,30.236221,,,,,,TRUE,,,,,CAVOK,,,,,,,,VFR,,,,,,,,,,,,METAR,545.0
BIKF 311930Z 16015KT 5000 -DZ OVC003 06/06 Q0979,BIKF,2022-10-31T19:30:00Z,63.98,-22.6,6.0,6.0,160,15,,3.11,28.90748,,,,,,,,,,-DZ,OVC,300,,,,,,,LIFR,,,,,,,,,,,,METAR,49.0
PASV 311929Z AUTO 36010KT 320V040 1SM -SN BR OVC003 M10/M11 A2993 RMK AO2 SLP181,PASV,2022-10-31T19:29:00Z,61.1,-155.57,-10.0,-11.0,360,10,,1.0,29.929134,1018.1,,TRUE,TRUE,,,,,,-SN BR,OVC,300,,,,,,,LIFR,,,,,,,,,,,,SPECI,462.0
PAMH 311929Z AUTO 00000KT 3SM -SN BR OVC034 M10/M12 A2999 RMK AO2 P0000 FZRANO,PAMH,2022-10-31T19:29:00Z,63.9,-152.28,-10.0,-12.0,0,0,,3.0,29.991142,,,TRUE,TRUE,,,,TRUE,,-SN BR,OVC,3400,,,,,,,MVFR,,,,,,0.005,,,,,,SPECI,200.0
KMLP 311929Z AUTO VRB06KT 1/4SM -RA FG OVC002 02/02 A2979 RMK AO2 P0005 T00220017,KMLP,2022-10-31T19:29:00Z,47.45,-115.67,2.2,1.7,0,6,,0.25,29.790354,,,TRUE,TRUE,,,,,,-RA FG,OVC,200,,,,,,,LIFR,,,,,,0.05,,,,,,SPECI,1837.0
KLYH 311929Z 00000KT 3SM -RA BR BKN003 OVC009 15/13 A3003 RMK AO2 P0004 T01500133,KLYH,2022-10-31T19:29:00Z,37.32,-79.2,15.0,13.3,0,0,,3.0,30.029528,,,,TRUE,,,,,,-RA BR,BKN,300,OVC,900,,,,,LIFR,,,,,,0.04,,,,,,METAR,282.0
KGKJ 311929Z AUTO 19004KT 7SM OVC006 14/13 A2989 RMK AO2 CIG 004V010 T01440133,KGKJ,2022-10-31T19:29:00Z,41.63,-80.22,14.4,13.3,190,4,,7.0,29.890747,,,TRUE,TRUE,,,,,,,OVC,600,,,,,,,IFR,,,,,,,,,,,,SPECI,428.0
KDOV 311929Z 11005KT 10SM FEW008 FEW015 OVC029 17/14 A3000 RMK AO2A SLP163,KDOV,2022-10-31T19:29:00Z,39.12,-75.47,17.0,14.0,110,5,,10.0,30.0,1016.3,,,TRUE,,,,,,,FEW,800,FEW,1500,OVC,2900,,,MVFR,,,,,,,,,,,,SPECI,6.0
LIVC 311928Z AUTO 21025KT ///// 08/M04 Q1029,LIVC,2022-10-31T19:28:00Z,44.2,10.68,8.0,-4.0,210,25,,,30.383858,,,TRUE,,,,,,,,,,,,,,,,,,,,,,,,,,,,SPECI,2139.0
CYFS 311928Z 33012KT 1SM -SN FEW007 OVC030 M05/M07 A2971 RMK SF1SC8 SF TR SLP077,CYFS,2022-10-31T19:28:00Z,61.75,-121.22,-5.0,-7.0,330,12,,1.0,29.71063,1007.7,,,,,,,,,-SN,FEW,700,OVC,3000,,,,,IFR,,,,,,,,,,,,SPECI,174.0
YRMD 311927Z AUTO 20017KT 9999 -SHRA SCT008 SCT015 BKN024 21/20 Q1009 RESHRA,YRMD,2022-10-31T19:27:00Z,-20.7,143.12,21.0,20.0,200,17,,6.21,29.793306,,,TRUE,,,,,,,-SHRA,SCT,800,SCT,1500,BKN,2400,,,MVFR,,,,,,,,,,,,SPECI,209.0
SBBV 311927Z 06005KT 8000 VCSH BKN030 FEW035TCU BKN070 25/23 Q1008 RETS RETSRA RESHRA,SBBV,2022-10-31T19:27:00Z,2.85,-60.7,25.0,23.0,60,5,,4.97,29.763779,,,,,,,,,,VCSH SHRA TSRA,BKN,3000,FEW,3500,BKN,7000,,,MVFR,,,,,,,,,,,,SPECI,80.0
PADK 311927Z AUTO 12008KT FEW022 SCT027 OVC041 06/04 A2977 RMK AO2 P0001 PWINO $,PADK,2022-10-31T19:27:00Z,51.88,-176.65,6.0,4.0,120,8,,,29.769686,,,TRUE,TRUE,TRUE,,,,TRUE,,FEW,2200,SCT,2700,OVC,4100,,,,,,,,,0.01,,,,,,SPECI,3.0
KFTK 311927Z AUTO 21009KT 10SM SCT022 BKN028 BKN048 OVC070 18/13 A2988 RMK AO2 CIG 028V070 SLP118 $,KFTK,2022-10-31T19:27:00Z,37.9,-85.97,18.0,13.0,210,9,,10.0,29.878937,1011.8,,TRUE,TRUE,TRUE,,,,,,SCT,2200,BKN,2800,BKN,4800,OVC,7000,MVFR,,,,,,,,,,,,SPECI,225.0
CYHY 311927Z 26006KT 2 1/4SM -SN BR SCT006 OVC013 M04/M05 A2966 RMK ST4SC4 SLP060,CYHY,2022-10-31T19:27:00Z,60.83,-115.77,-4.0,-5.0,260,6,,2.25,29.660433,1006.0,,,,,,,,,-SN BR,SCT,600,OVC,1300,,,,,IFR,,,,,,,,,,,,SPECI,159.0
CWIL 311927Z AUTO ///// ////SM BKN009 BKN012 ///// A////,CWIL,2022-10-31T19:27:00Z,68.32,-100.07,,,,,,,,,,TRUE,,,,,,,,BKN,900,BKN,1200,,,,,,,,,,,,,,,,,SPECI,28.0
KXNO 311926Z AUTO 16006KT 10SM BKN034 BKN046 27/27 A2997 RMK AO2 DZB17E26 SLP149 $,KXNO,2022-10-31T19:26:00Z,33.62,-81.07,27.0,27.0,160,6,,10.0,29.970472,1014.9,,TRUE,TRUE,TRUE,,,,,,BKN,3400,BKN,4600,,,,,VFR,,,,,,,,,,,,SPECI,94.0
KVAY 311926Z AUTO 23004KT 10SM BKN029 BKN070 OVC095 18/12 A3000 RMK AO2 T01830117,KVAY,2022-10-31T19:26:00Z,39.93,-74.83,18.3,11.7,230,4,,10.0,30.0,,,TRUE,TRUE,,,,,,,BKN,2900,BKN,7000,OVC,9500,,,MVFR,,,,,,,,,,,,SPECI,15.0
KSBN 311926Z 25006KT 4SM -RA BR SCT013 BKN020 OVC031 16/15 A2980 RMK AO2 P0004 T01560150,KSBN,2022-10-31T19:26:00Z,41.7,-86.32,15.6,15.0,250,6,,4.0,29.799213,,,,TRUE,,,,,,-RA BR,SCT,1300,BKN,2000,OVC,3100,,,MVFR,,,,,,0.04,,,,,,SPECI,236.0
KNYG 311926Z 19004KT 10SM BKN029 OVC060 19/15 A3001 RMK AO2 RAB08E17 P0000 T01890150 $,KNYG,2022-10-31T19:26:00Z,38.5,-77.3,18.9,15.0,190,4,,10.0,30.008858,,,,TRUE,TRUE,,,,,,BKN,2900,OVC,6000,,,,,MVFR,,,,,,0.005,,,,,,SPECI,2.0
KHYA 311926Z 18005KT 10SM BKN012 BKN018 OVC023 15/14 A3001 RMK AO2 RAE06 P0000 T01500144,KHYA,2022-10-31T19:26:00Z,41.67,-70.27,15.0,14.4,180,5,,10.0,30.008858,,,,TRUE,,,,,,,BKN,1200,BKN,1800,OVC,2300,,,MVFR,,,,,,0.005,,,,,,SPECI,11.0
CZFN 311926Z 29004KT 2SM -SHSN OVC035 M13/M15 A2994 RMK SN4SC4 SLP151,CZFN,2022-10-31T19:26:00Z,64.92,-125.57,-13.0,-15.0,290,4,,2.0,29.940945,1015.1,,,,,,,,,-SHSN,OVC,3500,,,,,,,IFR,,,,,,,,,,,,SPECI,135.0
CYWE 311926Z AUTO 11007KT 9SM -SN SCT022 SCT071 M13/M17 A2973 RMK ICE MISG SLP110,CYWE,2022-10-31T19:26:00Z,64.18,-114.08,-13.0,-17.0,110,7,,9.0,29.731298,1011.0,,TRUE,,,,,,,-SN,SCT,2200,SCT,7100,,,,,VFR,,,,,,,,,,,,SPECI,374.0
SBCT 311925Z 09009KT 060V120 3000 -RA SCT012 BKN030 FEW050TCU BKN070 19/17 Q1012,SBCT,2022-10-31T19:25:00Z,-25.52,-49.17,19.0,17.0,90,9,,1.86,29.88189,,,,,,,,,,-RA,SCT,1200,BKN,3000,FEW,5000,BKN,7000,IFR,,,,,,,,,,,,METAR,914.0
OPLA 311925Z 12004KT 3500 FU NSC 22/17 Q1014 BECMG 2500 RMK QFE988 A29.94,OPLA,2022-10-31T19:25:00Z,31.52,74.4,22.0,17.0,120,4,,2.17,29.940945,,,,,,,,,,FU,CLR,,,,,,,,IFR,,,,,,,,,,,,METAR,217.0
KSOP 311925Z AUTO 14004KT 10SM SCT021 SCT060 22/19 A3001 RMK AO2 TSNO,KSOP,2022-10-31T19:25:00Z,35.23,-79.4,22.0,19.0,140,4,,10.0,30.008858,,,TRUE,TRUE,,,TRUE,,,,SCT,2100,SCT,6000,,,,,VFR,,,,,,,,,,,,SPECI,135.0
KS85 311925Z AUTO 16005KT 10SM CLR 18/01 A2966 RMK A01 Culbertson ,KS85,2022-10-31T19:25:00Z,48.15,-104.5,18.0,1.0,160,5,,10.0,29.660433,,,TRUE,TRUE,,,,,,,CLR,,,,,,,,VFR,,,,,,,,,,,,METAR,596.0
KGTB 311925Z AUTO 00000KT 10SM -DZ OVC085 15/06 A2988 RMK AO2 DZB25 SLPNO,KGTB,2022-10-31T19:25:00Z,44.07,-75.72,15.0,6.0,0,0,,10.0,29.878937,,,TRUE,TRUE,,,,,,-DZ,OVC,8500,,,,,,,VFR,,,,,,,,,,,,SPECI,206.0
KDAA 311925Z AUTO 17006KT 10SM BKN028 BKN080 19/14 A2998 RMK AO2 SLP155 $,KDAA,2022-10-31T19:25:00Z,38.72,-77.17,19.0,14.0,170,6,,10.0,29.97933,1015.5,,TRUE,TRUE,TRUE,,,,,,BKN,2800,BKN,8000,,,,,MVFR,,,,,,,,,,,,SPECI,17.0
KCII 311925Z AUTO 26023G32KT 10SM 17/01 A2965 RMK A01 ,KCII,2022-10-31T19:25:00Z,47.83,-112.17,17.0,1.0,260,23,32,10.0,29.648623,,,TRUE,TRUE,,,,,,,,,,,,,,,,,,,,,,,,,,,METAR,1202.0
K6S8 311925Z AUTO 22017G24KT 10SM 18/M03 A2978 RMK A01 LAUREL,K6S8,2022-10-31T19:25:00Z,45.7,-108.77,18.0,-3.0,220,17,24,10.0,29.778543,,,TRUE,TRUE,,,,,,,,,,,,,,,,,,,,,,,,,,,METAR,1072.0
ETIK 311925Z 00000KT 0200 R24/0200V0500 FG CLR 09/09 A3002 RMK AO2A SLP173 $,ETIK,2022-10-31T19:25:00Z,49.47,10.38,9.0,9.0,0,0,,0.12,30.02067,1017.3,,,TRUE,TRUE,,,,,FG,CLR,,,,,,,,LIFR,,,,,,,,,,,,SPECI,326.0
EKYT 311925Z AUTO 10005KT 4300 BR SCT020/// 09/09 Q1018,EKYT,2022-10-31T19:25:00Z,57.1,9.87,9.0,9.0,100,5,,2.67,30.059055,,,TRUE,,,,,,,BR,SCT,2000,,,,,,,IFR,,,,,,,,,,,,SPECI,2.0
EHWO 311925Z AUTO 15005KT 110V190 9999 OVC220 16/12 Q1009 BLU,EHWO,2022-10-31T19:25:00Z,51.45,4.33,16.0,12.0,150,5,,6.21,29.793306,,,TRUE,,,,,,,,OVC,22000,,,,,,,VFR,,,,,,,,,,,,METAR,15.0
EHVL 311925Z AUTO 11017KT 9999 BKN140 14/12 Q1010 BLU,EHVL,2022-10-31T19:25:00Z,53.28,5.08,14.0,12.0,110,17,,6.21,29.822834,,,TRUE,,,,,,,,BKN,14000,,,,,,,VFR,,,,,,,,,,,,METAR,2.0
EHVK 311925Z AUTO 14007KT 120V180 9999 OVC310 15/11 Q1011 BLU,EHVK,2022-10-31T19:25:00Z,51.65,5.7,15.0,11.0,140,7,,6.21,29.852362,,,TRUE,,,,,,,,OVC,31000,,,,,,,VFR,,,,,,,,,,,,METAR,20.0
EHSC 311925Z AUTO 14020KT 9999 ///////// 16/14 Q1009 W16/H6,EHSC,2022-10-31T19:25:00Z,51.93,3.67,16.0,14.0,140,20,,6.21,29.793306,,,TRUE,,,,,,,,,,,,,,,,,,,,,,,,,,,,METAR,19.0
EHSA 311925Z AUTO 13021KT 8000 ///////// 16/14 Q1008 W16/H8,EHSA,2022-10-31T19:25:00Z,52.0,3.28,16.0,14.0,130,21,,4.97,29.763779,,,TRUE,,,,,,,,,,,,,,,,,,,,,,,,,,,,METAR,18.0
EHRD 311925Z AUTO 13006KT 9999 NSC 15/13 Q1009 NOSIG,EHRD,2022-10-31T19:25:00Z,51.95,4.45,15.0,13.0,130,6,,6.21,29.793306,,,TRUE,,,TRUE,,,,,CLR,,,,,,,,VFR,,,,,,,,,,,,METAR,-4.0
EHQE 311925Z AUTO /////KT 9999 NSC 15/13 Q1009,EHQE,2022-10-31T19:25:00Z,52.92,4.15,15.0,13.0,,,,6.21,29.793306,,,TRUE,,,,,,,,CLR,,,,,,,,VFR,,,,,,,,,,,,METAR,41.0
EHPG 311925Z AUTO 11023KT 9999 NSC 16/14 Q1008,EHPG,2022-10-31T19:25:00Z,52.37,3.35,16.0,14.0,110,23,,6.21,29.763779,,,TRUE,,,,,,,,CLR,,,,,,,,VFR,,,,,,,,,,,,METAR,24.0
EHMG 311925Z AUTO 12022KT 9999 NSC 15/12 Q1012,EHMG,2022-10-31T19:25:00Z,53.62,4.97,15.0,12.0,120,22,,6.21,29.88189,,,TRUE,,,,,,,,CLR,,,,,,,,VFR,,,,,,,,,,,,METAR,30.0
EHMA 311925Z AUTO 10019KT 9000 NSC 14/12 Q1012,EHMA,2022-10-31T19:25:00Z,53.5,5.95,14.0,12.0,100,19,,5.59,29.88189,,,TRUE,,,,,,,,CLR,,,,,,,,VFR,,,,,,,,,,,,METAR,27.0
EHLW 311925Z AUTO VRB12KT 9999 OVC130 14/12 Q1011 BLU,EHLW,2022-10-31T19:25:00Z,53.22,5.75,14.0,12.0,0,12,,6.21,29.852362,,,TRUE,,,,,,,,OVC,13000,,,,,,,VFR,,,,,,,,,,,,METAR,1.0
EHLE 311925Z AUTO 11007KT 8000 NSC 14/13 Q1011 NOSIG,EHLE,2022-10-31T19:25:00Z,52.45,5.52,14.0,13.0,110,7,,4.97,29.852362,,,TRUE,,,TRUE,,,,,CLR,,,,,,,,MVFR,,,,,,,,,,,,METAR,-3.0
EHKV 311925Z AUTO 13024KT 9999 NSC 16/13 Q1009,EHKV,2022-10-31T19:25:00Z,53.27,3.63,16.0,13.0,130,24,,6.21,29.793306,,,TRUE,,,,,,,,CLR,,,,,,,,VFR,,,,,,,,,,,,METAR,28.0
EHKD 311925Z AUTO 11009KT 070V150 9000 BR BKN340 14/12 Q1010 BLU NOSIG,EHKD,2022-10-31T19:25:00Z,52.92,4.77,14.0,12.0,110,9,,5.59,29.822834,,,TRUE,,,TRUE,,,,BR,BKN,34000,,,,,,,VFR,,,,,,,,,,,,METAR,1.0
EHJR 311925Z AUTO 12023KT //// // ///////// 15/13 Q1009 RE// W16/H10,EHJR,2022-10-31T19:25:00Z,53.22,3.22,15.0,13.0,120,23,,,29.793306,,,TRUE,,,,,,,,,,,,,,,,,,,,,,,,,,,,METAR,31.0
EHJA 311925Z AUTO 13026KT 9999 NSC 15/13 Q1009,EHJA,2022-10-31T19:25:00Z,53.82,2.95,15.0,13.0,130,26,,6.21,29.793306,,,TRUE,,,,,,,,CLR,,,,,,,,VFR,,,,,,,,,,,,METAR,34.0
EHHW 311925Z AUTO 10019KT 080V140 9999 NSC 15/12 Q1012,EHHW,2022-10-31T19:25:00Z,54.03,6.03,15.0,12.0,100,19,,6.21,29.88189,,,TRUE,,,,,,,,CLR,,,,,,,,VFR,,,,,,,,,,,,METAR,10.0
EHGR 311925Z AUTO 14007KT 9999 OVC250 14/12 Q1010 BLU,EHGR,2022-10-31T19:25:00Z,51.55,4.93,14.0,12.0,140,7,,6.21,29.822834,,,TRUE,,,,,,,,OVC,25000,,,,,,,VFR,,,,,,,,,,,,METAR,12.0
EHGG 311925Z AUTO 09009KT 060V130 7000 NSC 14/12 Q1012 NOSIG,EHGG,2022-10-31T19:25:00Z,53.12,6.57,14.0,12.0,90,9,,4.35,29.88189,,,TRUE,,,TRUE,,,,,CLR,,,,,,,,MVFR,,,,,,,,,,,,METAR,2.0
EHFS 311925Z AUTO 14013KT 9999 NSC 16/13 Q1008,EHFS,2022-10-31T19:25:00Z,51.45,3.6,16.0,13.0,140,13,,6.21,29.763779,,,TRUE,,,,,,,,CLR,,,,,,,,VFR,,,,,,,,,,,,METAR,1.0
EHFD 311925Z AUTO 12021KT 9999 NSC 14/13 Q1012,EHFD,2022-10-31T19:25:00Z,54.85,4.7,14.0,13.0,120,21,,6.21,29.88189,,,TRUE,,,,,,,,CLR,,,,,,,,VFR,,,,,,,,,,,,METAR,24.0
EHEH 311925Z AUTO 14005KT 9999 OVC250 14/11 Q1011 BLU NOSIG,EHEH,2022-10-31T19:25:00Z,51.45,5.38,14.0,11.0,140,5,,6.21,29.852362,,,TRUE,,,TRUE,,,,,OVC,25000,,,,,,,VFR,,,,,,,,,,,,METAR,20.0
EHDV 311925Z AUTO 14023KT 9999 NSC 15/12 Q1009,EHDV,2022-10-31T19:25:00Z,54.32,2.93,15.0,12.0,140,23,,6.21,29.793306,,,TRUE,,,,,,,,CLR,,,,,,,,VFR,,,,,,,,,,,,METAR,36.0
EHDL 311925Z AUTO 14010KT 080V210 9999 OVC310 15/12 Q1011 BLU,EHDL,2022-10-31T19:25:00Z,52.07,5.88,15.0,12.0,140,10,,6.21,29.852362,,,TRUE,,,,,,,,OVC,31000,,,,,,,VFR,,,,,,,,,,,,METAR,49.0
EHBK 311925Z AUTO 18011KT 9999 NSC 17/10 Q1012 NOSIG,EHBK,2022-10-31T19:25:00Z,50.92,5.77,17.0,10.0,180,11,,6.21,29.88189,,,TRUE,,,TRUE,,,,,CLR,,,,,,,,VFR,,,,,,,,,,,,METAR,112.0
EHAM 311925Z 12011KT CAVOK 15/13 Q1010 NOSIG,EHAM,2022-10-31T19:25:00Z,52.32,4.78,15.0,13.0,120,11,,6.21,29.822834,,,,,,TRUE,,,,,CAVOK,,,,,,,,VFR,,,,,,,,,,,,METAR,-2.0
EHAK 311925Z AUTO 15021KT 120V190 9999 SCT005/// SCT007/// BKN008/// 14/13 Q1011,EHAK,2022-10-31T19:25:00Z,55.38,3.82,14.0,13.0,150,21,,6.21,29.852362,,,TRUE,,,,,,,,SCT,500,SCT,700,BKN,800,,,IFR,,,,,,,,,,,,METAR,33.0
EBLB 311925Z AUTO 18006KT 9999 NCD 14/09 Q1014 BLU,EBLB,2022-10-31T19:25:00Z,50.47,6.17,14.0,9.0,180,6,,6.21,29.940945,,,TRUE,,,,,,,,CLR,,,,,,,,VFR,,,,,,,,,,,,METAR,563.0
EBFS 311925Z AUTO 17009KT 9999 BKN150/// 16/11 Q1011 BLU,EBFS,2022-10-31T19:25:00Z,50.23,4.65,16.0,11.0,170,9,,6.21,29.852362,,,TRUE,,,,,,,,BKN,15000,,,,,,,VFR,,,,,,,,,,,,METAR,276.0
EBFN 311925Z AUTO 15010KT 9999 BKN160/// 16/13 Q1007 BLU,EBFN,2022-10-31T19:25:00Z,51.08,2.65,16.0,13.0,150,10,,6.21,29.734253,,,TRUE,,,,,,,,BKN,16000,,,,,,,VFR,,,,,,,,,,,,METAR,9.0
EBDT 311925Z AUTO 16006KT 9999 FEW240/// 14/11 Q1011 BLU,EBDT,2022-10-31T19:25:00Z,51.02,5.07,14.0,11.0,160,6,,6.21,29.852362,,,TRUE,,,,,,,,FEW,24000,,,,,,,VFR,,,,,,,,,,,,METAR,25.0
EBCV 311925Z AUTO 15012KT 9999 FEW095/// OVC150/// 17/12 Q1009 BLU,EBCV,2022-10-31T19:25:00Z,50.57,3.82,17.0,12.0,150,12,,6.21,29.793306,,,TRUE,,,,,,,,FEW,9500,OVC,15000,,,,,VFR,,,,,,,,,,,,METAR,56.0
EBBL 311925Z AUTO VRB02KT 9999 NCD 14/10 Q1011 BLU,EBBL,2022-10-31T19:25:00Z,51.17,5.47,14.0,10.0,0,2,,6.21,29.852362,,,TRUE,,,,,,,,CLR,,,,,,,,VFR,,,,,,,,,,,,METAR,50.0
EBBE 311925Z AUTO 16009KT 9999 SCT210/// 17/11 Q1010 BLU,EBBE,2022-10-31T19:25:00Z,50.75,4.77,17.0,11.0,160,9,,6.21,29.822834,,,TRUE,,,,,,,,SCT,21000,,,,,,,VFR,,,,,,,,,,,,METAR,127.0
CYUT 311925Z 02011KT 15SM OVC150 M17/M20 A2970 RMK AC5 SLP062,CYUT,2022-10-31T19:25:00Z,66.52,-86.22,-17.0,-20.0,20,11,,15.0,29.698818,1006.2,,,,,,,,,,OVC,15000,,,,,,,VFR,,,,,,,,,,,,SPECI,22.0
CYRT 311925Z 06012G20KT 1SM -SN OVC007 M00/M01 A2909 RMK SN2SC6 SLP857,CYRT,2022-10-31T19:25:00Z,62.82,-92.12,0.0,-1.0,60,12,20,1.0,29.090551,985.7,,,,,,,,,-SN,OVC,700,,,,,,,IFR,,,,,,,,,,,,SPECI,29.0
PALU 311923Z AUTO 27020G24KT 10SM SCT023 BKN075 M02/M07 A2996 RMK AO2 PK WND 28029/1900 SLP145,PALU,2022-10-31T19:23:00Z,68.88,-166.1,-2.0,-7.0,270,20,24,10.0,29.958662,1014.5,,TRUE,TRUE,,,,,,,SCT,2300,BKN,7500,,,,,VFR,,,,,,,,,,,,SPECI,8.0
PAKW 311923Z AUTO 16008KT 10SM FEW023 BKN040 OVC065 04/01 A2955 RMK AO2 RAE21 P0000 T00390011 TSNO $,PAKW,2022-10-31T19:23:00Z,55.58,-133.07,3.9,1.1,160,8,,10.0,29.551182,,,TRUE,TRUE,TRUE,,TRUE,,,,FEW,2300,BKN,4000,OVC,6500,,,VFR,,,,,,0.005,,,,,,SPECI,7.0
KYNG 311923Z 20008KT 10SM BKN012 BKN034 OVC070 18/14 A2988 RMK AO2 T01780139,KYNG,2022-10-31T19:23:00Z,41.25,-80.67,17.8,13.9,200,8,,10.0,29.878937,,,,TRUE,,,,,,,BKN,1200,BKN,3400,OVC,7000,,,MVFR,,,,,,,,,,,,SPECI,356.0
KBKW 311923Z AUTO 13004KT 2 1/2SM -RA BR BKN013 OVC018 14/13 A2998 RMK AO2 RAB16 P0000 T01440133,KBKW,2022-10-31T19:23:00Z,37.8,-81.12,14.4,13.3,130,4,,2.5,29.97933,,,TRUE,TRUE,,,,,,-RA BR,BKN,1300,OVC,1800,,,,,IFR,,,,,,0.005,,,,,,SPECI,762.0
KSMP 311922Z AUTO 24010G28KT 100V290 5SM -RA BR BKN005 OVC012 04/03 A2979 RMK AO2 PK WND 22028/1919 P0004 T00440033,KSMP,2022-10-31T19:22:00Z,47.28,-121.33,4.4,3.3,240,10,28,5.0,29.790354,,,TRUE,TRUE,,,,,,-RA BR,BKN,500,OVC,1200,,,,,IFR,,,,,,0.04,,,,,,METAR,1206.0
KDAN 311922Z AUTO 29005KT 10SM -RA BKN022 BKN032 OVC085 17/15 A3001 RMK AO2 RAB1856E08B15 P0000 T01670150,KDAN,2022-10-31T19:22:00Z,36.57,-79.33,16.7,15.0,290,5,,10.0,30.008858,,,TRUE,TRUE,,,,,,-RA,BKN,2200,BKN,3200,OVC,8500,,,MVFR,,,,,,0.005,,,,,,SPECI,170.0
KBUY 311922Z AUTO VRB04KT 10SM SCT023 BKN028 OVC046 21/16 A3000 RMK AO2 RAB1855E12 P0000 T02060161,KBUY,2022-10-31T19:22:00Z,36.05,-79.47,20.6,16.1,0,4,,10.0,30.0,,,TRUE,TRUE,,,,,,,SCT,2300,BKN,2800,OVC,4600,,,MVFR,,,,,,0.005,,,,,,METAR,185.0
PPIZ 311921Z AUTO 18019KT 3SM -SN BR FEW013 SCT040 BKN050 M04/M04 A2990 RMK AO2 PK WND 19026/1902 P0000 FZRANO,PPIZ,2022-10-31T19:21:00Z,69.73,-163.0,-4.0,-4.0,180,19,,3.0,29.899607,,,TRUE,TRUE,,,,TRUE,,-SN BR,FEW,1300,SCT,4000,BKN,5000,,,MVFR,,,,,,0.005,,,,,,SPECI,5.0
NZSP 311921Z 03013KT 3200 IC BLSN FEW000 SCT005 BKN040 M42/ A2830 RMK BLSN FEW000 CLN AIR 03013KT ALL WNDS GRID SDG/HDP,NZSP,2022-10-31T19:21:00Z,-89.98,179.98,-42.0,,30,13,,1.99,28.299213,,,,,,,,,,IC BLSN,FEW,0,SCT,500,BKN,4000,,,IFR,,,,,,,,,,,,METAR,2830.0
LHPP 311921Z AUTO 11005KT 070V140 0350 R34/0450N FG VV001 11/11 Q1023,LHPP,2022-10-31T19:21:00Z,45.98,18.23,11.0,11.0,110,5,,0.22,30.206694,,,TRUE,,,,,,,FG,OVX,0,,,,,,,LIFR,,,,,,,,,,,100,SPECI,193.0
KORD 311921Z 02003KT 2 1/2SM BR OVC005 14/12 A2981 RMK AO2 T01390117,KORD,2022-10-31T19:21:00Z,41.95,-87.93,13.9,11.7,20,3,,2.5,29.811024,,,,TRUE,,,,,,BR,OVC,500,,,,,,,IFR,,,,,,,,,,,,SPECI,202.0
KFHU 311921Z AUTO 11005KT 10SM CLR 21/M07 A3005 RMK AO2 SLP135 $,KFHU,2022-10-31T19:21:00Z,31.58,-110.35,21.0,-7.0,110,5,,10.0,30.050198,1013.5,,TRUE,TRUE,TRUE,,,,,,CLR,,,,,,,,VFR,,,,,,,,,,,,SPECI,1424.0
EKKA 311921Z AUTO 14004KT 9999 BKN011/// 10/10 Q1018 TEMPO 4000 BR BKN012,EKKA,2022-10-31T19:21:00Z,56.3,9.12,10.0,10.0,140,4,,6.21,30.059055,,,TRUE,,,,,,,,BKN,1100,,,,,,,MVFR,,,,,,,,,,,,SPECI,50.0
YWHA 311920Z AUTO 26015KT 9999 -RA SCT017 SCT025 BKN040 08/07 Q0998,YWHA,2022-10-31T19:20:00Z,-33.07,137.52,8.0,7.0,260,15,,6.21,29.468504,,,TRUE,,,,,,,-RA,SCT,1700,SCT,2500,BKN,4000,,,VFR,,,,,,,,,,,,SPECI,12.0
LXGB 311920Z AUTO 06002KT 7000 BR BKN180/// 20/17 Q1021,LXGB,2022-10-31T19:20:00Z,36.15,-5.33,20.0,17.0,60,2,,4.35,30.147638,,,TRUE,,,,,,,BR,BKN,18000,,,,,,,MVFR,,,,,,,,,,,,METAR,5.0
LTFM 311920Z 03004KT 6000 FEW005 15/14 Q1022 NOSIG RMK RWY17L 02002KT RWY34L 02004KT RWY16R 00000KT RWY36 04004KT RWY18 04004KT,LTFM,2022-10-31T19:20:00Z,41.27,28.75,15.0,14.0,30,4,,3.73,30.177166,,,,,,TRUE,,,,,FEW,500,,,,,,,MVFR,,,,,,,,,,,,METAR,99.0
LTFJ 311920Z 03008KT 350V050 9999 SCT045 14/14 Q1022 NOSIG RMK RWY24 02005KT,LTFJ,2022-10-31T19:20:00Z,40.9,29.3,14.0,14.0,30,8,,6.21,30.177166,,,,,,TRUE,,,,,SCT,4500,,,,,,,VFR,,,,,,,,,,,,SPECI,83.0
LTFE 311920Z 13003KT CAVOK 13/09 Q1017 NOSIG RMK RWY10 VRB01KT,LTFE,2022-10-31T19:20:00Z,37.25,27.67,13.0,9.0,130,3,,6.21,30.029528,,,,,,TRUE,,,,,CAVOK,,,,,,,,VFR,,,,,,,,,,,,METAR,6.0
LTFC 311920Z 36006KT CAVOK 11/00 Q1019 RMK RWY23 36005KT,LTFC,2022-10-31T19:20:00Z,37.87,30.38,11.0,0.0,360,6,,6.21,30.088583,,,,,,,,,,,CAVOK,,,,,,,,VFR,,,,,,,,,,,,SPECI,862.0
LTCS 311920Z 36004KT CAVOK 12/07 Q1017 RMK RWY22 27004KT SKC,LTCS,2022-10-31T19:20:00Z,37.45,38.9,12.0,7.0,360,4,,6.21,30.029528,,,,,,,,,,,CAVOK,,,,,,,,VFR,,,,,,,,,,,,METAR,825.0
LTCJ 311920Z 05005KT CAVOK 10/09 Q1016 NOSIG RMK RWY20 01004KT SKC,LTCJ,2022-10-31T19:20:00Z,37.93,41.12,10.0,9.0,50,5,,6.21,30.0,,,,,,TRUE,,,,,CAVOK,,,,,,,,VFR,,,,,,,,,,,,METAR,559.0
LTCG 311920Z VRB01KT 9999 -SHRA FEW020 BKN033 16/12 Q1019 NOSIG RMK RWY29 VRB01KT,LTCG,2022-10-31T19:20:00Z,41.0,39.77,16.0,12.0,0,1,,6.21,30.088583,,,,,,TRUE,,,,-SHRA,FEW,2000,BKN,3300,,,,,VFR,,,,,,,,,,,,METAR,28.0
LTCE 311920Z 22007KT 180V260 9999 FEW040 07/M07 Q1017 NOSIG RMK RWY08R 19006KT 160V240 RWY26R 22010KT RWY08L 22007KT 1CU040,LTCE,2022-10-31T19:20:00Z,39.95,41.17,7.0,-7.0,220,7,,6.21,30.029528,,,,,,TRUE,,,,,FEW,4000,,,,,,,VFR,,,,,,,,,,,,METAR,1758.0
LTCC 311920Z 32003KT CAVOK 09/09 Q1016 NOSIG RMK RWY16 VRB02KT SKC,LTCC,2022-10-31T19:20:00Z,37.88,40.2,9.0,9.0,320,3,,6.21,30.0,,,,,,TRUE,,,,,CAVOK,,,,,,,,VFR,,,,,,,,,,,,METAR,676.0
LTBU 311920Z 02005KT CAVOK 12/09 Q1022 RMK RWY22 35005KT,LTBU,2022-10-31T19:20:00Z,41.13,27.92,12.0,9.0,20,5,,6.21,30.177166,,,,,,,,,,,CAVOK,,,,,,,,VFR,,,,,,,,,,,,SPECI,165.0
LTBS 311920Z 03004KT CAVOK 15/12 Q1016 NOSIG RMK RWY19 34005KT SKC,LTBS,2022-10-31T19:20:00Z,36.7,28.78,15.0,12.0,30,4,,6.21,30.0,,,,,,TRUE,,,,,CAVOK,,,,,,,,VFR,,,,,,,,,,,,SPECI,2.0
LTBR 311920Z 14002KT CAVOK 09/06 Q1022 NOSIG RMK RWY07 12003KT,LTBR,2022-10-31T19:20:00Z,40.25,29.57,9.0,6.0,140,2,,6.21,30.177166,,,,,,TRUE,,,,,CAVOK,,,,,,,,VFR,,,,,,,,,,,,SPECI,233.0
LTBJ 311920Z VRB01KT CAVOK 13/07 Q1017 NOSIG RMK RWY16 VRB02KT,LTBJ,2022-10-31T19:20:00Z,38.28,27.15,13.0,7.0,0,1,,6.21,30.029528,,,,,,TRUE,,,,,CAVOK,,,,,,,,VFR,,,,,,,,,,,,SPECI,123.0
LTBA 311920Z 02006KT CAVOK 15/13 Q1022 RMK RWY23 03005KT,LTBA,2022-10-31T19:20:00Z,40.97,28.82,15.0,13.0,20,6,,6.21,30.177166,,,,,,,,,,,CAVOK,,,,,,,,VFR,,,,,,,,,,,,SPECI,33.0
LTAZ 311920Z 14004KT CAVOK 06/M04 Q1020 RMK RWY29 21005KT 140V220,LTAZ,2022-10-31T19:20:00Z,38.77,34.52,6.0,-4.0,140,4,,6.21,30.11811,,,,,,,,,,,CAVOK,,,,,,,,VFR,,,-0.5,,,,,,,,,SPECI,944.0
LTAU 311920Z 00000KT CAVOK 04/M00 Q1020 NOSIG RMK RWY07 VRB01KT,LTAU,2022-10-31T19:20:00Z,38.77,35.48,4.0,0.0,0,0,,6.21,30.11811,,,,,,TRUE,,,,,CAVOK,,,,,,,,VFR,,,,,,,,,,,,METAR,1053.0
LTAT 311920Z 26008KT CAVOK 14/M02 Q1017 NOSIG RMK RWY03 26007KT,LTAT,2022-10-31T19:20:00Z,38.43,38.08,14.0,-2.0,260,8,,6.21,30.029528,,,,,,TRUE,,,,,CAVOK,,,,,,,,VFR,,,,,,,,,,,,METAR,850.0
LTAP 311920Z 29002KT 9999 FEW040 BKN100 10/03 Q1018 NOSIG RMK RWY23 00000KT,LTAP,2022-10-31T19:20:00Z,40.83,35.52,10.0,3.0,290,2,,6.21,30.059055,,,,,,TRUE,,,,,FEW,4000,BKN,10000,,,,,VFR,,,,,,,,,,,,METAR,536.0
LTAJ 311920Z 25004KT CAVOK 12/07 Q1016 NOSIG RMK RWY10 25004KT SKC,LTAJ,2022-10-31T19:20:00Z,36.95,37.48,12.0,7.0,250,4,,6.21,30.0,,,,,,TRUE,,,,,CAVOK,,,,,,,,VFR,,,,,,,,,,,,METAR,684.0
LTAI 311920Z 34006KT CAVOK 16/12 Q1016 NOSIG RMK RWY18C 34005KT RWY36R 33005KT RWY18L 33005KT,LTAI,2022-10-31T19:20:00Z,36.9,30.8,16.0,12.0,340,6,,6.21,30.0,,,,,,TRUE,,,,,CAVOK,,,,,,,,VFR,,,,,,,,,,,,SPECI,50.0
LTAG 311920Z 05002KT CAVOK 19/11 Q1014 NOSIG RMK SKC,LTAG,2022-10-31T19:20:00Z,37.0,35.42,19.0,11.0,50,2,,6.21,29.940945,,,,,,TRUE,,,,,CAVOK,,,,,,,,VFR,,,,,,,,,,,,METAR,62.0
LTAF 311920Z 07004KT CAVOK 19/14 Q1014 NOSIG RMK RWY23 08003KT SKC,LTAF,2022-10-31T19:20:00Z,36.98,35.28,19.0,14.0,70,4,,6.21,29.940945,,,,,,TRUE,,,,,CAVOK,,,,,,,,VFR,,,,,,,,,,,,SPECI,19.0
LTAC 311920Z 02008KT CAVOK 09/02 Q1021 NOSIG RMK RWY21L 35006KT RWY03L 36006KT 310V020 RWY21R 02007KT,LTAC,2022-10-31T19:20:00Z,40.12,32.98,9.0,2.0,20,8,,6.21,30.147638,,,,,,TRUE,,,,,CAVOK,,,,,,,,VFR,,,,,,,,,,,,SPECI,952.0
LSZS 311920Z AUTO VRB02KT 9999 NCD 06/01 Q1026,LSZS,2022-10-31T19:20:00Z,46.53,9.88,6.0,1.0,0,2,,6.21,30.295275,,,TRUE,,,,,,,,CLR,,,,,,,,VFR,,,,,,,,,,,,METAR,1708.0
LSZR 311920Z AUTO VRB02KT 0150 R10/0750N FG VV001 10/10 Q1018,LSZR,2022-10-31T19:20:00Z,47.48,9.57,10.0,10.0,0,2,,0.09,30.059055,,,TRUE,,,,,,,FG,OVX,0,,,,,,,LIFR,,,,,,,,,,,100,METAR,396.0
LSZL 311920Z AUTO 00000KT 9999NDV NCD 11/10 Q1022 RMK,LSZL,2022-10-31T19:20:00Z,46.17,8.88,11.0,10.0,0,0,,,30.177166,,,TRUE,,,,,,,,CLR,,,,,,,,,,,,,,,,,,,,METAR,198.0
LSZH 311920Z 23002KT 4000 R14/P2000N R16/0900D R28/P2000N R34/P2000N BCFG VCFG NSC 10/10 Q1019 BECMG 1500,LSZH,2022-10-31T19:20:00Z,47.48,8.53,10.0,10.0,230,2,,2.49,30.088583,,,,,,,,,,VCFG BCFG,CLR,,,,,,,,IFR,,,,,,,,,,,,METAR,424.0
LSZG 311920Z AUTO 33002KT 8000 NSC 09/09 Q1018,LSZG,2022-10-31T19:20:00Z,47.17,7.42,9.0,9.0,330,2,,4.97,30.059055,,,TRUE,,,,,,,,CLR,,,,,,,,MVFR,,,,,,,,,,,,METAR,428.0
LSZC 311920Z AUTO 26004KT 220V290 9999 NSC 11/09 Q1019,LSZC,2022-10-31T19:20:00Z,46.97,8.38,11.0,9.0,260,4,,6.21,30.088583,,,TRUE,,,,,,,,CLR,,,,,,,,VFR,,,,,,,,,,,,METAR,445.0
LSZB 311920Z 12004KT CAVOK 11/10 Q1019,LSZB,2022-10-31T19:20:00Z,46.92,7.5,11.0,10.0,120,4,,6.21,30.088583,,,,,,,,,,,CAVOK,,,,,,,,VFR,,,,,,,,,,,,METAR,510.0
LSZA 311920Z AUTO VRB03KT 9999 NSC 13/12 Q1023,LSZA,2022-10-31T19:20:00Z,46.0,8.92,13.0,12.0,0,3,,6.21,30.206694,,,TRUE,,,,,,,,CLR,,,,,,,,VFR,,,,,,,,,,,,METAR,276.0
LSMP 311920Z 00000KT 8000 NSC 11/10 Q1018 RMK BLU,LSMP,2022-10-31T19:20:00Z,46.83,6.92,11.0,10.0,0,0,,4.97,30.059055,,,,,,,,,,,CLR,,,,,,,,MVFR,,,,,,,,,,,,METAR,490.0
LSMM 311920Z AUTO 29005KT 220V020 9999NDV FEW220 10/08 Q1019 RMK,LSMM,2022-10-31T19:20:00Z,46.75,8.12,10.0,8.0,290,5,,,30.088583,,,TRUE,,,,,,,,FEW,22000,,,,,,,,,,,,,,,,,,,METAR,570.0
LSME 311920Z AUTO 00000KT 8000NDV BKN230 11/11 Q1019 RMK,LSME,2022-10-31T19:20:00Z,47.1,8.3,11.0,11.0,0,0,,,30.088583,,,TRUE,,,,,,,,BKN,23000,,,,,,,,,,,,,,,,,,,METAR,427.0
LSMD 311920Z 00000KT 5000 MIFG NSC 12/11 Q1019 RMK WHT,LSMD,2022-10-31T19:20:00Z,47.4,8.65,12.0,11.0,0,0,,3.11,30.088583,,,,,,,,,,MIFG,CLR,,,,,,,,MVFR,,,,,,,,,,,,METAR,436.0
LSMA 311920Z AUTO 20003KT 160V290 9999NDV OVC230 10/08 Q1019 RMK,LSMA,2022-10-31T19:20:00Z,46.95,8.28,10.0,8.0,200,3,,,30.088583,,,TRUE,,,,,,,,OVC,23000,,,,,,,,,,,,,,,,,,,METAR,441.0
LSGS 311920Z AUTO VRB03KT CAVOK 12/08 Q1020,LSGS,2022-10-31T19:20:00Z,46.22,7.32,12.0,8.0,0,3,,6.21,30.11811,,,TRUE,,,,,,,,CAVOK,,,,,,,,VFR,,,,,,,,,,,,METAR,482.0
LSGG 311920Z VRB01KT CAVOK 13/12 Q1018 NOSIG,LSGG,2022-10-31T19:20:00Z,46.25,6.12,13.0,12.0,0,1,,6.21,30.059055,,,,,,TRUE,,,,,CAVOK,,,,,,,,VFR,,,,,,,,,,,,METAR,411.0
LSGC 311920Z AUTO VRB03KT 9999 NSC 12/06 Q1019,LSGC,2022-10-31T19:20:00Z,47.08,6.8,12.0,6.0,0,3,,6.21,30.088583,,,TRUE,,,,,,,,CLR,,,,,,,,VFR,,,,,,,,,,,,METAR,1018.0
LOWW 311920Z 14009KT 6000 -DZ SCT003 BKN004 11/10 Q1022 REDZ TEMPO DZ,LOWW,2022-10-31T19:20:00Z,48.12,16.57,11.0,10.0,140,9,,3.73,30.177166,,,,,,,,,,-DZ,SCT,300,BKN,400,,,,,LIFR,,,,,,,,,,,,METAR,179.0
LOWS 311920Z AUTO 22003KT CAVOK 12/09 Q1018 NOSIG,LOWS,2022-10-31T19:20:00Z,47.78,13.02,12.0,9.0,220,3,,6.21,30.059055,,,TRUE,,,TRUE,,,,,CAVOK,,,,,,,,VFR,,,,,,,,,,,,METAR,427.0
LOWL 311920Z AUTO 10010KT 5000 BR OVC001 10/10 Q1019 NOSIG,LOWL,2022-10-31T19:20:00Z,48.22,14.18,10.0,10.0,100,10,,3.11,30.088583,,,TRUE,,,TRUE,,,,BR,OVC,100,,,,,,,LIFR,,,,,,,,,,,,METAR,290.0
LOWK 311920Z 32002KT CAVOK 11/11 Q1022 NOSIG,LOWK,2022-10-31T19:20:00Z,46.65,14.32,11.0,11.0,320,2,,6.21,30.177166,,,,,,TRUE,,,,,CAVOK,,,,,,,,VFR,,,,,,,,,,,,METAR,450.0
LOWI 311920Z 27007KT 210V310 CAVOK 11/08 Q1020 NOSIG,LOWI,2022-10-31T19:20:00Z,47.27,11.33,11.0,8.0,270,7,,6.21,30.11811,,,,,,TRUE,,,,,CAVOK,,,,,,,,VFR,,,,,,,,,,,,METAR,570.0
LOWG 311920Z AUTO 17004KT 0450 R16/0450N R34/0550N FG VV001 10/10 Q1022 NOSIG,LOWG,2022-10-31T19:20:00Z,47.0,15.43,10.0,10.0,170,4,,0.28,30.177166,,,TRUE,,,TRUE,,,,FG,OVX,0,,,,,,,LIFR,,,,,,,,,,,100,METAR,337.0
LLBG 311920Z VRB03KT 9999 FEW035 22/15 Q1015 NOSIG,LLBG,2022-10-31T19:20:00Z,32.0,34.88,22.0,15.0,0,3,,6.21,29.970472,,,,,,TRUE,,,,,FEW,3500,,,,,,,VFR,,,,,,,,,,,,METAR,35.0
LIRZ 311920Z AUTO 35005KT 9999 NCD 13/10 Q1023,LIRZ,2022-10-31T19:20:00Z,43.1,12.5,13.0,10.0,350,5,,6.21,30.206694,,,TRUE,,,,,,,,CLR,,,,,,,,VFR,,,,,,,,,,,,METAR,206.0
LIRQ 311920Z 11003KT CAVOK 14/11 Q1023,LIRQ,2022-10-31T19:20:00Z,43.8,11.2,14.0,11.0,110,3,,6.21,30.206694,,,,,,,,,,,CAVOK,,,,,,,,VFR,,,,,,,,,,,,METAR,33.0
LIRN 311920Z 09003KT CAVOK 18/11 Q1023 NOSIG,LIRN,2022-10-31T19:20:00Z,40.88,14.3,18.0,11.0,90,3,,6.21,30.206694,,,,,,TRUE,,,,,CAVOK,,,,,,,,VFR,,,,,,,,,,,,METAR,76.0
LIRF 311920Z 07004KT CAVOK 15/14 Q1022 NOSIG,LIRF,2022-10-31T19:20:00Z,41.78,12.23,15.0,14.0,70,4,,6.21,30.177166,,,,,,TRUE,,,,,CAVOK,,,,,,,,VFR,,,,,,,,,,,,METAR,2.0
LIRA 311920Z VRB02KT CAVOK 18/11 Q1022,LIRA,2022-10-31T19:20:00Z,41.8,12.58,18.0,11.0,0,2,,6.21,30.177166,,,,,,,,,,,CAVOK,,,,,,,,VFR,,,,,,,,,,,,METAR,101.0
LIPZ 311920Z 22001KT 5000 BR NSC 15/15 Q1021 BECMG 3000 BR,LIPZ,2022-10-31T19:20:00Z,45.5,12.35,15.0,15.0,220,1,,3.11,30.147638,,,,,,,,,,BR,CLR,,,,,,,,MVFR,,,,,,,,,,,,METAR,3.0
LIPY 311920Z AUTO 18002KT 9999 NCD 15/13 Q1022,LIPY,2022-10-31T19:20:00Z,43.62,13.37,15.0,13.0,180,2,,6.21,30.177166,,,TRUE,,,,,,,,CLR,,,,,,,,VFR,,,,,,,,,,,,METAR,11.0
LIPX 311920Z 35005KT CAVOK 14/11 Q1021,LIPX,2022-10-31T19:20:00Z,45.38,10.87,14.0,11.0,350,5,,6.21,30.147638,,,,,,,,,,,CAVOK,,,,,,,,VFR,,,,,,,,,,,,METAR,67.0
LIPR 311920Z AUTO 25003KT 7000 NCD 13/12 Q1021,LIPR,2022-10-31T19:20:00Z,44.02,12.62,13.0,12.0,250,3,,4.35,30.147638,,,TRUE,,,,,,,,CLR,,,,,,,,MVFR,,,,,,,,,,,,METAR,10.0
LIPQ 311920Z AUTO 04002KT 9999 SCT220/// 12/12 Q1021,LIPQ,2022-10-31T19:20:00Z,45.82,13.47,12.0,12.0,40,2,,6.21,30.147638,,,TRUE,,,,,,,,SCT,22000,,,,,,,VFR,,,,,,,,,,,,METAR,6.0
LIPO 311920Z AUTO 01005KT 9999 NCD 15/12 Q1022,LIPO,2022-10-31T19:20:00Z,45.42,10.33,15.0,12.0,10,5,,6.21,30.177166,,,TRUE,,,,,,,,CLR,,,,,,,,VFR,,,,,,,,,,,,METAR,104.0
LIPH 311920Z VRB01KT CAVOK 15/13 Q1021,LIPH,2022-10-31T19:20:00Z,45.63,12.18,15.0,13.0,0,1,,6.21,30.147638,,,,,,,,,,,CAVOK,,,,,,,,VFR,,,,,,,,,,,,METAR,10.0
LIPE 311920Z VRB02KT CAVOK 15/11 Q1021,LIPE,2022-10-31T19:20:00Z,44.52,11.3,15.0,11.0,0,2,,6.21,30.147638,,,,,,,,,,,CAVOK,,,,,,,,VFR,,,,,,,,,,,,METAR,37.0
LIMZ 311920Z AUTO 24005KT 9999 NCD 13/10 Q1022,LIMZ,2022-10-31T19:20:00Z,44.53,7.62,13.0,10.0,240,5,,6.21,30.177166,,,TRUE,,,,,,,,CLR,,,,,,,,VFR,,,,,,,,,,,,METAR,377.0
LIML 311920Z 36003KT CAVOK 13/12 Q1022 NOSIG,LIML,2022-10-31T19:20:00Z,45.47,9.27,13.0,12.0,360,3,,6.21,30.177166,,,,,,TRUE,,,,,CAVOK,,,,,,,,VFR,,,,,,,,,,,,METAR,109.0
LIMJ 311920Z 02005KT 9999 FEW015 18/16 Q1022,LIMJ,2022-10-31T19:20:00Z,44.42,8.83,18.0,16.0,20,5,,6.21,30.177166,,,,,,,,,,,FEW,1500,,,,,,,VFR,,,,,,,,,,,,METAR,3.0
LIMF 311920Z 31004KT CAVOK 15/11 Q1022,LIMF,2022-10-31T19:20:00Z,45.22,7.65,15.0,11.0,310,4,,6.21,30.177166,,,,,,,,,,,CAVOK,,,,,,,,VFR,,,,,,,,,,,,METAR,295.0
LIME 311920Z 01004KT CAVOK 15/10 Q1022 NOSIG,LIME,2022-10-31T19:20:00Z,45.67,9.7,15.0,10.0,10,4,,6.21,30.177166,,,,,,TRUE,,,,,CAVOK,,,,,,,,VFR,,,,,,,,,,,,METAR,239.0
LIMC 311920Z VRB02KT CAVOK 13/13 Q1022 NOSIG,LIMC,2022-10-31T19:20:00Z,45.62,8.72,13.0,13.0,0,2,,6.21,30.177166,,,,,,TRUE,,,,,CAVOK,,,,,,,,VFR,,,,,,,,,,,,METAR,221.0
LIEO 311920Z VRB01KT CAVOK 14/12 Q1023,LIEO,2022-10-31T19:20:00Z,40.88,9.52,14.0,12.0,0,1,,6.21,30.206694,,,,,,,,,,,CAVOK,,,,,,,,VFR,,,,,,,,,,,,METAR,8.0
LIEE 311920Z 13003KT 060V190 CAVOK 19/15 Q1023,LIEE,2022-10-31T19:20:00Z,39.25,9.07,19.0,15.0,130,3,,6.21,30.206694,,,,,,,,,,,CAVOK,,,,,,,,VFR,,,,,,,,,,,,METAR,1.0
LIEA 311920Z VRB01KT CAVOK 15/14 Q1023,LIEA,2022-10-31T19:20:00Z,40.62,8.28,15.0,14.0,0,1,,6.21,30.206694,,,,,,,,,,,CAVOK,,,,,,,,VFR,,,,,,,,,,,,METAR,22.0
LICR 311920Z AUTO 36013KT 9999 NCD 21/15 Q1022,LICR,2022-10-31T19:20:00Z,38.07,15.65,21.0,15.0,360,13,,6.21,30.177166,,,TRUE,,,,,,,,CLR,,,,,,,,VFR,,,,,,,,,,,,METAR,16.0
LICJ 311920Z 10003KT 030V130 CAVOK 19/14 Q1022,LICJ,2022-10-31T19:20:00Z,38.17,13.08,19.0,14.0,100,3,,6.21,30.177166,,,,,,,,,,,CAVOK,,,,,,,,VFR,,,,,,,,,,,,METAR,20.0
LICD 311920Z AUTO VRB01KT 9999 NCD 22/14 Q1023,LICD,2022-10-31T19:20:00Z,35.5,12.62,22.0,14.0,0,1,,6.21,30.206694,,,TRUE,,,,,,,,CLR,,,,,,,,VFR,,,,,,,,,,,,METAR,20.0
LICC 311920Z 27005KT CAVOK 19/15 Q1022,LICC,2022-10-31T19:20:00Z,37.47,15.05,19.0,15.0,270,5,,6.21,30.177166,,,,,,,,,,,CAVOK,,,,,,,,VFR,,,,,,,,,,,,METAR,6.0
LICB 311920Z AUTO 10004KT 9999 NCD 15/12 Q1023,LICB,2022-10-31T19:20:00Z,37.0,14.62,15.0,12.0,100,4,,6.21,30.206694,,,TRUE,,,,,,,,CLR,,,,,,,,VFR,,,,,,,,,,,,METAR,212.0
LICA 311920Z AUTO 07004KT 9999 SCT021/// 15/14 Q1023,LICA,2022-10-31T19:20:00Z,38.9,16.25,15.0,14.0,70,4,,6.21,30.206694,,,TRUE,,,,,,,,SCT,2100,,,,,,,VFR,,,,,,,,,,,,METAR,7.0
LIBR 311920Z 33010KT CAVOK 20/17 Q1021,LIBR,2022-10-31T19:20:00Z,40.65,17.95,20.0,17.0,330,10,,6.21,30.147638,,,,,,,,,,,CAVOK,,,,,,,,VFR,,,,,,,,,,,,METAR,5.0
LIBP 311920Z AUTO 22004KT 9999 NCD 14/12 Q1023,LIBP,2022-10-31T19:20:00Z,42.42,14.18,14.0,12.0,220,4,,6.21,30.206694,,,TRUE,,,,,,,,CLR,,,,,,,,VFR,,,,,,,,,,,,METAR,10.0
LIBD 311920Z 22005KT CAVOK 13/11 Q1022,LIBD,2022-10-31T19:20:00Z,41.13,16.77,13.0,11.0,220,5,,6.21,30.177166,,,,,,,,,,,CAVOK,,,,,,,,VFR,,,,,,,,,,,,METAR,42.0
LGTS 311920Z 10007KT CAVOK 15/09 Q1021 NOSIG,LGTS,2022-10-31T19:20:00Z,40.52,22.97,15.0,9.0,100,7,,6.21,30.147638,,,,,,TRUE,,,,,CAVOK,,,,,,,,VFR,,,,,,,,,,,,METAR,4.0
LGSR 311920Z 29005KT 9999 FEW025 18/12 Q1018,LGSR,2022-10-31T19:20:00Z,36.4,25.48,18.0,12.0,290,5,,6.21,30.059055,,,,,,,,,,,FEW,2500,,,,,,,VFR,,,,,,,,,,,,METAR,31.0
LGSO 311920Z AUTO 34011KT 320V020 //// -RA ////// 20/12 Q1018 RE//,LGSO,2022-10-31T19:20:00Z,37.42,24.95,20.0,12.0,340,11,,,30.059055,,,TRUE,,,,,,,-RA,,,,,,,,,,,,,,,,,,,,,SPECI,71.0
LGSA 311920Z 00000KT 9999 FEW020 14/12 Q1018,LGSA,2022-10-31T19:20:00Z,35.53,24.13,14.0,12.0,0,0,,6.21,30.059055,,,,,,,,,,,FEW,2000,,,,,,,VFR,,,,,,,,,,,,METAR,122.0
LGRP 311920Z 23009KT CAVOK 19/14 Q1015 NOSIG,LGRP,2022-10-31T19:20:00Z,36.4,28.08,19.0,14.0,230,9,,6.21,29.970472,,,,,,TRUE,,,,,CAVOK,,,,,,,,VFR,,,,,,,,,,,,METAR,3.0
LGPA 311920Z AUTO 35008KT //// -RA ////// 18/14 Q1018 RE//,LGPA,2022-10-31T19:20:00Z,37.02,25.1,18.0,14.0,350,8,,,30.059055,,,TRUE,,,,,,,-RA,,,,,,,,,,,,,,,,,,,,,SPECI,42.0
LGMT 311920Z 34009KT 9999 SCT025 19/12 Q1019,LGMT,2022-10-31T19:20:00Z,39.05,26.6,19.0,12.0,340,9,,6.21,30.088583,,,,,,,,,,,SCT,2500,,,,,,,VFR,,,,,,,,,,,,METAR,4.0
LGMK 311920Z 01009KT 9999 FEW025 18/10 Q1018,LGMK,2022-10-31T19:20:00Z,37.43,25.35,18.0,10.0,10,9,,6.21,30.059055,,,,,,,,,,,FEW,2500,,,,,,,VFR,,,,,,,,,,,,METAR,126.0
LGKZ 311920Z AUTO VRB03KT //// // ////// 15/04 Q1023 RE//,LGKZ,2022-10-31T19:20:00Z,40.28,21.83,15.0,4.0,0,3,,,30.206694,,,TRUE,,,,,,,,,,,,,,,,,,,,,,,,,,,,METAR,615.0
LGKV 311920Z 00000KT 9999 FEW030 14/12 Q1021,LGKV,2022-10-31T19:20:00Z,40.92,24.62,14.0,12.0,0,0,,6.21,30.147638,,,,,,,,,,,FEW,3000,,,,,,,VFR,,,,,,,,,,,,METAR,5.0
LGKR 311920Z 00000KT CAVOK 16/14 Q1019 NOSIG,LGKR,2022-10-31T19:20:00Z,39.62,19.92,16.0,14.0,0,0,,6.21,30.088583,,,,,,TRUE,,,,,CAVOK,,,,,,,,VFR,,,,,,,,,,,,METAR,2.0
LGKO 311920Z 34004KT CAVOK 20/12 Q1016,LGKO,2022-10-31T19:20:00Z,36.8,27.08,20.0,12.0,340,4,,6.21,30.0,,,,,,,,,,,CAVOK,,,,,,,,VFR,,,,,,,,,,,,METAR,130.0
LGKL 311920Z 33004KT 9999 FEW025 SCT080 16/12 Q1020,LGKL,2022-10-31T19:20:00Z,37.07,22.02,16.0,12.0,330,4,,6.21,30.11811,,,,,,,,,,,FEW,2500,SCT,8000,,,,,VFR,,,,,,,,,,,,METAR,4.0
LGIR 311920Z 00000KT 9999 FEW025 16/13 Q1019 NOSIG,LGIR,2022-10-31T19:20:00Z,35.33,25.17,16.0,13.0,0,0,,6.21,30.088583,,,,,,TRUE,,,,,FEW,2500,,,,,,,VFR,,,,,,,,,,,,METAR,37.0
LGIO 311920Z AUTO VRB02KT //// // ////// 13/07 Q1022 RE//,LGIO,2022-10-31T19:20:00Z,39.7,20.82,13.0,7.0,0,2,,,30.177166,,,TRUE,,,,,,,,,,,,,,,,,,,,,,,,,,,,METAR,476.0
LGEL 311920Z 36005KT 9999 FEW030 21/08 Q1020,LGEL,2022-10-31T19:20:00Z,38.07,23.55,21.0,8.0,360,5,,6.21,30.11811,,,,,,,,,,,FEW,3000,,,,,,,VFR,,,,,,,,,,,,METAR,21.0
LGAV 311920Z 36005KT 9999 FEW030 20/08 Q1020 NOSIG,LGAV,2022-10-31T19:20:00Z,37.93,23.95,20.0,8.0,360,5,,6.21,30.11811,,,,,,TRUE,,,,,FEW,3000,,,,,,,VFR,,,,,,,,,,,,METAR,83.0
LGAL 311920Z 03006KT 9999 FEW030 15/10 Q1021,LGAL,2022-10-31T19:20:00Z,40.85,25.95,15.0,10.0,30,6,,6.21,30.147638,,,,,,,,,,,FEW,3000,,,,,,,VFR,,,,,,,,,,,,METAR,5.0
LCRA 311920Z 29002KT 9999 FEW080 20/12 Q1014 NOSIG,LCRA,2022-10-31T19:20:00Z,34.58,32.98,20.0,12.0,290,2,,6.21,29.940945,,,,,,TRUE,,,,,FEW,8000,,,,,,,VFR,,,,,,,,,,,,METAR,23.0
LCEN 311920Z 28007KT 9999 FEW020 19/14 Q1015 NOSIG RMK RWY11 28005KT,LCEN,2022-10-31T19:20:00Z,35.15,33.5,19.0,14.0,280,7,,6.21,29.970472,,,,,,TRUE,,,,,FEW,2000,,,,,,,VFR,,,,,,,,,,,,METAR,91.0
LATI 311920Z VRB02KT CAVOK 15/11 Q1021 NOSIG,LATI,2022-10-31T19:20:00Z,41.42,19.72,15.0,11.0,0,2,,6.21,30.147638,,,,,,TRUE,,,,,CAVOK,,,,,,,,VFR,,,,,,,,,,,,METAR,32.0
KUZA 311920Z AUTO 29005KT 1 3/4SM -RA BR FEW006 BKN033 OVC043 18/17 A3000 RMK AO2 P0004 T01780172,KUZA,2022-10-31T19:20:00Z,34.98,-81.05,17.8,17.2,290,5,,1.75,30.0,,,TRUE,TRUE,,,,,,-RA BR,FEW,600,BKN,3300,OVC,4300,,,IFR,,,,,,0.04,,,,,,METAR,198.0
KMTO 311920Z AUTO 24004KT 10SM OVC009 14/12 A2985 RMK AO2 T01390117,KMTO,2022-10-31T19:20:00Z,39.47,-88.27,13.9,11.7,240,4,,10.0,29.84941,,,TRUE,TRUE,,,,,,,OVC,900,,,,,,,IFR,,,,,,,,,,,,METAR,216.0
KGZN 311920Z AUTO 00000KT 10SM FEW065 24/07 A3000 RMK AO2 LTG DSNT N AND S,KGZN,2022-10-31T19:20:00Z,32.37,-99.02,24.0,7.0,0,0,,10.0,30.0,,,TRUE,TRUE,,,,,,,FEW,6500,,,,,,,VFR,,,,,,,,,,,,METAR,522.0
EYVI 311920Z 18002KT CAVOK 02/00 Q1022 TEMPO 1500 MIFG BR,EYVI,2022-10-31T19:20:00Z,54.63,25.28,2.0,0.0,180,2,,6.21,30.177166,,,,,,,,,,,CAVOK,,,,,,,,VFR,,,,,,,,,,,,METAR,180.0
EYSA 311920Z 19007KT CAVOK 06/04 Q1021 NOSIG,EYSA,2022-10-31T19:20:00Z,55.9,23.4,6.0,4.0,190,7,,6.21,30.147638,,,,,,TRUE,,,,,CAVOK,,,,,,,,VFR,,,,,,,,,,,,METAR,135.0
EYPA 311920Z VRB02KT 8000 OVC009 10/09 Q1020,EYPA,2022-10-31T19:20:00Z,55.97,21.08,10.0,9.0,0,2,,4.97,30.11811,,,,,,,,,,,OVC,900,,,,,,,IFR,,,,,,,,,,,,METAR,15.0
EYKA 311920Z VRB01KT CAVOK 01/M00 Q1021,EYKA,2022-10-31T19:20:00Z,54.97,24.08,1.0,0.0,0,1,,6.21,30.147638,,,,,,,,,,,CAVOK,,,,,,,,VFR,,,,,,,,,,,,METAR,68.0
EVVA 311920Z AUTO 23005KT 9999 OVC014 11/10 Q1019,EVVA,2022-10-31T19:20:00Z,57.35,21.55,11.0,10.0,230,5,,6.21,30.088583,,,TRUE,,,,,,,,OVC,1400,,,,,,,MVFR,,,,,,,,,,,,METAR,1.0
EVRA 311920Z 18003KT 9999 BKN045 06/05 Q1020 NOSIG,EVRA,2022-10-31T19:20:00Z,56.92,23.97,6.0,5.0,180,3,,6.21,30.11811,,,,,,TRUE,,,,,BKN,4500,,,,,,,VFR,,,,,,,,,,,,METAR,7.0
EVLA 311920Z AUTO 14002KT 9999 OVC009/// 09/08 Q1019,EVLA,2022-10-31T19:20:00Z,56.52,21.1,9.0,8.0,140,2,,6.21,30.088583,,,TRUE,,,,,,,,OVC,900,,,,,,,IFR,,,,,,,,,,,,METAR,5.0
EVGA 311920Z 19004KT CAVOK 04/03 Q1020 NOSIG,EVGA,2022-10-31T19:20:00Z,56.78,24.85,4.0,3.0,190,4,,6.21,30.11811,,,,,,TRUE,,,,,CAVOK,,,,,,,,VFR,,,,,,,,,,,,METAR,61.0
ETWM 311920Z AUTO 09006KT //// // ////// 15/12 Q1013 ///,ETWM,2022-10-31T19:20:00Z,52.72,7.33,15.0,12.0,90,6,,,29.911417,,,TRUE,,,,,,,,,,,,,,,,,,,,,,,,,,,,METAR,18.0
ETSN 311920Z 00000KT 0100 FG VV000 11/11 Q1017 RED,ETSN,2022-10-31T19:20:00Z,48.72,11.22,11.0,11.0,0,0,,0.06,30.029528,,,,,,,,,,FG,OVX,0,,,,,,,LIFR,,,,,,,,,,,0,METAR,378.0
ETSL 311920Z AUTO 17003KT 0050 // ////// 07/07 Q1017 ///,ETSL,2022-10-31T19:20:00Z,48.18,10.87,7.0,7.0,170,3,,0.03,30.029528,,,TRUE,,,,,,,,,,,,,,,,,,,,,,,,,,,,METAR,548.0
ETSI 311920Z AUTO 07002KT 0050 // ////// 11/11 Q1017 ///,ETSI,2022-10-31T19:20:00Z,48.72,11.53,11.0,11.0,70,2,,0.03,30.029528,,,TRUE,,,,,,,,,,,,,,,,,,,,,,,,,,,,METAR,366.0
ETSH 311920Z 02001KT 6000 BCFG MIFG SCT130 BKN170 11/11 Q1018 WHT,ETSH,2022-10-31T19:20:00Z,51.77,13.17,11.0,11.0,20,1,,3.73,30.059055,,,,,,,,,,BCFG MIFG,SCT,13000,BKN,17000,,,,,MVFR,,,,,,,,,,,,METAR,79.0
ETSB 311920Z AUTO 16005KT //// // ////// 13/09 Q1015 ///,ETSB,2022-10-31T19:20:00Z,50.17,7.07,13.0,9.0,160,5,,,29.970472,,,TRUE,,,,,,,,,,,,,,,,,,,,,,,,,,,,METAR,477.0
ETNW 311920Z 12011KT 9999 FEW120 SCT140 BKN240 15/14 Q1015 BLU+,ETNW,2022-10-31T19:20:00Z,52.45,9.42,15.0,14.0,120,11,,6.21,29.970472,,,,,,,,,,,FEW,12000,SCT,14000,BKN,24000,,,VFR,,,,,,,,,,,,METAR,57.0
ETNT 311920Z AUTO 10008KT //// // ////// 13/13 Q1014 ///,ETNT,2022-10-31T19:20:00Z,53.53,7.67,13.0,13.0,100,8,,,29.940945,,,TRUE,,,,,,,,,,,,,,,,,,,,,,,,,,,,METAR,5.0
ETNS 311920Z AUTO 09006KT 9999 // ////// 11/11 Q1017 ///,ETNS,2022-10-31T19:20:00Z,54.47,9.52,11.0,11.0,90,6,,6.21,30.029528,,,TRUE,,,,,,,,,,,,,,,,,,,,,,,,,,,,METAR,22.0
ETNN 311920Z 13004KT 9999 FEW120 SCT340 14/10 Q1013 BLU+,ETNN,2022-10-31T19:20:00Z,50.82,6.67,14.0,10.0,130,4,,6.21,29.911417,,,,,,,,,,,FEW,12000,SCT,34000,,,,,VFR,,,,,,,,,,,,METAR,108.0
ETNL 311920Z 09006KT 0400 R09/0700N FG VV000 12/12 Q1018 RED,ETNL,2022-10-31T19:20:00Z,53.92,12.27,12.0,12.0,90,6,,0.25,30.059055,,,,,,,,,,FG,OVX,0,,,,,,,LIFR,,,,,,,,,,,0,METAR,40.0
ETNH 311920Z AUTO 10007KT 6000 // ////// 11/10 Q1017 ///,ETNH,2022-10-31T19:20:00Z,54.32,9.55,11.0,10.0,100,7,,3.73,30.029528,,,TRUE,,,,,,,,,,,,,,,,,,,,,,,,,,,,METAR,6.0
ETMN 311920Z 09008KT 5000 BR SCT004 BKN130 12/11 Q1015 WHT,ETMN,2022-10-31T19:20:00Z,53.77,8.67,12.0,11.0,90,8,,3.11,29.970472,,,,,,,,,,BR,SCT,400,BKN,13000,,,,,MVFR,,,,,,,,,,,,METAR,23.0
ETHS 311920Z 11009KT 4000 BR BKN002 13/12 Q1016 BLACKAMB,ETHS,2022-10-31T19:20:00Z,52.92,10.18,13.0,12.0,110,9,,2.49,30.0,,,,,,,,,,BR,BKN,200,,,,,,,LIFR,,,,,,,,,,,,METAR,71.0
ETHN 311920Z 13006KT 9999 FEW140 13/11 Q1016 BLU+,ETHN,2022-10-31T19:20:00Z,49.38,9.97,13.0,11.0,130,6,,6.21,30.0,,,,,,,,,,,FEW,14000,,,,,,,VFR,,,,,,,,,,,,METAR,466.0
ETHL 311920Z AUTO 00000KT 0100 // ////// 10/10 Q1017 ///,ETHL,2022-10-31T19:20:00Z,48.22,9.92,10.0,10.0,0,0,,0.06,30.029528,,,TRUE,,,,,,,,,,,,,,,,,,,,,,,,,,,,METAR,536.0
ETHF 311920Z AUTO 31004KT 7000 // ////// 13/11 Q1016 ///,ETHF,2022-10-31T19:20:00Z,51.12,9.28,13.0,11.0,310,4,,4.35,30.0,,,TRUE,,,,,,,,,,,,,,,,,,,,,,,,,,,,METAR,171.0
ETHC 311920Z AUTO 10008KT 4900 // ////// 14/13 Q1016 ///,ETHC,2022-10-31T19:20:00Z,52.6,10.02,14.0,13.0,100,8,,3.04,30.0,,,TRUE,,,,,,,,,,,,,,,,,,,,,,,,,,,,METAR,35.0
ETHB 311920Z AUTO 16006KT 9999 // ////// 16/11 Q1014 ///,ETHB,2022-10-31T19:20:00Z,52.27,9.07,16.0,11.0,160,6,,6.21,29.940945,,,TRUE,,,,,,,,,,,,,,,,,,,,,,,,,,,,METAR,69.0
ETHA 311920Z AUTO 23005KT 9999 // ////// 09/08 Q1018 ///,ETHA,2022-10-31T19:20:00Z,47.83,10.87,9.0,8.0,230,5,,6.21,30.059055,,,TRUE,,,,,,,,,,,,,,,,,,,,,,,,,,,,METAR,738.0
ETGG 311920Z AUTO 14011KT 9999 // ////// 12/11 Q1017 ///,ETGG,2022-10-31T19:20:00Z,54.83,9.5,12.0,11.0,140,11,,6.21,30.029528,,,TRUE,,,,,,,,,,,,,,,,,,,,,,,,,,,,METAR,33.0
ESUT 311920Z AUTO VRB02KT 4600 BR FEW006/// SCT009/// OVC012/// 01/01 Q1009,ESUT,2022-10-31T19:20:00Z,65.8,15.08,1.0,1.0,0,2,,2.86,29.793306,,,TRUE,,,,,,,BR,FEW,600,SCT,900,OVC,1200,,,IFR,,,,,,,,,,,,METAR,457.0
ESUP 311920Z AUTO 00000KT 9999 OVC063/// M02/M02 Q1008,ESUP,2022-10-31T19:20:00Z,67.25,23.07,-2.0,-2.0,0,0,,6.21,29.763779,,,TRUE,,,,,,,,OVC,6300,,,,,,,VFR,,,,,,,,,,,,METAR,164.0
ESTL 311920Z AUTO 08003KT 0200 R29L/0650N FG FEW000/// 07/07 Q1019,ESTL,2022-10-31T19:20:00Z,56.07,13.2,7.0,7.0,80,3,,0.12,30.088583,,,TRUE,,,,,,,FG,FEW,0,,,,,,,LIFR,,,,,,,,,,,,METAR,39.0
ESTA 311920Z 09003KT 1500 BR OVC015 10/10 Q1019,ESTA,2022-10-31T19:20:00Z,56.28,12.83,10.0,10.0,90,3,,0.93,30.088583,,,,,,,,,,BR,OVC,1500,,,,,,,LIFR,,,,,,,,,,,,METAR,19.0
ESSV 311920Z 20007KT 0150 R03/0750N R21/0700N FG VV002 10/10 Q1018,ESSV,2022-10-31T19:20:00Z,57.67,18.35,10.0,10.0,200,7,,0.09,30.059055,,,,,,,,,,FG,OVX,0,,,,,,,LIFR,,,,,,,,,,,200,METAR,38.0
ESST 311920Z AUTO 22004KT 170V250 9999 OVC018/// 09/08 Q1016,ESST,2022-10-31T19:20:00Z,60.15,12.98,9.0,8.0,220,4,,6.21,30.0,,,TRUE,,,,,,,,OVC,1800,,,,,,,MVFR,,,,,,,,,,,,METAR,110.0
ESSP 311920Z AUTO 24005KT 9999 NCD 09/08 Q1018,ESSP,2022-10-31T19:20:00Z,58.58,16.25,9.0,8.0,240,5,,6.21,30.059055,,,TRUE,,,,,,,,CLR,,,,,,,,VFR,,,,,,,,,,,,METAR,3.0
ESSL 311920Z AUTO 21006KT 9999 NCD 10/08 Q1018,ESSL,2022-10-31T19:20:00Z,58.4,15.67,10.0,8.0,210,6,,6.21,30.059055,,,TRUE,,,,,,,,CLR,,,,,,,,VFR,,,,,,,,,,,,METAR,51.0
ESSD 311920Z AUTO 28007KT 9999 OVC025/// 11/07 Q1015,ESSD,2022-10-31T19:20:00Z,60.42,15.5,11.0,7.0,280,7,,6.21,29.970472,,,TRUE,,,,,,,,OVC,2500,,,,,,,MVFR,,,,,,,,,,,,METAR,151.0
ESSB 311920Z 24007KT 9999 FEW032 10/09 Q1016,ESSB,2022-10-31T19:20:00Z,59.35,17.93,10.0,9.0,240,7,,6.21,30.0,,,,,,,,,,,FEW,3200,,,,,,,VFR,,,,,,,,,,,,METAR,14.0
ESSA 311920Z 25008KT CAVOK 08/08 Q1016 NOSIG,ESSA,2022-10-31T19:20:00Z,59.65,17.93,8.0,8.0,250,8,,6.21,30.0,,,,,,TRUE,,,,,CAVOK,,,,,,,,VFR,,,,,,,,,,,,METAR,36.0
ESPE 311920Z AUTO VRB02KT 9999 SCT096/// BKN120/// M01/M02 Q1008,ESPE,2022-10-31T19:20:00Z,65.88,20.15,-1.0,-2.0,0,2,,6.21,29.763779,,,TRUE,,,,,,,,SCT,9600,BKN,12000,,,,,VFR,,,,,,,,,,,,METAR,182.0
ESPA 311920Z 35005KT 9999 BKN012 02/02 Q1007,ESPA,2022-10-31T19:20:00Z,65.53,22.12,2.0,2.0,350,5,,6.21,29.734253,,,,,,,,,,,BKN,1200,,,,,,,MVFR,,,,,,,,,,,,METAR,12.0
ESOW 311920Z 23004KT CAVOK 10/08 Q1017,ESOW,2022-10-31T19:20:00Z,59.58,16.63,10.0,8.0,230,4,,6.21,30.029528,,,,,,,,,,,CAVOK,,,,,,,,VFR,,,,,,,,,,,,METAR,7.0
ESOK 311920Z AUTO 19003KT 9999 BKN013/// ///// Q1017,ESOK,2022-10-31T19:20:00Z,59.45,13.33,,,190,3,,6.21,30.029528,,,TRUE,,,,,,,,BKN,1300,,,,,,,MVFR,,,,,,,,,,,,METAR,101.0
ESOH 311920Z AUTO VRB02KT 9999 OVC018/// 11/09 Q1016,ESOH,2022-10-31T19:20:00Z,60.02,13.58,11.0,9.0,0,2,,6.21,30.0,,,TRUE,,,,,,,,OVC,1800,,,,,,,MVFR,,,,,,,,,,,,METAR,145.0
ESOE 311920Z 21007KT 9999 SCT021 11/10 Q1017,ESOE,2022-10-31T19:20:00Z,59.22,15.05,11.0,10.0,210,7,,6.21,30.029528,,,,,,,,,,,SCT,2100,,,,,,,VFR,,,,,,,,,,,,METAR,57.0
ESNZ 311920Z AUTO 20002KT 9999 NCD 04/04 Q1012,ESNZ,2022-10-31T19:20:00Z,63.18,14.5,4.0,4.0,200,2,,6.21,29.88189,,,TRUE,,,,,,,,CLR,,,,,,,,VFR,,,,,,,,,,,,METAR,360.0
ESNX 311920Z 29009KT 9999 BKN055 01/00 Q1007,ESNX,2022-10-31T19:20:00Z,65.58,19.28,1.0,0.0,290,9,,6.21,29.734253,,,,,,,,,,,BKN,5500,,,,,,,VFR,,,,,,,,,,,,METAR,380.0
ESNV 311920Z AUTO VRB02KT 9999 NCD M01/M02 Q1011,ESNV,2022-10-31T19:20:00Z,64.58,16.83,-1.0,-2.0,0,2,,6.21,29.852362,,,TRUE,,,,,,,,CLR,,,,,,,,VFR,,,,,,,,,,,,METAR,348.0
ESNU 311920Z 28005KT CAVOK 03/01 Q1010,ESNU,2022-10-31T19:20:00Z,63.78,20.28,3.0,1.0,280,5,,6.21,29.822834,,,,,,,,,,,CAVOK,,,,,,,,VFR,,,,,,,,,,,,METAR,8.0
ESNS 311920Z AUTO 24006KT 9999 NCD 02/02 Q1008,ESNS,2022-10-31T19:20:00Z,64.62,21.07,2.0,2.0,240,6,,6.21,29.763779,,,TRUE,,,,,,,,CLR,,,,,,,,VFR,,,,,,,,,,,,METAR,41.0
ESNQ 311920Z AUTO 21003KT 190V250 8000 -FZRA FEW017/// OVC030/// M01/M02 Q1006 REFZUP,ESNQ,2022-10-31T19:20:00Z,67.82,20.33,-1.0,-2.0,210,3,,4.97,29.704725,,,TRUE,,,,,,,-FZRA,FEW,1700,OVC,3000,,,,,MVFR,,,,,,,,,,,,METAR,447.0
ESNO 311920Z 28008KT CAVOK 02/01 Q1011,ESNO,2022-10-31T19:20:00Z,63.4,18.97,2.0,1.0,280,8,,6.21,29.852362,,,,,,,,,,,CAVOK,,,,,,,,VFR,,,,,,,,,,,,METAR,100.0
ESNN 311920Z AUTO 34003KT 0350 R16/1300N R34/P2000N BCFG NCD M00/M01 Q1013,ESNN,2022-10-31T19:20:00Z,62.52,17.43,0.0,-1.0,340,3,,0.22,29.911417,,,TRUE,,,,,,,BCFG,CLR,,,,,,,,LIFR,,,,,,,,,,,,METAR,4.0
ESNL 311920Z 33003KT 300V360 CAVOK M00/M01 Q1010,ESNL,2022-10-31T19:20:00Z,64.55,18.72,0.0,-1.0,330,3,,6.21,29.822834,,,,,,,,,,,CAVOK,,,,,,,,VFR,,,,,,,,,,,,METAR,220.0
ESNK 311920Z AUTO VRB03KT 9999 NCD 00/00 Q1013,ESNK,2022-10-31T19:20:00Z,63.03,17.77,0.0,0.0,0,3,,6.21,29.911417,,,TRUE,,,,,,,,CLR,,,,,,,,VFR,,,,,,,,,,,,METAR,4.0
ESNG 311920Z 34003KT 9999 -FZDZ SCT010 OVC029 M01/// Q1007,ESNG,2022-10-31T19:20:00Z,67.13,20.82,,,340,3,,6.21,29.734253,,,,,,,,,,-FZDZ,SCT,1000,OVC,2900,,,,,MVFR,,,,,,,,,,,,SPECI,300.0
ESND 311920Z AUTO VRB01KT 7000 NCD 01/00 Q1014,ESND,2022-10-31T19:20:00Z,62.05,14.42,1.0,0.0,0,1,,4.35,29.940945,,,TRUE,,,,,,,,CLR,,,,,,,,MVFR,,,,,,,,,,,,METAR,352.0
ESMX 311920Z 22002KT 0250 R01/0450N R19/0450N FG VV002 10/10 Q1019,ESMX,2022-10-31T19:20:00Z,56.92,14.72,10.0,10.0,220,2,,0.16,30.088583,,,,,,,,,,FG,OVX,0,,,,,,,LIFR,,,,,,,,,,,200,METAR,176.0
ESMT 311920Z AUTO 08002KT 0050 R01/0275N R19/0350N FG VV001 10/10 Q1019,ESMT,2022-10-31T19:20:00Z,56.68,12.82,10.0,10.0,80,2,,0.03,30.088583,,,TRUE,,,,,,,FG,OVX,0,,,,,,,LIFR,,,,,,,,,,,100,SPECI,24.0
ESMS 311920Z VRB01KT 0150 R17/1100D R35/0700N FG FEW001 BKN020 11/11 Q1019,ESMS,2022-10-31T19:20:00Z,55.53,13.37,11.0,11.0,0,1,,0.09,30.088583,,,,,,,,,,FG,FEW,100,BKN,2000,,,,,LIFR,,,,,,,,,,,,METAR,68.0
ESMQ 311920Z AUTO 28003KT 0100 R16/0650N R34/0500N FG BKN001/// 06/06 Q1019,ESMQ,2022-10-31T19:20:00Z,56.68,16.3,6.0,6.0,280,3,,0.06,30.088583,,,TRUE,,,,,,,FG,BKN,100,,,,,,,LIFR,,,,,,,,,,,,SPECI,3.0
ESMK 311920Z AUTO 00000KT 0300 R01/1200N R19/P2000D FG SCT012/// 08/08 Q1019,ESMK,2022-10-31T19:20:00Z,55.92,14.08,8.0,8.0,0,0,,0.19,30.088583,,,TRUE,,,,,,,FG,SCT,1200,,,,,,,LIFR,,,,,,,,,,,,METAR,20.0
ESKS 311920Z AUTO 19003KT 9999 FEW005/// BKN009/// OVC016/// 07/07 Q1015,ESKS,2022-10-31T19:20:00Z,61.17,12.83,7.0,7.0,190,3,,6.21,29.970472,,,TRUE,,,,,,,,FEW,500,BKN,900,OVC,1600,,,IFR,,,,,,,,,,,,METAR,503.0
ESKN 311920Z 23003KT 8000 R08/1000N R26/1000N MIFG NSC 06/06 Q1017,ESKN,2022-10-31T19:20:00Z,58.78,16.92,6.0,6.0,230,3,,4.97,30.029528,,,,,,,,,,MIFG,CLR,,,,,,,,MVFR,,,,,,,,,,,,METAR,41.0
ESKM 311920Z AUTO 26003KT 9999 OVC024/// 09/08 Q1015,ESKM,2022-10-31T19:20:00Z,60.97,14.52,9.0,8.0,260,3,,6.21,29.970472,,,TRUE,,,,,,,,OVC,2400,,,,,,,MVFR,,,,,,,,,,,,METAR,184.0
ESIB 311920Z AUTO 21008KT 9999 OVC012/// 11/10 Q1018,ESIB,2022-10-31T19:20:00Z,58.42,12.7,11.0,10.0,210,8,,6.21,30.059055,,,TRUE,,,,,,,,OVC,1200,,,,,,,MVFR,,,,,,,,,,,,METAR,51.0
ESIA 311920Z AUTO 20004KT 9999 NCD 08/07 Q1018,ESIA,2022-10-31T19:20:00Z,58.52,14.5,8.0,7.0,200,4,,6.21,30.059055,,,TRUE,,,,,,,,CLR,,,,,,,,VFR,,,,,,,,,,,,METAR,94.0
ESGT 311920Z AUTO 20006KT 9999 OVC009/// 11/10 Q1018,ESGT,2022-10-31T19:20:00Z,58.32,12.33,11.0,10.0,200,6,,6.21,30.059055,,,TRUE,,,,,,,,OVC,900,,,,,,,IFR,,,,,,,,,,,,METAR,40.0
ESGP 311920Z 18006KT 5000 BR OVC003 11/10 Q1019,ESGP,2022-10-31T19:20:00Z,57.77,11.87,11.0,10.0,180,6,,3.11,30.088583,,,,,,,,,,BR,OVC,300,,,,,,,LIFR,,,,,,,,,,,,METAR,15.0
ESGJ 311920Z 25004KT 9999 BKN016 08/08 Q1019,ESGJ,2022-10-31T19:20:00Z,57.77,14.07,8.0,8.0,250,4,,6.21,30.088583,,,,,,,,,,,BKN,1600,,,,,,,MVFR,,,,,,,,,,,,METAR,224.0
ESGG 311920Z 17006KT 8000 FEW003 SCT004 BKN006 10/09 Q1019,ESGG,2022-10-31T19:20:00Z,57.67,12.3,10.0,9.0,170,6,,4.97,30.088583,,,,,,,,,,,FEW,300,SCT,400,BKN,600,,,IFR,,,,,,,,,,,,METAR,152.0
ESDF 311920Z AUTO 00000KT 0350 0200// R01/1000VP2000D R19/0700V1900U FG FEW001/// OVC008/// 07/07 Q1020,ESDF,2022-10-31T19:20:00Z,56.27,15.27,7.0,7.0,0,0,,0.22,30.11811,,,TRUE,,,,,,,FG,FEW,100,OVC,800,,,,,LIFR,,,,,,,,,,,,METAR,52.0
ESCM 311920Z AUTO 23006KT 9999 NCD 09/08 Q1016,ESCM,2022-10-31T19:20:00Z,59.88,17.6,9.0,8.0,230,6,,6.21,30.0,,,TRUE,,,,,,,,CLR,,,,,,,,VFR,,,,,,,,,,,,METAR,21.0
ESCF 311920Z AUTO 20005KT 9999 NCD 09/08 Q1018,ESCF,2022-10-31T19:20:00Z,58.38,15.52,9.0,8.0,200,5,,6.21,30.059055,,,TRUE,,,,,,,,CLR,,,,,,,,VFR,,,,,,,,,,,,METAR,86.0
ENZV 311920Z 15010KT 9999 FEW018 12/09 Q1014,ENZV,2022-10-31T19:20:00Z,58.88,5.63,12.0,9.0,150,10,,6.21,29.940945,,,,,,,,,,,FEW,1800,,,,,,,VFR,,,,,,,,,,,,METAR,7.0
ENWV 311920Z AUTO 15023KT 9999NDV FEW012/// 13/13 Q1011 W///S3,ENWV,2022-10-31T19:20:00Z,56.28,3.4,13.0,13.0,150,23,,,29.852362,,,TRUE,,,,,,,,FEW,1200,,,,,,,,,,,,,,,,,,,METAR,30.0
ENVD 311920Z 21012KT 9999 FEW010 BKN038 03/00 Q1008,ENVD,2022-10-31T19:20:00Z,70.07,29.85,3.0,0.0,210,12,,6.21,29.763779,,,,,,,,,,,FEW,1000,BKN,3800,,,,,VFR,,,,,,,,,,,,METAR,39.0
ENVA 311920Z VRB02KT 9999 BKN065 05/05 Q1012 NOSIG RMK WIND 670FT VRB02KT,ENVA,2022-10-31T19:20:00Z,63.47,10.92,5.0,5.0,0,2,,6.21,29.88189,,,,,,TRUE,,,,,BKN,6500,,,,,,,VFR,,,,,,,,,,,,METAR,12.0
ENUN 311920Z AUTO 22020KT 1200NDV BR OVC003/// 09/09 Q1005 W09/S4,ENUN,2022-10-31T19:20:00Z,,,9.0,9.0,220,20,,,29.675198,,,TRUE,,,,,,,BR,OVC,300,,,,,,,,,,,,,,,,,,,METAR,
ENUG 311920Z AUTO 23016KT 9999NDV OVC019/// 08/04 Q1004 W///S4,ENUG,2022-10-31T19:20:00Z,71.3,22.25,8.0,4.0,230,16,,,29.64567,,,TRUE,,,,,,,,OVC,1900,,,,,,,,,,,,,,,,,,,METAR,30.0
ENTO 311920Z 21005KT 180V270 9999 SCT004 10/10 Q1017 TEMPO BKN004,ENTO,2022-10-31T19:20:00Z,59.2,10.27,10.0,10.0,210,5,,6.21,30.029528,,,,,,,,,,,SCT,400,,,,,,,VFR,,,,,,,,,,,,METAR,84.0
ENTC 311920Z 21011KT 9999 -SHRA SCT008 BKN034 04/03 Q1007 TEMPO 4000 RADZ BKN008 RMK WIND 2600FT 19012KT,ENTC,2022-10-31T19:20:00Z,69.68,18.92,4.0,3.0,210,11,,6.21,29.734253,,,,,,,,,,-SHRA,SCT,800,BKN,3400,,,,,VFR,,,,,,,,,,,,METAR,9.0
ENST 311920Z 18012KT 9999 -DZ FEW004 SCT005 BKN007 09/09 Q1009 RMK WIND 300FT 19015KT,ENST,2022-10-31T19:20:00Z,65.97,12.47,9.0,9.0,180,12,,6.21,29.793306,,,,,,,,,,-DZ,FEW,400,SCT,500,BKN,700,,,IFR,,,,,,,,,,,,METAR,17.0
ENSS 311920Z 23010KT 9999 FEW020 BKN047 03/01 Q1008 RMK WIND 0500FT /////KT,ENSS,2022-10-31T19:20:00Z,70.35,31.05,3.0,1.0,230,10,,6.21,29.763779,,,,,,,,,,,FEW,2000,BKN,4700,,,,,VFR,,,,,,,,,,,,SPECI,13.0
ENSR 311920Z 18006KT 140V220 9999 -RA FEW012 BKN043 03/M00 Q1007 RMK WIND RWY32 17005KT WIND 1118FT 12006KT,ENSR,2022-10-31T19:20:00Z,69.78,20.97,3.0,0.0,180,6,,6.21,29.734253,,,,,,,,,,-RA,FEW,1200,BKN,4300,,,,,VFR,,,,,,,,,,,,METAR,5.0
ENSL 311920Z AUTO 19029KT 9999NDV BKN011/// 12/11 Q1008 W10/S4,ENSL,2022-10-31T19:20:00Z,58.37,1.9,12.0,11.0,190,29,,,29.763779,,,TRUE,,,,,,,,BKN,1100,,,,,,,,,,,,,,,,,,,METAR,50.0
ENSK 311920Z 14011KT 9999 VCSH FEW008 SCT012 BKN018 07/05 Q1007,ENSK,2022-10-31T19:20:00Z,68.57,15.02,7.0,5.0,140,11,,6.21,29.734253,,,,,,,,,,VCSH,FEW,800,SCT,1200,BKN,1800,,,MVFR,,,,,,,,,,,,METAR,3.0
ENSH 311920Z 10004KT 3500 RA VV004 07/07 Q1008 RMK WIND 150FT 15003KT,ENSH,2022-10-31T19:20:00Z,68.25,14.67,7.0,7.0,100,4,,2.17,29.763779,,,,,,,,,,RA,OVX,0,,,,,,,LIFR,,,,,,,,,,,400,METAR,9.0
ENSG 311920Z 00000KT 9999 BKN038 07/06 Q1013 RMK WIND 3806FT 18014KT,ENSG,2022-10-31T19:20:00Z,61.15,7.13,7.0,6.0,0,0,,6.21,29.911417,,,,,,,,,,,BKN,3800,,,,,,,VFR,,,,,,,,,,,,METAR,493.0
ENSF 311920Z AUTO /////KT 8000NDV BKN008/// ///// Q//// W///S4,ENSF,2022-10-31T19:20:00Z,61.25,1.85,,,,,,,,,,TRUE,,,,,,,,BKN,800,,,,,,,,,,,,,,,,,,,METAR,15.0
ENSE 311920Z AUTO 17039KT 9000NDV OVC008/// 12/10 Q1006 W///S5,ENSE,2022-10-31T19:20:00Z,61.45,2.15,12.0,10.0,170,39,,,29.704725,,,TRUE,,,,,,,,OVC,800,,,,,,,,,,,,,,,,,,,METAR,10.0
ENSD 311920Z 06009KT 9999 FEW030 BKN044 10/09 Q1012 RMK WIND RWY26 09005KT WIND 1140FT VRB03KT,ENSD,2022-10-31T19:20:00Z,61.82,6.12,10.0,9.0,60,9,,6.21,29.88189,,,,,,,,,,,FEW,3000,BKN,4400,,,,,VFR,,,,,,,,,,,,METAR,61.0
ENSB 311920Z 11005KT 050V160 9999 FEW030 BKN040 M01/M05 Q1001 RMK WIND 1400FT 13004KT,ENSB,2022-10-31T19:20:00Z,78.25,15.47,-1.0,-5.0,110,5,,6.21,29.557087,,,,,,,,,,,FEW,3000,BKN,4000,,,,,VFR,,,,,,,,,,,,METAR,30.0
ENRY 311920Z AUTO 21007KT 9000NDV OVC003/// 11/10 Q1017,ENRY,2022-10-31T19:20:00Z,59.37,10.77,11.0,10.0,210,7,,,30.029528,,,TRUE,,,,,,,,OVC,300,,,,,,,,,,,,,,,,,,,METAR,45.0
ENRS 311920Z 22008KT 9999 VCSH FEW007 OVC019 09/10 Q1007,ENRS,2022-10-31T19:20:00Z,67.52,12.1,9.0,10.0,220,8,,6.21,29.734253,,,,,,,,,,VCSH,FEW,700,OVC,1900,,,,,MVFR,,,,,,,,,,,,METAR,4.0
ENRO 311920Z VRB02KT CAVOK M01/M01 Q1013,ENRO,2022-10-31T19:20:00Z,62.57,11.33,-1.0,-1.0,0,2,,6.21,29.911417,,,,,,,,,,,CAVOK,,,,,,,,VFR,,,,,,,,,,,,METAR,624.0
ENRM 311920Z 23009KT 9999 VCSH FEW008 SCT012 10/09 Q1011,ENRM,2022-10-31T19:20:00Z,64.83,11.13,10.0,9.0,230,9,,6.21,29.852362,,,,,,,,,,VCSH,FEW,800,SCT,1200,,,,,VFR,,,,,,,,,,,,METAR,4.0
ENRA 311920Z VRB01KT 6000 -DZ SCT010 BKN016 02/02 Q1011,ENRA,2022-10-31T19:20:00Z,66.37,14.3,2.0,2.0,0,1,,3.73,29.852362,,,,,,,,,,-DZ,SCT,1000,BKN,1600,,,,,MVFR,,,,,,,,,,,,METAR,66.0
ENQR 311920Z AUTO 15036KT 7000NDV BKN009/// 11/10 Q1005 W10/S5,ENQR,2022-10-31T19:20:00Z,61.52,2.22,11.0,10.0,150,36,,,29.675198,,,TRUE,,,,,,,,BKN,900,,,,,,,,,,,,,,,,,,,METAR,10.0
ENQC 311920Z AUTO 15032KT 9999NDV BKN010/// 12/10 Q1009 W///S4,ENQC,2022-10-31T19:20:00Z,60.88,3.62,12.0,10.0,150,32,,,29.793306,,,TRUE,,,,,,,,BKN,1000,,,,,,,,,,,,,,,,,,,METAR,20.0
ENQA 311920Z AUTO 16036KT 9999NDV BKN011/// 11/10 Q1010 W16/S4,ENQA,2022-10-31T19:20:00Z,60.65,3.72,11.0,10.0,160,36,,,29.822834,,,TRUE,,,,,,,,BKN,1100,,,,,,,,,,,,,,,,,,,METAR,90.0
ENOV 311920Z 24007KT 190V340 9999 FEW040 BKN051 14/05 Q1011 RMK WIND RWY24 08008KT WIND 2090FT 15021KT,ENOV,2022-10-31T19:20:00Z,62.17,6.07,14.0,5.0,240,7,,6.21,29.852362,,,,,,,,,,,FEW,4000,BKN,5100,,,,,VFR,,,,,,,,,,,,METAR,72.0
ENOL 311920Z 12009KT CAVOK 08/06 Q1011 NOSIG,ENOL,2022-10-31T19:20:00Z,63.7,9.6,8.0,6.0,120,9,,6.21,29.852362,,,,,,TRUE,,,,,CAVOK,,,,,,,,VFR,,,,,,,,,,,,METAR,9.0
ENOA 311920Z 17036KT 8000 BKN008 12/10 Q1008 W///S5,ENOA,2022-10-31T19:20:00Z,60.5,2.83,12.0,10.0,170,36,,4.97,29.763779,,,,,,,,,,,BKN,800,,,,,,,IFR,,,,,,,,,,,,METAR,5.0
ENNM 311920Z 05006KT 9999 VCSH FEW008 SCT016 BKN023 06/05 Q1012,ENNM,2022-10-31T19:20:00Z,64.47,11.57,6.0,5.0,50,6,,6.21,29.88189,,,,,,,,,,VCSH,FEW,800,SCT,1600,BKN,2300,,,MVFR,,,,,,,,,,,,METAR,2.0
ENNE 311920Z AUTO 22024KT 8000NDV -RA BKN003/// 09/09 Q1007 W///S4,ENNE,2022-10-31T19:20:00Z,66.03,8.08,9.0,9.0,220,24,,,29.734253,,,TRUE,,,,,,,-RA,BKN,300,,,,,,,,,,,,,,,,,,,METAR,10.0
ENNA 311920Z 18016KT CAVOK M01/M04 Q1007 RMK WIND 1800FT 23005KT,ENNA,2022-10-31T19:20:00Z,70.07,24.97,-1.0,-4.0,180,16,,6.21,29.734253,,,,,,,,,,,CAVOK,,,,,,,,VFR,,,,,,,,,,,,METAR,12.0
ENMS 311920Z VRB03KT 9999 -DZ FEW007 BKN016 05/04 Q1010 RMK WIND 412FT 15004KT,ENMS,2022-10-31T19:20:00Z,65.78,13.22,5.0,4.0,0,3,,6.21,29.822834,,,,,,,,,,-DZ,FEW,700,BKN,1600,,,,,MVFR,,,,,,,,,,,,METAR,44.0
ENML 311920Z 04005KT CAVOK 06/06 Q1010,ENML,2022-10-31T19:20:00Z,62.75,7.27,6.0,6.0,40,5,,6.21,29.822834,,,,,,,,,,,CAVOK,,,,,,,,VFR,,,,,,,,,,,,METAR,3.0
ENMH 311920Z AUTO 15007KT 120V260 9999 OVC051 05/02 Q1006,ENMH,2022-10-31T19:20:00Z,71.02,27.82,5.0,2.0,150,7,,6.21,29.704725,,,TRUE,,,,,,,,OVC,5100,,,,,,,VFR,,,,,,,,,,,,METAR,10.0
ENLK 311920Z 10003KT 9999 VCSH FEW008 SCT012 BKN020 08/08 Q1006,ENLK,2022-10-31T19:20:00Z,68.15,13.62,8.0,8.0,100,3,,6.21,29.704725,,,,,,,,,,VCSH,FEW,800,SCT,1200,BKN,2000,,,MVFR,,,,,,,,,,,,METAR,26.0
ENLE 311920Z 14021KT 9999 BKN016 13/12 Q1011 W13/S4,ENLE,2022-10-31T19:20:00Z,56.53,3.22,13.0,12.0,140,21,,6.21,29.852362,,,,,,,,,,,BKN,1600,,,,,,,MVFR,,,,,,,,,,,,METAR,10.0
ENLA 311920Z AUTO 16021KT 9999NDV BKN007/// BKN190/// 13/12 Q1010 W///S4,ENLA,2022-10-31T19:20:00Z,57.1,2.83,13.0,12.0,160,21,,,29.822834,,,TRUE,,,,,,,,BKN,700,BKN,19000,,,,,,,,,,,,,,,,,METAR,10.0
ENKR 311920Z 18005KT 9999 FEW041 M02/M03 Q1008 RMK WIND 731FT 20011KT,ENKR,2022-10-31T19:20:00Z,69.72,29.88,-2.0,-3.0,180,5,,6.21,29.763779,,,,,,,,,,,FEW,4100,,,,,,,VFR,,,1.1,,,,,,,,,METAR,86.0
ENKB 311920Z 07005KT 9999 FEW051 SCT063 08/06 Q1010 RMK WIND 745FT 14010KT,ENKB,2022-10-31T19:20:00Z,63.12,7.82,8.0,6.0,70,5,,6.21,29.822834,,,,,,,,,,,FEW,5100,SCT,6300,,,,,VFR,,,,,,,,,,,,METAR,62.0
ENJS 311920Z 17031KT 9999 BKN014 12/11 Q1009 W11/S/,ENJS,2022-10-31T19:20:00Z,,,12.0,11.0,170,31,,6.21,29.793306,,,,,,,,,,,BKN,1400,,,,,,,MVFR,,,,,,,,,,,,METAR,
ENHV 311920Z AUTO 19012KT 9999 SCT040/// BKN160/// BKN190/// 04/01 Q1006,ENHV,2022-10-31T19:20:00Z,71.02,25.97,4.0,1.0,190,12,,6.21,29.704725,,,TRUE,,,,,,,,SCT,4000,BKN,16000,BKN,19000,,,VFR,,,,,,,,,,,,METAR,13.0
ENHM 311920Z AUTO 16032KT 9999NDV BKN013/// BKN016/// 12/12 Q1008 W12/S/,ENHM,2022-10-31T19:20:00Z,59.57,2.23,12.0,12.0,160,32,,,29.763779,,,TRUE,,,,,,,,BKN,1300,BKN,1600,,,,,,,,,,,,,,,,,METAR,10.0
ENHK 311920Z 17004KT CAVOK 05/01 Q1006,ENHK,2022-10-31T19:20:00Z,70.48,22.13,5.0,1.0,170,4,,6.21,29.704725,,,,,,,,,,,CAVOK,,,,,,,,VFR,,,,,,,,,,,,METAR,6.0
ENHF 311920Z 27003KT CAVOK 04/02 Q1005 RMK WIND 1254FT 21009KT,ENHF,2022-10-31T19:20:00Z,70.67,23.67,4.0,2.0,270,3,,6.21,29.675198,,,,,,,,,,,CAVOK,,,,,,,,VFR,,,-0.9,,,,,,,,,METAR,79.0
ENHE 311920Z 23021KT 4200 BR OVC009 10/09 Q1008 W///S3,ENHE,2022-10-31T19:20:00Z,65.33,2.33,10.0,9.0,230,21,,2.61,29.763779,,,,,,,,,,BR,OVC,900,,,,,,,IFR,,,,,,,,,,,,SPECI,10.0
ENHD 311920Z 16014KT 9999 SCT014 BKN018 12/10 Q1013,ENHD,2022-10-31T19:20:00Z,59.35,5.22,12.0,10.0,160,14,,6.21,29.911417,,,,,,,,,,,SCT,1400,BKN,1800,,,,,MVFR,,,,,,,,,,,,METAR,22.0
ENGM 311920Z VRB02KT 9999 7000SE FEW002 08/08 Q1015 TEMPO 4000 BR BKN006,ENGM,2022-10-31T19:20:00Z,60.2,11.07,8.0,8.0,0,2,,6.21,29.970472,,,,,,,,,,,FEW,200,,,,,,,VFR,,,,,,,,,,,,METAR,204.0
ENGC 311920Z 18037KT 9999 BKN009 11/10 Q1006 W10/S5,ENGC,2022-10-31T19:20:00Z,61.02,2.02,11.0,10.0,180,37,,6.21,29.704725,,,,,,,,,,,BKN,900,,,,,,,IFR,,,,,,,,,,,,METAR,10.0
ENFL 311920Z 17014KT 9999 FEW020 BKN029 13/08 Q1011,ENFL,2022-10-31T19:20:00Z,61.57,5.02,13.0,8.0,170,14,,6.21,29.852362,,,,,,,,,,,FEW,2000,BKN,2900,,,,,MVFR,,,,,,,,,,,,METAR,1.0
ENFB 311920Z AUTO 17042KT 8000NDV OVC008/// 12/10 Q1006 W///S4,ENFB,2022-10-31T19:20:00Z,61.2,1.83,12.0,10.0,170,42,,,29.704725,,,TRUE,,,,,,,,OVC,800,,,,,,,,,,,,,,,,,,,METAR,10.0
ENEV 311920Z 21004KT 9999 OVC007 04/03 Q1008 RMK WIND 1400FT 21016KT,ENEV,2022-10-31T19:20:00Z,68.48,16.67,4.0,3.0,210,4,,6.21,29.763779,,,,,,,,,,,OVC,700,,,,,,,IFR,,,-1.6,,,,,,,,,METAR,26.0
ENDU 311920Z 00000KT 9000 RA VCFG FEW001 SCT005 BKN030 00/00 Q1007 RMK WIND 1100FT 20007KT WIND 2200FT 20007KT,ENDU,2022-10-31T19:20:00Z,69.05,18.55,0.0,0.0,0,0,,5.59,29.734253,,,,,,,,,,RA VCFG,FEW,100,SCT,500,BKN,3000,,,MVFR,,,0.7,,,,,,,,,METAR,65.0
ENDR 311920Z AUTO 24025KT 9999NDV FEW024/// 11/09 Q1009 W///S4,ENDR,2022-10-31T19:20:00Z,64.35,7.77,11.0,9.0,240,25,,,29.793306,,,TRUE,,,,,,,,FEW,2400,,,,,,,,,,,,,,,,,,,SPECI,10.0
ENCN 311920Z 00000KT 8000 OVC003 11/11 Q1017,ENCN,2022-10-31T19:20:00Z,58.2,8.07,11.0,11.0,0,0,,4.97,30.029528,,,,,,,,,,,OVC,300,,,,,,,LIFR,,,,,,,,,,,,METAR,17.0
ENBV 311920Z 00000KT 9999 FEW040 OVC050 03/01 Q1007,ENBV,2022-10-31T19:20:00Z,70.87,29.02,3.0,1.0,0,0,,6.21,29.734253,,,,,,,,,,,FEW,4000,OVC,5000,,,,,VFR,,,,,,,,,,,,METAR,13.0
ENBR 311920Z 17012KT 9999 FEW015 OVC018 12/09 Q1013 TEMPO 17015G25KT RMK WIND 1200FT 15024KT,ENBR,2022-10-31T19:20:00Z,60.28,5.22,12.0,9.0,170,12,,6.21,29.911417,,,,,,,,,,,FEW,1500,OVC,1800,,,,,MVFR,,,,,,,,,,,,METAR,49.0
ENBO 311920Z 10013KT 8000 -DZ SCT004 BKN009 05/05 Q1008 TEMPO 22009KT 2000 RADZ BKN012,ENBO,2022-10-31T19:20:00Z,67.27,14.37,5.0,5.0,100,13,,4.97,29.763779,,,,,,,,,,-DZ,SCT,400,BKN,900,,,,,IFR,,,,,,,,,,,,METAR,13.0
ENBN 311920Z 22011KT 4000 SHRA SCT004 BKN006 10/10 Q1010,ENBN,2022-10-31T19:20:00Z,65.47,12.22,10.0,10.0,220,11,,2.49,29.822834,,,,,,,,,,SHRA,SCT,400,BKN,600,,,,,IFR,,,,,,,,,,,,METAR,3.0
ENBL 311920Z 15002KT 9999 SCT030 BKN040 10/07 Q1012,ENBL,2022-10-31T19:20:00Z,61.4,5.77,10.0,7.0,150,2,,6.21,29.88189,,,,,,,,,,,SCT,3000,BKN,4000,,,,,VFR,,,,,,,,,,,,METAR,313.0
ENAT 311920Z 18007KT CAVOK 01/M02 Q1007 RMK WIND 700FT 17010KT,ENAT,2022-10-31T19:20:00Z,69.97,23.37,1.0,-2.0,180,7,,6.21,29.734253,,,,,,,,,,,CAVOK,,,,,,,,VFR,,,,,,,,,,,,METAR,3.0
ENAN 311920Z 17013KT 6000 BKN005 06/05 Q1006,ENAN,2022-10-31T19:20:00Z,69.3,16.13,6.0,5.0,170,13,,3.73,29.704725,,,,,,,,,,,BKN,500,,,,,,,IFR,,,,,,,,,,,,METAR,13.0
ENAL 311920Z 18007KT 9999 SCT059 12/08 Q1010,ENAL,2022-10-31T19:20:00Z,62.57,6.12,12.0,8.0,180,7,,6.21,29.822834,,,,,,,,,,,SCT,5900,,,,,,,VFR,,,,,,,,,,,,METAR,21.0
ELLX 311920Z 18004KT 130V210 CAVOK 14/10 Q1014 NOSIG,ELLX,2022-10-31T19:20:00Z,49.63,6.2,14.0,10.0,180,4,,6.21,29.940945,,,,,,TRUE,,,,,CAVOK,,,,,,,,VFR,,,,,,,,,,,,METAR,374.0
EKVG 311920Z AUTO 22013KT 9999 OVC013/// 09/08 Q0994 RMK BKN010/// WIND SKEID VRB07G25KT,EKVG,2022-10-31T19:20:00Z,62.07,-7.27,9.0,8.0,220,13,,6.21,29.350393,,,TRUE,,,,,,,,OVC,1300,,,,,,,MVFR,,,,,,,,,,,,METAR,89.0
EKVD 311920Z AUTO 13005KT //// ///////// 12/11 Q////,EKVD,2022-10-31T19:20:00Z,55.43,9.32,12.0,11.0,130,5,,,,,,TRUE,,,,,,,,,,,,,,,,,,,,,,,,,,,,METAR,41.0
EKSP 311920Z 13008KT 8000 FEW003 BKN005 11/11 Q1018,EKSP,2022-10-31T19:20:00Z,55.22,9.27,11.0,11.0,130,8,,4.97,30.059055,,,,,,,,,,,FEW,300,BKN,500,,,,,IFR,,,,,,,,,,,,METAR,40.0
EKSB 311920Z 14008KT 9999 BKN008 13/12 Q1018,EKSB,2022-10-31T19:20:00Z,54.97,9.8,13.0,12.0,140,8,,6.21,30.059055,,,,,,,,,,,BKN,800,,,,,,,IFR,,,,,,,,,,,,METAR,23.0
EKRS 311920Z AUTO 09000KT 1600 BR FEW001/// BKN014/// 10/10 Q1019,EKRS,2022-10-31T19:20:00Z,55.42,11.8,10.0,10.0,90,0,,0.99,30.088583,,,TRUE,,,,,,,BR,FEW,100,BKN,1400,,,,,LIFR,,,,,,,,,,,,METAR,34.0
EKRN 311920Z AUTO 18002KT 5000 OVC003/// 13/12 Q1020,EKRN,2022-10-31T19:20:00Z,55.07,14.75,13.0,12.0,180,2,,3.11,30.11811,,,TRUE,,,,,,,,OVC,300,,,,,,,LIFR,,,,,,,,,,,,METAR,14.0
EKRK 311920Z AUTO 17001KT 6000 BKN015/// 11/11 Q1019,EKRK,2022-10-31T19:20:00Z,55.58,12.13,11.0,11.0,170,1,,3.73,30.088583,,,TRUE,,,,,,,,BKN,1500,,,,,,,MVFR,,,,,,,,,,,,METAR,40.0
EKEB 311920Z AUTO 11007KT 9999 BKN015/// 13/10 Q1017,EKEB,2022-10-31T19:20:00Z,55.52,8.55,13.0,10.0,110,7,,6.21,30.029528,,,TRUE,,,,,,,,BKN,1500,,,,,,,MVFR,,,,,,,,,,,,METAR,29.0
EKCH 311920Z 15001KT 9000 BKN020 12/11 Q1020 NOSIG,EKCH,2022-10-31T19:20:00Z,55.62,12.67,12.0,11.0,150,1,,5.59,30.11811,,,,,,TRUE,,,,,BKN,2000,,,,,,,MVFR,,,,,,,,,,,,METAR,4.0
EKBI 311920Z AUTO 13003KT 9999 BKN018/// 11/11 Q1018,EKBI,2022-10-31T19:20:00Z,55.73,9.15,11.0,11.0,130,3,,6.21,30.059055,,,TRUE,,,,,,,,BKN,1800,,,,,,,MVFR,,,,,,,,,,,,METAR,67.0
EKAH 311920Z AUTO 15001KT 0200 R10R/0550D R28L/0800N FG VV001 08/08 Q1019,EKAH,2022-10-31T19:20:00Z,56.28,10.62,8.0,8.0,150,1,,0.12,30.088583,,,TRUE,,,,,,,FG,OVX,0,,,,,,,LIFR,,,,,,,,,,,100,METAR,25.0
EGYP 311920Z 28025KT 9999 FEW028 OVC080 09/01 Q1010 TEMPO SCT014,EGYP,2022-10-31T19:20:00Z,-51.82,-58.45,9.0,1.0,280,25,,6.21,29.822834,,,,,,,,,,,FEW,2800,OVC,8000,,,,,VFR,,,,,,,,,,,,METAR,70.0
EGYM 311920Z 11013KT 9999 FEW020 SCT040 BKN120 14/12 Q1004 TEMPO 6000 RA SCT010 RMK BLU TEMPO GRN,EGYM,2022-10-31T19:20:00Z,52.63,0.57,14.0,12.0,110,13,,6.21,29.64567,,,,,,,,,,,FEW,2000,SCT,4000,BKN,12000,,,VFR,,,,,,,,,,,,METAR,25.0
EGYH 311920Z AUTO 11010KT 9999 OVC044/// 14/12 Q1004,EGYH,2022-10-31T19:20:00Z,52.87,0.15,14.0,12.0,110,10,,6.21,29.64567,,,TRUE,,,,,,,,OVC,4400,,,,,,,VFR,,,,,,,,,,,,METAR,5.0
EGYD 311920Z AUTO 09012KT 9999 FEW038/// BKN047/// 13/12 Q1003,EGYD,2022-10-31T19:20:00Z,53.03,-0.5,13.0,12.0,90,12,,6.21,29.616142,,,TRUE,,,,,,,,FEW,3800,BKN,4700,,,,,VFR,,,,,,,,,,,,METAR,65.0
EGXZ 311920Z AUTO 11009KT 9999 BKN059/// SCT095/// 12/11 Q1005,EGXZ,2022-10-31T19:20:00Z,54.2,-1.38,12.0,11.0,110,9,,6.21,29.675198,,,TRUE,,,,,,,,BKN,5900,SCT,9500,,,,,VFR,,,,,,,,,,,,METAR,24.0
EGXW 311920Z 09012KT 9999 BKN040 BKN120 13/12 Q1003 TEMPO 4000 SHRA SCT005 RMK BLU TEMPO YLO1,EGXW,2022-10-31T19:20:00Z,53.18,-0.52,13.0,12.0,90,12,,6.21,29.616142,,,,,,,,,,,BKN,4000,BKN,12000,,,,,VFR,,,,,,,,,,,,METAR,70.0
EGXV 311920Z AUTO 09003KT 9999 BKN068/// SCT086/// 12/11 Q1005,EGXV,2022-10-31T19:20:00Z,53.87,-0.45,12.0,11.0,90,3,,6.21,29.675198,,,TRUE,,,,,,,,BKN,6800,SCT,8600,,,,,VFR,,,,,,,,,,,,METAR,6.0
EGXT 311920Z AUTO 11010KT 3900 RA FEW011/// OVC017/// 13/12 Q1003,EGXT,2022-10-31T19:20:00Z,52.62,-0.47,13.0,12.0,110,10,,2.42,29.616142,,,TRUE,,,,,,,RA,FEW,1100,OVC,1700,,,,,IFR,,,,,,,,,,,,METAR,74.0
EGXE 311920Z AUTO 16007KT 9999 FEW076/// OVC096/// 13/11 Q1005,EGXE,2022-10-31T19:20:00Z,54.28,-1.52,13.0,11.0,160,7,,6.21,29.675198,,,TRUE,,,,,,,,FEW,7600,OVC,9600,,,,,VFR,,,,,,,,,,,,METAR,30.0
EGWU 311920Z 13009KT 9999 -SHRA SCT011 BKN020 14/13 Q1003 TEMPO FEW011 BKN020 RMK GRN TEMPO WHT,EGWU,2022-10-31T19:20:00Z,51.55,-0.42,14.0,13.0,130,9,,6.21,29.616142,,,,,,,,,,-SHRA,SCT,1100,BKN,2000,,,,,MVFR,,,,,,,,,,,,METAR,33.0
EGVP 311920Z AUTO 15010KT 9999 // OVC010/// 15/14 Q1001,EGVP,2022-10-31T19:20:00Z,51.13,-1.57,15.0,14.0,150,10,,6.21,29.557087,,,TRUE,,,,,,,,OVC,1000,,,,,,,MVFR,,,,,,,,,,,,SPECI,80.0
EGVO 311920Z AUTO 15011KT 9999 -RA BKN010/// SCT027/// 15/14 Q1001,EGVO,2022-10-31T19:20:00Z,51.23,-0.95,15.0,14.0,150,11,,6.21,29.557087,,,TRUE,,,,,,,-RA,BKN,1000,SCT,2700,,,,,MVFR,,,,,,,,,,,,METAR,118.0
EGVN 311920Z AUTO 13010KT 9999 // OVC006/// 14/13 Q1001,EGVN,2022-10-31T19:20:00Z,51.77,-1.58,14.0,13.0,130,10,,6.21,29.557087,,,TRUE,,,,,,,,OVC,600,,,,,,,IFR,,,,,,,,,,,,METAR,83.0
EGVA 311920Z AUTO 12011KT 9999 -RA BR SCT010 14/13 A2954 RMK AO2 SLP007 $,EGVA,2022-10-31T19:20:00Z,51.67,-1.78,14.0,13.0,120,11,,6.21,29.53937,1000.7,,TRUE,TRUE,TRUE,,,,,-RA BR,SCT,1000,,,,,,,VFR,,,,,,,,,,,,METAR,84.0
EGTK 311920Z 12008KT 9999 VCSH SCT010 BKN012 OVC020 13/13 Q1001,EGTK,2022-10-31T19:20:00Z,51.83,-1.32,13.0,13.0,120,8,,6.21,29.557087,,,,,,,,,,VCSH,SCT,1000,BKN,1200,OVC,2000,,,MVFR,,,,,,,,,,,,METAR,78.0
EGTE 311920Z 18016KT 9000 SCT020 15/13 Q0998,EGTE,2022-10-31T19:20:00Z,50.73,-3.42,15.0,13.0,180,16,,5.59,29.468504,,,,,,,,,,,SCT,2000,,,,,,,VFR,,,,,,,,,,,,METAR,30.0
EGSY 311920Z AUTO 10010KT 8000 -DZ OVC006/// 14/13 Q0998,EGSY,2022-10-31T19:20:00Z,51.4,-3.43,14.0,13.0,100,10,,4.97,29.468504,,,TRUE,,,,,,,-DZ,OVC,600,,,,,,,IFR,,,,,,,,,,,,METAR,46.0
EGSS 311920Z AUTO 12013KT 8000 BKN008 OVC013 15/14 Q1004,EGSS,2022-10-31T19:20:00Z,51.88,0.22,15.0,14.0,120,13,,4.97,29.64567,,,TRUE,,,,,,,,BKN,800,OVC,1300,,,,,IFR,,,,,,,,,,,,METAR,101.0
EGSH 311920Z 13013KT 100V160 CAVOK 15/13 Q1006 NOSIG,EGSH,2022-10-31T19:20:00Z,52.68,1.28,15.0,13.0,130,13,,6.21,29.704725,,,,,,TRUE,,,,,CAVOK,,,,,,,,VFR,,,,,,,,,,,,METAR,21.0
EGQS 311920Z 18006KT CAVOK 13/08 Q1002 NOSIG RMK BLU BLU,EGQS,2022-10-31T19:20:00Z,57.72,-3.32,13.0,8.0,180,6,,6.21,29.586615,,,,,,TRUE,,,,,CAVOK,,,,,,,,VFR,,,,,,,,,,,,METAR,6.0
EGQK 311920Z AUTO 18006KT 9999 // FEW057/// BKN072/// 14/08 Q1002,EGQK,2022-10-31T19:20:00Z,57.65,-3.57,14.0,8.0,180,6,,6.21,29.586615,,,TRUE,,,,,,,,FEW,5700,BKN,7200,,,,,VFR,,,,,,,,,,,,SPECI,5.0
EGPU 311920Z AUTO 17008KT 9999 FEW015/// 11/10 Q1000 REDZ,EGPU,2022-10-31T19:20:00Z,56.5,-6.88,11.0,10.0,170,8,,6.21,29.52756,,,TRUE,,,,,,,,FEW,1500,,,,,,,VFR,,,,,,,,,,,,SPECI,12.0
EGPO 311920Z VRB01KT 9999 FEW010 SCT035 10/08 Q1000,EGPO,2022-10-31T19:20:00Z,58.22,-6.32,10.0,8.0,0,1,,6.21,29.52756,,,,,,,,,,,FEW,1000,SCT,3500,,,,,VFR,,,,,,,,,,,,METAR,10.0
EGPN 311920Z 19007KT 9999 FEW030 13/10 Q1004,EGPN,2022-10-31T19:20:00Z,56.45,-3.02,13.0,10.0,190,7,,6.21,29.64567,,,,,,,,,,,FEW,3000,,,,,,,VFR,,,,,,,,,,,,METAR,4.0
EGPL 311920Z AUTO 17005KT 9999 NCD 08/07 Q1000,EGPL,2022-10-31T19:20:00Z,57.47,-7.37,8.0,7.0,170,5,,6.21,29.52756,,,TRUE,,,,,,,,CLR,,,,,,,,VFR,,,,,,,,,,,,METAR,3.0
EGPK 311920Z 15005KT 9999 -RA BKN025 13/11 Q1002,EGPK,2022-10-31T19:20:00Z,55.5,-4.58,13.0,11.0,150,5,,6.21,29.586615,,,,,,,,,,-RA,BKN,2500,,,,,,,MVFR,,,,,,,,,,,,METAR,14.0
EGPI 311920Z AUTO 14007KT 9999 -RA FEW016/// 11/11 Q1000,EGPI,2022-10-31T19:20:00Z,55.68,-6.25,11.0,11.0,140,7,,6.21,29.52756,,,TRUE,,,,,,,-RA,FEW,1600,,,,,,,VFR,,,,,,,,,,,,METAR,17.0
EGPH 311920Z 16007KT CAVOK 14/09 Q1003,EGPH,2022-10-31T19:20:00Z,55.95,-3.35,14.0,9.0,160,7,,6.21,29.616142,,,,,,,,,,,CAVOK,,,,,,,,VFR,,,,,,,,,,,,METAR,29.0
EGPF 311920Z AUTO VRB02KT 9999 -RA SCT026/// BKN035/// BKN047/// //////CB 11/10 Q1003,EGPF,2022-10-31T19:20:00Z,55.87,-4.42,11.0,10.0,0,2,,6.21,29.616142,,,TRUE,,,,,,,-RA,SCT,2600,BKN,3500,BKN,4700,,,VFR,,,,,,,,,,,,SPECI,8.0
EGPE 311920Z 20009KT 9999 FEW020 SCT048 13/09 Q1002,EGPE,2022-10-31T19:20:00Z,57.53,-4.05,13.0,9.0,200,9,,6.21,29.586615,,,,,,,,,,,FEW,2000,SCT,4800,,,,,VFR,,,,,,,,,,,,METAR,7.0
EGPD 311920Z AUTO 17014KT 9999 FEW008 SCT033 BKN045 12/11 Q1005,EGPD,2022-10-31T19:20:00Z,57.2,-2.22,12.0,11.0,170,14,,6.21,29.675198,,,TRUE,,,,,,,,FEW,800,SCT,3300,BKN,4500,,,VFR,,,,,,,,,,,,METAR,65.0
EGPC 311920Z 17013KT 9999 FEW038 13/11 Q1002,EGPC,2022-10-31T19:20:00Z,58.45,-3.08,13.0,11.0,170,13,,6.21,29.586615,,,,,,,,,,,FEW,3800,,,,,,,VFR,,,,,,,,,,,,METAR,38.0
EGPB 311920Z 20014KT 9000 FEW011 12/11 Q1003 TEMPO SHRA,EGPB,2022-10-31T19:20:00Z,59.87,-1.3,12.0,11.0,200,14,,5.59,29.616142,,,,,,,,,,,FEW,1100,,,,,,,VFR,,,,,,,,,,,,METAR,2.0
EGPA 311920Z 18013KT 9999 FEW020 SCT040 13/11 Q1002,EGPA,2022-10-31T19:20:00Z,58.95,-2.9,13.0,11.0,180,13,,6.21,29.586615,,,,,,,,,,,FEW,2000,SCT,4000,,,,,VFR,,,,,,,,,,,,METAR,15.0
EGOV 311920Z 09006KT CAVOK 13/09 Q1000 NOSIG RMK BLU BLU,EGOV,2022-10-31T19:20:00Z,53.25,-4.53,13.0,9.0,90,6,,6.21,29.52756,,,,,,TRUE,,,,,CAVOK,,,,,,,,VFR,,,,,,,,,,,,METAR,11.0
EGOS 311920Z 08007KT 9999 SCT009 OVC035 12/11 Q1001 TEMPO 6000 RA RMK GRN TEMPO GRN,EGOS,2022-10-31T19:20:00Z,52.8,-2.67,12.0,11.0,80,7,,6.21,29.557087,,,,,,,,,,,SCT,900,OVC,3500,,,,,VFR,,,,,,,,,,,,SPECI,76.0
EGOP 311920Z AUTO 09007KT 9999 SCT013/// BKN061/// 13/12 Q0998,EGOP,2022-10-31T19:20:00Z,51.72,-4.37,13.0,12.0,90,7,,6.21,29.468504,,,TRUE,,,,,,,,SCT,1300,BKN,6100,,,,,VFR,,,,,,,,,,,,METAR,8.0
EGOM 311920Z AUTO 11007KT 9999 FEW017/// 10/08 Q1004,EGOM,2022-10-31T19:20:00Z,55.05,-2.55,10.0,8.0,110,7,,6.21,29.64567,,,TRUE,,,,,,,,FEW,1700,,,,,,,VFR,,,,,,,,,,,,METAR,286.0
EGNX 311920Z 08010KT 8000 RA FEW018 BKN021 12/12 Q1002 RERA,EGNX,2022-10-31T19:20:00Z,52.82,-1.32,12.0,12.0,80,10,,4.97,29.586615,,,,,,,,,,RA,FEW,1800,BKN,2100,,,,,MVFR,,,,,,,,,,,,METAR,91.0
EGNV 311920Z 08005KT 9999 FEW025 10/09 Q1005,EGNV,2022-10-31T19:20:00Z,54.52,-1.42,10.0,9.0,80,5,,6.21,29.675198,,,,,,,,,,,FEW,2500,,,,,,,VFR,,,,,,,,,,,,METAR,36.0
EGNT 311920Z 12003KT 9999 FEW016 11/10 Q1005,EGNT,2022-10-31T19:20:00Z,55.03,-1.7,11.0,10.0,120,3,,6.21,29.675198,,,,,,,,,,,FEW,1600,,,,,,,VFR,,,,,,,,,,,,METAR,77.0
EGNS 311920Z 12015KT 9999 FEW012 14/11 Q1001 NOSIG,EGNS,2022-10-31T19:20:00Z,54.08,-4.63,14.0,11.0,120,15,,6.21,29.557087,,,,,,TRUE,,,,,FEW,1200,,,,,,,VFR,,,,,,,,,,,,METAR,18.0
EGNR 311920Z 13005KT 100V160 9999 RA FEW015 SCT019 12/11 Q1002,EGNR,2022-10-31T19:20:00Z,53.17,-2.98,12.0,11.0,130,5,,6.21,29.586615,,,,,,,,,,RA,FEW,1500,SCT,1900,,,,,VFR,,,,,,,,,,,,METAR,11.0
EGNM 311920Z 11005KT 9999 -SHRA FEW012 SCT027 11/11 Q1005,EGNM,2022-10-31T19:20:00Z,53.87,-1.65,11.0,11.0,110,5,,6.21,29.675198,,,,,,,,,,-SHRA,FEW,1200,SCT,2700,,,,,VFR,,,,,,,,,,,,METAR,221.0
EGNJ 311920Z AUTO 10011KT 9999 BKN046/// 14/13 Q1005,EGNJ,2022-10-31T19:20:00Z,53.57,-0.35,14.0,13.0,100,11,,6.21,29.675198,,,TRUE,,,,,,,,BKN,4600,,,,,,,VFR,,,,,,,,,,,,METAR,23.0
EGNH 311920Z 12013KT 9999 -RA SCT042 14/11 Q1003,EGNH,2022-10-31T19:20:00Z,53.77,-3.03,14.0,11.0,120,13,,6.21,29.616142,,,,,,,,,,-RA,SCT,4200,,,,,,,VFR,,,,,,,,,,,,METAR,10.0
EGMD 311920Z AUTO 15018KT 9999 -RA NCD 17/15 Q1005,EGMD,2022-10-31T19:20:00Z,50.95,0.93,17.0,15.0,150,18,,6.21,29.675198,,,TRUE,,,,,,,-RA,CLR,,,,,,,,VFR,,,,,,,,,,,,METAR,4.0
EGMC 311920Z 13011KT 9999 FEW006 16/14 Q1004,EGMC,2022-10-31T19:20:00Z,51.57,0.7,16.0,14.0,130,11,,6.21,29.64567,,,,,,,,,,,FEW,600,,,,,,,VFR,,,,,,,,,,,,METAR,15.0
EGLL 311920Z AUTO 13009KT 9999 -RA SCT031 15/14 Q1003 TEMPO 4000 +SHRA BKN014,EGLL,2022-10-31T19:20:00Z,51.48,-0.45,15.0,14.0,130,9,,6.21,29.616142,,,TRUE,,,,,,,-RA,SCT,3100,,,,,,,VFR,,,,,,,,,,,,SPECI,26.0
EGLF 311920Z 14009KT 110V170 9999 -RA BKN017 16/14 Q1002,EGLF,2022-10-31T19:20:00Z,51.28,-0.77,16.0,14.0,140,9,,6.21,29.586615,,,,,,,,,,-RA,BKN,1700,,,,,,,MVFR,,,,,,,,,,,,METAR,65.0
EGLC 311920Z AUTO 12009KT 9999 NCD 15/14 Q1003,EGLC,2022-10-31T19:20:00Z,51.5,0.05,15.0,14.0,120,9,,6.21,29.616142,,,TRUE,,,,,,,,CLR,,,,,,,,VFR,,,,,,,,,,,,METAR,10.0
EGKK 311920Z 13007KT 9000 -SHRA FEW015 SCT035 16/14 Q1003,EGKK,2022-10-31T19:20:00Z,51.13,-0.18,16.0,14.0,130,7,,5.59,29.616142,,,,,,,,,,-SHRA,FEW,1500,SCT,3500,,,,,VFR,,,,,,,,,,,,METAR,58.0
EGKB 311920Z 14010KT 9999 SCT005 14/13 Q1003,EGKB,2022-10-31T19:20:00Z,51.32,0.02,14.0,13.0,140,10,,6.21,29.616142,,,,,,,,,,,SCT,500,,,,,,,VFR,,,,,,,,,,,,METAR,183.0
EGKA 311920Z 16015KT 9999 -SHRA FEW016 BKN042 16/12 Q1003,EGKA,2022-10-31T19:20:00Z,50.83,-0.3,16.0,12.0,160,15,,6.21,29.616142,,,,,,,,,,-SHRA,FEW,1600,BKN,4200,,,,,VFR,,,,,,,,,,,,METAR,2.0
EGJJ 311920Z 21013KT 9999 -SHRA FEW010 SCT018 15/14 Q1003,EGJJ,2022-10-31T19:20:00Z,49.22,-2.2,15.0,14.0,210,13,,6.21,29.616142,,,,,,,,,,-SHRA,FEW,1000,SCT,1800,,,,,VFR,,,,,,,,,,,,METAR,84.0
EGJB 311920Z 21019G29KT 9999 VCSH BKN017 15/12 Q1002,EGJB,2022-10-31T19:20:00Z,49.42,-2.6,15.0,12.0,210,19,29,6.21,29.586615,,,,,,,,,,VCSH,BKN,1700,,,,,,,MVFR,,,,,,,,,,,,METAR,102.0
EGHQ 311920Z 16013KT 9000 -SHRA FEW007 SCT010 BKN035 13/12 Q0996 RERA,EGHQ,2022-10-31T19:20:00Z,50.43,-5.0,13.0,12.0,160,13,,5.59,29.409449,,,,,,,,,,-SHRA,FEW,700,SCT,1000,BKN,3500,,,VFR,,,,,,,,,,,,METAR,101.0
EGHI 311920Z 16007KT 100V200 9999 SHRA SCT012 BKN018 16/14 Q1001,EGHI,2022-10-31T19:20:00Z,50.95,-1.35,16.0,14.0,160,7,,6.21,29.557087,,,,,,,,,,SHRA,SCT,1200,BKN,1800,,,,,MVFR,,,,,,,,,,,,METAR,13.0
EGHH 311920Z 16011KT 9999 -RA FEW016 16/14 Q1000,EGHH,2022-10-31T19:20:00Z,50.78,-1.83,16.0,14.0,160,11,,6.21,29.52756,,,,,,,,,,-RA,FEW,1600,,,,,,,VFR,,,,,,,,,,,,METAR,9.0
EGGW 311920Z AUTO 14011KT 7000 BKN006 OVC024 14/13 Q1003,EGGW,2022-10-31T19:20:00Z,51.87,-0.37,14.0,13.0,140,11,,4.35,29.616142,,,TRUE,,,,,,,,BKN,600,OVC,2400,,,,,IFR,,,,,,,,,,,,METAR,159.0
EGGP 311920Z 09010KT 9000 -SHRA FEW033 SCT038 BKN044 12/11 Q1002,EGGP,2022-10-31T19:20:00Z,53.33,-2.85,12.0,11.0,90,10,,5.59,29.586615,,,,,,,,,,-SHRA,FEW,3300,SCT,3800,BKN,4400,,,VFR,,,,,,,,,,,,METAR,23.0
EGGD 311920Z AUTO 09008KT 9000 SCT001/// BKN010/// //////CB 13/12 Q1000,EGGD,2022-10-31T19:20:00Z,51.37,-2.72,13.0,12.0,90,8,,5.59,29.52756,,,TRUE,,,,,,,,SCT,100,BKN,1000,,,,,MVFR,,,,,,,,,,,,SPECI,182.0
EGFF 311920Z AUTO 11011KT 9999 BKN009/// OVC015/// //////CB 14/13 Q0999,EGFF,2022-10-31T19:20:00Z,51.38,-3.35,14.0,13.0,110,11,,6.21,29.498032,,,TRUE,,,,,,,,BKN,900,OVC,1500,,,,,IFR,,,,,,,,,,,,SPECI,65.0
EGDY 311920Z AUTO 14010KT 9999 BKN020/// SCT090/// BKN100/// 15/13 Q0999,EGDY,2022-10-31T19:20:00Z,51.0,-2.63,15.0,13.0,140,10,,6.21,29.498032,,,TRUE,,,,,,,,BKN,2000,SCT,9000,BKN,10000,,,MVFR,,,,,,,,,,,,METAR,21.0
EGDR 311920Z AUTO 19020G32KT 3100 DZ OVC003/// 12/11 Q0994,EGDR,2022-10-31T19:20:00Z,50.08,-5.25,12.0,11.0,190,20,32,1.93,29.350393,,,TRUE,,,,,,,DZ,OVC,300,,,,,,,LIFR,,,,,,,,,,,,METAR,74.0
EGDM 311920Z AUTO 16011KT 9999 // BKN009/// OVC075/// 15/14 Q1001,EGDM,2022-10-31T19:20:00Z,51.17,-1.75,15.0,14.0,160,11,,6.21,29.557087,,,TRUE,,,,,,,,BKN,900,OVC,7500,,,,,IFR,,,,,,,,,,,,SPECI,122.0
EGCN 311920Z 36002KT CAVOK 12/11 Q1005,EGCN,2022-10-31T19:20:00Z,53.48,-1.0,12.0,11.0,360,2,,6.21,29.675198,,,,,,,,,,,CAVOK,,,,,,,,VFR,,,,,,,,,,,,METAR,9.0
EGCK 311920Z AUTO 11010KT 070V130 9999 NCD 15/09 Q0999,EGCK,2022-10-31T19:20:00Z,53.1,-4.33,15.0,9.0,110,10,,6.21,29.498032,,,TRUE,,,,,,,,CLR,,,,,,,,VFR,,,,,,,,,,,,METAR,6.0
EGCC 311920Z AUTO 09006KT 060V130 9999 -RA //////CB 12/11 Q1003 TEMPO 4000 RA,EGCC,2022-10-31T19:20:00Z,53.35,-2.27,12.0,11.0,90,6,,6.21,29.616142,,,TRUE,,,,,,,-RA,,,,,,,,,,,,,,,,,,,,,SPECI,78.0
EGBB 311920Z 11010KT 6000 -SHRA BKN014CB 13/12 Q1002 RESHRA,EGBB,2022-10-31T19:20:00Z,52.47,-1.75,13.0,12.0,110,10,,3.73,29.586615,,,,,,,,,,-SHRA,BKN,1400,,,,,,,MVFR,,,,,,,,,,,,METAR,91.0
EGAE 311920Z VRB02KT 8000 -RA SCT011 BKN038 11/10 Q1000,EGAE,2022-10-31T19:20:00Z,55.03,-7.15,11.0,10.0,0,2,,4.97,29.52756,,,,,,,,,,-RA,SCT,1100,BKN,3800,,,,,MVFR,,,,,,,,,,,,METAR,9.0
EGAC 311920Z AUTO VRB01KT 9999 FEW023 11/10 Q1000,EGAC,2022-10-31T19:20:00Z,54.62,-5.87,11.0,10.0,0,1,,6.21,29.52756,,,TRUE,,,,,,,,FEW,2300,,,,,,,VFR,,,,,,,,,,,,METAR,2.0
EGAA 311920Z AUTO 14006KT 9999 SCT027 11/09 Q1000,EGAA,2022-10-31T19:20:00Z,54.65,-6.22,11.0,9.0,140,6,,6.21,29.52756,,,TRUE,,,,,,,,SCT,2700,,,,,,,VFR,,,,,,,,,,,,METAR,65.0
EFVA 311920Z AUTO 25008KT 9999 BKN007 07/06 Q1010,EFVA,2022-10-31T19:20:00Z,63.05,21.77,7.0,6.0,250,8,,6.21,29.822834,,,TRUE,,,,,,,,BKN,700,,,,,,,IFR,,,,,,,,,,,,METAR,4.0
EFUT 311920Z AUTO 17006KT 5000 -SHRA OVC003 //////CB 03/03 Q1015,EFUT,2022-10-31T19:20:00Z,60.88,26.93,3.0,3.0,170,6,,3.11,29.970472,,,TRUE,,,,,,,-SHRA,OVC,300,,,,,,,LIFR,,,,,,,,,,,,SPECI,104.0
EFTU 311920Z AUTO 23006KT 9999 OVC005 10/10 Q1014,EFTU,2022-10-31T19:20:00Z,60.52,22.27,10.0,10.0,230,6,,6.21,29.940945,,,TRUE,,,,,,,,OVC,500,,,,,,,IFR,,,,,,,,,,,,METAR,47.0
EFTP 311920Z AUTO 22007KT 1700 -DZ VV002 08/08 Q1013,EFTP,2022-10-31T19:20:00Z,61.42,23.62,8.0,8.0,220,7,,1.06,29.911417,,,TRUE,,,,,,,-DZ,OVX,0,,,,,,,LIFR,,,,,,,,,,,200,METAR,111.0
EFSI 311920Z AUTO 22006KT 190V260 9999 OVC005 08/08 Q1010,EFSI,2022-10-31T19:20:00Z,62.7,22.83,8.0,8.0,220,6,,6.21,29.822834,,,TRUE,,,,,,,,OVC,500,,,,,,,IFR,,,,,,,,,,,,METAR,90.0
EFSA 311920Z AUTO 17005KT CAVOK 01/M02 Q1015,EFSA,2022-10-31T19:20:00Z,61.95,28.93,1.0,-2.0,170,5,,6.21,29.970472,,,TRUE,,,,,,,,CAVOK,,,,,,,,VFR,,,,,,,,,,,,METAR,90.0
EFRO 311920Z AUTO 16005KT 0650 R21/0900D FZFG VV002 M00/M00 Q1009,EFRO,2022-10-31T19:20:00Z,66.57,25.82,0.0,0.0,160,5,,0.4,29.793306,,,TRUE,,,,,,,FZFG,OVX,0,,,,,,,LIFR,,,,,,,,,,,200,METAR,201.0
EFPO 311920Z AUTO 24006KT 9999 VCSH SCT007 OVC025 //////CB 10/09 Q1013,EFPO,2022-10-31T19:20:00Z,61.47,21.8,10.0,9.0,240,6,,6.21,29.911417,,,TRUE,,,,,,,VCSH,SCT,700,OVC,2500,,,,,MVFR,,,,,,,,,,,,METAR,10.0
EFOU 311920Z AUTO 14007KT 6000 -DZ OVC003 02/02 Q1009,EFOU,2022-10-31T19:20:00Z,64.92,25.37,2.0,2.0,140,7,,3.73,29.793306,,,TRUE,,,,,,,-DZ,OVC,300,,,,,,,LIFR,,,,,,,,,,,,METAR,15.0
EFMI 311920Z AUTO 15003KT 110V200 9999 SHRA OVC007 //////CB 02/02 Q1014,EFMI,2022-10-31T19:20:00Z,61.68,27.2,2.0,2.0,150,3,,6.21,29.940945,,,TRUE,,,,,,,SHRA,OVC,700,,,,,,,IFR,,,,,,,,,,,,SPECI,99.0
EFMA 311920Z 24003KT 200V280 9999 FEW005 10/10 Q1015,EFMA,2022-10-31T19:20:00Z,60.12,19.9,10.0,10.0,240,3,,6.21,29.970472,,,,,,,,,,,FEW,500,,,,,,,VFR,,,,,,,,,,,,METAR,6.0
EFLP 311920Z AUTO 17003KT 150V210 9999 -SHRA BKN015 //////CB 01/M01 Q1016,EFLP,2022-10-31T19:20:00Z,61.03,28.15,1.0,-1.0,170,3,,6.21,30.0,,,TRUE,,,,,,,-SHRA,BKN,1500,,,,,,,MVFR,,,,,,,,,,,,SPECI,102.0
EFKU 311920Z AUTO 18006KT 140V210 9999 -SHRA OVC007 //////CB 02/01 Q1013,EFKU,2022-10-31T19:20:00Z,63.02,27.8,2.0,1.0,180,6,,6.21,29.911417,,,TRUE,,,,,,,-SHRA,OVC,700,,,,,,,IFR,,,,,,,,,,,,METAR,92.0
EFKT 311920Z AUTO 14004KT 7000 OVC006 M01/M01 Q1007 REFZUP,EFKT,2022-10-31T19:20:00Z,67.7,24.85,-1.0,-1.0,140,4,,4.35,29.734253,,,TRUE,,,,,,,,OVC,600,,,,,,,IFR,,,,,,,,,,,,METAR,190.0
EFKS 311920Z 07002KT 3000 BR BKN001 M04/M05 Q1010,EFKS,2022-10-31T19:20:00Z,66.0,29.23,-4.0,-5.0,70,2,,1.86,29.822834,,,,,,,,,,BR,BKN,100,,,,,,,LIFR,,,,,,,,,,,,METAR,270.0
EFKK 311920Z AUTO 21008KT 5000 -SHRA OVC002 07/07 Q1009,EFKK,2022-10-31T19:20:00Z,63.72,23.13,7.0,7.0,210,8,,3.11,29.793306,,,TRUE,,,,,,,-SHRA,OVC,200,,,,,,,LIFR,,,,,,,,,,,,METAR,25.0
EFKI 311920Z AUTO 18010KT 9999 OVC012 01/M00 Q1011,EFKI,2022-10-31T19:20:00Z,64.27,27.67,1.0,0.0,180,10,,6.21,29.852362,,,TRUE,,,,,,,,OVC,1200,,,,,,,MVFR,,,,,,,,,,,,METAR,132.0
EFKE 311920Z AUTO 11006KT 9999 -RA BKN004 OVC023 02/01 Q1009,EFKE,2022-10-31T19:20:00Z,65.78,24.57,2.0,1.0,110,6,,6.21,29.793306,,,TRUE,,,,,,,-RA,BKN,400,OVC,2300,,,,,LIFR,,,,,,,,,,,,METAR,15.0
EFJY 311920Z AUTO 18003KT 6000 -SHRA OVC003 05/05 Q1012,EFJY,2022-10-31T19:20:00Z,62.4,25.68,5.0,5.0,180,3,,3.73,29.88189,,,TRUE,,,,,,,-SHRA,OVC,300,,,,,,,LIFR,,,,,,,,,,,,METAR,139.0
EFJO 311920Z AUTO 16003KT CAVOK M02/M03 Q1014,EFJO,2022-10-31T19:20:00Z,62.67,29.62,-2.0,-3.0,160,3,,6.21,29.940945,,,TRUE,,,,,,,,CAVOK,,,,,,,,VFR,,,,,,,,,,,,METAR,118.0
EFIV 311920Z AUTO 23007KT 9999 OVC005 M06/M07 Q1009,EFIV,2022-10-31T19:20:00Z,68.62,27.42,-6.0,-7.0,230,7,,6.21,29.793306,,,TRUE,,,,,,,,OVC,500,,,,,,,IFR,,,,,,,,,,,,METAR,145.0
EFHK 311920Z 20007KT 2500 -DZ BR OVC002 08/08 Q1015 TEMPO 0800 FG VV001,EFHK,2022-10-31T19:20:00Z,60.32,24.97,8.0,8.0,200,7,,1.55,29.970472,,,,,,,,,,-DZ BR,OVC,200,,,,,,,LIFR,,,,,,,,,,,,METAR,56.0
EFHA 311920Z AUTO 17005KT 130V200 2100 BR VV002 06/06 Q1012,EFHA,2022-10-31T19:20:00Z,61.85,24.8,6.0,6.0,170,5,,1.3,29.88189,,,TRUE,,,,,,,BR,OVX,0,,,,,,,LIFR,,,,,,,,,,,200,METAR,144.0
EFET 311920Z AUTO 30002KT 4900 BR OVC002 M06/M06 Q1006,EFET,2022-10-31T19:20:00Z,68.37,23.43,-6.0,-6.0,300,2,,3.04,29.704725,,,TRUE,,,,,,,BR,OVC,200,,,,,,,LIFR,,,,,,,,,,,,METAR,300.0
EETU 311920Z AUTO 22004KT 9999 BKN064/// BKN076/// OVC098/// 05/03 Q1019,EETU,2022-10-31T19:20:00Z,58.32,26.68,5.0,3.0,220,4,,6.21,30.088583,,,TRUE,,,,,,,,BKN,6400,BKN,7600,OVC,9800,,,VFR,,,,,,,,,,,,METAR,67.0
EETN 311920Z 21007KT 8000 -DZ OVC006 08/07 Q1016 TEMPO 3000 RADZ BR,EETN,2022-10-31T19:20:00Z,59.4,24.82,8.0,7.0,210,7,,4.97,30.0,,,,,,,,,,-DZ,OVC,600,,,,,,,IFR,,,,,,,,,,,,METAR,41.0
EEPU 311920Z AUTO 21008KT 9999 OVC010/// 09/08 Q1018,EEPU,2022-10-31T19:20:00Z,58.42,24.47,9.0,8.0,210,8,,6.21,30.059055,,,TRUE,,,,,,,,OVC,1000,,,,,,,MVFR,,,,,,,,,,,,METAR,13.0
EEKE 311920Z AUTO 24005KT 200V290 4100NDV -RA BR OVC005 10/10 Q1018,EEKE,2022-10-31T19:20:00Z,58.23,22.52,10.0,10.0,240,5,,,30.059055,,,TRUE,,,,,,,-RA BR,OVC,500,,,,,,,,,,,,,,,,,,,METAR,4.0
EDXW 311920Z AUTO 11010KT 9999 // BKN120/// 12/11 Q1016,EDXW,2022-10-31T19:20:00Z,54.92,8.33,12.0,11.0,110,10,,6.21,30.0,,,TRUE,,,,,,,,BKN,12000,,,,,,,VFR,,,,,,,,,,,,METAR,8.0
EDWE 311920Z AUTO 09009KT 7000 // FEW009/// OVC120/// 13/12 Q1013,EDWE,2022-10-31T19:20:00Z,53.38,7.23,13.0,12.0,90,9,,4.35,29.911417,,,TRUE,,,,,,,,FEW,900,OVC,12000,,,,,MVFR,,,,,,,,,,,,METAR,0.0
EDVK 311920Z 12007KT CAVOK 15/11 Q1015,EDVK,2022-10-31T19:20:00Z,51.4,9.37,15.0,11.0,120,7,,6.21,29.970472,,,,,,,,,,,CAVOK,,,,,,,,VFR,,,,,,,,,,,,METAR,277.0
EDVE 311920Z AUTO 10009KT 4100 SCT004/// SCT130/// 14/13 Q1017,EDVE,2022-10-31T19:20:00Z,52.32,10.55,14.0,13.0,100,9,,2.55,30.029528,,,TRUE,,,,,,,,SCT,400,SCT,13000,,,,,IFR,,,,,,,,,,,,METAR,83.0
EDTY 311920Z AUTO 09005KT 4000 1800 // NCD 10/10 Q////,EDTY,2022-10-31T19:20:00Z,49.12,9.78,10.0,10.0,90,5,,2.49,,,,TRUE,,,,,,,,CLR,,,,,,,,IFR,,,,,,,,,,,,METAR,398.0
EDTL 311920Z AUTO VRB01KT 9999 // NCD 11/09 Q1017,EDTL,2022-10-31T19:20:00Z,48.37,7.83,11.0,9.0,0,1,,6.21,30.029528,,,TRUE,,,,,,,,CLR,,,,,,,,VFR,,,,,,,,,,,,METAR,152.0
EDSB 311920Z 19002KT CAVOK 13/12 Q1016,EDSB,2022-10-31T19:20:00Z,48.78,8.08,13.0,12.0,190,2,,6.21,30.0,,,,,,,,,,,CAVOK,,,,,,,,VFR,,,,,,,,,,,,METAR,122.0
EDQM 311920Z AUTO VRB01KT 3500 // OVC180/// 12/10 Q1018,EDQM,2022-10-31T19:20:00Z,50.3,11.85,12.0,10.0,0,1,,2.17,30.059055,,,TRUE,,,,,,,,OVC,18000,,,,,,,IFR,,,,,,,,,,,,METAR,578.0
EDNY 311920Z VRB01KT 0500 R24/0650D FG VV/// 07/07 Q1018,EDNY,2022-10-31T19:20:00Z,47.67,9.52,7.0,7.0,0,1,,0.31,30.059055,,,,,,,,,,FG,OVX,0,,,,,,,LIFR,,,,,,,,,,,,METAR,411.0
EDMO 311920Z AUTO 21004KT 9999 // NCD 07/07 Q1018,EDMO,2022-10-31T19:20:00Z,48.07,11.27,7.0,7.0,210,4,,6.21,30.059055,,,TRUE,,,,,,,,CLR,,,,,,,,VFR,,,,,,,,,,,,METAR,587.0
EDMA 311920Z 07002KT 0150 R07/0250N FG VV/// 08/08 Q1018,EDMA,2022-10-31T19:20:00Z,48.42,10.92,8.0,8.0,70,2,,0.09,30.059055,,,,,,,,,,FG,OVX,0,,,,,,,LIFR,,,,,,,,,,,,METAR,462.0
EDLW 311920Z 15007KT CAVOK 17/08 Q1013,EDLW,2022-10-31T19:20:00Z,51.52,7.62,17.0,8.0,150,7,,6.21,29.911417,,,,,,,,,,,CAVOK,,,,,,,,VFR,,,,,,,,,,,,METAR,122.0
EDLV 311920Z 14008KT CAVOK 16/11 Q1012,EDLV,2022-10-31T19:20:00Z,51.6,6.15,16.0,11.0,140,8,,6.21,29.88189,,,,,,,,,,,CAVOK,,,,,,,,VFR,,,,,,,,,,,,METAR,27.0
EDLP 311920Z 12008KT CAVOK 16/11 Q1015,EDLP,2022-10-31T19:20:00Z,51.62,8.62,16.0,11.0,120,8,,6.21,29.970472,,,,,,,,,,,CAVOK,,,,,,,,VFR,,,,,,,,,,,,METAR,211.0
EDLN 311920Z 13007KT CAVOK 16/11 Q1012,EDLN,2022-10-31T19:20:00Z,51.23,6.5,16.0,11.0,130,7,,6.21,29.88189,,,,,,,,,,,CAVOK,,,,,,,,VFR,,,,,,,,,,,,METAR,38.0
EDJA 311920Z 18003KT CAVOK 09/08 Q1018,EDJA,2022-10-31T19:20:00Z,47.98,10.23,9.0,8.0,180,3,,6.21,30.059055,,,,,,,,,,,CAVOK,,,,,,,,VFR,,,,,,,,,,,,METAR,625.0
EDHL 311920Z 11006KT 080V160 9999 OVC009 13/11 Q1018,EDHL,2022-10-31T19:20:00Z,53.8,10.72,13.0,11.0,110,6,,6.21,30.059055,,,,,,,,,,,OVC,900,,,,,,,IFR,,,,,,,,,,,,METAR,13.0
EDHK 311920Z AUTO 10008KT 9999 // OVC008/// 11/11 Q1018,EDHK,2022-10-31T19:20:00Z,54.38,10.15,11.0,11.0,100,8,,6.21,30.059055,,,TRUE,,,,,,,,OVC,800,,,,,,,IFR,,,,,,,,,,,,METAR,24.0
EDHI 311920Z AUTO 11005KT 080V150 8000 // OVC008/// 12/12 Q1017,EDHI,2022-10-31T19:20:00Z,53.53,9.83,12.0,12.0,110,5,,4.97,30.029528,,,TRUE,,,,,,,,OVC,800,,,,,,,IFR,,,,,,,,,,,,METAR,5.0
EDGS 311920Z AUTO 15007KT 9999 // NCD 12/10 Q1016,EDGS,2022-10-31T19:20:00Z,50.7,8.08,12.0,10.0,150,7,,6.21,30.0,,,TRUE,,,,,,,,CLR,,,,,,,,VFR,,,,,,,,,,,,SPECI,595.0
EDFM 311920Z VRB02KT CAVOK 13/12 Q1016,EDFM,2022-10-31T19:20:00Z,49.47,8.52,13.0,12.0,0,2,,6.21,30.0,,,,,,,,,,,CAVOK,,,,,,,,VFR,,,,,,,,,,,,METAR,94.0
EDFH 311920Z 14011KT CAVOK 11/11 Q1016,EDFH,2022-10-31T19:20:00Z,49.95,7.27,11.0,11.0,140,11,,6.21,30.0,,,,,,,,,,,CAVOK,,,,,,,,VFR,,,,,,,,,,,,METAR,494.0
EDDW 311920Z AUTO 10009KT CAVOK 13/12 Q1015 NOSIG,EDDW,2022-10-31T19:20:00Z,53.03,8.8,13.0,12.0,100,9,,6.21,29.970472,,,TRUE,,,TRUE,,,,,CAVOK,,,,,,,,VFR,,,,,,,,,,,,METAR,5.0
EDDV 311920Z AUTO 11007KT 090V150 8000 NSC 14/13 Q1016 TEMPO 3500 BR BKN004,EDDV,2022-10-31T19:20:00Z,52.47,9.68,14.0,13.0,110,7,,4.97,30.0,,,TRUE,,,,,,,,CLR,,,,,,,,MVFR,,,,,,,,,,,,METAR,53.0
EDDS 311920Z AUTO 26003KT 180V310 CAVOK 10/09 Q1016 NOSIG,EDDS,2022-10-31T19:20:00Z,48.68,9.22,10.0,9.0,260,3,,6.21,30.0,,,TRUE,,,TRUE,,,,,CAVOK,,,,,,,,VFR,,,,,,,,,,,,METAR,374.0
EDDR 311920Z AUTO 10004KT CAVOK 12/10 Q1016 NOSIG,EDDR,2022-10-31T19:20:00Z,49.22,7.1,12.0,10.0,100,4,,6.21,30.0,,,TRUE,,,TRUE,,,,,CAVOK,,,,,,,,VFR,,,,,,,,,,,,METAR,317.0
EDDP 311920Z AUTO 06007KT 0900 0650 R08R/P2000N R08L/0800N FG NSC 12/12 Q1017 TEMPO 1500 BCFG,EDDP,2022-10-31T19:20:00Z,51.43,12.23,12.0,12.0,60,7,,0.56,30.029528,,,TRUE,,,,,,,FG,CLR,,,,,,,,LIFR,,,,,,,,,,,,METAR,129.0
EDDN 311920Z AUTO 11005KT 9999 0500 R28/1900N BCFG NSC 10/09 Q1017 TEMPO 0600 FG,EDDN,2022-10-31T19:20:00Z,49.5,11.05,10.0,9.0,110,5,,6.21,30.029528,,,TRUE,,,,,,,BCFG,CLR,,,,,,,,VFR,,,,,,,,,,,,METAR,312.0
EDDM 311920Z AUTO VRB01KT 0300 R08L/0275D R08R/0400N FG NCD 08/08 Q1017 NOSIG,EDDM,2022-10-31T19:20:00Z,48.35,11.82,8.0,8.0,0,1,,0.19,30.029528,,,TRUE,,,TRUE,,,,FG,CLR,,,,,,,,LIFR,,,,,,,,,,,,METAR,445.0
EDDL 311920Z AUTO 16008KT CAVOK 17/10 Q1013 NOSIG,EDDL,2022-10-31T19:20:00Z,51.3,6.77,17.0,10.0,160,8,,6.21,29.911417,,,TRUE,,,TRUE,,,,,CAVOK,,,,,,,,VFR,,,,,,,,,,,,METAR,37.0
EDDK 311920Z AUTO 13009KT CAVOK 16/11 Q1014 NOSIG,EDDK,2022-10-31T19:20:00Z,50.87,7.15,16.0,11.0,130,9,,6.21,29.940945,,,TRUE,,,TRUE,,,,,CAVOK,,,,,,,,VFR,,,,,,,,,,,,METAR,92.0
EDDH 311920Z AUTO 11007KT 9999 BKN007 12/11 Q1017 NOSIG,EDDH,2022-10-31T19:20:00Z,53.63,10.0,12.0,11.0,110,7,,6.21,30.029528,,,TRUE,,,TRUE,,,,,BKN,700,,,,,,,IFR,,,,,,,,,,,,METAR,8.0
EDDG 311920Z AUTO 12005KT 020V170 CAVOK 16/12 Q1013 NOSIG,EDDG,2022-10-31T19:20:00Z,52.13,7.7,16.0,12.0,120,5,,6.21,29.911417,,,TRUE,,,TRUE,,,,,CAVOK,,,,,,,,VFR,,,,,,,,,,,,METAR,46.0
EDDF 311920Z AUTO 24005KT CAVOK 12/12 Q1016 NOSIG,EDDF,2022-10-31T19:20:00Z,50.05,8.6,12.0,12.0,240,5,,6.21,30.0,,,TRUE,,,TRUE,,,,,CAVOK,,,,,,,,VFR,,,,,,,,,,,,METAR,113.0
EDDE 311920Z AUTO VRB02KT 2500 BR NSC 13/12 Q1017 NOSIG,EDDE,2022-10-31T19:20:00Z,50.98,10.97,13.0,12.0,0,2,,1.55,30.029528,,,TRUE,,,TRUE,,,,BR,CLR,,,,,,,,IFR,,,,,,,,,,,,METAR,314.0
EDDC 311920Z AUTO 11003KT CAVOK 14/11 Q1018 NOSIG,EDDC,2022-10-31T19:20:00Z,51.13,13.75,14.0,11.0,110,3,,6.21,30.059055,,,TRUE,,,TRUE,,,,,CAVOK,,,,,,,,VFR,,,,,,,,,,,,METAR,227.0
EDDB 311920Z AUTO 04003KT 4000 0500 R07L/0800D R07R/P2000N BCFG NSC 12/12 Q1019 TEMPO 1200 BCFG,EDDB,2022-10-31T19:20:00Z,52.38,13.53,12.0,12.0,40,3,,2.49,30.088583,,,TRUE,,,,,,,BCFG,CLR,,,,,,,,IFR,,,,,,,,,,,,METAR,48.0
EDBC 311920Z AUTO 13006KT 0250 R25/0300N // VV/// 12/12 Q1018,EDBC,2022-10-31T19:20:00Z,51.85,11.42,12.0,12.0,130,6,,0.16,30.059055,,,TRUE,,,,,,,,OVX,0,,,,,,,LIFR,,,,,,,,,,,,METAR,178.0
EDAC 311920Z AUTO VRB01KT 6000 // BKN190/// 11/10 Q1017,EDAC,2022-10-31T19:20:00Z,50.98,12.5,11.0,10.0,0,1,,3.73,30.029528,,,TRUE,,,,,,,,BKN,19000,,,,,,,MVFR,,,,,,,,,,,,METAR,193.0
EBOS 311920Z 15012KT CAVOK 15/12 Q1008 TEMPO 4000 RA,EBOS,2022-10-31T19:20:00Z,51.2,2.87,15.0,12.0,150,12,,6.21,29.763779,,,,,,,,,,,CAVOK,,,,,,,,VFR,,,,,,,,,,,,METAR,5.0
EBLG 311920Z 16008KT CAVOK 16/09 Q1012 NOSIG,EBLG,2022-10-31T19:20:00Z,50.63,5.45,16.0,9.0,160,8,,6.21,29.88189,,,,,,TRUE,,,,,CAVOK,,,,,,,,VFR,,,,,,,,,,,,METAR,187.0
EBCI 311920Z 16010KT CAVOK 16/10 Q1011 NOSIG,EBCI,2022-10-31T19:20:00Z,50.47,4.45,16.0,10.0,160,10,,6.21,29.852362,,,,,,TRUE,,,,,CAVOK,,,,,,,,VFR,,,,,,,,,,,,METAR,176.0
EBBR 311920Z 16007KT CAVOK 16/11 Q1010 NOSIG,EBBR,2022-10-31T19:20:00Z,50.9,4.52,16.0,11.0,160,7,,6.21,29.822834,,,,,,TRUE,,,,,CAVOK,,,,,,,,VFR,,,,,,,,,,,,METAR,49.0
EBAW 311920Z 14006KT CAVOK 15/11 Q1010 NOSIG,EBAW,2022-10-31T19:20:00Z,51.2,4.47,15.0,11.0,140,6,,6.21,29.822834,,,,,,TRUE,,,,,CAVOK,,,,,,,,VFR,,,,,,,,,,,,METAR,7.0
CYET 311920Z AUTO 10005KT 9SM BKN039 OVC049 03/M02 A2955 RMK SLP036,CYET,2022-10-31T19:20:00Z,53.57,-116.47,3.0,-2.0,100,5,,9.0,29.551182,1003.6,,TRUE,,,,,,,,BKN,3900,OVC,4900,,,,,VFR,,,,,,,,,,,,SPECI,925.0
CWPX 311920Z AUTO 34015KT ////SM //// FEW003 M25/M28 A2981,CWPX,2022-10-31T19:20:00Z,69.03,-107.82,-25.0,-28.0,340,15,,,29.811024,,,TRUE,,,,,,,,FEW,300,,,,,,,,,,,,,,,,,,,SPECI,163.0
PHTO 311919Z 26004KT 10SM -RA BKN023 BKN032 OVC060 25/21 A3006 RMK AO2 P0000 T02500211,PHTO,2022-10-31T19:19:00Z,19.72,-155.05,25.0,21.1,260,4,,10.0,30.059055,,,,TRUE,,,,,,-RA,BKN,2300,BKN,3200,OVC,6000,,,MVFR,,,,,,0.005,,,,,,SPECI,9.0
PAQT 311919Z AUTO 00000KT 3SM HZ CLR M21/M24 A3010 RMK AO2 T12061239 TSNO $,PAQT,2022-10-31T19:19:00Z,70.22,-151.0,-20.6,-23.9,0,0,,3.0,30.100393,,,TRUE,TRUE,TRUE,,TRUE,,,HZ,CLR,,,,,,,,MVFR,,,,,,,,,,,,SPECI,11.0
KW99 311919Z AUTO 00000KT 10SM BKN044 BKN060 OVC080 14/14 A2997 RMK AO2,KW99,2022-10-31T19:19:00Z,39.0,-79.15,14.0,14.0,0,0,,10.0,29.970472,,,TRUE,TRUE,,,,,,,BKN,4400,BKN,6000,OVC,8000,,,VFR,,,,,,,,,,,,METAR,288.0
KEVV 311919Z 25007KT 2 1/2SM R22/5500VP6000FT RA BR BKN014 BKN019 OVC034 16/14 A2989 RMK AO2 RAB02 P0002 T01610144 $,KEVV,2022-10-31T19:19:00Z,38.05,-87.52,16.1,14.4,250,7,,2.5,29.890747,,,,TRUE,TRUE,,,,,RA BR,BKN,1400,BKN,1900,OVC,3400,,,IFR,,,,,,0.02,,,,,,SPECI,123.0
KEQY 311919Z AUTO 21010G16KT 10SM FEW018 BKN050 OVC065 23/18 A2998 RMK AO2 T02280183,KEQY,2022-10-31T19:19:00Z,35.02,-80.62,22.8,18.3,210,10,16,10.0,29.97933,,,TRUE,TRUE,,,,,,,FEW,1800,BKN,5000,OVC,6500,,,VFR,,,,,,,,,,,,METAR,205.0
PAHN 311918Z AUTO 29004KT 2 1/2SM -SN BR OVC012 01/01 A2956 RMK AO2 RAE00SNB00 P0001 T00110006 TSNO,PAHN,2022-10-31T19:18:00Z,59.25,-135.52,1.1,0.6,290,4,,2.5,29.56004,,,TRUE,TRUE,,,TRUE,,,-SN BR,OVC,1200,,,,,,,IFR,,,,,,0.01,,,,,,SPECI,15.0
KPVC 311918Z AUTO 20007KT 10SM OVC008 16/14 A3003 RMK AO2,KPVC,2022-10-31T19:18:00Z,42.07,-70.22,16.0,14.0,200,7,,10.0,30.029528,,,TRUE,TRUE,,,,,,,OVC,800,,,,,,,IFR,,,,,,,,,,,,METAR,1.0
KMTC 311918Z 00000KT 2SM BR OVC007 16/15 A2977 RMK AO2A SLP086,KMTC,2022-10-31T19:18:00Z,42.62,-82.83,16.0,15.0,0,0,,2.0,29.769686,1008.6,,,TRUE,,,,,,BR,OVC,700,,,,,,,IFR,,,,,,,,,,,,SPECI,177.0
KMGW 311918Z 23004KT 10SM OVC015 18/15 A2994 RMK AO2 T01780150,KMGW,2022-10-31T19:18:00Z,39.65,-79.92,17.8,15.0,230,4,,10.0,29.940945,,,,TRUE,,,,,,,OVC,1500,,,,,,,MVFR,,,,,,,,,,,,SPECI,375.0
KDEW 311918Z AUTO 20008KT 10SM BKN018 BKN100 OVC110 11/07 A2976 RMK AO2 T01060072,KDEW,2022-10-31T19:18:00Z,47.97,-117.43,10.6,7.2,200,8,,10.0,29.760826,,,TRUE,TRUE,,,,,,,BKN,1800,BKN,10000,OVC,11000,,,MVFR,,,,,,,,,,,,METAR,672.0
CYBR 311918Z 29009G15KT 15SM SCT170 BKN250 12/01 A2964 RMK AC3CI4 SLP053 DENSITY ALT 1600FT,CYBR,2022-10-31T19:18:00Z,49.92,-99.95,12.0,1.0,290,9,15,15.0,29.639763,1005.3,,,,,,,,,,SCT,17000,BKN,25000,,,,,VFR,,,,,,,,,,,,SPECI,405.0
YLEC 311917Z AUTO 29018G28KT 9999 // OVC039 11/05 Q1001,YLEC,2022-10-31T19:17:00Z,-30.6,138.43,11.0,5.0,290,18,28,6.21,29.557087,,,TRUE,,,,,,,,OVC,3900,,,,,,,VFR,,,,,,,,,,,,SPECI,261.0
PAVA 311917Z AUTO 14009KT 10SM FEW001 M09/M10 A3016 RMK AO2 FZRANO,PAVA,2022-10-31T19:17:00Z,61.53,-165.6,-9.0,-10.0,140,9,,10.0,30.159449,,,TRUE,TRUE,,,,TRUE,,,FEW,100,,,,,,,VFR,,,,,,,,,,,,SPECI,14.0
KSGH 311917Z AUTO 22011KT 10SM BKN019 OVC070 18/15 A2986 RMK AO2,KSGH,2022-10-31T19:17:00Z,39.83,-83.83,18.0,15.0,220,11,,10.0,29.861221,,,TRUE,TRUE,,,,,,,BKN,1900,OVC,7000,,,,,MVFR,,,,,,,,,,,,SPECI,318.0
KHYI 311917Z 16007KT 10SM FEW002 27/11 A3003 RMK AO2 $,KHYI,2022-10-31T19:17:00Z,29.88,-97.87,27.0,11.0,160,7,,10.0,30.029528,,,,TRUE,TRUE,,,,,,FEW,200,,,,,,,VFR,,,,,,,,,,,,METAR,180.0
LTCI 311916Z 27010KT 9999 SCT035 BKN080 12/05 Q1020 BECMG TL2020 12008KT RMK RWY21 25005KT 220V290 4CU035 6AC080,LTCI,2022-10-31T19:16:00Z,38.47,43.33,12.0,5.0,270,10,,6.21,30.11811,,,,,,,,,,,SCT,3500,BKN,8000,,,,,VFR,,,,,,,,,,,,METAR,1654.0
KHEF 311916Z 21005KT 10SM -RA SCT022 BKN070 BKN085 18/13 A3001 RMK AO2 RAB16 P0000,KHEF,2022-10-31T19:16:00Z,38.72,-77.52,18.0,13.0,210,5,,10.0,30.008858,,,,TRUE,,,,,,-RA,SCT,2200,BKN,7000,BKN,8500,,,VFR,,,,,,0.005,,,,,,SPECI,53.0
KFIG 311916Z AUTO 00000KT 3SM -RA BR FEW004 OVC010 11/10 A2995 RMK AO2 RAB10 P0000 T01110100,KFIG,2022-10-31T19:16:00Z,41.05,-78.42,11.1,10.0,0,0,,3.0,29.949802,,,TRUE,TRUE,,,,,,-RA BR,FEW,400,OVC,1000,,,,,MVFR,,,,,,0.005,,,,,,METAR,461.0
KELZ 311916Z AUTO VRB05KT 10SM BKN012 OVC020 14/11 A2992 RMK AO2 T01440111,KELZ,2022-10-31T19:16:00Z,42.1,-77.98,14.4,11.1,0,5,,10.0,29.920275,,,TRUE,TRUE,,,,,,,BKN,1200,OVC,2000,,,,,MVFR,,,,,,,,,,,,METAR,639.0
KEHR 311916Z AUTO 25014KT 6SM -RA BR FEW021 SCT027 OVC035 16/14 A2989 RMK AO2 P0000,KEHR,2022-10-31T19:16:00Z,37.82,-87.67,16.0,14.0,250,14,,6.0,29.890747,,,TRUE,TRUE,,,,,,-RA BR,FEW,2100,SCT,2700,OVC,3500,,,VFR,,,,,,0.005,,,,,,SPECI,117.0
K40B 311916Z AUTO VRB04KT 17/M02 A2991 RMK AO1 SLP137 T01731017 56017,K40B,2022-10-31T19:16:00Z,46.62,-69.52,17.3,-1.7,0,4,,,29.911417,1013.7,,TRUE,TRUE,,,,,,,,,,,,,,,,-1.7,,,,,,,,,,,METAR,344.0
SBCR 311915Z 23018G32KT 200V260 4000 -DZ BKN008 OVC016 15/13 Q1015,SBCR,2022-10-31T19:15:00Z,-19.0,-57.67,15.0,13.0,230,18,32,2.49,29.970472,,,,,,,,,,-DZ,BKN,800,OVC,1600,,,,,IFR,,,,,,,,,,,,SPECI,142.0
SBBG 311915Z 21014KT 9999 SCT030 18/06 Q1023,SBBG,2022-10-31T19:15:00Z,-31.38,-54.12,18.0,6.0,210,14,,6.21,30.206694,,,,,,,,,,,SCT,3000,,,,,,,VFR,,,,,,,,,,,,METAR,182.0
LMML 311915Z 30004KT CAVOK 18/14 Q1022 NOSIG,LMML,2022-10-31T19:15:00Z,35.85,14.47,18.0,14.0,300,4,,6.21,30.177166,,,,,,TRUE,,,,,CAVOK,,,,,,,,VFR,,,,,,,,,,,,METAR,78.0
LIRP 311915Z VRB02KT 8000 NSC 15/15 Q1023 NOSIG,LIRP,2022-10-31T19:15:00Z,43.68,10.38,15.0,15.0,0,2,,4.97,30.206694,,,,,,TRUE,,,,,CLR,,,,,,,,MVFR,,,,,,,,,,,,METAR,1.0
LHSN 311915Z 13004KT 100V160 5000 BR OVC006 11/10 Q1024 TEMPO 3000 BR RMK YLO,LHSN,2022-10-31T19:15:00Z,47.12,20.23,11.0,10.0,130,4,,3.11,30.236221,,,,,,,,,,BR,OVC,600,,,,,,,IFR,,,,,,,,,,,,METAR,89.0
LHSM 311915Z AUTO 14002KT 1200 R16/P1500 BR BKN002 11/11 Q1022,LHSM,2022-10-31T19:15:00Z,46.68,17.17,11.0,11.0,140,2,,0.75,30.177166,,,TRUE,,,,,,,BR,BKN,200,,,,,,,LIFR,,,,,,,,,,,,METAR,119.0
LHPR 311915Z AUTO 14007KT 8000 OVC003 11/10 Q1022,LHPR,2022-10-31T19:15:00Z,47.63,17.82,11.0,10.0,140,7,,4.97,30.177166,,,TRUE,,,,,,,,OVC,300,,,,,,,LIFR,,,,,,,,,,,,METAR,127.0
LHPA 311915Z 16006KT 0800 R16/P1500 -DZ FG VV002 11/11 Q1022 NOSIG RMK AMB,LHPA,2022-10-31T19:15:00Z,47.35,17.5,11.0,11.0,160,6,,0.5,30.177166,,,,,,TRUE,,,,-DZ FG,OVX,0,,,,,,,LIFR,,,,,,,,,,,200,METAR,143.0
LHKE 311915Z 11004KT 1500 BR OVC003 11/10 Q1024 NOSIG RMK AMB,LHKE,2022-10-31T19:15:00Z,46.92,19.75,11.0,10.0,110,4,,0.93,30.236221,,,,,,TRUE,,,,BR,OVC,300,,,,,,,LIFR,,,,,,,,,,,,METAR,113.0
LHDC 311915Z AUTO 06003KT 010V100 7000 OVC007 11/10 Q1024 NOSIG,LHDC,2022-10-31T19:15:00Z,47.48,21.62,11.0,10.0,60,3,,4.35,30.236221,,,TRUE,,,TRUE,,,,,OVC,700,,,,,,,IFR,,,,,,,,,,,,METAR,105.0
KSNH 311915Z AUTO 22006KT 6SM BR BKN023 BKN036 OVC049 18/15 A2995 RMK A01,KSNH,2022-10-31T19:15:00Z,35.17,-88.22,18.0,15.0,220,6,,6.0,29.949802,,,TRUE,TRUE,,,,,,BR,BKN,2300,BKN,3600,OVC,4900,,,MVFR,,,,,,,,,,,,METAR,142.0
KSDC 311915Z AUTO 16003KT 10SM SCT036 OVC047 15/06 A2990 RMK AO2,KSDC,2022-10-31T19:15:00Z,43.23,-77.12,15.0,6.0,160,3,,10.0,29.899607,,,TRUE,TRUE,,,,,,,SCT,3600,OVC,4700,,,,,VFR,,,,,,,,,,,,SPECI,127.0
KOCW 311915Z AUTO 00000KT 10SM SCT050 SCT070 24/16 A3003 RMK AO2 T02380159,KOCW,2022-10-31T19:15:00Z,35.57,-77.05,23.8,15.9,0,0,,10.0,30.029528,,,TRUE,TRUE,,,,,,,SCT,5000,SCT,7000,,,,,VFR,,,,,,,,,,,,SPECI,10.0
KLZZ 311915Z AUTO 15003KT 10SM CLR 23/09 A2999 RMK AO2 T02280092,KLZZ,2022-10-31T19:15:00Z,31.1,-98.2,22.8,9.2,150,3,,10.0,29.991142,,,TRUE,TRUE,,,,,,,CLR,,,,,,,,VFR,,,,,,,,,,,,SPECI,356.0
KJVY 311915Z AUTO 24008KT 10SM SCT042 18/15 A2988 RMK AO2,KJVY,2022-10-31T19:15:00Z,38.37,-85.73,18.0,15.0,240,8,,10.0,29.878937,,,TRUE,TRUE,,,,,,,SCT,4200,,,,,,,VFR,,,,,,,,,,,,SPECI,141.0
KCKB 311915Z 22004KT 3SM -RA BKN010 BKN022 OVC030 18/16 A2994 RMK AO2 RAB1857 P0003 T01830156,KCKB,2022-10-31T19:15:00Z,39.3,-80.22,18.3,15.6,220,4,,3.0,29.940945,,,,TRUE,,,,,,-RA,BKN,1000,BKN,2200,OVC,3000,,,MVFR,,,,,,0.03,,,,,,SPECI,368.0
KBWD 311915Z AUTO 28004KT 9SM CLR 23/08 A3003 RMK AO1,KBWD,2022-10-31T19:15:00Z,31.8,-98.95,23.0,8.0,280,4,,9.0,30.029528,,,TRUE,TRUE,,,,,,,CLR,,,,,,,,VFR,,,,,,,,,,,,SPECI,420.0
CZMT 311915Z 18009KT 170V230 10SM -SHRA SCT025TCU BKN100 02/01 A2963 RMK TCU4AC3 SLP038,CZMT,2022-10-31T19:15:00Z,54.03,-132.13,2.0,1.0,180,9,,10.0,29.630905,1003.8,,,,,,,,,-SHRA,SCT,2500,BKN,10000,,,,,VFR,,,,,,,,,,,,SPECI,11.0
PAOT 311914Z 12013KT 10SM SCT015 OVC043 M11/M11 A3007 RMK AO2 T11061111 $,PAOT,2022-10-31T19:14:00Z,66.88,-162.6,-10.6,-11.1,120,13,,10.0,30.070866,,,,TRUE,TRUE,,,,,,SCT,1500,OVC,4300,,,,,VFR,,,,,,,,,,,,SPECI,3.0
KMGY 311914Z AUTO 20012KT 10SM SCT024 BKN030 OVC075 19/13 A2985 RMK AO2 T01890133,KMGY,2022-10-31T19:14:00Z,39.6,-84.23,18.9,13.3,200,12,,10.0,29.84941,,,TRUE,TRUE,,,,,,,SCT,2400,BKN,3000,OVC,7500,,,MVFR,,,,,,,,,,,,SPECI,290.0
KMEM 311914Z 24008KT 10SM SCT023 BKN038 21/13 A2996 RMK AO2 T02060128,KMEM,2022-10-31T19:14:00Z,35.07,-89.98,20.6,12.8,240,8,,10.0,29.958662,,,,TRUE,,,,,,,SCT,2300,BKN,3800,,,,,VFR,,,,,,,,,,,,SPECI,78.0
KFFO 311914Z 21010KT 10SM BKN024 BKN032 OVC070 18/14 A2982 RMK AO2A SLP099,KFFO,2022-10-31T19:14:00Z,39.83,-84.03,18.0,14.0,210,10,,10.0,29.819881,1009.9,,,TRUE,,,,,,,BKN,2400,BKN,3200,OVC,7000,,,MVFR,,,,,,,,,,,,METAR,250.0
KPVD 311913Z 15011KT 10SM BKN026 BKN033 BKN150 BKN250 17/14 A3001 RMK AO2 T01670139,KPVD,2022-10-31T19:13:00Z,41.72,-71.43,16.7,13.9,150,11,,10.0,30.008858,,,,TRUE,,,,,,,BKN,2600,BKN,3300,BKN,15000,BKN,25000,MVFR,,,,,,,,,,,,SPECI,15.0
EGUN 311913Z COR 11016G22KT 9999 FEW050 BKN080 OVC130 14/14 A2965 RMK AO2A PRESFR SLP044 $ COR 1916,EGUN,2022-10-31T19:13:00Z,52.37,0.48,14.0,14.0,110,16,22,6.21,29.648623,1004.4,TRUE,,TRUE,TRUE,,,,,,FEW,5000,BKN,8000,OVC,13000,,,VFR,,,,,,,,,,,,METAR,10.0
CYCO 311913Z 24010KT 4SM -SG OVC019 M17/M19 A2996 RMK SC8 SLP152,CYCO,2022-10-31T19:13:00Z,67.82,-115.15,-17.0,-19.0,240,10,,4.0,29.958662,1015.2,,,,,,,,,-SG,OVC,1900,,,,,,,MVFR,,,,,,,,,,,,SPECI,20.0
RODN 311912Z 04010KT 4SM RA BR BKN017 OVC033 22/21 A2980 RMK AO2A RAE00RAB04 SLP097 $,RODN,2022-10-31T19:12:00Z,26.35,127.77,22.0,21.0,40,10,,4.0,29.799213,1009.7,,,TRUE,TRUE,,,,,RA BR,BKN,1700,OVC,3300,,,,,MVFR,,,,,,,,,,,,METAR,38.0
KVUO 311912Z AUTO 00000KT 10SM -RA SCT009 SCT065 OVC080 13/12 A2993 RMK AO2 P0000 T01330117,KVUO,2022-10-31T19:12:00Z,45.62,-122.65,13.3,11.7,0,0,,10.0,29.929134,,,TRUE,TRUE,,,,,,-RA,SCT,900,SCT,6500,OVC,8000,,,VFR,,,,,,0.005,,,,,,METAR,7.0
KSKA 311912Z 21014G20KT 10SM FEW043 SCT080 10/07 A2975 RMK AO2A RAE12 SLP290 $,KSKA,2022-10-31T19:12:00Z,47.62,-117.67,10.0,7.0,210,14,20,10.0,29.749016,1029.0,,,TRUE,TRUE,,,,,,FEW,4300,SCT,8000,,,,,VFR,,,,,,,,,,,,SPECI,754.0
CYPR 311912Z AUTO 08005KT 050V130 9SM SCT022 SCT029 BKN071 04/03 A2965 RMK SLP044,CYPR,2022-10-31T19:12:00Z,54.28,-130.45,4.0,3.0,80,5,,9.0,29.648623,1004.4,,TRUE,,,,,,,,SCT,2200,SCT,2900,BKN,7100,,,VFR,,,,,,,,,,,,SPECI,30.0
PATL 311911Z AUTO 00000KT 10SM BKN029 M10/M11 A3003 RMK AO2 SLP196 TSNO $,PATL,2022-10-31T19:11:00Z,62.9,-155.97,-10.0,-11.0,0,0,,10.0,30.029528,1019.6,,TRUE,TRUE,TRUE,,TRUE,,,,BKN,2900,,,,,,,MVFR,,,,,,,,,,,,METAR,261.0
PADM 311911Z AUTO 00000KT 10SM BKN027 M10/M11 A3020 RMK AO2 FZRANO,PADM,2022-10-31T19:11:00Z,61.87,-162.03,-10.0,-11.0,0,0,,10.0,30.200787,,,TRUE,TRUE,,,,TRUE,,,BKN,2700,,,,,,,MVFR,,,,,,,,,,,,SPECI,17.0
KNBT 311911Z AUTO 08005KT 10SM BKN024 OVC043 23/16 A3004 RMK AO2 T02330161,KNBT,2022-10-31T19:11:00Z,35.02,-76.47,23.3,16.1,80,5,,10.0,30.041338,,,TRUE,TRUE,,,,,,,BKN,2400,OVC,4300,,,,,MVFR,,,,,,,,,,,,SPECI,5.0
VCBI 311910Z VRB01KT 9999 SCT016 25/24 Q1010 NOSIG,VCBI,2022-10-31T19:10:00Z,7.17,79.88,25.0,24.0,0,1,,6.21,29.822834,,,,,,TRUE,,,,,SCT,1600,,,,,,,VFR,,,,,,,,,,,,METAR,10.0
SBFI 311910Z 21010KT 9999 -TSRA BKN011 BKN020 //////CB 14/12 Q1016,SBFI,2022-10-31T19:10:00Z,-25.6,-54.48,14.0,12.0,210,10,,6.21,30.0,,,,,,,,,,-TSRA,BKN,1100,BKN,2000,,,,,MVFR,,,,,,,,,,,,SPECI,233.0
PGUA 311910Z AUTO 12008KT 10SM BKN012 26/24 A2983 RMK AO2 CIG 011 RWY24L SLP092 $,PGUA,2022-10-31T19:10:00Z,13.57,144.92,26.0,24.0,120,8,,10.0,29.828741,1009.2,,TRUE,TRUE,TRUE,,,,,,BKN,1200,,,,,,,MVFR,,,,,,,,,,,,METAR,159.0
PART 1 OF 2 METAR ,PART,2022-10-31T19:10:00Z,,,,,,,,,,,,,,,,,,,,,,,,,,,,,,,,,,,,,,,,METAR,
KTYS 311910Z 25013KT 10SM FEW017 SCT021 OVC032 19/14 A2994 RMK AO2 T01890139,KTYS,2022-10-31T19:10:00Z,35.82,-83.98,18.9,13.9,250,13,,10.0,29.940945,,,,TRUE,,,,,,,FEW,1700,SCT,2100,OVC,3200,,,VFR,,,,,,,,,,,,SPECI,300.0
KTNB 311910Z AUTO 17006KT 10SM OVC009 14/14 A3003 RMK AO2 T01360136,KTNB,2022-10-31T19:10:00Z,36.2,-81.65,13.6,13.6,170,6,,10.0,30.029528,,,TRUE,TRUE,,,,,,,OVC,900,,,,,,,IFR,,,,,,,,,,,,METAR,958.0
KSSC 311910Z AUTO 16007KT 10SM SCT030 BKN035 27/19 A2996 RMK AO2 SLP146 $,KSSC,2022-10-31T19:10:00Z,33.97,-80.47,27.0,19.0,160,7,,10.0,29.958662,1014.6,,TRUE,TRUE,TRUE,,,,,,SCT,3000,BKN,3500,,,,,VFR,,,,,,,,,,,,SPECI,71.0
KPYM 311910Z AUTO 21007KT 10SM OVC013 17/14 A3001 RMK AO2 T01670139,KPYM,2022-10-31T19:10:00Z,41.92,-70.73,16.7,13.9,210,7,,10.0,30.008858,,,TRUE,TRUE,,,,,,,OVC,1300,,,,,,,MVFR,,,,,,,,,,,,SPECI,42.0
KHKY 311910Z 05003KT 10SM BKN006 BKN009 OVC065 15/14 A3001 RMK AO2 T01500144,KHKY,2022-10-31T19:10:00Z,35.75,-81.38,15.0,14.4,50,3,,10.0,30.008858,,,,TRUE,,,,,,,BKN,600,BKN,900,OVC,6500,,,IFR,,,,,,,,,,,,SPECI,357.0
KDLF 311910Z AUTO 13011KT 10SM BKN030 BKN041 OVC210 23/16 A2995 RMK AO2 SLP136 $,KDLF,2022-10-31T19:10:00Z,29.37,-100.78,23.0,16.0,130,11,,10.0,29.949802,1013.6,,TRUE,TRUE,TRUE,,,,,,BKN,3000,BKN,4100,OVC,21000,,,MVFR,,,,,,,,,,,,METAR,328.0
K4V1 311910Z AUTO 29008KT 10SM CLR 19/M09 A3000 RMK AO2 T01891093,K4V1,2022-10-31T19:10:00Z,37.7,-104.78,18.9,-9.3,290,8,,10.0,30.0,,,TRUE,TRUE,,,,,,,CLR,,,,,,,,VFR,,,,,,,,,,,,METAR,1847.0
ETAR 311910Z 08004KT 9999 CLR 09/09 A3000 RMK AO2A SLP167 $,ETAR,2022-10-31T19:10:00Z,49.43,7.58,9.0,9.0,80,4,,6.21,30.0,1016.7,,,TRUE,TRUE,,,,,,CLR,,,,,,,,VFR,,,,,,,,,,,,SPECI,231.0
PAFB 311909Z 00000KT 4SM -SN BR BKN070 OVC080 M17/M20 A2998 RMK AO2A SNE06SNB09 SLP173,PAFB,2022-10-31T19:09:00Z,64.83,-147.62,-17.0,-20.0,0,0,,4.0,29.97933,1017.3,,,TRUE,,,,,,-SN BR,BKN,7000,OVC,8000,,,,,MVFR,,,,,,,,,,,,METAR,137.0
SLCO 311908Z 31008KT 6000 -TSRA FEW025 FEW027CB SCT200 27/25 Q1006,SLCO,2022-10-31T19:08:00Z,-11.03,-68.78,27.0,25.0,310,8,,3.73,29.704725,,,,,,,,,,-TSRA,FEW,2500,FEW,2700,SCT,20000,,,MVFR,,,,,,,,,,,,METAR,238.0
RKTE 311908Z 19004KT 8000 BR FEW009 06/05 A3018,RKTE,2022-10-31T19:08:00Z,36.57,127.5,6.0,5.0,190,4,,4.97,30.180119,,,,,,,,,,BR,FEW,900,,,,,,,MVFR,,,,,,,,,,,,SPECI,78.0
YMAY 311907Z AUTO 28016KT 9999 // SCT014 BKN049 BKN063 10/10 Q0990,YMAY,2022-10-31T19:07:00Z,-36.07,146.95,10.0,10.0,280,16,,6.21,29.232283,,,TRUE,,,,,,,,SCT,1400,BKN,4900,BKN,6300,,,VFR,,,,,,,,,,,,SPECI,156.0
KCEU 311907Z AUTO 00000KT 10SM OVC005 16/15 A3000 RMK AO2 T01610150,KCEU,2022-10-31T19:07:00Z,34.67,-82.88,16.1,15.0,0,0,,10.0,30.0,,,TRUE,TRUE,,,,,,,OVC,500,,,,,,,IFR,,,,,,,,,,,,METAR,270.0
SBCG 311906Z 21017KT 3000 -DZ BR BKN008 BKN017 BKN100 19/18 Q1012,SBCG,2022-10-31T19:06:00Z,-20.47,-54.67,19.0,18.0,210,17,,1.86,29.88189,,,,,,,,,,-DZ BR,BKN,800,BKN,1700,BKN,10000,,,IFR,,,,,,,,,,,,METAR,556.0
PARS 311906Z AUTO 26005KT 10SM BKN027 A3015 RMK AO2 FZRANO $,PARS,2022-10-31T19:06:00Z,61.77,-161.32,,,260,5,,10.0,30.15059,,,TRUE,TRUE,TRUE,,,TRUE,,,BKN,2700,,,,,,,MVFR,,,,,,,,,,,,SPECI,15.0
KDCU 311906Z AUTO 23006KT 10SM SCT025 BKN031 OVC065 19/13 A2998 RMK AO2 T01890133,KDCU,2022-10-31T19:06:00Z,34.65,-86.95,18.9,13.3,230,6,,10.0,29.97933,,,TRUE,TRUE,,,,,,,SCT,2500,BKN,3100,OVC,6500,,,VFR,,,,,,,,,,,,METAR,180.0
CYQZ 311906Z AUTO 17002KT 9SM BKN046 OVC055 01/M00 A2960 RMK SLP049,CYQZ,2022-10-31T19:06:00Z,53.02,-122.52,1.0,0.0,170,2,,9.0,29.601377,1004.9,,TRUE,,,,,,,,BKN,4600,OVC,5500,,,,,VFR,,,,,,,,,,,,SPECI,548.0
PHHI 311905Z AUTO 07006KT 10SM SCT024 25/17 A3008 RMK AO2 SLP176 $,PHHI,2022-10-31T19:05:00Z,21.48,-158.05,25.0,17.0,70,6,,10.0,30.079725,1017.6,,TRUE,TRUE,TRUE,,,,,,SCT,2400,,,,,,,VFR,,,,,,,,,,,,METAR,246.0
PATC 311905Z 01012KT 10SM SCT047 M05/M09 A3010 RMK AO2A SLP201,PATC,2022-10-31T19:05:00Z,65.57,-167.92,-5.0,-9.0,10,12,,10.0,30.100393,1020.1,,,TRUE,,,,,,,SCT,4700,,,,,,,VFR,,,,,,,,,,,,SPECI,77.0
PAPB 311905Z AUTO 21018G23KT FEW012 BKN022 OVC050 03/ A3004 RMK AO2 RAE1855 P0000 T0033 TSNO $,PAPB,2022-10-31T19:05:00Z,56.58,-169.67,3.3,,210,18,23,,30.041338,,,TRUE,TRUE,TRUE,,TRUE,,,,FEW,1200,BKN,2200,OVC,5000,,,,,,,,,0.005,,,,,,SPECI,33.0
PAFR 311905Z AUTO 00000KT 8SM OVC036 M06/M10 A2968 RMK AO2 SLP062 VISNO RWY35 CHINO RWY35 $,PAFR,2022-10-31T19:05:00Z,61.27,-149.65,-6.0,-10.0,0,0,,8.0,29.681103,1006.2,,TRUE,TRUE,TRUE,,,,,,OVC,3600,,,,,,,VFR,,,,,,,,,,,,METAR,106.0
KWRI 311905Z AUTO 16004KT 10SM FEW030 19/12 A2998 RMK AO2 SLP152 $,KWRI,2022-10-31T19:05:00Z,40.02,-74.58,19.0,12.0,160,4,,10.0,29.97933,1015.2,,TRUE,TRUE,TRUE,,,,,,FEW,3000,,,,,,,VFR,,,,,,,,,,,,METAR,35.0
K1YT 311905Z AUTO 21004KT 10SM -RA BKN065 OVC075 14/05 A2978 RMK AO2 RAB05 SLP087 $,K1YT,2022-10-31T19:05:00Z,46.67,-120.45,14.0,5.0,210,4,,10.0,29.778543,1008.7,,TRUE,TRUE,TRUE,,,,,-RA,BKN,6500,OVC,7500,,,,,VFR,,,,,,,,,,,,SPECI,423.0
KADW 311904Z AUTO 18009KT 10SM SCT025 SCT090 SCT210 19/13 A2998 RMK AO2 RAB1857E04 SLP159 $,KADW,2022-10-31T19:04:00Z,38.82,-76.87,19.0,13.0,180,9,,10.0,29.97933,1015.9,,TRUE,TRUE,TRUE,,,,,,SCT,2500,SCT,9000,SCT,21000,,,VFR,,,,,,,,,,,,SPECI,87.0
KWVI 311903Z AUTO 19003KT 10SM SCT007 12/09 A2997 RMK AO2 T01170094,KWVI,2022-10-31T19:03:00Z,36.93,-121.78,11.7,9.4,190,3,,10.0,29.970472,,,TRUE,TRUE,,,,,,,SCT,700,,,,,,,VFR,,,,,,,,,,,,METAR,47.0
KSLE 311903Z 18004KT 1 1/2SM -RA BR OVC006 12/11 A2994 RMK AO2 P0000 T01220111,KSLE,2022-10-31T19:03:00Z,44.9,-123.0,12.2,11.1,180,4,,1.5,29.940945,,,,TRUE,,,,,,-RA BR,OVC,600,,,,,,,IFR,,,,,,0.005,,,,,,SPECI,63.0
KMFD 311903Z AUTO 20009KT 10SM SCT025 SCT035 OVC060 18/13 A2986 RMK AO2 T01780128,KMFD,2022-10-31T19:03:00Z,40.82,-82.52,17.8,12.8,200,9,,10.0,29.861221,,,TRUE,TRUE,,,,,,,SCT,2500,SCT,3500,OVC,6000,,,VFR,,,,,,,,,,,,SPECI,394.0
KLZU 311903Z 10003KT 3SM BR OVC003 18/17 A2998 RMK AO2,KLZU,2022-10-31T19:03:00Z,33.98,-83.97,18.0,17.0,100,3,,3.0,29.97933,,,,TRUE,,,,,,BR,OVC,300,,,,,,,LIFR,,,,,,,,,,,,METAR,316.0
KFKL 311903Z AUTO 19007KT 1/2SM -RA FG OVC003 13/13 A2991 RMK AO2 P0000,KFKL,2022-10-31T19:03:00Z,41.37,-79.87,13.0,13.0,190,7,,0.5,29.911417,,,TRUE,TRUE,,,,,,-RA FG,OVC,300,,,,,,,LIFR,,,,,,0.005,,,,,,SPECI,468.0
KDYL 311903Z AUTO VRB05KT 10SM BKN024 17/11 A2999 RMK AO2 T01720106,KDYL,2022-10-31T19:03:00Z,40.33,-75.12,17.2,10.6,0,5,,10.0,29.991142,,,TRUE,TRUE,,,,,,,BKN,2400,,,,,,,MVFR,,,,,,,,,,,,METAR,121.0
KBEH 311903Z AUTO 31004KT 1SM RA BR BKN003 OVC008 14/13 A2980 RMK AO2 P0004 T01390133,KBEH,2022-10-31T19:03:00Z,42.13,-86.42,13.9,13.3,310,4,,1.0,29.799213,,,TRUE,TRUE,,,,,,RA BR,BKN,300,OVC,800,,,,,LIFR,,,,,,0.04,,,,,,METAR,196.0
CWAE 311903Z 18003KT 15SM -SHRA SCT014 OVC044 05/04 A2965 RMK SC3SC5 WIND ESTD SLP050,CWAE,2022-10-31T19:03:00Z,50.13,-122.95,5.0,4.0,180,3,,15.0,29.648623,1005.0,,,,,,,,,-SHRA,SCT,1400,OVC,4400,,,,,VFR,,,,,,,,,,,,SPECI,658.0
PAHX 311902Z AUTO 23003KT 10SM CLR M07/M08 A3011 RMK AO2 SLP197 T10721078 FZRANO,PAHX,2022-10-31T19:02:00Z,62.7,-159.57,-7.2,-7.8,230,3,,10.0,30.109253,1019.7,,TRUE,TRUE,,,,TRUE,,,CLR,,,,,,,,VFR,,,,,,,,,,,,SPECI,20.0
KMIV 311902Z AUTO 18004KT 10SM BKN029 18/12 A3002 RMK AO2 T01780122 $,KMIV,2022-10-31T19:02:00Z,39.37,-75.08,17.8,12.2,180,4,,10.0,30.02067,,,TRUE,TRUE,TRUE,,,,,,BKN,2900,,,,,,,MVFR,,,,,,,,,,,,SPECI,18.0
CYUA 311902Z AUTO 27007KT ////SM FEW005 BKN011 OVC021 M12/M14 A3008,CYUA,2022-10-31T19:02:00Z,68.92,-137.23,-12.0,-14.0,270,7,,,30.079725,,,TRUE,,,,,,,,FEW,500,BKN,1100,OVC,2100,,,,,,,,,,,,,,,SPECI,25.0
PAFS 311901Z AUTO 00000KT 4SM -SN BR OVC055 M10/M11 A3002 RMK AO2 SLP180 P0000 T11001106 FZRANO,PAFS,2022-10-31T19:01:00Z,63.02,-154.35,-10.0,-10.6,0,0,,4.0,30.02067,1018.0,,TRUE,TRUE,,,,TRUE,,-SN BR,OVC,5500,,,,,,,MVFR,,,,,,0.005,,,,,,SPECI,131.0
KSTL 311901Z 27008KT 3SM -DZ BR SCT004 BKN009 OVC013 14/12 A2990 RMK AO2 P0000 T01390117 $,KSTL,2022-10-31T19:01:00Z,38.75,-90.37,13.9,11.7,270,8,,3.0,29.899607,,,,TRUE,TRUE,,,,,-DZ BR,SCT,400,BKN,900,OVC,1300,,,IFR,,,,,,0.005,,,,,,METAR,163.0
KECP 311901Z 22006KT 10SM FEW040 25/15 A2998 RMK AO1 T02500150,KECP,2022-10-31T19:01:00Z,30.35,-85.8,25.0,15.0,220,6,,10.0,29.97933,,,,TRUE,,,,,,,FEW,4000,,,,,,,VFR,,,,,,,,,,,,METAR,17.0
KDUJ 311901Z AUTO 14003KT 3/4SM BR OVC002 13/12 A2992 RMK AO2 T01330122,KDUJ,2022-10-31T19:01:00Z,41.17,-78.9,13.3,12.2,140,3,,0.75,29.920275,,,TRUE,TRUE,,,,,,BR,OVC,200,,,,,,,LIFR,,,,,,,,,,,,METAR,552.0
KAPG 311901Z 22007KT 10SM SCT020 OVC070 17/13 A2999 RMK SHRAE1758 SLP159,KAPG,2022-10-31T19:01:00Z,39.47,-76.17,17.0,13.0,220,7,,10.0,29.991142,1015.9,,,,,,,,,,SCT,2000,OVC,7000,,,,,VFR,,,,,,,,,,,,METAR,18.0
CYEK 311901Z 27005KT 15SM OVC020 01/01 RMK SC8 ALTM 2907 WIND EST VIA CYQB DENSITY ALT MISG,CYEK,2022-10-31T19:01:00Z,61.1,-94.07,1.0,1.0,270,5,,15.0,,,,,,,,,,,,OVC,2000,,,,,,,MVFR,,,,,,,,,,,,SPECI,7.0
CYCA 311901Z AUTO 32010G16KT 9SM SCT047 OVC086 01/00 A2974 RMK SLP075,CYCA,2022-10-31T19:01:00Z,53.68,-57.03,1.0,0.0,320,10,16,9.0,29.740158,1007.5,,TRUE,,,,,,,,SCT,4700,OVC,8600,,,,,VFR,,,,,,,,,,,,SPECI,12.0
ZYHB 311900Z 23007MPS CAVOK M00/M05 Q1018 NOSIG,ZYHB,2022-10-31T19:00:00Z,45.62,126.25,0.0,-5.0,230,14,,6.21,30.059055,,,,,,TRUE,,,,,CAVOK,,,,,,,,VFR,,,,,,,,,,,,METAR,134.0
ZYCC 311900Z 25003MPS CAVOK M00/M10 Q1022 NOSIG,ZYCC,2022-10-31T19:00:00Z,43.98,125.68,0.0,-10.0,250,6,,6.21,30.177166,,,,,,TRUE,,,,,CAVOK,,,,,,,,VFR,,,,,,,,,,,,METAR,211.0
ZWSH 311900Z AUTO VRB03MPS 9999 // ///////// 08/M03 Q1020,ZWSH,2022-10-31T19:00:00Z,39.55,76.02,8.0,-3.0,0,6,,6.21,30.11811,,,TRUE,,,,,,,,,,,,,,,,,,,,,,,,,,,,METAR,1374.0
ZUUU 311900Z 20001MPS 6000 NSC 14/13 Q1022 NOSIG,ZUUU,2022-10-31T19:00:00Z,30.58,103.95,14.0,13.0,200,2,,3.73,30.177166,,,,,,TRUE,,,,,CLR,,,,,,,,MVFR,,,,,,,,,,,,METAR,494.0
ZUTF 311900Z 00000MPS 5000 BR NSC 12/11 Q1022 NOSIG,ZUTF,2022-10-31T19:00:00Z,30.3,104.43,12.0,11.0,0,0,,3.11,30.177166,,,,,,TRUE,,,,BR,CLR,,,,,,,,MVFR,,,,,,,,,,,,METAR,443.0
ZUGY 311900Z 05002MPS 9999 SCT036 10/09 Q1024 NOSIG,ZUGY,2022-10-31T19:00:00Z,26.53,106.8,10.0,9.0,50,4,,6.21,30.236221,,,,,,TRUE,,,,,SCT,3600,,,,,,,VFR,,,,,,,,,,,,METAR,1130.0
ZUCK 311900Z 02002MPS 8000 NSC 15/13 Q1023 NOSIG,ZUCK,2022-10-31T19:00:00Z,29.72,106.63,15.0,13.0,20,4,,4.97,30.206694,,,,,,TRUE,,,,,CLR,,,,,,,,MVFR,,,,,,,,,,,,METAR,416.0
ZSQD 311900Z 29002MPS 5000 BR NSC 10/08 Q1025 NOSIG,ZSQD,2022-10-31T19:00:00Z,36.27,120.38,10.0,8.0,290,4,,3.11,30.265747,,,,,,TRUE,,,,BR,CLR,,,,,,,,MVFR,,,,,,,,,,,,METAR,8.0
ZSOF 311900Z 06001MPS 2300 BR NSC 13/12 Q1023 NOSIG,ZSOF,2022-10-31T19:00:00Z,31.98,116.97,13.0,12.0,60,2,,1.43,30.206694,,,,,,TRUE,,,,BR,CLR,,,,,,,,IFR,,,,,,,,,,,,METAR,23.0
ZSNJ 311900Z 00000MPS 5000 BR NSC 13/12 Q1023 NOSIG,ZSNJ,2022-10-31T19:00:00Z,31.75,118.87,13.0,12.0,0,0,,3.11,30.206694,,,,,,TRUE,,,,BR,CLR,,,,,,,,MVFR,,,,,,,,,,,,METAR,27.0
ZSNB 311900Z 33003MPS CAVOK 17/14 Q1021 NOSIG,ZSNB,2022-10-31T19:00:00Z,29.83,121.47,17.0,14.0,330,6,,6.21,30.147638,,,,,,TRUE,,,,,CAVOK,,,,,,,,VFR,,,,,,,,,,,,METAR,5.0
ZSFZ 311900Z 02007MPS 9999 -RA OVC033 19/15 Q1015 NOSIG,ZSFZ,2022-10-31T19:00:00Z,25.93,119.67,19.0,15.0,20,14,,6.21,29.970472,,,,,,TRUE,,,,-RA,OVC,3300,,,,,,,VFR,,,,,,,,,,,,METAR,14.0
ZSAM 311900Z 04009MPS CAVOK 22/16 Q1011 NOSIG,ZSAM,2022-10-31T19:00:00Z,24.53,118.13,22.0,16.0,40,17,,6.21,29.852362,,,,,,TRUE,,,,,CAVOK,,,,,,,,VFR,,,,,,,,,,,,METAR,13.0
ZPPP 311900Z 05002MPS CAVOK 05/05 Q1028 NOSIG,ZPPP,2022-10-31T19:00:00Z,25.0,102.65,5.0,5.0,50,4,,6.21,30.35433,,,,,,TRUE,,,,,CAVOK,,,,,,,,VFR,,,,,,,,,,,,METAR,1885.0
ZMUB 311900Z VRB01MPS 9999 BKN100 M13/M15 Q1021 NOSIG RMK QFE658.3 82 NT,ZMUB,2022-10-31T19:00:00Z,47.83,106.75,-13.0,-15.0,0,2,,6.21,30.147638,,,,,,TRUE,,,,,BKN,10000,,,,,,,VFR,,,,,,,,,,,,METAR,1300.0
ZLXY 311900Z VRB01MPS 6000 NSC 08/07 Q1022 NOSIG,ZLXY,2022-10-31T19:00:00Z,34.43,108.75,8.0,7.0,0,2,,3.73,30.177166,,,,,,TRUE,,,,,CLR,,,,,,,,MVFR,,,,,,,,,,,,METAR,478.0
ZLLL 311900Z 33002MPS CAVOK 01/M02 Q1020 NOSIG,ZLLL,2022-10-31T19:00:00Z,36.52,103.62,1.0,-2.0,330,4,,6.21,30.11811,,,,,,TRUE,,,,,CAVOK,,,,,,,,VFR,,,,,,,,,,,,METAR,1939.0
ZJSY 311900Z 32002MPS CAVOK 20/16 Q1009 NOSIG,ZJSY,2022-10-31T19:00:00Z,18.3,109.42,20.0,16.0,320,4,,6.21,29.793306,,,,,,TRUE,,,,,CAVOK,,,,,,,,VFR,,,,,,,,,,,,METAR,27.0
ZJHK 311900Z 35006MPS CAVOK 23/14 Q1010 NOSIG,ZJHK,2022-10-31T19:00:00Z,19.93,110.43,23.0,14.0,350,12,,6.21,29.822834,,,,,,TRUE,,,,,CAVOK,,,,,,,,VFR,,,,,,,,,,,,METAR,21.0
ZHHH 311900Z 03002MPS 7000 NSC 12/09 Q1022 NOSIG,ZHHH,2022-10-31T19:00:00Z,30.78,114.22,12.0,9.0,30,4,,4.35,30.177166,,,,,,TRUE,,,,,CLR,,,,,,,,MVFR,,,,,,,,,,,,METAR,33.0
ZHCC 311900Z 00000MPS 2500 BR NSC 09/09 Q1025 NOSIG,ZHCC,2022-10-31T19:00:00Z,34.52,113.83,9.0,9.0,0,0,,1.55,30.265747,,,,,,TRUE,,,,BR,CLR,,,,,,,,IFR,,,,,,,,,,,,METAR,149.0
ZGSZ 311900Z 01010MPS CAVOK 24/12 Q1008 NOSIG,ZGSZ,2022-10-31T19:00:00Z,22.63,113.8,24.0,12.0,10,19,,6.21,29.763779,,,,,,TRUE,,,,,CAVOK,,,,,,,,VFR,,,,,,,,,,,,METAR,18.0
ZGOW 311900Z 02004MPS 9999 SCT050 21/17 Q1008 NOSIG,ZGOW,2022-10-31T19:00:00Z,23.55,116.5,21.0,17.0,20,8,,6.21,29.763779,,,,,,TRUE,,,,,SCT,5000,,,,,,,VFR,,,,,,,,,,,,METAR,4.0
ZGNN 311900Z 35004MPS CAVOK 20/11 Q1015 NOSIG,ZGNN,2022-10-31T19:00:00Z,22.62,108.17,20.0,11.0,350,8,,6.21,29.970472,,,,,,TRUE,,,,,CAVOK,,,,,,,,VFR,,,,,,,,,,,,METAR,128.0
ZGKL 311900Z 35003MPS CAVOK 15/09 Q1018 NOSIG,ZGKL,2022-10-31T19:00:00Z,25.22,110.03,15.0,9.0,350,6,,6.21,30.059055,,,,,,TRUE,,,,,CAVOK,,,,,,,,VFR,,,,,,,,,,,,METAR,151.0
ZGHA 311900Z 01002MPS CAVOK 14/10 Q1020 NOSIG,ZGHA,2022-10-31T19:00:00Z,28.18,113.22,14.0,10.0,10,4,,6.21,30.11811,,,,,,TRUE,,,,,CAVOK,,,,,,,,VFR,,,,,,,,,,,,METAR,61.0
ZBSJ 311900Z 30001MPS 6000 NSC 04/03 Q1026 NOSIG,ZBSJ,2022-10-31T19:00:00Z,38.28,114.7,4.0,3.0,300,2,,3.73,30.295275,,,,,,TRUE,,,,,CLR,,,,,,,,MVFR,,,,,,,,,,,,METAR,70.0
ZBHH 311900Z 07003MPS CAVOK M05/M09 Q1025 NOSIG,ZBHH,2022-10-31T19:00:00Z,40.85,111.82,-5.0,-9.0,70,6,,6.21,30.265747,,,,,,TRUE,,,,,CAVOK,,,,,,,,VFR,,,,,,,,,,,,METAR,1081.0
WSSL 311900Z 35003KT 310V020 CAVOK 27/25 Q1008,WSSL,2022-10-31T19:00:00Z,1.42,103.87,27.0,25.0,350,3,,6.21,29.763779,,,,,,,,,,,CAVOK,,,,,,,,VFR,,,,,,,,,,,,METAR,11.0
WSAP 311900Z 34003KT 9999 FEW018CB BKN150 27/24 Q1009,WSAP,2022-10-31T19:00:00Z,1.37,103.92,27.0,24.0,340,3,,6.21,29.793306,,,,,,,,,,,FEW,1800,BKN,15000,,,,,VFR,,,,,,,,,,,,METAR,20.0
WMSA 311900Z 00000KT 9999 TS FEW017CB 26/25 Q1009,WMSA,2022-10-31T19:00:00Z,3.13,101.55,26.0,25.0,0,0,,6.21,29.793306,,,,,,,,,,TS,FEW,1700,,,,,,,VFR,,,,,,,,,,,,METAR,19.0
WMKN 311900Z VRB02KT 9999 FEW020 25/24 Q1009,WMKN,2022-10-31T19:00:00Z,5.37,103.1,25.0,24.0,0,2,,6.21,29.793306,,,,,,,,,,,FEW,2000,,,,,,,VFR,,,,,,,,,,,,METAR,12.0
WMKM 311900Z 02004KT 320V080 9999 FEW017CB 26/24 Q1009,WMKM,2022-10-31T19:00:00Z,2.27,102.25,26.0,24.0,20,4,,6.21,29.793306,,,,,,,,,,,FEW,1700,,,,,,,VFR,,,,,,,,,,,,METAR,9.0
WMKL 311900Z 07004KT 020V110 9999 FEW026 26/24 Q1009,WMKL,2022-10-31T19:00:00Z,6.32,99.72,26.0,24.0,70,4,,6.21,29.793306,,,,,,,,,,,FEW,2600,,,,,,,VFR,,,,,,,,,,,,METAR,4.0
WMKJ 311900Z 00000KT 9999 FEW012 26/25 Q1008,WMKJ,2022-10-31T19:00:00Z,1.63,103.67,26.0,25.0,0,0,,6.21,29.763779,,,,,,,,,,,FEW,1200,,,,,,,VFR,,,,,,,,,,,,METAR,38.0
WMKI 311900Z 04004KT 010V090 8000 FEW027 26/23 Q1009,WMKI,2022-10-31T19:00:00Z,4.57,101.08,26.0,23.0,40,4,,4.97,29.793306,,,,,,,,,,,FEW,2700,,,,,,,MVFR,,,,,,,,,,,,METAR,37.0
WMKE 311900Z AUTO 00000KT //// // ////// 25/24 Q1008,WMKE,2022-10-31T19:00:00Z,4.53,103.43,25.0,24.0,0,0,,,29.763779,,,TRUE,,,,,,,,,,,,,,,,,,,,,,,,,,,,METAR,5.0
WMKD 311900Z 00000KT 8000 FEW005 FEW017CB 25/24 Q1008 NOSIG,WMKD,2022-10-31T19:00:00Z,3.77,103.22,25.0,24.0,0,0,,4.97,29.763779,,,,,,TRUE,,,,,FEW,500,FEW,1700,,,,,MVFR,,,,,,,,,,,,METAR,18.0
WMKC 311900Z VRB02KT 9999 FEW020 24/24 Q1009,WMKC,2022-10-31T19:00:00Z,6.17,102.28,24.0,24.0,0,2,,6.21,29.793306,,,,,,,,,,,FEW,2000,,,,,,,VFR,,,,,,,,,,,,METAR,7.0
WMKB 311900Z 07004KT 8000 FEW024 25/24 Q1009 NOSIG,WMKB,2022-10-31T19:00:00Z,5.47,100.38,25.0,24.0,70,4,,4.97,29.793306,,,,,,TRUE,,,,,FEW,2400,,,,,,,MVFR,,,,,,,,,,,,METAR,4.0
WMKA 311900Z VRB02KT 8000 FEW012 25/24 Q1009,WMKA,2022-10-31T19:00:00Z,6.2,100.4,25.0,24.0,0,2,,4.97,29.793306,,,,,,,,,,,FEW,1200,,,,,,,MVFR,,,,,,,,,,,,METAR,5.0
WMBA 311900Z 00000KT 9000 FEW031 25/24 Q1009,WMBA,2022-10-31T19:00:00Z,4.22,100.7,25.0,24.0,0,0,,5.59,29.793306,,,,,,,,,,,FEW,3100,,,,,,,VFR,,,,,,,,,,,,METAR,9.0
WMAU 311900Z 30004KT 230V330 8000 SCT025 27/25 Q1008,WMAU,2022-10-31T19:00:00Z,2.38,103.88,27.0,25.0,300,4,,4.97,29.763779,,,,,,,,,,,SCT,2500,,,,,,,MVFR,,,,,,,,,,,,METAR,5.0
WIPP 311900Z 14003KT 4000 HZ SCT010 25/24 Q1008,WIPP,2022-10-31T19:00:00Z,-2.88,104.7,25.0,24.0,140,3,,2.49,29.763779,,,,,,,,,,HZ,SCT,1000,,,,,,,IFR,,,,,,,,,,,,METAR,7.0
WBKW 311900Z VRB03KT 7000 -RA FEW015 FEW016CB SCT027 24/23 Q1009 RETSRA,WBKW,2022-10-31T19:00:00Z,4.32,118.12,24.0,23.0,0,3,,4.35,29.793306,,,,,,,,,,-RA,FEW,1500,FEW,1600,SCT,2700,,,MVFR,,,,,,,,,,,,METAR,17.0
WBKT 311900Z 22003KT 9999 FEW009 SCT033 24/24 Q1007,WBKT,2022-10-31T19:00:00Z,6.92,116.83,24.0,24.0,220,3,,6.21,29.734253,,,,,,,,,,,FEW,900,SCT,3300,,,,,VFR,,,,,,,,,,,,METAR,11.0
WBKS 311900Z 24003KT 200V270 9999 FEW014 SCT035 25/24 Q1007,WBKS,2022-10-31T19:00:00Z,5.9,118.07,25.0,24.0,240,3,,6.21,29.734253,,,,,,,,,,,FEW,1400,SCT,3500,,,,,VFR,,,,,,,,,,,,METAR,13.0
WBKL 311900Z VRB06KT 1000 +RA SCT007 BKN030 25/24 Q1009,WBKL,2022-10-31T19:00:00Z,5.3,115.25,25.0,24.0,0,6,,0.62,29.793306,,,,,,,,,,+RA,SCT,700,BKN,3000,,,,,LIFR,,,,,,,,,,,,METAR,29.0
WBGY 311900Z AUTO 00000KT //// // ////// 24/24 Q1009,WBGY,2022-10-31T19:00:00Z,1.22,111.45,24.0,24.0,0,0,,,29.793306,,,TRUE,,,,,,,,,,,,,,,,,,,,,,,,,,,,METAR,13.0
WBGS 311900Z 32008KT 280V350 3000 +TSRA FEW005 FEW015CB SCT016 23/23 Q1010,WBGS,2022-10-31T19:00:00Z,2.27,111.98,23.0,23.0,320,8,,1.86,29.822834,,,,,,,,,,+TSRA,FEW,500,FEW,1500,SCT,1600,,,IFR,,,,,,,,,,,,METAR,26.0
WBGR 311900Z VRB03KT 9999 SCT014 25/24 Q1009,WBGR,2022-10-31T19:00:00Z,4.32,113.98,25.0,24.0,0,3,,6.21,29.793306,,,,,,,,,,,SCT,1400,,,,,,,VFR,,,,,,,,,,,,METAR,18.0
WBGB 311900Z 20003KT 120V250 6000 -RA FEW002 SCT016 24/24 Q1010 RETSRA,WBGB,2022-10-31T19:00:00Z,3.12,113.02,24.0,24.0,200,3,,3.73,29.822834,,,,,,,,,,-RA,FEW,200,SCT,1600,,,,,MVFR,,,,,,,,,,,,METAR,34.0
WARR 311900Z 34003KT 8000 FEW020 26/25 Q1008 NOSIG,WARR,2022-10-31T19:00:00Z,-7.37,112.78,26.0,25.0,340,3,,4.97,29.763779,,,,,,TRUE,,,,,FEW,2000,,,,,,,MVFR,,,,,,,,,,,,METAR,3.0
VTUU 311900Z 06005KT 9000 NSC 20/19 Q1012 NOSIG,VTUU,2022-10-31T19:00:00Z,15.25,104.87,20.0,19.0,60,5,,5.59,29.88189,,,,,,TRUE,,,,,CLR,,,,,,,,VFR,,,,,,,,,,,,METAR,119.0
VTUK 311900Z 11003KT 070V130 8000 NSC 23/18 Q1013 NOSIG,VTUK,2022-10-31T19:00:00Z,16.47,102.78,23.0,18.0,110,3,,4.97,29.911417,,,,,,TRUE,,,,,CLR,,,,,,,,MVFR,,,,,,,,,,,,METAR,190.0
VTSG 311900Z VRB01KT 5000 BR FEW020 OVC060 25/25 Q1010 NOSIG,VTSG,2022-10-31T19:00:00Z,8.1,98.98,25.0,25.0,0,1,,3.11,29.822834,,,,,,TRUE,,,,BR,FEW,2000,OVC,6000,,,,,MVFR,,,,,,,,,,,,METAR,32.0
VTCT 311900Z 00000KT 9999 FEW045 21/21 Q1014 NOSIG,VTCT,2022-10-31T19:00:00Z,19.95,99.88,21.0,21.0,0,0,,6.21,29.940945,,,,,,TRUE,,,,,FEW,4500,,,,,,,VFR,,,,,,,,,,,,METAR,389.0
VRMM 311900Z 23009KT 9999 FEW018TCU BKN280 28/25 Q1012 NOSIG,VRMM,2022-10-31T19:00:00Z,4.2,73.52,28.0,25.0,230,9,,6.21,29.88189,,,,,,TRUE,,,,,FEW,1800,BKN,28000,,,,,VFR,,,,,,,,,,,,METAR,2.0
VRMH 311900Z 24008KT 9999 FEW019 27/23 Q1012,VRMH,2022-10-31T19:00:00Z,6.75,73.17,27.0,23.0,240,8,,6.21,29.88189,,,,,,,,,,,FEW,1900,,,,,,,VFR,,,,,,,,,,,,METAR,1.0
"VRMG 311900Z 28011KT 9000 SCT016 FEW017CB BKN110 26/25 Q1012 CB NE,S TEMPO 5000 SHRA",VRMG,2022-10-31T19:00:00Z,-0.7,73.15,26.0,25.0,280,11,,5.59,29.88189,,,,,,,,,,,SCT,1600,FEW,1700,BKN,11000,,,VFR,,,,,,,,,,,,METAR,3.0
VOVZ 311900Z VRB02KT 4500 BR NSC 26/22 Q1012 NOSIG,VOVZ,2022-10-31T19:00:00Z,17.72,83.22,26.0,22.0,0,2,,2.8,29.88189,,,,,,TRUE,,,,BR,CLR,,,,,,,,IFR,,,,,,,,,,,,METAR,4.0
VOML 311900Z 00000KT 6000 NSC 26/23 Q1010 NOSIG,VOML,2022-10-31T19:00:00Z,12.97,74.88,26.0,23.0,0,0,,3.73,29.822834,,,,,,TRUE,,,,,CLR,,,,,,,,MVFR,,,,,,,,,,,,METAR,100.0
VOMD 311900Z 06002KT 4000 BR NSC 25/22 Q1011 NOSIG,VOMD,2022-10-31T19:00:00Z,9.83,78.08,25.0,22.0,60,2,,2.49,29.852362,,,,,,TRUE,,,,BR,CLR,,,,,,,,IFR,,,,,,,,,,,,METAR,135.0
VOKN 311900Z 09004KT 3500 BR SCT012 BKN080 27/25 Q1010 TEMPO 3000 BR,VOKN,2022-10-31T19:00:00Z,11.92,75.55,27.0,25.0,90,4,,2.17,29.822834,,,,,,,,,,BR,SCT,1200,BKN,8000,,,,,IFR,,,,,,,,,,,,METAR,105.0
VOCB 311900Z 00000KT 4000 BR FEW012 SCT080 25/21 Q1013 NOSIG,VOCB,2022-10-31T19:00:00Z,11.02,77.03,25.0,21.0,0,0,,2.49,29.911417,,,,,,TRUE,,,,BR,FEW,1200,SCT,8000,,,,,IFR,,,,,,,,,,,,METAR,394.0
VIAR 311900Z 08005KT 1200 R34/2000 BR FEW030 SCT100 22/19 Q1014 NOSIG,VIAR,2022-10-31T19:00:00Z,31.7,74.8,22.0,19.0,80,5,,0.75,29.940945,,,,,,TRUE,,,,BR,FEW,3000,SCT,10000,,,,,LIFR,,,,,,,,,,,,METAR,226.0
VERC 311900Z 00000KT 3000 HZ NSC 19/16 Q1016 NOSIG,VERC,2022-10-31T19:00:00Z,23.32,85.32,19.0,16.0,0,0,,1.86,30.0,,,,,,TRUE,,,,HZ,CLR,,,,,,,,IFR,,,,,,,,,,,,METAR,646.0
VEGY 311900Z 00000KT 2000 BR NSC 20/17 Q1015,VEGY,2022-10-31T19:00:00Z,24.75,84.95,20.0,17.0,0,0,,1.24,29.970472,,,,,,,,,,BR,CLR,,,,,,,,IFR,,,,,,,,,,,,METAR,115.0
VEGT 311900Z 00000KT 3000 BR FEW020 22/22 Q1013 NOSIG,VEGT,2022-10-31T19:00:00Z,26.1,91.58,22.0,22.0,0,0,,1.86,29.911417,,,,,,TRUE,,,,BR,FEW,2000,,,,,,,IFR,,,,,,,,,,,,METAR,50.0
UWOR 311900Z 18008MPS 8000 -RA OVC006 08/08 Q1003 R25/290155 NOSIG RMK QBB190 QFE729/0972,UWOR,2022-10-31T19:00:00Z,51.07,58.6,8.0,8.0,180,16,,4.97,29.616142,,,,,,TRUE,,,,-RA,OVC,600,,,,,,,IFR,,,,,,,,,,,,METAR,270.0
UWLW 311900Z 27003MPS 9999 OVC026 02/M02 Q1000 R20/CLRD60 NOSIG RMK QFE745/0993,UWLW,2022-10-31T19:00:00Z,54.4,48.8,2.0,-2.0,270,6,,6.21,29.52756,,,,,,TRUE,,,,,OVC,2600,,,,,,,MVFR,,,,,,,,,,,,METAR,67.0
UTAV 311900Z 11012KT CAVOK 13/02 Q1016 R13/CLRD70 NOSIG,UTAV,2022-10-31T19:00:00Z,39.08,63.62,13.0,2.0,110,12,,6.21,30.0,,,,,,TRUE,,,,,CAVOK,,,,,,,,VFR,,,,,,,,,,,,METAR,187.0
UTAT 311900Z 13008KT 9999 BKN050 13/07 Q1014 R08/CLRD70 NOSIG,UTAT,2022-10-31T19:00:00Z,41.77,59.83,13.0,7.0,130,8,,6.21,29.940945,,,,,,TRUE,,,,,BKN,5000,,,,,,,VFR,,,,,,,,,,,,METAR,84.0
UTAM 311900Z 11006KT 6000 NSC 14/06 Q1015 R88/CLRD70 NOSIG,UTAM,2022-10-31T19:00:00Z,37.62,61.9,14.0,6.0,110,6,,3.73,29.970472,,,,,,TRUE,,,,,CLR,,,,,,,,MVFR,,,,,,,,,,,,METAR,218.0
UTAK 311900Z 17008KT CAVOK 16/11 Q1009 R16R/CLRD70 NOSIG,UTAK,2022-10-31T19:00:00Z,40.05,53.0,16.0,11.0,170,8,,6.21,29.793306,,,,,,TRUE,,,,,CAVOK,,,,,,,,VFR,,,,,,,,,,,,METAR,83.0
UTAA 311900Z 00000KT 6000 NSC 12/11 Q1011 R88/70D NOSIG,UTAA,2022-10-31T19:00:00Z,37.98,58.37,12.0,11.0,0,0,,3.73,29.852362,,,,,,TRUE,,,,,CLR,,,,,,,,MVFR,,,,,,,,,,,,METAR,207.0
URMN 311900Z 25002MPS 9999 SCT025CB OVC071 10/05 Q1010 R24/////// TEMPO 34008G15MPS RMK QFE721,URMN,2022-10-31T19:00:00Z,43.52,43.63,10.0,5.0,250,4,,6.21,29.822834,,,,,,,,,,,SCT,2500,OVC,7100,,,,,VFR,,,,,,,,,,,,METAR,424.0
UOOO 311900Z 21013MPS 9000 -SN BLSN OVC012 M04/M05 Q1010 R19/410530 NOSIG RMK QFE741/0989,UOOO,2022-10-31T19:00:00Z,69.32,87.33,-4.0,-5.0,210,25,,5.59,29.822834,,,,,,TRUE,,,,-SN BLSN,OVC,1200,,,,,,,MVFR,,,,,,,,,,,,METAR,177.0
UMII 311900Z 30003MPS CAVOK 02/M02 Q1019 NOSIG,UMII,2022-10-31T19:00:00Z,55.13,30.35,2.0,-2.0,300,6,,6.21,30.088583,,,,,,TRUE,,,,,CAVOK,,,,,,,,VFR,,,,,,,,,,,,METAR,208.0
UMGG 311900Z 28005MPS CAVOK 01/M03 Q1020 NOSIG,UMGG,2022-10-31T19:00:00Z,52.53,31.02,1.0,-3.0,280,10,,6.21,30.11811,,,,,,TRUE,,,,,CAVOK,,,,,,,,VFR,,,,,,,,,,,,METAR,135.0
ULPB 311900Z AUTO 17002MPS 9999 // NCD M02/M04 Q1015 RMK QFE757/1010,ULPB,2022-10-31T19:00:00Z,61.88,34.15,-2.0,-4.0,170,4,,6.21,29.970472,,,TRUE,,,,,,,,CLR,,,,,,,,VFR,,,,,,,,,,,,METAR,41.0
UHMM 311900Z 00000MPS 9999 NSC M27/M30 Q1026 RMK QFE754 R28/09003MPS,UHMM,2022-10-31T19:00:00Z,59.92,150.72,-27.0,-30.0,0,0,,6.21,30.295275,,,,,,,,,,,CLR,,,,,,,,VFR,,,,,,,,,,,,METAR,175.0
UHMA 311900Z 35006MPS 9000 -SN FEW004 SCT020 M19/M21 Q1017 R01/////// NOSIG RMK TDZ R01/35006G08MPS END R01/34005G07MPS QBB130 QFE759/1012,UHMA,2022-10-31T19:00:00Z,64.73,177.73,-19.0,-21.0,350,12,,5.59,30.029528,,,,,,TRUE,,,,-SN,FEW,400,SCT,2000,,,,,VFR,,,,,,,,,,,,METAR,53.0
UHBB 311900Z 20004MPS 9999 SCT033CB 00/M03 Q1005 R36/290250 NOSIG RMK QFE736/0981,UHBB,2022-10-31T19:00:00Z,50.43,127.42,0.0,-3.0,200,8,,6.21,29.675198,,,,,,TRUE,,,,,SCT,3300,,,,,,,VFR,,,,,,,,,,,,METAR,185.0
UERR 311900Z 30003MPS 9999 SCT020CB M10/M14 Q1022 R25/490340 NOSIG RMK QFE735/0980,UERR,2022-10-31T19:00:00Z,62.53,114.05,-10.0,-14.0,300,6,,6.21,30.177166,,,,,,TRUE,,,,,SCT,2000,,,,,,,VFR,,,,,,,,,,,,METAR,352.0
UERP 311900Z 19003MPS CAVOK M16/M17 Q1016 R35/890235 RMK QFE718,UERP,2022-10-31T19:00:00Z,66.4,112.03,-16.0,-17.0,190,6,,6.21,30.0,,,,,,,,,,,CAVOK,,,,,,,,VFR,,,,,,,,,,,,METAR,514.0
UCFL 311900Z 03004MPS 9999 SCT026CB 04/M04 Q1023 R07/CLRD95,UCFL,2022-10-31T19:00:00Z,42.58,76.7,4.0,-4.0,30,8,,6.21,30.206694,,,,,,,,,,,SCT,2600,,,,,,,VFR,,,,,,,,,,,,METAR,1654.0
UBEE 311900Z 31015KT CAVOK 17/02 Q1009 NOSIG,UBEE,2022-10-31T19:00:00Z,40.63,47.13,17.0,2.0,310,15,,6.21,29.793306,,,,,,TRUE,,,,,CAVOK,,,,,,,,VFR,,,,,,,,,,,,METAR,14.0
UBBY 311900Z 32012KT 9999 BKN100 16/02 Q1013 NOSIG RMK MT OP,UBBY,2022-10-31T19:00:00Z,41.57,46.67,16.0,2.0,320,12,,6.21,29.911417,,,,,,TRUE,,,,,BKN,10000,,,,,,,VFR,,,,,,,,,,,,METAR,383.0
UBBQ 311900Z 00000KT 9999 NSC 08/02 Q1009 NOSIG RMK MT OP,UBBQ,2022-10-31T19:00:00Z,40.82,47.72,8.0,2.0,0,0,,6.21,29.793306,,,,,,TRUE,,,,,CLR,,,,,,,,VFR,,,,,,,,,,,,METAR,339.0
UBBL 311900Z 00000KT 5000 BR NSC 11/11 Q1009 NOSIG RMK MT OP,UBBL,2022-10-31T19:00:00Z,38.75,48.82,11.0,11.0,0,0,,3.11,29.793306,,,,,,TRUE,,,,BR,CLR,,,,,,,,MVFR,,,,,,,,,,,,METAR,-11.0
UASK 311900Z 32001MPS 9999 SCT011 OVC023CB 03/02 Q1026 NOSIG RMK QFE744/0992,UASK,2022-10-31T19:00:00Z,50.03,82.5,3.0,2.0,320,2,,6.21,30.295275,,,,,,TRUE,,,,,SCT,1100,OVC,2300,,,,,MVFR,,,,,,,,,,,,METAR,285.0
UARR 311900Z 35004MPS 9999 OVC031CB 02/01 Q1000 NOSIG RMK QFE746/0995,UARR,2022-10-31T19:00:00Z,51.15,51.53,2.0,1.0,350,8,,6.21,29.52756,,,,,,TRUE,,,,,OVC,3100,,,,,,,VFR,,,,,,,,,,,,METAR,33.0
UAOO 311900Z 12003MPS CAVOK 02/M01 Q1020 NOSIG RMK QFE753/1004,UAOO,2022-10-31T19:00:00Z,44.7,65.6,2.0,-1.0,120,6,,6.21,30.11811,,,,,,TRUE,,,,,CAVOK,,,,,,,,VFR,,,,,,,,,,,,METAR,130.0
TVSA 311900Z 07010KT 9999 SCT020 29/25 Q1010 NOSIG ,TVSA,2022-10-31T19:00:00Z,13.15,-61.15,29.0,25.0,70,10,,6.21,29.822834,,,,,,TRUE,,,,,SCT,2000,,,,,,,VFR,,,,,,,,,,,,METAR,3.0
TUPJ 311900Z 12004KT 10SM FEW019 29/26 A2991 RMK Q1012 VIS16KM,TUPJ,2022-10-31T19:00:00Z,18.43,-64.53,29.0,26.0,120,4,,10.0,29.911417,,,,,,,,,,,FEW,1900,,,,,,,VFR,,,,,,,,,,,,METAR,6.0
TTPP 311900Z 10008KT 9999 SCT024 31/24 Q1009 NOSIG,TTPP,2022-10-31T19:00:00Z,10.58,-61.35,31.0,24.0,100,8,,6.21,29.793306,,,,,,TRUE,,,,,SCT,2400,,,,,,,VFR,,,,,,,,,,,,METAR,11.0
TTCP 311900Z 11008KT 9999 FEW022 30/25 Q1009 NOSIG,TTCP,2022-10-31T19:00:00Z,11.15,-60.85,30.0,25.0,110,8,,6.21,29.793306,,,,,,TRUE,,,,,FEW,2200,,,,,,,VFR,,,,,,,,,,,,METAR,13.0
TRPG 311900Z 09014KT 9999 FEW015 29/25 Q1015,TRPG,2022-10-31T19:00:00Z,16.78,-62.2,29.0,25.0,90,14,,6.21,29.970472,,,,,,,,,,,FEW,1500,,,,,,,VFR,,,,,,,,,,,,METAR,170.0
TQPF 311900Z 13010KT 9999 FEW018 SCT038 29/24 Q1013,TQPF,2022-10-31T19:00:00Z,18.2,-63.05,29.0,24.0,130,10,,6.21,29.911417,,,,,,,,,,,FEW,1800,SCT,3800,,,,,VFR,,,,,,,,,,,,METAR,33.0
TNCM 311900Z 12009KT 9999 FEW018 SCT040 30/24 Q1014 NOSIG ,TNCM,2022-10-31T19:00:00Z,18.05,-63.12,30.0,24.0,120,9,,6.21,29.940945,,,,,,TRUE,,,,,FEW,1800,SCT,4000,,,,,VFR,,,,,,,,,,,,METAR,9.0
TNCC 311900Z 12014KT 4000 SHRA SCT012CB SCT030 24/23 Q1009 BECMG 10010KT 9999 NSW FEW012CB BKN014,TNCC,2022-10-31T19:00:00Z,12.2,-68.97,24.0,23.0,120,14,,2.49,29.793306,,,,,,,,,,SHRA,SCT,1200,SCT,3000,,,,,IFR,,1.0,,,,,,,,,,METAR,10.0
TNCA 311900Z 11013KT 9999 BKN018 29/24 Q1009 NOSIG,TNCA,2022-10-31T19:00:00Z,12.5,-70.0,29.0,24.0,110,13,,6.21,29.793306,,,,,,TRUE,,,,,BKN,1800,,,,,,,MVFR,,,,,,,,,,,,METAR,7.0
TLPL 311900Z 10017KT 9999 FEW028 30/25 Q1010 NOSIG,TLPL,2022-10-31T19:00:00Z,13.75,-60.95,30.0,25.0,100,17,,6.21,29.822834,,,,,,TRUE,,,,,FEW,2800,,,,,,,VFR,,,,,,,,,,,,METAR,13.0
TLPC 311900Z 10011KT 9999 FEW027 30/25 Q1911 NOSIG,TLPC,2022-10-31T19:00:00Z,14.02,-61.0,30.0,25.0,100,11,,6.21,0.0,,,,,,TRUE,,,,,FEW,2700,,,,,,,VFR,,,,,,,,,,,,METAR,8.0
TKPK 311900Z 06005KT 9999 FEW018 SCT038 29/25 Q1012,TKPK,2022-10-31T19:00:00Z,17.3,-62.72,29.0,25.0,60,5,,6.21,29.88189,,,,,,,,,,,FEW,1800,SCT,3800,,,,,VFR,,,,,,,,,,,,METAR,62.0
TGPY 311900Z 09016KT 9999 SCT018 30/26 Q1009 NOSIG,TGPY,2022-10-31T19:00:00Z,12.0,-61.78,30.0,26.0,90,16,,6.21,29.793306,,,,,,TRUE,,,,,SCT,1800,,,,,,,VFR,,,,,,,,,,,,METAR,12.0
TDPD 311900Z 13008KT 9999 BKN017 29/25 Q1012,TDPD,2022-10-31T19:00:00Z,15.55,-61.3,29.0,25.0,130,8,,6.21,29.88189,,,,,,,,,,,BKN,1700,,,,,,,MVFR,,,,,,,,,,,,METAR,13.0
TDCF 311900Z 12007KT 9999 FEW019 FEW///CB 31/21 Q1010,TDCF,2022-10-31T19:00:00Z,15.33,-61.4,31.0,21.0,120,7,,6.21,29.822834,,,,,,,,,,,FEW,1900,,,,,,,VFR,,,,,,,,,,,,METAR,4.0
TBPB 311900Z 11016KT 9999 SCT018 30/25 Q1009 NOSIG,TBPB,2022-10-31T19:00:00Z,13.07,-59.48,30.0,25.0,110,16,,6.21,29.793306,,,,,,TRUE,,,,,SCT,1800,,,,,,,VFR,,,,,,,,,,,,METAR,55.0
TAPA 311900Z 09008KT 040V140 9999 VCSH SCT020 28/24 Q1012 NOSIG,TAPA,2022-10-31T19:00:00Z,17.13,-61.78,28.0,24.0,90,8,,6.21,29.88189,,,,,,TRUE,,,,VCSH,SCT,2000,,,,,,,VFR,,,,,,,,,,,,METAR,15.0
SYEC 311900Z 08010KT 9999 FEW018CB 30/24 Q1008 NOSIG RMK CB W-ESE,SYEC,2022-10-31T19:00:00Z,6.8,-58.1,30.0,24.0,80,10,,6.21,29.763779,,,,,,TRUE,,,,,FEW,1800,,,,,,,VFR,,,,,,,,,,,,METAR,2.0
"SYCJ 311900Z 08014KT 9999 FEW022CB SCT024 32/24 Q1008 NOSIG RMK CB SE, W-N",SYCJ,2022-10-31T19:00:00Z,6.5,-58.25,32.0,24.0,80,14,,6.21,29.763779,,,,,,TRUE,,,,,FEW,2200,SCT,2400,,,,,VFR,,,,,,,,,,,,METAR,30.0
SVVA 311900Z /////KT 9999 SCT016 31/19 Q1010,SVVA,2022-10-31T19:00:00Z,10.15,-67.92,31.0,19.0,,,,6.21,29.822834,,,,,,,,,,,SCT,1600,,,,,,,VFR,,,,,,,,,,,,METAR,428.0
SVMI 311900Z 09006KT 9999 FEW016 SCT100 BKN300 31/25 Q1012,SVMI,2022-10-31T19:00:00Z,10.6,-67.0,31.0,25.0,90,6,,6.21,29.88189,,,,,,,,,,,FEW,1600,SCT,10000,BKN,30000,,,VFR,,,,,,,,,,,,METAR,48.0
SVCS 311900Z 06008KT 9999 SCT060 ///// Q1813,SVCS,2022-10-31T19:00:00Z,10.3,-66.82,,,60,8,,6.21,0.0,,,,,,,,,,,SCT,6000,,,,,,,VFR,,,,,,,,,,,,METAR,656.0
SVBC 311900Z 00000KTS 5000 -TSRA BKN013CBS 25/// Q1009,SVBC,2022-10-31T19:00:00Z,10.12,-64.68,,,0,0,,3.11,29.793306,,,,,,,,,,-TSRA,,,,,,,,,,,,,,,,,,,,,METAR,7.0
SUSO 311900Z 22015KT 9999 BKN023 16/03 Q1026,SUSO,2022-10-31T19:00:00Z,-31.43,-57.98,16.0,3.0,220,15,,6.21,30.295275,,,,,,,,,,,BKN,2300,,,,,,,MVFR,,,,,,,,,,,,METAR,37.0
SUMU 311900Z 19014KT 9999 BKN033 14/04 Q1027 TEMPO 18018G28KT SHRA,SUMU,2022-10-31T19:00:00Z,-34.83,-56.02,14.0,4.0,190,14,,6.21,30.324802,,,,,,,,,,,BKN,3300,,,,,,,VFR,,,,,,,,,,,,METAR,32.0
SULS 311900Z 20015KT 9999 -SHRA BKN036 SCT060 14/03 Q1026,SULS,2022-10-31T19:00:00Z,-34.87,-55.1,14.0,3.0,200,15,,6.21,30.295275,,,,,,,,,,-SHRA,BKN,3600,SCT,6000,,,,,VFR,,,,,,,,,,,,METAR,22.0
SUCA 311900Z 22014KT 9999 FEW020 17/01 Q1027,SUCA,2022-10-31T19:00:00Z,-34.45,-57.77,17.0,1.0,220,14,,6.21,30.324802,,,,,,,,,,,FEW,2000,,,,,,,VFR,,,,,,,,,,,,METAR,26.0
SUAA 311900Z /////KT 9999 BKN030 14/04 Q1027,SUAA,2022-10-31T19:00:00Z,-34.78,-56.25,14.0,4.0,,,,6.21,30.324802,,,,,,,,,,,BKN,3000,,,,,,,MVFR,,,,,,,,,,,,METAR,48.0
SPYL 311900Z 18019KT 5000 DU NSC 22/15 Q1010 RMK BIRD HAZARD RWY 17/35 PP000,SPYL,2022-10-31T19:00:00Z,-4.57,-81.25,22.0,15.0,180,19,,3.11,29.822834,,,,,,,,,,DU,CLR,,,,,,,,MVFR,,,,,,,,,,,,METAR,89.0
SPTU 311900Z 29004KT 260V320 9999 SCT025 BKN100 29/24 Q1005 RMK BIRD HAZARD RWY 01/19 PP000,SPTU,2022-10-31T19:00:00Z,-12.62,-69.22,29.0,24.0,290,4,,6.21,29.675198,,,,,,,,,,,SCT,2500,BKN,10000,,,,,VFR,,,,,,,,,,,,SPECI,213.0
SPTN 311900Z 23009KT 180V2620 9999 FEW028 21/11 Q1014 RMK PP000,SPTN,2022-10-31T19:00:00Z,-18.03,-70.28,21.0,11.0,230,9,,6.21,29.940945,,,,,,,,,,,FEW,2800,,,,,,,VFR,,,,,,,,,,,,METAR,459.0
SPST 311900Z 03012KT 9999 SCT020 35/22 Q1005 RMK BIRD HAZARD RWY 17/35 PP000,SPST,2022-10-31T19:00:00Z,-6.52,-76.37,35.0,22.0,30,12,,6.21,29.675198,,,,,,,,,,,SCT,2000,,,,,,,VFR,,,,,,,,,,,,SPECI,282.0
SPSO 311900Z 29010KT 9999 FEW010 18/14 Q1013 RMK BIRD HAZARD RWY 22/04 PP000,SPSO,2022-10-31T19:00:00Z,-13.73,-76.22,18.0,14.0,290,10,,6.21,29.911417,,,,,,,,,,,FEW,1000,,,,,,,VFR,,,,,,,,,,,,METAR,8.0
SPRU 311900Z 18013KT 9999 FEW050 18/13 Q1013 RMK PP000,SPRU,2022-10-31T19:00:00Z,-8.08,-79.12,18.0,13.0,180,13,,6.21,29.911417,,,,,,,,,,,FEW,5000,,,,,,,VFR,,,,,,,,,,,,SPECI,23.0
SPQU 311900Z 26011KT 220V300 CAVOK 19/M04 Q1024 NOSIG RMK PP000,SPQU,2022-10-31T19:00:00Z,-16.33,-71.57,19.0,-4.0,260,11,,6.21,30.236221,,,,,,TRUE,,,,,CAVOK,,,,,,,,VFR,,,,,,,,,,,,METAR,2527.0
SPQT 311900Z 03005KT 280V080 9999 BKN020 34/24 Q1006 NOSIG RMK BIRD HAZARD RWY 06/24 PP000,SPQT,2022-10-31T19:00:00Z,-3.78,-73.32,34.0,24.0,30,5,,6.21,29.704725,,,,,,TRUE,,,,,BKN,2000,,,,,,,MVFR,,,,,,,,,,,,METAR,92.0
SPPY 311900Z 32010KT 9999 FEW015 24/08 Q1023 RMK PP000,SPPY,2022-10-31T19:00:00Z,-6.22,-77.85,24.0,8.0,320,10,,6.21,30.206694,,,,,,,,,,,FEW,1500,,,,,,,VFR,,,,,,,,,,,,SPECI,2536.0
SPNC 311900Z 06015KT 9999 FEW040 30/13 Q1014 RMK PP000,SPNC,2022-10-31T19:00:00Z,-9.87,-76.2,30.0,13.0,60,15,,6.21,29.940945,,,,,,,,,,,FEW,4000,,,,,,,VFR,,,,,,,,,,,,SPECI,1856.0
SPMS 311900Z 06006KT 9999 FEW020 33/25 Q1007 RMK BIRD HAZARD RWY 09/27 PP000,SPMS,2022-10-31T19:00:00Z,-5.9,-76.12,33.0,25.0,60,6,,6.21,29.734253,,,,,,,,,,,FEW,2000,,,,,,,VFR,,,,,,,,,,,,SPECI,149.0
SPME 311900Z 28004KT 9999 SCT020 27/21 Q1009 RMK BIRD HAZARD RWY 32/14 PP000,SPME,2022-10-31T19:00:00Z,-3.55,-80.4,27.0,21.0,280,4,,6.21,29.793306,,,,,,,,,,,SCT,2000,,,,,,,VFR,,,,,,,,,,,,SPECI,26.0
SPLO 311900Z 16010KT CAVOK 21/14 Q1014 RMK PP000,SPLO,2022-10-31T19:00:00Z,-17.7,-71.35,21.0,14.0,160,10,,6.21,29.940945,,,,,,,,,,,CAVOK,,,,,,,,VFR,,,,,,,,,,,,METAR,25.0
SPJL 311900Z 08005KT 360V170 CAVOK 21/M20 Q1028 RMK PP000,SPJL,2022-10-31T19:00:00Z,-15.47,-70.15,21.0,-20.0,80,5,,6.21,30.35433,,,,,,,,,,,CAVOK,,,,,,,,VFR,,,,,,,,,,,,SPECI,3837.0
SPJI 311900Z 22005KT 9999 SCT022 34/25 Q1014 RMK PP000,SPJI,2022-10-31T19:00:00Z,-7.17,-76.72,34.0,25.0,220,5,,6.21,29.940945,,,,,,,,,,,SCT,2200,,,,,,,VFR,,,,,,,,,,,,SPECI,363.0
SPJC 311900Z 24007KT 200V280 9999 OVC017 18/12 Q1014 NOSIG RMK BIRD HAZARDS RWY 16 PP000,SPJC,2022-10-31T19:00:00Z,-12.02,-77.12,18.0,12.0,240,7,,6.21,29.940945,,,,,,TRUE,,,,,OVC,1700,,,,,,,MVFR,,,,,,,,,,,,METAR,26.0
SPHY 311900Z /////KT CAVOK 19/06 Q1029 RMK BIRD HAZARD RWY03/21 PP000,SPHY,2022-10-31T19:00:00Z,-13.7,-73.35,19.0,6.0,,,,6.21,30.383858,,,,,,,,,,,CAVOK,,,,,,,,VFR,,,,,,,,,,,,SPECI,3553.0
SPHO 311900Z VRB07KT 9999 FEW050 28/M06 Q1019 RMK PP000,SPHO,2022-10-31T19:00:00Z,-13.17,-74.22,28.0,-6.0,0,7,,6.21,30.088583,,,,,,,,,,,FEW,5000,,,,,,,VFR,,,,,,,,,,,,SPECI,2743.0
SPHI 311900Z 19015KT 160V220 9999 FEW017 21/13 Q1012 RMK BIRD HAZARD RWY 19/01 PP000,SPHI,2022-10-31T19:00:00Z,-6.78,-79.82,21.0,13.0,190,15,,6.21,29.88189,,,,,,,,,,,FEW,1700,,,,,,,VFR,,,,,,,,,,,,SPECI,33.0
SPGM 311900Z 01002KT 9999 FEW030 32/21 Q1009 RMK PP000,SPGM,2022-10-31T19:00:00Z,-9.28,-76.0,32.0,21.0,10,2,,6.21,29.793306,,,,,,,,,,,FEW,3000,,,,,,,VFR,,,,,,,,,,,,SPECI,643.0
SPEO 311900Z 19016KT 9999 FEW017 20/14 Q1013 RMK PP000,SPEO,2022-10-31T19:00:00Z,-9.17,-78.52,20.0,14.0,190,16,,6.21,29.911417,,,,,,,,,,,FEW,1700,,,,,,,VFR,,,,,,,,,,,,SPECI,13.0
SPCL 311900Z 33009KT 9999 BKN020 33/24 Q1006 RMK BIRD HAZARD RWY 02/20 PP000,SPCL,2022-10-31T19:00:00Z,-8.38,-74.58,33.0,24.0,330,9,,6.21,29.704725,,,,,,,,,,,BKN,2000,,,,,,,MVFR,,,,,,,,,,,,SPECI,154.0
SMZO 311900Z 14005KT 9999 -SHRA FEW015CB 28/25 Q1009 NOSIG,SMZO,2022-10-31T19:00:00Z,5.82,-55.18,28.0,25.0,140,5,,6.21,29.793306,,,,,,TRUE,,,,-SHRA,FEW,1500,,,,,,,VFR,,,,,,,,,,,,METAR,7.0
SMJP 311900Z 08004KT 9999 SCT010 SCT015CB 28/25 Q1009 NOSIG,SMJP,2022-10-31T19:00:00Z,5.45,-55.18,28.0,25.0,80,4,,6.21,29.793306,,,,,,TRUE,,,,,SCT,1000,SCT,1500,,,,,VFR,,,,,,,,,,,,METAR,14.0
SLYA 311900Z 22015KT 9999 OVC070 18/02 Q1024,SLYA,2022-10-31T19:00:00Z,-21.97,-63.65,18.0,2.0,220,15,,6.21,30.236221,,,,,,,,,,,OVC,7000,,,,,,,VFR,,,,,,,,,,,,METAR,646.0
SLVR 311900Z 18022G34KT 5000 -RA BKN025 OVC070 13/07 Q1018,SLVR,2022-10-31T19:00:00Z,-17.63,-63.13,13.0,7.0,180,22,34,3.11,30.059055,,,,,,,,,,-RA,BKN,2500,OVC,7000,,,,,MVFR,,,,,,,,,,,,METAR,377.0
SLTR 311900Z 13020G31KT 6000 -TSRA BKN007 FEW020CB OVC070 15/13 Q1014,SLTR,2022-10-31T19:00:00Z,-14.83,-64.92,15.0,13.0,130,20,31,3.73,29.940945,,,,,,,,,,-TSRA,BKN,700,FEW,2000,OVC,7000,,,IFR,,,,,,,,,,,,METAR,157.0
SLTJ 311900Z 16006KT 9999 BKN027 OVC070 07/M02 Q1027,SLTJ,2022-10-31T19:00:00Z,-21.55,-64.72,7.0,-2.0,160,6,,6.21,30.324802,,,,,,,,,,,BKN,2700,OVC,7000,,,,,MVFR,,,,,,,,,,,,METAR,1850.0
SLSV 311900Z 18020G30KT 9999 SCT015 OVC070 16/11 Q1015,SLSV,2022-10-31T19:00:00Z,-16.4,-61.05,16.0,11.0,180,20,30,6.21,29.970472,,,,,,,,,,,SCT,1500,OVC,7000,,,,,VFR,,,,,,,,,,,,METAR,450.0
SLSA 311900Z 18015G25KT 6000 TS VCSH BKN007 FEW020CB OVC070 16/15 Q1010,SLSA,2022-10-31T19:00:00Z,-13.77,-65.43,16.0,15.0,180,15,25,3.73,29.822834,,,,,,,,,,TS VCSH,BKN,700,FEW,2000,OVC,7000,,,IFR,,,,,,,,,,,,METAR,144.0
SLRY 311900Z 16006KT 7000 VCSH BKN015 FEW023CB OVC070 29/25 Q1008,SLRY,2022-10-31T19:00:00Z,-14.3,-67.37,29.0,25.0,160,6,,4.35,29.763779,,,,,,,,,,VCSH,BKN,1500,FEW,2300,OVC,7000,,,MVFR,,,,,,,,,,,,METAR,187.0
SLRQ 311900Z 14008KT 8000 VCSH BKN017 FEW020CB BKN200 30/26 Q1006,SLRQ,2022-10-31T19:00:00Z,-14.42,-67.5,30.0,26.0,140,8,,4.97,29.704725,,,,,,,,,,VCSH,BKN,1700,FEW,2000,BKN,20000,,,MVFR,,,,,,,,,,,,METAR,209.0
SLRI 311900Z 34007KT 8000 VCSH SCT017 FEW020CB 35/23 Q1007,SLRI,2022-10-31T19:00:00Z,-11.02,-66.08,35.0,23.0,340,7,,4.97,29.734253,,,,,,,,,,VCSH,SCT,1700,FEW,2000,,,,,MVFR,,,,,,,,,,,,METAR,136.0
SLRB 311900Z 00000KT 5000 -DZ OVC006 12/11 Q1023,SLRB,2022-10-31T19:00:00Z,-18.32,-59.75,12.0,11.0,0,0,,3.11,30.206694,,,,,,,,,,-DZ,OVC,600,,,,,,,IFR,,,,,,,,,,,,METAR,266.0
SLPS 311900Z 24008KT 6000 BKN012 BKN070 17/14 Q1021,SLPS,2022-10-31T19:00:00Z,-18.98,-57.82,17.0,14.0,240,8,,3.73,30.147638,,,,,,,,,,,BKN,1200,BKN,7000,,,,,MVFR,,,,,,,,,,,,METAR,136.0
SLOR 311900Z 27012KT 240V300 9999 FEW023 FEW025CB 22/M03 Q1029,SLOR,2022-10-31T19:00:00Z,-17.97,-67.08,22.0,-3.0,270,12,,6.21,30.383858,,,,,,,,,,,FEW,2300,FEW,2500,,,,,VFR,,,,,,,,,,,,METAR,3720.0
SLMG 311900Z 14015KT 8000 VCSH BKN008 FEW020CB OVC070 19/17 Q1007,SLMG,2022-10-31T19:00:00Z,-13.27,-64.07,19.0,17.0,140,15,,4.97,29.734253,,,,,,,,,,VCSH,BKN,800,FEW,2000,OVC,7000,,,IFR,,,,,,,,,,,,METAR,146.0
SLLP 311900Z 28013G23KT 240V320 9999 FEW020 19/M02 Q1031,SLLP,2022-10-31T19:00:00Z,-16.52,-68.17,19.0,-2.0,280,13,23,6.21,30.442913,,,,,,,,,,,FEW,2000,,,,,,,VFR,,,,,,,,,,,,METAR,4061.0
SLJE 311900Z 18015KT 9999 OVC015 14/09 Q1022,SLJE,2022-10-31T19:00:00Z,-17.82,-60.75,14.0,9.0,180,15,,6.21,30.177166,,,,,,,,,,,OVC,1500,,,,,,,MVFR,,,,,,,,,,,,METAR,286.0
SLET 311900Z 16016G28KT 6000 -RA BKN025 OVC070 13/08 Q1017,SLET,2022-10-31T19:00:00Z,-17.8,-63.17,13.0,8.0,160,16,28,3.73,30.029528,,,,,,,,,,-RA,BKN,2500,OVC,7000,,,,,MVFR,,,,,,,,,,,,METAR,421.0
SLCP 311900Z 18025G35KT 9999 OVC015 14/08 Q1020,SLCP,2022-10-31T19:00:00Z,-16.15,-62.02,14.0,8.0,180,25,35,6.21,30.11811,,,,,,,,,,,OVC,1500,,,,,,,MVFR,,,,,,,,,,,,METAR,502.0
SLCB 311900Z 01015KT 330V110 9999 FEW033 FEW036CB SCT200 27/04 Q1014,SLCB,2022-10-31T19:00:00Z,-17.42,-66.18,27.0,4.0,10,15,,6.21,29.940945,,,,,,,,,,,FEW,3300,FEW,3600,SCT,20000,,,VFR,,,,,,,,,,,,METAR,2560.0
SLCA 311900Z 18010KT 8000 OVC070 17/M01 Q1025,SLCA,2022-10-31T19:00:00Z,-20.0,-63.53,17.0,-1.0,180,10,,4.97,30.265747,,,,,,,,,,,OVC,7000,,,,,,,MVFR,,,,,,,,,,,,METAR,796.0
SLAL 311900Z 03013KT 9999 BKN020 SCT200 14/08 Q1025,SLAL,2022-10-31T19:00:00Z,-19.23,-65.15,14.0,8.0,30,13,,6.21,30.265747,,,,,,,,,,,BKN,2000,SCT,20000,,,,,MVFR,,,,,,,,,,,,METAR,3109.0
SKVV 311900Z 08007KT 9999 BKN020 30/22 Q1009 RMK A2982,SKVV,2022-10-31T19:00:00Z,4.17,-73.62,30.0,22.0,80,7,,6.21,29.793306,,,,,,,,,,,BKN,2000,,,,,,,MVFR,,,,,,,,,,,,METAR,421.0
SKVP 311900Z 24005KT 170V260 9999 FEW015 SCT200 32/18 Q1010 RMK A2984,SKVP,2022-10-31T19:00:00Z,10.43,-73.25,32.0,18.0,240,5,,6.21,29.822834,,,,,,,,,,,FEW,1500,SCT,20000,,,,,VFR,,,,,,,,,,,,METAR,137.0
SKUI 311900Z 00000KT 9999 BKN030 30/23 Q1007 RMK A2975,SKUI,2022-10-31T19:00:00Z,5.68,-76.63,30.0,23.0,0,0,,6.21,29.734253,,,,,,,,,,,BKN,3000,,,,,,,MVFR,,,,,,,,,,,,METAR,55.0
SKUC 311900Z 02003KT 9999 SCT020 30/25 Q1008 RMK A2978,SKUC,2022-10-31T19:00:00Z,7.07,-70.73,30.0,25.0,20,3,,6.21,29.763779,,,,,,,,,,,SCT,2000,,,,,,,VFR,,,,,,,,,,,,METAR,127.0
SKSP 311900Z 30006KT 260V350 9999 FEW018 SCT090 29/24 Q1008 RMK A2979,SKSP,2022-10-31T19:00:00Z,12.58,-81.72,29.0,24.0,300,6,,6.21,29.763779,,,,,,,,,,,FEW,1800,SCT,9000,,,,,VFR,,,,,,,,,,,,METAR,6.0
SKSM 311900Z 31008KT 9999 FEW017TCU SCT200 33/25 Q1009 RMK TCUE A2983,SKSM,2022-10-31T19:00:00Z,11.12,-74.22,33.0,25.0,310,8,,6.21,29.793306,,,,,,,,,,,FEW,1700,SCT,20000,,,,,VFR,,,,,,,,,,,,METAR,5.0
SKRH 311900Z 28008KT 9999 FEW015 BKN200 30/24 Q1008 RMK A2978,SKRH,2022-10-31T19:00:00Z,11.52,-72.92,30.0,24.0,280,8,,6.21,29.763779,,,,,,,,,,,FEW,1500,BKN,20000,,,,,VFR,,,,,,,,,,,,METAR,11.0
SKRG 311900Z 08010KT 9999 SCT020TCU 21/14 Q1022 NOSIG RMK TCUSW/NW A3019,SKRG,2022-10-31T19:00:00Z,6.17,-75.42,21.0,14.0,80,10,,6.21,30.177166,,,,,,TRUE,,,,,SCT,2000,,,,,,,VFR,,,,,,,,,,,,METAR,2132.0
SKPV 311900Z 27004KT 9999 FEW017 SCT100 BKN200 30/24 Q1009 RMK A2981,SKPV,2022-10-31T19:00:00Z,13.37,-81.35,30.0,24.0,270,4,,6.21,29.793306,,,,,,,,,,,FEW,1700,SCT,10000,BKN,20000,,,VFR,,,,,,,,,,,,METAR,7.0
SKPS 311900Z VRB07KT 9999 SCT023 24/16 Q1016 RMK A3002,SKPS,2022-10-31T19:00:00Z,1.4,-77.28,24.0,16.0,0,7,,6.21,30.0,,,,,,,,,,,SCT,2300,,,,,,,VFR,,,,,,,,,,,,METAR,1798.0
SKPE 311900Z 22005KT 9999 SCT020TCU 27/17 Q1014 RMK TCUNE/E A2996,SKPE,2022-10-31T19:00:00Z,4.82,-75.73,27.0,17.0,220,5,,6.21,29.940945,,,,,,,,,,,SCT,2000,,,,,,,VFR,,,,,,,,,,,,METAR,1341.0
SKPC 311900Z 01006KT 9999 FEW020 BKN070 32/24 Q1006 RMK A2971,SKPC,2022-10-31T19:00:00Z,6.18,-67.5,32.0,24.0,10,6,,6.21,29.704725,,,,,,,,,,,FEW,2000,BKN,7000,,,,,VFR,,,,,,,,,,,,METAR,51.0
SKNV 311900Z 02005KT 9999 SCT035TCU 32/19 Q1008 RMK TCUE/SE A2978,SKNV,2022-10-31T19:00:00Z,2.93,-75.28,32.0,19.0,20,5,,6.21,29.763779,,,,,,,,,,,SCT,3500,,,,,,,VFR,,,,,,,,,,,,METAR,449.0
SKMZ 311900Z 30011KT 9000 BKN050TCU 20/13 Q1023 RMK TCUE A3022,SKMZ,2022-10-31T19:00:00Z,5.03,-75.47,20.0,13.0,300,11,,5.59,30.206694,,,,,,,,,,,BKN,5000,,,,,,,VFR,,,,,,,,,,,,METAR,2075.0
SKMR 311900Z 18004KT 9999 SCT020 SCT200 32/22 Q1008 RMK A2976,SKMR,2022-10-31T19:00:00Z,8.82,-75.83,32.0,22.0,180,4,,6.21,29.763779,,,,,,,,,,,SCT,2000,SCT,20000,,,,,VFR,,,,,,,,,,,,METAR,12.0
SKMD 311900Z 02013KT 9999 FEW040 28/14 Q1015 RMK A2999,SKMD,2022-10-31T19:00:00Z,6.22,-75.58,28.0,14.0,20,13,,6.21,29.970472,,,,,,,,,,,FEW,4000,,,,,,,VFR,,,,,,,,,,,,METAR,1491.0
SKLT 311900Z VRB02KT 9999 SCT020 33/23 Q1006 RMK A2972,SKLT,2022-10-31T19:00:00Z,-4.2,-69.93,33.0,23.0,0,2,,6.21,29.704725,,,,,,,,,,,SCT,2000,,,,,,,VFR,,,,,,,,,,,,METAR,78.0
SKLC 311900Z 00000KT 9999 SCT025 32/23 Q1008 RMK A2977,SKLC,2022-10-31T19:00:00Z,7.82,-76.72,32.0,23.0,0,0,,6.21,29.763779,,,,,,,,,,,SCT,2500,,,,,,,VFR,,,,,,,,,,,,METAR,20.0
SKIP 311900Z 36007KT 9999 SCT020 18/09 Q1025 RMK A3025,SKIP,2022-10-31T19:00:00Z,0.85,-77.67,18.0,9.0,360,7,,6.21,30.265747,,,,,,,,,,,SCT,2000,,,,,,,VFR,,,,,,,,,,,,METAR,2964.0
SKIB 311900Z 07007KT 9999 FEW020 27/19 Q1015 RMK A2998,SKIB,2022-10-31T19:00:00Z,4.42,-75.12,27.0,19.0,70,7,,6.21,29.970472,,,,,,,,,,,FEW,2000,,,,,,,VFR,,,,,,,,,,,,METAR,899.0
SKEJ 311900Z 25004KT 9999 FEW017 33/21 Q1007 RMK A2975,SKEJ,2022-10-31T19:00:00Z,7.02,-73.8,33.0,21.0,250,4,,6.21,29.734253,,,,,,,,,,,FEW,1700,,,,,,,VFR,,,,,,,,,,,,METAR,123.0
SKCL 311900Z VRB04KT 9999 SCT030 30/18 Q1011 BECMG 32010KT,SKCL,2022-10-31T19:00:00Z,3.53,-76.37,30.0,18.0,0,4,,6.21,29.852362,,,,,,,,,,,SCT,3000,,,,,,,VFR,,,,,,,,,,,,METAR,967.0
SKCG 311900Z 25007KT 200V290 9999 SCT017 BKN200 31/24 Q1008 RMK A2977,SKCG,2022-10-31T19:00:00Z,10.43,-75.52,31.0,24.0,250,7,,6.21,29.763779,,,,,,,,,,,SCT,1700,BKN,20000,,,,,VFR,,,,,,,,,,,,METAR,6.0
SKCC 311900Z 01008KT 9999 SCT023 30/22 Q1009 RMK A2981,SKCC,2022-10-31T19:00:00Z,7.92,-72.52,30.0,22.0,10,8,,6.21,29.793306,,,,,,,,,,,SCT,2300,,,,,,,VFR,,,,,,,,,,,,METAR,308.0
SKBQ 311900Z 12006KT 090V150 9999 FEW015 32/22 Q1008 NOSIG RMK A2978,SKBQ,2022-10-31T19:00:00Z,10.87,-74.77,32.0,22.0,120,6,,6.21,29.763779,,,,,,TRUE,,,,,FEW,1500,,,,,,,VFR,,,,,,,,,,,,METAR,23.0
SKBO 311900Z 28010KT 270V340 9000 VCSH SCT020TCU 20/11 Q1023 NOSIG RMK TCUVCSH/SE A3021,SKBO,2022-10-31T19:00:00Z,4.7,-74.15,20.0,11.0,280,10,,5.59,30.206694,,,,,,TRUE,,,,VCSH,SCT,2000,,,,,,,VFR,,,,,,,,,,,,METAR,2547.0
SKBG 311900Z 31005KT 9999 SCT017 SCT270 25/18 Q1013 RMK A2992,SKBG,2022-10-31T19:00:00Z,7.13,-73.18,25.0,18.0,310,5,,6.21,29.911417,,,,,,,,,,,SCT,1700,SCT,27000,,,,,VFR,,,,,,,,,,,,METAR,1187.0
SKAR 311900Z 18005KT 9999 BKN023 28/18 Q1015 RMK A2998,SKAR,2022-10-31T19:00:00Z,4.45,-75.77,28.0,18.0,180,5,,6.21,29.970472,,,,,,,,,,,BKN,2300,,,,,,,MVFR,,,,,,,,,,,,METAR,1214.0
SGES 311900Z 21028KT 9999 OVC008 14/13 Q1016,SGES,2022-10-31T19:00:00Z,-25.45,-54.85,14.0,13.0,210,28,,6.21,30.0,,,,,,,,,,,OVC,800,,,,,,,IFR,,,,,,,,,,,,METAR,256.0
SGAS 311900Z 21026KT 9999 FEW027 BKN070 15/12 Q1023,SGAS,2022-10-31T19:00:00Z,-25.25,-57.52,15.0,12.0,210,26,,6.21,30.206694,,,,,,,,,,,FEW,2700,BKN,7000,,,,,VFR,,,,,,,,,,,,METAR,83.0
SETU 311900Z 06008KT 9999 SCT020 SCT080 20/07 Q1027,SETU,2022-10-31T19:00:00Z,0.82,-77.7,20.0,7.0,60,8,,6.21,30.324802,,,,,,,,,,,SCT,2000,SCT,8000,,,,,VFR,,,,,,,,,,,,METAR,2936.0
SETN 311900Z 29012KT 250V320 9999 FEW026 28/23 Q1008 RMK A2979,SETN,2022-10-31T19:00:00Z,0.98,-79.63,28.0,23.0,290,12,,6.21,29.763779,,,,,,,,,,,FEW,2600,,,,,,,VFR,,,,,,,,,,,,METAR,10.0
SEST 311900Z 16011KT 9999 BKN020 SCT080 22/19 Q1010 RMK A2983,SEST,2022-10-31T19:00:00Z,-0.9,-89.62,22.0,19.0,160,11,,6.21,29.822834,,,,,,,,,,,BKN,2000,SCT,8000,,,,,MVFR,,,,,,,,,,,,METAR,13.0
SESM 311900Z 09006KT 050V120 9999 VCSH BKN023 BKN100 24/21 Q1013 RMK A2993,SESM,2022-10-31T19:00:00Z,-1.5,-78.07,24.0,21.0,90,6,,6.21,29.911417,,,,,,,,,,VCSH,BKN,2300,BKN,10000,,,,,MVFR,,,,,,,,,,,,METAR,1056.0
SESA 311900Z 22009KT 9999 SCT010 OVC013 21/18 Q1010 RMK A2988,SESA,2022-10-31T19:00:00Z,-2.2,-80.98,21.0,18.0,220,9,,6.21,29.822834,,,,,,,,,,,SCT,1000,OVC,1300,,,,,MVFR,,,,,,,,,,,,METAR,6.0
SERO 311900Z 32005KT 9999 FEW013 OVC023 25/19 Q1010,SERO,2022-10-31T19:00:00Z,-3.43,-79.98,25.0,19.0,320,5,,6.21,29.822834,,,,,,,,,,,FEW,1300,OVC,2300,,,,,MVFR,,,,,,,,,,,,METAR,6.0
SERB 311900Z 06012KT 9999 BKN040 24/12 Q1023,SERB,2022-10-31T19:00:00Z,-1.65,-78.67,24.0,12.0,60,12,,6.21,30.206694,,,,,,,,,,,BKN,4000,,,,,,,VFR,,,,,,,,,,,,METAR,2788.0
SEQM 311900Z 34015KT 310V010 9999 SCT030 24/09 Q1021 NOSIG RMK A3016,SEQM,2022-10-31T19:00:00Z,-0.12,-78.35,24.0,9.0,340,15,,6.21,30.147638,,,,,,TRUE,,,,,SCT,3000,,,,,,,VFR,,,,,,,,,,,,METAR,2386.0
SEMT 311900Z 28013KT 9999 SCT020 SCT200 28/21 Q1009 RMK A2981,SEMT,2022-10-31T19:00:00Z,-0.95,-80.67,28.0,21.0,280,13,,6.21,29.793306,,,,,,,,,,,SCT,2000,SCT,20000,,,,,VFR,,,,,,,,,,,,METAR,13.0
SEMC 311900Z 02012KT 340V070 9999 SCT033 26/18 Q1013 RMK A992,SEMC,2022-10-31T19:00:00Z,-2.3,-78.12,26.0,18.0,20,12,,6.21,29.911417,,,,,,,,,,,SCT,3300,,,,,,,VFR,,,,,,,,,,,,METAR,1036.0
SELT 311900Z 15006KT 9999 SCT040 21/05 Q1024,SELT,2022-10-31T19:00:00Z,-0.92,-78.62,21.0,5.0,150,6,,6.21,30.236221,,,,,,,,,,,SCT,4000,,,,,,,VFR,,,,,,,,,,,,METAR,2779.0
SEJD 311900Z 11006KT 9999 SCT020 BKN300 29/26 Q1009 RMK A2982,SEJD,2022-10-31T19:00:00Z,-1.07,-77.58,29.0,26.0,110,6,,6.21,29.793306,,,,,,,,,,,SCT,2000,BKN,30000,,,,,VFR,,,,,,,,,,,,METAR,376.0
SEGZ 311900Z 10005KT 9999 FEW026 30/21 Q1009,SEGZ,2022-10-31T19:00:00Z,,,30.0,21.0,100,5,,6.21,29.793306,,,,,,,,,,,FEW,2600,,,,,,,VFR,,,,,,,,,,,,METAR,
SEGU 311900Z 15010KT 9999 FEW026 28/19 Q1008 NOSIG RMK A2979,SEGU,2022-10-31T19:00:00Z,-2.15,-79.88,28.0,19.0,150,10,,6.21,29.763779,,,,,,TRUE,,,,,FEW,2600,,,,,,,VFR,,,,,,,,,,,,METAR,6.0
SEGS 311900Z 21011KT 9999 FEW020 25/17 Q1012 RMK A2990,SEGS,2022-10-31T19:00:00Z,-0.45,-90.27,25.0,17.0,210,11,,6.21,29.88189,,,,,,,,,,,FEW,2000,,,,,,,VFR,,,,,,,,,,,,METAR,51.0
SECO 311900Z 29001KT 9999 SCT020 BKN100 30/23 Q1009 RMK A2979,SECO,2022-10-31T19:00:00Z,-0.45,-76.98,30.0,23.0,290,1,,6.21,29.793306,,,,,,,,,,,SCT,2000,BKN,10000,,,,,VFR,,,,,,,,,,,,METAR,256.0
SECA 311900Z 24008KT 9999 FEW040 34/12 Q1011 RMK A2988,SECA,2022-10-31T19:00:00Z,-4.0,-79.37,34.0,12.0,240,8,,6.21,29.852362,,,,,,,,,,,FEW,4000,,,,,,,VFR,,,,,,,,,,,,METAR,1237.0
SCVM 311900Z 35007KT 290V020 CAVOK 21/04 Q1014,SCVM,2022-10-31T19:00:00Z,-32.95,-71.48,21.0,4.0,350,7,,6.21,29.940945,,,,,,,,,,,CAVOK,,,,,,,,VFR,,,,,,,,,,,,METAR,136.0
SCVD 311900Z 17006KT CAVOK 19/07 Q1028,SCVD,2022-10-31T19:00:00Z,-39.65,-73.08,19.0,7.0,170,6,,6.21,30.35433,,,,,,,,,,,CAVOK,,,,,,,,VFR,,,,,,,,,,,,METAR,19.0
SCTN 311900Z 18014KT 150V210 CAVOK 12/07 Q1033,SCTN,2022-10-31T19:00:00Z,-42.92,-72.7,12.0,7.0,180,14,,6.21,30.501968,,,,,,,,,,,CAVOK,,,,,,,,VFR,,,,,,,,,,,,METAR,8.0
SCTB 311900Z 22009KT CAVOK 27/M08 Q1015,SCTB,2022-10-31T19:00:00Z,-33.45,-70.53,27.0,-8.0,220,9,,6.21,29.970472,,,,,,,,,,,CAVOK,,,,,,,,VFR,,,,,,,,,,,,METAR,655.0
SCSN 311900Z 32005KT 260V050 CAVOK 21/08 Q1014,SCSN,2022-10-31T19:00:00Z,-33.65,-71.62,21.0,8.0,320,5,,6.21,29.940945,,,,,,,,,,,CAVOK,,,,,,,,VFR,,,,,,,,,,,,METAR,73.0
SCSE 311900Z 27011KT CAVOK 17/10 Q1015,SCSE,2022-10-31T19:00:00Z,-29.92,-71.2,17.0,10.0,270,11,,6.21,29.970472,,,,,,,,,,,CAVOK,,,,,,,,VFR,,,,,,,,,,,,METAR,141.0
SCRM 311900Z 29022KT 0600 FZFG OVC003 M01/M01 Q0971 NOSIG,SCRM,2022-10-31T19:00:00Z,-62.18,-58.98,-1.0,-1.0,290,22,,0.37,28.671259,,,,,,TRUE,,,,FZFG,OVC,300,,,,,,,LIFR,,,,,,,,,,,,METAR,45.0
SCRG 311900Z 23012KT CAVOK 29/M04 Q1015,SCRG,2022-10-31T19:00:00Z,-34.17,-70.77,29.0,-4.0,230,12,,6.21,29.970472,,,,,,,,,,,CAVOK,,,,,,,,VFR,,,,,,,,,,,,METAR,488.0
SCRD 311900Z 35007KT 270V030 CAVOK 23/04 Q1016,SCRD,2022-10-31T19:00:00Z,-33.07,-71.55,23.0,4.0,350,7,,6.21,30.0,,,,,,,,,,,CAVOK,,,,,,,,VFR,,,,,,,,,,,,METAR,342.0
SCQP 311900Z 17010KT CAVOK 21/08 Q1026,SCQP,2022-10-31T19:00:00Z,-38.92,-72.65,21.0,8.0,170,10,,6.21,30.295275,,,,,,,,,,,CAVOK,,,,,,,,VFR,,,,,,,,,,,,METAR,97.0
SCPQ 311900Z 13006KT 090V190 CAVOK 14/06 Q1032,SCPQ,2022-10-31T19:00:00Z,-42.33,-73.72,14.0,6.0,130,6,,6.21,30.47244,,,,,,,,,,,CAVOK,,,,,,,,VFR,,,,,,,,,,,,METAR,166.0
SCPD 311900Z 18011KT 140V220 CAVOK 27/M01 Q1014,SCPD,2022-10-31T19:00:00Z,,,27.0,-1.0,180,11,,6.21,29.940945,,,,,,,,,,,CAVOK,,,,,,,,VFR,,,,,,,,,,,,METAR,
SCON 311900Z AUTO 21004KT 180V250 CAVOK 14/05 Q1033,SCON,2022-10-31T19:00:00Z,-43.13,-73.62,14.0,5.0,210,4,,6.21,30.501968,,,TRUE,,,,,,,,CAVOK,,,,,,,,VFR,,,,,,,,,,,,METAR,11.0
SCMK 311900Z 12005KT CAVOK 15/06 Q1033,SCMK,2022-10-31T19:00:00Z,-43.9,-73.73,15.0,6.0,120,5,,6.21,30.501968,,,,,,,,,,,CAVOK,,,,,,,,VFR,,,,,,,,,,,,METAR,22.0
SCJO 311900Z 19010KT 150V240 CAVOK 17/06 Q1030,SCJO,2022-10-31T19:00:00Z,-40.6,-73.05,17.0,6.0,190,10,,6.21,30.413385,,,,,,,,,,,CAVOK,,,,,,,,VFR,,,,,,,,,,,,METAR,61.0
SCIR 311900Z 13014G24KT 4000 HZ SCT015 14/09 Q1029,SCIR,2022-10-31T19:00:00Z,-33.67,-78.93,14.0,9.0,130,14,24,2.49,30.383858,,,,,,,,,,HZ,SCT,1500,,,,,,,IFR,,,,,,,,,,,,METAR,132.0
SCIP 311900Z 11014KT 9999 -SHRA BKN035 21/17 Q1020 NOSIG,SCIP,2022-10-31T19:00:00Z,-27.17,-109.43,21.0,17.0,110,14,,6.21,30.11811,,,,,,TRUE,,,,-SHRA,BKN,3500,,,,,,,VFR,,,,,,,,,,,,METAR,48.0
SCIE 311900Z 16015KT CAVOK 26/M04 Q1021,SCIE,2022-10-31T19:00:00Z,-36.77,-73.07,26.0,-4.0,160,15,,6.21,30.147638,,,,,,,,,,,CAVOK,,,,,,,,VFR,,,,,,,,,,,,METAR,8.0
SCIC 311900Z 19009KT CAVOK 31/M16 Q1014,SCIC,2022-10-31T19:00:00Z,-34.97,-71.22,31.0,-16.0,190,9,,6.21,29.940945,,,,,,,,,,,CAVOK,,,,,,,,VFR,,,,,,,,,,,,METAR,230.0
SCGE 311900Z 17014KT CAVOK 25/04 Q1023,SCGE,2022-10-31T19:00:00Z,-37.4,-72.42,25.0,4.0,170,14,,6.21,30.206694,,,,,,,,,,,CAVOK,,,,,,,,VFR,,,,,,,,,,,,METAR,122.0
SCFA 311900Z 20011KT CAVOK 17/10 Q1014 NOSIG,SCFA,2022-10-31T19:00:00Z,-23.43,-70.43,17.0,10.0,200,11,,6.21,29.940945,,,,,,TRUE,,,,,CAVOK,,,,,,,,VFR,,,,,,,,,,,,METAR,113.0
SCEL 311900Z 18010KT 130V210 CAVOK 28/M05 Q1013 NOSIG,SCEL,2022-10-31T19:00:00Z,-33.38,-70.78,28.0,-5.0,180,10,,6.21,29.911417,,,,,,TRUE,,,,,CAVOK,,,,,,,,VFR,,,,,,,,,,,,METAR,478.0
SCDA 311900Z 22016KT CAVOK 19/12 Q1014,SCDA,2022-10-31T19:00:00Z,-20.53,-70.17,19.0,12.0,220,16,,6.21,29.940945,,,,,,,,,,,CAVOK,,,,,,,,VFR,,,,,,,,,,,,METAR,41.0
SCCY 311900Z VRB07KT 9999 FEW040 18/M02 Q1028,SCCY,2022-10-31T19:00:00Z,-45.58,-72.1,18.0,-2.0,0,7,,6.21,30.35433,,,,,,,,,,,FEW,4000,,,,,,,VFR,,,,,,,,,,,,METAR,301.0
SCCI 311900Z 29028G42KT 9999 -SHRA SCT030 BKN080 11/04 Q1008 NOSIG,SCCI,2022-10-31T19:00:00Z,-53.0,-70.85,11.0,4.0,290,28,42,6.21,29.763779,,,,,,TRUE,,,,-SHRA,SCT,3000,BKN,8000,,,,,VFR,,,,,,,,,,,,METAR,37.0
SCCH 311900Z 21016KT CAVOK 26/01 Q1020,SCCH,2022-10-31T19:00:00Z,-36.57,-72.02,26.0,1.0,210,16,,6.21,30.11811,,,,,,,,,,,CAVOK,,,,,,,,VFR,,,,,,,,,,,,METAR,148.0
SCCF 311900Z 27019KT CAVOK 22/M14 Q1024,SCCF,2022-10-31T19:00:00Z,-22.5,-68.9,22.0,-14.0,270,19,,6.21,30.236221,,,,,,,,,,,CAVOK,,,,,,,,VFR,,,,,,,,,,,,METAR,2290.0
SCBA 311900Z 30027KT CAVOK 16/M02 Q1025,SCBA,2022-10-31T19:00:00Z,-45.92,-71.68,16.0,-2.0,300,27,,6.21,30.265747,,,,,,,,,,,CAVOK,,,,,,,,VFR,,,,,,,,,,,,METAR,516.0
SCAT 311900Z 30009KT 260V010 CAVOK 18/10 Q1015,SCAT,2022-10-31T19:00:00Z,-27.27,-70.77,18.0,10.0,300,9,,6.21,29.970472,,,,,,,,,,,CAVOK,,,,,,,,VFR,,,,,,,,,,,,METAR,209.0
SCAR 311900Z 21012KT CAVOK 19/12 Q1014,SCAR,2022-10-31T19:00:00Z,-18.35,-70.33,19.0,12.0,210,12,,6.21,29.940945,,,,,,,,,,,CAVOK,,,,,,,,VFR,,,,,,,,,,,,METAR,57.0
SCAP 311900Z AUTO 22009KT 180V270 9999 ////// 20/M04 Q1032,SCAP,2022-10-31T19:00:00Z,-43.62,-71.8,20.0,-4.0,220,9,,6.21,30.47244,,,TRUE,,,,,,,,,,,,,,,,,,,,,,,,,,,,METAR,252.0
SBYS 311900Z 11003KT 070V160 9999 BKN011 SCT045 23/21 Q1011,SBYS,2022-10-31T19:00:00Z,-21.97,-47.33,23.0,21.0,110,3,,6.21,29.852362,,,,,,,,,,,BKN,1100,SCT,4500,,,,,MVFR,,,,,,,,,,,,METAR,600.0
SBVT 311900Z 05017KT 9999 FEW025 SCT100 28/23 Q1008,SBVT,2022-10-31T19:00:00Z,-20.25,-40.28,28.0,23.0,50,17,,6.21,29.763779,,,,,,,,,,,FEW,2500,SCT,10000,,,,,VFR,,,,,,,,,,,,METAR,4.0
SBVH 311900Z 30009KT 9999 FEW030 31/20 Q1010,SBVH,2022-10-31T19:00:00Z,-12.68,-60.08,31.0,20.0,300,9,,6.21,29.822834,,,,,,,,,,,FEW,3000,,,,,,,VFR,,,,,,,,,,,,METAR,615.0
SBUY 311900Z 15006KT 9999 SCT030 33/25 Q1005,SBUY,2022-10-31T19:00:00Z,-4.88,-65.35,33.0,25.0,150,6,,6.21,29.675198,,,,,,,,,,,SCT,3000,,,,,,,VFR,,,,,,,,,,,,METAR,44.0
SBUR 311900Z 34010KT 9999 -RA SCT040 22/21 Q1012 RETS,SBUR,2022-10-31T19:00:00Z,-19.77,-47.97,22.0,21.0,340,10,,6.21,29.88189,,,,,,,,,,-RA,SCT,4000,,,,,,,VFR,,,,,,,,,,,,METAR,807.0
SBUL 311900Z 28007KT 9999 -RA FEW020 SCT025 BKN100 22/17 Q1013 RETS,SBUL,2022-10-31T19:00:00Z,-18.87,-48.22,22.0,17.0,280,7,,6.21,29.911417,,,,,,,,,,-RA,FEW,2000,SCT,2500,BKN,10000,,,VFR,,,,,,,,,,,,METAR,945.0
SBUF 311900Z 19005KT 9999 FEW025 37/11 Q1009,SBUF,2022-10-31T19:00:00Z,-9.4,-38.25,37.0,11.0,190,5,,6.21,29.793306,,,,,,,,,,,FEW,2500,,,,,,,VFR,,,,,,,,,,,,METAR,266.0
SBUA 311900Z 01007KT 340V050 9999 SCT035 FEW040TCU 33/24 Q1006,SBUA,2022-10-31T19:00:00Z,-0.15,-66.98,33.0,24.0,10,7,,6.21,29.704725,,,,,,,,,,,SCT,3500,FEW,4000,,,,,VFR,,,,,,,,,,,,METAR,73.0
SBTU 311900Z AUTO 16008KT 130V200 //// // FEW043/// 32/22 Q1009,SBTU,2022-10-31T19:00:00Z,-3.78,-49.72,32.0,22.0,160,8,,,29.793306,,,TRUE,,,,,,,,FEW,4300,,,,,,,,,,,,,,,,,,,METAR,250.0
SBTT 311900Z 13003KT 9999 SCT030 32/24 Q1007,SBTT,2022-10-31T19:00:00Z,-4.25,-69.93,32.0,24.0,130,3,,6.21,29.734253,,,,,,,,,,,SCT,3000,,,,,,,VFR,,,,,,,,,,,,METAR,79.0
SBTF 311900Z 11006KT 9999 SCT023 35/26 Q1006,SBTF,2022-10-31T19:00:00Z,-3.37,-64.72,35.0,26.0,110,6,,6.21,29.704725,,,,,,,,,,,SCT,2300,,,,,,,VFR,,,,,,,,,,,,METAR,55.0
SBTE 311900Z 18005KT 9999 FEW040 38/16 Q1005,SBTE,2022-10-31T19:00:00Z,-5.05,-42.82,38.0,16.0,180,5,,6.21,29.675198,,,,,,,,,,,FEW,4000,,,,,,,VFR,,,,,,,,,,,,METAR,60.0
SBTD 311900Z 23020KT 7000 FEW003 BKN005 16/16 Q1012,SBTD,2022-10-31T19:00:00Z,-24.68,-53.7,16.0,16.0,230,20,,4.35,29.88189,,,,,,,,,,,FEW,300,BKN,500,,,,,IFR,,,,,,,,,,,,METAR,558.0
SBTA 311900Z 10003KT 070V130 9999 FEW045 SCT100 23/20 Q1010,SBTA,2022-10-31T19:00:00Z,-23.03,-45.5,23.0,20.0,100,3,,6.21,29.822834,,,,,,,,,,,FEW,4500,SCT,10000,,,,,VFR,,,,,,,,,,,,METAR,578.0
SBSV 311900Z 09013KT 9999 FEW020 28/24 Q1011,SBSV,2022-10-31T19:00:00Z,-12.9,-38.32,28.0,24.0,90,13,,6.21,29.852362,,,,,,,,,,,FEW,2000,,,,,,,VFR,,,,,,,,,,,,METAR,9.0
SBST 311900Z 34002KT 9999 -DZ FEW010 SCT030 OVC040 25/21 Q1008,SBST,2022-10-31T19:00:00Z,-23.92,-46.3,25.0,21.0,340,2,,6.21,29.763779,,,,,,,,,,-DZ,FEW,1000,SCT,3000,OVC,4000,,,VFR,,,,,,,,,,,,METAR,5.0
SBSR 311900Z 00000KT 9999 FEW020TCU SCT025 BKN070 22/22 Q1008 RETS,SBSR,2022-10-31T19:00:00Z,-20.8,-49.4,22.0,22.0,0,0,,6.21,29.763779,,,,,,,,,,,FEW,2000,SCT,2500,BKN,7000,,,VFR,,,,,,,,,,,,METAR,537.0
SBSP 311900Z 17006KT 110V220 9999 FEW009 SCT026 BKN046 20/18 Q1012,SBSP,2022-10-31T19:00:00Z,-23.62,-46.65,20.0,18.0,170,6,,6.21,29.88189,,,,,,,,,,,FEW,900,SCT,2600,BKN,4600,,,VFR,,,,,,,,,,,,METAR,802.0
SBSN 311900Z 09011KT 9999 SCT020 33/25 Q1007,SBSN,2022-10-31T19:00:00Z,-2.42,-54.78,33.0,25.0,90,11,,6.21,29.734253,,,,,,,,,,,SCT,2000,,,,,,,VFR,,,,,,,,,,,,METAR,57.0
SBSM 311900Z 28003KT 9999 FEW025 BKN040 BKN070 12/07 Q1023,SBSM,2022-10-31T19:00:00Z,-29.72,-53.7,12.0,7.0,280,3,,6.21,30.206694,,,,,,,,,,,FEW,2500,BKN,4000,BKN,7000,,,VFR,,,,,,,,,,,,METAR,86.0
SBSL 311900Z 04016KT 9999 FEW030 32/22 Q1008,SBSL,2022-10-31T19:00:00Z,-2.58,-44.23,32.0,22.0,40,16,,6.21,29.763779,,,,,,,,,,,FEW,3000,,,,,,,VFR,,,,,,,,,,,,METAR,53.0
SBSJ 311900Z 11002KT 9999 FEW011 BKN070 24/21 Q1011,SBSJ,2022-10-31T19:00:00Z,-23.22,-45.87,24.0,21.0,110,2,,6.21,29.852362,,,,,,,,,,,FEW,1100,BKN,7000,,,,,VFR,,,,,,,,,,,,METAR,640.0
SBSG 311900Z 16012KT 130V210 CAVOK 30/19 Q1010,SBSG,2022-10-31T19:00:00Z,-5.77,-35.37,30.0,19.0,160,12,,6.21,29.822834,,,,,,,,,,,CAVOK,,,,,,,,VFR,,,,,,,,,,,,METAR,83.0
SBSC 311900Z 16012KT 8000 TS SCT010 BKN025 FEW030CB OVC070 26/23 Q1008,SBSC,2022-10-31T19:00:00Z,-22.92,-43.72,26.0,23.0,160,12,,4.97,29.763779,,,,,,,,,,TS,SCT,1000,BKN,2500,FEW,3000,OVC,7000,MVFR,,,,,,,,,,,,METAR,6.0
SBRP 311900Z 08003KT 4500 -TSRA BKN030 FEW033CB OVC070 22/22 Q1010 RERA,SBRP,2022-10-31T19:00:00Z,-21.13,-47.77,22.0,22.0,80,3,,2.8,29.822834,,,,,,,,,,-TSRA,BKN,3000,FEW,3300,OVC,7000,,,IFR,,,,,,,,,,,,METAR,550.0
SBRF 311900Z 12007KT 050V150 9999 FEW025 28/21 Q1011,SBRF,2022-10-31T19:00:00Z,-8.13,-34.92,28.0,21.0,120,7,,6.21,29.852362,,,,,,,,,,,FEW,2500,,,,,,,VFR,,,,,,,,,,,,METAR,10.0
SBRB 311900Z 31007KT 9999 VCSH SCT027 FEW033TCU 35/23 Q1006,SBRB,2022-10-31T19:00:00Z,-9.87,-67.88,35.0,23.0,310,7,,6.21,29.704725,,,,,,,,,,VCSH,SCT,2700,FEW,3300,,,,,VFR,,,,,,,,,,,,METAR,190.0
SBPV 311900Z 35005KT 9999 SCT040 FEW045TCU 33/23 Q1006,SBPV,2022-10-31T19:00:00Z,-8.72,-63.9,33.0,23.0,350,5,,6.21,29.704725,,,,,,,,,,,SCT,4000,FEW,4500,,,,,VFR,,,,,,,,,,,,METAR,89.0
SBPS 311900Z 05007KT 8000 -RA SCT020 BKN040 BKN100 25/23 Q1012,SBPS,2022-10-31T19:00:00Z,-16.43,-39.07,25.0,23.0,50,7,,4.97,29.88189,,,,,,,,,,-RA,SCT,2000,BKN,4000,BKN,10000,,,MVFR,,,,,,,,,,,,METAR,44.0
SBPR 311900Z 12002KT 9999 SCT030 BKN080 23/21 Q1014,SBPR,2022-10-31T19:00:00Z,-19.9,-43.98,23.0,21.0,120,2,,6.21,29.940945,,,,,,,,,,,SCT,3000,BKN,8000,,,,,VFR,,,,,,,,,,,,METAR,936.0
SBPP 311900Z 18014KT 1000 DZ BKN001 OVC070 13/13 Q1016,SBPP,2022-10-31T19:00:00Z,-22.55,-55.7,13.0,13.0,180,14,,0.62,30.0,,,,,,,,,,DZ,BKN,100,OVC,7000,,,,,LIFR,,,,,,,,,,,,METAR,650.0
SBPL 311900Z 09005KT 9999 FEW040 35/17 Q1009,SBPL,2022-10-31T19:00:00Z,-9.37,-40.57,35.0,17.0,90,5,,6.21,29.793306,,,,,,,,,,,FEW,4000,,,,,,,VFR,,,,,,,,,,,,METAR,386.0
SBPK 311900Z 24018KT 9999 SCT030 BKN060 16/04 Q1022,SBPK,2022-10-31T19:00:00Z,-31.72,-52.33,16.0,4.0,240,18,,6.21,30.177166,,,,,,,,,,,SCT,3000,BKN,6000,,,,,VFR,,,,,,,,,,,,METAR,17.0
SBPJ 311900Z 05006KT 9999 FEW030 FEW035TCU SCT100 34/21 Q1007,SBPJ,2022-10-31T19:00:00Z,-10.28,-48.37,34.0,21.0,50,6,,6.21,29.734253,,,,,,,,,,,FEW,3000,FEW,3500,SCT,10000,,,VFR,,,,,,,,,,,,METAR,226.0
SBPF 311900Z 19012KT 170V230 4000 -RA BKN004 OVC010 10/10 Q1018,SBPF,2022-10-31T19:00:00Z,-28.25,-52.33,10.0,10.0,190,12,,2.49,30.059055,,,,,,,,,,-RA,BKN,400,OVC,1000,,,,,LIFR,,,,,,,,,,,,METAR,720.0
SBPB 311900Z 11019KT CAVOK 31/25 Q1007,SBPB,2022-10-31T19:00:00Z,-2.88,-41.72,31.0,25.0,110,19,,6.21,29.734253,,,,,,,,,,,CAVOK,,,,,,,,VFR,,,,,,,,,,,,METAR,3.0
SBPA 311900Z 17012G23KT 4500 -RA OVC036 14/12 Q1019 RERA,SBPA,2022-10-31T19:00:00Z,-30.0,-51.17,14.0,12.0,170,12,23,2.8,30.088583,,,,,,,,,,-RA,OVC,3600,,,,,,,IFR,,,,,,,,,,,,METAR,3.0
SBOI 311900Z 05008KT 9999 SCT040 32/23 Q1009,SBOI,2022-10-31T19:00:00Z,3.85,-51.78,32.0,23.0,50,8,,6.21,29.793306,,,,,,,,,,,SCT,4000,,,,,,,VFR,,,,,,,,,,,,METAR,15.0
SBNT 311900Z 11012KT 9999 FEW035 28/20 Q1010,SBNT,2022-10-31T19:00:00Z,-5.92,-35.25,28.0,20.0,110,12,,6.21,29.822834,,,,,,,,,,,FEW,3500,,,,,,,VFR,,,,,,,,,,,,METAR,51.0
SBNF 311900Z 16008KT 9999 FEW020 BKN040 22/18 Q1009,SBNF,2022-10-31T19:00:00Z,-26.88,-48.65,22.0,18.0,160,8,,6.21,29.793306,,,,,,,,,,,FEW,2000,BKN,4000,,,,,VFR,,,,,,,,,,,,METAR,5.0
SBMT 311900Z 29002KT 9999 SCT029 BKN049 BKN080 22/18 Q1012,SBMT,2022-10-31T19:00:00Z,-23.52,-46.63,22.0,18.0,290,2,,6.21,29.88189,,,,,,,,,,,SCT,2900,BKN,4900,BKN,8000,,,VFR,,,,,,,,,,,,METAR,722.0
SBMS 311900Z 04017KT 9999 FEW030 34/18 Q1007,SBMS,2022-10-31T19:00:00Z,-5.2,-37.37,34.0,18.0,40,17,,6.21,29.734253,,,,,,,,,,,FEW,3000,,,,,,,VFR,,,,,,,,,,,,METAR,23.0
SBMQ 311900Z 07012KT 9999 FEW030 32/24 Q1009,SBMQ,2022-10-31T19:00:00Z,0.05,-51.07,32.0,24.0,70,12,,6.21,29.793306,,,,,,,,,,,FEW,3000,,,,,,,VFR,,,,,,,,,,,,METAR,15.0
SBMO 311900Z 09011KT 9999 FEW033 28/21 Q1011,SBMO,2022-10-31T19:00:00Z,-9.52,-35.78,28.0,21.0,90,11,,6.21,29.852362,,,,,,,,,,,FEW,3300,,,,,,,VFR,,,,,,,,,,,,METAR,116.0
SBMN 311900Z VRB07KT 9999 SCT020 FEW025TCU 36/24 Q1006,SBMN,2022-10-31T19:00:00Z,-3.13,-59.98,36.0,24.0,0,7,,6.21,29.704725,,,,,,,,,,,SCT,2000,FEW,2500,,,,,VFR,,,,,,,,,,,,METAR,71.0
SBMK 311900Z 09006KT 9999 FEW040 FEW045TCU SCT100 26/21 Q1011,SBMK,2022-10-31T19:00:00Z,-16.7,-43.82,26.0,21.0,90,6,,6.21,29.852362,,,,,,,,,,,FEW,4000,FEW,4500,SCT,10000,,,VFR,,,,,,,,,,,,METAR,665.0
SBMG 311900Z 22010KT 9999 SCT015 BKN035 23/19 Q1009,SBMG,2022-10-31T19:00:00Z,-23.48,-52.02,23.0,19.0,220,10,,6.21,29.793306,,,,,,,,,,,SCT,1500,BKN,3500,,,,,VFR,,,,,,,,,,,,METAR,543.0
SBME 311900Z 18007KT 9999 FEW030 29/23 Q1006,SBME,2022-10-31T19:00:00Z,-22.35,-41.77,29.0,23.0,180,7,,6.21,29.704725,,,,,,,,,,,FEW,3000,,,,,,,VFR,,,,,,,,,,,,METAR,2.0
SBMA 311900Z 35005KT 9999 SCT023 FEW025TCU 37/21 Q1006,SBMA,2022-10-31T19:00:00Z,-5.37,-49.13,37.0,21.0,350,5,,6.21,29.704725,,,,,,,,,,,SCT,2300,FEW,2500,,,,,VFR,,,,,,,,,,,,METAR,110.0
SBLS 311900Z 12003KT 050V150 9999 SCT023 BKN080 26/21 Q1013,SBLS,2022-10-31T19:00:00Z,-19.67,-43.88,26.0,21.0,120,3,,6.21,29.911417,,,,,,,,,,,SCT,2300,BKN,8000,,,,,VFR,,,,,,,,,,,,METAR,850.0
SBLO 311900Z 07001KT 9999 BKN025 26/19 Q1009,SBLO,2022-10-31T19:00:00Z,-23.33,-51.12,26.0,19.0,70,1,,6.21,29.793306,,,,,,,,,,,BKN,2500,,,,,,,MVFR,,,,,,,,,,,,METAR,563.0
SBLB 311900Z AUTO 02032KT 9999 NCD 25/22 Q1008 W/////,SBLB,2022-10-31T19:00:00Z,-22.1,-39.92,25.0,22.0,20,32,,6.21,29.763779,,,TRUE,,,,,,,,CLR,,,,,,,,VFR,,,,,,,,,,,,METAR,10.0
SBKP 311900Z 21006KT 9999 VCSH SCT020 FEW050TCU BKN100 24/20 Q1011,SBKP,2022-10-31T19:00:00Z,-23.0,-47.13,24.0,20.0,210,6,,6.21,29.852362,,,,,,,,,,VCSH,SCT,2000,FEW,5000,BKN,10000,,,VFR,,,,,,,,,,,,METAR,659.0
SBKG 311900Z 07013KT 9999 FEW030 30/18 Q1012,SBKG,2022-10-31T19:00:00Z,-7.27,-35.88,30.0,18.0,70,13,,6.21,29.88189,,,,,,,,,,,FEW,3000,,,,,,,VFR,,,,,,,,,,,,METAR,499.0
SBJV 311900Z 13014KT 9000 BKN010 BKN040 23/21 Q1008,SBJV,2022-10-31T19:00:00Z,-26.22,-48.8,23.0,21.0,130,14,,5.59,29.763779,,,,,,,,,,,BKN,1000,BKN,4000,,,,,MVFR,,,,,,,,,,,,METAR,3.0
SBJU 311900Z 18002KT CAVOK 35/13 Q1011,SBJU,2022-10-31T19:00:00Z,-7.22,-39.27,35.0,13.0,180,2,,6.21,29.852362,,,,,,,,,,,CAVOK,,,,,,,,VFR,,,,,,,,,,,,METAR,407.0
SBJR 311900Z 18005KT 9999 SCT030 FEW035TCU SCT040 28/23 Q1007,SBJR,2022-10-31T19:00:00Z,-22.98,-43.37,28.0,23.0,180,5,,6.21,29.734253,,,,,,,,,,,SCT,3000,FEW,3500,SCT,4000,,,VFR,,,,,,,,,,,,METAR,5.0
SBJP 311900Z 09010KT 050V130 9999 FEW030 28/21 Q1011,SBJP,2022-10-31T19:00:00Z,-7.15,-34.95,28.0,21.0,90,10,,6.21,29.852362,,,,,,,,,,,FEW,3000,,,,,,,VFR,,,,,,,,,,,,METAR,66.0
SBJE 311900Z 04018KT CAVOK 32/22 Q1008,SBJE,2022-10-31T19:00:00Z,-2.9,-40.35,32.0,22.0,40,18,,6.21,29.763779,,,,,,,,,,,CAVOK,,,,,,,,VFR,,,,,,,,,,,,METAR,25.0
SBIZ 311900Z 01003KT 9999 SCT030 FEW035TCU 38/21 Q1006,SBIZ,2022-10-31T19:00:00Z,-5.52,-47.45,38.0,21.0,10,3,,6.21,29.704725,,,,,,,,,,,SCT,3000,FEW,3500,,,,,VFR,,,,,,,,,,,,METAR,131.0
SBIP 311900Z AUTO 01009KT CAVOK 27/17 Q1010,SBIP,2022-10-31T19:00:00Z,-19.47,-42.48,27.0,17.0,10,9,,6.21,29.822834,,,TRUE,,,,,,,,CAVOK,,,,,,,,VFR,,,,,,,,,,,,METAR,240.0
SBIL 311900Z 07004KT 9999 SCT025 BKN060 28/25 Q1011,SBIL,2022-10-31T19:00:00Z,-14.8,-39.02,28.0,25.0,70,4,,6.21,29.852362,,,,,,,,,,,SCT,2500,BKN,6000,,,,,VFR,,,,,,,,,,,,METAR,9.0
SBIH 311900Z 06007KT 9999 3000NE FEW020 33/25 Q1006,SBIH,2022-10-31T19:00:00Z,-4.25,-56.0,33.0,25.0,60,7,,6.21,29.704725,,,,,,,,,,,FEW,2000,,,,,,,VFR,,,,,,,,,,,,METAR,30.0
SBHT 311900Z 03005KT 9999 SCT030 33/24 Q1007,SBHT,2022-10-31T19:00:00Z,-3.25,-52.27,33.0,24.0,30,5,,6.21,29.734253,,,,,,,,,,,SCT,3000,,,,,,,VFR,,,,,,,,,,,,METAR,105.0
SBGW 311900Z VRB02KT 9999 FEW025 SCT035 FEW040TCU BKN100 22/21 Q1011,SBGW,2022-10-31T19:00:00Z,-22.78,-45.2,22.0,21.0,0,2,,6.21,29.852362,,,,,,,,,,,FEW,2500,SCT,3500,FEW,4000,BKN,10000,VFR,,,,,,,,,,,,METAR,539.0
SBGR 311900Z 20002KT 9999 SCT035 OVC070 22/20 Q1012,SBGR,2022-10-31T19:00:00Z,-23.42,-46.47,22.0,20.0,200,2,,6.21,29.88189,,,,,,,,,,,SCT,3500,OVC,7000,,,,,VFR,,,,,,,,,,,,METAR,745.0
SBGO 311900Z 24007KT 9999 FEW040 FEW045TCU BKN100 30/19 Q1011,SBGO,2022-10-31T19:00:00Z,-16.62,-49.22,30.0,19.0,240,7,,6.21,29.852362,,,,,,,,,,,FEW,4000,FEW,4500,BKN,10000,,,VFR,,,,,,,,,,,,METAR,740.0
SBGM 311900Z 29010KT 9999 SCT046 35/22 Q1006,SBGM,2022-10-31T19:00:00Z,-10.78,-65.28,35.0,22.0,290,10,,6.21,29.704725,,,,,,,,,,,SCT,4600,,,,,,,VFR,,,,,,,,,,,,METAR,147.0
SBFZ 311900Z 10012KT CAVOK 29/22 Q1009,SBFZ,2022-10-31T19:00:00Z,-3.77,-38.52,29.0,22.0,100,12,,6.21,29.793306,,,,,,,,,,,CAVOK,,,,,,,,VFR,,,,,,,,,,,,METAR,32.0
SBFS 311900Z 03010KT 9999 FEW025 28/26 Q1007,SBFS,2022-10-31T19:00:00Z,-22.02,-41.07,28.0,26.0,30,10,,6.21,29.734253,,,,,,,,,,,FEW,2500,,,,,,,VFR,,,,,,,,,,,,METAR,3.0
SBFL 311900Z 19024G37KT 9999 SCT030 BKN060 20/15 Q1010,SBFL,2022-10-31T19:00:00Z,-27.67,-48.53,20.0,15.0,190,24,37,6.21,29.822834,,,,,,,,,,,SCT,3000,BKN,6000,,,,,VFR,,,,,,,,,,,,METAR,5.0
SBES 311900Z 22007KT 170V250 9999 FEW025 FEW030TCU 29/21 Q1007,SBES,2022-10-31T19:00:00Z,-22.82,-42.1,29.0,21.0,220,7,,6.21,29.734253,,,,,,,,,,,FEW,2500,FEW,3000,,,,,VFR,,,,,,,,,,,,METAR,16.0
SBEG 311900Z 01007KT 340V050 9999 SCT020 FEW025TCU 35/23 Q1006,SBEG,2022-10-31T19:00:00Z,-3.03,-60.03,35.0,23.0,10,7,,6.21,29.704725,,,,,,,,,,,SCT,2000,FEW,2500,,,,,VFR,,,,,,,,,,,,METAR,69.0
SBDN 311900Z 14004KT CAVOK 26/20 Q1007,SBDN,2022-10-31T19:00:00Z,-22.18,-51.43,26.0,20.0,140,4,,6.21,29.734253,,,,,,,,,,,CAVOK,,,,,,,,VFR,,,,,,,,,,,,METAR,438.0
SBCZ 311900Z 36007KT 9999 BKN035 33/23 Q1007,SBCZ,2022-10-31T19:00:00Z,-7.58,-72.77,33.0,23.0,360,7,,6.21,29.734253,,,,,,,,,,,BKN,3500,,,,,,,VFR,,,,,,,,,,,,METAR,193.0
SBCY 311900Z 14005KT 9999 FEW025TCU SCT030 BKN100 24/23 Q1009 RETS,SBCY,2022-10-31T19:00:00Z,-15.65,-56.12,24.0,23.0,140,5,,6.21,29.793306,,,,,,,,,,,FEW,2500,SCT,3000,BKN,10000,,,VFR,,,,,,,,,,,,METAR,182.0
SBCX 311900Z 21012KT 4000 1500SE -RA BCFG OVC001 09/// Q1018,SBCX,2022-10-31T19:00:00Z,-29.2,-51.18,,,210,12,,2.49,30.059055,,,,,,,,,,BCFG -RA,OVC,100,,,,,,,LIFR,,,,,,,,,,,,METAR,752.0
SBCP 311900Z 11012KT 9999 -RA SCT020 BKN090 26/24 Q1007 RERA,SBCP,2022-10-31T19:00:00Z,-21.7,-41.3,26.0,24.0,110,12,,6.21,29.734253,,,,,,,,,,-RA,SCT,2000,BKN,9000,,,,,VFR,,,,,,,,,,,,METAR,15.0
SBCO 311900Z 17013KT 4500 RA BKN013 OVC025 14/12 Q1019,SBCO,2022-10-31T19:00:00Z,-29.95,-51.15,14.0,12.0,170,13,,2.8,30.088583,,,,,,,,,,RA,BKN,1300,OVC,2500,,,,,IFR,,,,,,,,,,,,METAR,8.0
SBCJ 311900Z 02003KT 7000 FEW030 30/22 Q1012,SBCJ,2022-10-31T19:00:00Z,-6.12,-50.0,30.0,22.0,20,3,,4.35,29.88189,,,,,,,,,,,FEW,3000,,,,,,,MVFR,,,,,,,,,,,,METAR,634.0
SBCH 311900Z 20010KT 7000 -RA BKN004 OVC020 13/13 Q1016,SBCH,2022-10-31T19:00:00Z,-27.13,-52.67,13.0,13.0,200,10,,4.35,30.0,,,,,,,,,,-RA,BKN,400,OVC,2000,,,,,LIFR,,,,,,,,,,,,METAR,639.0
SBCF 311900Z VRB02KT 9999 VCSH BKN030 FEW035TCU BKN080 27/20 Q1013,SBCF,2022-10-31T19:00:00Z,-19.63,-43.97,27.0,20.0,0,2,,6.21,29.911417,,,,,,,,,,VCSH,BKN,3000,FEW,3500,BKN,8000,,,MVFR,,,,,,,,,,,,METAR,825.0
SBCC 311900Z 29010KT 9999 SCT025 32/22 Q1007,SBCC,2022-10-31T19:00:00Z,-9.33,-54.95,32.0,22.0,290,10,,6.21,29.734253,,,,,,,,,,,SCT,2500,,,,,,,VFR,,,,,,,,,,,,METAR,540.0
SBCB 311900Z 15005KT 9999 FEW025 30/21 Q1007,SBCB,2022-10-31T19:00:00Z,-22.92,-42.08,30.0,21.0,150,5,,6.21,29.734253,,,,,,,,,,,FEW,2500,,,,,,,VFR,,,,,,,,,,,,METAR,3.0
SBCA 311900Z 20010G20KT 8000 3000SW -DZ SCT002 BKN004 BKN012 15/14 Q1014,SBCA,2022-10-31T19:00:00Z,-25.0,-53.5,15.0,14.0,200,10,20,4.97,29.940945,,,,,,,,,,-DZ,SCT,200,BKN,400,BKN,1200,,,LIFR,,,,,,,,,,,,METAR,753.0
SBBW 311900Z 27008KT 9999 FEW007 BKN080 OVC090 23/23 Q1011 RETS,SBBW,2022-10-31T19:00:00Z,-15.87,-52.38,23.0,23.0,270,8,,6.21,29.852362,,,,,,,,,,,FEW,700,BKN,8000,OVC,9000,,,VFR,,,,,,,,,,,,METAR,354.0
SBBU 311900Z 12008KT 9999 SCT025 BKN070 23/21 Q1009,SBBU,2022-10-31T19:00:00Z,-22.33,-49.07,23.0,21.0,120,8,,6.21,29.793306,,,,,,,,,,,SCT,2500,BKN,7000,,,,,VFR,,,,,,,,,,,,METAR,616.0
SBBR 311900Z 30005KT 250V330 9999 FEW040 FEW045TCU BKN100 28/18 Q1013,SBBR,2022-10-31T19:00:00Z,-15.87,-47.92,28.0,18.0,300,5,,6.21,29.911417,,,,,,,,,,,FEW,4000,FEW,4500,BKN,10000,,,VFR,,,,,,,,,,,,METAR,1051.0
SBBQ 311900Z 35007KT 320V020 4000 -TSRA SCT008 FEW020CB BKN025 20/18 Q1016 RERA,SBBQ,2022-10-31T19:00:00Z,-21.25,-43.77,20.0,18.0,350,7,,2.49,30.0,,,,,,,,,,-TSRA,SCT,800,FEW,2000,BKN,2500,,,IFR,,,,,,,,,,,,METAR,1106.0
SBBI 311900Z 11005G15KT 9999 SCT010 FEW030TCU BKN070 20/17 Q1011,SBBI,2022-10-31T19:00:00Z,-25.4,-49.23,20.0,17.0,110,5,15,6.21,29.852362,,,,,,,,,,,SCT,1000,FEW,3000,BKN,7000,,,VFR,,,,,,,,,,,,METAR,928.0
SBBH 311900Z 20003KT 9999 SCT040 SCT100 25/20 Q1013 RETS,SBBH,2022-10-31T19:00:00Z,-19.85,-43.95,25.0,20.0,200,3,,6.21,29.911417,,,,,,,,,,,SCT,4000,SCT,10000,,,,,VFR,,,,,,,,,,,,METAR,799.0
SBBE 311900Z 34012KT 9999 SCT040 BKN070 31/25 Q1008,SBBE,2022-10-31T19:00:00Z,-1.37,-48.47,31.0,25.0,340,12,,6.21,29.763779,,,,,,,,,,,SCT,4000,BKN,7000,,,,,VFR,,,,,,,,,,,,METAR,16.0
SBAX 311900Z 27009KT 8000 -RA SCT006 OVC030 19/19 Q1014 RERA,SBAX,2022-10-31T19:00:00Z,-19.57,-46.97,19.0,19.0,270,9,,4.97,29.940945,,,,,,,,,,-RA,SCT,600,OVC,3000,,,,,MVFR,,,,,,,,,,,,METAR,989.0
SBAT 311900Z 36016G26KT 9999 SHRA TS BKN030 FEW035CB 29/23 Q1008,SBAT,2022-10-31T19:00:00Z,-9.87,-56.1,29.0,23.0,360,16,26,6.21,29.763779,,,,,,,,,,SHRA TS,BKN,3000,FEW,3500,,,,,MVFR,,,,,,,,,,,,METAR,287.0
SBAR 311900Z 09014KT 9999 FEW023 28/22 Q1010,SBAR,2022-10-31T19:00:00Z,-10.98,-37.07,28.0,22.0,90,14,,6.21,29.822834,,,,,,,,,,,FEW,2300,,,,,,,VFR,,,,,,,,,,,,METAR,4.0
SBAN 311900Z 16004KT 9999 BKN035 FEW040TCU SCT100 27/18 Q1013,SBAN,2022-10-31T19:00:00Z,-16.22,-48.97,27.0,18.0,160,4,,6.21,29.911417,,,,,,,,,,,BKN,3500,FEW,4000,SCT,10000,,,VFR,,,,,,,,,,,,METAR,1131.0
SBAF 311900Z 23013KT 9999 SCT048 27/23 Q1007,SBAF,2022-10-31T19:00:00Z,-22.87,-43.38,27.0,23.0,230,13,,6.21,29.734253,,,,,,,,,,,SCT,4800,,,,,,,VFR,,,,,,,,,,,,METAR,34.0
SAZS 311900Z 29007KT CAVOK 17/M09 Q1029 RMK PP///,SAZS,2022-10-31T19:00:00Z,-41.15,-71.17,17.0,-9.0,290,7,,6.21,30.383858,,,,,,,,,,,CAVOK,,,,,,,,VFR,,,,,,,,,,,,SPECI,843.0
SAZN 311900Z 32008KT CAVOK 21/M13 Q1029,SAZN,2022-10-31T19:00:00Z,-38.95,-68.15,21.0,-13.0,320,8,,6.21,30.383858,,,,,,,,,,,CAVOK,,,,,,,,VFR,,,,,,,,,,,,METAR,273.0
SAZM 311900Z 20010KT 170V250 9999 SCT030 BKN042 12/05 Q1028 RMK PP///,SAZM,2022-10-31T19:00:00Z,-37.92,-57.57,12.0,5.0,200,10,,6.21,30.35433,,,,,,,,,,,SCT,3000,BKN,4200,,,,,VFR,,,,,,,,,,,,SPECI,17.0
SAWH 311900Z 24018G28KT 9999 -RA FEW025 BKN035 09/04 Q1002 RMK PP999,SAWH,2022-10-31T19:00:00Z,-54.85,-68.3,9.0,4.0,240,18,28,6.21,29.586615,,,,,,,,,,-RA,FEW,2500,BKN,3500,,,,,VFR,,,,,,,,,,,,METAR,22.0
SAWE 311900Z 29032KT 9999 -DZ FEW040 12/03 Q1006 RMK PP999,SAWE,2022-10-31T19:00:00Z,-53.78,-67.75,12.0,3.0,290,32,,6.21,29.704725,,,,,,,,,,-DZ,FEW,4000,,,,,,,VFR,,,,,,,,,,,,SPECI,22.0
SAVC 311900Z 08011KT CAVOK 19/M00 Q1023 RMK PP000,SAVC,2022-10-31T19:00:00Z,-45.78,-67.47,19.0,0.0,80,11,,6.21,30.206694,,,,,,,,,,,CAVOK,,,,,,,,VFR,,,,,,,,,,,,SPECI,58.0
SASJ 311900Z 17009KT 140V210 9999 SCT045 OVC100 17/M05 Q1028 RMK PP000,SASJ,2022-10-31T19:00:00Z,-24.38,-65.1,17.0,-5.0,170,9,,6.21,30.35433,,,,,,,,,,,SCT,4500,OVC,10000,,,,,VFR,,,,,,,,,,,,SPECI,913.0
SASA 311900Z 08008KT 040V140 9999 OVC068 12/M06 Q1029 PP000,SASA,2022-10-31T19:00:00Z,-24.85,-65.48,12.0,-6.0,80,8,,6.21,30.383858,,,,,,,,,,,OVC,6800,,,,,,,VFR,,,,,,,,,,,,SPECI,1235.0
SARP 311900Z 16013KT 9999 -RA NSC 11/05 Q1023,SARP,2022-10-31T19:00:00Z,-27.38,-55.97,11.0,5.0,160,13,,6.21,30.206694,,,,,,,,,,-RA,CLR,,,,,,,,VFR,,,,,,,,,,,,METAR,123.0
SARL 311900Z 18020G33KT 9999 BKN020 18/04 Q1024,SARL,2022-10-31T19:00:00Z,-29.68,-57.15,18.0,4.0,180,20,33,6.21,30.236221,,,,,,,,,,,BKN,2000,,,,,,,MVFR,,,,,,,,,,,,METAR,70.0
SARI 311900Z VRB07G17KT 8000 -DZ BKN008 OVC011 14/13 Q1016 RMK PP999,SARI,2022-10-31T19:00:00Z,-25.73,-54.47,14.0,13.0,0,7,17,4.97,30.0,,,,,,,,,,-DZ,BKN,800,OVC,1100,,,,,IFR,,,,,,,,,,,,SPECI,268.0
SARE 311900Z 18019KT CAVOK 19/02 Q1025 RMK PP///,SARE,2022-10-31T19:00:00Z,-27.43,-59.05,19.0,2.0,180,19,,6.21,30.265747,,,,,,,,,,,CAVOK,,,,,,,,VFR,,,,,,,,,,,,SPECI,52.0
SARC 311900Z 18020KT 9999 BKN018 SCT100 20/01 Q1024,SARC,2022-10-31T19:00:00Z,-27.43,-58.77,20.0,1.0,180,20,,6.21,30.236221,,,,,,,,,,,BKN,1800,SCT,10000,,,,,MVFR,,,,,,,,,,,,METAR,60.0
SAOC 311900Z 18012G25KT CAVOK 17/M07 Q1031,SAOC,2022-10-31T19:00:00Z,-33.08,-64.27,17.0,-7.0,180,12,25,6.21,30.442913,,,,,,,,,,,CAVOK,,,,,,,,VFR,,,,,,,,,,,,METAR,422.0
SANT 311900Z 23012KT 200V290 9000 FEW080 BKN110 19/M03 Q1030 RMK PP000,SANT,2022-10-31T19:00:00Z,-26.85,-65.1,19.0,-3.0,230,12,,5.59,30.413385,,,,,,,,,,,FEW,8000,BKN,11000,,,,,VFR,,,,,,,,,,,,SPECI,446.0
SAME 311900Z 36005G15KT CAVOK 17/M010 Q1031,SAME,2022-10-31T19:00:00Z,-32.82,-68.78,,,360,5,15,6.21,30.442913,,,,,,,,,,,CAVOK,,,,,,,,VFR,,,,,,,,,,,,SPECI,709.0
SAEZ 311900Z 18008G20KT CAVOK 16/M00 Q1028 NOSIG RMK PP000,SAEZ,2022-10-31T19:00:00Z,-34.82,-58.53,16.0,0.0,180,8,20,6.21,30.35433,,,,,,TRUE,,,,,CAVOK,,,,,,,,VFR,,,,,,,,,,,,SPECI,16.0
SADF 311900Z 20012KT CAVOK 17/00 Q1028 RMK PP000,SADF,2022-10-31T19:00:00Z,-34.45,-58.58,17.0,0.0,200,12,,6.21,30.35433,,,,,,,,,,,CAVOK,,,,,,,,VFR,,,,,,,,,,,,METAR,4.0
SACO 311900Z 17014KT 9999 FEW030 17/M13 Q1031 NOSIG RMK PP000,SACO,2022-10-31T19:00:00Z,-31.32,-64.22,17.0,-13.0,170,14,,6.21,30.442913,,,,,,TRUE,,,,,FEW,3000,,,,,,,VFR,,,,,,,,,,,,SPECI,474.0
SABE 311900Z 19007G17KT 140V240 CAVOK 16/00 Q1028 NOSIG RMK PP000,SABE,2022-10-31T19:00:00Z,-34.57,-58.42,16.0,0.0,190,7,17,6.21,30.35433,,,,,,TRUE,,,,,CAVOK,,,,,,,,VFR,,,,,,,,,,,,SPECI,3.0
SAAR 311900Z 20014KT 160V240 CAVOK 19/M03 Q1029 RMK PP000,SAAR,2022-10-31T19:00:00Z,-32.92,-60.77,19.0,-3.0,200,14,,6.21,30.383858,,,,,,,,,,,CAVOK,,,,,,,,VFR,,,,,,,,,,,,SPECI,24.0
RPVM 311900Z 00000KT 9999 FEW020 SCT300 26/24 Q1009 RMK A2980,RPVM,2022-10-31T19:00:00Z,10.32,123.98,26.0,24.0,0,0,,6.21,29.793306,,,,,,,,,,,FEW,2000,SCT,30000,,,,,VFR,,,,,,,,,,,,METAR,9.0
RPMD 311900Z VRB02KT 9999 FEW016 SCT090 26/26 Q1008 RMK A2977,RPMD,2022-10-31T19:00:00Z,7.12,125.65,26.0,26.0,0,2,,6.21,29.763779,,,,,,,,,,,FEW,1600,SCT,9000,,,,,VFR,,,,,,,,,,,,METAR,19.0
RPLL 311900Z 13004KT 100V160 9999 FEW025 SCT300 25/24 Q1005 NOSIG RMK A2968,RPLL,2022-10-31T19:00:00Z,14.52,121.0,25.0,24.0,130,4,,6.21,29.675198,,,,,,TRUE,,,,,FEW,2500,SCT,30000,,,,,VFR,,,,,,,,,,,,METAR,15.0
RPLC 311900Z 19004KT 5000 HZ SCT020 BKN300 25/25 Q1005 RERA RMK A2968,RPLC,2022-10-31T19:00:00Z,15.18,120.55,25.0,25.0,190,4,,3.11,29.675198,,,,,,,,,,HZ,SCT,2000,BKN,30000,,,,,MVFR,,,,,,,,,,,,METAR,138.0
RPLB 311900Z 18012KT 8000 -RA SCT018 OVC070 27/25 Q1005 RMK A2968,RPLB,2022-10-31T19:00:00Z,14.8,120.27,27.0,25.0,180,12,,4.97,29.675198,,,,,,,,,,-RA,SCT,1800,OVC,7000,,,,,MVFR,,,,,,,,,,,,METAR,19.0
ROYN 311900Z AUTO 04031KT 1200 UP BKN008 OVC010 23/// Q1009,ROYN,2022-10-31T19:00:00Z,24.47,122.97,,,40,31,,0.75,29.793306,,,TRUE,,,,,,,UP,BKN,800,OVC,1000,,,,,LIFR,,,,,,,,,,,,METAR,21.0
RORY 311900Z AUTO 07015G25KT 8000 -RA FEW009 SCT010 BKN029 22/21 Q1011,RORY,2022-10-31T19:00:00Z,27.05,128.4,22.0,21.0,70,15,25,4.97,29.852362,,,TRUE,,,,,,,-RA,FEW,900,SCT,1000,BKN,2900,,,MVFR,,,,,,,,,,,,METAR,13.0
RORK 311900Z AUTO 05019KT 4900 -RA BR SCT007 BKN008 BKN010 24/23 Q1010,RORK,2022-10-31T19:00:00Z,25.93,131.32,24.0,23.0,50,19,,3.04,29.822834,,,TRUE,,,,,,,-RA BR,SCT,700,BKN,800,BKN,1000,,,IFR,,,,,,,,,,,,METAR,11.0
ROMD 311900Z AUTO 05008KT 9999 BKN010 OVC018 25/24 Q1010,ROMD,2022-10-31T19:00:00Z,25.83,131.25,25.0,24.0,50,8,,6.21,29.822834,,,TRUE,,,,,,,,BKN,1000,OVC,1800,,,,,MVFR,,,,,,,,,,,,METAR,45.0
RKTU 311900Z 15001KT CAVOK 06/05 Q1023,RKTU,2022-10-31T19:00:00Z,36.7,127.5,6.0,5.0,150,1,,6.21,30.206694,,,,,,,,,,,CAVOK,,,,,,,,VFR,,,,,,,,,,,,METAR,46.0
RKTN 311900Z 11001KT CAVOK 07/05 Q1023,RKTN,2022-10-31T19:00:00Z,35.88,128.65,7.0,5.0,110,1,,6.21,30.206694,,,,,,,,,,,CAVOK,,,,,,,,VFR,,,,,,,,,,,,METAR,25.0
RKSS 311900Z 25001KT 1200 0200SE R32L/1100N R32R/0375U PRFG NSC 07/07 Q1023 NOSIG,RKSS,2022-10-31T19:00:00Z,37.55,126.78,7.0,7.0,250,1,,0.75,30.206694,,,,,,TRUE,,,,PRFG,CLR,,,,,,,,LIFR,,,,,,,,,,,,METAR,18.0
RKSM 311900Z 20001KT 4800 BR FEW015 BKN130 09/08 A3021,RKSM,2022-10-31T19:00:00Z,37.43,127.12,9.0,8.0,200,1,,2.98,30.209646,,,,,,,,,,BR,FEW,1500,BKN,13000,,,,,IFR,,,,,,,,,,,,METAR,18.0
RKPK 311900Z 03005KT 9000 FEW040 11/09 Q1022,RKPK,2022-10-31T19:00:00Z,35.17,128.93,11.0,9.0,30,5,,5.59,30.177166,,,,,,,,,,,FEW,4000,,,,,,,VFR,,,,,,,,,,,,METAR,3.0
RKPC 311900Z 03002KT 9999 FEW030 15/11 Q1021 NOSIG,RKPC,2022-10-31T19:00:00Z,33.5,126.48,15.0,11.0,30,2,,6.21,30.147638,,,,,,TRUE,,,,,FEW,3000,,,,,,,VFR,,,,,,,,,,,,METAR,23.0
RKNY 311900Z AUTO 25006KT 9999 NCD 14/07 Q1020,RKNY,2022-10-31T19:00:00Z,38.07,128.67,14.0,7.0,250,6,,6.21,30.11811,,,TRUE,,,,,,,,CLR,,,,,,,,VFR,,,,,,,,,,,,METAR,76.0
RKJB 311900Z AUTO 11003KT 3600 BR NCD 09/08 Q1022,RKJB,2022-10-31T19:00:00Z,34.98,126.38,9.0,8.0,110,3,,2.24,30.177166,,,TRUE,,,,,,,BR,CLR,,,,,,,,IFR,,,,,,,,,,,,METAR,16.0
RJSM 311900Z 22005KT 9999 FEW030 08/05 Q1026,RJSM,2022-10-31T19:00:00Z,40.7,141.37,8.0,5.0,220,5,,6.21,30.295275,,,,,,,,,,,FEW,3000,,,,,,,VFR,,,,,,,,,,,,METAR,31.0
RJOS 311900Z 29004KT 9999 FEW015 BKN030 BKN050 15/12 Q1019,RJOS,2022-10-31T19:00:00Z,34.12,134.62,15.0,12.0,290,4,,6.21,30.088583,,,,,,,,,,,FEW,1500,BKN,3000,BKN,5000,,,MVFR,,,,,,,,,,,,METAR,3.0
RJOO 311900Z AUTO 08011KT 9999 -RA FEW030 SCT048 BKN050 //////TCU 16/12 Q1020 RMK A3013 TCU 25KM SW MOV NE,RJOO,2022-10-31T19:00:00Z,34.78,135.43,16.0,12.0,80,11,,6.21,30.11811,,,TRUE,,,,,,,-RA,FEW,3000,SCT,4800,BKN,5000,,,VFR,,,,,,,,,,,,SPECI,11.0
RJOH 311900Z 19003KT 9999 FEW050 BKN/// 10/10 Q1019,RJOH,2022-10-31T19:00:00Z,35.48,133.25,10.0,10.0,190,3,,6.21,30.088583,,,,,,,,,,,FEW,5000,,,,,,,VFR,,,,,,,,,,,,METAR,6.0
RJNK 311900Z 16002KT 9999 FEW030 BKN050 12/10 Q1020,RJNK,2022-10-31T19:00:00Z,36.38,136.42,12.0,10.0,160,2,,6.21,30.11811,,,,,,,,,,,FEW,3000,BKN,5000,,,,,VFR,,,,,,,,,,,,METAR,7.0
RJKI 311900Z AUTO 08007KT 9999 -RA FEW015 SCT029 BKN034 20/18 Q1012,RJKI,2022-10-31T19:00:00Z,28.32,129.92,20.0,18.0,80,7,,6.21,29.88189,,,TRUE,,,,,,,-RA,FEW,1500,SCT,2900,BKN,3400,,,VFR,,,,,,,,,,,,METAR,6.0
RJKA 311900Z AUTO 08014KT 9999 -RA FEW013 SCT041 BKN060 22/19 Q1012,RJKA,2022-10-31T19:00:00Z,28.42,129.72,22.0,19.0,80,14,,6.21,29.88189,,,TRUE,,,,,,,-RA,FEW,1300,SCT,4100,BKN,6000,,,VFR,,,,,,,,,,,,METAR,7.0
RJFR 311900Z 34005KT CAVOK 15/12 Q1019,RJFR,2022-10-31T19:00:00Z,33.83,131.03,15.0,12.0,340,5,,6.21,30.088583,,,,,,,,,,,CAVOK,,,,,,,,VFR,,,,,,,,,,,,METAR,9.0
RJDB 311900Z AUTO 03010KT 9999 NSC 18/12 Q1018,RJDB,2022-10-31T19:00:00Z,33.75,129.78,18.0,12.0,30,10,,6.21,30.059055,,,TRUE,,,,,,,,CLR,,,,,,,,VFR,,,,,,,,,,,,METAR,13.0
RJAH 311900Z 01004KT 9999 FEW030 SCT/// 07/07 Q1024,RJAH,2022-10-31T19:00:00Z,36.17,140.42,7.0,7.0,10,4,,6.21,30.236221,,,,,,,,,,,FEW,3000,,,,,,,VFR,,,,,,,,,,,,SPECI,31.0
RCSS 311900Z 11005KT 080V140 9999 -RA FEW010 BKN020 BKN040 20/19 Q1012 NOSIG RMK A2991 RA AMT 0.4MM,RCSS,2022-10-31T19:00:00Z,25.07,121.55,20.0,19.0,110,5,,6.21,29.88189,,,,,,TRUE,,,,-RA,FEW,1000,BKN,2000,BKN,4000,,,MVFR,,,,,,,,,,,,SPECI,8.0
RCMQ 311900Z 01022G32KT 9999 -RA SCT008 BKN025 BKN050 20/17 Q1006 RMK A2971 AWOS R36 N/A,RCMQ,2022-10-31T19:00:00Z,24.27,120.62,20.0,17.0,10,22,32,6.21,29.704725,,,,TRUE,,,,,,-RA,SCT,800,BKN,2500,BKN,5000,,,MVFR,,,,,,,,,,,,SPECI,202.0
RCKH 311900Z 31005KT 280V340 5000 -RA FEW009 SCT015 BKN070 22/21 Q1004 NOSIG RMK A2966 RA AMT 0.4MM,RCKH,2022-10-31T19:00:00Z,22.57,120.33,22.0,21.0,310,5,,3.11,29.64567,,,,,,TRUE,,,,-RA,FEW,900,SCT,1500,BKN,7000,,,MVFR,,,,,,,,,,,,METAR,6.0
PLCH 311900Z 11008KT 9999 FEW020 28/23 Q1010,PLCH,2022-10-31T19:00:00Z,1.98,-157.35,28.0,23.0,110,8,,6.21,29.822834,,,,,,,,,,,FEW,2000,,,,,,,VFR,,,,,,,,,,,,METAR,5.0
OTHH 311900Z AUTO 12007KT CAVOK 30/21 Q1014 NOSIG,OTHH,2022-10-31T19:00:00Z,25.27,51.6,30.0,21.0,120,7,,6.21,29.940945,,,TRUE,,,TRUE,,,,,CAVOK,,,,,,,,VFR,,,,,,,,,,,,METAR,3.0
OSLK 311900Z 08005KT 9999 FEW026 21/15 Q1015,OSLK,2022-10-31T19:00:00Z,35.4,35.95,21.0,15.0,80,5,,6.21,29.970472,,,,,,,,,,,FEW,2600,,,,,,,VFR,,,,,,,,,,,,METAR,47.0
OSDI 311900Z 23009KT CAVOK 16/05 Q1017,OSDI,2022-10-31T19:00:00Z,33.42,36.52,16.0,5.0,230,9,,6.21,30.029528,,,,,,,,,,,CAVOK,,,,,,,,VFR,,,,,,,,,,,,METAR,614.0
ORSU 311900Z 29004KT CAVOK 12/12 Q1016,ORSU,2022-10-31T19:00:00Z,35.57,45.32,12.0,12.0,290,4,,6.21,30.0,,,,,,,,,,,CAVOK,,,,,,,,VFR,,,,,,,,,,,,METAR,760.0
ORNI 311900Z 28009KT 6000 FEW040 26/03 Q1010 ,ORNI,2022-10-31T19:00:00Z,31.98,44.4,26.0,3.0,280,9,,3.73,29.822834,,,,,,,,,,,FEW,4000,,,,,,,MVFR,,,,,,,,,,,,METAR,33.0
ORER 311900Z 32006KT 9000 FEW040 SCT090 18/09 Q1014,ORER,2022-10-31T19:00:00Z,36.23,43.97,18.0,9.0,320,6,,5.59,29.940945,,,,,,,,,,,FEW,4000,SCT,9000,,,,,VFR,,,,,,,,,,,,METAR,399.0
ORBI 311900Z 29007KT CAVOK 25/08 Q1010 NOSIG,ORBI,2022-10-31T19:00:00Z,33.27,44.23,25.0,8.0,290,7,,6.21,29.822834,,,,,,TRUE,,,,,CAVOK,,,,,,,,VFR,,,,,,,,,,,,METAR,37.0
OPST 311900Z 05004KT 4000 FU FEW040 SCT100 21/16 Q1015 NOSIG 73%,OPST,2022-10-31T19:00:00Z,32.53,74.37,21.0,16.0,50,4,,2.49,29.970472,,,,,,TRUE,,,,FU,FEW,4000,SCT,10000,,,,,IFR,,,,,,,,,,,,METAR,234.0
OPSK 311900Z 00000KT 4000 HZ NSC 23/20 Q1011 NOSIG,OPSK,2022-10-31T19:00:00Z,27.72,68.8,23.0,20.0,0,0,,2.49,29.852362,,,,,,TRUE,,,,HZ,CLR,,,,,,,,IFR,,,,,,,,,,,,METAR,62.0
OPMT 311900Z 00000KT 2500 FU NSC 24/19 Q1012 NOSIG,OPMT,2022-10-31T19:00:00Z,30.2,71.42,24.0,19.0,0,0,,1.55,29.88189,,,,,,TRUE,,,,FU,CLR,,,,,,,,IFR,,,,,,,,,,,,METAR,122.0
OMSJ 311900Z 12003KT 5000 HZ NSC 24/20 Q1015 BECMG 3000 BR,OMSJ,2022-10-31T19:00:00Z,25.32,55.52,24.0,20.0,120,3,,3.11,29.970472,,,,,,,,,,HZ,CLR,,,,,,,,MVFR,,,,,,,,,,,,METAR,33.0
OMRK 311900Z 16004KT 6000 NSC 22/21 Q1015 A2998,OMRK,2022-10-31T19:00:00Z,25.62,55.93,22.0,21.0,160,4,,3.73,29.970472,,,,,,,,,,,CLR,,,,,,,,MVFR,,,,,,,,,,,,METAR,18.0
OMFJ 311900Z 20003KT 7000 NSC 28/22 Q1014 A2995,OMFJ,2022-10-31T19:00:00Z,25.1,56.32,28.0,22.0,200,3,,4.35,29.940945,,,,,,,,,,,CLR,,,,,,,,MVFR,,,,,,,,,,,,METAR,27.0
OMDW 311900Z 09004KT 5000 HZ NSC 24/21 Q1015 BECMG 4000,OMDW,2022-10-31T19:00:00Z,24.9,55.17,24.0,21.0,90,4,,3.11,29.970472,,,,,,,,,,HZ,CLR,,,,,,,,MVFR,,,,,,,,,,,,METAR,34.0
OMDB 311900Z 34005KT 6000 NSC 29/23 Q1014 NOSIG,OMDB,2022-10-31T19:00:00Z,25.25,55.37,29.0,23.0,340,5,,3.73,29.940945,,,,,,TRUE,,,,,CLR,,,,,,,,MVFR,,,,,,,,,,,,METAR,5.0
OMAL 311900Z 01006KT CAVOK 26/17 Q1016 NOSIG,OMAL,2022-10-31T19:00:00Z,24.25,55.6,26.0,17.0,10,6,,6.21,30.0,,,,,,TRUE,,,,,CAVOK,,,,,,,,VFR,,,,,,,,,,,,METAR,247.0
OMAD 311900Z 35003KT 320V020 8000 NSC 28/22 Q1014 NOSIG,OMAD,2022-10-31T19:00:00Z,24.42,54.47,28.0,22.0,350,3,,4.97,29.940945,,,,,,TRUE,,,,,CLR,,,,,,,,MVFR,,,,,,,,,,,,METAR,9.0
OMAA 311900Z 05004KT 8000 NSC 26/22 Q1014 NOSIG,OMAA,2022-10-31T19:00:00Z,24.42,54.65,26.0,22.0,50,4,,4.97,29.940945,,,,,,TRUE,,,,,CLR,,,,,,,,MVFR,,,,,,,,,,,,METAR,13.0
OLBA 311900Z 16005KT 8000 FEW032 23/16 Q1016 NOSIG,OLBA,2022-10-31T19:00:00Z,33.82,35.48,23.0,16.0,160,5,,4.97,30.0,,,,,,TRUE,,,,,FEW,3200,,,,,,,MVFR,,,,,,,,,,,,METAR,29.0
OKBK 311900Z 18007KT 7000 NSC 25/18 Q1012 NOSIG,OKBK,2022-10-31T19:00:00Z,29.22,47.97,25.0,18.0,180,7,,4.35,29.88189,,,,,,TRUE,,,,,CLR,,,,,,,,MVFR,,,,,,,,,,,,METAR,55.0
OJAQ 311900Z 36006KT CAVOK 24/11 Q1014 NOSIG,OJAQ,2022-10-31T19:00:00Z,29.62,35.02,24.0,11.0,360,6,,6.21,29.940945,,,,,,TRUE,,,,,CAVOK,,,,,,,,VFR,,,,,,,,,,,,METAR,45.0
OJAM 311900Z VRB02KT 5000 HZ FEW035 18/11 Q1018 NOSIG,OJAM,2022-10-31T19:00:00Z,31.98,35.98,18.0,11.0,0,2,,3.11,30.059055,,,,,,TRUE,,,,HZ,FEW,3500,,,,,,,MVFR,,,,,,,,,,,,METAR,765.0
OJAI 311900Z 34004KT 5000 HZ FEW030 15/09 Q1018 NOSIG,OJAI,2022-10-31T19:00:00Z,31.72,36.0,15.0,9.0,340,4,,3.11,30.059055,,,,,,TRUE,,,,HZ,FEW,3000,,,,,,,MVFR,,,,,,,,,,,,METAR,723.0
OIZI 311900Z 04006KT CAVOK 24/05 Q1017,OIZI,2022-10-31T19:00:00Z,27.23,60.72,24.0,5.0,40,6,,6.21,30.029528,,,,,,,,,,,CAVOK,,,,,,,,VFR,,,,,,,,,,,,METAR,622.0
OIZH 311900Z 28004KT CAVOK 15/M01 Q1022 A3019,OIZH,2022-10-31T19:00:00Z,29.47,60.92,15.0,-1.0,280,4,,6.21,30.177166,,,,,,,,,,,CAVOK,,,,,,,,VFR,,,,,,,,,,,,METAR,1378.0
OIZB 311900Z 01006KT CAVOK 17/05 Q1017,OIZB,2022-10-31T19:00:00Z,31.1,61.55,17.0,5.0,10,6,,6.21,30.029528,,,,,,,,,,,CAVOK,,,,,,,,VFR,,,,,,,,,,,,METAR,483.0
OITR 311900Z 32004KT 9999 FEW040 06/01 Q1015,OITR,2022-10-31T19:00:00Z,37.67,45.07,6.0,1.0,320,4,,6.21,29.970472,,,,,,,,,,,FEW,4000,,,,,,,VFR,,,,,,,,,,,,METAR,1312.0
OITL 311900Z 18008KT 9999 FEW035 12/06 Q1013,OITL,2022-10-31T19:00:00Z,38.33,48.42,12.0,6.0,180,8,,6.21,29.911417,,,,,,,,,,,FEW,3500,,,,,,,VFR,,,,,,,,,,,,METAR,1314.0
OISY 311900Z 08006KT CAVOK 14/10 Q1025,OISY,2022-10-31T19:00:00Z,30.7,51.55,14.0,10.0,80,6,,6.21,30.265747,,,,,,,,,,,CAVOK,,,,,,,,VFR,,,,,,,,,,,,METAR,1800.0
OISL 311900Z 00000KT CAVOK 18/05 Q1016 A3002,OISL,2022-10-31T19:00:00Z,27.67,54.37,18.0,5.0,0,0,,6.21,30.0,,,,,,,,,,,CAVOK,,,,,,,,VFR,,,,,,,,,,,,METAR,804.0
OISF 311900Z 00000KT CAVOK 16/00 Q1022 A3018,OISF,2022-10-31T19:00:00Z,28.9,53.72,16.0,0.0,0,0,,6.21,30.177166,,,,,,,,,,,CAVOK,,,,,,,,VFR,,,,,,,,,,,,METAR,1305.0
OINZ 311900Z 06002KT 9999 SCT040 BKN090 17/16 Q1009,OINZ,2022-10-31T19:00:00Z,36.63,53.2,17.0,16.0,60,2,,6.21,29.793306,,,,,,,,,,,SCT,4000,BKN,9000,,,,,VFR,,,,,,,,,,,,METAR,8.0
OINR 311900Z 13004KT 9999 FEW025CB SCT030 BKN090 19/16 Q1007,OINR,2022-10-31T19:00:00Z,36.9,50.67,19.0,16.0,130,4,,6.21,29.734253,,,,,,,,,,,FEW,2500,SCT,3000,BKN,9000,,,VFR,,,,,,,,,,,,METAR,-19.0
OINN 311900Z 18006KT 8000 FEW020CB SCT025 BKN090 21/14 Q1007 RETSRA,OINN,2022-10-31T19:00:00Z,36.67,51.47,21.0,14.0,180,6,,4.97,29.734253,,,,,,,,,,,FEW,2000,SCT,2500,BKN,9000,,,MVFR,,,,,,,,,,,,METAR,-25.0
OING 311900Z 24008KT 9999 FEW030 BKN100 17/16 Q1011,OING,2022-10-31T19:00:00Z,36.9,54.4,17.0,16.0,240,8,,6.21,29.852362,,,,,,,,,,,FEW,3000,BKN,10000,,,,,VFR,,,,,,,,,,,,METAR,0.0
OIMS 311900Z 03006KT CAVOK 13/03 Q1018,OIMS,2022-10-31T19:00:00Z,36.17,57.6,13.0,3.0,30,6,,6.21,30.059055,,,,,,,,,,,CAVOK,,,,,,,,VFR,,,,,,,,,,,,METAR,920.0
OIMN 311900Z 08004KT CAVOK 12/03 Q1016,OIMN,2022-10-31T19:00:00Z,37.48,57.3,12.0,3.0,80,4,,6.21,30.0,,,,,,,,,,,CAVOK,,,,,,,,VFR,,,,,,,,,,,,METAR,1065.0
OIMJ 311900Z AUTO 34005KT //// // ////// 12/02 Q1017,OIMJ,2022-10-31T19:00:00Z,36.43,55.1,12.0,2.0,340,5,,,30.029528,,,TRUE,,,,,,,,,,,,,,,,,,,,,,,,,,,,METAR,1285.0
OIMB 311900Z 12004KT CAVOK 12/M04 Q1021 A3017,OIMB,2022-10-31T19:00:00Z,32.9,59.28,12.0,-4.0,120,4,,6.21,30.147638,,,,,,,,,,,CAVOK,,,,,,,,VFR,,,,,,,,,,,,METAR,1512.0
OIKQ 311900Z 00000KT 6000 NSC 26/23 Q1013,OIKQ,2022-10-31T19:00:00Z,26.75,55.9,26.0,23.0,0,0,,3.73,29.911417,,,,,,,,,,,CLR,,,,,,,,MVFR,,,,,,,,,,,,METAR,9.0
OIKK 311900Z 07006KT CAVOK 15/M03 Q1023 A3022,OIKK,2022-10-31T19:00:00Z,30.25,56.97,15.0,-3.0,70,6,,6.21,30.206694,,,,,,,,,,,CAVOK,,,,,,,,VFR,,,,,,,,,,,,METAR,1749.0
OIIP 311900Z 30014KT 9999 SCT040 BKN100 15/06 Q1017 A3004,OIIP,2022-10-31T19:00:00Z,35.78,50.83,15.0,6.0,300,14,,6.21,30.029528,,,,,,,,,,,SCT,4000,BKN,10000,,,,,VFR,,,,,,,,,,,,METAR,1270.0
OIIK 311900Z 05002KT 8000 FEW035 BKN090 11/10 Q1018 RESHRA,OIIK,2022-10-31T19:00:00Z,36.25,50.05,11.0,10.0,50,2,,4.97,30.059055,,,,,,,,,,,FEW,3500,BKN,9000,,,,,MVFR,,,,,,,,,,,,METAR,1278.0
OIIE 311900Z 24006KT CAVOK 17/05 Q1017,OIIE,2022-10-31T19:00:00Z,35.42,51.15,17.0,5.0,240,6,,6.21,30.029528,,,,,,,,,,,CAVOK,,,,,,,,VFR,,,,,,,,,,,,METAR,993.0
OIHH 311900Z 27002KT 9999 FEW035CB SCT040 10/04 Q1020 A3013,OIHH,2022-10-31T19:00:00Z,34.87,48.55,10.0,4.0,270,2,,6.21,30.11811,,,,,,,,,,,FEW,3500,SCT,4000,,,,,VFR,,,,,,,,,,,,METAR,1742.0
OIFS 311900Z 35004KT CAVOK 11/M04 Q1024,OIFS,2022-10-31T19:00:00Z,32.28,50.85,11.0,-4.0,350,4,,6.21,30.236221,,,,,,,,,,,CAVOK,,,,,,,,VFR,,,,,,,,,,,,METAR,2042.0
OICS 311900Z 00000KT 9999 FEW035CB SCT040 13/09 Q1017 A3005,OICS,2022-10-31T19:00:00Z,35.25,47.02,13.0,9.0,0,0,,6.21,30.029528,,,,,,,,,,,FEW,3500,SCT,4000,,,,,VFR,,,,,,,,,,,,METAR,1369.0
OICK 311900Z 27002KT 9999 SCT045 BKN090 20/03 Q1017,OICK,2022-10-31T19:00:00Z,33.43,48.28,20.0,3.0,270,2,,6.21,30.029528,,,,,,,,,,,SCT,4500,BKN,9000,,,,,VFR,,,,,,,,,,,,METAR,1156.0
OICI 311900Z 13010KT 9999 FEW040 SCT090 20/03 Q1019 A3011,OICI,2022-10-31T19:00:00Z,33.58,46.4,20.0,3.0,130,10,,6.21,30.088583,,,,,,,,,,,FEW,4000,SCT,9000,,,,,VFR,,,,,,,,,,,,METAR,1323.0
OICC 311900Z 06010KT 9999 FEW040CB SCT045 BKN090 20/M01 Q1017 A3005,OICC,2022-10-31T19:00:00Z,34.35,47.17,20.0,-1.0,60,10,,6.21,30.029528,,,,,,,,,,,FEW,4000,SCT,4500,BKN,9000,,,VFR,,,,,,,,,,,,METAR,1310.0
OIBP 311900Z 00000KT 8000 NSC 25/22 Q1013 A2993,OIBP,2022-10-31T19:00:00Z,27.38,52.73,25.0,22.0,0,0,,4.97,29.911417,,,,,,,,,,,CLR,,,,,,,,MVFR,,,,,,,,,,,,METAR,13.0
OIBK 311900Z 29004KT 3000 HZ NSC 27/22 Q1014,OIBK,2022-10-31T19:00:00Z,26.53,53.98,27.0,22.0,290,4,,1.86,29.940945,,,,,,,,,,HZ,CLR,,,,,,,,IFR,,,,,,,,,,,,METAR,27.0
OIBJ 311900Z AUTO VRB01KT //// // ////// 21/18 Q1018,OIBJ,2022-10-31T19:00:00Z,27.82,52.35,21.0,18.0,0,1,,,30.059055,,,TRUE,,,,,,,,,,,,,,,,,,,,,,,,,,,,METAR,647.0
OIBB 311900Z 09006KT CAVOK 28/21 Q1013 A2994,OIBB,2022-10-31T19:00:00Z,28.93,50.83,28.0,21.0,90,6,,6.21,29.911417,,,,,,,,,,,CAVOK,,,,,,,,VFR,,,,,,,,,,,,METAR,15.0
OIAM 311900Z 10006KT 4000 BR NSC 27/24 Q1012,OIAM,2022-10-31T19:00:00Z,30.55,49.15,27.0,24.0,100,6,,2.49,29.88189,,,,,,,,,,BR,CLR,,,,,,,,IFR,,,,,,,,,,,,METAR,7.0
OIAH 311900Z 12004KT 4000 BR SCT040TCU 23/20 Q1019,OIAH,2022-10-31T19:00:00Z,30.33,50.83,23.0,20.0,120,4,,2.49,30.088583,,,,,,,,,,BR,SCT,4000,,,,,,,IFR,,,,,,,,,,,,METAR,730.0
OIAA 311900Z 14006KT 5000 HZ NSC 27/22 Q1012,OIAA,2022-10-31T19:00:00Z,30.35,48.22,27.0,22.0,140,6,,3.11,29.88189,,,,,,,,,,HZ,CLR,,,,,,,,MVFR,,,,,,,,,,,,METAR,4.0
OEYN 311900Z 27006KT CAVOK 28/23 Q1010 NOSIG,OEYN,2022-10-31T19:00:00Z,24.13,38.07,28.0,23.0,270,6,,6.21,29.822834,,,,,,TRUE,,,,,CAVOK,,,,,,,,VFR,,,,,,,,,,,,METAR,20.0
OEWJ 311900Z 35004KT CAVOK 27/17 Q1012 NOSIG,OEWJ,2022-10-31T19:00:00Z,26.18,36.47,27.0,17.0,350,4,,6.21,29.88189,,,,,,TRUE,,,,,CAVOK,,,,,,,,VFR,,,,,,,,,,,,METAR,8.0
OEWD 311900Z 11008KT CAVOK 24/11 Q1016 NOSIG,OEWD,2022-10-31T19:00:00Z,20.5,45.2,24.0,11.0,110,8,,6.21,30.0,,,,,,TRUE,,,,,CAVOK,,,,,,,,VFR,,,,,,,,,,,,METAR,629.0
OETR 311900Z 27008KT CAVOK 18/10 Q1016 NOSIG,OETR,2022-10-31T19:00:00Z,31.7,38.73,18.0,10.0,270,8,,6.21,30.0,,,,,,TRUE,,,,,CAVOK,,,,,,,,VFR,,,,,,,,,,,,METAR,854.0
OETF 311900Z 31004KT 5000 HZ NSC 21/15 Q1022 NOSIG,OETF,2022-10-31T19:00:00Z,21.47,40.53,21.0,15.0,310,4,,3.11,30.177166,,,,,,TRUE,,,,HZ,CLR,,,,,,,,MVFR,,,,,,,,,,,,METAR,1460.0
OETB 311900Z 29003KT CAVOK 24/05 Q1016 NOSIG,OETB,2022-10-31T19:00:00Z,28.37,36.62,24.0,5.0,290,3,,6.21,30.0,,,,,,TRUE,,,,,CAVOK,,,,,,,,VFR,,,,,,,,,,,,METAR,770.0
OESK 311900Z 33008KT 9999 FEW040 25/07 Q1017 NOSIG,OESK,2022-10-31T19:00:00Z,29.78,40.1,25.0,7.0,330,8,,6.21,30.029528,,,,,,TRUE,,,,,FEW,4000,,,,,,,VFR,,,,,,,,,,,,METAR,671.0
OESH 311900Z 07008KT CAVOK 25/05 Q1016 NOSIG,OESH,2022-10-31T19:00:00Z,17.47,47.12,25.0,5.0,70,8,,6.21,30.0,,,,,,TRUE,,,,,CAVOK,,,,,,,,VFR,,,,,,,,,,,,METAR,720.0
OERR 311900Z 32008KT CAVOK 24/04 Q1014 NOSIG,OERR,2022-10-31T19:00:00Z,30.9,41.13,24.0,4.0,320,8,,6.21,29.940945,,,,,,TRUE,,,,,CAVOK,,,,,,,,VFR,,,,,,,,,,,,METAR,554.0
OERK 311900Z 18002KT CAVOK 25/04 Q1017 NOSIG,OERK,2022-10-31T19:00:00Z,24.95,46.72,25.0,4.0,180,2,,6.21,30.029528,,,,,,TRUE,,,,,CAVOK,,,,,,,,VFR,,,,,,,,,,,,METAR,618.0
OERF 311900Z 00000KT CAVOK 24/00 Q1013 NOSIG,OERF,2022-10-31T19:00:00Z,29.62,43.48,24.0,0.0,0,0,,6.21,29.911417,,,,,,TRUE,,,,,CAVOK,,,,,,,,VFR,,,,,,,,,,,,METAR,441.0
OEPA 311900Z 19004KT CAVOK 27/14 Q1013 NOSIG,OEPA,2022-10-31T19:00:00Z,28.33,46.12,27.0,14.0,190,4,,6.21,29.911417,,,,,,TRUE,,,,,CAVOK,,,,,,,,VFR,,,,,,,,,,,,METAR,361.0
OENG 311900Z 03002KT CAVOK 22/M01 Q1020 NOSIG,OENG,2022-10-31T19:00:00Z,17.62,44.42,22.0,-1.0,30,2,,6.21,30.11811,,,,,,TRUE,,,,,CAVOK,,,,,,,,VFR,,,,,,,,,,,,METAR,1210.0
OEMN 311900Z 00000KT CAVOK 29/21 Q1014,OEMN,2022-10-31T19:00:00Z,,,29.0,21.0,0,0,,6.21,29.940945,,,,,,,,,,,CAVOK,,,,,,,,VFR,,,,,,,,,,,,METAR,
OEMA 311900Z 31004KT CAVOK 31/09 Q1016 NOSIG,OEMA,2022-10-31T19:00:00Z,24.55,39.7,31.0,9.0,310,4,,6.21,30.0,,,,,,TRUE,,,,,CAVOK,,,,,,,,VFR,,,,,,,,,,,,METAR,639.0
OEKJ 311900Z 18010KT CAVOK 26/02 Q1019,OEKJ,2022-10-31T19:00:00Z,24.07,47.58,26.0,2.0,180,10,,6.21,30.088583,,,,,,,,,,,CAVOK,,,,,,,,VFR,,,,,,,,,,,,METAR,487.0
OEJN 311900Z 34007KT CAVOK 30/23 Q1011 NOSIG,OEJN,2022-10-31T19:00:00Z,21.68,39.15,30.0,23.0,340,7,,6.21,29.852362,,,,,,TRUE,,,,,CAVOK,,,,,,,,VFR,,,,,,,,,,,,METAR,8.0
OEJB 311900Z AUTO 16005KT CAVOK 25/19 Q1013 NOSIG,OEJB,2022-10-31T19:00:00Z,27.05,49.4,25.0,19.0,160,5,,6.21,29.911417,,,TRUE,,,TRUE,,,,,CAVOK,,,,,,,,VFR,,,,,,,,,,,,METAR,6.0
OEHL 311900Z 21002KT CAVOK 23/04 Q1017,OEHL,2022-10-31T19:00:00Z,27.43,41.68,23.0,4.0,210,2,,6.21,30.029528,,,,,,,,,,,CAVOK,,,,,,,,VFR,,,,,,,,,,,,METAR,1002.0
OEGT 311900Z 32013KT CAVOK 19/09 Q1015 NOSIG,OEGT,2022-10-31T19:00:00Z,31.42,37.27,19.0,9.0,320,13,,6.21,29.970472,,,,,,TRUE,,,,,CAVOK,,,,,,,,VFR,,,,,,,,,,,,METAR,512.0
OEGS 311900Z 15003KT CAVOK 23/05 Q1015,OEGS,2022-10-31T19:00:00Z,26.3,43.77,23.0,5.0,150,3,,6.21,29.970472,,,,,,,,,,,CAVOK,,,,,,,,VFR,,,,,,,,,,,,METAR,647.0
OEGN 311900Z 00000KT CAVOK 31/21 Q1012 NOSIG,OEGN,2022-10-31T19:00:00Z,16.9,42.58,31.0,21.0,0,0,,6.21,29.88189,,,,,,TRUE,,,,,CAVOK,,,,,,,,VFR,,,,,,,,,,,,METAR,5.0
OEDR 311900Z 09003KT CAVOK 27/20 Q1013,OEDR,2022-10-31T19:00:00Z,26.27,50.17,27.0,20.0,90,3,,6.21,29.911417,,,,,,,,,,,CAVOK,,,,,,,,VFR,,,,,,,,,,,,METAR,17.0
OEDM 311900Z 12010KT CAVOK 23/M06 Q1018,OEDM,2022-10-31T19:00:00Z,24.45,44.12,23.0,-6.0,120,10,,6.21,30.059055,,,,,,,,,,,CAVOK,,,,,,,,VFR,,,,,,,,,,,,METAR,922.0
OEDF 311900Z 14007KT CAVOK 26/19 Q1013 NOSIG,OEDF,2022-10-31T19:00:00Z,26.43,49.82,26.0,19.0,140,7,,6.21,29.911417,,,,,,TRUE,,,,,CAVOK,,,,,,,,VFR,,,,,,,,,,,,METAR,15.0
OEBH 311900Z 11009KT CAVOK 23/04 Q1018 NOSIG,OEBH,2022-10-31T19:00:00Z,19.98,42.62,23.0,4.0,110,9,,6.21,30.059055,,,,,,TRUE,,,,,CAVOK,,,,,,,,VFR,,,,,,,,,,,,METAR,1167.0
OEBA 311900Z 12006KT CAVOK 22/05 Q1022 NOSIG,OEBA,2022-10-31T19:00:00Z,20.3,41.63,22.0,5.0,120,6,,6.21,30.177166,,,,,,TRUE,,,,,CAVOK,,,,,,,,VFR,,,,,,,,,,,,METAR,1659.0
OEAO 311900Z 00000KT CAVOK 27/07 Q1016 NOSIG,OEAO,2022-10-31T19:00:00Z,26.48,38.12,27.0,7.0,0,0,,6.21,30.0,,,,,,TRUE,,,,,CAVOK,,,,,,,,VFR,,,,,,,,,,,,METAR,615.0
OEAH 311900Z 23003KT CAVOK 24/02 Q1014 NOSIG,OEAH,2022-10-31T19:00:00Z,25.28,49.48,24.0,2.0,230,3,,6.21,29.940945,,,,,,TRUE,,,,,CAVOK,,,,,,,,VFR,,,,,,,,,,,,METAR,180.0
OEAB 311900Z 00000KT CAVOK 16/14 Q1026 NOSIG,OEAB,2022-10-31T19:00:00Z,18.23,42.65,16.0,14.0,0,0,,6.21,30.295275,,,,,,TRUE,,,,,CAVOK,,,,,,,,VFR,,,,,,,,,,,,METAR,2092.0
NVVW 311900Z AUTO 17005KT //// // NCD 22/21 Q1009,NVVW,2022-10-31T19:00:00Z,-19.45,169.22,22.0,21.0,170,5,,,29.793306,,,TRUE,,,,,,,,CLR,,,,,,,,,,,,,,,,,,,,METAR,5.0
NVVV 311900Z 13001KT 9999 SCT020 22/21 Q1009,NVVV,2022-10-31T19:00:00Z,-17.68,168.3,22.0,21.0,130,1,,6.21,29.793306,,,,,,,,,,,SCT,2000,,,,,,,VFR,,,,,,,,,,,,METAR,23.0
NVVA 311900Z AUTO 02002KT //// // NCD 22/21 Q1010,NVVA,2022-10-31T19:00:00Z,-20.25,169.77,22.0,21.0,20,2,,,29.822834,,,TRUE,,,,,,,,CLR,,,,,,,,,,,,,,,,,,,,METAR,7.0
NVSS 311900Z 29004KT 9999 SCT020 23/23 Q1008,NVSS,2022-10-31T19:00:00Z,-15.52,167.22,23.0,23.0,290,4,,6.21,29.763779,,,,,,,,,,,SCT,2000,,,,,,,VFR,,,,,,,,,,,,METAR,47.0
NVSC 311900Z AUTO 00000KT //// // NCD 23/23 Q1009,NVSC,2022-10-31T19:00:00Z,-13.85,167.55,23.0,23.0,0,0,,,29.793306,,,TRUE,,,,,,,,CLR,,,,,,,,,,,,,,,,,,,,METAR,11.0
NSFA 311900Z 09006KT 9999 FEW020 SCT050 BKN180 25/24 Q1012,NSFA,2022-10-31T19:00:00Z,-13.83,-172.0,25.0,24.0,90,6,,6.21,29.88189,,,,,,,,,,,FEW,2000,SCT,5000,BKN,18000,,,VFR,,,,,,,,,,,,METAR,6.0
NIUE 311900Z 08009KT 9999 SCT018 26/24 Q1013 ,NIUE,2022-10-31T19:00:00Z,-19.07,-169.92,26.0,24.0,80,9,,6.21,29.911417,,,,,,,,,,,SCT,1800,,,,,,,VFR,,,,,,,,,,,,METAR,22.0
NGTA 311900Z 07004KT 9999 FEW020 SCT300 27/23 Q1009,NGTA,2022-10-31T19:00:00Z,1.37,173.13,27.0,23.0,70,4,,6.21,29.793306,,,,,,,,,,,FEW,2000,SCT,30000,,,,,VFR,,,,,,,,,,,,METAR,8.0
NGFU 311900Z 0000KT 9999 FEW016CB SCT018TCU OVC100 27/24 Q1010 RERA,NGFU,2022-10-31T19:00:00Z,-8.52,179.18,27.0,24.0,,,,6.21,29.822834,,,,,,,,,,,FEW,1600,SCT,1800,OVC,10000,,,VFR,,,,,,,,,,,,METAR,2.0
NFTV 311900Z 08005KT 9999 FEW016 BKN270 26/21 Q10123,NFTV,2022-10-31T19:00:00Z,-18.58,-173.97,26.0,21.0,80,5,,6.21,,,,,,,,,,,,FEW,1600,BKN,27000,,,,,VFR,,,,,,,,,,,,METAR,71.0
NFTL 311900Z 08009KT 9999 SCT016TCU 25/22 Q1013,NFTL,2022-10-31T19:00:00Z,-19.78,-174.33,25.0,22.0,80,9,,6.21,29.911417,,,,,,,,,,,SCT,1600,,,,,,,VFR,,,,,,,,,,,,METAR,10.0
NFTF 311900Z 07007KT 9999 SCT008 SCT015TCU 25/24 Q1014,NFTF,2022-10-31T19:00:00Z,-21.23,-175.15,25.0,24.0,70,7,,6.21,29.940945,,,,,,,,,,,SCT,800,SCT,1500,,,,,VFR,,,,,,,,,,,,METAR,38.0
NFNA 311900Z 00000KT 9999 FEW020 SCT120 25/23 Q1010,NFNA,2022-10-31T19:00:00Z,-18.05,178.57,25.0,23.0,0,0,,6.21,29.822834,,,,,,,,,,,FEW,2000,SCT,12000,,,,,VFR,,,,,,,,,,,,METAR,6.0
NFFN 311900Z 13004KT 9999 FEW030 BKN300 23/21 Q1011 NOSIG,NFFN,2022-10-31T19:00:00Z,-17.75,177.45,23.0,21.0,130,4,,6.21,29.852362,,,,,,TRUE,,,,,FEW,3000,BKN,30000,,,,,VFR,,,,,,,,,,,,METAR,14.0
MZBZ 311900Z 07005KT 9999 FEW026 30/23 A2987 Q1011 NOSIG,MZBZ,2022-10-31T19:00:00Z,17.53,-88.3,30.0,23.0,70,5,,6.21,29.852362,,,,,,TRUE,,,,,FEW,2600,,,,,,,VFR,,,,,,,,,,,,METAR,6.0
MYNN 311900Z 13011KT 9999 SCT025 30/23 A2993,MYNN,2022-10-31T19:00:00Z,25.03,-77.47,30.0,23.0,130,11,,6.21,29.929134,,,,,,,,,,,SCT,2500,,,,,,,VFR,,,,,,,,,,,,METAR,5.0
MYGF 311900Z 14007KT 070V190 9999 FEW025 29/23 A2994,MYGF,2022-10-31T19:00:00Z,26.55,-78.7,29.0,23.0,140,7,,6.21,29.940945,,,,,,,,,,,FEW,2500,,,,,,,VFR,,,,,,,,,,,,METAR,2.0
MWCR 311900Z 05010KT 9999 VCSH SCT016TCU 30/25 Q1009 REFC,MWCR,2022-10-31T19:00:00Z,19.3,-81.37,30.0,25.0,50,10,,6.21,29.793306,,,,,,,,,,VCSH,SCT,1600,,,,,,,VFR,,,,,,,,,,,,METAR,4.0
MWCB 311900Z 08010KT 9999 VCSH BKN016CB 29/24 Q1010 RESHRA,MWCB,2022-10-31T19:00:00Z,19.68,-79.88,29.0,24.0,80,10,,6.21,29.822834,,,,,,,,,,VCSH,BKN,1600,,,,,,,MVFR,,,,,,,,,,,,METAR,7.0
MTPP 311900Z 30008KT 9999 SCT028TCU BKN060 30/24 Q1009 A2982 RMK:TCU/N,MTPP,2022-10-31T19:00:00Z,18.57,-72.3,30.0,24.0,300,8,,6.21,29.793306,,,,,,,,,,,SCT,2800,BKN,6000,,,,,VFR,,,,,,,,,,,,METAR,36.0
MRPV 311900Z 29010KT 9999 FEW030TCU 25/18 A2996 NOSIG,MRPV,2022-10-31T19:00:00Z,9.95,-84.15,25.0,18.0,290,10,,6.21,29.958662,,,,,,TRUE,,,,,FEW,3000,,,,,,,VFR,,,,,,,,,,,,METAR,998.0
MROC 311900Z 24010KT 200V280 9999 BKN040 26/20 A2996 NOSIG,MROC,2022-10-31T19:00:00Z,10.0,-84.22,26.0,20.0,240,10,,6.21,29.958662,,,,,,TRUE,,,,,BKN,4000,,,,,,,VFR,,,,,,,,,,,,METAR,900.0
MRLM 311900Z 36013KT CAVOK 31/23 A2978,MRLM,2022-10-31T19:00:00Z,9.97,-83.03,31.0,23.0,360,13,,6.21,29.778543,,,,,,,,,,,CAVOK,,,,,,,,VFR,,,,,,,,,,,,METAR,2.0
MRLB 311900Z 33004KT 260V020 9999 FEW040 30/24 A2978,MRLB,2022-10-31T19:00:00Z,10.6,-85.55,30.0,24.0,330,4,,6.21,29.778543,,,,,,,,,,,FEW,4000,,,,,,,VFR,,,,,,,,,,,,METAR,79.0
MPTO 311900Z 15008KT 9999 SCT018TCU 29/23 Q1009 TEMPO SCT018CB,MPTO,2022-10-31T19:00:00Z,9.05,-79.38,29.0,23.0,150,8,,6.21,29.793306,,,,,,,,,,,SCT,1800,,,,,,,VFR,,,,,,,,,,,,METAR,7.0
MPSM 311900Z 17007KT 9999 SCT020 30/24 Q1008,MPSM,2022-10-31T19:00:00Z,8.38,-80.13,30.0,24.0,170,7,,6.21,29.763779,,,,,,,,,,,SCT,2000,,,,,,,VFR,,,,,,,,,,,,METAR,36.0
MPPA 311900Z 13004KT 9999 FEW018TCU 30/25 Q1008,MPPA,2022-10-31T19:00:00Z,8.92,-79.6,30.0,25.0,130,4,,6.21,29.763779,,,,,,,,,,,FEW,1800,,,,,,,VFR,,,,,,,,,,,,METAR,1.0
MPMG 311900Z 16007KT 9000 VCSH SCT018TCU 30/24 Q1008 TEMPO SHRA,MPMG,2022-10-31T19:00:00Z,8.98,-79.57,30.0,24.0,160,7,,5.59,29.763779,,,,,,,,,,VCSH,SCT,1800,,,,,,,VFR,,,,,,,,,,,,SPECI,6.0
MPDA 311900Z 18008KT 9999 SCT015 SCT100 28/24 Q1009,MPDA,2022-10-31T19:00:00Z,8.4,-82.43,28.0,24.0,180,8,,6.21,29.793306,,,,,,,,,,,SCT,1500,SCT,10000,,,,,VFR,,,,,,,,,,,,METAR,15.0
MPBO 311900Z 02009KT 9999 FEW030 30/24 Q1008,MPBO,2022-10-31T19:00:00Z,9.35,-82.25,30.0,24.0,20,9,,6.21,29.763779,,,,,,,,,,,FEW,3000,,,,,,,VFR,,,,,,,,,,,,METAR,2.0
MNRS 311900Z 10004KT 9999 FEW013CB 30/23 Q1009 CB/E/SE/S,MNRS,2022-10-31T19:00:00Z,11.42,-85.82,30.0,23.0,100,4,,6.21,29.793306,,,,,,,,,,,FEW,1300,,,,,,,VFR,,,,,,,,,,,,METAR,53.0
MNPC 311900Z 32006KT 6000 VCRA BKN016TCU 30/26 Q1008 TCURA/NE/SW,MNPC,2022-10-31T19:00:00Z,14.05,-83.38,30.0,26.0,320,6,,3.73,29.763779,,,,,,,,,,VCRA RA,BKN,1600,,,,,,,MVFR,,,,,,,,,,,,METAR,10.0
MNMG 311900Z 07006KT 9999 FEW024 32/24 Q1008 A2978 NOSIG,MNMG,2022-10-31T19:00:00Z,12.15,-86.17,32.0,24.0,70,6,,6.21,29.763779,,,,,,TRUE,,,,,FEW,2400,,,,,,,VFR,,,,,,,,,,,,METAR,59.0
MNJU 311900Z 09006KT 9999 SCT020 34/23 Q1009,MNJU,2022-10-31T19:00:00Z,12.08,-85.37,34.0,23.0,90,6,,6.21,29.793306,,,,,,,,,,,SCT,2000,,,,,,,VFR,,,,,,,,,,,,METAR,85.0
MNJG 311900Z 00000KT 9999 BKN020 25/17 Q1010,MNJG,2022-10-31T19:00:00Z,13.13,-86.02,25.0,17.0,0,0,,6.21,29.822834,,,,,,,,,,,BKN,2000,,,,,,,MVFR,,,,,,,,,,,,METAR,981.0
MNCH 311900Z 18004KT 9999 SCT025 29/25 Q1009,MNCH,2022-10-31T19:00:00Z,12.63,-87.13,29.0,25.0,180,4,,6.21,29.793306,,,,,,,,,,,SCT,2500,,,,,,,VFR,,,,,,,,,,,,METAR,70.0
MNBL 311900Z 04004KT 9999 BKN017 31/25 Q1009,MNBL,2022-10-31T19:00:00Z,12.0,-83.77,31.0,25.0,40,4,,6.21,29.793306,,,,,,,,,,,BKN,1700,,,,,,,MVFR,,,,,,,,,,,,METAR,10.0
MKJS 311900Z 09008KT 9999 -RA FEW020 FEW022CB BKN048 28/24 Q1008 RETS,MKJS,2022-10-31T19:00:00Z,18.5,-77.92,28.0,24.0,90,8,,6.21,29.763779,,,,,,,,,,-RA,FEW,2000,FEW,2200,BKN,4800,,,VFR,,,,,,,,,,,,METAR,3.0
MHYR 311900Z 02008KT 9999 SCT024TCU 28/20,MHYR,2022-10-31T19:00:00Z,15.13,-87.13,28.0,20.0,20,8,,6.21,,,,,,,,,,,,SCT,2400,,,,,,,VFR,,,,,,,,,,,,METAR,682.0
MHTR 311900Z 00000KT 9999 SCT025TCU 30/23,MHTR,2022-10-31T19:00:00Z,15.93,-85.93,30.0,23.0,0,0,,6.21,,,,,,,,,,,,SCT,2500,,,,,,,VFR,,,,,,,,,,,,METAR,3.0
MHTG 311900Z 36016KT 9999 FEW034 26/15 Q1015 A2997 NOSIG,MHTG,2022-10-31T19:00:00Z,14.07,-87.22,26.0,15.0,360,16,,6.21,29.970472,,,,,,TRUE,,,,,FEW,3400,,,,,,,VFR,,,,,,,,,,,,METAR,1001.0
MHTE 311900Z 34008KT 9999 SCT016TCU SCT200 29/23 Q1010 A2983,MHTE,2022-10-31T19:00:00Z,15.78,-87.48,29.0,23.0,340,8,,6.21,29.822834,,,,,,,,,,,SCT,1600,SCT,20000,,,,,VFR,,,,,,,,,,,,METAR,7.0
MHSR 311900Z 03005KT 9999 SCT028TCU 26/15,MHSR,2022-10-31T19:00:00Z,14.78,-88.78,26.0,15.0,30,5,,6.21,,,,,,,,,,,,SCT,2800,,,,,,,VFR,,,,,,,,,,,,METAR,1087.0
MHRO 311900Z 34004KT 8000 VCSH SCT024TCU FEW026CB 29/21 Q1011 A2986 NOSIG,MHRO,2022-10-31T19:00:00Z,16.32,-86.53,29.0,21.0,340,4,,4.97,29.852362,,,,,,TRUE,,,,VCSH,SCT,2400,FEW,2600,,,,,MVFR,,,,,,,,,,,,METAR,6.0
MHPR 311900Z 34010KT 9999 FEW048 29/17 Q1015 A2997 NOSIG,MHPR,2022-10-31T19:00:00Z,14.38,-87.62,29.0,17.0,340,10,,6.21,29.970472,,,,,,TRUE,,,,,FEW,4800,,,,,,,VFR,,,,,,,,,,,,METAR,628.0
MHPL 311900Z 36005KT 9999 SCT026TCU 30/24 Q1010,MHPL,2022-10-31T19:00:00Z,15.27,-83.78,30.0,24.0,360,5,,6.21,29.822834,,,,,,,,,,,SCT,2600,,,,,,,VFR,,,,,,,,,,,,METAR,13.0
MHNO 311900Z 35004KT 9999 FEW040 28/17,MHNO,2022-10-31T19:00:00Z,14.43,-89.18,28.0,17.0,350,4,,6.21,,,,,,,,,,,,FEW,4000,,,,,,,VFR,,,,,,,,,,,,METAR,790.0
MHLM 311900Z 06015KT 9999 FEW026 BKN080 28/20 Q1011 A2987 NOSIG,MHLM,2022-10-31T19:00:00Z,15.45,-87.93,28.0,20.0,60,15,,6.21,29.852362,,,,,,TRUE,,,,,FEW,2600,BKN,8000,,,,,VFR,,,,,,,,,,,,METAR,32.0
MHLE 311900Z 01006KT 9999 FEW024 21/12,MHLE,2022-10-31T19:00:00Z,14.28,-88.17,21.0,12.0,10,6,,6.21,,,,,,,,,,,,FEW,2400,,,,,,,VFR,,,,,,,,,,,,METAR,1688.0
MHLC 311900Z 36008KT 9999 SCT034TCU 29/22 Q1011 A2986 NOSIG,MHLC,2022-10-31T19:00:00Z,15.75,-86.85,29.0,22.0,360,8,,6.21,29.852362,,,,,,TRUE,,,,,SCT,3400,,,,,,,VFR,,,,,,,,,,,,METAR,13.0
MHGS 311900Z 36004KT 9999 SCT052 29/16,MHGS,2022-10-31T19:00:00Z,14.57,-88.6,29.0,16.0,360,4,,6.21,,,,,,,,,,,,SCT,5200,,,,,,,VFR,,,,,,,,,,,,METAR,913.0
MHCH 311900Z 15004KT 9999 FEW032 34/24,MHCH,2022-10-31T19:00:00Z,13.32,-87.15,34.0,24.0,150,4,,6.21,,,,,,,,,,,,FEW,3200,,,,,,,VFR,,,,,,,,,,,,METAR,58.0
MHCA 311900Z 00000KT 9999 SCT028TCU 30/20,MHCA,2022-10-31T19:00:00Z,14.87,-85.78,30.0,20.0,0,0,,6.21,,,,,,,,,,,,SCT,2800,,,,,,,VFR,,,,,,,,,,,,METAR,386.0
MGZA 311900Z 05008KT 9999 FEW025 32/20 QFE 985/8,MGZA,2022-10-31T19:00:00Z,14.97,-89.53,32.0,20.0,50,8,,6.21,,,,,,,,,,,,FEW,2500,,,,,,,VFR,,,,,,,,,,,,METAR,195.0
MGTU 311900Z 25004KT 9999 FEW018 33/20 FEW200,MGTU,2022-10-31T19:00:00Z,,,33.0,20.0,250,4,,6.21,,,,,,,,,,,,FEW,1800,FEW,20000,,,,,VFR,,,,,,,,,,,,METAR,
MGSJ 311900Z 15010KT 9999 SCT022TCU 32/24 Q1010 A2983 TCU SMC N,MGSJ,2022-10-31T19:00:00Z,13.93,-90.83,32.0,24.0,150,10,,6.21,29.822834,,,,,,,,,,,SCT,2200,,,,,,,VFR,,,,,,,,,,,,METAR,7.0
MGRT 311900Z 20006KT 9999 SCT020TCU FEW25CB 32/22 Q1012 A2988 CB S/SW TCU NE/SE VOL. SANTA MARIA Y SANTIAGUITO EN ACTIVIDAD,MGRT,2022-10-31T19:00:00Z,14.53,-91.7,32.0,22.0,200,6,,6.21,29.88189,,,,,,,,,,SA SA,SCT,2000,,,,,,,VFR,,,,,,,,,,,,METAR,209.0
MGQZ 311900Z 36012KT 9999 SCT020 22/11 QFE 770/7,MGQZ,2022-10-31T19:00:00Z,14.87,-91.5,22.0,11.0,360,12,,6.21,,,,,,,,,,,,SCT,2000,,,,,,,VFR,,,,,,,,,,,,METAR,2378.0
MGPB 311900Z 33006KT 9999 FEW020 30/22 Q1011 A2985,MGPB,2022-10-31T19:00:00Z,15.73,-88.58,30.0,22.0,330,6,,6.21,29.852362,,,,,,,,,,,FEW,2000,,,,,,,VFR,,,,,,,,,,,,METAR,6.0
MGMT 311900Z 18004KT CAVOK 33/24,MGMT,2022-10-31T19:00:00Z,,,33.0,24.0,180,4,,6.21,,,,,,,,,,,,CAVOK,,,,,,,,VFR,,,,,,,,,,,,METAR,
MGMM 311900Z 03004KT 9999 SCT020 32/22 Q1013 A2991,MGMM,2022-10-31T19:00:00Z,16.9,-89.87,32.0,22.0,30,4,,6.21,29.911417,,,,,,,,,,,SCT,2000,,,,,,,VFR,,,,,,,,,,,,METAR,105.0
MGHT 311900Z 13004KT 9999 FEW026 SCT200 23/14,MGHT,2022-10-31T19:00:00Z,15.32,-91.5,23.0,14.0,130,4,,6.21,,,,,,,,,,,,FEW,2600,SCT,20000,,,,,VFR,,,,,,,,,,,,METAR,1875.0
MGGT 311900Z 05012KT 9999 SCT020 24/13 Q1019 A3009,MGGT,2022-10-31T19:00:00Z,14.58,-90.53,24.0,13.0,50,12,,6.21,30.088583,,,,,,,,,,,SCT,2000,,,,,,,VFR,,,,,,,,,,,,METAR,1497.0
MGES 311900Z 03008KT 9999 SCT020 27/15 QFE 908.4 FEW200,MGES,2022-10-31T19:00:00Z,14.57,-89.32,27.0,15.0,30,8,,6.21,,,,,,,,,,,,SCT,2000,FEW,20000,,,,,VFR,,,,,,,,,,,,METAR,948.0
MGCB 311900Z 02006KT 9999 SCT018 24/17 QFE 869.5,MGCB,2022-10-31T19:00:00Z,15.48,-90.42,24.0,17.0,20,6,,6.21,,,,,,,,,,,,SCT,1800,,,,,,,VFR,,,,,,,,,,,,METAR,1323.0
MDST 311900Z 09008KT 9999 FEW018CB SCT020 SCT300 30/23 Q1011 CB/NW/N,MDST,2022-10-31T19:00:00Z,19.4,-70.6,30.0,23.0,90,8,,6.21,29.852362,,,,,,,,,,,FEW,1800,SCT,2000,SCT,30000,,,VFR,,,,,,,,,,,,SPECI,175.0
MDSD 311900Z 13012KT 9999 FEW018CB SCT20 BKN080 29/24 Q1012 CB/NE/E/SE,MDSD,2022-10-31T19:00:00Z,18.42,-69.67,29.0,24.0,130,12,,6.21,29.88189,,,,,,,,,,,FEW,1800,BKN,8000,,,,,VFR,,,,,,,,,,,,METAR,18.0
MDPP 311900Z 08012KT 9999 FEW020 31/26 Q1011,MDPP,2022-10-31T19:00:00Z,19.75,-70.57,31.0,26.0,80,12,,6.21,29.852362,,,,,,,,,,,FEW,2000,,,,,,,VFR,,,,,,,,,,,,METAR,9.0
MDPC 311900Z 11012KT 9999 SCT020 BKN070 29/23 Q1013,MDPC,2022-10-31T19:00:00Z,18.57,-68.37,29.0,23.0,110,12,,6.21,29.911417,,,,,,,,,,,SCT,2000,BKN,7000,,,,,VFR,,,,,,,,,,,,METAR,10.0
MDLR 311900Z 00000KT 7000 -RA BKN016 27/26 Q1011,MDLR,2022-10-31T19:00:00Z,18.45,-68.92,27.0,26.0,0,0,,4.35,29.852362,,,,,,,,,,-RA,BKN,1600,,,,,,,MVFR,,,,,,,,,,,,METAR,66.0
MDJB 311900Z 36005KT 8000 -TSRA SCT012CB SCT014 BKN070 24/24 Q1012 CB/W/NW/N/NE OVER STATION,MDJB,2022-10-31T19:00:00Z,18.57,-69.98,24.0,24.0,360,5,,4.97,29.88189,,,,,,,,,,-TSRA,SCT,1200,SCT,1400,BKN,7000,,,MVFR,,,,,,,,,,,,METAR,24.0
MDCY 311900Z 06010KT 8000 VCSH FEW018CB SCT020 SCT070 29/25 Q1011 CB/NE/SW/NW,MDCY,2022-10-31T19:00:00Z,19.27,-69.73,29.0,25.0,60,10,,4.97,29.852362,,,,,,,,,,VCSH,FEW,1800,SCT,2000,SCT,7000,,,MVFR,,,,,,,,,,,,METAR,4.0
MDBH 311900Z 13010KT 9999 FEW018CB SCT020 SCT080 31/26 Q1012 CB/SE,MDBH,2022-10-31T19:00:00Z,18.25,-71.12,31.0,26.0,130,10,,6.21,29.88189,,,,,,,,,,,FEW,1800,SCT,2000,SCT,8000,,,VFR,,,,,,,,,,,,METAR,7.0
MDAB 311900Z 09008KT 9999 SCT020 BKN300 32/27 Q1013,MDAB,2022-10-31T19:00:00Z,19.2,-69.43,32.0,27.0,90,8,,6.21,29.911417,,,,,,,,,,,SCT,2000,BKN,30000,,,,,VFR,,,,,,,,,,,,METAR,28.0
MBPV 311900Z 17008KT 9999 SCT015CB 30/24 Q1011,MBPV,2022-10-31T19:00:00Z,21.77,-72.27,30.0,24.0,170,8,,6.21,29.852362,,,,,,,,,,,SCT,1500,,,,,,,VFR,,,,,,,,,,,,METAR,7.0
LRTZ 311900Z 01004KT 9999 FEW050 14/10 Q1021 BLU BLU,LRTZ,2022-10-31T19:00:00Z,43.98,28.62,14.0,10.0,10,4,,6.21,30.147638,,,,,,,,,,,FEW,5000,,,,,,,VFR,,,,,,,,,,,,METAR,45.0
LRFT 311900Z 11002KT 9999 SKC 12/08 Q1022 BLU BLU,LRFT,2022-10-31T19:00:00Z,44.38,27.72,12.0,8.0,110,2,,6.21,30.177166,,,,,,,,,,,SKC,,,,,,,,VFR,,,,,,,,,,,,METAR,54.0
LRCT 311900Z 30003KT 7000 OVC009 11/09 Q1025 GRN GRN,LRCT,2022-10-31T19:00:00Z,46.5,23.88,11.0,9.0,300,3,,4.35,30.265747,,,,,,,,,,,OVC,900,,,,,,,IFR,,,,,,,,,,,,METAR,324.0
LRBO 311900Z 36008KT 9999 SKC 14/09 Q1022 BLACK BLACK,LRBO,2022-10-31T19:00:00Z,45.22,26.97,14.0,9.0,360,8,,6.21,30.177166,,,,,,,,,,,SKC,,,,,,,,VFR,,,,,,,,,,,,METAR,104.0
LQMO 311900Z 16004KT CAVOK 14/09 Q1020,LQMO,2022-10-31T19:00:00Z,43.28,17.83,14.0,9.0,160,4,,6.21,30.11811,,,,,,,,,,,CAVOK,,,,,,,,VFR,,,,,,,,,,,,METAR,49.0
LPMT 311900Z 34006KT 320V020 9999 OVC020 18/16 Q1020,LPMT,2022-10-31T19:00:00Z,38.7,-9.05,18.0,16.0,340,6,,6.21,30.11811,,,,,,,,,,,OVC,2000,,,,,,,MVFR,,,,,,,,,,,,METAR,4.0
LPMR 311900Z 34004KT 9999 FEW020 BKN028 17/14 Q1020,LPMR,2022-10-31T19:00:00Z,39.82,-8.88,17.0,14.0,340,4,,6.21,30.11811,,,,,,,,,,,FEW,2000,BKN,2800,,,,,MVFR,,,,,,,,,,,,METAR,50.0
LPLA 311900Z /////KT 9999 FEW035 17/13 Q1023,LPLA,2022-10-31T19:00:00Z,38.77,-27.1,17.0,13.0,,,,6.21,30.206694,,,,,,,,,,,FEW,3500,,,,,,,VFR,,,,,,,,,,,,METAR,60.0
LPBJ 311900Z 25004KT 9999 FEW018 18/16 Q1020,LPBJ,2022-10-31T19:00:00Z,38.08,-7.93,18.0,16.0,250,4,,6.21,30.11811,,,,,,,,,,,FEW,1800,,,,,,,VFR,,,,,,,,,,,,METAR,196.0
LKLN 311900Z AUTO VRB02KT 9999 FEW200 13/10 Q1019,LKLN,2022-10-31T19:00:00Z,49.68,13.27,13.0,10.0,0,2,,6.21,30.088583,,,TRUE,,,,,,,,FEW,20000,,,,,,,VFR,,,,,,,,,,,,METAR,353.0
LKKV 311900Z 09002KT CAVOK 10/08 Q1019,LKKV,2022-10-31T19:00:00Z,50.2,12.92,10.0,8.0,90,2,,6.21,30.088583,,,,,,,,,,,CAVOK,,,,,,,,VFR,,,,,,,,,,,,METAR,600.0
LKKB 311900Z 06004KT 0100 R24/0200N FG VV001 09/09 Q1019 NOSIG,LKKB,2022-10-31T19:00:00Z,50.12,14.53,9.0,9.0,60,4,,0.06,30.088583,,,,,,TRUE,,,,FG,OVX,0,,,,,,,LIFR,,,,,,,,,,,100,METAR,281.0
LFHP 311900Z AUTO 18012KT 150V220 CAVOK 16/11 Q1018,LFHP,2022-10-31T19:00:00Z,45.07,3.77,16.0,11.0,180,12,,6.21,30.059055,,,TRUE,,,,,,,,CAVOK,,,,,,,,VFR,,,,,,,,,,,,METAR,829.0
LFBF 311900Z AUTO 10003KT CAVOK 20/16 Q1016,LFBF,2022-10-31T19:00:00Z,43.53,1.37,20.0,16.0,100,3,,6.21,30.0,,,TRUE,,,,,,,,CAVOK,,,,,,,,VFR,,,,,,,,,,,,METAR,159.0
LBPL 311900Z 19004KT 9999 SKC 15/08 Q1021,LBPL,2022-10-31T19:00:00Z,43.45,24.5,15.0,8.0,190,4,,6.21,30.147638,,,,,,,,,,,SKC,,,,,,,,VFR,,,,,,,,,,,,METAR,93.0
LBPG 311900Z 30002KT 9999 SCT100 16/06 Q1022,LBPG,2022-10-31T19:00:00Z,42.28,24.72,16.0,6.0,300,2,,6.21,30.177166,,,,,,,,,,,SCT,10000,,,,,,,VFR,,,,,,,,,,,,METAR,198.0
LBIA 311900Z 07002KT 9999 FEW100 14/08 Q1022,LBIA,2022-10-31T19:00:00Z,42.45,26.35,14.0,8.0,70,2,,6.21,30.177166,,,,,,,,,,,FEW,10000,,,,,,,VFR,,,,,,,,,,,,METAR,155.0
KVRB 311900Z 10009KT 10SM CLR 29/24 A2995 RMK AO2 T02940239,KVRB,2022-10-31T19:00:00Z,27.65,-80.42,29.4,23.9,100,9,,10.0,29.949802,,,,TRUE,,,,,,,CLR,,,,,,,,VFR,,,,,,,,,,,,METAR,7.0
KUUU 311900Z AUTO 18007KT 10SM OVC014 15/13 A3002 RMK AO2 T01500133,KUUU,2022-10-31T19:00:00Z,41.53,-71.28,15.0,13.3,180,7,,10.0,30.02067,,,TRUE,TRUE,,,,,,,OVC,1400,,,,,,,MVFR,,,,,,,,,,,,METAR,45.0
KQDG 311900Z AUTO 23003KT 8000 BR FEW015 07/05 A3019 RMK AO2 SLP225,KQDG,2022-10-31T19:00:00Z,,,7.0,5.0,230,3,,4.97,30.188976,1022.5,,TRUE,TRUE,,,,,,BR,FEW,1500,,,,,,,MVFR,,,,,,,,,,,,SPECI,
KNEL 311900Z AUTO 25004KT BKN040 OVC110 19/12 A2999 RMK AO2 SLP153 T01940117 $,KNEL,2022-10-31T19:00:00Z,40.03,-74.33,19.4,11.7,250,4,,,29.991142,1015.3,,TRUE,TRUE,TRUE,,,,,,BKN,4000,OVC,11000,,,,,,,,,,,,,,,,,METAR,26.0
KAZO 311900Z 18005KT OVC008 15/14 A2981 RMK AO2 CIG 004V011 T01500139 $,KAZO,2022-10-31T19:00:00Z,42.23,-85.55,15.0,13.9,180,5,,,29.811024,,,,TRUE,TRUE,,,,,,OVC,800,,,,,,,,,,,,,,,,,,,METAR,264.0
KABY 311900Z 25008KT 10SM OVC039 26/16 A2998 RMK AO2 T02560161,KABY,2022-10-31T19:00:00Z,31.53,-84.2,25.6,16.1,250,8,,10.0,29.97933,,,,TRUE,,,,,,,OVC,3900,,,,,,,VFR,,,,,,,,,,,,METAR,60.0
HUEN 311900Z 33004KT CAVOK 22/20 Q1015 NOSIG,HUEN,2022-10-31T19:00:00Z,0.03,32.45,22.0,20.0,330,4,,6.21,29.970472,,,,,,TRUE,,,,,CAVOK,,,,,,,,VFR,,,,,,,,,,,,METAR,1147.0
HTZA 311900Z 09005KT 9999 FEW018 25/23 Q1014 NOSIG,HTZA,2022-10-31T19:00:00Z,-6.22,39.22,25.0,23.0,90,5,,6.21,29.940945,,,,,,TRUE,,,,,FEW,1800,,,,,,,VFR,,,,,,,,,,,,METAR,19.0
HTTB 311900Z 10010KT CAVOK 28/07 Q1016 NOSIG,HTTB,2022-10-31T19:00:00Z,-5.07,32.82,28.0,7.0,100,10,,6.21,30.0,,,,,,TRUE,,,,,CAVOK,,,,,,,,VFR,,,,,,,,,,,,SPECI,1185.0
HTSU 311900Z 00000KT CAVOK 21/08 Q1022,HTSU,2022-10-31T19:00:00Z,-7.95,31.6,21.0,8.0,0,0,,6.21,30.177166,,,,,,,,,,,CAVOK,,,,,,,,VFR,,,,,,,,,,,,SPECI,1820.0
HTSO 311900Z 06006KT 9999 SKC 23/12 Q1019,HTSO,2022-10-31T19:00:00Z,-10.67,35.58,23.0,12.0,60,6,,6.21,30.088583,,,,,,,,,,,SKC,,,,,,,,VFR,,,,,,,,,,,,SPECI,1058.0
HTMW 311900Z 00000KT 9999 FEW019 FEW020CB 21/18 Q1014 NOSIG,HTMW,2022-10-31T19:00:00Z,-2.43,32.92,21.0,18.0,0,0,,6.21,29.940945,,,,,,TRUE,,,,,FEW,1900,FEW,2000,,,,,VFR,,,,,,,,,,,,METAR,1144.0
HTMT 311900Z 05010KT 9999 FEW022 24/22 Q1016,HTMT,2022-10-31T19:00:00Z,-10.33,40.18,24.0,22.0,50,10,,6.21,30.0,,,,,,,,,,,FEW,2200,,,,,,,VFR,,,,,,,,,,,,SPECI,114.0
HTMG 311900Z 09010KT 9999 FEW024 25/19 Q1015,HTMG,2022-10-31T19:00:00Z,-6.78,37.65,25.0,19.0,90,10,,6.21,29.970472,,,,,,,,,,,FEW,2400,,,,,,,VFR,,,,,,,,,,,,SPECI,512.0
HTKJ 311900Z 09018KT 9999 SCT028 24/17 Q1017 NOSIG,HTKJ,2022-10-31T19:00:00Z,-3.42,37.07,24.0,17.0,90,18,,6.21,30.029528,,,,,,TRUE,,,,,SCT,2800,,,,,,,VFR,,,,,,,,,,,,METAR,893.0
HTKA 311900Z 00000KT CAVOK 25/18 Q1012 NOSIG,HTKA,2022-10-31T19:00:00Z,-4.88,29.67,25.0,18.0,0,0,,6.21,29.88189,,,,,,TRUE,,,,,CAVOK,,,,,,,,VFR,,,,,,,,,,,,SPECI,819.0
HTJN 311900Z AUTO 06806KT //// 23/12 Q1019,HTJN,2022-10-31T19:00:00Z,,,23.0,12.0,68,6,,,30.088583,,,TRUE,,,,,,,,,,,,,,,,,,,,,,,,,,,,METAR,
HTIR 311900Z 00000KT 9999 FEW020 20/11 Q1020,HTIR,2022-10-31T19:00:00Z,-7.67,35.75,20.0,11.0,0,0,,6.21,30.11811,,,,,,,,,,,FEW,2000,,,,,,,VFR,,,,,,,,,,,,SPECI,1432.0
HTIB 311900Z 11010KT CAVOK 28/07 Q1013,HTIB,2022-10-31T19:00:00Z,,,28.0,7.0,110,10,,6.21,29.911417,,,,,,,,,,,CAVOK,,,,,,,,VFR,,,,,,,,,,,,SPECI,
HTDO 311900Z 09015KT 9999 FEW024 25/11 Q1018 NOSIG,HTDO,2022-10-31T19:00:00Z,-6.17,35.77,25.0,11.0,90,15,,6.21,30.059055,,,,,,TRUE,,,,,FEW,2400,,,,,,,VFR,,,,,,,,,,,,SPECI,1119.0
HTDA 311900Z 11007KT 9999 SCT011 25/22 Q1015 NOSIG,HTDA,2022-10-31T19:00:00Z,-6.88,39.2,25.0,22.0,110,7,,6.21,29.970472,,,,,,TRUE,,,,,SCT,1100,,,,,,,VFR,,,,,,,,,,,,METAR,53.0
HTBU 311900Z 27010KT CAVOK 21/18 Q1014,HTBU,2022-10-31T19:00:00Z,-1.32,31.82,21.0,18.0,270,10,,6.21,29.940945,,,,,,,,,,,CAVOK,,,,,,,,VFR,,,,,,,,,,,,SPECI,1144.0
HTAR 311900Z 10018KT 9999 FEW032 22/15 Q1021 NOSIG,HTAR,2022-10-31T19:00:00Z,-3.37,36.63,22.0,15.0,100,18,,6.21,30.147638,,,,,,TRUE,,,,,FEW,3200,,,,,,,VFR,,,,,,,,,,,,SPECI,1386.0
HSSK 311900Z 34012KT CAVOK 33/06 Q1011 NOSIG,HSSK,2022-10-31T19:00:00Z,15.58,32.55,33.0,6.0,340,12,,6.21,29.852362,,,,,,TRUE,,,,,CAVOK,,,,,,,,VFR,,,,,,,,,,,,METAR,380.0
HKNW 311900Z 09011KT 9999 SCT021 20/10 Q1022,HKNW,2022-10-31T19:00:00Z,-1.32,36.82,20.0,10.0,90,11,,6.21,30.177166,,,,,,,,,,,SCT,2100,,,,,,,VFR,,,,,,,,,,,,METAR,1666.0
HKNI 311900Z 19001KT CAVOK 18/14,HKNI,2022-10-31T19:00:00Z,-0.33,36.92,18.0,14.0,190,1,,6.21,,,,,,,,,,,,CAVOK,,,,,,,,VFR,,,,,,,,,,,,METAR,1769.0
HKMO 311900Z 11009KT 9999 BKN023 26/23 Q1014 NOSIG,HKMO,2022-10-31T19:00:00Z,-4.02,39.62,26.0,23.0,110,9,,6.21,29.940945,,,,,,TRUE,,,,,BKN,2300,,,,,,,MVFR,,,,,,,,,,,,METAR,55.0
HKML 311900Z 15007KT 9999 SCT021 26/23 Q1014,HKML,2022-10-31T19:00:00Z,-3.22,40.1,26.0,23.0,150,7,,6.21,29.940945,,,,,,,,,,,SCT,2100,,,,,,,VFR,,,,,,,,,,,,METAR,20.0
HKKT 311900Z 00000KT CAVOK 16/14,HKKT,2022-10-31T19:00:00Z,0.97,34.97,16.0,14.0,0,0,,6.21,,,,,,,,,,,,CAVOK,,,,,,,,VFR,,,,,,,,,,,,METAR,1829.0
HKJK 311900Z 07012KT 9999 SCT021 20/15 Q1022 NOSIG,HKJK,2022-10-31T19:00:00Z,-1.32,36.92,20.0,15.0,70,12,,6.21,30.177166,,,,,,TRUE,,,,,SCT,2100,,,,,,,VFR,,,,,,,,,,,,METAR,1615.0
HKEL 311900Z 16009KT 9999 FEW016CB BKN080 18/11 Q1025,HKEL,2022-10-31T19:00:00Z,0.4,35.23,18.0,11.0,160,9,,6.21,30.265747,,,,,,,,,,,FEW,1600,BKN,8000,,,,,VFR,,,,,,,,,,,,METAR,2116.0
HETR 311900Z 00000KT CAVOK 24/11 Q1014,HETR,2022-10-31T19:00:00Z,28.22,33.65,24.0,11.0,0,0,,6.21,29.940945,,,,,,,,,,,CAVOK,,,,,,,,VFR,,,,,,,,,,,,METAR,35.0
HESW 311900Z 27007KT CAVOK 18/06 Q1018,HESW,2022-10-31T19:00:00Z,29.35,25.5,18.0,6.0,270,7,,6.21,30.059055,,,,,,,,,,,CAVOK,,,,,,,,VFR,,,,,,,,,,,,METAR,101.0
HELX 311900Z 31003KT CAVOK 24/07 Q1015 NOSIG,HELX,2022-10-31T19:00:00Z,25.67,32.7,24.0,7.0,310,3,,6.21,29.970472,,,,,,TRUE,,,,,CAVOK,,,,,,,,VFR,,,,,,,,,,,,METAR,86.0
HAAB 311900Z 06010KT 9999 FEW025 14/01 Q1028 NOSIG,HAAB,2022-10-31T19:00:00Z,8.97,38.78,14.0,1.0,60,10,,6.21,30.35433,,,,,,TRUE,,,,,FEW,2500,,,,,,,VFR,,,,,,,,,,,,METAR,2319.0
GVSV 311900Z 04015KT 8000 FEW017 BKN200 27/22 Q1013 NOSIG,GVSV,2022-10-31T19:00:00Z,16.83,-25.07,27.0,22.0,40,15,,4.97,29.911417,,,,,,TRUE,,,,,FEW,1700,BKN,20000,,,,,MVFR,,,,,,,,,,,,METAR,16.0
GVNP 311900Z 02009KT 7000 NSC 28/21 Q1012 NOSIG,GVNP,2022-10-31T19:00:00Z,14.95,-23.48,28.0,21.0,20,9,,4.35,29.88189,,,,,,TRUE,,,,,CLR,,,,,,,,MVFR,,,,,,,,,,,,METAR,70.0
GVBA 311900Z 05009KT 9000 NSC 27/22 Q1012 NOSIG,GVBA,2022-10-31T19:00:00Z,16.13,-22.88,27.0,22.0,50,9,,5.59,29.88189,,,,,,TRUE,,,,,CLR,,,,,,,,VFR,,,,,,,,,,,,METAR,23.0
GVAC 311900Z 04013KT 9000 FEW013 BKN200 27/21 Q1012 NOSIG,GVAC,2022-10-31T19:00:00Z,16.73,-22.93,27.0,21.0,40,13,,5.59,29.88189,,,,,,TRUE,,,,,FEW,1300,BKN,20000,,,,,VFR,,,,,,,,,,,,METAR,54.0
GQPP 311900Z 32011KT 6000 NSC 24/15 Q1014 NOSIG,GQPP,2022-10-31T19:00:00Z,20.92,-17.02,24.0,15.0,320,11,,3.73,29.940945,,,,,,TRUE,,,,,CLR,,,,,,,,MVFR,,,,,,,,,,,,METAR,5.0
GOTT 311900Z 20002KT CAVOK 29/22 Q1010,GOTT,2022-10-31T19:00:00Z,13.73,-13.65,29.0,22.0,200,2,,6.21,29.822834,,,,,,,,,,,CAVOK,,,,,,,,VFR,,,,,,,,,,,,METAR,53.0
GOSS 311900Z VRB04KT CAVOK 33/11 Q1010,GOSS,2022-10-31T19:00:00Z,16.05,-16.45,33.0,11.0,0,4,,6.21,29.822834,,,,,,,,,,,CAVOK,,,,,,,,VFR,,,,,,,,,,,,METAR,3.0
GOSP 311900Z 00000KT CAVOK 32/17 Q1010,GOSP,2022-10-31T19:00:00Z,16.68,-14.97,32.0,17.0,0,0,,6.21,29.822834,,,,,,,,,,,CAVOK,,,,,,,,VFR,,,,,,,,,,,,METAR,10.0
GOSM 311900Z 00000KT CAVOK 30/22 Q1010,GOSM,2022-10-31T19:00:00Z,15.6,-13.33,30.0,22.0,0,0,,6.21,29.822834,,,,,,,,,,,CAVOK,,,,,,,,VFR,,,,,,,,,,,,METAR,28.0
GOOY 311900Z 00000KT 7000 NSC 29/22 Q1010,GOOY,2022-10-31T19:00:00Z,14.73,-17.5,29.0,22.0,0,0,,4.35,29.822834,,,,,,,,,,,CLR,,,,,,,,MVFR,,,,,,,,,,,,METAR,21.0
GOOD 311900Z 12002KT CAVOK 32/22 Q1009,GOOD,2022-10-31T19:00:00Z,14.65,-16.22,32.0,22.0,120,2,,6.21,29.793306,,,,,,,,,,,CAVOK,,,,,,,,VFR,,,,,,,,,,,,METAR,9.0
GOGS 311900Z 34004KT CAVOK 29/25 Q1010,GOGS,2022-10-31T19:00:00Z,12.4,-16.75,29.0,25.0,340,4,,6.21,29.822834,,,,,,,,,,,CAVOK,,,,,,,,VFR,,,,,,,,,,,,METAR,13.0
GOGK 311900Z 00000KT CAVOK 29/26 Q1008,GOGK,2022-10-31T19:00:00Z,12.9,-14.97,29.0,26.0,0,0,,6.21,29.763779,,,,,,,,,,,CAVOK,,,,,,,,VFR,,,,,,,,,,,,METAR,37.0
GMTN 311900Z VRB01KT 6000 SCT020 BKN200 21/16 Q1020 NOSIG,GMTN,2022-10-31T19:00:00Z,35.58,-5.32,21.0,16.0,0,1,,3.73,30.11811,,,,,,TRUE,,,,,SCT,2000,BKN,20000,,,,,MVFR,,,,,,,,,,,,METAR,10.0
GMTA 311900Z VRB02KT 8000 FEW010 SCT080 BKN200 21/16 Q1021 NOSIG,GMTA,2022-10-31T19:00:00Z,35.17,-3.85,21.0,16.0,0,2,,4.97,30.147638,,,,,,TRUE,,,,,FEW,1000,SCT,8000,BKN,20000,,,MVFR,,,,,,,,,,,,METAR,14.0
GMMZ 311900Z 11004KT CAVOK 24/M08 Q1024 NOSIG,GMMZ,2022-10-31T19:00:00Z,30.93,-6.9,24.0,-8.0,110,4,,6.21,30.236221,,,,,,TRUE,,,,,CAVOK,,,,,,,,VFR,,,,,,,,,,,,METAR,1139.0
GMMW 311900Z VRB02KT 5000 BKN012 20/16 Q1022 NOSIG,GMMW,2022-10-31T19:00:00Z,34.98,-3.02,20.0,16.0,0,2,,3.11,30.177166,,,,,,TRUE,,,,,BKN,1200,,,,,,,MVFR,,,,,,,,,,,,METAR,174.0
GMML 311900Z 03009KT CAVOK 26/13 Q1018 NOSIG,GMML,2022-10-31T19:00:00Z,27.13,-13.23,26.0,13.0,30,9,,6.21,30.059055,,,,,,TRUE,,,,,CAVOK,,,,,,,,VFR,,,,,,,,,,,,METAR,63.0
GMMI 311900Z AUTO VRB04KT //// ////// 22/17 Q1020 NOSIG,GMMI,2022-10-31T19:00:00Z,31.4,-9.68,22.0,17.0,0,4,,,30.11811,,,TRUE,,,TRUE,,,,,,,,,,,,,,,,,,,,,,,,,METAR,102.0
GMMH 311900Z 01013KT 8000 NSC 23/15 Q1016 NOSIG,GMMH,2022-10-31T19:00:00Z,23.72,-15.93,23.0,15.0,10,13,,4.97,30.0,,,,,,TRUE,,,,,CLR,,,,,,,,MVFR,,,,,,,,,,,,METAR,11.0
GMMD 311900Z 08008KT CAVOK 25/M01 Q1021 NOSIG,GMMD,2022-10-31T19:00:00Z,32.4,-6.32,25.0,-1.0,80,8,,6.21,30.147638,,,,,,TRUE,,,,,CAVOK,,,,,,,,VFR,,,,,,,,,,,,METAR,515.0
GMMC 311900Z 02004KT 6000 NSC 22/19 Q1021,GMMC,2022-10-31T19:00:00Z,33.57,-7.67,22.0,19.0,20,4,,3.73,30.147638,,,,,,,,,,,CLR,,,,,,,,MVFR,,,,,,,,,,,,METAR,62.0
GMMB 311900Z AUTO 35003KT 310V020 9999NDV ////// 21/21 Q1022 NOSIG,GMMB,2022-10-31T19:00:00Z,33.65,-7.22,21.0,21.0,350,3,,,30.177166,,,TRUE,,,TRUE,,,,,,,,,,,,,,,,,,,,,,,,,METAR,191.0
GMFM 311900Z 31007KT CAVOK 22/08 Q1023 NOSIG,GMFM,2022-10-31T19:00:00Z,33.87,-5.52,22.0,8.0,310,7,,6.21,30.206694,,,,,,TRUE,,,,,CAVOK,,,,,,,,VFR,,,,,,,,,,,,METAR,569.0
GMFK 311900Z 19004KT CAVOK 22/M08 Q1026 NOSIG,GMFK,2022-10-31T19:00:00Z,31.95,-4.4,22.0,-8.0,190,4,,6.21,30.295275,,,,,,TRUE,,,,,CAVOK,,,,,,,,VFR,,,,,,,,,,,,METAR,1033.0
GMAZ 311900Z AUTO 16007KT CAVOK 23/M07 Q1024,GMAZ,2022-10-31T19:00:00Z,30.32,-5.87,23.0,-7.0,160,7,,6.21,30.236221,,,TRUE,,,,,,,,CAVOK,,,,,,,,VFR,,,,,,,,,,,,METAR,729.0
GMAG 311900Z 04005KT CAVOK 27/M07 Q1019,GMAG,2022-10-31T19:00:00Z,29.03,-10.05,27.0,-7.0,40,5,,6.21,30.088583,,,,,,,,,,,CAVOK,,,,,,,,VFR,,,,,,,,,,,,METAR,333.0
GGOV 311900Z VRB02KT 8000 FEW010 30/26 Q1010 NOSIG,GGOV,2022-10-31T19:00:00Z,11.88,-15.65,30.0,26.0,0,2,,4.97,29.822834,,,,,,TRUE,,,,,FEW,1000,,,,,,,MVFR,,,,,,,,,,,,METAR,31.0
GBYD 311900Z 26006KT CAVOK 29/24 Q1010,GBYD,2022-10-31T19:00:00Z,13.33,-16.65,29.0,24.0,260,6,,6.21,29.822834,,,,,,,,,,,CAVOK,,,,,,,,VFR,,,,,,,,,,,,METAR,29.0
GAMB 311900Z 34004KT CAVOK 28/18 Q1012,GAMB,2022-10-31T19:00:00Z,14.52,-4.08,28.0,18.0,340,4,,6.21,29.88189,,,,,,,,,,,CAVOK,,,,,,,,VFR,,,,,,,,,,,,METAR,271.0
FYWW 311900Z AUTO 24005KT //// // ////// 24/M01 Q1022,FYWW,2022-10-31T19:00:00Z,-22.57,17.1,24.0,-1.0,240,5,,,30.177166,,,TRUE,,,,,,,,,,,,,,,,,,,,,,,,,,,,METAR,1672.0
FYWB 311900Z AUTO 30004KT //// // ////// 15/12 Q1014,FYWB,2022-10-31T19:00:00Z,-22.98,14.65,15.0,12.0,300,4,,,29.940945,,,TRUE,,,,,,,,,,,,,,,,,,,,,,,,,,,,METAR,87.0
FYLZ 311900Z AUTO 20014KT //// // ////// 15/12 Q1013,FYLZ,2022-10-31T19:00:00Z,-26.68,15.25,15.0,12.0,200,14,,,29.911417,,,TRUE,,,,,,,,,,,,,,,,,,,,,,,,,,,,METAR,129.0
FYGF 311900Z AUTO 35008G19KT //// // ////// 25/13 Q1019,FYGF,2022-10-31T19:00:00Z,-19.6,18.12,25.0,13.0,350,8,19,,30.088583,,,TRUE,,,,,,,,,,,,,,,,,,,,,,,,,,,,METAR,1407.0
FWKI 311900Z 09015KT CAVOK 23/12 Q1018 NOSIG,FWKI,2022-10-31T19:00:00Z,-13.78,33.78,23.0,12.0,90,15,,6.21,30.059055,,,,,,TRUE,,,,,CAVOK,,,,,,,,VFR,,,,,,,,,,,,METAR,1225.0
FTTJ 311900Z 32005KT 6000 NSC 29/11 Q1010 NOSIG,FTTJ,2022-10-31T19:00:00Z,12.13,15.03,29.0,11.0,320,5,,3.73,29.822834,,,,,,TRUE,,,,,CLR,,,,,,,,MVFR,,,,,,,,,,,,METAR,295.0
FTTA 311900Z 02005KT CAVOK 27/21 Q1011,FTTA,2022-10-31T19:00:00Z,9.15,18.37,27.0,21.0,20,5,,6.21,29.852362,,,,,,,,,,,CAVOK,,,,,,,,VFR,,,,,,,,,,,,METAR,361.0
FSIA 311900Z 13014KT 9999 SCT020 25/23 Q1014 NOSIG,FSIA,2022-10-31T19:00:00Z,-4.67,55.52,25.0,23.0,130,14,,6.21,29.940945,,,,,,TRUE,,,,,SCT,2000,,,,,,,VFR,,,,,,,,,,,,METAR,3.0
FNLU 311900Z 18011KT 9999 FEW020 26/23 Q1008,FNLU,2022-10-31T19:00:00Z,-8.85,13.22,26.0,23.0,180,11,,6.21,29.763779,,,,,,,,,,,FEW,2000,,,,,,,VFR,,,,,,,,,,,,METAR,75.0
FNCA 311900Z 18005KT 9999 FEW015 27/24 Q1009,FNCA,2022-10-31T19:00:00Z,-5.58,12.18,27.0,24.0,180,5,,6.21,29.793306,,,,,,,,,,,FEW,1500,,,,,,,VFR,,,,,,,,,,,,METAR,14.0
FMSD 311900Z 08010KT 9999 VCTS FEW016CB 24/21 Q1016,FMSD,2022-10-31T19:00:00Z,-25.03,46.95,24.0,21.0,80,10,,6.21,30.0,,,,,,,,,,VCTS,FEW,1600,,,,,,,VFR,,,,,,,,,,,,METAR,7.0
FMNM 311900Z VRB02KT 9999 FEW040 25/23 Q1015 NOSIG,FMNM,2022-10-31T19:00:00Z,-15.67,46.35,25.0,23.0,0,2,,6.21,29.970472,,,,,,TRUE,,,,,FEW,4000,,,,,,,VFR,,,,,,,,,,,,METAR,18.0
FMMT 311900Z VRB01KT 9999 SCT017 22/20 Q1019 NOSIG,FMMT,2022-10-31T19:00:00Z,-18.12,49.38,22.0,20.0,0,1,,6.21,30.088583,,,,,,TRUE,,,,,SCT,1700,,,,,,,VFR,,,,,,,,,,,,METAR,13.0
FKKR 311900Z 04003KT 350V070 CAVOK 26/16 Q1011 NOSIG,FKKR,2022-10-31T19:00:00Z,9.33,13.37,26.0,16.0,40,3,,6.21,29.852362,,,,,,TRUE,,,,,CAVOK,,,,,,,,VFR,,,,,,,,,,,,METAR,223.0
FIMP 311900Z 07013KT 9999 SCT016 23/20 Q1021,FIMP,2022-10-31T19:00:00Z,-20.43,57.68,23.0,20.0,70,13,,6.21,30.147638,,,,,,,,,,,SCT,1600,,,,,,,VFR,,,,,,,,,,,,METAR,57.0
FGSL 311900Z 21005KT 9999 FEW010 25/24 Q1012 NOSIG,FGSL,2022-10-31T19:00:00Z,3.75,8.72,25.0,24.0,210,5,,6.21,29.88189,,,,,,TRUE,,,,,FEW,1000,,,,,,,VFR,,,,,,,,,,,,METAR,23.0
FDST 311900Z AUTO 03010KT //// // ////// 21/21 Q1023,FDST,2022-10-31T19:00:00Z,-26.43,31.95,21.0,21.0,30,10,,,30.206694,,,TRUE,,,,,,,,,,,,,,,,,,,,,,,,,,,,METAR,642.0
FDPP 311900Z AUTO /////KT //// // ////// 13/M06 Q1023,FDPP,2022-10-31T19:00:00Z,-25.97,31.25,13.0,-6.0,,,,,30.206694,,,TRUE,,,,,,,,,,,,,,,,,,,,,,,,,,,,METAR,1023.0
FDMY 311900Z AUTO 27003KT //// // ////// 16/16 Q1034,FDMY,2022-10-31T19:00:00Z,-25.88,31.52,16.0,16.0,270,3,,,30.531496,,,TRUE,,,,,,,,,,,,,,,,,,,,,,,,,,,,METAR,401.0
FDBB 311900Z AUTO 22005KT //// // ////// 18/17 Q1022,FDBB,2022-10-31T19:00:00Z,-26.8,31.93,18.0,17.0,220,5,,,30.177166,,,TRUE,,,,,,,,,,,,,,,,,,,,,,,,,,,,METAR,106.0
FBSK 311900Z 08011KT 9999 FEW030CB SCT070 25/11 Q1017 NOSIG,FBSK,2022-10-31T19:00:00Z,-24.55,25.92,25.0,11.0,80,11,,6.21,30.029528,,,,,,TRUE,,,,,FEW,3000,SCT,7000,,,,,VFR,,,,,,,,,,,,METAR,1007.0
FBPM 311900Z 11006KT 070V130 CAVOK 21/16 Q1019,FBPM,2022-10-31T19:00:00Z,-21.17,27.48,21.0,16.0,110,6,,6.21,30.088583,,,,,,,,,,,CAVOK,,,,,,,,VFR,,,,,,,,,,,,METAR,1009.0
FBMN 311900Z 07005KT CAVOK 25/16 Q1016,FBMN,2022-10-31T19:00:00Z,-19.97,23.42,25.0,16.0,70,5,,6.21,30.0,,,,,,,,,,,CAVOK,,,,,,,,VFR,,,,,,,,,,,,METAR,946.0
FAWK 311900Z AUTO 11008KT //// // ////// 16/13 Q1025,FAWK,2022-10-31T19:00:00Z,-25.82,28.22,16.0,13.0,110,8,,,30.265747,,,TRUE,,,,,,,,,,,,,,,,,,,,,,,,,,,,SPECI,1496.0
FAWB 311900Z AUTO 09006KT //// // ////// 17/15 Q1022,FAWB,2022-10-31T19:00:00Z,-25.65,28.22,17.0,15.0,90,6,,,30.177166,,,TRUE,,,,,,,,,,,,,,,,,,,,,,,,,,,,METAR,1245.0
FAUP 311900Z AUTO 21001KT //// // ////// 23/M00 Q1016,FAUP,2022-10-31T19:00:00Z,-28.38,21.27,23.0,0.0,210,1,,,30.0,,,TRUE,,,,,,,,,,,,,,,,,,,,,,,,,,,,SPECI,845.0
FASI 311900Z AUTO 13003KT //// // ////// 14/13 Q1028,FASI,2022-10-31T19:00:00Z,-26.25,28.4,14.0,13.0,130,3,,,30.35433,,,TRUE,,,,,,,,,,,,,,,,,,,,,,,,,,,,METAR,1627.0
FAPP 311900Z AUTO 06005KT //// // ////// 17/16 Q1025,FAPP,2022-10-31T19:00:00Z,-23.83,29.45,17.0,16.0,60,5,,,30.265747,,,TRUE,,,,,,,,,,,,,,,,,,,,,,,,,,,,METAR,1238.0
FAPE 311900Z 14005KT 110V170 9999 FEW014 SCT032 BKN045 13/12 Q1028 TEMPO -RA,FAPE,2022-10-31T19:00:00Z,-33.98,25.6,13.0,12.0,140,5,,6.21,30.35433,,,,,,,,,,,FEW,1400,SCT,3200,BKN,4500,,,VFR,,,,,,,,,,,,SPECI,58.0
FALW 311900Z AUTO 17006KT //// // ////// 18/07 Q1016,FALW,2022-10-31T19:00:00Z,-32.97,18.17,18.0,7.0,170,6,,,30.0,,,TRUE,,,,,,,,,,,,,,,,,,,,,,,,,,,,METAR,31.0
FALE 311900Z 21007KT 9999 SCT045 16/14 Q1026 NOSIG,FALE,2022-10-31T19:00:00Z,-29.62,31.12,16.0,14.0,210,7,,6.21,30.295275,,,,,,TRUE,,,,,SCT,4500,,,,,,,VFR,,,,,,,,,,,,METAR,109.0
FALA 311900Z 09012KT CAVOK 17/13 Q1024 NOSIG,FALA,2022-10-31T19:00:00Z,-25.93,27.92,17.0,13.0,90,12,,6.21,30.236221,,,,,,TRUE,,,,,CAVOK,,,,,,,,VFR,,,,,,,,,,,,METAR,1365.0
FAKN 311900Z AUTO 10004KT //// // ////// 16/15 Q1026,FAKN,2022-10-31T19:00:00Z,-25.38,31.1,16.0,15.0,100,4,,,30.295275,,,TRUE,,,,,,,,,,,,,,,,,,,,,,,,,,,,METAR,864.0
FAJB 311900Z AUTO 10003KT //// // ////// 15/12 Q1024,FAJB,2022-10-31T19:00:00Z,-26.15,28.0,15.0,12.0,100,3,,,30.236221,,,TRUE,,,,,,,,,,,,,,,,,,,,,,,,,,,,METAR,1626.0
FAHS 311900Z AUTO 16015G28KT //// // ////// 19/17 Q1023,FAHS,2022-10-31T19:00:00Z,-24.37,31.03,19.0,17.0,160,15,28,,30.206694,,,TRUE,,,,,,,,,,,,,,,,,,,,,,,,,,,,METAR,532.0
FAGG 311900Z AUTO 10009KT 9999 // ////// 13/08 Q1026,FAGG,2022-10-31T19:00:00Z,-34.0,22.37,13.0,8.0,100,9,,6.21,30.295275,,,TRUE,,,,,,,,,,,,,,,,,,,,,,,,,,,,METAR,196.0
FACT 311900Z 14012KT CAVOK 17/07 Q1019 NOSIG,FACT,2022-10-31T19:00:00Z,-33.97,18.6,17.0,7.0,140,12,,6.21,30.088583,,,,,,TRUE,,,,,CAVOK,,,,,,,,VFR,,,,,,,,,,,,METAR,48.0
FABL 311900Z AUTO 18003KT //// R02///// // ///////// 18/04 Q1021,FABL,2022-10-31T19:00:00Z,-29.1,26.3,18.0,4.0,180,3,,,30.147638,,,TRUE,,,,,,,,,,,,,,,,,,,,,,,,,,,,SPECI,1348.0
EIME 311900Z 13006KT 8000 FEW010 BKN026 13/10 Q0999,EIME,2022-10-31T19:00:00Z,53.3,-6.45,13.0,10.0,130,6,,4.97,29.498032,,,,,,,,,,,FEW,1000,BKN,2600,,,,,MVFR,,,,,,,,,,,,METAR,90.0
DXXX 311900Z 09005KT 060V120 9999 TS FEW012 FEW017CB 29/22 Q1011 BECMG NSW,DXXX,2022-10-31T19:00:00Z,6.17,1.25,29.0,22.0,90,5,,6.21,29.852362,,,,,,,,,,TS,FEW,1200,FEW,1700,,,,,VFR,,,,,,,,,,,,METAR,22.0
DTTZ 311900Z 28003KT CAVOK 21/10 Q1022,DTTZ,2022-10-31T19:00:00Z,33.93,8.1,21.0,10.0,280,3,,6.21,30.177166,,,,,,,,,,,CAVOK,,,,,,,,VFR,,,,,,,,,,,,METAR,87.0
DTTX 311900Z 15004KT 9999 FEW030 22/11 Q1022,DTTX,2022-10-31T19:00:00Z,34.72,10.68,22.0,11.0,150,4,,6.21,30.177166,,,,,,,,,,,FEW,3000,,,,,,,VFR,,,,,,,,,,,,METAR,17.0
DTTR 311900Z AUTO 06006KT NCD 21/07 Q1024,DTTR,2022-10-31T19:00:00Z,31.7,9.27,21.0,7.0,60,6,,,30.236221,,,TRUE,,,,,,,,CLR,,,,,,,,,,,,,,,,,,,,METAR,253.0
DTTN 311900Z 04004KT CAVOK 20/06 Q1020,DTTN,2022-10-31T19:00:00Z,36.47,8.8,20.0,6.0,40,4,,6.21,30.11811,,,,,,,,,,,CAVOK,,,,,,,,VFR,,,,,,,,,,,,METAR,145.0
DTTL 311900Z VRB02KT 9999 FEW020 22/18 Q1022,DTTL,2022-10-31T19:00:00Z,36.85,11.07,22.0,18.0,0,2,,6.21,30.177166,,,,,,,,,,,FEW,2000,,,,,,,VFR,,,,,,,,,,,,METAR,18.0
DTTK 311900Z VRB03KT CAVOK 23/12 Q1022,DTTK,2022-10-31T19:00:00Z,35.67,10.08,23.0,12.0,0,3,,6.21,30.177166,,,,,,,,,,,CAVOK,,,,,,,,VFR,,,,,,,,,,,,METAR,65.0
DTTG 311900Z 08005KT CAVOK 20/12 Q1023 NOSIG,DTTG,2022-10-31T19:00:00Z,33.73,9.92,20.0,12.0,80,5,,6.21,30.206694,,,,,,TRUE,,,,,CAVOK,,,,,,,,VFR,,,,,,,,,,,,METAR,120.0
DTTF 311900Z 20005KT 8000 NSC 20/11 Q1023 NOSIG,DTTF,2022-10-31T19:00:00Z,34.42,8.82,20.0,11.0,200,5,,4.97,30.206694,,,,,,TRUE,,,,,CLR,,,,,,,,MVFR,,,,,,,,,,,,METAR,314.0
DTTD 311900Z VRB01KT CAVOK 20/07 Q1024,DTTD,2022-10-31T19:00:00Z,32.32,10.4,20.0,7.0,0,1,,6.21,30.236221,,,,,,,,,,,CAVOK,,,,,,,,VFR,,,,,,,,,,,,METAR,306.0
DTTB 311900Z 06006KT 9999 FEW020 19/17 Q1021,DTTB,2022-10-31T19:00:00Z,37.25,9.8,19.0,17.0,60,6,,6.21,30.147638,,,,,,,,,,,FEW,2000,,,,,,,VFR,,,,,,,,,,,,METAR,4.0
DTKA 311900Z 11005KT 9999 FEW020 19/14 Q1021 NOSIG,DTKA,2022-10-31T19:00:00Z,36.98,8.88,19.0,14.0,110,5,,6.21,30.147638,,,,,,TRUE,,,,,FEW,2000,,,,,,,VFR,,,,,,,,,,,,METAR,70.0
DRRN 311900Z 11004KT 8000 NSC 32/04 Q1012 NOSIG,DRRN,2022-10-31T19:00:00Z,13.47,2.17,32.0,4.0,110,4,,4.97,29.88189,,,,,,TRUE,,,,,CLR,,,,,,,,MVFR,,,,,,,,,,,,METAR,223.0
DNSO 311900Z 05005KT CAVOK 29/14 Q1014,DNSO,2022-10-31T19:00:00Z,12.92,5.2,29.0,14.0,50,5,,6.21,29.940945,,,,,,,,,,,CAVOK,,,,,,,,VFR,,,,,,,,,,,,METAR,302.0
DNPO 311900Z 14003KT 9999 BKN008 26/23 Q1011 NOSIG,DNPO,2022-10-31T19:00:00Z,4.83,7.02,26.0,23.0,140,3,,6.21,29.852362,,,,,,TRUE,,,,,BKN,800,,,,,,,IFR,,,,,,,,,,,,METAR,17.0
DNMN 311900Z 30003KT 7000 NSC 29/19 Q1011,DNMN,2022-10-31T19:00:00Z,9.65,6.47,29.0,19.0,300,3,,4.35,29.852362,,,,,,,,,,,CLR,,,,,,,,MVFR,,,,,,,,,,,,METAR,268.0
DNMM 311900Z 22003KT 9999 FEW012 28/24 Q1011 NOSIG,DNMM,2022-10-31T19:00:00Z,6.57,3.32,28.0,24.0,220,3,,6.21,29.852362,,,,,,TRUE,,,,,FEW,1200,,,,,,,VFR,,,,,,,,,,,,METAR,27.0
DNKN 311900Z VRB02KT CAVOK 22/14 Q1016 NOSIG,DNKN,2022-10-31T19:00:00Z,12.05,8.52,22.0,14.0,0,2,,6.21,30.0,,,,,,TRUE,,,,,CAVOK,,,,,,,,VFR,,,,,,,,,,,,METAR,471.0
DNIL 311900Z 02003KT 6000 FEW011 27/19 Q1011,DNIL,2022-10-31T19:00:00Z,8.43,4.48,27.0,19.0,20,3,,3.73,29.852362,,,,,,,,,,,FEW,1100,,,,,,,MVFR,,,,,,,,,,,,METAR,341.0
DNIB 311900Z 14004KT 9999 FEW010 28/24 Q1012,DNIB,2022-10-31T19:00:00Z,7.37,3.98,28.0,24.0,140,4,,6.21,29.88189,,,,,,,,,,,FEW,1000,,,,,,,VFR,,,,,,,,,,,,METAR,220.0
DNAA 311900Z 23002KT CAVOK 27/20 Q1013 NOSIG,DNAA,2022-10-31T19:00:00Z,9.0,7.27,27.0,20.0,230,2,,6.21,29.911417,,,,,,TRUE,,,,,CAVOK,,,,,,,,VFR,,,,,,,,,,,,METAR,338.0
DIYO 311900Z 00000KT 9999 TS SCT013 FEW020CB 26/24 Q1011 NOSIG,DIYO,2022-10-31T19:00:00Z,6.9,-5.35,26.0,24.0,0,0,,6.21,29.852362,,,,,,TRUE,,,,TS,SCT,1300,FEW,2000,,,,,VFR,,,,,,,,,,,,METAR,202.0
DIBK 311900Z 14002KT 8000 FEW013 FEW020CB 27/24 Q1012 NOSIG,DIBK,2022-10-31T19:00:00Z,7.73,-5.07,27.0,24.0,140,2,,4.97,29.88189,,,,,,TRUE,,,,,FEW,1300,FEW,2000,,,,,MVFR,,,,,,,,,,,,METAR,363.0
DGAA 311900Z 18004KT 9999 FEW012 27/24 Q1011 NOSIG,DGAA,2022-10-31T19:00:00Z,5.58,-0.17,27.0,24.0,180,4,,6.21,29.852362,,,,,,TRUE,,,,,FEW,1200,,,,,,,VFR,,,,,,,,,,,,METAR,68.0
DFOO 311900Z 05005KT 8000 FEW026 26/17 Q1012,DFOO,2022-10-31T19:00:00Z,11.17,-4.32,26.0,17.0,50,5,,4.97,29.88189,,,,,,,,,,,FEW,2600,,,,,,,MVFR,,,,,,,,,,,,METAR,461.0
DFFD 311900Z 05004KT 8000 NSC 29/11 Q1012 NOSIG,DFFD,2022-10-31T19:00:00Z,12.35,-1.52,29.0,11.0,50,4,,4.97,29.88189,,,,,,TRUE,,,,,CLR,,,,,,,,MVFR,,,,,,,,,,,,METAR,309.0
DBBB 311900Z 20007KT 9999 FEW012 28/23 Q1010 NOSIG,DBBB,2022-10-31T19:00:00Z,6.35,2.38,28.0,23.0,200,7,,6.21,29.822834,,,,,,TRUE,,,,,FEW,1200,,,,,,,VFR,,,,,,,,,,,,METAR,4.0
DAUZ 311900Z 09006KT CAVOK 21/M04 Q1022,DAUZ,2022-10-31T19:00:00Z,28.05,9.63,21.0,-4.0,90,6,,6.21,30.177166,,,,,,,,,,,CAVOK,,,,,,,,VFR,,,,,,,,,,,,METAR,567.0
DAUU 311900Z 00000KT CAVOK 21/00 Q1021,DAUU,2022-10-31T19:00:00Z,31.92,5.4,21.0,0.0,0,0,,6.21,30.147638,,,,,,,,,,,CAVOK,,,,,,,,VFR,,,,,,,,,,,,METAR,147.0
DAUT 311900Z 05010KT CAVOK 24/M03 Q1021,DAUT,2022-10-31T19:00:00Z,29.25,0.27,24.0,-3.0,50,10,,6.21,30.147638,,,,,,,,,,,CAVOK,,,,,,,,VFR,,,,,,,,,,,,METAR,307.0
DAUO 311900Z 18003KT CAVOK 22/06 Q1022,DAUO,2022-10-31T19:00:00Z,33.5,6.78,22.0,6.0,180,3,,6.21,30.177166,,,,,,,,,,,CAVOK,,,,,,,,VFR,,,,,,,,,,,,METAR,55.0
DAUK 311900Z 16004KT CAVOK 20/05 Q1022,DAUK,2022-10-31T19:00:00Z,33.08,6.08,20.0,5.0,160,4,,6.21,30.177166,,,,,,,,,,,CAVOK,,,,,,,,VFR,,,,,,,,,,,,METAR,83.0
DAUI 311900Z 04008KT CAVOK 26/M06 Q1018,DAUI,2022-10-31T19:00:00Z,27.25,2.52,26.0,-6.0,40,8,,6.21,30.059055,,,,,,,,,,,CAVOK,,,,,,,,VFR,,,,,,,,,,,,METAR,271.0
DAUH 311900Z 05004KT CAVOK 24/05 Q1022,DAUH,2022-10-31T19:00:00Z,31.67,6.15,24.0,5.0,50,4,,6.21,30.177166,,,,,,,,,,,CAVOK,,,,,,,,VFR,,,,,,,,,,,,METAR,141.0
DAUG 311900Z 00000KT CAVOK 22/M03 Q1024,DAUG,2022-10-31T19:00:00Z,32.38,3.78,22.0,-3.0,0,0,,6.21,30.236221,,,,,,,,,,,CAVOK,,,,,,,,VFR,,,,,,,,,,,,METAR,444.0
DAUE 311900Z 06004KT CAVOK 23/M00 Q1024,DAUE,2022-10-31T19:00:00Z,30.57,2.87,23.0,0.0,60,4,,6.21,30.236221,,,,,,,,,,,CAVOK,,,,,,,,VFR,,,,,,,,,,,,METAR,396.0
DAUB 311900Z VRB02KT CAVOK 21/03 Q1022,DAUB,2022-10-31T19:00:00Z,34.78,5.73,21.0,3.0,0,2,,6.21,30.177166,,,,,,,,,,,CAVOK,,,,,,,,VFR,,,,,,,,,,,,METAR,75.0
DAUA 311900Z 35005KT CAVOK 23/M07 Q1019,DAUA,2022-10-31T19:00:00Z,27.83,-0.18,23.0,-7.0,350,5,,6.21,30.088583,,,,,,,,,,,CAVOK,,,,,,,,VFR,,,,,,,,,,,,METAR,278.0
DAOY 311900Z VRB02KT CAVOK 17/M05 Q1027,DAOY,2022-10-31T19:00:00Z,33.72,1.08,17.0,-5.0,0,2,,6.21,30.324802,,,,,,,,,,,CAVOK,,,,,,,,VFR,,,,,,,,,,,,METAR,1340.0
DAOV 311900Z 05003KT CAVOK 21/M01 Q1021,DAOV,2022-10-31T19:00:00Z,35.2,0.15,21.0,-1.0,50,3,,6.21,30.147638,,,,,,,,,,,CAVOK,,,,,,,,VFR,,,,,,,,,,,,METAR,506.0
DAOR 311900Z VRB02KT CAVOK 21/M05 Q1024,DAOR,2022-10-31T19:00:00Z,31.65,-2.27,21.0,-5.0,0,2,,6.21,30.236221,,,,,,,,,,,CAVOK,,,,,,,,VFR,,,,,,,,,,,,METAR,809.0
DAOL 311900Z 29004KT 8000 NSC 21/15 Q1020,DAOL,2022-10-31T19:00:00Z,35.53,-0.52,21.0,15.0,290,4,,4.97,30.11811,,,,,,,,,,,CLR,,,,,,,,MVFR,,,,,,,,,,,,METAR,103.0
DAOI 311900Z 35004KT CAVOK 25/M02 Q1020,DAOI,2022-10-31T19:00:00Z,36.22,1.32,25.0,-2.0,350,4,,6.21,30.11811,,,,,,,,,,,CAVOK,,,,,,,,VFR,,,,,,,,,,,,METAR,141.0
DAOF 311900Z 09005KT CAVOK 27/M04 Q1021,DAOF,2022-10-31T19:00:00Z,27.7,-8.17,27.0,-4.0,90,5,,6.21,30.147638,,,,,,,,,,,CAVOK,,,,,,,,VFR,,,,,,,,,,,,METAR,441.0
DAOB 311900Z 11003KT CAVOK 16/M03 Q1025,DAOB,2022-10-31T19:00:00Z,35.33,1.47,16.0,-3.0,110,3,,6.21,30.265747,,,,,,,,,,,CAVOK,,,,,,,,VFR,,,,,,,,,,,,METAR,976.0
DABT 311900Z 00000KT CAVOK 17/M02 Q1025,DABT,2022-10-31T19:00:00Z,35.75,6.32,17.0,-2.0,0,0,,6.21,30.265747,,,,,,,,,,,CAVOK,,,,,,,,VFR,,,,,,,,,,,,METAR,813.0
DABS 311900Z 11006KT CAVOK 16/M08 Q1024,DABS,2022-10-31T19:00:00Z,35.43,8.12,16.0,-8.0,110,6,,6.21,30.236221,,,,,,,,,,,CAVOK,,,,,,,,VFR,,,,,,,,,,,,METAR,806.0
DAAY 311900Z 35004KT CAVOK 19/M03 Q1026,DAAY,2022-10-31T19:00:00Z,33.53,-0.25,19.0,-3.0,350,4,,6.21,30.295275,,,,,,,,,,,CAVOK,,,,,,,,VFR,,,,,,,,,,,,METAR,1116.0
DAAV 311900Z 19003KT 8000 NSC 17/13 Q1020,DAAV,2022-10-31T19:00:00Z,36.8,5.88,17.0,13.0,190,3,,4.97,30.11811,,,,,,,,,,,CLR,,,,,,,,MVFR,,,,,,,,,,,,METAR,11.0
DAAS 311900Z 31004KT CAVOK 18/M02 Q1025,DAAS,2022-10-31T19:00:00Z,36.18,5.33,18.0,-2.0,310,4,,6.21,30.265747,,,,,,,,,,,CAVOK,,,,,,,,VFR,,,,,,,,,,,,METAR,1012.0
DAAP 311900Z 04006KT CAVOK 22/M01 Q1022,DAAP,2022-10-31T19:00:00Z,26.72,8.62,22.0,-1.0,40,6,,6.21,30.177166,,,,,,,,,,,CAVOK,,,,,,,,VFR,,,,,,,,,,,,METAR,542.0
DAAJ 311900Z 02010KT CAVOK 19/M02 Q1023,DAAJ,2022-10-31T19:00:00Z,24.28,9.47,19.0,-2.0,20,10,,6.21,30.206694,,,,,,,,,,,CAVOK,,,,,,,,VFR,,,,,,,,,,,,METAR,962.0
DAAE 311900Z 21004KT 8000 NSC 18/10 Q1020,DAAE,2022-10-31T19:00:00Z,36.72,5.07,18.0,10.0,210,4,,4.97,30.11811,,,,,,,,,,,CLR,,,,,,,,MVFR,,,,,,,,,,,,METAR,1.0
CZZJ 311900Z AUTO 08005KT 02/M02 RMK AO1 SLP040 T00221023 58012,CZZJ,2022-10-31T19:00:00Z,53.58,-116.47,2.2,-2.3,80,5,,,,1004.0,,TRUE,TRUE,,,,,,,,,,,,,,,,-1.2,,,,,,,,,,,METAR,927.0
CZVL 311900Z AUTO 19007KT 160V220 9SM CLR 07/M05 A2961 RMK SLP049,CZVL,2022-10-31T19:00:00Z,53.67,-113.85,7.0,-5.0,190,7,,9.0,29.610237,1004.9,,TRUE,,,,,,,,CLR,,,,,,,,VFR,,,,,,,,,,,,METAR,685.0
CZUM 311900Z AUTO 32011G17KT 9SM BKN028 01/M04 A2989 RMK SLP146,CZUM,2022-10-31T19:00:00Z,53.55,-64.1,1.0,-4.0,320,11,17,9.0,29.890747,1014.6,,TRUE,,,,,,,,BKN,2800,,,,,,,MVFR,,,,,,,,,,,,METAR,431.0
CZTB 311900Z AUTO 06007KT 10/05 RMK AO1 SLP071 T00950050 57025,CZTB,2022-10-31T19:00:00Z,48.37,-89.32,9.5,5.0,60,7,,,,1007.1,,TRUE,TRUE,,,,,,,,,,,,,,,,-2.5,,,,,,,,,,,METAR,197.0
CZST 311900Z 00000KT 3SM -RA BR BKN015 OVC075 03/02 A2966 RMK SC5AC3 SLP045,CZST,2022-10-31T19:00:00Z,55.93,-129.98,3.0,2.0,0,0,,3.0,29.660433,1004.5,,,,,,,,,-RA BR,BKN,1500,OVC,7500,,,,,MVFR,,,,,,,,,,,,METAR,10.0
CZSP 311900Z AUTO 27009KT 15/01 RMK AO1 SLP149 T01520006 53001,CZSP,2022-10-31T19:00:00Z,46.45,-62.58,15.2,0.6,270,9,,,,1014.9,,TRUE,TRUE,,,,,,,,,,,,,,,,0.1,,,,,,,,,,,METAR,31.0
CZSM 311900Z AUTO 05003KT M07/M10 RMK AO1 SOG 03 1018 SLP062 T10741101,CZSM,2022-10-31T19:00:00Z,60.03,-111.93,-7.4,-10.1,50,3,,,,1006.2,,TRUE,TRUE,,,,,,,,,,,,,,,,,,,,,,,,,,,METAR,203.0
CZSJ 311900Z AUTO 25013G23KT 190V290 9SM SCT160 13/01 A2935 RMK SLP950 DENSITY ALT 1600FT,CZSJ,2022-10-31T19:00:00Z,53.07,-93.35,13.0,1.0,250,13,23,9.0,29.350393,995.0,,TRUE,,,,,,,,SCT,16000,,,,,,,VFR,,,,,,,,,,,,METAR,286.0
CZRP 311900Z AUTO 33022KT M22/M24 RMK AO1 SOG 52 2011 PK WND 32027/1847 SLP065 T12241235,CZRP,2022-10-31T19:00:00Z,75.37,-105.72,-22.4,-23.5,330,22,,,,1006.5,,TRUE,TRUE,,,,,,,,,,,,,,,,,,,,,,,,,,,METAR,6.0
CZPS 311900Z AUTO 22007KT 02/M01 RMK AO1 T00211009,CZPS,2022-10-31T19:00:00Z,52.43,-113.6,2.1,-0.9,220,7,,,,,,TRUE,TRUE,,,,,,,,,,,,,,,,,,,,,,,,,,,METAR,953.0
CZPC 311900Z AUTO 10004KT 080V140 9SM -RA BKN045 OVC060 04/03 A2965 RMK SLP061,CZPC,2022-10-31T19:00:00Z,49.52,-114.0,4.0,3.0,100,4,,9.0,29.648623,1006.1,,TRUE,,,,,,,-RA,BKN,4500,OVC,6000,,,,,VFR,,,,,,,,,,,,METAR,1187.0
CZOL 311900Z AUTO 22004KT 07/M09 RMK AO1 T00681090,CZOL,2022-10-31T19:00:00Z,53.65,-113.35,6.8,-9.0,220,4,,,,,,TRUE,TRUE,,,,,,,,,,,,,,,,,,,,,,,,,,,METAR,645.0
CZMJ 311900Z AUTO 32004KT 07/M04 RMK AO1 SLP083 T00691037 50001,CZMJ,2022-10-31T19:00:00Z,50.33,-105.53,6.9,-3.7,320,4,,,,1008.3,,TRUE,TRUE,,,,,,,,,,,,,,,,0.1,,,,,,,,,,,METAR,571.0
CZMD 311900Z AUTO 22016G21KT 9SM CLR 12/01 A2931 RMK SLP937 DENSITY ALT 1500FT,CZMD,2022-10-31T19:00:00Z,53.43,-91.77,12.0,1.0,220,16,21,9.0,29.309055,993.7,,TRUE,,,,,,,,CLR,,,,,,,,VFR,,,,,,,,,,,,METAR,276.0
CZKD 311900Z AUTO 27008G16KT 06/02 RMK AO1 PK WND 28017/1841 SLP911 T00570016 53003,CZKD,2022-10-31T19:00:00Z,56.03,-96.52,5.7,1.6,270,8,16,,,991.1,,TRUE,TRUE,,,,,,,,,,,,,,,,0.3,,,,,,,,,,,METAR,190.0
CZHY 311900Z AUTO 26009KT M04/M05 RMK AO1 SOG 06 3010 SLP055 T10411053,CZHY,2022-10-31T19:00:00Z,60.83,-115.78,-4.1,-5.3,260,9,,,,1005.5,,TRUE,TRUE,,,,,,,,,,,,,,,,,,,,,,,,,,,METAR,159.0
CZFS 311900Z AUTO 32010KT M05/M07 RMK AO1 5PAST HR SOG 13 3016 SLP071 P0002 T10541070 50005,CZFS,2022-10-31T19:00:00Z,61.77,-121.23,-5.4,-7.0,320,10,,,,1007.1,,TRUE,TRUE,,,,,,,,,,,,,,,,0.5,,,,,0.02,,,,,,METAR,174.0
CZFM 311900Z 00000KT 15SM -SN OVC030 M12/M15 A3010 RMK NS8 SLP198,CZFM,2022-10-31T19:00:00Z,67.4,-134.87,-12.0,-15.0,0,0,,15.0,30.100393,1019.8,,,,,,,,,-SN,OVC,3000,,,,,,,MVFR,,,,,,,,,,,,METAR,33.0
CZFA 311900Z 31009G15KT 6SM -SN FEW012 SCT020 BKN030 BKN060 OVC100 M07/M09 A2951 RMK ST1SC2SC2SC2AC1 VIS E 15 SLP042,CZFA,2022-10-31T19:00:00Z,62.2,-133.38,-7.0,-9.0,310,9,15,6.0,29.509842,1004.2,,,,,,,,,-SN,FEW,1200,SCT,2000,BKN,3000,BKN,6000,MVFR,,,,,,,,,,,,METAR,702.0
CZEV 311900Z AUTO 28002KT M12/M14 RMK AO1 SOG 09 3013 SLP197 T11151140,CZEV,2022-10-31T19:00:00Z,68.32,-133.48,-11.5,-14.0,280,2,,,,1019.7,,TRUE,TRUE,,,,,,,,,,,,,,,,,,,,,,,,,,,METAR,92.0
CZEM 311900Z 13006KT 100V180 15SM BKN062 BKN180 10/00 A2976 RMK SC5AC2 SLP081,CZEM,2022-10-31T19:00:00Z,52.22,-78.52,10.0,0.0,130,6,,15.0,29.760826,1008.1,,,,,,,,,,BKN,6200,BKN,18000,,,,,VFR,,,,,,,,,,,,METAR,9.0
CZEL 311900Z AUTO 15006KT 11/11 RMK AO1 SLP110 T01140108 56018,CZEL,2022-10-31T19:00:00Z,43.65,-80.42,11.4,10.8,150,6,,,,1011.0,,TRUE,TRUE,,,,,,,,,,,,,,,,-1.8,,,,,,,,,,,METAR,370.0
CZDB 311900Z AUTO 24007KT 15/ RMK AO1 SLP162 T0147 56010,CZDB,2022-10-31T19:00:00Z,45.42,-63.47,14.7,,240,7,,,,1016.2,,TRUE,TRUE,,,,,,,,,,,,,,,,-1.0,,,,,,,,,,,METAR,38.0
CZCR 311900Z AUTO 27009KT 16/04 RMK AO1 SLP128 T01630036 56008,CZCR,2022-10-31T19:00:00Z,47.98,-66.33,16.3,3.6,270,9,,,,1012.8,,TRUE,TRUE,,,,,,,,,,,,,,,,-0.8,,,,,,,,,,,METAR,39.0
CZCP 311900Z AUTO 09011KT ////SM //// BKN011 OVC020 M13/M15 A2999,CZCP,2022-10-31T19:00:00Z,70.17,-124.68,-13.0,-15.0,90,11,,,29.991142,,,TRUE,,,,,,,,BKN,1100,OVC,2000,,,,,,,,,,,,,,,,,METAR,23.0
CZBF 311900Z AUTO 05004KT 290V080 9SM CLR 18/04 A2992 RMK SLP136 DENSITY ALT 600FT,CZBF,2022-10-31T19:00:00Z,47.62,-65.75,18.0,4.0,50,4,,9.0,29.920275,1013.6,,TRUE,,,,,,,,CLR,,,,,,,,VFR,,,,,,,,,,,,SPECI,60.0
CYZX 311900Z 24008KT 15SM BKN250 19/M02 A2999 RMK CI5 SLP155,CYZX,2022-10-31T19:00:00Z,44.98,-64.92,19.0,-2.0,240,8,,15.0,29.991142,1015.5,,,,,,,,,,BKN,25000,,,,,,,VFR,,,,,,,,,,,,SPECI,28.0
CYZW 311900Z 27003KT 20SM OVC017 M06/M08 A2948 RMK SC8 SLP025,CYZW,2022-10-31T19:00:00Z,60.17,-132.75,-6.0,-8.0,270,3,,20.0,29.480314,1002.5,,,,,,,,,,OVC,1700,,,,,,,MVFR,,,,,,,,,,,,METAR,700.0
CYZV 311900Z 09005KT 340V140 30SM BKN260 14/00 A2990 RMK CI7 SLP129,CYZV,2022-10-31T19:00:00Z,50.22,-66.27,14.0,0.0,90,5,,30.0,29.899607,1012.9,,,,,,,,,,BKN,26000,,,,,,,VFR,,,,,,,,,,,,SPECI,43.0
CYZU 311900Z 19007KT 160V230 15SM SCT170 05/M09 A2959 RMK AC4 SLP050,CYZU,2022-10-31T19:00:00Z,54.15,-115.78,5.0,-9.0,190,7,,15.0,29.589567,1005.0,,,,,,,,,,SCT,17000,,,,,,,VFR,,,,,,,,,,,,METAR,785.0
CYZP 311900Z AUTO 19006KT 170V240 9SM FEW044 03/02 A2966 RMK SLP047,CYZP,2022-10-31T19:00:00Z,53.25,-131.82,3.0,2.0,190,6,,9.0,29.660433,1004.7,,TRUE,,,,,,,,FEW,4400,,,,,,,VFR,,,,,,,,,,,,METAR,7.0
CYZH 311900Z AUTO 31004KT 250V350 9SM CLR 05/M07 A2958 RMK SLP040,CYZH,2022-10-31T19:00:00Z,55.28,-114.77,5.0,-7.0,310,4,,9.0,29.58071,1004.0,,TRUE,,,,,,,,CLR,,,,,,,,VFR,,,,,,,,,,,,METAR,583.0
CYZG 311900Z 17017KT 10SM -SN BKN018 OVC080 M07/M10 A2971 RMK SC7AC1 LAST STFD OB/NXT 011200Z SLP084,CYZG,2022-10-31T19:00:00Z,62.17,-75.67,-7.0,-10.0,170,17,,10.0,29.71063,1008.4,,,,,,,,,-SN,BKN,1800,OVC,8000,,,,,MVFR,,,,,,,,,,,,SPECI,217.0
CYZE 311900Z AUTO 18008KT 9SM CLR 14/08 A2980 RMK SLP097 DENSITY ALT 800FT,CYZE,2022-10-31T19:00:00Z,45.88,-82.57,14.0,8.0,180,8,,9.0,29.799213,1009.7,,TRUE,,,,,,,,CLR,,,,,,,,VFR,,,,,,,,,,,,SPECI,189.0
CYYZ 311900Z 13004KT 100V170 15SM OVC006 11/11 A2985 RMK SC8 SLP113,CYYZ,2022-10-31T19:00:00Z,43.67,-79.62,11.0,11.0,130,4,,15.0,29.84941,1011.3,,,,,,,,,,OVC,600,,,,,,,IFR,,,,,,,,,,,,SPECI,171.0
CYYY 311900Z 27006KT 30SM BKN270 11/03 A2992 RMK CI5 SLP137,CYYY,2022-10-31T19:00:00Z,48.6,-68.22,11.0,3.0,270,6,,30.0,29.920275,1013.7,,,,,,,,,,BKN,27000,,,,,,,VFR,,,,,,,,,,,,SPECI,43.0
CYYW 311900Z AUTO 21009G20KT 170V240 9SM CLR 15/M01 A2957 RMK SLP025 DENSITY ALT 1700FT,CYYW,2022-10-31T19:00:00Z,50.3,-88.9,15.0,-1.0,210,9,20,9.0,29.568897,1002.5,,TRUE,,,,,,,,CLR,,,,,,,,VFR,,,,,,,,,,,,METAR,320.0
CYYU 311900Z 23006KT 190V270 15SM SCT050 BKN055 BKN060 14/06 A2972 RMK SC4SC1SC2 SLP075 DENSITY ALT 1100FT,CYYU,2022-10-31T19:00:00Z,49.42,-82.47,14.0,6.0,230,6,,15.0,29.719488,1007.5,,,,,,,,,,SCT,5000,BKN,5500,BKN,6000,,,VFR,,,,,,,,,,,,SPECI,228.0
CYYT 311900Z 26018G29KT 15SM SCT170 BKN230 12/06 A2980 RMK AC3CI3 SLP098,CYYT,2022-10-31T19:00:00Z,47.62,-52.73,12.0,6.0,260,18,29,15.0,29.799213,1009.8,,,,,,,,,,SCT,17000,BKN,23000,,,,,VFR,,,,,,,,,,,,SPECI,128.0
CYYR 311900Z 30010G16KT 15SM BKN033 03/M03 A2987 RMK SC7 SLP119,CYYR,2022-10-31T19:00:00Z,53.32,-60.42,3.0,-3.0,300,10,16,15.0,29.870079,1011.9,,,,,,,,,,BKN,3300,,,,,,,VFR,,,,,,,,,,,,SPECI,42.0
CYYQ 311900Z 24008KT 15SM -RA SCT026 OVC055 01/M00 A2908 RMK SC3SC5 SLP850,CYYQ,2022-10-31T19:00:00Z,58.75,-94.07,1.0,0.0,240,8,,15.0,29.078741,985.0,,,,,,,,,-RA,SCT,2600,OVC,5500,,,,,VFR,,,,,,,,,,,,SPECI,20.0
CYYN 311900Z AUTO 09009KT 9SM -RA BKN044 BKN055 04/01 A2965 RMK ICE MISG SLP064,CYYN,2022-10-31T19:00:00Z,50.28,-107.68,4.0,1.0,90,9,,9.0,29.648623,1006.4,,TRUE,,,,,,,-RA,BKN,4400,BKN,5500,,,,,VFR,,,,,,,,,,,,SPECI,814.0
CYYJ 311900Z 25009G15KT 20SM BKN045 BKN100 BKN230 11/04 A2980 RMK SC5AC1CI1 SLP094,CYYJ,2022-10-31T19:00:00Z,48.63,-123.42,11.0,4.0,250,9,15,20.0,29.799213,1009.4,,,,,,,,,,BKN,4500,BKN,10000,BKN,23000,,,VFR,,,,,,,,,,,,SPECI,16.0
CYYG 311900Z 24007KT 15SM BKN250 16/01 A2996 RMK CI5 SLP148 DENSITY ALT 300FT,CYYG,2022-10-31T19:00:00Z,46.28,-63.12,16.0,1.0,240,7,,15.0,29.958662,1014.8,,,,,,,,,,BKN,25000,,,,,,,VFR,,,,,,,,,,,,SPECI,48.0
CYYF 311900Z 17014G20KT 15SM FEW040 SCT080 SCT240 14/07 A2962 RMK CU2AC1CI1 SLP037 DENSITY ALT 1600FT,CYYF,2022-10-31T19:00:00Z,49.47,-119.6,14.0,7.0,170,14,20,15.0,29.619095,1003.7,,,,,,,,,,FEW,4000,SCT,8000,SCT,24000,,,VFR,,,,,,,,,,,,SPECI,342.0
CYYE 311900Z VRB02KT 10SM OVC008 M05/M07 A2962 RMK SC8 SLP058,CYYE,2022-10-31T19:00:00Z,58.83,-122.58,-5.0,-7.0,0,2,,10.0,29.619095,1005.8,,,,,,,,,,OVC,800,,,,,,,IFR,,,,,,,,,,,,SPECI,379.0
CYYD 311900Z 26003KT 220V310 25SM FEW015 SCT070 02/M01 A2959 RMK SF2AC2 SLP039,CYYD,2022-10-31T19:00:00Z,54.82,-127.18,2.0,-1.0,260,3,,25.0,29.589567,1003.9,,,,,,,,,,FEW,1500,SCT,7000,,,,,VFR,,,,,,,,,,,,SPECI,527.0
CYYC 311900Z 18011KT 15SM OVC026 03/M04 A2964 RMK SC8 SLP072,CYYC,2022-10-31T19:00:00Z,51.12,-114.02,3.0,-4.0,180,11,,15.0,29.639763,1007.2,,,,,,,,,,OVC,2600,,,,,,,MVFR,,,,,,,,,,,,SPECI,1085.0
CYYB 311900Z 21007KT 30SM BKN130 13/03 A2982 RMK AC7 SLP105 DENSITY ALT 1500FT,CYYB,2022-10-31T19:00:00Z,46.35,-79.42,13.0,3.0,210,7,,30.0,29.819881,1010.5,,,,,,,,,,BKN,13000,,,,,,,VFR,,,,,,,,,,,,SPECI,360.0
CYXZ 311900Z 23007G16KT 190V350 15SM FEW040 FEW250 10/07 A2977 RMK CU1CI1 CI TR SLP094,CYXZ,2022-10-31T19:00:00Z,47.97,-84.77,10.0,7.0,230,7,16,15.0,29.769686,1009.4,,,,,,,,,,FEW,4000,FEW,25000,,,,,VFR,,,,,,,,,,,,SPECI,287.0
CYXY 311900Z 34008KT 20SM -SN BKN016 OVC040 M05/M08 A2952 RMK SC7SC1 SLP042,CYXY,2022-10-31T19:00:00Z,60.72,-135.07,-5.0,-8.0,340,8,,20.0,29.518702,1004.2,,,,,,,,,-SN,BKN,1600,OVC,4000,,,,,MVFR,,,,,,,,,,,,SPECI,677.0
CYXX 311900Z 19013G18KT 10SM FEW018TCU SCT037 BKN046 BKN060 BKN080 11/08 A2978 RMK TCU2CU1SC2SC1AC1 AC TR SLP087,CYXX,2022-10-31T19:00:00Z,49.03,-122.38,11.0,8.0,190,13,18,10.0,29.778543,1008.7,,,,,,,,,,FEW,1800,SCT,3700,BKN,4600,BKN,6000,VFR,,,,,,,,,,,,SPECI,54.0
CYXT 311900Z VRB02KT 15SM FEW003 SCT008 BKN035 BKN100 03/01 A2966 RMK CF1CU3CU3AC1 CF TR SLP054,CYXT,2022-10-31T19:00:00Z,54.47,-128.57,3.0,1.0,0,2,,15.0,29.660433,1005.4,,,,,,,,,,FEW,300,SCT,800,BKN,3500,BKN,10000,VFR,,,,,,,,,,,,SPECI,213.0
CYXR 311900Z AUTO 21004KT 9SM FEW110 13/06 A2979 RMK SLP097 DENSITY ALT 900FT,CYXR,2022-10-31T19:00:00Z,47.7,-79.85,13.0,6.0,210,4,,9.0,29.790354,1009.7,,TRUE,,,,,,,,FEW,11000,,,,,,,VFR,,,,,,,,,,,,SPECI,244.0
CYXQ 311900Z 30004KT 8SM -SN SCT025 BKN050 M13/M16 A2973 RMK SC4SC4 /PCPN VRY LGT/ SLP124,CYXQ,2022-10-31T19:00:00Z,62.42,-140.87,-13.0,-16.0,300,4,,8.0,29.731298,1012.4,,,,,,,,,-SN,SCT,2500,BKN,5000,,,,,VFR,,,,,,,,,,,,SPECI,663.0
CYXP 311900Z 31011G22KT 260V340 15SM DRSN VCSH FEW022 SCT027 M08/M13 A2960 RMK SC1SC2 SLP028,CYXP,2022-10-31T19:00:00Z,66.15,-65.72,-8.0,-13.0,310,11,22,15.0,29.601377,1002.8,,,,,,,,,DRSN VCSH,FEW,2200,SCT,2700,,,,,VFR,,,,,,,,,,,,SPECI,29.0
CYXN 311900Z 05005KT 15SM OVC003 01/00 A2907 RMK ST8 WIND ESTD SLP847,CYXN,2022-10-31T19:00:00Z,62.23,-92.58,1.0,0.0,50,5,,15.0,29.069881,984.7,,,,,,,,,,OVC,300,,,,,,,LIFR,,,,,,,,,,,,SPECI,9.0
CYXL 311900Z 23012KT 15SM BKN210 12/01 A2958 RMK CS7 SLP032 DENSITY ALT 1700FT,CYXL,2022-10-31T19:00:00Z,50.12,-91.9,12.0,1.0,230,12,,15.0,29.58071,1003.2,,,,,,,,,,BKN,21000,,,,,,,VFR,,,,,,,,,,,,SPECI,381.0
CYXJ 311900Z 21005KT 60SM BKN160 BKN240 03/M07 A2952 RMK AC6CI1 VIRGA SLP026,CYXJ,2022-10-31T19:00:00Z,56.25,-120.73,3.0,-7.0,210,5,,60.0,29.518702,1002.6,,,,,,,,,,BKN,16000,BKN,24000,,,,,VFR,,,,,,,,,,,,SPECI,700.0
CYXH 311900Z 05006KT 30SM FEW040 BKN065 BKN080 BKN270 07/05 A2964 RMK CU1SC5AC1CI1 CU TR SLP051,CYXH,2022-10-31T19:00:00Z,50.02,-110.72,7.0,5.0,50,6,,30.0,29.639763,1005.1,,,,,,,,,,FEW,4000,BKN,6500,BKN,8000,BKN,27000,VFR,,,,,,,,,,,,SPECI,717.0
CYXE 311900Z 29011KT 15SM SCT120 BKN300 08/M07 A2966 RMK AC4CI2 SLP062,CYXE,2022-10-31T19:00:00Z,52.17,-106.7,8.0,-7.0,290,11,,15.0,29.660433,1006.2,,,,,,,,,,SCT,12000,BKN,30000,,,,,VFR,,,,,,,,,,,,SPECI,504.0
CYXC 311900Z 07004KT 320V090 25SM FEW006 FEW015 OVC070 08/06 A2967 RMK SF1ST2AC6 SF TR SLP060 DENSITY ALT 3300FT,CYXC,2022-10-31T19:00:00Z,49.6,-115.78,8.0,6.0,70,4,,25.0,29.66929,1006.0,,,,,,,,,,FEW,600,FEW,1500,OVC,7000,,,VFR,,,,,,,,,,,,SPECI,928.0
CYWY 311900Z 33006KT 300V010 3SM -SN BR VV012 M10/M12 A2983 RMK SN8 SLP118,CYWY,2022-10-31T19:00:00Z,63.22,-123.43,-10.0,-12.0,330,6,,3.0,29.828741,1011.8,,,,,,,,,-SN BR,OVX,0,,,,,,,LIFR,,,,,,,,,,,1200,SPECI,135.0
CYWL 311900Z 18005KT 120V220 15SM SCT012 BKN120 02/M01 A2954 RMK CF3AC3 SLP031,CYWL,2022-10-31T19:00:00Z,52.18,-122.07,2.0,-1.0,180,5,,15.0,29.53937,1003.1,,,,,,,,,,SCT,1200,BKN,12000,,,,,VFR,,,,,,,,,,,,SPECI,942.0
CYWK 311900Z VRB02KT 15SM FEW034 05/M03 A2987 RMK CU2 SLP138,CYWK,2022-10-31T19:00:00Z,52.92,-66.87,5.0,-3.0,0,2,,15.0,29.870079,1013.8,,,,,,,,,,FEW,3400,,,,,,,VFR,,,,,,,,,,,,SPECI,547.0
CYWJ 311900Z 34012G18KT 10SM -SN FEW050 BKN060 BKN090 M10/M12 A2979 RMK SC2SC4AC1 BR DIST SE SLP110,CYWJ,2022-10-31T19:00:00Z,65.22,-123.43,-10.0,-12.0,340,12,18,10.0,29.790354,1011.0,,,,,,,,,-SN,FEW,5000,BKN,6000,BKN,9000,,,VFR,,,,,,,,,,,,SPECI,208.0
CYWH 311900Z 25013G19KT 15SM VCSH FEW025 BKN040 BKN220 11/06 A2982 RMK CU2SC3CI2 SLP100,CYWH,2022-10-31T19:00:00Z,48.42,-123.38,11.0,6.0,250,13,19,15.0,29.819881,1010.0,,,,,,,,,VCSH,FEW,2500,BKN,4000,BKN,22000,,,VFR,,,,,,,,,,,,SPECI,4.0
CYWG 311900Z 25011KT 15SM BKN130 OVC220 10/03 A2961 RMK AS7CS1 SLP035 DENSITY ALT 800FT,CYWG,2022-10-31T19:00:00Z,49.9,-97.23,10.0,3.0,250,11,,15.0,29.610237,1003.5,,,,,,,,,,BKN,13000,OVC,22000,,,,,VFR,,,,,,,,,,,,SPECI,238.0
CYVV 311900Z 15003KT 15SM BKN025 OVC100 14/11 A2981 RMK SC7AC1 SLP100 DENSITY ALT 1000FT,CYVV,2022-10-31T19:00:00Z,44.75,-81.1,14.0,11.0,150,3,,15.0,29.811024,1010.0,,,,,,,,,,BKN,2500,OVC,10000,,,,,MVFR,,,,,,,,,,,,SPECI,221.0
CYVT 311900Z AUTO 31010G15KT 9SM OVC033 02/M04 A2959 RMK SLP040,CYVT,2022-10-31T19:00:00Z,55.83,-108.42,2.0,-4.0,310,10,15,9.0,29.589567,1004.0,,TRUE,,,,,,,,OVC,3300,,,,,,,VFR,,,,,,,,,,,,SPECI,438.0
CYVR 311900Z 26007KT 25SM FEW010 FEW025 FEW160 FEW180 FEW240 12/11 A2977 RMK SF1CU2AC1AC1CI1 SF TR AC TR AC TR CI TR SLP082,CYVR,2022-10-31T19:00:00Z,49.17,-123.17,12.0,11.0,260,7,,25.0,29.769686,1008.2,,,,,,,,,,FEW,1000,FEW,2500,FEW,16000,FEW,18000,VFR,,,,,,,,,,,,SPECI,2.0
CYVQ 311900Z 28019G24KT 10SM -SN DRSN SCT043 OVC085 M14/M17 A2998 RMK SC3AC5 SLP163,CYVQ,2022-10-31T19:00:00Z,65.27,-126.78,-14.0,-17.0,280,19,24,10.0,29.97933,1016.3,,,,,,,,,-SN DRSN,SCT,4300,OVC,8500,,,,,VFR,,,,,,,,,,,,SPECI,63.0
CYVP 311900Z 26007G15KT 220V300 15SM BKN032 BKN260 M00/M08 A2991 RMK SC5CI1 SLP134,CYVP,2022-10-31T19:00:00Z,58.12,-68.42,0.0,-8.0,260,7,15,15.0,29.911417,1013.4,,,,,,,,,,BKN,3200,BKN,26000,,,,,VFR,,,,,,,,,,,,SPECI,28.0
CYVO 311900Z 18006KT 15SM SCT100 BKN120 13/05 A2980 RMK AC3AC3 SLP106 DENSITY ALT 1200FT,CYVO,2022-10-31T19:00:00Z,48.07,-77.77,13.0,5.0,180,6,,15.0,29.799213,1010.6,,,,,,,,,,SCT,10000,BKN,12000,,,,,VFR,,,,,,,,,,,,SPECI,329.0
CYVM 311900Z 19007KT 15SM FEW020 FEW030 M09/M13 A2950 RMK SC1SC1 SC TR SLP991,CYVM,2022-10-31T19:00:00Z,67.55,-64.02,-9.0,-13.0,190,7,,15.0,29.500984,999.1,,,,,,,,,,FEW,2000,FEW,3000,,,,,VFR,,,,,,,,,,,,SPECI,3.0
CYVL 311900Z AUTO 35009KT 1 1/2SM -SN OVC003 M20/M21 A2991 RMK SLP166,CYVL,2022-10-31T19:00:00Z,67.02,-126.13,-20.0,-21.0,350,9,,1.5,29.911417,1016.6,,TRUE,,,,,,,-SN,OVC,300,,,,,,,LIFR,,,,,,,,,,,,METAR,261.0
CYVC 311900Z 29015G21KT 15SM BKN042 04/M05 A2956 RMK SC5 SLP026,CYVC,2022-10-31T19:00:00Z,55.15,-105.27,4.0,-5.0,290,15,21,15.0,29.56004,1002.6,,,,,,,,,,BKN,4200,,,,,,,VFR,,,,,,,,,,,,SPECI,378.0
CYUY 311900Z 19007KT 15SM FEW068 BKN097 BKN210 11/05 A2980 RMK AC1AC6CI1 CI TR SLP102 DENSITY ALT 1000FT,CYUY,2022-10-31T19:00:00Z,48.2,-78.82,11.0,5.0,190,7,,15.0,29.799213,1010.2,,,,,,,,,,FEW,6800,BKN,9700,BKN,21000,,,VFR,,,,,,,,,,,,SPECI,304.0
CYUX 311900Z 26012KT 10SM DRSN FEW005 FEW070 M17/M20 A2966 RMK SF1AC1 SLP047,CYUX,2022-10-31T19:00:00Z,68.77,-81.22,-17.0,-20.0,260,12,,10.0,29.660433,1004.7,,,,,,,,,DRSN,FEW,500,FEW,7000,,,,,VFR,,,,,,,,,,,,SPECI,8.0
CYUS 311900Z AUTO 29015KT ////SM //// OVC015 M14/M17 A2968,CYUS,2022-10-31T19:00:00Z,68.78,-93.42,-14.0,-17.0,290,15,,,29.681103,,,TRUE,,,,,,,,OVC,1500,,,,,,,,,,,,,,,,,,,SPECI,30.0
CYUL 311900Z 25003KT 30SM OVC160 15/03 A2992 RMK AC8 SLP133 DENSITY ALT 200FT,CYUL,2022-10-31T19:00:00Z,45.47,-73.73,15.0,3.0,250,3,,30.0,29.920275,1013.3,,,,,,,,,,OVC,16000,,,,,,,VFR,,,,,,,,,,,,SPECI,31.0
CYUB 311900Z 05006KT 15SM -SN OVC018 M12/M15 A3009 RMK SC8 SLP193,CYUB,2022-10-31T19:00:00Z,69.43,-133.02,-12.0,-15.0,50,6,,15.0,30.088583,1019.3,,,,,,,,,-SN,OVC,1800,,,,,,,MVFR,,,,,,,,,,,,SPECI,5.0
CYTZ 311900Z AUTO 07010KT 9SM OVC011 10/09 A2985 RMK SLP113,CYTZ,2022-10-31T19:00:00Z,43.63,-79.4,10.0,9.0,70,10,,9.0,29.84941,1011.3,,TRUE,,,,,,,,OVC,1100,,,,,,,MVFR,,,,,,,,,,,,METAR,76.0
CYTS 311900Z 18008KT 15SM FEW150 SCT200 15/05 A2974 RMK AC1CI2 SLP081 DENSITY ALT 1500FT,CYTS,2022-10-31T19:00:00Z,48.57,-81.37,15.0,5.0,180,8,,15.0,29.740158,1008.1,,,,,,,,,,FEW,15000,SCT,20000,,,,,VFR,,,,,,,,,,,,SPECI,290.0
CYTR 311900Z 11005KT 15SM BKN055 BKN090 13/09 A2988 RMK SC6AC1 DENSITY ALT 303FT SLP122,CYTR,2022-10-31T19:00:00Z,44.12,-77.52,13.0,9.0,110,5,,15.0,29.878937,1012.2,,,,,,,,,,BKN,5500,BKN,9000,,,,,VFR,,,,,,,,,,,,SPECI,80.0
CYTQ 311900Z 28008KT 15SM BKN027 M01/M07 A2990 RMK SC5 SLP130,CYTQ,2022-10-31T19:00:00Z,58.67,-69.95,-1.0,-7.0,280,8,,15.0,29.899607,1013.0,,,,,,,,,,BKN,2700,,,,,,,MVFR,,,,,,,,,,,,SPECI,14.0
CYTL 311900Z AUTO 22010G15KT 9SM CLR 10/02 A2932 RMK SLP939 DENSITY ALT 1100FT,CYTL,2022-10-31T19:00:00Z,53.82,-89.88,10.0,2.0,220,10,15,9.0,29.320866,993.9,,TRUE,,,,,,,,CLR,,,,,,,,VFR,,,,,,,,,,,,SPECI,218.0
CYTH 311900Z 27018G25KT 15SM BKN034 BKN055 06/00 A2928 RMK SC5SC2 SLP929,CYTH,2022-10-31T19:00:00Z,55.8,-97.83,6.0,0.0,270,18,25,15.0,29.279528,992.9,,,,,,,,,,BKN,3400,BKN,5500,,,,,VFR,,,,,,,,,,,,SPECI,212.0
CYTE 311900Z 11008KT 15SM -SN OVC024 M06/M09 A2972 RMK SC8 SLP071,CYTE,2022-10-31T19:00:00Z,64.22,-76.52,-6.0,-9.0,110,8,,15.0,29.719488,1007.1,,,,,,,,,-SN,OVC,2400,,,,,,,MVFR,,,,,,,,,,,,SPECI,49.0
CYSY 311900Z 02007KT 15SM IC FEW005 BKN035 M20/M22 A3008 RMK ST1SC6 ST TR SLP202,CYSY,2022-10-31T19:00:00Z,72.0,-125.23,-20.0,-22.0,20,7,,15.0,30.079725,1020.2,,,,,,,,,IC,FEW,500,BKN,3500,,,,,VFR,,,,,,,,,,,,SPECI,83.0
CYSP 311900Z 26004KT 190V310 1/2SM MIFG VV001 06/06 A2976 RMK FG8 SLP094,CYSP,2022-10-31T19:00:00Z,48.75,-86.35,6.0,6.0,260,4,,0.5,29.760826,1009.4,,,,,,,,,MIFG,OVX,0,,,,,,,LIFR,,,,,,,,,,,100,METAR,312.0
CYSN 311900Z 20004KT 8SM -RA BKN017 OVC070 15/14 A2983 RMK SC6AC2 SLP106 DENSITY ALT 500FT,CYSN,2022-10-31T19:00:00Z,43.2,-79.17,15.0,14.0,200,4,,8.0,29.828741,1010.6,,,,,,,,,-RA,BKN,1700,OVC,7000,,,,,MVFR,,,,,,,,,,,,SPECI,96.0
CYSM 311900Z 03004KT 15SM BKN011 BKN100 M08/M10 A2967 RMK SC6AC1 SLP065,CYSM,2022-10-31T19:00:00Z,60.03,-111.92,-8.0,-10.0,30,4,,15.0,29.66929,1006.5,,,,,,,,,,BKN,1100,BKN,10000,,,,,MVFR,,,,,,,,,,,,SPECI,203.0
CYSK 311900Z 17014KT 12SM SCT010 BKN100 04/03 A2966 RMK SF3AS3 SLP048,CYSK,2022-10-31T19:00:00Z,56.53,-79.25,4.0,3.0,170,14,,12.0,29.660433,1004.8,,,,,,,,,,SCT,1000,BKN,10000,,,,,VFR,,,,,,,,,,,,SPECI,28.0
CYSJ 311900Z 20011KT 15SM FEW020 BKN250 14/09 A2999 RMK CU1CI5 CU TR SLP160,CYSJ,2022-10-31T19:00:00Z,45.32,-65.88,14.0,9.0,200,11,,15.0,29.991142,1016.0,,,,,,,,,,FEW,2000,BKN,25000,,,,,VFR,,,,,,,,,,,,SPECI,89.0
CYSF 311900Z AUTO 36006KT 9SM CLR M07/M12 A2959 RMK SLP040,CYSF,2022-10-31T19:00:00Z,59.25,-105.83,-7.0,-12.0,360,6,,9.0,29.589567,1004.0,,TRUE,,,,,,,,CLR,,,,,,,,VFR,,,,,,,,,,,,SPECI,238.0
CYSC 311900Z AUTO 03003KT 310V040 9SM CLR 14/M01 A2991 RMK SLP137 DENSITY ALT 1000FT,CYSC,2022-10-31T19:00:00Z,45.43,-71.68,14.0,-1.0,30,3,,9.0,29.911417,1013.7,,TRUE,,,,,,,,CLR,,,,,,,,VFR,,,,,,,,,,,,SPECI,236.0
CYSB 311900Z 19008KT 160V230 20SM BKN140 BKN200 14/05 A2981 RMK AC5CI2 SLP104 DENSITY ALT 1500FT,CYSB,2022-10-31T19:00:00Z,46.63,-80.8,14.0,5.0,190,8,,20.0,29.811024,1010.4,,,,,,,,,,BKN,14000,BKN,20000,,,,,VFR,,,,,,,,,,,,SPECI,349.0
CYRV 311900Z AUTO 19015KT 9SM -RA BKN049 OVC060 08/06 A2963 RMK SLP045,CYRV,2022-10-31T19:00:00Z,50.97,-118.17,8.0,6.0,190,15,,9.0,29.630905,1004.5,,TRUE,,,,,,,-RA,BKN,4900,OVC,6000,,,,,VFR,,,,,,,,,,,,SPECI,456.0
CYRQ 311900Z AUTO 25003KT 9SM SCT160 SCT180 12/02 A2992 RMK SLP136,CYRQ,2022-10-31T19:00:00Z,46.35,-72.68,12.0,2.0,250,3,,9.0,29.920275,1013.6,,TRUE,,,,,,,,SCT,16000,SCT,18000,,,,,VFR,,,,,,,,,,,,METAR,58.0
CYRL 311900Z 23008KT 15SM SCT140 BKN240 11/02 A2951 RMK AC3CI3 SLP006 DENSITY ALT 1600FT,CYRL,2022-10-31T19:00:00Z,51.07,-93.78,11.0,2.0,230,8,,15.0,29.509842,1000.6,,,,,,,,,,SCT,14000,BKN,24000,,,,,VFR,,,,,,,,,,,,SPECI,370.0
CYRJ 311900Z 07003KT 40SM SCT140 OVC170 10/04 A2989 RMK AC3AS5 SLP130,CYRJ,2022-10-31T19:00:00Z,48.52,-72.27,10.0,4.0,70,3,,40.0,29.890747,1013.0,,,,,,,,,,SCT,14000,OVC,17000,,,,,VFR,,,,,,,,,,,,SPECI,173.0
CYRB 311900Z 04013KT 15SM IC OVC048 M20/M24 A2951 RMK SC8 SLP006,CYRB,2022-10-31T19:00:00Z,74.72,-94.97,-20.0,-24.0,40,13,,15.0,29.509842,1000.6,,,,,,,,,IC,OVC,4800,,,,,,,VFR,,,,,,,,,,,,SPECI,59.0
CYRA 311900Z 10004KT 3SM -SHSN OVC025 M10/M13 A2973 RMK SC8 SLP092,CYRA,2022-10-31T19:00:00Z,64.12,-117.32,-10.0,-13.0,100,4,,3.0,29.731298,1009.2,,,,,,,,,-SHSN,OVC,2500,,,,,,,MVFR,,,,,,,,,,,,SPECI,232.0
CYQY 311900Z 26007KT 230V300 15SM SCT120 BKN250 16/04 A2993 RMK AC3CC2 SLP139 DENSITY ALT 400FT,CYQY,2022-10-31T19:00:00Z,46.17,-60.03,16.0,4.0,260,7,,15.0,29.929134,1013.9,,,,,,,,,,SCT,12000,BKN,25000,,,,,VFR,,,,,,,,,,,,SPECI,58.0
CYQX 311900Z 24016G21KT 20SM FEW036 BKN120 BKN210 13/04 A2972 RMK SC1AC5CI2 SC TR SLP068 DENSITY ALT 700FT,CYQX,2022-10-31T19:00:00Z,48.95,-54.58,13.0,4.0,240,16,21,20.0,29.719488,1006.8,,,,,,,,,,FEW,3600,BKN,12000,BKN,21000,,,VFR,,,,,,,,,,,,SPECI,144.0
CYQW 311900Z AUTO 30010G15KT 9SM OVC120 07/M07 A2967 RMK SLP067,CYQW,2022-10-31T19:00:00Z,52.77,-108.25,7.0,-7.0,300,10,15,9.0,29.66929,1006.7,,TRUE,,,,,,,,OVC,12000,,,,,,,VFR,,,,,,,,,,,,SPECI,545.0
CYQV 311900Z AUTO 30014G21KT 9SM CLR 08/M05 A2964 RMK SLP055,CYQV,2022-10-31T19:00:00Z,51.27,-102.47,8.0,-5.0,300,14,21,9.0,29.639763,1005.5,,TRUE,,,,,,,,CLR,,,,,,,,VFR,,,,,,,,,,,,SPECI,493.0
CYQU 311900Z 00000KT 25SM SCT180 05/M08 A2955 RMK AC3 SLP033,CYQU,2022-10-31T19:00:00Z,55.18,-118.88,5.0,-8.0,0,0,,25.0,29.551182,1003.3,,,,,,,,,,SCT,18000,,,,,,,VFR,,,,,,,,,,,,SPECI,668.0
CYQT 311900Z 06009KT 20SM SCT280 10/04 A2970 RMK CI4 SLP069,CYQT,2022-10-31T19:00:00Z,48.37,-89.32,10.0,4.0,60,9,,20.0,29.698818,1006.9,,,,,,,,,,SCT,28000,,,,,,,VFR,,,,,,,,,,,,SPECI,197.0
CYQR 311900Z 29005KT 15SM OVC071 07/M01 A2970 RMK AC8 SLP078,CYQR,2022-10-31T19:00:00Z,50.43,-104.67,7.0,-1.0,290,5,,15.0,29.698818,1007.8,,,,,,,,,,OVC,7100,,,,,,,VFR,,,,,,,,,,,,SPECI,576.0
CYQQ 311900Z 35010KT 20SM FEW020 BKN040 09/05 A2978 RMK SC2SC4 SLP086,CYQQ,2022-10-31T19:00:00Z,49.72,-124.9,9.0,5.0,350,10,,20.0,29.778543,1008.6,,,,,,,,,,FEW,2000,BKN,4000,,,,,VFR,,,,,,,,,,,,SPECI,24.0
CYQM 311900Z 24005KT 15SM FEW180 SCT260 17/03 A2995 RMK AC1CI2 SLP146 DENSITY ALT 500FT,CYQM,2022-10-31T19:00:00Z,46.12,-64.67,17.0,3.0,240,5,,15.0,29.949802,1014.6,,,,,,,,,,FEW,18000,SCT,26000,,,,,VFR,,,,,,,,,,,,SPECI,67.0
CYQL 311900Z 22007KT 170V240 60SM FEW060 SCT100 BKN260 06/00 A2966 RMK SC1AC4CI3 SC TR SLP062 DENSITY ALT 3100FT,CYQL,2022-10-31T19:00:00Z,49.63,-112.8,6.0,0.0,220,7,,60.0,29.660433,1006.2,,,,,,,,,,FEW,6000,SCT,10000,BKN,26000,,,VFR,,,,,,,,,,,,SPECI,923.0
CYQK 311900Z 21011KT 20SM BKN160 OVC240 09/01 A2961 RMK AC6CI2 SLP039,CYQK,2022-10-31T19:00:00Z,49.78,-94.37,9.0,1.0,210,11,,20.0,29.610237,1003.9,,,,,,,,,,BKN,16000,OVC,24000,,,,,VFR,,,,,,,,,,,,SPECI,413.0
CYQI 311900Z 21008KT 15SM FEW250 14/10 A3004 RMK CI2 SLP176,CYQI,2022-10-31T19:00:00Z,43.83,-66.08,14.0,10.0,210,8,,15.0,30.041338,1017.6,,,,,,,,,,FEW,25000,,,,,,,VFR,,,,,,,,,,,,SPECI,37.0
CYQH 311900Z VRB04KT 40SM FEW060 SCT090 M03/M05 A2948 RMK SC1AC2 SLP020,CYQH,2022-10-31T19:00:00Z,60.12,-128.82,-3.0,-5.0,0,4,,40.0,29.480314,1002.0,,,,,,,,,,FEW,6000,SCT,9000,,,,,VFR,,,,,,,,,,,,SPECI,692.0
CYQF 311900Z AUTO 22005KT 9SM OVC046 04/M02 A2965 RMK SLP072,CYQF,2022-10-31T19:00:00Z,52.17,-113.9,4.0,-2.0,220,5,,9.0,29.648623,1007.2,,TRUE,,,,,,,,OVC,4600,,,,,,,VFR,,,,,,,,,,,,SPECI,912.0
CYQD 311900Z AUTO 26017G26KT 9SM CLR 09/M03 A2948 RMK SLP996 DENSITY ALT 900FT,CYQD,2022-10-31T19:00:00Z,53.97,-101.08,9.0,-3.0,260,17,26,9.0,29.480314,999.6,,TRUE,,,,,,,,CLR,,,,,,,,VFR,,,,,,,,,,,,SPECI,268.0
CYQB 311900Z 25006KT 30SM FEW050 BKN130 BKN190 OVC210 14/02 A2992 RMK SC1AC4AC3CI1 SC TR SLP136,CYQB,2022-10-31T19:00:00Z,46.78,-71.38,14.0,2.0,250,6,,30.0,29.920275,1013.6,,,,,,,,,,FEW,5000,BKN,13000,BKN,19000,OVC,21000,VFR,,,,,,,,,,,,SPECI,73.0
CYPY 311900Z AUTO 02005KT 8SM -SN OVC014 M03/M05 A2963 RMK SLP051,CYPY,2022-10-31T19:00:00Z,58.77,-111.12,-3.0,-5.0,20,5,,8.0,29.630905,1005.1,,TRUE,,,,,,,-SN,OVC,1400,,,,,,,MVFR,,,,,,,,,,,,SPECI,225.0
CYPX 311900Z AUTO 13018KT 9SM OVC025 M01/M05 A2970 RMK SLP060,CYPX,2022-10-31T19:00:00Z,60.03,-77.27,-1.0,-5.0,130,18,,9.0,29.698818,1006.0,,TRUE,,,,,,,,OVC,2500,,,,,,,MVFR,,,,,,,,,,,,SPECI,10.0
CYPW 311900Z 29010KT 20SM FEW011 SCT040 09/06 A2976 RMK SF1SC3 SF TR TCU TOPS DIST NW-E VIS N 5 LO CLD BR SLP082,CYPW,2022-10-31T19:00:00Z,49.83,-124.5,9.0,6.0,290,10,,20.0,29.760826,1008.2,,,,,,,,,,FEW,1100,SCT,4000,,,,,VFR,,,,,,,,,,,,SPECI,122.0
CYPO 311900Z AUTO 19014G20KT 9SM FEW071 OVC091 08/M02 A2941 RMK PRESFR SLP964,CYPO,2022-10-31T19:00:00Z,54.98,-85.43,8.0,-2.0,190,14,20,9.0,29.409449,996.4,,TRUE,,,,,,,,FEW,7100,OVC,9100,,,,,VFR,,,,,,,,,,,,METAR,49.0
CYPL 311900Z AUTO 23017G25KT 200V260 9SM CLR 13/M00 A2948 RMK SLP997 DENSITY ALT 1900FT,CYPL,2022-10-31T19:00:00Z,51.43,-90.22,13.0,0.0,230,17,25,9.0,29.480314,999.7,,TRUE,,,,,,,,CLR,,,,,,,,VFR,,,,,,,,,,,,SPECI,390.0
CYPH 311900Z AUTO 16018G26KT 9SM BKN017 OVC022 02/M01 A2967 RMK SLP050,CYPH,2022-10-31T19:00:00Z,58.47,-78.08,2.0,-1.0,160,18,26,9.0,29.66929,1005.0,,TRUE,,,,,,,,BKN,1700,OVC,2200,,,,,MVFR,,,,,,,,,,,,SPECI,24.0
CYPG 311900Z 25011G16KT 15SM BKN150 OVC180 10/02 A2962 RMK AC7AC1 SLP038,CYPG,2022-10-31T19:00:00Z,49.9,-98.28,10.0,2.0,250,11,16,15.0,29.619095,1003.8,,,,,,,,,,BKN,15000,OVC,18000,,,,,VFR,,,,,,,,,,,,SPECI,270.0
CYPE 311900Z 17007KT 15SM FEW250 02/M06 A2956 RMK CI1 CI TR SLP038,CYPE,2022-10-31T19:00:00Z,56.22,-117.45,2.0,-6.0,170,7,,15.0,29.56004,1003.8,,,,,,,,,,FEW,25000,,,,,,,VFR,,,,,,,,,,,,SPECI,572.0
CYPD 311900Z AUTO 29008KT 9SM CLR 17/01 A2996 RMK SLP149 DENSITY ALT 700FT,CYPD,2022-10-31T19:00:00Z,45.67,-61.37,17.0,1.0,290,8,,9.0,29.958662,1014.9,,TRUE,,,,,,,,CLR,,,,,,,,VFR,,,,,,,,,,,,METAR,106.0
CYPC 311900Z 36003KT 320V050 3SM -SN OVC025 M11/M15 A3002 RMK SC8 SLP167,CYPC,2022-10-31T19:00:00Z,69.37,-124.07,-11.0,-15.0,360,3,,3.0,30.02067,1016.7,,,,,,,,,-SN,OVC,2500,,,,,,,MVFR,,,,,,,,,,,,METAR,5.0
CYPA 311900Z 28013KT 15SM FEW150 FEW250 07/M05 A2963 RMK AC1CI1 SLP052,CYPA,2022-10-31T19:00:00Z,53.22,-105.67,7.0,-5.0,280,13,,15.0,29.630905,1005.2,,,,,,,,,,FEW,15000,FEW,25000,,,,,VFR,,,,,,,,,,,,SPECI,428.0
CYOY 311900Z 24005KT 210V270 15SM OVC130 14/02 A2993 RMK AC8 DENSITY ALT 581FT SLP141,CYOY,2022-10-31T19:00:00Z,46.88,-71.5,14.0,2.0,240,5,,15.0,29.929134,1014.1,,,,,,,,,,OVC,13000,,,,,,,VFR,,,,,,,,,,,,SPECI,167.0
CYOW 311900Z VRB02KT 15SM BKN110 BKN140 14/07 A2989 RMK AC5AC2 SLP127 DENSITY ALT 400FT,CYOW,2022-10-31T19:00:00Z,45.32,-75.67,14.0,7.0,0,2,,15.0,29.890747,1012.7,,,,,,,,,,BKN,11000,BKN,14000,,,,,VFR,,,,,,,,,,,,SPECI,111.0
CYOO 311900Z AUTO 13005KT 110V190 9SM BKN014 OVC021 12/09 A2985 RMK SLP113,CYOO,2022-10-31T19:00:00Z,43.92,-78.9,12.0,9.0,130,5,,9.0,29.84941,1011.3,,TRUE,,,,,,,,BKN,1400,OVC,2100,,,,,MVFR,,,,,,,,,,,,METAR,136.0
CYOJ 311900Z 10004KT 060V120 10SM -SN SCT009 OVC060 M01/M02 A2961 RMK SC4SC4 SLP048,CYOJ,2022-10-31T19:00:00Z,58.62,-117.17,-1.0,-2.0,100,4,,10.0,29.610237,1004.8,,,,,,,,,-SN,SCT,900,OVC,6000,,,,,VFR,,,,,,,,,,,,SPECI,339.0
CYOD 311900Z 25005KT 15SM BKN140 05/M05 A2963 RMK AC6 DENSITY ALT 1244FT SLP054,CYOD,2022-10-31T19:00:00Z,54.4,-110.28,5.0,-5.0,250,5,,15.0,29.630905,1005.4,,,,,,,,,,BKN,14000,,,,,,,VFR,,,,,,,,,,,,SPECI,540.0
CYOC 311900Z 00000KT 35SM IC FEW003 M22/M24 A3003 RMK ST1 ST TR FROIN SLP201,CYOC,2022-10-31T19:00:00Z,67.57,-139.83,-22.0,-24.0,0,0,,35.0,30.029528,1020.1,,,,,,,,,IC,FEW,300,,,,,,,VFR,,,,,,,,,,,,SPECI,253.0
CYNM 311900Z AUTO 16005KT 130V200 9SM FEW049 OVC071 12/06 A2978 RMK SLP096,CYNM,2022-10-31T19:00:00Z,49.77,-77.78,12.0,6.0,160,5,,9.0,29.778543,1009.6,,TRUE,,,,,,,,FEW,4900,OVC,7100,,,,,VFR,,,,,,,,,,,,SPECI,276.0
CYNE 311900Z AUTO 27012G19KT 220V310 9SM CLR 10/M00 A2940 RMK SLP966 DENSITY ALT 900FT,CYNE,2022-10-31T19:00:00Z,53.97,-97.83,10.0,0.0,270,12,19,9.0,29.40059,996.6,,TRUE,,,,,,,,CLR,,,,,,,,VFR,,,,,,,,,,,,SPECI,220.0
CYND 311900Z 07002KT 15SM FEW081 BKN110 OVC140 12/06 A2990 RMK AC2AC3AC3 SLP128,CYND,2022-10-31T19:00:00Z,45.52,-75.57,12.0,6.0,70,2,,15.0,29.899607,1012.8,,,,,,,,,,FEW,8100,BKN,11000,OVC,14000,,,VFR,,,,,,,,,,,,SPECI,57.0
CYNA 311900Z AUTO 33013G21KT 9SM CLR 13/M00 A2983 RMK PRESRR SLP105,CYNA,2022-10-31T19:00:00Z,50.18,-61.78,13.0,0.0,330,13,21,9.0,29.828741,1010.5,,TRUE,,,,,,,,CLR,,,,,,,,VFR,,,,,,,,,,,,SPECI,9.0
CYMX 311900Z VRB02KT 30SM BKN160 BKN240 14/04 A2992 RMK AC5CS2 SLP135,CYMX,2022-10-31T19:00:00Z,45.67,-74.03,14.0,4.0,0,2,,30.0,29.920275,1013.5,,,,,,,,,,BKN,16000,BKN,24000,,,,,VFR,,,,,,,,,,,,SPECI,78.0
CYMU 311900Z 13013G19KT 15SM SCT015 BKN021 OVC037 03/00 A2976 RMK SF3SC3SC2 SLP085,CYMU,2022-10-31T19:00:00Z,56.53,-76.52,3.0,0.0,130,13,19,15.0,29.760826,1008.5,,,,,,,,,,SCT,1500,BKN,2100,OVC,3700,,,MVFR,,,,,,,,,,,,SPECI,69.0
CYMT 311900Z AUTO 12004KT 9SM BKN055 BKN190 BKN210 10/04 A2983 RMK SLP118,CYMT,2022-10-31T19:00:00Z,49.77,-74.52,10.0,4.0,120,4,,9.0,29.828741,1011.8,,TRUE,,,,,,,,BKN,5500,BKN,19000,BKN,21000,,,VFR,,,,,,,,,,,,SPECI,388.0
CYMO 311900Z AUTO 10004KT 9SM CLR 12/02 A2970 RMK SLP061,CYMO,2022-10-31T19:00:00Z,51.28,-80.62,12.0,2.0,100,4,,9.0,29.698818,1006.1,,TRUE,,,,,,,,CLR,,,,,,,,VFR,,,,,,,,,,,,SPECI,8.0
CYMM 311900Z AUTO 03005KT 9SM SCT028 SCT034 OVC060 02/M03 A2960 RMK SLP043,CYMM,2022-10-31T19:00:00Z,56.65,-111.22,2.0,-3.0,30,5,,9.0,29.601377,1004.3,,TRUE,,,,,,,,SCT,2800,SCT,3400,OVC,6000,,,VFR,,,,,,,,,,,,SPECI,371.0
CYMA 311900Z 35006KT 10SM -SN OVC055 M08/M12 A2965 RMK SC8 SLP083,CYMA,2022-10-31T19:00:00Z,63.62,-135.87,-8.0,-12.0,350,6,,10.0,29.648623,1008.3,,,,,,,,,-SN,OVC,5500,,,,,,,VFR,,,,,,,,,,,,SPECI,519.0
CYLW 311900Z AUTO 17004KT 9SM OVC066 11/06 A2962 RMK SLP036 DENSITY ALT 1700FT,CYLW,2022-10-31T19:00:00Z,49.95,-119.37,11.0,6.0,170,4,,9.0,29.619095,1003.6,,TRUE,,,,,,,,OVC,6600,,,,,,,VFR,,,,,,,,,,,,SPECI,420.0
CYLU 311900Z 29013G20KT 15SM DRSN SCT028 OVC032 M01/M06 A2987 RMK SC3SC5 LAST STFD OBS/NEXT 011200 UTC SLP120,CYLU,2022-10-31T19:00:00Z,58.72,-65.98,-1.0,-6.0,290,13,20,15.0,29.870079,1012.0,,,,,,,,,DRSN,SCT,2800,OVC,3200,,,,,VFR,,,,,,,,,,,,SPECI,61.0
CYLT 311900Z 00000KT 15SM FEW018 BKN028 M25/M29 A2972 RMK SC2SC3 FROIN SLP069,CYLT,2022-10-31T19:00:00Z,82.52,-62.32,-25.0,-29.0,0,0,,15.0,29.719488,1006.9,,,,,,,,,,FEW,1800,BKN,2800,,,,,MVFR,,,,,,,,,,,,SPECI,9.0
CYLL 311900Z 27013KT 15SM BKN110 05/M08 A2965 RMK AC7 SLP063,CYLL,2022-10-31T19:00:00Z,53.32,-110.07,5.0,-8.0,270,13,,15.0,29.648623,1006.3,,,,,,,,,,BKN,11000,,,,,,,VFR,,,,,,,,,,,,SPECI,664.0
CYLK 311900Z 08006KT 060V150 25SM SCT015 BKN072 BKN120 BKN140 M13/M17 A2979 RMK SC3AC1AC1AC1 SLP108,CYLK,2022-10-31T19:00:00Z,62.42,-110.67,-13.0,-17.0,80,6,,25.0,29.790354,1010.8,,,,,,,,,,SCT,1500,BKN,7200,BKN,12000,BKN,14000,VFR,,,,,,,,,,,,SPECI,183.0
CYLJ 311900Z 26008KT 15SM FEW130 FEW170 FEW210 06/M05 A2962 RMK AC1AC1CC1 AC TR CC TR SLP051,CYLJ,2022-10-31T19:00:00Z,54.12,-108.52,6.0,-5.0,260,8,,15.0,29.619095,1005.1,,,,,,,,,,FEW,13000,FEW,17000,FEW,21000,,,VFR,,,,,,,,,,,,SPECI,481.0
CYLH 311900Z AUTO 19012G20KT 160V230 9SM CLR 13/M02 A2946 RMK SLP987 DENSITY ALT 1400FT,CYLH,2022-10-31T19:00:00Z,52.2,-87.93,13.0,-2.0,190,12,20,9.0,29.459646,998.7,,TRUE,,,,,,,,CLR,,,,,,,,VFR,,,,,,,,,,,,METAR,245.0
CYLD 311900Z 21010G15KT 190V260 15SM FEW220 SCT250 15/04 A2975 RMK CC1CI3 SLP090 DENSITY ALT 2100FT,CYLD,2022-10-31T19:00:00Z,47.82,-83.35,15.0,4.0,210,10,15,15.0,29.749016,1009.0,,,,,,,,,,FEW,22000,SCT,25000,,,,,VFR,,,,,,,,,,,,SPECI,449.0
CYLC 311900Z 33006KT 290V350 15SM SCT026 BKN250 M08/M13 A2980 RMK SC3CC2 LASTSTFD OBS/NXT 011200Z SLP097,CYLC,2022-10-31T19:00:00Z,62.85,-69.87,-8.0,-13.0,330,6,,15.0,29.799213,1009.7,,,,,,,,,,SCT,2600,BKN,25000,,,,,VFR,,,,,,,,,,,,METAR,52.0
CYKY 311900Z 32004KT 280V360 15SM FEW060 SCT100 BKN130 07/M08 A2966 RMK SC2AS2AC3 SLP064,CYKY,2022-10-31T19:00:00Z,51.52,-109.17,7.0,-8.0,320,4,,15.0,29.660433,1006.4,,,,,,,,,,FEW,6000,SCT,10000,BKN,13000,,,VFR,,,,,,,,,,,,SPECI,692.0
CYKQ 311900Z 09007KT 15SM FEW053 FEW160 BKN250 12/M00 A2973 RMK SC1AC1CI3 SLP071,CYKQ,2022-10-31T19:00:00Z,51.47,-78.75,12.0,0.0,90,7,,15.0,29.731298,1007.1,,,,,,,,,,FEW,5300,FEW,16000,BKN,25000,,,VFR,,,,,,,,,,,,SPECI,28.0
CYKO 311900Z 16022G28KT 15SM OVC018 M01/M05 A2966 RMK SC8 SLP047,CYKO,2022-10-31T19:00:00Z,60.82,-78.15,-1.0,-5.0,160,22,28,15.0,29.660433,1004.7,,,,,,,,,,OVC,1800,,,,,,,MVFR,,,,,,,,,,,,SPECI,23.0
CYKL 311900Z AUTO 30005KT 9SM OVC020 M02/M05 A2989 RMK SLP155,CYKL,2022-10-31T19:00:00Z,54.8,-66.8,-2.0,-5.0,300,5,,9.0,29.890747,1015.5,,TRUE,,,,,,,,OVC,2000,,,,,,,MVFR,,,,,,,,,,,,SPECI,507.0
CYKJ 311900Z AUTO 30014KT 9SM OVC014 M03/M05 A2947 RMK SLP008,CYKJ,2022-10-31T19:00:00Z,57.25,-105.62,-3.0,-5.0,300,14,,9.0,29.471457,1000.8,,TRUE,,,,,,,,OVC,1400,,,,,,,MVFR,,,,,,,,,,,,SPECI,519.0
CYKG 311900Z 21005KT 15SM BKN024 M05/M10 A2977 RMK SC7 SLP097,CYKG,2022-10-31T19:00:00Z,61.58,-71.92,-5.0,-10.0,210,5,,15.0,29.769686,1009.7,,,,,,,,,,BKN,2400,,,,,,,MVFR,,,,,,,,,,,,SPECI,134.0
CYKA 311900Z 14005KT 050V170 40SM SCT060 SCT160 14/02 A2953 RMK SC3AC1 SLP006 DENSITY ALT 1700FT,CYKA,2022-10-31T19:00:00Z,50.7,-120.45,14.0,2.0,140,5,,40.0,29.530512,1000.6,,,,,,,,,,SCT,6000,SCT,16000,,,,,VFR,,,,,,,,,,,,SPECI,344.0
CYJT 311900Z 25016G21KT 15SM FEW025 FEW220 11/08 A2985 RMK SC1CI2 SC TR SLP111,CYJT,2022-10-31T19:00:00Z,48.55,-58.57,11.0,8.0,250,16,21,15.0,29.84941,1011.1,,,,,,,,,,FEW,2500,FEW,22000,,,,,VFR,,,,,,,,,,,,SPECI,7.0
CYJF 311900Z 04011G16KT 15SM SCT020 SCT044 BKN130 M04/M08 A2971 RMK SC3SC2AC1 IC SLP075,CYJF,2022-10-31T19:00:00Z,60.23,-123.47,-4.0,-8.0,40,11,16,15.0,29.71063,1007.5,,,,,,,,,,SCT,2000,SCT,4400,BKN,13000,,,VFR,,,,,,,,,,,,SPECI,215.0
CYIV 311900Z AUTO 26011G18KT 9SM SCT160 10/02 A2932 RMK SLP940 DENSITY ALT 1100FT,CYIV,2022-10-31T19:00:00Z,53.85,-94.65,10.0,2.0,260,11,18,9.0,29.320866,994.0,,TRUE,,,,,,,,SCT,16000,,,,,,,VFR,,,,,,,,,,,,SPECI,234.0
CYIO 311900Z 22010KT 8SM -SN OVC024 M15/M18 A2945 RMK SC8 SLP982,CYIO,2022-10-31T19:00:00Z,72.68,-77.97,-15.0,-18.0,220,10,,8.0,29.450787,998.2,,,,,,,,,-SN,OVC,2400,,,,,,,MVFR,,,,,,,,,,,,SPECI,61.0
CYIK 311900Z CCA 13014G20KT 15SM DRSN FEW013 OVC026 M04/M07 A2967 RMK ST1SC8 ST TR LAST STFD OB/NEXT 011200UTC SLP054,CYIK,2022-10-31T19:00:00Z,62.42,-77.93,-4.0,-7.0,130,14,20,15.0,29.66929,1005.4,,,,,,,,,DRSN,FEW,1300,OVC,2600,,,,,MVFR,,,,,,,,,,,,SPECI,44.0
CYHZ 311900Z 23007KT 15SM FEW250 17/05 A2999 RMK CI1 SLP161 DENSITY ALT 800FT,CYHZ,2022-10-31T19:00:00Z,44.87,-63.5,17.0,5.0,230,7,,15.0,29.991142,1016.1,,,,,,,,,,FEW,25000,,,,,,,VFR,,,,,,,,,,,,SPECI,136.0
CYHU 311900Z AUTO 14004KT 9SM BKN160 15/02 A2991 RMK SLP133 DENSITY ALT 200FT,CYHU,2022-10-31T19:00:00Z,45.52,-73.42,15.0,2.0,140,4,,9.0,29.911417,1013.3,,TRUE,,,,,,,,BKN,16000,,,,,,,VFR,,,,,,,,,,,,SPECI,26.0
CYHM 311900Z 05005KT 1SM R12/P6000FT/D BR OVC010 11/11 A2984 RMK FG5SF3 SLP109,CYHM,2022-10-31T19:00:00Z,43.17,-79.93,11.0,11.0,50,5,,1.0,29.840551,1010.9,,,,,,,,,BR,OVC,1000,,,,,,,IFR,,,,,,,,,,,,METAR,237.0
CYHK 311900Z AUTO 29011KT 9SM OVC014 M17/M19 A2973 RMK ICE MISG SLP076,CYHK,2022-10-31T19:00:00Z,68.62,-95.85,-17.0,-19.0,290,11,,9.0,29.731298,1007.6,,TRUE,,,,,,,,OVC,1400,,,,,,,MVFR,,,,,,,,,,,,SPECI,36.0
CYHI 311900Z 05006KT 15SM FEW008 M20/M23 A3002 RMK SC2 SLP174,CYHI,2022-10-31T19:00:00Z,70.77,-117.78,-20.0,-23.0,50,6,,15.0,30.02067,1017.4,,,,,,,,,,FEW,800,,,,,,,VFR,,,,,,,,,,,,SPECI,33.0
CYHD 311900Z AUTO 22014G19KT 9SM SCT190 BKN210 BKN240 12/01 A2958 RMK SLP032 DENSITY ALT 1700FT,CYHD,2022-10-31T19:00:00Z,49.82,-92.75,12.0,1.0,220,14,19,9.0,29.58071,1003.2,,TRUE,,,,,,,,SCT,19000,BKN,21000,BKN,24000,,,VFR,,,,,,,,,,,,SPECI,414.0
CYHA 311900Z 32012G19KT 15SM BKN024 M03/M08 A2980 RMK SC7 LAST OBS/NEXT 011200 UTC SLP098,CYHA,2022-10-31T19:00:00Z,61.03,-69.62,-3.0,-8.0,320,12,19,15.0,29.799213,1009.8,,,,,,,,,,BKN,2400,,,,,,,MVFR,,,,,,,,,,,,SPECI,31.0
CYGX 311900Z 23008KT 15SM BKN018 04/02 A2916 RMK SC7 SLP886,CYGX,2022-10-31T19:00:00Z,56.35,-94.7,4.0,2.0,230,8,,15.0,29.161417,988.6,,,,,,,,,,BKN,1800,,,,,,,MVFR,,,,,,,,,,,,SPECI,145.0
CYGW 311900Z AUTO 16008KT 9SM FEW032 OVC042 06/03 A2975 RMK SLP076,CYGW,2022-10-31T19:00:00Z,55.27,-77.77,6.0,3.0,160,8,,9.0,29.749016,1007.6,,TRUE,,,,,,,,FEW,3200,OVC,4200,,,,,VFR,,,,,,,,,,,,SPECI,13.0
CYGV 311900Z AUTO 33007KT 9SM CLR 14/M01 A2986 RMK SLP116,CYGV,2022-10-31T19:00:00Z,50.28,-63.62,14.0,-1.0,330,7,,9.0,29.861221,1011.6,,TRUE,,,,,,,,CLR,,,,,,,,VFR,,,,,,,,,,,,SPECI,32.0
CYGT 311900Z 29012KT 15SM FEW022 SCT035 M16/M19 A2959 RMK SC2SC1 SLP030,CYGT,2022-10-31T19:00:00Z,69.37,-81.82,-16.0,-19.0,290,12,,15.0,29.589567,1003.0,,,,,,,,,,FEW,2200,SCT,3500,,,,,VFR,,,,,,,,,,,,SPECI,49.0
CYGR 311900Z 28011KT 20SM FEW220 BKN290 11/07 A2994 RMK CI2CI4 SLP140,CYGR,2022-10-31T19:00:00Z,47.42,-61.77,11.0,7.0,280,11,,20.0,29.940945,1014.0,,,,,,,,,,FEW,22000,BKN,29000,,,,,VFR,,,,,,,,,,,,SPECI,4.0
CYGP 311900Z 31010G16KT 15SM FEW190 BKN250 15/M04 A2989 RMK AC1CC1 AC TR SLP126 DENSITY ALT 300FT,CYGP,2022-10-31T19:00:00Z,48.77,-64.47,15.0,-4.0,310,10,16,15.0,29.890747,1012.6,,,,,,,,,,FEW,19000,BKN,25000,,,,,VFR,,,,,,,,,,,,SPECI,31.0
CYGL 311900Z 18005KT 15SM SCT016 OVC160 05/01 A2978 RMK SC4AC4 SLP098,CYGL,2022-10-31T19:00:00Z,53.62,-77.7,5.0,1.0,180,5,,15.0,29.778543,1009.8,,,,,,,,,,SCT,1600,OVC,16000,,,,,VFR,,,,,,,,,,,,SPECI,192.0
CYGK 311900Z 18010KT 6SM -SHRA BR BKN050 OVC100 12/09 A2992 RMK SC5AC3 SLP134,CYGK,2022-10-31T19:00:00Z,44.22,-76.58,12.0,9.0,180,10,,6.0,29.920275,1013.4,,,,,,,,,-SHRA BR,BKN,5000,OVC,10000,,,,,VFR,,,,,,,,,,,,SPECI,91.0
CYGH 311900Z 01003KT 310V050 10SM -SN SCT014 BKN046 M17/M20 A3002 RMK SC4SC3 SLP180,CYGH,2022-10-31T19:00:00Z,66.23,-128.63,-17.0,-20.0,10,3,,10.0,30.02067,1018.0,,,,,,,,,-SN,SCT,1400,BKN,4600,,,,,VFR,,,,,,,,,,,,SPECI,72.0
CYGE 311900Z 14015G24KT 15SM FEW025 SCT061 BKN120 08/02 A2958 RMK SC2SC2AC1 CU ASOCTD SLP032 DENSITY ALT 2800FT,CYGE,2022-10-31T19:00:00Z,51.3,-116.98,8.0,2.0,140,15,24,15.0,29.58071,1003.2,,,,,,,,,,FEW,2500,SCT,6100,BKN,12000,,,VFR,,,,,,,,,,,,SPECI,786.0
CYFT 311900Z 30010G16KT 15SM BKN028 03/M03 A2978 RMK SC6 SLP089,CYFT,2022-10-31T19:00:00Z,55.07,-59.18,3.0,-3.0,300,10,16,15.0,29.778543,1008.9,,,,,,,,,,BKN,2800,,,,,,,MVFR,,,,,,,,,,,,SPECI,65.0
CYFR 311900Z 08008KT 15SM BKN042 BKN070 M08/M10 A2970 RMK SC5AC2 SLP071,CYFR,2022-10-31T19:00:00Z,61.17,-113.68,-8.0,-10.0,80,8,,15.0,29.698818,1007.1,,,,,,,,,,BKN,4200,BKN,7000,,,,,VFR,,,,,,,,,,,,SPECI,159.0
CYFO 311900Z 25010G23KT 220V280 15SM BKN041 08/M03 A2945 RMK SC7 SLP988,CYFO,2022-10-31T19:00:00Z,54.67,-101.67,8.0,-3.0,250,10,23,15.0,29.450787,998.8,,,,,,,,,,BKN,4100,,,,,,,VFR,,,,,,,,,,,,SPECI,303.0
CYFC 311900Z AUTO 14007KT 9SM CLR 18/02 A2994 RMK SLP141 DENSITY ALT 500FT,CYFC,2022-10-31T19:00:00Z,45.87,-66.53,18.0,2.0,140,7,,9.0,29.940945,1014.1,,TRUE,,,,,,,,CLR,,,,,,,,VFR,,,,,,,,,,,,SPECI,16.0
CYFB 311900Z 34011KT 30SM OVC029 M08/M13 A2978 RMK SC8 SLP091,CYFB,2022-10-31T19:00:00Z,63.75,-68.55,-8.0,-13.0,340,11,,30.0,29.778543,1009.1,,,,,,,,,,OVC,2900,,,,,,,MVFR,,,,,,,,,,,,SPECI,23.0
CYEV 311900Z 29003KT 220V340 15SM -SN OVC026 M12/M14 A3008 RMK SC8 SLP195,CYEV,2022-10-31T19:00:00Z,68.32,-133.5,-12.0,-14.0,290,3,,15.0,30.079725,1019.5,,,,,,,,,-SN,OVC,2600,,,,,,,MVFR,,,,,,,,,,,,SPECI,74.0
CYER 311900Z AUTO 19014G21KT 9SM FEW170 SCT240 10/M00 A2925 RMK SLP907 DENSITY ALT 200FT,CYER,2022-10-31T19:00:00Z,56.02,-87.68,10.0,0.0,190,14,21,9.0,29.25,990.7,,TRUE,,,,,,,,FEW,17000,SCT,24000,,,,,VFR,,,,,,,,,,,,METAR,11.0
CYEN 311900Z AUTO 27006KT 230V300 9SM CLR 12/02 A2969 RMK SLP068 DENSITY ALT 2300FT,CYEN,2022-10-31T19:00:00Z,49.22,-102.97,12.0,2.0,270,6,,9.0,29.68996,1006.8,,TRUE,,,,,,,,CLR,,,,,,,,VFR,,,,,,,,,,,,SPECI,580.0
CYEG 311900Z 19011KT 20SM FEW070 BKN090 05/M05 A2962 RMK AC2AC4 SLP055,CYEG,2022-10-31T19:00:00Z,53.3,-113.58,5.0,-5.0,190,11,,20.0,29.619095,1005.5,,,,,,,,,,FEW,7000,BKN,9000,,,,,VFR,,,,,,,,,,,,SPECI,710.0
CYED 311900Z 21005KT 180V250 15SM FEW120 06/M08 A2963 RMK AC1 DENSITY ALT 2048FT SLP053,CYED,2022-10-31T19:00:00Z,53.67,-113.47,6.0,-8.0,210,5,,15.0,29.630905,1005.3,,,,,,,,,,FEW,12000,,,,,,,VFR,,,,,,,,,,,,SPECI,688.0
CYDQ 311900Z AUTO 12005KT 9SM CLR 02/M06 A2953 RMK SLP029,CYDQ,2022-10-31T19:00:00Z,55.75,-120.18,2.0,-6.0,120,5,,9.0,29.530512,1002.9,,TRUE,,,,,,,,CLR,,,,,,,,VFR,,,,,,,,,,,,SPECI,658.0
CYDP 311900Z 29013G22KT 15SM FEW024 02/M06 A2979 RMK SC2 PRESRR SLP092,CYDP,2022-10-31T19:00:00Z,56.53,-61.68,2.0,-6.0,290,13,22,15.0,29.790354,1009.2,,,,,,,,,,FEW,2400,,,,,,,VFR,,,,,,,,,,,,SPECI,14.0
CYDN 311900Z AUTO 26014G19KT 9SM CLR 12/01 A2958 RMK SLP027 DENSITY ALT 1300FT,CYDN,2022-10-31T19:00:00Z,51.1,-100.05,12.0,1.0,260,14,19,9.0,29.58071,1002.7,,TRUE,,,,,,,,CLR,,,,,,,,VFR,,,,,,,,,,,,SPECI,302.0
CYDL 311900Z AUTO 00000KT 9SM FEW045 BKN060 BKN075 M04/M06 A2949 RMK SLP015,CYDL,2022-10-31T19:00:00Z,58.42,-130.02,-4.0,-6.0,0,0,,9.0,29.489174,1001.5,,TRUE,,,,,,,,FEW,4500,BKN,6000,BKN,7500,,,VFR,,,,,,,,,,,,METAR,804.0
CYDF 311900Z 25019G26KT 15SM FEW035 SCT220 12/04 A2977 RMK SC2CI2 SLP083,CYDF,2022-10-31T19:00:00Z,49.22,-57.4,12.0,4.0,250,19,26,15.0,29.769686,1008.3,,,,,,,,,,FEW,3500,SCT,22000,,,,,VFR,,,,,,,,,,,,SPECI,15.0
CYDB 311900Z 30011KT 10SM OVC039 M13/M17 A2964 RMK SC8 SLP102,CYDB,2022-10-31T19:00:00Z,61.37,-139.02,-13.0,-17.0,300,11,,10.0,29.639763,1010.2,,,,,,,,,,OVC,3900,,,,,,,VFR,,,,,,,,,,,,SPECI,807.0
CYDA 311900Z 00000KT 6SM -SN OVC029 M13/M15 A2977 RMK SC8 SLP118,CYDA,2022-10-31T19:00:00Z,64.03,-139.12,-13.0,-15.0,0,0,,6.0,29.769686,1011.8,,,,,,,,,-SN,OVC,2900,,,,,,,MVFR,,,,,,,,,,,,SPECI,338.0
CYCY 311900Z 25009KT 15SM FEW015 SCT040 BKN050 M11/M16 A2938 RMK SF1SC4SC3 SF TR SLP954,CYCY,2022-10-31T19:00:00Z,70.48,-68.52,-11.0,-16.0,250,9,,15.0,29.379921,995.4,,,,,,,,,,FEW,1500,SCT,4000,BKN,5000,,,VFR,,,,,,,,,,,,SPECI,73.0
CYCX 311900Z 19002KT 15SM FEW200 SCT230 17/M01 A2995 RMK CI1CI2 DENSITY ALT 531FT SLP142,CYCX,2022-10-31T19:00:00Z,45.83,-66.45,17.0,-1.0,190,2,,15.0,29.949802,1014.2,,,,,,,,,,FEW,20000,SCT,23000,,,,,VFR,,,,,,,,,,,,SPECI,46.0
CYCQ 311900Z VRB02KT 35SM FEW040 SCT060 BKN130 OVC140 OVC200 00/M05 A2951 RMK SC1SC3AC2AS2CI1 CI TR PCPN DIST N+W ROTOR CLDS NE+SE VIRGA S-NW SUN DIMLY VISBL SLP023,CYCQ,2022-10-31T19:00:00Z,55.7,-121.62,0.0,-5.0,0,2,,35.0,29.509842,1002.3,,,,,,,,,,FEW,4000,SCT,6000,BKN,13000,OVC,14000,VFR,,,,,,,,,,,,SPECI,614.0
CYCP 311900Z VRB02KT 5SM BR FEW004 SCT022 BKN060 BKN095 04/03 A2956 RMK SF2SC2CU2AC1 SLP032,CYCP,2022-10-31T19:00:00Z,52.13,-119.28,4.0,3.0,0,2,,5.0,29.56004,1003.2,,,,,,,,,BR,FEW,400,SCT,2200,BKN,6000,BKN,9500,MVFR,,,,,,,,,,,,SPECI,677.0
CYCG 311900Z VRB02KT 9SM -RA FEW001 FEW008 SCT025 BKN034 OVC090 08/08 A2971 RMK SF1CF1SC2SC4AC1 SF TR VIS S 6 LO CLD S SLP071,CYCG,2022-10-31T19:00:00Z,49.28,-117.63,8.0,8.0,0,2,,9.0,29.71063,1007.1,,,,,,,,,-RA,FEW,100,FEW,800,SCT,2500,BKN,3400,VFR,,,,,,,,,,,,SPECI,487.0
CYCD 311900Z 26009KT 240V330 25SM BKN045 BKN250 12/02 A2977 RMK CU5CI1 SLP084,CYCD,2022-10-31T19:00:00Z,49.05,-123.87,12.0,2.0,260,9,,25.0,29.769686,1008.4,,,,,,,,,,BKN,4500,BKN,25000,,,,,VFR,,,,,,,,,,,,SPECI,30.0
CYBX 311900Z 33020G30KT 15SM SCT041 BKN064 09/03 A2967 RMK SC3SC4 PRESRR SLP051,CYBX,2022-10-31T19:00:00Z,51.45,-57.18,9.0,3.0,330,20,30,15.0,29.66929,1005.1,,,,,,,,,,SCT,4100,BKN,6400,,,,,VFR,,,,,,,,,,,,SPECI,32.0
CYBW 311900Z AUTO 16013KT 9SM OVC019 02/M02 A2963 RMK SLP070,CYBW,2022-10-31T19:00:00Z,51.1,-114.37,2.0,-2.0,160,13,,9.0,29.630905,1007.0,,TRUE,,,,,,,,OVC,1900,,,,,,,MVFR,,,,,,,,,,,,SPECI,1197.0
CYBV 311900Z 27009KT 15SM BKN150 BKN160 08/03 A2952 RMK AC5AC1 SLP006,CYBV,2022-10-31T19:00:00Z,52.35,-97.03,8.0,3.0,270,9,,15.0,29.518702,1000.6,,,,,,,,,,BKN,15000,BKN,16000,,,,,VFR,,,,,,,,,,,,SPECI,219.0
CYBU 311900Z AUTO 27016G23KT 9SM FEW140 A2957 RMK T MISG DP MISG DENSITY ALT MISG,CYBU,2022-10-31T19:00:00Z,53.32,-104.0,,,270,16,23,9.0,29.568897,,,TRUE,,,,,,,,FEW,14000,,,,,,,VFR,,,,,,,,,,,,SPECI,369.0
CYBQ 311900Z AUTO /////KT 9SM BKN011 OVC019 M05/M06 A2920 RMK WIND MISG SLP908,CYBQ,2022-10-31T19:00:00Z,58.7,-98.5,-5.0,-6.0,,,,9.0,29.199802,990.8,,TRUE,,,,,,,,BKN,1100,OVC,1900,,,,,MVFR,,,,,,,,,,,,METAR,272.0
CYBL 311900Z 31009G16KT 280V340 30SM FEW006 FEW034 SCT090 08/04 A2977 RMK CF1CU1AC1 SLP087,CYBL,2022-10-31T19:00:00Z,49.95,-125.27,8.0,4.0,310,9,16,30.0,29.769686,1008.7,,,,,,,,,,FEW,600,FEW,3400,SCT,9000,,,VFR,,,,,,,,,,,,SPECI,94.0
CYBK 311900Z 36026G33KT 3/8SM -SN BLSN SCT042 BKN069 BKN140 M15/M17 A2953 RMK BLSN1SC3AC1CI1 CI TR SLP005,CYBK,2022-10-31T19:00:00Z,64.3,-96.07,-15.0,-17.0,360,26,33,0.38,29.530512,1000.5,,,,,,,,,-SN BLSN,SCT,4200,BKN,6900,BKN,14000,,,LIFR,,,,,,,,,,,,SPECI,14.0
CYBG 311900Z 08003KT 25SM SCT120 BKN150 BKN210 13/03 A2990 RMK AC3AC2CI2 SLP131,CYBG,2022-10-31T19:00:00Z,48.33,-70.98,13.0,3.0,80,3,,25.0,29.899607,1013.1,,,,,,,,,,SCT,12000,BKN,15000,BKN,21000,,,VFR,,,,,,,,,,,,SPECI,151.0
CYBD 311900Z 27002KT 15SM FEW025 FEW055 FEW080 SCT200 06/03 A2975 RMK CU2CU1AC1CI2 CU TR AC TR VIS LWR W WIND ESTD SLP077,CYBD,2022-10-31T19:00:00Z,52.38,-126.58,6.0,3.0,270,2,,15.0,29.749016,1007.7,,,,,,,,,,FEW,2500,FEW,5500,FEW,8000,SCT,20000,VFR,,,,,,,,,,,,SPECI,40.0
CYBC 311900Z AUTO 23009KT 9SM CLR 10/05 A2991 RMK SLP133,CYBC,2022-10-31T19:00:00Z,49.13,-68.2,10.0,5.0,230,9,,9.0,29.911417,1013.3,,TRUE,,,,,,,,CLR,,,,,,,,VFR,,,,,,,,,,,,SPECI,20.0
CYBB 311900Z 25008KT 15SM BKN028 M16/M20 A2970 RMK SC7 SLP060,CYBB,2022-10-31T19:00:00Z,68.53,-89.78,-16.0,-20.0,250,8,,15.0,29.698818,1006.0,,,,,,,,,,BKN,2800,,,,,,,MVFR,,,,,,,,,,,,SPECI,13.0
CYAZ 311900Z 29013G20KT 15SM SCT017 10/06 A2982 RMK CU3 SLP099,CYAZ,2022-10-31T19:00:00Z,49.08,-125.77,10.0,6.0,290,13,20,15.0,29.819881,1009.9,,,,,,,,,,SCT,1700,,,,,,,VFR,,,,,,,,,,,,SPECI,26.0
CYAY 311900Z AUTO 25016G24KT 9SM FEW066 10/05 A2961 RMK SLP031,CYAY,2022-10-31T19:00:00Z,51.38,-56.07,10.0,5.0,250,16,24,9.0,29.610237,1003.1,,TRUE,,,,,,,,FEW,6600,,,,,,,VFR,,,,,,,,,,,,SPECI,23.0
CYAW 311900Z 22007KT 15SM FEW250 17/07 A3001 RMK CI2 DENSITY ALT 457FT SLP164,CYAW,2022-10-31T19:00:00Z,44.63,-63.5,17.0,7.0,220,7,,15.0,30.008858,1016.4,,,,,,,,,,FEW,25000,,,,,,,VFR,,,,,,,,,,,,METAR,50.0
CYAT 311900Z AUTO 19009KT 160V230 9SM CLR 11/M00 A2963 RMK SLP036,CYAT,2022-10-31T19:00:00Z,52.93,-82.43,11.0,0.0,190,9,,9.0,29.630905,1003.6,,TRUE,,,,,,,,CLR,,,,,,,,VFR,,,,,,,,,,,,METAR,4.0
CYAS 311900Z 30010KT 15SM FEW026 M04/M10 A2984 RMK SC2 LAST STFD OBS/NEXT 011200UTC SLP118,CYAS,2022-10-31T19:00:00Z,60.02,-70.0,-4.0,-10.0,300,10,,15.0,29.840551,1011.8,,,,,,,,,,FEW,2600,,,,,,,VFR,,,,,,,,,,,,SPECI,99.0
CYAM 311900Z 04006KT 15SM FEW110 SCT250 15/09 A2977 RMK AC1CI3 SLP088 DENSITY ALT 1000FT,CYAM,2022-10-31T19:00:00Z,46.48,-84.52,15.0,9.0,40,6,,15.0,29.769686,1008.8,,,,,,,,,,FEW,11000,SCT,25000,,,,,VFR,,,,,,,,,,,,SPECI,186.0
CYAH 311900Z AUTO 14005KT 9SM OVC025 05/M00 A2984 RMK SLP121,CYAH,2022-10-31T19:00:00Z,53.75,-73.67,5.0,0.0,140,5,,9.0,29.840551,1012.1,,TRUE,,,,,,,,OVC,2500,,,,,,,MVFR,,,,,,,,,,,,SPECI,298.0
CYAB 311900Z 08008KT 5SM -SN OVC020 M15/M18 A2944 RMK NS8 CIG EST SLP975,CYAB,2022-10-31T19:00:00Z,73.0,-85.02,-15.0,-18.0,80,8,,5.0,29.438976,997.5,,,,,,,,,-SN,OVC,2000,,,,,,,MVFR,,,,,,,,,,,,METAR,36.0
CXZV 311900Z AUTO 07002KT 13/M02 RMK AO1 SLP126 T01301017 53005,CXZV,2022-10-31T19:00:00Z,50.22,-66.25,13.0,-1.7,70,2,,,,1012.6,,TRUE,TRUE,,,,,,,,,,,,,,,,0.5,,,,,,,,,,,METAR,43.0
CXZC 311900Z AUTO 12002KT 12/02 RMK AO1 SLP061 T01200017 58029,CXZC,2022-10-31T19:00:00Z,51.3,-80.62,12.0,1.7,120,2,,,,1006.1,,TRUE,TRUE,,,,,,,,,,,,,,,,-2.9,,,,,,,,,,,METAR,8.0
CXYH 311900Z AUTO 04002KT M05/M08 RMK AO1 SLP072 T10491081 53018,CXYH,2022-10-31T19:00:00Z,61.25,-123.75,-4.9,-8.1,40,2,,,,1007.2,,TRUE,TRUE,,,,,,,,,,,,,,,,1.8,,,,,,,,,,,METAR,197.0
CXWN 311900Z AUTO 23004KT 11/02 RMK AO1 SLP034 T01080020 53006,CXWN,2022-10-31T19:00:00Z,49.88,-97.13,10.8,2.0,230,4,,,,1003.4,,TRUE,TRUE,,,,,,,,,,,,,,,,0.6,,,,,,,,,,,METAR,232.0
CXWM 311900Z AUTO 27010KT 07/01 RMK AO1 T00700010,CXWM,2022-10-31T19:00:00Z,49.5,-112.12,7.0,1.0,270,10,,,,,,TRUE,TRUE,,,,,,,,,,,,,,,,,,,,,,,,,,,METAR,947.0
CXVW 311900Z AUTO 15008KT 04/M08 RMK AO1 SLP031 T00391077 57003,CXVW,2022-10-31T19:00:00Z,55.1,-117.2,3.9,-7.7,150,8,,,,1003.1,,TRUE,TRUE,,,,,,,,,,,,,,,,-0.3,,,,,,,,,,,METAR,696.0
CXVN 311900Z AUTO 33003KT 10/08 RMK AO1 SLP109 T00960082 57022,CXVN,2022-10-31T19:00:00Z,43.18,-79.4,9.6,8.2,330,3,,,,1010.9,,TRUE,TRUE,,,,,,,,,,,,,,,,-2.2,,,,,,,,,,,METAR,86.0
CXVM 311900Z AUTO 27005KT 06/M08 RMK AO1 T00571080,CXVM,2022-10-31T19:00:00Z,53.35,-110.88,5.7,-8.0,270,5,,,,,,TRUE,TRUE,,,,,,,,,,,,,,,,,,,,,,,,,,,METAR,622.0
CXTV 311900Z AUTO 33007KT M11/M13 RMK AO1 SOG 10 3014 SLP195 T11121131,CXTV,2022-10-31T19:00:00Z,68.75,-133.5,-11.2,-13.1,330,7,,,,1019.5,,TRUE,TRUE,,,,,,,,,,,,,,,,,,,,,,,,,,,METAR,91.0
CXTP 311900Z AUTO 25010KT 14/04 RMK AO1 PK WND 24024/1845 SLP070 T01390039 55013,CXTP,2022-10-31T19:00:00Z,48.55,-53.97,13.9,3.9,250,10,,,,1007.0,,TRUE,TRUE,,,,,,,,,,,,,,,,-1.3,,,,,,,,,,,METAR,104.0
CXTO 311900Z AUTO 11/08 RMK AO1 SLP111 T01130081 56021,CXTO,2022-10-31T19:00:00Z,43.67,-79.4,11.3,8.1,,,,,,1011.1,,TRUE,TRUE,,,,,,,,,,,,,,,,-2.1,,,,,,,,,,,METAR,115.0
CXTN 311900Z AUTO 03002KT M17/M19 RMK AO1 SOG 21 3014 SLP166 T11661187,CXTN,2022-10-31T19:00:00Z,69.2,-122.35,-16.6,-18.7,30,2,,,,1016.6,,TRUE,TRUE,,,,,,,,,,,,,,,,,,,,,,,,,,,METAR,564.0
CXTH 311900Z AUTO 27009KT 05/M08 RMK AO1 T00491080,CXTH,2022-10-31T19:00:00Z,53.63,-111.68,4.9,-8.0,270,9,,,,,,TRUE,TRUE,,,,,,,,,,,,,,,,,,,,,,,,,,,METAR,679.0
CXTD 311900Z AUTO 29005KT 18/M00 RMK AO1 SLP160 T01801001 56009,CXTD,2022-10-31T19:00:00Z,45.62,-61.68,18.0,-0.1,290,5,,,,1016.0,,TRUE,TRUE,,,,,,,,,,,,,,,,-0.9,,,,,,,,,,,METAR,58.0
CXSP 311900Z AUTO 23006KT 03/M04 RMK AO1 T00311044,CXSP,2022-10-31T19:00:00Z,54.02,-111.27,3.1,-4.4,230,6,,,,,,TRUE,TRUE,,,,,,,,,,,,,,,,,,,,,,,,,,,METAR,652.0
CXSL 311900Z AUTO 30007KT 05/M08 RMK AO1 T00501078,CXSL,2022-10-31T19:00:00Z,54.28,-112.5,5.0,-7.8,300,7,,,,,,TRUE,TRUE,,,,,,,,,,,,,,,,,,,,,,,,,,,METAR,680.0
CXSH 311900Z AUTO 18005KT 12/04 RMK AO1 SLP136 T01240035 56017,CXSH,2022-10-31T19:00:00Z,46.55,-72.73,12.4,3.5,180,5,,,,1013.6,,TRUE,TRUE,,,,,,,,,,,,,,,,-1.7,,,,,,,,,,,METAR,106.0
CXSE 311900Z AUTO 34021G27KT M19/M21 RMK AO1 SOG 05 3007 PK WND 34029/1837 SLP065 T11891214,CXSE,2022-10-31T19:00:00Z,73.77,-105.28,-18.9,-21.4,340,21,27,,,1006.5,,TRUE,TRUE,,,,,,,,,,,,,,,,,,,,,,,,,,,METAR,11.0
CXSC 311900Z AUTO 08008KT 05/01 RMK AO1 T00510006,CXSC,2022-10-31T19:00:00Z,50.3,-110.08,5.1,0.6,80,8,,,,,,TRUE,TRUE,,,,,,,,,,,,,,,,,,,,,,,,,,,METAR,809.0
CXRL 311900Z AUTO 27007KT 04/M08 RMK AO1 T00431083,CXRL,2022-10-31T19:00:00Z,54.5,-111.7,4.3,-8.3,270,7,,,,,,TRUE,TRUE,,,,,,,,,,,,,,,,,,,,,,,,,,,METAR,585.0
CXRH 311900Z AUTO 27009G16KT 10/06 RMK AO1 PK WND 29018/1815 SLP090 T01000059 53014,CXRH,2022-10-31T19:00:00Z,49.57,-57.88,10.0,5.9,270,9,16,,,1009.0,,TRUE,TRUE,,,,,,,,,,,,,,,,1.4,,,,,,,,,,,METAR,68.0
CXRB 311900Z AUTO 04013KT M20/M24 RMK AO1 SOG 03 3003 SLP001 T12011236,CXRB,2022-10-31T19:00:00Z,74.72,-94.98,-20.1,-23.6,40,13,,,,1000.1,,TRUE,TRUE,,,,,,,,,,,,,,,,,,,,,,,,,,,METAR,30.0
CXPL 311900Z AUTO 04005KT 06/M03 RMK AO1 T00621034,CXPL,2022-10-31T19:00:00Z,51.13,-111.7,6.2,-3.4,40,5,,,,,,TRUE,TRUE,,,,,,,,,,,,,,,,,,,,,,,,,,,METAR,735.0
CXPC 311900Z AUTO 14/08 RMK AO1 SLP105 T01350078 58020,CXPC,2022-10-31T19:00:00Z,45.35,-80.05,13.5,7.8,,,,,,1010.5,,TRUE,TRUE,,,,,,,,,,,,,,,,-2.0,,,,,,,,,,,METAR,176.0
CXPA 311900Z AUTO 17003KT 04/M06 RMK AO1 T00421055,CXPA,2022-10-31T19:00:00Z,55.62,-118.3,4.2,-5.5,170,3,,,,,,TRUE,TRUE,,,,,,,,,,,,,,,,,,,,,,,,,,,METAR,628.0
CXOY 311900Z AUTO 36005KT 06/M05 RMK AO1 T00581049,CXOY,2022-10-31T19:00:00Z,51.35,-110.35,5.8,-4.9,360,5,,,,,,TRUE,TRUE,,,,,,,,,,,,,,,,,,,,,,,,,,,METAR,784.0
CXOX 311900Z AUTO 31012G20KT 04/M06 RMK AO1 PK WND 31022/1813 SLP017 T00401056 51022,CXOX,2022-10-31T19:00:00Z,55.15,-105.27,4.0,-5.6,310,12,20,,,1001.7,,TRUE,TRUE,,,,,,,,,,,,,,,,2.2,,,,,,,,,,,METAR,381.0
CXOL 311900Z AUTO 11005KT 03/M06 RMK AO1 T00251056,CXOL,2022-10-31T19:00:00Z,51.77,-114.08,2.5,-5.6,110,5,,,,,,TRUE,TRUE,,,,,,,,,,,,,,,,,,,,,,,,,,,METAR,1026.0
CXNP 311900Z AUTO 29009KT 16/10 RMK AO1 SLP149 T01580104 55007,CXNP,2022-10-31T19:00:00Z,45.75,-64.23,15.8,10.4,290,9,,,,1014.9,,TRUE,TRUE,,,,,,,,,,,,,,,,-0.7,,,,,,,,,,,METAR,19.0
CXNM 311900Z AUTO 27016G21KT 10/04 RMK AO1 PK WND 25023/1801 T01030040,CXNM,2022-10-31T19:00:00Z,46.82,-60.67,10.3,4.0,270,16,21,,,,,TRUE,TRUE,,,,,,,,,,,,,,,,,,,,,,,,,,,METAR,452.0
CXMY 311900Z AUTO 17/06 RMK AO1 T01740059,CXMY,2022-10-31T19:00:00Z,44.98,-62.48,17.4,5.9,,,,,,,,TRUE,TRUE,,,,,,,,,,,,,,,,,,,,,,,,,,,METAR,37.0
CXMO 311900Z AUTO 18003KT 06/M04 RMK AO1 T00571042,CXMO,2022-10-31T19:00:00Z,51.67,-112.68,5.7,-4.2,180,3,,,,,,TRUE,TRUE,,,,,,,,,,,,,,,,,,,,,,,,,,,METAR,837.0
CXMM 311900Z AUTO 02006KT 02/M03 RMK AO1 SLP042 T00201028 51014,CXMM,2022-10-31T19:00:00Z,56.65,-111.22,2.0,-2.8,20,6,,,,1004.2,,TRUE,TRUE,,,,,,,,,,,,,,,,1.4,,,,,,,,,,,METAR,372.0
CXMI 311900Z AUTO 25006KT 17/07 RMK AO1 SLP159 T01690074 56011,CXMI,2022-10-31T19:00:00Z,44.6,-63.53,16.9,7.4,250,6,,,,1015.9,,TRUE,TRUE,,,,,,,,,,,,,,,,-1.1,,,,,,,,,,,METAR,15.0
CXMG 311900Z AUTO 36003KT 01/M03 RMK AO1 T00051029,CXMG,2022-10-31T19:00:00Z,56.97,-117.45,0.5,-2.9,360,3,,,,,,TRUE,TRUE,,,,,,,,,,,,,,,,,,,,,,,,,,,METAR,467.0
CXMD 311900Z AUTO 26011G17KT 13/03 RMK AO1 PK WND 27023/1815 SLP038 T01250031 50000,CXMD,2022-10-31T19:00:00Z,49.18,-98.08,12.5,3.1,260,11,17,,,1003.8,,TRUE,TRUE,,,,,,,,,,,,,,,,0.0,,,,,,,,,,,METAR,297.0
CXLL 311900Z AUTO 36004KT M06/M08 RMK AO1 SOG 21 3017 SLP084 T10571081,CXLL,2022-10-31T19:00:00Z,61.12,-122.85,-5.7,-8.1,360,4,,,,1008.4,,TRUE,TRUE,,,,,,,,,,,,,,,,,,,,,,,,,,,METAR,180.0
CXLB 311900Z AUTO 26007KT 18/06 RMK AO1 SLP161 T01790056 56011,CXLB,2022-10-31T19:00:00Z,44.37,-64.3,17.9,5.6,260,7,,,,1016.1,,TRUE,TRUE,,,,,,,,,,,,,,,,-1.1,,,,,,,,,,,METAR,4.0
CXKT 311900Z AUTO 28003KT 18/M00 RMK AO1 SLP154 T01831001 56013,CXKT,2022-10-31T19:00:00Z,45.07,-64.48,18.3,-0.1,280,3,,,,1015.4,,TRUE,TRUE,,,,,,,,,,,,,,,,-1.3,,,,,,,,,,,METAR,48.0
CXKM 311900Z AUTO 24008KT 06/M04 RMK AO1 T00551039,CXKM,2022-10-31T19:00:00Z,52.83,-111.87,5.5,-3.9,240,8,,,,,,TRUE,TRUE,,,,,,,,,,,,,,,,,,,,,,,,,,,METAR,679.0
CXKI 311900Z AUTO 00018KT 11/05 RMK AO1 SLP093 T01110053 57023,CXKI,2022-10-31T19:00:00Z,48.13,-80.0,11.1,5.3,0,18,,,,1009.3,,TRUE,TRUE,,,,,,,,,,,,,,,,-2.3,,,,,,,,,,,METAR,328.0
CXKE 311900Z AUTO 17002KT 15/06 RMK AO1 SLP127 T01460058 58017,CXKE,2022-10-31T19:00:00Z,45.0,-75.63,14.6,5.8,170,2,,,,1012.7,,TRUE,TRUE,,,,,,,,,,,,,,,,-1.7,,,,,,,,,,,METAR,99.0
CXKA 311900Z AUTO 22005KT 14/05 RMK AO1 SLP074 T01350054 56025,CXKA,2022-10-31T19:00:00Z,49.4,-82.45,13.5,5.4,220,5,,,,1007.4,,TRUE,TRUE,,,,,,,,,,,,,,,,-2.5,,,,,,,,,,,METAR,221.0
CXIB 311900Z AUTO 25003KT 17/03 RMK AO1 SLP126 T01680028 53004,CXIB,2022-10-31T19:00:00Z,46.67,-60.4,16.8,2.8,250,3,,,,1012.6,,TRUE,TRUE,,,,,,,,,,,,,,,,0.4,,,,,,,,,,,METAR,6.0
CXHR 311900Z AUTO 03002KT 04/M04 RMK AO1 T00431038,CXHR,2022-10-31T19:00:00Z,51.18,-112.5,4.3,-3.8,30,2,,,,,,TRUE,TRUE,,,,,,,,,,,,,,,,,,,,,,,,,,,METAR,975.0
CXHP 311900Z AUTO 27005KT 05/M08 RMK AO1 T00501079,CXHP,2022-10-31T19:00:00Z,55.4,-116.48,5.0,-7.9,270,5,,,,,,TRUE,TRUE,,,,,,,,,,,,,,,,,,,,,,,,,,,METAR,601.0
CXHM 311900Z AUTO 14002KT 09/08 RMK AO1 SLP113 T00930081 58021,CXHM,2022-10-31T19:00:00Z,43.28,-79.9,9.3,8.1,140,2,,,,1011.3,,TRUE,TRUE,,,,,,,,,,,,,,,,-2.1,,,,,,,,,,,METAR,105.0
CXHD 311900Z AUTO 27007KT 06/M08 RMK AO1 T00591076,CXHD,2022-10-31T19:00:00Z,53.18,-112.25,5.9,-7.6,270,7,,,,,,TRUE,TRUE,,,,,,,,,,,,,,,,,,,,,,,,,,,METAR,688.0
CXHA 311900Z AUTO 22005KT 16/15 RMK AO1 SLP094 T01590146 56013,CXHA,2022-10-31T19:00:00Z,42.03,-82.9,15.9,14.6,220,5,,,,1009.4,,TRUE,TRUE,,,,,,,,,,,,,,,,-1.3,,,,,,,,,,,METAR,193.0
CXGH 311900Z AUTO 27007KT 10/02 RMK AO1 SLP018 T00970021 51009,CXGH,2022-10-31T19:00:00Z,50.63,-97.0,9.7,2.1,270,7,,,,1001.8,,TRUE,TRUE,,,,,,,,,,,,,,,,0.9,,,,,,,,,,,METAR,217.0
CXFR 311900Z AUTO 27003KT 03/M07 RMK AO1 T00271067,CXFR,2022-10-31T19:00:00Z,56.08,-118.43,2.7,-6.7,270,3,,,,,,TRUE,TRUE,,,,,,,,,,,,,,,,,,,,,,,,,,,METAR,657.0
CXFM 311900Z AUTO 26008KT 09/02 RMK AO1 T00860022,CXFM,2022-10-31T19:00:00Z,49.48,-111.48,8.6,2.2,260,8,,,,,,TRUE,TRUE,,,,,,,,,,,,,,,,,,,,,,,,,,,METAR,884.0
CXET 311900Z AUTO 17005KT 11/10 RMK AO1 2PAST HR 6022 SLP110 P0001 T01110104 50002,CXET,2022-10-31T19:00:00Z,44.23,-79.78,11.1,10.4,170,5,,,,1011.0,,TRUE,TRUE,,,,,,,,,,,,,,,,0.2,,,,,0.01,,,,,,METAR,250.0
CXEG 311900Z AUTO 18010KT 06/M06 RMK AO1 SLP051 T00561055 58010,CXEG,2022-10-31T19:00:00Z,53.3,-113.6,5.6,-5.5,180,10,,,,1005.1,,TRUE,TRUE,,,,,,,,,,,,,,,,-1.0,,,,,,,,,,,METAR,706.0
CXEC 311900Z AUTO 19004KT 07/M09 RMK AO1 SLP046 T00701092 58012,CXEC,2022-10-31T19:00:00Z,53.57,-113.52,7.0,-9.2,190,4,,,,1004.6,,TRUE,TRUE,,,,,,,,,,,,,,,,-1.2,,,,,,,,,,,METAR,666.0
CXEA 311900Z AUTO 24009G16KT 10/02 RMK AO1 PK WND 23017/1836 SLP001 T01040017 58006,CXEA,2022-10-31T19:00:00Z,50.63,-93.22,10.4,1.7,240,9,16,,,1000.1,,TRUE,TRUE,,,,,,,,,,,,,,,,-0.6,,,,,,,,,,,METAR,351.0
CXDW 311900Z AUTO 26016G21KT 13/02 RMK AO1 PK WND 26021/1855 SLP040 T01340021 51006,CXDW,2022-10-31T19:00:00Z,49.4,-98.32,13.4,2.1,260,16,21,,,1004.0,,TRUE,TRUE,,,,,,,,,,,,,,,,0.6,,,,,,,,,,,METAR,341.0
CXDK 311900Z AUTO M06/M09 RMK AO1 SOG 08 3018 SLP074 T10571093,CXDK,2022-10-31T19:00:00Z,61.27,-124.47,-5.7,-9.3,,,,,,1007.4,,TRUE,TRUE,,,,,,,,,,,,,,,,,,,,,,,,,,,METAR,269.0
CXDI 311900Z AUTO 20004KT 14/13 RMK AO1 SLP105 T01430126 57019,CXDI,2022-10-31T19:00:00Z,42.87,-80.55,14.3,12.6,200,4,,,,1010.5,,TRUE,TRUE,,,,,,,,,,,,,,,,-1.9,,,,,,,,,,,METAR,234.0
CXDE 311900Z AUTO 34011KT M10/M12 RMK AO1 SOG 11 3020 PK WND 02017/1836 SLP111 T10981122,CXDE,2022-10-31T19:00:00Z,65.22,-123.43,-9.8,-12.2,340,11,,,,1011.1,,TRUE,TRUE,,,,,,,,,,,,,,,,,,,,,,,,,,,METAR,208.0
CXDB 311900Z AUTO 30005KT 08/02 RMK AO1 T00780019,CXDB,2022-10-31T19:00:00Z,49.05,-112.82,7.8,1.9,300,5,,,,,,TRUE,TRUE,,,,,,,,,,,,,,,,,,,,,,,,,,,METAR,1311.0
CXCS 311900Z AUTO 31006KT 05/M06 RMK AO1 T00531055,CXCS,2022-10-31T19:00:00Z,51.93,-110.72,5.3,-5.5,310,6,,,,,,TRUE,TRUE,,,,,,,,,,,,,,,,,,,,,,,,,,,METAR,771.0
CXCP 311900Z AUTO 12005KT 04/M01 RMK AO1 T00391014,CXCP,2022-10-31T19:00:00Z,50.28,-113.35,3.9,-1.4,120,5,,,,,,TRUE,TRUE,,,,,,,,,,,,,,,,,,,,,,,,,,,METAR,999.0
CXCK 311900Z AUTO 34004KT M07/M11 RMK AO1 SOG 06 3026 SLP070 T10651108,CXCK,2022-10-31T19:00:00Z,62.12,-136.2,-6.5,-10.8,340,4,,,,1007.0,,TRUE,TRUE,,,,,,,,,,,,,,,,,,,,,,,,,,,METAR,526.0
CXCD 311900Z AUTO 09001KT 03/M06 RMK AO1 T00261063,CXCD,2022-10-31T19:00:00Z,56.32,-119.75,2.6,-6.3,90,1,,,,,,TRUE,TRUE,,,,,,,,,,,,,,,,,,,,,,,,,,,METAR,628.0
CXCA 311900Z AUTO 16009G15KT 11/04 RMK AO1 SLP060 T01050040 58030,CXCA,2022-10-31T19:00:00Z,49.15,-88.35,10.5,4.0,160,9,15,,,1006.0,,TRUE,TRUE,,,,,,,,,,,,,,,,-3.0,,,,,,,,,,,METAR,228.0
CXBW 311900Z AUTO 22004KT 08/02 RMK AO1 T00820020,CXBW,2022-10-31T19:00:00Z,49.8,-112.3,8.2,2.0,220,4,,,,,,TRUE,TRUE,,,,,,,,,,,,,,,,,,,,,,,,,,,METAR,823.0
CXBR 311900Z AUTO 21006KT RMK AO1,CXBR,2022-10-31T19:00:00Z,49.62,-113.82,,,210,6,,,,,,TRUE,TRUE,,,,,,,,,,,,,,,,,,,,,,,,,,,METAR,1137.0
CXBO 311900Z AUTO 24005KT 16/01 RMK AO1 T01640006,CXBO,2022-10-31T19:00:00Z,46.83,-71.2,16.4,0.6,240,5,,,,,,TRUE,TRUE,,,,,,,,,,,,,,,,,,,,,,,,,,,METAR,8.0
CXBK 311900Z AUTO 32006KT 07/M00 RMK AO1 SOG 01 1006 SLP076 T00701002,CXBK,2022-10-31T19:00:00Z,50.2,-104.7,7.0,-0.2,320,6,,,,1007.6,,TRUE,TRUE,,,,,,,,,,,,,,,,,,,,,,,,,,,METAR,585.0
CXBI 311900Z AUTO 12004KT 10/09 RMK AO1 SLP115 T01010091 56025,CXBI,2022-10-31T19:00:00Z,44.48,-79.55,10.1,9.1,120,4,,,,1011.5,,TRUE,TRUE,,,,,,,,,,,,,,,,-2.5,,,,,,,,,,,METAR,287.0
CXBA 311900Z AUTO 24005KT 06/M05 RMK AO1 T00581051,CXBA,2022-10-31T19:00:00Z,52.12,-110.1,5.8,-5.1,240,5,,,,,,TRUE,TRUE,,,,,,,,,,,,,,,,,,,,,,,,,,,METAR,696.0
CXAT 311900Z AUTO 10006KT M15/M18 RMK AO1 SOG 04 1011 SLP977 T11501175,CXAT,2022-10-31T19:00:00Z,73.0,-85.03,-15.0,-17.5,100,6,,,,997.7,,TRUE,TRUE,,,,,,,,,,,,,,,,,,,,,,,,,,,METAR,10.0
CXAK 311900Z AUTO 24007KT 05/M03 RMK AO1 T00451033,CXAK,2022-10-31T19:00:00Z,52.35,-112.6,4.5,-3.3,240,7,,,,,,TRUE,TRUE,,,,,,,,,,,,,,,,,,,,,,,,,,,METAR,799.0
CXAJ 311900Z AUTO 25007KT 06/M08 RMK AO1 T00551082,CXAJ,2022-10-31T19:00:00Z,54.78,-112.82,5.5,-8.2,250,7,,,,,,TRUE,TRUE,,,,,,,,,,,,,,,,,,,,,,,,,,,METAR,586.0
CXAG 311900Z AUTO 26006KT 04/M07 RMK AO1 T00361068,CXAG,2022-10-31T19:00:00Z,53.92,-112.28,3.6,-6.8,260,6,,,,,,TRUE,TRUE,,,,,,,,,,,,,,,,,,,,,,,,,,,METAR,632.0
CXAF 311900Z AUTO 27005KT 04/M08 RMK AO1 T00431075,CXAF,2022-10-31T19:00:00Z,54.28,-112.97,4.3,-7.5,270,5,,,,,,TRUE,TRUE,,,,,,,,,,,,,,,,,,,,,,,,,,,METAR,667.0
CWZW 311900Z AUTO 28002KT M05/M07 RMK AO1 SOG 05 3015 SLP027 T10491074,CWZW,2022-10-31T19:00:00Z,60.17,-132.73,-4.9,-7.4,280,2,,,,1002.7,,TRUE,TRUE,,,,,,,,,,,,,,,,,,,,,,,,,,,METAR,683.0
CWZQ 311900Z AUTO 22009KT 15/09 RMK AO1 SLP152 T01450092 53001,CWZQ,2022-10-31T19:00:00Z,46.53,-61.05,14.5,9.2,220,9,,,,1015.2,,TRUE,TRUE,,,,,,,,,,,,,,,,0.1,,,,,,,,,,,METAR,13.0
CWZO 311900Z AUTO 24010KT RMK AO1 PK WND 25021/1819,CWZO,2022-10-31T19:00:00Z,48.57,-123.25,,,240,10,,,,,,TRUE,TRUE,,,,,,,,,,,,,,,,,,,,,,,,,,,METAR,5.0
CWZN 311900Z AUTO 24028G33KT 11/10 RMK AO1 PK WND 23035/1806 SLP097 T01050099 55017,CWZN,2022-10-31T19:00:00Z,47.37,-55.8,10.5,9.9,240,28,33,,,1009.7,,TRUE,TRUE,,,,,,,,,,,,,,,,-1.7,,,,,,,,,,,METAR,63.0
CWZL 311900Z AUTO 19009KT 05/02 RMK AO1 SLP057 T00470021 55000,CWZL,2022-10-31T19:00:00Z,53.03,-131.6,4.7,2.1,190,9,,,,1005.7,,TRUE,TRUE,,,,,,,,,,,,,,,,0.0,,,,,,,,,,,METAR,17.0
CWZG 311900Z AUTO 11002KT 03/02 RMK AO1 SLP037 T00250018 58009,CWZG,2022-10-31T19:00:00Z,51.2,-115.55,2.5,1.8,110,2,,,,1003.7,,TRUE,TRUE,,,,,,,,,,,,,,,,-0.9,,,,,,,,,,,METAR,1402.0
CWZA 311900Z AUTO 06004KT 09/09 RMK AO1 5PAST HR 3014 SLP077 P0006 T00940086 50015,CWZA,2022-10-31T19:00:00Z,49.25,-121.77,9.4,8.6,60,4,,,,1007.7,,TRUE,TRUE,,,,,,,,,,,,,,,,1.5,,,,,0.06,,,,,,METAR,18.0
CWYY 311900Z AUTO 13006KT 13/07 RMK AO1 SLP046 T01310069 58013,CWYY,2022-10-31T19:00:00Z,49.03,-119.43,13.1,6.9,130,6,,,,1004.6,,TRUE,TRUE,,,,,,,,,,,,,,,,-1.3,,,,,,,,,,,METAR,284.0
CWYL 311900Z AUTO 26008KT 03/M01 RMK AO1 SOG 04 8011 SLP030 T00251006,CWYL,2022-10-31T19:00:00Z,51.45,-116.33,2.5,-0.6,260,8,,,,1003.0,,TRUE,TRUE,,,,,,,,,,,,,,,,,,,,,,,,,,,METAR,1602.0
CWYJ 311900Z AUTO 24003KT 11/06 RMK AO1 SLP099 T01060064 53025,CWYJ,2022-10-31T19:00:00Z,48.45,-123.3,10.6,6.4,240,3,,,,1009.9,,TRUE,TRUE,,,,,,,,,,,,,,,,2.5,,,,,,,,,,,METAR,59.0
CWXL 311900Z AUTO 26003KT 10/02 RMK AO1 SLP050 T01000015 58004,CWXL,2022-10-31T19:00:00Z,49.73,-111.45,10.0,1.5,260,3,,,,1005.0,,TRUE,TRUE,,,,,,,,,,,,,,,,-0.4,,,,,,,,,,,METAR,815.0
CWXI 311900Z AUTO 25015G20KT 10/07 RMK AO1 PK WND 23022/1829 SLP042 T01010067 53029,CWXI,2022-10-31T19:00:00Z,51.02,-57.1,10.1,6.7,250,15,20,,,1004.2,,TRUE,TRUE,,,,,,,,,,,,,,,,2.9,,,,,,,,,,,METAR,15.0
CWXC 311900Z AUTO 19003KT 14/04 RMK AO1 SLP127 T01380042 56018,CWXC,2022-10-31T19:00:00Z,48.88,-71.03,13.8,4.2,190,3,,,,1012.7,,TRUE,TRUE,,,,,,,,,,,,,,,,-1.8,,,,,,,,,,,METAR,306.0
CWXA 311900Z AUTO 00036KT 03/M01 RMK AO1 SLP067 T00281011 58012,CWXA,2022-10-31T19:00:00Z,51.07,-115.07,2.8,-1.1,0,36,,,,1006.7,,TRUE,TRUE,,,,,,,,,,,,,,,,-1.2,,,,,,,,,,,METAR,1303.0
CWWZ 311900Z AUTO 22001KT 11/10 RMK AO1 SLP108 T01080099 58020,CWWZ,2022-10-31T19:00:00Z,43.25,-79.22,10.8,9.9,220,1,,,,1010.8,,TRUE,TRUE,,,,,,,,,,,,,,,,-2.0,,,,,,,,,,,METAR,75.0
CWWS 311900Z AUTO 28012G19KT 09/01 RMK AO1 PK WND 28019/1850 SLP988 T00860014 51018,CWWS,2022-10-31T19:00:00Z,52.82,-97.62,8.6,1.4,280,12,19,,,998.8,,TRUE,TRUE,,,,,,,,,,,,,,,,1.8,,,,,,,,,,,METAR,220.0
CWWL 311900Z AUTO 22012KT 06/02 RMK AO1 SLP043 T00580024 51001,CWWL,2022-10-31T19:00:00Z,53.5,-130.63,5.8,2.4,220,12,,,,1004.3,,TRUE,TRUE,,,,,,,,,,,,,,,,0.1,,,,,,,,,,,METAR,8.0
CWWK 311900Z AUTO 22003KT 13/08 RMK AO1 SLP089 T01270084 53021,CWWK,2022-10-31T19:00:00Z,49.02,-122.78,12.7,8.4,220,3,,,,1008.9,,TRUE,TRUE,,,,,,,,,,,,,,,,2.1,,,,,,,,,,,METAR,10.0
CWWF 311900Z AUTO 31004KT 10/M00 RMK AO1 SLP066 T01011001 50001,CWWF,2022-10-31T19:00:00Z,49.7,-103.8,10.1,-0.1,310,4,,,,1006.6,,TRUE,TRUE,,,,,,,,,,,,,,,,0.1,,,,,,,,,,,METAR,583.0
CWWE 311900Z AUTO 20014KT 15/12 RMK AO1 PK WND 20017/1857 SLP165 T01530122 56014,CWWE,2022-10-31T19:00:00Z,43.98,-64.67,15.3,12.2,200,14,,,,1016.5,,TRUE,TRUE,,,,,,,,,,,,,,,,-1.4,,,,,,,,,,,METAR,4.0
CWWB 311900Z AUTO 00000KT 07/07 RMK AO1 SLP114 T00740071 58021,CWWB,2022-10-31T19:00:00Z,43.3,-79.78,7.4,7.1,0,0,,,,1011.4,,TRUE,TRUE,,,,,,,,,,,,,,,,-2.1,,,,,,,,,,,METAR,77.0
CWWA 311900Z AUTO 28002KT 11/09 RMK AO1 SLP076 T01110088 53013,CWWA,2022-10-31T19:00:00Z,49.35,-123.18,11.1,8.8,280,2,,,,1007.6,,TRUE,TRUE,,,,,,,,,,,,,,,,1.3,,,,,,,,,,,METAR,172.0
CWVU 311900Z AUTO 16010KT 14/09 RMK AO1 SLP164 T01430093 56013,CWVU,2022-10-31T19:00:00Z,44.28,-66.33,14.3,9.3,160,10,,,,1016.4,,TRUE,TRUE,,,,,,,,,,,,,,,,-1.3,,,,,,,,,,,METAR,4.0
CWVT 311900Z AUTO 30006KT 02/M04 RMK AO1 SLP054 T00231043 51021,CWVT,2022-10-31T19:00:00Z,55.83,-108.42,2.3,-4.3,300,6,,,,1005.4,,TRUE,TRUE,,,,,,,,,,,,,,,,2.1,,,,,,,,,,,METAR,431.0
CWVQ 311900Z AUTO 33003KT 14/03 RMK AO1 SLP134 T01440034 55013,CWVQ,2022-10-31T19:00:00Z,45.42,-73.92,14.4,3.4,330,3,,,,1013.4,,TRUE,TRUE,,,,,,,,,,,,,,,,-1.3,,,,,,,,,,,METAR,38.0
CWVP 311900Z AUTO 16006KT 08/02 RMK AO1 SLP034 T00830018 57010,CWVP,2022-10-31T19:00:00Z,49.63,-109.52,8.3,1.8,160,6,,,,1003.4,,TRUE,TRUE,,,,,,,,,,,,,,,,-1.0,,,,,,,,,,,METAR,1269.0
CWVN 311900Z AUTO 22009KT 14/02 RMK AO1 SLP046 T01390017 58012,CWVN,2022-10-31T19:00:00Z,49.07,-107.58,13.9,1.7,220,9,,,,1004.6,,TRUE,TRUE,,,,,,,,,,,,,,,,-1.2,,,,,,,,,,,METAR,792.0
CWVI 311900Z AUTO 28007KT 05/M08 RMK AO1 SLP057 T00541081 58001,CWVI,2022-10-31T19:00:00Z,53.52,-112.1,5.4,-8.1,280,7,,,,1005.7,,TRUE,TRUE,,,,,,,,,,,,,,,,-0.1,,,,,,,,,,,METAR,640.0
CWVH 311900Z AUTO 36007KT ////SM FEW013 OVC020 M14/M15 A3001,CWVH,2022-10-31T19:00:00Z,68.9,-133.93,-14.0,-15.0,360,7,,,30.008858,,,TRUE,,,,,,,,FEW,1300,OVC,2000,,,,,,,,,,,,,,,,,SPECI,246.0
CWVF 311900Z AUTO 30009KT 11/08 RMK AO1 T01060083,CWVF,2022-10-31T19:00:00Z,49.1,-123.3,10.6,8.3,300,9,,,,,,TRUE,TRUE,,,,,,,,,,,,,,,,,,,,,,,,,,,METAR,13.0
CWUX 311900Z AUTO 03003KT 12/03 RMK AO1 SLP135 T01150027 55012,CWUX,2022-10-31T19:00:00Z,48.3,-70.93,11.5,2.7,30,3,,,,1013.5,,TRUE,TRUE,,,,,,,,,,,,,,,,-1.2,,,,,,,,,,,METAR,150.0
CWUW 311900Z AUTO 26010KT ////SM OVC039 M20/M22 A2946,CWUW,2022-10-31T19:00:00Z,68.62,-71.12,-20.0,-22.0,260,10,,,29.459646,,,TRUE,,,,,,,,OVC,3900,,,,,,,,,,,,,,,,,,,SPECI,173.0
CWUS 311900Z AUTO 13012G20KT 12/06 RMK AO1 PK WND 16020/1821 SLP037 T01210059 58022,CWUS,2022-10-31T19:00:00Z,49.57,-119.65,12.1,5.9,130,12,20,,,1003.7,,TRUE,TRUE,,,,,,,,,,,,,,,,-2.2,,,,,,,,,,,METAR,455.0
CWTY 311900Z AUTO 25002KT 14/01 RMK AO1 SLP137 T01360009 56020,CWTY,2022-10-31T19:00:00Z,46.35,-72.52,13.6,0.9,250,2,,,,1013.7,,TRUE,TRUE,,,,,,,,,,,,,,,,-2.0,,,,,,,,,,,METAR,8.0
CWTT 311900Z AUTO 00000KT 15/M05 RMK AO1 T01511052,CWTT,2022-10-31T19:00:00Z,45.27,-72.17,15.1,-5.2,0,0,,,,,,TRUE,TRUE,,,,,,,,,,,,,,,,,,,,,,,,,,,METAR,210.0
CWTN 311900Z AUTO 25004KT 16/02 RMK AO1 SLP129 T01560024 57019,CWTN,2022-10-31T19:00:00Z,47.07,-70.78,15.6,2.4,250,4,,,,1012.9,,TRUE,TRUE,,,,,,,,,,,,,,,,-1.9,,,,,,,,,,,METAR,5.0
CWTG 311900Z AUTO 26012KT 07/04 RMK AO1 SLP134 T00690040 58002,CWTG,2022-10-31T19:00:00Z,49.32,-67.37,6.9,4.0,260,12,,,,1013.4,,TRUE,TRUE,,,,,,,,,,,,,,,,-0.2,,,,,,,,,,,METAR,6.0
CWTA 311900Z AUTO 17002KT 15/02 RMK AO1 SLP131 T01520022 56016,CWTA,2022-10-31T19:00:00Z,45.5,-73.58,15.2,2.2,170,2,,,,1013.1,,TRUE,TRUE,,,,,,,,,,,,,,,,-1.6,,,,,,,,,,,METAR,71.0
CWSW 311900Z 17009G16KT 12SM -RA FEW008 BKN030 OVC043 06/04 A2966 RMK SF1ST5SC2 SLP062 DENSITY ALT 4000FT,CWSW,2022-10-31T19:00:00Z,49.83,-114.87,6.0,4.0,170,9,16,12.0,29.660433,1006.2,,,,,,,,,-RA,FEW,800,BKN,3000,OVC,4300,,,MVFR,,,,,,,,,,,,SPECI,1173.0
CWST 311900Z AUTO 31001KT 13/03 RMK AO1 SLP126 T01250031 57018,CWST,2022-10-31T19:00:00Z,47.35,-70.02,12.5,3.1,310,1,,,,1012.6,,TRUE,TRUE,,,,,,,,,,,,,,,,-1.8,,,,,,,,,,,METAR,31.0
CWSS 311900Z AUTO 17003KT 20/04 RMK AO1 SLP144 T01960043 56020,CWSS,2022-10-31T19:00:00Z,45.2,-67.25,19.6,4.3,170,3,,,,1014.4,,TRUE,TRUE,,,,,,,,,,,,,,,,-2.0,,,,,,,,,,,METAR,27.0
CWSR 311900Z AUTO 28011KT 06/M07 RMK AO1 SLP049 T00611074 53005,CWSR,2022-10-31T19:00:00Z,53.37,-107.55,6.1,-7.4,280,11,,,,1004.9,,TRUE,TRUE,,,,,,,,,,,,,,,,0.5,,,,,,,,,,,METAR,589.0
CWSP 311900Z AUTO 26024KT 09/06 RMK AO1 PK WND 27029/1851 SLP097 T00900059 53016,CWSP,2022-10-31T19:00:00Z,48.38,-123.92,9.0,5.9,260,24,,,,1009.7,,TRUE,TRUE,,,,,,,,,,,,,,,,1.6,,,,,,,,,,,METAR,2.0
CWSL 311900Z AUTO 34002KT 11/05 RMK AO1 SLP033 T01070053 58020,CWSL,2022-10-31T19:00:00Z,50.7,-119.28,10.7,5.3,340,2,,,,1003.3,,TRUE,TRUE,,,,,,,,,,,,,,,,-2.0,,,,,,,,,,,METAR,353.0
CWSK 311900Z AUTO 19005KT 11/09 RMK AO1 2PAST HR 3011 SLP059 P0001 T01130088 50002,CWSK,2022-10-31T19:00:00Z,49.78,-123.17,11.3,8.8,190,5,,,,1005.9,,TRUE,TRUE,,,,,,,,,,,,,,,,0.2,,,,,0.01,,,,,,METAR,59.0
CWSG 311900Z AUTO 08/04 RMK AO1 SLP137 T00830038 58002,CWSG,2022-10-31T19:00:00Z,49.12,-66.65,8.3,3.8,,,,,,1013.7,,TRUE,TRUE,,,,,,,,,,,,,,,,-0.2,,,,,,,,,,,METAR,5.0
CWSF 311900Z AUTO 28011KT 10/03 RMK AO1 SLP133 T00960029 51006,CWSF,2022-10-31T19:00:00Z,49.25,-65.32,9.6,2.9,280,11,,,,1013.3,,TRUE,TRUE,,,,,,,,,,,,,,,,0.6,,,,,,,,,,,METAR,15.0
CWSD 311900Z AUTO 23006KT 16/03 RMK AO1 SLP146 T01550029 56006,CWSD,2022-10-31T19:00:00Z,46.43,-63.85,15.5,2.9,230,6,,,,1014.6,,TRUE,TRUE,,,,,,,,,,,,,,,,-0.6,,,,,,,,,,,METAR,12.0
CWSA 311900Z AUTO 24010KT 9SM FEW240 15/12 A3003 RMK SLP172,CWSA,2022-10-31T19:00:00Z,43.93,-60.0,15.0,12.0,240,10,,9.0,30.029528,1017.2,,TRUE,,,,,,,,FEW,24000,,,,,,,VFR,,,,,,,,,,,,SPECI,4.0
CWRZ 311900Z AUTO 22004KT 10/05 RMK AO1 SLP128 T01020052 53010,CWRZ,2022-10-31T19:00:00Z,48.42,-64.32,10.2,5.2,220,4,,,,1012.8,,TRUE,TRUE,,,,,,,,,,,,,,,,1.0,,,,,,,,,,,METAR,16.0
CWRY 311900Z AUTO 34007KT 09/03 RMK AO1 SLP052 T00910028 51003,CWRY,2022-10-31T19:00:00Z,49.12,-112.05,9.1,2.8,340,7,,,,1005.2,,TRUE,TRUE,,,,,,,,,,,,,,,,0.3,,,,,,,,,,,METAR,1048.0
CWRX 311900Z AUTO ///// ////SM OVC021 M13/M16 A2958,CWRX,2022-10-31T19:00:00Z,69.07,-79.07,-13.0,-16.0,,,,,29.58071,,,TRUE,,,,,,,,OVC,2100,,,,,,,,,,,,,,,,,,,SPECI,39.0
CWRU 311900Z AUTO 01006KT 06/ RMK AO1 SLP099 T0059 51015,CWRU,2022-10-31T19:00:00Z,50.12,-127.93,5.9,,10,6,,,,1009.9,,TRUE,TRUE,,,,,,,,,,,,,,,,1.5,,,,,,,,,,,METAR,76.0
CWRT 311900Z AUTO 15003KT 05/04 RMK AO1 2PAST HR 8004 SLP060 P0001 T00510041 50002,CWRT,2022-10-31T19:00:00Z,49.62,-114.47,5.1,4.1,150,3,,,,1006.0,,TRUE,TRUE,,,,,,,,,,,,,,,,0.2,,,,,0.01,,,,,,METAR,1311.0
CWRO 311900Z AUTO 20009KT 04/ RMK AO1 SLP032 T0040 51004,CWRO,2022-10-31T19:00:00Z,54.17,-131.67,4.0,,200,9,,,,1003.2,,TRUE,TRUE,,,,,,,,,,,,,,,,0.4,,,,,,,,,,,METAR,7.0
CWRN 311900Z AUTO 22011KT 15/08 RMK AO1 SLP148 T01480082 55007,CWRN,2022-10-31T19:00:00Z,45.35,-60.98,14.8,8.2,220,11,,,,1014.8,,TRUE,TRUE,,,,,,,,,,,,,,,,-0.7,,,,,,,,,,,METAR,8.0
CWRM 311900Z AUTO 17013KT 01/M01 RMK AO1 SOG 03 8022 PK WND 17017/1851 SLP031 T00131007,CWRM,2022-10-31T19:00:00Z,52.42,-114.92,1.3,-0.7,170,13,,,,1003.1,,TRUE,TRUE,,,,,,,,,,,,,,,,,,,,,,,,,,,METAR,986.0
CWRK 311900Z AUTO 07001KT 11/08 RMK AO1 SLP119 T01100077 58023,CWRK,2022-10-31T19:00:00Z,45.07,-77.87,11.0,7.7,70,1,,,,1011.9,,TRUE,TRUE,,,,,,,,,,,,,,,,-2.3,,,,,,,,,,,METAR,328.0
CWRJ 311900Z AUTO 29006KT 08/M08 RMK AO1 SLP060 T00821077 58001,CWRJ,2022-10-31T19:00:00Z,51.57,-107.92,8.2,-7.7,290,6,,,,1006.0,,TRUE,TRUE,,,,,,,,,,,,,,,,-0.1,,,,,,,,,,,METAR,586.0
CWRH 311900Z AUTO 29042G50KT ////SM ////// ///// A2958,CWRH,2022-10-31T19:00:00Z,61.58,-64.65,,,290,42,50,,29.58071,,,TRUE,,,,,,,,,,,,,,,,,,,,,,,,,,,,SPECI,343.0
CWRA 311900Z AUTO 00022KT 12/09 RMK AO1 SLP125 T01200093 56015,CWRA,2022-10-31T19:00:00Z,46.65,-53.07,12.0,9.3,0,22,,,,1012.5,,TRUE,TRUE,,,,,,,,,,,,,,,,-1.5,,,,,,,,,,,METAR,4.0
CWQV 311900Z AUTO 10002KT 09/04 RMK AO1 T00880042,CWQV,2022-10-31T19:00:00Z,48.27,-70.12,8.8,4.2,100,2,,,,,,TRUE,TRUE,,,,,,,,,,,,,,,,,,,,,,,,,,,METAR,4.0
CWQS 311900Z AUTO 19003KT 04/02 RMK AO1 PK WND 27022/1814 SLP037 T00390019 53006,CWQS,2022-10-31T19:00:00Z,53.32,-132.77,3.9,1.9,190,3,,,,1003.7,,TRUE,TRUE,,,,,,,,,,,,,,,,0.6,,,,,,,,,,,METAR,10.0
CWQR 311900Z AUTO 26011KT 08/04 RMK AO1 T00770043,CWQR,2022-10-31T19:00:00Z,50.22,-64.22,7.7,4.3,260,11,,,,,,TRUE,TRUE,,,,,,,,,,,,,,,,,,,,,,,,,,,METAR,9.0
CWQP 311900Z AUTO 00000KT 12/10 RMK AO1 6PAST HR 8022 SLP126 P0002 T01180101 50006,CWQP,2022-10-31T19:00:00Z,43.83,-77.15,11.8,10.1,0,0,,,,1012.6,,TRUE,TRUE,,,,,,,,,,,,,,,,0.6,,,,,0.02,,,,,,METAR,77.0
CWQO 311900Z AUTO 22006KT 08/03 RMK AO1 T00770032,CWQO,2022-10-31T19:00:00Z,48.42,-68.9,7.7,3.2,220,6,,,,,,TRUE,TRUE,,,,,,,,,,,,,,,,,,,,,,,,,,,METAR,7.0
CWQK 311900Z AUTO 26021KT 10/ RMK AO1 PK WND 26028/1821 SLP092 T0102 53022,CWQK,2022-10-31T19:00:00Z,48.3,-123.53,10.2,,260,21,,,,1009.2,,TRUE,TRUE,,,,,,,,,,,,,,,,2.2,,,,,,,,,,,METAR,5.0
CWQH 311900Z AUTO 04004KT 14/02 RMK AO1 SLP135 T01440015 56024,CWQH,2022-10-31T19:00:00Z,45.37,-71.82,14.4,1.5,40,4,,,,1013.5,,TRUE,TRUE,,,,,,,,,,,,,,,,-2.4,,,,,,,,,,,METAR,181.0
CWPZ 311900Z AUTO 30004KT 01/M04 RMK AO1 SLP038 T00111038 52005,CWPZ,2022-10-31T19:00:00Z,54.38,-125.97,1.1,-3.8,300,4,,,,1003.8,,TRUE,TRUE,,,,,,,,,,,,,,,,0.5,,,,,,,,,,,METAR,715.0
CWPR 311900Z AUTO 13001KT 07/05 RMK AO1 SOG 01 6019 SLP040 T00720047,CWPR,2022-10-31T19:00:00Z,49.47,-120.52,7.2,4.7,130,1,,,,1004.0,,TRUE,TRUE,,,,,,,,,,,,,,,,,,,,,,,,,,,METAR,703.0
CWPO 311900Z AUTO 28011KT 12/02 RMK AO1 SLP059 T01240020 58002,CWPO,2022-10-31T19:00:00Z,49.2,-98.9,12.4,2.0,280,11,,,,1005.9,,TRUE,TRUE,,,,,,,,,,,,,,,,-0.2,,,,,,,,,,,METAR,471.0
CWPK 311900Z AUTO 28001KT 11/04 RMK AO1 SLP127 T01110043 58015,CWPK,2022-10-31T19:00:00Z,47.92,-74.62,11.1,4.3,280,1,,,,1012.7,,TRUE,TRUE,,,,,,,,,,,,,,,,-1.5,,,,,,,,,,,METAR,443.0
CWPD 311900Z AUTO 19003KT 12/01 RMK AO1 SLP117 T01220005 56012,CWPD,2022-10-31T19:00:00Z,47.57,-71.22,12.2,0.5,190,3,,,,1011.7,,TRUE,TRUE,,,,,,,,,,,,,,,,-1.2,,,,,,,,,,,METAR,795.0
CWPC 311900Z AUTO 16003KT 13/12 RMK AO1 SLP123 T01270115 56018,CWPC,2022-10-31T19:00:00Z,42.87,-79.25,12.7,11.5,160,3,,,,1012.3,,TRUE,TRUE,,,,,,,,,,,,,,,,-1.8,,,,,,,,,,,METAR,174.0
CWOY 311900Z AUTO 27005KT 06/M05 RMK AO1 SLP056 T00641053 50005,CWOY,2022-10-31T19:00:00Z,51.77,-104.2,6.4,-5.3,270,5,,,,1005.6,,TRUE,TRUE,,,,,,,,,,,,,,,,0.5,,,,,,,,,,,METAR,557.0
CWOE 311900Z AUTO 24015KT 14/02 RMK AO1 PK WND 25024/1816 SLP039 T01430023 57007,CWOE,2022-10-31T19:00:00Z,49.12,-110.47,14.3,2.3,240,15,,,,1003.9,,TRUE,TRUE,,,,,,,,,,,,,,,,-0.7,,,,,,,,,,,METAR,931.0
CWOD 311900Z AUTO 07003KT 11/05 RMK AO1 SLP127 T01070048 56020,CWOD,2022-10-31T19:00:00Z,48.85,-72.55,10.7,4.8,70,3,,,,1012.7,,TRUE,TRUE,,,,,,,,,,,,,,,,-2.0,,,,,,,,,,,METAR,150.0
CWOC 311900Z AUTO 27005KT 14/03 RMK AO1 SLP129 T01440034 51001,CWOC,2022-10-31T19:00:00Z,48.02,-65.32,14.4,3.4,270,5,,,,1012.9,,TRUE,TRUE,,,,,,,,,,,,,,,,0.1,,,,,,,,,,,METAR,42.0
CWOB 311900Z AUTO 36017KT ////SM NCD M08/M09 A2952,CWOB,2022-10-31T19:00:00Z,63.33,-64.15,-8.0,-9.0,360,17,,,29.518702,,,TRUE,,,,,,,,CLR,,,,,,,,,,,,,,,,,,,,SPECI,369.0
CWNZ 311900Z AUTO 19006KT 13/03 RMK AO1 SLP065 T01300031 58025,CWNZ,2022-10-31T19:00:00Z,49.75,-84.17,13.0,3.1,190,6,,,,1006.5,,TRUE,TRUE,,,,,,,,,,,,,,,,-2.5,,,,,,,,,,,METAR,261.0
CWNQ 311900Z AUTO 30001KT 12/05 RMK AO1 SLP133 T01200047 56019,CWNQ,2022-10-31T19:00:00Z,46.22,-72.65,12.0,4.7,300,1,,,,1013.3,,TRUE,TRUE,,,,,,,,,,,,,,,,-1.9,,,,,,,,,,,METAR,9.0
CWNP 311900Z AUTO 16003KT 07/07 RMK AO1 6PAST HR 8010 SLP056 P0002 T00730073 50006,CWNP,2022-10-31T19:00:00Z,50.27,-117.82,7.3,7.3,160,3,,,,1005.6,,TRUE,TRUE,,,,,,,,,,,,,,,,0.6,,,,,0.02,,,,,,METAR,517.0
CWNM 311900Z AUTO 25006KT 08/08 RMK AO1 2PAST HR 6010 SLP069 P0001 T00750075 50002,CWNM,2022-10-31T19:00:00Z,49.5,-117.3,7.5,7.5,250,6,,,,1006.9,,TRUE,TRUE,,,,,,,,,,,,,,,,0.2,,,,,0.01,,,,,,METAR,533.0
CWNK 311900Z AUTO 28010G16KT 14/02 RMK AO1 PK WND 28018/1845 SLP038 T01410015 51003,CWNK,2022-10-31T19:00:00Z,49.5,-98.03,14.1,1.5,280,10,16,,,1003.8,,TRUE,TRUE,,,,,,,,,,,,,,,,0.3,,,,,,,,,,,METAR,271.0
CWNH 311900Z AUTO 29002KT 12/01 RMK AO1 SLP131 T01180013 56019,CWNH,2022-10-31T19:00:00Z,47.8,-69.53,11.8,1.3,290,2,,,,1013.1,,TRUE,TRUE,,,,,,,,,,,,,,,,-1.9,,,,,,,,,,,METAR,147.0
CWNE 311900Z AUTO 22011KT 12/07 RMK AO1 SLP140 T01150070 55000,CWNE,2022-10-31T19:00:00Z,47.07,-64.0,11.5,7.0,220,11,,,,1014.0,,TRUE,TRUE,,,,,,,,,,,,,,,,0.0,,,,,,,,,,,METAR,5.0
CWND 311900Z AUTO 06007KT M13/M16 RMK AO1 SLP175 T11341161 53016,CWND,2022-10-31T19:00:00Z,69.63,-135.43,-13.4,-16.1,60,7,,,,1017.5,,TRUE,TRUE,,,,,,,,,,,,,,,,1.6,,,,,,,,,,,METAR,14.0
CWNC 311900Z AUTO 12006KT 12/08 RMK AO1 SLP116 T01210075 56026,CWNC,2022-10-31T19:00:00Z,43.95,-78.17,12.1,7.5,120,6,,,,1011.6,,TRUE,TRUE,,,,,,,,,,,,,,,,-2.6,,,,,,,,,,,METAR,71.0
CWMZ 311900Z AUTO 13003KT 12/ RMK AO1 SLP108 T0119 56018,CWMZ,2022-10-31T19:00:00Z,45.02,-80.37,11.9,,130,3,,,,1010.8,,TRUE,TRUE,,,,,,,,,,,,,,,,-1.8,,,,,,,,,,,METAR,175.0
CWMT 311900Z AUTO 08003KT M09/M11 RMK AO1 1PAST HR SOG 08 3012 SLP083 P0000 T10901109 50001,CWMT,2022-10-31T19:00:00Z,63.13,-117.25,-9.0,-10.9,80,3,,,,1008.3,,TRUE,TRUE,,,,,,,,,,,,,,,,0.1,,,,,0.005,,,,,,METAR,274.0
CWMQ 311900Z AUTO 08004KT 09/03 RMK AO1 SLP049 T00850031 58008,CWMQ,2022-10-31T19:00:00Z,49.9,-109.47,8.5,3.1,80,4,,,,1004.9,,TRUE,TRUE,,,,,,,,,,,,,,,,-0.8,,,,,,,,,,,METAR,767.0
CWMM 311900Z AUTO 26004KT 12/09 RMK AO1 SLP082 T01180089 53015,CWMM,2022-10-31T19:00:00Z,49.22,-122.68,11.8,8.9,260,4,,,,1008.2,,TRUE,TRUE,,,,,,,,,,,,,,,,1.5,,,,,,,,,,,METAR,2.0
CWMJ 311900Z AUTO 14001KT 11/03 RMK AO1 SLP127 T01130029 58016,CWMJ,2022-10-31T19:00:00Z,46.27,-76.0,11.3,2.9,140,1,,,,1012.7,,TRUE,TRUE,,,,,,,,,,,,,,,,-1.6,,,,,,,,,,,METAR,198.0
CWME 311900Z AUTO 21002KT 04/02 RMK AO1 6PAST HR 3004 SLP080 P0002 T00370015 50006,CWME,2022-10-31T19:00:00Z,52.18,-127.47,3.7,1.5,210,2,,,,1008.0,,TRUE,TRUE,,,,,,,,,,,,,,,,0.6,,,,,0.02,,,,,,METAR,23.0
CWLY 311900Z AUTO 19018G29KT 9SM SCT071 BKN085 10/05 A2958 RMK SLP022,CWLY,2022-10-31T19:00:00Z,50.22,-121.58,10.0,5.0,190,18,29,9.0,29.58071,1002.2,,TRUE,,,,,,,,SCT,7100,BKN,8500,,,,,VFR,,,,,,,,,,,,SPECI,228.0
CWLX 311900Z AUTO ///// ////SM ////// M13/M15 A2957,CWLX,2022-10-31T19:00:00Z,68.9,-75.15,-13.0,-15.0,,,,,29.568897,,,TRUE,,,,,,,,,,,,,,,,,,,,,,,,,,,,SPECI,129.0
CWLS 311900Z AUTO 19004KT 12/11 RMK AO1 SLP103 T01170110 56018,CWLS,2022-10-31T19:00:00Z,43.97,-80.75,11.7,11.0,190,4,,,,1010.3,,TRUE,TRUE,,,,,,,,,,,,,,,,-1.8,,,,,,,,,,,METAR,413.0
CWLM 311900Z AUTO 25014G19KT 10/06 RMK AO1 PK WND 26024/1821 SLP096 T01010061 53024,CWLM,2022-10-31T19:00:00Z,48.42,-123.32,10.1,6.1,250,14,19,,,1009.6,,TRUE,TRUE,,,,,,,,,,,,,,,,2.4,,,,,,,,,,,METAR,62.0
CWLE 311900Z AUTO 22004KT 06/M02 RMK AO1 SLP068 T00621024 58004,CWLE,2022-10-31T19:00:00Z,50.95,-107.15,6.2,-2.4,220,4,,,,1006.8,,TRUE,TRUE,,,,,,,,,,,,,,,,-0.4,,,,,,,,,,,METAR,666.0
CWLC 311900Z AUTO 13015KT 04/02 RMK AO1 PK WND 13024/1822 T00380020,CWLC,2022-10-31T19:00:00Z,54.3,-130.62,3.8,2.0,130,15,,,,,,TRUE,TRUE,,,,,,,,,,,,,,,,,,,,,,,,,,,METAR,27.0
CWLB 311900Z AUTO 28007KT 05/ RMK AO1 SLP048 T0053 50001,CWLB,2022-10-31T19:00:00Z,54.77,-112.02,5.3,,280,7,,,,1004.8,,TRUE,TRUE,,,,,,,,,,,,,,,,0.1,,,,,,,,,,,METAR,561.0
CWKX 311900Z AUTO 24001KT M04/M06 RMK AO1 SOG 02 3013 SLP030 T10401059,CWKX,2022-10-31T19:00:00Z,58.43,-130.02,-4.0,-5.9,240,1,,,,1003.0,,TRUE,TRUE,,,,,,,,,,,,,,,,,,,,,,,,,,,METAR,807.0
CWKP 311900Z AUTO 05013KT ////SM OVC004 M15/M17 A2988,CWKP,2022-10-31T19:00:00Z,69.67,-121.67,-15.0,-17.0,50,13,,,29.878937,,,TRUE,,,,,,,,OVC,400,,,,,,,,,,,,,,,,,,,METAR,322.0
CWKO 311900Z AUTO 22010KT 12/M00 RMK AO1 SLP059 T01241002 58013,CWKO,2022-10-31T19:00:00Z,49.17,-105.97,12.4,-0.2,220,10,,,,1005.9,,TRUE,TRUE,,,,,,,,,,,,,,,,-1.3,,,,,,,,,,,METAR,914.0
CWKM 311900Z AUTO 12010KT ////SM FEW018 BKN026 M15/M19 A3013,CWKM,2022-10-31T19:00:00Z,69.6,-140.17,-15.0,-19.0,120,10,,,30.129921,,,TRUE,,,,,,,,FEW,1800,BKN,2600,,,,,,,,,,,,,,,,,SPECI,8.0
CWKK 311900Z AUTO 19004KT 13/ RMK AO1 SLP048 T0125 58030,CWKK,2022-10-31T19:00:00Z,49.72,-88.33,12.5,,190,4,,,,1004.8,,TRUE,TRUE,,,,,,,,,,,,,,,,-3.0,,,,,,,,,,,METAR,259.0
CWKH 311900Z AUTO 08/05 RMK AO1 SLP083 T00780049 53020,CWKH,2022-10-31T19:00:00Z,48.57,-123.55,7.8,4.9,,,,,,1008.3,,TRUE,TRUE,,,,,,,,,,,,,,,,2.0,,,,,,,,,,,METAR,327.0
CWKD 311900Z AUTO 06/01 RMK AO1 SLP134 T00640011 56015,CWKD,2022-10-31T19:00:00Z,50.73,-71.02,6.4,1.1,,,,,,1013.4,,TRUE,TRUE,,,,,,,,,,,,,,,,-1.5,,,,,,,,,,,METAR,496.0
CWJX 311900Z AUTO 06006KT 07/M04 RMK AO1 SLP061 T00671035 56007,CWJX,2022-10-31T19:00:00Z,50.88,-109.5,6.7,-3.5,60,6,,,,1006.1,,TRUE,TRUE,,,,,,,,,,,,,,,,-0.7,,,,,,,,,,,METAR,671.0
CWJW 311900Z AUTO 27001KT 02/M00 RMK AO1 SLP028 T00211002 57019,CWJW,2022-10-31T19:00:00Z,52.93,-118.03,2.1,-0.2,270,1,,,,1002.8,,TRUE,TRUE,,,,,,,,,,,,,,,,-1.9,,,,,,,,,,,METAR,1022.0
CWJV 311900Z AUTO 11007KT 10/06 RMK AO1 SLP036 T00970056 58015,CWJV,2022-10-31T19:00:00Z,50.22,-119.18,9.7,5.6,110,7,,,,1003.6,,TRUE,TRUE,,,,,,,,,,,,,,,,-1.5,,,,,,,,,,,METAR,487.0
CWJU 311900Z AUTO 21010G17KT 04/01 RMK AO1 PK WND 19017/1856 SLP022 T00390011 51005,CWJU,2022-10-31T19:00:00Z,54.25,-133.07,3.9,1.1,210,10,17,,,1002.2,,TRUE,TRUE,,,,,,,,,,,,,,,,0.5,,,,,,,,,,,METAR,47.0
CWJT 311900Z AUTO 26001KT 14/07 RMK AO1 SLP133 T01370070 56014,CWJT,2022-10-31T19:00:00Z,46.07,-74.57,13.7,7.0,260,1,,,,1013.3,,TRUE,TRUE,,,,,,,,,,,,,,,,-1.4,,,,,,,,,,,METAR,236.0
CWJR 311900Z AUTO 09002KT 09/08 RMK AO1 3PAST HR 7011 SLP070 P0001 T00860075 50003,CWJR,2022-10-31T19:00:00Z,49.03,-116.5,8.6,7.5,90,2,,,,1007.0,,TRUE,TRUE,,,,,,,,,,,,,,,,0.3,,,,,0.01,,,,,,METAR,642.0
CWJO 311900Z AUTO 10003KT 13/03 RMK AO1 SLP127 T01310027 56018,CWJO,2022-10-31T19:00:00Z,48.43,-71.15,13.1,2.7,100,3,,,,1012.7,,TRUE,TRUE,,,,,,,,,,,,,,,,-1.8,,,,,,,,,,,METAR,113.0
CWJI 311900Z AUTO 05004KT 08/01 RMK AO1 SLP065 T00760012 58007,CWJI,2022-10-31T19:00:00Z,49.72,-105.93,7.6,1.2,50,4,,,,1006.5,,TRUE,TRUE,,,,,,,,,,,,,,,,-0.7,,,,,,,,,,,METAR,724.0
CWJH 311900Z AUTO 31008G17KT 02/M02 RMK AO1 PK WND 27019/1821 SLP983 T00191020 53026,CWJH,2022-10-31T19:00:00Z,56.32,-103.27,1.9,-2.0,310,8,17,,,998.3,,TRUE,TRUE,,,,,,,,,,,,,,,,2.6,,,,,,,,,,,METAR,345.0
CWJD 311900Z AUTO 26008G16KT 09/M00 RMK AO1 PK WND 27020/1831 SLP993 T00871002 51021,CWJD,2022-10-31T19:00:00Z,53.18,-99.27,8.7,-0.2,260,8,16,,,999.3,,TRUE,TRUE,,,,,,,,,,,,,,,,2.1,,,,,,,,,,,METAR,222.0
CWJC 311900Z AUTO 36032G38KT M15/M18 RMK AO1 PK WND 00038/1853 SLP991 T11531178 51031,CWJC,2022-10-31T19:00:00Z,61.13,-100.9,-15.3,-17.8,360,32,38,,,999.1,,TRUE,TRUE,,,,,,,,,,,,,,,,3.1,,,,,,,,,,,METAR,340.0
CWJB 311900Z AUTO 34007KT 14/M00 RMK AO1 T01351001,CWJB,2022-10-31T19:00:00Z,46.78,-71.28,13.5,-0.1,340,7,,,,,,TRUE,TRUE,,,,,,,,,,,,,,,,,,,,,,,,,,,METAR,90.0
CWIZ 311900Z AUTO 20005KT 14/04 RMK AO1 T01390039,CWIZ,2022-10-31T19:00:00Z,45.28,-73.33,13.9,3.9,200,5,,,,,,TRUE,TRUE,,,,,,,,,,,,,,,,,,,,,,,,,,,METAR,45.0
CWIX 311900Z AUTO 03004KT 12/05 RMK AO1 SLP128 T01150047 58014,CWIX,2022-10-31T19:00:00Z,48.6,-71.72,11.5,4.7,30,4,,,,1012.8,,TRUE,TRUE,,,,,,,,,,,,,,,,-1.4,,,,,,,,,,,METAR,109.0
CWIW 311900Z AUTO 30009KT 07/M05 RMK AO1 PK WND 30017/1801 SLP063 T00721051 53004,CWIW,2022-10-31T19:00:00Z,51.67,-105.4,7.2,-5.1,300,9,,,,1006.3,,TRUE,TRUE,,,,,,,,,,,,,,,,0.4,,,,,,,,,,,METAR,524.0
CWIT 311900Z AUTO 09003KT 15/03 RMK AO1 SLP126 T01460026 56020,CWIT,2022-10-31T19:00:00Z,45.17,-73.67,14.6,2.6,90,3,,,,1012.6,,TRUE,TRUE,,,,,,,,,,,,,,,,-2.0,,,,,,,,,,,METAR,53.0
CWIS 311900Z AUTO 22004KT 11/M01 RMK AO1 SLP136 T01121008 56014,CWIS,2022-10-31T19:00:00Z,47.28,-70.63,11.2,-0.8,220,4,,,,1013.6,,TRUE,TRUE,,,,,,,,,,,,,,,,-1.4,,,,,,,,,,,METAR,720.0
CWIP 311900Z AUTO 28002KT 13/M02 RMK AO1 T01331018,CWIP,2022-10-31T19:00:00Z,50.17,-66.43,13.3,-1.8,280,2,,,,,,TRUE,TRUE,,,,,,,,,,,,,,,,,,,,,,,,,,,METAR,27.0
CWIK 311900Z AUTO 30007KT 08/M02 RMK AO1 SLP065 T00801015 53004,CWIK,2022-10-31T19:00:00Z,50.37,-102.58,8.0,-1.5,300,7,,,,1006.5,,TRUE,TRUE,,,,,,,,,,,,,,,,0.4,,,,,,,,,,,METAR,597.0
CWIJ 311900Z AUTO 06002KT M18/M20 RMK AO1 SOG 06 3009 SLP133 T11811195,CWIJ,2022-10-31T19:00:00Z,65.77,-111.23,-18.1,-19.5,60,2,,,,1013.3,,TRUE,TRUE,,,,,,,,,,,,,,,,,,,,,,,,,,,METAR,490.0
CWII 311900Z AUTO 23012KT 08/04 RMK AO1 PK WND 23017/1801 SLP023 T00790035 51014,CWII,2022-10-31T19:00:00Z,50.7,-96.57,7.9,3.5,230,12,,,,1002.3,,TRUE,TRUE,,,,,,,,,,,,,,,,1.4,,,,,,,,,,,METAR,216.0
CWIG 311900Z AUTO 22008KT RMK AO1,CWIG,2022-10-31T19:00:00Z,47.07,-70.53,,,220,8,,,,,,TRUE,TRUE,,,,,,,,,,,,,,,,,,,,,,,,,,,METAR,12.0
CWID 311900Z AUTO 00000KT M06/M08 RMK AO1 SLP069 T10601078 51010,CWID,2022-10-31T19:00:00Z,61.32,-117.6,-6.0,-7.8,0,0,,,,1006.9,,TRUE,TRUE,,,,,,,,,,,,,,,,1.0,,,,,,,,,,,METAR,160.0
CWHV 311900Z AUTO 13002KT 14/M00 RMK AO1 SLP136 T01411002 56018,CWHV,2022-10-31T19:00:00Z,46.2,-70.78,14.1,-0.2,130,2,,,,1013.6,,TRUE,TRUE,,,,,,,,,,,,,,,,-1.8,,,,,,,,,,,METAR,227.0
CWHT 311900Z AUTO 33008G16KT M07/M13 RMK AO1 PK WND 34017/1841 SLP065 T10721129 53024,CWHT,2022-10-31T19:00:00Z,60.77,-137.58,-7.2,-12.9,330,8,16,,,1006.5,,TRUE,TRUE,,,,,,,,,,,,,,,,2.4,,,,,,,,,,,METAR,601.0
CWHQ 311900Z AUTO 25003KT 13/01 RMK AO1 T01310012,CWHQ,2022-10-31T19:00:00Z,46.68,-71.97,13.1,1.2,250,3,,,,,,TRUE,TRUE,,,,,,,,,,,,,,,,,,,,,,,,,,,METAR,56.0
CWHP 311900Z AUTO 33012KT 13/02 RMK AO1 SLP107 T01290023 53019,CWHP,2022-10-31T19:00:00Z,49.08,-61.7,12.9,2.3,330,12,,,,1010.7,,TRUE,TRUE,,,,,,,,,,,,,,,,1.9,,,,,,,,,,,METAR,7.0
CWHO 311900Z AUTO 00031KT 05/M05 RMK AO1 SLP088 T00461049 52031,CWHO,2022-10-31T19:00:00Z,55.45,-60.22,4.6,-4.9,0,31,,,,1008.8,,TRUE,TRUE,,,,,,,,,,,,,,,,3.1,,,,,,,,,,,METAR,16.0
CWHL 311900Z AUTO 10008KT 04/01 RMK AO1 PK WND 06017/1840 SLP039 T00370014 50002,CWHL,2022-10-31T19:00:00Z,54.17,-130.35,3.7,1.4,100,8,,,,1003.9,,TRUE,TRUE,,,,,,,,,,,,,,,,0.2,,,,,,,,,,,METAR,5.0
CWHI 311900Z AUTO 16004KT 06/M07 RMK AO1 T00571068,CWHI,2022-10-31T19:00:00Z,51.7,-113.22,5.7,-6.8,160,4,,,,,,TRUE,TRUE,,,,,,,,,,,,,,,,,,,,,,,,,,,METAR,906.0
CWGY 311900Z AUTO 28006KT 06/M06 RMK AO1 SLP068 T00641063 58005,CWGY,2022-10-31T19:00:00Z,51.67,-110.2,6.4,-6.3,280,6,,,,1006.8,,TRUE,TRUE,,,,,,,,,,,,,,,,-0.5,,,,,,,,,,,METAR,709.0
CWGW 311900Z AUTO 17009KT 06/03 RMK AO1 SLP061 T00600033 58004,CWGW,2022-10-31T19:00:00Z,49.75,-114.9,6.0,3.3,170,9,,,,1006.1,,TRUE,TRUE,,,,,,,,,,,,,,,,-0.4,,,,,,,,,,,METAR,1137.0
CWGT 311900Z AUTO 33022KT 09/04 RMK AO1 PK WND 33025/1850 SLP081 T00900037 51017,CWGT,2022-10-31T19:00:00Z,49.48,-124.43,9.0,3.7,330,22,,,,1008.1,,TRUE,TRUE,,,,,,,,,,,,,,,,1.7,,,,,,,,,,,METAR,5.0
CWGR 311900Z AUTO 27010KT 11/07 RMK AO1 PK WND 27019/1801 SLP139 T01140071 53012,CWGR,2022-10-31T19:00:00Z,47.42,-61.77,11.4,7.1,270,10,,,,1013.9,,TRUE,TRUE,,,,,,,,,,,,,,,,1.2,,,,,,,,,,,METAR,4.0
CWGM 311900Z AUTO 09002KT 03/02 RMK AO1 7PAST HR 0007 SLP056 P0003 T00340022 50007,CWGM,2022-10-31T19:00:00Z,49.13,-113.8,3.4,2.2,90,2,,,,1005.6,,TRUE,TRUE,,,,,,,,,,,,,,,,0.7,,,,,0.03,,,,,,METAR,1292.0
CWGL 311900Z AUTO 10002KT 10/09 RMK AO1 SLP093 T00950094 56026,CWGL,2022-10-31T19:00:00Z,44.53,-79.22,9.5,9.4,100,2,,,,1009.3,,TRUE,TRUE,,,,,,,,,,,,,,,,-2.6,,,,,,,,,,,METAR,220.0
CWGH 311900Z AUTO 21001KT 14/07 RMK AO1 SLP126 T01430070 57019,CWGH,2022-10-31T19:00:00Z,44.42,-75.85,14.3,7.0,210,1,,,,1012.6,,TRUE,TRUE,,,,,,,,,,,,,,,,-1.9,,,,,,,,,,,METAR,76.0
CWGD 311900Z AUTO 00000KT 13/13 RMK AO1 SLP095 T01340126 56015,CWGD,2022-10-31T19:00:00Z,43.77,-81.72,13.4,12.6,0,0,,,,1009.5,,TRUE,TRUE,,,,,,,,,,,,,,,,-1.5,,,,,,,,,,,METAR,214.0
CWGB 311900Z AUTO 29020KT 10/ RMK AO1 PK WND 30025/1827 SLP072 T0099 53014,CWGB,2022-10-31T19:00:00Z,49.35,-124.13,9.9,,290,20,,,,1007.2,,TRUE,TRUE,,,,,,,,,,,,,,,,1.4,,,,,,,,,,,METAR,6.0
CWFQ 311900Z AUTO 21003KT 15/01 RMK AO1 SLP130 T01500014 57020,CWFQ,2022-10-31T19:00:00Z,45.03,-72.85,15.0,1.4,210,3,,,,1013.0,,TRUE,TRUE,,,,,,,,,,,,,,,,-2.0,,,,,,,,,,,METAR,190.0
CWFJ 311900Z AUTO 26003KT 06/02 RMK AO1 T00620018,CWFJ,2022-10-31T19:00:00Z,49.2,-113.27,6.2,1.8,260,3,,,,,,TRUE,TRUE,,,,,,,,,,,,,,,,,,,,,,,,,,,METAR,1142.0
CWFF 311900Z AUTO 27009KT 06/M04 RMK AO1 SLP044 T00571035 51006,CWFF,2022-10-31T19:00:00Z,52.82,-104.6,5.7,-3.5,270,9,,,,1004.4,,TRUE,TRUE,,,,,,,,,,,,,,,,0.6,,,,,,,,,,,METAR,482.0
CWFD 311900Z AUTO 35008KT ////SM ////// M12/M13 A2928,CWFD,2022-10-31T19:00:00Z,66.58,-61.58,-12.0,-13.0,350,8,,,29.279528,,,TRUE,,,,,,,,,,,,,,,,,,,,,,,,,,,,SPECI,375.0
CWEZ 311900Z AUTO 25012G19KT 11/07 RMK AO1 PK WND 25023/1845 SLP082 T01050067 53020,CWEZ,2022-10-31T19:00:00Z,48.78,-123.05,10.5,6.7,250,12,19,,,1008.2,,TRUE,TRUE,,,,,,,,,,,,,,,,2.0,,,,,,,,,,,METAR,23.0
CWEW 311900Z AUTO 21003KT 15/02 RMK AO1 SLP138 T01490024 56020,CWEW,2022-10-31T19:00:00Z,45.82,-73.43,14.9,2.4,210,3,,,,1013.8,,TRUE,TRUE,,,,,,,,,,,,,,,,-2.0,,,,,,,,,,,METAR,17.0
CWEU 311900Z 27008KT 210V020 15SM IC DRSN FEW080 M23/M26 A2964 RMK AC1 AC TR PRFZFG E 20 SM OVR FIORD AC LENT SLP054,CWEU,2022-10-31T19:00:00Z,80.0,-85.93,-23.0,-26.0,270,8,,15.0,29.639763,1005.4,,,,,,,,,IC DRSN,FEW,8000,,,,,,,VFR,,,,,,,,,,,,SPECI,2.0
CWER 311900Z AUTO 23012KT RMK AO1,CWER,2022-10-31T19:00:00Z,47.0,-70.82,,,230,12,,,,,,TRUE,TRUE,,,,,,,,,,,,,,,,,,,,,,,,,,,METAR,4.0
CWEQ 311900Z AUTO 27015G24KT 11/M05 RMK AO1 PK WND 27024/1853 SLP025 T01061050 51011,CWEQ,2022-10-31T19:00:00Z,52.12,-101.22,10.6,-5.0,270,15,24,,,1002.5,,TRUE,TRUE,,,,,,,,,,,,,,,,1.1,,,,,,,,,,,METAR,331.0
CWEP 311900Z AUTO 28012KT 14/03 RMK AO1 SLP150 T01430027 53002,CWEP,2022-10-31T19:00:00Z,46.45,-61.98,14.3,2.7,280,12,,,,1015.0,,TRUE,TRUE,,,,,,,,,,,,,,,,0.2,,,,,,,,,,,METAR,9.0
CWEL 311900Z AUTO 30006KT 10/08 RMK AO1 SLP077 T01040078 53018,CWEL,2022-10-31T19:00:00Z,49.22,-123.8,10.4,7.8,300,6,,,,1007.7,,TRUE,TRUE,,,,,,,,,,,,,,,,1.8,,,,,,,,,,,METAR,0.0
CWEK 311900Z AUTO 16018KT 05/ RMK AO1 2PAST HR 3004 PK WND 16026/1812 SLP010 P0005 T0046 50012,CWEK,2022-10-31T19:00:00Z,54.58,-130.7,4.6,,160,18,,,,1001.0,,TRUE,TRUE,,,,,,,,,,,,,,,,1.2,,,,,0.05,,,,,,METAR,8.0
CWEH 311900Z AUTO 23007KT 10/02 RMK AO1 SLP049 T00970021 58005,CWEH,2022-10-31T19:00:00Z,49.43,-108.98,9.7,2.1,230,7,,,,1004.9,,TRUE,TRUE,,,,,,,,,,,,,,,,-0.5,,,,,,,,,,,METAR,1077.0
CWEF 311900Z AUTO 27023KT 11/08 RMK AO1 PK WND 27030/1803 SLP120 T01100076 53016,CWEF,2022-10-31T19:00:00Z,47.22,-60.13,11.0,7.6,270,23,,,,1012.0,,TRUE,TRUE,,,,,,,,,,,,,,,,1.6,,,,,,,,,,,METAR,27.0
CWEE 311900Z AUTO 10/04 RMK AO1 SLP113 T01030042 56020,CWEE,2022-10-31T19:00:00Z,49.27,-73.35,10.3,4.2,,,,,,1011.3,,TRUE,TRUE,,,,,,,,,,,,,,,,-2.0,,,,,,,,,,,METAR,302.0
CWEB 311900Z AUTO 00031KT 08/03 RMK AO1 SLP102 T00830027 52016,CWEB,2022-10-31T19:00:00Z,49.38,-126.55,8.3,2.7,0,31,,,,1010.2,,TRUE,TRUE,,,,,,,,,,,,,,,,1.6,,,,,,,,,,,METAR,1.0
CWDZ 311900Z AUTO 31001KT 07/M03 RMK AO1 SLP066 T00691030 57009,CWDZ,2022-10-31T19:00:00Z,51.43,-112.67,6.9,-3.0,310,1,,,,1006.6,,TRUE,TRUE,,,,,,,,,,,,,,,,-0.9,,,,,,,,,,,METAR,689.0
CWDV 311900Z AUTO 24011G18KT 13/M01 RMK AO1 PK WND 26018/1850 SLP055 T01341011 58017,CWDV,2022-10-31T19:00:00Z,49.02,-90.47,13.4,-1.1,240,11,18,,,1005.5,,TRUE,TRUE,,,,,,,,,,,,,,,,-1.7,,,,,,,,,,,METAR,487.0
CWDT 311900Z AUTO 14002KT RMK AO1 57015,CWDT,2022-10-31T19:00:00Z,49.83,-71.17,,,140,2,,,,,,TRUE,TRUE,,,,,,,,,,,,,,,,-1.5,,,,,,,,,,,METAR,389.0
CWDQ 311900Z AUTO 17006KT 15/01 RMK AO1 SLP127 T01540005 56015,CWDQ,2022-10-31T19:00:00Z,47.42,-72.78,15.4,0.5,170,6,,,,1012.7,,TRUE,TRUE,,,,,,,,,,,,,,,,-1.5,,,,,,,,,,,METAR,174.0
CWDO 311900Z AUTO 25023G31KT 12/05 RMK AO1 PK WND 26031/1853 SLP038 T01170046 55008,CWDO,2022-10-31T19:00:00Z,49.68,-54.78,11.7,4.6,250,23,31,,,1003.8,,TRUE,TRUE,,,,,,,,,,,,,,,,-0.8,,,,,,,,,,,METAR,89.0
CWDM 311900Z AUTO 32016G23KT 13/M01 RMK AO1 PK WND 32026/1826 SLP079 T01261007 53031,CWDM,2022-10-31T19:00:00Z,50.47,-59.63,12.6,-0.7,320,16,23,,,1007.9,,TRUE,TRUE,,,,,,,,,,,,,,,,3.1,,,,,,,,,,,METAR,2.0
CWDK 311900Z AUTO 08003KT 03/01 RMK AO1 SLP062 T00250008 58013,CWDK,2022-10-31T19:00:00Z,50.02,-113.62,2.5,0.8,80,3,,,,1006.2,,TRUE,TRUE,,,,,,,,,,,,,,,,-1.3,,,,,,,,,,,METAR,1014.0
CWDJ 311900Z AUTO 31006KT 07/M02 RMK AO1 SLP075 T00661015 51003,CWDJ,2022-10-31T19:00:00Z,50.4,-104.58,6.6,-1.5,310,6,,,,1007.5,,TRUE,TRUE,,,,,,,,,,,,,,,,0.3,,,,,,,,,,,METAR,576.0
CWDC 311900Z AUTO 04005KT M09/M14 RMK AO1 SOG 02 1023 SLP056 T10881137,CWDC,2022-10-31T19:00:00Z,59.57,-108.48,-8.8,-13.7,40,5,,,,1005.6,,TRUE,TRUE,,,,,,,,,,,,,,,,,,,,,,,,,,,METAR,311.0
CWDA 311900Z AUTO 29025G33KT 11/ RMK AO1 PK WND 28041/1826 T0107,CWDA,2022-10-31T19:00:00Z,50.72,-56.12,10.7,,290,25,33,,,,,TRUE,TRUE,,,,,,,,,,,,,,,,,,,,,,,,,,,METAR,30.0
CWCT 311900Z AUTO 25003KT 05/M06 RMK AO1 SLP077 T00521055 57002,CWCT,2022-10-31T19:00:00Z,52.07,-111.43,5.2,-5.5,250,3,,,,1007.7,,TRUE,TRUE,,,,,,,,,,,,,,,,-0.2,,,,,,,,,,,METAR,793.0
CWCO 311900Z AUTO 16001KT 12/11 RMK AO1 SLP100 T01220106 56022,CWCO,2022-10-31T19:00:00Z,44.5,-80.22,12.2,10.6,160,1,,,,1010.0,,TRUE,TRUE,,,,,,,,,,,,,,,,-2.2,,,,,,,,,,,METAR,182.0
CWCJ 311900Z AUTO 23004KT 09/07 RMK AO1 SLP091 T00920066 57012,CWCJ,2022-10-31T19:00:00Z,48.6,-86.28,9.2,6.6,230,4,,,,1009.1,,TRUE,TRUE,,,,,,,,,,,,,,,,-1.2,,,,,,,,,,,METAR,207.0
CWCF 311900Z AUTO 25008KT 08/03 RMK AO1 SLP005 T00790026 51023,CWCF,2022-10-31T19:00:00Z,52.35,-97.03,7.9,2.6,250,8,,,,1000.5,,TRUE,TRUE,,,,,,,,,,,,,,,,2.3,,,,,,,,,,,METAR,219.0
CWBZ 311900Z AUTO 30005KT 16/03 RMK AO1 SLP129 T01590032 56015,CWBZ,2022-10-31T19:00:00Z,45.12,-74.28,15.9,3.2,300,5,,,,1012.9,,TRUE,TRUE,,,,,,,,,,,,,,,,-1.5,,,,,,,,,,,METAR,49.0
CWBY 311900Z AUTO 29009KT 11/01 RMK AO1 PK WND 30017/1812 SLP127 T01110012 51014,CWBY,2022-10-31T19:00:00Z,49.83,-64.28,11.1,1.2,290,9,,,,1012.7,,TRUE,TRUE,,,,,,,,,,,,,,,,1.4,,,,,,,,,,,METAR,56.0
CWBV 311900Z AUTO 24017KT 14/11 RMK AO1 PK WND 24021/1813 SLP145 T01370109 56009,CWBV,2022-10-31T19:00:00Z,44.82,-62.33,13.7,10.9,240,17,,,,1014.5,,TRUE,TRUE,,,,,,,,,,,,,,,,-0.9,,,,,,,,,,,METAR,16.0
CWBU 311900Z AUTO 29014G19KT 08/M04 RMK AO1 PK WND 29019/1855 SLP029 T00791035 51006,CWBU,2022-10-31T19:00:00Z,53.33,-104.02,7.9,-3.5,290,14,19,,,1002.9,,TRUE,TRUE,,,,,,,,,,,,,,,,0.6,,,,,,,,,,,METAR,369.0
CWBT 311900Z AUTO 32003KT 14/M01 RMK AO1 SLP120 T01351006 51017,CWBT,2022-10-31T19:00:00Z,50.27,-64.23,13.5,-0.6,320,3,,,,1012.0,,TRUE,TRUE,,,,,,,,,,,,,,,,1.7,,,,,,,,,,,METAR,12.0
CWBS 311900Z AUTO 36002KT 11/05 RMK AO1 T01120050,CWBS,2022-10-31T19:00:00Z,46.18,-72.92,11.2,5.0,360,2,,,,,,TRUE,TRUE,,,,,,,,,,,,,,,,,,,,,,,,,,,METAR,3.0
CWBO 311900Z AUTO 03006KT 07/M04 RMK AO1 SLP064 T00651035 58004,CWBO,2022-10-31T19:00:00Z,50.53,-111.83,6.5,-3.5,30,6,,,,1006.4,,TRUE,TRUE,,,,,,,,,,,,,,,,-0.4,,,,,,,,,,,METAR,752.0
CWBK 311900Z AUTO 31004KT 16/09 RMK AO1 SLP154 T01590089 56005,CWBK,2022-10-31T19:00:00Z,45.77,-62.67,15.9,8.9,310,4,,,,1015.4,,TRUE,TRUE,,,,,,,,,,,,,,,,-0.5,,,,,,,,,,,METAR,2.0
CWBA 311900Z AUTO 17004KT 11/06 RMK AO1 T01050060,CWBA,2022-10-31T19:00:00Z,46.72,-79.1,10.5,6.0,170,4,,,,,,TRUE,TRUE,,,,,,,,,,,,,,,,,,,,,,,,,,,METAR,181.0
CWAV 311900Z AUTO 13007KT 02/M04 RMK AO1 SLP065 T00221036 58009,CWAV,2022-10-31T19:00:00Z,51.77,-114.67,2.2,-3.6,130,7,,,,1006.5,,TRUE,TRUE,,,,,,,,,,,,,,,,-0.9,,,,,,,,,,,METAR,1115.0
CWAR 311900Z AUTO 18024KT 12/09 RMK AO1 PK WND 18032/1808 SLP107 T01150094 56016,CWAR,2022-10-31T19:00:00Z,47.28,-54.0,11.5,9.4,180,24,,,,1010.7,,TRUE,TRUE,,,,,,,,,,,,,,,,-1.6,,,,,,,,,,,METAR,6.0
CWAQ 311900Z AUTO 18006KT 14/02 RMK AO1 SLP057 T01430023 58011,CWAQ,2022-10-31T19:00:00Z,49.05,-105.48,14.3,2.3,180,6,,,,1005.7,,TRUE,TRUE,,,,,,,,,,,,,,,,-1.1,,,,,,,,,,,METAR,761.0
CWAJ 311900Z AUTO 18006KT RMK AO1 57015,CWAJ,2022-10-31T19:00:00Z,42.25,-81.9,,,180,6,,,,,,TRUE,TRUE,,,,,,,,,,,,,,,,-1.5,,,,,,,,,,,METAR,177.0
CWAF 311900Z AUTO 24005KT 08/05 RMK AO1 T00810047,CWAF,2022-10-31T19:00:00Z,48.07,-69.55,8.1,4.7,240,5,,,,,,TRUE,TRUE,,,,,,,,,,,,,,,,,,,,,,,,,,,METAR,6.0
CTRA 311900Z AUTO 21005KT 10/02 RMK AO1 SLP039 T01010015 57006,CTRA,2022-10-31T19:00:00Z,49.67,-93.73,10.1,1.5,210,5,,,,1003.9,,TRUE,TRUE,,,,,,,,,,,,,,,,-0.6,,,,,,,,,,,METAR,432.0
CTNK 311900Z AUTO 21003KT 13/07 RMK AO1 SLP117 T01330072 58022,CTNK,2022-10-31T19:00:00Z,45.53,-78.27,13.3,7.2,210,3,,,,1011.7,,TRUE,TRUE,,,,,,,,,,,,,,,,-2.2,,,,,,,,,,,METAR,405.0
CTCK 311900Z AUTO 35001KT 15/04 RMK AO1 SLP127 T01490044 57015,CTCK,2022-10-31T19:00:00Z,45.25,-74.97,14.9,4.4,350,1,,,,1012.7,,TRUE,TRUE,,,,,,,,,,,,,,,,-1.5,,,,,,,,,,,METAR,84.0
CPSV 311900Z AUTO 07006KT 08/04 RMK AO1 T00770040,CPSV,2022-10-31T19:00:00Z,49.92,-110.92,7.7,4.0,70,6,,,,,,TRUE,TRUE,,,,,,,,,,,,,,,,,,,,,,,,,,,METAR,766.0
CPST 311900Z AUTO 19004KT 04/M04 RMK AO1 T00401037,CPST,2022-10-31T19:00:00Z,51.03,-113.28,4.0,-3.7,190,4,,,,,,TRUE,TRUE,,,,,,,,,,,,,,,,,,,,,,,,,,,METAR,1005.0
CPRY 311900Z AUTO 25007KT 06/01 RMK AO1 T00580007,CPRY,2022-10-31T19:00:00Z,49.48,-112.68,5.8,0.7,250,7,,,,,,TRUE,TRUE,,,,,,,,,,,,,,,,,,,,,,,,,,,METAR,947.0
CPRO 311900Z AUTO 04006KT 07/M05 RMK AO1 T00711048,CPRO,2022-10-31T19:00:00Z,50.83,-112.05,7.1,-4.8,40,6,,,,,,TRUE,TRUE,,,,,,,,,,,,,,,,,,,,,,,,,,,METAR,733.0
CPIR 311900Z AUTO 31003KT 06/M00 RMK AO1 T00601003,CPIR,2022-10-31T19:00:00Z,49.9,-112.73,6.0,-0.3,310,3,,,,,,TRUE,TRUE,,,,,,,,,,,,,,,,,,,,,,,,,,,METAR,895.0
CPIN 311900Z AUTO 17002KT ////SM OVC017 ///// A////,CPIN,2022-10-31T19:00:00Z,,,,,170,2,,,,,,TRUE,,,,,,,,OVC,1700,,,,,,,,,,,,,,,,,,,METAR,
CPFI 311900Z AUTO 24005KT 08/01 RMK AO1 T00800014,CPFI,2022-10-31T19:00:00Z,49.8,-112.03,8.0,1.4,240,5,,,,,,TRUE,TRUE,,,,,,,,,,,,,,,,,,,,,,,,,,,METAR,804.0
CPEH 311900Z AUTO 00000KT 05/M01 RMK AO1 T00521011,CPEH,2022-10-31T19:00:00Z,50.18,-112.43,5.2,-1.1,0,0,,,,,,TRUE,TRUE,,,,,,,,,,,,,,,,,,,,,,,,,,,METAR,814.0
CPBT 311900Z AUTO 24005KT 06/01 RMK AO1 T00550008,CPBT,2022-10-31T19:00:00Z,49.53,-113.05,5.5,0.8,240,5,,,,,,TRUE,TRUE,,,,,,,,,,,,,,,,,,,,,,,,,,,METAR,998.0
CMGB 311900Z AUTO 24001KT 14/02 RMK AO1 SLP132 T01420022 58019,CMGB,2022-10-31T19:00:00Z,45.37,-72.77,14.2,2.2,240,1,,,,1013.2,,TRUE,TRUE,,,,,,,,,,,,,,,,-1.9,,,,,,,,,,,METAR,87.0
CMFM 311900Z AUTO 22004KT 12/M05 RMK AO1 SLP143 T01211051 56012,CMFM,2022-10-31T19:00:00Z,47.32,-71.15,12.1,-5.1,220,4,,,,1014.3,,TRUE,TRUE,,,,,,,,,,,,,,,,-1.2,,,,,,,,,,,METAR,663.0
CERM 311900Z AUTO 13003KT 17/01 RMK AO1 SLP133 T01740014 56018,CERM,2022-10-31T19:00:00Z,47.42,-68.32,17.4,1.4,130,3,,,,1013.3,,TRUE,TRUE,,,,,,,,,,,,,,,,-1.8,,,,,,,,,,,METAR,151.0
CAHR 311900Z AUTO 27006KT 15/01 RMK AO1 SLP149 T01450011 55000,CAHR,2022-10-31T19:00:00Z,46.35,-63.17,14.5,1.1,270,6,,,,1014.9,,TRUE,TRUE,,,,,,,,,,,,,,,,0.0,,,,,,,,,,,METAR,52.0
BIRK 311900Z 11008KT 9999 FEW009 BKN160 06/03 Q0981,BIRK,2022-10-31T19:00:00Z,64.13,-21.93,6.0,3.0,110,8,,6.21,28.966536,,,,,,,,,,,FEW,900,BKN,16000,,,,,VFR,,,,,,,,,,,,METAR,12.0
BIHN 311900Z 15010KT 9999 SCT009 BKN035 OVC037 07/06 Q0981,BIHN,2022-10-31T19:00:00Z,64.3,-15.23,7.0,6.0,150,10,,6.21,28.966536,,,,,,,,,,,SCT,900,BKN,3500,OVC,3700,,,VFR,,,,,,,,,,,,METAR,8.0
BIEG 311900Z VRB02KT 9999 -RA SCT015 BKN030 OVC040 04/03 Q0980,BIEG,2022-10-31T19:00:00Z,65.27,-14.4,4.0,3.0,0,2,,6.21,28.937008,,,,,,,,,,-RA,SCT,1500,BKN,3000,OVC,4000,,,MVFR,,,,,,,,,,,,METAR,20.0
BIAR 311900Z 27004KT 9999 -RA BKN033 OVC041 04/03 Q0982,BIAR,2022-10-31T19:00:00Z,65.67,-18.07,4.0,3.0,270,4,,6.21,28.996063,,,,,,,,,,-RA,BKN,3300,OVC,4100,,,,,VFR,,,,,,,,,,,,METAR,1.0
AYPY 311900Z 32005KT 9999 SCT050 25/24 Q1006,AYPY,2022-10-31T19:00:00Z,-9.43,147.22,25.0,24.0,320,5,,6.21,29.704725,,,,,,,,,,,SCT,5000,,,,,,,VFR,,,,,,,,,,,,METAR,44.0
AYNZ 311900Z 32004KT 9999 FEW020 26/20 Q1008,AYNZ,2022-10-31T19:00:00Z,-6.57,146.72,26.0,20.0,320,4,,6.21,29.763779,,,,,,,,,,,FEW,2000,,,,,,,VFR,,,,,,,,,,,,METAR,74.0
AGGH 311900Z 00000KT 9999 FEW015 FEW016CB BKN028 25/25 Q1007,AGGH,2022-10-31T19:00:00Z,-9.42,160.05,25.0,25.0,0,0,,6.21,29.734253,,,,,,,,,,,FEW,1500,FEW,1600,BKN,2800,,,MVFR,,,,,,,,,,,,METAR,6.0
MUCF 311859Z AUTO 09007KT 050V160 34/24 Q1011,MUCF,2022-10-31T18:59:00Z,22.15,-80.4,34.0,24.0,90,7,,,29.852362,,,TRUE,,,,,,,,,,,,,,,,,,,,,,,,,,,,METAR,35.0
KPWK 311859Z 33004KT 1 1/2SM BR OVC006 13/12 A2983 RMK AO2 T01330117,KPWK,2022-10-31T18:59:00Z,42.12,-87.9,13.3,11.7,330,4,,1.5,29.828741,,,,TRUE,,,,,,BR,OVC,600,,,,,,,IFR,,,,,,,,,,,,METAR,194.0
KP92 311859Z AUTO 24006KT 22/16 A3000 RMK AO1 SLP159 T02170156,KP92,2022-10-31T18:59:00Z,29.57,-91.53,21.7,15.6,240,6,,,30.0,1015.9,,TRUE,TRUE,,,,,,,,,,,,,,,,,,,,,,,,,,,METAR,1.0
KNOZ 311859Z AUTO 14003KT 10SM CLR 28/M04 A2989 RMK AO2 SLP071 T02831044 $,KNOZ,2022-10-31T18:59:00Z,32.53,-114.5,28.3,-4.4,140,3,,10.0,29.890747,1007.1,,TRUE,TRUE,TRUE,,,,,,CLR,,,,,,,,VFR,,,,,,,,,,,,METAR,78.0
KNGU 311859Z AUTO VRB06KT 10SM SCT030 BKN070 BKN200 23/14 A3004 RMK AO2 SLP172 T02280144 $,KNGU,2022-10-31T18:59:00Z,36.93,-76.27,22.8,14.4,0,6,,10.0,30.041338,1017.2,,TRUE,TRUE,TRUE,,,,,,SCT,3000,BKN,7000,BKN,20000,,,VFR,,,,,,,,,,,,METAR,3.0
KJQF 311859Z 00000KT 3SM BR OVC009 19/300 A3005,KJQF,2022-10-31T18:59:00Z,35.38,-80.72,,,0,0,,3.0,30.050198,,,,,,,,,,BR,OVC,900,,,,,,,IFR,,,,,,,,,,,,METAR,204.0
KDPG 311859Z 13004KT 40SM SCT350 15/M05 A3014 RMK SLP192 T01451046,KDPG,2022-10-31T18:59:00Z,40.2,-112.93,14.5,-4.6,130,4,,40.0,30.138779,1019.2,,,,,,,,,,SCT,35000,,,,,,,VFR,,,,,,,,,,,,METAR,1324.0
PHSF 311858Z AUTO 14011KT 10SM CLR 18/09 A3036 RMK AO2 SLP168 T01790091 $,PHSF,2022-10-31T18:58:00Z,19.77,-155.55,17.9,9.1,140,11,,10.0,30.360237,1016.8,,TRUE,TRUE,TRUE,,,,,,CLR,,,,,,,,VFR,,,,,,,,,,,,METAR,1863.0
PASY 311858Z 34021KT 7SM BKN046 BKN055 04/M00 A2985 RMK AO2A SLP110 ALSTG/SLP ESTMD WND DATA ESTMD T00401001 PNO $,PASY,2022-10-31T18:58:00Z,52.72,174.12,4.0,-0.1,340,21,,7.0,29.84941,1011.0,,,TRUE,TRUE,,,,,,BKN,4600,BKN,5500,,,,,VFR,,,,,,,,,,,,SPECI,6.0
PALJ 311858Z 00000KT 30SM BKN060 M05/M08 A2995 RMK EST PASS OPN NOSPECI,PALJ,2022-10-31T18:58:00Z,60.2,-154.3,-5.0,-8.0,0,0,,30.0,29.949802,,,,,,,,,,,BKN,6000,,,,,,,VFR,,,,,,,,,,,,METAR,88.0
PADG 311858Z 00000KT 10SM OVC009 M11/M12 A2999,PADG,2022-10-31T18:58:00Z,68.03,-162.9,-11.0,-12.0,0,0,,10.0,29.991142,,,,,,,,,,,OVC,900,,,,,,,IFR,,,,,,,,,,,,SPECI,296.0
KROG 311858Z 10SM CLR 21/07 A2999 RMK AO2 SLP147 T02060072 $,KROG,2022-10-31T18:58:00Z,36.37,-94.1,20.6,7.2,,,,10.0,29.991142,1014.7,,,TRUE,TRUE,,,,,,CLR,,,,,,,,VFR,,,,,,,,,,,,METAR,407.0
KPRN 311858Z AUTO 00000KT 10SM RA BKN044 20/11 A3000 RMK AO2 SLP106 T02000106 PNO $,KPRN,2022-10-31T18:58:00Z,31.85,-86.62,20.0,10.6,0,0,,10.0,30.0,1010.6,,TRUE,TRUE,TRUE,,,,,RA,BKN,4400,,,,,,,VFR,,,,,,,,,,,,METAR,137.0
KMRH 311858Z AUTO 09006KT 10SM SCT022 BKN038 OVC055 22/16 A3004 RMK AO2 SLP174 T02170161,KMRH,2022-10-31T18:58:00Z,34.73,-76.65,21.7,16.1,90,6,,10.0,30.041338,1017.4,,TRUE,TRUE,,,,,,,SCT,2200,BKN,3800,OVC,5500,,,VFR,,,,,,,,,,,,SPECI,2.0
KMEI 311858Z 25007KT 10SM BKN055 23/12 A3000 RMK AO2 SLP155 T02280122,KMEI,2022-10-31T18:58:00Z,32.33,-88.75,22.8,12.2,250,7,,10.0,30.0,1015.5,,,TRUE,,,,,,,BKN,5500,,,,,,,VFR,,,,,,,,,,,,METAR,90.0
KJKA 311858Z 24008KT 10SM FEW030 24/14 A3000,KJKA,2022-10-31T18:58:00Z,30.28,-87.67,24.0,14.0,240,8,,10.0,30.0,,,,,,,,,,,FEW,3000,,,,,,,VFR,,,,,,,,,,,,METAR,5.0
KHUA 311858Z 24006KT 7SM FEW030 OVC060 19/14 A2996 RMK SLPNO RVRNO $,KHUA,2022-10-31T18:58:00Z,34.68,-86.68,19.0,14.0,240,6,,7.0,29.958662,,,,,TRUE,,,,,,FEW,3000,OVC,6000,,,,,VFR,,,,,,,,,,,,METAR,200.0
KGOV 311858Z AUTO 21003KT 10SM SCT130 18/05 A2979 RMK AO2 SLP097 T01760052 $,KGOV,2022-10-31T18:58:00Z,44.68,-84.73,17.6,5.2,210,3,,10.0,29.790354,1009.7,,TRUE,TRUE,TRUE,,,,,,SCT,13000,,,,,,,VFR,,,,,,,,,,,,METAR,350.0
KGEU 311858Z VRB04KT 10SM SKC 23/01 A2994,KGEU,2022-10-31T18:58:00Z,33.53,-112.3,23.0,1.0,0,4,,10.0,29.940945,,,,,,,,,,,SKC,,,,,,,,VFR,,,,,,,,,,,,METAR,319.0
KEUF 311858Z AUTO 25004KT 10SM CLR 24/14 A2998 RMK AO2 SLP150 T02440144,KEUF,2022-10-31T18:58:00Z,31.95,-85.13,24.4,14.4,250,4,,10.0,29.97933,1015.0,,TRUE,TRUE,,,,,,,CLR,,,,,,,,VFR,,,,,,,,,,,,METAR,87.0
KCMY 311858Z AUTO 00000KT 8SM CLR 18/07 A2983 RMK AO2 SLP108 T01800066 $,KCMY,2022-10-31T18:58:00Z,43.97,-90.73,18.0,6.6,0,0,,8.0,29.828741,1010.8,,TRUE,TRUE,TRUE,,,,,,CLR,,,,,,,,VFR,,,,,,,,,,,,METAR,253.0
KBKF 311858Z 20003KT 10SM FEW220 17/M12 A2997 RMK AO2A SLP115 T01701117,KBKF,2022-10-31T18:58:00Z,39.72,-104.75,17.0,-11.7,200,3,,10.0,29.970472,1011.5,,,TRUE,,,,,,,FEW,22000,,,,,,,VFR,,,,,,,,,,,,METAR,1703.0
KBCR 311858Z AUTO VRB03KT 10SM FEW046 26/15 A2999 RMK AO2 SLP112 T02560150,KBCR,2022-10-31T18:58:00Z,30.85,-85.6,25.6,15.0,0,3,,10.0,29.991142,1011.2,,TRUE,TRUE,,,,,,,FEW,4600,,,,,,,VFR,,,,,,,,,,,,METAR,26.0
KABE 311858Z 10003KT 10SM BKN029 BKN100 OVC110 16/11 A2999 RMK AO2 RAE54 P0000 T01560106,KABE,2022-10-31T18:58:00Z,40.65,-75.45,15.6,10.6,100,3,,10.0,29.991142,,,,TRUE,,,,,,,BKN,2900,BKN,10000,OVC,11000,,,MVFR,,,,,,0.005,,,,,,SPECI,117.0
K0J4 311858Z AUTO 01007KT 10SM CLR 25/12 A3001 RMK AO2 SLP157 T02500117,K0J4,2022-10-31T18:58:00Z,31.05,-86.32,25.0,11.7,10,7,,10.0,30.008858,1015.7,,TRUE,TRUE,,,,,,,CLR,,,,,,,,VFR,,,,,,,,,,,,METAR,96.0
PHNG 311857Z 07010KT 10SM FEW025 A3003 RMK AO2 SLP166 $,PHNG,2022-10-31T18:57:00Z,21.43,-157.77,,,70,10,,10.0,30.029528,1016.6,,,TRUE,TRUE,,,,,,FEW,2500,,,,,,,VFR,,,,,,,,,,,,SPECI,1.0
KNYL 311857Z 02007KT 7SM CLR 27/M01 A2989 RMK AO2 SLP119 T02671006 $,KNYL,2022-10-31T18:57:00Z,32.65,-114.62,26.7,-0.6,20,7,,7.0,29.890747,1011.9,,,TRUE,TRUE,,,,,,CLR,,,,,,,,VFR,,,,,,,,,,,,METAR,58.0
KNJW 311857Z AUTO 26008KT 10SM FEW043 OVC055 21/12 A3002 RMK AO2 SLP080 T02110117,KNJW,2022-10-31T18:57:00Z,32.78,-88.82,21.1,11.7,260,8,,10.0,30.02067,1008.0,,TRUE,TRUE,,,,,,,FEW,4300,OVC,5500,,,,,VFR,,,,,,,,,,,,SPECI,165.0
KNJM 311857Z AUTO 10006KT 8SM BKN050 24/17 A3004 RMK AO2 SLP176 T02440167,KNJM,2022-10-31T18:57:00Z,34.68,-77.02,24.4,16.7,100,6,,8.0,30.041338,1017.6,,TRUE,TRUE,,,,,,,BKN,5000,,,,,,,VFR,,,,,,,,,,,,METAR,5.0
KFLG 311857Z 10SM CLR 14/M07 A3016 RMK AO2 SLP169 T01441067,KFLG,2022-10-31T18:57:00Z,35.13,-111.67,14.4,-6.7,,,,10.0,30.159449,1016.9,,,TRUE,,,,,,,CLR,,,,,,,,VFR,,,,,,,,,,,,METAR,2134.0
KAQV 311857Z AUTO 10SM CLR 25/11 A3000 RMK AO2 SLP156 T02500111,KAQV,2022-10-31T18:57:00Z,31.4,-93.3,25.0,11.1,,,,10.0,30.0,1015.6,,TRUE,TRUE,,,,,,,CLR,,,,,,,,VFR,,,,,,,,,,,,METAR,123.0
TJSJ 311856Z 08008KT 10SM FEW023 SCT065 BKN085 29/25 A2990 RMK AO2 RAE06B25E50 SLP122 P0000 T02890250,TJSJ,2022-10-31T18:56:00Z,18.43,-66.02,28.9,25.0,80,8,,10.0,29.899607,1012.2,,,TRUE,,,,,,,FEW,2300,SCT,6500,BKN,8500,,,VFR,,,,,,0.005,,,,,,SPECI,3.0
ROTM 311856Z 05010G17KT 8000 -SHRA BKN007 BKN012 OVC040 22/20 A2980 RMK DZE50SHRAB50 SLP090 P0003 T02220204,ROTM,2022-10-31T18:56:00Z,26.27,127.75,22.2,20.4,50,10,17,4.97,29.799213,1009.0,,,,,,,,,-SHRA,BKN,700,BKN,1200,OVC,4000,,,IFR,,,,,,0.03,,,,,,METAR,80.0
RJOI 311856Z 31006KT 9999 FEW030 FEW055 BKN240 14/07 A3010 RMK AO2 SLP193 T01440072,RJOI,2022-10-31T18:56:00Z,34.13,132.23,14.4,7.2,310,6,,6.21,30.100393,1019.3,,,TRUE,,,,,,,FEW,3000,FEW,5500,BKN,24000,,,VFR,,,,,,,,,,,,METAR,2.0
PFYU 311856Z 04004KT 10SM CLR M18/M19 A3001 RMK AO2 SLP179 T11781194,PFYU,2022-10-31T18:56:00Z,66.57,-145.23,-17.8,-19.4,40,4,,10.0,30.008858,1017.9,,,TRUE,,,,,,,CLR,,,,,,,,VFR,,,,,,,,,,,,METAR,130.0
PFSH 311856Z AUTO 10007KT 10SM CLR M11/M12 A3011 RMK AO2 SLP197 T11111117 FZRANO,PFSH,2022-10-31T18:56:00Z,64.37,-161.22,-11.1,-11.7,100,7,,10.0,30.109253,1019.7,,TRUE,TRUE,,,,TRUE,,,CLR,,,,,,,,VFR,,,,,,,,,,,,METAR,6.0
PFNO 311856Z AUTO 06008KT 8SM OVC008 M15/M17 A3011 RMK AO2 SLP284 T11501167 FZRANO,PFNO,2022-10-31T18:56:00Z,66.82,-161.02,-15.0,-16.7,60,8,,8.0,30.109253,1028.4,,TRUE,TRUE,,,,TRUE,,,OVC,800,,,,,,,IFR,,,,,,,,,,,,METAR,14.0
PFKT 311856Z AUTO 34008KT 10SM FEW040 M06/M08 A3013 RMK AO2 SNB07E25 SLP204 P0000 T10611078 FZRANO,PFKT,2022-10-31T18:56:00Z,65.33,-166.47,-6.1,-7.8,340,8,,10.0,30.129921,1020.4,,TRUE,TRUE,,,,TRUE,,,FEW,4000,,,,,,,VFR,,,,,,0.005,,,,,,METAR,8.0
PFEL 311856Z AUTO 00000KT 10SM CLR M08/M09 A3008 RMK AO2 SLP191 T10831094 FZRANO,PFEL,2022-10-31T18:56:00Z,64.62,-162.27,-8.3,-9.4,0,0,,10.0,30.079725,1019.1,,TRUE,TRUE,,,,TRUE,,,CLR,,,,,,,,VFR,,,,,,,,,,,,METAR,50.0
PAZK 311856Z AUTO 01006KT 9SM -SN OVC022 M13/M14 A2953 RMK AO2 SLP077 P0000 T11281144 FZRANO,PAZK,2022-10-31T18:56:00Z,61.93,-147.17,-12.8,-14.4,10,6,,9.0,29.530512,1007.7,,TRUE,TRUE,,,,TRUE,,-SN,OVC,2200,,,,,,,MVFR,,,,,,0.005,,,,,,METAR,1002.0
PAWS 311856Z AUTO 30003KT 10SM SCT120 M06/M13 A2972 RMK AO2 SLP073 T10561128 FZRANO,PAWS,2022-10-31T18:56:00Z,61.57,-149.53,-5.6,-12.8,300,3,,10.0,29.719488,1007.3,,TRUE,TRUE,,,,TRUE,,,SCT,12000,,,,,,,VFR,,,,,,,,,,,,METAR,102.0
PAWN 311856Z AUTO 36004KT 9SM -SN SCT011 BKN028 OVC044 M13/M14 A3010 RMK AO2 SLP207 P0000 T11281144 FZRANO,PAWN,2022-10-31T18:56:00Z,67.57,-162.98,-12.8,-14.4,360,4,,9.0,30.100393,1020.7,,TRUE,TRUE,,,,TRUE,,-SN,SCT,1100,BKN,2800,OVC,4400,,,MVFR,,,,,,0.005,,,,,,METAR,26.0
PAWM 311856Z AUTO 28003KT 8SM CLR M07/M07 A3010 RMK AO2 SLP198 T10721072 FZRANO PNO $,PAWM,2022-10-31T18:56:00Z,64.68,-163.42,-7.2,-7.2,280,3,,8.0,30.100393,1019.8,,TRUE,TRUE,TRUE,,,TRUE,,,CLR,,,,,,,,VFR,,,,,,,,,,,,METAR,80.0
PAWG 311856Z 10006KT 10SM FEW010 SCT045 BKN080 04/01 A2959 RMK AO2 SLP021 T00440011,PAWG,2022-10-31T18:56:00Z,56.48,-132.37,4.4,1.1,100,6,,10.0,29.589567,1002.1,,,TRUE,,,,,,,FEW,1000,SCT,4500,BKN,8000,,,VFR,,,,,,,,,,,,METAR,6.0
PAVD 311856Z VRB05KT 10SM FEW090 BKN110 BKN200 A2960 RMK AO2 SLPNO M03/M09 $,PAVD,2022-10-31T18:56:00Z,61.13,-146.25,,,0,5,,10.0,29.601377,,,,TRUE,TRUE,,,,,,FEW,9000,BKN,11000,BKN,20000,,,VFR,,,,,,,,,,,,METAR,21.0
PAVC 311856Z AUTO VRB04KT 10SM CLR 01/M02 A3029 RMK AO2 SLP258 T00111017 FZRANO PNO $,PAVC,2022-10-31T18:56:00Z,55.12,-162.27,1.1,-1.7,0,4,,10.0,30.28937,1025.8,,TRUE,TRUE,TRUE,,,TRUE,,,CLR,,,,,,,,VFR,,,,,,,,,,,,METAR,48.0
PAUN 311856Z AUTO 12007KT 10SM CLR M15/M17 A3012 RMK AO2 SNB04E15 SLP203 P0000 T11501167 FZRANO,PAUN,2022-10-31T18:56:00Z,63.88,-160.8,-15.0,-16.7,120,7,,10.0,30.121063,1020.3,,TRUE,TRUE,,,,TRUE,,,CLR,,,,,,,,VFR,,,,,,0.005,,,,,,METAR,4.0
PATQ 311856Z AUTO 14008KT 10SM CLR M21/M23 A2997 RMK AO2 SLP156 T12061228 FZRANO TSNO,PATQ,2022-10-31T18:56:00Z,70.47,-157.43,-20.6,-22.8,140,8,,10.0,29.970472,1015.6,,TRUE,TRUE,,,TRUE,TRUE,,,CLR,,,,,,,,VFR,,,,,,,,,,,,METAR,28.0
PATE 311856Z AUTO 00000KT 10SM BKN039 M07/M08 A3011 RMK AO2 SLP204 T10721083 FZRANO,PATE,2022-10-31T18:56:00Z,65.23,-166.33,-7.2,-8.3,0,0,,10.0,30.109253,1020.4,,TRUE,TRUE,,,,TRUE,,,BKN,3900,,,,,,,VFR,,,,,,,,,,,,METAR,93.0
PASX 311856Z AUTO 00000KT 10SM OVC110 M06/M08 A2977 RMK AO2 SLP088 T10611078 FZRANO,PASX,2022-10-31T18:56:00Z,60.48,-151.05,-6.1,-7.8,0,0,,10.0,29.769686,1008.8,,TRUE,TRUE,,,,TRUE,,,OVC,11000,,,,,,,VFR,,,,,,,,,,,,METAR,28.0
PASM 311856Z AUTO 21003KT 10SM OVC032 M07/M08 A3016 RMK AO2 SLP226 T10671083 FZRANO,PASM,2022-10-31T18:56:00Z,62.07,-163.3,-6.7,-8.3,210,3,,10.0,30.159449,1022.6,,TRUE,TRUE,,,,TRUE,,,OVC,3200,,,,,,,VFR,,,,,,,,,,,,METAR,108.0
PASK 311856Z AUTO 06007KT 10SM OVC014 M13/M14 A3012 RMK AO2 SLP198 T11281139 FZRANO,PASK,2022-10-31T18:56:00Z,66.6,-160.0,-12.8,-13.9,60,7,,10.0,30.121063,1019.8,,TRUE,TRUE,,,,TRUE,,,OVC,1400,,,,,,,MVFR,,,,,,,,,,,,METAR,3.0
PASH 311856Z AUTO 32016KT 9SM FEW032 M02/M07 A3011 RMK AO2 SNB38E49 SLP195 T10221072 FZRANO PNO $,PASH,2022-10-31T18:56:00Z,66.27,-166.08,-2.2,-7.2,320,16,,9.0,30.109253,1019.5,,TRUE,TRUE,TRUE,,,TRUE,,,FEW,3200,,,,,,,VFR,,,,,,,,,,,,METAR,3.0
PASD 311856Z 28005KT 10SM FEW028 BKN050 BKN100 02/M04 A3027 RMK AO2 SLP252 T00221039 $,PASD,2022-10-31T18:56:00Z,55.33,-160.52,2.2,-3.9,280,5,,10.0,30.268702,1025.2,,,TRUE,TRUE,,,,,,FEW,2800,BKN,5000,BKN,10000,,,VFR,,,,,,,,,,,,METAR,6.0
PASA 311856Z AUTO 15008KT 10SM FEW020 BKN036 M06/M08 A3010 RMK AO2 SLP194 T10561083 FZRANO,PASA,2022-10-31T18:56:00Z,63.68,-170.5,-5.6,-8.3,150,8,,10.0,30.100393,1019.4,,TRUE,TRUE,,,,TRUE,,,FEW,2000,BKN,3600,,,,,VFR,,,,,,,,,,,,METAR,9.0
PARY 311856Z AUTO 00000KT 10SM OVC075 M10/M12 A3001 RMK AO2 SLP180 T11001122 FZRANO,PARY,2022-10-31T18:56:00Z,64.73,-155.47,-10.0,-12.2,0,0,,10.0,30.008858,1018.0,,TRUE,TRUE,,,,TRUE,,,OVC,7500,,,,,,,VFR,,,,,,,,,,,,METAR,185.0
PARC 311856Z AUTO 03004KT 10SM CLR M20/M22 A2989 RMK AO2 SLP199 T12001222 FZRANO,PARC,2022-10-31T18:56:00Z,68.12,-145.58,-20.0,-22.2,30,4,,10.0,29.890747,1019.9,,TRUE,TRUE,,,,TRUE,,,CLR,,,,,,,,VFR,,,,,,,,,,,,METAR,626.0
PAQH 311856Z AUTO 09005KT 10SM CLR M11/M12 A3022 RMK AO2 SLP234 T11111122 PWINO FZRANO,PAQH,2022-10-31T18:56:00Z,59.75,-161.85,-11.1,-12.2,90,5,,10.0,30.221457,1023.4,,TRUE,TRUE,,,,TRUE,TRUE,,CLR,,,,,,,,VFR,,,,,,,,,,,,METAR,8.0
PAPO 311856Z AUTO 26021KT 10SM BKN037 M03/M08 A3001 RMK AO2 PK WND 26028/1809 SNB1759E18 SLP160 T10281083 FZRANO PNO $,PAPO,2022-10-31T18:56:00Z,68.35,-166.8,-2.8,-8.3,260,21,,10.0,30.008858,1016.0,,TRUE,TRUE,TRUE,,,TRUE,,,BKN,3700,,,,,,,VFR,,,,,,,,,,,,METAR,4.0
PAPM 311856Z AUTO 09006KT 10SM CLR A3023 RMK AO2 SLPNO FZRANO PNO $,PAPM,2022-10-31T18:56:00Z,59.02,-161.82,,,90,6,,10.0,30.230314,,,TRUE,TRUE,TRUE,,,TRUE,,,CLR,,,,,,,,VFR,,,,,,,,,,,,METAR,4.0
PAPH 311856Z AUTO 33014KT 10SM SCT037 OVC048 01/M05 A3022 RMK AO2 SLP235 T00061050 FZRANO,PAPH,2022-10-31T18:56:00Z,56.95,-158.62,0.6,-5.0,330,14,,10.0,30.221457,1023.5,,TRUE,TRUE,,,,TRUE,,,SCT,3700,OVC,4800,,,,,VFR,,,,,,,,,,,,METAR,29.0
PAPG 311856Z VRB06KT 10SM CLR 02/01 A2959 RMK AO2 RAE09SNE09 SLP022 P0000 T00220006,PAPG,2022-10-31T18:56:00Z,56.82,-132.93,2.2,0.6,0,6,,10.0,29.589567,1002.2,,,TRUE,,,,,,,CLR,,,,,,,,VFR,,,,,,0.005,,,,,,METAR,24.0
PAOU 311856Z AUTO 32010KT 10SM OVC050 02/M04 A3025 RMK AO2 SLP245 T00221044 FZRANO PNO $,PAOU,2022-10-31T18:56:00Z,56.0,-161.17,2.2,-4.4,320,10,,10.0,30.250984,1024.5,,TRUE,TRUE,TRUE,,,TRUE,,,OVC,5000,,,,,,,VFR,,,,,,,,,,,,METAR,3.0
PAOO 311856Z AUTO 00000KT CLR M06/M07 A3020 RMK AO2 SLP233 T10611067 PWINO FZRANO TSNO $,PAOO,2022-10-31T18:56:00Z,60.53,-165.08,-6.1,-6.7,0,0,,,30.200787,1023.3,,TRUE,TRUE,TRUE,,TRUE,TRUE,TRUE,,CLR,,,,,,,,,,,,,,,,,,,,METAR,15.0
PAOH 311856Z AUTO 09003KT 10SM FEW028 BKN033 OVC040 04/03 A2952 RMK AO2 SLP997 T00390033,PAOH,2022-10-31T18:56:00Z,58.1,-135.45,3.9,3.3,90,3,,10.0,29.518702,999.7,,TRUE,TRUE,,,,,,,FEW,2800,BKN,3300,OVC,4000,,,VFR,,,,,,,,,,,,METAR,0.0
PANW 311856Z AUTO 28011KT 10SM CLR M08/M12 A3011 RMK AO2 SLP205 T10781122 FZRANO,PANW,2022-10-31T18:56:00Z,59.45,-157.32,-7.8,-12.2,280,11,,10.0,30.109253,1020.5,,TRUE,TRUE,,,,TRUE,,,CLR,,,,,,,,VFR,,,,,,,,,,,,METAR,100.0
PANV 311856Z AUTO 23005KT 10SM BKN028 M08/M08 A3007 RMK AO2 SLP314 T10781083 FZRANO TSNO,PANV,2022-10-31T18:56:00Z,62.65,-160.18,-7.8,-8.3,230,5,,10.0,30.070866,1031.4,,TRUE,TRUE,,,TRUE,TRUE,,,BKN,2800,,,,,,,MVFR,,,,,,,,,,,,METAR,91.0
PAMK 311856Z AUTO 33005KT 10SM SCT035 M04/M06 A3012 RMK AO2 SLP201 T10391061 FZRANO,PAMK,2022-10-31T18:56:00Z,63.48,-162.12,-3.9,-6.1,330,5,,10.0,30.121063,1020.1,,TRUE,TRUE,,,,TRUE,,,SCT,3500,,,,,,,VFR,,,,,,,,,,,,METAR,31.0
PAMB 311856Z AUTO 28012KT 8SM CLR M05/M12 A3016 RMK AO2 SLP216 T10501117 FZRANO $,PAMB,2022-10-31T18:56:00Z,58.98,-159.05,-5.0,-11.7,280,12,,8.0,30.159449,1021.6,,TRUE,TRUE,TRUE,,,TRUE,,,CLR,,,,,,,,VFR,,,,,,,,,,,,METAR,28.0
PALG 311856Z AUTO 00000KT 8SM CLR M11/M12 A3016 RMK AO2 SLP217 T11111122 FZRANO,PALG,2022-10-31T18:56:00Z,61.53,-160.33,-11.1,-12.2,0,0,,8.0,30.159449,1021.7,,TRUE,TRUE,,,,TRUE,,,CLR,,,,,,,,VFR,,,,,,,,,,,,METAR,13.0
PAKP 311856Z AUTO 17003KT 10SM OVC048 M14/M16 A2988 RMK AO2 SLP193 T11391161 FZRANO,PAKP,2022-10-31T18:56:00Z,68.13,-151.73,-13.9,-16.1,170,3,,10.0,29.878937,1019.3,,TRUE,TRUE,,,,TRUE,,,OVC,4800,,,,,,,VFR,,,,,,,,,,,,METAR,649.0
PAKK 311856Z AUTO 00000KT 10SM BKN006 OVC023 M09/M10 A3005 RMK AO2 SNE20 SLP188 P0000 T10891100 FZRANO,PAKK,2022-10-31T18:56:00Z,64.93,-161.15,-8.9,-10.0,0,0,,10.0,30.050198,1018.8,,TRUE,TRUE,,,,TRUE,,,BKN,600,OVC,2300,,,,,IFR,,,,,,0.005,,,,,,METAR,56.0
PAKI 311856Z AUTO 12007KT 10SM CLR M08/M08 A3020 RMK AO2 SLP230 T10781078 FZRANO PNO $,PAKI,2022-10-31T18:56:00Z,59.93,-164.03,-7.8,-7.8,120,7,,10.0,30.200787,1023.0,,TRUE,TRUE,TRUE,,,TRUE,,,CLR,,,,,,,,VFR,,,,,,,,,,,,METAR,4.0
PAKH 311856Z AUTO 10SM SCT035 A3000 RMK AO2 SLPNO FZRANO TSNO $,PAKH,2022-10-31T18:56:00Z,56.93,-154.18,,,,,,10.0,30.0,,,TRUE,TRUE,TRUE,,TRUE,TRUE,,,SCT,3500,,,,,,,VFR,,,,,,,,,,,,METAR,15.0
PAKF 311856Z AUTO 00000KT 10SM OVC055 A3026 RMK AO2 SLPNO FZRANO $,PAKF,2022-10-31T18:56:00Z,54.85,-163.42,,,0,0,,10.0,30.259842,,,TRUE,TRUE,TRUE,,,TRUE,,,OVC,5500,,,,,,,VFR,,,,,,,,,,,,METAR,2.0
PAJZ 311856Z AUTO 28005KT 8SM CLR M08/M12 A3015 RMK AO2 SLP217 T10831117 FZRANO $,PAJZ,2022-10-31T18:56:00Z,59.73,-157.27,-8.3,-11.7,280,5,,8.0,30.15059,1021.7,,TRUE,TRUE,TRUE,,,TRUE,,,CLR,,,,,,,,VFR,,,,,,,,,,,,METAR,80.0
PAIW 311856Z AUTO 33010KT 10SM FEW024 BKN038 OVC050 M04/M08 A3015 RMK AO2 SLP210 T10391078 FZRANO,PAIW,2022-10-31T18:56:00Z,65.62,-168.1,-3.9,-7.8,330,10,,10.0,30.15059,1021.0,,TRUE,TRUE,,,,TRUE,,,FEW,2400,BKN,3800,OVC,5000,,,VFR,,,,,,,,,,,,METAR,6.0
PAIK 311856Z AUTO 00000KT 10SM CLR M19/M21 A3013 RMK AO2 SLP209 T11891206 FZRANO,PAIK,2022-10-31T18:56:00Z,66.98,-160.43,-18.9,-20.6,0,0,,10.0,30.129921,1020.9,,TRUE,TRUE,,,,TRUE,,,CLR,,,,,,,,VFR,,,,,,,,,,,,METAR,49.0
PAIG 311856Z AUTO 24009KT 10SM SCT050 M08/M11 A3009 RMK AO2 SLP198 T10781111 FZRANO $,PAIG,2022-10-31T18:56:00Z,59.32,-155.9,-7.8,-11.1,240,9,,10.0,30.088583,1019.8,,TRUE,TRUE,TRUE,,,TRUE,,,SCT,5000,,,,,,,VFR,,,,,,,,,,,,METAR,24.0
PAHL 311856Z AUTO 00000KT 10SM OVC065 M11/M12 A3007 RMK AO2 SLP190 T11061122 FZRANO,PAHL,2022-10-31T18:56:00Z,65.7,-156.35,-10.6,-12.2,0,0,,10.0,30.070866,1019.0,,TRUE,TRUE,,,,TRUE,,,OVC,6500,,,,,,,VFR,,,,,,,,,,,,METAR,49.0
PAGS 311856Z AUTO 13005KT 10SM OVC047 04/02 A2953 RMK AO2 RAB07E54 SLP000 P0000 T00440022,PAGS,2022-10-31T18:56:00Z,58.42,-135.7,4.4,2.2,130,5,,10.0,29.530512,1000.0,,TRUE,TRUE,,,,,,,OVC,4700,,,,,,,VFR,,,,,,0.005,,,,,,METAR,9.0
PAGN 311856Z AUTO 09003KT 10SM FEW031 SCT047 03/02 A2957 RMK AO2 SLP001 T00330022,PAGN,2022-10-31T18:56:00Z,57.5,-134.58,3.3,2.2,90,3,,10.0,29.568897,1000.1,,TRUE,TRUE,,,,,,,FEW,3100,SCT,4700,,,,,VFR,,,,,,,,,,,,METAR,2.0
PAGA 311856Z AUTO 8SM OVC075 M11/M12 A3009 RMK AO2 SLP194 T11061122 FZRANO $,PAGA,2022-10-31T18:56:00Z,64.73,-156.93,-10.6,-12.2,,,,8.0,30.088583,1019.4,,TRUE,TRUE,TRUE,,,TRUE,,,OVC,7500,,,,,,,VFR,,,,,,,,,,,,METAR,39.0
PAFM 311856Z AUTO 00000KT M19/M21 A3012 RMK AO2 SLPNO T11891206 FZRANO,PAFM,2022-10-31T18:56:00Z,67.1,-157.85,-18.9,-20.6,0,0,,,30.121063,,,TRUE,TRUE,,,,TRUE,,,,,,,,,,,,,,,,,,,,,,,METAR,79.0
PAFE 311856Z AUTO 10008KT 10SM SCT044 03/01 A2957 RMK AO2 SLP026 T00330011,PAFE,2022-10-31T18:56:00Z,56.97,-133.92,3.3,1.1,100,8,,10.0,29.568897,1002.6,,TRUE,TRUE,,,,,,,SCT,4400,,,,,,,VFR,,,,,,,,,,,,METAR,1.0
PAEL 311856Z 00000KT 15SM FEW009 FEW024 BKN032 OVC060 04/03 A2949 RMK SEA 0 SWELL 4 SW NOSPECI,PAEL,2022-10-31T18:56:00Z,58.2,-136.35,4.0,3.0,0,0,,15.0,29.489174,,,,,,,,,,,FEW,900,FEW,2400,BKN,3200,OVC,6000,VFR,,,,,,,,,,,,SPECI,8.0
PAED 311856Z 36006KT 10SM FEW042 BKN120 M04/M14 A2971 RMK AO2A SLP059 T10411143 $,PAED,2022-10-31T18:56:00Z,61.25,-149.83,-4.1,-14.3,360,6,,10.0,29.71063,1005.9,,,TRUE,TRUE,,,,,,FEW,4200,BKN,12000,,,,,VFR,,,,,,,,,,,,METAR,54.0
PADU 311856Z 14010KT 10SM BKN038 OVC050 03/M01 A3022 RMK AO2 SLP237 T00331011,PADU,2022-10-31T18:56:00Z,53.9,-166.53,3.3,-1.1,140,10,,10.0,30.221457,1023.7,,,TRUE,,,,,,,BKN,3800,OVC,5000,,,,,VFR,,,,,,,,,,,,METAR,4.0
PADL 311856Z 29004KT 10SM CLR M05/M11 A3016 RMK AO2 SLP219 T10501111,PADL,2022-10-31T18:56:00Z,59.05,-158.5,-5.0,-11.1,290,4,,10.0,30.159449,1021.9,,,TRUE,,,,,,,CLR,,,,,,,,VFR,,,,,,,,,,,,METAR,20.0
PABV 311856Z AUTO 19003KT 10SM CLR M04/M12 A2975 RMK AO2 SLP080 T10441122 FZRANO,PABV,2022-10-31T18:56:00Z,61.42,-149.52,-4.4,-12.2,190,3,,10.0,29.749016,1008.0,,TRUE,TRUE,,,,TRUE,,,CLR,,,,,,,,VFR,,,,,,,,,,,,METAR,21.0
PABL 311856Z AUTO 15005KT 10SM OVC020 M07/M08 A3009 RMK AO2 SLP191 T10671083 FZRANO $,PABL,2022-10-31T18:56:00Z,65.98,-161.15,-6.7,-8.3,150,5,,10.0,30.088583,1019.1,,TRUE,TRUE,TRUE,,,TRUE,,,OVC,2000,,,,,,,MVFR,,,,,,,,,,,,METAR,7.0
PAAK 311856Z AUTO 11018KT 10SM UP OVC010 A2993 RMK AO2 PK WND 11026/1845 UPB53 CIG 008V012 SLPNO P0000 FZRANO $,PAAK,2022-10-31T18:56:00Z,52.22,-174.2,,,110,18,,10.0,29.929134,,,TRUE,TRUE,TRUE,,,TRUE,,UP,OVC,1000,,,,,,,MVFR,,,,,,0.005,,,,,,METAR,11.0
KYKN 311856Z AUTO 17008KT 10SM CLR 21/01 A2984 RMK AO2 SLP116 T02060006,KYKN,2022-10-31T18:56:00Z,42.92,-97.37,20.6,0.6,170,8,,10.0,29.840551,1011.6,,TRUE,TRUE,,,,,,,CLR,,,,,,,,VFR,,,,,,,,,,,,METAR,388.0
KWWD 311856Z AUTO 17007KT 10SM CLR 19/13 A3002 RMK AO2 SLP167 T01890133 $,KWWD,2022-10-31T18:56:00Z,39.02,-74.92,18.9,13.3,170,7,,10.0,30.02067,1016.7,,TRUE,TRUE,TRUE,,,,,,CLR,,,,,,,,VFR,,,,,,,,,,,,METAR,4.0
KWVL 311856Z AUTO 21006KT 10SM CLR 18/08 A2991 RMK AO2 SLP157 T01780078,KWVL,2022-10-31T18:56:00Z,44.52,-69.67,17.8,7.8,210,6,,10.0,29.911417,1015.7,,TRUE,TRUE,,,,,,,CLR,,,,,,,,VFR,,,,,,,,,,,,METAR,87.0
KWMC 311856Z AUTO 00000KT 10SM CLR 14/M05 A3005 RMK AO2 SLP165 T01391050,KWMC,2022-10-31T18:56:00Z,40.9,-117.8,13.9,-5.0,0,0,,10.0,30.050198,1016.5,,TRUE,TRUE,,,,,,,CLR,,,,,,,,VFR,,,,,,,,,,,,METAR,1311.0
KWJF 311856Z 08003KT 10SM CLR 21/M06 A3001 RMK AO2 SLP157 T02061061,KWJF,2022-10-31T18:56:00Z,34.73,-118.22,20.6,-6.1,80,3,,10.0,30.008858,1015.7,,,TRUE,,,,,,,CLR,,,,,,,,VFR,,,,,,,,,,,,METAR,712.0
KVPZ 311856Z AUTO 34004KT 10SM BKN006 OVC019 16/14 A2980 RMK AO2 CIG 004V010 SLP091 P0001 T01610139,KVPZ,2022-10-31T18:56:00Z,41.45,-87.0,16.1,13.9,340,4,,10.0,29.799213,1009.1,,TRUE,TRUE,,,,,,,BKN,600,OVC,1900,,,,,IFR,,,,,,0.01,,,,,,METAR,235.0
KVIS 311856Z AUTO 29003KT 10SM CLR 21/05 A2996 RMK AO2 SLP151 T02110050,KVIS,2022-10-31T18:56:00Z,36.32,-119.4,21.1,5.0,290,3,,10.0,29.958662,1015.1,,TRUE,TRUE,,,,,,,CLR,,,,,,,,VFR,,,,,,,,,,,,METAR,92.0
KVBT 311856Z AUTO 29008KT 10SM CLR 21/08 A3000 RMK AO2 SLP155 T02060078,KVBT,2022-10-31T18:56:00Z,36.35,-94.22,20.6,7.8,290,8,,10.0,30.0,1015.5,,TRUE,TRUE,,,,,,,CLR,,,,,,,,VFR,,,,,,,,,,,,METAR,390.0
KUKI 311856Z AUTO 00000KT 10SM CLR 17/07 A2994 RMK AO2 SLP134 T01720067,KUKI,2022-10-31T18:56:00Z,39.12,-123.2,17.2,6.7,0,0,,10.0,29.940945,1013.4,,TRUE,TRUE,,,,,,,CLR,,,,,,,,VFR,,,,,,,,,,,,METAR,183.0
KUDG 311856Z AUTO 19007KT 10SM FEW025 26/20 A2999 RMK AO2 RAB00E13 SLP157 P0000 T02560200,KUDG,2022-10-31T18:56:00Z,34.45,-79.88,25.6,20.0,190,7,,10.0,29.991142,1015.7,,TRUE,TRUE,,,,,,,FEW,2500,,,,,,,VFR,,,,,,0.005,,,,,,METAR,57.0
KUCP 311856Z AUTO VRB03KT 9SM OVC007 16/16 A2991 RMK AO2 SLP143 T01560156,KUCP,2022-10-31T18:56:00Z,41.03,-80.42,15.6,15.6,0,3,,9.0,29.911417,1014.3,,TRUE,TRUE,,,,,,,OVC,700,,,,,,,IFR,,,,,,,,,,,,METAR,313.0
KTVF 311856Z AUTO 21011KT 10SM CLR 13/01 A2970 RMK AO2 SLP065 T01330006,KTVF,2022-10-31T18:56:00Z,48.07,-96.17,13.3,0.6,210,11,,10.0,29.698818,1006.5,,TRUE,TRUE,,,,,,,CLR,,,,,,,,VFR,,,,,,,,,,,,METAR,339.0
KTPH 311856Z AUTO 18004KT 10SM CLR 14/M07 A3011 RMK AO2 SLP169 T01391072,KTPH,2022-10-31T18:56:00Z,38.05,-117.08,13.9,-7.2,180,4,,10.0,30.109253,1016.9,,TRUE,TRUE,,,,,,,CLR,,,,,,,,VFR,,,,,,,,,,,,METAR,1647.0
KSXT 311856Z AUTO VRB03KT 10SM BKN110 12/04 A2999 RMK AO2 SLP134 T01170044,KSXT,2022-10-31T18:56:00Z,42.6,-123.37,11.7,4.4,0,3,,10.0,29.991142,1013.4,,TRUE,TRUE,,,,,,,BKN,11000,,,,,,,VFR,,,,,,,,,,,,METAR,1151.0
KSRC 311856Z AUTO VRB04KT 10SM CLR 22/11 A2996 RMK AO2 SLP145 T02170111,KSRC,2022-10-31T18:56:00Z,35.22,-91.73,21.7,11.1,0,4,,10.0,29.958662,1014.5,,TRUE,TRUE,,,,,,,CLR,,,,,,,,VFR,,,,,,,,,,,,METAR,80.0
KSQI 311856Z AUTO 00000KT 10SM CLR 16/09 A2985 RMK AO2 SLP974 T01560089,KSQI,2022-10-31T18:56:00Z,41.75,-89.67,15.6,8.9,0,0,,10.0,29.84941,997.4,,TRUE,TRUE,,,,,,,CLR,,,,,,,,VFR,,,,,,,,,,,,METAR,196.0
KSPD 311856Z AUTO 18006KT 20/M06 A2997 RMK AO1 SLP116 T02001056,KSPD,2022-10-31T18:56:00Z,37.28,-102.62,20.0,-5.6,180,6,,,29.970472,1011.6,,TRUE,TRUE,,,,,,,,,,,,,,,,,,,,,,,,,,,METAR,1340.0
KSMN 311856Z AUTO 20014G19KT 10SM OVC075 17/00 A2991 RMK AO2 WSHFT 1755 SLP824 T01720000,KSMN,2022-10-31T18:56:00Z,45.12,-113.87,17.2,0.0,200,14,19,10.0,29.911417,982.4,,TRUE,TRUE,,,,,,,OVC,7500,,,,,,,VFR,,,,,,,,,,,,METAR,1228.0
KSLG 311856Z AUTO 30007KT 10SM CLR 21/07 A2999 RMK AO2 SLP150 T02060072,KSLG,2022-10-31T18:56:00Z,36.2,-94.48,20.6,7.2,300,7,,10.0,29.991142,1015.0,,TRUE,TRUE,,,,,,,CLR,,,,,,,,VFR,,,,,,,,,,,,METAR,361.0
KSKX 311856Z AUTO 30004KT 10SM CLR 13/M07 A3014 RMK AO2 SLP195 T01281072,KSKX,2022-10-31T18:56:00Z,36.45,-105.67,12.8,-7.2,300,4,,10.0,30.138779,1019.5,,TRUE,TRUE,,,,,,,CLR,,,,,,,,VFR,,,,,,,,,,,,METAR,2163.0
KSHV 311856Z VRB04KT 10SM FEW048 SCT290 26/12 A3000 RMK SLPNO,KSHV,2022-10-31T18:56:00Z,32.45,-93.83,26.0,12.0,0,4,,10.0,30.0,,,,,,,,,,,FEW,4800,SCT,29000,,,,,VFR,,,,,,,,,,,,METAR,70.0
KSGU 311856Z AUTO 00000KT 10SM CLR 16/M03 A3007 RMK AO2 SLP167 T01561028,KSGU,2022-10-31T18:56:00Z,37.03,-113.52,15.6,-2.8,0,0,,10.0,30.070866,1016.7,,TRUE,TRUE,,,,,,,CLR,,,,,,,,VFR,,,,,,,,,,,,METAR,877.0
KSGT 311856Z AUTO 27010KT 10SM CLR 22/12 A2998 RMK AO2 SLP150 T02220117,KSGT,2022-10-31T18:56:00Z,34.6,-91.57,22.2,11.7,270,10,,10.0,29.97933,1015.0,,TRUE,TRUE,,,,,,,CLR,,,,,,,,VFR,,,,,,,,,,,,METAR,67.0
KSGJ 311856Z 11008KT 10SM FEW080 27/23 A2998 RMK AO2 SLP152 T02720233,KSGJ,2022-10-31T18:56:00Z,29.97,-81.33,27.2,23.3,110,8,,10.0,29.97933,1015.2,,,TRUE,,,,,,,FEW,8000,,,,,,,VFR,,,,,,,,,,,,METAR,2.0
KSFZ 311856Z AUTO 22007KT 10SM BKN027 BKN032 18/12 A3000 RMK AO2 SLP161 T01780122,KSFZ,2022-10-31T18:56:00Z,41.92,-71.5,17.8,12.2,220,7,,10.0,30.0,1016.1,,TRUE,TRUE,,,,,,,BKN,2700,BKN,3200,,,,,MVFR,,,,,,,,,,,,METAR,129.0
KSFO 311856Z 04004KT 10SM FEW006 BKN180 16/11 A2995 RMK AO2 SLP142 T01560111,KSFO,2022-10-31T18:56:00Z,37.62,-122.37,15.6,11.1,40,4,,10.0,29.949802,1014.2,,,TRUE,,,,,,,FEW,600,BKN,18000,,,,,VFR,,,,,,,,,,,,METAR,2.0
KSFM 311856Z AUTO 23009KT 10SM CLR 18/07 A2996 RMK AO2 SLP148 T01780072,KSFM,2022-10-31T18:56:00Z,43.38,-70.72,17.8,7.2,230,9,,10.0,29.958662,1014.8,,TRUE,TRUE,,,,,,,CLR,,,,,,,,VFR,,,,,,,,,,,,METAR,70.0
KSDY 311856Z AUTO 20007KT 10SM CLR 13/02 A2972 RMK AO2 SLP077 T01280017 PNO $,KSDY,2022-10-31T18:56:00Z,47.7,-104.2,12.8,1.7,200,7,,10.0,29.719488,1007.7,,TRUE,TRUE,TRUE,,,,,,CLR,,,,,,,,VFR,,,,,,,,,,,,METAR,600.0
KSDF 311856Z 23010KT 10SM FEW026 BKN045 OVC075 18/14 A2988 RMK AO2 RAB00E12 SLP116 P0000 T01830139,KSDF,2022-10-31T18:56:00Z,38.18,-85.73,18.3,13.9,230,10,,10.0,29.878937,1011.6,,,TRUE,,,,,,,FEW,2600,BKN,4500,OVC,7500,,,VFR,,,,,,0.005,,,,,,METAR,146.0
KSBP 311856Z 29004KT 10SM CLR 21/10 A2992 RMK AO2 SLP131 T02110100,KSBP,2022-10-31T18:56:00Z,35.23,-120.63,21.1,10.0,290,4,,10.0,29.920275,1013.1,,,TRUE,,,,,,,CLR,,,,,,,,VFR,,,,,,,,,,,,METAR,52.0
KRUT 311856Z AUTO 03003KT 10SM SCT120 16/06 A2996 RMK AO2 SLP142 T01610061 $,KRUT,2022-10-31T18:56:00Z,43.53,-72.95,16.1,6.1,30,3,,10.0,29.958662,1014.2,,TRUE,TRUE,TRUE,,,,,,SCT,12000,,,,,,,VFR,,,,,,,,,,,,METAR,238.0
KRDR 311856Z 22010KT 10SM BKN200 17/02 A2965 RMK AO2A SLPNO,KRDR,2022-10-31T18:56:00Z,47.93,-97.4,17.0,2.0,220,10,,10.0,29.648623,,,,TRUE,,,,,,,BKN,20000,,,,,,,VFR,,,,,,,,,,,,METAR,276.0
KRDM 311856Z 21011KT 10SM CLR 15/02 A2991 RMK AO2 SLP121 T01500022,KRDM,2022-10-31T18:56:00Z,44.25,-121.15,15.0,2.2,210,11,,10.0,29.911417,1012.1,,,TRUE,,,,,,,CLR,,,,,,,,VFR,,,,,,,,,,,,METAR,930.0
KPWT 311856Z AUTO 20012G20KT 10SM CLR 10/09 A2982 RMK AO2 SLP101 T01000089,KPWT,2022-10-31T18:56:00Z,47.5,-122.77,10.0,8.9,200,12,20,10.0,29.819881,1010.1,,TRUE,TRUE,,,,,,,CLR,,,,,,,,VFR,,,,,,,,,,,,METAR,143.0
KPWG 311856Z AUTO 05004KT CLR 25/11 A3002 RMK AO2 SLP161 T02500111 PWINO $,KPWG,2022-10-31T18:56:00Z,31.48,-97.32,25.0,11.1,50,4,,,30.02067,1016.1,,TRUE,TRUE,TRUE,,,,TRUE,,CLR,,,,,,,,,,,,,,,,,,,,METAR,178.0
KPVU 311856Z 25004KT 10SM CLR 09/01 A3014 RMK AO2 SLP207 T00890006,KPVU,2022-10-31T18:56:00Z,40.22,-111.72,8.9,0.6,250,4,,10.0,30.138779,1020.7,,,TRUE,,,,,,,CLR,,,,,,,,VFR,,,,,,,,,,,,METAR,1370.0
KPVG 311856Z AUTO VRB03KT 10SM CLR 23/15 A3003 RMK AO2 SLP170 T02330150 PNO $,KPVG,2022-10-31T18:56:00Z,36.78,-76.45,23.3,15.0,0,3,,10.0,30.029528,1017.0,,TRUE,TRUE,TRUE,,,,,,CLR,,,,,,,,VFR,,,,,,,,,,,,METAR,7.0
KPTV 311856Z AUTO 36003KT 10SM CLR 22/04 A2995 RMK AO2 SLP139 T02220044,KPTV,2022-10-31T18:56:00Z,36.02,-119.07,22.2,4.4,360,3,,10.0,29.949802,1013.9,,TRUE,TRUE,,,,,,,CLR,,,,,,,,VFR,,,,,,,,,,,,METAR,132.0
KPTN 311856Z AUTO 10SM RMK AO2 SLPNO FZRANO $,KPTN,2022-10-31T18:56:00Z,29.72,-91.33,,,,,,10.0,,,,TRUE,TRUE,TRUE,,,TRUE,,,,,,,,,,,,,,,,,,,,,,,METAR,2.0
KPRX 311856Z AUTO 00000KT 10SM CLR 22/08 A3002 RMK AO2 SLP165 T02220078,KPRX,2022-10-31T18:56:00Z,33.63,-95.45,22.2,7.8,0,0,,10.0,30.02067,1016.5,,TRUE,TRUE,,,,,,,CLR,,,,,,,,VFR,,,,,,,,,,,,METAR,165.0
KPQI 311856Z AUTO 00000KT 10SM CLR 18/00 A2993 RMK AO2 SLP161 T01780000,KPQI,2022-10-31T18:56:00Z,46.68,-68.05,17.8,0.0,0,0,,10.0,29.929134,1016.1,,TRUE,TRUE,,,,,,,CLR,,,,,,,,VFR,,,,,,,,,,,,METAR,154.0
KPIB 311856Z AUTO VRB05KT 10SM FEW044 SCT055 23/14 A3002 RMK AO2 SLP163 T02330139,KPIB,2022-10-31T18:56:00Z,31.47,-89.33,23.3,13.9,0,5,,10.0,30.02067,1016.3,,TRUE,TRUE,,,,,,,FEW,4400,SCT,5500,,,,,VFR,,,,,,,,,,,,METAR,91.0
KP60 311856Z AUTO 04/M03 A3010 RMK AO1 SLP179 T00391028,KP60,2022-10-31T18:56:00Z,44.55,-110.42,3.9,-2.8,,,,,30.100393,1017.9,,TRUE,TRUE,,,,,,,,,,,,,,,,,,,,,,,,,,,METAR,2377.0
KP53 311856Z AUTO 04010KT 11/08 A2978 RMK AO1 SLP087 T01060083,KP53,2022-10-31T18:56:00Z,46.42,-86.65,10.6,8.3,40,10,,,29.778543,1008.7,,TRUE,TRUE,,,,,,,,,,,,,,,,,,,,,,,,,,,METAR,185.0
KP28 311856Z AUTO 00000KT 21/M03 A2997 RMK AO1 SLP144 T02111028,KP28,2022-10-31T18:56:00Z,37.28,-98.55,21.1,-2.8,0,0,,,29.970472,1014.4,,TRUE,TRUE,,,,,,,,,,,,,,,,,,,,,,,,,,,METAR,469.0
KOWB 311856Z 23015G18KT 10SM SCT028 BKN047 OVC080 19/14 A2988 RMK AO2 SLP116 T01940139,KOWB,2022-10-31T18:56:00Z,37.72,-87.17,19.4,13.9,230,15,18,10.0,29.878937,1011.6,,,TRUE,,,,,,,SCT,2800,BKN,4700,OVC,8000,,,VFR,,,,,,,,,,,,METAR,121.0
KOTH 311856Z 14010KT 10SM OVC016 15/12 A2999 RMK AO2 SLP154 T01500117,KOTH,2022-10-31T18:56:00Z,43.42,-124.25,15.0,11.7,140,10,,10.0,29.991142,1015.4,,,TRUE,,,,,,,OVC,1600,,,,,,,MVFR,,,,,,,,,,,,METAR,3.0
KOTG 311856Z AUTO 22012KT 10SM CLR 18/00 A2985 RMK AO2 SLP116 T01780000,KOTG,2022-10-31T18:56:00Z,43.65,-95.57,17.8,0.0,220,12,,10.0,29.84941,1011.6,,TRUE,TRUE,,,,,,,CLR,,,,,,,,VFR,,,,,,,,,,,,METAR,478.0
KOLU 311856Z AUTO 19012KT 10SM CLR 22/M01 A2990 RMK AO2 SLP127 T02171011,KOLU,2022-10-31T18:56:00Z,41.45,-97.33,21.7,-1.1,190,12,,10.0,29.899607,1012.7,,TRUE,TRUE,,,,,,,CLR,,,,,,,,VFR,,,,,,,,,,,,METAR,438.0
KOKK 311856Z AUTO 22013KT 10SM BKN015 OVC032 16/ A2982 RMK AO2 RAE1759B16E28 SLPNO T0161 PNO $,KOKK,2022-10-31T18:56:00Z,40.53,-86.07,16.1,,220,13,,10.0,29.819881,,,TRUE,TRUE,TRUE,,,,,,BKN,1500,OVC,3200,,,,,MVFR,,,,,,,,,,,,METAR,251.0
KOFK 311856Z AUTO 21013KT 10SM CLR 22/M02 A2986 RMK AO2 SLP112 T02171017,KOFK,2022-10-31T18:56:00Z,41.98,-97.43,21.7,-1.7,210,13,,10.0,29.861221,1011.2,,TRUE,TRUE,,,,,,,CLR,,,,,,,,VFR,,,,,,,,,,,,METAR,476.0
KOCH 311856Z AUTO 23006KT CLR 23/13 A3003 RMK AO2 RAB32RAEMM SLP171 P0000 T02280128 PWINO RVRNO $,KOCH,2022-10-31T18:56:00Z,31.57,-94.72,22.8,12.8,230,6,,,30.029528,1017.1,,TRUE,TRUE,TRUE,,,,TRUE,,CLR,,,,,,,,,,,,,,0.005,,,,,,METAR,105.0
KOAJ 311856Z 11006KT 9SM OVC028 25/19 A3002 RMK AO2 SLP169 T02500189,KOAJ,2022-10-31T18:56:00Z,34.82,-77.62,25.0,18.9,110,6,,9.0,30.02067,1016.9,,,TRUE,,,,,,,OVC,2800,,,,,,,MVFR,,,,,,,,,,,,METAR,26.0
KNXP 311856Z AUTO 00000KT 10SM CLR 24/M10 A3005 RMK AO2 SLP147 T02441100 $,KNXP,2022-10-31T18:56:00Z,34.28,-116.13,24.4,-10.0,0,0,,10.0,30.050198,1014.7,,TRUE,TRUE,TRUE,,,,,,CLR,,,,,,,,VFR,,,,,,,,,,,,METAR,610.0
KNXF 311856Z AUTO 10SM 21/07 A2990 RMK AO2 SLP210 T02110072 PWINO $,KNXF,2022-10-31T18:56:00Z,33.28,-117.45,21.1,7.2,,,,10.0,29.899607,1021.0,,TRUE,TRUE,TRUE,,,,TRUE,,,,,,,,,,,,,,,,,,,,,,METAR,28.0
KNUC 311856Z 23004KT 8SM FEW006 SCT140 BKN250 17/14 A2994 RMK AO2 SLPNO T01670144 $,KNUC,2022-10-31T18:56:00Z,33.02,-118.57,16.7,14.4,230,4,,8.0,29.940945,,,,TRUE,TRUE,,,,,,FEW,600,SCT,14000,BKN,25000,,,VFR,,,,,,,,,,,,METAR,52.0
KNTU 311856Z 12006KT 10SM FEW080 SCT200 BKN250 21/13 A3002 RMK AO2 SLP169 T02060133,KNTU,2022-10-31T18:56:00Z,36.82,-76.02,20.6,13.3,120,6,,10.0,30.02067,1016.9,,,TRUE,,,,,,,FEW,8000,SCT,20000,BKN,25000,,,VFR,,,,,,,,,,,,METAR,6.0
KNSE 311856Z VRB06G16KT 10SM SCT043 SCT250 24/12 A2999 RMK AO2 SLP142 T02390122 PNO $,KNSE,2022-10-31T18:56:00Z,30.73,-87.02,23.9,12.2,0,6,16,10.0,29.991142,1014.2,,,TRUE,TRUE,,,,,,SCT,4300,SCT,25000,,,,,VFR,,,,,,,,,,,,METAR,56.0
KNQI 311856Z 13013KT 10SM SCT046 OVC070 26/15 A2998 RMK AO2 SLP147 T02610150 $,KNQI,2022-10-31T18:56:00Z,27.5,-97.82,26.1,15.0,130,13,,10.0,29.97933,1014.7,,,TRUE,TRUE,,,,,,SCT,4600,OVC,7000,,,,,VFR,,,,,,,,,,,,METAR,15.0
KNPA 311856Z VRB04KT 10SM SCT045 BKN250 25/13 A2999 RMK AO2 SLP158 T02500128,KNPA,2022-10-31T18:56:00Z,30.35,-87.32,25.0,12.8,0,4,,10.0,29.991142,1015.8,,,TRUE,,,,,,,SCT,4500,BKN,25000,,,,,VFR,,,,,,,,,,,,METAR,6.0
KNOG 311856Z AUTO 10010KT 10SM FEW060 OVC070 25/14 A2999 RMK AO2 SLP136 T02500139 PNO $,KNOG,2022-10-31T18:56:00Z,27.9,-98.05,25.0,13.9,100,10,,10.0,29.991142,1013.6,,TRUE,TRUE,TRUE,,,,,,FEW,6000,OVC,7000,,,,,VFR,,,,,,,,,,,,METAR,72.0
KNMM 311856Z 30008KT 10SM FEW035 BKN050 BKN070 22/12 A3000 RMK AO2 SLP167 T02220117,KNMM,2022-10-31T18:56:00Z,32.53,-88.53,22.2,11.7,300,8,,10.0,30.0,1016.7,,,TRUE,,,,,,,FEW,3500,BKN,5000,BKN,7000,,,VFR,,,,,,,,,,,,METAR,94.0
KNLC 311856Z 29003KT 8SM BKN140 BKN210 19/06 A2996 RMK AO2 SLP144 RH/42 T01890056,KNLC,2022-10-31T18:56:00Z,36.32,-119.95,18.9,5.6,290,3,,8.0,29.958662,1014.4,,,TRUE,,,,,,,BKN,14000,BKN,21000,,,,,VFR,,,,,,,,,,,,METAR,69.0
KNKT 311856Z 09006KT 10SM SCT025 BKN050 24/17 A3004 RMK AO2 SLP169 T02390172,KNKT,2022-10-31T18:56:00Z,34.9,-76.88,23.9,17.2,90,6,,10.0,30.041338,1016.9,,,TRUE,,,,,,,SCT,2500,BKN,5000,,,,,VFR,,,,,,,,,,,,METAR,8.0
KNJK 311856Z VRB05KT 10SM FEW250 29/M03 A2991 RMK AO2 SLP143 T02891028 $,KNJK,2022-10-31T18:56:00Z,32.82,-115.67,28.9,-2.8,0,5,,10.0,29.911417,1014.3,,,TRUE,TRUE,,,,,,FEW,25000,,,,,,,VFR,,,,,,,,,,,,METAR,-15.0
KNID 311856Z 00000KT 10SM FEW180 BKN250 21/M08 A3000 RMK AO2 SLP150 T02111083 $,KNID,2022-10-31T18:56:00Z,35.68,-117.68,21.1,-8.3,0,0,,10.0,30.0,1015.0,,,TRUE,TRUE,,,,,,FEW,18000,BKN,25000,,,,,VFR,,,,,,,,,,,,METAR,682.0
KNGP 311856Z 09012KT 10SM FEW025 BKN070 OVC095 27/16 A2998 RMK AO2 SLP152 T02670156,KNGP,2022-10-31T18:56:00Z,27.68,-97.28,26.7,15.6,90,12,,10.0,29.97933,1015.2,,,TRUE,,,,,,,FEW,2500,BKN,7000,OVC,9500,,,VFR,,,,,,,,,,,,METAR,5.0
KNFL 311856Z 00000KT 10SM SCT100 BKN170 BKN200 13/M07 A3005 RMK AO2 SLP144 T01331067 $,KNFL,2022-10-31T18:56:00Z,39.42,-118.7,13.3,-6.7,0,0,,10.0,30.050198,1014.4,,,TRUE,TRUE,,,,,,SCT,10000,BKN,17000,BKN,20000,,,VFR,,,,,,,,,,,,METAR,1199.0
KNFE 311856Z AUTO 16005KT 10SM FEW110 22/13 A3003 RMK AO2 SLP171 T02220133,KNFE,2022-10-31T18:56:00Z,36.7,-76.13,22.2,13.3,160,5,,10.0,30.029528,1017.1,,TRUE,TRUE,,,,,,,FEW,11000,,,,,,,VFR,,,,,,,,,,,,METAR,4.0
KNDZ 311856Z 30004KT 10SM SCT041 SCT250 23/13 A2999 RMK AO2 SLP143 T02280133 $,KNDZ,2022-10-31T18:56:00Z,30.7,-87.02,22.8,13.3,300,4,,10.0,29.991142,1014.3,,,TRUE,TRUE,,,,,,SCT,4100,SCT,25000,,,,,VFR,,,,,,,,,,,,METAR,51.0
KNCA 311856Z 12007KT 10SM FEW029 24/19 A3002 RMK AO2 SLP167 T02440194,KNCA,2022-10-31T18:56:00Z,34.72,-77.45,24.4,19.4,120,7,,10.0,30.02067,1016.7,,,TRUE,,,,,,,FEW,2900,,,,,,,VFR,,,,,,,,,,,,METAR,9.0
KNBC 311856Z 17007KT 10SM SCT010 BKN050 26/19 A2998 RMK AO2 RAB12E24 SLP153 P0000 T02610194,KNBC,2022-10-31T18:56:00Z,32.47,-80.72,26.1,19.4,170,7,,10.0,29.97933,1015.3,,,TRUE,,,,,,,SCT,1000,BKN,5000,,,,,VFR,,,,,,0.005,,,,,,METAR,9.0
KMYR 311856Z 09010KT 9SM FEW031 22/21 A3002 RMK AO2 SLP166 T02220206,KMYR,2022-10-31T18:56:00Z,33.68,-78.92,22.2,20.6,90,10,,9.0,30.02067,1016.6,,,TRUE,,,,,,,FEW,3100,,,,,,,VFR,,,,,,,,,,,,METAR,7.0
KMVN 311856Z AUTO 25009KT 10SM BKN019 OVC026 16/12 A2989 RMK AO2 SLP125 T01560117,KMVN,2022-10-31T18:56:00Z,38.32,-88.87,15.6,11.7,250,9,,10.0,29.890747,1012.5,,TRUE,TRUE,,,,,,,BKN,1900,OVC,2600,,,,,MVFR,,,,,,,,,,,,METAR,145.0
KMUO 311856Z AUTO 09014KT 10SM CLR 15/M01 A2997 RMK AO2 SLP151 T01471014 $,KMUO,2022-10-31T18:56:00Z,43.03,-115.87,14.7,-1.4,90,14,,10.0,29.970472,1015.1,,TRUE,TRUE,TRUE,,,,,,CLR,,,,,,,,VFR,,,,,,,,,,,,METAR,915.0
KMTW 311856Z AUTO 13006KT 10SM CLR 17/06 A2981 RMK AO2 SLP095 T01670056,KMTW,2022-10-31T18:56:00Z,44.12,-87.67,16.7,5.6,130,6,,10.0,29.811024,1009.5,,TRUE,TRUE,,,,,,,CLR,,,,,,,,VFR,,,,,,,,,,,,METAR,197.0
KMSV 311856Z AUTO 15003KT 10SM BKN100 16/09 A2998 RMK AO2 SLP156 T01560094,KMSV,2022-10-31T18:56:00Z,41.7,-74.78,15.6,9.4,150,3,,10.0,29.97933,1015.6,,TRUE,TRUE,,,,,,,BKN,10000,,,,,,,VFR,,,,,,,,,,,,METAR,427.0
KMRF 311856Z AUTO 13007KT 10SM FEW090 18/06 A3008 RMK AO2 SLP145 T01830056,KMRF,2022-10-31T18:56:00Z,30.37,-104.02,18.3,5.6,130,7,,10.0,30.079725,1014.5,,TRUE,TRUE,,,,,,,FEW,9000,,,,,,,VFR,,,,,,,,,,,,METAR,1476.0
KMQY 311856Z 23007KT 10SM BKN024 BKN032 OVC065 18/14 A2996 RMK AO2 SLP150 T01830139,KMQY,2022-10-31T18:56:00Z,36.02,-86.52,18.3,13.9,230,7,,10.0,29.958662,1015.0,,,TRUE,,,,,,,BKN,2400,BKN,3200,OVC,6500,,,MVFR,,,,,,,,,,,,METAR,156.0
KMOB 311856Z 26004KT 10SM BKN045 BKN250 23/11 A3001 RMK AO2 SLP160 T02330111,KMOB,2022-10-31T18:56:00Z,30.68,-88.25,23.3,11.1,260,4,,10.0,30.008858,1016.0,,,TRUE,,,,,,,BKN,4500,BKN,25000,,,,,VFR,,,,,,,,,,,,METAR,67.0
KMNM 311856Z AUTO 14004KT 9SM CLR 16/07 A2979 RMK AO2 SLP090 T01610067 PNO $,KMNM,2022-10-31T18:56:00Z,45.12,-87.63,16.1,6.7,140,4,,9.0,29.790354,1009.0,,TRUE,TRUE,TRUE,,,,,,CLR,,,,,,,,VFR,,,,,,,,,,,,METAR,188.0
KMML 311856Z AUTO 21010KT 10SM CLR 20/01 A2981 RMK AO2 SLP099 T02000011,KMML,2022-10-31T18:56:00Z,44.45,-95.82,20.0,1.1,210,10,,10.0,29.811024,1009.9,,TRUE,TRUE,,,,,,,CLR,,,,,,,,VFR,,,,,,,,,,,,METAR,358.0
KMKY 311856Z AUTO 21008KT 10SM CLR 32/21 A2993 RMK AO2 SLP133 T03170211 TSNO $,KMKY,2022-10-31T18:56:00Z,26.0,-81.67,31.7,21.1,210,8,,10.0,29.929134,1013.3,,TRUE,TRUE,TRUE,,TRUE,,,,CLR,,,,,,,,VFR,,,,,,,,,,,,METAR,2.0
KMKT 311856Z AUTO VRB05KT 10SM CLR 17/00 A2985 RMK AO2 SLP114 T01670000,KMKT,2022-10-31T18:56:00Z,44.22,-93.92,16.7,0.0,0,5,,10.0,29.84941,1011.4,,TRUE,TRUE,,,,,,,CLR,,,,,,,,VFR,,,,,,,,,,,,METAR,309.0
KMHS 311856Z AUTO 00000KT 10SM CLR 16/M01 A2998 RMK AO2 SLP162 T01611011,KMHS,2022-10-31T18:56:00Z,41.32,-122.32,16.1,-1.1,0,0,,10.0,29.97933,1016.2,,TRUE,TRUE,,,,,,,CLR,,,,,,,,VFR,,,,,,,,,,,,METAR,1080.0
KMEH 311856Z AUTO 00000KT 10SM BKN046 OVC060 13/04 A2989 RMK AO2 SLP118 T01280044,KMEH,2022-10-31T18:56:00Z,45.52,-118.42,12.8,4.4,0,0,,10.0,29.890747,1011.8,,TRUE,TRUE,,,,,,,BKN,4600,OVC,6000,,,,,VFR,,,,,,,,,,,,SPECI,1138.0
KMDT 311856Z 00000KT 9SM BKN021 OVC100 16/11 A2999 RMK AO2 SLP155 T01560111,KMDT,2022-10-31T18:56:00Z,40.2,-76.77,15.6,11.1,0,0,,9.0,29.991142,1015.5,,,TRUE,,,,,,,BKN,2100,OVC,10000,,,,,MVFR,,,,,,,,,,,,METAR,91.0
KMBL 311856Z AUTO 30008KT 10SM CLR 16/08 A2980 RMK AO2 SLP094 T01560083,KMBL,2022-10-31T18:56:00Z,44.27,-86.25,15.6,8.3,300,8,,10.0,29.799213,1009.4,,TRUE,TRUE,,,,,,,CLR,,,,,,,,VFR,,,,,,,,,,,,METAR,187.0
KM19 311856Z AUTO 30008KT 10SM SCT038 OVC046 21/11 A2996 RMK AO2 SLP143 T02060111,KM19,2022-10-31T18:56:00Z,35.65,-91.17,20.6,11.1,300,8,,10.0,29.958662,1014.3,,TRUE,TRUE,,,,,,,SCT,3800,OVC,4600,,,,,VFR,,,,,,,,,,,,METAR,72.0
KLWS 311856Z 06006KT 10SM OVC055 12/08 A2984 RMK AO2 RAB1758E30 SLP106 P0001 T01220083,KLWS,2022-10-31T18:56:00Z,46.37,-117.02,12.2,8.3,60,6,,10.0,29.840551,1010.6,,,TRUE,,,,,,,OVC,5500,,,,,,,VFR,,,,,,0.01,,,,,,METAR,435.0
KLRD 311856Z 12016KT 10SM SCT037 BKN055 OVC070 25/16 A2996 RMK AO2 SLP144 T02500156,KLRD,2022-10-31T18:56:00Z,27.55,-99.47,25.0,15.6,120,16,,10.0,29.958662,1014.4,,,TRUE,,,,,,,SCT,3700,BKN,5500,OVC,7000,,,VFR,,,,,,,,,,,,METAR,150.0
KLPC 311856Z AUTO 28005KT 10SM CLR 14/11 A2994 RMK AO2 SLP141 T01440106,KLPC,2022-10-31T18:56:00Z,34.67,-120.47,14.4,10.6,280,5,,10.0,29.940945,1014.1,,TRUE,TRUE,,,,,,,CLR,,,,,,,,VFR,,,,,,,,,,,,METAR,26.0
KLNR 311856Z AUTO 23006KT 10SM CLR 20/06 A2982 RMK AO2 SLP094 T02000056,KLNR,2022-10-31T18:56:00Z,43.22,-90.18,20.0,5.6,230,6,,10.0,29.819881,1009.4,,TRUE,TRUE,,,,,,,CLR,,,,,,,,VFR,,,,,,,,,,,,METAR,218.0
KLGD 311856Z AUTO 15012G18KT 10SM CLR 12/01 A2991 RMK AO2 SLP125 T01220006,KLGD,2022-10-31T18:56:00Z,45.28,-118.0,12.2,0.6,150,12,18,10.0,29.911417,1012.5,,TRUE,TRUE,,,,,,,CLR,,,,,,,,VFR,,,,,,,,,,,,METAR,827.0
KLEW 311856Z AUTO 19006KT 10SM CLR 17/06 A2994 RMK AO2 SLP146 T01720056,KLEW,2022-10-31T18:56:00Z,44.03,-70.28,17.2,5.6,190,6,,10.0,29.940945,1014.6,,TRUE,TRUE,,,,,,,CLR,,,,,,,,VFR,,,,,,,,,,,,METAR,81.0
KLCI 311856Z AUTO 27005KT 10SM CLR 17/06 A2994 RMK AO2 SLP140 T01670056,KLCI,2022-10-31T18:56:00Z,43.57,-71.42,16.7,5.6,270,5,,10.0,29.940945,1014.0,,TRUE,TRUE,,,,,,,CLR,,,,,,,,VFR,,,,,,,,,,,,METAR,166.0
KLBT 311856Z AUTO 17006KT 10SM SCT032 SCT043 BKN060 26/19 A2999 RMK AO2 RAB12E22 SLP154 P0000 T02610194 TSNO,KLBT,2022-10-31T18:56:00Z,34.6,-79.07,26.1,19.4,170,6,,10.0,29.991142,1015.4,,TRUE,TRUE,,,TRUE,,,,SCT,3200,SCT,4300,BKN,6000,,,VFR,,,,,,0.005,,,,,,METAR,37.0
KLBL 311856Z AUTO 21013G20KT 10SM CLR 23/02 A2998 RMK AO2 SLP143 T02280017,KLBL,2022-10-31T18:56:00Z,37.03,-100.97,22.8,1.7,210,13,20,10.0,29.97933,1014.3,,TRUE,TRUE,,,,,,,CLR,,,,,,,,VFR,,,,,,,,,,,,METAR,877.0
KLAS 311856Z 08006KT 10SM FEW250 21/M07 A3002 RMK AO2 SLP153 T02061067,KLAS,2022-10-31T18:56:00Z,36.07,-115.17,20.6,-6.7,80,6,,10.0,30.02067,1015.3,,,TRUE,,,,,,,FEW,25000,,,,,,,VFR,,,,,,,,,,,,METAR,662.0
KKLS 311856Z AUTO 28003KT 10SM OVC045 12/10 A2993 RMK AO2 RAE32 SLP138 P0003 T01220100,KKLS,2022-10-31T18:56:00Z,46.12,-122.9,12.2,10.0,280,3,,10.0,29.929134,1013.8,,TRUE,TRUE,,,,,,,OVC,4500,,,,,,,VFR,,,,,,0.03,,,,,,METAR,4.0
KJXN 311856Z 00000KT 10SM OVC008 16/16 A2980 RMK AO2 SLP093 T01560156 $,KJXN,2022-10-31T18:56:00Z,42.27,-84.47,15.6,15.6,0,0,,10.0,29.799213,1009.3,,,TRUE,TRUE,,,,,,OVC,800,,,,,,,IFR,,,,,,,,,,,,METAR,303.0
KJRB 311856Z AUTO 24006KT A3002 RMK AO2 SLPNO FZRANO $,KJRB,2022-10-31T18:56:00Z,40.7,-74.02,,,240,6,,,30.02067,,,TRUE,TRUE,TRUE,,,TRUE,,,,,,,,,,,,,,,,,,,,,,,METAR,2.0
KJMS 311856Z AUTO 27007KT 10SM CLR 18/01 A2972 RMK AO2 SLP070 T01780006,KJMS,2022-10-31T18:56:00Z,46.93,-98.67,17.8,0.6,270,7,,10.0,29.719488,1007.0,,TRUE,TRUE,,,,,,,CLR,,,,,,,,VFR,,,,,,,,,,,,METAR,455.0
KJHW 311856Z AUTO 18008KT 10SM OVC007 13/12 A2989 RMK AO2 RAB36E47 SLP131 P0000 T01330122,KJHW,2022-10-31T18:56:00Z,42.15,-79.27,13.3,12.2,180,8,,10.0,29.890747,1013.1,,TRUE,TRUE,,,,,,,OVC,700,,,,,,,IFR,,,,,,0.005,,,,,,METAR,520.0
KJAX 311856Z 20008KT 10SM FEW040 SCT060 BKN140 BKN250 29/19 A2995 RMK AO2 SLP143 T02940194,KJAX,2022-10-31T18:56:00Z,30.5,-81.68,29.4,19.4,200,8,,10.0,29.949802,1014.3,,,TRUE,,,,,,,FEW,4000,SCT,6000,BKN,14000,BKN,25000,VFR,,,,,,,,,,,,METAR,8.0
KIWD 311856Z AUTO 23006KT 10SM CLR 16/M02 A2978 RMK AO2 SLP091 T01611022,KIWD,2022-10-31T18:56:00Z,46.52,-90.12,16.1,-2.2,230,6,,10.0,29.778543,1009.1,,TRUE,TRUE,,,,,,,CLR,,,,,,,,VFR,,,,,,,,,,,,METAR,373.0
KITH 311856Z 15009KT 10SM BKN050 16/09 A2993 RMK AO2 SLP136 T01560089,KITH,2022-10-31T18:56:00Z,42.48,-76.45,15.6,8.9,150,9,,10.0,29.929134,1013.6,,,TRUE,,,,,,,BKN,5000,,,,,,,VFR,,,,,,,,,,,,METAR,338.0
KISP 311856Z 20008KT 10SM SCT030 BKN130 BKN240 18/11 A3001 RMK AO2 SLP161 T01780106,KISP,2022-10-31T18:56:00Z,40.8,-73.1,17.8,10.6,200,8,,10.0,30.008858,1016.1,,,TRUE,,,,,,,SCT,3000,BKN,13000,BKN,24000,,,VFR,,,,,,,,,,,,SPECI,25.0
KISO 311856Z 20006KT 10SM BKN034 BKN050 26/18 A3002,KISO,2022-10-31T18:56:00Z,35.32,-77.62,26.0,18.0,200,6,,10.0,30.02067,,,,,,,,,,,BKN,3400,BKN,5000,,,,,VFR,,,,,,,,,,,,METAR,27.0
KISM 311856Z 15006KT 10SM FEW055 30/19 A2997 RMK AO2 SLP147 T03000194 PNO $,KISM,2022-10-31T18:56:00Z,28.28,-81.43,30.0,19.4,150,6,,10.0,29.970472,1014.7,,,TRUE,TRUE,,,,,,FEW,5500,,,,,,,VFR,,,,,,,,,,,,METAR,25.0
KINW 311856Z AUTO VRB03KT 10SM CLR 14/M05 A3013 RMK AO2 SLP181 T01391050,KINW,2022-10-31T18:56:00Z,35.03,-110.72,13.9,-5.0,0,3,,10.0,30.129921,1018.1,,TRUE,TRUE,,,,,,,CLR,,,,,,,,VFR,,,,,,,,,,,,METAR,1492.0
KILE 311856Z AUTO 00000KT 10SM 24/10 A3003 RMK AO2 SLP160 T02390100 $,KILE,2022-10-31T18:56:00Z,31.08,-97.68,23.9,10.0,0,0,,10.0,30.029528,1016.0,,TRUE,TRUE,TRUE,,,,,,,,,,,,,,,,,,,,,,,,,,METAR,256.0
KHYS 311856Z AUTO 20008G15KT 170V230 10SM CLR 21/M03 A2995 RMK AO2 SLP143 T02111028 $,KHYS,2022-10-31T18:56:00Z,38.85,-99.27,21.1,-2.8,200,8,15,10.0,29.949802,1014.3,,TRUE,TRUE,TRUE,,,,,,CLR,,,,,,,,VFR,,,,,,,,,,,,METAR,607.0
KHWV 311856Z AUTO 18007KT 10SM BKN033 17/10 A3002 RMK AO2 SLP166 T01720100,KHWV,2022-10-31T18:56:00Z,40.82,-72.87,17.2,10.0,180,7,,10.0,30.02067,1016.6,,TRUE,TRUE,,,,,,,BKN,3300,,,,,,,VFR,,,,,,,,,,,,METAR,20.0
KHPN 311856Z VRB06KT 10SM BKN120 17/09 A3000 RMK AO2 SLP158 T01720094,KHPN,2022-10-31T18:56:00Z,41.07,-73.7,17.2,9.4,0,6,,10.0,30.0,1015.8,,,TRUE,,,,,,,BKN,12000,,,,,,,VFR,,,,,,,,,,,,SPECI,113.0
KHND 311856Z VRB05KT 10SM CLR 20/M06 A3005 RMK AO2 SLP181 T02001056,KHND,2022-10-31T18:56:00Z,35.98,-115.13,20.0,-5.6,0,5,,10.0,30.050198,1018.1,,,TRUE,,,,,,,CLR,,,,,,,,VFR,,,,,,,,,,,,METAR,740.0
KHEZ 311856Z AUTO 09003KT 10SM OVC042 22/12 A3003 RMK AO2 SLP167 T02220122,KHEZ,2022-10-31T18:56:00Z,31.62,-91.3,22.2,12.2,90,3,,10.0,30.029528,1016.7,,TRUE,TRUE,,,,,,,OVC,4200,,,,,,,VFR,,,,,,,,,,,,METAR,82.0
KHDN 311856Z AUTO VRB04KT 10SM CLR 09/M06 A3015 RMK AO2 SLP200 T00891056,KHDN,2022-10-31T18:56:00Z,40.48,-107.22,8.9,-5.6,0,4,,10.0,30.15059,1020.0,,TRUE,TRUE,,,,,,,CLR,,,,,,,,VFR,,,,,,,,,,,,METAR,2012.0
KGXY 311856Z 09005KT 10SM CLR 17/M04 A2997 RMK AO2 SLP150 T01721039 $,KGXY,2022-10-31T18:56:00Z,40.43,-104.62,17.2,-3.9,90,5,,10.0,29.970472,1015.0,,,TRUE,TRUE,,,,,,CLR,,,,,,,,VFR,,,,,,,,,,,,METAR,1420.0
KGVQ 311856Z AUTO 10006KT 10SM OVC032 14/09 A2987 RMK AO2 SLP115 T01440094,KGVQ,2022-10-31T18:56:00Z,43.03,-78.17,14.4,9.4,100,6,,10.0,29.870079,1011.5,,TRUE,TRUE,,,,,,,OVC,3200,,,,,,,VFR,,,,,,,,,,,,METAR,279.0
KGUC 311856Z AUTO 25006KT 10SM CLR 07/M07 A3018 RMK AO2 SLP220 T00671067,KGUC,2022-10-31T18:56:00Z,38.52,-106.93,6.7,-6.7,250,6,,10.0,30.180119,1022.0,,TRUE,TRUE,,,,,,,CLR,,,,,,,,VFR,,,,,,,,,,,,METAR,2337.0
KGTU 311856Z 16005KT 10SM CLR 24/10 A3003 RMK AO2 SLP167 T02440100,KGTU,2022-10-31T18:56:00Z,30.68,-97.68,24.4,10.0,160,5,,10.0,30.029528,1016.7,,,TRUE,,,,,,,CLR,,,,,,,,VFR,,,,,,,,,,,,METAR,232.0
KGTR 311856Z 25007KT 10SM BKN035 OVC060 21/14 A2999 RMK AO2 SLP162 T02060139,KGTR,2022-10-31T18:56:00Z,33.45,-88.58,20.6,13.9,250,7,,10.0,29.991142,1016.2,,,TRUE,,,,,,,BKN,3500,OVC,6000,,,,,VFR,,,,,,,,,,,,METAR,80.0
KGRD 311856Z AUTO 02004KT 1 1/4SM -RA BR OVC002 17/16 A3001 RMK AO2 RAB51 SLP158 P0001 T01670161,KGRD,2022-10-31T18:56:00Z,34.25,-82.15,16.7,16.1,20,4,,1.25,30.008858,1015.8,,TRUE,TRUE,,,,,,-RA BR,OVC,200,,,,,,,LIFR,,,,,,0.01,,,,,,METAR,188.0
KGPZ 311856Z AUTO 21008KT 10SM CLR 17/M01 A2976 RMK AO2 SLP087 T01671006,KGPZ,2022-10-31T18:56:00Z,47.22,-93.52,16.7,-0.6,210,8,,10.0,29.760826,1008.7,,TRUE,TRUE,,,,,,,CLR,,,,,,,,VFR,,,,,,,,,,,,METAR,410.0
KGON 311856Z 21006KT 10SM FEW029 BKN036 18/12 A3001 RMK AO2 SLP163 T01780122,KGON,2022-10-31T18:56:00Z,41.33,-72.05,17.8,12.2,210,6,,10.0,30.008858,1016.3,,,TRUE,,,,,,,FEW,2900,BKN,3600,,,,,VFR,,,,,,,,,,,,METAR,2.0
KGNR 311856Z AUTO 11004KT 16/M03 A2991 RMK AO1 SLP132 T01611033,KGNR,2022-10-31T18:56:00Z,45.47,-69.55,16.1,-3.3,110,4,,,29.911417,1013.2,,TRUE,TRUE,,,,,,,,,,,,,,,,,,,,,,,,,,,METAR,426.0
KGNA 311856Z AUTO 25010KT 09/04 A2975 RMK AO1 SLP080 T00940044,KGNA,2022-10-31T18:56:00Z,47.75,-90.35,9.4,4.4,250,10,,,29.749016,1008.0,,TRUE,TRUE,,,,,,,,,,,,,,,,,,,,,,,,,,,METAR,186.0
KGDV 311856Z AUTO 21012KT 10SM CLR 16/00 A2973 RMK AO2 SLP072 T01610000,KGDV,2022-10-31T18:56:00Z,47.13,-104.8,16.1,0.0,210,12,,10.0,29.731298,1007.2,,TRUE,TRUE,,,,,,,CLR,,,,,,,,VFR,,,,,,,,,,,,METAR,749.0
KGBD 311856Z AUTO 19004KT 10SM CLR 22/M03 A2997 RMK AO2 SLP145 T02221033,KGBD,2022-10-31T18:56:00Z,38.35,-98.87,22.2,-3.3,190,4,,10.0,29.970472,1014.5,,TRUE,TRUE,,,,,,,CLR,,,,,,,,VFR,,,,,,,,,,,,METAR,573.0
KGAI 311856Z AUTO 15005KT 10SM BKN020 BKN060 OVC100 18/14 A3000 RMK AO2 SLP172 T01780139,KGAI,2022-10-31T18:56:00Z,39.17,-77.17,17.8,13.9,150,5,,10.0,30.0,1017.2,,TRUE,TRUE,,,,,,,BKN,2000,BKN,6000,OVC,10000,,,MVFR,,,,,,,,,,,,METAR,151.0
KGAD 311856Z AUTO 22006KT 10SM FEW027 OVC055 19/14 A3000 RMK AO2 SLP160 P0003 T01940139 $,KGAD,2022-10-31T18:56:00Z,33.97,-86.08,19.4,13.9,220,6,,10.0,30.0,1016.0,,TRUE,TRUE,TRUE,,,,,,FEW,2700,OVC,5500,,,,,VFR,,,,,,0.03,,,,,,METAR,169.0
KFSD 311856Z 17007KT 10SM BKN250 19/01 A2982 RMK AO2 SLP104 T01890011,KFSD,2022-10-31T18:56:00Z,43.58,-96.75,18.9,1.1,170,7,,10.0,29.819881,1010.4,,,TRUE,,,,,,,BKN,25000,,,,,,,VFR,,,,,,,,,,,,METAR,433.0
KFRM 311856Z AUTO 25007KT 10SM CLR 18/M02 A2985 RMK AO2 SLP115 T01831017,KFRM,2022-10-31T18:56:00Z,43.63,-94.42,18.3,-1.7,250,7,,10.0,29.84941,1011.5,,TRUE,TRUE,,,,,,,CLR,,,,,,,,VFR,,,,,,,,,,,,METAR,353.0
KFNL 311856Z 16006KT 10SM CLR 17/M07 A2997 RMK AO2 SLP121 T01721067,KFNL,2022-10-31T18:56:00Z,40.45,-105.02,17.2,-6.7,160,6,,10.0,29.970472,1012.1,,,TRUE,,,,,,,CLR,,,,,,,,VFR,,,,,,,,,,,,METAR,1529.0
KFLP 311856Z AUTO 23005KT 10SM CLR 21/10 A2996 RMK AO2 SLP141 T02110100,KFLP,2022-10-31T18:56:00Z,36.28,-92.58,21.1,10.0,230,5,,10.0,29.958662,1014.1,,TRUE,TRUE,,,,,,,CLR,,,,,,,,VFR,,,,,,,,,,,,METAR,215.0
KFCI 311856Z AUTO 16007KT 10SM BKN095 21/14 A3002 RMK AO2 SLP175 T02110139,KFCI,2022-10-31T18:56:00Z,37.4,-77.52,21.1,13.9,160,7,,10.0,30.02067,1017.5,,TRUE,TRUE,,,,,,,BKN,9500,,,,,,,VFR,,,,,,,,,,,,METAR,63.0
KFAM 311856Z AUTO 29008KT 10SM OVC019 16/11 A2992 RMK AO2 SLP138 T01560111,KFAM,2022-10-31T18:56:00Z,37.77,-90.42,15.6,11.1,290,8,,10.0,29.920275,1013.8,,TRUE,TRUE,,,,,,,OVC,1900,,,,,,,MVFR,,,,,,,,,,,,METAR,276.0
KEWK 311856Z AUTO VRB05KT 10SM CLR 20/M01 A2998 RMK AO2 SLP145 T02001011,KEWK,2022-10-31T18:56:00Z,38.05,-97.27,20.0,-1.1,0,5,,10.0,29.97933,1014.5,,TRUE,TRUE,,,,,,,CLR,,,,,,,,VFR,,,,,,,,,,,,METAR,468.0
KESC 311856Z AUTO 17008KT 10SM CLR 14/06 A2978 RMK AO2 SLP091 T01440056 PNO $,KESC,2022-10-31T18:56:00Z,45.72,-87.08,14.4,5.6,170,8,,10.0,29.778543,1009.1,,TRUE,TRUE,TRUE,,,,,,CLR,,,,,,,,VFR,,,,,,,,,,,,METAR,180.0
KENV 311856Z AUTO 09007KT 10SM CLR 09/M05 A3012 RMK AO2 SLP206 T00891050,KENV,2022-10-31T18:56:00Z,40.72,-114.02,8.9,-5.0,90,7,,10.0,30.121063,1020.6,,TRUE,TRUE,,,,,,,CLR,,,,,,,,VFR,,,,,,,,,,,,METAR,1291.0
KEKY 311856Z AUTO 24005KT 10SM FEW024 OVC050 20/14 A3001 RMK AO2 SLP009 T02000144,KEKY,2022-10-31T18:56:00Z,33.32,-86.93,20.0,14.4,240,5,,10.0,30.008858,1000.9,,TRUE,TRUE,,,,,,,FEW,2400,OVC,5000,,,,,VFR,,,,,,,,,,,,METAR,213.0
KEKQ 311856Z AUTO 25010KT 10SM OVC060 19/13 A2996 RMK AO2 SLP137 T01890133,KEKQ,2022-10-31T18:56:00Z,36.85,-84.85,18.9,13.3,250,10,,10.0,29.958662,1013.7,,TRUE,TRUE,,,,,,,OVC,6000,,,,,,,VFR,,,,,,,,,,,,METAR,291.0
KEGE 311856Z 00000KT 10SM CLR 06/M04 A3019 RMK AO2 SLP127 T00611044,KEGE,2022-10-31T18:56:00Z,39.63,-106.92,6.1,-4.4,0,0,,10.0,30.188976,1012.7,,,TRUE,,,,,,,CLR,,,,,,,,VFR,,,,,,,,,,,,METAR,1993.0
KEEN 311856Z AUTO 19006KT 10SM BKN120 18/08 A2997 RMK AO2 SLP154 T01830083 $,KEEN,2022-10-31T18:56:00Z,42.88,-72.27,18.3,8.3,190,6,,10.0,29.970472,1015.4,,TRUE,TRUE,TRUE,,,,,,BKN,12000,,,,,,,VFR,,,,,,,,,,,,METAR,143.0
KEED 311856Z AUTO 34011G18KT 10SM CLR 26/M04 A2995 RMK AO2 SLP118 T02561039,KEED,2022-10-31T18:56:00Z,34.77,-114.62,25.6,-3.9,340,11,18,10.0,29.949802,1011.8,,TRUE,TRUE,,,,,,,CLR,,,,,,,,VFR,,,,,,,,,,,,METAR,271.0
KEAU 311856Z 27008KT 10SM CLR 17/04 A2982 RMK AO2 SLP102 T01720039,KEAU,2022-10-31T18:56:00Z,44.87,-91.48,17.2,3.9,270,8,,10.0,29.819881,1010.2,,,TRUE,,,,,,,CLR,,,,,,,,VFR,,,,,,,,,,,,METAR,271.0
KEAR 311856Z AUTO 20013KT 10SM CLR 21/M01 A2989 RMK AO2 SLP121 T02061011,KEAR,2022-10-31T18:56:00Z,40.72,-99.0,20.6,-1.1,200,13,,10.0,29.890747,1012.1,,TRUE,TRUE,,,,,,,CLR,,,,,,,,VFR,,,,,,,,,,,,METAR,649.0
KDWU 311856Z AUTO 21008KT 10SM FEW025 BKN060 OVC070 20/16 A2990 RMK AO2 SLP125 T02000156,KDWU,2022-10-31T18:56:00Z,38.55,-82.73,20.0,15.6,210,8,,10.0,29.899607,1012.5,,TRUE,TRUE,,,,,,,FEW,2500,BKN,6000,OVC,7000,,,VFR,,,,,,,,,,,,METAR,165.0
KDVL 311856Z AUTO 24010KT 10SM CLR 13/02 A2970 RMK AO2 SLP076 T01330022,KDVL,2022-10-31T18:56:00Z,48.12,-98.92,13.3,2.2,240,10,,10.0,29.698818,1007.6,,TRUE,TRUE,,,,,,,CLR,,,,,,,,VFR,,,,,,,,,,,,METAR,439.0
KDIK 311856Z AUTO 26007KT 10SM CLR 16/00 A2974 RMK AO2 SLP071 T01610000,KDIK,2022-10-31T18:56:00Z,46.8,-102.8,16.1,0.0,260,7,,10.0,29.740158,1007.1,,TRUE,TRUE,,,,,,,CLR,,,,,,,,VFR,,,,,,,,,,,,METAR,788.0
KDIJ 311856Z AUTO 19007KT 10SM SCT048 10/M02 A3012 RMK AO2 SLP194 T01001022,KDIJ,2022-10-31T18:56:00Z,43.75,-111.1,10.0,-2.2,190,7,,10.0,30.121063,1019.4,,TRUE,TRUE,,,,,,,SCT,4800,,,,,,,VFR,,,,,,,,,,,,METAR,1896.0
KDAY 311856Z 22011KT 10SM SCT021 BKN060 OVC075 18/13 A2986 RMK AO2 CIG 044 RWY 6L SLP109 T01780128,KDAY,2022-10-31T18:56:00Z,39.9,-84.22,17.8,12.8,220,11,,10.0,29.861221,1010.9,,,TRUE,,,,,,,SCT,2100,BKN,6000,OVC,7500,,,VFR,,,,,,,,,,,,METAR,303.0
KCXY 311856Z 00000KT 10SM BKN021 OVC100 16/11 A2999 RMK AO2 RAB00E11 SLP158 P0000 T01610111,KCXY,2022-10-31T18:56:00Z,40.22,-76.85,16.1,11.1,0,0,,10.0,29.991142,1015.8,,,TRUE,,,,,,,BKN,2100,OVC,10000,,,,,MVFR,,,,,,0.005,,,,,,METAR,102.0
KCWI 311856Z AUTO 32006KT 10SM CLR 19/06 A2984 RMK AO2 SLP108 T01890056,KCWI,2022-10-31T18:56:00Z,41.82,-90.32,18.9,5.6,320,6,,10.0,29.840551,1010.8,,TRUE,TRUE,,,,,,,CLR,,,,,,,,VFR,,,,,,,,,,,,METAR,212.0
KCVN 311856Z AUTO 20012KT 10SM CLR 20/03 A3006 RMK AO2 SLP160 T02000033,KCVN,2022-10-31T18:56:00Z,34.42,-103.07,20.0,3.3,200,12,,10.0,30.059055,1016.0,,TRUE,TRUE,,,,,,,CLR,,,,,,,,VFR,,,,,,,,,,,,METAR,1278.0
KCTB 311856Z AUTO 26023G32KT 10SM CLR 13/03 A2966 RMK AO2 PK WND 28038/1801 SLP033 T01330028,KCTB,2022-10-31T18:56:00Z,48.6,-112.37,13.3,2.8,260,23,32,10.0,29.660433,1003.3,,TRUE,TRUE,,,,,,,CLR,,,,,,,,VFR,,,,,,,,,,,,METAR,1172.0
KCOE 311856Z AUTO 20006KT 10SM -RA OVC022 10/08 A2980 RMK AO2 RAB01 SLP108 T01000078 PNO $,KCOE,2022-10-31T18:56:00Z,47.77,-116.82,10.0,7.8,200,6,,10.0,29.799213,1010.8,,TRUE,TRUE,TRUE,,,,,-RA,OVC,2200,,,,,,,MVFR,,,,,,,,,,,,METAR,693.0
KCOD 311856Z AUTO 31008KT 280V360 10SM CLR 13/M03 A2992 RMK AO2 SLP112 T01281028,KCOD,2022-10-31T18:56:00Z,44.52,-109.02,12.8,-2.8,310,8,,10.0,29.920275,1011.2,,TRUE,TRUE,,,,,,,CLR,,,,,,,,VFR,,,,,,,,,,,,METAR,1550.0
KCHS 311856Z 18014KT 10SM BKN035 BKN050 BKN120 27/19 A2999 RMK AO2 SLP154 T02670189 $,KCHS,2022-10-31T18:56:00Z,32.9,-80.03,26.7,18.9,180,14,,10.0,29.991142,1015.4,,,TRUE,TRUE,,,,,,BKN,3500,BKN,5000,BKN,12000,,,VFR,,,,,,,,,,,,METAR,12.0
KCGZ 311856Z AUTO 00000KT 10SM CLR 22/M01 A2997 RMK AO2 SLP142 T02221006 $,KCGZ,2022-10-31T18:56:00Z,32.95,-111.77,22.2,-0.6,0,0,,10.0,29.970472,1014.2,,TRUE,TRUE,TRUE,,,,,,CLR,,,,,,,,VFR,,,,,,,,,,,,METAR,444.0
KCEC 311856Z AUTO 19005KT 4SM HZ CLR 14/10 A3000 RMK AO2 SLP160 T01440100,KCEC,2022-10-31T18:56:00Z,41.78,-124.23,14.4,10.0,190,5,,4.0,30.0,1016.0,,TRUE,TRUE,,,,,,HZ,CLR,,,,,,,,MVFR,,,,,,,,,,,,METAR,17.0
KCAE 311856Z 19008KT 10SM FEW022 SCT060 BKN080 BKN160 26/19 A2997 RMK AO2 SLP145 T02560189,KCAE,2022-10-31T18:56:00Z,33.93,-81.12,25.6,18.9,190,8,,10.0,29.970472,1014.5,,,TRUE,,,,,,,FEW,2200,SCT,6000,BKN,8000,BKN,16000,VFR,,,,,,,,,,,,METAR,69.0
KBVX 311856Z AUTO 32005KT 10SM FEW047 20/10 A2996 RMK AO2 SLP143 T02000100,KBVX,2022-10-31T18:56:00Z,35.73,-91.65,20.0,10.0,320,5,,10.0,29.958662,1014.3,,TRUE,TRUE,,,,,,,FEW,4700,,,,,,,VFR,,,,,,,,,,,,METAR,137.0
KBOK 311856Z AUTO 14003KT 10SM CLR 12/09 A3000 RMK AO2 SLP162 T01170094 $,KBOK,2022-10-31T18:56:00Z,42.07,-124.28,11.7,9.4,140,3,,10.0,30.0,1016.2,,TRUE,TRUE,TRUE,,,,,,CLR,,,,,,,,VFR,,,,,,,,,,,,METAR,140.0
KBMI 311856Z 31006KT 1 1/4SM -RA BR OVC003 13/13 A2985 RMK AO2 RAE33B54 SLP103 P0000 T01330133,KBMI,2022-10-31T18:56:00Z,40.47,-88.92,13.3,13.3,310,6,,1.25,29.84941,1010.3,,,TRUE,,,,,,-RA BR,OVC,300,,,,,,,LIFR,,,,,,0.005,,,,,,METAR,262.0
KBLM 311856Z AUTO 22007KT 10SM BKN035 BKN120 20/12 A3002 RMK AO2 SLP164 T02000122,KBLM,2022-10-31T18:56:00Z,40.17,-74.12,20.0,12.2,220,7,,10.0,30.02067,1016.4,,TRUE,TRUE,,,,,,,BKN,3500,BKN,12000,,,,,VFR,,,,,,,,,,,,METAR,45.0
KBKX 311856Z AUTO 20010KT 10SM CLR 18/02 A2981 RMK AO2 SLPNO T01830017,KBKX,2022-10-31T18:56:00Z,44.3,-96.82,18.3,1.7,200,10,,10.0,29.811024,,,TRUE,TRUE,,,,,,,CLR,,,,,,,,VFR,,,,,,,,,,,,METAR,494.0
KBJJ 311856Z AUTO 23011KT 10SM FEW030 BKN048 OVC060 18/13 A2986 RMK AO2 SLP110 T01780128,KBJJ,2022-10-31T18:56:00Z,40.87,-81.88,17.8,12.8,230,11,,10.0,29.861221,1011.0,,TRUE,TRUE,,,,,,,FEW,3000,BKN,4800,OVC,6000,,,VFR,,,,,,,,,,,,METAR,338.0
KBIH 311856Z AUTO 00000KT 10SM CLR 16/M09 A3004 RMK AO2 SLP156 T01611094,KBIH,2022-10-31T18:56:00Z,37.37,-118.35,16.1,-9.4,0,0,,10.0,30.041338,1015.6,,TRUE,TRUE,,,,,,,CLR,,,,,,,,VFR,,,,,,,,,,,,METAR,1252.0
KBID 311856Z AUTO 00000KT 10SM OVC012 16/13 A3003 RMK AO2 SLP168 T01560133,KBID,2022-10-31T18:56:00Z,41.17,-71.58,15.6,13.3,0,0,,10.0,30.029528,1016.8,,TRUE,TRUE,,,,,,,OVC,1200,,,,,,,MVFR,,,,,,,,,,,,METAR,32.0
KBHB 311856Z AUTO 20011KT 10SM CLR 15/11 A2998 RMK AO2 SLP153 T01500111 PNO $,KBHB,2022-10-31T18:56:00Z,44.45,-68.37,15.0,11.1,200,11,,10.0,29.97933,1015.3,,TRUE,TRUE,TRUE,,,,,,CLR,,,,,,,,VFR,,,,,,,,,,,,METAR,21.0
KAWO 311856Z AUTO 34006KT 10SM -RA OVC055 11/08 A2984 RMK AO2 RAB23 SLP110 P0000 T01060078,KAWO,2022-10-31T18:56:00Z,48.17,-122.17,10.6,7.8,340,6,,10.0,29.840551,1011.0,,TRUE,TRUE,,,,,,-RA,OVC,5500,,,,,,,VFR,,,,,,0.005,,,,,,METAR,38.0
KAUO 311856Z AUTO 22012KT 10SM SCT039 22/14 A3001 RMK AO2 SLP175 T02220139,KAUO,2022-10-31T18:56:00Z,32.62,-85.43,22.2,13.9,220,12,,10.0,30.008858,1017.5,,TRUE,TRUE,,,,,,,SCT,3900,,,,,,,VFR,,,,,,,,,,,,METAR,231.0
KASH 311856Z VRB05KT 10SM CLR 19/09 A2997 RMK AO2 SLP153 T01940089 $,KASH,2022-10-31T18:56:00Z,42.78,-71.52,19.4,8.9,0,5,,10.0,29.970472,1015.3,,,TRUE,TRUE,,,,,,CLR,,,,,,,,VFR,,,,,,,,,,,,METAR,56.0
KART 311856Z AUTO 25006KT 10SM -RA FEW060 SCT070 OVC095 15/07 A2991 RMK AO2 RAB38 SLP126 P0000 T01500072,KART,2022-10-31T18:56:00Z,43.98,-76.03,15.0,7.2,250,6,,10.0,29.911417,1012.6,,TRUE,TRUE,,,,,,-RA,FEW,6000,SCT,7000,OVC,9500,,,VFR,,,,,,0.005,,,,,,METAR,100.0
KARG 311856Z AUTO 28011KT 10SM SCT040 OVC050 20/11 A2994 RMK AO2 SLP140 T02000106,KARG,2022-10-31T18:56:00Z,36.12,-90.92,20.0,10.6,280,11,,10.0,29.940945,1014.0,,TRUE,TRUE,,,,,,,SCT,4000,OVC,5000,,,,,VFR,,,,,,,,,,,,METAR,82.0
KAND 311856Z AUTO 07003KT 10SM OVC005 17/16 A2999 RMK AO2 SLP152 T01720156,KAND,2022-10-31T18:56:00Z,34.5,-82.72,17.2,15.6,70,3,,10.0,29.991142,1015.2,,TRUE,TRUE,,,,,,,OVC,500,,,,,,,IFR,,,,,,,,,,,,METAR,233.0
KALK 311856Z AUTO 07006G15KT 10SM CLR 21/M04 A3006 RMK AO2 SLP108 T02111044,KALK,2022-10-31T18:56:00Z,31.6,-110.43,21.1,-4.4,70,6,15,10.0,30.059055,1010.8,,TRUE,TRUE,,,,,,,CLR,,,,,,,,VFR,,,,,,,,,,,,METAR,1451.0
KAJO 311856Z AUTO 00000KT 10SM CLR 26/06 A2990 RMK AO2 SLP120 T02610061,KAJO,2022-10-31T18:56:00Z,33.9,-117.6,26.1,6.1,0,0,,10.0,29.899607,1012.0,,TRUE,TRUE,,,,,,,CLR,,,,,,,,VFR,,,,,,,,,,,,METAR,161.0
KAIZ 311856Z AUTO 26010KT 10SM CLR 19/05 RMK AO2 SLPNO T01940050 $,KAIZ,2022-10-31T18:56:00Z,38.1,-92.53,19.4,5.0,260,10,,10.0,,,,TRUE,TRUE,TRUE,,,,,,CLR,,,,,,,,VFR,,,,,,,,,,,,METAR,263.0
KAFJ 311856Z AUTO 22008KT 10SM OVC011 17/15 A2994 RMK AO2 SLP139 T01670150,KAFJ,2022-10-31T18:56:00Z,40.13,-80.28,16.7,15.0,220,8,,10.0,29.940945,1013.9,,TRUE,TRUE,,,,,,,OVC,1100,,,,,,,MVFR,,,,,,,,,,,,METAR,360.0
K8D3 311856Z AUTO 22012KT 21/M03 A2975 RMK AO1 SLP071 T02061028,K8D3,2022-10-31T18:56:00Z,45.67,-96.98,20.6,-2.8,220,12,,,29.749016,1007.1,,TRUE,TRUE,,,,,,,,,,,,,,,,,,,,,,,,,,,METAR,535.0
K7N0 311856Z AUTO VRB05KT 10SM CLR 24/13 A3003 RMK AO2 SLP168 T02390133 PNO $,K7N0,2022-10-31T18:56:00Z,29.95,-90.07,23.9,13.3,0,5,,10.0,30.029528,1016.8,,TRUE,TRUE,TRUE,,,,,,CLR,,,,,,,,VFR,,,,,,,,,,,,METAR,0.0
K79J 311856Z AUTO 27006KT 10SM CLR 25/12 A2999 RMK AO2 SLP152 T02500122 $,K79J,2022-10-31T18:56:00Z,31.32,-86.4,25.0,12.2,270,6,,10.0,29.991142,1015.2,,TRUE,TRUE,TRUE,,,,,,CLR,,,,,,,,VFR,,,,,,,,,,,,METAR,93.0
K2WX 311856Z AUTO 26016G22KT 19/M04 A2976 RMK AO1 SLP074 T01891039,K2WX,2022-10-31T18:56:00Z,45.6,-103.55,18.9,-3.9,260,16,22,,29.760826,1007.4,,TRUE,TRUE,,,,,,,,,,,,,,,,,,,,,,,,,,,METAR,925.0
K1M4 311856Z AUTO 21006KT 10SM BKN016 BKN023 OVC049 17/14 A3001 RMK AO2 SLP154 T01720144,K1M4,2022-10-31T18:56:00Z,34.28,-87.6,17.2,14.4,210,6,,10.0,30.008858,1015.4,,TRUE,TRUE,,,,,,,BKN,1600,BKN,2300,OVC,4900,,,MVFR,,,,,,,,,,,,METAR,283.0
ETOU 311856Z 00000KT 9999 SCT150 14/11 A3001 RMK AO2A SLPNO RVRNO,ETOU,2022-10-31T18:56:00Z,50.03,8.32,14.0,11.0,0,0,,6.21,30.008858,,,,TRUE,,,,,,,SCT,15000,,,,,,,VFR,,,,,,,,,,,,METAR,141.0
TXKF 311855Z 34015G25KT 9999 FEW028 26/20 Q1012 ,TXKF,2022-10-31T18:55:00Z,32.37,-64.68,26.0,20.0,340,15,25,6.21,29.88189,,,,,,,,,,,FEW,2800,,,,,,,VFR,,,,,,,,,,,,METAR,4.0
TNCE 311855Z AUTO 09010KT 050V140 //// // ///////// 30/25 Q1012 RE//,TNCE,2022-10-31T18:55:00Z,17.48,-62.97,30.0,25.0,90,10,,,29.88189,,,TRUE,,,,,,,,,,,,,,,,,,,,,,,,,,,,METAR,38.0
TNCB 311855Z 09009KT 9999 SCT016 SCT025 27/26 Q1009,TNCB,2022-10-31T18:55:00Z,12.13,-68.28,27.0,26.0,90,9,,6.21,29.793306,,,,,,,,,,,SCT,1600,SCT,2500,,,,,VFR,,,,,,,,,,,,METAR,6.0
RKSO 311855Z 08003KT 1 1/4SM BR FEW001 08/08 A3020 RMK AO2A SLP230 T00820082 TSNO CHINO RWY09 $,RKSO,2022-10-31T18:55:00Z,37.08,127.02,8.2,8.2,80,3,,1.25,30.200787,1023.0,,,TRUE,TRUE,,TRUE,,,BR,FEW,100,,,,,,,IFR,,,,,,,,,,,,METAR,10.0
RKSG 311855Z 00000KT 2SM BR FEW100 10/09 A3018 RMK AO2A SLP223 T00960094 TSNO $,RKSG,2022-10-31T18:55:00Z,36.97,127.02,9.6,9.4,0,0,,2.0,30.180119,1022.3,,,TRUE,TRUE,,TRUE,,,BR,FEW,10000,,,,,,,IFR,,,,,,,,,,,,METAR,12.0
RJTY 311855Z AUTO 33003KT 10SM OVC095 11/07 A3030 RMK AO2 SLP264 T01050068 $,RJTY,2022-10-31T18:55:00Z,35.75,139.33,10.5,6.8,330,3,,10.0,30.301182,1026.4,,TRUE,TRUE,TRUE,,,,,,OVC,9500,,,,,,,VFR,,,,,,,,,,,,METAR,136.0
PWAK 311855Z AUTO 05010KT 9999 SCT060 27/24 A2987 RMK AO2 SLP121 T02690235 $,PWAK,2022-10-31T18:55:00Z,19.28,166.62,26.9,23.5,50,10,,6.21,29.870079,1012.1,,TRUE,TRUE,TRUE,,,,,,SCT,6000,,,,,,,VFR,,,,,,,,,,,,METAR,7.0
PAIM 311855Z AUTO 00000KT 10SM -SHSN OVC070 M12/M12 A2996 RMK AO2 SHSNB1755 SLP185 T11161124,PAIM,2022-10-31T18:55:00Z,66.0,-153.7,-11.6,-12.4,0,0,,10.0,29.958662,1018.5,,TRUE,TRUE,,,,,,-SHSN,OVC,7000,,,,,,,VFR,,,,,,,,,,,,METAR,309.0
PAEI 311855Z 00000KT 10SM -SN BKN025 BKN030 OVC035 M16/M18 A2995 RMK AO2A SLPNO PCPN VRY LGT,PAEI,2022-10-31T18:55:00Z,64.67,-147.1,-16.0,-18.0,0,0,,10.0,29.949802,,,,TRUE,,,,,,-SN,BKN,2500,BKN,3000,OVC,3500,,,MVFR,,,,,,,,,,,,METAR,166.0
PAEH 311855Z 09003KT 10SM BKN046 M02/M07 A3021 RMK AO2A SLP241,PAEH,2022-10-31T18:55:00Z,58.65,-162.07,-2.0,-7.0,90,3,,10.0,30.209646,1024.1,,,TRUE,,,,,,,BKN,4600,,,,,,,VFR,,,,,,,,,,,,METAR,101.0
PACZ 311855Z 12008KT 10SM CLR M05/M11 A3011 RMK AO2A SLP207,PACZ,2022-10-31T18:55:00Z,61.78,-166.03,-5.0,-11.0,120,8,,10.0,30.109253,1020.7,,,TRUE,,,,,,,CLR,,,,,,,,VFR,,,,,,,,,,,,METAR,129.0
OTBH 311855Z 00000KT 9999 CLR 27/23 A2996 RMK AO2A SLPNO ALSTG ESTMD T02700226 PWINO FZRANO TSNO CHINO RWY34 $,OTBH,2022-10-31T18:55:00Z,25.12,51.32,27.0,22.6,0,0,,6.21,29.958662,,,,TRUE,TRUE,,TRUE,TRUE,TRUE,,CLR,,,,,,,,VFR,,,,,,,,,,,,SPECI,40.0
OPFA 311855Z 00000KT 4000 FU NSC 22/16 Q1014 NOSIG,OPFA,2022-10-31T18:55:00Z,31.37,73.0,22.0,16.0,0,0,,2.49,29.940945,,,,,,TRUE,,,,FU,CLR,,,,,,,,IFR,,,,,,,,,,,,METAR,180.0
OKAS 311855Z 14010KT 9999 FEW200 26/14 A2988 RMK AO2A SLP111 $,OKAS,2022-10-31T18:55:00Z,29.35,47.52,26.0,14.0,140,10,,6.21,29.878937,1011.1,,,TRUE,TRUE,,,,,,FEW,20000,,,,,,,VFR,,,,,,,,,,,,METAR,144.0
OEPS 311855Z 15006KT 9999 CLR 25/03 A3012 RMK A02A SLP167 WND DATA ESTMD T02510030 $,OEPS,2022-10-31T18:55:00Z,24.07,47.58,25.1,3.0,150,6,,6.21,30.121063,1016.7,,,TRUE,TRUE,,,,,,CLR,,,,,,,,VFR,,,,,,,,,,,,METAR,503.0
NZFX 311855Z 05006KT 9999 FEW015 SCT120 M22/M24 A2894 RMK SLP794 LSR10 GRID22006KT SDG/HDG,NZFX,2022-10-31T18:55:00Z,-77.95,166.77,-22.0,-24.0,50,6,,6.21,28.93996,979.4,,,,,,,,,,FEW,1500,SCT,12000,,,,,VFR,,,,,,,,,,,,METAR,10.0
NZCM 311855Z AUTO 00000KT 9999 CLR M10/M15 A2892 RMK AO2 SLP799 T10951147,NZCM,2022-10-31T18:55:00Z,-77.85,166.67,-9.5,-14.7,0,0,,6.21,28.91929,979.9,,TRUE,TRUE,,,,,,,CLR,,,,,,,,VFR,,,,,,,,,,,,METAR,24.0
MMSP 311855Z 00000KT 10SM SKC 24/02 A3010 RMK CI,MMSP,2022-10-31T18:55:00Z,22.25,-100.93,24.0,2.0,0,0,,10.0,30.100393,,,,,,,,,,,SKC,,,,,,,,VFR,,,,,,,,,,,,SPECI,1841.0
LIVT 311855Z AUTO 06002KT //// 17/15 Q1021,LIVT,2022-10-31T18:55:00Z,45.68,13.75,17.0,15.0,60,2,,,30.147638,,,TRUE,,,,,,,,,,,,,,,,,,,,,,,,,,,,SPECI,20.0
LIVR 311855Z 17009KT CAVOK 08/M01 Q1027 RMK SKC MON LIB VIS MIN 9999,LIVR,2022-10-31T18:55:00Z,46.28,11.78,8.0,-1.0,170,9,,6.21,30.324802,,,,,,,,,,,CAVOK,,,,,,,,VFR,,,,,,,,,,,,SPECI,1997.0
LIVP 311855Z 20015KT CAVOK 07/M04 Q1027,LIVP,2022-10-31T18:55:00Z,46.15,11.03,7.0,-4.0,200,15,,6.21,30.324802,,,,,,,,,,,CAVOK,,,,,,,,VFR,,,,,,,,,,,,METAR,2099.0
LIVM 311855Z AUTO VRB01KT //// 18/15 Q1021,LIVM,2022-10-31T18:55:00Z,44.45,12.3,18.0,15.0,0,1,,,30.147638,,,TRUE,,,,,,,,,,,,,,,,,,,,,,,,,,,,SPECI,6.0
LIVF 311855Z 11002KT CAVOK 17/05 Q1022,LIVF,2022-10-31T18:55:00Z,43.52,12.72,17.0,5.0,110,2,,6.21,30.177166,,,,,,,,,,,CAVOK,,,,,,,,VFR,,,,,,,,,,,,METAR,549.0
LIVE 311855Z 15002KT CAVOK 10/03 Q1025 RMK SKC VIS MIN 9999,LIVE,2022-10-31T18:55:00Z,46.82,10.5,10.0,3.0,150,2,,6.21,30.265747,,,,,,,,,,,CAVOK,,,,,,,,VFR,,,,,,,,,,,,SPECI,1684.0
LIVD 311855Z AUTO VRB02KT //// 07/05 Q1026,LIVD,2022-10-31T18:55:00Z,46.72,12.22,7.0,5.0,0,2,,,30.295275,,,TRUE,,,,,,,,,,,,,,,,,,,,,,,,,,,,SPECI,1221.0
LIRX 311855Z 30001KT CAVOK 18/08 Q1022 RMK FEW FEW200 VIS MIN 9999 VIS MAR 20 KM,LIRX,2022-10-31T18:55:00Z,42.73,10.38,18.0,8.0,300,1,,6.21,30.177166,,,,,,,,,,,CAVOK,,,,,,,,VFR,,,,,,,,,,,,SPECI,397.0
LIRS 311855Z 02004KT CAVOK 14/12 Q1022 RMK SCT SCT200 VIS MIN 9999 WIND THR03 04003KT WIND THR21 04004KT BLU,LIRS,2022-10-31T18:55:00Z,42.75,11.07,14.0,12.0,20,4,,6.21,30.177166,,,,,,,,,,,CAVOK,,,,,,,,VFR,,,,,,,,,,,,SPECI,3.0
LIRM 311855Z 33003KT CAVOK 16/13 Q1023 RMK SKC VIS MIN 9999 WIND THR06 35003KT BLU,LIRM,2022-10-31T18:55:00Z,41.05,14.07,16.0,13.0,330,3,,6.21,30.206694,,,,,,,,,,,CAVOK,,,,,,,,VFR,,,,,,,,,,,,METAR,6.0
LIRK 311855Z AUTO 19003KT //// 13/00 Q1033,LIRK,2022-10-31T18:55:00Z,42.47,12.97,13.0,0.0,190,3,,,30.501968,,,TRUE,,,,,,,,,,,,,,,,,,,,,,,,,,,,SPECI,1721.0
LIRE 311855Z 02003KT CAVOK 17/15 Q1022 RMK SKC VIS MIN 9999 WIND THR13 02020KT WIND THR31 /////KT BLU,LIRE,2022-10-31T18:55:00Z,41.65,12.43,17.0,15.0,20,3,,6.21,30.177166,,,,,,,,,,,CAVOK,,,,,,,,VFR,,,,,,,,,,,,SPECI,16.0
LIQO 311855Z AUTO /////KT //// ///// Q////,LIQO,2022-10-31T18:55:00Z,42.38,11.17,,,,,,,,,,TRUE,,,,,,,,,,,,,,,,,,,,,,,,,,,,SPECI,627.0
LIQC 311855Z 00000KT CAVOK 18/16 Q1022 RMK SKC QUK / QUL / VIS MAR 20 KM VIS MIN 9999,LIQC,2022-10-31T18:55:00Z,40.55,14.2,18.0,16.0,0,0,,6.21,30.177166,,,,,,,,,,,CAVOK,,,,,,,,VFR,,,,,,,,,,,,SPECI,154.0
LIPS 311855Z /////KT 6000 NSC 16/14 Q1021,LIPS,2022-10-31T18:55:00Z,45.68,12.1,16.0,14.0,,,,3.73,30.147638,,,,,,,,,,,CLR,,,,,,,,MVFR,,,,,,,,,,,,SPECI,42.0
LIPL 311855Z 07004KT CAVOK 15/13 Q1020 RMK SKC VIS MIN 9999 WIND THR31 06003KT WIND THR13 03002KT BLU,LIPL,2022-10-31T18:55:00Z,45.42,10.27,15.0,13.0,70,4,,6.21,30.11811,,,,,,,,,,,CAVOK,,,,,,,,VFR,,,,,,,,,,,,SPECI,96.0
LIPI 311855Z 36001KT CAVOK 14/12 Q1021 RMK BKN BKN200 VIS MIN 9999 WIND THR06 03002KT WIND THR24 05002KT BLU,LIPI,2022-10-31T18:55:00Z,45.97,13.05,14.0,12.0,360,1,,6.21,30.147638,,,,,,,,,,,CAVOK,,,,,,,,VFR,,,,,,,,,,,,SPECI,49.0
LIPC 311855Z 31002KT 6000 NSC 15/15 Q1021 RMK SCT SCT200 VIS MIN 6000 WIND THR11 34002KT WIND THR29 30002KT WHT,LIPC,2022-10-31T18:55:00Z,44.22,12.3,15.0,15.0,310,2,,3.73,30.147638,,,,,,,,,,,CLR,,,,,,,,MVFR,,,,,,,,,,,,SPECI,10.0
LIPA 311855Z 01005KT 9999 FEW080 16/15 Q1021 RMK FEW VIS MIN 9999 WIND THR05 /////KT WIND THR23 /////KT A3017 BLU,LIPA,2022-10-31T18:55:00Z,46.02,12.58,16.0,15.0,10,5,,6.21,30.147638,,,,,,,,,,,FEW,8000,,,,,,,VFR,,,,,,,,,,,,SPECI,113.0
LIMU 311855Z 15005KT 9999 FEW020 18/15 Q1023 RMK SCT QUK / QUL / VIS MAR 25 KM VIS MIN 9999,LIMU,2022-10-31T18:55:00Z,43.95,8.17,18.0,15.0,150,5,,6.21,30.206694,,,,,,,,,,,FEW,2000,,,,,,,VFR,,,,,,,,,,,,SPECI,215.0
LIMH 311855Z AUTO 19022KT //// M03/M07 Q1030,LIMH,2022-10-31T18:55:00Z,45.93,7.7,-3.0,-7.0,190,22,,,30.413385,,,TRUE,,,,,,,,,,,,,,,,,,,,,,,,,,,,SPECI,3473.0
LIED 311855Z 23002KT 9999 FEW030 18/17 Q1022 RMK SCT SCT200 VIS MIN 9999 WIND THR35 /////KT WIND THR17 30003KT BLU,LIED,2022-10-31T18:55:00Z,39.35,8.97,18.0,17.0,230,2,,6.21,30.177166,,,,,,,,,,,FEW,3000,,,,,,,VFR,,,,,,,,,,,,SPECI,26.0
LIEB 311855Z 29010KT CAVOK 19/16 Q1022 RMK FEW FEW200 QUK / QUL / VIS MAR 20 KM MON INVIS VIS MIN 9999,LIEB,2022-10-31T18:55:00Z,39.93,9.72,19.0,16.0,290,10,,6.21,30.177166,,,,,,,,,,,CAVOK,,,,,,,,VFR,,,,,,,,,,,,METAR,126.0
LICZ 311855Z /////KT CAVOK 20/18 Q1021,LICZ,2022-10-31T18:55:00Z,37.4,14.92,20.0,18.0,,,,6.21,30.147638,,,,,,,,,,,CAVOK,,,,,,,,VFR,,,,,,,,,,,,SPECI,22.0
LICT 311855Z 34001KT CAVOK 17/16 Q1022 RMK SKC VIS MIN 9999 WIND THR13 09002KT BLU,LICT,2022-10-31T18:55:00Z,37.92,12.5,17.0,16.0,340,1,,6.21,30.177166,,,,,,,,,,,CAVOK,,,,,,,,VFR,,,,,,,,,,,,SPECI,4.0
LICF 311855Z 03003KT CAVOK 20/15 Q1022 RMK SKC QUK / QUL / VIS MAR 12 KM MON INVIS NC VIS MIN 9999,LICF,2022-10-31T18:55:00Z,38.2,15.55,20.0,15.0,30,3,,6.21,30.177166,,,,,,,,,,,CAVOK,,,,,,,,VFR,,,,,,,,,,,,METAR,66.0
LIBV 311855Z 30002KT CAVOK 14/09 Q1022 RMK SKC VIS MIN 9999 WIND THR32 36005KT WIND THR14 36004KT BLU,LIBV,2022-10-31T18:55:00Z,40.77,16.93,14.0,9.0,300,2,,6.21,30.177166,,,,,,,,,,,CAVOK,,,,,,,,VFR,,,,,,,,,,,,METAR,344.0
LIBQ 311855Z 05006KT 020V090 CAVOK 11/03 Q1028,LIBQ,2022-10-31T18:55:00Z,39.32,16.38,11.0,3.0,50,6,,6.21,30.35433,,,,,,,,,,,CAVOK,,,,,,,,VFR,,,,,,,,,,,,METAR,1660.0
LIBN 311855Z 35006KT CAVOK 17/16 Q1021 RMK SKC VIS MIN 9999 WIND THR14 35006KT WIND THR32 01005KT BLU,LIBN,2022-10-31T18:55:00Z,40.23,18.13,17.0,16.0,350,6,,6.21,30.147638,,,,,,,,,,,CAVOK,,,,,,,,VFR,,,,,,,,,,,,METAR,46.0
LIBA 311855Z 27005KT CAVOK 16/10 Q1022 RMK SKC VIS MIN 9999 WIND THR11 28005KT WIND THR29 /////KT BLU,LIBA,2022-10-31T18:55:00Z,41.53,15.72,16.0,10.0,270,5,,6.21,30.177166,,,,,,,,,,,CAVOK,,,,,,,,VFR,,,,,,,,,,,,METAR,55.0
KXMR 311855Z AUTO 08006KT 10SM CLR 28/23 A2994 RMK AO2 SLP142 T02820226 $,KXMR,2022-10-31T18:55:00Z,28.47,-80.57,28.2,22.6,80,6,,10.0,29.940945,1014.2,,TRUE,TRUE,TRUE,,,,,,CLR,,,,,,,,VFR,,,,,,,,,,,,METAR,5.0
KXIF 311855Z AUTO 00000KT 6SM HZ SCT021 BKN027 14/12 A2997 RMK AO2 SLP154 T01410118 $,KXIF,2022-10-31T18:55:00Z,,,14.1,11.8,0,0,,6.0,29.970472,1015.4,,TRUE,TRUE,TRUE,,,,,HZ,SCT,2100,BKN,2700,,,,,MVFR,,,,,,,,,,,,METAR,
KWRB 311855Z AUTO 23009KT 10SM FEW033 25/20 A2995 RMK AO2 SLP142 T02530196,KWRB,2022-10-31T18:55:00Z,32.63,-83.58,25.3,19.6,230,9,,10.0,29.949802,1014.2,,TRUE,TRUE,,,,,,,FEW,3300,,,,,,,VFR,,,,,,,,,,,,METAR,82.0
KWHP 311855Z 13006KT 10SM SKC 25/M05 A2995 RMK OBSERVER PT.,KWHP,2022-10-31T18:55:00Z,34.25,-118.42,25.0,-5.0,130,6,,10.0,29.949802,,,,,,,,,,,SKC,,,,,,,,VFR,,,,,,,,,,,,METAR,302.0
KVPS 311855Z 00000KT 10SM CLR 24/16 A2996 RMK AO2A SLP152 T02350160 $,KVPS,2022-10-31T18:55:00Z,30.47,-86.52,23.5,16.0,0,0,,10.0,29.958662,1015.2,,,TRUE,TRUE,,,,,,CLR,,,,,,,,VFR,,,,,,,,,,,,METAR,21.0
KVOK 311855Z 26003KT 10SM FEW200 19/05 A2980 RMK AO2A SLP098,KVOK,2022-10-31T18:55:00Z,43.93,-90.27,19.0,5.0,260,3,,10.0,29.799213,1009.8,,,TRUE,,,,,,,FEW,20000,,,,,,,VFR,,,,,,,,,,,,METAR,278.0
KVBG 311855Z 00000KT 10SM FEW003 BKN200 13/11 A2996 RMK AO2A SLP149 T01270108,KVBG,2022-10-31T18:55:00Z,34.73,-120.58,12.7,10.8,0,0,,10.0,29.958662,1014.9,,,TRUE,,,,,,,FEW,300,BKN,20000,,,,,VFR,,,,,,,,,,,,METAR,96.0
KVAD 311855Z AUTO 21004KT 10SM BKN037 28/19 A2994 RMK AO2 SLP139 T02840187 $,KVAD,2022-10-31T18:55:00Z,30.97,-83.2,28.4,18.7,210,4,,10.0,29.940945,1013.9,,TRUE,TRUE,TRUE,,,,,,BKN,3700,,,,,,,VFR,,,,,,,,,,,,METAR,70.0
KUGN 311855Z VRB04KT 10SM BKN017 OVC050 15/11 A2981 RMK AO2 SLP092 T01500106,KUGN,2022-10-31T18:55:00Z,42.42,-87.87,15.0,10.6,0,4,,10.0,29.811024,1009.2,,,TRUE,,,,,,,BKN,1700,OVC,5000,,,,,MVFR,,,,,,,,,,,,METAR,217.0
KTTS 311855Z AUTO 07008KT 10SM CLR 28/20 A2994 RMK AO2 SLP143 T02780198 $,KTTS,2022-10-31T18:55:00Z,28.58,-80.67,27.8,19.8,70,8,,10.0,29.940945,1014.3,,TRUE,TRUE,TRUE,,,,,,CLR,,,,,,,,VFR,,,,,,,,,,,,METAR,1.0
KTIK 311855Z AUTO 23003KT 10SM CLR 22/01 A2998 RMK AO2 SLP153 T02190010 $,KTIK,2022-10-31T18:55:00Z,35.4,-97.38,21.9,1.0,230,3,,10.0,29.97933,1015.3,,TRUE,TRUE,TRUE,,,,,,CLR,,,,,,,,VFR,,,,,,,,,,,,METAR,387.0
KTFP 311855Z AUTO 12010KT 10SM CLR 26/15 A2997 RMK AO2 T02580152,KTFP,2022-10-31T18:55:00Z,27.92,-97.22,25.8,15.2,120,10,,10.0,29.970472,,,TRUE,TRUE,,,,,,,CLR,,,,,,,,VFR,,,,,,,,,,,,METAR,5.0
KTDR 311855Z AUTO 30005KT 10SM OVC041 25/16 A2995 RMK AO2 SLP146 T02520163 $,KTDR,2022-10-31T18:55:00Z,30.05,-85.52,25.2,16.3,300,5,,10.0,29.949802,1014.6,,TRUE,TRUE,TRUE,,,,,,OVC,4100,,,,,,,VFR,,,,,,,,,,,,METAR,4.0
KTCM 311855Z AUTO 23010G17KT 10SM BKN060 BKN075 11/11 A2986 RMK AO2 SLP115 T01130107,KTCM,2022-10-31T18:55:00Z,47.13,-122.47,11.3,10.7,230,10,17,10.0,29.861221,1011.5,,TRUE,TRUE,,,,,,,BKN,6000,BKN,7500,,,,,VFR,,,,,,,,,,,,METAR,87.0
KTBN 311855Z AUTO 28006KT 10SM CLR 20/04 A2993 RMK AO2 SLP134 T01970038 $,KTBN,2022-10-31T18:55:00Z,37.73,-92.13,19.7,3.8,280,6,,10.0,29.929134,1013.4,,TRUE,TRUE,TRUE,,,,,,CLR,,,,,,,,VFR,,,,,,,,,,,,METAR,349.0
KT70 311855Z AUTO 36006KT 7SM SCT030 BKN036 BKN048 23/16 A2997 RMK AO2 SLP141 T02300163 $,KT70,2022-10-31T18:55:00Z,29.12,-100.48,23.0,16.3,360,6,,7.0,29.970472,1014.1,,TRUE,TRUE,TRUE,,,,,,SCT,3000,BKN,3600,BKN,4800,,,VFR,,,,,,,,,,,,METAR,296.0
KSZL 311855Z 25011KT 10SM SCT250 20/06 A2988 RMK AO2A SLP119 T01980062 $,KSZL,2022-10-31T18:55:00Z,38.73,-93.53,19.8,6.2,250,11,,10.0,29.878937,1011.9,,,TRUE,TRUE,,,,,,SCT,25000,,,,,,,VFR,,,,,,,,,,,,METAR,259.0
KSXS 311855Z AUTO 00000KT 10SM CLR 24/13 A2997 RMK AO2 SLP148 T02350128,KSXS,2022-10-31T18:55:00Z,31.37,-85.85,23.5,12.8,0,0,,10.0,29.970472,1014.8,,TRUE,TRUE,,,,,,,CLR,,,,,,,,VFR,,,,,,,,,,,,METAR,120.0
KSVN 311855Z AUTO 15010G15KT 10SM FEW130 28/20 A2995 RMK AO2 SLP145 T02760204 $,KSVN,2022-10-31T18:55:00Z,32.02,-81.12,27.6,20.4,150,10,15,10.0,29.949802,1014.5,,TRUE,TRUE,TRUE,,,,,,FEW,13000,,,,,,,VFR,,,,,,,,,,,,METAR,13.0
KSUU 311855Z 02008KT 10SM BKN200 18/07 A2995 RMK AO2A SLP149 T01770074 $,KSUU,2022-10-31T18:55:00Z,38.27,-121.93,17.7,7.4,20,8,,10.0,29.949802,1014.9,,,TRUE,TRUE,,,,,,BKN,20000,,,,,,,VFR,,,,,,,,,,,,METAR,9.0
KSUN 311855Z 12008KT 10SM SKC 13/00 A3007,KSUN,2022-10-31T18:55:00Z,43.5,-114.28,13.0,0.0,120,8,,10.0,30.070866,,,,,,,,,,,SKC,,,,,,,,VFR,,,,,,,,,,,,METAR,1619.0
KSLI 311855Z 20008KT 10SM FEW150 SCT200 BKN250 23/13 A2989 RMK AO2A SLP125 T02260134,KSLI,2022-10-31T18:55:00Z,33.78,-118.03,22.6,13.4,200,8,,10.0,29.890747,1012.5,,,TRUE,,,,,,,FEW,15000,SCT,20000,BKN,25000,,,VFR,,,,,,,,,,,,METAR,8.0
KSKF 311855Z AUTO 10007KT 10SM CLR 26/10 A2997 RMK AO2 SLP145 T02570095 $,KSKF,2022-10-31T18:55:00Z,29.38,-98.57,25.7,9.5,100,7,,10.0,29.970472,1014.5,,TRUE,TRUE,TRUE,,,,,,CLR,,,,,,,,VFR,,,,,,,,,,,,METAR,214.0
KSEQ 311855Z AUTO 12004KT 10SM BKN250 BKN270 25/10 A2998 RMK AO2 SLP150 T02520102,KSEQ,2022-10-31T18:55:00Z,29.57,-97.9,25.2,10.2,120,4,,10.0,29.97933,1015.0,,TRUE,TRUE,,,,,,,BKN,25000,BKN,27000,,,,,VFR,,,,,,,,,,,,METAR,160.0
KSCK 311855Z 00000KT 10SM CLR 18/07 A2995 RMK AO2 SLP141 T01780067,KSCK,2022-10-31T18:55:00Z,37.88,-121.22,17.8,6.7,0,0,,10.0,29.949802,1014.1,,,TRUE,,,,,,,CLR,,,,,,,,VFR,,,,,,,,,,,,METAR,8.0
KS34 311855Z AUTO 00000KT 10SM 13/M20 A2981 RMK Plains ,KS34,2022-10-31T18:55:00Z,47.47,-114.9,13.0,-20.0,0,0,,10.0,29.811024,,,TRUE,,,,,,,,,,,,,,,,,,,,,,,,,,,,METAR,750.0
KRYM 311855Z AUTO 25009KT M M M M M RMK AO2 SLPNO RVRNO $,KRYM,2022-10-31T18:55:00Z,46.08,-94.37,,,250,9,,,,,,TRUE,TRUE,TRUE,,,,,,,,,,,,,,,,,,,,,,,,,,METAR,344.0
KRNO 311855Z 00000KT 10SM BKN200 BKN250 10/M07 A3005 RMK AO2 SLP161 T01001072,KRNO,2022-10-31T18:55:00Z,39.5,-119.77,10.0,-7.2,0,0,,10.0,30.050198,1016.1,,,TRUE,,,,,,,BKN,20000,BKN,25000,,,,,VFR,,,,,,,,,,,,METAR,1344.0
KRND 311855Z AUTO 00000KT 10SM CLR 26/09 A2998 RMK AO2 SLP147 T02550085,KRND,2022-10-31T18:55:00Z,29.53,-98.27,25.5,8.5,0,0,,10.0,29.97933,1014.7,,TRUE,TRUE,,,,,,,CLR,,,,,,,,VFR,,,,,,,,,,,,METAR,224.0
KRIV 311855Z AUTO 17007KT 10SM CLR 27/M09 A2993 RMK AO2 SLP125 T02691087,KRIV,2022-10-31T18:55:00Z,33.87,-117.23,26.9,-8.7,170,7,,10.0,29.929134,1012.5,,TRUE,TRUE,,,,,,,CLR,,,,,,,,VFR,,,,,,,,,,,,METAR,454.0
KQVF 311855Z AUTO 13005KT 9999 FEW015 BKN180 26/24 A2997 RMK AO2 SLP151 WND DATA ESTMD T02620236,KQVF,2022-10-31T18:55:00Z,,,26.2,23.6,130,5,,6.21,29.970472,1015.1,,TRUE,TRUE,,,,,,,FEW,1500,BKN,18000,,,,,VFR,,,,,,,,,,,,METAR,
KQTZ 311855Z 31003KT 9999 SCT140 25/08 A2983 RMK SLP098 WND DATA ESTMD ALSTG/SLP ESTMD,KQTZ,2022-10-31T18:55:00Z,,,25.0,8.0,310,3,,6.21,29.828741,1009.8,,,,,,,,,,SCT,14000,,,,,,,VFR,,,,,,,,,,,,SPECI,
KQRH 311855Z AUTO 00000KT 9999 CLR 27/21 A2989 RMK AO2 SLP124 WND DATA ESTMD T02730205,KQRH,2022-10-31T18:55:00Z,,,27.3,20.5,0,0,,6.21,29.890747,1012.4,,TRUE,TRUE,,,,,,,CLR,,,,,,,,VFR,,,,,,,,,,,,METAR,
KQN3 311855Z AUTO 00000KT 9999 CLR 32/04 A2993 RMK AO2 SLP125 WND DATA ESTMD T03230044,KQN3,2022-10-31T18:55:00Z,,,32.3,4.4,0,0,,6.21,29.929134,1012.5,,TRUE,TRUE,,,,,,,CLR,,,,,,,,VFR,,,,,,,,,,,,METAR,
KQHY 311855Z AUTO 22004KT 10SM CLR 24/16 A2999 RMK AO2 SLP162 T02420159,KQHY,2022-10-31T18:55:00Z,,,24.2,15.9,220,4,,10.0,29.991142,1016.2,,TRUE,TRUE,,,,,,,CLR,,,,,,,,VFR,,,,,,,,,,,,METAR,
KQD3 311855Z AUTO VRB03KT M M CLR 27/20 A2994 RMK AO2 SLP123 WND DATA ESTMD T02710204 $,KQD3,2022-10-31T18:55:00Z,,,27.1,20.4,0,3,,,29.940945,1012.3,,TRUE,TRUE,TRUE,,,,,,CLR,,,,,,,,,,,,,,,,,,,,METAR,
KQBL 311855Z AUTO VRB03KT 10SM CLR 24/16 A3000 RMK AO2 SLP165 WND DATA ESTMD T02410155,KQBL,2022-10-31T18:55:00Z,,,24.1,15.5,0,3,,10.0,30.0,1016.5,,TRUE,TRUE,,,,,,,CLR,,,,,,,,VFR,,,,,,,,,,,,METAR,
KQAZ 311855Z AUTO 11007KT 9999 CLR 26/M01 A3003 RMK AO2 SLP169 WND DATA ESTMD T02641009,KQAZ,2022-10-31T18:55:00Z,,,26.4,-0.9,110,7,,6.21,30.029528,1016.9,,TRUE,TRUE,,,,,,,CLR,,,,,,,,VFR,,,,,,,,,,,,SPECI,
KPSM 311855Z 20008KT 10SM FEW160 SCT200 BKN250 20/10 A2995 RMK AO2A SLP145 T02000098,KPSM,2022-10-31T18:55:00Z,43.08,-70.82,20.0,9.8,200,8,,10.0,29.949802,1014.5,,,TRUE,,,,,,,FEW,16000,SCT,20000,BKN,25000,,,VFR,,,,,,,,,,,,METAR,34.0
KPOE 311855Z AUTO 00000KT 10SM CLR 24/11 A3000 RMK AO2 SLP160 T02370107,KPOE,2022-10-31T18:55:00Z,31.05,-93.2,23.7,10.7,0,0,,10.0,30.0,1016.0,,TRUE,TRUE,,,,,,,CLR,,,,,,,,VFR,,,,,,,,,,,,METAR,98.0
KPOB 311855Z AUTO 18004KT 10SM FEW029 BKN038 BKN046 BKN150 24/16 A2999 RMK AO2 SLP157 T02360164 $,KPOB,2022-10-31T18:55:00Z,35.17,-79.02,23.6,16.4,180,4,,10.0,29.991142,1015.7,,TRUE,TRUE,TRUE,,,,,,FEW,2900,BKN,3800,BKN,4600,BKN,15000,VFR,,,,,,,,,,,,METAR,57.0
KPHP 311855Z AUTO 28003KT 10SM CLR 19/M03 A2981 RMK AO2 SLP097 T01891033,KPHP,2022-10-31T18:55:00Z,44.05,-101.6,18.9,-3.3,280,3,,10.0,29.811024,1009.7,,TRUE,TRUE,,,,,,,CLR,,,,,,,,VFR,,,,,,,,,,,,METAR,673.0
KPAM 311855Z 32007KT 10SM BKN041 24/15 A2998 RMK AO2A SLP155 T02430149 $,KPAM,2022-10-31T18:55:00Z,30.07,-85.57,24.3,14.9,320,7,,10.0,29.97933,1015.5,,,TRUE,TRUE,,,,,,BKN,4100,,,,,,,VFR,,,,,,,,,,,,METAR,4.0
KP58 311855Z AUTO 04004KT 12/12 A2980 RMK AO1 SLP092 T01220117,KP58,2022-10-31T18:55:00Z,44.02,-82.8,12.2,11.7,40,4,,,29.799213,1009.2,,TRUE,TRUE,,,,,,,,,,,,,,,,,,,,,,,,,,,SPECI,180.0
KOZR 311855Z AUTO 00000KT 10SM CLR 24/13 A2997 RMK AO2 SLP149 T02440130,KOZR,2022-10-31T18:55:00Z,31.28,-85.72,24.4,13.0,0,0,,10.0,29.970472,1014.9,,TRUE,TRUE,,,,,,,CLR,,,,,,,,VFR,,,,,,,,,,,,METAR,90.0
KOFF 311855Z 22004KT 10SM CLR 19/M01 A2993 RMK AO2A SLP140 T01931012 PWINO PNO FZRANO TSNO $,KOFF,2022-10-31T18:55:00Z,41.12,-95.92,19.3,-1.2,220,4,,10.0,29.929134,1014.0,,,TRUE,TRUE,,TRUE,TRUE,TRUE,,CLR,,,,,,,,VFR,,,,,,,,,,,,METAR,308.0
KNTD 311855Z 21006KT 7SM SCT230 BKN290 20/14 A2992 RMK AO2 SLP133 T02000139,KNTD,2022-10-31T18:55:00Z,34.12,-119.12,20.0,13.9,210,6,,7.0,29.920275,1013.3,,,TRUE,,,,,,,SCT,23000,BKN,29000,,,,,VFR,,,,,,,,,,,,METAR,1.0
KNKX 311855Z 25007KT 10SM SCT250 26/02 A2990 RMK AO2 SLP120 T02610017 $,KNKX,2022-10-31T18:55:00Z,32.87,-117.13,26.1,1.7,250,7,,10.0,29.899607,1012.0,,,TRUE,TRUE,,,,,,SCT,25000,,,,,,,VFR,,,,,,,,,,,,METAR,138.0
KNBG 311855Z 04004KT 10SM BKN046 BKN055 24/14 A3001 RMK AO2 SLP161 T02440139 $,KNBG,2022-10-31T18:55:00Z,29.83,-90.02,24.4,13.9,40,4,,10.0,30.008858,1016.1,,,TRUE,TRUE,,,,,,BKN,4600,BKN,5500,,,,,VFR,,,,,,,,,,,,METAR,0.0
KMXF 311855Z AUTO 28007KT 10SM OVC050 22/09 A2998 RMK AO2 SLP154 T02190087,KMXF,2022-10-31T18:55:00Z,32.38,-86.37,21.9,8.7,280,7,,10.0,29.97933,1015.4,,TRUE,TRUE,,,,,,,OVC,5000,,,,,,,VFR,,,,,,,,,,,,METAR,47.0
KMUI 311855Z 00000KT 7SM FEW015 OVC025 14/10 A2998 RMK AO2A RAE14 SLP157 T01390101,KMUI,2022-10-31T18:55:00Z,40.43,-76.57,13.9,10.1,0,0,,7.0,29.97933,1015.7,,,TRUE,,,,,,,FEW,1500,OVC,2500,,,,,MVFR,,,,,,,,,,,,METAR,146.0
KMMT 311855Z AUTO 19007KT 10SM SCT022 BKN032 26/21 A2996 RMK AO2 SLP147 T02560208 $,KMMT,2022-10-31T18:55:00Z,33.92,-80.8,25.6,20.8,190,7,,10.0,29.958662,1014.7,,TRUE,TRUE,TRUE,,,,,,SCT,2200,BKN,3200,,,,,VFR,,,,,,,,,,,,METAR,76.0
KMKG 311855Z 00000KT 10SM SCT050 SCT250 18/12 A2980 RMK AO2 SLP090 T01780117,KMKG,2022-10-31T18:55:00Z,43.17,-86.23,17.8,11.7,0,0,,10.0,29.799213,1009.0,,,TRUE,,,,,,,SCT,5000,SCT,25000,,,,,VFR,,,,,,,,,,,,METAR,190.0
KMIB 311855Z AUTO 29013KT 10SM CLR 14/02 A2967 RMK AO2 SLP056 T01430022 $,KMIB,2022-10-31T18:55:00Z,48.42,-101.35,14.3,2.2,290,13,,10.0,29.66929,1005.6,,TRUE,TRUE,TRUE,,,,,,CLR,,,,,,,,VFR,,,,,,,,,,,,METAR,505.0
KMGE 311855Z 24009KT 10SM BKN033 BKN250 22/13 A2995 RMK AO2A SLP138 T02210134 $,KMGE,2022-10-31T18:55:00Z,33.92,-84.52,22.1,13.4,240,9,,10.0,29.949802,1013.8,,,TRUE,TRUE,,,,,,BKN,3300,BKN,25000,,,,,VFR,,,,,,,,,,,,METAR,309.0
KMCF 311855Z AUTO 26006KT 10SM CLR 30/20 A2992 RMK AO2 SLP135 T02950195 FZRANO $,KMCF,2022-10-31T18:55:00Z,27.85,-82.52,29.5,19.5,260,6,,10.0,29.920275,1013.5,,TRUE,TRUE,TRUE,,,TRUE,,,CLR,,,,,,,,VFR,,,,,,,,,,,,METAR,3.0
KLUF 311855Z AUTO 00000KT 10SM CLR 24/M01 A2993 RMK AO2 SLP129 T02411010 $,KLUF,2022-10-31T18:55:00Z,33.53,-112.37,24.1,-1.0,0,0,,10.0,29.929134,1012.9,,TRUE,TRUE,TRUE,,,,,,CLR,,,,,,,,VFR,,,,,,,,,,,,METAR,333.0
KLTS 311855Z 19005KT 10SM CLR 20/10 A3000 RMK AO2A SLP155 T02030098 $,KLTS,2022-10-31T18:55:00Z,34.67,-99.27,20.3,9.8,190,5,,10.0,30.0,1015.5,,,TRUE,TRUE,,,,,,CLR,,,,,,,,VFR,,,,,,,,,,,,METAR,416.0
KLSV 311855Z AUTO 08010KT 10SM CLR 24/M06 A2998 RMK AO2 SLP139 T02351056,KLSV,2022-10-31T18:55:00Z,36.23,-115.05,23.5,-5.6,80,10,,10.0,29.97933,1013.9,,TRUE,TRUE,,,,,,,CLR,,,,,,,,VFR,,,,,,,,,,,,METAR,563.0
KLSF 311855Z AUTO 26003KT 10SM CLR 25/14 A2995 RMK AO2 SLP146 T02460141 CHINO RWY15 $,KLSF,2022-10-31T18:55:00Z,32.32,-84.97,24.6,14.1,260,3,,10.0,29.949802,1014.6,,TRUE,TRUE,TRUE,,,,,,CLR,,,,,,,,VFR,,,,,,,,,,,,METAR,68.0
KLRF 311855Z 26004KT 10SM CLR 23/11 A2995 RMK AO2A SLP140 RVRNO TSNO $,KLRF,2022-10-31T18:55:00Z,34.92,-92.12,23.0,11.0,260,4,,10.0,29.949802,1014.0,,,TRUE,TRUE,,TRUE,,,,CLR,,,,,,,,VFR,,,,,,,,,,,,METAR,85.0
KLOR 311855Z AUTO 25005KT 10SM CLR 24/13 A2998 RMK AO2 SLP134 T02420134,KLOR,2022-10-31T18:55:00Z,31.35,-85.75,24.2,13.4,250,5,,10.0,29.97933,1013.4,,TRUE,TRUE,,,,,,,CLR,,,,,,,,VFR,,,,,,,,,,,,METAR,92.0
KLLJ 311855Z AUTO 20011KT 10SM FEW075 BKN090 17/M02 A2996 RMK AO2 SLP111 T01671017,KLLJ,2022-10-31T18:55:00Z,44.52,-114.22,16.7,-1.7,200,11,,10.0,29.958662,1011.1,,TRUE,TRUE,,,,,,,FEW,7500,BKN,9000,,,,,VFR,,,,,,,,,,,,METAR,1535.0
KLIC 311855Z AUTO 19008KT 10SM CLR 18/M07 A2999 RMK AO2 SLP132 T01781072,KLIC,2022-10-31T18:55:00Z,39.27,-103.67,17.8,-7.2,190,8,,10.0,29.991142,1013.2,,TRUE,TRUE,,,,,,,CLR,,,,,,,,VFR,,,,,,,,,,,,METAR,1635.0
KLHW 311855Z 16008KT 10SM BKN041 BKN055 29/19 A2993 RMK AO2A SLP138 T02880191 $,KLHW,2022-10-31T18:55:00Z,31.88,-81.57,28.8,19.1,160,8,,10.0,29.929134,1013.8,,,TRUE,TRUE,,,,,,BKN,4100,BKN,5500,,,,,VFR,,,,,,,,,,,,METAR,14.0
KLGF 311855Z AUTO 16005KT M M CLR 25/M04 A2990 RMK AO2 SLP124 T02531041 RVRNO PWINO TSNO $,KLGF,2022-10-31T18:55:00Z,32.87,-114.4,25.3,-4.1,160,5,,,29.899607,1012.4,,TRUE,TRUE,TRUE,,TRUE,,TRUE,,CLR,,,,,,,,,,,,,,,,,,,,METAR,118.0
KLCK 311855Z AUTO 20010G17KT 10SM BKN027 OVC070 19/14 A2986 RMK AO2 T01900135,KLCK,2022-10-31T18:55:00Z,39.82,-82.92,19.0,13.5,200,10,17,10.0,29.861221,,,TRUE,TRUE,,,,,,,BKN,2700,OVC,7000,,,,,MVFR,,,,,,,,,,,,METAR,225.0
KIRK 311855Z AUTO VRB03KT 10SM CLR 19/06 A2990 RMK AO2 SLP126 T01890061,KIRK,2022-10-31T18:55:00Z,40.1,-92.55,18.9,6.1,0,3,,10.0,29.899607,1012.6,,TRUE,TRUE,,,,,,,CLR,,,,,,,,VFR,,,,,,,,,,,,METAR,292.0
KINS 311855Z AUTO 00000KT 10SM CLR 19/M09 A3003 RMK AO2 SLP147 T01891092,KINS,2022-10-31T18:55:00Z,36.58,-115.68,18.9,-9.2,0,0,,10.0,30.029528,1014.7,,TRUE,TRUE,,,,,,,CLR,,,,,,,,VFR,,,,,,,,,,,,METAR,954.0
KIAB 311855Z AUTO 28006KT 10SM CLR 20/M00 A2995 RMK AO2 SLP140 T01971004 $,KIAB,2022-10-31T18:55:00Z,37.62,-97.27,19.7,-0.4,280,6,,10.0,29.949802,1014.0,,TRUE,TRUE,TRUE,,,,,,CLR,,,,,,,,VFR,,,,,,,,,,,,METAR,413.0
KHST 311855Z AUTO 08009KT 10SM FEW021 29/24 A2991 RMK AO2 SLP132 T02930237,KHST,2022-10-31T18:55:00Z,25.48,-80.37,29.3,23.7,80,9,,10.0,29.911417,1013.2,,TRUE,TRUE,,,,,,,FEW,2100,,,,,,,VFR,,,,,,,,,,,,METAR,1.0
KHRT 311855Z 25007KT 10SM FEW035 24/14 A2998 RMK AO2A SLP154 T02390143 $,KHRT,2022-10-31T18:55:00Z,30.42,-86.68,23.9,14.3,250,7,,10.0,29.97933,1015.4,,,TRUE,TRUE,,,,,,FEW,3500,,,,,,,VFR,,,,,,,,,,,,METAR,10.0
KHON 311855Z AUTO 19006KT 10SM CLR 17/00 A2979 RMK AO2 SLP095 T01720000,KHON,2022-10-31T18:55:00Z,44.38,-98.23,17.2,0.0,190,6,,10.0,29.790354,1009.5,,TRUE,TRUE,,,,,,,CLR,,,,,,,,VFR,,,,,,,,,,,,METAR,391.0
KHMN 311855Z AUTO 00000KT 10SM CLR 21/01 A3007 RMK AO2 SLP141 T02060009 $,KHMN,2022-10-31T18:55:00Z,32.85,-106.1,20.6,0.9,0,0,,10.0,30.070866,1014.1,,TRUE,TRUE,TRUE,,,,,,CLR,,,,,,,,VFR,,,,,,,,,,,,METAR,1240.0
KHLR 311855Z AUTO 16003KT 9SM FEW160 24/09 A3002 RMK AO2 SLP159 T02410085,KHLR,2022-10-31T18:55:00Z,31.13,-97.72,24.1,8.5,160,3,,9.0,30.02067,1015.9,,TRUE,TRUE,,,,,,,FEW,16000,,,,,,,VFR,,,,,,,,,,,,METAR,271.0
KHIF 311855Z AUTO 00000KT 10SM CLR 12/M03 A3010 RMK AO2 SLP177 T01221032,KHIF,2022-10-31T18:55:00Z,41.12,-111.97,12.2,-3.2,0,0,,10.0,30.100393,1017.7,,TRUE,TRUE,,,,,,,CLR,,,,,,,,VFR,,,,,,,,,,,,METAR,1461.0
KHFF 311855Z AUTO 17003KT 10SM SCT140 23/20 A2998 RMK AO2 RAE08 SLP153 P0001 T02250202 $,KHFF,2022-10-31T18:55:00Z,35.03,-79.5,22.5,20.2,170,3,,10.0,29.97933,1015.3,,TRUE,TRUE,TRUE,,,,,,SCT,14000,,,,,,,VFR,,,,,,0.01,,,,,,METAR,100.0
KHEY 311855Z AUTO 00000KT 10SM CLR 24/14 A2995 RMK AO2 SLP142 T02360140,KHEY,2022-10-31T18:55:00Z,31.35,-85.65,23.6,14.0,0,0,,10.0,29.949802,1014.2,,TRUE,TRUE,,,,,,,CLR,,,,,,,,VFR,,,,,,,,,,,,METAR,95.0
KGXF 311855Z COR 04006KT 10SM CLR 24/M00 A2993 RMK AO2A SLP128 T02391004 FZRANO $ COR 1916,KGXF,2022-10-31T18:55:00Z,32.88,-112.72,23.9,-0.4,40,6,,10.0,29.929134,1012.8,TRUE,,TRUE,TRUE,,,TRUE,,,CLR,,,,,,,,VFR,,,,,,,,,,,,METAR,261.0
KGUR 311855Z AUTO 27005KT 10SM CLR 18/M05 A2990 RMK AO2 SLP122 T01751051,KGUR,2022-10-31T18:55:00Z,42.25,-104.72,17.5,-5.1,270,5,,10.0,29.899607,1012.2,,TRUE,TRUE,,,,,,,CLR,,,,,,,,VFR,,,,,,,,,,,,METAR,1341.0
KGSB 311855Z 15003KT 10SM FEW040 BKN065 BKN120 25/09 A2999 RMK AO2A SLP159 T02500085 $,KGSB,2022-10-31T18:55:00Z,35.33,-77.93,25.0,8.5,150,3,,10.0,29.991142,1015.9,,,TRUE,TRUE,,,,,,FEW,4000,BKN,6500,BKN,12000,,,VFR,,,,,,,,,,,,METAR,33.0
KGRK 311855Z AUTO 00000KT 10SM CLR 23/09 A2999 RMK AO2 SLP148 T02340094,KGRK,2022-10-31T18:55:00Z,31.07,-97.83,23.4,9.4,0,0,,10.0,29.991142,1014.8,,TRUE,TRUE,,,,,,,CLR,,,,,,,,VFR,,,,,,,,,,,,METAR,311.0
KGRF 311855Z 18009KT 10SM FEW070 SCT160 SCT190 11/08 A2985 RMK AO2A SLP112 T01100082 $,KGRF,2022-10-31T18:55:00Z,47.07,-122.57,11.0,8.2,180,9,,10.0,29.84941,1011.2,,,TRUE,TRUE,,,,,,FEW,7000,SCT,16000,SCT,19000,,,VFR,,,,,,,,,,,,METAR,91.0
KGPI 311855Z 21011G17KT 10SM OVC043 12/04 A2972 RMK AO2 SLP063 T01220044,KGPI,2022-10-31T18:55:00Z,48.32,-114.25,12.2,4.4,210,11,17,10.0,29.719488,1006.3,,,TRUE,,,,,,,OVC,4300,,,,,,,VFR,,,,,,,,,,,,METAR,903.0
KGFA 311855Z AUTO 24021G32KT 10SM CLR 16/02 A2969 RMK AO2 PK WND 23032/42 SLP056 T01590023 $,KGFA,2022-10-31T18:55:00Z,47.5,-111.18,15.9,2.3,240,21,32,10.0,29.68996,1005.6,,TRUE,TRUE,TRUE,,,,,,CLR,,,,,,,,VFR,,,,,,,,,,,,METAR,1058.0
KFSI 311855Z AUTO 25005KT 10SM CLR 23/09 A2998 RMK AO2 SLP149 T02320092,KFSI,2022-10-31T18:55:00Z,34.65,-98.4,23.2,9.2,250,5,,10.0,29.97933,1014.9,,TRUE,TRUE,,,,,,,CLR,,,,,,,,VFR,,,,,,,,,,,,METAR,360.0
KFRI 311855Z AUTO 00000KT 10SM CLR 20/01 A2995 RMK AO2 SLP138 T01990008 FZRANO $,KFRI,2022-10-31T18:55:00Z,39.05,-96.77,19.9,0.8,0,0,,10.0,29.949802,1013.8,,TRUE,TRUE,TRUE,,,TRUE,,,CLR,,,,,,,,VFR,,,,,,,,,,,,METAR,232.0
KFCS 311855Z AUTO 00000KT 10SM CLR 17/M12 A2998 RMK AO2 SLP142 T01691117 $,KFCS,2022-10-31T18:55:00Z,38.67,-104.77,16.9,-11.7,0,0,,10.0,29.97933,1014.2,,TRUE,TRUE,TRUE,,,,,,CLR,,,,,,,,VFR,,,,,,,,,,,,METAR,1789.0
KFBG 311855Z AUTO 15006KT 10SM SCT040 24/17 A2998 RMK AO2 RAB18E28DZB28E30 SLP154 P0000 T02390171,KFBG,2022-10-31T18:55:00Z,35.12,-78.92,23.9,17.1,150,6,,10.0,29.97933,1015.4,,TRUE,TRUE,,,,,,,SCT,4000,,,,,,,VFR,,,,,,0.005,,,,,,METAR,69.0
KFAF 311855Z 14005KT 9SM BKN090 21/14 A3000 RMK AO2A SLP162 T02110135 $,KFAF,2022-10-31T18:55:00Z,37.13,-76.62,21.1,13.5,140,5,,9.0,30.0,1016.2,,,TRUE,TRUE,,,,,,BKN,9000,,,,,,,VFR,,,,,,,,,,,,METAR,3.0
KEND 311855Z 14005KT 10SM CLR 21/01 A2997 RMK AO2A SLP147 T02120009 $,KEND,2022-10-31T18:55:00Z,36.33,-97.92,21.2,0.9,140,5,,10.0,29.970472,1014.7,,,TRUE,TRUE,,,,,,CLR,,,,,,,,VFR,,,,,,,,,,,,METAR,392.0
KEGI 311855Z AUTO 28007KT 10SM CLR 24/13 A2998 RMK AO2 SLP152 T02440127 $,KEGI,2022-10-31T18:55:00Z,30.65,-86.52,24.4,12.7,280,7,,10.0,29.97933,1015.2,,TRUE,TRUE,TRUE,,,,,,CLR,,,,,,,,VFR,,,,,,,,,,,,METAR,59.0
KEDW 311855Z 00000KT 50SM BKN250 17/M07 A2999 RMK AO2A SLP150 T01731073,KEDW,2022-10-31T18:55:00Z,34.9,-117.87,17.3,-7.3,0,0,,50.0,29.991142,1015.0,,,TRUE,,,,,,,BKN,25000,,,,,,,VFR,,,,,,,,,,,,METAR,698.0
KEAT 311855Z AUTO 00000KT 10SM CLR 14/06 A2975 RMK AO2 SLP072 T01390056,KEAT,2022-10-31T18:55:00Z,47.4,-120.2,13.9,5.6,0,0,,10.0,29.749016,1007.2,,TRUE,TRUE,,,,,,,CLR,,,,,,,,VFR,,,,,,,,,,,,METAR,375.0
KDYS 311855Z AUTO 00000KT 10SM FEW200 22/06 A3001 RMK AO2 SLP138 T02220060 RVRNO PWINO PNO FZRANO TSNO $,KDYS,2022-10-31T18:55:00Z,32.42,-99.83,22.2,6.0,0,0,,10.0,30.008858,1013.8,,TRUE,TRUE,TRUE,,TRUE,TRUE,TRUE,,FEW,20000,,,,,,,VFR,,,,,,,,,,,,METAR,544.0
KDMA 311855Z AUTO 36004KT 10SM CLR 23/M02 A2996 RMK AO2 SLP162 T02301019 $,KDMA,2022-10-31T18:55:00Z,32.17,-110.88,23.0,-1.9,360,4,,10.0,29.958662,1016.2,,TRUE,TRUE,TRUE,,,,,,CLR,,,,,,,,VFR,,,,,,,,,,,,METAR,804.0
KDLH 311855Z 25009KT 10SM CLR 17/M02 A2977 RMK AO2 SLP089 T01721017,KDLH,2022-10-31T18:55:00Z,46.85,-92.2,17.2,-1.7,250,9,,10.0,29.769686,1008.9,,,TRUE,,,,,,,CLR,,,,,,,,VFR,,,,,,,,,,,,METAR,434.0
KCWN 311855Z AUTO 10007KT 10SM CLR 16/M09 A3023 RMK AO2 SLP101 T01571093 $,KCWN,2022-10-31T18:55:00Z,38.75,-104.85,15.7,-9.3,100,7,,10.0,30.230314,1010.1,,TRUE,TRUE,TRUE,,,,,,CLR,,,,,,,,VFR,,,,,,,,,,,,METAR,2040.0
KCWF 311855Z 34004KT 10SM CLR 25/12 A3002,KCWF,2022-10-31T18:55:00Z,30.22,-93.15,25.0,12.0,340,4,,10.0,30.02067,,,,,,,,,,,CLR,,,,,,,,VFR,,,,,,,,,,,,METAR,4.0
KCVS 311855Z AUTO 21011KT 10SM CLR 20/02 A3004 RMK AO2 SLP142 T01950019 $,KCVS,2022-10-31T18:55:00Z,34.37,-103.32,19.5,1.9,210,11,,10.0,30.041338,1014.2,,TRUE,TRUE,TRUE,,,,,,CLR,,,,,,,,VFR,,,,,,,,,,,,METAR,1305.0
KCOF 311855Z AUTO 07005KT 10SM CLR 28/27 A2994 RMK AO2 SLP143 T02750273 $,KCOF,2022-10-31T18:55:00Z,28.23,-80.6,27.5,27.3,70,5,,10.0,29.940945,1014.3,,TRUE,TRUE,TRUE,,,,,,CLR,,,,,,,,VFR,,,,,,,,,,,,METAR,1.0
KCNW 311855Z 00000KT 10SM SKC 25/08 A3003,KCNW,2022-10-31T18:55:00Z,31.63,-97.07,25.0,8.0,0,0,,10.0,30.029528,,,,,,,,,,,SKC,,,,,,,,VFR,,,,,,,,,,,,METAR,139.0
KCNK 311855Z AUTO 23006KT 10SM CLR 21/M01 A2995 RMK AO2 SLP137 T02061011,KCNK,2022-10-31T18:55:00Z,39.55,-97.65,20.6,-1.1,230,6,,10.0,29.949802,1013.7,,TRUE,TRUE,,,,,,,CLR,,,,,,,,VFR,,,,,,,,,,,,METAR,445.0
KCMA 311855Z 21004KT 10SM CLR 22/13 A2991 RMK AO2 SLP136 T02220128,KCMA,2022-10-31T18:55:00Z,34.22,-119.1,22.2,12.8,210,4,,10.0,29.911417,1013.6,,,TRUE,,,,,,,CLR,,,,,,,,VFR,,,,,,,,,,,,METAR,20.0
KCEF 311855Z 21012KT 10SM FEW050 BKN150 BKN200 19/07 A2994 RMK AO2A SLPNO T01930074,KCEF,2022-10-31T18:55:00Z,42.2,-72.52,19.3,7.4,210,12,,10.0,29.940945,,,,TRUE,,,,,,,FEW,5000,BKN,15000,BKN,20000,,,VFR,,,,,,,,,,,,METAR,72.0
KCBM 311855Z 25007KT 10SM OVC060 21/14 A3000 RMK AO2A SLP241 ALSTG/SLP ESTMD T02100139 TSNO $,KCBM,2022-10-31T18:55:00Z,33.65,-88.45,21.0,13.9,250,7,,10.0,30.0,1024.1,,,TRUE,TRUE,,TRUE,,,,OVC,6000,,,,,,,VFR,,,,,,,,,,,,METAR,59.0
KCAO 311855Z AUTO 19015G20KT 10SM CLR 19/M01 A3001 RMK AO2 PK WND 18026/1813 SLP126 T01891006,KCAO,2022-10-31T18:55:00Z,36.45,-103.15,18.9,-0.6,190,15,20,10.0,30.008858,1012.6,,TRUE,TRUE,,,,,,,CLR,,,,,,,,VFR,,,,,,,,,,,,METAR,1517.0
KBYS 311855Z AUTO 00000KT 10SM CLR 22/M10 A2998 RMK AO2 SLP137 T02181100 $,KBYS,2022-10-31T18:55:00Z,35.28,-116.63,21.8,-10.0,0,0,,10.0,29.97933,1013.7,,TRUE,TRUE,TRUE,,,,,,CLR,,,,,,,,VFR,,,,,,,,,,,,METAR,717.0
KBLV 311855Z 25009KT 10SM OVC012 14/12 A2989 RMK AO2A SLP124 T01400115 10147 20129 53002 CHINO RWY14R $,KBLV,2022-10-31T18:55:00Z,38.53,-89.83,14.0,11.5,250,9,,10.0,29.890747,1012.4,,,TRUE,TRUE,,,,,,OVC,1200,,,,,,,MVFR,0.2,14.7,12.9,,,,,,,,,METAR,134.0
KBIX 311855Z AUTO 20007KT 10SM OVC055 23/14 A2999 RMK AO2 SLP159 T02310144,KBIX,2022-10-31T18:55:00Z,30.42,-88.92,23.1,14.4,200,7,,10.0,29.991142,1015.9,,TRUE,TRUE,,,,,,,OVC,5500,,,,,,,VFR,,,,,,,,,,,,METAR,4.0
KBIF 311855Z AUTO 26003KT 10SM CLR 21/01 A3003 RMK AO2 SLP126 T02050008 $,KBIF,2022-10-31T18:55:00Z,31.85,-106.38,20.5,0.8,260,3,,10.0,30.029528,1012.6,,TRUE,TRUE,TRUE,,,,,,CLR,,,,,,,,VFR,,,,,,,,,,,,METAR,1201.0
KBAK 311855Z COR 24006KT 5SM BR SCT010 OVC016 15/14 A2986,KBAK,2022-10-31T18:55:00Z,39.27,-85.9,15.0,14.0,240,6,,5.0,29.861221,,TRUE,,,,,,,,BR,SCT,1000,OVC,1600,,,,,MVFR,,,,,,,,,,,,METAR,199.0
KBAD 311855Z AUTO 22004KT 10SM CLR 24/11 A3000 RMK AO2 SLP162 T02440110,KBAD,2022-10-31T18:55:00Z,32.5,-93.67,24.4,11.0,220,4,,10.0,30.0,1016.2,,TRUE,TRUE,,,,,,,CLR,,,,,,,,VFR,,,,,,,,,,,,METAR,49.0
KBAB 311855Z AUTO 30005KT 10SM CLR 19/05 A2995 RMK AO2 SLP145 T01930046 $,KBAB,2022-10-31T18:55:00Z,39.13,-121.43,19.3,4.6,300,5,,10.0,29.949802,1014.5,,TRUE,TRUE,TRUE,,,,,,CLR,,,,,,,,VFR,,,,,,,,,,,,METAR,31.0
KAST 311855Z AUTO 24004KT 4SM BR SCT044 BKN060 BKN080 12/11 A2991 RMK AO2 SLP128 T01220106,KAST,2022-10-31T18:55:00Z,46.15,-123.88,12.2,10.6,240,4,,4.0,29.911417,1012.8,,TRUE,TRUE,,,,,,BR,SCT,4400,BKN,6000,BKN,8000,,,MVFR,,,,,,,,,,,,METAR,3.0
KANJ 311855Z AUTO 14009KT 10SM FEW110 15/08 A2977 RMK AO2 SLP082 T01500078,KANJ,2022-10-31T18:55:00Z,46.47,-84.37,15.0,7.8,140,9,,10.0,29.769686,1008.2,,TRUE,TRUE,,,,,,,FEW,11000,,,,,,,VFR,,,,,,,,,,,,METAR,220.0
KAID 311855Z 22007KT 10SM OVC011 15/13 A2984,KAID,2022-10-31T18:55:00Z,40.12,-85.62,15.0,13.0,220,7,,10.0,29.840551,,,,,,,,,,,OVC,1100,,,,,,,MVFR,,,,,,,,,,,,METAR,277.0
KAFF 311855Z AUTO 11005KT 9SM CLR 16/M13 A3000 RMK AO2 SLP136 T01571127,KAFF,2022-10-31T18:55:00Z,38.97,-104.82,15.7,-12.7,110,5,,9.0,30.0,1013.6,,TRUE,TRUE,,,,,,,CLR,,,,,,,,VFR,,,,,,,,,,,,METAR,2003.0
KABH 311855Z AUTO 16005KT 10SM CLR 16/M08 A3002 RMK AO2 SLP152 T01571079,KABH,2022-10-31T18:55:00Z,38.75,-104.3,15.7,-7.9,160,5,,10.0,30.02067,1015.2,,TRUE,TRUE,,,,,,,CLR,,,,,,,,VFR,,,,,,,,,,,,METAR,1838.0
KAAT 311855Z AUTO VRB03KT 9SM CLR 13/M03 A3000 RMK AO2 SLP156 T01281033,KAAT,2022-10-31T18:55:00Z,41.48,-120.57,12.8,-3.3,0,3,,9.0,30.0,1015.6,,TRUE,TRUE,,,,,,,CLR,,,,,,,,VFR,,,,,,,,,,,,METAR,1336.0
K9S5 311855Z AUTO 21009G21KT 10SM 16/M01 A2986 RMK Three Forks ,K9S5,2022-10-31T18:55:00Z,45.88,-111.57,16.0,-1.0,210,9,21,10.0,29.861221,,,TRUE,,,,,,,,,,,,,,,,,,,,,,,,,,,,METAR,1246.0
K9L2 311855Z AUTO 00000KT 9SM CLR 18/M09 A3000 RMK AO2 SLP153 T01831088 $,K9L2,2022-10-31T18:55:00Z,34.98,-117.87,18.3,-8.8,0,0,,9.0,30.0,1015.3,,TRUE,TRUE,TRUE,,,,,,CLR,,,,,,,,VFR,,,,,,,,,,,,METAR,697.0
K9D7 311855Z AUTO 25011KT 10SM CLR 12/02 A2969 RMK AO2 TSNO,K9D7,2022-10-31T18:55:00Z,48.48,-99.23,12.0,2.0,250,11,,10.0,29.68996,,,TRUE,TRUE,,,TRUE,,,,CLR,,,,,,,,VFR,,,,,,,,,,,,METAR,451.0
K4MR 311855Z AUTO 23009KT 10SM CLR 19/03 A3002 RMK AO2 SLP117 T01880034 $,K4MR,2022-10-31T18:55:00Z,34.3,-103.8,18.8,3.4,230,9,,10.0,30.02067,1011.7,,TRUE,TRUE,TRUE,,,,,,CLR,,,,,,,,VFR,,,,,,,,,,,,METAR,1339.0
K2DP 311855Z AUTO 10005KT 10SM BKN070 23/14 A3003 RMK AO2 SLPNO T02290142 $,K2DP,2022-10-31T18:55:00Z,35.68,-75.9,22.9,14.2,100,5,,10.0,30.029528,,,TRUE,TRUE,TRUE,,,,,,BKN,7000,,,,,,,VFR,,,,,,,,,,,,METAR,1.0
K1OW 311855Z AUTO 00000KT 10SM CLR 15/M09 A3008 RMK AO2 SLP167 T01491092 FZRANO $,K1OW,2022-10-31T18:55:00Z,40.88,-104.0,14.9,-9.2,0,0,,10.0,30.079725,1016.7,,TRUE,TRUE,TRUE,,,TRUE,,,CLR,,,,,,,,VFR,,,,,,,,,,,,METAR,1650.0
K1OM 311855Z AUTO 25027G32KT 10SM CLR 16/02 A2965 RMK AO2 PK WND 27033/47 SLP040 T01630016 $,K1OM,2022-10-31T18:55:00Z,47.33,-108.93,16.3,1.6,250,27,32,10.0,29.648623,1004.0,,TRUE,TRUE,TRUE,,,,,,CLR,,,,,,,,VFR,,,,,,,,,,,,METAR,1088.0
K1NM 311855Z AUTO 26025G32KT 10SM FEW140 BKN180 16/00 A2966 RMK AO2 PK WND 26032/50 SLP040 T01600001 $,K1NM,2022-10-31T18:55:00Z,47.07,-109.03,16.0,0.1,260,25,32,10.0,29.660433,1004.0,,TRUE,TRUE,TRUE,,,,,,FEW,14000,BKN,18000,,,,,VFR,,,,,,,,,,,,METAR,1169.0
K1MW 311855Z AUTO 22003KT 10SM M 18/M10 A2993 RMK AO2 SLP123 T01801099 FZRANO $,K1MW,2022-10-31T18:55:00Z,40.7,-103.48,18.0,-9.9,220,3,,10.0,29.929134,1012.3,,TRUE,TRUE,TRUE,,,TRUE,,,,,,,,,,,,,,,,,,,,,,,METAR,1338.0
K1MM 311855Z AUTO 24023G26KT 10SM CLR 15/M01 A2972 RMK AO2 PK WND 24032/00 SLP062 T01521006 $,K1MM,2022-10-31T18:55:00Z,47.02,-109.63,15.2,-0.6,240,23,26,10.0,29.719488,1006.2,,TRUE,TRUE,TRUE,,,,,,CLR,,,,,,,,VFR,,,,,,,,,,,,METAR,1256.0
K1LM 311855Z AUTO 25015KT 10SM SCT065 14/00 A2978 RMK AO2 SLP080 T01380004 $,K1LM,2022-10-31T18:55:00Z,46.7,-109.73,13.8,0.4,250,15,,10.0,29.778543,1008.0,,TRUE,TRUE,TRUE,,,,,,SCT,6500,,,,,,,VFR,,,,,,,,,,,,METAR,1417.0
K1KM 311855Z AUTO 25024G30KT 10SM BKN200 17/M00 A2976 RMK AO2 PK WND 26034/37 SLP068 T01651003 $,K1KM,2022-10-31T18:55:00Z,46.45,-109.8,16.5,-0.3,250,24,30,10.0,29.760826,1006.8,,TRUE,TRUE,TRUE,,,,,,BKN,20000,,,,,,,VFR,,,,,,,,,,,,METAR,1332.0
K1JW 311855Z AUTO 27010G15KT 10SM CLR 18/M11 A2992 RMK AO2 SLP111 T01761112 FZRANO $,K1JW,2022-10-31T18:55:00Z,40.97,-103.2,17.6,-11.2,270,10,15,10.0,29.920275,1011.1,,TRUE,TRUE,TRUE,,,TRUE,,,CLR,,,,,,,,VFR,,,,,,,,,,,,METAR,1382.0
K1JM 311855Z AUTO 23024G30KT 10SM CLR 16/01 A2966 RMK AO2 PK WND 22032/42 SLP042 T01580011 PWINO $,K1JM,2022-10-31T18:55:00Z,47.75,-111.55,15.8,1.1,230,24,30,10.0,29.660433,1004.2,,TRUE,TRUE,TRUE,,,,TRUE,,CLR,,,,,,,,VFR,,,,,,,,,,,,METAR,1154.0
K1IW 311855Z AUTO 29014KT 10SM CLR 18/M08 A2993 RMK AO2 SLP130 T01811081 FZRANO $,K1IW,2022-10-31T18:55:00Z,41.05,-102.87,18.1,-8.1,290,14,,10.0,29.929134,1013.0,,TRUE,TRUE,TRUE,,,TRUE,,,CLR,,,,,,,,VFR,,,,,,,,,,,,METAR,1294.0
K1IM 311855Z AUTO 24020G26KT 10SM FEW060 17/03 A2968 RMK AO2 PK WND 23026/28 SLP047 T01690028 $,K1IM,2022-10-31T18:55:00Z,47.32,-111.47,16.9,2.8,240,20,26,10.0,29.681103,1004.7,,TRUE,TRUE,TRUE,,,,,,FEW,6000,,,,,,,VFR,,,,,,,,,,,,METAR,1110.0
K1HW 311855Z AUTO 32010KT 10SM CLR 18/M07 A2990 RMK AO2 SLP117 T01821073 FZRANO $,K1HW,2022-10-31T18:55:00Z,41.32,-102.83,18.2,-7.3,320,10,,10.0,29.899607,1011.7,,TRUE,TRUE,TRUE,,,TRUE,,,CLR,,,,,,,,VFR,,,,,,,,,,,,METAR,1265.0
K1HM 311855Z AUTO 28018G23KT 10SM BKN065 16/02 A2966 RMK AO2 PK WND 28030/01 SLP042 T01580022 $,K1HM,2022-10-31T18:55:00Z,47.7,-111.95,15.8,2.2,280,18,23,10.0,29.660433,1004.2,,TRUE,TRUE,TRUE,,,,,,BKN,6500,,,,,,,VFR,,,,,,,,,,,,METAR,1181.0
K1GM 311855Z AUTO 21013KT 10SM FEW060 15/02 A2966 RMK AO2 SLP047 T01470022 $,K1GM,2022-10-31T18:55:00Z,47.33,-112.1,14.7,2.2,210,13,,10.0,29.660433,1004.7,,TRUE,TRUE,TRUE,,,,,,FEW,6000,,,,,,,VFR,,,,,,,,,,,,METAR,1317.0
K1FM 311855Z AUTO 26017G26KT 10SM FEW065 16/01 A2968 RMK AO2 PK WND 26031/03 SLP045 T01550012 $,K1FM,2022-10-31T18:55:00Z,47.6,-112.32,15.5,1.2,260,17,26,10.0,29.681103,1004.5,,TRUE,TRUE,TRUE,,,,,,FEW,6500,,,,,,,VFR,,,,,,,,,,,,METAR,1344.0
K1EW 311855Z AUTO 07007KT 10SM CLR 17/M10 A2994 RMK AO2 SLP114 T01681100 FZRANO $,K1EW,2022-10-31T18:55:00Z,41.12,-103.98,16.8,-10.0,70,7,,10.0,29.940945,1011.4,,TRUE,TRUE,TRUE,,,TRUE,,,CLR,,,,,,,,VFR,,,,,,,,,,,,METAR,1609.0
K1EM 311855Z AUTO 26024G34KT 10SM CLR 16/01 A2968 RMK AO2 PK WND 24034/38 SLP048 T01600005 $,K1EM,2022-10-31T18:55:00Z,47.45,-109.42,16.0,0.5,260,24,34,10.0,29.681103,1004.8,,TRUE,TRUE,TRUE,,,,,,CLR,,,,,,,,VFR,,,,,,,,,,,,METAR,1118.0
K1DW 311855Z AUTO 29013G18KT 10SM CLR 17/M12 A2996 RMK AO2 SLP122 T01741123 FZRANO $,K1DW,2022-10-31T18:55:00Z,41.37,-103.8,17.4,-12.3,290,13,18,10.0,29.958662,1012.2,,TRUE,TRUE,TRUE,,,TRUE,,,CLR,,,,,,,,VFR,,,,,,,,,,,,METAR,1539.0
K1DM 311855Z AUTO 26025G30KT 10SM BKN090 17/01 A2971 RMK AO2 PK WND 26034/00 SLP061 T01660007 $,K1DM,2022-10-31T18:55:00Z,47.37,-109.8,16.6,0.7,260,25,30,10.0,29.71063,1006.1,,TRUE,TRUE,TRUE,,,,,,BKN,9000,,,,,,,VFR,,,,,,,,,,,,METAR,1093.0
K1CW 311855Z AUTO 31016G24KT 10SM CLR 18/M11 A2993 RMK AO2 SLP115 T01811108 FZRANO $,K1CW,2022-10-31T18:55:00Z,41.58,-103.57,18.1,-10.8,310,16,24,10.0,29.929134,1011.5,,TRUE,TRUE,TRUE,,,TRUE,,,CLR,,,,,,,,VFR,,,,,,,,,,,,METAR,1370.0
K1CM 311855Z AUTO 24013G22KT 10SM BKN070 17/00 A2974 RMK AO2 PK WND 26031/11 SLP058 T01650002 $,K1CM,2022-10-31T18:55:00Z,47.1,-110.17,16.5,0.2,240,13,22,10.0,29.740158,1005.8,,TRUE,TRUE,TRUE,,,,,,BKN,7000,,,,,,,VFR,,,,,,,,,,,,METAR,1338.0
K1BW 311855Z AUTO 28017G24KT 10SM CLR 16/M11 A2998 RMK AO2 SLP129 T01631113 FZRANO $,K1BW,2022-10-31T18:55:00Z,41.52,-104.0,16.3,-11.3,280,17,24,10.0,29.97933,1012.9,,TRUE,TRUE,TRUE,,,TRUE,,,CLR,,,,,,,,VFR,,,,,,,,,,,,METAR,1606.0
K1BM 311855Z AUTO 26013G26KT 10SM BKN065 15/01 A2972 RMK AO2 PK WND 25031/35 SLP062 T01540008 $,K1BM,2022-10-31T18:55:00Z,47.28,-110.37,15.4,0.8,260,13,26,10.0,29.719488,1006.2,,TRUE,TRUE,TRUE,,,,,,BKN,6500,,,,,,,VFR,,,,,,,,,,,,METAR,1234.0
K1AW 311855Z AUTO 28013G18KT 10SM CLR 17/M10 A2996 RMK AO2 SLP110 T01651103 FZRANO $,K1AW,2022-10-31T18:55:00Z,41.33,-104.27,16.5,-10.3,280,13,18,10.0,29.958662,1011.0,,TRUE,TRUE,TRUE,,,TRUE,,,CLR,,,,,,,,VFR,,,,,,,,,,,,METAR,1670.0
K1AM 311855Z AUTO 24022G32KT 10SM CLR 16/01 A2971 RMK AO2 PK WND 24032/46 SLP056 T01590008 $,K1AM,2022-10-31T18:55:00Z,47.28,-110.8,15.9,0.8,240,22,32,10.0,29.71063,1005.6,,TRUE,TRUE,TRUE,,,,,,CLR,,,,,,,,VFR,,,,,,,,,,,,METAR,1228.0
FJDG 311855Z 36005KT 9999 FEW022 27/22 A2990 RMK SLP122 T02660220,FJDG,2022-10-31T18:55:00Z,-7.32,72.42,26.6,22.0,360,5,,6.21,29.899607,1012.2,,,,,,,,,,FEW,2200,,,,,,,VFR,,,,,,,,,,,,METAR,3.0
ETIH 311855Z AUTO 28003KT 9000 BR CLR 10/09 A3006 RMK AO2 SLP188 T00970086,ETIH,2022-10-31T18:55:00Z,49.22,11.83,9.7,8.6,280,3,,5.59,30.059055,1018.8,,TRUE,TRUE,,,,,,BR,CLR,,,,,,,,VFR,,,,,,,,,,,,METAR,436.0
ETIC 311855Z AUTO 00000KT 9999 SCT190 10/10 A3003 RMK AO2 SLP180 T01040099 $,ETIC,2022-10-31T18:55:00Z,49.7,11.93,10.4,9.9,0,0,,6.21,30.029528,1018.0,,TRUE,TRUE,TRUE,,,,,,SCT,19000,,,,,,,VFR,,,,,,,,,,,,METAR,414.0
ETEB 311855Z AUTO 00000KT 9999 CLR 12/12 A3004 RMK AO2 SLP188 T01240115 $,ETEB,2022-10-31T18:55:00Z,49.32,10.63,12.4,11.5,0,0,,6.21,30.041338,1018.8,,TRUE,TRUE,TRUE,,,,,,CLR,,,,,,,,VFR,,,,,,,,,,,,METAR,466.0
ETAD 311855Z AUTO 09006KT 9999 CLR 13/09 A2996 RMK AO2 SLP137 T01250091,ETAD,2022-10-31T18:55:00Z,49.98,6.7,12.5,9.1,90,6,,6.21,29.958662,1013.7,,TRUE,TRUE,,,,,,,CLR,,,,,,,,VFR,,,,,,,,,,,,METAR,365.0
EGUL 311855Z AUTO 10013G18KT 9999 FEW050 14/14 A2967 RMK AO2 SLP051 T01440136 $,EGUL,2022-10-31T18:55:00Z,52.42,0.57,14.4,13.6,100,13,18,6.21,29.66929,1005.1,,TRUE,TRUE,TRUE,,,,,,FEW,5000,,,,,,,VFR,,,,,,,,,,,,METAR,8.0
BGTL 311855Z AUTO 12007KT 9999 CLR M16/M21 A2929 RMK AO2 SLP908 T11581215 TSNO $,BGTL,2022-10-31T18:55:00Z,76.53,-68.75,-15.8,-21.5,120,7,,6.21,29.291338,990.8,,TRUE,TRUE,TRUE,,TRUE,,,,CLR,,,,,,,,VFR,,,,,,,,,,,,SPECI,79.0
PHOG 311854Z 04014KT 10SM SCT030 30/20 A3004 RMK AO2 SLP178 T03000200,PHOG,2022-10-31T18:54:00Z,20.9,-156.43,30.0,20.0,40,14,,10.0,30.041338,1017.8,,,TRUE,,,,,,,SCT,3000,,,,,,,VFR,,,,,,,,,,,,METAR,14.0
PHMK 311854Z 04011G20KT 10SM FEW023 27/21 A3006 RMK AO2 SLP180 T02670211,PHMK,2022-10-31T18:54:00Z,21.15,-157.1,26.7,21.1,40,11,20,10.0,30.059055,1018.0,,,TRUE,,,,,,,FEW,2300,,,,,,,VFR,,,,,,,,,,,,METAR,135.0
PGUM 311854Z 11004KT 10SM FEW018 FEW042 27/26 A2983 RMK AO2 RAB43E52 SLP092 P0000 T02670256,PGUM,2022-10-31T18:54:00Z,13.48,144.8,26.7,25.6,110,4,,10.0,29.828741,1009.2,,,TRUE,,,,,,,FEW,1800,FEW,4200,,,,,VFR,,,,,,0.005,,,,,,METAR,74.0
PGSN 311854Z 09006KT 10SM FEW017 FEW055 SCT070 28/25 A2982 RMK AO2 SLP119 P0001 T02780250 $,PGSN,2022-10-31T18:54:00Z,15.12,145.72,27.8,25.0,90,6,,10.0,29.819881,1011.9,,,TRUE,TRUE,,,,,,FEW,1700,FEW,5500,SCT,7000,,,VFR,,,,,,0.01,,,,,,METAR,65.0
PAKN 311854Z 29011KT 10SM CLR M06/M10 A3009 RMK AO2 SLP192 T10561100,PAKN,2022-10-31T18:54:00Z,58.68,-156.65,-5.6,-10.0,290,11,,10.0,30.088583,1019.2,,,TRUE,,,,,,,CLR,,,,,,,,VFR,,,,,,,,,,,,METAR,20.0
KWLD 311854Z AUTO 28007KT 10SM CLR 22/01 A2999 RMK AO2 SLP150 T02170006,KWLD,2022-10-31T18:54:00Z,37.17,-97.03,21.7,0.6,280,7,,10.0,29.991142,1015.0,,TRUE,TRUE,,,,,,,CLR,,,,,,,,VFR,,,,,,,,,,,,METAR,351.0
KWAL 311854Z 17009KT 10SM OVC060 18/13 A3004 RMK AO2 SLP169 T01780128,KWAL,2022-10-31T18:54:00Z,37.93,-75.47,17.8,12.8,170,9,,10.0,30.041338,1016.9,,,TRUE,,,,,,,OVC,6000,,,,,,,VFR,,,,,,,,,,,,METAR,10.0
KVTA 311854Z AUTO 25012KT 10SM FEW042 OVC065 21/13 A2986 RMK AO2 SLP108 T02110128,KVTA,2022-10-31T18:54:00Z,40.02,-82.47,21.1,12.8,250,12,,10.0,29.861221,1010.8,,TRUE,TRUE,,,,,,,FEW,4200,OVC,6500,,,,,VFR,,,,,,,,,,,,METAR,268.0
KVSF 311854Z AUTO 16004KT 10SM FEW120 17/06 A2995 RMK AO2 SLP146 T01720056,KVSF,2022-10-31T18:54:00Z,43.35,-72.52,17.2,5.6,160,4,,10.0,29.949802,1014.6,,TRUE,TRUE,,,,,,,FEW,12000,,,,,,,VFR,,,,,,,,,,,,METAR,176.0
KUIN 311854Z AUTO 32009KT 10SM CLR 16/08 A2988 RMK AO2 SLP117 T01610083,KUIN,2022-10-31T18:54:00Z,39.95,-91.2,16.1,8.3,320,9,,10.0,29.878937,1011.7,,TRUE,TRUE,,,,,,,CLR,,,,,,,,VFR,,,,,,,,,,,,METAR,233.0
KTQE 311854Z AUTO 21010KT 10SM CLR 21/00 A2989 RMK AO2 SLP116 T02110000,KTQE,2022-10-31T18:54:00Z,41.77,-96.18,21.1,0.0,210,10,,10.0,29.890747,1011.6,,TRUE,TRUE,,,,,,,CLR,,,,,,,,VFR,,,,,,,,,,,,METAR,312.0
KTAD 311854Z AUTO VRB04KT 10SM 19/M07 A3001 RMK AO2 SLP121 T01891067,KTAD,2022-10-31T18:54:00Z,37.27,-104.33,18.9,-6.7,0,4,,10.0,30.008858,1012.1,,TRUE,TRUE,,,,,,,,,,,,,,,,,,,,,,,,,,,METAR,1751.0
KSYR 311854Z 00000KT 10SM OVC042 18/07 A2991 RMK AO2 SLP124 T01780072,KSYR,2022-10-31T18:54:00Z,43.12,-76.1,17.8,7.2,0,0,,10.0,29.911417,1012.4,,,TRUE,,,,,,,OVC,4200,,,,,,,VFR,,,,,,,,,,,,METAR,125.0
KSUS 311854Z 24005KT 10SM BKN006 OVC013 14/12 A2990 RMK AO2 SLP123 T01440122,KSUS,2022-10-31T18:54:00Z,38.65,-90.65,14.4,12.2,240,5,,10.0,29.899607,1012.3,,,TRUE,,,,,,,BKN,600,OVC,1300,,,,,IFR,,,,,,,,,,,,METAR,140.0
KSLC 311854Z 17008KT 10SM SCT230 14/M01 A3011 RMK AO2 SLP178 T01441011,KSLC,2022-10-31T18:54:00Z,40.77,-111.97,14.4,-1.1,170,8,,10.0,30.109253,1017.8,,,TRUE,,,,,,,SCT,23000,,,,,,,VFR,,,,,,,,,,,,METAR,1286.0
KSET 311854Z AUTO 29007KT 3SM BR OVC017 14/12 A2989 RMK AO2 SLP121 T01390122,KSET,2022-10-31T18:54:00Z,38.93,-90.43,13.9,12.2,290,7,,3.0,29.890747,1012.1,,TRUE,TRUE,,,,,,BR,OVC,1700,,,,,,,MVFR,,,,,,,,,,,,METAR,133.0
KSBY 311854Z 22006KT 10SM CLR 22/14 A3002 RMK AO2 SLP166 T02170144,KSBY,2022-10-31T18:54:00Z,38.33,-75.5,21.7,14.4,220,6,,10.0,30.02067,1016.6,,,TRUE,,,,,,,CLR,,,,,,,,VFR,,,,,,,,,,,,METAR,14.0
KRST 311854Z 25007KT 10SM CLR 17/04 A2986 RMK AO2 SLP116 T01720039,KRST,2022-10-31T18:54:00Z,43.9,-92.5,17.2,3.9,250,7,,10.0,29.861221,1011.6,,,TRUE,,,,,,,CLR,,,,,,,,VFR,,,,,,,,,,,,METAR,398.0
KROC 311854Z 00000KT 10SM SCT038 BKN046 OVC080 14/09 A2988 RMK AO2 RAE11 SLP125 P0000 T01390094,KROC,2022-10-31T18:54:00Z,43.12,-77.68,13.9,9.4,0,0,,10.0,29.878937,1012.5,,,TRUE,,,,,,,SCT,3800,BKN,4600,OVC,8000,,,VFR,,,,,,0.005,,,,,,METAR,166.0
KROA 311854Z 13005KT 6SM -RA BR OVC004 14/13 A3004 RMK AO2 RAE18B31 SLP170 P0003 T01390128,KROA,2022-10-31T18:54:00Z,37.32,-79.97,13.9,12.8,130,5,,6.0,30.041338,1017.0,,,TRUE,,,,,,-RA BR,OVC,400,,,,,,,LIFR,,,,,,0.03,,,,,,METAR,349.0
KRKS 311854Z AUTO 25018KT 10SM CLR 11/M04 A3009 RMK AO2 PK WND 26030/1813 SLP166 T01111039,KRKS,2022-10-31T18:54:00Z,41.6,-109.07,11.1,-3.9,250,18,,10.0,30.088583,1016.6,,TRUE,TRUE,,,,,,,CLR,,,,,,,,VFR,,,,,,,,,,,,METAR,2062.0
KRIC 311854Z 21007KT 10SM FEW055 BKN100 21/13 A3002 RMK AO2 SLP169 T02110133,KRIC,2022-10-31T18:54:00Z,37.52,-77.32,21.1,13.3,210,7,,10.0,30.02067,1016.9,,,TRUE,,,,,,,FEW,5500,BKN,10000,,,,,VFR,,,,,,,,,,,,METAR,51.0
KRFD 311854Z 00000KT 10SM SCT200 BKN250 18/09 A2983 RMK AO2 SLP103 T01780094,KRFD,2022-10-31T18:54:00Z,42.2,-89.1,17.8,9.4,0,0,,10.0,29.828741,1010.3,,,TRUE,,,,,,,SCT,20000,BKN,25000,,,,,VFR,,,,,,,,,,,,METAR,222.0
KRDG 311854Z 20006KT 10SM OVC025 17/13 A2998 RMK AO2 RAE25 SLP158 P0000 T01720128 $,KRDG,2022-10-31T18:54:00Z,40.37,-75.97,17.2,12.8,200,6,,10.0,29.97933,1015.8,,,TRUE,TRUE,,,,,,OVC,2500,,,,,,,MVFR,,,,,,0.005,,,,,,METAR,101.0
KRBL 311854Z AUTO 00000KT 10SM CLR 21/03 A2996 RMK AO2 SLP141 T02110028,KRBL,2022-10-31T18:54:00Z,40.15,-122.25,21.1,2.8,0,0,,10.0,29.958662,1014.1,,TRUE,TRUE,,,,,,,CLR,,,,,,,,VFR,,,,,,,,,,,,METAR,107.0
KPTW 311854Z AUTO VRB05KT 10SM OVC025 17/11 A3001 RMK AO2 SLP161 T01670111,KPTW,2022-10-31T18:54:00Z,40.23,-75.55,16.7,11.1,0,5,,10.0,30.008858,1016.1,,TRUE,TRUE,,,,,,,OVC,2500,,,,,,,MVFR,,,,,,,,,,,,METAR,88.0
KPSF 311854Z AUTO 16006KT 10SM CLR 17/07 A2996 RMK AO2 SLP140 T01670072,KPSF,2022-10-31T18:54:00Z,42.43,-73.28,16.7,7.2,160,6,,10.0,29.958662,1014.0,,TRUE,TRUE,,,,,,,CLR,,,,,,,,VFR,,,,,,,,,,,,METAR,352.0
KPNE 311854Z 17005KT 10SM BKN025 18/11 A3001 RMK AO2 SLP161 T01780111,KPNE,2022-10-31T18:54:00Z,40.08,-75.02,17.8,11.1,170,5,,10.0,30.008858,1016.1,,,TRUE,,,,,,,BKN,2500,,,,,,,MVFR,,,,,,,,,,,,METAR,32.0
KPLN 311854Z AUTO 15004KT 10SM CLR 18/04 A2979 RMK AO2 SLP092 T01780044,KPLN,2022-10-31T18:54:00Z,45.57,-84.8,17.8,4.4,150,4,,10.0,29.790354,1009.2,,TRUE,TRUE,,,,,,,CLR,,,,,,,,VFR,,,,,,,,,,,,METAR,215.0
KPHL 311854Z 24006KT 10SM -RA BKN026 BKN070 OVC100 17/12 A3001 RMK AO2 RAB41 SLP163 P0000 T01720117 $,KPHL,2022-10-31T18:54:00Z,39.87,-75.23,17.2,11.7,240,6,,10.0,30.008858,1016.3,,,TRUE,TRUE,,,,,-RA,BKN,2600,BKN,7000,OVC,10000,,,MVFR,,,,,,0.005,,,,,,METAR,2.0
KPHF 311854Z 19009KT 10SM CLR 22/13 A3003 RMK AO2 SLP168 T02170133,KPHF,2022-10-31T18:54:00Z,37.13,-76.5,21.7,13.3,190,9,,10.0,30.029528,1016.8,,,TRUE,,,,,,,CLR,,,,,,,,VFR,,,,,,,,,,,,METAR,12.0
KORH 311854Z COR 22011KT 10SM CLR 18/10 A2998 RMK AO2 SLP154 T01780100,KORH,2022-10-31T18:54:00Z,42.27,-71.87,17.8,10.0,220,11,,10.0,29.97933,1015.4,TRUE,,TRUE,,,,,,,CLR,,,,,,,,VFR,,,,,,,,,,,,METAR,306.0
KOLM 311854Z 20007KT 10SM BKN027 11/09 A2988 RMK AO2 SLP117 T01110089,KOLM,2022-10-31T18:54:00Z,46.97,-122.9,11.1,8.9,200,7,,10.0,29.878937,1011.7,,,TRUE,,,,,,,BKN,2700,,,,,,,MVFR,,,,,,,,,,,,METAR,58.0
KOFP 311854Z AUTO 19005KT 10SM BKN030 BKN080 22/14 A3002 RMK AO2 SLP166 T02170139,KOFP,2022-10-31T18:54:00Z,37.7,-77.43,21.7,13.9,190,5,,10.0,30.02067,1016.6,,TRUE,TRUE,,,,,,,BKN,3000,BKN,8000,,,,,MVFR,,,,,,,,,,,,METAR,63.0
KNAK 311854Z AUTO 18010KT 10SM OVC032 18/13 A3001 RMK AO2 SLP163 T01780133,KNAK,2022-10-31T18:54:00Z,38.98,-76.48,17.8,13.3,180,10,,10.0,30.008858,1016.3,,TRUE,TRUE,,,,,,,OVC,3200,,,,,,,VFR,,,,,,,,,,,,METAR,2.0
KMVL 311854Z AUTO 00000KT 10SM CLR 17/00 A2992 RMK AO2 SLP135 T01720000,KMVL,2022-10-31T18:54:00Z,44.53,-72.62,17.2,0.0,0,0,,10.0,29.920275,1013.5,,TRUE,TRUE,,,,,,,CLR,,,,,,,,VFR,,,,,,,,,,,,METAR,226.0
KMTP 311854Z AUTO 00000KT 17/15 A3003 RMK AO1 SLP168 T01670150,KMTP,2022-10-31T18:54:00Z,41.07,-71.92,16.7,15.0,0,0,,,30.029528,1016.8,,TRUE,TRUE,,,,,,,,,,,,,,,,,,,,,,,,,,,METAR,2.0
KMRY 311854Z 31006KT 9SM BKN008 13/10 A2998 RMK AO2 SLP163 T01280100,KMRY,2022-10-31T18:54:00Z,36.58,-121.85,12.8,10.0,310,6,,9.0,29.97933,1016.3,,,TRUE,,,,,,,BKN,800,,,,,,,IFR,,,,,,,,,,,,METAR,51.0
KMOT 311854Z 22009KT 10SM CLR 14/02 A2970 RMK AO2 SLP062 T01440022,KMOT,2022-10-31T18:54:00Z,48.25,-101.27,14.4,2.2,220,9,,10.0,29.698818,1006.2,,,TRUE,,,,,,,CLR,,,,,,,,VFR,,,,,,,,,,,,METAR,507.0
KMKC 311854Z 30006KT 10SM CLR 19/03 A2993 RMK AO2 SLP132 T01940028,KMKC,2022-10-31T18:54:00Z,39.12,-94.6,19.4,2.8,300,6,,10.0,29.929134,1013.2,,,TRUE,,,,,,,CLR,,,,,,,,VFR,,,,,,,,,,,,METAR,228.0
KMGJ 311854Z AUTO 20011KT 10SM FEW120 16/09 A2997 RMK AO2 SLP149 T01610094,KMGJ,2022-10-31T18:54:00Z,41.52,-74.27,16.1,9.4,200,11,,10.0,29.970472,1014.9,,TRUE,TRUE,,,,,,,FEW,12000,,,,,,,VFR,,,,,,,,,,,,METAR,106.0
KMFI 311854Z AUTO 30008KT 10SM CLR 18/07 A2981 RMK AO2 SLP099 T01780067,KMFI,2022-10-31T18:54:00Z,44.63,-90.18,17.8,6.7,300,8,,10.0,29.811024,1009.9,,TRUE,TRUE,,,,,,,CLR,,,,,,,,VFR,,,,,,,,,,,,METAR,383.0
KLWT 311854Z AUTO 22022G29KT 10SM CLR 14/01 A2975 RMK AO2 PK WND 23040/1830 SLP062 T01440006,KLWT,2022-10-31T18:54:00Z,47.05,-109.47,14.4,0.6,220,22,29,10.0,29.749016,1006.2,,TRUE,TRUE,,,,,,,CLR,,,,,,,,VFR,,,,,,,,,,,,METAR,1254.0
KLWM 311854Z 20007KT 10SM CLR 19/11 A2998 RMK AO2 SLP152 T01940106,KLWM,2022-10-31T18:54:00Z,42.72,-71.13,19.4,10.6,200,7,,10.0,29.97933,1015.2,,,TRUE,,,,,,,CLR,,,,,,,,VFR,,,,,,,,,,,,METAR,42.0
KLNK 311854Z 24008KT 10SM CLR 22/00 A2992 RMK AO2 SLP129 T02170000,KLNK,2022-10-31T18:54:00Z,40.85,-96.77,21.7,0.0,240,8,,10.0,29.920275,1012.9,,,TRUE,,,,,,,CLR,,,,,,,,VFR,,,,,,,,,,,,METAR,357.0
KLEX 311854Z 22010KT 10SM OVC050 18/13 A2990 RMK AO2 SLP121 T01830128,KLEX,2022-10-31T18:54:00Z,38.03,-84.6,18.3,12.8,220,10,,10.0,29.899607,1012.1,,,TRUE,,,,,,,OVC,5000,,,,,,,VFR,,,,,,,,,,,,METAR,294.0
KLAF 311854Z 24007KT 5SM -RA BR OVC007 14/13 A2982 RMK AO2 CIG 006V011 SLP095 P0000 T01440133,KLAF,2022-10-31T18:54:00Z,40.42,-86.93,14.4,13.3,240,7,,5.0,29.819881,1009.5,,,TRUE,,,,,,-RA BR,OVC,700,,,,,,,IFR,,,,,,0.005,,,,,,METAR,182.0
KJAN 311854Z 32005KT 10SM FEW041 BKN055 22/12 A3000 RMK AO2 SLP157 T02220117,KJAN,2022-10-31T18:54:00Z,32.32,-90.08,22.2,11.7,320,5,,10.0,30.0,1015.7,,,TRUE,,,,,,,FEW,4100,BKN,5500,,,,,VFR,,,,,,,,,,,,METAR,92.0
KIZG 311854Z AUTO 17005KT 10SM CLR 17/01 A2994 RMK AO2 SLP140 T01720011,KIZG,2022-10-31T18:54:00Z,43.98,-70.95,17.2,1.1,170,5,,10.0,29.940945,1014.0,,TRUE,TRUE,,,,,,,CLR,,,,,,,,VFR,,,,,,,,,,,,METAR,138.0
KISW 311854Z AUTO 28006KT 10SM CLR 18/06 A2982 RMK AO2 SLP101 T01780056,KISW,2022-10-31T18:54:00Z,44.37,-89.83,17.8,5.6,280,6,,10.0,29.819881,1010.1,,TRUE,TRUE,,,,,,,CLR,,,,,,,,VFR,,,,,,,,,,,,METAR,311.0
KIPT 311854Z 12006KT 10SM BKN037 BKN120 15/09 A2996 RMK AO2 SLP146 T01500089,KIPT,2022-10-31T18:54:00Z,41.25,-76.92,15.0,8.9,120,6,,10.0,29.958662,1014.6,,,TRUE,,,,,,,BKN,3700,BKN,12000,,,,,VFR,,,,,,,,,,,,METAR,160.0
KINT 311854Z 06004KT 2 1/2SM BR BKN003 OVC012 15/15 A3001 RMK AO2 RAE52 SLP160 P0002 T01500150,KINT,2022-10-31T18:54:00Z,36.13,-80.22,15.0,15.0,60,4,,2.5,30.008858,1016.0,,,TRUE,,,,,,BR,BKN,300,OVC,1200,,,,,LIFR,,,,,,0.02,,,,,,METAR,292.0
KINL 311854Z AUTO 23007G18KT 10SM CLR 16/M01 A2965 RMK AO2 SLP049 T01611011 $,KINL,2022-10-31T18:54:00Z,48.57,-93.4,16.1,-1.1,230,7,18,10.0,29.648623,1004.9,,TRUE,TRUE,TRUE,,,,,,CLR,,,,,,,,VFR,,,,,,,,,,,,METAR,353.0
KIMT 311854Z AUTO 23007KT 10SM CLR 18/03 A2976 RMK AO2 SLP083 T01830033,KIMT,2022-10-31T18:54:00Z,45.82,-88.12,18.3,3.3,230,7,,10.0,29.760826,1008.3,,TRUE,TRUE,,,,,,,CLR,,,,,,,,VFR,,,,,,,,,,,,METAR,343.0
KILN 311854Z AUTO 21010KT 9SM FEW020 OVC060 18/13 A2987 RMK AO2 SLP114 T01780133,KILN,2022-10-31T18:54:00Z,39.43,-83.8,17.8,13.3,210,10,,9.0,29.870079,1011.4,,TRUE,TRUE,,,,,,,FEW,2000,OVC,6000,,,,,VFR,,,,,,,,,,,,METAR,325.0
KHWD 311854Z 25005KT 8SM CLR 16/11 A2996 RMK AO2 SLP153 T01560111,KHWD,2022-10-31T18:54:00Z,37.67,-122.12,15.6,11.1,250,5,,8.0,29.958662,1015.3,,,TRUE,,,,,,,CLR,,,,,,,,VFR,,,,,,,,,,,,METAR,9.0
KGSO 311854Z 06004KT 7SM FEW012 BKN019 OVC024 16/15 A3000 RMK AO2 RAE45 SLP156 P0001 T01610150,KGSO,2022-10-31T18:54:00Z,36.1,-79.95,16.1,15.0,60,4,,7.0,30.0,1015.6,,,TRUE,,,,,,,FEW,1200,BKN,1900,OVC,2400,,,MVFR,,,,,,0.01,,,,,,METAR,275.0
KGED 311854Z AUTO 21007KT 10SM CLR 22/14 A3001 RMK AO2 SLP160 T02170139,KGED,2022-10-31T18:54:00Z,38.68,-75.37,21.7,13.9,210,7,,10.0,30.008858,1016.0,,TRUE,TRUE,,,,,,,CLR,,,,,,,,VFR,,,,,,,,,,,,METAR,15.0
KGCN 311854Z VRB05KT 10SM CLR 14/M08 A3016 RMK AO2 SLP180 T01441078,KGCN,2022-10-31T18:54:00Z,35.95,-112.15,14.4,-7.8,0,5,,10.0,30.159449,1018.0,,,TRUE,,,,,,,CLR,,,,,,,,VFR,,,,,,,,,,,,METAR,1993.0
KGCK 311854Z 21017G23KT 10SM CLR 22/02 A2995 RMK AO2 SLP132 T02220022,KGCK,2022-10-31T18:54:00Z,37.92,-100.72,22.2,2.2,210,17,23,10.0,29.949802,1013.2,,,TRUE,,,,,,,CLR,,,,,,,,VFR,,,,,,,,,,,,METAR,877.0
KFZY 311854Z AUTO VRB03KT 10SM FEW039 SCT049 BKN085 16/08 A2990 RMK AO2 SLP125 T01610078,KFZY,2022-10-31T18:54:00Z,43.35,-76.38,16.1,7.8,0,3,,10.0,29.899607,1012.5,,TRUE,TRUE,,,,,,,FEW,3900,SCT,4900,BKN,8500,,,VFR,,,,,,,,,,,,METAR,143.0
KFWA 311854Z 21011KT 10SM FEW018 BKN060 OVC080 17/14 A2982 RMK AO2 SLP096 T01720139,KFWA,2022-10-31T18:54:00Z,40.98,-85.2,17.2,13.9,210,11,,10.0,29.819881,1009.6,,,TRUE,,,,,,,FEW,1800,BKN,6000,OVC,8000,,,VFR,,,,,,,,,,,,METAR,243.0
KFFZ 311854Z 10SM CLR 24/M01 A2995 RMK AO2 SLP123 T02391006,KFFZ,2022-10-31T18:54:00Z,33.47,-111.72,23.9,-0.6,,,,10.0,29.949802,1012.3,,,TRUE,,,,,,,CLR,,,,,,,,VFR,,,,,,,,,,,,METAR,420.0
KFEW 311854Z 23006G12KT 10SM SCT150 16/M08 A3008 RMK SLPNO WND DATA ESTMD ALSTG ESTMD,KFEW,2022-10-31T18:54:00Z,41.13,-104.87,16.0,-8.0,230,6,12,10.0,30.079725,,,,,,,,,,,SCT,15000,,,,,,,VFR,,,,,,,,,,,,METAR,1877.0
KEWN 311854Z 16006KT 10SM FEW050 25/17 A3004 RMK AO2 SLP171 T02500167,KEWN,2022-10-31T18:54:00Z,35.07,-77.05,25.0,16.7,160,6,,10.0,30.041338,1017.1,,,TRUE,,,,,,,FEW,5000,,,,,,,VFR,,,,,,,,,,,,METAR,3.0
KEUG 311854Z 20008KT 7SM OVC020 14/10 A2997 RMK AO2 SLP148 VCSH T01440100,KEUG,2022-10-31T18:54:00Z,44.13,-123.22,14.4,10.0,200,8,,7.0,29.970472,1014.8,,,TRUE,,,,,,,OVC,2000,,,,,,,MVFR,,,,,,,,,,,,METAR,109.0
KEFD 311854Z 08006KT 10SM FEW040 25/11 A3000,KEFD,2022-10-31T18:54:00Z,29.6,-95.17,25.0,11.0,80,6,,10.0,30.0,,,,,,,,,,,FEW,4000,,,,,,,VFR,,,,,,,,,,,,METAR,9.0
KECG 311854Z 11005KT 10SM CLR 22/13 A3004 RMK AO2 SLP171 T02220133,KECG,2022-10-31T18:54:00Z,36.27,-76.18,22.2,13.3,110,5,,10.0,30.041338,1017.1,,,TRUE,,,,,,,CLR,,,,,,,,VFR,,,,,,,,,,,,METAR,2.0
KDSV 311854Z AUTO 15007KT 10SM FEW055 OVC095 19/11 A2988 RMK AO2 SLP126 T01890106,KDSV,2022-10-31T18:54:00Z,42.57,-77.72,18.9,10.6,150,7,,10.0,29.878937,1012.6,,TRUE,TRUE,,,,,,,FEW,5500,OVC,9500,,,,,VFR,,,,,,,,,,,,METAR,195.0
KDSM 311854Z 29006KT 10SM SCT250 18/02 A2990 RMK AO2 SLP123 T01780022,KDSM,2022-10-31T18:54:00Z,41.53,-93.67,17.8,2.2,290,6,,10.0,29.899607,1012.3,,,TRUE,,,,,,,SCT,25000,,,,,,,VFR,,,,,,,,,,,,METAR,286.0
KDMH 311854Z AUTO 18/13 A3000 RMK AO1 SLP159 T01830133,KDMH,2022-10-31T18:54:00Z,39.28,-76.62,18.3,13.3,,,,,30.0,1015.9,,TRUE,TRUE,,,,,,,,,,,,,,,,,,,,,,,,,,,METAR,4.0
KDEC 311854Z 25008KT 10SM OVC009 14/13 A2986 RMK AO2 SLP109 T01390133,KDEC,2022-10-31T18:54:00Z,39.83,-88.87,13.9,13.3,250,8,,10.0,29.861221,1010.9,,,TRUE,,,,,,,OVC,900,,,,,,,IFR,,,,,,,,,,,,METAR,205.0
KDDH 311854Z AUTO 25007KT 10SM CLR 17/03 A2996 RMK AO2 SLP146 T01720028,KDDH,2022-10-31T18:54:00Z,42.9,-73.25,17.2,2.8,250,7,,10.0,29.958662,1014.6,,TRUE,TRUE,,,,,,,CLR,,,,,,,,VFR,,,,,,,,,,,,METAR,241.0
KCRW 311854Z VRB04KT 10SM BKN020 OVC034 19/16 A2992 RMK AO2 SLP127 T01890156,KCRW,2022-10-31T18:54:00Z,38.38,-81.58,18.9,15.6,0,4,,10.0,29.920275,1012.7,,,TRUE,,,,,,,BKN,2000,OVC,3400,,,,,MVFR,,,,,,,,,,,,METAR,278.0
KCOU 311854Z 23008KT 10SM FEW032 19/10 A2992 RMK AO2 SLP128 T01890100,KCOU,2022-10-31T18:54:00Z,38.82,-92.22,18.9,10.0,230,8,,10.0,29.920275,1012.8,,,TRUE,,,,,,,FEW,3200,,,,,,,VFR,,,,,,,,,,,,METAR,272.0
KCOS 311854Z 18003KT 10SM FEW250 17/M09 A3003 RMK AO2 SLP142 T01671089,KCOS,2022-10-31T18:54:00Z,38.82,-104.68,16.7,-8.9,180,3,,10.0,30.029528,1014.2,,,TRUE,,,,,,,FEW,25000,,,,,,,VFR,,,,,,,,,,,,METAR,1886.0
KCAR 311854Z AUTO VRB04KT 10SM CLR 17/M01 A2992 RMK AO2 SLP136 T01671006,KCAR,2022-10-31T18:54:00Z,46.87,-68.02,16.7,-0.6,0,4,,10.0,29.920275,1013.6,,TRUE,TRUE,,,,,,,CLR,,,,,,,,VFR,,,,,,,,,,,,METAR,189.0
KBWI 311854Z 21005KT 10SM BKN023 OVC055 19/14 A3000 RMK AO2 SLP156 T01940139,KBWI,2022-10-31T18:54:00Z,39.17,-76.68,19.4,13.9,210,5,,10.0,30.0,1015.6,,,TRUE,,,,,,,BKN,2300,OVC,5500,,,,,MVFR,,,,,,,,,,,,METAR,42.0
KBUF 311854Z 00000KT 10SM BKN028 BKN070 OVC200 16/11 A2985 RMK AO2 RAE01 SLP111 SHRA VC SW-NW-N AND DSNT NE-E P0000 T01560111 $,KBUF,2022-10-31T18:54:00Z,42.93,-78.73,15.6,11.1,0,0,,10.0,29.84941,1011.1,,,TRUE,TRUE,,,,,,BKN,2800,BKN,7000,OVC,20000,,,MVFR,,,,,,0.005,,,,,,METAR,217.0
KBTV 311854Z 20014G19KT 10SM BKN090 BKN150 17/03 A2992 RMK AO2 SLP132 T01720028,KBTV,2022-10-31T18:54:00Z,44.47,-73.15,17.2,2.8,200,14,19,10.0,29.920275,1013.2,,,TRUE,,,,,,,BKN,9000,BKN,15000,,,,,VFR,,,,,,,,,,,,METAR,101.0
KBOS 311854Z 21014KT 10SM FEW023 SCT034 BKN140 BKN250 20/12 A2998 RMK AO2 SLP152 T02000122,KBOS,2022-10-31T18:54:00Z,42.37,-71.02,20.0,12.2,210,14,,10.0,29.97933,1015.2,,,TRUE,,,,,,,FEW,2300,SCT,3400,BKN,14000,BKN,25000,VFR,,,,,,,,,,,,METAR,4.0
KBFL 311854Z AUTO 00000KT 6SM HZ CLR 19/04 A2993 RMK AO2 SLP133 T01890039,KBFL,2022-10-31T18:54:00Z,35.43,-119.05,18.9,3.9,0,0,,6.0,29.929134,1013.3,,TRUE,TRUE,,,,,,HZ,CLR,,,,,,,,VFR,,,,,,,,,,,,METAR,146.0
KAVP 311854Z AUTO 00000KT 10SM SCT070 17/09 A2997 RMK AO2 SLP148 T01670094,KAVP,2022-10-31T18:54:00Z,41.33,-75.72,16.7,9.4,0,0,,10.0,29.970472,1014.8,,TRUE,TRUE,,,,,,,SCT,7000,,,,,,,VFR,,,,,,,,,,,,METAR,290.0
KAPN 311854Z AUTO 09005KT 10SM CLR 17/08 A2980 RMK AO2 SLP091 T01720078,KAPN,2022-10-31T18:54:00Z,45.07,-83.57,17.2,7.8,90,5,,10.0,29.799213,1009.1,,TRUE,TRUE,,,,,,,CLR,,,,,,,,VFR,,,,,,,,,,,,METAR,208.0
KAPC 311854Z 23004KT 6SM HZ CLR 16/11 A2996 RMK AO2 SLP135 T01610111,KAPC,2022-10-31T18:54:00Z,38.2,-122.28,16.1,11.1,230,4,,6.0,29.958662,1013.5,,,TRUE,,,,,,HZ,CLR,,,,,,,,VFR,,,,,,,,,,,,METAR,5.0
KALO 311854Z 30005KT 10SM CLR 19/04 A2986 RMK AO2 SLP114 T01890039,KALO,2022-10-31T18:54:00Z,42.55,-92.4,18.9,3.9,300,5,,10.0,29.861221,1011.4,,,TRUE,,,,,,,CLR,,,,,,,,VFR,,,,,,,,,,,,METAR,264.0
KAKR 311854Z AUTO 21008KT 10SM BKN050 OVC065 19/13 A2985 RMK AO2 SLP106 T01940128,KAKR,2022-10-31T18:54:00Z,41.03,-81.47,19.4,12.8,210,8,,10.0,29.84941,1010.6,,TRUE,TRUE,,,,,,,BKN,5000,OVC,6500,,,,,VFR,,,,,,,,,,,,METAR,319.0
KAKQ 311854Z AUTO 19005KT 10SM CLR 23/13 A3002 RMK AO2 SLP165 T02280133,KAKQ,2022-10-31T18:54:00Z,36.98,-77.0,22.8,13.3,190,5,,10.0,30.02067,1016.5,,TRUE,TRUE,,,,,,,CLR,,,,,,,,VFR,,,,,,,,,,,,METAR,34.0
KACY 311854Z 16007KT 10SM BKN034 BKN070 OVC095 19/12 A3001 RMK AO2 SLP160 T01940122,KACY,2022-10-31T18:54:00Z,39.45,-74.57,19.4,12.2,160,7,,10.0,30.008858,1016.0,,,TRUE,,,,,,,BKN,3400,BKN,7000,OVC,9500,,,VFR,,,,,,,,,,,,METAR,18.0
KAAO 311854Z AUTO VRB05KT 10SM CLR 19/M01 A2997 RMK AO2 SLP146 T01941006,KAAO,2022-10-31T18:54:00Z,37.75,-97.22,19.4,-0.6,0,5,,10.0,29.970472,1014.6,,TRUE,TRUE,,,,,,,CLR,,,,,,,,VFR,,,,,,,,,,,,METAR,429.0
K1V4 311854Z AUTO 17/M01 A2991 RMK AO1 SLP131 T01671006 PNO,K1V4,2022-10-31T18:54:00Z,44.42,-72.02,16.7,-0.6,,,,,29.911417,1013.1,,TRUE,TRUE,,,,,,,,,,,,,,,,,,,,,,,,,,,METAR,213.0
K12N 311854Z AUTO 21005KT 17/10 A2999 RMK AO1 SLP157 T01720100,K12N,2022-10-31T18:54:00Z,41.02,-74.73,17.2,10.0,210,5,,,29.991142,1015.7,,TRUE,TRUE,,,,,,,,,,,,,,,,,,,,,,,,,,,METAR,178.0
TJNR 311853Z AUTO 11008KT 10SM FEW025 29/24 A2991 RMK AO2 SLP129 T02940239,TJNR,2022-10-31T18:53:00Z,18.25,-65.63,29.4,23.9,110,8,,10.0,29.911417,1012.9,,TRUE,TRUE,,,,,,,FEW,2500,,,,,,,VFR,,,,,,,,,,,,SPECI,7.0
TISX 311853Z 10008KT 10SM FEW023 SCT035 30/23 A2990 RMK AO2 SLP125 T03000233 PNO,TISX,2022-10-31T18:53:00Z,17.7,-64.8,30.0,23.3,100,8,,10.0,29.899607,1012.5,,,TRUE,,,,,,,FEW,2300,SCT,3500,,,,,VFR,,,,,,,,,,,,SPECI,16.0
TIST 311853Z 14008KT 10SM CLR 31/24 A2989 RMK AO2 SLP123 T03060239,TIST,2022-10-31T18:53:00Z,18.33,-64.98,30.6,23.9,140,8,,10.0,29.890747,1012.3,,,TRUE,,,,,,,CLR,,,,,,,,VFR,,,,,,,,,,,,SPECI,5.0
PHNL 311853Z 07012KT 10SM FEW025 SCT040 28/21 A3004 RMK AO2 SLP172 T02780206,PHNL,2022-10-31T18:53:00Z,21.33,-157.93,27.8,20.6,70,12,,10.0,30.041338,1017.2,,,TRUE,,,,,,,FEW,2500,SCT,4000,,,,,VFR,,,,,,,,,,,,METAR,2.0
PHLI 311853Z 05014KT 10SM CLR 27/22 A3008 RMK AO2 SLP182 T02720217,PHLI,2022-10-31T18:53:00Z,21.97,-159.33,27.2,21.7,50,14,,10.0,30.079725,1018.2,,,TRUE,,,,,,,CLR,,,,,,,,VFR,,,,,,,,,,,,METAR,32.0
PHKO 311853Z 16004KT 10SM CLR 28/21 A3000 RMK AO2 SLP159 T02830211,PHKO,2022-10-31T18:53:00Z,19.73,-156.05,28.3,21.1,160,4,,10.0,30.0,1015.9,,,TRUE,,,,,,,CLR,,,,,,,,VFR,,,,,,,,,,,,METAR,11.0
PHJR 311853Z 05006KT 10SM CLR 28/19 A3005 RMK AO2 SLP182 T02780194,PHJR,2022-10-31T18:53:00Z,21.32,-158.07,27.8,19.4,50,6,,10.0,30.050198,1018.2,,,TRUE,,,,,,,CLR,,,,,,,,VFR,,,,,,,,,,,,METAR,9.0
PAYA 311853Z AUTO 08007KT 10SM -RA OVC026 02/01 A2947 RMK AO2 SLP979 P0001 T00170006 TSNO $,PAYA,2022-10-31T18:53:00Z,59.52,-139.67,1.7,0.6,80,7,,10.0,29.471457,997.9,,TRUE,TRUE,TRUE,,TRUE,,,-RA,OVC,2600,,,,,,,MVFR,,,,,,0.01,,,,,,METAR,9.0
PAWI 311853Z AUTO 14010KT 10SM CLR M18/M21 A2992 RMK AO2 SNB20E33 SLP134 P0000 T11831211 TSNO,PAWI,2022-10-31T18:53:00Z,70.63,-160.02,-18.3,-21.1,140,10,,10.0,29.920275,1013.4,,TRUE,TRUE,,,TRUE,,,,CLR,,,,,,,,VFR,,,,,,0.005,,,,,,METAR,12.0
PAWD 311853Z AUTO 33025G39KT 10SM OVC110 M02/M16 A2962 RMK AO2 PK WND 32041/1801 SLP029 T10171156 TSNO $,PAWD,2022-10-31T18:53:00Z,60.12,-149.42,-1.7,-15.6,330,25,39,10.0,29.619095,1002.9,,TRUE,TRUE,TRUE,,TRUE,,,,OVC,11000,,,,,,,VFR,,,,,,,,,,,,METAR,3.0
PATO 311853Z AUTO 29010G23KT 10SM OVC070 M04/M12 A2966 RMK AO2 SLP045 T10391122 TSNO,PATO,2022-10-31T18:53:00Z,60.78,-148.85,-3.9,-12.2,290,10,23,10.0,29.660433,1004.5,,TRUE,TRUE,,,TRUE,,,,OVC,7000,,,,,,,VFR,,,,,,,,,,,,METAR,47.0
PATK 311853Z 03003KT 10SM FEW070 BKN080 OVC100 M04/M14 A2972 RMK AO2 SLP070 T10441144,PATK,2022-10-31T18:53:00Z,62.32,-150.1,-4.4,-14.4,30,3,,10.0,29.719488,1007.0,,,TRUE,,,,,,,FEW,7000,BKN,8000,OVC,10000,,,VFR,,,,,,,,,,,,METAR,107.0
PASO 311853Z AUTO 02012KT 10SM FEW055 M01/M08 A2972 RMK AO2 SLP066 T10061078 TSNO,PASO,2022-10-31T18:53:00Z,59.45,-151.7,-0.6,-7.8,20,12,,10.0,29.719488,1006.6,,TRUE,TRUE,,,TRUE,,,,FEW,5500,,,,,,,VFR,,,,,,,,,,,,METAR,20.0
PASN 311853Z AUTO 18018KT 10SM SCT017 BKN046 OVC070 03/01 A3002 RMK AO2 PK WND 19026/1757 SLP168 T00330011 TSNO,PASN,2022-10-31T18:53:00Z,57.15,-170.22,3.3,1.1,180,18,,10.0,30.02067,1016.8,,TRUE,TRUE,,,TRUE,,,,SCT,1700,BKN,4600,OVC,7000,,,VFR,,,,,,,,,,,,METAR,8.0
PASI 311853Z 12006KT 10SM FEW035 05/M01 A2949,PASI,2022-10-31T18:53:00Z,57.03,-135.35,5.0,-1.0,120,6,,10.0,29.489174,,,,,,,,,,,FEW,3500,,,,,,,VFR,,,,,,,,,,,,METAR,2.0
PASC 311853Z 00000KT 10SM CLR M20/M22 A3008 RMK AO2 SLP188 T12001217 $,PASC,2022-10-31T18:53:00Z,70.2,-148.47,-20.0,-21.7,0,0,,10.0,30.079725,1018.8,,,TRUE,TRUE,,,,,,CLR,,,,,,,,VFR,,,,,,,,,,,,METAR,17.0
PAOR 311853Z 31011KT 4SM -SN BKN038 BKN050 OVC080 M12/M15 A2976 RMK AO2 SLP130 P0000 T11221150,PAOR,2022-10-31T18:53:00Z,62.97,-141.93,-12.2,-15.0,310,11,,4.0,29.760826,1013.0,,,TRUE,,,,,,-SN,BKN,3800,BKN,5000,OVC,8000,,,MVFR,,,,,,0.005,,,,,,METAR,524.0
PAOM 311853Z 33003KT 9SM CLR M13/M16 A3012 RMK AO2 SLP199 T11331156,PAOM,2022-10-31T18:53:00Z,64.5,-165.43,-13.3,-15.6,330,3,,9.0,30.121063,1019.9,,,TRUE,,,,,,,CLR,,,,,,,,VFR,,,,,,,,,,,,METAR,6.0
PANN 311853Z AUTO 00000KT 8SM OVC080 M12/M14 A2998 RMK AO2 SLP163 T11221144 TSNO,PANN,2022-10-31T18:53:00Z,64.55,-149.08,-12.2,-14.4,0,0,,8.0,29.97933,1016.3,,TRUE,TRUE,,,TRUE,,,,OVC,8000,,,,,,,VFR,,,,,,,,,,,,METAR,110.0
PANC 311853Z 35007KT 10SM OVC120 M04/M13 A2973 RMK AO2 SLP072 T10441133,PANC,2022-10-31T18:53:00Z,61.17,-150.02,-4.4,-13.3,350,7,,10.0,29.731298,1007.2,,,TRUE,,,,,,,OVC,12000,,,,,,,VFR,,,,,,,,,,,,METAR,39.0
PAMR 311853Z 33005KT 10SM BKN060 BKN120 M03/M15 A2973 RMK AO2 SLP071 T10331150,PAMR,2022-10-31T18:53:00Z,61.22,-149.85,-3.3,-15.0,330,5,,10.0,29.731298,1007.1,,,TRUE,,,,,,,BKN,6000,BKN,12000,,,,,VFR,,,,,,,,,,,,METAR,43.0
PALH 311853Z 36007KT 10SM BKN120 M04/M14 A2975 RMK AO2 SLP074 T10441139,PALH,2022-10-31T18:53:00Z,61.18,-149.97,-4.4,-13.9,360,7,,10.0,29.749016,1007.4,,,TRUE,,,,,,,BKN,12000,,,,,,,VFR,,,,,,,,,,,,METAR,26.0
PAKV 311853Z AUTO 22003KT 10SM OVC049 M12/M14 A3011 RMK AO2 SLP200 T11171139 TSNO $,PAKV,2022-10-31T18:53:00Z,64.33,-158.72,-11.7,-13.9,220,3,,10.0,30.109253,1020.0,,TRUE,TRUE,TRUE,,TRUE,,,,OVC,4900,,,,,,,VFR,,,,,,,,,,,,METAR,53.0
PAKT 311853Z 13010KT 10SM FEW031 BKN046 BKN070 04/02 A2962 RMK AO2 RAB21E43 SLP029 HARBOR WIND 10010KT P0000 T00390017,PAKT,2022-10-31T18:53:00Z,55.35,-131.72,3.9,1.7,130,10,,10.0,29.619095,1002.9,,,TRUE,,,,,,,FEW,3100,BKN,4600,BKN,7000,,,VFR,,1.0,,,,0.005,,,,,,METAR,27.0
PAJN 311853Z 08008KT 10SM -RA FEW024 OVC042 03/01 A2955 RMK AO2 SLP005 P0001 T00280011,PAJN,2022-10-31T18:53:00Z,58.35,-134.55,2.8,1.1,80,8,,10.0,29.551182,1000.5,,,TRUE,,,,,,-RA,FEW,2400,OVC,4200,,,,,VFR,,,,,,0.01,,,,,,METAR,6.0
PAIL 311853Z 30012G20KT 10SM OVC043 M05/M08 A3001 RMK AO2 SLP165 T10501083 $,PAIL,2022-10-31T18:53:00Z,59.75,-154.92,-5.0,-8.3,300,12,20,10.0,30.008858,1016.5,,,TRUE,TRUE,,,,,,OVC,4300,,,,,,,VFR,,,,,,,,,,,,METAR,44.0
PAHO 311853Z 02005KT 10SM SCT070 BKN085 M02/M12 A2974 RMK AO2 SLP073 T10171117,PAHO,2022-10-31T18:53:00Z,59.63,-151.48,-1.7,-11.7,20,5,,10.0,29.740158,1007.3,,,TRUE,,,,,,,SCT,7000,BKN,8500,,,,,VFR,,,,,,,,,,,,METAR,6.0
PAGY 311853Z AUTO 30003KT 10SM OVC055 03/M01 A2956 RMK AO2 SLP008 T00331011 TSNO,PAGY,2022-10-31T18:53:00Z,59.47,-135.32,3.3,-1.1,300,3,,10.0,29.56004,1000.8,,TRUE,TRUE,,,TRUE,,,,OVC,5500,,,,,,,VFR,,,,,,,,,,,,METAR,7.0
PAGK 311853Z AUTO 32006KT 10SM OVC100 M09/M16 A2966 RMK AO2 SLP089 T10891161 TSNO,PAGK,2022-10-31T18:53:00Z,62.15,-145.45,-8.9,-16.1,320,6,,10.0,29.660433,1008.9,,TRUE,TRUE,,,TRUE,,,,OVC,10000,,,,,,,VFR,,,,,,,,,,,,METAR,481.0
PAFA 311853Z 00000KT 10SM -SN BKN065 OVC080 M16/M19 A2998 RMK AO2 SLP167 P0000 T11611189,PAFA,2022-10-31T18:53:00Z,64.8,-147.87,-16.1,-18.9,0,0,,10.0,29.97933,1016.7,,,TRUE,,,,,,-SN,BKN,6500,OVC,8000,,,,,VFR,,,,,,0.005,,,,,,METAR,130.0
PAEN 311853Z 01009KT 10SM OVC110 M04/M10 A2975 RMK AO2 SLP076 T10391100,PAEN,2022-10-31T18:53:00Z,60.57,-151.25,-3.9,-10.0,10,9,,10.0,29.749016,1007.6,,,TRUE,,,,,,,OVC,11000,,,,,,,VFR,,,,,,,,,,,,METAR,30.0
PAEG 311853Z AUTO 00000KT 10SM SCT047 M16/M19 A2987 RMK AO2 SLP141 T11561189 TSNO,PAEG,2022-10-31T18:53:00Z,64.78,-141.15,-15.6,-18.9,0,0,,10.0,29.870079,1014.1,,TRUE,TRUE,,,TRUE,,,,SCT,4700,,,,,,,VFR,,,,,,,,,,,,METAR,273.0
PADQ 311853Z 28030G41KT 10SM CLR 00/M12 A2978 RMK AO2 PK WND 30043/1827 SLP086 T00001122,PADQ,2022-10-31T18:53:00Z,57.75,-152.5,0.0,-12.2,280,30,41,10.0,29.778543,1008.6,,,TRUE,,,,,,,CLR,,,,,,,,VFR,,,,,,,,,,,,METAR,5.0
PACV 311853Z 00000KT 10SM FEW070 BKN120 M03/M04 A2946 RMK AO2 SLP976 T10331044,PACV,2022-10-31T18:53:00Z,60.5,-145.47,-3.3,-4.4,0,0,,10.0,29.459646,997.6,,,TRUE,,,,,,,FEW,7000,BKN,12000,,,,,VFR,,,,,,,,,,,,METAR,15.0
PACD 311853Z 18004KT 10SM FEW024 M01/M01 A3026 RMK AO2 SLP248 T10111011,PACD,2022-10-31T18:53:00Z,55.22,-162.72,-1.1,-1.1,180,4,,10.0,30.259842,1024.8,,,TRUE,,,,,,,FEW,2400,,,,,,,VFR,,,,,,,,,,,,METAR,23.0
PABT 311853Z 00000KT 10SM OVC075 M12/M15 A3001 RMK AO2 SLP185 T11221150,PABT,2022-10-31T18:53:00Z,66.92,-151.52,-12.2,-15.0,0,0,,10.0,30.008858,1018.5,,,TRUE,,,,,,,OVC,7500,,,,,,,VFR,,,,,,,,,,,,METAR,195.0
PABR 311853Z 11015G20KT 4SM BR CLR M21/M23 A2999 RMK AO2 SLP157 T12111233,PABR,2022-10-31T18:53:00Z,71.28,-156.78,-21.1,-23.3,110,15,20,4.0,29.991142,1015.7,,,TRUE,,,,,,BR,CLR,,,,,,,,MVFR,,,,,,,,,,,,METAR,6.0
PABI 311853Z 26007KT 3SM -SN BKN030 OVC050 M12/M15 A2991 RMK AO2 SLP173 P0000 T11221150,PABI,2022-10-31T18:53:00Z,64.0,-145.72,-12.2,-15.0,260,7,,3.0,29.911417,1017.3,,,TRUE,,,,,,-SN,BKN,3000,OVC,5000,,,,,MVFR,,,,,,0.005,,,,,,METAR,388.0
PABE 311853Z 25007KT 10SM CLR M10/M12 A3019 RMK AO2 SLP227 T11001117,PABE,2022-10-31T18:53:00Z,60.78,-161.83,-10.0,-11.7,250,7,,10.0,30.188976,1022.7,,,TRUE,,,,,,,CLR,,,,,,,,VFR,,,,,,,,,,,,METAR,28.0
PAAQ 311853Z 00000KT 10SM CLR M04/M12 A2970 RMK AO2 SLP063 T10441122 $,PAAQ,2022-10-31T18:53:00Z,61.6,-149.08,-4.4,-12.2,0,0,,10.0,29.698818,1006.3,,,TRUE,TRUE,,,,,,CLR,,,,,,,,VFR,,,,,,,,,,,,METAR,68.0
MMCS 311853Z 00000KT 10SM SCT100 BKN250 21/00 A3005 RMK 8/032,MMCS,2022-10-31T18:53:00Z,31.63,-106.42,21.0,0.0,0,0,,10.0,30.050198,,,,,,,,,,,SCT,10000,BKN,25000,,,,,VFR,,,,,,,,,,,,SPECI,1194.0
KZZV 311853Z AUTO 20009KT 10SM FEW027 OVC070 19/14 A2988 RMK AO2 SLP115 T01940139,KZZV,2022-10-31T18:53:00Z,39.95,-81.9,19.4,13.9,200,9,,10.0,29.878937,1011.5,,TRUE,TRUE,,,,,,,FEW,2700,OVC,7000,,,,,VFR,,,,,,,,,,,,METAR,268.0
KYKM 311853Z AUTO 02003KT 10SM BKN075 OVC110 14/07 A2981 RMK AO2 RAB1754E35 SLP093 P0000 T01440072,KYKM,2022-10-31T18:53:00Z,46.57,-120.53,14.4,7.2,20,3,,10.0,29.811024,1009.3,,TRUE,TRUE,,,,,,,BKN,7500,OVC,11000,,,,,VFR,,,,,,0.005,,,,,,METAR,319.0
KYIP 311853Z AUTO A2980 RMK AO2 SLPNO PWINO TSNO $,KYIP,2022-10-31T18:53:00Z,42.23,-83.53,,,,,,,29.799213,,,TRUE,TRUE,TRUE,,TRUE,,TRUE,,,,,,,,,,,,,,,,,,,,,,METAR,215.0
KXNA 311853Z 27009KT 10SM CLR 21/09 A2999 RMK AO2 SLP147 T02060089,KXNA,2022-10-31T18:53:00Z,36.28,-94.3,20.6,8.9,270,9,,10.0,29.991142,1014.7,,,TRUE,,,,,,,CLR,,,,,,,,VFR,,,,,,,,,,,,METAR,390.0
KWST 311853Z AUTO 23005KT 10SM BKN016 OVC024 17/13 A3002 RMK AO2 SLP163 T01720133,KWST,2022-10-31T18:53:00Z,41.35,-71.8,17.2,13.3,230,5,,10.0,30.02067,1016.3,,TRUE,TRUE,,,,,,,BKN,1600,OVC,2400,,,,,MVFR,,,,,,,,,,,,METAR,20.0
KWRL 311853Z AUTO 07006KT 10SM CLR 15/M04 A2991 RMK AO2 SLP130 T01501039,KWRL,2022-10-31T18:53:00Z,43.97,-107.95,15.0,-3.9,70,6,,10.0,29.911417,1013.0,,TRUE,TRUE,,,,,,,CLR,,,,,,,,VFR,,,,,,,,,,,,METAR,1281.0
KVLD 311853Z 22004KT 10SM FEW041 SCT050 BKN065 29/19 A2996 RMK AO2 SLP150 T02890189,KVLD,2022-10-31T18:53:00Z,30.78,-83.27,28.9,18.9,220,4,,10.0,29.958662,1015.0,,,TRUE,,,,,,,FEW,4100,SCT,5000,BKN,6500,,,VFR,,,,,,,,,,,,METAR,59.0
KVIH 311853Z AUTO 29010KT 10SM FEW032 BKN090 18/09 A2993 RMK AO2 SLP129 T01780094,KVIH,2022-10-31T18:53:00Z,38.13,-91.77,17.8,9.4,290,10,,10.0,29.929134,1012.9,,TRUE,TRUE,,,,,,,FEW,3200,BKN,9000,,,,,VFR,,,,,,,,,,,,METAR,342.0
KVGT 311853Z 14004KT 10SM CLR 21/M06 A3002 RMK AO2 SLP170 T02111061,KVGT,2022-10-31T18:53:00Z,36.22,-115.2,21.1,-6.1,140,4,,10.0,30.02067,1017.0,,,TRUE,,,,,,,CLR,,,,,,,,VFR,,,,,,,,,,,,METAR,664.0
KVEL 311853Z AUTO 10SM CLR 11/M03 A3014 RMK AO2 SLP199 T01061028,KVEL,2022-10-31T18:53:00Z,40.45,-109.52,10.6,-2.8,,,,10.0,30.138779,1019.9,,TRUE,TRUE,,,,,,,CLR,,,,,,,,VFR,,,,,,,,,,,,METAR,1604.0
KVCB 311853Z AUTO 35008KT 10SM CLR 18/06 A2997 RMK AO2 SLP148 T01830061,KVCB,2022-10-31T18:53:00Z,38.38,-121.95,18.3,6.1,350,8,,10.0,29.970472,1014.8,,TRUE,TRUE,,,,,,,CLR,,,,,,,,VFR,,,,,,,,,,,,METAR,30.0
KUTS 311853Z AUTO 00000KT 10SM CLR 24/12 A3002 RMK AO2 SLP162 T02440117,KUTS,2022-10-31T18:53:00Z,30.75,-95.58,24.4,11.7,0,0,,10.0,30.02067,1016.2,,TRUE,TRUE,,,,,,,CLR,,,,,,,,VFR,,,,,,,,,,,,METAR,103.0
KUNV 311853Z 21005KT 10SM OVC020 13/08 A2996,KUNV,2022-10-31T18:53:00Z,40.85,-77.83,13.0,8.0,210,5,,10.0,29.958662,,,,,,,,,,,OVC,2000,,,,,,,MVFR,,,,,,,,,,,,METAR,365.0
KUNO 311853Z AUTO 26006KT 10SM CLR 19/09 A2995 RMK AO2 SLP135 T01940089,KUNO,2022-10-31T18:53:00Z,36.88,-91.9,19.4,8.9,260,6,,10.0,29.949802,1013.5,,TRUE,TRUE,,,,,,,CLR,,,,,,,,VFR,,,,,,,,,,,,METAR,376.0
KUIL 311853Z AUTO 27007KT 10SM SCT045 OVC050 10/08 A2986 RMK AO2 RAE05 SLP113 P0000 T01000083,KUIL,2022-10-31T18:53:00Z,47.93,-124.55,10.0,8.3,270,7,,10.0,29.861221,1011.3,,TRUE,TRUE,,,,,,,SCT,4500,OVC,5000,,,,,VFR,,,,,,0.005,,,,,,METAR,58.0
KUAO 311853Z 19010KT 4SM -RA BR BKN008 BKN060 OVC075 13/13 A2994 RMK AO2 SLP138 P0003 T01280128,KUAO,2022-10-31T18:53:00Z,45.25,-122.77,12.8,12.8,190,10,,4.0,29.940945,1013.8,,,TRUE,,,,,,-RA BR,BKN,800,BKN,6000,OVC,7500,,,IFR,,,,,,0.03,,,,,,METAR,60.0
KTYR 311853Z 00000KT 10SM CLR 24/11 A3002 RMK AO2 SLP160 T02440106,KTYR,2022-10-31T18:53:00Z,32.37,-95.4,24.4,10.6,0,0,,10.0,30.02067,1016.0,,,TRUE,,,,,,,CLR,,,,,,,,VFR,,,,,,,,,,,,METAR,161.0
KTXK 311853Z 32003KT 10SM CLR 24/11 A3001 RMK AO2 SLP158 T02390106,KTXK,2022-10-31T18:53:00Z,33.45,-93.98,23.9,10.6,320,3,,10.0,30.008858,1015.8,,,TRUE,,,,,,,CLR,,,,,,,,VFR,,,,,,,,,,,,METAR,118.0
KTWF 311853Z 09005KT 10SM CLR 15/01 A3004 RMK AO2 SLP150 T01500011,KTWF,2022-10-31T18:53:00Z,42.48,-114.48,15.0,1.1,90,5,,10.0,30.041338,1015.0,,,TRUE,,,,,,,CLR,,,,,,,,VFR,,,,,,,,,,,,METAR,1269.0
KTVR 311853Z AUTO VRB03KT 10SM FEW060 24/14 A3001 RMK AO2 SLP169 T02390139,KTVR,2022-10-31T18:53:00Z,32.35,-91.03,23.9,13.9,0,3,,10.0,30.008858,1016.9,,TRUE,TRUE,,,,,,,FEW,6000,,,,,,,VFR,,,,,,,,,,,,METAR,25.0
KTVL 311853Z AUTO 10003KT 10SM CLR 12/M03 A3008 RMK AO2 SLP168 T01221033,KTVL,2022-10-31T18:53:00Z,38.9,-120.0,12.2,-3.3,100,3,,10.0,30.079725,1016.8,,TRUE,TRUE,,,,,,,CLR,,,,,,,,VFR,,,,,,,,,,,,METAR,1907.0
KTVC 311853Z 03005KT 10SM FEW180 SCT250 18/07 A2978 RMK AO2 SLP086 T01780072,KTVC,2022-10-31T18:53:00Z,44.73,-85.58,17.8,7.2,30,5,,10.0,29.778543,1008.6,,,TRUE,,,,,,,FEW,18000,SCT,25000,,,,,VFR,,,,,,,,,,,,METAR,188.0
KTUS 311853Z 00000KT 10SM CLR 24/M01 A2999 RMK AO2 SLP125 T02391011,KTUS,2022-10-31T18:53:00Z,32.13,-110.95,23.9,-1.1,0,0,,10.0,29.991142,1012.5,,,TRUE,,,,,,,CLR,,,,,,,,VFR,,,,,,,,,,,,METAR,776.0
KTUP 311853Z 22007KT 10SM FEW036 OVC055 21/12 A2997 RMK AO2 SLP146 T02110122,KTUP,2022-10-31T18:53:00Z,34.27,-88.77,21.1,12.2,220,7,,10.0,29.970472,1014.6,,,TRUE,,,,,,,FEW,3600,OVC,5500,,,,,VFR,,,,,,,,,,,,METAR,107.0
KTUL 311853Z 00000KT 10SM FEW250 23/03 A2999 RMK AO2 SLP150 T02280033,KTUL,2022-10-31T18:53:00Z,36.2,-95.88,22.8,3.3,0,0,,10.0,29.991142,1015.0,,,TRUE,,,,,,,FEW,25000,,,,,,,VFR,,,,,,,,,,,,METAR,196.0
KTTN 311853Z 19007KT 10SM FEW027 FEW035 BKN100 17/12 A2999 RMK AO2 SLP149 T01670117,KTTN,2022-10-31T18:53:00Z,40.28,-74.82,16.7,11.7,190,7,,10.0,29.991142,1014.9,,,TRUE,,,,,,,FEW,2700,FEW,3500,BKN,10000,,,VFR,,,,,,,,,,,,METAR,58.0
KTTD 311853Z 23006KT 6SM -RA FEW046 BKN065 OVC080 14/11 A2993 RMK AO2 SLP134 P0005 T01390111,KTTD,2022-10-31T18:53:00Z,45.55,-122.42,13.9,11.1,230,6,,6.0,29.929134,1013.4,,,TRUE,,,,,,-RA,FEW,4600,BKN,6500,OVC,8000,,,VFR,,,,,,0.05,,,,,,METAR,8.0
KTRL 311853Z AUTO 35006KT 10SM CLR 24/05 A3002 RMK AO2 SLP162 T02440050,KTRL,2022-10-31T18:53:00Z,32.72,-96.27,24.4,5.0,350,6,,10.0,30.02067,1016.2,,TRUE,TRUE,,,,,,,CLR,,,,,,,,VFR,,,,,,,,,,,,METAR,144.0
KTRI 311853Z 00000KT 10SM SCT038 SCT055 BKN250 19/16 A2996 RMK AO2 SLP126 T01940156 $,KTRI,2022-10-31T18:53:00Z,36.48,-82.4,19.4,15.6,0,0,,10.0,29.958662,1012.6,,,TRUE,TRUE,,,,,,SCT,3800,SCT,5500,BKN,25000,,,VFR,,,,,,,,,,,,METAR,456.0
KTPA 311853Z 25006KT 10SM FEW025 FEW160 29/20 A2996 RMK AO2 SLP145 T02890200,KTPA,2022-10-31T18:53:00Z,27.97,-82.53,28.9,20.0,250,6,,10.0,29.958662,1014.5,,,TRUE,,,,,,,FEW,2500,FEW,16000,,,,,VFR,,,,,,,,,,,,METAR,2.0
KTOR 311853Z AUTO 29013G23KT 10SM CLR 18/M04 A2990 RMK AO2 PK WND 29026/1811 SLP117 T01781039,KTOR,2022-10-31T18:53:00Z,42.07,-104.15,17.8,-3.9,290,13,23,10.0,29.899607,1011.7,,TRUE,TRUE,,,,,,,CLR,,,,,,,,VFR,,,,,,,,,,,,METAR,1285.0
KTOP 311853Z VRB06KT 10SM CLR 21/01 A2994 RMK AO2 SLP136 T02060011,KTOP,2022-10-31T18:53:00Z,39.07,-95.63,20.6,1.1,0,6,,10.0,29.940945,1013.6,,,TRUE,,,,,,,CLR,,,,,,,,VFR,,,,,,,,,,,,METAR,268.0
KTOI 311853Z AUTO 29008KT 10SM SCT042 26/13 A3000 RMK AO2 SLP153 T02560128,KTOI,2022-10-31T18:53:00Z,31.85,-86.02,25.6,12.8,290,8,,10.0,30.0,1015.3,,TRUE,TRUE,,,,,,,SCT,4200,,,,,,,VFR,,,,,,,,,,,,METAR,120.0
KTMB 311853Z 11008KT 10SM FEW027 31/23 A2992 RMK AO2 SLP132 T03060233,KTMB,2022-10-31T18:53:00Z,25.65,-80.43,30.6,23.3,110,8,,10.0,29.920275,1013.2,,,TRUE,,,,,,,FEW,2700,,,,,,,VFR,,,,,,,,,,,,METAR,2.0
KTLH 311853Z AUTO 27011KT 10SM SCT030 BKN042 OVC060 28/19 A2996 RMK AO2 SLP143 T02780194,KTLH,2022-10-31T18:53:00Z,30.4,-84.35,27.8,19.4,270,11,,10.0,29.958662,1014.3,,TRUE,TRUE,,,,,,,SCT,3000,BKN,4200,OVC,6000,,,VFR,,,,,,,,,,,,METAR,17.0
KTKI 311853Z 08004KT 10SM CLR 23/07 A3002 RMK AO2 SLP169 T02280072,KTKI,2022-10-31T18:53:00Z,33.18,-96.58,22.8,7.2,80,4,,10.0,30.02067,1016.9,,,TRUE,,,,,,,CLR,,,,,,,,VFR,,,,,,,,,,,,METAR,173.0
KTIW 311853Z 21014G21KT 10SM FEW018 BKN070 11/08 A2986 RMK AO2 SLP110 T01110078,KTIW,2022-10-31T18:53:00Z,47.27,-122.58,11.1,7.8,210,14,21,10.0,29.861221,1011.0,,,TRUE,,,,,,,FEW,1800,BKN,7000,,,,,VFR,,,,,,,,,,,,METAR,89.0
KTHV 311853Z AUTO 21003KT 10SM OVC018 17/12 A2999 RMK AO2 SLP159 T01670122,KTHV,2022-10-31T18:53:00Z,39.92,-76.88,16.7,12.2,210,3,,10.0,29.991142,1015.9,,TRUE,TRUE,,,,,,,OVC,1800,,,,,,,MVFR,,,,,,,,,,,,METAR,141.0
KTDZ 311853Z AUTO 22011KT 10SM OVC075 19/14 A2982 RMK AO2 SLP095 T01890144,KTDZ,2022-10-31T18:53:00Z,41.57,-83.48,18.9,14.4,220,11,,10.0,29.819881,1009.5,,TRUE,TRUE,,,,,,,OVC,7500,,,,,,,VFR,,,,,,,,,,,,METAR,189.0
KTCS 311853Z AUTO 00000KT 10SM CLR 18/M06 A3007 RMK AO2 SLP134 T01781056,KTCS,2022-10-31T18:53:00Z,33.23,-107.27,17.8,-5.6,0,0,,10.0,30.070866,1013.4,,TRUE,TRUE,,,,,,,CLR,,,,,,,,VFR,,,,,,,,,,,,METAR,1471.0
KTCL 311853Z 24004KT 10SM FEW024 OVC060 21/15 A3000 RMK AO2 SLP156 T02110150,KTCL,2022-10-31T18:53:00Z,33.22,-87.62,21.1,15.0,240,4,,10.0,30.0,1015.6,,,TRUE,,,,,,,FEW,2400,OVC,6000,,,,,VFR,,,,,,,,,,,,METAR,48.0
KTCC 311853Z AUTO 20010G14KT 10SM CLR 19/01 A3001 RMK AO2 SLP130 T01890011,KTCC,2022-10-31T18:53:00Z,35.18,-103.6,18.9,1.1,200,10,14,10.0,30.008858,1013.0,,TRUE,TRUE,,,,,,,CLR,,,,,,,,VFR,,,,,,,,,,,,METAR,1233.0
KSWO 311853Z 29007KT 10SM CLR 23/02 A2999 RMK AO2 SLP150 T02330022,KSWO,2022-10-31T18:53:00Z,36.17,-97.08,23.3,2.2,290,7,,10.0,29.991142,1015.0,,,TRUE,,,,,,,CLR,,,,,,,,VFR,,,,,,,,,,,,METAR,293.0
KSTS 311853Z AUTO 19006KT 10SM SCT004 11/09 A2997 RMK AO2 SLP141 T01110089,KSTS,2022-10-31T18:53:00Z,38.5,-122.82,11.1,8.9,190,6,,10.0,29.970472,1014.1,,TRUE,TRUE,,,,,,,SCT,400,,,,,,,VFR,,,,,,,,,,,,METAR,35.0
KSTP 311853Z 26007KT 10SM CLR 18/M02 A2984 RMK AO2 SLP103 T01781022,KSTP,2022-10-31T18:53:00Z,44.93,-93.05,17.8,-2.2,260,7,,10.0,29.840551,1010.3,,,TRUE,,,,,,,CLR,,,,,,,,VFR,,,,,,,,,,,,METAR,213.0
KSTJ 311853Z 28006KT 10SM CLR 18/01 A2994 RMK AO2 SLP136 T01830011,KSTJ,2022-10-31T18:53:00Z,39.77,-94.92,18.3,1.1,280,6,,10.0,29.940945,1013.6,,,TRUE,,,,,,,CLR,,,,,,,,VFR,,,,,,,,,,,,METAR,247.0
KSTC 311853Z 23010KT 10SM CLR 18/M02 A2981 RMK AO2 SLP107 T01781017,KSTC,2022-10-31T18:53:00Z,45.55,-94.05,17.8,-1.7,230,10,,10.0,29.811024,1010.7,,,TRUE,,,,,,,CLR,,,,,,,,VFR,,,,,,,,,,,,METAR,302.0
KSSI 311853Z AUTO 16007KT 10SM FEW120 26/21 A2997 RMK AO2 SLP151 T02610211,KSSI,2022-10-31T18:53:00Z,31.15,-81.38,26.1,21.1,160,7,,10.0,29.970472,1015.1,,TRUE,TRUE,,,,,,,FEW,12000,,,,,,,VFR,,,,,,,,,,,,METAR,6.0
KSSF 311853Z 07005KT 10SM CLR 26/11 A2997 RMK AO2 SLP144 T02560111,KSSF,2022-10-31T18:53:00Z,29.33,-98.47,25.6,11.1,70,5,,10.0,29.970472,1014.4,,,TRUE,,,,,,,CLR,,,,,,,,VFR,,,,,,,,,,,,METAR,175.0
KSRQ 311853Z 28011KT 10SM CLR 29/21 A2993 RMK AO2 SLP136 T02940211,KSRQ,2022-10-31T18:53:00Z,27.4,-82.57,29.4,21.1,280,11,,10.0,29.929134,1013.6,,,TRUE,,,,,,,CLR,,,,,,,,VFR,,,,,,,,,,,,METAR,5.0
KSPW 311853Z AUTO 24010KT 10SM CLR 20/M02 A2986 RMK AO2 SLP118 T02001017,KSPW,2022-10-31T18:53:00Z,43.17,-95.22,20.0,-1.7,240,10,,10.0,29.861221,1011.8,,TRUE,TRUE,,,,,,,CLR,,,,,,,,VFR,,,,,,,,,,,,METAR,407.0
KSPG 311853Z 08005KT 10SM SCT025 29/21 A2994 RMK AO2 SLP139 T02940211,KSPG,2022-10-31T18:53:00Z,27.77,-82.63,29.4,21.1,80,5,,10.0,29.940945,1013.9,,,TRUE,,,,,,,SCT,2500,,,,,,,VFR,,,,,,,,,,,,METAR,1.0
KSNY 311853Z AUTO 30012G24KT 10SM CLR 18/M08 A2993 RMK AO2 SLP130 T01831078,KSNY,2022-10-31T18:53:00Z,41.1,-102.98,18.3,-7.8,300,12,24,10.0,29.929134,1013.0,,TRUE,TRUE,,,,,,,CLR,,,,,,,,VFR,,,,,,,,,,,,METAR,1307.0
KSNS 311853Z VRB03KT 9SM CLR 14/10 A2997 RMK AO2 SLP157 T01390100,KSNS,2022-10-31T18:53:00Z,36.67,-121.6,13.9,10.0,0,3,,9.0,29.970472,1015.7,,,TRUE,,,,,,,CLR,,,,,,,,VFR,,,,,,,,,,,,METAR,20.0
KSNA 311853Z 20008KT 10SM FEW020 FEW060 BKN190 24/09 A2991 RMK AO2 SLP126 T02390094,KSNA,2022-10-31T18:53:00Z,33.67,-117.87,23.9,9.4,200,8,,10.0,29.911417,1012.6,,,TRUE,,,,,,,FEW,2000,FEW,6000,BKN,19000,,,VFR,,,,,,,,,,,,METAR,14.0
KSMQ 311853Z AUTO 00000KT 10SM BKN031 17/11 A2998 RMK AO2 SLP154 T01720111,KSMQ,2022-10-31T18:53:00Z,40.62,-74.67,17.2,11.1,0,0,,10.0,29.97933,1015.4,,TRUE,TRUE,,,,,,,BKN,3100,,,,,,,VFR,,,,,,,,,,,,METAR,30.0
KSMF 311853Z 33005KT 10SM OVC200 18/07 A2996 RMK AO2 SLP143 T01780072,KSMF,2022-10-31T18:53:00Z,38.7,-121.6,17.8,7.2,330,5,,10.0,29.958662,1014.3,,,TRUE,,,,,,,OVC,20000,,,,,,,VFR,,,,,,,,,,,,METAR,7.0
KSLN 311853Z 00000KT 10SM CLR 21/01 A2997 RMK AO2 SLP144 T02060011,KSLN,2022-10-31T18:53:00Z,38.8,-97.65,20.6,1.1,0,0,,10.0,29.970472,1014.4,,,TRUE,,,,,,,CLR,,,,,,,,VFR,,,,,,,,,,,,METAR,377.0
KSJC 311853Z 00000KT 7SM FEW060 BKN085 OVC150 16/10 A2995 RMK AO2 SLP142 T01610100,KSJC,2022-10-31T18:53:00Z,37.37,-121.92,16.1,10.0,0,0,,7.0,29.949802,1014.2,,,TRUE,,,,,,,FEW,6000,BKN,8500,OVC,15000,,,VFR,,,,,,,,,,,,METAR,13.0
KSIY 311853Z AUTO 03003KT 10SM CLR 14/01 A2999 RMK AO2 SLP160 T01440011,KSIY,2022-10-31T18:53:00Z,41.77,-122.47,14.4,1.1,30,3,,10.0,29.991142,1016.0,,TRUE,TRUE,,,,,,,CLR,,,,,,,,VFR,,,,,,,,,,,,METAR,807.0
KSHR 311853Z AUTO 00000KT 10SM CLR 18/M02 A2983 RMK AO2 SLP095 T01831022,KSHR,2022-10-31T18:53:00Z,44.77,-106.97,18.3,-2.2,0,0,,10.0,29.828741,1009.5,,TRUE,TRUE,,,,,,,CLR,,,,,,,,VFR,,,,,,,,,,,,METAR,1212.0
KSHN 311853Z AUTO 23013G21KT 10SM CLR 12/08 A2983 RMK AO2 SLP101 T01220083,KSHN,2022-10-31T18:53:00Z,47.23,-123.13,12.2,8.3,230,13,21,10.0,29.828741,1010.1,,TRUE,TRUE,,,,,,,CLR,,,,,,,,VFR,,,,,,,,,,,,METAR,84.0
KSGR 311853Z 00000KT 10SM CLR 26/12 A3000 RMK AO2 SLP162 T02560122,KSGR,2022-10-31T18:53:00Z,29.62,-95.65,25.6,12.2,0,0,,10.0,30.0,1016.2,,,TRUE,,,,,,,CLR,,,,,,,,VFR,,,,,,,,,,,,METAR,22.0
KSFF 311853Z 22007KT 10SM -RA OVC055 12/08 A2979 RMK AO2 SLP084 P0001 T01220078,KSFF,2022-10-31T18:53:00Z,47.68,-117.32,12.2,7.8,220,7,,10.0,29.790354,1008.4,,,TRUE,,,,,,-RA,OVC,5500,,,,,,,VFR,,,,,,0.01,,,,,,METAR,593.0
KSFB 311853Z 13007KT 100V170 10SM CLR 31/21 A2996 RMK AO2 SLP142 T03060206,KSFB,2022-10-31T18:53:00Z,28.77,-81.23,30.6,20.6,130,7,,10.0,29.958662,1014.2,,,TRUE,,,,,,,CLR,,,,,,,,VFR,,,,,,,,,,,,METAR,16.0
KSEG 311853Z AUTO 18009KT 10SM OVC024 14/09 A2998 RMK AO2 SLP154 T01440094,KSEG,2022-10-31T18:53:00Z,40.82,-76.87,14.4,9.4,180,9,,10.0,29.97933,1015.4,,TRUE,TRUE,,,,,,,OVC,2400,,,,,,,MVFR,,,,,,,,,,,,METAR,136.0
KSEA 311853Z 20016G25KT 10SM SCT018 BKN030 BKN070 BKN150 11/07 A2982 RMK AO2 PK WND 21027/1823 SLP105 T01110072,KSEA,2022-10-31T18:53:00Z,47.45,-122.32,11.1,7.2,200,16,25,10.0,29.819881,1010.5,,,TRUE,,,,,,,SCT,1800,BKN,3000,BKN,7000,BKN,15000,MVFR,,,,,,,,,,,,METAR,115.0
KSDM 311853Z 29006KT 10SM CLR 27/02 A2990 RMK AO2 SLP121 T02670022,KSDM,2022-10-31T18:53:00Z,32.58,-117.0,26.7,2.2,290,6,,10.0,29.899607,1012.1,,,TRUE,,,,,,,CLR,,,,,,,,VFR,,,,,,,,,,,,METAR,161.0
KSDL 311853Z 00000KT 10SM CLR 23/M02 A2997 RMK AO2 SLP132 T02331017,KSDL,2022-10-31T18:53:00Z,33.62,-111.92,23.3,-1.7,0,0,,10.0,29.970472,1013.2,,,TRUE,,,,,,,CLR,,,,,,,,VFR,,,,,,,,,,,,METAR,438.0
KSDB 311853Z AUTO 03007KT 10SM CLR 19/M08 A3008 RMK AO2 SLP139 T01941078 $,KSDB,2022-10-31T18:53:00Z,34.75,-118.72,19.4,-7.8,30,7,,10.0,30.079725,1013.9,,TRUE,TRUE,TRUE,,,,,,CLR,,,,,,,,VFR,,,,,,,,,,,,METAR,1377.0
KSBM 311853Z AUTO 00000KT 10SM CLR 19/06 A2980 RMK AO2 SLP093 T01890061,KSBM,2022-10-31T18:53:00Z,43.78,-87.85,18.9,6.1,0,0,,10.0,29.799213,1009.3,,TRUE,TRUE,,,,,,,CLR,,,,,,,,VFR,,,,,,,,,,,,METAR,225.0
KSBA 311853Z 15003KT 9SM CLR 18/14 A2991 RMK AO2 SLP129 T01780144 $,KSBA,2022-10-31T18:53:00Z,34.43,-119.85,17.8,14.4,150,3,,9.0,29.911417,1012.9,,,TRUE,TRUE,,,,,,CLR,,,,,,,,VFR,,,,,,,,,,,,METAR,2.0
KSAV 311853Z 18010KT 10SM FEW043 SCT120 SCT250 27/18 A2997 RMK AO2 SLP147 T02720183,KSAV,2022-10-31T18:53:00Z,32.12,-81.2,27.2,18.3,180,10,,10.0,29.970472,1014.7,,,TRUE,,,,,,,FEW,4300,SCT,12000,SCT,25000,,,VFR,,,,,,,,,,,,METAR,10.0
KSAF 311853Z 00000KT 10SM CLR 13/M04 A3011 RMK AO2 SLP153 T01331039,KSAF,2022-10-31T18:53:00Z,35.62,-106.1,13.3,-3.9,0,0,,10.0,30.109253,1015.3,,,TRUE,,,,,,,CLR,,,,,,,,VFR,,,,,,,,,,,,METAR,1918.0
KSAC 311853Z VRB05KT 10SM CLR 17/08 A2996 RMK AO2 SLP144 T01670083,KSAC,2022-10-31T18:53:00Z,38.5,-121.5,16.7,8.3,0,5,,10.0,29.958662,1014.4,,,TRUE,,,,,,,CLR,,,,,,,,VFR,,,,,,,,,,,,METAR,5.0
KRXE 311853Z AUTO 22011KT 10SM CLR 12/M02 A3008 RMK AO2 SLP180 T01221022,KRXE,2022-10-31T18:53:00Z,43.83,-111.8,12.2,-2.2,220,11,,10.0,30.079725,1018.0,,TRUE,TRUE,,,,,,,CLR,,,,,,,,VFR,,,,,,,,,,,,METAR,1483.0
KRWL 311853Z AUTO 23019G26KT 10SM CLR 09/M04 A3008 RMK AO2 PK WND 24029/1837 SLP157 T00891039,KRWL,2022-10-31T18:53:00Z,41.8,-107.2,8.9,-3.9,230,19,26,10.0,30.079725,1015.7,,TRUE,TRUE,,,,,,,CLR,,,,,,,,VFR,,,,,,,,,,,,METAR,2066.0
KRWI 311853Z AUTO VRB04KT 10SM FEW060 BKN075 24/14 A3002 RMK AO2 SLP165 T02390139 $,KRWI,2022-10-31T18:53:00Z,35.85,-77.9,23.9,13.9,0,4,,10.0,30.02067,1016.5,,TRUE,TRUE,TRUE,,,,,,FEW,6000,BKN,7500,,,,,VFR,,,,,,,,,,,,METAR,46.0
KRWF 311853Z AUTO 17010KT 10SM CLR 19/M01 A2981 RMK AO2 SLP099 T01891006,KRWF,2022-10-31T18:53:00Z,44.55,-95.08,18.9,-0.6,170,10,,10.0,29.811024,1009.9,,TRUE,TRUE,,,,,,,CLR,,,,,,,,VFR,,,,,,,,,,,,METAR,312.0
KRVS 311853Z 00000KT 10SM CLR 23/03 A2998 RMK AO2 SLP157 T02280033,KRVS,2022-10-31T18:53:00Z,36.05,-95.98,22.8,3.3,0,0,,10.0,29.97933,1015.7,,,TRUE,,,,,,,CLR,,,,,,,,VFR,,,,,,,,,,,,METAR,191.0
KRUE 311853Z AUTO 27007KT 10SM CLR 23/08 A2996 RMK AO2 SLP141 T02280083 $,KRUE,2022-10-31T18:53:00Z,35.25,-93.1,22.8,8.3,270,7,,10.0,29.958662,1014.1,,TRUE,TRUE,TRUE,,,,,,CLR,,,,,,,,VFR,,,,,,,,,,,,METAR,119.0
KRTN 311853Z AUTO 18008KT 150V210 10SM CLR 17/M04 A3004 RMK AO2 SLP134 T01671044,KRTN,2022-10-31T18:53:00Z,36.73,-104.5,16.7,-4.4,180,8,,10.0,30.041338,1013.4,,TRUE,TRUE,,,,,,,CLR,,,,,,,,VFR,,,,,,,,,,,,METAR,1939.0
KRSW 311853Z 34005KT 10SM BKN038 32/22 A2992 RMK AO2 SLP129 T03220222,KRSW,2022-10-31T18:53:00Z,26.53,-81.75,32.2,22.2,340,5,,10.0,29.920275,1012.9,,,TRUE,,,,,,,BKN,3800,,,,,,,VFR,,,,,,,,,,,,METAR,8.0
KRSL 311853Z AUTO 19006KT 10SM CLR 21/M03 A2994 RMK AO2 SLP137 T02111028,KRSL,2022-10-31T18:53:00Z,38.87,-98.82,21.1,-2.8,190,6,,10.0,29.940945,1013.7,,TRUE,TRUE,,,,,,,CLR,,,,,,,,VFR,,,,,,,,,,,,METAR,569.0
KRQE 311853Z AUTO VRB03KT 10SM CLR 14/M06 A3014 RMK AO2 SLP159 T01441056 $,KRQE,2022-10-31T18:53:00Z,35.65,-109.07,14.4,-5.6,0,3,,10.0,30.138779,1015.9,,TRUE,TRUE,TRUE,,,,,,CLR,,,,,,,,VFR,,,,,,,,,,,,METAR,2056.0
KRNT 311853Z 18011G23KT 10SM CLR 13/08 A2981 RMK AO2 SLP101 T01330078,KRNT,2022-10-31T18:53:00Z,47.5,-122.22,13.3,7.8,180,11,23,10.0,29.811024,1010.1,,,TRUE,,,,,,,CLR,,,,,,,,VFR,,,,,,,,,,,,METAR,7.0
KRNM 311853Z 15004KT 10SM CLR 29/M05 A2992 RMK AO2 SLP121 T02891050,KRNM,2022-10-31T18:53:00Z,33.03,-116.92,28.9,-5.0,150,4,,10.0,29.920275,1012.1,,,TRUE,,,,,,,CLR,,,,,,,,VFR,,,,,,,,,,,,METAR,423.0
KRMG 311853Z AUTO 23010G16KT 10SM OVC050 23/12 A2996 RMK AO2 SLP138 T02280122,KRMG,2022-10-31T18:53:00Z,34.35,-85.17,22.8,12.2,230,10,16,10.0,29.958662,1013.8,,TRUE,TRUE,,,,,,,OVC,5000,,,,,,,VFR,,,,,,,,,,,,METAR,196.0
KRME 311853Z 00000KT 10SM SCT055 BKN075 18/08 A2994 RMK AO2 SLP138 T01780078,KRME,2022-10-31T18:53:00Z,43.22,-75.4,17.8,7.8,0,0,,10.0,29.940945,1013.8,,,TRUE,,,,,,,SCT,5500,BKN,7500,,,,,VFR,,,,,,,,,,,,METAR,146.0
KRKP 311853Z AUTO 10SM OVC095 27/16 A2998 RMK AO2 SLP154 T02670161,KRKP,2022-10-31T18:53:00Z,28.08,-97.05,26.7,16.1,,,,10.0,29.97933,1015.4,,TRUE,TRUE,,,,,,,OVC,9500,,,,,,,VFR,,,,,,,,,,,,METAR,8.0
KRIW 311853Z AUTO 17005KT 10SM CLR 13/M06 A2996 RMK AO2 SLP120 T01331056,KRIW,2022-10-31T18:53:00Z,43.07,-108.43,13.3,-5.6,170,5,,10.0,29.958662,1012.0,,TRUE,TRUE,,,,,,,CLR,,,,,,,,VFR,,,,,,,,,,,,METAR,1662.0
KRIL 311853Z AUTO 00000KT 10SM CLR 10/M02 A3014 RMK AO2 SLP197 T01001022,KRIL,2022-10-31T18:53:00Z,39.53,-107.73,10.0,-2.2,0,0,,10.0,30.138779,1019.7,,TRUE,TRUE,,,,,,,CLR,,,,,,,,VFR,,,,,,,,,,,,METAR,1683.0
KRHV 311853Z 00000KT 10SM HZ SCT035 BKN090 15/09 A2996,KRHV,2022-10-31T18:53:00Z,37.33,-121.82,15.0,9.0,0,0,,10.0,29.958662,,,,,,,,,,HZ,SCT,3500,BKN,9000,,,,,VFR,,,,,,,,,,,,METAR,37.0
KRDD 311853Z 00000KT 10SM CLR 21/03 A2994 RMK AO2 SLP135 T02060033,KRDD,2022-10-31T18:53:00Z,40.52,-122.3,20.6,3.3,0,0,,10.0,29.940945,1013.5,,,TRUE,,,,,,,CLR,,,,,,,,VFR,,,,,,,,,,,,METAR,152.0
KRBG 311853Z AUTO 00000KT 10SM CLR 14/09 A2997 RMK AO2 SLP150 T01390094,KRBG,2022-10-31T18:53:00Z,43.23,-123.35,13.9,9.4,0,0,,10.0,29.970472,1015.0,,TRUE,TRUE,,,,,,,CLR,,,,,,,,VFR,,,,,,,,,,,,METAR,152.0
KRBD 311853Z VRB04KT 10SM CLR 24/08 A3002 RMK AO2 SLP161 T02390078,KRBD,2022-10-31T18:53:00Z,32.68,-96.87,23.9,7.8,0,4,,10.0,30.02067,1016.1,,,TRUE,,,,,,,CLR,,,,,,,,VFR,,,,,,,,,,,,METAR,200.0
KRAL 311853Z VRB03KT 10SM CLR 28/M03 A2990 RMK AO2 SLP111 T02781028,KRAL,2022-10-31T18:53:00Z,33.95,-117.45,27.8,-2.8,0,3,,10.0,29.899607,1011.1,,,TRUE,,,,,,,CLR,,,,,,,,VFR,,,,,,,,,,,,METAR,254.0
KRAC 311853Z AUTO 03003KT 9SM OVC019 14/09 A2984 RMK AO2 SLP103 T01390089,KRAC,2022-10-31T18:53:00Z,42.77,-87.82,13.9,8.9,30,3,,9.0,29.840551,1010.3,,TRUE,TRUE,,,,,,,OVC,1900,,,,,,,MVFR,,,,,,,,,,,,METAR,203.0
KPWA 311853Z 19007KT 10SM CLR 22/03 A3001 RMK AO2 SLP156 T02170033,KPWA,2022-10-31T18:53:00Z,35.53,-97.65,21.7,3.3,190,7,,10.0,30.008858,1015.6,,,TRUE,,,,,,,CLR,,,,,,,,VFR,,,,,,,,,,,,METAR,390.0
KPUW 311853Z AUTO 22009KT 3SM -RA BR BKN023 OVC030 09/08 A2986 RMK AO2 SLP116 P0003 T00940078,KPUW,2022-10-31T18:53:00Z,46.75,-117.12,9.4,7.8,220,9,,3.0,29.861221,1011.6,,TRUE,TRUE,,,,,,-RA BR,BKN,2300,OVC,3000,,,,,MVFR,,,,,,0.03,,,,,,METAR,774.0
KPUC 311853Z AUTO 17005KT 10SM CLR 11/M08 A3013 RMK AO2 SLP200 T01111083,KPUC,2022-10-31T18:53:00Z,39.62,-110.75,11.1,-8.3,170,5,,10.0,30.129921,1020.0,,TRUE,TRUE,,,,,,,CLR,,,,,,,,VFR,,,,,,,,,,,,METAR,1777.0
KPUB 311853Z 22007KT 10SM CLR 19/M09 A2996 RMK AO2 SLP120 T01941089,KPUB,2022-10-31T18:53:00Z,38.28,-104.5,19.4,-8.9,220,7,,10.0,29.958662,1012.0,,,TRUE,,,,,,,CLR,,,,,,,,VFR,,,,,,,,,,,,METAR,1441.0
KPTK 311853Z 19004KT 9SM OVC006 15/14 A2980 RMK AO2 SLP091 T01500139,KPTK,2022-10-31T18:53:00Z,42.67,-83.42,15.0,13.9,190,4,,9.0,29.799213,1009.1,,,TRUE,,,,,,,OVC,600,,,,,,,IFR,,,,,,,,,,,,METAR,295.0
KPSX 311853Z AUTO 10SM CLR 27/12 A2998 RMK AO2 SLP152 T02670117,KPSX,2022-10-31T18:53:00Z,28.72,-96.25,26.7,11.7,,,,10.0,29.97933,1015.2,,TRUE,TRUE,,,,,,,CLR,,,,,,,,VFR,,,,,,,,,,,,METAR,4.0
KPSP 311853Z 00000KT 10SM CLR 31/M08 A2991 RMK AO2 SLP125 T03111078,KPSP,2022-10-31T18:53:00Z,33.82,-116.5,31.1,-7.8,0,0,,10.0,29.911417,1012.5,,,TRUE,,,,,,,CLR,,,,,,,,VFR,,,,,,,,,,,,METAR,123.0
KPSC 311853Z 22016G22KT 10SM FEW065 BKN085 OVC110 17/08 A2982 RMK AO2 SLP096 T01720083,KPSC,2022-10-31T18:53:00Z,46.27,-119.12,17.2,8.3,220,16,22,10.0,29.819881,1009.6,,,TRUE,,,,,,,FEW,6500,BKN,8500,OVC,11000,,,VFR,,,,,,,,,,,,METAR,121.0
KPRC 311853Z VRB04KT 10SM CLR 17/M07 A3010 RMK AO2 SLP150 T01721067,KPRC,2022-10-31T18:53:00Z,34.65,-112.42,17.2,-6.7,0,4,,10.0,30.100393,1015.0,,,TRUE,,,,,,,CLR,,,,,,,,VFR,,,,,,,,,,,,METAR,1528.0
KPRB 311853Z AUTO 00000KT 10SM CLR 14/04 A2998 RMK AO2 SLP150 T01440039 $,KPRB,2022-10-31T18:53:00Z,35.67,-120.63,14.4,3.9,0,0,,10.0,29.97933,1015.0,,TRUE,TRUE,TRUE,,,,,,CLR,,,,,,,,VFR,,,,,,,,,,,,METAR,249.0
KPQL 311853Z VRB03KT 10SM BKN044 OVC050 23/14 A3000 RMK AO2 SLP161 T02330144,KPQL,2022-10-31T18:53:00Z,30.47,-88.53,23.3,14.4,0,3,,10.0,30.0,1016.1,,,TRUE,,,,,,,BKN,4400,OVC,5000,,,,,VFR,,,,,,,,,,,,METAR,4.0
KPOU 311853Z VRB03KT 10SM FEW110 17/09 A2998 RMK AO2 SLP147 T01720094,KPOU,2022-10-31T18:53:00Z,41.63,-73.88,17.2,9.4,0,3,,10.0,29.97933,1014.7,,,TRUE,,,,,,,FEW,11000,,,,,,,VFR,,,,,,,,,,,,METAR,45.0
KPOF 311853Z AUTO 30008KT 10SM SCT036 OVC049 18/11 A2993 RMK AO2 SLP132 T01830106 $,KPOF,2022-10-31T18:53:00Z,36.77,-90.32,18.3,10.6,300,8,,10.0,29.929134,1013.2,,TRUE,TRUE,TRUE,,,,,,SCT,3600,OVC,4900,,,,,VFR,,,,,,,,,,,,METAR,99.0
KPNS 311853Z 18003KT 10SM BKN045 23/13 A2999 RMK AO2 SLP158 T02330133,KPNS,2022-10-31T18:53:00Z,30.48,-87.18,23.3,13.3,180,3,,10.0,29.991142,1015.8,,,TRUE,,,,,,,BKN,4500,,,,,,,VFR,,,,,,,,,,,,METAR,34.0
KPNC 311853Z AUTO VRB05KT 10SM CLR 22/M01 A2998 RMK AO2 SLP148 T02171006,KPNC,2022-10-31T18:53:00Z,36.73,-97.1,21.7,-0.6,0,5,,10.0,29.97933,1014.8,,TRUE,TRUE,,,,,,,CLR,,,,,,,,VFR,,,,,,,,,,,,METAR,304.0
KPMP 311853Z 13012KT 10SM SCT025 31/23 A2993 RMK AO2 SLP134 T03060233,KPMP,2022-10-31T18:53:00Z,26.25,-80.12,30.6,23.3,130,12,,10.0,29.929134,1013.4,,,TRUE,,,,,,,SCT,2500,,,,,,,VFR,,,,,,,,,,,,SPECI,4.0
KPMD 311853Z 00000KT 10SM CLR 20/M06 A3002 RMK AO2 SLP152 T02001061,KPMD,2022-10-31T18:53:00Z,34.63,-118.08,20.0,-6.1,0,0,,10.0,30.02067,1015.2,,,TRUE,,,,,,,CLR,,,,,,,,VFR,,,,,,,,,,,,METAR,764.0
KPKD 311853Z AUTO 23009KT 10SM CLR 17/M01 A2974 RMK AO2 SLP079 T01671006,KPKD,2022-10-31T18:53:00Z,46.9,-95.07,16.7,-0.6,230,9,,10.0,29.740158,1007.9,,TRUE,TRUE,,,,,,,CLR,,,,,,,,VFR,,,,,,,,,,,,METAR,439.0
KPIR 311853Z AUTO 30006KT 10SM CLR 18/M03 A2980 RMK AO2 SLP094 T01831028,KPIR,2022-10-31T18:53:00Z,44.38,-100.28,18.3,-2.8,300,6,,10.0,29.799213,1009.4,,TRUE,TRUE,,,,,,,CLR,,,,,,,,VFR,,,,,,,,,,,,METAR,524.0
KPIL 311853Z AUTO 09009KT 10SM OVC070 27/18 A2994 RMK AO2 SLP137 T02670183,KPIL,2022-10-31T18:53:00Z,26.17,-97.33,26.7,18.3,90,9,,10.0,29.940945,1013.7,,TRUE,TRUE,,,,,,,OVC,7000,,,,,,,VFR,,,,,,,,,,,,METAR,5.0
KPIH 311853Z 20011G22KT 10SM FEW060 15/M03 A3007 RMK AO2 SLP171 T01501028,KPIH,2022-10-31T18:53:00Z,42.92,-112.57,15.0,-2.8,200,11,22,10.0,30.070866,1017.1,,,TRUE,,,,,,,FEW,6000,,,,,,,VFR,,,,,,,,,,,,METAR,1357.0
KPIE 311853Z 00000KT 10SM CLR 29/19 A2996 RMK AO2 SLP145 T02940194,KPIE,2022-10-31T18:53:00Z,27.92,-82.68,29.4,19.4,0,0,,10.0,29.958662,1014.5,,,TRUE,,,,,,,CLR,,,,,,,,VFR,,,,,,,,,,,,METAR,1.0
KPHD 311853Z AUTO 16008KT 10SM FEW022 SCT028 BKN070 19/14 A2988 RMK AO2 SLP116 T01890144,KPHD,2022-10-31T18:53:00Z,40.47,-81.42,18.9,14.4,160,8,,10.0,29.878937,1011.6,,TRUE,TRUE,,,,,,,FEW,2200,SCT,2800,BKN,7000,,,VFR,,,,,,,,,,,,METAR,272.0
KPGD 311853Z 08003KT 10SM FEW075 32/20 A2994 RMK AO2 SLP136 T03220200,KPGD,2022-10-31T18:53:00Z,26.92,-82.0,32.2,20.0,80,3,,10.0,29.940945,1013.6,,,TRUE,,,,,,,FEW,7500,,,,,,,VFR,,,,,,,,,,,,METAR,7.0
KPEO 311853Z AUTO 00000KT 10SM BKN060 OVC110 17/08 A2990 RMK AO2 SLP125 T01670083,KPEO,2022-10-31T18:53:00Z,42.65,-77.05,16.7,8.3,0,0,,10.0,29.899607,1012.5,,TRUE,TRUE,,,,,,,BKN,6000,OVC,11000,,,,,VFR,,,,,,,,,,,,METAR,268.0
KPDX 311853Z 20004KT 6SM -RA BR FEW015 SCT045 OVC065 13/12 A2993 RMK AO2 SLP134 P0003 T01330117,KPDX,2022-10-31T18:53:00Z,45.6,-122.62,13.3,11.7,200,4,,6.0,29.929134,1013.4,,,TRUE,,,,,,-RA BR,FEW,1500,SCT,4500,OVC,6500,,,VFR,,,,,,0.03,,,,,,METAR,7.0
KPDT 311853Z 29007KT 10SM FEW060 OVC075 14/08 A2987 RMK AO2 RAE10B34E45 SLP107 P0000 T01390078,KPDT,2022-10-31T18:53:00Z,45.7,-118.83,13.9,7.8,290,7,,10.0,29.870079,1010.7,,,TRUE,,,,,,,FEW,6000,OVC,7500,,,,,VFR,,,,,,0.005,,,,,,METAR,453.0
KPDK 311853Z 00000KT 10SM BKN010 BKN032 OVC048 21/17 A2997 RMK AO2 SLP140 T02060167,KPDK,2022-10-31T18:53:00Z,33.88,-84.3,20.6,16.7,0,0,,10.0,29.970472,1014.0,,,TRUE,,,,,,,BKN,1000,BKN,3200,OVC,4800,,,MVFR,,,,,,,,,,,,METAR,299.0
KPBI 311853Z 14013KT 10SM SCT025 SCT100 SCT250 30/23 A2994 RMK AO2 SLP136 T03000233,KPBI,2022-10-31T18:53:00Z,26.68,-80.1,30.0,23.3,140,13,,10.0,29.940945,1013.6,,,TRUE,,,,,,,SCT,2500,SCT,10000,SCT,25000,,,VFR,,,,,,,,,,,,METAR,4.0
KPBG 311853Z AUTO 13007KT 10SM CLR 14/06 A2991 RMK AO2 SLP130 T01440061,KPBG,2022-10-31T18:53:00Z,44.65,-73.47,14.4,6.1,130,7,,10.0,29.911417,1013.0,,TRUE,TRUE,,,,,,,CLR,,,,,,,,VFR,,,,,,,,,,,,METAR,61.0
KPBF 311853Z AUTO 00000KT 10SM SCT041 23/11 A2998 RMK AO2 SLP149 T02280111,KPBF,2022-10-31T18:53:00Z,34.18,-91.93,22.8,11.1,0,0,,10.0,29.97933,1014.9,,TRUE,TRUE,,,,,,,SCT,4100,,,,,,,VFR,,,,,,,,,,,,METAR,63.0
KPAH 311853Z VRB05KT 10SM FEW022 SCT030 BKN046 18/14 A2990 RMK AO2 RAB08E22 SLP123 P0000 T01780139 $,KPAH,2022-10-31T18:53:00Z,37.07,-88.77,17.8,13.9,0,5,,10.0,29.899607,1012.3,,,TRUE,TRUE,,,,,,FEW,2200,SCT,3000,BKN,4600,,,VFR,,,,,,0.005,,,,,,SPECI,125.0
KPAE 311853Z VRB04KT 10SM OVC034 10/07 A2983 RMK AO2 RAE03 SLP104 P0000 T01000067,KPAE,2022-10-31T18:53:00Z,47.92,-122.28,10.0,6.7,0,4,,10.0,29.828741,1010.4,,,TRUE,,,,,,,OVC,3400,,,,,,,VFR,,,,,,0.005,,,,,,METAR,166.0
KP68 311853Z AUTO 00000KT 13/M05 A3011 RMK AO1 SLP169 T01281050,KP68,2022-10-31T18:53:00Z,39.6,-116.0,12.8,-5.0,0,0,,,30.109253,1016.9,,TRUE,TRUE,,,,,,,,,,,,,,,,,,,,,,,,,,,METAR,1813.0
KOXB 311853Z AUTO 19005KT 10SM 18/13 A3003 RMK AO2 SLP169 T01780133,KOXB,2022-10-31T18:53:00Z,38.32,-75.12,17.8,13.3,190,5,,10.0,30.029528,1016.9,,TRUE,TRUE,,,,,,,,,,,,,,,,,,,,,,,,,,,METAR,2.0
KOWD 311853Z 22010KT 10SM BKN030 19/13 A2999 RMK AO2 SLP156 T01940128,KOWD,2022-10-31T18:53:00Z,42.18,-71.17,19.4,12.8,220,10,,10.0,29.991142,1015.6,,,TRUE,,,,,,,BKN,3000,,,,,,,MVFR,,,,,,,,,,,,METAR,14.0
KOVS 311853Z AUTO 29004KT 10SM CLR 19/06 A2983 RMK AO2 SLP104 T01890056,KOVS,2022-10-31T18:53:00Z,43.15,-90.68,18.9,5.6,290,4,,10.0,29.828741,1010.4,,TRUE,TRUE,,,,,,,CLR,,,,,,,,VFR,,,,,,,,,,,,METAR,205.0
KOVE 311853Z AUTO 26003KT 10SM CLR 18/06 A2998 RMK AO2 SLP152 T01780056,KOVE,2022-10-31T18:53:00Z,39.5,-121.62,17.8,5.6,260,3,,10.0,29.97933,1015.2,,TRUE,TRUE,,,,,,,CLR,,,,,,,,VFR,,,,,,,,,,,,METAR,56.0
KOTM 311853Z AUTO 27008KT 10SM CLR 18/07 A2988 RMK AO2 SLP119 T01780067,KOTM,2022-10-31T18:53:00Z,41.1,-92.45,17.8,6.7,270,8,,10.0,29.878937,1011.9,,TRUE,TRUE,,,,,,,CLR,,,,,,,,VFR,,,,,,,,,,,,METAR,254.0
KOSH 311853Z VRB03KT 8SM CLR 17/07 A2980 RMK AO2 SLP092 T01670067,KOSH,2022-10-31T18:53:00Z,43.98,-88.55,16.7,6.7,0,3,,8.0,29.799213,1009.2,,,TRUE,,,,,,,CLR,,,,,,,,VFR,,,,,,,,,,,,METAR,239.0
KORL 311853Z COR 14005KT 10SM SCT046 SCT055 31/21 A2996 RMK AO2 SLP146 T03110206,KORL,2022-10-31T18:53:00Z,28.55,-81.33,31.1,20.6,140,5,,10.0,29.958662,1014.6,TRUE,,TRUE,,,,,,,SCT,4600,SCT,5500,,,,,VFR,,,,,,,,,,,,METAR,32.0
KOPF 311853Z 11010KT 10SM FEW031 31/22 A2993 RMK AO2 SLP136 T03060222,KOPF,2022-10-31T18:53:00Z,25.92,-80.28,30.6,22.2,110,10,,10.0,29.929134,1013.6,,,TRUE,,,,,,,FEW,3100,,,,,,,VFR,,,,,,,,,,,,METAR,1.0
KONT 311853Z 00000KT 10SM BKN270 27/M02 A2991 RMK AO2 SLP117 T02671017,KONT,2022-10-31T18:53:00Z,34.05,-117.58,26.7,-1.7,0,0,,10.0,29.911417,1011.7,,,TRUE,,,,,,,BKN,27000,,,,,,,VFR,,,,,,,,,,,,METAR,279.0
KONO 311853Z AUTO 00000KT 10SM CLR 11/01 A3001 RMK AO2 SLP171 T01110011,KONO,2022-10-31T18:53:00Z,44.02,-117.02,11.1,1.1,0,0,,10.0,30.008858,1017.1,,TRUE,TRUE,,,,,,,CLR,,,,,,,,VFR,,,,,,,,,,,,METAR,668.0
KOMK 311853Z AUTO 15012KT 10SM CLR 14/06 A2967 RMK AO2 SLP048 T01390061,KOMK,2022-10-31T18:53:00Z,48.47,-119.52,13.9,6.1,150,12,,10.0,29.66929,1004.8,,TRUE,TRUE,,,,,,,CLR,,,,,,,,VFR,,,,,,,,,,,,METAR,395.0
KOLF 311853Z AUTO 00000KT 10SM CLR 14/02 A2969 RMK AO2 SLP062 T01440022 $,KOLF,2022-10-31T18:53:00Z,48.1,-105.58,14.4,2.2,0,0,,10.0,29.68996,1006.2,,TRUE,TRUE,TRUE,,,,,,CLR,,,,,,,,VFR,,,,,,,,,,,,METAR,605.0
KOJC 311853Z VRB05KT 10SM CLR 20/03 A2994 RMK AO2 SLP133 T02000033,KOJC,2022-10-31T18:53:00Z,38.85,-94.73,20.0,3.3,0,5,,10.0,29.940945,1013.3,,,TRUE,,,,,,,CLR,,,,,,,,VFR,,,,,,,,,,,,SPECI,328.0
KOGD 311853Z 23005KT 10SM CLR 14/M03 A3011 RMK AO2 SLP178 T01391028,KOGD,2022-10-31T18:53:00Z,41.2,-112.02,13.9,-2.8,230,5,,10.0,30.109253,1017.8,,,TRUE,,,,,,,CLR,,,,,,,,VFR,,,,,,,,,,,,METAR,1356.0
KOGB 311853Z AUTO 20010KT 10SM CLR 27/19 A2998 RMK AO2 SLP149 T02670189,KOGB,2022-10-31T18:53:00Z,33.47,-80.85,26.7,18.9,200,10,,10.0,29.97933,1014.9,,TRUE,TRUE,,,,,,,CLR,,,,,,,,VFR,,,,,,,,,,,,METAR,59.0
KODX 311853Z AUTO 20010KT 10SM CLR 21/M02 A2986 RMK AO2 SLP115 T02111017,KODX,2022-10-31T18:53:00Z,41.62,-98.95,21.1,-1.7,200,10,,10.0,29.861221,1011.5,,TRUE,TRUE,,,,,,,CLR,,,,,,,,VFR,,,,,,,,,,,,METAR,628.0
KODO 311853Z AUTO 15011KT 10SM CLR 20/08 A3006 RMK AO2 SLP149 T02000078,KODO,2022-10-31T18:53:00Z,31.92,-102.4,20.0,7.8,150,11,,10.0,30.059055,1014.9,,TRUE,TRUE,,,,,,,CLR,,,,,,,,VFR,,,,,,,,,,,,METAR,912.0
KOAK 311853Z 20004KT 10SM BKN200 BKN250 15/11 A2996 RMK AO2 SLP146 T01500111,KOAK,2022-10-31T18:53:00Z,37.72,-122.23,15.0,11.1,200,4,,10.0,29.958662,1014.6,,,TRUE,,,,,,,BKN,20000,BKN,25000,,,,,VFR,,,,,,,,,,,,METAR,3.0
KNUW 311853Z 29028G34KT 10SM SCT025 BKN040 BKN065 11/07 A2982 RMK AO2 PK WND 29042/1756 RAE29 SLP097 P0000 T01110067 VISNO $,KNUW,2022-10-31T18:53:00Z,48.35,-122.65,11.1,6.7,290,28,34,10.0,29.819881,1009.7,,,TRUE,TRUE,,,,,,SCT,2500,BKN,4000,BKN,6500,,,VFR,,,,,,0.005,,,,,,METAR,14.0
KNUI 311853Z AUTO VRB04KT 10SM FEW045 22/13 A3001 RMK AO2 SLP162 T02170133,KNUI,2022-10-31T18:53:00Z,38.15,-76.43,21.7,13.3,0,4,,10.0,30.008858,1016.2,,TRUE,TRUE,,,,,,,FEW,4500,,,,,,,VFR,,,,,,,,,,,,METAR,4.0
KNSI 311853Z 00000KT 10SM BKN220 20/14 A2992 RMK SLP125 T02000139,KNSI,2022-10-31T18:53:00Z,33.23,-119.45,20.0,13.9,0,0,,10.0,29.920275,1012.5,,,,,,,,,,BKN,22000,,,,,,,VFR,,,,,,,,,,,,METAR,161.0
KNRS 311853Z 25007KT 10SM BKN250 22/09 A2991 RMK AO2 SLP127 T02220089,KNRS,2022-10-31T18:53:00Z,32.57,-117.12,22.2,8.9,250,7,,10.0,29.911417,1012.7,,,TRUE,,,,,,,BKN,25000,,,,,,,VFR,,,,,,,,,,,,METAR,15.0
KNQX 311853Z 10009KT 10SM FEW018 33/24 A2991 RMK AO2 SLP127 T03280244 $,KNQX,2022-10-31T18:53:00Z,24.57,-81.67,32.8,24.4,100,9,,10.0,29.911417,1012.7,,,TRUE,TRUE,,,,,,FEW,1800,,,,,,,VFR,,,,,,,,,,,,METAR,2.0
KNIP 311853Z COR 17008KT 10SM FEW038 BKN100 BKN250 29/20 A2997 RMK AO2 SLP144 T02890200,KNIP,2022-10-31T18:53:00Z,30.23,-81.67,28.9,20.0,170,8,,10.0,29.970472,1014.4,TRUE,,TRUE,,,,,,,FEW,3800,BKN,10000,BKN,25000,,,VFR,,,,,,,,,,,,SPECI,3.0
KNHK 311853Z 13007KT 10SM BKN045 BKN070 BKN130 19/14 A3002 RMK AO2 T01940139 $,KNHK,2022-10-31T18:53:00Z,38.28,-76.4,19.4,13.9,130,7,,10.0,30.02067,,,,TRUE,TRUE,,,,,,BKN,4500,BKN,7000,BKN,13000,,,VFR,,,,,,,,,,,,METAR,5.0
KNEW 311853Z 32005KT 10SM CLR 23/16 A3003 RMK AO2 SLP161 T02280161,KNEW,2022-10-31T18:53:00Z,30.05,-90.03,22.8,16.1,320,5,,10.0,30.029528,1016.1,,,TRUE,,,,,,,CLR,,,,,,,,VFR,,,,,,,,,,,,METAR,1.0
KMYV 311853Z AUTO VRB05KT 10SM CLR 18/05 A2997 RMK AO2 SLP151 T01830050 $,KMYV,2022-10-31T18:53:00Z,39.1,-121.57,18.3,5.0,0,5,,10.0,29.970472,1015.1,,TRUE,TRUE,TRUE,,,,,,CLR,,,,,,,,VFR,,,,,,,,,,,,METAR,18.0
KMYF 311853Z 28003KT 10SM CLR 26/04 A2990 RMK AO2 SLP123 T02610039,KMYF,2022-10-31T18:53:00Z,32.82,-117.13,26.1,3.9,280,3,,10.0,29.899607,1012.3,,,TRUE,,,,,,,CLR,,,,,,,,VFR,,,,,,,,,,,,METAR,128.0
KMWT 311853Z AUTO 00000KT 10SM CLR 22/09 A2997 RMK AO2 SLP142 T02220089 $,KMWT,2022-10-31T18:53:00Z,34.55,-93.58,22.2,8.9,0,0,,10.0,29.970472,1014.2,,TRUE,TRUE,TRUE,,,,,,CLR,,,,,,,,VFR,,,,,,,,,,,,METAR,220.0
KMWL 311853Z AUTO 09004KT 10SM CLR 24/08 A3002 RMK AO2 SLP156 T02390078,KMWL,2022-10-31T18:53:00Z,32.78,-98.07,23.9,7.8,90,4,,10.0,30.02067,1015.6,,TRUE,TRUE,,,,,,,CLR,,,,,,,,VFR,,,,,,,,,,,,METAR,288.0
KMVY 311853Z 17007KT 10SM BKN009 OVC014 17/16 A3003 RMK AO2 RAB07E22 SLP168 P0000 T01720156,KMVY,2022-10-31T18:53:00Z,41.4,-70.62,17.2,15.6,170,7,,10.0,30.029528,1016.8,,,TRUE,,,,,,,BKN,900,OVC,1400,,,,,IFR,,,,,,0.005,,,,,,METAR,18.0
KMTJ 311853Z AUTO VRB03KT 10SM CLR 11/M01 A3015 RMK AO2 SLP185 T01061011,KMTJ,2022-10-31T18:53:00Z,38.5,-107.9,10.6,-1.1,0,3,,10.0,30.15059,1018.5,,TRUE,TRUE,,,,,,,CLR,,,,,,,,VFR,,,,,,,,,,,,METAR,1755.0
KMTH 311853Z AUTO 09008KT 10SM CLR 31/24 A2990 RMK AO2 SLP125 T03110239,KMTH,2022-10-31T18:53:00Z,24.73,-81.05,31.1,23.9,90,8,,10.0,29.899607,1012.5,,TRUE,TRUE,,,,,,,CLR,,,,,,,,VFR,,,,,,,,,,,,METAR,1.0
KMSY 311853Z 33005KT 10SM SCT037 SCT050 BKN250 24/14 A3002 RMK AO2 SLP167 T02390139,KMSY,2022-10-31T18:53:00Z,30.0,-90.25,23.9,13.9,330,5,,10.0,30.02067,1016.7,,,TRUE,,,,,,,SCT,3700,SCT,5000,BKN,25000,,,VFR,,,,,,,,,,,,METAR,0.0
KMSS 311853Z AUTO 32004KT 10SM CLR 16/05 A2992 RMK AO2 SLP134 T01610050,KMSS,2022-10-31T18:53:00Z,44.93,-74.85,16.1,5.0,320,4,,10.0,29.920275,1013.4,,TRUE,TRUE,,,,,,,CLR,,,,,,,,VFR,,,,,,,,,,,,METAR,60.0
KMSP 311853Z 26006KT 10SM FEW250 17/M03 A2983 RMK AO2 SLP104 T01721028,KMSP,2022-10-31T18:53:00Z,44.88,-93.23,17.2,-2.8,260,6,,10.0,29.828741,1010.4,,,TRUE,,,,,,,FEW,25000,,,,,,,VFR,,,,,,,,,,,,METAR,255.0
KMSO 311853Z 24011G25KT 10SM BKN047 OVC060 15/04 A2982 RMK AO2 SLP094 T01500044,KMSO,2022-10-31T18:53:00Z,46.92,-114.1,15.0,4.4,240,11,25,10.0,29.819881,1009.4,,,TRUE,,,,,,,BKN,4700,OVC,6000,,,,,VFR,,,,,,,,,,,,METAR,974.0
KMSN 311853Z VRB03KT 10SM SCT250 18/05 A2982 RMK AO2 SLP097 T01830050,KMSN,2022-10-31T18:53:00Z,43.13,-89.35,18.3,5.0,0,3,,10.0,29.819881,1009.7,,,TRUE,,,,,,,SCT,25000,,,,,,,VFR,,,,,,,,,,,,METAR,262.0
KMSL 311853Z AUTO 24009KT 6SM HZ BKN039 OVC065 19/14 A2997 RMK AO2 SLP145 T01940139,KMSL,2022-10-31T18:53:00Z,34.75,-87.6,19.4,13.9,240,9,,6.0,29.970472,1014.5,,TRUE,TRUE,,,,,,HZ,BKN,3900,OVC,6500,,,,,VFR,,,,,,,,,,,,METAR,170.0
KMRB 311853Z 00000KT 6SM -RA BR SCT036 BKN090 OVC110 13/12 A2997 RMK AO2 RAB29 SLP151 P0002 T01280117,KMRB,2022-10-31T18:53:00Z,39.4,-77.98,12.8,11.7,0,0,,6.0,29.970472,1015.1,,,TRUE,,,,,,-RA BR,SCT,3600,BKN,9000,OVC,11000,,,VFR,,,,,,0.02,,,,,,METAR,165.0
KMOD 311853Z 21003KT 8SM CLR 16/06 A2995 RMK AO2 SLP140 T01560061,KMOD,2022-10-31T18:53:00Z,37.62,-120.95,15.6,6.1,210,3,,8.0,29.949802,1014.0,,,TRUE,,,,,,,CLR,,,,,,,,VFR,,,,,,,,,,,,METAR,25.0
KMMK 311853Z AUTO 17011KT 10SM CLR 19/09 A2999 RMK AO2 SLP156 T01890094,KMMK,2022-10-31T18:53:00Z,41.52,-72.83,18.9,9.4,170,11,,10.0,29.991142,1015.6,,TRUE,TRUE,,,,,,,CLR,,,,,,,,VFR,,,,,,,,,,,,METAR,30.0
KMLU 311853Z 10SM BKN048 26/13 A3000 RMK AO2 SLP160 T02560128,KMLU,2022-10-31T18:53:00Z,32.52,-92.03,25.6,12.8,,,,10.0,30.0,1016.0,,,TRUE,,,,,,,BKN,4800,,,,,,,VFR,,,,,,,,,,,,METAR,22.0
KMLT 311853Z AUTO 09004KT 10SM CLR 17/04 A2994 RMK AO2 SLP144 T01720044,KMLT,2022-10-31T18:53:00Z,45.65,-68.7,17.2,4.4,90,4,,10.0,29.940945,1014.4,,TRUE,TRUE,,,,,,,CLR,,,,,,,,VFR,,,,,,,,,,,,METAR,121.0
KMLS 311853Z AUTO 26015G21KT 10SM CLR 18/00 A2975 RMK AO2 SLP071 T01780000,KMLS,2022-10-31T18:53:00Z,46.43,-105.88,17.8,0.0,260,15,21,10.0,29.749016,1007.1,,TRUE,TRUE,,,,,,,CLR,,,,,,,,VFR,,,,,,,,,,,,METAR,800.0
KMLC 311853Z AUTO 00000KT 9SM CLR 22/03 A3001 RMK AO2 SLP157 T02170033,KMLC,2022-10-31T18:53:00Z,34.88,-95.78,21.7,3.3,0,0,,9.0,30.008858,1015.7,,TRUE,TRUE,,,,,,,CLR,,,,,,,,VFR,,,,,,,,,,,,METAR,231.0
KMLB 311853Z 08007KT 10SM CLR 28/23 A2995 RMK AO2 SLP141 T02830228,KMLB,2022-10-31T18:53:00Z,28.1,-80.65,28.3,22.8,80,7,,10.0,29.949802,1014.1,,,TRUE,,,,,,,CLR,,,,,,,,VFR,,,,,,,,,,,,METAR,7.0
KMKO 311853Z AUTO 25003KT 10SM CLR 22/04 A3001 RMK AO2 SLP159 T02220044,KMKO,2022-10-31T18:53:00Z,35.65,-95.37,22.2,4.4,250,3,,10.0,30.008858,1015.9,,TRUE,TRUE,,,,,,,CLR,,,,,,,,VFR,,,,,,,,,,,,METAR,184.0
KMKL 311853Z 24009KT 10SM FEW022 OVC043 18/13 A2996 RMK AO2 SLP142 T01780133,KMKL,2022-10-31T18:53:00Z,35.6,-88.92,17.8,13.3,240,9,,10.0,29.958662,1014.2,,,TRUE,,,,,,,FEW,2200,OVC,4300,,,,,VFR,,,,,,,,,,,,METAR,130.0
KMIW 311853Z AUTO VRB06KT 9SM CLR 18/02 A2987 RMK AO2 SLP118 T01830017,KMIW,2022-10-31T18:53:00Z,42.12,-92.92,18.3,1.7,0,6,,9.0,29.870079,1011.8,,TRUE,TRUE,,,,,,,CLR,,,,,,,,VFR,,,,,,,,,,,,METAR,296.0
KMIC 311853Z 21008KT 10SM CLR 17/M02 A2981 RMK AO2 SLP099 T01721022,KMIC,2022-10-31T18:53:00Z,45.07,-93.35,17.2,-2.2,210,8,,10.0,29.811024,1009.9,,,TRUE,,,,,,,CLR,,,,,,,,VFR,,,,,,,,,,,,METAR,263.0
KMIA 311853Z 10011KT 10SM SCT031 31/23 A2993 RMK AO2 SLP134 T03060228,KMIA,2022-10-31T18:53:00Z,25.8,-80.32,30.6,22.8,100,11,,10.0,29.929134,1013.4,,,TRUE,,,,,,,SCT,3100,,,,,,,VFR,,,,,,,,,,,,METAR,1.0
KMHT 311853Z 20010KT 10SM BKN150 BKN250 20/06 A2994 RMK AO2 SLP154 T02000061,KMHT,2022-10-31T18:53:00Z,42.93,-71.43,20.0,6.1,200,10,,10.0,29.940945,1015.4,,,TRUE,,,,,,,BKN,15000,BKN,25000,,,,,VFR,,,,,,,,,,,,METAR,68.0
KMHE 311853Z AUTO 20008KT 10SM CLR 19/M02 A2981 RMK AO2 SLP099 T01891017,KMHE,2022-10-31T18:53:00Z,43.77,-98.03,18.9,-1.7,200,8,,10.0,29.811024,1009.9,,TRUE,TRUE,,,,,,,CLR,,,,,,,,VFR,,,,,,,,,,,,METAR,397.0
KMGM 311853Z 26008G18KT 10SM OVC050 22/12 A3000 RMK AO2 SLP158 T02220117 $,KMGM,2022-10-31T18:53:00Z,32.3,-86.4,22.2,11.7,260,8,18,10.0,30.0,1015.8,,,TRUE,TRUE,,,,,,OVC,5000,,,,,,,VFR,,,,,,,,,,,,METAR,64.0
KMFR 311853Z 00000KT 10SM CLR 12/06 A2998 RMK AO2 SLP154 T01170056,KMFR,2022-10-31T18:53:00Z,42.38,-122.87,11.7,5.6,0,0,,10.0,29.97933,1015.4,,,TRUE,,,,,,,CLR,,,,,,,,VFR,,,,,,,,,,,,METAR,397.0
KMFE 311853Z 09010KT 10SM OVC050 26/14 A2993 RMK AO2 SLP135 T02610144,KMFE,2022-10-31T18:53:00Z,26.18,-98.25,26.1,14.4,90,10,,10.0,29.929134,1013.5,,,TRUE,,,,,,,OVC,5000,,,,,,,VFR,,,,,,,,,,,,METAR,29.0
KMDW 311853Z 36006KT 6SM BR OVC009 16/12 A2981 RMK AO2 SLP092 T01560122,KMDW,2022-10-31T18:53:00Z,41.78,-87.75,15.6,12.2,360,6,,6.0,29.811024,1009.2,,,TRUE,,,,,,BR,OVC,900,,,,,,,IFR,,,,,,,,,,,,METAR,186.0
KMCW 311853Z AUTO 29008KT 10SM CLR 17/00 A2988 RMK AO2 SLP116 T01720000,KMCW,2022-10-31T18:53:00Z,43.15,-93.33,17.2,0.0,290,8,,10.0,29.878937,1011.6,,TRUE,TRUE,,,,,,,CLR,,,,,,,,VFR,,,,,,,,,,,,METAR,363.0
KMCO 311853Z 06005KT 10SM FEW060 FEW200 31/19 A2995 RMK AO2 SLP140 T03110189,KMCO,2022-10-31T18:53:00Z,28.42,-81.33,31.1,18.9,60,5,,10.0,29.949802,1014.0,,,TRUE,,,,,,,FEW,6000,FEW,20000,,,,,VFR,,,,,,,,,,,,METAR,27.0
KMCN 311853Z 20005KT 10SM FEW026 SCT034 BKN075 26/19 A2996 RMK AO2 SLP141 T02560194,KMCN,2022-10-31T18:53:00Z,32.68,-83.65,25.6,19.4,200,5,,10.0,29.958662,1014.1,,,TRUE,,,,,,,FEW,2600,SCT,3400,BKN,7500,,,VFR,,,,,,,,,,,,METAR,104.0
KMCK 311853Z AUTO VRB06KT 10SM CLR 19/M06 A2992 RMK AO2 SLP133 T01941056,KMCK,2022-10-31T18:53:00Z,40.2,-100.58,19.4,-5.6,0,6,,10.0,29.920275,1013.3,,TRUE,TRUE,,,,,,,CLR,,,,,,,,VFR,,,,,,,,,,,,METAR,780.0
KMCI 311853Z VRB03KT 9SM SCT160 SCT200 21/02 A2993 RMK AO2 SLP132 T02060017,KMCI,2022-10-31T18:53:00Z,39.3,-94.73,20.6,1.7,0,3,,9.0,29.929134,1013.2,,,TRUE,,,,,,,SCT,16000,SCT,20000,,,,,VFR,,,,,,,,,,,,METAR,308.0
KMCE 311853Z AUTO VRB03KT 9SM CLR 19/05 A2995 RMK AO2 SLP141 T01940050,KMCE,2022-10-31T18:53:00Z,37.28,-120.5,19.4,5.0,0,3,,9.0,29.949802,1014.1,,TRUE,TRUE,,,,,,,CLR,,,,,,,,VFR,,,,,,,,,,,,METAR,49.0
KMCB 311853Z AUTO 23006KT 10SM FEW047 22/11 A3001 RMK AO2 SLP159 T02220111,KMCB,2022-10-31T18:53:00Z,31.18,-90.47,22.2,11.1,230,6,,10.0,30.008858,1015.9,,TRUE,TRUE,,,,,,,FEW,4700,,,,,,,VFR,,,,,,,,,,,,METAR,124.0
KMAI 311853Z AUTO VRB03KT 10SM BKN040 BKN048 24/17 A2998 RMK AO1 SLP150 T02440167,KMAI,2022-10-31T18:53:00Z,30.83,-85.18,24.4,16.7,0,3,,10.0,29.97933,1015.0,,TRUE,TRUE,,,,,,,BKN,4000,BKN,4800,,,,,VFR,,,,,,,,,,,,METAR,33.0
KMAF 311853Z 16008KT 10SM CLR 21/09 A3004 RMK AO2 SLP143 T02060089,KMAF,2022-10-31T18:53:00Z,31.95,-102.2,20.6,8.9,160,8,,10.0,30.041338,1014.3,,,TRUE,,,,,,,CLR,,,,,,,,VFR,,,,,,,,,,,,METAR,874.0
KMAE 311853Z AUTO 21003KT 9SM CLR 18/07 A2996 RMK AO2 SLP142 T01780067,KMAE,2022-10-31T18:53:00Z,36.98,-120.12,17.8,6.7,210,3,,9.0,29.958662,1014.2,,TRUE,TRUE,,,,,,,CLR,,,,,,,,VFR,,,,,,,,,,,,METAR,77.0
KLXV 311853Z AUTO 32007KT 10SM CLR 07/M14 A3017 RMK AO2 SLP144 T00721139,KLXV,2022-10-31T18:53:00Z,39.23,-106.32,7.2,-13.9,320,7,,10.0,30.171259,1014.4,,TRUE,TRUE,,,,,,,CLR,,,,,,,,VFR,,,,,,,,,,,,METAR,3027.0
KLXT 311853Z AUTO 32008KT 10SM CLR 19/03 A2994 RMK AO2 SLP136 T01940033,KLXT,2022-10-31T18:53:00Z,38.97,-94.37,19.4,3.3,320,8,,10.0,29.940945,1013.6,,TRUE,TRUE,,,,,,,CLR,,,,,,,,VFR,,,,,,,,,,,,METAR,306.0
KLWD 311853Z AUTO 32005KT 10SM CLR 19/02 A2991 RMK AO2 SLP128 T01890022,KLWD,2022-10-31T18:53:00Z,40.63,-93.9,18.9,2.2,320,5,,10.0,29.911417,1012.8,,TRUE,TRUE,,,,,,,CLR,,,,,,,,VFR,,,,,,,,,,,,METAR,345.0
KLVS 311853Z AUTO 21010KT 10SM CLR 15/M05 A3009 RMK AO2 SLP123 T01501050,KLVS,2022-10-31T18:53:00Z,35.65,-105.13,15.0,-5.0,210,10,,10.0,30.088583,1012.3,,TRUE,TRUE,,,,,,,CLR,,,,,,,,VFR,,,,,,,,,,,,METAR,2095.0
KLVM 311853Z AUTO 22029G39KT 10SM CLR 16/M01 A2980 RMK AO2 PK WND 22048/1756 SLP066 T01611006,KLVM,2022-10-31T18:53:00Z,45.7,-110.43,16.1,-0.6,220,29,39,10.0,29.799213,1006.6,,TRUE,TRUE,,,,,,,CLR,,,,,,,,VFR,,,,,,,,,,,,METAR,1418.0
KLVK 311853Z 28004KT 10SM CLR 16/09 A2995 RMK AO2 SLP139 T01610089,KLVK,2022-10-31T18:53:00Z,37.7,-121.82,16.1,8.9,280,4,,10.0,29.949802,1013.9,,,TRUE,,,,,,,CLR,,,,,,,,VFR,,,,,,,,,,,,METAR,120.0
KLVJ 311853Z AUTO 10SM CLR 25/12 A3002 RMK AO2 SLP165 T02500117,KLVJ,2022-10-31T18:53:00Z,29.52,-95.25,25.0,11.7,,,,10.0,30.02067,1016.5,,TRUE,TRUE,,,,,,,CLR,,,,,,,,VFR,,,,,,,,,,,,METAR,11.0
KLUK 311853Z 21012KT 10SM SCT028 OVC075 19/14 A2988 RMK AO2 RAB28E40 SLP114 P0000 T01890139,KLUK,2022-10-31T18:53:00Z,39.1,-84.42,18.9,13.9,210,12,,10.0,29.878937,1011.4,,,TRUE,,,,,,,SCT,2800,OVC,7500,,,,,VFR,,,,,,0.005,,,,,,METAR,144.0
KLSE 311853Z 29004KT 10SM CLR 18/05 A2983 RMK AO2 SLP103 T01780050,KLSE,2022-10-31T18:53:00Z,43.88,-91.25,17.8,5.0,290,4,,10.0,29.828741,1010.3,,,TRUE,,,,,,,CLR,,,,,,,,VFR,,,,,,,,,,,,METAR,198.0
KLPR 311853Z AUTO 22016KT 10SM SCT034 OVC070 19/13 A2984 RMK AO2 SLP102 T01940128,KLPR,2022-10-31T18:53:00Z,41.35,-82.18,19.4,12.8,220,16,,10.0,29.840551,1010.2,,TRUE,TRUE,,,,,,,SCT,3400,OVC,7000,,,,,VFR,,,,,,,,,,,,METAR,241.0
KLOZ 311853Z AUTO 22008KT 10SM FEW029 SCT050 OVC060 18/12 A2994 RMK AO2 SLP132 T01780122 $,KLOZ,2022-10-31T18:53:00Z,37.08,-84.07,17.8,12.2,220,8,,10.0,29.940945,1013.2,,TRUE,TRUE,TRUE,,,,,,FEW,2900,SCT,5000,OVC,6000,,,VFR,,,,,,,,,,,,METAR,361.0
KLOL 311853Z AUTO 18005KT 10SM CLR 13/M07 A3005 RMK AO2 SLP179 T01331067,KLOL,2022-10-31T18:53:00Z,40.07,-118.57,13.3,-6.7,180,5,,10.0,30.050198,1017.9,,TRUE,TRUE,,,,,,,CLR,,,,,,,,VFR,,,,,,,,,,,,METAR,1191.0
KLNS 311853Z 19007KT 10SM OVC017 17/13 A3000 RMK AO2 RAE03 SLP159 P0000 T01670128,KLNS,2022-10-31T18:53:00Z,40.12,-76.3,16.7,12.8,190,7,,10.0,30.0,1015.9,,,TRUE,,,,,,,OVC,1700,,,,,,,MVFR,,,,,,0.005,,,,,,METAR,122.0
KLND 311853Z AUTO 09005KT 10SM CLR 16/M06 A2995 RMK AO2 SLP122 T01611061,KLND,2022-10-31T18:53:00Z,42.82,-108.73,16.1,-6.1,90,5,,10.0,29.949802,1012.2,,TRUE,TRUE,,,,,,,CLR,,,,,,,,VFR,,,,,,,,,,,,METAR,1700.0
KLMT 311853Z COR 00000KT 10SM CLR 12/M02 A3000 RMK AO2 SLP155 T01171022,KLMT,2022-10-31T18:53:00Z,42.15,-121.72,11.7,-2.2,0,0,,10.0,30.0,1015.5,TRUE,,TRUE,,,,,,,CLR,,,,,,,,VFR,,,,,,,,,,,,METAR,1246.0
KLLQ 311853Z AUTO 24008KT 10SM BKN034 BKN044 23/13 A2998 RMK AO2 SLP150 T02330133,KLLQ,2022-10-31T18:53:00Z,33.63,-91.75,23.3,13.3,240,8,,10.0,29.97933,1015.0,,TRUE,TRUE,,,,,,,BKN,3400,BKN,4400,,,,,VFR,,,,,,,,,,,,METAR,86.0
KLKV 311853Z AUTO VRB05KT 10SM CLR 14/M03 A3002 RMK AO2 SLP172 T01391028,KLKV,2022-10-31T18:53:00Z,42.17,-120.4,13.9,-2.8,0,5,,10.0,30.02067,1017.2,,TRUE,TRUE,,,,,,,CLR,,,,,,,,VFR,,,,,,,,,,,,METAR,1440.0
KLIT 311853Z 32007KT 10SM FEW040 BKN250 24/11 A2997 RMK AO2 SLP149 T02390111,KLIT,2022-10-31T18:53:00Z,34.73,-92.23,23.9,11.1,320,7,,10.0,29.970472,1014.9,,,TRUE,,,,,,,FEW,4000,BKN,25000,,,,,VFR,,,,,,,,,,,,METAR,77.0
KLHX 311853Z AUTO 00000KT 10SM CLR 17/M04 A2998 RMK AO2 SLP125 T01671044,KLHX,2022-10-31T18:53:00Z,38.05,-103.52,16.7,-4.4,0,0,,10.0,29.97933,1012.5,,TRUE,TRUE,,,,,,,CLR,,,,,,,,VFR,,,,,,,,,,,,METAR,1289.0
KLHQ 311853Z AUTO 22010G18KT 10SM FEW035 OVC070 20/12 A2987 RMK AO2 SLP113 T02000122,KLHQ,2022-10-31T18:53:00Z,39.75,-82.67,20.0,12.2,220,10,18,10.0,29.870079,1011.3,,TRUE,TRUE,,,,,,,FEW,3500,OVC,7000,,,,,VFR,,,,,,,,,,,,METAR,259.0
KLGB 311853Z 17006KT 10SM CLR 23/14 A2991 RMK AO2 SLP128 T02280139,KLGB,2022-10-31T18:53:00Z,33.82,-118.15,22.8,13.9,170,6,,10.0,29.911417,1012.8,,,TRUE,,,,,,,CLR,,,,,,,,VFR,,,,,,,,,,,,METAR,10.0
KLFT 311853Z 32006KT 10SM BKN040 26/12 A3001 RMK AO2 SLP161 T02560122,KLFT,2022-10-31T18:53:00Z,30.2,-91.97,25.6,12.2,320,6,,10.0,30.008858,1016.1,,,TRUE,,,,,,,BKN,4000,,,,,,,VFR,,,,,,,,,,,,METAR,9.0
KLFK 311853Z AUTO 24005KT 10SM CLR 22/14 A3003 RMK AO2 SLP167 T02220139,KLFK,2022-10-31T18:53:00Z,31.23,-94.75,22.2,13.9,240,5,,10.0,30.029528,1016.7,,TRUE,TRUE,,,,,,,CLR,,,,,,,,VFR,,,,,,,,,,,,METAR,87.0
KLEE 311853Z 14006KT 10SM CLR 30/19 A2997 RMK AO2 SLP148 T03000194,KLEE,2022-10-31T18:53:00Z,28.82,-81.82,30.0,19.4,140,6,,10.0,29.970472,1014.8,,,TRUE,,,,,,,CLR,,,,,,,,VFR,,,,,,,,,,,,METAR,21.0
KLEB 311853Z 24005KT 10SM CLR 17/04 A2994 RMK AO2 SLP138 T01720039,KLEB,2022-10-31T18:53:00Z,43.63,-72.3,17.2,3.9,240,5,,10.0,29.940945,1013.8,,,TRUE,,,,,,,CLR,,,,,,,,VFR,,,,,,,,,,,,METAR,169.0
KLCH 311853Z 02007KT 10SM CLR 25/09 A3001 RMK AO2 SLP170 T02500094,KLCH,2022-10-31T18:53:00Z,30.13,-93.22,25.0,9.4,20,7,,10.0,30.008858,1017.0,,,TRUE,,,,,,,CLR,,,,,,,,VFR,,,,,,,,,,,,METAR,2.0
KLBX 311853Z AUTO 07003KT 10SM CLR 26/12 A3001 RMK AO2 SLP160 T02560122,KLBX,2022-10-31T18:53:00Z,29.12,-95.47,25.6,12.2,70,3,,10.0,30.008858,1016.0,,TRUE,TRUE,,,,,,,CLR,,,,,,,,VFR,,,,,,,,,,,,METAR,4.0
KLBF 311853Z AUTO 25008KT 10SM CLR 20/M04 A2990 RMK AO2 SLP125 T02001044,KLBF,2022-10-31T18:53:00Z,41.12,-100.67,20.0,-4.4,250,8,,10.0,29.899607,1012.5,,TRUE,TRUE,,,,,,,CLR,,,,,,,,VFR,,,,,,,,,,,,METAR,843.0
KLBB 311853Z 19008KT 10SM FEW050 FEW170 SCT220 BKN250 20/07 A3005 RMK AO2 SLP148 T02000067,KLBB,2022-10-31T18:53:00Z,33.67,-101.82,20.0,6.7,190,8,,10.0,30.050198,1014.8,,,TRUE,,,,,,,FEW,5000,FEW,17000,SCT,22000,BKN,25000,VFR,,,,,,,,,,,,METAR,996.0
KLAX 311853Z 26009KT 9SM BCFG SCT000 SCT120 BKN250 19/16 A2992 RMK AO2 SLP130 VIS W 1/2 FG SCT000 T01940161 VISNO RWY24 $,KLAX,2022-10-31T18:53:00Z,33.93,-118.38,19.4,16.1,260,9,,9.0,29.920275,1013.0,,,TRUE,TRUE,,,,,BCFG,SCT,0,SCT,12000,BKN,25000,,,VFR,,,,,,,,,,,,METAR,30.0
KLAW 311853Z 20007KT 10SM CLR 23/10 A3001 RMK AO2 SLP160 T02280100,KLAW,2022-10-31T18:53:00Z,34.55,-98.42,22.8,10.0,200,7,,10.0,30.008858,1016.0,,,TRUE,,,,,,,CLR,,,,,,,,VFR,,,,,,,,,,,,METAR,328.0
KLAR 311853Z AUTO 24017G25KT 10SM CLR 11/M08 A3003 RMK AO2 PK WND 25029/1804 SLP138 T01111078,KLAR,2022-10-31T18:53:00Z,41.32,-105.67,11.1,-7.8,240,17,25,10.0,30.029528,1013.8,,TRUE,TRUE,,,,,,,CLR,,,,,,,,VFR,,,,,,,,,,,,METAR,2217.0
KLAN 311853Z 27003KT 4SM BR OVC005 14/13 A2981 RMK AO2 SLP097 T01440128,KLAN,2022-10-31T18:53:00Z,42.78,-84.58,14.4,12.8,270,3,,4.0,29.811024,1009.7,,,TRUE,,,,,,BR,OVC,500,,,,,,,IFR,,,,,,,,,,,,METAR,261.0
KLAA 311853Z AUTO 00000KT 10SM CLR 19/M02 A2995 RMK AO2 SLP126 T01941017,KLAA,2022-10-31T18:53:00Z,38.07,-102.68,19.4,-1.7,0,0,,10.0,29.949802,1012.6,,TRUE,TRUE,,,,,,,CLR,,,,,,,,VFR,,,,,,,,,,,,METAR,1129.0
KJLN 311853Z 29006KT 10SM CLR 22/07 A2996 RMK AO2 SLP139 T02170067 $,KJLN,2022-10-31T18:53:00Z,37.15,-94.5,21.7,6.7,290,6,,10.0,29.958662,1013.9,,,TRUE,TRUE,,,,,,CLR,,,,,,,,VFR,,,,,,,,,,,,METAR,297.0
KJKL 311853Z AUTO VRB03KT 10SM FEW021 SCT036 OVC049 18/14 A2993 RMK AO2 RAB26E45 SLP127 P0000 T01780144,KJKL,2022-10-31T18:53:00Z,37.6,-83.32,17.8,14.4,0,3,,10.0,29.929134,1012.7,,TRUE,TRUE,,,,,,,FEW,2100,SCT,3600,OVC,4900,,,VFR,,,,,,0.005,,,,,,METAR,414.0
KJER 311853Z AUTO 00000KT 10SM CLR 14/M03 A3004 RMK AO2 SLP167 T01441028,KJER,2022-10-31T18:53:00Z,42.72,-114.45,14.4,-2.8,0,0,,10.0,30.041338,1016.7,,TRUE,TRUE,,,,,,,CLR,,,,,,,,VFR,,,,,,,,,,,,METAR,1226.0
KJEF 311853Z 30008KT 10SM CLR 20/10 A2991 RMK AO2 SLP119 T02000100 $,KJEF,2022-10-31T18:53:00Z,38.6,-92.15,20.0,10.0,300,8,,10.0,29.911417,1011.9,,,TRUE,TRUE,,,,,,CLR,,,,,,,,VFR,,,,,,,,,,,,METAR,167.0
KJBR 311853Z AUTO 29008KT 10SM FEW036 BKN048 19/12 A2995 RMK AO2 SLP141 T01890117 $,KJBR,2022-10-31T18:53:00Z,35.83,-90.65,18.9,11.7,290,8,,10.0,29.949802,1014.1,,TRUE,TRUE,TRUE,,,,,,FEW,3600,BKN,4800,,,,,VFR,,,,,,,,,,,,METAR,79.0
KIXD 311853Z 30007KT 10SM CLR 19/03 A2995 RMK AO2 SLP138 T01940028,KIXD,2022-10-31T18:53:00Z,38.82,-94.88,19.4,2.8,300,7,,10.0,29.949802,1013.8,,,TRUE,,,,,,,CLR,,,,,,,,VFR,,,,,,,,,,,,METAR,322.0
KIWI 311853Z AUTO 20006KT 10SM CLR 16/10 A2997 RMK AO2 SLP148 T01560100,KIWI,2022-10-31T18:53:00Z,43.97,-69.72,15.6,10.0,200,6,,10.0,29.970472,1014.8,,TRUE,TRUE,,,,,,,CLR,,,,,,,,VFR,,,,,,,,,,,,METAR,16.0
KITR 311853Z AUTO VRB06KT 10SM CLR 19/M07 A2996 RMK AO2 SLP126 T01941067 $,KITR,2022-10-31T18:53:00Z,39.23,-102.28,19.4,-6.7,0,6,,10.0,29.958662,1012.6,,TRUE,TRUE,TRUE,,,,,,CLR,,,,,,,,VFR,,,,,,,,,,,,METAR,1285.0
KIPL 311853Z AUTO 19004KT 10SM CLR 27/M04 A2989 RMK AO2 SLP121 T02721039,KIPL,2022-10-31T18:53:00Z,32.83,-115.58,27.2,-3.9,190,4,,10.0,29.890747,1012.1,,TRUE,TRUE,,,,,,,CLR,,,,,,,,VFR,,,,,,,,,,,,METAR,-16.0
KINK 311853Z AUTO 16011G23KT 10SM CLR 21/07 A3002 RMK AO2 SLP135 T02110072,KINK,2022-10-31T18:53:00Z,31.78,-103.2,21.1,7.2,160,11,23,10.0,30.02067,1013.5,,TRUE,TRUE,,,,,,,CLR,,,,,,,,VFR,,,,,,,,,,,,METAR,857.0
KIML 311853Z AUTO 30010G19KT 10SM CLR 21/M07 A2992 RMK AO2 SLP126 T02111072,KIML,2022-10-31T18:53:00Z,40.52,-101.62,21.1,-7.2,300,10,19,10.0,29.920275,1012.6,,TRUE,TRUE,,,,,,,CLR,,,,,,,,VFR,,,,,,,,,,,,METAR,997.0
KILM 311853Z 10010KT 10SM FEW050 24/19 A3002 RMK AO2 SLP165 T02390189,KILM,2022-10-31T18:53:00Z,34.27,-77.9,23.9,18.9,100,10,,10.0,30.02067,1016.5,,,TRUE,,,,,,,FEW,5000,,,,,,,VFR,,,,,,,,,,,,METAR,9.0
KIDA 311853Z 21010G17KT 10SM CLR 13/M02 A3008 RMK AO2 SLP182 T01281017,KIDA,2022-10-31T18:53:00Z,43.52,-112.07,12.8,-1.7,210,10,17,10.0,30.079725,1018.2,,,TRUE,,,,,,,CLR,,,,,,,,VFR,,,,,,,,,,,,METAR,1444.0
KICT 311853Z 34004KT 10SM FEW160 FEW220 21/M02 A2997 RMK AO2 SLP144 T02061017,KICT,2022-10-31T18:53:00Z,37.65,-97.43,20.6,-1.7,340,4,,10.0,29.970472,1014.4,,,TRUE,,,,,,,FEW,16000,FEW,22000,,,,,VFR,,,,,,,,,,,,METAR,428.0
KICR 311853Z AUTO 00000KT CLR 21/M06 A2981 RMK AO2 SLP092 T02111056 $,KICR,2022-10-31T18:53:00Z,43.38,-99.85,21.1,-5.6,0,0,,,29.811024,1009.2,,TRUE,TRUE,TRUE,,,,,,CLR,,,,,,,,,,,,,,,,,,,,METAR,618.0
KIAH 311853Z 00000KT 10SM FEW050 BKN250 26/12 A3001 RMK AO2 SLP162 T02560117 $,KIAH,2022-10-31T18:53:00Z,30.0,-95.37,25.6,11.7,0,0,,10.0,30.008858,1016.2,,,TRUE,TRUE,,,,,,FEW,5000,BKN,25000,,,,,VFR,,,,,,,,,,,,METAR,27.0
KHYR 311853Z AUTO 22007KT 200V270 10SM CLR 16/M01 A2981 RMK AO2 SLP102 T01611011,KHYR,2022-10-31T18:53:00Z,46.02,-91.45,16.1,-1.1,220,7,,10.0,29.811024,1010.2,,TRUE,TRUE,,,,,,,CLR,,,,,,,,VFR,,,,,,,,,,,,METAR,369.0
KHWO 311853Z 12009KT 10SM CLR 30/22 A2993 RMK AO2 SLP136 T03000222 $,KHWO,2022-10-31T18:53:00Z,26.0,-80.23,30.0,22.2,120,9,,10.0,29.929134,1013.6,,,TRUE,TRUE,,,,,,CLR,,,,,,,,VFR,,,,,,,,,,,,METAR,2.0
KHVR 311853Z AUTO 26021G31KT 10SM BKN090 OVC100 18/03 A2963 RMK AO2 PK WND 25032/1835 SLP031 T01780028 $,KHVR,2022-10-31T18:53:00Z,48.55,-109.77,17.8,2.8,260,21,31,10.0,29.630905,1003.1,,TRUE,TRUE,TRUE,,,,,,BKN,9000,OVC,10000,,,,,VFR,,,,,,,,,,,,METAR,789.0
KHVN 311853Z 17005KT 10SM OVC033 18/12 A3001 RMK AO2 SLP161 T01780117,KHVN,2022-10-31T18:53:00Z,41.27,-72.88,17.8,11.7,170,5,,10.0,30.008858,1016.1,,,TRUE,,,,,,,OVC,3300,,,,,,,VFR,,,,,,,,,,,,METAR,4.0
KHUL 311853Z AUTO 00000KT 10SM CLR 18/M02 A2992 RMK AO2 SLP134 T01831022,KHUL,2022-10-31T18:53:00Z,46.12,-67.8,18.3,-2.2,0,0,,10.0,29.920275,1013.4,,TRUE,TRUE,,,,,,,CLR,,,,,,,,VFR,,,,,,,,,,,,METAR,148.0
KHTL 311853Z AUTO VRB05KT 10SM OVC100 17/08 A2980 RMK AO2 SLP094 T01670083,KHTL,2022-10-31T18:53:00Z,44.35,-84.67,16.7,8.3,0,5,,10.0,29.799213,1009.4,,TRUE,TRUE,,,,,,,OVC,10000,,,,,,,VFR,,,,,,,,,,,,METAR,350.0
KHSV 311853Z 23010KT 10SM FEW030 OVC060 19/14 A2997 RMK AO2 SLP145 T01890144,KHSV,2022-10-31T18:53:00Z,34.65,-86.78,18.9,14.4,230,10,,10.0,29.970472,1014.5,,,TRUE,,,,,,,FEW,3000,OVC,6000,,,,,VFR,,,,,,,,,,,,METAR,190.0
KHSI 311853Z AUTO 21012KT 10SM CLR 21/M02 A2991 RMK AO2 SLP125 T02061022 $,KHSI,2022-10-31T18:53:00Z,40.6,-98.43,20.6,-2.2,210,12,,10.0,29.911417,1012.5,,TRUE,TRUE,TRUE,,,,,,CLR,,,,,,,,VFR,,,,,,,,,,,,METAR,592.0
KHRO 311853Z AUTO 29007KT 10SM CLR 21/06 A2998 RMK AO2 SLP144 T02060061,KHRO,2022-10-31T18:53:00Z,36.27,-93.15,20.6,6.1,290,7,,10.0,29.97933,1014.4,,TRUE,TRUE,,,,,,,CLR,,,,,,,,VFR,,,,,,,,,,,,METAR,417.0
KHRI 311853Z AUTO 22006KT 10SM OVC060 16/09 A2984 RMK AO2 SLP103 T01610089,KHRI,2022-10-31T18:53:00Z,45.83,-119.27,16.1,8.9,220,6,,10.0,29.840551,1010.3,,TRUE,TRUE,,,,,,,OVC,6000,,,,,,,VFR,,,,,,,,,,,,METAR,194.0
KHQM 311853Z AUTO 25012KT 10SM FEW036 SCT060 SCT080 13/09 A2988 RMK AO2 RAE16 SLP123 P0000 T01330089,KHQM,2022-10-31T18:53:00Z,46.97,-123.93,13.3,8.9,250,12,,10.0,29.878937,1012.3,,TRUE,TRUE,,,,,,,FEW,3600,SCT,6000,SCT,8000,,,VFR,,,,,,0.005,,,,,,METAR,4.0
KHOU 311853Z 08004KT 10SM FEW050 BKN250 25/11 A3000 RMK AO2 SLP165 T02500111,KHOU,2022-10-31T18:53:00Z,29.63,-95.28,25.0,11.1,80,4,,10.0,30.0,1016.5,,,TRUE,,,,,,,FEW,5000,BKN,25000,,,,,VFR,,,,,,,,,,,,METAR,13.0
KHOT 311853Z AUTO VRB05KT 10SM CLR 23/07 A2999 RMK AO2 SLP151 T02280072,KHOT,2022-10-31T18:53:00Z,34.48,-93.1,22.8,7.2,0,5,,10.0,29.991142,1015.1,,TRUE,TRUE,,,,,,,CLR,,,,,,,,VFR,,,,,,,,,,,,METAR,153.0
KHLN 311853Z 17004KT 10SM OVC070 16/02 A2979 RMK AO2 SLP091 T01610022,KHLN,2022-10-31T18:53:00Z,46.6,-111.98,16.1,2.2,170,4,,10.0,29.790354,1009.1,,,TRUE,,,,,,,OVC,7000,,,,,,,VFR,,,,,,,,,,,,METAR,1178.0
KHLC 311853Z AUTO 21010G15KT 10SM CLR 24/M03 A2993 RMK AO2 SLP129 T02391028,KHLC,2022-10-31T18:53:00Z,39.37,-99.83,23.9,-2.8,210,10,15,10.0,29.929134,1012.9,,TRUE,TRUE,,,,,,,CLR,,,,,,,,VFR,,,,,,,,,,,,METAR,667.0
KHKS 311853Z 27006KT 10SM CLR 24/13 A3001 RMK AO2 SLP154 T02390128,KHKS,2022-10-31T18:53:00Z,32.33,-90.22,23.9,12.8,270,6,,10.0,30.008858,1015.4,,,TRUE,,,,,,,CLR,,,,,,,,VFR,,,,,,,,,,,,METAR,103.0
KHKA 311853Z AUTO 24008KT 10SM FEW024 BKN039 OVC055 19/12 A2994 RMK AO2 SLP136 T01890122 $,KHKA,2022-10-31T18:53:00Z,35.93,-89.83,18.9,12.2,240,8,,10.0,29.940945,1013.6,,TRUE,TRUE,TRUE,,,,,,FEW,2400,BKN,3900,OVC,5500,,,VFR,,,,,,,,,,,,METAR,78.0
KHJO 311853Z AUTO 00000KT 7SM CLR 19/06 A2996 RMK AO2 SLP146 T01940056,KHJO,2022-10-31T18:53:00Z,36.32,-119.62,19.4,5.6,0,0,,7.0,29.958662,1014.6,,TRUE,TRUE,,,,,,,CLR,,,,,,,,VFR,,,,,,,,,,,,METAR,73.0
KHIO 311853Z 15006KT 7SM -RA BKN008 BKN015 OVC039 13/12 A2991 RMK AO2 SLP128 P0003 T01280122,KHIO,2022-10-31T18:53:00Z,45.55,-122.95,12.8,12.2,150,6,,7.0,29.911417,1012.8,,,TRUE,,,,,,-RA,BKN,800,BKN,1500,OVC,3900,,,IFR,,,,,,0.03,,,,,,METAR,62.0
KHIB 311853Z AUTO VRB04G15KT 10SM CLR 16/M02 A2973 RMK AO2 SLP081 T01561017,KHIB,2022-10-31T18:53:00Z,47.38,-92.83,15.6,-1.7,0,4,15,10.0,29.731298,1008.1,,TRUE,TRUE,,,,,,,CLR,,,,,,,,VFR,,,,,,,,,,,,METAR,409.0
KHHR 311853Z 30005KT 10SM CLR 23/14 A2991 RMK AO2 SLP128 T02330144 $,KHHR,2022-10-31T18:53:00Z,33.92,-118.33,23.3,14.4,300,5,,10.0,29.911417,1012.8,,,TRUE,TRUE,,,,,,CLR,,,,,,,,VFR,,,,,,,,,,,,METAR,21.0
KHFD 311853Z 19010KT 10SM CLR 20/11 A2998 RMK AO2 SLP151 T02000106,KHFD,2022-10-31T18:53:00Z,41.73,-72.65,20.0,10.6,190,10,,10.0,29.97933,1015.1,,,TRUE,,,,,,,CLR,,,,,,,,VFR,,,,,,,,,,,,METAR,3.0
KHEI 311853Z AUTO 26010KT 10SM CLR 18/M02 A2978 RMK AO2 SLP089 T01781017,KHEI,2022-10-31T18:53:00Z,46.02,-102.65,17.8,-1.7,260,10,,10.0,29.778543,1008.9,,TRUE,TRUE,,,,,,,CLR,,,,,,,,VFR,,,,,,,,,,,,METAR,824.0
KHBR 311853Z AUTO 24013KT 10SM CLR 22/09 A3002 RMK AO2 SLP157 T02170089,KHBR,2022-10-31T18:53:00Z,34.98,-99.05,21.7,8.9,240,13,,10.0,30.02067,1015.7,,TRUE,TRUE,,,,,,,CLR,,,,,,,,VFR,,,,,,,,,,,,METAR,475.0
KHBG 311853Z AUTO 31004KT 10SM SCT050 23/11 A3001 RMK AO2 SLP161 T02330111,KHBG,2022-10-31T18:53:00Z,31.27,-89.25,23.3,11.1,310,4,,10.0,30.008858,1016.1,,TRUE,TRUE,,,,,,,SCT,5000,,,,,,,VFR,,,,,,,,,,,,METAR,45.0
KHAO 311853Z AUTO VRB04KT 10SM SCT030 OVC048 19/13 A2987 RMK AO2 SLP111 T01940128,KHAO,2022-10-31T18:53:00Z,39.37,-84.52,19.4,12.8,0,4,,10.0,29.870079,1011.1,,TRUE,TRUE,,,,,,,SCT,3000,OVC,4800,,,,,VFR,,,,,,,,,,,,METAR,185.0
KGZH 311853Z AUTO VRB04KT 10SM BKN048 23/12 A3001 RMK AO2 SLP159 T02330117,KGZH,2022-10-31T18:53:00Z,31.42,-87.05,23.3,11.7,0,4,,10.0,30.008858,1015.9,,TRUE,TRUE,,,,,,,BKN,4800,,,,,,,VFR,,,,,,,,,,,,METAR,77.0
KGWO 311853Z AUTO VRB06KT 10SM FEW032 SCT039 BKN050 22/13 A2999 RMK AO2 SLP153 T02170128,KGWO,2022-10-31T18:53:00Z,33.5,-90.08,21.7,12.8,0,6,,10.0,29.991142,1015.3,,TRUE,TRUE,,,,,,,FEW,3200,SCT,3900,BKN,5000,,,VFR,,,,,,,,,,,,METAR,42.0
KGUY 311853Z AUTO 19014G24KT 10SM CLR 22/03 A2997 RMK AO2 SLP125 T02220028,KGUY,2022-10-31T18:53:00Z,36.68,-101.5,22.2,2.8,190,14,24,10.0,29.970472,1012.5,,TRUE,TRUE,,,,,,,CLR,,,,,,,,VFR,,,,,,,,,,,,METAR,950.0
KGUP 311853Z AUTO VRB04KT 10SM CLR 14/M06 A3015 RMK AO2 SLP173 T01391056,KGUP,2022-10-31T18:53:00Z,35.52,-108.8,13.9,-5.6,0,4,,10.0,30.15059,1017.3,,TRUE,TRUE,,,,,,,CLR,,,,,,,,VFR,,,,,,,,,,,,METAR,1972.0
KGTF 311853Z 23022G32KT 10SM FEW055 16/03 A2970 RMK AO2 PK WND 23034/1821 SLP048 T01610033,KGTF,2022-10-31T18:53:00Z,47.47,-111.38,16.1,3.3,230,22,32,10.0,29.698818,1004.8,,,TRUE,,,,,,,FEW,5500,,,,,,,VFR,,,,,,,,,,,,METAR,1117.0
KGSP 311853Z 03004KT 10SM OVC004 16/14 A3001 RMK AO2 SLP157 T01560139,KGSP,2022-10-31T18:53:00Z,34.9,-82.22,15.6,13.9,30,4,,10.0,30.008858,1015.7,,,TRUE,,,,,,,OVC,400,,,,,,,LIFR,,,,,,,,,,,,METAR,285.0
KGSH 311853Z AUTO 22007KT 10SM 17/14 A2979 RMK AO2 RAE04 SLP087 P0000 T01720144 $,KGSH,2022-10-31T18:53:00Z,41.53,-85.78,17.2,14.4,220,7,,10.0,29.790354,1008.7,,TRUE,TRUE,TRUE,,,,,,,,,,,,,,,,,,,,0.005,,,,,,METAR,252.0
KGRR 311853Z 00000KT 4SM BR OVC005 14/12 A2981 RMK AO2 SLP097 T01390122 $,KGRR,2022-10-31T18:53:00Z,42.88,-85.52,13.9,12.2,0,0,,4.0,29.811024,1009.7,,,TRUE,TRUE,,,,,BR,OVC,500,,,,,,,IFR,,,,,,,,,,,,METAR,239.0
KGRI 311853Z 21012G21KT 180V260 10SM CLR 22/M03 A2989 RMK AO2 SLP127 T02221028,KGRI,2022-10-31T18:53:00Z,40.97,-98.32,22.2,-2.8,210,12,21,10.0,29.890747,1012.7,,,TRUE,,,,,,,CLR,,,,,,,,VFR,,,,,,,,,,,,METAR,562.0
KGRB 311853Z VRB04KT 10SM CLR 19/06 A2979 RMK AO2 SLP090 T01890056,KGRB,2022-10-31T18:53:00Z,44.48,-88.13,18.9,5.6,0,4,,10.0,29.790354,1009.0,,,TRUE,,,,,,,CLR,,,,,,,,VFR,,,,,,,,,,,,METAR,209.0
KGPT 311853Z 17007KT 10SM BKN041 OVC050 23/15 A3000 RMK AO2 SLP159 T02280150,KGPT,2022-10-31T18:53:00Z,30.42,-89.08,22.8,15.0,170,7,,10.0,30.0,1015.9,,,TRUE,,,,,,,BKN,4100,OVC,5000,,,,,VFR,,,,,,,,,,,,METAR,5.0
KGOK 311853Z AUTO 26007KT 10SM CLR 21/02 A3000 RMK AO2 SLP159 T02060017,KGOK,2022-10-31T18:53:00Z,35.85,-97.4,20.6,1.7,260,7,,10.0,30.0,1015.9,,TRUE,TRUE,,,,,,,CLR,,,,,,,,VFR,,,,,,,,,,,,METAR,326.0
KGNV 311853Z 13005KT 10SM SCT060 29/19 A2999 RMK AO2 SLP151 T02940189,KGNV,2022-10-31T18:53:00Z,29.7,-82.28,29.4,18.9,130,5,,10.0,29.991142,1015.1,,,TRUE,,,,,,,SCT,6000,,,,,,,VFR,,,,,,,,,,,,METAR,41.0
KGMU 311853Z VRB04KT 10SM OVC005 16/14 A3001 RMK AO2 SLP159 T01610139,KGMU,2022-10-31T18:53:00Z,34.85,-82.35,16.1,13.9,0,4,,10.0,30.008858,1015.9,,,TRUE,,,,,,,OVC,500,,,,,,,IFR,,,,,,,,,,,,METAR,309.0
KGLR 311853Z AUTO 00000KT 10SM CLR 17/04 A2980 RMK AO2 SLP092 T01720039,KGLR,2022-10-31T18:53:00Z,45.02,-84.68,17.2,3.9,0,0,,10.0,29.799213,1009.2,,TRUE,TRUE,,,,,,,CLR,,,,,,,,VFR,,,,,,,,,,,,METAR,403.0
KGLH 311853Z 29006KT 10SM SCT038 23/13 A2998 RMK AO2 SLP158 T02330133,KGLH,2022-10-31T18:53:00Z,33.47,-90.98,23.3,13.3,290,6,,10.0,29.97933,1015.8,,,TRUE,,,,,,,SCT,3800,,,,,,,VFR,,,,,,,,,,,,METAR,40.0
KGLD 311853Z AUTO A2995 RMK AO2 SLPNO PWINO FZRANO $,KGLD,2022-10-31T18:53:00Z,39.37,-101.7,,,,,,,29.949802,,,TRUE,TRUE,TRUE,,,TRUE,TRUE,,,,,,,,,,,,,,,,,,,,,,METAR,1111.0
KGKY 311853Z 32005KT 10SM CLR 26/08 A3002 RMK AO2 SLP161 T02560078,KGKY,2022-10-31T18:53:00Z,32.67,-97.1,25.6,7.8,320,5,,10.0,30.02067,1016.1,,,TRUE,,,,,,,CLR,,,,,,,,VFR,,,,,,,,,,,,METAR,189.0
KGJT 311853Z VRB03KT 10SM CLR 12/M01 A3013 RMK AO2 SLP185 T01171006,KGJT,2022-10-31T18:53:00Z,39.13,-108.53,11.7,-0.6,0,3,,10.0,30.129921,1018.5,,,TRUE,,,,,,,CLR,,,,,,,,VFR,,,,,,,,,,,,METAR,1475.0
KGIF 311853Z AUTO 29004KT 10SM CLR A2997 RMK AO2 SLPNO $,KGIF,2022-10-31T18:53:00Z,28.07,-81.75,,,290,4,,10.0,29.970472,,,TRUE,TRUE,TRUE,,,,,,CLR,,,,,,,,VFR,,,,,,,,,,,,METAR,44.0
KGGW 311853Z AUTO 22006KT 10SM CLR 17/02 A2968 RMK AO2 SLP053 T01670022,KGGW,2022-10-31T18:53:00Z,48.22,-106.62,16.7,2.2,220,6,,10.0,29.681103,1005.3,,TRUE,TRUE,,,,,,,CLR,,,,,,,,VFR,,,,,,,,,,,,METAR,698.0
KGGG 311853Z VRB05KT 10SM CLR 24/08 A3001 RMK AO2 SLP158 T02440083,KGGG,2022-10-31T18:53:00Z,32.38,-94.72,24.4,8.3,0,5,,10.0,30.008858,1015.8,,,TRUE,,,,,,,CLR,,,,,,,,VFR,,,,,,,,,,,,METAR,107.0
KGFL 311853Z AUTO 19005KT 10SM CLR 16/06 A2994 RMK AO2 SLP144 T01560056,KGFL,2022-10-31T18:53:00Z,43.33,-73.62,15.6,5.6,190,5,,10.0,29.940945,1014.4,,TRUE,TRUE,,,,,,,CLR,,,,,,,,VFR,,,,,,,,,,,,METAR,99.0
KGFK 311853Z 24012KT 10SM SCT210 BKN250 17/02 A2967 RMK AO2 SLP051 T01720017,KGFK,2022-10-31T18:53:00Z,47.95,-97.18,17.2,1.7,240,12,,10.0,29.66929,1005.1,,,TRUE,,,,,,,SCT,21000,BKN,25000,,,,,VFR,,,,,,,,,,,,METAR,256.0
KGEY 311853Z AUTO 16005KT 10SM CLR 12/M04 A2991 RMK AO2 SLP130 T01221039,KGEY,2022-10-31T18:53:00Z,44.52,-108.08,12.2,-3.9,160,5,,10.0,29.911417,1013.0,,TRUE,TRUE,,,,,,,CLR,,,,,,,,VFR,,,,,,,,,,,,METAR,1191.0
KGEG 311853Z 21015KT 10SM -RA FEW025 BKN050 OVC080 11/07 A2977 RMK AO2 SLP080 P0001 T01060072,KGEG,2022-10-31T18:53:00Z,47.62,-117.53,10.6,7.2,210,15,,10.0,29.769686,1008.0,,,TRUE,,,,,,-RA,FEW,2500,BKN,5000,OVC,8000,,,VFR,,,,,,0.01,,,,,,METAR,718.0
KGCC 311853Z AUTO 19009KT 10SM CLR 17/M05 A2985 RMK AO2 SLP107 T01671050 $,KGCC,2022-10-31T18:53:00Z,44.33,-105.55,16.7,-5.0,190,9,,10.0,29.84941,1010.7,,TRUE,TRUE,TRUE,,,,,,CLR,,,,,,,,VFR,,,,,,,,,,,,METAR,1328.0
KGAG 311853Z AUTO 23011KT 10SM CLR 24/01 A2999 RMK AO2 SLP145 T02440006,KGAG,2022-10-31T18:53:00Z,36.3,-99.77,24.4,0.6,230,11,,10.0,29.991142,1014.5,,TRUE,TRUE,,,,,,,CLR,,,,,,,,VFR,,,,,,,,,,,,METAR,670.0
KFYV 311853Z 27007KT 230V290 10SM CLR 22/07 A2999 RMK AO2 SLP146 T02170072,KFYV,2022-10-31T18:53:00Z,36.02,-94.17,21.7,7.2,270,7,,10.0,29.991142,1014.6,,,TRUE,,,,,,,CLR,,,,,,,,VFR,,,,,,,,,,,,METAR,377.0
KFXE 311853Z 10009KT 10SM SCT027 29/24 A2992 RMK AO2 SLP135 T02890239 $,KFXE,2022-10-31T18:53:00Z,26.2,-80.18,28.9,23.9,100,9,,10.0,29.920275,1013.5,,,TRUE,TRUE,,,,,,SCT,2700,,,,,,,VFR,,,,,,,,,,,,METAR,3.0
KFWN 311853Z AUTO VRB04KT 10SM FEW110 17/10 A2999 RMK AO2 SLP157 T01720100,KFWN,2022-10-31T18:53:00Z,41.2,-74.63,17.2,10.0,0,4,,10.0,29.991142,1015.7,,TRUE,TRUE,,,,,,,FEW,11000,,,,,,,VFR,,,,,,,,,,,,METAR,129.0
KFVE 311853Z AUTO 15007KT 10SM CLR 16/01 A2991 RMK AO2 SLP130 T01560006,KFVE,2022-10-31T18:53:00Z,47.28,-68.3,15.6,0.6,150,7,,10.0,29.911417,1013.0,,TRUE,TRUE,,,,,,,CLR,,,,,,,,VFR,,,,,,,,,,,,METAR,299.0
KFUL 311853Z 19005KT 10SM CLR 24/11 A2990 RMK AO2 SLP123 T02390106,KFUL,2022-10-31T18:53:00Z,33.87,-117.98,23.9,10.6,190,5,,10.0,29.899607,1012.3,,,TRUE,,,,,,,CLR,,,,,,,,VFR,,,,,,,,,,,,METAR,23.0
KFTY 311853Z 24007KT 10SM CLR 23/13 A2996 RMK AO2 SLP140 T02280128,KFTY,2022-10-31T18:53:00Z,33.78,-84.52,22.8,12.8,240,7,,10.0,29.958662,1014.0,,,TRUE,,,,,,,CLR,,,,,,,,VFR,,,,,,,,,,,,METAR,245.0
KFTW 311853Z 17005KT 10SM CLR 24/08 A3002 RMK AO2 SLP161 T02390083 $,KFTW,2022-10-31T18:53:00Z,32.83,-97.37,23.9,8.3,170,5,,10.0,30.02067,1016.1,,,TRUE,TRUE,,,,,,CLR,,,,,,,,VFR,,,,,,,,,,,,METAR,213.0
KFST 311853Z AUTO 14013G21KT 10SM FEW120 21/08 A3002 RMK AO2 SLP130 T02060078,KFST,2022-10-31T18:53:00Z,30.92,-102.92,20.6,7.8,140,13,21,10.0,30.02067,1013.0,,TRUE,TRUE,,,,,,,FEW,12000,,,,,,,VFR,,,,,,,,,,,,METAR,917.0
KFSM 311853Z 26007KT 10SM CLR 23/06 A2998 RMK AO2 SLP150 T02280056,KFSM,2022-10-31T18:53:00Z,35.33,-94.37,22.8,5.6,260,7,,10.0,29.97933,1015.0,,,TRUE,,,,,,,CLR,,,,,,,,VFR,,,,,,,,,,,,METAR,136.0
KFRG 311853Z 22007KT 10SM CLR 17/10 A3002 RMK AO2 SLP164 T01720100 $,KFRG,2022-10-31T18:53:00Z,40.73,-73.42,17.2,10.0,220,7,,10.0,30.02067,1016.4,,,TRUE,TRUE,,,,,,CLR,,,,,,,,VFR,,,,,,,,,,,,METAR,23.0
KFPR 311853Z 10007KT 10SM SCT020 29/23 A2994 RMK AO2 SLP138 T02890233,KFPR,2022-10-31T18:53:00Z,27.5,-80.38,28.9,23.3,100,7,,10.0,29.940945,1013.8,,,TRUE,,,,,,,SCT,2000,,,,,,,VFR,,,,,,,,,,,,METAR,7.0
KFOK 311853Z 21006KT 10SM BKN035 18/12 A3003 RMK AO2 SLP169 T01830117,KFOK,2022-10-31T18:53:00Z,40.85,-72.62,18.3,11.7,210,6,,10.0,30.029528,1016.9,,,TRUE,,,,,,,BKN,3500,,,,,,,VFR,,,,,,,,,,,,METAR,13.0
KFOE 311853Z VRB04KT 10SM CLR 19/01 A2995 RMK AO2 SLP138 T01940011 PNO $,KFOE,2022-10-31T18:53:00Z,38.93,-95.65,19.4,1.1,0,4,,10.0,29.949802,1013.8,,,TRUE,TRUE,,,,,,CLR,,,,,,,,VFR,,,,,,,,,,,,METAR,315.0
KFNT 311853Z 29004KT 9SM BKN005 OVC009 14/13 A2981 RMK AO2 RAB00E17 CIG 004V008 SLP097 P0001 T01390133,KFNT,2022-10-31T18:53:00Z,42.97,-83.75,13.9,13.3,290,4,,9.0,29.811024,1009.7,,,TRUE,,,,,,,BKN,500,OVC,900,,,,,IFR,,,,,,0.01,,,,,,METAR,235.0
KFNB 311853Z AUTO 30004KT 10SM CLR 19/02 A2993 RMK AO2 SLP133 T01940022,KFNB,2022-10-31T18:53:00Z,40.07,-95.58,19.4,2.2,300,4,,10.0,29.929134,1013.3,,TRUE,TRUE,,,,,,,CLR,,,,,,,,VFR,,,,,,,,,,,,METAR,301.0
KFMY 311853Z 10SM CLR 33/22 A2991 RMK AO2 SLP131 T03280222,KFMY,2022-10-31T18:53:00Z,26.58,-81.87,32.8,22.2,,,,10.0,29.911417,1013.1,,,TRUE,,,,,,,CLR,,,,,,,,VFR,,,,,,,,,,,,METAR,4.0
KFMN 311853Z 30003KT 10SM CLR 12/M04 A3012 RMK AO2 SLP190 T01221044,KFMN,2022-10-31T18:53:00Z,36.75,-108.23,12.2,-4.4,300,3,,10.0,30.121063,1019.0,,,TRUE,,,,,,,CLR,,,,,,,,VFR,,,,,,,,,,,,METAR,1677.0
KFLO 311853Z VRB06KT 10SM FEW022 BKN070 BKN085 26/19 A2999 RMK AO2 SLP153 T02560194,KFLO,2022-10-31T18:53:00Z,34.18,-79.73,25.6,19.4,0,6,,10.0,29.991142,1015.3,,,TRUE,,,,,,,FEW,2200,BKN,7000,BKN,8500,,,VFR,,,,,,,,,,,,METAR,43.0
KFLL 311853Z 13011KT 10SM FEW022 30/23 A2992 RMK AO2 SLP131 T03000233 $,KFLL,2022-10-31T18:53:00Z,26.07,-80.15,30.0,23.3,130,11,,10.0,29.920275,1013.1,,,TRUE,TRUE,,,,,,FEW,2200,,,,,,,VFR,,,,,,,,,,,,METAR,1.0
KFLD 311853Z AUTO VRB04KT 10SM CLR 18/04 A2981 RMK AO2 SLP094 T01830044,KFLD,2022-10-31T18:53:00Z,43.77,-88.48,18.3,4.4,0,4,,10.0,29.811024,1009.4,,TRUE,TRUE,,,,,,,CLR,,,,,,,,VFR,,,,,,,,,,,,METAR,242.0
KFHR 311853Z AUTO VRB04KT 10SM SCT065 11/07 A2982 RMK AO2 SLP099 T01060067 $,KFHR,2022-10-31T18:53:00Z,48.52,-123.03,10.6,6.7,0,4,,10.0,29.819881,1009.9,,TRUE,TRUE,TRUE,,,,,,SCT,6500,,,,,,,VFR,,,,,,,,,,,,METAR,34.0
KFFT 311853Z AUTO 19008KT 10SM FEW026 SCT037 OVC070 18/14 A2989 RMK AO2 SLP117 T01780139,KFFT,2022-10-31T18:53:00Z,38.18,-84.9,17.8,13.9,190,8,,10.0,29.890747,1011.7,,TRUE,TRUE,,,,,,,FEW,2600,SCT,3700,OVC,7000,,,VFR,,,,,,,,,,,,METAR,235.0
KFFC 311853Z AUTO 28005KT 10SM CLR 24/13 A2997 RMK AO2 SLP146 T02390128,KFFC,2022-10-31T18:53:00Z,33.35,-84.57,23.9,12.8,280,5,,10.0,29.970472,1014.6,,TRUE,TRUE,,,,,,,CLR,,,,,,,,VFR,,,,,,,,,,,,METAR,242.0
KFDY 311853Z AUTO 21009KT 10SM FEW028 SCT037 OVC060 18/13 A2982 RMK AO2 SLP093 T01830128,KFDY,2022-10-31T18:53:00Z,41.02,-83.67,18.3,12.8,210,9,,10.0,29.819881,1009.3,,TRUE,TRUE,,,,,,,FEW,2800,SCT,3700,OVC,6000,,,VFR,,,,,,,,,,,,METAR,247.0
KFDR 311853Z AUTO 19004KT 10SM CLR 23/11 A2999 RMK AO2 SLP144 T02280106 $,KFDR,2022-10-31T18:53:00Z,34.35,-98.98,22.8,10.6,190,4,,10.0,29.991142,1014.4,,TRUE,TRUE,TRUE,,,,,,CLR,,,,,,,,VFR,,,,,,,,,,,,METAR,378.0
KFCM 311853Z 23009KT 10SM CLR 17/M01 A2982 RMK AO2 SLP101 T01721006,KFCM,2022-10-31T18:53:00Z,44.83,-93.47,17.2,-0.6,230,9,,10.0,29.819881,1010.1,,,TRUE,,,,,,,CLR,,,,,,,,VFR,,,,,,,,,,,,METAR,276.0
KFAY 311853Z 17006KT 10SM SCT030 SCT038 SCT047 25/18 A3000 RMK AO2 SLP152 T02500183,KFAY,2022-10-31T18:53:00Z,34.98,-78.88,25.0,18.3,170,6,,10.0,30.0,1015.2,,,TRUE,,,,,,,SCT,3000,SCT,3800,SCT,4700,,,VFR,,,,,,,,,,,,METAR,57.0
KFAT 311853Z 24004KT 10SM FEW080 OVC180 20/04 A2996 RMK AO2 SLP142 T02000044,KFAT,2022-10-31T18:53:00Z,36.78,-119.72,20.0,4.4,240,4,,10.0,29.958662,1014.2,,,TRUE,,,,,,,FEW,8000,OVC,18000,,,,,VFR,,,,,,,,,,,,METAR,102.0
KFAR 311853Z 22012KT 10SM CLR 17/M02 A2973 RMK AO2 SLP071 T01721017,KFAR,2022-10-31T18:53:00Z,46.9,-96.82,17.2,-1.7,220,12,,10.0,29.731298,1007.1,,,TRUE,,,,,,,CLR,,,,,,,,VFR,,,,,,,,,,,,METAR,276.0
KEYW 311853Z 11008KT 10SM CLR 28/25 A2992 RMK AO2 SLP130 T02830250,KEYW,2022-10-31T18:53:00Z,24.55,-81.75,28.3,25.0,110,8,,10.0,29.920275,1013.0,,,TRUE,,,,,,,CLR,,,,,,,,VFR,,,,,,,,,,,,METAR,1.0
KEWB 311853Z 23007KT 10SM OVC014 17/14 A3001 RMK AO2 SLP163 T01670139,KEWB,2022-10-31T18:53:00Z,41.68,-70.95,16.7,13.9,230,7,,10.0,30.008858,1016.3,,,TRUE,,,,,,,OVC,1400,,,,,,,MVFR,,,,,,,,,,,,METAR,22.0
KEVW 311853Z AUTO 21012G17KT 10SM CLR 11/M06 A3014 RMK AO2 SLP178 T01061056,KEVW,2022-10-31T18:53:00Z,41.27,-111.03,10.6,-5.6,210,12,17,10.0,30.138779,1017.8,,TRUE,TRUE,,,,,,,CLR,,,,,,,,VFR,,,,,,,,,,,,METAR,2178.0
KESF 311853Z AUTO VRB03KT 10SM CLR 25/12 A3000 RMK AO2 SLP159 T02500122,KESF,2022-10-31T18:53:00Z,31.4,-92.28,25.0,12.2,0,3,,10.0,30.0,1015.9,,TRUE,TRUE,,,,,,,CLR,,,,,,,,VFR,,,,,,,,,,,,METAR,27.0
KENW 311853Z 34005KT 8SM OVC019 16/11 A2982 RMK AO2 SLP098 T01560106,KENW,2022-10-31T18:53:00Z,42.6,-87.93,15.6,10.6,340,5,,8.0,29.819881,1009.8,,,TRUE,,,,,,,OVC,1900,,,,,,,MVFR,,,,,,,,,,,,METAR,222.0
KEMP 311853Z AUTO 29006KT 10SM CLR 20/01 A2996 RMK AO2 SLP143 T02000006,KEMP,2022-10-31T18:53:00Z,38.33,-96.2,20.0,0.6,290,6,,10.0,29.958662,1014.3,,TRUE,TRUE,,,,,,,CLR,,,,,,,,VFR,,,,,,,,,,,,METAR,366.0
KELY 311853Z AUTO VRB03KT 10SM CLR 14/M07 A3012 RMK AO2 SLP168 T01391072,KELY,2022-10-31T18:53:00Z,39.3,-114.85,13.9,-7.2,0,3,,10.0,30.121063,1016.8,,TRUE,TRUE,,,,,,,CLR,,,,,,,,VFR,,,,,,,,,,,,METAR,1906.0
KELN 311853Z AUTO 30008KT 8SM -RA BKN055 OVC065 12/07 A2981 RMK AO2 SLP097 P0001 T01170072,KELN,2022-10-31T18:53:00Z,47.03,-120.53,11.7,7.2,300,8,,8.0,29.811024,1009.7,,TRUE,TRUE,,,,,,-RA,BKN,5500,OVC,6500,,,,,VFR,,,,,,0.01,,,,,,METAR,532.0
KELM 311853Z AUTO 15009KT 10SM FEW050 SCT060 OVC070 16/09 A2992 RMK AO2 SLP134 T01560094,KELM,2022-10-31T18:53:00Z,42.15,-76.9,15.6,9.4,150,9,,10.0,29.920275,1013.4,,TRUE,TRUE,,,,,,,FEW,5000,SCT,6000,OVC,7000,,,VFR,,,,,,,,,,,,METAR,287.0
KELD 311853Z AUTO 23007KT 10SM CLR 23/12 A3000 RMK AO2 SLP155 T02280122,KELD,2022-10-31T18:53:00Z,33.22,-92.82,22.8,12.2,230,7,,10.0,30.0,1015.5,,TRUE,TRUE,,,,,,,CLR,,,,,,,,VFR,,,,,,,,,,,,METAR,76.0
KEET 311853Z AUTO VRB04KT 10SM FEW028 OVC050 20/13 A3000 RMK AO2 SLP154 T02000128,KEET,2022-10-31T18:53:00Z,33.18,-86.78,20.0,12.8,0,4,,10.0,30.0,1015.4,,TRUE,TRUE,,,,,,,FEW,2800,OVC,5000,,,,,VFR,,,,,,,,,,,,METAR,172.0
KEEO 311853Z AUTO 22003KT 10SM CLR 10/M04 A3013 RMK AO2 SLP185 T01001044,KEEO,2022-10-31T18:53:00Z,40.05,-107.88,10.0,-4.4,220,3,,10.0,30.129921,1018.5,,TRUE,TRUE,,,,,,,CLR,,,,,,,,VFR,,,,,,,,,,,,METAR,1957.0
KDXR 311853Z 23007KT 10SM BKN120 18/08 A3001 RMK AO2 SLP162 T01830078,KDXR,2022-10-31T18:53:00Z,41.37,-73.48,18.3,7.8,230,7,,10.0,30.008858,1016.2,,,TRUE,,,,,,,BKN,12000,,,,,,,VFR,,,,,,,,,,,,METAR,138.0
KDWH 311853Z VRB04KT 10SM CLR 24/11 A3001 RMK AO2 SLP162 T02440111,KDWH,2022-10-31T18:53:00Z,30.07,-95.55,24.4,11.1,0,4,,10.0,30.008858,1016.2,,,TRUE,,,,,,,CLR,,,,,,,,VFR,,,,,,,,,,,,METAR,46.0
KDVT 311853Z 22006KT 10SM CLR 23/M02 A2996 RMK AO2 SLP129 T02281017,KDVT,2022-10-31T18:53:00Z,33.68,-112.07,22.8,-1.7,220,6,,10.0,29.958662,1012.9,,,TRUE,,,,,,,CLR,,,,,,,,VFR,,,,,,,,,,,,METAR,454.0
KDTW 311853Z 21009KT 10SM BKN008 OVC020 17/16 A2980 RMK AO2 SLP092 T01720156 $,KDTW,2022-10-31T18:53:00Z,42.23,-83.33,17.2,15.6,210,9,,10.0,29.799213,1009.2,,,TRUE,TRUE,,,,,,BKN,800,OVC,2000,,,,,IFR,,,,,,,,,,,,METAR,192.0
KDTS 311853Z 24005KT 10SM CLR 25/15 A2999 RMK AO2 SLP155 T02500150,KDTS,2022-10-31T18:53:00Z,30.4,-86.47,25.0,15.0,240,5,,10.0,29.991142,1015.5,,,TRUE,,,,,,,CLR,,,,,,,,VFR,,,,,,,,,,,,METAR,5.0
KDTO 311853Z 17005KT 10SM CLR 23/09 A3003 RMK AO2 SLP163 T02330089,KDTO,2022-10-31T18:53:00Z,33.2,-97.2,23.3,8.9,170,5,,10.0,30.029528,1016.3,,,TRUE,,,,,,,CLR,,,,,,,,VFR,,,,,,,,,,,,METAR,199.0
KDTN 311853Z AUTO 10SM CLR 24/12 A3001 RMK AO2 SLP161 T02390122,KDTN,2022-10-31T18:53:00Z,32.55,-93.75,23.9,12.2,,,,10.0,30.008858,1016.1,,TRUE,TRUE,,,,,,,CLR,,,,,,,,VFR,,,,,,,,,,,,METAR,53.0
KDRT 311853Z AUTO 14011KT 10SM SCT029 23/16 A2997 RMK AO2 SLP145 T02330161,KDRT,2022-10-31T18:53:00Z,29.37,-100.92,23.3,16.1,140,11,,10.0,29.970472,1014.5,,TRUE,TRUE,,,,,,,SCT,2900,,,,,,,VFR,,,,,,,,,,,,METAR,303.0
KDRO 311853Z AUTO VRB05KT 10SM CLR 13/M03 A3014 RMK AO2 SLP188 T01281033,KDRO,2022-10-31T18:53:00Z,37.15,-107.77,12.8,-3.3,0,5,,10.0,30.138779,1018.8,,TRUE,TRUE,,,,,,,CLR,,,,,,,,VFR,,,,,,,,,,,,METAR,2021.0
KDRA 311853Z AUTO 13006KT 10SM CLR 21/M09 A3002 RMK AO2 SLP139 T02111094,KDRA,2022-10-31T18:53:00Z,36.62,-116.03,21.1,-9.4,130,6,,10.0,30.02067,1013.9,,TRUE,TRUE,,,,,,,CLR,,,,,,,,VFR,,,,,,,,,,,,METAR,988.0
KDNL 311853Z AUTO 20007KT 10SM SCT014 BKN027 OVC033 23/19 A2999 RMK AO2 SLP151 T02330194,KDNL,2022-10-31T18:53:00Z,33.47,-82.03,23.3,19.4,200,7,,10.0,29.991142,1015.1,,TRUE,TRUE,,,,,,,SCT,1400,BKN,2700,OVC,3300,,,MVFR,,,,,,,,,,,,METAR,126.0
KDMO 311853Z AUTO 25006KT 10SM CLR 20/05 A2994 RMK AO2 SLP135 T02000050,KDMO,2022-10-31T18:53:00Z,38.72,-93.17,20.0,5.0,250,6,,10.0,29.940945,1013.5,,TRUE,TRUE,,,,,,,CLR,,,,,,,,VFR,,,,,,,,,,,,METAR,271.0
KDMN 311853Z AUTO 10005KT 10SM CLR 21/M03 A3006 RMK AO2 SLP135 T02061028,KDMN,2022-10-31T18:53:00Z,32.27,-107.72,20.6,-2.8,100,5,,10.0,30.059055,1013.5,,TRUE,TRUE,,,,,,,CLR,,,,,,,,VFR,,,,,,,,,,,,METAR,1310.0
KDLS 311853Z AUTO 34005KT 10SM FEW020 SCT060 OVC080 16/11 A2987 RMK AO2 SLP113 T01560111,KDLS,2022-10-31T18:53:00Z,45.62,-121.17,15.6,11.1,340,5,,10.0,29.870079,1011.3,,TRUE,TRUE,,,,,,,FEW,2000,SCT,6000,OVC,8000,,,VFR,,,,,,,,,,,,METAR,71.0
KDLN 311853Z AUTO 20015G23KT 10SM FEW075 14/M01 A2990 RMK AO2 SLP105 T01441006,KDLN,2022-10-31T18:53:00Z,45.25,-112.55,14.4,-0.6,200,15,23,10.0,29.899607,1010.5,,TRUE,TRUE,,,,,,,FEW,7500,,,,,,,VFR,,,,,,,,,,,,METAR,1586.0
KDKK 311853Z AUTO 30008KT 10SM -RA OVC021 16/13 A2986 RMK AO2 RAB47 SLP112 P0000 T01560128,KDKK,2022-10-31T18:53:00Z,42.5,-79.28,15.6,12.8,300,8,,10.0,29.861221,1011.2,,TRUE,TRUE,,,,,,-RA,OVC,2100,,,,,,,MVFR,,,,,,0.005,,,,,,METAR,205.0
KDHT 311853Z AUTO 20012G24KT 10SM CLR 21/02 A3002 RMK AO2 SLP136 T02110017 $,KDHT,2022-10-31T18:53:00Z,36.02,-102.55,21.1,1.7,200,12,24,10.0,30.02067,1013.6,,TRUE,TRUE,TRUE,,,,,,CLR,,,,,,,,VFR,,,,,,,,,,,,METAR,1217.0
KDHN 311853Z VRB05KT 10SM CLR 24/14 A3001 RMK AO2 SLP158 T02440139,KDHN,2022-10-31T18:53:00Z,31.32,-85.45,24.4,13.9,0,5,,10.0,30.008858,1015.8,,,TRUE,,,,,,,CLR,,,,,,,,VFR,,,,,,,,,,,,METAR,113.0
KDGW 311853Z AUTO 28014G21KT 10SM CLR 15/M05 A2993 RMK AO2 SLP128 T01501050,KDGW,2022-10-31T18:53:00Z,42.8,-105.38,15.0,-5.0,280,14,21,10.0,29.929134,1012.8,,TRUE,TRUE,,,,,,,CLR,,,,,,,,VFR,,,,,,,,,,,,METAR,1503.0
KDFW 311853Z VRB03KT 10SM SCT250 24/08 A3001 RMK AO2 SLP158 T02390078,KDFW,2022-10-31T18:53:00Z,32.9,-97.02,23.9,7.8,0,3,,10.0,30.008858,1015.8,,,TRUE,,,,,,,SCT,25000,,,,,,,VFR,,,,,,,,,,,,METAR,168.0
KDEQ 311853Z AUTO 21004KT 10SM 22/11 A2999 RMK AO2 SLP151 T02220106 $,KDEQ,2022-10-31T18:53:00Z,34.05,-94.4,22.2,10.6,210,4,,10.0,29.991142,1015.1,,TRUE,TRUE,TRUE,,,,,,,,,,,,,,,,,,,,,,,,,,METAR,107.0
KDEN 311853Z VRB04KT 10SM FEW220 18/M12 A2997 RMK AO2 SLP106 T01781122,KDEN,2022-10-31T18:53:00Z,39.85,-104.65,17.8,-12.2,0,4,,10.0,29.970472,1010.6,,,TRUE,,,,,,,FEW,22000,,,,,,,VFR,,,,,,,,,,,,METAR,1656.0
KDBQ 311853Z 31006KT 10SM CLR 19/06 A2985 RMK AO2 SLP108 T01890056,KDBQ,2022-10-31T18:53:00Z,42.4,-90.7,18.9,5.6,310,6,,10.0,29.84941,1010.8,,,TRUE,,,,,,,CLR,,,,,,,,VFR,,,,,,,,,,,,METAR,317.0
KDAL 311853Z 30005KT 10SM FEW050 BKN250 24/07 A3002 RMK AO2 SLP161 T02440067 $,KDAL,2022-10-31T18:53:00Z,32.85,-96.85,24.4,6.7,300,5,,10.0,30.02067,1016.1,,,TRUE,TRUE,,,,,,FEW,5000,BKN,25000,,,,,VFR,,,,,,,,,,,,METAR,148.0
KDAB 311853Z 12006KT 10SM FEW050 FEW070 28/20 A2996 RMK AO2 SLP146 T02780200,KDAB,2022-10-31T18:53:00Z,29.18,-81.07,27.8,20.0,120,6,,10.0,29.958662,1014.6,,,TRUE,,,,,,,FEW,5000,FEW,7000,,,,,VFR,,,,,,,,,,,,METAR,8.0
KCYS 311853Z 28018G24KT 10SM CLR 16/M09 A2998 RMK AO2 SLP113 T01611089,KCYS,2022-10-31T18:53:00Z,41.15,-104.8,16.1,-8.9,280,18,24,10.0,29.97933,1011.3,,,TRUE,,,,,,,CLR,,,,,,,,VFR,,,,,,,,,,,,METAR,1868.0
KCXO 311853Z 21004KT 10SM SCT055 24/12 A3002 RMK AO2 SLP165 T02440117,KCXO,2022-10-31T18:53:00Z,30.35,-95.42,24.4,11.7,210,4,,10.0,30.02067,1016.5,,,TRUE,,,,,,,SCT,5500,,,,,,,VFR,,,,,,,,,,,,METAR,69.0
KCUT 311853Z AUTO 24007KT 10SM CLR 14/M10 A2990 RMK AO2 SLP104 T01391100,KCUT,2022-10-31T18:53:00Z,43.73,-103.62,13.9,-10.0,240,7,,10.0,29.899607,1010.4,,TRUE,TRUE,,,,,,,CLR,,,,,,,,VFR,,,,,,,,,,,,METAR,1700.0
KCUB 311853Z AUTO 18008KT 150V220 10SM FEW031 FEW040 SCT055 26/19 A2998 RMK AO2 SLP151 T02610189,KCUB,2022-10-31T18:53:00Z,33.97,-81.0,26.1,18.9,180,8,,10.0,29.97933,1015.1,,TRUE,TRUE,,,,,,,FEW,3100,FEW,4000,SCT,5500,,,VFR,,,,,,,,,,,,METAR,55.0
KCSV 311853Z AUTO VRB05KT 10SM FEW029 OVC041 16/11 A2998 RMK AO2 SLP141 T01560106,KCSV,2022-10-31T18:53:00Z,35.95,-85.08,15.6,10.6,0,5,,10.0,29.97933,1014.1,,TRUE,TRUE,,,,,,,FEW,2900,OVC,4100,,,,,VFR,,,,,,,,,,,,METAR,569.0
KCSM 311853Z 23008KT 8SM CLR 21/06 A3002 RMK AO2 SLP154 T02060061 $,KCSM,2022-10-31T18:53:00Z,35.35,-99.2,20.6,6.1,230,8,,8.0,30.02067,1015.4,,,TRUE,TRUE,,,,,,CLR,,,,,,,,VFR,,,,,,,,,,,,METAR,586.0
KCRS 311853Z AUTO 06003KT 10SM CLR 26/09 A3003 RMK AO2 SLP165 T02560094,KCRS,2022-10-31T18:53:00Z,32.03,-96.4,25.6,9.4,60,3,,10.0,30.029528,1016.5,,TRUE,TRUE,,,,,,,CLR,,,,,,,,VFR,,,,,,,,,,,,METAR,136.0
KCRQ 311853Z 24005KT 10SM CLR 22/09 A2990 RMK AO2 SLP121 T02220094,KCRQ,2022-10-31T18:53:00Z,33.13,-117.28,22.2,9.4,240,5,,10.0,29.899607,1012.1,,,TRUE,,,,,,,CLR,,,,,,,,VFR,,,,,,,,,,,,METAR,96.0
KCRG 311853Z 12009G14KT 10SM BKN030 29/22 A2997 RMK AO2 SLP148 T02940217,KCRG,2022-10-31T18:53:00Z,30.33,-81.52,29.4,21.7,120,9,14,10.0,29.970472,1014.8,,,TRUE,,,,,,,BKN,3000,,,,,,,MVFR,,,,,,,,,,,,METAR,12.0
KCRE 311853Z 11010KT 10SM SCT038 23/19 A3001 RMK AO1 SLP163 T02280194,KCRE,2022-10-31T18:53:00Z,33.82,-78.72,22.8,19.4,110,10,,10.0,30.008858,1016.3,,,TRUE,,,,,,,SCT,3800,,,,,,,VFR,,,,,,,,,,,,METAR,9.0
KCQC 311853Z AUTO 26009KT 10SM CLR 14/M06 A3013 RMK AO2 SLP153 T01391061,KCQC,2022-10-31T18:53:00Z,35.0,-105.67,13.9,-6.1,260,9,,10.0,30.129921,1015.3,,TRUE,TRUE,,,,,,,CLR,,,,,,,,VFR,,,,,,,,,,,,METAR,2163.0
KCPR 311853Z 22016G24KT 10SM CLR 14/M04 A2994 RMK AO2 PK WND 22026/1833 SLP120 T01441044,KCPR,2022-10-31T18:53:00Z,42.9,-106.47,14.4,-4.4,220,16,24,10.0,29.940945,1012.0,,,TRUE,,,,,,,CLR,,,,,,,,VFR,,,,,,,,,,,,METAR,1623.0
KCOT 311853Z AUTO 12010KT 10SM FEW049 SCT065 OVC085 26/14 A2997 RMK AO2 SLP143 T02610139,KCOT,2022-10-31T18:53:00Z,28.45,-99.22,26.1,13.9,120,10,,10.0,29.970472,1014.3,,TRUE,TRUE,,,,,,,FEW,4900,SCT,6500,OVC,8500,,,VFR,,,,,,,,,,,,METAR,144.0
KCNY 311853Z AUTO 14006KT 10SM CLR 12/M01 A3011 RMK AO2 SLP189 T01171006,KCNY,2022-10-31T18:53:00Z,38.77,-109.75,11.7,-0.6,140,6,,10.0,30.109253,1018.9,,TRUE,TRUE,,,,,,,CLR,,,,,,,,VFR,,,,,,,,,,,,METAR,1392.0
KCNO 311853Z 00000KT 10SM SCT200 27/02 A2991 RMK AO2 SLP125 T02720017,KCNO,2022-10-31T18:53:00Z,33.98,-117.62,27.2,1.7,0,0,,10.0,29.911417,1012.5,,,TRUE,,,,,,,SCT,20000,,,,,,,VFR,,,,,,,,,,,,METAR,191.0
KCNM 311853Z AUTO 00000KT 10SM CLR 17/07 A3004 RMK AO2 SLP142 T01720067,KCNM,2022-10-31T18:53:00Z,32.33,-104.25,17.2,6.7,0,0,,10.0,30.041338,1014.2,,TRUE,TRUE,,,,,,,CLR,,,,,,,,VFR,,,,,,,,,,,,METAR,993.0
KCMX 311853Z AUTO 26011KT 10SM CLR 15/02 A2976 RMK AO2 SLP082 T01500017,KCMX,2022-10-31T18:53:00Z,47.17,-88.48,15.0,1.7,260,11,,10.0,29.760826,1008.2,,TRUE,TRUE,,,,,,,CLR,,,,,,,,VFR,,,,,,,,,,,,METAR,326.0
KCMI 311853Z 23013KT 2SM BR OVC003 14/13 A2984 RMK AO2 SLP103 T01390133,KCMI,2022-10-31T18:53:00Z,40.03,-88.27,13.9,13.3,230,13,,2.0,29.840551,1010.3,,,TRUE,,,,,,BR,OVC,300,,,,,,,LIFR,,,,,,,,,,,,METAR,227.0
KCLM 311853Z AUTO 30012G18KT 10SM SCT070 12/04 A2982 RMK AO2 SLP098 T01220044,KCLM,2022-10-31T18:53:00Z,48.12,-123.5,12.2,4.4,300,12,18,10.0,29.819881,1009.8,,TRUE,TRUE,,,,,,,SCT,7000,,,,,,,VFR,,,,,,,,,,,,METAR,81.0
KCLL 311853Z 23003KT 10SM CLR 24/12 A3003 RMK AO2 SLP164 T02390122,KCLL,2022-10-31T18:53:00Z,30.58,-96.37,23.9,12.2,230,3,,10.0,30.029528,1016.4,,,TRUE,,,,,,,CLR,,,,,,,,VFR,,,,,,,,,,,,METAR,96.0
KCIC 311853Z 28006KT 10SM CLR 17/02 A2997,KCIC,2022-10-31T18:53:00Z,39.78,-121.85,17.0,2.0,280,6,,10.0,29.970472,,,,,,,,,,,CLR,,,,,,,,VFR,,,,,,,,,,,,METAR,72.0
KCHO 311853Z 21003KT 4SM SCT006 BKN018 OVC100 16/14 A3002,KCHO,2022-10-31T18:53:00Z,38.13,-78.45,16.0,14.0,210,3,,4.0,30.02067,,,,,,,,,,,SCT,600,BKN,1800,OVC,10000,,,MVFR,,,,,,,,,,,,METAR,193.0
KCHA 311853Z 23007KT 10SM FEW032 SCT047 BKN055 BKN250 21/11 A2997 RMK AO2 SLP144 T02060111,KCHA,2022-10-31T18:53:00Z,35.03,-85.2,20.6,11.1,230,7,,10.0,29.970472,1014.4,,,TRUE,,,,,,,FEW,3200,SCT,4700,BKN,5500,BKN,25000,VFR,,,,,,,,,,,,METAR,203.0
KCGI 311853Z 26009KT 10SM OVC037 18/12 A2990 RMK AO2 SLP125 T01830122,KCGI,2022-10-31T18:53:00Z,37.23,-89.58,18.3,12.2,260,9,,10.0,29.899607,1012.5,,,TRUE,,,,,,,OVC,3700,,,,,,,VFR,,,,,,,,,,,,METAR,103.0
KCEZ 311853Z AUTO 21009KT 10SM CLR 13/M03 A3013 RMK AO2 SLP182 T01331033,KCEZ,2022-10-31T18:53:00Z,37.3,-108.63,13.3,-3.3,210,9,,10.0,30.129921,1018.2,,TRUE,TRUE,,,,,,,CLR,,,,,,,,VFR,,,,,,,,,,,,METAR,1801.0
KCEW 311853Z AUTO VRB03KT 10SM CLR 24/13 A3000 RMK AO2 SLP157 T02440133,KCEW,2022-10-31T18:53:00Z,30.78,-86.52,24.4,13.3,0,3,,10.0,30.0,1015.7,,TRUE,TRUE,,,,,,,CLR,,,,,,,,VFR,,,,,,,,,,,,METAR,47.0
KCDW 311853Z 22007KT 10SM FEW029 BKN120 18/09 A3000 RMK AO2 SLP164 T01780094,KCDW,2022-10-31T18:53:00Z,40.88,-74.28,17.8,9.4,220,7,,10.0,30.0,1016.4,,,TRUE,,,,,,,FEW,2900,BKN,12000,,,,,VFR,,,,,,,,,,,,METAR,52.0
KCDS 311853Z AUTO 18007KT 10SM CLR 22/08 A3004 RMK AO2 SLP156 T02170078,KCDS,2022-10-31T18:53:00Z,34.43,-100.28,21.7,7.8,180,7,,10.0,30.041338,1015.6,,TRUE,TRUE,,,,,,,CLR,,,,,,,,VFR,,,,,,,,,,,,METAR,595.0
KCDR 311853Z AUTO 31013G21KT 10SM CLR 18/M07 A2986 RMK AO2 SLP117 T01831067,KCDR,2022-10-31T18:53:00Z,42.83,-103.1,18.3,-6.7,310,13,21,10.0,29.861221,1011.7,,TRUE,TRUE,,,,,,,CLR,,,,,,,,VFR,,,,,,,,,,,,METAR,1002.0
KCDC 311853Z AUTO 34004KT 10SM CLR 12/M03 A3013 RMK AO2 SLP181 T01221033,KCDC,2022-10-31T18:53:00Z,37.7,-113.1,12.2,-3.3,340,4,,10.0,30.129921,1018.1,,TRUE,TRUE,,,,,,,CLR,,,,,,,,VFR,,,,,,,,,,,,METAR,1703.0
KCCR 311853Z 00000KT 10SM CLR 17/09 A2996 RMK AO2 SLP131 T01670089,KCCR,2022-10-31T18:53:00Z,38.0,-122.05,16.7,8.9,0,0,,10.0,29.958662,1013.1,,,TRUE,,,,,,,CLR,,,,,,,,VFR,,,,,,,,,,,,METAR,6.0
KCAG 311853Z AUTO 34003KT 10SM CLR 11/M04 A3013 RMK AO2 SLP203 T01111039,KCAG,2022-10-31T18:53:00Z,40.5,-107.52,11.1,-3.9,340,3,,10.0,30.129921,1020.3,,TRUE,TRUE,,,,,,,CLR,,,,,,,,VFR,,,,,,,,,,,,METAR,1888.0
KBYI 311853Z AUTO 02003KT 10SM CLR 16/M01 A3004 RMK AO2 SLP160 T01611006,KBYI,2022-10-31T18:53:00Z,42.55,-113.77,16.1,-0.6,20,3,,10.0,30.041338,1016.0,,TRUE,TRUE,,,,,,,CLR,,,,,,,,VFR,,,,,,,,,,,,METAR,1263.0
KBYG 311853Z AUTO 14010KT 10SM CLR 15/M06 A2986 RMK AO2 SLP090 T01501061,KBYG,2022-10-31T18:53:00Z,44.38,-106.72,15.0,-6.1,140,10,,10.0,29.861221,1009.0,,TRUE,TRUE,,,,,,,CLR,,,,,,,,VFR,,,,,,,,,,,,METAR,1503.0
KBWG 311853Z AUTO 23011KT 10SM FEW022 OVC037 19/13 A2992 RMK AO2 SLP130 T01890133,KBWG,2022-10-31T18:53:00Z,36.97,-86.42,18.9,13.3,230,11,,10.0,29.920275,1013.0,,TRUE,TRUE,,,,,,,FEW,2200,OVC,3700,,,,,VFR,,,,,,,,,,,,METAR,159.0
KBVY 311853Z 21014G19KT 10SM CLR 19/11 A2997 RMK AO2 SLP143 T01890111,KBVY,2022-10-31T18:53:00Z,42.58,-70.92,18.9,11.1,210,14,19,10.0,29.970472,1014.3,,,TRUE,,,,,,,CLR,,,,,,,,VFR,,,,,,,,,,,,METAR,28.0
KBVO 311853Z AUTO VRB06KT 10SM CLR 23/03 A2998 RMK AO2 SLP144 T02280033,KBVO,2022-10-31T18:53:00Z,36.77,-96.02,22.8,3.3,0,6,,10.0,29.97933,1014.4,,TRUE,TRUE,,,,,,,CLR,,,,,,,,VFR,,,,,,,,,,,,METAR,210.0
KBUR 311853Z VRB03KT 10SM CLR 27/M02 A2992 RMK AO2 SLP118 T02671017,KBUR,2022-10-31T18:53:00Z,34.2,-118.37,26.7,-1.7,0,3,,10.0,29.920275,1011.8,,,TRUE,,,,,,,CLR,,,,,,,,VFR,,,,,,,,,,,,METAR,221.0
KBTR 311853Z 27004KT 10SM BKN050 24/12 A3001 RMK AO2 SLP160 T02440122,KBTR,2022-10-31T18:53:00Z,30.53,-91.15,24.4,12.2,270,4,,10.0,30.008858,1016.0,,,TRUE,,,,,,,BKN,5000,,,,,,,VFR,,,,,,,,,,,,METAR,20.0
KBTM 311853Z AUTO 23016G26KT 10SM FEW065 13/M01 A2989 RMK AO2 PK WND 24026/1853 SLP101 T01331011,KBTM,2022-10-31T18:53:00Z,45.97,-112.5,13.3,-1.1,230,16,26,10.0,29.890747,1010.1,,TRUE,TRUE,,,,,,,FEW,6500,,,,,,,VFR,,,,,,,,,,,,METAR,1680.0
KBTL 311853Z 00000KT 9SM OVC006 16/13 A2981 RMK AO2 SLP094 T01560133,KBTL,2022-10-31T18:53:00Z,42.32,-85.25,15.6,13.3,0,0,,9.0,29.811024,1009.4,,,TRUE,,,,,,,OVC,600,,,,,,,IFR,,,,,,,,,,,,METAR,282.0
KBRO 311853Z 10014KT 10SM FEW040 OVC065 27/18 A2992 RMK AO2 SLP131 T02720183,KBRO,2022-10-31T18:53:00Z,25.92,-97.42,27.2,18.3,100,14,,10.0,29.920275,1013.1,,,TRUE,,,,,,,FEW,4000,OVC,6500,,,,,VFR,,,,,,,,,,,,METAR,6.0
KBRL 311853Z AUTO VRB05KT 10SM CLR 18/07 A2986 RMK AO2 SLP112 T01780072,KBRL,2022-10-31T18:53:00Z,40.77,-91.13,17.8,7.2,0,5,,10.0,29.861221,1011.2,,TRUE,TRUE,,,,,,,CLR,,,,,,,,VFR,,,,,,,,,,,,METAR,208.0
KBRD 311853Z AUTO 21009KT 10SM CLR 18/00 A2978 RMK AO2 SLP091 T01780000,KBRD,2022-10-31T18:53:00Z,46.4,-94.13,17.8,0.0,210,9,,10.0,29.778543,1009.1,,TRUE,TRUE,,,,,,,CLR,,,,,,,,VFR,,,,,,,,,,,,METAR,372.0
KBPT 311853Z 10004KT 10SM CLR 26/12 A3000 RMK AO2 SLP160 T02610117,KBPT,2022-10-31T18:53:00Z,29.95,-94.03,26.1,11.7,100,4,,10.0,30.0,1016.0,,,TRUE,,,,,,,CLR,,,,,,,,VFR,,,,,,,,,,,,METAR,6.0
KBPK 311853Z AUTO VRB05KT 10SM FEW095 20/08 A2995 RMK AO2 SLP138 T02000083 $,KBPK,2022-10-31T18:53:00Z,36.37,-92.47,20.0,8.3,0,5,,10.0,29.949802,1013.8,,TRUE,TRUE,TRUE,,,,,,FEW,9500,,,,,,,VFR,,,,,,,,,,,,METAR,279.0
KBPI 311853Z AUTO VRB03KT 10SM CLR 10/M03 A3010 RMK AO2 SLP163 T01001033,KBPI,2022-10-31T18:53:00Z,42.58,-110.1,10.0,-3.3,0,3,,10.0,30.100393,1016.3,,TRUE,TRUE,,,,,,,CLR,,,,,,,,VFR,,,,,,,,,,,,METAR,2120.0
KBOI 311853Z 12010KT 10SM SCT120 16/00 A2997 RMK AO2 SLP142 T01610000,KBOI,2022-10-31T18:53:00Z,43.57,-116.23,16.1,0.0,120,10,,10.0,29.970472,1014.2,,,TRUE,,,,,,,SCT,12000,,,,,,,VFR,,,,,,,,,,,,METAR,860.0
KBNO 311853Z AUTO 20005KT 10SM CLR 14/M02 A2999 RMK AO2 SLP151 T01441022,KBNO,2022-10-31T18:53:00Z,43.6,-118.95,14.4,-2.2,200,5,,10.0,29.991142,1015.1,,TRUE,TRUE,,,,,,,CLR,,,,,,,,VFR,,,,,,,,,,,,METAR,1263.0
KBNA 311853Z 22005KT 10SM BKN022 OVC060 18/12 A2995 RMK AO2 SLP138 T01830122,KBNA,2022-10-31T18:53:00Z,36.12,-86.68,18.3,12.2,220,5,,10.0,29.949802,1013.8,,,TRUE,,,,,,,BKN,2200,OVC,6000,,,,,MVFR,,,,,,,,,,,,METAR,168.0
KBMQ 311853Z AUTO 00000KT 10SM CLR 23/07 A3004 RMK AO2 SLP163 T02330072 $,KBMQ,2022-10-31T18:53:00Z,30.73,-98.23,23.3,7.2,0,0,,10.0,30.041338,1016.3,,TRUE,TRUE,TRUE,,,,,,CLR,,,,,,,,VFR,,,,,,,,,,,,METAR,387.0
KBLI 311853Z 17010KT 10SM FEW015 SCT030 SCT080 11/09 A2979 RMK AO2 RAB1756E15 SLP095 P0000 T01060094,KBLI,2022-10-31T18:53:00Z,48.8,-122.53,10.6,9.4,170,10,,10.0,29.790354,1009.5,,,TRUE,,,,,,,FEW,1500,SCT,3000,SCT,8000,,,VFR,,,,,,0.005,,,,,,METAR,46.0
KBKV 311853Z 16003KT 10SM CLR 30/18 A2997 RMK AO2 SLP146 T03000183,KBKV,2022-10-31T18:53:00Z,28.47,-82.45,30.0,18.3,160,3,,10.0,29.970472,1014.6,,,TRUE,,,,,,,CLR,,,,,,,,VFR,,,,,,,,,,,,METAR,21.0
KBKL 311853Z 21008KT 10SM FEW034 BKN047 OVC070 21/14 A2982 RMK AO2 SLP094 T02110139,KBKL,2022-10-31T18:53:00Z,41.53,-81.67,21.1,13.9,210,8,,10.0,29.819881,1009.4,,,TRUE,,,,,,,FEW,3400,BKN,4700,OVC,7000,,,VFR,,,,,,,,,,,,METAR,177.0
KBKE 311853Z AUTO 12012KT 10SM CLR 09/01 A2995 RMK AO2 SLP145 T00940006,KBKE,2022-10-31T18:53:00Z,44.85,-117.82,9.4,0.6,120,12,,10.0,29.949802,1014.5,,TRUE,TRUE,,,,,,,CLR,,,,,,,,VFR,,,,,,,,,,,,METAR,1025.0
KBIV 311853Z AUTO 00000KT 10SM -RA OVC008 15/13 A2981 RMK AO2 RAB49 SLP095 P0000 T01500128,KBIV,2022-10-31T18:53:00Z,42.75,-86.1,15.0,12.8,0,0,,10.0,29.811024,1009.5,,TRUE,TRUE,,,,,,-RA,OVC,800,,,,,,,IFR,,,,,,0.005,,,,,,METAR,207.0
KBIL 311853Z 23017G26KT 10SM SCT100 BKN250 18/M01 A2979 RMK AO2 PK WND 23029/1835 SLP077 ACSL ALQDS T01781011,KBIL,2022-10-31T18:53:00Z,45.8,-108.55,17.8,-1.1,230,17,26,10.0,29.790354,1007.7,,,TRUE,,,,,,,SCT,10000,BKN,25000,,,,,VFR,,,,,,,,,,,,METAR,1089.0
KBHM 311853Z 23007KT 10SM FEW027 OVC050 19/13 A3001 RMK AO2 SLP159 T01940128,KBHM,2022-10-31T18:53:00Z,33.57,-86.75,19.4,12.8,230,7,,10.0,30.008858,1015.9,,,TRUE,,,,,,,FEW,2700,OVC,5000,,,,,VFR,,,,,,,,,,,,METAR,191.0
KBGR 311853Z 17010KT 10SM FEW120 SCT200 17/08 A2993 RMK AO2 SLP135 T01720083,KBGR,2022-10-31T18:53:00Z,44.8,-68.82,17.2,8.3,170,10,,10.0,29.929134,1013.5,,,TRUE,,,,,,,FEW,12000,SCT,20000,,,,,VFR,,,,,,,,,,,,METAR,45.0
KBGM 311853Z 20004KT 10SM FEW055 OVC070 14/08 A2994 RMK AO2 RAB41E50 SLP142 P0000 T01390083,KBGM,2022-10-31T18:53:00Z,42.22,-75.98,13.9,8.3,200,4,,10.0,29.940945,1014.2,,,TRUE,,,,,,,FEW,5500,OVC,7000,,,,,VFR,,,,,,0.005,,,,,,METAR,485.0
KBFM 311853Z 13006KT 10SM FEW034 BKN050 23/14 A3002 RMK AO2 SLP165 T02330144,KBFM,2022-10-31T18:53:00Z,30.62,-88.07,23.3,14.4,130,6,,10.0,30.02067,1016.5,,,TRUE,,,,,,,FEW,3400,BKN,5000,,,,,VFR,,,,,,,,,,,,METAR,7.0
KBFI 311853Z 20010G16KT 10SM SCT016 BKN050 12/09 A2983 RMK AO2 SLP100 T01220089,KBFI,2022-10-31T18:53:00Z,47.55,-122.32,12.2,8.9,200,10,16,10.0,29.828741,1010.0,,,TRUE,,,,,,,SCT,1600,BKN,5000,,,,,VFR,,,,,,,,,,,,METAR,7.0
KBFF 311853Z AUTO 28013G21KT 10SM CLR 19/M06 A2991 RMK AO2 SLP115 T01941056,KBFF,2022-10-31T18:53:00Z,41.87,-103.6,19.4,-5.6,280,13,21,10.0,29.911417,1011.5,,TRUE,TRUE,,,,,,,CLR,,,,,,,,VFR,,,,,,,,,,,,METAR,1204.0
KBFD 311853Z AUTO 21007KT 10SM OVC004 13/12 A2991 RMK AO2 RAB20E29 SLP131 P0000 T01330117,KBFD,2022-10-31T18:53:00Z,41.8,-78.63,13.3,11.7,210,7,,10.0,29.911417,1013.1,,TRUE,TRUE,,,,,,,OVC,400,,,,,,,LIFR,,,,,,0.005,,,,,,METAR,642.0
KBDE 311853Z AUTO 23011KT 10SM CLR 17/00 A2965 RMK AO2 SLP045 T01670000,KBDE,2022-10-31T18:53:00Z,48.73,-94.62,16.7,0.0,230,11,,10.0,29.648623,1004.5,,TRUE,TRUE,,,,,,,CLR,,,,,,,,VFR,,,,,,,,,,,,METAR,330.0
KBCT 311853Z 14010G15KT 090V160 10SM SCT025 30/24 A2994,KBCT,2022-10-31T18:53:00Z,26.38,-80.1,30.0,24.0,140,10,15,10.0,29.940945,,,,,,,,,,,SCT,2500,,,,,,,VFR,,,,,,,,,,,,METAR,3.0
KBCE 311853Z AUTO 10SM CLR 11/M10 A3019 RMK AO2 SLP173 T01111100,KBCE,2022-10-31T18:53:00Z,37.7,-112.15,11.1,-10.0,,,,10.0,30.188976,1017.3,,TRUE,TRUE,,,,,,,CLR,,,,,,,,VFR,,,,,,,,,,,,METAR,2311.0
KBBW 311853Z AUTO 22014G20KT 10SM CLR 22/M02 A2986 RMK AO2 SLP112 T02171017,KBBW,2022-10-31T18:53:00Z,41.43,-99.63,21.7,-1.7,220,14,20,10.0,29.861221,1011.2,,TRUE,TRUE,,,,,,,CLR,,,,,,,,VFR,,,,,,,,,,,,METAR,771.0
KBAF 311853Z 21010G16KT 10SM CLR 21/06 A2996 RMK AO2 SLP148 T02060061,KBAF,2022-10-31T18:53:00Z,42.17,-72.72,20.6,6.1,210,10,16,10.0,29.958662,1014.8,,,TRUE,,,,,,,CLR,,,,,,,,VFR,,,,,,,,,,,,METAR,80.0
KAXN 311853Z AUTO 22009KT 10SM CLR 17/M02 A2980 RMK AO2 SLP098 T01671017,KAXN,2022-10-31T18:53:00Z,45.87,-95.4,16.7,-1.7,220,9,,10.0,29.799213,1009.8,,TRUE,TRUE,,,,,,,CLR,,,,,,,,VFR,,,,,,,,,,,,METAR,433.0
KAWM 311853Z AUTO 24004KT 10SM BKN050 21/12 A2995 RMK AO2 SLP138 T02060122,KAWM,2022-10-31T18:53:00Z,35.13,-90.23,20.6,12.2,240,4,,10.0,29.949802,1013.8,,TRUE,TRUE,,,,,,,BKN,5000,,,,,,,VFR,,,,,,,,,,,,METAR,64.0
KAUS 311853Z 15009KT 10SM FEW050 FEW200 SCT300 25/11 A3000 RMK AO2 SLP155 T02500111,KAUS,2022-10-31T18:53:00Z,30.18,-97.68,25.0,11.1,150,9,,10.0,30.0,1015.5,,,TRUE,,,,,,,FEW,5000,FEW,20000,SCT,30000,,,VFR,,,,,,,,,,,,METAR,148.0
KAUG 311853Z AUTO 18007KT 160V240 10SM CLR 18/08 A2994 RMK AO2 SLP141 T01780078,KAUG,2022-10-31T18:53:00Z,44.32,-69.8,17.8,7.8,180,7,,10.0,29.940945,1014.1,,TRUE,TRUE,,,,,,,CLR,,,,,,,,VFR,,,,,,,,,,,,METAR,107.0
KATY 311853Z AUTO 20008KT 10SM CLR 18/02 A2978 RMK AO2 SLP090 T01830017,KATY,2022-10-31T18:53:00Z,44.9,-97.15,18.3,1.7,200,8,,10.0,29.778543,1009.0,,TRUE,TRUE,,,,,,,CLR,,,,,,,,VFR,,,,,,,,,,,,METAR,531.0
KASX 311853Z AUTO 25007KT 10SM CLR 18/M01 A2979 RMK AO2 SLP093 T01831011,KASX,2022-10-31T18:53:00Z,46.55,-90.92,18.3,-1.1,250,7,,10.0,29.790354,1009.3,,TRUE,TRUE,,,,,,,CLR,,,,,,,,VFR,,,,,,,,,,,,METAR,249.0
KASE 311853Z 36005KT 10SM CLR 08/M06 A3015 RMK AO2 SLP164 T00781056,KASE,2022-10-31T18:53:00Z,39.23,-106.87,7.8,-5.6,360,5,,10.0,30.15059,1016.4,,,TRUE,,,,,,,CLR,,,,,,,,VFR,,,,,,,,,,,,METAR,2384.0
KASD 311853Z AUTO 23005KT 10SM CLR 24/14 A3001 RMK AO2 SLP161 T02440144,KASD,2022-10-31T18:53:00Z,30.35,-89.82,24.4,14.4,230,5,,10.0,30.008858,1016.1,,TRUE,TRUE,,,,,,,CLR,,,,,,,,VFR,,,,,,,,,,,,METAR,8.0
KARB 311853Z 21008KT 10SM OVC009 17/14 A2980 RMK AO2 CIG 006V013 SLP090 T01670139,KARB,2022-10-31T18:53:00Z,42.22,-83.73,16.7,13.9,210,8,,10.0,29.799213,1009.0,,,TRUE,,,,,,,OVC,900,,,,,,,IFR,,,,,,,,,,,,METAR,251.0
KARA 311853Z 27005KT 10SM FEW050 26/11 A3001 RMK AO2 SLP160 T02560106,KARA,2022-10-31T18:53:00Z,30.03,-91.88,25.6,10.6,270,5,,10.0,30.008858,1016.0,,,TRUE,,,,,,,FEW,5000,,,,,,,VFR,,,,,,,,,,,,METAR,5.0
KAPF 311853Z 27009KT 10SM FEW050 29/26 A2993 RMK AO2 SLP132 T02890256 $,KAPF,2022-10-31T18:53:00Z,26.15,-81.77,28.9,25.6,270,9,,10.0,29.929134,1013.2,,,TRUE,TRUE,,,,,,FEW,5000,,,,,,,VFR,,,,,,,,,,,,METAR,2.0
KAPA 311853Z 15005KT 10SM FEW200 16/M12 A2999 RMK AO2 SLP130 T01561122,KAPA,2022-10-31T18:53:00Z,39.57,-104.85,15.6,-12.2,150,5,,10.0,29.991142,1013.0,,,TRUE,,,,,,,FEW,20000,,,,,,,VFR,,,,,,,,,,,,METAR,1791.0
KAOO 311853Z AUTO 19006KT 10SM OVC017 16/11 A2997 RMK AO2 SLP150 T01560106,KAOO,2022-10-31T18:53:00Z,40.3,-78.32,15.6,10.6,190,6,,10.0,29.970472,1015.0,,TRUE,TRUE,,,,,,,OVC,1700,,,,,,,MVFR,,,,,,,,,,,,METAR,450.0
KAOH 311853Z AUTO 22012KT 10SM FEW027 SCT032 OVC060 18/13 A2983 RMK AO2 SLP099 T01830128,KAOH,2022-10-31T18:53:00Z,40.7,-84.02,18.3,12.8,220,12,,10.0,29.828741,1009.9,,TRUE,TRUE,,,,,,,FEW,2700,SCT,3200,OVC,6000,,,VFR,,,,,,,,,,,,METAR,294.0
KANB 311853Z AUTO 25011KT 10SM FEW032 OVC050 20/13 A3000 RMK AO2 SLP155 T02000128,KANB,2022-10-31T18:53:00Z,33.58,-85.85,20.0,12.8,250,11,,10.0,30.0,1015.5,,TRUE,TRUE,,,,,,,FEW,3200,OVC,5000,,,,,VFR,,,,,,,,,,,,METAR,187.0
KAMW 311853Z AUTO 28005KT 10SM CLR 18/02 A2988 RMK AO2 SLP117 T01830022,KAMW,2022-10-31T18:53:00Z,41.98,-93.62,18.3,2.2,280,5,,10.0,29.878937,1011.7,,TRUE,TRUE,,,,,,,CLR,,,,,,,,VFR,,,,,,,,,,,,METAR,282.0
KAMG 311853Z AUTO 18007KT 10SM FEW036 SCT065 28/19 A2996 RMK AO2 SLP143 T02830189,KAMG,2022-10-31T18:53:00Z,31.53,-82.5,28.3,18.9,180,7,,10.0,29.958662,1014.3,,TRUE,TRUE,,,,,,,FEW,3600,SCT,6500,,,,,VFR,,,,,,,,,,,,METAR,61.0
KAMA 311853Z 21012G21KT 10SM -RA CLR 21/03 A3002 RMK AO2 RAE27B45 SLP139 P0000 T02060033,KAMA,2022-10-31T18:53:00Z,35.22,-101.72,20.6,3.3,210,12,21,10.0,30.02067,1013.9,,,TRUE,,,,,,-RA,CLR,,,,,,,,VFR,,,,,,0.005,,,,,,METAR,1102.0
KALW 311853Z 17009KT 10SM OVC055 13/07 A2986 RMK AO2 RAE53 SLP112 P0001 T01280072,KALW,2022-10-31T18:53:00Z,46.1,-118.28,12.8,7.2,170,9,,10.0,29.861221,1011.2,,,TRUE,,,,,,,OVC,5500,,,,,,,VFR,,,,,,0.01,,,,,,METAR,355.0
KALI 311853Z AUTO 13009G17KT 10SM FEW045 OVC075 26/15 A2997 RMK AO2 SLP147 T02560150,KALI,2022-10-31T18:53:00Z,27.73,-98.02,25.6,15.0,130,9,17,10.0,29.970472,1014.7,,TRUE,TRUE,,,,,,,FEW,4500,OVC,7500,,,,,VFR,,,,,,,,,,,,METAR,52.0
KAKO 311853Z AUTO 21010KT 10SM CLR 18/M06 A2997 RMK AO2 SLP122 T01781056,KAKO,2022-10-31T18:53:00Z,40.17,-103.22,17.8,-5.6,210,10,,10.0,29.970472,1012.2,,TRUE,TRUE,,,,,,,CLR,,,,,,,,VFR,,,,,,,,,,,,METAR,1431.0
KAIA 311853Z AUTO 27014G21KT 10SM CLR 18/M06 A2989 RMK AO2 SLP113 T01831056,KAIA,2022-10-31T18:53:00Z,42.05,-102.8,18.3,-5.6,270,14,21,10.0,29.890747,1011.3,,TRUE,TRUE,,,,,,,CLR,,,,,,,,VFR,,,,,,,,,,,,METAR,1198.0
KAGS 311853Z 23006KT 10SM OVC018 25/19 A2997 RMK AO2 SLP147 T02500194 $,KAGS,2022-10-31T18:53:00Z,33.37,-81.97,25.0,19.4,230,6,,10.0,29.970472,1014.7,,,TRUE,TRUE,,,,,,OVC,1800,,,,,,,MVFR,,,,,,,,,,,,METAR,40.0
KAGC 311853Z AUTO 19007KT 10SM OVC011 17/15 A2991 RMK AO2 SLP130 T01720150,KAGC,2022-10-31T18:53:00Z,40.35,-79.92,17.2,15.0,190,7,,10.0,29.911417,1013.0,,TRUE,TRUE,,,,,,,OVC,1100,,,,,,,MVFR,,,,,,,,,,,,METAR,380.0
KAFW 311853Z 00000KT 10SM SCT250 23/07 A3002 RMK AO2 SLP160 T02330067,KAFW,2022-10-31T18:53:00Z,32.97,-97.32,23.3,6.7,0,0,,10.0,30.02067,1016.0,,,TRUE,,,,,,,SCT,25000,,,,,,,VFR,,,,,,,,,,,,METAR,208.0
KAEX 311853Z VRB04KT 10SM CLR 24/11 A3000 RMK AO2 SLP160 T02440111,KAEX,2022-10-31T18:53:00Z,31.33,-92.57,24.4,11.1,0,4,,10.0,30.0,1016.0,,,TRUE,,,,,,,CLR,,,,,,,,VFR,,,,,,,,,,,,METAR,25.0
KADG 311853Z AUTO 23006KT 3SM -RA BR FEW008 BKN048 OVC065 16/16 A2982 RMK AO2 SLP099 P0003 T01610156,KADG,2022-10-31T18:53:00Z,41.87,-84.08,16.1,15.6,230,6,,3.0,29.819881,1009.9,,TRUE,TRUE,,,,,,-RA BR,FEW,800,BKN,4800,OVC,6500,,,MVFR,,,,,,0.03,,,,,,METAR,244.0
KACV 311853Z AUTO 00000KT 4SM HZ OVC015 14/09 A2999 RMK AO2 SLP162 T01390094,KACV,2022-10-31T18:53:00Z,40.98,-124.1,13.9,9.4,0,0,,4.0,29.991142,1016.2,,TRUE,TRUE,,,,,,HZ,OVC,1500,,,,,,,MVFR,,,,,,,,,,,,METAR,63.0
KACK 311853Z 13007KT 10SM BKN043 BKN060 18/15 A3004 RMK AO2 SLP172 T01780150,KACK,2022-10-31T18:53:00Z,41.25,-70.07,17.8,15.0,130,7,,10.0,30.041338,1017.2,,,TRUE,,,,,,,BKN,4300,BKN,6000,,,,,VFR,,,,,,,,,,,,METAR,12.0
KABR 311853Z AUTO 18007KT 10SM CLR 17/M01 A2977 RMK AO2 SLP088 T01721006,KABR,2022-10-31T18:53:00Z,45.45,-98.42,17.2,-0.6,180,7,,10.0,29.769686,1008.8,,TRUE,TRUE,,,,,,,CLR,,,,,,,,VFR,,,,,,,,,,,,METAR,397.0
KAAF 311853Z AUTO 29007KT 10SM CLR 27/20 A2997 RMK AO2 SLP148 T02670200,KAAF,2022-10-31T18:53:00Z,29.73,-85.03,26.7,20.0,290,7,,10.0,29.970472,1014.8,,TRUE,TRUE,,,,,,,CLR,,,,,,,,VFR,,,,,,,,,,,,METAR,5.0
PATA 311852Z 06003KT 10SM FEW060 OVC080 M07/M12 A3001 RMK AO2 SLP170 T10721122 $,PATA,2022-10-31T18:52:00Z,65.17,-152.1,-7.2,-12.2,60,3,,10.0,30.008858,1017.0,,,TRUE,TRUE,,,,,,FEW,6000,OVC,8000,,,,,VFR,,,,,,,,,,,,METAR,62.0
MMGM 311852Z 22008KT 10SM SKC 27/15 A2984,MMGM,2022-10-31T18:52:00Z,27.95,-110.92,27.0,15.0,220,8,,10.0,29.840551,,,,,,,,,,,SKC,,,,,,,,VFR,,,,,,,,,,,,METAR,13.0
KVTN 311852Z AUTO 10SM CLR 20/M05 A2984 RMK AO2 SLP108 T02001050,KVTN,2022-10-31T18:52:00Z,42.87,-100.55,20.0,-5.0,,,,10.0,29.840551,1010.8,,TRUE,TRUE,,,,,,,CLR,,,,,,,,VFR,,,,,,,,,,,,METAR,790.0
KTRM 311852Z AUTO 14007KT 10SM CLR 29/03 A2988 RMK AO2 SLP120 T02890028,KTRM,2022-10-31T18:52:00Z,33.63,-116.17,28.9,2.8,140,7,,10.0,29.878937,1012.0,,TRUE,TRUE,,,,,,,CLR,,,,,,,,VFR,,,,,,,,,,,,METAR,-39.0
KTOL 311852Z 23009KT 10SM FEW045 SCT060 OVC070 18/14 A2981 RMK AO2 SLP093 T01830144 $,KTOL,2022-10-31T18:52:00Z,41.58,-83.8,18.3,14.4,230,9,,10.0,29.811024,1009.3,,,TRUE,TRUE,,,,,,FEW,4500,SCT,6000,OVC,7000,,,VFR,,,,,,,,,,,,METAR,206.0
KTAN 311852Z AUTO A3001 RMK AO2 SLPNO PWINO FZRANO TSNO $,KTAN,2022-10-31T18:52:00Z,41.88,-71.02,,,,,,,30.008858,,,TRUE,TRUE,TRUE,,TRUE,TRUE,TRUE,,,,,,,,,,,,,,,,,,,,,,METAR,8.0
KSUX 311852Z 22011KT 10SM CLR 21/02 A2986 RMK AO2 SLP115 T02060017,KSUX,2022-10-31T18:52:00Z,42.38,-96.38,20.6,1.7,220,11,,10.0,29.861221,1011.5,,,TRUE,,,,,,,CLR,,,,,,,,VFR,,,,,,,,,,,,METAR,332.0
KSPS 311852Z 25004KT 10SM CLR 24/07 A3001 RMK AO2 SLP155 T02390072,KSPS,2022-10-31T18:52:00Z,33.98,-98.5,23.9,7.2,250,4,,10.0,30.008858,1015.5,,,TRUE,,,,,,,CLR,,,,,,,,VFR,,,,,,,,,,,,METAR,310.0
KSPI 311852Z 28007KT 3SM BR OVC006 14/12 A2986 RMK AO2 SLP110 T01390122,KSPI,2022-10-31T18:52:00Z,39.85,-89.68,13.9,12.2,280,7,,3.0,29.861221,1011.0,,,TRUE,,,,,,BR,OVC,600,,,,,,,IFR,,,,,,,,,,,,METAR,179.0
KSGF 311852Z VRB04KT 10SM BKN110 20/07 A2995 RMK AO2 SLP137 T02000072,KSGF,2022-10-31T18:52:00Z,37.23,-93.38,20.0,7.2,0,4,,10.0,29.949802,1013.7,,,TRUE,,,,,,,BKN,11000,,,,,,,VFR,,,,,,,,,,,,METAR,387.0
KREO 311852Z AUTO 00000KT 17/M03 A2998 RMK AO1 SLP142 T01671033 $,KREO,2022-10-31T18:52:00Z,42.58,-117.87,16.7,-3.3,0,0,,,29.97933,1014.2,,TRUE,TRUE,TRUE,,,,,,,,,,,,,,,,,,,,,,,,,,METAR,1237.0
KRAP 311852Z 17004KT 10SM CLR 18/M08 A2984 RMK AO2 SLP102 T01831083,KRAP,2022-10-31T18:52:00Z,44.05,-103.05,18.3,-8.3,170,4,,10.0,29.840551,1010.2,,,TRUE,,,,,,,CLR,,,,,,,,VFR,,,,,,,,,,,,METAR,965.0
KPPF 311852Z AUTO 27009KT 10SM CLR 22/04 A2997 RMK AO2 SLP142 T02220039,KPPF,2022-10-31T18:52:00Z,37.33,-95.5,22.2,3.9,270,9,,10.0,29.970472,1014.2,,TRUE,TRUE,,,,,,,CLR,,,,,,,,VFR,,,,,,,,,,,,METAR,265.0
KP69 311852Z AUTO 00000KT 08/07 A2991 RMK AO1 SLP133 T00830067,KP69,2022-10-31T18:52:00Z,46.15,-115.6,8.3,6.7,0,0,,,29.911417,1013.3,,TRUE,TRUE,,,,,,,,,,,,,,,,,,,,,,,,,,,METAR,447.0
KORE 311852Z AUTO VRB04KT 10SM CLR 17/08 A2999 RMK AO2 SLP157 T01720078,KORE,2022-10-31T18:52:00Z,42.57,-72.28,17.2,7.8,0,4,,10.0,29.991142,1015.7,,TRUE,TRUE,,,,,,,CLR,,,,,,,,VFR,,,,,,,,,,,,METAR,165.0
KOMA 311852Z 21007KT 10SM FEW250 19/01 A2991 RMK AO2 SLP127 T01890011,KOMA,2022-10-31T18:52:00Z,41.32,-95.9,18.9,1.1,210,7,,10.0,29.911417,1012.7,,,TRUE,,,,,,,FEW,25000,,,,,,,VFR,,,,,,,,,,,,METAR,299.0
KOKC 311852Z 23005KT 10SM SCT250 22/03 A3001 RMK AO2 SLP156 T02170028,KOKC,2022-10-31T18:52:00Z,35.38,-97.6,21.7,2.8,230,5,,10.0,30.008858,1015.6,,,TRUE,,,,,,,SCT,25000,,,,,,,VFR,,,,,,,,,,,,METAR,391.0
KOKB 311852Z AUTO 23006KT 10SM CLR 24/10 A2989 RMK AO2 SLP122 T02390100,KOKB,2022-10-31T18:52:00Z,33.22,-117.35,23.9,10.0,230,6,,10.0,29.890747,1012.2,,TRUE,TRUE,,,,,,,CLR,,,,,,,,VFR,,,,,,,,,,,,METAR,7.0
KNZY 311852Z 20006KT 10SM SCT250 23/08 A2989 RMK AO2 SLP122 T02280078 $,KNZY,2022-10-31T18:52:00Z,32.7,-117.22,22.8,7.8,200,6,,10.0,29.890747,1012.2,,,TRUE,TRUE,,,,,,SCT,25000,,,,,,,VFR,,,,,,,,,,,,METAR,4.0
KNRB 311852Z 13011KT 10SM SCT030 BKN140 BKN250 28/22 A2998 RMK AO2 SLP150 T02780222,KNRB,2022-10-31T18:52:00Z,30.38,-81.42,27.8,22.2,130,11,,10.0,29.97933,1015.0,,,TRUE,,,,,,,SCT,3000,BKN,14000,BKN,25000,,,VFR,,,,,,,,,,,,METAR,4.0
KNFW 311852Z 07004KT 10SM FEW050 SCT250 24/10 A3003 RMK AO2 SLP153 T02390106 $,KNFW,2022-10-31T18:52:00Z,32.78,-97.43,23.9,10.6,70,4,,10.0,30.029528,1015.3,,,TRUE,TRUE,,,,,,FEW,5000,SCT,25000,,,,,VFR,,,,,,,,,,,,METAR,188.0
KNFG 311852Z VRB06KT 10SM SCT150 26/06 A2989 RMK AO2 SLP122 T02610056 $,KNFG,2022-10-31T18:52:00Z,33.3,-117.35,26.1,5.6,0,6,,10.0,29.890747,1012.2,,,TRUE,TRUE,,,,,,SCT,15000,,,,,,,VFR,,,,,,,,,,,,METAR,21.0
KN60 311852Z AUTO 24011KT 14/04 A2973 RMK AO1 SLP074 T01390039,KN60,2022-10-31T18:52:00Z,47.65,-101.43,13.9,3.9,240,11,,,29.731298,1007.4,,TRUE,TRUE,,,,,,,,,,,,,,,,,,,,,,,,,,,METAR,582.0
KMWH 311852Z 24007KT 10SM FEW055 BKN070 OVC085 13/07 A2979 RMK AO2 RAB35E49 SLP087 P0000 T01330072,KMWH,2022-10-31T18:52:00Z,47.2,-119.32,13.3,7.2,240,7,,10.0,29.790354,1008.7,,,TRUE,,,,,,,FEW,5500,BKN,7000,OVC,8500,,,VFR,,,,,,0.005,,,,,,METAR,355.0
KMLI 311852Z 00000KT 10SM CLR 19/07 A2984 RMK AO2 SLP106 T01890072,KMLI,2022-10-31T18:52:00Z,41.45,-90.52,18.9,7.2,0,0,,10.0,29.840551,1010.6,,,TRUE,,,,,,,CLR,,,,,,,,VFR,,,,,,,,,,,,METAR,174.0
KMLF 311852Z AUTO VRB03KT 10SM CLR 12/M03 A3013 RMK AO2 SLP192 T01221028 TSNO $,KMLF,2022-10-31T18:52:00Z,38.42,-113.02,12.2,-2.8,0,3,,10.0,30.129921,1019.2,,TRUE,TRUE,TRUE,,TRUE,,,,CLR,,,,,,,,VFR,,,,,,,,,,,,METAR,1537.0
KMKE 311852Z 11004KT 10SM SCT024 BKN034 BKN250 16/09 A2981 RMK AO2 SLP095 T01560089,KMKE,2022-10-31T18:52:00Z,42.95,-87.9,15.6,8.9,110,4,,10.0,29.811024,1009.5,,,TRUE,,,,,,,SCT,2400,BKN,3400,BKN,25000,,,VFR,,,,,,,,,,,,METAR,203.0
KMHK 311852Z VRB06KT 10SM CLR 21/01 A2995 RMK AO2 SLP140 T02060006,KMHK,2022-10-31T18:52:00Z,39.13,-96.68,20.6,0.6,0,6,,10.0,29.949802,1014.0,,,TRUE,,,,,,,CLR,,,,,,,,VFR,,,,,,,,,,,,METAR,320.0
KMEB 311852Z AUTO 17009KT 10SM FEW037 SCT050 BKN060 26/18 A3000 RMK AO2 SLP155 T02610183,KMEB,2022-10-31T18:52:00Z,34.78,-79.37,26.1,18.3,170,9,,10.0,30.0,1015.5,,TRUE,TRUE,,,,,,,FEW,3700,SCT,5000,BKN,6000,,,VFR,,,,,,,,,,,,METAR,65.0
KMBG 311852Z AUTO 00000KT 10SM CLR 18/M02 A2975 RMK AO2 SLP078 T01781022,KMBG,2022-10-31T18:52:00Z,45.55,-100.42,17.8,-2.2,0,0,,10.0,29.749016,1007.8,,TRUE,TRUE,,,,,,,CLR,,,,,,,,VFR,,,,,,,,,,,,METAR,515.0
KLWC 311852Z AUTO 31008KT 10SM CLR 21/02 A2994 RMK AO1 SLP136 T02110022,KLWC,2022-10-31T18:52:00Z,39.02,-95.22,21.1,2.2,310,8,,10.0,29.940945,1013.6,,TRUE,TRUE,,,,,,,CLR,,,,,,,,VFR,,,,,,,,,,,,METAR,252.0
KIOW 311852Z AUTO 23003KT 10SM CLR 18/06 A2987 RMK AO2 SLP116 T01830061,KIOW,2022-10-31T18:52:00Z,41.63,-91.55,18.3,6.1,230,3,,10.0,29.870079,1011.6,,TRUE,TRUE,,,,,,,CLR,,,,,,,,VFR,,,,,,,,,,,,METAR,199.0
KIJD 311852Z AUTO 22013G19KT 10SM FEW034 19/11 A3000 RMK AO2 SLP158 T01890106,KIJD,2022-10-31T18:52:00Z,41.75,-72.18,18.9,10.6,220,13,19,10.0,30.0,1015.8,,TRUE,TRUE,,,,,,,FEW,3400,,,,,,,VFR,,,,,,,,,,,,METAR,73.0
KIEN 311852Z AUTO 27010G16KT 10SM CLR 16/M07 A2986 RMK AO2 SLP108 T01611072,KIEN,2022-10-31T18:52:00Z,43.03,-102.52,16.1,-7.2,270,10,16,10.0,29.861221,1010.8,,TRUE,TRUE,,,,,,,CLR,,,,,,,,VFR,,,,,,,,,,,,METAR,1002.0
KIAD 311852Z AUTO 20010KT 10SM FEW024 SCT060 BKN100 BKN180 BKN250 18/13 A2999 RMK AO2 SLP155 T01830128 TSNO,KIAD,2022-10-31T18:52:00Z,38.93,-77.45,18.3,12.8,200,10,,10.0,29.991142,1015.5,,TRUE,TRUE,,,TRUE,,,,FEW,2400,SCT,6000,BKN,10000,BKN,18000,VFR,,,,,,,,,,,,METAR,90.0
KHUT 311852Z VRB03KT 10SM CLR 20/M02 A2997 RMK AO2 SLP139 T02001017,KHUT,2022-10-31T18:52:00Z,38.07,-97.87,20.0,-1.7,0,3,,10.0,29.970472,1013.9,,,TRUE,,,,,,,CLR,,,,,,,,VFR,,,,,,,,,,,,METAR,464.0
KHRL 311852Z 10013KT 10SM OVC055 27/18 A2993 RMK AO2 RAE1753 SLP135 P0000 T02670183,KHRL,2022-10-31T18:52:00Z,26.23,-97.65,26.7,18.3,100,13,,10.0,29.929134,1013.5,,,TRUE,,,,,,,OVC,5500,,,,,,,VFR,,,,,,0.005,,,,,,METAR,9.0
KHIE 311852Z AUTO 32004KT 10SM CLR 16/00 A2993 RMK AO2 SLP144 T01560000,KHIE,2022-10-31T18:52:00Z,44.37,-71.55,15.6,0.0,320,4,,10.0,29.929134,1014.4,,TRUE,TRUE,,,,,,,CLR,,,,,,,,VFR,,,,,,,,,,,,METAR,321.0
KGLS 311852Z 11007KT 10SM CLR 23/13 A3003 RMK AO2 SLP167 T02330133,KGLS,2022-10-31T18:52:00Z,29.27,-94.87,23.3,13.3,110,7,,10.0,30.029528,1016.7,,,TRUE,,,,,,,CLR,,,,,,,,VFR,,,,,,,,,,,,METAR,2.0
KFIT 311852Z AUTO VRB04KT 10SM SCT120 20/07 A2997 RMK AO2 SLP152 T02000072,KFIT,2022-10-31T18:52:00Z,42.55,-71.75,20.0,7.2,0,4,,10.0,29.970472,1015.2,,TRUE,TRUE,,,,,,,SCT,12000,,,,,,,VFR,,,,,,,,,,,,METAR,102.0
KEST 311852Z AUTO 24009KT 10SM CLR 19/M01 A2985 RMK AO2 SLP112 T01891006,KEST,2022-10-31T18:52:00Z,43.4,-94.75,18.9,-0.6,240,9,,10.0,29.84941,1011.2,,TRUE,TRUE,,,,,,,CLR,,,,,,,,VFR,,,,,,,,,,,,METAR,401.0
KDVN 311852Z AUTO 26006KT 10SM CLR 19/05 A2986 RMK AO2 SLP109 T01890050,KDVN,2022-10-31T18:52:00Z,41.62,-90.58,18.9,5.0,260,6,,10.0,29.861221,1010.9,,TRUE,TRUE,,,,,,,CLR,,,,,,,,VFR,,,,,,,,,,,,METAR,227.0
KDPA 311852Z 02005KT 6SM BR BKN006 OVC013 13/11 A2981 RMK AO2 RAE00 SLP096 P0000 T01330111,KDPA,2022-10-31T18:52:00Z,41.88,-88.25,13.3,11.1,20,5,,6.0,29.811024,1009.6,,,TRUE,,,,,,BR,BKN,600,OVC,1300,,,,,IFR,,,,,,0.005,,,,,,METAR,228.0
KDDC 311852Z AUTO 21012G19KT 10SM CLR 22/01 A2997 RMK AO2 SLP138 T02220006,KDDC,2022-10-31T18:52:00Z,37.77,-99.97,22.2,0.6,210,12,19,10.0,29.970472,1013.8,,TRUE,TRUE,,,,,,,CLR,,,,,,,,VFR,,,,,,,,,,,,METAR,786.0
KDCA 311852Z 18009KT 10SM BKN024 BKN100 OVC200 19/14 A3000 RMK AO2 SLP158 T01890144,KDCA,2022-10-31T18:52:00Z,38.85,-77.03,18.9,14.4,180,9,,10.0,30.0,1015.8,,,TRUE,,,,,,,BKN,2400,BKN,10000,OVC,20000,,,MVFR,,,,,,,,,,,,METAR,4.0
KCVG 311852Z 21007KT 9SM SCT026 BKN034 OVC065 17/13 A2987 RMK AO2 SLP108 BINOVC W T01720128,KCVG,2022-10-31T18:52:00Z,39.05,-84.67,17.2,12.8,210,7,,9.0,29.870079,1010.8,,,TRUE,,,,,,,SCT,2600,BKN,3400,OVC,6500,,,VFR,,,,,,,,,,,,METAR,264.0
KCQX 311852Z AUTO VRB03KT 10SM OVC024 16/13 A3005 RMK AO2 SLP175 T01610133,KCQX,2022-10-31T18:52:00Z,41.68,-70.0,16.1,13.3,0,3,,10.0,30.050198,1017.5,,TRUE,TRUE,,,,,,,OVC,2400,,,,,,,MVFR,,,,,,,,,,,,METAR,17.0
KCNU 311852Z AUTO 29007KT 10SM CLR 23/05 A2996 RMK AO2 SLP139 T02280050,KCNU,2022-10-31T18:52:00Z,37.67,-95.48,22.8,5.0,290,7,,10.0,29.958662,1013.9,,TRUE,TRUE,,,,,,,CLR,,,,,,,,VFR,,,,,,,,,,,,METAR,301.0
KCKV 311852Z AUTO 20007KT 10SM -RA FEW017 SCT035 OVC065 18/14 A2992 RMK AO2 RAB19 SLP130 P0000 T01780139 $,KCKV,2022-10-31T18:52:00Z,36.62,-87.42,17.8,13.9,200,7,,10.0,29.920275,1013.0,,TRUE,TRUE,TRUE,,,,,-RA,FEW,1700,SCT,3500,OVC,6500,,,VFR,,,,,,0.005,,,,,,METAR,166.0
KCID 311852Z 31007KT 7SM HZ CLR 18/06 A2985 RMK AO2 SLP110 T01830056,KCID,2022-10-31T18:52:00Z,41.88,-91.72,18.3,5.6,310,7,,7.0,29.84941,1011.0,,,TRUE,,,,,,HZ,CLR,,,,,,,,VFR,,,,,,,,,,,,METAR,257.0
KCFV 311852Z AUTO 24009KT 10SM CLR 22/05 A2996 RMK AO2 SLP140 T02220050,KCFV,2022-10-31T18:52:00Z,37.08,-95.57,22.2,5.0,240,9,,10.0,29.958662,1014.0,,TRUE,TRUE,,,,,,,CLR,,,,,,,,VFR,,,,,,,,,,,,METAR,228.0
KBML 311852Z AUTO 34006KT 10SM CLR 18/M02 A2992 RMK AO2 SLP138 T01781017,KBML,2022-10-31T18:52:00Z,44.58,-71.18,17.8,-1.7,340,6,,10.0,29.920275,1013.8,,TRUE,TRUE,,,,,,,CLR,,,,,,,,VFR,,,,,,,,,,,,METAR,344.0
KBLU 311852Z AUTO 18005KT 10SM CLR 15/M03 A3008 RMK AO2 SLP129 T01501033,KBLU,2022-10-31T18:52:00Z,39.28,-120.7,15.0,-3.3,180,5,,10.0,30.079725,1012.9,,TRUE,TRUE,,,,,,,CLR,,,,,,,,VFR,,,,,,,,,,,,METAR,1605.0
KBLH 311852Z AUTO 06005KT 10SM CLR 26/M03 A2992 RMK AO2 SLP127 T02611033 TSNO,KBLH,2022-10-31T18:52:00Z,33.62,-114.72,26.1,-3.3,60,5,,10.0,29.920275,1012.7,,TRUE,TRUE,,,TRUE,,,,CLR,,,,,,,,VFR,,,,,,,,,,,,METAR,119.0
KBLF 311852Z AUTO 00000KT 10SM SCT008 OVC018 14/13 A3000 RMK AO2 RAE15 SLP145 P0000 T01390128,KBLF,2022-10-31T18:52:00Z,37.3,-81.2,13.9,12.8,0,0,,10.0,30.0,1014.5,,TRUE,TRUE,,,,,,,SCT,800,OVC,1800,,,,,MVFR,,,,,,0.005,,,,,,METAR,871.0
KBKB 311852Z AUTO 00000KT 10SM CLR 25/12 A2999 RMK AO2 SLP182 T02500117,KBKB,2022-10-31T18:52:00Z,31.02,-92.92,25.0,11.7,0,0,,10.0,29.991142,1018.2,,TRUE,TRUE,,,,,,,CLR,,,,,,,,VFR,,,,,,,,,,,,METAR,74.0
KBIS 311852Z 00000KT 10SM CLR 14/00 A2976 RMK AO2 SLP086 T01390000,KBIS,2022-10-31T18:52:00Z,46.77,-100.75,13.9,0.0,0,0,,10.0,29.760826,1008.6,,,TRUE,,,,,,,CLR,,,,,,,,VFR,,,,,,,,,,,,METAR,506.0
KBDR 311852Z 24005KT 10SM CLR 17/10 A3001 RMK AO2 SLP161 T01670100,KBDR,2022-10-31T18:52:00Z,41.17,-73.13,16.7,10.0,240,5,,10.0,30.008858,1016.1,,,TRUE,,,,,,,CLR,,,,,,,,VFR,,,,,,,,,,,,METAR,5.0
KBAN 311852Z AUTO 00000KT 10SM CLR 12/M12 A3006 RMK AO2 SLP156 T01221122 $,KBAN,2022-10-31T18:52:00Z,38.35,-119.52,12.2,-12.2,0,0,,10.0,30.059055,1015.6,,TRUE,TRUE,TRUE,,,,,,CLR,,,,,,,,VFR,,,,,,,,,,,,METAR,2067.0
KATL 311852Z 24008KT 10SM FEW036 SCT065 SCT200 SCT250 23/13 A2997 RMK AO2 SLP142 TCU DSNT N NE T02330133,KATL,2022-10-31T18:52:00Z,33.63,-84.45,23.3,13.3,240,8,,10.0,29.970472,1014.2,,,TRUE,,,,,,,FEW,3600,SCT,6500,SCT,20000,SCT,25000,VFR,,,,,,,,,,,,METAR,309.0
KARR 311852Z 01005KT 7SM OVC007 13/12 A2982 RMK AO2 RAE1754 CIG 006V011 SLP097 P0000 T01330122,KARR,2022-10-31T18:52:00Z,41.77,-88.48,13.3,12.2,10,5,,7.0,29.819881,1009.7,,,TRUE,,,,,,,OVC,700,,,,,,,IFR,,,,,,0.005,,,,,,METAR,213.0
KAQW 311852Z AUTO VRB05KT 10SM CLR 17/07 A2996 RMK AO2 SLP148 T01670072,KAQW,2022-10-31T18:52:00Z,42.7,-73.17,16.7,7.2,0,5,,10.0,29.958662,1014.8,,TRUE,TRUE,,,,,,,CLR,,,,,,,,VFR,,,,,,,,,,,,METAR,196.0
KALS 311852Z AUTO 00000KT 10SM CLR 11/M07 A3013 RMK AO2 SLP182 T01061072,KALS,2022-10-31T18:52:00Z,37.43,-105.87,10.6,-7.2,0,0,,10.0,30.129921,1018.2,,TRUE,TRUE,,,,,,,CLR,,,,,,,,VFR,,,,,,,,,,,,METAR,2299.0
KAFN 311852Z AUTO 20009KT 10SM SCT120 17/07 A2998 RMK AO2 SLP160 T01720072,KAFN,2022-10-31T18:52:00Z,42.8,-72.0,17.2,7.2,200,9,,10.0,29.97933,1016.0,,TRUE,TRUE,,,,,,,SCT,12000,,,,,,,VFR,,,,,,,,,,,,METAR,308.0
KABQ 311852Z 29004KT 10SM CLR 15/M04 A3012 RMK AO2 SLP160 T01501039,KABQ,2022-10-31T18:52:00Z,35.05,-106.62,15.0,-3.9,290,4,,10.0,30.121063,1016.0,,,TRUE,,,,,,,CLR,,,,,,,,VFR,,,,,,,,,,,,METAR,1620.0
KABI 311852Z 31006KT 10SM CLR 23/09 A3004 RMK AO2 SLP157 T02280089,KABI,2022-10-31T18:52:00Z,32.42,-99.68,22.8,8.9,310,6,,10.0,30.041338,1015.7,,,TRUE,,,,,,,CLR,,,,,,,,VFR,,,,,,,,,,,,METAR,543.0
PTKK 311851Z 05006KT 15SM FEW014 SCT280 28/24 A2976 RMK SLP079 T02830242,PTKK,2022-10-31T18:51:00Z,7.47,151.85,28.3,24.2,50,6,,15.0,29.760826,1007.9,,,,,,,,,,FEW,1400,SCT,28000,,,,,VFR,,,,,,,,,,,,METAR,3.0
PHBK 311851Z AUTO 26003KT 10SM CLR 28/18 A3004 RMK AO2 SLP174 T02780178,PHBK,2022-10-31T18:51:00Z,22.03,-159.78,27.8,17.8,260,3,,10.0,30.041338,1017.4,,TRUE,TRUE,,,,,,,CLR,,,,,,,,VFR,,,,,,,,,,,,METAR,5.0
MUGM 311851Z 10012KT 10SM FEW030 SCT100 31/24 A2986 RMK AO2 SLP111 T03110244 $,MUGM,2022-10-31T18:51:00Z,19.9,-75.2,31.1,24.4,100,12,,10.0,29.861221,1011.1,,,TRUE,TRUE,,,,,,FEW,3000,SCT,10000,,,,,VFR,,,,,,,,,,,,SPECI,21.0
KXWA 311851Z AUTO 23011KT 10SM CLR 14/02 A2971 RMK AO2 SLP074 T01440017,KXWA,2022-10-31T18:51:00Z,48.27,-103.75,14.4,1.7,230,11,,10.0,29.71063,1007.4,,TRUE,TRUE,,,,,,,CLR,,,,,,,,VFR,,,,,,,,,,,,METAR,717.0
KVNY 311851Z 11003KT 10SM CLR 27/00 A2991 RMK AO2 SLP119 T02720000,KVNY,2022-10-31T18:51:00Z,34.22,-118.48,27.2,0.0,110,3,,10.0,29.911417,1011.9,,,TRUE,,,,,,,CLR,,,,,,,,VFR,,,,,,,,,,,,METAR,241.0
KVCT 311851Z 09006KT 10SM CLR 27/12 A2999 RMK AO2 SLP154 T02670122,KVCT,2022-10-31T18:51:00Z,28.87,-96.93,26.7,12.2,90,6,,10.0,29.991142,1015.4,,,TRUE,,,,,,,CLR,,,,,,,,VFR,,,,,,,,,,,,METAR,33.0
KTPL 311851Z AUTO 00000KT 10SM CLR 24/09 A3003 RMK AO2 SLP161 T02440094,KTPL,2022-10-31T18:51:00Z,31.15,-97.4,24.4,9.4,0,0,,10.0,30.029528,1016.1,,TRUE,TRUE,,,,,,,CLR,,,,,,,,VFR,,,,,,,,,,,,METAR,206.0
KTEB 311851Z 22011G16KT 10SM FEW035 18/10 A2999 RMK AO2 SLP156 T01780100,KTEB,2022-10-31T18:51:00Z,40.87,-74.05,17.8,10.0,220,11,16,10.0,29.991142,1015.6,,,TRUE,,,,,,,FEW,3500,,,,,,,VFR,,,,,,,,,,,,METAR,3.0
KSNT 311851Z AUTO VRB06G15KT 12/M01 A3004 RMK AO1 SLP121 T01221006,KSNT,2022-10-31T18:51:00Z,44.17,-114.93,12.2,-0.6,0,6,15,,30.041338,1012.1,,TRUE,TRUE,,,,,,,,,,,,,,,,,,,,,,,,,,,METAR,1980.0
KSMX 311851Z 31003KT 9SM FEW001 BKN200 14/10 A2995 RMK AO2 SLP143 T01440100 $,KSMX,2022-10-31T18:51:00Z,34.9,-120.45,14.4,10.0,310,3,,9.0,29.949802,1014.3,,,TRUE,TRUE,,,,,,FEW,100,BKN,20000,,,,,VFR,,,,,,,,,,,,METAR,73.0
KSMO 311851Z VRB05KT 10SM CLR 21/13 A2992 RMK AO2 SLP130 FG BANK S - W T02060133,KSMO,2022-10-31T18:51:00Z,34.02,-118.45,20.6,13.3,0,5,,10.0,29.920275,1013.0,,,TRUE,,,,,,,CLR,,,,,,,,VFR,,,,,,,,,,,,METAR,56.0
KSLK 311851Z AUTO 25007KT 10SM CLR 16/01 A2992 RMK AO2 SLP139 T01560011,KSLK,2022-10-31T18:51:00Z,44.4,-74.2,15.6,1.1,250,7,,10.0,29.920275,1013.9,,TRUE,TRUE,,,,,,,CLR,,,,,,,,VFR,,,,,,,,,,,,METAR,502.0
KSJT 311851Z 34003KT 10SM CLR 21/10 A3004 RMK AO2 SLP160 T02110100,KSJT,2022-10-31T18:51:00Z,31.37,-100.5,21.1,10.0,340,3,,10.0,30.041338,1016.0,,,TRUE,,,,,,,CLR,,,,,,,,VFR,,,,,,,,,,,,METAR,582.0
KSBD 311851Z 33003KT 10SM SCT200 28/M07 A2992,KSBD,2022-10-31T18:51:00Z,34.08,-117.25,28.0,-7.0,330,3,,10.0,29.920275,,,,,,,,,,,SCT,20000,,,,,,,VFR,,,,,,,,,,,,METAR,353.0
KSAT 311851Z 15006KT 10SM FEW060 FEW110 BKN250 25/10 A3001 RMK AO2 SLP146 T02500100,KSAT,2022-10-31T18:51:00Z,29.53,-98.48,25.0,10.0,150,6,,10.0,30.008858,1014.6,,,TRUE,,,,,,,FEW,6000,FEW,11000,BKN,25000,,,VFR,,,,,,,,,,,,METAR,246.0
KSAN 311851Z VRB04KT 10SM FEW040 SCT250 25/09 A2991 RMK AO2 SLP129 T02500089,KSAN,2022-10-31T18:51:00Z,32.73,-117.18,25.0,8.9,0,4,,10.0,29.911417,1012.9,,,TRUE,,,,,,,FEW,4000,SCT,25000,,,,,VFR,,,,,,,,,,,,METAR,3.0
KSAD 311851Z AUTO 03003KT 10SM CLR 21/M02 A3001 RMK AO2 SLP132 T02111017,KSAD,2022-10-31T18:51:00Z,32.85,-109.63,21.1,-1.7,30,3,,10.0,30.008858,1013.2,,TRUE,TRUE,,,,,,,CLR,,,,,,,,VFR,,,,,,,,,,,,METAR,937.0
KROW 311851Z VRB04KT 10SM CLR 19/05 A3004 RMK AO2 SLP134 T01890050 $,KROW,2022-10-31T18:51:00Z,33.3,-104.5,18.9,5.0,0,4,,10.0,30.041338,1013.4,,,TRUE,TRUE,,,,,,CLR,,,,,,,,VFR,,,,,,,,,,,,METAR,1105.0
KRDU 311851Z 14003KT 10SM FEW030 SCT055 SCT070 BKN150 OVC250 22/14 A3002 RMK AO2 SLP163 T02170144,KRDU,2022-10-31T18:51:00Z,35.9,-78.78,21.7,14.4,140,3,,10.0,30.02067,1016.3,,,TRUE,,,,,,,FEW,3000,SCT,5500,SCT,7000,BKN,15000,VFR,,,,,,,,,,,,METAR,121.0
KPWM 311851Z 20012KT 10SM FEW150 BKN250 14/11 A2995 RMK AO2 SLP142 T01440106,KPWM,2022-10-31T18:51:00Z,43.65,-70.3,14.4,10.6,200,12,,10.0,29.949802,1014.2,,,TRUE,,,,,,,FEW,15000,BKN,25000,,,,,VFR,,,,,,,,,,,,METAR,15.0
KPIT 311851Z 20007KT 10SM OVC012 17/14 A2990 RMK AO2 SLP132 T01670139,KPIT,2022-10-31T18:51:00Z,40.47,-80.2,16.7,13.9,200,7,,10.0,29.899607,1013.2,,,TRUE,,,,,,,OVC,1200,,,,,,,MVFR,,,,,,,,,,,,METAR,339.0
KPHX 311851Z 00000KT 10SM CLR 23/M01 A2994 RMK AO2 SLP126 T02331011,KPHX,2022-10-31T18:51:00Z,33.43,-112.02,23.3,-1.1,0,0,,10.0,29.940945,1012.6,,,TRUE,,,,,,,CLR,,,,,,,,VFR,,,,,,,,,,,,METAR,338.0
KP59 311851Z AUTO 36007KT 11/08 A2976 RMK AO1 SLP080 T01110083,KP59,2022-10-31T18:51:00Z,47.47,-87.88,11.1,8.3,360,7,,,29.760826,1008.0,,TRUE,TRUE,,,,,,,,,,,,,,,,,,,,,,,,,,,METAR,185.0
KOXR 311851Z 00000KT 10SM CLR 20/13 A2991 RMK AO2 SLP127 T02000133 $,KOXR,2022-10-31T18:51:00Z,34.2,-119.2,20.0,13.3,0,0,,10.0,29.911417,1012.7,,,TRUE,TRUE,,,,,,CLR,,,,,,,,VFR,,,,,,,,,,,,METAR,12.0
KOXC 311851Z 18007KT 160V240 10SM BKN120 18/10 A3000 RMK AO2 SLP171 T01830100,KOXC,2022-10-31T18:51:00Z,41.47,-73.13,18.3,10.0,180,7,,10.0,30.0,1017.1,,,TRUE,,,,,,,BKN,12000,,,,,,,VFR,,,,,,,,,,,,METAR,211.0
KORF 311851Z 16006KT 10SM CLR 22/14 A3002 RMK AO2 SLP166 T02220144,KORF,2022-10-31T18:51:00Z,36.9,-76.2,22.2,14.4,160,6,,10.0,30.02067,1016.6,,,TRUE,,,,,,,CLR,,,,,,,,VFR,,,,,,,,,,,,METAR,5.0
KOCF 311851Z VRB03KT 10SM SCT047 BKN060 30/19 A2997 RMK AO2 SLP147 T03000194 PNO $,KOCF,2022-10-31T18:51:00Z,29.17,-82.22,30.0,19.4,0,3,,10.0,29.970472,1014.7,,,TRUE,TRUE,,,,,,SCT,4700,BKN,6000,,,,,VFR,,,,,,,,,,,,METAR,24.0
KNYC 311851Z AUTO VRB06KT 10SM FEW031 BKN120 18/10 A3003 RMK AO2 SLP159 T01780100 $,KNYC,2022-10-31T18:51:00Z,40.78,-73.97,17.8,10.0,0,6,,10.0,30.029528,1015.9,,TRUE,TRUE,TRUE,,,,,,FEW,3100,BKN,12000,,,,,VFR,,,,,,,,,,,,METAR,33.0
KMYL 311851Z AUTO 18011KT 10SM SCT110 13/M02 A2997 RMK AO2 SLP133 T01281017,KMYL,2022-10-31T18:51:00Z,44.9,-116.1,12.8,-1.7,180,11,,10.0,29.970472,1013.3,,TRUE,TRUE,,,,,,,SCT,11000,,,,,,,VFR,,,,,,,,,,,,METAR,1532.0
KMWN 311851Z 25025KT 90SM OVC080 08/M12 RMK VIRGA DSNT ALQDS BINOVC,KMWN,2022-10-31T18:51:00Z,44.27,-71.3,8.0,-12.0,250,25,,90.0,,,,,,,,,,,,OVC,8000,,,,,,,VFR,,,,,,,,,,,,METAR,1911.0
KMPV 311851Z AUTO 17007KT 10SM CLR 17/02 A2996 RMK AO2 SLP151 T01670022,KMPV,2022-10-31T18:51:00Z,44.2,-72.57,16.7,2.2,170,7,,10.0,29.958662,1015.1,,TRUE,TRUE,,,,,,,CLR,,,,,,,,VFR,,,,,,,,,,,,METAR,336.0
KLGU 311851Z AUTO 00000KT 10SM CLR 10/00 A3012 RMK AO2 SLP194 T01000000,KLGU,2022-10-31T18:51:00Z,41.78,-111.85,10.0,0.0,0,0,,10.0,30.121063,1019.4,,TRUE,TRUE,,,,,,,CLR,,,,,,,,VFR,,,,,,,,,,,,METAR,1359.0
KLGA 311851Z 22011KT 10SM FEW033 SCT120 BKN210 18/09 A3000 RMK AO2 SLP158 T01830089,KLGA,2022-10-31T18:51:00Z,40.78,-73.88,18.3,8.9,220,11,,10.0,30.0,1015.8,,,TRUE,,,,,,,FEW,3300,SCT,12000,BKN,21000,,,VFR,,,,,,,,,,,,METAR,9.0
KJFK 311851Z 20009KT 10SM FEW035 SCT120 BKN220 17/11 A3002 RMK AO2 SLP165 T01720106,KJFK,2022-10-31T18:51:00Z,40.63,-73.77,17.2,10.6,200,9,,10.0,30.02067,1016.5,,,TRUE,,,,,,,FEW,3500,SCT,12000,BKN,22000,,,VFR,,,,,,,,,,,,METAR,3.0
KJCT 311851Z AUTO 00000KT 10SM BKN060 23/12 A3003 RMK AO2 SLP145 T02280117,KJCT,2022-10-31T18:51:00Z,30.5,-99.77,22.8,11.7,0,0,,10.0,30.029528,1014.5,,TRUE,TRUE,,,,,,,BKN,6000,,,,,,,VFR,,,,,,,,,,,,METAR,522.0
KIWA 311851Z 21006KT 10SM CLR 23/02 A2997,KIWA,2022-10-31T18:51:00Z,33.3,-111.65,23.0,2.0,210,6,,10.0,29.970472,,,,,,,,,,,CLR,,,,,,,,VFR,,,,,,,,,,,,METAR,420.0
KILG 311851Z 16007KT 10SM OVC022 18/13 A3002 RMK AO2 SLP164 T01780128,KILG,2022-10-31T18:51:00Z,39.67,-75.6,17.8,12.8,160,7,,10.0,30.02067,1016.4,,,TRUE,,,,,,,OVC,2200,,,,,,,MVFR,,,,,,,,,,,,METAR,22.0
KIGM 311851Z AUTO 36004KT 10SM CLR 22/M06 A3004 RMK AO2 SLP123 T02221061,KIGM,2022-10-31T18:51:00Z,35.25,-113.93,22.2,-6.1,360,4,,10.0,30.041338,1012.3,,TRUE,TRUE,,,,,,,CLR,,,,,,,,VFR,,,,,,,,,,,,METAR,1045.0
KIFP 311851Z 35014KT 10SM CLR 25/M06 A2992,KIFP,2022-10-31T18:51:00Z,35.15,-114.57,25.0,-6.0,350,14,,10.0,29.920275,,,,,,,,,,,CLR,,,,,,,,VFR,,,,,,,,,,,,METAR,210.0
KHTS 311851Z VRB05KT 4SM RA FEW024 BKN040 OVC050 18/14 A2990 RMK AO2 RAB42 SLP121 P0000 T01830144,KHTS,2022-10-31T18:51:00Z,38.37,-82.55,18.3,14.4,0,5,,4.0,29.899607,1012.1,,,TRUE,,,,,,RA,FEW,2400,BKN,4000,OVC,5000,,,MVFR,,,,,,0.005,,,,,,METAR,252.0
KHSE 311851Z AUTO 04005KT 10SM SCT041 22/14 A3005 RMK AO2 SLP174 T02170144,KHSE,2022-10-31T18:51:00Z,35.23,-75.62,21.7,14.4,40,5,,10.0,30.050198,1017.4,,TRUE,TRUE,,,,,,,SCT,4100,,,,,,,VFR,,,,,,,,,,,,METAR,4.0
KHDO 311851Z AUTO 12004KT 10SM CLR 26/12 A3000 RMK AO2 SLP147 T02560122,KHDO,2022-10-31T18:51:00Z,29.37,-99.17,25.6,12.2,120,4,,10.0,30.0,1014.7,,TRUE,TRUE,,,,,,,CLR,,,,,,,,VFR,,,,,,,,,,,,METAR,280.0
KGDP 311851Z AUTO 06015KT 8SM CLR 16/03 A3010 RMK AO2 SLP143 T01610028,KGDP,2022-10-31T18:51:00Z,31.83,-104.82,16.1,2.8,60,15,,8.0,30.100393,1014.3,,TRUE,TRUE,,,,,,,CLR,,,,,,,,VFR,,,,,,,,,,,,METAR,1664.0
KEWR 311851Z 23011KT 10SM BKN032 BKN130 BKN200 BKN250 19/11 A3000 RMK AO2 SLP159 T01940111,KEWR,2022-10-31T18:51:00Z,40.68,-74.17,19.4,11.1,230,11,,10.0,30.0,1015.9,,,TRUE,,,,,,,BKN,3200,BKN,13000,BKN,20000,BKN,25000,VFR,,,,,,,,,,,,METAR,2.0
KELP 311851Z 01006KT 10SM FEW085 SCT180 BKN250 22/00 A3003 RMK AO2 SLP118 T02170000,KELP,2022-10-31T18:51:00Z,31.82,-106.35,21.7,0.0,10,6,,10.0,30.029528,1011.8,,,TRUE,,,,,,,FEW,8500,SCT,18000,BKN,25000,,,VFR,,,,,,,,,,,,METAR,1205.0
KDAW 311851Z AUTO 00000KT 10SM CLR 19/08 A2995 RMK AO2 SLP139 T01940083,KDAW,2022-10-31T18:51:00Z,43.28,-70.92,19.4,8.3,0,0,,10.0,29.949802,1013.9,,TRUE,TRUE,,,,,,,CLR,,,,,,,,VFR,,,,,,,,,,,,METAR,100.0
KCSG 311851Z VRB05KT 10SM CLR 23/13 A2997 RMK AO2 SLP145 T02280133,KCSG,2022-10-31T18:51:00Z,32.52,-84.95,22.8,13.3,0,5,,10.0,29.970472,1014.5,,,TRUE,,,,,,,CLR,,,,,,,,VFR,,,,,,,,,,,,METAR,120.0
KCRP 311851Z 10012G20KT 10SM FEW029 SCT075 BKN085 OVC250 26/16 A2998 RMK AO2 SLP151 T02610161,KCRP,2022-10-31T18:51:00Z,27.77,-97.5,26.1,16.1,100,12,20,10.0,29.97933,1015.1,,,TRUE,,,,,,,FEW,2900,SCT,7500,BKN,8500,OVC,25000,VFR,,,,,,,,,,,,METAR,11.0
KCON 311851Z AUTO 14009KT 10SM CLR 19/04 A2995 RMK AO2 SLP142 T01940039,KCON,2022-10-31T18:51:00Z,43.2,-71.5,19.4,3.9,140,9,,10.0,29.949802,1014.2,,TRUE,TRUE,,,,,,,CLR,,,,,,,,VFR,,,,,,,,,,,,METAR,102.0
KCMH 311851Z 21008KT 10SM BKN024 BKN040 OVC065 19/14 A2986 RMK AO2 SLP110 T01890139,KCMH,2022-10-31T18:51:00Z,40.0,-82.88,18.9,13.9,210,8,,10.0,29.861221,1011.0,,,TRUE,,,,,,,BKN,2400,BKN,4000,OVC,6500,,,MVFR,,,,,,,,,,,,METAR,257.0
KCLE 311851Z 21014KT 10SM SCT033 OVC070 20/12 A2982 RMK AO2 SLP110 T02000122,KCLE,2022-10-31T18:51:00Z,41.42,-81.85,20.0,12.2,210,14,,10.0,29.819881,1011.0,,,TRUE,,,,,,,SCT,3300,OVC,7000,,,,,VFR,,,,,,,,,,,,METAR,237.0
KCDJ 311851Z AUTO 00000KT 21/05 A2992 RMK AO1 SLP127 T02060050,KCDJ,2022-10-31T18:51:00Z,39.82,-93.57,20.6,5.0,0,0,,,29.920275,1012.7,,TRUE,TRUE,,,,,,,,,,,,,,,,,,,,,,,,,,,METAR,234.0
KBHK 311851Z AUTO 26011G19KT 10SM CLR 17/M02 A2978 RMK AO2 SLP078 T01671017,KBHK,2022-10-31T18:51:00Z,46.35,-104.25,16.7,-1.7,260,11,19,10.0,29.778543,1007.8,,TRUE,TRUE,,,,,,,CLR,,,,,,,,VFR,,,,,,,,,,,,METAR,904.0
KBGD 311851Z AUTO 16010G21KT 10SM CLR 22/04 A3002 RMK AO2 SLP141 T02220044,KBGD,2022-10-31T18:51:00Z,35.7,-101.4,22.2,4.4,160,10,21,10.0,30.02067,1014.1,,TRUE,TRUE,,,,,,,CLR,,,,,,,,VFR,,,,,,,,,,,,METAR,928.0
KBED 311851Z 20010KT 10SM SCT040 21/12 A2996 RMK AO2 SLP160 T02060117,KBED,2022-10-31T18:51:00Z,42.47,-71.3,20.6,11.7,200,10,,10.0,29.958662,1016.0,,,TRUE,,,,,,,SCT,4000,,,,,,,VFR,,,,,,,,,,,,METAR,39.0
KBDL 311851Z 23012KT 10SM FEW050 FEW150 BKN220 BKN250 20/08 A2998 RMK AO2 SLP151 T02000078,KBDL,2022-10-31T18:51:00Z,41.93,-72.68,20.0,7.8,230,12,,10.0,29.97933,1015.1,,,TRUE,,,,,,,FEW,5000,FEW,15000,BKN,22000,BKN,25000,VFR,,,,,,,,,,,,METAR,52.0
KBAZ 311851Z AUTO 11004KT 10SM CLR 26/12 A3000 RMK AO2 SLP152 T02560122,KBAZ,2022-10-31T18:51:00Z,29.72,-98.05,25.6,12.2,110,4,,10.0,30.0,1015.2,,TRUE,TRUE,,,,,,,CLR,,,,,,,,VFR,,,,,,,,,,,,METAR,199.0
KAVX 311851Z AUTO VRB04KT 10SM CLR 23/12 A2996 RMK AO2 SLP118 T02280117,KAVX,2022-10-31T18:51:00Z,33.4,-118.42,22.8,11.7,0,4,,10.0,29.958662,1011.8,,TRUE,TRUE,,,,,,,CLR,,,,,,,,VFR,,,,,,,,,,,,METAR,482.0
KATT 311851Z AUTO VRB03KT 10SM CLR 26/11 A3002 RMK AO2 SLP158 T02560111,KATT,2022-10-31T18:51:00Z,30.32,-97.77,25.6,11.1,0,3,,10.0,30.02067,1015.8,,TRUE,TRUE,,,,,,,CLR,,,,,,,,VFR,,,,,,,,,,,,METAR,203.0
KALB 311851Z 14005KT 10SM FEW160 BKN190 BKN250 17/07 A2996 RMK AO2 SLP146 T01670072,KALB,2022-10-31T18:51:00Z,42.75,-73.8,16.7,7.2,140,5,,10.0,29.958662,1014.6,,,TRUE,,,,,,,FEW,16000,BKN,19000,BKN,25000,,,VFR,,,,,,,,,,,,METAR,82.0
KAHN 311851Z 00000KT 10SM OVC005 19/17 A2998 RMK AO2 CIG 004V008 SLP150 T01890172,KAHN,2022-10-31T18:51:00Z,33.95,-83.33,18.9,17.2,0,0,,10.0,29.97933,1015.0,,,TRUE,,,,,,,OVC,500,,,,,,,IFR,,,,,,,,,,,,METAR,241.0
KACT 311851Z 13005KT 10SM CLR 26/11 A3002 RMK AO2 SLP159 T02560111,KACT,2022-10-31T18:51:00Z,31.62,-97.23,25.6,11.1,130,5,,10.0,30.02067,1015.9,,,TRUE,,,,,,,CLR,,,,,,,,VFR,,,,,,,,,,,,METAR,150.0
K6R6 311851Z AUTO 10010KT 21/11 A3003 RMK AO1 SLP147 T02110111,K6R6,2022-10-31T18:51:00Z,30.05,-102.22,21.1,11.1,100,10,,,30.029528,1014.7,,TRUE,TRUE,,,,,,,,,,,,,,,,,,,,,,,,,,,METAR,702.0
TJBQ 311850Z 00000KT 10SM TS BKN032 BKN055 OVC090 27/24 A2992 RMK LTG DSNT E AND SE TSB42,TJBQ,2022-10-31T18:50:00Z,18.5,-67.13,27.0,24.0,0,0,,10.0,29.920275,,,,,,,,,,TS,BKN,3200,BKN,5500,OVC,9000,,,VFR,,,,,,,,,,,,SPECI,69.0
PALP 311850Z 13004KT 10SM SKC M19/M22 A3008,PALP,2022-10-31T18:50:00Z,70.33,-150.93,-19.0,-22.0,130,4,,10.0,30.079725,,,,,,,,,,,SKC,,,,,,,,VFR,,,,,,,,,,,,METAR,4.0
OOSH 311850Z AUTO 25002KT //// ////// 27/23 Q1014 RMK 1010,OOSH,2022-10-31T18:50:00Z,24.38,56.62,27.0,23.0,250,2,,,29.940945,,,TRUE,,,,,,,,,,,,,,,,,,,,,,,,,,,,METAR,35.0
OOSA 311850Z 34004KT CAVOK 26/20 Q1015 NOSIG,OOSA,2022-10-31T18:50:00Z,17.03,54.1,26.0,20.0,340,4,,6.21,29.970472,,,,,,TRUE,,,,,CAVOK,,,,,,,,VFR,,,,,,,,,,,,METAR,20.0
OOMS 311850Z 00000KT CAVOK 26/21 Q1014 NOSIG,OOMS,2022-10-31T18:50:00Z,23.58,58.28,26.0,21.0,0,0,,6.21,29.940945,,,,,,TRUE,,,,,CAVOK,,,,,,,,VFR,,,,,,,,,,,,METAR,8.0
OOKB 311850Z AUTO 29003KT 240V360 CAVOK 28/21 Q1014 NOSIG,OOKB,2022-10-31T18:50:00Z,26.17,56.23,28.0,21.0,290,3,,6.21,29.940945,,,TRUE,,,TRUE,,,,,CAVOK,,,,,,,,VFR,,,,,,,,,,,,METAR,30.0
OODQ 311850Z AUTO 12005KT CAVOK ////// 25/21 Q1015 NOSIG RMK RH78? 0,OODQ,2022-10-31T18:50:00Z,19.52,57.65,25.0,21.0,120,5,,6.21,29.970472,,,TRUE,,,TRUE,,,,,CAVOK,,,,,,,,VFR,,,,,,,,,,,,METAR,116.0
OOAD 311850Z AUTO VRB02KT //// R31///// // NCD 28/11 Q1017 NOSIG,OOAD,2022-10-31T18:50:00Z,22.5,57.37,28.0,11.0,0,2,,,30.029528,,,TRUE,,,TRUE,,,,,CLR,,,,,,,,,,,,,,,,,,,,METAR,327.0
MUVR 311850Z 03011KT 360V060 9999 SCT020 30/24 Q1012,MUVR,2022-10-31T18:50:00Z,23.03,-81.43,30.0,24.0,30,11,,6.21,29.88189,,,,,,,,,,,SCT,2000,,,,,,,VFR,,,,,,,,,,,,METAR,65.0
MUSC 311850Z 09014KT 9000 BKN020 30/23 Q1012,MUSC,2022-10-31T18:50:00Z,22.5,-79.92,30.0,23.0,90,14,,5.59,29.88189,,,,,,,,,,,BKN,2000,,,,,,,MVFR,,,,,,,,,,,,METAR,97.0
MUHG 311850Z 10005KT 9000 FEW039TCU SCT045 31/23 Q1011,MUHG,2022-10-31T18:50:00Z,20.78,-76.32,31.0,23.0,100,5,,5.59,29.852362,,,,,,,,,,,FEW,3900,SCT,4500,,,,,VFR,,,,,,,,,,,,METAR,100.0
MUHA 311850Z 06009KT 040V100 9000 SCT030 31/23 Q1012,MUHA,2022-10-31T18:50:00Z,22.98,-82.42,31.0,23.0,60,9,,5.59,29.88189,,,,,,,,,,,SCT,3000,,,,,,,VFR,,,,,,,,,,,,METAR,61.0
MUCU 311850Z 14009KT 100V170 9000 SCT020 30/24 Q1011,MUCU,2022-10-31T18:50:00Z,19.97,-75.83,30.0,24.0,140,9,,5.59,29.852362,,,,,,,,,,,SCT,2000,,,,,,,VFR,,,,,,,,,,,,METAR,70.0
MUCM 311850Z 03015KT 9000 SCT025 30/23 Q1011,MUCM,2022-10-31T18:50:00Z,21.42,-77.85,30.0,23.0,30,15,,5.59,29.852362,,,,,,,,,,,SCT,2500,,,,,,,VFR,,,,,,,,,,,,METAR,125.0
MUCL 311850Z 05008KT 010V080 9999 FEW020 31/23 Q1011,MUCL,2022-10-31T18:50:00Z,21.63,-81.55,31.0,23.0,50,8,,6.21,29.852362,,,,,,,,,,,FEW,2000,,,,,,,VFR,,,,,,,,,,,,METAR,5.0
MUCC 311850Z 08013KT 9000 BKN018 31/25 Q1011,MUCC,2022-10-31T18:50:00Z,22.47,-78.33,31.0,25.0,80,13,,5.59,29.852362,,,,,,,,,,,BKN,1800,,,,,,,MVFR,,,,,,,,,,,,METAR,7.0
MSSS 311850Z 36004KT 9999 FEW043 28/18 Q1013 A2993,MSSS,2022-10-31T18:50:00Z,13.7,-89.12,28.0,18.0,360,4,,6.21,29.911417,,,,,,,,,,,FEW,4300,,,,,,,VFR,,,,,,,,,,,,SPECI,611.0
MSSM 311850Z 00000KT 9999 FEW030 32/22 Q//// A////,MSSM,2022-10-31T18:50:00Z,13.43,-88.12,32.0,22.0,0,0,,6.21,,,,,,,,,,,,FEW,3000,,,,,,,VFR,,,,,,,,,,,,SPECI,92.0
MSSA 311850Z 07004KT 9999 FEW037 29/17 Q1015 A2998,MSSA,2022-10-31T18:50:00Z,13.97,-89.53,29.0,17.0,70,4,,6.21,29.970472,,,,,,,,,,,FEW,3700,,,,,,,VFR,,,,,,,,,,,,SPECI,656.0
MSLU 311850Z 12002KT CAVOK 31/21 Q1008 A2977,MSLU,2022-10-31T18:50:00Z,13.33,-87.88,31.0,21.0,120,2,,6.21,29.763779,,,,,,,,,,,CAVOK,,,,,,,,VFR,,,,,,,,,,,,SPECI,5.0
MSLP 311850Z VRB03KT 9999 FEW037 33/21 Q1008 A2979 NOSIG,MSLP,2022-10-31T18:50:00Z,13.43,-89.05,33.0,21.0,0,3,,6.21,29.763779,,,,,,TRUE,,,,,FEW,3700,,,,,,,VFR,,,,,,,,,,,,METAR,25.0
MSAC 311850Z 22009KT 9999 SCT030 32/25 Q1009 A2981,MSAC,2022-10-31T18:50:00Z,13.57,-89.83,32.0,25.0,220,9,,6.21,29.793306,,,,,,,,,,,SCT,3000,,,,,,,VFR,,,,,,,,,,,,SPECI,14.0
LTFO 311850Z 17010KT 9999 -SHRA BKN035 BKN070 15/10 Q1018,LTFO,2022-10-31T18:50:00Z,41.18,40.85,15.0,10.0,170,10,,6.21,30.059055,,,,,,,,,,-SHRA,BKN,3500,BKN,7000,,,,,VFR,,,,,,,,,,,,METAR,5.0
LTFH 311850Z VRB01KT 9999 SCT030 BKN100 14/11 Q1019 TEMPO 30015G25KT,LTFH,2022-10-31T18:50:00Z,41.27,36.57,14.0,11.0,0,1,,6.21,30.088583,,,,,,,,,,,SCT,3000,BKN,10000,,,,,VFR,,,,,,,,,,,,METAR,7.0
LTFG 311850Z 10004KT 060V120 CAVOK 17/12 Q1016,LTFG,2022-10-31T18:50:00Z,36.3,32.3,17.0,12.0,100,4,,6.21,30.0,,,,,,,,,,,CAVOK,,,,,,,,VFR,,,,,,,,,,,,METAR,26.0
LTFD 311850Z 07011KT CAVOK 18/08 Q1020,LTFD,2022-10-31T18:50:00Z,39.55,27.02,18.0,8.0,70,11,,6.21,30.11811,,,,,,,,,,,CAVOK,,,,,,,,VFR,,,,,,,,,,,,METAR,15.0
LTDA 311850Z VRB01KT 7000 FEW040 SCT120 17/09 Q1015 NOSIG,LTDA,2022-10-31T18:50:00Z,36.37,36.28,17.0,9.0,0,1,,4.35,29.970472,,,,,,TRUE,,,,,FEW,4000,SCT,12000,,,,,MVFR,,,,,,,,,,,,METAR,80.0
LTCW 311850Z VRB02KT 9000 SCT040 05/01 Q1018,LTCW,2022-10-31T18:50:00Z,37.55,44.23,5.0,1.0,0,2,,5.59,30.059055,,,,,,,,,,,SCT,4000,,,,,,,VFR,,,,,,,,,,,,METAR,1852.0
LTCV 311850Z 24012KT CAVOK 16/05 Q1014,LTCV,2022-10-31T18:50:00Z,37.37,42.07,16.0,5.0,240,12,,6.21,29.940945,,,,,,,,,,,CAVOK,,,,,,,,VFR,,,,,,,,,,,,METAR,620.0
LTCT 311850Z 30011KT CAVOK 16/01 Q1012,LTCT,2022-10-31T18:50:00Z,39.98,43.87,16.0,1.0,300,11,,6.21,29.88189,,,,,,,,,,,CAVOK,,,,,,,,VFR,,,,,,,,,,,,METAR,936.0
LTCN 311850Z 09006KT CAVOK 15/05 Q1016 NOSIG,LTCN,2022-10-31T18:50:00Z,37.53,36.95,15.0,5.0,90,6,,6.21,30.0,,,,,,TRUE,,,,,CAVOK,,,,,,,,VFR,,,,,,,,,,,,METAR,505.0
LTCF 311850Z 14004KT 070V170 9999 FEW040 05/M04 Q1015,LTCF,2022-10-31T18:50:00Z,40.57,43.12,5.0,-4.0,140,4,,6.21,29.970472,,,,,,,,,,,FEW,4000,,,,,,,VFR,,,,,,,,,,,,METAR,1794.0
LTCD 311850Z 28009KT CAVOK 10/M06 Q1017 NOSIG,LTCD,2022-10-31T18:50:00Z,39.72,39.52,10.0,-6.0,280,9,,6.21,30.029528,,,,,,TRUE,,,,,CAVOK,,,,,,,,VFR,,,,,,,,,,,,METAR,1146.0
LTCB 311850Z 21005KT 9999 -SHRA FEW020CB BKN030 16/10 Q1019,LTCB,2022-10-31T18:50:00Z,40.97,38.07,16.0,10.0,210,5,,6.21,30.088583,,,,,,,,,,-SHRA,FEW,2000,BKN,3000,,,,,MVFR,,,,,,,,,,,,METAR,5.0
LTCA 311850Z 26006KT CAVOK 08/02 Q1016 NOSIG,LTCA,2022-10-31T18:50:00Z,38.6,39.28,8.0,2.0,260,6,,6.21,30.0,,,,,,TRUE,,,,,CAVOK,,,,,,,,VFR,,,,,,,,,,,,METAR,887.0
LTBY 311850Z 26010KT CAVOK 10/01 Q1021,LTBY,2022-10-31T18:50:00Z,39.82,30.52,10.0,1.0,260,10,,6.21,30.147638,,,,,,,,,,,CAVOK,,,,,,,,VFR,,,,,,,,,,,,METAR,788.0
LTBQ 311850Z VRB02KT 9999 FEW034 SCT070 10/09 Q1022 NOSIG,LTBQ,2022-10-31T18:50:00Z,40.73,30.07,10.0,9.0,0,2,,6.21,30.177166,,,,,,TRUE,,,,,FEW,3400,SCT,7000,,,,,VFR,,,,,,,,,,,,METAR,51.0
LTBH 311850Z 10007KT CAVOK 14/10 Q1021,LTBH,2022-10-31T18:50:00Z,40.13,26.42,14.0,10.0,100,7,,6.21,30.147638,,,,,,,,,,,CAVOK,,,,,,,,VFR,,,,,,,,,,,,METAR,8.0
LTBF 311850Z 36005KT CAVOK 15/07 Q1021 NOSIG,LTBF,2022-10-31T18:50:00Z,39.62,27.92,15.0,7.0,360,5,,6.21,30.147638,,,,,,TRUE,,,,,CAVOK,,,,,,,,VFR,,,,,,,,,,,,METAR,95.0
LTAY 311850Z 25004KT CAVOK 08/M03 Q1019,LTAY,2022-10-31T18:50:00Z,37.78,29.7,8.0,-3.0,250,4,,6.21,30.088583,,,,,,,,,,,CAVOK,,,,,,,,VFR,,,,,,,,,,,,METAR,851.0
LTAR 311850Z 34006KT 9999 FEW040 SCT100 05/M06 Q1020,LTAR,2022-10-31T18:50:00Z,39.8,36.9,5.0,-6.0,340,6,,6.21,30.11811,,,,,,,,,,,FEW,4000,SCT,10000,,,,,VFR,,,,,,,,,,,,METAR,1601.0
LTAN 311850Z 01004KT 9999 FEW040 SCT100 10/00 Q1020 NOSIG,LTAN,2022-10-31T18:50:00Z,37.97,32.55,10.0,0.0,10,4,,6.21,30.11811,,,,,,TRUE,,,,,FEW,4000,SCT,10000,,,,,VFR,,,,,,,,,,,,METAR,1029.0
LTAE 311850Z 05004KT CAVOK 12/01 Q1020 NOSIG RMK RWY21 01008KT,LTAE,2022-10-31T18:50:00Z,40.07,32.57,12.0,1.0,50,4,,6.21,30.11811,,,,,,TRUE,,,,,CAVOK,,,,,,,,VFR,,,,,,,,,,,,METAR,836.0
LOXZ 311850Z 31003KT 9999 FEW130 SCT270 07/05 Q1022,LOXZ,2022-10-31T18:50:00Z,47.2,14.75,7.0,5.0,310,3,,6.21,30.177166,,,,,,,,,,,FEW,13000,SCT,27000,,,,,VFR,,,,,,,,,,,,METAR,678.0
LLER 311850Z 02013KT CAVOK 24/13 Q1014,LLER,2022-10-31T18:50:00Z,29.72,35.02,24.0,13.0,20,13,,6.21,29.940945,,,,,,,,,,,CAVOK,,,,,,,,VFR,,,,,,,,,,,,METAR,88.0
LIPB 311850Z 31003KT 270V330 CAVOK 10/09 Q1022,LIPB,2022-10-31T18:50:00Z,46.47,11.32,10.0,9.0,310,3,,6.21,30.177166,,,,,,,,,,,CAVOK,,,,,,,,VFR,,,,,,,,,,,,METAR,239.0
LIMP 311850Z 19005KT 8000 NSC 15/12 Q1021,LIMP,2022-10-31T18:50:00Z,44.82,10.3,15.0,12.0,190,5,,4.97,30.147638,,,,,,,,,,,CLR,,,,,,,,MVFR,,,,,,,,,,,,METAR,41.0
LICG 311850Z 13004KT CAVOK 18/15 Q1024,LICG,2022-10-31T18:50:00Z,36.82,11.97,18.0,15.0,130,4,,6.21,30.236221,,,,,,,,,,,CAVOK,,,,,,,,VFR,,,,,,,,,,,,METAR,192.0
LIBG 311850Z VRB02KT CAVOK 20/08 Q1020,LIBG,2022-10-31T18:50:00Z,40.52,17.4,20.0,8.0,0,2,,6.21,30.11811,,,,,,,,,,,CAVOK,,,,,,,,VFR,,,,,,,,,,,,METAR,64.0
LIBF 311850Z 27003KT CAVOK 14/09 Q1022,LIBF,2022-10-31T18:50:00Z,41.42,15.53,14.0,9.0,270,3,,6.21,30.177166,,,,,,,,,,,CAVOK,,,,,,,,VFR,,,,,,,,,,,,METAR,81.0
LIBC 311850Z 01003KT CAVOK 20/07 Q1021,LIBC,2022-10-31T18:50:00Z,39.0,17.07,20.0,7.0,10,3,,6.21,30.147638,,,,,,,,,,,CAVOK,,,,,,,,VFR,,,,,,,,,,,,METAR,158.0
LGSM 311850Z 30002KT CAVOK 19/12 Q1016,LGSM,2022-10-31T18:50:00Z,37.68,26.92,19.0,12.0,300,2,,6.21,30.0,,,,,,,,,,,CAVOK,,,,,,,,VFR,,,,,,,,,,,,METAR,5.0
LGRX 311850Z 00000KT CAVOK 17/14 Q1020,LGRX,2022-10-31T18:50:00Z,38.17,21.42,17.0,14.0,0,0,,6.21,30.11811,,,,,,,,,,,CAVOK,,,,,,,,VFR,,,,,,,,,,,,METAR,16.0
LGPZ 311850Z 00000KT CAVOK 15/13 Q1020,LGPZ,2022-10-31T18:50:00Z,38.92,20.77,15.0,13.0,0,0,,6.21,30.11811,,,,,,,,,,,CAVOK,,,,,,,,VFR,,,,,,,,,,,,METAR,3.0
LGLM 311850Z 35003KT CAVOK 16/14 Q1020,LGLM,2022-10-31T18:50:00Z,39.92,25.23,16.0,14.0,350,3,,6.21,30.11811,,,,,,,,,,,CAVOK,,,,,,,,VFR,,,,,,,,,,,,METAR,4.0
LGHI 311850Z 36012KT 9999 FEW025 20/11 Q1017,LGHI,2022-10-31T18:50:00Z,38.33,26.13,20.0,11.0,360,12,,6.21,30.029528,,,,,,,,,,,FEW,2500,,,,,,,VFR,,,,,,,,,,,,METAR,6.0
LGBL 311850Z 26004KT CAVOK 14/09 Q1021,LGBL,2022-10-31T18:50:00Z,39.22,22.8,14.0,9.0,260,4,,6.21,30.147638,,,,,,,,,,,CAVOK,,,,,,,,VFR,,,,,,,,,,,,METAR,13.0
LGAD 311850Z 00000KT 9999 FEW030 SCT080 18/14 Q1020,LGAD,2022-10-31T18:50:00Z,37.92,21.28,18.0,14.0,0,0,,6.21,30.11811,,,,,,,,,,,FEW,3000,SCT,8000,,,,,VFR,,,,,,,,,,,,METAR,8.0
KVQQ 311850Z 21005KT 10SM BKN041 32/21 A2996,KVQQ,2022-10-31T18:50:00Z,30.22,-81.88,32.0,21.0,210,5,,10.0,29.958662,,,,,,,,,,,BKN,4100,,,,,,,VFR,,,,,,,,,,,,METAR,21.0
KTRK 311850Z 00000KT 10SM CLR 08/M05 A3010,KTRK,2022-10-31T18:50:00Z,39.32,-120.13,8.0,-5.0,0,0,,10.0,30.100393,,,,,,,,,,,CLR,,,,,,,,VFR,,,,,,,,,,,,METAR,1800.0
KRYY 311850Z 26008KT 10SM BKN017 22/13 A2998 RMK AO2 SLP144 T02170128 $,KRYY,2022-10-31T18:50:00Z,34.02,-84.6,21.7,12.8,260,8,,10.0,29.97933,1014.4,,,TRUE,TRUE,,,,,,BKN,1700,,,,,,,MVFR,,,,,,,,,,,,METAR,306.0
KOMN 311850Z 05005KT 10SM SCT013 28/22 A2997,KOMN,2022-10-31T18:50:00Z,29.3,-81.12,28.0,22.0,50,5,,10.0,29.970472,,,,,,,,,,,SCT,1300,,,,,,,VFR,,,,,,,,,,,,METAR,7.0
KOLV 311850Z 25009KT 10SM SCT028 SCT032 BKN041 20/12 A2996,KOLV,2022-10-31T18:50:00Z,34.98,-89.78,20.0,12.0,250,9,,10.0,29.958662,,,,,,,,,,,SCT,2800,SCT,3200,BKN,4100,,,VFR,,,,,,,,,,,,METAR,124.0
KNQA 311850Z 24008KT 10SM SCT023 BKN038 OVC046 18/13 A2995,KNQA,2022-10-31T18:50:00Z,35.35,-89.87,18.0,13.0,240,8,,10.0,29.949802,,,,,,,,,,,SCT,2300,BKN,3800,OVC,4600,,,VFR,,,,,,,,,,,,METAR,90.0
KMMU 311850Z 24008KT 10SM BKN029 BKN250 20/14 A3001,KMMU,2022-10-31T18:50:00Z,40.78,-74.42,20.0,14.0,240,8,,10.0,30.008858,,,,,,,,,,,BKN,2900,BKN,25000,,,,,MVFR,,,,,,,,,,,,METAR,55.0
KMER 311850Z 21004KT 7SM FEW037 FEW050 SCT090 21/04 A2995,KMER,2022-10-31T18:50:00Z,37.38,-120.57,21.0,4.0,210,4,,7.0,29.949802,,,,,,,,,,,FEW,3700,FEW,5000,SCT,9000,,,VFR,,,,,,,,,,,,METAR,58.0
KLWB 311850Z 00000KT 2SM RA OVC005 13/13 A3002,KLWB,2022-10-31T18:50:00Z,37.87,-80.4,13.0,13.0,0,0,,2.0,30.02067,,,,,,,,,,RA,OVC,500,,,,,,,IFR,,,,,,,,,,,,METAR,702.0
KLAL 311850Z 00000KT 10SM SCT065 BKN090 30/18 A2996,KLAL,2022-10-31T18:50:00Z,27.98,-82.02,30.0,18.0,0,0,,10.0,29.958662,,,,,,,,,,,SCT,6500,BKN,9000,,,,,VFR,,,,,,,,,,,,METAR,39.0
KJWN 311850Z 24008KT 10SM BKN020 19/14 A2992,KJWN,2022-10-31T18:50:00Z,36.18,-86.88,19.0,14.0,240,8,,10.0,29.920275,,,,,,,,,,,BKN,2000,,,,,,,MVFR,,,,,,,,,,,,METAR,149.0
KHXD 311850Z 21009KT 10SM SCT080 27/20 A3000,KHXD,2022-10-31T18:50:00Z,32.22,-80.7,27.0,20.0,210,9,,10.0,30.0,,,,,,,,,,,SCT,8000,,,,,,,VFR,,,,,,,,,,,,METAR,5.0
KHQZ 311850Z 00000KT 10SM CLR 23/08 A3003,KHQZ,2022-10-31T18:50:00Z,32.75,-96.53,23.0,8.0,0,0,,10.0,30.029528,,,,,,,,,,,CLR,,,,,,,,VFR,,,,,,,,,,,,METAR,136.0
KGYI 311850Z 34003KT 10SM SKC 23/07 A3004,KGYI,2022-10-31T18:50:00Z,33.72,-96.67,23.0,7.0,340,3,,10.0,30.041338,,,,,,,,,,,SKC,,,,,,,,VFR,,,,,,,,,,,,METAR,227.0
KGPM 311850Z 00000KT 10SM SKC 24/07 A3004,KGPM,2022-10-31T18:50:00Z,32.7,-97.05,24.0,7.0,0,0,,10.0,30.041338,,,,,,,,,,,SKC,,,,,,,,VFR,,,,,,,,,,,,METAR,178.0
KFIN 311850Z 11005KT 10SM SCT042 SCT048 BKN050 27/21 A2997,KFIN,2022-10-31T18:50:00Z,29.47,-81.2,27.0,21.0,110,5,,10.0,29.970472,,,,,,,,,,,SCT,4200,SCT,4800,BKN,5000,,,VFR,,,,,,,,,,,,METAR,10.0
KESN 311850Z 18008KT 10SM OVC032 21/16 A3005,KESN,2022-10-31T18:50:00Z,38.8,-76.07,21.0,16.0,180,8,,10.0,30.050198,,,,,,,,,,,OVC,3200,,,,,,,VFR,,,,,,,,,,,,METAR,14.0
KDAG 311850Z AUTO 00000KT 10SM CLR 22/M09 A2999 RMK AO2 SLP142 T02221089,KDAG,2022-10-31T18:50:00Z,34.85,-116.78,22.2,-8.9,0,0,,10.0,29.991142,1014.2,,TRUE,TRUE,,,,,,,CLR,,,,,,,,VFR,,,,,,,,,,,,METAR,584.0
KALN 311850Z 27007KT 5SM BR OVC008 13/13 A2990,KALN,2022-10-31T18:50:00Z,38.88,-90.03,13.0,13.0,270,7,,5.0,29.899607,,,,,,,,,,BR,OVC,800,,,,,,,IFR,,,,,,,,,,,,METAR,159.0
KAEG 311850Z 19004KT 10SM CLR 15/M05 A3012,KAEG,2022-10-31T18:50:00Z,35.13,-106.8,15.0,-5.0,190,4,,10.0,30.121063,,,,,,,,,,,CLR,,,,,,,,VFR,,,,,,,,,,,,METAR,1771.0
KADM 311850Z 00000KT 10SM CLR 22/06 A3002,KADM,2022-10-31T18:50:00Z,34.3,-97.02,22.0,6.0,0,0,,10.0,30.02067,,,,,,,,,,,CLR,,,,,,,,VFR,,,,,,,,,,,,METAR,223.0
ETNG 311850Z 09002KT CAVOK 13/10 Q1012 NOSIG,ETNG,2022-10-31T18:50:00Z,50.97,6.03,13.0,10.0,90,2,,6.21,29.88189,,,,,,TRUE,,,,,CAVOK,,,,,,,,VFR,,,,,,,,,,,,METAR,76.0
ENBS 311850Z 22011KT 170V240 9999 NSC 02/00 Q1006,ENBS,2022-10-31T18:50:00Z,70.62,29.68,2.0,0.0,220,11,,6.21,29.704725,,,,,,,,,,,CLR,,,,,,,,VFR,,,,,,,,,,,,METAR,144.0
EGYE 311850Z AUTO 10013KT //// VV/// ///// Q////,EGYE,2022-10-31T18:50:00Z,52.97,-0.57,,,100,13,,,,,,TRUE,,,,,,,,OVX,0,,,,,,,LIFR,,,,,,,,,,,,METAR,105.0
EGXS 311850Z AUTO 11015KT 9999 BKN100/// BKN240/// 13/12 Q1005,EGXS,2022-10-31T18:50:00Z,53.48,0.15,13.0,12.0,110,15,,6.21,29.675198,,,TRUE,,,,,,,,BKN,10000,BKN,24000,,,,,VFR,,,,,,,,,,,,METAR,6.0
EGXP 311850Z AUTO 11009KT //// // ///////// 13/11 Q1004,EGXP,2022-10-31T18:50:00Z,53.3,-0.55,13.0,11.0,110,9,,,29.64567,,,TRUE,,,,,,,,,,,,,,,,,,,,,,,,,,,,METAR,58.0
EGXC 311850Z 09009KT 9999 BKN041 14/12 Q1005 RMK BLU,EGXC,2022-10-31T18:50:00Z,53.1,-0.17,14.0,12.0,90,9,,6.21,29.675198,,,,,,,,,,,BKN,4100,,,,,,,VFR,,,,,,,,,,,,METAR,9.0
EGUW 311850Z 12011KT 9999 SCT009 BKN015 BKN120 14/13 Q1005 TEMPO 7000 RA SCT005 RMK GRN TEMPO YLO1,EGUW,2022-10-31T18:50:00Z,52.12,0.97,14.0,13.0,120,11,,6.21,29.675198,,,,,,,,,,,SCT,900,BKN,1500,BKN,12000,,,MVFR,,,,,,,,,,,,METAR,86.0
EGQM 311850Z AUTO 15009KT 8000 BR FEW190/// 12/11 Q1005,EGQM,2022-10-31T18:50:00Z,55.42,-1.6,12.0,11.0,150,9,,4.97,29.675198,,,TRUE,,,,,,,BR,FEW,19000,,,,,,,MVFR,,,,,,,,,,,,METAR,24.0
EGQL 311850Z 20013KT CAVOK 14/10 Q1004 RMK BLU,EGQL,2022-10-31T18:50:00Z,56.38,-2.87,14.0,10.0,200,13,,6.21,29.64567,,,,,,,,,,,CAVOK,,,,,,,,VFR,,,,,,,,,,,,METAR,11.0
EGNO 311850Z 12008KT CAVOK 13/10 Q1003,EGNO,2022-10-31T18:50:00Z,53.75,-2.88,13.0,10.0,120,8,,6.21,29.616142,,,,,,,,,,,CAVOK,,,,,,,,VFR,,,,,,,,,,,,METAR,12.0
EEEI 311850Z 20007KT 6000 -DZ BKN005 08/07 Q1017,EEEI,2022-10-31T18:50:00Z,59.27,24.2,8.0,7.0,200,7,,3.73,30.029528,,,,,,,,,,-DZ,BKN,500,,,,,,,IFR,,,,,,,,,,,,METAR,19.0
BGSF 311850Z AUTO VRB02KT 9999NDV SCT032/// BKN075/// M05/M07 Q0993,BGSF,2022-10-31T18:50:00Z,67.0,-50.72,-5.0,-7.0,0,2,,,29.320866,,,TRUE,,,,,,,,SCT,3200,BKN,7500,,,,,,,,,,,,,,,,,SPECI,75.0
BGKK 311850Z AUTO 08014KT 9999NDV BKN021/// 01/M03 Q0985,BGKK,2022-10-31T18:50:00Z,65.57,-37.13,1.0,-3.0,80,14,,,29.084646,,,TRUE,,,,,,,,BKN,2100,,,,,,,,,,,,,,,,,,,SPECI,37.0
BGJN 311850Z 14004KT 9999 FEW016 BKN100 M08/M10 Q0992,BGJN,2022-10-31T18:50:00Z,69.25,-51.07,-8.0,-10.0,140,4,,6.21,29.291338,,,,,,,,,,,FEW,1600,BKN,10000,,,,,VFR,,,,,,,,,,,,METAR,22.0
BGGH 311850Z 04005KT 9999 VCSH BKN015 M01/M03 Q0990,BGGH,2022-10-31T18:50:00Z,64.2,-51.68,-1.0,-3.0,40,5,,6.21,29.232283,,,,,,,,,,VCSH,BKN,1500,,,,,,,MVFR,,,,,,,,,,,,METAR,76.0
BGBW 311850Z 19002KT 9999 BKN097 M04/M09 Q0986,BGBW,2022-10-31T18:50:00Z,61.17,-45.42,-4.0,-9.0,190,2,,6.21,29.114174,,,,,,,,,,,BKN,9700,,,,,,,VFR,,,,,,,,,,,,METAR,49.0
MMSM 311848Z 06002KT 7SM SCT020 26/11 A3021 RMK 8/200 HZY CI,MMSM,2022-10-31T18:48:00Z,19.75,-99.02,26.0,11.0,60,2,,7.0,30.209646,,,,,,,,,,,SCT,2000,,,,,,,VFR,,,,,,,,,,,,METAR,2250.0
MMIA 311848Z 20006KT 8SM SKC 26/19 A2996 RMK HZY ISOL CU,MMIA,2022-10-31T18:48:00Z,19.27,-103.57,26.0,19.0,200,6,,8.0,29.958662,,,,,,,,,,,SKC,,,,,,,,VFR,,,,,,,,,,,,METAR,744.0
KMTN 311848Z 13005KT 10SM OVC022 17/14 A3003,KMTN,2022-10-31T18:48:00Z,39.32,-76.42,17.0,14.0,130,5,,10.0,30.029528,,,,,,,,,,,OVC,2200,,,,,,,MVFR,,,,,,,,,,,,METAR,2.0
KJDN 311848Z AUTO 26011KT 19/02 A2970 RMK AO1 SLP059 T01890022,KJDN,2022-10-31T18:48:00Z,47.33,-106.95,18.9,2.2,260,11,,,29.698818,1005.9,,TRUE,TRUE,,,,,,,,,,,,,,,,,,,,,,,,,,,METAR,802.0
KASG 311848Z 26007KT 10SM CLR 20/09 A2999,KASG,2022-10-31T18:48:00Z,36.17,-94.12,20.0,9.0,260,7,,10.0,29.991142,,,,,,,,,,,CLR,,,,,,,,VFR,,,,,,,,,,,,METAR,410.0
MMCT 311847Z 00000KT 7SM SCT020 30/21 A2989 RMK 8/100 CI,MMCT,2022-10-31T18:47:00Z,20.63,-88.45,30.0,21.0,0,0,,7.0,29.890747,,,,,,,,,,,SCT,2000,,,,,,,VFR,,,,,,,,,,,,METAR,29.0
KTZR 311847Z 22011KT 10SM BKN022 BKN027 OVC070 18/14 A2988,KTZR,2022-10-31T18:47:00Z,39.9,-83.13,18.0,14.0,220,11,,10.0,29.878937,,,,,,,,,,,BKN,2200,BKN,2700,OVC,7000,,,MVFR,,,,,,,,,,,,METAR,275.0
KTIX 311847Z 06004KT 7SM SCT030 BKN060 31/22 A2997,KTIX,2022-10-31T18:47:00Z,28.5,-80.8,31.0,22.0,60,4,,7.0,29.970472,,,,,,,,,,,SCT,3000,BKN,6000,,,,,VFR,,,,,,,,,,,,METAR,10.0
KSUA 311847Z 09012KT 7SM SCT015 BKN030 29/22 A2995,KSUA,2022-10-31T18:47:00Z,27.18,-80.22,29.0,22.0,90,12,,7.0,29.949802,,,,,,,,,,,SCT,1500,BKN,3000,,,,,MVFR,,,,,,,,,,,,METAR,4.0
KSEE 311847Z 00000KT 10SM SKC 27/M02 A2991,KSEE,2022-10-31T18:47:00Z,32.82,-116.97,27.0,-2.0,0,0,,10.0,29.911417,,,,,,,,,,,SKC,,,,,,,,VFR,,,,,,,,,,,,METAR,113.0
KPOC 311847Z 00000KT 10SM CLR A2993,KPOC,2022-10-31T18:47:00Z,34.1,-117.77,,,0,0,,10.0,29.929134,,,,,,,,,,,CLR,,,,,,,,VFR,,,,,,,,,,,,METAR,304.0
KOUN 311847Z 00000KT 10SM CLR 22/04 A3000,KOUN,2022-10-31T18:47:00Z,35.25,-97.47,22.0,4.0,0,0,,10.0,30.0,,,,,,,,,,,CLR,,,,,,,,VFR,,,,,,,,,,,,METAR,359.0
KLBE 311847Z 20008KT 10SM OVC012 17/16 A2993,KLBE,2022-10-31T18:47:00Z,40.27,-79.4,17.0,16.0,200,8,,10.0,29.929134,,,,,,,,,,,OVC,1200,,,,,,,MVFR,,,,,,,,,,,,METAR,345.0
KHUM 311847Z 35005KT 7SM SCT046 26/13 A3002,KHUM,2022-10-31T18:47:00Z,29.57,-90.67,26.0,13.0,350,5,,7.0,30.02067,,,,,,,,,,,SCT,4600,,,,,,,VFR,,,,,,,,,,,,METAR,1.0
KHSA 311847Z VRB05KT 10SM BKN055 23/13 A3001,KHSA,2022-10-31T18:47:00Z,30.37,-89.45,23.0,13.0,0,5,,10.0,30.008858,,,,,,,,,,,BKN,5500,,,,,,,VFR,,,,,,,,,,,,METAR,6.0
KGYR 311847Z 09004KT 10SM SKC 21/02 A2996,KGYR,2022-10-31T18:47:00Z,33.42,-112.37,21.0,2.0,90,4,,10.0,29.958662,,,,,,,,,,,SKC,,,,,,,,VFR,,,,,,,,,,,,METAR,292.0
KGYH 311847Z 07003KT 7SM OVC005 16/14 A3001,KGYH,2022-10-31T18:47:00Z,34.75,-82.38,16.0,14.0,70,3,,7.0,30.008858,,,,,,,,,,,OVC,500,,,,,,,IFR,,,,,,,,,,,,METAR,283.0
KFWS 311847Z 11003KT 10SM CLR 25/07 A3005,KFWS,2022-10-31T18:47:00Z,32.57,-97.3,25.0,7.0,110,3,,10.0,30.050198,,,,,,,,,,,CLR,,,,,,,,VFR,,,,,,,,,,,,METAR,211.0
KFDK 311847Z 00000KT 7SM BKN015 OVC025 15/14 A3000,KFDK,2022-10-31T18:47:00Z,39.42,-77.37,15.0,14.0,0,0,,7.0,30.0,,,,,,,,,,,BKN,1500,OVC,2500,,,,,MVFR,,,,,,,,,,,,METAR,82.0
KEVB 311847Z 11008KT 10SM SCT030 28/22 A2997,KEVB,2022-10-31T18:47:00Z,29.05,-80.95,28.0,22.0,110,8,,10.0,29.970472,,,,,,,,,,,SCT,3000,,,,,,,VFR,,,,,,,,,,,,METAR,2.0
KCWA 311847Z 00000KT 10SM CLR 17/06 A2982,KCWA,2022-10-31T18:47:00Z,44.78,-89.67,17.0,6.0,0,0,,10.0,29.819881,,,,,,,,,,,CLR,,,,,,,,VFR,,,,,,,,,,,,METAR,387.0
KCQT 311847Z AUTO VRB03KT 10SM CLR 23/11 A2992 RMK AO2 SLP129 T02280106,KCQT,2022-10-31T18:47:00Z,34.02,-118.28,22.8,10.6,0,3,,10.0,29.920275,1012.9,,TRUE,TRUE,,,,,,,CLR,,,,,,,,VFR,,,,,,,,,,,,METAR,51.0
KCHD 311847Z 2504KT 10SM CLR 22/02 A2996,KCHD,2022-10-31T18:47:00Z,33.27,-111.82,22.0,2.0,,,,10.0,29.958662,,,,,,,,,,,CLR,,,,,,,,VFR,,,,,,,,,,,,METAR,378.0
KCFO 311847Z 23003KT 10SM SKC 18/M14 A2999,KCFO,2022-10-31T18:47:00Z,39.78,-104.55,18.0,-14.0,230,3,,10.0,29.991142,,,,,,,,,,,SKC,,,,,,,,VFR,,,,,,,,,,,,METAR,1672.0
KBJC 311847Z 16007KT 10SM FEW150 18/M11 A2999,KBJC,2022-10-31T18:47:00Z,39.9,-105.1,18.0,-11.0,160,7,,10.0,29.991142,,,,,,,,,,,FEW,15000,,,,,,,VFR,,,,,,,,,,,,METAR,1694.0
KADS 311847Z 28005KT 13SM SCT250 24/06 A3003,KADS,2022-10-31T18:47:00Z,32.97,-96.83,24.0,6.0,280,5,,13.0,30.029528,,,,,,,,,,,SCT,25000,,,,,,,VFR,,,,,,,,,,,,METAR,198.0
PAKU 311846Z 14006KT 10SM R06/P6000FT SKC M23/M25 A3008,PAKU,2022-10-31T18:46:00Z,70.32,-149.6,-23.0,-25.0,140,6,,10.0,30.079725,,,,,,,,,,,SKC,,,,,,,,VFR,,,,,,,,,,,,METAR,23.0
MMSD 311846Z 17009KT 10SM SCT040 28/15 A2989 RMK 8/200 CI,MMSD,2022-10-31T18:46:00Z,23.15,-109.72,28.0,15.0,170,9,,10.0,29.890747,,,,,,,,,,,SCT,4000,,,,,,,VFR,,,,,,,,,,,,METAR,107.0
MMPS 311846Z 18005KT 12SM FEW015 30/20 A2984 RMK 8/100 HZY,MMPS,2022-10-31T18:46:00Z,15.87,-97.08,30.0,20.0,180,5,,12.0,29.840551,,,,,,,,,,,FEW,1500,,,,,,,VFR,,,,,,,,,,,,METAR,65.0
MMPB 311846Z 19009KT 9SM FEW025 22/09 A3024 RMK 8/100 HZY,MMPB,2022-10-31T18:46:00Z,19.17,-98.37,22.0,9.0,190,9,,9.0,30.239174,,,,,,,,,,,FEW,2500,,,,,,,VFR,,,,,,,,,,,,METAR,2250.0
MMMV 311846Z 00000KT 10SM SCT200 23/10 A2996 RMK 8/002,MMMV,2022-10-31T18:46:00Z,26.95,-101.47,23.0,10.0,0,0,,10.0,29.958662,,,,,,,,,,,SCT,20000,,,,,,,VFR,,,,,,,,,,,,METAR,567.0
MMCM 311846Z 17007KT 7SM BKN020TCU 30/22 A2988 RMK 8/200,MMCM,2022-10-31T18:46:00Z,18.5,-88.33,30.0,22.0,170,7,,7.0,29.878937,,,,,,,,,,,BKN,2000,,,,,,,MVFR,,,,,,,,,,,,METAR,10.0
KSAW 311846Z 28006KT 10SM CLR 17/05 A2977,KSAW,2022-10-31T18:46:00Z,46.35,-87.4,17.0,5.0,280,6,,10.0,29.769686,,,,,,,,,,,CLR,,,,,,,,VFR,,,,,,,,,,,,METAR,359.0
KBBG 311846Z 26005KT 10SM CLR 19/07 A2999,KBBG,2022-10-31T18:46:00Z,36.53,-93.2,19.0,7.0,260,5,,10.0,29.991142,,,,,,,,,,,CLR,,,,,,,,VFR,,,,,,,,,,,,METAR,403.0
TJIG 311845Z 10005KT 8SM SCT018 SCT030 BKN070 29/24 A2989,TJIG,2022-10-31T18:45:00Z,18.45,-66.1,29.0,24.0,100,5,,8.0,29.890747,,,,,,,,,,,SCT,1800,SCT,3000,BKN,7000,,,VFR,,,,,,,,,,,,METAR,3.0
PAPT 311845Z 35010 G21KT 25SM SCT060 SCT100 M09/M09 A2970 RMK NO SPECI,PAPT,2022-10-31T18:45:00Z,62.1,-152.72,-9.0,-9.0,350,10,,25.0,29.698818,,,,,,,,,,,SCT,6000,SCT,10000,,,,,VFR,,,,,,,,,,,,METAR,577.0
MMVA 311845Z 05011KT 8SM FEW015 SCT100 31/23 A2988 RMK 8/130,MMVA,2022-10-31T18:45:00Z,18.0,-92.82,31.0,23.0,50,11,,8.0,29.878937,,,,,,,,,,,FEW,1500,SCT,10000,,,,,VFR,,,,,,,,,,,,METAR,13.0
MMTM 311845Z 00000KT 10SM SCT015 28/21 A2989 RMK 8/100,MMTM,2022-10-31T18:45:00Z,22.28,-97.87,28.0,21.0,0,0,,10.0,29.890747,,,,,,,,,,,SCT,1500,,,,,,,VFR,,,,,,,,,,,,METAR,21.0
MMMX 311845Z 00000KT 6SM SCT025 BKN100 23/07 A3023 NOSIG RMK 8/130 HZY ISOL CI,MMMX,2022-10-31T18:45:00Z,19.43,-99.08,23.0,7.0,0,0,,6.0,30.230314,,,,,,TRUE,,,,,SCT,2500,BKN,10000,,,,,VFR,,,,,,,,,,,,METAR,2224.0
MMCE 311845Z 08006KT 7SM SKC 30/22 A2988 RMK HZY,MMCE,2022-10-31T18:45:00Z,18.65,-91.8,30.0,22.0,80,6,,7.0,29.878937,,,,,,,,,,,SKC,,,,,,,,VFR,,,,,,,,,,,,METAR,5.0
KWDG 311845Z 15007KT 10SM SCT120 21/05 A3000,KWDG,2022-10-31T18:45:00Z,36.37,-97.78,21.0,5.0,150,7,,10.0,30.0,,,,,,,,,,,SCT,12000,,,,,,,VFR,,,,,,,,,,,,METAR,352.0
KUES 311845Z 00000KT 10SM CLR 17/08 A2982,KUES,2022-10-31T18:45:00Z,43.05,-88.25,17.0,8.0,0,0,,10.0,29.819881,,,,,,,,,,,CLR,,,,,,,,VFR,,,,,,,,,,,,METAR,273.0
KSWF 311845Z 24006KT 10SM SKC 17/10 A2998,KSWF,2022-10-31T18:45:00Z,41.5,-74.08,17.0,10.0,240,6,,10.0,29.97933,,,,,,,,,,,SKC,,,,,,,,VFR,,,,,,,,,,,,METAR,139.0
KRYN 311845Z 07004KT 10SM CLR 23/M03 A2997,KRYN,2022-10-31T18:45:00Z,32.15,-111.17,23.0,-3.0,70,4,,10.0,29.970472,,,,,,,,,,,CLR,,,,,,,,VFR,,,,,,,,,,,,METAR,731.0
KMWC 311845Z 00000KT 10SM FEW029 17/06 A2982,KMWC,2022-10-31T18:45:00Z,43.12,-88.03,17.0,6.0,0,0,,10.0,29.819881,,,,,,,,,,,FEW,2900,,,,,,,VFR,,,,,,,,,,,,METAR,225.0
KMWA 311845Z 25006KT 10SM SCT019 BKN025 OVC033 16/13 A2990,KMWA,2022-10-31T18:45:00Z,37.77,-89.02,16.0,13.0,250,6,,10.0,29.899607,,,,,,,,,,,SCT,1900,BKN,2500,OVC,3300,,,MVFR,,,,,,,,,,,,METAR,142.0
KJVL 311845Z 32006KT 10SM SCT200 19/05 A2982,KJVL,2022-10-31T18:45:00Z,42.62,-89.05,19.0,5.0,320,6,,10.0,29.819881,,,,,,,,,,,SCT,20000,,,,,,,VFR,,,,,,,,,,,,METAR,244.0
KEMT 311845Z 19006KT 10SM CLR 24/05 A2991,KEMT,2022-10-31T18:45:00Z,34.08,-118.03,24.0,5.0,190,6,,10.0,29.911417,,,,,,,,,,,CLR,,,,,,,,VFR,,,,,,,,,,,,METAR,84.0
KCGF 311845Z 20012KT 10SM SCT025 BKN065 19/13 A2983,KCGF,2022-10-31T18:45:00Z,41.57,-81.47,19.0,13.0,200,12,,10.0,29.828741,,,,,,,,,,,SCT,2500,BKN,6500,,,,,VFR,,,,,,,,,,,,METAR,265.0
KATW 311845Z 00000KT 10SM CLR 17/05 A2979,KATW,2022-10-31T18:45:00Z,44.27,-88.52,17.0,5.0,0,0,,10.0,29.790354,,,,,,,,,,,CLR,,,,,,,,VFR,,,,,,,,,,,,METAR,266.0
KANE 311845Z 23007KT 10SM SCT250 18/M02 A2982,KANE,2022-10-31T18:45:00Z,45.15,-93.22,18.0,-2.0,230,7,,10.0,29.819881,,,,,,,,,,,SCT,25000,,,,,,,VFR,,,,,,,,,,,,METAR,276.0
MMTG 311844Z 24003KT 6SM SCT030 30/18 A2989 RMK 8/100 HZY,MMTG,2022-10-31T18:44:00Z,16.57,-93.03,30.0,18.0,240,3,,6.0,29.890747,,,,,,,,,,,SCT,3000,,,,,,,VFR,,,,,,,,,,,,METAR,463.0
MMRX 311844Z 12010KT 10SM OVC040 26/14 A2993 RMK 8/4// OCNL DROPS,MMRX,2022-10-31T18:44:00Z,26.02,-98.22,26.0,14.0,120,10,,10.0,29.929134,,,,,,,,,,,OVC,4000,,,,,,,VFR,,,,,,,,,,,,SPECI,45.0
MMPR 311844Z 22007KT 10SM SKC 29/21 A2985 RMK HZY SC-ARND,MMPR,2022-10-31T18:44:00Z,20.67,-105.25,29.0,21.0,220,7,,10.0,29.84941,,,,,,,,,,,SKC,,,,,,,,VFR,,,,,,,,,,,,SPECI,6.0
MMLP 311844Z 33007KT 10SM FEW030 26/14 A2988 RMK 8/100,MMLP,2022-10-31T18:44:00Z,24.07,-110.37,26.0,14.0,330,7,,10.0,29.878937,,,,,,,,,,,FEW,3000,,,,,,,VFR,,,,,,,,,,,,METAR,16.0
MMEP 311844Z 00000KT 12SM SKC 28/14 A2998,MMEP,2022-10-31T18:44:00Z,21.42,-104.85,28.0,14.0,0,0,,12.0,29.97933,,,,,,,,,,,SKC,,,,,,,,VFR,,,,,,,,,,,,METAR,921.0
MMCL 311844Z 18005KT 10SM SCT025 29/17 A2986 RMK 8/100,MMCL,2022-10-31T18:44:00Z,24.77,-107.47,29.0,17.0,180,5,,10.0,29.861221,,,,,,,,,,,SCT,2500,,,,,,,VFR,,,,,,,,,,,,METAR,35.0
MMCB 311844Z 00000KT 7SM SKC 27/14 A3006 RMK DSNT MDT CU FRMG TCU 4TH QUAD NNE HZY AC CI,MMCB,2022-10-31T18:44:00Z,18.83,-99.27,27.0,14.0,0,0,,7.0,30.059055,,,,,,,,,,,SKC,,,,,,,,VFR,,,,,,,,,,,,METAR,1281.0
RKSP 311843Z 29006KT 3200 BR OVC010 13/12 A3020 RMK CIG010,RKSP,2022-10-31T18:43:00Z,37.97,124.67,13.0,12.0,290,6,,1.99,30.200787,,,,,,,,,,BR,OVC,1000,,,,,,,IFR,,,,,,,,,,,,METAR,171.0
MMVR 311843Z 10007KT 6SM SCT012TCU 30/22 A2990 RMK 8/200 HZY,MMVR,2022-10-31T18:43:00Z,19.15,-96.18,30.0,22.0,100,7,,6.0,29.899607,,,,,,,,,,,SCT,1200,,,,,,,VFR,,,,,,,,,,,,METAR,26.0
MMTO 311843Z 20005KT 7SM BKN020 20/09 A3030 RMK 8/200 HZY,MMTO,2022-10-31T18:43:00Z,19.35,-99.57,20.0,9.0,200,5,,7.0,30.301182,,,,,,,,,,,BKN,2000,,,,,,,MVFR,,,,,,,,,,,,METAR,2582.0
MMPA 311843Z 09005KT 4SM BKN020 BKN070 OVC280 27/20 A2989 RMK 8/137 HZY BINOVC,MMPA,2022-10-31T18:43:00Z,20.6,-97.47,27.0,20.0,90,5,,4.0,29.890747,,,,,,,,,,,BKN,2000,BKN,7000,OVC,28000,,,MVFR,,,,,,,,,,,,METAR,153.0
MMMA 311843Z 10016KT 10SM BKN020 OVC065 27/18 A2994 RMK 8/15/,MMMA,2022-10-31T18:43:00Z,25.77,-97.52,27.0,18.0,100,16,,10.0,29.940945,,,,,,,,,,,BKN,2000,OVC,6500,,,,,MVFR,,,,,,,,,,,,SPECI,7.0
KRPX 311843Z AUTO 10SM 17/M01 A2969 RMK Roundup ,KRPX,2022-10-31T18:43:00Z,46.47,-108.55,17.0,-1.0,,,,10.0,29.68996,,,TRUE,,,,,,,,,,,,,,,,,,,,,,,,,,,,METAR,1062.0
MMZH 311842Z 22006KT 7SM SKC 32/24 A2984 RMK HZY AC ISOL CU,MMZH,2022-10-31T18:42:00Z,17.6,-101.47,32.0,24.0,220,6,,7.0,29.840551,,,,,,,,,,,SKC,,,,,,,,VFR,,,,,,,,,,,,METAR,9.0
MMTJ 311842Z 00000KT 10SM SCT200 27/M04 A2993 RMK 8/001 HZY,MMTJ,2022-10-31T18:42:00Z,32.53,-116.97,27.0,-4.0,0,0,,10.0,29.929134,,,,,,,,,,,SCT,20000,,,,,,,VFR,,,,,,,,,,,,METAR,150.0
MMMZ 311842Z 24006KT 13SM FEW030 29/18 A2986 RMK 8/500,MMMZ,2022-10-31T18:42:00Z,23.17,-106.27,29.0,18.0,240,6,,13.0,29.861221,,,,,,,,,,,FEW,3000,,,,,,,VFR,,,,,,,,,,,,METAR,7.0
MMCZ 311842Z 04008KT 8SM SCT015 30/20 A2989 RMK 8/500 CU,MMCZ,2022-10-31T18:42:00Z,20.52,-86.92,30.0,20.0,40,8,,8.0,29.890747,,,,,,,,,,,SCT,1500,,,,,,,VFR,,,,,,,,,,,,METAR,7.0
MMCN 311842Z 19006KT 10SM SKC 30/05 A2986 RMK HZY,MMCN,2022-10-31T18:42:00Z,27.4,-109.83,30.0,5.0,190,6,,10.0,29.861221,,,,,,,,,,,SKC,,,,,,,,VFR,,,,,,,,,,,,METAR,57.0
MMTC 311841Z 10005KT 8SM SKC 24/04 A3000 RMK HZY,MMTC,2022-10-31T18:41:00Z,25.57,-103.4,24.0,4.0,100,5,,8.0,30.0,,,,,,,,,,,SKC,,,,,,,,VFR,,,,,,,,,,,,SPECI,1128.0
MMLO 311841Z 00000KT 10SM SKC 24/05 A3021,MMLO,2022-10-31T18:41:00Z,21.0,-101.47,24.0,5.0,0,0,,10.0,30.209646,,,,,,,,,,,SKC,,,,,,,,VFR,,,,,,,,,,,,METAR,1805.0
MMDO 311841Z 29004KT 10SM SKC 21/M07 A3010,MMDO,2022-10-31T18:41:00Z,24.12,-104.52,21.0,-7.0,290,4,,10.0,30.100393,,,,,,,,,,,SKC,,,,,,,,VFR,,,,,,,,,,,,METAR,1863.0
MMCP 311841Z 09005KT 7SM SCT030TCU 31/21 A2989 RMK 8/200,MMCP,2022-10-31T18:41:00Z,19.82,-90.5,31.0,21.0,90,5,,7.0,29.890747,,,,,,,,,,,SCT,3000,,,,,,,VFR,,,,,,,,,,,,METAR,9.0
MMAA 311841Z 23007KT 6SM SCT080 29/24 A2982 RMK 8/030 HZY,MMAA,2022-10-31T18:41:00Z,16.75,-99.75,29.0,24.0,230,7,,6.0,29.819881,,,,,,,,,,,SCT,8000,,,,,,,VFR,,,,,,,,,,,,METAR,5.0
RKTI 311840Z 02002KT 0800 R36/1200 FG BKN002 06/06 A3020 RMK CIG002,RKTI,2022-10-31T18:40:00Z,37.02,127.88,6.0,6.0,20,2,,0.5,30.200787,,,,,,,,,,FG,BKN,200,,,,,,,LIFR,,,,,,,,,,,,SPECI,55.0
MMZO 311840Z 21010KT 12SM FEW020 29/25 A2992 RMK 8/100,MMZO,2022-10-31T18:40:00Z,19.13,-104.57,29.0,25.0,210,10,,12.0,29.920275,,,,,,,,,,,FEW,2000,,,,,,,VFR,,,,,,,,,,,,SPECI,11.0
MMZC 311840Z E19010KT 10SM SKC 22/M07 A3015,MMZC,2022-10-31T18:40:00Z,22.9,-102.68,22.0,-7.0,190,10,,10.0,30.15059,,,,,,,,,,,SKC,,,,,,,,VFR,,,,,,,,,,,,METAR,2175.0
MMUN 311840Z 12005KT 7SM SCT015 31/20 A2990 RMK 8/100,MMUN,2022-10-31T18:40:00Z,21.03,-86.85,31.0,20.0,120,5,,7.0,29.899607,,,,,,,,,,,SCT,1500,,,,,,,VFR,,,,,,,,,,,,METAR,13.0
MMTP 311840Z 21010KT 10SM FEW030 31/25 A2981 RMK 8/100 HZY,MMTP,2022-10-31T18:40:00Z,14.78,-92.37,31.0,25.0,210,10,,10.0,29.811024,,,,,,,,,,,FEW,3000,,,,,,,VFR,,,,,,,,,,,,METAR,27.0
MMSL 311840Z 11014KT 10SM FEW040 27/18 A2992 RMK 8/100,MMSL,2022-10-31T18:40:00Z,22.95,-109.93,27.0,18.0,110,14,,10.0,29.920275,,,,,,,,,,,FEW,4000,,,,,,,VFR,,,,,,,,,,,,METAR,205.0
MMQT 311840Z 30006KT 8SM SCT020 23/11 A3021 RMK 8/100,MMQT,2022-10-31T18:40:00Z,20.62,-100.18,23.0,11.0,300,6,,8.0,30.209646,,,,,,,,,,,SCT,2000,,,,,,,VFR,,,,,,,,,,,,METAR,1909.0
MMPQ 311840Z 09010KT 8SM SCT040 30/23 A2975 RMK 8/100,MMPQ,2022-10-31T18:40:00Z,17.53,-92.02,30.0,23.0,90,10,,8.0,29.749016,,,,,,,,,,,SCT,4000,,,,,,,VFR,,,,,,,,,,,,METAR,48.0
MMPN 311840Z 16006KT 6SM BKN030TCU 22/17 A3011 RMK 8/200 HZY,MMPN,2022-10-31T18:40:00Z,19.38,-102.03,22.0,17.0,160,6,,6.0,30.109253,,,,,,,,,,,BKN,3000,,,,,,,MVFR,,,,,,,,,,,,METAR,1602.0
MMOX 311840Z 13005KT 10SM FEW030 24/05 A3012 RMK 8/100 HZY,MMOX,2022-10-31T18:40:00Z,17.0,-96.72,24.0,5.0,130,5,,10.0,30.121063,,,,,,,,,,,FEW,3000,,,,,,,VFR,,,,,,,,,,,,METAR,1528.0
MMNL 311840Z 15016KT 10SM SCT030 OVC080 29/15 A2998 RMK 8/57/,MMNL,2022-10-31T18:40:00Z,27.43,-99.57,29.0,15.0,150,16,,10.0,29.97933,,,,,,,,,,,SCT,3000,OVC,8000,,,,,VFR,,,,,,,,,,,,SPECI,146.0
MMMY 311840Z 00000KT 2 1/2SM -DZ BR SCT003 BKN008 OVC012 19/19 A2996 RMK 60015 8/6//,MMMY,2022-10-31T18:40:00Z,25.77,-100.1,19.0,19.0,0,0,,2.5,29.958662,,,,,,,,,,-DZ BR,SCT,300,BKN,800,OVC,1200,,,IFR,,,,,,,,0.15,,,,SPECI,382.0
MMMT 311840Z 03010KT 7SM FEW010 BKN020TCU 27/23 A2986 RMK 8/200 HZY VC,MMMT,2022-10-31T18:40:00Z,18.1,-94.57,27.0,23.0,30,10,,7.0,29.861221,,,,,,,,,,,FEW,1000,BKN,2000,,,,,MVFR,,,,,,,,,,,,METAR,15.0
MMMM 311840Z 01004KT 7SM BKN030 24/13 A3014 RMK 8/200 HZY,MMMM,2022-10-31T18:40:00Z,19.85,-101.03,24.0,13.0,10,4,,7.0,30.138779,,,,,,,,,,,BKN,3000,,,,,,,MVFR,,,,,,,,,,,,SPECI,1840.0
MMML 311840Z 35008KT 10SM FEW200 28/M08 A2991 RMK 8/002,MMML,2022-10-31T18:40:00Z,32.62,-115.23,28.0,-8.0,350,8,,10.0,29.911417,,,,,,,,,,,FEW,20000,,,,,,,VFR,,,,,,,,,,,,METAR,21.0
MMMD 311840Z 09006KT 7SM BKN020TCU 30/22 A2990 RMK 8/200 SC,MMMD,2022-10-31T18:40:00Z,20.95,-89.65,30.0,22.0,90,6,,7.0,29.899607,,,,,,,,,,,BKN,2000,,,,,,,MVFR,,,,,,,,,,,,METAR,10.0
MMLT 311840Z 08010KT 10SM FEW050 26/18 A2987 RMK 8/100,MMLT,2022-10-31T18:40:00Z,25.98,-111.33,26.0,18.0,80,10,,10.0,29.870079,,,,,,,,,,,FEW,5000,,,,,,,VFR,,,,,,,,,,,,METAR,4.0
MMLM 311840Z 00000KT 10SM SKC 29/08 A2989 RMK HZY,MMLM,2022-10-31T18:40:00Z,25.68,-109.08,29.0,8.0,0,0,,10.0,29.890747,,,,,,,,,,,SKC,,,,,,,,VFR,,,,,,,,,,,,METAR,6.0
MMHO 311840Z 16003KT 10SM SKC 28/02 A2991 RMK HZY,MMHO,2022-10-31T18:40:00Z,29.08,-111.05,28.0,2.0,160,3,,10.0,29.911417,,,,,,,,,,,SKC,,,,,,,,VFR,,,,,,,,,,,,METAR,186.0
MMGL 311840Z 24008KT 10SM SKC 26/01 A3011 RMK CU,MMGL,2022-10-31T18:40:00Z,20.52,-103.32,26.0,1.0,240,8,,10.0,30.109253,,,,,,,,,,,SKC,,,,,,,,VFR,,,,,,,,,,,,SPECI,1531.0
MMCU 311840Z 00000KT 10SM FEW030 SCT080 21/02 A3005 RMK 8/170,MMCU,2022-10-31T18:40:00Z,28.7,-105.97,21.0,2.0,0,0,,10.0,30.050198,,,,,,,,,,,FEW,3000,SCT,8000,,,,,VFR,,,,,,,,,,,,SPECI,1349.0
MMBT 311840Z 00000KT 8SM FEW020 31/23 A2988 RMK 8/100 HZY,MMBT,2022-10-31T18:40:00Z,15.77,-96.27,31.0,23.0,0,0,,8.0,29.878937,,,,,,,,,,,FEW,2000,,,,,,,VFR,,,,,,,,,,,,METAR,137.0
MMAS 311840Z 22013KT 10SM SKC 22/M05 A3016,MMAS,2022-10-31T18:40:00Z,21.7,-102.32,22.0,-5.0,220,13,,10.0,30.159449,,,,,,,,,,,SKC,,,,,,,,VFR,,,,,,,,,,,,METAR,1866.0
MMAN 311840Z 00000KT 2SM BR BKN008 OVC012 19/19 A2999 RMK 60015 8/7// DZE25 OCNL DROPS,MMAN,2022-10-31T18:40:00Z,25.87,-100.23,19.0,19.0,0,0,,2.0,29.991142,,,,,,,,,,BR,BKN,800,OVC,1200,,,,,IFR,,,,,,,,0.15,,,,METAR,447.0
YABA 311835Z AUTO 21006KT 9999 // SCT008 BKN016 OVC022 11/11 Q1024,YABA,2022-10-31T18:35:00Z,-34.93,117.8,11.0,11.0,210,6,,6.21,30.236221,,,TRUE,,,,,,,,SCT,800,BKN,1600,OVC,2200,,,MVFR,,,,,,,,,,,,SPECI,67.0
YPMQ 311830Z AUTO 00000KT 3800 // SCT071 BKN095 OVC120 20/19 Q0994,YPMQ,2022-10-31T18:30:00Z,-31.43,152.87,20.0,19.0,0,0,,2.36,29.350393,,,TRUE,,,,,,,,SCT,7100,BKN,9500,OVC,12000,,,IFR,,,,,,,,,,,,SPECI,4.0
WAQQ 311830Z 05004KT 6000 -TSRA FEW014CB BKN015 24/24 Q1008 NOSIG,WAQQ,2022-10-31T18:30:00Z,3.33,117.57,24.0,24.0,50,4,,3.73,29.763779,,,,,,TRUE,,,,-TSRA,FEW,1400,BKN,1500,,,,,MVFR,,,,,,,,,,,,METAR,6.0
VVCT 311830Z VRB02KT 9999 FEW015 25/23 Q1008 NOSIG,VVCT,2022-10-31T18:30:00Z,10.08,105.72,25.0,23.0,0,2,,6.21,29.763779,,,,,,TRUE,,,,,FEW,1500,,,,,,,VFR,,,,,,,,,,,,METAR,6.0
VOGO 311830Z 08004KT 6000 NSC 25/22 Q1011 NOSIG,VOGO,2022-10-31T18:30:00Z,15.38,73.83,25.0,22.0,80,4,,3.73,29.852362,,,,,,TRUE,,,,,CLR,,,,,,,,MVFR,,,,,,,,,,,,METAR,56.0
VAID 311830Z 00000KT 4000 HZ NSC 18/10 Q1017 NOSIG,VAID,2022-10-31T18:30:00Z,22.72,75.8,18.0,10.0,0,0,,2.49,30.029528,,,,,,TRUE,,,,HZ,CLR,,,,,,,,IFR,,,,,,,,,,,,METAR,564.0
HKKI 311830Z 07003KT 9999 FEW020CB BKN080 22/16 Q1016,HKKI,2022-10-31T18:30:00Z,-0.1,34.75,22.0,16.0,70,3,,6.21,30.0,,,,,,,,,,,FEW,2000,BKN,8000,,,,,VFR,,,,,,,,,,,,METAR,1152.0
