{"station_id": ["AGGH", "AYPY", "BGBW", "BGGH", "BGJN", "BGKK", "BGSF", "BGTL", "BIAR", "BIBD", "BIEG", "BIGJ", "BIGR", "BIHN", "BIIS", "BIKF", "BIRK", "BIVM", "BK12", "BKPR", "CAHR", "CBBC", "CERM", "CMFM", "CMGB", "CPBT", "CPEH", "CPFI", "CPIN", "CPRO", "CPRY", "CPST", "CPSV", "CTCK", "CTNK", "CTRA", "CWAF", "CWAJ", "CWAQ", "CWAR", "CWAV", "CWBA", "CWBK", "CWBO", "CWBS", "CWBT", "CWBU", "CWBV", "CWBY", "CWBZ", "CWCF", "CWCJ", "CWCO", "CWCT", "CWDA", "CWDC", "CWDJ", "CWDK", "CWDM", "CWDO", "CWDQ", "CWDV", "CWDZ", "CWEE", "CWEF", "CWEH", "CWEL", "CWEP", "CWEQ", "CWER", "CWEU", "CWEW", "CWEZ", "CWFF", "CWFJ", "CWFQ", "CWGB", "CWGD", "CWGH", "CWGL", "CWGM", "CWGR", "CWGT", "CWGY", "CWHI", "CWHL", "CWHO", "CWHP", "CWHQ", "CWHT", "CWHV", "CWID", "CWIG", "CWII", "CWIJ", "CWIK", "CWIL", "CWIP", "CWIS", "CWIT", "CWIW", "CWIZ", "CWJB", "CWJC", "CWJD", "CWJH", "CWJI", "CWJR", "CWJT", "CWJU", "CWJV", "CWJW", "CWJX", "CWKD", "CWKG", "CWKH", "CWKM", "CWKO", "CWKX", "CWLB", "CWLC", "CWLE", "CWLM", "CWLP", "CWLS", "CWLX", "CWLY", "CWME", "CWMJ", "CWMM", "CWMQ", "CWMT", "CWNC", "CWND", "CWNE", "CWNH", "CWNK", "CWNM", "CWNP", "CWNQ", "CWNZ", "CWOB", "CWOC", "CWOD", "CWOY", "CWPD", "CWPE", "CWPF", "CWPK", "CWPO", "CWPR", "CWPZ", "CWQH", "CWQK", "CWQO", "CWQP", "CWQR", "CWQS", "CWQV", "CWRA", "CWRJ", "CWRK", "CWRM", "CWRN", "CWRO", "CWRT", "CWRU", "CWRY", "CWRZ", "CWSA", "CWSD", "CWSF", "CWSG", "CWSK", "CWSL", "CWSP", "CWSR", "CWSS", "CWST", "CWTA", "CWTG", "CWTN", "CWTT", "CWTY", "CWUS", "CWUW", "CWUX", "CWVF", "CWVI", "CWVN", "CWVP", "CWVQ", "CWVT", "CWVU", "CWWA", "CWWB", "CWWE", "CWWF", "CWWK", "CWWL", "CWWS", "CWWU", "CWWZ", "CWXA", "CWXC", "CWXI", "CWXL", "CWYJ", "CWYL", "CWYY", "CWZA", "CWZG", "CWZL", "CWZN", "CWZQ", "CWZW", "CXAF", "CXAG", "CXAJ", "CXAK", "CXAT", "CXBA", "CXBI", "CXBK", "CXBO", "CXBR", "CXBW", "CXCA", "CXCD", "CXCK", "CXCP", "CXCS", "CXDB", "CXDE", "CXDI", "CXDK", "CXDW", "CXEA", "CXEC", "CXEG", "CXET", "CXFM", "CXFR", "CXGH", "CXHA", "CXHD", "CXHM", "CXHP", "CXHR", "CXIB", "CXKA", "CXKE", "CXKI", "CXKM", "CXKT", "CXLB", "CXLL", "CXMD", "CXMG", "CXMI", "CXMM", "CXMO", "CXMY", "CXNM", "CXNP", "CXOL", "CXOX", "CXOY", "CXPA", "CXPC", "CXPL", "CXRB", "CXRH", "CXRL", "CXSC", "CXSE", "CXSH", "CXSL", "CXSP", "CXTD", "CXTH", "CXTN", "CXTO", "CXTP", "CXTV", "CXVM", "CXVN", "CXVW", "CXWM", "CXWN", "CXYH", "CXZC", "CXZV", "CYAH", "CYAM", "CYAT", "CYAW", "CYAY", "CYBC", "CYBG", "CYBK", "CYBQ", "CYBR", "CYBU", "CYBW", "CYBX", "CYCA", "CYCB", "CYCK", "CYCO", "CYCX", "CYCY", "CYDB", "CYDF", "CYDL", "CYDN", "CYDP", "CYDQ", "CYEG", "CYEK", "CYEN", "CYER", "CYET", "CYEV", "CYFB", "CYFC", "CYFS", "CYFT", "CYGK", "CYGL", "CYGP", "CYGR", "CYGT", "CYGV", "CYGW", "CYGX", "CYHD", "CYHE", "CYHK", "CYHM", "CYHU", "CYHY", "CYHZ", "CYIN", "CYIO", "CYIV", "CYJT", "CYKA", "CYKF", "CYKJ", "CYKL", "CYKP", "CYKY", "CYLD", "CYLL", "CYLT", "CYLW", "CYMA", "CYMH", "CYMJ", "CYMM", "CYMO", "CYMT", "CYMX", "CYNA", "CYNE", "CYNM", "CYOD", "CYOJ", "CYOO", "CYOW", "CYPA", "CYPD", "CYPE", "CYPH", "CYPL", "CYPO", "CYPQ", "CYPR", "CYPX", "CYPY", "CYQA", "CYQB", "CYQD", "CYQF", "CYQG", "CYQH", "CYQI", "CYQK", "CYQL", "CYQM", "CYQQ", "CYQR", "CYQT", "CYQU", "CYQV", "CYQW", "CYQX", "CYQY", "CYQZ", "CYRB", "CYRJ", "CYRL", "CYRQ", "CYRT", "CYRV", "CYSB", "CYSC", "CYSF", "CYSJ", "CYSM", "CYTE", "CYTH", "CYTL", "CYTR", "CYTS", "CYTZ", "CYUA", "CYUL", "CYUX", "CYUY", "CYVC", "CYVL", "CYVM", "CYVO", "CYVP", "CYVQ", "CYVR", "CYVT", "CYVV", "CYWE", "CYWG", "CYWK", "CYWL", "CYXC", "CYXE", "CYXH", "CYXJ", "CYXL", "CYXR", "CYXS", "CYXT", "CYXU", "CYXX", "CYXY", "CYYB", "CYYC", "CYYD", "CYYE", "CYYF", "CYYG", "CYYH", "CYYJ", "CYYL", "CYYN", "CYYQ", "CYYR", "CYYT", "CYYU", "CYYW", "CYYY", "CYYZ", "CYZE", "CYZF", "CYZH", "CYZP", "CYZR", "CYZS", "CYZT", "CYZV", "CYZX", "CYZY", "CZBF", "CZCP", "CZCR", "CZDB", "CZEL", "CZEV", "CZFS", "CZHY", "CZKD", "CZMD", "CZMJ", "CZOL", "CZPC", "CZPS", "CZSJ", "CZSM", "CZSP", "CZTB", "CZUM", "CZVL", "CZZJ", "DAAD", "DAAE", "DAAG", "DAAJ", "DAAP", "DAAS", "DAAT", "DAAV", "DAAY", "DABB", "DABC", "DABS", "DABT", "DAFH", "DAOB", "DAOF", "DAOI", "DAOL", "DAON", "DAOO", "DAOR", "DAOV", "DAUA", "DAUB", "DAUG", "DAUH", "DAUZ", "DBBB", "DFFD", "DFOO", "DGAA", "DIAP", "DIBK", "DIYO", "DNAA", "DNAK", "DNEN", "DNGO", "DNIB", "DNIL", "DNJO", "DNKA", "DNKN", "DNKT", "DNMA", "DNMM", "DNMN", "DNPO", "DNSO", "DRRM", "DRRN", "DRRT", "DRZA", "DRZF", "DRZR", "DTKA", "DTMB", "DTNH", "DTTA", "DTTB", "DTTD", "DTTF", "DTTG", "DTTJ", "DTTK", "DTTL", "DTTN", "DTTR", "DTTX", "DTTZ", "DXNG", "DXXX", "EBAW", "EBBE", "EBBL", "EBBR", "EBCI", "EBCV", "EBDT", "EBFN", "EBFS", "EBLB", "EBLG", "EBOS", "EDAC", "EDAH", "EDBC", "EDDB", "EDDC", "EDDE", "EDDF", "EDDG", "EDDH", "EDDK", "EDDL", "EDDM", "EDDN", "EDDP", "EDDR", "EDDS", "EDDV", "EDDW", "EDFH", "EDFM", "EDGS", "EDHI", "EDHK", "EDHL", "EDJA", "EDLN", "EDLP", "EDLV", "EDLW", "EDMA", "EDMO", "EDNY", "EDQM", "EDSB", "EDTL", "EDTY", "EDVE", "EDVK", "EDWE", "EDXW", "EEEI", "EEKE", "EEPU", "EETN", "EETU", "EFET", "EFHA", "EFHK", "EFIV", "EFJO", "EFJY", "EFKE", "EFKI", "EFKK", "EFKS", "EFKT", "EFKU", "EFLP", "EFMA", "EFMI", "EFOU", "EFPO", "EFRO", "EFSA", "EFSI", "EFTP", "EFTU", "EFUT", "EFVA", "EGAA", "EGAC", "EGAE", "EGBB", "EGBJ", "EGCC", "EGCK", "EGDM", "EGDR", "EGDY", "EGEC", "EGEO", "EGFF", "EGGD", "EGGP", "EGGW", "EGHC", "EGHE", "EGHH", "EGHI", "EGHQ", "EGJA", "EGJB", "EGJJ", "EGKA", "EGKB", "EGKK", "EGLC", "EGLF", "EGLL", "EGMC", "EGMD", "EGNH", "EGNJ", "EGNM", "EGNO", "EGNR", "EGNS", "EGNT", "EGNV", "EGNX", "EGOM", "EGOP", "EGOS", "EGOV", "EGPA", "EGPB", "EGPC", "EGPD", "EGPE", "EGPF", "EGPH", "EGPI", "EGPK", "EGPL", "EGPN", "EGPO", "EGPU", "EGQA", "EGQK", "EGQL", "EGQM", "EGQS", "EGSC", "EGSH", "EGSS", "EGSY", "EGTE", "EGTK", "EGUB", "EGUL", "EGUN", "EGUW", "EGVA", "EGVN", "EGVO", "EGVP", "EGWC", "EGWU", "EGXC", "EGXE", "EGXS", "EGXT", "EGXV", "EGXW", "EGXZ", "EGYD", "EGYE", "EGYH", "EGYM", "EGYP", "EHAK", "EHAM", "EHBK", "EHDL", "EHDV", "EHEH", "EHFD", "EHFS", "EHGG", "EHGR", "EHHW", "EHJA", "EHJR", "EHKD", "EHKV", "EHLE", "EHLW", "EHMA", "EHMG", "EHPG", "EHRD", "EHSA", "EHSC", "EHVK", "EHVL", "EHWO", "EICK", "EIDL", "EIDW", "EIKN", "EIKY", "EIME", "EINN", "EISG", "EIWF", "EKAH", "EKBI", "EKCH", "EKEB", "EKKA", "EKOD", "EKRK", "EKRN", "EKRS", "EKSB", "EKSP", "EKVD", "EKVG", "EKYT", "ELLX", "ENAL", "ENAN", "ENAT", "ENBL", "ENBN", "ENBO", "ENBR", "ENBS", "ENBV", "ENCN", "ENDR", "ENDU", "ENEV", "ENFB", "ENFL", "ENGC", "ENGM", "ENHD", "ENHE", "ENHF", "ENHK", "ENHM", "ENHV", "ENJS", "ENKB", "ENKR", "ENLA", "ENLE", "ENLK", "ENMH", "ENML", "ENMS", "ENNA", "ENNM", "ENNO", "ENOA", "ENOL", "ENOV", "ENQA", "ENQC", "ENQR", "ENRA", "ENRM", "ENRO", "ENRS", "ENRY", "ENSB", "ENSD", "ENSE", "ENSF", "ENSG", "ENSH", "ENSK", "ENSL", "ENSO", "ENSR", "ENSS", "ENST", "ENTC", "ENTO", "ENUG", "ENUN", "ENVA", "ENVD", "ENWV", "ENZV", "EPBY", "EPGD", "EPKK", "EPKT", "EPLB", "EPLL", "EPMO", "EPPO", "EPRA", "EPRZ", "EPSC", "EPSY", "EPWA", "EPWR", "EPZG", "ESCF", "ESCM", "ESDF", "ESGG", "ESGJ", "ESGP", "ESGT", "ESIA", "ESIB", "ESKM", "ESKN", "ESKS", "ESMK", "ESMQ", "ESMS", "ESMT", "ESMX", "ESND", "ESNG", "ESNK", "ESNL", "ESNN", "ESNO", "ESNQ", "ESNS", "ESNU", "ESNV", "ESNX", "ESNZ", "ESOE", "ESOH", "ESOK", "ESOW", "ESPA", "ESPE", "ESSA", "ESSB", "ESSD", "ESSL", "ESSP", "ESST", "ESSV", "ESTA", "ESTL", "ESUP", "ESUT", "ETAD", "ETAR", "ETEB", "ETGG", "ETHA", "ETHB", "ETHC", "ETHF", "ETHL", "ETHN", "ETHS", "ETIC", "ETIH", "ETIK", "ETMN", "ETNG", "ETNH", "ETNL", "ETNN", "ETNS", "ETNT", "ETNW", "ETOU", "ETSB", "ETSH", "ETSI", "ETSL", "ETSN", "ETWM", "EVGA", "EVLA", "EVRA", "EVVA", "EYKA", "EYPA", "EYSA", "EYVI", "FABL", "FACT", "FACV", "FAEL", "FAGG", "FAHS", "FAJB", "FAKM", "FAKN", "FALA", "FALE", "FALW", "FAMM", "FAOR", "FAPE", "FAPN", "FAPP", "FASB", "FAUP", "FAUT", "FAVV", "FBKE", "FBMN", "FBPM", "FBSK", "FCBB", "FCOD", "FCPP", "FDBB", "FDMY", "FDPP", "FDSK", "FDST", "FEFF", "FEFT", "FGSL", "FHAW", "FIMP", "FJDG", "FKKD", "FKKL", "FKKN", "FKKR", "FKYS", "FLKK", "FMCZ", "FMEE", "FMEP", "FMMI", "FMMT", "FMNA", "FMNM", "FMNN", "FMSD", "FNCA", "FNCT", "FNGI", "FNHU", "FNLU", "FNUB", "FNUE", "FOGM", "FOGO", "FOGR", "FOOG", "FOOL", "FOON", "FPST", "FQBR", "FQCH", "FQIN", "FQLC", "FQMA", "FQNC", "FQNP", "FQPB", "FQQL", "FQTT", "FQVL", "FQXA", "FSIA", "FTTA", "FTTC", "FTTJ", "FTTY", "FVRG", "FWCL", "FWKI", "FYGF", "GABS", "GAKD", "GAMB", "GBYD", "GCFV", "GCGM", "GCHI", "GCLA", "GCLP", "GCRR", "GCTS", "GCXO", "GECE", "GEML", "GGOV", "GLRB", "GMAD", "GMAG", "GMAT", "GMFB", "GMFF", "GMFK", "GMFM", "GMFO", "GMMB", "GMMC", "GMMD", "GMME", "GMMH", "GMMI", "GMML", "GMMN", "GMMW", "GMMX", "GMMZ", "GMTA", "GMTN", "GMTT", "GOBD", "GOGG", "GOGK", "GOGS", "GOOD", "GOOG", "GOOK", "GOOY", "GOSM", "GOSP", "GOSS", "GOTK", "GOTT", "GQNO", "GQPP", "GUCY", "GVAC", "GVBA", "GVNP", "GVSV", "HABD", "HCMF", "HCMM", "HDAM", "HEAT", "HEAX", "HEBA", "HEBL", "HECA", "HECP", "HEGN", "HEIS", "HELX", "HEMA", "HEMM", "HEPS", "HESG", "HESH", "HESN", "HESW", "HESX", "HETR", "HKEL", "HKEM", "HKGA", "HKJK", "HKKI", "HKKT", "HKLO", "HKLU", "HKME", "HKMO", "HKNI", "HKNK", "HKNW", "HKWJ", "HRYR", "HTDA", "HTKJ", "HTMW", "HUEN", "K04V", "K04W", "K05U", "K06C", "K06D", "K08D", "K0A0", "K0A9", "K0CO", "K0E0", "K0F2", "K0J4", "K0R0", "K0S9", "K0V4", "K0VG", "K10G", "K12N", "K13K", "K14Y", "K15M", "K17J", "K18A", "K18H", "K19S", "K1A5", "K1A6", "K1A9", "K1AM", "K1BM", "K1BN", "K1BW", "K1CM", "K1CN", "K1CW", "K1DM", "K1EM", "K1EN", "K1EW", "K1F0", "K1FW", "K1GM", "K1GN", "K1H2", "K1HM", "K1HN", "K1HW", "K1IM", "K1IN", "K1IW", "K1JM", "K1JN", "K1JW", "K1KM", "K1LN", "K1M4", "K1MM", "K1MW", "K1NW", "K1OM", "K1ON", "K1OW", "K1P1", "K1R7", "K1R8", "K1S5", "K1U7", "K1V4", "K1V6", "K1YT", "K20U", "K20V", "K21D", "K22N", "K24A", "K24J", "K28J", "K2A0", "K2C8", "K2D5", "K2DP", "K2G2", "K2G4", "K2G9", "K2I0", "K2IS", "K2J3", "K2J5", "K2J9", "K2M2", "K2P2", "K2R9", "K2V5", "K2V6", "K2W6", "K2WX", "K33N", "K33V", "K35A", "K38S", "K3AU", "K3D2", "K3F3", "K3K3", "K3L4", "K3N8", "K3R7", "K3S8", "K3T5", "K3U3", "K40B", "K40U", "K41U", "K42J", "K46D", "K46U", "K48A", "K49A", "K4A6", "K4A9", "K4BM", "K4F2", "K4I3", "K4M9", "K4MR", "K4R5", "K4S1", "K4S2", "K4U6", "K4V0", "K4V1", "K54A", "K54J", "K57C", "K5A6", "K5C1", "K5H4", "K5R8", "K5SM", "K5T9", "K63S", "K65S", "K66R", "K6A1", "K6A2", "K6B0", "K6B9", "K6I2", "K6L4", "K6P9", "K6R3", "K6R6", "K6S0", "K6S2", "K6S8", "K77S", "K79J", "K7BM", "K7L2", "K7W4", "K81R", "K82C", "K8A0", "K8A3", "K8B0", "K8D3", "K8T6", "K8W2", "K96D", "K9A5", "K9D7", "K9L2", "K9MN", "K9S9", "K9V9", "KA39", "KAAA", "KAAO", "KAAS", "KAAT", "KABE", "KABH", "KABI", "KABQ", "KABR", "KABY", "KACB", "KACJ", "KACK", "KACP", "KACQ", "KACT", "KACV", "KACY", "KACZ", "KADC", "KADF", "KADG", "KADH", "KADM", "KADS", "KADT", "KADU", "KADW", "KAEG", "KAEJ", "KAEL", "KAEX", "KAFF", "KAFJ", "KAFK", "KAFN", "KAFO", "KAFP", "KAFW", "KAGC", "KAGI", "KAGO", "KAGS", "KAHN", "KAHQ", "KAIA", "KAID", "KAIG", "KAIK", "KAIO", "KAIT", "KAIZ", "KAJG", "KAJO", "KAJR", "KAJZ", "KAKH", "KAKO", "KAKQ", "KAKR", "KALB", "KALI", "KALK", "KALM", "KALN", "KALO", "KALS", "KALW", "KAMA", "KAMG", "KAMN", "KAMW", "KANB", "KAND", "KANE", "KANJ", "KANK", "KANQ", "KANW", "KAOH", "KAOO", "KAPA", "KAPC", "KAPF", "KAPG", "KAPN", "KAPS", "KAPY", "KAQO", "KAQP", "KAQV", "KAQW", "KAQX", "KARA", "KARB", "KARG", "KARM", "KART", "KARV", "KARW", "KASD", "KASE", "KASH", "KASJ", "KASL", "KASN", "KAST", "KASW", "KASX", "KATA", "KATL", "KATP", "KATS", "KATT", "KATW", "KATY", "KAUG", "KAUH", "KAUM", "KAUN", "KAUO", "KAUS", "KAUW", "KAVC", "KAVK", "KAVL", "KAVP", "KAVQ", "KAVX", "KAWG", "KAWM", "KAWO", "KAXA", "KAXH", "KAXN", "KAXS", "KAXV", "KAXX", "KAYS", "KAZC", "KAZE", "KAZO", "KBAB", "KBAC", "KBAD", "KBAF", "KBAK", "KBAM", "KBAN", "KBAX", "KBAZ", "KBBB", "KBBD", "KBBG", "KBBP", "KBBW", "KBCB", "KBCE", "KBCK", "KBCR", "KBDE", "KBDG", "KBDH", "KBDL", "KBDN", "KBDR", "KBDU", "KBEA", "KBEC", "KBED", "KBEH", "KBFD", "KBFF", "KBFI", "KBFL", "KBFM", "KBFR", "KBGD", "KBGE", "KBGF", "KBGM", "KBGR", "KBHB", "KBHC", "KBHK", "KBHM", "KBID", "KBIE", "KBIF", "KBIH", "KBIJ", "KBIL", "KBIS", "KBIV", "KBIX", "KBJC", "KBJI", "KBJJ", "KBKB", "KBKD", "KBKE", "KBKF", "KBKL", "KBKN", "KBKS", "KBKT", "KBKV", "KBKW", "KBKX", "KBLF", "KBLI", "KBLM", "KBLU", "KBLV", "KBMC", "KBMG", "KBMI", "KBML", "KBMQ", "KBMT", "KBNA", "KBNL", "KBNO", "KBNW", "KBOI", "KBOK", "KBOS", "KBOW", "KBPC", "KBPG", "KBPI", "KBPK", "KBPT", "KBQK", "KBQP", "KBRD", "KBRG", "KBRL", "KBRO", "KBRY", "KBTA", "KBTL", "KBTM", "KBTN", "KBTP", "KBTR", "KBTV", "KBUF", "KBUR", "KBUU", "KBUY", "KBVI", "KBVN", "KBVO", "KBVS", "KBVU", "KBVX", "KBVY", "KBWD", "KBWG", "KBWI", "KBWP", "KBWW", "KBXA", "KBXK", "KBYG", "KBYI", "KBYL", "KBYS", "KBYY", "KBZN", "KC09", "KC29", "KC35", "KC62", "KC65", "KC75", "KC83", "KC99", "KCAD", "KCAE", "KCAG", "KCAK", "KCAO", "KCAR", "KCAV", "KCBE", "KCBF", "KCBG", "KCBK", "KCBM", "KCCA", "KCCB", "KCCO", "KCCR", "KCCU", "KCCY", "KCDA", "KCDC", "KCDD", "KCDH", "KCDI", "KCDJ", "KCDN", "KCDR", "KCDS", "KCDW", "KCEC", "KCEF", "KCEU", "KCEW", "KCEY", "KCEZ", "KCFD", "KCFE", "KCFJ", "KCFO", "KCFS", "KCFV", "KCGC", "KCGE", "KCGF", "KCGI", "KCGS", "KCGZ", "KCHA", "KCHK", "KCHO", "KCHS", "KCIC", "KCID", "KCIN", "KCIR", "KCIU", "KCJR", "KCKB", "KCKC", "KCKF", "KCKI", "KCKM", "KCKN", "KCKP", "KCKV", "KCKZ", "KCLE", "KCLI", "KCLK", "KCLL", "KCLM", "KCLS", "KCLT", "KCLW", "KCMA", "KCMD", "KCMH", "KCMI", "KCMR", "KCMX", "KCMY", "KCNB", "KCNC", "KCNI", "KCNK", "KCNM", "KCNO", "KCNU", "KCNY", "KCOD", "KCOE", "KCOF", "KCOM", "KCON", "KCOQ", "KCOS", "KCOT", "KCOU", "KCPC", "KCPF", "KCPK", "KCPR", "KCPS", "KCPT", "KCPW", "KCQB", "KCQC", "KCQF", "KCQM", "KCQT", "KCQW", "KCQX", "KCRE", "KCRG", "KCRP", "KCRQ", "KCRS", "KCRW", "KCRX", "KCSG", "KCSM", "KCSQ", "KCSV", "KCTB", "KCTJ", "KCTY", "KCTZ", "KCUB", "KCUH", "KCUL", "KCUT", "KCVC", "KCVG", "KCVH", "KCVN", "KCVO", "KCVS", "KCVX", "KCWA", "KCWC", "KCWF", "KCWI", "KCWN", "KCWV", "KCXE", "KCXO", "KCXP", "KCXU", "KCXW", "KCXY", "KCYD", "KCYS", "KCZL", "KCZT", "KD07", "KD25", "KD39", "KD50", "KD55", "KD57", "KD60", "KD73", "KD95", "KDAA", "KDAB", "KDAG", "KDAL", "KDAN", "KDAW", "KDAY", "KDBN", "KDBQ", "KDCA", "KDCM", "KDCU", "KDCY", "KDDC", "KDDH", "KDEC", "KDED", "KDEH", "KDEN", "KDEQ", "KDET", "KDEW", "KDFI", "KDFW", "KDGW", "KDHN", "KDHT", "KDIJ", "KDIK", "KDKK", "KDKR", "KDKX", "KDLF", "KDLH", "KDLL", "KDLN", "KDLO", "KDLP", "KDLS", "KDLZ", "KDMA", "KDMH", "KDMN", "KDMO", "KDMW", "KDNA", "KDNL", "KDNN", "KDNV", "KDOV", "KDPA", "KDPL", "KDQH", "KDRA", "KDRI", "KDRM", "KDRO", "KDRT", "KDSF", "KDSM", "KDSV", "KDTA", "KDTL", "KDTO", "KDTS", "KDTW", "KDUA", "KDUB", "KDUC", "KDUG", "KDUH", "KDUJ", "KDUX", "KDVK", "KDVL", "KDVN", "KDVO", "KDVP", "KDVT", "KDWA", "KDWH", "KDWU", "KDWX", "KDXR", "KDXX", "KDYA", "KDYB", "KDYL", "KDYR", "KDYS", "KDYT", "KDZB", "KDZJ", "KE11", "KE16", "KE38", "KE41", "KE42", "KEAN", "KEAR", "KEAT", "KEAU", "KEBA", "KEBG", "KEBS", "KECG", "KECP", "KECS", "KECU", "KEDC", "KEDE", "KEDJ", "KEDN", "KEDU", "KEDW", "KEED", "KEEN", "KEEO", "KEET", "KEFD", "KEFK", "KEFT", "KEGE", "KEGI", "KEGT", "KEGV", "KEHA", "KEHO", "KEHR", "KEIK", "KEKE", "KEKM", "KEKN", "KEKO", "KEKQ", "KEKS", "KEKX", "KEKY", "KELA", "KELD", "KELK", "KELM", "KELN", "KELO", "KELP", "KELY", "KELZ", "KEMM", "KEMP", "KEMV", "KEND", "KENL", "KENV", "KENW", "KEOE", "KEOK", "KEPH", "KEQA", "KEQY", "KERI", "KERV", "KERY", "KESC", "KESF", "KESN", "KEST", "KETB", "KETC", "KETH", "KETN", "KEUF", "KEUG", "KEUL", "KEVM", "KEVU", "KEVV", "KEVW", "KEWB", "KEWK", "KEWN", "KEWR", "KEXX", "KEYE", "KEYF", "KEYW", "KEZF", "KEZM", "KEZP", "KEZS", "KEZZ", "KF00", "KF05", "KF17", "KF44", "KF46", "KF70", "KFAF", "KFAM", "KFAR", "KFAT", "KFAY", "KFBG", "KFBL", "KFCI", "KFCM", "KFCS", "KFDK", "KFDR", "KFDW", "KFDY", "KFEP", "KFET", "KFEW", "KFFA", "KFFC", "KFFL", "KFFM", "KFFO", "KFFT", "KFFX", "KFFZ", "KFGN", "KFGX", "KFHB", "KFHR", "KFHU", "KFIG", "KFIN", "KFKL", "KFKN", "KFKR", "KFKS", "KFLD", "KFLG", "KFLL", "KFLO", "KFLP", "KFLY", "KFME", "KFMH", "KFMM", "KFMN", "KFMY", "KFNB", "KFNL", "KFNT", "KFOA", "KFOD", "KFOE", "KFOK", "KFOZ", "KFPK", "KFPR", "KFPY", "KFQD", "KFRG", "KFRH", "KFRI", "KFRM", "KFRR", "KFSD", "KFSE", "KFSI", "KFSK", "KFSM", "KFST", "KFSW", "KFTK", "KFTN", "KFTW", "KFTY", "KFUL", "KFVE", "KFVX", "KFWA", "KFWB", "KFWC", "KFWN", "KFWS", "KFXE", "KFXY", "KFYE", "KFYG", "KFYJ", "KFYM", "KFYV", "KFZG", "KFZY", "KGAD", "KGAF", "KGAG", "KGAI", "KGAO", "KGBD", "KGBG", "KGCC", "KGCD", "KGCK", "KGCM", "KGCN", "KGCY", "KGDA", "KGDB", "KGDJ", "KGDP", "KGDV", "KGED", "KGEG", "KGEV", "KGEY", "KGEZ", "KGFA", "KGFK", "KGFL", "KGGE", "KGGF", "KGGG", "KGGI", "KGGP", "KGGW", "KGHG", "KGHW", "KGIC", "KGIF", "KGJT", "KGKJ", "KGKT", "KGKY", "KGLD", "KGLE", "KGLH", "KGLR", "KGLS", "KGLW", "KGLY", "KGMJ", "KGMU", "KGNA", "KGNB", "KGNC", "KGNG", "KGNR", "KGNT", "KGNV", "KGOK", "KGON", "KGOO", "KGOP", "KGOV", "KGPC", "KGPH", "KGPI", "KGPM", "KGPT", "KGPZ", "KGRB", "KGRD", "KGRF", "KGRI", "KGRK", "KGRN", "KGRR", "KGRY", "KGSB", "KGSH", "KGSO", "KGSP", "KGTB", "KGTF", "KGTR", "KGTU", "KGUC", "KGUP", "KGUR", "KGUS", "KGUY", "KGVE", "KGVL", "KGVQ", "KGVT", "KGVW", "KGWB", "KGWO", "KGWR", "KGWW", "KGXA", "KGXF", "KGXY", "KGYB", "KGYF", "KGYH", "KGYI", "KGYL", "KGYY", "KGZH", "KGZL", "KGZN", "KGZS", "KHAE", "KHAF", "KHAI", "KHAO", "KHBG", "KHBI", "KHBR", "KHBV", "KHCD", "KHCO", "KHCR", "KHDC", "KHDE", "KHDL", "KHDN", "KHDO", "KHEF", "KHEG", "KHEI", "KHEQ", "KHEY", "KHEZ", "KHFD", "KHFF", "KHFJ", "KHFY", "KHGR", "KHHF", "KHHG", "KHHR", "KHHW", "KHIB", "KHIE", "KHIF", "KHII", "KHIO", "KHJH", "KHJO", "KHKA", "KHKS", "KHKY", "KHLB", "KHLC", "KHLG", "KHLN", "KHLR", "KHLX", "KHMN", "KHMP", "KHMT", "KHMZ", "KHNB", "KHND", "KHNR", "KHNZ", "KHOB", "KHOE", "KHON", "KHOP", "KHOT", "KHOU", "KHPN", "KHPT", "KHQG", "KHQG", "KHQM", "KHQU", "KHQZ", "KHRF", "KHRI", "KHRJ", "KHRL", "KHRO", "KHRT", "KHRX", "KHSB", "KHSD", "KHSE", "KHSG", "KHSI", "KHSP", "KHST", "KHSV", "KHTH", "KHTS", "KHUA", "KHUF", "KHUL", "KHUM", "KHUT", "KHVC", "KHVE", "KHVN", "KHVR", "KHVS", "KHWD", "KHWO", "KHWV", "KHWY", "KHXD", "KHYA", "KHYI", "KHYR", "KHYS", "KHYW", "KHYX", "KHZD", "KHZE", "KHZL", "KHZR", "KHZX", "KHZY", "KI16", "KI19", "KI23", "KI35", "KI63", "KI67", "KI68", "KI69", "KI74", "KI75", "KI95", "KIAB", "KIAD", "KIAG", "KIAH", "KIBM", "KICR", "KICT", "KIDA", "KIDI", "KIDP", "KIEN", "KIER", "KIFA", "KIFP", "KIGM", "KIGQ", "KIIB", "KIIY", "KIJD", "KIJX", "KIKG", "KIKK", "KIKV", "KIKW", "KILE", "KILG", "KILM", "KILN", "KIML", "KIMM", "KIMS", "KIMT", "KIND", "KINF", "KINJ", "KINK", "KINL", "KINS", "KINT", "KINW", "KIOB", "KIOW", "KIPJ", "KIPL", "KIPT", "KIRK", "KIRS", "KISM", "KISO", "KISP", "KISQ", "KISW", "KITH", "KITR", "KIUA", "KIWA", "KIWD", "KIWI", "KIXA", "KIXD", "KIYA", "KIZA", "KIZG", "KJAC", "KJAN", "KJAQ", "KJAS", "KJAU", "KJAX", "KJBR", "KJCA", "KJCT", "KJDN", "KJEF", "KJER", "KJES", "KJFK", "KJFX", "KJFZ", "KJHW", "KJKA", "KJKJ", "KJKL", "KJLN", "KJMR", "KJMS", "KJNX", "KJOT", "KJPX", "KJRB", "KJRO", "KJSO", "KJST", "KJSV", "KJTC", "KJVL", "KJVW", "KJVY", "KJWG", "KJWN", "KJWY", "KJXI", "KJXN", "KJYG", "KJYL", "KJYM", "KJYO", "KJYR", "KJZI", "KJZP", "KK62", "KK70", "KK82", "KK88", "KKLS", "KKNB", "KKY8", "KL08", "KL18", "KL35", "KLAA", "KLAF", "KLAL", "KLAM", "KLAN", "KLAR", "KLAS", "KLAW", "KLAX", "KLBB", "KLBE", "KLBF", "KLBL", "KLBO", "KLBT", "KLBX", "KLCG", "KLCH", "KLCI", "KLCK", "KLCQ", "KLDM", "KLEB", "KLEE", "KLEW", "KLEX", "KLFI", "KLFK", "KLFT", "KLGA", "KLGB", "KLGC", "KLGD", "KLGF", "KLGU", "KLHB", "KLHM", "KLHQ", "KLHW", "KLHX", "KLHZ", "KLIC", "KLIT", "KLJF", "KLKR", "KLKU", "KLKV", "KLLJ", "KLLN", "KLLQ", "KLMO", "KLMS", "KLMT", "KLNA", "KLNC", "KLND", "KLNK", "KLNL", "KLNN", "KLNP", "KLNQ", "KLNR", "KLNS", "KLOL", "KLOM", "KLOR", "KLOT", "KLOU", "KLOZ", "KLPR", "KLQK", "KLRD", "KLRF", "KLRJ", "KLRO", "KLRU", "KLRY", "KLSE", "KLSF", "KLSV", "KLTS", "KLUA", "KLUD", "KLUF", "KLUG", "KLUK", "KLUL", "KLUM", "KLUV", "KLUX", "KLVJ", "KLVK", "KLVL", "KLVM", "KLVN", "KLVS", "KLWA", "KLWB", "KLWC", "KLWD", "KLWM", "KLWS", "KLWT", "KLWV", "KLXL", "KLXN", "KLXT", "KLXV", "KLXY", "KLYH", "KLYO", "KLYV", "KLZU", "KLZZ", "KM01", "KM02", "KM04", "KM08", "KM19", "KM21", "KM25", "KM30", "KM40", "KM54", "KM75", "KM91", "KMAF", "KMAN", "KMAO", "KMAW", "KMBG", "KMBL", "KMBO", "KMBS", "KMBT", "KMBY", "KMCB", "KMCC", "KMCD", "KMCE", "KMCF", "KMCI", "KMCJ", "KMCK", "KMCN", "KMCO", "KMCW", "KMCX", "KMCZ", "KMDD", "KMDH", "KMDQ", "KMDS", "KMDT", "KMDW", "KMDZ", "KMEB", "KMEH", "KMEI", "KMEM", "KMER", "KMEV", "KMEZ", "KMFD", "KMFE", "KMFI", "KMFR", "KMGC", "KMGE", "KMGG", "KMGJ", "KMGM", "KMGN", "KMGR", "KMGW", "KMGY", "KMHE", "KMHK", "KMHL", "KMHP", "KMHR", "KMHS", "KMHT", "KMHV", "KMIA", "KMIB", "KMIC", "KMIE", "KMIO", "KMIV", "KMIW", "KMJD", "KMJQ", "KMKC", "KMKE", "KMKG", "KMKJ", "KMKL", "KMKN", "KMKO", "KMKS", "KMKT", "KMLB", "KMLC", "KMLE", "KMLF", "KMLI", "KMLJ", "KMLP", "KMLS", "KMLT", "KMLU", "KMMH", "KMMI", "KMMK", "KMML", "KMMT", "KMMU", "KMMV", "KMNE", "KMNH", "KMNI", "KMNM", "KMNN", "KMNV", "KMNZ", "KMOB", "KMOD", "KMOP", "KMOT", "KMOX", "KMPO", "KMPR", "KMPV", "KMPZ", "KMQB", "KMQI", "KMQJ", "KMQS", "KMQW", "KMQY", "KMRB", "KMRC", "KMRF", "KMRH", "KMRJ", "KMRN", "KMRT", "KMRY", "KMSL", "KMSN", "KMSO", "KMSP", "KMSS", "KMSV", "KMSY", "KMTC", "KMTH", "KMTJ", "KMTK", "KMTN", "KMTO", "KMTP", "KMTV", "KMTW", "KMUI", "KMUO", "KMUT", "KMVE", "KMVH", "KMVL", "KMVN", "KMVY", "KMWA", "KMWH", "KMWK", "KMWL", "KMWM", "KMWN", "KMWO", "KMWT", "KMXF", "KMYF", "KMYJ", "KMYL", "KMYP", "KMYR", "KMYV", "KMYZ", "KMZH", "KMZZ", "KN03", "KN38", "KN60", "KN79", "KNAK", "KNBC", "KNBG", "KNBT", "KNCA", "KNDZ", "KNEL", "KNEW", "KNFE", "KNFG", "KNFL", "KNFW", "KNGP", "KNGU", "KNHK", "KNID", "KNIP", "KNJK", "KNJM", "KNJW", "KNKT", "KNKX", "KNLC", "KNMM", "KNOG", "KNOW", "KNOZ", "KNPA", "KNQA", "KNQI", "KNQX", "KNRB", "KNRN", "KNRS", "KNSE", "KNSI", "KNTD", "KNTU", "KNUC", "KNUI", "KNUQ", "KNUW", "KNXP", "KNY0", "KNYC", "KNYG", "KNYL", "KNZY", "KO05", "KO22", "KO32", "KO69", "KO86", "KOAJ", "KOAK", "KOAR", "KOBE", "KOCF", "KOCH", "KOCQ", "KOCW", "KODO", "KODX", "KOEB", "KOEL", "KOEO", "KOFF", "KOFK", "KOFP", "KOGA", "KOGB", "KOGD", "KOGS", "KOIC", "KOIN", "KOJA", "KOJC", "KOKB", "KOKC", "KOKK", "KOKM", "KOKV", "KOKZ", "KOLE", "KOLF", "KOLG", "KOLM", "KOLS", "KOLU", "KOLV", "KOLY", "KOLZ", "KOMA", "KOMH", "KOMK", "KONA", "KONL", "KONM", "KONO", "KONP", "KONT", "KONX", "KONZ", "KOOA", "KOPF", "KOPL", "KOPN", "KOQN", "KOQT", "KORB", "KORD", "KORE", "KORF", "KORG", "KORH", "KORK", "KORL", "KORS", "KOSA", "KOSC", "KOSU", "KOTG", "KOTH", "KOTM", "KOUN", "KOVL", "KOVS", "KOWA", "KOWB", "KOWD", "KOWI", "KOWP", "KOWX", "KOXB", "KOXC", "KOXD", "KOXI", "KOXR", "KOXV", "KOYM", "KOZA", "KOZR", "KOZS", "KOZW", "KP08", "KP28", "KP52", "KP53", "KP58", "KP59", "KP60", "KP68", "KP69", "KPAE", "KPAH", "KPAM", "KPAN", "KPBF", "KPBG", "KPBH", "KPBI", "KPBX", "KPCD", "KPCM", "KPCW", "KPCZ", "KPDC", "KPDK", "KPDT", "KPDX", "KPEA", "KPEO", "KPEQ", "KPEX", "KPEZ", "KPGA", "KPGD", "KPGV", "KPHD", "KPHF", "KPHL", "KPHN", "KPHP", "KPHT", "KPHX", "KPIA", "KPIB", "KPIE", "KPIH", "KPIL", "KPIM", "KPIR", "KPIT", "KPJC", "KPKB", "KPKD", "KPKV", "KPLN", "KPLR", "KPLU", "KPMD", "KPMH", "KPMP", "KPMU", "KPMV", "KPNA", "KPNC", "KPNE", "KPNM", "KPNS", "KPNT", "KPO1", "KPOB", "KPOE", "KPOF", "KPOU", "KPOV", "KPOY", "KPPA", "KPPF", "KPPO", "KPPQ", "KPQI", "KPQL", "KPRB", "KPRC", "KPRG", "KPRN", "KPRO", "KPRS", "KPRX", "KPSC", "KPSF", "KPSK", "KPSM", "KPSN", "KPSO", "KPSP", "KPSX", "KPTB", "KPTD", "KPTK", "KPTN", "KPTS", "KPTT", "KPTV", "KPTW", "KPUB", "KPUC", "KPUJ", "KPUW", "KPVB", "KPVC", "KPVD", "KPVE", "KPVF", "KPVG", "KPVJ", "KPVU", "KPVW", "KPWA", "KPWC", "KPWD", "KPWG", "KPWM", "KPWT", "KPXE", "KPYM", "KPYX", "KPZQ", "KQAZ", "KQBL", "KQBR", "KQD3", "KQDG", "KQEI", "KQEJ", "KQEN", "KQEP", "KQEQ", "KQER", "KQES", "KQEV", "KQEW", "KQEX", "KQEY", "KQFB", "KQFT", "KQFU", "KQFV", "KQFW", "KQFX", "KQHY", "KQN3", "KQRH", "KQTZ", "KQVF", "KRAC", "KRAL", "KRAP", "KRAS", "KRAW", "KRBD", "KRBG", "KRBL", "KRBO", "KRBW", "KRCA", "KRCE", "KRCM", "KRCR", "KRCV", "KRCX", "KRCZ", "KRDD", "KRDG", "KRDK", "KRDM", "KRDR", "KRDU", "KREG", "KREO", "KRFD", "KRFI", "KRGA", "KRGK", "KRHI", "KRHP", "KRIC", "KRID", "KRIL", "KRIV", "KRIW", "KRKD", "KRKP", "KRKR", "KRKS", "KRKW", "KRLD", "KRME", "KRMG", "KRMN", "KRMY", "KRNC", "KRND", "KRNH", "KRNM", "KRNO", "KRNP", "KRNT", "KROA", "KROC", "KROG", "KROS", "KROW", "KROX", "KRPD", "KRPH", "KRPJ", "KRPX", "KRQB", "KRQE", "KRQO", "KRRL", "KRRT", "KRSL", "KRSN", "KRSP", "KRST", "KRSW", "KRTN", "KRTS", "KRUE", "KRUG", "KRUQ", "KRUT", "KRVF", "KRVJ", "KRVL", "KRVS", "KRWF", "KRWI", "KRWL", "KRWV", "KRXE", "KRYM", "KRYN", "KRYW", "KRYY", "KRZL", "KRZN", "KRZR", "KRZT", "KS21", "KS24", "KS25", "KS32", "KS33", "KS39", "KS52", "KS71", "KS85", "KSAA", "KSAC", "KSAD", "KSAF", "KSAN", "KSAR", "KSAT", "KSAV", "KSAW", "KSAZ", "KSBA", "KSBD", "KSBM", "KSBN", "KSBO", "KSBP", "KSBS", "KSBY", "KSCD", "KSCK", "KSCR", "KSCX", "KSDA", "KSDB", "KSDC", "KSDF", "KSDL", "KSDY", "KSEA", "KSEE", "KSEF", "KSEG", "KSEM", "KSEP", "KSEQ", "KSET", "KSEZ", "KSFB", "KSFF", "KSFM", "KSFO", "KSFQ", "KSFZ", "KSGF", "KSGH", "KSGJ", "KSGR", "KSGS", "KSGT", "KSGU", "KSHD", "KSHL", "KSHM", "KSHN", "KSHR", "KSHV", "KSIF", "KSIK", "KSIY", "KSJC", "KSJS", "KSJT", "KSJX", "KSKA", "KSKF", "KSKX", "KSLB", "KSLC", "KSLE", "KSLG", "KSLH", "KSLI", "KSLK", "KSLN", "KSLO", "KSLR", "KSMD", "KSME", "KSMF", "KSMN", "KSMO", "KSMP", "KSMQ", "KSMS", "KSMX", "KSNA", "KSNC", "KSNH", "KSNK", "KSNS", "KSNT", "KSNY", "KSOA", "KSOP", "KSOW", "KSPA", "KSPB", "KSPD", "KSPF", "KSPG", "KSPI", "KSPK", "KSPS", "KSPW", "KSQI", "KSQL", "KSRB", "KSRC", "KSRE", "KSRQ", "KSRR", "KSSC", "KSSF", "KSSI", "KSTC", "KSTE", "KSTF", "KSTJ", "KSTK", "KSTL", "KSTP", "KSTS", "KSUA", "KSUE", "KSUN", "KSUS", "KSUT", "KSUU", "KSUW", "KSUX", "KSUZ", "KSVC", "KSVE", "KSVH", "KSVN", "KSWF", "KSWO", "KSWW", "KSXK", "KSXS", "KSXT", "KSXU", "KSYF", "KSYI", "KSYM", "KSYN", "KSYR", "KSZL", "KSZT", "KSZY", "KT20", "KT35", "KT41", "KT69", "KT70", "KT74", "KT78", "KT82", "KT89", "KTAD", "KTAN", "KTAZ", "KTBN", "KTBR", "KTBX", "KTCC", "KTCL", "KTCM", "KTCS", "KTCY", "KTDF", "KTDR", "KTDZ", "KTEB", "KTEW", "KTEX", "KTFP", "KTGI", "KTHA", "KTHV", "KTIF", "KTIK", "KTIP", "KTIW", "KTKC", "KTKI", "KTKV", "KTKX", "KTLH", "KTMB", "KTME", "KTMK", "KTMT", "KTNB", "KTNU", "KTOB", "KTOC", "KTOI", "KTOL", "KTOP", "KTOR", "KTPA", "KTPF", "KTPH", "KTPL", "KTQE", "KTQH", "KTQK", "KTQV", "KTRI", "KTRK", "KTRL", "KTRM", "KTSP", "KTTA", "KTTD", "KTTF", "KTTN", "KTTS", "KTUL", "KTUP", "KTUS", "KTVC", "KTVF", "KTVI", "KTVK", "KTVL", "KTVR", "KTVY", "KTWF", "KTWM", "KTWT", "KTXK", "KTXW", "KTYL", "KTYQ", "KTYR", "KTYS", "KTZR", "KU42", "KU55", "KU64", "KU68", "KU69", "KUAO", "KUBE", "KUCP", "KUCY", "KUDG", "KUES", "KUGN", "KUIL", "KUIN", "KUKF", "KUKI", "KUKL", "KUKT", "KULM", "KULS", "KUMP", "KUNI", "KUNO", "KUNU", "KUNV", "KUOX", "KUSE", "KUTA", "KUTS", "KUUU", "KUUV", "KUVA", "KUXL", "KUYF", "KUZA", "KVAD", "KVAY", "KVBG", "KVBT", "KVBW", "KVCB", "KVCT", "KVCV", "KVDF", "KVDI", "KVEL", "KVER", "KVES", "KVGC", "KVGT", "KVHN", "KVIH", "KVIS", "KVJI", "KVKS", "KVKY", "KVLD", "KVLL", "KVNC", "KVNW", "KVNY", "KVOA", "KVOK", "KVPC", "KVPS", "KVPZ", "KVQQ", "KVRB", "KVSF", "KVTA", "KVTI", "KVTN", "KVTP", "KVUJ", "KVVS", "KVVV", "KVWU", "KVYS", "KW13", "KW22", "KW29", "KW31", "KW40", "KW43", "KW63", "KW75", "KW78", "KW81", "KW96", "KWAL", "KWBF", "KWDG", "KWDR", "KWJF", "KWLD", "KWMC", "KWRB", "KWRI", "KWRL", "KWST", "KWVI", "KWVL", "KWWD", "KWWR", "KX07", "KX26", "KX60", "KXBP", "KXLL", "KXMR", "KXNA", "KXNO", "KXNX", "KXSA", "KXVG", "KXWA", "KY19", "KY23", "KY31", "KY49", "KY50", "KY51", "KY63", "KY70", "KYIP", "KYKM", "KYKN", "KYNG", "KZER", "KZPH", "KZZV", "LATI", "LBBG", "LBGO", "LBIA", "LBPD", "LBPG", "LBPL", "LBSF", "LBWB", "LBWN", "LCEN", "LCLK", "LCPH", "LCRA", "LDDU", "LDLO", "LDOS", "LDPL", "LDRI", "LDSP", "LDZA", "LDZD", "LEAB", "LEAG", "LEAL", "LEAM", "LEAO", "LEAS", "LEBA", "LEBB", "LEBG", "LEBL", "LEBR", "LEBT", "LEBZ", "LECH", "LECO", "LECV", "LEDA", "LEEC", "LEGA", "LEGE", "LEGR", "LEGT", "LEHC", "LEIB", "LEJR", "LELC", "LELL", "LELN", "LELO", "LEMD", "LEMG", "LEMH", "LEMI", "LEMO", "LEPA", "LEPP", "LERI", "LERS", "LERT", "LESA", "LESB", "LESO", "LEST", "LESU", "LETL", "LETO", "LETU", "LEVC", "LEVD", "LEVS", "LEVT", "LEVX", "LEXJ", "LEZG", "LEZL", "LFAC", "LFAQ", "LFAT", "LFBA", "LFBC", "LFBD", "LFBE", "LFBF", "LFBG", "LFBH", "LFBI", "LFBL", "LFBM", "LFBO", "LFBP", "LFBT", "LFBU", "LFBX", "LFBY", "LFBZ", "LFCK", "LFCR", "LFGA", "LFGJ", "LFHP", "LFJL", "LFJR", "LFKB", "LFKC", "LFKF", "LFKJ", "LFKS", "LFLB", "LFLC", "LFLH", "LFLL", "LFLN", "LFLP", "LFLS", "LFLU", "LFLV", "LFLW", "LFLX", "LFLY", "LFMC", "LFMD", "LFMH", "LFMI", "LFMK", "LFML", "LFMN", "LFMO", "LFMP", "LFMT", "LFMU", "LFMV", "LFMY", "LFOA", "LFOB", "LFOE", "LFOH", "LFOJ", "LFOK", "LFOP", "LFOT", "LFOV", "LFOZ", "LFPB", "LFPG", "LFPM", "LFPN", "LFPO", "LFPT", "LFPV", "LFQA", "LFQB", "LFQG", "LFQQ", "LFRB", "LFRC", "LFRD", "LFRG", "LFRH", "LFRI", "LFRJ", "LFRK", "LFRL", "LFRM", "LFRN", "LFRO", "LFRQ", "LFRS", "LFRT", "LFRU", "LFRV", "LFRZ", "LFSB", "LFSD", "LFSG", "LFSI", "LFSL", "LFSM", "LFSN", "LFSO", "LFST", "LFSX", "LFTH", "LFTW", "LFVP", "LFYR", "LGAD", "LGAL", "LGAV", "LGBL", "LGEL", "LGHI", "LGIO", "LGIR", "LGKC", "LGKF", "LGKL", "LGKO", "LGKP", "LGKR", "LGKV", "LGKZ", "LGLM", "LGMK", "LGMT", "LGNX", "LGPA", "LGPZ", "LGRP", "LGRX", "LGSA", "LGSK", "LGSM", "LGSO", "LGSR", "LGTS", "LGZA", "LHBP", "LHDC", "LHKE", "LHPA", "LHPP", "LHPR", "LHSM", "LHSN", "LIBA", "LIBC", "LIBD", "LIBF", "LIBG", "LIBN", "LIBP", "LIBQ", "LIBR", "LIBV", "LIBY", "LICA", "LICB", "LICC", "LICD", "LICF", "LICG", "LICJ", "LICR", "LICT", "LICZ", "LIEA", "LIEB", "LIED", "LIEE", "LIEO", "LIMA", "LIMC", "LIME", "LIMF", "LIMG", "LIMH", "LIMJ", "LIMK", "LIML", "LIMN", "LIMP", "LIMS", "LIMU", "LIMV", "LIMW", "LIMZ", "LIPA", "LIPB", "LIPC", "LIPE", "LIPF", "LIPH", "LIPI", "LIPK", "LIPL", "LIPO", "LIPQ", "LIPR", "LIPS", "LIPU", "LIPX", "LIPY", "LIPZ", "LIQC", "LIQN", "LIQW", "LIRA", "LIRE", "LIRF", "LIRG", "LIRH", "LIRI", "LIRK", "LIRL", "LIRM", "LIRN", "LIRP", "LIRQ", "LIRS", "LIRT", "LIRU", "LIRV", "LIRX", "LIRZ", "LIVC", "LIVD", "LIVE", "LIVF", "LIVM", "LIVO", "LIVP", "LIVR", "LIVT", "LJCE", "LJLJ", "LJMB", "LJPZ", "LKCV", "LKKB", "LKKU", "LKKV", "LKLN", "LKMT", "LKNA", "LKPD", "LKPR", "LKTB", "LKVO", "LLBG", "LLER", "LLHA", "LLIB", "LMML", "LOAN", "LOAV", "LOWG", "LOWI", "LOWK", "LOWL", "LOWS", "LOWW", "LOXZ", "LPAR", "LPAZ", "LPBJ", "LPCS", "LPFL", "LPFR", "LPHR", "LPLA", "LPMA", "LPMR", "LPMT", "LPOV", "LPPD", "LPPR", "LPPS", "LPPT", "LPST", "LQBK", "LQMO", "LQSA", "LQTZ", "LRAR", "LRBC", "LRBM", "LRBS", "LRCK", "LRCL", "LRCV", "LRIA", "LROD", "LROP", "LRSB", "LRSM", "LRSV", "LRTC", "LRTM", "LRTR", "LSGC", "LSGG", "LSGS", "LSMA", "LSMD", "LSME", "LSMM", "LSMP", "LSZA", "LSZB", "LSZG", "LSZH", "LSZL", "LSZR", "LSZS", "LTAC", "LTAE", "LTAF", "LTAG", "LTAI", "LTAJ", "LTAL", "LTAN", "LTAP", "LTAR", "LTAS", "LTAT", "LTAU", "LTAW", "LTAY", "LTAZ", "LTBA", "LTBD", "LTBF", "LTBH", "LTBJ", "LTBO", "LTBQ", "LTBR", "LTBS", "LTBU", "LTBY", "LTCA", "LTCB", "LTCC", "LTCD", "LTCE", "LTCF", "LTCG", "LTCI", "LTCJ", "LTCK", "LTCL", "LTCM", "LTCN", "LTCO", "LTCP", "LTCR", "LTCS", "LTCT", "LTCU", "LTCV", "LTCW", "LTDA", "LTFB", "LTFC", "LTFD", "LTFE", "LTFG", "LTFH", "LTFJ", "LTFK", "LTFM", "LTFO", "LUBM", "LUKK", "LWOH", "LWSK", "LXGB", "LYBE", "LYBT", "LYKV", "LYNI", "LYPG", "LYTV", "LYVR", "LZIB", "LZKZ", "LZPP", "LZTT", "LZZI", "MBPV", "MDPC", "MDSD", "MDST", "MGGT", "MGHT", "MGPB", "MHLM", "MHPR", "MHTG", "MKJP", "MKJS", "MMAA", "MMAS", "MMGL", "MMHO", "MMLO", "MMMD", "MMMM", "MMMX", "MMMY", "MMMZ", "MMQT", "MMSP", "MMTJ", "MMTO", "MMTP", "MMUN", "MMVA", "MMZC", "MNMG", "MPMG", "MPTO", "MROC", "MSLP", "MTPP", "MUCC", "MUCF", "MUCL", "MUCM", "MUCU", "MUGM", "MUHA", "MUHG", "MUSC", "MUVR", "MYCB", "MYGF", "MYNN", "MYSM", "NCAI", "NCAT", "NCMG", "NCMH", "NCMK", "NCMR", "NCNS", "NCPK", "NCPL", "NCPY", "NCRG", "NCRK", "NCSW", "NFFN", "NFNA", "NFTF", "NGFU", "NGTA", "NIUE", "NLWW", "NSFA", "NSTU", "NTAA", "NVVV", "NWWW", "NZAA", "NZCH", "NZCM", "NZWN", "OBBI", "OEAB", "OEAH", "OEAO", "OEBA", "OEBH", "OEDF", "OEDM", "OEDR", "OEGN", "OEGS", "OEGT", "OEHL", "OEJB", "OEJN", "OEKJ", "OEKM", "OEMA", "OEMN", "OENG", "OEPA", "OEPS", "OERF", "OERK", "OERR", "OESH", "OESK", "OETB", "OETF", "OETR", "OEWD", "OEWJ", "OEYN", "OIAA", "OIAG", "OIAH", "OIAI", "OIAM", "OIAW", "OIBA", "OIBB", "OIBH", "OIBJ", "OIBK", "OIBL", "OIBP", "OIBQ", "OIBS", "OIBV", "OICC", "OICI", "OICJ", "OICK", "OICM", "OICS", "OIFK", "OIFM", "OIFS", "OIGG", "OIGK", "OIHH", "OIHM", "OIIE", "OIII", "OIIK", "OIIP", "OIKB", "OIKK", "OIKO", "OIKQ", "OIMB", "OIMC", "OIMD", "OIMJ", "OIMM", "OIMN", "OIMQ", "OIMS", "OIMT", "OINB", "OINE", "OING", "OINK", "OINN", "OINR", "OINZ", "OISA", "OISF", "OISL", "OISR", "OISS", "OISY", "OITK", "OITL", "OITM", "OITP", "OITR", "OITT", "OITZ", "OIYY", "OIZB", "OIZC", "OIZH", "OIZI", "OIZJ", "OJAI", "OJAM", "OJAQ", "OKAS", "OKKK", "OLBA", "OMAA", "OMAD", "OMAL", "OMDB", "OMDW", "OMFJ", "OMRK", "OMSJ", "OOAD", "OODQ", "OOKB", "OOMS", "OOSA", "OOSH", "OPFA", "OPIS", "OPKC", "OPLA", "OPMT", "OPNH", "OPPS", "OPSK", "OPST", "ORBI", "ORER", "ORMM", "ORNI", "ORSU", "OSAP", "OSDI", "OSLK", "OTBD", "OTBH", "OTHH", "PAAD", "PAAK", "PAAQ", "PABA", "PABE", "PABI", "PABL", "PABR", "PABT", "PABV", "PACD", "PACM", "PACV", "PACZ", "PADK", "PADL", "PADM", "PADQ", "PADU", "PAED", "PAEG", "PAEH", "PAEI", "PAEN", "PAFA", "PAFB", "PAFE", "PAFM", "PAFR", "PAFS", "PAGK", "PAGL", "PAGN", "PAGS", "PAGY", "PAHC", "PAHL", "PAHN", "PAHO", "PAHY", "PAIG", "PAIK", "PAIL", "PAIM", "PAIN", "PAIW", "PAJC", "PAJN", "PAJZ", "PAKF", "PAKH", "PAKI", "PAKN", "PAKP", "PAKT", "PAKV", "PAKW", "PAKX", "PALG", "PALH", "PALU", "PAMB", "PAMC", "PAMH", "PAMK", "PAMM", "PAMO", "PAMR", "PAMY", "PANA", "PANC", "PANV", "PANW", "PAOH", "PAOM", "PAOO", "PAOR", "PAOT", "PAOU", "PAPB", "PAPG", "PAPH", "PAPM", "PAPN", "PAPO", "PAQT", "PARC", "PARY", "PASC", "PASD", "PASI", "PASK", "PASL", "PASM", "PASN", "PASO", "PASV", "PASX", "PASY", "PATA", "PATC", "PATE", "PATG", "PATK", "PATL", "PATO", "PATQ", "PAUN", "PAVC", "PAVD", "PAVL", "PAWD", "PAWI", "PAWM", "PAWN", "PAWS", "PAYA", "PAZK", "PFCL", "PFEL", "PFKT", "PFKW", "PFNO", "PFSH", "PFWS", "PFYU", "PGSN", "PGUA", "PGUM", "PGWT", "PHBK", "PHHI", "PHJR", "PHKO", "PHLI", "PHMK", "PHNG", "PHNL", "PHNY", "PHOG", "PHSF", "PHTO", "PKMR", "PKWA", "PLCH", "PMDY", "PPIZ", "PTKK", "PTPN", "PTRO", "PTTP", "PTYA", "PWAK", "RCFN", "RCKH", "RCMQ", "RCNN", "RCSS", "RCTP", "RJAA", "RJAH", "RJBB", "RJBD", "RJBE", "RJCB", "RJCC", "RJCH", "RJCK", "RJCM", "RJCO", "RJDB", "RJDC", "RJDT", "RJEC", "RJFE", "RJFF", "RJFK", "RJFM", "RJFO", "RJFR", "RJFS", "RJFT", "RJFU", "RJGG", "RJKA", "RJKI", "RJNK", "RJNS", "RJNT", "RJNW", "RJOA", "RJOB", "RJOC", "RJOF", "RJOH", "RJOI", "RJOK", "RJOM", "RJOO", "RJOR", "RJOS", "RJOT", "RJOW", "RJOY", "RJSA", "RJSC", "RJSF", "RJSI", "RJSK", "RJSM", "RJSN", "RJSR", "RJSS", "RJSY", "RJTT", "RJTY", "RKJB", "RKJK", "RKNY", "RKPC", "RKPK", "RKSG", "RKSI", "RKSM", "RKSO", "RKSS", "RKTN", "RKTP", "RKTU", "ROAH", "RODN", "ROIG", "ROMD", "ROMY", "RORK", "RORS", "RORT", "RORY", "ROYN", "RPLB", "RPLC", "RPLI", "RPLL", "RPMD", "RPMZ", "RPVM", "RPVP", "SAAR", "SABE", "SACO", "SADF", "SAEZ", "SAME", "SANT", "SAOC", "SARC", "SARE", "SARF", "SARI", "SARL", "SARP", "SASA", "SASJ", "SAVC", "SAWE", "SAWG", "SAWH", "SAZM", "SAZN", "SAZS", "SBAF", "SBAN", "SBAR", "SBAX", "SBBE", "SBBG", "SBBH", "SBBI", "SBBR", "SBBU", "SBBV", "SBCB", "SBCF", "SBCG", "SBCH", "SBCJ", "SBCO", "SBCP", "SBCT", "SBCY", "SBDN", "SBEG", "SBES", "SBFI", "SBFL", "SBFN", "SBFS", "SBFZ", "SBGL", "SBGO", "SBGR", "SBGW", "SBHT", "SBIL", "SBIP", "SBIZ", "SBJP", "SBJR", "SBJU", "SBJV", "SBKG", "SBKP", "SBLB", "SBLE", "SBLO", "SBLS", "SBMA", "SBME", "SBMG", "SBMK", "SBMN", "SBMO", "SBMQ", "SBMT", "SBNF", "SBNT", "SBOI", "SBPA", "SBPB", "SBPF", "SBPJ", "SBPK", "SBPL", "SBPS", "SBPV", "SBRB", "SBRF", "SBRJ", "SBRP", "SBSC", "SBSG", "SBSJ", "SBSL", "SBSM", "SBSN", "SBSP", "SBSR", "SBSV", "SBTA", "SBTE", "SBTU", "SBUL", "SBUR", "SBVT", "SBYS", "SCAR", "SCAT", "SCBA", "SCCF", "SCCH", "SCCI", "SCCY", "SCDA", "SCEL", "SCFA", "SCFT", "SCHR", "SCIC", "SCIE", "SCIP", "SCJO", "SCMK", "SCON", "SCPD", "SCPQ", "SCQP", "SCRM", "SCSE", "SCSN", "SCTE", "SCTN", "SCVD", "SCVM", "SEGU", "SEMT", "SEQM", "SGAS", "SGEN", "SGES", "SKBO", "SKBQ", "SKCC", "SKCG", "SKCL", "SKLT", "SKPE", "SKRG", "SKSP", "SLAL", "SLCA", "SLCB", "SLCO", "SLCP", "SLET", "SLJV", "SLLP", "SLRI", "SLSA", "SLTJ", "SLTR", "SLUY", "SLVM", "SLVR", "SMJP", "SMZO", "SOCA", "SPHI", "SPHO", "SPJC", "SPJR", "SPQT", "SPRU", "SPSO", "SPUR", "SPZO", "SUAA", "SUCA", "SULS", "SUMU", "SUSO", "SVBC", "SVBI", "SVBM", "SVBS", "SVCB", "SVCS", "SVFM", "SVGD", "SVGU", "SVJM", "SVLO", "SVMC", "SVMG", "SVMI", "SVMT", "SVPA", "SVPR", "SVSA", "SVSR", "SVVA", "SVVL", "SYCJ", "TAPA", "TBPB", "TFFF", "TFFR", "TGPY", "TIST", "TISX", "TJNR", "TJPS", "TJSJ", "TKPK", "TLPL", "TNCA", "TNCB", "TNCC", "TNCE", "TNCM", "TRPG", "TTCP", "TTPP", "TVSA", "TXKF", "UAAA", "UAAH", "UAAT", "UACC", "UACK", "UACP", "UADD", "UAII", "UAIT", "UAKD", "UAKK", "UAOO", "UARR", "UASK", "UASP", "UASS", "UATE", "UATG", "UATT", "UAUU", "UBBB", "UBBF", "UBBG", "UBBL", "UBBN", "UBBQ", "UBBY", "UBBZ", "UBEE", "UCFL", "UCFM", "UCFO", "UDSG", "UDYZ", "UEEE", "UERP", "UERR", "UGAM", "UGKO", "UGMS", "UGSB", "UGTB", "UHBB", "UHHH", "UHMA", "UHMM", "UHPP", "UHSS", "UHWW", "UIAA", "UIBB", "UIII", "UIUU", "ULAA", "ULLI", "ULMM", "ULOO", "ULPB", "ULWC", "UMBB", "UMGG", "UMII", "UMIO", "UMKK", "UMMG", "UMMS", "UMOO", "UNAA", "UNBB", "UNEE", "UNKL", "UNNT", "UNOO", "UNTT", "UNWW", "UOOO", "URKA", "URKK", "URMG", "URML", "URMM", "URMN", "URMO", "URMT", "URRP", "URSS", "URWA", "URWI", "URWW", "USCC", "USCM", "USDA", "USHH", "USNN", "USPP", "USRR", "USSS", "USTR", "UTAA", "UTAK", "UTAM", "UTAT", "UTAV", "UTDD", "UTDK", "UTDL", "UTDT", "UTFF", "UTFN", "UTNN", "UTNU", "UTO8", "UTSA", "UTSB", "UTSK", "UTSS", "UTST", "UTTT", "UUBC", "UUBP", "UUBW", "UUDD", "UUDL", "UUEE", "UUMO", "UUOB", "UUOK", "UUOL", "UUOO", "UUWW", "UUYY", "UWGG", "UWKD", "UWKE", "UWKS", "UWLL", "UWLW", "UWOO", "UWOR", "UWPS", "UWSG", "UWUU", "UWWW", "VAAH", "VABB", "VABO", "VABP", "VADU", "VAID", "VAJB", "VAJJ", "VAJL", "VAKP", "VANP", "VARK", "VASD", "VASU", "VAUD", "VCBI", "VCRI", "VDPP", "VDSR", "VDSV", "VEAT", "VEBI", "VEBN", "VEBS", "VEBU", "VECC", "VECO", "VEDG", "VEDO", "VEGT", "VEGY", "VEIM", "VEJH", "VEJR", "VEJS", "VEKI", "VELP", "VELR", "VEMN", "VEPT", "VERC", "VERK", "VERP", "VERU", "VGHS", "VHHH", "VIDN", "VIJP", "VILK", "VIPT", "VLLB", "VLLN", "VLPS", "VLSK", "VLVT", "VMMC", "VNKT", "VOBL", "VOCI", "VOCL", "VOCP", "VOGA", "VOHB", "VOJV", "VOKN", "VOMM", "VRMG", "VRMH", "VRMM", "VTBD", "VTBO", "VTBS", "VTBU", "VTCC", "VTCH", "VTCL", "VTCN", "VTCP", "VTCT", "VTPB", "VTPH", "VTPM", "VTPO", "VTPP", "VTPT", "VTSB", "VTSC", "VTSE", "VTSF", "VTSG", "VTSM", "VTSP", "VTSR", "VTSS", "VTST", "VTSY", "VTUD", "VTUI", "VTUK", "VTUL", "VTUO", "VTUQ", "VTUU", "VTUV", "VTUW", "VVCI", "VVCR", "VVCT", "VVDN", "VVNB", "VVPB", "VVPQ", "VVTS", "VVVD", "VYMD", "VYNT", "VYYY", "WAAA", "WABB", "WADD", "WADL", "WAHS", "WAJJ", "WALL", "WAMM", "WAOO", "WAPP", "WARR", "WATT", "WBGB", "WBGG", "WBGR", "WBGS", "WBGY", "WBKK", "WBKL", "WBKS", "WBKT", "WBKW", "WBSB", "WIBB", "WIDD", "WIDN", "WIEE", "WIHH", "WIII", "WILL", "WIMM", "WIOO", "WIPP", "WMAU", "WMBA", "WMKA", "WMKB", "WMKC", "WMKD", "WMKE", "WMKI", "WMKJ", "WMKK", "WMKL", "WMKM", "WMKN", "WMKP", "WMSA", "WSAP", "WSSL", "WSSS", "YAMB", "YBAS", "YBBN", "YBCG", "YBCS", "YBHM", "YBLN", "YBMA", "YBRK", "YBRM", "YBSU", "YBTL", "YBWW", "YCFS", "YCIN", "YFRT", "YGEL", "YGLA", "YHID", "YLHI", "YMAV", "YMHB", "YMLT", "YMML", "YPAD", "YPCC", "YPDN", "YPEA", "YPGV", "YPJT", "YPKG", "YPKU", "YPLM", "YPPD", "YPPH", "YPTN", "YPWR", "YPXM", "YSCB", "YSDU", "YSNF", "YSRI", "YSSY", "YSTW", "YWLM", "ZBAA", "ZBAD", "ZBHH", "ZBSJ", "ZBTJ", "ZBYN", "ZGGG", "ZGHA", "ZGKL", "ZGNN", "ZGOW", "ZGSZ", "ZHCC", "ZHHH", "ZJHK", "ZJSY", "ZLLL", "ZLXY", "ZMCK", "ZMUB", "ZPPP", "ZSAM", "ZSFZ", "ZSHC", "ZSNB", "ZSNJ", "ZSOF", "ZSPD", "ZSQD", "ZSSS", "ZUCK", "ZUGY", "ZUTF", "ZUUU", "ZWSH", "ZWWW", "ZYCC", "ZYHB", "ZYTL", "ZYTX"], "observation_time": ["2023-04-28T10:00:00Z", "2023-04-28T10:00:00Z", "2023-04-28T09:50:00Z", "2023-04-28T09:50:00Z", "2023-04-28T09:50:00Z", "2023-04-28T09:50:00Z", "2023-04-28T09:50:00Z", "2023-04-28T09:55:00Z", "2023-04-28T10:00:00Z", "2023-04-28T10:00:00Z", "2023-04-28T10:00:00Z", "2023-04-28T10:00:00Z", "2023-04-28T10:00:00Z", "2023-04-28T10:10:00Z", "2023-04-28T10:00:00Z", "2023-04-28T10:30:00Z", "2023-04-28T10:00:00Z", "2023-04-28T10:00:00Z", "2023-04-28T09:55:00Z", "2023-04-28T10:30:00Z", "2023-04-28T10:00:00Z", "2023-04-28T10:00:00Z", "2023-04-28T10:00:00Z", "2023-04-28T10:00:00Z", "2023-04-28T10:00:00Z", "2023-04-28T10:00:00Z", "2023-04-28T10:00:00Z", "2023-04-28T10:00:00Z", "2023-04-28T10:00:00Z", "2023-04-28T10:00:00Z", "2023-04-28T10:00:00Z", "2023-04-28T10:00:00Z", "2023-04-28T10:00:00Z", "2023-04-28T10:00:00Z", "2023-04-28T10:00:00Z", "2023-04-28T10:00:00Z", "2023-04-28T10:00:00Z", "2023-04-28T10:00:00Z", "2023-04-28T10:00:00Z", "2023-04-28T10:00:00Z", "2023-04-28T10:00:00Z", "2023-04-28T10:00:00Z", "2023-04-28T10:00:00Z", "2023-04-28T10:00:00Z", "2023-04-28T10:00:00Z", "2023-04-28T10:00:00Z", "2023-04-28T10:00:00Z", "2023-04-28T10:00:00Z", "2023-04-28T10:00:00Z", "2023-04-28T10:00:00Z", "2023-04-28T10:00:00Z", "2023-04-28T10:00:00Z", "2023-04-28T10:00:00Z", "2023-04-28T10:00:00Z", "2023-04-28T10:00:00Z", "2023-04-28T10:00:00Z", "2023-04-28T10:00:00Z", "2023-04-28T10:00:00Z", "2023-04-28T10:00:00Z", "2023-04-28T10:00:00Z", "2023-04-28T10:00:00Z", "2023-04-28T10:00:00Z", "2023-04-28T10:00:00Z", "2023-04-28T10:00:00Z", "2023-04-28T10:00:00Z", "2023-04-28T10:00:00Z", "2023-04-28T10:00:00Z", "2023-04-28T10:00:00Z", "2023-04-28T10:00:00Z", "2023-04-28T10:00:00Z", "2023-04-28T10:30:00Z", "2023-04-28T10:00:00Z", "2023-04-28T10:00:00Z", "2023-04-28T10:00:00Z", "2023-04-28T10:00:00Z", "2023-04-28T10:00:00Z", "2023-04-28T10:00:00Z", "2023-04-28T10:00:00Z", "2023-04-28T10:00:00Z", "2023-04-28T10:00:00Z", "2023-04-28T10:00:00Z", "2023-04-28T10:00:00Z", "2023-04-28T10:00:00Z", "2023-04-28T10:00:00Z", "2023-04-28T10:00:00Z", "2023-04-28T10:00:00Z", "2023-04-28T10:00:00Z", "2023-04-28T10:00:00Z", "2023-04-28T10:00:00Z", "2023-04-28T10:00:00Z", "2023-04-28T10:00:00Z", "2023-04-28T10:00:00Z", "2023-04-28T10:00:00Z", "2023-04-28T10:00:00Z", "2023-04-28T10:00:00Z", "2023-04-28T10:00:00Z", "2023-04-28T10:00:00Z", "2023-04-28T10:00:00Z", "2023-04-28T10:00:00Z", "2023-04-28T10:00:00Z", "2023-04-28T10:00:00Z", "2023-04-28T10:00:00Z", "2023-04-28T10:00:00Z", "2023-04-28T10:00:00Z", "2023-04-28T10:00:00Z", "2023-04-28T10:00:00Z", "2023-04-28T10:00:00Z", "2023-04-28T10:00:00Z", "2023-04-28T10:00:00Z", "2023-04-28T10:00:00Z", "2023-04-28T10:00:00Z", "2023-04-28T10:00:00Z", "2023-04-28T10:00:00Z", "2023-04-28T10:00:00Z", "2023-04-28T10:00:00Z", "2023-04-28T10:00:00Z", "2023-04-28T10:29:00Z", "2023-04-28T10:00:00Z", "2023-04-28T10:00:00Z", "2023-04-28T10:00:00Z", "2023-04-28T10:00:00Z", "2023-04-28T10:00:00Z", "2023-04-28T10:00:00Z", "2023-04-28T10:00:00Z", "2023-04-28T10:00:00Z", "2023-04-28T10:00:00Z", "2023-04-28T10:00:00Z", "2023-04-28T10:00:00Z", "2023-04-28T10:00:00Z", "2023-04-28T10:00:00Z", "2023-04-28T10:00:00Z", "2023-04-28T10:00:00Z", "2023-04-28T10:00:00Z", "2023-04-28T10:00:00Z", "2023-04-28T10:00:00Z", "2023-04-28T10:00:00Z", "2023-04-28T10:00:00Z", "2023-04-28T10:00:00Z", "2023-04-28T10:00:00Z", "2023-04-28T10:00:00Z", "2023-04-28T10:00:00Z", "2023-04-28T10:00:00Z", "2023-04-28T10:00:00Z", "2023-04-28T10:00:00Z", "2023-04-28T10:00:00Z", "2023-04-28T10:00:00Z", "2023-04-28T10:00:00Z", "2023-04-28T10:30:00Z", "2023-04-28T10:00:00Z", "2023-04-28T10:00:00Z", "2023-04-28T10:00:00Z", "2023-04-28T10:00:00Z", "2023-04-28T10:00:00Z", "2023-04-28T10:00:00Z", "2023-04-28T10:00:00Z", "2023-04-28T10:00:00Z", "2023-04-28T10:00:00Z", "2023-04-28T10:00:00Z", "2023-04-28T10:00:00Z", "2023-04-28T10:00:00Z", "2023-04-28T10:00:00Z", "2023-04-28T10:00:00Z", "2023-04-28T10:00:00Z", "2023-04-28T10:00:00Z", "2023-04-28T10:00:00Z", "2023-04-28T10:00:00Z", "2023-04-28T10:00:00Z", "2023-04-28T10:00:00Z", "2023-04-28T10:00:00Z", "2023-04-28T10:00:00Z", "2023-04-28T10:00:00Z", "2023-04-28T10:00:00Z", "2023-04-28T10:00:00Z", "2023-04-28T10:00:00Z", "2023-04-28T10:00:00Z", "2023-04-28T10:00:00Z", "2023-04-28T10:00:00Z", "2023-04-28T10:00:00Z", "2023-04-28T10:00:00Z", "2023-04-28T10:00:00Z", "2023-04-28T10:00:00Z", "2023-04-28T10:00:00Z", "2023-04-28T10:00:00Z", "2023-04-28T10:00:00Z", "2023-04-28T10:00:00Z", "2023-04-28T10:00:00Z", "2023-04-28T10:00:00Z", "2023-04-28T10:00:00Z", "2023-04-28T10:00:00Z", "2023-04-28T10:00:00Z", "2023-04-28T10:00:00Z", "2023-04-28T10:00:00Z", "2023-04-28T10:00:00Z", "2023-04-28T10:00:00Z", "2023-04-28T10:00:00Z", "2023-04-28T10:00:00Z", "2023-04-28T10:00:00Z", "2023-04-28T10:00:00Z", "2023-04-28T10:00:00Z", "2023-04-28T10:00:00Z", "2023-04-28T10:00:00Z", "2023-04-28T09:30:00Z", "2023-04-28T10:00:00Z", "2023-04-28T10:00:00Z", "2023-04-28T10:00:00Z", "2023-04-28T10:00:00Z", "2023-04-28T10:00:00Z", "2023-04-28T10:00:00Z", "2023-04-28T10:00:00Z", "2023-04-28T10:00:00Z", "2023-04-28T10:00:00Z", "2023-04-28T10:00:00Z", "2023-04-28T10:00:00Z", "2023-04-28T10:00:00Z", "2023-04-28T10:00:00Z", "2023-04-28T10:00:00Z", "2023-04-28T10:00:00Z", "2023-04-28T10:00:00Z", "2023-04-28T10:00:00Z", "2023-04-28T10:00:00Z", "2023-04-28T10:00:00Z", "2023-04-28T10:00:00Z", "2023-04-28T10:00:00Z", "2023-04-28T10:00:00Z", "2023-04-28T10:00:00Z", "2023-04-28T10:00:00Z", "2023-04-28T10:00:00Z", "2023-04-28T10:00:00Z", "2023-04-28T10:00:00Z", "2023-04-28T10:00:00Z", "2023-04-28T10:00:00Z", "2023-04-28T10:00:00Z", "2023-04-28T10:00:00Z", "2023-04-28T10:00:00Z", "2023-04-28T10:00:00Z", "2023-04-28T10:00:00Z", "2023-04-28T10:00:00Z", "2023-04-28T10:00:00Z", "2023-04-28T10:00:00Z", "2023-04-28T10:00:00Z", "2023-04-28T10:00:00Z", "2023-04-28T10:00:00Z", "2023-04-28T10:00:00Z", "2023-04-28T10:00:00Z", "2023-04-28T10:00:00Z", "2023-04-28T10:00:00Z", "2023-04-28T10:00:00Z", "2023-04-28T10:00:00Z", "2023-04-28T10:00:00Z", "2023-04-28T10:00:00Z", "2023-04-28T10:00:00Z", "2023-04-28T10:00:00Z", "2023-04-28T10:00:00Z", "2023-04-28T10:00:00Z", "2023-04-28T10:00:00Z", "2023-04-28T10:00:00Z", "2023-04-28T10:00:00Z", "2023-04-28T10:00:00Z", "2023-04-28T10:00:00Z", "2023-04-28T10:00:00Z", "2023-04-28T10:00:00Z", "2023-04-28T10:00:00Z", "2023-04-28T10:00:00Z", "2023-04-28T10:00:00Z", "2023-04-28T10:00:00Z", "2023-04-28T10:00:00Z", "2023-04-28T10:00:00Z", "2023-04-28T10:00:00Z", "2023-04-28T10:00:00Z", "2023-04-28T10:00:00Z", "2023-04-28T10:00:00Z", "2023-04-28T10:00:00Z", "2023-04-28T10:00:00Z", "2023-04-28T10:00:00Z", "2023-04-28T10:00:00Z", "2023-04-28T10:00:00Z", "2023-04-28T10:00:00Z", "2023-04-28T10:00:00Z", "2023-04-28T10:00:00Z", "2023-04-28T10:00:00Z", "2023-04-28T10:00:00Z", "2023-04-28T10:00:00Z", "2023-04-28T10:00:00Z", "2023-04-28T10:00:00Z", "2023-04-28T10:00:00Z", "2023-04-28T10:00:00Z", "2023-04-28T10:00:00Z", "2023-04-28T10:00:00Z", "2023-04-28T10:00:00Z", "2023-04-28T10:00:00Z", "2023-04-28T10:00:00Z", "2023-04-28T10:00:00Z", "2023-04-28T10:00:00Z", "2023-04-28T10:00:00Z", "2023-04-28T10:00:00Z", "2023-04-28T10:00:00Z", "2023-04-28T10:00:00Z", "2023-04-28T10:00:00Z", "2023-04-28T10:00:00Z", "2023-04-28T10:00:00Z", "2023-04-28T10:00:00Z", "2023-04-28T10:00:00Z", "2023-04-28T10:00:00Z", "2023-04-28T10:00:00Z", "2023-04-28T10:00:00Z", "2023-04-28T10:00:00Z", "2023-04-28T10:00:00Z", "2023-04-28T10:00:00Z", "2023-04-28T10:00:00Z", "2023-04-28T10:00:00Z", "2023-04-28T10:00:00Z", "2023-04-28T10:34:00Z", "2023-04-28T10:00:00Z", "2023-04-28T10:00:00Z", "2023-04-28T10:00:00Z", "2023-04-28T10:00:00Z", "2023-04-28T10:35:00Z", "2023-04-28T10:00:00Z", "2023-04-28T10:00:00Z", "2023-04-28T10:34:00Z", "2023-04-28T10:00:00Z", "2023-04-28T10:19:00Z", "2023-04-28T10:00:00Z", "2023-04-28T10:00:00Z", "2023-04-28T10:00:00Z", "2023-04-28T10:00:00Z", "2023-04-28T10:00:00Z", "2023-04-28T10:07:00Z", "2023-04-28T10:00:00Z", "2023-04-28T10:00:00Z", "2023-04-28T10:00:00Z", "2023-04-28T10:00:00Z", "2023-04-28T10:00:00Z", "2023-04-28T10:00:00Z", "2023-04-28T10:00:00Z", "2023-04-28T10:00:00Z", "2023-04-28T10:00:00Z", "2023-04-28T10:00:00Z", "2023-04-28T10:23:00Z", "2023-04-28T10:00:00Z", "2023-04-28T10:00:00Z", "2023-04-28T10:00:00Z", "2023-04-28T10:00:00Z", "2023-04-28T10:00:00Z", "2023-04-28T10:00:00Z", "2023-04-28T10:00:00Z", "2023-04-28T10:00:00Z", "2023-04-28T10:00:00Z", "2023-04-28T10:00:00Z", "2023-04-28T10:00:00Z", "2023-04-28T10:00:00Z", "2023-04-28T10:35:00Z", "2023-04-28T10:00:00Z", "2023-04-28T10:00:00Z", "2023-04-28T10:00:00Z", "2023-04-28T10:00:00Z", "2023-04-28T10:00:00Z", "2023-04-28T10:00:00Z", "2023-04-28T10:00:00Z", "2023-04-28T10:00:00Z", "2023-04-28T10:00:00Z", "2023-04-28T10:15:00Z", "2023-04-28T10:00:00Z", "2023-04-28T10:00:00Z", "2023-04-28T10:00:00Z", "2023-04-28T10:00:00Z", "2023-04-28T10:00:00Z", "2023-04-28T10:00:00Z", "2023-04-28T10:00:00Z", "2023-04-28T10:00:00Z", "2023-04-28T10:00:00Z", "2023-04-28T10:00:00Z", "2023-04-28T10:00:00Z", "2023-04-28T10:00:00Z", "2023-04-28T10:35:00Z", "2023-04-28T10:00:00Z", "2023-04-28T10:00:00Z", "2023-04-28T10:00:00Z", "2023-04-28T10:00:00Z", "2023-04-28T10:36:00Z", "2023-04-28T10:00:00Z", "2023-04-28T10:00:00Z", "2023-04-28T10:00:00Z", "2023-04-28T10:00:00Z", "2023-04-28T10:00:00Z", "2023-04-28T10:00:00Z", "2023-04-28T10:00:00Z", "2023-04-28T10:00:00Z", "2023-04-28T10:00:00Z", "2023-04-28T10:00:00Z", "2023-04-28T10:00:00Z", "2023-04-28T10:00:00Z", "2023-04-28T10:00:00Z", "2023-04-28T10:17:00Z", "2023-04-28T10:00:00Z", "2023-04-28T10:00:00Z", "2023-04-28T10:00:00Z", "2023-04-28T10:31:00Z", "2023-04-28T10:00:00Z", "2023-04-28T10:00:00Z", "2023-04-28T10:00:00Z", "2023-04-28T10:00:00Z", "2023-04-28T10:00:00Z", "2023-04-28T10:00:00Z", "2023-04-28T10:24:00Z", "2023-04-28T10:00:00Z", "2023-04-28T10:00:00Z", "2023-04-28T10:00:00Z", "2023-04-28T10:00:00Z", "2023-04-28T10:00:00Z", "2023-04-28T10:01:00Z", "2023-04-28T10:29:00Z", "2023-04-28T10:00:00Z", "2023-04-28T10:00:00Z", "2023-04-28T10:00:00Z", "2023-04-28T10:00:00Z", "2023-04-28T10:00:00Z", "2023-04-28T10:11:00Z", "2023-04-28T10:00:00Z", "2023-04-28T10:29:00Z", "2023-04-28T10:00:00Z", "2023-04-28T10:00:00Z", "2023-04-28T10:00:00Z", "2023-04-28T10:11:00Z", "2023-04-28T10:00:00Z", "2023-04-28T10:00:00Z", "2023-04-28T10:00:00Z", "2023-04-28T10:00:00Z", "2023-04-28T10:27:00Z", "2023-04-28T10:00:00Z", "2023-04-28T10:00:00Z", "2023-04-28T10:00:00Z", "2023-04-28T10:00:00Z", "2023-04-28T10:00:00Z", "2023-04-28T10:00:00Z", "2023-04-28T10:00:00Z", "2023-04-28T10:00:00Z", "2023-04-28T10:00:00Z", "2023-04-28T10:00:00Z", "2023-04-28T10:00:00Z", "2023-04-28T10:27:00Z", "2023-04-28T10:00:00Z", "2023-04-28T10:01:00Z", "2023-04-28T10:00:00Z", "2023-04-28T10:00:00Z", "2023-04-28T10:00:00Z", "2023-04-28T10:00:00Z", "2023-04-28T10:00:00Z", "2023-04-28T10:00:00Z", "2023-04-28T10:00:00Z", "2023-04-28T10:00:00Z", "2023-04-28T10:00:00Z", "2023-04-28T10:00:00Z", "2023-04-28T10:00:00Z", "2023-04-28T10:00:00Z", "2023-04-28T10:14:00Z", "2023-04-28T10:35:00Z", "2023-04-28T10:31:00Z", "2023-04-28T10:00:00Z", "2023-04-28T10:00:00Z", "2023-04-28T10:00:00Z", "2023-04-28T10:00:00Z", "2023-04-28T10:00:00Z", "2023-04-28T10:00:00Z", "2023-04-28T10:00:00Z", "2023-04-28T10:00:00Z", "2023-04-28T10:00:00Z", "2023-04-28T10:00:00Z", "2023-04-28T10:00:00Z", "2023-04-28T10:00:00Z", "2023-04-28T10:00:00Z", "2023-04-28T10:00:00Z", "2023-04-28T10:00:00Z", "2023-04-28T10:00:00Z", "2023-04-28T10:00:00Z", "2023-04-28T10:00:00Z", "2023-04-28T10:00:00Z", "2023-04-28T10:00:00Z", "2023-04-28T10:00:00Z", "2023-04-28T10:00:00Z", "2023-04-28T10:00:00Z", "2023-04-28T10:00:00Z", "2023-04-28T10:00:00Z", "2023-04-28T10:00:00Z", "2023-04-28T10:00:00Z", "2023-04-28T10:00:00Z", "2023-04-28T10:00:00Z", "2023-04-28T10:00:00Z", "2023-04-28T10:00:00Z", "2023-04-28T10:00:00Z", "2023-04-28T10:00:00Z", "2023-04-28T10:00:00Z", "2023-04-28T10:00:00Z", "2023-04-28T10:00:00Z", "2023-04-28T10:00:00Z", "2023-04-28T10:30:00Z", "2023-04-28T10:00:00Z", "2023-04-28T10:00:00Z", "2023-04-28T10:00:00Z", "2023-04-28T10:30:00Z", "2023-04-28T10:00:00Z", "2023-04-28T10:00:00Z", "2023-04-28T10:30:00Z", "2023-04-28T10:30:00Z", "2023-04-28T10:00:00Z", "2023-04-28T10:00:00Z", "2023-04-28T10:00:00Z", "2023-04-28T10:00:00Z", "2023-04-28T10:00:00Z", "2023-04-28T10:00:00Z", "2023-04-28T10:00:00Z", "2023-04-28T10:30:00Z", "2023-04-28T10:30:00Z", "2023-04-28T10:00:00Z", "2023-04-28T10:00:00Z", "2023-04-28T10:00:00Z", "2023-04-28T10:00:00Z", "2023-04-28T10:00:00Z", "2023-04-28T10:00:00Z", "2023-04-28T10:00:00Z", "2023-04-28T10:00:00Z", "2023-04-28T10:00:00Z", "2023-04-28T10:00:00Z", "2023-04-28T10:00:00Z", "2023-04-28T10:30:00Z", "2023-04-28T10:00:00Z", "2023-04-28T10:00:00Z", "2023-04-28T10:00:00Z", "2023-04-28T10:00:00Z", "2023-04-28T10:00:00Z", "2023-04-28T10:00:00Z", "2023-04-28T10:00:00Z", "2023-04-28T10:00:00Z", "2023-04-28T10:00:00Z", "2023-04-28T10:00:00Z", "2023-04-28T10:00:00Z", "2023-04-28T10:00:00Z", "2023-04-28T10:00:00Z", "2023-04-28T10:00:00Z", "2023-04-28T10:00:00Z", "2023-04-28T10:00:00Z", "2023-04-28T10:00:00Z", "2023-04-28T10:00:00Z", "2023-04-28T10:00:00Z", "2023-04-28T10:00:00Z", "2023-04-28T10:00:00Z", "2023-04-28T10:00:00Z", "2023-04-28T10:00:00Z", "2023-04-28T10:00:00Z", "2023-04-28T10:30:00Z", "2023-04-28T10:30:00Z", "2023-04-28T10:30:00Z", "2023-04-28T10:00:00Z", "2023-04-28T10:00:00Z", "2023-04-28T10:00:00Z", "2023-04-28T10:00:00Z", "2023-04-28T10:30:00Z", "2023-04-28T10:00:00Z", "2023-04-28T10:00:00Z", "2023-04-28T10:00:00Z", "2023-04-28T10:00:00Z", "2023-04-28T10:00:00Z", "2023-04-28T10:00:00Z", "2023-04-28T10:00:00Z", "2023-04-28T10:00:00Z", "2023-04-28T10:20:00Z", "2023-04-28T10:25:00Z", "2023-04-28T10:25:00Z", "2023-04-28T10:20:00Z", "2023-04-28T10:20:00Z", "2023-04-28T10:25:00Z", "2023-04-28T10:25:00Z", "2023-04-28T10:25:00Z", "2023-04-28T10:25:00Z", "2023-04-28T10:25:00Z", "2023-04-28T10:20:00Z", "2023-04-28T10:20:00Z", "2023-04-28T10:20:00Z", "2023-04-28T10:20:00Z", "2023-04-28T10:20:00Z", "2023-04-28T10:20:00Z", "2023-04-28T10:20:00Z", "2023-04-28T10:20:00Z", "2023-04-28T10:20:00Z", "2023-04-28T10:20:00Z", "2023-04-28T10:20:00Z", "2023-04-28T10:20:00Z", "2023-04-28T10:20:00Z", "2023-04-28T10:20:00Z", "2023-04-28T10:20:00Z", "2023-04-28T10:20:00Z", "2023-04-28T10:20:00Z", "2023-04-28T10:20:00Z", "2023-04-28T10:20:00Z", "2023-04-28T10:20:00Z", "2023-04-28T10:20:00Z", "2023-04-28T10:20:00Z", "2023-04-28T10:20:00Z", "2023-04-28T10:20:00Z", "2023-04-28T10:20:00Z", "2023-04-28T10:20:00Z", "2023-04-28T10:20:00Z", "2023-04-28T10:20:00Z", "2023-04-28T10:20:00Z", "2023-04-28T10:20:00Z", "2023-04-28T10:20:00Z", "2023-04-28T10:20:00Z", "2023-04-28T10:20:00Z", "2023-04-28T10:20:00Z", "2023-04-28T10:20:00Z", "2023-04-28T10:20:00Z", "2023-04-28T10:20:00Z", "2023-04-28T10:20:00Z", "2023-04-28T10:20:00Z", "2023-04-28T10:20:00Z", "2023-04-28T10:20:00Z", "2023-04-28T10:20:00Z", "2023-04-28T10:31:00Z", "2023-04-28T10:20:00Z", "2023-04-28T10:20:00Z", "2023-04-28T10:20:00Z", "2023-04-28T10:20:00Z", "2023-04-28T10:20:00Z", "2023-04-28T10:20:00Z", "2023-04-28T10:20:00Z", "2023-04-28T10:20:00Z", "2023-04-28T10:20:00Z", "2023-04-28T10:20:00Z", "2023-04-28T10:20:00Z", "2023-04-28T10:20:00Z", "2023-04-28T10:20:00Z", "2023-04-28T10:20:00Z", "2023-04-28T10:20:00Z", "2023-04-28T10:20:00Z", "2023-04-28T10:20:00Z", "2023-04-28T10:20:00Z", "2023-04-28T10:20:00Z", "2023-04-28T10:20:00Z", "2023-04-28T10:20:00Z", "2023-04-28T10:20:00Z", "2023-04-28T10:20:00Z", "2023-04-28T10:20:00Z", "2023-04-28T10:20:00Z", "2023-04-28T10:20:00Z", "2023-04-28T10:20:00Z", "2023-04-28T10:20:00Z", "2023-04-28T10:20:00Z", "2023-04-28T10:20:00Z", "2023-04-28T10:20:00Z", "2023-04-28T10:20:00Z", "2023-04-28T10:20:00Z", "2023-04-28T10:20:00Z", "2023-04-28T10:20:00Z", "2023-04-28T10:20:00Z", "2023-04-28T10:20:00Z", "2023-04-28T10:20:00Z", "2023-04-28T10:20:00Z", "2023-04-28T10:20:00Z", "2023-04-28T10:20:00Z", "2023-04-28T10:20:00Z", "2023-04-28T10:20:00Z", "2023-04-28T10:20:00Z", "2023-04-28T10:20:00Z", "2023-04-28T10:20:00Z", "2023-04-28T10:20:00Z", "2023-04-28T10:20:00Z", "2023-04-28T10:20:00Z", "2023-04-28T10:20:00Z", "2023-04-28T10:20:00Z", "2023-04-28T10:20:00Z", "2023-04-28T10:20:00Z", "2023-04-28T10:20:00Z", "2023-04-28T10:20:00Z", "2023-04-28T10:20:00Z", "2023-04-28T10:20:00Z", "2023-04-28T10:20:00Z", "2023-04-28T10:20:00Z", "2023-04-28T10:20:00Z", "2023-04-28T10:20:00Z", "2023-04-28T10:20:00Z", "2023-04-28T10:20:00Z", "2023-04-28T10:20:00Z", "2023-04-28T10:20:00Z", "2023-04-28T10:20:00Z", "2023-04-28T10:20:00Z", "2023-04-28T10:20:00Z", "2023-04-28T10:20:00Z", "2023-04-28T10:20:00Z", "2023-04-28T09:50:00Z", "2023-04-28T10:20:00Z", "2023-04-28T10:20:00Z", "2023-04-28T10:20:00Z", "2023-04-28T10:20:00Z", "2023-04-28T10:20:00Z", "2023-04-28T10:20:00Z", "2023-04-28T10:20:00Z", "2023-04-28T10:20:00Z", "2023-04-28T10:20:00Z", "2023-04-28T10:20:00Z", "2023-04-28T10:20:00Z", "2023-04-28T10:20:00Z", "2023-04-28T10:20:00Z", "2023-04-28T10:20:00Z", "2023-04-28T10:20:00Z", "2023-04-28T09:50:00Z", "2023-04-28T10:20:00Z", "2023-04-28T09:50:00Z", "2023-04-28T10:20:00Z", "2023-04-28T10:20:00Z", "2023-04-28T10:20:00Z", "2023-04-28T10:20:00Z", "2023-04-28T10:20:00Z", "2023-04-28T10:20:00Z", "2023-04-28T10:20:00Z", "2023-04-28T10:20:00Z", "2023-04-28T10:20:00Z", "2023-04-28T10:32:00Z", "2023-04-28T09:55:00Z", "2023-04-28T10:20:00Z", "2023-04-28T10:10:00Z", "2023-04-28T10:20:00Z", "2023-04-28T10:20:00Z", "2023-04-28T10:20:00Z", "2023-04-28T10:20:00Z", "2023-04-28T10:20:00Z", "2023-04-28T10:20:00Z", "2023-04-28T10:20:00Z", "2023-04-28T10:20:00Z", "2023-04-28T10:20:00Z", "2023-04-28T10:20:00Z", "2023-04-28T10:20:00Z", "2023-04-28T10:20:00Z", "2023-04-28T10:20:00Z", "2023-04-28T09:50:00Z", "2023-04-28T10:20:00Z", "2023-04-28T10:20:00Z", "2023-04-28T10:20:00Z", "2023-04-28T10:25:00Z", "2023-04-28T10:25:00Z", "2023-04-28T10:25:00Z", "2023-04-28T10:25:00Z", "2023-04-28T10:25:00Z", "2023-04-28T10:27:00Z", "2023-04-28T10:25:00Z", "2023-04-28T10:25:00Z", "2023-04-28T10:25:00Z", "2023-04-28T10:25:00Z", "2023-04-28T10:25:00Z", "2023-04-28T10:25:00Z", "2023-04-28T10:25:00Z", "2023-04-28T10:25:00Z", "2023-04-28T10:25:00Z", "2023-04-28T10:25:00Z", "2023-04-28T10:25:00Z", "2023-04-28T10:25:00Z", "2023-04-28T10:25:00Z", "2023-04-28T10:25:00Z", "2023-04-28T10:25:00Z", "2023-04-28T10:25:00Z", "2023-04-28T10:25:00Z", "2023-04-28T10:25:00Z", "2023-04-28T10:26:00Z", "2023-04-28T10:25:00Z", "2023-04-28T10:30:00Z", "2023-04-28T10:30:00Z", "2023-04-28T10:30:00Z", "2023-04-28T10:30:00Z", "2023-04-28T10:00:00Z", "2023-04-28T10:00:00Z", "2023-04-28T10:30:00Z", "2023-04-28T10:30:00Z", "2023-04-28T10:30:00Z", "2023-04-28T10:20:00Z", "2023-04-28T10:20:00Z", "2023-04-28T10:20:00Z", "2023-04-28T10:20:00Z", "2023-04-28T10:20:00Z", "2023-04-28T09:50:00Z", "2023-04-28T10:20:00Z", "2023-04-28T10:20:00Z", "2023-04-28T10:20:00Z", "2023-04-28T10:20:00Z", "2023-04-28T10:20:00Z", "2023-04-28T09:50:00Z", "2023-04-28T10:20:00Z", "2023-04-28T10:20:00Z", "2023-04-28T10:20:00Z", "2023-04-28T10:20:00Z", "2023-04-28T10:20:00Z", "2023-04-28T10:20:00Z", "2023-04-28T10:20:00Z", "2023-04-28T09:50:00Z", "2023-04-28T10:20:00Z", "2023-04-28T10:20:00Z", "2023-04-28T10:20:00Z", "2023-04-28T10:20:00Z", "2023-04-28T10:20:00Z", "2023-04-28T10:20:00Z", "2023-04-28T10:20:00Z", "2023-04-28T10:20:00Z", "2023-04-28T10:20:00Z", "2023-04-28T10:20:00Z", "2023-04-28T10:20:00Z", "2023-04-28T10:20:00Z", "2023-04-28T10:20:00Z", "2023-04-28T10:20:00Z", "2023-04-28T10:20:00Z", "2023-04-28T10:20:00Z", "2023-04-28T10:20:00Z", "2023-04-28T10:20:00Z", "2023-04-28T10:20:00Z", "2023-04-28T10:20:00Z", "2023-04-28T10:20:00Z", "2023-04-28T10:20:00Z", "2023-04-28T10:20:00Z", "2023-04-28T10:20:00Z", "2023-04-28T10:20:00Z", "2023-04-28T10:20:00Z", "2023-04-28T10:20:00Z", "2023-04-28T10:20:00Z", "2023-04-28T10:20:00Z", "2023-04-28T10:20:00Z", "2023-04-28T10:20:00Z", "2023-04-28T10:20:00Z", "2023-04-28T10:20:00Z", "2023-04-28T10:20:00Z", "2023-04-28T10:20:00Z", "2023-04-28T10:20:00Z", "2023-04-28T10:20:00Z", "2023-04-28T10:20:00Z", "2023-04-28T10:20:00Z", "2023-04-28T10:20:00Z", "2023-04-28T10:20:00Z", "2023-04-28T10:20:00Z", "2023-04-28T10:20:00Z", "2023-04-28T10:20:00Z", "2023-04-28T10:20:00Z", "2023-04-28T10:20:00Z", "2023-04-28T10:20:00Z", "2023-04-28T10:20:00Z", "2023-04-28T10:20:00Z", "2023-04-28T10:20:00Z", "2023-04-28T10:20:00Z", "2023-04-28T10:20:00Z", "2023-04-28T10:20:00Z", "2023-04-28T10:20:00Z", "2023-04-28T10:20:00Z", "2023-04-28T10:20:00Z", "2023-04-28T10:20:00Z", "2023-04-28T10:20:00Z", "2023-04-28T10:20:00Z", "2023-04-28T10:20:00Z", "2023-04-28T10:20:00Z", "2023-04-28T10:30:00Z", "2023-04-28T10:30:00Z", "2023-04-28T10:30:00Z", "2023-04-28T10:30:00Z", "2023-04-28T10:30:00Z", "2023-04-28T10:30:00Z", "2023-04-28T10:30:00Z", "2023-04-28T10:30:00Z", "2023-04-28T10:30:00Z", "2023-04-28T10:30:00Z", "2023-04-28T10:30:00Z", "2023-04-28T10:30:00Z", "2023-04-28T10:30:00Z", "2023-04-28T10:30:00Z", "2023-04-28T10:30:00Z", "2023-04-28T10:20:00Z", "2023-04-28T10:20:00Z", "2023-04-28T10:20:00Z", "2023-04-28T10:20:00Z", "2023-04-28T10:20:00Z", "2023-04-28T10:20:00Z", "2023-04-28T10:20:00Z", "2023-04-28T10:20:00Z", "2023-04-28T10:20:00Z", "2023-04-28T10:20:00Z", "2023-04-28T10:20:00Z", "2023-04-28T10:20:00Z", "2023-04-28T10:20:00Z", "2023-04-28T10:20:00Z", "2023-04-28T10:20:00Z", "2023-04-28T10:20:00Z", "2023-04-28T10:20:00Z", "2023-04-28T10:20:00Z", "2023-04-28T10:20:00Z", "2023-04-28T10:20:00Z", "2023-04-28T10:20:00Z", "2023-04-28T10:20:00Z", "2023-04-28T10:20:00Z", "2023-04-28T10:20:00Z", "2023-04-28T10:20:00Z", "2023-04-28T10:20:00Z", "2023-04-28T10:20:00Z", "2023-04-28T10:20:00Z", "2023-04-28T10:20:00Z", "2023-04-28T10:20:00Z", "2023-04-28T10:20:00Z", "2023-04-28T10:20:00Z", "2023-04-28T10:20:00Z", "2023-04-28T10:20:00Z", "2023-04-28T10:20:00Z", "2023-04-28T10:20:00Z", "2023-04-28T10:20:00Z", "2023-04-28T10:20:00Z", "2023-04-28T10:20:00Z", "2023-04-28T10:20:00Z", "2023-04-28T10:20:00Z", "2023-04-28T10:20:00Z", "2023-04-28T10:20:00Z", "2023-04-28T10:20:00Z", "2023-04-28T10:20:00Z", "2023-04-28T10:20:00Z", "2023-04-28T10:03:00Z", "2023-04-28T10:00:00Z", "2023-04-28T10:31:00Z", "2023-04-28T10:20:00Z", "2023-04-28T10:20:00Z", "2023-04-28T10:30:00Z", "2023-04-28T10:20:00Z", "2023-04-28T10:20:00Z", "2023-04-28T10:20:00Z", "2023-04-28T10:20:00Z", "2023-04-28T10:20:00Z", "2023-04-28T09:55:00Z", "2023-04-28T10:25:00Z", "2023-04-28T10:10:00Z", "2023-04-28T10:20:00Z", "2023-04-28T09:50:00Z", "2023-04-28T10:20:00Z", "2023-04-28T10:20:00Z", "2023-04-28T10:20:00Z", "2023-04-28T10:20:00Z", "2023-04-28T10:20:00Z", "2023-04-28T10:20:00Z", "2023-04-28T09:55:00Z", "2023-04-28T10:20:00Z", "2023-04-28T10:20:00Z", "2023-04-28T10:20:00Z", "2023-04-28T10:20:00Z", "2023-04-28T10:20:00Z", "2023-04-28T10:20:00Z", "2023-04-28T10:20:00Z", "2023-04-28T10:20:00Z", "2023-04-28T10:20:00Z", "2023-04-28T10:20:00Z", "2023-04-28T10:20:00Z", "2023-04-28T10:20:00Z", "2023-04-28T10:20:00Z", "2023-04-28T10:20:00Z", "2023-04-28T10:00:00Z", "2023-04-28T10:00:00Z", "2023-04-28T09:38:00Z", "2023-04-28T10:00:00Z", "2023-04-28T10:28:00Z", "2023-04-28T10:00:00Z", "2023-04-28T10:00:00Z", "2023-04-28T10:00:00Z", "2023-04-28T10:00:00Z", "2023-04-28T10:00:00Z", "2023-04-28T10:00:00Z", "2023-04-28T10:00:00Z", "2023-04-28T10:00:00Z", "2023-04-28T10:30:00Z", "2023-04-28T10:00:00Z", "2023-04-28T10:00:00Z", "2023-04-28T10:00:00Z", "2023-04-28T09:51:00Z", "2023-04-28T10:00:00Z", "2023-04-28T10:00:00Z", "2023-04-28T10:00:00Z", "2023-04-28T10:00:00Z", "2023-04-28T10:00:00Z", "2023-04-28T10:00:00Z", "2023-04-28T10:00:00Z", "2023-04-28T10:00:00Z", "2023-04-28T10:00:00Z", "2023-04-28T10:00:00Z", "2023-04-28T10:00:00Z", "2023-04-28T10:00:00Z", "2023-04-28T10:00:00Z", "2023-04-28T10:00:00Z", "2023-04-28T10:00:00Z", "2023-04-28T10:00:00Z", "2023-04-28T10:00:00Z", "2023-04-28T10:00:00Z", "2023-04-28T09:50:00Z", "2023-04-28T10:00:00Z", "2023-04-28T09:55:00Z", "2023-04-28T10:00:00Z", "2023-04-28T10:00:00Z", "2023-04-28T10:00:00Z", "2023-04-28T10:00:00Z", "2023-04-28T10:00:00Z", "2023-04-28T10:00:00Z", "2023-04-28T10:30:00Z", "2023-04-28T10:00:00Z", "2023-04-28T10:00:00Z", "2023-04-28T10:30:00Z", "2023-04-28T10:00:00Z", "2023-04-28T10:00:00Z", "2023-04-28T10:00:00Z", "2023-04-28T10:00:00Z", "2023-04-28T10:00:00Z", "2023-04-28T10:00:00Z", "2023-04-28T10:00:00Z", "2023-04-28T10:00:00Z", "2023-04-28T10:00:00Z", "2023-04-28T10:00:00Z", "2023-04-28T10:00:00Z", "2023-04-28T10:00:00Z", "2023-04-28T10:00:00Z", "2023-04-28T10:00:00Z", "2023-04-28T10:00:00Z", "2023-04-28T10:30:00Z", "2023-04-28T10:00:00Z", "2023-04-28T10:00:00Z", "2023-04-28T10:00:00Z", "2023-04-28T10:00:00Z", "2023-04-28T10:00:00Z", "2023-04-28T10:00:00Z", "2023-04-28T10:00:00Z", "2023-04-28T10:00:00Z", "2023-04-28T10:00:00Z", "2023-04-28T10:00:00Z", "2023-04-28T10:00:00Z", "2023-04-28T10:00:00Z", "2023-04-28T10:00:00Z", "2023-04-28T10:00:00Z", "2023-04-28T10:00:00Z", "2023-04-28T10:00:00Z", "2023-04-28T10:00:00Z", "2023-04-28T10:00:00Z", "2023-04-28T10:00:00Z", "2023-04-28T10:00:00Z", "2023-04-28T10:00:00Z", "2023-04-28T10:00:00Z", "2023-04-28T10:00:00Z", "2023-04-28T10:00:00Z", "2023-04-28T10:00:00Z", "2023-04-28T10:00:00Z", "2023-04-28T10:00:00Z", "2023-04-28T10:00:00Z", "2023-04-28T10:30:00Z", "2023-04-28T10:30:00Z", "2023-04-28T10:30:00Z", "2023-04-28T10:30:00Z", "2023-04-28T10:30:00Z", "2023-04-28T10:30:00Z", "2023-04-28T10:30:00Z", "2023-04-28T10:30:00Z", "2023-04-28T10:30:00Z", "2023-04-28T10:30:00Z", "2023-04-28T10:00:00Z", "2023-04-28T10:30:00Z", "2023-04-28T10:30:00Z", "2023-04-28T10:00:00Z", "2023-04-28T10:00:00Z", "2023-04-28T10:00:00Z", "2023-04-28T10:30:00Z", "2023-04-28T10:00:00Z", "2023-04-28T10:00:00Z", "2023-04-28T10:30:00Z", "2023-04-28T10:00:00Z", "2023-04-28T10:00:00Z", "2023-04-28T10:00:00Z", "2023-04-28T10:30:00Z", "2023-04-28T10:00:00Z", "2023-04-28T10:00:00Z", "2023-04-28T10:00:00Z", "2023-04-28T10:30:00Z", "2023-04-28T10:00:00Z", "2023-04-28T10:30:00Z", "2023-04-28T10:00:00Z", "2023-04-28T10:00:00Z", "2023-04-28T10:00:00Z", "2023-04-28T10:30:00Z", "2023-04-28T10:00:00Z", "2023-04-28T10:00:00Z", "2023-04-28T10:00:00Z", "2023-04-28T10:00:00Z", "2023-04-28T10:00:00Z", "2023-04-28T10:00:00Z", "2023-04-28T10:00:00Z", "2023-04-28T10:00:00Z", "2023-04-28T10:00:00Z", "2023-04-28T10:00:00Z", "2023-04-28T10:00:00Z", "2023-04-28T10:00:00Z", "2023-04-28T10:00:00Z", "2023-04-28T10:00:00Z", "2023-04-28T10:00:00Z", "2023-04-28T10:00:00Z", "2023-04-28T10:00:00Z", "2023-04-28T10:00:00Z", "2023-04-28T10:00:00Z", "2023-04-28T10:00:00Z", "2023-04-28T10:00:00Z", "2023-04-28T10:00:00Z", "2023-04-28T10:00:00Z", "2023-04-28T10:00:00Z", "2023-04-28T10:00:00Z", "2023-04-28T10:00:00Z", "2023-04-28T10:00:00Z", "2023-04-28T10:00:00Z", "2023-04-28T10:30:00Z", "2023-04-28T10:00:00Z", "2023-04-28T10:00:00Z", "2023-04-28T10:00:00Z", "2023-04-28T10:00:00Z", "2023-04-28T10:00:00Z", "2023-04-28T10:00:00Z", "2023-04-28T10:00:00Z", "2023-04-28T10:00:00Z", "2023-04-28T10:00:00Z", "2023-04-28T10:00:00Z", "2023-04-28T10:00:00Z", "2023-04-28T10:00:00Z", "2023-04-28T10:00:00Z", "2023-04-28T10:00:00Z", "2023-04-28T10:00:00Z", "2023-04-28T10:00:00Z", "2023-04-28T10:00:00Z", "2023-04-28T10:00:00Z", "2023-04-28T10:00:00Z", "2023-04-28T10:00:00Z", "2023-04-28T10:00:00Z", "2023-04-28T10:00:00Z", "2023-04-28T10:00:00Z", "2023-04-28T10:00:00Z", "2023-04-28T10:00:00Z", "2023-04-28T10:00:00Z", "2023-04-28T10:00:00Z", "2023-04-28T10:30:00Z", "2023-04-28T10:00:00Z", "2023-04-28T10:00:00Z", "2023-04-28T10:00:00Z", "2023-04-28T10:00:00Z", "2023-04-28T10:15:00Z", "2023-04-28T09:59:00Z", "2023-04-28T10:05:00Z", "2023-04-28T10:15:00Z", "2023-04-28T10:35:00Z", "2023-04-28T10:35:00Z", "2023-04-28T10:15:00Z", "2023-04-28T10:15:00Z", "2023-04-28T10:15:00Z", "2023-04-28T10:35:00Z", "2023-04-28T10:15:00Z", "2023-04-28T10:32:00Z", "2023-04-28T10:15:00Z", "2023-04-28T10:35:00Z", "2023-04-28T10:35:00Z", "2023-04-28T10:35:00Z", "2023-04-28T10:35:00Z", "2023-04-28T09:54:00Z", "2023-04-28T10:15:00Z", "2023-04-28T10:35:00Z", "2023-04-28T10:35:00Z", "2023-04-28T10:15:00Z", "2023-04-28T10:15:00Z", "2023-04-28T10:15:00Z", "2023-04-28T10:15:00Z", "2023-04-28T10:30:00Z", "2023-04-28T10:15:00Z", "2023-04-28T10:15:00Z", "2023-04-28T09:55:00Z", "2023-04-28T09:55:00Z", "2023-04-28T09:55:00Z", "2023-04-28T09:55:00Z", "2023-04-28T09:55:00Z", "2023-04-28T09:55:00Z", "2023-04-28T09:55:00Z", "2023-04-28T09:55:00Z", "2023-04-28T09:55:00Z", "2023-04-28T09:55:00Z", "2023-04-28T09:55:00Z", "2023-04-28T10:15:00Z", "2023-04-28T09:55:00Z", "2023-04-28T09:55:00Z", "2023-04-28T09:55:00Z", "2023-04-28T10:15:00Z", "2023-04-28T09:55:00Z", "2023-04-28T09:55:00Z", "2023-04-28T09:55:00Z", "2023-04-28T09:55:00Z", "2023-04-28T09:55:00Z", "2023-04-28T09:55:00Z", "2023-04-28T09:55:00Z", "2023-04-28T09:55:00Z", "2023-04-28T09:55:00Z", "2023-04-28T09:55:00Z", "2023-04-28T09:55:00Z", "2023-04-28T09:56:00Z", "2023-04-28T09:55:00Z", "2023-04-28T09:55:00Z", "2023-04-28T09:55:00Z", "2023-04-28T09:55:00Z", "2023-04-28T09:55:00Z", "2023-04-28T09:55:00Z", "2023-04-28T10:35:00Z", "2023-04-28T10:35:00Z", "2023-04-28T10:15:00Z", "2023-04-28T10:35:00Z", "2023-04-28T10:15:00Z", "2023-04-28T09:54:00Z", "2023-04-28T10:15:00Z", "2023-04-28T09:55:00Z", "2023-04-28T10:35:00Z", "2023-04-28T10:15:00Z", "2023-04-28T10:35:00Z", "2023-04-28T10:35:00Z", "2023-04-28T10:25:00Z", "2023-04-28T10:35:00Z", "2023-04-28T10:15:00Z", "2023-04-28T10:15:00Z", "2023-04-28T10:35:00Z", "2023-04-28T10:35:00Z", "2023-04-28T10:30:00Z", "2023-04-28T10:15:00Z", "2023-04-28T10:25:00Z", "2023-04-28T10:15:00Z", "2023-04-28T10:15:00Z", "2023-04-28T10:15:00Z", "2023-04-28T10:15:00Z", "2023-04-28T10:15:00Z", "2023-04-28T10:35:00Z", "2023-04-28T10:15:00Z", "2023-04-28T10:15:00Z", "2023-04-28T10:15:00Z", "2023-04-28T10:15:00Z", "2023-04-28T10:19:00Z", "2023-04-28T10:29:00Z", "2023-04-28T09:56:00Z", "2023-04-28T10:15:00Z", "2023-04-28T10:15:00Z", "2023-04-28T10:35:00Z", "2023-04-28T10:30:00Z", "2023-04-28T10:15:00Z", "2023-04-28T10:15:00Z", "2023-04-28T10:15:00Z", "2023-04-28T10:15:00Z", "2023-04-28T10:15:00Z", "2023-04-28T10:35:00Z", "2023-04-28T10:35:00Z", "2023-04-28T10:15:00Z", "2023-04-28T10:35:00Z", "2023-04-28T10:30:00Z", "2023-04-28T10:16:00Z", "2023-04-28T10:15:00Z", "2023-04-28T10:35:00Z", "2023-04-28T10:35:00Z", "2023-04-28T10:35:00Z", "2023-04-28T10:15:00Z", "2023-04-28T10:15:00Z", "2023-04-28T10:15:00Z", "2023-04-28T10:35:00Z", "2023-04-28T10:15:00Z", "2023-04-28T10:15:00Z", "2023-04-28T10:15:00Z", "2023-04-28T10:35:00Z", "2023-04-28T10:35:00Z", "2023-04-28T09:55:00Z", "2023-04-28T10:35:00Z", "2023-04-28T10:15:00Z", "2023-04-28T10:15:00Z", "2023-04-28T10:25:00Z", "2023-04-28T10:15:00Z", "2023-04-28T10:15:00Z", "2023-04-28T10:15:00Z", "2023-04-28T10:35:00Z", "2023-04-28T10:35:00Z", "2023-04-28T10:15:00Z", "2023-04-28T10:15:00Z", "2023-04-28T10:35:00Z", "2023-04-28T09:55:00Z", "2023-04-28T10:15:00Z", "2023-04-28T10:15:00Z", "2023-04-28T10:15:00Z", "2023-04-28T10:15:00Z", "2023-04-28T10:15:00Z", "2023-04-28T10:15:00Z", "2023-04-28T10:15:00Z", "2023-04-28T10:35:00Z", "2023-04-28T10:35:00Z", "2023-04-28T10:15:00Z", "2023-04-28T10:35:00Z", "2023-04-28T10:15:00Z", "2023-04-28T10:15:00Z", "2023-04-28T09:51:00Z", "2023-04-28T10:15:00Z", "2023-04-28T10:35:00Z", "2023-04-28T10:25:00Z", "2023-04-28T10:35:00Z", "2023-04-28T09:56:00Z", "2023-04-28T10:15:00Z", "2023-04-28T10:35:00Z", "2023-04-28T10:15:00Z", "2023-04-28T10:15:00Z", "2023-04-28T10:15:00Z", "2023-04-28T10:15:00Z", "2023-04-28T10:15:00Z", "2023-04-28T10:35:00Z", "2023-04-28T09:56:00Z", "2023-04-28T10:15:00Z", "2023-04-28T10:35:00Z", "2023-04-28T10:35:00Z", "2023-04-28T10:15:00Z", "2023-04-28T10:35:00Z", "2023-04-28T09:55:00Z", "2023-04-28T10:15:00Z", "2023-04-28T10:15:00Z", "2023-04-28T10:15:00Z", "2023-04-28T10:15:00Z", "2023-04-28T10:15:00Z", "2023-04-28T09:54:00Z", "2023-04-28T10:15:00Z", "2023-04-28T09:55:00Z", "2023-04-28T09:51:00Z", "2023-04-28T10:33:00Z", "2023-04-28T09:52:00Z", "2023-04-28T09:52:00Z", "2023-04-28T09:53:00Z", "2023-04-28T10:28:00Z", "2023-04-28T10:35:00Z", "2023-04-28T10:35:00Z", "2023-04-28T10:02:00Z", "2023-04-28T10:15:00Z", "2023-04-28T10:35:00Z", "2023-04-28T09:51:00Z", "2023-04-28T10:00:00Z", "2023-04-28T10:15:00Z", "2023-04-28T10:25:00Z", "2023-04-28T10:15:00Z", "2023-04-28T09:56:00Z", "2023-04-28T09:53:00Z", "2023-04-28T10:15:00Z", "2023-04-28T10:15:00Z", "2023-04-28T10:15:00Z", "2023-04-28T10:15:00Z", "2023-04-28T10:15:00Z", "2023-04-28T10:23:00Z", "2023-04-28T10:35:00Z", "2023-04-28T10:15:00Z", "2023-04-28T10:15:00Z", "2023-04-28T10:03:00Z", "2023-04-28T10:02:00Z", "2023-04-28T09:56:00Z", "2023-04-28T10:15:00Z", "2023-04-28T10:21:00Z", "2023-04-28T10:10:00Z", "2023-04-28T10:29:00Z", "2023-04-28T09:53:00Z", "2023-04-28T09:53:00Z", "2023-04-28T10:15:00Z", "2023-04-28T10:35:00Z", "2023-04-28T10:03:00Z", "2023-04-28T10:13:00Z", "2023-04-28T10:15:00Z", "2023-04-28T09:53:00Z", "2023-04-28T10:35:00Z", "2023-04-28T10:35:00Z", "2023-04-28T10:35:00Z", "2023-04-28T10:15:00Z", "2023-04-28T10:35:00Z", "2023-04-28T09:56:00Z", "2023-04-28T10:15:00Z", "2023-04-28T10:01:00Z", "2023-04-28T10:15:00Z", "2023-04-28T10:15:00Z", "2023-04-28T10:18:00Z", "2023-04-28T09:53:00Z", "2023-04-28T10:33:00Z", "2023-04-28T09:54:00Z", "2023-04-28T09:51:00Z", "2023-04-28T10:13:00Z", "2023-04-28T09:56:00Z", "2023-04-28T10:35:00Z", "2023-04-28T10:15:00Z", "2023-04-28T09:54:00Z", "2023-04-28T09:52:00Z", "2023-04-28T09:53:00Z", "2023-04-28T09:53:00Z", "2023-04-28T09:53:00Z", "2023-04-28T10:35:00Z", "2023-04-28T09:53:00Z", "2023-04-28T09:53:00Z", "2023-04-28T09:56:00Z", "2023-04-28T10:35:00Z", "2023-04-28T09:55:00Z", "2023-04-28T10:10:00Z", "2023-04-28T10:35:00Z", "2023-04-28T10:15:00Z", "2023-04-28T10:31:00Z", "2023-04-28T09:53:00Z", "2023-04-28T09:53:00Z", "2023-04-28T09:54:00Z", "2023-04-28T09:53:00Z", "2023-04-28T09:55:00Z", "2023-04-28T09:54:00Z", "2023-04-28T10:16:00Z", "2023-04-28T10:15:00Z", "2023-04-28T10:15:00Z", "2023-04-28T10:33:00Z", "2023-04-28T09:57:00Z", "2023-04-28T09:52:00Z", "2023-04-28T10:35:00Z", "2023-04-28T10:26:00Z", "2023-04-28T09:53:00Z", "2023-04-28T09:56:00Z", "2023-04-28T10:15:00Z", "2023-04-28T09:56:00Z", "2023-04-28T10:35:00Z", "2023-04-28T10:35:00Z", "2023-04-28T09:53:00Z", "2023-04-28T09:53:00Z", "2023-04-28T09:56:00Z", "2023-04-28T10:25:00Z", "2023-04-28T10:35:00Z", "2023-04-28T10:15:00Z", "2023-04-28T09:55:00Z", "2023-04-28T10:15:00Z", "2023-04-28T09:53:00Z", "2023-04-28T10:35:00Z", "2023-04-28T09:52:00Z", "2023-04-28T10:20:00Z", "2023-04-28T10:35:00Z", "2023-04-28T09:51:00Z", "2023-04-28T10:30:00Z", "2023-04-28T09:53:00Z", "2023-04-28T09:53:00Z", "2023-04-28T10:15:00Z", "2023-04-28T10:16:00Z", "2023-04-28T10:15:00Z", "2023-04-28T10:21:00Z", "2023-04-28T09:53:00Z", "2023-04-28T09:54:00Z", "2023-04-28T10:35:00Z", "2023-04-28T10:25:00Z", "2023-04-28T09:54:00Z", "2023-04-28T09:54:00Z", "2023-04-28T10:15:00Z", "2023-04-28T09:51:00Z", "2023-04-28T10:15:00Z", "2023-04-28T10:32:00Z", "2023-04-28T09:56:00Z", "2023-04-28T10:15:00Z", "2023-04-28T10:15:00Z", "2023-04-28T09:53:00Z", "2023-04-28T10:15:00Z", "2023-04-28T10:35:00Z", "2023-04-28T10:15:00Z", "2023-04-28T10:15:00Z", "2023-04-28T10:15:00Z", "2023-04-28T10:15:00Z", "2023-04-28T09:53:00Z", "2023-04-28T09:55:00Z", "2023-04-28T10:35:00Z", "2023-04-28T09:55:00Z", "2023-04-28T09:53:00Z", "2023-04-28T10:30:00Z", "2023-04-28T10:15:00Z", "2023-04-28T09:52:00Z", "2023-04-28T10:35:00Z", "2023-04-28T10:31:00Z", "2023-04-28T10:16:00Z", "2023-04-28T10:15:00Z", "2023-04-28T10:35:00Z", "2023-04-28T10:15:00Z", "2023-04-28T09:53:00Z", "2023-04-28T10:35:00Z", "2023-04-28T09:53:00Z", "2023-04-28T10:35:00Z", "2023-04-28T10:24:00Z", "2023-04-28T09:53:00Z", "2023-04-28T10:15:00Z", "2023-04-28T10:35:00Z", "2023-04-28T10:03:00Z", "2023-04-28T10:15:00Z", "2023-04-28T10:30:00Z", "2023-04-28T10:15:00Z", "2023-04-28T10:35:00Z", "2023-04-28T10:15:00Z", "2023-04-28T09:59:00Z", "2023-04-28T09:53:00Z", "2023-04-28T09:53:00Z", "2023-04-28T09:53:00Z", "2023-04-28T09:53:00Z", "2023-04-28T09:54:00Z", "2023-04-28T09:53:00Z", "2023-04-28T10:35:00Z", "2023-04-28T10:27:00Z", "2023-04-28T10:15:00Z", "2023-04-28T10:15:00Z", "2023-04-28T09:53:00Z", "2023-04-28T09:53:00Z", "2023-04-28T09:56:00Z", "2023-04-28T10:15:00Z", "2023-04-28T09:51:00Z", "2023-04-28T09:53:00Z", "2023-04-28T09:56:00Z", "2023-04-28T10:15:00Z", "2023-04-28T09:55:00Z", "2023-04-28T09:56:00Z", "2023-04-28T10:15:00Z", "2023-04-28T09:53:00Z", "2023-04-28T09:52:00Z", "2023-04-28T09:53:00Z", "2023-04-28T09:55:00Z", "2023-04-28T10:15:00Z", "2023-04-28T10:35:00Z", "2023-04-28T09:56:00Z", "2023-04-28T09:52:00Z", "2023-04-28T10:15:00Z", "2023-04-28T09:53:00Z", "2023-04-28T09:58:00Z", "2023-04-28T09:53:00Z", "2023-04-28T10:35:00Z", "2023-04-28T10:35:00Z", "2023-04-28T10:35:00Z", "2023-04-28T09:53:00Z", "2023-04-28T09:51:00Z", "2023-04-28T09:56:00Z", "2023-04-28T09:59:00Z", "2023-04-28T09:53:00Z", "2023-04-28T10:08:00Z", "2023-04-28T09:52:00Z", "2023-04-28T09:55:00Z", "2023-04-28T10:10:00Z", "2023-04-28T09:53:00Z", "2023-04-28T09:56:00Z", "2023-04-28T09:52:00Z", "2023-04-28T09:53:00Z", "2023-04-28T10:15:00Z", "2023-04-28T09:53:00Z", "2023-04-28T10:35:00Z", "2023-04-28T09:53:00Z", "2023-04-28T10:15:00Z", "2023-04-28T09:53:00Z", "2023-04-28T10:08:00Z", "2023-04-28T09:54:00Z", "2023-04-28T10:35:00Z", "2023-04-28T10:15:00Z", "2023-04-28T10:15:00Z", "2023-04-28T09:53:00Z", "2023-04-28T10:31:00Z", "2023-04-28T09:53:00Z", "2023-04-28T10:15:00Z", "2023-04-28T10:15:00Z", "2023-04-28T09:53:00Z", "2023-04-28T10:35:00Z", "2023-04-28T09:53:00Z", "2023-04-28T09:53:00Z", "2023-04-28T10:35:00Z", "2023-04-28T10:15:00Z", "2023-04-28T09:53:00Z", "2023-04-28T09:53:00Z", "2023-04-28T10:10:00Z", "2023-04-28T10:16:00Z", "2023-04-28T09:53:00Z", "2023-04-28T09:54:00Z", "2023-04-28T09:54:00Z", "2023-04-28T09:53:00Z", "2023-04-28T10:35:00Z", "2023-04-28T10:14:00Z", "2023-04-28T10:35:00Z", "2023-04-28T10:15:00Z", "2023-04-28T10:32:00Z", "2023-04-28T10:15:00Z", "2023-04-28T10:35:00Z", "2023-04-28T10:08:00Z", "2023-04-28T09:53:00Z", "2023-04-28T10:15:00Z", "2023-04-28T10:25:00Z", "2023-04-28T09:54:00Z", "2023-04-28T10:15:00Z", "2023-04-28T10:35:00Z", "2023-04-28T10:15:00Z", "2023-04-28T10:35:00Z", "2023-04-28T09:53:00Z", "2023-04-28T09:53:00Z", "2023-04-28T10:15:00Z", "2023-04-28T09:55:00Z", "2023-04-28T10:15:00Z", "2023-04-28T09:56:00Z", "2023-04-28T10:15:00Z", "2023-04-28T10:35:00Z", "2023-04-28T10:35:00Z", "2023-04-28T10:35:00Z", "2023-04-28T10:15:00Z", "2023-04-28T10:15:00Z", "2023-04-28T10:15:00Z", "2023-04-28T10:15:00Z", "2023-04-28T10:35:00Z", "2023-04-28T09:56:00Z", "2023-04-28T09:53:00Z", "2023-04-28T09:51:00Z", "2023-04-28T10:15:00Z", "2023-04-28T09:54:00Z", "2023-04-28T10:15:00Z", "2023-04-28T10:25:00Z", "2023-04-28T10:15:00Z", "2023-04-28T10:35:00Z", "2023-04-28T10:15:00Z", "2023-04-28T09:55:00Z", "2023-04-28T10:35:00Z", "2023-04-28T10:15:00Z", "2023-04-28T10:15:00Z", "2023-04-28T09:53:00Z", "2023-04-28T10:15:00Z", "2023-04-28T10:15:00Z", "2023-04-28T10:35:00Z", "2023-04-28T09:53:00Z", "2023-04-28T10:14:00Z", "2023-04-28T10:15:00Z", "2023-04-28T10:35:00Z", "2023-04-28T09:51:00Z", "2023-04-28T10:35:00Z", "2023-04-28T09:53:00Z", "2023-04-28T09:53:00Z", "2023-04-28T09:53:00Z", "2023-04-28T09:56:00Z", "2023-04-28T10:19:00Z", "2023-04-28T10:29:00Z", "2023-04-28T10:19:00Z", "2023-04-28T10:35:00Z", "2023-04-28T09:53:00Z", "2023-04-28T10:15:00Z", "2023-04-28T10:35:00Z", "2023-04-28T10:35:00Z", "2023-04-28T10:15:00Z", "2023-04-28T10:35:00Z", "2023-04-28T10:02:00Z", "2023-04-28T10:35:00Z", "2023-04-28T10:25:00Z", "2023-04-28T10:15:00Z", "2023-04-28T09:53:00Z", "2023-04-28T10:30:00Z", "2023-04-28T09:56:00Z", "2023-04-28T09:53:00Z", "2023-04-28T10:15:00Z", "2023-04-28T09:53:00Z", "2023-04-28T10:25:00Z", "2023-04-28T10:35:00Z", "2023-04-28T09:52:00Z", "2023-04-28T10:15:00Z", "2023-04-28T10:15:00Z", "2023-04-28T09:56:00Z", "2023-04-28T10:15:00Z", "2023-04-28T09:53:00Z", "2023-04-28T10:15:00Z", "2023-04-28T10:15:00Z", "2023-04-28T10:35:00Z", "2023-04-28T10:35:00Z", "2023-04-28T10:15:00Z", "2023-04-28T10:15:00Z", "2023-04-28T09:52:00Z", "2023-04-28T10:35:00Z", "2023-04-28T09:51:00Z", "2023-04-28T10:35:00Z", "2023-04-28T10:35:00Z", "2023-04-28T09:53:00Z", "2023-04-28T09:53:00Z", "2023-04-28T10:35:00Z", "2023-04-28T10:29:00Z", "2023-04-28T10:15:00Z", "2023-04-28T09:55:00Z", "2023-04-28T10:15:00Z", "2023-04-28T10:21:00Z", "2023-04-28T09:53:00Z", "2023-04-28T10:35:00Z", "2023-04-28T09:53:00Z", "2023-04-28T09:55:00Z", "2023-04-28T10:35:00Z", "2023-04-28T10:15:00Z", "2023-04-28T10:15:00Z", "2023-04-28T10:30:00Z", "2023-04-28T09:53:00Z", "2023-04-28T09:53:00Z", "2023-04-28T10:21:00Z", "2023-04-28T09:53:00Z", "2023-04-28T09:56:00Z", "2023-04-28T09:56:00Z", "2023-04-28T09:55:00Z", "2023-04-28T10:15:00Z", "2023-04-28T10:26:00Z", "2023-04-28T10:35:00Z", "2023-04-28T09:54:00Z", "2023-04-28T09:53:00Z", "2023-04-28T09:54:00Z", "2023-04-28T10:25:00Z", "2023-04-28T10:35:00Z", "2023-04-28T10:35:00Z", "2023-04-28T10:12:00Z", "2023-04-28T09:53:00Z", "2023-04-28T10:35:00Z", "2023-04-28T10:15:00Z", "2023-04-28T10:15:00Z", "2023-04-28T09:53:00Z", "2023-04-28T10:15:00Z", "2023-04-28T10:35:00Z", "2023-04-28T09:47:00Z", "2023-04-28T10:35:00Z", "2023-04-28T10:32:00Z", "2023-04-28T10:27:00Z", "2023-04-28T09:53:00Z", "2023-04-28T10:23:00Z", "2023-04-28T09:53:00Z", "2023-04-28T09:53:00Z", "2023-04-28T09:54:00Z", "2023-04-28T10:15:00Z", "2023-04-28T10:16:00Z", "2023-04-28T09:53:00Z", "2023-04-28T10:15:00Z", "2023-04-28T10:33:00Z", "2023-04-28T09:56:00Z", "2023-04-28T10:15:00Z", "2023-04-28T10:15:00Z", "2023-04-28T10:25:00Z", "2023-04-28T09:53:00Z", "2023-04-28T10:15:00Z", "2023-04-28T10:19:00Z", "2023-04-28T10:32:00Z", "2023-04-28T10:15:00Z", "2023-04-28T09:52:00Z", "2023-04-28T10:35:00Z", "2023-04-28T09:56:00Z", "2023-04-28T09:56:00Z", "2023-04-28T09:55:00Z", "2023-04-28T10:35:00Z", "2023-04-28T10:35:00Z", "2023-04-28T10:15:00Z", "2023-04-28T10:15:00Z", "2023-04-28T09:56:00Z", "2023-04-28T10:27:00Z", "2023-04-28T10:15:00Z", "2023-04-28T10:15:00Z", "2023-04-28T09:53:00Z", "2023-04-28T10:15:00Z", "2023-04-28T10:15:00Z", "2023-04-28T10:10:00Z", "2023-04-28T09:56:00Z", "2023-04-28T10:15:00Z", "2023-04-28T09:53:00Z", "2023-04-28T10:15:00Z", "2023-04-28T10:15:00Z", "2023-04-28T09:56:00Z", "2023-04-28T10:35:00Z", "2023-04-28T10:35:00Z", "2023-04-28T10:35:00Z", "2023-04-28T10:35:00Z", "2023-04-28T10:35:00Z", "2023-04-28T10:35:00Z", "2023-04-28T10:15:00Z", "2023-04-28T10:35:00Z", "2023-04-28T09:55:00Z", "2023-04-28T09:53:00Z", "2023-04-28T09:50:00Z", "2023-04-28T09:53:00Z", "2023-04-28T09:53:00Z", "2023-04-28T09:51:00Z", "2023-04-28T09:56:00Z", "2023-04-28T10:15:00Z", "2023-04-28T09:53:00Z", "2023-04-28T10:28:00Z", "2023-04-28T10:35:00Z", "2023-04-28T10:34:00Z", "2023-04-28T10:15:00Z", "2023-04-28T09:52:00Z", "2023-04-28T09:54:00Z", "2023-04-28T09:54:00Z", "2023-04-28T10:10:00Z", "2023-04-28T10:15:00Z", "2023-04-28T09:53:00Z", "2023-04-28T10:21:00Z", "2023-04-28T09:53:00Z", "2023-04-28T09:53:00Z", "2023-04-28T09:53:00Z", "2023-04-28T09:53:00Z", "2023-04-28T10:04:00Z", "2023-04-28T10:21:00Z", "2023-04-28T10:22:00Z", "2023-04-28T09:56:00Z", "2023-04-28T09:56:00Z", "2023-04-28T09:53:00Z", "2023-04-28T10:15:00Z", "2023-04-28T10:15:00Z", "2023-04-28T09:55:00Z", "2023-04-28T09:55:00Z", "2023-04-28T10:35:00Z", "2023-04-28T09:53:00Z", "2023-04-28T10:35:00Z", "2023-04-28T10:15:00Z", "2023-04-28T09:53:00Z", "2023-04-28T10:15:00Z", "2023-04-28T09:55:00Z", "2023-04-28T09:54:00Z", "2023-04-28T09:53:00Z", "2023-04-28T09:53:00Z", "2023-04-28T10:25:00Z", "2023-04-28T10:35:00Z", "2023-04-28T10:26:00Z", "2023-04-28T10:35:00Z", "2023-04-28T10:15:00Z", "2023-04-28T09:55:00Z", "2023-04-28T09:52:00Z", "2023-04-28T10:25:00Z", "2023-04-28T10:15:00Z", "2023-04-28T09:53:00Z", "2023-04-28T10:35:00Z", "2023-04-28T10:35:00Z", "2023-04-28T09:53:00Z", "2023-04-28T09:53:00Z", "2023-04-28T10:20:00Z", "2023-04-28T09:54:00Z", "2023-04-28T10:27:00Z", "2023-04-28T10:15:00Z", "2023-04-28T10:35:00Z", "2023-04-28T10:34:00Z", "2023-04-28T09:53:00Z", "2023-04-28T09:53:00Z", "2023-04-28T10:15:00Z", "2023-04-28T10:14:00Z", "2023-04-28T10:15:00Z", "2023-04-28T09:56:00Z", "2023-04-28T10:35:00Z", "2023-04-28T09:53:00Z", "2023-04-28T10:15:00Z", "2023-04-28T10:10:00Z", "2023-04-28T09:56:00Z", "2023-04-28T09:52:00Z", "2023-04-28T10:15:00Z", "2023-04-28T10:33:00Z", "2023-04-28T09:53:00Z", "2023-04-28T10:15:00Z", "2023-04-28T09:53:00Z", "2023-04-28T10:26:00Z", "2023-04-28T10:15:00Z", "2023-04-28T09:53:00Z", "2023-04-28T10:35:00Z", "2023-04-28T10:35:00Z", "2023-04-28T10:35:00Z", "2023-04-28T10:01:00Z", "2023-04-28T09:56:00Z", "2023-04-28T09:55:00Z", "2023-04-28T10:35:00Z", "2023-04-28T10:15:00Z", "2023-04-28T10:15:00Z", "2023-04-28T10:15:00Z", "2023-04-28T10:15:00Z", "2023-04-28T10:15:00Z", "2023-04-28T10:15:00Z", "2023-04-28T10:15:00Z", "2023-04-28T10:10:00Z", "2023-04-28T09:56:00Z", "2023-04-28T09:55:00Z", "2023-04-28T09:56:00Z", "2023-04-28T10:15:00Z", "2023-04-28T10:15:00Z", "2023-04-28T10:15:00Z", "2023-04-28T10:31:00Z", "2023-04-28T09:53:00Z", "2023-04-28T10:15:00Z", "2023-04-28T10:15:00Z", "2023-04-28T10:15:00Z", "2023-04-28T10:30:00Z", "2023-04-28T10:35:00Z", "2023-04-28T10:15:00Z", "2023-04-28T10:15:00Z", "2023-04-28T09:55:00Z", "2023-04-28T09:56:00Z", "2023-04-28T10:29:00Z", "2023-04-28T09:53:00Z", "2023-04-28T10:13:00Z", "2023-04-28T09:54:00Z", "2023-04-28T10:35:00Z", "2023-04-28T10:35:00Z", "2023-04-28T09:56:00Z", "2023-04-28T09:55:00Z", "2023-04-28T10:15:00Z", "2023-04-28T10:15:00Z", "2023-04-28T10:15:00Z", "2023-04-28T10:25:00Z", "2023-04-28T10:11:00Z", "2023-04-28T10:15:00Z", "2023-04-28T10:15:00Z", "2023-04-28T10:35:00Z", "2023-04-28T09:51:00Z", "2023-04-28T09:56:00Z", "2023-04-28T10:28:00Z", "2023-04-28T10:15:00Z", "2023-04-28T10:35:00Z", "2023-04-28T10:29:00Z", "2023-04-28T10:15:00Z", "2023-04-28T09:53:00Z", "2023-04-28T10:35:00Z", "2023-04-28T09:53:00Z", "2023-04-28T09:53:00Z", "2023-04-28T10:35:00Z", "2023-04-28T09:51:00Z", "2023-04-28T09:53:00Z", "2023-04-28T09:56:00Z", "2023-04-28T10:15:00Z", "2023-04-28T10:15:00Z", "2023-04-28T10:35:00Z", "2023-04-28T09:55:00Z", "2023-04-28T10:15:00Z", "2023-04-28T09:56:00Z", "2023-04-28T09:53:00Z", "2023-04-28T10:15:00Z", "2023-04-28T10:15:00Z", "2023-04-28T09:53:00Z", "2023-04-28T10:35:00Z", "2023-04-28T09:53:00Z", "2023-04-28T09:51:00Z", "2023-04-28T10:15:00Z", "2023-04-28T10:15:00Z", "2023-04-28T09:56:00Z", "2023-04-28T10:18:00Z", "2023-04-28T09:59:00Z", "2023-04-28T09:52:00Z", "2023-04-28T10:35:00Z", "2023-04-28T10:20:00Z", "2023-04-28T10:33:00Z", "2023-04-28T10:10:00Z", "2023-04-28T10:17:00Z", "2023-04-28T09:54:00Z", "2023-04-28T09:56:00Z", "2023-04-28T10:22:00Z", "2023-04-28T10:35:00Z", "2023-04-28T09:54:00Z", "2023-04-28T09:53:00Z", "2023-04-28T10:13:00Z", "2023-04-28T09:56:00Z", "2023-04-28T10:05:00Z", "2023-04-28T09:51:00Z", "2023-04-28T10:30:00Z", "2023-04-28T10:19:00Z", "2023-04-28T10:30:00Z", "2023-04-28T09:53:00Z", "2023-04-28T10:15:00Z", "2023-04-28T10:15:00Z", "2023-04-28T10:30:00Z", "2023-04-28T10:35:00Z", "2023-04-28T10:15:00Z", "2023-04-28T10:15:00Z", "2023-04-28T10:15:00Z", "2023-04-28T10:15:00Z", "2023-04-28T10:15:00Z", "2023-04-28T10:15:00Z", "2023-04-28T10:15:00Z", "2023-04-28T09:55:00Z", "2023-04-28T10:19:00Z", "2023-04-28T09:53:00Z", "2023-04-28T09:53:00Z", "2023-04-28T10:09:00Z", "2023-04-28T10:11:00Z", "2023-04-28T10:35:00Z", "2023-04-28T09:56:00Z", "2023-04-28T09:53:00Z", "2023-04-28T09:55:00Z", "2023-04-28T09:50:00Z", "2023-04-28T09:53:00Z", "2023-04-28T10:35:00Z", "2023-04-28T09:53:00Z", "2023-04-28T10:15:00Z", "2023-04-28T10:15:00Z", "2023-04-28T09:58:00Z", "2023-04-28T10:35:00Z", "2023-04-28T10:26:00Z", "2023-04-28T10:15:00Z", "2023-04-28T10:35:00Z", "2023-04-28T10:15:00Z", "2023-04-28T09:53:00Z", "2023-04-28T10:35:00Z", "2023-04-28T09:54:00Z", "2023-04-28T10:35:00Z", "2023-04-28T10:15:00Z", "2023-04-28T10:15:00Z", "2023-04-28T09:53:00Z", "2023-04-28T09:55:00Z", "2023-04-28T09:54:00Z", "2023-04-28T10:35:00Z", "2023-04-28T09:56:00Z", "2023-04-28T10:15:00Z", "2023-04-28T10:15:00Z", "2023-04-28T10:15:00Z", "2023-04-28T09:53:00Z", "2023-04-28T09:57:00Z", "2023-04-28T09:53:00Z", "2023-04-28T09:53:00Z", "2023-04-28T10:08:00Z", "2023-04-28T10:15:00Z", "2023-04-28T10:29:00Z", "2023-04-28T09:45:00Z", "2023-04-28T10:15:00Z", "2023-04-28T09:53:00Z", "2023-04-28T09:53:00Z", "2023-04-28T09:53:00Z", "2023-04-28T09:56:00Z", "2023-04-28T09:53:00Z", "2023-04-28T10:15:00Z", "2023-04-28T09:56:00Z", "2023-04-28T09:53:00Z", "2023-04-28T10:00:00Z", "2023-04-28T10:33:00Z", "2023-04-28T10:35:00Z", "2023-04-28T09:53:00Z", "2023-04-28T10:15:00Z", "2023-04-28T10:25:00Z", "2023-04-28T09:53:00Z", "2023-04-28T10:35:00Z", "2023-04-28T09:55:00Z", "2023-04-28T09:56:00Z", "2023-04-28T10:35:00Z", "2023-04-28T10:04:00Z", "2023-04-28T10:35:00Z", "2023-04-28T09:55:00Z", "2023-04-28T10:15:00Z", "2023-04-28T09:53:00Z", "2023-04-28T09:53:00Z", "2023-04-28T10:15:00Z", "2023-04-28T10:28:00Z", "2023-04-28T10:15:00Z", "2023-04-28T09:53:00Z", "2023-04-28T10:25:00Z", "2023-04-28T09:53:00Z", "2023-04-28T09:53:00Z", "2023-04-28T10:35:00Z", "2023-04-28T09:54:00Z", "2023-04-28T10:35:00Z", "2023-04-28T10:15:00Z", "2023-04-28T10:33:00Z", "2023-04-28T10:15:00Z", "2023-04-28T09:53:00Z", "2023-04-28T10:15:00Z", "2023-04-28T10:15:00Z", "2023-04-28T10:35:00Z", "2023-04-28T10:35:00Z", "2023-04-28T10:15:00Z", "2023-04-28T09:53:00Z", "2023-04-28T10:15:00Z", "2023-04-28T09:54:00Z", "2023-04-28T09:56:00Z", "2023-04-28T10:35:00Z", "2023-04-28T09:53:00Z", "2023-04-28T09:56:00Z", "2023-04-28T10:15:00Z", "2023-04-28T10:09:00Z", "2023-04-28T10:15:00Z", "2023-04-28T09:53:00Z", "2023-04-28T10:15:00Z", "2023-04-28T10:23:00Z", "2023-04-28T10:15:00Z", "2023-04-28T09:54:00Z", "2023-04-28T10:15:00Z", "2023-04-28T10:35:00Z", "2023-04-28T10:35:00Z", "2023-04-28T10:15:00Z", "2023-04-28T09:51:00Z", "2023-04-28T09:56:00Z", "2023-04-28T09:54:00Z", "2023-04-28T09:53:00Z", "2023-04-28T10:25:00Z", "2023-04-28T09:53:00Z", "2023-04-28T10:31:00Z", "2023-04-28T09:55:00Z", "2023-04-28T09:53:00Z", "2023-04-28T09:53:00Z", "2023-04-28T10:35:00Z", "2023-04-28T10:15:00Z", "2023-04-28T09:53:00Z", "2023-04-28T10:15:00Z", "2023-04-28T10:15:00Z", "2023-04-28T09:53:00Z", "2023-04-28T10:35:00Z", "2023-04-28T10:35:00Z", "2023-04-28T10:15:00Z", "2023-04-28T09:53:00Z", "2023-04-28T09:53:00Z", "2023-04-28T09:53:00Z", "2023-04-28T10:15:00Z", "2023-04-28T09:53:00Z", "2023-04-28T10:28:00Z", "2023-04-28T10:15:00Z", "2023-04-28T10:06:00Z", "2023-04-28T09:53:00Z", "2023-04-28T09:52:00Z", "2023-04-28T10:15:00Z", "2023-04-28T10:35:00Z", "2023-04-28T10:15:00Z", "2023-04-28T09:53:00Z", "2023-04-28T09:56:00Z", "2023-04-28T10:15:00Z", "2023-04-28T10:10:00Z", "2023-04-28T10:20:00Z", "2023-04-28T09:56:00Z", "2023-04-28T10:35:00Z", "2023-04-28T09:53:00Z", "2023-04-28T09:53:00Z", "2023-04-28T10:06:00Z", "2023-04-28T10:15:00Z", "2023-04-28T10:15:00Z", "2023-04-28T09:55:00Z", "2023-04-28T10:15:00Z", "2023-04-28T10:35:00Z", "2023-04-28T09:55:00Z", "2023-04-28T10:15:00Z", "2023-04-28T09:53:00Z", "2023-04-28T09:56:00Z", "2023-04-28T09:53:00Z", "2023-04-28T10:12:00Z", "2023-04-28T09:55:00Z", "2023-04-28T09:53:00Z", "2023-04-28T09:55:00Z", "2023-04-28T10:15:00Z", "2023-04-28T09:53:00Z", "2023-04-28T10:15:00Z", "2023-04-28T10:00:00Z", "2023-04-28T09:53:00Z", "2023-04-28T10:23:00Z", "2023-04-28T10:10:00Z", "2023-04-28T09:55:00Z", "2023-04-28T09:53:00Z", "2023-04-28T09:56:00Z", "2023-04-28T09:56:00Z", "2023-04-28T10:11:00Z", "2023-04-28T09:53:00Z", "2023-04-28T09:55:00Z", "2023-04-28T09:55:00Z", "2023-04-28T09:53:00Z", "2023-04-28T10:35:00Z", "2023-04-28T10:14:00Z", "2023-04-28T09:56:00Z", "2023-04-28T10:15:00Z", "2023-04-28T10:20:00Z", "2023-04-28T10:15:00Z", "2023-04-28T09:53:00Z", "2023-04-28T10:35:00Z", "2023-04-28T10:25:00Z", "2023-04-28T09:55:00Z", "2023-04-28T09:55:00Z", "2023-04-28T09:56:00Z", "2023-04-28T10:15:00Z", "2023-04-28T10:15:00Z", "2023-04-28T10:35:00Z", "2023-04-28T10:15:00Z", "2023-04-28T10:35:00Z", "2023-04-28T09:45:00Z", "2023-04-28T09:53:00Z", "2023-04-28T10:15:00Z", "2023-04-28T10:00:00Z", "2023-04-28T10:15:00Z", "2023-04-28T10:35:00Z", "2023-04-28T10:35:00Z", "2023-04-28T10:15:00Z", "2023-04-28T10:11:00Z", "2023-04-28T09:53:00Z", "2023-04-28T10:25:00Z", "2023-04-28T09:53:00Z", "2023-04-28T10:15:00Z", "2023-04-28T10:15:00Z", "2023-04-28T10:35:00Z", "2023-04-28T10:15:00Z", "2023-04-28T10:15:00Z", "2023-04-28T10:15:00Z", "2023-04-28T10:15:00Z", "2023-04-28T09:56:00Z", "2023-04-28T10:33:00Z", "2023-04-28T09:56:00Z", "2023-04-28T10:35:00Z", "2023-04-28T09:53:00Z", "2023-04-28T10:15:00Z", "2023-04-28T10:15:00Z", "2023-04-28T09:56:00Z", "2023-04-28T09:53:00Z", "2023-04-28T10:27:00Z", "2023-04-28T10:15:00Z", "2023-04-28T10:35:00Z", "2023-04-28T09:53:00Z", "2023-04-28T10:15:00Z", "2023-04-28T10:15:00Z", "2023-04-28T09:53:00Z", "2023-04-28T10:15:00Z", "2023-04-28T09:53:00Z", "2023-04-28T10:23:00Z", "2023-04-28T09:55:00Z", "2023-04-28T10:15:00Z", "2023-04-28T09:53:00Z", "2023-04-28T10:15:00Z", "2023-04-28T09:53:00Z", "2023-04-28T10:20:00Z", "2023-04-28T09:53:00Z", "2023-04-28T09:53:00Z", "2023-04-28T10:15:00Z", "2023-04-28T09:53:00Z", "2023-04-28T09:53:00Z", "2023-04-28T09:53:00Z", "2023-04-28T09:55:00Z", "2023-04-28T10:35:00Z", "2023-04-28T09:55:00Z", "2023-04-28T10:15:00Z", "2023-04-28T10:15:00Z", "2023-04-28T10:15:00Z", "2023-04-28T09:56:00Z", "2023-04-28T09:56:00Z", "2023-04-28T10:15:00Z", "2023-04-28T10:35:00Z", "2023-04-28T10:35:00Z", "2023-04-28T10:15:00Z", "2023-04-28T09:55:00Z", "2023-04-28T09:55:00Z", "2023-04-28T10:28:00Z", "2023-04-28T09:53:00Z", "2023-04-28T09:56:00Z", "2023-04-28T10:15:00Z", "2023-04-28T10:15:00Z", "2023-04-28T10:15:00Z", "2023-04-28T09:53:00Z", "2023-04-28T10:15:00Z", "2023-04-28T10:15:00Z", "2023-04-28T10:35:00Z", "2023-04-28T09:53:00Z", "2023-04-28T10:25:00Z", "2023-04-28T10:14:00Z", "2023-04-28T09:53:00Z", "2023-04-28T09:55:00Z", "2023-04-28T10:15:00Z", "2023-04-28T10:15:00Z", "2023-04-28T10:15:00Z", "2023-04-28T10:02:00Z", "2023-04-28T10:15:00Z", "2023-04-28T09:53:00Z", "2023-04-28T10:15:00Z", "2023-04-28T10:00:00Z", "2023-04-28T09:53:00Z", "2023-04-28T10:15:00Z", "2023-04-28T09:51:00Z", "2023-04-28T10:05:00Z", "2023-04-28T10:17:00Z", "2023-04-28T09:53:00Z", "2023-04-28T10:15:00Z", "2023-04-28T09:52:00Z", "2023-04-28T10:15:00Z", "2023-04-28T10:15:00Z", "2023-04-28T10:31:00Z", "2023-04-28T09:53:00Z", "2023-04-28T10:35:00Z", "2023-04-28T09:54:00Z", "2023-04-28T10:15:00Z", "2023-04-28T09:56:00Z", "2023-04-28T10:35:00Z", "2023-04-28T10:15:00Z", "2023-04-28T09:56:00Z", "2023-04-28T10:04:00Z", "2023-04-28T10:09:00Z", "2023-04-28T09:56:00Z", "2023-04-28T10:15:00Z", "2023-04-28T10:35:00Z", "2023-04-28T10:15:00Z", "2023-04-28T10:35:00Z", "2023-04-28T10:35:00Z", "2023-04-28T10:10:00Z", "2023-04-28T10:15:00Z", "2023-04-28T09:53:00Z", "2023-04-28T10:15:00Z", "2023-04-28T10:35:00Z", "2023-04-28T10:15:00Z", "2023-04-28T10:10:00Z", "2023-04-28T10:15:00Z", "2023-04-28T10:15:00Z", "2023-04-28T10:35:00Z", "2023-04-28T10:35:00Z", "2023-04-28T10:15:00Z", "2023-04-28T10:15:00Z", "2023-04-28T10:15:00Z", "2023-04-28T09:55:00Z", "2023-04-28T10:19:00Z", "2023-04-28T09:53:00Z", "2023-04-28T09:53:00Z", "2023-04-28T10:15:00Z", "2023-04-28T09:53:00Z", "2023-04-28T09:53:00Z", "2023-04-28T09:53:00Z", "2023-04-28T10:35:00Z", "2023-04-28T10:15:00Z", "2023-04-28T09:52:00Z", "2023-04-28T10:15:00Z", "2023-04-28T10:15:00Z", "2023-04-28T10:15:00Z", "2023-04-28T09:51:00Z", "2023-04-28T10:15:00Z", "2023-04-28T10:15:00Z", "2023-04-28T10:15:00Z", "2023-04-28T10:03:00Z", "2023-04-28T10:15:00Z", "2023-04-28T10:15:00Z", "2023-04-28T10:15:00Z", "2023-04-28T10:15:00Z", "2023-04-28T10:15:00Z", "2023-04-28T09:56:00Z", "2023-04-28T09:51:00Z", "2023-04-28T09:53:00Z", "2023-04-28T10:24:00Z", "2023-04-28T09:53:00Z", "2023-04-28T10:15:00Z", "2023-04-28T10:15:00Z", "2023-04-28T09:54:00Z", "2023-04-28T10:08:00Z", "2023-04-28T10:35:00Z", "2023-04-28T10:15:00Z", "2023-04-28T09:53:00Z", "2023-04-28T09:54:00Z", "2023-04-28T09:55:00Z", "2023-04-28T09:54:00Z", "2023-04-28T09:56:00Z", "2023-04-28T10:15:00Z", "2023-04-28T09:52:00Z", "2023-04-28T10:25:00Z", "2023-04-28T09:53:00Z", "2023-04-28T10:31:00Z", "2023-04-28T09:55:00Z", "2023-04-28T10:15:00Z", "2023-04-28T09:56:00Z", "2023-04-28T10:26:00Z", "2023-04-28T09:56:00Z", "2023-04-28T10:35:00Z", "2023-04-28T09:54:00Z", "2023-04-28T09:56:00Z", "2023-04-28T09:53:00Z", "2023-04-28T10:35:00Z", "2023-04-28T10:15:00Z", "2023-04-28T10:30:00Z", "2023-04-28T09:53:00Z", "2023-04-28T10:30:00Z", "2023-04-28T09:53:00Z", "2023-04-28T10:15:00Z", "2023-04-28T10:15:00Z", "2023-04-28T09:54:00Z", "2023-04-28T09:56:00Z", "2023-04-28T09:54:00Z", "2023-04-28T10:35:00Z", "2023-04-28T10:15:00Z", "2023-04-28T10:10:00Z", "2023-04-28T09:56:00Z", "2023-04-28T10:19:00Z", "2023-04-28T10:15:00Z", "2023-04-28T09:51:00Z", "2023-04-28T09:48:00Z", "2023-04-28T09:53:00Z", "2023-04-28T09:53:00Z", "2023-04-28T10:15:00Z", "2023-04-28T09:51:00Z", "2023-04-28T10:35:00Z", "2023-04-28T10:35:00Z", "2023-04-28T09:56:00Z", "2023-04-28T10:15:00Z", "2023-04-28T10:35:00Z", "2023-04-28T09:53:00Z", "2023-04-28T09:53:00Z", "2023-04-28T10:35:00Z", "2023-04-28T09:56:00Z", "2023-04-28T10:25:00Z", "2023-04-28T10:15:00Z", "2023-04-28T10:15:00Z", "2023-04-28T10:16:00Z", "2023-04-28T10:35:00Z", "2023-04-28T10:35:00Z", "2023-04-28T09:54:00Z", "2023-04-28T10:15:00Z", "2023-04-28T10:15:00Z", "2023-04-28T09:55:00Z", "2023-04-28T10:15:00Z", "2023-04-28T10:15:00Z", "2023-04-28T10:15:00Z", "2023-04-28T10:15:00Z", "2023-04-28T10:15:00Z", "2023-04-28T10:35:00Z", "2023-04-28T09:56:00Z", "2023-04-28T10:35:00Z", "2023-04-28T10:15:00Z", "2023-04-28T10:15:00Z", "2023-04-28T10:35:00Z", "2023-04-28T10:15:00Z", "2023-04-28T10:35:00Z", "2023-04-28T10:15:00Z", "2023-04-28T10:15:00Z", "2023-04-28T10:10:00Z", "2023-04-28T10:15:00Z", "2023-04-28T10:15:00Z", "2023-04-28T09:56:00Z", "2023-04-28T10:10:00Z", "2023-04-28T10:35:00Z", "2023-04-28T10:35:00Z", "2023-04-28T10:35:00Z", "2023-04-28T10:35:00Z", "2023-04-28T09:53:00Z", "2023-04-28T09:54:00Z", "2023-04-28T09:50:00Z", "2023-04-28T10:15:00Z", "2023-04-28T09:53:00Z", "2023-04-28T09:53:00Z", "2023-04-28T09:56:00Z", "2023-04-28T09:53:00Z", "2023-04-28T09:53:00Z", "2023-04-28T10:08:00Z", "2023-04-28T10:35:00Z", "2023-04-28T09:53:00Z", "2023-04-28T10:26:00Z", "2023-04-28T10:35:00Z", "2023-04-28T10:29:00Z", "2023-04-28T09:53:00Z", "2023-04-28T10:15:00Z", "2023-04-28T09:53:00Z", "2023-04-28T10:32:00Z", "2023-04-28T09:55:00Z", "2023-04-28T10:15:00Z", "2023-04-28T10:35:00Z", "2023-04-28T09:53:00Z", "2023-04-28T09:53:00Z", "2023-04-28T09:56:00Z", "2023-04-28T09:54:00Z", "2023-04-28T09:55:00Z", "2023-04-28T09:53:00Z", "2023-04-28T09:53:00Z", "2023-04-28T09:51:00Z", "2023-04-28T09:53:00Z", "2023-04-28T10:15:00Z", "2023-04-28T09:56:00Z", "2023-04-28T09:55:00Z", "2023-04-28T09:51:00Z", "2023-04-28T10:15:00Z", "2023-04-28T10:15:00Z", "2023-04-28T10:30:00Z", "2023-04-28T09:55:00Z", "2023-04-28T10:15:00Z", "2023-04-28T10:35:00Z", "2023-04-28T10:13:00Z", "2023-04-28T09:53:00Z", "2023-04-28T10:35:00Z", "2023-04-28T10:35:00Z", "2023-04-28T10:35:00Z", "2023-04-28T09:53:00Z", "2023-04-28T09:55:00Z", "2023-04-28T10:15:00Z", "2023-04-28T09:53:00Z", "2023-04-28T10:15:00Z", "2023-04-28T10:15:00Z", "2023-04-28T09:53:00Z", "2023-04-28T10:15:00Z", "2023-04-28T09:55:00Z", "2023-04-28T09:53:00Z", "2023-04-28T09:54:00Z", "2023-04-28T10:35:00Z", "2023-04-28T10:15:00Z", "2023-04-28T10:35:00Z", "2023-04-28T10:15:00Z", "2023-04-28T09:56:00Z", "2023-04-28T09:53:00Z", "2023-04-28T09:53:00Z", "2023-04-28T10:15:00Z", "2023-04-28T10:00:00Z", "2023-04-28T10:15:00Z", "2023-04-28T09:53:00Z", "2023-04-28T10:02:00Z", "2023-04-28T09:53:00Z", "2023-04-28T10:35:00Z", "2023-04-28T09:56:00Z", "2023-04-28T10:30:00Z", "2023-04-28T10:15:00Z", "2023-04-28T10:35:00Z", "2023-04-28T10:15:00Z", "2023-04-28T10:35:00Z", "2023-04-28T09:53:00Z", "2023-04-28T10:20:00Z", "2023-04-28T09:55:00Z", "2023-04-28T09:55:00Z", "2023-04-28T10:35:00Z", "2023-04-28T10:15:00Z", "2023-04-28T09:55:00Z", "2023-04-28T10:15:00Z", "2023-04-28T10:33:00Z", "2023-04-28T10:15:00Z", "2023-04-28T10:35:00Z", "2023-04-28T10:15:00Z", "2023-04-28T10:35:00Z", "2023-04-28T09:53:00Z", "2023-04-28T09:53:00Z", "2023-04-28T10:35:00Z", "2023-04-28T09:53:00Z", "2023-04-28T10:35:00Z", "2023-04-28T10:11:00Z", "2023-04-28T10:15:00Z", "2023-04-28T10:35:00Z", "2023-04-28T09:52:00Z", "2023-04-28T09:53:00Z", "2023-04-28T10:19:00Z", "2023-04-28T09:56:00Z", "2023-04-28T09:54:00Z", "2023-04-28T10:33:00Z", "2023-04-28T10:35:00Z", "2023-04-28T10:15:00Z", "2023-04-28T09:53:00Z", "2023-04-28T10:11:00Z", "2023-04-28T10:15:00Z", "2023-04-28T09:54:00Z", "2023-04-28T10:15:00Z", "2023-04-28T10:35:00Z", "2023-04-28T10:29:00Z", "2023-04-28T10:15:00Z", "2023-04-28T10:35:00Z", "2023-04-28T10:15:00Z", "2023-04-28T10:10:00Z", "2023-04-28T10:15:00Z", "2023-04-28T09:56:00Z", "2023-04-28T10:35:00Z", "2023-04-28T10:35:00Z", "2023-04-28T10:15:00Z", "2023-04-28T10:35:00Z", "2023-04-28T10:10:00Z", "2023-04-28T10:15:00Z", "2023-04-28T10:10:00Z", "2023-04-28T09:53:00Z", "2023-04-28T10:35:00Z", "2023-04-28T10:35:00Z", "2023-04-28T10:35:00Z", "2023-04-28T09:52:00Z", "2023-04-28T09:56:00Z", "2023-04-28T10:35:00Z", "2023-04-28T09:53:00Z", "2023-04-28T10:15:00Z", "2023-04-28T10:35:00Z", "2023-04-28T10:25:00Z", "2023-04-28T10:15:00Z", "2023-04-28T10:35:00Z", "2023-04-28T09:53:00Z", "2023-04-28T09:55:00Z", "2023-04-28T09:53:00Z", "2023-04-28T10:35:00Z", "2023-04-28T09:53:00Z", "2023-04-28T09:53:00Z", "2023-04-28T09:53:00Z", "2023-04-28T09:53:00Z", "2023-04-28T10:35:00Z", "2023-04-28T10:25:00Z", "2023-04-28T10:15:00Z", "2023-04-28T09:52:00Z", "2023-04-28T10:15:00Z", "2023-04-28T10:35:00Z", "2023-04-28T09:56:00Z", "2023-04-28T09:53:00Z", "2023-04-28T10:35:00Z", "2023-04-28T09:52:00Z", "2023-04-28T09:56:00Z", "2023-04-28T09:58:00Z", "2023-04-28T09:54:00Z", "2023-04-28T10:15:00Z", "2023-04-28T10:15:00Z", "2023-04-28T10:35:00Z", "2023-04-28T09:52:00Z", "2023-04-28T09:53:00Z", "2023-04-28T09:54:00Z", "2023-04-28T09:53:00Z", "2023-04-28T10:15:00Z", "2023-04-28T10:25:00Z", "2023-04-28T10:35:00Z", "2023-04-28T10:28:00Z", "2023-04-28T10:32:00Z", "2023-04-28T10:35:00Z", "2023-04-28T10:35:00Z", "2023-04-28T09:53:00Z", "2023-04-28T10:26:00Z", "2023-04-28T09:53:00Z", "2023-04-28T09:52:00Z", "2023-04-28T10:35:00Z", "2023-04-28T10:15:00Z", "2023-04-28T10:15:00Z", "2023-04-28T09:56:00Z", "2023-04-28T09:53:00Z", "2023-04-28T10:00:00Z", "2023-04-28T09:53:00Z", "2023-04-28T09:55:00Z", "2023-04-28T10:33:00Z", "2023-04-28T10:09:00Z", "2023-04-28T10:15:00Z", "2023-04-28T09:54:00Z", "2023-04-28T09:53:00Z", "2023-04-28T10:15:00Z", "2023-04-28T10:35:00Z", "2023-04-28T09:54:00Z", "2023-04-28T09:52:00Z", "2023-04-28T09:55:00Z", "2023-04-28T10:35:00Z", "2023-04-28T10:28:00Z", "2023-04-28T10:15:00Z", "2023-04-28T09:53:00Z", "2023-04-28T10:35:00Z", "2023-04-28T09:56:00Z", "2023-04-28T09:53:00Z", "2023-04-28T09:53:00Z", "2023-04-28T10:15:00Z", "2023-04-28T09:52:00Z", "2023-04-28T09:52:00Z", "2023-04-28T10:15:00Z", "2023-04-28T09:53:00Z", "2023-04-28T09:53:00Z", "2023-04-28T09:53:00Z", "2023-04-28T09:53:00Z", "2023-04-28T10:15:00Z", "2023-04-28T10:15:00Z", "2023-04-28T10:07:00Z", "2023-04-28T09:56:00Z", "2023-04-28T10:15:00Z", "2023-04-28T10:15:00Z", "2023-04-28T09:53:00Z", "2023-04-28T10:20:00Z", "2023-04-28T10:15:00Z", "2023-04-28T10:35:00Z", "2023-04-28T09:57:00Z", "2023-04-28T09:53:00Z", "2023-04-28T10:15:00Z", "2023-04-28T10:15:00Z", "2023-04-28T09:56:00Z", "2023-04-28T09:53:00Z", "2023-04-28T10:35:00Z", "2023-04-28T09:54:00Z", "2023-04-28T10:35:00Z", "2023-04-28T10:28:00Z", "2023-04-28T10:15:00Z", "2023-04-28T09:51:00Z", "2023-04-28T10:15:00Z", "2023-04-28T10:15:00Z", "2023-04-28T10:30:00Z", "2023-04-28T10:35:00Z", "2023-04-28T10:35:00Z", "2023-04-28T10:15:00Z", "2023-04-28T09:56:00Z", "2023-04-28T09:53:00Z", "2023-04-28T10:10:00Z", "2023-04-28T09:56:00Z", "2023-04-28T09:58:00Z", "2023-04-28T10:35:00Z", "2023-04-28T10:25:00Z", "2023-04-28T10:19:00Z", "2023-04-28T10:28:00Z", "2023-04-28T10:27:00Z", "2023-04-28T09:53:00Z", "2023-04-28T09:53:00Z", "2023-04-28T09:53:00Z", "2023-04-28T09:53:00Z", "2023-04-28T10:33:00Z", "2023-04-28T09:53:00Z", "2023-04-28T09:55:00Z", "2023-04-28T10:32:00Z", "2023-04-28T09:53:00Z", "2023-04-28T10:15:00Z", "2023-04-28T09:54:00Z", "2023-04-28T09:53:00Z", "2023-04-28T09:54:00Z", "2023-04-28T10:35:00Z", "2023-04-28T10:19:00Z", "2023-04-28T10:26:00Z", "2023-04-28T09:55:00Z", "2023-04-28T10:15:00Z", "2023-04-28T10:35:00Z", "2023-04-28T10:20:00Z", "2023-04-28T10:34:00Z", "2023-04-28T10:17:00Z", "2023-04-28T10:12:00Z", "2023-04-28T10:15:00Z", "2023-04-28T09:52:00Z", "2023-04-28T10:25:00Z", "2023-04-28T09:53:00Z", "2023-04-28T10:35:00Z", "2023-04-28T09:56:00Z", "2023-04-28T10:15:00Z", "2023-04-28T10:29:00Z", "2023-04-28T09:55:00Z", "2023-04-28T09:53:00Z", "2023-04-28T10:35:00Z", "2023-04-28T09:51:00Z", "2023-04-28T10:15:00Z", "2023-04-28T09:56:00Z", "2023-04-28T09:53:00Z", "2023-04-28T10:15:00Z", "2023-04-28T10:15:00Z", "2023-04-28T10:15:00Z", "2023-04-28T10:15:00Z", "2023-04-28T10:35:00Z", "2023-04-28T09:52:00Z", "2023-04-28T10:35:00Z", "2023-04-28T10:24:00Z", "2023-04-28T09:56:00Z", "2023-04-28T09:55:00Z", "2023-04-28T09:51:00Z", "2023-04-28T09:56:00Z", "2023-04-28T09:56:00Z", "2023-04-28T10:00:00Z", "2023-04-28T09:53:00Z", "2023-04-28T10:16:00Z", "2023-04-28T10:27:00Z", "2023-04-28T09:56:00Z", "2023-04-28T09:52:00Z", "2023-04-28T10:21:00Z", "2023-04-28T09:59:00Z", "2023-04-28T09:52:00Z", "2023-04-28T09:56:00Z", "2023-04-28T09:53:00Z", "2023-04-28T09:56:00Z", "2023-04-28T09:57:00Z", "2023-04-28T09:57:00Z", "2023-04-28T10:31:00Z", "2023-04-28T09:55:00Z", "2023-04-28T09:56:00Z", "2023-04-28T09:56:00Z", "2023-04-28T09:56:00Z", "2023-04-28T10:10:00Z", "2023-04-28T09:59:00Z", "2023-04-28T09:56:00Z", "2023-04-28T10:30:00Z", "2023-04-28T10:26:00Z", "2023-04-28T10:01:00Z", "2023-04-28T09:52:00Z", "2023-04-28T10:15:00Z", "2023-04-28T09:53:00Z", "2023-04-28T09:56:00Z", "2023-04-28T09:53:00Z", "2023-04-28T09:55:00Z", "2023-04-28T09:56:00Z", "2023-04-28T09:56:00Z", "2023-04-28T09:53:00Z", "2023-04-28T10:15:00Z", "2023-04-28T09:53:00Z", "2023-04-28T09:56:00Z", "2023-04-28T10:19:00Z", "2023-04-28T09:51:00Z", "2023-04-28T10:33:00Z", "2023-04-28T09:57:00Z", "2023-04-28T09:52:00Z", "2023-04-28T10:15:00Z", "2023-04-28T10:35:00Z", "2023-04-28T10:35:00Z", "2023-04-28T10:15:00Z", "2023-04-28T10:15:00Z", "2023-04-28T09:56:00Z", "2023-04-28T09:53:00Z", "2023-04-28T10:10:00Z", "2023-04-28T10:15:00Z", "2023-04-28T09:51:00Z", "2023-04-28T09:56:00Z", "2023-04-28T10:35:00Z", "2023-04-28T10:25:00Z", "2023-04-28T09:53:00Z", "2023-04-28T10:25:00Z", "2023-04-28T10:15:00Z", "2023-04-28T10:15:00Z", "2023-04-28T10:35:00Z", "2023-04-28T09:55:00Z", "2023-04-28T09:56:00Z", "2023-04-28T10:23:00Z", "2023-04-28T10:15:00Z", "2023-04-28T10:31:00Z", "2023-04-28T09:53:00Z", "2023-04-28T10:15:00Z", "2023-04-28T10:35:00Z", "2023-04-28T10:35:00Z", "2023-04-28T10:15:00Z", "2023-04-28T09:53:00Z", "2023-04-28T09:52:00Z", "2023-04-28T09:52:00Z", "2023-04-28T09:56:00Z", "2023-04-28T10:15:00Z", "2023-04-28T10:35:00Z", "2023-04-28T10:15:00Z", "2023-04-28T10:15:00Z", "2023-04-28T09:53:00Z", "2023-04-28T10:15:00Z", "2023-04-28T09:54:00Z", "2023-04-28T09:54:00Z", "2023-04-28T10:19:00Z", "2023-04-28T10:35:00Z", "2023-04-28T10:10:00Z", "2023-04-28T10:15:00Z", "2023-04-28T09:52:00Z", "2023-04-28T10:35:00Z", "2023-04-28T09:53:00Z", "2023-04-28T10:35:00Z", "2023-04-28T10:15:00Z", "2023-04-28T10:35:00Z", "2023-04-28T09:53:00Z", "2023-04-28T10:15:00Z", "2023-04-28T09:53:00Z", "2023-04-28T10:25:00Z", "2023-04-28T10:35:00Z", "2023-04-28T10:15:00Z", "2023-04-28T09:53:00Z", "2023-04-28T10:15:00Z", "2023-04-28T10:15:00Z", "2023-04-28T10:15:00Z", "2023-04-28T10:16:00Z", "2023-04-28T10:33:00Z", "2023-04-28T09:51:00Z", "2023-04-28T09:59:00Z", "2023-04-28T09:51:00Z", "2023-04-28T10:15:00Z", "2023-04-28T09:54:00Z", "2023-04-28T10:35:00Z", "2023-04-28T09:53:00Z", "2023-04-28T10:35:00Z", "2023-04-28T10:15:00Z", "2023-04-28T10:35:00Z", "2023-04-28T10:30:00Z", "2023-04-28T09:56:00Z", "2023-04-28T10:22:00Z", "2023-04-28T09:53:00Z", "2023-04-28T10:15:00Z", "2023-04-28T10:35:00Z", "2023-04-28T09:53:00Z", "2023-04-28T10:33:00Z", "2023-04-28T10:33:00Z", "2023-04-28T10:30:00Z", "2023-04-28T10:15:00Z", "2023-04-28T10:15:00Z", "2023-04-28T10:15:00Z", "2023-04-28T09:53:00Z", "2023-04-28T09:51:00Z", "2023-04-28T10:15:00Z", "2023-04-28T10:15:00Z", "2023-04-28T09:51:00Z", "2023-04-28T10:15:00Z", "2023-04-28T10:35:00Z", "2023-04-28T10:15:00Z", "2023-04-28T09:55:00Z", "2023-04-28T10:35:00Z", "2023-04-28T10:35:00Z", "2023-04-28T10:15:00Z", "2023-04-28T09:56:00Z", "2023-04-28T10:15:00Z", "2023-04-28T09:56:00Z", "2023-04-28T09:55:00Z", "2023-04-28T09:51:00Z", "2023-04-28T09:56:00Z", "2023-04-28T09:53:00Z", "2023-04-28T09:52:00Z", "2023-04-28T09:53:00Z", "2023-04-28T09:53:00Z", "2023-04-28T09:55:00Z", "2023-04-28T10:35:00Z", "2023-04-28T09:53:00Z", "2023-04-28T09:53:00Z", "2023-04-28T10:35:00Z", "2023-04-28T09:53:00Z", "2023-04-28T10:15:00Z", "2023-04-28T10:35:00Z", "2023-04-28T10:15:00Z", "2023-04-28T10:15:00Z", "2023-04-28T10:35:00Z", "2023-04-28T10:35:00Z", "2023-04-28T10:20:00Z", "2023-04-28T09:53:00Z", "2023-04-28T09:53:00Z", "2023-04-28T10:15:00Z", "2023-04-28T09:53:00Z", "2023-04-28T10:15:00Z", "2023-04-28T10:35:00Z", "2023-04-28T10:15:00Z", "2023-04-28T09:53:00Z", "2023-04-28T09:53:00Z", "2023-04-28T10:25:00Z", "2023-04-28T09:53:00Z", "2023-04-28T09:54:00Z", "2023-04-28T09:54:00Z", "2023-04-28T10:15:00Z", "2023-04-28T09:55:00Z", "2023-04-28T10:15:00Z", "2023-04-28T09:51:00Z", "2023-04-28T09:54:00Z", "2023-04-28T09:56:00Z", "2023-04-28T09:53:00Z", "2023-04-28T09:53:00Z", "2023-04-28T09:53:00Z", "2023-04-28T10:15:00Z", "2023-04-28T09:53:00Z", "2023-04-28T09:51:00Z", "2023-04-28T10:35:00Z", "2023-04-28T10:10:00Z", "2023-04-28T09:53:00Z", "2023-04-28T10:10:00Z", "2023-04-28T09:54:00Z", "2023-04-28T10:35:00Z", "2023-04-28T10:35:00Z", "2023-04-28T09:53:00Z", "2023-04-28T10:15:00Z", "2023-04-28T09:53:00Z", "2023-04-28T10:15:00Z", "2023-04-28T10:15:00Z", "2023-04-28T10:15:00Z", "2023-04-28T09:58:00Z", "2023-04-28T09:54:00Z", "2023-04-28T10:35:00Z", "2023-04-28T09:53:00Z", "2023-04-28T10:15:00Z", "2023-04-28T10:20:00Z", "2023-04-28T10:33:00Z", "2023-04-28T09:55:00Z", "2023-04-28T10:24:00Z", "2023-04-28T10:34:00Z", "2023-04-28T10:35:00Z", "2023-04-28T10:15:00Z", "2023-04-28T10:15:00Z", "2023-04-28T10:05:00Z", "2023-04-28T10:15:00Z", "2023-04-28T10:15:00Z", "2023-04-28T09:56:00Z", "2023-04-28T10:31:00Z", "2023-04-28T09:53:00Z", "2023-04-28T09:53:00Z", "2023-04-28T10:15:00Z", "2023-04-28T10:02:00Z", "2023-04-28T10:15:00Z", "2023-04-28T10:15:00Z", "2023-04-28T09:56:00Z", "2023-04-28T09:53:00Z", "2023-04-28T10:31:00Z", "2023-04-28T10:35:00Z", "2023-04-28T09:55:00Z", "2023-04-28T10:15:00Z", "2023-04-28T10:15:00Z", "2023-04-28T09:53:00Z", "2023-04-28T09:53:00Z", "2023-04-28T10:35:00Z", "2023-04-28T10:35:00Z", "2023-04-28T09:53:00Z", "2023-04-28T09:56:00Z", "2023-04-28T10:35:00Z", "2023-04-28T10:15:00Z", "2023-04-28T09:56:00Z", "2023-04-28T09:54:00Z", "2023-04-28T09:53:00Z", "2023-04-28T09:53:00Z", "2023-04-28T10:15:00Z", "2023-04-28T09:53:00Z", "2023-04-28T10:15:00Z", "2023-04-28T09:56:00Z", "2023-04-28T10:23:00Z", "2023-04-28T10:15:00Z", "2023-04-28T10:15:00Z", "2023-04-28T10:35:00Z", "2023-04-28T10:15:00Z", "2023-04-28T09:56:00Z", "2023-04-28T10:15:00Z", "2023-04-28T09:53:00Z", "2023-04-28T10:35:00Z", "2023-04-28T10:15:00Z", "2023-04-28T09:56:00Z", "2023-04-28T09:51:00Z", "2023-04-28T09:56:00Z", "2023-04-28T10:15:00Z", "2023-04-28T09:52:00Z", "2023-04-28T10:15:00Z", "2023-04-28T10:35:00Z", "2023-04-28T09:55:00Z", "2023-04-28T10:10:00Z", "2023-04-28T09:55:00Z", "2023-04-28T09:55:00Z", "2023-04-28T09:55:00Z", "2023-04-28T10:30:00Z", "2023-04-28T10:30:00Z", "2023-04-28T10:30:00Z", "2023-04-28T10:30:00Z", "2023-04-28T10:30:00Z", "2023-04-28T10:30:00Z", "2023-04-28T10:20:00Z", "2023-04-28T10:30:00Z", "2023-04-28T10:30:00Z", "2023-04-28T10:30:00Z", "2023-04-28T10:30:00Z", "2023-04-28T10:30:00Z", "2023-04-28T10:30:00Z", "2023-04-28T10:30:00Z", "2023-04-28T10:30:00Z", "2023-04-28T10:30:00Z", "2023-04-28T10:30:00Z", "2023-04-28T10:07:00Z", "2023-04-28T09:55:00Z", "2023-04-28T09:55:00Z", "2023-04-28T09:55:00Z", "2023-04-28T10:25:00Z", "2023-04-28T09:53:00Z", "2023-04-28T09:53:00Z", "2023-04-28T09:52:00Z", "2023-04-28T10:15:00Z", "2023-04-28T10:35:00Z", "2023-04-28T09:53:00Z", "2023-04-28T09:53:00Z", "2023-04-28T09:54:00Z", "2023-04-28T10:15:00Z", "2023-04-28T10:35:00Z", "2023-04-28T09:55:00Z", "2023-04-28T10:35:00Z", "2023-04-28T10:35:00Z", "2023-04-28T10:15:00Z", "2023-04-28T10:15:00Z", "2023-04-28T10:35:00Z", "2023-04-28T10:35:00Z", "2023-04-28T09:53:00Z", "2023-04-28T09:54:00Z", "2023-04-28T10:15:00Z", "2023-04-28T09:56:00Z", "2023-04-28T09:55:00Z", "2023-04-28T10:34:00Z", "2023-04-28T10:15:00Z", "2023-04-28T09:52:00Z", "2023-04-28T09:54:00Z", "2023-04-28T10:15:00Z", "2023-04-28T10:15:00Z", "2023-04-28T10:35:00Z", "2023-04-28T09:53:00Z", "2023-04-28T10:30:00Z", "2023-04-28T09:54:00Z", "2023-04-28T10:35:00Z", "2023-04-28T09:53:00Z", "2023-04-28T09:55:00Z", "2023-04-28T09:53:00Z", "2023-04-28T09:56:00Z", "2023-04-28T09:53:00Z", "2023-04-28T10:15:00Z", "2023-04-28T09:54:00Z", "2023-04-28T10:15:00Z", "2023-04-28T10:15:00Z", "2023-04-28T09:53:00Z", "2023-04-28T09:53:00Z", "2023-04-28T10:35:00Z", "2023-04-28T10:35:00Z", "2023-04-28T10:15:00Z", "2023-04-28T10:20:00Z", "2023-04-28T10:15:00Z", "2023-04-28T10:29:00Z", "2023-04-28T09:55:00Z", "2023-04-28T10:35:00Z", "2023-04-28T09:53:00Z", "2023-04-28T09:54:00Z", "2023-04-28T09:54:00Z", "2023-04-28T10:14:00Z", "2023-04-28T10:35:00Z", "2023-04-28T09:51:00Z", "2023-04-28T10:35:00Z", "2023-04-28T10:35:00Z", "2023-04-28T10:35:00Z", "2023-04-28T10:15:00Z", "2023-04-28T09:47:00Z", "2023-04-28T10:15:00Z", "2023-04-28T09:53:00Z", "2023-04-28T10:15:00Z", "2023-04-28T10:35:00Z", "2023-04-28T10:15:00Z", "2023-04-28T10:24:00Z", "2023-04-28T10:35:00Z", "2023-04-28T09:54:00Z", "2023-04-28T09:54:00Z", "2023-04-28T09:53:00Z", "2023-04-28T09:53:00Z", "2023-04-28T10:15:00Z", "2023-04-28T10:25:00Z", "2023-04-28T10:35:00Z", "2023-04-28T10:25:00Z", "2023-04-28T09:56:00Z", "2023-04-28T10:15:00Z", "2023-04-28T10:15:00Z", "2023-04-28T10:35:00Z", "2023-04-28T10:33:00Z", "2023-04-28T10:33:00Z", "2023-04-28T10:26:00Z", "2023-04-28T09:53:00Z", "2023-04-28T10:15:00Z", "2023-04-28T09:53:00Z", "2023-04-28T09:55:00Z", "2023-04-28T10:15:00Z", "2023-04-28T10:15:00Z", "2023-04-28T10:04:00Z", "2023-04-28T10:15:00Z", "2023-04-28T10:35:00Z", "2023-04-28T10:15:00Z", "2023-04-28T10:15:00Z", "2023-04-28T10:15:00Z", "2023-04-28T10:35:00Z", "2023-04-28T10:35:00Z", "2023-04-28T10:35:00Z", "2023-04-28T10:15:00Z", "2023-04-28T10:15:00Z", "2023-04-28T10:15:00Z", "2023-04-28T10:30:00Z", "2023-04-28T10:25:00Z", "2023-04-28T10:15:00Z", "2023-04-28T09:53:00Z", "2023-04-28T09:51:00Z", "2023-04-28T09:53:00Z", "2023-04-28T09:51:00Z", "2023-04-28T10:15:00Z", "2023-04-28T09:51:00Z", "2023-04-28T10:17:00Z", "2023-04-28T09:58:00Z", "2023-04-28T10:35:00Z", "2023-04-28T09:53:00Z", "2023-04-28T10:20:00Z", "2023-04-28T09:53:00Z", "2023-04-28T09:54:00Z", "2023-04-28T10:15:00Z", "2023-04-28T09:56:00Z", "2023-04-28T10:15:00Z", "2023-04-28T09:54:00Z", "2023-04-28T10:15:00Z", "2023-04-28T09:55:00Z", "2023-04-28T10:25:00Z", "2023-04-28T10:15:00Z", "2023-04-28T10:15:00Z", "2023-04-28T09:51:00Z", "2023-04-28T10:15:00Z", "2023-04-28T09:56:00Z", "2023-04-28T09:53:00Z", "2023-04-28T09:56:00Z", "2023-04-28T09:53:00Z", "2023-04-28T10:35:00Z", "2023-04-28T10:15:00Z", "2023-04-28T09:53:00Z", "2023-04-28T10:15:00Z", "2023-04-28T10:15:00Z", "2023-04-28T09:55:00Z", "2023-04-28T09:54:00Z", "2023-04-28T10:15:00Z", "2023-04-28T10:08:00Z", "2023-04-28T09:53:00Z", "2023-04-28T09:56:00Z", "2023-04-28T09:56:00Z", "2023-04-28T10:35:00Z", "2023-04-28T10:24:00Z", "2023-04-28T09:59:00Z", "2023-04-28T09:56:00Z", "2023-04-28T09:56:00Z", "2023-04-28T09:53:00Z", "2023-04-28T10:35:00Z", "2023-04-28T10:28:00Z", "2023-04-28T09:56:00Z", "2023-04-28T10:35:00Z", "2023-04-28T10:15:00Z", "2023-04-28T10:30:00Z", "2023-04-28T09:53:00Z", "2023-04-28T09:53:00Z", "2023-04-28T09:56:00Z", "2023-04-28T10:25:00Z", "2023-04-28T10:35:00Z", "2023-04-28T09:53:00Z", "2023-04-28T09:53:00Z", "2023-04-28T10:15:00Z", "2023-04-28T09:51:00Z", "2023-04-28T10:35:00Z", "2023-04-28T09:55:00Z", "2023-04-28T10:10:00Z", "2023-04-28T09:56:00Z", "2023-04-28T10:15:00Z", "2023-04-28T09:54:00Z", "2023-04-28T09:56:00Z", "2023-04-28T10:20:00Z", "2023-04-28T10:35:00Z", "2023-04-28T09:55:00Z", "2023-04-28T09:51:00Z", "2023-04-28T09:53:00Z", "2023-04-28T10:15:00Z", "2023-04-28T10:10:00Z", "2023-04-28T10:15:00Z", "2023-04-28T10:15:00Z", "2023-04-28T09:53:00Z", "2023-04-28T09:56:00Z", "2023-04-28T09:51:00Z", "2023-04-28T09:56:00Z", "2023-04-28T10:14:00Z", "2023-04-28T10:35:00Z", "2023-04-28T10:12:00Z", "2023-04-28T09:53:00Z", "2023-04-28T10:35:00Z", "2023-04-28T10:10:00Z", "2023-04-28T10:35:00Z", "2023-04-28T09:53:00Z", "2023-04-28T09:51:00Z", "2023-04-28T09:53:00Z", "2023-04-28T10:15:00Z", "2023-04-28T10:30:00Z", "2023-04-28T10:35:00Z", "2023-04-28T10:35:00Z", "2023-04-28T09:53:00Z", "2023-04-28T09:56:00Z", "2023-04-28T10:35:00Z", "2023-04-28T09:53:00Z", "2023-04-28T09:52:00Z", "2023-04-28T10:15:00Z", "2023-04-28T09:52:00Z", "2023-04-28T09:53:00Z", "2023-04-28T09:56:00Z", "2023-04-28T10:35:00Z", "2023-04-28T10:15:00Z", "2023-04-28T09:56:00Z", "2023-04-28T10:15:00Z", "2023-04-28T09:53:00Z", "2023-04-28T10:35:00Z", "2023-04-28T09:55:00Z", "2023-04-28T09:53:00Z", "2023-04-28T09:53:00Z", "2023-04-28T09:53:00Z", "2023-04-28T10:15:00Z", "2023-04-28T10:35:00Z", "2023-04-28T09:53:00Z", "2023-04-28T10:15:00Z", "2023-04-28T09:51:00Z", "2023-04-28T09:53:00Z", "2023-04-28T09:53:00Z", "2023-04-28T10:35:00Z", "2023-04-28T09:56:00Z", "2023-04-28T10:15:00Z", "2023-04-28T09:54:00Z", "2023-04-28T10:30:00Z", "2023-04-28T09:55:00Z", "2023-04-28T10:35:00Z", "2023-04-28T10:34:00Z", "2023-04-28T10:35:00Z", "2023-04-28T10:15:00Z", "2023-04-28T10:35:00Z", "2023-04-28T10:25:00Z", "2023-04-28T10:25:00Z", "2023-04-28T10:15:00Z", "2023-04-28T09:53:00Z", "2023-04-28T10:15:00Z", "2023-04-28T10:15:00Z", "2023-04-28T10:00:00Z", "2023-04-28T09:56:00Z", "2023-04-28T10:15:00Z", "2023-04-28T10:15:00Z", "2023-04-28T10:15:00Z", "2023-04-28T10:35:00Z", "2023-04-28T10:15:00Z", "2023-04-28T09:54:00Z", "2023-04-28T09:55:00Z", "2023-04-28T10:15:00Z", "2023-04-28T10:15:00Z", "2023-04-28T10:15:00Z", "2023-04-28T10:15:00Z", "2023-04-28T10:15:00Z", "2023-04-28T10:35:00Z", "2023-04-28T09:55:00Z", "2023-04-28T10:15:00Z", "2023-04-28T10:15:00Z", "2023-04-28T10:15:00Z", "2023-04-28T10:15:00Z", "2023-04-28T10:24:00Z", "2023-04-28T10:02:00Z", "2023-04-28T10:15:00Z", "2023-04-28T10:15:00Z", "2023-04-28T10:15:00Z", "2023-04-28T10:15:00Z", "2023-04-28T10:18:00Z", "2023-04-28T10:10:00Z", "2023-04-28T09:55:00Z", "2023-04-28T09:53:00Z", "2023-04-28T10:15:00Z", "2023-04-28T10:25:00Z", "2023-04-28T10:18:00Z", "2023-04-28T10:30:00Z", "2023-04-28T09:51:00Z", "2023-04-28T10:35:00Z", "2023-04-28T10:15:00Z", "2023-04-28T09:35:00Z", "2023-04-28T10:35:00Z", "2023-04-28T10:15:00Z", "2023-04-28T10:06:00Z", "2023-04-28T10:15:00Z", "2023-04-28T09:55:00Z", "2023-04-28T10:15:00Z", "2023-04-28T09:53:00Z", "2023-04-28T10:35:00Z", "2023-04-28T09:53:00Z", "2023-04-28T10:15:00Z", "2023-04-28T10:35:00Z", "2023-04-28T09:53:00Z", "2023-04-28T09:53:00Z", "2023-04-28T10:35:00Z", "2023-04-28T10:15:00Z", "2023-04-28T10:15:00Z", "2023-04-28T10:15:00Z", "2023-04-28T10:15:00Z", "2023-04-28T10:35:00Z", "2023-04-28T10:15:00Z", "2023-04-28T09:53:00Z", "2023-04-28T09:52:00Z", "2023-04-28T09:53:00Z", "2023-04-28T09:53:00Z", "2023-04-28T09:53:00Z", "2023-04-28T10:35:00Z", "2023-04-28T09:56:00Z", "2023-04-28T10:31:00Z", "2023-04-28T09:54:00Z", "2023-04-28T10:15:00Z", "2023-04-28T10:15:00Z", "2023-04-28T10:15:00Z", "2023-04-28T10:07:00Z", "2023-04-28T10:23:00Z", "2023-04-28T09:53:00Z", "2023-04-28T09:52:00Z", "2023-04-28T10:35:00Z", "2023-04-28T10:25:00Z", "2023-04-28T09:53:00Z", "2023-04-28T10:35:00Z", "2023-04-28T09:53:00Z", "2023-04-28T09:55:00Z", "2023-04-28T09:53:00Z", "2023-04-28T10:28:00Z", "2023-04-28T09:53:00Z", "2023-04-28T09:53:00Z", "2023-04-28T09:56:00Z", "2023-04-28T10:15:00Z", "2023-04-28T10:15:00Z", "2023-04-28T09:53:00Z", "2023-04-28T10:29:00Z", "2023-04-28T10:35:00Z", "2023-04-28T09:53:00Z", "2023-04-28T10:35:00Z", "2023-04-28T10:35:00Z", "2023-04-28T09:53:00Z", "2023-04-28T10:15:00Z", "2023-04-28T10:35:00Z", "2023-04-28T10:15:00Z", "2023-04-28T09:53:00Z", "2023-04-28T10:03:00Z", "2023-04-28T10:15:00Z", "2023-04-28T10:35:00Z", "2023-04-28T10:10:00Z", "2023-04-28T10:15:00Z", "2023-04-28T10:15:00Z", "2023-04-28T10:15:00Z", "2023-04-28T09:53:00Z", "2023-04-28T10:35:00Z", "2023-04-28T09:56:00Z", "2023-04-28T10:15:00Z", "2023-04-28T10:29:00Z", "2023-04-28T10:35:00Z", "2023-04-28T09:51:00Z", "2023-04-28T09:53:00Z", "2023-04-28T09:54:00Z", "2023-04-28T10:25:00Z", "2023-04-28T09:56:00Z", "2023-04-28T10:15:00Z", "2023-04-28T10:35:00Z", "2023-04-28T10:15:00Z", "2023-04-28T10:10:00Z", "2023-04-28T10:15:00Z", "2023-04-28T10:20:00Z", "2023-04-28T10:20:00Z", "2023-04-28T10:35:00Z", "2023-04-28T09:53:00Z", "2023-04-28T10:35:00Z", "2023-04-28T10:15:00Z", "2023-04-28T10:35:00Z", "2023-04-28T09:53:00Z", "2023-04-28T10:34:00Z", "2023-04-28T10:35:00Z", "2023-04-28T10:15:00Z", "2023-04-28T10:35:00Z", "2023-04-28T10:15:00Z", "2023-04-28T10:02:00Z", "2023-04-28T09:55:00Z", "2023-04-28T09:54:00Z", "2023-04-28T09:55:00Z", "2023-04-28T10:33:00Z", "2023-04-28T10:35:00Z", "2023-04-28T09:53:00Z", "2023-04-28T09:51:00Z", "2023-04-28T10:15:00Z", "2023-04-28T10:35:00Z", "2023-04-28T10:15:00Z", "2023-04-28T09:53:00Z", "2023-04-28T10:35:00Z", "2023-04-28T10:10:00Z", "2023-04-28T10:35:00Z", "2023-04-28T09:53:00Z", "2023-04-28T10:15:00Z", "2023-04-28T09:53:00Z", "2023-04-28T09:56:00Z", "2023-04-28T10:15:00Z", "2023-04-28T10:35:00Z", "2023-04-28T10:15:00Z", "2023-04-28T10:07:00Z", "2023-04-28T10:35:00Z", "2023-04-28T10:35:00Z", "2023-04-28T10:35:00Z", "2023-04-28T09:51:00Z", "2023-04-28T10:15:00Z", "2023-04-28T09:55:00Z", "2023-04-28T10:15:00Z", "2023-04-28T09:55:00Z", "2023-04-28T09:56:00Z", "2023-04-28T10:35:00Z", "2023-04-28T09:53:00Z", "2023-04-28T10:11:00Z", "2023-04-28T10:20:00Z", "2023-04-28T10:15:00Z", "2023-04-28T10:10:00Z", "2023-04-28T10:15:00Z", "2023-04-28T10:25:00Z", "2023-04-28T10:10:00Z", "2023-04-28T10:15:00Z", "2023-04-28T10:15:00Z", "2023-04-28T10:15:00Z", "2023-04-28T10:15:00Z", "2023-04-28T10:15:00Z", "2023-04-28T10:25:00Z", "2023-04-28T10:35:00Z", "2023-04-28T10:25:00Z", "2023-04-28T10:15:00Z", "2023-04-28T10:35:00Z", "2023-04-28T10:35:00Z", "2023-04-28T10:15:00Z", "2023-04-28T10:35:00Z", "2023-04-28T10:35:00Z", "2023-04-28T09:54:00Z", "2023-04-28T10:15:00Z", "2023-04-28T10:15:00Z", "2023-04-28T10:15:00Z", "2023-04-28T09:56:00Z", "2023-04-28T10:22:00Z", "2023-04-28T09:56:00Z", "2023-04-28T09:55:00Z", "2023-04-28T09:55:00Z", "2023-04-28T09:53:00Z", "2023-04-28T10:25:00Z", "2023-04-28T10:24:00Z", "2023-04-28T09:56:00Z", "2023-04-28T09:56:00Z", "2023-04-28T10:15:00Z", "2023-04-28T10:35:00Z", "2023-04-28T10:10:00Z", "2023-04-28T10:35:00Z", "2023-04-28T10:10:00Z", "2023-04-28T10:15:00Z", "2023-04-28T09:55:00Z", "2023-04-28T10:12:00Z", "2023-04-28T10:25:00Z", "2023-04-28T10:15:00Z", "2023-04-28T10:35:00Z", "2023-04-28T10:33:00Z", "2023-04-28T09:51:00Z", "2023-04-28T10:35:00Z", "2023-04-28T10:15:00Z", "2023-04-28T10:15:00Z", "2023-04-28T10:15:00Z", "2023-04-28T09:56:00Z", "2023-04-28T10:35:00Z", "2023-04-28T10:35:00Z", "2023-04-28T10:15:00Z", "2023-04-28T09:53:00Z", "2023-04-28T09:53:00Z", "2023-04-28T09:56:00Z", "2023-04-28T09:51:00Z", "2023-04-28T10:15:00Z", "2023-04-28T10:15:00Z", "2023-04-28T09:53:00Z", "2023-04-28T10:20:00Z", "2023-04-28T10:30:00Z", "2023-04-28T10:30:00Z", "2023-04-28T10:00:00Z", "2023-04-28T10:30:00Z", "2023-04-28T10:00:00Z", "2023-04-28T10:00:00Z", "2023-04-28T10:30:00Z", "2023-04-28T10:00:00Z", "2023-04-28T10:30:00Z", "2023-04-28T10:20:00Z", "2023-04-28T10:30:00Z", "2023-04-28T10:30:00Z", "2023-04-28T10:20:00Z", "2023-04-28T10:30:00Z", "2023-04-28T10:30:00Z", "2023-04-28T10:30:00Z", "2023-04-28T10:30:00Z", "2023-04-28T10:30:00Z", "2023-04-28T10:30:00Z", "2023-04-28T10:30:00Z", "2023-04-28T10:30:00Z", "2023-04-28T10:30:00Z", "2023-04-28T10:30:00Z", "2023-04-28T10:30:00Z", "2023-04-28T10:30:00Z", "2023-04-28T10:30:00Z", "2023-04-28T10:30:00Z", "2023-04-28T10:30:00Z", "2023-04-28T10:30:00Z", "2023-04-28T10:30:00Z", "2023-04-28T10:30:00Z", "2023-04-28T10:30:00Z", "2023-04-28T10:30:00Z", "2023-04-28T10:30:00Z", "2023-04-28T10:30:00Z", "2023-04-28T10:30:00Z", "2023-04-28T10:30:00Z", "2023-04-28T10:30:00Z", "2023-04-28T10:30:00Z", "2023-04-28T10:30:00Z", "2023-04-28T10:30:00Z", "2023-04-28T10:30:00Z", "2023-04-28T10:30:00Z", "2023-04-28T10:30:00Z", "2023-04-28T10:30:00Z", "2023-04-28T10:30:00Z", "2023-04-28T10:30:00Z", "2023-04-28T10:30:00Z", "2023-04-28T10:30:00Z", "2023-04-28T10:30:00Z", "2023-04-28T10:30:00Z", "2023-04-28T10:30:00Z", "2023-04-28T10:30:00Z", "2023-04-28T10:30:00Z", "2023-04-28T10:30:00Z", "2023-04-28T10:30:00Z", "2023-04-28T10:30:00Z", "2023-04-28T10:30:00Z", "2023-04-28T10:30:00Z", "2023-04-28T10:30:00Z", "2023-04-28T10:30:00Z", "2023-04-28T10:30:00Z", "2023-04-28T10:30:00Z", "2023-04-28T10:30:00Z", "2023-04-28T10:30:00Z", "2023-04-28T10:30:00Z", "2023-04-28T10:30:00Z", "2023-04-28T09:30:00Z", "2023-04-28T10:30:00Z", "2023-04-28T10:30:00Z", "2023-04-28T10:30:00Z", "2023-04-28T10:30:00Z", "2023-04-28T10:30:00Z", "2023-04-28T10:30:00Z", "2023-04-28T10:30:00Z", "2023-04-28T10:30:00Z", "2023-04-28T10:30:00Z", "2023-04-28T10:30:00Z", "2023-04-28T10:30:00Z", "2023-04-28T10:30:00Z", "2023-04-28T10:30:00Z", "2023-04-28T10:30:00Z", "2023-04-28T10:30:00Z", "2023-04-28T10:30:00Z", "2023-04-28T10:30:00Z", "2023-04-28T10:30:00Z", "2023-04-28T10:30:00Z", "2023-04-28T10:30:00Z", "2023-04-28T10:30:00Z", "2023-04-28T10:30:00Z", "2023-04-28T10:30:00Z", "2023-04-28T10:30:00Z", "2023-04-28T10:30:00Z", "2023-04-28T10:30:00Z", "2023-04-28T10:30:00Z", "2023-04-28T10:30:00Z", "2023-04-28T10:30:00Z", "2023-04-28T10:30:00Z", "2023-04-28T10:30:00Z", "2023-04-28T10:30:00Z", "2023-04-28T10:30:00Z", "2023-04-28T10:30:00Z", "2023-04-28T10:30:00Z", "2023-04-28T10:30:00Z", "2023-04-28T10:30:00Z", "2023-04-28T10:30:00Z", "2023-04-28T10:30:00Z", "2023-04-28T10:30:00Z", "2023-04-28T10:30:00Z", "2023-04-28T10:30:00Z", "2023-04-28T10:30:00Z", "2023-04-28T10:30:00Z", "2023-04-28T10:30:00Z", "2023-04-28T10:30:00Z", "2023-04-28T10:30:00Z", "2023-04-28T10:30:00Z", "2023-04-28T10:30:00Z", "2023-04-28T10:30:00Z", "2023-04-28T10:30:00Z", "2023-04-28T10:30:00Z", "2023-04-28T10:30:00Z", "2023-04-28T10:30:00Z", "2023-04-28T10:30:00Z", "2023-04-28T10:30:00Z", "2023-04-28T10:30:00Z", "2023-04-28T10:30:00Z", "2023-04-28T10:30:00Z", "2023-04-28T10:30:00Z", "2023-04-28T10:30:00Z", "2023-04-28T10:30:00Z", "2023-04-28T10:30:00Z", "2023-04-28T10:30:00Z", "2023-04-28T10:30:00Z", "2023-04-28T10:30:00Z", "2023-04-28T10:30:00Z", "2023-04-28T10:30:00Z", "2023-04-28T10:30:00Z", "2023-04-28T10:30:00Z", "2023-04-28T10:30:00Z", "2023-04-28T10:30:00Z", "2023-04-28T10:30:00Z", "2023-04-28T10:30:00Z", "2023-04-28T10:30:00Z", "2023-04-28T10:30:00Z", "2023-04-28T10:30:00Z", "2023-04-28T10:30:00Z", "2023-04-28T10:30:00Z", "2023-04-28T10:30:00Z", "2023-04-28T10:30:00Z", "2023-04-28T10:30:00Z", "2023-04-28T10:30:00Z", "2023-04-28T10:30:00Z", "2023-04-28T10:00:00Z", "2023-04-28T10:30:00Z", "2023-04-28T10:30:00Z", "2023-04-28T10:30:00Z", "2023-04-28T10:30:00Z", "2023-04-28T10:30:00Z", "2023-04-28T10:30:00Z", "2023-04-28T10:30:00Z", "2023-04-28T10:30:00Z", "2023-04-28T10:30:00Z", "2023-04-28T10:30:00Z", "2023-04-28T10:30:00Z", "2023-04-28T10:30:00Z", "2023-04-28T10:30:00Z", "2023-04-28T10:30:00Z", "2023-04-28T10:30:00Z", "2023-04-28T10:30:00Z", "2023-04-28T10:30:00Z", "2023-04-28T10:30:00Z", "2023-04-28T10:30:00Z", "2023-04-28T10:30:00Z", "2023-04-28T10:30:00Z", "2023-04-28T10:30:00Z", "2023-04-28T10:30:00Z", "2023-04-28T10:30:00Z", "2023-04-28T10:30:00Z", "2023-04-28T10:30:00Z", "2023-04-28T10:30:00Z", "2023-04-28T10:30:00Z", "2023-04-28T10:30:00Z", "2023-04-28T10:30:00Z", "2023-04-28T10:30:00Z", "2023-04-28T10:30:00Z", "2023-04-28T10:30:00Z", "2023-04-28T10:20:00Z", "2023-04-28T10:20:00Z", "2023-04-28T10:20:00Z", "2023-04-28T10:20:00Z", "2023-04-28T10:20:00Z", "2023-04-28T09:50:00Z", "2023-04-28T10:20:00Z", "2023-04-28T10:20:00Z", "2023-04-28T09:50:00Z", "2023-04-28T09:50:00Z", "2023-04-28T10:20:00Z", "2023-04-28T10:20:00Z", "2023-04-28T10:20:00Z", "2023-04-28T10:20:00Z", "2023-04-28T10:20:00Z", "2023-04-28T09:50:00Z", "2023-04-28T10:20:00Z", "2023-04-28T10:20:00Z", "2023-04-28T10:20:00Z", "2023-04-28T09:50:00Z", "2023-04-28T09:50:00Z", "2023-04-28T10:20:00Z", "2023-04-28T10:20:00Z", "2023-04-28T10:20:00Z", "2023-04-28T10:20:00Z", "2023-04-28T09:50:00Z", "2023-04-28T09:50:00Z", "2023-04-28T09:50:00Z", "2023-04-28T10:20:00Z", "2023-04-28T10:20:00Z", "2023-04-28T09:50:00Z", "2023-04-28T10:30:00Z", "2023-04-28T10:15:00Z", "2023-04-28T10:15:00Z", "2023-04-28T10:15:00Z", "2023-04-28T10:15:00Z", "2023-04-28T10:15:00Z", "2023-04-28T10:15:00Z", "2023-04-28T10:15:00Z", "2023-04-28T09:55:00Z", "2023-04-28T09:50:00Z", "2023-04-28T10:20:00Z", "2023-04-28T09:50:00Z", "2023-04-28T09:50:00Z", "2023-04-28T09:55:00Z", "2023-04-28T10:20:00Z", "2023-04-28T09:55:00Z", "2023-04-28T10:20:00Z", "2023-04-28T09:55:00Z", "2023-04-28T09:55:00Z", "2023-04-28T10:20:00Z", "2023-04-28T10:20:00Z", "2023-04-28T10:20:00Z", "2023-04-28T10:20:00Z", "2023-04-28T09:55:00Z", "2023-04-28T09:50:00Z", "2023-04-28T10:20:00Z", "2023-04-28T10:20:00Z", "2023-04-28T09:55:00Z", "2023-04-28T09:55:00Z", "2023-04-28T10:20:00Z", "2023-04-28T09:55:00Z", "2023-04-28T09:55:00Z", "2023-04-28T10:20:00Z", "2023-04-28T10:20:00Z", "2023-04-28T09:50:00Z", "2023-04-28T10:20:00Z", "2023-04-28T10:20:00Z", "2023-04-28T10:20:00Z", "2023-04-28T09:50:00Z", "2023-04-28T09:55:00Z", "2023-04-28T10:20:00Z", "2023-04-28T09:55:00Z", "2023-04-28T10:20:00Z", "2023-04-28T09:55:00Z", "2023-04-28T09:50:00Z", "2023-04-28T09:55:00Z", "2023-04-28T09:55:00Z", "2023-04-28T09:55:00Z", "2023-04-28T10:20:00Z", "2023-04-28T10:20:00Z", "2023-04-28T09:55:00Z", "2023-04-28T09:50:00Z", "2023-04-28T09:55:00Z", "2023-04-28T10:20:00Z", "2023-04-28T09:55:00Z", "2023-04-28T10:20:00Z", "2023-04-28T09:55:00Z", "2023-04-28T09:50:00Z", "2023-04-28T09:55:00Z", "2023-04-28T10:20:00Z", "2023-04-28T10:20:00Z", "2023-04-28T10:20:00Z", "2023-04-28T09:55:00Z", "2023-04-28T09:50:00Z", "2023-04-28T10:20:00Z", "2023-04-28T10:20:00Z", "2023-04-28T10:20:00Z", "2023-04-28T09:55:00Z", "2023-04-28T09:50:00Z", "2023-04-28T09:55:00Z", "2023-04-28T10:20:00Z", "2023-04-28T09:55:00Z", "2023-04-28T10:20:00Z", "2023-04-28T09:55:00Z", "2023-04-28T09:55:00Z", "2023-04-28T09:50:00Z", "2023-04-28T09:55:00Z", "2023-04-28T09:55:00Z", "2023-04-28T09:55:00Z", "2023-04-28T10:20:00Z", "2023-04-28T10:15:00Z", "2023-04-28T10:20:00Z", "2023-04-28T09:55:00Z", "2023-04-28T09:55:00Z", "2023-04-28T09:50:00Z", "2023-04-28T09:55:00Z", "2023-04-28T09:55:00Z", "2023-04-28T10:20:00Z", "2023-04-28T09:55:00Z", "2023-04-28T09:55:00Z", "2023-04-28T09:55:00Z", "2023-04-28T09:55:00Z", "2023-04-28T09:55:00Z", "2023-04-28T09:55:00Z", "2023-04-28T09:55:00Z", "2023-04-28T09:55:00Z", "2023-04-28T09:55:00Z", "2023-04-28T10:30:00Z", "2023-04-28T10:30:00Z", "2023-04-28T10:30:00Z", "2023-04-28T10:30:00Z", "2023-04-28T10:30:00Z", "2023-04-28T10:00:00Z", "2023-04-28T10:00:00Z", "2023-04-28T10:30:00Z", "2023-04-28T10:00:00Z", "2023-04-28T10:30:00Z", "2023-04-28T10:30:00Z", "2023-04-28T10:30:00Z", "2023-04-28T10:30:00Z", "2023-04-28T10:30:00Z", "2023-04-28T10:00:00Z", "2023-04-28T10:20:00Z", "2023-04-28T09:50:00Z", "2023-04-28T09:50:00Z", "2023-04-28T09:50:00Z", "2023-04-28T10:15:00Z", "2023-04-28T10:00:00Z", "2023-04-28T10:00:00Z", "2023-04-28T10:20:00Z", "2023-04-28T10:20:00Z", "2023-04-28T10:20:00Z", "2023-04-28T10:20:00Z", "2023-04-28T10:20:00Z", "2023-04-28T10:20:00Z", "2023-04-28T10:20:00Z", "2023-04-28T10:00:00Z", "2023-04-28T10:30:00Z", "2023-04-28T10:00:00Z", "2023-04-28T10:30:00Z", "2023-04-28T10:30:00Z", "2023-04-28T10:30:00Z", "2023-04-28T10:30:00Z", "2023-04-28T10:00:00Z", "2023-04-28T10:30:00Z", "2023-04-28T10:00:00Z", "2023-04-28T10:00:00Z", "2023-04-28T10:00:00Z", "2023-04-28T10:30:00Z", "2023-04-28T10:30:00Z", "2023-04-28T10:30:00Z", "2023-04-28T10:30:00Z", "2023-04-28T10:00:00Z", "2023-04-28T10:30:00Z", "2023-04-28T10:30:00Z", "2023-04-28T10:30:00Z", "2023-04-28T10:30:00Z", "2023-04-28T10:30:00Z", "2023-04-28T10:30:00Z", "2023-04-28T10:30:00Z", "2023-04-28T10:30:00Z", "2023-04-28T10:30:00Z", "2023-04-28T10:30:00Z", "2023-04-28T10:30:00Z", "2023-04-28T10:30:00Z", "2023-04-28T10:30:00Z", "2023-04-28T10:30:00Z", "2023-04-28T10:30:00Z", "2023-04-28T10:30:00Z", "2023-04-28T10:30:00Z", "2023-04-28T10:30:00Z", "2023-04-28T10:30:00Z", "2023-04-28T10:30:00Z", "2023-04-28T09:50:00Z", "2023-04-28T10:20:00Z", "2023-04-28T10:20:00Z", "2023-04-28T09:50:00Z", "2023-04-28T10:20:00Z", "2023-04-28T09:50:00Z", "2023-04-28T10:20:00Z", "2023-04-28T10:20:00Z", "2023-04-28T09:50:00Z", "2023-04-28T10:20:00Z", "2023-04-28T10:20:00Z", "2023-04-28T10:20:00Z", "2023-04-28T10:20:00Z", "2023-04-28T10:20:00Z", "2023-04-28T10:20:00Z", "2023-04-28T10:20:00Z", "2023-04-28T09:50:00Z", "2023-04-28T10:20:00Z", "2023-04-28T10:20:00Z", "2023-04-28T10:20:00Z", "2023-04-28T10:20:00Z", "2023-04-28T09:50:00Z", "2023-04-28T09:50:00Z", "2023-04-28T10:20:00Z", "2023-04-28T09:50:00Z", "2023-04-28T09:50:00Z", "2023-04-28T10:20:00Z", "2023-04-28T10:20:00Z", "2023-04-28T10:18:00Z", "2023-04-28T09:50:00Z", "2023-04-28T10:20:00Z", "2023-04-28T10:20:00Z", "2023-04-28T09:50:00Z", "2023-04-28T09:50:00Z", "2023-04-28T09:50:00Z", "2023-04-28T10:20:00Z", "2023-04-28T09:50:00Z", "2023-04-28T09:50:00Z", "2023-04-28T10:20:00Z", "2023-04-28T10:20:00Z", "2023-04-28T10:20:00Z", "2023-04-28T09:50:00Z", "2023-04-28T09:50:00Z", "2023-04-28T09:50:00Z", "2023-04-28T10:20:00Z", "2023-04-28T09:50:00Z", "2023-04-28T10:31:00Z", "2023-04-28T09:50:00Z", "2023-04-28T10:20:00Z", "2023-04-28T09:50:00Z", "2023-04-28T10:20:00Z", "2023-04-28T09:50:00Z", "2023-04-28T09:50:00Z", "2023-04-28T09:50:00Z", "2023-04-28T09:50:00Z", "2023-04-28T09:50:00Z", "2023-04-28T09:50:00Z", "2023-04-28T09:50:00Z", "2023-04-28T10:20:00Z", "2023-04-28T09:50:00Z", "2023-04-28T09:50:00Z", "2023-04-28T09:50:00Z", "2023-04-28T09:50:00Z", "2023-04-28T09:50:00Z", "2023-04-28T09:50:00Z", "2023-04-28T10:20:00Z", "2023-04-28T09:50:00Z", "2023-04-28T10:20:00Z", "2023-04-28T09:50:00Z", "2023-04-28T09:50:00Z", "2023-04-28T10:20:00Z", "2023-04-28T09:50:00Z", "2023-04-28T10:20:00Z", "2023-04-28T09:50:00Z", "2023-04-28T10:30:00Z", "2023-04-28T10:30:00Z", "2023-04-28T10:30:00Z", "2023-04-28T10:00:00Z", "2023-04-28T10:20:00Z", "2023-04-28T10:30:00Z", "2023-04-28T10:30:00Z", "2023-04-28T10:30:00Z", "2023-04-28T10:30:00Z", "2023-04-28T10:30:00Z", "2023-04-28T10:30:00Z", "2023-04-28T10:30:00Z", "2023-04-28T10:30:00Z", "2023-04-28T10:30:00Z", "2023-04-28T10:30:00Z", "2023-04-28T10:30:00Z", "2023-04-28T10:30:00Z", "2023-04-28T10:00:00Z", "2023-04-28T10:00:00Z", "2023-04-28T10:00:00Z", "2023-04-28T10:00:00Z", "2023-04-28T10:00:00Z", "2023-04-28T10:00:00Z", "2023-04-28T10:00:00Z", "2023-04-28T10:00:00Z", "2023-04-28T10:00:00Z", "2023-04-28T10:00:00Z", "2023-04-28T10:00:00Z", "2023-04-28T10:00:00Z", "2023-04-28T09:41:00Z", "2023-04-28T09:55:00Z", "2023-04-28T09:41:00Z", "2023-04-28T09:52:00Z", "2023-04-28T09:43:00Z", "2023-04-28T09:40:00Z", "2023-04-28T09:42:00Z", "2023-04-28T09:49:00Z", "2023-04-28T09:50:00Z", "2023-04-28T09:50:00Z", "2023-04-28T09:48:00Z", "2023-04-28T09:40:00Z", "2023-04-28T09:40:00Z", "2023-04-28T09:41:00Z", "2023-04-28T09:40:00Z", "2023-04-28T09:40:00Z", "2023-04-28T10:06:00Z", "2023-04-28T09:40:00Z", "2023-04-28T10:00:00Z", "2023-04-28T10:00:00Z", "2023-04-28T10:00:00Z", "2023-04-28T10:00:00Z", "2023-04-28T09:50:00Z", "2023-04-28T09:59:00Z", "2023-04-28T09:50:00Z", "2023-04-28T09:59:00Z", "2023-04-28T09:50:00Z", "2023-04-28T09:50:00Z", "2023-04-28T09:50:00Z", "2023-04-28T09:51:00Z", "2023-04-28T09:50:00Z", "2023-04-28T09:50:00Z", "2023-04-28T09:50:00Z", "2023-04-28T09:50:00Z", "2023-04-28T10:00:00Z", "2023-04-28T10:00:00Z", "2023-04-28T10:00:00Z", "2023-04-28T10:00:00Z", "2023-04-28T10:00:00Z", "2023-04-28T10:00:00Z", "2023-04-28T10:00:00Z", "2023-04-28T10:00:00Z", "2023-04-28T10:00:00Z", "2023-04-28T10:00:00Z", "2023-04-28T10:00:00Z", "2023-04-28T10:00:00Z", "2023-04-28T10:00:00Z", "2023-04-28T10:00:00Z", "2023-04-28T10:30:00Z", "2023-04-28T10:00:00Z", "2023-04-28T10:00:00Z", "2023-04-28T10:00:00Z", "2023-04-28T10:00:00Z", "2023-04-28T10:00:00Z", "2023-04-28T10:00:00Z", "2023-04-28T10:00:00Z", "2023-04-28T10:00:00Z", "2023-04-28T10:30:00Z", "2023-04-28T10:00:00Z", "2023-04-28T09:50:00Z", "2023-04-28T10:30:00Z", "2023-04-28T10:00:00Z", "2023-04-28T10:30:00Z", "2023-04-28T10:30:00Z", "2023-04-28T10:30:00Z", "2023-04-28T09:55:00Z", "2023-04-28T10:30:00Z", "2023-04-28T10:30:00Z", "2023-04-28T10:00:00Z", "2023-04-28T10:00:00Z", "2023-04-28T10:00:00Z", "2023-04-28T10:00:00Z", "2023-04-28T10:00:00Z", "2023-04-28T10:00:00Z", "2023-04-28T10:00:00Z", "2023-04-28T10:00:00Z", "2023-04-28T10:00:00Z", "2023-04-28T10:00:00Z", "2023-04-28T10:00:00Z", "2023-04-28T10:00:00Z", "2023-04-28T10:00:00Z", "2023-04-28T10:00:00Z", "2023-04-28T10:00:00Z", "2023-04-28T10:00:00Z", "2023-04-28T10:00:00Z", "2023-04-28T10:00:00Z", "2023-04-28T10:00:00Z", "2023-04-28T10:00:00Z", "2023-04-28T09:55:00Z", "2023-04-28T10:00:00Z", "2023-04-28T10:00:00Z", "2023-04-28T10:00:00Z", "2023-04-28T10:00:00Z", "2023-04-28T10:00:00Z", "2023-04-28T10:00:00Z", "2023-04-28T10:00:00Z", "2023-04-28T10:00:00Z", "2023-04-28T10:00:00Z", "2023-04-28T10:00:00Z", "2023-04-28T10:00:00Z", "2023-04-28T10:00:00Z", "2023-04-28T10:00:00Z", "2023-04-28T10:00:00Z", "2023-04-28T09:52:00Z", "2023-04-28T10:00:00Z", "2023-04-28T10:30:00Z", "2023-04-28T10:00:00Z", "2023-04-28T10:00:00Z", "2023-04-28T10:00:00Z", "2023-04-28T10:00:00Z", "2023-04-28T10:30:00Z", "2023-04-28T10:00:00Z", "2023-04-28T10:30:00Z", "2023-04-28T10:00:00Z", "2023-04-28T10:00:00Z", "2023-04-28T10:00:00Z", "2023-04-28T10:00:00Z", "2023-04-28T10:30:00Z", "2023-04-28T10:00:00Z", "2023-04-28T10:00:00Z", "2023-04-28T10:00:00Z", "2023-04-28T10:00:00Z", "2023-04-28T10:00:00Z", "2023-04-28T10:30:00Z", "2023-04-28T10:00:00Z", "2023-04-28T10:30:00Z", "2023-04-28T09:50:00Z", "2023-04-28T10:00:00Z", "2023-04-28T10:00:00Z", "2023-04-28T10:30:00Z", "2023-04-28T10:30:00Z", "2023-04-28T10:00:00Z", "2023-04-28T10:30:00Z", "2023-04-28T10:30:00Z", "2023-04-28T10:00:00Z", "2023-04-28T10:00:00Z", "2023-04-28T10:00:00Z", "2023-04-28T10:00:00Z", "2023-04-28T09:50:00Z", "2023-04-28T10:00:00Z", "2023-04-28T10:00:00Z", "2023-04-28T10:30:00Z", "2023-04-28T10:00:00Z", "2023-04-28T10:00:00Z", "2023-04-28T10:00:00Z", "2023-04-28T10:00:00Z", "2023-04-28T10:00:00Z", "2023-04-28T10:00:00Z", "2023-04-28T10:30:00Z", "2023-04-28T10:00:00Z", "2023-04-28T10:30:00Z", "2023-04-28T10:00:00Z", "2023-04-28T10:30:00Z", "2023-04-28T10:00:00Z", "2023-04-28T10:00:00Z", "2023-04-28T10:30:00Z", "2023-04-28T10:00:00Z", "2023-04-28T10:30:00Z", "2023-04-28T10:00:00Z", "2023-04-28T10:00:00Z", "2023-04-28T10:00:00Z", "2023-04-28T10:00:00Z", "2023-04-28T10:00:00Z", "2023-04-28T10:00:00Z", "2023-04-28T10:30:00Z", "2023-04-28T10:00:00Z", "2023-04-28T10:00:00Z", "2023-04-28T10:00:00Z", "2023-04-28T10:00:00Z", "2023-04-28T10:30:00Z", "2023-04-28T10:00:00Z", "2023-04-28T10:00:00Z", "2023-04-28T10:00:00Z", "2023-04-28T10:00:00Z", "2023-04-28T10:00:00Z", "2023-04-28T09:55:00Z", "2023-04-28T10:00:00Z", "2023-04-28T10:00:00Z", "2023-04-28T10:00:00Z", "2023-04-28T10:00:00Z", "2023-04-28T10:00:00Z", "2023-04-28T10:00:00Z", "2023-04-28T10:00:00Z", "2023-04-28T10:00:00Z", "2023-04-28T10:00:00Z", "2023-04-28T10:00:00Z", "2023-04-28T09:50:00Z", "2023-04-28T09:50:00Z", "2023-04-28T09:50:00Z", "2023-04-28T09:50:00Z", "2023-04-28T09:50:00Z", "2023-04-28T09:50:00Z", "2023-04-28T09:55:00Z", "2023-04-28T10:30:00Z", "2023-04-28T10:30:00Z", "2023-04-28T10:25:00Z", "2023-04-28T10:30:00Z", "2023-04-28T10:00:00Z", "2023-04-28T10:30:00Z", "2023-04-28T10:00:00Z", "2023-04-28T10:00:00Z", "2023-04-28T10:00:00Z", "2023-04-28T10:00:00Z", "2023-04-28T10:00:00Z", "2023-04-28T10:00:00Z", "2023-04-28T10:00:00Z", "2023-04-28T10:00:00Z", "2023-04-28T10:00:00Z", "2023-04-28T10:00:00Z", "2023-04-28T10:30:00Z", "2023-04-28T09:55:00Z", "2023-04-28T10:00:00Z", "2023-04-28T10:15:00Z", "2023-04-28T09:56:00Z", "2023-04-28T09:53:00Z", "2023-04-28T09:52:00Z", "2023-04-28T10:26:00Z", "2023-04-28T09:53:00Z", "2023-04-28T09:56:00Z", "2023-04-28T10:30:00Z", "2023-04-28T09:53:00Z", "2023-04-28T09:56:00Z", "2023-04-28T10:28:00Z", "2023-04-28T10:10:00Z", "2023-04-28T10:26:00Z", "2023-04-28T10:18:00Z", "2023-04-28T09:56:00Z", "2023-04-28T10:09:00Z", "2023-04-28T10:31:00Z", "2023-04-28T09:53:00Z", "2023-04-28T09:56:00Z", "2023-04-28T09:55:00Z", "2023-04-28T09:53:00Z", "2023-04-28T09:55:00Z", "2023-04-28T09:55:00Z", "2023-04-28T10:30:00Z", "2023-04-28T09:53:00Z", "2023-04-28T09:55:00Z", "2023-04-28T09:56:00Z", "2023-04-28T09:56:00Z", "2023-04-28T09:55:00Z", "2023-04-28T10:01:00Z", "2023-04-28T09:53:00Z", "2023-04-28T09:56:00Z", "2023-04-28T10:31:00Z", "2023-04-28T09:56:00Z", "2023-04-28T09:53:00Z", "2023-04-28T09:56:00Z", "2023-04-28T09:56:00Z", "2023-04-28T09:54:00Z", "2023-04-28T10:10:00Z", "2023-04-28T10:20:00Z", "2023-04-28T09:56:00Z", "2023-04-28T09:56:00Z", "2023-04-28T10:18:00Z", "2023-04-28T09:55:00Z", "2023-04-28T09:56:00Z", "2023-04-28T10:33:00Z", "2023-04-28T09:57:00Z", "2023-04-28T10:13:00Z", "2023-04-28T09:56:00Z", "2023-04-28T10:22:00Z", "2023-04-28T10:27:00Z", "2023-04-28T09:56:00Z", "2023-04-28T09:54:00Z", "2023-04-28T09:56:00Z", "2023-04-28T09:53:00Z", "2023-04-28T09:53:00Z", "2023-04-28T09:53:00Z", "2023-04-28T10:35:00Z", "2023-04-28T09:56:00Z", "2023-04-28T09:53:00Z", "2023-04-28T10:25:00Z", "2023-04-28T10:33:00Z", "2023-04-28T09:53:00Z", "2023-04-28T09:56:00Z", "2023-04-28T10:10:00Z", "2023-04-28T09:56:00Z", "2023-04-28T10:24:00Z", "2023-04-28T09:53:00Z", "2023-04-28T09:56:00Z", "2023-04-28T09:56:00Z", "2023-04-28T09:53:00Z", "2023-04-28T10:09:00Z", "2023-04-28T09:56:00Z", "2023-04-28T09:56:00Z", "2023-04-28T09:53:00Z", "2023-04-28T09:56:00Z", "2023-04-28T09:53:00Z", "2023-04-28T09:53:00Z", "2023-04-28T09:56:00Z", "2023-04-28T10:00:00Z", "2023-04-28T09:56:00Z", "2023-04-28T09:56:00Z", "2023-04-28T10:34:00Z", "2023-04-28T09:56:00Z", "2023-04-28T09:56:00Z", "2023-04-28T09:53:00Z", "2023-04-28T10:35:00Z", "2023-04-28T09:56:00Z", "2023-04-28T09:53:00Z", "2023-04-28T09:56:00Z", "2023-04-28T09:53:00Z", "2023-04-28T10:35:00Z", "2023-04-28T10:12:00Z", "2023-04-28T10:21:00Z", "2023-04-28T10:32:00Z", "2023-04-28T10:07:00Z", "2023-04-28T10:07:00Z", "2023-04-28T09:56:00Z", "2023-04-28T09:57:00Z", "2023-04-28T09:52:00Z", "2023-04-28T10:16:00Z", "2023-04-28T09:56:00Z", "2023-04-28T09:56:00Z", "2023-04-28T10:15:00Z", "2023-04-28T09:55:00Z", "2023-04-28T09:53:00Z", "2023-04-28T09:56:00Z", "2023-04-28T10:29:00Z", "2023-04-28T09:56:00Z", "2023-04-28T10:31:00Z", "2023-04-28T09:53:00Z", "2023-04-28T09:53:00Z", "2023-04-28T10:33:00Z", "2023-04-28T09:56:00Z", "2023-04-28T09:56:00Z", "2023-04-28T10:22:00Z", "2023-04-28T10:12:00Z", "2023-04-28T09:56:00Z", "2023-04-28T09:56:00Z", "2023-04-28T09:56:00Z", "2023-04-28T10:07:00Z", "2023-04-28T10:14:00Z", "2023-04-28T09:56:00Z", "2023-04-28T10:19:00Z", "2023-04-28T09:56:00Z", "2023-04-28T09:56:00Z", "2023-04-28T09:54:00Z", "2023-04-28T10:30:00Z", "2023-04-28T10:31:00Z", "2023-04-28T09:51:00Z", "2023-04-28T09:51:00Z", "2023-04-28T09:55:00Z", "2023-04-28T09:53:00Z", "2023-04-28T09:53:00Z", "2023-04-28T10:31:00Z", "2023-04-28T09:54:00Z", "2023-04-28T09:57:00Z", "2023-04-28T10:09:00Z", "2023-04-28T09:56:00Z", "2023-04-28T09:54:00Z", "2023-04-28T10:26:00Z", "2023-04-28T09:53:00Z", "2023-04-28T09:53:00Z", "2023-04-28T10:20:00Z", "2023-04-28T10:00:00Z", "2023-04-28T09:56:00Z", "2023-04-28T09:56:00Z", "2023-04-28T09:51:00Z", "2023-04-28T09:51:00Z", "2023-04-28T09:50:00Z", "2023-04-28T09:50:00Z", "2023-04-28T09:56:00Z", "2023-04-28T10:00:00Z", "2023-04-28T10:30:00Z", "2023-04-28T10:30:00Z", "2023-04-28T10:30:00Z", "2023-04-28T10:30:00Z", "2023-04-28T10:30:00Z", "2023-04-28T10:30:00Z", "2023-04-28T10:00:00Z", "2023-04-28T10:00:00Z", "2023-04-28T10:00:00Z", "2023-04-28T10:00:00Z", "2023-04-28T10:00:00Z", "2023-04-28T10:00:00Z", "2023-04-28T10:00:00Z", "2023-04-28T10:00:00Z", "2023-04-28T10:00:00Z", "2023-04-28T10:00:00Z", "2023-04-28T10:00:00Z", "2023-04-28T10:00:00Z", "2023-04-28T10:00:00Z", "2023-04-28T10:00:00Z", "2023-04-28T10:00:00Z", "2023-04-28T10:00:00Z", "2023-04-28T10:00:00Z", "2023-04-28T10:00:00Z", "2023-04-28T10:00:00Z", "2023-04-28T10:00:00Z", "2023-04-28T10:00:00Z", "2023-04-28T10:00:00Z", "2023-04-28T10:00:00Z", "2023-04-28T10:00:00Z", "2023-04-28T10:00:00Z", "2023-04-28T10:00:00Z", "2023-04-28T10:00:00Z", "2023-04-28T10:00:00Z", "2023-04-28T10:00:00Z", "2023-04-28T10:00:00Z", "2023-04-28T10:00:00Z", "2023-04-28T10:00:00Z", "2023-04-28T10:00:00Z", "2023-04-28T10:00:00Z", "2023-04-28T09:26:00Z", "2023-04-28T10:00:00Z", "2023-04-28T09:56:00Z", "2023-04-28T10:00:00Z", "2023-04-28T10:00:00Z", "2023-04-28T10:00:00Z", "2023-04-28T10:00:00Z", "2023-04-28T10:00:00Z", "2023-04-28T10:00:00Z", "2023-04-28T10:00:00Z", "2023-04-28T10:00:00Z", "2023-04-28T10:00:00Z", "2023-04-28T10:00:00Z", "2023-04-28T10:00:00Z", "2023-04-28T10:00:00Z", "2023-04-28T10:00:00Z", "2023-04-28T10:00:00Z", "2023-04-28T10:00:00Z", "2023-04-28T10:00:00Z", "2023-04-28T10:00:00Z", "2023-04-28T10:00:00Z", "2023-04-28T10:00:00Z", "2023-04-28T09:55:00Z", "2023-04-28T10:00:00Z", "2023-04-28T09:55:00Z", "2023-04-28T10:00:00Z", "2023-04-28T10:00:00Z", "2023-04-28T10:00:00Z", "2023-04-28T09:51:00Z", "2023-04-28T10:30:00Z", "2023-04-28T10:00:00Z", "2023-04-28T09:55:00Z", "2023-04-28T10:00:00Z", "2023-04-28T10:00:00Z", "2023-04-28T09:32:00Z", "2023-04-28T10:00:00Z", "2023-04-28T10:00:00Z", "2023-04-28T10:25:00Z", "2023-04-28T10:00:00Z", "2023-04-28T10:00:00Z", "2023-04-28T10:00:00Z", "2023-04-28T10:00:00Z", "2023-04-28T10:00:00Z", "2023-04-28T10:00:00Z", "2023-04-28T10:00:00Z", "2023-04-28T10:00:00Z", "2023-04-28T10:00:00Z", "2023-04-28T10:00:00Z", "2023-04-28T10:00:00Z", "2023-04-28T10:00:00Z", "2023-04-28T10:00:00Z", "2023-04-28T10:00:00Z", "2023-04-28T10:00:00Z", "2023-04-28T10:00:00Z", "2023-04-28T10:00:00Z", "2023-04-28T10:00:00Z", "2023-04-28T10:00:00Z", "2023-04-28T10:00:00Z", "2023-04-28T10:00:00Z", "2023-04-28T10:00:00Z", "2023-04-28T10:00:00Z", "2023-04-28T10:00:00Z", "2023-04-28T10:00:00Z", "2023-04-28T10:00:00Z", "2023-04-28T10:00:00Z", "2023-04-28T10:00:00Z", "2023-04-28T10:00:00Z", "2023-04-28T10:00:00Z", "2023-04-28T10:00:00Z", "2023-04-28T10:00:00Z", "2023-04-28T10:00:00Z", "2023-04-28T10:00:00Z", "2023-04-28T10:00:00Z", "2023-04-28T10:00:00Z", "2023-04-28T10:00:00Z", "2023-04-28T10:00:00Z", "2023-04-28T10:00:00Z", "2023-04-28T10:00:00Z", "2023-04-28T10:00:00Z", "2023-04-28T10:00:00Z", "2023-04-28T10:00:00Z", "2023-04-28T10:30:00Z", "2023-04-28T10:00:00Z", "2023-04-28T10:00:00Z", "2023-04-28T10:00:00Z", "2023-04-28T10:00:00Z", "2023-04-28T10:00:00Z", "2023-04-28T10:00:00Z", "2023-04-28T10:00:00Z", "2023-04-28T10:00:00Z", "2023-04-28T10:00:00Z", "2023-04-28T10:00:00Z", "2023-04-28T10:15:00Z", "2023-04-28T10:00:00Z", "2023-04-28T10:00:00Z", "2023-04-28T10:00:00Z", "2023-04-28T10:00:00Z", "2023-04-28T10:00:00Z", "2023-04-28T10:00:00Z", "2023-04-28T10:00:00Z", "2023-04-28T10:00:00Z", "2023-04-28T10:00:00Z", "2023-04-28T10:00:00Z", "2023-04-28T10:00:00Z", "2023-04-28T10:00:00Z", "2023-04-28T10:00:00Z", "2023-04-28T10:00:00Z", "2023-04-28T10:00:00Z", "2023-04-28T10:00:00Z", "2023-04-28T10:00:00Z", "2023-04-28T10:00:00Z", "2023-04-28T10:09:00Z", "2023-04-28T10:00:00Z", "2023-04-28T10:00:00Z", "2023-04-28T10:00:00Z", "2023-04-28T10:00:00Z", "2023-04-28T10:00:00Z", "2023-04-28T10:00:00Z", "2023-04-28T10:00:00Z", "2023-04-28T10:00:00Z", "2023-04-28T10:00:00Z", "2023-04-28T10:00:00Z", "2023-04-28T10:00:00Z", "2023-04-28T10:00:00Z", "2023-04-28T10:00:00Z", "2023-04-28T10:00:00Z", "2023-04-28T10:00:00Z", "2023-04-28T10:00:00Z", "2023-04-28T10:00:00Z", "2023-04-28T10:00:00Z", "2023-04-28T10:00:00Z", "2023-04-28T10:00:00Z", "2023-04-28T10:00:00Z", "2023-04-28T10:00:00Z", "2023-04-28T10:00:00Z", "2023-04-28T10:15:00Z", "2023-04-28T10:00:00Z", "2023-04-28T10:00:00Z", "2023-04-28T10:15:00Z", "2023-04-28T10:00:00Z", "2023-04-28T10:00:00Z", "2023-04-28T10:34:00Z", "2023-04-28T10:00:00Z", "2023-04-28T10:00:00Z", "2023-04-28T10:20:00Z", "2023-04-28T10:00:00Z", "2023-04-28T10:00:00Z", "2023-04-28T10:00:00Z", "2023-04-28T10:00:00Z", "2023-04-28T10:00:00Z", "2023-04-28T10:00:00Z", "2023-04-28T10:00:00Z", "2023-04-28T10:00:00Z", "2023-04-28T10:00:00Z", "2023-04-28T10:00:00Z", "2023-04-28T10:00:00Z", "2023-04-28T10:00:00Z", "2023-04-28T10:00:00Z", "2023-04-28T10:00:00Z", "2023-04-28T10:00:00Z", "2023-04-28T10:00:00Z", "2023-04-28T10:00:00Z", "2023-04-28T10:00:00Z", "2023-04-28T10:00:00Z", "2023-04-28T10:00:00Z", "2023-04-28T10:00:00Z", "2023-04-28T10:00:00Z", "2023-04-28T10:00:00Z", "2023-04-28T10:00:00Z", "2023-04-28T10:00:00Z", "2023-04-28T10:00:00Z", "2023-04-28T10:00:00Z", "2023-04-28T10:00:00Z", "2023-04-28T10:00:00Z", "2023-04-28T10:00:00Z", "2023-04-28T10:00:00Z", "2023-04-28T10:00:00Z", "2023-04-28T10:33:00Z", "2023-04-28T10:00:00Z", "2023-04-28T10:00:00Z", "2023-04-28T10:00:00Z", "2023-04-28T10:00:00Z", "2023-04-28T10:00:00Z", "2023-04-28T10:00:00Z", "2023-04-28T10:00:00Z", "2023-04-28T10:00:00Z", "2023-04-28T10:23:00Z", "2023-04-28T10:00:00Z", "2023-04-28T10:00:00Z", "2023-04-28T10:00:00Z", "2023-04-28T10:00:00Z", "2023-04-28T10:00:00Z", "2023-04-28T10:00:00Z", "2023-04-28T10:00:00Z", "2023-04-28T10:00:00Z", "2023-04-28T10:00:00Z", "2023-04-28T10:00:00Z", "2023-04-28T10:00:00Z", "2023-04-28T10:00:00Z", "2023-04-28T10:00:00Z", "2023-04-28T10:00:00Z", "2023-04-28T10:00:00Z", "2023-04-28T10:18:00Z", "2023-04-28T10:00:00Z", "2023-04-28T10:00:00Z", "2023-04-28T10:00:00Z", "2023-04-28T10:00:00Z", "2023-04-28T10:00:00Z", "2023-04-28T10:00:00Z", "2023-04-28T10:00:00Z", "2023-04-28T10:00:00Z", "2023-04-28T10:00:00Z", "2023-04-28T10:00:00Z", "2023-04-28T10:00:00Z", "2023-04-28T10:00:00Z", "2023-04-28T10:00:00Z", "2023-04-28T10:00:00Z", "2023-04-28T10:00:00Z", "2023-04-28T10:00:00Z", "2023-04-28T10:00:00Z", "2023-04-28T10:00:00Z", "2023-04-28T10:00:00Z", "2023-04-28T10:30:00Z", "2023-04-28T10:00:00Z", "2023-04-28T10:00:00Z", "2023-04-28T10:00:00Z", "2023-04-28T10:30:00Z", "2023-04-28T10:00:00Z", "2023-04-28T10:00:00Z", "2023-04-28T10:00:00Z", "2023-04-28T10:00:00Z", "2023-04-28T10:30:00Z", "2023-04-28T10:00:00Z", "2023-04-28T10:00:00Z", "2023-04-28T10:00:00Z", "2023-04-28T10:00:00Z", "2023-04-28T10:00:00Z", "2023-04-28T10:03:00Z", "2023-04-28T10:03:00Z", "2023-04-28T10:03:00Z", "2023-04-28T10:03:00Z", "2023-04-28T10:03:00Z", "2023-04-28T10:03:00Z", "2023-04-28T10:03:00Z", "2023-04-28T10:03:00Z", "2023-04-28T10:03:00Z", "2023-04-28T10:03:00Z", "2023-04-28T10:03:00Z", "2023-04-28T10:03:00Z", "2023-04-28T10:03:00Z", "2023-04-28T10:03:00Z", "2023-04-28T10:03:00Z", "2023-04-28T10:03:00Z", "2023-04-28T10:03:00Z", "2023-04-28T10:03:00Z", "2023-04-28T10:03:00Z", "2023-04-28T10:03:00Z", "2023-04-28T10:03:00Z", "2023-04-28T10:00:00Z", "2023-04-28T10:00:00Z", "2023-04-28T10:00:00Z", "2023-04-28T10:30:00Z", "2023-04-28T10:30:00Z", "2023-04-28T10:00:00Z", "2023-04-28T09:53:00Z", "2023-04-28T09:53:00Z", "2023-04-28T09:53:00Z", "2023-04-28T10:15:00Z", "2023-04-28T09:56:00Z", "2023-04-28T10:00:00Z", "2023-04-28T10:00:00Z", "2023-04-28T10:00:00Z", "2023-04-28T09:55:00Z", "2023-04-28T10:00:00Z", "2023-04-28T09:55:00Z", "2023-04-28T10:00:00Z", "2023-04-28T10:00:00Z", "2023-04-28T10:00:00Z", "2023-04-28T10:00:00Z", "2023-04-28T10:00:00Z", "2023-04-28T09:55:00Z", "2023-04-28T10:30:00Z", "2023-04-28T10:30:00Z", "2023-04-28T10:30:00Z", "2023-04-28T10:30:00Z", "2023-04-28T10:30:00Z", "2023-04-28T10:30:00Z", "2023-04-28T10:30:00Z", "2023-04-28T10:30:00Z", "2023-04-28T10:30:00Z", "2023-04-28T10:30:00Z", "2023-04-28T10:30:00Z", "2023-04-28T10:30:00Z", "2023-04-28T10:30:00Z", "2023-04-28T10:30:00Z", "2023-04-28T10:30:00Z", "2023-04-28T10:30:00Z", "2023-04-28T10:30:00Z", "2023-04-28T10:30:00Z", "2023-04-28T10:30:00Z", "2023-04-28T10:30:00Z", "2023-04-28T10:30:00Z", "2023-04-28T10:30:00Z", "2023-04-28T10:30:00Z", "2023-04-28T10:00:00Z", "2023-04-28T10:30:00Z", "2023-04-28T10:00:00Z", "2023-04-28T10:00:00Z", "2023-04-28T10:30:00Z", "2023-04-28T10:09:00Z", "2023-04-28T10:00:00Z", "2023-04-28T10:30:00Z", "2023-04-28T10:30:00Z", "2023-04-28T10:30:00Z", "2023-04-28T10:30:00Z", "2023-04-28T10:30:00Z", "2023-04-28T10:00:00Z", "2023-04-28T10:30:00Z", "2023-04-28T10:30:00Z", "2023-04-28T10:30:00Z", "2023-04-28T10:30:00Z", "2023-04-28T10:30:00Z", "2023-04-28T10:30:00Z", "2023-04-28T10:00:00Z", "2023-04-28T10:30:00Z", "2023-04-28T10:30:00Z", "2023-04-28T10:00:00Z", "2023-04-28T10:00:00Z", "2023-04-28T10:30:00Z", "2023-04-28T10:30:00Z", "2023-04-28T10:30:00Z", "2023-04-28T10:30:00Z", "2023-04-28T10:30:00Z", "2023-04-28T10:30:00Z", "2023-04-28T10:30:00Z", "2023-04-28T10:30:00Z", "2023-04-28T10:30:00Z", "2023-04-28T10:30:00Z", "2023-04-28T10:30:00Z", "2023-04-28T10:30:00Z", "2023-04-28T10:00:00Z", "2023-04-28T10:30:00Z", "2023-04-28T10:00:00Z", "2023-04-28T10:30:00Z", "2023-04-28T10:30:00Z", "2023-04-28T10:30:00Z", "2023-04-28T10:30:00Z", "2023-04-28T10:00:00Z", "2023-04-28T10:30:00Z", "2023-04-28T10:30:00Z", "2023-04-28T10:30:00Z", "2023-04-28T10:30:00Z", "2023-04-28T10:30:00Z", "2023-04-28T10:30:00Z", "2023-04-28T10:30:00Z", "2023-04-28T10:30:00Z", "2023-04-28T10:30:00Z", "2023-04-28T10:30:00Z", "2023-04-28T10:30:00Z", "2023-04-28T10:30:00Z", "2023-04-28T10:30:00Z", "2023-04-28T10:30:00Z", "2023-04-28T10:30:00Z", "2023-04-28T10:30:00Z", "2023-04-28T10:30:00Z", "2023-04-28T10:30:00Z", "2023-04-28T10:30:00Z", "2023-04-28T10:30:00Z", "2023-04-28T10:30:00Z", "2023-04-28T10:30:00Z", "2023-04-28T10:30:00Z", "2023-04-28T10:30:00Z", "2023-04-28T10:30:00Z", "2023-04-28T10:30:00Z", "2023-04-28T10:30:00Z", "2023-04-28T10:30:00Z", "2023-04-28T10:30:00Z", "2023-04-28T10:30:00Z", "2023-04-28T10:30:00Z", "2023-04-28T10:00:00Z", "2023-04-28T10:00:00Z", "2023-04-28T10:00:00Z", "2023-04-28T10:00:00Z", "2023-04-28T10:00:00Z", "2023-04-28T10:30:00Z", "2023-04-28T10:30:00Z", "2023-04-28T10:30:00Z", "2023-04-28T10:30:00Z", "2023-04-28T10:30:00Z", "2023-04-28T10:30:00Z", "2023-04-28T10:30:00Z", "2023-04-28T10:30:00Z", "2023-04-28T10:31:00Z", "2023-04-28T10:30:00Z", "2023-04-28T10:30:00Z", "2023-04-28T10:30:00Z", "2023-04-28T10:30:00Z", "2023-04-28T10:30:00Z", "2023-04-28T10:30:00Z", "2023-04-28T10:30:00Z", "2023-04-28T10:30:00Z", "2023-04-28T10:30:00Z", "2023-04-28T10:30:00Z", "2023-04-28T10:30:00Z", "2023-04-28T10:30:00Z", "2023-04-28T10:30:00Z", "2023-04-28T10:30:00Z", "2023-04-28T10:30:00Z", "2023-04-28T10:30:00Z", "2023-04-28T10:30:00Z", "2023-04-28T10:30:00Z", "2023-04-28T10:30:00Z", "2023-04-28T10:30:00Z", "2023-04-28T10:30:00Z", "2023-04-28T10:30:00Z", "2023-04-28T10:30:00Z", "2023-04-28T10:30:00Z", "2023-04-28T10:00:00Z", "2023-04-28T10:30:00Z", "2023-04-28T10:00:00Z", "2023-04-28T10:30:00Z", "2023-04-28T10:30:00Z", "2023-04-28T10:30:00Z", "2023-04-28T10:30:00Z", "2023-04-28T10:30:00Z", "2023-04-28T10:30:00Z", "2023-04-28T10:30:00Z", "2023-04-28T10:00:00Z", "2023-04-28T10:00:00Z", "2023-04-28T10:30:00Z", "2023-04-28T10:30:00Z", "2023-04-28T10:00:00Z", "2023-04-28T10:00:00Z", "2023-04-28T10:30:00Z", "2023-04-28T10:30:00Z", "2023-04-28T10:00:00Z", "2023-04-28T10:28:00Z", "2023-04-28T10:30:00Z", "2023-04-28T10:30:00Z", "2023-04-28T10:10:00Z", "2023-04-28T10:10:00Z", "2023-04-28T10:30:00Z", "2023-04-28T10:30:00Z", "2023-04-28T10:30:00Z", "2023-04-28T10:30:00Z", "2023-04-28T09:30:00Z", "2023-04-28T09:30:00Z", "2023-04-28T10:30:00Z", "2023-04-28T10:00:00Z", "2023-04-28T10:30:00Z", "2023-04-28T10:00:00Z", "2023-04-28T10:30:00Z", "2023-04-28T10:30:00Z", "2023-04-28T10:30:00Z", "2023-04-28T10:30:00Z", "2023-04-28T10:30:00Z", "2023-04-28T10:30:00Z", "2023-04-28T10:30:00Z", "2023-04-28T10:00:00Z", "2023-04-28T10:00:00Z", "2023-04-28T10:00:00Z", "2023-04-28T10:00:00Z", "2023-04-28T10:30:00Z", "2023-04-28T10:30:00Z", "2023-04-28T10:30:00Z", "2023-04-28T10:30:00Z", "2023-04-28T10:30:00Z", "2023-04-28T10:30:00Z", "2023-04-28T10:30:00Z", "2023-04-28T10:30:00Z", "2023-04-28T10:30:00Z", "2023-04-28T09:30:00Z", "2023-04-28T09:30:00Z", "2023-04-28T10:30:00Z", "2023-04-28T10:00:00Z", "2023-04-28T10:00:00Z", "2023-04-28T10:00:00Z", "2023-04-28T10:00:00Z", "2023-04-28T10:00:00Z", "2023-04-28T10:30:00Z", "2023-04-28T10:30:00Z", "2023-04-28T10:30:00Z", "2023-04-28T10:30:00Z", "2023-04-28T10:30:00Z", "2023-04-28T10:30:00Z", "2023-04-28T10:30:00Z", "2023-04-28T10:30:00Z", "2023-04-28T10:30:00Z", "2023-04-28T10:30:00Z", "2023-04-28T10:30:00Z", "2023-04-28T10:00:00Z", "2023-04-28T10:00:00Z", "2023-04-28T10:00:00Z", "2023-04-28T10:30:00Z", "2023-04-28T10:00:00Z", "2023-04-28T10:30:00Z", "2023-04-28T10:30:00Z", "2023-04-28T10:30:00Z", "2023-04-28T10:00:00Z", "2023-04-28T10:00:00Z", "2023-04-28T10:00:00Z", "2023-04-28T10:00:00Z", "2023-04-28T10:00:00Z", "2023-04-28T10:00:00Z", "2023-04-28T10:00:00Z", "2023-04-28T10:00:00Z", "2023-04-28T10:00:00Z", "2023-04-28T10:00:00Z", "2023-04-28T10:00:00Z", "2023-04-28T10:00:00Z", "2023-04-28T10:00:00Z", "2023-04-28T10:00:00Z", "2023-04-28T10:00:00Z", "2023-04-28T10:00:00Z", "2023-04-28T10:00:00Z", "2023-04-28T10:30:00Z", "2023-04-28T10:00:00Z", "2023-04-28T10:30:00Z", "2023-04-28T10:00:00Z", "2023-04-28T10:00:00Z", "2023-04-28T10:00:00Z", "2023-04-28T10:00:00Z", "2023-04-28T10:00:00Z", "2023-04-28T10:00:00Z", "2023-04-28T10:00:00Z", "2023-04-28T10:00:00Z", "2023-04-28T10:00:00Z", "2023-04-28T10:00:00Z", "2023-04-28T10:00:00Z", "2023-04-28T10:30:00Z", "2023-04-28T10:30:00Z", "2023-04-28T10:30:00Z", "2023-04-28T10:30:00Z", "2023-04-28T10:00:00Z", "2023-04-28T10:30:00Z", "2023-04-28T10:30:00Z", "2023-04-28T10:30:00Z", "2023-04-28T10:00:00Z", "2023-04-28T10:30:00Z", "2023-04-28T10:00:00Z", "2023-04-28T10:30:00Z", "2023-04-28T10:00:00Z", "2023-04-28T10:00:00Z", "2023-04-28T10:00:00Z", "2023-04-28T10:30:00Z", "2023-04-28T10:00:00Z", "2023-04-28T10:30:00Z", "2023-04-28T10:00:00Z", "2023-04-28T10:30:00Z", "2023-04-28T10:00:00Z", "2023-04-28T10:00:00Z", "2023-04-28T10:00:00Z", "2023-04-28T10:00:00Z", "2023-04-28T10:00:00Z", "2023-04-28T10:00:00Z", "2023-04-28T10:00:00Z", "2023-04-28T10:00:00Z", "2023-04-28T10:00:00Z", "2023-04-28T10:15:00Z", "2023-04-28T10:00:00Z", "2023-04-28T10:00:00Z", "2023-04-28T10:00:00Z", "2023-04-28T10:00:00Z", "2023-04-28T10:00:00Z", "2023-04-28T10:00:00Z", "2023-04-28T10:00:00Z", "2023-04-28T10:00:00Z", "2023-04-28T10:00:00Z", "2023-04-28T10:00:00Z", "2023-04-28T10:30:00Z", "2023-04-28T10:00:00Z", "2023-04-28T10:00:00Z", "2023-04-28T10:00:00Z", "2023-04-28T10:00:00Z", "2023-04-28T10:00:00Z", "2023-04-28T10:00:00Z", "2023-04-28T10:00:00Z", "2023-04-28T10:00:00Z", "2023-04-28T10:00:00Z", "2023-04-28T10:00:00Z", "2023-04-28T10:00:00Z", "2023-04-28T10:00:00Z", "2023-04-28T10:00:00Z", "2023-04-28T10:00:00Z", "2023-04-28T10:00:00Z", "2023-04-28T10:00:00Z", "2023-04-28T10:00:00Z", "2023-04-28T10:00:00Z", "2023-04-28T10:00:00Z", "2023-04-28T10:00:00Z", "2023-04-28T10:00:00Z", "2023-04-28T10:30:00Z", "2023-04-28T10:30:00Z", "2023-04-28T10:30:00Z", "2023-04-28T10:30:00Z", "2023-04-28T10:30:00Z", "2023-04-28T10:30:00Z", "2023-04-28T10:30:00Z", "2023-04-28T10:30:00Z", "2023-04-28T10:30:00Z", "2023-04-28T10:30:00Z", "2023-04-28T10:30:00Z", "2023-04-28T10:30:00Z", "2023-04-28T10:30:00Z", "2023-04-28T10:30:00Z", "2023-04-28T10:30:00Z", "2023-04-28T10:30:00Z", "2023-04-28T10:30:00Z", "2023-04-28T10:30:00Z", "2023-04-28T10:30:00Z", "2023-04-28T10:30:00Z", "2023-04-28T10:30:00Z", "2023-04-28T10:30:00Z", "2023-04-28T10:30:00Z", "2023-04-28T10:30:00Z", "2023-04-28T10:30:00Z", "2023-04-28T10:30:00Z", "2023-04-28T10:30:00Z", "2023-04-28T10:30:00Z", "2023-04-28T10:30:00Z", "2023-04-28T10:30:00Z", "2023-04-28T10:30:00Z", "2023-04-28T10:30:00Z", "2023-04-28T10:30:00Z", "2023-04-28T10:30:00Z", "2023-04-28T10:30:00Z", "2023-04-28T10:30:00Z", "2023-04-28T10:30:00Z", "2023-04-28T10:30:00Z", "2023-04-28T09:30:00Z", "2023-04-28T10:30:00Z", "2023-04-28T10:30:00Z", "2023-04-28T10:35:00Z", "2023-04-28T10:30:00Z", "2023-04-28T10:30:00Z", "2023-04-28T10:30:00Z", "2023-04-28T10:30:00Z", "2023-04-28T10:30:00Z", "2023-04-28T10:30:00Z", "2023-04-28T10:00:00Z", "2023-04-28T10:00:00Z", "2023-04-28T10:30:00Z", "2023-04-28T10:30:00Z", "2023-04-28T10:30:00Z", "2023-04-28T10:00:00Z", "2023-04-28T10:00:00Z", "2023-04-28T10:00:00Z", "2023-04-28T10:00:00Z", "2023-04-28T10:00:00Z", "2023-04-28T10:00:00Z", "2023-04-28T10:00:00Z", "2023-04-28T10:00:00Z", "2023-04-28T10:00:00Z", "2023-04-28T10:00:00Z", "2023-04-28T10:00:00Z", "2023-04-28T10:30:00Z", "2023-04-28T10:00:00Z", "2023-04-28T10:00:00Z", "2023-04-28T10:00:00Z", "2023-04-28T10:00:00Z", "2023-04-28T10:30:00Z", "2023-04-28T10:00:00Z", "2023-04-28T10:00:00Z", "2023-04-28T10:00:00Z", "2023-04-28T10:30:00Z", "2023-04-28T10:00:00Z", "2023-04-28T10:30:00Z", "2023-04-28T10:00:00Z", "2023-04-28T10:00:00Z", "2023-04-28T10:00:00Z", "2023-04-28T10:00:00Z", "2023-04-28T10:00:00Z", "2023-04-28T10:30:00Z", "2023-04-28T10:00:00Z", "2023-04-28T10:00:00Z", "2023-04-28T10:30:00Z", "2023-04-28T10:30:00Z"], "raw_text": ["AGGH 281000Z 18004KT 9999 FEW017 FEW018CB 26/25 Q1009 RMK CB TO NE,S", "AYPY 281000Z VRB04KT 9999 FEW020 BKN040 28/25 Q1008", "BGBW 280950Z 07021KT 9999 FEW088 04/M11 Q1025", "BGGH 280950Z VRB02KT 9999 0600S PRFG SCT002 M02/M02 Q1026", "BGJN 280950Z 02004KT 320V100 9999 FEW150 M02/M06 Q1029", "BGKK 280950Z VRB04KT 9999 FEW004 M03/M08 Q1034", "BGSF 280950Z AUTO 04006KT 9999NDV OVC026/// M02/M07 Q1029", "BGTL 280955Z AUTO 28004KT 9999 OVC050 M10/M15 A3050 RMK AO2 SLP317 T11051148 TSNO $", "BIAR 281000Z 01006KT 9999 BKN040 M01/M09 Q1028", "BIBD 281000Z 05009KT 9999 FEW025 01/M08 Q1028", "BIEG 281000Z 02005KT 340V080 9999 BKN035 BKN045 00/M07 Q1025", "BIGJ 281000Z 03013KT 9999 OVC022 M00/M07 Q1029", "BIGR 281000Z 35011KT 9999 BKN021 M02/M07 Q1028", "BIHN 281010Z 02014KT CAVOK 02/M10 Q1025", "BIIS 281000Z 02014KT 9999 SCT035 M01/M07 Q1029", "BIKF 281030Z 07008KT 9999 FEW017 BKN029 02/M00 Q1025", "BIRK 281000Z 09010KT 9999 OVC031 02/M05 Q1025", "BIVM 281000Z 09007KT 9999 BKN021 03/00 Q1024", "BK12 280955Z 29007G14KT 240V310 9999 CLR 12/M01 A3020 RMK AO2 SLP241 WND DATA ESTMD T01171006", "BKPR 281030Z VRB04KT CAVOK 13/01 Q1021 NOSIG", "CAHR 281000Z AUTO 34003KT 01/01 RMK AO1 SLP223 T00060005 53010", "CBBC 281000Z AUTO VRB02KT 9SM CLR 01/00 A3021 RMK SLP233", "CERM 281000Z AUTO 33002KT M03/M04 RMK AO1 SLP241 T10301037 53011", "CMFM 281000Z AUTO 00000KT M06/M06 RMK AO1 SOG 19 1006 SLP251 T10551063", "CMGB 281000Z AUTO 01002KT 04/M00 RMK AO1 SLP232 T00351002 58002", "CPBT 281000Z AUTO 24005KT 02/M03 RMK AO1 T00161034", "CPEH 281000Z AUTO 00000KT 02/M03 RMK AO1 T00231029", "CPFI 281000Z AUTO 21007KT 01/M03 RMK AO1 T00141026", "CPIN 281000Z AUTO 11010KT ////SM ////// ///// A////", "CPRO 281000Z AUTO 22005KT 01/M01 RMK AO1 T00121010", "CPRY 281000Z AUTO 24006KT 03/M04 RMK AO1 T00291035", "CPST 281000Z AUTO 23008KT 05/M02 RMK AO1 T00481021", "CPSV 281000Z AUTO 23008KT 01/M02 RMK AO1 T00091021", "CTCK 281000Z AUTO 09005KT 02/M01 RMK AO1 SLP217 T00171010 57002", "CTNK 281000Z AUTO 00000KT M01/M02 RMK AO1 SLP201 T10081019 58005", "CTRA 281000Z AUTO 03003KT M00/M01 RMK AO1 SLP168 T10041008 51007", "CWAF 281000Z AUTO 19004KT 05/04 RMK AO1 T00530040", "CWAJ 281000Z AUTO 05016KT RMK AO1 PK WND 05022/0918 56013", "CWAQ 281000Z AUTO 31004KT 03/01 RMK AO1 SLP216 T00320012 50002", "CWAR 281000Z AUTO 33013KT 01/M01 RMK AO1 PK WND 34019/0916 SLP151 T00131011 53002", "CWAV 281000Z AUTO 23002KT M00/M02 RMK AO1 SLP208 T10041015 58001", "CWBA 281000Z AUTO 16004KT 04/02 RMK AO1 T00350016", "CWBK 281000Z AUTO 34005KT 01/M00 RMK AO1 SLP229 T00061002 53016", "CWBO 281000Z AUTO 19005KT 01/M02 RMK AO1 SLP204 T00141022 56009", "CWBS 281000Z AUTO 02007KT 04/01 RMK AO1 T00350009", "CWBT 281000Z AUTO 06001KT M02/M02 RMK AO1 SLP218 T10201020 53013", "CWBU 281000Z AUTO 24003KT M02/M03 RMK AO1 SLP207 T10151034 58002", "CWBV 281000Z AUTO 35010KT 03/02 RMK AO1 SLP195 T00300019 53012", "CWBY 281000Z AUTO 00000KT M00/M01 RMK AO1 SLP217 T10021008 53009", "CWBZ 281000Z AUTO 07002KT 01/M01 RMK AO1 SLP215 T00111006 56003", "CWCF 281000Z AUTO 11002KT M03/M04 RMK AO1 SLP192 T10291037 51006", "CWCJ 281000Z AUTO 05004KT M00/M00 RMK AO1 SLP174 T10011002 51010", "CWCO 281000Z AUTO 14002KT 04/M01 RMK AO1 SLP169 T00371013 56011", "CWCT 281000Z AUTO 21013KT 06/M02 RMK AO1 PK WND 21017/0928 SLP193 T00631021 58013", "CWDA 281000Z AUTO 00033KT M00/ RMK AO1 T1003", "CWDC 281000Z AUTO 33001KT 02/01 RMK AO1 3PAST HR 6014 SLP120 P0001 T00150012 50003", "CWDJ 281000Z AUTO 36004KT M02/M04 RMK AO1 SLP217 T10211042 50003", "CWDK 281000Z AUTO 34002KT 00/M02 RMK AO1 SLP212 T00001024 56006", "CWDM 281000Z AUTO 01006KT M00/M01 RMK AO1 SLP225 T10031010 53013", "CWDO 281000Z AUTO 36018KT M01/M01 RMK AO1 PK WND 00023/0944 SLP163 T10111011 53003", "CWDQ 281000Z AUTO 00000KT M03/M04 RMK AO1 SLP254 T10321039 51007", "CWDV 281000Z AUTO 03001KT 01/00 RMK AO1 SOG 04 3008 SLP162 T00090000", "CWDZ 281000Z AUTO 16002KT 03/M03 RMK AO1 SLP196 T00321032 58005", "CWEE 281000Z AUTO M04/M05 RMK AO1 SLP243 T10431046 53006", "CWEF 281000Z AUTO 31015KT M00/00 RMK AO1 PK WND 31018/0917 SLP185 T10020000 53002", "CWEH 281000Z AUTO 25006KT 01/M03 RMK AO1 SLP221 T00091033 58004", "CWEL 281000Z AUTO 29010KT 11/07 RMK AO1 SLP203 T01080071 58004", "CWEP 281000Z AUTO 32004KT 01/01 RMK AO1 SLP219 T00110010 53006", "CWEQ 281000Z AUTO 22005KT M02/M03 RMK AO1 SLP207 T10201029 52004", "CWER 281000Z AUTO 25004KT RMK AO1", "CWEU 281030Z VRB02KT 1 1/2SM -SN OVC032 M21/M24 A3022 RMK SC8 SLP251", "CWEW 281000Z AUTO 01004KT 02/M00 RMK AO1 SLP237 T00201003 58001", "CWEZ 281000Z AUTO 32003KT 11/07 RMK AO1 SLP198 T01120066 58003", "CWFF 281000Z AUTO 19003KT M02/M03 RMK AO1 SLP213 T10201034 58002", "CWFJ 281000Z AUTO 22008KT 06/M05 RMK AO1 T00571048", "CWFQ 281000Z AUTO 15004KT 06/M01 RMK AO1 SLP226 T00601008 58002", "CWGB 281000Z AUTO 24012KT 10/ RMK AO1 SLP204 T0099 58005", "CWGD 281000Z AUTO 09012KT 07/M01 RMK AO1 PK WND 09017/0944 SLP139 T00651006 56016", "CWGH 281000Z AUTO 05003KT 05/01 RMK AO1 SLP204 T00450011 55000", "CWGL 281000Z AUTO 09010KT 07/M00 RMK AO1 SLP157 T00711004 56011", "CWGM 281000Z AUTO 22016G23KT 09/M07 RMK AO1 PK WND 21025/0924 SLP202 T00901067 58008", "CWGR 281000Z AUTO 31008KT 03/02 RMK AO1 SLP208 T00320015 53003", "CWGT 281000Z AUTO 31014KT 10/07 RMK AO1 PK WND 31017/0923 SLP211 T01040071 58004", "CWGY 281000Z AUTO 21012KT 06/M02 RMK AO1 SLP195 T00581016 58010", "CWHI 281000Z AUTO 26010KT 06/M05 RMK AO1 T00571046", "CWHL 281000Z AUTO 32002KT 07/05 RMK AO1 SLP226 T00720049 58005", "CWHO 281000Z AUTO 00032KT M01/M02 RMK AO1 SLP273 T10131024 51010", "CWHP 281000Z AUTO 01014KT 03/02 RMK AO1 SLP204 T00280019 53011", "CWHQ 281000Z AUTO 35001KT M02/M03 RMK AO1 T10231026", "CWHT 281000Z AUTO 35002KT 01/M05 RMK AO1 SOG 26 1024 SLP182 T00141051", "CWHV 281000Z AUTO 14002KT M01/M02 RMK AO1 SLP247 T10111018 53008", "CWID 281000Z AUTO 28003KT 03/M03 RMK AO1 SLP114 T00251029 51021", "CWIG 281000Z AUTO 23005KT RMK AO1", "CWII 281000Z AUTO 04002KT 02/01 RMK AO1 SLP181 T00240009 53008", "CWIJ 281000Z AUTO 18004KT M01/M01 RMK AO1 SOG 81 1001 SLP107 T10091013 50004", "CWIK 281000Z AUTO 32002KT M01/M02 RMK AO1 SLP210 T10121020 53008", "CWIL 281000Z AUTO ///// ////SM NCD M13/M14 A3009", "CWIP 281000Z AUTO 30002KT 05/02 RMK AO1 T00490024", "CWIS 281000Z AUTO 13001KT M03/M04 RMK AO1 SOG 66 3009 SLP249 T10291035", "CWIT 281000Z AUTO 15002KT 01/M00 RMK AO1 SLP224 T00051002 51001", "CWIW 281000Z AUTO 26004KT M01/M03 RMK AO1 SLP216 T10111031 58004", "CWIZ 281000Z AUTO 07001KT 04/M00 RMK AO1 T00401004", "CWJB 281000Z AUTO 01/M00 RMK AO1 T00051003", "CWJC 281000Z AUTO 17014KT M07/M09 RMK AO1 PK WND 17018/0948 SLP172 T10701088 56016", "CWJD 281000Z AUTO 36002KT M05/M06 RMK AO1 SLP198 T10471061 51004", "CWJH 281000Z AUTO 00000KT M02/M04 RMK AO1 SOG 03 8012 SLP181 T10151041", "CWJI 281000Z AUTO 28002KT M00/M01 RMK AO1 SLP218 T10031014 50002", "CWJR 281000Z AUTO 03003KT 07/M03 RMK AO1 SLP243 T00651029 51006", "CWJT 281000Z AUTO 01001KT 00/M01 RMK AO1 SLP229 T00001008 58003", "CWJU 281000Z AUTO 09004KT 06/06 RMK AO1 SLP229 T00640058 56001", "CWJV 281000Z AUTO 09006KT 07/M01 RMK AO1 SLP237 T00681013 50001", "CWJW 281000Z AUTO 10003KT 07/M02 RMK AO1 SLP220 T00681023 58004", "CWJX 281000Z AUTO 20005KT 02/M01 RMK AO1 SOG 01 6007 SLP206 T00231013", "CWKD 281000Z AUTO M04/M05 RMK AO1 SLP251 T10391053 52009", "CWKG 281000Z AUTO 30002KT 03/02 RMK AO1 SLP220 T00280018 53013", "CWKH 281000Z AUTO 12/M00 RMK AO1 SLP190 T01211004 56008", "CWKM 281029Z AUTO 25012KT ////SM FEW006 BKN024 OVC046 M17/M19 A3009", "CWKO 281000Z AUTO 31007KT 03/M01 RMK AO1 SLP222 T00251008 50001", "CWKX 281000Z AUTO 18001KT M00/M03 RMK AO1 SLP241 T10031029 51011", "CWLB 281000Z AUTO 25006KT 07/M00 RMK AO1 SLP153 T00741002 56014", "CWLC 281000Z AUTO 13004KT 07/06 RMK AO1 T00680064", "CWLE 281000Z AUTO 22005KT M00/M02 RMK AO1 SLP215 T10031019 58008", "CWLM 281000Z AUTO 19002KT 10/06 RMK AO1 SLP200 T00990062 57004", "CWLP 281000Z AUTO 26008KT 07/06 RMK AO1 SLP224 T00710062 58007", "CWLS 281000Z AUTO 10006KT 05/M01 RMK AO1 SLP153 T00491014 56011", "CWLX 281000Z AUTO ///// ////SM ////// M02/M03 A3023", "CWLY 281000Z AUTO 18005KT 9SM SCT180 OVC200 11/02 A3016 RMK SLP216", "CWME 281000Z AUTO 10008KT 08/04 RMK AO1 SLP232 T00800044 58003", "CWMJ 281000Z AUTO 32001KT M01/M01 RMK AO1 SLP222 T10061006 56003", "CWMM 281000Z AUTO 32001KT 09/07 RMK AO1 SLP207 T00880068 56001", "CWMQ 281000Z AUTO 15001KT 01/M03 RMK AO1 SLP216 T00051031 58010", "CWMT 281000Z AUTO 27005KT M00/M04 RMK AO1 SLP103 T10031039 53019", "CWNC 281000Z AUTO 08007KT 08/01 RMK AO1 SLP175 T00810012 56006", "CWND 281000Z AUTO 32008KT M11/M13 RMK AO1 SLP118 T11141127 51021", "CWNE 281000Z AUTO 23005KT 02/02 RMK AO1 SLP220 T00240024 53007", "CWNH 281000Z AUTO 19005KT 03/M00 RMK AO1 SLP241 T00251004 53011", "CWNK 281000Z AUTO 32006KT 03/02 RMK AO1 SLP179 T00300019 53004", "CWNM 281000Z AUTO 20003KT 04/01 RMK AO1 SLP250 T00390009 51002", "CWNP 281000Z AUTO 07001KT 02/01 RMK AO1 SLP258 T00240009 53003", "CWNQ 281000Z AUTO 06002KT 02/02 RMK AO1 SLP240 T00210016 51006", "CWNZ 281000Z AUTO 24002KT 02/01 RMK AO1 SOG 03 3010 SLP172 T00160014", "CWOB 281000Z AUTO 08008KT ////SM ////// M05/M05 A3037", "CWOC 281000Z AUTO 01004KT M00/M01 RMK AO1 SLP219 T10021009 53008", "CWOD 281000Z AUTO 35001KT M01/M03 RMK AO1 SLP250 T10061030 52008", "CWOY 281000Z AUTO 18002KT M02/M03 RMK AO1 SLP216 T10161027 58001", "CWPD 281000Z AUTO 10001KT M06/M06 RMK AO1 SLP244 T10601061 52008", "CWPE 281000Z AUTO 34005KT 02/01 RMK AO1 SLP226 T00170013 52014", "CWPF 281030Z AUTO 01004KT 08/06 RMK AO1 SLP198 T00840063 58005", "CWPK 281000Z AUTO 07002KT M03/M04 RMK AO1 SLP245 T10341039 53005", "CWPO 281000Z AUTO 32006KT 01/01 RMK AO1 SOG 06 3005 SLP194 T00050009", "CWPR 281000Z AUTO 00000KT 04/M02 RMK AO1 SLP236 T00391020 50001", "CWPZ 281000Z AUTO 31001KT M00/M04 RMK AO1 SLP247 T10011039 51006", "CWQH 281000Z AUTO 07004KT M01/M02 RMK AO1 SLP249 T10141018 52006", "CWQK 281000Z AUTO 04003KT 11/06 RMK AO1 SLP199 T01050060 58005", "CWQO 281000Z AUTO 23012KT 05/04 RMK AO1 T00490035", "CWQP 281000Z AUTO 10009KT 07/04 RMK AO1 SLP190 T00650040 55002", "CWQR 281000Z AUTO 04004KT 01/01 RMK AO1 T00140006", "CWQS 281000Z AUTO 14005KT 06/06 RMK AO1 SLP218 T00550061 58003", "CWQV 281000Z AUTO 29010KT 03/ RMK AO1 T0032", "CWRA 281000Z AUTO 01/M01 RMK AO1 SLP135 T00111009 50000", "CWRJ 281000Z AUTO 24004KT M01/M03 RMK AO1 SLP204 T10081032 57009", "CWRK 281000Z AUTO 30001KT M02/M02 RMK AO1 SLP199 T10211021 56004", "CWRM 281000Z AUTO 29001KT 05/M01 RMK AO1 SLP178 T00481013 53004", "CWRN 281000Z AUTO 31017KT 02/01 RMK AO1 PK WND 30022/0906 SLP203 T00180009 53010", "CWRO 281000Z AUTO 11011KT 07/ RMK AO1 SLP230 T0072 58003", "CWRT 281000Z AUTO 16001KT 01/M05 RMK AO1 SLP230 T00131054 58002", "CWRU 281000Z AUTO 01016KT 07/ RMK AO1 PK WND 01017/1000 SLP200 T0074 57016", "CWRY 281000Z AUTO 24005KT 01/M03 RMK AO1 SOG 17 7007 SLP217 T00111034", "CWRZ 281000Z AUTO 05002KT 02/01 RMK AO1 SLP220 T00160007 53010", "CWSA 281000Z AUTO 32010KT 9SM 05/03 A3008 RMK CLD MISG SLP189", "CWSD 281000Z AUTO 00000KT M00/M00 RMK AO1 SLP226 T10011001 53010", "CWSF 281000Z AUTO 17011KT 02/M00 RMK AO1 SLP216 T00201003 53009", "CWSG 281000Z AUTO 19008KT 03/01 RMK AO1 SLP226 T00290006 53009", "CWSK 281000Z AUTO 03002KT 07/06 RMK AO1 SLP219 T00680056 56001", "CWSL 281000Z AUTO 19001KT 05/01 RMK AO1 SLP245 T00450006 50001", "CWSP 281000Z AUTO 07006KT 13/05 RMK AO1 SLP198 T01250046 58008", "CWSR 281000Z AUTO 16005KT 03/M03 RMK AO1 SLP189 T00251028 56014", "CWSS 281000Z AUTO 00000KT M01/M01 RMK AO1 3018 SLP234 T10051009 50002", "CWST 281000Z AUTO 12005KT 02/M01 RMK AO1 SLP238 T00181009 51013", "CWTA 281000Z AUTO 06002KT 07/01 RMK AO1 SLP229 T00680008 58001", "CWTG 281000Z AUTO 27003KT 02/01 RMK AO1 SLP224 T00150014 53011", "CWTN 281000Z AUTO 32002KT 03/01 RMK AO1 SLP243 T00270007 51011", "CWTT 281000Z AUTO 02002KT M02/M02 RMK AO1 T10151015", "CWTY 281000Z AUTO 33001KT 02/01 RMK AO1 SLP246 T00180005 51007", "CWUS 281000Z AUTO 27006KT 08/M04 RMK AO1 SLP233 T00781035 53002", "CWUW 281000Z AUTO 12023KT ////SM ////// M07/M07 A3024", "CWUX 281000Z AUTO 22003KT M03/M03 RMK AO1 SLP254 T10261031 51011", "CWVF 281000Z AUTO 34007KT 11/09 RMK AO1 T01120088", "CWVI 281000Z AUTO 28009KT 09/M02 RMK AO1 SLP161 T00941018 55009", "CWVN 281000Z AUTO 23006KT M02/M04 RMK AO1 SLP231 T10241037 51001", "CWVP 281000Z AUTO 22004KT 01/M04 RMK AO1 SLP215 T00141040 58006", "CWVQ 281000Z AUTO 01003KT 02/M00 RMK AO1 SLP229 T00211003 51001", "CWVT 281000Z AUTO 17007KT 05/M01 RMK AO1 SLP149 T00481010 58027", "CWVU 281000Z AUTO 11003KT 04/04 RMK AO1 SLP220 T00390039 53012", "CWWA 281000Z AUTO 04001KT 10/06 RMK AO1 SLP204 T00990059 58005", "CWWB 281000Z AUTO 02011KT 06/03 RMK AO1 SLP162 T00610032 56009", "CWWE 281000Z AUTO 33004KT 05/04 RMK AO1 SLP219 T00490044 53014", "CWWF 281000Z AUTO 35006KT 01/M02 RMK AO1 SOG 01 3006 SLP208 T00051020", "CWWK 281000Z AUTO 11001KT 08/06 RMK AO1 SLP207 T00810064 58003", "CWWL 281000Z AUTO 15008KT 07/05 RMK AO1 SLP227 T00700054 58005", "CWWS 281000Z AUTO 25001KT M01/M02 RMK AO1 SOG 27 2004 SLP188 T10101024", "CWWU 280930Z 36012KT 15SM OVC008 00/M01 A2996 RMK SF8 SLP147", "CWWZ 281000Z AUTO 05007KT 08/04 RMK AO1 SLP154 T00750043 58006", "CWXA 281000Z AUTO 00026KT 07/M08 RMK AO1 SLP228 T00701075 50006", "CWXC 281000Z AUTO 06002KT M04/M05 RMK AO1 SLP249 T10411048 51009", "CWXI 281000Z AUTO 35015KT 01/M01 RMK AO1 PK WND 01018/0901 SLP198 T00111013 53008", "CWXL 281000Z AUTO 20005KT 03/M02 RMK AO1 SLP210 T00331021 58012", "CWYJ 281000Z AUTO 27002KT 07/05 RMK AO1 SLP202 T00660054 56005", "CWYL 281000Z AUTO 06001KT M00/M04 RMK AO1 SOG 54 8002 SLP251 T10041044", "CWYY 281000Z AUTO 03001KT 05/01 RMK AO1 SLP229 T00540007 50002", "CWZA 281000Z AUTO 36007G15KT 13/04 RMK AO1 SLP205 T01340042 55003", "CWZG 281000Z AUTO 22005KT 02/M06 RMK AO1 SLP237 T00161055 50005", "CWZL 281000Z AUTO 16008KT 07/06 RMK AO1 SLP228 T00650063 58003", "CWZN 281000Z AUTO 01019KT 01/M03 RMK AO1 PK WND 01028/0925 SLP162 T00101029 53003", "CWZQ 281000Z AUTO 03007KT 02/M00 RMK AO1 SLP211 T00241003 52006", "CWZW 281000Z AUTO 21007KT 01/M04 RMK AO1 SOG 23 2018 SLP211 T00051043", "CXAF 281000Z AUTO 31005KT 08/M04 RMK AO1 T00831039", "CXAG 281000Z AUTO 29007KT 06/M02 RMK AO1 T00641024", "CXAJ 281000Z AUTO 28009KT 09/M03 RMK AO1 PK WND 30021/0924 T00921034", "CXAK 281000Z AUTO 24010KT 07/M05 RMK AO1 T00651049", "CXAT 281000Z AUTO 35003KT M19/M21 RMK AO1 SOG 11 6005 SLP271 T11871207", "CXBA 281000Z AUTO 19011KT 06/M02 RMK AO1 T00591019", "CXBI 281000Z AUTO 10005KT 04/M02 RMK AO1 SLP180 T00371017 56009", "CXBK 281000Z AUTO 32005KT M00/M01 RMK AO1 SOG 01 0004 SLP217 T10011011", "CXBO 281000Z AUTO 32002KT 02/M00 RMK AO1 T00231003", "CXBR 281000Z AUTO 31012KT RMK AO1", "CXBW 281000Z AUTO 23008KT 01/M03 RMK AO1 T00051027", "CXCA 281000Z AUTO 19001KT M01/M01 RMK AO1 SLP178 T10081011 51013", "CXCD 281000Z AUTO 27007KT 05/M02 RMK AO1 T00451015", "CXCK 281000Z AUTO 14002KT M02/M06 RMK AO1 SOG 35 1028 SLP158 T10191057", "CXCP 281000Z AUTO 31002KT 01/M02 RMK AO1 T00111024", "CXCS 281000Z AUTO 21009KT 05/M01 RMK AO1 T00491014", "CXDB 281000Z AUTO 26008KT 03/M04 RMK AO1 T00321044", "CXDE 281000Z AUTO 35007KT M00/M06 RMK AO1 SOG 29 3023 SLP123 T10021056", "CXDI 281000Z AUTO 08001KT 05/01 RMK AO1 SLP138 T00480013 56011", "CXDK 281000Z AUTO 06/M03 RMK AO1 SLP152 T00561032 52025", "CXDW 281000Z AUTO 32009KT 03/01 RMK AO1 SOG 01 3003 SLP179 T00290014", "CXEA 281000Z AUTO 10001KT M01/M02 RMK AO1 SLP173 T10131017 53011", "CXEC 281000Z AUTO 33008KT 12/M03 RMK AO1 SLP172 T01191033 53007", "CXEG 281000Z AUTO 28005KT 07/M04 RMK AO1 SLP179 T00671040 52005", "CXET 281000Z AUTO 00000KT M00/M02 RMK AO1 SLP172 T10031017 56012", "CXFM 281000Z AUTO 21014KT 05/M03 RMK AO1 PK WND 21017/0938 T00461030", "CXFR 281000Z AUTO 29007KT 05/M02 RMK AO1 T00461015", "CXGH 281000Z AUTO 35006KT 03/02 RMK AO1 SLP179 T00320015 53007", "CXHA 281000Z AUTO 06006KT 07/02 RMK AO1 SLP107 T00680024 56015", "CXHD 281000Z AUTO 28011KT 10/M02 RMK AO1 PK WND 24022/0913 T01041020", "CXHM 281000Z AUTO 05005KT 06/01 RMK AO1 SLP161 T00570014 56009", "CXHP 281000Z AUTO 26008KT 06/M03 RMK AO1 T00611032", "CXHR 281000Z AUTO 24012KT 05/M05 RMK AO1 T00541052", "CXIB 281000Z AUTO 00000KT 01/M00 RMK AO1 SLP187 T00051001 53001", "CXKA 281000Z AUTO 20005KT 02/01 RMK AO1 SLP178 T00230005 53008", "CXKE 281000Z AUTO 00000KT 02/M01 RMK AO1 SLP211 T00151008 55003", "CXKI 281000Z AUTO 16002KT 05/M00 RMK AO1 SLP177 T00451002 56002", "CXKM 281000Z AUTO 24010KT 09/M03 RMK AO1 T00881029", "CXKT 281000Z AUTO 26002KT 03/02 RMK AO1 SLP222 T00330024 53013", "CXLB 281000Z AUTO 33005KT 06/04 RMK AO1 SLP222 T00560036 53020", "CXLL 281000Z AUTO M01/M04 RMK AO1 SOG 21 2022 SLP145 T10141043", "CXMD 281000Z AUTO 32005KT 03/01 RMK AO1 SLP175 T00310014 53003", "CXMG 281000Z AUTO 25005KT 01/M05 RMK AO1 T00051046", "CXMI 281000Z AUTO 33010KT 04/02 RMK AO1 PRESRR SLP226 T00420015 53043", "CXMM 281000Z AUTO 25004KT 07/M02 RMK AO1 SLP113 T00651015 56010", "CXMO 281000Z AUTO 19006KT 02/M04 RMK AO1 T00181037", "CXMY 281000Z AUTO 03/02 RMK AO1 T00330018", "CXNM 281000Z AUTO 31007KT M01/M01 RMK AO1 SOG 76 T10111011", "CXNP 281000Z AUTO 00000KT 01/01 RMK AO1 SLP220 T00100009 53011", "CXOL 281000Z AUTO 25008KT 05/M02 RMK AO1 T00471018", "CXOX 281000Z AUTO 19004KT M00/M02 RMK AO1 SLP182 T10021024 58014", "CXOY 281000Z AUTO 21011KT 04/M01 RMK AO1 T00431011", "CXPA 281000Z AUTO 27005KT 07/M02 RMK AO1 T00731015", "CXPC 281000Z AUTO 07/M03 RMK AO1 SLP176 T00711031 55008", "CXPL 281000Z AUTO 14002KT 01/M01 RMK AO1 T00061008", "CXRB 281000Z AUTO 13018KT M10/M13 RMK AO1 PK WND 13021/0953 SLP239 T10951133 52001", "CXRH 281000Z AUTO 05005KT M00/M01 RMK AO1 SLP203 T10041008 53007", "CXRL 281000Z AUTO 25004KT 06/M03 RMK AO1 T00621027", "CXSC 281000Z AUTO 20007KT 02/M02 RMK AO1 T00241024", "CXSE 281000Z AUTO 18014G19KT M09/M11 RMK AO1 SOG 22 3009 PK WND 18020/0900 SLP175 T10871114", "CXSH 281000Z AUTO 36002KT 00/M02 RMK AO1 SLP242 T00001022 51006", "CXSL 281000Z AUTO 29005KT 07/M03 RMK AO1 T00661033", "CXSP 281000Z AUTO 14001KT 06/M01 RMK AO1 T00591006", "CXTD 281000Z AUTO 35010KT M00/M00 RMK AO1 SLP227 T10031002 53011", "CXTH 281000Z AUTO 26009KT 08/M02 RMK AO1 T00841021", "CXTN 281000Z AUTO 27007KT M05/M05 RMK AO1 SOG 43 3015 SLP103 T10481054", "CXTO 281000Z AUTO 07/01 RMK AO1 SLP165 T00650014 56008", "CXTP 281000Z AUTO 34004KT M01/M01 RMK AO1 SLP154 T10071010 53003", "CXTV 281000Z AUTO 29016KT M15/M17 RMK AO1 SOG 46 3024 PK WND 29020/0905 SLP150 T11481170", "CXVM 281000Z AUTO 19008KT 08/M02 RMK AO1 T00831021", "CXVN 281000Z AUTO 23002KT 04/03 RMK AO1 SLP157 T00350026 57006", "CXVW 281000Z AUTO 28008KT 08/M04 RMK AO1 T00841037 53016", "CXWM 281000Z AUTO 19007KT 01/M04 RMK AO1 T00131038", "CXWN 281000Z AUTO 34004KT 04/02 RMK AO1 3006 SLP173 T00370016 50001", "CXYH 281000Z AUTO 32004KT 08/M03 RMK AO1 SLP126 T00811032 51019", "CXZC 281000Z AUTO 11001KT 02/02 RMK AO1 SOG 07 5000 SLP184 T00230020 50013", "CXZV 281000Z AUTO 00000KT M01/M01 RMK AO1 SLP216 T10091014 53011", "CYAH 281000Z AUTO 00000KT 9SM BKN071 BKN160 M01/M02 A3018 RMK SLP238", "CYAM 281000Z 08007KT 20SM OVC057 05/01 A2999 RMK SC8 SLP164", "CYAT 281000Z AUTO 04005KT 9SM BKN040 OVC055 M00/M00 A3007 RMK SLP184", "CYAW 281000Z 33006KT 12SM SCT055 SCT210 02/02 A3017 RMK SC4CI1 DENSITY ALT -1570FT FST OBS SLP218", "CYAY 281000Z AUTO 33014KT 9SM OVC032 01/M01 A3012 RMK SLP203", "CYBC 281000Z AUTO 29003KT 9SM CLR 02/01 A3020 RMK SLP228", "CYBG 281000Z 19003KT 25SM FEW250 M03/M03 A3025 RMK CI2 DENSITY ALT -1877FT SLP251", "CYBK 281000Z 16004KT 1/4SM FZFG VV003 M09/M10 A3016 RMK FG8 SLP216", "CYBQ 281000Z AUTO 16007KT 9SM CLR M08/M09 A3008 RMK SLP211", "CYBR 281000Z 30008KT 15SM FEW100 M02/M02 A3006 RMK AC1 SLP201", "CYBU 281000Z AUTO 22003KT 9SM BKN170 BKN230 M03/M03 A3009 RMK SLP212", "CYBW 281000Z AUTO 30004KT 9SM CLR 01/M05 A3010 RMK SLP219", "CYBX 281000Z 02008KT 15SM BKN030 02/M02 A3016 RMK SC7 SLP217", "CYCA 281000Z AUTO 35012G19KT 9SM OVC005 00/M00 A3023 RMK SLP241", "CYCB 281000Z 08007KT 15SM FEW010 BKN075 M10/M12 A3000 RMK SF1AC6 SLP164", "CYCK 281000Z AUTO 10012G18KT 9SM CLR 08/03 A2985 RMK SLP113", "CYCO 281000Z 23010KT 15SM OVC034 M06/M08 A2977 RMK SC8 SLP085", "CYCX 281000Z 24005KT 15SM BKN080 03/03 A3021 RMK AC6 DENSITY ALT -1498FT SLP231", "CYCY 281034Z AUTO 15009KT 9SM OVC076 M10/M11 A3046 RMK SLP320", "CYDB 281000Z AUTO 13011G20KT 9SM CLR 00/M06 A2986 RMK SLP150", "CYDF 281000Z 02004KT 12SM SCT015 OVC025 01/01 A3012 RMK SF3SC5 INTMT -SN SLP203", "CYDL 281000Z AUTO 00000KT 9SM BKN170 OVC190 M00/M03 A3013 RMK SLP226", "CYDN 281000Z AUTO 24006KT 9SM CLR 01/M01 A3008 RMK SLP201", "CYDP 281035Z 00000KT 15SM FEW012 OVC016 M01/M02 A3036 RMK SF1SC7 SLP283", "CYDQ 281000Z AUTO 26008KT 9SM CLR 07/M02 A3007 RMK SLP202", "CYEG 281000Z 29004KT 20SM FEW080 SCT160 07/M03 A3002 RMK AC1AS3 AC TR SLP181", "CYEK 281034Z AUTO 35005KT 2 1/4SM BR BKN003 OVC055 M10/M11 A3019 RMK SLP225", "CYEN 281000Z AUTO 02004KT 9SM BKN037 OVC049 03/02 A3008 RMK SLP206", "CYER 281019Z AUTO 06003KT 9SM FEW005 OVC023 M02/M03 A3017 RMK SLP220", "CYET 281000Z AUTO 32002KT 9SM CLR 05/M02 A3005 RMK SLP193", "CYEV 281000Z 30007KT 15SM -SN FEW009 OVC043 M14/M16 A2997 RMK ST1SC8 ST TR SLP159", "CYFB 281000Z 15009KT 30SM SCT010 BKN081 M02/M03 A3038 RMK SC3AC4 SLP292", "CYFC 281000Z AUTO 00000KT 9SM OVC081 02/01 A3021 RMK SLP232", "CYFS 281000Z 00000KT 15SM FEW250 M00/M05 A2989 RMK CI1 CI TR SLP134", "CYFT 281007Z 32007KT 3/4SM -SN BR VV004 M02/M02 A3031 RMK FG8 SLP270", "CYGK 281000Z 06005KT 15SM SCT250 04/00 A3012 RMK CI4 SLP204", "CYGL 281000Z 10005KT 15SM OVC055 01/00 A3015 RMK SC8 SLP225", "CYGP 281000Z 24003KT 15SM FEW130 FEW250 M01/M01 A3018 RMK AC1CI1 AC TR CI TR SLP224", "CYGR 281000Z 31009KT 20SM FEW003 SCT270 03/02 A3014 RMK CF2CI1 CU ASOCTD SLP208", "CYGT 281000Z 20007KT 1/8SM FZFG VV001 M05/M05 A3014 RMK FG8 SNW CVR/ONE LOOSE SLP214", "CYGV 281000Z AUTO 05007KT 9SM CLR 01/00 A3016 RMK SLP216", "CYGW 281000Z AUTO 12006KT 9SM OVC091 02/00 A3018 RMK SLP223", "CYGX 281000Z 02003KT 1 1/4SM BR SCT015 M07/M08 A3016 RMK SC3 SLP225", "CYHD 281000Z AUTO 05004KT 9SM SCT190 M03/M03 A2999 RMK SLP178", "CYHE 281000Z AUTO 10010KT 9SM CLR 09/05 A3017 RMK SLP217", "CYHK 281023Z AUTO 11004KT 0SM +SN VV002 M14/M15 A3018 RMK ICE PAST HR SLP229", "CYHM 281000Z 04010G16KT 15SM BKN061 BKN250 05/03 A2996 RMK SC5CI2 SLP154", "CYHU 281000Z AUTO 01003KT 9SM CLR 00/M02 A3021 RMK SLP231", "CYHY 281000Z 27010KT 15SM BKN090 06/M04 A2982 RMK AC6 SLP107", "CYHZ 281000Z 36005KT 6SM BR FEW033 SCT071 01/01 A3015 RMK SC2AC1 SLP218", "CYIN 281000Z AUTO VRB02KT 9SM OVC180 02/M01 A3015 RMK SLP221", "CYIO 281000Z AUTO 09003KT 9SM CLR M14/M15 A3035 RMK SLP289", "CYIV 281000Z AUTO 00000KT 9SM CLR M02/M04 A3006 RMK SLP195", "CYJT 281000Z 35006KT 15SM SCT010 OVC017 M00/M01 A3011 RMK SF4SC4 SLP200", "CYKA 281000Z 09009KT 40SM SCT180 BKN240 10/M02 A3019 RMK AC3CI3 SLP231", "CYKF 281000Z AUTO 06007KT 9SM CLR 04/M01 A2996 RMK SLP154", "CYKJ 281000Z AUTO 21011KT 9SM BKN100 OVC190 03/M01 A2991 RMK SLP152", "CYKL 281000Z AUTO 19002KT 9SM BKN100 M03/M03 A3020 RMK SLP252", "CYKP 281035Z AUTO 01004KT 8SM SCT004 OVC011 00/00 A3002 RMK SLP179", "CYKY 281000Z 18005KT 15SM FEW100 SCT220 00/M02 A3008 RMK AC2CI2 SLP208", "CYLD 281000Z 00000KT 15SM BKN092 BKN140 M01/M02 A2999 RMK AS5AC1 SLP182", "CYLL 281000Z AUTO 19010G15KT 9SM OVC096 07/M01 A2998 RMK SLP174", "CYLT 281000Z 23014KT 10SM FEW075 SCT220 M16/M24 A3025 RMK AC1CI3 SLP248", "CYLW 281000Z AUTO 05003KT 9SM FEW180 05/M00 A3022 RMK SLP241", "CYMA 281000Z 26002KT 20SM FEW045 M02/M05 A2988 RMK SC1 SC TR SLP148", "CYMH 281000Z AUTO 34012G18KT 9SM OVC010 01/M00 A3014 RMK SLP211", "CYMJ 281000Z 28004KT 15SM FEW065 BKN160 00/M01 A3011 RMK SC1AC4 DENSITY ALT 263FT FST OBS SLP217", "CYMM 281000Z AUTO 25005KT 9SM OVC120 08/M02 A2983 RMK SLP114", "CYMO 281015Z AUTO 08003KT 9SM BKN026 OVC030 03/02 A3005 RMK SLP178", "CYMT 281000Z AUTO 11002KT 9SM FEW110 M02/M03 A3019 RMK SLP244", "CYMX 281000Z 05004KT 25SM SCT240 01/M01 A3020 RMK CI3 SLP233", "CYNA 281000Z AUTO 08004KT 9SM CLR 01/M01 A3017 RMK SLP220", "CYNE 281000Z AUTO 01003KT 350V080 9SM CLR M02/M04 A3008 RMK SLP200", "CYNM 281000Z AUTO 14007KT 9SM OVC060 03/M01 A3010 RMK SLP206", "CYOD 281000Z 17004KT 15SM OVC070 06/M00 A2996 RMK AC8 DENSITY ALT 1133FT SLP161", "CYOJ 281000Z AUTO 28007KT 250V330 9SM CLR 08/M04 A2994 RMK SLP154", "CYOO 281000Z AUTO 08011KT 9SM CLR 08/00 A3002 RMK SLP169", "CYOW 281000Z 07006KT 15SM FEW090 SCT240 03/M00 A3015 RMK AC1CI3 AC TR SLP214", "CYPA 281000Z 15007KT 110V210 15SM SCT170 M03/M05 A3010 RMK AC3 SLP216", "CYPD 281000Z AUTO 31007KT 9SM OVC002 M00/M00 A3011 RMK SLP203", "CYPE 281000Z 29008KT 15SM SCT210 05/M03 A3003 RMK CI3 SLP189", "CYPH 281035Z AUTO 00000KT 1/2SM FZFG OVC004 M02/M02 A3023 RMK SLP240", "CYPL 281000Z AUTO VRB02KT 9SM SCT039 M04/M05 A3003 RMK SLP193", "CYPO 281000Z AUTO 05003KT 9SM OVC035 M01/M02 A3014 RMK SLP210", "CYPQ 281000Z AUTO 02004KT 9SM CLR 03/00 A3005 RMK SLP184", "CYPR 281000Z AUTO 06003KT 050V110 9SM OVC044 06/05 A3021 RMK SLP232", "CYPX 281036Z AUTO 16010KT 4SM +SN OVC003 M01/M01 A3024 RMK ICE INTMT SLP246", "CYPY 281000Z AUTO 05006KT 9SM OVC100 02/02 A2981 RMK SLP108", "CYQA 281000Z AUTO 10004KT 050V130 9SM CLR 05/M02 A3003 RMK SLP176", "CYQB 281000Z 36004KT 30SM FEW210 01/00 A3024 RMK CI1 CI TR SLP246", "CYQD 281000Z AUTO 13004KT 9SM CLR M01/M04 A3008 RMK SLP200", "CYQF 281000Z AUTO 25005KT 9SM BKN086 BKN120 05/M04 A3007 RMK SLP204", "CYQG 281000Z AUTO 04010G15KT 9SM BKN091 OVC160 07/03 A2986 RMK SLP115", "CYQH 281000Z 24012KT 15SM BKN075 03/M06 A3004 RMK AC6 SLP203", "CYQI 281000Z VRB03KT 0SM FG VV001 04/04 A3019 RMK FG8 SLP225", "CYQK 281000Z 09007KT 15SM FEW240 00/M00 A2999 RMK CI2 SLP171", "CYQL 281000Z AUTO 23011KT 9SM CLR 03/M03 A3009 RMK SLP207", "CYQM 281000Z 32002KT 15SM SCT068 SCT240 03/02 A3018 RMK AC3CC1 CC TR SLP224", "CYQQ 281000Z 34003KT 20SM SKC 07/04 A3016 RMK DENSITY ALT -986FT SLP212", "CYQR 281000Z 33005KT 15SM SKC M02/M03 A3011 RMK SLP220", "CYQT 281017Z 04004KT 5SM BR FEW004 SCT018 BKN026 03/02 A2999 RMK ST1SC3SC3 SLP166", "CYQU 281000Z 30011KT 25SM BKN120 09/M03 A3007 RMK AC7 SLP199", "CYQV 281000Z AUTO 35003KT 9SM OVC032 M01/M01 A3009 RMK SLP215", "CYQW 281000Z AUTO 13005KT 9SM OVC086 03/00 A3007 RMK SLP202", "CYQX 281031Z 36017KT 2SM -FZDZ BR BKN002 OVC008 M01/M01 A3000 RMK FG3SF4SF1 SLP170", "CYQY 281000Z 34007KT 10SM MIFG FEW003 FEW180 SCT240 02/01 A3009 RMK ST1AC1CI1 SLP194", "CYQZ 281000Z AUTO 00000KT 9SM FEW096 06/01 A3017 RMK SLP232", "CYRB 281000Z 11020KT 25SM DRSN BKN100 M11/M14 A3023 RMK AC5 SLP246", "CYRJ 281000Z 25006KT 40SM FEW080 FEW200 M00/M03 A3023 RMK AC1CI1 SLP247", "CYRL 281000Z 10005KT 15SM BKN040 01/M01 A3002 RMK SC7 SLP183", "CYRQ 281000Z AUTO 03002KT 9SM CLR M01/M02 A3023 RMK SLP242", "CYRT 281024Z 02004KT 1/2SM FZFG VV002 M09/M10 A3019 RMK FG8 SLP228", "CYRV 281000Z AUTO VRB02KT 9SM FEW190 OVC210 02/00 A3028 RMK SLP264", "CYSB 281000Z 15006KT 15SM OVC066 06/M00 A3004 RMK AC8 SLP186", "CYSC 281000Z AUTO 07003KT 9SM CLR M01/M02 A3023 RMK SLP248", "CYSF 281000Z AUTO 09004KT 9SM FEW055 SCT065 BKN120 BKN140 01/M00 A2987 RMK SLP128", "CYSJ 281000Z 01002KT 15SM BKN074 03/03 A3019 RMK AC7 SLP229", "CYSM 281001Z 16003KT 090V260 15SM BKN087 03/02 A2979 RMK AC6 SLP099", "CYTE 281029Z AUTO 12008KT 1/2SM FZFG VV003 M02/M02 A3020 RMK ICE SLP233", "CYTH 281000Z 06003KT 15SM FEW210 M05/M07 A3011 RMK CI1 SLP215", "CYTL 281000Z AUTO 05005KT 9SM CLR M04/M04 A3009 RMK SLP205", "CYTR 281000Z 06005KT 15SM SCT250 04/01 A3008 RMK CI3 DENSITY ALT -1083FT SLP189", "CYTS 281000Z 04002KT 15SM FEW060 SCT130 SCT250 M00/M02 A3003 RMK SC1AC2CI1 SLP186", "CYTZ 281000Z AUTO 05021G27KT 9SM CLR 07/03 A3001 RMK SLP165", "CYUA 281011Z AUTO 29016KT ////SM FEW004 OVC010 ///// A////", "CYUL 281000Z 02006KT 30SM FEW150 FEW240 04/01 A3020 RMK AC1CI2 AC TR SLP230", "CYUX 281029Z AUTO 25005KT 1/2SM FZFG SCT001 OVC100 M09/M09 A3018 RMK SLP222", "CYUY 281000Z 15008KT 15SM OVC054 04/M01 A3008 RMK SC8 SLP198", "CYVC 281000Z 18004KT 15SM OVC080 00/M02 A3003 RMK AC8 SLP191", "CYVL 281000Z AUTO 18006KT 9SM CLR M08/M10 A2982 RMK SLP122", "CYVM 281011Z AUTO 00000KT 1/2SM FZFG OVC004 M10/M11 A3049 RMK SLP328", "CYVO 281000Z 17006KT 15SM OVC070 04/00 A3012 RMK AS8 SLP215", "CYVP 281000Z 11005KT 360V120 15SM -RA FEW038 BKN049 02/02 A3028 RMK SC1SC6 SLP259", "CYVQ 281000Z 09004KT 30SM FEW040 FEW090 SCT120 BKN220 M05/M07 A2990 RMK SC1AC1AC2CI3 SC TR SLP132", "CYVR 281000Z 30004KT 20SM SKC 09/09 A3012 RMK SLP203", "CYVT 281027Z AUTO 20007KT 9SM SCT060 BKN071 OVC091 05/M00 A2986 RMK SLP134", "CYVV 281000Z 03003KT 15SM BKN250 02/M00 A2998 RMK CI6 SLP160", "CYWE 281000Z AUTO 08002KT 8SM OVC046 M00/M00 A2974 RMK ICE MISG SLP098", "CYWG 281000Z 31004KT 15SM FEW034 BKN066 02/02 A3002 RMK SC2AC5 SLP175", "CYWK 281000Z 03002KT 15SM SKC M02/M03 A3017 RMK SLP242", "CYWL 281000Z 33003KT 15SM BKN160 08/M06 A3016 RMK AC6 SLP230", "CYXC 281000Z 27007KT 220V290 15SM FEW120 06/M05 A3022 RMK AC1 AC TR SLP241", "CYXE 281000Z 19004KT 15SM FEW100 01/M02 A3008 RMK AC2 SLP208", "CYXH 281000Z AUTO 19003KT 9SM CLR 01/M02 A3010 RMK SLP208", "CYXJ 281000Z 25011KT 15SM BKN240 06/M02 A3007 RMK CI6 SLP204", "CYXL 281000Z 03003KT 15SM SCT230 M02/M02 A3001 RMK CI3 FROIN SLP185", "CYXR 281000Z AUTO 15007KT 9SM OVC071 04/01 A3005 RMK SLP186", "CYXS 281027Z AUTO 01002KT 9SM FEW140 SCT170 02/M01 A3018 RMK SLP252", "CYXT 281000Z 00000KT 15SM BKN060 04/02 A3025 RMK SC7 SLP255", "CYXU 281001Z 07012KT 15SM SCT070 OVC170 06/M00 A2992 RMK AC3CI5 SLP138", "CYXX 281000Z 00000KT 15SM FEW250 08/07 A3012 RMK CI2 SLP203", "CYXY 281000Z 17007G15KT 120V180 15SM FEW053 SCT240 02/M05 A2998 RMK SC2CI1 SLP184", "CYYB 281000Z AUTO 10009KT 9SM OVC071 06/M01 A3006 RMK SLP192", "CYYC 281000Z VRB02KT 12SM FEW200 08/M05 A3008 RMK CI1 SLP205", "CYYD 281000Z AUTO 00000KT 9SM BKN120 02/M01 A3022 RMK SLP250", "CYYE 281000Z 22005KT 15SM SCT240 M00/M05 A3003 RMK CI3 SLP185", "CYYF 281000Z 00000KT 15SM SCT200 05/M02 A3021 RMK CI4 SLP237", "CYYG 281000Z 34004KT 1/4SM R03/2000V2400FT/N FG VV002 01/00 A3017 RMK FG8 SLP221", "CYYH 281000Z 02009KT 2SM BR SCT001 SCT020 SCT210 M19/M20 A3021 RMK FG2ST1SC1CI1 CI TR VIS S 5 SLP236", "CYYJ 281000Z 28003KT 20SM FEW230 08/07 A3012 RMK CI1 SLP203", "CYYL 281000Z AUTO 13003KT 9SM FEW150 M03/M06 A3004 RMK SLP195", "CYYN 281000Z AUTO 22010KT 9SM CLR 00/M01 A3009 RMK ICE MISG SLP215", "CYYQ 281014Z 36006KT 1SM R33/P6000FT/D -SN BR OVC004 M05/M05 A3018 RMK SC8 FROIN SLP224", "CYYR 281035Z 03008KT 12SM BKN015 M00/M04 A3031 RMK SC7 DENSITY ALT -2106FT SH DIST S-NW SLP268", "CYYT 281031Z 36016G22KT 15SM SCT007 BKN028 OVC037 00/M00 A2992 RMK SF3SC3SC2 SLP141", "CYYU 281000Z 20004KT 15SM OVC020 02/00 A3001 RMK SC8 SLP176", "CYYW 281000Z AUTO 00000KT 9SM OVC014 M01/M01 A3001 RMK SLP181", "CYYY 281000Z 22004KT 30SM SKC 04/01 A3021 RMK SLP233", "CYYZ 281000Z 08006KT 15SM FEW160 SCT240 07/01 A3000 RMK AC1CI2 SLP166", "CYZE 281000Z AUTO VRB02KT 9SM CLR 06/01 A3000 RMK SLP166", "CYZF 281000Z 27003KT 15SM FEW052 FEW200 M02/M02 A2978 RMK SC1CI1 CI TR SLP099", "CYZH 281000Z AUTO 27022G30KT 9SM CLR 10/M03 A2997 RMK SLP165", "CYZP 281000Z AUTO 11003KT FEW022 SCT043 BKN055 OVC082 08/06 A3018 RMK WX MISG VIS MISG SLP223", "CYZR 281000Z AUTO 06004KT 9SM SCT170 BKN240 06/01 A2989 RMK SLP126", "CYZS 281000Z 10010KT 1SM -SN OVC011 M03/M03 A3010 RMK SC8 SLP199", "CYZT 281000Z 24003KT 15SM FEW130 02/02 A3019 RMK AC2 SLP224", "CYZV 281000Z 32003KT 30SM FEW075 M00/M00 A3017 RMK AC1 AC TR SLP221", "CYZX 281000Z 26003KT 12SM FEW045 BKN078 05/04 A3020 RMK SC1AC6 DENSITY ALT -1282FT SLP229", "CYZY 281000Z AUTO VRB02KT 9SM SCT066 BKN150 04/M02 A3016 RMK SLP237", "CZBF 281000Z AUTO VRB02KT 9SM CLR 02/01 A3019 RMK SLP230", "CZCP 281000Z AUTO 00000KT ////SM ////// M07/M08 A2981", "CZCR 281000Z AUTO 24002KT 02/01 RMK AO1 3PAST HR 3010 SLP225 P0001 T00190009 50003", "CZDB 281000Z AUTO 00000KT 01/M00 RMK AO1 SLP221 T00081003 53011", "CZEL 281000Z AUTO 07010KT 04/M01 RMK AO1 SLP157 T00351011 56011", "CZEV 281000Z AUTO 30008KT M14/M16 RMK AO1 SOG 52 1023 SLP162 T11441164", "CZFS 281000Z AUTO 25001KT M01/M05 RMK AO1 SLP133 T10091049 51028", "CZHY 281000Z AUTO 27009KT 06/M03 RMK AO1 SLP102 T00571033 53014", "CZKD 281000Z AUTO 05005KT M06/M07 RMK AO1 SOG 20 8001 SLP221 T10611067", "CZMD 281000Z AUTO 04004KT 9SM OVC066 M02/M04 A3007 RMK SLP198", "CZMJ 281000Z AUTO 28003KT M01/M02 RMK AO1 SLP228 T10071015 50000", "CZOL 281000Z AUTO 32005KT 10/M04 RMK AO1 T01011035", "CZPC 281000Z AUTO 31009KT 9SM CLR 05/M05 A3012 RMK SLP216", "CZPS 281000Z AUTO 25007KT 07/M04 RMK AO1 T00681042", "CZSJ 281000Z AUTO 00000KT 9SM BKN060 M03/M03 A3006 RMK SLP195", "CZSM 281000Z AUTO 13001KT 02/01 RMK AO1 SLP101 T00180010 55001", "CZSP 281000Z AUTO 32005KT 01/01 RMK AO1 SLP221 T00110010 53011", "CZTB 281000Z AUTO 00006KT 03/03 RMK AO1 SOG 01 1007 SLP167 T00320026 50001", "CZUM 281000Z AUTO 07006KT 9SM OVC071 01/M01 A3021 RMK SLP250", "CZVL 281000Z AUTO 31006KT 9SM BKN180 OVC200 09/M01 A3002 RMK SLP177", "CZZJ 281000Z AUTO 31003KT 05/M03 RMK AO1 SLP194 T00511027 53002", "DAAD 281000Z 09005KT 8000 NSC 29/06 Q1021", "DAAE 281000Z 12011KT CAVOK 25/12 Q1016", "DAAG 281030Z 02009KT CAVOK 34/11 Q1015", "DAAJ 281000Z 28003KT 7000 NSC 32/// Q1021", "DAAP 281000Z 14010KT 9999 FEW046 37/// Q1017", "DAAS 281000Z 22005KT CAVOK 26/M03 Q1023", "DAAT 281030Z 12016G32KT 7000 NSC 32/M02 Q1022", "DAAV 281000Z 34004KT CAVOK 26/14 Q1017", "DAAY 281000Z 22018KT CAVOK 31/// Q1024", "DABB 281030Z 03008KT CAVOK 25/16 Q1017", "DABC 281030Z 26010KT 230V310 CAVOK 30/03 Q1021", "DABS 281000Z 31003KT CAVOK 28/M07 Q1022", "DABT 281000Z 32003KT CAVOK 28/M01 Q1022", "DAFH 281000Z 19007KT CAVOK 32/M03 Q1022", "DAOB 281000Z 20010KT CAVOK 33/// Q1022", "DAOF 281000Z 11004KT CAVOK 34/05 Q1017", "DAOI 281000Z 07009KT CAVOK 34/// Q1016", "DAOL 281000Z 27008KT 8000 FEW026 26/16 Q1015", "DAON 281030Z 33004KT 9999 FEW030 28/14 Q1015", "DAOO 281030Z 34006KT 310V010 CAVOK 25/17 Q1015", "DAOR 281000Z 20005KT CAVOK 32/// Q1022", "DAOV 281000Z 21007KT 160V250 9999 FEW033 37/// Q1016", "DAUA 281000Z 07015KT CAVOK 38/// Q1014", "DAUB 281000Z 13008KT CAVOK 28/05 Q1020", "DAUG 281000Z 10004KT 040V160 CAVOK 31/M03 Q1021", "DAUH 281000Z 10005KT 040V160 CAVOK 35/M01 Q1017", "DAUZ 281000Z 12011KT CAVOK 32/M04 Q1019", "DBBB 281000Z VRB01KT 9999 SCT012 30/24 Q1012 NOSIG", "DFFD 281000Z 22009KT 190V280 CAVOK 34/20 Q1012 NOSIG", "DFOO 281000Z 22013KT CAVOK 31/20 Q1014", "DGAA 281000Z 25007KT 210V280 CAVOK 28/24 Q1012 NOSIG", "DIAP 281030Z 21011KT 9000 FEW011 26/25 Q1013 NOSIG", "DIBK 281000Z 22008KT 9999 FEW016 29/21 Q1015 NOSIG", "DIYO 281000Z 22006KT 9999 FEW013 27/22 Q1015 NOSIG", "DNAA 281000Z 22004KT 9999 FEW011 30/22 Q1014 NOSIG", "DNAK 281000Z 18006KT 9999 BKN013 29/24 Q1015", "DNEN 281000Z 26005KT 9999 SCT012 30/23 Q1013 NOSIG", "DNGO 281000Z 17010KT CAVOK 33/21 Q1012", "DNIB 281000Z 23003KT 9999 SCT011 29/24 Q1014", "DNIL 281000Z 24005KT 9999 SCT011 29/24 Q1014", "DNJO 281000Z 27008KT CAVOK 23/20 Q1020", "DNKA 281000Z 21010KT 9999 BKN011 28/21 Q1017", "DNKN 281000Z 26007KT CAVOK 34/20 Q1015 NOSIG", "DNKT 281000Z 21012KT 9999 BKN010 34/20 Q1014", "DNMA 281000Z 28004KT CAVOK 36/22 Q1012", "DNMM 281000Z 28003KT 8000 BKN013 30/25 Q1014 NOSIG", "DNMN 281000Z 28004KT 9999 SCT011 30/22 Q1013", "DNPO 281000Z 19003KT 9999 BKN010 30/25 Q1012 NOSIG", "DNSO 281000Z 22013KT 9999 FEW013 34/22 Q1013", "DRRM 281000Z 28014KT 250V320 CAVOK 35/19 Q1013", "DRRN 281000Z 25012KT CAVOK 36/17 Q1011 NOSIG", "DRRT 281000Z 23012KT CAVOK 35/19 Q1013", "DRZA 281000Z 12013KT CAVOK 39/06 Q1013", "DRZF 281000Z 27010KT 230V300 8000 NSC 38/17 Q1011", "DRZR 281000Z 22016KT 200V290 CAVOK 35/18 Q1013", "DTKA 281000Z VRB04KT CAVOK 28/14 Q1018 NOSIG", "DTMB 281030Z 10013KT CAVOK 26/11 Q1020", "DTNH 281030Z 09012KT 9999 R27///// FEW030 24/14 Q1020 NOSIG", "DTTA 281030Z 11006KT 050V150 9999 FEW030 26/13 Q1019", "DTTB 281000Z 12005KT 060V170 CAVOK 26/13 Q1019", "DTTD 281000Z 09006KT 040V160 CAVOK 26/08 Q1021", "DTTF 281000Z VRB03KT 9999 FEW033 27/06 Q1021 NOSIG", "DTTG 281000Z 08011KT 9999 FEW030 26/13 Q1020 NOSIG", "DTTJ 281030Z 07011KT CAVOK 24/14 Q1021 NOSIG", "DTTK 281000Z 15003KT CAVOK 27/09 Q1020", "DTTL 281000Z 13004KT 9999 FEW020 21/18 Q1021", "DTTN 281000Z ///02KT 9999 FEW020 27/09 Q1019", "DTTR 281000Z 15011KT CAVOK 31/07 Q1019", "DTTX 281000Z 11009KT 070V140 9999 FEW040 23/12 Q1021", "DTTZ 281000Z 10018KT CAVOK 29/08 Q1019", "DXNG 281000Z 20007KT 170V230 CAVOK 30/18 Q1016", "DXXX 281000Z 27006KT 250V310 9999 FEW012 29/24 Q1012 NOSIG", "EBAW 281020Z 25013KT 9999 FEW013 BKN016 14/11 Q1010 TEMPO BKN012", "EBBE 281025Z 25016KT 9999 SCT015 BKN020 16/12 Q1010 WHT WHT TEMPO GRN", "EBBL 281025Z 26007KT 9999 SCT013 SCT016 BKN019 15/13 Q1010 GRN GRN BECMG WHT", "EBBR 281020Z 24014KT 9999 BKN025 16/12 Q1011 NOSIG", "EBCI 281020Z 25012KT 230V290 9999 SCT015 16/13 Q1011 NOSIG", "EBCV 281025Z AUTO 24015KT 9999 FEW018/// SCT021/// BKN027/// 16/12 Q1011 WHT", "EBDT 281025Z AUTO 25010KT 9999 OVC017/// 16/13 Q1010 WHT", "EBFN 281025Z 24013KT 9999 SCT010 BKN023 14/12 Q1011 GRN WHT TEMPO GRN", "EBFS 281025Z 25015KT 9999 SCT010 SCT020 16/14 Q1011 GRN GRN BECMG WHT", "EBLB 281025Z AUTO 25007KT 9999 -RA OVC008/// 13/12 Q1011 GRN", "EBLG 281020Z 27009KT 9999 SCT014 BKN024 16/13 Q1011 NOSIG", "EBOS 281020Z 26015KT 9999 FEW005 SCT008 BKN018 13/11 Q1011 TEMPO 26016G26KT BKN008 BKN018", "EDAC 281020Z 22006KT 9999 -RA FEW044 12/07 Q1014", "EDAH 281020Z 14007KT CAVOK 13/M01 Q1017", "EDBC 281020Z 13009KT CAVOK 10/04 Q1013", "EDDB 281020Z AUTO 13011KT 090V150 CAVOK 14/03 Q1015 NOSIG", "EDDC 281020Z AUTO 17007KT 130V210 CAVOK 14/04 Q1015 NOSIG", "EDDE 281020Z AUTO VRB02KT 9999 BKN038 OVC046 09/08 Q1013 NOSIG", "EDDF 281020Z AUTO VRB02KT 9999 BKN007 OVC018 13/11 Q1013 BECMG SCT008 BKN020", "EDDG 281020Z AUTO 14006KT 080V170 9999 FEW020 BKN032 14/09 Q1011 NOSIG", "EDDH 281020Z AUTO 12013KT 090V150 CAVOK 12/02 Q1014 NOSIG", "EDDK 281020Z AUTO 14004KT 110V170 9999 -SHRA BKN017 FEW///TCU 13/12 Q1011 BECMG 24008KT BKN012", "EDDL 281020Z AUTO 16009KT 9999 OVC010 13/11 Q1011 BECMG 24010KT BKN009", "EDDM 281020Z AUTO 19008KT 160V220 9000 RA BKN019 BKN023 11/10 Q1015 TEMPO 4000", "EDDN 281020Z AUTO 13008KT 9999 -RADZ BKN008 BKN015 OVC033 11/10 Q1013 TEMPO SCT008 BKN015", "EDDP 281020Z AUTO 16009KT 9999 -RA NSC 11/07 Q1014 NOSIG", "EDDR 281020Z AUTO 25012KT 210V280 9999 -DZ FEW006 BKN010 BKN017 15/14 Q1013 RERA BECMG SCT010 BKN015", "EDDS 281020Z AUTO 24006KT 140V310 9999 SCT021 BKN037 15/13 Q1013 NOSIG", "EDDV 281020Z AUTO 14006KT 110V200 CAVOK 13/03 Q1012 NOSIG", "EDDW 281020Z AUTO 13009KT 100V160 9999 -RA SCT038 12/04 Q1012 NOSIG", "EDFH 281020Z 28008KT 250V310 9999 BKN006 OVC009 13/12 Q1012", "EDFM 281020Z 18004KT 140V220 8000 SCT007 OVC019 14/13 Q1013", "EDGS 281020Z 23005KT 180V280 2500 1000E R13/P2000N BR OVC002 10/09 Q1011", "EDHI 281020Z 09010KT 060V150 CAVOK 13/03 Q1013", "EDHK 281020Z 12010KT CAVOK 11/M02 Q1015", "EDHL 281020Z 12007KT 070V170 CAVOK 14/02 Q1015", "EDJA 281020Z 23017KT 9999 -RA SCT007 BKN031 OVC038 12/10 Q1015 RERA", "EDLN 281020Z 17005KT 090V210 4500 BR OVC006 14/12 Q1010", "EDLP 281020Z 15011KT 9999 OVC024 13/08 Q1011", "EDLV 281020Z 19007KT 160V230 5000 BR OVC007 13/12 Q1010", "EDLW 281020Z 18012KT 9999 BKN018 14/10 Q1010", "EDMA 281020Z 24008KT 6000 -RA BKN009 OVC016 12/11 Q1014", "EDMO 281020Z 22010KT 5000 RA FEW016 BKN023 OVC028 11/10 Q1015", "EDNY 281020Z 15007KT 120V190 5000 RA FEW011 BKN014 OVC016 11/11 Q1016 RMK/ATISM", "EDQM 281020Z 13005KT 080V160 9999 -RA BKN015 OVC036 07/06 Q1014", "EDSB 281020Z 19013KT 9999 -RA FEW008 BKN026 16/14 Q1013", "EDTL 281020Z 18009KT 9999 FEW012 BKN046 15/14 Q1015", "EDTY 281020Z 22007KT 190V250 8000 -RA FEW005 BKN007 OVC016 12/11 Q1013 RERA", "EDVE 281020Z 11009KT CAVOK 13/03 Q1013", "EDVK 281020Z 15009KT 9999 -RA FEW021 OVC027 10/07 Q1012", "EDWE 281020Z 10008KT 9999 FEW049 10/04 Q1011", "EDXW 281020Z 11014KT CAVOK 12/03 Q1014", "EEEI 281031Z 27012KT 240V300 8000 3000 SHRA SCT019 BKN023 BKN047 05/02 Q1014", "EEKE 281020Z 23011KT 190V260 9999 SCT040CB 09/03 Q1015", "EEPU 281020Z AUTO 21014KT 9999 FEW014/// BKN059/// 07/03 Q1015", "EETN 281020Z 29009KT 250V340 9999 VCSH SCT025CB BKN046 09/M01 Q1013 TEMPO 5000 SHRA", "EETU 281020Z AUTO 21009KT 190V250 9999 FEW040/// OVC066/// 08/M00 Q1015", "EFET 281020Z AUTO 09006KT 040V150 9999 BKN047 03/M03 Q1014", "EFHA 281020Z 15008KT 9999 FEW020 06/M03 Q1012", "EFHK 281020Z 17009KT 120V210 9999 VCSH FEW034TCU BKN040 09/M01 Q1013 NOSIG", "EFIV 281020Z AUTO 12010KT 090V150 CAVOK 06/M04 Q1017", "EFJO 281020Z AUTO 28006KT 9999 -SNRA OVC003 01/01 Q1012", "EFJY 281020Z AUTO 28004KT 250V340 9999 BKN021 BKN023 06/00 Q1013", "EFKE 281020Z 11005KT 090V150 7000 -SNRA OVC005 01/01 Q1012", "EFKI 281020Z AUTO 11004KT 070V140 9999 -RA OVC007 03/02 Q1011", "EFKK 281020Z AUTO VRB02KT 9999 -SHRA SCT022 06/01 Q1013", "EFKS 281020Z AUTO 09012KT 060V130 CAVOK 03/M03 Q1014", "EFKT 281020Z AUTO 10009KT 070V130 CAVOK 04/M03 Q1014", "EFKU 281020Z 28007KT 9999 OVC011 04/01 Q1012", "EFLP 281020Z AUTO 23009KT 190V250 9999 BKN042 08/M04 Q1013", "EFMA 281020Z AUTO 29007KT 240V320 9999 VCSH OVC014 //////CB 05/02 Q1013", "EFMI 281020Z AUTO 23005KT 180V290 9999 FEW020 SCT022 07/01 Q1013", "EFOU 281020Z AUTO 00000KT 4800 -SN BKN002 OVC020 01/00 Q1013", "EFPO 281020Z AUTO 30005KT 230V360 9999 SCT035 07/M02 Q1012", "EFRO 281020Z 09013KT CAVOK 06/M03 Q1013", "EFSA 281020Z 30007KT 9999 BKN012 05/02 Q1013", "EFSI 281020Z AUTO 10006KT 040V150 9999 FEW014 06/02 Q1012", "EFTP 281020Z 02004KT 320V100 9999 SCT034 FEW036TCU 06/M01 Q1012", "EFTU 281020Z AUTO 12009KT 100V160 9999 VCSH BKN034 //////CB 07/M01 Q1012", "EFUT 281020Z 22007KT 200V260 9999 SCT045 08/M03 Q1013", "EFVA 281020Z AUTO 17005KT 120V200 9999 VCSH FEW021 //////CB 07/M01 Q1012", "EGAA 281020Z AUTO 24005KT 7000 SCT007 BKN010 12/10 Q1011", "EGAC 281020Z AUTO 21005KT 180V240 9999 FEW015 OVC033 13/10 Q1011", "EGAE 281020Z 23006KT 200V260 9999 BKN014 16/13 Q1011", "EGBB 281020Z 31008KT 9999 BKN013 12/09 Q1011", "EGBJ 281020Z 29005KT 260V320 9999 SCT012 BKN018 16/11 Q1011", "EGCC 281020Z 29006KT 9000 BKN009 OVC012 10/08 Q1011", "EGCK 281020Z 25007KT 9000 SCT017 BKN029 12/10 Q1012", "EGDM 281020Z 28011KT 9999 SCT015 BKN028 15/12 Q1011 NOSIG RMK WHT WHT", "EGDR 281020Z 32006KT 8000 FEW004 SCT008 BKN010 OVC012 12/11 Q1014 RMK GRN", "EGDY 281020Z 30012KT 9999 FEW012 BKN020 14/10 Q1013 NOSIG RMK WHT WHT", "EGEC 281020Z VRB02KT 1300 RADZ BR OVC003 10/10 Q1011", "EGEO 281020Z 07004KT 9999 BKN014 OVC020 10/08 Q1011", "EGFF 281020Z 28012KT 9999 BKN006 OVC033 13/12 Q1013", "EGGD 281020Z AUTO 27013KT 9999 OVC004 13/12 Q1012", "EGGP 281020Z 30008KT 280V340 9999 BKN013 11/08 Q1012", "EGGW 281020Z 27012KT 9999 BKN009 BKN020 13/12 Q1010", "EGHC 281020Z 30009KT 0300 FG VV/// 11/10 Q1015", "EGHE 281020Z 26006KT 220V290 2500 VCFG BR SCT000 BKN002 13/12 Q1015", "EGHH 281020Z 29012KT 260V330 9999 BKN025 15/11 Q1012", "EGHI 281020Z 26010KT 230V300 9999 FEW015 BKN024 15/10 Q1012", "EGHQ 281020Z 31007KT 280V340 9999 BKN007 11/11 Q1015", "EGJA 281020Z 29011KT 260V320 8000 1000W R26/P1200 VCFG SCT002 BKN003 11/11 Q1014", "EGJB 281020Z 28013KT 9999 FEW001 BKN003 11/11 Q1015", "EGJJ 281020Z 27011KT 9000 3000NW VCFG FEW000 SCT001 BKN002 12/12 Q1015", "EGKA 281020Z 23007KT 200V270 6000 SCT006 BKN008 12/12 Q1012", "EGKB 281020Z 26010KT 230V290 9999 VCSH BKN010 12/11 Q1011", "EGKK 281020Z 27012KT 8000 -DZ SCT008 BKN011 14/12 Q1011", "EGLC 281020Z AUTO 25011KT 9999 SCT019 BKN025 15/11 Q1010", "EGLF 281020Z 27009KT 9999 VCSH FEW010 BKN020 14/11 Q1011", "EGLL 281020Z AUTO 27011KT 9999 BKN010 BKN015 OVC027 14/12 Q1011 BECMG BKN015", "EGMC 281020Z 26012KT 9999 FEW014 BKN017 15/12 Q1010", "EGMD 281020Z 23017KT 9999 BKN003 BKN014 12/11 Q1011", "EGNH 281020Z 32008KT 7000 SCT008 BKN020 11/09 Q1012", "EGNJ 281020Z 33006KT 4000 BR SCT003 BKN005 10/10 Q1010", "EGNM 281020Z 36006KT 330V030 7000 BKN002 08/07 Q1010", "EGNO 281020Z 31007KT 270V330 9000 BKN011 12/08 Q1011", "EGNR 281020Z 33010KT 9000 BKN007 OVC013 10/08 Q1012", "EGNS 281020Z 19004KT 140V220 9000 SCT012 BKN016 12/09 Q1012 BECMG 9999", "EGNT 281020Z 14006KT 100V180 9000 BKN009 10/09 Q1011", "EGNV 281020Z 06007KT 8000 FEW006 BKN014 09/08 Q1011", "EGNX 281020Z 27009KT 8000 SCT005 BKN008 10/09 Q1011", "EGOM 281020Z AUTO 11002KT 9999 OVC006/// 08/06 Q1011", "EGOP 280950Z 25009KT 9999 SCT009 BKN011 12/11 Q1013 RMK GRN", "EGOS 281020Z 34007KT 9999 BKN012 12/10 Q1011 BECMG SCT018 RMK GRN BECMG WHT", "EGOV 281020Z 24008KT 9999 SCT015 13/10 Q1012 TEMPO FEW015 RMK WHT TEMPO BLU", "EGPA 281020Z 34012KT 9999 VCSH FEW006 BKN008 08/06 Q1010", "EGPB 281020Z 17005KT 040V200 9999 5000N VCSH SCT004 BKN005 08/07 Q1009 TEMPO 4000 RADZ BKN004", "EGPC 281020Z 29011KT 9999 FEW014 BKN026 09/06 Q1010", "EGPD 281020Z 29003KT 200V360 9999 BKN016 11/08 Q1010", "EGPE 281020Z 00000KT 9999 FEW013 BKN045 11/08 Q1011", "EGPF 281020Z VRB01KT 2300 -RADZ BKN004 OVC009 10/09 Q1012", "EGPH 281020Z 35003KT 290V040 4600 -DZ SCT007 BKN025 10/09 Q1011", "EGPI 281020Z 24003KT 3000 -RADZ OVC002 10/10 Q1011", "EGPK 281020Z 29005KT 9999 FEW012 OVC017 10/08 Q1011", "EGPL 281020Z 04008KT 9999 FEW018 BKN028 09/07 Q1012", "EGPN 281020Z 24003KT 4500 BR FEW004 BKN045 10/08 Q1011", "EGPO 281020Z 04009KT 9999 SCT024 BKN042 10/07 Q1012", "EGPU 281020Z 13003KT 4700 BR BKN003 10/09 Q1011", "EGQA 280950Z AUTO 29010KT 9999 BKN012/// BKN029/// BKN037/// 10/08 Q1011", "EGQK 281020Z AUTO 30005KT 9999 OVC027/// 10/08 Q1011", "EGQL 280950Z 14002KT 2500 BR SCT003 OVC020 09/08 Q1011 RMK YLO2", "EGQM 281020Z AUTO 15011KT 5000 BR OVC004/// 08/08 Q1012", "EGQS 281020Z 28007KT 9999 FEW007 BKN030 09/06 Q//// NOSIG RMK BLU BLU", "EGSC 281020Z 29012KT 230V290 9000 BKN009 14/11 Q1009", "EGSH 281020Z 27008KT 6000 -DZ BKN002 OVC004 12/11 Q1009 BECMG BKN020", "EGSS 281020Z AUTO 26009KT 9999 BKN010 OVC015 13/12 Q1010", "EGSY 281020Z 27013KT 6000 BKN002 OVC030 12/11 Q1013", "EGTE 281020Z 28007KT 250V320 9999 BKN015 14/10 Q1014", "EGTK 281020Z 29010KT 9999 VCSH SCT011 BKN021 BKN037 14/12 Q1011", "EGUB 281020Z 26010KT 9999 SCT014 BKN028 14/11 Q1011 BECMG SCT015 RMK GRN BECMG WHT", "EGUL 281032Z 29011KT 3600 BR OVC007 12/12 A2979 RMK DZB04E14 SLP091 $", "EGUN 280955Z 32007KT 4000 -RA BR OVC009 13/13 A2979 RMK AO2A DZB05E23RAB22 SLP091 P0000 T01250125 $", "EGUW 281020Z 27011KT 9999 -DZ SCT008 OVC035 14/13 Q1009 BECMG NSW RMK GRN BECMG GRN", "EGVA 281010Z AUTO 31008KT 9999 FEW012 SCT019 OVC036 15/14 A2983 RMK AO2 SLP105 FZRANO $", "EGVN 281020Z 29008KT 9999 FEW016 BKN030 15/11 Q1011 TEMPO SCT020 RMK BLU TEMPO WHT", "EGVO 281020Z 26012KT 9999 FEW010 BKN020 14/11 Q1011 BECMG BKN025 RMK WHT BECMG BLU", "EGVP 281020Z 28009KT 9999 FEW015 BKN022 14/11 Q1011 BECMG FEW020 BKN025 RMK WHT BECMG BLU", "EGWC 281020Z AUTO 31007KT //// ///////// ///// Q////", "EGWU 281020Z 28013KT 9999 SCT012 BKN020 15/12 Q1010 BECMG FEW012 RMK GRN BECMG WHT", "EGXC 281020Z 31010KT 6000 BR BKN006 OVC008 10/08 Q1009 BECMG BKN007 RMK YLO1 BECMG GRN", "EGXE 281020Z 01004KT 9999 BKN007 09/08 Q1011 BECMG BKN015 RMK GRN", "EGXS 281020Z 05005KT 1000 -DZ OVC001 09/09 Q1009 RMK RED", "EGXT 281020Z 30010KT 9999 BKN009 11/09 Q1009", "EGXV 281020Z AUTO 06005KT 1600 DZ OVC002/// 09/08 Q1010", "EGXW 281020Z 31008KT 7000 BR OVC006 09/08 Q1010 BECMG 8000 BKN007 RMK YLO1 BECMG GRN", "EGXZ 281020Z AUTO 01004KT 9999 OVC006/// 09/08 Q1011", "EGYD 281020Z 31011KT 8000 HZ BKN007 OVC011 10/08 Q1010 NOSIG RMK GRN GRN", "EGYE 280950Z 29012KT 4500 BR BKN003 ///// Q1009 RMK YLO2", "EGYH 281020Z 30010KT 8000 BR OVC006 11/10 Q1009 RMK YLO1", "EGYM 281020Z 29011KT 4000 -DZ SCT006 OVC008 12/10 Q1009 BECMG 7000 HZ FEW006 OVC010 RMK YLO1 BECMG GRN", "EGYP 281020Z 34007KT CAVOK 06/02 Q0997 NOSIG", "EHAK 281025Z AUTO 11014KT 070V150 9999 FEW047/// 08/04 Q1013", "EHAM 281025Z 16007KT 3500 -DZ FEW003 SCT004 BKN006 11/11 Q1009 BECMG 21008KT TEMPO BKN004", "EHBK 281025Z AUTO 26007KT 210V320 9999 FEW014 BKN026 OVC030 16/13 Q1011 NOSIG", "EHDL 281025Z AUTO 15006KT 100V200 3300 BR BKN006 OVC007 12/10 Q1010 YLO", "EHDV 281025Z AUTO 11020KT 9999 BKN042/// OVC047/// 08/// Q1011", "EHEH 281027Z AUTO 23006KT 200V270 9999 FEW008 BKN009 OVC011 14/12 Q1010 GRN TEMPO 4000 DZ BR BKN005 BKN008", "EHFD 281025Z AUTO 09019KT //// // FEW047/// 07/04 Q1012 RE//", "EHFS 281025Z AUTO 24019KT 9000 FEW006/// SCT010/// OVC016/// 12/11 Q1010", "EHGG 281025Z AUTO 09008KT 050V130 9999 SCT031 11/07 Q1010 NOSIG", "EHGR 281025Z AUTO 24004KT 5000 -RA BKN004 OVC005 13/12 Q1010 YLO TEMPO 2000 DZ BR SCT003 BKN005", "EHHW 281025Z AUTO 09018KT 050V140 9999 NSC 08/04 Q1011", "EHJA 281025Z AUTO 09025KT 9999 OVC028/// 09/06 Q1009", "EHJR 281025Z AUTO 11013KT //// // ///////// 08/07 Q1009 RE// W09/H14", "EHKD 281025Z AUTO 12009KT 090V160 4600 BR BKN010 OVC012 09/08 Q1009 GRN TEMPO 3000 -DZRA BR SCT008 BKN010", "EHKV 281025Z AUTO 11015KT 2200 -SHRA SCT004 BKN006 BKN007 08/07 Q1009", "EHLE 281025Z AUTO 15006KT 110V210 4500 SCT005 BKN006 BKN007 12/11 Q1009 TEMPO 2500 -DZ", "EHLW 281025Z AUTO 09007KT 010V170 9999 -RA FEW015CB SCT026 OVC031 09/06 Q1010 RERA REDZ BLU", "EHMA 281025Z AUTO 11013KT 9999 FEW026 BKN049 09/05 Q1010", "EHMG 281025Z AUTO 10020KT 9999 -UP SCT032 OVC037 08/05 Q1010", "EHPG 281025Z AUTO 24013KT 4300 BR OVC000 10/10 Q1008", "EHRD 281025Z AUTO 22014KT 2400 -RA FEW004 SCT006 BKN007 12/12 Q1009 TEMPO 6000 NSW", "EHSA 281025Z AUTO 22019KT 7000 ///////// 11/10 Q1009 W08/H7", "EHSC 281025Z AUTO 23016KT 4000 BR ///////// 10/10 Q1010 REDZ W10/H7", "EHVK 281025Z AUTO 23009KT 180V260 2900 -RADZ BKN005 BKN006 OVC007 13/13 Q1010 YLO", "EHVL 281026Z AUTO 10013KT 9999 SCT013 OVC017 09/06 Q1009 GRN", "EHWO 281025Z AUTO 26009KT 230V300 2300 +DZ FEW005 BKN006 BKN007 13/11 Q1010 YLO", "EICK 281030Z 24006KT 200V260 9999 BKN013 13/10 Q1013 BECMG BKN015", "EIDL 281030Z 32005KT 9999 BKN006 OVC022 12/00 Q1011", "EIDW 281030Z 25005KT 160V320 9000 -DZ FEW005 SCT009 BKN015 13/12 Q1012 NOSIG", "EIKN 281030Z 27007KT 9999 BKN006 BKN017 12/10 Q1012 BECMG SCT006", "EIKY 281000Z 26006KT 240V300 9999 FEW011 OVC028 14/12 Q1013", "EIME 281000Z 26009KT 9999 FEW006 SCT010 BKN018 13/12 Q1011", "EINN 281030Z 23008KT 8000 -DZ FEW008 SCT017 BKN025 14/12 Q1013 NOSIG", "EISG 281030Z 35004KT 9999 BKN023 OVC037 12/11 Q1011", "EIWF 281030Z 25004KT 190V310 9999 FEW011 BKN026 14/11 Q1013", "EKAH 281020Z AUTO 17005KT 110V220 9999 NCD 10/M05 Q1017", "EKBI 281020Z AUTO 11009KT 9999 FEW120/// 10/M00 Q1016", "EKCH 281020Z AUTO 14008KT 9999 NCD 09/01 Q1018 NOSIG", "EKEB 281020Z 13008KT 080V160 CAVOK 11/01 Q1015", "EKKA 281020Z 14005KT 090V240 9999 FEW035 BKN200 09/M02 Q1016 NOSIG", "EKOD 280950Z 11006KT 040V200 9999 FEW032 SCT230 09/03 Q1016", "EKRK 281020Z AUTO 13008KT 110V170 9999 NCD 08/01 Q1017", "EKRN 281020Z AUTO 19004KT 150V230 9999 NCD 08/06 Q1018", "EKRS 281020Z AUTO 18003KT 100V250 9999 NCD 11/M00 Q1017", "EKSB 281020Z 11012KT CAVOK 11/05 Q1015", "EKSP 281020Z 10011KT 070V140 9999 FEW025 BKN190 10/03 Q1015 NOSIG", "EKVD 280950Z 11010KT 070V140 9999 FEW025 10/02 Q1016", "EKVG 281020Z AUTO 01008KT 340V040 9999 OVC028/// 03/M04 Q1018 RMK OVC030/// WIND SKEID 36011KT 320V030", "EKYT 281020Z AUTO 25005KT 210V300 9999 BKN130/// 10/00 Q1016", "ELLX 281020Z 26012KT 7000 SCT006 BKN012 15/14 Q1012 BECMG BKN012", "ENAL 281020Z 14006KT 100V170 CAVOK 06/M04 Q1016", "ENAN 281020Z 00000KT 9999 BKN006 05/03 Q1011", "ENAT 281020Z 15010KT 9999 BKN045 06/M01 Q1017 RMK WIND 700FT 14012KT", "ENBL 281020Z 17007KT 130V240 9999 FEW045 06/M06 Q1014", "ENBN 280950Z 26004KT 210V310 9999 VCSH FEW015TCU BKN035 05/M02 Q1015", "ENBO 281020Z 25011KT 9999 FEW021 BKN045 06/02 Q1012 NOSIG", "ENBR 281020Z 18007KT 150V220 9999 FEW030 BKN066 06/M00 Q1016 NOSIG RMK WIND 1200FT 14009KT", "ENBS 281020Z VRB06G16KT 9999 SCT022 01/M05 Q1022", "ENBV 281020Z 13016KT CAVOK 04/M02 Q1021", "ENCN 281020Z 10004KT 040V180 CAVOK 10/M02 Q1016", "ENDR 281020Z AUTO 22019KT 9999NDV FEW018/// BKN049/// 02/00 Q1015 W///S3", "ENDU 281020Z 10010KT 9999 FEW030 BKN050 08/00 Q1011 NOSIG RMK WIND 1100FT 07005KT WIND 2200FT 10014KT", "ENEV 281020Z 21004KT 9999 -RA BKN017 04/02 Q1012 RMK WIND 1400FT 22004KT", "ENFB 281020Z AUTO 15020KT 9999NDV OVC032/// 05/00 Q1015 W///S3", "ENFL 281020Z 16005KT 130V200 9999 FEW050 SCT140 08/M04 Q1016", "ENGC 281020Z 18017KT 9999 FEW020 BKN040 04/00 Q1014 W05/S3", "ENGM 281020Z VRB02KT CAVOK 07/M05 Q1016 NOSIG", "ENHD 281020Z 21009KT 9999 SCT022 BKN037 06/00 Q1016", "ENHE 281020Z 22017KT 9999 SCT025 04/M01 Q1013 W///S4", "ENHF 281020Z 22007KT 170V250 CAVOK 07/M00 Q1015 RMK WIND 1254FT 14020KT", "ENHK 281020Z 08016KT 060V120 CAVOK 06/M00 Q1014", "ENHM 281020Z AUTO 14028KT //// FEW014/// BKN018/// OVC021/// 05/05 Q1013 W08/S/", "ENHV 281020Z 15013KT 090V200 CAVOK 06/M02 Q1018", "ENJS 281020Z 17029KT 9999 -RA BKN014 05/03 Q1014 W07/S/", "ENKB 281020Z 15006KT 120V180 9999 FEW040 07/M06 Q1016 RMK WIND 745FT 18008KT", "ENKR 281020Z 12011KT CAVOK 03/M04 Q1021 RMK WIND 731FT 10015KT", "ENLA 281020Z AUTO 14018KT 9999NDV BKN048/// 07/03 Q1013 W///S4", "ENLE 281020Z 13018KT CAVOK 07/02 Q1014 W08/S4", "ENLK 281020Z 17005KT 9999 VCSH FEW010 SCT014 BKN040 05/04 Q1012", "ENMH 281020Z 13012KT CAVOK 04/M01 Q1020", "ENML 281020Z 10003KT CAVOK 06/M02 Q1016", "ENMS 281020Z 00000KT 9999 SCT027 BKN045 05/M01 Q1013 RMK WIND 412FT 25005KT", "ENNA 281020Z 19015KT 9999 FEW038 08/M02 Q1018 RMK WIND 1800FT 15029KT", "ENNM 281020Z 26007KT 220V310 9999 SCT036 07/M02 Q1015", "ENNO 281020Z VRB02KT CAVOK 10/M07 Q1016", "ENOA 281020Z 14019KT 100V160 9999 -SHRA BKN012 03/01 Q1014 W///S3", "ENOL 281020Z 34007KT 9999 FEW020CB SCT030 06/00 Q1016 NOSIG", "ENOV 281020Z VRB04KT CAVOK 07/M06 Q1015 RMK WIND RWY24 VRB03KT WIND 2090FT 17006KT", "ENQA 281020Z AUTO 16015KT 9999NDV OVC021/// 04/00 Q1016 W09/S3", "ENQC 281020Z AUTO 16015KT 9999NDV SCT025/// BKN055/// 05/M01 Q1015 W///S3", "ENQR 281020Z AUTO 14013KT 9999NDV FEW028/// 07/00 Q1014 W08/S3", "ENRA 281020Z 30007KT 260V320 9999 -SHRA SCT015TCU BKN020 03/01 Q1013", "ENRM 281020Z 24013KT 9999 FEW037 06/M01 Q1015", "ENRO 281020Z AUTO 31004KT 280V340 9999 BKN031/// M00/M08 Q1014", "ENRS 281020Z AUTO 24008KT 9999 SCT046/// 06/M01 Q1012", "ENRY 281020Z VRB03KT CAVOK 09/M05 Q1016 NOSIG", "ENSB 281020Z 36006KT 3500 -SNRA VV008 M01/M02 Q1017 TEMPO 2000 SN VV010 RMK WIND 1400FT 19002KT", "ENSD 281020Z 08008KT CAVOK 06/M06 Q1016 RMK WIND RWY26 07008KT WIND 1140FT 05005KT", "ENSE 281020Z AUTO 18013KT //// BKN018/// OVC069/// 05/01 Q1015 W///S3", "ENSF 281020Z AUTO 17019KT 9999NDV -DZ BKN022/// ///// Q//// W///S3", "ENSG 281020Z 07004KT 350V130 CAVOK 03/M07 Q1014 RMK WIND 3806FT 10009KT", "ENSH 281020Z 21006KT 9999 -RA FEW007 SCT015 04/03 Q1012 RMK WIND 0150FT 19010KT", "ENSK 281020Z 16003KT 9999 RA SCT014 BKN025 04/02 Q1012", "ENSL 281020Z AUTO 13030KT 9999NDV BKN016/// 06/03 Q1013 W05/S4", "ENSO 281020Z 14005KT 9999 SCT042 BKN059 06/00 Q1016", "ENSR 281020Z 13018KT 9999 -DZ FEW046 SCT068 BKN086 07/01 Q1013 RMK WIND RWY32 13017KT WIND 1118FT 12017G27KT", "ENSS 281020Z 14020KT 9999 BKN011 00/M02 Q1023 RMK WIND 0500FT 12019KT", "ENST 281020Z 23010KT 200V260 9999 FEW024CB SCT030 06/M01 Q1014 RMK WIND 300FT 25010KT", "ENTC 281020Z 25004KT 9999 FEW055 SCT078 BKN094 07/00 Q1012 NOSIG RMK WIND 2600FT 11010KT", "ENTO 281020Z 06005KT 350V100 CAVOK 08/M05 Q1016 NOSIG", "ENUG 281020Z AUTO 14021KT 100V170 9999NDV FEW100/// 06/01 Q1013 W///S4", "ENUN 281020Z 22019KT 9999 VCSH SCT020TCU 03/M01 Q1010 W07/S4", "ENVA 281020Z 25005KT 9999 FEW029CB SCT059 06/M02 Q1016 NOSIG RMK WIND 670FT 29005KT", "ENVD 281020Z 10018KT CAVOK 02/M02 Q1022", "ENWV 281020Z AUTO 13019KT 9999NDV BKN057/// 07/03 Q1014 W///S4", "ENZV 281020Z VRB04KT 9999 SCT044 BKN059 07/M03 Q1016", "EPBY 281030Z 16007KT 070V210 CAVOK 12/M05 Q1019", "EPGD 281030Z 26008KT 210V310 CAVOK 10/M02 Q1018", "EPKK 281030Z 25005KT 200V290 9999 FEW056 13/M00 Q1019", "EPKT 281030Z 23008KT 180V270 CAVOK 14/M01 Q1019", "EPLB 281030Z VRB03KT CAVOK 11/M04 Q1021", "EPLL 281030Z 13006KT 070V230 CAVOK 12/M00 Q1019", "EPMO 281030Z 25005KT 210V310 CAVOK 12/M03 Q1020", "EPPO 281030Z 13008KT 100V170 CAVOK 14/01 Q1018", "EPRA 281030Z VRB02KT CAVOK 11/M01 Q1021", "EPRZ 281030Z VRB03KT CAVOK 12/M03 Q1021", "EPSC 281030Z 13008KT CAVOK 13/M02 Q1017", "EPSY 281030Z 26008KT 220V320 CAVOK 10/M04 Q1020", "EPWA 281030Z VRB04KT CAVOK 12/M04 Q1020 NOSIG", "EPWR 281030Z 14011KT CAVOK 15/04 Q1017", "EPZG 281030Z 11007KT 050V150 CAVOK 15/02 Q1017", "ESCF 281020Z 27014KT CAVOK 09/M02 Q1015", "ESCM 281020Z AUTO 04004KT 340V070 9999 -RA SCT035/// BKN070/// 07/00 Q1013", "ESDF 281020Z 23007KT 190V260 9999 SCT038 10/01 Q1017", "ESGG 281020Z 25006KT 210V280 CAVOK 10/M02 Q1015", "ESGJ 281020Z 21008KT 9999 SCT025TCU 07/M00 Q1016", "ESGP 281020Z 29006KT 230V360 CAVOK 11/M05 Q1016", "ESGT 281020Z VRB03KT CAVOK 09/M04 Q1016", "ESIA 281020Z 31009KT 270V340 CAVOK 09/M06 Q1016", "ESIB 281020Z 35004KT 300V030 CAVOK 08/M03 Q1016", "ESKM 281020Z AUTO 02008KT 350V050 9999 BKN051/// 06/M02 Q1014", "ESKN 281020Z 28011KT 9999 BKN044 08/M02 Q1014", "ESKS 281020Z AUTO 33006KT 300V020 9999 NCD 03/M10 Q1014", "ESMK 281020Z VRB03KT CAVOK 11/M03 Q1017", "ESMQ 281020Z 19009KT 160V240 CAVOK 11/M03 Q1016", "ESMS 281020Z 22006KT 190V250 9999 FEW045 10/M02 Q1017", "ESMT 281020Z 26007KT 210V290 9999 FEW021 08/03 Q1017", "ESMX 281020Z 30006G19KT 270V340 CAVOK 11/M03 Q1016", "ESND 281020Z AUTO 32008KT 270V360 9999 NCD 04/M07 Q1014", "ESNG 281020Z AUTO 09009KT 1500 -SN VV008 ///// Q1011", "ESNK 281020Z AUTO 36002KT 9999 -DZ FEW045/// BKN059/// OVC076/// ///// Q1013", "ESNL 281020Z AUTO 31003KT 240V020 9999 BKN048/// 05/M04 Q1011", "ESNN 281020Z AUTO 31003KT 230V010 9999 FEW030/// BKN074/// 07/M01 Q1013", "ESNO 281020Z AUTO 11005KT 090V150 9999 BKN012/// OVC021/// 03/01 Q1012", "ESNQ 281020Z 11004KT 2100 -SN BKN011 OVC016 00/M01 Q1011", "ESNS 281020Z 26005KT 200V290 CAVOK 06/M03 Q1012", "ESNU 281020Z 15006KT 9999 SCT028 06/M00 Q1013", "ESNV 281020Z AUTO 36003KT 290V090 9999 SCT041/// 05/M04 Q1010", "ESNX 281020Z 00000KT 9999 FEW014 SCT026 OVC031 02/00 Q1010", "ESNZ 281020Z AUTO 28016KT 9999 BKN033/// OVC055/// ///// Q1013", "ESOE 281020Z 30009KT 250V350 9999 SCT044 09/M02 Q1015", "ESOH 281020Z AUTO 34007KT 270V080 9999 SCT048/// 08/M03 Q1015", "ESOK 281020Z 32008KT 280V360 9999 FEW045 08/M03 Q1015", "ESOW 281020Z 31008KT 280V360 9999 SCT040 09/M02 Q1014", "ESPA 281020Z VRB03KT 9999 OVC004 02/01 Q1012", "ESPE 281020Z AUTO 00000KT 9999 -SHRA SCT016/// BKN021/// BKN025/// OVC240/// 04/02 Q1010", "ESSA 281020Z 29010KT 250V320 9999 VCSH SCT032CB 06/M01 Q1013 NOSIG", "ESSB 281020Z 29008KT 260V330 9999 SCT025 BKN032 06/00 Q1014", "ESSD 281020Z 31010KT 9999 VCSH BKN030TCU 06/M00 Q1014", "ESSL 281020Z 29013KT 260V320 CAVOK 09/M04 Q1015", "ESSP 281020Z 26012KT CAVOK 10/M02 Q1015", "ESST 281020Z AUTO 31004KT 200V360 9999 BKN051/// 08/M03 Q1016", "ESSV 281020Z 25010KT CAVOK 07/00 Q1016", "ESTA 281020Z 27005KT CAVOK 09/M01 Q1017", "ESTL 281020Z VRB03KT CAVOK 11/M04 Q1017", "ESUP 281020Z AUTO 10008KT 9999 OVC032/// ///// Q1012", "ESUT 281020Z 29008KT 260V320 9999 BKN032 03/M03 Q1010", "ETAD 281003Z 24008KT 9999 SCT008 BKN010 15/14 A2987 RMK SLP107", "ETAR 281000Z AUTO 25009KT 9999 -RA FEW009 BKN023 14/14 A2990 RMK AO2 DZE0956RAB0956 CIG 014V023 CIG 018 RWY08 SLP130 $", "ETEB 281031Z AUTO 19008KT 9999 OVC007 11/10 A2991 RMK AO2 RAE12DZB12E16DZB20E31 SLP146 $", "ETGG 281020Z AUTO 11010KT 9999 // ////// 11/04 Q1014 ///", "ETHA 281020Z 22011KT 9999 -RA FEW022 SCT040 OVC060 10/09 Q1015 RERA BLU", "ETHB 281030Z 12005KT 9999 -RA SCT044 BKN058 12/07 Q1011 BLU FCST CNL", "ETHC 281020Z 11009KT 9999 BKN060 BKN100 13/01 Q1012 BLU FCST CNL", "ETHF 281020Z VRB03KT 7000 SCT009 BKN017 10/08 Q1012 WHT BLU TEMPO WHT", "ETHL 281020Z 24010KT 9000 RA BKN008 OVC017 12/11 Q1015 GRN FCST CNL", "ETHN 281020Z 23008KT 9999 BKN004 11/10 Q1013 YLO FCST CNL", "ETHS 281020Z 15009KT 9999 FEW060 BKN100 14/00 Q1013 BLACKBLU FCST CNL", "ETIC 280955Z AUTO 10004KT 9999 -RA SCT039 OVC055 09/07 A2994 RMK AO2 RAE45DZB45E47RAB47 SLP148 P0003 T00930071 $", "ETIH 281025Z AUTO 13003KT 2000 RA BR SCT006 OVC013 08/07 A2995 RMK AO2 VIS 2000V3000 CIG 006V013 SLP152 $", "ETIK 281010Z AUTO 19005KT 9999 BKN011 BKN017 OVC022 12/12 A2991 RMK AO2 SLP134 FZRANO $", "ETMN 281020Z 11011KT 9999 BKN065 OVC100 11/02 Q1012 BLU BLU", "ETNG 280950Z 26010KT 9999 -RA OVC010 15/13 Q1011 BECMG NSW BKN015", "ETNH 281020Z 10010KT 9999 SCT120 BKN200 13/M00 Q1013 BLU+FCST CNL", "ETNL 281020Z 13009KT 9999 FEW030 SCT290 13/M03 Q1015 BLU+FCST CNL", "ETNN 281020Z 27002KT 9999 BKN015 14/13 Q1011 WHT", "ETNS 281020Z AUTO 12010KT 9000 // ////// 12/00 Q1014 ///", "ETNT 281020Z 12007KT 9999 BKN050 10/03 Q1011 BLACKBLU", "ETNW 281020Z 13007KT 9999 -RA FEW045 BKN055 12/03 Q1012 BLU BLU TEMPO WHT", "ETOU 280955Z 00000KT 9999 OVC008 12/09 A2991 RMK AO2A SLP132 T01200045", "ETSB 281020Z 26007KT 9999 BKN008 BKN030 15/12 Q1012 GRN", "ETSH 281020Z 14007KT 9999 SCT060 BKN110 BKN140 15/03 Q1014 BLU", "ETSI 281020Z VRB02KT 5000 RA BR FEW015 OVC017 11/10 Q1014 WHT", "ETSL 281020Z 20008KT 5000 RA BR SCT008 BKN012 BKN030 11/11 Q1014 GRN", "ETSN 281020Z 14003KT 4500 -RA BR SCT005 BKN013 11/10 Q1014 GRN", "ETWM 281020Z 12004KT 9999 BKN028 11/06 Q1011 BLU", "EVGA 281020Z 19005KT 160V220 9999 -SHRA SCT030CB BKN035 07/01 Q1017 NOSIG", "EVLA 281020Z AUTO 25014KT 9999 FEW011/// 08/04 Q1017", "EVRA 281020Z 23006KT 190V300 9999 VCSH SCT046CB 10/M01 Q1016 NOSIG", "EVVA 281020Z AUTO 24011KT CAVOK 10/01 Q1016", "EYKA 281020Z 24007KT 210V270 9999 VCSH FEW073CB 10/M01 Q1018", "EYPA 281020Z 26004KT 210V320 9999 FEW009 09/05 Q1019", "EYSA 281020Z 21012KT 9999 VCSH SCT023CB BKN062 07/M01 Q1018 NOSIG", "EYVI 281020Z 23012KT 210V290 9999 VCSH BKN051CB 10/M02 Q1018 NOSIG", "FABL 281000Z 02007KT CAVOK 26/10 Q1022 NOSIG", "FACT 281000Z 31013KT 9999 FEW015 BKN035 18/13 Q1019 NOSIG", "FACV 280938Z 30003KT 9999 FEW025 17/08 Q1021", "FAEL 281000Z 08009KT 040V100 CAVOK 23/17 Q1016", "FAGG 281028Z 14005KT 100V180 9999 FEW035 20/13 Q1017", "FAHS 281000Z AUTO 13005KT //// // ////// 31/21 Q1018", "FAJB 281000Z AUTO 33002KT //// // ////// 27/10 Q1025", "FAKM 281000Z 34009KT 9999 FEW040 27/10 Q1021", "FAKN 281000Z 07009KT 9999 FEW020 25/18 Q1022 NOSIG", "FALA 281000Z 28008KT 230V330 CAVOK 26/13 Q1025 NOSIG", "FALE 281000Z 14006KT 090V180 9999 SCT025 BKN031 25/19 Q1017 NOSIG", "FALW 281000Z AUTO 02004KT //// // ////// 19/14 Q1019", "FAMM 281000Z 33008KT 9999 FEW040 29/11 Q1023 NOSIG", "FAOR 281030Z 30007KT 260V350 9999 FEW045 25/11 Q1025 NOSIG", "FAPE 281000Z VRB03KT 9999 SCT028 23/13 Q1016 NOSIG", "FAPN 281000Z AUTO 35002KT //// // ////// 30/14 Q1022", "FAPP 281000Z 13006KT 9999 SCT025 30/12 Q1024 NOSIG", "FASB 280951Z 11003KT CAVOK 20/08 Q1021", "FAUP 281000Z 19002KT CAVOK 27/03 Q1019 NOSIG", "FAUT 281000Z 07006KT 9999 FEW020 23/15 Q1019", "FAVV 281000Z AUTO 27005KT //// // ////// 27/11 Q1026", "FBKE 281000Z 10009KT 060V150 CAVOK 29/12 Q1020", "FBMN 281000Z 02006KT 330V070 CAVOK 31/14 Q1020", "FBPM 281000Z 12007KT 050V160 9999 FEW030 32/10 Q1020", "FBSK 281000Z 24004KT CAVOK 28/13 Q1021 NOSIG", "FCBB 281000Z 29005KT 250V350 9999 FEW014 27/22 Q1014 NOSIG", "FCOD 281000Z 26004KT 9999 FEW016 FEW030CB 31/24 Q1013", "FCPP 281000Z 29006KT 240V330 9999 SCT015 SCT023 FEW030CB 30/24 Q1012 NOSIG", "FDBB 281000Z AUTO 11002KT //// // ////// 30/20 Q1016", "FDMY 281000Z AUTO 26003KT //// // ////// 26/19 Q1029", "FDPP 281000Z AUTO 15003KT //// // ////// ///// Q1025", "FDSK 281000Z 17008KT 120V200 9999 BKN025 26/18 Q1019 NOSIG", "FDST 281000Z AUTO 04005KT //// // ////// 21/17 Q1018", "FEFF 281000Z 26005KT 9999 SCT023 33/22 Q1012 NOSIG", "FEFT 281000Z 28008KT 9999 SCT023 29/21 Q1013", "FGSL 281000Z 01005KT 320V050 9999 FEW010 31/27 Q1013 NOSIG", "FHAW 280950Z 16014KT 9999 FEW017 BKN300 27/23 Q1015 RMK BLU", "FIMP 281000Z 16007KT 9999 SCT017 28/22 Q1013", "FJDG 280955Z 14011KT 9999 SCT019 SCT080 BKN220 33/26 A2977 RMK SLP078 T03280261", "FKKD 281000Z VRB02KT 8000 BKN014 FEW017CB 30/25 Q1013 NOSIG", "FKKL 281000Z /////KT CAVOK 38/15 Q1012", "FKKN 281000Z 05003KT CAVOK 30/19 Q1017", "FKKR 281000Z 27013KT 250V320 CAVOK 35/19 Q1011 NOSIG", "FKYS 281000Z VRB01KT 9999 SCT013 27/24 Q1018 NOSIG", "FLKK 281000Z 10012KT 9999 FEW025 26/11 Q1023", "FMCZ 281030Z AUTO 14005KT 090V180 9999 FEW019/// ///TCU 30/25 Q1010 BECMG SCT025", "FMEE 281000Z AUTO 09015KT 9999 FEW036 29/21 Q1013 TEMPO 4500 SHRA", "FMEP 281000Z AUTO 14014KT CAVOK 28/20 Q1014 NOSIG", "FMMI 281030Z 13009KT 090V190 9999 SCT027 24/14 Q1020 NOSIG", "FMMT 281000Z 19012KT 9999 SCT017TCU SCT033 29/21 Q1015 NOSIG", "FMNA 281000Z 14016KT 9999 FEW020 31/20 Q1009", "FMNM 281000Z 13008KT 100V200 9999 FEW020 35/19 Q1011 NOSIG", "FMNN 281000Z 32004KT 9999 SCT020 32/// Q1010", "FMSD 281000Z 10014KT 9999 SCT020 27/21 Q1018", "FNCA 281000Z VRB01KT 9999 BKN018 29/24 Q1012", "FNCT 281000Z AUTO 32008KT //// ////// ///// Q////", "FNGI 281000Z 06005KT CAVOK 31/08 Q1020", "FNHU 281000Z AUTO 11014KT 070V140 9999 // NCD 25/05 Q1023", "FNLU 281000Z 18005KT 9999 BKN024 30/25 Q1011 NOSIG", "FNUB 281000Z 08013KT 040V120 CAVOK 25/04 Q1026", "FNUE 281000Z AUTO 12015KT 090V170 9999 NCD 26/08 Q1023", "FOGM 281000Z 00000KT 9999 BKN015TCU FEW020CB 30/24 Q////", "FOGO 281000Z /////KT 9999 BKN011TCU 27/22 Q////", "FOGR 281000Z /////KT 9999 SCT010 29/24 Q////", "FOOG 281030Z VRB04KT 9999 SCT010 FEW020CB 30/26 Q1013", "FOOL 281000Z 24005KT 170V280 9999 SCT014 31/25 Q1013 NOSIG", "FOON 281000Z /////KT 9999 BKN010 25/25 Q1014", "FPST 281000Z 11008KT 9999 FEW020CB 31/27 Q1013 NOSIG", "FQBR 281000Z 16008KT 9999 FEW018 30/20 Q1016", "FQCH 281000Z /////KT 9999 FEW015 26/17 Q1021", "FQIN 281000Z 05010KT 9999 FEW020 29/19 Q1017", "FQLC 281000Z 11010KT 9999 FEW020 21/13 Q1022", "FQMA 281000Z 23004KT 9999 BKN020 SCT025 28/20 Q1017 NOSIG", "FQNC 281000Z 17011KT 9999 BKN020 29/22 Q1013", "FQNP 281000Z 18008KT 9999 BKN020 27/19 Q1016", "FQPB 281000Z 17013KT 9999 FEW020 BKN100 29/23 Q1013", "FQQL 281000Z 15012KT 9999 SCT020 30/22 Q1016", "FQTT 281000Z 13006KT 080V190 9999 SCT020 31/17 Q1016", "FQVL 281000Z 11007KT 9999 FEW020 29/22 Q1017", "FQXA 281000Z 32005KT 290V020 9999 SCT020 29/20 Q1018", "FSIA 281000Z 12013KT 9999 SCT020 30/26 Q1007 NOSIG", "FTTA 281000Z 20008KT CAVOK 36/19 Q1011", "FTTC 281000Z 16014KT 9999 BKN040TCU 36/// Q1012", "FTTJ 281000Z 28014KT 7000 NSC 38/17 Q1009 NOSIG", "FTTY 281000Z 04008KT CAVOK 39/05 Q1013", "FVRG 281000Z 17011KT 120V210 CAVOK 26/05 Q1024 NOSIG", "FWCL 281000Z 26011KT 9999 SCT025 26/18 Q1019 NOSIG", "FWKI 281000Z 15008KT 9999 FEW028 23/13 Q1020 NOSIG", "FYGF 281000Z 04009KT CAVOK 30/07 Q1024", "GABS 281000Z VRB02KT CAVOK 36/M03 Q1013 NOSIG", "GAKD 281000Z 16004KT CAVOK 38/08 Q1011", "GAMB 281000Z 19008KT 7000 NSC 38/M02 Q1011", "GBYD 281000Z 02010KT CAVOK 28/17 Q1012", "GCFV 281030Z 06007KT CAVOK 22/17 Q1017", "GCGM 281030Z 22006KT 180V270 CAVOK 21/18 Q1018 RMK R09/VRB04KT ARP/23005KT 140V290", "GCHI 281030Z 36012KT CAVOK 22/17 Q1018", "GCLA 281030Z 06005KT 010V090 9999 FEW042 23/18 Q1018", "GCLP 281030Z 03013KT 9999 FEW030 23/17 Q1018 NOSIG", "GCRR 281030Z 11006KT 9999 FEW020 21/17 Q1017", "GCTS 281030Z 16006KT 120V210 9999 FEW020 22/16 Q1018 NOSIG", "GCXO 281030Z VRB03KT 9999 FEW003 22/08 Q1019 NOSIG", "GECE 281030Z AUTO 13004KT 060V180 CAVOK 22/17 Q1016", "GEML 281030Z 08005KT 040V150 9000 SCT006 SCT010 22/17 Q1015", "GGOV 281000Z 02004KT 340V070 8000 NSC 32/15 Q1012 NOSIG", "GLRB 281030Z /////KT 9999 BKN018 FEW026CB 30/25 Q//// NOSIG RMK CB/EW", "GMAD 281030Z 27010KT 240V300 9000 NSC 25/18 Q1016 NOSIG", "GMAG 281000Z 26005KT 220V330 6000 NSC 21/17 Q1016 NOSIG", "GMAT 281000Z 36005KT 310V050 8000 SCT015 20/15 Q1016 NOSIG", "GMFB 281000Z 25014KT CAVOK 31/M07 Q1024 NOSIG", "GMFF 281030Z 02005KT 340V070 CAVOK 36/02 Q1016 NOSIG", "GMFK 281000Z VRB09KT CAVOK 32/M09 Q1024 NOSIG", "GMFM 281000Z 30009KT 260V360 CAVOK 34/11 Q1016 NOSIG", "GMFO 281030Z VRB04KT CAVOK 37/M03 Q1016 NOSIG", "GMMB 281000Z 24006KT 210V280 5000 SCT010 BKN100 26/18 Q1015 NOSIG", "GMMC 281000Z 30008KT 6000 NSC 23/17 Q1015", "GMMD 281000Z 24004KT CAVOK 33/05 Q1016 NOSIG", "GMME 281030Z 28012KT 250V310 5000 SCT023 SCT200 22/19 Q1015 NOSIG", "GMMH 281000Z 06013KT 8000 SCT010 20/16 Q1016 NOSIG", "GMMI 281000Z 26006KT 230V320 6000 SCT016 21/17 Q1017 NOSIG", "GMML 281000Z 06007KT CAVOK 24/18 Q1017 NOSIG", "GMMN 281030Z 25008KT 200V330 CAVOK 25/18 Q1016 NOSIG", "GMMW 281000Z 04005KT 350V090 4000 BR SCT006 SCT098 24/15 Q1015 NOSIG", "GMMX 281030Z 29007KT 260V340 9999 FEW100 SCT200 27/15 Q1016 NOSIG", "GMMZ 281000Z VRB02KT CAVOK 29/00 Q1022 NOSIG", "GMTA 281000Z 35008KT 320V020 8000 SCT009 SCT200 20/15 Q1015 NOSIG", "GMTN 281000Z VRB04KT 9999 BKN016 SCT200 23/16 Q1015 NOSIG", "GMTT 281030Z 08008KT CAVOK 28/17 Q1014 NOSIG", "GOBD 281000Z 01015KT 9999 FEW017 25/17 Q1014 NOSIG", "GOGG 281000Z 36004KT CAVOK 29/19 Q1013", "GOGK 281000Z 08004KT CAVOK 31/17 Q1011", "GOGS 281000Z 08004KT CAVOK 28/19 Q1013", "GOOD 281000Z 36008KT CAVOK 28/18 Q1012", "GOOG 281000Z 36006KT CAVOK 30/16 Q1010", "GOOK 281000Z 36012KT CAVOK 29/15 Q1012", "GOOY 281000Z 32012KT 9999 SCT011 SCT014 24/20 Q1014", "GOSM 281000Z 34004KT CAVOK 36/16 Q1011", "GOSP 281000Z 04002KT CAVOK 31/13 Q1011", "GOSS 281000Z 02010KT 310V070 CAVOK 26/16 Q1014", "GOTK 281000Z 22004KT CAVOK 35/16 Q1011", "GOTT 281000Z 36008KT CAVOK 35/14 Q1011", "GQNO 281000Z 36013KT 8000 NSC 26/17 Q1013 NOSIG", "GQPP 281000Z 02013KT 8000 NSC 22/16 Q1015 NOSIG", "GUCY 281000Z 28006KT 9999 SCT015 31/22 Q1014 NOSIG", "GVAC 281000Z 04017KT 9999 SCT014 23/17 Q1016 NOSIG", "GVBA 281000Z 04017KT 9999 BKN014 24/17 Q1016 NOSIG", "GVNP 281000Z 04019KT 9999 SCT017 24/17 Q1015 NOSIG", "GVSV 281000Z 05024KT 9999 FEW023 24/17 Q1015 NOSIG", "HABD 281000Z 35008KT 9999 SCT025 BKN070 25/11 Q1022 NOSIG", "HCMF 281000Z 35010KT 9999 FEW038 31/27 Q1006", "HCMM 281000Z 33009KT 9999 OVC018 27/26 Q1010", "HDAM 281000Z 05010KT 9999 SCT023 34/21 Q1008", "HEAT 281000Z 35008KT CAVOK 28/10 Q1015 NOSIG", "HEAX 281000Z 35012KT 9999 SCT020 22/11 Q1014 NOSIG", "HEBA 281000Z 28010KT 9999 SCT020 21/11 Q1014 NOSIG", "HEBL 281000Z 06007KT CAVOK 32/06 Q1012 NOSIG", "HECA 281030Z 29011KT 9999 SCT025 23/06 Q1013 NOSIG", "HECP 281000Z 30008KT 9999 SCT025 24/05 Q1013 NOSIG", "HEGN 281000Z 35015KT CAVOK 29/12 Q1010 NOSIG", "HEIS 281000Z 34008KT CAVOK 24/11 Q1012", "HELX 281000Z 26011KT CAVOK 34/04 Q1010 NOSIG", "HEMA 281000Z 36010KT CAVOK 32/10 Q1009 NOSIG", "HEMM 281000Z 31015KT 9999 SCT020 21/10 Q1016 NOSIG", "HEPS 281000Z 32012KT 9999 SCT020 21/10 Q1013 NOSIG", "HESG 281000Z 02003KT 9999 NSC 33/07 Q1010 NOSIG", "HESH 281000Z 03010KT CAVOK 31/09 Q1009 NOSIG", "HESN 281000Z 04005KT CAVOK 35/02 Q1010 NOSIG", "HESW 281000Z 33013KT CAVOK 22/07 Q1017", "HESX 281000Z 01010KT 9999 SCT030 24/08 Q1014 NOSIG", "HETR 281000Z 28028KT 5000 SA NSC 28/16 Q1010", "HKEL 281000Z 07010KT 9999 RA FEW021CB BKN022 BKN080 18/15 Q1023", "HKEM 281000Z 17003KT 9999 BKN021 23/17", "HKGA 281000Z 9999 BKN026 29/23 Q1011 RERA", "HKJK 281000Z 08008KT 9999 BKN022 BKN080 19/17 Q1021 RETS", "HKKI 281000Z 23006KT 9999 FEW026CB 27/18 Q1016", "HKKT 281000Z 00000KT 9999 SCT024 25/16", "HKLO 281000Z 10005KT 9999 FEW026CB BKN290 31/20 Q1008", "HKLU 281000Z 00000KT 9999 -RA FEW020CB BKN021 OVC080 24/23 Q1013", "HKME 281000Z 18003KT 9999 SCT020 SCT090 23/18", "HKMO 281000Z 19005KT 5000 +RA BKN018 OVC080 24/23 Q1013", "HKNI 281000Z 13008KT 9999 FEW024TCU BKN080 24/16", "HKNK 281000Z 00000KT 9999 FEW024 23/12", "HKNW 281000Z 09005KT 9999 BKN025 BKN080 22/16 Q1022", "HKWJ 281000Z 18005KT 9999 BKN032 30/23 Q1010", "HRYR 281030Z 08003KT 040V130 9999 BKN025 23/16 Q1019 NOSIG", "HTDA 281000Z 16012KT 5000 RA FEW009 BKN011 FEW014CB 25/22 Q1014 TEMPO 3000 RA", "HTKJ 281000Z 09015KT 9999 -RA FEW008 BKN022 BKN080 21/20 Q1019 NOSIG", "HTMW 281000Z 06010KT 9999 FEW026 FEW027CB SCT100 27/18 Q1017 NOSIG", "HUEN 281000Z 18010KT 9999 FEW023 FEW025CB 24/22 Q1017 NOSIG", "K04V 281015Z AUTO 23008KT 3/4SM -SN OVC005 00/M01 A3007 RMK AO2 P0001", "K04W 280959Z AUTO 03006KT 10SM OVC006 07/07 A2985 RMK AO2", "K05U 281005Z AUTO VRB04KT 10SM 01/M04 A3023 RMK A01", "K06C 281015Z AUTO 03004KT 10SM CLR 07/04 A2982 RMK AO2 T00690036", "K06D 281035Z AUTO 33009KT 10SM CLR M00/M00 A3005 RMK AO2 PWINO", "K08D 281035Z AUTO 32008KT 10SM BKN070 BKN080 00/00 A3008 RMK AO2", "K0A0 281015Z AUTO VRB06KT 10SM CLR 11/M11 A2988 RMK AO2", "K0A9 281015Z AUTO 09004KT 10SM SCT043 OVC050 13/13 A2975 RMK AO2", "K0CO 281015Z AUTO 10007KT 071V131 OVC001 M11/M13 A3014 RMK AO2 P0001 PWINO", "K0E0 281035Z AUTO 08011G15KT 10SM CLR 06/00 A2998 RMK AO2 T00610000", "K0F2 281015Z AUTO 10SM CLR 09/08 A2980 RMK AO2 T00860081", "K0J4 281032Z AUTO 00000KT 6SM BR SCT007 19/17 A2979 RMK AO2 T01890172", "K0R0 281015Z AUTO 00000KT 3/4SM BR VV005 14/13 A2981 RMK AO2", "K0S9 281035Z AUTO 00000KT 8SM OVC065 06/05 A3011 RMK AO2", "K0V4 281035Z AUTO 09008KT 5SM OVC005 13/13 A2981 RMK AO1", "K0VG 281035Z AUTO 00000KT 10SM OVC020 13/13 A2975 RMK AO2", "K10G 281035Z AUTO 07009KT 7SM DZ BKN060 OVC075 11/10 A2979 RMK AO2 P0002", "K12N 280954Z AUTO 00000KT 08/06 A3016 RMK AO1 SLP214 T00830061", "K13K 281015Z AUTO 30004KT 3SM BR CLR 07/07 A2983 RMK AO2 T00680068", "K14Y 281035Z AUTO 01004KT 10SM BKN005 OVC009 05/05 A2989 RMK AO2", "K15M 281035Z AUTO 00000KT 9SM OVC003 15/15 A2972 RMK AO2 T01530153 $", "K17J 281015Z AUTO 21004KT 5SM BR OVC004 19/19 A2979 RMK AO2 T01940186", "K18A 281015Z AUTO 00000KT 1/4SM FG OVC002 15/14 A2984 RMK AO2 T01460145", "K18H 281015Z AUTO 34004KT 4SM HZ OVC017 25/21 A2979 RMK A01", "K19S 281015Z AUTO 35019G27KT 10SM BKN085 09/ A2993 RMK AO2 T0090////", "K1A5 281030Z AUTO 00000KT 10SM SCT003 BKN010 OVC039 13/13 A2981 RMK AO2 T01310128", "K1A6 281015Z AUTO 00000KT 10SM OVC015 14/14 A2975 RMK AO2 T01350135", "K1A9 281015Z AUTO 00000KT 10SM OVC010 18/18 A2975 RMK AO2 T01800180", "K1AM 280955Z AUTO 18003KT 10SM CLR 02/M04 A3016 RMK AO2 SLP239 T00211042 $", "K1BM 280955Z AUTO 24011KT 10SM CLR 03/M04 A3015 RMK AO2 SLP230 T00281042 $", "K1BN 280955Z AUTO 32004KT 10SM OVC085 03/02 A3003 RMK AO2 SLP188 T00300020 $", "K1BW 280955Z AUTO 33017KT 10SM SCT007 SCT016 BKN075 01/M01 A3017 RMK AO2 PLE0857RAB0857E06RAB12E28 SLP217 P0000 T00061009 $", "K1CM 280955Z AUTO 00000KT 10SM CLR 01/M05 A3015 RMK AO2 SLP231 T00081046 $", "K1CN 280955Z AUTO 34008KT 10SM OVC090 04/02 A3004 RMK AO2 SLP191 T00360020 $", "K1CW 280955Z AUTO 35016KT 10SM FEW049 FEW055 02/01 A3014 RMK AO2 SLP199 T00240006 $", "K1DM 280955Z AUTO 19010KT 10SM CLR 00/M03 A3016 RMK AO2 SLPNO T00031031 $", "K1EM 280955Z AUTO 22007KT 10SM CLR 04/M04 A3015 RMK AO2 SLP229 T00391038 $", "K1EN 280955Z AUTO 35006KT 10SM SCT085 02/M00 A2982 RMK AO2 SLP124 T00171002 $", "K1EW 280955Z AUTO 16024KT 10SM FEW019 01/M00 A3010 RMK AO2 PK WND 16029/34 SLP198 T00111002 $", "K1F0 281015Z AUTO 36004KT 10SM CLR 09/09 A2983 RMK AO2 T00900085", "K1FW 280955Z AUTO 34016KT 10SM CLR 02/01 A3010 RMK AO2 PK WND 33026/0855 SLP181 T00170014 $", "K1GM 280955Z AUTO 18013KT 10SM CLR 02/M03 M RMK AO2 SLPNO T00201031 $", "K1GN 280955Z AUTO 32006KT 10SM SCT080 01/01 A3004 RMK AO2 SLP201 T00100006 $", "K1H2 281015Z AUTO 34003KT 10SM SCT035 10/09 A2977 RMK AO2 T01030085", "K1HM 280955Z AUTO 28006KT 10SM CLR 03/M03 A3013 RMK AO2 SLP222 T00281033 $", "K1HN 280955Z AUTO 00000KT 10SM BKN065 02/00 A3006 RMK AO2 SLP200 T00230000 $", "K1HW 280955Z AUTO 34013KT 10SM CLR 02/01 A3008 RMK AO2 SLP183 T00210008 $", "K1IM 280955Z AUTO 16009KT 10SM CLR 03/M02 A3015 RMK AO2 SLP232 T00261021 $", "K1IN 280955Z AUTO 32009KT 10SM CLR 01/M00 A3005 RMK AO2 SLP197 T00081004 $", "K1IW 280955Z AUTO 35008KT 10SM FEW021 FEW028 SCT050 02/00 A3009 RMK AO2 SLP185 T00200001 $", "K1JM 280955Z AUTO 22003KT 10SM CLR 01/M03 A3014 RMK AO2 SLP229 T00051034 $", "K1JN 280955Z AUTO 32006KT 10SM OVC070 03/02 A3005 RMK AO2 SLP196 T00270023 $", "K1JW 280955Z AUTO 33011KT 10SM BKN170 02/M00 M RMK AO2 SLPNO T00181005 $", "K1KM 280955Z AUTO 25014KT 10SM CLR 02/M04 A3017 RMK AO2 SLP234 T00181041 $", "K1LN 280955Z AUTO 31006KT 10SM OVC065 03/03 A3007 RMK AO2 SLP197 T00310030 $", "K1M4 280956Z AUTO 22009KT 10SM OVC006 17/17 A2972 RMK AO2 CIG 004V010 SLP052 T01670167", "K1MM 280955Z AUTO 18010KT 10SM SCT140 01/M04 A3015 RMK AO2 SLP233 T00051038 $", "K1MW 280955Z AUTO 33012KT 10SM SCT140 SCT160 02/01 A3013 RMK AO2 SLP197 T00200007 $", "K1NW 280955Z AUTO 36010KT 10SM OVC150 02/01 A3014 RMK AO2 SLP199 T00210006 $", "K1OM 280955Z AUTO 23009KT 10SM CLR 01/M03 A3013 RMK AO2 SLP225 T00101029 $", "K1ON 280955Z AUTO 34005KT 10SM CLR M01/M02 M RMK AO2 SLPNO T10081016 $", "K1OW 280955Z AUTO 34021KT 10SM SCT014 BKN170 01/M01 A3023 RMK AO2 PK WND 34030/51 SLP242 T00081007 $", "K1P1 281035Z AUTO 00000KT M1/4SM FZFG OVC002 00/00 A3026 RMK AO2 T10051005", "K1R7 281035Z AUTO 00000KT 10SM FEW044 14/14 A2981 RMK AO2 PWINO", "K1R8 281015Z AUTO 00000KT 1SM BR OVC002 20/20 A2977 RMK AO2", "K1S5 281035Z AUTO 00000KT 10SM CLR 04/02 A3015 RMK AO2 T00430018", "K1U7 281015Z AUTO 33005KT 10SM CLR M06/M07 A3029 RMK A01", "K1V4 280954Z AUTO M01/M02 A3022 RMK AO1 SLP240 T10111017", "K1V6 281015Z AUTO 23008KT 7SM -RA OVC022 04/03 A3011 RMK AO2", "K1YT 280955Z AUTO 14003KT 10SM CLR 07/01 A3013 RMK AO2 SLP206 T00710007 $", "K20U 281035Z AUTO 29007KT 10SM OVC055 05/01 A3012 RMK AO2", "K20V 281015Z AUTO 34006KT 10SM SCT100 M01/M04 A3021 RMK AO2", "K21D 281035Z AUTO 01004KT 10SM BKN065 OVC090 08/07 A2982 RMK AO2", "K22N 281035Z AUTO 04004KT 10SM OVC012 08/06 A3014 RMK AO2", "K24A 281025Z AUTO 00000KT 1/4SM VCTSFG BKN001 OVC019 12/11 A2979 RMK AO2 LTG DSNT NW T01160115", "K24J 281035Z AUTO 00000KT 3SM BR BKN003 OVC018 17/17 A2983 RMK A01", "K28J 281015Z AUTO 00000KT 10SM CLR 16/16 A2986 RMK AO2", "K2A0 281015Z AUTO 00000KT 2SM BR OVC006 15/15 A2970 RMK A01", "K2C8 281035Z AUTO 32008KT 10SM CLR 02/02 A3002 RMK AO2", "K2D5 281035Z AUTO 33012KT 10SM BKN060 OVC075 03/03 A3001 RMK AO2", "K2DP 281030Z AUTO 13004KT 10SM -RA BKN007 OVC014 M A2983 RMK AO2 CIG 007V015 SLPNO ALSTG ESTMD $", "K2G2 281015Z AUTO 10008G13KT 6SM BR SCT043 BKN050 OVC070 12/12 A2981 RMK A01", "K2G4 281025Z AUTO 12019G26KT 1 3/4SM RA BR OVC004 08/08 A2990 RMK AO2", "K2G9 281015Z AUTO 14008G16KT 080V160 10SM RA BKN009 OVC014 09/08 A2993 RMK AO2 P0004", "K2I0 281015Z AUTO 00000KT 5SM BR OVC003 14/12 A2970 RMK AO2 T01350123", "K2IS 281015Z AUTO 17006KT 10SM CLR 19/18 A2990 RMK AO2 T01930180", "K2J3 281015Z AUTO 24005KT 10SM BKN044 18/17 A2980 RMK AO2 T01770172", "K2J5 281015Z AUTO 19003KT 10SM BKN006 18/17 A2979 RMK AO2 T01760172", "K2J9 281035Z AUTO 00000KT 7SM OVC005 20/20 A2980 RMK AO2", "K2M2 281015Z AUTO 00000KT 10SM FEW007 SCT011 OVC034 16/16 A2968 RMK A01", "K2P2 281015Z AUTO 03003KT 10SM BKN100 OVC120 04/04 A2991 RMK AO2 T00400038", "K2R9 281015Z AUTO 00000KT 3SM BR CLR 16/15 A2979 RMK AO2 T01560152", "K2V5 281015Z AUTO 34018G26KT 10SM CLR 03/00 A3009 RMK AO2", "K2V6 281019Z AUTO 34016G21KT 10SM CLR 02/00 A3010 RMK AO2", "K2W6 281029Z AUTO 08007KT 7SM OVC005 13/12 A2999 RMK AO1 P0003", "K2WX 280956Z AUTO 30010KT 04/02 A3009 RMK AO1 SLP203 T00440017", "K33N 281015Z AUTO 08011G17KT 10SM CLR 12/10 A3006 RMK A01", "K33V 281015Z AUTO 34008KT 10SM CLR M05/M07 A3023 RMK AO1", "K35A 281035Z AUTO 00000KT 7SM -RA BKN008 OVC013 15/15 A2981 RMK A02 P0008 T01550152", "K38S 281030Z AUTO 00000KT 10SM M01/M03 A3031 ", "K3AU 281015Z AUTO 00000KT 4SM BR SCT060 OVC100 08/07 A2983 RMK AO2", "K3D2 281015Z AUTO 01004KT 10SM BKN110 05/02 A2989 RMK AO2 T00450017", "K3F3 281015Z AUTO 15006KT 10SM CLR 11/10 A2984 RMK AO2 T01100104", "K3K3 281015Z AUTO 36023G31KT 10SM BKN018 OVC027 07/04 A2999 RMK AO2", "K3L4 281015Z AUTO 14003KT 10SM CLR 19/17 A2981 RMK A01", "K3N8 281035Z AUTO 34010KT 10SM OVC080 04/03 A2995 RMK AO2 T00350028", "K3R7 281035Z AUTO 00000KT 10SM CLR 14/14 A2982 RMK AO2 T01400140", "K3S8 281015Z AUTO 00000KT 10SM CLR 12/09 A2999 RMK AO2", "K3T5 281035Z AUTO 00000KT 10SM CLR 15/15 A2976 RMK AO2 T01520152 $", "K3U3 281030Z AUTO 00000KT 10SM 00/M05 A3028 ", "K40B 281016Z AUTO 00000KT M02/M02 A3023 RMK AO1 SLP255 T10211018 52010 P0001", "K40U 281015Z AUTO 29003KT 10SM CLR M03/M05 A3032 RMK AO2 T10251048", "K41U 281035Z AUTO 06005KT 10SM CLR 03/M03 A3020 RMK AO1 T00251032", "K42J 281035Z AUTO 13004KT 10SM FEW019 SCT027 SCT033 17/17 A2984 RMK A01", "K46D 281035Z AUTO 34006KT 10SM BKN023 OVC095 03/02 A3006 RMK AO2", "K46U 281015Z AUTO 00000KT 10SM CLR M02/M07 A3034 RMK A01", "K48A 281015Z AUTO 19004KT 10SM OVC006 18/18 A2980 RMK AO2 T01820179", "K49A 281015Z AUTO 16004KT 10SM OVC005 15/15 A2975 RMK AO2", "K4A6 281035Z AUTO 00000KT 9SM SCT015 BKN022 OVC070 17/17 A2971 RMK AO2 LTG DSNT NE", "K4A9 281015Z AUTO 21004KT 10SM OVC009 16/16 A2971 RMK AO2 T01620156", "K4BM 281015Z AUTO 36009G15KT 330V030 OVC002 M08/M10 A3014 RMK AO2 PWINO", "K4F2 281015Z AUTO 00000KT 1/2SM FG VV005 10/10 A2979 RMK AO2 T01010100", "K4I3 281035Z AUTO 09009G17KT 5SM +RA BKN006 OVC011 11/11 A2976 RMK AO2 P0004", "K4M9 281035Z AUTO 34005KT 5SM BR OVC010 13/13 A2975 RMK AO2 PWINO", "K4MR 280955Z AUTO 02021G30KT 10SM FEW028 SCT180 10/05 A2985 RMK AO2 PK WND 03032/38 SLP039 T01000050 $", "K4R5 281035Z AUTO 02005KT 5SM DZ OVC030 03/03 A2992 RMK AO2 P0002 T00300030", "K4S1 281015Z AUTO 00000KT 7SM CLR 08/08 A2991 RMK AO2", "K4S2 281015Z AUTO 00000KT 10SM CLR 07/03 A3013 RMK AO2", "K4U6 281025Z AUTO 27008KT 10SM 01/01 A3011 RMK A01 Circle ", "K4V0 281015Z AUTO 07005KT 10SM CLR 03/M02 A3026 RMK AO2 T00321025", "K4V1 281015Z AUTO 01013G18KT 10SM OVC009 02/01 A3013 RMK AO2 T00180009", "K54A 281015Z AUTO 16006KT 10SM SCT120 24/22 A2988 RMK AO2", "K54J 281035Z AUTO 00000KT 5SM BR CLR 19/18 A2979 RMK AO2 T01850181", "K57C 281035Z AUTO 00000KT 7SM CLR 01/01 A2985 RMK AO2 T00060006", "K5A6 281015Z AUTO 00000KT 10SM 15/15 A2975 RMK AO2 T01540145", "K5C1 281015Z AUTO 21007KT 7SM OVC004 17/17 A2980 RMK AO1", "K5H4 281035Z AUTO 00000KT 10SM SCT018 BKN095 02/M09 A3007 RMK AO2", "K5R8 280955Z AUTO 00000KT 10SM CLR 12/11 A2980 RMK AO2 T01150110", "K5SM 281015Z AUTO 05003KT 10SM BKN004 OVC009 M06/M08 A3022 RMK AO2", "K5T9 281015Z AUTO 16003KT 10SM CLR 18/18 A2974 RMK A01", "K63S 281015Z AUTO 00000KT 10SM OVC090 02/M02 A3021 RMK A01", "K65S 281015Z AUTO 00000KT 10SM CLR 04/M02 A3023 RMK AO2", "K66R 281015Z AUTO 00000KT 10SM CLR 16/15 A2978 RMK AO2 T01560151", "K6A1 281015Z AUTO 34003KT 7SM BKN003 OVC020 17/17 A2979 RMK AO2 T01710171", "K6A2 281015Z AUTO 19004KT 7SM OVC021 16/15 A2977 RMK AO2", "K6B0 281035Z AUTO 00000KT 10SM CLR 00/00 A3021 RMK AO2 T10011003", "K6B9 281035Z AUTO 12008G15KT 9SM CLR 08/08 A3009 RMK AO2", "K6I2 281015Z AUTO 18005KT 10SM BKN006 BKN023 BKN028 15/15 A2969 RMK AO2", "K6L4 281035Z AUTO 21005KT 10SM OVC035 14/14 A2973 RMK AO2", "K6P9 281015Z AUTO 08005KT 10SM CLR 11/10 A2975 RMK AO2 T01070095", "K6R3 281015Z AUTO 00000KT 7SM CLR 12/11 A2980 RMK AO2 T01170112 TSNO", "K6R6 280951Z AUTO 30005KT 14/03 A2976 RMK AO1 SLP047 T01390028 NN^NU", "K6S0 281015Z AUTO 24018G24KT 10SM CLR 02/M05 A3022 RMK A01", "K6S2 281035Z AUTO 00000KT 10SM CLR 07/07 A2992 RMK AO2", "K6S8 281025Z AUTO 27006KT 10SM M02/M03 A3023 RMK A01 LAUREL", "K77S 281035Z AUTO 00000KT 1 1/4SM BR CLR 09/09 A2994 RMK A01", "K79J 280956Z AUTO 26004KT 10SM -RA OVC009 21/18 A2977 RMK AO2 SLP078 P0000 T02060178", "K7BM 281015Z AUTO 07003KT 4SM -SN SCT004 SCT017 BKN036 M03/M05 A3014 RMK AO2", "K7L2 281035Z AUTO 28003KT 1/4SM FZFG VV002 M00/M00 A3007 RMK AO2", "K7W4 281015Z AUTO 7SM OVC006 13/13 A2990 RMK AO1 P0005 T01320130", "K81R 281015Z AUTO 00000KT 10SM CLR 15/12 A2975 RMK AO2 T01540116", "K82C 281015Z AUTO 00000KT 10SM CLR 06/01 A2983 RMK AO2 T00590005", "K8A0 281015Z AUTO 23004KT 7SM OVC009 17/16 A2971 RMK AO2", "K8A3 281015Z AUTO 00000KT 3SM BR SCT003 OVC029 14/14 A2970 RMK A01", "K8B0 281035Z AUTO 00000KT 1 1/4SM BR CLR M02/M02 A3023 RMK AO2", "K8D3 280956Z AUTO 35016KT 07/04 A2994 RMK AO1 SLP138 P0007 T00720044", "K8T6 281015Z AUTO 00000KT 1/2SM FG OVC002 17/17 A2978 RMK AO2", "K8W2 281035Z AUTO 04006KT 7SM OVC020 A2991 RMK AO1 P0003", "K96D 281035Z AUTO 31005KT 10SM OVC011 02/02 A3003 RMK AO2", "K9A5 281015Z AUTO 17003KT 2 1/2SM OVC003 15/15 A2973 RMK AO2 T01450145", "K9D7 281035Z AUTO 34007KT 10SM CLR M01/M01 A3006 RMK AO2 TSNO", "K9L2 280955Z AUTO 36005KT M M M M M RMK AO2 SLPNO RVRNO $", "K9MN 281015Z AUTO 19008KT 10SM SCT070 12/M01 A2978 RMK AO1 T01161014", "K9S9 281015Z AUTO 13009KT 10SM CLR 10/00 A3016 RMK AO2 PWINO", "K9V9 281015Z AUTO 34016G20KT 10SM SCT014 OVC034 06/06 A3001 RMK AO2 T00550055", "KA39 281015Z AUTO 10009KT 10SM CLR 16/M08 A2984 RMK AO2", "KAAA 281015Z AUTO 00000KT 10SM CLR 09/04 A2979 RMK AO2 T00880041", "KAAO 280954Z AUTO 00000KT 5SM BR BKN034 OVC055 10/08 A2982 RMK AO2 SLP096 T01000083", "KAAS 281015Z AUTO 20003KT 10SM SCT005 SCT008 OVC013 14/13 A2974 RMK AO1", "KAAT 280955Z AUTO 00000KT 10SM CLR 05/01 A3011 RMK AO2 SLP168 T00500006", "KABE 280951Z 07009KT 9SM OVC013 09/07 A3013 RMK AO2 SLP202 T00890067 $", "KABH 281033Z AUTO 03024G31KT 7SM -SN SCT013 BKN018 BKN025 OVC032 02/M01 A3012 RMK AO2 RAB27E33SNB33 CIG 014V020 SLP182", "KABI 280952Z 17010KT 10SM CLR 17/07 A2968 RMK AO2 SLP029 T01720067", "KABQ 280952Z 35007KT 10SM FEW001 SCT240 SCT300 14/M09 A2992 RMK AO2 SLP062 FU FEW001 FU S-SW T01441089", "KABR 280953Z AUTO 35016KT 10SM OVC075 06/04 A2999 RMK AO2 SLP158 T00610039", "KABY 281028Z AUTO 18004KT 8SM OVC004 19/18 A2981 RMK AO2 T01890178 $", "KACB 281035Z AUTO 00000KT 10SM CLR 01/00 A2995 RMK AO2 T00110003", "KACJ 281035Z AUTO 21003KT 2SM BR OVC001 18/18 A2979 RMK AO2 T01780178", "KACK 281002Z 00000KT 10SM CLR 03/03 A3023 RMK AO2 T00280028", "KACP 281015Z AUTO 00000KT 7SM CLR 11/09 A2980 RMK AO2", "KACQ 281035Z AUTO 10SM CLR 07/06 A2981 RMK AO2", "KACT 280951Z 09003KT 10SM CLR 11/11 A2977 RMK AO2 SLP078 T01110106", "KACV 281000Z AUTO 13003KT 1/2SM R32/2600V4000FT FG VV002 10/09 A2992 RMK AO2 T01000094", "KACY 281015Z AUTO 08010KT 10SM SCT009 11/09 A3011 RMK AO2 T01110094", "KACZ 281025Z AUTO 00000KT 10SM SCT070 OVC090 18/17 A2980 RMK AO2 T01790174", "KADC 281015Z AUTO 36006KT 10SM -RA SCT043 SCT060 BKN080 07/04 A2989 RMK AO", "KADF 280956Z AUTO 00000KT 10SM CLR 11/11 A2979 RMK AO2 SLP084 T01110111", "KADG 280953Z AUTO 05009KT 10SM SCT060 OVC085 08/02 A2984 RMK AO2 RAB23E40 SLP107 P0000 T00830022", "KADH 281015Z AUTO 00000KT 5SM BR CLR 09/09 A2983 RMK AO2", "KADM 281015Z AUTO 00000KT 10SM CLR 07/07 A2983 RMK AO2", "KADS 281015Z AUTO 11004KT 10SM CLR 12/11 A2981 RMK AO2 T01230110", "KADT 281015Z AUTO 35018G26KT 10SM OVC025 07/02 A3008 RMK AO2 T00730019", "KADU 281015Z AUTO 00000KT 10SM SCT060 SCT070 BKN080 06/03 A2978 RMK AO2", "KADW 281023Z AUTO 07009KT 5SM -RA BR SCT005 OVC013 13/12 A2996 RMK AO2 CIG 011 RWY19L SLP152", "KAEG 281035Z AUTO 32008G14KT 10SM CLR 10/M08 A2994 RMK AO2 T00951082", "KAEJ 281015Z AUTO 25003KT 2SM -SN SCT008 BKN013 OVC023 M01/M02 A3014 RMK AO2 T10101020", "KAEL 281015Z AUTO 00000KT 10SM 08/04 A2978 RMK AO2", "KAEX 281003Z 00000KT 3SM BR CLR 11/11 A2979 RMK AO2 T01110111", "KAFF 281002Z AUTO 35017G27KT 10SM -RA FEW002 BKN018 OVC024 00/M01 A3013 RMK AO2 SNE0956RAB0956 BKN V OVC SLP169", "KAFJ 280956Z AUTO 11009G18KT 8SM RA OVC075 12/11 A2987 RMK AO2 SLP113 P0009 T01220111", "KAFK 281015Z AUTO 26006KT 10SM SCT060 OVC080 12/06 A2979 RMK AO2 T01160061", "KAFN 281021Z AUTO 00000KT 8SM SCT002 01/M01 A3023 RMK AO2 T00061011", "KAFO 281010Z AUTO 00000KT 10SM CLR M04/M18 A3031 RMK AO2", "KAFP 281029Z AUTO 18004KT 10SM SCT008 BKN060 OVC070 18/17 A2976 RMK AO2 T01800173", "KAFW 280953Z COR 15004KT 10SM SCT250 12/10 A2978 RMK AO2 SLP082 T01170100", "KAGC 280953Z 12007KT 8SM -RA OVC070 13/11 A2987 RMK AO2 SLP115 P0002 T01330106", "KAGI 281015Z AUTO 00000KT 10SM CLR 23/18 A2981 RMK AO2 T02320181", "KAGO 281035Z AUTO 00000KT 1 3/4SM BR SCT002 10/10 A2977 RMK A01", "KAGS 281003Z AUTO 22004KT 10SM FEW011 SCT020 OVC049 18/18 A2976 RMK AO2 T01830178", "KAHN 281013Z AUTO 00000KT 1/2SM FG VV002 15/15 A2976 RMK AO2 T01500150", "KAHQ 281015Z AUTO 33012KT 10SM OVC050 12/10 A2980 RMK AO2 T01170098", "KAIA 280953Z AUTO 30012KT 10SM OVC080 04/01 A3010 RMK AO2 RAB0856E06 SLP185 P0000 T00390011", "KAID 281035Z AUTO 32006KT 3SM -RA OVC007 07/05 A2974 RMK AO2 P0015 T00670051", "KAIG 281035Z AUTO 00000KT 10SM SCT070 BKN110 05/01 A2988 RMK AO2 T00460014", "KAIK 281035Z AUTO 23006KT 10SM OVC007 18/18 A2978 RMK AO2 T01830177", "KAIO 281015Z AUTO 36004KT 10SM FEW065 OVC085 05/05 A2978 RMK AO2", "KAIT 281035Z AUTO 00000KT 10SM OVC009 05/04 A2989 RMK AO2", "KAIZ 280956Z AUTO 30003KT 10SM OVC065 11/08 RMK AO2 SLPNO T01060083 $", "KAJG 281015Z AUTO 35007KT 7SM BKN009 OVC018 12/11 A2972 RMK AO2 T01200110", "KAJO 281001Z AUTO 25003KT 1/2SM FG BKN002 11/11 A2993 RMK AO2", "KAJR 281015Z AUTO 00000KT 7SM OVC006 15/15 A2976 RMK AO2 T01510151", "KAJZ 281015Z AUTO 29013G18KT 10SM SCT060 08/00 A3011 RMK AO2 T00761004 PWINO", "KAKH 281018Z AUTO 00000KT 1 3/4SM BR CLR 14/14 A2975 RMK AO2 T01440144", "KAKO 280953Z AUTO 34013KT 10SM CLR 01/M01 A3012 RMK AO2 SLP193 T00061006 TSNO", "KAKQ 281033Z AUTO 07013G20KT 2 1/2SM +RA BR FEW011 BKN018 OVC024 14/13 A2988 RMK AO2 VIS 1 3/4V4 P0033 T01390128", "KAKR 280954Z AUTO VRB03KT 10SM -RA SCT039 BKN080 OVC095 15/06 A2983 RMK AO2 RAB48 SLP097 P0000 T01500061", "KALB 280951Z 00000KT 10SM BCFG FEW010 SCT260 04/03 A3021 RMK AO2 SLP232 BCFG NE T00440028", "KALI 281013Z AUTO 19005KT 1/4SM FG VV002 19/19 A2978 RMK AO2 T01940194", "KALK 280956Z AUTO 25008KT 10SM CLR 12/M07 A3002 RMK AO2 SLP082 T01221072", "KALM 281035Z AUTO 05006KT 10SM FEW039 BKN048 14/M12 A2985 RMK AO2", "KALN 281015Z AUTO 00000KT 10SM OVC080 12/10 A2978 RMK AO2 T01160097", "KALO 280954Z 12003KT 10SM BKN075 06/01 A2979 RMK AO2 SLP086 T00610006", "KALS 280952Z AUTO 11019G34KT 10SM BKN070 BKN090 01/M04 A2998 RMK AO2 PK WND 12034/0944 UPB01E22 SLP090 P0000 T00111039", "KALW 280953Z AUTO 10007KT 10SM CLR 11/M02 A3013 RMK AO2 SLP201 T01111017", "KAMA 280953Z AUTO 04019G26KT 10SM FEW014 OVC034 11/08 A2985 RMK AO2 PK WND 04030/0918 SLP070 T01110083", "KAMG 280953Z AUTO 17004KT 10SM OVC008 19/18 A2980 RMK AO2 SLP089 T01890183", "KAMN 281035Z AUTO 01003KT 10SM CLR 05/00 A2989 RMK AO2 T00450004", "KAMW 280953Z AUTO 00000KT 10SM SCT075 06/03 A2979 RMK AO2 SLP084 T00610033", "KANB 280953Z AUTO 23003KT 10SM OVC011 17/16 A2973 RMK AO2 SLP061 T01720161", "KAND 280956Z AUTO 00000KT 10SM OVC004 16/15 A2975 RMK AO2 SLP070 T01560150", "KANE 281035Z AUTO 01004KT 7SM RA OVC030 09/09 A2982 RMK AO2 P0006", "KANJ 280955Z AUTO 09003KT 10SM OVC055 05/01 A2999 RMK AO2 SLP158 T00500011", "KANK 281010Z AUTO 13005KT 1 3/4SM BKN003 OVC008 00/00 A3021 RMK AO1 T00011003", "KANQ 281035Z AUTO 00000KT 7SM -RA FEW034 BKN042 OVC048 06/06 A2981 RMK AO2", "KANW 281015Z AUTO 34021G25KT 10SM -RA OVC008 05/04 A3000 RMK AO2 T00450035", "KAOH 281031Z AUTO 04009G16KT 5SM -RA BR SCT013 BKN028 OVC055 08/06 A2974 RMK AO2 P0002 T00780061", "KAOO 280953Z AUTO 12010G19KT 9SM OVC011 12/08 A2998 RMK AO2 SLP150 T01170083", "KAPA 280953Z 36016G26KT 10SM -RASN OVC022 02/ A3018 RMK AO2 PK WND 36026/0938 SNB0855 SLP202 P0000 T0017 $", "KAPC 280954Z AUTO 15003KT 10SM CLR 12/10 A2990 RMK AO2 SLP116 T01220100", "KAPF 280953Z 08003KT 10SM CLR 21/18 A2988 RMK AO2 SLP118 T02110183", "KAPG 280955Z 08013KT 10SM OVC022 12/08 A3006 RMK AO2A SLP182 T01150084 $", "KAPN 280954Z AUTO 15003KT 10SM CLR 04/02 A2997 RMK AO2 SLP156 T00390017", "KAPS 281016Z AUTO 00000KT 2SM BR CLR 17/17 A2981 RMK AO2", "KAPY 281015Z AUTO 14003KT 7SM OVC007 22/21 A2978 RMK AO2 T02150207 TSNO", "KAQO 281015Z AUTO 00000KT 9SM FEW029 FEW038 SCT060 12/08 A2975 RMK AO2", "KAQP 281033Z AUTO 03013KT 10SM 07/05 A2989 RMK AO2", "KAQV 280957Z AUTO 00000KT 7SM CLR 11/08 A2978 RMK AO2 SLP083 T01060083", "KAQW 280952Z AUTO 00000KT 4SM BR CLR 00/M01 A3021 RMK AO2 SLP236 T00001011", "KAQX 281035Z AUTO 00000KT 10SM FEW005 FEW012 OVC017 19/18 A2978 RMK AO2", "KARA 281026Z AUTO 17003KT 1 3/4SM BR CLR 14/13 A2982 RMK AO2 T01440133", "KARB 280953Z AUTO 06006KT 10SM SCT110 07/01 A2984 RMK AO2 SLP107 T00720006", "KARG 280956Z AUTO 33007KT 9SM OVC008 13/13 A2975 RMK AO2 SLP073 T01280128", "KARM 281015Z AUTO 10003KT 4SM BR OVC011 16/16 A2979 RMK AO2 T01560156 TSNO", "KART 280956Z AUTO 07004KT 10SM CLR 00/M01 A3012 RMK AO2 SLP201 T00001011", "KARV 281035Z AUTO 12008KT 7SM -RA SCT039 SCT046 OVC060 06/05 A2985 RMK AO2 T00570048", "KARW 281035Z AUTO 24006KT 10SM BKN012 BKN017 19/17 A2979 RMK AO2", "KASD 280953Z AUTO 00000KT 10SM CLR 18/17 A2978 RMK AO2 SLP086 T01830172", "KASE 280953Z 00000KT 10SM FEW015 BKN038 OVC095 00/M03 A3011 RMK AO2 UPE0854B10E25 SLP132 P0000 T00001028", "KASH 280956Z AUTO 30003KT 10SM CLR 02/02 A3024 RMK AO2 SLP246 T00220022", "KASJ 281025Z AUTO 05003KT 10SM -RA OVC005 15/15 A2984 RMK AO2 P0001 T01500150", "KASL 281035Z AUTO 00000KT 8SM CLR 09/09 A2978 RMK AO2 T00870087 $", "KASN 281015Z AUTO 20006KT 10SM OVC011 18/17 A2973 RMK AO2 LTG DSNT N AND S T01760168", "KAST 280955Z AUTO 13003KT 10SM CLR 12/08 A2999 RMK AO2 SLP154 T01170078", "KASW 281015Z AUTO 02003KT 7SM RA SCT037 SCT043 OVC060 06/05 A2981 RMK AO2 P0002 T00650050", "KASX 280953Z AUTO 03009KT 7SM -RA BKN002 OVC028 04/04 A2991 RMK AO2 SLP137 P0001 T00440039", "KATA 281035Z AUTO 00000KT 7SM CLR 08/08 A2978 RMK AO2 SLP985 T00820082 $", "KATL 280952Z 18003KT 1/2SM R09R/P6000FT BR OVC003 16/16 A2975 RMK AO2 SFC VIS 3 SLP071 TWRINC T01610156", "KATP 281020Z AUTO 30003KT 6SM BR BKN019 OVC026 23/22 A2982 RMK A01", "KATS 281035Z AUTO 36026G32KT 10SM CLR 16/03 A2985 RMK AO2", "KATT 280951Z AUTO 00000KT 10SM CLR 15/14 A2977 RMK AO2 SLP071 T01500144 $", "KATW 281030Z 07004KT 10SM SCT120 06/00 A2986", "KATY 280953Z AUTO 36021G29KT 10SM -RA SCT011 OVC044 06/04 A2988 RMK AO2 PK WND 01034/0858 RAB16 SLP123 P0000 T00560044 $", "KAUG 280953Z AUTO 01005KT 10SM CLR 03/02 A3023 RMK AO2 SLP239 T00280017", "KAUH 281015Z AUTO 33020KT 10SM -RA BKN011 OVC015 08/07 A2986 RMK AO2 P0001 T00830073", "KAUM 281016Z AUTO 20006KT 10SM SCT080 SCT090 11/02 A2978 RMK AO2", "KAUN 281015Z AUTO 09008KT 10SM CLR 19/06 A2992 RMK A01", "KAUO 281021Z AUTO 19008KT 1 3/4SM BR OVC002 16/16 A2979 RMK AO2 PNO $", "KAUS 280953Z 00000KT 10SM CLR 13/13 A2976 RMK AO2 SLP071 T01330128 $", "KAUW 280954Z AUTO 08005KT 9SM BKN080 OVC110 08/00 A2984 RMK AO2 SLP111 T00830000", "KAVC 281035Z AUTO 00000KT 4SM OVC005 15/14 A2988 RMK AO2 P0015 T01460144", "KAVK 281025Z AUTO 00000KT 6SM BR FEW016 SCT024 OVC070 11/11 A2986 RMK AO2 PWINO", "KAVL 280954Z AUTO 00000KT 10SM OVC002 13/12 A2978 RMK AO2 SLP071 T01280117", "KAVP 280954Z 05006KT 10SM FEW050 BKN060 08/04 A3011 RMK AO2 SLP195 T00830044", "KAVQ 281015Z AUTO 11005KT 10SM 18/M05 A2986 RMK AO2 T01761049", "KAVX 280951Z AUTO 00000KT 10SM CLR 14/04 A2993 RMK AO2 SLP117 T01390039", "KAWG 281015Z AUTO 11005KT 10SM CLR 04/01 A2979 RMK AO2", "KAWM 281032Z AUTO VRB03KT 10SM OVC015 14/12 A2975 RMK AO2 T01390122", "KAWO 280956Z AUTO 33004KT 10SM CLR 07/07 A3012 RMK AO2 SLP204 T00720067", "KAXA 281015Z AUTO 34005KT 10SM FEW070 FEW080 FEW110 10/08 A2977 RMK A01", "KAXH 281015Z AUTO 00000KT 7SM CLR 14/13 A2978 RMK AO2 T01410134", "KAXN 280953Z AUTO 35009KT 10SM OVC090 06/05 A2988 RMK AO2 SLP127 T00610050", "KAXS 281015Z AUTO 06013KT 10SM SCT120 11/09 A2983 RMK AO2 T01130085", "KAXV 281035Z AUTO 04009KT 5SM -RA OVC010 07/06 A2972 RMK AO2", "KAXX 281015Z AUTO 05013KT 10SM OVC027 01/M04 A3004 RMK AO2 T00121039", "KAYS 281015Z AUTO 00000KT 10SM OVC035 18/18 A2981 RMK AO2 T01830176", "KAZC 281015Z AUTO 18008KT 10SM CLR 04/M01 A3009 RMK AO2", "KAZE 281015Z AUTO 00000KT 10SM OVC011 19/18 A2980 RMK AO2 T01860178", "KAZO 280953Z 05003KT 10SM CLR 09/00 A2985 RMK AO2 SLP108 T00890000", "KBAB 280955Z AUTO 04008KT 10SM CLR 21/08 A2984 RMK AO2 SLP107 T02050082 $", "KBAC 281035Z AUTO 32007KT 10SM BKN070 BKN080 OVC095 02/02 A3002 RMK AO2", "KBAD 280955Z AUTO 33003KT 10SM CLR 12/10 A2977 RMK AO2 SLP084 T01200102", "KBAF 280953Z AUTO 35005KT 1/4SM R20/1200V1400FT FG VV002 06/05 A3023 RMK AO2 SLP238 T00560050", "KBAK 281030Z 36008KT 7SM OVC012 09/08 A2970 RMK FIRST", "KBAM 281015Z AUTO 09003KT 10SM CLR 08/00 A3019 RMK AO1", "KBAN 280952Z AUTO 00000KT 10SM CLR 01/M05 A3023 RMK AO2 SLP175 T00111050 $", "KBAX 281035Z AUTO 09004KT 10SM CLR 05/03 A2992 RMK AO2 T00500025", "KBAZ 281031Z AUTO 22006KT 1 3/4SM BR OVC003 19/18 A2976 RMK AO2 T01890183", "KBBB 281016Z AUTO 03009G14KT 10SM SCT009 OVC024 07/06 A2988 RMK AO2", "KBBD 281015Z AUTO 21008KT 10SM CLR 16/12 A2973 RMK AO2", "KBBG 281035Z AUTO 00000KT 8SM OVC019 10/10 A2980 RMK AO2", "KBBP 281015Z AUTO 16004KT 10SM BKN022 OVC034 17/17 A2977 RMK AO2", "KBBW 280953Z AUTO 33024G42KT 10SM OVC013 06/03 A2992 RMK AO2 PK WND 33042/0944 SLP126 T00610033", "KBCB 281035Z AUTO 06003KT 10SM -RA BKN008 BKN019 OVC075 12/12 A2984 RMK AO2 P0013 T01170117", "KBCE 280953Z AUTO 02011KT 10SM CLR 05/M04 A3018 RMK AO2 SLP127 T00501039", "KBCK 281035Z AUTO 00000KT 10SM CLR 04/02 A2981 RMK AO2 T00360021", "KBCR 281024Z AUTO 17003KT 5SM BR BKN007 BKN012 19/18 A2979 RMK AO2 T01890183 $", "KBDE 280953Z AUTO 04007KT 10SM FEW075 03/00 A2996 RMK AO2 SLP157 T00280000 $", "KBDG 281015Z AUTO 35015G21KT 10SM 09/M05 A3015 RMK AO1 T00861055", "KBDH 281035Z AUTO 02011G15KT 5SM -RA OVC007 09/08 A2987 RMK AO2", "KBDL 281003Z 00000KT 1/8SM R06/1000V1200FT FG VV002 05/05 A3023 RMK AO2 TWR VIS 1/4 T00500050 $", "KBDN 281015Z AUTO 22003KT 10SM CLR 07/01 A3016 RMK AO2", "KBDR 281030Z 04007KT 8SM OVC010 07/07 A3021 RMK AO2 T00720067", "KBDU 281015Z AUTO 02005KT 10SM SCT085 03/M01 A3020 RMK AO2", "KBEA 281035Z AUTO 00000KT 1/4SM FG OVC003 15/14 A2979 RMK AO2 T01520144", "KBEC 281015Z AUTO 00000KT 7SM OVC060 10/10 A2983 RMK AO2 T01030103", "KBED 280959Z AUTO 00000KT M1/4SM R11/0400V0700FT FG VV002 03/02 A3022 RMK AO2 T00280022", "KBEH 280953Z AUTO 08006KT 10SM CLR 08/01 A2983 RMK AO2 SLP102 T00830006", "KBFD 280953Z AUTO 13009KT 8SM OVC011 10/07 A2998 RMK AO2 SLP148 T01000067", "KBFF 280953Z AUTO 31011KT 10SM BKN085 04/02 A3016 RMK AO2 SLP204 T00390017", "KBFI 280953Z 00000KT 10SM CLR 11/07 A3009 RMK AO2 SLP189 T01110067 $", "KBFL 280954Z AUTO 09005KT 9SM CLR 22/08 A2987 RMK AO2 SLP108 T02170083", "KBFM 280953Z 30004KT 8SM BKN008 21/19 A2978 RMK AO2 SLP084 T02060189", "KBFR 281035Z AUTO 36006KT 10SM OVC009 10/08 A2969 RMK AO2 LTG DSNT SE", "KBGD 281027Z AUTO 34009KT 10SM BKN016 BKN020 OVC055 12/08 A2992 RMK AO2 T01220083", "KBGE 281015Z AUTO 22005KT 7SM OVC009 20/19 A2979 RMK AO2 T01970191", "KBGF 281015Z AUTO 23004KT 10SM FEW014 SCT029 BKN043 17/16 A2968 RMK A01", "KBGM 280953Z AUTO 11008KT 8SM BKN050 07/05 A3010 RMK AO2 SLP195 T00670050", "KBGR 280953Z COR 00000KT 10SM BCFG CLR 01/M01 A3023 RMK AO2 SLP237 T00111006", "KBHB 280956Z AUTO 00000KT 10SM CLR 01/01 A3022 RMK AO2 SLP236 T00110006 FZRANO", "KBHC 281015Z AUTO 00000KT 10SM OVC011 17/17 A2981 RMK AO2", "KBHK 280951Z AUTO 28006KT 10SM SCT047 OVC080 03/02 A3013 RMK AO2 SLP215 T00330017", "KBHM 280953Z 22008KT 7SM BKN010 OVC014 19/17 A2974 RMK AO2 CIG 008V013 SLP063 T01890167", "KBID 280956Z AUTO 03005KT M1/4SM -RA FG OVC001 05/04 A3023 RMK AO2 RAB10 SLP238 P0000 T00500044", "KBIE 281015Z AUTO 28004KT 10SM SCT048 BKN050 OVC090 09/06 A2981 RMK AO2 T00900062", "KBIF 280955Z 27018G27KT 7SM FEW250 22/M08 A2984 RMK AO2A PK WND 26027/0951 SLPNO ALSTG WND DATA ESTMD RVRNO T02171083 $", "KBIH 280956Z AUTO 35005KT 10SM CLR 08/M02 A3007 RMK AO2 SLP144 T00831017", "KBIJ 281015Z AUTO 24003KT 7SM OVC006 18/18 A2979 RMK AO2", "KBIL 280953Z 22011KT 10SM CLR 00/M04 A3021 RMK AO2 SLP247 T00001039", "KBIS 280952Z AUTO 31007KT 10SM OVC095 04/01 A3006 RMK AO2 SLP191 T00390011", "KBIV 280953Z AUTO 08004KT 10SM CLR 07/00 A2986 RMK AO2 SLP094 T00720000", "KBIX 280955Z AUTO 00000KT 10SM CLR 19/18 A2975 RMK AO2 SLP077 T01940182", "KBJC 281015Z AUTO 01010KT 10SM BKN120 02/M01 A3020 RMK AO2", "KBJI 281035Z AUTO 33004KT 10SM OVC007 04/04 A2993 RMK AO2 T00390037", "KBJJ 280956Z AUTO 00000KT 5SM -RA BR FEW037 OVC055 09/08 A2984 RMK AO2 RAB12 SLP104 P0003 T00940078 $", "KBKB 280952Z AUTO 00000KT 8SM CLR 12/11 A2978 RMK AO2 SLP109 T01170111", "KBKD 281015Z AUTO 11010G15KT 7SM CLR 14/10 A2972 RMK AO2 T01370101", "KBKE 280953Z AUTO 00000KT 10SM CLR 02/M01 A3021 RMK AO2 SLP227 T00171006", "KBKF 280958Z 36015KT 10SM SCT028 BKN180 02/M01 A3018 RMK AO2A SLP191 T00161013", "KBKL 280953Z 14012G17KT 10SM CLR 14/08 A2981 RMK AO2 SLP096 T01440078", "KBKN 281035Z AUTO 31004KT 09/09 A2984 RMK AO2", "KBKS 281035Z AUTO 20007KT 2SM BR OVC002 20/20 A2978 RMK AO2 SLP045 T02010201 $", "KBKT 281035Z AUTO 08009KT 4SM BR OVC006 12/12 A2985 RMK AO1 P0014 T01210121", "KBKV 280953Z AUTO 00000KT 10SM CLR 19/19 A2987 RMK AO2 SLP111 T01940194", "KBKW 280951Z AUTO 12015KT 6SM -RA BR BKN049 OVC070 12/10 A2978 RMK AO2 SLP072 P0009 T01170100", "KBKX 280956Z AUTO 01016G22KT 10SM OVC007 07/06 A2985 RMK AO2 SLP126 T00670056", "KBLF 280959Z AUTO 13005KT 8SM -RA BKN010 OVC042 11/10 A2980 RMK AO2 P0000 T01060100", "KBLI 280953Z AUTO 00000KT 10SM CLR 07/07 A3012 RMK AO2 SLP207 T00720072", "KBLM 281008Z AUTO 07008KT 10SM FEW010 SCT065 10/ A3016 RMK AO2", "KBLU 280952Z AUTO 09003KT 10SM CLR 16/M06 A3012 RMK AO2 SLP110 T01561056", "KBLV 280955Z 33004KT 8SM OVC080 11/09 A2976 RMK AO2A SLP081 T01080092 $", "KBMC 281010Z AUTO 15012KT 10SM CLR 09/M06 A3022 RMK AO1 T00861065", "KBMG 280953Z AUTO 01005KT 8SM BKN006 OVC026 11/09 A2969 RMK AO2 SLP052 T01060094", "KBMI 280956Z AUTO 05004KT 10SM CLR 08/02 A2980 RMK AO2 SLP087 T00780017", "KBML 280952Z AUTO 00000KT 1/4SM FZFG VV002 M01/M02 A3024 RMK AO2 SLP251 I1000 T10061017", "KBMQ 280953Z AUTO 19006KT 10SM CLR 14/12 A2977 RMK AO2 SLP068 T01440122", "KBMT 281015Z AUTO 00000KT 1/2SM FG VV005 13/13 A2980 RMK AO2 T01300125", "KBNA 280953Z 02003KT 7SM FEW003 SCT027 BKN070 16/15 A2968 RMK AO2 RAE25 TSE05 SLP046 P0001 T01610150", "KBNL 281035Z AUTO 28004KT 10SM FEW006 BKN020 OVC026 19/19 A2979 RMK AO2", "KBNO 280953Z AUTO 29004KT 10SM CLR 04/01 A3018 RMK AO2 SLP203 T00390011 $", "KBNW 281015Z AUTO 00000KT 10SM OVC080 09/06 A2977 RMK AO2", "KBOI 280953Z 13008KT 10SM CLR 09/M02 A3021 RMK AO2 SLP217 T00891022", "KBOK 281008Z AUTO 00000KT 1/2SM FG OVC003 09/09 A2992 RMK AO2", "KBOS 280954Z 28006KT 8SM FEW015 FEW200 SCT250 08/06 A3024 RMK AO2 SLP238 T00780056 $", "KBOW 281035Z AUTO 18005KT 10SM CLR 20/19 A2988 RMK AO2", "KBPC 281015Z AUTO 00000KT 10SM SCT065 BKN120 11/08 A2987 RMK AO2", "KBPG 281015Z AUTO 18014KT 10SM CLR 19/M02 A2969 RMK AO2 T01891019", "KBPI 280953Z AUTO 17004KT 10SM CLR M06/M07 A3030 RMK AO2 SLP257 T10611067", "KBPK 281031Z AUTO 00000KT 7SM OVC003 12/11 A2977 RMK AO2 CIG 002V006 T01170111", "KBPT 280953Z AUTO 33003KT 10SM CLR 14/13 A2978 RMK AO2 SLP085 T01440128", "KBQK 281015Z AUTO 21004KT 10SM SCT039 17/17 A2982 RMK AO2 T01720167", "KBQP 281015Z AUTO 00000KT 10SM CLR 12/12 A2978 RMK AO2 T01220120", "KBRD 280953Z AUTO 35005KT 10SM SCT110 06/04 A2988 RMK AO2 SLP124 T00560039", "KBRG 281035Z AUTO 33009KT 10SM CLR 10/M12 A2993 RMK AO2 T01041119", "KBRL 280953Z AUTO 33003KT 10SM CLR 07/01 A2979 RMK AO2 SLP086 T00720006", "KBRO 280953Z AUTO 03003KT 6SM BR CLR 22/21 A2977 RMK AO2 SLP078 T02220211", "KBRY 281035Z AUTO 00000KT 6SM BR SCT008 OVC031 14/14 A2966 RMK AO2 T01440144", "KBTA 281015Z AUTO 29007KT 10SM SCT060 OVC085 12/09 A2979 RMK AO2 T01170091", "KBTL 280953Z AUTO 05004KT 10SM CLR 08/00 A2985 RMK AO2 SLP106 T00780000", "KBTM 280953Z AUTO 00000KT 10SM CLR M03/M06 A3029 RMK AO2 SLP280 T10331056", "KBTN 281010Z AUTO 35010KT 10SM FEW010 BKN065 OVC080 05/05 A2997 RMK AO2", "KBTP 281016Z AUTO 10009KT 10SM -RA BKN029 OVC040 13/10 A2989 RMK AO2 RAB0959 P0000 TSNO $", "KBTR 280953Z 00000KT 10SM CLR 17/15 A2980 RMK AO2 SLP091 T01670150", "KBTV 280954Z 18003KT 10SM CLR 02/00 A3020 RMK AO2 SLP230 T00220000", "KBUF 280954Z 12008KT 10SM BKN250 10/04 A2998 RMK AO2 SLP154 T01000044", "KBUR 280953Z 16003KT 4SM BR BKN005 12/11 A2992 RMK AO2 SLP119 T01220111", "KBUU 281035Z AUTO 00000KT 10SM CLR 01/00 A2985 RMK AO2 T00061003 PWINO", "KBUY 281014Z AUTO 14004KT 4SM -RA BR SCT006 BKN010 OVC016 17/16 A2976 RMK AO2 CIG 007V014 P0004 T01670161", "KBVI 281035Z AUTO 11004KT 7SM RA SCT021 SCT055 OVC065 13/11 A2986 RMK AO2 T01340105", "KBVN 281015Z AUTO 33021G28KT 10SM -RA OVC009 07/06 A2986 RMK AO2 T00720060", "KBVO 281032Z AUTO 00000KT 3/4SM BR VV012 09/08 A2984 RMK AO2 T00890083", "KBVS 281015Z AUTO 00000KT 10SM CLR 08/08 A3012 RMK A01", "KBVU 281035Z AUTO 35010KT 10SM CLR 23/M07 A2990 RMK AO2", "KBVX 281008Z AUTO 00000KT 10SM SCT007 OVC025 13/13 A2976 RMK AO2", "KBVY 280953Z AUTO 23003KT M1/4SM FG VV001 02/02 A3022 RMK AO2 SLP230 T00220022", "KBWD 281015Z AUTO 14005KT 10SM CLR 12/09 A2973 RMK AO1", "KBWG 281025Z AUTO 00000KT 10SM SCT004 BKN011 OVC030 16/14 A2969 RMK AO2 RAE09 P0000 T01560144", "KBWI 280954Z 08014KT 10SM OVC011 13/11 A3002 RMK AO2 SLP165 T01330111", "KBWP 281015Z AUTO 34011G16KT 10SM OVC050 06/05 A2995 RMK AO2", "KBWW 281035Z AUTO 31009KT 10SM FEW065 OVC075 05/02 A3010 RMK AO2", "KBXA 281015Z AUTO 29004KT 10SM CLR 17/16 A2979 RMK AO2 T01700157", "KBXK 281035Z AUTO 32004KT 10SM CLR 15/M08 A2981 RMK A01", "KBYG 280953Z AUTO 31012KT 10SM FEW050 03/M04 A3020 RMK AO2 SLP235 T00281039", "KBYI 280953Z AUTO 06008KT 10SM CLR 04/M07 A3024 RMK AO2 SLP222 T00441072", "KBYL 281015Z AUTO 00000KT 10SM FEW023 BKN036 OVC050 13/13 A2972 RMK AO1", "KBYS 280955Z AUTO 05007KT 10SM CLR 18/M06 A2988 RMK AO2 SLP094 T01791061 $", "KBYY 281015Z AUTO 12003KT 1/4SM FG OVC001 15/14 A2978 RMK AO2 T01490147", "KBZN 280956Z AUTO 12004KT 10SM CLR M03/M04 A3029 RMK AO2 SLP282 T10281044 $", "KC09 281015Z AUTO 03003KT 10SM CLR 06/02 A2981 RMK AO2 T00640015", "KC29 281035Z AUTO 00000KT 10SM CLR 01/01 A2984 RMK AO1 T00140006", "KC35 281035Z AUTO 00000KT 10SM CLR 05/00 A2984 RMK AO2 T00541001 PWINO", "KC62 281035Z AUTO 04006KT 7SM -RA OVC065 06/06 A2981 RMK AO2 P0001 T00650062", "KC65 281015Z AUTO 06005KT 9SM BKN041 OVC055 07/04 A2981 RMK A01", "KC75 281015Z AUTO 00000KT 10SM CLR 04/01 A2980 RMK AO2 T00410013", "KC83 281015Z AUTO 23010G17KT 10SM CLR 21/03 A2985 RMK AO2", "KC99 281015Z AUTO 02007KT OVC003 M08/M09 A3016 RMK AO2", "KCAD 281035Z AUTO 00000KT 10SM CLR M01/M03 A2991 RMK AO2 T10151028", "KCAE 280956Z 00000KT 10SM BKN007 OVC013 19/18 A2975 RMK AO2 SLP072 T01890178", "KCAG 280953Z AUTO 00000KT 10SM CLR 01/M04 A3022 RMK AO2 SLP212 T00061039", "KCAK 280951Z 13009KT 7SM -RA BKN030 BKN050 OVC070 13/09 A2984 RMK AO2 RAB18 SLP101 P0001 T01330094", "KCAO 281015Z AUTO 35024G33KT 10SM FEW018 OVC035 05/02 A2997 RMK AO2 PK WND 34033/1014 T00500022", "KCAR 280954Z AUTO 00000KT 10SM CLR 00/M02 A3020 RMK AO2 SLP235 T00001022", "KCAV 281015Z AUTO 17006KT 10SM FEW047 SCT060 BKN070 08/03 A2979 RMK A01", "KCBE 281025Z AUTO 13006KT 5SM RA BR SCT014 OVC070 12/11 A3000 RMK AO2 P0007 T01230107", "KCBF 281015Z AUTO 24004KT 10SM FEW049 FEW060 OVC080 12/05 A2977 RMK AO2", "KCBG 281035Z AUTO 36004KT 10SM -DZ OVC005 08/02 A2984 RMK AO2", "KCBK 281015Z AUTO 33019G25KT 10SM SCT025 BKN050 OVC110 06/03 A3001 RMK AO2 T00600027", "KCBM 280955Z 23005KT 10SM OVC060 15/14 A2968 RMK AO2A SLP052 T01490143 $", "KCCA 281035Z AUTO 00000KT 10SM OVC028 11/11 A2978 RMK AO2", "KCCB 281015Z AUTO 00000KT 8SM 14/12 A2992 RMK AO2", "KCCO 281015Z AUTO 18003KT 7SM BKN005 OVC008 16/16 A2977 RMK AO2 T01610156", "KCCR 280953Z AUTO 00000KT 10SM CLR 15/09 A2988 RMK AO2 SLP105 T01500089", "KCCU 281015Z AUTO 33009G20KT SCT001 BKN008 OVC022 M07/M10 A3015 RMK AO2 PWINO", "KCCY 281015Z AUTO 15005KT 10SM OVC070 09/00 A2979 RMK AO2", "KCDA 281035Z AUTO 00000KT 10SM M01/M01 A3023 RMK AO2 T10061010", "KCDC 280953Z AUTO 03005KT 10SM CLR 07/M02 A3014 RMK AO2 SLP157 T00671022", "KCDD 281014Z AUTO 00000KT 10SM SCT042 OVC050 02/01 A2996 RMK AO2 PWINO", "KCDH 281015Z AUTO 00000KT 5SM BR CLR 12/12 A2977 RMK AO2", "KCDI 281035Z AUTO 06007KT 4SM +RA SCT012 BKN039 OVC045 12/12 A2979 RMK AO2 T01230115", "KCDJ 280951Z AUTO 00000KT 08/06 A2980 RMK AO1 SLP090 T00780056", "KCDN 281035Z AUTO 00000KT 6SM BR OVC006 18/18 A2977 RMK AO2", "KCDR 280953Z AUTO 31012G22KT 10SM OVC080 06/02 A3014 RMK AO2 SLP216 T00560017", "KCDS 280953Z AUTO 05014G21KT 10SM CLR 11/08 A2980 RMK AO2 PK WND 04026/0926 SLP079 T01110083", "KCDW 280953Z AUTO 00000KT 7SM OVC011 09/07 A3019 RMK AO2 SLP227 T00890067", "KCEC 280956Z AUTO 16009KT 2SM BR OVC002 11/10 A2992 RMK AO2 SLP132 T01060100", "KCEF 281019Z AUTO 00000KT 3/8SM R23/3000V3500FT FG VV002 06/06 A3022 RMK AO2 SLP240", "KCEU 281029Z AUTO 00000KT 10SM OVC004 14/14 A2977 RMK AO2 T01440144", "KCEW 281019Z AUTO 00000KT 1/4SM FG VV007 19/17 A2979 RMK AO2 T01890167 $", "KCEY 281035Z AUTO 29005KT 4SM BR OVC003 13/13 A2971 RMK A01", "KCEZ 280953Z AUTO 36007KT 10SM CLR 08/M03 A3002 RMK AO2 SLP106 T00781033", "KCFD 281015Z AUTO 11003KT 10SM CLR 13/12 A2979 RMK AO2 T01250123", "KCFE 281035Z AUTO 01007KT 5SM UP BR BKN005 BKN008 OVC029 08/08 A2982 RMK AO2", "KCFJ 281035Z AUTO 36007KT 10SM BKN021 BKN033 OVC055 07/04 A2975 RMK AO2 T00700038", "KCFO 281015Z AUTO 36014G21KT 10SM OVC020 03/00 A3020 RMK AO2 T00330000", "KCFS 281035Z AUTO 07004KT 10SM CLR 06/00 A2990 RMK AO2 T00590001", "KCFV 281002Z AUTO 00000KT 1/4SM FG VV002 08/08 A2981 RMK AO2 T00830083 $", "KCGC 281035Z AUTO 00000KT 10SM CLR 19/18 A2986 RMK AO2", "KCGE 281025Z AUTO 08007KT 10SM FEW043 SCT055 BKN065 13/13 A3000 RMK A01", "KCGF 281015Z AUTO 13009G15KT 10SM CLR 13/08 A2985 RMK AO2 T01300076", "KCGI 280953Z AUTO 36006KT 6SM BR OVC007 13/12 A2972 RMK AO2 SLP065 T01280117", "KCGS 281030Z AUTO 05005KT 5SM RA BR BKN010 OVC016 13/12 A3001 RMK AO2 P0004 T01290119", "KCGZ 280956Z AUTO 04006KT 10SM CLR 15/M06 A2983 RMK AO2 SLP089 T01501056 PNO $", "KCHA 280953Z 00000KT 3SM BR OVC005 16/14 A2971 RMK AO2 SLP058 VIS W 1 1/2 T01560144", "KCHK 281015Z AUTO 25005KT 3 1/2SM BR CLR 07/07 A2982 RMK AO2 T00710069", "KCHO 280953Z 04009KT 2SM RA BR BKN006 OVC011 14/12 A2989 RMK AO2 CIG 003V008 SLP117 P0019 T01390117", "KCHS 281025Z 24006KT 7SM SCT008 BKN015 21/19 A2977 RMK AO2 T02060189 $", "KCIC 281035Z AUTO 34005KT 10SM CLR 18/09 A2988 RMK AO1", "KCID 280952Z 09007KT 10SM CLR 06/M02 A2979 RMK AO2 SLP089 T00561017", "KCIN 281015Z AUTO 00000KT 10SM BKN050 BKN055 09/05 A2978 RMK AO2", "KCIR 281015Z AUTO 02004KT 4SM OVC005 13/13 A2972 RMK AO2 P0001 T01300125", "KCIU 280956Z AUTO 08004KT 10SM -RA OVC055 04/01 A2999 RMK AO2 RAB37 SLP162 P0000 T00440011", "KCJR 281015Z AUTO 07004KT 10SM -RA OVC007 14/13 A2995 RMK AO2 P0001 T01350126", "KCKB 280953Z AUTO 09013G17KT 6SM RA BR OVC065 13/11 A2980 RMK AO2 SLP080 P0009 T01280106", "KCKC 281015Z AUTO 07005KT 10SM SCT008 BKN014 OVC110 02/01 A2992 RMK AO2", "KCKF 281015Z AUTO 22003KT 7SM OVC005 19/18 A2980 RMK AO2 T01850175", "KCKI 281035Z AUTO 00000KT 10SM BKN012 OVC019 18/17 A2977 RMK AO2 P0001", "KCKM 281035Z AUTO 32008KT 10SM OVC010 15/15 A2976 RMK A01", "KCKN 281015Z AUTO 34008KT 10SM OVC055 02/01 A3000 RMK AO2", "KCKP 281015Z AUTO 00000KT 10SM OVC075 11/10 A2977 RMK AO2 T01060102", "KCKV 280952Z AUTO 32004KT 9SM BKN006 OVC012 16/14 A2968 RMK AO2 CIG 004V008 SLP049 T01560139", "KCKZ 281035Z AUTO 08007KT 9SM OVC006 08/08 A3013 RMK AO2", "KCLE 280951Z 13009KT 10SM OVC140 14/06 A2981 RMK AO2 SLP110 T01390056", "KCLI 281035Z AUTO 02004KT 10SM CLR 05/02 A2989 RMK AO2 T00510016", "KCLK 281035Z AUTO 00000KT 10SM BKN120 08/08 A2986 RMK AO2", "KCLL 280953Z AUTO 08003KT 10SM CLR 15/12 A2977 RMK AO2 SLP077 T01500122", "KCLM 280953Z AUTO 22006KT 10SM CLR 08/03 A3014 RMK AO2 SLP207 T00830033", "KCLS 281035Z AUTO 00000KT 10SM CLR 09/08 A3007 RMK AO2", "KCLT 281029Z 23004KT 10SM FEW020 SCT027 SCT031 16/15 A2976 RMK T01610150", "KCLW 281015Z AUTO 00000KT 10SM -RA BKN120 23/20 A2985 RMK AO2", "KCMA 280955Z AUTO 00000KT 4SM BR OVC003 12/11 A2993 RMK AO2 SLP142 T01220111", "KCMD 281015Z AUTO 21006KT 10SM BKN005 BKN009 OVC013 16/16 A2971 RMK AO2", "KCMH 281021Z 09016G21KT 4SM -RA BR SCT009 OVC031 12/12 A2971 RMK AO2 P0003 T01220122", "KCMI 280953Z 03007KT 10SM CLR 10/06 A2976 RMK AO2 SLP077 T01000056", "KCMR 281035Z AUTO 16006KT 10SM CLR 03/M04 A3012 RMK AO2", "KCMX 280953Z AUTO 06007KT 8SM -RA OVC033 04/02 A2993 RMK AO2 RAB0854 SLP141 P0002 T00440022", "KCMY 280955Z AUTO 00000KT 10SM CLR 10/M01 A2980 RMK AO2 SLP094 T00981010 FZRANO $", "KCNB 281035Z AUTO 34014G20KT 10SM OVC005 07/06 A2989 RMK AO2 T00680058", "KCNC 281015Z AUTO 21004KT 10SM FEW060 SCT120 10/05 A2979 RMK AO2", "KCNI 281015Z AUTO 00000KT 1/4SM FG OVC003 14/14 A2977 RMK AO2 T01390138", "KCNK 281030Z AUTO 29006KT 4SM RA BR SCT011 BKN020 OVC065 12/11 A2982 RMK AO2 RAB0957 P0002 T01220106", "KCNM 280953Z AUTO 27011KT 10SM CLR 19/M12 A2973 RMK AO2 SLP013 T01941122 $", "KCNO 280953Z AUTO 00000KT 4SM BR CLR 12/10 A2993 RMK AO2 SLP130 T01170100", "KCNU 281021Z AUTO 00000KT 1/4SM FG 04/04 A2982 RMK AO2 T00440039 $", "KCNY 280953Z AUTO 34006G18KT 10SM CLR 08/M02 A3014 RMK AO2 PK WND 03035/0902 SLP171 T00781017 $", "KCOD 280956Z AUTO 21003KT 10SM CLR M02/M05 A3026 RMK AO2 SLP266 T10221050 FZRANO", "KCOE 280956Z AUTO 06005KT 10SM CLR 04/01 A3021 RMK AO2 SLP250 T00390011 PNO $", "KCOF 280955Z AUTO 18005KT 10SM CLR 20/18 A2985 RMK AO2 SLP113 T02010180 $", "KCOM 281015Z AUTO 00000KT 10SM CLR 13/08 A2972 RMK AO2 T01300079", "KCON 281026Z AUTO 00000KT 4SM BR FEW002 00/00 A3024 RMK AO2 T00000000", "KCOQ 281035Z AUTO 09006KT 7SM OVC005 04/04 A2987 RMK AO2 TSNO", "KCOS 280954Z 35022G34KT 10SM SCT023 BKN100 02/M03 A3013 RMK AO2 PK WND 33034/0952 DZE20 SLP171 P0000 T00221033 $", "KCOT 280953Z AUTO 15003KT 5SM BR CLR 19/18 A2976 RMK AO2 SLP070 T01890178", "KCOU 280954Z AUTO 34005KT 10SM FEW100 09/07 A2980 RMK AO2 SLP087 T00940072", "KCPC 281025Z AUTO 00000KT 4SM BR SCT021 BKN027 OVC045 19/17 A2980 RMK AO2 P0004 T01850173", "KCPF 281035Z AUTO 00000KT 10SM BKN026 OVC036 12/12 A2973 RMK AO2", "KCPK 281035Z AUTO 09010G15KT 5SM SCT006 SCT042 BKN065 15/14 A2989 RMK AO2 P0008 T01470137", "KCPR 281012Z AUTO 21003KT 10SM FEW019 SCT027 OVC036 02/M01 A3023 RMK AO2 T00171006", "KCPS 280953Z AUTO 35003KT 8SM OVC080 12/09 A2977 RMK AO2 SLP079 T01170094", "KCPT 281035Z AUTO 10005KT 10SM CLR 11/11 A2979 RMK A01", "KCPW 281015Z AUTO 33010G19KT 1/4SM +SN OVC002 M06/M06 A3010 RMK AO2", "KCQB 281015Z AUTO 27005KT 7SM BR CLR 09/09 A2982 RMK AO2 T00910087", "KCQC 280953Z AUTO 07010KT 10SM SCT100 04/00 A2999 RMK AO2 SLP092 T00390000 $", "KCQF 281015Z AUTO 7SM SCT007 20/20 A2977 RMK AO2", "KCQM 281035Z AUTO 00000KT 10SM SCT070 04/01 A2992 RMK AO2", "KCQT 280947Z AUTO 00000KT 4SM BR OVC006 13/12 A2993 RMK AO2 SLP134 T01330122", "KCQW 281035Z AUTO 00000KT 6SM -RA BKN010 OVC018 19/18 A2977 RMK AO2", "KCQX 281032Z AUTO 00000KT 1/4SM FG OVC003 07/07 A3023 RMK AO2 T00720067", "KCRE 281027Z AUTO 18007KT 10SM SCT026 OVC033 21/18 A2977 RMK AO1 T02060183", "KCRG 280953Z 16003KT 10SM CLR 19/18 A2983 RMK AO2 SLP099 T01890183", "KCRP 281023Z 00000KT 10SM BKN008 19/19 A2978 RMK AO2 T01940194 $", "KCRQ 280953Z AUTO 23003KT 5SM BR OVC004 13/12 A2991 RMK AO2 SLP128 T01330117", "KCRS 280953Z AUTO 11003KT 10SM CLR 13/11 A2980 RMK AO2 SLP088 T01330111", "KCRW 280954Z 04004KT 6SM -RA BR OVC047 13/13 A2972 RMK AO2 RAB06 SLP059 VLY FG P0001 T01280128", "KCRX 281015Z AUTO VRB06KT 10SM OVC005 16/16 A2970 RMK AO2", "KCSG 281016Z AUTO 22005KT 5SM BR BKN005 OVC014 17/17 A2978 RMK AO2 T01720167", "KCSM 280953Z AUTO 36004KT 10SM CLR 09/08 A2985 RMK AO2 SLP101 T00890078", "KCSQ 281015Z AUTO 19004KT 10SM FEW085 08/07 A2979 RMK AO2", "KCSV 281033Z AUTO 15004KT 4SM BR OVC002 13/13 A2972 RMK AO2 LTG DSNT W-NE T01330133", "KCTB 280956Z AUTO 29006KT 10SM CLR 01/M04 A3014 RMK AO2 SLP218 T00111039", "KCTJ 281015Z AUTO 00000KT 4SM BR OVC004 15/15 A2978 RMK AO2 T01510151", "KCTY 281015Z AUTO 00000KT 7SM HZ CLR 18/ A2984 RMK AO2", "KCTZ 281025Z AUTO 17003KT 10SM OVC090 18/18 A2980 RMK AO2 T01800180", "KCUB 280953Z AUTO 00000KT 10SM SCT009 OVC013 19/18 A2976 RMK AO2 SLP075 T01890178", "KCUH 281015Z AUTO 00000KT 5SM BR BKN036 09/09 A2981 RMK AO2 T00940090", "KCUL 281019Z AUTO 34004KT 5SM BR OVC007 12/11 A2972 RMK AO2", "KCUT 281032Z AUTO 29006KT 10SM -SN BKN029 OVC065 01/M03 A3010 RMK AO2 SNB32 P0000 T00061033", "KCVC 281015Z AUTO 00000KT 1/2SM FG OVC003 14/14 A2976 RMK AO2", "KCVG 280952Z 35004KT 1SM R18C/P6000FT BR OVC002 10/10 A2966 RMK AO2 SFC VIS 2 SLP040 P0001 T01000100", "KCVH 281035Z AUTO 00000KT 1/2SM FG OVC001 10/09 A2994 RMK A01", "KCVN 280956Z AUTO 02030G39KT 10SM CLR 10/05 A2984 RMK AO2 PK WND 02039/0953 SLP075 T01000050", "KCVO 280956Z AUTO 00000KT 10SM CLR 11/09 A2996 RMK AO2 SLP147 T01110094", "KCVS 280955Z AUTO 02030G36KT 9SM CLR 10/05 A2984 RMK AO2 PK WND 36043/14 SLP057 T00980054 $", "KCVX 281035Z AUTO 00000KT 10SM CLR 04/01 A2994 RMK AO2 T00410005", "KCWA 281035Z AUTO 09005KT 10SM OVC085 06/01 A2986 RMK AO2", "KCWC 281015Z AUTO 07004KT 10SM CLR 10/09 A2980 RMK AO2 T00960087", "KCWF 281015Z AUTO 13003KT 10SM CLR 13/12 A2981 RMK AO2 T01290117", "KCWI 280956Z AUTO 07007KT 10SM CLR 03/M01 A2982 RMK AO2 SLP101 T00331006", "KCWN 281027Z AUTO 35017G31KT 10SM -SN SCT027 BKN034 BKN055 OVC070 01/M04 A3008 RMK AO2 SNE01RAB21E23PLB23E27SNB27 SLP067 $", "KCWV 281015Z AUTO 00000KT 5SM BR CLR 19/18 A2980 RMK AO2 T01880183", "KCXE 281015Z AUTO 4SM BKN005 OVC013 14/14 A2982 RMK AO1 P0006 T01350135", "KCXO 280953Z AUTO 00000KT 10SM CLR 10/10 A2978 RMK AO2 SLP083 T01000100", "KCXP 281015Z AUTO 00000KT 10SM CLR 07/M02 A3015 RMK AO2", "KCXU 281015Z AUTO 00000KT 7SM SCT009 BKN012 OVC030 19/18 A2980 RMK AO1 T01930181", "KCXW 281010Z AUTO 29003KT 10SM BKN007 OVC011 14/ A2976 RMK A01", "KCXY 280956Z AUTO 09011KT 10SM OVC019 12/06 A3006 RMK AO2 SLP180 T01170061", "KCYD 281015Z AUTO 00000KT 10SM SCT023 SCT030 23/20 A2981 RMK A02 T02330195", "KCYS 280953Z AUTO 35017G36KT 10SM CLR 00/M03 A3015 RMK AO2 PK WND 35036/0945 SLP202 T00001028", "KCZL 281015Z AUTO 00000KT 10SM OVC010 16/15 A2976 RMK AO2", "KCZT 281015Z AUTO 10SM CLR 18/18 A2977 RMK AO2", "KD07 280956Z AUTO 33010KT 05/01 A3007 RMK AO1 SLP195 T00500011 $", "KD25 281035Z AUTO 07004KT 10SM RA SCT005 OVC065 05/05 A2986 RMK AO2 T00520052", "KD39 281035Z AUTO 36008KT 10SM OVC005 06/06 A2987 RMK AO2 T00610061", "KD50 281035Z AUTO 29008KT 10SM SCT055 OVC065 03/02 A3009 RMK AO2", "KD55 281035Z AUTO 33009KT 10SM BKN020 OVC024 01/01 A3002 RMK AO2", "KD57 281035Z AUTO 31007KT 10SM FEW060 OVC080 03/M00 A3007 RMK AO2", "KD60 281035Z AUTO 29005KT 10SM CLR M01/M01 A3010 RMK AO2", "KD73 281015Z AUTO 33003KT 1/4SM FG OVC003 15/ A2978 RMK AO2 T0148////", "KD95 281035Z AUTO 00000KT 10SM CLR 06/01 A2989 RMK AO2 T00610005", "KDAA 280955Z AUTO 00000KT 8SM -RA OVC007 13/13 A2996 RMK AO2 SLP148 P0006 T01270127 $", "KDAB 280953Z 17003KT 10SM FEW150 19/17 A2987 RMK AO2 SLP112 T01890172", "KDAG 280950Z AUTO 28011KT 10SM CLR 19/02 A2990 RMK AO2 SLP100 T01940017", "KDAL 280953Z 00000KT 10SM SCT250 12/11 A2979 RMK AO2 SLP083 T01220106 $", "KDAN 280953Z AUTO 09006KT 4SM RA BR OVC002 14/14 A2977 RMK AO2 SLP073 P0021 T01390139", "KDAW 280951Z AUTO 32005KT 10SM CLR 02/01 A3021 RMK AO2 SLP230 T00170011", "KDAY 280956Z 07009KT 2SM -RA BR OVC003 09/08 A2968 RMK AO2 SFC VIS 3 SLP049 P0005 T00940083 VISNO RWY 6L $", "KDBN 281015Z AUTO 00000KT 5SM BR OVC011 17/16 A2982 RMK AO2", "KDBQ 280953Z AUTO 14008KT 10SM CLR 08/00 A2982 RMK AO2 SLP098 T00780000", "KDCA 281028Z 07012KT 4SM -RA BR SCT009 BKN025 OVC080 14/12 A2999 RMK AO2 P0005 T01390122 $", "KDCM 281035Z AUTO 00000KT 7SM -RA BKN004 OVC011 16/16 A2977 RMK AO2 LTG DSNT NW P0004", "KDCU 281034Z AUTO 20006KT 10SM FEW006 BKN014 BKN022 17/16 A2969 RMK AO2 T01670156", "KDCY 281015Z AUTO 36007KT 10SM SCT006 OVC014 11/11 A2970 RMK AO2 T01050105", "KDDC 280952Z AUTO 35021G31KT 10SM CLR 10/08 A2987 RMK AO2 PK WND 35031/0948 SLP103 T01000078", "KDDH 280954Z AUTO 00000KT 10SM CLR 02/M01 A3019 RMK AO2 SLP226 T00171006", "KDEC 280954Z AUTO 01005KT 10SM SCT120 08/07 A2977 RMK AO2 SLP080 T00830067", "KDED 281010Z AUTO 00000KT 10SM BKN004 18/17 A2988 RMK AO2 T01800173", "KDEH 281015Z AUTO 15006KT 10SM OVC055 09/M00 A2979 RMK AO2", "KDEN 280953Z 35016KT 10SM BKN023 BKN200 03/M01 A3019 RMK AO2 PK WND 36027/0932 SLP185 T00281011", "KDEQ 281021Z AUTO 1/4SM FG VV002 08/07 A2978 RMK AO2 T00830072", "KDET 280953Z 04007KT 10SM CLR 08/01 A2986 RMK AO2 SLP114 T00830011", "KDEW 280953Z AUTO 00000KT 10SM CLR 01/M02 A3020 RMK AO2 SLP230 T00061022", "KDFI 280953Z AUTO 03008KT 10SM -RA OVC075 08/06 A2980 RMK AO2 RAB05 SLP093 P0001 T00830056", "KDFW 280953Z 10003KT 10SM SCT250 12/11 A2978 RMK AO2 SLP080 T01170106", "KDGW 281004Z AUTO 31010KT 10SM FEW013 FEW022 OVC070 02/00 A3022 RMK AO2 T00220000", "KDHN 281021Z AUTO 26007KT 10SM BKN009 19/18 A2981 RMK AO2 CIG 007V011 T01890183", "KDHT 281022Z AUTO 36023G33KT 10SM BKN022 OVC035 09/05 A2995 RMK AO2 PK WND 35035/0956 T00890050", "KDIJ 280956Z AUTO 09006KT 10SM CLR M04/M07 A3033 RMK AO2 SLP275 T10391067", "KDIK 280956Z AUTO 30006KT 10SM SCT060 OVC090 03/00 A3007 RMK AO2 SLP198 T00330000", "KDKK 280953Z AUTO 15010G20KT 10SM CLR 13/07 A2993 RMK AO2 SLP134 T01330067", "KDKR 281015Z AUTO 00000KT 10SM CLR 10/10 A2979 RMK AO2", "KDKX 281015Z AUTO 00000KT 9SM SCT008 BKN036 OVC075 14/14 A2973 RMK A01", "KDLF 280955Z AUTO 15006KT 9SM CLR 17/14 A2974 RMK AO2 SLP061 T01680139 $", "KDLH 280955Z 08008KT 5SM BR OVC004 04/03 A2989 RMK AO2 RAE17 SLP131 P0000 T00390028 $", "KDLL 281035Z AUTO 00000KT 10SM CLR 07/00 A2984 RMK AO2 T00670001", "KDLN 280953Z AUTO 20006KT 10SM CLR M03/M05 A3029 RMK AO2 SLP273 T10281050", "KDLO 281035Z AUTO 15003KT 10SM CLR 13/10 A2988 RMK AO2 T01310095", "KDLP 281015Z AUTO 00000KT 10SM CLR 23/21 A2970 RMK A01", "KDLS 280953Z AUTO 12005KT 10SM CLR 08/03 A3014 RMK AO2 SLP205 T00830033", "KDLZ 281015Z AUTO 09009G15KT 3SM -RA BKN006 OVC010 10/10 A2973 RMK AO2 P0002", "KDMA 280955Z AUTO 15008KT 10SM CLR 16/M05 A2989 RMK AO2 SLP127 T01551050 RVRNO VISNO RWY30 $", "KDMH 280954Z AUTO 13/10 A3004 RMK AO1 SLP173 T01330100", "KDMN 280953Z AUTO 29008KT 10SM CLR 14/M08 A2991 RMK AO2 SLP062 T01441078", "KDMO 280953Z AUTO 00000KT 10SM CLR 07/06 A2981 RMK AO2 SLP094 T00720056", "KDMW 281025Z AUTO 09006KT 10SM OVC008 12/11 A3002 RMK AO2", "KDNA 281035Z AUTO 27009KT 10SM CLR 17/M09 A2988 RMK AO2", "KDNL 281026Z AUTO 21004KT 10SM FEW009 FEW013 OVC047 18/17 A2978 RMK AO2 T01830172", "KDNN 281035Z AUTO 13004KT 10SM OVC011 15/15 A2974 RMK AO2 LTG DSNT N T01540151", "KDNV 281015Z AUTO 02009KT 10SM OVC070 10/07 A2977 RMK AO2 T00960071", "KDOV 280955Z AUTO 09010G16KT 10SM CLR 12/11 A3005 RMK AO2 SLP180 T01240108", "KDPA 280952Z 35005KT 10SM CLR 06/01 A2981 RMK AO2 SLP095 T00560006 $", "KDPL 281025Z AUTO 18003KT 7SM BKN070 BKN110 18/18 A2980 RMK AO2", "KDQH 281015Z AUTO 00000KT 10SM BKN007 OVC033 19/18 A2983 RMK AO2 T01850180", "KDRA 280953Z AUTO 05014KT 10SM CLR 21/M04 A2998 RMK AO2 SLP105 T02111044", "KDRI 281035Z AUTO 00000KT 9SM CLR 11/11 A2982 RMK AO2 T01120112 $", "KDRM 281035Z AUTO 00000KT 10SM OVC100 06/01 A2998 RMK AO2 T00600009", "KDRO 280953Z AUTO 32012G17KT 10SM CLR 07/M03 A2996 RMK AO2 SLP085 T00721033", "KDRT 280953Z AUTO 11007KT 10SM CLR 19/11 A2975 RMK AO2 SLP064 T01890106", "KDSF 281020Z AUTO 00000KT 7SM BKN018 OVC022 24/21 A2980 RMK A01", "KDSM 280954Z 22003KT 10SM FEW085 11/05 A2980 RMK AO2 SLP087 T01110050", "KDSV 281027Z AUTO 16008KT 10SM BKN024 09/06 A3003 RMK AO2 T00890056", "KDTA 281015Z AUTO 04011KT 10SM CLR 09/M05 A3017 RMK AO1", "KDTL 281035Z AUTO 33009KT 10SM OVC060 04/03 A2994 RMK AO2", "KDTO 281034Z AUTO 00000KT 2SM BR CLR 07/07 A2980 RMK AO2 T00720067", "KDTS 280953Z AUTO 27003KT 10SM FEW009 FEW016 22/20 A2977 RMK AO2 SLP079 T02170200", "KDTW 280953Z COR 03009KT 10SM SCT060 BKN095 OVC150 08/01 A2985 RMK AO2 SLP110 T00780011 PNO", "KDUA 281015Z AUTO 00000KT 10SM SCT002 08/07 A2981 RMK AO2", "KDUB 281014Z AUTO 28009KT 10SM CLR M07/M10 A3025 RMK AO2", "KDUC 281015Z AUTO 00000KT 10SM CLR 09/09 A2985 RMK AO2 T00900086", "KDUG 280956Z AUTO 36004KT 10SM CLR 10/M09 A2996 RMK AO2 SLP090 T01001089 TSNO $", "KDUH 281035Z AUTO 00000KT 10SM DZ SCT050 OVC070 07/05 A2983 RMK AO2 T00700045", "KDUJ 280953Z AUTO 13011KT 10SM BKN015 12/08 A2994 RMK AO2 SLP135 T01170078", "KDUX 281015Z AUTO 35018G24KT 10SM BKN013 BKN018 OVC033 09/07 A2991 RMK AO2 T00910070", "KDVK 281010Z AUTO 00000KT 10SM OVC007 13/13 A2971 RMK AO2", "KDVL 280956Z AUTO 33006KT 10SM SCT031 BKN048 BKN060 00/M01 A3004 RMK AO2 SLP203 T00001011 FZRANO", "KDVN 280952Z AUTO 07003KT 10SM CLR 06/M01 A2982 RMK AO2 SLP095 T00561011", "KDVO 281015Z AUTO 35005KT 10SM CLR 11/11 A2990 RMK AO2", "KDVP 281033Z AUTO 34012G18KT 3SM HZ OVC003 08/00 A2982 RMK AO2 T00751004 P0006", "KDVT 280953Z AUTO 00000KT 10SM CLR 19/M03 A2981 RMK AO2 SLP070 T01891028", "KDWA 281015Z AUTO 00000KT 10SM CLR 14/11 A2987 RMK AO2", "KDWH 280953Z AUTO 00000KT 6SM BR CLR 13/12 A2978 RMK AO2 SLP081 T01330122", "KDWU 281026Z AUTO 10003KT 10SM -RA FEW011 SCT016 OVC029 14/ A2972 RMK AO2 RAB07 P0001", "KDWX 281015Z AUTO 34010KT 10SM CLR 00/M03 A3027 RMK AO2 T10051031", "KDXR 280953Z AUTO 06004KT 6SM BR OVC003 07/05 A3021 RMK AO2 SLP229 T00720050", "KDXX 281035Z AUTO 35020G25KT 10SM RA SCT018 BKN025 OVC050 08/06 A2990 RMK AO2 P0001", "KDYA 281035Z AUTO 00000KT 7SM SCT009 A2976 RMK AO2", "KDYB 281035Z AUTO 22004KT 4SM BR FEW011 BKN022 OVC035 19/19 A2977 RMK AO2", "KDYL 281001Z AUTO VRB04KT 10SM OVC005 09/07 A3012 RMK AO2 T00940072", "KDYR 280956Z AUTO 30005KT 4SM HZ OVC003 14/ A2971 RMK AO2 RAB0859E14 SLP068 P0000 T0139", "KDYS 280955Z AUTO 18018KT 10SM CLR 17/03 A2963 RMK AO2 SLP001 T01710034", "KDYT 281035Z AUTO 06014KT 4SM UP BR OVC008 03/03 A2992 RMK AO2", "KDZB 281015Z AUTO 19003KT 10SM CLR 18/16 A2976 RMK AO2 T01790162", "KDZJ 281015Z AUTO 00000KT 7SM BR SCT008 BKN016 OVC048 13/13 A2977 RMK AO2 T01340133", "KE11 281015Z AUTO 23009KT 10SM CLR 17/00 A2972 RMK AO2 T01691005", "KE16 281015Z AUTO 15003KT 10SM CLR 10/09 A2995 RMK AO2 PWINO PNO", "KE38 281015Z AUTO 24009KT 10SM CLR 15/M07 A2993 RMK AO2 T01461071", "KE41 281015Z AUTO 18007KT 10SM CLR 15/02 A2976 RMK AO2 T01540023", "KE42 281015Z AUTO 36012G19KT 10SM BKN006 OVC012 10/09 A2990 RMK AO2 T00980090", "KEAN 281010Z AUTO 32008KT 10SM BKN025 BKN034 OVC055 03/00 A3021 RMK AO2 T00320000", "KEAR 280956Z AUTO 34018G29KT 10SM -RA OVC012 07/06 A2990 RMK AO2 PK WND 33030/0929 RAB21 SLP120 P0000 T00670056", "KEAT 280955Z AUTO VRB03KT 10SM CLR 11/02 A3018 RMK AO2 SLP216 T01110022 $", "KEAU 280956Z AUTO 04004KT 10SM FEW060 SCT090 OVC110 10/05 A2979 RMK AO2 SLP087 T01000050", "KEBA 281015Z AUTO 20004KT 5SM BR OVC005 16/16 A2976 RMK AO2 T01620159", "KEBG 281015Z AUTO 00000KT 4SM BR BKN012 BKN030 19/19 A2979 RMK AO2 T01920191", "KEBS 281015Z AUTO 18003KT 10SM SCT080 06/03 A2978 RMK AO2", "KECG 281031Z AUTO 10013G20KT 2SM +RA BR SCT008 BKN031 OVC060 17/16 A2987 RMK AO2 P0018 T01720161", "KECP 280953Z AUTO 20007KT 10SM OVC017 22/21 A2977 RMK AO1 SLP092 T02220206 $", "KECS 281015Z AUTO 32012G17KT 10SM SCT021 BKN065 OVC080 02/01 A3017 RMK AO2", "KECU 281015Z AUTO 17010KT 10SM CLR 17/15 A2985 RMK AO2", "KEDC 281015Z AUTO 00000KT 10SM CLR 14/14 A2975 RMK AO2", "KEDE 281030Z AUTO 11009KT 7SM DZ BKN007 OVC027 19/19 A2985 RMK AO2 P0002 T01850185", "KEDJ 281035Z AUTO 08009G15KT 2 1/2SM BR 09/09 A2971 RMK A01 P0001", "KEDN 281015Z AUTO 00000KT 10SM OVC009 18/18 A2978 RMK AO2 T01750175 PWINO", "KEDU 281015Z AUTO 00000KT 10SM CLR 14/09 A2986 RMK AO1", "KEDW 280955Z AUTO 23007KT 10SM CLR 15/02 A2991 RMK AO2 SLP108 T01540019", "KEED 280956Z AUTO 00000KT 10SM CLR 21/M06 A2980 RMK AO2 SLP061 T02061056", "KEEN 281029Z AUTO 00000KT OVC003 00/00 RMK AO2 PWINO FZRANO $", "KEEO 280953Z AUTO 11003KT 10SM CLR 01/M04 A3021 RMK AO2 SLP195 T00061039", "KEET 281013Z AUTO 25004KT 10SM BKN010 OVC017 18/17 A2974 RMK AO2 CIG 007V013 T01780172 $", "KEFD 280954Z 15004KT 10SM CLR 15/14 A2976", "KEFK 281035Z AUTO 22003KT 10SM CLR 00/00 A3023 RMK AO2 T10011005", "KEFT 281035Z AUTO 09005KT 10SM CLR 07/M01 A2982 RMK AO2 T00681006", "KEGE 280956Z AUTO VRB06KT 10SM FEW041 OVC055 04/M05 A3019 RMK AO2 SLP126 T00391050", "KEGI 280955Z AUTO 24003KT 10SM SCT009 20/19 A2976 RMK AO2 SLP077 T02000188 TSNO $", "KEGT 281015Z AUTO 00000KT 5SM BR OVC075 09/09 A2984 RMK AO2 T00910088", "KEGV 281015Z AUTO 00000KT 7SM -RA OVC055 06/06 A2988 RMK AO2 T00580057", "KEHA 281015Z AUTO 36021G25KT 10SM BKN014 OVC035 08/07 A2998 RMK AO2 T00800067", "KEHO 281025Z AUTO 00000KT 5SM -DZ SCT004 BKN050 OVC100 13/13 A2977 RMK AO2 T01330133", "KEHR 281011Z AUTO 33003KT 10SM BKN009 OVC012 12/11 A2971 RMK AO2", "KEIK 281015Z AUTO 02009KT 10SM SCT085 SCT120 04/M02 A3020 RMK AO2 T00351020", "KEKE 281015Z AUTO 26007KT 10SM BKN055 22/19 A2976 RMK A01", "KEKM 281035Z 07005KT 10SM BKN070 08/02 A2983 RMK AO2 T00830019 $", "KEKN 280951Z AUTO VRB06G14KT 9SM -RA SCT034 BKN050 OVC080 13/08 A2983 RMK AO2 SLP096 P0004 T01280083", "KEKO 280956Z AUTO VRB03KT 10SM CLR 06/M01 A3019 RMK AO2 SLP196 T00561011", "KEKQ 281028Z AUTO 17005KT 10SM -RA BKN028 OVC035 14/14 A2973 RMK AO2 LTG DSNT S AND SW RAB27 P0000", "KEKS 281015Z AUTO 15005KT 10SM OVC060 M04/M07 A3033 RMK AO2", "KEKX 281035Z AUTO 00000KT 10SM SCT005 SCT012 OVC031 14/14 A2969 RMK AO2 LTG DSNT SE AND S T01350135", "KEKY 281029Z AUTO 22004KT 8SM FEW006 A2975 RMK AO2 FZRANO $", "KELA 281015Z AUTO 18004KT 10SM CLR 16/16 A2977 RMK AO2 T01620155", "KELD 280953Z AUTO 28003KT 10SM CLR 12/12 A2978 RMK AO2 SLP081 T01220122", "KELK 281035Z AUTO 06004KT 10SM BKN140 09/09 A2982 RMK AO2 SLP386 T00940094 $", "KELM 280953Z 03007KT 10SM OVC043 09/06 A3008 RMK AO2 SLP187 T00890061", "KELN 280953Z AUTO 00000KT 10SM CLR 08/02 A3018 RMK AO2 SLP216 T00830022", "KELO 281035Z AUTO 00000KT 10SM BKN060 OVC090 02/01 A2993 RMK AO2", "KELP 280951Z 27018G27KT 10SM FEW250 22/M08 A2984 RMK AO2 PK WND 26027/0951 SLP030 T02171083", "KELY 280953Z AUTO 00000KT 10SM CLR 07/M04 A3021 RMK AO2 SLP159 T00721039", "KELZ 280956Z AUTO 14009KT 8SM OVC011 09/06 A3002 RMK AO2 SLP168 T00890056", "KEMM 281015Z AUTO 10SM CLR M02/M04 A3030 RMK AO2 TSNO", "KEMP 281015Z AUTO 31003KT 2SM BR BKN055 09/08 A2982 RMK AO2 T00890078", "KEMV 281035Z AUTO 06008KT 10SM -RA OVC007 14/14 A2986 RMK AO2 P0001 T01410138 TSNO", "KEND 280955Z AUTO 23005KT 10SM SCT120 BKN150 08/08 A2979 RMK AO2 SLP089 T00810077 $", "KENL 281015Z AUTO 00000KT 7SM SCT029 SCT037 OVC047 12/11 A2976 RMK AO2 T01150113", "KENV 280956Z AUTO 31005KT 10SM CLR 11/M03 A3021 RMK AO2 SLP207 T01061033", "KENW 280953Z AUTO 05004KT 10SM CLR 03/00 A2985 RMK AO2 SLP109 T00330000 $", "KEOE 281015Z AUTO 22004KT 10SM SCT013 SCT018 BKN055 17/17 A2979 RMK AO2", "KEOK 281015Z AUTO 29004KT 10SM FEW033 SCT039 BKN047 09/05 A2979 RMK A01", "KEPH 280953Z AUTO 36007KT 10SM CLR 08/01 A3016 RMK AO2 SLP212 T00830006", "KEQA 281035Z AUTO 00000KT 4SM BR OVC110 09/08 A2983 RMK AO2", "KEQY 280953Z AUTO 21006KT 10SM OVC006 18/17 A2975 RMK AO2 RAE14B24E38 CIG 005V009 SLP078 P0000 T01780167", "KERI 280951Z 15018G26KT 10SM CLR 13/08 A2988 RMK AO2 PK WND 14026/0936 SLP118 T01280078", "KERV 281015Z AUTO 18007KT 10SM SCT007 18/17 A2980 RMK AO2 T01750165", "KERY 281015Z AUTO 06003KT 10SM OVC060 04/02 A2996 RMK AO2 T00360015", "KESC 280956Z AUTO 03004KT 10SM OVC085 05/03 A2994 RMK AO2 SLP146 T00500028", "KESF 281018Z AUTO 00000KT 1 1/4SM -RA BR FEW004 12/12 A2979 RMK AO2 RAB16 P0000 T01170117", "KESN 280959Z 07009KT 10SM SCT065 12/11 A3006", "KEST 280952Z AUTO 02005KT 10SM OVC050 11/07 A2978 RMK AO2 SLP082 T01060067", "KETB 281035Z AUTO 00000KT 5SM BR CLR 00/00 A2987 RMK AO2", "KETC 281020Z AUTO 15005KT 4SM -RA BR BKN004 OVC010 18/17 A2982 RMK AO2 T01760173", "KETH 281033Z AUTO 32012G17KT 10SM -RA BKN036 BKN046 OVC070 06/04 A2996 RMK AO2", "KETN 281010Z AUTO 11005KT 10SM CLR 12/09 A2973 RMK AO2 T01160095", "KEUF 281017Z AUTO 00000KT 8SM FEW005 OVC014 19/19 A2979 RMK AO2 T01890189 $", "KEUG 280954Z AUTO 02003KT 10SM CLR 13/09 A2995 RMK AO2 SLP141 T01330094", "KEUL 280956Z AUTO 12011KT 10SM CLR 11/M02 A3020 RMK AO2 SLP218 T01111022", "KEVM 281022Z AUTO 04003KT 10SM BKN011 OVC100 03/01 A2992 RMK AO2", "KEVU 281035Z AUTO 20003KT 10SM OVC085 13/08 A2979 RMK AO2 T01360081", "KEVV 280954Z AUTO 00000KT 8SM BKN009 OVC028 12/11 A2971 RMK AO2 SLP059 T01220106 $", "KEVW 280953Z AUTO 09010KT 10SM CLR M01/M06 A3027 RMK AO2 SLP229 T10111056", "KEWB 281013Z AUTO 00000KT 1/4SM R05/1200V1600FT FG VV002 04/04 A3022 RMK AO2 T00440044", "KEWK 280956Z AUTO 31003KT 7SM OVC055 10/10 A2983 RMK AO2 SLP097 T01000100", "KEWN 281005Z 16005KT 9SM -RA SCT017 BKN025 OVC110 18/17 A2984 RMK AO2 P0001 T01780172", "KEWR 280951Z 06004KT 9SM BKN013 BKN065 BKN250 11/08 A3018 RMK AO2 SLP218 BKN013 V SCT T01110078", "KEXX 281030Z AUTO 19004KT 10SM SCT018 BKN060 OVC110 16/16 A2975 RMK AO2 T01620162", "KEYE 281019Z AUTO 35008KT 8SM BKN009 OVC040 09/07 A2972 RMK AO2 CIG 007V013 T00890072 $", "KEYF 281030Z AUTO 18004KT 10SM SCT023 BKN050 OVC065 18/17 A2980 RMK AO2 T01790173", "KEYW 280953Z AUTO 16004KT 10SM CLR 27/24 A2989 RMK AO2 SLP128 T02670244", "KEZF 281015Z AUTO 07008KT 10SM RA OVC008 14/14 A2992 RMK AO2 P0002 T01400140", "KEZM 281015Z AUTO 00000KT 10SM OVC006 18/18 A2981 RMK AO2", "KEZP 281030Z AUTO 00000KT 10SM FEW019 SCT036 BKN042 23/19 A2983 RMK A01", "KEZS 281035Z AUTO 05004KT 10SM CLR 07/03 A2989 RMK AO2 T00710034", "KEZZ 281015Z AUTO 27005KT 10SM OVC090 12/07 A2981 RMK AO2 T01180072", "KF00 281015Z AUTO 19004KT 7SM CLR 07/07 A2980 RMK AO2 T00730072", "KF05 281015Z AUTO 05012KT 10SM CLR 12/10 A2982 RMK AO2 T01160104", "KF17 281015Z AUTO 00000KT 10SM CLR 11/10 A2981 RMK AO2", "KF44 281015Z AUTO 00000KT 10SM CLR 10/09 A2979 RMK AO2", "KF46 281015Z AUTO 14003KT 10SM CLR 11/11 A2980 RMK AO2 T01120112", "KF70 281015Z AUTO 00000KT 10SM CLR 12/10 A2993 RMK AO2", "KFAF 280955Z AUTO 09007KT 10SM -RA FEW037 15/13 A2988 RMK AO2 SLP122 P0010 T01480132 $", "KFAM 281019Z AUTO 34004KT 5SM BR FEW005 OVC080 11/09 A2977 RMK AO2", "KFAR 280953Z 34013KT 10SM OVC100 05/02 A2997 RMK AO2 SLP156 T00500017", "KFAT 280953Z 00000KT 10SM BKN200 20/13 A2987 RMK AO2 SLP113 T02000128", "KFAY 281009Z AUTO 17005KT 10SM BKN008 OVC070 18/18 A2978 RMK AO2 CIG 005V011 T01830178", "KFBG 281011Z AUTO 17004KT 10SM -RA OVC006 18/18 A2976 RMK AO2 RAB01 SLP079 $", "KFBL 281035Z AUTO 00000KT 10SM SCT065 120 09/07 A2980 RMK AO2", "KFCI 280956Z AUTO 10009G19KT 10SM RA FEW008 BKN042 OVC050 13/13 A2991 RMK AO2 SLP138 P0024 T01330133", "KFCM 280953Z AUTO 02006KT 6SM -RA BR OVC070 09/08 A2978 RMK AO2 SLP087 P0000 T00890078", "KFCS 280955Z AUTO 36025G33KT 10SM FEW029 03/M01 A3009 RMK AO2 PK WND 34040/53 RAB10E23 SLP176 P0000 T00251011 $", "KFDK 280950Z AUTO 04004KT 10SM OVC014 13/12 A3002 RMK AO2", "KFDR 280953Z AUTO 05011KT 10SM CLR 11/09 A2978 RMK AO2 SLP077 T01060089", "KFDW 281035Z AUTO 21005KT 10SM OVC003 17/17 A2977 RMK AO1 P0001", "KFDY 280953Z AUTO 04006KT 8SM -RA SCT065 OVC095 08/07 A2977 RMK AO2 SLP078 P0004 T00830067", "KFEP 281015Z AUTO 09003KT 10SM CLR 03/02 A2984 RMK AO2 T00270017", "KFET 281015Z AUTO 30010KT 7SM -RA OVC075 11/10 A2980 RMK AO2 P0001 T01120103", "KFEW 280958Z 33015G25KT 10SM SCT020 00/M03 A3015 RMK SLPNO WND DATA ESTMD ALSTG ESTMD $", "KFFA 281035Z AUTO 10010G19KT 1 1/2SM +RA SCT004 BKN013 OVC021 16/16 A2987 RMK AO2 P0020 T01570157", "KFFC 281026Z AUTO 18003KT 5SM BR BKN010 OVC018 16/16 A2978 RMK AO2 T01610156", "KFFL 281015Z AUTO 00000KT 10SM FEW046 BKN050 BKN060 05/02 A2980 RMK A01", "KFFM 281035Z AUTO 34010KT 10SM SCT038 OVC046 06/04 A2993 RMK AO2", "KFFO 281015Z 08004KT 4SM -DZ BR BKN005 OVC010 11/10 A2964 RMK AO2A SLP038", "KFFT 280953Z AUTO 19005KT 6SM BR OVC007 15/14 A2966 RMK AO2 RAB31E46 CIG 004V011 SLP038 P0000 T01500144", "KFFX 281035Z AUTO 00000KT 10SM CLR 05/00 A2988 RMK AO2 T00450003", "KFFZ 280954Z 00000KT 10SM CLR 20/M01 A2980 RMK AO2 SLP067 T02001006", "KFGN 281035Z AUTO 01006KT 10SM CLR 01/M01 A3000 RMK AO2", "KFGX 281015Z AUTO 18006KT 10SM OVC009 14/13 A2970 RMK AO2 T01350130", "KFHB 281015Z AUTO 00000KT 10SM SCT050 SCT060 17/ A2983 RMK AO2", "KFHR 280953Z AUTO 00000KT 10SM CLR 08/04 A3013 RMK AO2 SLP203 T00780039", "KFHU 280955Z AUTO 25010KT 10SM CLR 16/M09 A3000 RMK AO2 SLP099 T01621089", "KFIG 280954Z AUTO 09009KT 10SM OVC014 11/08 A2999 RMK AO2 SLP153 T01110078", "KFIN 281035Z AUTO 19004KT 10SM CLR 17/17 A2987 RMK AO2 T01730173", "KFKL 280956Z AUTO 11008KT 10SM FEW060 11/09 A2992 RMK AO2 RAE05 SLP132 P0000 T01110089", "KFKN 281015Z AUTO 08010KT 5SM RA BKN006 OVC016 14/14 A2988 RMK AO2 P0003 T01430140", "KFKR 281015Z AUTO 02011KT 6SM BR OVC023 08/07 A2975 RMK AO2", "KFKS 281015Z AUTO 00000KT 10SM CLR 03/00 A2991 RMK AO2 T00321005", "KFLD 280953Z AUTO 14003KT 10SM CLR 04/M01 A2986 RMK AO2 SLP113 T00391006", "KFLG 280957Z AUTO 00000KT 10SM CLR 12/M06 A3010 RMK AO2 SLP097 T01221061", "KFLL 280953Z AUTO 33003KT 10SM 22/20 A2989 RMK AO2 SLP122 T02170200 TSNO $", "KFLO 280953Z AUTO 14004KT 10SM BKN019 OVC024 18/17 A2976 RMK AO2 RAE09B28E46 SLP075 P0000 T01830172", "KFLP 281008Z AUTO 31004KT 5SM BR BKN007 BKN011 OVC031 12/12 A2978 RMK AO2 CIG 004V010", "KFLY 281015Z AUTO 36023G35KT 10SM OVC012 00/M02 A3012 RMK AO2 T10021020", "KFME 281029Z AUTO 07007KT 7SM OVC010 12/11 A3004 RMK AO1", "KFMH 280945Z 31006KT 1/4SM FG OVC002 05/05 A3021", "KFMM 281015Z AUTO 33012KT 10SM FEW120 02/01 A3016 RMK AO2", "KFMN 280953Z AUTO 33015G22KT 10SM CLR 13/M07 A2993 RMK AO2 PK WND 32026/0904 SLP088 T01281067", "KFMY 280953Z AUTO 14003KT 10SM CLR 21/18 A2989 RMK AO2 SLP123 T02110183", "KFNB 280953Z AUTO 00000KT 10SM OVC060 14/10 A2979 RMK AO2 SLP084 T01390100", "KFNL 280956Z 35014KT 10SM CLR 03/M03 A3019 RMK AO2 SLP195 T00331033", "KFNT 280953Z 06006KT 10SM CLR 06/00 A2988 RMK AO2 SLP121 T00610000", "KFOA 281015Z AUTO 33005KT 5SM BR BKN010 OVC015 11/10 A2975 RMK AO2", "KFOD 280956Z AUTO 19003KT 10SM SCT085 08/04 A2979 RMK AO2 SLP101 T00830039", "KFOE 280953Z AUTO 00000KT 10SM OVC065 11/09 A2982 RMK AO2 SLP093 T01060094 $", "KFOK 281000Z AUTO 05003KT 10SM SCT002 00/M01 A3022 RMK AO2 T00001006", "KFOZ 281033Z AUTO 36003KT 10SM OVC038 06/04 A2996 RMK AO2", "KFPK 281035Z AUTO 06003KT 10SM CLR 07/00 A2984 RMK AO2 T00700003", "KFPR 280953Z AUTO 17006KT 10SM CLR 20/19 A2988 RMK AO2 SLP117 T02000189", "KFPY 281015Z AUTO 00000KT 7SM SCT026 SCT031 20/19 A2982 RMK AO2 T01950189", "KFQD 281025Z AUTO 00000KT 2SM BR SCT002 SCT025 12/12 A2978 RMK AO2 VIS 1V5", "KFRG 280953Z 06005KT 8SM CLR 08/07 A3018 RMK AO2 SLP221 T00780067", "KFRH 281035Z AUTO 00000KT 7SM OVC009 10/09 A2970 RMK AO1", "KFRI 280955Z AUTO 22004KT 10SM SCT080 OVC130 08/08 A2982 RMK AO2 SLP095 T00820081", "KFRM 280956Z AUTO 35003KT 10SM BKN110 10/07 A2979 RMK AO2 SLP091 T01000067", "KFRR 281035Z AUTO 00000KT 10SM SCT007 OVC014 M38/M38 A2994 RMK AO1 P0002", "KFSD 281004Z 34013G18KT 10SM BKN007 BKN017 OVC040 12/09 A2980 RMK AO2 CIG 006V011 T01170089", "KFSE 281035Z AUTO 34007KT 10SM OVC100 02/01 A2996 RMK AO2", "KFSI 280955Z AUTO 03005KT 10SM FEW110 09/09 A2981 RMK AO2 SLP092 T00870085 FZRANO $", "KFSK 281015Z AUTO 00000KT 3/4SM BR OVC003 04/04 A2983 RMK AO2 T00370035", "KFSM 280953Z AUTO 25006KT 9SM OVC042 13/12 A2978 RMK AO2 SLP081 T01330117 $", "KFST 280953Z AUTO 22013KT 10SM CLR 18/M07 A2976 RMK AO2 SLP031 T01781067 $", "KFSW 281015Z AUTO 28004KT 10SM 08/03 A2979 RMK AO2", "KFTK 281028Z AUTO 24003KT 1SM R18/4000VP6000FT BR VV005 12/12 A2967 RMK AO2 VIS 1/2V1 RAE0956 CIG 002V005 SLP048", "KFTN 281015Z AUTO 16008KT 10SM CLR 21/19 A2978 RMK A01", "KFTW 280953Z 00000KT 10SM CLR 11/11 A2978 RMK AO2 SLP082 T01060106", "KFTY 281025Z 17005KT 10SM FEW012 OVC020 16/16 A2975 RMK AO2 T01610156", "KFUL 280953Z AUTO 09004KT 5SM HZ OVC011 15/12 A2992 RMK AO2 SLP129 T01500122", "KFVE 280953Z AUTO 29003KT 10SM CLR 02/M02 A3019 RMK AO2 SLP227 T00221022", "KFVX 281035Z AUTO 08005G14KT 7SM RA OVC009 12/12 A2986 RMK AO2 P0010 T01210117", "KFWA 280954Z 02009KT 10SM -RA OVC060 07/04 A2977 RMK SLP083 P0003 T00720044", "KFWB 281035Z AUTO 33003KT 4SM BR FEW003 OVC022 10/10 A2980 RMK AO2", "KFWC 281015Z AUTO 35005KT 5SM BR BKN006 OVC016 11/10 A2972 RMK AO1 T01100102", "KFWN 281033Z AUTO 06004KT 3/4SM BR OVC003 07/06 A3018 RMK AO2 T00670061", "KFWS 281015Z AUTO 00000KT 1 1/4SM BR VV007 10/09 A2981 RMK AO2 T00960089", "KFXE 280953Z 00000KT 10SM CLR 22/19 A2989 RMK AO2 SLP125 T02170194 PNO", "KFXY 281015Z AUTO 00000KT 10SM CLR 05/03 A2979 RMK AO2", "KFYE 281015Z AUTO 00000KT 1/2SM BR OVC003 14/13 A2971 RMK A01", "KFYG 281035Z AUTO 00000KT 10SM FEW065 BKN075 BKN100 12/12 A2979 RMK AO2", "KFYJ 281035Z AUTO 08011G17KT 7SM BKN060 OVC075 14/13 A2992 RMK AO1 P0003 T01400132", "KFYM 281015Z AUTO 24006G11KT 10SM OVC007 17/16 A2970 RMK A01", "KFYV 280953Z AUTO 00000KT 1/4SM FG VV002 11/10 A2979 RMK AO2 SLP083 T01110100", "KFZG 281015Z AUTO 20003KT 10SM OVC006 19/18 A2980 RMK AO2 T01880180", "KFZY 280954Z AUTO 11003KT 10SM CLR 07/03 A3011 RMK AO2 SLP197 T00670033", "KGAD 280956Z AUTO 22005KT 10SM OVC007 17/17 A2972 RMK AO2 SLP064 T01720172 PNO $", "KGAF 281035Z AUTO 33006KT 10SM CLR M00/M00 A3003 RMK AO2", "KGAG 280953Z AUTO 35003KT 8SM -RA OVC070 10/09 A2985 RMK AO2 SLP096 P0005 T01000089", "KGAI 280956Z AUTO VRB04KT 9SM -RA OVC009 12/11 A3002 RMK AO2 RAB32 SLP176 P0000 T01170111", "KGAO 281015Z AUTO 29005KT 10SM SCT010 SCT016 BKN024 23/20 A2980 RMK AO2 T02250202", "KGBD 281009Z AUTO 32011KT 10SM BKN011 BKN023 OVC065 11/10 A2986 RMK AO2", "KGBG 281015Z AUTO 00000KT 10SM CLR 04/00 A2980 RMK AO2 T00400000 TSNO", "KGCC 280953Z AUTO 28011KT 10SM SCT037 OVC070 02/01 A3018 RMK AO2 SLP231 T00220011", "KGCD 281015Z AUTO 13007KT 10SM CLR 07/01 A3019 RMK AO2 T00730008", "KGCK 281023Z AUTO 35026G39KT 10SM BKN018 OVC070 08/06 A2994 RMK AO2 PK WND 36039/1013 T00830061", "KGCM 281015Z AUTO 00000KT 7SM FEW005 OVC039 13/13 A2980 RMK AO2", "KGCN 280954Z AUTO 08003KT 10SM CLR 01/M06 A3011 RMK AO2 SLP135 T00061061", "KGCY 281015Z AUTO 00000KT 10SM SCT047 SCT055 OVC080 13/12 A2973 RMK A01", "KGDA 281035Z AUTO 00000KT 1SM OVC002 11/11 A2970 RMK AO2 T01120111 PWINO", "KGDB 281035Z AUTO 34013KT 7SM RA OVC005 09/08 A2986 RMK AO2 T00900080 P0005", "KGDJ 281015Z AUTO 00000KT 10SM CLR 10/09 A2980 RMK AO2 T00970092", "KGDP 280951Z AUTO 22007KT 190V260 8SM CLR 16/M13 RMK AO2 SLPNO T01561128 $", "KGDV 280956Z AUTO 33006KT 10SM OVC080 03/01 A3013 RMK AO2 SLP215 T00280006 TSNO", "KGED 280954Z AUTO 09010KT 10SM CLR 13/11 A3004 RMK AO2 SLP172 T01330106", "KGEG 280953Z 14003KT 10SM CLR 09/M02 A3019 RMK AO2 SLP219 T00941017", "KGEV 281025Z AUTO 00000KT 2SM BR BKN001 OVC009 10/10 A2980 RMK AO2 T00980096", "KGEY 280953Z AUTO 27003KT 10SM CLR M01/M04 A3024 RMK AO2 SLP259 T10061044", "KGEZ 281031Z AUTO 36010KT 7SM FEW007 OVC012 09/07 A2969 RMK AO2 T00940072", "KGFA 280955Z AUTO 24010KT 10SM CLR 04/M02 A3016 RMK AO2 SLP234 T00411019 $", "KGFK 280953Z AUTO 34008KT 10SM FEW120 02/00 A3000 RMK AO2 SLP168 T00220000", "KGFL 280953Z AUTO 00000KT 10SM CLR 02/00 A3020 RMK AO2 SLP230 I1000 T00170000", "KGGE 281035Z AUTO 20005KT 10SM -RA SCT011 OVC018 20/18 A2977 RMK AO2", "KGGF 281015Z AUTO 33018G24KT 10SM FEW060 SCT080 SCT090 04/01 A3007 RMK AO2", "KGGG 280953Z AUTO 00000KT 10SM CLR 10/ A2978 RMK AO2 SLP082 T0100 $", "KGGI 281015Z AUTO 15003KT 10SM CLR 09/03 A2980 RMK AO2 T00920030", "KGGP 281015Z AUTO 01006KT 7SM RA SCT036 SCT044 OVC055 06/05 A2980 RMK AO2 P0001", "KGGW 280953Z AUTO 30006KT 10SM CLR 02/M01 A3014 RMK AO2 SLP221 T00171006", "KGHG 281035Z AUTO 00000KT 1/4SM FG OVC002 05/05 A3023 RMK AO2", "KGHW 281035Z AUTO 35009KT 10SM SCT065 SCT085 06/06 A2988 RMK AO2", "KGIC 281015Z AUTO 08006KT 10SM CLR 05/M01 A3021 RMK AO1", "KGIF 280953Z AUTO 18009KT 10SM CLR 20/18 A2987 RMK AO2 SLP114 T02000183", "KGJT 280953Z AUTO 28005KT 10SM CLR 06/M02 A3015 RMK AO2 SLP171 T00611022", "KGKJ 280953Z AUTO 11007G15KT 060V160 10SM CLR 12/08 A2989 RMK AO2 SLP119 T01170078", "KGKT 281015Z AUTO 00000KT 2 1/2SM BR OVC003 14/14 A2973 RMK A01", "KGKY 280953Z AUTO 00000KT 9SM CLR 09/08 A2979 RMK AO2 SLP083 T00940083", "KGLD 281028Z AUTO 35019G30KT 10SM SCT026 OVC100 04/M01 A3003 RMK AO2 PK WND 33035/0957 T00441006", "KGLE 281015Z AUTO 05003KT 10SM CLR 07/06 A2982 RMK AO2 T00710064", "KGLH 281006Z AUTO 31005KT 10SM OVC011 16/14 A2975 RMK AO2 T01560139", "KGLR 280953Z AUTO 12003KT 10SM CLR 06/M02 A2993 RMK AO2 SLP141 T00561017", "KGLS 280952Z AUTO 10005KT 10SM CLR 19/16 A2979 RMK AO2 SLP087 T01890161", "KGLW 281015Z AUTO 22003KT 4SM BR OVC004 15/15 A2969 RMK AO2 LTG DSNT E AND SE T01450145", "KGLY 281035Z AUTO 00000KT 1 1/4SM BR BKN037 OVC045 05/05 A2981 RMK AO2", "KGMJ 281015Z AUTO 00000KT M1/4SM FG OVC002 08/08 A2980 RMK AO2", "KGMU 280953Z AUTO 00000KT 10SM OVC006 16/14 A2976 RMK AO2 RAB40E49 SLP074 P0000 T01560139", "KGNA 280956Z AUTO 08010G16KT 06/02 A2996 RMK AO1 SLP152 T00560022", "KGNB 281015Z AUTO 30006KT 10SM SCT041 SCT048 BKN120 M02/M05 A3018 RMK AO2 T10221055", "KGNC 281010Z AUTO 24007KT 10SM CLR 13/M03 A2976 RMK AO2 T01261027", "KGNG 281020Z AUTO 07010KT 10SM BKN046 BKN055 BKN070 04/M06 A3029 RMK AO2", "KGNR 280956Z AUTO 36004KT 04/00 A3019 RMK AO1 SLP235 T00390000", "KGNT 281035Z AUTO 31005KT 10SM CLR 01/M13 A3001 RMK AO2 T00061133", "KGNV 280953Z 00000KT 10SM CLR 17/17 A2987 RMK AO2 SLP112 T01720167", "KGOK 280953Z AUTO 17003KT 4SM BR 06/06 A2980 RMK AO2 SLP092 T00610061 $", "KGON 281006Z AUTO 34004KT 1/2SM R05/1600V2600FT FG VV002 06/04 A3022 RMK AO2 T00610044", "KGOO 281015Z AUTO 00000KT 10SM CLR 19/03 A2999 RMK A01", "KGOP 281015Z AUTO 00000KT 10SM CLR 12/12 A2975 RMK AO2", "KGOV 280955Z AUTO 00000KT 9SM CLR M02/M03 A2994 RMK AO2 SLP152 T10161026 $", "KGPC 281015Z AUTO 36009KT 7SM BKN007 BKN029 OVC034 09/08 A2973 RMK AO2 T00860078", "KGPH 281035Z AUTO 00000KT 10SM OVC090 11/08 A2982 RMK AO2", "KGPI 280955Z AUTO 00000KT 10SM CLR M03/M05 A3022 RMK AO2 SLP246 T10281050", "KGPM 281015Z AUTO 00000KT 10SM CLR 12/12 A2981 RMK AO2 T01200120", "KGPT 280953Z AUTO 00000KT 10SM BKN040 20/19 A2977 RMK AO2 SLP080 T02000189", "KGPZ 280956Z AUTO 00000KT 10SM CLR 03/02 A2992 RMK AO2 SLP141 T00280017", "KGRB 280953Z AUTO 06004KT 10SM CLR 05/00 A2988 RMK AO2 SLP122 T00500000 $", "KGRD 281012Z AUTO 22004KT 10SM BKN009 OVC050 17/17 A2977 RMK AO2 RAE01 CIG 005V012 P0000 T01670167", "KGRF 280955Z AUTO 00000KT 10SM CLR 08/06 A3006 RMK AO2 SLP183 T00790055 $", "KGRI 280953Z AUTO 33024G32KT 10SM -RA OVC012 08/06 A2987 RMK AO2 PK WND 33032/0952 SLP114 P0003 T00830061", "KGRK 280955Z AUTO 15005KT 10SM CLR 12/11 A2974 RMK AO2 SLP065 T01230110", "KGRN 281015Z AUTO 32009KT 10SM CLR 03/02 A3010 RMK AO2 T00320016", "KGRR 280953Z 06006KT 10SM OVC160 06/00 A2987 RMK AO2 SLP116 T00560000", "KGRY 281015Z AUTO VRB07G15KT 10SM OVC032 23/19 A2982 RMK A01", "KGSB 281000Z 12003KT 10SM -RA BKN014 OVC020 18/18 A2977 RMK AO2A RAB0957 SLP084 WND DATA ETSMD $", "KGSH 280953Z AUTO 04004KT 10SM -RA OVC070 07/03 A2982 RMK AO2 RAB0854 SLP098 P0000 T00720033", "KGSO 281023Z 17011G21KT 2 1/2SM RA BR SCT008 BKN047 OVC080 16/16 A2973 RMK AO2 P0011 T01610156", "KGSP 281010Z 03003KT 10SM OVC009 14/13 A2976 RMK AO2 T01440128", "KGTB 280955Z AUTO 15012KT 10SM CLR 07/02 A3009 RMK AO2 SLP192 T00670016", "KGTF 280953Z 21014KT 10SM CLR 03/M02 A3016 RMK AO2 SLP232 T00331022", "KGTR 280956Z AUTO 23005KT 10SM BKN060 16/16 A2972 RMK AO2 SLP071 T01610156", "KGTU 280956Z AUTO 20004KT 10SM CLR 15/12 A2978 RMK AO2 SLP079 T01500122", "KGUC 281011Z AUTO 23008KT 10SM SCT021 BKN026 OVC075 02/00 A3005 RMK AO2 RAE00 P0000 FZRANO", "KGUP 280953Z AUTO 20005KT 10SM CLR 06/M08 A3002 RMK AO2 SLP059 T00561083", "KGUR 280955Z AUTO 33008KT 10SM FEW010 SCT018 OVC025 03/02 A3019 RMK AO2 RAB0856E18RAB20E44 SLP249 P0000 T00270023", "KGUS 280955Z AUTO 02008KT 9SM -RA OVC065 06/06 A2976 RMK AO2 SLP082 P0003 T00640058 TSNO $", "KGUY 280953Z AUTO 36019KT 10SM -RA BKN060 OVC070 09/08 A2990 RMK AO2 SLP098 P0005 T00940083", "KGVE 281035Z AUTO 08005KT 7SM OVC005 13/13 A2990 RMK AO1 P0012 T01310125", "KGVL 281014Z AUTO 00000KT 3SM BR OVC003 14/14 A2978 RMK AO2 T01440139", "KGVQ 280956Z AUTO 15007KT 10SM CLR 08/04 A3001 RMK AO2 SLP165 T00830044", "KGVT 281015Z AUTO 00000KT 10SM CLR 08/07 A2981 RMK AO2 TSNO T00750073", "KGVW 281020Z AUTO 10008KT 10SM CLR 21/17 A2980 RMK A01", "KGWB 281015Z AUTO 04009KT 10SM RA BKN065 07/05 A2980 RMK AO2", "KGWO 280953Z AUTO 10SM OVC009 17/14 A2974 RMK AO2 CIG 005V011 SLP070 T01670144", "KGWR 281035Z AUTO 35010KT 10SM BKN036 BKN043 OVC095 04/04 A2999 RMK A01", "KGWW 281025Z AUTO 00000KT 10SM SCT016 SCT060 OVC065 18/18 A2981 RMK AO2 P0001 T01750175", "KGXA 280955Z AUTO 28005KT 10SM CLR 14/M02 A2994 RMK AO2 SLP110 WND DATA ESTMD T01411022", "KGXF 280955Z AUTO 16003KT 10SM CLR 20/M09 A2979 RMK AO2 SLP076 T02031090 FZRANO $", "KGXY 280956Z 33013KT 10SM CLR 03/M02 A3020 RMK AO2 SLP220 T00331017", "KGYB 281015Z AUTO 18004KT 10SM CLR 15/13 A2977 RMK AO2 T01500131", "KGYF 281015Z AUTO 07003KT 10SM CLR A2976 RMK AO2", "KGYH 281035Z AUTO 00000KT 1 1/2SM BR OVC002 15/14 A2978 RMK A02 T01450144", "KGYI 281015Z AUTO 00000KT 10SM CLR 09/07 A2981 RMK AO2 T00850071 TSNO", "KGYL 281035Z AUTO 03004KT 7SM -RA BKN005 OVC070 09/08 A2981 RMK AO2 T00850080 P0001", "KGYY 280945Z 00000KT 10SM CLR 10/04 A2982", "KGZH 280953Z AUTO 25004KT 10SM OVC009 19/17 A2978 RMK AO2 SLP080 T01890172", "KGZL 281015Z AUTO 20004KT 5SM BR OVC030 13/12 A2980 RMK AO2", "KGZN 281000Z AUTO 14011KT 10SM CLR 11/09 A2969 RMK AO2", "KGZS 281015Z AUTO 00000KT 10SM FEW016 SCT023 BKN029 17/17 A2968 RMK A01", "KHAE 281035Z AUTO 30003KT 10SM CLR 10/05 A2980 RMK AO2", "KHAF 281035Z AUTO 16007KT 1/4SM FG OVC002 10/10 A2993 RMK AO2", "KHAI 281015Z AUTO 05004KT 10SM SCT085 BKN120 08/00 A2984 RMK AO2 T00800000", "KHAO 281011Z AUTO 00000KT 6SM BR OVC005 11/09 A2968 RMK AO2 CIG 003V007 T01060094", "KHBG 280953Z AUTO 27003KT 10SM CLR 18/17 A2978 RMK AO2 SLP081 T01780172", "KHBI 281025Z AUTO 17009G16KT 7SM RA BKN009 BKN016 OVC025 16/16 RMK AO2 P0003 T01630163", "KHBR 280953Z AUTO 04005KT 9SM CLR 09/08 A2984 RMK AO2 SLP100 T00890083", "KHBV 281015Z AUTO 19004KT 1 1/2SM BR OVC001 20/19 A2980 RMK AO2 T01960193", "KHCD 281015Z AUTO 04004KT 5SM RA OVC020 09/08 A2983 RMK AO2 T00900083 P0003", "KHCO 281035Z AUTO 32005KT 10SM SCT040 02/02 A3000 RMK AO2", "KHCR 281015Z AUTO 09004KT 10SM CLR 01/M04 A3021 RMK AO2", "KHDC 281015Z AUTO 00000KT 10SM OVC035 16/16 A2980 RMK AO2 T01600156", "KHDE 281015Z AUTO 33020G34KT 10SM OVC013 06/05 A2990 RMK AO2 T00640047", "KHDL 281015Z AUTO 29004KT 8SM FEW005 FEW008 SCT014 19/19 A2977 RMK AO2", "KHDN 280956Z AUTO 01008KT 10SM CLR 02/M06 A3022 RMK AO2 SLP208 T00171061 FZRANO", "KHDO 281033Z AUTO 03004KT 10SM OVC005 16/15 A2979 RMK AO2 T01560150 $", "KHEF 280956Z AUTO 07010KT 8SM RA OVC008 13/12 A2997 RMK AO2 CIG 007V012 SLP153 P0007 T01280122", "KHEG 281035Z AUTO 00000KT 10SM FEW026 FEW039 FEW048 17/17 A2986 RMK AO2", "KHEI 280953Z AUTO 31007KT 10SM FEW055 OVC090 03/00 A3009 RMK AO2 SLP204 T00330000", "KHEQ 281015Z AUTO 34020G24KT 10SM CLR 05/01 A3010 RMK AO2", "KHEY 281015Z AUTO 00000KT 10SM OVC009 18/18 A2975 RMK AO2 CIG 007V009 SLP075", "KHEZ 280956Z AUTO 17003KT 10SM CLR 13/13 A2980 RMK AO2 SLP090 T01330128", "KHFD 280953Z 00000KT 1 1/2SM BR OVC002 07/07 A3023 RMK AO2 SLP235 T00720067", "KHFF 281027Z AUTO 19008KT 10SM -RA SCT011 BKN016 OVC048 18/18 A2975 RMK AO2 SLP075 $", "KHFJ 281015Z AUTO 00000KT 5SM BR OVC015 08/08 A2980 RMK AO2", "KHFY 281035Z AUTO 01009KT 10SM BKN008 OVC020 09/09 A2972 RMK AO2 T00860086", "KHGR 280953Z AUTO 09007KT 7SM -RA FEW034 SCT048 OVC060 12/09 A3001 RMK AO2 SLP169 P0002 T01170094 $", "KHHF 281015Z AUTO 00000KT 10SM SCT060 10/09 A2986 RMK AO2 T01010085", "KHHG 281015Z AUTO 02008KT 10SM -RA OVC065 06/06 A2977 RMK AO2 P0001 T00600060", "KHHR 280953Z AUTO 00000KT 7SM OVC006 14/11 A2993 RMK AO2 SLP136 T01390106", "KHHW 281015Z AUTO 00000KT 5SM BR CLR 09/09 A2979 RMK AO2", "KHIB 280953Z AUTO 00000KT 10SM OVC047 02/01 A2990 RMK AO2 SLP137 T00220006", "KHIE 281023Z AUTO 00000KT 1/4SM FZFG VV001 M03/M03 A3023 RMK AO2 T10331033", "KHIF 280955Z AUTO 08011G23KT 10SM CLR 08/M04 A3016 RMK AO2 PK WND 09033/05 SLP182 T00771038", "KHII 281015Z AUTO 00000KT 10SM CLR 23/M08 A2978 RMK AO2", "KHIO 280953Z AUTO 29004KT 10SM CLR 10/07 A2999 RMK AO2 SLP154 T01000072", "KHJH 281015Z AUTO 36008KT 10SM -RA OVC011 11/11 A2983 RMK AO2 T01130105", "KHJO 280953Z AUTO 00000KT 10SM CLR 15/13 A2987 RMK AO2 SLP114 T01500128", "KHKA 281020Z AUTO 35007KT 2 1/2SM BR OVC005 14/13 A2972 RMK AO2 RAE06 CIG 003V007 P0000 T01390128 $", "KHKS 280953Z AUTO 27004KT 10SM SCT038 16/14 A2977 RMK AO2 SLP074 T01560144", "KHKY 280953Z AUTO 00000KT 10SM OVC095 13/13 A2976 RMK AO2 SLP063 T01330128", "KHLB 281015Z AUTO 06004KT 6SM BR OVC003 09/09 A2967 RMK A01", "KHLC 280953Z AUTO 33016G29KT 10SM SCT018 BKN031 OVC100 09/06 A2993 RMK AO2 PK WND 33032/0923 RAE37 SLP125 P0001 T00890056", "KHLG 280953Z AUTO 09015KT 8SM -RA OVC070 13/11 A2981 RMK AO2 SLP096 P0007 T01280106", "KHLN 280953Z AUTO 00000KT 10SM CLR 00/M04 A3026 RMK AO2 SLP276 T00001039", "KHLR 280955Z AUTO 15005KT 10SM CLR 14/12 A2976 RMK AO2 SLP071 T01370119", "KHLX 281035Z AUTO 03003KT 10SM RA OVC002 11/11 A2979 RMK AO2 T01100108", "KHMN 280955Z AUTO 05006KT 10SM CLR 11/M12 A2986 RMK AO2 SLP057 T01051122 $", "KHMP 281015Z AUTO 21005KT 10SM OVC021 16/16 A2980 RMK AO2 T01600158", "KHMT 281015Z AUTO 00000KT 10SM CLR 10/09 A2993 RMK AO2 T01020091", "KHMZ 281015Z AUTO 13011G17KT 7SM -SN BKN015 OVC020 11/10 A2997 RMK AO2 P0001 T01100100", "KHNB 280956Z AUTO 02004KT 7SM OVC006 12/11 A2969 RMK AO2 SLP051 T01170111", "KHND 280956Z AUTO 16008KT 10SM CLR 18/M05 A2993 RMK AO2 SLP129 T01831050", "KHNR 281015Z AUTO 00000KT 10SM CLR 07/07 A2978 RMK A01", "KHNZ 281035Z AUTO 08005KT 7SM -DZ OVC003 13/13 A2979 RMK AO2 T01330132", "KHOB 281035Z AUTO 32016G24KT 10SM CLR 15/M10 A2976 RMK AO2", "KHOE 281015Z AUTO 20004KT 10SM OVC025 18/17 A2982 RMK AO2 T01890179", "KHON 280955Z AUTO 01018G28KT 10SM FEW013 OVC037 07/05 A2993 RMK AO2 PK WND 36035/0917 SLP137 T00670050", "KHOP 280955Z AUTO 00000KT 10SM OVC002 14/14 A2967 RMK AO2 SLP048 T01400138", "KHOT 281028Z AUTO 00000KT 2 1/2SM BR SCT001 BKN009 11/10 A2978 RMK AO2 T01060100", "KHOU 280953Z 15004KT 10SM CLR 17/14 A2977 RMK AO2 SLP084 T01670144 $", "KHPN 280956Z 07005KT 8SM BKN007 08/07 A3017 RMK AO2 SLP220 T00780067", "KHPT 281015Z AUTO 00000KT 10SM OVC080 07/01 A2979 RMK AO2", "KHQG 281015Z AUTO 01018G24KT 10SM SCT035 SCT060 OVC070 09/07 A2993 RMK AO2 T00870070", "KHQG 281015Z AUTO 01018G24KT 10SM SCT035 SCT060 OVC070 09/07 A2993 RMK AO2 T00870070", "KHQM 280953Z AUTO 08004KT 10SM CLR 12/06 A3005 RMK AO2 SLP177 T01220056", "KHQU 281015Z AUTO 21003KT 10SM SCT007 OVC046 17/17 A2977 RMK AO2 T01720168", "KHQZ 281015Z AUTO 00000KT 10SM CLR 10/10 A2981 RMK AO1 T00990095", "KHRF 281035Z AUTO 18009KT 10SM BKN070 06/M03 A3026 RMK AO2 Hamilton ", "KHRI 280953Z AUTO 11004KT 10SM CLR 08/03 A3013 RMK AO2 SLP201 T00830033 $", "KHRJ 281025Z AUTO 16004KT 10SM -RA OVC010 18/17 A2980 RMK AO2 T01780172", "KHRL 281014Z AUTO 14003KT 3/4SM BR VV009 19/19 A2977 RMK AO2 T01890189", "KHRO 280953Z AUTO 33004KT 10SM SCT003 OVC016 11/11 A2978 RMK AO2 SLP081 T01110106", "KHRT 280955Z 00000KT 10SM CLR 21/19 A2975 RMK AO2A SLP076 T02050193 $", "KHRX 281015Z AUTO 03020G26KT 10SM SCT030 OVC036 12/08 A2985 RMK AO2 T01200080", "KHSB 281015Z AUTO 00000KT 5SM BR OVC006 12/12 A2972 RMK AO2 T01150115", "KHSD 281015Z AUTO 19004KT 4SM BR CLR 08/07 A2981 RMK A01", "KHSE 281002Z AUTO 17018G27KT 5SM -RA BR SCT018 BKN030 OVC070 20/20 A2985 RMK AO2 PK WND 17027/1002 LTG DSNT E P0000 T02000200 $", "KHSG 281015Z AUTO 00000KT 10SM CLR M02/M06 A3026 RMK AO2 T10221057", "KHSI 280953Z AUTO 33021G29KT 10SM -RA OVC013 08/07 A2987 RMK AO2 PK WND 33030/0920 RAE04B53 SLP111 P0000 T00830067", "KHSP 281015Z AUTO 08012G18KT M1/4SM RA OVC002 09/08 A2987 RMK AO2 P0004 T00870083", "KHST 281000Z AUTO 20004KT 10SM SCT019 24/22 A2988 RMK AO2 SLP122", "KHSV 280953Z AUTO 21007KT 10SM FEW034 SCT085 OVC100 17/16 A2968 RMK AO2 SLP046 T01670161 $", "KHTH 281015Z AUTO 00000KT 10SM CLR 11/M05 A3011 RMK A01", "KHTS 280951Z 11003KT 9SM -RA FEW006 OVC031 13/13 A2971 RMK AO2 SLP057 P0003 T01330128", "KHUA 281005Z AUTO 21003KT 10SM OVC009 16/16 A2967 RMK AO2 LTG DSNT NE CIG 009V011 SLP045", "KHUF 281017Z 36008KT 7SM SCT011 BKN031 OVC049 10/08 A2974 RMK AO2 T01000083", "KHUL 280953Z AUTO 00000KT 10SM CLR M01/M02 A3020 RMK AO2 SLP231 T10061022", "KHUM 281015Z AUTO 29005KT 7SM CLR 20/16 A2981 RMK AO2 T01970160", "KHUT 280952Z AUTO 31005KT 9SM BKN070 OVC095 11/09 A2983 RMK AO2 SLP091 T01060089", "KHVC 281015Z AUTO 34004KT 10SM BKN004 OVC007 14/14 A2968 RMK AO2", "KHVE 281015Z AUTO 03014G23KT 10SM CLR 09/M02 A3017 RMK AO2", "KHVN 281031Z 03007KT 4SM BR OVC004 08/07 A3022 RMK AO2 T00830072", "KHVR 280953Z AUTO 26006KT 10SM CLR 01/M02 A3015 RMK AO2 SLP223 T00111017", "KHVS 281035Z AUTO 00000KT 9SM BKN004 OVC011 18/18 A2977 RMK AO2 LTG DSNT W", "KHWD 280954Z AUTO 00000KT 10SM CLR 13/10 A2990 RMK AO2 SLP134 T01330100", "KHWO 281015Z AUTO 00000KT 10SM SCT025 22/19 A2992 RMK AO2 T02220194 $", "KHWV 280956Z AUTO 00000KT 3SM BR OVC001 03/02 A3020 RMK AO2 SLP227 T00280017", "KHWY 281035Z AUTO 07008KT 7SM -RA OVC005 14/12 A2995 RMK AO2 P0002 T01350120", "KHXD 281015Z AUTO 24006KT 10SM FEW010 SCT013 SCT019 19/18 A2980 RMK AO2", "KHYA 280956Z 04003KT 1/4SM FG VV001 03/03 A3021 RMK AO2 SLP232 T00280028", "KHYI 281004Z AUTO 21003KT 10SM BKN004 14/13 A2978 RMK AO2", "KHYR 281009Z AUTO 04007KT 10SM -RA BKN009 OVC060 06/05 A2986 RMK AO2 P0000 T00610050", "KHYS 280956Z AUTO 33016G21KT 10SM SCT017 OVC025 11/08 A2988 RMK AO2 SLP116 T01060083 $", "KHYW 281015Z AUTO 00000KT 10SM SCT013 OVC042 18/17 A2977 RMK AO2", "KHYX 281035Z AUTO 03004KT 10SM CLR 04/02 A2991 RMK AO2 T00420020", "KHZD 281015Z AUTO 00000KT 7SM FEW007 OVC015 15/15 A2969 RMK A01", "KHZE 281035Z AUTO 32005KT 10SM FEW046 SCT065 OVC075 05/02 A3009 RMK AO2", "KHZL 281035Z AUTO 12005KT 07/05 A3011 RMK AO2 PWINO", "KHZR 281010Z AUTO 00000KT 10SM CLR 15/14 A2981 RMK AO2 T01510140", "KHZX 281015Z AUTO 07004KT 10SM SCT110 06/04 A2988 RMK AO2", "KHZY 280953Z AUTO 13008KT 10SM CLR 13/07 A2988 RMK AO2 SLP117 T01280067", "KI16 281015Z AUTO 10SM OVC039 14/13 A2981 RMK AO2 T01370128", "KI19 281035Z AUTO 12006KT 4SM -RA BR BKN006 OVC012 12/12 A2966 RMK AO2 P0002", "KI23 281015Z AUTO 11010KT 2 1/2SM OVC005 12/12 A2969 RMK AO1 P0001", "KI35 281010Z AUTO 00000KT 10SM OVC020 14/14 A2974 RMK AO2 T01430143", "KI63 281015Z AUTO 31004KT 10SM CLR 07/03 A2979 RMK AO2 T00710030", "KI67 281015Z AUTO 00000KT 10SM OVC005 09/08 A2967 RMK AO1", "KI68 281035Z AUTO 00000KT 7SM 12/12 A2967 RMK AO1 T01200117", "KI69 281035Z AUTO 00000KT 7SM RA OVC005 14/13 A2968 RMK AO2 T01370134 P0001", "KI74 281015Z AUTO 07007KT 3SM RA OVC004 10/10 A2970 RMK AO2 P0003", "KI75 281015Z AUTO 00000KT 10SM CLR 10/05 A2979 RMK AO2 T01000053", "KI95 281015Z AUTO 05006KT 3SM BR BKN009 OVC014 07/07 A2973 RMK A01", "KIAB 280955Z AUTO 01003KT 8SM OVC055 10/09 A2979 RMK AO2 SLP088 T01010093 $", "KIAD 281019Z 08012G18KT 6SM RA BR BKN009 BKN050 OVC075 12/11 A2997 RMK AO2 P0006 T01220111", "KIAG 280953Z AUTO 09004KT 10SM CLR 06/02 A2998 RMK AO2 SLP157 T00610017", "KIAH 280953Z 15004KT 10SM CLR 14/13 A2978 RMK AO2 SLP083 T01390133", "KIBM 281015Z AUTO 33014G19KT 10SM CLR 01/00 A3013 RMK AO2 T00081002", "KICR 280953Z AUTO 33018G25KT 10SM OVC012 06/04 A3002 RMK AO2 PK WND 32026/0854 SLP166 T00560044 PWINO $", "KICT 280953Z 00000KT 4SM BR SCT050 BKN100 10/09 A2982 RMK AO2 SLP093 T01000089", "KIDA 280953Z AUTO 05005KT 10SM CLR 01/M06 A3030 RMK AO2 SLP250 T00061056", "KIDI 281035Z AUTO 13009G15KT 10SM SCT020 BKN030 OVC045 13/10 A2996 RMK A01", "KIDP 281015Z AUTO 03004KT 1/4SM FG OVC001 07/07 A2982 RMK AO2 T00730071", "KIEN 280952Z AUTO 30005KT 10SM FEW048 OVC085 03/02 A3012 RMK AO2 SLP203 T00330022 PNO $", "KIER 281015Z AUTO 00000KT 10SM CLR 11/11 A2980 RMK AO2 T01100110", "KIFA 281015Z AUTO 00000KT 10SM BKN080 08/03 A2980 RMK AO2 T00760027", "KIFP 281015Z AUTO 00000KT 10SM CLR 22/M07 A2979 RMK AO2", "KIGM 280951Z AUTO 00000KT 10SM CLR 09/00 A2995 RMK AO2 SLP083 T00890000", "KIGQ 281015Z AUTO 08003KT 10SM CLR 09/02 A2982 RMK AO2 T00860015", "KIIB 281015Z AUTO 11009KT 10SM CLR 04/00 A2982 RMK AO2 T00431001", "KIIY 281015Z AUTO 22005KT 10SM OVC006 17/17 A2977 RMK AO2 T01720169", "KIJD 281003Z AUTO 00000KT M1/4SM FG VV002 03/03 A3023 RMK AO2 T00330033", "KIJX 281015Z AUTO 00000KT 10SM OVC110 10/05 A2979 RMK AO2 T01000045", "KIKG 281015Z AUTO 17004KT 1/2SM FG OVC001 20/20 A2978 RMK AO2 T01980196", "KIKK 281015Z AUTO 04005KT 10SM CLR 09/01 A2981 RMK AO2 T00880013 PWINO", "KIKV 281015Z AUTO 00000KT 9SM FEW075 06/05 A2980 RMK AO2", "KIKW 281015Z AUTO 00000KT 10SM CLR 01/00 A2991 RMK AO2 T00100000", "KILE 280956Z AUTO 15006KT 10SM CLR 14/13 A2977 RMK AO2 SLP071 T01440128", "KILG 280951Z AUTO 08009KT 10SM CLR 11/08 A3010 RMK AO2 SLP191 T01110083", "KILM 280953Z 00000KT 10SM SCT070 OVC090 19/17 A2980 RMK AO2 SLP091 T01940172", "KILN 281024Z AUTO 14008KT 9SM BKN005 OVC013 13/13 A2968 RMK AO2 RAB06E22 CIG 004V009 P0001 T01330128", "KIML 280953Z AUTO 34023G35KT 10SM OVC095 06/M02 A3005 RMK AO2 PK WND 01041/0916 SLP170 T00611017", "KIMM 281015Z AUTO 16003KT 10SM SCT034 SCT042 BKN050 A2989 RMK AO2", "KIMS 281015Z AUTO 00000KT 5SM BR OVC004 10/10 A2969 RMK AO2", "KIMT 280954Z AUTO 11003KT 7SM OVC085 05/03 A2990 RMK AO2 SLP132 T00500028", "KIND 281008Z 01007KT 10SM BKN008 BKN013 OVC018 08/07 A2972 RMK AO2 CIG 008V012 T00830072", "KINF 281035Z AUTO 18003KT 7SM CLR 18/18 A2986 RMK AO2", "KINJ 281015Z AUTO 09007KT 10SM CLR 13/13 A2978 RMK AO2 T01300130", "KINK 280953Z AUTO 14006KT 10SM CLR 12/M05 A2970 RMK AO2 SLP022 T01171050", "KINL 280954Z AUTO 02005KT 10SM OVC040 03/01 A2994 RMK AO2 SLP152 T00330006", "KINS 280955Z AUTO 22005KT 10SM CLR 15/M09 A2998 RMK AO2 SLP112 T01491092 $", "KINT 280954Z AUTO 17009KT 8SM -RA OVC007 16/16 A2974 RMK AO2 CIG 004V011 SLP066 P0004 T01610156", "KINW 280956Z AUTO 00000KT 10SM CLR 10/M07 A3000 RMK AO2 SLP099 T01001072", "KIOB 281015Z AUTO 22004KT 10SM SCT005 OVC012 13/13 A2971 RMK AO2 PWINO", "KIOW 280952Z AUTO 00000KT 10SM CLR 04/01 A2982 RMK AO2 SLP098 T00390006", "KIPJ 281025Z AUTO 00000KT 10SM SCT060 OVC090 14/14 A2976 RMK AO2 T01390135", "KIPL 280953Z AUTO 31004KT 10SM CLR 22/04 A2974 RMK AO2 SLP073 T02170039", "KIPT 281031Z 10009KT 10SM BKN026 OVC037 11/04 A3006 RMK AO2 T01060044", "KIRK 280955Z AUTO 00000KT 10SM CLR 06/02 A2981 RMK AO2 SLP097 T00560022", "KIRS 281015Z AUTO 06005KT 10SM DZ BKN070 OVC090 07/M02 A2982 RMK AO2 T00721021", "KISM 280956Z AUTO 18004KT 10SM CLR 19/18 A2989 RMK AO2 SLP122 T01940183 PNO $", "KISO 281026Z 12004KT 10SM SCT022 SCT070 18/18 A2981", "KISP 280956Z 07006KT 7SM SCT095 BKN250 07/07 A3018 RMK AO2 SLP221 T00670067", "KISQ 281035Z AUTO 00000KT 10SM SCT100 04/02 A2994 RMK AO2 T00380016", "KISW 280954Z AUTO 00000KT 10SM BKN095 07/01 A2985 RMK AO2 SLP109 T00720011", "KITH 280956Z 11007KT 10SM CLR 08/06 A3010 RMK AO2 SLP195 T00780056", "KITR 280953Z AUTO 35018G32KT 10SM FEW022 OVC095 03/00 A3006 RMK AO2 PK WND 35034/0910 SLP151 T00330000", "KIUA 281035Z AUTO 14007KT 10SM CLR 09/06 A3004 RMK AO2 T00870060", "KIWA 281015Z AUTO 13007KT 10SM CLR 17/M03 A2982 RMK AO2 T01711030", "KIWD 281030Z AUTO 05004KT 9SM -RA BKN028 BKN035 OVC075 04/04 A2990 RMK AO2 RAB24 P0000", "KIWI 280953Z AUTO 00000KT 7SM FEW001 M01/M02 A3024 RMK AO2 SLP241 I1000 T10061017", "KIXA 281030Z AUTO 06003KT 3SM RA OVC004 14/14 A2982 RMK AO2 P0001", "KIXD 280953Z AUTO 20004KT 10SM OVC090 11/08 A2982 RMK AO2 SLP094 T01060083", "KIYA 281015Z AUTO 15003KT 3SM BR CLR 15/14 A2982 RMK AO2 T01530137", "KIZA 281015Z AUTO 27004KT M1/4SM FG OVC001 09/09 A2992 RMK AO2", "KIZG 280954Z AUTO 00000KT 10SM FEW001 M02/M02 A3024 RMK AO2 SLP245 I1000 T10171022", "KJAC 280956Z AUTO 00000KT 10SM CLR M06/M09 A3032 RMK AO2 SLP287 T10561089", "KJAN 280954Z AUTO 24004KT 10SM FEW036 15/14 A2978 RMK AO2 SLP080 T01500139", "KJAQ 281035Z AUTO 10003KT 10SM CLR 18/08 A2993 RMK AO1 T01760079", "KJAS 281015Z AUTO 21006KT 6SM BR CLR 09/09 A2979 RMK AO2", "KJAU 281010Z AUTO 00000KT 10SM OVC006 14/14 A2977 RMK A01", "KJAX 280956Z 00000KT 9SM BKN250 18/17 A2982 RMK AO2 SLP098 T01780172 $", "KJBR 281019Z AUTO 32004KT 7SM BKN009 OVC014 13/12 A2975 RMK AO2 CIG 007V012 T01330117 $", "KJCA 281015Z AUTO 00000KT 1 1/2SM BR OVC002 14/ A2978 RMK AO2 T0142////", "KJCT 280951Z AUTO 25004KT 10SM CLR 18/14 A2978 RMK AO2 SLP051 T01780139 $", "KJDN 280948Z AUTO 28006KT 01/M01 A3014 RMK AO1 SLP224 T00111006", "KJEF 280953Z AUTO 29004KT 10SM OVC100 11/08 A2980 RMK AO2 SLP078 T01110083 $", "KJER 280953Z AUTO 09014KT 10SM CLR 06/M07 A3024 RMK AO2 SLP227 T00561067 $", "KJES 281015Z AUTO 00000KT 10SM OVC012 18/17 A2984 RMK AO2", "KJFK 280951Z 05004KT 9SM FEW010 BKN250 08/07 A3019 RMK SLP221 T00780072", "KJFX 281035Z AUTO 00000KT 10SM SCT009 SCT060 OVC080 17/17 A2971 RMK AO2", "KJFZ 281035Z AUTO 13004KT 10SM SCT085 12/12 A2978 RMK AO2 T01150115", "KJHW 280956Z AUTO 15009KT 10SM OVC018 11/07 A2996 RMK AO2 SLP150 T01060072 PNO $", "KJKA 281015Z AUTO 25003KT 10SM OVC009 21/21 A2977 RMK AO2", "KJKJ 281035Z AUTO 35010KT 10SM BKN110 04/02 A2998 RMK AO2 TSNO", "KJKL 280953Z AUTO 00000KT 10SM OVC022 14/12 A2971 RMK AO2 RAB01E11 SLP054 P0000 T01390122", "KJLN 280953Z AUTO 18003KT M1/4SM FG VV002 07/06 A2981 RMK AO2 SLP094 T00720061", "KJMR 281035Z AUTO 02003KT 10SM -DZ OVC007 07/06 A2989 RMK AO2", "KJMS 280956Z AUTO 34004KT 10SM SCT047 OVC060 03/02 A3002 RMK AO2 SLP177 T00330017", "KJNX 281025Z AUTO 00000KT 10SM SCT018 BKN024 OVC039 17/17 A2980 RMK AO2", "KJOT 281015Z AUTO 36003KT 10SM CLR 08/03 A2982 RMK AO2 T00800025", "KJPX 281015Z AUTO 00000KT 10SM CLR 00/00 A3021 RMK AO2 T00020002", "KJRB 281016Z AUTO 03009KT 10SM FEW011 10/08 A3019 RMK AO2 PNO $", "KJRO 281035Z AUTO 08003KT 4SM -RA OVC006 13/12 A2973 RMK AO2 P0002", "KJSO 281035Z AUTO 00000KT 10SM CLR 12/10 A2981 RMK AO2 T01150102 TSNO", "KJST 280954Z AUTO 12008KT 9SM OVC007 10/09 A2993 RMK AO2 RAE0855B20E50 CIG 005V012 SLP133 P0000 T01000089", "KJSV 281015Z AUTO 00000KT 1SM BR FEW002 SCT038 11/11 A2980 RMK AO2", "KJTC 281015Z AUTO 27011KT 10SM CLR 10/M09 A3008 RMK AO2", "KJVL 280955Z AUTO 00000KT 10SM CLR 03/00 A2983 RMK AO2", "KJVW 281015Z AUTO 00000KT 1/2SM FG VV005 14/14 A2978 RMK AO2", "KJVY 281015Z AUTO 00000KT 7SM OVC004 12/12 A2966 RMK AO2 PWINO", "KJWG 281015Z AUTO 00000KT 4SM BR SCT110 07/07 A2986 RMK AO2 T00730069", "KJWN 281015Z AUTO 00000KT M1/4SM FG OVC002 15/15 A2967 RMK AO2", "KJWY 281015Z AUTO 00000KT 5SM BR BKN110 11/11 A2982 RMK AO2 T01080105", "KJXI 281035Z AUTO 00000KT 10SM CLR 09/08 A2979 RMK AO2 T00900083", "KJXN 280956Z AUTO 04005KT 10SM FEW080 SCT095 06/01 A2985 RMK AO2 SLP108 T00610006", "KJYG 281035Z AUTO 00000KT 7SM -RA 09/08 A2979 RMK AO2", "KJYL 281015Z AUTO 00000KT 10SM SCT009 SCT015 19/18 A2979 RMK AO2 T01850180", "KJYM 281015Z AUTO 07007KT 10SM RA BKN060 OVC070 07/02 A2982 RMK AO2 T00720019", "KJYO 281035Z AUTO 06006KT 4SM RA OVC008 12/12 A3000 RMK AO2 P0005", "KJYR 281015Z AUTO 33013G19KT 10SM UP BKN011 OVC016 09/08 A2983 RMK AO2", "KJZI 281035Z AUTO 24005KT 10SM BKN010 BKN013 BKN023 20/20 A2978 RMK AO2", "KJZP 281015Z AUTO 13004KT 5SM BR OVC002 14/14 A2977 RMK AO2 T01410139", "KK62 281015Z AUTO 18004KT 10SM OVC003 13/ A2966 RMK AO2", "KK70 281010Z AUTO 18009G17KT 10SM BKN018 OVC023 27/24 A2988 RMK AO2", "KK82 281015Z AUTO 34027G32KT 10SM BKN017 BKN024 OVC044 10/07 A2988 RMK AO2 T00970074", "KK88 281015Z AUTO 00000KT 3/4SM VV005 06/05 A2983 RMK AO1 T00590053", "KKLS 280956Z AUTO 00000KT CLR 10/06 A3004 RMK AO2 SLP177 T01000061 PWINO $", "KKNB 281010Z AUTO 03007KT 10SM CLR 14/M04 A3010 RMK A01", "KKY8 281035Z AUTO 00000KT 10SM OVC006 12/12 A2971 RMK A01", "KL08 281035Z AUTO 01005KT 10SM CLR 20/02 A2979 RMK AO2", "KL18 281035Z AUTO 00000KT 1/4SM FG OVC002 12/12 A2993 RMK AO2", "KL35 281035Z AUTO 00000KT 10SM CLR 00/M03 A3019 RMK AO2", "KLAA 280953Z AUTO 01018G27KT 10SM -RA FEW025 SCT037 OVC050 07/04 A3003 RMK AO2 PK WND 01033/0926 SLP139 P0003 T00670039", "KLAF 280954Z AUTO 02005KT 9SM -RA OVC050 08/07 A2977 RMK AO2 SLP081 P0000 T00830067", "KLAL 280950Z 18005KT 10SM SKC 19/19 A2987", "KLAM 281015Z AUTO 35007KT 260V020 9SM FEW100 07/M03 A2996 RMK AO2 T00701028 $", "KLAN 280953Z 07005KT 10SM CLR 06/00 A2987 RMK AO2 SLP117 T00610000", "KLAR 280953Z AUTO 33013KT 10SM SCT016 M04/M06 A3019 RMK AO2 SNE02 SLP216 P0000 T10391056 $", "KLAS 280956Z 23004KT 10SM FEW250 21/M06 A2990 RMK AO2 SLP102 T02061061", "KLAW 280953Z AUTO 04005KT 10SM FEW120 10/08 A2983 RMK AO2 SLP100 T01000078", "KLAX 280953Z 23003KT 2 1/2SM BR SCT002 OVC005 12/11 A2993 RMK AO2 DZE0859 SLP134 VIS 1 1/2V3 P0000 T01220111 $", "KLBB 281008Z 35012KT 10SM BKN260 12/M04 A2971 RMK AO2 WSHFT 1004 FROPA T01221039", "KLBE 281035Z AUTO 10006KT 4SM RA 12/11 A2991 RMK AO2", "KLBF 280953Z AUTO 33015G24KT 10SM FEW026 BKN095 06/02 A3000 RMK AO2 PK WND 35035/0903 SLP153 T00610017", "KLBL 281026Z AUTO 36019KT 10SM -RA FEW017 BKN033 OVC060 09/08 A2992 RMK AO2 RAB14 P0000", "KLBO 281035Z AUTO 01003KT 4SM BR SCT012 BKN023 09/08 A2981 RMK AO2", "KLBT 281029Z AUTO 15004KT 6SM -RA BR BKN020 BKN026 OVC065 18/18 A2978 RMK AO2 RAB25 P0000 T01830178", "KLBX 280953Z AUTO 00000KT 10SM CLR 14/14 A2978 RMK AO2 SLP084 T01440139", "KLCG 281015Z AUTO 32016G20KT 10SM OVC007 09/08 A2981 RMK AO2 T00920080", "KLCH 280953Z AUTO 09003KT 10SM CLR 14/12 A2980 RMK AO2 SLP098 T01390117", "KLCI 281032Z AUTO 00000KT 3SM BR OVC002 A3024 RMK AO2 FZRANO $", "KLCK 280955Z AUTO 08009G14KT 10SM OVC009 13/12 A2971 RMK AO2 T01260117", "KLCQ 281015Z AUTO 14004KT 10SM CLR 16/16 A2984 RMK AO2", "KLDM 281035Z AUTO 00000KT 10SM CLR 02/M01 A2990 RMK AO2 T00211014", "KLEB 280953Z 00000KT 1/2SM FG VV001 02/01 A3024 RMK AO2 SLP243 T00170011", "KLEE 280953Z AUTO 18006KT 10SM CLR 20/19 A2987 RMK AO2 SLP113 T02000189", "KLEW 280956Z AUTO 36003KT 7SM CLR 00/M01 A3024 RMK AO2 SLP249 T00001006 FZRANO PNO $", "KLEX 280954Z 18006KT 10SM OVC006 15/14 A2968 RMK AO2 RAB10E20 CIG 004V011 SLP043 P0000 T01500139", "KLFI 280955Z 08019KT 8SM -RA FEW050 15/15 A2990 RMK AO2A SLP132 P0003 T01540152 $", "KLFK 280953Z AUTO 00000KT 10SM CLR 11/10 A2979 RMK AO2 SLP086 T01110100", "KLFT 280953Z AUTO 00000KT 9SM CLR 17/17 A2981 RMK AO2 SLP094 T01670167", "KLGA 280951Z 06007KT 10SM BKN012 OVC250 10/08 A3018 RMK AO2 SLP218 T01000078", "KLGB 280953Z AUTO 00000KT 5SM HZ OVC010 14/11 A2992 RMK AO2 SLP133 T01390111", "KLGC 281015Z AUTO 00000KT 5SM BR OVC006 16/16 A2977 RMK AO2 T01640157", "KLGD 280956Z AUTO 34005KT 10SM CLR 04/01 A3021 RMK AO2 SLP229 T00390011", "KLGF 280955Z AUTO 00000KT M M CLR 21/02 A2976 RMK AO2 SLP075 T02060024 RVRNO PWINO TSNO $", "KLGU 280951Z AUTO 05004KT 10SM CLR 03/M04 A3024 RMK AO2 SLP217 T00281039", "KLHB 281015Z AUTO 00000KT 10SM CLR 14/12 A2977 RMK AO2 T01350121", "KLHM 281015Z AUTO 08006KT 10SM CLR 13/10 A2985 RMK AO1", "KLHQ 281030Z AUTO 11013KT 10SM -RA OVC010 13/13 A2972 RMK AO2 RAE08B29 CIG 007V013 P0000 T01280128", "KLHW 280955Z AUTO 22005KT 10SM FEW004 OVC018 18/18 A2977 RMK AO2 SLP084 T01840179 $", "KLHX 281015Z AUTO 36018G29KT 10SM BKN020 BKN026 OVC032 06/03 A3008 RMK AO2 PK WND 36029/1011 T00560028 $", "KLHZ 281035Z AUTO 14005KT 7SM DZ OVC003 16/16 A2981 RMK AO2 P0001", "KLIC 281013Z AUTO 36021G29KT 10SM BKN016 OVC034 02/M01 A3014 RMK AO2 PK WND 36031/0959 T00171011", "KLIT 280953Z 33008KT 10SM OVC009 14/12 A2976 RMK AO2 SLP079 T01440122 $", "KLJF 281035Z AUTO 03007G14KT 7SM RA OVC006 08/08 A2982 RMK AO2 P0001", "KLKR 281035Z AUTO 20003KT 10SM SCT007 BKN019 OVC024 18/17 A2977 RMK AO2", "KLKU 281035Z AUTO 11005KT 2 1/2SM +RA BR OVC006 13/13 A2991 RMK AO2 P0018 T01340129", "KLKV 280953Z AUTO 33007KT 10SM CLR 07/M01 A3015 RMK AO2 SLP186 T00671006", "KLLJ 280955Z AUTO 16005KT 10SM CLR 03/M05 A3028 RMK AO2 SLP230 T00281050", "KLLN 281015Z AUTO 35018G26KT 10SM FEW038 FEW044 SCT050 13/03 A2975 RMK AO2", "KLLQ 280953Z AUTO 31003KT 2 1/2SM BR OVC002 14/14 A2976 RMK AO2 SLP076 T01440139", "KLMO 281015Z AUTO 01004KT 10SM CLR 05/M02 A3022 RMK AO2 T00471023", "KLMS 281015Z AUTO VRB04KT 9SM SCT002 15/15 A2977 RMK AO2", "KLMT 280953Z AUTO 34008KT 10SM CLR 12/04 A3010 RMK AO2 SLP155 T01220044 $", "KLNA 281015Z AUTO 00000KT 10SM CLR 22/19 A2991 RMK AO2 T02150191", "KLNC 280955Z AUTO 00000KT 10SM CLR 10/10 A2981 RMK AO2 T01000095", "KLND 280953Z AUTO 19004KT 10SM CLR M01/M07 A3024 RMK AO2 SLP255 T10111067", "KLNK 280954Z AUTO 31006KT 10SM BKN055 OVC065 13/08 A2981 RMK AO2 SLP087 T01330083", "KLNL 281035Z AUTO 11005KT 3SM -RA BKN048 OVC065 06/06 A2989 RMK AO2 T00600060", "KLNN 281015Z AUTO 14007KT 10SM CLR 14/07 A2983 RMK AO1 T01350067", "KLNP 281035Z AUTO 16004KT 10SM SCT055 11/10 A2977 RMK AO2 LTG DSNT SW", "KLNQ 281015Z AUTO 27004KT 10SM CLR 23/21 A2980 RMK AO2 T02280205", "KLNR 280956Z AUTO 11004KT 10SM CLR 03/01 A2983 RMK AO2 SLP098 T00330006", "KLNS 280953Z 08009KT 10SM OVC020 10/07 A3007 RMK AO2 SLP184 T01000072", "KLOL 280953Z AUTO 35007KT 10SM CLR 10/M03 A3010 RMK AO2 SLP167 T01001028", "KLOM 281015Z AUTO 08009KT 7SM OVC005 09/09 A3012 RMK AO2 T00920086", "KLOR 281000Z AUTO 24003KT 10SM OVC008 18/18 A2977 RMK AO2 SLP064", "KLOT 281015Z AUTO 02004KT 10SM CLR 07/03 A2983 RMK AO2", "KLOU 280953Z AUTO 00000KT 3SM BR BKN003 OVC009 12/11 A2967 RMK AO2 RAB09E24 SLP044 P0001 T01220111", "KLOZ 281002Z AUTO 16003KT 6SM -RA BR FEW014 BKN021 OVC031 14/13 A2972 RMK AO2 RAB0959 P0002 T01390133", "KLPR 280953Z AUTO 15005KT 10SM BKN110 09/04 A2982 RMK AO2 SLP100 T00940044", "KLQK 281035Z AUTO 00000KT 10SM OVC008 14/14 A2976 RMK AO2 P0006 T01430143", "KLRD 280956Z 14008KT 10SM BKN006 21/19 A2977 RMK AO2 CIG 006V009 SLP077 T02110194", "KLRF 281030Z AUTO 00000KT 10SM FEW010 OVC018 13/12 A2975 RMK AO2 CIG 012V018 CIG 004 RWY07 SLP076", "KLRJ 281015Z AUTO 00000KT 9SM -RA OVC065 11/11 A2977 RMK AO2", "KLRO 281035Z AUTO 21006KT 6SM BR FEW022 OVC029 21/20 A2976 RMK AO2", "KLRU 281015Z AUTO 27009KT 10SM CLR 16/M07 A2988 RMK AO2 T01551073", "KLRY 281035Z AUTO 00000KT 10SM OVC085 09/08 A2985 RMK AO2", "KLSE 280953Z AUTO 16004KT 10SM CLR 11/02 A2980 RMK AO2 SLP088 T01060017 TSNO", "KLSF 281020Z AUTO 00000KT 10SM FEW003 OVC012 17/17 A2976 RMK AO2 SLP082 $", "KLSV 280955Z AUTO 00000KT 10SM CLR 19/M06 A2986 RMK AO2 SLP090 T01891060 $", "KLTS 280955Z AUTO 04010KT 10SM SCT120 BKN140 11/09 A2981 RMK AO2 SLP090 T01050086", "KLUA 281035Z AUTO 04005KT 10SM DZ SCT017 OVC023 11/10 A2992 RMK AO2", "KLUD 281015Z AUTO 13005KT 10SM CLR 11/10 A2979 RMK AO2 T01130100", "KLUF 280955Z AUTO 00000KT 9SM CLR 21/M04 A2978 RMK AO2 SLP070 T02111042 $", "KLUG 281015Z AUTO 00000KT 10SM FEW005 BKN034 OVC065 14/14 A2968 RMK A01", "KLUK 281033Z AUTO 00000KT 3SM BR OVC004 12/12 A2968 RMK AO2 PK WND 21031/0957 T01220117", "KLUL 281015Z AUTO 00000KT 10SM BKN040 OVC050 16/ A2978 RMK A02 T0161////", "KLUM 281035Z 00000KT 10SM SCT095 BKN120 10/05 A2980 RMK AO2 T01000050 PWINO", "KLUV 281015Z AUTO 29009KT 10SM CLR 15/M01 A2972 RMK AO2", "KLUX 281035Z AUTO 29003KT 10SM BKN006 OVC015 16/16 A2977 RMK AO2", "KLVJ 280953Z AUTO 00000KT 10SM CLR 16/14 A2978 RMK AO2 SLP085 T01610144", "KLVK 280953Z AUTO 00000KT 10SM CLR 14/06 A2990 RMK AO2 SLP120 T01390056", "KLVL 281035Z AUTO 08005KT 7SM OVC007 15/15 A2984 RMK AO1 P0005 T01500145", "KLVM 280953Z AUTO 32016KT 10SM CLR M02/M06 A3024 RMK AO2 SLP261 T10171061", "KLVN 281035Z AUTO 00000KT 10SM RA SCT044 SCT055 BKN065 09/06 A2980 RMK AO2", "KLVS 281011Z AUTO 02016KT 10SM FEW021 SCT030 03/M02 A2999 RMK AO2 T00331017", "KLWA 281015Z AUTO 08003KT 10SM CLR 08/01 A2984 RMK AO2 T00810013", "KLWB 281035Z AUTO 00000KT 10SM -RA OVC015 12/10 A2983 RMK AO2 P0003 T01160102", "KLWC 280952Z AUTO 31003KT 6SM BR OVC065 11/09 A2982 RMK AO1 SLP094 T01110089", "KLWD 280953Z AUTO 20005KT 10SM CLR 11/03 A2979 RMK AO2 SLP084 T01110033", "KLWM 281019Z 00000KT M1/4SM FG VV002 04/03 A3025 RMK AO2 T00390033", "KLWS 280956Z AUTO 13003KT 10SM CLR 10/M02 A3018 RMK AO2 SLP217 T01001017", "KLWT 280954Z AUTO 10004KT 10SM CLR M01/M04 A3018 RMK AO2 SLP241 T10111044", "KLWV 281033Z AUTO 36008KT 7SM BKN010 BKN018 OVC023 11/10 A2973 RMK AO2 CIG 007V012 T01110100", "KLXL 281035Z AUTO 00000KT 10SM OVC004 06/06 A2987 RMK AO2", "KLXN 281015Z AUTO 34018G25KT 10SM OVC016 07/05 A2997 RMK AO2 T00680046", "KLXT 280953Z AUTO 22005KT 10SM OVC085 11/08 A2980 RMK AO2 SLP089 T01110083", "KLXV 281011Z AUTO 36009G19KT 6SM -SN BR OVC040 M05/M06 A3011 RMK AO2 P0000 T10501061", "KLXY 281015Z AUTO 28004KT 10SM CLR 12/12 A2979 RMK AO2 T01190116", "KLYH 280954Z AUTO 06006G17KT 4SM RA BR BKN009 BKN014 OVC030 13/12 A2983 RMK AO2 SLP098 P0026 T01330117", "KLYO 281015Z AUTO 30003KT 5SM -RA BR BKN042 OVC047 11/09 A2985 RMK AO2 T01060093", "KLYV 281035Z AUTO 01011G14KT 10SM BKN010 BKN021 OVC085 09/08 A2980 RMK AO2", "KLZU 281029Z AUTO 13003KT 1/2SM FG OVC003 14/14 A2978 RMK AO2", "KLZZ 281015Z AUTO 00000KT 10SM CLR 13/12 A2973 RMK AO2 T01310118", "KM01 281035Z AUTO 30008KT 10SM OVC014 14/14 A2973 RMK AO2 CIG 012V017 T01380137 $", "KM02 281015Z AUTO 00000KT 6SM BR BKN013 OVC021 14/14 A2968 RMK A01", "KM04 281010Z AUTO 31007KT 6SM BR SCT004 OVC009 14/14 A2972 RMK A01", "KM08 281015Z AUTO 24004KT 10SM BKN006 OVC050 13/13 A2971 RMK A01", "KM19 280956Z AUTO 32006KT 10SM OVC011 13/12 A2975 RMK AO2 SLP074 T01280117 PNO $", "KM21 281035Z AUTO 30003KT 1 1/2SM BR OVC002 13/13 A2970 RMK AO2 T01260125", "KM25 281035Z AUTO 00000KT 1 1/2SM OVC003 13/12 A2972 RMK AO2 PWINO", "KM30 281015Z AUTO 01006KT 3SM BR OVC003 12/12 A2971 RMK AO2 T01210116", "KM40 281035Z AUTO VRB04KT 10SM FEW008 OVC014 16/16 A2975 RMK AO2", "KM54 281010Z AUTO 17004KT 5SM BR SCT003 BKN075 OVC090 15/15 A2966 RMK A01", "KM75 281015Z AUTO 00000KT 10SM CLR M00/M00 A3014 RMK A01", "KM91 281010Z AUTO 34005KT 1 1/4SM BR OVC005 15/15 A2967 RMK A01", "KMAF 280953Z AUTO 20012KT 10SM CLR 17/00 A2970 RMK AO2 SLP018 T01670000", "KMAN 281035Z AUTO 17006KT 10SM CLR 09/M02 A3022 RMK A01", "KMAO 281035Z AUTO 23004KT 10SM BKN015 OVC030 17/15 A2978 RMK AO2 P0003", "KMAW 281035Z AUTO 36006KT 4SM BR OVC005 13/12 A2975 RMK AO1", "KMBG 280952Z AUTO 32007KT 10SM CLR 03/02 A3002 RMK AO2 SLP174 T00330017", "KMBL 280956Z AUTO 10005KT 10SM CLR 02/M01 A2990 RMK AO2 SLP130 T00171011 FZRANO", "KMBO 281035Z AUTO 00000KT 10SM FEW039 14/15 A2978 RMK AO2", "KMBS 280953Z AUTO 03006KT 10SM CLR 03/M01 A2992 RMK AO2 SLP134 T00331006", "KMBT 281015Z AUTO 16004KT 10SM FEW004 SCT030 BKN035 15/15 A2967 RMK A01", "KMBY 281035Z AUTO 29003KT 10SM CLR 08/05 A2981 RMK AO2", "KMCB 281025Z AUTO 00000KT 3/4SM BR VV003 12/11 A2980 RMK AO2 T01170111", "KMCC 281015Z AUTO 12005KT 10SM CLR 17/12 A2986 RMK AO2", "KMCD 281035Z AUTO 08005KT 7SM SCT075 BKN085 02/02 A2996 RMK AO2 T00180018", "KMCE 280953Z AUTO 00000KT 10SM CLR 15/12 A2986 RMK AO2 SLP109 T01500117", "KMCF 280955Z AUTO 18010KT 10SM FEW120 23/21 A2980 RMK AO2 SLP094 T02310212 FZRANO $", "KMCI 280953Z 23004KT 10SM OVC090 12/08 A2980 RMK AO2 SLP085 T01220083", "KMCJ 281035Z AUTO 12009KT 9SM FEW032 17/14 A2977 RMK A01", "KMCK 280953Z AUTO 35022KT 10SM BKN022 OVC070 07/03 A2997 RMK AO2 PK WND 34037/0910 SLP145 T00720033 $", "KMCN 280953Z AUTO 20003KT 10SM BKN007 OVC030 18/17 A2978 RMK AO2 SLP082 T01780167", "KMCO 280953Z 19007KT 10SM BKN210 OVC250 19/18 A2988 RMK AO2 SLP116 T01940183", "KMCW 280953Z AUTO 19005KT 10SM FEW070 06/02 A2979 RMK AO2 SLP084 T00610022", "KMCX 281035Z AUTO 04007KT 7SM UP OVC046 07/06 A2980 RMK AO2 P0001 T00700063", "KMCZ 281025Z AUTO 09005KT 5SM -RA BR OVC003 18/17 A2982 RMK AO2 P0001 T01780174", "KMDD 281015Z AUTO 20013KT 10SM 18/M02 A2970 RMK AO2 T01841019", "KMDH 280952Z AUTO 34006KT 5SM BR OVC008 12/11 A2973 RMK AO2 SLP068 T01170111", "KMDQ 281015Z AUTO 10SM OVC013 17/15 A2969 RMK A02 LTG DSNT N AND NE T01680155", "KMDS 281035Z AUTO 01017G26KT 10SM OVC007 06/06 A2986 RMK AO2", "KMDT 280956Z 10009KT 10SM OVC019 11/06 A3006 RMK AO2 SLP179 T01110061", "KMDW 280953Z 10005KT 10SM BKN190 OVC250 10/02 A2982 RMK AO2 SLP095 T01000022", "KMDZ 281035Z AUTO 14005KT 10SM SCT065 BKN075 OVC090 09/03 A2982 RMK AO2 T00850025 PWINO", "KMEB 280952Z AUTO 19007KT 5SM -RA BR FEW026 BKN048 OVC065 19/17 A2978 RMK AO2 RAB29 SLP083 P0002 T01940172", "KMEH 280956Z AUTO 00000KT 10SM CLR M02/M04 A3018 RMK AO2 SLP229 T10221039", "KMEI 280958Z AUTO 27004KT 10SM FEW060 16/15 A2975 RMK AO2 SLP072 T01610150", "KMEM 280954Z 29009KT 6SM BR FEW008 OVC014 14/13 A2972 RMK AO2 SLP063 T01390128 $", "KMER 281015Z AUTO 00000KT 10SM CLR 14/14 A2987 RMK AO1", "KMEV 281015Z AUTO 13005KT 10SM FEW036 SCT044 SCT049 03/M03 A3015 RMK AO2", "KMEZ 281035Z AUTO 27003KT 3SM BR CLR 09/09 A2980 RMK AO2 T00860086", "KMFD 280952Z AUTO 09009KT 8SM -RA SCT055 OVC065 10/08 A2979 RMK AO2 SLP085 P0007 T01000083", "KMFE 280953Z AUTO 00000KT 7SM FEW010 BKN023 21/20 A2978 RMK AO2 SLP084 T02060200", "KMFI 280954Z AUTO 11005KT 10SM BKN095 08/02 A2983 RMK AO2 SLP105 T00780022", "KMFR 280953Z AUTO 00000KT 10SM CLR 16/09 A2996 RMK AO2 SLP135 T01560089", "KMGC 281015Z AUTO 00000KT 10SM OVC120 08/01 A2983 RMK AO2", "KMGE 281025Z AUTO 15003KT 10SM OVC004 15/15 A2974 RMK AO2 SLP069 $", "KMGG 281035Z AUTO 36006KT 10SM OVC005 09/07 A2985 RMK AO2 T00850072", "KMGJ 281028Z AUTO 00000KT 3/4SM BR VV002 03/03 A3018 RMK AO2 T00330028 $", "KMGM 281032Z 18004KT 10SM SCT017 18/17 A2976 RMK AO2 T01830172", "KMGN 281035Z AUTO 11003KT 10SM OVC080 04/02 A2994 RMK AO2 T00450028", "KMGR 281035Z AUTO 00000KT 9SM OVC006 19/19 A2981 RMK AO2 CIG 005V008 T01920187", "KMGW 280953Z AUTO 12014G22KT 10SM -RA OVC065 13/11 A2984 RMK AO2 SLP100 P0011 T01330106", "KMGY 281026Z AUTO 07007KT 5SM -RA BR OVC010 11/11 A2966 RMK AO2 CIG 007V015 P0001 T01110111 $", "KMHE 280953Z AUTO 35024G32KT 10SM OVC010 07/05 A2990 RMK AO2 PK WND 36034/0936 SLP127 T00720050", "KMHK 280952Z AUTO 00000KT 8SM OVC080 09/08 A2982 RMK AO2 SLP095 T00940078", "KMHL 281035Z AUTO 00000KT 10SM BKN100 08/07 A2982 RMK AO2", "KMHP 281015Z AUTO 23003KT 5SM HZ OVC002 17/ A2980 RMK AO2 T0169////", "KMHR 281015Z AUTO 00000KT 10SM FEW038 15/11 A2985 RMK A01", "KMHS 280956Z AUTO 00000KT 10SM CLR 07/00 A3005 RMK AO2 SLP169 T00670000", "KMHT 280953Z 31004KT 10SM FEW250 05/03 A3022 RMK AO2 SLP247 T00500028", "KMHV 281000Z AUTO 00000KT 10SM CLR 21/M01 A2994 RMK AO2", "KMIA 280953Z 36007KT 10SM SCT020 25/21 A2990 RMK AO2 SLP124 T02500211 $", "KMIB 280955Z 34005KT 10SM OVC070 02/01 A3005 RMK AO2A SLP193 T00230013 $", "KMIC 281033Z AUTO 01005KT 7SM -RA FEW009 OVC026 09/08 A2980 RMK AO2 P0001 T00890078", "KMIE 281009Z 01011KT 2 1/2SM RA BR BKN027 OVC034 08/06 A2971 RMK AO2 P0007 T00780056", "KMIO 281015Z AUTO 00000KT M1/4SM FG OVC002 08/08 A2981 RMK AO2", "KMIV 280954Z AUTO 08007KT 10SM CLR 10/09 A3009 RMK AO2 SLP188 T01000089 $", "KMIW 280953Z AUTO 00000KT 10SM CLR 07/01 A2979 RMK AO2 SLP086 T00720006", "KMJD 281015Z AUTO 00000KT 10SM CLR 17/17 A2978 RMK AO2", "KMJQ 281035Z AUTO 00000KT 5SM -DZ SCT045 BKN060 OVC090 09/08 A2979 RMK AO2 P0001", "KMKC 280954Z 21004KT 10SM OVC090 13/08 A2979 RMK AO2 SLP086 T01280083", "KMKE 280952Z 00000KT 10SM BKN250 07/03 A2985 RMK AO2 SLP112 T00670028", "KMKG 280955Z 04003KT 10SM SCT250 07/M01 A2988 RMK AO2 SLP119 T00671006", "KMKJ 281035Z AUTO 08004KT 10SM OVC005 11/10 A2983 RMK AO2 LTG DSNT W T01080104", "KMKL 281028Z AUTO 27005KT 3/4SM BR OVC002 13/13 A2972 RMK AO2 T01330128", "KMKN 281015Z AUTO 14006KT 10SM 11/09 A2974 RMK AO2 T01100085", "KMKO 280953Z AUTO 27006KT 7SM BKN033 12/11 A2982 RMK AO2 SLP096 T01170111", "KMKS 281035Z AUTO 00000KT 7SM BKN012 OVC017 18/18 A2977 RMK AO2 P0001", "KMKT 280956Z AUTO 03005KT 10SM BKN110 10/07 A2979 RMK AO2 SLP089 T01000067", "KMLB 280953Z 19004KT 10SM CLR 19/18 A2988 RMK AO2 SLP116 T01940178", "KMLC 280953Z AUTO 00000KT 10SM OVC028 13/12 A2981 RMK AO2 SLP092 T01280122", "KMLE 281015Z AUTO 30005KT 10SM OVC070 12/07 A2979 RMK AO2 T01220074", "KMLF 280952Z AUTO 35011KT 10SM CLR 08/M04 A3013 RMK AO2 SLP161 T00781039", "KMLI 280952Z AUTO 00000KT 10SM CLR 04/00 A2980 RMK AO2 SLP090 T00390000", "KMLJ 281015Z AUTO VRB03KT 10SM BKN012 OVC037 18/18 A2978 RMK AO2", "KMLP 280953Z AUTO 29003KT 10SM CLR 07/M10 A3025 RMK AO2 SLP182 T00671100", "KMLS 280953Z AUTO 29008KT 10SM BKN085 04/01 A3014 RMK AO2 SLP217 T00390011", "KMLT 280953Z AUTO 31004KT 10SM CLR 02/01 A3024 RMK AO2 SLP246 T00220011", "KMLU 280953Z AUTO 00000KT 10SM CLR 14/13 A2978 RMK AO2 SLP082 T01390128", "KMMH 281015Z AUTO 31003KT 10SM CLR 04/M05 A3025 RMK AO2 T00441047", "KMMI 281015Z AUTO 00000KT 5SM BR OVC003 15/15 A2974 RMK A01", "KMMK 281007Z AUTO 32003KT 1/4SM FG VV002 06/05 A3022 RMK AO2 T00610050", "KMML 280956Z AUTO 34014KT 8SM -RA OVC004 08/08 A2982 RMK AO2 SLP103 P0003 T00780078", "KMMT 281015Z AUTO 00000KT 10SM BKN007 OVC013 M A2974 RMK AO2 CIG 005V007 SLPNO ALSTG ESTMD $", "KMMU 281015Z AUTO 02005KT 5SM BR OVC011 08/07 A3017 RMK AO2", "KMMV 280953Z AUTO 35008KT 10SM CLR 16/06 A2997 RMK AO2 SLP146 T01610061", "KMNE 281020Z AUTO 00000KT 10SM CLR 11/11 A2980 RMK AO2", "KMNH 281015Z AUTO 35017G26KT 7SM BKN009 BKN013 OVC024 M01/M02 A3017 RMK AO2", "KMNI 281035Z AUTO 00000KT 10SM BKN007 OVC010 18/18 A2977 RMK AO2", "KMNM 280957Z AUTO 02003KT 10SM FEW120 04/02 A2991 RMK AO2 SLP151 T00440022 PNO $", "KMNN 280953Z AUTO 09008KT 6SM -RA BR FEW031 OVC060 10/08 A2975 RMK AO2 SLP077 P0007 T01000083", "KMNV 281015Z AUTO 00000KT 3/4SM BR 14/ A2972 RMK A01", "KMNZ 281015Z AUTO 15007KT 10SM CLR 13/13 A2976 RMK AO2 T01280125", "KMOB 280956Z AUTO 27005KT 9SM BKN003 OVC007 20/19 A2978 RMK AO2 SLP082 T02000189", "KMOD 280953Z AUTO 01004KT 10SM CLR 19/10 A2985 RMK AO2 SLP108 T01890100", "KMOP 281035Z AUTO 00000KT 10SM CLR 03/00 A2990 RMK AO2 T00301001", "KMOT 280954Z AUTO 31006KT 10SM OVC075 03/02 A3006 RMK AO2 SLP193 T00280017 $", "KMOX 281035Z AUTO 34013KT 10SM 06/04 A2991 RMK AO2", "KMPO 281028Z AUTO 10007KT M1/4SM FG VV001 05/05 A3012 RMK AO2 T00500050", "KMPR 281015Z AUTO 30005KT 10SM OVC047 10/09 A2984 RMK AO2 T01050091", "KMPV 280951Z AUTO 00000KT 3SM BR CLR M02/M03 A3025 RMK AO2 SLP255 T10171028", "KMPZ 281015Z AUTO 00000KT 10SM CLR 05/03 A2980 RMK AO2", "KMQB 281015Z AUTO 33004KT 10SM CLR 05/00 A2982 RMK AO2 T00481002", "KMQI 281030Z AUTO 10009KT 2 1/2SM +RA SCT004 BKN011 OVC020 16/16 A2988 RMK AO2 P0052 T01630158", "KMQJ 281035Z AUTO 35010G15KT 7SM BKN007 BKN022 OVC027 07/07 A2972 RMK AO1", "KMQS 281035Z AUTO 08011KT 10SM BKN007 OVC020 09/09 A3009 RMK AO2", "KMQW 281015Z AUTO 00000KT 10SM BKN010 OVC036 18/18 A2980 RMK AO2 T01790176", "KMQY 280956Z AUTO 09003KT 10SM FEW003 SCT075 OVC095 14/14 A2969 RMK AO2 LTG DSNT E AND SE TSE02RAE42 SLP059 P0012 T01390139", "KMRB 280953Z AUTO 07006KT 5SM -RA BR SCT031 OVC065 11/10 A2998 RMK AO2 SLP152 P0008 T01060100", "KMRC 281010Z AUTO 00000KT 7SM FEW007 SCT036 BKN050 14/14 A2966 RMK A01", "KMRF 280956Z AUTO 36004KT 10SM CLR 04/M13 A2993 RMK AO2 SLP087 T00441128", "KMRH 280958Z AUTO 14006KT 10SM -RA FEW060 FEW080 OVC110 18/18 A2983 RMK AO2 SLP101 P0019 T01830178", "KMRJ 281035Z AUTO 12005KT 10SM CLR 06/M05 A2985 RMK AO2 PWINO", "KMRN 281025Z AUTO 00000KT 10SM SCT085 13/12 A2977 RMK AO2 T01250122", "KMRT 281019Z AUTO 08010KT 3SM OVC003 11/10 A2972 RMK AO1 P0003", "KMRY 281028Z AUTO 09003KT 10SM OVC002 07/07 A2995 RMK AO2 T00670067", "KMSL 281027Z AUTO 31005KT 9SM FEW007 BKN018 16/15 A2969 RMK AO2 T01610150", "KMSN 280953Z AUTO 00000KT 10SM CLR 03/00 A2984 RMK AO2 SLP107 T00280000", "KMSO 280953Z AUTO 00000KT 10SM CLR 02/M04 A3026 RMK AO2 SLP253 T00221044", "KMSP 280953Z 02005KT 10SM -RA SCT065 OVC085 09/08 A2979 RMK AO2 RAB18 SLP091 P0000 T00940078", "KMSS 280953Z AUTO 05003KT 10SM CLR 01/M02 A3017 RMK AO2 SLP221 T00111017", "KMSV 281033Z AUTO 08005KT 1SM BR CLR 05/05 A3016 RMK AO2 RVRNO", "KMSY 280953Z 30007KT 10SM FEW055 21/18 A2979 RMK AO2 SLP091 T02060178", "KMTC 280955Z AUTO 02005KT 10SM FEW160 06/01 A2986 RMK AO2 SLP119 T00600011 $", "KMTH 281032Z AUTO 16004KT 10SM SCT004 BKN070 27/24 A2989 RMK AO2 T02720244", "KMTJ 280953Z AUTO 31019G32KT 10SM SCT070 05/M01 A3011 RMK AO2 PK WND 32032/0942 SLP149 T00501006 $", "KMTK 281015Z AUTO 32014KT 10SM BKN060 22/20 A2979 RMK A01", "KMTN 280954Z 07007KT 10SM OVC013 12/10 A3006 RMK FIRST", "KMTO 280953Z AUTO 34007KT 10SM CLR 08/06 A2974 RMK AO2 SLP070 T00830061", "KMTP 280954Z AUTO 03003KT 05/03 A3022 RMK AO1 SLP233 T00500033", "KMTV 281035Z AUTO 33011KT 4SM +RA SCT007 BKN020 OVC025 13/12 A2979 RMK AO2 P0038 T01340120", "KMTW 281019Z AUTO 34004KT 3SM BR CLR 00/00 A2989 RMK AO2 FZRANO", "KMUI 281026Z 09009KT 10SM BKN019 OVC035 10/04 A3009 RMK SLPNO WND DATA ESTMD ALSTG ESTMD FIRST", "KMUO 280955Z AUTO 08014KT 10SM CLR 08/M05 A3019 RMK AO2 SLP214 T00751049", "KMUT 281015Z AUTO 00000KT 10SM CLR 02/01 A2981 RMK AO2", "KMVE 281035Z AUTO 01014KT 10SM DZ OVC006 07/07 A2986 RMK AO2 P0001", "KMVH 281020Z AUTO 30005KT 10SM CLR M03/M05 A3019 RMK AO2 PWINO", "KMVL 281034Z AUTO 00000KT 1 1/4SM BR BKN002 M01/M02 A3024 RMK AO2 T10111022", "KMVN 281017Z AUTO VRB03KT 6SM BR BKN008 OVC043 11/11 A2974 RMK AO2", "KMVY 281012Z AUTO 34003KT M1/4SM R24/0600V1000FT FG VV001 03/03 A3022 RMK AO2 T00330033 $", "KMWA 281015Z AUTO 35005KT 5SM BR OVC006 11/11 A2974 RMK AO2 T01120112", "KMWH 280952Z 01006KT 10SM CLR 06/01 A3016 RMK AO2 SLP213 T00560011", "KMWK 281025Z AUTO 06005KT 10SM BKN022 OVC028 14/13 A2977 RMK AO2 T01420133", "KMWL 280953Z AUTO 12007KT 10SM CLR 12/10 A2976 RMK AO2 SLP070 T01170100", "KMWM 281035Z AUTO 29003KT 7SM -RA CLR 09/09 A2978 RMK AO2", "KMWN 280956Z 00000KT 80SM SKC M02/M18 RMK PTCHY VLY FG ALQDS", "KMWO 281015Z AUTO 33003KT 5SM -DZ OVC004 10/ A2968 RMK AO2 T0101////", "KMWT 281029Z AUTO 00000KT 5SM BR SCT026 09/08 A2975 RMK AO2 T00940083", "KMXF 280955Z AUTO 16005KT 10SM SCT012 OVC017 18/15 A2973 RMK AO2 CIG 011V017 SLP069 T01810153", "KMYF 280953Z AUTO 01004KT 3SM BR OVC003 13/12 A2992 RMK AO2 SLP130 T01280117", "KMYJ 281035Z AUTO 00000KT 10SM CLR 07/06 A2980 RMK AO2", "KMYL 280951Z AUTO 01004KT 10SM CLR M01/M04 A3023 RMK AO2 SLP235 T10061039", "KMYP 281015Z AUTO OVC001 M08/M09 A3014 RMK AO2 PWINO", "KMYR 280956Z 17010KT 10SM FEW012 BKN020 OVC028 20/20 A2978 RMK AO2 RAE01 SLP085 P0000 T02000200", "KMYV 280953Z AUTO 09003KT 10SM CLR 18/11 A2985 RMK AO2 SLP112 T01780106 $", "KMYZ 281015Z AUTO 00000KT 10SM CLR 10/08 A2982 RMK AO2", "KMZH 281015Z AUTO 05004KT 7SM OVC005 05/03 A2988 RMK AO2", "KMZZ 281015Z AUTO 01007KT 7SM -RA OVC050 06/06 A2975 RMK AO2 P0001 T00620055", "KN03 281015Z AUTO 00000KT 10SM SCT012 06/05 A3012 RMK AO2", "KN38 281035Z AUTO 13008G14KT 10SM OVC013 08/07 A3003 RMK AO2", "KN60 280952Z AUTO 33008KT 03/01 A3006 RMK AO1 SLP195 T00330006", "KN79 281035Z AUTO 09007G18KT 10SM CLR 10/06 A3006 RMK AO2 T00980063", "KNAK 281024Z AUTO 10SM -RA SCT016 OVC041 13/11 A3002 RMK AO2 P0000 T01330111 $", "KNBC 280956Z 26010KT 10SM OVC012 20/18 A2977 RMK AO2 SLP082 T02000183", "KNBG 280955Z AUTO 28004KT 7SM SCT041 BKN055 21/21 A2979 RMK AO2 SLP087 T02110206 $", "KNBT 280951Z AUTO 18007KT 7SM RA BKN085 OVC100 21/19 A2984 RMK AO2 SLP109 P0005 T02110194 $", "KNCA 280956Z AUTO 19004KT 10SM OVC110 18/17 A2980 RMK AO2 RAE33 SLP093 P0004 T01830167", "KNDZ 280956Z AUTO VRB03KT 10SM BKN009 19/18 A2977 RMK AO2 CIG 007V011 SLP067 T01890183 $", "KNEL 281000Z AUTO 06007KT CLR 09/09 A3013 RMK AO2 SLP200 T00940089 PNO $", "KNEW 280953Z AUTO 28010KT 10SM CLR 22/20 A2979 RMK AO2 SLP081 T02170200", "KNFE 281016Z AUTO 10010G17KT 4SM +RA FEW009 OVC025 16/13 A2989 RMK AO2 P0010 T01610133", "KNFG 281027Z AUTO 00000KT 2 1/2SM BR OVC003 14/13 A2993 RMK AO2 T01390128 $", "KNFL 280956Z AUTO 00000KT 10SM CLR 09/M01 A3009 RMK AO2 SLP156 T00891006", "KNFW 280952Z AUTO 00000KT CLR 12/09 A2979 RMK AO2 SLP073 T01170094 TSNO CHINO S VISNO S $", "KNGP 281021Z AUTO 14006KT 10SM 24/22 A2978 RMK AO2 T02390217 $", "KNGU 280959Z 09014G23KT 5SM -RA BR SCT032 BKN046 OVC080 16/15 A2992 RMK AO2 SLP131 P0008 T01560150", "KNHK 280952Z COR 08014KT 7SM -RA FEW010 BKN036 OVC095 16/13 A2998 RMK AO2 SLP150 P0003 T01560128 $", "KNID 280956Z AUTO 28006KT 10SM CLR 17/M01 A2990 RMK AO2 SLP109 T01671011 $", "KNIP 280953Z 16008KT 10SM FEW010 OVC250 19/18 A2984 RMK AO2 SLP099 T01940183", "KNJK 280956Z AUTO 00000KT 10SM CLR 20/04 A2976 RMK AO2 SLP094 T02000044 $", "KNJM 280957Z AUTO 00000KT 6SM HZ FEW016 OVC110 21/18 A2982 RMK AO2 RAE46 SLP102 P0022 T02110178 $", "KNJW 280957Z AUTO 24005KT 10SM BKN060 16/14 A2978 RMK AO2 SLP999 T01560144", "KNKT 281031Z 11008KT 10SM -RA BKN017 BKN023 OVC095 18/18 A2984 RMK AO2 P0019 T01830183 $", "KNKX 280955Z 31003KT 4SM BR OVC002 12/12 A2992 RMK AO2 SLP127 T01220122", "KNLC 280956Z AUTO 09003KT 10SM CLR 16/07 A2987 RMK AO2 SLP113 T01560067", "KNMM 280956Z AUTO 26005KT 10SM FEW065 16/15 A2975 RMK AO2 VIS 1 1/4 SOUTH SLP080 T01610150", "KNOG 280956Z AUTO 00000KT 1/2SM FG VV002 18/18 A2979 RMK AO2 SLP068 T01830183 TSNO $", "KNOW 281010Z AUTO 21004KT 10SM CLR 09/07 A3013 RMK AO2 T00860068", "KNOZ 280959Z AUTO 10004KT 10SM CLR 22/M06 A2978 RMK AO2 SLP032 T02171056", "KNPA 280956Z AUTO 10SM BKN013 19/18 A2977 RMK AO2 SLP081 T01890178 $", "KNQA 281030Z 32007KT 10SM BKN008 OVC014 14/14 A2971", "KNQI 281026Z AUTO 19005KT 3SM BR FEW002 OVC007 21/21 A2978 RMK AO2 T02060206 $", "KNQX 281001Z 17003KT 10SM CLR 25/24 A2989 RMK AO2 T02500244 $", "KNRB 280952Z 21003KT 10SM SCT140 OVC250 19/18 A2982 RMK AO2 SLP098 T01940183", "KNRN 281015Z AUTO 35019G25KT 10SM OVC019 07/05 A2999 RMK AO2", "KNRS 280953Z AUTO 33005KT 7SM OVC007 14/12 A2993 RMK AO2 SLP134 T01440122", "KNSE 280956Z AUTO 28005KT 10SM BKN005 19/18 A2977 RMK AO2 SLP067 T01890183", "KNSI 280953Z AUTO 28008KT 1/4SM FG VV002 10/10 A2993 RMK AO2 SLP131 T01000100 $", "KNTD 280955Z AUTO 00000KT OVC002 11/11 A2994 RMK AO2 SLP139 T01110111 $", "KNTU 280956Z 09013KT 6SM -RA BR FEW031 BKN043 OVC050 16/14 A2991 RMK AO2 RAB0859 SLP130 P0011 T01560139", "KNUC 280956Z AUTO 30005KT OVC004 11/ A2995 RMK AO2 SLP139 T0106 $", "KNUI 280953Z AUTO 08010G19KT 5SM RA BR BKN008 OVC011 14/13 A2996 RMK AO2 SLP145 P0003 T01440133 $", "KNUQ 281015Z AUTO 00000KT 10SM CLR 15/11 A2991 RMK AO2", "KNUW 280953Z 00000KT 10SM FEW250 07/06 A3013 RMK AO2 SLP205 T00720061 VISNO $", "KNXP 280956Z AUTO 31003KT 10SM CLR 22/00 A2995 RMK AO2 SLP105 T02170000", "KNY0 281019Z AUTO 07003KT 10SM OVC004 04/04 A3019 RMK AO2", "KNYC 280951Z AUTO VRB05KT 9SM BKN010 10/07 A3020 RMK AO2 SLP219 T01000072 $", "KNYG 281033Z AUTO 07011KT 6SM -RA SCT009 BKN013 OVC033 15/ A2997 RMK AO2 P0001 T0150 $", "KNYL 280957Z AUTO 17005KT 10SM CLR 20/02 A2976 RMK AO2 SLP074 T02000022", "KNZY 280952Z 32003KT 8SM OVC007 14/13 A2992 RMK AO2 SLP130 T01390128 $", "KO05 281015Z AUTO 31004KT 10SM FEW050 03/00 A3013 RMK A01", "KO22 281035Z AUTO 00000KT 10SM CLR 13/09 A2994 RMK A01", "KO32 281035Z AUTO 13003KT 10SM CLR 19/15 A2987 RMK AO2 T01920146 $", "KO69 281015Z AUTO VRB03KT 7SM OVC004 09/09 A2992 RMK A01", "KO86 281015Z AUTO 27004KT 10SM 08/03 A3003 RMK A01", "KOAJ 280956Z AUTO 17003KT 10SM FEW010 OVC100 18/18 A2981 RMK AO2 RAE28 SLP097 P0000 T01830178", "KOAK 280953Z 36003KT 10SM FEW010 SCT250 11/09 A2993 RMK AO2 SLP132 T01110094", "KOAR 281010Z AUTO 00000KT 1/2SM OVC003 08/08 A2994 RMK AO2 PWINO", "KOBE 281015Z AUTO 00000KT 10SM CLR 22/22 A2988 RMK AO2", "KOCF 280951Z AUTO 18005KT 10SM CLR 18/18 A2986 RMK AO2 SLP111 T01830183 $", "KOCH 280956Z AUTO 00000KT 10SM CLR 09/09 A2981 RMK AO2 SLP096 T00890089", "KOCQ 281035Z AUTO 00000KT 10SM SCT120 05/04 A2989 RMK AO1 T00490038", "KOCW 281025Z AUTO 13005KT 10SM -RA SCT070 SCT090 OVC120 18/17 A2982 RMK AO2 P0002 T01800168", "KODO 280953Z AUTO 21014KT 10SM CLR 18/M01 A2972 RMK AO2 SLP022 T01831006", "KODX 281025Z AUTO 33021G32KT 10SM OVC012 07/05 A2990 RMK AO2 PK WND 33036/0956 RAE20 P0000 T00670050", "KOEB 281015Z AUTO 05005KT 10SM -RA OVC070 07/02 A2984 RMK AO2 T00700020", "KOEL 281015Z AUTO 36022G29KT 10SM OVC020 07/03 A2998 RMK AO1 T00650025", "KOEO 281035Z AUTO 00000KT 10SM -DZ SCT036 BKN043 OVC050 09/09 A2985 RMK AO2 T00860086", "KOFF 280955Z 00000KT 10SM SCT070 BKN140 11/06 A2980 RMK AO2A SLP093 T01130056 PWINO PNO FZRANO TSNO CHINO RWY31 $", "KOFK 280956Z AUTO 33018G25KT 10SM -RA OVC009 09/07 A2983 RMK AO2 PK WND 33028/0931 SLP097 P0003 T00890072", "KOFP 281023Z AUTO 10007KT 2 1/2SM +RA BR BKN008 OVC013 14/14 A2992 RMK AO2 P0013 T01440139", "KOGA 281015Z AUTO 32013G18KT 10SM SCT095 05/01 A3010 RMK AO2 T00490007", "KOGB 281031Z AUTO 23004KT 10SM SCT006 BKN016 OVC023 19/19 A2978 RMK AO2 RAB07E12 P0000 T01940189 $", "KOGD 280953Z AUTO A3017 RMK AO2 SLPNO PWINO FZRANO $", "KOGS 281015Z AUTO 05003KT 10SM CLR 02/01 A3012 RMK AO2", "KOIC 281035Z AUTO 00000KT 7SM CLR 03/02 A3017 RMK AO2 T00250023", "KOIN 281035Z AUTO 34016G23KT 10SM OVC020 07/04 A3005 RMK AO1 T00650041", "KOJA 281015Z AUTO 25004KT 10SM CLR 08/08 A2985 RMK AO2 T00830075", "KOJC 280953Z AUTO 19003KT 10SM OVC090 11/08 A2980 RMK AO2 SLP087 T01110078", "KOKB 280952Z AUTO 00000KT 10SM OVC004 14/13 A2992 RMK AO2 SLP130 T01440128", "KOKC 280952Z 30003KT 7SM OVC250 07/07 A2982 RMK AO2 SLP096 T00720067", "KOKK 280956Z AUTO 01009KT 6SM -RA BR FEW045 OVC070 07/07 A2977 RMK AO2 SLP082 T00670067 PNO $", "KOKM 281015Z AUTO 00000KT 10SM OVC033 12/12 A2981 RMK AO2 T01150115", "KOKV 281035Z AUTO 08004KT 5SM RA OVC006 10/10 A2995 RMK AO2", "KOKZ 281015Z AUTO 20003KT 10SM OVC039 17/16 A2980 RMK AO2 T01700165", "KOLE 281015Z AUTO 13004KT 10SM OVC012 08/06 A3000 RMK AO2", "KOLF 280953Z AUTO 21003KT 10SM OVC080 04/02 A3013 RMK AO2 SLP211 T00440017", "KOLG 281015Z AUTO 03010G14KT 10SM OVC007 05/04 A2987 RMK AO1", "KOLM 280954Z AUTO 04004KT 10SM CLR 08/06 A3008 RMK AO2 SLP185 T00830061", "KOLS 280954Z AUTO 09003KT 10SM CLR 11/M05 A2997 RMK AO2 SLP092 T01061050", "KOLU 281019Z AUTO 31015G23KT 7SM RA BKN010 OVC060 09/09 A2983 RMK AO2 P0005", "KOLV 281035Z AUTO 30007KT 10SM OVC009 14/14 A2974 RMK A01", "KOLY 281010Z AUTO 34005KT 7SM OVC006 11/11 A2975 RMK AO2 T01110105 PWINO", "KOLZ 281015Z AUTO 12008KT 10SM CLR 07/M01 A2981 RMK A01", "KOMA 280952Z 26003KT 10SM BKN060 OVC075 13/07 A2978 RMK AO2 SLP080 T01280067", "KOMH 281035Z AUTO 07008KT 5SM RA OVC006 12/12 A2993 RMK AO2 P0012", "KOMK 280953Z AUTO 05004KT 10SM CLR 07/M02 A3019 RMK AO2 SLP223 T00721017", "KONA 281035Z AUTO 13004KT 10SM OVC080 12/00 A2979 RMK AO2", "KONL 281015Z AUTO 34023G31KT 10SM OVC007 06/04 A2993 RMK AO2 T00570042", "KONM 281035Z AUTO 00000KT 10SM CLR 13/M11 A2991 RMK AO2 T01341109", "KONO 280953Z AUTO 09003KT 10SM CLR 11/01 A3020 RMK AO2 SLP221 T01060006", "KONP 281015Z AUTO 00000KT 10SM CLR 07/06 A2995 RMK AO2", "KONT 280953Z 00000KT 6SM BR CLR 13/12 A2992 RMK AO2 SLP118 T01280117 $", "KONX 281025Z AUTO 11007G15KT 4SM RA BKN007 OVC016 16/16 A2989 RMK AO2 P0014 T01600160", "KONZ 281035Z AUTO 04009KT 10SM OVC090 08/05 A2984 RMK AO2 T00750046", "KOOA 281015Z AUTO 20006KT 10SM CLR 10/03 A2981 RMK AO2 T00960026", "KOPF 280953Z AUTO 01003KT 10SM CLR 22/19 A2990 RMK AO2 SLP126 T02220194", "KOPL 281015Z AUTO 00000KT 10SM CLR 14/13 A2981 RMK AO2 T01380130", "KOPN 281015Z AUTO 23004KT 10SM OVC015 16/14 A2980 RMK AO2", "KOQN 281015Z AUTO 08006KT 10SM BKN009 10/08 A3010 RMK AO2", "KOQT 281016Z AUTO 00000KT 8SM BKN005 OVC012 14/14 A2974 RMK AO2 RAB0956E08 CIG 002V008 P0000 T01440139", "KORB 281033Z AUTO 00000KT 7SM -DZ OVC033 03/03 A2991 RMK AO2", "KORD 280951Z 36006KT 10SM SCT180 BKN250 08/01 A2981 RMK AO2 SLP096 T00780011", "KORE 280959Z AUTO 00000KT 4SM BR OVC002 03/02 A3024 RMK AO2 CIG 002V005 T00280022", "KORF 280951Z 08012G17KT 6SM -RA BR SCT036 OVC046 15/14 A2990 RMK AO2 SLP123 P0007 T01500139", "KORG 281015Z AUTO 00000KT 1 3/4SM BR VV007 14/13 A2982 RMK AO2 VIS 3/4V5 T01390130", "KORH 280954Z 31004KT 10SM CLR 07/05 A3020 RMK AO2 SLP232 T00670050", "KORK 281035Z AUTO 32006KT 10SM BKN004 OVC046 13/13 A2976 RMK AO2", "KORL 280953Z AUTO 22005KT 10SM CLR 20/18 A2987 RMK AO2 SLP119 T02000183", "KORS 281035Z AUTO 00000KT 10SM CLR 08/07 A3012 RMK AO2", "KOSA 281015Z AUTO 00000KT 2 1/2SM BR CLR 08/ A2979 RMK AO2 VIS 1 3/4V4 T0082////", "KOSC 281035Z AUTO 00000KT 4SM BR CLR 00/00 A2995 RMK AO2 T00000000", "KOSU 281030Z AUTO 09013KT 2SM RA BR OVC007 13/12 A2971 RMK AO2 P0006 T01330117", "KOTG 280956Z AUTO 00000KT 3SM -RA BR OVC029 09/09 A2979 RMK AO2 SLP089 T00940094 PNO $", "KOTH 281022Z AUTO 12003KT 1/4SM FG OVC002 10/10 A2994 RMK AO2 RVRNO", "KOTM 280953Z AUTO 17004KT 10SM CLR 07/04 A2979 RMK AO2 SLP087 T00670039", "KOUN 281015Z AUTO 00000KT 5SM BR CLR 08/08 A2981 RMK AO2 T00790075", "KOVL 281035Z AUTO 03010KT 4SM -RA BKN007 OVC017 08/07 A2981 RMK AO2 P0006", "KOVS 280953Z AUTO 00000KT 10SM CLR 04/01 A2983 RMK AO2 SLP103 T00440011", "KOWA 281033Z AUTO 00000KT 10SM CLR 06/05 A2979 RMK AO2", "KOWB 281033Z AUTO 35004KT 10SM SCT006 BKN012 OVC019 12/11 A2971 RMK AO2", "KOWD 281030Z AUTO 00000KT 3/4SM BR VV002 03/02 A3024 RMK AO2 T00280017", "KOWI 281015Z AUTO 00000KT 10SM FEW070 OVC085 09/08 A2981 RMK AO2", "KOWP 281015Z AUTO 00000KT 3SM BKN034 12/12 A2983 RMK AO2 T01240119", "KOWX 281015Z AUTO 03010KT 7SM SCT023 BKN031 OVC070 08/06 A2979 RMK AO1", "KOXB 280953Z AUTO 10011G20KT 10SM FEW038 OVC045 13/11 A3003 RMK AO2 SLP169 T01330111", "KOXC 280951Z AUTO 04003KT 1/4SM FG OVC002 04/04 A3020 RMK AO2 SLP244 T00440044", "KOXD 281015Z AUTO 00000KT 7SM OVC003 11/10 A2966 RMK AO2 T01100101", "KOXI 281015Z AUTO 08006KT 10SM SCT060 OVC070 08/01 A2981 RMK AO1", "KOXR 280951Z AUTO 00000KT 3SM BR OVC003 11/11 A2993 RMK AO2 SLP134 T01110111 $", "KOXV 281015Z AUTO 23004KT 10SM BKN140 10/04 A2979 RMK AO2", "KOYM 281035Z AUTO 12012G16KT 10SM OVC013 10/07 A3000 RMK AO2 PWINO", "KOZA 281015Z AUTO 19013G20KT 10SM CLR 17/03 A2979 RMK AO2", "KOZR 280955Z AUTO 21005KT 10SM OVC010 18/18 A2977 RMK AO2 SLP082 T01820180", "KOZS 281035Z AUTO 30004KT 10SM OVC060 09/07 A2980 RMK AO2", "KOZW 281035Z AUTO 01004KT 10SM CLR 06/01 A2985 RMK AO2 T00630010", "KP08 281015Z AUTO 11007KT 10SM CLR 17/M04 A2984 RMK AO2", "KP28 280956Z AUTO 00000KT 10/10 A2984 RMK AO1 SLP100 T01000100 $", "KP52 281015Z AUTO 27004KT 10SM CLR 12/M04 A2995 RMK AO2", "KP53 280956Z AUTO 00000KT 04/02 A2995 RMK AO1 SLP148 T00440022", "KP58 280955Z AUTO 08005KT 07/03 A2993 RMK AO1 SLP139 T00670028", "KP59 280951Z AUTO 00000KT 04/03 A2995 RMK AO1 SLP150 P0002 T00440028", "KP60 280956Z AUTO 00000KT M10/M12 A3032 RMK AO1 SLP297 T11001117", "KP68 280953Z AUTO 00000KT 01/M03 A3020 RMK AO1 SLP182 T00111033", "KP69 280952Z AUTO 02003KT 06/03 A3027 RMK AO1 SLP245 T00560028 $", "KPAE 280953Z AUTO 36004KT 10SM CLR 10/07 A3011 RMK AO2 SLP196 T01000067", "KPAH 280953Z AUTO 01006KT 2 1/2SM BR OVC003 13/12 A2969 RMK AO2 SLP050 T01280117", "KPAM 280955Z 24006KT 10SM BKN020 22/21 A2977 RMK AO2A SLP084 T02180209 $", "KPAN 281035Z AUTO 00000KT 10SM CLR 11/M06 A3003 RMK AO2 PWINO TSNO", "KPBF 280953Z AUTO 27004KT 10SM OVC005 14/13 A2976 RMK AO2 SLP076 T01440128", "KPBG 280953Z AUTO 00000KT 10SM CLR M01/M02 A3020 RMK AO2 SLP227 T10061017", "KPBH 281035Z AUTO 01003KT 10SM DZ OVC060 07/06 A2984 RMK AO2 T00650060", "KPBI 280953Z 00000KT 10SM SCT180 SCT200 22/18 A2990 RMK AO2 SLP126 T02170183 $", "KPBX 281015Z AUTO 15006KT 10SM SCT035 SCT042 SCT048 13/13 A2972 RMK AO2 T01280128", "KPCD 281035Z AUTO 33006KT 7SM OVC090 12/12 A2975 RMK AO2 P0001 T01150115", "KPCM 281015Z AUTO 16004KT 10SM CLR 22/19 A2988 RMK AO2", "KPCW 281015Z AUTO 08007KT 9SM SCT047 BKN055 OVC070 09/09 A2980 RMK AO2", "KPCZ 281035Z AUTO 00000KT 10SM CLR 05/02 A2987 RMK AO2 T00530020", "KPDC 281035Z AUTO 10004KT 10SM CLR 07/00 A2982 RMK AO2 T00651002", "KPDK 281020Z 17003KT 6SM BR BKN010 BKN014 OVC024 15/14 A2976 RMK AO2 CIG 007V011 T01500144", "KPDT 280953Z AUTO 15003KT 10SM CLR 11/01 A3014 RMK AO2 SLP198 T01110011", "KPDX 280953Z 29006KT 10SM CLR 13/07 A3000 RMK AO2 SLP159 T01330067", "KPEA 281015Z AUTO 21004KT 10SM CLR 11/03 A2980 RMK AO2 T01060033", "KPEO 280953Z AUTO 00000KT 10SM FEW042 SCT050 06/05 A3007 RMK AO2 SLP186 T00560050", "KPEQ 281015Z AUTO 00000KT 10SM CLR 12/M10 A2971 RMK AO2 T01221097", "KPEX 281035Z AUTO 01009KT 10SM OVC005 07/07 A2985 RMK AO2 P0001", "KPEZ 281015Z AUTO 00000KT 1/4SM FG OVC001 18/18 A2979 RMK AO2 T01800175", "KPGA 280953Z AUTO 31008KT 10SM CLR 18/M04 A2999 RMK AO2 SLP095 T01831039", "KPGD 280953Z 19007KT 10SM CLR 22/19 A2990 RMK AO2 SLP123 T02170189", "KPGV 281025Z AUTO 00000KT 7SM DZ SCT005 SCT031 SCT070 18/18 A2981 RMK AO2 P0001", "KPHD 280953Z AUTO 10007KT 9SM -RA OVC070 13/10 A2981 RMK AO2 SLP092 P0005 T01280100", "KPHF 280954Z AUTO 08013KT 10SM -RA FEW045 BKN070 OVC095 14/13 A2991 RMK AO2 SLP128 P0002 T01440133", "KPHL 280954Z 06010KT 10SM BKN010 OVC180 10/09 A3011 RMK AO2 SLP194 T01000089 $", "KPHN 281015Z AUTO 02003KT 10SM CLR 06/01 A2989 RMK AO2", "KPHP 280955Z AUTO 32004KT 10SM OVC085 04/03 A3008 RMK AO2 SLP187 T00440028 $", "KPHT 281015Z AUTO 00000KT 4SM BR BKN004 BKN009 OVC016 15/15 A2969 RMK A01", "KPHX 280951Z 09004KT 10SM CLR 22/01 A2977 RMK AO2 SLP064 T02220006", "KPIA 280954Z 06004KT 10SM CLR 08/02 A2979", "KPIB 280956Z AUTO 00000KT 10SM FEW043 BKN055 16/16 A2979 RMK AO2 SLP085 T01610161", "KPIE 280953Z 20009KT 10SM FEW110 23/22 A2984 RMK AO2 SLP104 T02330222", "KPIH 280953Z AUTO 00000KT 10SM CLR M01/M07 A3028 RMK AO2 SLP243 T10061072", "KPIL 280953Z AUTO 00000KT 10SM OVC010 23/22 A2977 RMK AO2 SLP080 T02330222 $", "KPIM 281015Z AUTO 24004KT 10SM OVC006 17/16 A2979 RMK AO2 T01660156", "KPIR 280953Z AUTO 33013KT 10SM OVC090 05/03 A3004 RMK AO2 SLP173 T00500033", "KPIT 280951Z 11010KT 7SM -RA FEW045 OVC060 13/11 A2986 RMK AO2 SLP115 P0003 T01280106", "KPJC 281035Z AUTO 11005KT 7SM RA SCT027 BKN034 OVC060 12/10 A2987 RMK AO2", "KPKB 281010Z AUTO 09008KT 5SM -RA BR FEW012 BKN043 OVC050 13/12 A2976 RMK AO2 P0003 T01280117", "KPKD 280953Z AUTO 35009KT 10SM OVC035 05/03 A2990 RMK AO2 RAE42 SLP135 P0000 T00500033", "KPKV 281010Z AUTO 17004KT 1/2SM FG VV005 19/19 A2978 RMK AO2 T01940187", "KPLN 280954Z AUTO 35003KT 10SM FEW085 SCT110 03/02 A2996 RMK AO2 SLP149 T00330022", "KPLR 281035Z AUTO 20006KT 10SM BKN007 BKN027 OVC034 18/18 A2974 RMK A01", "KPLU 281035Z AUTO 00000KT 10SM -DZ FEW075 07/07 A3008 RMK AO2", "KPMD 280953Z AUTO 20009KT 10SM CLR 16/02 A2994 RMK AO2 SLP114 T01560022", "KPMH 281015Z AUTO 16003KT 7SM -DZ BKN005 OVC012 15/13 A2973 RMK AO2 T01450125 P0004", "KPMP 280953Z AUTO 00000KT 10SM CLR 22/18 A2990 RMK AO2 SLP124 T02220183", "KPMU 281015Z AUTO 29004KT 10SM OVC007 15/14 A2974 RMK AO2", "KPMV 281015Z AUTO 27003KT 10SM OVC080 11/05 A2979 RMK AO2 T01090052", "KPNA 281015Z AUTO 30004KT 10SM CLR M04/M06 A3031 RMK AO2", "KPNC 280958Z AUTO 27003KT 3SM BR FEW002 SCT110 08/08 A2982 RMK AO2 T00830078", "KPNE 280954Z AUTO 07007KT 9SM OVC007 10/08 A3014 RMK AO2 SLP205 T01000083", "KPNM 281035Z AUTO 01007KT 10SM -DZ OVC006 08/07 A2985 RMK AO2", "KPNS 280953Z 24004KT 9SM FEW004 BKN012 21/19 A2977 RMK AO2 SLP082 T02060194 $", "KPNT 281015Z AUTO 05005KT 10SM CLR 07/00 A2980 RMK AO2 T00661005", "KPO1 281020Z AUTO 24004KT 10SM OVC075 05/03 A3013 RMK AO2", "KPOB 281033Z AUTO 18008KT 9SM RA BKN005 18/18 A2978 RMK AO2 CIG 005V065 SLP086 $", "KPOE 280955Z AUTO 00000KT 10SM CLR 11/11 A2979 RMK AO2 SLP089 T01120110", "KPOF 281024Z AUTO 34005KT 6SM BR BKN010 OVC019 12/11 A2974 RMK AO2 CIG 007V014 T01220111", "KPOU 281034Z AUTO 03003KT 2 1/2SM BR OVC002 06/05 A3019 RMK AO2 T00560050", "KPOV 281035Z AUTO 11006KT 10SM SCT027 BKN034 OVC070 12/08 A2984 RMK AO2 T01190079 PWINO", "KPOY 281015Z AUTO 00000KT 10SM CLR 00/M06 A3022 RMK AO2", "KPPA 281015Z AUTO 05006KT 10SM 11/09 A2988 RMK AO2 T01050092", "KPPF 281005Z AUTO 00000KT 1/4SM FG VV001 06/04 A2982 RMK AO2 T00560039", "KPPO 281015Z AUTO 07004KT 10SM OVC100 08/03 A2982 RMK AO2 T00800034", "KPPQ 281015Z AUTO 00000KT 10SM OVC090 10/06 A2980 RMK AO2 T00960057", "KPQI 280956Z AUTO 00000KT 10SM CLR M02/M03 A3022 RMK AO2 SLP265 T10221028", "KPQL 281031Z AUTO 32003KT 9SM BKN004 19/19 A2978 RMK AO2 T01940189", "KPRB 280953Z AUTO 00000KT 10SM CLR 11/07 A2992 RMK AO2 SLP125 T01110072", "KPRC 280953Z AUTO 19005KT 10SM CLR 08/M02 A3003 RMK AO2 SLP103 T00831022", "KPRG 281015Z AUTO 06008KT 10SM SCT029 SCT035 OVC041 10/09 A2975 RMK AO2 T00980088", "KPRN 281002Z AUTO 23004KT 10SM OVC009 18/17 A2977 RMK AO2 CIG 007V011 T01780172", "KPRO 281015Z AUTO 00000KT 10SM OVC080 08/05 A2979 RMK AO2 T00820046", "KPRS 281015Z AUTO 34005KT 10SM CLR 16/M02 A2984 RMK AO2 T01621016", "KPRX 280956Z AUTO 00000KT 10SM -RA CLR 10/10 A2979 RMK AO2 SLP085 P0000 T01000100", "KPSC 280953Z AUTO 34005KT 10SM CLR 06/04 A3014 RMK AO2 SLP207 T00610039", "KPSF 281031Z AUTO 25004KT 2 1/2SM BR SCT004 01/M01 A3019 RMK AO2 T00061006", "KPSK 281035Z AUTO 06007KT 10SM -RA OVC006 11/11 A2980 RMK AO2 P0001 T01120112", "KPSM 280955Z 30003KT 7SM FEW250 03/02 A3022 RMK AO2A SLP237 T00300024", "KPSN 281015Z AUTO 00000KT 10SM CLR 09/09 A2978 RMK AO2", "KPSO 281015Z AUTO 33007KT 10SM CLR 05/M04 A2997 RMK AO2 T00501037", "KPSP 280953Z AUTO 00000KT 10SM CLR 23/07 A2980 RMK AO2 SLP087 T02330067 $", "KPSX 280953Z AUTO 14006KT 6SM BR CLR 19/19 A2976 RMK AO2 SLP077 T01890189 $", "KPTB 281035Z AUTO 08007G14KT 7SM -RA SCT009 BKN013 OVC028 13/13 A2989 RMK AO2 P0013 T01320126", "KPTD 281035Z AUTO 00000KT 10SM CLR 03/M01 A3014 RMK AO2", "KPTK 280953Z 06008KT 10SM FEW120 OVC170 07/00 A2986 RMK AO2 SLP112 T00720000", "KPTN 280956Z AUTO 25003KT 10SM FEW037 17/16 A2983 RMK AO2 SLPNO T01720161 $", "KPTS 281035Z AUTO 00000KT 1/4SM OVC002 05/05 A2981 RMK AO2 T00450045 PWINO", "KPTT 281015Z AUTO 36007KT 10SM -RA SCT008 BKN027 OVC033 11/11 A2987 RMK AO2 P0003 T01090105", "KPTV 280956Z AUTO 11005KT 10SM CLR 16/11 A2989 RMK AO2 SLP117 T01610106", "KPTW 280954Z AUTO 07005KT 9SM OVC009 08/07 A3012 RMK AO2 SLP199 T00830072", "KPUB 280953Z AUTO 02019G31KT 10SM FEW035 BKN070 OVC085 07/M01 A3011 RMK AO2 PK WND 02037/0909 RAE0859 SLP162 P0000 T00671006", "KPUC 280953Z AUTO 03020KT 10SM CLR 04/M04 A3020 RMK AO2 SLP203 T00441044", "KPUJ 281015Z AUTO 22003KT 10SM OVC005 15/15 A2976 RMK AO2", "KPUW 280953Z AUTO 09003KT 10SM CLR 07/M02 A3020 RMK AO2 SLP225 T00721022", "KPVB 281015Z AUTO 10010KT 10SM CLR 06/M01 A2982 RMK AO1 T00601013", "KPVC 280956Z AUTO 27005KT 1/4SM FG OVC003 07/07 A3024 RMK AO2 SLP239 T00670067", "KPVD 281023Z 00000KT 1/4SM FG VV002 05/05 A3024 RMK AO2 TWR VIS 3/4 T00500050 RVRNO", "KPVE 281015Z AUTO 00000KT 10SM CLR 13/13 A2970 RMK A01", "KPVF 281015Z AUTO 09006KT 10SM CLR 19/00 A2998 RMK AO1", "KPVG 281035Z 2 1/2SM OVC008 14/14 A2990 RMK AO2 SLP299 P0996 PWINO FZRANO RVRNO", "KPVJ 281015Z AUTO 00000KT 10SM CLR 07/07 A2982 RMK AO2 T00710071", "KPVU 280956Z AUTO 35005KT 10SM CLR 09/M03 A3017 RMK AO2 SLP184 T00891028", "KPVW 281015Z AUTO 04017G22KT 10SM SCT009 09/07 A2979 RMK AO2 T00870067", "KPWA 280953Z AUTO 00000KT 4SM BR CLR 06/05 A2982 RMK AO2 SLP096 T00610050", "KPWC 281035Z AUTO 35003KT 10SM BKN085 06/02 A2993 RMK AO2", "KPWD 281015Z AUTO 35008KT 10SM CLR 01/M00 A3011 RMK AO2", "KPWG 280956Z AUTO 00000KT 10SM CLR 13/12 A2978 RMK AO2 SLP079 T01280117", "KPWM 280951Z 00000KT 8SM BCFG FEW250 03/03 A3023 RMK AO2 SLP235 T00330028", "KPWT 280956Z AUTO 05009KT 9SM CLR 13/04 A3009 RMK AO2 SLP191 T01280044", "KPXE 281015Z AUTO 23003KT 5SM BR OVC005 18/18 A2979 RMK AO2 T01760176", "KPYM 280952Z AUTO 00000KT 1/4SM FG VV002 06/06 A3022 RMK AO2 SLP236 T00610056", "KPYX 281015Z AUTO 35013G16KT 10SM SCT065 OVC085 10/08 A2988 RMK AO2 T00950084", "KPZQ 281035Z AUTO 00000KT 10SM CLR 03/03 A2999 RMK AO2 T00340033", "KQAZ 280955Z AUTO 11008G17KT 9999 SCT170 38/M01 A2994 RMK AO2 SLP130 WND DATA ESTMD T03761009", "KQBL 281010Z AUTO 00000KT 5SM BR FEW005 SCT007 20/20 A2978 RMK AO2 SLP090 WND DATA ESTMD", "KQBR 280955Z AUTO 10012G21KT 10SM CLR 09/M04 A3020 RMK AO2 SLP164 WND DATA ESTMD T00921037", "KQD3 280955Z AUTO 05009KT 9999 CLR 35/22 A2976 RMK AO2 LTG DSNT NW SLP062 WND DATA ESTMD T03530220", "KQDG 280955Z AUTO 00000KT 9999 CLR 12/04 A3006 RMK AO2 SLPNO T01180040 $", "KQEI 281030Z AUTO 18002KT 9999 BKN050 18/04 A2991 RMK A02 TSNO", "KQEJ 281030Z AUTO 20003KT 9999 BKN047 OVC075 18/04 A2990 RMK A02 TSNO", "KQEN 281030Z AUTO 25009G23KT 9999 OVC160 14/00 A2992 RMK A02 TSNO", "KQEP 281030Z AUTO 15001KT 9999 OVC041 19/09 A2996 RMK A02 TSNO", "KQEQ 281030Z AUTO 15002KT 9999 OVC039 16/08 A2997 RMK A02 TSNO", "KQER 281030Z AUTO 21003KT 9999 BKN036 16/06 A2989 RMK A02 TSNO", "KQES 281020Z AUTO 22002KT 9999 OVC037 18/08 A3001 RMK A02 TSNO", "KQEV 281030Z AUTO 21001KT 9999 OVC043 20/11 A2991 RMK A02 TSNO", "KQEW 281030Z AUTO 23003KT 9999 OVC085 21/09 A2992 RMK A02 TSNO", "KQEX 281030Z AUTO 15007G19KT 9999 CLR 20/11 A2985 RMK A02 TSNO", "KQEY 281030Z AUTO 18006KT 9999 OVC042 20/11 A2966 RMK A02 TSNO", "KQFB 281030Z AUTO 15002KT 9000 HZ BKN065 19/09 A3004 RMK A02 TSNO", "KQFT 281030Z AUTO 18002KT 9999 OVC043 19/09 A2992 RMK A02 TSNO", "KQFU 281030Z AUTO 23002KT 9999 OVC036 16/07 A2997 RMK A02 TSNO", "KQFV 281030Z AUTO 30001KT 9999 OVC037 16/07 A2997 RMK A02 TSNO", "KQFW 281030Z AUTO 19003KT 9999 BKN048 18/05 A2976 RMK A02 TSNO", "KQFX 281030Z AUTO 27003KT 9999 SCT049 OVC085 20/10 A2992 RMK A02 TSNO", "KQHY 281007Z AUTO 00000KT 9SM SCT007 21/20 A2977 RMK AO2 SLP088", "KQN3 280955Z 23009KT 9999 CLR 35/20 A2990 RMK SLP107 WND DATA ESTMD T03440208", "KQRH 280955Z AUTO 07011G17KT 030V100 9999 CLR 34/24 A2971 RMK AO2 LTG DSNT NW SLP063 WND DATA ESTMD T03360239", "KQTZ 280955Z 18007KT 9999 FEW180 36/04 A2968 RMK SLP051", "KQVF 281025Z AUTO VRB04KT 9000 -SHRA FEW008 BKN012 BKN034 25/24 A2987 RMK AO2 SHRAE05SHRAB25 CIG 012V017 BKN V SCT SLP117 WND DATA ESTMD", "KRAC 280953Z AUTO 00000KT 10SM CLR 07/01 A2987 RMK AO2 SLP115 T00720006", "KRAL 280953Z AUTO 00000KT 7SM CLR 13/11 A2992 RMK AO2 SLP116 T01330106", "KRAP 280952Z AUTO 33012KT 10SM OVC075 05/02 A3011 RMK AO2 SLP210 T00500017", "KRAS 281015Z AUTO 14008KT 10SM SCT010 22/20 A2980 RMK AO2 T02190203", "KRAW 281035Z AUTO 00000KT 1 1/2SM BR VV007 05/04 A2981 RMK AO2 VIS 1V3", "KRBD 280953Z AUTO 13003KT 10SM CLR 11/11 A2978 RMK AO2 SLP082 T01110106", "KRBG 280953Z AUTO 00000KT 10SM CLR 14/10 A2994 RMK AO2 SLP137 T01390100", "KRBL 280954Z AUTO 32006KT 10SM CLR 17/12 A2989 RMK AO2 SLP116 T01670117", "KRBO 281015Z AUTO 00000KT 7SM BKN007 18/18 A2979 RMK AO2 T01840184", "KRBW 281035Z AUTO 26005KT 10SM BKN007 BKN015 OVC022 18/18 A2980 RMK AO2", "KRCA 280955Z AUTO 30016KT 10SM BKN060 OVC075 06/02 A3009 RMK AO2 SLP203 T00550018 $", "KRCE 281035Z AUTO 00000KT 4SM BR OVC120 07/07 A2982 RMK AO2", "KRCM 281035Z AUTO 00000KT 10SM OVC085 08/07 A2980 RMK AO2", "KRCR 281015Z AUTO 03006KT 4SM -RA BR SCT044 OVC055 07/07 A2980 RMK AO2", "KRCV 281015Z AUTO 05025G30KT 10SM SCT016 BKN038 OVC050 02/M02 A3005 RMK AO2 T00201023", "KRCX 281035Z AUTO 36004KT 10SM SCT065 OVC075 08/08 A2985 RMK AO2 T00840080", "KRCZ 281035Z AUTO 17007KT 7SM UP SCT005 BKN009 OVC013 18/17 A2977 RMK AO2 P0001 T01780172", "KRDD 280953Z AUTO 33003KT 10SM CLR 16/10 A2989 RMK AO2 SLP115 T01560100", "KRDG 280954Z AUTO 08006KT 10SM FEW048 11/06 A3009 RMK AO2 SLP194 T01060061", "KRDK 281015Z AUTO 00000KT 10SM BKN055 BKN075 OVC085 10/07 A2979 RMK AO2", "KRDM 280956Z AUTO 00000KT 10SM CLR 05/00 A3015 RMK AO2 SLP200 T00500000", "KRDR 280955Z AUTO 32006KT 10SM OVC120 02/00 A3000 RMK AO2 SLP172 T00180000 $", "KRDU 281034Z 16006KT 2SM -RA BR FEW003 BKN019 BKN035 OVC250 18/17 A2978 RMK AO2 SFC VIS 3 RAE18B27 P0001 T01780167", "KREG 281015Z AUTO 00000KT 10SM SCT037 16/16 A2980 RMK AO2 T01620155", "KREO 280952Z AUTO 00000KT 03/M02 A3019 RMK AO1 SLP207 T00331022", "KRFD 280954Z 36003KT 10SM FEW250 03/00 A2984 RMK AO2 SLP107 T00330000", "KRFI 281015Z AUTO 00000KT 10SM CLR 11/08 A2980 RMK AO2 T01050077", "KRGA 281015Z AUTO 18003KT 10SM OVC014 14/14 A2971 RMK AO2", "KRGK 281035Z AUTO 00000KT 10SM CLR 09/05 A2978 RMK AO2", "KRHI 280953Z AUTO 12005KT 7SM OVC060 06/04 A2986 RMK AO2 SLP119 T00610039 $", "KRHP 281030Z AUTO 00000KT 7SM -RA SCT001 OVC023 13/12 A2977 RMK AO2 T01310124", "KRIC 280954Z 09012G18KT 5SM RA BR FEW010 SCT017 OVC045 14/13 A2990 RMK AO2 SLP130 P0013 T01440128", "KRID 281035Z AUTO 05011KT 5SM BR OVC005 07/07 A2967 RMK AO2", "KRIL 280953Z AUTO 32011KT 10SM FEW120 06/M02 A3014 RMK AO2 SLP170 T00561022", "KRIV 280955Z AUTO 00000KT 10SM CLR 11/09 A2992 RMK AO2 SLP121 T01060089", "KRIW 280953Z AUTO 30007KT 10SM CLR M03/M07 A3025 RMK AO2 SLP265 T10331067 $", "KRKD 280956Z AUTO 29004KT 10SM CLR 03/03 A3022 RMK AO2 SLP235 T00330028", "KRKP 280953Z AUTO 15004KT 8SM CLR 20/19 A2977 RMK AO2 SLP082 T02000194 $", "KRKR 281015Z AUTO 00000KT 10SM OVC032 11/10 A2982 RMK AO2", "KRKS 280954Z AUTO 29004KT 10SM CLR M03/M06 A3030 RMK AO2 SLP241 T10331061", "KRKW 281015Z AUTO 00000KT M1/4SM FG OVC002 13/13 A2972 RMK A01", "KRLD 281015Z AUTO 33003KT 10SM CLR 07/05 A3015 RMK AO2 T00720045", "KRME 280953Z AUTO 12005KT 10SM CLR 04/01 A3017 RMK AO2 SLP215 T00440011", "KRMG 280953Z AUTO 13003KT 10SM OVC009 16/15 A2972 RMK AO2 CIG 006V012 SLP057 T01610150", "KRMN 281035Z AUTO 08008G14KT 7SM RA OVC007 17/15 A2995 RMK AO2 P0005 T01660154", "KRMY 281035Z AUTO 00000KT 10SM BKN110 07/01 A2984 RMK AO2 T00660005", "KRNC 281015Z AUTO 33005KT 6SM BR FEW022 SCT031 BKN036 15/15 A2969 RMK A01", "KRND 281020Z AUTO 19006KT 5SM BR OVC002 20/19 A2975 RMK AO2 SLP067", "KRNH 281015Z AUTO 02004KT 10SM -DZ BKN065 OVC095 08/08 A2981 RMK AO2 T00820082", "KRNM 281029Z AUTO 00000KT 1 3/4SM BR CLR 07/06 A2992 RMK AO2 T00720061", "KRNO 280955Z 29005KT 10SM CLR 12/M02 A3012 RMK AO2 SLP154 T01221022", "KRNP 281035Z AUTO 00000KT 10SM CLR 07/M01 A2988 RMK AO2 T00681011", "KRNT 280953Z AUTO 34007KT 10SM CLR 11/08 A3008 RMK AO2 SLP192 T01110083", "KROA 280954Z 07009KT 4SM +RA BR BKN015 BKN020 OVC024 13/12 A2984 RMK AO2 SLP098 P0026 T01330117", "KROC 280954Z 13006KT 10SM FEW180 BKN250 07/02 A3004 RMK AO2 SLP179 T00670022", "KROG 281014Z AUTO 00000KT 3SM OVC002 10/10 A2981 RMK AO2 TSNO", "KROS 281035Z AUTO 03008KT 10SM -RA OVC005 10/08 A2985 RMK AO2 T00950080", "KROW 280951Z AUTO 02033G46KT 8SM FEW010 16/03 A2981 RMK AO2 PK WND 01046/0951 WSHFT 0927 SLP034 T01610033", "KROX 281035Z AUTO 00000KT 10SM BKN075 02/01 A2998 RMK AO2", "KRPD 281035Z AUTO 03008KT 10SM DZ OVC070 08/08 A2983 RMK AO2 T00780078", "KRPH 281035Z AUTO 10008KT 10SM FEW160 13/10 A2973 RMK AO2 T01270105 $", "KRPJ 281015Z AUTO 04005KT 10SM CLR 04/02 A2983 RMK AO2 T00410017 TSNO", "KRPX 280947Z AUTO 10SM M01/M06 A3009 RMK Roundup ", "KRQB 281015Z AUTO 00000KT 10SM CLR 01/M02 A2991 RMK AO2 T00071018", "KRQE 280953Z AUTO 04003KT 10SM CLR 02/M08 A3003 RMK AO2 SLP093 T00221078", "KRQO 281015Z AUTO 00000KT 07/ A2983 RMK AO2 PWINO T0068////", "KRRL 281035Z AUTO 12003KT 10SM SCT070 BKN080 OVC090 07/04 A2985 RMK AO2 T00710038 TSNO", "KRRT 281015Z AUTO 00000KT 10SM SCT070 M01/M02 A2999 RMK AO2", "KRSL 281024Z AUTO 33018G21KT 10SM -RA BKN016 BKN031 OVC065 11/09 A2986 RMK AO2 P0002 T01110094 $", "KRSN 281035Z AUTO 20003KT 10SM CLR 12/12 A2979 RMK AO2 T01220122 $", "KRSP 280954Z AUTO VRB05G17KT 1/4SM -RA FG VV001 10/08 A3000 RMK AO2 RAB40 SLP161 P0000 T01000078 $", "KRST 280954Z 18010KT 10SM CLR 09/01 A2977 RMK AO2 SLP082 T00890006", "KRSW 280953Z 15003KT 10SM CLR 20/18 A2989 RMK AO2 SLP119 T02000183", "KRTN 280953Z AUTO 36021G32KT 10SM OVC050 03/M02 A3000 RMK AO2 PK WND 36032/0949 SLP103 T00331017", "KRTS 281015Z AUTO 34005KT 10SM CLR 03/M05 A3016 RMK AO2", "KRUE 281025Z AUTO 02004KT 5SM BR OVC007 13/12 A2977 RMK AO2 CIG 003V010 T01330122", "KRUG 281035Z AUTO 35004KT 10SM BKN024 OVC036 02/03 A3006 RMK AO2", "KRUQ 281025Z AUTO 22003KT 10SM BKN014 BKN060 OVC100 16/16 A2975 RMK AO2 T01580156", "KRUT 280956Z AUTO 15005KT 10SM CLR 00/M01 A3022 RMK AO2 SLP234 T00001006 FZRANO $", "KRVF 281015Z AUTO 20008KT 10SM CLR M05/M06 A3032 RMK AO2", "KRVJ 281015Z AUTO 00000KT 10SM OVC022 18/ A2980 RMK AO2 T0185////", "KRVL 281035Z AUTO 09009G16KT 10SM FEW017 FEW035 BKN070 11/07 A3002 RMK AO2", "KRVS 281033Z AUTO 00000KT 1 3/4SM BR CLR 10/09 A2981 RMK AO2 T01000094", "KRWF 281033Z AUTO 04007KT 5SM BR OVC004 09/08 A2980 RMK AO2 RAB02E11 P0000 T00890078", "KRWI 281026Z AUTO 15003KT 8SM -RA SCT006 SCT013 OVC065 18/16 A2981 RMK AO2 P0001 T01780161", "KRWL 280953Z AUTO 34007KT 10SM BKN024 BKN029 M01/M03 A3025 RMK AO2 SLP228 T10061033", "KRWV 281015Z AUTO 00000KT 10SM CLR 13/12 A2978 RMK AO2 T01320123", "KRXE 280953Z AUTO 03005KT 10SM CLR 00/M06 A3031 RMK AO2 SLP256 T00001061", "KRYM 280955Z AUTO 01007KT 10SM OVC005 07/07 A2985 RMK AO2 SLP118 T00740067", "KRYN 281015Z AUTO 11004KT 10SM VCTS BKN100 14/M08 A2988 RMK AO2 LTG DSNT ALQDS", "KRYW 281015Z AUTO 22009KT 10SM CLR 17/16 A2976 RMK AO2 T01730156", "KRYY 281004Z AUTO VRB03KT 10SM OVC004 16/15 A2976 RMK AO2 $", "KRZL 281015Z AUTO 06006KT 10SM SCT055 OVC070 08/02 A2981 RMK AO2", "KRZN 281035Z AUTO 06007KT 10SM OVC005 07/06 A2985 RMK AO2 T00650061", "KRZR 281015Z AUTO 19004KT 9SM OVC010 16/16 A2970 RMK A01", "KRZT 281015Z AUTO 13003KT 7SM BKN009 OVC012 12/12 A2972 RMK AO2 PWINO P0005", "KS21 281015Z AUTO 06004KT 10SM CLR 04/01 A3021 RMK AO2", "KS24 281035Z AUTO 03006KT 7SM -RA FEW025 BKN065 OVC090 08/07 A2980 RMK AO2", "KS25 281035Z AUTO 26004KT 10SM BKN060 OVC070 04/02 A3010 RMK AO2", "KS32 281035Z AUTO 35010KT 10SM SCT042 SCT055 OVC060 02/02 A3003 RMK AO2 TSNO", "KS33 281015Z AUTO 13005KT 10SM CLR A3017 RMK AO2", "KS39 281015Z AUTO 00000KT 10SM CLR 05/M00 A3017 RMK AO2", "KS52 281015Z AUTO 00000KT 10SM BKN100 OVC120 03/00 A3023 RMK AO2 T00280005", "KS71 281030Z AUTO 00000KT 10SM 01/M01 A3017 ", "KS85 281025Z AUTO 00000KT 10SM 04/03 A3010 RMK A01 Culbertson ", "KSAA 281015Z AUTO 23004KT 10SM CLR M03/M03 A3025 RMK AO2", "KSAC 280953Z AUTO 17003KT 10SM CLR 16/10 A2986 RMK AO2 SLP110 T01560100", "KSAD 280951Z AUTO 31005KT 10SM CLR 17/M06 A2987 RMK AO2 SLP068 T01671061", "KSAF 280953Z AUTO 01009KT 10SM CLR 07/M08 A2992 RMK AO2 SLP058 T00671083", "KSAN 280951Z 32003KT 10SM OVC008 15/12 A2994 RMK AO2 SLP137 T01500122", "KSAR 281015Z AUTO 34004KT 7SM SCT065 BKN085 10/10 A2977 RMK AO2 T01020102", "KSAT 280951Z 19007KT 10SM BKN009 19/18 A2979 RMK AO2 SLP070 T01940178 $", "KSAV 281017Z 24007KT 10SM SCT006 OVC021 18/17 A2980 RMK AO2 T01830167 $", "KSAW 280958Z AUTO 14003KT 3SM BR BKN003 OVC008 04/04 A2994 RMK AO2 T00430035", "KSAZ 281035Z AUTO 36004KT 10SM SCT120 06/03 A2989 RMK AO2", "KSBA 280953Z AUTO 00000KT 2 1/2SM FG BR OVC003 12/11 A2992 RMK AO2 SLP133 T01170106 $", "KSBD 281020Z AUTO 00000KT 10SM CLR 14/09 A2993 RMK AO2 T01400089", "KSBM 280953Z AUTO 34004KT 7SM CLR 01/M01 A2988 RMK AO2 SLP121 T00111011", "KSBN 280954Z 08005KT 10SM OVC110 09/01 A2983 RMK AO2 SLP102 T00890006", "KSBO 281015Z AUTO 00000KT 1/2SM FG OVC002 A2981 RMK AO2", "KSBP 280956Z 24004KT 3/4SM BR VV002 10/09 A2992 RMK AO2 SLP132 T01000094", "KSBS 281015Z AUTO 00000KT 10SM SCT048 M01/M01 A3019 RMK AO1 T10121012", "KSBY 280954Z 08009KT 10SM FEW048 FEW060 OVC095 13/11 A3001 RMK AO2 SLP166 T01330111", "KSCD 281015Z AUTO 00000KT 10SM BKN009 OVC013 18/17 A2974 RMK AO2 T01770170", "KSCK 280955Z AUTO 06003KT 10SM CLR 15/10 A2986 RMK AO2 SLP110 T01500100", "KSCR 281025Z AUTO 17008KT 140V210 10SM -RA BKN009 OVC014 17/17 A2977 RMK AO2 P0001 T01670167", "KSCX 281015Z AUTO 21007G12KT 10SM OVC004 14/14 A2971 RMK A01", "KSDA 281015Z AUTO 00000KT 10SM OVC060 11/08 A2978 RMK AO2", "KSDB 280951Z AUTO 32014KT 10SM CLR 18/01 A3005 RMK AO2 SLP119 T01780006 $", "KSDC 281015Z AUTO 14006KT 10SM CLR 08/04 A3007 RMK AO2", "KSDF 280956Z 36003KT 2 1/2SM BR BKN004 BKN008 OVC042 13/12 A2966 RMK AO2 DZE37 SLP043 P0000 T01330122", "KSDL 280953Z AUTO 20003KT 10SM CLR 20/03 A2981 RMK AO2 SLP070 T02000028", "KSDY 280956Z AUTO 29008KT 10SM BKN050 OVC090 06/02 A3011 RMK AO2 SLP209 T00560022", "KSEA 280953Z 36007KT 10SM FEW250 10/06 A3009 RMK AO2 SLP194 T01000056", "KSEE 281035Z AUTO 00000KT 2SM BR OVC003 12/12 A2992 RMK AO2", "KSEF 281015Z AUTO 20003KT 10SM CLR 20/ A2990 RMK AO2 T0196////", "KSEG 280953Z AUTO VRB03KT 10SM OVC024 11/06 A3007 RMK AO2 SLP183 T01110061", "KSEM 281015Z AUTO 23005KT 10SM OVC009 18/18 A2976 RMK AO2", "KSEP 281015Z AUTO 11005KT 10SM CLR 12/10 A2978 RMK AO2 T01210101", "KSEQ 280955Z AUTO 00000KT 2 3/4SM BR BKN005 15/15 A2976 RMK AO2 VIS 2 3/4V6 BKN V SCT SLP075 T01480146", "KSET 280954Z AUTO 00000KT 9SM OVC080 12/10 A2977 RMK AO2 SLP078 T01170100", "KSEZ 281015Z AUTO 05004KT 10SM CLR 16/M04 A3000 RMK AO2", "KSFB 281008Z AUTO 18005KT 10SM FEW004 19/19 A2987 RMK AO2 T01890189", "KSFF 280953Z 03004KT 10SM CLR 06/00 A3020 RMK AO2 SLP225 T00610000", "KSFM 280956Z AUTO 00000KT 10SM CLR M02/M02 A3023 RMK AO2 SLP241 T10171022 FZRANO", "KSFO 280956Z 29009KT 10SM FEW005 12/10 A2991 RMK AO2 SLP128 T01170100", "KSFQ 281035Z AUTO 08007KT 5SM RA BKN005 OVC009 15/15 A2989 RMK AO2 P0021 T01500150", "KSFZ 281024Z AUTO 00000KT M1/4SM FG 02/02 A3023 RMK AO2 FZRANO", "KSGF 280959Z 00000KT 6SM BR OVC015 10/09 A2978 RMK AO2 T01000094", "KSGH 280956Z AUTO 08010KT 6SM -RA OVC004 10/ A2969 RMK AO2 SLP053 P0004 T0100", "KSGJ 280956Z AUTO 19003KT 10SM 18/18 A2985 RMK AO2 SLP108 T01830178 $", "KSGR 280953Z AUTO 20003KT 10SM CLR 14/13 A2976 RMK AO2 SLP079 T01390133", "KSGS 281035Z AUTO 01004KT 10SM SCT070 OVC100 10/07 A2980 RMK AO2 T00970071", "KSGT 281028Z AUTO 32006KT 10SM SCT010 BKN015 13/13 A2978 RMK AO2", "KSGU 280956Z AUTO 22004KT 10SM CLR 16/M01 A2998 RMK AO2 SLP123 T01611006", "KSHD 281035Z AUTO 07004KT 7SM +RA OVC025 11/11 A2992 RMK AO2 P0011 T01130111", "KSHL 281015Z AUTO 16004KT 10SM FEW050 BKN060 OVC075 10/10 A2976 RMK AO2", "KSHM 281030Z AUTO 36022G25KT 10SM FEW021 SCT028 OVC100 02/M02 A3009 RMK AO2 SLP168 $", "KSHN 280953Z AUTO 00000KT 10SM CLR 06/05 A3006 RMK AO2 SLP181 T00610050", "KSHR 280953Z AUTO 27009KT 10SM CLR 01/M03 A3021 RMK AO2 SLP253 T00111033", "KSHV 280956Z 30004KT 10SM CLR 12/11 A2978 RMK SLPNO", "KSIF 281025Z AUTO 13004KT 10SM -DZ OVC008 16/15 A2973 RMK AO2 P0001 T01560151", "KSIK 281035Z AUTO 00000KT 4SM BR OVC006 12/12 A2973 RMK AO2", "KSIY 280953Z AUTO 00000KT 10SM CLR 09/03 A3002 RMK AO2 SLP159 T00940033", "KSJC 280953Z AUTO 19003KT 10SM CLR 16/09 A2991 RMK AO2 SLP126 T01560089", "KSJS 281015Z AUTO 00000KT 10SM BKN035 OVC050 13/13 A2972 RMK AO2 T01320132", "KSJT 280951Z AUTO 19014G24KT 10SM CLR 17/03 A2969 RMK AO2 PK WND 19027/0941 SLP036 T01670033", "KSJX 281035Z AUTO 07004KT 10SM OVC080 05/04 A2994 RMK AO2 T00450043", "KSKA 280955Z AUTO 00000KT 10SM CLR 07/M05 A3017 RMK AO2 SLP214 T00681046 $", "KSKF 281010Z AUTO 21003KT 6SM BR OVC005 19/18 A2976 RMK AO2 VIS 1 5/8 RWY34 CIG 004 RWY34 SLP072 $", "KSKX 280956Z AUTO 34005KT 10SM OVC090 07/M02 A2997 RMK AO2 SLP097 T00671017", "KSLB 281015Z AUTO 00000KT 10SM FEW050 SCT060 BKN070 12/08 A2978 RMK AO2", "KSLC 280954Z 09005KT 10SM BKN220 11/M04 A3017 RMK AO2 SLP183 T01111044", "KSLE 280956Z AUTO 00000KT 10SM CLR 14/07 A2996 RMK AO2 SLP143 T01390067", "KSLG 281020Z AUTO 00000KT 1/4SM FG SCT003 BKN039 09/09 A2980 RMK AO2", "KSLH 281035Z AUTO 36003KT 5SM BR SCT080 03/03 A2995 RMK AO2", "KSLI 280955Z AUTO 00000KT 8SM OVC010 14/12 A2990 RMK AO2 SLP128 T01400119", "KSLK 280951Z AUTO 00000KT 10SM CLR M04/M05 A3015 RMK AO2 SLP224 T10391050", "KSLN 280953Z AUTO 00000KT 10SM OVC060 11/08 A2983 RMK AO2 SLP096 T01110078", "KSLO 281015Z AUTO 36007KT 5SM BR OVC033 12/11 A2975 RMK AO2 T01150111", "KSLR 281010Z AUTO 00000KT 10SM SCT001 10/10 A2981 RMK AO2 T00970097", "KSMD 281015Z AUTO 01006KT 7SM FEW042 SCT049 OVC060 07/07 A2979 RMK A01", "KSME 281015Z AUTO 18003KT 9SM FEW017 SCT055 OVC085 14/14 A2969 RMK AO2", "KSMF 280953Z 13005KT 10SM CLR 18/10 A2985 RMK AO2 SLP106 T01780100", "KSMN 280956Z AUTO 17003KT 10SM CLR 00/M03 A3030 RMK AO2 SLP943 T00001033 FZRANO", "KSMO 280951Z AUTO 19003KT 5SM BR OVC003 12/11 A2993 RMK AO2 SLP134 T01170106", "KSMP 280956Z AUTO VRB03KT 10SM CLR 05/00 A3019 RMK AO2 SLP214 T00500000", "KSMQ 281014Z AUTO VRB05KT 3SM BR BKN009 BKN055 09/08 A3014 RMK AO2 T00890078", "KSMS 281035Z AUTO 00000KT 6SM BR BKN009 BKN014 OVC027 19/19 A2978 RMK AO2", "KSMX 281012Z AUTO 00000KT 1/4SM R12/1800V2600FT FG VV002 09/09 A2993 RMK AO2 T00890089", "KSNA 280953Z AUTO 18005KT 10SM OVC009 14/11 A2992 RMK AO2 SLP133 T01440111", "KSNC 281035Z AUTO 00000KT M1/4SM FG OVC001 04/04 A3021 RMK AO2", "KSNH 281010Z AUTO 35007KT 9SM OVC014 16/15 A2968 RMK A01", "KSNK 281035Z AUTO 18006KT 10SM CLR 14/00 A2968 RMK AO2 T01420000", "KSNS 280953Z AUTO 31003KT 6SM OVC003 11/09 A2994 RMK AO2 SLP147 T01110094", "KSNT 280951Z AUTO 17003KT M03/M07 A3031 RMK AO1 SLP230 T10331072", "KSNY 280953Z AUTO 33010KT 10SM CLR 01/M01 A3010 RMK AO2 SLP191 T00111006 $", "KSOA 281015Z AUTO 00000KT 10SM 16/05 A2982 RMK AO2", "KSOP 281030Z AUTO 19009KT 10SM -RA SCT011 BKN016 OVC060 17/17 A2979 RMK AO2 P0002", "KSOW 281035Z AUTO 00000KT 10SM CLR 10/M08 A3008 RMK AO2", "KSPA 281035Z AUTO 00000KT 10SM OVC011 14/13 A2976 RMK AO2", "KSPB 280953Z AUTO 00000KT 10SM CLR 12/06 A3000 RMK AO2 SLP158 T01170061", "KSPD 280956Z AUTO 34024G32KT 06/04 A2999 RMK AO1 PK WND 34032/0920 SLP115 P0005 T00610044", "KSPF 281035Z AUTO 29011KT 10SM SCT028 SCT045 OVC075 04/01 A3014 RMK AO2", "KSPG 280953Z AUTO 22007KT 10SM CLR 24/23 A2983 RMK AO2 SLP101 T02440228 $", "KSPI 280952Z AUTO 33004KT 10SM CLR 08/07 A2978 RMK AO2 SLP085 T00780067", "KSPK 281015Z AUTO 11014KT 10SM FEW037 BKN044 BKN050 09/M03 A3017 RMK AO2", "KSPS 280952Z AUTO 10005KT 10SM CLR 10/09 A2978 RMK AO2 SLP079 T01000089 $", "KSPW 280953Z AUTO 00000KT 10SM FEW070 OVC100 10/07 A2977 RMK AO2 RAB07E43 SLP080 P0000 T01000072", "KSQI 280956Z AUTO 07003KT 10SM CLR 06/01 A2982 RMK AO2 SLP963 T00610006", "KSQL 281035Z AUTO 00000KT 6SM BR CLR 13/11 A2992 RMK AO2", "KSRB 281015Z AUTO 16004KT 4SM RA FEW008 BKN014 OVC019 15/15 A2968 RMK AO2", "KSRC 280956Z AUTO 00000KT 10SM OVC013 13/12 A2977 RMK AO2 SLP078 T01280117", "KSRE 281015Z AUTO 00000KT 8SM BKN026 BKN030 10/09 A2981 RMK AO2", "KSRQ 280953Z AUTO 21011KT 10SM FEW100 SCT120 26/22 A2985 RMK AO2 SLP107 T02560217", "KSRR 281035Z AUTO 31009KT 10SM CLR 12/M12 A2998 RMK AO2 LTG DSNT W", "KSSC 280955Z 00000KT 10SM OVC005 19/18 A2974 RMK AO2A DZE00 SLP071 P0000 T01860178 $", "KSSF 280953Z AUTO 00000KT 10SM OVC006 18/18 A2976 RMK AO2 SLP070 T01830178 $", "KSSI 280953Z AUTO 23005KT 10SM SCT014 20/17 A2981 RMK AO2 SLP096 T02000172", "KSTC 280953Z AUTO 01005KT 9SM -RA OVC008 08/07 A2983 RMK AO2 RAB11 CIG 006V010 SLP115 P0000 T00830072", "KSTE 281015Z AUTO 09003KT 10SM SCT100 07/00 A2986 RMK AO2 T00671005", "KSTF 281035Z AUTO 24004KT 10SM CLR 15/15 A2974 RMK AO2", "KSTJ 280953Z AUTO 00000KT 10SM BKN075 OVC090 12/09 A2980 RMK AO2 SLP087 T01220089", "KSTK 281015Z AUTO 31006KT 10SM SCT080 01/01 A3013 RMK AO2", "KSTL 280951Z 02003KT 10SM OVC075 13/09 A2978 RMK AO2 SLP078 T01280089 $", "KSTP 280953Z AUTO VRB04KT 10SM BKN070 OVC085 10/07 A2980 RMK AO2 SLP092 T01000072", "KSTS 280953Z AUTO 13004KT 10SM CLR 11/09 A2991 RMK AO2 SLP120 T01110089", "KSUA 281035Z AUTO 18004KT 10SM CLR 21/18 A2990 RMK AO2 T02060177", "KSUE 280956Z AUTO 01003KT 10SM BKN120 04/02 A2990 RMK AO2 SLP128 T00440017", "KSUN 281015Z AUTO 30004KT 10SM CLR 01/M01 A3029 RMK AO2", "KSUS 280954Z AUTO 00000KT 5SM BR OVC070 12/11 A2977 RMK AO2 SLP078 T01170106", "KSUT 281030Z AUTO 16003KT 10SM SCT028 SCT075 OVC090 19/17 A2979 RMK AO2 T01910167", "KSUU 280955Z AUTO 22015KT 10SM CLR 15/09 A2983 RMK AO2 SLP107 T01480089", "KSUW 281035Z AUTO 07010G17KT 5SM BR OVC005 03/02 A2992 RMK AO2 T00270021", "KSUX 281034Z 30012KT 10SM BKN013 OVC070 11/09 A2979 RMK AO2 RAE27 P0000 T01110094", "KSUZ 281035Z AUTO 00000KT 8SM BKN003 11/11 A2977 RMK A01", "KSVC 281015Z AUTO 30012KT 10SM CLR 13/M06 A2997 RMK AO2 T01301061", "KSVE 281035Z AUTO 31006KT 10SM CLR 08/M01 A3012 RMK AO2", "KSVH 281025Z AUTO 24004KT 10SM OVC003 15/14 A2975 RMK AO2 T01470141", "KSVN 281025Z AUTO 25005KT 10SM R28/4500FT BKN004 OVC020 18/18 A2978 RMK AO2 CIG 004V020 BKN V SCT SLP088 $", "KSWF 281015Z 11005KT 1SM BR OVC003 07/06 A3018", "KSWO 280953Z AUTO 23003KT 4SM BR CLR 09/08 A2981 RMK AO2 SLP090 T00890083", "KSWW 281015Z AUTO 19016G20KT 10SM CLR 18/01 A2970 RMK AO2 T01810005", "KSXK 281015Z AUTO 00000KT 6SM -DZ OVC060 10/10 A2976 RMK AO2", "KSXS 281000Z AUTO 24003KT 10SM OVC007 18/18 A2977 RMK AO2 SLP081", "KSXT 280956Z AUTO 12007KT 10SM CLR 15/07 A3003 RMK AO2 SLP123 T01500067", "KSXU 281015Z AUTO 03015G20KT 10SM CLR 09/03 A2994 RMK AO2 T00880027", "KSYF 281015Z AUTO 35018G23KT 10SM SCT085 05/M01 A3007 RMK AO2 T00471009 PWINO", "KSYI 281015Z AUTO 00000KT 5SM BR SCT008 BKN028 OVC055 14/14 A2968 RMK A01", "KSYM 281035Z AUTO 15004KT 10SM FEW016 OVC025 14/13 A2971 RMK AO2", "KSYN 281015Z AUTO 00000KT 10SM SCT120 09/06 A2979 RMK AO2 T00900060", "KSYR 280954Z 07006KT 10SM FEW200 SCT250 07/03 A3012 RMK AO2 SLP196 T00670033", "KSZL 280955Z 00000KT 10SM OVC085 09/08 A2978 RMK AO2A SLP086 T00860080 $", "KSZT 281015Z AUTO 00000KT 10SM CLR 01/00 A3022 RMK AO2", "KSZY 281015Z AUTO VRB03G10KT 10SM SCT008 BKN018 OVC036 14/14 A2970 RMK A01", "KT20 281015Z AUTO 00000KT 7SM OVC003 16/16 A2978 RMK AO2 T01620162", "KT35 281015Z AUTO 00000KT 10SM CLR 13/13 A2977 RMK AO2 T01330125", "KT41 281015Z AUTO 36005KT 10SM CLR 15/14 A2979 RMK AO2 T01510144", "KT69 281035Z AUTO 00000KT 1/4SM FG VV002 16/16 A2979 RMK A01", "KT70 280955Z AUTO 11004KT 10SM CLR 15/14 A2975 RMK AO2 SLP063 T01540136 $", "KT74 281015Z AUTO 16004KT 10SM SCT011 14/13 A2976 RMK AO2 T01380125", "KT78 281015Z AUTO 00000KT 6SM BR CLR 12/12 A2978 RMK AO2", "KT82 281015Z AUTO 22007KT 10SM SCT009 17/16 A2978 RMK AO2 T01680155", "KT89 281015Z AUTO 07005KT 10SM FEW050 17/M05 A2980 RMK A01", "KTAD 281024Z AUTO 32006KT 2SM -SN BR OVC004 00/00 A3011 RMK AO2 P0003 T00000000", "KTAN 281002Z AUTO 00000KT M1/4SM FG VV002 06/06 A3023 RMK AO2 T00610056", "KTAZ 281015Z AUTO 36004KT 10SM SCT110 09/06 A2978 RMK AO2 T00890062 PWINO", "KTBN 281015Z AUTO 00000KT 5SM HZ SCT002 OVC023 M M RMK AO2 CIG 002V023 SLPNO RVRNO TSNO $", "KTBR 281015Z AUTO 25003KT 10SM OVC006 18/17 A2980 RMK AO2 T01760167 PWINO", "KTBX 281015Z AUTO CLR M02/M07 A3031 RMK AO2 PWINO", "KTCC 281018Z AUTO 03023G34KT 10SM SCT027 OVC038 09/03 A2992 RMK AO2 PK WND 03036/1005 T00890033", "KTCL 281010Z AUTO 18004KT 5SM BR BKN004 17/17 A2973 RMK AO2 T01720167", "KTCM 280955Z AUTO 18003KT 10SM CLR 07/07 A3008 RMK AO2 SLP190 T00690069 $", "KTCS 280953Z AUTO 32008KT 10SM CLR 16/M11 A2989 RMK AO2 SLP044 T01611111", "KTCY 281015Z AUTO 00000KT 10SM CLR 20/06 A2985 RMK A01", "KTDF 281025Z AUTO 14005KT 10SM -RA BKN007 OVC013 15/14 A2980 RMK AO2 P0002", "KTDR 281018Z AUTO 27007KT 6SM BR OVC019 22/22 A2973 RMK AO2 SLP071 $", "KTDZ 281030Z AUTO 06007KT 2 1/2SM -RA BR BKN049 OVC060 09/07 A2983 RMK AO2 RAB00 P0006 T00890067", "KTEB 280951Z 00000KT 10SM BKN014 09/07 A3017 RMK AO2 SLP217 T00890072 $", "KTEW 281035Z AUTO 05003KT 10SM CLR 07/01 A2986 RMK AO2 T00720006", "KTEX 281015Z AUTO 36005KT 10SM SCT036 BKN044 BKN065 01/M06 A3010 RMK AO2", "KTFP 280935Z AUTO 18004KT 10SM CLR 20/19 A2977 RMK AO2 T01950186", "KTGI 281035Z AUTO 09017G23KT 7SM SCT011 SCT050 OVC090 16/15 A2997 RMK AO1 P0003 T01550145", "KTHA 281015Z AUTO 13006KT 1 1/4SM BR BKN003 BKN009 OVC024 16/15 A2967 RMK A01", "KTHV 281006Z AUTO 09008KT 10SM OVC015 11/08 A3005 RMK AO2 T01060078", "KTIF 281015Z AUTO 34022G31KT 10SM SCT022 OVC070 05/02 A3001 RMK AO2 T00470020", "KTIK 280955Z AUTO 30003KT 10SM CLR 08/08 A2979 RMK AO2 SLP094 T00790078", "KTIP 281015Z AUTO 00000KT 10SM OVC100 10/04 A2978 RMK AO2 T01030041", "KTIW 280953Z AUTO 03005KT 10SM CLR 12/06 A3008 RMK AO2 SLP186 T01170061", "KTKC 281035Z AUTO 34011G17KT 3SM -RA BR OVC003 08/08 A2981 RMK AO2", "KTKI 280953Z AUTO 00000KT 10SM CLR 09/08 A2980 RMK AO2 SLP095 T00940083", "KTKV 281015Z AUTO 14004KT 10SM OVC060 08/04 A2985 RMK AO2 T00780036 PWINO", "KTKX 281035Z AUTO 33008KT 1 3/4SM BR OVC004 13/13 A2973 RMK AO2", "KTLH 280953Z 00000KT 3SM BR OVC013 19/18 A2978 RMK AO2 SLP084 T01890183", "KTMB 280953Z AUTO 29003KT 10SM BKN021 BKN030 25/23 A2989 RMK AO2 SLP120 T02500233", "KTME 281035Z AUTO 12004KT 10SM 14/13 A2979 RMK AO2", "KTMK 281015Z AUTO 15007KT 10SM CLR 09/08 A2996 RMK AO2", "KTMT 281015Z AUTO 19003KT 10SM CLR 00/M05 A3022 RMK AO2 T10051050", "KTNB 281015Z AUTO 00000KT 1SM BR SCT001 SCT028 OVC034 10/10 A2980 RMK AO2 T00950095", "KTNU 281015Z AUTO 20004KT 10SM CLR 08/03 A2979 RMK A01", "KTOB 281035Z AUTO 25005KT 10SM CLR 07/02 A2979 RMK AO2", "KTOC 281015Z AUTO 00000KT 1SM BR OVC006 14/14 A2977 RMK AO2 T01420141", "KTOI 280953Z AUTO 20004KT 10SM OVC012 19/17 A2979 RMK AO2 SLP083 T01890172", "KTOL 280952Z AUTO 07008KT 9SM -RA OVC070 09/06 A2982 RMK AO2 RAB38 SLP098 P0000 T00890056", "KTOP 280953Z AUTO 00000KT 10SM OVC065 12/09 A2982 RMK AO2 SLP093 T01170094 $", "KTOR 280953Z AUTO 30009KT 10SM OVC085 04/00 A3016 RMK AO2 SLP217 T00390000", "KTPA 280953Z 16005KT 10SM BKN100 23/22 A2985 RMK AO2 SLP107 T02330217", "KTPF 281035Z AUTO 21010KT 5SM BR SCT110 24/22 A2986 RMK AO2", "KTPH 280956Z AUTO 01011KT 10SM CLR 11/M03 A3015 RMK AO2 SLP149 T01061033", "KTPL 281031Z AUTO 12005KT BKN014 13/12 A2977 RMK AO2 PWINO RVRNO $", "KTQE 280954Z AUTO 25007KT 10SM BKN055 BKN070 OVC080 12/09 A2977 RMK AO2 RAE35 SLP074 P0002 T01220094", "KTQH 281015Z AUTO 00000KT 2 1/2SM BR OVC043 11/09 A2981 RMK AO2", "KTQK 281015Z AUTO 35027G35KT 10SM BKN020 OVC028 07/04 A2997 RMK AO2 T00740045", "KTQV 281015Z AUTO 14006KT 4SM BR BKN004 OVC013 16/16 A2978 RMK A01", "KTRI 281007Z 00000KT 10SM FEW001 SCT047 BKN085 12/11 A2975 RMK AO2 T01220111 $", "KTRK 281023Z AUTO 00000KT 10SM CLR 00/M02 A3022 RMK AO2 TSNO", "KTRL 280953Z AUTO 00000KT 10SM CLR 10/09 A2980 RMK AO2 SLP089 T01000089", "KTRM 280952Z AUTO 31011KT 9SM CLR 26/07 A2974 RMK AO2 SLP074 T02560067 $", "KTSP 281035Z AUTO 00000KT 10SM CLR 08/03 A3006 RMK AO2", "KTTA 281025Z AUTO 17005KT 10SM RA SCT009 BKN045 OVC060 17/17 A2978 RMK AO2 P0003 T01700170", "KTTD 280953Z AUTO 10SM CLR 19/02 A2999 RMK AO2 SLP154 T01890022 $", "KTTF 281035Z AUTO 04004KT 10SM -RA BKN070 OVC080 08/03 A2984 RMK AO2 T00770034", "KTTN 280953Z COR 08009KT 8SM OVC006 09/08 A3013 RMK AO2 SLP198 T00890083", "KTTS 280955Z AUTO 21006KT 10SM CLR M A2985 RMK AO2 SLPNO ALSTG ESTMD $", "KTUL 280953Z 11003KT 7SM SCT040 SCT120 11/11 A2979 RMK AO2 SLP085 T01110111", "KTUP 281028Z AUTO 28003KT 10SM BKN008 17/14 A2972 RMK AO2 CIG 006V010 T01670144 $", "KTUS 280953Z 15007KT 10SM CLR 17/M04 A2991 RMK AO2 SLP088 T01721039", "KTVC 280953Z AUTO 00000KT 10SM CLR 02/01 A2991 RMK AO2 SLP131 T00170006", "KTVF 280956Z AUTO 01003KT 10SM CLR 03/03 A2998 RMK AO2 SLP163 T00280028", "KTVI 281015Z AUTO 22003KT 7SM SCT005 OVC027 18/18 A2981 RMK AO2", "KTVK 281015Z AUTO 00000KT 10SM CLR 08/05 A2981 RMK AO2", "KTVL 280953Z AUTO 00000KT 10SM CLR 01/M03 A3020 RMK AO2 SLP194 T00061028", "KTVR 281029Z AUTO 00000KT 3/4SM BR CLR 12/12 A2978 RMK AO2 T01220117", "KTVY 281035Z AUTO 25005KT 10SM CLR 08/M03 A3021 RMK AO2", "KTWF 280953Z AUTO 10008KT 10SM CLR 04/M08 A3024 RMK AO2 SLP211 T00391078", "KTWM 281035Z AUTO 04004KT 7SM OVC007 03/03 A2991 RMK AO2", "KTWT 281035Z AUTO 34005KT 7SM OVC007 12/11 A2971 RMK AO2", "KTXK 280953Z AUTO 00000KT 10SM CLR 13/11 A2978 RMK AO2 SLP083 T01330106", "KTXW 281015Z AUTO 00000KT 7SM BR CLR 20/20 A2978 RMK AO2 T02010195", "KTYL 281035Z AUTO 27007KT 10SM CLR 07/M07 A3006 RMK AO2", "KTYQ 281015Z AUTO 01011KT 7SM -DZ SCT007 BKN018 OVC120 07/06 A2974 RMK AO2 T00660060", "KTYR 280953Z AUTO 00000KT 10SM CLR 11/09 A2977 RMK AO2 SLP077 T01110094 $", "KTYS 281003Z 00000KT 1 1/2SM BR OVC002 14/13 A2972 RMK AO2 SFC VIS 2 1/2 T01390133 $", "KTZR 281015Z AUTO 09012G20KT 3SM +RA OVC005 12/12 A2971 RMK AO2 P0002 T01210116", "KU42 281035Z AUTO 34009KT 10SM CLR 09/M03 A3020 RMK AO1 T00901034", "KU55 281010Z AUTO 34011KT 10SM FEW045 FEW055 06/M04 A3018 RMK A01", "KU64 281015Z AUTO 32017KT 8SM CLR 04/M04 A3012 RMK AO2 T00381042 $", "KU68 281015Z AUTO 31005KT 10SM CLR M01/M05 A3024 RMK AO2", "KU69 281015Z AUTO 17003KT 10SM FEW050 02/M03 A3028 RMK A01", "KUAO 280953Z AUTO 01010KT 10SM CLR 16/06 A2997 RMK AO2 SLP146 T01560056", "KUBE 281035Z AUTO 04008KT 10SM SCT007 OVC060 07/07 A2982 RMK AO2", "KUCP 280956Z AUTO 09008KT 10SM BKN037 BKN120 13/09 A2987 RMK AO2 SLP127 T01330094", "KUCY 281015Z AUTO 30003KT 4SM BR OVC006 14/14 A2969 RMK A01", "KUDG 281029Z AUTO 17006KT 10SM BKN014 OVC060 18/18 A2978 RMK AO2", "KUES 281035Z AUTO 00000KT 10SM CLR 01/M01 A2987 RMK AO2", "KUGN 280951Z AUTO 00000KT 10SM CLR 05/01 A2983 RMK AO2 SLP105 T00500011", "KUIL 280953Z AUTO 00000KT 10SM CLR 08/04 A3007 RMK AO2 SLP183 T00780039", "KUIN 280954Z AUTO 31007KT 10SM CLR 07/03 A2978 RMK AO2 SLP085 T00720033", "KUKF 281025Z AUTO 22003KT 1SM BR BKN002 BKN075 OVC090 12/12 A2982 RMK AO2", "KUKI 280956Z AUTO 00000KT 10SM CLR 13/08 A2991 RMK AO2 SLP120 T01280078", "KUKL 281015Z AUTO 00000KT 3/4SM BR SCT060 BKN080 08/07 A2983 RMK AO2 T00780068", "KUKT 281035Z AUTO VRB04G10KT 10SM OVC008 09/09 A3012 RMK A01", "KULM 281015Z AUTO 06004KT 7SM -RA OVC060 09/08 A2979 RMK AO2 P0001", "KULS 281010Z AUTO 36025G29KT 10SM SCT018 BKN060 08/06 A2994 RMK AO2", "KUMP 281015Z AUTO 02007G14KT 5SM BKN007 BKN033 OVC060 08/08 A2973 RMK AO2 P0003 T00800080", "KUNI 281020Z AUTO 07005KT 10SM RA SCT007 BKN011 OVC023 13/12 A2973 RMK AO2 T01300117", "KUNO 281020Z AUTO 35003KT 5SM BR BKN005 OVC015 11/10 A2978 RMK AO2 T01060100", "KUNU 281035Z AUTO 10004KT 10SM CLR 05/00 A2987 RMK AO2 T00530000", "KUNV 280953Z 12008KT 10SM OVC011 10/08 A3002", "KUOX 281035Z AUTO 31006KT 10SM OVC006 14/14 A2976 RMK AO2", "KUSE 281015Z AUTO 05010KT 10SM -RA FEW048 BKN060 OVC070 07/07 A2982 RMK AO2", "KUTA 281035Z AUTO 32010KT 10SM OVC007 14/14 A2976 RMK AO2 CIG 006V009 T01380138 $", "KUTS 280953Z AUTO 00000KT 10SM CLR 14/12 A2978 RMK AO2 SLP081 T01390117", "KUUU 281034Z AUTO 35003KT M1/4SM FG VV001 06/06 A3023 RMK AO2 T00610061", "KUUV 281035Z AUTO 00000KT 10SM SCT047 OVC050 11/10 A2981 RMK AO2", "KUVA 281015Z AUTO 00000KT 10SM CLR 15/15 A2980 RMK AO2 T01480148", "KUXL 281035Z AUTO 00000KT 10SM CLR 14/13 A2983 RMK AO2 T01390129", "KUYF 281015Z AUTO 09011G16KT 3SM RA OVC003 12/10 A2970 RMK AO2 P0001", "KUZA 281002Z AUTO 26004KT 9SM -RA BKN011 OVC060 16/16 A2976 RMK AO2 RAB02 P0000 T01610156", "KVAD 280955Z AUTO 21006KT 10SM OVC026 19/18 A2979 RMK AO2 CIG 025 RWY36 SLP089 T01890181 $", "KVAY 280954Z AUTO VRB03KT 10SM FEW008 10/08 A3012 RMK AO2 SLP199 T01000083", "KVBG 280955Z AUTO 00000KT 3/8SM R30/1800V2800FT FG VV000 09/09 A2994 RMK AO2 SLP142 T00860086 TSNO $", "KVBT 281033Z AUTO 03004KT 6SM BR OVC002 10/10 A2981 RMK AO2 RAE20 P0000", "KVBW 281035Z AUTO 06003KT 5SM OVC026 12/12 A2989 RMK AO1 P0010 T01170117", "KVCB 280953Z AUTO 21005KT 10SM CLR 18/10 A2985 RMK AO2 SLP107 T01780100", "KVCT 280951Z AUTO 00000KT 1/4SM FG VV002 18/18 A2977 RMK AO2 SLP080 T01780178", "KVCV 281015Z AUTO 14006KT 10SM CLR 15/04 A2999 RMK AO2", "KVDF 281035Z AUTO 19005KT 10SM CLR 22/21 A2986 RMK AO2", "KVDI 281015Z AUTO 00000KT 10SM BKN025 18/17 A2980 RMK AO2", "KVEL 280953Z AUTO 03013KT 10SM FEW065 04/M03 A3027 RMK AO2 SLP219 T00391033", "KVER 281035Z AUTO 00000KT 10SM SCT110 10/10 A2981 RMK AO2 T00970095", "KVES 281010Z AUTO 04013G17KT 3SM RA OVC004 06/06 A2969 RMK AO2 P0007", "KVGC 281035Z AUTO 00000KT 2SM BR CLR 03/02 A3014 RMK AO2", "KVGT 280953Z AUTO 32011KT 10SM CLR 24/M07 A2989 RMK AO2 SLP114 T02391067", "KVHN 281015Z AUTO 22009KT 10SM CLR 14/M12 A2990 RMK AO2 T01401124", "KVIH 280953Z AUTO 34006KT 9SM OVC039 11/09 A2978 RMK AO2 RAE0854 SLP084 P0000 T01060089", "KVIS 280956Z AUTO 13003KT 10SM CLR 16/14 A2988 RMK AO2 SLP122 T01560144", "KVJI 281015Z AUTO 12003KT 10SM SCT048 BKN070 OVC080 12/11 A2977 RMK AO2 T01150112", "KVKS 281035Z AUTO 00000KT 2 1/2SM BR FEW047 13/13 A2978 RMK A01", "KVKY 281015Z AUTO 28008KT 10SM SCT070 A2980 RMK A01", "KVLD 281007Z AUTO 17003KT 2SM BR OVC004 19/18 A2981 RMK AO1 T01940183", "KVLL 281035Z AUTO 04006KT 10SM CLR 07/01 A2988 RMK AO2 T00710007", "KVNC 281035Z AUTO 20009KT 10SM CLR 26/23 A2989 RMK AO2", "KVNW 281035Z AUTO 05013G19KT 5SM -RA BKN042 OVC050 07/06 A2976 RMK AO2", "KVNY 280951Z AUTO 00000KT 5SM HZ CLR 13/11 A2991 RMK AO2 SLP120 T01330106", "KVOA 281015Z AUTO 28009KT 9SM FEW004 FEW055 22/22 A2979 RMK A01", "KVOK 280955Z AUTO 10004KT 10SM CLR 05/M00 A2980 RMK AO2 SLP096 T00451003", "KVPC 281015Z AUTO 00000KT 10SM SCT008 OVC022 16/15 A2975 RMK AO2", "KVPS 280955Z AUTO 00000KT 10SM FEW012 20/19 A2977 RMK AO2 SLP087 T01990192 $", "KVPZ 280956Z AUTO 07006KT 10SM OVC110 08/02 A2982 RMK AO2 SLP098 T00830017", "KVQQ 281035Z AUTO 00000KT 10SM FEW024 FEW035 FEW043 18/18 A2984 RMK AO2", "KVRB 280953Z AUTO 19005KT 10SM CLR 21/19 A2988 RMK AO2 SLP116 T02110189", "KVSF 281011Z AUTO 00000KT 1/4SM FZFG VV002 M01/M01 A3025 RMK AO2 T10061011", "KVTA 281020Z AUTO 07005KT 10SM -RA OVC008 12/11 A2974 RMK AO2 CIG 006V010 P0001 T01170106", "KVTI 281015Z AUTO 11003KT 10SM CLR 06/M01 A2980 RMK AO2 T00631007", "KVTN 281010Z AUTO 33016G23KT 10SM BKN014 OVC080 05/02 A3005 RMK AO2 T00500022", "KVTP 281015Z AUTO 1/4SM +SN OVC002 M06/M06 A3006 RMK AO2 P0001", "KVUJ 281025Z AUTO 26005KT 4SM -RA SCT005 BKN020 OVC055 17/17 A2981 RMK AO2 P0029 T01710168", "KVVS 281010Z AUTO 12014G19KT 5SM -RA BR OVC060 12/10 A2987 RMK AO2 P0003 T01200100", "KVVV 281015Z AUTO 35018G22KT 10SM RA BKN048 OVC060 06/06 A2990 RMK AO2", "KVWU 281015Z AUTO 00000KT 10SM SCT026 OVC037 05/03 A2994 RMK AO2", "KVYS 281015Z AUTO 04006KT 10SM CLR 06/00 A2981 RMK AO2 T00610004", "KW13 281015Z AUTO 08004KT 5SM OVC012 11/11 A2989 RMK AO1 P0004 T01110110", "KW22 281015Z AUTO 09007G14KT 10SM OVC070 12/11 A2977 RMK AO2", "KW29 281025Z AUTO 09008G16KT 070V130 10SM SCT045 BKN060 OVC080 13/12 A3002 RMK AO2 T01290117", "KW31 281035Z AUTO 06006KT 7SM OVC007 M37/M37 A2984 RMK AO1 P0005 T13661366", "KW40 281025Z AUTO 17004KT 10SM SCT070 OVC075 18/17 A2980 RMK AO2 T01800174", "KW43 281015Z AUTO 26005KT 10SM SCT028 SCT035 BKN080 03/01 A3017 RMK AO2", "KW63 281035Z AUTO 06005KT 7SM OVC004 15/15 A2980 RMK AO1 P0007", "KW75 281035Z AUTO 10014G22KT 7SM SCT010 BKN030 OVC080 15/14 A2994 RMK AO1 P0002 T01460135", "KW78 281015Z AUTO 08004KT 3SM OVC005 14/13 A2981 RMK AO1 P0007 T01370130", "KW81 281035Z AUTO 08003KT 5SM OVC006 11/10 A2986 RMK AO1 P0013 T01130100", "KW96 281035Z AUTO 07009G14KT 7SM SCT010 BKN046 OVC050 14/13 A2990 RMK AO1 P0008 T01350132", "KWAL 280954Z AUTO 09011G18KT 7SM -RA OVC080 14/13 A3001 RMK AO2 SLP161 P0002 T01440128", "KWBF 281015Z AUTO 00000KT 6SM BR BKN015 OVC020 24/24 A2982 RMK A01", "KWDG 281015Z AUTO 00000KT 10SM BKN120 08/08 A2983 RMK AO2", "KWDR 281015Z AUTO 00000KT 1/2SM FG OVC002 14/13 A2979 RMK AO2", "KWJF 280956Z AUTO 00000KT 10SM CLR 13/02 A2993 RMK AO2 SLP121 T01280022", "KWLD 281022Z AUTO 00000KT 4SM BR FEW085 BKN110 09/08 A2984 RMK AO2 T00890083", "KWMC 280956Z AUTO 06010KT 10SM CLR 12/M03 A3016 RMK AO2 SLP176 T01171028", "KWRB 280955Z AUTO 20004KT 10SM BKN008 OVC029 18/18 A2978 RMK AO2 CIG 007 RWY33 SLP085 T01790179", "KWRI 280955Z 06006KT 10SM FEW004 FEW200 09/09 A3013 RMK AO2A SLP203 T00880086", "KWRL 280953Z AUTO 22003KT 10SM CLR M01/M04 A3025 RMK AO2 SLP259 T10111044", "KWST 281025Z AUTO 03005KT M1/4SM FG VV002 05/04 A3022 RMK AO2 T00500044", "KWVI 281024Z AUTO 03003KT 1 1/4SM BR OVC002 10/09 A2994 RMK AO2 T01000094", "KWVL 280956Z AUTO 00000KT 10SM CLR 02/02 A3021 RMK AO2 SLP260 T00170017 FZRANO", "KWWD 280956Z AUTO 08010KT 10SM CLR 12/10 A3009 RMK AO2 SLP190 T01220100 $", "KWWR 281015Z AUTO 24003KT 10SM -RA SCT042 SCT050 OVC070 09/08 A2987 RMK AO2", "KX07 281035Z AUTO 18004KT 10SM CLR 19/19 A2988 RMK A01", "KX26 281010Z AUTO 24004KT 10SM CLR 19/18 A2989 RMK AO2 TSNO T01930181", "KX60 281035Z AUTO 10SM CLR 18/18 A2985 RMK AO2 PWINO T01800178", "KXBP 281010Z AUTO 00000KT 7SM CLR 09/09 A2980 RMK AO2 T00900090", "KXLL 281015Z AUTO 05008KT 10SM OVC011 09/07 A3014 RMK AO2", "KXMR 280955Z AUTO 23005KT 10SM FEW210 19/18 A2985 RMK AO2 SLP111 T01880176 $", "KXNA 281012Z 02003KT 1/4SM FG VV002 08/08 A2980 RMK AO2 T00830078 RVRNO", "KXNO 281025Z AUTO 22005KT 10SM BKN005 OVC010 19/19 A2978 RMK AO2 CIG 005V007 BKN V OVC SLP085 $", "KXNX 281015Z AUTO 00000KT 9SM BKN005 BKN025 OVC100 15/15 A2971 RMK A01", "KXSA 281035Z AUTO 07009KT 7SM RA OVC007 14/14 A2995 RMK AO2 P0008 T01400140", "KXVG 281033Z AUTO 00000KT 10SM OVC041 03/02 A2990 RMK AO2", "KXWA 280951Z AUTO 32006KT 10SM OVC080 02/00 A3009 RMK AO2 SLP211 T00220000", "KY19 281035Z AUTO 32008KT 10SM FEW055 SCT070 OVC080 03/03 A3006 RMK AO2", "KY23 281015Z AUTO 00000KT 10SM -DZ BKN070 OVC080 09/09 A2982 RMK AO2 T00870087", "KY31 281015Z AUTO 27006KT 10SM CLR M02/M03 A2993 RMK AO2 T10191026", "KY49 281015Z AUTO 00000KT 10SM DZ OVC036 05/04 A2991 RMK AO2 T00450038", "KY50 280956Z AUTO 00000KT 10SM CLR 03/02 A2986 RMK AO2 SLP112 T00330017 $", "KY51 281035Z AUTO 13005KT 10SM CLR 07/01 A2982 RMK AO1 T00740007", "KY63 281035Z AUTO 33008KT 10SM RA BKN038 OVC046 05/05 A2993 RMK AO2 T00500050", "KY70 281015Z AUTO 04005KT 10SM CLR 06/M01 A2987 RMK AO2 T00601010", "KYIP 280953Z 03008KT 10SM CLR 07/01 A2985 RMK AO2 SLP107 T00720006", "KYKM 280953Z AUTO 25005KT 10SM CLR 07/02 A3017 RMK AO2 SLP215 T00670017", "KYKN 280956Z AUTO 30016KT 10SM -RA OVC005 08/08 A2982 RMK AO2 RAB28 SLP109 P0000 T00830083", "KYNG 280951Z 11011KT 10SM FEW050 OVC150 13/08 A2986 RMK AO2 SLP111 T01330083", "KZER 281015Z AUTO 11014G21KT 10SM OVC009 06/05 A3006 RMK AO2", "KZPH 281015Z AUTO 16006KT 10SM CLR 19/19 A2988 RMK A02 T01940189", "KZZV 280953Z AUTO 10010KT 6SM -RA BR BKN008 BKN047 OVC075 13/11 A2976 RMK AO2 SLP076 P0016 T01280111", "LATI 281020Z VRB05KT CAVOK 20/06 Q1020 NOSIG", "LBBG 281030Z 33017KT CAVOK 15/00 Q1019 NOSIG", "LBGO 281030Z AUTO 33006KT 280V050 9999 FEW050/// 13/02 Q1021 NOSIG", "LBIA 281000Z 03008KT 9999 BKN060 14/M00 Q1020", "LBPD 281030Z AUTO VRB05KT 9999 FEW059/// SCT077/// 16/03 Q1019 NOSIG", "LBPG 281000Z 15006KT 9999 FEW060 SCT100 14/01 Q1020", "LBPL 281000Z 21004KT 9999 FEW025 14/05 Q1021", "LBSF 281030Z VRB06KT CAVOK 13/M02 Q1020 NOSIG", "LBWB 281000Z 36024KT 9999 FEW034 SCT100 13/01 Q1018", "LBWN 281030Z 33017KT 300V360 9999 SCT049 15/M02 Q1018 NOSIG", "LCEN 281020Z 34006KT 300V050 9999 FEW020CB SCT025 21/08 Q1007 NOSIG RMK RWY11 03007KT 340V070", "LCLK 281030Z 19022KT 9999 FEW025TCU FEW035CB SCT050 23/12 Q1007 NOSIG", "LCPH 281030Z 25009KT 9999 VCTS FEW020 FEW025CB FEW030TCU SCT040 20/12 Q1008 NOSIG", "LCRA 281020Z 23015KT 9999 FEW026CB 20/12 Q1008 TEMPO 5000 TSRA SCT020CB", "LDDU 281030Z 16010KT 140V210 CAVOK 17/06 Q1020 BECMG 23010KT", "LDLO 281030Z 15007KT 110V190 CAVOK 17/13 Q1020", "LDOS 281030Z 14010KT 090V160 CAVOK 16/01 Q1021", "LDPL 281030Z 14006KT 090V210 CAVOK 18/06 Q1020 NOSIG", "LDRI 281030Z 28003KT 240V340 9999 FEW040 17/09 Q1020", "LDSP 281030Z 24008KT CAVOK 20/05 Q1021 BECMG 23010KT", "LDZA 281030Z 11004KT 050V170 CAVOK 17/06 Q1018 NOSIG", "LDZD 281030Z 19009KT 130V250 CAVOK 19/07 Q1020 NOSIG", "LEAB 281030Z 16013KT 130V190 CAVOK 28/03 Q1017 NOSIG", "LEAG 281030Z AUTO 16005KT 120V190 CAVOK 21/14 Q1016", "LEAL 281030Z 08009KT 050V110 CAVOK 23/15 Q1016 NOSIG", "LEAM 281030Z 21009KT 190V260 CAVOK 23/16 Q1015", "LEAO 281030Z 32004KT 250V010 CAVOK 28/04 Q1016", "LEAS 281030Z 07005KT 020V100 6000 BKN009 18/16 Q1013 NOSIG", "LEBA 281030Z 30002KT CAVOK 30/05 Q1014", "LEBB 281030Z VRB02KT 9999 FEW012 23/16 Q1013 NOSIG", "LEBG 281030Z 02008KT 360V060 CAVOK 23/13 Q1016", "LEBL 281030Z 13007KT CAVOK 21/14 Q1018 NOSIG", "LEBR 281030Z AUTO 10009KT 080V140 9999 NSC 24/11 Q1016", "LEBT 281030Z AUTO 13005KT CAVOK 25/15 Q1017", "LEBZ 281030Z 29004KT 230V350 CAVOK 28/11 Q1014", "LECH 281030Z AUTO 11007KT 070V150 CAVOK 21/14 Q1018", "LECO 281030Z 36005KT 280V070 8000 SCT005 16/14 Q1015 NOSIG", "LECV 281030Z 16005KT CAVOK 23/05 Q1018", "LEDA 281030Z 08011KT 050V110 CAVOK 26/07 Q1016", "LEEC 281030Z 32003KT 240V020 CAVOK 30/08 Q1014", "LEGA 281030Z 21007KT 9999 FEW100TCU 33/M01 Q1017", "LEGE 281030Z 18010KT 150V210 CAVOK 23/14 Q1017", "LEGR 281030Z 33006KT 290V020 9999 FEW055 SCT100 30/06 Q1016", "LEGT 281030Z 17003KT CAVOK 28/09 Q1016", "LEHC 281030Z 12013KT 080V160 CAVOK 24/10 Q1017", "LEIB 281030Z 08011KT 050V120 CAVOK 22/17 Q1017 NOSIG", "LEJR 281030Z VRB02KT CAVOK 27/11 Q1014", "LELC 281030Z 04010KT 350V070 CAVOK 24/18 Q1017 NOSIG", "LELL 281030Z 14005KT 050V200 CAVOK 25/10 Q1018", "LELN 281030Z 11005KT 080V150 CAVOK 21/06 Q1015", "LELO 281030Z 08011KT 050V120 CAVOK 22/09 Q1015", "LEMD 281030Z 19003KT CAVOK 26/07 Q1016 NOSIG", "LEMG 281030Z 14008KT CAVOK 25/12 Q1016 NOSIG", "LEMH 281030Z 13010KT 100V160 CAVOK 23/13 Q1019", "LEMI 281030Z 09005KT 050V150 CAVOK 25/12 Q1017", "LEMO 281030Z 30006KT 230V340 CAVOK 28/10 Q1014 NOSIG", "LEPA 281030Z 15008KT 100V200 CAVOK 27/15 Q1017 NOSIG", "LEPP 281030Z 36003KT CAVOK 21/12 Q1016", "LERI 281030Z VRB05KT CAVOK 27/06 Q1016 NOSIG", "LERS 281030Z 15005KT 050V200 CAVOK 23/13 Q1018", "LERT 281030Z 19004KT 140V240 CAVOK 25/15 Q1014 NOSIG", "LESA 281030Z 21015KT CAVOK 24/09 Q1016", "LESB 281030Z AUTO VRB05KT CAVOK 27/12 Q1018", "LESO 281030Z 36006KT 320V050 CAVOK 20/16 Q1013", "LEST 281030Z 36006KT 310V030 9999 FEW035 19/13 Q1015 NOSIG", "LESU 281030Z 19003KT 120V240 CAVOK 21/10 Q1019", "LETL 281030Z AUTO 15014KT CAVOK 24/04 Q1019", "LETO 281030Z 23005KT 160V280 CAVOK 26/09 Q1016 NOSIG", "LETU 280930Z AUTO 12009KT 9999 NCD 22/11 Q1016", "LEVC 281030Z 08005KT 030V130 9999 FEW014 22/15 Q1018 NOSIG", "LEVD 281030Z 16004KT 110V190 CAVOK 23/10 Q1015", "LEVS 281030Z 15004KT 110V190 CAVOK 24/09 Q1017", "LEVT 281030Z 28001KT CAVOK 23/12 Q1015", "LEVX 281030Z 04003KT 340V140 CAVOK 21/15 Q1014 NOSIG", "LEXJ 281030Z 06003KT 010V110 5000 BR BKN006 16/16 Q1014", "LEZG 281030Z 09009KT 060V140 CAVOK 23/12 Q1016", "LEZL 281030Z 28004KT 230V330 CAVOK 30/11 Q1014 NOSIG", "LFAC 281030Z AUTO 25017KT 9999 OVC007 13/12 Q1011", "LFAQ 281030Z AUTO 28015KT 9999 BKN012 BKN017 17/14 Q1012 BECMG SCT014 OVC018", "LFAT 281030Z AUTO 26012KT 230V290 5000 BR OVC003 12/11 Q1013 NOSIG", "LFBA 281030Z AUTO 11009KT 080V150 CAVOK 22/17 Q1014 NOSIG", "LFBC 281030Z AUTO 09004KT 040V140 CAVOK 25/17 Q1013 NOSIG", "LFBD 281030Z AUTO 06006KT 020V120 CAVOK 24/16 Q1014 NOSIG", "LFBE 281030Z AUTO 14005KT 070V200 CAVOK 23/17 Q1015 NOSIG", "LFBF 281030Z AUTO 13005KT 100V200 CAVOK 21/15 Q1015", "LFBG 281030Z AUTO VRB03KT 9999 FEW001 BKN160 23/16 Q1015 NOSIG", "LFBH 281030Z AUTO 01008KT 340V060 CAVOK 21/16 Q1015 NOSIG", "LFBI 281030Z AUTO 32004KT 240V010 9999 FEW021 BKN100 21/15 Q1015 NOSIG", "LFBL 281030Z AUTO 23005KT 180V280 CAVOK 22/15 Q1016 NOSIG", "LFBM 281030Z AUTO 09003KT 010V140 CAVOK 25/18 Q1014 NOSIG", "LFBO 281030Z AUTO 14013KT 110V170 CAVOK 21/15 Q1015 NOSIG", "LFBP 281030Z AUTO VRB03KT CAVOK 25/19 Q1014 NOSIG", "LFBT 281030Z AUTO 36005KT 320V040 9999 FEW008 SCT170 24/16 Q1014 NOSIG", "LFBU 281030Z AUTO VRB03KT CAVOK 23/15 Q1015 NOSIG", "LFBX 281030Z AUTO VRB03KT CAVOK 24/15 Q1015", "LFBY 281030Z AUTO VRB02KT 9999 // ////// 25/16 Q1013", "LFBZ 281030Z AUTO 08004KT 040V130 CAVOK 24/17 Q1013 NOSIG", "LFCK 281030Z AUTO 12015KT CAVOK 24/14 Q1016 TEMPO 12015G25KT", "LFCR 281030Z AUTO 08005KT 040V120 CAVOK 23/14 Q1017 NOSIG", "LFGA 281030Z AUTO 18005KT 9999 FEW030 OVC070 17/14 Q1015", "LFGJ 281030Z AUTO 21008KT 9999 FEW041 SCT049 BKN092 20/14 Q1016 TEMPO 4000 SHRA SCT040TCU", "LFHP 281030Z AUTO VRB03KT CAVOK 19/12 Q1018", "LFJL 281030Z AUTO 24010KT 9999 SCT015/// BKN025/// BKN033/// 17/15 Q1014 TEMPO 4000 SHRA BKN012 FEW020CB", "LFJR 281030Z AUTO 24004KT 180V330 9999 SCT019 BKN027 OVC200 20/16 Q1015", "LFKB 281030Z AUTO 12008KT 080V150 9999 1700 BKN021 21/15 Q1020 NOSIG", "LFKC 281030Z AUTO 03008KT 350V060 9999 FEW013 21/14 Q1020 NOSIG", "LFKF 281030Z AUTO 23009KT CAVOK 23/12 Q1020 NOSIG", "LFKJ 281030Z AUTO 23010KT CAVOK 20/15 Q1020 NOSIG", "LFKS 281030Z AUTO 15009KT 110V180 CAVOK 19/14 Q1020", "LFLB 281030Z AUTO 35005KT CAVOK 20/11 Q1017 NOSIG", "LFLC 281030Z AUTO 18009KT 9999 FEW060 25/14 Q1015 NOSIG", "LFLH 281030Z AUTO 16008KT 9999 FEW040 OVC210 21/14 Q1016", "LFLL 281030Z 20013KT 170V230 CAVOK 22/11 Q1017 TEMPO 18015G25KT", "LFLN 281030Z AUTO 17004KT 100V210 CAVOK 22/13 Q1016 TEMPO SHRA FEW030TCU", "LFLP 281030Z AUTO 23004KT 160V300 CAVOK 21/11 Q1017 NOSIG", "LFLS 281030Z AUTO 20009KT 120V240 CAVOK 22/12 Q1018 NOSIG", "LFLU 281030Z AUTO 21017KT CAVOK 20/11 Q1018", "LFLV 281030Z AUTO VRB03KT 9999 BKN047 23/14 Q1015", "LFLW 281030Z AUTO 14007KT 110V180 CAVOK 20/12 Q1017 TEMPO FEW080CB", "LFLX 281030Z AUTO 29006KT 250V320 9999 SCT019 BKN220 20/16 Q1015 NOSIG", "LFLY 281030Z AUTO 17012KT CAVOK 23/13 Q1017 TEMPO 18015G25KT", "LFMC 281030Z AUTO VRB03KT 9999 ////// 24/11 Q1019", "LFMD 281030Z AUTO 16008KT CAVOK 18/13 Q1020 NOSIG", "LFMH 281030Z AUTO 14004KT 060V190 CAVOK 23/11 Q1016", "LFMI 281030Z AUTO 19010KT CAVOK 22/12 Q1019 NOSIG", "LFMK 281030Z AUTO 09014KT 070V130 9999 OVC014 17/14 Q1017 TEMPO 10017G27KT BECMG NSC", "LFML 281030Z AUTO 24008KT 190V290 CAVOK 23/13 Q1019 NOSIG", "LFMN 281030Z 17007KT 9999 FEW020 BKN260 18/13 Q1020 NOSIG", "LFMO 281030Z AUTO VRB05KT 9999 //////TCU 22/11 Q1019 BECMG NSC", "LFMP 281030Z AUTO 05009KT 9999 BKN015 OVC021 18/14 Q1018 BECMG BKN014", "LFMT 281030Z AUTO 14009KT CAVOK 19/15 Q1020 NOSIG", "LFMU 281030Z AUTO 09011KT 9999 BKN013 OVC018 18/15 Q1019 BECMG OVC008", "LFMV 281030Z AUTO VRB04KT CAVOK 23/11 Q1019 NOSIG", "LFMY 281030Z AUTO 25006KT 200V320 CAVOK 23/11 Q1019 NOSIG", "LFOA 281030Z AUTO 31005KT 260V360 9999 FEW022 SCT029 BKN040 21/16 Q1015 TEMPO SCT030TCU", "LFOB 281030Z AUTO 25013KT 9999 BKN027 BKN034 19/13 Q1013 NOSIG", "LFOE 281030Z AUTO 28011KT 250V320 9999 FEW024 BKN032 19/13 Q1014 NOSIG", "LFOH 281030Z AUTO 28010KT 250V310 9999 OVC003 12/11 Q1015 TEMPO 0600 FG VV///", "LFOJ 281030Z AUTO 26011KT 9999 BKN017 BKN022 OVC027 18/15 Q1014 NOSIG", "LFOK 281030Z AUTO 24011KT 6000 2900 SCT007 BKN016 BKN042 17/15 Q1014 TEMPO BKN013", "LFOP 281030Z AUTO 26013KT 9999 BKN022 BKN029 17/13 Q1014 TEMPO BKN012", "LFOT 281030Z AUTO 28004KT 240V330 9999 BKN023 BKN031 OVC037 19/15 Q1015 NOSIG", "LFOV 281030Z AUTO 25007KT 220V290 9999 SCT015 BKN020 OVC026 17/14 Q1015", "LFOZ 281030Z AUTO 26008KT 220V290 9999 BKN019 OVC025 19/15 Q1015", "LFPB 281030Z AUTO 24008KT 210V280 9999 BKN020 OVC027 17/14 Q1014 NOSIG", "LFPG 281030Z 25012KT 220V300 9999 FEW018 BKN026 18/14 Q1014 NOSIG", "LFPM 281030Z AUTO 27010KT 9999 FEW018 BKN026 OVC032 17/14 Q1014", "LFPN 281030Z AUTO 25008KT 230V290 9999 FEW018 OVC028 19/15 Q1014 NOSIG", "LFPO 281030Z 27010KT 9999 SCT020 BKN030 18/14 Q1014 NOSIG", "LFPT 281030Z AUTO 26008KT 220V310 9999 FEW027 BKN035 20/15 Q1013", "LFPV 281030Z AUTO 26010KT 230V290 9999 FEW018 OVC028 18/15 Q1014 NOSIG", "LFQA 281030Z AUTO 25012KT 220V280 9999 BKN013 BKN019 OVC028 17/15 Q1013", "LFQB 281030Z AUTO 26010KT 230V290 9999 BKN020 BKN027 OVC054 19/15 Q1014", "LFQG 281000Z AUTO 20004KT 130V280 9999 BKN025 BKN032 BKN180 21/16 Q1016", "LFQQ 281030Z AUTO 26017KT 9999 OVC011 14/11 Q1012 NOSIG", "LFRB 281030Z AUTO 30005KT 250V340 9999 OVC009 14/13 Q1016 BECMG BKN012", "LFRC 281030Z AUTO 29010KT 9999 OVC005 12/11 Q1014 BECMG BKN020", "LFRD 281030Z AUTO 36005KT 320V040 9999 OVC007 14/12 Q1016 TEMPO BKN012", "LFRG 281030Z AUTO 28009KT 9999 BKN005 BKN017 14/12 Q1015 TEMPO 3000 DZ BECMG BKN016", "LFRH 281030Z AUTO 24005KT 190V280 9999 OVC006 15/14 Q1016 TEMPO BKN015", "LFRI 281030Z AUTO 36004KT 300V050 9999 BKN009 BKN130 BKN220 18/15 Q1016 TEMPO NSC", "LFRJ 281030Z AUTO 33005KT 290V360 9999 BKN009 OVC024 14/13 Q1016 TEMPO 0600 FG VV///", "LFRK 281030Z AUTO 25013KT 9999 BKN016 17/13 Q1014 TEMPO BKN008", "LFRL 281030Z AUTO 33006KT 300V010 9999 BKN007 14/12 Q1016 TEMPO BKN003", "LFRM 281030Z AUTO 25005KT 210V310 9999 ////// 18/14 Q1015", "LFRN 281030Z AUTO 30006KT 260V330 9999 BKN018 OVC026 17/14 Q1015 NOSIG", "LFRO 281030Z AUTO 26010KT 240V300 9999 OVC005/// 13/11 Q1016", "LFRQ 281030Z AUTO 34004KT 280V020 9999 OVC010 15/13 Q1016 BECMG BKN020", "LFRS 281030Z AUTO 26004KT 230V290 9999 BKN014 17/15 Q1015 BECMG BKN016", "LFRT 281030Z AUTO 26007KT 9999 OVC018 16/12 Q1015", "LFRU 281030Z AUTO 29006KT 250V310 9999 BKN010 BKN014 OVC024 15/12 Q1015", "LFRV 281030Z AUTO 28004KT 240V320 9999 BKN012 OVC017 16/14 Q1015", "LFRZ 281030Z AUTO 29003KT 230V030 9999 OVC010 17/17 Q1015 BECMG SCT006 BKN016", "LFSB 281030Z AUTO 27006KT 230V310 9999 BKN018 BKN023 OVC035 17/14 Q1016 TEMPO 3000 SHRA FEW030CB", "LFSD 281030Z AUTO 19008KT 160V230 9999 BKN042 BKN096 BKN110 20/15 Q1016", "LFSG 281030Z AUTO 23008KT 6000 -RA SCT014 SCT026 BKN034 16/14 Q1015", "LFSI 281030Z AUTO 23008KT 200V260 9999 SCT009/// BKN015/// OVC033/// ///TCU 16/15 Q1014", "LFSL 281030Z AUTO 14004KT 110V240 CAVOK 23/13 Q1016 NOSIG", "LFSM 281030Z AUTO 24009KT 9999 FEW016 BKN038 BKN044 18/15 Q1016", "LFSN 281030Z AUTO 24007KT 200V300 9999 BKN015 BKN021 BKN039 17/14 Q1014", "LFSO 281030Z AUTO 23006KT 9999 4700 -RA BKN011 OVC016 16/14 Q1015 TEMPO 2900 -TSRA BKN015CB", "LFST 281030Z AUTO 18009KT 140V210 9999 SCT007 BKN046 BKN100 17/15 Q1014 TEMPO 4000 SHRA FEW025CB", "LFSX 281030Z AUTO 24009KT 9999 ////// 17/14 Q1016", "LFTH 281030Z AUTO 15007KT 110V180 CAVOK 20/14 Q1020 NOSIG", "LFTW 281030Z AUTO 16007KT 120V230 9999 FEW033 SCT150 22/14 Q1019 NOSIG", "LFVP 281030Z AUTO 02014KT 9999 OVC026 02/M02 Q1017 NOSIG", "LFYR 281030Z AUTO 23005KT 190V300 9999 FEW022 SCT030 BKN054 21/15 Q1015 TEMPO BKN030CB", "LGAD 281020Z 32004KT 9999 FEW020 20/10 Q1019", "LGAL 281020Z 06009KT 9999 SCT030 15/03 Q1019", "LGAV 281020Z 04012KT 360V070 9999 SCT040 17/06 Q1019 NOSIG", "LGBL 281020Z 29007KT 9999 FEW035 19/03 Q1020", "LGEL 281020Z 35012KT 9999 SCT025 20/02 Q1019", "LGHI 280950Z 36014KT 9999 FEW025 16/08 Q1017", "LGIO 281020Z VRB05KT CAVOK 18/M01 Q1019", "LGIR 281020Z 33016KT 9999 FEW018 SCT025 18/07 Q1018 NOSIG", "LGKC 280950Z 04016KT 9999 FEW025 16/12 Q1020", "LGKF 280950Z 26006KT 9999 FEW018 18/10 Q1020", "LGKL 281020Z 20005KT 9999 SCT035 20/11 Q1018", "LGKO 281020Z 35022G32KT 9999 FEW016 16/06 Q1013", "LGKP 281020Z 32027KT 9999 FEW012 19/08 Q1012", "LGKR 281020Z VRB03KT 9999 FEW025 20/08 Q1019 NOSIG", "LGKV 281020Z 13009KT 9999 SCT025 SCT080 17/10 Q1019", "LGKZ 280950Z 34009KT CAVOK 14/M03 Q1020", "LGLM 281020Z 04010KT 9999 FEW018 SCT035 14/05 Q1019", "LGMK 281020Z 36016KT 9999 FEW018 16/06 Q1018", "LGMT 281020Z 34014KT 9999 FEW018 16/11 Q1018", "LGNX 280950Z /////KT 9999 FEW025 17/09 Q1017", "LGPA 280950Z 35017KT 9999 FEW030 17/08 Q1017", "LGPZ 281020Z 25008KT 9999 FEW020 20/08 Q1020", "LGRP 281020Z 29014KT 9999 FEW018 19/08 Q1010 NOSIG", "LGRX 281020Z VRB03KT 9999 FEW030 20/07 Q1020", "LGSA 281020Z 33011KT 9999 FEW020 18/11 Q1018", "LGSK 280950Z 33012KT 9999 FEW030 16/08 Q1020", "LGSM 280950Z 35010G20KT 9999 FEW025 16/06 Q1015", "LGSO 280950Z 35014KT 9999 SCT018 18/07 Q1018", "LGSR 281020Z 33022KT 9999 FEW025 18/06 Q1017", "LGTS 281020Z 33008KT 290V010 9999 FEW025 16/00 Q1020 NOSIG", "LGZA 280950Z VRB03KT 9999 FEW020 20/08 Q1020", "LHBP 281030Z 18006KT 150V300 CAVOK 15/M00 Q1021 NOSIG", "LHDC 281015Z AUTO VRB04KT CAVOK 14/01 Q1022 NOSIG", "LHKE 281015Z 18006KT 140V230 CAVOK 15/01 Q1022 NOSIG RMK BLU", "LHPA 281015Z 14014KT 110V170 CAVOK 16/02 Q1019 NOSIG RMK BLU", "LHPP 281015Z AUTO 15010KT CAVOK 15/03 Q1021", "LHPR 281015Z AUTO 14012KT 110V170 CAVOK 14/03 Q1020 NOSIG", "LHSM 281015Z AUTO 17010KT 130V210 CAVOK 17/04 Q1019 NOSIG", "LHSN 281015Z 16008KT 100V250 CAVOK 15/02 Q1021 NOSIG RMK BLU", "LIBA 280955Z 09007KT CAVOK 20/04 Q1021 RMK SCT SCT230 VIS MIN 9999 WIND THR11 10007KT WIND THR29 /////KT BLU", "LIBC 280950Z 06006KT 010V110 CAVOK 19/05 Q1022", "LIBD 281020Z 07007KT CAVOK 19/09 Q1021", "LIBF 280950Z 10007KT 070V150 9999 FEW030 20/06 Q1021", "LIBG 280950Z 25006KT 220V290 CAVOK 21/05 Q1021", "LIBN 280955Z 36007KT CAVOK 19/09 Q1021 RMK SCT SCT200 VIS MIN 9999 WIND THR14 35008KT WIND THR32 01008KT BLU", "LIBP 281020Z AUTO 05009KT 9999 NCD 21/11 Q1019", "LIBQ 280955Z VRB03KT CAVOK 12/M03 Q1024", "LIBR 281020Z 05004KT 020V090 CAVOK 17/09 Q1021", "LIBV 280955Z 31006KT CAVOK 18/01 Q1021 RMK BKN FEW200 BKN250 VIS MIN 9999 WIND THR32 33004KT WIND THR14 31004KT BLU", "LIBY 280955Z /////KT CAVOK 18/10 Q1020 RMK SKC QUK 1 QUL 0 VIS MAR 20 KM VIS MIN 9999", "LICA 281020Z AUTO 26010KT 220V290 9999 NCD 19/14 Q1022", "LICB 281020Z AUTO 25011KT 9999 NCD 21/09 Q1022", "LICC 281020Z 06010KT CAVOK 20/12 Q1022", "LICD 281020Z AUTO 15011KT 9999 NCD 20/16 Q1022", "LICF 280955Z 09003KT 9999 FEW040 20/05 Q1021 RMK FEW QUK 1 QUL 0 VIS MAR 20 KM MON LIB NC VIS MIN 9999", "LICG 280950Z VRB04KT CAVOK 22/11 Q1022", "LICJ 281020Z 35006KT CAVOK 19/12 Q1022", "LICR 281020Z AUTO 24006KT 200V260 9999 NCD 20/06 Q1023", "LICT 280955Z 21011KT 9999 FEW020 23/15 Q1022 RMK SCT SCT090 VIS MIN 9999 WIND THR13 23013KT BLU", "LICZ 280955Z 17002KT CAVOK 22/M03 Q1021 RMK SKC VIS MIN 9999 WIND THR28 09006KT WIND THR10 01002KT A3017 BLU", "LIEA 281020Z 20004KT 140V260 CAVOK 24/12 Q1020", "LIEB 280955Z 14006KT CAVOK 20/15 Q1020 RMK SKC QUK 2 QUL 0 VIS MAR 30 KM MON LIB VIS MIN 9999", "LIED 280955Z 15008KT CAVOK 25/12 Q1019 RMK BKN BKN200 VIS MIN 9999 WIND THR35 /////KT WIND THR17 16006KT BLU", "LIEE 281020Z 16008KT CAVOK 21/15 Q1020", "LIEO 281020Z 06010KT CAVOK 20/15 Q1020", "LIMA 280950Z 07005KT 010V120 CAVOK 18/05 Q1019", "LIMC 281020Z VRB03KT CAVOK 19/06 Q1019 NOSIG", "LIME 281020Z VRB03KT CAVOK 18/05 Q1019 NOSIG", "LIMF 281020Z 09006KT 050V140 CAVOK 18/08 Q1019", "LIMG 280950Z 06010KT 9999 SCT035 19/11 Q1020", "LIMH 280955Z AUTO 32013G28KT //// M01/M05 Q1024", "LIMJ 281020Z 15008KT 9999 SCT010 16/14 Q1020", "LIMK 280955Z 00000KT CAVOK 16/10 Q1019", "LIML 281020Z 14004KT 070V240 CAVOK 19/07 Q1019 NOSIG", "LIMN 280955Z 14005KT 100V200 CAVOK 18/07 Q1019 RMK SCT SCT200 VIS MIN 9999 BLU", "LIMP 280950Z VRB03KT CAVOK 18/11 Q1019", "LIMS 280955Z 12002KT CAVOK 17/12 Q1018 RMK BKN BKN240 VIS MIN 9999 WIND THR30 04003KT BLU", "LIMU 280955Z 05005KT 9999 FEW023 17/12 Q1020 RMK BKN QUK 1 QUL 1 E VIS MAR 30 KM VIS MIN 9999", "LIMV 280955Z /////KT 9999 FEW008 15/08 Q1020 RMK BKN SCT200 MON LIB VAL NIL VIS MIN 9999", "LIMW 281020Z AUTO 10007KT 050V130 9999 NCD 20/06 Q1017", "LIMZ 281020Z AUTO 03003KT 310V090 9999 NCD 19/07 Q1019", "LIPA 280955Z 05006KT 9999 FEW050 BKN070 15/11 Q1020 RMK BKN VIS MIN 9999 WIND THR05 /////KT WIND THR23 /////KT A3012 BLU", "LIPB 280950Z VRB02KT 9999 SCT060 SCT090 15/06 Q1020", "LIPC 280955Z 03003KT CAVOK 20/10 Q1019 RMK SCT SCT200 VIS MIN 9999 WIND THR11 03003KT WIND THR29 07004KT BLU", "LIPE 281020Z 33005KT 260V010 CAVOK 19/11 Q1019", "LIPF 280955Z 09002KT CAVOK 21/14 Q1019 RMK SCT SCT200 VIS MIN 9999", "LIPH 281020Z VRB03KT CAVOK 17/06 Q1020", "LIPI 280955Z 32003KT 9999 FEW060 BKN100 14/09 Q1020 RMK OVC VIS MIN 9999 WIND THR06 01005KT WIND THR24 34003KT BLU", "LIPK 280950Z VRB02KT CAVOK 20/09 Q1019", "LIPL 280955Z 13004KT 9999 FEW080 18/06 Q1018 RMK BKN BKN200 VIS MIN 9999 WIND THR31 13004KT WIND THR13 12004KT BLU", "LIPO 281020Z AUTO 10004KT 050V160 9999 NCD 19/04 Q1019", "LIPQ 281020Z AUTO VRB01KT 9999 -RA OVC068/// 14/09 Q1020 RERA", "LIPR 281020Z 06007KT 030V100 CAVOK 16/13 Q1019", "LIPS 280955Z 08002KT 9999 BKN100 17/09 Q1020 RMK BKN BKN200 VIS MIN 9999 WIND THR26 08002KT WIND THR08 10003KT BLU", "LIPU 280950Z VRB03KT CAVOK 18/08 Q1020", "LIPX 281020Z 13004KT 080V180 CAVOK 19/04 Q1019", "LIPY 281020Z AUTO 05006KT 010V080 9999 NCD 22/10 Q1018", "LIPZ 281020Z 09005KT 040V120 CAVOK 17/05 Q1020 NOSIG", "LIQC 280955Z 27002KT CAVOK 18/06 Q1022 RMK SKC QUK 1 QUL 0 VIS MAR 20 KM VIS MIN 9999", "LIQN 280950Z VRB02KT CAVOK 20/01 Q1021", "LIQW 280955Z 19008KT 9999 FEW020 18/14 Q1021 RMK SCT SCT200 VIS MIN 9999 WIND THR14 /////KT BLU", "LIRA 281020Z 22009KT CAVOK 20/07 Q1021", "LIRE 280955Z 16005KT CAVOK 17/08 Q1021 RMK SKC VIS MIN 9999 WIND THR13 16006KT WIND THR31 /////KT BLU", "LIRF 281020Z 18006KT 150V220 CAVOK 20/07 Q1021 NOSIG", "LIRG 280955Z 25005KT CAVOK 21/03 Q1022 RMK SKC MON NE LIB NC VIS MIN 9999 BLU", "LIRH 280955Z 14003KT 9999 FEW035 21/08 Q1020 RMK FEW MON LIB NC VIS MIN 9999 WIND THR16 00000KT BLU", "LIRI 280950Z 24008KT CAVOK 19/12 Q1022", "LIRK 280955Z AUTO /////KT //// 07/M02 Q1025", "LIRL 280955Z 21007KT CAVOK 21/10 Q1021 RMK SKC MON LIB NC VIS MIN 9999 WIND THR12 /////KT WIND THR30 19006KT BLU", "LIRM 280955Z 18005KT CAVOK 21/10 Q1021 RMK SKC VIS MIN 9999 WIND THR06 21007KT BLU", "LIRN 281020Z 19006KT 150V250 CAVOK 21/13 Q1021 NOSIG", "LIRP 281015Z VRB03KT 9999 BKN030 18/12 Q1021 NOSIG", "LIRQ 281020Z VRB04KT CAVOK 20/09 Q1020", "LIRS 280955Z 20010KT 9999 FEW025 20/14 Q1020 RMK SCT SCT200 VIS MIN 9999 WIND THR03 21009KT WIND THR21 20009KT BLU", "LIRT 280955Z 27011KT 9999 FEW006 13/03 Q1022", "LIRU 280950Z 20007KT 160V240 CAVOK 21/05 Q1021", "LIRV 280955Z 22011KT CAVOK 20/05 Q1021 RMK SCT FEW080 MON E SE LIB NC VIS MIN 9999 WIND THR04 /////KT BLU", "LIRX 280955Z 19007KT 0100 FG VV/// 15/13 Q1019 RMK VIS MIN 0100 VIS MAR 0100 M", "LIRZ 281020Z AUTO VRB03KT 9999 NCD 21/06 Q1020", "LIVC 280955Z AUTO /////KT //// ///// Q////", "LIVD 280955Z 30004KT 260V340 6000 OVC020 07/05 Q1021 RERA RMK OVC VIS MIN 6000", "LIVE 280955Z 21003KT 9999 BKN025 07/04 Q1018 RMK BKN VIS MIN 9999", "LIVF 280955Z 20006KT CAVOK 19/M03 Q1019", "LIVM 280955Z AUTO /////KT //// ///// Q////", "LIVO 280955Z 00000KT 9999 BKN035 12/05 Q1018 RMK BKN VIS MIN 9999", "LIVP 280955Z 21010KT 0300 FG VV/// 02/00 Q1019 RMK MON INVIS VAL INVIS VIS MIN 0300", "LIVR 280955Z 12009KT 9999 SCT020 05/01 Q1020 RMK BKN SCT060 MON CLD SCT VIS MIN 9999", "LIVT 280955Z VRB02KT 9999 OVC030 14/08 Q1020 RMK OVC QUK 1 QUL 0 VIS MAR 12 KM VIS MIN 9999", "LJCE 281030Z VRB02KT CAVOK 16/06 Q1019 RMK BLU", "LJLJ 281030Z VRB02KT 9999 FEW075 BKN130 BKN250 15/07 Q1019 NOSIG", "LJMB 281030Z 19009KT 160V220 CAVOK 16/06 Q1018", "LJPZ 281030Z VRB02KT 9999 FEW070 SCT100 BKN200 17/08 Q1019", "LKCV 281030Z 14012KT CAVOK 15/03 Q1016 NOSIG RMK BLU BLU", "LKKB 281000Z 06006KT 040V100 CAVOK 15/04 Q1016 NOSIG", "LKKU 281000Z 16011KT CAVOK 14/M01 Q1019", "LKKV 281030Z 05003KT 010V080 9999 -RA BKN040 07/05 Q1015", "LKLN 281000Z AUTO VRB02KT 9999 -RA OVC059 10/05 Q1016", "LKMT 281030Z 20008KT 170V240 CAVOK 15/01 Q1018 NOSIG", "LKNA 281030Z 13012KT 100V160 CAVOK 13/02 Q1017 NOSIG RMK BLU BLU", "LKPD 281030Z 13009KT 110V170 CAVOK 16/02 Q1016 RMK BLACK", "LKPR 281030Z 17005KT 9999 FEW033 14/04 Q1015 TEMPO BKN017", "LKTB 281030Z 15014KT CAVOK 16/03 Q1017 NOSIG", "LKVO 281000Z 10006KT 060V150 CAVOK 15/06 Q1016", "LLBG 281020Z 27012KT 9999 FEW040 22/10 Q1011 NOSIG", "LLER 280950Z 03004KT CAVOK 29/05 Q1009 RMK FEW070", "LLHA 280950Z 28008KT 260V320 9999 BKN035 21/12 Q1010", "LLIB 280950Z AUTO 23012KT 9999 SCT046 22/09 Q1010", "LMML 281015Z 18007KT 140V220 9999 FEW025 21/12 Q1023 NOSIG", "LOAN 281000Z 18010G20KT 9999 FEW040", "LOAV 281000Z 17008KT CAVOK 17/04", "LOWG 281020Z AUTO VRB02KT 9999 FEW050 SCT070 12/04 Q1019 NOSIG", "LOWI 281020Z 27008KT 9999 RA FEW010 SCT040 BKN050 09/09 Q1019 NOSIG", "LOWK 281020Z VRB02KT 9999 FEW040 BKN100 12/06 Q1019 NOSIG", "LOWL 281020Z AUTO 14003KT 100V170 9999 FEW040 BKN070 13/06 Q1016 TEMPO RA", "LOWS 281020Z VRB02KT 9999 -RA FEW030 BKN060 12/09 Q1016 RERA NOSIG", "LOWW 281020Z 15017G27KT CAVOK 16/06 Q1017 NOSIG", "LOXZ 281020Z VRB03KT 9999 FEW040 BKN090 09/05 Q1018 NOSIG", "LPAR 281000Z 35007KT 320V020 CAVOK 24/09 Q1014", "LPAZ 281030Z 22017KT 9999 SCT012 SCT028 17/15 Q1013", "LPBJ 281000Z VRB02KT CAVOK 24/10 Q1015", "LPCS 281030Z 02011KT CAVOK 24/12 Q1015", "LPFL 281030Z 20011KT 9999 VCSH FEW017 SCT020TCU 15/09 Q1004", "LPFR 281030Z 14007KT 120V180 CAVOK 22/16 Q1014", "LPHR 281030Z 23019KT 9999 FEW016 17/12 Q1008", "LPLA 281000Z /////KT 9999 FEW023 17/13 Q1009 WS R15", "LPMA 281030Z 12004KT 070V160 9999 FEW015 22/16 Q1018", "LPMR 281000Z 36006KT 310V040 9999 FEW015 20/14 Q1015", "LPMT 281000Z 01005KT CAVOK 22/12 Q1014", "LPOV 281000Z /////KT 9999 FEW025 19/15 Q1014", "LPPD 281030Z 22013KT 9999 FEW016TCU 18/16 Q1011", "LPPR 281030Z 28007KT 240V320 9999 FEW015 19/15 Q1015", "LPPS 281030Z 31007KT 270V350 9999 FEW014 23/15 Q1018", "LPPT 281030Z 01007KT 330V040 CAVOK 24/10 Q1015", "LPST 281000Z 33006KT 300V360 CAVOK 20/14 Q1015", "LQBK 281030Z 09007KT 050V140 CAVOK 19/05 Q1019 NOSIG", "LQMO 281030Z VRB03KT 9999 FEW040 20/03 Q1018", "LQSA 281030Z VRB03KT CAVOK 16/M00 Q1021 NOSIG", "LQTZ 281030Z VRB05KT 9999 FEW060 18/00 Q1020", "LRAR 281030Z VRB03KT CAVOK 14/02 Q1022", "LRBC 281030Z 34019KT 9999 FEW050 BKN060 12/M02 Q1020", "LRBM 281030Z 24010KT 9999 SCT054 13/01 Q1021", "LRBS 281030Z 32007KT 250V030 CAVOK 14/01 Q1020 NOSIG", "LRCK 281030Z 32021KT CAVOK 14/01 Q1017 NOSIG", "LRCL 281030Z 34008KT 9999 FEW067 13/M03 Q1021", "LRCV 281030Z 31009KT 280V350 CAVOK 14/M01 Q1020", "LRIA 281030Z 32016KT CAVOK 13/M01 Q1019", "LROD 281030Z 22006KT 200V260 CAVOK 14/00 Q1022", "LROP 281030Z 28008KT 220V350 CAVOK 15/M01 Q1020 NOSIG", "LRSB 281030Z 28004KT 210V360 9999 FEW055 11/M03 Q1021", "LRSM 281030Z VRB05KT CAVOK 14/M00 Q1022", "LRSV 281030Z 33012KT CAVOK 10/00 Q1020", "LRTC 281030Z 34021KT CAVOK 14/M03 Q1016", "LRTM 281030Z 01005KT 290V070 9999 FEW042 12/02 Q1021", "LRTR 281030Z 36007KT 270V050 CAVOK 14/M02 Q1022 NOSIG", "LSGC 280950Z 25007KT 220V290 8000 -RA SCT010 BKN016 12/12 Q1018", "LSGG 281020Z 22013KT 9999 FEW050 SCT090 22/10 Q1017 NOSIG", "LSGS 281020Z VRB02KT 9999 FEW080 BKN110 21/08 Q1016", "LSMA 280950Z 08005KT 050V110 9999 -SHRA SCT051 OVC070 13/10 Q1017 RMK BLU", "LSMD 281020Z AUTO 17004KT 130V230 8000NDV +RA FEW007 SCT013 BKN019 11/11 Q1017 RMK", "LSME 280950Z 22003KT 170V240 9999 -SHRA SCT042 BKN049 OVC058 13/13 Q1017 RMK BLU", "LSMM 281020Z AUTO VRB01KT 9999NDV -SHRA FEW017 BKN077 15/10 Q1017 RMK", "LSMP 281020Z AUTO 24010KT 200V270 9999NDV FEW066 19/11 Q1016 RMK", "LSZA 280950Z VRB02KT 9999 FEW045 BKN066 17/08 Q1020", "LSZB 281020Z 10003KT 9999 FEW049 BKN065 15/12 Q1017", "LSZG 281020Z VRB01KT 9999 SHRA FEW035 BKN039 BKN045 15/13 Q1017", "LSZH 281020Z 16007KT 9999 VCSH FEW005 SCT014 BKN025 12/11 Q1017 RESHRA NOSIG", "LSZL 281020Z AUTO 26004KT 230V290 9999NDV BKN072 16/08 Q1019 RMK", "LSZR 281020Z 18009KT 150V220 4000 RA BKN024 12/11 Q1017 RMK H", "LSZS 281020Z 23018KT 9999 FEW055 BKN062 10/03 Q1018 RMK K TL170", "LTAC 281020Z 29010KT 9999 SCT030 BKN100 09/02 Q1011 NOSIG RMK RWY21L 28012KT RWY03L 28009KT RWY21R 29008KT 260V330", "LTAE 280950Z 35013KT 320V020 9999 SCT035 BKN090 10/02 Q1012 NOSIG RMK RWY21 35011KT", "LTAF 281020Z VRB05KT 9999 FEW025TCU SCT030 BKN090 21/15 Q1007 TEMPO -TSRA RMK RWY23 12007KT 080V160 1TCU025 3CU030 7AC090", "LTAG 281020Z 11006KT 9999 SCT035 BKN120 20/12 Q1007 TEMPO TL1200 -TSRA RMK 4CU035 6AC120", "LTAI 281020Z 35011KT 9999 FEW020CB BKN030 22/06 Q1008 NOSIG RMK RWY18C 35011KT 320V030 RWY36R 35008KT 310V040 RWY18L 36010KT 330V030", "LTAJ 281020Z 21009KT 150V250 9999 SCT035 BKN090 20/05 Q1007 TEMPO -TSRA RMK RWY10 21008KT 150V260 3CU035 5AC090", "LTAL 280950Z 25012KT 9000 FEW011 BKN034 BKN045 06/04 Q1012 RESHRA", "LTAN 280950Z 34019KT 9999 FEW015 SCT030 BKN090 09/04 Q1012 NOSIG", "LTAP 281020Z 28004KT 230V340 9999 FEW010 SCT040 BKN060 14/08 Q1009 NOSIG RMK RWY23 02005KT 340V100", "LTAR 280950Z 12013KT 9999 FEW020CB BKN025 BKN070 09/05 Q1009", "LTAS 280950Z 29005KT 260V340 9999 BKN030 BKN080 11/08 Q1017 RESHRA", "LTAT 281020Z 24014KT 100V260 9999 BKN035TCU 20/05 Q1007 NOSIG RMK RWY03 20012KT 160V230", "LTAU 281020Z 24005KT 200V280 9999 -SHRA BKN025 BKN080 07/05 Q1010 NOSIG RMK RWY07 22006KT 180V250", "LTAW 281018Z 23012KT 9999 TS FEW025CB BKN030 12/09 Q1009 RMK RWY24 23012KT", "LTAY 280950Z 27007KT 9999 SCT030 BKN090 08/06 Q1014 NOSIG", "LTAZ 281020Z 31006KT 280V340 9999 -SHRA FEW011 BKN030 BKN080 10/08 Q1010 RMK RWY29 32005KT 270V010", "LTBA 281020Z 33014KT 300V010 9999 FEW045 14/02 Q1019 RMK RWY23 01012KT 330V040", "LTBD 280950Z VRB02KT 9999 SCT040 BKN100 18/07 Q1014", "LTBF 280950Z 03011KT 360V060 9999 BKN035 14/07 Q1018 NOSIG", "LTBH 280950Z 07011KT 020V090 9999 SCT035 BKN100 15/06 Q1020", "LTBJ 281020Z 03018KT 360V070 9999 SCT030 16/02 Q1015 NOSIG RMK RWY16 04020KT", "LTBO 280950Z 35011KT 9999 SCT040 BKN090 09/01 Q1014", "LTBQ 280950Z 31008KT 280V350 9999 BKN035 14/04 Q1018 NOSIG", "LTBR 281020Z 33008KT 300V030 9999 SCT035 SCT080 13/05 Q1017 NOSIG RMK RWY07 29009KT 270V330", "LTBS 281020Z 01009G20KT 330V080 9999 FEW030 22/06 Q1009 NOSIG RMK RWY19 02008KT 350V050 1CU030", "LTBU 281020Z 32009KT 280V350 9999 SCT035 15/02 Q1019 RMK RWY22 34007KT 260V030", "LTBY 280950Z 32014KT 9999 FEW010 BKN026 08/02 Q1015", "LTCA 280950Z 13011KT 100V160 9999 SCT035 21/04 Q1007 NOSIG", "LTCB 280950Z 27012KT 8000 -SHRA SCT012 BKN033 13/10 Q1013 NOSIG", "LTCC 281020Z 16008KT 9999 FEW040 BKN100 22/12 Q1007 NOSIG RMK RWY16 16009KT 090V190 2CU040 5AC100", "LTCD 280950Z 11020KT 9999 SCT045 BKN080 19/05 Q1008 NOSIG", "LTCE 281031Z 18016G27KT 140V210 9999 -TSRA FEW025CB SCT035 12/02 Q1013 RESHRA NOSIG", "LTCF 280950Z 18017KT 9999 SCT040 BKN080 15/03 Q1014 NOSIG", "LTCG 281020Z 29006KT 270V330 9999 SCT008 BKN028 14/12 Q1012 NOSIG RMK RWY29 29009KT", "LTCI 280950Z 31008KT 9999 SCT030 BKN070 15/04 Q1017 NOSIG", "LTCJ 281020Z 18013KT 9999 FEW040 BKN100 24/08 Q1007 NOSIG RMK RWY20 14009G19KT 100V260 2CU040 6AC100", "LTCK 280950Z 21012KT 180V290 9999 SCT035 BKN090 19/04 Q1011", "LTCL 280950Z 12006KT 090V150 9999 FEW040 BKN100 25/05 Q1008", "LTCM 280950Z 27020KT 9999 SCT017 BKN100 13/09 Q1013", "LTCN 280950Z 29020KT 9999 -SHRA FEW025CB BKN040 17/08 Q1007", "LTCO 280950Z 19012KT 9999 SCT040 BKN070 17/02 Q1014", "LTCP 280950Z 20008KT 160V240 9999 SCT035 20/06 Q1008", "LTCR 280950Z 12003KT 060V160 9999 SCT040 BKN100 23/10 Q1008", "LTCS 281020Z 24009KT 210V270 9999 SCT040 21/05 Q1008 RMK RWY22 19010KT 150V230 4CU040", "LTCT 280950Z 10004KT 070V160 9999 FEW040 BKN080 20/08 Q1011", "LTCU 280950Z 15014KT 9999 SCT035 BKN100 20/05 Q1009", "LTCV 280950Z 10010KT 9999 SCT035 BKN100 24/11 Q1008", "LTCW 280950Z 17010KT 130V230 9999 SCT035 BKN080 19/M03 Q1017", "LTDA 280950Z 22026KT 5000 -TSRA FEW025CB BKN030 19/14 Q1007 BECMG TL0930 NSW", "LTFB 280950Z 01010KT 330V040 9999 SCT035 17/04 Q1015", "LTFC 281020Z 34018KT 9999 BKN040 10/03 Q1013 RMK RWY23 32018KT", "LTFD 280950Z 01011KT 9999 BKN035 17/06 Q1018", "LTFE 281020Z 30013KT 9999 SCT035 18/06 Q1012 NOSIG RMK RWY10 34013G24KT 300V030", "LTFG 280950Z 04012KT 9999 -TSRA FEW020CB SCT025 14/12 Q1009", "LTFH 280950Z 32007KT 9999 -SHRA BKN010 BKN025 12/11 Q1012 BECMG FEW012 SCT030 BKN100", "LTFJ 281020Z 33012KT 300V030 9999 SCT040 13/04 Q1018 NOSIG RMK RWY24 35011G21KT 310V020", "LTFK 280950Z 36011KT CAVOK 14/05 Q1020", "LTFM 281020Z 35019KT 9999 FEW030 12/01 Q1019 NOSIG RMK RWY17L 35016KT RWY34L 33018KT RWY16R 34016G26KT RWY36 35019KT RWY18 34017KT", "LTFO 280950Z 25009KT 9999 -SHRA SCT012 BKN028 14/13 Q1012", "LUBM 281030Z 31018G28KT CAVOK 12/M01 Q1019", "LUKK 281030Z 35018KT 320V020 CAVOK 14/M01 Q1016 TEMPO 35020G32KT", "LWOH 281030Z 16008KT CAVOK 11/01 Q1020", "LWSK 281000Z 28005KT 220V320 CAVOK 15/01 Q1021 NOSIG", "LXGB 281020Z 09007KT CAVOK 23/13 Q1016 NOSIG RMK BLU BLU", "LYBE 281030Z VRB04KT CAVOK 15/M02 Q1022 NOSIG", "LYBT 281030Z VRB04KT CAVOK 15/M00 Q1022 NOSIG", "LYKV 281030Z 14004KT 040V200 9999 FEW050 15/02 Q1022 NOSIG", "LYNI 281030Z 32010KT 280V010 CAVOK 15/M02 Q1022 NOSIG", "LYPG 281030Z 15008KT 100V180 CAVOK 19/02 Q1020 NOSIG", "LYTV 281030Z 23006KT 170V290 CAVOK 18/06 Q1021 NOSIG", "LYVR 281030Z 34006KT 300V040 CAVOK 14/M01 Q1023 NOSIG", "LZIB 281030Z 12013KT CAVOK 15/03 Q1019 NOSIG", "LZKZ 281030Z 21007KT CAVOK 12/M00 Q1021 NOSIG", "LZPP 281030Z 13012KT CAVOK 14/00 Q1019", "LZTT 281030Z 14005KT 040V210 9999 FEW053 11/M00 Q1019 NOSIG", "LZZI 281030Z VRB03KT 9999 FEW038 13/M00 Q1019", "MBPV 281000Z 09006KT 9999 SCT020 24/20 Q1013", "MDPC 281000Z 00000KT 9999 FEW018 22/21 Q1014", "MDSD 281000Z 01004KT 9999 SCT015 BKN070 22/22 Q1014", "MDST 281000Z 00000KT 9999 BKN016 SCT070 23/22 Q1014", "MGGT 281000Z 20004KT 7000 SKC 17/15 Q1018 A3006 BR", "MGHT 281000Z 00000KT CAVOK 14/14 OVC200", "MGPB 281000Z 10004KT 9000 SCT018 27/24 Q1006 A2971 HZ", "MHLM 281000Z 00000KT 2000 FU FEW025 26/21 Q1007 A2974 NOSIG", "MHPR 281000Z 18004KT 5000 FU FEW046 22/18 Q1014 A2993 NOSIG", "MHTG 281000Z 17002KT 5000 FU NSC 20/18 Q1016 A3000 NOSIG", "MKJP 281000Z 36008KT 9999 FEW022 27/22 Q1012", "MKJS 281000Z 14007KT 9999 FEW022 25/19 Q1012", "MMAA 280941Z 07005KT 5SM SCT015 SCT300 25/21 A2981 RMK 8/102 HZY", "MMAS 280955Z 12002KT 10SM SKC 12/M15 A3010", "MMGL 280941Z 00000KT 10SM SKC 13/01 A3007", "MMHO 280952Z 31002KT 10SM SKC 17/07 A2983 RMK HZY", "MMLO 280943Z 00000KT 8SM SKC 12/M09 A3016", "MMMD 280940Z 16008KT 6SM SKC 25/22 A2977 RMK HZY", "MMMM 280942Z 00000KT 6SM SKC 11/05 A3012 RMK HZY", "MMMX 280949Z 00000KT 9SM SKC 18/00 A3020 NOSIG RMK AC HZY", "MMMY 280950Z 00000KT 8SM SKC 20/20 A2978", "MMMZ 280950Z 00000KT 5/16SM FG VV001 15/15 A2985 RMK 8////", "MMQT 280948Z 31003KT 7SM FEW020 SCT250 16/03 A3016 RMK 8/508", "MMSP 280940Z 27003KT 6SM SKC 13/12 A3010 RMK SC", "MMTJ 280940Z 00000KT 5SM OVC011 13/13 A2995 RMK 8/6// HZY", "MMTO 280941Z 00000KT 8SM SCT200 07/01 A3028 RMK 8/002", "MMTP 280940Z 00000KT 8SM SKC 24/24 A2982 RMK HZY", "MMUN 280940Z 13013KT 7SM SKC 26/22 A2980 RMK CI", "MMVA 281006Z RTD 00000KT 2SM BR HZ SCT012 25/24 A2978 RMK 8/600 HZLYR OVR STN RTS", "MMZC 280940Z E18008KT 10SM SKC 10/M04 A3014", "MNMG 281000Z 16006KT 9999 FEW022 SCT300 24/23 Q1009 A2980 NOSIG", "MPMG 281000Z AUTO 29006KT //// R01///// // BKN084/// OVC095/// 25/23 Q1010", "MPTO 281000Z AUTO VRB02KT 9999 OVC023/// 23/22 Q1010", "MROC 281000Z 17003KT 9999 SCT030 21/19 A2996 NOSIG", "MSLP 280950Z 03003KT 350V080 9000 FEW020 25/22 Q1009 A2980 NOSIG RMK HZ", "MTPP 280959Z AUTO 12005KT 9000 ////// 24/21 Q1012 A2990 NOSIG", "MUCC 280950Z 12004KT 9000 FEW020 23/22 Q1012", "MUCF 280959Z AUTO 09003KT 22/21 Q1012", "MUCL 280950Z AUTO 14006KT 26/22 Q1011", "MUCM 280950Z 07005KT 5000 BR NSC 22/21 Q1014", "MUCU 280950Z VRB03KT 9000 FEW020 24/21 Q1013", "MUGM 280951Z 31004KT 10SM FEW120 SCT250 24/22 A2993 RMK AO2 SLP134 T02390222 $", "MUHA 280950Z 06003KT 9000 FEW040 20/19 Q1012", "MUHG 280950Z 09005KT 7000 VCFG FEW030 22/22 Q1013", "MUSC 280950Z VRB01KT 8000 NSC 22/21 Q1013", "MUVR 280950Z 11005KT 9000 FEW030 22/21 Q1012", "MYCB 281000Z AUTO /////KT ///V/// //// R09///// // NCD ///// A////", "MYGF 281000Z AUTO 17007KT //// R24///// // FEW020/// SCT120/// BKN180/// 25/22 A2990", "MYNN 281000Z 16007KT 9999 FEW022 24/21 A2992", "MYSM 281000Z AUTO 09005KT 9999 FEW017/// 23/22 A2996", "NCAI 281000Z AUTO 16005KT //// ////// 25/23 Q1014", "NCAT 281000Z AUTO NIL", "NCMG 281000Z AUTO 10002KT //// ////// ///// Q////", "NCMH 281000Z AUTO NIL", "NCMK 281000Z AUTO 17004KT //// ////// ///// Q1014", "NCMR 281000Z AUTO 12002KT //// ////// ///// Q1014", "NCNS 281000Z AUTO NIL", "NCPK 281000Z AUTO NIL", "NCPL 281000Z AUTO NIL", "NCPY 281000Z AUTO NIL", "NCRG 281030Z AUTO 13004KT 100V170 9999 FEW039/// 23/17 Q1016", "NCRK 281000Z AUTO NIL", "NCSW 281000Z AUTO NIL", "NFFN 281000Z 12006KT 9999 FEW030 25/23 Q1011 NOSIG", "NFNA 281000Z 00000KT 9999 FEW020 24/23 Q1010", "NFTF 281000Z 02008KT 9999 TS FEW008 SCT016CB BKN100 26/25 Q1012 RMK TS TO THE SW", "NGFU 281000Z 11006KT 9999 FEW016CB FEW 018TCU 28/26 Q1009", "NGTA 281000Z 06006KT 9999 FEW018TCU 29/26 Q1007", "NIUE 281000Z AUTO 06005KT 030V090 NCD 24/24 Q1013", "NLWW 281030Z AUTO 13004KT 090V160 9999 NCD 27/23 Q1011 TEMPO 4000 SHRA BKN014 FEW018CB", "NSFA 281000Z 08005KT 9999 FEW023 BKN280 26/25 Q1012", "NSTU 280950Z 07007KT 10SM SCT020 28/26 A2988 RMK SLP119 T02790261", "NTAA 281030Z AUTO VRB02KT CAVOK 25/23 Q1012 NOSIG", "NVVV 281000Z VRB01KT 9999 SCT020 23/22 Q1009", "NWWW 281030Z AUTO VRB02KT 9999 SCT019/// BKN025/// BKN039/// ///TCU 21/20 Q1009 TEMPO 4500 +SHRA FEW018CB", "NZAA 281030Z AUTO 12005KT 9999 BKN050/// 13/11 Q1026", "NZCH 281030Z AUTO 07014KT 9999 OVC009/// 13/11 Q1024", "NZCM 280955Z AUTO 00000KT 9999 CLR M21/M28 A2971 RMK AO2 SLP067 T12121283", "NZWN 281030Z AUTO 01006KT 9999 NCD 11/10 Q1027", "OBBI 281030Z 04005KT 360V080 CAVOK 33/11 Q1007 NOSIG", "OEAB 281000Z 22014KT 9999 SCT020 25/07 Q1022 NOSIG", "OEAH 281000Z 26008KT CAVOK 37/M01 Q1008 NOSIG", "OEAO 281000Z 26012KT CAVOK 31/M07 Q1011 NOSIG", "OEBA 281000Z 20012KT 9999 FEW030 29/08 Q1018 NOSIG", "OEBH 281000Z 00000KT 9999 SCT030 32/13 Q1013 NOSIG", "OEDF 281000Z 23005KT CAVOK 39/M02 Q1007 NOSIG", "OEDM 281000Z 24012KT CAVOK 31/11 Q1011", "OEDR 281000Z 09008KT CAVOK 36/M02 Q1006", "OEGN 281000Z 24010KT 9999 FEW030 38/21 Q1007 NOSIG", "OEGS 281000Z 22010KT CAVOK 33/14 Q1008", "OEGT 281000Z 24007KT CAVOK 29/M02 Q1008 NOSIG", "OEHL 281000Z 30012KT CAVOK 30/04 Q1011", "OEJB 281000Z AUTO VRB04KT CAVOK 37/M02 Q1007 NOSIG", "OEJN 281000Z 27008KT 9999 SCT040 34/21 Q1008 NOSIG", "OEKJ 281000Z 21014KT 7000 NSC 35/10 Q1013", "OEKM 281000Z 19010KT 9999 SCT022 25/02 Q1022 NOSIG", "OEMA 281000Z 28010KT CAVOK 32/M11 Q1012 NOSIG", "OEMN 281000Z 36003KT 9999 FEW040 30/21 Q1011", "OENG 281000Z 10006KT 9999 SCT030 33/03 Q1014 NOSIG", "OEPA 281000Z 19010KT CAVOK 36/10 Q1007 NOSIG", "OEPS 280955Z AUTO 22012G18KT 9999 FEW220 34/11 A2993 RMK AO2 SLP106 WND DATA ESTMD T03380105", "OERF 281000Z 00000KT CAVOK 34/M02 Q1010 NOSIG", "OERK 281000Z 25009KT CAVOK 34/08 Q1010 NOSIG", "OERR 281000Z 00000KT CAVOK 32/00 Q1007 NOSIG", "OESH 281000Z 10006KT CAVOK 38/10 Q1010 NOSIG", "OESK 281000Z 36004KT CAVOK 31/M03 Q1011 NOSIG", "OETB 281000Z 24012KT CAVOK 30/M07 Q1010 NOSIG", "OETF 281000Z 16009KT 9999 SCT030 22/15 Q1019 NOSIG", "OETR 281000Z 24012KT CAVOK 26/M02 Q1010 NOSIG", "OEWD 281000Z 10006KT CAVOK 35/06 Q1010", "OEWJ 281000Z 20009KT CAVOK 29/19 Q1009 NOSIG", "OEYN 281000Z 26019KT CAVOK 37/12 Q1006 NOSIG", "OIAA 281000Z 31006KT CAVOK 37/M02 Q1007", "OIAG 281000Z 27006KT CAVOK 38/03 Q1006", "OIAH 281000Z 29006KT 9999 FEW035CB SCT040 31/03 Q1011", "OIAI 280952Z 25006KT CAVOK 34/06 Q1007", "OIAM 281000Z 19008KT CAVOK 35/12 Q1006", "OIAW 281030Z 25008KT CAVOK 38/05 Q1005", "OIBA 281000Z 29006KT CAVOK 29/21 Q1006", "OIBB 281000Z 23012KT CAVOK 30/19 Q1007 A2974 NOSIG", "OIBH 281000Z 21016KT CAVOK 30/19 Q1006 A2971", "OIBJ 281000Z AUTO 23007KT //// // ////// 28/16 Q1011", "OIBK 281030Z 25010KT 8000 FEW025CB 29/18 Q1007", "OIBL 281000Z 22008KT 8000 NSC 28/21 Q1006", "OIBP 281030Z 24006KT 8000 FEW035 32/22 Q1006 A2972", "OIBQ 281000Z 24008KT CAVOK 31/17 Q1007", "OIBS 281000Z 33006KT 7000 NSC 29/18 Q1007", "OIBV 281000Z 24006KT 8000 FEW030 28/19 Q1007", "OICC 281000Z 10004KT 9999 FEW050 24/04 Q1015 A2997", "OICI 281030Z 22004KT CAVOK 26/M05 Q1015 A3000", "OICJ 281000Z 13008KT 9999 FEW040 23/00 Q1016", "OICK 281000Z 26010KT 9999 FEW050 26/06 Q1013", "OICM 281000Z 10002KT CAVOK 36/04 Q1005", "OICS 281000Z 19008KT CAVOK 25/00 Q1014 A2996", "OIFK 281000Z 00000KT CAVOK 30/02 Q1011 A2988", "OIFM 281030Z 29010KT 9999 FEW035TCU SCT040 25/01 Q1015 A2999", "OIFS 281000Z 34008KT 9999 SCT030CB SCT035 21/M02 Q1018", "OIGG 281030Z 00000KT 8000 FEW025 SCT200 24/17 Q1009", "OIGK 280950Z 23006KT CAVOK 21/M05 Q1018", "OIHH 281000Z 25004KT 9999 FEW040 24/M02 Q1016 A3000", "OIHM 281000Z 11002KT 9999 SCT040 21/00 Q1016", "OIIE 281030Z 29006KT 9999 SCT040 29/M02 Q1011", "OIII 281030Z 25008KT 9999 FEW040TCU 27/M01 Q1012 A2991", "OIIK 281000Z 14004KT 9999 SCT035TCU 26/05 Q1014", "OIIP 281030Z 22004KT 6000 FEW040 28/M01 Q1012 A2988", "OIKB 281030Z 20016KT 9999 FEW030CB 32/08 Q1005 A2971", "OIKK 281000Z 11014KT 9999 SCT030CB BKN040 14/09 Q1017 A3005 RETSRA", "OIKO 281000Z 20014KT 8000 FEW030CB 32/11 Q1006", "OIKQ 281000Z 23012KT CAVOK 31/16 Q1007 NOSIG", "OIMB 281000Z 17014KT 9999 FEW040TCU BKN190 28/M09 Q1013 A2991", "OIMC 280950Z 00000KT CAVOK 34/M00 Q1008", "OIMD 281000Z 03006KT CAVOK 31/M05 Q1008", "OIMJ 281000Z 23008KT 9999 FEW040TCU SCT040 23/09 Q1015", "OIMM 281030Z 11010KT CAVOK 30/07 Q1012 A2991", "OIMN 281000Z VRB02KT 9999 FEW040 BKN090 BKN180 25/09 Q1013", "OIMQ 281000Z 14006KT 9999 FEW031 SCT190 30/M02 Q1012", "OIMS 281000Z 30010KT 9999 FEW035 BKN200 30/04 Q1012", "OIMT 281000Z AUTO 32004KT //// // ////// 32/07 Q1008", "OINB 281000Z 33006KT CAVOK 23/16 Q1010", "OINE 281000Z 14004KT 9999 FEW035 SCT045CB BKN180 23/17 Q1010", "OING 281030Z 23004KT 8000 FEW030 FEW035CB BKN190 26/17 Q1011", "OINK 281000Z 13006KT 9999 FEW025 BKN090 25/16 Q1008 A2978", "OINN 281030Z 05006KT 6000 FEW026TCU 22/17 Q1009", "OINR 281000Z 06004KT 4000 BR BKN011 FEW022CB 20/17 Q1009", "OINZ 281030Z 32004KT CAVOK 26/15 Q1009", "OISA 281000Z 33004KT 9999 FEW040 19/02 Q1017 A3005", "OISF 281000Z 00000KT 9999 SCT040 26/06 Q1014 A2995", "OISL 281030Z 30006KT 9999 FEW040CB SCT045TCU 31/08 Q1007 A2976", "OISR 281000Z 24008KT 9999 FEW035TCU SCT040 32/15 Q1008 A2978 NOSIG", "OISS 281030Z 24004KT 9999 SCT040TCU 23/07 Q1014 A2995", "OISY 281000Z 00000KT 9999 SCT040 BKN080 23/02 Q1019", "OITK 281000Z 15014KT 9999 FEW035CB SCT090 BKN170 24/01 Q1012 A2990", "OITL 281000Z 15014KT 9999 FEW040 26/M01 Q1013 NOSIG", "OITM 281000Z 15004KT 9999 FEW035 25/M01 Q1013", "OITP 281000Z 10004KT CAVOK 25/23 Q1008", "OITR 281000Z 12010KT 9999 FEW035TCU SCT170 24/M03 Q1012 A2991", "OITT 281030Z 26006KT 9999 FEW030 SCT190 24/M04 Q1013 A2994", "OITZ 281000Z 24010KT 9999 FEW035 23/M05 Q1015 A2998", "OIYY 281000Z 36002KT 9999 FEW035CB SCT040 25/07 Q1014 NOSIG", "OIZB 281000Z 02010KT CAVOK 37/M01 Q1005", "OIZC 281000Z 18012KT 9999 FEW035 33/19 Q1004", "OIZH 281030Z 03008KT 8000 FEW035CB BKN090 28/04 Q1011 A2987", "OIZI 281000Z 22014KT 9999 FEW040 SCT100 31/10 Q1008", "OIZJ 281000Z 29010KT 9999 FEW030TCU 30/21 Q1005", "OJAI 281000Z 26014KT 4500 HZ FEW035 21/05 Q1012 NOSIG", "OJAM 281000Z 25012KT 6000 SCT030 20/09 Q1012 NOSIG", "OJAQ 281000Z 02005KT CAVOK 29/05 Q1009 NOSIG", "OKAS 280955Z AUTO 32003KT 9999 CLR 36/M01 A2974 RMK AO2 SLP066 T03561007 FZRANO $", "OKKK 281000Z 09005KT CAVOK 36/02 Q1006 NOSIG", "OLBA 281000Z 23010KT 8000 BKN026 22/14 Q1012 NOSIG", "OMAA 281000Z 29011KT CAVOK 32/10 Q1007 NOSIG", "OMAD 281000Z 34010KT 310V010 CAVOK 32/10 Q1007 NOSIG", "OMAL 281000Z VRB07KT CAVOK 34/M02 Q1008 NOSIG", "OMDB 281000Z 29012KT CAVOK 31/13 Q1007 NOSIG", "OMDW 281000Z 29012KT 270V330 CAVOK 32/08 Q1008 NOSIG", "OMFJ 281000Z 04011KT CAVOK 28/20 Q1006 A2973", "OMRK 281000Z 29009KT CAVOK 33/11 Q1007 A2976", "OMSJ 281000Z 27013KT CAVOK 31/09 Q1008 NOSIG", "OOAD 280950Z AUTO 29014KT //// R31///// // NCD 35/02 Q1008 NOSIG", "OODQ 280950Z AUTO 20015KT 9999 FEW042 34/22 Q1007 NOSIG RMK RH49? 0", "OOKB 280950Z 02013KT 9999 FEW035 29/18 Q1007 NOSIG", "OOMS 280950Z 02012KT 9999 FEW025TCU 31/21 Q1007 NOSIG", "OOSA 280950Z 20014KT 9999 SCT025 32/26 Q1009 NOSIG", "OOSH 280950Z AUTO 06014KT //// ////// 34/08 Q1005 RMK 1001", "OPFA 280955Z 31006KT 6000 FEW100 35/09 Q1008 NOSIG", "OPIS 281030Z 05010KT 7000 FEW040 28/14 Q1012 NOSIG", "OPKC 281030Z 23014KT 5000 VCTS FEW025TCU SCT030 BKN100 31/15 Q1007 TEMPO 23025G35KT DSTSRA FEW025CB", "OPLA 281025Z 36008KT 5000 HZ SCT040 34/15 Q1008 TEMPO 32015G30KT 2000 TSRA FEW030CB RMK QFE982 A29.78", "OPMT 281030Z 05006KT 5000 HZ SCT100 36/11 Q1006 NOSIG", "OPNH 281000Z 18018KT 6000 SCT100 SCT200 33/21 Q1007", "OPPS 281030Z 13008KT 9999 SCT100 28/10 Q1014", "OPSK 281000Z 18010KT 5000 HZ SCT040 SCT100 36/16 Q1004 NOSIG", "OPST 281000Z 36012KT 4000 HZ SCT040 SCT100 31/13 Q1011 TEMPO 36015G30KT 32%", "ORBI 281000Z 17011KT 140V200 CAVOK 38/06 Q1005", "ORER 281000Z 12004KT 9000 FEW040 SCT080 30/05 Q1010", "ORMM 281000Z 32010KT CAVOK 38/M01 Q1006 NOSIG", "ORNI 281000Z 14010KT 8000 SCT040 38/02 Q1005", "ORSU 281000Z 14007KT CAVOK 26/12 Q1013", "OSAP 281000Z 25007KT 9999 BKN026 23/06 Q1009", "OSDI 281000Z 22024KT 9999 SCT030 23/05 Q1010", "OSLK 281000Z 32004KT 8000 SCT026 CB BKN030 21/11 Q1009", "OTBD 281030Z 07009KT 040V100 CAVOK 36/07 Q1007 NOSIG", "OTBH 280955Z 33008G15KT 9999 CLR 36/01 A2973 Q1006 RMK AO2A SLP068 T03620010 RVRNO FZRANO CHINO RWY34 $", "OTHH 281000Z 08006KT CAVOK 36/10 Q1007 NOSIG", "PAAD 281015Z AUTO 24007KT 10SM BKN007 OVC015 M21/M23 A3008 RMK AO2 T12061226 PWINO", "PAAK 280956Z AUTO 23008KT 10SM SCT027 BKN033 BKN050 01/M03 A2966 RMK AO2 SNE05 SLP045 P0000 T00061028 400391006 FZRANO $", "PAAQ 280953Z AUTO 36003KT 10SM SCT110 04/M01 A2984 RMK AO2 SLP108 T00391006 TSNO", "PABA 280952Z AUTO 26010KT 8SM -SN OVC019 M18/M21 A3008 RMK AO2 SLP195 T11831206 FZRANO PNO $", "PABE 281026Z 14008KT 1 3/4SM -SN BR BKN010 OVC014 M01/M02 A2962 RMK AO2 SNB13 P0000 T10111017", "PABI 280953Z AUTO 22010KT 10SM CLR 02/M02 A2980 RMK AO2 SLP107 T00221022 TSNO", "PABL 280956Z AUTO 03004KT 10SM SCT055 M11/M13 A2976 RMK AO2 SLP078 T11111128 FZRANO", "PABR 281030Z AUTO 02007KT 10SM OVC015 M15/M18 A3010 RMK AO2 T11501178 TSNO", "PABT 280953Z 33003KT 10SM FEW120 M06/M12 A2982 RMK AO2 SLP114 T10611117 PNO", "PABV 280956Z AUTO 10004KT 10SM -RA BKN055 OVC070 04/01 A2987 RMK AO2 RAB47 SLP120 P0000 T00390011", "PACD 281028Z AUTO 18010KT 10SM SCT019 OVC100 01/M01 A2964 RMK AO2 SNE19 P0000 T00061011 TSNO $", "PACM 281010Z AUTO 00000KT OVC014 M04/M04 A2957 RMK AO2 PWINO FZRANO $", "PACV 281026Z 09006KT 10SM SCT012 BKN019 OVC031 04/02 A3004 RMK AO2 RAE22 P0001 T00390022", "PACZ 281018Z AUTO 22002KT 3SM -SN BKN017 BKN055 M04/M04 A2950 RMK AO2 SLP999", "PADK 280956Z AUTO 00000KT SCT047 OVC055 M01/M03 A2966 RMK AO2 SLP044 T10061033 PWINO FZRANO $", "PADL 281009Z AUTO 16005KT 3SM -SN BR OVC007 00/00 A2973 RMK AO2 CIG 005V011 P0000 FZRANO", "PADM 281031Z AUTO 10018KT 2 1/2SM -SN BR BKN013 BKN019 OVC024 01/M01 A2965 RMK AO2 VIS 1 3/4V4 P0000 FZRANO", "PADQ 280953Z AUTO 00000KT 10SM BKN110 02/M03 A2989 RMK AO2 SLP122 T00221028 TSNO", "PADU 280956Z AUTO 20006KT 10SM SCT034 BKN090 02/M03 A2963 RMK AO2 SLP038 T00221028 FZRANO", "PAED 280955Z 36005KT 10SM -RA FEW008 SCT035 BKN055 04/02 A2984 RMK AO2A RAB24 SLP102 P0000 T00360016", "PAEG 280953Z AUTO 00000KT 10SM CLR M04/M08 A2980 RMK AO2 SLP099 T10441083 TSNO", "PAEH 280955Z AUTO 04018KT 010V120 3SM -FZRA BR SCT003 BKN055 OVC090 M02/M02 A2961 RMK AO2 SNB0810E0942 SLP035 P0000 T10171011", "PAEI 280955Z AUTO 00000KT 10SM CLR M02/M06 A2976 RMK AO2 SLP086 T10211065 $", "PAEN 281030Z AUTO 22004KT 10SM UP SCT023 OVC028 02/00 A2987 RMK AO2 UPB03RAB16E26 P0000 T00170000 TSNO", "PAFA 280953Z 05004KT 10SM FEW050 SCT150 BKN200 M01/M06 A2978 RMK AO2 SLP092 T10111061", "PAFB 280955Z AUTO 09005KT 10SM M M01/M06 A2978", "PAFE 280956Z AUTO 10005KT 10SM -RA OVC015 05/04 A3027 RMK AO2 RAB52 SLP261 P0000 T00500039 $", "PAFM 280956Z AUTO 02013KT 10SM FEW047 OVC060 M05/M09 A2982 RMK AO2 SNB16E46 SLP104 P0000 T10501089 FZRANO", "PAFR 280955Z AUTO 00000KT 10SM BKN041 BKN055 OVC080 03/00 A2985 RMK AO2 SLP116 T00250001 $", "PAFS 281001Z AUTO 04003KT 10SM SCT055 BKN075 OVC090 01/M02 A2976 RMK AO2 SLP086 T00111017 FZRANO", "PAGK 280953Z AUTO 17012KT 10SM SCT095 SCT120 02/M02 A2986 RMK AO2 SLP128 T00221017 TSNO $", "PAGL 280956Z AUTO 29010KT 10SM FEW060 SCT095 M07/M09 A2965 RMK AO2 SLP037 T10721094 FZRANO", "PAGN 281031Z AUTO 07004KT 10SM SCT027 BKN037 OVC044 05/04 A3024 RMK AO2", "PAGS 280956Z AUTO 11006KT 10SM BKN041 OVC055 06/03 A3022 RMK AO2 SLP234 T00560033", "PAGY 280953Z AUTO 21012KT 10SM FEW055 BKN080 06/02 A3017 RMK AO2 PRESRR SLP215 T00610022 TSNO", "PAHC 280956Z AUTO 36003KT 10SM CLR M01/M01 A2965 RMK AO2 SLP045 T10061011 FZRANO", "PAHL 280956Z AUTO 13004KT 10SM FEW049 01/M05 A2974 RMK AO2 SLP077 T00111050 FZRANO", "PAHN 280954Z AUTO 06005KT OVC013 06/03 A3018 RMK AO2 SLP222 T00560033 TSNO $", "PAHO 281010Z AUTO 27007KT 10SM FEW018 SCT034 OVC055 02/M01 A2989 RMK AO2 UPE0959RAB0959E00 P0000 T00221006 TSNO", "PAHY 281020Z AUTO 00000KT 10SM -RA BKN024 BKN040 OVC049 04/04 A3022 RMK AO2 P0000 $", "PAIG 280956Z AUTO 10004KT 10SM CLR M02/M03 A2980 RMK AO2 SLP099 T10221028 FZRANO $", "PAIK 280956Z AUTO 00000KT 10SM OVC055 M03/M07 A2980 RMK AO2 SNE25 SLP094 P0000 T10281067 FZRANO", "PAIL 281018Z AUTO 09003KT 3SM -SN BR BKN002 OVC020 00/M01 A2982 RMK AO2 SNB12 P0000 T00001006 TSNO $", "PAIM 280955Z AUTO 00000KT 10SM FEW075 M02/M08 A2975 RMK AO2 SLP095 T10191081", "PAIN 280956Z AUTO 19003KT 10SM FEW095 01/M06 A2977 RMK AO2 SLP102 T00111061 FZRANO", "PAIW 281033Z AUTO 05017KT 3SM -SN BR FEW014 BKN036 OVC110 M12/M13 A2983 RMK AO2 P0000 FZRANO", "PAJC 280957Z AUTO 05003KT 10SM SCT049 SCT060 02/M01 A2976 RMK AO2 RAB26E41 SLP078 T00171011 FZRANO PNO $", "PAJN 281013Z 09008KT 10SM FEW016 SCT024 OVC047 05/03 A3023 RMK AO2 T00500033", "PAJZ 280956Z AUTO 13010KT 9SM SCT110 M03/M03 A2980 RMK AO2 SLP099 T10281033 FZRANO $", "PAKF 281022Z AUTO 19005KT 10SM SCT022 BKN028 BKN037 01/M01 A2965 RMK AO2 FZRANO", "PAKH 281027Z AUTO 2 1/2SM -SN BR BKN004 OVC011 01/M01 A2987 RMK AO2 VIS 1 1/2V5 RAB04E11 CIG 004V008 P0003 FZRANO TSNO $", "PAKI 280956Z AUTO 9SM -SN OVC009 M02/M03 A2957 RMK AO2 SNB03 CIG 007V011 SLP016 P0000 T10171028 FZRANO $", "PAKN 280954Z 12006KT 10SM FEW100 M01/M03 A2975 RMK AO2 SLP075 T10061028", "PAKP 280956Z AUTO 02003KT 10SM CLR M23/M26 A2979 RMK AO2 SLP163 T12281261 FZRANO", "PAKT 280953Z AUTO 00000KT 10SM OVC041 05/04 A3026 RMK AO2 SLP247 P0001 T00500039 TSNO", "PAKV 280953Z AUTO 00000KT 10SM BKN070 OVC100 01/M01 A2972 RMK AO2 SLP067 T00061011 TSNO $", "PAKW 280953Z AUTO VRB03KT 10SM -RA BKN036 OVC043 06/04 A3022 RMK AO2 SLP233 P0000 T00560044 TSNO", "PAKX 281035Z AUTO 00000KT 1 1/4SM -SN OVC003 00/00 A2981 RMK AO2 P0001", "PALG 280956Z AUTO 09005KT 10SM BKN045 OVC050 00/M01 A2964 RMK AO2 SLP039 T00001011 FZRANO", "PALH 280953Z AUTO 26003KT 10SM -RA SCT045 OVC050 04/01 A2985 RMK AO2 RAB52 SLP110 P0000 T00440011 TSNO", "PALU 281025Z AUTO 08018G21KT 10SM -SN OVC016 M11/M14 A3002 RMK AO2 SLP165", "PAMB 281033Z AUTO 16009KT 5SM UP BR SCT026 OVC037 00/00 A2973 RMK AO2 UPB32 P0000 FZRANO $", "PAMC 280953Z AUTO A2975 RMK AO2 SLPNO PWINO FZRANO TSNO $", "PAMH 280956Z AUTO 00000KT BKN075 BKN090 02/M08 A2975 RMK AO2 SLP076 T00171078 PWINO FZRANO $", "PAMK 281010Z AUTO 00000KT 9SM -SN FEW008 BKN042 OVC060 M02/M03 A2963 RMK AO2 P0000 FZRANO", "PAMM 280956Z AUTO 02011KT 10SM -RA OVC046 06/03 A3025 RMK AO2 RAB12 SLP339 P0000 T00610028 $", "PAMO 281024Z AUTO 11010KT 1/2SM -SN FZFG OVC003 M01/M02 A2958 RMK AO2 P0000 FZRANO", "PAMR 280953Z 02003KT 10SM SCT046 OVC060 04/01 A2985 RMK AO2 RAB26E42 SLP111 P0000 T00440006", "PAMY 280956Z AUTO 24006KT 10SM UP BKN004 M04/M04 A2900 RMK AO2 UPB39SNE39 PRESFR SLP821 P0000 T10441044 FZRANO", "PANA 280956Z AUTO 15007KT 10SM -SN OVC010 M01/M02 A2962 RMK AO2 UPB21E25B41E55SNE21B55 CIG 007V012 SLP028 P0000 T10111017 FZRANO TSNO $", "PANC 280953Z 22009G19KT 10SM -RA SCT035 OVC044 04/01 A2984 RMK AO2 RAE12B47 SLP107 P0000 T00390011 $", "PANV 281009Z AUTO 15007KT 10SM SCT005 BKN038 00/M01 A2963 RMK AO2 UPE08 P0000 FZRANO TSNO", "PANW 280956Z AUTO 15006KT 10SM FEW040 OVC060 M02/M02 A2977 RMK AO2 SLP088 T10171017 FZRANO", "PAOH 280956Z AUTO 00000KT 10SM BKN038 OVC050 03/03 A3022 RMK AO2 RAE32 SLP233 P0000 T00280028", "PAOM 280953Z AUTO 34010KT 10SM OVC060 M03/M07 A2962 RMK AO2 SLP031 T10331067 TSNO", "PAOO 280956Z AUTO BKN006 OVC012 M02/M03 A2955 RMK AO2 CIG 004V011 SLP013 T10221028 PWINO FZRANO TSNO $", "PAOR 280953Z 00000KT 10SM SCT140 M04/M08 A2982 RMK AO2 SLP124 AURBO T10441078 PNO", "PAOT 280953Z AUTO 04007KT 10SM CLR M09/M12 A2976 RMK AO2 SLP078 T10891117 TSNO", "PAOU 280956Z AUTO 14007KT 10SM SCT095 01/M01 A2970 RMK AO2 UPB02E17 SLP056 T00061011 FZRANO PNO $", "PAPB 281000Z AUTO 02013KT 4SM -SN OVC038 03/M04 A2954 RMK AO2 P0000 T00281039 TSNO $", "PAPG 280956Z AUTO 25003KT 10SM OVC020 04/04 A3027 RMK AO2 RAE22 SLP255 P0000 T00390039", "PAPH 280956Z AUTO 22004KT 10SM BKN036 02/M01 A2974 RMK AO2 SLP071 T00171006 FZRANO", "PAPM 281034Z AUTO 19010KT 6SM -SN BR OVC007 M01/M01 A2965 RMK AO2 CIG 004V010 P0000 FZRANO", "PAPN 280956Z AUTO 16011KT 9SM BKN075 OVC090 02/M01 A2974 RMK AO2 SLP074 T00221011 FZRANO", "PAPO 280956Z AUTO 03020KT 10SM CLR M13/M16 A2992 RMK AO2 PK WND 03026/0904 SNE42 SLP132 P0000 T11331161 FZRANO", "PAQT 280953Z AUTO 09003KT 10SM SCT120 M19/M21 A3010 RMK AO2 SLP195 T11891211 TSNO PNO", "PARC 281035Z AUTO 03003KT 10SM FEW006 M12/M13 A2977 RMK AO2 FZRANO", "PARY 280956Z AUTO 16003KT 10SM FEW110 01/M04 A2973 RMK AO2 SLP078 T00061039 FZRANO", "PASC 280953Z 21003KT 5SM BR OVC055 M18/M21 A3007 RMK AO2 SLP186 T11831211", "PASD 280956Z AUTO 19008KT 10SM SCT100 02/M02 A2974 RMK AO2 SLP072 T00221022 FZRANO PNO $", "PASI 280953Z 12005KT 9SM BKN049 OVC150 06/03 A3020 RMK AO2 SLP225 T00560033", "PASK 281035Z AUTO 05004KT 10SM BKN025 BKN036 OVC048 M08/M10 A2978 RMK AO2 SNB08E25 P0000 FZRANO", "PASL 281012Z AUTO 15004KT 10SM BKN021 OVC090 01/M02 A2978 RMK AO2 FZRANO", "PASM 281021Z AUTO 11010KT 7SM -SN OVC003 M01/M01 A2959 RMK AO2 P0000 FZRANO", "PASN 281032Z AUTO 02008KT 10SM SCT017 BKN024 OVC032 M03/M05 A2956 RMK AO2 T10281050 TSNO", "PASO 281007Z AUTO 18004KT 4SM -RA BR FEW013 BKN021 OVC039 02/01 A2989 RMK AO2 P0001 T00220011 TSNO", "PASV 281007Z AUTO 20006KT 10SM -SN BKN006 OVC047 M02/M02 A2971 RMK AO2 SLP084", "PASX 280956Z AUTO 09004KT 10SM CLR 01/M01 A2988 RMK AO2 SLP125 T00061011 FZRANO", "PASY 280957Z 10013KT 7SM BKN025 01/M02 A2965 RMK AO2A PK WND 10026/32 SHSNB22E50 SLP044 WND DATA ESTMD T00071019 PNO FZRANO $", "PATA 280952Z AUTO 00000KT 10SM CLR M02/M07 A2978 RMK AO2 SLP088 T10221072 TSNO", "PATC 281016Z AUTO 03028KT 1/2SM -SN FG FEW031 SCT034 BKN060 BKN085 M12/M14 A2973 RMK AO2 PK WND 03033/1001 SLP077", "PATE 280956Z AUTO 05016KT 9SM -SN FEW017 OVC040 M09/M11 A2972 RMK AO2 SLP073 P0000 T10891106 FZRANO", "PATG 280956Z AUTO 13014KT 10SM UP SCT009 BKN024 OVC028 01/00 A2969 RMK AO2 RAE28UPB28SNB02E14 SLP054 P0000 T00060000 FZRANO", "PATK 281015Z AUTO 00000KT 10SM -RA OVC014 02/01 A2987 RMK AO2 P0001 T00220006 TSNO", "PATL 280955Z AUTO 00000KT 10SM SCT110 BKN170 01/M04 A2976 RMK AO2 SLP088 T00081044 TSNO $", "PATO 280953Z AUTO 09009G19KT 060V130 10SM FEW032 04/01 A2988 RMK AO2 RAE26 SLP121 P0000 T00440006 TSNO", "PATQ 280956Z AUTO 06008KT 9SM -SN OVC021 M16/M18 A3006 RMK AO2 SNB22 SLP184 P0000 T11611178 FZRANO TSNO", "PAUN 281029Z AUTO 08011KT 10SM BKN025 BKN030 OVC038 02/M01 A2965 RMK AO2 FZRANO", "PAVC 280956Z AUTO 00000KT 6SM -RA BR FEW017 BKN023 OVC034 02/M01 A2970 RMK AO2 RAB05E18B36 SLP058 P0000 T00171006 FZRANO", "PAVD 281031Z AUTO 30004KT -RA BKN013 BKN019 OVC035 03/02 A3006 RMK AO2 P0001 TSNO $", "PAVL 280953Z AUTO 04010KT 10SM OVC070 M12/M16 A2982 RMK AO2 SLP098 T11171161 TSNO $", "PAWD 280953Z AUTO 17007KT 10SM -RA FEW015 BKN031 OVC042 03/01 A2991 RMK AO2 SLP128 P0003 T00330011 TSNO", "PAWI 281033Z AUTO 06010KT 10SM UP OVC016 M13/M17 A3006 RMK AO2 UPB01 T11331167 TSNO $", "PAWM 280956Z AUTO 36012KT 9SM OVC060 M06/M09 A2963 RMK AO2 SLP040 T10611094 FZRANO", "PAWN 280956Z AUTO 01009KT 10SM FEW055 BKN070 M07/M12 RMK AO2 SLPNO T10721122 FZRANO $", "PAWS 281022Z AUTO 21003KT 10SM -RA OVC028 04/01 A2987 RMK AO2 P0001", "PAYA 281012Z AUTO 09005KT 10SM BKN014 BKN024 OVC060 04/03 A3016 RMK AO2 T00440033 TSNO", "PAZK 280956Z AUTO 31004KT 10SM CLR M04/M09 A2975 RMK AO2 SLP128 T10441089 FZRANO", "PFCL 280956Z AUTO 16019KT 10SM FEW013 BKN036 OVC055 01/01 A2971 RMK AO2 SNE45 SLP055 P0000 T00110006 FZRANO TSNO", "PFEL 280956Z AUTO 34007KT 10SM BKN017 BKN043 OVC090 M02/M08 A2964 RMK AO2 SLP041 T10221078 FZRANO", "PFKT 281007Z AUTO 04020KT 4SM -SN FEW026 BKN042 OVC048 A2974 RMK AO2 P0000 FZRANO $", "PFKW 281014Z AUTO 13006KT 9SM -SN SCT017 OVC037 M01/M02 A2963 RMK AO2 SNB07 P0000 FZRANO", "PFNO 280956Z AUTO 07015KT 10SM FEW110 M04/M07 A2977 RMK AO2 SLP164 T10391072 FZRANO $", "PFSH 281019Z AUTO 01013KT 10SM BKN028 OVC042 M06/M07 A2966 RMK AO2 FZRANO", "PFWS 280956Z AUTO 13010KT 10SM FEW100 M02/M03 A2978 RMK AO2 SLP127 T10221028 FZRANO", "PFYU 280956Z AUTO 00000KT 10SM FEW055 M06/M08 A2983 RMK AO2 SLP114 T10561078 FZRANO", "PGSN 280954Z 08013KT 10SM FEW018 FEW055 27/25 A2988 RMK AO2 RAB34E43 SLP141 P0000 T02720250", "PGUA 281030Z AUTO 08016KT 10SM FEW014 SCT019 SCT031 BKN039 26/23 A2988 RMK AO2 RAB18E30 SLP109 $", "PGUM 281031Z 08011G20KT 10SM FEW016 SCT023 SCT037 27/24 A2988 RMK AO2 RAE05B15E23 P0001 T02720244 ", "PGWT 280951Z 08013KT 7SM SCT015 27/24", "PHBK 280951Z AUTO 07005KT 10SM CLR 20/16 A2999 RMK AO2 SLP156 T02000156 402890189", "PHHI 280955Z AUTO 33004KT 10SM OVC015 20/18 A3001 RMK AO2 SLP155 T01980181 402290190 $", "PHJR 280953Z AUTO 03004KT 10SM SCT049 OVC060 22/19 A3000 RMK AO2 SLP164 T02170194 402440211 TSNO PNO $", "PHKO 280953Z AUTO 13008KT 10SM CLR 24/20 A2999 RMK AO2 SLP156 T02390200 402890211 TSNO", "PHLI 281031Z AUTO 03010KT 10SM FEW014 SCT020 OVC046 22/19 A3001 RMK AO2 T02220194 TSNO $", "PHMK 280954Z AUTO 02004KT 10SM BKN032 21/20 A2999 RMK AO2 SLP159 T02110200 402610200 TSNO", "PHNG 280957Z 06007KT 1 1/2SM FEW007 BKN020 OVC032 23/22 A2997 RMK AO2 RAE46 SLP143 P0001 T02280222 402440228 $", "PHNL 281009Z 01003KT 10SM BKN028 OVC036 23/21 A2998 RMK AO2 T02330206 $", "PHNY 280956Z AUTO 10006KT 10SM SCT008 19/19 A3004 RMK AO2 SLP152 T01940194 402500194", "PHOG 280954Z AUTO 13005KT 10SM BKN055 22/20 A2998 RMK AO2 SLP157 T02170200 402830211 TSNO", "PHSF 281026Z AUTO 00000KT 6SM BR M 13/12 A3031 RMK AO2 RAE26 SLP147 $", "PHTO 280953Z AUTO 19005KT 10SM CLR 21/18 A3000 RMK AO2 SLP156 T02110183 402890200 TSNO", "PKMR 280953Z 08005KT 15SM FEW015 SCT300 28/24 A2977 RMK SLP085 T02820242", "PKWA 281020Z AUTO 09009KT 10SM SCT070 OVC085 26/24 A2981 RMK AO2 T02630236 TSNO", "PLCH 281000Z 11003KT 9999 FEW020 26/24 Q1010", "PMDY 280956Z AUTO 10SM CLR 18/14 A3020 RMK AO2 SLP229 T01830144 TSNO $", "PPIZ 280956Z AUTO 03012KT 10SM CLR M22/M24 A3005 RMK AO2 SLP180 T12171239 FZRANO", "PTKK 280951Z VRB03KT 15SM FEW014 BKN120 OVC280 27/25 A2979 RMK SLP091 T02660252", "PTPN 280951Z 15004KT 15SM BKN017TCU OVC120 25/24 A2978 RMK TCU ALQDS LAST", "PTRO 280950Z 00000KT 13SM SCT015 BKN110 BKN290 27/26 A2974 ", "PTTP 280950Z 15003KT 15SM BKN018TCU OVC130 23/23 A2984 RMK SHRAE45 TCU ALQDS SLP103 T02320229", "PTYA 280956Z 09008KT 12SM FEW016 BKN300 28/26 A2977 RMK SLP083 T02790261", "PWAK 281000Z AUTO 06013KT 10SM SCT020 25/21 A2995 RMK AO2 SLP148", "RCFN 281030Z 07004KT 020V170 9999 FEW015 SCT030 BKN060 26/24 Q1013 NOSIG RMK A2994", "RCKH 281030Z 31008KT 280V340 9999 FEW016 SCT200 27/20 Q1011 NOSIG RMK A2986", "RCMQ 281030Z 35006KT 9999 FEW010 SCT100 24/20 Q1012 NOSIG RMK A2991", "RCNN 281030Z 35010KT 9999 FEW012 SCT100 25/18 Q1012 RMK A2989", "RCSS 281030Z 08005KT 9999 FEW020 BKN038 BKN050 25/22 Q1012 NOSIG RMK A2991", "RCTP 281030Z 04005KT 7000 FEW007 SCT035 23/22 Q1013 NOSIG RMK A2992", "RJAA 281000Z 18006KT CAVOK 18/13 Q1019 NOSIG", "RJAH 281000Z 24007KT 220V280 9999 FEW030 BKN/// 18/09 Q1019", "RJBB 281000Z 21007KT 9999 FEW020 18/12 Q1019 NOSIG", "RJBD 281000Z 15008KT 9999 FEW035 SCT/// 17/10 Q1020", "RJBE 281000Z 22012KT 9999 FEW025 17/13 Q1019", "RJCB 281000Z 11012KT 9999 FEW040 BKN060 09/02 Q1018", "RJCC 281000Z 14008KT 9999 FEW025 BKN070 11/07 Q1018", "RJCH 281000Z VRB02KT 9999 FEW030 SCT/// 11/09 Q1018", "RJCK 281000Z 11003KT 070V160 9999 FEW040 BKN090 08/03 Q1018", "RJCM 281000Z VRB02KT 9999 FEW030 BKN040 BKN130 07/M03 Q1018", "RJCO 281000Z 13003KT 9999 FEW030 BKN060 12/08 Q1018", "RJDB 281000Z AUTO 24007KT 200V280 9999 NSC 20/15 Q1016", "RJDC 281000Z 06014KT 9999 FEW040 SCT060 17/14 Q1017", "RJDT 281000Z VRB04KT 9999 FEW030 BKN070 BKN080 19/14 Q1016", "RJEC 281000Z 22005KT 9999 -SHRA FEW020 BKN050 BKN080 12/07 Q1017", "RJFE 281000Z 16009KT 9999 FEW015 SCT030 BKN040 19/16 Q1016", "RJFF 281000Z 01004KT 320V070 9999 FEW030 SCT060 BKN140 21/12 Q1016 NOSIG", "RJFK 281000Z 12006KT 9999 FEW030 SCT100 18/13 Q1018", "RJFM 281000Z 11010KT 9999 FEW015 BKN050 19/15 Q1019", "RJFO 281000Z 15015KT 9999 FEW045 BKN060 17/14 Q1018", "RJFR 281000Z 05009KT 9999 FEW030 SCT090 BKN180 17/14 Q1017", "RJFS 281000Z 26005KT 9999 FEW035 SCT050 BKN070 21/15 Q1016", "RJFT 281000Z 23003KT 170V280 9999 FEW040 SCT060 BKN080 20/12 Q1017", "RJFU 281000Z 26002KT 9999 FEW050 BKN060 BKN140 21/14 Q1016", "RJGG 281000Z 13010KT 9999 FEW030 17/13 Q1020 NOSIG", "RJKA 281000Z 13008KT 9999 FEW013 SCT020 BKN030 22/20 Q1016", "RJKI 281000Z AUTO 13004KT 110V170 9999 FEW014 BKN160 OVC180 22/19 Q1016", "RJNK 281000Z 02002KT 9999 FEW250 18/06 Q1018", "RJNS 281000Z 24007KT 9999 FEW030 BKN/// 16/10 Q1021", "RJNT 281000Z 07003KT 020V100 CAVOK 20/07 Q1018", "RJNW 281000Z 07003KT CAVOK 13/08 Q1018", "RJOA 281000Z 26003KT CAVOK 16/09 Q1019", "RJOB 281000Z VRB02KT 9999 FEW025 15/12 Q1018", "RJOC 281000Z 24005KT CAVOK 19/10 Q1017", "RJOF 280926Z 11009KT 080V140 9999 FEW030 BKN060 18/11 Q1018 RMK 1CU030 5SC060 A3007", "RJOH 281000Z 10005KT 9999 FEW/// 17/11 Q1017", "RJOI 280956Z 23008KT 9999 FEW030 FEW060 20/10 A3008 RMK AO2 SLP185 T02000100", "RJOK 281000Z 14005KT 9999 FEW030 SCT/// 17/13 Q1020", "RJOM 281000Z 01005KT 9999 FEW035 19/11 Q1018", "RJOO 281000Z 24007KT 190V300 9999 FEW030 18/12 Q1019", "RJOR 281000Z 25002KT CAVOK 16/12 Q1017", "RJOS 281000Z 16019KT 9999 FEW030 18/13 Q1018", "RJOT 281000Z VRB02KT CAVOK 17/12 Q1018", "RJOW 281000Z VRB01KT CAVOK 17/13 Q1017", "RJOY 281000Z 31004KT CAVOK 19/12 Q1019", "RJSA 281000Z 20006KT CAVOK 14/M01 Q1017", "RJSC 281000Z 01009KT 9999 FEW050 SCT/// 17/05 Q1018", "RJSF 281000Z 16007KT CAVOK 18/09 Q1019", "RJSI 281000Z 03002KT CAVOK 15/03 Q1018", "RJSK 281000Z 08003KT CAVOK 15/01 Q1018", "RJSM 281000Z 11006KT 9999 FEW030 SCT180 10/03 Q1018", "RJSN 281000Z 34004KT CAVOK 16/10 Q1018", "RJSR 281000Z 14003KT 090V160 CAVOK 14/M00 Q1018", "RJSS 281000Z 03004KT CAVOK 16/14 Q1018", "RJSY 281000Z 21002KT CAVOK 14/05 Q1018", "RJTT 281000Z 19018KT CAVOK 19/13 Q1019 NOSIG", "RJTY 280955Z AUTO 15005KT 10SM CLR 18/10 A3011 RMK AO2 SLP199 T01770101", "RKJB 281000Z 14007KT 9999 BKN045 19/12 Q1014 NOSIG", "RKJK 280955Z AUTO 00000KT 6SM HZ OVC047 20/08 A2991 RMK AO2 SLP133 T01950082 $", "RKNY 281000Z 28017G29KT CAVOK 21/03 Q1011 WS ALL RWY NOSIG", "RKPC 281000Z 24003KT 200V360 9999 BKN035 OVC100 20/13 Q1014 NOSIG", "RKPK 281000Z 20008KT 9999 SCT030 BKN140 BKN200 18/12 Q1016", "RKSG 280951Z 22002KT 10SM FEW014 BKN040 19/09 A2994 RMK AO2A SLP136 WND DATA ESTMD T01920093 $", "RKSI 281030Z 18004KT 120V220 9999 BKN030 17/09 Q1013 NOSIG", "RKSM 281000Z 27003KT 9999 BKN040 19/08 A2994", "RKSO 280955Z 25003KT 10SM OVC040 19/11 A2992 RMK AO2A SLP136 T01870105 $", "RKSS 281000Z 32002KT 9999 BKN035 17/08 Q1014 NOSIG", "RKTN 281000Z 24008KT CAVOK 21/10 Q1014", "RKTP 280932Z 22010KT 9999 -RA OVC028 17/12 A2994 RMK CIG028", "RKTU 281000Z 25007KT CAVOK 20/12 Q1013", "ROAH 281000Z 13009KT 9999 FEW025 BKN/// 24/19 Q1015", "RODN 281025Z AUTO 10009KT 10SM BKN019 23/19 A2996 RMK AO2 BKN V SCT SLP151 FZRANO $", "ROIG 281000Z 12007KT 9999 FEW010 BKN070 25/23 Q1013", "ROMD 281000Z AUTO VRB05KT 9999 FEW007 OVC021 23/22 Q1016", "ROMY 281000Z 12010KT 9999 FEW013 SCT/// 24/22 Q1014", "RORK 281000Z AUTO 09013KT 9999 FEW007 BKN023 23/22 Q1016", "RORS 281000Z 13010KT 9999 FEW020 SCT/// 25/22 Q1013", "RORT 281000Z AUTO 12007KT 070V180 9999 FEW011 OVC070 25/22 Q1013", "RORY 281000Z AUTO 13009KT 9999 FEW011 SCT180 23/21 Q1015", "ROYN 281000Z AUTO 13007KT 110V170 9999 FEW010 SCT070 BKN090 25/23 Q1013", "RPLB 281000Z 34006KT 270V050 9999 FEW020 31/23 Q1009 NOSIG RMK A2980", "RPLC 281000Z 16012KT 8000 SCT020 BKN300 33/23 Q1009 NOSIG RMK A2980", "RPLI 281000Z 22005KT 180V250 9999 FEW017CB SCT100 31/23 Q1009 NOSIG RMK A2980 CB SE", "RPLL 281000Z 13008KT 090V190 9999 FEW025 32/23/23 Q1009 NOSIG RMK A2980", "RPMD 281000Z 30004KT 9999 -SHRA SCT020 BKN080 BKN250 30/25 Q1007 RMK A2974", "RPMZ 281000Z 28008KT 9999 FEW016CB SCT300 29/25 Q1007 RMK A2974 CB NW-N", "RPVM 281000Z 03008KT 9999 FEW018CB SCT300 31/23 Q1009 NOSIG RMK A2980 CB N", "RPVP 281000Z 09004KT 9000 SCT016 SCT240 30/23 Q1009 RMK A2980", "SAAR 281000Z 04004KT 5000 MIFG BR NSC 13/13 Q1013 RMK PP000", "SABE 281000Z 31006KT CAVOK 17/15 Q1014 NOSIG RMK PP000", "SACO 281000Z 01010KT CAVOK 15/13 Q1010 NOSIG RMK PP000", "SADF 281000Z 36008KT CAVOK 15/14 Q1014 RMK PP000", "SAEZ 281000Z 36007KT 9000 NSC 18/15 Q1014 NOSIG RMK PP000", "SAME 281000Z 00000KT CAVOK 13/10 Q1007", "SANT 281000Z 35008KT CAVOK 16/14 Q1011 RMK PP000", "SAOC 281000Z 36006KT CAVOK 12/10 Q1009", "SARC 281000Z 10001KT 0700 FG NSC 14/13 Q1015", "SARE 281000Z 07002KT 2000 BR NSC 11/10 Q1015 RMK PP///", "SARF 281000Z 00000KT 9999 MIFG NSC 15/14 Q1015", "SARI 281000Z 15003KT 9000 NSC 14/13 Q1016 RMK PP000", "SARL 281000Z 00000KT 1500 BR NSC 15/15 Q1016", "SARP 281000Z 14003KT CAVOK 17/15 Q1016", "SASA 281000Z VRB01KT 9999 FEW015 BKN025 14/13 Q1017 RMK PP000", "SASJ 281000Z 31003KT 9999 FEW028 BKN042 16/14 Q1016 RMK PP000", "SAVC 281000Z 29010KT 9999 -RA NSC 15/09 Q0995 RMK PP999", "SAWE 281000Z 20006KT CAVOK M01/M02 Q0993 RMK PP000", "SAWG 281000Z 09008KT 9999 FEW025 OVC090 07/03 Q0990", "SAWH 281000Z 30005KT CAVOK 01/M03 Q0992 RMK PP000", "SAZM 281000Z 34012KT 0050 R13/0275 FG OVC002 13/13 Q1012 RMK PP///", "SAZN 281000Z 00000KT CAVOK 09/07 Q1001", "SAZS 281000Z 29013KT 9000 -RA SCT040 SCT048 OVC060 10/08 Q1001 RMK PP///", "SBAF 281000Z 28002KT 5000 -DZ BR BKN010 OVC025 21/21 Q1016", "SBAN 281000Z 00000KT 9999 SCT035 SCT100 18/18 Q1020", "SBAR 281000Z 35003KT 9999 VCSH SCT012 SCT029 24/24 Q1014", "SBAX 281000Z 23005KT 9999 SCT045 19/17 Q1019", "SBBE 281030Z 09005KT 9999 FEW002 SCT004 25/24 Q1014", "SBBG 281000Z AUTO 03007KT CAVOK ///// Q////", "SBBH 281000Z 26003KT 9999 FEW010 SCT050 BKN100 20/17 Q1018", "SBBI 281000Z 02002KT 9999 SCT010 SCT014 14/13 Q1028", "SBBR 281000Z 22003KT CAVOK 18/16 Q1020", "SBBU 281000Z 16006KT 3500 BR OVC003 19/18 Q1017", "SBBV 281000Z 11006KT CAVOK 24/23 Q1012", "SBCB 281000Z 24013KT 7000 SCT004 BKN007 OVC030 22/20 Q1015 RERA", "SBCF 281000Z 09003KT 4000 BCFG FEW005 SCT040 BKN090 19/18 Q1018", "SBCG 281000Z 08004KT 9999 FEW020 17/16 Q1016", "SBCH 281000Z 09004KT 5000 1000E BR BCFG OVC004 13/13 Q1018", "SBCJ 281015Z 00000KT CAVOK 21/20 Q1017", "SBCO 281000Z 00000KT 0600 R13/2000 R31/P2000 FG FEW002 12/12 Q1017", "SBCP 281000Z 00000KT 9999 SCT020 BKN090 23/21 Q1014", "SBCT 281000Z 05002KT 8000 SCT009 13/13 Q1019", "SBCY 281000Z 00000KT 9999 FEW005 23/23 Q1014", "SBDN 281000Z 10004KT 0300 FG NSC 17/17 Q1015", "SBEG 281000Z 07002KT 9999 FEW012 24/23 Q1012", "SBES 281000Z VRB02KT 5000 -RA BR FEW005 SCT013 BKN040 20/20 Q1015", "SBFI 281000Z 12007KT 9000 NSC 14/14 Q1016", "SBFL 281000Z 28005KT CAVOK 18/18 Q1017", "SBFN 281000Z AUTO 15006KT CAVOK 28/25 Q1014", "SBFS 281000Z 21005KT 9999 BKN025 BKN080 23/20 Q1014", "SBFZ 281000Z 00000KT CAVOK 25/23 Q1013", "SBGL 281000Z 28004KT 8000 BKN012 OVC040 22/20 Q1015", "SBGO 281000Z VRB01KT 9000 FEW030 20/19 Q1018", "SBGR 281000Z 25002KT 8000 -RA SCT011 OVC015 16/16 Q1019", "SBGW 281000Z 27004KT 220V310 2500 -RA BR BKN004 BKN013 19/18 Q1017", "SBHT 281000Z 00000KT 9999 BKN015 BKN080 24/24 Q1012", "SBIL 281000Z 28007KT 9999 FEW020 23/23 Q1014", "SBIP 281009Z AUTO 01003KT 350V050 7000 OVC002 20/16 Q1016", "SBIZ 281000Z 09003KT 9999 FEW010 25/22 Q1013", "SBJP 281000Z 19005KT 9999 SCT020 26/25 Q1014", "SBJR 281000Z 20002KT 3000 -RA BR BKN006 SCT010 OVC030 22/22 Q1015", "SBJU 281000Z 00000KT 9999 4000SE BCFG SCT004 SCT018 23/23 Q1018", "SBJV 281000Z 29001KT 8000 FEW002 BKN030 19/18 Q1017", "SBKG 281000Z 00000KT CAVOK 23/22 Q1017", "SBKP 281000Z 12009KT 090V150 9999 FEW007 OVC030 18/16 Q1017", "SBLB 281000Z AUTO 23003KT 9999 NCD 26/22 Q1014 W///S3", "SBLE 281000Z AUTO 30002KT 9999 BKN028 22/21 Q1017", "SBLO 281000Z 18002KT 9999 BKN014 17/17 Q1017", "SBLS 281000Z 07002KT 5000 -RA BR FEW003 BKN040 BKN100 19/18 Q1019", "SBMA 281000Z 15001KT 9999 SCT010 24/24 Q1013", "SBME 281000Z 28002KT 3000 -RA BR BKN020 OVC050 23/23 Q1015", "SBMG 281000Z 00000KT 9999 3000SW BCFG NSC 15/14 Q1015", "SBMK 281000Z 00000KT CAVOK 20/16 Q1017", "SBMN 281000Z 07002KT 9999 FEW015 24/24 Q1012", "SBMO 281000Z 32002KT 9999 FEW018 25/25 Q1015", "SBMQ 281000Z 04003KT 9999 FEW023 25/25 Q1012", "SBMT 281000Z 09003KT 8000 SCT010 BKN013 BKN023 17/17 Q1018", "SBNF 281000Z 25005KT 9000 FEW020 SCT025 18/18 Q1016", "SBNT 281000Z 20007KT 9999 FEW020 FEW025TCU SCT100 26/24 Q1013", "SBOI 281000Z 00000KT 1500 BR SCT015 BKN020 22/22 Q1013", "SBPA 281000Z VRB02KT CAVOK 15/14 Q1017", "SBPB 281015Z 18004KT 9999 FEW016 ///// Q1013", "SBPF 281000Z 06003KT CAVOK 11/11 Q1018", "SBPJ 281000Z 10004KT CAVOK 23/22 Q1014", "SBPK 281015Z 16002KT 0800 FG FEW020 15/15 Q1017", "SBPL 281000Z 17007KT 9999 SCT025 BKN070 25/22 Q1016", "SBPS 281000Z 30003KT CAVOK 23/22 Q1014", "SBPV 281034Z 35001KT 4000 BR NSC 24/23 Q1012", "SBRB 281000Z 29002KT 6000 NSC 23/23 Q1012", "SBRF 281000Z 21005KT 9999 -RA BKN020 26/24 Q1014", "SBRJ 281020Z 16008KT 4500 -RA BR BKN007 OVC017 21/20 Q1015", "SBRP 281000Z 00000KT 0300 FG OVC001 18/18 Q1016", "SBSC 281000Z 20004KT 170V240 9999 SCT015 BKN030 22/20 Q1015", "SBSG 281000Z 24004KT 210V290 9999 FEW016 BKN100 25/24 Q1014", "SBSJ 281000Z 09002KT 4000 BR SCT004 BKN010 18/17 Q1018", "SBSL 281000Z 11003KT 9999 FEW017 27/25 Q1013", "SBSM 281000Z 11002KT 0600 R29/1000 R11/1200 FG NSC 11/11 Q1017", "SBSN 281000Z 09002KT 8000 -RA SCT010 BKN100 25/24 Q1012", "SBSP 281000Z 15005KT 120V180 9999 SCT011 OVC033 17/16 Q1019", "SBSR 281000Z 03002KT 9999 SCT045 19/19 Q1016", "SBSV 281000Z 29002KT 9999 FEW020 26/25 Q1014", "SBTA 281000Z 24003KT 2500 -RA BR BKN007 OVC025 18/17 Q1017", "SBTE 281000Z 00000KT 9999 FEW015 SCT080 25/24 Q1013", "SBTU 281000Z AUTO VRB02KT 9999 // OVC009/// 23/23 Q1014", "SBUL 281000Z 00000KT 5000 2000N -RA BR NSC 19/18 Q1020", "SBUR 281000Z 04005KT CAVOK 20/19 Q1018", "SBVT 281000Z 29003KT 9999 SCT030 24/23 Q1014", "SBYS 281000Z VRB02KT 0600 R02/P2000 R20/P2000 FG OVC002 19/19 Q1017", "SCAR 281000Z 12005KT CAVOK 16/12 Q1013", "SCAT 281000Z AUTO 20005KT 9999 OVC013/// 13/11 Q1014", "SCBA 281000Z AUTO 14003KT 020V190 9999 FEW087/// BKN140/// 05/04 Q0991", "SCCF 281000Z 10019KT CAVOK 04/M09 Q1025", "SCCH 281000Z AUTO 03013KT 9999 ///////// 14/11 Q1010", "SCCI 281000Z 05009KT 9999 -RA SCT012 OVC042 05/03 Q0990 NOSIG", "SCCY 281000Z AUTO VRB02KT 9000 -RA FEW001 SCT006 06/06 Q0991", "SCDA 281000Z 08004KT CAVOK 16/13 Q1013", "SCEL 281000Z 19003KT 170V250 4000 BR OVC008 11/09 Q1013 NOSIG", "SCFA 281000Z 13003KT 100V170 CAVOK 14/13 Q1014 NOSIG", "SCFT 281000Z AUTO VRB03KT 9999 -RA BKN004/// OVC064/// 10/10 Q0996", "SCHR 281000Z AUTO 30006KT 9000 RA BKN013 OVC044 05/04 Q0988", "SCIC 281000Z AUTO VRB02KT //// R/////// // OVC024 13/10 Q1013", "SCIE 281000Z 02020KT 9999 OVC022 15/13 Q1008", "SCIP 281000Z 13008KT 9999 SCT033 SCT060 20/12 Q1021 NOSIG", "SCJO 281033Z AUTO 03013KT 9999 -RA BKN008/// OVC017/// 14/13 Q0997 RERA", "SCMK 281000Z AUTO 35010KT //// // SCT002/// OVC019/// 12/12 Q0992", "SCON 281000Z AUTO 02015G28KT 350V060 9999 -RA BKN014/// BKN023/// OVC054/// 14/12 Q0991 RERA", "SCPD 281000Z AUTO 35004KT 320V050 //// ///////// 10/07 Q1013", "SCPQ 281000Z AUTO 02015KT 2400 +RA BKN005 OVC024 12/12 Q0993", "SCQP 281000Z 01017KT 9999 RA BKN026 OVC049 15/13 Q1003", "SCRM 281000Z 14019KT 8000 BKN020 M02/M05 Q0983 NOSIG", "SCSE 281000Z AUTO VRB02KT 9999 OVC012/// 13/11 Q1014", "SCSN 281000Z AUTO 04005KT //// R/////// // OVC033 14/12 Q1013", "SCTE 281023Z 01014KT 9000 +RA SCT008 BKN054 OVC120 14/14 Q0996 NOSIG", "SCTN 281000Z AUTO 35022G32KT 320V020 8000 SCT019 14/13 Q0995", "SCVD 281000Z AUTO 02006KT 340V060 9999 RA FEW016 BKN025 OVC035 14/14 Q1000", "SCVM 281000Z 03003KT 6000 OVC012 14/11 Q1014", "SEGU 281000Z 06003KT 9999 FEW005 SCT023 BKN090 25/24 Q1008 NOSIG RMK A2978", "SEMT 281000Z 15003KT 9999 SCT030 BKN100 25/24 Q1008 RMK A2980", "SEQM 281000Z 14002KT 9999 BKN040 12/11 Q1026 NOSIG RMK A3031", "SGAS 281000Z 00000KT CAVOK 14/14 Q1015", "SGEN 281000Z 23003KT CAVOK 16/14 Q1016", "SGES 281000Z 12003KT 9000 NSC 14/13 Q1015", "SKBO 281000Z VRB02KT 9999 -DZ FEW015 BKN080 11/10 Q1026 NOSIG RMK A3032", "SKBQ 281000Z 14006KT 7000 VCFG FEW012 26/24 Q1009 NOSIG RMK A2981", "SKCC 281000Z 02005KT 9999 FEW017 SCT070 24/24 Q1012 RMK A2989", "SKCG 281000Z 04004KT 020V080 9999 BKN018 27/24 Q1008 RMK A2978", "SKCL 281000Z 33010KT 6000 DZ SCT012 BKN070 21/20 Q1016 BECMG FM1200 VRB02KT", "SKLT 281000Z 00000KT 9999 BKN007 SCT080 24/24 Q1011 RMK A2987", "SKPE 281018Z 21003KT 8000 1500SW PRFG SCT003 BKN016 18/17 Q1018 RMK A3008", "SKRG 281000Z 19007KT 9999 SCT010 BKN080 13/13 Q1025 REDZ NOSIG RMK A3027", "SKSP 281000Z 10006KT 050V140 9999 FEW017 27/22 Q1010 RMK A2985", "SLAL 281000Z 00000KT 9999 NSC 08/04 Q1030", "SLCA 281000Z 00000KT 9999 SCT020 BKN070 19/18 Q1017", "SLCB 281000Z 00000KT 9999 NSC 09/05 Q1026", "SLCO 281000Z 00000KT 9999 NSC 23/23 Q1012", "SLCP 281000Z 00000KT 9999 SCT013 21/21 Q1017", "SLET 281000Z VRB02KT 9999 FEW010 BKN023 21/20 Q1014", "SLJV 281000Z 00000KT 9999 NSC 20/20 Q1013", "SLLP 281000Z 09005KT 4000E VCFG FEW002 M03/M03 Q1039", "SLRI 281000Z 00000KT 3000 BR FEW008 SCT200 24/24 Q1013", "SLSA 281000Z 00000KT 9999 FEW017 BKN200 24/24 Q1011", "SLTJ 281000Z 00000KT 9999 NSC 08/05 Q1020", "SLTR 281000Z 00000KT 9999 FEW020 24/24 Q1012", "SLUY 281000Z 32003KT 9999 NSC M05/M11 Q1035", "SLVM 281000Z 00000KT 9999 FEW025 SCT070 18/17 Q1014", "SLVR 281000Z 19003KT 9999 BKN025 20/20 Q1013", "SMJP 281000Z 06001KT 8000 SCT007 24/23 Q1012 NOSIG", "SMZO 281000Z 00000KT 7000 BKN004 24/23 Q1012 NOSIG", "SOCA 281030Z AUTO 00000KT 2400 BR VV/// 23/23 Q1013 NOSIG", "SPHI 281000Z 36004KT CAVOK 24/21 Q1010 RMK BIRD HAZARD RWY 19/01 PP000", "SPHO 281000Z 15004KT 9999 FEW020 BKN080 12/04 Q1029 RMK PP000", "SPJC 281000Z 15011KT 9999 OVC024 23/20 Q1011 NOSIG RMK PP000", "SPJR 281030Z 00000KT 9999 SCT025 10/09 Q1027", "SPQT 281000Z VRB01KT 9999 FEW004 SCT080 24/23 Q1012 NOSIG RMK PP000", "SPRU 281000Z 13004KT 6000 BCFG BKN100 24/20 Q1010 RMK PP000", "SPSO 281000Z 18003KT 8000 NSC 20/18 Q1011 RMK PP000", "SPUR 281000Z 36003KT CAVOK 23/21 Q1011 RMK PP000", "SPZO 281030Z 00000KT 9999 SCT040 BKN070 07/03 Q1034 NOSIG RMK BIRD HAZARD RWY 10/28", "SUAA 281000Z 36005KT 5000 BR NSC 13/13 Q1015", "SUCA 281000Z 01007KT CAVOK 15/13 Q1014", "SULS 281000Z 03004KT 0100 FG VV/// 13/12 Q1015", "SUMU 281000Z 00000KT 3000 0600NW R19/1400N R25/P2000N BCFG BR NSC 12/12 Q1015 NOSIG", "SUSO 281000Z 10002KT 8000 BCFG BR NSC 12/12 Q1016", "SVBC 281003Z AUTO 12003KT NCD 26/24 Q1012", "SVBI 281003Z AUTO /////KT NCD 26/26 Q1014", "SVBM 281003Z AUTO 10005KT NCD 22/20 Q1013", "SVBS 281003Z AUTO 08001KT NCD 25/20 Q1013", "SVCB 281003Z AUTO 09003KT NCD 25/23 Q1011", "SVCS 281003Z AUTO 12001KT NCD 22/19 Q1015", "SVFM 281003Z AUTO NIL", "SVGD 281003Z AUTO 24001KT NCD 25/25 Q1011", "SVGU 281003Z AUTO 09004KT NCD 35/// Q1011", "SVJM 281003Z AUTO 33007KT NCD 24/23 Q1011", "SVLO 281003Z AUTO NIL", "SVMC 281003Z AUTO 01005KT NCD 27/24 Q1009", "SVMG 281003Z AUTO 09011KT NCD 26/24 Q1011", "SVMI 281003Z AUTO 08005KT NCD 26/22 Q1011", "SVMT 281003Z AUTO 01001KT NCD 24/24 Q1012", "SVPA 281003Z AUTO NIL", "SVPR 281003Z AUTO 09003KT NCD 23/21 Q1013", "SVSA 281003Z AUTO NIL", "SVSR 281003Z AUTO NIL", "SVVA 281003Z AUTO 25006KT NCD 26/24 Q1012", "SVVL 281003Z AUTO ///01KT NCD ///// Q////", "SYCJ 281000Z 19004KT 9999 FEW014TCU 23/23 Q1012 NOSIG RMK TCU-NW", "TAPA 281000Z 08003KT 030V120 9999 VCSH FEW011 BKN034 22/22 Q1014 NOSIG", "TBPB 281000Z 13005KT 9999 -SHRA BKN016 26/24 Q1012 NOSIG", "TFFF 281030Z AUTO 13004KT CAVOK 24/23 Q1013 NOSIG", "TFFR 281030Z AUTO VRB02KT 9999 SCT015/// SCT025/// BKN034/// ///TCU 25/24 Q1013 TEMPO 3000 SHRA BECMG SCT013 BKN030 BKN080", "TGPY 281000Z 10011KT 9999 SCT019 27/25 Q1012 NOSIG", "TIST 280953Z 00000KT 10SM CLR 26/23 A2992 RMK AO2 SLP133 T02560233", "TISX 280953Z AUTO 36004KT 10SM CLR 24/22 A2994 RMK AO2 SLP136 T02390222", "TJNR 280953Z AUTO 00000KT 10SM CLR 24/23 A2994 RMK AO2 SLP139 T02440228", "TJPS 281015Z AUTO 00000KT 10SM CLR 22/21 A2992 RMK AO2 TSNO", "TJSJ 280956Z 00000KT 10SM SCT025 SCT033 24/22 A2994 RMK AO2 RAB29E56 SLP137 P0000 T02440222", "TKPK 281000Z 35003KT 9999 SCT016 SCT038 25/23 Q1014", "TLPL 281000Z 14007KT 9999 FEW024 27/23 Q1013 NOSIG", "TNCA 281000Z 09009KT 9999 FEW018 26/24 Q1010 NOSIG", "TNCB 280955Z AUTO 10010KT 070V150 9999 NSC 27/24 Q1010", "TNCC 281000Z 11006KT 9999 SCT017 26/24 Q1011 NOSIG", "TNCE 280955Z AUTO VRB01KT //// // ///////// 23/23 Q1013 RE//", "TNCM 281000Z 08006KT 060V130 9999 FEW016 BKN035 26/24 Q1014 NOSIG ", "TRPG 281000Z 16004KT 9999 FEW009 BKN016 24/23 Q1015", "TTCP 281000Z 10009KT 9999 FEW015 26/23 Q1012 NOSIG", "TTPP 281000Z 14003KT 9999 FEW016 24/24 Q1013 NOSIG", "TVSA 281000Z 00000KT 9999 SCT018 26/24 Q1013 NOSIG ", "TXKF 280955Z 02007KT 9999 SCT035 BKN300 18/11 Q1018 ", "UAAA 281030Z 06002MPS 360V110 9999 FEW100 28/03 Q1011 NOSIG", "UAAH 281030Z 11004MPS 060V160 CAVOK 27/M03 Q1013 NOSIG RMK QFE723/0964", "UAAT 281030Z 02007MPS 9999 FEW200 27/00 Q1011 NOSIG RMK QFE707/0943", "UACC 281030Z 26006MPS 230V290 CAVOK 26/M03 Q1013 NOSIG RMK QFE729/0972", "UACK 281030Z 27010MPS CAVOK 23/M01 Q1012 NOSIG RMK QFE735/0980", "UACP 281030Z 29006MPS 9999 BKN040CB 23/02 Q1010 NOSIG RMK QFE745/0993", "UADD 281030Z 33003MPS 300V010 9999 SCT050CB OVC100 26/06 Q1012 NOSIG RMK QFE701/0935", "UAII 281030Z 32003MPS 290V030 9999 SCT050CB 30/05 Q1011 NOSIG RMK QFE723/0964", "UAIT 281030Z 31003MPS 280V350 CAVOK 31/01 Q1010 NOSIG RMK QFE731/0974", "UAKD 281030Z 14005MPS 110V170 CAVOK 26/M06 Q1013 NOSIG RMK QFE726/0968", "UAKK 281030Z 27002MPS 180V320 CAVOK 26/M04 Q1015 NOSIG RMK QFE714/0952", "UAOO 281030Z VRB01MPS CAVOK 32/M05 Q1009 NOSIG RMK QFE745/0993", "UARR 281030Z 02003MPS 340V060 CAVOK 25/04 Q1014 NOSIG RMK QFE757/1010", "UASK 281030Z VRB01MPS 9999 NSC 26/00 Q1016 NOSIG RMK QFE736/0982", "UASP 281030Z 24007MPS 220V280 CAVOK 28/M00 Q1012 NOSIG RMK QFE747/0997", "UASS 281030Z 21003MPS 150V290 CAVOK 27/M03 Q1015 NOSIG RMK QFE740/0987", "UATE 281030Z 20007MPS CAVOK 23/11 Q1010 NOSIG RMK QFE756/1008", "UATG 281030Z 08003MPS 040V140 CAVOK 27/06 Q1012 NOSIG RMK QFE761/1014", "UATT 281030Z VRB01MPS CAVOK 27/08 Q1011 NOSIG RMK QFE738/0984", "UAUU 281030Z 14002MPS 080V190 CAVOK 25/M03 Q1011 NOSIG RMK QFE743/0990", "UBBB 281030Z 17016KT CAVOK 22/16 Q1009 NOSIG", "UBBF 281030Z 05008KT 9999 FEW050CB SCT100 26/13 Q1009 NOSIG RMK MT OP", "UBBG 281030Z 10004KT 9999 FEW040CB BKN100 26/10 Q1009 NOSIG", "UBBL 281000Z 12009KT 9999 FEW050 22/16 Q1010 NOSIG RMK MT OP", "UBBN 281030Z 01006KT 9999 SCT046 BKN100 27/04 Q1009 NOSIG RMK MT OP QFE683", "UBBQ 281000Z 26006KT 9999 NSC 28/12 Q1009 NOSIG RMK MT OP", "UBBY 281000Z 33004KT 9999 FEW100 26/12 Q1012 NOSIG RMK MT OP", "UBBZ 281030Z 04016KT 010V080 9999 FEW100 28/10 Q1009 NOSIG RMK MT OP", "UBEE 281009Z 35004KT 9999 FEW030CB SCT080 27/14 Q1008 NOSIG", "UCFL 281000Z 15003MPS 110V210 9999 SCT030 16/01 Q1019", "UCFM 281030Z 27005MPS CAVOK 27/08 Q1011 NOSIG", "UCFO 281030Z 16008MPS 9999 SCT050CB 24/03 Q1013 TEMPO 18008G13MPS", "UDSG 281030Z 19015KT 9999 SCT049CB 18/02 Q1014 NOSIG", "UDYZ 281030Z VRB01KT 9999 FEW040 23/04 Q1011 NOSIG", "UEEE 281030Z 01002MPS CAVOK 06/M02 Q1019 R05/09//60 NOSIG RMK QFE756", "UERP 281000Z 15003G08MPS 9999 -SHSN BKN027CB OVC100 01/M03 Q1011 R17/090060 NOSIG RMK QFE714", "UERR 281030Z 22002MPS CAVOK 07/M04 Q1012 R25/CLRD60 NOSIG RMK QFE728/0971", "UGAM 281030Z 12008G19KT 070V160 9999 BKN050 25/07 Q1008", "UGKO 281030Z 27011KT 240V310 9999 SCT035 BKN063 21/14 Q1009 NOSIG", "UGMS 281030Z AUTO 36007KT 290V050 //// ////// 13/06 Q1015", "UGSB 281030Z 24011KT 9999 FEW008 BKN034 15/13 Q1011 NOSIG", "UGTB 281030Z 16005KT 110V200 9999 SCT050CB 25/12 Q1010 NOSIG", "UHBB 281000Z 07004MPS 9999 SCT033 09/M07 Q1013 R36/090060 NOSIG RMK QFE742/0990", "UHHH 281030Z 03004MPS CAVOK 06/M04 Q1016 R88/090060 NOSIG RMK QFE755/1007", "UHMA 281030Z 34003MPS 9999 -SN BKN042 BKN051 M08/M11 Q1018 R01/////// NOSIG RMK MID 35003MPS END R01/34003MPS QFE760/1013", "UHMM 281000Z 06003MPS 9999 NSC 05/M05 Q1018 RMK QFE749 R28/09003MPS", "UHPP 281000Z 28004MPS 250V320 9999 SCT048CB BKN130 02/M06 Q1010 R34L/CLRD65 NOSIG RMK QFE754/1006", "UHSS 281030Z 18002MPS 9999 NSC 03/M04 Q1019 R19/70D NOSIG RMK QFE763/1017", "UHWW 281030Z 17004MPS 9999 NSC 11/06 Q1010 R25L/0///70 NOSIG RMK QFE757", "UIAA 281030Z 24004MPS 9999 SCT043CB 07/M05 Q1011 R29/CLRD70 NOSIG RMK QFE700/0934", "UIBB 281030Z 14003MPS 060V170 9999 -SHRASN BKN003 OVC014CB 02/02 Q1010 R30/290150 NOSIG RMK QBB110 MT OBSC QFE714/0953", "UIII 281030Z 11002MPS 080V140 CAVOK 09/M03 Q1011 R12/CLRD60 NOSIG RMK QFE716/0955", "UIUU 281030Z 26004MPS 9999 BKN050CB 09/M04 Q1013 R26/CLRD60 NOSIG RMK QFE716/0954", "ULAA 281030Z 11005MPS 090V150 CAVOK 09/M07 Q1022 R08/CLRD70 NOSIG RMK QFE765/1020", "ULLI 281030Z 34007MPS 9999 SCT025 09/M02 Q1014 R88/090060 NOSIG", "ULMM 281030Z 11006MPS CAVOK 03/M04 Q1022 R13/090070 NOSIG RMK QFE760", "ULOO 281030Z 26004MPS 220V330 9999 SCT030CB BKN046 09/M04 Q1015 R01/090060 NOSIG RMK QFE757", "ULPB 281030Z VRB01MPS 9999 -SHRA BKN029CB 06/05 Q1012 R19/19//55 NOSIG RMK QFE755/1007", "ULWC 281030Z 07004G09MPS 9999 FEW026 14/08 Q1011 R21/010060 NOSIG RMK QFE748/0998", "UMBB 281000Z 29003MPS 9000 SCT050 SCT100 10/M02 Q1021 NOSIG", "UMGG 281030Z 33007G11MPS CAVOK 12/M05 Q1017 NOSIG", "UMII 281000Z 29006G10MPS 9999 BKN046 10/M04 Q1016 NOSIG", "UMIO 281030Z 31006G09MPS CAVOK 10/M02 Q1017 NOSIG RMK QFE745/0994", "UMKK 281030Z 30006MPS 9999 SCT041 10/01 Q1019 R24/CLRD95 NOSIG RMK QFE763/1018", "UMMG 281030Z 28005G08MPS 9999 SCT050 BKN066 10/M03 Q1020 NOSIG", "UMMS 281030Z 32007MPS 290V360 CAVOK 09/M03 Q1019 NOSIG", "UMOO 281000Z 32005G09MPS 9999 BKN032 12/M01 Q1019 NOSIG", "UNAA 281030Z 26011MPS CAVOK 23/00 Q1010 R20/CLRD64 NOSIG RMK QFE735", "UNBB 281030Z 25012MPS 9999 SCT040 25/M05 Q1011 R24/CLRD66 NOSIG RMK QFE736", "UNEE 281030Z 24008MPS CAVOK 22/02 Q1007 R23/CLRD60 NOSIG RMK QFE732", "UNKL 281030Z 20004MPS CAVOK 14/08 Q1007 R29/290055 NOSIG RMK QFE730", "UNNT 281030Z 25011MPS CAVOK 26/02 Q1007 R25/090070 R16/090070 NOSIG RMK QFE745/0993", "UNOO 281030Z 30009G14MPS 9999 BKN033 25/M02 Q1008 R25/CLRD60 NOSIG RMK QFE748", "UNTT 281030Z 25008MPS CAVOK 22/00 Q1004 R21/090060 NOSIG RMK QFE738", "UNWW 281030Z 22010MPS CAVOK 23/02 Q1011 R19/09//55 NOSIG RMK QFE731", "UOOO 281030Z 03006MPS 9999 FEW029 M07/M08 Q1007 R01/11//60 NOSIG RMK QFE741/0988", "URKA 281030Z 20007MPS 9999 SCT/// BKN017CB 16/11 Q1008 R22/010070 TEMPO VRB12G17MPS 2000 TSRA BKN004 BKN020CB RMK QFE751/1002", "URKK 281030Z 19003MPS 150V240 9999 FEW/// 20/14 Q1008 R05R/290060 TEMPO 3000 -TSRA SCT007 BKN016CB RMK QFE753", "URMG 281030Z 30003MPS 9999 SCT015 17/13 Q1009 R26/090070 NOSIG RMK QFE742/0990", "URML 281030Z 06003MPS 030V090 7000 OVC007 14/12 Q1009 R14/01//70 NOSIG RMK MT OBSC QFE757/1009", "URMM 281030Z 13003MPS 9999 SCT/// 19/13 Q1009 R12/090070 NOSIG RMK QFE729/0972", "URMN 281030Z 02001MPS 9999 SCT/// 19/13 Q1009 R24/010070 NOSIG RMK QFE720", "URMO 281030Z 26004MPS 220V300 9999 SCT/// 23/12 Q1009 R27/010070 NOSIG RMK QFE712/0950", "URMT 281030Z 08004MPS 050V120 9999 SCT043 20/13 Q1009 R07/010070 NOSIG RMK QFE717", "URRP 281030Z 11006MPS 9999 SCT030CB 21/14 Q1009 R05/CLRD70 NOSIG RMK QFE752/1003", "URSS 281030Z 26005MPS 9999 FEW040CB 17/13 Q1010 WS ALL RWY R02/010070 R06/010070 TEMPO -TSRA BKN006 BKN030CB RMK R06/29005G08MPS MT OBSC QFE756", "URWA 281030Z 13010MPS CAVOK 25/11 Q1010 R09/010070 TEMPO 11010G16MPS RMK QFE759/1013", "URWI 281030Z 13006MPS 9999 SCT/// 23/11 Q1010 R09/010065 NOSIG", "URWW 281030Z 12005MPS 090V150 CAVOK 23/08 Q1013 R05/010070 NOSIG", "USCC 281030Z 01009MPS 9999 FEW050CB 18/08 Q1013 R27/000060 TEMPO 33017MPS RMK QFE740", "USCM 281030Z 23003MPS 9999 BKN040 24/M01 Q1012 R36/090060 NOSIG RMK QFE721", "USDA 281030Z 03014MPS 4100 BLSN BKN010 M04/M05 Q1018 R04/550243 NOSIG RMK QFE762/1016", "USHH 281030Z 30006G12MPS 9999 SCT040CB 03/M07 Q1015 R24/010060 NOSIG", "USNN 281030Z 29008G18MPS 9999 BKN031CB 01/M05 Q1003 R21/0///65 NOSIG RMK QFE747", "USPP 281030Z 03004MPS 9999 OVC020 08/03 Q1018 R03/090060 NOSIG RMK QFE753", "USRR 281030Z 30013G19MPS 4900 -SHSN SCT018CB SCT040 M01/M03 Q1007 R25/CLRD60 NOSIG RMK QFE750", "USSS 281030Z 04003MPS 360V060 9999 BKN023CB 09/04 Q1017 R26R/010060 NOSIG RMK QFE742/0990", "USTR 281030Z 36005MPS 310V070 CAVOK 11/M04 Q1016 R03/090065 R30/////99 TEMPO 36016MPS", "UTAA 281000Z 10004KT 9999 FEW050CB SCT050 BKN100 32/09 Q1008 R88/70D NOSIG", "UTAK 281000Z 19012KT CAVOK 30/07 Q1010 R16R/CLRD70 NOSIG", "UTAM 281000Z 12010KT CAVOK 35/01 Q1008 R88/CLRD70 NOSIG", "UTAT 281000Z 06006KT 020V090 CAVOK 31/M04 Q1010 R08/CLRD70 NOSIG", "UTAV 281000Z 34004KT CAVOK 32/M08 Q1010 R31/CLRD70 NOSIG", "UTDD 281030Z 01003MPS 310V100 9999 FEW066CB 27/M01 Q1013 R09/CLRD// NOSIG RMK QFE692/0922", "UTDK 281030Z VRB02MPS 9999 NSC 29/M05 Q1012 R01/09//70 RMK QFE702/0936", "UTDL 281030Z 13002MPS 9999 FEW060CB 31/00 Q1010 R08/CLRD70 NOSIG RMK QFE719/0959", "UTDT 281030Z 32003MPS 270V350 9999 SCT066 31/M01 Q1010 R35/CLRD70 RMK QFE718/0958", "UTFF 281030Z VRB02KT 9999 NSC 29/M01 Q1011 R18/CLRD70", "UTFN 281030Z 15006KT 110V200 9999 FEW050CB 29/01 Q1009 R28/CLRD70 NOSIG", "UTNN 281030Z 34006KT CAVOK 31/M09 Q1010 R33/CLRD60 NOSIG", "UTNU 281030Z 04004KT CAVOK 30/M06 Q1010 R31/CLRD70 NOSIG", "UTO8 M M M 147/-03/-05/0501/M/M SOG 29 1031 77MM", "UTSA 281030Z 28010KT 240V310 9999 NSC 31/M07 Q1010 R25/CLRD70 NOSIG", "UTSB 281030Z 36004KT CAVOK 31/M08 Q1010 R01/CLRD70 NOSIG", "UTSK 281030Z 21010KT 160V230 CAVOK 32/M04 Q1010 R16/CLRD70", "UTSS 281030Z 30010KT 270V350 9999 NSC 28/M01 Q1011 R27/CLRD70 NOSIG", "UTST 281030Z 02004KT CAVOK 32/M02 Q1009 R25/CLRD70 NOSIG", "UTTT 281030Z 10020KT 9999 SCT066CB 28/03 Q1012 R08R/CLRD70 NOSIG", "UUBC 281030Z 30005MPS 9999 -RA OVC005 10/09 Q1013 R31/290150 NOSIG RMK QBB170 QFE742/0990", "UUBP 281030Z AUTO 31006MPS 9999 -RA ///012 07/06 Q1015 R34/////// NOSIG RMK QFE743/0991", "UUBW 281030Z 16004MPS 9999 BKN025CB 16/12 Q1012 R30/290050 TEMPO -TSRA", "UUDD 281030Z 19004MPS 9999 BKN021CB 15/11 Q1012 R88/290042 NOSIG", "UUDL 281030Z 16005MPS 120V190 CAVOK 20/07 Q1011 R23/010060 NOSIG RMK QFE750", "UUEE 281030Z 23005MPS 9000 -SHRA BKN015CB 13/11 Q1011 R24L/290251 R24C/290251 NOSIG", "UUMO 281030Z 25004MPS 190V290 9999 BKN020CB 14/10 Q1012 R25/290050 NOSIG RMK QFE743/0991", "UUOB 281030Z 29002MPS CAVOK 18/11 Q1011 R11/010070 NOSIG", "UUOK 281030Z 33004MPS 310V020 9999 BKN025 16/12 Q1011 R30/290050 NOSIG RMK QFE740/0987", "UUOL 281030Z AUTO 17007MPS 9999 NCD 20/09 Q1012", "UUOO 281030Z 18003MPS 140V210 CAVOK 22/11 Q1011 R12/010070 NOSIG RMK QFE744", "UUWW 281030Z 23004MPS 9999 BKN032 13/10 Q1012 R19/290050 NOSIG", "UUYY 281030Z 03004MPS CAVOK 08/M07 Q1023 R36/CLRD61 NOSIG RMK QFE758/1011", "UWGG 281030Z 25004MPS 9999 BKN040CB 18/08 Q1015 R18L/090070 TEMPO -TSRA", "UWKD 281030Z 35002MPS 310V030 CAVOK 21/04 Q1016 R29/CLRD70 NOSIG RMK QFE751/1001", "UWKE 281030Z 33007MPS 9999 BKN046 21/06 Q1016 R21/090070 NOSIG RMK QFE745/0993", "UWKS 281030Z 26002MPS 200V350 9999 SCT033CB 22/06 Q1016 R24/010060 NOSIG RMK QFE747", "UWLL 281030Z 10005MPS 070V140 CAVOK 22/05 Q1016 R20/090065 NOSIG RMK QFE751/1002", "UWLW 281000Z 07002MPS 320V120 CAVOK 22/08 Q1016 R02/CLRD60 NOSIG RMK QFE755/1007", "UWOO 281030Z 02006MPS 330V040 9999 SCT040 25/01 Q1013 R08/CLRD60 NOSIG RMK QFE749/0999", "UWOR 281000Z 31002MPS CAVOK 25/05 Q1011 R25/CLRD65 NOSIG RMK QFE735/0980", "UWPS 281030Z 19002G07MPS 100V260 9999 BKN036 23/03 Q1015 R20/CLRD60 NOSIG RMK QFE744", "UWSG 281030Z 11003MPS 060V140 CAVOK 23/08 Q1015 R08/CLRD70 NOSIG RMK QFE759/1012", "UWUU 281030Z 29006MPS 230V320 9999 SCT040 23/04 Q1014 R32L/0///60 NOSIG", "UWWW 281030Z VRB01MPS 9999 SCT033 24/05 Q1016 R15/CLRD60 NOSIG RMK QFE750/1000", "VAAH 281030Z 26006KT 6000 FEW020 SCT025 36/14 Q1005 NOSIG", "VABB 281030Z 30008G18KT 6000 FEW025 31/21 Q1007 NOSIG", "VABO 281030Z 21006KT 6000 FEW020 38/18 Q1005 NOSIG", "VABP 281000Z 18010KT 5000 HZ SCT030 FEW030CB BKN100 23/19 Q1009 NOSIG", "VADU 281000Z 24012KT 6000 FEW025 32/25 Q1007 NOSIG", "VAID 281030Z 23015G25KT 5000 TSHZ FEW018 FEW030CB BKN100 33/16 Q1010 TEMPO 4000 TS HZ", "VAJB 281030Z 35015G25KT 5000 -TS SCT025 FEW030CB SCT100 34/15 Q1009 TEMPO3000-TSRA", "VAJJ 281000Z 27012KT 5000 FU NSC 31/22 Q1007 NOSIG", "VAJL 281000Z 14015KT 5000 TSDZ SCT020 FEW030CB BKN080 24/20 Q1008 NOSIG", "VAKP 281030Z 24011KT 8000 FEW020 33/15 Q1010", "VANP 281030Z 23007KT 5000 HZ FEW020 SCT100 34/19 Q1009 NOSIG", "VARK 281000Z 22007KT 6000 SCT020 FEW025TCU 36/21 Q1006 NOSIG", "VASD 281028Z 10012KT 4000 HZ SCT025 FEW030CB BKN070 27/19 Q1010 TEMPO 3000 -SHRA", "VASU 281030Z 21010KT 6000 FEW030 35/23 Q1006 NOSIG", "VAUD 281030Z 01004KT 4000 TS SCT030 FEW035CB BKN080 29/16 Q1010 TEMPO3000TSRA", "VCBI 281010Z 28004KT 9000 -TSRA FEW014 BKN016 FEW018CB 29/26 Q1006 NOSIG RMK CB N/NE/E/SE/S", "VCRI 281010Z 30004KT 270V330 9999 TS FEW016 BKN018 FEW020CB 30/27 Q1007 NOSIG RMK N/NE", "VDPP 281030Z VRB02KT 9999 SCT015 FEW017CB SCT040 35/23 Q1004 RMK CB:SE", "VDSR 281030Z 05015KT 9999 -TSRA SCT015 FEW017CB SCT040 29/23 Q1006 RMK CB:NE/NW", "VDSV 281030Z 24006KT 9999 SCT015 SCT040 31/26 Q1006", "VEAT 281030Z 23006KT 6000 SCT020 SCT100 34/22 Q1007 NOSIG", "VEBI 280930Z 33010KT 3000 HZ SCT018 SCT020 FEW025CB 25/18 Q1012 BECMG 2500 HZ", "VEBN 280930Z 28008KT 4000 HZ FEW025 SCT100 38/15 Q1006 NOSIG", "VEBS 281030Z 20005KT 5000 HZ SCT018 SCT100 34/24 Q1008 NOSIG", "VEBU 281000Z 18008KT 6000 NSC 35/15 Q1008 NOSIG", "VECC 281030Z 31005KT 3800 HZ SCT018 BKN100 35/24 Q1006 NOSIG", "VECO 281000Z 18003KT 2500 HZ FEW025 32/23 Q1006 NOSIG", "VEDG 281030Z 25004KT 5000 HZ SCT020 BKN100 36/17 Q1006 NOSIG", "VEDO 281030Z 34006KT 5000 HZ SCT020 BKN100 34/15 Q1007 NOSIG", "VEGT 281030Z 27002KT 5000 HZ SCT018 BKN100 35/27 Q1006 NOSIG", "VEGY 281030Z 30010KT 6000 SCT020 BKN100 37/16 Q1005 NOSIG", "VEIM 281030Z 26010KT 5000 HZ SCT018 FEW030CB BKN100 30/14 Q1011 NOSIG", "VEJH 281030Z 26004KT 5000 HZ SCT018 BKN100 34/17 Q1007", "VEJR 281030Z 00000KT 6000 FEW030 31/19 Q1010", "VEJS 281000Z 35003KT 5000 HZ SCT020 FEW030CB SCT100 35/19 Q1007", "VEKI 281000Z 27006KT 5000 HZ FEW025 SCT100 36/09 Q1005 NOSIG", "VELP 281000Z 22003KT 4000 HZ FEW020 SCT100 33/18 Q1010 NOSIG", "VELR 281000Z 04008KT 4000 HZ SCT018 BKN090 26/18 Q1009", "VEMN 281030Z 11008KT 4000 HZ FEW020 FEW025CB BKN100 27/19 Q1009 NOSIG", "VEPT 281030Z 33005KT 5000 HZ FEW020 SCT100 38/15 Q1005 NOSIG", "VERC 281030Z 20004KT 5000 HZ FEW020 FEW030CB BKN100 32/17 Q1010 TEMPO 3000 -TSRA", "VERK 281030Z 27003KT 6000 SCT020 35/13 Q1006", "VERP 281030Z 25006KT 6000 SCT100 33/19 Q1008 NOSIG", "VERU 281030Z 21008KT 5000 HZ SCT020 BKN100 29/20 Q1006 NOSIG", "VGHS 281030Z 27009KT 4000 HZ FEW015 SCT100 35/21 Q1007 NOSIG", "VHHH 281030Z 10006KT 070V130 9999 FEW015 26/21 Q1011 NOSIG", "VIDN 281030Z 24007KT 5000 HZ SCT030 BKN070 31/09 Q1010", "VIJP 280930Z 04008KT 3000 HZ SCT030 FEW035CB SCT100 33/13 Q1010 TEMPO 0800 DS/TSRA", "VILK 280930Z 32005KT 4000 HZ SCT020 FEW030CB BKN100 31/18 Q1009 NOSIG", "VIPT 281030Z 21004KT 5000 HZ FEW030 BKN100 31/13 Q1008", "VLLB 281000Z 27006KT 9999 SCT020 FEW060 38/19 Q1004 NOSIG", "VLLN 281000Z 27004KT 9000 SCT020 35/23 Q1006 NOSIG", "VLPS 281000Z 14002KT 8000 FEW030 38/21 Q1006 NOSIG", "VLSK 281000Z 27004KT 9999 SCT020 OVC100 33/23 Q1008 NOSIG", "VLVT 281000Z 18004KT 8000 FEW020 38/24 Q1003 NOSIG", "VMMC 281030Z 13006KT 9999 FEW010 SCT015 24/22 Q1011 NOSIG", "VNKT 281030Z 30009KT 8000 FEW015 SCT030 26/09 Q1014 NOSIG", "VOBL 281030Z 12008KT 9999 SCT015 SCT020 33/15 Q1012 NOSIG", "VOCI 281030Z 27013KT 5000 TS SCT015 FEW025CB BKN080 34/25 Q1005 NOSIG", "VOCL 281030Z 26009KT 6000 FEW015 SCT018 FEW025CB 33/23 Q1006 NOSIG", "VOCP 281030Z 11009KT 6000 FEW020 FEW030CB 37/16 Q1005 NOSIG", "VOGA 281030Z 27011KT 7000 SCT080 32/19 Q1008 NOSIG", "VOHB 281030Z 24010KT 9999 SCT012 34/19 Q1009", "VOJV 281030Z VRB03KT 6000 FEW015 FEW025TCU SCT080 31/23 Q1009", "VOKN 281030Z 28009KT 6000 SCT012 FEW025CB 34/25 Q1006 NOSIG", "VOMM 281030Z 13014KT 6000 FEW020 FEW025CB 33/26 Q1006 NOSIG", "VRMG 281000Z 27007KT 9000 FEW017 FEW018CB OVC100 28/26 Q1008 CB SE TEMPO 5000 SHRA", "VRMH 281000Z 31005KT 9999 TS FEW017 FEW018CB BKN110 30/26 Q1007 RETS CB N,ENE", "VRMM 281000Z 20007KT 9999 SCT017 FEW018CB BKN250 32/26 Q1007 CB S,NW TEMPO 5000 TSRA", "VTBD 281030Z 15008KT 120V180 9999 FEW020 34/24 Q1005 NOSIG", "VTBO 281000Z 21006KT 7000 FEW018CB SCT020 32/26 Q1007", "VTBS 281030Z 19007KT 9999 FEW020 33/23 Q1005 NOSIG", "VTBU 281030Z 17010KT 8000 FEW020 32/26 Q1007 NOSIG", "VTCC 281030Z 13005KT 110V180 9000 FEW035 38/17 Q1004 NOSIG", "VTCH 281000Z 19003KT 120V290 9999 BKN025 40/14 Q1004 NOSIG", "VTCL 281000Z 28004KT 230V360 9999 FEW025 40/16 Q1004 NOSIG", "VTCN 281000Z VRB04KT CAVOK 39/20 Q1003 NOSIG", "VTCP 281000Z 20007KT 160V230 9999 FEW045 39/20 Q1004 NOSIG", "VTCT 281000Z 14004KT 100V170 9999 FEW045 36/21 Q1005 NOSIG", "VTPB 281000Z 00000KT 9999 SCT030 37/20 Q1005 NOSIG", "VTPH 281000Z 15011KT 9999 FEW030 32/26 Q1006 NOSIG", "VTPM 281000Z 24009KT 200V270 9999 FEW035 36/19 Q1006 NOSIG", "VTPO 281000Z 15004KT 9000 FEW030 SCT100 37/22 Q1004 NOSIG", "VTPP 281000Z 21004KT 160V250 CAVOK 37/21 Q1004 NOSIG", "VTPT 281000Z /////KT 8000 TS VCSH FEW020CB SCT026 35/24 Q1004 TEMPO 3000 TSRA", "VTSB 281000Z 05009KT 020V080 9999 FEW018CB 33/25 Q1006 NOSIG", "VTSC 281000Z 05007KT 010V080 9999 FEW022 31/26 Q1006 NOSIG", "VTSE 281000Z VRB02KT 9000 FEW020 31/25 Q1006 NOSIG", "VTSF 281000Z 06007KT 030V090 9999 FEW018 34/25 Q1006 NOSIG", "VTSG 281000Z 20011KT 160V220 9999 FEW018CB 32/25 Q1006 NOSIG", "VTSM 281000Z 10005KT 9999 FEW020 32/25 Q1007 NOSIG", "VTSP 281030Z 28009KT 9999 FEW020 31/24 Q1005 NOSIG", "VTSR 281000Z 26003KT 220V360 9999 VCSH BKN025 30/24 Q1006 NOSIG", "VTSS 281030Z 06008KT 9999 FEW020 32/25 Q1006 NOSIG", "VTST 281000Z 21005KT 9999 VCSH SCT030 30/24 Q1005 NOSIG", "VTSY 281000Z VRB02KT 9999 FEW030 29/25 Q1006 NOSIG", "VTUD 281000Z 23005KT 200V260 CAVOK 39/16 Q1004 NOSIG", "VTUI 281000Z 18008KT 9999 FEW040 35/19 Q1005 NOSIG", "VTUK 281000Z 08004KT 050V130 9999 FEW030 36/22 Q1006 NOSIG", "VTUL 281000Z 29005KT 240V010 9999 FEW030 36/22 Q1005 NOSIG", "VTUO 281000Z VRB02KT 8000 TS VCSH FEW020CB SCT040 BKN080 34/21 Q1006 TEMPO FM1020 TL1040 4000 TSRA", "VTUQ 281000Z 17007KT 140V210 9999 FEW035 SCT100 32/22 Q1007 NOSIG", "VTUU 281000Z 21004KT 150V250 9000 FEW045 36/23 Q1005 NOSIG", "VTUV 281000Z 09010KT 060V120 8000 VCSH FEW025TCU 34/22 Q1005 NOSIG", "VTUW 281000Z 20007KT 8000 FEW030 36/21 Q1005 NOSIG", "VVCI 281030Z 13007KT 9999 BKN045 27/23 Q1008 NOSIG", "VVCR 281030Z 07010KT 9999 SCT015 29/25 Q1009 NOSIG", "VVCT 281030Z 11005KT 9999 FEW017 31/22 Q1006 NOSIG", "VVDN 281030Z 12006KT 080V150 9999 FEW015 28/22 Q1009 NOSIG", "VVNB 281000Z 13011KT 9999 FEW021 SCT025 29/24 Q1007 NOSIG", "VVPB 281030Z 10006KT 9999 FEW017 SCT070 29/25 Q1008 NOSIG", "VVPQ 281030Z VRB02KT 9999 FEW017 32/22 Q1006 NOSIG", "VVTS 281030Z 28004KT 9000 SCT017 FEW020CB 29/26 Q1007 NOSIG", "VVVD 281000Z 17003KT 110V200 9999 SCT025 BKN036 28/24 Q1008 NOSIG", "VYMD 281030Z 14003KT 7000 HZ SCT025 SCT120 40/18 Q1003", "VYNT 281000Z 15005KT 7000 FEW024 38/22 Q1005 NOSIG", "VYYY 281030Z 21007KT 7000 FEW020 38/23 Q1005 NOSIG", "WAAA 281000Z 12003KT 9000 SCT019 27/27 Q1007 NOSIG", "WABB 281000Z VRB02KT 9999 FEW018 26/25 Q1007 NOSIG", "WADD 281000Z 13010KT 9999 SCT015 29/26 Q1007 NOSIG", "WADL 281030Z 31002KT 7000 FEW015CB BKN016 26/25 Q1008 NOSIG RMK CB TO N UNTIL E", "WAHS 281000Z 31005KT 8000 FEW013CB SCT014 31/25 Q1006 NOSIG RMK CB TO S", "WAJJ 281030Z 17002KT 9999 FEW013 28/24 Q1006 NOSIG", "WALL 281000Z 07009KT 050V120 9999 FEW020 30/25 Q1005 NOSIG", "WAMM 281030Z VRB01KT 9999 SCT019 25/25 Q1008 NOSIG", "WAOO 281000Z 20004KT 9999 FEW020 26/25 Q1005", "WAPP 281000Z 02004KT 9999 SCT017 26/25 Q1007 NOSIG", "WARR 281000Z 02005KT 9999 FEW020 29/25 Q1006 NOSIG", "WATT 281000Z 01002KT 9999 FEW018 26/25 Q1009 NOSIG", "WBGB 281000Z 00000KT 9999 FEW016 25/24 Q1007 RETS", "WBGG 281000Z 03004KT 340V100 9999 FEW015CB 30/24 Q1007 NOSIG", "WBGR 281000Z 32006KT 260V010 9999 FEW015CB SCT016 30/26 Q1006", "WBGS 281000Z VRB02KT 9999 SCT018 26/25 Q1007", "WBGY 281000Z 00000KT 9999 FEW015CB SCT020 25/25 Q1007", "WBKK 281015Z 07011G21KT 010V120 1500 +TSRA FEW010 SCT013 FEW015CB 28/26 Q1006 NOSIG", "WBKL 281000Z 36005KT 280V050 9999 FEW016 30/25 Q1005", "WBKS 281000Z 05007KT 9999 FEW016 30/26 Q1006", "WBKT 281000Z 07007KT 010V120 9999 FEW015 30/26 Q1006", "WBKW 281000Z VRB02KT 9999 FEW017 30/26 Q1006", "WBSB 281000Z 33006KT 9999 TS FEW015 FEW016CB BKN280 31/27 Q1006 NOSIG", "WIBB 281000Z 02007KT 9000 FEW016 FEW017CB 32/26 Q1004 NOSIG RMK CB TO NE AND NW", "WIDD 281000Z 34003KT 9999 FEW014 29/24 Q1007 NOSIG", "WIDN 281000Z 03006KT 9999 FEW017 28/27 Q1006 NOSIG", "WIEE 281000Z 36005KT 230V040 0400 R33/1800 +RA BKN012 26/25 Q1007 TEMPO 0800 RA", "WIHH 281000Z 27003KT 6000 SCT018 30/25 Q1005 NOSIG METAR WIMM NIL", "WIII 281030Z 35004KT 8000 FEW020 30/25 Q1006 NOSIG", "WILL 281000Z 13008KT 9999 BKN015 32/23 Q1006", "WIMM 281000Z 03005KT 9999 SCT018 30/23 Q1006 NOSIG", "WIOO 281000Z 28006KT 9999 SCT012 29/25 Q1006 NOSIG", "WIPP 281000Z VRB02KT 9999 FEW010CB FEW000 32/25 Q1005 CB TO NWNOSIG", "WMAU 281000Z VRB02KT 9999 FEW020 30/26 Q1006", "WMBA 281000Z VRB04KT 6000 -TSRA FEW017CB SCT031 30/26 Q1006", "WMKA 281000Z 26007KT 220V300 9000 TS FEW017CB 31/25 Q1005", "WMKB 281000Z 29007KT 250V340 8000 TS VCSH FEW017CB 31/26 Q1005 TEMPO 7000 -TSRA", "WMKC 281000Z 06009KT 020V120 9999 FEW017CB 31/26 Q1006", "WMKD 281000Z 08004KT 010V140 9999 FEW017CB 32/26 Q1006 NOSIG", "WMKE 281000Z 06004KT 340V150 9999 FEW017 31/26 Q1006", "WMKI 281000Z 19005KT 130V240 9000 FEW017CB SCT026 28/26 Q1007", "WMKJ 281000Z 00000KT 9999 FEW018 27/25 Q1006", "WMKK 281000Z 02004KT 340V060 8000 VCSH FEW010 SCT030 26/24 Q1007 NOSIG", "WMKL 281000Z VRB03KT 9999 FEW017CB 31/26 Q1005", "WMKM 281000Z VRB01KT 7000 -TSRA FEW010 FEW016CB SCT025 25/24 Q1008 RETSRA", "WMKN 281000Z VRB04KT 9999 FEW018 31/26 Q1006", "WMKP 281000Z 26006KT 210V340 9999 TS FEW017CB 31/26 Q1005 NOSIG", "WMSA 281000Z 00000KT 9999 FEW026 26/24 Q1008", "WSAP 281000Z 36004KT 9999 FEW016 SCT270 29/23 Q1006", "WSSL 281000Z VRB02KT 9999 FEW020 SCT200 28/25 Q1006", "WSSS 281030Z VRB02KT 9999 FEW016 BKN160 28/25 Q1006 NOSIG", "YAMB 281030Z AUTO 08003KT 9999 // NCD 18/15 Q1016 RF00.0/000.0", "YBAS 281030Z AUTO /////KT 9999 // OVC110 21/09 Q1017 RF00.0/000.0", "YBBN 281030Z 15004KT 9999 FEW030 18/15 Q1016", "YBCG 281030Z AUTO 20001KT 9999 // SCT032 17/15 Q1017 RF00.0/000.2", "YBCS 281030Z AUTO 17005KT 9999 // NCD 24/20 Q1012 RF00.0/000.0", "YBHM 281030Z AUTO 13015KT 9999 // BKN072 24/20 Q1013 RF00.0/000.0", "YBLN 281030Z AUTO 18008KT 9999 // NCD 13/08 Q1028 RF00.0/000.0", "YBMA 281030Z AUTO 00000KT 9999 // SCT083 22/12 Q1013 RF00.0/000.0", "YBRK 281030Z AUTO 16004KT 9999 // SCT021 22/18 Q1015 RF00.0/000.0", "YBRM 281030Z AUTO 28006KT 9999 // NCD 28/23 Q1011 RF00.0/000.0", "YBSU 281030Z AUTO 22005KT 9999 // SCT029 SCT032 SCT057 19/16 Q1016", "YBTL 281030Z AUTO 11004KT 9999 // SCT051 24/20 Q1013 RF00.0/000.0", "YBWW 281030Z AUTO 32005KT 9999 // NCD 15/13 Q1017 RF00.0/000.0", "YCFS 281030Z AUTO 32010KT 9999 // NCD 18/15 Q1017 RF00.0/000.0", "YCIN 281030Z AUTO 29004KT 9999 // NCD 27/21 Q1010 RF00.0/000.0", "YFRT 281030Z AUTO 21011KT 9999 // NCD 14/06 Q1023 RF00.0/000.0", "YGEL 281030Z AUTO 13011KT 9999 // NCD 19/01 Q1022 RF00.0/000.0", "YGLA 281030Z AUTO 15005KT 9999 // NCD 22/16 Q1015 RF00.0/000.0", "YHID 281030Z AUTO 16010KT 9999 // SCT015 BKN043 OVC061 27/25 Q1009", "YLHI 281030Z AUTO 09009KT 9999 // BKN031 19/13 Q1019 RF00.0/000.0", "YMAV 281030Z AUTO 30004KT 9999 // BKN059 BKN073 OVC091 13/10 Q1012", "YMHB 281030Z 31006KT 9999 FEW055 11/03 Q1006", "YMLT 281030Z AUTO 33010KT 9999 // NCD 07/01 Q1008 RF00.0/000.2", "YMML 281030Z 33004KT 9999 FEW010 SCT052 BKN079 12/11 Q1012 RF00.0/004.6", "YPAD 281030Z 24011KT 9999 -SHRA FEW020 SCT035 BKN048 13/10 Q1015", "YPCC 281030Z AUTO 10007KT 080V140 7000 -RA SCT030 SCT073 BKN083 28/26 Q1008", "YPDN 281030Z 36003KT 9999 FEW025 28/22 Q1009", "YPEA 281030Z AUTO 11006KT 9999 // NCD 16/06 Q1026 RF00.0/000.0", "YPGV 281030Z AUTO 13005KT 9999 // NCD 26/24 Q1009 RF00.0////./", "YPJT 281030Z AUTO 15007KT 9999 // NCD 15/07 Q1027 RF00.0/000.0", "YPKG 281030Z AUTO 15005KT 9999 // SCT060 14/03 Q1025 RF00.0/000.0", "YPKU 281030Z AUTO 00000KT 9999 // ////// 26/22 Q1009 RF00.0/000.0", "YPLM 281030Z AUTO 32007KT 9999 // NCD 29/01 Q1013 RF00.0/000.0", "YPPD 281030Z AUTO 15007KT 9999 // NCD 30/10 Q1013 RF00.0/000.0", "YPPH 281030Z 15009KT CAVOK 16/06 Q1026", "YPTN 281030Z AUTO 13004KT 110V190 9999 // NCD 26/18 Q1010 RF00.0/000.0", "YPWR 281030Z AUTO 24007KT 9999 // BKN063 OVC091 14/13 Q1017", "YPXM 280930Z AUTO /////KT //// // ////// ///// Q//// RF//./////./ DL-SE/DL-S", "YSCB 281030Z AUTO 04008KT 9999 -RA ////// 13/13 Q1014 RERA RF00.0/004.6", "YSDU 281030Z AUTO 03008KT 9999 // NCD 18/10 Q1012 RF00.0/000.0", "YSNF 281035Z AUTO 10014KT 9999 -SHRA BKN015 OVC115 19/18 Q1013", "YSRI 281030Z AUTO 04006KT 9999 // NCD 18/15 Q1011 RF00.0/000.0", "YSSY 281030Z 02015KT CAVOK 23/17 Q1011", "YSTW 281030Z AUTO 00000KT 9999 // SCT089 15/11 Q1015 RF00.0/000.0", "YWLM 281030Z AUTO 03007KT 9999 // NCD 20/16 Q1013 RF00.0/000.0", "ZBAA 281030Z 31008MPS 6000 TSRA FEW040 BKN040CB 12/08 Q1012 NOSIG", "ZBAD 281030Z 35007MPS CAVOK 13/09 Q1010 RETS NOSIG", "ZBHH 281000Z VRB03MPS 9999 SCT040 06/M06 Q1019 NOSIG", "ZBSJ 281000Z 30014G21MPS 7000 NSC 18/00 Q1012 NOSIG", "ZBTJ 281030Z 22003MPS 200V260 CAVOK 19/12 Q1008 NOSIG", "ZBYN 281030Z 32010G15MPS 290V350 9999 SCT033 10/M06 Q1019 NOSIG", "ZGGG 281030Z 13003MPS 9999 BKN050 28/23 Q1010 NOSIG", "ZGHA 281000Z 34003MPS 3500 -SHRA BR SCT007 OVC050 20/19 Q1012 NOSIG", "ZGKL 281000Z 35002MPS 2200 -RA BR FEW004 SCT023 OVC033 21/21 Q1009 BECMG FM1130 1400", "ZGNN 281000Z 15005MPS 9999 FEW015 BKN040 27/23 Q1008 NOSIG", "ZGOW 281000Z 18005MPS CAVOK 27/21 Q1011 BECMG AT1130 25003MPS", "ZGSZ 281000Z 21005MPS CAVOK 26/23 Q1011 NOSIG", "ZHCC 281000Z 25003MPS CAVOK 21/08 Q1013 NOSIG", "ZHHH 281000Z 36003MPS 300V040 7000 -RA FEW015 20/16 Q1013 NOSIG", "ZJHK 281000Z 13005MPS 100V160 9999 SCT026 29/23 Q1009 NOSIG", "ZJSY 281000Z 15004MPS 120V180 9999 SCT023 29/25 Q1009 BECMG AT1150 08005MPS", "ZLLL 281000Z 03010MPS 350V050 CAVOK 11/M14 Q1024 BECMG TL1140 03004MPS", "ZLXY 281000Z 32003MPS 8000 NSC 19/M07 Q1021 NOSIG", "ZMCK 281030Z 30009MPS 9999 SCT100 07/M12 Q1012 NOSIG RMK QFE644.4 25 MOP", "ZMUB 281000Z 31006MPS 220V020 9999 SCT100 08/M13 Q1013 NOSIG RMK QFE652.5 21 MOP", "ZPPP 281000Z 26002MPS 200V340 9999 FEW026TCU SCT026 18/11 Q1018 RETS NOSIG", "ZSAM 281000Z 13004MPS 090V150 8000 NSC 24/18 Q1012 NOSIG", "ZSFZ 281000Z 08002MPS CAVOK 20/18 Q1013 NOSIG", "ZSHC 281030Z 22002MPS CAVOK 23/17 Q1011 NOSIG", "ZSNB 281000Z 14002MPS 110V170 CAVOK 24/17 Q1011 NOSIG", "ZSNJ 281000Z 26002MPS CAVOK 23/17 Q1010 NOSIG", "ZSOF 281000Z 29002MPS CAVOK 22/15 Q1011 NOSIG", "ZSPD 281030Z 18004MPS CAVOK 21/16 Q1011 NOSIG", "ZSQD 281000Z VRB01MPS 5000 BR BKN050 18/13 Q1009 NOSIG", "ZSSS 281030Z 23003MPS 110V280 CAVOK 25/14 Q1011 NOSIG", "ZUCK 281000Z 03007MPS 7000 -RA FEW015 SCT020 OVC040 18/16 Q1014 NOSIG", "ZUGY 281000Z 02005MPS 8000 -TSRA FEW010 BKN016 FEW023CB OVC030 18/15 Q1014 NOSIG", "ZUTF 281000Z 32003MPS 300V020 9999 -SHRA FEW050 15/11 Q1017 NOSIG", "ZUUU 281000Z 01002MPS 320V050 9999 -SHRA SCT050 15/11 Q1018 NOSIG", "ZWSH 281000Z 11002MPS 070V150 8000 BKN040 19/M04 Q1022 NOSIG", "ZWWW 281030Z 01004MPS 340V040 CAVOK 25/M08 Q1017 NOSIG", "ZYCC 281000Z 25002MPS 9999 FEW030 10/05 Q1010 NOSIG", "ZYHB 281000Z 19005G10MPS 160V220 9999 SCT046 11/08 Q1009 NOSIG", "ZYTL 281030Z 34002MPS 5000 BR SCT033 13/09 Q1009 NOSIG", "ZYTX 281030Z VRB01MPS 9999 OVC030 11/07 Q1011 NOSIG"]}